Time_recorded,METAR,is_cavok,wind_speed,is_gust,visibility_meters,has_thunderstorm,has_heavy_rain,has_low_vis_fog,other_phenomenon
2026-05-02 15:30:00,METAR VVPQ 021530Z VRB01KT 9999 FEW015 27/27 Q1010 NOSIG,0,1,0,10000,0,0,0,
2026-05-02 15:00:00,METAR VVPQ 021500Z VRB01KT 9999 FEW015 27/27 Q1010 NOSIG,0,1,0,10000,0,0,0,
2026-05-02 14:30:00,METAR VVPQ 021430Z 07002KT 9999 FEW015 27/27 Q1010 NOSIG,0,2,0,10000,0,0,0,
2026-05-02 14:00:00,METAR VVPQ 021400Z 04004KT 9999 FEW015 27/27 Q1009 NOSIG,0,4,0,10000,0,0,0,
2026-05-02 13:30:00,METAR VVPQ 021330Z 04002KT 9999 FEW015 28/27 Q1009 NOSIG,0,2,0,10000,0,0,0,
2026-05-02 13:00:00,METAR VVPQ 021300Z 10003KT 9999 FEW015 28/27 Q1009 NOSIG,0,3,0,10000,0,0,0,
2026-05-02 12:30:00,METAR VVPQ 021230Z 10003KT 9999 SCT015 SCT040 28/27 Q1008 NOSIG,0,3,0,10000,0,0,0,
2026-05-02 12:00:00,METAR VVPQ 021200Z VRB01KT 9999 SCT015 SCT040 28/27 Q1008 NOSIG,0,1,0,10000,0,0,0,
2026-05-02 11:30:00,METAR VVPQ 021130Z VRB01KT 9999 SCT015 SCT040 29/28 Q1007 NOSIG,0,1,0,10000,0,0,0,
2026-05-02 11:00:00,METAR VVPQ 021100Z 13003KT 9999 SCT015 SCT040 30/27 Q1007 NOSIG,0,3,0,10000,0,0,0,
2026-05-02 10:30:00,METAR VVPQ 021030Z 13003KT 9999 SCT015 SCT040 30/27 Q1007 NOSIG,0,3,0,10000,0,0,0,
2026-05-02 10:00:00,METAR VVPQ 021000Z 12006KT 9999 SCT015 SCT040 30/27 Q1007 NOSIG,0,6,0,10000,0,0,0,
2026-05-02 09:30:00,METAR VVPQ 020930Z 13007KT 9999 SCT015 31/28 Q1006 NOSIG,0,7,0,10000,0,0,0,
2026-05-02 09:00:00,METAR VVPQ 020900Z 12004KT 9999 SCT015 32/27 Q1007 NOSIG,0,4,0,10000,0,0,0,
2026-05-02 08:30:00,METAR VVPQ 020830Z 15006KT 9999 SCT015 32/27 Q1007 NOSIG,0,6,0,10000,0,0,0,
2026-05-02 08:00:00,METAR VVPQ 020800Z 15006KT 9999 SCT015 32/27 Q1007 NOSIG,0,6,0,10000,0,0,0,
2026-05-02 07:30:00,METAR VVPQ 020730Z 13005KT 9999 SCT015 32/27 Q1008 NOSIG,0,5,0,10000,0,0,0,
2026-05-02 07:00:00,METAR VVPQ 020700Z 12004KT 9999 SCT015 31/28 Q1008 NOSIG,0,4,0,10000,0,0,0,
2026-05-02 06:30:00,METAR VVPQ 020630Z VRB01KT 9999 SCT015 31/28 Q1009 NOSIG,0,1,0,10000,0,0,0,
2026-05-02 06:00:00,METAR VVPQ 020600Z VRB01KT 9999 SCT015 30/27 Q1009 NOSIG,0,1,0,10000,0,0,0,
2026-05-02 05:30:00,METAR VVPQ 020530Z VRB02KT 9999 SCT015 SCT040 29/26 Q1010 NOSIG,0,2,0,10000,0,0,0,
2026-05-02 05:00:00,METAR VVPQ 020500Z 12003KT 9000 -RA SCT015 SCT040 27/26 Q1010 NOSIG,0,3,0,9000,0,0,0,-RA
2026-05-02 04:30:00,METAR VVPQ 020430Z 09004KT 8000 -RA SCT015 FEW017CB SCT040 26/25 Q1011 NOSIG,0,4,0,8000,0,0,0,-RA
2026-05-02 04:00:00,METAR VVPQ 020400Z 13009KT 6000 TSRA SCT015 FEW017CB SCT040 26/26 Q1012 TEMPO TL0430 3000 TSRA,0,9,0,6000,1,0,0,"RA,TS"
2026-05-02 03:30:00,METAR VVPQ 020330Z 10004KT 9000 -RA SCT015 FEW017CB 27/26 Q1011 NOSIG,0,4,0,9000,0,0,0,-RA
2026-05-02 03:00:00,METAR VVPQ 020300Z 01006KT 320V070 8000 SHRA SCT015 FEW017CB 28/27 Q1011 NOSIG,0,6,0,8000,0,0,0,"RA,SH"
2026-05-02 02:30:00,METAR VVPQ 020230Z 11010KT 9999 SCT015 FEW017CB 30/27 Q1011 NOSIG,0,10,0,10000,0,0,0,
2026-05-02 02:00:00,METAR VVPQ 020200Z 11009KT 9999 SCT015 FEW017CB 31/27 Q1011 NOSIG,0,9,0,10000,0,0,0,
2026-05-02 01:30:00,METAR VVPQ 020130Z 11008KT 9999 SCT015 FEW017CB 31/27 Q1011 NOSIG,0,8,0,10000,0,0,0,
2026-05-02 01:00:00,METAR VVPQ 020100Z 11006KT 9999 SCT015 31/27 Q1011 NOSIG,0,6,0,10000,0,0,0,
2026-05-02 00:30:00,METAR VVPQ 020030Z VRB02KT 9999 SCT015 30/28 Q1010 NOSIG,0,2,0,10000,0,0,0,
2026-05-02 00:00:00,METAR VVPQ 020000Z VRB01KT 9999 SCT015 30/27 Q1010 NOSIG,0,1,0,10000,0,0,0,
2026-05-01 23:30:00,METAR VVPQ 012330Z VRB01KT 9999 SCT015 29/27 Q1010 NOSIG,0,1,0,10000,0,0,0,
2026-05-01 23:00:00,METAR VVPQ 012300Z VRB01KT 9999 SCT015 28/27 Q1009 NOSIG,0,1,0,10000,0,0,0,
2026-05-01 22:30:00,METAR VVPQ 012230Z VRB02KT 9999 SCT015 29/27 Q1009 NOSIG,0,2,0,10000,0,0,0,
2026-05-01 22:00:00,METAR VVPQ 012200Z 10004KT 9999 SCT015 29/27 Q1008 NOSIG,0,4,0,10000,0,0,0,
2026-05-01 21:30:00,METAR VVPQ 012130Z 11008KT 9999 SCT015 29/27 Q1008 NOSIG,0,8,0,10000,0,0,0,
2026-05-01 21:00:00,METAR VVPQ 012100Z 11007KT 9999 SCT015 29/27 Q1008 NOSIG,0,7,0,10000,0,0,0,
2026-05-01 20:30:00,METAR VVPQ 012030Z 12007KT 9999 SCT015 29/27 Q1009 NOSIG,0,7,0,10000,0,0,0,
2026-05-01 20:00:00,METAR VVPQ 012000Z 11009KT 9999 SCT015 29/27 Q1009 NOSIG,0,9,0,10000,0,0,0,
2026-05-01 19:30:00,METAR VVPQ 011930Z 13004KT 9999 SCT015 FEW017CB 29/27 Q1009 NOSIG,0,4,0,10000,0,0,0,
2026-05-01 19:00:00,METAR VVPQ 011900Z VRB02KT 9999 SCT015 FEW017CB 29/27 Q1009 NOSIG,0,2,0,10000,0,0,0,
2026-05-01 18:30:00,METAR VVPQ 011830Z VRB02KT 9999 SCT015 FEW017CB 29/27 Q1009 NOSIG,0,2,0,10000,0,0,0,
2026-05-01 18:00:00,METAR VVPQ 011800Z VRB02KT 9999 SCT015 28/27 Q1009 NOSIG,0,2,0,10000,0,0,0,
2026-05-01 17:30:00,METAR VVPQ 011730Z VRB02KT 9999 SCT015 28/27 Q1010 NOSIG,0,2,0,10000,0,0,0,
2026-05-01 17:00:00,METAR VVPQ 011700Z VRB01KT 9999 SCT015 28/27 Q1010 NOSIG,0,1,0,10000,0,0,0,
2026-05-01 16:30:00,METAR VVPQ 011630Z VRB01KT 9999 SCT015 28/27 Q1010 NOSIG,0,1,0,10000,0,0,0,
2026-05-01 16:00:00,METAR VVPQ 011600Z VRB02KT 9999 SCT015 28/27 Q1011 NOSIG,0,2,0,10000,0,0,0,
2026-05-01 15:30:00,METAR VVPQ 011530Z VRB01KT 9999 SCT015 28/27 Q1010 NOSIG,0,1,0,10000,0,0,0,
2026-05-01 15:00:00,METAR VVPQ 011500Z 09003KT 9999 SCT015 28/27 Q1010 NOSIG,0,3,0,10000,0,0,0,
2026-05-01 14:30:00,METAR VVPQ 011430Z 12005KT 9999 SCT015 28/27 Q1010 NOSIG,0,5,0,10000,0,0,0,
2026-05-01 14:00:00,METAR VVPQ 011400Z 18002KT 9999 SCT015 29/27 Q1010 NOSIG,0,2,0,10000,0,0,0,
2026-05-01 13:30:00,METAR VVPQ 011330Z 17004KT 9999 SCT015 29/26 Q1009 NOSIG,0,4,0,10000,0,0,0,
2026-05-01 13:00:00,METAR VVPQ 011300Z 16003KT 9999 SCT015 29/26 Q1009 NOSIG,0,3,0,10000,0,0,0,
2026-05-01 12:30:00,METAR VVPQ 011230Z VRB02KT 9999 SCT015 30/25 Q1008 NOSIG,0,2,0,10000,0,0,0,
2026-05-01 12:00:00,METAR VVPQ 011200Z VRB02KT 9999 SCT015 30/26 Q1008 NOSIG,0,2,0,10000,0,0,0,
2026-05-01 11:30:00,METAR VVPQ 011130Z 16006KT 9999 SCT015 FEW017CB 30/27 Q1008 NOSIG,0,6,0,10000,0,0,0,
2026-05-01 11:00:00,METAR VVPQ 011100Z 18007KT 9999 SCT015 FEW017CB 31/27 Q1007 NOSIG,0,7,0,10000,0,0,0,
2026-05-01 10:30:00,METAR VVPQ 011030Z 18007KT 9999 FEW015 32/27 Q1007 NOSIG,0,7,0,10000,0,0,0,
2026-05-01 10:00:00,METAR VVPQ 011000Z 16006KT 9999 FEW015 33/26 Q1007 NOSIG,0,6,0,10000,0,0,0,
2026-05-01 09:30:00,METAR VVPQ 010930Z 13006KT 9999 FEW015 33/26 Q1007 NOSIG,0,6,0,10000,0,0,0,
2026-05-01 09:00:00,METAR VVPQ 010900Z 10005KT 9999 FEW015 32/26 Q1007 NOSIG,0,5,0,10000,0,0,0,
2026-05-01 08:30:00,METAR VVPQ 010830Z 10005KT 9999 FEW015 SCT040 33/27 Q1007 NOSIG,0,5,0,10000,0,0,0,
2026-05-01 08:00:00,METAR VVPQ 010800Z 11007KT 9999 FEW015 SCT040 34/26 Q1008 NOSIG,0,7,0,10000,0,0,0,
2026-05-01 07:30:00,METAR VVPQ 010730Z 11006KT 9999 FEW015 SCT040 33/26 Q1008 NOSIG,0,6,0,10000,0,0,0,
2026-05-01 07:00:00,METAR VVPQ 010700Z 12008KT 9999 SCT015 SCT040 33/26 Q1009 NOSIG,0,8,0,10000,0,0,0,
2026-05-01 06:30:00,METAR VVPQ 010630Z 08011KT 9999 SCT015 SCT040 33/26 Q1009 NOSIG,0,11,0,10000,0,0,0,
2026-05-01 06:00:00,METAR VVPQ 010600Z 10009KT 9999 SCT015 SCT040 33/26 Q1010 NOSIG,0,9,0,10000,0,0,0,
2026-05-01 05:30:00,METAR VVPQ 010530Z 10009KT 9999 SCT015 SCT040 33/26 Q1010 NOSIG,0,9,0,10000,0,0,0,
2026-05-01 05:00:00,METAR VVPQ 010500Z 07011KT 9999 SCT015 SCT040 33/27 Q1011 NOSIG,0,11,0,10000,0,0,0,
2026-05-01 04:30:00,METAR VVPQ 010430Z 10011KT 9999 SCT015 SCT040 32/27 Q1011 NOSIG,0,11,0,10000,0,0,0,
2026-05-01 04:00:00,METAR VVPQ 010400Z 07011KT 9999 SCT015 SCT040 31/27 Q1012 NOSIG,0,11,0,10000,0,0,0,
2026-05-01 03:30:00,METAR VVPQ 010330Z 07011KT 9999 SCT015 SCT040 31/27 Q1012 NOSIG,0,11,0,10000,0,0,0,
2026-05-01 03:00:00,METAR VVPQ 010300Z 07008KT 9999 SCT015 SCT040 32/27 Q1012 NOSIG,0,8,0,10000,0,0,0,
2026-05-01 02:30:00,METAR VVPQ 010230Z 08009KT 9999 SCT015 SCT040 31/26 Q1012 NOSIG,0,9,0,10000,0,0,0,
2026-05-01 02:00:00,METAR VVPQ 010200Z 10010KT 9999 SCT015 SCT040 31/26 Q1012 NOSIG,0,10,0,10000,0,0,0,
2026-05-01 01:30:00,METAR VVPQ 010130Z 07004KT 9999 SCT015 SCT040 30/28 Q1011 NOSIG,0,4,0,10000,0,0,0,
2026-05-01 01:00:00,METAR VVPQ 010100Z 04004KT 9999 SCT015 SCT040 29/27 Q1011 NOSIG,0,4,0,10000,0,0,0,
2026-05-01 00:30:00,METAR VVPQ 010030Z 04003KT 9999 SCT015 FEW017CB 29/27 Q1011 NOSIG,0,3,0,10000,0,0,0,
2026-05-01 00:00:00,METAR VVPQ 010000Z 07003KT 9999 SCT015 FEW017CB 29/27 Q1011 NOSIG,0,3,0,10000,0,0,0,
2026-04-30 23:30:00,METAR VVPQ 302330Z 09002KT 9999 SCT015 27/25 Q1010 NOSIG,0,2,0,10000,0,0,0,
2026-04-30 23:00:00,METAR VVPQ 302300Z 36007KT 9999 SCT015 26/25 Q1010 NOSIG,0,7,0,10000,0,0,0,
2026-04-30 22:30:00,METAR VVPQ 302230Z 06005KT 9999 SCT015 27/26 Q1010 NOSIG,0,5,0,10000,0,0,0,
2026-04-30 21:30:00,METAR VVPQ 302130Z 06004KT 9999 FEW015 27/26 Q1009 NOSIG,0,4,0,10000,0,0,0,
2026-04-30 21:00:00,METAR VVPQ 302100Z 06003KT 9999 FEW015 27/26 Q1009 NOSIG,0,3,0,10000,0,0,0,
2026-04-30 20:30:00,METAR VVPQ 302030Z 06003KT 9999 FEW015 27/26 Q1009 NOSIG,0,3,0,10000,0,0,0,
2026-04-30 20:00:00,METAR VVPQ 302000Z 06003KT 9999 FEW015 27/26 Q1009 NOSIG,0,3,0,10000,0,0,0,
2026-04-30 19:30:00,METAR VVPQ 301930Z 02002KT 9999 FEW015 27/26 Q1010 NOSIG,0,2,0,10000,0,0,0,
2026-04-30 19:00:00,METAR VVPQ 301900Z 02002KT 9999 FEW015 27/26 Q1010 NOSIG,0,2,0,10000,0,0,0,
2026-04-30 18:30:00,METAR VVPQ 301830Z 02002KT 9999 FEW015 27/26 Q1010 NOSIG,0,2,0,10000,0,0,0,
2026-04-30 18:00:00,METAR VVPQ 301800Z 10003KT 9999 FEW015 27/26 Q1010 NOSIG,0,3,0,10000,0,0,0,
2026-04-30 17:30:00,METAR VVPQ 301730Z 03003KT 9999 FEW015 28/27 Q1011 NOSIG,0,3,0,10000,0,0,0,
2026-04-30 17:00:00,METAR VVPQ 301700Z 03003KT 9999 FEW015 28/27 Q1011 NOSIG,0,3,0,10000,0,0,0,
2026-04-30 16:30:00,METAR VVPQ 301630Z 06003KT 9999 FEW015 28/27 Q1011 NOSIG,0,3,0,10000,0,0,0,
2026-04-30 16:00:00,METAR VVPQ 301600Z 06003KT 9999 FEW015 29/27 Q1011 NOSIG,0,3,0,10000,0,0,0,
2026-04-30 15:00:00,METAR VVPQ 301500Z 06003KT 9999 FEW015 29/27 Q1011 NOSIG,0,3,0,10000,0,0,0,
2026-04-30 14:30:00,METAR VVPQ 301430Z 01002KT 9999 FEW015 29/27 Q1011 NOSIG,0,2,0,10000,0,0,0,
2026-04-30 14:00:00,METAR VVPQ 301400Z 04002KT 9999 FEW015 29/27 Q1010 NOSIG,0,2,0,10000,0,0,0,
2026-04-30 13:30:00,METAR VVPQ 301330Z VRB01KT 9999 FEW015 29/27 Q1010 NOSIG,0,1,0,10000,0,0,0,
2026-04-30 13:00:00,METAR VVPQ 301300Z VRB02KT 9999 FEW015 29/27 Q1010 NOSIG,0,2,0,10000,0,0,0,
2026-04-30 12:30:00,METAR VVPQ 301230Z 21003KT 140V230 9999 FEW015 30/27 Q1009 NOSIG,0,3,0,10000,0,0,0,
2026-04-30 12:00:00,METAR VVPQ 301200Z 22003KT 180V240 9999 FEW015 30/27 Q1008 NOSIG,0,3,0,10000,0,0,0,
2026-04-30 11:30:00,METAR VVPQ 301130Z 21004KT 170V250 9999 FEW015 30/27 Q1008 NOSIG,0,4,0,10000,0,0,0,
2026-04-30 11:00:00,METAR VVPQ 301100Z 20006KT 9999 FEW015 31/26 Q1008 NOSIG,0,6,0,10000,0,0,0,
2026-04-30 10:30:00,METAR VVPQ 301030Z 21007KT CAVOK 31/27 Q1008 NOSIG,1,0,0,9999,0,0,0,
2026-04-30 10:00:00,METAR VVPQ 301000Z 21008KT 110V260 9999 FEW015 32/27 Q1007 NOSIG,0,8,0,10000,0,0,0,
2026-04-30 09:30:00,METAR VVPQ 300930Z 21007KT 180V300 9999 FEW015 33/28 Q1007 NOSIG,0,7,0,10000,0,0,0,
2026-04-30 09:00:00,METAR VVPQ 300900Z 15003KT 090V240 9999 FEW015 33/26 Q1007 NOSIG,0,3,0,10000,0,0,0,
2026-04-30 08:30:00,METAR VVPQ 300830Z 13007KT 090V220 9999 FEW015 34/27 Q1007 NOSIG,0,7,0,10000,0,0,0,
2026-04-30 08:00:00,METAR VVPQ 300800Z 14008KT 090V260 9999 SCT015 34/27 Q1008 NOSIG,0,8,0,10000,0,0,0,
2026-04-30 07:30:00,METAR VVPQ 300730Z 13007KT 080V170 9999 SCT015 33/29 Q1008 NOSIG,0,7,0,10000,0,0,0,
2026-04-30 07:00:00,METAR VVPQ 300700Z 14005KT 9999 SCT015 31/28 Q1009 NOSIG,0,5,0,10000,0,0,0,
2026-04-30 06:30:00,METAR VVPQ 300630Z 17006KT 9999 SCT015 31/28 Q1010 NOSIG,0,6,0,10000,0,0,0,
2026-04-30 06:00:00,METAR VVPQ 300600Z 14006KT 9999 SCT015 FEW017CB 31/28 Q1010 NOSIG,0,6,0,10000,0,0,0,
2026-04-30 05:30:00,METAR VVPQ 300530Z 15008KT 9999 TS SCT015 FEW017CB 32/28 Q1011 NOSIG,0,8,0,10000,1,0,0,TS
2026-04-30 05:00:00,METAR VVPQ 300500Z 11010KT 9999 TS SCT015 FEW017CB 33/29 Q1011 NOSIG,0,10,0,10000,1,0,0,TS
2026-04-30 04:30:00,METAR VVPQ 300430Z 08011KT 9999 TS SCT015 FEW017CB 32/29 Q1011 NOSIG,0,11,0,10000,1,0,0,TS
2026-04-30 04:00:00,METAR VVPQ 300400Z 08009KT 9999 TS SCT015 FEW017CB 32/28 Q1011 NOSIG,0,9,0,10000,1,0,0,TS
2026-04-30 03:30:00,METAR VVPQ 300330Z 06004KT 9999 SCT015 FEW017CB 31/28 Q1011 NOSIG,0,4,0,10000,0,0,0,
2026-04-30 03:00:00,METAR VVPQ 300300Z 06004KT 9999 SCT015 31/28 Q1011 NOSIG,0,4,0,10000,0,0,0,
2026-04-30 02:30:00,METAR VVPQ 300230Z VRB02KT 9999 SCT015 31/27 Q1011 NOSIG,0,2,0,10000,0,0,0,
2026-04-30 02:00:00,METAR VVPQ 300200Z 33003KT 9999 SCT015 30/27 Q1012 NOSIG,0,3,0,10000,0,0,0,
2026-04-30 01:30:00,METAR VVPQ 300130Z 01004KT 9999 SCT015 29/27 Q1011 NOSIG,0,4,0,10000,0,0,0,
2026-04-30 01:00:00,METAR VVPQ 300100Z 35004KT 9999 SCT015 29/27 Q1011 NOSIG,0,4,0,10000,0,0,0,
2026-04-30 00:30:00,METAR VVPQ 300030Z 01003KT 9999 FEW015 28/26 Q1011 NOSIG,0,3,0,10000,0,0,0,
2026-04-30 00:00:00,METAR VVPQ 300000Z VRB02KT 9999 FEW015 28/26 Q1010 NOSIG,0,2,0,10000,0,0,0,
2026-04-29 23:30:00,METAR VVPQ 292330Z 00000KT 9999 FEW015 27/26 Q1010 NOSIG,0,0,0,10000,0,0,0,
2026-04-29 23:00:00,METAR VVPQ 292300Z 03002KT 9999 FEW015 26/26 Q1009 NOSIG,0,2,0,10000,0,0,0,
2026-04-29 22:30:00,METAR VVPQ 292230Z VRB01KT 9999 FEW015 26/26 Q1009 NOSIG,0,1,0,10000,0,0,0,
2026-04-29 22:00:00,METAR VVPQ 292200Z VRB01KT 9999 FEW015 27/26 Q1009 NOSIG,0,1,0,10000,0,0,0,
2026-04-29 21:30:00,METAR VVPQ 292130Z 08002KT 9999 FEW015 26/26 Q1008 NOSIG,0,2,0,10000,0,0,0,
2026-04-29 21:00:00,METAR VVPQ 292100Z VRB02KT 9999 FEW015 26/26 Q1008 NOSIG,0,2,0,10000,0,0,0,
2026-04-29 20:30:00,METAR VVPQ 292030Z VRB01KT 9999 FEW015 26/26 Q1008 NOSIG,0,1,0,10000,0,0,0,
2026-04-29 20:00:00,METAR VVPQ 292000Z 05003KT 9999 FEW015 26/26 Q1009 NOSIG,0,3,0,10000,0,0,0,
2026-04-29 19:30:00,METAR VVPQ 291930Z 05002KT 9999 FEW015 26/26 Q1009 NOSIG,0,2,0,10000,0,0,0,
2026-04-29 19:00:00,METAR VVPQ 291900Z VRB01KT 9999 FEW015 27/27 Q1010 NOSIG,0,1,0,10000,0,0,0,
2026-04-29 18:30:00,METAR VVPQ 291830Z VRB02KT 9999 FEW015 27/27 Q1010 NOSIG,0,2,0,10000,0,0,0,
2026-04-29 18:00:00,METAR VVPQ 291800Z VRB01KT 9999 FEW015 27/27 Q1010 NOSIG,0,1,0,10000,0,0,0,
2026-04-29 17:30:00,METAR VVPQ 291730Z 01002KT 9999 FEW015 27/27 Q1010 NOSIG,0,2,0,10000,0,0,0,
2026-04-29 17:00:00,METAR VVPQ 291700Z 35003KT 9999 FEW015 27/27 Q1011 NOSIG,0,3,0,10000,0,0,0,
2026-04-29 16:30:00,METAR VVPQ 291630Z 02003KT 9999 FEW015 27/27 Q1011 NOSIG,0,3,0,10000,0,0,0,
2026-04-29 16:00:00,METAR VVPQ 291600Z 00000KT 9999 FEW015 27/27 Q1010 NOSIG,0,0,0,10000,0,0,0,
2026-04-29 15:30:00,METAR VVPQ 291530Z 00000KT 9999 FEW015 27/27 Q1010 NOSIG,0,0,0,10000,0,0,0,
2026-04-29 15:00:00,METAR VVPQ 291500Z 36002KT 9999 FEW015 28/27 Q1010 NOSIG,0,2,0,10000,0,0,0,
2026-04-29 14:30:00,METAR VVPQ 291430Z VRB01KT 9999 FEW015 27/27 Q1010 NOSIG,0,1,0,10000,0,0,0,
2026-04-29 14:00:00,METAR VVPQ 291400Z VRB02KT 9999 FEW015 28/27 Q1010 NOSIG,0,2,0,10000,0,0,0,
2026-04-29 13:30:00,METAR VVPQ 291330Z VRB03KT 9999 FEW015 28/27 Q1009 NOSIG,0,3,0,10000,0,0,0,
2026-04-29 13:00:00,METAR VVPQ 291300Z VRB03KT 9999 FEW015 28/27 Q1009 NOSIG,0,3,0,10000,0,0,0,
2026-04-29 12:30:00,METAR VVPQ 291230Z 05003KT 9999 FEW015 28/27 Q1009 NOSIG,0,3,0,10000,0,0,0,
2026-04-29 12:00:00,METAR VVPQ 291200Z 25002KT 9999 FEW015 30/28 Q1008 NOSIG,0,2,0,10000,0,0,0,
2026-04-29 11:30:00,METAR VVPQ 291130Z 24004KT 9999 FEW015 30/28 Q1008 NOSIG,0,4,0,10000,0,0,0,
2026-04-29 11:00:00,METAR VVPQ 291100Z 21005KT 9999 FEW015 31/28 Q1008 NOSIG,0,5,0,10000,0,0,0,
2026-04-29 10:30:00,METAR VVPQ 291030Z 21006KT 9999 FEW015 31/28 Q1007 NOSIG,0,6,0,10000,0,0,0,
2026-04-29 10:00:00,METAR VVPQ 291000Z 21006KT 9999 FEW015 31/28 Q1007 NOSIG,0,6,0,10000,0,0,0,
2026-04-29 09:30:00,METAR VVPQ 290930Z 23008KT 190V350 9999 SCT015 32/28 Q1007 NOSIG,0,8,0,10000,0,0,0,
2026-04-29 09:00:00,METAR VVPQ 290900Z 24006KT 190V270 9999 SCT015 32/28 Q1007 NOSIG,0,6,0,10000,0,0,0,
2026-04-29 08:30:00,METAR VVPQ 290830Z 23008KT 210V270 9999 SCT015 33/28 Q1008 NOSIG,0,8,0,10000,0,0,0,
2026-04-29 08:00:00,METAR VVPQ 290800Z 24008KT 210V280 9999 SCT015 33/28 Q1008 NOSIG,0,8,0,10000,0,0,0,
2026-04-29 07:30:00,METAR VVPQ 290730Z 23008KT 180V270 9999 SCT015 33/28 Q1008 NOSIG,0,8,0,10000,0,0,0,
2026-04-29 07:00:00,METAR VVPQ 290700Z 24008KT 180V270 9999 SCT015 32/28 Q1009 NOSIG,0,8,0,10000,0,0,0,
2026-04-29 06:30:00,METAR VVPQ 290630Z 23007KT 190V280 9999 SCT015 31/28 Q1009 NOSIG,0,7,0,10000,0,0,0,
2026-04-29 06:00:00,METAR VVPQ 290600Z 23007KT 200V280 9999 SCT015 31/28 Q1010 NOSIG,0,7,0,10000,0,0,0,
2026-04-29 05:30:00,METAR VVPQ 290530Z 22008KT 200V260 9999 SCT015 33/28 Q1010 NOSIG,0,8,0,10000,0,0,0,
2026-04-29 05:00:00,METAR VVPQ 290500Z VRB04KT 9999 SCT015 32/28 Q1010 NOSIG,0,4,0,10000,0,0,0,
2026-04-29 04:30:00,METAR VVPQ 290430Z VRB04KT 9999 SCT015 33/28 Q1011 NOSIG,0,4,0,10000,0,0,0,
2026-04-29 04:00:00,METAR VVPQ 290400Z 14004KT 050V200 9999 SCT015 31/28 Q1011 NOSIG,0,4,0,10000,0,0,0,
2026-04-29 03:30:00,METAR VVPQ 290330Z VRB02KT 9999 SCT015 30/28 Q1012 NOSIG,0,2,0,10000,0,0,0,
2026-04-29 03:00:00,METAR VVPQ 290300Z 06005KT 9000 -RA BKN015 28/28 Q1012 NOSIG,0,5,0,9000,0,0,0,-RA
2026-04-29 02:30:00,METAR VVPQ 290230Z 02004KT 330V060 9000 -RA SCT015 29/28 Q1012 NOSIG,0,4,0,9000,0,0,0,-RA
2026-04-29 02:00:00,METAR VVPQ 290200Z 02003KT 340V050 9999 SCT015 30/28 Q1012 NOSIG,0,3,0,10000,0,0,0,
2026-04-29 01:30:00,METAR VVPQ 290130Z 02003KT 340V100 9000 SCT015 29/28 Q1012 NOSIG,0,3,0,9000,0,0,0,
2026-04-29 01:00:00,METAR VVPQ 290100Z VRB02KT 9000 SCT015 29/28 Q1011 NOSIG,0,2,0,9000,0,0,0,
2026-04-29 00:30:00,METAR VVPQ 290030Z VRB02KT 9000 SCT015 29/28 Q1011 NOSIG,0,2,0,9000,0,0,0,
2026-04-29 00:00:00,METAR VVPQ 290000Z 04003KT 9000 SCT015 28/27 Q1010 NOSIG,0,3,0,9000,0,0,0,
2026-04-28 23:30:00,METAR VVPQ 282330Z VRB01KT 9000 SCT015 27/26 Q1009 NOSIG,0,1,0,9000,0,0,0,
2026-04-28 23:00:00,METAR VVPQ 282300Z 07002KT 9000 SCT015 27/26 Q1009 NOSIG,0,2,0,9000,0,0,0,
2026-04-28 22:30:00,METAR VVPQ 282230Z 27003KT 9000 SCT015 27/26 Q1009 NOSIG,0,3,0,9000,0,0,0,
2026-04-28 22:00:00,METAR VVPQ 282200Z 07003KT 9000 SCT015 26/26 Q1008 NOSIG,0,3,0,9000,0,0,0,
2026-04-28 21:30:00,METAR VVPQ 282130Z 07002KT 9000 SCT015 26/26 Q1008 NOSIG,0,2,0,9000,0,0,0,
2026-04-28 21:00:00,METAR VVPQ 282100Z 04002KT 9000 SCT015 26/26 Q1008 NOSIG,0,2,0,9000,0,0,0,
2026-04-28 20:30:00,METAR VVPQ 282030Z 12004KT 9000 SCT015 26/26 Q1007 NOSIG,0,4,0,9000,0,0,0,
2026-04-28 20:00:00,METAR VVPQ 282000Z 10004KT 9000 SCT015 26/26 Q1008 NOSIG,0,4,0,9000,0,0,0,
2026-04-28 19:30:00,METAR VVPQ 281930Z 07003KT 9000 SCT015 26/26 Q1008 NOSIG,0,3,0,9000,0,0,0,
2026-04-28 19:00:00,METAR VVPQ 281900Z 07003KT 9000 SCT015 25/25 Q1008 NOSIG,0,3,0,9000,0,0,0,
2026-04-28 18:30:00,METAR VVPQ 281830Z 07003KT 9000 SCT015 26/25 Q1008 NOSIG,0,3,0,9000,0,0,0,
2026-04-28 18:00:00,METAR VVPQ 281800Z 11002KT 9000 SCT015 FEW017CB 26/25 Q1009 NOSIG,0,2,0,9000,0,0,0,
2026-04-28 17:30:00,METAR VVPQ 281730Z 21004KT 9000 SCT015 FEW017CB 26/26 Q1009 NOSIG,0,4,0,9000,0,0,0,
2026-04-28 17:00:00,METAR VVPQ 281700Z 21005KT 8000 -TSRA SCT015 FEW017CB 26/26 Q1010 NOSIG,0,5,0,8000,1,0,0,RA
2026-04-28 16:30:00,METAR VVPQ 281630Z 08007KT 9000 -TSRA SCT015 FEW017CB 28/26 Q1010 TEMPO TL1700 5000 TSRA,0,7,0,9000,1,0,0,"RA,TS"
2026-04-28 16:00:00,METAR VVPQ 281600Z 36002KT 9000 TS SCT015 FEW017CB 28/27 Q1010 NOSIG,0,2,0,9000,1,0,0,TS
2026-04-28 15:30:00,METAR VVPQ 281530Z 01001KT 9999 FEW017 28/27 Q1010 NOSIG,0,1,0,10000,0,0,0,
2026-04-28 14:30:00,METAR VVPQ 281430Z 24004KT 9999 SCT015 FEW017CB 28/27 Q1010 NOSIG,0,4,0,10000,0,0,0,
2026-04-28 14:00:00,METAR VVPQ 281400Z VRB01KT 9999 SCT015 FEW017CB 28/27 Q1009 NOSIG,0,1,0,10000,0,0,0,
2026-04-28 13:30:00,METAR VVPQ 281330Z VRB02KT 9999 FEW015 28/27 Q1009 NOSIG,0,2,0,10000,0,0,0,
2026-04-28 13:00:00,METAR VVPQ 281300Z VRB02KT 9999 FEW015 29/27 Q1009 NOSIG,0,2,0,10000,0,0,0,
2026-04-28 12:30:00,METAR VVPQ 281230Z VRB02KT 9999 FEW015 29/27 Q1008 NOSIG,0,2,0,10000,0,0,0,
2026-04-28 12:00:00,METAR VVPQ 281200Z 24003KT 9999 FEW015 30/27 Q1008 NOSIG,0,3,0,10000,0,0,0,
2026-04-28 11:30:00,METAR VVPQ 281130Z 25003KT 9999 FEW015 30/27 Q1007 NOSIG,0,3,0,10000,0,0,0,
2026-04-28 11:00:00,METAR VVPQ 281100Z 22005KT 9999 FEW015 31/26 Q1007 NOSIG,0,5,0,10000,0,0,0,
2026-04-28 10:30:00,METAR VVPQ 281030Z 23006KT 9999 FEW015 32/26 Q1006 NOSIG,0,6,0,10000,0,0,0,
2026-04-28 10:00:00,METAR VVPQ 281000Z 21008KT 9999 FEW015 32/27 Q1006 NOSIG,0,8,0,10000,0,0,0,
2026-04-28 09:30:00,METAR VVPQ 280930Z 22008KT 9999 FEW015 33/27 Q1006 NOSIG,0,8,0,10000,0,0,0,
2026-04-28 09:00:00,METAR VVPQ 280900Z 21009KT 9999 FEW015 33/27 Q1006 NOSIG,0,9,0,10000,0,0,0,
2026-04-28 08:30:00,METAR VVPQ 280830Z 17005KT 9999 FEW015 33/26 Q1007 NOSIG,0,5,0,10000,0,0,0,
2026-04-28 08:00:00,METAR VVPQ 280800Z 13006KT 9999 FEW015 33/27 Q1007 NOSIG,0,6,0,10000,0,0,0,
2026-04-28 07:30:00,METAR VVPQ 280730Z 10006KT 9999 FEW015 32/27 Q1007 NOSIG,0,6,0,10000,0,0,0,
2026-04-28 07:00:00,METAR VVPQ 280700Z 11008KT 9999 FEW015 33/26 Q1008 NOSIG,0,8,0,10000,0,0,0,
2026-04-28 06:30:00,METAR VVPQ 280630Z 10009KT 9999 FEW015 34/26 Q1008 NOSIG,0,9,0,10000,0,0,0,
2026-04-28 06:00:00,METAR VVPQ 280600Z 11009KT 9999 FEW015 34/26 Q1009 NOSIG,0,9,0,10000,0,0,0,
2026-04-28 05:30:00,METAR VVPQ 280530Z 09007KT 9999 FEW015 34/26 Q1009 NOSIG,0,7,0,10000,0,0,0,
2026-04-28 05:00:00,METAR VVPQ 280500Z 10008KT 9999 FEW015 34/26 Q1010 NOSIG,0,8,0,10000,0,0,0,
2026-04-28 04:30:00,METAR VVPQ 280430Z 09007KT 9999 FEW015 33/26 Q1010 NOSIG,0,7,0,10000,0,0,0,
2026-04-28 04:00:00,METAR VVPQ 280400Z 08005KT 9999 FEW015 33/26 Q1010 NOSIG,0,5,0,10000,0,0,0,
2026-04-28 03:30:00,METAR VVPQ 280330Z 11006KT 9999 SCT015 34/26 Q1010 NOSIG,0,6,0,10000,0,0,0,
2026-04-28 03:00:00,METAR VVPQ 280300Z 12008KT 9999 SCT015 34/26 Q1010 NOSIG,0,8,0,10000,0,0,0,
2026-04-28 02:30:00,METAR VVPQ 280230Z 13007KT 9999 SCT015 33/27 Q1011 NOSIG,0,7,0,10000,0,0,0,
2026-04-28 02:00:00,METAR VVPQ 280200Z 13007KT 9999 SCT015 31/28 Q1011 NOSIG,0,7,0,10000,0,0,0,
2026-04-28 01:30:00,METAR VVPQ 280130Z 14005KT 9999 SCT015 31/28 Q1011 NOSIG,0,5,0,10000,0,0,0,
2026-04-28 01:00:00,METAR VVPQ 280100Z VRB02KT 9999 SCT015 29/28 Q1010 NOSIG,0,2,0,10000,0,0,0,
2026-04-28 00:30:00,METAR VVPQ 280030Z VRB02KT 9999 SCT015 28/27 Q1010 NOSIG,0,2,0,10000,0,0,0,
2026-04-28 00:00:00,METAR VVPQ 280000Z VRB02KT 9999 SCT015 27/27 Q1009 NOSIG,0,2,0,10000,0,0,0,
2026-04-27 23:30:00,METAR VVPQ 272330Z VRB02KT 9999 SCT015 26/25 Q1009 NOSIG,0,2,0,10000,0,0,0,
2026-04-27 23:00:00,METAR VVPQ 272300Z VRB01KT 9999 SCT015 26/25 Q1009 NOSIG,0,1,0,10000,0,0,0,
2026-04-27 22:30:00,METAR VVPQ 272230Z VRB01KT 9999 SCT015 26/25 Q1009 NOSIG,0,1,0,10000,0,0,0,
2026-04-27 22:00:00,METAR VVPQ 272200Z VRB01KT 9999 SCT015 FEW017CB 26/25 Q1008 NOSIG,0,1,0,10000,0,0,0,
2026-04-27 21:30:00,METAR VVPQ 272130Z 07001KT 9999 SCT015 FEW017CB 25/24 Q1008 NOSIG,0,1,0,10000,0,0,0,
2026-04-27 21:00:00,METAR VVPQ 272100Z 07003KT 9999 SCT015 FEW017CB 25/24 Q1008 NOSIG,0,3,0,10000,0,0,0,
2026-04-27 20:30:00,METAR VVPQ 272030Z 14007KT 9999 SCT015 FEW017CB 25/24 Q1008 NOSIG,0,7,0,10000,0,0,0,
2026-04-27 20:00:00,METAR VVPQ 272000Z 35004KT 9999 FEW015 FEW017CB 28/27 Q1008 NOSIG,0,4,0,10000,0,0,0,
2026-04-27 19:30:00,METAR VVPQ 271930Z VRB02KT 9999 FEW015 FEW017CB 28/27 Q1008 NOSIG,0,2,0,10000,0,0,0,
2026-04-27 19:00:00,METAR VVPQ 271900Z VRB02KT 9999 FEW015 FEW017CB 28/27 Q1008 NOSIG,0,2,0,10000,0,0,0,
2026-04-27 18:30:00,METAR VVPQ 271830Z VRB01KT 9999 FEW015 FEW017CB 28/27 Q1008 NOSIG,0,1,0,10000,0,0,0,
2026-04-27 18:00:00,METAR VVPQ 271800Z VRB02KT 9999 FEW015 FEW017CB 28/27 Q1009 NOSIG,0,2,0,10000,0,0,0,
2026-04-27 17:30:00,METAR VVPQ 271730Z VRB02KT 9999 FEW015 FEW017CB 28/27 Q1009 NOSIG,0,2,0,10000,0,0,0,
2026-04-27 17:00:00,METAR VVPQ 271700Z VRB01KT 9999 FEW017 29/27 Q1009 NOSIG,0,1,0,10000,0,0,0,
2026-04-27 16:30:00,METAR VVPQ 271630Z 18002KT 9999 FEW017 30/28 Q1010 NOSIG,0,2,0,10000,0,0,0,
2026-04-27 16:00:00,METAR VVPQ 271600Z 20005KT 9999 FEW017 30/28 Q1010 NOSIG,0,5,0,10000,0,0,0,
2026-04-27 15:30:00,METAR VVPQ 271530Z VRB02KT 9999 FEW017 30/28 Q1009 NOSIG,0,2,0,10000,0,0,0,
2026-04-27 15:00:00,METAR VVPQ 271500Z 18003KT 9999 FEW017 30/28 Q1009 NOSIG,0,3,0,10000,0,0,0,
2026-04-27 14:30:00,METAR VVPQ 271430Z 19003KT 9999 FEW017 30/28 Q1009 NOSIG,0,3,0,10000,0,0,0,
2026-04-27 14:00:00,METAR VVPQ 271400Z 20004KT 9999 FEW017 30/27 Q1009 NOSIG,0,4,0,10000,0,0,0,
2026-04-27 13:30:00,METAR VVPQ 271330Z 22005KT 9999 FEW017 30/27 Q1009 NOSIG,0,5,0,10000,0,0,0,
2026-04-27 13:00:00,METAR VVPQ 271300Z 19004KT 9999 FEW017 30/27 Q1009 NOSIG,0,4,0,10000,0,0,0,
2026-04-27 12:30:00,METAR VVPQ 271230Z 21005KT 9999 FEW017 31/27 Q1008 NOSIG,0,5,0,10000,0,0,0,
2026-04-27 12:00:00,METAR VVPQ 271200Z 21005KT 9999 FEW017 31/26 Q1008 NOSIG,0,5,0,10000,0,0,0,
2026-04-27 11:30:00,METAR VVPQ 271130Z 20006KT 9999 FEW017 31/26 Q1007 NOSIG,0,6,0,10000,0,0,0,
2026-04-27 11:00:00,METAR VVPQ 271100Z 20006KT 9999 FEW017 32/24 Q1007 NOSIG,0,6,0,10000,0,0,0,
2026-04-27 10:30:00,METAR VVPQ 271030Z 15006KT 9999 FEW017 34/20 Q1006 NOSIG,0,6,0,10000,0,0,0,
2026-04-27 10:00:00,METAR VVPQ 271000Z 18007KT 9999 FEW017 35/19 Q1006 NOSIG,0,7,0,10000,0,0,0,
2026-04-27 09:30:00,METAR VVPQ 270930Z 18007KT 9999 FEW017 35/20 Q1006 NOSIG,0,7,0,10000,0,0,0,
2026-04-27 09:00:00,METAR VVPQ 270900Z 14009KT 9999 FEW017 35/21 Q1006 NOSIG,0,9,0,10000,0,0,0,
2026-04-27 08:30:00,METAR VVPQ 270830Z 12007KT 9999 FEW017 35/22 Q1006 NOSIG,0,7,0,10000,0,0,0,
2026-04-27 08:00:00,METAR VVPQ 270800Z 12007KT 9999 FEW017 35/22 Q1007 NOSIG,0,7,0,10000,0,0,0,
2026-04-27 07:30:00,METAR VVPQ 270730Z 11009KT 9999 FEW017 34/25 Q1007 NOSIG,0,9,0,10000,0,0,0,
2026-04-27 07:00:00,METAR VVPQ 270700Z 12008KT 9999 FEW017 34/26 Q1008 NOSIG,0,8,0,10000,0,0,0,
2026-04-27 06:30:00,METAR VVPQ 270630Z 12009KT 090V150 9999 SCT015 34/26 Q1008 NOSIG,0,9,0,10000,0,0,0,
2026-04-27 06:00:00,METAR VVPQ 270600Z 11009KT 9999 SCT015 33/27 Q1009 NOSIG,0,9,0,10000,0,0,0,
2026-04-27 05:30:00,METAR VVPQ 270530Z 10010KT 9999 SCT015 33/27 Q1009 NOSIG,0,10,0,10000,0,0,0,
2026-04-27 05:00:00,METAR VVPQ 270500Z 10010KT 9999 SCT015 33/27 Q1010 NOSIG,0,10,0,10000,0,0,0,
2026-04-27 04:30:00,METAR VVPQ 270430Z 11011KT 9999 SCT015 33/27 Q1010 NOSIG,0,11,0,10000,0,0,0,
2026-04-27 04:00:00,METAR VVPQ 270400Z 10012KT 9999 SCT015 33/26 Q1010 NOSIG,0,12,0,10000,0,0,0,
2026-04-27 03:30:00,METAR VVPQ 270330Z 10011KT 070V130 9999 SCT015 32/27 Q1011 NOSIG,0,11,0,10000,0,0,0,
2026-04-27 03:00:00,METAR VVPQ 270300Z 10011KT 9999 SCT015 32/27 Q1011 NOSIG,0,11,0,10000,0,0,0,
2026-04-27 02:30:00,METAR VVPQ 270230Z 10011KT 9999 SCT015 SCT040 32/28 Q1011 NOSIG,0,11,0,10000,0,0,0,
2026-04-27 02:00:00,METAR VVPQ 270200Z 10010KT 9999 SCT015 SCT040 31/27 Q1011 NOSIG,0,10,0,10000,0,0,0,
2026-04-27 01:30:00,METAR VVPQ 270130Z 09007KT 9999 SCT015 SCT040 30/27 Q1011 NOSIG,0,7,0,10000,0,0,0,
2026-04-27 01:00:00,METAR VVPQ 270100Z 11004KT 9999 SCT015 SCT040 30/27 Q1011 NOSIG,0,4,0,10000,0,0,0,
2026-04-27 00:30:00,METAR VVPQ 270030Z 08003KT 9999 SCT015 SCT040 28/26 Q1010 NOSIG,0,3,0,10000,0,0,0,
2026-04-27 00:00:00,METAR VVPQ 270000Z 07003KT 030V090 9999 SCT015 27/26 Q1010 NOSIG,0,3,0,10000,0,0,0,
2026-04-26 23:30:00,METAR VVPQ 262330Z 09004KT 9999 SCT015 27/25 Q1010 NOSIG,0,4,0,10000,0,0,0,
2026-04-26 23:00:00,METAR VVPQ 262300Z 07004KT 9999 SCT015 26/25 Q1009 NOSIG,0,4,0,10000,0,0,0,
2026-04-26 22:30:00,METAR VVPQ 262230Z 09003KT 9999 SCT015 26/25 Q1009 NOSIG,0,3,0,10000,0,0,0,
2026-04-26 22:00:00,METAR VVPQ 262200Z COR 05004KT 9999 SCT015 26/25 Q1009 NOSIG,0,4,0,10000,0,0,0,
2026-04-26 21:30:00,METAR VVPQ 262130Z 07012KT 8000 -RA SCT015 FEW017CB 26/25 Q1008 NOSIG,0,12,0,8000,0,0,0,-RA
2026-04-26 21:00:00,METAR VVPQ 262100Z VRB02KT 9999 SCT015 FEW017CB 27/26 Q1008 NOSIG,0,2,0,10000,0,0,0,
2026-04-26 20:30:00,METAR VVPQ 262030Z VRB01KT 9999 SCT015 FEW017CB 27/26 Q1008 NOSIG,0,1,0,10000,0,0,0,
2026-04-26 20:00:00,METAR VVPQ 262000Z VRB01KT 9999 SCT015 FEW017CB 27/26 Q1008 NOSIG,0,1,0,10000,0,0,0,
2026-04-26 19:30:00,METAR VVPQ 261930Z 06002KT 9999 FEW017 27/26 Q1008 NOSIG,0,2,0,10000,0,0,0,
2026-04-26 19:00:00,METAR VVPQ 261900Z 06002KT 9999 FEW017 27/26 Q1008 NOSIG,0,2,0,10000,0,0,0,
2026-04-26 18:30:00,METAR VVPQ 261830Z 10003KT 9999 FEW017 27/26 Q1009 NOSIG,0,3,0,10000,0,0,0,
2026-04-26 18:00:00,METAR VVPQ 261800Z VRB01KT 9999 FEW017 27/26 Q1009 NOSIG,0,1,0,10000,0,0,0,
2026-04-26 17:30:00,METAR VVPQ 261730Z VRB01KT 9999 FEW017 28/26 Q1009 NOSIG,0,1,0,10000,0,0,0,
2026-04-26 17:00:00,METAR VVPQ 261700Z VRB02KT 9999 FEW017 28/26 Q1009 NOSIG,0,2,0,10000,0,0,0,
2026-04-26 16:30:00,METAR VVPQ 261630Z VRB01KT 9999 FEW017 28/26 Q1010 NOSIG,0,1,0,10000,0,0,0,
2026-04-26 16:00:00,METAR VVPQ 261600Z VRB02KT 9999 FEW017 28/26 Q1010 NOSIG,0,2,0,10000,0,0,0,
2026-04-26 15:30:00,METAR VVPQ 261530Z VRB02KT 9999 FEW017 28/27 Q1010 NOSIG,0,2,0,10000,0,0,0,
2026-04-26 15:00:00,METAR VVPQ 261500Z VRB01KT 9999 FEW017 29/27 Q1010 NOSIG,0,1,0,10000,0,0,0,
2026-04-26 14:30:00,METAR VVPQ 261430Z VRB02KT 9999 FEW017 29/26 Q1010 NOSIG,0,2,0,10000,0,0,0,
2026-04-26 14:00:00,METAR VVPQ 261400Z 15003KT 9999 FEW017 29/26 Q1009 NOSIG,0,3,0,10000,0,0,0,
2026-04-26 13:30:00,METAR VVPQ 261330Z 18003KT 9999 FEW017 29/26 Q1009 NOSIG,0,3,0,10000,0,0,0,
2026-04-26 13:00:00,METAR VVPQ 261300Z 18003KT 9999 FEW017 30/26 Q1009 NOSIG,0,3,0,10000,0,0,0,
2026-04-26 12:30:00,METAR VVPQ 261230Z 21003KT 9999 FEW017 30/26 Q1009 NOSIG,0,3,0,10000,0,0,0,
2026-04-26 12:00:00,METAR VVPQ 261200Z 20003KT 9999 FEW017 30/26 Q1008 NOSIG,0,3,0,10000,0,0,0,
2026-04-26 11:30:00,METAR VVPQ 261130Z 21004KT 9999 FEW017 30/26 Q1008 NOSIG,0,4,0,10000,0,0,0,
2026-04-26 11:00:00,METAR VVPQ 261100Z 20005KT 9999 FEW017 31/25 Q1008 NOSIG,0,5,0,10000,0,0,0,
2026-04-26 10:30:00,METAR VVPQ 261030Z 21006KT 9999 FEW017 31/25 Q1007 NOSIG,0,6,0,10000,0,0,0,
2026-04-26 10:00:00,METAR VVPQ 261000Z 20006KT 9999 FEW017 32/25 Q1007 NOSIG,0,6,0,10000,0,0,0,
2026-04-26 09:30:00,METAR VVPQ 260930Z 15004KT 9999 FEW017 33/24 Q1007 NOSIG,0,4,0,10000,0,0,0,
2026-04-26 09:00:00,METAR VVPQ 260900Z 10005KT 9999 FEW017 33/24 Q1007 NOSIG,0,5,0,10000,0,0,0,
2026-04-26 08:30:00,METAR VVPQ 260830Z 13006KT 9999 FEW017 33/23 Q1007 NOSIG,0,6,0,10000,0,0,0,
2026-04-26 08:00:00,METAR VVPQ 260800Z 12007KT 9999 FEW017 33/23 Q1008 NOSIG,0,7,0,10000,0,0,0,
2026-04-26 07:30:00,METAR VVPQ 260730Z 12008KT 090V150 9999 FEW017 34/23 Q1008 NOSIG,0,8,0,10000,0,0,0,
2026-04-26 07:00:00,METAR VVPQ 260700Z 08004KT 9999 FEW017 34/24 Q1008 NOSIG,0,4,0,10000,0,0,0,
2026-04-26 06:30:00,METAR VVPQ 260630Z 08006KT 9999 FEW017 33/25 Q1009 NOSIG,0,6,0,10000,0,0,0,
2026-04-26 06:00:00,METAR VVPQ 260600Z 08007KT 9999 SCT015 33/25 Q1009 NOSIG,0,7,0,10000,0,0,0,
2026-04-26 05:30:00,METAR VVPQ 260530Z 11011KT 9999 SCT015 33/25 Q1010 NOSIG,0,11,0,10000,0,0,0,
2026-04-26 05:00:00,METAR VVPQ 260500Z 10007KT 9999 SCT015 33/25 Q1010 NOSIG,0,7,0,10000,0,0,0,
2026-04-26 04:30:00,METAR VVPQ 260430Z 10007KT 9999 SCT015 33/24 Q1011 NOSIG,0,7,0,10000,0,0,0,
2026-04-26 04:00:00,METAR VVPQ 260400Z 08011KT 9999 SCT015 33/25 Q1011 NOSIG,0,11,0,10000,0,0,0,
2026-04-26 03:30:00,METAR VVPQ 260330Z 09013KT 9999 SCT015 33/26 Q1011 NOSIG,0,13,0,10000,0,0,0,
2026-04-26 03:00:00,METAR VVPQ 260300Z 09015KT 9999 SCT015 33/25 Q1011 NOSIG,0,15,0,10000,0,0,0,
2026-04-26 02:30:00,METAR VVPQ 260230Z 09015KT 9999 SCT015 33/25 Q1011 NOSIG,0,15,0,10000,0,0,0,
2026-04-26 02:00:00,METAR VVPQ 260200Z 10014KT 9999 SCT015 32/25 Q1012 NOSIG,0,14,0,10000,0,0,0,
2026-04-26 01:30:00,METAR VVPQ 260130Z 10010KT 9999 SCT015 32/25 Q1012 NOSIG,0,10,0,10000,0,0,0,
2026-04-26 01:00:00,METAR VVPQ 260100Z 10011KT 9999 SCT015 31/26 Q1012 NOSIG,0,11,0,10000,0,0,0,
2026-04-26 00:30:00,METAR VVPQ 260030Z 11011KT 9999 SCT015 30/25 Q1011 NOSIG,0,11,0,10000,0,0,0,
2026-04-26 00:00:00,METAR VVPQ 260000Z 12008KT 9999 SCT015 29/25 Q1011 NOSIG,0,8,0,10000,0,0,0,
2026-04-25 23:30:00,METAR VVPQ 252330Z 11006KT 9999 SCT015 28/25 Q1011 NOSIG,0,6,0,10000,0,0,0,
2026-04-25 23:00:00,METAR VVPQ 252300Z VRB01KT 9999 SCT015 27/26 Q1010 NOSIG,0,1,0,10000,0,0,0,
2026-04-25 22:30:00,METAR VVPQ 252230Z 03001KT 9999 SCT015 27/26 Q1010 NOSIG,0,1,0,10000,0,0,0,
2026-04-25 22:00:00,METAR VVPQ 252200Z VRB02KT 9999 SCT015 FEW017CB 27/26 Q1009 NOSIG,0,2,0,10000,0,0,0,
2026-04-25 21:30:00,METAR VVPQ 252130Z VRB02KT 9999 SCT015 FEW017CB 27/26 Q1009 NOSIG,0,2,0,10000,0,0,0,
2026-04-25 21:00:00,METAR VVPQ 252100Z VRB02KT 9999 SCT015 FEW017CB 27/26 Q1009 NOSIG,0,2,0,10000,0,0,0,
2026-04-25 20:30:00,METAR VVPQ 252030Z VRB02KT 9999 SCT015 FEW017CB 27/26 Q1009 NOSIG,0,2,0,10000,0,0,0,
2026-04-25 20:00:00,METAR VVPQ 252000Z 06002KT 9999 SCT015 FEW017CB 27/26 Q1009 NOSIG,0,2,0,10000,0,0,0,
2026-04-25 19:30:00,METAR VVPQ 251930Z VRB02KT 9999 FEW017 27/26 Q1009 NOSIG,0,2,0,10000,0,0,0,
2026-04-25 19:00:00,METAR VVPQ 251900Z VRB01KT 9000 FEW017 27/26 Q1010 NOSIG,0,1,0,9000,0,0,0,
2026-04-25 18:30:00,METAR VVPQ 251830Z VRB02KT 9000 FEW017 27/26 Q1010 NOSIG,0,2,0,9000,0,0,0,
2026-04-25 18:00:00,METAR VVPQ 251800Z 03002KT 9000 FEW017 27/26 Q1010 NOSIG,0,2,0,9000,0,0,0,
2026-04-25 17:30:00,METAR VVPQ 251730Z VRB01KT 9000 FEW017 27/26 Q1011 NOSIG,0,1,0,9000,0,0,0,
2026-04-25 17:00:00,METAR VVPQ 251700Z 03003KT 9000 FEW017 27/26 Q1011 NOSIG,0,3,0,9000,0,0,0,
2026-04-25 16:30:00,METAR VVPQ 251630Z VRB01KT 9000 FEW017 28/26 Q1011 NOSIG,0,1,0,9000,0,0,0,
2026-04-25 16:00:00,METAR VVPQ 251600Z 02002KT 9000 FEW017 28/26 Q1011 NOSIG,0,2,0,9000,0,0,0,
2026-04-25 15:30:00,METAR VVPQ 251530Z VRB02KT 9000 FEW017 28/26 Q1012 NOSIG,0,2,0,9000,0,0,0,
2026-04-25 15:00:00,METAR VVPQ 251500Z VRB01KT 9000 FEW017 28/26 Q1011 NOSIG,0,1,0,9000,0,0,0,
2026-04-25 14:30:00,METAR VVPQ 251430Z 03002KT CAVOK 28/26 Q1011 NOSIG,1,0,0,9999,0,0,0,
2026-04-25 14:00:00,METAR VVPQ 251400Z VRB02KT CAVOK 29/25 Q1011 NOSIG,1,0,0,9999,0,0,0,
2026-04-25 13:30:00,METAR VVPQ 251330Z VRB02KT CAVOK 29/25 Q1010 NOSIG,1,0,0,9999,0,0,0,
2026-04-25 13:00:00,METAR VVPQ 251300Z 21003KT 150V260 CAVOK 29/25 Q1010 NOSIG,1,0,0,9999,0,0,0,
2026-04-25 12:30:00,METAR VVPQ 251230Z 22003KT 160V280 CAVOK 30/24 Q1010 NOSIG,1,0,0,9999,0,0,0,
2026-04-25 12:00:00,METAR VVPQ 251200Z 19005KT CAVOK 30/24 Q1009 NOSIG,1,0,0,9999,0,0,0,
2026-04-25 11:30:00,METAR VVPQ 251130Z 20007KT CAVOK 30/24 Q1009 NOSIG,1,0,0,9999,0,0,0,
2026-04-25 11:00:00,METAR VVPQ 251100Z 21007KT 160V230 CAVOK 30/24 Q1008 NOSIG,1,0,0,9999,0,0,0,
2026-04-25 10:30:00,METAR VVPQ 251030Z 20009KT CAVOK 31/22 Q1008 NOSIG,1,0,0,9999,0,0,0,
2026-04-25 10:00:00,METAR VVPQ 251000Z 20009KT CAVOK 33/20 Q1008 NOSIG,1,0,0,9999,0,0,0,
2026-04-25 09:30:00,METAR VVPQ 250930Z 21008KT CAVOK 34/17 Q1008 NOSIG,1,0,0,9999,0,0,0,
2026-04-25 09:00:00,METAR VVPQ 250900Z 10005KT 030V150 CAVOK 34/17 Q1008 NOSIG,1,0,0,9999,0,0,0,
2026-04-25 08:30:00,METAR VVPQ 250830Z 09007KT 040V140 9999 FEW015 34/18 Q1009 NOSIG,0,7,0,10000,0,0,0,
2026-04-25 08:00:00,METAR VVPQ 250800Z 10007KT 020V150 9999 FEW015 33/20 Q1009 NOSIG,0,7,0,10000,0,0,0,
2026-04-25 07:30:00,METAR VVPQ 250730Z 08007KT 020V150 9999 FEW015 33/19 Q1009 NOSIG,0,7,0,10000,0,0,0,
2026-04-25 07:00:00,METAR VVPQ 250700Z 08006KT 030V130 9999 SCT015 33/21 Q1009 NOSIG,0,6,0,10000,0,0,0,
2026-04-25 06:30:00,METAR VVPQ 250630Z 11007KT 9999 SCT015 33/23 Q1010 NOSIG,0,7,0,10000,0,0,0,
2026-04-25 06:00:00,METAR VVPQ 250600Z 10008KT 9999 SCT015 33/23 Q1010 NOSIG,0,8,0,10000,0,0,0,
2026-04-25 05:30:00,METAR VVPQ 250530Z 10008KT 9999 SCT015 33/23 Q1011 NOSIG,0,8,0,10000,0,0,0,
2026-04-25 05:00:00,METAR VVPQ 250500Z 11008KT 9999 SCT015 33/24 Q1011 NOSIG,0,8,0,10000,0,0,0,
2026-04-25 04:30:00,METAR VVPQ 250430Z 11009KT 9999 SCT015 33/25 Q1011 NOSIG,0,9,0,10000,0,0,0,
2026-04-25 04:00:00,METAR VVPQ 250400Z 09008KT 9999 SCT015 32/25 Q1012 NOSIG,0,8,0,10000,0,0,0,
2026-04-25 03:30:00,METAR VVPQ 250330Z 10008KT 9999 SCT015 32/25 Q1012 NOSIG,0,8,0,10000,0,0,0,
2026-04-25 03:00:00,METAR VVPQ 250300Z 12009KT 9999 SCT015 31/25 Q1012 NOSIG,0,9,0,10000,0,0,0,
2026-04-25 02:30:00,METAR VVPQ 250230Z 11008KT 9999 SCT015 31/25 Q1012 NOSIG,0,8,0,10000,0,0,0,
2026-04-25 02:00:00,METAR VVPQ 250200Z 10007KT 9999 SCT015 32/25 Q1012 NOSIG,0,7,0,10000,0,0,0,
2026-04-25 01:30:00,METAR VVPQ 250130Z 11007KT 9999 SCT015 30/26 Q1012 NOSIG,0,7,0,10000,0,0,0,
2026-04-25 01:00:00,METAR VVPQ 250100Z VRB02KT 9999 SCT015 30/26 Q1011 NOSIG,0,2,0,10000,0,0,0,
2026-04-25 00:30:00,METAR VVPQ 250030Z VRB01KT 9999 SCT015 29/26 Q1011 NOSIG,0,1,0,10000,0,0,0,
2026-04-25 00:00:00,METAR VVPQ 250000Z 05003KT 9999 SCT015 27/26 Q1011 NOSIG,0,3,0,10000,0,0,0,
2026-04-24 23:30:00,METAR VVPQ 242330Z VRB01KT 9999 SCT015 26/25 Q1010 NOSIG,0,1,0,10000,0,0,0,
2026-04-24 23:00:00,METAR VVPQ 242300Z 14002KT 9999 SCT015 25/25 Q1009 NOSIG,0,2,0,10000,0,0,0,
2026-04-24 22:30:00,METAR VVPQ 242230Z 14002KT 9999 SCT015 25/25 Q1009 NOSIG,0,2,0,10000,0,0,0,
2026-04-24 22:00:00,METAR VVPQ 242200Z 09003KT 9999 FEW015 26/25 Q1009 NOSIG,0,3,0,10000,0,0,0,
2026-04-24 21:30:00,METAR VVPQ 242130Z 09002KT 9999 FEW015 26/25 Q1008 NOSIG,0,2,0,10000,0,0,0,
2026-04-24 21:00:00,METAR VVPQ 242100Z 08002KT 9999 FEW015 26/25 Q1008 NOSIG,0,2,0,10000,0,0,0,
2026-04-24 20:30:00,METAR VVPQ 242030Z 11004KT 9999 FEW015 26/25 Q1008 NOSIG,0,4,0,10000,0,0,0,
2026-04-24 20:00:00,METAR VVPQ 242000Z 07002KT 9999 FEW015 26/25 Q1008 NOSIG,0,2,0,10000,0,0,0,
2026-04-24 19:30:00,METAR VVPQ 241930Z 07002KT 9999 FEW015 26/25 Q1008 NOSIG,0,2,0,10000,0,0,0,
2026-04-24 19:00:00,METAR VVPQ 241900Z 07003KT 9999 FEW015 26/24 Q1008 NOSIG,0,3,0,10000,0,0,0,
2026-04-24 18:30:00,METAR VVPQ 241830Z 06003KT 9999 FEW015 26/24 Q1009 NOSIG,0,3,0,10000,0,0,0,
2026-04-24 18:00:00,METAR VVPQ 241800Z 04001KT 9999 FEW015 26/24 Q1009 NOSIG,0,1,0,10000,0,0,0,
2026-04-24 17:30:00,METAR VVPQ 241730Z 07003KT 9999 FEW015 26/24 Q1009 NOSIG,0,3,0,10000,0,0,0,
2026-04-24 17:00:00,METAR VVPQ 241700Z 07002KT CAVOK 26/24 Q1010 NOSIG,1,0,0,9999,0,0,0,
2026-04-24 16:30:00,METAR VVPQ 241630Z 07002KT CAVOK 27/24 Q1010 NOSIG,1,0,0,9999,0,0,0,
2026-04-24 16:00:00,METAR VVPQ 241600Z 03003KT CAVOK 27/24 Q1011 NOSIG,1,0,0,9999,0,0,0,
2026-04-24 15:30:00,METAR VVPQ 241530Z 07002KT CAVOK 27/22 Q1011 NOSIG,1,0,0,9999,0,0,0,
2026-04-24 15:00:00,METAR VVPQ 241500Z 10002KT CAVOK 27/22 Q1010 NOSIG,1,0,0,9999,0,0,0,
2026-04-24 14:30:00,METAR VVPQ 241430Z 03003KT CAVOK 27/22 Q1009 NOSIG,1,0,0,9999,0,0,0,
2026-04-24 14:00:00,METAR VVPQ 241400Z 03003KT CAVOK 27/22 Q1008 NOSIG,1,0,0,9999,0,0,0,
2026-04-24 13:30:00,METAR VVPQ 241330Z 11003KT CAVOK 27/22 Q1008 NOSIG,1,0,0,9999,0,0,0,
2026-04-24 13:00:00,METAR VVPQ 241300Z 12004KT CAVOK 28/22 Q1007 NOSIG,1,0,0,9999,0,0,0,
2026-04-24 12:30:00,METAR VVPQ 241230Z 10003KT CAVOK 29/24 Q1007 NOSIG,1,0,0,9999,0,0,0,
2026-04-24 12:00:00,METAR VVPQ 241200Z 13003KT CAVOK 29/23 Q1007 NOSIG,1,0,0,9999,0,0,0,
2026-04-24 11:30:00,METAR VVPQ 241130Z 15004KT CAVOK 30/22 Q1007 NOSIG,1,0,0,9999,0,0,0,
2026-04-24 11:00:00,METAR VVPQ 241100Z 16005KT CAVOK 31/22 Q1007 NOSIG,1,0,0,9999,0,0,0,
2026-04-24 10:30:00,METAR VVPQ 241030Z 15006KT CAVOK 33/21 Q1006 NOSIG,1,0,0,9999,0,0,0,
2026-04-24 10:00:00,METAR VVPQ 241000Z 13008KT CAVOK 33/20 Q1006 NOSIG,1,0,0,9999,0,0,0,
2026-04-24 09:30:00,METAR VVPQ 240930Z 13008KT CAVOK 34/21 Q1006 NOSIG,1,0,0,9999,0,0,0,
2026-04-24 09:00:00,METAR VVPQ 240900Z 14008KT CAVOK 34/22 Q1006 NOSIG,1,0,0,9999,0,0,0,
2026-04-24 08:30:00,METAR VVPQ 240830Z 13008KT 9999 FEW017 34/20 Q1006 NOSIG,0,8,0,10000,0,0,0,
2026-04-24 08:00:00,METAR VVPQ 240800Z 11007KT 9999 FEW017 34/22 Q1007 NOSIG,0,7,0,10000,0,0,0,
2026-04-24 07:30:00,METAR VVPQ 240730Z 10008KT 9999 FEW017 34/24 Q1007 NOSIG,0,8,0,10000,0,0,0,
2026-04-24 07:00:00,METAR VVPQ 240700Z 08009KT 050V110 9999 FEW017 33/24 Q1007 NOSIG,0,9,0,10000,0,0,0,
2026-04-24 06:30:00,METAR VVPQ 240630Z 09008KT 050V150 9999 FEW017 34/24 Q1007 NOSIG,0,8,0,10000,0,0,0,
2026-04-24 06:00:00,METAR VVPQ 240600Z 09008KT 050V130 9999 FEW017 34/22 Q1008 NOSIG,0,8,0,10000,0,0,0,
2026-04-24 05:30:00,METAR VVPQ 240530Z 09008KT 050V180 9999 FEW017 34/22 Q1008 NOSIG,0,8,0,10000,0,0,0,
2026-04-24 05:00:00,METAR VVPQ 240500Z 10008KT 040V130 9999 FEW017 33/23 Q1009 NOSIG,0,8,0,10000,0,0,0,
2026-04-24 04:30:00,METAR VVPQ 240430Z 08008KT 050V110 9999 FEW017 34/23 Q1009 NOSIG,0,8,0,10000,0,0,0,
2026-04-24 04:00:00,METAR VVPQ 240400Z VRB04KT 9999 FEW017 34/21 Q1009 NOSIG,0,4,0,10000,0,0,0,
2026-04-24 03:30:00,METAR VVPQ 240330Z VRB04KT 9999 FEW017 34/23 Q1009 NOSIG,0,4,0,10000,0,0,0,
2026-04-24 03:00:00,METAR VVPQ 240300Z 07005KT 9999 FEW017 34/24 Q1010 NOSIG,0,5,0,10000,0,0,0,
2026-04-24 02:30:00,METAR VVPQ 240230Z 07006KT 9999 FEW017 33/24 Q1010 NOSIG,0,6,0,10000,0,0,0,
2026-04-24 02:00:00,METAR VVPQ 240200Z 06005KT 9999 FEW017 32/24 Q1010 NOSIG,0,5,0,10000,0,0,0,
2026-04-24 01:30:00,METAR VVPQ 240130Z VRB03KT 9999 FEW017 32/24 Q1010 NOSIG,0,3,0,10000,0,0,0,
2026-04-24 01:00:00,METAR VVPQ 240100Z 03003KT 360V070 9999 FEW017 30/25 Q1010 NOSIG,0,3,0,10000,0,0,0,
2026-04-24 00:30:00,METAR VVPQ 240030Z VRB02KT 9999 FEW017 28/25 Q1009 NOSIG,0,2,0,10000,0,0,0,
2026-04-24 00:00:00,METAR VVPQ 240000Z 00000KT 9999 FEW017 26/25 Q1009 NOSIG,0,0,0,10000,0,0,0,
2026-04-23 23:30:00,METAR VVPQ 232330Z VRB01KT 9999 FEW017 25/25 Q1008 NOSIG,0,1,0,10000,0,0,0,
2026-04-23 23:00:00,METAR VVPQ 232300Z VRB01KT 9999 FEW017 24/24 Q1008 NOSIG,0,1,0,10000,0,0,0,
2026-04-23 22:30:00,METAR VVPQ 232230Z 04002KT 9999 FEW017 24/24 Q1008 NOSIG,0,2,0,10000,0,0,0,
2026-04-23 22:00:00,METAR VVPQ 232200Z VRB01KT 9999 FEW017 25/24 Q1007 NOSIG,0,1,0,10000,0,0,0,
2026-04-23 21:30:00,METAR VVPQ 232130Z VRB01KT 9999 FEW017 25/24 Q1007 NOSIG,0,1,0,10000,0,0,0,
2026-04-23 21:00:00,METAR VVPQ 232100Z VRB02KT 9999 FEW017 24/24 Q1007 NOSIG,0,2,0,10000,0,0,0,
2026-04-23 20:30:00,METAR VVPQ 232030Z VRB01KT 9999 FEW017 25/24 Q1007 NOSIG,0,1,0,10000,0,0,0,
2026-04-23 20:00:00,METAR VVPQ 232000Z VRB01KT 9999 FEW017 25/25 Q1007 NOSIG,0,1,0,10000,0,0,0,
2026-04-23 19:30:00,METAR VVPQ 231930Z VRB02KT 9999 FEW017 25/24 Q1007 NOSIG,0,2,0,10000,0,0,0,
2026-04-23 19:00:00,METAR VVPQ 231900Z 02002KT 9999 FEW017 25/24 Q1008 NOSIG,0,2,0,10000,0,0,0,
2026-04-23 18:30:00,METAR VVPQ 231830Z 02002KT 9999 FEW017 25/25 Q1008 NOSIG,0,2,0,10000,0,0,0,
2026-04-23 18:00:00,METAR VVPQ 231800Z 09002KT 9999 FEW017 26/24 Q1008 NOSIG,0,2,0,10000,0,0,0,
2026-04-23 17:30:00,METAR VVPQ 231730Z 06002KT 9999 FEW017 26/25 Q1008 NOSIG,0,2,0,10000,0,0,0,
2026-04-23 17:00:00,METAR VVPQ 231700Z 08002KT 9999 FEW017 26/25 Q1009 NOSIG,0,2,0,10000,0,0,0,
2026-04-23 16:30:00,METAR VVPQ 231630Z VRB02KT 9999 FEW017 25/24 Q1009 NOSIG,0,2,0,10000,0,0,0,
2026-04-23 16:00:00,METAR VVPQ 231600Z 03001KT 9999 FEW017 26/24 Q1009 NOSIG,0,1,0,10000,0,0,0,
2026-04-23 15:30:00,METAR VVPQ 231530Z VRB02KT 9999 FEW017 26/24 Q1009 NOSIG,0,2,0,10000,0,0,0,
2026-04-23 15:00:00,METAR VVPQ 231500Z VRB02KT 9999 FEW017 26/24 Q1009 NOSIG,0,2,0,10000,0,0,0,
2026-04-23 14:30:00,METAR VVPQ 231430Z VRB02KT 9999 FEW017 27/24 Q1009 NOSIG,0,2,0,10000,0,0,0,
2026-04-23 14:00:00,METAR VVPQ 231400Z 13003KT 9999 FEW017 28/24 Q1008 NOSIG,0,3,0,10000,0,0,0,
2026-04-23 13:30:00,METAR VVPQ 231330Z 18003KT 9999 FEW017 28/24 Q1008 NOSIG,0,3,0,10000,0,0,0,
2026-04-23 13:00:00,METAR VVPQ 231300Z 20006KT 9999 FEW017 29/24 Q1008 NOSIG,0,6,0,10000,0,0,0,
2026-04-23 12:30:00,METAR VVPQ 231230Z 19005KT 9999 FEW017 29/23 Q1007 NOSIG,0,5,0,10000,0,0,0,
2026-04-23 12:00:00,METAR VVPQ 231200Z 19006KT 9999 FEW017 29/23 Q1007 NOSIG,0,6,0,10000,0,0,0,
2026-04-23 11:00:00,METAR VVPQ 231100Z 22005KT 9999 FEW017 30/23 Q1006 NOSIG,0,5,0,10000,0,0,0,
2026-04-23 10:30:00,METAR VVPQ 231030Z 22005KT 9999 FEW017 31/23 Q1006 NOSIG,0,5,0,10000,0,0,0,
2026-04-23 10:00:00,METAR VVPQ 231000Z 21010KT 9999 FEW017 31/23 Q1006 NOSIG,0,10,0,10000,0,0,0,
2026-04-23 09:30:00,METAR VVPQ 230930Z 21009KT 9999 FEW017 31/23 Q1006 NOSIG,0,9,0,10000,0,0,0,
2026-04-23 09:00:00,METAR VVPQ 230900Z 21009KT 9999 FEW017 32/23 Q1006 NOSIG,0,9,0,10000,0,0,0,
2026-04-23 08:30:00,METAR VVPQ 230830Z 22011KT 9999 FEW017 32/23 Q1006 NOSIG,0,11,0,10000,0,0,0,
2026-04-23 08:00:00,METAR VVPQ 230800Z 22011KT 9999 SCT017 33/23 Q1006 NOSIG,0,11,0,10000,0,0,0,
2026-04-23 07:30:00,METAR VVPQ 230730Z 21011KT 9999 SCT017 33/24 Q1007 NOSIG,0,11,0,10000,0,0,0,
2026-04-23 07:00:00,METAR VVPQ 230700Z 22010KT 9999 SCT017 33/24 Q1007 NOSIG,0,10,0,10000,0,0,0,
2026-04-23 06:30:00,METAR VVPQ 230630Z 22010KT 9999 SCT017 33/24 Q1007 NOSIG,0,10,0,10000,0,0,0,
2026-04-23 06:00:00,METAR VVPQ 230600Z 21009KT 9999 SCT017 32/24 Q1008 NOSIG,0,9,0,10000,0,0,0,
2026-04-23 05:30:00,METAR VVPQ 230530Z 22007KT 9999 SCT017 32/25 Q1008 NOSIG,0,7,0,10000,0,0,0,
2026-04-23 05:00:00,METAR VVPQ 230500Z 21008KT 9999 SCT017 31/25 Q1009 NOSIG,0,8,0,10000,0,0,0,
2026-04-23 04:30:00,METAR VVPQ 230430Z 21008KT 9999 SCT017 31/25 Q1009 NOSIG,0,8,0,10000,0,0,0,
2026-04-23 04:00:00,METAR VVPQ 230400Z 21007KT 9999 SCT017 31/25 Q1009 NOSIG,0,7,0,10000,0,0,0,
2026-04-23 03:30:00,METAR VVPQ 230330Z 18006KT 9999 SCT017 32/25 Q1009 NOSIG,0,6,0,10000,0,0,0,
2026-04-23 03:00:00,METAR VVPQ 230300Z 16006KT 130V190 9999 FEW017 33/25 Q1009 NOSIG,0,6,0,10000,0,0,0,
2026-04-23 02:30:00,METAR VVPQ 230230Z 14006KT 100V160 9999 FEW017 33/25 Q1009 NOSIG,0,6,0,10000,0,0,0,
2026-04-23 02:00:00,METAR VVPQ 230200Z 15006KT 110V170 9999 FEW017 31/25 Q1009 NOSIG,0,6,0,10000,0,0,0,
2026-04-23 01:30:00,METAR VVPQ 230130Z 17004KT 9999 FEW017 32/25 Q1009 NOSIG,0,4,0,10000,0,0,0,
2026-04-23 01:00:00,METAR VVPQ 230100Z 15003KT 9999 FEW017 30/25 Q1009 NOSIG,0,3,0,10000,0,0,0,
2026-04-23 00:30:00,METAR VVPQ 230030Z VRB01KT 9999 FEW017 28/26 Q1009 NOSIG,0,1,0,10000,0,0,0,
2026-04-23 00:00:00,METAR VVPQ 230000Z VRB01KT 9999 FEW017 27/25 Q1008 NOSIG,0,1,0,10000,0,0,0,
2026-04-22 23:30:00,METAR VVPQ 222330Z 10003KT 9999 FEW017 25/24 Q1008 NOSIG,0,3,0,10000,0,0,0,
2026-04-22 23:00:00,METAR VVPQ 222300Z 09003KT 9999 FEW017 26/25 Q1008 NOSIG,0,3,0,10000,0,0,0,
2026-04-22 22:30:00,METAR VVPQ 222230Z 06004KT 9999 FEW017 27/25 Q1007 NOSIG,0,4,0,10000,0,0,0,
2026-04-22 22:00:00,METAR VVPQ 222200Z 06004KT 9999 FEW017 27/25 Q1007 NOSIG,0,4,0,10000,0,0,0,
2026-04-22 21:30:00,METAR VVPQ 222130Z 06003KT 9999 FEW017 27/25 Q1007 NOSIG,0,3,0,10000,0,0,0,
2026-04-22 21:00:00,METAR VVPQ 222100Z 06003KT 9999 FEW017 27/25 Q1007 NOSIG,0,3,0,10000,0,0,0,
2026-04-22 20:30:00,METAR VVPQ 222030Z 06003KT 9999 FEW017 27/25 Q1007 NOSIG,0,3,0,10000,0,0,0,
2026-04-22 20:00:00,METAR VVPQ 222000Z 06003KT 9999 FEW017 27/25 Q1007 NOSIG,0,3,0,10000,0,0,0,
2026-04-22 19:30:00,METAR VVPQ 221930Z VRB02KT 9999 FEW017 27/25 Q1007 NOSIG,0,2,0,10000,0,0,0,
2026-04-22 19:00:00,METAR VVPQ 221900Z VRB02KT 9999 FEW017 27/25 Q1007 NOSIG,0,2,0,10000,0,0,0,
2026-04-22 18:30:00,METAR VVPQ 221830Z VRB02KT 9999 FEW017 27/25 Q1008 NOSIG,0,2,0,10000,0,0,0,
2026-04-22 18:00:00,METAR VVPQ 221800Z 14003KT 9999 FEW017 27/25 Q1008 NOSIG,0,3,0,10000,0,0,0,
2026-04-22 17:30:00,METAR VVPQ 221730Z 14003KT 9999 FEW017 27/25 Q1008 NOSIG,0,3,0,10000,0,0,0,
2026-04-22 17:00:00,METAR VVPQ 221700Z 14003KT 9999 FEW017 27/25 Q1008 NOSIG,0,3,0,10000,0,0,0,
2026-04-22 16:30:00,METAR VVPQ 221630Z 14003KT 9999 FEW017 27/25 Q1008 NOSIG,0,3,0,10000,0,0,0,
2026-04-22 16:00:00,METAR VVPQ 221600Z 14003KT 9999 FEW017 27/25 Q1009 NOSIG,0,3,0,10000,0,0,0,
2026-04-22 15:30:00,METAR VVPQ 221530Z 14006KT 9999 FEW017 27/25 Q1009 NOSIG,0,6,0,10000,0,0,0,
2026-04-22 15:00:00,METAR VVPQ 221500Z VRB02KT 9999 FEW017 27/25 Q1008 NOSIG,0,2,0,10000,0,0,0,
2026-04-22 14:30:00,METAR VVPQ 221430Z VRB02KT 9999 FEW017 28/25 Q1008 NOSIG,0,2,0,10000,0,0,0,
2026-04-22 14:00:00,METAR VVPQ 221400Z VRB03KT 9999 FEW017 28/24 Q1008 NOSIG,0,3,0,10000,0,0,0,
2026-04-22 13:30:00,METAR VVPQ 221330Z 14003KT 9999 FEW017 28/24 Q1007 NOSIG,0,3,0,10000,0,0,0,
2026-04-22 13:00:00,METAR VVPQ 221300Z 09003KT 9999 FEW017 29/24 Q1007 NOSIG,0,3,0,10000,0,0,0,
2026-04-22 12:30:00,METAR VVPQ 221230Z VRB02KT 9999 FEW017 29/23 Q1007 NOSIG,0,2,0,10000,0,0,0,
2026-04-22 12:00:00,METAR VVPQ 221200Z VRB02KT 9999 FEW017 30/22 Q1007 NOSIG,0,2,0,10000,0,0,0,
2026-04-22 11:30:00,METAR VVPQ 221130Z 17003KT 9999 FEW017 32/19 Q1006 NOSIG,0,3,0,10000,0,0,0,
2026-04-22 11:00:00,METAR VVPQ 221100Z 17003KT 9999 FEW017 32/19 Q1006 NOSIG,0,3,0,10000,0,0,0,
2026-04-22 10:30:00,METAR VVPQ 221030Z 14005KT 9999 FEW017 32/20 Q1006 NOSIG,0,5,0,10000,0,0,0,
2026-04-22 10:00:00,METAR VVPQ 221000Z 15006KT 9999 FEW017 33/20 Q1006 NOSIG,0,6,0,10000,0,0,0,
2026-04-22 09:30:00,METAR VVPQ 220930Z 14008KT 9999 FEW017 33/19 Q1006 NOSIG,0,8,0,10000,0,0,0,
2026-04-22 09:00:00,METAR VVPQ 220900Z 14008KT 9999 FEW017 33/21 Q1006 NOSIG,0,8,0,10000,0,0,0,
2026-04-22 08:30:00,METAR VVPQ 220830Z 13009KT 9999 FEW017 33/21 Q1006 NOSIG,0,9,0,10000,0,0,0,
2026-04-22 08:00:00,METAR VVPQ 220800Z 11010KT 9999 FEW017 33/22 Q1006 NOSIG,0,10,0,10000,0,0,0,
2026-04-22 07:30:00,METAR VVPQ 220730Z 11010KT 9999 FEW017 34/23 Q1007 NOSIG,0,10,0,10000,0,0,0,
2026-04-22 07:00:00,METAR VVPQ 220700Z 13009KT 9999 FEW017 34/23 Q1007 NOSIG,0,9,0,10000,0,0,0,
2026-04-22 06:30:00,METAR VVPQ 220630Z 10007KT 9999 FEW015 33/22 Q1007 NOSIG,0,7,0,10000,0,0,0,
2026-04-22 06:00:00,METAR VVPQ 220600Z 08008KT 9999 FEW015 34/24 Q1008 NOSIG,0,8,0,10000,0,0,0,
2026-04-22 05:30:00,METAR VVPQ 220530Z 09010KT 9999 FEW015 34/24 Q1008 NOSIG,0,10,0,10000,0,0,0,
2026-04-22 05:00:00,METAR VVPQ 220500Z 10008KT 9999 FEW015 34/24 Q1009 NOSIG,0,8,0,10000,0,0,0,
2026-04-22 04:30:00,METAR VVPQ 220430Z 14009KT 9999 FEW015 33/24 Q1009 NOSIG,0,9,0,10000,0,0,0,
2026-04-22 04:00:00,METAR VVPQ 220400Z 12005KT 9999 FEW015 33/24 Q1010 NOSIG,0,5,0,10000,0,0,0,
2026-04-22 03:30:00,METAR VVPQ 220330Z 15007KT 9999 FEW015 33/25 Q1010 NOSIG,0,7,0,10000,0,0,0,
2026-04-22 03:00:00,METAR VVPQ 220300Z 15007KT 9999 FEW015 33/25 Q1010 NOSIG,0,7,0,10000,0,0,0,
2026-04-22 02:30:00,METAR VVPQ 220230Z 12008KT 9999 FEW015 33/25 Q1010 NOSIG,0,8,0,10000,0,0,0,
2026-04-22 02:00:00,METAR VVPQ 220200Z 15003KT 9999 FEW015 32/25 Q1010 NOSIG,0,3,0,10000,0,0,0,
2026-04-22 01:30:00,METAR VVPQ 220130Z 15003KT 9999 FEW015 31/25 Q1010 NOSIG,0,3,0,10000,0,0,0,
2026-04-22 01:00:00,METAR VVPQ 220100Z 14007KT 9999 FEW015 30/25 Q1010 NOSIG,0,7,0,10000,0,0,0,
2026-04-22 00:30:00,METAR VVPQ 220030Z 11002KT 9999 SCT015 28/26 Q1009 NOSIG,0,2,0,10000,0,0,0,
2026-04-22 00:00:00,METAR VVPQ 220000Z VRB02KT 9999 FEW017 26/25 Q1009 NOSIG,0,2,0,10000,0,0,0,
2026-04-21 23:30:00,METAR VVPQ 212330Z VRB02KT 9999 FEW017 25/24 Q1008 NOSIG,0,2,0,10000,0,0,0,
2026-04-21 23:00:00,METAR VVPQ 212300Z 07003KT 9999 FEW017 25/24 Q1008 NOSIG,0,3,0,10000,0,0,0,
2026-04-21 22:30:00,METAR VVPQ 212230Z 08003KT 9999 FEW017 25/24 Q1008 NOSIG,0,3,0,10000,0,0,0,
2026-04-21 22:00:00,METAR VVPQ 212200Z 07003KT 9999 FEW017 25/24 Q1008 NOSIG,0,3,0,10000,0,0,0,
2026-04-21 21:30:00,METAR VVPQ 212130Z 07004KT 9999 FEW017 25/24 Q1008 NOSIG,0,4,0,10000,0,0,0,
2026-04-21 21:00:00,METAR VVPQ 212100Z 09003KT 9999 FEW017 25/24 Q1008 NOSIG,0,3,0,10000,0,0,0,
2026-04-21 20:30:00,METAR VVPQ 212030Z 08004KT 9999 FEW017 25/24 Q1008 NOSIG,0,4,0,10000,0,0,0,
2026-04-21 20:00:00,METAR VVPQ 212000Z 08003KT 9999 FEW017 25/24 Q1008 NOSIG,0,3,0,10000,0,0,0,
2026-04-21 19:30:00,METAR VVPQ 211930Z 08003KT 9999 FEW017 26/24 Q1008 NOSIG,0,3,0,10000,0,0,0,
2026-04-21 19:00:00,METAR VVPQ 211900Z 07003KT 9999 FEW017 26/24 Q1008 NOSIG,0,3,0,10000,0,0,0,
2026-04-21 18:30:00,METAR VVPQ 211830Z 07003KT 9999 FEW017 26/25 Q1008 NOSIG,0,3,0,10000,0,0,0,
2026-04-21 18:00:00,METAR VVPQ 211800Z 09003KT 9999 FEW017 26/25 Q1009 NOSIG,0,3,0,10000,0,0,0,
2026-04-21 17:30:00,METAR VVPQ 211730Z VRB02KT 9999 FEW017 26/25 Q1009 NOSIG,0,2,0,10000,0,0,0,
2026-04-21 17:00:00,METAR VVPQ 211700Z 08003KT 9999 FEW017 26/25 Q1009 NOSIG,0,3,0,10000,0,0,0,
2026-04-21 16:30:00,METAR VVPQ 211630Z 05003KT 9999 FEW017 27/25 Q1010 NOSIG,0,3,0,10000,0,0,0,
2026-04-21 16:00:00,METAR VVPQ 211600Z VRB02KT 9999 FEW017 27/25 Q1010 NOSIG,0,2,0,10000,0,0,0,
2026-04-21 15:30:00,METAR VVPQ 211530Z VRB02KT 9999 FEW017 27/25 Q1010 NOSIG,0,2,0,10000,0,0,0,
2026-04-21 15:00:00,METAR VVPQ 211500Z VRB02KT 9999 FEW017 27/25 Q1010 NOSIG,0,2,0,10000,0,0,0,
2026-04-21 14:30:00,METAR VVPQ 211430Z VRB02KT 9999 FEW017 27/25 Q1009 NOSIG,0,2,0,10000,0,0,0,
2026-04-21 14:00:00,METAR VVPQ 211400Z 05002KT 9999 FEW017 27/25 Q1009 NOSIG,0,2,0,10000,0,0,0,
2026-04-21 13:30:00,METAR VVPQ 211330Z 06002KT CAVOK 28/25 Q1008 NOSIG,1,0,0,9999,0,0,0,
2026-04-21 13:00:00,METAR VVPQ 211300Z VRB02KT CAVOK 28/25 Q1008 NOSIG,1,0,0,9999,0,0,0,
2026-04-21 12:30:00,METAR VVPQ 211230Z 13002KT CAVOK 29/25 Q1008 NOSIG,1,0,0,9999,0,0,0,
2026-04-21 12:00:00,METAR VVPQ 211200Z 16003KT CAVOK 29/25 Q1007 NOSIG,1,0,0,9999,0,0,0,
2026-04-21 11:30:00,METAR VVPQ 211130Z 19003KT CAVOK 30/25 Q1007 NOSIG,1,0,0,9999,0,0,0,
2026-04-21 11:00:00,METAR VVPQ 211100Z 16003KT CAVOK 30/25 Q1007 NOSIG,1,0,0,9999,0,0,0,
2026-04-21 10:30:00,METAR VVPQ 211030Z 20007KT CAVOK 31/24 Q1007 NOSIG,1,0,0,9999,0,0,0,
2026-04-21 10:00:00,METAR VVPQ 211000Z 14005KT CAVOK 32/23 Q1006 NOSIG,1,0,0,9999,0,0,0,
2026-04-21 09:30:00,METAR VVPQ 210930Z 13006KT CAVOK 33/23 Q1006 NOSIG,1,0,0,9999,0,0,0,
2026-04-21 09:00:00,METAR VVPQ 210900Z 14007KT 9999 FEW015 33/23 Q1006 NOSIG,0,7,0,10000,0,0,0,
2026-04-21 08:30:00,METAR VVPQ 210830Z 11009KT 9999 FEW015 33/23 Q1007 NOSIG,0,9,0,10000,0,0,0,
2026-04-21 08:00:00,METAR VVPQ 210800Z 11009KT 9999 FEW015 33/24 Q1007 NOSIG,0,9,0,10000,0,0,0,
2026-04-21 07:30:00,METAR VVPQ 210730Z 11010KT 9999 FEW015 33/24 Q1007 NOSIG,0,10,0,10000,0,0,0,
2026-04-21 07:00:00,METAR VVPQ 210700Z 12010KT 9999 SCT015 33/24 Q1008 NOSIG,0,10,0,10000,0,0,0,
2026-04-21 06:30:00,METAR VVPQ 210630Z 12010KT 9999 SCT015 33/24 Q1008 NOSIG,0,10,0,10000,0,0,0,
2026-04-21 06:00:00,METAR VVPQ 210600Z 13010KT 9999 SCT015 33/24 Q1008 NOSIG,0,10,0,10000,0,0,0,
2026-04-21 05:30:00,METAR VVPQ 210530Z 12010KT 9999 SCT015 33/24 Q1009 NOSIG,0,10,0,10000,0,0,0,
2026-04-21 05:00:00,METAR VVPQ 210500Z 12011KT 9999 SCT015 33/24 Q1010 NOSIG,0,11,0,10000,0,0,0,
2026-04-21 04:30:00,METAR VVPQ 210430Z 12011KT 9999 SCT015 33/24 Q1010 NOSIG,0,11,0,10000,0,0,0,
2026-04-21 04:00:00,METAR VVPQ 210400Z 12011KT 9999 SCT015 33/24 Q1010 NOSIG,0,11,0,10000,0,0,0,
2026-04-21 03:30:00,METAR VVPQ 210330Z 13011KT 9999 SCT015 31/24 Q1010 NOSIG,0,11,0,10000,0,0,0,
2026-04-21 03:00:00,METAR VVPQ 210300Z 12010KT 9999 SCT015 31/25 Q1010 NOSIG,0,10,0,10000,0,0,0,
2026-04-21 02:30:00,METAR VVPQ 210230Z 12009KT 9999 SCT015 30/26 Q1010 NOSIG,0,9,0,10000,0,0,0,
2026-04-21 02:00:00,METAR VVPQ 210200Z 12008KT 9999 SCT015 30/26 Q1010 NOSIG,0,8,0,10000,0,0,0,
2026-04-21 01:30:00,METAR VVPQ 210130Z 13008KT 9999 SCT015 30/25 Q1010 NOSIG,0,8,0,10000,0,0,0,
2026-04-21 01:00:00,METAR VVPQ 210100Z 12008KT 9999 SCT015 30/26 Q1009 NOSIG,0,8,0,10000,0,0,0,
2026-04-21 00:30:00,METAR VVPQ 210030Z 13008KT 9999 SCT015 30/26 Q1009 NOSIG,0,8,0,10000,0,0,0,
2026-04-21 00:00:00,METAR VVPQ 210000Z 13006KT 9999 SCT015 29/26 Q1009 NOSIG,0,6,0,10000,0,0,0,
2026-04-20 23:30:00,METAR VVPQ 202330Z 14003KT 9999 SCT015 28/26 Q1008 NOSIG,0,3,0,10000,0,0,0,
2026-04-20 23:00:00,METAR VVPQ 202300Z VRB01KT 9999 SCT015 27/26 Q1008 NOSIG,0,1,0,10000,0,0,0,
2026-04-20 22:30:00,METAR VVPQ 202230Z VRB02KT 9999 SCT015 27/26 Q1008 NOSIG,0,2,0,10000,0,0,0,
2026-04-20 22:00:00,METAR VVPQ 202200Z VRB02KT 9999 SCT015 27/26 Q1008 NOSIG,0,2,0,10000,0,0,0,
2026-04-20 21:30:00,METAR VVPQ 202130Z VRB01KT 9999 SCT015 27/26 Q1008 NOSIG,0,1,0,10000,0,0,0,
2026-04-20 21:00:00,METAR VVPQ 202100Z VRB02KT 9999 SCT015 27/26 Q1008 NOSIG,0,2,0,10000,0,0,0,
2026-04-20 20:30:00,METAR VVPQ 202030Z VRB02KT 9999 SCT015 26/26 Q1008 NOSIG,0,2,0,10000,0,0,0,
2026-04-20 20:00:00,METAR VVPQ 202000Z VRB02KT 9999 SCT015 26/26 Q1008 NOSIG,0,2,0,10000,0,0,0,
2026-04-20 19:30:00,METAR VVPQ 201930Z VRB03KT 9999 SCT015 26/26 Q1008 NOSIG,0,3,0,10000,0,0,0,
2026-04-20 19:00:00,METAR VVPQ 201900Z VRB01KT 9999 SCT015 26/26 Q1008 NOSIG,0,1,0,10000,0,0,0,
2026-04-20 18:30:00,METAR VVPQ 201830Z VRB02KT 9999 SCT015 26/26 Q1009 NOSIG,0,2,0,10000,0,0,0,
2026-04-20 18:00:00,METAR VVPQ 201800Z 08002KT 9999 SCT015 26/26 Q1009 NOSIG,0,2,0,10000,0,0,0,
2026-04-20 17:30:00,METAR VVPQ 201730Z VRB01KT 9999 SCT015 26/26 Q1009 NOSIG,0,1,0,10000,0,0,0,
2026-04-20 17:00:00,METAR VVPQ 201700Z 05002KT 9999 SCT015 27/26 Q1010 NOSIG,0,2,0,10000,0,0,0,
2026-04-20 16:30:00,METAR VVPQ 201630Z VRB03KT 9999 SCT015 27/26 Q1010 NOSIG,0,3,0,10000,0,0,0,
2026-04-20 16:00:00,METAR VVPQ 201600Z VRB01KT 9999 SCT015 27/26 Q1010 NOSIG,0,1,0,10000,0,0,0,
2026-04-20 15:30:00,METAR VVPQ 201530Z 03002KT 9999 SCT015 27/26 Q1010 NOSIG,0,2,0,10000,0,0,0,
2026-04-20 15:00:00,METAR VVPQ 201500Z VRB01KT 9999 SCT015 27/26 Q1010 NOSIG,0,1,0,10000,0,0,0,
2026-04-20 14:30:00,METAR VVPQ 201430Z VRB01KT 9999 SCT015 27/26 Q1009 NOSIG,0,1,0,10000,0,0,0,
2026-04-20 14:00:00,METAR VVPQ 201400Z 09003KT 030V120 9999 SCT015 27/26 Q1009 NOSIG,0,3,0,10000,0,0,0,
2026-04-20 13:30:00,METAR VVPQ 201330Z 06001KT 9999 SCT015 27/26 Q1009 NOSIG,0,1,0,10000,0,0,0,
2026-04-20 13:00:00,METAR VVPQ 201300Z 06001KT 9999 SCT015 27/26 Q1008 NOSIG,0,1,0,10000,0,0,0,
2026-04-20 12:30:00,METAR VVPQ 201230Z 08002KT 9999 SCT015 28/27 Q1008 NOSIG,0,2,0,10000,0,0,0,
2026-04-20 12:00:00,METAR VVPQ 201200Z VRB01KT 9999 SCT015 28/27 Q1008 NOSIG,0,1,0,10000,0,0,0,
2026-04-20 11:30:00,METAR VVPQ 201130Z VRB02KT 9999 SCT015 29/28 Q1007 NOSIG,0,2,0,10000,0,0,0,
2026-04-20 11:00:00,METAR VVPQ 201100Z 22003KT 160V270 9999 SCT015 29/28 Q1007 NOSIG,0,3,0,10000,0,0,0,
2026-04-20 10:30:00,METAR VVPQ 201030Z 21003KT 170V260 9999 SCT015 30/28 Q1007 NOSIG,0,3,0,10000,0,0,0,
2026-04-20 10:00:00,METAR VVPQ 201000Z 23003KT 160V290 9999 SCT015 30/28 Q1007 NOSIG,0,3,0,10000,0,0,0,
2026-04-20 09:30:00,METAR VVPQ 200930Z 23004KT 190V270 9999 SCT015 30/27 Q1007 NOSIG,0,4,0,10000,0,0,0,
2026-04-20 09:00:00,METAR VVPQ 200900Z 22005KT 160V250 9999 SCT015 30/27 Q1007 NOSIG,0,5,0,10000,0,0,0,
2026-04-20 08:30:00,METAR VVPQ 200830Z 19004KT 090V250 9999 SCT015 31/27 Q1007 NOSIG,0,4,0,10000,0,0,0,
2026-04-20 08:00:00,METAR VVPQ 200800Z 16006KT 120V200 9999 SCT015 31/26 Q1007 NOSIG,0,6,0,10000,0,0,0,
2026-04-20 07:30:00,METAR VVPQ 200730Z 13007KT 100V190 9999 SCT015 32/26 Q1008 NOSIG,0,7,0,10000,0,0,0,
2026-04-20 07:00:00,METAR VVPQ 200700Z 12007KT 080V200 9999 SCT015 32/26 Q1008 NOSIG,0,7,0,10000,0,0,0,
2026-04-20 06:30:00,METAR VVPQ 200630Z 16005KT 120V180 9999 SCT015 33/26 Q1008 NOSIG,0,5,0,10000,0,0,0,
2026-04-20 06:00:00,METAR VVPQ 200600Z 21005KT 9999 SCT015 32/26 Q1009 NOSIG,0,5,0,10000,0,0,0,
2026-04-20 05:30:00,METAR VVPQ 200530Z 21005KT 9999 SCT015 33/27 Q1010 NOSIG,0,5,0,10000,0,0,0,
2026-04-20 05:00:00,METAR VVPQ 200500Z 09007KT 9999 SCT015 33/27 Q1010 NOSIG,0,7,0,10000,0,0,0,
2026-04-20 04:30:00,METAR VVPQ 200430Z 09008KT 9999 SCT015 32/27 Q1011 NOSIG,0,8,0,10000,0,0,0,
2026-04-20 04:00:00,METAR VVPQ 200400Z 13009KT 9999 SCT015 FEW017CB 30/27 Q1011 NOSIG,0,9,0,10000,0,0,0,
2026-04-20 03:30:00,METAR VVPQ 200330Z 10008KT 9999 SCT015 FEW017CB 31/28 Q1011 NOSIG,0,8,0,10000,0,0,0,
2026-04-20 03:00:00,METAR VVPQ 200300Z 12006KT 9999 SCT015 FEW017CB 29/27 Q1011 NOSIG,0,6,0,10000,0,0,0,
2026-04-20 02:30:00,METAR VVPQ 200230Z 10010KT 8000 -TSRA SCT015 FEW017CB 27/26 Q1011 NOSIG,0,10,0,8000,1,0,0,RA
2026-04-20 02:00:00,METAR VVPQ 200200Z 08004KT 9999 SCT015 FEW017CB 29/28 Q1011 NOSIG,0,4,0,10000,0,0,0,
2026-04-20 01:30:00,METAR VVPQ 200130Z 12006KT 9999 SCT015 FEW017CB 28/27 Q1011 NOSIG,0,6,0,10000,0,0,0,
2026-04-20 01:00:00,METAR VVPQ 200100Z 05007KT 9000 SCT015 FEW017CB 28/27 Q1010 NOSIG,0,7,0,9000,0,0,0,
2026-04-20 00:30:00,METAR VVPQ 200030Z 05005KT 9000 SCT015 FEW017CB 28/27 Q1010 NOSIG,0,5,0,9000,0,0,0,
2026-04-20 00:00:00,METAR VVPQ 200000Z 10003KT 9000 -TSRA SCT015 FEW017CB 28/27 Q1010 TEMPO TL0035 5000 TSRA,0,3,0,9000,1,0,0,"RA,TS"
2026-04-19 23:30:00,METAR VVPQ 192330Z 07004KT 9000 SCT015 FEW017CB 27/26 Q1009 NOSIG,0,4,0,9000,0,0,0,
2026-04-19 23:00:00,METAR VVPQ 192300Z VRB02KT 9000 SCT015 FEW017CB 28/26 Q1009 NOSIG,0,2,0,9000,0,0,0,
2026-04-19 22:30:00,METAR VVPQ 192230Z 08003KT 9000 SCT015 FEW017CB 28/26 Q1008 NOSIG,0,3,0,9000,0,0,0,
2026-04-19 22:00:00,METAR VVPQ 192200Z 19007KT 9000 FEW017CB 29/26 Q1008 NOSIG,0,7,0,9000,0,0,0,
2026-04-19 21:30:00,METAR VVPQ 192130Z 12003KT 9000 TS FEW017CB 29/26 Q1008 NOSIG,0,3,0,9000,1,0,0,TS
2026-04-19 21:00:00,METAR VVPQ 192100Z 17005KT 9000 TS FEW017CB 29/26 Q1008 NOSIG,0,5,0,9000,1,0,0,TS
2026-04-19 20:30:00,METAR VVPQ 192030Z 18004KT 9999 FEW017CB 29/26 Q1008 NOSIG,0,4,0,10000,0,0,0,
2026-04-19 20:00:00,METAR VVPQ 192000Z 14004KT 9999 FEW017 28/26 Q1008 NOSIG,0,4,0,10000,0,0,0,
2026-04-19 19:30:00,METAR VVPQ 191930Z 16006KT 9999 FEW017 28/26 Q1009 NOSIG,0,6,0,10000,0,0,0,
2026-04-19 19:00:00,METAR VVPQ 191900Z VRB02KT 9999 FEW017 27/26 Q1009 NOSIG,0,2,0,10000,0,0,0,
2026-04-19 18:30:00,METAR VVPQ 191830Z VRB02KT 9999 FEW017 27/26 Q1009 NOSIG,0,2,0,10000,0,0,0,
2026-04-19 18:00:00,METAR VVPQ 191800Z 12004KT 9999 FEW017 28/26 Q1010 NOSIG,0,4,0,10000,0,0,0,
2026-04-19 17:30:00,METAR VVPQ 191730Z 05003KT 9999 FEW017 28/26 Q1010 NOSIG,0,3,0,10000,0,0,0,
2026-04-19 17:00:00,METAR VVPQ 191700Z 14003KT 9999 FEW017 28/26 Q1011 NOSIG,0,3,0,10000,0,0,0,
2026-04-19 16:30:00,METAR VVPQ 191630Z 10003KT 9999 FEW017 29/26 Q1011 NOSIG,0,3,0,10000,0,0,0,
2026-04-19 16:00:00,METAR VVPQ 191600Z 05002KT 9999 FEW017 29/26 Q1011 NOSIG,0,2,0,10000,0,0,0,
2026-04-19 15:30:00,METAR VVPQ 191530Z 36002KT 9999 FEW017 29/26 Q1010 NOSIG,0,2,0,10000,0,0,0,
2026-04-19 15:00:00,METAR VVPQ 191500Z 02004KT 9999 FEW017 29/26 Q1010 NOSIG,0,4,0,10000,0,0,0,
2026-04-19 14:30:00,METAR VVPQ 191430Z VRB02KT 9999 FEW017 29/26 Q1010 NOSIG,0,2,0,10000,0,0,0,
2026-04-19 14:00:00,METAR VVPQ 191400Z VRB02KT 9999 SCT017 28/26 Q1010 NOSIG,0,2,0,10000,0,0,0,
2026-04-19 13:30:00,METAR VVPQ 191330Z VRB01KT 9999 SCT017 29/26 Q1009 NOSIG,0,1,0,10000,0,0,0,
2026-04-19 13:00:00,METAR VVPQ 191300Z 22004KT 9999 SCT017 30/26 Q1008 NOSIG,0,4,0,10000,0,0,0,
2026-04-19 12:30:00,METAR VVPQ 191230Z 21004KT 9999 SCT017 30/25 Q1008 NOSIG,0,4,0,10000,0,0,0,
2026-04-19 12:00:00,METAR VVPQ 191200Z 25004KT 9999 SCT017 30/25 Q1008 NOSIG,0,4,0,10000,0,0,0,
2026-04-19 11:30:00,METAR VVPQ 191130Z 23004KT 9999 SCT017 30/25 Q1007 NOSIG,0,4,0,10000,0,0,0,
2026-04-19 11:00:00,METAR VVPQ 191100Z 23005KT 9999 SCT017 30/25 Q1007 NOSIG,0,5,0,10000,0,0,0,
2026-04-19 10:30:00,METAR VVPQ 191030Z 22005KT 9999 SCT017 31/25 Q1007 NOSIG,0,5,0,10000,0,0,0,
2026-04-19 10:00:00,METAR VVPQ 191000Z 22008KT 9999 SCT017 31/26 Q1007 NOSIG,0,8,0,10000,0,0,0,
2026-04-19 09:30:00,METAR VVPQ 190930Z 21009KT 9999 SCT017 32/26 Q1007 NOSIG,0,9,0,10000,0,0,0,
2026-04-19 09:00:00,METAR VVPQ 190900Z 21011KT 9999 SCT017 32/26 Q1006 NOSIG,0,11,0,10000,0,0,0,
2026-04-19 08:30:00,METAR VVPQ 190830Z 21010KT 9999 SCT017 32/25 Q1006 NOSIG,0,10,0,10000,0,0,0,
2026-04-19 08:00:00,METAR VVPQ 190800Z 20010KT 9999 SCT017 33/26 Q1007 NOSIG,0,10,0,10000,0,0,0,
2026-04-19 07:30:00,METAR VVPQ 190730Z 22009KT 9999 SCT017 32/26 Q1007 NOSIG,0,9,0,10000,0,0,0,
2026-04-19 07:00:00,METAR VVPQ 190700Z 21012KT 9999 SCT017 32/26 Q1008 NOSIG,0,12,0,10000,0,0,0,
2026-04-19 06:30:00,METAR VVPQ 190630Z 20011KT 9999 SCT017 33/26 Q1008 NOSIG,0,11,0,10000,0,0,0,
2026-04-19 06:00:00,METAR VVPQ 190600Z 20010KT 9999 SCT017 34/25 Q1009 NOSIG,0,10,0,10000,0,0,0,
2026-04-19 05:30:00,METAR VVPQ 190530Z 21011KT 9999 SCT017 34/24 Q1009 NOSIG,0,11,0,10000,0,0,0,
2026-04-19 05:00:00,METAR VVPQ 190500Z 20009KT 160V230 9999 SCT017 32/25 Q1010 NOSIG,0,9,0,10000,0,0,0,
2026-04-19 04:30:00,METAR VVPQ 190430Z 21009KT 180V240 9999 SCT017 32/25 Q1010 NOSIG,0,9,0,10000,0,0,0,
2026-04-19 04:00:00,METAR VVPQ 190400Z 21009KT 180V240 9999 SCT017 32/25 Q1010 NOSIG,0,9,0,10000,0,0,0,
2026-04-19 03:30:00,METAR VVPQ 190330Z 20010KT 150V320 9999 SCT017 34/24 Q1011 NOSIG,0,10,0,10000,0,0,0,
2026-04-19 03:00:00,METAR VVPQ 190300Z 20007KT 170V230 9999 FEW017 33/25 Q1011 NOSIG,0,7,0,10000,0,0,0,
2026-04-19 02:30:00,METAR VVPQ 190230Z 20007KT 170V230 9999 FEW017 32/24 Q1011 NOSIG,0,7,0,10000,0,0,0,
2026-04-19 02:00:00,METAR VVPQ 190200Z 19007KT 100V220 9999 FEW017 32/24 Q1011 NOSIG,0,7,0,10000,0,0,0,
2026-04-19 01:30:00,METAR VVPQ 190130Z VRB05KT 9999 FEW017 32/26 Q1010 NOSIG,0,5,0,10000,0,0,0,
2026-04-19 01:00:00,METAR VVPQ 190100Z 14004KT 9999 FEW017 32/26 Q1010 NOSIG,0,4,0,10000,0,0,0,
2026-04-19 00:30:00,METAR VVPQ 190030Z 16004KT 9999 FEW017 30/26 Q1009 NOSIG,0,4,0,10000,0,0,0,
2026-04-19 00:00:00,METAR VVPQ 190000Z 07002KT 9999 FEW017 28/26 Q1009 NOSIG,0,2,0,10000,0,0,0,
2026-04-18 23:30:00,METAR VVPQ 182330Z 06002KT 9999 FEW017 27/26 Q1009 NOSIG,0,2,0,10000,0,0,0,
2026-04-18 23:00:00,METAR VVPQ 182300Z 12002KT 9999 FEW017 27/26 Q1009 NOSIG,0,2,0,10000,0,0,0,
2026-04-18 22:30:00,METAR VVPQ 182230Z 12002KT 9999 FEW017 27/26 Q1008 NOSIG,0,2,0,10000,0,0,0,
2026-04-18 22:00:00,METAR VVPQ 182200Z 04003KT 9999 FEW017 27/26 Q1008 NOSIG,0,3,0,10000,0,0,0,
2026-04-18 21:30:00,METAR VVPQ 182130Z 15003KT 9999 FEW017 27/26 Q1008 NOSIG,0,3,0,10000,0,0,0,
2026-04-18 21:00:00,METAR VVPQ 182100Z VRB02KT 9999 FEW017 27/26 Q1008 NOSIG,0,2,0,10000,0,0,0,
2026-04-18 20:30:00,METAR VVPQ 182030Z VRB01KT 9999 FEW017 27/26 Q1008 NOSIG,0,1,0,10000,0,0,0,
2026-04-18 20:00:00,METAR VVPQ 182000Z VRB01KT 9999 FEW017 28/26 Q1008 NOSIG,0,1,0,10000,0,0,0,
2026-04-18 19:30:00,METAR VVPQ 181930Z VRB01KT 9999 FEW017 28/26 Q1008 NOSIG,0,1,0,10000,0,0,0,
2026-04-18 19:00:00,METAR VVPQ 181900Z VRB02KT 9999 FEW017 28/26 Q1009 NOSIG,0,2,0,10000,0,0,0,
2026-04-18 18:30:00,METAR VVPQ 181830Z VRB02KT 9999 FEW017 29/26 Q1009 NOSIG,0,2,0,10000,0,0,0,
2026-04-18 18:00:00,METAR VVPQ 181800Z 15003KT 9999 FEW017 29/26 Q1009 NOSIG,0,3,0,10000,0,0,0,
2026-04-18 17:30:00,METAR VVPQ 181730Z 18003KT 9999 FEW017 29/27 Q1009 NOSIG,0,3,0,10000,0,0,0,
2026-04-18 17:00:00,METAR VVPQ 181700Z VRB02KT 9999 FEW017 29/27 Q1010 NOSIG,0,2,0,10000,0,0,0,
2026-04-18 16:30:00,METAR VVPQ 181630Z 19004KT 9999 FEW017 29/27 Q1010 NOSIG,0,4,0,10000,0,0,0,
2026-04-18 16:00:00,METAR VVPQ 181600Z VRB02KT 9999 FEW017 29/27 Q1010 NOSIG,0,2,0,10000,0,0,0,
2026-04-18 15:00:00,METAR VVPQ 181500Z 19003KT 9999 FEW017 29/26 Q1010 NOSIG,0,3,0,10000,0,0,0,
2026-04-18 14:30:00,METAR VVPQ 181430Z 23004KT 9999 FEW017 29/26 Q1009 NOSIG,0,4,0,10000,0,0,0,
2026-04-18 14:00:00,METAR VVPQ 181400Z 25003KT 9999 FEW017 29/26 Q1009 NOSIG,0,3,0,10000,0,0,0,
2026-04-18 13:30:00,METAR VVPQ 181330Z 23004KT 9999 FEW017 30/26 Q1008 NOSIG,0,4,0,10000,0,0,0,
2026-04-18 13:00:00,METAR VVPQ 181300Z 22005KT 9999 FEW017 30/26 Q1007 NOSIG,0,5,0,10000,0,0,0,
2026-04-18 12:30:00,METAR VVPQ 181230Z 23005KT 9999 FEW017 30/26 Q1007 NOSIG,0,5,0,10000,0,0,0,
2026-04-18 12:00:00,METAR VVPQ 181200Z 23005KT 9999 FEW017 30/26 Q1007 NOSIG,0,5,0,10000,0,0,0,
2026-04-18 11:30:00,METAR VVPQ 181130Z 22006KT 9999 FEW017 30/26 Q1007 NOSIG,0,6,0,10000,0,0,0,
2026-04-18 11:00:00,METAR VVPQ 181100Z 22006KT 9999 FEW017 31/26 Q1007 NOSIG,0,6,0,10000,0,0,0,
2026-04-18 10:30:00,METAR VVPQ 181030Z 20007KT 9999 FEW017 31/26 Q1007 NOSIG,0,7,0,10000,0,0,0,
2026-04-18 10:00:00,METAR VVPQ 181000Z 20010KT 9999 FEW017 32/27 Q1006 NOSIG,0,10,0,10000,0,0,0,
2026-04-18 09:00:00,METAR VVPQ 180900Z 20010KT 9999 FEW017 33/26 Q1007 NOSIG,0,10,0,10000,0,0,0,
2026-04-18 08:30:00,METAR VVPQ 180830Z 19014KT 9999 FEW017 34/26 Q1007 NOSIG,0,14,0,10000,0,0,0,
2026-04-18 08:00:00,METAR VVPQ 180800Z 19014KT 9999 FEW017 33/26 Q1007 NOSIG,0,14,0,10000,0,0,0,
2026-04-18 07:30:00,METAR VVPQ 180730Z 21009KT 9999 FEW017 33/26 Q1008 NOSIG,0,9,0,10000,0,0,0,
2026-04-18 07:00:00,METAR VVPQ 180700Z 21009KT 9999 FEW017 33/25 Q1008 NOSIG,0,9,0,10000,0,0,0,
2026-04-18 06:30:00,METAR VVPQ 180630Z 21011KT 9999 FEW017 35/24 Q1008 NOSIG,0,11,0,10000,0,0,0,
2026-04-18 06:00:00,METAR VVPQ 180600Z 20009KT 9999 SCT017 33/27 Q1008 NOSIG,0,9,0,10000,0,0,0,
2026-04-18 05:30:00,METAR VVPQ 180530Z 20009KT 9999 SCT017 32/27 Q1009 NOSIG,0,9,0,10000,0,0,0,
2026-04-18 05:00:00,METAR VVPQ 180500Z 22006KT 200V260 9999 SCT017 32/27 Q1009 NOSIG,0,6,0,10000,0,0,0,
2026-04-18 04:30:00,METAR VVPQ 180430Z 23004KT 9999 SCT017 32/27 Q1010 NOSIG,0,4,0,10000,0,0,0,
2026-04-18 04:00:00,METAR VVPQ 180400Z 22006KT 9999 SCT017 32/27 Q1010 NOSIG,0,6,0,10000,0,0,0,
2026-04-18 03:30:00,METAR VVPQ 180330Z 22006KT 9999 SCT017 32/27 Q1010 NOSIG,0,6,0,10000,0,0,0,
2026-04-18 03:00:00,METAR VVPQ 180300Z 24006KT 9999 SCT017 31/27 Q1010 NOSIG,0,6,0,10000,0,0,0,
2026-04-18 02:30:00,METAR VVPQ 180230Z 25005KT 220V280 9999 FEW017 32/27 Q1010 NOSIG,0,5,0,10000,0,0,0,
2026-04-18 02:00:00,METAR VVPQ 180200Z 24005KT 9999 FEW017 32/27 Q1010 NOSIG,0,5,0,10000,0,0,0,
2026-04-18 01:30:00,METAR VVPQ 180130Z VRB01KT 9999 FEW017 31/27 Q1010 NOSIG,0,1,0,10000,0,0,0,
2026-04-18 01:00:00,METAR VVPQ 180100Z 01002KT 9999 FEW017 31/27 Q1010 NOSIG,0,2,0,10000,0,0,0,
2026-04-18 00:30:00,METAR VVPQ 180030Z VRB01KT 9999 FEW017 30/27 Q1009 NOSIG,0,1,0,10000,0,0,0,
2026-04-18 00:00:00,METAR VVPQ 180000Z 07003KT 9999 FEW017 28/27 Q1009 NOSIG,0,3,0,10000,0,0,0,
2026-04-17 23:30:00,METAR VVPQ 172330Z 07003KT 9999 FEW017 27/26 Q1008 NOSIG,0,3,0,10000,0,0,0,
2026-04-17 23:00:00,METAR VVPQ 172300Z 07003KT 9999 FEW017 26/26 Q1008 NOSIG,0,3,0,10000,0,0,0,
2026-04-17 22:30:00,METAR VVPQ 172230Z 07003KT 9999 FEW017 26/26 Q1008 NOSIG,0,3,0,10000,0,0,0,
2026-04-17 22:00:00,METAR VVPQ 172200Z 09002KT 9999 FEW017 27/26 Q1008 NOSIG,0,2,0,10000,0,0,0,
2026-04-17 21:30:00,METAR VVPQ 172130Z 09002KT 9999 FEW017 27/26 Q1008 NOSIG,0,2,0,10000,0,0,0,
2026-04-17 21:00:00,METAR VVPQ 172100Z 09002KT 9999 FEW017 27/26 Q1008 NOSIG,0,2,0,10000,0,0,0,
2026-04-17 20:30:00,METAR VVPQ 172030Z 09002KT 9999 FEW017 27/26 Q1008 NOSIG,0,2,0,10000,0,0,0,
2026-04-17 20:00:00,METAR VVPQ 172000Z 09002KT 9999 FEW017 27/26 Q1008 NOSIG,0,2,0,10000,0,0,0,
2026-04-17 19:30:00,METAR VVPQ 171930Z 09002KT 9999 FEW017 27/26 Q1008 NOSIG,0,2,0,10000,0,0,0,
2026-04-17 19:00:00,METAR VVPQ 171900Z VRB03KT 9999 FEW017 27/26 Q1009 NOSIG,0,3,0,10000,0,0,0,
2026-04-17 18:30:00,METAR VVPQ 171830Z VRB03KT 9999 FEW017 27/26 Q1009 NOSIG,0,3,0,10000,0,0,0,
2026-04-17 18:00:00,METAR VVPQ 171800Z VRB03KT 9999 FEW017 27/26 Q1009 NOSIG,0,3,0,10000,0,0,0,
2026-04-17 17:30:00,METAR VVPQ 171730Z VRB03KT 9999 FEW017 27/26 Q1009 NOSIG,0,3,0,10000,0,0,0,
2026-04-17 17:00:00,METAR VVPQ 171700Z 07003KT 9999 FEW017 27/26 Q1010 NOSIG,0,3,0,10000,0,0,0,
2026-04-17 16:30:00,METAR VVPQ 171630Z 07003KT 9999 FEW017 28/26 Q1010 NOSIG,0,3,0,10000,0,0,0,
2026-04-17 16:00:00,METAR VVPQ 171600Z 07003KT 9999 FEW017 28/26 Q1010 NOSIG,0,3,0,10000,0,0,0,
2026-04-17 15:30:00,METAR VVPQ 171530Z 07003KT 9999 FEW017 28/26 Q1010 NOSIG,0,3,0,10000,0,0,0,
2026-04-17 15:00:00,METAR VVPQ 171500Z 07003KT 9999 FEW017 28/26 Q1010 NOSIG,0,3,0,10000,0,0,0,
2026-04-17 14:30:00,METAR VVPQ 171430Z 09003KT 9999 FEW017 28/26 Q1010 NOSIG,0,3,0,10000,0,0,0,
2026-04-17 14:00:00,METAR VVPQ 171400Z 35002KT 9999 FEW017 28/26 Q1009 NOSIG,0,2,0,10000,0,0,0,
2026-04-17 13:30:00,METAR VVPQ 171330Z 34003KT 9999 FEW017 28/26 Q1009 NOSIG,0,3,0,10000,0,0,0,
2026-04-17 13:00:00,METAR VVPQ 171300Z 34003KT 9999 FEW017 29/26 Q1009 NOSIG,0,3,0,10000,0,0,0,
2026-04-17 12:30:00,METAR VVPQ 171230Z 22003KT 9999 FEW017 30/26 Q1008 NOSIG,0,3,0,10000,0,0,0,
2026-04-17 12:00:00,METAR VVPQ 171200Z 22003KT 9999 FEW017 30/26 Q1008 NOSIG,0,3,0,10000,0,0,0,
2026-04-17 11:30:00,METAR VVPQ 171130Z 21005KT 9999 FEW017 30/26 Q1007 NOSIG,0,5,0,10000,0,0,0,
2026-04-17 11:00:00,METAR VVPQ 171100Z 20005KT 9999 FEW017 31/26 Q1007 NOSIG,0,5,0,10000,0,0,0,
2026-04-17 10:30:00,METAR VVPQ 171030Z 21006KT 9999 FEW017 31/26 Q1007 NOSIG,0,6,0,10000,0,0,0,
2026-04-17 10:00:00,METAR VVPQ 171000Z 21008KT 9999 FEW017 32/26 Q1007 NOSIG,0,8,0,10000,0,0,0,
2026-04-17 09:30:00,METAR VVPQ 170930Z 21009KT 9999 FEW017 32/25 Q1007 NOSIG,0,9,0,10000,0,0,0,
2026-04-17 09:00:00,METAR VVPQ 170900Z 21009KT 9999 FEW017 33/25 Q1007 NOSIG,0,9,0,10000,0,0,0,
2026-04-17 08:30:00,METAR VVPQ 170830Z 21010KT 9999 FEW017 33/24 Q1007 NOSIG,0,10,0,10000,0,0,0,
2026-04-17 08:00:00,METAR VVPQ 170800Z 21010KT 9999 FEW017 33/26 Q1008 NOSIG,0,10,0,10000,0,0,0,
2026-04-17 07:30:00,METAR VVPQ 170730Z 22010KT 9999 FEW017 33/25 Q1008 NOSIG,0,10,0,10000,0,0,0,
2026-04-17 07:00:00,METAR VVPQ 170700Z 21010KT 9999 FEW017 33/25 Q1008 NOSIG,0,10,0,10000,0,0,0,
2026-04-17 06:30:00,METAR VVPQ 170630Z 21010KT 9999 FEW017 34/24 Q1009 NOSIG,0,10,0,10000,0,0,0,
2026-04-17 06:00:00,METAR VVPQ 170600Z 21010KT 9999 FEW017 34/24 Q1010 NOSIG,0,10,0,10000,0,0,0,
2026-04-17 05:30:00,METAR VVPQ 170530Z 22009KT 9999 FEW017 34/25 Q1010 NOSIG,0,9,0,10000,0,0,0,
2026-04-17 05:00:00,METAR VVPQ 170500Z 27006KT 9999 FEW017 34/25 Q1011 NOSIG,0,6,0,10000,0,0,0,
2026-04-17 04:30:00,METAR VVPQ 170430Z 25007KT 9999 FEW015 33/25 Q1011 NOSIG,0,7,0,10000,0,0,0,
2026-04-17 04:00:00,METAR VVPQ 170400Z 23006KT 9999 FEW015 32/24 Q1011 NOSIG,0,6,0,10000,0,0,0,
2026-04-17 03:30:00,METAR VVPQ 170330Z 25006KT 9999 FEW015 33/25 Q1011 NOSIG,0,6,0,10000,0,0,0,
2026-04-17 03:00:00,METAR VVPQ 170300Z 25006KT 9999 FEW015 32/24 Q1011 NOSIG,0,6,0,10000,0,0,0,
2026-04-17 02:30:00,METAR VVPQ 170230Z 23006KT 9999 FEW015 33/24 Q1011 NOSIG,0,6,0,10000,0,0,0,
2026-04-17 02:00:00,METAR VVPQ 170200Z 22004KT 9999 FEW015 33/24 Q1011 NOSIG,0,4,0,10000,0,0,0,
2026-04-17 01:30:00,METAR VVPQ 170130Z VRB01KT 9999 FEW015 32/25 Q1010 NOSIG,0,1,0,10000,0,0,0,
2026-04-17 01:00:00,METAR VVPQ 170100Z VRB01KT 9999 FEW015 31/26 Q1010 NOSIG,0,1,0,10000,0,0,0,
2026-04-17 00:30:00,METAR VVPQ 170030Z 07002KT 9999 FEW015 30/26 Q1010 NOSIG,0,2,0,10000,0,0,0,
2026-04-17 00:00:00,METAR VVPQ 170000Z VRB01KT 9999 FEW015 29/26 Q1009 NOSIG,0,1,0,10000,0,0,0,
2026-04-16 23:30:00,METAR VVPQ 162330Z 09002KT 9999 SCT015 27/25 Q1009 NOSIG,0,2,0,10000,0,0,0,
2026-04-16 23:00:00,METAR VVPQ 162300Z VRB02KT 9999 SCT015 26/25 Q1009 NOSIG,0,2,0,10000,0,0,0,
2026-04-16 22:30:00,METAR VVPQ 162230Z VRB02KT 9999 SCT015 26/25 Q1009 NOSIG,0,2,0,10000,0,0,0,
2026-04-16 22:00:00,METAR VVPQ 162200Z 05003KT 9999 FEW015 27/26 Q1009 NOSIG,0,3,0,10000,0,0,0,
2026-04-16 21:30:00,METAR VVPQ 162130Z VRB02KT 9999 FEW015 28/26 Q1008 NOSIG,0,2,0,10000,0,0,0,
2026-04-16 21:00:00,METAR VVPQ 162100Z VRB02KT 9999 FEW015 28/26 Q1008 NOSIG,0,2,0,10000,0,0,0,
2026-04-16 20:30:00,METAR VVPQ 162030Z 17005KT 9999 FEW015 29/26 Q1008 NOSIG,0,5,0,10000,0,0,0,
2026-04-16 20:00:00,METAR VVPQ 162000Z 17005KT 9999 FEW015 29/26 Q1008 NOSIG,0,5,0,10000,0,0,0,
2026-04-16 19:30:00,METAR VVPQ 161930Z 16005KT 9999 FEW015 29/26 Q1009 NOSIG,0,5,0,10000,0,0,0,
2026-04-16 19:00:00,METAR VVPQ 161900Z 15004KT 9999 FEW015 29/26 Q1009 NOSIG,0,4,0,10000,0,0,0,
2026-04-16 18:30:00,METAR VVPQ 161830Z 14004KT 9999 FEW015 29/26 Q1009 NOSIG,0,4,0,10000,0,0,0,
2026-04-16 18:00:00,METAR VVPQ 161800Z 18003KT 9999 FEW015 29/26 Q1009 NOSIG,0,3,0,10000,0,0,0,
2026-04-16 17:30:00,METAR VVPQ 161730Z 14004KT 9999 FEW015 29/26 Q1009 NOSIG,0,4,0,10000,0,0,0,
2026-04-16 17:00:00,METAR VVPQ 161700Z 15005KT 9999 FEW015 29/26 Q1009 NOSIG,0,5,0,10000,0,0,0,
2026-04-16 16:30:00,METAR VVPQ 161630Z 17004KT 9999 FEW015 29/26 Q1010 NOSIG,0,4,0,10000,0,0,0,
2026-04-16 16:00:00,METAR VVPQ 161600Z 17004KT 9999 FEW015 30/26 Q1010 NOSIG,0,4,0,10000,0,0,0,
2026-04-16 15:30:00,METAR VVPQ 161530Z 19006KT 9999 FEW015 30/26 Q1010 NOSIG,0,6,0,10000,0,0,0,
2026-04-16 15:00:00,METAR VVPQ 161500Z 20006KT 9999 FEW015 29/26 Q1010 NOSIG,0,6,0,10000,0,0,0,
2026-04-16 14:30:00,METAR VVPQ 161430Z 20005KT 9999 FEW015 29/26 Q1009 NOSIG,0,5,0,10000,0,0,0,
2026-04-16 14:00:00,METAR VVPQ 161400Z 20004KT CAVOK 29/26 Q1008 NOSIG,1,0,0,9999,0,0,0,
2026-04-16 13:30:00,METAR VVPQ 161330Z 21004KT CAVOK 29/26 Q1008 NOSIG,1,0,0,9999,0,0,0,
2026-04-16 13:00:00,METAR VVPQ 161300Z 23004KT CAVOK 30/26 Q1008 NOSIG,1,0,0,9999,0,0,0,
2026-04-16 12:30:00,METAR VVPQ 161230Z 24003KT CAVOK 30/26 Q1008 NOSIG,1,0,0,9999,0,0,0,
2026-04-16 12:00:00,METAR VVPQ 161200Z 20006KT CAVOK 30/26 Q1007 NOSIG,1,0,0,9999,0,0,0,
2026-04-16 11:30:00,METAR VVPQ 161130Z 22005KT CAVOK 30/26 Q1007 NOSIG,1,0,0,9999,0,0,0,
2026-04-16 11:00:00,METAR VVPQ 161100Z 20007KT CAVOK 30/26 Q1007 NOSIG,1,0,0,9999,0,0,0,
2026-04-16 10:30:00,METAR VVPQ 161030Z 26006KT CAVOK 31/26 Q1006 NOSIG,1,0,0,9999,0,0,0,
2026-04-16 10:00:00,METAR VVPQ 161000Z 18008KT CAVOK 31/26 Q1006 NOSIG,1,0,0,9999,0,0,0,
2026-04-16 09:30:00,METAR VVPQ 160930Z 20011KT CAVOK 32/25 Q1006 NOSIG,1,0,0,9999,0,0,0,
2026-04-16 09:00:00,METAR VVPQ 160900Z 20010KT 9999 FEW017 34/25 Q1006 NOSIG,0,10,0,10000,0,0,0,
2026-04-16 08:30:00,METAR VVPQ 160830Z 15007KT 9999 FEW017 34/25 Q1006 NOSIG,0,7,0,10000,0,0,0,
2026-04-16 08:00:00,METAR VVPQ 160800Z 14006KT 9999 FEW017 35/25 Q1006 NOSIG,0,6,0,10000,0,0,0,
2026-04-16 07:30:00,METAR VVPQ 160730Z 17008KT 9999 FEW017 35/25 Q1007 NOSIG,0,8,0,10000,0,0,0,
2026-04-16 07:00:00,METAR VVPQ 160700Z 15006KT 9999 FEW015 35/25 Q1008 NOSIG,0,6,0,10000,0,0,0,
2026-04-16 06:30:00,METAR VVPQ 160630Z 11009KT 9999 FEW015 34/25 Q1008 NOSIG,0,9,0,10000,0,0,0,
2026-04-16 06:00:00,METAR VVPQ 160600Z 12009KT 9999 FEW015 34/26 Q1009 NOSIG,0,9,0,10000,0,0,0,
2026-04-16 05:30:00,METAR VVPQ 160530Z 11009KT 9999 FEW015 35/26 Q1009 NOSIG,0,9,0,10000,0,0,0,
2026-04-16 05:00:00,METAR VVPQ 160500Z 11008KT 9999 FEW015 34/26 Q1009 NOSIG,0,8,0,10000,0,0,0,
2026-04-16 04:30:00,METAR VVPQ 160430Z 11007KT 9999 FEW015 34/26 Q1010 NOSIG,0,7,0,10000,0,0,0,
2026-04-16 04:00:00,METAR VVPQ 160400Z 14005KT 110V180 9999 FEW015 34/27 Q1010 NOSIG,0,5,0,10000,0,0,0,
2026-04-16 03:30:00,METAR VVPQ 160330Z 12004KT 030V150 9999 FEW015 33/26 Q1010 NOSIG,0,4,0,10000,0,0,0,
2026-04-16 03:00:00,METAR VVPQ 160300Z 09005KT 9999 FEW015 33/26 Q1010 NOSIG,0,5,0,10000,0,0,0,
2026-04-16 02:30:00,METAR VVPQ 160230Z 11005KT 9999 FEW015 33/26 Q1010 NOSIG,0,5,0,10000,0,0,0,
2026-04-16 02:00:00,METAR VVPQ 160200Z 12003KT 9999 FEW015 32/26 Q1010 NOSIG,0,3,0,10000,0,0,0,
2026-04-16 01:30:00,METAR VVPQ 160130Z 18003KT 9999 FEW015 32/26 Q1010 NOSIG,0,3,0,10000,0,0,0,
2026-04-16 01:00:00,METAR VVPQ 160100Z VRB01KT 9999 FEW015 32/26 Q1010 NOSIG,0,1,0,10000,0,0,0,
2026-04-16 00:30:00,METAR VVPQ 160030Z 06002KT 9999 FEW015 29/27 Q1009 NOSIG,0,2,0,10000,0,0,0,
2026-04-16 00:00:00,METAR VVPQ 160000Z 06001KT 9999 FEW015 28/26 Q1009 NOSIG,0,1,0,10000,0,0,0,
2026-04-15 23:30:00,METAR VVPQ 152330Z 07002KT 9999 FEW015 27/26 Q1008 NOSIG,0,2,0,10000,0,0,0,
2026-04-15 23:00:00,METAR VVPQ 152300Z VRB01KT 9999 FEW015 26/26 Q1008 NOSIG,0,1,0,10000,0,0,0,
2026-04-15 22:30:00,METAR VVPQ 152230Z 07002KT 9999 FEW015 26/26 Q1008 NOSIG,0,2,0,10000,0,0,0,
2026-04-15 22:00:00,METAR VVPQ 152200Z 07002KT 9999 FEW015 26/26 Q1008 NOSIG,0,2,0,10000,0,0,0,
2026-04-15 21:30:00,METAR VVPQ 152130Z 05002KT 9999 FEW015 26/26 Q1007 NOSIG,0,2,0,10000,0,0,0,
2026-04-15 21:00:00,METAR VVPQ 152100Z 03002KT 9999 FEW015 26/26 Q1007 NOSIG,0,2,0,10000,0,0,0,
2026-04-15 20:30:00,METAR VVPQ 152030Z VRB01KT 9999 FEW015 26/26 Q1007 NOSIG,0,1,0,10000,0,0,0,
2026-04-15 20:00:00,METAR VVPQ 152000Z 04001KT 9999 FEW015 26/26 Q1007 NOSIG,0,1,0,10000,0,0,0,
2026-04-15 19:30:00,METAR VVPQ 151930Z VRB02KT 9999 FEW015 26/26 Q1007 NOSIG,0,2,0,10000,0,0,0,
2026-04-15 19:00:00,METAR VVPQ 151900Z 05002KT 9999 FEW015 26/26 Q1008 NOSIG,0,2,0,10000,0,0,0,
2026-04-15 18:30:00,METAR VVPQ 151830Z VRB02KT 9999 FEW015 27/26 Q1008 NOSIG,0,2,0,10000,0,0,0,
2026-04-15 18:00:00,METAR VVPQ 151800Z 02001KT 9999 FEW015 27/26 Q1008 NOSIG,0,1,0,10000,0,0,0,
2026-04-15 17:30:00,METAR VVPQ 151730Z 05002KT 9999 FEW015 27/26 Q1009 NOSIG,0,2,0,10000,0,0,0,
2026-04-15 17:00:00,METAR VVPQ 151700Z 06001KT 9999 FEW015 27/26 Q1009 NOSIG,0,1,0,10000,0,0,0,
2026-04-15 16:30:00,METAR VVPQ 151630Z 04002KT 9999 FEW015 27/26 Q1009 NOSIG,0,2,0,10000,0,0,0,
2026-04-15 16:00:00,METAR VVPQ 151600Z VRB01KT 9999 FEW015 27/26 Q1010 NOSIG,0,1,0,10000,0,0,0,
2026-04-15 15:30:00,METAR VVPQ 151530Z 35001KT 9999 FEW015 28/26 Q1010 NOSIG,0,1,0,10000,0,0,0,
2026-04-15 15:00:00,METAR VVPQ 151500Z 04002KT 9999 FEW015 28/26 Q1009 NOSIG,0,2,0,10000,0,0,0,
2026-04-15 14:30:00,METAR VVPQ 151430Z VRB02KT 9999 FEW015 28/26 Q1009 NOSIG,0,2,0,10000,0,0,0,
2026-04-15 14:00:00,METAR VVPQ 151400Z 24004KT 210V280 9999 FEW015 28/26 Q1009 NOSIG,0,4,0,10000,0,0,0,
2026-04-15 13:30:00,METAR VVPQ 151330Z VRB02KT 9999 FEW015 29/26 Q1008 NOSIG,0,2,0,10000,0,0,0,
2026-04-15 13:00:00,METAR VVPQ 151300Z 25004KT 9999 FEW015 29/26 Q1008 NOSIG,0,4,0,10000,0,0,0,
2026-04-15 12:30:00,METAR VVPQ 151230Z 25004KT 9999 FEW015 29/26 Q1008 NOSIG,0,4,0,10000,0,0,0,
2026-04-15 12:00:00,METAR VVPQ 151200Z 25005KT 9999 FEW015 30/26 Q1007 NOSIG,0,5,0,10000,0,0,0,
2026-04-15 11:30:00,METAR VVPQ 151130Z 25006KT 9999 FEW015 30/26 Q1007 NOSIG,0,6,0,10000,0,0,0,
2026-04-15 11:00:00,METAR VVPQ 151100Z 23006KT 9999 FEW015 30/26 Q1007 NOSIG,0,6,0,10000,0,0,0,
2026-04-15 10:30:00,METAR VVPQ 151030Z 23007KT 9999 FEW015 31/26 Q1006 NOSIG,0,7,0,10000,0,0,0,
2026-04-15 10:00:00,METAR VVPQ 151000Z 21009KT 9999 FEW015 31/26 Q1006 NOSIG,0,9,0,10000,0,0,0,
2026-04-15 09:30:00,METAR VVPQ 150930Z 22009KT 9999 FEW015 32/26 Q1006 NOSIG,0,9,0,10000,0,0,0,
2026-04-15 09:00:00,METAR VVPQ 150900Z 21010KT 9999 FEW015 32/26 Q1007 NOSIG,0,10,0,10000,0,0,0,
2026-04-15 08:30:00,METAR VVPQ 150830Z 21010KT 9999 FEW015 32/26 Q1007 NOSIG,0,10,0,10000,0,0,0,
2026-04-15 08:00:00,METAR VVPQ 150800Z 22010KT 9999 FEW015 33/26 Q1007 NOSIG,0,10,0,10000,0,0,0,
2026-04-15 07:30:00,METAR VVPQ 150730Z 21011KT 9999 FEW015 33/26 Q1008 NOSIG,0,11,0,10000,0,0,0,
2026-04-15 07:00:00,METAR VVPQ 150700Z 22010KT 9999 FEW015 33/26 Q1008 NOSIG,0,10,0,10000,0,0,0,
2026-04-15 06:30:00,METAR VVPQ 150630Z 22011KT 9999 FEW015 33/26 Q1008 NOSIG,0,11,0,10000,0,0,0,
2026-04-15 06:00:00,METAR VVPQ 150600Z 21010KT 9999 FEW015 33/26 Q1009 NOSIG,0,10,0,10000,0,0,0,
2026-04-15 05:30:00,METAR VVPQ 150530Z 23011KT 9999 FEW015 33/26 Q1009 NOSIG,0,11,0,10000,0,0,0,
2026-04-15 05:00:00,METAR VVPQ 150500Z 22010KT 9999 FEW015 34/26 Q1010 NOSIG,0,10,0,10000,0,0,0,
2026-04-15 04:30:00,METAR VVPQ 150430Z 21009KT 9999 FEW015 34/26 Q1010 NOSIG,0,9,0,10000,0,0,0,
2026-04-15 04:00:00,METAR VVPQ 150400Z 21009KT 9999 FEW015 33/25 Q1011 NOSIG,0,9,0,10000,0,0,0,
2026-04-15 03:30:00,METAR VVPQ 150330Z 23008KT 9999 FEW015 32/25 Q1011 NOSIG,0,8,0,10000,0,0,0,
2026-04-15 03:00:00,METAR VVPQ 150300Z 20008KT 9999 FEW015 32/26 Q1011 NOSIG,0,8,0,10000,0,0,0,
2026-04-15 02:30:00,METAR VVPQ 150230Z 21009KT 9999 FEW015 32/26 Q1011 NOSIG,0,9,0,10000,0,0,0,
2026-04-15 02:00:00,METAR VVPQ 150200Z 21006KT 9999 FEW015 31/27 Q1010 NOSIG,0,6,0,10000,0,0,0,
2026-04-15 01:30:00,METAR VVPQ 150130Z 21006KT 9999 FEW015 31/27 Q1010 NOSIG,0,6,0,10000,0,0,0,
2026-04-15 01:00:00,METAR VVPQ 150100Z 18007KT 9999 FEW015 31/27 Q1010 NOSIG,0,7,0,10000,0,0,0,
2026-04-15 00:30:00,METAR VVPQ 150030Z 04003KT 9999 FEW015 30/27 Q1009 NOSIG,0,3,0,10000,0,0,0,
2026-04-15 00:00:00,METAR VVPQ 150000Z 05002KT 9999 FEW015 28/27 Q1009 NOSIG,0,2,0,10000,0,0,0,
2026-04-14 23:30:00,METAR VVPQ 142330Z 09003KT 9999 SCT015 27/26 Q1008 NOSIG,0,3,0,10000,0,0,0,
2026-04-14 23:00:00,METAR VVPQ 142300Z 06002KT 9999 SCT015 26/26 Q1008 NOSIG,0,2,0,10000,0,0,0,
2026-04-14 22:30:00,METAR VVPQ 142230Z 06002KT 9999 SCT015 26/26 Q1008 NOSIG,0,2,0,10000,0,0,0,
2026-04-14 22:00:00,METAR VVPQ 142200Z 04001KT 9999 FEW015 26/26 Q1007 NOSIG,0,1,0,10000,0,0,0,
2026-04-14 21:30:00,METAR VVPQ 142130Z 06001KT 9999 FEW015 26/26 Q1007 NOSIG,0,1,0,10000,0,0,0,
2026-04-14 21:00:00,METAR VVPQ 142100Z 07002KT 9999 FEW015 26/26 Q1007 NOSIG,0,2,0,10000,0,0,0,
2026-04-14 20:30:00,METAR VVPQ 142030Z 07002KT 9999 FEW015 26/26 Q1007 NOSIG,0,2,0,10000,0,0,0,
2026-04-14 20:00:00,METAR VVPQ 142000Z 06002KT 9999 FEW015 27/26 Q1007 NOSIG,0,2,0,10000,0,0,0,
2026-04-14 19:30:00,METAR VVPQ 141930Z 06002KT 9999 FEW015 27/26 Q1007 NOSIG,0,2,0,10000,0,0,0,
2026-04-14 19:00:00,METAR VVPQ 141900Z 08003KT 9999 FEW017 27/26 Q1008 NOSIG,0,3,0,10000,0,0,0,
2026-04-14 18:30:00,METAR VVPQ 141830Z VRB02KT 9999 FEW017 27/26 Q1008 NOSIG,0,2,0,10000,0,0,0,
2026-04-14 18:00:00,METAR VVPQ 141800Z 07002KT 9999 FEW017 27/26 Q1008 NOSIG,0,2,0,10000,0,0,0,
2026-04-14 17:30:00,METAR VVPQ 141730Z 05002KT 9999 FEW017 27/26 Q1009 NOSIG,0,2,0,10000,0,0,0,
2026-04-14 17:00:00,METAR VVPQ 141700Z 36002KT 9999 FEW017 27/26 Q1009 NOSIG,0,2,0,10000,0,0,0,
2026-04-14 16:30:00,METAR VVPQ 141630Z 23003KT 9999 FEW017 27/26 Q1010 NOSIG,0,3,0,10000,0,0,0,
2026-04-14 16:00:00,METAR VVPQ 141600Z 23003KT 9999 FEW017 27/26 Q1010 NOSIG,0,3,0,10000,0,0,0,
2026-04-14 15:30:00,METAR VVPQ 141530Z 25004KT 9999 FEW017 28/26 Q1010 NOSIG,0,4,0,10000,0,0,0,
2026-04-14 15:00:00,METAR VVPQ 141500Z 23007KT 9999 FEW017 29/26 Q1010 NOSIG,0,7,0,10000,0,0,0,
2026-04-14 14:30:00,METAR VVPQ 141430Z 22005KT 9999 FEW017 30/26 Q1009 NOSIG,0,5,0,10000,0,0,0,
2026-04-14 14:00:00,METAR VVPQ 141400Z 24004KT 9999 FEW017 30/26 Q1009 NOSIG,0,4,0,10000,0,0,0,
2026-04-14 13:30:00,METAR VVPQ 141330Z 24005KT 9999 FEW017 30/26 Q1009 NOSIG,0,5,0,10000,0,0,0,
2026-04-14 13:00:00,METAR VVPQ 141300Z 24006KT 9999 FEW017 30/26 Q1008 NOSIG,0,6,0,10000,0,0,0,
2026-04-14 12:30:00,METAR VVPQ 141230Z 23006KT 9999 FEW017 30/26 Q1008 NOSIG,0,6,0,10000,0,0,0,
2026-04-14 12:00:00,METAR VVPQ 141200Z 23006KT 9999 FEW017 30/26 Q1008 NOSIG,0,6,0,10000,0,0,0,
2026-04-14 11:30:00,METAR VVPQ 141130Z 24007KT 9999 FEW017 30/26 Q1008 NOSIG,0,7,0,10000,0,0,0,
2026-04-14 11:00:00,METAR VVPQ 141100Z 23007KT 9999 FEW017 30/26 Q1007 NOSIG,0,7,0,10000,0,0,0,
2026-04-14 10:30:00,METAR VVPQ 141030Z 22007KT 9999 FEW017 31/26 Q1007 NOSIG,0,7,0,10000,0,0,0,
2026-04-14 10:00:00,METAR VVPQ 141000Z 22008KT 9999 FEW017 31/26 Q1007 NOSIG,0,8,0,10000,0,0,0,
2026-04-14 09:30:00,METAR VVPQ 140930Z 23010KT 9999 FEW017 32/26 Q1007 NOSIG,0,10,0,10000,0,0,0,
2026-04-14 09:00:00,METAR VVPQ 140900Z 22010KT 9999 FEW017 32/26 Q1008 NOSIG,0,10,0,10000,0,0,0,
2026-04-14 08:30:00,METAR VVPQ 140830Z 22010KT 9999 FEW017 32/26 Q1008 NOSIG,0,10,0,10000,0,0,0,
2026-04-14 08:00:00,METAR VVPQ 140800Z 22009KT 9999 FEW017 32/26 Q1008 NOSIG,0,9,0,10000,0,0,0,
2026-04-14 07:30:00,METAR VVPQ 140730Z 21008KT 9999 FEW017 33/26 Q1008 NOSIG,0,8,0,10000,0,0,0,
2026-04-14 07:00:00,METAR VVPQ 140700Z 22008KT 9999 FEW017 34/26 Q1009 NOSIG,0,8,0,10000,0,0,0,
2026-04-14 06:30:00,METAR VVPQ 140630Z 23008KT 9999 FEW017 33/26 Q1009 NOSIG,0,8,0,10000,0,0,0,
2026-04-14 06:00:00,METAR VVPQ 140600Z 23008KT 9999 FEW017 33/26 Q1010 NOSIG,0,8,0,10000,0,0,0,
2026-04-14 05:30:00,METAR VVPQ 140530Z 23008KT 200V260 9999 SCT017 33/26 Q1010 NOSIG,0,8,0,10000,0,0,0,
2026-04-14 05:00:00,METAR VVPQ 140500Z 23009KT 9999 SCT017 33/26 Q1011 NOSIG,0,9,0,10000,0,0,0,
2026-04-14 04:30:00,METAR VVPQ 140430Z 23008KT 9999 SCT017 33/26 Q1011 NOSIG,0,8,0,10000,0,0,0,
2026-04-14 04:00:00,METAR VVPQ 140400Z 22009KT 9999 SCT017 32/26 Q1012 NOSIG,0,9,0,10000,0,0,0,
2026-04-14 03:30:00,METAR VVPQ 140330Z 23010KT 9999 SCT017 32/26 Q1012 NOSIG,0,10,0,10000,0,0,0,
2026-04-14 03:00:00,METAR VVPQ 140300Z 21007KT 9999 FEW017 32/26 Q1011 NOSIG,0,7,0,10000,0,0,0,
2026-04-14 02:30:00,METAR VVPQ 140230Z 19005KT 9999 FEW017 33/27 Q1011 NOSIG,0,5,0,10000,0,0,0,
2026-04-14 02:00:00,METAR VVPQ 140200Z 18004KT 9999 FEW017 33/25 Q1011 NOSIG,0,4,0,10000,0,0,0,
2026-04-14 01:30:00,METAR VVPQ 140130Z 18004KT 9999 FEW017 32/26 Q1011 NOSIG,0,4,0,10000,0,0,0,
2026-04-14 01:00:00,METAR VVPQ 140100Z VRB02KT 9999 FEW017 31/26 Q1011 NOSIG,0,2,0,10000,0,0,0,
2026-04-14 00:30:00,METAR VVPQ 140030Z VRB01KT 9999 FEW017 29/26 Q1011 NOSIG,0,1,0,10000,0,0,0,
2026-04-14 00:00:00,METAR VVPQ 140000Z 09002KT 9999 FEW017 28/26 Q1010 NOSIG,0,2,0,10000,0,0,0,
2026-04-13 23:30:00,METAR VVPQ 132330Z 05002KT 9999 FEW017 26/26 Q1010 NOSIG,0,2,0,10000,0,0,0,
2026-04-13 23:00:00,METAR VVPQ 132300Z VRB01KT 9999 FEW017 25/25 Q1010 NOSIG,0,1,0,10000,0,0,0,
2026-04-13 22:30:00,METAR VVPQ 132230Z 11002KT 9999 FEW017 25/25 Q1009 NOSIG,0,2,0,10000,0,0,0,
2026-04-13 22:00:00,METAR VVPQ 132200Z VRB01KT 9999 FEW017 25/25 Q1009 NOSIG,0,1,0,10000,0,0,0,
2026-04-13 21:30:00,METAR VVPQ 132130Z VRB01KT 9999 FEW017 25/25 Q1009 NOSIG,0,1,0,10000,0,0,0,
2026-04-13 21:00:00,METAR VVPQ 132100Z VRB02KT 9999 FEW017 25/25 Q1009 NOSIG,0,2,0,10000,0,0,0,
2026-04-13 20:30:00,METAR VVPQ 132030Z VRB01KT 9999 FEW017 26/25 Q1008 NOSIG,0,1,0,10000,0,0,0,
2026-04-13 20:00:00,METAR VVPQ 132000Z VRB02KT 9999 FEW017 26/25 Q1008 NOSIG,0,2,0,10000,0,0,0,
2026-04-13 19:30:00,METAR VVPQ 131930Z VRB02KT 9999 FEW017 26/25 Q1009 NOSIG,0,2,0,10000,0,0,0,
2026-04-13 19:00:00,METAR VVPQ 131900Z VRB01KT 9999 FEW017 26/25 Q1009 NOSIG,0,1,0,10000,0,0,0,
2026-04-13 18:30:00,METAR VVPQ 131830Z VRB02KT 9999 FEW017 26/25 Q1009 NOSIG,0,2,0,10000,0,0,0,
2026-04-13 18:00:00,METAR VVPQ 131800Z VRB02KT 9999 FEW017 26/25 Q1009 NOSIG,0,2,0,10000,0,0,0,
2026-04-13 17:30:00,METAR VVPQ 131730Z 05002KT 9999 FEW017 26/25 Q1010 NOSIG,0,2,0,10000,0,0,0,
2026-04-13 17:00:00,METAR VVPQ 131700Z VRB01KT 9999 FEW017 26/25 Q1010 NOSIG,0,1,0,10000,0,0,0,
2026-04-13 16:30:00,METAR VVPQ 131630Z 07002KT 9999 FEW017 26/25 Q1011 NOSIG,0,2,0,10000,0,0,0,
2026-04-13 16:00:00,METAR VVPQ 131600Z 03001KT 9999 FEW017 26/26 Q1011 NOSIG,0,1,0,10000,0,0,0,
2026-04-13 15:30:00,METAR VVPQ 131530Z 03002KT 9999 FEW017 26/25 Q1011 NOSIG,0,2,0,10000,0,0,0,
2026-04-13 15:00:00,METAR VVPQ 131500Z VRB02KT 9999 FEW017 27/26 Q1011 NOSIG,0,2,0,10000,0,0,0,
2026-04-13 14:30:00,METAR VVPQ 131430Z 09002KT 9999 FEW017 27/26 Q1011 NOSIG,0,2,0,10000,0,0,0,
2026-04-13 14:00:00,METAR VVPQ 131400Z 08003KT 9999 FEW017 27/26 Q1011 NOSIG,0,3,0,10000,0,0,0,
2026-04-13 13:30:00,METAR VVPQ 131330Z 12002KT 9999 FEW017 28/26 Q1010 NOSIG,0,2,0,10000,0,0,0,
2026-04-13 13:00:00,METAR VVPQ 131300Z 21004KT 9999 FEW017 29/26 Q1010 NOSIG,0,4,0,10000,0,0,0,
2026-04-13 12:30:00,METAR VVPQ 131230Z 22005KT 9999 FEW017 29/26 Q1009 NOSIG,0,5,0,10000,0,0,0,
2026-04-13 12:00:00,METAR VVPQ 131200Z 21006KT 9999 FEW017 29/26 Q1009 NOSIG,0,6,0,10000,0,0,0,
2026-04-13 11:30:00,METAR VVPQ 131130Z 22006KT 9999 FEW017 29/26 Q1009 NOSIG,0,6,0,10000,0,0,0,
2026-04-13 11:00:00,METAR VVPQ 131100Z 21006KT 9999 FEW017 30/26 Q1008 NOSIG,0,6,0,10000,0,0,0,
2026-04-13 10:30:00,METAR VVPQ 131030Z 23006KT 9999 FEW017 31/26 Q1008 NOSIG,0,6,0,10000,0,0,0,
2026-04-13 10:00:00,METAR VVPQ 131000Z 21008KT 9999 FEW017 31/25 Q1008 NOSIG,0,8,0,10000,0,0,0,
2026-04-13 09:30:00,METAR VVPQ 130930Z 22008KT 9999 FEW017 32/26 Q1008 NOSIG,0,8,0,10000,0,0,0,
2026-04-13 09:00:00,METAR VVPQ 130900Z 23009KT 9999 FEW017 32/26 Q1008 NOSIG,0,9,0,10000,0,0,0,
2026-04-13 08:30:00,METAR VVPQ 130830Z 23008KT 9999 SCT015 33/26 Q1008 NOSIG,0,8,0,10000,0,0,0,
2026-04-13 08:00:00,METAR VVPQ 130800Z 22008KT 9999 SCT015 33/26 Q1008 NOSIG,0,8,0,10000,0,0,0,
2026-04-13 07:30:00,METAR VVPQ 130730Z 23009KT 9999 SCT015 33/26 Q1009 NOSIG,0,9,0,10000,0,0,0,
2026-04-13 07:00:00,METAR VVPQ 130700Z 22009KT 9999 SCT015 33/25 Q1009 NOSIG,0,9,0,10000,0,0,0,
2026-04-13 06:30:00,METAR VVPQ 130630Z 22010KT 9999 SCT015 33/25 Q1010 NOSIG,0,10,0,10000,0,0,0,
2026-04-13 06:00:00,METAR VVPQ 130600Z 22008KT 9999 SCT015 34/25 Q1010 NOSIG,0,8,0,10000,0,0,0,
2026-04-13 05:30:00,METAR VVPQ 130530Z 22008KT 9999 SCT015 33/24 Q1011 NOSIG,0,8,0,10000,0,0,0,
2026-04-13 05:00:00,METAR VVPQ 130500Z 22011KT 9999 SCT015 33/25 Q1011 NOSIG,0,11,0,10000,0,0,0,
2026-04-13 04:30:00,METAR VVPQ 130430Z 21008KT 9999 SCT015 33/26 Q1012 NOSIG,0,8,0,10000,0,0,0,
2026-04-13 04:00:00,METAR VVPQ 130400Z 21010KT 9999 SCT015 33/26 Q1012 NOSIG,0,10,0,10000,0,0,0,
2026-04-13 03:30:00,METAR VVPQ 130330Z 19009KT 9999 SCT015 33/26 Q1012 NOSIG,0,9,0,10000,0,0,0,
2026-04-13 03:00:00,METAR VVPQ 130300Z 11011KT 9999 FEW015 33/26 Q1012 NOSIG,0,11,0,10000,0,0,0,
2026-04-13 02:00:00,METAR VVPQ 130200Z 21008KT 9999 FEW015 32/26 Q1012 NOSIG,0,8,0,10000,0,0,0,
2026-04-13 01:30:00,METAR VVPQ 130130Z 19009KT 9999 FEW015 32/27 Q1012 NOSIG,0,9,0,10000,0,0,0,
2026-04-13 01:00:00,METAR VVPQ 130100Z 14004KT 9999 FEW015 31/27 Q1011 NOSIG,0,4,0,10000,0,0,0,
2026-04-13 00:30:00,METAR VVPQ 130030Z 14004KT 9999 FEW015 30/26 Q1011 NOSIG,0,4,0,10000,0,0,0,
2026-04-13 00:00:00,METAR VVPQ 130000Z VRB02KT 9999 FEW015 29/26 Q1011 NOSIG,0,2,0,10000,0,0,0,
2026-04-12 23:30:00,METAR VVPQ 122330Z 14005KT 9999 FEW015 28/26 Q1010 NOSIG,0,5,0,10000,0,0,0,
2026-04-12 23:00:00,METAR VVPQ 122300Z 08003KT 9999 FEW015 26/25 Q1010 NOSIG,0,3,0,10000,0,0,0,
2026-04-12 22:30:00,METAR VVPQ 122230Z 07003KT 9999 FEW015 26/25 Q1009 NOSIG,0,3,0,10000,0,0,0,
2026-04-12 22:00:00,METAR VVPQ 122200Z 07003KT 9999 FEW015 26/25 Q1009 NOSIG,0,3,0,10000,0,0,0,
2026-04-12 21:30:00,METAR VVPQ 122130Z 05003KT 9999 FEW015 26/25 Q1008 NOSIG,0,3,0,10000,0,0,0,
2026-04-12 21:00:00,METAR VVPQ 122100Z 05003KT 9999 FEW015 26/25 Q1008 NOSIG,0,3,0,10000,0,0,0,
2026-04-12 20:30:00,METAR VVPQ 122030Z 05003KT 9999 FEW015 26/25 Q1008 NOSIG,0,3,0,10000,0,0,0,
2026-04-12 20:00:00,METAR VVPQ 122000Z 05003KT 9999 FEW015 26/25 Q1008 NOSIG,0,3,0,10000,0,0,0,
2026-04-12 19:30:00,METAR VVPQ 121930Z VRB03KT 9999 FEW015 27/26 Q1009 NOSIG,0,3,0,10000,0,0,0,
2026-04-12 19:00:00,METAR VVPQ 121900Z VRB03KT 9999 FEW015 27/26 Q1009 NOSIG,0,3,0,10000,0,0,0,
2026-04-12 18:30:00,METAR VVPQ 121830Z VRB03KT 9999 FEW015 27/26 Q1009 NOSIG,0,3,0,10000,0,0,0,
2026-04-12 18:00:00,METAR VVPQ 121800Z VRB03KT 9999 FEW015 27/26 Q1009 NOSIG,0,3,0,10000,0,0,0,
2026-04-12 17:30:00,METAR VVPQ 121730Z 04003KT 9999 FEW015 27/26 Q1009 NOSIG,0,3,0,10000,0,0,0,
2026-04-12 17:00:00,METAR VVPQ 121700Z 04003KT 9999 FEW015 27/26 Q1009 NOSIG,0,3,0,10000,0,0,0,
2026-04-12 16:30:00,METAR VVPQ 121630Z 19004KT 9999 FEW015 28/26 Q1010 NOSIG,0,4,0,10000,0,0,0,
2026-04-12 16:00:00,METAR VVPQ 121600Z 20007KT 9999 FEW015 28/26 Q1010 NOSIG,0,7,0,10000,0,0,0,
2026-04-12 15:00:00,METAR VVPQ 121500Z 19006KT 9999 FEW015 29/26 Q1010 NOSIG,0,6,0,10000,0,0,0,
2026-04-12 14:30:00,METAR VVPQ 121430Z 19005KT 9999 FEW015 29/26 Q1010 NOSIG,0,5,0,10000,0,0,0,
2026-04-12 14:00:00,METAR VVPQ 121400Z 20004KT 9999 SCT015 29/26 Q1009 NOSIG,0,4,0,10000,0,0,0,
2026-04-12 13:30:00,METAR VVPQ 121330Z 20004KT 9999 SCT015 29/26 Q1009 NOSIG,0,4,0,10000,0,0,0,
2026-04-12 13:00:00,METAR VVPQ 121300Z 20005KT 9999 SCT015 29/26 Q1009 NOSIG,0,5,0,10000,0,0,0,
2026-04-12 12:30:00,METAR VVPQ 121230Z 21006KT 9999 SCT015 30/26 Q1008 NOSIG,0,6,0,10000,0,0,0,
2026-04-12 12:00:00,METAR VVPQ 121200Z 22006KT 9999 SCT015 30/26 Q1008 NOSIG,0,6,0,10000,0,0,0,
2026-04-12 11:30:00,METAR VVPQ 121130Z 23006KT 9999 SCT015 30/26 Q1007 NOSIG,0,6,0,10000,0,0,0,
2026-04-12 11:00:00,METAR VVPQ 121100Z 23007KT 9999 SCT015 30/26 Q1007 NOSIG,0,7,0,10000,0,0,0,
2026-04-12 10:30:00,METAR VVPQ 121030Z 24008KT 9999 SCT015 31/26 Q1007 NOSIG,0,8,0,10000,0,0,0,
2026-04-12 10:00:00,METAR VVPQ 121000Z 23008KT 9999 SCT015 31/26 Q1007 NOSIG,0,8,0,10000,0,0,0,
2026-04-12 09:30:00,METAR VVPQ 120930Z 24008KT 9999 SCT015 32/26 Q1007 NOSIG,0,8,0,10000,0,0,0,
2026-04-12 09:00:00,METAR VVPQ 120900Z 24009KT 9999 SCT015 32/26 Q1007 NOSIG,0,9,0,10000,0,0,0,
2026-04-12 08:30:00,METAR VVPQ 120830Z 23009KT 9999 SCT015 32/26 Q1007 NOSIG,0,9,0,10000,0,0,0,
2026-04-12 08:00:00,METAR VVPQ 120800Z 23009KT 9999 SCT015 33/26 Q1007 NOSIG,0,9,0,10000,0,0,0,
2026-04-12 07:30:00,METAR VVPQ 120730Z 24010KT 9999 SCT015 33/26 Q1007 NOSIG,0,10,0,10000,0,0,0,
2026-04-12 07:00:00,METAR VVPQ 120700Z 20010KT 9999 SCT015 33/27 Q1008 NOSIG,0,10,0,10000,0,0,0,
2026-04-12 06:30:00,METAR VVPQ 120630Z 21008KT 9999 SCT015 33/26 Q1009 NOSIG,0,8,0,10000,0,0,0,
2026-04-12 06:00:00,METAR VVPQ 120600Z 21008KT 9999 FEW015 33/26 Q1009 NOSIG,0,8,0,10000,0,0,0,
2026-04-12 05:30:00,METAR VVPQ 120530Z 20011KT 9999 FEW015 34/26 Q1010 NOSIG,0,11,0,10000,0,0,0,
2026-04-12 05:00:00,METAR VVPQ 120500Z 20012KT 9999 FEW015 33/26 Q1010 NOSIG,0,12,0,10000,0,0,0,
2026-04-12 04:30:00,METAR VVPQ 120430Z 21012KT 9999 FEW015 33/26 Q1010 NOSIG,0,12,0,10000,0,0,0,
2026-04-12 04:00:00,METAR VVPQ 120400Z 19010KT 9999 FEW015 32/26 Q1010 NOSIG,0,10,0,10000,0,0,0,
2026-04-12 03:30:00,METAR VVPQ 120330Z 20010KT 9999 FEW015 33/26 Q1011 NOSIG,0,10,0,10000,0,0,0,
2026-04-12 03:00:00,METAR VVPQ 120300Z 20010KT 9999 FEW015 33/27 Q1011 NOSIG,0,10,0,10000,0,0,0,
2026-04-12 02:30:00,METAR VVPQ 120230Z 20007KT 9999 FEW015 32/26 Q1011 NOSIG,0,7,0,10000,0,0,0,
2026-04-12 02:00:00,METAR VVPQ 120200Z 20007KT 9999 FEW015 31/27 Q1010 NOSIG,0,7,0,10000,0,0,0,
2026-04-12 01:30:00,METAR VVPQ 120130Z 21006KT 9999 FEW015 30/27 Q1010 NOSIG,0,6,0,10000,0,0,0,
2026-04-12 01:00:00,METAR VVPQ 120100Z VRB01KT 9999 FEW015 31/27 Q1010 NOSIG,0,1,0,10000,0,0,0,
2026-04-12 00:30:00,METAR VVPQ 120030Z VRB01KT 9999 FEW015 29/27 Q1010 NOSIG,0,1,0,10000,0,0,0,
2026-04-12 00:00:00,METAR VVPQ 120000Z VRB01KT 9999 FEW017 27/26 Q1009 NOSIG,0,1,0,10000,0,0,0,
2026-04-11 23:30:00,METAR VVPQ 112330Z 05001KT CAVOK 25/25 Q1009 NOSIG,1,0,0,9999,0,0,0,
2026-04-11 23:00:00,METAR VVPQ 112300Z 03001KT CAVOK 25/25 Q1008 NOSIG,1,0,0,9999,0,0,0,
2026-04-11 22:30:00,METAR VVPQ 112230Z 06002KT 9999 FEW017 25/25 Q1008 NOSIG,0,2,0,10000,0,0,0,
2026-04-11 22:00:00,METAR VVPQ 112200Z 07002KT 9999 FEW017 25/25 Q1007 NOSIG,0,2,0,10000,0,0,0,
2026-04-11 21:30:00,METAR VVPQ 112130Z 05002KT 9999 FEW017 25/25 Q1007 NOSIG,0,2,0,10000,0,0,0,
2026-04-11 21:00:00,METAR VVPQ 112100Z 06002KT 9999 FEW017 25/25 Q1007 NOSIG,0,2,0,10000,0,0,0,
2026-04-11 20:30:00,METAR VVPQ 112030Z VRB02KT 9999 FEW017 26/25 Q1007 NOSIG,0,2,0,10000,0,0,0,
2026-04-11 20:00:00,METAR VVPQ 112000Z VRB02KT 9999 FEW017 26/25 Q1007 NOSIG,0,2,0,10000,0,0,0,
2026-04-11 19:30:00,METAR VVPQ 111930Z VRB03KT 9999 FEW017 26/26 Q1008 NOSIG,0,3,0,10000,0,0,0,
2026-04-11 19:00:00,METAR VVPQ 111900Z 04003KT 9999 FEW017 26/26 Q1008 NOSIG,0,3,0,10000,0,0,0,
2026-04-11 18:30:00,METAR VVPQ 111830Z VRB01KT 9999 FEW017 26/26 Q1008 NOSIG,0,1,0,10000,0,0,0,
2026-04-11 18:00:00,METAR VVPQ 111800Z 00000KT 9999 FEW017 26/26 Q1009 NOSIG,0,0,0,10000,0,0,0,
2026-04-11 17:30:00,METAR VVPQ 111730Z VRB02KT 9999 FEW017 27/26 Q1009 NOSIG,0,2,0,10000,0,0,0,
2026-04-11 17:00:00,METAR VVPQ 111700Z 29002KT 9999 FEW017 28/26 Q1009 NOSIG,0,2,0,10000,0,0,0,
2026-04-11 16:30:00,METAR VVPQ 111630Z 25003KT 9999 FEW017 28/26 Q1010 NOSIG,0,3,0,10000,0,0,0,
2026-04-11 16:00:00,METAR VVPQ 111600Z 25005KT 9999 FEW017 28/26 Q1010 NOSIG,0,5,0,10000,0,0,0,
2026-04-11 15:30:00,METAR VVPQ 111530Z 25005KT 9999 FEW017 28/26 Q1010 NOSIG,0,5,0,10000,0,0,0,
2026-04-11 15:00:00,METAR VVPQ 111500Z 26005KT 9999 FEW017 28/26 Q1010 NOSIG,0,5,0,10000,0,0,0,
2026-04-11 14:30:00,METAR VVPQ 111430Z 26006KT 9999 FEW017 28/26 Q1010 NOSIG,0,6,0,10000,0,0,0,
2026-04-11 14:00:00,METAR VVPQ 111400Z 24006KT 9999 FEW017 28/26 Q1010 NOSIG,0,6,0,10000,0,0,0,
2026-04-11 13:30:00,METAR VVPQ 111330Z 26006KT 9999 FEW017 29/26 Q1009 NOSIG,0,6,0,10000,0,0,0,
2026-04-11 13:00:00,METAR VVPQ 111300Z 26005KT 9999 FEW017 29/26 Q1009 NOSIG,0,5,0,10000,0,0,0,
2026-04-11 12:30:00,METAR VVPQ 111230Z 26007KT 9999 FEW017 29/26 Q1009 NOSIG,0,7,0,10000,0,0,0,
2026-04-11 12:00:00,METAR VVPQ 111200Z 26006KT 9999 FEW017 30/26 Q1008 NOSIG,0,6,0,10000,0,0,0,
2026-04-11 11:30:00,METAR VVPQ 111130Z 26008KT CAVOK 30/25 Q1008 NOSIG,1,0,0,9999,0,0,0,
2026-04-11 11:00:00,METAR VVPQ 111100Z 26007KT CAVOK 30/25 Q1007 NOSIG,1,0,0,9999,0,0,0,
2026-04-11 10:30:00,METAR VVPQ 111030Z 26007KT CAVOK 31/25 Q1007 NOSIG,1,0,0,9999,0,0,0,
2026-04-11 10:00:00,METAR VVPQ 111000Z 26007KT CAVOK 31/25 Q1007 NOSIG,1,0,0,9999,0,0,0,
2026-04-11 09:30:00,METAR VVPQ 110930Z 24008KT CAVOK 32/25 Q1008 NOSIG,1,0,0,9999,0,0,0,
2026-04-11 09:00:00,METAR VVPQ 110900Z 25009KT CAVOK 32/25 Q1008 NOSIG,1,0,0,9999,0,0,0,
2026-04-11 08:30:00,METAR VVPQ 110830Z 27009KT CAVOK 32/25 Q1008 NOSIG,1,0,0,9999,0,0,0,
2026-04-11 08:00:00,METAR VVPQ 110800Z 28010KT CAVOK 33/25 Q1008 NOSIG,1,0,0,9999,0,0,0,
2026-04-11 07:30:00,METAR VVPQ 110730Z 27009KT 9999 FEW015 32/25 Q1009 NOSIG,0,9,0,10000,0,0,0,
2026-04-11 07:00:00,METAR VVPQ 110700Z 27010KT 9999 FEW015 32/25 Q1009 NOSIG,0,10,0,10000,0,0,0,
2026-04-11 06:30:00,METAR VVPQ 110630Z 26010KT 9999 FEW015 33/25 Q1010 NOSIG,0,10,0,10000,0,0,0,
2026-04-11 06:00:00,METAR VVPQ 110600Z 27010KT 9999 FEW015 33/24 Q1010 NOSIG,0,10,0,10000,0,0,0,
2026-04-11 05:30:00,METAR VVPQ 110530Z 25009KT 9999 FEW015 33/25 Q1011 NOSIG,0,9,0,10000,0,0,0,
2026-04-11 05:00:00,METAR VVPQ 110500Z 27009KT 9999 FEW015 32/25 Q1011 NOSIG,0,9,0,10000,0,0,0,
2026-04-11 04:30:00,METAR VVPQ 110430Z 26009KT 9999 FEW015 33/25 Q1012 NOSIG,0,9,0,10000,0,0,0,
2026-04-11 04:00:00,METAR VVPQ 110400Z 27008KT 9999 FEW015 33/25 Q1012 NOSIG,0,8,0,10000,0,0,0,
2026-04-11 03:30:00,METAR VVPQ 110330Z 27009KT 9999 FEW015 33/25 Q1012 NOSIG,0,9,0,10000,0,0,0,
2026-04-11 03:00:00,METAR VVPQ 110300Z 27010KT 9999 FEW015 32/25 Q1012 NOSIG,0,10,0,10000,0,0,0,
2026-04-11 02:30:00,METAR VVPQ 110230Z 26008KT 9999 FEW015 33/25 Q1012 NOSIG,0,8,0,10000,0,0,0,
2026-04-11 02:00:00,METAR VVPQ 110200Z 26008KT 9999 FEW015 31/25 Q1012 NOSIG,0,8,0,10000,0,0,0,
2026-04-11 01:30:00,METAR VVPQ 110130Z 25007KT 9999 FEW015 32/25 Q1012 NOSIG,0,7,0,10000,0,0,0,
2026-04-11 01:00:00,METAR VVPQ 110100Z 24007KT 9999 FEW015 31/25 Q1012 NOSIG,0,7,0,10000,0,0,0,
2026-04-11 00:30:00,METAR VVPQ 110030Z 24006KT 9999 FEW015 31/25 Q1011 NOSIG,0,6,0,10000,0,0,0,
2026-04-11 00:00:00,METAR VVPQ 110000Z 22007KT 9999 FEW015 30/25 Q1011 NOSIG,0,7,0,10000,0,0,0,
2026-04-10 23:30:00,METAR VVPQ 102330Z 23007KT 9999 FEW015 29/25 Q1010 NOSIG,0,7,0,10000,0,0,0,
2026-04-10 23:00:00,METAR VVPQ 102300Z 23004KT 9999 FEW015 28/25 Q1010 NOSIG,0,4,0,10000,0,0,0,
2026-04-10 22:30:00,METAR VVPQ 102230Z 23004KT 9999 FEW015 28/25 Q1010 NOSIG,0,4,0,10000,0,0,0,
2026-04-10 22:00:00,METAR VVPQ 102200Z 24006KT 9999 FEW015 28/25 Q1009 NOSIG,0,6,0,10000,0,0,0,
2026-04-10 21:30:00,METAR VVPQ 102130Z 23005KT 9999 FEW015 28/25 Q1009 NOSIG,0,5,0,10000,0,0,0,
2026-04-10 21:00:00,METAR VVPQ 102100Z 24006KT 9999 FEW015 28/25 Q1009 NOSIG,0,6,0,10000,0,0,0,
2026-04-10 20:30:00,METAR VVPQ 102030Z 24008KT 9999 FEW015 28/25 Q1009 NOSIG,0,8,0,10000,0,0,0,
2026-04-10 20:00:00,METAR VVPQ 102000Z 25006KT 9999 FEW015 28/25 Q1010 NOSIG,0,6,0,10000,0,0,0,
2026-04-10 19:30:00,METAR VVPQ 101930Z 24008KT 9999 FEW017 28/25 Q1010 NOSIG,0,8,0,10000,0,0,0,
2026-04-10 19:00:00,METAR VVPQ 101900Z 24008KT 9999 FEW017 28/25 Q1010 NOSIG,0,8,0,10000,0,0,0,
2026-04-10 18:30:00,METAR VVPQ 101830Z 26007KT 9999 FEW017 28/25 Q1010 NOSIG,0,7,0,10000,0,0,0,
2026-04-10 18:00:00,METAR VVPQ 101800Z 26007KT 9999 FEW017 28/25 Q1011 NOSIG,0,7,0,10000,0,0,0,
2026-04-10 17:30:00,METAR VVPQ 101730Z 26007KT 9999 FEW017 28/25 Q1011 NOSIG,0,7,0,10000,0,0,0,
2026-04-10 17:00:00,METAR VVPQ 101700Z 24007KT 9999 FEW017 28/25 Q1011 NOSIG,0,7,0,10000,0,0,0,
2026-04-10 16:30:00,METAR VVPQ 101630Z 25007KT 9999 FEW017 28/25 Q1011 NOSIG,0,7,0,10000,0,0,0,
2026-04-10 16:00:00,METAR VVPQ 101600Z 26007KT 9999 FEW017 28/25 Q1011 NOSIG,0,7,0,10000,0,0,0,
2026-04-10 15:30:00,METAR VVPQ 101530Z 26007KT 9999 FEW017 28/25 Q1011 NOSIG,0,7,0,10000,0,0,0,
2026-04-10 15:00:00,METAR VVPQ 101500Z 25005KT 9999 FEW017 28/25 Q1011 NOSIG,0,5,0,10000,0,0,0,
2026-04-10 14:30:00,METAR VVPQ 101430Z 25005KT 9999 FEW017 28/25 Q1011 NOSIG,0,5,0,10000,0,0,0,
2026-04-10 14:00:00,METAR VVPQ 101400Z 25003KT 9999 FEW017 28/25 Q1011 NOSIG,0,3,0,10000,0,0,0,
2026-04-10 13:30:00,METAR VVPQ 101330Z 24004KT 9999 FEW017 28/25 Q1010 NOSIG,0,4,0,10000,0,0,0,
2026-04-10 13:00:00,METAR VVPQ 101300Z 24005KT 9999 FEW017 29/25 Q1010 NOSIG,0,5,0,10000,0,0,0,
2026-04-10 12:30:00,METAR VVPQ 101230Z 23005KT 9999 FEW017 29/25 Q1010 NOSIG,0,5,0,10000,0,0,0,
2026-04-10 12:00:00,METAR VVPQ 101200Z 24004KT 9999 FEW017 29/25 Q1009 NOSIG,0,4,0,10000,0,0,0,
2026-04-10 11:30:00,METAR VVPQ 101130Z 23005KT 9999 FEW017 29/25 Q1009 NOSIG,0,5,0,10000,0,0,0,
2026-04-10 11:00:00,METAR VVPQ 101100Z 22006KT 9999 FEW017 30/25 Q1009 NOSIG,0,6,0,10000,0,0,0,
2026-04-10 10:30:00,METAR VVPQ 101030Z 23006KT 9999 FEW017 30/25 Q1009 NOSIG,0,6,0,10000,0,0,0,
2026-04-10 10:00:00,METAR VVPQ 101000Z 23006KT 9999 FEW017 31/25 Q1009 NOSIG,0,6,0,10000,0,0,0,
2026-04-10 09:30:00,METAR VVPQ 100930Z 24007KT 9999 FEW017 31/25 Q1009 NOSIG,0,7,0,10000,0,0,0,
2026-04-10 09:00:00,METAR VVPQ 100900Z 23007KT 9999 FEW017 31/25 Q1008 NOSIG,0,7,0,10000,0,0,0,
2026-04-10 08:30:00,METAR VVPQ 100830Z 24007KT 9999 FEW017 32/25 Q1008 NOSIG,0,7,0,10000,0,0,0,
2026-04-10 08:00:00,METAR VVPQ 100800Z 24008KT 9999 FEW017 32/25 Q1009 NOSIG,0,8,0,10000,0,0,0,
2026-04-10 07:30:00,METAR VVPQ 100730Z 24008KT 9999 FEW017 32/25 Q1009 NOSIG,0,8,0,10000,0,0,0,
2026-04-10 07:00:00,METAR VVPQ 100700Z 24008KT 9999 FEW017 32/25 Q1010 NOSIG,0,8,0,10000,0,0,0,
2026-04-10 06:30:00,METAR VVPQ 100630Z 24008KT 9999 FEW017 32/25 Q1010 NOSIG,0,8,0,10000,0,0,0,
2026-04-10 06:00:00,METAR VVPQ 100600Z 21007KT 9999 FEW017 32/25 Q1011 NOSIG,0,7,0,10000,0,0,0,
2026-04-10 05:30:00,METAR VVPQ 100530Z 21007KT 9999 FEW017 32/25 Q1012 NOSIG,0,7,0,10000,0,0,0,
2026-04-10 05:00:00,METAR VVPQ 100500Z 25006KT 9999 FEW017 32/25 Q1012 NOSIG,0,6,0,10000,0,0,0,
2026-04-10 04:30:00,METAR VVPQ 100430Z 24006KT 9999 FEW017 32/24 Q1013 NOSIG,0,6,0,10000,0,0,0,
2026-04-10 04:00:00,METAR VVPQ 100400Z 24006KT 9999 FEW017 32/24 Q1013 NOSIG,0,6,0,10000,0,0,0,
2026-04-10 03:30:00,METAR VVPQ 100330Z 22008KT 9999 FEW017 31/24 Q1013 NOSIG,0,8,0,10000,0,0,0,
2026-04-10 03:00:00,METAR VVPQ 100300Z 22008KT 9999 FEW017 31/24 Q1013 NOSIG,0,8,0,10000,0,0,0,
2026-04-10 02:30:00,METAR VVPQ 100230Z 23008KT CAVOK 32/24 Q1013 NOSIG,1,0,0,9999,0,0,0,
2026-04-10 02:00:00,METAR VVPQ 100200Z 22006KT CAVOK 33/24 Q1013 NOSIG,1,0,0,9999,0,0,0,
2026-04-10 01:30:00,METAR VVPQ 100130Z 18004KT CAVOK 32/24 Q1013 NOSIG,1,0,0,9999,0,0,0,
2026-04-10 01:00:00,METAR VVPQ 100100Z 19003KT CAVOK 31/24 Q1013 NOSIG,1,0,0,9999,0,0,0,
2026-04-10 00:30:00,METAR VVPQ 100030Z VRB01KT 9999 FEW017 30/25 Q1012 NOSIG,0,1,0,10000,0,0,0,
2026-04-10 00:00:00,METAR VVPQ 100000Z 06003KT 9999 FEW017 27/25 Q1011 NOSIG,0,3,0,10000,0,0,0,
2026-04-09 23:30:00,METAR VVPQ 092330Z VRB02KT 9999 FEW017 25/24 Q1011 NOSIG,0,2,0,10000,0,0,0,
2026-04-09 23:00:00,METAR VVPQ 092300Z 08004KT 9999 FEW017 24/23 Q1011 NOSIG,0,4,0,10000,0,0,0,
2026-04-09 22:30:00,METAR VVPQ 092230Z 09004KT 9999 FEW017 24/23 Q1011 NOSIG,0,4,0,10000,0,0,0,
2026-04-09 22:00:00,METAR VVPQ 092200Z 06003KT 9999 FEW017 24/23 Q1011 NOSIG,0,3,0,10000,0,0,0,
2026-04-09 21:30:00,METAR VVPQ 092130Z 06003KT 9999 FEW017 25/24 Q1011 NOSIG,0,3,0,10000,0,0,0,
2026-04-09 21:00:00,METAR VVPQ 092100Z 07003KT 9999 FEW017 25/24 Q1010 NOSIG,0,3,0,10000,0,0,0,
2026-04-09 20:30:00,METAR VVPQ 092030Z VRB02KT 9999 FEW017 25/24 Q1010 NOSIG,0,2,0,10000,0,0,0,
2026-04-09 20:00:00,METAR VVPQ 092000Z 04003KT 9999 FEW017 25/24 Q1010 NOSIG,0,3,0,10000,0,0,0,
2026-04-09 19:30:00,METAR VVPQ 091930Z 09004KT 9999 FEW017 25/24 Q1010 NOSIG,0,4,0,10000,0,0,0,
2026-04-09 19:00:00,METAR VVPQ 091900Z 11003KT 9999 FEW017 25/24 Q1011 NOSIG,0,3,0,10000,0,0,0,
2026-04-09 18:30:00,METAR VVPQ 091830Z 10003KT 9999 FEW017 25/24 Q1011 NOSIG,0,3,0,10000,0,0,0,
2026-04-09 18:00:00,METAR VVPQ 091800Z 10002KT 9999 FEW017 25/24 Q1011 NOSIG,0,2,0,10000,0,0,0,
2026-04-09 17:30:00,METAR VVPQ 091730Z 10003KT 9999 FEW017 25/24 Q1011 NOSIG,0,3,0,10000,0,0,0,
2026-04-09 17:00:00,METAR VVPQ 091700Z 12003KT 9999 FEW017 26/24 Q1012 NOSIG,0,3,0,10000,0,0,0,
2026-04-09 16:30:00,METAR VVPQ 091630Z VRB02KT 9999 FEW017 26/24 Q1012 NOSIG,0,2,0,10000,0,0,0,
2026-04-09 16:00:00,METAR VVPQ 091600Z VRB02KT 9999 FEW017 26/25 Q1012 NOSIG,0,2,0,10000,0,0,0,
2026-04-09 15:30:00,METAR VVPQ 091530Z VRB02KT 9999 FEW017 26/25 Q1012 NOSIG,0,2,0,10000,0,0,0,
2026-04-09 15:00:00,METAR VVPQ 091500Z 06002KT 9999 FEW017 26/25 Q1012 NOSIG,0,2,0,10000,0,0,0,
2026-04-09 14:30:00,METAR VVPQ 091430Z VRB02KT 9999 FEW017 26/25 Q1011 NOSIG,0,2,0,10000,0,0,0,
2026-04-09 14:00:00,METAR VVPQ 091400Z VRB02KT 9999 FEW017 26/25 Q1011 NOSIG,0,2,0,10000,0,0,0,
2026-04-09 13:30:00,METAR VVPQ 091330Z 06002KT 9999 FEW017 27/25 Q1011 NOSIG,0,2,0,10000,0,0,0,
2026-04-09 13:00:00,METAR VVPQ 091300Z VRB01KT 9999 FEW017 27/25 Q1010 NOSIG,0,1,0,10000,0,0,0,
2026-04-09 12:30:00,METAR VVPQ 091230Z 16003KT 9999 FEW017 29/25 Q1010 NOSIG,0,3,0,10000,0,0,0,
2026-04-09 12:00:00,METAR VVPQ 091200Z 16003KT 9999 FEW017 29/24 Q1009 NOSIG,0,3,0,10000,0,0,0,
2026-04-09 11:30:00,METAR VVPQ 091130Z 21007KT 9999 FEW017 29/24 Q1009 NOSIG,0,7,0,10000,0,0,0,
2026-04-09 11:00:00,METAR VVPQ 091100Z 20006KT 9999 FEW017 30/24 Q1010 NOSIG,0,6,0,10000,0,0,0,
2026-04-09 10:30:00,METAR VVPQ 091030Z 20005KT 9999 FEW017 31/24 Q1009 NOSIG,0,5,0,10000,0,0,0,
2026-04-09 10:00:00,METAR VVPQ 091000Z 21006KT 9999 FEW017 31/25 Q1009 NOSIG,0,6,0,10000,0,0,0,
2026-04-09 09:30:00,METAR VVPQ 090930Z 21006KT 9999 FEW017 31/24 Q1009 NOSIG,0,6,0,10000,0,0,0,
2026-04-09 09:00:00,METAR VVPQ 090900Z 21008KT 9999 FEW017 32/25 Q1010 NOSIG,0,8,0,10000,0,0,0,
2026-04-09 08:30:00,METAR VVPQ 090830Z 22010KT 9999 FEW017 32/25 Q1010 NOSIG,0,10,0,10000,0,0,0,
2026-04-09 08:00:00,METAR VVPQ 090800Z 22010KT 9999 FEW017 33/25 Q1010 NOSIG,0,10,0,10000,0,0,0,
2026-04-09 07:30:00,METAR VVPQ 090730Z 22008KT 9999 FEW017 33/25 Q1011 NOSIG,0,8,0,10000,0,0,0,
2026-04-09 07:00:00,METAR VVPQ 090700Z 22010KT 9999 FEW017 32/25 Q1011 NOSIG,0,10,0,10000,0,0,0,
2026-04-09 06:30:00,METAR VVPQ 090630Z 22009KT 9999 FEW017 33/25 Q1011 NOSIG,0,9,0,10000,0,0,0,
2026-04-09 06:00:00,METAR VVPQ 090600Z 22009KT 9999 FEW017 33/26 Q1011 NOSIG,0,9,0,10000,0,0,0,
2026-04-09 05:30:00,METAR VVPQ 090530Z 23009KT 9999 FEW017 33/26 Q1012 NOSIG,0,9,0,10000,0,0,0,
2026-04-09 05:00:00,METAR VVPQ 090500Z 23009KT 9999 FEW017 33/26 Q1013 NOSIG,0,9,0,10000,0,0,0,
2026-04-09 04:30:00,METAR VVPQ 090430Z 24009KT 9999 FEW017 33/26 Q1013 NOSIG,0,9,0,10000,0,0,0,
2026-04-09 04:00:00,METAR VVPQ 090400Z 24009KT 9999 FEW017 33/26 Q1013 NOSIG,0,9,0,10000,0,0,0,
2026-04-09 03:30:00,METAR VVPQ 090330Z 24007KT 210V270 9999 FEW017 31/26 Q1013 NOSIG,0,7,0,10000,0,0,0,
2026-04-09 03:00:00,METAR VVPQ 090300Z 24008KT 9999 FEW017 31/26 Q1013 NOSIG,0,8,0,10000,0,0,0,
2026-04-09 02:30:00,METAR VVPQ 090230Z 23006KT 210V270 9999 FEW017 32/26 Q1013 NOSIG,0,6,0,10000,0,0,0,
2026-04-09 02:00:00,METAR VVPQ 090200Z 24005KT 9999 FEW017 31/26 Q1013 NOSIG,0,5,0,10000,0,0,0,
2026-04-09 01:30:00,METAR VVPQ 090130Z 23004KT 9999 FEW017 32/26 Q1013 NOSIG,0,4,0,10000,0,0,0,
2026-04-09 01:00:00,METAR VVPQ 090100Z 00000KT 9999 FEW017 30/26 Q1012 NOSIG,0,0,0,10000,0,0,0,
2026-04-09 00:30:00,METAR VVPQ 090030Z VRB01KT 9999 FEW017 29/26 Q1012 NOSIG,0,1,0,10000,0,0,0,
2026-04-09 00:00:00,METAR VVPQ 090000Z 05002KT 9999 FEW017 27/26 Q1011 NOSIG,0,2,0,10000,0,0,0,
2026-04-08 23:30:00,METAR VVPQ 082330Z 07002KT 9999 FEW017 25/25 Q1011 NOSIG,0,2,0,10000,0,0,0,
2026-04-08 23:00:00,METAR VVPQ 082300Z VRB02KT 9999 FEW017 25/25 Q1010 NOSIG,0,2,0,10000,0,0,0,
2026-04-08 22:30:00,METAR VVPQ 082230Z 04002KT 9999 FEW017 25/25 Q1010 NOSIG,0,2,0,10000,0,0,0,
2026-04-08 22:00:00,METAR VVPQ 082200Z 04002KT 9999 FEW017 25/25 Q1010 NOSIG,0,2,0,10000,0,0,0,
2026-04-08 21:30:00,METAR VVPQ 082130Z 06002KT 9999 FEW017 25/25 Q1009 NOSIG,0,2,0,10000,0,0,0,
2026-04-08 21:00:00,METAR VVPQ 082100Z 07002KT 9999 FEW017 25/25 Q1009 NOSIG,0,2,0,10000,0,0,0,
2026-04-08 20:30:00,METAR VVPQ 082030Z VRB02KT 9999 FEW017 25/25 Q1009 NOSIG,0,2,0,10000,0,0,0,
2026-04-08 20:00:00,METAR VVPQ 082000Z 07002KT 9999 FEW017 26/25 Q1009 NOSIG,0,2,0,10000,0,0,0,
2026-04-08 19:30:00,METAR VVPQ 081930Z 06002KT 9999 FEW017 26/26 Q1009 NOSIG,0,2,0,10000,0,0,0,
2026-04-08 19:00:00,METAR VVPQ 081900Z 06002KT 9999 FEW017 26/26 Q1009 NOSIG,0,2,0,10000,0,0,0,
2026-04-08 18:30:00,METAR VVPQ 081830Z VRB01KT 9999 FEW017 26/26 Q1009 NOSIG,0,1,0,10000,0,0,0,
2026-04-08 18:00:00,METAR VVPQ 081800Z 08002KT 9999 FEW017 26/26 Q1010 NOSIG,0,2,0,10000,0,0,0,
2026-04-08 17:30:00,METAR VVPQ 081730Z VRB02KT 9999 FEW017 26/26 Q1010 NOSIG,0,2,0,10000,0,0,0,
2026-04-08 17:00:00,METAR VVPQ 081700Z VRB01KT 9999 FEW017 26/26 Q1010 NOSIG,0,1,0,10000,0,0,0,
2026-04-08 16:30:00,METAR VVPQ 081630Z 03002KT 9999 FEW017 27/26 Q1010 NOSIG,0,2,0,10000,0,0,0,
2026-04-08 16:00:00,METAR VVPQ 081600Z 02001KT 9999 FEW017 27/26 Q1011 NOSIG,0,1,0,10000,0,0,0,
2026-04-08 15:30:00,METAR VVPQ 081530Z 02002KT 9999 FEW017 27/26 Q1011 NOSIG,0,2,0,10000,0,0,0,
2026-04-08 15:00:00,METAR VVPQ 081500Z 04002KT 9999 FEW017 27/26 Q1011 NOSIG,0,2,0,10000,0,0,0,
2026-04-08 14:30:00,METAR VVPQ 081430Z VRB02KT 9999 FEW017 27/26 Q1010 NOSIG,0,2,0,10000,0,0,0,
2026-04-08 14:00:00,METAR VVPQ 081400Z 22003KT 9999 FEW017 28/26 Q1010 NOSIG,0,3,0,10000,0,0,0,
2026-04-08 13:30:00,METAR VVPQ 081330Z 23003KT 9999 FEW017 29/26 Q1010 NOSIG,0,3,0,10000,0,0,0,
2026-04-08 13:00:00,METAR VVPQ 081300Z 23005KT 9999 FEW017 29/26 Q1009 NOSIG,0,5,0,10000,0,0,0,
2026-04-08 12:30:00,METAR VVPQ 081230Z 24005KT 9999 FEW017 29/26 Q1009 NOSIG,0,5,0,10000,0,0,0,
2026-04-08 12:00:00,METAR VVPQ 081200Z 22005KT 9999 FEW017 29/26 Q1009 NOSIG,0,5,0,10000,0,0,0,
2026-04-08 11:30:00,METAR VVPQ 081130Z 23006KT 9999 FEW017 30/26 Q1009 NOSIG,0,6,0,10000,0,0,0,
2026-04-08 11:00:00,METAR VVPQ 081100Z 21006KT 9999 FEW017 30/26 Q1009 NOSIG,0,6,0,10000,0,0,0,
2026-04-08 10:30:00,METAR VVPQ 081030Z 22007KT 9999 FEW017 31/27 Q1008 NOSIG,0,7,0,10000,0,0,0,
2026-04-08 10:00:00,METAR VVPQ 081000Z 23007KT 9999 FEW017 31/27 Q1008 NOSIG,0,7,0,10000,0,0,0,
2026-04-08 09:30:00,METAR VVPQ 080930Z 23008KT 210V270 9999 FEW017 32/27 Q1008 NOSIG,0,8,0,10000,0,0,0,
2026-04-08 09:00:00,METAR VVPQ 080900Z 24008KT 210V270 9999 FEW017 32/27 Q1008 NOSIG,0,8,0,10000,0,0,0,
2026-04-08 08:30:00,METAR VVPQ 080830Z 24008KT 210V280 9999 FEW017 32/27 Q1008 NOSIG,0,8,0,10000,0,0,0,
2026-04-08 08:00:00,METAR VVPQ 080800Z 23010KT 210V270 9999 FEW017 33/27 Q1009 NOSIG,0,10,0,10000,0,0,0,
2026-04-08 07:30:00,METAR VVPQ 080730Z 23010KT 190V260 9999 FEW017 33/27 Q1009 NOSIG,0,10,0,10000,0,0,0,
2026-04-08 07:00:00,METAR VVPQ 080700Z 23009KT 9999 FEW017 33/27 Q1009 NOSIG,0,9,0,10000,0,0,0,
2026-04-08 06:30:00,METAR VVPQ 080630Z 23009KT 9999 FEW017 32/27 Q1010 NOSIG,0,9,0,10000,0,0,0,
2026-04-08 06:00:00,METAR VVPQ 080600Z 22008KT 9999 FEW017 33/26 Q1011 NOSIG,0,8,0,10000,0,0,0,
2026-04-08 05:30:00,METAR VVPQ 080530Z 25007KT 9999 FEW017 33/26 Q1011 NOSIG,0,7,0,10000,0,0,0,
2026-04-08 05:00:00,METAR VVPQ 080500Z 25007KT 9999 FEW017 33/26 Q1011 NOSIG,0,7,0,10000,0,0,0,
2026-04-08 04:30:00,METAR VVPQ 080430Z 21006KT 9999 FEW017 33/26 Q1012 NOSIG,0,6,0,10000,0,0,0,
2026-04-08 04:00:00,METAR VVPQ 080400Z 21006KT 9999 FEW015 33/26 Q1012 NOSIG,0,6,0,10000,0,0,0,
2026-04-08 03:30:00,METAR VVPQ 080330Z 22007KT 9999 FEW015 32/27 Q1012 NOSIG,0,7,0,10000,0,0,0,
2026-04-08 03:00:00,METAR VVPQ 080300Z 22007KT 9999 FEW015 32/27 Q1012 NOSIG,0,7,0,10000,0,0,0,
2026-04-08 02:30:00,METAR VVPQ 080230Z 24007KT 9999 FEW015 32/26 Q1012 NOSIG,0,7,0,10000,0,0,0,
2026-04-08 02:00:00,METAR VVPQ 080200Z 24006KT 9999 FEW015 32/27 Q1012 NOSIG,0,6,0,10000,0,0,0,
2026-04-08 01:30:00,METAR VVPQ 080130Z 21005KT 9999 FEW015 31/26 Q1012 NOSIG,0,5,0,10000,0,0,0,
2026-04-08 01:00:00,METAR VVPQ 080100Z 22005KT 9999 FEW015 31/26 Q1011 NOSIG,0,5,0,10000,0,0,0,
2026-04-08 00:30:00,METAR VVPQ 080030Z VRB02KT 9999 FEW015 30/27 Q1011 NOSIG,0,2,0,10000,0,0,0,
2026-04-08 00:00:00,METAR VVPQ 080000Z 05004KT 9999 FEW015 28/27 Q1010 NOSIG,0,4,0,10000,0,0,0,
2026-04-07 23:30:00,METAR VVPQ 072330Z 04002KT 9999 FEW015 26/25 Q1010 NOSIG,0,2,0,10000,0,0,0,
2026-04-07 23:00:00,METAR VVPQ 072300Z 21004KT 9999 FEW015 26/25 Q1009 NOSIG,0,4,0,10000,0,0,0,
2026-04-07 22:30:00,METAR VVPQ 072230Z 21004KT 9999 FEW015 26/25 Q1009 NOSIG,0,4,0,10000,0,0,0,
2026-04-07 22:00:00,METAR VVPQ 072200Z 22005KT 9999 FEW015 28/26 Q1009 NOSIG,0,5,0,10000,0,0,0,
2026-04-07 21:30:00,METAR VVPQ 072130Z 25006KT 9999 FEW015 28/26 Q1009 NOSIG,0,6,0,10000,0,0,0,
2026-04-07 21:00:00,METAR VVPQ 072100Z 25006KT 9999 FEW015 28/26 Q1009 NOSIG,0,6,0,10000,0,0,0,
2026-04-07 20:30:00,METAR VVPQ 072030Z 25006KT 9999 FEW015 28/26 Q1009 NOSIG,0,6,0,10000,0,0,0,
2026-04-07 20:00:00,METAR VVPQ 072000Z 25006KT 9999 FEW015 28/26 Q1009 NOSIG,0,6,0,10000,0,0,0,
2026-04-07 19:30:00,METAR VVPQ 071930Z 25006KT 9999 FEW015 29/26 Q1009 NOSIG,0,6,0,10000,0,0,0,
2026-04-07 19:00:00,METAR VVPQ 071900Z 25006KT 9999 FEW015 29/26 Q1009 NOSIG,0,6,0,10000,0,0,0,
2026-04-07 18:30:00,METAR VVPQ 071830Z 25006KT 9999 FEW015 29/26 Q1009 NOSIG,0,6,0,10000,0,0,0,
2026-04-07 18:00:00,METAR VVPQ 071800Z 25006KT 9999 FEW015 29/26 Q1009 NOSIG,0,6,0,10000,0,0,0,
2026-04-07 17:30:00,METAR VVPQ 071730Z 25005KT 9999 FEW015 29/26 Q1009 NOSIG,0,5,0,10000,0,0,0,
2026-04-07 17:00:00,METAR VVPQ 071700Z 26007KT 9999 FEW015 29/27 Q1010 NOSIG,0,7,0,10000,0,0,0,
2026-04-07 16:30:00,METAR VVPQ 071630Z 26007KT 9999 FEW015 29/27 Q1010 NOSIG,0,7,0,10000,0,0,0,
2026-04-07 16:00:00,METAR VVPQ 071600Z 26007KT 9999 FEW015 29/27 Q1010 NOSIG,0,7,0,10000,0,0,0,
2026-04-07 15:30:00,METAR VVPQ 071530Z 26007KT 9999 FEW015 29/27 Q1010 NOSIG,0,7,0,10000,0,0,0,
2026-04-07 15:00:00,METAR VVPQ 071500Z 26007KT 9999 FEW015 29/27 Q1010 NOSIG,0,7,0,10000,0,0,0,
2026-04-07 14:30:00,METAR VVPQ 071430Z 26008KT 9999 FEW015 29/27 Q1009 NOSIG,0,8,0,10000,0,0,0,
2026-04-07 14:00:00,METAR VVPQ 071400Z 26008KT 9999 FEW015 29/27 Q1009 NOSIG,0,8,0,10000,0,0,0,
2026-04-07 13:30:00,METAR VVPQ 071330Z 28009KT 9999 FEW015 29/27 Q1009 NOSIG,0,9,0,10000,0,0,0,
2026-04-07 13:00:00,METAR VVPQ 071300Z 26009KT 9999 FEW015 30/27 Q1009 NOSIG,0,9,0,10000,0,0,0,
2026-04-07 12:30:00,METAR VVPQ 071230Z 27009KT 9999 FEW015 29/27 Q1009 NOSIG,0,9,0,10000,0,0,0,
2026-04-07 12:00:00,METAR VVPQ 071200Z 26010KT 9999 FEW015 30/27 Q1009 NOSIG,0,10,0,10000,0,0,0,
2026-04-07 11:30:00,METAR VVPQ 071130Z 26009KT 9999 FEW015 30/27 Q1008 NOSIG,0,9,0,10000,0,0,0,
2026-04-07 11:00:00,METAR VVPQ 071100Z 26009KT 9999 FEW015 30/27 Q1008 NOSIG,0,9,0,10000,0,0,0,
2026-04-07 10:30:00,METAR VVPQ 071030Z 26010KT 9999 FEW015 31/27 Q1008 NOSIG,0,10,0,10000,0,0,0,
2026-04-07 10:00:00,METAR VVPQ 071000Z 26010KT 9999 FEW015 31/27 Q1008 NOSIG,0,10,0,10000,0,0,0,
2026-04-07 09:30:00,METAR VVPQ 070930Z 27010KT 9999 FEW015 32/27 Q1008 NOSIG,0,10,0,10000,0,0,0,
2026-04-07 09:00:00,METAR VVPQ 070900Z 27011KT 9999 FEW015 32/27 Q1008 NOSIG,0,11,0,10000,0,0,0,
2026-04-07 08:30:00,METAR VVPQ 070830Z 26012KT 9999 FEW015 33/27 Q1008 NOSIG,0,12,0,10000,0,0,0,
2026-04-07 08:00:00,METAR VVPQ 070800Z 26012KT 9999 FEW015 33/27 Q1009 NOSIG,0,12,0,10000,0,0,0,
2026-04-07 07:30:00,METAR VVPQ 070730Z 26011KT 9999 FEW015 34/27 Q1009 NOSIG,0,11,0,10000,0,0,0,
2026-04-07 07:00:00,METAR VVPQ 070700Z 24010KT 210V280 9999 FEW015 34/27 Q1009 NOSIG,0,10,0,10000,0,0,0,
2026-04-07 06:30:00,METAR VVPQ 070630Z 25010KT 9999 FEW015 34/27 Q1010 NOSIG,0,10,0,10000,0,0,0,
2026-04-07 06:00:00,METAR VVPQ 070600Z 25009KT 9999 FEW015 33/26 Q1010 NOSIG,0,9,0,10000,0,0,0,
2026-04-07 05:30:00,METAR VVPQ 070530Z 25009KT 9999 FEW015 33/26 Q1011 NOSIG,0,9,0,10000,0,0,0,
2026-04-07 05:00:00,METAR VVPQ 070500Z 25009KT 9999 FEW015 33/26 Q1011 NOSIG,0,9,0,10000,0,0,0,
2026-04-07 04:30:00,METAR VVPQ 070430Z 26009KT 9999 FEW015 33/26 Q1012 NOSIG,0,9,0,10000,0,0,0,
2026-04-07 04:00:00,METAR VVPQ 070400Z 25008KT 9999 FEW015 33/26 Q1011 NOSIG,0,8,0,10000,0,0,0,
2026-04-07 03:30:00,METAR VVPQ 070330Z 25008KT 9999 FEW015 33/26 Q1012 NOSIG,0,8,0,10000,0,0,0,
2026-04-07 03:00:00,METAR VVPQ 070300Z 25008KT 9999 FEW015 33/26 Q1012 NOSIG,0,8,0,10000,0,0,0,
2026-04-07 02:30:00,METAR VVPQ 070230Z 25009KT 9999 FEW015 32/26 Q1012 NOSIG,0,9,0,10000,0,0,0,
2026-04-07 02:00:00,METAR VVPQ 070200Z 24010KT 9999 FEW015 32/26 Q1012 NOSIG,0,10,0,10000,0,0,0,
2026-04-07 01:30:00,METAR VVPQ 070130Z 23009KT 9999 FEW015 31/26 Q1012 NOSIG,0,9,0,10000,0,0,0,
2026-04-07 01:00:00,METAR VVPQ 070100Z 22009KT 9999 FEW015 31/26 Q1012 NOSIG,0,9,0,10000,0,0,0,
2026-04-07 00:30:00,METAR VVPQ 070030Z 22008KT 9999 FEW015 30/26 Q1011 NOSIG,0,8,0,10000,0,0,0,
2026-04-07 00:00:00,METAR VVPQ 070000Z 23006KT 9999 SCT015 28/26 Q1011 NOSIG,0,6,0,10000,0,0,0,
2026-04-06 23:30:00,METAR VVPQ 062330Z VRB01KT 9999 SCT015 26/25 Q1010 NOSIG,0,1,0,10000,0,0,0,
2026-04-06 23:00:00,METAR VVPQ 062300Z 04002KT 9999 SCT015 25/25 Q1010 NOSIG,0,2,0,10000,0,0,0,
2026-04-06 22:30:00,METAR VVPQ 062230Z 05002KT 9999 SCT015 25/25 Q1010 NOSIG,0,2,0,10000,0,0,0,
2026-04-06 22:00:00,METAR VVPQ 062200Z VRB01KT 9999 FEW015 25/25 Q1010 NOSIG,0,1,0,10000,0,0,0,
2026-04-06 21:30:00,METAR VVPQ 062130Z VRB01KT 9999 FEW015 26/25 Q1009 NOSIG,0,1,0,10000,0,0,0,
2026-04-06 21:00:00,METAR VVPQ 062100Z VRB02KT 9999 FEW015 26/25 Q1009 NOSIG,0,2,0,10000,0,0,0,
2026-04-06 20:30:00,METAR VVPQ 062030Z 06003KT 9999 FEW015 27/25 Q1009 NOSIG,0,3,0,10000,0,0,0,
2026-04-06 20:00:00,METAR VVPQ 062000Z 22003KT 9999 FEW015 28/26 Q1009 NOSIG,0,3,0,10000,0,0,0,
2026-04-06 19:30:00,METAR VVPQ 061930Z 22003KT 9999 FEW015 28/26 Q1010 NOSIG,0,3,0,10000,0,0,0,
2026-04-06 19:00:00,METAR VVPQ 061900Z 22005KT 9999 FEW015 28/26 Q1010 NOSIG,0,5,0,10000,0,0,0,
2026-04-06 18:30:00,METAR VVPQ 061830Z 22006KT 9999 FEW015 28/26 Q1010 NOSIG,0,6,0,10000,0,0,0,
2026-04-06 18:00:00,METAR VVPQ 061800Z 22005KT 9999 FEW015 28/26 Q1010 NOSIG,0,5,0,10000,0,0,0,
2026-04-06 17:30:00,METAR VVPQ 061730Z 23005KT 9999 FEW015 28/26 Q1011 NOSIG,0,5,0,10000,0,0,0,
2026-04-06 17:00:00,METAR VVPQ 061700Z 23006KT 9999 FEW015 28/26 Q1011 NOSIG,0,6,0,10000,0,0,0,
2026-04-06 16:30:00,METAR VVPQ 061630Z 23005KT 9999 FEW015 28/26 Q1011 NOSIG,0,5,0,10000,0,0,0,
2026-04-06 16:00:00,METAR VVPQ 061600Z 23005KT 9999 FEW015 28/26 Q1011 NOSIG,0,5,0,10000,0,0,0,
2026-04-06 15:30:00,METAR VVPQ 061530Z 22006KT 9999 FEW015 28/26 Q1011 NOSIG,0,6,0,10000,0,0,0,
2026-04-06 15:00:00,METAR VVPQ 061500Z 22006KT 9999 FEW015 28/26 Q1011 NOSIG,0,6,0,10000,0,0,0,
2026-04-06 14:30:00,METAR VVPQ 061430Z 23006KT 9999 FEW015 28/26 Q1010 NOSIG,0,6,0,10000,0,0,0,
2026-04-06 14:00:00,METAR VVPQ 061400Z 24005KT 9999 FEW015 28/26 Q1010 NOSIG,0,5,0,10000,0,0,0,
2026-04-06 13:30:00,METAR VVPQ 061330Z 23005KT 9999 FEW015 28/25 Q1009 NOSIG,0,5,0,10000,0,0,0,
2026-04-06 13:00:00,METAR VVPQ 061300Z 23004KT 9999 FEW015 29/26 Q1009 NOSIG,0,4,0,10000,0,0,0,
2026-04-06 12:30:00,METAR VVPQ 061230Z 23007KT 9999 FEW015 29/26 Q1009 NOSIG,0,7,0,10000,0,0,0,
2026-04-06 12:00:00,METAR VVPQ 061200Z 23006KT 9999 FEW015 29/26 Q1009 NOSIG,0,6,0,10000,0,0,0,
2026-04-06 11:30:00,METAR VVPQ 061130Z 23007KT 9999 FEW015 29/26 Q1008 NOSIG,0,7,0,10000,0,0,0,
2026-04-06 11:00:00,METAR VVPQ 061100Z 23007KT 9999 FEW015 30/26 Q1008 NOSIG,0,7,0,10000,0,0,0,
2026-04-06 10:30:00,METAR VVPQ 061030Z 23009KT 9999 FEW015 30/26 Q1008 NOSIG,0,9,0,10000,0,0,0,
2026-04-06 10:00:00,METAR VVPQ 061000Z 23010KT 9999 FEW015 31/26 Q1008 NOSIG,0,10,0,10000,0,0,0,
2026-04-06 09:30:00,METAR VVPQ 060930Z 23010KT 9999 FEW015 31/26 Q1008 NOSIG,0,10,0,10000,0,0,0,
2026-04-06 09:00:00,METAR VVPQ 060900Z 23012KT 9999 FEW015 32/26 Q1008 NOSIG,0,12,0,10000,0,0,0,
2026-04-06 08:30:00,METAR VVPQ 060830Z 23010KT 9999 FEW015 32/26 Q1008 NOSIG,0,10,0,10000,0,0,0,
2026-04-06 08:00:00,METAR VVPQ 060800Z 23009KT 9999 FEW015 33/26 Q1008 NOSIG,0,9,0,10000,0,0,0,
2026-04-06 07:30:00,METAR VVPQ 060730Z 24011KT 9999 FEW015 33/26 Q1009 NOSIG,0,11,0,10000,0,0,0,
2026-04-06 07:00:00,METAR VVPQ 060700Z 24011KT 9999 FEW015 33/26 Q1009 NOSIG,0,11,0,10000,0,0,0,
2026-04-06 06:30:00,METAR VVPQ 060630Z 24011KT 9999 FEW015 33/26 Q1009 NOSIG,0,11,0,10000,0,0,0,
2026-04-06 06:00:00,METAR VVPQ 060600Z 24010KT 9999 FEW015 33/25 Q1010 NOSIG,0,10,0,10000,0,0,0,
2026-04-06 05:30:00,METAR VVPQ 060530Z 23009G21KT 9999 FEW015 33/25 Q1010 NOSIG,0,9,1,10000,0,0,0,
2026-04-06 05:00:00,METAR VVPQ 060500Z 24009KT 9999 FEW015 32/25 Q1010 NOSIG,0,9,0,10000,0,0,0,
2026-04-06 04:30:00,METAR VVPQ 060430Z 24008KT 9999 FEW015 33/25 Q1011 NOSIG,0,8,0,10000,0,0,0,
2026-04-06 04:00:00,METAR VVPQ 060400Z 22007KT 9999 FEW015 33/24 Q1011 NOSIG,0,7,0,10000,0,0,0,
2026-04-06 03:30:00,METAR VVPQ 060330Z 21008KT 9999 FEW015 33/25 Q1011 NOSIG,0,8,0,10000,0,0,0,
2026-04-06 03:00:00,METAR VVPQ 060300Z 21009KT 9999 FEW015 32/24 Q1011 NOSIG,0,9,0,10000,0,0,0,
2026-04-06 02:30:00,METAR VVPQ 060230Z 19006KT 9999 FEW015 33/25 Q1011 NOSIG,0,6,0,10000,0,0,0,
2026-04-06 02:00:00,METAR VVPQ 060200Z 19007KT 9999 FEW015 32/25 Q1011 NOSIG,0,7,0,10000,0,0,0,
2026-04-06 01:30:00,METAR VVPQ 060130Z 17006KT 9999 FEW015 32/25 Q1011 NOSIG,0,6,0,10000,0,0,0,
2026-04-06 01:00:00,METAR VVPQ 060100Z 17003KT 9999 FEW015 30/26 Q1011 NOSIG,0,3,0,10000,0,0,0,
2026-04-06 00:30:00,METAR VVPQ 060030Z 07002KT 9999 FEW015 28/26 Q1010 NOSIG,0,2,0,10000,0,0,0,
2026-04-06 00:00:00,METAR VVPQ 060000Z 06004KT 9999 FEW015 26/25 Q1010 NOSIG,0,4,0,10000,0,0,0,
2026-04-05 23:30:00,METAR VVPQ 052330Z 08005KT 9999 FEW015 25/25 Q1010 NOSIG,0,5,0,10000,0,0,0,
2026-04-05 23:00:00,METAR VVPQ 052300Z 08003KT 9999 FEW015 25/25 Q1009 NOSIG,0,3,0,10000,0,0,0,
2026-04-05 22:30:00,METAR VVPQ 052230Z 09003KT 9999 FEW015 25/25 Q1009 NOSIG,0,3,0,10000,0,0,0,
2026-04-05 22:00:00,METAR VVPQ 052200Z 08003KT 9999 FEW015 25/25 Q1009 NOSIG,0,3,0,10000,0,0,0,
2026-04-05 21:30:00,METAR VVPQ 052130Z 10002KT 9999 FEW015 25/25 Q1008 NOSIG,0,2,0,10000,0,0,0,
2026-04-05 21:00:00,METAR VVPQ 052100Z 07003KT 9999 FEW015 25/25 Q1008 NOSIG,0,3,0,10000,0,0,0,
2026-04-05 20:30:00,METAR VVPQ 052030Z 08002KT 9999 FEW015 25/25 Q1008 NOSIG,0,2,0,10000,0,0,0,
2026-04-05 20:00:00,METAR VVPQ 052000Z 07002KT 9999 FEW015 25/25 Q1008 NOSIG,0,2,0,10000,0,0,0,
2026-04-05 19:30:00,METAR VVPQ 051930Z 08003KT 9999 FEW017 25/25 Q1008 NOSIG,0,3,0,10000,0,0,0,
2026-04-05 19:00:00,METAR VVPQ 051900Z 07003KT 9999 FEW017 25/25 Q1008 NOSIG,0,3,0,10000,0,0,0,
2026-04-05 18:30:00,METAR VVPQ 051830Z 07002KT 9999 FEW017 26/25 Q1009 NOSIG,0,2,0,10000,0,0,0,
2026-04-05 18:00:00,METAR VVPQ 051800Z 04002KT 9999 FEW017 26/25 Q1009 NOSIG,0,2,0,10000,0,0,0,
2026-04-05 17:30:00,METAR VVPQ 051730Z 06002KT 9999 FEW017 26/25 Q1009 NOSIG,0,2,0,10000,0,0,0,
2026-04-05 17:00:00,METAR VVPQ 051700Z 06002KT 9999 FEW017 26/26 Q1009 NOSIG,0,2,0,10000,0,0,0,
2026-04-05 16:30:00,METAR VVPQ 051630Z 07002KT 9999 FEW017 27/26 Q1009 NOSIG,0,2,0,10000,0,0,0,
2026-04-05 16:00:00,METAR VVPQ 051600Z 07002KT 9999 FEW017 27/26 Q1010 NOSIG,0,2,0,10000,0,0,0,
2026-04-05 15:00:00,METAR VVPQ 051500Z 22004KT 9999 SCT017 28/26 Q1009 NOSIG,0,4,0,10000,0,0,0,
2026-04-05 13:00:00,METAR VVPQ 051300Z 24004KT 9999 SCT017 29/25 Q1008 NOSIG,0,4,0,10000,0,0,0,
2026-04-05 12:30:00,METAR VVPQ 051230Z 24005KT 9999 SCT017 29/25 Q1007 NOSIG,0,5,0,10000,0,0,0,
2026-04-05 12:00:00,METAR VVPQ 051200Z 24007KT 9999 SCT017 29/25 Q1007 NOSIG,0,7,0,10000,0,0,0,
2026-04-05 11:30:00,METAR VVPQ 051130Z 24007KT 9999 SCT017 29/25 Q1007 NOSIG,0,7,0,10000,0,0,0,
2026-04-05 11:00:00,METAR VVPQ 051100Z 23007KT 9999 SCT017 29/26 Q1007 NOSIG,0,7,0,10000,0,0,0,
2026-04-05 10:30:00,METAR VVPQ 051030Z 23008KT 9999 FEW017 30/26 Q1007 NOSIG,0,8,0,10000,0,0,0,
2026-04-05 10:00:00,METAR VVPQ 051000Z 24009KT 9999 FEW017 31/26 Q1007 NOSIG,0,9,0,10000,0,0,0,
2026-04-05 09:30:00,METAR VVPQ 050930Z 24008KT 9999 FEW017 31/26 Q1007 NOSIG,0,8,0,10000,0,0,0,
2026-04-05 09:00:00,METAR VVPQ 050900Z 23008KT 9999 FEW017 32/26 Q1007 NOSIG,0,8,0,10000,0,0,0,
2026-04-05 08:30:00,METAR VVPQ 050830Z 23009KT 9999 FEW017 32/26 Q1007 NOSIG,0,9,0,10000,0,0,0,
2026-04-05 08:00:00,METAR VVPQ 050800Z 22008KT 9999 FEW017 32/26 Q1007 NOSIG,0,8,0,10000,0,0,0,
2026-04-05 07:30:00,METAR VVPQ 050730Z 23009KT 9999 FEW017 32/26 Q1007 NOSIG,0,9,0,10000,0,0,0,
2026-04-05 07:00:00,METAR VVPQ 050700Z 23010KT 9999 FEW017 33/25 Q1008 NOSIG,0,10,0,10000,0,0,0,
2026-04-05 06:30:00,METAR VVPQ 050630Z 25007KT 9999 FEW017 33/26 Q1008 NOSIG,0,7,0,10000,0,0,0,
2026-04-05 06:00:00,METAR VVPQ 050600Z 24010KT 9999 FEW017 33/26 Q1008 NOSIG,0,10,0,10000,0,0,0,
2026-04-05 05:30:00,METAR VVPQ 050530Z 24010KT 9999 FEW017 34/26 Q1009 NOSIG,0,10,0,10000,0,0,0,
2026-04-05 05:00:00,METAR VVPQ 050500Z 22008KT 9999 FEW017 34/24 Q1009 NOSIG,0,8,0,10000,0,0,0,
2026-04-05 04:30:00,METAR VVPQ 050430Z 21008KT 9999 FEW017 34/24 Q1009 NOSIG,0,8,0,10000,0,0,0,
2026-04-05 04:00:00,METAR VVPQ 050400Z 22008KT 9999 FEW017 33/24 Q1009 NOSIG,0,8,0,10000,0,0,0,
2026-04-05 03:30:00,METAR VVPQ 050330Z 20007KT 9999 FEW017 33/24 Q1010 NOSIG,0,7,0,10000,0,0,0,
2026-04-05 03:00:00,METAR VVPQ 050300Z 20004KT 9999 FEW017 32/24 Q1010 NOSIG,0,4,0,10000,0,0,0,
2026-04-05 02:30:00,METAR VVPQ 050230Z 20005KT 9999 FEW017 30/25 Q1010 NOSIG,0,5,0,10000,0,0,0,
2026-04-05 02:00:00,METAR VVPQ 050200Z 20005KT 9999 FEW017 30/25 Q1010 NOSIG,0,5,0,10000,0,0,0,
2026-04-05 01:30:00,METAR VVPQ 050130Z 21005KT 9999 FEW017 29/25 Q1009 NOSIG,0,5,0,10000,0,0,0,
2026-04-05 01:00:00,METAR VVPQ 050100Z VRB01KT 9999 FEW017 29/25 Q1009 NOSIG,0,1,0,10000,0,0,0,
2026-04-05 00:30:00,METAR VVPQ 050030Z 06003KT 9999 FEW017 28/25 Q1009 NOSIG,0,3,0,10000,0,0,0,
2026-04-05 00:00:00,METAR VVPQ 050000Z 08003KT 9999 FEW017 26/24 Q1009 NOSIG,0,3,0,10000,0,0,0,
2026-04-04 23:30:00,METAR VVPQ 042330Z 07003KT 9999 FEW017 25/24 Q1008 NOSIG,0,3,0,10000,0,0,0,
2026-04-04 23:00:00,METAR VVPQ 042300Z 08004KT 9999 FEW017 24/23 Q1008 NOSIG,0,4,0,10000,0,0,0,
2026-04-04 22:30:00,METAR VVPQ 042230Z 09004KT 9999 FEW017 24/23 Q1008 NOSIG,0,4,0,10000,0,0,0,
2026-04-04 22:00:00,METAR VVPQ 042200Z 07004KT 9999 FEW017 24/23 Q1007 NOSIG,0,4,0,10000,0,0,0,
2026-04-04 21:30:00,METAR VVPQ 042130Z 06004KT 9999 FEW017 24/23 Q1007 NOSIG,0,4,0,10000,0,0,0,
2026-04-04 21:00:00,METAR VVPQ 042100Z 09004KT 9999 FEW017 24/23 Q1007 NOSIG,0,4,0,10000,0,0,0,
2026-04-04 20:30:00,METAR VVPQ 042030Z 07003KT 9999 FEW017 24/23 Q1007 NOSIG,0,3,0,10000,0,0,0,
2026-04-04 20:00:00,METAR VVPQ 042000Z 06003KT 9999 FEW017 24/23 Q1007 NOSIG,0,3,0,10000,0,0,0,
2026-04-04 19:30:00,METAR VVPQ 041930Z 10003KT 9999 FEW017 24/23 Q1007 NOSIG,0,3,0,10000,0,0,0,
2026-04-04 19:00:00,METAR VVPQ 041900Z 08002KT 9999 FEW017 24/23 Q1007 NOSIG,0,2,0,10000,0,0,0,
2026-04-04 18:30:00,METAR VVPQ 041830Z 07002KT 9999 FEW017 24/23 Q1008 NOSIG,0,2,0,10000,0,0,0,
2026-04-04 18:00:00,METAR VVPQ 041800Z 08002KT 9999 FEW017 25/24 Q1008 NOSIG,0,2,0,10000,0,0,0,
2026-04-04 17:30:00,METAR VVPQ 041730Z 08003KT 9999 FEW017 25/24 Q1008 NOSIG,0,3,0,10000,0,0,0,
2026-04-04 17:00:00,METAR VVPQ 041700Z 04003KT 9999 FEW017 25/24 Q1009 NOSIG,0,3,0,10000,0,0,0,
2026-04-04 16:30:00,METAR VVPQ 041630Z 09003KT 9999 FEW017 25/24 Q1009 NOSIG,0,3,0,10000,0,0,0,
2026-04-04 16:00:00,METAR VVPQ 041600Z 08002KT 9999 FEW017 26/24 Q1009 NOSIG,0,2,0,10000,0,0,0,
2026-04-04 15:30:00,METAR VVPQ 041530Z VRB02KT 9999 FEW017 26/24 Q1009 NOSIG,0,2,0,10000,0,0,0,
2026-04-04 15:00:00,METAR VVPQ 041500Z VRB02KT 9999 FEW017 26/24 Q1009 NOSIG,0,2,0,10000,0,0,0,
2026-04-04 14:30:00,METAR VVPQ 041430Z VRB02KT 9999 FEW017 26/24 Q1009 NOSIG,0,2,0,10000,0,0,0,
2026-04-04 14:00:00,METAR VVPQ 041400Z 23004KT 9999 FEW017 26/24 Q1008 NOSIG,0,4,0,10000,0,0,0,
2026-04-04 13:30:00,METAR VVPQ 041330Z 22005KT 9999 FEW017 27/23 Q1008 NOSIG,0,5,0,10000,0,0,0,
2026-04-04 13:00:00,METAR VVPQ 041300Z 22005KT 9999 FEW017 28/23 Q1008 NOSIG,0,5,0,10000,0,0,0,
2026-04-04 12:30:00,METAR VVPQ 041230Z 22005KT 9999 FEW017 28/23 Q1007 NOSIG,0,5,0,10000,0,0,0,
2026-04-04 12:00:00,METAR VVPQ 041200Z 20005KT 9999 FEW017 28/23 Q1007 NOSIG,0,5,0,10000,0,0,0,
2026-04-04 11:30:00,METAR VVPQ 041130Z 19007KT 9999 FEW017 29/23 Q1007 NOSIG,0,7,0,10000,0,0,0,
2026-04-04 11:00:00,METAR VVPQ 041100Z 20008KT 9999 FEW017 29/23 Q1007 NOSIG,0,8,0,10000,0,0,0,
2026-04-04 10:30:00,METAR VVPQ 041030Z 19008KT 9999 FEW017 30/23 Q1007 NOSIG,0,8,0,10000,0,0,0,
2026-04-04 10:00:00,METAR VVPQ 041000Z 21010KT 9999 FEW017 30/23 Q1007 NOSIG,0,10,0,10000,0,0,0,
2026-04-04 09:30:00,METAR VVPQ 040930Z 20010KT 9999 FEW017 31/23 Q1007 NOSIG,0,10,0,10000,0,0,0,
2026-04-04 09:00:00,METAR VVPQ 040900Z 20010KT 9999 FEW017 31/23 Q1007 NOSIG,0,10,0,10000,0,0,0,
2026-04-04 08:30:00,METAR VVPQ 040830Z 21010KT 9999 FEW017 32/24 Q1007 NOSIG,0,10,0,10000,0,0,0,
2026-04-04 08:00:00,METAR VVPQ 040800Z 21011KT 9999 FEW017 32/24 Q1007 NOSIG,0,11,0,10000,0,0,0,
2026-04-04 07:30:00,METAR VVPQ 040730Z 19009KT 9999 FEW017 32/24 Q1007 NOSIG,0,9,0,10000,0,0,0,
2026-04-04 07:00:00,METAR VVPQ 040700Z 21008KT 180V240 9999 FEW017 32/24 Q1007 NOSIG,0,8,0,10000,0,0,0,
2026-04-04 06:30:00,METAR VVPQ 040630Z 22009KT 9999 FEW017 32/24 Q1008 NOSIG,0,9,0,10000,0,0,0,
2026-04-04 06:00:00,METAR VVPQ 040600Z 23008KT 9999 FEW017 32/25 Q1009 NOSIG,0,8,0,10000,0,0,0,
2026-04-04 05:30:00,METAR VVPQ 040530Z 23008KT 9999 FEW017 32/25 Q1009 NOSIG,0,8,0,10000,0,0,0,
2026-04-04 05:00:00,METAR VVPQ 040500Z 24008KT 9999 FEW017 33/24 Q1010 NOSIG,0,8,0,10000,0,0,0,
2026-04-04 04:30:00,METAR VVPQ 040430Z 24008KT 9999 FEW017 31/24 Q1010 NOSIG,0,8,0,10000,0,0,0,
2026-04-04 04:00:00,METAR VVPQ 040400Z 24007KT 210V280 9999 FEW017 32/25 Q1011 NOSIG,0,7,0,10000,0,0,0,
2026-04-04 03:30:00,METAR VVPQ 040330Z 24007KT 9999 FEW017 33/24 Q1011 NOSIG,0,7,0,10000,0,0,0,
2026-04-04 03:00:00,METAR VVPQ 040300Z 24007KT 210V280 9999 FEW017 31/24 Q1011 NOSIG,0,7,0,10000,0,0,0,
2026-04-04 02:30:00,METAR VVPQ 040230Z 21003KT 170V260 9999 FEW017 32/24 Q1011 NOSIG,0,3,0,10000,0,0,0,
2026-04-04 02:00:00,METAR VVPQ 040200Z 23005KT 190V260 9999 FEW017 31/24 Q1011 NOSIG,0,5,0,10000,0,0,0,
2026-04-04 01:30:00,METAR VVPQ 040130Z 20003KT 9999 FEW017 31/24 Q1011 NOSIG,0,3,0,10000,0,0,0,
2026-04-04 01:00:00,METAR VVPQ 040100Z VRB01KT 9999 FEW017 29/25 Q1010 NOSIG,0,1,0,10000,0,0,0,
2026-04-04 00:30:00,METAR VVPQ 040030Z VRB02KT 9999 FEW017 27/25 Q1010 NOSIG,0,2,0,10000,0,0,0,
2026-04-04 00:00:00,METAR VVPQ 040000Z 09004KT 9999 FEW015 26/24 Q1009 NOSIG,0,4,0,10000,0,0,0,
2026-04-03 23:30:00,METAR VVPQ 032330Z 07002KT 9999 FEW015 24/23 Q1009 NOSIG,0,2,0,10000,0,0,0,
2026-04-03 23:00:00,METAR VVPQ 032300Z 08004KT 9999 FEW015 24/23 Q1009 NOSIG,0,4,0,10000,0,0,0,
2026-04-03 22:30:00,METAR VVPQ 032230Z 06004KT 9999 FEW015 24/23 Q1009 NOSIG,0,4,0,10000,0,0,0,
2026-04-03 22:00:00,METAR VVPQ 032200Z 10003KT 9999 FEW015 24/23 Q1009 NOSIG,0,3,0,10000,0,0,0,
2026-04-03 21:30:00,METAR VVPQ 032130Z 04007KT 9999 FEW015 24/23 Q1008 NOSIG,0,7,0,10000,0,0,0,
2026-04-03 21:00:00,METAR VVPQ 032100Z VRB02KT 9999 FEW015 24/23 Q1008 NOSIG,0,2,0,10000,0,0,0,
2026-04-03 20:30:00,METAR VVPQ 032030Z VRB02KT 9999 FEW015 24/23 Q1008 NOSIG,0,2,0,10000,0,0,0,
2026-04-03 20:00:00,METAR VVPQ 032000Z VRB01KT 9999 FEW015 24/23 Q1008 NOSIG,0,1,0,10000,0,0,0,
2026-04-03 19:30:00,METAR VVPQ 031930Z VRB01KT 9999 FEW015 24/23 Q1009 NOSIG,0,1,0,10000,0,0,0,
2026-04-03 19:00:00,METAR VVPQ 031900Z VRB01KT 9999 FEW015 24/23 Q1009 NOSIG,0,1,0,10000,0,0,0,
2026-04-03 18:30:00,METAR VVPQ 031830Z 09001KT 9999 FEW015 25/24 Q1009 NOSIG,0,1,0,10000,0,0,0,
2026-04-03 18:00:00,METAR VVPQ 031800Z 05003KT 9999 FEW015 25/24 Q1010 NOSIG,0,3,0,10000,0,0,0,
2026-04-03 17:30:00,METAR VVPQ 031730Z 09002KT 9999 FEW015 25/24 Q1010 NOSIG,0,2,0,10000,0,0,0,
2026-04-03 17:00:00,METAR VVPQ 031700Z 05003KT CAVOK 25/24 Q1010 NOSIG,1,0,0,9999,0,0,0,
2026-04-03 16:30:00,METAR VVPQ 031630Z 09003KT CAVOK 25/24 Q1010 NOSIG,1,0,0,9999,0,0,0,
2026-04-03 16:00:00,METAR VVPQ 031600Z 04003KT CAVOK 25/24 Q1011 NOSIG,1,0,0,9999,0,0,0,
2026-04-03 15:30:00,METAR VVPQ 031530Z VRB02KT CAVOK 26/24 Q1011 NOSIG,1,0,0,9999,0,0,0,
2026-04-03 15:00:00,METAR VVPQ 031500Z VRB01KT CAVOK 26/24 Q1011 NOSIG,1,0,0,9999,0,0,0,
2026-04-03 14:30:00,METAR VVPQ 031430Z 21004KT CAVOK 27/24 Q1010 NOSIG,1,0,0,9999,0,0,0,
2026-04-03 14:00:00,METAR VVPQ 031400Z 22003KT CAVOK 27/24 Q1010 NOSIG,1,0,0,9999,0,0,0,
2026-04-03 13:30:00,METAR VVPQ 031330Z 20006KT CAVOK 27/24 Q1009 NOSIG,1,0,0,9999,0,0,0,
2026-04-03 13:00:00,METAR VVPQ 031300Z 20006KT CAVOK 28/24 Q1009 NOSIG,1,0,0,9999,0,0,0,
2026-04-03 12:30:00,METAR VVPQ 031230Z 20006KT CAVOK 28/24 Q1009 NOSIG,1,0,0,9999,0,0,0,
2026-04-03 12:00:00,METAR VVPQ 031200Z 22007KT CAVOK 28/24 Q1009 NOSIG,1,0,0,9999,0,0,0,
2026-04-03 11:30:00,METAR VVPQ 031130Z 21005KT CAVOK 29/24 Q1009 NOSIG,1,0,0,9999,0,0,0,
2026-04-03 11:00:00,METAR VVPQ 031100Z 21009KT CAVOK 29/24 Q1009 NOSIG,1,0,0,9999,0,0,0,
2026-04-03 10:30:00,METAR VVPQ 031030Z 20008KT CAVOK 30/24 Q1008 NOSIG,1,0,0,9999,0,0,0,
2026-04-03 10:00:00,METAR VVPQ 031000Z 20009KT CAVOK 30/24 Q1008 NOSIG,1,0,0,9999,0,0,0,
2026-04-03 09:30:00,METAR VVPQ 030930Z 21011KT CAVOK 31/23 Q1008 NOSIG,1,0,0,9999,0,0,0,
2026-04-03 09:00:00,METAR VVPQ 030900Z 21010KT CAVOK 32/23 Q1008 NOSIG,1,0,0,9999,0,0,0,
2026-04-03 08:30:00,METAR VVPQ 030830Z 17008KT 9999 FEW017 33/23 Q1008 NOSIG,0,8,0,10000,0,0,0,
2026-04-03 08:00:00,METAR VVPQ 030800Z 13011KT 9999 FEW015 32/23 Q1008 NOSIG,0,11,0,10000,0,0,0,
2026-04-03 07:30:00,METAR VVPQ 030730Z 13011KT 9999 SCT015 32/22 Q1008 NOSIG,0,11,0,10000,0,0,0,
2026-04-03 07:00:00,METAR VVPQ 030700Z 10009KT 9999 SCT015 32/22 Q1009 NOSIG,0,9,0,10000,0,0,0,
2026-04-03 06:30:00,METAR VVPQ 030630Z 10007KT 9999 SCT015 32/23 Q1010 NOSIG,0,7,0,10000,0,0,0,
2026-04-03 06:00:00,METAR VVPQ 030600Z 13007KT 9999 SCT015 32/23 Q1010 NOSIG,0,7,0,10000,0,0,0,
2026-04-03 05:30:00,METAR VVPQ 030530Z 12010KT 9999 SCT015 33/23 Q1011 NOSIG,0,10,0,10000,0,0,0,
2026-04-03 05:00:00,METAR VVPQ 030500Z 09009KT 9999 SCT015 33/23 Q1011 NOSIG,0,9,0,10000,0,0,0,
2026-04-03 04:30:00,METAR VVPQ 030430Z 11008KT 9999 SCT015 32/23 Q1011 NOSIG,0,8,0,10000,0,0,0,
2026-04-03 04:00:00,METAR VVPQ 030400Z 09009KT 9999 SCT015 32/23 Q1012 NOSIG,0,9,0,10000,0,0,0,
2026-04-03 03:30:00,METAR VVPQ 030330Z 09009KT 9999 SCT015 31/24 Q1012 NOSIG,0,9,0,10000,0,0,0,
2026-04-03 03:00:00,METAR VVPQ 030300Z 12010KT 9999 SCT015 32/24 Q1012 NOSIG,0,10,0,10000,0,0,0,
2026-04-03 02:30:00,METAR VVPQ 030230Z 13010KT 9999 SCT015 31/23 Q1012 NOSIG,0,10,0,10000,0,0,0,
2026-04-03 02:00:00,METAR VVPQ 030200Z 13010KT 9999 SCT015 31/23 Q1012 NOSIG,0,10,0,10000,0,0,0,
2026-04-03 01:30:00,METAR VVPQ 030130Z 13011KT 9999 SCT015 31/23 Q1011 NOSIG,0,11,0,10000,0,0,0,
2026-04-03 01:00:00,METAR VVPQ 030100Z 12008KT 9999 SCT015 30/23 Q1011 NOSIG,0,8,0,10000,0,0,0,
2026-04-03 00:30:00,METAR VVPQ 030030Z 12008KT 9999 SCT015 29/23 Q1011 NOSIG,0,8,0,10000,0,0,0,
2026-04-03 00:00:00,METAR VVPQ 030000Z 13005KT 9999 SCT015 29/23 Q1011 NOSIG,0,5,0,10000,0,0,0,
2026-04-02 23:30:00,METAR VVPQ 022330Z 14006KT 9999 SCT015 27/23 Q1011 NOSIG,0,6,0,10000,0,0,0,
2026-04-02 23:00:00,METAR VVPQ 022300Z 14004KT 9999 SCT015 27/23 Q1010 NOSIG,0,4,0,10000,0,0,0,
2026-04-02 22:30:00,METAR VVPQ 022230Z 14005KT 9999 SCT015 27/24 Q1010 NOSIG,0,5,0,10000,0,0,0,
2026-04-02 22:00:00,METAR VVPQ 022200Z 14007KT 9999 SCT015 27/24 Q1010 NOSIG,0,7,0,10000,0,0,0,
2026-04-02 21:30:00,METAR VVPQ 022130Z 14005KT 9999 SCT015 27/24 Q1010 NOSIG,0,5,0,10000,0,0,0,
2026-04-02 21:00:00,METAR VVPQ 022100Z 14005KT 9999 SCT015 27/24 Q1010 NOSIG,0,5,0,10000,0,0,0,
2026-04-02 20:30:00,METAR VVPQ 022030Z 14006KT 9999 SCT015 27/24 Q1010 NOSIG,0,6,0,10000,0,0,0,
2026-04-02 20:00:00,METAR VVPQ 022000Z 14003KT 9999 SCT015 27/24 Q1010 NOSIG,0,3,0,10000,0,0,0,
2026-04-02 19:30:00,METAR VVPQ 021930Z 13005KT 9999 SCT015 27/24 Q1010 NOSIG,0,5,0,10000,0,0,0,
2026-04-02 19:00:00,METAR VVPQ 021900Z 14003KT 9999 SCT015 26/25 Q1010 NOSIG,0,3,0,10000,0,0,0,
2026-04-02 18:30:00,METAR VVPQ 021830Z 14004KT 9999 SCT015 26/25 Q1010 NOSIG,0,4,0,10000,0,0,0,
2026-04-02 18:00:00,METAR VVPQ 021800Z VRB01KT 9999 SCT015 26/25 Q1011 NOSIG,0,1,0,10000,0,0,0,
2026-04-02 17:30:00,METAR VVPQ 021730Z VRB02KT 9999 FEW015 26/25 Q1011 NOSIG,0,2,0,10000,0,0,0,
2026-04-02 17:00:00,METAR VVPQ 021700Z 10002KT 9999 FEW015 26/25 Q1011 NOSIG,0,2,0,10000,0,0,0,
2026-04-02 16:30:00,METAR VVPQ 021630Z VRB02KT CAVOK 26/25 Q1011 NOSIG,1,0,0,9999,0,0,0,
2026-04-02 16:00:00,METAR VVPQ 021600Z VRB01KT CAVOK 27/25 Q1012 NOSIG,1,0,0,9999,0,0,0,
2026-04-02 15:30:00,METAR VVPQ 021530Z VRB02KT CAVOK 27/25 Q1011 NOSIG,1,0,0,9999,0,0,0,
2026-04-02 15:00:00,METAR VVPQ 021500Z 13004KT CAVOK 27/25 Q1011 NOSIG,1,0,0,9999,0,0,0,
2026-04-02 14:30:00,METAR VVPQ 021430Z 12004KT CAVOK 27/25 Q1011 NOSIG,1,0,0,9999,0,0,0,
2026-04-02 14:00:00,METAR VVPQ 021400Z 10003KT CAVOK 27/25 Q1011 NOSIG,1,0,0,9999,0,0,0,
2026-04-02 13:30:00,METAR VVPQ 021330Z 08002KT CAVOK 27/25 Q1010 NOSIG,1,0,0,9999,0,0,0,
2026-04-02 13:00:00,METAR VVPQ 021300Z 09003KT CAVOK 28/25 Q1010 NOSIG,1,0,0,9999,0,0,0,
2026-04-02 12:30:00,METAR VVPQ 021230Z 14003KT CAVOK 29/24 Q1010 NOSIG,1,0,0,9999,0,0,0,
2026-04-02 12:00:00,METAR VVPQ 021200Z 16004KT CAVOK 29/23 Q1010 NOSIG,1,0,0,9999,0,0,0,
2026-04-02 11:30:00,METAR VVPQ 021130Z 14004KT CAVOK 29/23 Q1009 NOSIG,1,0,0,9999,0,0,0,
2026-04-02 11:00:00,METAR VVPQ 021100Z 15004KT CAVOK 30/23 Q1009 NOSIG,1,0,0,9999,0,0,0,
2026-04-02 10:30:00,METAR VVPQ 021030Z 15005KT CAVOK 31/23 Q1008 NOSIG,1,0,0,9999,0,0,0,
2026-04-02 10:00:00,METAR VVPQ 021000Z 15004KT CAVOK 32/24 Q1008 NOSIG,1,0,0,9999,0,0,0,
2026-04-02 09:30:00,METAR VVPQ 020930Z 11009KT CAVOK 32/24 Q1008 NOSIG,1,0,0,9999,0,0,0,
2026-04-02 09:00:00,METAR VVPQ 020900Z 11009KT CAVOK 32/24 Q1008 NOSIG,1,0,0,9999,0,0,0,
2026-04-02 08:30:00,METAR VVPQ 020830Z 11013KT CAVOK 32/24 Q1008 NOSIG,1,0,0,9999,0,0,0,
2026-04-02 08:00:00,METAR VVPQ 020800Z 10011KT 070V130 9999 FEW015 32/24 Q1009 NOSIG,0,11,0,10000,0,0,0,
2026-04-02 07:30:00,METAR VVPQ 020730Z 10010KT 070V130 9999 FEW015 32/25 Q1009 NOSIG,0,10,0,10000,0,0,0,
2026-04-02 07:00:00,METAR VVPQ 020700Z 10011KT 070V140 9999 FEW015 32/25 Q1010 NOSIG,0,11,0,10000,0,0,0,
2026-04-02 06:30:00,METAR VVPQ 020630Z 11010KT 9999 SCT015 32/25 Q1010 NOSIG,0,10,0,10000,0,0,0,
2026-04-02 06:00:00,METAR VVPQ 020600Z 12010KT 9999 SCT015 33/25 Q1011 NOSIG,0,10,0,10000,0,0,0,
2026-04-02 05:30:00,METAR VVPQ 020530Z 11010KT 9999 SCT015 32/25 Q1011 NOSIG,0,10,0,10000,0,0,0,
2026-04-02 05:00:00,METAR VVPQ 020500Z 11011KT 9999 SCT015 32/25 Q1012 NOSIG,0,11,0,10000,0,0,0,
2026-04-02 04:30:00,METAR VVPQ 020430Z 11011KT 9999 SCT015 31/26 Q1012 NOSIG,0,11,0,10000,0,0,0,
2026-04-02 04:00:00,METAR VVPQ 020400Z 12011KT 9999 SCT015 31/26 Q1012 NOSIG,0,11,0,10000,0,0,0,
2026-04-02 03:30:00,METAR VVPQ 020330Z 12009KT 9999 SCT015 33/26 Q1013 NOSIG,0,9,0,10000,0,0,0,
2026-04-02 03:00:00,METAR VVPQ 020300Z 14008KT 9999 SCT015 32/26 Q1013 NOSIG,0,8,0,10000,0,0,0,
2026-04-02 02:30:00,METAR VVPQ 020230Z 14008KT 9999 SCT015 30/25 Q1013 NOSIG,0,8,0,10000,0,0,0,
2026-04-02 02:00:00,METAR VVPQ 020200Z 12008KT 9999 SCT015 30/26 Q1013 NOSIG,0,8,0,10000,0,0,0,
2026-04-02 01:30:00,METAR VVPQ 020130Z 07003KT 9999 SCT015 28/26 Q1012 NOSIG,0,3,0,10000,0,0,0,
2026-04-02 01:00:00,METAR VVPQ 020100Z 05003KT 9999 SCT015 27/25 Q1012 NOSIG,0,3,0,10000,0,0,0,
2026-04-02 00:30:00,METAR VVPQ 020030Z 08003KT 9999 SCT015 26/25 Q1011 NOSIG,0,3,0,10000,0,0,0,
2026-04-02 00:00:00,METAR VVPQ 020000Z 10004KT 9999 SCT015 26/25 Q1011 NOSIG,0,4,0,10000,0,0,0,
2026-04-01 23:30:00,METAR VVPQ 012330Z VRB02KT 9000 SCT015 25/25 Q1010 NOSIG,0,2,0,9000,0,0,0,
2026-04-01 23:00:00,METAR VVPQ 012300Z 08002KT 9000 FEW015 25/25 Q1010 NOSIG,0,2,0,9000,0,0,0,
2026-04-01 22:30:00,METAR VVPQ 012230Z 09004KT 9999 FEW015 25/25 Q1010 NOSIG,0,4,0,10000,0,0,0,
2026-04-01 22:00:00,METAR VVPQ 012200Z 09004KT 9999 FEW015 25/25 Q1010 NOSIG,0,4,0,10000,0,0,0,
2026-04-01 21:30:00,METAR VVPQ 012130Z 11004KT 9999 FEW015 25/25 Q1010 NOSIG,0,4,0,10000,0,0,0,
2026-04-01 21:00:00,METAR VVPQ 012100Z 07003KT 9999 FEW015 26/25 Q1010 NOSIG,0,3,0,10000,0,0,0,
2026-04-01 20:30:00,METAR VVPQ 012030Z 06003KT 9999 FEW015 26/25 Q1010 NOSIG,0,3,0,10000,0,0,0,
2026-04-01 20:00:00,METAR VVPQ 012000Z 07002KT 9999 FEW015 26/25 Q1010 NOSIG,0,2,0,10000,0,0,0,
2026-04-01 19:30:00,METAR VVPQ 011930Z 09003KT 9999 FEW015 26/25 Q1010 NOSIG,0,3,0,10000,0,0,0,
2026-04-01 19:00:00,METAR VVPQ 011900Z 06003KT 9999 FEW015 26/25 Q1010 NOSIG,0,3,0,10000,0,0,0,
2026-04-01 18:30:00,METAR VVPQ 011830Z 06004KT 9999 FEW015 26/25 Q1010 NOSIG,0,4,0,10000,0,0,0,
2026-04-01 18:00:00,METAR VVPQ 011800Z 08002KT 9999 FEW015 26/25 Q1011 NOSIG,0,2,0,10000,0,0,0,
2026-04-01 17:30:00,METAR VVPQ 011730Z 06002KT 9999 FEW015 26/25 Q1011 NOSIG,0,2,0,10000,0,0,0,
2026-04-01 17:00:00,METAR VVPQ 011700Z 04003KT 9999 FEW015 26/25 Q1011 NOSIG,0,3,0,10000,0,0,0,
2026-04-01 16:30:00,METAR VVPQ 011630Z 05002KT 9999 FEW015 26/25 Q1011 NOSIG,0,2,0,10000,0,0,0,
2026-04-01 16:00:00,METAR VVPQ 011600Z 06002KT 9999 FEW015 26/25 Q1011 NOSIG,0,2,0,10000,0,0,0,
2026-04-01 15:30:00,METAR VVPQ 011530Z 01003KT 9999 FEW015 26/25 Q1011 NOSIG,0,3,0,10000,0,0,0,
2026-04-01 15:00:00,METAR VVPQ 011500Z 36002KT 9999 FEW015 27/25 Q1011 NOSIG,0,2,0,10000,0,0,0,
2026-04-01 14:30:00,METAR VVPQ 011430Z 36002KT 9999 SCT015 27/26 Q1010 NOSIG,0,2,0,10000,0,0,0,
2026-04-01 14:00:00,METAR VVPQ 011400Z 24002KT 9999 SCT015 27/26 Q1010 NOSIG,0,2,0,10000,0,0,0,
2026-04-01 13:30:00,METAR VVPQ 011330Z 24004KT 9999 SCT015 28/25 Q1010 NOSIG,0,4,0,10000,0,0,0,
2026-04-01 13:00:00,METAR VVPQ 011300Z 25004KT 9999 SCT015 29/25 Q1009 NOSIG,0,4,0,10000,0,0,0,
2026-04-01 12:30:00,METAR VVPQ 011230Z 24005KT 9999 SCT015 29/26 Q1009 NOSIG,0,5,0,10000,0,0,0,
2026-04-01 12:00:00,METAR VVPQ 011200Z 25006KT 9999 SCT015 29/26 Q1009 NOSIG,0,6,0,10000,0,0,0,
2026-04-01 11:30:00,METAR VVPQ 011130Z 23006KT 9999 SCT015 29/26 Q1008 NOSIG,0,6,0,10000,0,0,0,
2026-04-01 11:00:00,METAR VVPQ 011100Z 23007KT 9999 SCT015 29/25 Q1008 NOSIG,0,7,0,10000,0,0,0,
2026-04-01 10:30:00,METAR VVPQ 011030Z 23007KT 9999 SCT015 30/26 Q1008 NOSIG,0,7,0,10000,0,0,0,
2026-04-01 10:00:00,METAR VVPQ 011000Z 23008KT 9999 SCT015 30/25 Q1008 NOSIG,0,8,0,10000,0,0,0,
2026-04-01 09:30:00,METAR VVPQ 010930Z 23009KT 9999 SCT015 31/26 Q1008 NOSIG,0,9,0,10000,0,0,0,
2026-04-01 09:00:00,METAR VVPQ 010900Z 23009KT 9999 SCT015 31/26 Q1008 NOSIG,0,9,0,10000,0,0,0,
2026-04-01 08:30:00,METAR VVPQ 010830Z 23010KT 9999 SCT015 31/26 Q1008 NOSIG,0,10,0,10000,0,0,0,
2026-04-01 08:00:00,METAR VVPQ 010800Z 23009KT 9999 SCT015 32/27 Q1008 NOSIG,0,9,0,10000,0,0,0,
2026-04-01 07:30:00,METAR VVPQ 010730Z 24009KT 9999 FEW017 32/27 Q1009 NOSIG,0,9,0,10000,0,0,0,
2026-04-01 07:00:00,METAR VVPQ 010700Z 23009KT 9999 FEW017 32/26 Q1009 NOSIG,0,9,0,10000,0,0,0,
2026-04-01 06:30:00,METAR VVPQ 010630Z 23008KT 9999 FEW017 32/26 Q1009 NOSIG,0,8,0,10000,0,0,0,
2026-04-01 06:00:00,METAR VVPQ 010600Z 23009KT 9999 FEW017 32/26 Q1011 NOSIG,0,9,0,10000,0,0,0,
2026-04-01 05:30:00,METAR VVPQ 010530Z 24007KT 9999 FEW017 32/26 Q1011 NOSIG,0,7,0,10000,0,0,0,
2026-04-01 05:00:00,METAR VVPQ 010500Z 21007KT 9999 FEW017 33/26 Q1011 NOSIG,0,7,0,10000,0,0,0,
2026-04-01 04:30:00,METAR VVPQ 010430Z 24008KT 9999 FEW017 31/26 Q1012 NOSIG,0,8,0,10000,0,0,0,
2026-04-01 04:00:00,METAR VVPQ 010400Z 24008KT 9999 FEW017 31/26 Q1012 NOSIG,0,8,0,10000,0,0,0,
2026-04-01 03:30:00,METAR VVPQ 010330Z 23007KT 9999 FEW017 32/26 Q1012 NOSIG,0,7,0,10000,0,0,0,
2026-04-01 03:00:00,METAR VVPQ 010300Z 24005KT 9999 FEW017 31/26 Q1012 NOSIG,0,5,0,10000,0,0,0,
2026-04-01 02:30:00,METAR VVPQ 010230Z 23005KT 9999 FEW017 31/26 Q1012 NOSIG,0,5,0,10000,0,0,0,
2026-04-01 02:00:00,METAR VVPQ 010200Z VRB02KT 9999 FEW017 31/26 Q1012 NOSIG,0,2,0,10000,0,0,0,
2026-04-01 01:30:00,METAR VVPQ 010130Z VRB03KT 9999 FEW017 31/26 Q1012 NOSIG,0,3,0,10000,0,0,0,
2026-04-01 01:00:00,METAR VVPQ 010100Z VRB03KT 9999 FEW017 30/26 Q1012 NOSIG,0,3,0,10000,0,0,0,
2026-04-01 00:30:00,METAR VVPQ 010030Z 03003KT 9999 FEW017 28/26 Q1011 NOSIG,0,3,0,10000,0,0,0,
2026-04-01 00:00:00,METAR VVPQ 010000Z 08003KT 9999 FEW017 27/26 Q1011 NOSIG,0,3,0,10000,0,0,0,
2026-03-31 23:30:00,METAR VVPQ 312330Z 08004KT 9999 SCT015 25/24 Q1010 NOSIG,0,4,0,9999,0,0,0,
2026-03-31 23:00:00,METAR VVPQ 312300Z 08004KT 9999 FEW015 25/24 Q1010 NOSIG,0,4,0,9999,0,0,0,
2026-03-31 22:30:00,METAR VVPQ 312230Z 07004KT 9999 FEW015 25/24 Q1010 NOSIG,0,4,0,9999,0,0,0,
2026-03-31 22:00:00,METAR VVPQ 312200Z VRB01KT 9999 FEW015 25/24 Q1010 NOSIG,0,1,0,9999,0,0,0,
2026-03-31 21:30:00,METAR VVPQ 312130Z VRB01KT 9999 FEW015 25/24 Q1009 NOSIG,0,1,0,9999,0,0,0,
2026-03-31 21:00:00,METAR VVPQ 312100Z 00000KT 9999 FEW015 25/24 Q1009 NOSIG,0,0,0,9999,0,0,0,
2026-03-31 20:30:00,METAR VVPQ 312030Z 09004KT 9999 FEW015 25/24 Q1009 NOSIG,0,4,0,9999,0,0,0,
2026-03-31 20:00:00,METAR VVPQ 312000Z VRB01KT 9999 FEW015 25/24 Q1009 NOSIG,0,1,0,9999,0,0,0,
2026-03-31 19:30:00,METAR VVPQ 311930Z VRB01KT 9999 FEW015 25/24 Q1009 NOSIG,0,1,0,9999,0,0,0,
2026-03-31 19:00:00,METAR VVPQ 311900Z VRB01KT 9999 FEW015 25/24 Q1009 NOSIG,0,1,0,9999,0,0,0,
2026-03-31 18:30:00,METAR VVPQ 311830Z 08005KT 9999 FEW015 25/24 Q1009 NOSIG,0,5,0,9999,0,0,0,
2026-03-31 18:00:00,METAR VVPQ 311800Z 08004KT 9999 FEW015 25/24 Q1010 NOSIG,0,4,0,9999,0,0,0,
2026-03-31 17:30:00,METAR VVPQ 311730Z 07003KT 9999 FEW015 26/25 Q1010 NOSIG,0,3,0,9999,0,0,0,
2026-03-31 17:00:00,METAR VVPQ 311700Z 08003KT 9999 FEW015 26/25 Q1010 NOSIG,0,3,0,9999,0,0,0,
2026-03-31 16:30:00,METAR VVPQ 311630Z 09003KT 9999 FEW015 26/25 Q1010 NOSIG,0,3,0,9999,0,0,0,
2026-03-31 16:00:00,METAR VVPQ 311600Z 06002KT 9999 FEW015 26/25 Q1011 NOSIG,0,2,0,9999,0,0,0,
2026-03-31 15:30:00,METAR VVPQ 311530Z 08003KT 9999 FEW015 26/25 Q1011 NOSIG,0,3,0,9999,0,0,0,
2026-03-31 15:00:00,METAR VVPQ 311500Z VRB02KT 9999 FEW015 27/25 Q1010 NOSIG,0,2,0,9999,0,0,0,
2026-03-31 14:30:00,METAR VVPQ 311430Z VRB02KT 9999 FEW015 27/25 Q1010 NOSIG,0,2,0,9999,0,0,0,
2026-03-31 14:00:00,METAR VVPQ 311400Z 08003KT 9999 FEW015 26/25 Q1010 NOSIG,0,3,0,9999,0,0,0,
2026-03-31 13:30:00,METAR VVPQ 311330Z 16003KT 9999 FEW015 27/25 Q1009 NOSIG,0,3,0,9999,0,0,0,
2026-03-31 13:00:00,METAR VVPQ 311300Z 17004KT 9999 FEW015 28/25 Q1009 NOSIG,0,4,0,9999,0,0,0,
2026-03-31 12:30:00,METAR VVPQ 311230Z 20004KT 9999 FEW015 29/25 Q1008 NOSIG,0,4,0,9999,0,0,0,
2026-03-31 12:00:00,METAR VVPQ 311200Z 19006KT 9999 FEW015 29/25 Q1008 NOSIG,0,6,0,9999,0,0,0,
2026-03-31 11:30:00,METAR VVPQ 311130Z 22006KT 9999 FEW015 29/25 Q1008 NOSIG,0,6,0,9999,0,0,0,
2026-03-31 11:00:00,METAR VVPQ 311100Z 23008KT 9999 FEW015 30/25 Q1008 NOSIG,0,8,0,9999,0,0,0,
2026-03-31 10:30:00,METAR VVPQ 311030Z 23008KT 9999 FEW015 30/25 Q1008 NOSIG,0,8,0,9999,0,0,0,
2026-03-31 10:00:00,METAR VVPQ 311000Z 21008KT 9999 FEW015 31/25 Q1008 NOSIG,0,8,0,9999,0,0,0,
2026-03-31 09:30:00,METAR VVPQ 310930Z 21008KT 9999 SCT015 31/25 Q1008 NOSIG,0,8,0,9999,0,0,0,
2026-03-31 09:00:00,METAR VVPQ 310900Z 21007KT 9999 SCT015 32/25 Q1008 NOSIG,0,7,0,9999,0,0,0,
2026-03-31 08:30:00,METAR VVPQ 310830Z 21007KT 9999 SCT015 32/26 Q1008 NOSIG,0,7,0,9999,0,0,0,
2026-03-31 08:00:00,METAR VVPQ 310800Z 22009KT 9999 SCT015 32/26 Q1009 NOSIG,0,9,0,9999,0,0,0,
2026-03-31 07:30:00,METAR VVPQ 310730Z 21008KT 9999 SCT015 31/26 Q1010 NOSIG,0,8,0,9999,0,0,0,
2026-03-31 07:00:00,METAR VVPQ 310700Z 21008KT 9999 SCT015 32/26 Q1010 NOSIG,0,8,0,9999,0,0,0,
2026-03-31 06:30:00,METAR VVPQ 310630Z 24008KT 9999 SCT015 33/27 Q1010 NOSIG,0,8,0,9999,0,0,0,
2026-03-31 06:00:00,METAR VVPQ 310600Z 24009KT 9999 SCT015 33/27 Q1011 NOSIG,0,9,0,9999,0,0,0,
2026-03-31 05:30:00,METAR VVPQ 310530Z 24008KT 220V280 9999 SCT015 33/26 Q1011 NOSIG,0,8,0,9999,0,0,0,
2026-03-31 05:00:00,METAR VVPQ 310500Z 23008KT 9999 SCT015 33/26 Q1012 NOSIG,0,8,0,9999,0,0,0,
2026-03-31 04:30:00,METAR VVPQ 310430Z 24007KT 9999 SCT015 32/25 Q1012 NOSIG,0,7,0,9999,0,0,0,
2026-03-31 04:00:00,METAR VVPQ 310400Z 24005KT 210V270 9999 SCT015 31/25 Q1012 NOSIG,0,5,0,9999,0,0,0,
2026-03-31 03:30:00,METAR VVPQ 310330Z 23006KT 9999 SCT015 32/26 Q1012 NOSIG,0,6,0,9999,0,0,0,
2026-03-31 03:00:00,METAR VVPQ 310300Z 24005KT 9999 SCT015 32/26 Q1013 NOSIG,0,5,0,9999,0,0,0,
2026-03-31 02:30:00,METAR VVPQ 310230Z 23004KT 9999 SCT015 32/26 Q1013 NOSIG,0,4,0,9999,0,0,0,
2026-03-31 02:00:00,METAR VVPQ 310200Z VRB02KT 9999 FEW015 30/26 Q1012 NOSIG,0,2,0,9999,0,0,0,
2026-03-31 01:30:00,METAR VVPQ 310130Z VRB02KT 9999 FEW015 31/26 Q1012 NOSIG,0,2,0,9999,0,0,0,
2026-03-31 01:00:00,METAR VVPQ 310100Z VRB01KT 9999 FEW015 30/26 Q1012 NOSIG,0,1,0,9999,0,0,0,
2026-03-31 00:30:00,METAR VVPQ 310030Z 04002KT 9999 FEW015 28/26 Q1012 NOSIG,0,2,0,9999,0,0,0,
2026-03-31 00:00:00,METAR VVPQ 310000Z VRB01KT 9999 FEW015 26/25 Q1011 NOSIG,0,1,0,9999,0,0,0,
2026-03-30 23:30:00,METAR VVPQ 302330Z VRB01KT 9999 FEW015 25/24 Q1011 NOSIG,0,1,0,10000,0,0,0,
2026-03-30 23:00:00,METAR VVPQ 302300Z VRB01KT 9999 FEW015 24/23 Q1011 NOSIG,0,1,0,10000,0,0,0,
2026-03-30 22:30:00,METAR VVPQ 302230Z VRB02KT 9999 FEW015 25/24 Q1010 NOSIG,0,2,0,10000,0,0,0,
2026-03-30 22:00:00,METAR VVPQ 302200Z VRB02KT CAVOK 25/24 Q1010 NOSIG,1,0,0,9999,0,0,0,
2026-03-30 21:30:00,METAR VVPQ 302130Z VRB02KT CAVOK 25/24 Q1010 NOSIG,1,0,0,9999,0,0,0,
2026-03-30 21:00:00,METAR VVPQ 302100Z VRB02KT CAVOK 25/24 Q1010 NOSIG,1,0,0,9999,0,0,0,
2026-03-30 20:30:00,METAR VVPQ 302030Z VRB02KT CAVOK 25/24 Q1010 NOSIG,1,0,0,9999,0,0,0,
2026-03-30 20:00:00,METAR VVPQ 302000Z VRB02KT CAVOK 25/24 Q1010 NOSIG,1,0,0,9999,0,0,0,
2026-03-30 19:30:00,METAR VVPQ 301930Z VRB02KT CAVOK 25/24 Q1010 NOSIG,1,0,0,9999,0,0,0,
2026-03-30 18:30:00,METAR VVPQ 301830Z 00000KT CAVOK 25/24 Q1011 NOSIG,1,0,0,9999,0,0,0,
2026-03-30 18:00:00,METAR VVPQ 301800Z VRB01KT CAVOK 25/24 Q1011 NOSIG,1,0,0,9999,0,0,0,
2026-03-30 17:30:00,METAR VVPQ 301730Z VRB01KT CAVOK 25/24 Q1011 NOSIG,1,0,0,9999,0,0,0,
2026-03-30 17:00:00,METAR VVPQ 301700Z 09003KT CAVOK 25/24 Q1011 NOSIG,1,0,0,9999,0,0,0,
2026-03-30 16:30:00,METAR VVPQ 301630Z 08003KT CAVOK 25/24 Q1011 NOSIG,1,0,0,9999,0,0,0,
2026-03-30 16:00:00,METAR VVPQ 301600Z 08004KT CAVOK 25/24 Q1012 NOSIG,1,0,0,9999,0,0,0,
2026-03-30 15:30:00,METAR VVPQ 301530Z 06003KT CAVOK 26/25 Q1011 NOSIG,1,0,0,9999,0,0,0,
2026-03-30 15:00:00,METAR VVPQ 301500Z 06004KT CAVOK 26/25 Q1011 NOSIG,1,0,0,9999,0,0,0,
2026-03-30 14:30:00,METAR VVPQ 301430Z VRB02KT CAVOK 26/25 Q1011 NOSIG,1,0,0,9999,0,0,0,
2026-03-30 14:00:00,METAR VVPQ 301400Z VRB02KT CAVOK 26/25 Q1010 NOSIG,1,0,0,9999,0,0,0,
2026-03-30 13:30:00,METAR VVPQ 301330Z 07001KT CAVOK 26/25 Q1010 NOSIG,1,0,0,9999,0,0,0,
2026-03-30 13:00:00,METAR VVPQ 301300Z 02002KT CAVOK 27/25 Q1009 NOSIG,1,0,0,9999,0,0,0,
2026-03-30 12:30:00,METAR VVPQ 301230Z VRB01KT CAVOK 27/25 Q1009 NOSIG,1,0,0,9999,0,0,0,
2026-03-30 12:00:00,METAR VVPQ 301200Z 16003KT CAVOK 27/25 Q1008 NOSIG,1,0,0,9999,0,0,0,
2026-03-30 11:30:00,METAR VVPQ 301130Z 15003KT CAVOK 29/25 Q1008 NOSIG,1,0,0,9999,0,0,0,
2026-03-30 11:00:00,METAR VVPQ 301100Z 16004KT CAVOK 30/25 Q1008 NOSIG,1,0,0,9999,0,0,0,
2026-03-30 10:30:00,METAR VVPQ 301030Z 16006KT CAVOK 30/25 Q1008 NOSIG,1,0,0,9999,0,0,0,
2026-03-30 10:00:00,METAR VVPQ 301000Z 15007KT 9999 FEW015 31/25 Q1008 NOSIG,0,7,0,10000,0,0,0,
2026-03-30 09:30:00,METAR VVPQ 300930Z 14008KT 9999 FEW015 32/25 Q1008 NOSIG,0,8,0,10000,0,0,0,
2026-03-30 09:00:00,METAR VVPQ 300900Z 13011KT 9999 FEW015 31/25 Q1008 NOSIG,0,11,0,10000,0,0,0,
2026-03-30 08:30:00,METAR VVPQ 300830Z 13010KT 9999 FEW015 32/25 Q1008 NOSIG,0,10,0,10000,0,0,0,
2026-03-30 08:00:00,METAR VVPQ 300800Z 13010KT 9999 FEW015 33/25 Q1008 NOSIG,0,10,0,10000,0,0,0,
2026-03-30 07:30:00,METAR VVPQ 300730Z 12009KT 9999 FEW015 33/25 Q1009 NOSIG,0,9,0,10000,0,0,0,
2026-03-30 07:00:00,METAR VVPQ 300700Z 14007KT 9999 FEW015 33/25 Q1010 NOSIG,0,7,0,10000,0,0,0,
2026-03-30 06:30:00,METAR VVPQ 300630Z 14007KT 9999 SCT015 33/25 Q1010 NOSIG,0,7,0,10000,0,0,0,
2026-03-30 06:00:00,METAR VVPQ 300600Z 20008KT 9999 SCT015 33/25 Q1010 NOSIG,0,8,0,10000,0,0,0,
2026-03-30 05:30:00,METAR VVPQ 300530Z 14009KT 9999 SCT015 33/25 Q1011 NOSIG,0,9,0,10000,0,0,0,
2026-03-30 05:00:00,METAR VVPQ 300500Z 19005KT 9999 SCT015 32/25 Q1012 NOSIG,0,5,0,10000,0,0,0,
2026-03-30 04:30:00,METAR VVPQ 300430Z 14004KT 9999 SCT015 32/25 Q1012 NOSIG,0,4,0,10000,0,0,0,
2026-03-30 04:00:00,METAR VVPQ 300400Z 14004KT 9999 SCT015 31/25 Q1012 NOSIG,0,4,0,10000,0,0,0,
2026-03-30 03:30:00,METAR VVPQ 300330Z 14005KT 9999 SCT015 31/25 Q1012 NOSIG,0,5,0,10000,0,0,0,
2026-03-30 03:00:00,METAR VVPQ 300300Z 12005KT 9999 SCT015 31/25 Q1012 NOSIG,0,5,0,10000,0,0,0,
2026-03-30 02:30:00,METAR VVPQ 300230Z 12005KT 9999 SCT015 30/25 Q1012 NOSIG,0,5,0,10000,0,0,0,
2026-03-30 02:00:00,METAR VVPQ 300200Z 18004KT 9999 SCT015 29/25 Q1012 NOSIG,0,4,0,10000,0,0,0,
2026-03-30 01:30:00,METAR VVPQ 300130Z 18004KT 9999 SCT015 29/25 Q1012 NOSIG,0,4,0,10000,0,0,0,
2026-03-30 01:00:00,METAR VVPQ 300100Z VRB02KT 9999 SCT015 28/25 Q1011 NOSIG,0,2,0,10000,0,0,0,
2026-03-30 00:30:00,METAR VVPQ 300030Z 10002KT 9999 SCT015 26/25 Q1011 NOSIG,0,2,0,10000,0,0,0,
2026-03-30 00:00:00,METAR VVPQ 300000Z VRB02KT 9999 SCT015 25/24 Q1011 NOSIG,0,2,0,10000,0,0,0,
2026-03-29 23:30:00,METAR VVPQ 292330Z 00000KT 9999 FEW015 24/24 Q1010 NOSIG,0,0,0,10000,0,0,0,
2026-03-29 23:00:00,METAR VVPQ 292300Z VRB01KT 9999 FEW015 24/24 Q1010 NOSIG,0,1,0,10000,0,0,0,
2026-03-29 22:30:00,METAR VVPQ 292230Z 03002KT 9999 FEW015 24/24 Q1010 NOSIG,0,2,0,10000,0,0,0,
2026-03-29 22:00:00,METAR VVPQ 292200Z 07002KT 9999 FEW015 24/24 Q1009 NOSIG,0,2,0,10000,0,0,0,
2026-03-29 21:30:00,METAR VVPQ 292130Z 01002KT 9999 FEW015 25/24 Q1009 NOSIG,0,2,0,10000,0,0,0,
2026-03-29 21:00:00,METAR VVPQ 292100Z VRB03KT 9999 FEW015 25/25 Q1009 NOSIG,0,3,0,10000,0,0,0,
2026-03-29 20:30:00,METAR VVPQ 292030Z VRB02KT 9999 FEW015 25/25 Q1009 NOSIG,0,2,0,10000,0,0,0,
2026-03-29 20:00:00,METAR VVPQ 292000Z VRB02KT 9999 FEW015 25/25 Q1009 NOSIG,0,2,0,10000,0,0,0,
2026-03-29 19:30:00,METAR VVPQ 291930Z VRB01KT 9999 FEW015 25/25 Q1009 NOSIG,0,1,0,10000,0,0,0,
2026-03-29 19:00:00,METAR VVPQ 291900Z VRB01KT 9999 FEW015 25/25 Q1009 NOSIG,0,1,0,10000,0,0,0,
2026-03-29 18:30:00,METAR VVPQ 291830Z 36002KT 9999 FEW015 25/25 Q1009 NOSIG,0,2,0,10000,0,0,0,
2026-03-29 18:00:00,METAR VVPQ 291800Z 04002KT 9999 FEW015 26/25 Q1010 NOSIG,0,2,0,10000,0,0,0,
2026-03-29 17:30:00,METAR VVPQ 291730Z VRB02KT 9999 FEW015 26/25 Q1010 NOSIG,0,2,0,10000,0,0,0,
2026-03-29 17:00:00,METAR VVPQ 291700Z VRB03KT 9999 FEW015 26/25 Q1010 NOSIG,0,3,0,10000,0,0,0,
2026-03-29 16:30:00,METAR VVPQ 291630Z VRB02KT 9999 FEW015 26/25 Q1011 NOSIG,0,2,0,10000,0,0,0,
2026-03-29 16:00:00,METAR VVPQ 291600Z 07003KT 9999 FEW015 26/25 Q1011 NOSIG,0,3,0,10000,0,0,0,
2026-03-29 15:30:00,METAR VVPQ 291530Z 02003KT 9999 FEW015 26/25 Q1011 NOSIG,0,3,0,10000,0,0,0,
2026-03-29 15:00:00,METAR VVPQ 291500Z VRB01KT 9999 FEW015 27/25 Q1010 NOSIG,0,1,0,10000,0,0,0,
2026-03-29 14:30:00,METAR VVPQ 291430Z VRB02KT 9999 FEW015 27/25 Q1010 NOSIG,0,2,0,10000,0,0,0,
2026-03-29 14:00:00,METAR VVPQ 291400Z VRB01KT 9999 FEW015 27/25 Q1010 NOSIG,0,1,0,10000,0,0,0,
2026-03-29 13:30:00,METAR VVPQ 291330Z 18004KT 9999 FEW015 28/25 Q1009 NOSIG,0,4,0,10000,0,0,0,
2026-03-29 13:00:00,METAR VVPQ 291300Z 18003KT 9999 FEW015 28/25 Q1009 NOSIG,0,3,0,10000,0,0,0,
2026-03-29 12:30:00,METAR VVPQ 291230Z 23005KT 9999 FEW015 28/25 Q1009 NOSIG,0,5,0,10000,0,0,0,
2026-03-29 12:00:00,METAR VVPQ 291200Z 19004KT 160V220 9999 FEW015 28/25 Q1009 NOSIG,0,4,0,10000,0,0,0,
2026-03-29 11:30:00,METAR VVPQ 291130Z 20005KT 150V230 9999 FEW015 29/25 Q1008 NOSIG,0,5,0,10000,0,0,0,
2026-03-29 11:00:00,METAR VVPQ 291100Z 20005KT 150V230 9999 FEW015 30/25 Q1008 NOSIG,0,5,0,10000,0,0,0,
2026-03-29 10:30:00,METAR VVPQ 291030Z 21009KT 180V240 9999 FEW015 30/25 Q1008 NOSIG,0,9,0,10000,0,0,0,
2026-03-29 10:00:00,METAR VVPQ 291000Z 21008KT 9999 FEW015 30/25 Q1008 NOSIG,0,8,0,10000,0,0,0,
2026-03-29 09:30:00,METAR VVPQ 290930Z 20010KT 9999 FEW015 31/24 Q1008 NOSIG,0,10,0,10000,0,0,0,
2026-03-29 09:00:00,METAR VVPQ 290900Z 16008KT 120V210 9999 FEW015 33/24 Q1008 NOSIG,0,8,0,10000,0,0,0,
2026-03-29 08:30:00,METAR VVPQ 290830Z 10006KT 040V150 9999 FEW015 32/24 Q1008 NOSIG,0,6,0,10000,0,0,0,
2026-03-29 08:00:00,METAR VVPQ 290800Z 11007KT 060V140 9999 FEW015 32/25 Q1008 NOSIG,0,7,0,10000,0,0,0,
2026-03-29 07:30:00,METAR VVPQ 290730Z 10009KT 060V140 9999 FEW015 32/25 Q1008 NOSIG,0,9,0,10000,0,0,0,
2026-03-29 06:30:00,METAR VVPQ 290630Z 11008KT 9999 FEW015 33/24 Q1009 NOSIG,0,8,0,10000,0,0,0,
2026-03-29 06:00:00,METAR VVPQ 290600Z 10008KT 9999 FEW015 32/23 Q1010 NOSIG,0,8,0,10000,0,0,0,
2026-03-29 05:30:00,METAR VVPQ 290530Z 11008KT 9999 FEW015 31/24 Q1011 NOSIG,0,8,0,10000,0,0,0,
2026-03-29 05:00:00,METAR VVPQ 290500Z 11008KT 9999 FEW015 31/24 Q1011 NOSIG,0,8,0,10000,0,0,0,
2026-03-29 04:30:00,METAR VVPQ 290430Z 11007KT 9999 FEW015 32/25 Q1011 NOSIG,0,7,0,10000,0,0,0,
2026-03-29 04:00:00,METAR VVPQ 290400Z 10008KT 9999 FEW015 32/25 Q1012 NOSIG,0,8,0,10000,0,0,0,
2026-03-29 03:30:00,METAR VVPQ 290330Z 12008KT 9999 FEW015 30/24 Q1012 NOSIG,0,8,0,10000,0,0,0,
2026-03-29 03:00:00,METAR VVPQ 290300Z 10010KT 9999 FEW015 32/25 Q1012 NOSIG,0,10,0,10000,0,0,0,
2026-03-29 02:30:00,METAR VVPQ 290230Z 11011KT 9999 FEW015 31/25 Q1011 NOSIG,0,11,0,10000,0,0,0,
2026-03-29 02:00:00,METAR VVPQ 290200Z 10010KT 9999 FEW015 32/25 Q1011 NOSIG,0,10,0,10000,0,0,0,
2026-03-29 01:30:00,METAR VVPQ 290130Z 12009KT 9999 FEW015 30/25 Q1011 NOSIG,0,9,0,10000,0,0,0,
2026-03-29 01:00:00,METAR VVPQ 290100Z 12007KT 9999 FEW015 28/25 Q1011 NOSIG,0,7,0,10000,0,0,0,
2026-03-29 00:30:00,METAR VVPQ 290030Z 14003KT 9999 FEW015 28/25 Q1010 NOSIG,0,3,0,10000,0,0,0,
2026-03-29 00:00:00,METAR VVPQ 290000Z 00000KT 9999 FEW015 27/25 Q1010 NOSIG,0,0,0,10000,0,0,0,
2026-03-28 23:30:00,METAR VVPQ 282330Z 03002KT 9999 FEW015 24/23 Q1009 NOSIG,0,2,0,10000,0,0,0,
2026-03-28 23:00:00,METAR VVPQ 282300Z 04001KT 9999 FEW015 24/23 Q1008 NOSIG,0,1,0,10000,0,0,0,
2026-03-28 22:30:00,METAR VVPQ 282230Z 06002KT 9999 FEW015 24/24 Q1008 NOSIG,0,2,0,10000,0,0,0,
2026-03-28 22:00:00,METAR VVPQ 282200Z 09002KT 9999 FEW015 24/24 Q1008 NOSIG,0,2,0,10000,0,0,0,
2026-03-28 21:30:00,METAR VVPQ 282130Z VRB02KT 9999 FEW017 24/24 Q1008 NOSIG,0,2,0,10000,0,0,0,
2026-03-28 21:00:00,METAR VVPQ 282100Z 07003KT 9999 FEW017 24/24 Q1008 NOSIG,0,3,0,10000,0,0,0,
2026-03-28 20:30:00,METAR VVPQ 282030Z 07002KT 9999 FEW017 25/24 Q1008 NOSIG,0,2,0,10000,0,0,0,
2026-03-28 20:00:00,METAR VVPQ 282000Z 09003KT 9999 FEW017 25/24 Q1008 NOSIG,0,3,0,10000,0,0,0,
2026-03-28 19:30:00,METAR VVPQ 281930Z 06004KT 9999 FEW017 25/24 Q1008 NOSIG,0,4,0,10000,0,0,0,
2026-03-28 19:00:00,METAR VVPQ 281900Z 10003KT 9999 FEW017 25/24 Q1008 NOSIG,0,3,0,10000,0,0,0,
2026-03-28 18:30:00,METAR VVPQ 281830Z 10002KT 9999 FEW017 25/24 Q1009 NOSIG,0,2,0,10000,0,0,0,
2026-03-28 18:00:00,METAR VVPQ 281800Z 08003KT 9999 FEW017 25/24 Q1009 NOSIG,0,3,0,10000,0,0,0,
2026-03-28 17:30:00,METAR VVPQ 281730Z 08003KT 9999 FEW017 25/24 Q1009 NOSIG,0,3,0,10000,0,0,0,
2026-03-28 17:00:00,METAR VVPQ 281700Z 07003KT 9999 FEW017 25/24 Q1009 NOSIG,0,3,0,10000,0,0,0,
2026-03-28 16:30:00,METAR VVPQ 281630Z 07003KT 9999 FEW017 25/24 Q1010 NOSIG,0,3,0,10000,0,0,0,
2026-03-28 16:00:00,METAR VVPQ 281600Z 05002KT 9999 FEW017 25/24 Q1010 NOSIG,0,2,0,10000,0,0,0,
2026-03-28 15:30:00,METAR VVPQ 281530Z 09003KT 9999 FEW017 25/24 Q1010 NOSIG,0,3,0,10000,0,0,0,
2026-03-28 15:00:00,METAR VVPQ 281500Z 08002KT 9999 FEW017 26/24 Q1009 NOSIG,0,2,0,10000,0,0,0,
2026-03-28 14:30:00,METAR VVPQ 281430Z 06002KT 9999 FEW017 26/24 Q1009 NOSIG,0,2,0,10000,0,0,0,
2026-03-28 14:00:00,METAR VVPQ 281400Z 02002KT 9999 FEW017 26/24 Q1009 NOSIG,0,2,0,10000,0,0,0,
2026-03-28 13:30:00,METAR VVPQ 281330Z 05002KT 9999 FEW017 26/24 Q1009 NOSIG,0,2,0,10000,0,0,0,
2026-03-28 13:00:00,METAR VVPQ 281300Z 07002KT 9999 FEW017 27/24 Q1009 NOSIG,0,2,0,10000,0,0,0,
2026-03-28 12:30:00,METAR VVPQ 281230Z VRB01KT 9999 FEW017 27/24 Q1009 NOSIG,0,1,0,10000,0,0,0,
2026-03-28 12:00:00,METAR VVPQ 281200Z 18003KT 9999 FEW017 28/24 Q1008 NOSIG,0,3,0,10000,0,0,0,
2026-03-28 11:30:00,METAR VVPQ 281130Z 21004KT 9999 FEW017 28/24 Q1008 NOSIG,0,4,0,10000,0,0,0,
2026-03-28 11:00:00,METAR VVPQ 281100Z 22005KT 9999 FEW017 29/24 Q1008 NOSIG,0,5,0,10000,0,0,0,
2026-03-28 10:30:00,METAR VVPQ 281030Z 21006KT 9999 FEW017 29/24 Q1008 NOSIG,0,6,0,10000,0,0,0,
2026-03-28 10:00:00,METAR VVPQ 281000Z 22007KT 9999 FEW017 30/23 Q1008 NOSIG,0,7,0,10000,0,0,0,
2026-03-28 09:30:00,METAR VVPQ 280930Z 19006KT 9999 FEW017 31/23 Q1008 NOSIG,0,6,0,10000,0,0,0,
2026-03-28 09:00:00,METAR VVPQ 280900Z 16005KT 9999 FEW017 32/23 Q1008 NOSIG,0,5,0,10000,0,0,0,
2026-03-28 08:30:00,METAR VVPQ 280830Z 10005KT 9999 FEW017 31/22 Q1008 NOSIG,0,5,0,10000,0,0,0,
2026-03-28 08:00:00,METAR VVPQ 280800Z 12005KT 9999 FEW015 31/23 Q1008 NOSIG,0,5,0,10000,0,0,0,
2026-03-28 07:30:00,METAR VVPQ 280730Z 11007KT 080V140 9999 FEW015 31/22 Q1008 NOSIG,0,7,0,10000,0,0,0,
2026-03-28 07:00:00,METAR VVPQ 280700Z 12008KT 9999 FEW015 32/22 Q1009 NOSIG,0,8,0,10000,0,0,0,
2026-03-28 06:30:00,METAR VVPQ 280630Z 11010KT 9999 SCT015 32/24 Q1009 NOSIG,0,10,0,10000,0,0,0,
2026-03-28 06:00:00,METAR VVPQ 280600Z 11010KT 9999 SCT015 31/24 Q1009 NOSIG,0,10,0,10000,0,0,0,
2026-03-28 05:30:00,METAR VVPQ 280530Z 12010KT 9999 SCT015 32/24 Q1010 NOSIG,0,10,0,10000,0,0,0,
2026-03-28 05:00:00,METAR VVPQ 280500Z 10009KT 9999 SCT015 32/24 Q1010 NOSIG,0,9,0,10000,0,0,0,
2026-03-28 04:30:00,METAR VVPQ 280430Z 10010KT 9999 SCT015 32/24 Q1011 NOSIG,0,10,0,10000,0,0,0,
2026-03-28 04:00:00,METAR VVPQ 280400Z 10010KT 9999 SCT015 32/24 Q1011 NOSIG,0,10,0,10000,0,0,0,
2026-03-28 03:30:00,METAR VVPQ 280330Z 11010KT 9999 SCT015 32/24 Q1011 NOSIG,0,10,0,10000,0,0,0,
2026-03-28 03:00:00,METAR VVPQ 280300Z 11010KT 9999 SCT015 31/24 Q1011 NOSIG,0,10,0,10000,0,0,0,
2026-03-28 02:30:00,METAR VVPQ 280230Z 12009KT 9999 SCT015 31/24 Q1011 NOSIG,0,9,0,10000,0,0,0,
2026-03-28 02:00:00,METAR VVPQ 280200Z 12008KT 9999 SCT015 30/25 Q1011 NOSIG,0,8,0,10000,0,0,0,
2026-03-28 01:30:00,METAR VVPQ 280130Z 13007KT 9999 SCT015 30/25 Q1010 NOSIG,0,7,0,10000,0,0,0,
2026-03-28 01:00:00,METAR VVPQ 280100Z 12005KT 9999 SCT015 28/25 Q1010 NOSIG,0,5,0,10000,0,0,0,
2026-03-28 00:30:00,METAR VVPQ 280030Z VRB02KT 9000 SCT015 26/24 Q1010 NOSIG,0,2,0,9000,0,0,0,
2026-03-28 00:00:00,METAR VVPQ 280000Z VRB01KT 9000 SCT015 25/24 Q1009 NOSIG,0,1,0,9000,0,0,0,
2026-03-27 23:30:00,METAR VVPQ 272330Z VRB01KT 8000 FEW015 24/23 Q1009 NOSIG,0,1,0,8000,0,0,0,
2026-03-27 23:00:00,METAR VVPQ 272300Z 04003KT CAVOK 24/23 Q1008 NOSIG,1,0,0,9999,0,0,0,
2026-03-27 22:30:00,METAR VVPQ 272230Z 12002KT CAVOK 24/23 Q1008 NOSIG,1,0,0,9999,0,0,0,
2026-03-27 22:00:00,METAR VVPQ 272200Z 04002KT CAVOK 24/23 Q1008 NOSIG,1,0,0,9999,0,0,0,
2026-03-27 21:30:00,METAR VVPQ 272130Z 04002KT CAVOK 24/23 Q1008 NOSIG,1,0,0,9999,0,0,0,
2026-03-27 21:00:00,METAR VVPQ 272100Z 04001KT CAVOK 24/23 Q1008 NOSIG,1,0,0,9999,0,0,0,
2026-03-27 20:30:00,METAR VVPQ 272030Z 04002KT CAVOK 24/23 Q1007 NOSIG,1,0,0,9999,0,0,0,
2026-03-27 20:00:00,METAR VVPQ 272000Z VRB01KT CAVOK 24/23 Q1008 NOSIG,1,0,0,9999,0,0,0,
2026-03-27 19:30:00,METAR VVPQ 271930Z 03002KT CAVOK 23/23 Q1008 NOSIG,1,0,0,9999,0,0,0,
2026-03-27 19:00:00,METAR VVPQ 271900Z 05002KT CAVOK 24/23 Q1008 NOSIG,1,0,0,9999,0,0,0,
2026-03-27 18:30:00,METAR VVPQ 271830Z 06002KT CAVOK 24/23 Q1008 NOSIG,1,0,0,9999,0,0,0,
2026-03-27 18:00:00,METAR VVPQ 271800Z 06001KT CAVOK 24/23 Q1008 NOSIG,1,0,0,9999,0,0,0,
2026-03-27 17:30:00,METAR VVPQ 271730Z 06002KT CAVOK 24/23 Q1009 NOSIG,1,0,0,9999,0,0,0,
2026-03-27 17:00:00,METAR VVPQ 271700Z 05002KT CAVOK 24/23 Q1009 NOSIG,1,0,0,9999,0,0,0,
2026-03-27 16:30:00,METAR VVPQ 271630Z VRB02KT CAVOK 24/23 Q1009 NOSIG,1,0,0,9999,0,0,0,
2026-03-27 16:00:00,METAR VVPQ 271600Z 01002KT CAVOK 24/23 Q1010 NOSIG,1,0,0,9999,0,0,0,
2026-03-25 15:00:00,METAR VVPQ 251500Z VRB02KT CAVOK 25/23 Q1011 NOSIG,1,0,0,9999,0,0,0,
2026-03-25 14:30:00,METAR VVPQ 251430Z VRB02KT CAVOK 25/21 Q1011 NOSIG,1,0,0,9999,0,0,0,
2026-03-25 14:00:00,METAR VVPQ 251400Z VRB02KT CAVOK 26/21 Q1010 NOSIG,1,0,0,9999,0,0,0,
2026-03-25 13:30:00,METAR VVPQ 251330Z 09003KT CAVOK 26/21 Q1010 NOSIG,1,0,0,9999,0,0,0,
2026-03-25 13:00:00,METAR VVPQ 251300Z VRB01KT CAVOK 26/21 Q1010 NOSIG,1,0,0,9999,0,0,0,
2026-03-25 12:30:00,METAR VVPQ 251230Z VRB01KT CAVOK 28/21 Q1010 NOSIG,1,0,0,9999,0,0,0,
2026-03-25 12:00:00,METAR VVPQ 251200Z VRB02KT CAVOK 29/21 Q1009 NOSIG,1,0,0,9999,0,0,0,
2026-03-25 11:30:00,METAR VVPQ 251130Z VRB02KT CAVOK 29/21 Q1009 NOSIG,1,0,0,9999,0,0,0,
2026-03-25 11:00:00,METAR VVPQ 251100Z 14004KT CAVOK 30/21 Q1009 NOSIG,1,0,0,9999,0,0,0,
2026-03-25 10:30:00,METAR VVPQ 251030Z 15005KT CAVOK 31/22 Q1008 NOSIG,1,0,0,9999,0,0,0,
2026-03-25 10:00:00,METAR VVPQ 251000Z 16006KT CAVOK 31/22 Q1008 NOSIG,1,0,0,9999,0,0,0,
2026-03-25 09:30:00,METAR VVPQ 250930Z 16004KT CAVOK 31/22 Q1008 NOSIG,1,0,0,9999,0,0,0,
2026-03-25 09:00:00,METAR VVPQ 250900Z 15007KT CAVOK 32/23 Q1008 NOSIG,1,0,0,9999,0,0,0,
2026-03-25 08:30:00,METAR VVPQ 250830Z 13007KT CAVOK 32/23 Q1008 NOSIG,1,0,0,9999,0,0,0,
2026-03-25 08:00:00,METAR VVPQ 250800Z 11008KT 9999 FEW015 32/24 Q1008 NOSIG,0,8,0,10000,0,0,0,
2026-03-25 07:30:00,METAR VVPQ 250730Z 12007KT 9999 FEW015 32/24 Q1009 NOSIG,0,7,0,10000,0,0,0,
2026-03-25 07:00:00,METAR VVPQ 250700Z 10007KT 9999 FEW015 32/24 Q1009 NOSIG,0,7,0,10000,0,0,0,
2026-03-25 06:30:00,METAR VVPQ 250630Z 10007KT 9999 FEW015 31/24 Q1009 NOSIG,0,7,0,10000,0,0,0,
2026-03-25 06:00:00,METAR VVPQ 250600Z 11008KT 9999 SCT015 32/24 Q1010 NOSIG,0,8,0,10000,0,0,0,
2026-03-25 05:30:00,METAR VVPQ 250530Z 10009KT 9999 SCT015 31/24 Q1010 NOSIG,0,9,0,10000,0,0,0,
2026-03-25 05:00:00,METAR VVPQ 250500Z 11009KT 9999 SCT015 31/25 Q1011 NOSIG,0,9,0,10000,0,0,0,
2026-03-25 04:30:00,METAR VVPQ 250430Z 11008KT 9999 SCT015 30/25 Q1011 NOSIG,0,8,0,10000,0,0,0,
2026-03-25 04:00:00,METAR VVPQ 250400Z 11008KT 9999 SCT015 30/25 Q1011 NOSIG,0,8,0,10000,0,0,0,
2026-03-25 03:30:00,METAR VVPQ 250330Z 11008KT 9999 SCT015 30/25 Q1012 NOSIG,0,8,0,10000,0,0,0,
2026-03-25 03:00:00,METAR VVPQ 250300Z 12008KT 9999 SCT015 30/25 Q1012 NOSIG,0,8,0,10000,0,0,0,
2026-03-25 02:30:00,METAR VVPQ 250230Z 11007KT 9999 SCT015 30/25 Q1012 NOSIG,0,7,0,10000,0,0,0,
2026-03-25 02:00:00,METAR VVPQ 250200Z 12007KT 9999 SCT015 29/25 Q1011 NOSIG,0,7,0,10000,0,0,0,
2026-03-25 01:30:00,METAR VVPQ 250130Z 13007KT 9999 SCT015 29/25 Q1011 NOSIG,0,7,0,10000,0,0,0,
2026-03-25 01:00:00,METAR VVPQ 250100Z 12006KT 9999 SCT015 29/25 Q1011 NOSIG,0,6,0,10000,0,0,0,
2026-03-25 00:30:00,METAR VVPQ 250030Z VRB02KT 9999 SCT015 26/25 Q1010 NOSIG,0,2,0,10000,0,0,0,
2026-03-25 00:00:00,METAR VVPQ 250000Z VRB02KT 9999 SCT015 25/24 Q1010 NOSIG,0,2,0,10000,0,0,0,
2026-03-24 23:30:00,METAR VVPQ 242330Z VRB01KT 9999 SCT015 24/24 Q1010 NOSIG,0,1,0,10000,0,0,0,
2026-03-24 23:00:00,METAR VVPQ 242300Z 02002KT 9999 SCT015 24/24 Q1009 NOSIG,0,2,0,10000,0,0,0,
2026-03-24 22:30:00,METAR VVPQ 242230Z VRB02KT 9999 FEW017 24/24 Q1009 NOSIG,0,2,0,10000,0,0,0,
2026-03-24 22:00:00,METAR VVPQ 242200Z VRB02KT 9999 FEW017 24/24 Q1009 NOSIG,0,2,0,10000,0,0,0,
2026-03-24 21:30:00,METAR VVPQ 242130Z 01002KT 9999 FEW017 24/24 Q1009 NOSIG,0,2,0,10000,0,0,0,
2026-03-24 21:00:00,METAR VVPQ 242100Z 04002KT 9999 FEW017 24/24 Q1009 NOSIG,0,2,0,10000,0,0,0,
2026-03-24 20:30:00,METAR VVPQ 242030Z 05002KT 9999 FEW017 24/24 Q1009 NOSIG,0,2,0,10000,0,0,0,
2026-03-24 20:00:00,METAR VVPQ 242000Z 06002KT 9999 FEW017 24/24 Q1009 NOSIG,0,2,0,10000,0,0,0,
2026-03-24 19:30:00,METAR VVPQ 241930Z 03002KT 9999 FEW017 24/24 Q1009 NOSIG,0,2,0,10000,0,0,0,
2026-03-24 19:00:00,METAR VVPQ 241900Z VRB02KT 9999 FEW017 24/24 Q1009 NOSIG,0,2,0,10000,0,0,0,
2026-03-24 18:30:00,METAR VVPQ 241830Z VRB02KT 9999 FEW017 24/24 Q1009 NOSIG,0,2,0,10000,0,0,0,
2026-03-24 18:00:00,METAR VVPQ 241800Z 04002KT 9999 FEW017 25/25 Q1010 NOSIG,0,2,0,10000,0,0,0,
2026-03-24 17:30:00,METAR VVPQ 241730Z 03002KT 9999 FEW017 25/24 Q1010 NOSIG,0,2,0,10000,0,0,0,
2026-03-24 17:00:00,METAR VVPQ 241700Z VRB02KT 9999 FEW017 25/24 Q1010 NOSIG,0,2,0,10000,0,0,0,
2026-03-24 16:30:00,METAR VVPQ 241630Z 01002KT 9999 FEW017 25/24 Q1010 NOSIG,0,2,0,10000,0,0,0,
2026-03-24 16:00:00,METAR VVPQ 241600Z 07002KT 9999 FEW017 25/24 Q1011 NOSIG,0,2,0,10000,0,0,0,
2026-03-24 15:30:00,METAR VVPQ 241530Z VRB02KT 9999 FEW017 25/24 Q1011 NOSIG,0,2,0,10000,0,0,0,
2026-03-24 15:00:00,METAR VVPQ 241500Z 05002KT 9999 FEW017 25/24 Q1011 NOSIG,0,2,0,10000,0,0,0,
2026-03-24 14:30:00,METAR VVPQ 241430Z VRB02KT 9999 FEW017 25/24 Q1010 NOSIG,0,2,0,10000,0,0,0,
2026-03-24 14:00:00,METAR VVPQ 241400Z VRB01KT 9999 FEW017 25/24 Q1010 NOSIG,0,1,0,10000,0,0,0,
2026-03-24 13:30:00,METAR VVPQ 241330Z VRB02KT 9999 FEW017 25/24 Q1010 NOSIG,0,2,0,10000,0,0,0,
2026-03-24 13:00:00,METAR VVPQ 241300Z VRB02KT 9999 FEW017 26/24 Q1010 NOSIG,0,2,0,10000,0,0,0,
2026-03-24 12:30:00,METAR VVPQ 241230Z VRB03KT 9999 FEW017 26/24 Q1009 NOSIG,0,3,0,10000,0,0,0,
2026-03-24 12:00:00,METAR VVPQ 241200Z 16002KT 9999 FEW017 28/24 Q1009 NOSIG,0,2,0,10000,0,0,0,
2026-03-24 11:30:00,METAR VVPQ 241130Z 19003KT CAVOK 28/24 Q1008 NOSIG,1,0,0,9999,0,0,0,
2026-03-24 11:00:00,METAR VVPQ 241100Z 19004KT CAVOK 29/24 Q1008 NOSIG,1,0,0,9999,0,0,0,
2026-03-24 10:30:00,METAR VVPQ 241030Z 15004KT 9999 FEW015 30/22 Q1008 NOSIG,0,4,0,10000,0,0,0,
2026-03-24 10:00:00,METAR VVPQ 241000Z 14006KT 9999 FEW015 30/22 Q1008 NOSIG,0,6,0,10000,0,0,0,
2026-03-24 09:30:00,METAR VVPQ 240930Z 14007KT 9999 FEW015 31/24 Q1008 NOSIG,0,7,0,10000,0,0,0,
2026-03-24 09:00:00,METAR VVPQ 240900Z 14007KT 9999 FEW015 31/24 Q1008 NOSIG,0,7,0,10000,0,0,0,
2026-03-24 08:30:00,METAR VVPQ 240830Z 13006KT 9999 FEW015 31/24 Q1008 NOSIG,0,6,0,10000,0,0,0,
2026-03-24 08:00:00,METAR VVPQ 240800Z 11009KT 9999 SCT015 31/24 Q1008 NOSIG,0,9,0,10000,0,0,0,
2026-03-24 07:30:00,METAR VVPQ 240730Z 10005KT 9999 SCT015 31/24 Q1008 NOSIG,0,5,0,10000,0,0,0,
2026-03-24 07:00:00,METAR VVPQ 240700Z 10009KT 070V160 9999 SCT015 31/25 Q1008 NOSIG,0,9,0,10000,0,0,0,
2026-03-24 06:30:00,METAR VVPQ 240630Z 11009KT 070V160 9999 SCT015 31/25 Q1009 NOSIG,0,9,0,10000,0,0,0,
2026-03-24 06:00:00,METAR VVPQ 240600Z 11010KT 080V140 9999 SCT015 31/25 Q1009 NOSIG,0,10,0,10000,0,0,0,
2026-03-24 05:30:00,METAR VVPQ 240530Z 11010KT 060V140 9999 SCT015 30/24 Q1010 NOSIG,0,10,0,10000,0,0,0,
2026-03-24 05:00:00,METAR VVPQ 240500Z 12010KT 090V160 9999 SCT015 31/24 Q1010 NOSIG,0,10,0,10000,0,0,0,
2026-03-24 04:30:00,METAR VVPQ 240430Z 09010KT 060V130 9999 SCT015 31/25 Q1011 NOSIG,0,10,0,10000,0,0,0,
2026-03-24 03:30:00,METAR VVPQ 240330Z 10011KT 9999 SCT015 30/25 Q1012 NOSIG,0,11,0,10000,0,0,0,
2026-03-24 03:00:00,METAR VVPQ 240300Z 10011KT 9999 SCT015 30/25 Q1012 NOSIG,0,11,0,10000,0,0,0,
2026-03-24 02:30:00,METAR VVPQ 240230Z 10010KT 9999 SCT015 28/25 Q1012 NOSIG,0,10,0,10000,0,0,0,
2026-03-24 02:00:00,METAR VVPQ 240200Z 11007KT 9999 SCT015 28/25 Q1012 NOSIG,0,7,0,10000,0,0,0,
2026-03-24 01:30:00,METAR VVPQ 240130Z 11007KT 9999 SCT015 27/25 Q1011 NOSIG,0,7,0,10000,0,0,0,
2026-03-24 01:00:00,METAR VVPQ 240100Z 13005KT 9999 SCT015 28/24 Q1011 NOSIG,0,5,0,10000,0,0,0,
2026-03-24 00:30:00,METAR VVPQ 240030Z VRB02KT 9999 SCT015 27/25 Q1011 NOSIG,0,2,0,10000,0,0,0,
2026-03-24 00:00:00,METAR VVPQ 240000Z VRB02KT 9999 SCT015 26/25 Q1011 NOSIG,0,2,0,10000,0,0,0,
2026-03-23 23:30:00,METAR VVPQ 232330Z 06002KT 9000 SCT015 25/24 Q1010 NOSIG,0,2,0,9000,0,0,0,
2026-03-23 23:00:00,METAR VVPQ 232300Z 09002KT 9000 SCT015 25/24 Q1010 NOSIG,0,2,0,9000,0,0,0,
2026-03-23 22:30:00,METAR VVPQ 232230Z 09002KT 9000 SCT015 25/24 Q1010 NOSIG,0,2,0,9000,0,0,0,
2026-03-23 22:00:00,METAR VVPQ 232200Z 16001KT 9000 SCT015 25/24 Q1009 NOSIG,0,1,0,9000,0,0,0,
2026-03-23 21:30:00,METAR VVPQ 232130Z 02004KT 9000 SCT015 25/24 Q1009 NOSIG,0,4,0,9000,0,0,0,
2026-03-23 21:00:00,METAR VVPQ 232100Z 08002KT 9000 SCT015 26/25 Q1009 NOSIG,0,2,0,9000,0,0,0,
2026-03-23 20:30:00,METAR VVPQ 232030Z 03003KT 9000 -RA SCT015 26/25 Q1009 NOSIG,0,3,0,9000,0,0,0,-RA
2026-03-23 20:00:00,METAR VVPQ 232000Z 03003KT 9000 SCT015 26/26 Q1009 NOSIG,0,3,0,9000,0,0,0,
2026-03-23 19:30:00,METAR VVPQ 231930Z 03002KT 9000 SCT015 26/26 Q1009 NOSIG,0,2,0,9000,0,0,0,
2026-03-23 19:00:00,METAR VVPQ 231900Z 02002KT 9999 FEW017 25/25 Q1009 NOSIG,0,2,0,10000,0,0,0,
2026-03-23 18:30:00,METAR VVPQ 231830Z 02003KT 9999 FEW017 25/25 Q1009 NOSIG,0,3,0,10000,0,0,0,
2026-03-23 18:00:00,METAR VVPQ 231800Z 07003KT 9999 FEW017 25/25 Q1010 NOSIG,0,3,0,10000,0,0,0,
2026-03-23 17:30:00,METAR VVPQ 231730Z 07003KT 9999 FEW017 26/25 Q1011 NOSIG,0,3,0,10000,0,0,0,
2026-03-23 17:00:00,METAR VVPQ 231700Z VRB02KT 9999 FEW017 26/25 Q1011 NOSIG,0,2,0,10000,0,0,0,
2026-03-23 16:30:00,METAR VVPQ 231630Z VRB01KT 9999 FEW017 26/25 Q1011 NOSIG,0,1,0,10000,0,0,0,
2026-03-23 16:00:00,METAR VVPQ 231600Z VRB01KT 9999 FEW017 26/25 Q1011 NOSIG,0,1,0,10000,0,0,0,
2026-03-23 15:30:00,METAR VVPQ 231530Z 35003KT 9999 FEW017 26/25 Q1011 NOSIG,0,3,0,10000,0,0,0,
2026-03-23 15:00:00,METAR VVPQ 231500Z 06002KT CAVOK 26/25 Q1011 NOSIG,1,0,0,9999,0,0,0,
2026-03-23 14:30:00,METAR VVPQ 231430Z 06002KT CAVOK 26/25 Q1011 NOSIG,1,0,0,9999,0,0,0,
2026-03-23 14:00:00,METAR VVPQ 231400Z 03002KT CAVOK 26/25 Q1010 NOSIG,1,0,0,9999,0,0,0,
2026-03-23 13:30:00,METAR VVPQ 231330Z 07002KT CAVOK 27/25 Q1010 NOSIG,1,0,0,9999,0,0,0,
2026-03-23 13:00:00,METAR VVPQ 231300Z VRB02KT CAVOK 27/25 Q1010 NOSIG,1,0,0,9999,0,0,0,
2026-03-23 12:30:00,METAR VVPQ 231230Z 20002KT CAVOK 28/25 Q1009 NOSIG,1,0,0,9999,0,0,0,
2026-03-23 12:00:00,METAR VVPQ 231200Z 20003KT CAVOK 28/25 Q1009 NOSIG,1,0,0,9999,0,0,0,
2026-03-23 11:30:00,METAR VVPQ 231130Z 21004KT CAVOK 28/25 Q1009 NOSIG,1,0,0,9999,0,0,0,
2026-03-23 11:00:00,METAR VVPQ 231100Z 21006KT CAVOK 29/24 Q1009 NOSIG,1,0,0,9999,0,0,0,
2026-03-23 10:30:00,METAR VVPQ 231030Z 19005KT CAVOK 30/24 Q1008 NOSIG,1,0,0,9999,0,0,0,
2026-03-23 10:00:00,METAR VVPQ 231000Z 15005KT 9999 FEW015 31/22 Q1008 NOSIG,0,5,0,10000,0,0,0,
2026-03-23 09:30:00,METAR VVPQ 230930Z 15007KT 9999 FEW015 31/22 Q1008 NOSIG,0,7,0,10000,0,0,0,
2026-03-23 09:00:00,METAR VVPQ 230900Z 15007KT 9999 FEW015 32/22 Q1008 NOSIG,0,7,0,10000,0,0,0,
2026-03-23 08:30:00,METAR VVPQ 230830Z 14008KT 9999 FEW015 32/23 Q1009 NOSIG,0,8,0,10000,0,0,0,
2026-03-23 08:00:00,METAR VVPQ 230800Z 13008KT 9999 FEW015 31/24 Q1009 NOSIG,0,8,0,10000,0,0,0,
2026-03-23 07:30:00,METAR VVPQ 230730Z 12008KT 9999 FEW015 31/24 Q1009 NOSIG,0,8,0,10000,0,0,0,
2026-03-23 07:00:00,METAR VVPQ 230700Z 12008KT 9999 FEW015 32/24 Q1010 NOSIG,0,8,0,10000,0,0,0,
2026-03-23 06:30:00,METAR VVPQ 230630Z 10009KT 9999 FEW015 32/24 Q1010 NOSIG,0,9,0,10000,0,0,0,
2026-03-23 06:00:00,METAR VVPQ 230600Z 10009KT 9999 FEW015 31/24 Q1011 NOSIG,0,9,0,10000,0,0,0,
2026-03-23 05:30:00,METAR VVPQ 230530Z 08009KT 9999 FEW015 30/24 Q1011 NOSIG,0,9,0,10000,0,0,0,
2026-03-23 05:00:00,METAR VVPQ 230500Z 11007KT 9999 FEW015 30/24 Q1012 NOSIG,0,7,0,10000,0,0,0,
2026-03-23 04:30:00,METAR VVPQ 230430Z 10007KT 9999 FEW015 31/24 Q1012 NOSIG,0,7,0,10000,0,0,0,
2026-03-23 04:00:00,METAR VVPQ 230400Z 10007KT 9999 FEW015 31/24 Q1012 NOSIG,0,7,0,10000,0,0,0,
2026-03-23 03:30:00,METAR VVPQ 230330Z 09011KT 9999 FEW015 31/24 Q1013 NOSIG,0,11,0,10000,0,0,0,
2026-03-23 03:00:00,METAR VVPQ 230300Z 10010KT 9999 FEW015 31/24 Q1013 NOSIG,0,10,0,10000,0,0,0,
2026-03-23 02:30:00,METAR VVPQ 230230Z 12007KT 9999 FEW015 31/24 Q1013 NOSIG,0,7,0,10000,0,0,0,
2026-03-23 02:00:00,METAR VVPQ 230200Z 12008KT 9999 FEW015 29/24 Q1013 NOSIG,0,8,0,10000,0,0,0,
2026-03-23 01:30:00,METAR VVPQ 230130Z 12008KT 9999 FEW015 29/24 Q1013 NOSIG,0,8,0,10000,0,0,0,
2026-03-23 01:00:00,METAR VVPQ 230100Z 10006KT 9999 SCT015 29/24 Q1013 NOSIG,0,6,0,10000,0,0,0,
2026-03-23 00:30:00,METAR VVPQ 230030Z 23003KT 9999 SCT015 28/24 Q1012 NOSIG,0,3,0,10000,0,0,0,
2026-03-23 00:00:00,METAR VVPQ 230000Z 12004KT 9999 FEW015 27/24 Q1012 NOSIG,0,4,0,10000,0,0,0,
2026-03-22 23:30:00,METAR VVPQ 222330Z 13006KT 9999 FEW015 27/24 Q1012 NOSIG,0,6,0,10000,0,0,0,
2026-03-22 23:00:00,METAR VVPQ 222300Z 13006KT 9999 FEW015 27/24 Q1012 NOSIG,0,6,0,10000,0,0,0,
2026-03-22 22:30:00,METAR VVPQ 222230Z 13005KT CAVOK 27/24 Q1011 NOSIG,1,0,0,9999,0,0,0,
2026-03-22 22:00:00,METAR VVPQ 222200Z 13004KT CAVOK 27/24 Q1011 NOSIG,1,0,0,9999,0,0,0,
2026-03-22 21:30:00,METAR VVPQ 222130Z 14006KT CAVOK 27/24 Q1011 NOSIG,1,0,0,9999,0,0,0,
2026-03-22 21:00:00,METAR VVPQ 222100Z 140057KT CAVOK 27/24 Q1010 NOSIG,1,0,0,9999,0,0,0,
2026-03-22 20:30:00,METAR VVPQ 222030Z 13007KT CAVOK 27/24 Q1010 NOSIG,1,0,0,9999,0,0,0,
2026-03-22 20:00:00,METAR VVPQ 222000Z 13007KT CAVOK 27/24 Q1011 NOSIG,1,0,0,9999,0,0,0,
2026-03-22 19:30:00,METAR VVPQ 221930Z 14005KT CAVOK 27/24 Q1011 NOSIG,1,0,0,9999,0,0,0,
2026-03-22 19:00:00,METAR VVPQ 221900Z 15004KT CAVOK 27/25 Q1011 NOSIG,1,0,0,9999,0,0,0,
2026-03-22 18:30:00,METAR VVPQ 221830Z 15003KT CAVOK 27/25 Q1011 NOSIG,1,0,0,9999,0,0,0,
2026-03-22 18:00:00,METAR VVPQ 221800Z 15005KT CAVOK 27/25 Q1011 NOSIG,1,0,0,9999,0,0,0,
2026-03-22 17:30:00,METAR VVPQ 221730Z 15005KT CAVOK 27/25 Q1012 NOSIG,1,0,0,9999,0,0,0,
2026-03-22 17:00:00,METAR VVPQ 221700Z 15005KT CAVOK 27/25 Q1012 NOSIG,1,0,0,9999,0,0,0,
2026-03-22 16:30:00,METAR VVPQ 221630Z 16005KT CAVOK 27/25 Q1012 NOSIG,1,0,0,9999,0,0,0,
2026-03-22 16:00:00,METAR VVPQ 221600Z VRB03KT CAVOK 26/25 Q1012 NOSIG,1,0,0,9999,0,0,0,
2026-03-22 15:30:00,METAR VVPQ 221530Z 07003KT CAVOK 27/25 Q1012 NOSIG,1,0,0,9999,0,0,0,
2026-03-22 15:00:00,METAR VVPQ 221500Z 15005KT CAVOK 27/25 Q1012 NOSIG,1,0,0,9999,0,0,0,
2026-03-22 14:30:00,METAR VVPQ 221430Z VRB02KT CAVOK 27/25 Q1012 NOSIG,1,0,0,9999,0,0,0,
2026-03-22 14:00:00,METAR VVPQ 221400Z 15004KT CAVOK 27/25 Q1012 NOSIG,1,0,0,9999,0,0,0,
2026-03-22 13:30:00,METAR VVPQ 221330Z 16004KT CAVOK 27/25 Q1011 NOSIG,1,0,0,9999,0,0,0,
2026-03-22 12:30:00,METAR VVPQ 221230Z 13003KT CAVOK 28/25 Q1011 NOSIG,1,0,0,9999,0,0,0,
2026-03-22 11:30:00,METAR VVPQ 221130Z VRB02KT CAVOK 28/24 Q1010 NOSIG,1,0,0,9999,0,0,0,
2026-03-22 11:00:00,METAR VVPQ 221100Z 13005KT CAVOK 29/24 Q1010 NOSIG,1,0,0,9999,0,0,0,
2026-03-22 10:30:00,METAR VVPQ 221030Z 13010KT 9999 FEW017 30/24 Q1009 NOSIG,0,10,0,10000,0,0,0,
2026-03-22 10:00:00,METAR VVPQ 221000Z 14009KT 9999 FEW017 30/24 Q1009 NOSIG,0,9,0,10000,0,0,0,
2026-03-22 09:30:00,METAR VVPQ 220930Z 12010KT 9999 FEW017 30/24 Q1010 NOSIG,0,10,0,10000,0,0,0,
2026-03-22 08:30:00,METAR VVPQ 220830Z 12007KT 9999 FEW017 31/24 Q1010 NOSIG,0,7,0,10000,0,0,0,
2026-03-22 08:00:00,METAR VVPQ 220800Z 09008KT 9999 FEW017 31/24 Q1010 NOSIG,0,8,0,10000,0,0,0,
2026-03-22 07:30:00,METAR VVPQ 220730Z 12011KT 9999 FEW017 31/24 Q1011 NOSIG,0,11,0,10000,0,0,0,
2026-03-22 06:30:00,METAR VVPQ 220630Z 11009KT 9999 SCT015 30/24 Q1011 NOSIG,0,9,0,10000,0,0,0,
2026-03-22 05:30:00,METAR VVPQ 220530Z 11010KT 9999 SCT015 30/24 Q1012 NOSIG,0,10,0,10000,0,0,0,
2026-03-22 05:00:00,METAR VVPQ 220500Z 11011KT 9999 SCT015 31/24 Q1012 NOSIG,0,11,0,10000,0,0,0,
2026-03-22 04:30:00,METAR VVPQ 220430Z 10010KT 9999 SCT015 31/24 Q1013 NOSIG,0,10,0,10000,0,0,0,
2026-03-22 04:00:00,METAR VVPQ 220400Z 10011KT 080V140 9999 SCT015 30/23 Q1013 NOSIG,0,11,0,10000,0,0,0,
2026-03-22 03:30:00,METAR VVPQ 220330Z 10011KT 9999 SCT015 30/23 Q1013 NOSIG,0,11,0,10000,0,0,0,
2026-03-22 03:00:00,METAR VVPQ 220300Z 11011KT 9999 SCT015 30/23 Q1013 NOSIG,0,11,0,10000,0,0,0,
2026-03-22 02:30:00,METAR VVPQ 220230Z 11011KT 9999 SCT015 30/23 Q1013 NOSIG,0,11,0,10000,0,0,0,
2026-03-22 02:00:00,METAR VVPQ 220200Z 11010KT 9999 SCT015 29/24 Q1013 NOSIG,0,10,0,10000,0,0,0,
2026-03-22 01:30:00,METAR VVPQ 220130Z 12008KT 9999 SCT015 29/24 Q1013 NOSIG,0,8,0,10000,0,0,0,
2026-03-22 01:00:00,METAR VVPQ 220100Z 11009KT 9999 SCT015 29/24 Q1013 NOSIG,0,9,0,10000,0,0,0,
2026-03-22 00:30:00,METAR VVPQ 220030Z 12009KT 9999 SCT015 28/24 Q1012 NOSIG,0,9,0,10000,0,0,0,
2026-03-22 00:00:00,METAR VVPQ 220000Z 12007KT 9999 FEW017 28/23 Q1012 NOSIG,0,7,0,10000,0,0,0,
2026-03-21 23:30:00,METAR VVPQ 212330Z 10008KT 9999 FEW017 27/23 Q1012 NOSIG,0,8,0,10000,0,0,0,
2026-03-21 23:00:00,METAR VVPQ 212300Z 12007KT 9999 FEW017 27/23 Q1011 NOSIG,0,7,0,10000,0,0,0,
2026-03-21 22:30:00,METAR VVPQ 212230Z 12007KT 9999 FEW017 27/23 Q1011 NOSIG,0,7,0,10000,0,0,0,
2026-03-21 21:30:00,METAR VVPQ 212130Z 12003KT 9999 FEW017 27/25 Q1010 NOSIG,0,3,0,10000,0,0,0,
2026-03-21 21:00:00,METAR VVPQ 212100Z 12003KT 9999 FEW017 27/25 Q1010 NOSIG,0,3,0,10000,0,0,0,
2026-03-21 20:30:00,METAR VVPQ 212030Z 10002KT 9999 FEW017 27/25 Q1010 NOSIG,0,2,0,10000,0,0,0,
2026-03-21 20:00:00,METAR VVPQ 212000Z 10002KT 9999 FEW017 27/25 Q1010 NOSIG,0,2,0,10000,0,0,0,
2026-03-21 19:30:00,METAR VVPQ 211930Z 10002KT 9999 FEW017 27/25 Q1010 NOSIG,0,2,0,10000,0,0,0,
2026-03-21 19:00:00,METAR VVPQ 211900Z 10002KT 9999 FEW017 27/25 Q1010 NOSIG,0,2,0,10000,0,0,0,
2026-03-21 18:30:00,METAR VVPQ 211830Z 12004KT 9999 FEW017 27/25 Q1011 NOSIG,0,4,0,10000,0,0,0,
2026-03-21 18:00:00,METAR VVPQ 211800Z 12004KT 9999 FEW017 27/25 Q1011 NOSIG,0,4,0,10000,0,0,0,
2026-03-21 17:30:00,METAR VVPQ 211730Z 13004KT 9999 FEW017 27/25 Q1011 NOSIG,0,4,0,10000,0,0,0,
2026-03-21 17:00:00,METAR VVPQ 211700Z 15004KT 9999 FEW017 27/25 Q1011 NOSIG,0,4,0,10000,0,0,0,
2026-03-21 16:30:00,METAR VVPQ 211630Z 13002KT 9999 FEW017 26/25 Q1012 NOSIG,0,2,0,10000,0,0,0,
2026-03-21 16:00:00,METAR VVPQ 211600Z 03002KT 9999 FEW017 26/25 Q1012 NOSIG,0,2,0,10000,0,0,0,
2026-03-21 15:30:00,METAR VVPQ 211530Z 09003KT 9999 FEW017 27/25 Q1012 NOSIG,0,3,0,10000,0,0,0,
2026-03-21 15:00:00,METAR VVPQ 211500Z 09002KT 9999 FEW017 27/25 Q1012 NOSIG,0,2,0,10000,0,0,0,
2026-03-21 14:30:00,METAR VVPQ 211430Z 09002KT 9999 FEW017 27/25 Q1011 NOSIG,0,2,0,10000,0,0,0,
2026-03-21 14:00:00,METAR VVPQ 211400Z 09002KT 9999 FEW017 27/25 Q1011 NOSIG,0,2,0,10000,0,0,0,
2026-03-21 13:30:00,METAR VVPQ 211330Z 09004KT 9999 FEW017 27/25 Q1011 NOSIG,0,4,0,10000,0,0,0,
2026-03-21 13:00:00,METAR VVPQ 211300Z 10005KT 9999 FEW017 27/25 Q1011 NOSIG,0,5,0,10000,0,0,0,
2026-03-21 12:30:00,METAR VVPQ 211230Z 13003KT 9999 FEW017 28/25 Q1011 NOSIG,0,3,0,10000,0,0,0,
2026-03-21 12:00:00,METAR VVPQ 211200Z 12002KT 9999 FEW017 28/25 Q1010 NOSIG,0,2,0,10000,0,0,0,
2026-03-21 11:30:00,METAR VVPQ 211130Z 12005KT 9999 FEW017 28/24 Q1010 NOSIG,0,5,0,10000,0,0,0,
2026-03-21 11:00:00,METAR VVPQ 211100Z 13006KT 9999 FEW017 29/24 Q1009 NOSIG,0,6,0,10000,0,0,0,
2026-03-21 10:30:00,METAR VVPQ 211030Z 13007KT 9999 FEW017 30/24 Q1009 NOSIG,0,7,0,10000,0,0,0,
2026-03-21 10:00:00,METAR VVPQ 211000Z 12009KT 9999 FEW017 30/24 Q1009 NOSIG,0,9,0,10000,0,0,0,
2026-03-21 09:30:00,METAR VVPQ 210930Z 13010KT 9999 FEW017 31/24 Q1009 NOSIG,0,10,0,10000,0,0,0,
2026-03-21 09:00:00,METAR VVPQ 210900Z 13009KT 9999 FEW017 31/24 Q1009 NOSIG,0,9,0,10000,0,0,0,
2026-03-21 08:30:00,METAR VVPQ 210830Z 12008KT 9999 FEW017 31/24 Q1009 NOSIG,0,8,0,10000,0,0,0,
2026-03-21 08:00:00,METAR VVPQ 210800Z 12008KT 9999 FEW017 31/24 Q1010 NOSIG,0,8,0,10000,0,0,0,
2026-03-21 07:30:00,METAR VVPQ 210730Z 10009KT 9999 FEW017 31/24 Q1010 NOSIG,0,9,0,10000,0,0,0,
2026-03-21 07:00:00,METAR VVPQ 210700Z 12011KT 9999 FEW017 31/24 Q1011 NOSIG,0,11,0,10000,0,0,0,
2026-03-21 06:30:00,METAR VVPQ 210630Z 10010KT 9999 SCT015 31/23 Q1011 NOSIG,0,10,0,10000,0,0,0,
2026-03-21 06:00:00,METAR VVPQ 210600Z 07010KT 9999 SCT015 31/24 Q1012 NOSIG,0,10,0,10000,0,0,0,
2026-03-21 05:30:00,METAR VVPQ 210530Z 08010KT 9999 SCT015 30/25 Q1012 NOSIG,0,10,0,10000,0,0,0,
2026-03-21 04:30:00,METAR VVPQ 210430Z 07011KT 9999 SCT015 30/24 Q1013 NOSIG,0,11,0,10000,0,0,0,
2026-03-21 04:00:00,METAR VVPQ 210400Z 09011KT 9999 SCT015 31/24 Q1013 NOSIG,0,11,0,10000,0,0,0,
2026-03-21 03:30:00,METAR VVPQ 210330Z 08013KT 9999 SCT015 30/24 Q1014 NOSIG,0,13,0,10000,0,0,0,
2026-03-21 03:00:00,METAR VVPQ 210300Z 10010KT 9999 SCT015 30/24 Q1014 NOSIG,0,10,0,10000,0,0,0,
2026-03-21 02:30:00,METAR VVPQ 210230Z 11011KT 9999 SCT015 29/25 Q1014 NOSIG,0,11,0,10000,0,0,0,
2026-03-21 02:00:00,METAR VVPQ 210200Z 11011KT 9999 SCT015 28/25 Q1013 NOSIG,0,11,0,10000,0,0,0,
2026-03-21 01:30:00,METAR VVPQ 210130Z 11011KT 9999 SCT015 28/25 Q1013 NOSIG,0,11,0,10000,0,0,0,
2026-03-21 01:00:00,METAR VVPQ 210100Z 11006KT 9999 SCT015 28/25 Q1013 NOSIG,0,6,0,10000,0,0,0,
2026-03-21 00:30:00,METAR VVPQ 210030Z 06002KT 9999 SCT015 27/25 Q1012 NOSIG,0,2,0,10000,0,0,0,
2026-03-21 00:00:00,METAR VVPQ 210000Z 08004KT 9999 SCT015 25/24 Q1012 NOSIG,0,4,0,10000,0,0,0,
2026-03-20 23:30:00,METAR VVPQ 202330Z 09002KT 9999 SCT015 24/23 Q1011 NOSIG,0,2,0,10000,0,0,0,
2026-03-20 23:00:00,METAR VVPQ 202300Z 04003KT 9999 SCT015 24/23 Q1011 NOSIG,0,3,0,10000,0,0,0,
2026-03-20 22:30:00,METAR VVPQ 202230Z VRB02KT 9999 FEW017 24/23 Q1011 NOSIG,0,2,0,10000,0,0,0,
2026-03-20 21:30:00,METAR VVPQ 202130Z 04002KT 9999 FEW017 24/23 Q1011 NOSIG,0,2,0,10000,0,0,0,
2026-03-20 21:00:00,METAR VVPQ 202100Z 07001KT 9999 FEW017 24/23 Q1011 NOSIG,0,1,0,10000,0,0,0,
2026-03-20 20:30:00,METAR VVPQ 202030Z VRB01KT 9999 FEW017 24/23 Q1011 NOSIG,0,1,0,10000,0,0,0,
2026-03-20 19:30:00,METAR VVPQ 201930Z VRB02KT 9999 FEW017 24/23 Q1011 NOSIG,0,2,0,10000,0,0,0,
2026-03-20 18:30:00,METAR VVPQ 201830Z 06002KT 9999 FEW017 24/23 Q1012 NOSIG,0,2,0,10000,0,0,0,
2026-03-20 18:00:00,METAR VVPQ 201800Z 07002KT 9999 FEW017 24/23 Q1013 NOSIG,0,2,0,10000,0,0,0,
2026-03-20 17:30:00,METAR VVPQ 201730Z 05002KT 9999 FEW017 24/24 Q1013 NOSIG,0,2,0,10000,0,0,0,
2026-03-20 16:30:00,METAR VVPQ 201630Z VRB01KT 9999 FEW017 25/24 Q1013 NOSIG,0,1,0,10000,0,0,0,
2026-03-20 16:00:00,METAR VVPQ 201600Z 04002KT 9999 FEW017 25/24 Q1013 NOSIG,0,2,0,10000,0,0,0,
2026-03-20 15:30:00,METAR VVPQ 201530Z 05002KT 9999 FEW017 25/24 Q1013 NOSIG,0,2,0,10000,0,0,0,
2026-03-20 15:00:00,METAR VVPQ 201500Z 05002KT 9999 FEW017 26/24 Q1013 NOSIG,0,2,0,10000,0,0,0,
2026-03-20 14:30:00,METAR VVPQ 201430Z 08002KT 9999 FEW017 26/24 Q1013 NOSIG,0,2,0,10000,0,0,0,
2026-03-20 14:00:00,METAR VVPQ 201400Z 06002KT CAVOK 25/24 Q1012 NOSIG,1,0,0,9999,0,0,0,
2026-03-20 13:30:00,METAR VVPQ 201330Z 01002KT CAVOK 26/24 Q1012 NOSIG,1,0,0,9999,0,0,0,
2026-03-20 12:30:00,METAR VVPQ 201230Z 02002KT CAVOK 26/24 Q1011 NOSIG,1,0,0,9999,0,0,0,
2026-03-20 11:30:00,METAR VVPQ 201130Z 14004KT CAVOK 28/23 Q1010 NOSIG,1,0,0,9999,0,0,0,
2026-03-20 10:30:00,METAR VVPQ 201030Z 15005KT CAVOK 29/22 Q1010 NOSIG,1,0,0,9999,0,0,0,
2026-03-20 10:00:00,METAR VVPQ 201000Z 14006KT CAVOK 30/22 Q1010 NOSIG,1,0,0,9999,0,0,0,
2026-03-20 09:30:00,METAR VVPQ 200930Z 13007KT 9999 FEW015 30/22 Q1010 NOSIG,0,7,0,10000,0,0,0,
2026-03-20 09:00:00,METAR VVPQ 200900Z 12008KT 9999 FEW015 31/24 Q1009 NOSIG,0,8,0,10000,0,0,0,
2026-03-20 08:30:00,METAR VVPQ 200830Z 12009KT 9999 FEW015 31/24 Q1010 NOSIG,0,9,0,10000,0,0,0,
2026-03-20 08:00:00,METAR VVPQ 200800Z 12007KT 9999 FEW015 31/23 Q1010 NOSIG,0,7,0,10000,0,0,0,
2026-03-20 07:30:00,METAR VVPQ 200730Z 10006KT 9999 FEW015 31/23 Q1010 NOSIG,0,6,0,10000,0,0,0,
2026-03-20 06:30:00,METAR VVPQ 200630Z 11008KT 9999 SCT015 31/23 Q1011 NOSIG,0,8,0,10000,0,0,0,
2026-03-20 06:00:00,METAR VVPQ 200600Z 12010KT 9999 SCT015 30/24 Q1012 NOSIG,0,10,0,10000,0,0,0,
2026-03-20 05:30:00,METAR VVPQ 200530Z 11009KT 9999 SCT015 30/23 Q1013 NOSIG,0,9,0,10000,0,0,0,
2026-03-20 05:00:00,METAR VVPQ 200500Z 11009KT 9999 SCT015 30/23 Q1013 NOSIG,0,9,0,10000,0,0,0,
2026-03-20 04:30:00,METAR VVPQ 200430Z 12010KT 9999 SCT015 31/23 Q1013 NOSIG,0,10,0,10000,0,0,0,
2026-03-20 04:00:00,METAR VVPQ 200400Z 12010KT 9999 SCT015 30/24 Q1014 NOSIG,0,10,0,10000,0,0,0,
2026-03-20 03:30:00,METAR VVPQ 200330Z 12012KT 9999 SCT015 30/23 Q1014 NOSIG,0,12,0,10000,0,0,0,
2026-03-20 03:00:00,METAR VVPQ 200300Z 12010KT 9999 SCT015 29/24 Q1014 NOSIG,0,10,0,10000,0,0,0,
2026-03-20 02:30:00,METAR VVPQ 200230Z 11009KT 9999 SCT015 29/24 Q1014 NOSIG,0,9,0,10000,0,0,0,
2026-03-20 02:00:00,METAR VVPQ 200200Z 12009KT 9999 SCT015 29/24 Q1014 NOSIG,0,9,0,10000,0,0,0,
2026-03-20 01:30:00,METAR VVPQ 200130Z 12008KT 9999 SCT015 28/24 Q1013 NOSIG,0,8,0,10000,0,0,0,
2026-03-20 01:00:00,METAR VVPQ 200100Z 12007KT 9999 SCT015 27/24 Q1013 NOSIG,0,7,0,10000,0,0,0,
2026-03-20 00:30:00,METAR VVPQ 200030Z 12002KT 9999 SCT015 27/24 Q1012 NOSIG,0,2,0,10000,0,0,0,
2026-03-20 00:00:00,METAR VVPQ 200000Z 08002KT 9999 SCT015 27/24 Q1012 NOSIG,0,2,0,10000,0,0,0,
2026-03-19 23:30:00,METAR VVPQ 192330Z 08002KT 9999 FEW015 25/24 Q1012 NOSIG,0,2,0,10000,0,0,0,
2026-03-19 23:00:00,METAR VVPQ 192300Z 14002KT 9000 FEW015 24/24 Q1011 NOSIG,0,2,0,9000,0,0,0,
2026-03-19 22:30:00,METAR VVPQ 192230Z 05002KT 9000 FEW015 24/24 Q1011 NOSIG,0,2,0,9000,0,0,0,
2026-03-19 22:00:00,METAR VVPQ 192200Z 06003KT 9000 FEW015 24/24 Q1010 NOSIG,0,3,0,9000,0,0,0,
2026-03-19 21:30:00,METAR VVPQ 192130Z 05003KT 9000 FEW015 24/24 Q1010 NOSIG,0,3,0,9000,0,0,0,
2026-03-19 21:00:00,METAR VVPQ 192100Z 10003KT 9000 FEW015 24/24 Q1010 NOSIG,0,3,0,9000,0,0,0,
2026-03-19 20:30:00,METAR VVPQ 192030Z 10003KT CAVOK 24/24 Q1010 NOSIG,1,0,0,9999,0,0,0,
2026-03-19 20:00:00,METAR VVPQ 192000Z 11003KT CAVOK 24/24 Q1011 NOSIG,1,0,0,9999,0,0,0,
2026-03-19 19:30:00,METAR VVPQ 191930Z 08003KT CAVOK 24/24 Q1011 NOSIG,1,0,0,9999,0,0,0,
2026-03-19 18:30:00,METAR VVPQ 191830Z 06002KT CAVOK 25/24 Q1011 NOSIG,1,0,0,9999,0,0,0,
2026-03-19 18:00:00,METAR VVPQ 191800Z 11002KT CAVOK 25/24 Q1012 NOSIG,1,0,0,9999,0,0,0,
2026-03-19 17:30:00,METAR VVPQ 191730Z 06003KT CAVOK 25/24 Q1012 NOSIG,1,0,0,9999,0,0,0,
2026-03-19 17:00:00,METAR VVPQ 191700Z 09003KT CAVOK 25/24 Q1012 NOSIG,1,0,0,9999,0,0,0,
2026-03-19 16:30:00,METAR VVPQ 191630Z 03003KT CAVOK 25/24 Q1012 NOSIG,1,0,0,9999,0,0,0,
2026-03-19 16:00:00,METAR VVPQ 191600Z 06003KT CAVOK 25/24 Q1012 NOSIG,1,0,0,9999,0,0,0,
2026-03-19 15:30:00,METAR VVPQ 191530Z VRB02KT CAVOK 25/24 Q1012 NOSIG,1,0,0,9999,0,0,0,
2026-03-19 14:30:00,METAR VVPQ 191430Z 07003KT CAVOK 25/24 Q1011 NOSIG,1,0,0,9999,0,0,0,
2026-03-19 14:00:00,METAR VVPQ 191400Z 09002KT CAVOK 25/24 Q1011 NOSIG,1,0,0,9999,0,0,0,
2026-03-19 13:30:00,METAR VVPQ 191330Z VRB02KT CAVOK 25/24 Q1011 NOSIG,1,0,0,9999,0,0,0,
2026-03-19 13:00:00,METAR VVPQ 191300Z VRB02KT CAVOK 26/24 Q1011 NOSIG,1,0,0,9999,0,0,0,
2026-03-19 12:30:00,METAR VVPQ 191230Z VRB02KT CAVOK 27/24 Q1010 NOSIG,1,0,0,9999,0,0,0,
2026-03-19 12:00:00,METAR VVPQ 191200Z 15003KT CAVOK 27/23 Q1010 NOSIG,1,0,0,9999,0,0,0,
2026-03-19 11:30:00,METAR VVPQ 191130Z 16004KT CAVOK 28/23 Q1010 NOSIG,1,0,0,9999,0,0,0,
2026-03-19 11:00:00,METAR VVPQ 191100Z 14005KT CAVOK 28/22 Q1009 NOSIG,1,0,0,9999,0,0,0,
2026-03-19 10:30:00,METAR VVPQ 191030Z 14006KT CAVOK 29/22 Q1009 NOSIG,1,0,0,9999,0,0,0,
2026-03-19 10:00:00,METAR VVPQ 191000Z 14006KT 9999 FEW017 30/23 Q1009 NOSIG,0,6,0,10000,0,0,0,
2026-03-19 09:30:00,METAR VVPQ 190930Z 14007KT 9999 FEW017 30/23 Q1009 NOSIG,0,7,0,10000,0,0,0,
2026-03-19 09:00:00,METAR VVPQ 190900Z 15007KT 9999 FEW017 31/22 Q1010 NOSIG,0,7,0,10000,0,0,0,
2026-03-19 08:30:00,METAR VVPQ 190830Z 13007KT 9999 FEW017 31/23 Q1010 NOSIG,0,7,0,10000,0,0,0,
2026-03-19 08:00:00,METAR VVPQ 190800Z 13008KT 9999 SCT015 31/23 Q1010 NOSIG,0,8,0,10000,0,0,0,
2026-03-19 07:30:00,METAR VVPQ 190730Z 12008KT 9999 SCT015 30/23 Q1010 NOSIG,0,8,0,10000,0,0,0,
2026-03-19 07:00:00,METAR VVPQ 190700Z 10008KT 9999 SCT015 30/23 Q1011 NOSIG,0,8,0,10000,0,0,0,
2026-03-19 06:30:00,METAR VVPQ 190630Z 08007KT 9999 SCT015 31/23 Q1012 NOSIG,0,7,0,10000,0,0,0,
2026-03-19 06:00:00,METAR VVPQ 190600Z 11011KT 9999 SCT015 31/23 Q1012 NOSIG,0,11,0,10000,0,0,0,
2026-03-19 05:30:00,METAR VVPQ 190530Z 08010KT 9999 SCT015 31/23 Q1012 NOSIG,0,10,0,10000,0,0,0,
2026-03-19 05:00:00,METAR VVPQ 190500Z 10012KT 9999 SCT015 31/23 Q1013 NOSIG,0,12,0,10000,0,0,0,
2026-03-19 04:30:00,METAR VVPQ 190430Z 10012KT 9999 SCT015 31/23 Q1013 NOSIG,0,12,0,10000,0,0,0,
2026-03-19 04:00:00,METAR VVPQ 190400Z 09011KT 9999 SCT015 30/24 Q1014 NOSIG,0,11,0,10000,0,0,0,
2026-03-19 03:30:00,METAR VVPQ 190330Z 12011KT 9999 SCT015 30/24 Q1014 NOSIG,0,11,0,10000,0,0,0,
2026-03-19 03:00:00,METAR VVPQ 190300Z 12009KT 9999 SCT015 29/25 Q1014 NOSIG,0,9,0,10000,0,0,0,
2026-03-19 02:30:00,METAR VVPQ 190230Z 12010KT 9999 SCT015 29/25 Q1014 NOSIG,0,10,0,10000,0,0,0,
2026-03-19 02:00:00,METAR VVPQ 190200Z 11010KT 9999 SCT015 29/25 Q1014 NOSIG,0,10,0,10000,0,0,0,
2026-03-19 01:30:00,METAR VVPQ 190130Z 11010KT 9999 SCT015 29/25 Q1014 NOSIG,0,10,0,10000,0,0,0,
2026-03-19 01:00:00,METAR VVPQ 190100Z 11007KT 9999 SCT015 28/24 Q1014 NOSIG,0,7,0,10000,0,0,0,
2026-03-19 00:30:00,METAR VVPQ 190030Z VRB01KT 9999 SCT015 26/24 Q1013 NOSIG,0,1,0,10000,0,0,0,
2026-03-19 00:00:00,METAR VVPQ 190000Z VRB02KT 9999 SCT015 26/24 Q1013 NOSIG,0,2,0,10000,0,0,0,
2026-03-18 23:30:00,METAR VVPQ 182330Z VRB02KT 9999 FEW015 26/24 Q1012 NOSIG,0,2,0,10000,0,0,0,
2026-03-18 22:30:00,METAR VVPQ 182230Z 13007KT 9999 FEW015 26/24 Q1011 NOSIG,0,7,0,10000,0,0,0,
2026-03-18 22:00:00,METAR VVPQ 182200Z 09003KT 9999 FEW015 25/24 Q1011 NOSIG,0,3,0,10000,0,0,0,
2026-03-18 21:30:00,METAR VVPQ 182130Z 06002KT 9999 FEW015 25/24 Q1011 NOSIG,0,2,0,10000,0,0,0,
2026-03-18 20:30:00,METAR VVPQ 182030Z 07002KT 9999 FEW015 25/24 Q1011 NOSIG,0,2,0,10000,0,0,0,
2026-03-18 20:00:00,METAR VVPQ 182000Z 07002KT 9999 FEW015 25/24 Q1011 NOSIG,0,2,0,10000,0,0,0,
2026-03-18 19:30:00,METAR VVPQ 181930Z 16006KT 9999 FEW015 25/24 Q1011 NOSIG,0,6,0,10000,0,0,0,
2026-03-18 19:00:00,METAR VVPQ 181900Z 09004KT 9999 FEW015 25/24 Q1011 NOSIG,0,4,0,10000,0,0,0,
2026-03-18 18:30:00,METAR VVPQ 181830Z VRB02KT 9999 FEW015 25/24 Q1012 NOSIG,0,2,0,10000,0,0,0,
2026-03-18 18:00:00,METAR VVPQ 181800Z VRB01KT 9999 FEW015 24/24 Q1012 NOSIG,0,1,0,10000,0,0,0,
2026-03-18 17:30:00,METAR VVPQ 181730Z VRB01KT 9999 FEW015 25/24 Q1013 NOSIG,0,1,0,10000,0,0,0,
2026-03-18 17:00:00,METAR VVPQ 181700Z VRB02KT 9999 FEW015 25/24 Q1013 NOSIG,0,2,0,10000,0,0,0,
2026-03-18 16:30:00,METAR VVPQ 181630Z VRB02KT 9999 FEW015 25/24 Q1013 NOSIG,0,2,0,10000,0,0,0,
2026-03-18 15:30:00,METAR VVPQ 181530Z 01001KT CAVOK 25/24 Q1013 NOSIG,1,0,0,9999,0,0,0,
2026-03-18 15:00:00,METAR VVPQ 181500Z 01001KT CAVOK 25/25 Q1012 NOSIG,1,0,0,9999,0,0,0,
2026-03-18 14:30:00,METAR VVPQ 181430Z 05002KT CAVOK 25/25 Q1012 NOSIG,1,0,0,9999,0,0,0,
2026-03-18 14:00:00,METAR VVPQ 181400Z 06002KT CAVOK 26/25 Q1012 NOSIG,1,0,0,9999,0,0,0,
2026-03-18 13:30:00,METAR VVPQ 181330Z 06003KT CAVOK 26/24 Q1011 NOSIG,1,0,0,9999,0,0,0,
2026-03-18 13:00:00,METAR VVPQ 181300Z 07001KT CAVOK 26/24 Q1011 NOSIG,1,0,0,9999,0,0,0,
2026-03-18 12:30:00,METAR VVPQ 181230Z 01002KT CAVOK 26/25 Q1011 NOSIG,1,0,0,9999,0,0,0,
2026-03-18 12:00:00,METAR VVPQ 181200Z 16003KT CAVOK 27/24 Q1011 NOSIG,1,0,0,9999,0,0,0,
2026-03-18 11:30:00,METAR VVPQ 181130Z 16003KT CAVOK 28/24 Q1011 NOSIG,1,0,0,9999,0,0,0,
2026-03-18 10:30:00,METAR VVPQ 181030Z 15004KT 9999 FEW015 29/24 Q1010 NOSIG,0,4,0,10000,0,0,0,
2026-03-18 10:00:00,METAR VVPQ 181000Z 13004KT 9999 FEW015 30/23 Q1010 NOSIG,0,4,0,10000,0,0,0,
2026-03-18 09:30:00,METAR VVPQ 180930Z 13007KT 9999 FEW015 31/23 Q1010 NOSIG,0,7,0,10000,0,0,0,
2026-03-18 09:00:00,METAR VVPQ 180900Z 14007KT 9999 FEW015 31/24 Q1010 NOSIG,0,7,0,10000,0,0,0,
2026-03-18 08:30:00,METAR VVPQ 180830Z 14007KT 9999 FEW015 30/24 Q1010 NOSIG,0,7,0,10000,0,0,0,
2026-03-18 08:00:00,METAR VVPQ 180800Z 11005KT 9999 FEW015 31/24 Q1010 NOSIG,0,5,0,10000,0,0,0,
2026-03-18 07:30:00,METAR VVPQ 180730Z 11005KT 9999 SCT015 31/23 Q1011 NOSIG,0,5,0,10000,0,0,0,
2026-03-18 07:00:00,METAR VVPQ 180700Z 09008KT 9999 SCT015 30/24 Q1011 NOSIG,0,8,0,10000,0,0,0,
2026-03-18 06:30:00,METAR VVPQ 180630Z 11008KT 9999 SCT015 30/24 Q1012 NOSIG,0,8,0,10000,0,0,0,
2026-03-18 06:00:00,METAR VVPQ 180600Z 11008KT 9999 SCT015 30/24 Q1013 NOSIG,0,8,0,10000,0,0,0,
2026-03-18 05:30:00,METAR VVPQ 180530Z 11009KT 9999 SCT015 30/24 Q1013 NOSIG,0,9,0,10000,0,0,0,
2026-03-18 05:00:00,METAR VVPQ 180500Z 11009KT 9999 SCT015 30/24 Q1014 NOSIG,0,9,0,10000,0,0,0,
2026-03-18 04:30:00,METAR VVPQ 180430Z 11009KT 9999 SCT015 30/24 Q1014 NOSIG,0,9,0,10000,0,0,0,
2026-03-18 04:00:00,METAR VVPQ 180400Z 10011KT 9999 SCT015 30/24 Q1014 NOSIG,0,11,0,10000,0,0,0,
2026-03-18 03:30:00,METAR VVPQ 180330Z 10011KT 9999 SCT015 29/24 Q1015 NOSIG,0,11,0,10000,0,0,0,
2026-03-18 03:00:00,METAR VVPQ 180300Z 09010KT 9999 SCT015 29/24 Q1015 NOSIG,0,10,0,10000,0,0,0,
2026-03-18 02:30:00,METAR VVPQ 180230Z 11011KT 9999 SCT015 28/24 Q1014 NOSIG,0,11,0,10000,0,0,0,
2026-03-18 02:00:00,METAR VVPQ 180200Z 11012KT 9999 SCT015 28/24 Q1014 NOSIG,0,12,0,10000,0,0,0,
2026-03-18 01:30:00,METAR VVPQ 180130Z 11010KT 9999 SCT015 28/24 Q1014 NOSIG,0,10,0,10000,0,0,0,
2026-03-18 01:00:00,METAR VVPQ 180100Z 10009KT 9999 SCT015 27/24 Q1014 NOSIG,0,9,0,10000,0,0,0,
2026-03-18 00:30:00,METAR VVPQ 180030Z 11008KT 9999 SCT015 27/24 Q1013 NOSIG,0,8,0,10000,0,0,0,
2026-03-18 00:00:00,METAR VVPQ 180000Z 11007KT 9999 SCT015 27/24 Q1013 NOSIG,0,7,0,10000,0,0,0,
2026-03-17 23:30:00,METAR VVPQ 172330Z 10006KT 9999 SCT015 26/24 Q1012 NOSIG,0,6,0,10000,0,0,0,
2026-03-17 23:00:00,METAR VVPQ 172300Z 10008KT 9999 FEW015 26/24 Q1012 NOSIG,0,8,0,10000,0,0,0,
2026-03-17 22:30:00,METAR VVPQ 172230Z 11009KT 9999 FEW015 26/24 Q1011 NOSIG,0,9,0,10000,0,0,0,
2026-03-17 22:00:00,METAR VVPQ 172200Z 12008KT 9999 FEW015 26/24 Q1011 NOSIG,0,8,0,10000,0,0,0,
2026-03-17 21:30:00,METAR VVPQ 172130Z 11007KT 9999 FEW015 26/24 Q1011 NOSIG,0,7,0,10000,0,0,0,
2026-03-17 21:00:00,METAR VVPQ 172100Z 12008KT 9999 FEW015 26/24 Q1011 NOSIG,0,8,0,10000,0,0,0,
2026-03-17 20:30:00,METAR VVPQ 172030Z 12008KT 9999 FEW015 26/24 Q1011 NOSIG,0,8,0,10000,0,0,0,
2026-03-17 20:00:00,METAR VVPQ 172000Z 12007KT 9999 FEW015 26/25 Q1011 NOSIG,0,7,0,10000,0,0,0,
2026-03-17 19:30:00,METAR VVPQ 171930Z 12005KT 9999 FEW015 26/25 Q1011 NOSIG,0,5,0,10000,0,0,0,
2026-03-17 19:00:00,METAR VVPQ 171900Z 13005KT 9999 FEW015 26/25 Q1011 NOSIG,0,5,0,10000,0,0,0,
2026-03-17 18:30:00,METAR VVPQ 171830Z 13006KT 9999 FEW015 26/25 Q1011 NOSIG,0,6,0,10000,0,0,0,
2026-03-17 18:00:00,METAR VVPQ 171800Z 12005KT 9999 FEW015 26/25 Q1012 NOSIG,0,5,0,10000,0,0,0,
2026-03-17 17:30:00,METAR VVPQ 171730Z 11004KT 9999 FEW015 26/25 Q1012 NOSIG,0,4,0,10000,0,0,0,
2026-03-17 17:00:00,METAR VVPQ 171700Z 12004KT 9999 FEW015 26/25 Q1012 NOSIG,0,4,0,10000,0,0,0,
2026-03-17 16:30:00,METAR VVPQ 171630Z VRB02KT CAVOK 26/24 Q1013 NOSIG,1,0,0,9999,0,0,0,
2026-03-17 16:00:00,METAR VVPQ 171600Z VRB02KT CAVOK 26/24 Q1013 NOSIG,1,0,0,9999,0,0,0,
2026-03-17 15:30:00,METAR VVPQ 171530Z 04002KT CAVOK 26/24 Q1013 NOSIG,1,0,0,9999,0,0,0,
2026-03-17 15:00:00,METAR VVPQ 171500Z VRB02KT CAVOK 26/25 Q1013 NOSIG,1,0,0,9999,0,0,0,
2026-03-17 14:30:00,METAR VVPQ 171430Z 07002KT CAVOK 26/25 Q1012 NOSIG,1,0,0,9999,0,0,0,
2026-03-17 14:00:00,METAR VVPQ 171400Z VRB01KT CAVOK 26/24 Q1012 NOSIG,1,0,0,9999,0,0,0,
2026-03-17 13:30:00,METAR VVPQ 171330Z VRB03KT CAVOK 26/24 Q1012 NOSIG,1,0,0,9999,0,0,0,
2026-03-17 13:00:00,METAR VVPQ 171300Z 13003KT CAVOK 26/24 Q1011 NOSIG,1,0,0,9999,0,0,0,
2026-03-17 12:30:00,METAR VVPQ 171230Z 17004KT CAVOK 27/24 Q1011 NOSIG,1,0,0,9999,0,0,0,
2026-03-17 12:00:00,METAR VVPQ 171200Z 17004KT CAVOK 28/24 Q1010 NOSIG,1,0,0,9999,0,0,0,
2026-03-17 11:30:00,METAR VVPQ 171130Z 17004KT CAVOK 28/24 Q1010 NOSIG,1,0,0,9999,0,0,0,
2026-03-17 11:00:00,METAR VVPQ 171100Z 19006KT CAVOK 30/23 Q1010 NOSIG,1,0,0,9999,0,0,0,
2026-03-17 10:30:00,METAR VVPQ 171030Z 19007KT CAVOK 30/23 Q1010 NOSIG,1,0,0,9999,0,0,0,
2026-03-17 10:00:00,METAR VVPQ 171000Z 15005KT CAVOK 30/23 Q1010 NOSIG,1,0,0,9999,0,0,0,
2026-03-17 09:30:00,METAR VVPQ 170930Z 14006KT CAVOK 30/24 Q1009 NOSIG,1,0,0,9999,0,0,0,
2026-03-17 09:00:00,METAR VVPQ 170900Z 14008KT CAVOK 31/24 Q1009 NOSIG,1,0,0,9999,0,0,0,
2026-03-17 08:30:00,METAR VVPQ 170830Z 13010KT CAVOK 31/24 Q1010 NOSIG,1,0,0,9999,0,0,0,
2026-03-17 08:00:00,METAR VVPQ 170800Z 13010KT CAVOK 31/24 Q1010 NOSIG,1,0,0,9999,0,0,0,
2026-03-17 07:30:00,METAR VVPQ 170730Z 12010KT CAVOK 31/24 Q1010 NOSIG,1,0,0,9999,0,0,0,
2026-03-17 07:00:00,METAR VVPQ 170700Z 12011KT 9999 FEW017 31/24 Q1011 NOSIG,0,11,0,10000,0,0,0,
2026-03-17 06:30:00,METAR VVPQ 170630Z 11010KT 9999 SCT015 30/24 Q1012 NOSIG,0,10,0,10000,0,0,0,
2026-03-17 06:00:00,METAR VVPQ 170600Z 11010KT 9999 SCT015 30/23 Q1012 NOSIG,0,10,0,10000,0,0,0,
2026-03-17 05:30:00,METAR VVPQ 170530Z 11010KT 9999 SCT015 30/24 Q1013 NOSIG,0,10,0,10000,0,0,0,
2026-03-17 05:00:00,METAR VVPQ 170500Z 11011KT 9999 SCT015 30/24 Q1013 NOSIG,0,11,0,10000,0,0,0,
2026-03-17 04:30:00,METAR VVPQ 170430Z 08010KT 9999 SCT015 29/24 Q1013 NOSIG,0,10,0,10000,0,0,0,
2026-03-17 04:00:00,METAR VVPQ 170400Z 11015KT 9999 SCT015 30/23 Q1014 NOSIG,0,15,0,10000,0,0,0,
2026-03-17 03:30:00,METAR VVPQ 170330Z 12012KT 9999 SCT015 30/23 Q1014 NOSIG,0,12,0,10000,0,0,0,
2026-03-17 03:00:00,METAR VVPQ 170300Z 12012KT 9999 SCT015 29/24 Q1014 NOSIG,0,12,0,10000,0,0,0,
2026-03-17 02:30:00,METAR VVPQ 170230Z 10009KT 9999 SCT015 28/23 Q1014 NOSIG,0,9,0,10000,0,0,0,
2026-03-17 02:00:00,METAR VVPQ 170200Z 09010KT 9999 SCT015 28/23 Q1014 NOSIG,0,10,0,10000,0,0,0,
2026-03-17 01:30:00,METAR VVPQ 170130Z 11010KT 9999 SCT015 28/23 Q1013 NOSIG,0,10,0,10000,0,0,0,
2026-03-17 01:00:00,METAR VVPQ 170100Z 11010KT 9999 SCT015 28/23 Q1013 NOSIG,0,10,0,10000,0,0,0,
2026-03-17 00:30:00,METAR VVPQ 170030Z 10009KT 9999 SCT015 27/23 Q1012 NOSIG,0,9,0,10000,0,0,0,
2026-03-17 00:00:00,METAR VVPQ 170000Z 10010KT 9999 SCT015 27/23 Q1012 NOSIG,0,10,0,10000,0,0,0,
2026-03-16 23:30:00,METAR VVPQ 162330Z 11010KT 9999 SCT015 27/23 Q1012 NOSIG,0,10,0,10000,0,0,0,
2026-03-16 23:00:00,METAR VVPQ 162300Z 11011KT 9999 FEW015 26/23 Q1011 NOSIG,0,11,0,10000,0,0,0,
2026-03-16 22:30:00,METAR VVPQ 162230Z 10010KT 9999 FEW015 27/24 Q1011 NOSIG,0,10,0,10000,0,0,0,
2026-03-16 22:00:00,METAR VVPQ 162200Z 11009KT 9999 FEW015 27/24 Q1011 NOSIG,0,9,0,10000,0,0,0,
2026-03-16 21:30:00,METAR VVPQ 162130Z 11010KT 9999 FEW015 27/24 Q1011 NOSIG,0,10,0,10000,0,0,0,
2026-03-16 21:00:00,METAR VVPQ 162100Z 12008KT 9999 FEW015 27/24 Q1010 NOSIG,0,8,0,10000,0,0,0,
2026-03-16 20:30:00,METAR VVPQ 162030Z 12009KT 9999 FEW015 27/24 Q1011 NOSIG,0,9,0,10000,0,0,0,
2026-03-16 20:00:00,METAR VVPQ 162000Z 12009KT 9999 FEW015 27/24 Q1011 NOSIG,0,9,0,10000,0,0,0,
2026-03-16 19:30:00,METAR VVPQ 161930Z 12007KT 9999 FEW015 27/24 Q1011 NOSIG,0,7,0,10000,0,0,0,
2026-03-16 19:00:00,METAR VVPQ 161900Z 12008KT 9999 FEW015 27/24 Q1011 NOSIG,0,8,0,10000,0,0,0,
2026-03-16 18:30:00,METAR VVPQ 161830Z 12008KT 9999 FEW015 27/24 Q1011 NOSIG,0,8,0,10000,0,0,0,
2026-03-16 18:00:00,METAR VVPQ 161800Z 12008KT 9999 FEW015 27/24 Q1012 NOSIG,0,8,0,10000,0,0,0,
2026-03-16 17:30:00,METAR VVPQ 161730Z 11007KT 9999 FEW015 27/24 Q1012 NOSIG,0,7,0,10000,0,0,0,
2026-03-16 17:00:00,METAR VVPQ 161700Z 12011KT 9999 FEW015 27/25 Q1012 NOSIG,0,11,0,10000,0,0,0,
2026-03-16 16:30:00,METAR VVPQ 161630Z 12009KT 9999 FEW015 28/25 Q1013 NOSIG,0,9,0,10000,0,0,0,
2026-03-16 16:00:00,METAR VVPQ 161600Z 14007KT 9999 FEW015 28/25 Q1012 NOSIG,0,7,0,10000,0,0,0,
2026-03-16 15:30:00,METAR VVPQ 161530Z 13006KT CAVOK 28/25 Q1012 NOSIG,1,0,0,9999,0,0,0,
2026-03-16 15:00:00,METAR VVPQ 161500Z 13004KT CAVOK 28/24 Q1012 NOSIG,1,0,0,9999,0,0,0,
2026-03-16 14:30:00,METAR VVPQ 161430Z VRB02KT CAVOK 27/24 Q1012 NOSIG,1,0,0,9999,0,0,0,
2026-03-16 14:00:00,METAR VVPQ 161400Z 15005KT CAVOK 27/24 Q1011 NOSIG,1,0,0,9999,0,0,0,
2026-03-16 13:30:00,METAR VVPQ 161330Z 15005KT CAVOK 27/24 Q1011 NOSIG,1,0,0,9999,0,0,0,
2026-03-16 13:00:00,METAR VVPQ 161300Z 14003KT CAVOK 28/24 Q1011 NOSIG,1,0,0,9999,0,0,0,
2026-03-16 12:30:00,METAR VVPQ 161230Z 13002KT CAVOK 28/24 Q1011 NOSIG,1,0,0,9999,0,0,0,
2026-03-16 12:00:00,METAR VVPQ 161200Z 14003KT CAVOK 28/24 Q1010 NOSIG,1,0,0,9999,0,0,0,
2026-03-16 11:30:00,METAR VVPQ 161130Z 14004KT CAVOK 29/24 Q1010 NOSIG,1,0,0,9999,0,0,0,
2026-03-16 11:00:00,METAR VVPQ 161100Z 15005KT CAVOK 29/24 Q1009 NOSIG,1,0,0,9999,0,0,0,
2026-03-16 10:30:00,METAR VVPQ 161030Z 15007KT CAVOK 30/24 Q1009 NOSIG,1,0,0,9999,0,0,0,
2026-03-16 10:00:00,METAR VVPQ 161000Z 11009KT 9999 FEW015 30/24 Q1009 NOSIG,0,9,0,10000,0,0,0,
2026-03-16 09:30:00,METAR VVPQ 160930Z 12009KT 9999 FEW015 31/24 Q1009 NOSIG,0,9,0,10000,0,0,0,
2026-03-16 09:00:00,METAR VVPQ 160900Z 09011KT 9999 FEW015 31/24 Q1009 NOSIG,0,11,0,10000,0,0,0,
2026-03-16 08:30:00,METAR VVPQ 160830Z 13012KT 9999 FEW015 31/24 Q1010 NOSIG,0,12,0,10000,0,0,0,
2026-03-16 08:00:00,METAR VVPQ 160800Z 13010KT 9999 FEW015 31/24 Q1010 NOSIG,0,10,0,10000,0,0,0,
2026-03-16 07:30:00,METAR VVPQ 160730Z 11012KT 9999 SCT015 30/24 Q1010 NOSIG,0,12,0,10000,0,0,0,
2026-03-16 07:00:00,METAR VVPQ 160700Z 11011KT 9999 SCT015 31/24 Q1011 NOSIG,0,11,0,10000,0,0,0,
2026-03-16 06:30:00,METAR VVPQ 160630Z 11010KT 9999 SCT015 31/24 Q1011 NOSIG,0,10,0,10000,0,0,0,
2026-03-16 06:00:00,METAR VVPQ 160600Z 11010KT 9999 SCT015 30/24 Q1012 NOSIG,0,10,0,10000,0,0,0,
2026-03-16 05:30:00,METAR VVPQ 160530Z 10011KT 9999 SCT015 30/24 Q1012 NOSIG,0,11,0,10000,0,0,0,
2026-03-16 05:00:00,METAR VVPQ 160500Z 09010KT 9999 SCT015 31/24 Q1013 NOSIG,0,10,0,10000,0,0,0,
2026-03-16 04:30:00,METAR VVPQ 160430Z 08011KT 9999 SCT015 30/24 Q1013 NOSIG,0,11,0,10000,0,0,0,
2026-03-16 04:00:00,METAR VVPQ 160400Z 09010KT 9999 SCT015 SCT040 29/24 Q1014 NOSIG,0,10,0,10000,0,0,0,
2026-03-16 03:30:00,METAR VVPQ 160330Z 08012KT 9999 SCT015 SCT040 29/24 Q1014 NOSIG,0,12,0,10000,0,0,0,
2026-03-16 03:00:00,METAR VVPQ 160300Z 09011KT 9999 SCT015 SCT040 28/23 Q1014 NOSIG,0,11,0,10000,0,0,0,
2026-03-16 02:30:00,METAR VVPQ 160230Z 09013KT 9999 SCT015 SCT040 28/23 Q1014 NOSIG,0,13,0,10000,0,0,0,
2026-03-16 02:00:00,METAR VVPQ 160200Z 10012KT 9999 SCT015 SCT040 28/23 Q1014 NOSIG,0,12,0,10000,0,0,0,
2026-03-16 01:30:00,METAR VVPQ 160130Z 10011KT 9999 SCT015 SCT040 29/23 Q1013 NOSIG,0,11,0,10000,0,0,0,
2026-03-16 01:00:00,METAR VVPQ 160100Z 09011KT 9999 SCT015 SCT040 27/23 Q1013 NOSIG,0,11,0,10000,0,0,0,
2026-03-16 00:30:00,METAR VVPQ 160030Z 09008KT 9999 SCT015 SCT040 27/23 Q1013 NOSIG,0,8,0,10000,0,0,0,
2026-03-16 00:00:00,METAR VVPQ 160000Z 10009KT 9999 SCT015 27/23 Q1012 NOSIG,0,9,0,10000,0,0,0,
2026-03-15 23:30:00,METAR VVPQ 152330Z 11009KT 9999 SCT015 27/23 Q1012 NOSIG,0,9,0,10000,0,0,0,
2026-03-15 23:00:00,METAR VVPQ 152300Z 11007KT 9999 SCT015 26/23 Q1012 NOSIG,0,7,0,10000,0,0,0,
2026-03-15 22:30:00,METAR VVPQ 152230Z 11008KT 9999 SCT015 26/23 Q1011 NOSIG,0,8,0,10000,0,0,0,
2026-03-15 22:00:00,METAR VVPQ 152200Z 10008KT 9999 SCT015 26/23 Q1011 NOSIG,0,8,0,10000,0,0,0,
2026-03-15 21:30:00,METAR VVPQ 152130Z 11010KT 9999 SCT015 26/23 Q1011 NOSIG,0,10,0,10000,0,0,0,
2026-03-15 21:00:00,METAR VVPQ 152100Z 11007KT 9999 SCT015 26/24 Q1011 NOSIG,0,7,0,10000,0,0,0,
2026-03-15 20:30:00,METAR VVPQ 152030Z 11008KT 9999 SCT015 26/24 Q1011 NOSIG,0,8,0,10000,0,0,0,
2026-03-15 20:00:00,METAR VVPQ 152000Z 12008KT 9999 SCT015 26/24 Q1011 NOSIG,0,8,0,10000,0,0,0,
2026-03-15 19:30:00,METAR VVPQ 151930Z 10008KT 9999 SCT015 26/24 Q1011 NOSIG,0,8,0,10000,0,0,0,
2026-03-15 19:00:00,METAR VVPQ 151900Z 11008KT 9999 SCT015 26/24 Q1012 NOSIG,0,8,0,10000,0,0,0,
2026-03-15 18:30:00,METAR VVPQ 151830Z 12008KT 9999 SCT015 26/24 Q1012 NOSIG,0,8,0,10000,0,0,0,
2026-03-15 18:00:00,METAR VVPQ 151800Z 10005KT 9999 SCT015 26/24 Q1012 NOSIG,0,5,0,10000,0,0,0,
2026-03-15 17:30:00,METAR VVPQ 151730Z VRB03KT 9999 SCT015 FEW017CB 25/24 Q1013 NOSIG,0,3,0,10000,0,0,0,
2026-03-15 17:00:00,METAR VVPQ 151700Z 33007KT 9999 SCT015 FEW017CB 26/25 Q1013 NOSIG,0,7,0,10000,0,0,0,
2026-03-15 16:30:00,METAR VVPQ 151630Z 05003KT 9999 SCT015 FEW017CB 26/25 Q1013 NOSIG,0,3,0,10000,0,0,0,
2026-03-15 16:00:00,METAR VVPQ 151600Z VRB02KT 9999 SCT015 FEW017CB 26/25 Q1013 NOSIG,0,2,0,10000,0,0,0,
2026-03-15 15:30:00,METAR VVPQ 151530Z 07004KT 9999 FEW015 26/25 Q1013 NOSIG,0,4,0,10000,0,0,0,
2026-03-15 15:00:00,METAR VVPQ 151500Z VRB01KT 9999 FEW015 25/25 Q1013 NOSIG,0,1,0,10000,0,0,0,
2026-03-15 14:30:00,METAR VVPQ 151430Z 05002KT 9999 FEW015 26/25 Q1013 NOSIG,0,2,0,10000,0,0,0,
2026-03-15 14:00:00,METAR VVPQ 151400Z VRB02KT 9999 FEW015 26/25 Q1013 NOSIG,0,2,0,10000,0,0,0,
2026-03-15 13:30:00,METAR VVPQ 151330Z VRB01KT 9999 FEW015 26/25 Q1013 NOSIG,0,1,0,10000,0,0,0,
2026-03-15 13:00:00,METAR VVPQ 151300Z VRB01KT 9999 FEW015 27/25 Q1012 NOSIG,0,1,0,10000,0,0,0,
2026-03-15 12:30:00,METAR VVPQ 151230Z VRB02KT 9999 FEW015 27/25 Q1012 NOSIG,0,2,0,10000,0,0,0,
2026-03-15 12:00:00,METAR VVPQ 151200Z VRB02KT 9999 FEW015 27/25 Q1011 NOSIG,0,2,0,10000,0,0,0,
2026-03-15 11:30:00,METAR VVPQ 151130Z VRB01KT 9999 FEW015 28/24 Q1011 NOSIG,0,1,0,10000,0,0,0,
2026-03-15 11:00:00,METAR VVPQ 151100Z VRB02KT 9999 FEW015 28/23 Q1011 NOSIG,0,2,0,10000,0,0,0,
2026-03-15 10:30:00,METAR VVPQ 151030Z 13003KT 9999 FEW015 29/23 Q1011 NOSIG,0,3,0,10000,0,0,0,
2026-03-15 10:00:00,METAR VVPQ 151000Z 13009KT 9999 FEW015 30/24 Q1010 NOSIG,0,9,0,10000,0,0,0,
2026-03-15 09:30:00,METAR VVPQ 150930Z 12010KT 9999 FEW015 30/24 Q1010 NOSIG,0,10,0,10000,0,0,0,
2026-03-15 09:00:00,METAR VVPQ 150900Z 14009KT 9999 FEW015 31/24 Q1010 NOSIG,0,9,0,10000,0,0,0,
2026-03-15 08:30:00,METAR VVPQ 150830Z 11009KT 9999 FEW015 31/24 Q1010 NOSIG,0,9,0,10000,0,0,0,
2026-03-15 08:00:00,METAR VVPQ 150800Z 11008KT 9999 FEW015 31/24 Q1011 NOSIG,0,8,0,10000,0,0,0,
