Time_recorded,METAR,is_cavok,wind_speed,is_gust,visibility_meters,has_thunderstorm,has_heavy_rain,has_low_vis_fog,other_phenomenon
2026-05-02 06:00:00,METAR DNMM 020600Z 19003KT 8000 FEW011 27/25 Q1011 NOSIG,0,3.0,0,8000.0,0,0,0,
2026-05-02 05:00:00,METAR DNMM 020500Z 18003KT 8000 SCT011 27/26 Q1011 NOSIG,0,3.0,0,8000.0,0,0,0,
2026-05-02 04:00:00,METAR DNMM 020400Z 21004KT 8000 SCT011 27/26 Q1010 NOSIG,0,4.0,0,8000.0,0,0,0,
2026-05-02 03:00:00,METAR DNMM 020300Z VRB02KT 9999 FEW012 27/26 Q1010 NOSIG,0,2.0,0,10000.0,0,0,0,
2026-05-02 02:00:00,METAR DNMM 020200Z VRB02KT 9999 FEW012 28/25 Q1011 NOSIG,0,2.0,0,10000.0,0,0,0,
2026-05-02 01:00:00,METAR DNMM 020100Z 20003KT 9999 FEW012 28/25 Q1011 NOSIG,0,3.0,0,10000.0,0,0,0,
2026-05-02 00:00:00,METAR DNMM 020000Z 19004KT 9999 FEW010 28/25 Q1011 NOSIG,0,4.0,0,10000.0,0,0,0,
2026-05-01 23:00:00,METAR DNMM 012300Z 19003KT 9999 FEW010 28/25 Q1012 NOSIG,0,3.0,0,10000.0,0,0,0,
2026-05-01 22:00:00,METAR DNMM 012200Z VRB02KT 9999 FEW011 29/25 Q1012 NOSIG,0,2.0,0,10000.0,0,0,0,
2026-05-01 21:00:00,METAR DNMM 012100Z 17004KT 9999 FEW011 29/25 Q1012 NOSIG,0,4.0,0,10000.0,0,0,0,
2026-05-01 20:00:00,METAR DNMM 012000Z VRB02KT 9999 BKN014 32/25 Q1012 NOSIG,0,2.0,0,10000.0,0,0,0,
2026-05-01 19:00:00,METAR DNMM 011900Z 17006KT 9999 FEW011 29/25 Q1011 NOSIG,0,6.0,0,10000.0,0,0,0,
2026-05-01 18:00:00,METAR DNMM 011800Z 17007KT 9999 SCT012 30/25 Q1010 NOSIG,0,7.0,0,10000.0,0,0,0,
2026-05-01 16:00:00,METAR DNMM 011600Z 18007KT 9999 SCT014 32/25 Q1010 NOSIG,0,7.0,0,10000.0,0,0,0,
2026-05-01 15:00:00,METAR DNMM 011500Z COR 18009KT 9999 BKN014 32/25 Q1010 NOSIG,0,9.0,0,10000.0,0,0,0,
2026-05-01 14:00:00,METAR DNMM 011400Z 18007KT 9999 BKN015 33/26 Q1011 NOSIG,0,7.0,0,10000.0,0,0,0,
2026-05-01 13:00:00,METAR DNMM 011300Z 16008KT 9999 BKN015 34/26 Q1011 NOSIG,0,8.0,0,10000.0,0,0,0,
2026-05-01 12:00:00,METAR DNMM 011200Z 16009KT 9999 BKN015 34/25 Q1012 NOSIG,0,9.0,0,10000.0,0,0,0,
2026-05-01 10:00:00,METAR DNMM 011000Z 17007KT 9999 SCT014 32/26 Q1012 NOSIG,0,7.0,0,10000.0,0,0,0,
2026-05-01 09:00:00,METAR DNMM 010900Z COR 17004KT 9999 FEW014 31/26 Q1013 NOSIG,0,4.0,0,10000.0,0,0,0,
2026-05-01 08:00:00,METAR DNMM 010800Z 14003KT 8000 FEW013 29/25 Q1013 NOSIG,0,3.0,0,8000.0,0,0,0,
2026-05-01 07:00:00,METAR DNMM 010700Z 34003KT 8000 FEW011 27/25 Q1012 NOSIG,0,3.0,0,8000.0,0,0,0,
2026-05-01 06:00:00,METAR DNMM 010600Z 26003KT 8000 FEW009 25/24 Q1012 NOSIG,0,3.0,0,8000.0,0,0,0,
2026-05-01 05:00:00,METAR DNMM 010500Z 29004KT 9999 FEW010 26/25 Q1012 NOSIG,0,4.0,0,10000.0,0,0,0,
2026-05-01 04:00:00,METAR DNMM 010400Z VRB02KT 9999 FEW011 27/26 Q1011 NOSIG,0,2.0,0,10000.0,0,0,0,
2026-05-01 03:00:00,METAR DNMM 010300Z 31006KT 9999 FEW011 27/26 Q1012 NOSIG,0,6.0,0,10000.0,0,0,0,
2026-05-01 02:00:00,METAR DNMM 010200Z 22003KT 9999 FEW011 27/26 Q1012 NOSIG,0,3.0,0,10000.0,0,0,0,
2026-05-01 01:00:00,METAR DNMM 010100Z 24003KT 9999 FEW012 28/26 Q1013 NOSIG,0,3.0,0,10000.0,0,0,0,
2026-05-01 00:00:00,METAR DNMM 010000Z 30003KT 9999 FEW012 28/26 Q1013 NOSIG,0,3.0,0,10000.0,0,0,0,
2026-04-30 23:00:00,METAR DNMM 302300Z 32003KT 9999 FEW012 28/26 Q1014 NOSIG,0,3.0,0,10000.0,0,0,0,
2026-04-30 22:00:00,METAR DNMM 302200Z 17004KT 9999 FEW012 28/26 Q1013 NOSIG,0,4.0,0,10000.0,0,0,0,
2026-04-30 21:00:00,METAR DNMM 302100Z 23003KT 9999 SCT013 29/26 Q1013 NOSIG,0,3.0,0,10000.0,0,0,0,
2026-04-30 20:00:00,METAR DNMM 302000Z 21003KT 9999 SCT013 29/25 Q1012 NOSIG,0,3.0,0,10000.0,0,0,0,
2026-04-30 19:00:00,METAR DNMM 301900Z 18009KT 9999 SCT013 29/25 Q1012 NOSIG,0,9.0,0,10000.0,0,0,0,
2026-04-30 18:00:00,METAR DNMM 301800Z 17009KT 9999 SCT013 FEW020CB 30/25 Q1011 NOSIG RMK CB NW-E,0,9.0,0,10000.0,0,0,0,
2026-04-30 17:00:00,METAR DNMM 301700Z 16005KT 9999 BKN014 FEW020CB 31/25 Q1011 NOSIG RMK CB NW-SE,0,5.0,0,10000.0,0,0,0,
2026-04-30 16:00:00,METAR DNMM 301600Z 16009KT 9999 BKN014 FEW020CB 31/25 Q1011 NOSIG RMK CB NW-E,0,9.0,0,10000.0,0,0,0,
2026-04-30 14:00:00,METAR DNMM 301400Z 16006KT 9999 BKN015 34/25 Q1012 NOSIG,0,6.0,0,10000.0,0,0,0,
2026-04-30 13:00:00,METAR DNMM 301300Z 19005KT 9999 BKN015 33/25 Q1013 TEMPO BKN015 FEW021CB,0,5.0,0,10000.0,0,0,0,
2026-04-30 12:00:00,METAR DNMM 301200Z 17005KT 9999 BKN015 33/24 Q1014 TEMPO BKN015 FEW021CB NOSIG,0,5.0,0,10000.0,0,0,0,
2026-04-30 11:00:00,METAR DNMM 301100Z 24008KT 9999 SCT015 33/25 Q1015 NOSIG,0,8.0,0,10000.0,0,0,0,
2026-04-30 10:00:00,METAR DNMM 301000Z 21005KT 9999 SCT014 32/25 Q1015 NOSIG,0,5.0,0,10000.0,0,0,0,
2026-04-30 09:00:00,METAR DNMM 300900Z 21005KT 9999 SCT015 31/25 Q1015 NOSIG,0,5.0,0,10000.0,0,0,0,
2026-04-30 08:00:00,METAR DNMM 300800Z 17003KT 9999 SCT013 29/24 Q1015 NOSIG,0,3.0,0,10000.0,0,0,0,
2026-04-30 07:00:00,METAR DNMM 300700Z VRB02KT 8000 FEW011 27/24 Q1015 NOSIG,0,2.0,0,8000.0,0,0,0,
2026-04-30 06:00:00,METAR DNMM 300600Z VRB02KTKT 8000 FEW009 25/24 Q1014 NOSIG,0,,0,8000.0,0,0,0,
2026-04-29 23:00:00,METAR DNMM 292300Z VRB02KT 9999 SCT012 28/25 Q1014 NOSIG,0,2.0,0,10000.0,0,0,0,
2026-04-29 19:00:00,METAR DNMM 291900Z 19003KT 9999 SCT013 FEW020CB 29/24 Q1012 NOSIG,0,3.0,0,10000.0,0,0,0,
2026-04-29 18:00:00,METAR DNMM 291800Z 17007KT 9999 SCT013 FEW020CB 30/24 Q1011 NOSIG RMK CB NE - S,0,7.0,0,10000.0,0,0,0,
2026-04-29 14:00:00,METAR DNMM 291400Z 07008KT 9999 BKN015 FEW021CB 33/24 Q1011 NOSIG RMK CB-E,0,8.0,0,10000.0,0,0,0,
2026-04-29 13:00:00,METAR DNMM 291300Z 11009KT 9999 BKN015 FEW021CB 33/25 Q1011 NOSIG RMK CB-E,0,9.0,0,10000.0,0,0,0,
2026-04-29 12:00:00,METAR DNMM 291200Z 12010KT 9999 BKN014 32/25 Q1013 BECMG BKN014 FEW020CB,0,10.0,0,10000.0,0,0,0,
2026-04-29 11:00:00,METAR DNMM 291100Z 08008KT 9999 BKN014 32/25 Q1013 BECMG BKN014 FEW020CB,0,8.0,0,10000.0,0,0,0,
2026-04-29 10:00:00,METAR DNMM 291000Z 12006KT 9999 SCT013 3025 Q1013 BECMG BKN013 FEW020CB,0,6.0,0,10000.0,0,0,0,
2026-04-29 08:00:00,METAR DNMM 290800Z VRB02KT 8000 SCT011 27/25 Q1013 NOSIG,0,2.0,0,8000.0,0,0,0,
2026-04-29 07:00:00,METAR DNMM 290700Z VRB02KT 8000 SCT009 25/24 Q1012 NOSIG,0,2.0,0,8000.0,0,0,0,
2026-04-29 06:00:00,METAR DNMM 290600Z VRB002KT 8000 SCT009 25/24 Q1011 NOSIG,0,2.0,0,8000.0,0,0,0,
2026-04-29 05:00:00,METAR DNMM 290500Z 23003KT 8000 SCT009 25/23 Q1011 NOSIG,0,3.0,0,8000.0,0,0,0,
2026-04-29 03:00:00,METAR DNMM 290300Z 20005KT 8000 TS BKN009 FEW020CB Q1011 NOSIG-RMK CB N-S TS TO E,0,5.0,0,8000.0,1,0,0,TS
2026-04-29 02:00:00,METAR DNMM 290200Z 25004KT 8000 -TSRA BKN008 FEW020CB 24/23 Q1011 NOSIG RMK CB N-NW,0,4.0,0,8000.0,1,0,0,RA
2026-04-29 01:00:00,METAR DNMM 290100Z 20003KT 8000 -TSRA BKN008 FEW020CB 24/23 Q1011 NOSIG RMK CB N-NW,0,3.0,0,8000.0,1,0,0,RA
2026-04-29 00:00:00,METAR DNMM 290000Z 17003KT 8000 -TSRA BKN008 FEW020CB 24/23 Q1011 NOSIG RMK CB N-NW,0,3.0,0,8000.0,1,0,0,RA
2026-04-28 23:00:00,METAR DNMM 282300Z 25003KT 8000 -TSRA BKN008 FEW020CB 24/23 Q1012 NOSIG RMK CB N- NW,0,3.0,0,8000.0,1,0,0,RA
2026-04-28 22:00:00,METAR DNMM 282200Z 08003KT 7000 -TSRA BKN008 FEW020CB 24/23 Q1014 NOSIG RMK CB N- NW,0,3.0,0,7000.0,1,0,0,RA
2026-04-28 21:00:00,METAR DNMM 282100Z 08005KT 5000 -TSRA BKN008 FEW020CB 24/23 Q1014 BECMG 7000 -TSRA RMK CB N -NW,0,5.0,0,5000.0,1,0,0,RA
2026-04-28 20:00:00,METAR DNMM 282000Z 07022G40KT 1500+TSRA SQ BKN007 FEW0204CB 25/23 Q1014 TEMPO 0800+TSRA RMK CB NW -SW,0,22.0,1,,1,0,0,"RA,SQ"
2026-04-28 19:00:00,METAR DNMM 281900Z 35004KT 8000 TS SCT011 FEW020CB 27/24 Q1011 TEMPO 05020G45KT 5000 -TSRA SQ RMK CB NW-SW TS TO E,0,4.0,0,8000.0,1,0,0,"RA,SQ,TS"
2026-04-28 18:00:00,METAR DNMM 281800Z 29004KT 8000 TS SCT011 FEW020CB 27/24 Q1010 NOSIG RMK CB W-E TS TO NW,0,4.0,0,8000.0,1,0,0,TS
2026-04-28 17:00:00,METAR DNMM 281700Z 28006KT 8000 TS BKN011 FEW020CB 27/22 Q1009 TEMPO 5000-TSRA,0,6.0,0,8000.0,1,0,0,"RA,TS"
2026-04-28 07:00:00,METAR DNMM 280700Z 00000KT 6000 FEW011 27/25 Q1013 TEMPO 5000HZ,0,0.0,0,6000.0,0,0,0,
2026-04-28 06:00:00,METAR DNMM 280600Z VRB02KT 7000 FEW011 27/25 Q1012 NOSIG,0,2.0,0,7000.0,0,0,0,
2026-04-28 05:00:00,METAR DNMM 280500Z 00000KT 8000 FEW011 27/25 Q1012 NOSIG,0,0.0,0,8000.0,0,0,0,
2026-04-28 04:00:00,METAR DNMM 280400Z 00000KT 9999 FEW011 27/25 Q1011 NOSIG,0,0.0,0,10000.0,0,0,0,
2026-04-27 22:00:00,METAR DNMM 272200Z 18004KT 9999 FEW012 28/25 Q1013 NOSIG,0,4.0,0,10000.0,0,0,0,
2026-04-27 21:00:00,METAR DNMM 272100Z VRB02KT 9999 FEW012 28/25 Q1012 NOSIG,0,2.0,0,10000.0,0,0,0,
2026-04-27 20:00:00,METAR DNMM 272000Z 18003KT 9999 FEW012 28/25 Q1011 NOSIG,0,3.0,0,10000.0,0,0,0,
2026-04-27 19:00:00,METAR DNMM 271900Z 17003KT 9999 FEW013 29/24 Q1011 NOSIG,0,3.0,0,10000.0,0,0,0,
2026-04-27 18:00:00,METAR DNMM 271800Z 18004KT 9999 FEW013 29/24 Q1010 NOSIG,0,4.0,0,10000.0,0,0,0,
2026-04-27 17:00:00,METAR DNMM 271700Z 16006KT 9999 FEW013 31/23 Q1010 NOSIG,0,6.0,0,10000.0,0,0,0,
2026-04-27 16:00:00,METAR DNMM 271600Z 17006KT 9999 FEW014 32/24 Q1010 NOSIG,0,6.0,0,10000.0,0,0,0,
2026-04-27 15:00:00,METAR DNMM 271500Z 18008KT 9999 SCT015 33/24 Q1010 NOSIG,0,8.0,0,10000.0,0,0,0,
2026-04-27 14:00:00,METAR DNMM 271400Z 14004KT 9999 SCT015 34/25 Q1011 NOSIG,0,4.0,0,10000.0,0,0,0,
2026-04-27 13:00:00,METAR DNMM 271300Z 20005KT 9999 SCT015 34/25 Q1011 NOSIG,0,5.0,0,10000.0,0,0,0,
2026-04-27 12:00:00,METAR DNMM 271200Z 08007KT 9999 SCT015 34/22 Q1013 NOSIG,0,7.0,0,10000.0,0,0,0,
2026-04-27 11:00:00,METAR DNMM 271100Z 12003KT 9999 SCT015 33/23 Q1014 NOSIG,0,3.0,0,10000.0,0,0,0,
2026-04-27 10:00:00,METAR DNMM 271000Z 08004KT 9999 SCT014 32/23 Q1015 NOSIG,0,4.0,0,10000.0,0,0,0,
2026-04-27 09:00:00,METAR DNMM 270900Z 21003KT 8000 SCT013 29/25 11015 NOSIG,0,3.0,0,8000.0,0,0,0,
2026-04-27 08:00:00,METAR DNMM 270800Z 34004KT 8000 SCT012 28/25 Q1014 NOSIG,0,4.0,0,8000.0,0,0,0,
2026-04-27 07:00:00,METAR DNMM 270700Z 31005KT 8000 FEW010 FEW020CB 26/25 Q1014 NOSIG,0,5.0,0,8000.0,0,0,0,
2026-04-27 06:00:00,METAR DNMM 270600Z 02005KT 7000 TS FEW009 FEW019CB 25/24 Q1013 TEMPO 5000-TSRA,0,5.0,0,7000.0,1,0,0,"RA,TS"
2026-04-27 05:00:00,METAR DNMM 270500Z 34004KT 8000 TS FEW009 FEW019CB 25/24 Q1013 TEMPO 5000-TSRA,0,4.0,0,8000.0,1,0,0,"RA,TS"
2026-04-27 04:00:00,METAR DNMM 270400Z VRB02KT 8000 FEW009 25/45 Q1013 NOSIG,0,2.0,0,8000.0,0,0,0,
2026-04-27 03:00:00,METAR DNMM 270300Z VRB02KT 8000 FEW009 25/24 Q1012 NOSIG,0,2.0,0,8000.0,0,0,0,
2026-04-27 02:00:00,METAR DNMM 270200Z VRB02KT 8000 FEW010 26/24 Q1012 NOSIG,0,2.0,0,8000.0,0,0,0,
2026-04-27 01:00:00,METAR DNMM 270100Z VRB02KT 8000 FEW010 26/24 Q1013 NOSIG,0,2.0,0,8000.0,0,0,0,
2026-04-27 00:00:00,METAR DNMM 270000Z 35003KT 9999 FEW010 26/24 Q1013 NOSIG,0,3.0,0,10000.0,0,0,0,
2026-04-26 23:00:00,METAR DNMM 262300Z 01004KT 9999 FEW011 27/25 Q1013 NOSIG,0,4.0,0,10000.0,0,0,0,
2026-04-26 22:00:00,METAR DNMM 262200Z 02004KT 9999 FEW011 27/25 Q101 NOSIG,0,4.0,0,10000.0,0,0,0,
2026-04-26 21:00:00,METAR DNMM 262100Z 33003KT 9999 FEW011 27/25 Q1012 NOSIG,0,3.0,0,10000.0,0,0,0,
2026-04-26 20:00:00,METAR DNMM 262000Z 25003KT 9999 FEW011 27/25 Q1012 NOSIG,0,3.0,0,10000.0,0,0,0,
2026-04-26 19:00:00,METAR DNMM 261900Z 27003KT 9999 FEW011 27/24 Q1012 NOSIG,0,3.0,0,10000.0,0,0,0,
2026-04-26 18:00:00,METAR DNMM 261800Z 22003KT 9999 SCT012 28/24 Q1011 NOSIG,0,3.0,0,10000.0,0,0,0,
2026-04-26 17:00:00,METAR DNMM 261700Z 21004KT 9999 SCT013 29/24 Q1011 NOSIG,0,4.0,0,10000.0,0,0,0,
2026-04-26 16:00:00,METAR DNMM 261600Z 20004KT 9999 SCT013 30/23 Q1011 NOSIG,0,4.0,0,10000.0,0,0,0,
2026-04-26 15:00:00,METAR DNMM 261500Z 16006KT 9999 SCT014 31/23 Q1011 NOSIG,0,6.0,0,10000.0,0,0,0,
2026-04-26 14:00:00,METAR DNMM 261400Z 19005KT 9999 SCT014 32/24 Q1011 NOSIG,0,5.0,0,10000.0,0,0,0,
2026-04-26 13:00:00,METAR DNMM 261300Z 18005KT 8000 SCT014 31/24 Q1012 NOSIG,0,5.0,0,8000.0,0,0,0,
2026-04-26 12:00:00,METAR DNMM 261200Z 17005KT 8000 SCT013 FEW020CB 30/24 Q1012 NOSIG RMK CB SE-SW,0,5.0,0,8000.0,0,0,0,
2026-04-26 11:00:00,METAR DNMM 261100Z 17009KT 8000 SCT012 FEW020CB 28/25 Q1012 NOSIG RMK CB SE-SW,0,9.0,0,8000.0,0,0,0,
2026-04-26 10:00:00,METAR DNMM 261000Z 15009KT 8000-TS SCT010 FEW020CB 26/24 Q1014 NOSIG RMK CB NE-SW TS TO S,0,9.0,0,,1,0,0,TS
2026-04-26 09:00:00,METAR DNMM 260900Z 09006KT 6000-TSRA SCT008 FEW018CB 24/23 Q1015 NOSIG RMK CB NE-SW,0,6.0,0,,1,0,0,RA
2026-04-26 04:00:00,METAR DNMM 260400Z 05004KT 4000 TSRA BKN008 FEW018CB 24/23 Q1013 TEMPO 5000-TSRA RMK CB N-NW,0,4.0,0,4000.0,1,0,0,"RA,TS"
2026-04-26 02:00:00,METAR DNMM 260200Z 00000KT 9999 TS FEW011 FEW020CB 27/26 Q1011 TEMPO 5000 -TSRA,0,0.0,0,10000.0,1,0,0,"RA,TS"
2026-04-26 01:00:00,METAR DNMM 260100Z 00000KT 9999 FEW012 28/26 Q1011 NOSIG,0,0.0,0,10000.0,0,0,0,
2026-04-26 00:00:00,METAR DNMM 260000Z 00000KT 9999 FEW012 28/26 Q1012 NOSIG,0,0.0,0,10000.0,0,0,0,
2026-04-25 23:00:00,METAR DNMM 252300Z VRB02KT 9999 FEW012 28/26 Q1012 NOSIG,0,2.0,0,10000.0,0,0,0,
2026-04-25 22:00:00,METAR DNMM 252200Z 22003KT 9999 FEW013 28/26 Q1012 NOSIG,0,3.0,0,10000.0,0,0,0,
2026-04-25 21:00:00,METAR DNMM 252100Z 18003KT 9999 FEW012 28/26 Q1011 NOSIG,0,3.0,0,10000.0,0,0,0,
2026-04-25 20:00:00,METAR DNMM 252000Z 17003KT 9999 FEW012 28/26 Q1011 NOSIG,0,3.0,0,10000.0,0,0,0,
2026-04-25 19:00:00,METAR DNMM 251900Z 22003KT 9999 FEW013 28/26 Q1011 NOSIG,0,3.0,0,10000.0,0,0,0,
2026-04-25 18:00:00,METAR DNMM 251800Z 19008KT 9999 SCT013 FEW020CB 29/25 Q1009 NOSIG,0,8.0,0,10000.0,0,0,0,
2026-04-25 17:00:00,METAR DNMM 251700Z 19008KT 9999 BKN013 FEW020CB 30/25 Q1008 NOSIG,0,8.0,0,10000.0,0,0,0,
2026-04-25 16:00:00,METAR DNMM 251600Z 18010KT 9999 BKN014 FEW020CB 32/26 Q1007 NOSIG RMK CB S-NW,0,10.0,0,10000.0,0,0,0,
2026-04-25 15:00:00,METAR DNMM 251500Z 21009KT 7000 BKN013 FEW020CB 31/26 Q1008 NOSIG RMK CB E-SW,0,9.0,0,7000.0,0,0,0,
2026-04-25 14:00:00,METAR DNMM 251400Z 18003KT 7000 TS BKN013 FEW020CB 30/26 Q1009 NOSIG RMK CB -SW TS TO SE,0,3.0,0,7000.0,1,0,0,TS
2026-04-25 13:00:00,METAR DNMM 251300Z 17004KT 5000 -TSRA BKN012 FEW020CB 28/26 Q1010 BECMG 7000 NSW RMK CB S-NE,0,4.0,0,5000.0,1,0,0,RA
2026-04-25 12:00:00,METAR DNMM 251200Z 18008KT 3000 -TSRA BKN011 FEW020CB 27/25 Q1012 TEMPO 5000 -TSRA RMK CB SE-N,0,8.0,0,3000.0,1,0,0,RA
2026-04-25 11:00:00,METAR DNMM 251100Z 21008KT 8000 BKN013 FEW020CB 31/26 Q1012 TEMPO TS RMK CB SE-SW,0,8.0,0,8000.0,1,0,0,TS
2026-04-25 10:00:00,METAR DNMM 251000Z 26006KT 8000 -RA BKN012 FEW020CB 28/25 Q1012 TEMPO TS RMK CB S-N,0,6.0,0,8000.0,1,0,0,"-RA,TS"
2026-04-25 09:00:00,METAR DNMM 250900Z 19012KT 8000 -RA BKN013 FEW020CB 31/26 Q1012 TEMPO 5000 -TSRA RMK CB S-W,0,12.0,0,8000.0,1,0,0,"-RA,RA"
2026-04-25 08:00:00,METAR DNMM 250800Z 25005KT 8000 BKN013 FEW020CB 31/27 Q1012 NISIG RMK CB SE-NE,0,5.0,0,8000.0,0,0,0,
2026-04-25 07:00:00,METAR DNMM 250700Z 30005KT 6000 -RA BKN012 FEW020CB 25/26 Q1011 BECMG 7000 -RA RMK CB SE-NE,0,5.0,0,6000.0,0,0,0,-RA
2026-04-25 06:00:00,METAR DNMM 250600Z 00000KT 9999 TS SCT012 FEW020CB 28/26 Q1011 NOSIG RMK CB SE- NE,0,0.0,0,10000.0,1,0,0,TS
2026-04-25 05:00:00,METAR DNMM 250500Z 19003KT 9999 TS SCT012 FEW020CB 28/26 Q1010 NOSIG RMK CB NW - E TS TO N,0,3.0,0,10000.0,1,0,0,TS
2026-04-25 04:00:00,METAR DNMM 250400Z VRB02KT 9999 TS SCT012 FEW020CB 28/26 Q1010 NOSIG RMK CB NE - S TS TO SE,0,2.0,0,10000.0,1,0,0,TS
2026-04-24 22:00:00,METAR DNMM 242200Z 17006KT 9999 SCT013 29/26 Q1012 NOSIG,0,6.0,0,10000.0,0,0,0,
2026-04-24 20:00:00,METAR DNMM 242000Z 15007KT 9999 TS SCT013 FEW020CB 29/26 Q1010 TEMPO 5000 - TSRA RMK CB NW - E TS TO NE,0,7.0,0,10000.0,1,0,0,"RA,TS"
2026-04-24 18:00:00,METAR DNMM 241800Z 19009KT 9999 SCT013 30/25 Q1009 NOSIG,0,9.0,0,10000.0,0,0,0,
2026-04-24 16:00:00,METAR DNMM 241600Z 18007KT 9999 BKN015 33/25 Q1008 NOSIG,0,7.0,0,10000.0,0,0,0,
2026-04-24 15:00:00,METAR DNMM 241500Z 18010KT 9999 BKN015 33/25 Q1008 NOSIG,0,10.0,0,10000.0,0,0,0,
2026-04-24 14:00:00,METAR DNMM 241400Z 20010KT 9999 BKN015 34/26 Q1009 NOSIG,0,10.0,0,10000.0,0,0,0,
2026-04-24 13:00:00,METAR DNMM 241300Z 16011KT 9999 BKN016 35/25 Q1009 NOSIG,0,11.0,0,10000.0,0,0,0,
2026-04-24 12:00:00,METAR DNMM 241200Z 15O11KT 9999 BKN016 34/26 Q1010 NOSIG,0,11.0,0,10000.0,0,0,0,
2026-04-24 11:00:00,METAR DNMM 241100Z 2412/2518 22O1OKT 9999 BKN013 FEW020CB 2414/2418 TS SCT014 FEW020CB BECMG 2418/2420 VRB02KT SCT011 BECMG 2508/2510 20010KT BKN013 FEW020CB TEMPO 2513/2518 TS,0,2.0,0,9999.0,1,0,0,TS
2026-04-24 10:00:00,METAR DNMM 241000Z 16007KT 9999 SCT014 33/25 Q1012 NOSIG,0,7.0,0,10000.0,0,0,0,
2026-04-24 09:00:00,METAR DNMM 240900Z 2OO09KT 9999 SCT013 31/26 Q1012 NOSIG,0,9.0,0,10000.0,0,0,0,
2026-04-24 08:00:00,METAR DNMM 240800Z 18O10KT 8000 SCT013 30/26 Q1011 NOSIG,0,10.0,0,8000.0,0,0,0,
2026-04-24 07:00:00,METAR DNMM 240700Z 23OO5KT 8000 SCT 29/26 Q1011 NOSIG,0,5.0,0,8000.0,0,0,0,
2026-04-24 04:00:00,METAR DNMM 240400Z 21009KT 9999 SCT013 29/26 Q1008 NOSIG,0,9.0,0,10000.0,0,0,0,
2026-04-24 03:00:00,METAR DNMM 240300Z 21009KT 9999 SCT013 29/26 Q1008 NOSIG,0,9.0,0,10000.0,0,0,0,
2026-04-24 02:00:00,METAR DNMM 240200Z 15007KT 9999 FEW013 29/26 Q1009 NOSIG,0,7.0,0,10000.0,0,0,0,
2026-04-24 01:00:00,METAR DNMM 240100Z 20005KT 9999 FEW013 29/26 Q1009 NOSIG,0,5.0,0,10000.0,0,0,0,
2026-04-23 23:00:00,METAR DNMM 232300Z 18005KT 9999 FEW011 29/26 Q1011,0,5.0,0,10000.0,0,0,0,
2026-04-23 22:00:00,METAR DNMM 232200Z 21005KT 9999 FEW011 29/25 Q1011 NOSIG,0,5.0,0,10000.0,0,0,0,
2026-04-23 21:00:00,METAR DNMM 232100Z 20007KT 9999 FEW011 29/26 Q1011 NOSIG,0,7.0,0,10000.0,0,0,0,
2026-04-23 20:00:00,METAR DNMM 232000Z 19007KT 9999 FEW011 29/25 Q1010 NOSIG,0,7.0,0,10000.0,0,0,0,
2026-04-22 16:00:00,METAR DNMM 221600Z 19009KT 8000 TS BKN015 FEW021CB 33/25 Q1008 TEMPO 5000-TSRA RMK CB NW-S TS TO E,0,9.0,0,8000.0,1,0,0,"RA,TS"
2026-04-22 15:00:00,METAR DNMM 221500Z 17008KT TS 8000 BJN015 FEW021CB 33/26 Q1008 TEMPO 5000-TSRA RMK CB NW-S TS TO E,0,8.0,0,8000.0,1,0,0,"RA,TS"
2026-04-22 14:00:00,METAR DNMM 221400Z 18009KT 9999 BKN015 FEW021CB 33/25 Q1008 TEMPO TS RMK CB W-E,0,9.0,0,10000.0,1,0,0,TS
2026-04-22 13:00:00,METAR DNMM 221300Z 16011KT 9999 BKN015 FEW021CB 33/25 Q1009 TEMPO TS RMK CB NW-E,0,11.0,0,10000.0,1,0,0,TS
2026-04-22 12:00:00,METAR DNMM 221200Z 19008KT 9999 BKN015 33/26 Q1010 TEMPO BKN015 FEW020CB,0,8.0,0,10000.0,0,0,0,
2026-04-22 11:00:00,METAR DNMM 221100Z 24006KT 9999 BKN015 34/26 Q1011 NOSIG,0,6.0,0,10000.0,0,0,0,
2026-04-22 10:00:00,METAR DNMM 221000Z 19006KT 9999 SCT015 33/25 Q1011 NOSIG,0,6.0,0,10000.0,0,0,0,
2026-04-22 08:00:00,METAR DNMM 220800Z 23005KT 8000 SCT013 29/25 Q1011 NOSIG,0,5.0,0,8000.0,0,0,0,
2026-04-22 07:00:00,METAR DNMM 220700Z 31003KT 7000 SCT011 27/25 Q1010 NOSIG,0,3.0,0,7000.0,0,0,0,
2026-04-22 06:00:00,METAR DNMM 220600Z VRB02KT 7000 SCT009 25/24 Q1009 TEMPO 5000 HZ,0,2.0,0,7000.0,0,0,0,
2026-04-22 05:00:00,METAR DNMM 220500Z VRB02KT 9999 FEW009 25/24 Q1009 NOSIG,0,2.0,0,10000.0,0,0,0,
2026-04-22 04:00:00,METAR DNMM 220400Z 00000KT 9999 FEW010 26/24 Q1009 NOSIG,0,0.0,0,10000.0,0,0,0,
2026-04-22 03:00:00,METAR DNMM 220300Z 00000KT 9999 FEW010 26/24 Q1008 NOSIG,0,0.0,0,10000.0,0,0,0,
2026-04-22 01:00:00,METAR DNMM 220100Z 00000KT 9999 FEW010 26/24 Q1010 NOSIG,0,0.0,0,10000.0,0,0,0,
2026-04-22 00:00:00,METAR DNMM 220000Z 00000KT 9999 FEW011 27/24 Q1010 NOSIG,0,0.0,0,10000.0,0,0,0,
2026-04-21 23:00:00,METAR DNMM 212300Z 00000KT 9999 FEW011 27/25 Q1011 NOSIG,0,0.0,0,10000.0,0,0,0,
2026-04-21 22:00:00,METAR DNMM 212200Z 27003KT 9999 FEW011 27/25 Q1011 NOSIG,0,3.0,0,10000.0,0,0,0,
2026-04-21 21:00:00,METAR DNMM 212100Z 28003KT 9999 FEW011 27/25 Q1010 NOSIG,0,3.0,0,10000.0,0,0,0,
2026-04-21 20:00:00,METAR DNMM 212000Z 23004KT 9999 SCT012 28/25 Q1010 NOSIG,0,4.0,0,10000.0,0,0,0,
2026-04-21 19:00:00,METAR DNMM 211900Z 17004KT 9999 SCT013 29/25 Q1010 NOSIG,0,4.0,0,10000.0,0,0,0,
2026-04-21 14:00:00,METAR DNMM 211400Z 21011KT 9999 BKN014 FEW020CB 32/25 Q1009 TEMPO 5000 -TSRA,0,11.0,0,10000.0,1,0,0,RA
2026-04-21 13:00:00,METAR DNMM 211300Z 17009KT 9999 BKN015 33/25 Q1009 NOSIG,0,9.0,0,10000.0,0,0,0,
2026-04-21 12:02:00,METAR DNMM 211202Z 29008KT 9999 BKN015 33/26 Q1010 NOSIG,0,8.0,0,10000.0,0,0,0,
2026-04-20 06:00:00,METAR DNMM 200600Z 00000KT 3000 HZ FEW010 26/25 Q1009 TEMPO 1500 HZ,0,0.0,0,3000.0,0,0,0,
2026-04-20 05:00:00,METAR DNMM 200500Z 00000KT 7000 FEW010 26/25 Q1008 TEMPO 5000 HZ,0,0.0,0,7000.0,0,0,0,
2026-04-20 04:00:00,METAR DNMM 200400Z 00000KT 9999 FEW010 26/25 Q1008 NOSIG,0,0.0,0,10000.0,0,0,0,
2026-04-20 03:00:00,METAR DNMM 200300Z 00000KT 9999 FEW011 27/25 Q1008 NOSIG,0,0.0,0,10000.0,0,0,0,
2026-04-20 02:00:00,METAR DNMM 200200Z 00000KT 9999 FEW011 27/25 Q1009 NOSIG,0,0.0,0,10000.0,0,0,0,
2026-04-20 01:00:00,METAR DNMM 200100Z 00000KT 9999 FEW011 27/25 Q1009 NOSIG,0,0.0,0,10000.0,0,0,0,
2026-04-20 00:00:00,METAR DNMM 200000Z VRB02KT 9999 FEW011 27/25 Q1009 NOSIG,0,2.0,0,10000.0,0,0,0,
2026-04-19 23:00:00,METAR DNMM 192300Z 00000KT 9999 FEW012 28/26 Q1009 NOSIG,0,0.0,0,10000.0,0,0,0,
2026-04-19 22:00:00,METAR DNMM 192200Z VRB02KT 9999 FEW012 28/25 Q1010 NOSIG,0,2.0,0,10000.0,0,0,0,
2026-04-19 21:00:00,METAR DNMM 192100Z VRB02KT 9999 FEW012 28/25 Q1009 NOSIG,0,2.0,0,10000.0,0,0,0,
2026-04-19 20:00:00,METAR DNMM 192000Z VRB02KT 9999 FEW013 29/25 Q1009 NOSIG,0,2.0,0,10000.0,0,0,0,
2026-04-19 19:00:00,METAR DNMM 191900Z 16003KT 9999 FEW013 29/26 Q1008 NOSIG,0,3.0,0,10000.0,0,0,0,
2026-04-19 18:00:00,METAR DNMM 191800Z 19006KT 9999 FEW013 30/26 Q1007 NOSIG,0,6.0,0,10000.0,0,0,0,
2026-04-19 17:00:00,METAR DNMM 191700Z 23005KT 9999 FEW013 31/26 Q1007 NOSIG,0,5.0,0,10000.0,0,0,0,
2026-04-19 13:00:00,METAR DNMM 191300Z 21006KT 99999 SCT014 32/26 Q1008 NOSIG,0,6.0,0,,0,0,0,
2026-04-19 12:00:00,METAR DNMM 191200Z COR 17006KT 9999 SCT013 31/26 Q1009 NOSIG,0,6.0,0,10000.0,0,0,0,
2026-04-19 11:00:00,METAR DNMM 191100Z 23003KT 9999 BKN013 30/26 Q1010 NOSIG,0,3.0,0,10000.0,0,0,0,
2026-04-19 10:00:00,METAR DNMM 191000Z 25004KT 9999 BKN013 29/25 Q1011 NOSIG,0,4.0,0,10000.0,0,0,0,
2026-04-19 09:00:00,METAR DNMM 190900Z 16003KT 7000 TS BKN010 FEW020CB 26/24 Q1011 NOSIG,0,3.0,0,7000.0,1,0,0,TS
2026-04-19 08:00:00,METAR DNMM 190800Z 24003KT 5000 TS HZ BKN009 FEW020CB 25/24 Q1011 BECMG 7000 NSW,0,3.0,0,5000.0,1,0,0,TS
2026-04-19 07:00:00,METAR DNMM 190700Z 29005KT 4000 -TSRA BKN009 FEW019CB 25/24 Q1010 TEMPO 5000 -TSRA,0,5.0,0,4000.0,1,0,0,RA
2026-04-19 06:00:00,METAR DNMM 190600Z 35010KT 4000 -TSRA BKN010 FEW020CB 26/25 Q1010 TEMPO 3000 -TSRA,0,10.0,0,4000.0,1,0,0,RA
2026-04-19 05:00:00,METAR DNMM 190500Z 33005KT 7000 TS BKN011 FEW020CB 27/25 Q1009 TEMPO 5000 -TSRA,0,5.0,0,7000.0,1,0,0,"RA,TS"
2026-04-19 04:00:00,METAR DNMM 190400Z VRB02KT 8000 FEW011 27/25 Q1008 NOSIG,0,2.0,0,8000.0,0,0,0,
2026-04-19 03:00:00,METAR DNMM 190300Z VRB02KT 8000 FEW011 27/26 Q1008 NOSIG,0,2.0,0,8000.0,0,0,0,
2026-04-19 02:00:00,METAR DNMM 190200Z VRB02KT 8000 FEW011 27/26 Q1008 NOSIG,0,2.0,0,8000.0,0,0,0,
2026-04-19 01:00:00,METAR DNMM 190100Z VRB02KT 8000 FEW011 27/26 Q1008 NOSIG,0,2.0,0,8000.0,0,0,0,
2026-04-19 00:00:00,METAR DNMM 190000Z VRB02KT 9999 FEW012 28/26 Q1009 NOSIG,0,2.0,0,10000.0,0,0,0,
2026-04-18 23:00:00,METAR DNMM 182300Z 20003KT 9999 FEW012 28/26 Q1009 NOSIG,0,3.0,0,10000.0,0,0,0,
2026-04-18 22:00:00,METAR DNMM 182200Z 18003KT 9999 FEW013 29/26 Q1010 NOSIG,0,3.0,0,10000.0,0,0,0,
2026-04-18 21:00:00,METAR DNMM 182100Z 19004KT 9999 FEW013 29/26 Q1010 NOSIG,0,4.0,0,10000.0,0,0,0,
2026-04-18 20:00:00,METAR DNMM 182000Z 17005KT 9999 FEW013 29/26 Q1009 NOSIG,0,5.0,0,10000.0,0,0,0,
2026-04-18 19:00:00,METAR DNMM 181900Z COR 20006KT 9999 FEW013 29/26 Q1007 NOSIG,0,6.0,0,10000.0,0,0,0,
2026-04-18 18:00:00,METAR DNMM 181800Z 18009KT 9999 SCT013 FEW020CB 30/26 Q1007 TEMPO TS,0,9.0,0,10000.0,1,0,0,TS
2026-04-18 17:00:00,METAR DNMM 181700Z 18007KT 9999 SCT013 FEW020CB 31/24 Q1006 TEMPO TS,0,7.0,0,10000.0,1,0,0,TS
2026-04-18 16:00:00,METAR DNMM 181600Z 17010KT 9999 BKN014 32/26 Q1006 TEMPO BKN015 FEW020CB,0,10.0,0,10000.0,0,0,0,
2026-04-18 00:00:00,METAR DNMM 180000Z VRB02KT 9999 FEW012 28/26 Q1009 NOSIG,0,2.0,0,10000.0,0,0,0,
2026-04-17 23:00:00,METAR DNMM 172300Z 20003KT 9999 FEW012 28/26 Q1010 NOSIG,0,3.0,0,10000.0,0,0,0,
2026-04-17 22:00:00,METAR DNMM 172200Z VRB02KT 9999 FEW012 28/26 Q1010 NOSIG,0,2.0,0,10000.0,0,0,0,
2026-04-17 21:00:00,METAR DNMM 172100Z 18003KT 9999 FEW012 28/26 Q1009 NOSIG,0,3.0,0,10000.0,0,0,0,
2026-04-17 20:00:00,METAR DNMM 172000Z 18004KT 9999 FEW013 29/26 Q1009 NOSIG,0,4.0,0,10000.0,0,0,0,
2026-04-17 19:00:00,METAR DNMM 171900Z 20004KT 999 SCT013 29/25 Q1008 NOSIG,0,4.0,0,,0,0,0,
2026-04-17 18:00:00,METAR DNMM 171800Z 18007KT 9999 SCT013 30/25 Q1007 NOSIG,0,7.0,0,10000.0,0,0,0,
2026-04-17 17:00:00,METAR DNMM 171700Z 18006KT 9999 SCT013 31/25 Q1006 NOSIG,0,6.0,0,10000.0,0,0,0,
2026-04-17 16:00:00,METAR DNMM 171600Z 17006KT 9999 SCT014 32/26 Q1006 NOSIG,0,6.0,0,10000.0,0,0,0,
2026-04-17 15:00:00,METAR DNMM 171500Z 15009KT 9999 BKN015 33/25 Q1007 NOSIG,0,9.0,0,10000.0,0,0,0,
2026-04-17 13:00:00,METAR DNMM 171300Z 20008KT 9999 BKN015 34/25 Q1010 NOSIG,0,8.0,0,10000.0,0,0,0,
2026-04-17 12:00:00,METAR DNMM 171200Z 16010KT 9999 BKN015 34/26 Q1010 NOSIG,0,10.0,0,10000.0,0,0,0,
2026-04-17 11:00:00,METAR DNMM 171100Z 20009KT 9999 BKN015 33/25 Q1010 NOSIG,0,9.0,0,10000.0,0,0,0,
2026-04-17 10:00:00,METAR DNMM 171000Z 20009KT 9999 BKN015 33/26 Q1010 NOSIG,0,9.0,0,10000.0,0,0,0,
2026-04-17 09:00:00,METAR DNMM 170900Z 23007KT 9999 SCT014 32/27 Q1010 NOSIG,0,7.0,0,10000.0,0,0,0,
2026-04-17 08:00:00,METAR DNMM 170800Z 26005KT 8000 SCT013 31/27 Q1010 NOSIG,0,5.0,0,8000.0,0,0,0,
2026-04-17 07:00:00,METAR DNMM 170700Z 00000KT 7000 SCT011 27/26 Q1009 NOSIG,0,0.0,0,7000.0,0,0,0,
2026-04-17 06:00:00,METAR DNMM 170600Z 00000KT 7000 SCT011 27/26 Q1009 TEMPO 5000 BR,0,0.0,0,7000.0,0,0,1,BR
2026-04-17 05:00:00,METAR DNMM 170500Z 00000KT 7000 FEW011 27/26 Q1008 TEMPO 5000 BR,0,0.0,0,7000.0,0,0,1,BR
2026-04-17 04:00:00,METAR DNMM 170400Z 00000KT 9999 FEW011 27/26 Q1008 NOSIG,0,0.0,0,10000.0,0,0,0,
2026-04-17 03:00:00,METAR DNMM 170300Z VRB02KT 9999 FEW011 27/26 Q1008 NOSIG,0,2.0,0,10000.0,0,0,0,
2026-04-17 02:00:00,METAR DNMM 170200Z VRB02KT 9999 FEW011 27/26 Q1009 NOSIG,0,2.0,0,10000.0,0,0,0,
2026-04-17 01:00:00,METAR DNMM 170100Z VRB02KT 9999 FEW011 27/26 Q1009 NOSIG,0,2.0,0,10000.0,0,0,0,
2026-04-17 00:00:00,METAR DNMM 170000Z VRB02KT 9999 FEW011 27/26 Q1010 NOSIG,0,2.0,0,10000.0,0,0,0,
2026-04-16 23:00:00,METAR DNMM 162300Z VRB02KT 9999 FEW011 27/26 Q1010 NOSIG,0,2.0,0,10000.0,0,0,0,
2026-04-16 22:00:00,METAR DNMM 162200Z VRB02KT 9999 FEW011 27/26 Q1010 NOSIG,0,2.0,0,10000.0,0,0,0,
2026-04-16 21:00:00,METAR DNMM 162100Z VRB02KT 9999 FEW011 27/26 Q1010 NOSIG,0,2.0,0,10000.0,0,0,0,
2026-04-16 20:00:00,METAR DNMM 162000Z 23003KT 9999 FEW012 28/26 Q1009 NOSIG,0,3.0,0,10000.0,0,0,0,
2026-04-16 19:00:00,METAR DNMM 161900Z 21005KT 9999 SCT012 28/26 Q1009 NOSIG,0,5.0,0,10000.0,0,0,0,
2026-04-16 18:00:00,METAR DNMM 161800Z 18004KT 9999 SCT013 29/26 Q1008 NOSIG,0,4.0,0,10000.0,0,0,0,
2026-04-16 17:00:00,METAR DNMM 161700Z 19005KT 9999 SCT013 30/26 Q1008 NOSIG,0,5.0,0,10000.0,0,0,0,
2026-04-16 15:00:00,METAR DNMM 161500Z 30005KT 9999 SCT014 31/25 Q1008 NOSIG,0,5.0,0,10000.0,0,0,0,
2026-04-16 14:00:00,METAR DNMM 161400Z 22007KT 9999 SCT014 31/25 Q1009 NOSIG,0,7.0,0,10000.0,0,0,0,
2026-04-16 13:00:00,METAR DNMM 161300Z 20005KT 9999 SCT013 FEW020CB 30/25 Q1009 NOSIG,0,5.0,0,10000.0,0,0,0,
2026-04-16 12:00:00,METAR DNMM 161200Z 20005KT 9999 SCT013 FEW020CB 29/25 Q1010 NOSIG,0,5.0,0,10000.0,0,0,0,
2026-04-16 11:00:00,METAR DNMM 161100Z 18005KT 9999 SCT011 FEW020CB 27/25 Q1011 NOSIG,0,5.0,0,10000.0,0,0,0,
2026-04-16 10:00:00,METAR DNMM 161000Z 13003KT 8000 TS BKN009 FEW020CB 25/23 Q1011 NOSIG,0,3.0,0,8000.0,1,0,0,TS
2026-04-15 14:00:00,METAR DNMM 151400Z 16008KT 9999 BKN015 35/24 Q1009 NOSIG,0,8.0,0,10000.0,0,0,0,
2026-04-15 13:00:00,METAR DNMM 151300Z 17011KT 9999 BKN015 34/24 Q1010 NOSIG,0,11.0,0,10000.0,0,0,0,
2026-04-15 12:00:00,METAR DNMM 151200Z 19006KT 9999 BKN015 35/24 Q1011 NOSIG,0,6.0,0,10000.0,0,0,0,
2026-04-15 11:00:00,METAR DNMM 151100Z 18008KT 9999 BKN015 34/24 Q1012 NOSIG,0,8.0,0,10000.0,0,0,0,
2026-04-15 10:00:00,METAR DNMM 151000Z COR 18006KT 9999 BKN013 33/25 Q1012 NOSIG,0,6.0,0,10000.0,0,0,0,
2026-04-15 09:00:00,METAR DNMM 150900Z 17006KT 9999 BKN014 32/26 Q1012 NOSIG,0,6.0,0,10000.0,0,0,0,
2026-04-15 08:00:00,METAR DNMM 150800Z 21005KT 9999 SCT013 30/27 Q1012 NOSIG,0,5.0,0,10000.0,0,0,0,
2026-04-15 07:00:00,METAR DNMM 150700Z 24005KT 8000 FEW011 27/26 Q1011 NOSIG,0,5.0,0,8000.0,0,0,0,
2026-04-15 06:00:00,METAR DNMM 150600Z VRB02KT 8000 FEW010 26/25 Q1011 NOSIG,0,2.0,0,8000.0,0,0,0,
2026-04-15 05:00:00,METAR DNMM 150500Z VRB02KT 9999 FEW011 27/25 Q1010 NOSIG,0,2.0,0,10000.0,0,0,0,
2026-04-15 04:00:00,METAR DNMM 150400Z VRB02KT 9999 FEW011 27/25 Q1010 NOSIG,0,2.0,0,10000.0,0,0,0,
2026-04-15 03:00:00,METAR DNMM 150300Z VRB02KT 9999 FEW011 27/25 Q1010 NOSIG,0,2.0,0,10000.0,0,0,0,
2026-04-15 02:00:00,METAR DNMM 150200Z 20003KT 9999 FEW012 28/26 Q1011 NOSIG,0,3.0,0,10000.0,0,0,0,
2026-04-15 01:00:00,METAR DNMM 150100Z 24004KT 9999 FEW012 28/26 Q1011 NOSIG,0,4.0,0,10000.0,0,0,0,
2026-04-15 00:00:00,METAR DNMM 150000Z 25003KT 9999 FEW012 28/26 Q1012 NOSIG,0,3.0,0,10000.0,0,0,0,
2026-04-14 23:00:00,METAR DNMM 142300Z 25005KT 9999 FEW012 28/26 Q1012 NOSIG,0,5.0,0,10000.0,0,0,0,
2026-04-14 22:00:00,METAR DNMM 142200Z 28003KT 9999 FEW013 29/26 Q1012 NOSIG,0,3.0,0,10000.0,0,0,0,
2026-04-14 21:00:00,METAR DNMM 142100Z 32006KT 9999 FEW013 29/26 Q1012 NOSIG,0,6.0,0,10000.0,0,0,0,
2026-04-14 20:00:00,METAR DNMM 142000Z 21005KT 9999 SCT013 29/26 Q1011 NOSIG,0,5.0,0,10000.0,0,0,0,
2026-04-14 19:00:00,METAR DNMM 141900Z 21006KT 9999 SCT013 29/25 Q1010 NOSIG,0,6.0,0,10000.0,0,0,0,
2026-04-14 18:00:00,METAR DNMM 141800Z 21006KT 9999 SCT013 30/25 Q1009 NOSIG,0,6.0,0,10000.0,0,0,0,
2026-04-14 17:00:00,METAR DNMM 141700Z 19007KT 9999 SCT014 31/25 Q1008 NOSIG,0,7.0,0,10000.0,0,0,0,
2026-04-14 16:00:00,METAR DNMM 141600Z 20008KT 9999 SCT015 33/25 Q1008 NOSIG,0,8.0,0,10000.0,0,0,0,
2026-04-14 14:00:00,METAR DNMM 141400Z 19009KT 9999 SCT016 35/25 Q1009 NOSIG,0,9.0,0,10000.0,0,0,0,
2026-04-14 13:00:00,METAR DNMM 141300Z 20011KT 9999 BKN016 35/25 Q1010 NOSIG,0,11.0,0,10000.0,0,0,0,
2026-04-14 12:00:00,METAR DNMM 141200Z 19O07KT 9999 BKN016 35/25 Q1010 NOSIG,0,7.0,0,10000.0,0,0,0,
2026-04-14 11:00:00,METAR DNMM 141100Z 22004KT 9999 BKN015 FEW022CB 34/26 Q1011 NOSIG,0,4.0,0,10000.0,0,0,0,
2026-04-14 10:00:00,METAR DNMM 141000Z 21005KT 8000 BKN014 FEW021CB 32/25 Q1012 NOSIG,0,5.0,0,8000.0,0,0,0,
2026-04-14 09:00:00,METAR DNMM 140900Z 20005KT 8000 BKN014 FEW021CB 32/26 Q1012 NOSIG,0,5.0,0,8000.0,0,0,0,
2026-04-14 08:00:00,METAR DNMM 140800Z 18005KT 8000 SCT013 FEW020CB 30/26 Q1012 NOSIG,0,5.0,0,8000.0,0,0,0,
2026-04-14 07:00:00,METAR DNMM 140700Z 23004KT 8000 SCT012 FEW020CB 28/25 Q1011 NOSIG,0,4.0,0,8000.0,0,0,0,
2026-04-14 05:00:00,METAR DNMM 140500Z 19003KT 9999 TS SCT011 FEW020CB 27/25 Q1010 NOSIG,0,3.0,0,10000.0,1,0,0,TS
2026-04-14 04:00:00,METAR DNMM 140400Z 00000KT 9999 SCT011 27/25 Q1010 NOSIG,0,0.0,0,10000.0,0,0,0,
2026-04-14 03:00:00,METAR DNMM 140300Z VRB02KT 9999 SCT011 27/25 Q1010 NOSIG,0,2.0,0,10000.0,0,0,0,
2026-04-14 02:00:00,METAR DNMM 140200Z 32006KT 9999 SCT011 27/25 Q1010 NOSIG,0,6.0,0,10000.0,0,0,0,
2026-04-14 01:00:00,METAR DNMM 140100Z VRB02KT 9999 SCT011 27/25 Q1010 NOSIG,0,2.0,0,10000.0,0,0,0,
2026-04-14 00:00:00,METAR DNMM 140000Z 20005KT 9999 SCT012 28/25 Q1010 NOSIG,0,5.0,0,10000.0,0,0,0,
2026-04-13 23:00:00,METAR DNMM 132300Z 19004KT 9999 TS SCT012 FEW020CB 28/25 Q1010 BECMG NSW SCT012,0,4.0,0,10000.0,1,0,0,TS
2026-04-13 22:00:00,METAR DNMM 132200Z VRB02KT 9999 TS SCT012 FEW020CB 28/25 Q1012 BECMG NSW SCT012,0,2.0,0,10000.0,1,0,0,TS
2026-04-13 21:00:00,METAR DNMM 132100Z 19003KT 9999 TS SCT012 FEW020CB 28/24 Q1012 BECMG NSW SCT012,0,3.0,0,10000.0,1,0,0,TS
2026-04-13 20:00:00,METAR DNMM 132000Z 20003KT 9999 TS SCT012 FEW020CB 28/24 Q1011 BECMG NSW SCT012,0,3.0,0,10000.0,1,0,0,TS
2026-04-13 19:00:00,METAR DNMM 131900Z 21006KT 9999 TS BKN012 FEW020CB 28/24 Q1010 NOSIG,0,6.0,0,10000.0,1,0,0,TS
2026-04-13 18:00:00,METAR DNMM 131800Z 33008KT 9999 TS BKN012 FEW020CB 28/24 Q1009 TEMPO 04020G45KT 5000 -TSRA SQ BKN010 FEW018CB,0,8.0,0,10000.0,1,0,0,"RA,SQ,TS"
2026-04-13 17:00:00,METAR DNMM 131700Z 19008KT 9999 TS BKN013 FEW020CB 31/25 Q1008 TEMPO 04020G45KT 5000 -TSRA SQ BKN010 FEW018CB,0,8.0,0,10000.0,1,0,0,"RA,SQ,TS"
2026-04-13 16:00:00,METAR DNMM 131600Z 18009KT 9999 BKN013 FEW020CB 31/25 Q1007 TEMPO 04020G45KT 5000 -TSRA SQ BKN010 FEW018CB,0,9.0,0,10000.0,1,0,0,"RA,SQ"
2026-04-13 15:00:00,METAR DNMM 131500Z 18009KT 9999 SCT015 FEW021CB 33/25 Q1007 TEMPO 5000 -TSRA,0,9.0,0,10000.0,1,0,0,RA
2026-04-13 14:00:00,METAR DNMM 131400Z 20007KT 9999 SCT016 35/26 Q1007 NOSIG,0,7.0,0,10000.0,0,0,0,
2026-04-13 13:00:00,METAR DNMM 131300Z 18010KT 9999 BKN016 FEW021CB 35/26 Q1009 NOSIG,0,10.0,0,10000.0,0,0,0,
2026-04-13 12:00:00,METAR DNMM 131200Z 18010KT 9999 BKN016 FEW021CB 35/25 Q1010 NOSIG,0,10.0,0,10000.0,0,0,0,
2026-04-13 11:00:00,METAR DNMM 131100Z 17008KT 9999 BKN015 FEW021CB 34/25 Q1011 NOSIG,0,8.0,0,10000.0,0,0,0,
2026-04-13 10:00:00,METAR DNMM 131000Z 17005KT 9999 SCT015 33/26 Q1011 TEMPO BKN015 FEW021CB,0,5.0,0,10000.0,0,0,0,
2026-04-13 09:00:00,METAR DNMM 130900Z 21004KT 9999 SCT013 31/27 Q1011 NOSIG,0,4.0,0,10000.0,0,0,0,
2026-04-13 08:00:00,METAR DNMM 130800Z 32003KT 9999 SCT013 31/27 Q1011 NOSIG,0,3.0,0,10000.0,0,0,0,
2026-04-13 06:00:00,METAR DNMM 130600Z VRB02KT 9999 FEW012 28/27 Q1010 NOSIG,0,2.0,0,10000.0,0,0,0,
2026-04-13 05:00:00,METAR DNMM 130500Z VRB02KT 9999 FEW012 28/26 Q1009 NOSIG,0,2.0,0,10000.0,0,0,0,
2026-04-13 04:00:00,METAR DNMM 130400Z 16003KT 9999 FEW012 28/26 Q1009 NOSIG,0,3.0,0,10000.0,0,0,0,
2026-04-13 02:00:00,METAR DNMM 130200Z 22004KT 9999 FEW012 28/25 Q1009 NOSIG,0,4.0,0,10000.0,0,0,0,
2026-04-13 01:00:00,METAR DNMM 130100Z 19003KT 9999 FEW013 29/26 Q1011 NOSIG,0,3.0,0,10000.0,0,0,0,
2026-04-13 00:00:00,METAR DNMM 130000Z 21004KT 9999 FEW013 29/26 Q1011 NOSIG,0,4.0,0,10000.0,0,0,0,
2026-04-12 23:00:00,METAR DNMM 122300Z 20004KT 9999 FEW013 29/26 Q1013 NOSIG,0,4.0,0,10000.0,0,0,0,
2026-04-12 22:00:00,METAR DNMM 122200Z 21004KT 9999 FEW013 29/24 Q1013 NOSIG,0,4.0,0,10000.0,0,0,0,
2026-04-12 21:00:00,METAR DNMM 122100Z 18004KT 9999 FEW013 29/24 Q1012 NOSIG,0,4.0,0,10000.0,0,0,0,
2026-04-12 20:00:00,METAR DNMM 122000Z 19004KT 9999 FEW013 29/24 Q1011 NOSIG,0,4.0,0,10000.0,0,0,0,
2026-04-12 18:00:00,METAR DNMM 121800Z 18007KT 9999 FEW013 30/24 Q1009 NOSIG,0,7.0,0,10000.0,0,0,0,
2026-04-12 17:00:00,METAR DNMM 121700Z 20010KT 9999 FEW013 31/24 Q1009 NOSIG,0,10.0,0,10000.0,0,0,0,
2026-04-12 16:00:00,METAR DNMM 121600Z 19006KT 9999 FEW015 33/23 Q1009 NOSIG,0,6.0,0,10000.0,0,0,0,
2026-04-12 14:00:00,METAR DNMM 121400Z 15008KT 9999 SCT015 35/23 Q1010 NOSIG,0,8.0,0,10000.0,0,0,0,
2026-04-12 13:00:00,METAR DNMM 121300Z 13007KT 9999 BKN016 35/24 Q1010 NOSIG,0,7.0,0,10000.0,0,0,0,
2026-04-12 12:00:00,METAR DNMM 121200Z 16007KT 9999 BKN015 34/24 Q1012 NOSIG,0,7.0,0,10000.0,0,0,0,
2026-04-12 11:00:00,METAR DNMM 121100Z 15008KT 9999 SCT015 34/24 Q1012 NOSIG,0,8.0,0,10000.0,0,0,0,
2026-04-12 10:00:00,METAR DNMM 121000Z 18006KT 999 SCT015 33/25 Q1013 NOSIG,0,6.0,0,,0,0,0,
2026-04-12 09:00:00,METAR DNMM 120900Z 21003KT 8000 SCT014 32/34 Q1013 NOSIG,0,3.0,0,8000.0,0,0,0,
2026-04-12 08:00:00,METAR DNMM 120800Z 22004KT 8000 FEW013 29/27 Q1013 NOSIG,0,4.0,0,8000.0,0,0,0,
2026-04-12 07:00:00,METAR DNMM 120700Z 19003KT 8000 FEW011 27/25 Q1012 NOSIG,0,3.0,0,8000.0,0,0,0,
2026-04-12 06:00:00,METAR DNMM 120600Z VRB02KT 8000 FEW011 27/25 Q1012 NOSIG,0,2.0,0,8000.0,0,0,0,
2026-04-12 05:00:00,METAR DNMM 120500Z VRB02KT 9999 FEW011 27/25 Q1010 NOSIG,0,2.0,0,10000.0,0,0,0,
2026-04-12 03:00:00,METAR DNMM 120300Z OOOO0KT 9999 FEW011 27/25 Q1010 NOSIG,0,0.0,0,10000.0,0,0,0,
2026-04-12 02:00:00,METAR DNMM 120200Z VRB02KT 9999 FEW011 27/25 Q1011 NOSIG,0,2.0,0,10000.0,0,0,0,
2026-04-12 01:00:00,METAR DNMM 120100Z VRB02KT 9999 FEW012 2825 Q1011 NOSIG,0,2.0,0,10000.0,0,0,0,
2026-04-12 00:00:00,METAR DNMM 120000Z VRB02KT 9999 FEW012 28/26 Q1012 NOSIG,0,2.0,0,10000.0,0,0,0,
2026-04-11 23:00:00,METAR DNMM 112300Z 16005KT 9999 FEW012 28/26 Q1013 NOSIG,0,5.0,0,10000.0,0,0,0,
2026-04-11 20:00:00,METAR DNMM 112000Z 20007KT 9999 FEW013 29/25 Q1012 NOSIG,0,7.0,0,10000.0,0,0,0,
2026-04-11 19:00:00,METAR DNMM 111900Z 150060KT 9999 FEW013 29/25 Q1011 NOSIG,0,60.0,0,10000.0,0,0,0,
2026-04-11 18:00:00,METAR DNMM 111800Z 18004KT 999 SCT013 30/25 Q1011 NOSIG,0,4.0,0,,0,0,0,
2026-04-11 17:00:00,METAR DNMM 111700Z 18003KT 9999 FEW013 31/24 Q1011 NOSIG,0,3.0,0,10000.0,0,0,0,
2026-04-11 16:00:00,METAR DNMM 111600Z 20004KT 9999 SCT015 33/24 Q1010 NOSIG,0,4.0,0,10000.0,0,0,0,
2026-04-11 15:00:00,METAR DNMM 111500Z 21008KT 9999 BKN015 33/25 Q1011 NOSIG,0,8.0,0,10000.0,0,0,0,
2026-04-11 14:00:00,METAR DNMM 111400Z 16008KT 9999 BKN015 33/24 Q1011 NOSIG,0,8.0,0,10000.0,0,0,0,
2026-04-11 13:00:00,METAR DNMM 111300Z 18009KT 9999 BKN015 34/24 Q1012 NOSIG,0,9.0,0,10000.0,0,0,0,
2026-04-11 12:00:00,METAR DNMM 111200Z 13007KT 9999 BKN015 33/24 Q1013 NOSIG,0,7.0,0,10000.0,0,0,0,
2026-04-11 11:00:00,METAR DNMM 111100Z 19009KT 9999 BKN015 32/25 Q1013 NOSIG,0,9.0,0,10000.0,0,0,0,
2026-04-11 10:00:00,METAR DNMM 111000Z 15006KT 9999 BKN014 32/25 Q1013 NOSIG,0,6.0,0,10000.0,0,0,0,
2026-04-11 09:00:00,METAR DNMM 110900Z 16006KT 9999 SCT013 31/25 Q1014 NOSIG,0,6.0,0,10000.0,0,0,0,
2026-04-11 08:00:00,METAR DNMM 110800Z 16007KT 9999 SCT013 30/26 Q1014 NOSIG,0,7.0,0,10000.0,0,0,0,
2026-04-11 07:00:00,METAR DNMM 110700Z 18004KT 9999 FEW012 28/26 Q1013 NOSIG,0,4.0,0,10000.0,0,0,0,
2026-04-11 06:00:00,METAR DNMM 110600Z 18004KT 9999 FEW011 27/25 Q1013 NOSIG,0,4.0,0,10000.0,0,0,0,
2026-04-11 05:00:00,METAR DNMM 110500Z VRB02KT 9999 FEW011 27/25 Q1013 NOSIG,0,2.0,0,10000.0,0,0,0,
2026-04-11 04:00:00,METAR DNMM 110400Z 19003KT 9999 FEW011 27/25 Q1012 NOSIG,0,3.0,0,10000.0,0,0,0,
2026-04-11 03:00:00,METAR DNMM 110300Z 20003KT 9999 FEW011 27/25 Q1011 NOSIG,0,3.0,0,10000.0,0,0,0,
2026-04-11 02:00:00,METAR DNMM 110200Z 21005KT 9999 FEW011 27/25 Q1011 NOSIG,0,5.0,0,10000.0,0,0,0,
2026-04-11 01:00:00,METAR DNMM 110100Z 20006KT 9999 FEW011 27/25 Q1012 NOSIG,0,6.0,0,10000.0,0,0,0,
2026-04-11 00:00:00,METAR DNMM 110000Z 20004KT 8000 FEW011 27/25 Q1013 NOSIG,0,4.0,0,8000.0,0,0,0,
2026-04-10 23:00:00,METAR DNMM 102300Z 18003KT 8000 TS FEW011 FEW020CB 27/25 Q1014 NOSIG,0,3.0,0,8000.0,1,0,0,TS
2026-04-10 22:00:00,METAR DNMM 102200Z 21005KT 5000 -TSRA BKN012 FEW020CB 28/25 Q1014 BECMG 7000 TS,0,5.0,0,5000.0,1,0,0,"RA,TS"
2026-04-10 21:00:00,METAR DNMM 102100Z 23006KT 8000 TS SCT013 FEW020CB 29/25 Q1013 TEMPO 5000 -TSRA,0,6.0,0,8000.0,1,0,0,"RA,TS"
2026-04-10 20:00:00,METAR DNMM 102000Z 19005KT 9999 FEW013 29/25 Q1013 NOSIG,0,5.0,0,10000.0,0,0,0,
2026-04-10 19:00:00,METAR DNMM 101900Z 20008KT 9999 FEW013 29/25 Q1012 NOSIG,0,8.0,0,10000.0,0,0,0,
2026-04-10 18:00:00,METAR DNMM 101800Z 19008KT 9999 SCT013 30/25 Q1011 NOSIG,0,8.0,0,10000.0,0,0,0,
2026-04-10 17:00:00,METAR DNMM 101700Z 19008KT 9999 SCT014 31/25 Q1010 NOSIG,0,8.0,0,10000.0,0,0,0,
2026-04-10 16:00:00,METAR DNMM 101600Z 20013KT 9999 SCT014 32/25 Q1010 NOSIG,0,13.0,0,10000.0,0,0,0,
2026-04-10 15:00:00,METAR DNMM 101500Z 17006KT 9999 SCT015 34/25 Q1010 NOSIG,0,6.0,0,10000.0,0,0,0,
2026-04-10 14:00:00,METAR DNMM 101400Z 14011KT 9999 SCT016 35/25 Q1010 NOSIG,0,11.0,0,10000.0,0,0,0,
2026-04-10 13:00:00,METAR DNMM 101300Z 20008KT 9999 BKN016 35/25 Q1011 NOSIG,0,8.0,0,10000.0,0,0,0,
2026-04-10 12:00:00,METAR DNMM 101200Z 13005KT 9999 BKN015 34/25 Q1012 NOSIG,0,5.0,0,10000.0,0,0,0,
2026-04-10 11:00:00,METAR DNMM 101100Z 18005KT 9999 BKN015 33/26 Q1013 NOSIG,0,5.0,0,10000.0,0,0,0,
2026-04-10 10:00:00,METAR DNMM 101000Z 16004KT 9999 BKN014 32/26 Q1014 NOSIG,0,4.0,0,10000.0,0,0,0,
2026-04-10 09:00:00,METAR DNMM 100900Z 21005KT 9999 SCT013 30/26 Q1014 NOSIG,0,5.0,0,10000.0,0,0,0,
2026-04-10 08:00:00,METAR DNMM 100800Z 26004KT 9999 SCT013 29/25 Q1013 NOSIG,0,4.0,0,10000.0,0,0,0,
2026-04-10 07:00:00,METAR DNMM 100700Z 26004KT 9999 FEW012 28/25 Q1013 NOSIG,0,4.0,0,10000.0,0,0,0,
2026-04-10 06:00:00,METAR DNMM 100600Z 30003KT 9999 FEW010 26/25 Q1012 NOSIG,0,3.0,0,10000.0,0,0,0,
2026-04-10 05:00:00,METAR DNMM 100500Z 32004KT 9999 FEW011 27/25 Q1012 NOSIG,0,4.0,0,10000.0,0,0,0,
2026-04-10 04:00:00,METAR DNMM 100400Z 24003KT 9999 FEW011 27/25 Q1012 NOSIG,0,3.0,0,10000.0,0,0,0,
2026-04-10 03:00:00,METAR DNMM 100300Z 23003KT 9999 FEW011 27/25 Q1012 NOSIG,0,3.0,0,10000.0,0,0,0,
2026-04-10 02:00:00,METAR DNMM 100200Z 24003KT 9999 FEW012 28/25 Q1012 NOSIG,0,3.0,0,10000.0,0,0,0,
2026-04-10 01:00:00,METAR DNMM 100100Z 30004KT 9999 FEW012 28/25 Q1012 NOSIG,0,4.0,0,10000.0,0,0,0,
2026-04-10 00:00:00,METAR DNMM 100000Z 26003KT 9999 FEW012 28/23 Q1013 NOSIG,0,3.0,0,10000.0,0,0,0,
2026-04-09 23:00:00,METAR DNMM 092300Z 30003KT 9999 FEW012 28/23 Q1013 NOSIG,0,3.0,0,10000.0,0,0,0,
2026-04-09 22:00:00,METAR DNMM 092200Z 28003KT 9999 FEW012 28/25 Q1013 NOSIG,0,3.0,0,10000.0,0,0,0,
2026-04-09 21:00:00,METAR DNMM 092100Z COR VRB02KT 9999 TS SCT012 FEW020CB 28/25 Q1013 NOSIG,0,2.0,0,10000.0,1,0,0,TS
2026-04-09 20:00:00,METAR DNMM 092000Z VRB02KT 9999 TS SCT012 FEW020CB 28/25 Q1013 NOSIG,0,2.0,0,10000.0,1,0,0,TS
2026-04-09 19:00:00,METAR DNMM 091900Z 19003KT 9999 SCT013 29/24 Q1012 NOSIG,0,3.0,0,10000.0,0,0,0,
2026-04-09 18:00:00,METAR DNMM 091800Z 17005KT 9999 SCT013 29/24 Q1011 NOSIG,0,5.0,0,10000.0,0,0,0,
2026-04-09 16:00:00,METAR DNMM 091600Z 12009KT 9999 SCT014 32/24 Q1011 NOSIG,0,9.0,0,10000.0,0,0,0,
2026-04-09 15:00:00,METAR DNMM 091500Z 17009KT 9999 SCT014 32/24 Q1011 NOSIG,0,9.0,0,10000.0,0,0,0,
2026-04-09 14:00:00,METAR DNMM 091400Z 18009KT 9999 BKN015 34/23 Q1011 NOSIG,0,9.0,0,10000.0,0,0,0,
2026-04-09 13:00:00,METAR DNMM 091300Z 11014KT 9999 BKN015 34/23 Q1012 NOSIG,0,14.0,0,10000.0,0,0,0,
2026-04-09 12:00:00,METAR DNMM 091200Z 14011K 9999 BKN015 34/23 Q1013 NOSIG,0,11.0,0,10000.0,0,0,0,
2026-04-09 11:00:00,METAR DNMM 091100Z 16008 9999 BKN015 FEW021CB 32/23 Q1013 NOSIG,0,8.0,0,10000.0,0,0,0,
2026-04-09 10:00:00,METAR DNMM 091000Z 17005KT 9999 BKN013 FEW020CB 30/24 Q1014 NOSIG,0,5.0,0,10000.0,0,0,0,
2026-04-09 09:00:00,METAR DNMM 090900Z 18006KT 8000 SCT013 30/24 Q1014 NOSIG,0,6.0,0,8000.0,0,0,0,
2026-04-09 08:00:00,METAR DNMM 090800Z VRB02KT 5000 HZ SCT012 29/26 Q1013 BECMG 7000 NSW,0,2.0,0,5000.0,0,0,0,
2026-04-09 07:00:00,METAR DNMM 090700Z VRB02KT 4500 HZ FEW010 26/25 Q1013 BECMG 5000 HZ,0,2.0,0,4500.0,0,0,0,
2026-04-09 06:00:00,METAR DNMM 090600Z VRB02KT 4000 HZ FEW009 25/24 Q1012 TEMPO 3000 HZ,0,2.0,0,4000.0,0,0,0,
2026-04-09 05:00:00,METAR DNMM 090500Z VRBO2KT 7000 SCT009 25/24 Q1012 TEMPO 5000 HZ,0,2.0,0,7000.0,0,0,0,
2026-04-09 04:00:00,METAR DNMM 090400Z VRBO2KT 7000 FEW010 26/24 Q1011 NOSIG,0,2.0,0,7000.0,0,0,0,
2026-04-09 03:00:00,METAR DNMM 090300Z VRBO2KT 7000 FEW010 26/25 Q1011 NOSIG,0,2.0,0,7000.0,0,0,0,
2026-04-09 02:00:00,METAR DNMM 090200Z VRBO2KT 8000 FEW011 27/24 Q1011 NOSIG,0,2.0,0,8000.0,0,0,0,
2026-04-09 01:00:00,METAR DNMM 090100Z VRBO2KT 9999 FEW011 27/24 Q1012 NOSIG,0,2.0,0,10000.0,0,0,0,
2026-04-09 00:00:00,METAR DNMM 090000Z VRBO2KT 9999 FEW011 27/24 Q1012 NOSIG,0,2.0,0,10000.0,0,0,0,
2026-04-08 23:00:00,METAR DNMM 082300Z VRB02KT 9999 FEW011 27/24 Q1013 NOSIG,0,2.0,0,10000.0,0,0,0,
2026-04-08 22:00:00,METAR DNMM 082200Z VRB02KT 8000 FEW011 27/24 Q1014 NOSIG,0,2.0,0,8000.0,0,0,0,
2026-04-08 21:00:00,METAR DNMM 082100Z 14003KT 8000 FEW012 28/24 Q1014 NOSIG,0,3.0,0,8000.0,0,0,0,
2026-04-08 20:00:00,METAR DNMM 082000Z 21003KT 8000 FEW012 28/24 Q1013 NOSIG,0,3.0,0,8000.0,0,0,0,
2026-04-08 19:00:00,METAR DNMM 081900Z 22004KT 8000 FEW013 FEW020CB 28/24 Q1013 TEMPO 5000 -TSRA,0,4.0,0,8000.0,1,0,0,RA
2026-04-08 18:00:00,METAR DNMM 081800Z 15004KT 8000 FEW013 FEW020CB 29/24 Q1012 TEMPO 5000 -TSRA,0,4.0,0,8000.0,1,0,0,RA
2026-04-08 16:00:00,METAR DNMM 081600Z 08006KT 8000 SCT013 30/25 Q1011 NOSIG,0,6.0,0,8000.0,0,0,0,
2026-04-08 15:00:00,METAR DNMM 081500Z VRB02KT 8000 BKN013 FEW020CB 29/25 Q1011 NOSIG,0,2.0,0,8000.0,0,0,0,
2026-04-08 14:00:00,METAR DNMM 081400Z 17003KT 5000 -RA BKN011 FEW020CB 27/24 Q1011 BECMG 7000 NSW,0,3.0,0,5000.0,0,0,0,-RA
2026-04-08 13:00:00,METAR DNMM 081300Z 13014KT 5000 -RA BKN013 FEW020CB 31/25 Q1012 TEMPO 3000 -TSRA,0,14.0,0,5000.0,1,0,0,"-RA,RA"
2026-04-08 12:00:00,METAR DNMM 081200Z 17007KT 9999 BKN015 FEWCB020CB 33/25 Q1013 NOSIG,0,7.0,0,9999.0,0,0,0,
2026-04-08 11:00:00,METAR DNMM 081100Z 17008KT 9999 SCT014 32/24 Q1013 NOSIG,0,8.0,0,10000.0,0,0,0,
2026-04-08 10:00:00,METAR DNMM 081000Z 19003KT 8000 SCT014 32/25 Q1013 NOSIG,0,3.0,0,8000.0,0,0,0,
2026-04-08 09:00:00,METAR DNMM 080900Z 12006KT 6000 FEW013 30/24 Q1014 NOSIG,0,6.0,0,6000.0,0,0,0,
2026-04-08 08:00:00,METAR DNMM 080800Z 22003KT 5000 HZ FEW012 28/23 Q1012 NOSIG,0,3.0,0,5000.0,0,0,0,
2026-04-08 07:00:00,METAR DNMM 080700Z 19003KT 5000 HZ FEW010 25/23 Q1012 TEMPO 3000 HZ,0,3.0,0,5000.0,0,0,0,
2026-04-08 06:00:00,METAR DNMM 080600Z 18003KT 6000 FEW009 25/23 Q1011 TEMPO 5000 HZ,0,3.0,0,6000.0,0,0,0,
2026-04-08 05:00:00,METAR DNMM 080500Z 00000KT 9999 FEW009 25/23 Q1011 NOSIG,0,0.0,0,10000.0,0,0,0,
2026-04-08 04:00:00,METAR DNMM 080400Z VRB02KT 9999 FEW009 25/23 Q1011 NOSIG,0,2.0,0,10000.0,0,0,0,
2026-04-08 03:00:00,METAR DNMM 080300Z 00000KT 9999 FEW010 26/23 Q1010 NOSIG,0,0.0,0,10000.0,0,0,0,
2026-04-08 02:00:00,METAR DNMM 080200Z 00000KT 9999 FEW011 27/23 Q1011 NOSIG,0,0.0,0,10000.0,0,0,0,
2026-04-08 01:00:00,METAR DNMM 080100Z VRB02KT 9999 FEW011 FEW020CB 27/23 Q1012 NOSIG,0,2.0,0,10000.0,0,0,0,
2026-04-08 00:00:00,METAR DNMM 080000Z 35005KT 9999 TS FEW012 FEW020CB 27/23 Q1014 NOSIG,0,5.0,0,10000.0,1,0,0,TS
2026-04-07 23:00:00,METAR DNMM 072300Z VRB02KT 9999 FEW011 28/25 Q1015 NOSIG RMK CB E-SW TS TO S,0,2.0,0,10000.0,1,0,0,TS
2026-04-07 22:00:00,METAR DNMM 072200Z VRB02KT 9999 FEW011 28/25 Q1014 NOSIG,0,2.0,0,10000.0,0,0,0,
2026-04-07 21:00:00,METAR DNMM 072100Z VRB02KT 9999 FEW012 28/24 Q1013 NOSIG,0,2.0,0,10000.0,0,0,0,
2026-04-07 20:00:00,METAR DNMM 072000Z 19004KT 9999 FEW012 28/24 Q1013 NOSIG,0,4.0,0,10000.0,0,0,0,
2026-04-07 19:00:00,METAR DNMM 071900Z 18004KT 9999 FEW013 29/23 Q1013 NOSIG,0,4.0,0,10000.0,0,0,0,
2026-04-07 18:00:00,METAR DNMM 071800Z 20008KT 9999 FEW013 29/23 Q1010 NOSIG,0,8.0,0,10000.0,0,0,0,
2026-04-07 16:00:00,METAR DNMM 071600Z COR 21005KT 9999 FEW014 32/23 Q1010 NOSIG,0,5.0,0,10000.0,0,0,0,
2026-04-07 15:00:00,METAR DNMM 071500Z 17010KT 9999 SCT014 32/24 Q1011 NOSIG,0,10.0,0,10000.0,0,0,0,
2026-04-07 14:00:00,METAR DNMM 071400Z 19007KT 9999 SCT015 34/25 Q1011 NOSIG,0,7.0,0,10000.0,0,0,0,
2026-04-07 13:00:00,METAR DNMM 071300Z 24005KT 9999 SCT015 34/25 Q1012 NOSIG,0,5.0,0,10000.0,0,0,0,
2026-04-07 12:00:00,METAR DNMM 071200Z 15008KT 9999 SCT014 32/25 Q1014 NOSIG,0,8.0,0,10000.0,0,0,0,
2026-04-07 11:00:00,METAR DNMM 071100Z 18009KT 9999 BKN013 31/25 Q1014 NOSIG,0,9.0,0,10000.0,0,0,0,
2026-04-07 10:00:00,METAR DNMM 071000Z 19009KT 9999 BKN013 31/25 Q1014 NOSIG,0,9.0,0,10000.0,0,0,0,
2026-04-07 09:00:00,METAR DNMM 070900Z 23009KT 9999 BKN013 31/26 Q1014 NOSIG,0,9.0,0,10000.0,0,0,0,
2026-04-07 08:00:00,METAR DNMM 070800Z 23003KT 9999 SCT013 29/26 Q1014 NOSIG,0,3.0,0,10000.0,0,0,0,
2026-04-07 07:00:00,METAR DNMM 070700Z VRB02KT 8000 FEW012 28/26 Q1013 NOSIG,0,2.0,0,8000.0,0,0,0,
2026-04-07 06:00:00,METAR DNMM 070600Z VRB02KT 8000 FEW011 27/26 Q1012 NOSIG,0,2.0,0,8000.0,0,0,0,
2026-04-07 05:00:00,METAR DNMM 070500Z VRB02KT 9999 FEW011 27/26 Q1012 NOSIG,0,2.0,0,10000.0,0,0,0,
2026-04-07 04:00:00,METAR DNMM 070400Z VRB02KT 9999 FEW011 27/26 Q1012 NOSIG,0,2.0,0,10000.0,0,0,0,
2026-04-07 03:00:00,METAR DNMM 070300Z 18004KT 9999 FEW011 27/26 Q1012 NOSIG,0,4.0,0,10000.0,0,0,0,
2026-04-07 02:00:00,METAR DNMM 070200Z 17003KT 9999 FEW011 27/26 Q1012 NOSIG,0,3.0,0,10000.0,0,0,0,
2026-04-07 01:00:00,METAR DNMM 070100Z 18004KT 9999 FEW012 28/25 Q1013 NOSIG,0,4.0,0,10000.0,0,0,0,
2026-04-07 00:00:00,METAR DNMM 070000Z 20004KT 9999 FEW012 28/25 Q1013 NOSIG,0,4.0,0,10000.0,0,0,0,
2026-04-06 23:00:00,METAR DNMM 062300Z VRB02KT 9999 FEW012 28/25 Q1014 NOSIG,0,2.0,0,10000.0,0,0,0,
2026-04-06 22:00:00,METAR DNMM 062200Z 20004KT 9999 FEW012 28/25 Q1014 NOSIG,0,4.0,0,10000.0,0,0,0,
2026-04-06 21:00:00,METAR DNMM 062100Z 18005KT 9999 FEW013 29/24 Q1013 NOSIG,0,5.0,0,10000.0,0,0,0,
2026-04-06 20:00:00,METAR DNMM 062000Z 17005KT 9999 FEW013 29/24 Q1013 NOSIG,0,5.0,0,10000.0,0,0,0,
2026-04-06 19:00:00,METAR DNMM 061900Z 18005KT 9999 FEW013 29/25 Q1012 NOSIG,0,5.0,0,10000.0,0,0,0,
2026-04-06 18:00:00,METAR DNMM 061800Z 16008KT 9999 FEW013 29/25 Q1011 NOSIG,0,8.0,0,10000.0,0,0,0,
2026-04-06 17:00:00,METAR DNMM 061700Z 18009KT 9999 SCT014 31/25 Q1011 NOSIG,0,9.0,0,10000.0,0,0,0,
2026-04-06 16:00:00,METAR DNMM 061600Z 13009KT 8000 SCT014 FEW021CB 32/25 Q1011 NOSIG,0,9.0,0,8000.0,0,0,0,
2026-04-06 14:00:00,METAR DNMM 061400Z 16008KT 8000 BKN015 FEW022CB 33/25 Q1011 NOSIG,0,8.0,0,8000.0,0,0,0,
2026-04-06 13:00:00,METAR DNMM 061300Z 17007KT 8000 BKN015 FEW022CB 33/25 Q1012 NOSIG,0,7.0,0,8000.0,0,0,0,
2026-04-06 12:00:00,METAR DNMM 061200Z 14007KT 8000 BKN014 FEW021CB 32/26 Q1014 NOSIG,0,7.0,0,8000.0,0,0,0,
2026-04-06 11:00:00,METAR DNMM 061100Z 16006KT 8000 BKN014 FEW021CB 31/26 Q1014 NOSIG,0,6.0,0,8000.0,0,0,0,
2026-04-06 10:00:00,METAR DNMM 061000Z 20006KT 8000 BKN014 FEW020CB 31/26 Q1015 NOSIG,0,6.0,0,8000.0,0,0,0,
2026-04-06 09:00:00,METAR DNMM 060900Z 13005KT 9999 BKN013 30/26 Q1015 TEMPO 8000 BKN013 FEW020CB,0,5.0,0,10000.0,0,0,0,
2026-04-06 08:00:00,METAR DNMM 060800Z 20004KT 9999 SCT013 30/26 Q1014 NOSIG,0,4.0,0,10000.0,0,0,0,
2026-04-06 07:00:00,METAR DNMM 060700Z 00000KT 9999 SCT012 28/25 Q1014 NOSIG,0,0.0,0,10000.0,0,0,0,
2026-04-06 06:00:00,METAR DNMM 060600Z 00000KT 9999 SCT011 27/25 Q1012 NOSIG,0,0.0,0,10000.0,0,0,0,
2026-04-06 05:00:00,METAR DNMM 060500Z 00000KT 9999 SCT011 27/25 Q1012 NOSIG,0,0.0,0,10000.0,0,0,0,
2026-04-06 04:00:00,METAR DNMM 060400Z 21003KT 9999 FEW011 27/25 Q1011 NOSIG,0,3.0,0,10000.0,0,0,0,
2026-04-06 03:00:00,METAR DNMM 060300Z 17003KT 9999 FEW011 27/25 Q1011 NOSIG,0,3.0,0,10000.0,0,0,0,
2026-04-06 02:00:00,METAR DNMM 060200Z 21003KT 9999 FEW012 28/25 Q1012 NOSIG,0,3.0,0,10000.0,0,0,0,
2026-04-06 01:00:00,METAR DNMM 060100Z 19003KT 9999 FEW012 28/26 Q1012 NOSIG,0,3.0,0,10000.0,0,0,0,
2026-04-06 00:00:00,METAR DNMM 060000Z 23004KT 9999 FEW012 28/26 Q1013 NOSIG,0,4.0,0,10000.0,0,0,0,
2026-04-05 23:00:00,METAR DNMM 052300Z 17003KT 9999 FEW012 28/26 Q1013 NOSIG,0,3.0,0,10000.0,0,0,0,
2026-04-05 22:00:00,METAR DNMM 052200Z 20003KT 9999 FEW012 28/26 Q1013 NOSIG,0,3.0,0,10000.0,0,0,0,
2026-04-05 21:00:00,METAR DNMM 052100Z 20004KT 9999 SCT012 28/26 Q1012 NOSIG,0,4.0,0,10000.0,0,0,0,
2026-04-05 20:00:00,METAR DNMM 052000Z VRB02KT 9999 TS SCT012 FEW020CB 28/26 Q1012 NOSIG,0,2.0,0,10000.0,1,0,0,TS
2026-04-05 19:00:00,METAR DNMM 051900Z 20004KT 9999 TS SCT013 FEW020CB 29/26 Q1012 TEMPO 5000 -TSRA,0,4.0,0,10000.0,1,0,0,"RA,TS"
2026-04-05 18:00:00,METAR DNMM 051800Z 18006KT 9999 SCT012 FEW020CB 29/25 Q1012 TEMPO TS,0,6.0,0,10000.0,1,0,0,TS
2026-04-05 17:00:00,METAR DNMM 051700Z 26006KT 9999 SCT013 FEW020CB 31/25 Q1010 TEMPO TS,0,6.0,0,10000.0,1,0,0,TS
2026-04-05 15:00:00,METAR DNMM 051500Z 19007KT 9999 SCT014 32/25 Q1010 NOSIG,0,7.0,0,10000.0,0,0,0,
2026-04-05 14:00:00,METAR DNMM 051400Z COR 18007KT 9999 SCT014 32/25 Q1011 NOSIG,0,7.0,0,10000.0,0,0,0,
2026-04-05 13:00:00,METAR DNMM 051300Z 22008KT 9999 SCT015 33/25 Q1012 NOSIG,0,8.0,0,10000.0,0,0,0,
2026-04-05 12:00:00,METAR DNMM 051200Z 19006KT 9999 SCT014 32/25 Q1013 NOSIG,0,6.0,0,10000.0,0,0,0,
2026-04-05 11:00:00,METAR DNMM 051100Z 22005KT 9999 SCT014 32/25 Q1014 NOSIG,0,5.0,0,10000.0,0,0,0,
2026-04-05 10:00:00,METAR DNMM 051000Z 21004KT 9999 SCT013 30/26 Q1015 NOSIG,0,4.0,0,10000.0,0,0,0,
2026-04-05 09:00:00,METAR DNMM 050900Z 29003KT 9999 SCT013 29/25 Q1015 NOSIG,0,3.0,0,10000.0,0,0,0,
2026-04-05 08:00:00,METAR DNMM 050800Z 25004KT 7000 SCT011 27/24 Q1015 TEMPO 5000 HZ,0,4.0,0,7000.0,0,0,0,
2026-04-05 07:00:00,METAR DNMM 050700Z 26004KT 7000 SCT011 27/24 Q1014 TEMPO 5000 HZ,0,4.0,0,7000.0,0,0,0,
2026-04-05 06:00:00,METAR DNMM 050600Z VRB02KT 7000 FEW010 26/25 Q1013 TEMPO 5000 HZ,0,2.0,0,7000.0,0,0,0,
2026-04-05 05:00:00,METAR DNMM 050500Z VRB02KT 8000 FEW010 26/25 Q1012 NOSIG,0,2.0,0,8000.0,0,0,0,
2026-04-05 04:00:00,METAR DNMM 050400Z 00000KT 8000 FEW010 26/25 Q1012 NOSIG,0,0.0,0,8000.0,0,0,0,
2026-04-05 03:00:00,METAR DNMM 050300Z VRB02KT 9999 FEW010 26/25 Q1012 NOSIG,0,2.0,0,10000.0,0,0,0,
2026-04-05 02:00:00,METAR DNMM 050200Z VRB02KT 9999 FEW011 27/24 Q1012 NOSIG,0,2.0,0,10000.0,0,0,0,
2026-04-05 01:00:00,METAR DNMM 050100Z VRB02KT 9999 FEW011 27/25 Q1013 NOSIG,0,2.0,0,10000.0,0,0,0,
2026-04-05 00:00:00,METAR DNMM 050000Z VRB02KT 9999 FEW011 27/25 Q1014 NOSIG,0,2.0,0,10000.0,0,0,0,
2026-04-04 23:00:00,METAR DNMM 042300Z VRB02KT 9999 FEW011 27/25 Q1014 NOSIG,0,2.0,0,10000.0,0,0,0,
2026-04-04 22:00:00,METAR DNMM 042200Z VRB02KT 9999 SCT012 28/25 Q1015 NOSIG,0,2.0,0,10000.0,0,0,0,
2026-04-04 21:00:00,METAR DNMM 042100Z 26003KT 9999 SCT012 28/25 Q1014 NOSIG,0,3.0,0,10000.0,0,0,0,
2026-04-04 20:00:00,METAR DNMM 042000Z 24003KT 9999 SCT012 28/24 Q1014 NOSIG,0,3.0,0,10000.0,0,0,0,
2026-04-04 19:00:00,METAR DNMM 041900Z 23004KT 9999 SCT012 28/25 Q1013 NOSIG,0,4.0,0,10000.0,0,0,0,
2026-04-04 18:00:00,METAR DNMM 041800Z 15005KT 9999 TS SCT013 FEW020CB 29/24 Q1012 NOSIG,0,5.0,0,10000.0,1,0,0,TS
2026-04-04 17:00:00,METAR DNMM 041700Z 21009KT 9999 TS SCT013 FEW020CB 30/23 Q1011 TEMPO 5000 -TSRA,0,9.0,0,10000.0,1,0,0,"RA,TS"
2026-04-04 16:00:00,METAR DNMM 041600Z 19008KT 9999 TS SCT014 FEW020CB 32/24 Q1011 TEMPO 5000 -TSRA,0,8.0,0,10000.0,1,0,0,"RA,TS"
2026-04-04 15:00:00,METAR DNMM 041500Z 18007KT 9999 BKN015 FEW020CB 33/24 Q1011 NOSIG,0,7.0,0,10000.0,0,0,0,
2026-04-04 14:00:00,METAR DNMM 041400Z 18005KT 9999 BKN015 FEW020CB 34/25 Q1012 NOSIG,0,5.0,0,10000.0,0,0,0,
2026-04-04 13:00:00,METAR DNMM 041300Z 20004KT 9999 SCT015 34/24 Q1013 NOSIG,0,4.0,0,10000.0,0,0,0,
2026-04-04 12:00:00,METAR DNMM 041200Z 18007KT 9999 SCT015 33/24 Q1015 NOSIG,0,7.0,0,10000.0,0,0,0,
2026-04-04 11:00:00,METAR DNMM 041100Z 23006KT 9999 SCT014 32/25 Q1016 NOSIG,0,6.0,0,10000.0,0,0,0,
2026-04-04 10:00:00,METAR DNMM 041000Z 25005KT 8000 SCT014 31/25 Q1016 NOSIG,0,5.0,0,8000.0,0,0,0,
2026-04-04 09:00:00,METAR DNMM 040900Z 23003KT 8000 SCT013 30/26 Q1015 NOSIG,0,3.0,0,8000.0,0,0,0,
2026-04-04 08:00:00,METAR DNMM 040800Z VRB02KT 5000 HZ SCT012 28/25 Q1015 BECMG 7000 NSW,0,2.0,0,5000.0,0,0,0,
2026-04-04 07:00:00,METAR DNMM 040700Z VRB02KT 5000 HZ FEW010 26/25 Q1014 TEMPO 3000 HZ,0,2.0,0,5000.0,0,0,0,
2026-04-04 06:00:00,METAR DNMM 040600Z VRB02KT 7000 SCT010 25/25 Q1014 TEMPO 5000 HZ,0,2.0,0,7000.0,0,0,0,
2026-04-04 05:00:00,METAR DNMM 040500Z 00000KT 9999 FEW010 26/24 Q1013 NOSIG,0,0.0,0,10000.0,0,0,0,
2026-04-04 04:00:00,METAR DNMM 040400Z 00000KT 9999 FEW010 26/24 Q1014 NOSIG,0,0.0,0,10000.0,0,0,0,
2026-04-04 03:00:00,METAR DNMM 040300Z VRB02KT 9999 FEW010 26/24 Q1014 NOSIG,0,2.0,0,10000.0,0,0,0,
2026-04-04 02:00:00,METAR DNMM 040200Z 00000KT 9999 FEW011 27/24 Q1014 NOSIG,0,0.0,0,10000.0,0,0,0,
2026-04-04 01:00:00,METAR DNMM 040100Z 00000KT 9999 SCT011 27/24 Q1015 NOSIG,0,0.0,0,10000.0,0,0,0,
2026-04-04 00:00:00,METAR DNMM 040000Z VRB02KT 9999 SCT011 27/24 Q1016 NOSIG,0,2.0,0,10000.0,0,0,0,
2026-04-03 23:00:00,METAR DNMM 032300Z VRB02KT 9999 SCT011 27/24 Q1016 NOSIG,0,2.0,0,10000.0,0,0,0,
2026-04-03 22:00:00,METAR DNMM 032200Z 17003KT 9999 SCT011 27/24 Q1016 NOSIG,0,3.0,0,10000.0,0,0,0,
2026-04-03 21:00:00,METAR DNMM 032100Z 21003KT 9999 SCT011 27/24 Q1015 NOSIG,0,3.0,0,10000.0,0,0,0,
2026-04-03 20:00:00,METAR DNMM 032000Z 16005KT 9999 SCT012 28/24 Q1015 NOSIG,0,5.0,0,10000.0,0,0,0,
2026-04-03 19:00:00,METAR DNMM 031900Z 21006KT 9999 SCT012 28/24 Q1014 NOSIG,0,6.0,0,10000.0,0,0,0,
2026-04-03 18:00:00,METAR DNMM 031800Z 20007KT 9999 SCT013 29/25 Q1013 NOSIG,0,7.0,0,10000.0,0,0,0,
2026-04-03 17:00:00,METAR DNMM 031700Z 16004KT 9999 BKN013 30/24 Q1012 NOSIG,0,4.0,0,10000.0,0,0,0,
2026-04-03 16:00:00,METAR DNMM 031600Z 20009KT 9999 BKN014 31/25 Q1012 NOSIG,0,9.0,0,10000.0,0,0,0,
2026-04-03 15:00:00,METAR DNMM 031500Z 21008KT 9999 BKN014 31/24 Q1012 NOSIG,0,8.0,0,10000.0,0,0,0,
2026-04-03 14:00:00,METAR DNMM 031400Z 21007KT 9999 BKN015 32/23 Q1012 NOSIG,0,7.0,0,10000.0,0,0,0,
2026-04-03 13:00:00,METAR DNMM 031300Z 19007KT 9999 BKN015 33/24 Q1013 NOSIG,0,7.0,0,10000.0,0,0,0,
2026-04-03 12:00:00,METAR DNMM 031200Z 18006KT 9999 BKN015 33/24 Q1014 NOSIG,0,6.0,0,10000.0,0,0,0,
2026-04-03 11:00:00,METAR DNMM 031100Z 22007KT 9999 BKN014 32/25 Q1015 NOSIG,0,7.0,0,10000.0,0,0,0,
2026-04-03 10:00:00,METAR DNMM 031000Z 18006KT 9999 SCT013 30/25 Q1015 NOSIG,0,6.0,0,10000.0,0,0,0,
2026-04-03 09:00:00,METAR DNMM 030900Z 21006KT 8000 FEW013 29/25 Q1015 NOSIG,0,6.0,0,8000.0,0,0,0,
2026-04-03 08:00:00,METAR DNMM 030800Z 19004KT 8000 FEW011 27/24 Q1014 NOSIG,0,4.0,0,8000.0,0,0,0,
2026-04-03 07:00:00,METAR DNMM 030700Z 17005KT 6000 FEW010 26/25 Q1013 BECMG 7000 NSW,0,5.0,0,6000.0,0,0,0,
2026-04-03 06:00:00,METAR DNMM 030600Z VRB02KT 5000 HZ FEW009 25/24 Q1012 TEMPO 3000 HZ,0,2.0,0,5000.0,0,0,0,
2026-04-03 05:00:00,METAR DNMM 030500Z VRB02KT 7000 FEW009 25/24 Q1012 TEMPO 5000 HZ,0,2.0,0,7000.0,0,0,0,
2026-04-03 04:00:00,METAR DNMM 030400Z VRB02KT 8000 FEW009 25/24 Q1012 NOSIG,0,2.0,0,8000.0,0,0,0,
2026-04-03 03:00:00,METAR DNMM 030300Z VRB02KT 8000 FEW009 25/24 Q1012 NOSIG,0,2.0,0,8000.0,0,0,0,
2026-04-03 02:00:00,METAR DNMM 030200Z VRB02KT 8000 FEW009 25/24 Q1012 NOSIG,0,2.0,0,8000.0,0,0,0,
2026-04-03 00:00:00,METAR DNMM 030000Z 29003KT 9999 FEW009 25/24 Q1013 NOSIG,0,3.0,0,10000.0,0,0,0,
2026-04-02 23:00:00,METAR DNMM 022300Z COR 32004KT 9999 FEW009 25/24 Q1014 NOSIG,0,4.0,0,10000.0,0,0,0,
2026-04-02 22:00:00,METAR DNMM 022200Z 31003KT 9999 FEW009 25/23 Q1014 NOSIG,0,3.0,0,10000.0,0,0,0,
2026-04-02 21:00:00,METAR DNMM 022100Z 32005KT 8000 FEW009 25/23 Q1014 NOSIG,0,5.0,0,8000.0,0,0,0,
2026-04-02 20:00:00,METAR DNMM 022000Z 16007KT 8000 FEW009 25/23 Q1013 NOSIG,0,7.0,0,8000.0,0,0,0,
2026-04-02 19:00:00,METAR DNMM 021900Z 20007KT 8000 TS FEW010 FEW020CB 26/23 Q1013 NOSIG,0,7.0,0,8000.0,1,0,0,TS
2026-04-02 18:00:00,METAR DNMM 021800Z 20008KT 8000 TS BKN010 FEW020CB 26/22 Q1013 TEMPO 5000 -TSRA,0,8.0,0,8000.0,1,0,0,"RA,TS"
2026-04-02 17:00:00,METAR DNMM 021700Z 20012KT 8000 BKN012 FEW020CB 28/25 Q1013 TEMPO TS,0,12.0,0,8000.0,1,0,0,TS
2026-04-02 16:00:00,METAR DNMM 021600Z 11006KT 8000 BKN012 28/24 Q1012 NOSIG,0,6.0,0,8000.0,0,0,0,
2026-04-02 15:00:00,METAR DNMM 021500Z 12006KT 8000 BKN011 27/24 Q1012 NOSIG,0,6.0,0,8000.0,0,0,0,
2026-04-02 14:00:00,METAR DNMM 021400Z 14004KT 8000 BKN010 FEW020CB 26/24 Q1012 NOSIG,0,4.0,0,8000.0,0,0,0,
2026-04-02 13:00:00,METAR DNMM 021300Z 19005KT 5000 TS HZ BKN010 FEW020CB 26/24 Q1013 BECMG 7000 NSW,0,5.0,0,5000.0,1,0,0,TS
2026-04-02 12:00:00,METAR DNMM 021200Z 16006KT 5000 -TSRA BKN010 FEW020CB 26/24 Q1014 TEMPO 3000 -TSRA,0,6.0,0,5000.0,1,0,0,RA
2026-04-02 11:00:00,METAR DNMM 021100Z 20005KT 7000 TS BKN013 FEW020CB 31/25 Q1014 TEMPO 5000 -TSRA,0,5.0,0,7000.0,1,0,0,"RA,TS"
2026-04-02 10:00:00,METAR DNMM 021000Z 21005KT 9999 BKN013 FEW020CB 30/25 Q1014 NOSIG,0,5.0,0,10000.0,0,0,0,
2026-04-02 09:00:00,METAR DNMM 020900Z VRB02KT 9999 BKN013 FEW020CB 29/26 Q1014 NOSIG,0,2.0,0,10000.0,0,0,0,
2026-04-02 08:00:00,METAR DNMM 020800Z 00000KT 9999 SCT012 28/26 Q1013 NOSIG,0,0.0,0,10000.0,0,0,0,
2026-04-02 06:00:00,METAR DNMM 020600Z 00000KT 9999 SCT010 26/25 Q1011 TEMPO 5000 -TSRA BKN010 FEW020CB,0,0.0,0,10000.0,1,0,0,RA
2026-04-02 05:00:00,METAR DNMM 020500Z VRB02KT 9999 FEW010 26/25 Q1011 NOSIG,0,2.0,0,10000.0,0,0,0,
2026-04-02 04:00:00,METAR DNMM 020400Z 00000KT 9999 FEW011 27/25 Q1011 NOSIG,0,0.0,0,10000.0,0,0,0,
2026-04-02 02:00:00,METAR DNMM 020200Z 00000KT 9999 FEW011 27/25 Q1011 NOSIG,0,0.0,0,10000.0,0,0,0,
2026-04-02 01:00:00,METAR DNMM 020100Z VRB02KT 9999 FEW011 27/25 Q1011 NOSIG,0,2.0,0,10000.0,0,0,0,
2026-04-02 00:00:00,METAR DNMM 020000Z VRB02KT 9999 FEW011 27/25Q1012 NOSIG,0,2.0,0,9999.0,0,0,0,
2026-04-01 23:00:00,METAR DNMM 012300Z VRB02KT 9999 FEW011 27/25 Q1012 NOSIG,0,2.0,0,10000.0,0,0,0,
2026-04-01 22:00:00,METAR DNMM 012200Z VRB02KT 9999 FEW012 28/25 Q1012 NOSIG,0,2.0,0,10000.0,0,0,0,
2026-04-01 21:00:00,METAR DNMM 012100Z 18003KT 9999 FEW012 28/25 Q1011 NOSIG,0,3.0,0,10000.0,0,0,0,
2026-04-01 20:00:00,METAR DNMM 012000Z 20004KT 9999 FEW012 28/25 Q1010 NOSIG,0,4.0,0,10000.0,0,0,0,
2026-04-01 18:00:00,METAR DNMM 011800Z 17005KT 9999 FEW013 29/25 Q1009 TEMPO TS FEW013 FEW020CB,0,5.0,0,10000.0,1,0,0,TS
2026-04-01 17:00:00,METAR DNMM 011700Z 16005KT 9999 FEW013 FEW020CB 31/25 Q1008 NOSIG,0,5.0,0,10000.0,0,0,0,
2026-04-01 16:00:00,METAR DNMM 011600Z 18005KT 9999 SCT015 FEW022CB 33/24 Q1008 NOSIG,0,5.0,0,10000.0,0,0,0,
2026-04-01 15:00:00,METAR DNMM 011500Z 17009KT 9999 BKN015 FEW022CB 33/24 Q1009 NOSIG,0,9.0,0,10000.0,0,0,0,
2026-04-01 13:00:00,METAR DNMM 011300Z 17010KT 9999 BKN015 FEW022CB 33/25 Q1010 NOSIG,0,10.0,0,10000.0,0,0,0,
2026-04-01 12:00:00,METAR DNMM 011200Z 18008KT 9999 BKN014 FEW021CB 32/25 Q1011 NOSIG,0,8.0,0,10000.0,0,0,0,
2026-04-01 11:00:00,METAR DNMM 011100Z 27003KT 9999 SCT015 33/24 Q1012 BECMG BKN015 FEW020CB,0,3.0,0,10000.0,0,0,0,
2026-04-01 09:00:00,METAR DNMM 010900Z 18005KT 9999 SCT013 30/24 Q1013 BECMG BKN013 FEW020CB,0,5.0,0,10000.0,0,0,0,
2026-04-01 08:00:00,METAR DNMM 010800Z VRB02KT 7000 FEW011 27/25 Q1012 NOSIG,0,2.0,0,7000.0,0,0,0,
2026-04-01 07:00:00,METAR DNMM 010700Z VRB02KT 7000 FEW009 25/24 Q1011 TEMPO NOSIG,0,2.0,0,7000.0,0,0,0,
2026-04-01 06:00:00,METAR DNMM 010600Z VRB02KT 5000 HZ FEW009 24/23 Q1010 TEMPO 3000 HZ,0,2.0,0,5000.0,0,0,0,
2026-04-01 05:00:00,METAR DNMM 010500Z COR VRB02KT 8000 FEW009 24/23 Q1010 NOSIG,0,2.0,0,8000.0,0,0,0,
2026-04-01 04:00:00,METAR DNMM 010400Z COR VRB02KT 8000 FEW009 25/24 Q1009 NOSIG,0,2.0,0,8000.0,0,0,0,
2026-04-01 03:00:00,METAR DNMM 010300Z 35003KT 8000 FEW009 25/24 Q1009 NOSIG,0,3.0,0,8000.0,0,0,0,
2026-04-01 02:00:00,METAR DNMM 010200Z COR 30003KT 8000 FEW009 25/24 Q1010 NOSIG,0,3.0,0,8000.0,0,0,0,
2026-04-01 00:00:00,METAR DNMM 010000Z 26004KT 9999 FEW011 25/24 Q1011 NOSIG,0,4.0,0,10000.0,0,0,0,
2026-03-31 21:00:00,METAR DNMM 312100Z VRB02KT 9999 FEW011 26/23 Q1012 NOSIG,0,2.0,0,9999.0,0,0,0,
2026-03-31 20:00:00,METAR DNMM 312000Z VRB02KT 9999 FEW011 26/23 Q1012 NOSIG,0,2.0,0,9999.0,0,0,0,
2026-03-31 19:00:00,METAR DNMM 311900Z VRB02KT 9999 FEW011 27/23 Q1011 NOSIG,0,2.0,0,9999.0,0,0,0,
2026-03-31 14:00:00,METAR DNMM 311400Z 10005KT 9999 TS BKN009 FEW019CB 27/24 Q1011 NOSIG,0,5.0,0,9999.0,1,0,0,TS
2026-03-31 13:00:00,METAR DNMM 311300Z 11007KT 8000 -TSRA BKN009 FEW019CB 25/24 Q1012 NOSIG,0,7.0,0,8000.0,1,0,0,RA
2026-03-31 12:00:00,METAR DNMM 311200Z 15009KT 3000 -TSRA BKN008 FEW018CB 24/23 Q1014 TEMPO 5000 -TSRA,0,9.0,0,3000.0,1,0,0,RA
2026-03-31 11:00:00,METAR DNMM 311100Z 12014KT 3000 1000SW -TSRA BKN013 FEW020CB 29/24 Q1013 TEMPO 1500 TSRA,0,14.0,0,3000.0,1,0,0,"RA,TS"
2026-03-31 10:00:00,METAR DNMM 311000Z 29004KT 9999 BKN014 FEW021CB 32/25 Q1013 TEMPO 5000 -TSRA,0,4.0,0,9999.0,1,0,0,RA
2026-03-31 09:00:00,METAR DNMM 310900Z 33003KT 9999 SCT013 30/25 Q1013 NOSIG,0,3.0,0,9999.0,0,0,0,
2026-03-31 08:00:00,METAR DNMM 310800Z 03003KT 8000 SCT013 29/26 Q1012 NOSIG,0,3.0,0,8000.0,0,0,0,
2026-03-31 06:00:00,METAR DNMM 310600Z 00000KT 8000 FEW011 27/25 Q1011 NOSIG,0,0.0,0,8000.0,0,0,0,
2026-03-30 23:00:00,METAR DNMM 302300Z 25003KT 9999 FEW012 28/25 Q1012 NOSIG,0,3.0,0,10000.0,0,0,0,
2026-03-30 19:00:00,METAR DNMM 301900Z 21007KT 9999 FEW013 29/24 Q1010 NOSIG,0,7.0,0,10000.0,0,0,0,
2026-03-30 14:00:00,METAR DNMM 301400Z 18011KT 9999 SCT016 34/21 Q1009 NOSIG,0,11.0,0,10000.0,0,0,0,
2026-03-30 13:00:00,METAR DNMM 301300Z 16010KT 9999 SCT016 34/21 Q1011 NOSIG,0,10.0,0,10000.0,0,0,0,
2026-03-30 12:00:00,METAR DNMM 301200Z 17009KT 9999 SCT016 34/22 Q1011 NOSIG,0,9.0,0,10000.0,0,0,0,
2026-03-30 11:00:00,METAR DNMM 301100Z 18006KT 9999 SCT015 33/21 Q1012 NOSIG,0,6.0,0,10000.0,0,0,0,
2026-03-30 10:00:00,METAR DNMM 301000Z 19010KT 9999 SCT015 33/22 Q1012 NOSIG,0,10.0,0,10000.0,0,0,0,
2026-03-30 09:00:00,METAR DNMM 300900Z 14009KT 9999 SCT014 31/23 Q1013 NOSIG,0,9.0,0,10000.0,0,0,0,
2026-03-30 08:00:00,METAR DNMM 300800Z 19008KT 9999 FEW013 29/24 Q1012 NOSIG,0,8.0,0,10000.0,0,0,0,
2026-03-30 07:00:00,METAR DNMM 300700Z 18004KT 8000 FEW008 26/24 Q1012 NOSIG,0,4.0,0,8000.0,0,0,0,
2026-03-30 06:00:00,METAR DNMM 300600Z 00000KT 8000 FEW008 25/24 Q1011 NOSIG,0,0.0,0,8000.0,0,0,0,
2026-03-30 05:00:00,METAR DNMM 300500Z 00000KT 8000 FEW008 25/24 Q1010 NOSIG,0,0.0,0,8000.0,0,0,0,
2026-03-30 04:00:00,METAR DNMM 300400Z 00000KT 9999 FEW008 25/24 Q1010 NOSIG,0,0.0,0,10000.0,0,0,0,
2026-03-30 03:00:00,METAR DNMM 300300Z 00000KT 9999 FEW009 26/24 Q1009 NOSIG,0,0.0,0,10000.0,0,0,0,
2026-03-30 02:00:00,METAR DNMM 300200Z VRB02KT 9999 FEW009 26/25 Q1009 NOSIG,0,2.0,0,10000.0,0,0,0,
2026-03-30 01:00:00,METAR DNMM 300100Z VRB02KT 9999 FEW009 26/25 Q1010 NOSIG,0,2.0,0,10000.0,0,0,0,
2026-03-30 00:00:00,METAR DNMM 300000Z VRB02KT 9999 FEW009 26/24 Q1011 NOSIG,0,2.0,0,10000.0,0,0,0,
2026-03-29 23:00:00,METAR DNMM 292300Z 17003KT 9999 FEW009 26/24 Q1011 NOSIG,0,3.0,0,10000.0,0,0,0,
2026-03-29 22:00:00,METAR DNMM 292200Z VRB02KT 9999 FEW009 27/24 Q1011 NOSIG,0,2.0,0,10000.0,0,0,0,
2026-03-29 21:00:00,METAR DNMM 292100Z VRB02KT 9999 FEW009 27/24 Q1011 NOSIG,0,2.0,0,10000.0,0,0,0,
2026-03-29 20:00:00,METAR DNMM 292000Z VRB02KT 9999 FEW009 27/24 Q1010 NOSIG,0,2.0,0,10000.0,0,0,0,
2026-03-29 19:00:00,METAR DNMM 291900Z 15004KT 9999 FEW010 28/24 Q1010 NOSIG,0,4.0,0,10000.0,0,0,0,
2026-03-29 18:00:00,METAR DNMM 291800Z VRB02KT 9999 FEW011 29/24 Q1009 NOSIG,0,2.0,0,10000.0,0,0,0,
2026-03-29 17:00:00,METAR DNMM 291700Z 15004KT 9999 SCT013 31/23 Q1008 NOSIG,0,4.0,0,10000.0,0,0,0,
2026-03-29 16:00:00,METAR DNMM 291600Z 15006KT 9999 SCT013 31/24 Q1008 NOSIG,0,6.0,0,10000.0,0,0,0,
2026-03-29 15:00:00,METAR DNMM 291500Z 16005KT 9999 SCT015 33/22 Q1008 NOSIG,0,5.0,0,10000.0,0,0,0,
2026-03-29 14:00:00,METAR DNMM 291400Z 25005KT 9999 SCT015 33/21 Q1009 NOSIG,0,5.0,0,10000.0,0,0,0,
2026-03-29 13:00:00,METAR DNMM 291300Z 22004KT 9999 SCT015 33/22 Q1010 NOSIG,0,4.0,0,10000.0,0,0,0,
2026-03-29 12:00:00,METAR DNMM 291200Z 26007KT 9999 SCT014 31/21 Q1011 NOSIG,0,7.0,0,10000.0,0,0,0,
2026-03-29 11:00:00,METAR DNMM 291100Z 32004KT 8000 SCT013 30/22 Q1012 NOSIG,0,4.0,0,8000.0,0,0,0,
2026-03-29 10:00:00,METAR DNMM 291000Z 11004KT 8000 SCT011 27/22 Q1013 NOSIG,0,4.0,0,8000.0,0,0,0,
2026-03-29 09:00:00,METAR DNMM 290900Z 16005KT 7000 FEW010 25/23 Q1013 NOSIG,0,5.0,0,7000.0,0,0,0,
2026-03-29 08:00:00,METAR DNMM 290800Z VRB02KT 7000 FEW009 24/23 Q1013 NOSIG,0,2.0,0,7000.0,0,0,0,
2026-03-29 07:00:00,METAR DNMM 290700Z VRB02KT 7000 SCT008 24/22 Q1012 NOSIG,0,2.0,0,7000.0,0,0,0,
2026-03-29 06:00:00,METAR DNMM 290600Z VRB02KT 7000 TS SCT007 FEW017VCFG BKN008 SCT060 16/15 Q1021,0,2.0,0,7000.0,1,0,1,"FG,TS"
2026-03-29 05:00:00,METAR DNMM 290500Z VRB02KT 8000 TS SCT007 FEW017CB 23/22 Q1012 NOSIG,0,2.0,0,8000.0,1,0,0,TS
2026-03-29 04:00:00,METAR DNMM 290400Z 18004KT 8000 -TSRA FEW007 FEW017CB 23/22 Q1011 NOSIG,0,4.0,0,8000.0,1,0,0,RA
2026-03-29 03:00:00,METAR DNMM 290300Z 18005KT 8000 -TSRA FEW007 FEW017CB 23/22 Q1010 NOSIG,0,5.0,0,8000.0,1,0,0,RA
2026-03-29 02:00:00,METAR DNMM 290200Z 28008KT 6000 -TSRA SCT008 FEW018CB 23/22 Q1010 NOSIG,0,8.0,0,6000.0,1,0,0,RA
2026-03-29 01:00:00,METAR DNMM 290100Z 29006KT 7000 -TSRA BKN007 FEW018CB 23/22 Q1012 NOSIG,0,6.0,0,7000.0,1,0,0,RA
2026-03-29 00:00:00,METAR DNMM 290000Z 31006KT 4000 -TSRA BKN007 FEW018CB 23/23 Q1014 TEMPO 5000 -TSRA,0,6.0,0,4000.0,1,0,0,RA
2026-03-28 23:00:00,METAR DNMM 282300Z 04007KT 4000 -TSRA BKN008 FEW018CB 24/23 Q1015 TEMPO 5000 -TSRA,0,7.0,0,4000.0,1,0,0,RA
2026-03-28 22:00:00,METAR DNMM 282200Z 11016KT 7000 TS BKN011 FEW020CB 27/24 Q1015 TEMPO 5000 -TSRA,0,16.0,0,7000.0,1,0,0,"RA,TS"
2026-03-28 21:00:00,METAR DNMM 282100Z 13015G25KT 7000 TS BKN013 FEW020CB 29/24 Q1012 TEMPO 5000 -TSRA,0,15.0,1,7000.0,1,0,0,"RA,TS"
2026-03-28 20:00:00,METAR DNMM 282000Z 18009KT 8000 FEW013 29/24 Q1011 NOSIG,0,9.0,0,8000.0,0,0,0,
2026-03-28 19:00:00,METAR DNMM 281900Z 19010KT 8000 FEW013 29/24 Q1011 NOSIG,0,10.0,0,8000.0,0,0,0,
2026-03-28 18:00:00,METAR DNMM 281800Z 20011KT 8000 FEW013 30/24 Q1009 NOSIG,0,11.0,0,8000.0,0,0,0,
2026-03-28 17:00:00,METAR DNMM 281700Z 24012KT 9999 FEW013 30/23 Q1008 NOSIG,0,12.0,0,10000.0,0,0,0,
2026-03-28 16:00:00,METAR DNMM 281600Z 18012KT 9999 FEW014 32/23 Q1009 NOSIG,0,12.0,0,10000.0,0,0,0,
2026-03-28 15:00:00,METAR DNMM 281500Z 22011KT 9999 SCT016 34/23 Q1008 NOSIG,0,11.0,0,10000.0,0,0,0,
2026-03-28 14:00:00,METAR DNMM 281400Z 24012KT 9999 SCT016 34/23 Q1008 NOSIG,0,12.0,0,10000.0,0,0,0,
2026-03-28 13:00:00,METAR DNMM 281300Z 28009KT 9999 SCT016 34/23 Q1009 NOSIG,0,9.0,0,10000.0,0,0,0,
2026-03-28 12:00:00,METAR DNMM 281200Z 20008KT 8000 BKN016 FEW021CB 34/23 Q1010 TEMPO TS,0,8.0,0,8000.0,1,0,0,TS
2026-03-28 11:00:00,METAR DNMM 281100Z 22007KT 8000 BKN015 FEW021CB 33/23 Q1011 TEMPO 5000 -TSRA,0,7.0,0,8000.0,1,0,0,RA
2026-03-28 10:00:00,METAR DNMM 281000Z 29004KT 8000 BKN013 FEW020CB 30/23 Q1013 TEMPO 5000 -TSRA,0,4.0,0,8000.0,1,0,0,RA
2026-03-28 09:00:00,METAR DNMM 280900Z 02005KT 8000 BKN014 FEW020CB 31/23 Q1013 NOSIG,0,5.0,0,8000.0,0,0,0,
2026-03-28 08:00:00,METAR DNMM 280800Z 28004KT 8000 SCT012 FEW020CB 28/25 Q1012 NOSIG,0,4.0,0,8000.0,0,0,0,
2026-03-28 07:00:00,METAR DNMM 280700Z COR 25005KT 9999 FEW013 29/26 Q1011 NOSIG,0,5.0,0,10000.0,0,0,0,
2026-03-28 06:00:00,METAR DNMM 280600Z 31005KT 7000 TS FEW011 FEW020CB 27/25 Q1011 TEMPO 5000 HZ,0,5.0,0,7000.0,1,0,0,TS
2026-03-28 05:00:00,METAR DNMM 280500Z 28006KT 8000 -TSRA SCT011 FEW020CB 27/25 Q1011 TEMPO 5000 -TSRA BKN011 FEW020CB,0,6.0,0,8000.0,1,0,0,RA
2026-03-28 04:00:00,METAR DNMM 280400Z 21007KT 9999 -TSRA SCT012 FEW020CB 28/25 Q1011 TEMPO 5000 -TSRA BKN012 FEW020CB,0,7.0,0,10000.0,1,0,0,RA
2026-03-28 03:00:00,METAR DNMM 280300Z 21007KT 9999 TS SCT012 FEW020CB 28/26 Q1010 TEMPO 5000 -TSRA BKN012 FEW020CB,0,7.0,0,10000.0,1,0,0,"RA,TS"
2026-03-28 00:00:00,METAR DNMM 280000Z 22005KT 9999 FEW013 29/26 Q1012 NOSIG,0,5.0,0,10000.0,0,0,0,
2026-03-27 23:00:00,METAR DNMM 272300Z 22007KT 9999 FEW013 29/26 Q1013 NOSIG,0,7.0,0,10000.0,0,0,0,
2026-03-27 22:00:00,METAR DNMM 272200Z 21006KT 9999 FEW013 29/26 Q1012 NOSIG,0,6.0,0,10000.0,0,0,0,
2026-03-27 21:00:00,METAR DNMM 272100Z 19005KT 9999 FEW013 29/25 Q1012 NOSIG,0,5.0,0,10000.0,0,0,0,
2026-03-27 20:00:00,METAR DNMM 272000Z COR 21005KT 9999 FEW013 29/25 Q1011 NOSIG,0,5.0,0,10000.0,0,0,0,
2026-03-27 19:00:00,METAR DNMM 271900Z COR 26010KT 9999 FEW013 29/25 Q1010 NOSIG,0,10.0,0,10000.0,0,0,0,
2026-03-27 18:00:00,METAR DNMM 271800Z 19008KT 9999 FEW013 FEW021CB 30/25 Q1009 NOSIG,0,8.0,0,10000.0,0,0,0,
2026-03-27 17:00:00,METAR DNMM 271700Z 19007KT 9999 FEW014 FEW021CB 31/25 Q1008 NOSIG,0,7.0,0,10000.0,0,0,0,
2026-03-27 16:00:00,METAR DNMM 271600Z 15008KT 9999 SCT015 FEW022CB 33/24 Q1007 NOSIG,0,8.0,0,10000.0,0,0,0,
2026-03-25 15:00:00,METAR DNMM 251500Z 18008KT 9999 BKN015 34/24 Q1009 NOSIG,0,8.0,0,10000.0,0,0,0,
2026-03-25 14:00:00,METAR DNMM 251400Z 17010KT 9999 BKN015 34/24 Q1010 NOSIG,0,10.0,0,10000.0,0,0,0,
2026-03-25 13:00:00,METAR DNMM 251300Z 20011KT 9999 BKN015 34/24 Q1011 NOSIG,0,11.0,0,10000.0,0,0,0,
2026-03-25 12:00:00,METAR DNMM 251200Z 19012KT 9999 SCT016 35/25 Q1011 NOSIG,0,12.0,0,10000.0,0,0,0,
2026-03-25 11:00:00,METAR DNMM 251100Z 19009KT 9999 SCT015 33/24 Q1012 NOSIG,0,9.0,0,10000.0,0,0,0,
2026-03-25 10:00:00,METAR DNMM 251000Z 20007KT 9999 SCT015 33/24 Q1012 NOSIG,0,7.0,0,10000.0,0,0,0,
2026-03-24 09:00:00,METAR DNMM 240900Z 25009KT 9999 FEW014 31/26 Q1012 NOSIG,0,9.0,0,10000.0,0,0,0,
2026-03-24 00:00:00,METAR DNMM 240000Z 25008KT 9999 FEW013 29/26 Q1011 NOSIG,0,8.0,0,10000.0,0,0,0,
2026-03-23 16:00:00,METAR DNMM 231600Z 16010KT 9999 SCT014 32/25 Q1008 NOSIG,0,10.0,0,10000.0,0,0,0,
2026-03-23 11:00:00,METAR DNMM 231100Z 18009KT 9999 BKN015 FEW020CB 33/25 Q1012 NOSIG RMK CB NE-SE,0,9.0,0,10000.0,0,0,0,
2026-03-23 05:00:00,METAR DNMM 230500Z 21003KT 8000 FEW011 27/26 Q1009 TEMPO 5000 HZ,0,3.0,0,8000.0,0,0,0,
2026-03-22 18:00:00,METAR DNMM 221800Z 17007KT 8000 FEW013 FEW020CB 29/25 Q1008 NOSIG,0,7.0,0,8000.0,0,0,0,
2026-03-22 15:00:00,METAR DNMM 221500Z 17005KT 8000 TS BKN013 FEW020CB 29/26 Q1008 NOSIG RMK CB (NW-S) TS TO NE,0,5.0,0,8000.0,1,0,0,TS
2026-03-21 07:00:00,METAR DNMM 210700Z 00000KT 8000 FEW012 28/26 Q1010 NOSIG,0,0.0,0,8000.0,0,0,0,
2026-03-21 06:00:00,METAR DNMM 210600Z VRB02KT 7000 FEW011 27/26 Q1008 NOSIG,0,2.0,0,7000.0,0,0,0,
2026-03-21 02:00:00,METAR DNMM 210200Z 21003KT 9999 FEW012 28/26 Q1008 NOSIG,0,3.0,0,10000.0,0,0,0,
2026-03-20 23:00:00,METAR DNMM 202300Z 19005KT 9999 FEW013 29/26 Q1010 NOSIG,0,5.0,0,10000.0,0,0,0,
2026-03-20 22:00:00,METAR DNMM 202200Z 19006KT 9999 FEW013 29/26 Q1010 NOSIG,0,6.0,0,10000.0,0,0,0,
2026-03-20 19:00:00,METAR DNMM 201900Z 19009KT 9999 FEW013 30/26 Q1009 NOSIG,0,9.0,0,10000.0,0,0,0,
2026-03-20 18:00:00,METAR DNMM 201800Z 17007KT 9999 FEW013 30/26 Q1008 NOSIG,0,7.0,0,10000.0,0,0,0,
2026-03-20 17:00:00,METAR DNMM 201700Z 18007KT 9999 FEW014 32/25 Q1008 NOSIG,0,7.0,0,10000.0,0,0,0,
2026-03-18 20:00:00,METAR DNMM 182000Z 20008KT 9999 FEW013 29/25 Q1011 NOSIG,0,8.0,0,10000.0,0,0,0,
2026-03-18 17:00:00,METAR DNMM 181700Z 17009KT 9999 FEW014 FEW020CB 31/25 Q1009 NOSIG RMK CB NW - NE,0,9.0,0,10000.0,0,0,0,
2026-03-18 12:00:00,METAR DNMM 181200Z 24008KT 9999 BKN016 34/24 Q1012 NOSIG,0,8.0,0,10000.0,0,0,0,
2026-03-17 22:00:00,METAR DNMM 172200Z 17003KT 9999 SCT012 28/26 Q1012 NOSIG,0,3.0,0,10000.0,0,0,0,
2026-03-17 01:00:00,METAR DNMM 170100Z 20003KT 9999 FEW012 28/25 Q1011 NOSIG,0,3.0,0,10000.0,0,0,0,
2026-03-16 10:00:00,METAR DNMM 161000Z 20004KT 9999 BKN015 33/26 Q1013 TEMPO BKN015 FEW020CB,0,4.0,0,10000.0,0,0,0,
