Time_recorded,METAR,is_cavok,wind_speed,is_gust,visibility_meters,has_thunderstorm,has_heavy_rain,has_low_vis_fog,other_phenomenon
2026-05-02 15:30:00,METAR VHHH 021530Z 10005KT 9999 FEW020 26/22 Q1011 NOSIG,0,5,0,10000,0,0,0,
2026-05-02 15:00:00,METAR VHHH 021500Z 11005KT 090V150 9999 FEW020 26/22 Q1011 NOSIG,0,5,0,10000,0,0,0,
2026-05-02 14:30:00,METAR VHHH 021430Z VRB02KT 9999 FEW015 26/22 Q1011 NOSIG,0,2,0,10000,0,0,0,
2026-05-02 14:00:00,METAR VHHH 021400Z 08006KT 020V160 9999 FEW015 26/22 Q1011 NOSIG,0,6,0,10000,0,0,0,
2026-05-02 13:30:00,METAR VHHH 021330Z 08005KT 040V110 9999 FEW012 26/21 Q1011 NOSIG,0,5,0,10000,0,0,0,
2026-05-02 13:00:00,METAR VHHH 021300Z 14008KT 110V180 9999 FEW012 26/22 Q1010 NOSIG,0,8,0,10000,0,0,0,
2026-05-02 12:30:00,METAR VHHH 021230Z 12008KT 090V190 9999 FEW012 26/22 Q1010 NOSIG,0,8,0,10000,0,0,0,
2026-05-02 12:00:00,METAR VHHH 021200Z 15007KT 110V180 9999 FEW012 26/22 Q1009 NOSIG,0,7,0,10000,0,0,0,
2026-05-02 11:30:00,METAR VHHH 021130Z 15005KT 120V200 9999 FEW012 26/22 Q1009 NOSIG,0,5,0,10000,0,0,0,
2026-05-02 11:00:00,METAR VHHH 021100Z 16008KT 130V200 9999 FEW012 26/22 Q1009 NOSIG,0,8,0,10000,0,0,0,
2026-05-02 10:30:00,METAR VHHH 021030Z 16008KT 130V190 9999 FEW015 SCT035 27/22 Q1009 NOSIG,0,8,0,10000,0,0,0,
2026-05-02 10:00:00,METAR VHHH 021000Z 15006KT 120V190 9999 FEW015 SCT035 27/22 Q1009 NOSIG,0,6,0,10000,0,0,0,
2026-05-02 09:30:00,METAR VHHH 020930Z 15007KT 060V190 9999 FEW015 SCT035 27/22 Q1009 NOSIG,0,7,0,10000,0,0,0,
2026-05-02 09:00:00,METAR VHHH 020900Z VRB03KT 9999 FEW015 SCT035 27/22 Q1009 NOSIG,0,3,0,10000,0,0,0,
2026-05-02 08:30:00,METAR VHHH 020830Z 16006KT 060V230 9999 FEW018 SCT035 27/22 Q1009 NOSIG,0,6,0,10000,0,0,0,
2026-05-02 08:00:00,METAR VHHH 020800Z 15009KT 130V190 9999 FEW018 SCT035 28/21 Q1009 NOSIG,0,9,0,10000,0,0,0,
2026-05-02 07:30:00,METAR VHHH 020730Z 15010KT 120V190 9999 FEW018 SCT035 28/21 Q1009 NOSIG,0,10,0,10000,0,0,0,
2026-05-02 07:00:00,METAR VHHH 020700Z 15009KT 120V180 9999 FEW018 SCT035 28/21 Q1010 NOSIG,0,9,0,10000,0,0,0,
2026-05-02 06:30:00,METAR VHHH 020630Z 14010KT 110V190 9999 FEW015 SCT035 28/21 Q1010 NOSIG,0,10,0,10000,0,0,0,
2026-05-02 06:00:00,METAR VHHH 020600Z 13007KT 100V180 9999 FEW018 SCT035 28/22 Q1011 NOSIG,0,7,0,10000,0,0,0,
2026-05-02 05:30:00,METAR VHHH 020530Z 14007KT 100V190 9999 FEW018 SCT035 28/21 Q1011 NOSIG,0,7,0,10000,0,0,0,
2026-05-02 05:00:00,METAR VHHH 020500Z 10011KT 9999 FEW012 SCT035 28/21 Q1012 NOSIG,0,11,0,10000,0,0,0,
2026-05-02 04:30:00,METAR VHHH 020430Z 10012KT 9999 FEW015 SCT035 28/22 Q1012 NOSIG,0,12,0,10000,0,0,0,
2026-05-02 04:00:00,METAR VHHH 020400Z 10014KT 9999 FEW015 SCT035 28/22 Q1012 NOSIG,0,14,0,10000,0,0,0,
2026-05-02 03:30:00,METAR VHHH 020330Z 11014KT 9999 FEW015 SCT035 27/22 Q1012 NOSIG,0,14,0,10000,0,0,0,
2026-05-02 03:00:00,METAR VHHH 020300Z 11015KT 9999 FEW015 SCT035 27/22 Q1013 WS R07R NOSIG,0,15,0,10000,0,0,0,
2026-05-02 02:30:00,METAR VHHH 020230Z 10014KT 9999 FEW015 SCT035 27/22 Q1013 NOSIG,0,14,0,10000,0,0,0,
2026-05-02 02:00:00,METAR VHHH 020200Z 10014KT 9999 FEW012 SCT040 27/21 Q1013 NOSIG,0,14,0,10000,0,0,0,
2026-05-02 01:30:00,METAR VHHH 020130Z 11016KT 9999 FEW012 SCT035 26/21 Q1013 NOSIG,0,16,0,10000,0,0,0,
2026-05-02 01:00:00,METAR VHHH 020100Z 11016KT 9999 FEW012 SCT035 26/21 Q1012 NOSIG,0,16,0,10000,0,0,0,
2026-05-02 00:30:00,METAR VHHH 020030Z 11016KT 9999 FEW012 SCT035 26/21 Q1012 NOSIG,0,16,0,10000,0,0,0,
2026-05-02 00:00:00,METAR VHHH 020000Z 11016KT 9999 FEW012 SCT035 26/21 Q1012 NOSIG,0,16,0,10000,0,0,0,
2026-05-01 23:30:00,METAR VHHH 012330Z 09015KT 9999 FEW012 SCT035 25/21 Q1012 NOSIG,0,15,0,10000,0,0,0,
2026-05-01 23:00:00,METAR VHHH 012300Z 09013KT 9999 FEW012 SCT040 25/21 Q1012 NOSIG,0,13,0,10000,0,0,0,
2026-05-01 22:30:00,METAR VHHH 012230Z 10014KT 9999 FEW015 SCT040 25/21 Q1011 NOSIG,0,14,0,10000,0,0,0,
2026-05-01 22:00:00,METAR VHHH 012200Z 11013KT 9999 FEW015 SCT040 25/21 Q1011 NOSIG,0,13,0,10000,0,0,0,
2026-05-01 21:30:00,METAR VHHH 012130Z 10012KT 9999 FEW015 SCT045 25/21 Q1012 NOSIG,0,12,0,10000,0,0,0,
2026-05-01 21:00:00,METAR VHHH 012100Z 11011KT 9999 FEW015 SCT045 25/21 Q1012 NOSIG,0,11,0,10000,0,0,0,
2026-05-01 20:30:00,METAR VHHH 012030Z 10010KT 070V140 9999 FEW015 SCT045 25/21 Q1011 NOSIG,0,10,0,10000,0,0,0,
2026-05-01 20:00:00,METAR VHHH 012000Z 09010KT 9999 FEW015 SCT045 24/21 Q1011 NOSIG,0,10,0,10000,0,0,0,
2026-05-01 19:30:00,METAR VHHH 011930Z 10010KT 9999 FEW015 SCT040 24/21 Q1011 NOSIG,0,10,0,10000,0,0,0,
2026-05-01 19:00:00,METAR VHHH 011900Z 10012KT 9999 FEW015 SCT040 25/21 Q1012 NOSIG,0,12,0,10000,0,0,0,
2026-05-01 18:30:00,METAR VHHH 011830Z 11013KT 9999 FEW015 SCT030 25/21 Q1012 NOSIG,0,13,0,10000,0,0,0,
2026-05-01 18:00:00,METAR VHHH 011800Z 11010KT 9999 FEW015 SCT030 25/21 Q1012 NOSIG,0,10,0,10000,0,0,0,
2026-05-01 17:30:00,METAR VHHH 011730Z 11012KT 9999 FEW015 SCT030 25/21 Q1012 NOSIG,0,12,0,10000,0,0,0,
2026-05-01 17:00:00,METAR VHHH 011700Z 10013KT 9999 FEW015 SCT030 25/21 Q1012 NOSIG,0,13,0,10000,0,0,0,
2026-05-01 16:30:00,METAR VHHH 011630Z 10014KT 9999 FEW015 SCT035 25/20 Q1012 NOSIG,0,14,0,10000,0,0,0,
2026-05-01 16:00:00,METAR VHHH 011600Z 10012KT 9999 FEW015 SCT035 25/21 Q1013 NOSIG,0,12,0,10000,0,0,0,
2026-05-01 15:30:00,METAR VHHH 011530Z 10012KT 9999 FEW015 SCT045 25/21 Q1013 NOSIG,0,12,0,10000,0,0,0,
2026-05-01 15:00:00,METAR VHHH 011500Z 11012KT 9999 FEW015 SCT040 25/21 Q1013 NOSIG,0,12,0,10000,0,0,0,
2026-05-01 14:30:00,METAR VHHH 011430Z 11011KT 9999 FEW015 SCT040 25/21 Q1013 NOSIG,0,11,0,10000,0,0,0,
2026-05-01 14:00:00,METAR VHHH 011400Z 11012KT 9999 FEW020 SCT040 25/20 Q1013 NOSIG,0,12,0,10000,0,0,0,
2026-05-01 13:30:00,METAR VHHH 011330Z 11012KT 9999 FEW020 SCT040 25/20 Q1013 NOSIG,0,12,0,10000,0,0,0,
2026-05-01 13:00:00,METAR VHHH 011300Z 10012KT 9999 FEW020 SCT040 25/20 Q1013 NOSIG,0,12,0,10000,0,0,0,
2026-05-01 12:30:00,METAR VHHH 011230Z 10012KT 9999 FEW020 SCT040 25/20 Q1013 NOSIG,0,12,0,10000,0,0,0,
2026-05-01 12:00:00,METAR VHHH 011200Z 10014KT 9999 FEW020 SCT040 25/20 Q1013 NOSIG,0,14,0,10000,0,0,0,
2026-05-01 11:30:00,METAR VHHH 011130Z 10014KT 9999 FEW020 SCT040 25/20 Q1013 NOSIG,0,14,0,10000,0,0,0,
2026-05-01 11:00:00,METAR VHHH 011100Z 10014KT 9999 FEW020 SCT040 25/20 Q1012 NOSIG,0,14,0,10000,0,0,0,
2026-05-01 10:30:00,METAR VHHH 011030Z 10014KT 9999 FEW020 SCT040 25/20 Q1012 NOSIG,0,14,0,10000,0,0,0,
2026-05-01 10:00:00,METAR VHHH 011000Z 10015KT 9999 FEW020 SCT040 26/20 Q1012 NOSIG,0,15,0,10000,0,0,0,
2026-05-01 09:30:00,METAR VHHH 010930Z 10014KT 9999 FEW020 SCT040 26/20 Q1012 NOSIG,0,14,0,10000,0,0,0,
2026-05-01 09:00:00,METAR VHHH 010900Z 10014KT 9999 FEW025 SCT035 26/20 Q1012 NOSIG,0,14,0,10000,0,0,0,
2026-05-01 08:30:00,METAR VHHH 010830Z 10014KT 9999 FEW025 27/20 Q1012 NOSIG,0,14,0,10000,0,0,0,
2026-05-01 08:00:00,METAR VHHH 010800Z 09013KT 070V130 9999 FEW025 27/20 Q1012 NOSIG,0,13,0,10000,0,0,0,
2026-05-01 07:30:00,METAR VHHH 010730Z 09014KT 9999 FEW025 27/20 Q1012 NOSIG,0,14,0,10000,0,0,0,
2026-05-01 07:00:00,METAR VHHH 010700Z 09012KT 9999 FEW022 SCT030 27/19 Q1013 NOSIG,0,12,0,10000,0,0,0,
2026-05-01 06:30:00,METAR VHHH 010630Z 09009KT 9999 FEW022 SCT030 27/19 Q1013 NOSIG,0,9,0,10000,0,0,0,
2026-05-01 06:00:00,METAR VHHH 010600Z 30004KT 250V010 9999 FEW022 SCT030 26/19 Q1013 NOSIG,0,4,0,10000,0,0,0,
2026-05-01 05:30:00,METAR VHHH 010530Z 26009KT 9999 FEW022 SCT030 25/19 Q1014 NOSIG,0,9,0,10000,0,0,0,
2026-05-01 05:00:00,METAR VHHH 010500Z 18006KT 100V240 9999 FEW022 SCT035 26/19 Q1014 NOSIG,0,6,0,10000,0,0,0,
2026-05-01 04:30:00,METAR VHHH 010430Z 07008KT 9999 FEW022 SCT035 26/18 Q1014 NOSIG,0,8,0,10000,0,0,0,
2026-05-01 04:00:00,METAR VHHH 010400Z 07008KT 040V100 9999 FEW022 SCT035 27/18 Q1014 NOSIG,0,8,0,10000,0,0,0,
2026-05-01 03:30:00,METAR VHHH 010330Z 09009KT 060V120 9999 FEW022 SCT030 26/18 Q1015 NOSIG,0,9,0,10000,0,0,0,
2026-05-01 03:00:00,METAR VHHH 010300Z 08009KT 9999 FEW022 SCT030 26/18 Q1015 NOSIG,0,9,0,10000,0,0,0,
2026-05-01 02:30:00,METAR VHHH 010230Z 06008KT 9999 FEW022 SCT030 26/18 Q1015 NOSIG,0,8,0,10000,0,0,0,
2026-05-01 02:00:00,METAR VHHH 010200Z 04007KT 9999 FEW022 SCT030 26/18 Q1015 NOSIG,0,7,0,10000,0,0,0,
2026-05-01 01:30:00,METAR VHHH 010130Z 03005KT 9999 FEW022 SCT030 26/17 Q1015 NOSIG,0,5,0,10000,0,0,0,
2026-05-01 01:00:00,METAR VHHH 010100Z 04005KT 9999 FEW022 SCT030 24/17 Q1015 NOSIG,0,5,0,10000,0,0,0,
2026-05-01 00:30:00,METAR VHHH 010030Z 04005KT 9999 FEW022 SCT035 24/17 Q1015 NOSIG,0,5,0,10000,0,0,0,
2026-05-01 00:00:00,METAR VHHH 010000Z 06005KT 9999 FEW022 SCT035 23/16 Q1015 NOSIG,0,5,0,10000,0,0,0,
2026-04-30 23:30:00,METAR VHHH 302330Z 06006KT 9999 FEW022 SCT035 23/17 Q1015 NOSIG,0,6,0,10000,0,0,0,
2026-04-30 23:00:00,METAR VHHH 302300Z 07005KT 9999 FEW022 SCT035 23/16 Q1015 NOSIG,0,5,0,10000,0,0,0,
2026-04-30 22:30:00,METAR VHHH 302230Z 08005KT 9999 FEW020 SCT035 23/16 Q1014 NOSIG,0,5,0,10000,0,0,0,
2026-04-30 22:00:00,METAR VHHH 302200Z 07006KT 9999 FEW020 SCT030 22/16 Q1014 NOSIG,0,6,0,10000,0,0,0,
2026-04-30 21:30:00,METAR VHHH 302130Z 06006KT 9999 FEW020 SCT030 22/16 Q1014 NOSIG,0,6,0,10000,0,0,0,
2026-04-30 21:00:00,METAR VHHH 302100Z 06007KT 020V080 9999 -RA FEW020 SCT030 23/17 Q1014 NOSIG,0,7,0,10000,0,0,0,-RA
2026-04-30 20:30:00,METAR VHHH 302030Z 08005KT 9999 FEW020 SCT035 23/17 Q1014 NOSIG,0,5,0,10000,0,0,0,
2026-04-30 20:00:00,METAR VHHH 302000Z 07006KT 9999 FEW020 SCT035 23/17 Q1014 NOSIG,0,6,0,10000,0,0,0,
2026-04-30 19:30:00,METAR VHHH 301930Z 06003KT 020V090 9999 -RA FEW020 SCT035 23/16 Q1014 NOSIG,0,3,0,10000,0,0,0,-RA
2026-04-30 19:00:00,METAR VHHH 301900Z 06003KT 020V100 9999 FEW020 SCT035 23/17 Q1014 NOSIG,0,3,0,10000,0,0,0,
2026-04-30 18:30:00,METAR VHHH 301830Z 05004KT 9999 FEW020 SCT040 23/17 Q1014 NOSIG,0,4,0,10000,0,0,0,
2026-04-30 18:00:00,METAR VHHH 301800Z 06005KT 9999 FEW025 SCT045 23/17 Q1014 NOSIG,0,5,0,10000,0,0,0,
2026-04-30 17:30:00,METAR VHHH 301730Z 08006KT 9999 FEW025 SCT045 23/16 Q1014 NOSIG,0,6,0,10000,0,0,0,
2026-04-30 17:00:00,METAR VHHH 301700Z 08006KT 9999 FEW025 SCT045 23/16 Q1014 NOSIG,0,6,0,10000,0,0,0,
2026-04-30 16:30:00,METAR VHHH 301630Z 08007KT 9999 FEW025 23/16 Q1015 NOSIG,0,7,0,10000,0,0,0,
2026-04-30 16:00:00,METAR VHHH 301600Z 09007KT 9999 FEW030 23/16 Q1015 NOSIG,0,7,0,10000,0,0,0,
2026-04-30 15:00:00,METAR VHHH 301500Z 10008KT 9999 FEW035 24/16 Q1015 NOSIG,0,8,0,10000,0,0,0,
2026-04-30 14:30:00,METAR VHHH 301430Z 08009KT 9999 FEW035 24/16 Q1015 NOSIG,0,9,0,10000,0,0,0,
2026-04-30 14:00:00,METAR VHHH 301400Z 07007KT 9999 FEW035 23/16 Q1015 NOSIG,0,7,0,10000,0,0,0,
2026-04-30 13:30:00,METAR VHHH 301330Z 11005KT 060V150 9999 FEW035 23/16 Q1015 NOSIG,0,5,0,10000,0,0,0,
2026-04-30 13:00:00,METAR VHHH 301300Z 14004KT 120V190 CAVOK 23/16 Q1015 NOSIG,1,0,0,9999,0,0,0,
2026-04-30 12:30:00,METAR VHHH 301230Z 17004KT 140V230 9999 FEW035 23/16 Q1014 NOSIG,0,4,0,10000,0,0,0,
2026-04-30 12:00:00,METAR VHHH 301200Z 29005KT 9999 FEW035 24/16 Q1014 NOSIG,0,5,0,10000,0,0,0,
2026-04-30 11:30:00,METAR VHHH 301130Z 32005KT 9999 FEW035 24/16 Q1014 NOSIG,0,5,0,10000,0,0,0,
2026-04-30 11:00:00,METAR VHHH 301100Z 34007KT 9999 FEW040 25/15 Q1014 NOSIG,0,7,0,10000,0,0,0,
2026-04-30 10:30:00,METAR VHHH 301030Z 33007KT CAVOK 25/15 Q1013 NOSIG,1,0,0,9999,0,0,0,
2026-04-30 10:00:00,METAR VHHH 301000Z 32007KT CAVOK 25/15 Q1013 NOSIG,1,0,0,9999,0,0,0,
2026-04-30 09:30:00,METAR VHHH 300930Z 31007KT CAVOK 25/15 Q1013 NOSIG,1,0,0,9999,0,0,0,
2026-04-30 09:00:00,METAR VHHH 300900Z 31007KT 290V350 CAVOK 25/15 Q1013 NOSIG,1,0,0,9999,0,0,0,
2026-04-30 08:30:00,METAR VHHH 300830Z 32008KT CAVOK 25/15 Q1013 NOSIG,1,0,0,9999,0,0,0,
2026-04-30 08:00:00,METAR VHHH 300800Z 31009KT CAVOK 25/14 Q1013 NOSIG,1,0,0,9999,0,0,0,
2026-04-30 07:30:00,METAR VHHH 300730Z 32008KT CAVOK 25/14 Q1014 NOSIG,1,0,0,9999,0,0,0,
2026-04-30 07:00:00,METAR VHHH 300700Z 33008KT CAVOK 24/14 Q1014 NOSIG,1,0,0,9999,0,0,0,
2026-04-30 06:30:00,METAR VHHH 300630Z 34009KT 9999 FEW030 24/14 Q1014 NOSIG,0,9,0,10000,0,0,0,
2026-04-30 06:00:00,METAR VHHH 300600Z 34010KT 9999 FEW030 25/14 Q1014 NOSIG,0,10,0,10000,0,0,0,
2026-04-30 05:30:00,METAR VHHH 300530Z 35008KT 310V030 9999 FEW030 24/14 Q1015 NOSIG,0,8,0,10000,0,0,0,
2026-04-30 05:00:00,METAR VHHH 300500Z 36007KT 340V040 9999 FEW030 SCT045 24/14 Q1015 NOSIG,0,7,0,10000,0,0,0,
2026-04-30 04:30:00,METAR VHHH 300430Z 35008KT 320V050 9999 FEW030 SCT045 24/14 Q1016 NOSIG,0,8,0,10000,0,0,0,
2026-04-30 04:00:00,METAR VHHH 300400Z 35009KT 9999 FEW030 SCT045 24/14 Q1016 NOSIG,0,9,0,10000,0,0,0,
2026-04-30 03:30:00,METAR VHHH 300330Z 01012KT 9999 FEW030 23/14 Q1016 NOSIG,0,12,0,10000,0,0,0,
2026-04-30 03:00:00,METAR VHHH 300300Z 01010KT 9999 FEW030 23/13 Q1016 NOSIG,0,10,0,10000,0,0,0,
2026-04-30 02:30:00,METAR VHHH 300230Z 01010KT 9999 FEW030 22/14 Q1016 NOSIG,0,10,0,10000,0,0,0,
2026-04-30 02:00:00,METAR VHHH 300200Z 01009KT 9999 FEW025 21/14 Q1016 NOSIG,0,9,0,10000,0,0,0,
2026-04-30 01:30:00,METAR VHHH 300130Z 02009KT 9999 FEW025 21/13 Q1016 NOSIG,0,9,0,10000,0,0,0,
2026-04-30 01:00:00,METAR VHHH 300100Z 01011KT 9999 FEW025 21/13 Q1016 NOSIG,0,11,0,10000,0,0,0,
2026-04-30 00:30:00,METAR VHHH 300030Z 01011KT 9999 FEW025 SCT045 21/13 Q1016 NOSIG,0,11,0,10000,0,0,0,
2026-04-30 00:00:00,METAR VHHH 300000Z 02010KT 340V040 9999 FEW025 SCT045 21/13 Q1015 NOSIG,0,10,0,10000,0,0,0,
2026-04-29 23:30:00,METAR VHHH 292330Z 02012KT 9999 FEW025 SCT045 20/13 Q1015 NOSIG,0,12,0,10000,0,0,0,
2026-04-29 23:00:00,METAR VHHH 292300Z 02013KT 9999 FEW025 SCT045 20/13 Q1015 NOSIG,0,13,0,10000,0,0,0,
2026-04-29 22:30:00,METAR VHHH 292230Z 36011KT 330V040 9999 FEW020 SCT045 20/13 Q1015 NOSIG,0,11,0,10000,0,0,0,
2026-04-29 22:00:00,METAR VHHH 292200Z 36015KT 9999 FEW020 20/13 Q1014 NOSIG,0,15,0,10000,0,0,0,
2026-04-29 21:30:00,METAR VHHH 292130Z 36014KT 9999 FEW020 SCT045 21/14 Q1014 NOSIG,0,14,0,10000,0,0,0,
2026-04-29 21:00:00,METAR VHHH 292100Z 35012KT 9999 FEW020 SCT045 21/14 Q1014 NOSIG,0,12,0,10000,0,0,0,
2026-04-29 20:30:00,METAR VHHH 292030Z 01010KT 330V040 9999 FEW020 SCT045 21/14 Q1014 NOSIG,0,10,0,10000,0,0,0,
2026-04-29 20:00:00,METAR VHHH 292000Z 03011KT 9999 FEW020 SCT045 21/14 Q1013 NOSIG,0,11,0,10000,0,0,0,
2026-04-29 19:30:00,METAR VHHH 291930Z 02011KT 350V050 9999 FEW020 SCT045 21/14 Q1013 NOSIG,0,11,0,10000,0,0,0,
2026-04-29 19:00:00,METAR VHHH 291900Z 02015KT 9999 FEW020 SCT045 21/14 Q1013 NOSIG,0,15,0,10000,0,0,0,
2026-04-29 18:30:00,METAR VHHH 291830Z 35016KT 9999 FEW020 SCT040 21/15 Q1013 NOSIG,0,16,0,10000,0,0,0,
2026-04-29 18:00:00,METAR VHHH 291800Z 35016KT 9999 FEW020 SCT040 22/15 Q1014 NOSIG,0,16,0,10000,0,0,0,
2026-04-29 17:30:00,METAR VHHH 291730Z 35014KT 9999 FEW020 SCT040 22/15 Q1014 NOSIG,0,14,0,10000,0,0,0,
2026-04-29 17:00:00,METAR VHHH 291700Z 35014KT 9999 FEW012 SCT040 22/15 Q1014 NOSIG,0,14,0,10000,0,0,0,
2026-04-29 16:30:00,METAR VHHH 291630Z 02011KT 9999 FEW012 SCT030 23/15 Q1014 NOSIG,0,11,0,10000,0,0,0,
2026-04-29 16:00:00,METAR VHHH 291600Z 03010KT 9999 FEW012 SCT030 23/14 Q1014 NOSIG,0,10,0,10000,0,0,0,
2026-04-29 15:30:00,METAR VHHH 291530Z 03011KT 9999 FEW012 SCT030 23/15 Q1014 NOSIG,0,11,0,10000,0,0,0,
2026-04-29 15:00:00,METAR VHHH 291500Z 02013KT 9999 FEW012 SCT025 23/16 Q1014 NOSIG,0,13,0,10000,0,0,0,
2026-04-29 14:30:00,METAR VHHH 291430Z 03015KT 9999 FEW012 SCT025 23/17 Q1014 WS R25R NOSIG,0,15,0,10000,0,0,0,
2026-04-29 14:00:00,METAR VHHH 291400Z 04010KT 9999 FEW010 SCT022 23/18 Q1013 NOSIG,0,10,0,10000,0,0,0,
2026-04-29 13:30:00,METAR VHHH 291330Z 03017KT 9999 FEW010 SCT022 24/20 Q1013 NOSIG,0,17,0,10000,0,0,0,
2026-04-29 13:00:00,METAR VHHH 291300Z 34012KT 9999 FEW010 SCT025 25/20 Q1012 NOSIG,0,12,0,10000,0,0,0,
2026-04-29 12:30:00,METAR VHHH 291230Z 34012KT 9999 FEW010 SCT025 25/19 Q1012 NOSIG,0,12,0,10000,0,0,0,
2026-04-29 12:00:00,METAR VHHH 291200Z 34014KT 9999 FEW010 SCT040 25/20 Q1012 NOSIG,0,14,0,10000,0,0,0,
2026-04-29 11:30:00,METAR VHHH 291130Z 34012KT 9999 FEW010 SCT040 25/20 Q1011 NOSIG,0,12,0,10000,0,0,0,
2026-04-29 11:00:00,METAR VHHH 291100Z 33013KT 9999 FEW010 SCT040 25/21 Q1011 NOSIG,0,13,0,10000,0,0,0,
2026-04-29 10:30:00,METAR VHHH 291030Z 34011KT 9999 FEW010 SCT025 25/21 Q1010 NOSIG,0,11,0,10000,0,0,0,
2026-04-29 10:00:00,METAR VHHH 291000Z 34013KT 9999 FEW010 SCT025 24/21 Q1010 NOSIG,0,13,0,10000,0,0,0,
2026-04-29 09:30:00,METAR VHHH 290930Z 33014KT 9999 -SHRA FEW008 FEW010CB SCT025 24/21 Q1010 RETS TEMPO 4000 SHRA FEW010CB SCT015,0,14,0,10000,1,0,0,"RA,SH,TS"
2026-04-29 09:15:00,SPECI VHHH 290915Z 33013KT 9999 -TSRA FEW008 FEW010CB SCT018 24/21 Q1010 RERA TEMPO 35020G30KT 3000 SHRA TSRA FEW008CB SCT015,0,13,0,10000,1,0,0,"RA,SH,TS"
2026-04-29 09:00:00,METAR VHHH 290900Z 33016KT 7000 3100E +TSRA FEW008 FEW010CB SCT018 24/21 Q1010 TEMPO 35020G30KT 3000 SHRA TSRA FEW008CB SCT015,0,16,0,7000,1,0,0,"RA,SH,TS"
2026-04-29 08:52:00,SPECI VHHH 290852Z 33017KT 4300 TSRA FEW008 FEW010CB SCT018 24/22 Q1009 TEMPO 35020G30KT 3000 SHRA TSRA FEW008CB SCT015,0,17,0,4300,1,0,0,"RA,SH,TS"
2026-04-29 08:30:00,METAR VHHH 290830Z 33018KT 9999 -SHRA FEW008 FEW010CB SCT028 25/23 Q1009 TEMPO 35020G30KT 3500 SHRA FEW010CB SCT015,0,18,0,10000,0,0,0,"RA,SH"
2026-04-29 08:00:00,METAR VHHH 290800Z 34017KT 9999 -SHRA FEW012 SCT025 26/22 Q1009 TEMPO 35020G30KT 4000 SHRA FEW010CB SCT015,0,17,0,10000,0,0,0,"RA,SH"
2026-04-29 07:30:00,METAR VHHH 290730Z 31007KT 9999 FEW015 SCT025 27/23 Q1009 TEMPO 35015G25KT 3000 TSRA SHRA FEW008CB SCT015,0,7,0,10000,1,0,0,"RA,SH,TS"
2026-04-29 07:00:00,METAR VHHH 290700Z 28006KT 9999 FEW015 SCT025 28/23 Q1009 TEMPO 35015G25KT 3000 TSRA SHRA FEW008CB SCT015,0,6,0,10000,1,0,0,"RA,SH,TS"
2026-04-29 06:30:00,METAR VHHH 290630Z 28008KT 9999 FEW015 28/23 Q1009 NOSIG,0,8,0,10000,0,0,0,
2026-04-29 06:00:00,METAR VHHH 290600Z 24010KT 9999 FEW015 28/23 Q1009 NOSIG,0,10,0,10000,0,0,0,
2026-04-29 05:30:00,METAR VHHH 290530Z 22012KT 9999 FEW015 27/22 Q1010 NOSIG,0,12,0,10000,0,0,0,
2026-04-29 05:00:00,METAR VHHH 290500Z 22015KT 9999 FEW015 SCT025 26/21 Q1010 NOSIG,0,15,0,10000,0,0,0,
2026-04-29 04:30:00,METAR VHHH 290430Z 21011KT 160V230 9999 -SHRA FEW010 FEW015CB SCT025 25/20 Q1010 TEMPO 22025G35KT 2500 TSRA +SHRA FEW008CB SCT015,0,11,0,10000,1,0,0,"RA,TS"
2026-04-29 04:13:00,SPECI VHHH 290413Z 22016KT 9999 VCTS -SHRA FEW010 FEW015CB SCT025 24/20 Q1011 TEMPO 22025G35KT 2500 TSRA +SHRA FEW008CB SCT015,0,16,0,10000,1,0,0,"RA,TS,VC"
2026-04-29 04:09:00,SPECI VHHH 290409Z 22017KT 9999 -SHRA FEW010 FEW015CB SCT025 24/19 Q1011 RETS TEMPO 22025G35KT 2500 TSRA +SHRA FEW008CB SCT015,0,17,0,10000,1,0,0,"RA,TS"
2026-04-29 04:00:00,METAR VHHH 290400Z 22020KT 9999 -TSRA FEW010 FEW015CB SCT025 24/20 Q1010 TEMPO 22025G35KT 2500 TSRA +SHRA FEW008CB SCT015,0,20,0,10000,1,0,0,"RA,TS"
2026-04-29 03:30:00,METAR VHHH 290330Z 21014KT 9999 -TSRA FEW010 FEW015CB SCT025 27/23 Q1010 TEMPO VRB20G30KT 2500 TSRA +SHRA FEW008CB SCT015,0,14,0,10000,1,0,0,"RA,TS"
2026-04-29 03:18:00,SPECI VHHH 290318Z 22010KT 9999 -TSRA FEW010 FEW015CB SCT025 28/24 Q1011 TEMPO VRB20G30KT 2500 TSRA +SHRA FEW008CB SCT015,0,10,0,10000,1,0,0,"RA,TS"
2026-04-29 03:00:00,METAR VHHH 290300Z 19008KT 150V220 9999 -SHRA FEW012 SCT022 28/24 Q1011 TEMPO VRB20G30KT 2500 TSRA +SHRA FEW008CB SCT015,0,8,0,10000,1,0,0,"RA,TS"
2026-04-29 02:30:00,METAR VHHH 290230Z VRB01KT 9999 VCSH FEW012CB SCT022 29/23 Q1011 TEMPO VRB20G30KT 2500 TSRA +SHRA FEW008CB SCT015,0,1,0,10000,1,0,0,"RA,SH,TS,VC"
2026-04-29 02:26:00,SPECI VHHH 290226Z VRB01KT 9999 -SHRA FEW012CB SCT022 29/23 Q1011 TEMPO VRB20G30KT 2500 TSRA +SHRA FEW008CB SCT015,0,1,0,10000,1,0,0,"RA,TS"
2026-04-29 02:16:00,SPECI VHHH 290216Z VRB02KT 9999 VCTS -SHRA FEW012CB SCT022 28/23 Q1011 TEMPO VRB20G30KT 2500 TSRA +SHRA FEW008CB SCT015,0,2,0,10000,1,0,0,"RA,TS,VC"
2026-04-29 02:00:00,METAR VHHH 290200Z 25004KT 210V300 9999 -SHRA FEW012CB SCT022 28/23 Q1011 TEMPO VRB20G30KT 2500 TSRA +SHRA FEW008CB SCT015,0,4,0,10000,1,0,0,"RA,TS"
2026-04-29 01:30:00,METAR VHHH 290130Z 15004KT 060V230 9999 FEW012CB SCT022 28/23 Q1010 TEMPO VRB20G30KT 2500 TSRA +SHRA FEW008CB SCT015,0,4,0,10000,1,0,0,"RA,TS"
2026-04-29 01:00:00,METAR VHHH 290100Z 07007KT 9999 FEW012 SCT025 28/23 Q1010 TEMPO VRB20G30KT 2500 TSRA +SHRA FEW008CB SCT015,0,7,0,10000,1,0,0,"RA,TS"
2026-04-29 00:30:00,METAR VHHH 290030Z 08005KT 050V140 9999 FEW010 SCT025 27/23 Q1010 NOSIG,0,5,0,10000,0,0,0,
2026-04-29 00:00:00,METAR VHHH 290000Z 05006KT 9999 FEW010 25/22 Q1010 NOSIG,0,6,0,10000,0,0,0,
2026-04-28 23:30:00,METAR VHHH 282330Z 08007KT 9999 FEW010 25/22 Q1009 NOSIG,0,7,0,10000,0,0,0,
2026-04-28 23:00:00,METAR VHHH 282300Z 06006KT 9999 FEW010 25/22 Q1009 NOSIG,0,6,0,10000,0,0,0,
2026-04-28 22:30:00,METAR VHHH 282230Z 06003KT 9999 -SHRA FEW010 SCT025 24/22 Q1009 NOSIG,0,3,0,10000,0,0,0,RA
2026-04-28 22:00:00,METAR VHHH 282200Z VRB03KT 9999 -SHRA FEW012 SCT030 25/22 Q1008 NOSIG,0,3,0,10000,0,0,0,RA
2026-04-28 21:32:00,SPECI VHHH 282132Z VRB02KT 9999 -SHRA VCTS FEW015CB SCT045 24/22 Q1008 NOSIG,0,2,0,10000,1,0,0,"RA,TS,VC"
2026-04-28 21:30:00,METAR VHHH 282130Z VRB02KT 9999 -SHRA FEW018 SCT045 25/22 Q1008 RERA NOSIG,0,2,0,10000,0,0,0,RA
2026-04-28 21:12:00,SPECI VHHH 282112Z VRB02KT 9999 SHRA VCTS FEW015CB SCT045 25/21 Q1008 NOSIG,0,2,0,10000,1,0,0,"RA,SH,TS,VC"
2026-04-28 21:00:00,METAR VHHH 282100Z VRB02KT 9999 SHRA FEW015CB SCT045 25/22 Q1008 NOSIG,0,2,0,10000,0,0,0,"RA,SH"
2026-04-28 20:42:00,SPECI VHHH 282042Z 05005KT 9999 VCTS -SHRA FEW015CB SCT045 25/22 Q1008 NOSIG,0,5,0,10000,1,0,0,"RA,TS,VC"
2026-04-28 20:30:00,METAR VHHH 282030Z 07005KT 030V120 9999 -SHRA FEW018 SCT045 25/21 Q1007 NOSIG,0,5,0,10000,0,0,0,RA
2026-04-28 20:00:00,METAR VHHH 282000Z 17004KT 090V230 9999 FEW015 SCT045 25/22 Q1007 NOSIG,0,4,0,10000,0,0,0,
2026-04-28 19:51:00,SPECI VHHH 281951Z 14005KT 090V180 9999 FEW010 SCT045 25/20 Q1007 NOSIG,0,5,0,10000,0,0,0,
2026-04-28 19:30:00,METAR VHHH 281930Z 20010KT 9999 -SHRA FEW010 SCT045 24/21 Q1008 NOSIG,0,10,0,10000,0,0,0,RA
2026-04-28 19:15:00,SPECI VHHH 281915Z 20014KT 9999 -SHRA FEW010 FEW015CB SCT045 25/20 Q1008 NOSIG,0,14,0,10000,0,0,0,RA
2026-04-28 19:00:00,METAR VHHH 281900Z 20012KT 9999 -SHRA VCTS FEW010 FEW015CB SCT045 25/21 Q1008 RERA TEMPO 2500 TSRA SHRA FEW005CB SCT015,0,12,0,10000,1,0,0,"RA,SH,TS,VC"
2026-04-28 18:45:00,SPECI VHHH 281845Z 21015KT 9999 SHRA VCTS FEW010 FEW015CB SCT030 24/21 Q1008 TEMPO 2500 TSRA SHRA FEW005CB SCT015,0,15,0,10000,1,0,0,"RA,SH,TS,VC"
2026-04-28 18:40:00,SPECI VHHH 281840Z 21017KT 9999 -SHRA VCTS FEW010 FEW015CB SCT030 24/21 Q1008 RERA RETS TEMPO 2500 TSRA SHRA FEW005CB SCT015,0,17,0,10000,1,0,0,"RA,SH,TS,VC"
2026-04-28 18:30:00,METAR VHHH 281830Z 22015KT 9999 TSRA FEW010 FEW015CB SCT030 24/21 Q1009 TEMPO 24020G35KT 2000 TSRA +SHRA FEW005CB SCT015,0,15,0,10000,1,0,0,"RA,TS"
2026-04-28 18:18:00,SPECI VHHH 281818Z 23016KT 150V260 7000 TSRA FEW010 FEW015CB SCT030 24/21 Q1009 RERA TEMPO 24020G35KT 2000 TSRA +SHRA FEW005CB SCT015,0,16,0,7000,1,0,0,"RA,TS"
2026-04-28 18:10:00,SPECI VHHH 281810Z 17009KT 140V200 6000 +TSRA FEW010 FEW015CB SCT030 26/23 Q1008 TEMPO 24020G35KT 2000 TSRA +SHRA FEW005CB SCT015,0,9,0,6000,1,0,0,"RA,TS"
2026-04-28 18:05:00,SPECI VHHH 281805Z 12011KT 4000 TSRA FEW010 FEW015CB SCT030 27/23 Q1008 TEMPO 24020G35KT 2000 TSRA +SHRA FEW005CB SCT015,0,11,0,4000,1,0,0,"RA,TS"
2026-04-28 18:00:00,METAR VHHH 281800Z 12010KT 9999 TSRA FEW010 FEW015CB SCT030 27/22 Q1008 TEMPO 24020G35KT 2000 TSRA +SHRA FEW005CB SCT015,0,10,0,10000,1,0,0,"RA,TS"
2026-04-28 17:55:00,SPECI VHHH 281755Z 11009KT 9999 TSRA FEW010 FEW015CB SCT030 27/22 Q1008 TEMPO 24020G35KT 2000 TSRA +SHRA FEW005CB SCT015,0,9,0,10000,1,0,0,"RA,TS"
2026-04-28 17:40:00,SPECI VHHH 281740Z 14007KT 9999 VCTS FEW010 FEW015CB SCT030 27/22 Q1009 TEMPO FM1800 24020G35KT 2000 TSRA +SHRA FEW005CB SCT015,0,7,0,10000,1,0,0,"RA,TS,VC"
2026-04-28 17:30:00,METAR VHHH 281730Z 14008KT 9999 FEW010 FEW015CB SCT030 27/22 Q1009 TEMPO FM1800 24020G35KT 2000 TSRA +SHRA FEW005CB SCT015,0,8,0,10000,1,0,0,"RA,TS"
2026-04-28 17:00:00,METAR VHHH 281700Z 14008KT 9999 FEW010 FEW015CB SCT030 27/23 Q1009 TEMPO FM1800 24020G35KT 2000 TSRA +SHRA FEW005CB SCT015,0,8,0,10000,1,0,0,"RA,TS"
2026-04-28 16:30:00,METAR VHHH 281630Z 15008KT 9999 FEW010 27/22 Q1009 NOSIG,0,8,0,10000,0,0,0,
2026-04-28 16:00:00,METAR VHHH 281600Z 14008KT 9999 FEW010 27/22 Q1009 NOSIG,0,8,0,10000,0,0,0,
2026-04-28 15:30:00,METAR VHHH 281530Z 14006KT 100V170 9999 FEW015 27/22 Q1010 NOSIG,0,6,0,10000,0,0,0,
2026-04-28 15:00:00,METAR VHHH 281500Z 13005KT 110V170 9999 -SHRA FEW010 SCT025 27/23 Q1010 NOSIG,0,5,0,10000,0,0,0,RA
2026-04-28 14:30:00,METAR VHHH 281430Z 14007KT 110V190 9999 -SHRA FEW010 SCT025 27/23 Q1009 NOSIG,0,7,0,10000,0,0,0,RA
2026-04-28 14:00:00,METAR VHHH 281400Z 15010KT 9999 FEW010 27/22 Q1009 NOSIG,0,10,0,10000,0,0,0,
2026-04-28 13:30:00,METAR VHHH 281330Z 16008KT 130V200 9999 FEW012 27/22 Q1009 NOSIG,0,8,0,10000,0,0,0,
2026-04-28 13:00:00,METAR VHHH 281300Z 14007KT 120V200 9999 FEW010 27/22 Q1009 NOSIG,0,7,0,10000,0,0,0,
2026-04-28 12:30:00,METAR VHHH 281230Z 16007KT 9999 FEW010 27/23 Q1009 NOSIG,0,7,0,10000,0,0,0,
2026-04-28 12:00:00,METAR VHHH 281200Z 14007KT 080V200 9999 FEW010 SCT025 27/22 Q1009 NOSIG,0,7,0,10000,0,0,0,
2026-04-28 11:30:00,METAR VHHH 281130Z 15008KT 120V190 9999 FEW010 SCT025 27/22 Q1009 NOSIG,0,8,0,10000,0,0,0,
2026-04-28 11:00:00,METAR VHHH 281100Z 13007KT 080V180 9999 FEW010 SCT025 27/22 Q1009 NOSIG,0,7,0,10000,0,0,0,
2026-04-28 10:30:00,METAR VHHH 281030Z 12007KT 080V170 9999 FEW010 SCT025 27/22 Q1008 NOSIG,0,7,0,10000,0,0,0,
2026-04-28 10:00:00,METAR VHHH 281000Z 14010KT 100V160 9999 FEW010 SCT025 27/23 Q1008 NOSIG,0,10,0,10000,0,0,0,
2026-04-28 09:30:00,METAR VHHH 280930Z 14010KT 110V190 9999 FEW010 SCT025 27/23 Q1008 NOSIG,0,10,0,10000,0,0,0,
2026-04-28 09:00:00,METAR VHHH 280900Z 14013KT 9999 FEW010 SCT025 27/23 Q1008 NOSIG,0,13,0,10000,0,0,0,
2026-04-28 08:30:00,METAR VHHH 280830Z 14013KT 120V180 9999 FEW010 SCT025 27/23 Q1008 NOSIG,0,13,0,10000,0,0,0,
2026-04-28 08:00:00,METAR VHHH 280800Z 14013KT 9999 FEW010 SCT025 27/23 Q1008 NOSIG,0,13,0,10000,0,0,0,
2026-04-28 07:30:00,METAR VHHH 280730Z 15013KT 9999 VCSH FEW010 SCT025 27/22 Q1008 TEMPO 3500 SHRA FEW008CB SCT020,0,13,0,10000,0,0,0,"RA,SH,VC"
2026-04-28 07:00:00,METAR VHHH 280700Z 15013KT 120V200 9999 FEW010 SCT030 29/22 Q1008 TEMPO 3500 SHRA FEW008CB SCT020,0,13,0,10000,0,0,0,"RA,SH"
2026-04-28 06:30:00,METAR VHHH 280630Z 15014KT 9999 FEW012 SCT030 29/23 Q1008 TEMPO FM0730 3500 SHRA FEW008CB SCT020,0,14,0,10000,0,0,0,"RA,SH"
2026-04-28 06:00:00,METAR VHHH 280600Z 12010KT 080V180 9999 FEW012 SCT030 29/23 Q1009 NOSIG,0,10,0,10000,0,0,0,
2026-04-28 05:30:00,METAR VHHH 280530Z 12011KT 9999 FEW012 SCT030 29/23 Q1009 NOSIG,0,11,0,10000,0,0,0,
2026-04-28 05:00:00,METAR VHHH 280500Z 11012KT 090V150 9999 FEW012 SCT030 29/23 Q1009 NOSIG,0,12,0,10000,0,0,0,
2026-04-28 04:30:00,METAR VHHH 280430Z 12010KT 9999 FEW012 SCT030 28/23 Q1010 NOSIG,0,10,0,10000,0,0,0,
2026-04-28 04:00:00,METAR VHHH 280400Z 12012KT 9999 FEW015 SCT030 28/23 Q1011 WS R07R NOSIG,0,12,0,10000,0,0,0,
2026-04-28 03:30:00,METAR VHHH 280330Z 11014KT 9999 FEW015 SCT035 28/23 Q1011 NOSIG,0,14,0,10000,0,0,0,
2026-04-28 03:00:00,METAR VHHH 280300Z 11016KT 070V140 9999 FEW015 SCT035 28/23 Q1011 NOSIG,0,16,0,10000,0,0,0,
2026-04-28 02:30:00,METAR VHHH 280230Z 10012KT 070V130 9999 FEW015 SCT035 28/23 Q1011 NOSIG,0,12,0,10000,0,0,0,
2026-04-28 02:00:00,METAR VHHH 280200Z 10011KT 070V150 9999 FEW015 SCT035 28/23 Q1011 NOSIG,0,11,0,10000,0,0,0,
2026-04-28 01:30:00,METAR VHHH 280130Z 10010KT 9999 FEW015 SCT035 27/22 Q1011 NOSIG,0,10,0,10000,0,0,0,
2026-04-28 01:00:00,METAR VHHH 280100Z 09008KT 9999 FEW015 SCT040 27/22 Q1011 NOSIG,0,8,0,10000,0,0,0,
2026-04-28 00:30:00,METAR VHHH 280030Z 08010KT 9999 FEW015 SCT045 27/22 Q1011 NOSIG,0,10,0,10000,0,0,0,
2026-04-28 00:00:00,METAR VHHH 280000Z 10010KT 070V130 9999 FEW015 SCT045 26/22 Q1011 NOSIG,0,10,0,10000,0,0,0,
2026-04-27 23:30:00,METAR VHHH 272330Z 11008KT 9999 FEW015 26/22 Q1011 NOSIG,0,8,0,10000,0,0,0,
2026-04-27 23:00:00,METAR VHHH 272300Z 10013KT 9999 FEW015 26/22 Q1010 NOSIG,0,13,0,10000,0,0,0,
2026-04-27 22:30:00,METAR VHHH 272230Z 10011KT 9999 FEW015 25/21 Q1010 NOSIG,0,11,0,10000,0,0,0,
2026-04-27 22:00:00,METAR VHHH 272200Z 10012KT 9999 FEW015 25/22 Q1010 NOSIG,0,12,0,10000,0,0,0,
2026-04-27 21:30:00,METAR VHHH 272130Z 11012KT 9999 FEW015 25/22 Q1010 NOSIG,0,12,0,10000,0,0,0,
2026-04-27 21:00:00,METAR VHHH 272100Z 10011KT 9999 FEW015 25/21 Q1010 NOSIG,0,11,0,10000,0,0,0,
2026-04-27 20:30:00,METAR VHHH 272030Z 10009KT 9999 FEW015 25/21 Q1009 NOSIG,0,9,0,10000,0,0,0,
2026-04-27 20:00:00,METAR VHHH 272000Z 10007KT 060V140 9999 FEW015 25/21 Q1009 NOSIG,0,7,0,10000,0,0,0,
2026-04-27 19:30:00,METAR VHHH 271930Z 09008KT 9999 FEW015 SCT040 25/21 Q1010 NOSIG,0,8,0,10000,0,0,0,
2026-04-27 19:00:00,METAR VHHH 271900Z 10010KT 9999 FEW025 SCT040 25/21 Q1010 NOSIG,0,10,0,10000,0,0,0,
2026-04-27 18:30:00,METAR VHHH 271830Z 11011KT 080V140 9999 FEW025 SCT040 25/21 Q1010 NOSIG,0,11,0,10000,0,0,0,
2026-04-27 18:00:00,METAR VHHH 271800Z 13010KT 9999 FEW025 SCT040 25/21 Q1011 NOSIG,0,10,0,10000,0,0,0,
2026-04-27 17:30:00,METAR VHHH 271730Z 12011KT 9999 FEW025 SCT040 25/20 Q1011 NOSIG,0,11,0,10000,0,0,0,
2026-04-27 17:00:00,METAR VHHH 271700Z 11010KT 9999 FEW025 25/20 Q1011 NOSIG,0,10,0,10000,0,0,0,
2026-04-27 16:30:00,METAR VHHH 271630Z 10008KT 9999 FEW025 25/21 Q1011 NOSIG,0,8,0,10000,0,0,0,
2026-04-27 16:00:00,METAR VHHH 271600Z 10011KT 9999 FEW018 25/21 Q1011 NOSIG,0,11,0,10000,0,0,0,
2026-04-27 15:30:00,METAR VHHH 271530Z 11013KT 9999 FEW018 26/21 Q1011 NOSIG,0,13,0,10000,0,0,0,
2026-04-27 15:00:00,METAR VHHH 271500Z 09011KT 9999 FEW018 25/21 Q1011 NOSIG,0,11,0,10000,0,0,0,
2026-04-27 14:30:00,METAR VHHH 271430Z 10012KT 9999 -SHRA FEW015 26/21 Q1011 NOSIG,0,12,0,10000,0,0,0,RA
2026-04-27 14:00:00,METAR VHHH 271400Z 10013KT 9999 FEW020 26/21 Q1011 NOSIG,0,13,0,10000,0,0,0,
2026-04-27 13:30:00,METAR VHHH 271330Z 11013KT 9999 FEW020 25/21 Q1011 NOSIG,0,13,0,10000,0,0,0,
2026-04-27 13:00:00,METAR VHHH 271300Z 11012KT 9999 FEW020 26/21 Q1011 NOSIG,0,12,0,10000,0,0,0,
2026-04-27 12:30:00,METAR VHHH 271230Z 12009KT 090V150 9999 FEW020 26/20 Q1011 NOSIG,0,9,0,10000,0,0,0,
2026-04-27 12:00:00,METAR VHHH 271200Z 14006KT 110V200 9999 FEW020 26/20 Q1011 NOSIG,0,6,0,10000,0,0,0,
2026-04-27 11:30:00,METAR VHHH 271130Z 13009KT 110V170 9999 FEW020 25/21 Q1011 NOSIG,0,9,0,10000,0,0,0,
2026-04-27 11:00:00,METAR VHHH 271100Z 10008KT 9999 FEW020 26/20 Q1011 NOSIG,0,8,0,10000,0,0,0,
2026-04-27 10:30:00,METAR VHHH 271030Z 09010KT 9999 FEW030 26/21 Q1011 NOSIG,0,10,0,10000,0,0,0,
2026-04-27 10:00:00,METAR VHHH 271000Z VRB03KT 9999 FEW030 26/20 Q1010 NOSIG,0,3,0,10000,0,0,0,
2026-04-27 09:30:00,METAR VHHH 270930Z 15007KT 120V200 9999 FEW020 27/21 Q1010 NOSIG,0,7,0,10000,0,0,0,
2026-04-27 09:00:00,METAR VHHH 270900Z 15005KT 100V200 9999 FEW020 27/20 Q1010 NOSIG,0,5,0,10000,0,0,0,
2026-04-27 08:30:00,METAR VHHH 270830Z 11007KT 080V150 9999 FEW020 28/20 Q1010 NOSIG,0,7,0,10000,0,0,0,
2026-04-27 08:00:00,METAR VHHH 270800Z 11006KT 060V140 9999 FEW030 28/20 Q1010 NOSIG,0,6,0,10000,0,0,0,
2026-04-27 07:30:00,METAR VHHH 270730Z 10008KT 070V130 9999 FEW025 28/20 Q1010 NOSIG,0,8,0,10000,0,0,0,
2026-04-27 07:00:00,METAR VHHH 270700Z 08010KT 9999 FEW025 27/20 Q1010 NOSIG,0,10,0,10000,0,0,0,
2026-04-27 06:30:00,METAR VHHH 270630Z 09011KT 9999 FEW028 28/20 Q1011 NOSIG,0,11,0,10000,0,0,0,
2026-04-27 06:00:00,METAR VHHH 270600Z 09010KT 9999 FEW025 28/20 Q1011 NOSIG,0,10,0,10000,0,0,0,
2026-04-27 05:30:00,METAR VHHH 270530Z 09010KT 9999 FEW025 28/20 Q1012 NOSIG,0,10,0,10000,0,0,0,
2026-04-27 05:00:00,METAR VHHH 270500Z 11011KT 080V140 9999 FEW020 28/20 Q1012 NOSIG,0,11,0,10000,0,0,0,
2026-04-27 04:30:00,METAR VHHH 270430Z 10013KT 9999 FEW018 28/20 Q1012 NOSIG,0,13,0,10000,0,0,0,
2026-04-27 04:00:00,METAR VHHH 270400Z 11012KT 9999 FEW018 28/20 Q1013 NOSIG,0,12,0,10000,0,0,0,
2026-04-27 03:30:00,METAR VHHH 270330Z 10013KT 9999 FEW018 28/20 Q1013 NOSIG,0,13,0,10000,0,0,0,
2026-04-27 03:00:00,METAR VHHH 270300Z 11014KT 9999 FEW020 28/20 Q1013 NOSIG,0,14,0,10000,0,0,0,
2026-04-27 02:30:00,METAR VHHH 270230Z 09011KT 9999 FEW020 28/20 Q1013 NOSIG,0,11,0,10000,0,0,0,
2026-04-27 02:00:00,METAR VHHH 270200Z 09012KT 9999 FEW020 28/20 Q1013 NOSIG,0,12,0,10000,0,0,0,
2026-04-27 01:30:00,METAR VHHH 270130Z 09011KT 9999 FEW015 27/20 Q1014 NOSIG,0,11,0,10000,0,0,0,
2026-04-27 01:00:00,METAR VHHH 270100Z 09011KT 9999 FEW015 26/20 Q1014 NOSIG,0,11,0,10000,0,0,0,
2026-04-27 00:30:00,METAR VHHH 270030Z 08009KT 9999 FEW015 26/20 Q1013 NOSIG,0,9,0,10000,0,0,0,
2026-04-27 00:00:00,METAR VHHH 270000Z 08008KT 9999 FEW015 25/20 Q1013 NOSIG,0,8,0,10000,0,0,0,
2026-04-26 23:30:00,METAR VHHH 262330Z 09008KT 9999 FEW015 25/20 Q1013 NOSIG,0,8,0,10000,0,0,0,
2026-04-26 23:00:00,METAR VHHH 262300Z 10009KT 9999 FEW015 24/20 Q1013 NOSIG,0,9,0,10000,0,0,0,
2026-04-26 22:30:00,METAR VHHH 262230Z 10008KT 9999 FEW015 24/20 Q1012 NOSIG,0,8,0,10000,0,0,0,
2026-04-26 22:00:00,METAR VHHH 262200Z 11008KT 9999 FEW015 24/20 Q1012 NOSIG,0,8,0,10000,0,0,0,
2026-04-26 21:30:00,METAR VHHH 262130Z 11008KT 9999 FEW015 24/20 Q1011 NOSIG,0,8,0,10000,0,0,0,
2026-04-26 21:00:00,METAR VHHH 262100Z 10009KT 9999 FEW015 24/20 Q1011 NOSIG,0,9,0,10000,0,0,0,
2026-04-26 20:30:00,METAR VHHH 262030Z 09010KT 9999 FEW015 24/20 Q1011 NOSIG,0,10,0,10000,0,0,0,
2026-04-26 20:00:00,METAR VHHH 262000Z 11008KT 9999 FEW015 24/20 Q1011 NOSIG,0,8,0,10000,0,0,0,
2026-04-26 19:30:00,METAR VHHH 261930Z 11010KT 9999 FEW015 24/20 Q1011 NOSIG,0,10,0,10000,0,0,0,
2026-04-26 19:00:00,METAR VHHH 261900Z 11010KT 9999 FEW015 24/20 Q1011 NOSIG,0,10,0,10000,0,0,0,
2026-04-26 18:30:00,METAR VHHH 261830Z 10010KT 9999 FEW015 24/20 Q1011 NOSIG,0,10,0,10000,0,0,0,
2026-04-26 18:00:00,METAR VHHH 261800Z 10012KT 9999 FEW018 24/20 Q1011 NOSIG,0,12,0,10000,0,0,0,
2026-04-26 17:30:00,METAR VHHH 261730Z 10008KT 9999 FEW018 24/20 Q1012 NOSIG,0,8,0,10000,0,0,0,
2026-04-26 17:00:00,METAR VHHH 261700Z 10011KT 9999 FEW020 24/19 Q1012 NOSIG,0,11,0,10000,0,0,0,
2026-04-26 16:30:00,METAR VHHH 261630Z 10010KT CAVOK 24/19 Q1012 NOSIG,1,0,0,9999,0,0,0,
2026-04-26 16:00:00,METAR VHHH 261600Z 10010KT CAVOK 25/19 Q1012 NOSIG,1,0,0,9999,0,0,0,
2026-04-26 15:30:00,METAR VHHH 261530Z 10009KT CAVOK 25/19 Q1013 NOSIG,1,0,0,9999,0,0,0,
2026-04-26 15:00:00,METAR VHHH 261500Z 10010KT CAVOK 25/18 Q1013 NOSIG,1,0,0,9999,0,0,0,
2026-04-26 14:30:00,METAR VHHH 261430Z 10010KT CAVOK 25/19 Q1013 NOSIG,1,0,0,9999,0,0,0,
2026-04-26 14:00:00,METAR VHHH 261400Z 10008KT CAVOK 25/18 Q1013 NOSIG,1,0,0,9999,0,0,0,
2026-04-26 13:30:00,METAR VHHH 261330Z 10007KT CAVOK 25/18 Q1012 NOSIG,1,0,0,9999,0,0,0,
2026-04-26 13:00:00,METAR VHHH 261300Z 09006KT CAVOK 25/17 Q1012 NOSIG,1,0,0,9999,0,0,0,
2026-04-26 12:30:00,METAR VHHH 261230Z 09007KT 060V120 CAVOK 26/17 Q1012 NOSIG,1,0,0,9999,0,0,0,
2026-04-26 12:00:00,METAR VHHH 261200Z 10004KT 070V140 CAVOK 26/17 Q1012 NOSIG,1,0,0,9999,0,0,0,
2026-04-26 11:30:00,METAR VHHH 261130Z 12007KT CAVOK 26/18 Q1011 NOSIG,1,0,0,9999,0,0,0,
2026-04-26 11:00:00,METAR VHHH 261100Z 12007KT CAVOK 26/19 Q1011 NOSIG,1,0,0,9999,0,0,0,
2026-04-26 10:30:00,METAR VHHH 261030Z 10009KT CAVOK 26/19 Q1011 NOSIG,1,0,0,9999,0,0,0,
2026-04-26 10:00:00,METAR VHHH 261000Z 10008KT CAVOK 27/19 Q1011 NOSIG,1,0,0,9999,0,0,0,
2026-04-26 09:30:00,METAR VHHH 260930Z 10008KT 9999 FEW028 28/20 Q1011 NOSIG,0,8,0,10000,0,0,0,
2026-04-26 09:00:00,METAR VHHH 260900Z 09007KT 9999 FEW028 28/20 Q1011 NOSIG,0,7,0,10000,0,0,0,
2026-04-26 08:30:00,METAR VHHH 260830Z 36004KT 330V050 9999 FEW028 27/20 Q1011 BECMG 10010KT,0,4,0,10000,0,0,0,
2026-04-26 08:00:00,METAR VHHH 260800Z 35003KT 9999 FEW028 28/20 Q1011 BECMG 10010KT,0,3,0,10000,0,0,0,
2026-04-26 07:30:00,METAR VHHH 260730Z 31005KT 9999 FEW028 28/20 Q1011 NOSIG,0,5,0,10000,0,0,0,
2026-04-26 07:00:00,METAR VHHH 260700Z 29004KT 9999 FEW020 28/20 Q1012 NOSIG,0,4,0,10000,0,0,0,
2026-04-26 06:30:00,METAR VHHH 260630Z 27007KT 9999 FEW020 28/20 Q1012 NOSIG,0,7,0,10000,0,0,0,
2026-04-26 06:00:00,METAR VHHH 260600Z 28006KT 9999 FEW020 29/20 Q1012 NOSIG,0,6,0,10000,0,0,0,
2026-04-26 05:30:00,METAR VHHH 260530Z 27007KT 9999 FEW020 28/21 Q1013 NOSIG,0,7,0,10000,0,0,0,
2026-04-26 05:00:00,METAR VHHH 260500Z 27007KT 9999 FEW022 27/21 Q1013 NOSIG,0,7,0,10000,0,0,0,
2026-04-26 04:30:00,METAR VHHH 260430Z 27007KT 9999 FEW022 27/20 Q1014 NOSIG,0,7,0,10000,0,0,0,
2026-04-26 04:00:00,METAR VHHH 260400Z 33006KT 9999 FEW020 26/20 Q1014 NOSIG,0,6,0,10000,0,0,0,
2026-04-26 03:30:00,METAR VHHH 260330Z 32006KT 9999 FEW020 28/19 Q1015 NOSIG,0,6,0,10000,0,0,0,
2026-04-26 03:00:00,METAR VHHH 260300Z 35003KT 310V030 9999 FEW018 27/20 Q1015 BECMG FM0400 27010KT,0,3,0,10000,0,0,0,
2026-04-26 02:30:00,METAR VHHH 260230Z 07004KT 030V130 9999 FEW015 27/19 Q1015 NOSIG,0,4,0,10000,0,0,0,
2026-04-26 02:00:00,METAR VHHH 260200Z 09006KT 9999 FEW015 26/19 Q1015 NOSIG,0,6,0,10000,0,0,0,
2026-04-26 01:30:00,METAR VHHH 260130Z 08007KT 9999 FEW015 26/19 Q1015 NOSIG,0,7,0,10000,0,0,0,
2026-04-26 01:00:00,METAR VHHH 260100Z 08006KT 9999 FEW015 26/20 Q1015 NOSIG,0,6,0,10000,0,0,0,
2026-04-26 00:30:00,METAR VHHH 260030Z 08006KT 9999 FEW015 25/20 Q1015 NOSIG,0,6,0,10000,0,0,0,
2026-04-26 00:00:00,METAR VHHH 260000Z 08007KT 9999 FEW014 25/20 Q1015 NOSIG,0,7,0,10000,0,0,0,
2026-04-25 23:30:00,METAR VHHH 252330Z 08007KT 9999 FEW015 24/20 Q1015 NOSIG,0,7,0,10000,0,0,0,
2026-04-25 23:00:00,METAR VHHH 252300Z 08006KT 9999 FEW015 24/20 Q1014 NOSIG,0,6,0,10000,0,0,0,
2026-04-25 22:30:00,METAR VHHH 252230Z 08006KT 9999 FEW015 23/20 Q1014 NOSIG,0,6,0,10000,0,0,0,
2026-04-25 22:00:00,METAR VHHH 252200Z 08008KT 9999 FEW015 23/20 Q1014 NOSIG,0,8,0,10000,0,0,0,
2026-04-25 21:30:00,METAR VHHH 252130Z 08007KT 9999 FEW015 23/20 Q1013 NOSIG,0,7,0,10000,0,0,0,
2026-04-25 21:00:00,METAR VHHH 252100Z 08008KT 9999 FEW015 24/20 Q1013 NOSIG,0,8,0,10000,0,0,0,
2026-04-25 20:30:00,METAR VHHH 252030Z 08009KT 9999 FEW015 24/20 Q1013 NOSIG,0,9,0,10000,0,0,0,
2026-04-25 20:00:00,METAR VHHH 252000Z 09009KT 9999 FEW015 24/20 Q1013 NOSIG,0,9,0,10000,0,0,0,
2026-04-25 19:30:00,METAR VHHH 251930Z 09010KT 9999 FEW015 SCT040 24/20 Q1013 NOSIG,0,10,0,10000,0,0,0,
2026-04-25 19:00:00,METAR VHHH 251900Z 11008KT 9999 FEW015 SCT040 24/20 Q1013 NOSIG,0,8,0,10000,0,0,0,
2026-04-25 18:30:00,METAR VHHH 251830Z 09008KT 9999 FEW015 SCT040 24/20 Q1013 NOSIG,0,8,0,10000,0,0,0,
2026-04-25 18:00:00,METAR VHHH 251800Z 09009KT 9999 FEW015 SCT040 24/20 Q1013 NOSIG,0,9,0,10000,0,0,0,
2026-04-25 17:30:00,METAR VHHH 251730Z 09010KT 9999 FEW015 24/20 Q1014 NOSIG,0,10,0,10000,0,0,0,
2026-04-25 17:00:00,METAR VHHH 251700Z 10009KT 9999 FEW015 24/20 Q1014 NOSIG,0,9,0,10000,0,0,0,
2026-04-25 16:30:00,METAR VHHH 251630Z 10010KT 9999 FEW015 24/20 Q1014 NOSIG,0,10,0,10000,0,0,0,
2026-04-25 16:00:00,METAR VHHH 251600Z 10011KT 9999 FEW015 24/20 Q1014 NOSIG,0,11,0,10000,0,0,0,
2026-04-25 15:30:00,METAR VHHH 251530Z 09011KT 9999 FEW015 24/21 Q1014 NOSIG,0,11,0,10000,0,0,0,
2026-04-25 15:00:00,METAR VHHH 251500Z 09010KT 9999 FEW018 25/21 Q1015 NOSIG,0,10,0,10000,0,0,0,
2026-04-25 14:30:00,METAR VHHH 251430Z 10011KT 9999 FEW015 24/21 Q1015 NOSIG,0,11,0,10000,0,0,0,
2026-04-25 14:00:00,METAR VHHH 251400Z 09011KT 9999 FEW015 24/20 Q1015 NOSIG,0,11,0,10000,0,0,0,
2026-04-25 13:30:00,METAR VHHH 251330Z 10011KT 9999 FEW015 25/21 Q1015 NOSIG,0,11,0,10000,0,0,0,
2026-04-25 13:00:00,METAR VHHH 251300Z 11009KT 9999 FEW015 24/20 Q1014 NOSIG,0,9,0,10000,0,0,0,
2026-04-25 12:30:00,METAR VHHH 251230Z 11009KT 9999 FEW015 25/20 Q1014 NOSIG,0,9,0,10000,0,0,0,
2026-04-25 12:00:00,METAR VHHH 251200Z 11009KT 9999 FEW015 25/20 Q1014 NOSIG,0,9,0,10000,0,0,0,
2026-04-25 11:30:00,METAR VHHH 251130Z 11010KT 9999 FEW015 25/20 Q1014 NOSIG,0,10,0,10000,0,0,0,
2026-04-25 11:00:00,METAR VHHH 251100Z 11010KT 9999 FEW015 25/20 Q1014 NOSIG,0,10,0,10000,0,0,0,
2026-04-25 10:30:00,METAR VHHH 251030Z 10006KT 060V150 9999 FEW018 26/21 Q1013 NOSIG,0,6,0,10000,0,0,0,
2026-04-25 10:00:00,METAR VHHH 251000Z VRB03KT 9999 FEW018 SCT045 26/20 Q1013 BECMG 06010KT,0,3,0,10000,0,0,0,
2026-04-25 09:30:00,METAR VHHH 250930Z 25003KT 200V340 9999 FEW020 SCT045 26/19 Q1013 NOSIG,0,3,0,10000,0,0,0,
2026-04-25 09:00:00,METAR VHHH 250900Z 23006KT 9999 FEW020 26/19 Q1013 NOSIG,0,6,0,10000,0,0,0,
2026-04-25 08:30:00,METAR VHHH 250830Z 29004KT 9999 FEW022 26/18 Q1013 NOSIG,0,4,0,10000,0,0,0,
2026-04-25 08:00:00,METAR VHHH 250800Z 28004KT 9999 FEW022 26/18 Q1013 NOSIG,0,4,0,10000,0,0,0,
2026-04-25 07:30:00,METAR VHHH 250730Z 29004KT 9999 FEW025 27/19 Q1013 NOSIG,0,4,0,10000,0,0,0,
2026-04-25 07:00:00,METAR VHHH 250700Z 29005KT 9999 FEW025 27/19 Q1013 NOSIG,0,5,0,10000,0,0,0,
2026-04-25 06:30:00,METAR VHHH 250630Z 29005KT 9999 FEW020 SCT045 26/19 Q1013 NOSIG,0,5,0,10000,0,0,0,
2026-04-25 06:00:00,METAR VHHH 250600Z 30004KT 270V330 9999 FEW020 SCT045 26/18 Q1014 NOSIG,0,4,0,10000,0,0,0,
2026-04-25 05:30:00,METAR VHHH 250530Z 30005KT 260V320 9999 FEW020 26/19 Q1015 NOSIG,0,5,0,10000,0,0,0,
2026-04-25 05:00:00,METAR VHHH 250500Z 31004KT 270V330 9999 FEW015 26/19 Q1015 NOSIG,0,4,0,10000,0,0,0,
2026-04-25 04:30:00,METAR VHHH 250430Z 30005KT 9999 FEW015 25/18 Q1015 NOSIG,0,5,0,10000,0,0,0,
2026-04-25 04:00:00,METAR VHHH 250400Z 30004KT 260V340 9999 FEW015 24/18 Q1016 NOSIG,0,4,0,10000,0,0,0,
2026-04-25 03:30:00,METAR VHHH 250330Z 31007KT 9999 FEW015 24/18 Q1016 NOSIG,0,7,0,10000,0,0,0,
2026-04-25 03:00:00,METAR VHHH 250300Z 32006KT 290V350 9999 FEW012 SCT040 23/18 Q1017 NOSIG,0,6,0,10000,0,0,0,
2026-04-25 02:30:00,METAR VHHH 250230Z 33006KT 260V360 9999 FEW012 SCT040 23/17 Q1017 NOSIG,0,6,0,10000,0,0,0,
2026-04-25 02:00:00,METAR VHHH 250200Z VRB02KT 9999 FEW012 SCT035 23/17 Q1017 NOSIG,0,2,0,10000,0,0,0,
2026-04-25 01:30:00,METAR VHHH 250130Z 06003KT 360V110 9999 FEW010 SCT035 23/17 Q1016 NOSIG,0,3,0,10000,0,0,0,
2026-04-25 01:00:00,METAR VHHH 250100Z 07006KT 9999 FEW010 SCT035 22/16 Q1016 NOSIG,0,6,0,10000,0,0,0,
2026-04-25 00:30:00,METAR VHHH 250030Z 01003KT 330V070 9999 FEW010 SCT035 22/16 Q1016 NOSIG,0,3,0,10000,0,0,0,
2026-04-25 00:00:00,METAR VHHH 250000Z 36008KT 9999 FEW010 SCT035 21/17 Q1016 NOSIG,0,8,0,10000,0,0,0,
2026-04-24 23:30:00,METAR VHHH 242330Z 35008KT 330V030 9999 FEW010 SCT035 21/17 Q1016 NOSIG,0,8,0,10000,0,0,0,
2026-04-24 23:00:00,METAR VHHH 242300Z 07003KT 030V110 9999 FEW010 SCT035 21/17 Q1016 NOSIG,0,3,0,10000,0,0,0,
2026-04-24 22:30:00,METAR VHHH 242230Z 09005KT 050V150 9999 FEW012 21/17 Q1015 NOSIG,0,5,0,10000,0,0,0,
2026-04-24 22:00:00,METAR VHHH 242200Z 08006KT 9999 FEW012 20/17 Q1015 NOSIG,0,6,0,10000,0,0,0,
2026-04-24 21:30:00,METAR VHHH 242130Z 11004KT 060V150 9999 FEW012 SCT045 20/17 Q1014 NOSIG,0,4,0,10000,0,0,0,
2026-04-24 21:00:00,METAR VHHH 242100Z VRB02KT 9999 FEW010 SCT040 20/18 Q1014 NOSIG,0,2,0,10000,0,0,0,
2026-04-24 20:30:00,METAR VHHH 242030Z 34006KT 9999 FEW010 SCT040 20/17 Q1014 NOSIG,0,6,0,10000,0,0,0,
2026-04-24 20:00:00,METAR VHHH 242000Z VRB03KT 9999 FEW010 SCT045 20/17 Q1013 NOSIG,0,3,0,10000,0,0,0,
2026-04-24 19:30:00,METAR VHHH 241930Z 12003KT 060V170 9999 -RA FEW012 SCT045 20/17 Q1013 NOSIG,0,3,0,10000,0,0,0,-RA
2026-04-24 19:00:00,METAR VHHH 241900Z 10004KT 070V130 9999 FEW012 SCT045 20/17 Q1013 NOSIG,0,4,0,10000,0,0,0,
2026-04-24 18:30:00,METAR VHHH 241830Z 07005KT 030V100 9999 FEW012 SCT045 20/17 Q1013 NOSIG,0,5,0,10000,0,0,0,
2026-04-24 18:00:00,METAR VHHH 241800Z 10004KT 060V120 9999 FEW012 SCT045 20/17 Q1013 NOSIG,0,4,0,10000,0,0,0,
2026-04-24 17:30:00,METAR VHHH 241730Z 14003KT 100V170 9999 FEW012 SCT045 20/17 Q1014 NOSIG,0,3,0,10000,0,0,0,
2026-04-24 17:00:00,METAR VHHH 241700Z 24003KT 9999 FEW012 20/17 Q1014 NOSIG,0,3,0,10000,0,0,0,
2026-04-24 16:30:00,METAR VHHH 241630Z 11003KT 9999 FEW012 20/18 Q1014 NOSIG,0,3,0,10000,0,0,0,
2026-04-24 16:00:00,METAR VHHH 241600Z 08005KT 9999 FEW012 20/17 Q1014 NOSIG,0,5,0,10000,0,0,0,
2026-04-24 15:30:00,METAR VHHH 241530Z 08008KT 9999 FEW012 20/17 Q1014 NOSIG,0,8,0,10000,0,0,0,
2026-04-24 15:00:00,METAR VHHH 241500Z 07009KT 9999 FEW015 20/17 Q1015 NOSIG,0,9,0,10000,0,0,0,
2026-04-24 14:30:00,METAR VHHH 241430Z 07011KT 9999 FEW010 20/17 Q1015 NOSIG,0,11,0,10000,0,0,0,
2026-04-24 14:00:00,METAR VHHH 241400Z 07013KT 9999 -SHRA FEW008 SCT020 20/17 Q1015 NOSIG,0,13,0,10000,0,0,0,RA
2026-04-24 13:30:00,METAR VHHH 241330Z 08008KT 9999 -SHRA FEW008 SCT018 20/17 Q1016 TEMPO 3500 TSRA SHRA FEW010CB SCT020,0,8,0,10000,1,0,0,"RA,SH,TS"
2026-04-24 13:00:00,METAR VHHH 241300Z 04007KT 360V090 9999 -SHRA FEW008 SCT018 20/18 Q1015 RERA TEMPO 3500 TSRA SHRA FEW010CB SCT020,0,7,0,10000,1,0,0,"RA,SH,TS"
2026-04-24 12:30:00,METAR VHHH 241230Z 01008KT 340V040 9999 SHRA FEW006 SCT018 19/18 Q1016 TEMPO 3500 TSRA SHRA FEW010CB SCT020,0,8,0,10000,1,0,0,"RA,SH,TS"
2026-04-24 12:00:00,METAR VHHH 241200Z 35008KT 320V020 9999 -SHRA FEW006 SCT018 20/18 Q1015 TEMPO 3500 TSRA SHRA FEW010CB SCT020,0,8,0,10000,1,0,0,"RA,SH,TS"
2026-04-24 11:30:00,METAR VHHH 241130Z VRB03KT 9999 -SHRA FEW006 SCT018 20/18 Q1014 RERA TEMPO 3500 TSRA SHRA FEW010CB SCT020,0,3,0,10000,1,0,0,"RA,SH,TS"
2026-04-24 11:00:00,METAR VHHH 241100Z 36005KT 330V050 9999 SHRA FEW006 SCT018 19/17 Q1015 TEMPO 3500 TSRA SHRA FEW010CB SCT020,0,5,0,10000,1,0,0,"RA,SH,TS"
2026-04-24 10:52:00,SPECI VHHH 241052Z 36005KT 330V050 9999 SHRA FEW006 SCT018 19/18 Q1015 TEMPO 3500 TSRA SHRA FEW010CB SCT020,0,5,0,10000,1,0,0,"RA,SH,TS"
2026-04-24 10:30:00,METAR VHHH 241030Z 33003KT 290V030 9999 -SHRA FEW006 SCT018 19/18 Q1014 RERA TEMPO 3500 TSRA SHRA FEW010CB SCT020,0,3,0,10000,1,0,0,"RA,SH,TS"
2026-04-24 10:15:00,SPECI VHHH 241015Z 02003KT 360V070 9999 SHRA FEW006 SCT018 19/18 Q1014 TEMPO 3500 TSRA SHRA FEW010CB SCT020,0,3,0,10000,1,0,0,"RA,SH,TS"
2026-04-24 10:00:00,METAR VHHH 241000Z 06003KT 010V080 9999 -SHRA FEW006 SCT018 19/18 Q1014 TEMPO 3500 TSRA SHRA FEW010CB SCT020,0,3,0,10000,1,0,0,"RA,SH,TS"
2026-04-24 09:47:00,SPECI VHHH 240947Z 06004KT 9999 -SHRA FEW006 SCT018 19/18 Q1014 RERA TEMPO 3500 TSRA SHRA FEW010CB SCT020,0,4,0,10000,1,0,0,"RA,SH,TS"
2026-04-24 09:30:00,METAR VHHH 240930Z 02004KT 330V080 4200 +SHRA FEW006 SCT018 19/18 Q1014 TEMPO 3500 TSRA SHRA FEW010CB SCT020,0,4,0,4200,1,0,0,"RA,SH,TS"
2026-04-24 09:24:00,SPECI VHHH 240924Z 36005KT 320V040 4400 +SHRA FEW006 SCT018 19/18 Q1014 TEMPO 3500 TSRA SHRA FEW010CB SCT020,0,5,0,4400,1,0,0,"RA,SH,TS"
2026-04-24 09:16:00,SPECI VHHH 240916Z 35006KT 7000 SHRA FEW006 SCT018 19/18 Q1014 RERA TEMPO 3500 TSRA SHRA FEW010CB SCT020,0,6,0,7000,1,0,0,"RA,SH,TS"
2026-04-24 09:00:00,METAR VHHH 240900Z 35010KT 2500 +SHRA FEW006 SCT018 19/18 Q1013 TEMPO 3500 TSRA SHRA FEW010CB SCT020,0,10,0,2500,1,0,0,"RA,SH,TS"
2026-04-24 08:44:00,SPECI VHHH 240844Z VRB01KT 3500 1500E +SHRA FEW008 SCT018 19/18 Q1013 TEMPO 3500 TSRA SHRA FEW010CB SCT020,0,1,0,3500,1,0,0,"RA,SH,TS"
2026-04-24 08:36:00,SPECI VHHH 240836Z 15005KT 120V180 4700 SHRA FEW008 SCT018 19/17 Q1013 TEMPO 3500 TSRA SHRA FEW010CB SCT020,0,5,0,4700,1,0,0,"RA,SH,TS"
2026-04-24 08:30:00,METAR VHHH 240830Z 11006KT 080V150 6000 SHRA FEW008 SCT018 19/17 Q1013 TEMPO 3500 TSRA SHRA FEW010CB SCT020,0,6,0,6000,1,0,0,"RA,SH,TS"
2026-04-24 08:18:00,SPECI VHHH 240818Z 06006KT 010V090 6000 SHRA FEW008 SCT018 19/17 Q1013 TEMPO 3500 TSRA SHRA FEW010CB SCT020,0,6,0,6000,1,0,0,"RA,SH,TS"
2026-04-24 08:00:00,METAR VHHH 240800Z 36013KT 8000 SHRA FEW008 SCT018 19/17 Q1013 TEMPO 3500 TSRA SHRA FEW010CB SCT020,0,13,0,8000,1,0,0,"RA,SH,TS"
2026-04-24 07:30:00,METAR VHHH 240730Z 36013KT 9999 -SHRA FEW008 SCT020 20/17 Q1012 TEMPO 3500 TSRA SHRA FEW010CB SCT020,0,13,0,10000,1,0,0,"RA,SH,TS"
2026-04-24 07:00:00,METAR VHHH 240700Z 02004KT 340V080 9999 -SHRA FEW008 SCT020 20/17 Q1012 TEMPO 3500 TSRA SHRA FEW010CB SCT020,0,4,0,10000,1,0,0,"RA,SH,TS"
2026-04-24 06:30:00,METAR VHHH 240630Z 01006KT 330V040 9999 -SHRA FEW008 SCT020 19/18 Q1012 RERA TEMPO 3500 TSRA SHRA FEW010CB SCT020,0,6,0,10000,1,0,0,"RA,SH,TS"
2026-04-24 06:00:00,METAR VHHH 240600Z 03003KT 340V080 5000 2200N SHRA FEW008 SCT020 19/18 Q1012 TEMPO 3500 TSRA SHRA FEW010CB SCT020,0,3,0,5000,1,0,0,"RA,SH,TS"
2026-04-24 05:34:00,SPECI VHHH 240534Z 06008KT 7000 SHRA FEW008 SCT020 20/17 Q1013 TEMPO 3500 TSRA SHRA FEW010CB SCT020,0,8,0,7000,1,0,0,"RA,SH,TS"
2026-04-24 05:30:00,METAR VHHH 240530Z 07007KT 9999 3900W -SHRA FEW008 SCT020 20/17 Q1013 TEMPO 3500 TSRA SHRA FEW010CB SCT020,0,7,0,10000,1,0,0,"RA,SH,TS"
2026-04-24 05:00:00,METAR VHHH 240500Z 01009KT 9999 -SHRA FEW008 SCT020 20/17 Q1013 TEMPO 3500 TSRA SHRA FEW010CB SCT020,0,9,0,10000,1,0,0,"RA,SH,TS"
2026-04-24 04:30:00,METAR VHHH 240430Z 35009KT 9999 -SHRA FEW008 SCT020 21/18 Q1013 TEMPO 3500 TSRA SHRA FEW010CB SCT020,0,9,0,10000,1,0,0,"RA,SH,TS"
2026-04-24 04:00:00,METAR VHHH 240400Z 05007KT 020V080 9999 -SHRA FEW008 SCT020 21/18 Q1013 TEMPO 3500 TSRA SHRA FEW010CB SCT020,0,7,0,10000,1,0,0,"RA,SH,TS"
2026-04-24 03:30:00,METAR VHHH 240330Z 07006KT 9999 -SHRA FEW008 SCT020 21/18 Q1013 TEMPO 3500 TSRA SHRA FEW010CB SCT020,0,6,0,10000,1,0,0,"RA,SH,TS"
2026-04-24 03:00:00,METAR VHHH 240300Z 05007KT 9999 -SHRA FEW008 SCT020 21/17 Q1013 TEMPO 3500 TSRA SHRA FEW010CB SCT020,0,7,0,10000,1,0,0,"RA,SH,TS"
2026-04-24 02:30:00,METAR VHHH 240230Z 07006KT 9999 -SHRA FEW008 SCT020 21/17 Q1014 TEMPO 3500 TSRA SHRA FEW008CB SCT015,0,6,0,10000,1,0,0,"RA,SH,TS"
2026-04-24 02:00:00,METAR VHHH 240200Z 05005KT 330V080 9999 FEW008 SCT020 21/17 Q1014 TEMPO 3500 TSRA SHRA FEW008CB SCT015,0,5,0,10000,1,0,0,"RA,SH,TS"
2026-04-24 01:30:00,METAR VHHH 240130Z 08008KT 9999 FEW008 SCT020 21/17 Q1013 TEMPO 3500 TSRA SHRA FEW008CB SCT015,0,8,0,10000,1,0,0,"RA,SH,TS"
2026-04-24 01:00:00,METAR VHHH 240100Z 05005KT 340V100 9999 -SHRA FEW008 SCT022 20/18 Q1013 TEMPO 3500 TSRA SHRA FEW008CB SCT015,0,5,0,10000,1,0,0,"RA,SH,TS"
2026-04-24 00:36:00,SPECI VHHH 240036Z 05009KT 020V080 9999 -SHRA FEW008 SCT022 20/18 Q1013 RERA TEMPO 3500 TSRA SHRA FEW008CB SCT015,0,9,0,10000,1,0,0,"RA,SH,TS"
2026-04-24 00:30:00,METAR VHHH 240030Z 05011KT 020V080 9999 SHRA FEW008 SCT022 20/18 Q1013 TEMPO 3500 TSRA SHRA FEW008CB SCT015,0,11,0,10000,1,0,0,"RA,SH,TS"
2026-04-24 00:00:00,METAR VHHH 240000Z 07009KT 360V100 8000 SHRA FEW008 SCT022 20/17 Q1012 TEMPO 3500 TSRA SHRA FEW008CB SCT015,0,9,0,8000,1,0,0,"RA,SH,TS"
2026-04-23 23:36:00,SPECI VHHH 232336Z 03003KT 320V080 9999 4500W SHRA FEW010 SCT022 20/16 Q1012 RERA TEMPO 3500 TSRA SHRA FEW008CB SCT015,0,3,0,10000,1,0,0,"RA,SH,TS"
2026-04-23 23:30:00,METAR VHHH 232330Z 04005KT 320V080 9999 +SHRA FEW010 SCT022 21/16 Q1012 TEMPO 3500 TSRA SHRA FEW008CB SCT015,0,5,0,10000,1,0,0,"RA,SH,TS"
2026-04-23 23:24:00,SPECI VHHH 232324Z 06007KT 010V080 9999 +SHRA FEW012 SCT025 21/17 Q1012 TEMPO 3500 TSRA SHRA FEW008CB SCT015,0,7,0,10000,1,0,0,"RA,SH,TS"
2026-04-23 23:00:00,METAR VHHH 232300Z 05007KT 360V080 9999 -SHRA FEW012 SCT025 21/16 Q1012 TEMPO 3500 SHRA FEW008CB SCT015,0,7,0,10000,0,0,0,"RA,SH"
2026-04-23 22:30:00,METAR VHHH 232230Z 01008KT 330V050 9999 -SHRA FEW012 SCT025 21/16 Q1012 TEMPO 3500 SHRA FEW008CB SCT015,0,8,0,10000,0,0,0,"RA,SH"
2026-04-23 22:00:00,METAR VHHH 232200Z 36008KT 320V040 9999 -SHRA FEW012 SCT025 21/16 Q1011 TEMPO 3500 SHRA FEW008CB SCT015,0,8,0,10000,0,0,0,"RA,SH"
2026-04-23 21:30:00,METAR VHHH 232130Z 35005KT 320V020 9999 FEW015 SCT025 21/17 Q1011 TEMPO 3500 SHRA FEW008CB SCT015,0,5,0,10000,0,0,0,"RA,SH"
2026-04-23 21:00:00,METAR VHHH 232100Z VRB03KT 9999 FEW012 SCT025 21/17 Q1010 TEMPO 3500 SHRA FEW008CB SCT015,0,3,0,10000,0,0,0,"RA,SH"
2026-04-23 20:30:00,METAR VHHH 232030Z 32005KT 240V030 9999 FEW012 SCT025 21/17 Q1010 TEMPO 3500 SHRA FEW008CB SCT015,0,5,0,10000,0,0,0,"RA,SH"
2026-04-23 20:00:00,METAR VHHH 232000Z 08007KT 060V120 9999 -SHRA FEW012 SCT025 21/18 Q1010 TEMPO 3500 SHRA FEW008CB SCT015,0,7,0,10000,0,0,0,"RA,SH"
2026-04-23 19:30:00,METAR VHHH 231930Z 05006KT 020V100 9999 FEW008 SCT025 21/19 Q1010 NOSIG,0,6,0,10000,0,0,0,
2026-04-23 19:00:00,METAR VHHH 231900Z 05008KT 9999 -SHRA FEW008 SCT025 21/18 Q1010 NOSIG,0,8,0,10000,0,0,0,RA
2026-04-23 18:45:00,SPECI VHHH 231845Z 08005KT 9999 -SHRA FEW008CB SCT020 21/19 Q1010 RETS RERA TEMPO 2500 TSRA SHRA FEW008CB SCT015,0,5,0,10000,1,0,0,"RA,SH,TS"
2026-04-23 18:30:00,METAR VHHH 231830Z 06006KT 020V090 9999 TSRA FEW008CB SCT020 21/18 Q1010 TEMPO 2500 TSRA SHRA FEW008CB SCT015,0,6,0,10000,1,0,0,"RA,SH,TS"
2026-04-23 18:14:00,SPECI VHHH 231814Z 01009KT 9999 TSRA FEW008CB SCT020 21/18 Q1011 RERA TEMPO 29022G32KT 2500 TSRA SHRA FEW008CB SCT015,0,9,0,10000,1,0,0,"RA,SH,TS"
2026-04-23 18:03:00,SPECI VHHH 231803Z 36012KT 9000 4700E +TSRA FEW008CB SCT020 21/18 Q1011 TEMPO 29022G32KT 2500 TSRA SHRA FEW008CB SCT015,0,12,0,9000,1,0,0,"RA,SH,TS"
2026-04-23 18:00:00,METAR VHHH 231800Z 35013KT 9999 TSRA FEW008CB SCT020 22/18 Q1011 TEMPO 24022G32KT 2500 TSRA SHRA FEW008CB SCT015,0,13,0,10000,1,0,0,"RA,SH,TS"
2026-04-23 17:48:00,SPECI VHHH 231748Z 35011KT 9999 -TSRA FEW008CB SCT020 22/19 Q1011 TEMPO FM1800 24022G32KT 2500 TSRA SHRA FEW008CB SCT015,0,11,0,10000,1,0,0,"RA,SH,TS"
2026-04-23 17:40:00,SPECI VHHH 231740Z COR 36011KT 9999 VCTS FEW008 SCT020 22/18 Q1010 TEMPO FM1800 24022G32KT 2500 TSRA SHRA FEW008CB SCT015,0,11,0,10000,1,0,0,"RA,SH,TS,VC"
2026-04-23 17:30:00,METAR VHHH 231730Z 35010KT 9999 FEW008 SCT020 22/18 Q1010 TEMPO FM1800 24022G32KT 2500 TSRA SHRA FEW008CB SCT015,0,10,0,10000,1,0,0,"RA,SH,TS"
2026-04-23 17:09:00,SPECI VHHH 231709Z 34010KT 9999 FEW008 SCT020 22/18 Q1010 TEMPO FM1800 24022G32KT 2500 TSRA SHRA FEW008CB SCT015,0,10,0,10000,1,0,0,"RA,SH,TS"
2026-04-23 17:00:00,METAR VHHH 231700Z 07003KT 340V130 9999 FEW008 SCT020 22/19 Q1010 TEMPO FM1800 24022G32KT 2500 TSRA SHRA FEW008CB SCT015,0,3,0,10000,1,0,0,"RA,SH,TS"
2026-04-23 16:30:00,METAR VHHH 231630Z VRB03KT 9999 FEW010 SCT020 23/19 Q1010 TEMPO 3000 SHRA FEW008CB SCT015,0,3,0,10000,0,0,0,"RA,SH"
2026-04-23 16:00:00,METAR VHHH 231600Z 01006KT 340V050 9999 FEW008 SCT020 22/20 Q1011 TEMPO 3000 SHRA FEW008CB SCT015,0,6,0,10000,0,0,0,"RA,SH"
2026-04-23 15:30:00,METAR VHHH 231530Z 01009KT 340V040 9999 FEW008 SCT020 23/20 Q1011 NOSIG,0,9,0,10000,0,0,0,
2026-04-23 15:00:00,METAR VHHH 231500Z 01010KT 9999 -RA FEW008 SCT020 22/20 Q1011 NOSIG,0,10,0,10000,0,0,0,-RA
2026-04-23 14:30:00,METAR VHHH 231430Z 35009KT 9999 FEW006 SCT022 22/21 Q1011 NOSIG,0,9,0,10000,0,0,0,
2026-04-23 14:00:00,METAR VHHH 231400Z 35011KT 9999 -RA FEW006 SCT022 22/21 Q1011 NOSIG,0,11,0,10000,0,0,0,-RA
2026-04-23 13:30:00,METAR VHHH 231330Z 34011KT 8000 -SHRA FEW006 SCT022 22/21 Q1011 NOSIG,0,11,0,8000,0,0,0,RA
2026-04-23 13:00:00,METAR VHHH 231300Z 33011KT 9999 -SHRA FEW006 SCT022 22/21 Q1010 NOSIG,0,11,0,10000,0,0,0,RA
2026-04-23 12:30:00,METAR VHHH 231230Z 32015KT 9999 -SHRA FEW006 SCT022 22/20 Q1010 NOSIG,0,15,0,10000,0,0,0,RA
2026-04-23 12:00:00,METAR VHHH 231200Z 32015KT 9999 -SHRA FEW006 SCT022 22/20 Q1010 NOSIG,0,15,0,10000,0,0,0,RA
2026-04-23 11:30:00,METAR VHHH 231130Z 32016KT 9999 -SHRA FEW006 SCT022 22/21 Q1009 NOSIG,0,16,0,10000,0,0,0,RA
2026-04-23 11:00:00,METAR VHHH 231100Z 33013KT 9999 -SHRA FEW005 SCT022 22/21 Q1009 NOSIG,0,13,0,10000,0,0,0,RA
2026-04-23 10:46:00,SPECI VHHH 231046Z 33007KT 9000 -SHRA FEW005 FEW012CB SCT022 22/22 Q1009 RERA TEMPO 33022G32KT 2500 TSRA SHRA FEW008CB SCT015,0,7,0,9000,1,0,0,"RA,SH,TS"
2026-04-23 10:30:00,METAR VHHH 231030Z 32011KT 4100 VCTS SHRA FEW005 FEW012CB SCT022 22/21 Q1009 TEMPO 33022G32KT 2500 TSRA SHRA FEW008CB SCT015,0,11,0,4100,1,0,0,"RA,SH,TS,VC"
2026-04-23 10:03:00,SPECI VHHH 231003Z 31019KT 3800 VCTS SHRA FEW006 FEW015CB SCT022 22/20 Q1009 TEMPO 33015G25KT 2500 TSRA SHRA FEW008CB SCT015,0,19,0,3800,1,0,0,"RA,SH,TS,VC"
2026-04-23 10:00:00,METAR VHHH 231000Z 31020KT 9000 3200N VCTS SHRA FEW006 FEW015CB SCT022 22/21 Q1009 RETS TEMPO 33015G25KT 2500 TSRA SHRA FEW008CB SCT015,0,20,0,9000,1,0,0,"RA,SH,TS,VC"
2026-04-23 09:47:00,SPECI VHHH 230947Z 32015KT 9999 -TSRA FEW008 FEW015CB SCT022 23/21 Q1008 TEMPO 33015G25KT 2500 TSRA SHRA FEW008CB SCT015,0,15,0,10000,1,0,0,"RA,SH,TS"
2026-04-23 09:30:00,METAR VHHH 230930Z 32009KT 9999 -SHRA FEW008 FEW015CB SCT022 24/21 Q1008 TEMPO 33015G25KT 2500 TSRA SHRA FEW008CB SCT015,0,9,0,10000,1,0,0,"RA,SH,TS"
2026-04-23 09:00:00,METAR VHHH 230900Z 31007KT 9999 VCSH FEW008 SCT022 24/21 Q1008 TEMPO 33015G25KT 2500 TSRA SHRA FEW008CB SCT015,0,7,0,10000,1,0,0,"RA,SH,TS,VC"
2026-04-23 08:30:00,METAR VHHH 230830Z 29003KT 250V350 9999 FEW008 SCT020 24/20 Q1007 TEMPO 33015G25KT 2500 TSRA SHRA FEW008CB SCT015,0,3,0,10000,1,0,0,"RA,SH,TS"
2026-04-23 08:00:00,METAR VHHH 230800Z 32007KT 9999 FEW008 SCT020 24/21 Q1007 TEMPO FM0830 33015G25KT 2500 TSRA SHRA FEW008CB SCT015,0,7,0,10000,1,0,0,"RA,SH,TS"
2026-04-23 07:30:00,METAR VHHH 230730Z 32008KT 280V340 9999 FEW008 SCT018 24/20 Q1008 NOSIG,0,8,0,10000,0,0,0,
2026-04-23 07:00:00,METAR VHHH 230700Z 33010KT 9999 FEW008 SCT018 24/20 Q1008 NOSIG,0,10,0,10000,0,0,0,
2026-04-23 06:30:00,METAR VHHH 230630Z 31011KT 9999 FEW008 SCT018 24/20 Q1008 NOSIG,0,11,0,10000,0,0,0,
2026-04-23 06:00:00,METAR VHHH 230600Z 32010KT 9999 FEW008 SCT020 24/20 Q1008 NOSIG,0,10,0,10000,0,0,0,
2026-04-23 05:30:00,METAR VHHH 230530Z 33012KT 9999 FEW008 SCT020 24/20 Q1008 NOSIG,0,12,0,10000,0,0,0,
2026-04-23 05:00:00,METAR VHHH 230500Z 33015KT 9999 FEW008 SCT015 24/20 Q1009 TEMPO 33022G32KT,0,15,0,10000,0,0,0,
2026-04-23 04:49:00,SPECI VHHH 230449Z 33018KT 9999 FEW008 SCT015 23/20 Q1009 TEMPO 33022G32KT,0,18,0,10000,0,0,0,
2026-04-23 04:30:00,METAR VHHH 230430Z 32022KT 9999 FEW008 SCT015 24/21 Q1009 TEMPO 33022G32KT,0,22,0,10000,0,0,0,
2026-04-23 04:21:00,SPECI VHHH 230421Z 32027KT 9999 FEW010 SCT025 26/21 Q1009 BECMG 01010KT,0,27,0,10000,0,0,0,
2026-04-23 04:15:00,SPECI VHHH 230415Z 29013KT 240V320 9999 FEW010 SCT025 28/23 Q1008 BECMG 01010KT,0,13,0,10000,0,0,0,
2026-04-23 04:00:00,METAR VHHH 230400Z 23015KT 9999 FEW012 SCT025 28/23 Q1008 BECMG 01010KT,0,15,0,10000,0,0,0,
2026-04-23 03:30:00,METAR VHHH 230330Z 22014KT 9999 FEW012 SCT030 29/22 Q1008 NOSIG,0,14,0,10000,0,0,0,
2026-04-23 03:00:00,METAR VHHH 230300Z 22014KT 9999 FEW012 SCT025 29/23 Q1008 NOSIG,0,14,0,10000,0,0,0,
2026-04-23 02:30:00,METAR VHHH 230230Z 22013KT 9999 FEW012 SCT025 29/22 Q1008 NOSIG,0,13,0,10000,0,0,0,
2026-04-23 02:00:00,METAR VHHH 230200Z 22014KT 9999 -SHRA FEW012 SCT025 28/23 Q1008 NOSIG,0,14,0,10000,0,0,0,RA
2026-04-23 01:30:00,METAR VHHH 230130Z 21012KT 9999 FEW012 SCT028 28/23 Q1008 NOSIG,0,12,0,10000,0,0,0,
2026-04-23 01:00:00,METAR VHHH 230100Z 21009KT 170V230 9999 FEW012 SCT030 28/22 Q1008 NOSIG,0,9,0,10000,0,0,0,
2026-04-23 00:30:00,METAR VHHH 230030Z 20010KT 9999 FEW012 28/22 Q1008 NOSIG,0,10,0,10000,0,0,0,
2026-04-23 00:00:00,METAR VHHH 230000Z 21009KT 9999 FEW010 SCT030 28/22 Q1008 NOSIG,0,9,0,10000,0,0,0,
2026-04-22 23:30:00,METAR VHHH 222330Z 21007KT 9999 FEW010 SCT030 27/23 Q1008 NOSIG,0,7,0,10000,0,0,0,
2026-04-22 23:00:00,METAR VHHH 222300Z 21008KT 9999 FEW010 SCT030 27/22 Q1007 NOSIG,0,8,0,10000,0,0,0,
2026-04-22 22:30:00,METAR VHHH 222230Z 21006KT 9999 FEW015 SCT030 27/22 Q1007 NOSIG,0,6,0,10000,0,0,0,
2026-04-22 22:00:00,METAR VHHH 222200Z 20008KT 9999 FEW015 SCT030 27/23 Q1007 NOSIG,0,8,0,10000,0,0,0,
2026-04-22 21:30:00,METAR VHHH 222130Z 20008KT 9999 FEW015 SCT030 27/23 Q1007 NOSIG,0,8,0,10000,0,0,0,
2026-04-22 21:00:00,METAR VHHH 222100Z 22008KT 9999 FEW015 SCT030 27/22 Q1007 NOSIG,0,8,0,10000,0,0,0,
2026-04-22 20:30:00,METAR VHHH 222030Z 21006KT 9999 FEW015 SCT030 27/22 Q1007 NOSIG,0,6,0,10000,0,0,0,
2026-04-22 20:00:00,METAR VHHH 222000Z 22006KT 9999 FEW015 SCT030 27/22 Q1007 NOSIG,0,6,0,10000,0,0,0,
2026-04-22 19:30:00,METAR VHHH 221930Z 21006KT 9999 FEW015 SCT030 27/22 Q1007 NOSIG,0,6,0,10000,0,0,0,
2026-04-22 19:00:00,METAR VHHH 221900Z 20007KT 9999 FEW015 SCT030 27/22 Q1007 NOSIG,0,7,0,10000,0,0,0,
2026-04-22 18:30:00,METAR VHHH 221830Z 22007KT 9999 FEW015 SCT030 27/22 Q1007 NOSIG,0,7,0,10000,0,0,0,
2026-04-22 18:00:00,METAR VHHH 221800Z 22006KT 190V250 9999 FEW015 27/22 Q1007 NOSIG,0,6,0,10000,0,0,0,
2026-04-22 17:30:00,METAR VHHH 221730Z 21007KT 9999 FEW015 27/22 Q1008 NOSIG,0,7,0,10000,0,0,0,
2026-04-22 17:00:00,METAR VHHH 221700Z 21009KT 9999 FEW015 27/22 Q1008 NOSIG,0,9,0,10000,0,0,0,
2026-04-22 16:30:00,METAR VHHH 221630Z 20010KT 9999 FEW015 27/22 Q1008 NOSIG,0,10,0,10000,0,0,0,
2026-04-22 16:00:00,METAR VHHH 221600Z 21010KT 9999 FEW015 27/22 Q1008 NOSIG,0,10,0,10000,0,0,0,
2026-04-22 15:30:00,METAR VHHH 221530Z 20008KT 170V230 9999 FEW015 27/22 Q1009 NOSIG,0,8,0,10000,0,0,0,
2026-04-22 15:00:00,METAR VHHH 221500Z 19011KT 9999 FEW015 27/22 Q1009 NOSIG,0,11,0,10000,0,0,0,
2026-04-22 14:30:00,METAR VHHH 221430Z 20010KT 170V230 9999 FEW015 27/22 Q1009 NOSIG,0,10,0,10000,0,0,0,
2026-04-22 14:00:00,METAR VHHH 221400Z 20011KT 9999 FEW015 27/21 Q1008 NOSIG,0,11,0,10000,0,0,0,
2026-04-22 13:30:00,METAR VHHH 221330Z 20008KT 160V240 9999 FEW015 27/22 Q1008 NOSIG,0,8,0,10000,0,0,0,
2026-04-22 13:00:00,METAR VHHH 221300Z 21009KT 180V240 9999 FEW015 27/22 Q1008 NOSIG,0,9,0,10000,0,0,0,
2026-04-22 12:30:00,METAR VHHH 221230Z 20009KT 160V230 9999 FEW015 27/22 Q1008 NOSIG,0,9,0,10000,0,0,0,
2026-04-22 12:00:00,METAR VHHH 221200Z 21010KT 9999 FEW015 28/21 Q1008 NOSIG,0,10,0,10000,0,0,0,
2026-04-22 11:30:00,METAR VHHH 221130Z 20008KT 170V240 9999 FEW015 SCT025 28/22 Q1007 NOSIG,0,8,0,10000,0,0,0,
2026-04-22 11:00:00,METAR VHHH 221100Z 21010KT 180V240 9999 FEW015 SCT025 28/21 Q1007 NOSIG,0,10,0,10000,0,0,0,
2026-04-22 10:30:00,METAR VHHH 221030Z 20008KT 170V230 9999 FEW015 SCT025 28/21 Q1007 NOSIG,0,8,0,10000,0,0,0,
2026-04-22 10:00:00,METAR VHHH 221000Z 21011KT 170V240 9999 FEW015 SCT025 28/21 Q1007 NOSIG,0,11,0,10000,0,0,0,
2026-04-22 09:30:00,METAR VHHH 220930Z 22014KT 9999 FEW015 SCT028 28/21 Q1006 NOSIG,0,14,0,10000,0,0,0,
2026-04-22 09:00:00,METAR VHHH 220900Z 21014KT 9999 FEW015 SCT028 29/21 Q1006 NOSIG,0,14,0,10000,0,0,0,
2026-04-22 08:30:00,METAR VHHH 220830Z 22014KT 9999 FEW015 SCT028 29/22 Q1007 NOSIG,0,14,0,10000,0,0,0,
2026-04-22 08:00:00,METAR VHHH 220800Z 23015KT 9999 FEW015 SCT028 29/21 Q1006 NOSIG,0,15,0,10000,0,0,0,
2026-04-22 07:30:00,METAR VHHH 220730Z 22016KT 9999 FEW015 SCT028 29/21 Q1006 NOSIG,0,16,0,10000,0,0,0,
2026-04-22 07:00:00,METAR VHHH 220700Z 22017KT 9999 FEW015 SCT028 30/22 Q1007 NOSIG,0,17,0,10000,0,0,0,
2026-04-22 06:30:00,METAR VHHH 220630Z 23016KT 9999 FEW015 SCT025 29/22 Q1007 NOSIG,0,16,0,10000,0,0,0,
2026-04-22 06:00:00,METAR VHHH 220600Z 22015KT 9999 FEW018 SCT025 29/21 Q1008 NOSIG,0,15,0,10000,0,0,0,
2026-04-22 05:30:00,METAR VHHH 220530Z 21011KT 170V230 9999 FEW018 SCT030 29/21 Q1008 NOSIG,0,11,0,10000,0,0,0,
2026-04-22 05:00:00,METAR VHHH 220500Z 20012KT 170V230 9999 FEW018 SCT030 29/21 Q1008 NOSIG,0,12,0,10000,0,0,0,
2026-04-22 04:30:00,METAR VHHH 220430Z 20012KT 140V240 9999 FEW018 SCT030 29/21 Q1009 NOSIG,0,12,0,10000,0,0,0,
2026-04-22 04:00:00,METAR VHHH 220400Z 20013KT 9999 FEW018 SCT030 29/21 Q1009 NOSIG,0,13,0,10000,0,0,0,
2026-04-22 03:30:00,METAR VHHH 220330Z 19013KT 9999 FEW018 SCT030 29/21 Q1010 NOSIG,0,13,0,10000,0,0,0,
2026-04-22 03:00:00,METAR VHHH 220300Z 18012KT 150V210 9999 FEW018 SCT030 29/21 Q1010 NOSIG,0,12,0,10000,0,0,0,
2026-04-22 02:30:00,METAR VHHH 220230Z 19013KT 9999 FEW018 SCT030 28/20 Q1010 NOSIG,0,13,0,10000,0,0,0,
2026-04-22 02:00:00,METAR VHHH 220200Z 19010KT 150V220 9999 FEW018 SCT030 29/21 Q1010 NOSIG,0,10,0,10000,0,0,0,
2026-04-22 01:30:00,METAR VHHH 220130Z 19011KT 9999 FEW018 SCT030 28/20 Q1010 NOSIG,0,11,0,10000,0,0,0,
2026-04-22 01:00:00,METAR VHHH 220100Z 21009KT 9999 FEW018 28/22 Q1010 NOSIG,0,9,0,10000,0,0,0,
2026-04-22 00:30:00,METAR VHHH 220030Z 18009KT 160V230 9999 FEW015 SCT035 27/21 Q1010 NOSIG,0,9,0,10000,0,0,0,
2026-04-22 00:00:00,METAR VHHH 220000Z 18006KT 140V210 9999 FEW015 SCT035 28/22 Q1009 NOSIG,0,6,0,10000,0,0,0,
2026-04-21 23:30:00,METAR VHHH 212330Z 16005KT 130V190 9999 FEW015 SCT035 27/22 Q1009 NOSIG,0,5,0,10000,0,0,0,
2026-04-21 23:00:00,METAR VHHH 212300Z 18004KT 150V210 9999 FEW015 27/22 Q1009 NOSIG,0,4,0,10000,0,0,0,
2026-04-21 22:30:00,METAR VHHH 212230Z 17004KT 9999 FEW015 26/22 Q1009 NOSIG,0,4,0,10000,0,0,0,
2026-04-21 22:00:00,METAR VHHH 212200Z 18004KT 9999 FEW015 26/22 Q1008 NOSIG,0,4,0,10000,0,0,0,
2026-04-21 21:30:00,METAR VHHH 212130Z 19003KT 160V220 9999 FEW015 SCT030 26/22 Q1008 NOSIG,0,3,0,10000,0,0,0,
2026-04-21 21:00:00,METAR VHHH 212100Z 16006KT 9999 FEW015 SCT025 26/22 Q1008 NOSIG,0,6,0,10000,0,0,0,
2026-04-21 20:30:00,METAR VHHH 212030Z 16007KT 9999 FEW015 SCT025 26/22 Q1008 NOSIG,0,7,0,10000,0,0,0,
2026-04-21 20:00:00,METAR VHHH 212000Z 16007KT 110V200 9999 FEW015 SCT025 26/22 Q1008 NOSIG,0,7,0,10000,0,0,0,
2026-04-21 19:30:00,METAR VHHH 211930Z 16004KT 130V200 9999 FEW012 SCT025 26/22 Q1008 NOSIG,0,4,0,10000,0,0,0,
2026-04-21 19:00:00,METAR VHHH 211900Z 16006KT 9999 FEW012 26/22 Q1008 NOSIG,0,6,0,10000,0,0,0,
2026-04-21 18:30:00,METAR VHHH 211830Z 15009KT 9999 FEW012 26/22 Q1008 NOSIG,0,9,0,10000,0,0,0,
2026-04-21 18:00:00,METAR VHHH 211800Z 17007KT 130V200 9999 FEW012 26/22 Q1009 NOSIG,0,7,0,10000,0,0,0,
2026-04-21 17:30:00,METAR VHHH 211730Z 16008KT 9999 FEW012 27/22 Q1009 NOSIG,0,8,0,10000,0,0,0,
2026-04-21 17:00:00,METAR VHHH 211700Z 17007KT 9999 FEW012 SCT030 27/22 Q1009 NOSIG,0,7,0,10000,0,0,0,
2026-04-21 16:30:00,METAR VHHH 211630Z 15008KT 110V170 9999 FEW012 SCT030 27/22 Q1009 NOSIG,0,8,0,10000,0,0,0,
2026-04-21 16:00:00,METAR VHHH 211600Z 15005KT 100V190 9999 FEW012 SCT030 27/22 Q1010 NOSIG,0,5,0,10000,0,0,0,
2026-04-21 15:30:00,METAR VHHH 211530Z 16007KT 9999 FEW012 SCT025 27/22 Q1010 NOSIG,0,7,0,10000,0,0,0,
2026-04-21 15:00:00,METAR VHHH 211500Z 16006KT 9999 FEW012 SCT025 27/23 Q1010 NOSIG,0,6,0,10000,0,0,0,
2026-04-21 14:30:00,METAR VHHH 211430Z 16006KT 9999 FEW012 SCT025 27/22 Q1010 NOSIG,0,6,0,10000,0,0,0,
2026-04-21 14:00:00,METAR VHHH 211400Z 15004KT 9999 FEW012 SCT025 27/22 Q1010 NOSIG,0,4,0,10000,0,0,0,
2026-04-21 13:30:00,METAR VHHH 211330Z 16003KT 9999 FEW012 SCT025 27/23 Q1010 NOSIG,0,3,0,10000,0,0,0,
2026-04-21 13:00:00,METAR VHHH 211300Z 17005KT 120V230 9999 FEW012 27/22 Q1010 NOSIG,0,5,0,10000,0,0,0,
2026-04-21 12:30:00,METAR VHHH 211230Z 16006KT 100V230 9999 FEW012 27/22 Q1010 NOSIG,0,6,0,10000,0,0,0,
2026-04-21 12:00:00,METAR VHHH 211200Z 18009KT 120V210 9999 FEW012 27/22 Q1009 NOSIG,0,9,0,10000,0,0,0,
2026-04-21 11:30:00,METAR VHHH 211130Z 19008KT 9999 FEW012 27/22 Q1009 NOSIG,0,8,0,10000,0,0,0,
2026-04-21 11:00:00,METAR VHHH 211100Z 18010KT 160V220 9999 FEW012 27/22 Q1009 NOSIG,0,10,0,10000,0,0,0,
2026-04-21 10:30:00,METAR VHHH 211030Z 19008KT 160V230 9999 FEW015 28/22 Q1008 NOSIG,0,8,0,10000,0,0,0,
2026-04-21 10:00:00,METAR VHHH 211000Z 21011KT 170V240 9999 FEW018 28/22 Q1008 NOSIG,0,11,0,10000,0,0,0,
2026-04-21 09:30:00,METAR VHHH 210930Z 20012KT 170V230 9999 FEW018 29/21 Q1008 NOSIG,0,12,0,10000,0,0,0,
2026-04-21 09:00:00,METAR VHHH 210900Z 21011KT 170V240 9999 FEW018 29/21 Q1008 NOSIG,0,11,0,10000,0,0,0,
2026-04-21 08:30:00,METAR VHHH 210830Z 21013KT 9999 FEW018 29/22 Q1008 NOSIG,0,13,0,10000,0,0,0,
2026-04-21 08:00:00,METAR VHHH 210800Z 23012KT 9999 FEW018 29/22 Q1008 NOSIG,0,12,0,10000,0,0,0,
2026-04-21 07:30:00,METAR VHHH 210730Z 24012KT 9999 FEW015 SCT025 30/22 Q1008 NOSIG,0,12,0,10000,0,0,0,
2026-04-21 07:00:00,METAR VHHH 210700Z 23011KT 9999 FEW015 SCT025 29/22 Q1009 NOSIG,0,11,0,10000,0,0,0,
2026-04-21 06:30:00,METAR VHHH 210630Z 23013KT 9999 FEW015 SCT025 30/22 Q1009 NOSIG,0,13,0,10000,0,0,0,
2026-04-21 06:00:00,METAR VHHH 210600Z 23012KT 9999 FEW015 SCT025 29/22 Q1009 NOSIG,0,12,0,10000,0,0,0,
2026-04-21 05:30:00,METAR VHHH 210530Z 23013KT 9999 FEW015 SCT025 29/22 Q1010 NOSIG,0,13,0,10000,0,0,0,
2026-04-21 05:00:00,METAR VHHH 210500Z 21014KT 180V240 9999 FEW012 SCT025 29/22 Q1010 NOSIG,0,14,0,10000,0,0,0,
2026-04-21 04:30:00,METAR VHHH 210430Z 21011KT 180V240 9999 FEW012 SCT025 29/22 Q1010 NOSIG,0,11,0,10000,0,0,0,
2026-04-21 04:00:00,METAR VHHH 210400Z 22010KT 190V250 9999 FEW012 SCT025 29/22 Q1011 NOSIG,0,10,0,10000,0,0,0,
2026-04-21 03:30:00,METAR VHHH 210330Z 21011KT 9999 FEW012 SCT025 28/22 Q1011 NOSIG,0,11,0,10000,0,0,0,
2026-04-21 03:00:00,METAR VHHH 210300Z 20011KT 9999 FEW012 SCT025 29/23 Q1011 NOSIG,0,11,0,10000,0,0,0,
2026-04-21 02:30:00,METAR VHHH 210230Z 23010KT 9999 FEW012 SCT025 28/22 Q1011 NOSIG,0,10,0,10000,0,0,0,
2026-04-21 02:00:00,METAR VHHH 210200Z 21009KT 180V240 9999 FEW012 SCT025 28/22 Q1012 NOSIG,0,9,0,10000,0,0,0,
2026-04-21 01:30:00,METAR VHHH 210130Z 22008KT 9999 FEW012 SCT025 28/23 Q1012 NOSIG,0,8,0,10000,0,0,0,
2026-04-21 01:00:00,METAR VHHH 210100Z 22007KT 190V250 9999 FEW012 SCT025 28/22 Q1012 NOSIG,0,7,0,10000,0,0,0,
2026-04-21 00:30:00,METAR VHHH 210030Z 04004KT 010V080 9999 FEW012 SCT025 27/23 Q1011 NOSIG,0,4,0,10000,0,0,0,
2026-04-21 00:00:00,METAR VHHH 210000Z 06006KT 9999 FEW010 SCT025 27/23 Q1011 NOSIG,0,6,0,10000,0,0,0,
2026-04-20 23:30:00,METAR VHHH 202330Z VRB03KT 9999 FEW010 SCT025 27/23 Q1011 NOSIG,0,3,0,10000,0,0,0,
2026-04-20 23:00:00,METAR VHHH 202300Z VRB01KT 9999 FEW010 SCT025 26/23 Q1011 NOSIG,0,1,0,10000,0,0,0,
2026-04-20 22:30:00,METAR VHHH 202230Z 15004KT 090V250 9999 FEW010 SCT025 26/23 Q1010 NOSIG,0,4,0,10000,0,0,0,
2026-04-20 22:00:00,METAR VHHH 202200Z 16005KT 9999 FEW010 SCT025 26/23 Q1010 NOSIG,0,5,0,10000,0,0,0,
2026-04-20 21:30:00,METAR VHHH 202130Z 12007KT 9999 3400N -SHRA FEW012 SCT025 25/23 Q1010 TEMPO 4000 SHRA FEW010CB SCT015,0,7,0,10000,0,0,0,"RA,SH"
2026-04-20 21:00:00,METAR VHHH 202100Z 11005KT 010V160 9999 FEW015 SCT025 27/22 Q1010 TEMPO 4000 SHRA FEW010CB SCT015,0,5,0,10000,0,0,0,"RA,SH"
2026-04-20 20:30:00,METAR VHHH 202030Z 14005KT 020V180 9999 FEW015 SCT025 27/22 Q1010 NOSIG,0,5,0,10000,0,0,0,
2026-04-20 20:00:00,METAR VHHH 202000Z 15006KT 110V170 9999 FEW015 SCT030 27/22 Q1010 NOSIG,0,6,0,10000,0,0,0,
2026-04-20 19:30:00,METAR VHHH 201930Z 10005G15KT 030V170 9999 -RA FEW015 SCT030 27/22 Q1010 NOSIG,0,5,1,10000,0,0,0,-RA
2026-04-20 19:00:00,METAR VHHH 201900Z 10007KT 9999 -RA FEW015 SCT035 27/22 Q1010 NOSIG,0,7,0,10000,0,0,0,-RA
2026-04-20 18:30:00,METAR VHHH 201830Z 10005KT 9999 FEW015 SCT035 27/23 Q1010 NOSIG,0,5,0,10000,0,0,0,
2026-04-20 18:00:00,METAR VHHH 201800Z 12003KT 060V160 9999 FEW015 SCT040 27/22 Q1010 NOSIG,0,3,0,10000,0,0,0,
2026-04-20 17:30:00,METAR VHHH 201730Z 15008KT 130V190 9999 FEW015 SCT040 27/22 Q1011 NOSIG,0,8,0,10000,0,0,0,
2026-04-20 17:00:00,METAR VHHH 201700Z 15007KT 9999 FEW015 SCT040 27/21 Q1011 NOSIG,0,7,0,10000,0,0,0,
2026-04-20 16:30:00,METAR VHHH 201630Z 12005KT 9999 FEW015 SCT040 27/23 Q1011 NOSIG,0,5,0,10000,0,0,0,
2026-04-20 16:00:00,METAR VHHH 201600Z 13004KT 090V180 9999 FEW015 SCT040 27/22 Q1012 NOSIG,0,4,0,10000,0,0,0,
2026-04-20 15:30:00,METAR VHHH 201530Z 15007KT 120V180 9999 FEW015 SCT045 27/22 Q1012 NOSIG,0,7,0,10000,0,0,0,
2026-04-20 15:00:00,METAR VHHH 201500Z 14008KT 110V170 9999 FEW015 SCT045 27/21 Q1012 NOSIG,0,8,0,10000,0,0,0,
2026-04-20 14:30:00,METAR VHHH 201430Z 13006KT 9999 FEW015 SCT045 27/22 Q1012 NOSIG,0,6,0,10000,0,0,0,
2026-04-20 14:00:00,METAR VHHH 201400Z 11008KT 9999 FEW015 SCT040 27/22 Q1012 NOSIG,0,8,0,10000,0,0,0,
2026-04-20 13:30:00,METAR VHHH 201330Z 10009KT 9999 FEW015 SCT040 27/22 Q1012 NOSIG,0,9,0,10000,0,0,0,
2026-04-20 13:00:00,METAR VHHH 201300Z 11008KT 9999 FEW015 SCT030 27/22 Q1011 NOSIG,0,8,0,10000,0,0,0,
2026-04-20 12:30:00,METAR VHHH 201230Z 14005KT 9999 FEW015 SCT030 27/21 Q1011 NOSIG,0,5,0,10000,0,0,0,
2026-04-20 12:00:00,METAR VHHH 201200Z 12005KT 090V180 9999 FEW015 SCT030 27/22 Q1011 NOSIG,0,5,0,10000,0,0,0,
2026-04-20 11:30:00,METAR VHHH 201130Z 14005KT 100V200 9999 FEW015 SCT030 27/22 Q1011 NOSIG,0,5,0,10000,0,0,0,
2026-04-20 11:00:00,METAR VHHH 201100Z 15004KT 100V170 9999 FEW015 SCT045 26/22 Q1010 NOSIG,0,4,0,10000,0,0,0,
2026-04-20 10:30:00,METAR VHHH 201030Z 15007KT 120V180 9999 FEW015 SCT045 27/21 Q1010 NOSIG,0,7,0,10000,0,0,0,
2026-04-20 10:00:00,METAR VHHH 201000Z 15007KT 9999 FEW015 SCT045 27/21 Q1010 NOSIG,0,7,0,10000,0,0,0,
2026-04-20 09:30:00,METAR VHHH 200930Z 16008KT 9999 -SHRA FEW010 SCT040 27/22 Q1010 NOSIG,0,8,0,10000,0,0,0,RA
2026-04-20 09:00:00,METAR VHHH 200900Z 16010KT 9999 FEW018 SCT040 27/21 Q1010 NOSIG,0,10,0,10000,0,0,0,
2026-04-20 08:30:00,METAR VHHH 200830Z 15010KT 9999 FEW018 SCT040 27/21 Q1010 NOSIG,0,10,0,10000,0,0,0,
2026-04-20 08:00:00,METAR VHHH 200800Z 15007KT 120V180 9999 FEW018 SCT045 27/22 Q1010 NOSIG,0,7,0,10000,0,0,0,
2026-04-20 07:30:00,METAR VHHH 200730Z 15010KT 9999 FEW018 SCT040 27/21 Q1010 NOSIG,0,10,0,10000,0,0,0,
2026-04-20 07:00:00,METAR VHHH 200700Z 14009KT 9999 FEW018 SCT040 28/22 Q1010 TEMPO 4000 SHRA FEW010 SCT015,0,9,0,10000,0,0,0,"RA,SH"
2026-04-20 06:30:00,METAR VHHH 200630Z 14008KT 110V180 9999 -SHRA FEW018 SCT040 28/22 Q1010 NOSIG,0,8,0,10000,0,0,0,RA
2026-04-20 06:00:00,METAR VHHH 200600Z 11011KT 9999 FEW018 SCT040 28/22 Q1011 NOSIG,0,11,0,10000,0,0,0,
2026-04-20 05:46:00,SPECI VHHH 200546Z 11010KT 9999 FEW018 SCT040 28/22 Q1011 NOSIG,0,10,0,10000,0,0,0,
2026-04-20 05:30:00,METAR VHHH 200530Z 17010KT 090V230 9999 FEW018 SCT040 28/22 Q1011 NOSIG,0,10,0,10000,0,0,0,
2026-04-20 05:00:00,METAR VHHH 200500Z 16009KT 110V210 9999 FEW020 SCT040 28/21 Q1011 NOSIG,0,9,0,10000,0,0,0,
2026-04-20 04:36:00,SPECI VHHH 200436Z 17010KT 9999 FEW020 SCT040 28/20 Q1012 NOSIG,0,10,0,10000,0,0,0,
2026-04-20 04:30:00,METAR VHHH 200430Z VRB02KT 9999 FEW020 SCT040 28/20 Q1012 NOSIG,0,2,0,10000,0,0,0,
2026-04-20 04:00:00,METAR VHHH 200400Z 28004KT 240V300 9999 FEW020 SCT035 29/20 Q1012 NOSIG,0,4,0,10000,0,0,0,
2026-04-20 03:30:00,METAR VHHH 200330Z 29003KT 9999 FEW020 SCT035 29/20 Q1012 NOSIG,0,3,0,10000,0,0,0,
2026-04-20 03:00:00,METAR VHHH 200300Z VRB05KT 9999 FEW020 SCT035 29/20 Q1012 NOSIG,0,5,0,10000,0,0,0,
2026-04-20 02:30:00,METAR VHHH 200230Z 29005KT 250V320 9999 FEW020 SCT030 29/21 Q1012 NOSIG,0,5,0,10000,0,0,0,
2026-04-20 02:00:00,METAR VHHH 200200Z 25005KT 220V280 9999 FEW015 SCT030 28/21 Q1013 NOSIG,0,5,0,10000,0,0,0,
2026-04-20 01:30:00,METAR VHHH 200130Z 07010KT 9999 FEW015 SCT030 28/22 Q1013 NOSIG,0,10,0,10000,0,0,0,
2026-04-20 01:00:00,METAR VHHH 200100Z 08007KT 9999 FEW015 28/22 Q1012 NOSIG,0,7,0,10000,0,0,0,
2026-04-20 00:30:00,METAR VHHH 200030Z 08007KT 9999 FEW015 27/23 Q1012 NOSIG,0,7,0,10000,0,0,0,
2026-04-20 00:00:00,METAR VHHH 200000Z 08007KT 8000 FEW015 27/23 Q1012 NOSIG,0,7,0,8000,0,0,0,
2026-04-19 23:30:00,METAR VHHH 192330Z 09007KT 9999 FEW015 26/23 Q1012 NOSIG,0,7,0,10000,0,0,0,
2026-04-19 23:00:00,METAR VHHH 192300Z 07006KT 6000 FEW015 26/22 Q1011 NOSIG,0,6,0,6000,0,0,0,
2026-04-19 22:30:00,METAR VHHH 192230Z 07006KT 6000 FEW015 25/22 Q1011 NOSIG,0,6,0,6000,0,0,0,
2026-04-19 22:00:00,METAR VHHH 192200Z 09006KT 6000 FEW015 25/23 Q1010 NOSIG,0,6,0,6000,0,0,0,
2026-04-19 21:30:00,METAR VHHH 192130Z 10007KT 7000 FEW015 25/22 Q1010 NOSIG,0,7,0,7000,0,0,0,
2026-04-19 21:00:00,METAR VHHH 192100Z 09005KT 9000 FEW015 25/22 Q1010 NOSIG,0,5,0,9000,0,0,0,
2026-04-19 20:30:00,METAR VHHH 192030Z 09008KT 7000 FEW015 25/22 Q1010 NOSIG,0,8,0,7000,0,0,0,
2026-04-19 20:00:00,METAR VHHH 192000Z 09006KT 7000 FEW015 25/23 Q1010 NOSIG,0,6,0,7000,0,0,0,
2026-04-19 19:30:00,METAR VHHH 191930Z 08005KT 6000 FEW015 26/23 Q1011 NOSIG,0,5,0,6000,0,0,0,
2026-04-19 19:00:00,METAR VHHH 191900Z 08006KT 7000 FEW015 26/23 Q1011 NOSIG,0,6,0,7000,0,0,0,
2026-04-19 18:30:00,METAR VHHH 191830Z 08005KT 9999 FEW015 26/22 Q1011 NOSIG,0,5,0,10000,0,0,0,
2026-04-19 18:00:00,METAR VHHH 191800Z 07005KT 9999 FEW015 26/22 Q1011 NOSIG,0,5,0,10000,0,0,0,
2026-04-19 17:30:00,METAR VHHH 191730Z 09005KT 9999 FEW015 26/23 Q1011 NOSIG,0,5,0,10000,0,0,0,
2026-04-19 17:00:00,METAR VHHH 191700Z 09006KT 9999 FEW015 26/22 Q1012 NOSIG,0,6,0,10000,0,0,0,
2026-04-19 16:30:00,METAR VHHH 191630Z VRB03KT 9999 FEW015 26/22 Q1012 NOSIG,0,3,0,10000,0,0,0,
2026-04-19 16:00:00,METAR VHHH 191600Z 16003KT 130V190 9999 FEW015 26/22 Q1012 NOSIG,0,3,0,10000,0,0,0,
2026-04-19 15:30:00,METAR VHHH 191530Z 12004KT 9999 FEW015 26/22 Q1012 NOSIG,0,4,0,10000,0,0,0,
2026-04-19 15:00:00,METAR VHHH 191500Z VRB01KT 9999 FEW015 27/21 Q1012 NOSIG,0,1,0,10000,0,0,0,
2026-04-19 14:30:00,METAR VHHH 191430Z VRB03KT 9999 FEW015 26/22 Q1013 NOSIG,0,3,0,10000,0,0,0,
2026-04-19 14:00:00,METAR VHHH 191400Z 10005KT 9999 FEW015 26/22 Q1012 NOSIG,0,5,0,10000,0,0,0,
2026-04-19 13:30:00,METAR VHHH 191330Z 10004KT 9999 FEW015 26/22 Q1012 NOSIG,0,4,0,10000,0,0,0,
2026-04-19 13:00:00,METAR VHHH 191300Z 10008KT 9999 FEW015 27/21 Q1011 NOSIG,0,8,0,10000,0,0,0,
2026-04-19 12:30:00,METAR VHHH 191230Z 11007KT 9999 FEW015 27/20 Q1011 NOSIG,0,7,0,10000,0,0,0,
2026-04-19 12:00:00,METAR VHHH 191200Z 10007KT 9999 FEW015 27/21 Q1010 NOSIG,0,7,0,10000,0,0,0,
2026-04-19 11:30:00,METAR VHHH 191130Z 13006KT 100V170 9999 FEW015 27/21 Q1010 NOSIG,0,6,0,10000,0,0,0,
2026-04-19 11:00:00,METAR VHHH 191100Z 11008KT 9999 FEW020 27/21 Q1010 NOSIG,0,8,0,10000,0,0,0,
2026-04-19 10:30:00,METAR VHHH 191030Z 13008KT 090V180 9999 FEW015 27/22 Q1010 NOSIG,0,8,0,10000,0,0,0,
2026-04-19 10:00:00,METAR VHHH 191000Z 16010KT 9999 FEW020 27/22 Q1009 NOSIG,0,10,0,10000,0,0,0,
2026-04-19 09:30:00,METAR VHHH 190930Z 15009KT 070V170 9999 FEW020 27/22 Q1009 NOSIG,0,9,0,10000,0,0,0,
2026-04-19 09:00:00,METAR VHHH 190900Z 15010KT 9999 FEW020 28/22 Q1009 NOSIG,0,10,0,10000,0,0,0,
2026-04-19 08:30:00,METAR VHHH 190830Z 16011KT 9999 FEW020 28/22 Q1009 NOSIG,0,11,0,10000,0,0,0,
2026-04-19 08:00:00,METAR VHHH 190800Z 16010KT 120V180 9999 FEW020 29/20 Q1009 NOSIG,0,10,0,10000,0,0,0,
2026-04-19 07:30:00,METAR VHHH 190730Z 16009KT 100V190 9999 FEW018 29/20 Q1010 NOSIG,0,9,0,10000,0,0,0,
2026-04-19 07:00:00,METAR VHHH 190700Z 16009KT 120V240 9999 FEW018 SCT040 29/20 Q1010 WS R25L NOSIG,0,9,0,10000,0,0,0,
2026-04-19 06:30:00,METAR VHHH 190630Z 15008KT 080V200 9999 FEW018 SCT040 29/21 Q1010 NOSIG,0,8,0,10000,0,0,0,
2026-04-19 06:15:00,SPECI VHHH 190615Z 12010KT 9999 FEW018 SCT040 29/21 Q1010 NOSIG,0,10,0,10000,0,0,0,
2026-04-19 06:00:00,METAR VHHH 190600Z VRB04KT 9999 FEW018 SCT040 29/20 Q1010 NOSIG,0,4,0,10000,0,0,0,
2026-04-19 05:30:00,METAR VHHH 190530Z 26006KT 220V290 8000 FEW018 SCT040 29/21 Q1011 NOSIG,0,6,0,8000,0,0,0,
2026-04-19 05:00:00,METAR VHHH 190500Z 28006KT 7000 FEW018 29/21 Q1011 NOSIG,0,6,0,7000,0,0,0,
2026-04-19 04:30:00,METAR VHHH 190430Z 28006KT 6000 FEW018 29/21 Q1011 NOSIG,0,6,0,6000,0,0,0,
2026-04-19 04:00:00,METAR VHHH 190400Z 27007KT 5000 FEW018 29/21 Q1011 NOSIG,0,7,0,5000,0,0,0,
2026-04-19 03:30:00,METAR VHHH 190330Z 27006KT 4100 HZ FEW018 29/22 Q1012 NOSIG,0,6,0,4100,0,0,0,
2026-04-19 03:00:00,METAR VHHH 190300Z 28005KT 3800 HZ FEW018 28/22 Q1012 NOSIG,0,5,0,3800,0,0,0,
2026-04-19 02:30:00,METAR VHHH 190230Z 29003KT 260V320 4700 HZ FEW018 27/21 Q1012 NOSIG,0,3,0,4700,0,0,0,
2026-04-19 02:05:00,SPECI VHHH 190205Z 29004KT 4900 HZ FEW020 28/21 Q1012 NOSIG,0,4,0,4900,0,0,0,
2026-04-19 02:00:00,METAR VHHH 190200Z 29004KT 5000 FEW020 28/21 Q1012 NOSIG,0,4,0,5000,0,0,0,
2026-04-19 01:35:00,SPECI VHHH 190135Z 29003KT 4900 HZ FEW020 27/21 Q1012 NOSIG,0,3,0,4900,0,0,0,
2026-04-19 01:30:00,METAR VHHH 190130Z 29003KT 5000 FEW020 27/21 Q1012 NOSIG,0,3,0,5000,0,0,0,
2026-04-19 01:05:00,SPECI VHHH 190105Z 30003KT 270V330 4900 HZ FEW020 27/22 Q1012 NOSIG,0,3,0,4900,0,0,0,
2026-04-19 01:00:00,METAR VHHH 190100Z 30004KT 270V330 5000 FEW020 27/22 Q1012 NOSIG,0,4,0,5000,0,0,0,
2026-04-19 00:30:00,METAR VHHH 190030Z 31002KT 5000 FEW020 27/21 Q1012 NOSIG,0,2,0,5000,0,0,0,
2026-04-19 00:00:00,METAR VHHH 190000Z VRB02KT 4900 HZ FEW020 26/21 Q1011 NOSIG,0,2,0,4900,0,0,0,
2026-04-18 23:30:00,METAR VHHH 182330Z VRB03KT 5000 FEW020 26/21 Q1011 NOSIG,0,3,0,5000,0,0,0,
2026-04-18 23:00:00,METAR VHHH 182300Z 23002KT 6000 FEW020 25/21 Q1011 NOSIG,0,2,0,6000,0,0,0,
2026-04-18 22:30:00,METAR VHHH 182230Z 19002KT 7000 FEW020 25/20 Q1011 NOSIG,0,2,0,7000,0,0,0,
2026-04-18 22:00:00,METAR VHHH 182200Z VRB01KT 6000 FEW020 25/21 Q1011 NOSIG,0,1,0,6000,0,0,0,
2026-04-18 21:30:00,METAR VHHH 182130Z VRB01KT 7000 FEW020 25/21 Q1010 NOSIG,0,1,0,7000,0,0,0,
2026-04-18 21:00:00,METAR VHHH 182100Z 33002KT 7000 FEW020 25/21 Q1010 NOSIG,0,2,0,7000,0,0,0,
2026-04-18 20:30:00,METAR VHHH 182030Z VRB03KT 8000 FEW020 25/21 Q1010 NOSIG,0,3,0,8000,0,0,0,
2026-04-18 20:00:00,METAR VHHH 182000Z VRB02KT 9000 FEW020 25/21 Q1010 NOSIG,0,2,0,9000,0,0,0,
2026-04-18 19:30:00,METAR VHHH 181930Z 28002KT 9000 FEW020 25/22 Q1010 NOSIG,0,2,0,9000,0,0,0,
2026-04-18 19:00:00,METAR VHHH 181900Z 28003KT 9000 FEW020 25/21 Q1010 NOSIG,0,3,0,9000,0,0,0,
2026-04-18 18:30:00,METAR VHHH 181830Z 28004KT 9000 FEW020 25/22 Q1010 NOSIG,0,4,0,9000,0,0,0,
2026-04-18 18:00:00,METAR VHHH 181800Z 29005KT 8000 FEW020 25/23 Q1011 NOSIG,0,5,0,8000,0,0,0,
2026-04-18 17:30:00,METAR VHHH 181730Z 23008KT 9999 FEW020 25/22 Q1011 NOSIG,0,8,0,10000,0,0,0,
2026-04-18 17:00:00,METAR VHHH 181700Z 22007KT 9999 FEW020 25/21 Q1011 NOSIG,0,7,0,10000,0,0,0,
2026-04-18 16:30:00,METAR VHHH 181630Z 22004KT 9999 FEW020 25/21 Q1011 NOSIG,0,4,0,10000,0,0,0,
2026-04-18 16:00:00,METAR VHHH 181600Z 19004KT 9999 FEW020 26/20 Q1011 NOSIG,0,4,0,10000,0,0,0,
2026-04-18 15:00:00,METAR VHHH 181500Z 22004KT 9999 FEW040 26/21 Q1012 NOSIG,0,4,0,10000,0,0,0,
2026-04-18 14:30:00,METAR VHHH 181430Z 20004KT 170V240 9999 FEW040 26/20 Q1012 NOSIG,0,4,0,10000,0,0,0,
2026-04-18 14:00:00,METAR VHHH 181400Z 23004KT 190V250 9999 FEW040 26/19 Q1011 NOSIG,0,4,0,10000,0,0,0,
2026-04-18 13:30:00,METAR VHHH 181330Z 21005KT 170V240 9999 FEW040 26/19 Q1011 NOSIG,0,5,0,10000,0,0,0,
2026-04-18 13:00:00,METAR VHHH 181300Z 21005KT 180V240 9999 FEW040 27/19 Q1011 NOSIG,0,5,0,10000,0,0,0,
2026-04-18 12:30:00,METAR VHHH 181230Z 21006KT 170V230 9999 FEW040 27/20 Q1010 NOSIG,0,6,0,10000,0,0,0,
2026-04-18 12:00:00,METAR VHHH 181200Z 21008KT 9999 FEW040 26/20 Q1010 NOSIG,0,8,0,10000,0,0,0,
2026-04-18 11:30:00,METAR VHHH 181130Z 22009KT 9000 FEW040 26/20 Q1010 NOSIG,0,9,0,9000,0,0,0,
2026-04-18 11:00:00,METAR VHHH 181100Z 24008KT 7000 FEW030 27/20 Q1010 NOSIG,0,8,0,7000,0,0,0,
2026-04-18 10:30:00,METAR VHHH 181030Z 23007KT 8000 FEW040 27/20 Q1010 NOSIG,0,7,0,8000,0,0,0,
2026-04-18 10:00:00,METAR VHHH 181000Z 23007KT 190V260 9000 FEW030 28/19 Q1009 NOSIG,0,7,0,9000,0,0,0,
2026-04-18 09:30:00,METAR VHHH 180930Z VRB02KT 9000 FEW020 28/20 Q1009 NOSIG,0,2,0,9000,0,0,0,
2026-04-18 09:00:00,METAR VHHH 180900Z 33003KT 290V360 8000 FEW020 28/20 Q1009 NOSIG,0,3,0,8000,0,0,0,
2026-04-18 08:30:00,METAR VHHH 180830Z VRB03KT 8000 FEW020 28/20 Q1009 NOSIG,0,3,0,8000,0,0,0,
2026-04-18 08:00:00,METAR VHHH 180800Z VRB02KT 8000 FEW020 29/20 Q1010 NOSIG,0,2,0,8000,0,0,0,
2026-04-18 07:30:00,METAR VHHH 180730Z VRB02KT 7000 FEW020 28/20 Q1010 NOSIG,0,2,0,7000,0,0,0,
2026-04-18 07:00:00,METAR VHHH 180700Z 33003KT 290V360 6000 FEW020 28/20 Q1010 NOSIG,0,3,0,6000,0,0,0,
2026-04-18 06:30:00,METAR VHHH 180630Z 34005KT 300V360 6000 FEW020 28/20 Q1011 NOSIG,0,5,0,6000,0,0,0,
2026-04-18 06:00:00,METAR VHHH 180600Z 34005KT 7000 FEW020 28/20 Q1011 NOSIG,0,5,0,7000,0,0,0,
2026-04-18 05:30:00,METAR VHHH 180530Z 32005KT 290V350 8000 FEW020 27/19 Q1011 NOSIG,0,5,0,8000,0,0,0,
2026-04-18 05:00:00,METAR VHHH 180500Z 31006KT 280V340 7000 FEW020 27/19 Q1012 NOSIG,0,6,0,7000,0,0,0,
2026-04-18 04:47:00,SPECI VHHH 180447Z 30004KT 270V340 6000 FEW008 SCT015 27/19 Q1012 NOSIG,0,4,0,6000,0,0,0,
2026-04-18 04:30:00,METAR VHHH 180430Z 29005KT 4500 HZ FEW008 SCT015 27/21 Q1012 NOSIG,0,5,0,4500,0,0,0,
2026-04-18 04:00:00,METAR VHHH 180400Z 30005KT 3600 HZ FEW008 SCT015 26/21 Q1013 NOSIG,0,5,0,3600,0,0,0,
2026-04-18 03:30:00,METAR VHHH 180330Z 31007KT 3700 HZ FEW008 SCT015 26/21 Q1013 NOSIG,0,7,0,3700,0,0,0,
2026-04-18 03:00:00,METAR VHHH 180300Z 31009KT 3800 HZ FEW008 SCT015 26/21 Q1013 NOSIG,0,9,0,3800,0,0,0,
2026-04-18 02:30:00,METAR VHHH 180230Z 31008KT 4000 HZ FEW008 SCT015 26/21 Q1013 NOSIG,0,8,0,4000,0,0,0,
2026-04-18 02:00:00,METAR VHHH 180200Z 31007KT 4300 HZ FEW008 SCT015 26/21 Q1013 NOSIG,0,7,0,4300,0,0,0,
2026-04-18 01:30:00,METAR VHHH 180130Z 31006KT 4500 HZ FEW008 SCT015 25/21 Q1013 NOSIG,0,6,0,4500,0,0,0,
2026-04-18 01:00:00,METAR VHHH 180100Z 31004KT 280V340 4600 HZ FEW008 SCT015 25/21 Q1012 NOSIG,0,4,0,4600,0,0,0,
2026-04-18 00:30:00,METAR VHHH 180030Z 31003KT 260V340 4700 BR FEW008 SCT015 25/21 Q1012 NOSIG,0,3,0,4700,0,0,1,BR
2026-04-18 00:00:00,METAR VHHH 180000Z 36003KT 300V050 4500 BR FEW008 SCT015 24/21 Q1012 NOSIG,0,3,0,4500,0,0,1,BR
2026-04-17 23:30:00,METAR VHHH 172330Z VRB02KT 4600 BR FEW008 SCT015 24/21 Q1012 NOSIG,0,2,0,4600,0,0,1,BR
2026-04-17 23:00:00,METAR VHHH 172300Z VRB01KT 4800 BR FEW008 SCT015 24/21 Q1011 NOSIG,0,1,0,4800,0,0,1,BR
2026-04-17 22:41:00,SPECI VHHH 172241Z VRB01KT 4900 BR FEW008 SCT015 23/20 Q1011 NOSIG,0,1,0,4900,0,0,1,BR
2026-04-17 22:30:00,METAR VHHH 172230Z VRB01KT 5000 FEW008 SCT015 23/20 Q1011 TEMPO 3500 BR -RA,0,1,0,5000,0,0,1,"-RA,BR"
2026-04-17 22:00:00,METAR VHHH 172200Z VRB03KT 5000 FEW008 23/20 Q1011 NOSIG,0,3,0,5000,0,0,0,
2026-04-17 21:30:00,METAR VHHH 172130Z VRB02KT 6000 FEW008 23/20 Q1011 NOSIG,0,2,0,6000,0,0,0,
2026-04-17 21:00:00,METAR VHHH 172100Z VRB02KT 7000 FEW008 23/20 Q1011 NOSIG,0,2,0,7000,0,0,0,
2026-04-17 20:30:00,METAR VHHH 172030Z VRB02KT 7000 FEW008 23/20 Q1010 NOSIG,0,2,0,7000,0,0,0,
2026-04-17 20:00:00,METAR VHHH 172000Z VRB02KT 7000 FEW008 23/20 Q1010 NOSIG,0,2,0,7000,0,0,0,
2026-04-17 19:30:00,METAR VHHH 171930Z VRB02KT 7000 FEW008 23/20 Q1010 NOSIG,0,2,0,7000,0,0,0,
2026-04-17 19:00:00,METAR VHHH 171900Z 32005KT 8000 FEW008 23/20 Q1010 NOSIG,0,5,0,8000,0,0,0,
2026-04-17 18:30:00,METAR VHHH 171830Z 32006KT 8000 FEW008 24/21 Q1011 NOSIG,0,6,0,8000,0,0,0,
2026-04-17 18:00:00,METAR VHHH 171800Z 34004KT 9999 FEW008 SCT015 24/21 Q1011 NOSIG,0,4,0,10000,0,0,0,
2026-04-17 17:30:00,METAR VHHH 171730Z 32006KT 8000 FEW008 SCT015 24/21 Q1011 NOSIG,0,6,0,8000,0,0,0,
2026-04-17 17:00:00,METAR VHHH 171700Z 32006KT 280V340 9999 FEW008 SCT015 24/21 Q1012 NOSIG,0,6,0,10000,0,0,0,
2026-04-17 16:30:00,METAR VHHH 171630Z 32006KT 9999 FEW008 SCT015 24/21 Q1011 NOSIG,0,6,0,10000,0,0,0,
2026-04-17 16:00:00,METAR VHHH 171600Z VRB03KT 9999 FEW008 23/21 Q1012 NOSIG,0,3,0,10000,0,0,0,
2026-04-17 15:30:00,METAR VHHH 171530Z 32004KT 280V360 9000 FEW008 24/21 Q1012 NOSIG,0,4,0,9000,0,0,0,
2026-04-17 15:00:00,METAR VHHH 171500Z 32007KT 9000 FEW012 24/21 Q1012 NOSIG,0,7,0,9000,0,0,0,
2026-04-17 14:30:00,METAR VHHH 171430Z 32009KT 9999 FEW012 24/21 Q1012 NOSIG,0,9,0,10000,0,0,0,
2026-04-17 14:00:00,METAR VHHH 171400Z 30013KT 9999 FEW012 24/21 Q1013 NOSIG,0,13,0,10000,0,0,0,
2026-04-17 13:30:00,METAR VHHH 171330Z 33005KT 270V070 9999 FEW012 24/21 Q1013 NOSIG,0,5,0,10000,0,0,0,
2026-04-17 13:00:00,METAR VHHH 171300Z 02008KT 350V060 9999 FEW012 24/21 Q1012 NOSIG,0,8,0,10000,0,0,0,
2026-04-17 12:49:00,SPECI VHHH 171249Z 01010KT 320V040 9999 FEW012 25/21 Q1012 NOSIG,0,10,0,10000,0,0,0,
2026-04-17 12:30:00,METAR VHHH 171230Z 16003KT 080V240 9999 -SHRA FEW010 SCT035 24/21 Q1011 NOSIG,0,3,0,10000,0,0,0,RA
2026-04-17 12:00:00,METAR VHHH 171200Z 11010KT 9999 -SHRA FEW010 SCT035 24/21 Q1010 NOSIG,0,10,0,10000,0,0,0,RA
2026-04-17 11:30:00,METAR VHHH 171130Z 09013KT 9999 -SHRA FEW010 SCT025 24/22 Q1010 NOSIG,0,13,0,10000,0,0,0,RA
2026-04-17 11:18:00,SPECI VHHH 171118Z 09014KT 9999 FEW010 SCT025 24/22 Q1011 RERA NOSIG,0,14,0,10000,0,0,0,RA
2026-04-17 11:03:00,SPECI VHHH 171103Z 09010KT 9999 SHRA FEW010 SCT025 24/22 Q1011 TEMPO 3000 TSRA SHRA FEW008CB SCT020,0,10,0,10000,1,0,0,"RA,SH,TS"
2026-04-17 11:00:00,METAR VHHH 171100Z 15005KT 070V220 9999 SHRA FEW010 SCT025 24/22 Q1011 RETS TEMPO 3000 TSRA SHRA FEW008CB SCT020,0,5,0,10000,1,0,0,"RA,SH,TS"
2026-04-17 10:30:00,METAR VHHH 171030Z 21010KT 9000 TSRA FEW005 FEW012CB SCT030 24/22 Q1012 TEMPO VRB15G25KT 2500 TSRA SHRA FEW008CB SCT020,0,10,0,9000,1,0,0,"RA,SH,TS"
2026-04-17 10:20:00,SPECI VHHH 171020Z 20011KT 180V240 7000 SHRA VCTS FEW005 FEW012CB SCT030 23/22 Q1011 RERA TEMPO VRB15G25KT 2500 TSRA SHRA FEW008CB SCT020,0,11,0,7000,1,0,0,"RA,SH,TS,VC"
2026-04-17 10:05:00,SPECI VHHH 171005Z 24012KT 6000 3000S +SHRA VCTS FEW005 FEW012CB SCT030 24/22 Q1012 TEMPO VRB15G25KT 2500 TSRA SHRA FEW008CB SCT020,0,12,0,6000,1,0,0,"RA,SH,TS,VC"
2026-04-17 10:03:00,SPECI VHHH 171003Z 24012KT 4500 SHRA VCTS FEW005 FEW012CB SCT030 24/22 Q1012 TEMPO VRB15G25KT 2500 TSRA SHRA FEW008CB SCT020,0,12,0,4500,1,0,0,"RA,SH,TS,VC"
2026-04-17 10:00:00,METAR VHHH 171000Z 25012KT 7000 3300W SHRA VCTS FEW005 FEW012CB SCT030 24/22 Q1012 TEMPO VRB15G25KT 2500 TSRA SHRA FEW008CB SCT020,0,12,0,7000,1,0,0,"RA,SH,TS,VC"
2026-04-17 09:30:00,METAR VHHH 170930Z 23006KT 9999 -SHRA VCTS FEW005 FEW012CB SCT030 24/22 Q1011 TEMPO VRB15G25KT 2500 TSRA SHRA FEW008CB SCT020,0,6,0,10000,1,0,0,"RA,SH,TS,VC"
2026-04-17 09:00:00,METAR VHHH 170900Z 27006KT 9999 -SHRA VCTS FEW005 FEW012CB SCT030 24/22 Q1011 RERA RETS TEMPO VRB15G25KT 2500 TSRA SHRA FEW008CB SCT020,0,6,0,10000,1,0,0,"RA,SH,TS,VC"
2026-04-17 08:45:00,SPECI VHHH 170845Z 24004KT 210V280 8000 TSRA FEW005 FEW012CB SCT030 24/23 Q1011 RERA TEMPO VRB20G30KT 2000 TSRA +SHRA FEW008CB SCT020,0,4,0,8000,1,0,0,"RA,TS"
2026-04-17 08:30:00,METAR VHHH 170830Z 25007KT 210V270 3400 1200E R07R/1600U R25L/1200U R07L/P2000U R25R/1500U +TSRA FEW005 FEW012CB SCT030 24/23 Q1011 TEMPO VRB20G30KT 2000 TSRA +SHRA FEW008CB SCT020,0,7,0,3400,1,0,0,"RA,TS"
2026-04-17 08:25:00,SPECI VHHH 170825Z 26011KT 0900 0700E R07R/1100U R25L/0550N R07L/1400U R25R/1300D +TSRA FEW012CB SCT030 24/23 Q1011 TEMPO VRB20G30KT 2000 TSRA +SHRA FEW008CB SCT020,0,11,0,1448100,1,0,0,"RA,TS"
2026-04-17 08:20:00,SPECI VHHH 170820Z 26013KT 230V290 0900 0650E R07R/0900D R25L/0350D R07L/1300D R25R/P2000D +TSRA FEW012CB SCT030 24/23 Q1011 TEMPO VRB20G30KT 2000 TSRA +SHRA FEW008CB SCT020,0,13,0,1448100,1,0,0,"RA,TS"
2026-04-17 08:13:00,SPECI VHHH 170813Z COR 32005KT 280V040 9999 1700W +TSRA FEW012CB SCT030 26/22 Q1011 TEMPO VRB20G30KT 2000 TSRA +SHRA FEW008CB SCT020,0,5,0,10000,1,0,0,"RA,TS"
2026-04-17 08:07:00,SPECI VHHH 170807Z 02004KT 320V060 9999 TSRA FEW012CB SCT030 26/22 Q1010 TEMPO VRB20G30KT 2000 TSRA +SHRA FEW008CB SCT020,0,4,0,10000,1,0,0,"RA,TS"
2026-04-17 08:00:00,METAR VHHH 170800Z 04005KT 9999 VCSH VCTS FEW012CB SCT030 26/22 Q1010 TEMPO VRB20G30KT 2000 TSRA +SHRA FEW008CB SCT020,0,5,0,10000,1,0,0,"RA,SH,TS,VC"
2026-04-17 07:30:00,METAR VHHH 170730Z 09004KT 060V160 9999 -SHRA FEW012CB SCT030 26/21 Q1010 TEMPO FM0800 2500 TSRA SHRA FEW008CB SCT020,0,4,0,10000,1,0,0,"RA,SH,TS"
2026-04-17 07:00:00,METAR VHHH 170700Z VRB02KT 9999 -SHRA FEW020 SCT030 26/21 Q1011 TEMPO FM0800 2500 TSRA SHRA FEW008CB SCT020,0,2,0,10000,1,0,0,"RA,SH,TS"
2026-04-17 06:30:00,METAR VHHH 170630Z 01004KT 9999 FEW018 SCT040 27/21 Q1011 NOSIG,0,4,0,10000,0,0,0,
2026-04-17 06:00:00,METAR VHHH 170600Z 34009KT 9999 FEW018 SCT035 27/21 Q1012 NOSIG,0,9,0,10000,0,0,0,
2026-04-17 05:30:00,METAR VHHH 170530Z 33016KT 9999 FEW018 SCT035 26/21 Q1012 NOSIG,0,16,0,10000,0,0,0,
2026-04-17 05:27:00,SPECI VHHH 170527Z 32016KT 9999 FEW018 27/22 Q1012 NOSIG,0,16,0,10000,0,0,0,
2026-04-17 05:00:00,METAR VHHH 170500Z 28006KT 9999 FEW018 28/22 Q1013 NOSIG,0,6,0,10000,0,0,0,
2026-04-17 04:30:00,METAR VHHH 170430Z 26008KT 210V290 9999 FEW018 28/22 Q1013 NOSIG,0,8,0,10000,0,0,0,
2026-04-17 04:00:00,METAR VHHH 170400Z 27009KT 9999 FEW018 27/22 Q1013 NOSIG,0,9,0,10000,0,0,0,
2026-04-17 03:30:00,METAR VHHH 170330Z 27008KT 9999 FEW018 SCT025 27/22 Q1013 NOSIG,0,8,0,10000,0,0,0,
2026-04-17 03:00:00,METAR VHHH 170300Z VRB04KT 9999 FEW018 27/22 Q1013 NOSIG,0,4,0,10000,0,0,0,
2026-04-17 02:30:00,METAR VHHH 170230Z 08004KT 020V130 9999 FEW018 28/21 Q1013 NOSIG,0,4,0,10000,0,0,0,
2026-04-17 02:00:00,METAR VHHH 170200Z 10006KT 060V140 9999 FEW018 28/22 Q1013 NOSIG,0,6,0,10000,0,0,0,
2026-04-17 01:30:00,METAR VHHH 170130Z 09005KT 050V110 9999 FEW015 27/21 Q1013 NOSIG,0,5,0,10000,0,0,0,
2026-04-17 01:00:00,METAR VHHH 170100Z 09005KT 9999 FEW015 26/22 Q1013 NOSIG,0,5,0,10000,0,0,0,
2026-04-17 00:30:00,METAR VHHH 170030Z 08003KT 9999 FEW015 26/21 Q1013 NOSIG,0,3,0,10000,0,0,0,
2026-04-17 00:00:00,METAR VHHH 170000Z 07003KT 360V100 9999 FEW015 26/21 Q1013 NOSIG,0,3,0,10000,0,0,0,
2026-04-16 23:30:00,METAR VHHH 162330Z 06004KT 9999 FEW015 25/22 Q1012 NOSIG,0,4,0,10000,0,0,0,
2026-04-16 23:00:00,METAR VHHH 162300Z VRB02KT 9999 FEW015 25/22 Q1012 NOSIG,0,2,0,10000,0,0,0,
2026-04-16 22:30:00,METAR VHHH 162230Z 07003KT 9999 FEW015 25/21 Q1011 NOSIG,0,3,0,10000,0,0,0,
2026-04-16 22:00:00,METAR VHHH 162200Z 16001KT 9999 FEW015 25/20 Q1011 NOSIG,0,1,0,10000,0,0,0,
2026-04-16 21:30:00,METAR VHHH 162130Z 10003KT 9999 FEW018 25/20 Q1010 NOSIG,0,3,0,10000,0,0,0,
2026-04-16 21:00:00,METAR VHHH 162100Z 12003KT 9999 FEW018 25/20 Q1010 NOSIG,0,3,0,10000,0,0,0,
2026-04-16 20:30:00,METAR VHHH 162030Z 10004KT 9999 FEW020 25/20 Q1010 NOSIG,0,4,0,10000,0,0,0,
2026-04-16 20:00:00,METAR VHHH 162000Z 08004KT 9999 FEW020 25/20 Q1010 NOSIG,0,4,0,10000,0,0,0,
2026-04-16 19:30:00,METAR VHHH 161930Z 09006KT 9999 FEW020 25/21 Q1010 NOSIG,0,6,0,10000,0,0,0,
2026-04-16 19:00:00,METAR VHHH 161900Z 08004KT 9999 FEW020 25/21 Q1010 NOSIG,0,4,0,10000,0,0,0,
2026-04-16 18:30:00,METAR VHHH 161830Z VRB02KT 9999 FEW020 26/21 Q1010 NOSIG,0,2,0,10000,0,0,0,
2026-04-16 18:00:00,METAR VHHH 161800Z 11004KT 9999 FEW018 26/21 Q1011 NOSIG,0,4,0,10000,0,0,0,
2026-04-16 17:30:00,METAR VHHH 161730Z 10004KT 9999 FEW018 26/21 Q1011 NOSIG,0,4,0,10000,0,0,0,
2026-04-16 17:00:00,METAR VHHH 161700Z 14002KT 9999 FEW018 26/21 Q1011 NOSIG,0,2,0,10000,0,0,0,
2026-04-16 16:30:00,METAR VHHH 161630Z VRB02KT 9999 FEW018 26/21 Q1011 NOSIG,0,2,0,10000,0,0,0,
2026-04-16 16:00:00,METAR VHHH 161600Z 10003KT 9999 FEW018 26/21 Q1012 NOSIG,0,3,0,10000,0,0,0,
2026-04-16 15:30:00,METAR VHHH 161530Z 07004KT 9999 FEW018 26/21 Q1012 NOSIG,0,4,0,10000,0,0,0,
2026-04-16 15:00:00,METAR VHHH 161500Z 04004KT 9999 FEW018 26/22 Q1012 NOSIG,0,4,0,10000,0,0,0,
2026-04-16 14:30:00,METAR VHHH 161430Z 02006KT 9999 FEW018 26/21 Q1012 NOSIG,0,6,0,10000,0,0,0,
2026-04-16 14:00:00,METAR VHHH 161400Z 14006KT 080V180 9999 FEW015 26/22 Q1011 NOSIG,0,6,0,10000,0,0,0,
2026-04-16 13:30:00,METAR VHHH 161330Z VRB02KT 9999 FEW015 26/21 Q1011 NOSIG,0,2,0,10000,0,0,0,
2026-04-16 13:00:00,METAR VHHH 161300Z 14007KT 100V170 9999 FEW015 27/21 Q1011 NOSIG,0,7,0,10000,0,0,0,
2026-04-16 12:30:00,METAR VHHH 161230Z 17003KT 070V240 9999 FEW015 27/21 Q1010 NOSIG,0,3,0,10000,0,0,0,
2026-04-16 12:00:00,METAR VHHH 161200Z 19005KT 130V240 9999 FEW015 26/21 Q1010 NOSIG,0,5,0,10000,0,0,0,
2026-04-16 11:30:00,METAR VHHH 161130Z 19004KT 140V260 9999 FEW015 26/21 Q1010 NOSIG,0,4,0,10000,0,0,0,
2026-04-16 11:00:00,METAR VHHH 161100Z 23007KT 180V250 9999 FEW015 27/21 Q1010 NOSIG,0,7,0,10000,0,0,0,
2026-04-16 10:30:00,METAR VHHH 161030Z 20005KT 150V250 9999 FEW015 27/21 Q1010 NOSIG,0,5,0,10000,0,0,0,
2026-04-16 10:00:00,METAR VHHH 161000Z 20009KT 9999 FEW015 27/20 Q1009 NOSIG,0,9,0,10000,0,0,0,
2026-04-16 09:30:00,METAR VHHH 160930Z 21010KT 170V230 9999 FEW015 28/21 Q1009 NOSIG,0,10,0,10000,0,0,0,
2026-04-16 09:00:00,METAR VHHH 160900Z 22011KT 9999 FEW015 28/20 Q1009 NOSIG,0,11,0,10000,0,0,0,
2026-04-16 08:30:00,METAR VHHH 160830Z 21011KT 180V240 9999 FEW015 SCT025 28/21 Q1010 NOSIG,0,11,0,10000,0,0,0,
2026-04-16 08:00:00,METAR VHHH 160800Z 22013KT 9999 FEW015 SCT025 29/20 Q1010 NOSIG,0,13,0,10000,0,0,0,
2026-04-16 07:30:00,METAR VHHH 160730Z 21012KT 190V260 9999 FEW015 SCT025 28/20 Q1010 NOSIG,0,12,0,10000,0,0,0,
2026-04-16 07:00:00,METAR VHHH 160700Z 19008KT 130V220 9999 FEW015 SCT025 28/21 Q1010 NOSIG,0,8,0,10000,0,0,0,
2026-04-16 06:30:00,METAR VHHH 160630Z 17007KT 140V200 9999 FEW015 SCT025 29/21 Q1010 NOSIG,0,7,0,10000,0,0,0,
2026-04-16 06:00:00,METAR VHHH 160600Z 18010KT 120V240 9999 FEW015 SCT025 29/20 Q1011 NOSIG,0,10,0,10000,0,0,0,
2026-04-16 05:30:00,METAR VHHH 160530Z 16010KT 9999 FEW015 SCT025 29/20 Q1011 NOSIG,0,10,0,10000,0,0,0,
2026-04-16 05:00:00,METAR VHHH 160500Z 16012KT 9999 FEW015 SCT025 29/20 Q1011 NOSIG,0,12,0,10000,0,0,0,
2026-04-16 04:30:00,METAR VHHH 160430Z 17011KT 130V190 9999 FEW015 SCT025 29/21 Q1012 NOSIG,0,11,0,10000,0,0,0,
2026-04-16 04:00:00,METAR VHHH 160400Z 16010KT 130V200 9999 FEW015 SCT030 29/21 Q1012 NOSIG,0,10,0,10000,0,0,0,
2026-04-16 03:30:00,METAR VHHH 160330Z 16009KT 130V200 9999 FEW015 SCT030 29/21 Q1012 NOSIG,0,9,0,10000,0,0,0,
2026-04-16 03:00:00,METAR VHHH 160300Z 20010KT 160V230 9999 FEW015 SCT030 29/21 Q1013 NOSIG,0,10,0,10000,0,0,0,
2026-04-16 02:30:00,METAR VHHH 160230Z 17008KT 130V260 9999 FEW015 SCT030 29/21 Q1013 NOSIG,0,8,0,10000,0,0,0,
2026-04-16 02:00:00,METAR VHHH 160200Z VRB04KT 9999 FEW012 SCT035 28/21 Q1013 NOSIG,0,4,0,10000,0,0,0,
2026-04-16 01:30:00,METAR VHHH 160130Z VRB06KT 9999 FEW012 SCT035 27/22 Q1013 NOSIG,0,6,0,10000,0,0,0,
2026-04-16 01:00:00,METAR VHHH 160100Z 17007KT 9999 FEW012 SCT035 28/22 Q1012 NOSIG,0,7,0,10000,0,0,0,
2026-04-16 00:30:00,METAR VHHH 160030Z 15007KT 120V180 9999 FEW012 SCT035 27/22 Q1012 NOSIG,0,7,0,10000,0,0,0,
2026-04-16 00:00:00,METAR VHHH 160000Z 15007KT 9999 FEW012 SCT035 27/22 Q1011 NOSIG,0,7,0,10000,0,0,0,
2026-04-15 23:30:00,METAR VHHH 152330Z 14008KT 110V170 9999 FEW012 SCT035 26/22 Q1010 NOSIG,0,8,0,10000,0,0,0,
2026-04-15 23:00:00,METAR VHHH 152300Z 14006KT 120V180 9999 FEW010 SCT035 26/22 Q1010 NOSIG,0,6,0,10000,0,0,0,
2026-04-15 22:30:00,METAR VHHH 152230Z 13007KT 9999 FEW012 SCT035 26/22 Q1009 NOSIG,0,7,0,10000,0,0,0,
2026-04-15 22:00:00,METAR VHHH 152200Z 15007KT 090V180 9999 FEW012 26/22 Q1009 NOSIG,0,7,0,10000,0,0,0,
2026-04-15 21:30:00,METAR VHHH 152130Z 15006KT 100V170 9999 FEW012 26/22 Q1008 NOSIG,0,6,0,10000,0,0,0,
2026-04-15 21:00:00,METAR VHHH 152100Z 10005KT 9999 FEW012 26/22 Q1008 NOSIG,0,5,0,10000,0,0,0,
2026-04-15 20:30:00,METAR VHHH 152030Z 10004KT 9999 FEW012 26/22 Q1008 NOSIG,0,4,0,10000,0,0,0,
2026-04-15 20:00:00,METAR VHHH 152000Z 10003KT 9999 FEW015 26/22 Q1009 NOSIG,0,3,0,10000,0,0,0,
2026-04-15 19:30:00,METAR VHHH 151930Z 07003KT 9999 FEW010 26/22 Q1009 NOSIG,0,3,0,10000,0,0,0,
2026-04-15 19:00:00,METAR VHHH 151900Z VRB01KT 9999 FEW010 SCT035 26/22 Q1009 NOSIG,0,1,0,10000,0,0,0,
2026-04-15 18:30:00,METAR VHHH 151830Z 10004KT 080V140 9999 FEW010 27/22 Q1009 NOSIG,0,4,0,10000,0,0,0,
2026-04-15 18:00:00,METAR VHHH 151800Z 05003KT 020V090 9999 FEW008 26/22 Q1010 NOSIG,0,3,0,10000,0,0,0,
2026-04-15 17:30:00,METAR VHHH 151730Z 10002KT 9999 FEW008 26/22 Q1010 NOSIG,0,2,0,10000,0,0,0,
2026-04-15 17:00:00,METAR VHHH 151700Z 07004KT 9999 FEW012 27/22 Q1010 NOSIG,0,4,0,10000,0,0,0,
2026-04-15 16:30:00,METAR VHHH 151630Z VRB02KT 9999 FEW012 27/22 Q1010 NOSIG,0,2,0,10000,0,0,0,
2026-04-15 16:00:00,METAR VHHH 151600Z 05003KT 9999 FEW012 27/22 Q1010 NOSIG,0,3,0,10000,0,0,0,
2026-04-15 15:30:00,METAR VHHH 151530Z VRB02KT 9999 FEW012 27/22 Q1010 NOSIG,0,2,0,10000,0,0,0,
2026-04-15 15:00:00,METAR VHHH 151500Z VRB02KT 9999 FEW012 27/22 Q1010 NOSIG,0,2,0,10000,0,0,0,
2026-04-15 14:30:00,METAR VHHH 151430Z VRB02KT 9999 FEW012 27/22 Q1010 NOSIG,0,2,0,10000,0,0,0,
2026-04-15 14:00:00,METAR VHHH 151400Z 16004KT 100V230 9999 FEW012 27/22 Q1010 NOSIG,0,4,0,10000,0,0,0,
2026-04-15 13:30:00,METAR VHHH 151330Z 20004KT 130V230 9999 FEW012 27/22 Q1010 NOSIG,0,4,0,10000,0,0,0,
2026-04-15 13:00:00,METAR VHHH 151300Z 21006KT 180V260 9999 FEW012 27/22 Q1010 NOSIG,0,6,0,10000,0,0,0,
2026-04-15 12:30:00,METAR VHHH 151230Z 21007KT 170V230 9999 FEW012 27/22 Q1010 NOSIG,0,7,0,10000,0,0,0,
2026-04-15 12:00:00,METAR VHHH 151200Z 21008KT 9999 FEW012 27/22 Q1009 NOSIG,0,8,0,10000,0,0,0,
2026-04-15 11:30:00,METAR VHHH 151130Z 21008KT 180V240 9999 FEW012 27/22 Q1009 NOSIG,0,8,0,10000,0,0,0,
2026-04-15 11:00:00,METAR VHHH 151100Z 22008KT 9999 FEW012 27/22 Q1009 NOSIG,0,8,0,10000,0,0,0,
2026-04-15 10:30:00,METAR VHHH 151030Z 20008KT 140V230 9999 FEW012 27/22 Q1009 NOSIG,0,8,0,10000,0,0,0,
2026-04-15 10:00:00,METAR VHHH 151000Z 20011KT 180V240 9999 FEW012 SCT025 28/22 Q1008 NOSIG,0,11,0,10000,0,0,0,
2026-04-15 09:30:00,METAR VHHH 150930Z 20010KT 170V230 9999 FEW012 SCT025 28/22 Q1008 NOSIG,0,10,0,10000,0,0,0,
2026-04-15 09:00:00,METAR VHHH 150900Z 21010KT 170V230 9999 FEW012 SCT025 28/23 Q1008 NOSIG,0,10,0,10000,0,0,0,
2026-04-15 08:30:00,METAR VHHH 150830Z 22014KT 9999 FEW012 SCT025 28/23 Q1008 NOSIG,0,14,0,10000,0,0,0,
2026-04-15 08:00:00,METAR VHHH 150800Z 21013KT 9999 FEW012 SCT025 29/22 Q1008 NOSIG,0,13,0,10000,0,0,0,
2026-04-15 07:30:00,METAR VHHH 150730Z 20013KT 150V230 9999 FEW012 SCT025 29/22 Q1008 NOSIG,0,13,0,10000,0,0,0,
2026-04-15 07:00:00,METAR VHHH 150700Z 19013KT 160V220 9999 FEW012 SCT025 30/23 Q1008 NOSIG,0,13,0,10000,0,0,0,
2026-04-15 06:30:00,METAR VHHH 150630Z 19013KT 160V220 9999 FEW012 SCT025 29/23 Q1009 NOSIG,0,13,0,10000,0,0,0,
2026-04-15 06:00:00,METAR VHHH 150600Z 20013KT 9999 FEW012 SCT025 28/23 Q1009 NOSIG,0,13,0,10000,0,0,0,
2026-04-15 05:30:00,METAR VHHH 150530Z 21014KT 9999 FEW012 SCT020 29/23 Q1010 NOSIG,0,14,0,10000,0,0,0,
2026-04-15 05:00:00,METAR VHHH 150500Z 21014KT 9999 FEW010 SCT020 29/23 Q1010 WS R25R NOSIG,0,14,0,10000,0,0,0,
2026-04-15 04:37:00,SPECI VHHH 150437Z 22010KT 9999 FEW010 SCT020 29/22 Q1011 NOSIG,0,10,0,10000,0,0,0,
2026-04-15 04:30:00,METAR VHHH 150430Z 16009KT 120V180 9999 FEW010 SCT020 29/23 Q1011 NOSIG,0,9,0,10000,0,0,0,
2026-04-15 04:00:00,METAR VHHH 150400Z 18007KT 110V230 9999 FEW010 SCT020 29/23 Q1011 NOSIG,0,7,0,10000,0,0,0,
2026-04-15 03:30:00,METAR VHHH 150330Z 18007KT 120V250 9999 FEW010 SCT020 29/23 Q1011 NOSIG,0,7,0,10000,0,0,0,
2026-04-15 03:00:00,METAR VHHH 150300Z 16007KT 080V240 9999 FEW010 SCT020 29/23 Q1011 NOSIG,0,7,0,10000,0,0,0,
2026-04-15 02:30:00,METAR VHHH 150230Z 15007KT 100V190 9999 FEW010 SCT020 28/23 Q1011 NOSIG,0,7,0,10000,0,0,0,
2026-04-15 02:00:00,METAR VHHH 150200Z 15008KT 130V190 9999 FEW010 28/22 Q1011 NOSIG,0,8,0,10000,0,0,0,
2026-04-15 01:30:00,METAR VHHH 150130Z 16008KT 140V200 9999 FEW010 SCT020 28/22 Q1011 NOSIG,0,8,0,10000,0,0,0,
2026-04-15 01:00:00,METAR VHHH 150100Z 16006KT 120V200 9999 FEW008 SCT020 28/23 Q1011 NOSIG,0,6,0,10000,0,0,0,
2026-04-15 00:30:00,METAR VHHH 150030Z 16006KT 9999 FEW008 SCT020 27/22 Q1010 NOSIG,0,6,0,10000,0,0,0,
2026-04-15 00:00:00,METAR VHHH 150000Z VRB04KT 9999 FEW008 27/22 Q1010 NOSIG,0,4,0,10000,0,0,0,
2026-04-14 23:30:00,METAR VHHH 142330Z VRB03KT 9999 FEW008 27/22 Q1010 NOSIG,0,3,0,10000,0,0,0,
2026-04-14 23:00:00,METAR VHHH 142300Z 09004KT 9999 FEW008 26/23 Q1009 NOSIG,0,4,0,10000,0,0,0,
2026-04-14 22:30:00,METAR VHHH 142230Z VRB03KT 9999 FEW012 26/22 Q1009 NOSIG,0,3,0,10000,0,0,0,
2026-04-14 22:00:00,METAR VHHH 142200Z 10005KT 9999 FEW012 26/22 Q1009 NOSIG,0,5,0,10000,0,0,0,
2026-04-14 21:30:00,METAR VHHH 142130Z 08005KT 9999 FEW012 26/23 Q1009 NOSIG,0,5,0,10000,0,0,0,
2026-04-14 21:00:00,METAR VHHH 142100Z 08005KT 9999 FEW012 26/22 Q1009 NOSIG,0,5,0,10000,0,0,0,
2026-04-14 20:30:00,METAR VHHH 142030Z 07005KT 9999 FEW012 26/22 Q1009 NOSIG,0,5,0,10000,0,0,0,
2026-04-14 20:00:00,METAR VHHH 142000Z 06004KT 020V090 9999 FEW010 26/22 Q1009 NOSIG,0,4,0,10000,0,0,0,
2026-04-14 19:30:00,METAR VHHH 141930Z 07003KT 040V100 9999 FEW010 26/22 Q1009 NOSIG,0,3,0,10000,0,0,0,
2026-04-14 19:00:00,METAR VHHH 141900Z 07004KT 9999 FEW010 26/23 Q1009 NOSIG,0,4,0,10000,0,0,0,
2026-04-14 18:30:00,METAR VHHH 141830Z 07003KT 9999 FEW010 27/22 Q1009 NOSIG,0,3,0,10000,0,0,0,
2026-04-14 18:00:00,METAR VHHH 141800Z 04004KT 030V090 9999 FEW010 27/22 Q1009 NOSIG,0,4,0,10000,0,0,0,
2026-04-14 17:30:00,METAR VHHH 141730Z VRB02KT 9999 FEW010 27/22 Q1010 NOSIG,0,2,0,10000,0,0,0,
2026-04-14 17:00:00,METAR VHHH 141700Z VRB02KT 9999 FEW010 27/22 Q1010 NOSIG,0,2,0,10000,0,0,0,
2026-04-14 16:30:00,METAR VHHH 141630Z 16002KT 9999 FEW010 27/22 Q1010 NOSIG,0,2,0,10000,0,0,0,
2026-04-14 16:00:00,METAR VHHH 141600Z 17004KT 140V200 9999 FEW010 27/22 Q1010 NOSIG,0,4,0,10000,0,0,0,
2026-04-14 15:30:00,METAR VHHH 141530Z 19003KT 150V220 9999 FEW010 27/23 Q1011 NOSIG,0,3,0,10000,0,0,0,
2026-04-14 15:00:00,METAR VHHH 141500Z 18004KT 9999 FEW010 27/22 Q1011 NOSIG,0,4,0,10000,0,0,0,
2026-04-14 14:30:00,METAR VHHH 141430Z 19005KT 160V220 9999 FEW010 27/22 Q1011 NOSIG,0,5,0,10000,0,0,0,
2026-04-14 14:00:00,METAR VHHH 141400Z 18004KT 140V250 9999 FEW010 27/22 Q1011 NOSIG,0,4,0,10000,0,0,0,
2026-04-14 13:30:00,METAR VHHH 141330Z 21006KT 170V240 9999 FEW010 27/22 Q1011 NOSIG,0,6,0,10000,0,0,0,
2026-04-14 13:00:00,METAR VHHH 141300Z 21006KT 9999 FEW010 27/22 Q1010 NOSIG,0,6,0,10000,0,0,0,
2026-04-14 12:30:00,METAR VHHH 141230Z 20005KT 9999 FEW010 28/22 Q1010 NOSIG,0,5,0,10000,0,0,0,
2026-04-14 12:00:00,METAR VHHH 141200Z 21006KT 170V230 9999 FEW010 27/22 Q1010 NOSIG,0,6,0,10000,0,0,0,
2026-04-14 11:30:00,METAR VHHH 141130Z 20007KT 170V250 9999 FEW010 28/22 Q1010 NOSIG,0,7,0,10000,0,0,0,
2026-04-14 11:00:00,METAR VHHH 141100Z 19009KT 160V230 9999 FEW010 28/22 Q1009 NOSIG,0,9,0,10000,0,0,0,
2026-04-14 10:30:00,METAR VHHH 141030Z 20010KT 170V230 9999 FEW010 28/22 Q1009 NOSIG,0,10,0,10000,0,0,0,
2026-04-14 10:00:00,METAR VHHH 141000Z 19010KT 150V240 9999 FEW010 28/23 Q1009 NOSIG,0,10,0,10000,0,0,0,
2026-04-14 09:30:00,METAR VHHH 140930Z 20011KT 9999 FEW010 28/23 Q1009 NOSIG,0,11,0,10000,0,0,0,
2026-04-14 09:00:00,METAR VHHH 140900Z 19010KT 160V220 9999 FEW012 SCT025 29/22 Q1009 NOSIG,0,10,0,10000,0,0,0,
2026-04-14 08:30:00,METAR VHHH 140830Z 21013KT 180V240 9999 FEW012 SCT025 29/22 Q1009 NOSIG,0,13,0,10000,0,0,0,
2026-04-14 08:00:00,METAR VHHH 140800Z 21011KT 160V240 9999 FEW012 SCT025 29/22 Q1009 WS R25R NOSIG,0,11,0,10000,0,0,0,
2026-04-14 07:30:00,METAR VHHH 140730Z 20012KT 9999 FEW010 SCT025 29/22 Q1009 NOSIG,0,12,0,10000,0,0,0,
2026-04-14 07:00:00,METAR VHHH 140700Z 20011KT 170V250 9999 FEW010 SCT025 29/23 Q1009 NOSIG,0,11,0,10000,0,0,0,
2026-04-14 06:30:00,METAR VHHH 140630Z 21011KT 9999 FEW010 SCT025 28/23 Q1010 NOSIG,0,11,0,10000,0,0,0,
2026-04-14 06:26:00,SPECI VHHH 140626Z 22011KT 9999 FEW010 SCT025 29/23 Q1010 NOSIG,0,11,0,10000,0,0,0,
2026-04-14 06:00:00,METAR VHHH 140600Z 16010KT 110V230 9999 FEW010 SCT025 28/23 Q1010 NOSIG,0,10,0,10000,0,0,0,
2026-04-14 05:30:00,METAR VHHH 140530Z 17009KT 130V220 9999 FEW010 SCT025 29/23 Q1010 NOSIG,0,9,0,10000,0,0,0,
2026-04-14 05:00:00,METAR VHHH 140500Z 16009KT 140V200 9999 FEW010 SCT025 29/23 Q1011 NOSIG,0,9,0,10000,0,0,0,
2026-04-14 04:30:00,METAR VHHH 140430Z 15009KT 9999 FEW010 SCT025 29/23 Q1011 NOSIG,0,9,0,10000,0,0,0,
2026-04-14 04:00:00,METAR VHHH 140400Z 15010KT 9999 FEW010 SCT025 29/23 Q1012 NOSIG,0,10,0,10000,0,0,0,
2026-04-14 03:30:00,METAR VHHH 140330Z 15010KT 120V180 9999 FEW010 29/23 Q1012 NOSIG,0,10,0,10000,0,0,0,
2026-04-14 03:00:00,METAR VHHH 140300Z 15010KT 100V180 9999 FEW010 SCT025 28/23 Q1012 NOSIG,0,10,0,10000,0,0,0,
2026-04-14 02:30:00,METAR VHHH 140230Z 15007KT 120V190 9999 FEW010 SCT025 28/23 Q1012 NOSIG,0,7,0,10000,0,0,0,
2026-04-14 02:00:00,METAR VHHH 140200Z 14008KT 110V170 9999 FEW010 SCT025 28/23 Q1012 NOSIG,0,8,0,10000,0,0,0,
2026-04-14 01:30:00,METAR VHHH 140130Z 15008KT 9999 FEW010 SCT025 28/23 Q1012 NOSIG,0,8,0,10000,0,0,0,
2026-04-14 01:00:00,METAR VHHH 140100Z 15009KT 9999 FEW008 SCT035 28/23 Q1012 NOSIG,0,9,0,10000,0,0,0,
2026-04-14 00:30:00,METAR VHHH 140030Z 16006KT 9999 FEW008 28/22 Q1012 NOSIG,0,6,0,10000,0,0,0,
2026-04-14 00:00:00,METAR VHHH 140000Z 16006KT 9999 FEW008 27/23 Q1012 NOSIG,0,6,0,10000,0,0,0,
2026-04-13 23:30:00,METAR VHHH 132330Z 15005KT 9999 FEW008 27/22 Q1012 NOSIG,0,5,0,10000,0,0,0,
2026-04-13 23:00:00,METAR VHHH 132300Z 09005KT 9999 FEW008 27/22 Q1011 NOSIG,0,5,0,10000,0,0,0,
2026-04-13 22:30:00,METAR VHHH 132230Z VRB05KT 9999 FEW008 SCT040 27/23 Q1011 NOSIG,0,5,0,10000,0,0,0,
2026-04-13 22:00:00,METAR VHHH 132200Z 08006KT 9999 FEW008 SCT040 26/23 Q1011 NOSIG,0,6,0,10000,0,0,0,
2026-04-13 21:30:00,METAR VHHH 132130Z 09003KT 050V120 9999 FEW008 SCT030 26/23 Q1011 NOSIG,0,3,0,10000,0,0,0,
2026-04-13 21:00:00,METAR VHHH 132100Z VRB01KT 9999 FEW008 SCT030 26/22 Q1010 NOSIG,0,1,0,10000,0,0,0,
2026-04-13 20:30:00,METAR VHHH 132030Z 22003KT 160V260 9999 FEW010 26/22 Q1010 NOSIG,0,3,0,10000,0,0,0,
2026-04-13 20:00:00,METAR VHHH 132000Z VRB02KT 9999 FEW010 27/23 Q1010 NOSIG,0,2,0,10000,0,0,0,
2026-04-13 19:30:00,METAR VHHH 131930Z 16003KT 9999 FEW010 27/22 Q1010 NOSIG,0,3,0,10000,0,0,0,
2026-04-13 19:00:00,METAR VHHH 131900Z VRB05KT 9999 FEW010 27/23 Q1010 NOSIG,0,5,0,10000,0,0,0,
2026-04-13 18:30:00,METAR VHHH 131830Z 18005KT 140V270 9999 FEW010 27/22 Q1010 NOSIG,0,5,0,10000,0,0,0,
2026-04-13 18:00:00,METAR VHHH 131800Z 17005KT 9999 FEW010 27/23 Q1011 NOSIG,0,5,0,10000,0,0,0,
2026-04-13 17:30:00,METAR VHHH 131730Z 16005KT 9999 FEW010 27/23 Q1011 NOSIG,0,5,0,10000,0,0,0,
2026-04-13 17:00:00,METAR VHHH 131700Z 18006KT 150V210 9999 FEW010 27/23 Q1011 NOSIG,0,6,0,10000,0,0,0,
2026-04-13 16:30:00,METAR VHHH 131630Z 20007KT 9999 FEW010 SCT025 27/22 Q1011 NOSIG,0,7,0,10000,0,0,0,
2026-04-13 16:00:00,METAR VHHH 131600Z 18004KT 9999 FEW010 SCT025 27/23 Q1011 NOSIG,0,4,0,10000,0,0,0,
2026-04-13 15:30:00,METAR VHHH 131530Z 15005KT 9999 FEW010 27/23 Q1012 NOSIG,0,5,0,10000,0,0,0,
2026-04-13 15:00:00,METAR VHHH 131500Z 15007KT 9999 FEW010 27/23 Q1012 NOSIG,0,7,0,10000,0,0,0,
2026-04-13 14:30:00,METAR VHHH 131430Z 16006KT 040V210 9999 FEW010 27/23 Q1012 NOSIG,0,6,0,10000,0,0,0,
2026-04-13 14:00:00,METAR VHHH 131400Z 15009KT 120V180 9999 FEW010 27/23 Q1012 NOSIG,0,9,0,10000,0,0,0,
2026-04-13 13:30:00,METAR VHHH 131330Z 15007KT 120V180 9999 FEW010 27/23 Q1011 NOSIG,0,7,0,10000,0,0,0,
2026-04-13 13:00:00,METAR VHHH 131300Z 16008KT 130V250 9999 FEW010 27/23 Q1011 NOSIG,0,8,0,10000,0,0,0,
2026-04-13 12:30:00,METAR VHHH 131230Z 17008KT 140V240 9999 FEW010 27/23 Q1011 NOSIG,0,8,0,10000,0,0,0,
2026-04-13 12:00:00,METAR VHHH 131200Z 16008KT 120V260 9999 FEW010 27/23 Q1011 NOSIG,0,8,0,10000,0,0,0,
2026-04-13 11:30:00,METAR VHHH 131130Z 17008KT 140V210 9999 FEW010 27/23 Q1010 NOSIG,0,8,0,10000,0,0,0,
2026-04-13 11:00:00,METAR VHHH 131100Z 17007KT 140V220 9999 FEW010 SCT025 28/23 Q1010 NOSIG,0,7,0,10000,0,0,0,
2026-04-13 10:30:00,METAR VHHH 131030Z 18008KT 120V230 9999 FEW010 SCT025 28/22 Q1010 NOSIG,0,8,0,10000,0,0,0,
2026-04-13 10:00:00,METAR VHHH 131000Z 20008KT 180V260 9999 FEW010 SCT025 28/23 Q1010 NOSIG,0,8,0,10000,0,0,0,
2026-04-13 09:30:00,METAR VHHH 130930Z 19009KT 160V230 9999 FEW010 SCT025 28/23 Q1010 NOSIG,0,9,0,10000,0,0,0,
2026-04-13 09:00:00,METAR VHHH 130900Z 19010KT 160V220 9999 FEW010 SCT025 28/23 Q1009 NOSIG,0,10,0,10000,0,0,0,
2026-04-13 08:30:00,METAR VHHH 130830Z 18011KT 150V220 9999 FEW010 SCT025 28/23 Q1009 NOSIG,0,11,0,10000,0,0,0,
2026-04-13 08:00:00,METAR VHHH 130800Z 19010KT 150V210 9999 FEW010 SCT025 29/22 Q1009 NOSIG,0,10,0,10000,0,0,0,
2026-04-13 07:30:00,METAR VHHH 130730Z 18009KT 130V210 9999 FEW010 SCT025 28/23 Q1010 NOSIG,0,9,0,10000,0,0,0,
2026-04-13 07:00:00,METAR VHHH 130700Z 17009KT 9999 FEW010 SCT025 28/22 Q1010 NOSIG,0,9,0,10000,0,0,0,
2026-04-13 06:30:00,METAR VHHH 130630Z 18009KT 140V210 9999 FEW010 SCT025 28/23 Q1010 NOSIG,0,9,0,10000,0,0,0,
2026-04-13 06:00:00,METAR VHHH 130600Z 19010KT 150V220 9999 FEW010 SCT025 28/22 Q1010 NOSIG,0,10,0,10000,0,0,0,
2026-04-13 05:30:00,METAR VHHH 130530Z 15011KT 9999 FEW010 SCT025 29/22 Q1011 NOSIG,0,11,0,10000,0,0,0,
2026-04-13 05:00:00,METAR VHHH 130500Z 17010KT 140V210 9999 FEW010 SCT025 29/23 Q1011 NOSIG,0,10,0,10000,0,0,0,
2026-04-13 04:30:00,METAR VHHH 130430Z 15011KT 120V180 9999 FEW010 SCT025 28/23 Q1012 NOSIG,0,11,0,10000,0,0,0,
2026-04-13 04:00:00,METAR VHHH 130400Z 15010KT 9999 FEW010 SCT025 28/23 Q1012 NOSIG,0,10,0,10000,0,0,0,
2026-04-13 03:30:00,METAR VHHH 130330Z 15011KT 9999 FEW010 SCT025 29/23 Q1012 NOSIG,0,11,0,10000,0,0,0,
2026-04-13 03:00:00,METAR VHHH 130300Z 16012KT 9999 FEW010 SCT025 28/23 Q1012 NOSIG,0,12,0,10000,0,0,0,
2026-04-13 02:30:00,METAR VHHH 130230Z 15012KT 9999 FEW010 SCT025 28/22 Q1012 WS R07R NOSIG,0,12,0,10000,0,0,0,
2026-04-13 02:00:00,METAR VHHH 130200Z 16011KT 130V190 9999 FEW010 SCT025 28/23 Q1012 WS R07R NOSIG,0,11,0,10000,0,0,0,
2026-04-13 01:30:00,METAR VHHH 130130Z 16011KT 9999 FEW010 SCT025 28/22 Q1012 NOSIG,0,11,0,10000,0,0,0,
2026-04-13 01:00:00,METAR VHHH 130100Z 16011KT 9999 FEW010 SCT025 27/22 Q1012 NOSIG,0,11,0,10000,0,0,0,
2026-04-13 00:30:00,METAR VHHH 130030Z 15009KT 120V180 9999 FEW010 SCT025 27/22 Q1012 NOSIG,0,9,0,10000,0,0,0,
2026-04-13 00:00:00,METAR VHHH 130000Z 15007KT 9999 FEW010 SCT025 27/22 Q1012 NOSIG,0,7,0,10000,0,0,0,
2026-04-12 23:30:00,METAR VHHH 122330Z 16010KT 9999 FEW008 SCT025 27/22 Q1011 NOSIG,0,10,0,10000,0,0,0,
2026-04-12 23:00:00,METAR VHHH 122300Z 16005KT 9999 FEW008 SCT025 26/23 Q1011 NOSIG,0,5,0,10000,0,0,0,
2026-04-12 22:30:00,METAR VHHH 122230Z 16006KT 9999 FEW008 SCT025 26/22 Q1010 NOSIG,0,6,0,10000,0,0,0,
2026-04-12 22:00:00,METAR VHHH 122200Z 15005KT 9999 FEW008 SCT025 26/22 Q1010 NOSIG,0,5,0,10000,0,0,0,
2026-04-12 21:30:00,METAR VHHH 122130Z 16005KT 9999 FEW008 SCT025 26/23 Q1010 NOSIG,0,5,0,10000,0,0,0,
2026-04-12 21:00:00,METAR VHHH 122100Z 16006KT 9999 FEW008 SCT025 26/23 Q1009 NOSIG,0,6,0,10000,0,0,0,
2026-04-12 20:30:00,METAR VHHH 122030Z 15006KT 9999 FEW008 SCT025 26/22 Q1009 NOSIG,0,6,0,10000,0,0,0,
2026-04-12 20:00:00,METAR VHHH 122000Z 16007KT 9999 FEW008 SCT025 26/23 Q1009 NOSIG,0,7,0,10000,0,0,0,
2026-04-12 19:30:00,METAR VHHH 121930Z 16004KT 9999 FEW010 SCT025 26/23 Q1009 NOSIG,0,4,0,10000,0,0,0,
2026-04-12 19:00:00,METAR VHHH 121900Z 16005KT 9999 FEW010 SCT025 27/22 Q1009 NOSIG,0,5,0,10000,0,0,0,
2026-04-12 18:30:00,METAR VHHH 121830Z 16005KT 9999 FEW010 SCT025 27/22 Q1009 NOSIG,0,5,0,10000,0,0,0,
2026-04-12 18:00:00,METAR VHHH 121800Z 16005KT 9999 FEW010 27/22 Q1009 NOSIG,0,5,0,10000,0,0,0,
2026-04-12 17:30:00,METAR VHHH 121730Z 16005KT 120V180 9999 FEW010 27/22 Q1009 NOSIG,0,5,0,10000,0,0,0,
2026-04-12 17:00:00,METAR VHHH 121700Z 16007KT 9999 FEW010 27/22 Q1009 NOSIG,0,7,0,10000,0,0,0,
2026-04-12 16:30:00,METAR VHHH 121630Z 15004KT 9999 FEW010 27/23 Q1010 NOSIG,0,4,0,10000,0,0,0,
2026-04-12 16:00:00,METAR VHHH 121600Z 16009KT 9999 FEW010 SCT025 27/23 Q1010 NOSIG,0,9,0,10000,0,0,0,
2026-04-12 15:00:00,METAR VHHH 121500Z 15007KT 9999 FEW010 SCT025 27/23 Q1010 NOSIG,0,7,0,10000,0,0,0,
2026-04-12 14:30:00,METAR VHHH 121430Z 16006KT 120V200 9999 FEW010 SCT025 27/23 Q1010 NOSIG,0,6,0,10000,0,0,0,
2026-04-12 14:00:00,METAR VHHH 121400Z 16008KT 130V190 9999 FEW010 SCT025 27/23 Q1010 NOSIG,0,8,0,10000,0,0,0,
2026-04-12 13:30:00,METAR VHHH 121330Z 15007KT 9999 FEW010 SCT025 27/23 Q1010 NOSIG,0,7,0,10000,0,0,0,
2026-04-12 13:00:00,METAR VHHH 121300Z 15007KT 9999 FEW010 SCT025 27/22 Q1009 NOSIG,0,7,0,10000,0,0,0,
2026-04-12 12:30:00,METAR VHHH 121230Z 16007KT 130V190 9999 FEW010 SCT025 27/23 Q1009 NOSIG,0,7,0,10000,0,0,0,
2026-04-12 12:00:00,METAR VHHH 121200Z 16008KT 120V190 9999 FEW010 SCT025 27/23 Q1009 NOSIG,0,8,0,10000,0,0,0,
2026-04-12 11:30:00,METAR VHHH 121130Z 15008KT 9999 FEW010 SCT025 27/23 Q1009 NOSIG,0,8,0,10000,0,0,0,
2026-04-12 11:00:00,METAR VHHH 121100Z 15007KT 9999 FEW010 SCT025 27/23 Q1008 NOSIG,0,7,0,10000,0,0,0,
2026-04-12 10:30:00,METAR VHHH 121030Z 15008KT 9999 FEW010 SCT025 27/23 Q1008 NOSIG,0,8,0,10000,0,0,0,
2026-04-12 10:00:00,METAR VHHH 121000Z 15009KT 9999 FEW010 SCT025 27/23 Q1008 NOSIG,0,9,0,10000,0,0,0,
2026-04-12 09:30:00,METAR VHHH 120930Z 15009KT 9999 FEW010 SCT025 27/23 Q1007 NOSIG,0,9,0,10000,0,0,0,
2026-04-12 09:00:00,METAR VHHH 120900Z 16009KT 120V180 9999 FEW010 SCT025 27/23 Q1007 NOSIG,0,9,0,10000,0,0,0,
2026-04-12 08:30:00,METAR VHHH 120830Z 15009KT 9999 FEW012 SCT025 28/23 Q1007 NOSIG,0,9,0,10000,0,0,0,
2026-04-12 08:00:00,METAR VHHH 120800Z 14008KT 120V190 9999 FEW012 SCT025 28/23 Q1007 NOSIG,0,8,0,10000,0,0,0,
2026-04-12 07:30:00,METAR VHHH 120730Z 15011KT 120V190 9999 FEW012 SCT025 28/23 Q1007 WS R25L NOSIG,0,11,0,10000,0,0,0,
2026-04-12 07:00:00,METAR VHHH 120700Z 15010KT 100V180 9999 FEW010 SCT025 28/23 Q1007 NOSIG,0,10,0,10000,0,0,0,
2026-04-12 06:30:00,METAR VHHH 120630Z 16008KT 120V200 9999 FEW010 SCT035 28/23 Q1008 NOSIG,0,8,0,10000,0,0,0,
2026-04-12 06:00:00,METAR VHHH 120600Z 16008KT 110V260 9999 FEW010 SCT035 28/23 Q1008 NOSIG,0,8,0,10000,0,0,0,
2026-04-12 05:30:00,METAR VHHH 120530Z 15009KT 110V220 9999 FEW010 SCT035 28/23 Q1008 NOSIG,0,9,0,10000,0,0,0,
2026-04-12 05:00:00,METAR VHHH 120500Z 16008KT 130V200 9999 FEW010 SCT035 28/23 Q1009 NOSIG,0,8,0,10000,0,0,0,
2026-04-12 04:30:00,METAR VHHH 120430Z 15010KT 9999 FEW010 SCT035 28/23 Q1009 NOSIG,0,10,0,10000,0,0,0,
2026-04-12 04:00:00,METAR VHHH 120400Z 15009KT 120V180 9999 FEW010 SCT030 28/23 Q1010 NOSIG,0,9,0,10000,0,0,0,
2026-04-12 03:30:00,METAR VHHH 120330Z 16010KT 130V200 9999 FEW010 SCT030 28/23 Q1010 NOSIG,0,10,0,10000,0,0,0,
2026-04-12 03:00:00,METAR VHHH 120300Z 15010KT 120V200 9999 FEW010 SCT025 28/22 Q1010 NOSIG,0,10,0,10000,0,0,0,
2026-04-12 02:30:00,METAR VHHH 120230Z 15012KT 9999 FEW010 SCT025 28/22 Q1010 NOSIG,0,12,0,10000,0,0,0,
2026-04-12 02:00:00,METAR VHHH 120200Z 15010KT 120V200 9999 FEW010 SCT025 28/23 Q1010 NOSIG,0,10,0,10000,0,0,0,
2026-04-12 01:30:00,METAR VHHH 120130Z 15010KT 9999 FEW010 SCT025 28/22 Q1010 NOSIG,0,10,0,10000,0,0,0,
2026-04-12 01:00:00,METAR VHHH 120100Z 16008KT 9999 FEW010 SCT025 28/23 Q1010 NOSIG,0,8,0,10000,0,0,0,
2026-04-12 00:30:00,METAR VHHH 120030Z 15008KT 9999 FEW008 SCT025 27/23 Q1009 NOSIG,0,8,0,10000,0,0,0,
2026-04-12 00:00:00,METAR VHHH 120000Z 15008KT 120V180 9999 FEW008 SCT025 27/23 Q1009 NOSIG,0,8,0,10000,0,0,0,
2026-04-11 23:30:00,METAR VHHH 112330Z 15007KT 9999 FEW008 SCT025 27/22 Q1009 NOSIG,0,7,0,10000,0,0,0,
2026-04-11 23:00:00,METAR VHHH 112300Z 15006KT 110V170 9999 FEW008 SCT025 27/23 Q1008 NOSIG,0,6,0,10000,0,0,0,
2026-04-11 22:30:00,METAR VHHH 112230Z 14006KT 110V190 9999 FEW008 SCT025 26/23 Q1008 NOSIG,0,6,0,10000,0,0,0,
2026-04-11 22:00:00,METAR VHHH 112200Z 15008KT 9999 FEW008 SCT025 27/23 Q1008 NOSIG,0,8,0,10000,0,0,0,
2026-04-11 21:30:00,METAR VHHH 112130Z 17008KT 140V200 9999 FEW008 SCT035 26/23 Q1008 NOSIG,0,8,0,10000,0,0,0,
2026-04-11 21:00:00,METAR VHHH 112100Z 16007KT 130V200 9999 FEW008 SCT035 27/22 Q1008 NOSIG,0,7,0,10000,0,0,0,
2026-04-11 20:30:00,METAR VHHH 112030Z 15007KT 9999 FEW008 SCT035 27/22 Q1008 NOSIG,0,7,0,10000,0,0,0,
2026-04-11 20:00:00,METAR VHHH 112000Z 17007KT 140V210 9999 FEW008 SCT035 27/23 Q1007 NOSIG,0,7,0,10000,0,0,0,
2026-04-11 19:30:00,METAR VHHH 111930Z 15008KT 9999 FEW008 SCT035 27/23 Q1008 NOSIG,0,8,0,10000,0,0,0,
2026-04-11 19:00:00,METAR VHHH 111900Z 16009KT 130V190 9999 FEW008 SCT035 27/23 Q1008 NOSIG,0,9,0,10000,0,0,0,
2026-04-11 18:30:00,METAR VHHH 111830Z 16007KT 9999 FEW008 SCT035 27/22 Q1008 NOSIG,0,7,0,10000,0,0,0,
2026-04-11 18:00:00,METAR VHHH 111800Z 16006KT 9999 FEW008 SCT035 27/23 Q1008 NOSIG,0,6,0,10000,0,0,0,
2026-04-11 17:30:00,METAR VHHH 111730Z 15006KT 9999 FEW008 SCT035 27/23 Q1009 NOSIG,0,6,0,10000,0,0,0,
2026-04-11 17:00:00,METAR VHHH 111700Z 15007KT 110V170 9999 FEW008 SCT025 27/23 Q1009 NOSIG,0,7,0,10000,0,0,0,
2026-04-11 16:30:00,METAR VHHH 111630Z 15009KT 9999 FEW008 SCT025 27/23 Q1009 NOSIG,0,9,0,10000,0,0,0,
2026-04-11 16:00:00,METAR VHHH 111600Z 15008KT 130V190 9999 FEW008 SCT025 27/23 Q1009 NOSIG,0,8,0,10000,0,0,0,
2026-04-11 15:30:00,METAR VHHH 111530Z 16008KT 9999 FEW008 SCT025 27/23 Q1009 NOSIG,0,8,0,10000,0,0,0,
2026-04-11 15:00:00,METAR VHHH 111500Z 15007KT 9999 FEW008 SCT025 27/23 Q1009 NOSIG,0,7,0,10000,0,0,0,
2026-04-11 14:30:00,METAR VHHH 111430Z 15008KT 9999 FEW008 SCT025 27/23 Q1009 NOSIG,0,8,0,10000,0,0,0,
2026-04-11 14:00:00,METAR VHHH 111400Z 15010KT 9999 FEW008 SCT025 27/24 Q1009 WS R07R NOSIG,0,10,0,10000,0,0,0,
2026-04-11 13:30:00,METAR VHHH 111330Z 15012KT 9999 FEW008 SCT025 27/24 Q1008 NOSIG,0,12,0,10000,0,0,0,
2026-04-11 13:00:00,METAR VHHH 111300Z 15009KT 9999 FEW008 SCT025 27/23 Q1008 NOSIG,0,9,0,10000,0,0,0,
2026-04-11 12:30:00,METAR VHHH 111230Z 15010KT 9999 FEW008 SCT025 27/23 Q1008 NOSIG,0,10,0,10000,0,0,0,
2026-04-11 12:00:00,METAR VHHH 111200Z 14010KT 9999 FEW008 SCT025 27/23 Q1008 NOSIG,0,10,0,10000,0,0,0,
2026-04-11 11:30:00,METAR VHHH 111130Z 15009KT 090V170 9999 FEW008 SCT025 27/23 Q1007 NOSIG,0,9,0,10000,0,0,0,
2026-04-11 11:00:00,METAR VHHH 111100Z 15010KT 110V170 9999 FEW008 SCT025 27/23 Q1007 NOSIG,0,10,0,10000,0,0,0,
2026-04-11 10:30:00,METAR VHHH 111030Z 16007KT 120V220 9999 FEW008 SCT025 27/23 Q1007 NOSIG,0,7,0,10000,0,0,0,
2026-04-11 10:00:00,METAR VHHH 111000Z 18010KT 150V230 9999 FEW008 SCT025 27/24 Q1007 NOSIG,0,10,0,10000,0,0,0,
2026-04-11 09:30:00,METAR VHHH 110930Z 18010KT 9999 FEW008 SCT025 27/23 Q1006 NOSIG,0,10,0,10000,0,0,0,
2026-04-11 09:00:00,METAR VHHH 110900Z 17011KT 140V230 9999 FEW008 SCT020 28/23 Q1006 NOSIG,0,11,0,10000,0,0,0,
2026-04-11 08:30:00,METAR VHHH 110830Z 19011KT 9999 FEW008 SCT020 28/23 Q1006 NOSIG,0,11,0,10000,0,0,0,
2026-04-11 08:00:00,METAR VHHH 110800Z 19012KT 170V230 9999 FEW008 SCT020 28/23 Q1006 NOSIG,0,12,0,10000,0,0,0,
2026-04-11 07:30:00,METAR VHHH 110730Z 19011KT 160V230 9999 FEW008 SCT020 28/23 Q1007 NOSIG,0,11,0,10000,0,0,0,
2026-04-11 07:00:00,METAR VHHH 110700Z 19013KT 160V230 9999 FEW008 SCT020 29/23 Q1007 NOSIG,0,13,0,10000,0,0,0,
2026-04-11 06:30:00,METAR VHHH 110630Z 18013KT 9999 FEW008 SCT020 28/23 Q1007 NOSIG,0,13,0,10000,0,0,0,
2026-04-11 06:00:00,METAR VHHH 110600Z 18011KT 150V220 9999 FEW008 SCT020 28/23 Q1008 NOSIG,0,11,0,10000,0,0,0,
2026-04-11 05:30:00,METAR VHHH 110530Z 19012G27KT 150V220 9999 FEW008 SCT020 28/23 Q1008 NOSIG,0,12,1,10000,0,0,0,
2026-04-11 05:00:00,METAR VHHH 110500Z 18010KT 150V220 9999 FEW008 SCT020 27/23 Q1009 NOSIG,0,10,0,10000,0,0,0,
2026-04-11 04:30:00,METAR VHHH 110430Z 19011KT 160V230 9999 FEW008 SCT020 28/23 Q1009 NOSIG,0,11,0,10000,0,0,0,
2026-04-11 04:00:00,METAR VHHH 110400Z 18011KT 150V220 9999 FEW008 SCT022 28/23 Q1009 NOSIG,0,11,0,10000,0,0,0,
2026-04-11 03:30:00,METAR VHHH 110330Z 18009KT 150V210 9999 FEW008 SCT022 28/23 Q1010 WS R25L NOSIG,0,9,0,10000,0,0,0,
2026-04-11 03:00:00,METAR VHHH 110300Z 16009KT 130V230 9999 FEW008 SCT022 27/23 Q1010 NOSIG,0,9,0,10000,0,0,0,
2026-04-11 02:30:00,METAR VHHH 110230Z 18010KT 150V220 9999 FEW008 SCT022 27/23 Q1010 NOSIG,0,10,0,10000,0,0,0,
2026-04-11 02:00:00,METAR VHHH 110200Z 16009KT 120V210 9999 FEW008 SCT022 27/23 Q1010 NOSIG,0,9,0,10000,0,0,0,
2026-04-11 01:30:00,METAR VHHH 110130Z 19008KT 140V240 9999 FEW008 SCT025 27/23 Q1010 NOSIG,0,8,0,10000,0,0,0,
2026-04-11 01:00:00,METAR VHHH 110100Z 20011KT 9999 FEW008 SCT025 27/23 Q1010 NOSIG,0,11,0,10000,0,0,0,
2026-04-11 00:30:00,METAR VHHH 110030Z 17007KT 150V220 9999 FEW008 SCT025 27/23 Q1009 NOSIG,0,7,0,10000,0,0,0,
2026-04-11 00:00:00,METAR VHHH 110000Z 18006KT 150V210 9999 FEW008 SCT025 27/22 Q1009 NOSIG,0,6,0,10000,0,0,0,
2026-04-10 23:30:00,METAR VHHH 102330Z 16007KT 110V230 9999 FEW008 SCT022 27/23 Q1009 NOSIG,0,7,0,10000,0,0,0,
2026-04-10 23:00:00,METAR VHHH 102300Z 16006KT 070V200 9999 FEW008 SCT025 26/23 Q1009 NOSIG,0,6,0,10000,0,0,0,
2026-04-10 22:30:00,METAR VHHH 102230Z VRB05KT 9999 FEW010 SCT025 27/23 Q1008 NOSIG,0,5,0,10000,0,0,0,
2026-04-10 22:00:00,METAR VHHH 102200Z 18004KT 100V230 9999 FEW010 SCT025 27/22 Q1008 NOSIG,0,4,0,10000,0,0,0,
2026-04-10 21:30:00,METAR VHHH 102130Z 19006KT 110V260 9999 FEW010 SCT025 27/23 Q1008 NOSIG,0,6,0,10000,0,0,0,
2026-04-10 21:00:00,METAR VHHH 102100Z 19008KT 150V230 9999 FEW010 SCT025 27/23 Q1008 NOSIG,0,8,0,10000,0,0,0,
2026-04-10 20:30:00,METAR VHHH 102030Z VRB08KT 9999 FEW010 SCT025 27/22 Q1008 NOSIG,0,8,0,10000,0,0,0,
2026-04-10 20:00:00,METAR VHHH 102000Z 18009KT 160V220 9999 FEW012 SCT025 27/22 Q1007 NOSIG,0,9,0,10000,0,0,0,
2026-04-10 19:30:00,METAR VHHH 101930Z 20009KT 9999 FEW012 SCT025 27/22 Q1008 NOSIG,0,9,0,10000,0,0,0,
2026-04-10 19:00:00,METAR VHHH 101900Z 20009KT 9999 FEW012 SCT028 27/22 Q1008 NOSIG,0,9,0,10000,0,0,0,
2026-04-10 18:30:00,METAR VHHH 101830Z 20007KT 170V230 9999 FEW010 SCT028 27/23 Q1008 NOSIG,0,7,0,10000,0,0,0,
2026-04-10 18:00:00,METAR VHHH 101800Z 19008KT 9999 FEW010 SCT025 27/23 Q1008 NOSIG,0,8,0,10000,0,0,0,
2026-04-10 17:30:00,METAR VHHH 101730Z 20009KT 9999 FEW010 SCT025 27/22 Q1008 NOSIG,0,9,0,10000,0,0,0,
2026-04-10 17:00:00,METAR VHHH 101700Z 20008KT 9999 FEW010 SCT025 27/22 Q1009 NOSIG,0,8,0,10000,0,0,0,
2026-04-10 16:30:00,METAR VHHH 101630Z 20009KT 170V230 9999 FEW010 SCT025 27/22 Q1009 NOSIG,0,9,0,10000,0,0,0,
2026-04-10 16:00:00,METAR VHHH 101600Z 18007KT 120V230 9999 FEW010 SCT025 27/22 Q1009 NOSIG,0,7,0,10000,0,0,0,
2026-04-10 15:30:00,METAR VHHH 101530Z 20009KT 9999 FEW010 SCT025 27/23 Q1009 NOSIG,0,9,0,10000,0,0,0,
2026-04-10 15:00:00,METAR VHHH 101500Z 19007KT 140V250 9999 FEW010 SCT025 27/22 Q1009 NOSIG,0,7,0,10000,0,0,0,
2026-04-10 14:30:00,METAR VHHH 101430Z 19009KT 160V240 9999 FEW010 SCT025 27/23 Q1009 NOSIG,0,9,0,10000,0,0,0,
2026-04-10 14:00:00,METAR VHHH 101400Z 18010KT 150V210 9999 FEW010 SCT025 27/22 Q1009 NOSIG,0,10,0,10000,0,0,0,
2026-04-10 13:30:00,METAR VHHH 101330Z 19008KT 150V220 9999 FEW010 SCT025 27/22 Q1009 NOSIG,0,8,0,10000,0,0,0,
2026-04-10 13:00:00,METAR VHHH 101300Z 18008KT 9999 FEW010 SCT025 27/22 Q1009 NOSIG,0,8,0,10000,0,0,0,
2026-04-10 12:30:00,METAR VHHH 101230Z 18010KT 140V220 9999 FEW010 SCT025 27/21 Q1009 NOSIG,0,10,0,10000,0,0,0,
2026-04-10 12:00:00,METAR VHHH 101200Z 19010KT 160V230 9999 FEW010 SCT025 27/22 Q1009 NOSIG,0,10,0,10000,0,0,0,
2026-04-10 11:30:00,METAR VHHH 101130Z 19009KT 140V220 9999 FEW010 SCT025 27/22 Q1009 NOSIG,0,9,0,10000,0,0,0,
2026-04-10 11:00:00,METAR VHHH 101100Z 19008KT 150V230 9999 FEW010 SCT025 27/22 Q1008 NOSIG,0,8,0,10000,0,0,0,
2026-04-10 10:30:00,METAR VHHH 101030Z 19010KT 160V220 9999 FEW010 SCT025 27/22 Q1008 NOSIG,0,10,0,10000,0,0,0,
2026-04-10 10:00:00,METAR VHHH 101000Z 19010KT 150V210 9999 FEW010 SCT025 28/22 Q1008 NOSIG,0,10,0,10000,0,0,0,
2026-04-10 09:30:00,METAR VHHH 100930Z 20010KT 160V230 9999 FEW010 SCT025 28/22 Q1008 NOSIG,0,10,0,10000,0,0,0,
2026-04-10 09:00:00,METAR VHHH 100900Z 20010KT 160V240 9999 FEW010 SCT025 28/23 Q1008 NOSIG,0,10,0,10000,0,0,0,
2026-04-10 08:30:00,METAR VHHH 100830Z 20010KT 9999 FEW010 SCT025 28/22 Q1008 NOSIG,0,10,0,10000,0,0,0,
2026-04-10 08:00:00,METAR VHHH 100800Z 20012KT 160V250 9999 FEW010 SCT025 28/22 Q1008 NOSIG,0,12,0,10000,0,0,0,
2026-04-10 07:30:00,METAR VHHH 100730Z 20012KT 160V230 9999 FEW010 SCT025 28/22 Q1008 NOSIG,0,12,0,10000,0,0,0,
2026-04-10 07:00:00,METAR VHHH 100700Z 20012KT 160V230 9999 FEW010 SCT025 29/21 Q1008 NOSIG,0,12,0,10000,0,0,0,
2026-04-10 06:30:00,METAR VHHH 100630Z 20011KT 170V230 9999 FEW010 SCT025 29/22 Q1009 NOSIG,0,11,0,10000,0,0,0,
2026-04-10 06:00:00,METAR VHHH 100600Z 20013KT 9999 FEW010 SCT025 29/22 Q1009 NOSIG,0,13,0,10000,0,0,0,
2026-04-10 05:30:00,METAR VHHH 100530Z 20012KT 170V230 9999 FEW010 SCT025 29/22 Q1010 NOSIG,0,12,0,10000,0,0,0,
2026-04-10 05:00:00,METAR VHHH 100500Z 21012KT 170V230 9999 FEW010 SCT025 29/21 Q1010 NOSIG,0,12,0,10000,0,0,0,
2026-04-10 04:30:00,METAR VHHH 100430Z 20012KT 170V230 9999 FEW010 SCT025 28/22 Q1010 NOSIG,0,12,0,10000,0,0,0,
2026-04-10 04:00:00,METAR VHHH 100400Z 20012KT 9999 FEW010 SCT025 29/22 Q1011 NOSIG,0,12,0,10000,0,0,0,
2026-04-10 03:30:00,METAR VHHH 100330Z 19011KT 160V230 9999 FEW010 SCT025 28/22 Q1011 NOSIG,0,11,0,10000,0,0,0,
2026-04-10 03:00:00,METAR VHHH 100300Z 20010KT 170V250 9999 FEW010 SCT025 28/22 Q1011 NOSIG,0,10,0,10000,0,0,0,
2026-04-10 02:30:00,METAR VHHH 100230Z 20009KT 9999 FEW012 SCT025 28/22 Q1012 NOSIG,0,9,0,10000,0,0,0,
2026-04-10 02:00:00,METAR VHHH 100200Z 20009KT 180V250 9999 FEW012 SCT025 28/21 Q1011 NOSIG,0,9,0,10000,0,0,0,
2026-04-10 01:30:00,METAR VHHH 100130Z 20010KT 9999 FEW012 SCT025 28/21 Q1011 NOSIG,0,10,0,10000,0,0,0,
2026-04-10 01:00:00,METAR VHHH 100100Z 20009KT 170V230 9999 FEW012 SCT025 27/22 Q1011 NOSIG,0,9,0,10000,0,0,0,
2026-04-10 00:30:00,METAR VHHH 100030Z 20007KT 9999 FEW012 SCT025 28/22 Q1011 NOSIG,0,7,0,10000,0,0,0,
2026-04-10 00:00:00,METAR VHHH 100000Z 20007KT 9999 FEW012 SCT025 27/21 Q1010 NOSIG,0,7,0,10000,0,0,0,
2026-04-09 23:30:00,METAR VHHH 092330Z 19008KT 9999 FEW015 SCT025 27/21 Q1010 NOSIG,0,8,0,10000,0,0,0,
2026-04-09 23:00:00,METAR VHHH 092300Z 19008KT 9999 FEW015 SCT025 27/22 Q1009 NOSIG,0,8,0,10000,0,0,0,
2026-04-09 22:30:00,METAR VHHH 092230Z 19008KT 9999 FEW015 SCT025 26/21 Q1009 NOSIG,0,8,0,10000,0,0,0,
2026-04-09 22:00:00,METAR VHHH 092200Z 19007KT 9999 FEW015 SCT025 26/21 Q1009 NOSIG,0,7,0,10000,0,0,0,
2026-04-09 21:30:00,METAR VHHH 092130Z 20008KT 9999 FEW015 SCT025 26/21 Q1008 NOSIG,0,8,0,10000,0,0,0,
2026-04-09 21:00:00,METAR VHHH 092100Z 20010KT 9999 FEW015 SCT025 26/21 Q1008 NOSIG,0,10,0,10000,0,0,0,
2026-04-09 20:30:00,METAR VHHH 092030Z 18007KT 140V220 9999 FEW015 SCT025 26/21 Q1008 NOSIG,0,7,0,10000,0,0,0,
2026-04-09 20:00:00,METAR VHHH 092000Z 19010KT 9999 FEW015 SCT025 26/21 Q1008 NOSIG,0,10,0,10000,0,0,0,
2026-04-09 19:30:00,METAR VHHH 091930Z 20012KT 9999 FEW015 SCT025 26/21 Q1008 NOSIG,0,12,0,10000,0,0,0,
2026-04-09 19:00:00,METAR VHHH 091900Z 20012KT 9999 FEW012 SCT025 26/22 Q1009 NOSIG,0,12,0,10000,0,0,0,
2026-04-09 18:30:00,METAR VHHH 091830Z 20012KT 9999 FEW015 SCT025 27/22 Q1009 NOSIG,0,12,0,10000,0,0,0,
2026-04-09 18:00:00,METAR VHHH 091800Z 20010KT 9999 FEW015 SCT025 27/22 Q1009 NOSIG,0,10,0,10000,0,0,0,
2026-04-09 17:30:00,METAR VHHH 091730Z 21010KT 180V250 9999 FEW015 SCT025 27/22 Q1010 NOSIG,0,10,0,10000,0,0,0,
2026-04-09 17:00:00,METAR VHHH 091700Z 20011KT 9999 FEW015 SCT025 27/21 Q1010 NOSIG,0,11,0,10000,0,0,0,
2026-04-09 16:30:00,METAR VHHH 091630Z 19012KT 9999 FEW015 SCT025 27/22 Q1010 NOSIG,0,12,0,10000,0,0,0,
2026-04-09 16:00:00,METAR VHHH 091600Z 18009KT 150V210 9999 FEW015 SCT025 27/21 Q1010 NOSIG,0,9,0,10000,0,0,0,
2026-04-09 15:30:00,METAR VHHH 091530Z 20010KT 9999 FEW015 SCT025 27/21 Q1010 NOSIG,0,10,0,10000,0,0,0,
2026-04-09 15:00:00,METAR VHHH 091500Z 18010KT 160V220 9999 FEW012 SCT025 27/21 Q1010 NOSIG,0,10,0,10000,0,0,0,
2026-04-09 14:30:00,METAR VHHH 091430Z 19011KT 9999 FEW012 SCT025 27/21 Q1011 NOSIG,0,11,0,10000,0,0,0,
2026-04-09 14:00:00,METAR VHHH 091400Z 19010KT 9999 FEW012 SCT025 27/21 Q1011 NOSIG,0,10,0,10000,0,0,0,
2026-04-09 13:30:00,METAR VHHH 091330Z 18009KT 150V230 9999 FEW010 SCT025 27/22 Q1010 NOSIG,0,9,0,10000,0,0,0,
2026-04-09 13:00:00,METAR VHHH 091300Z 18010KT 130V230 9999 FEW010 SCT025 27/21 Q1010 NOSIG,0,10,0,10000,0,0,0,
2026-04-09 12:30:00,METAR VHHH 091230Z 19010KT 9999 FEW010 SCT022 27/22 Q1010 NOSIG,0,10,0,10000,0,0,0,
2026-04-09 12:00:00,METAR VHHH 091200Z 20011KT 170V230 9999 FEW010 SCT022 27/23 Q1009 NOSIG,0,11,0,10000,0,0,0,
2026-04-09 11:30:00,METAR VHHH 091130Z 19009KT 150V210 9999 FEW010 SCT025 27/21 Q1009 NOSIG,0,9,0,10000,0,0,0,
2026-04-09 11:00:00,METAR VHHH 091100Z 19008KT 160V230 9999 FEW010 SCT020 27/21 Q1009 NOSIG,0,8,0,10000,0,0,0,
2026-04-09 10:30:00,METAR VHHH 091030Z 19011KT 9999 FEW008 SCT020 27/21 Q1009 NOSIG,0,11,0,10000,0,0,0,
2026-04-09 10:00:00,METAR VHHH 091000Z 17012KT 140V200 9999 FEW008 SCT020 27/22 Q1009 NOSIG,0,12,0,10000,0,0,0,
2026-04-09 09:30:00,METAR VHHH 090930Z 18011KT 9999 FEW010 SCT020 27/22 Q1009 NOSIG,0,11,0,10000,0,0,0,
2026-04-09 09:00:00,METAR VHHH 090900Z 19012KT 9999 FEW010 SCT020 27/22 Q1009 NOSIG,0,12,0,10000,0,0,0,
2026-04-09 08:30:00,METAR VHHH 090830Z 19010KT 9999 FEW010 SCT020 27/22 Q1009 NOSIG,0,10,0,10000,0,0,0,
2026-04-09 08:00:00,METAR VHHH 090800Z 16010KT 120V210 9999 FEW010 SCT020 27/23 Q1009 NOSIG,0,10,0,10000,0,0,0,
2026-04-09 07:30:00,METAR VHHH 090730Z 16012KT 130V200 9999 FEW010 SCT022 27/22 Q1009 NOSIG,0,12,0,10000,0,0,0,
2026-04-09 07:00:00,METAR VHHH 090700Z 16010KT 120V200 9999 FEW010 SCT022 28/22 Q1009 NOSIG,0,10,0,10000,0,0,0,
2026-04-09 06:30:00,METAR VHHH 090630Z 15010KT 130V190 9999 FEW010 SCT022 28/22 Q1010 NOSIG,0,10,0,10000,0,0,0,
2026-04-09 06:00:00,METAR VHHH 090600Z 16010KT 120V190 9999 FEW010 SCT022 28/22 Q1010 NOSIG,0,10,0,10000,0,0,0,
2026-04-09 05:30:00,METAR VHHH 090530Z 16010KT 130V190 9999 FEW010 SCT022 28/22 Q1011 NOSIG,0,10,0,10000,0,0,0,
2026-04-09 05:00:00,METAR VHHH 090500Z 15011KT 120V180 9999 FEW010 SCT025 27/22 Q1011 NOSIG,0,11,0,10000,0,0,0,
2026-04-09 04:30:00,METAR VHHH 090430Z 16014KT 120V180 9999 FEW010 SCT025 28/22 Q1012 NOSIG,0,14,0,10000,0,0,0,
2026-04-09 04:00:00,METAR VHHH 090400Z 16013KT 140V200 9999 FEW010 SCT025 28/22 Q1012 WS R07R NOSIG,0,13,0,10000,0,0,0,
2026-04-09 03:30:00,METAR VHHH 090330Z 17013KT 9999 FEW010 SCT025 28/22 Q1012 NOSIG,0,13,0,10000,0,0,0,
2026-04-09 03:00:00,METAR VHHH 090300Z 16013KT 9999 FEW010 SCT025 28/21 Q1012 NOSIG,0,13,0,10000,0,0,0,
2026-04-09 02:30:00,METAR VHHH 090230Z 13013KT 110V170 9999 FEW010 SCT025 28/21 Q1013 NOSIG,0,13,0,10000,0,0,0,
2026-04-09 02:00:00,METAR VHHH 090200Z 13011KT 9999 FEW010 SCT025 28/21 Q1013 NOSIG,0,11,0,10000,0,0,0,
2026-04-09 01:30:00,METAR VHHH 090130Z 14008KT 090V170 9999 FEW008 SCT045 28/21 Q1013 NOSIG,0,8,0,10000,0,0,0,
2026-04-09 01:00:00,METAR VHHH 090100Z 13007KT 080V220 9999 FEW008 SCT045 28/21 Q1012 NOSIG,0,7,0,10000,0,0,0,
2026-04-09 00:30:00,METAR VHHH 090030Z 10010KT 9999 FEW008 SCT045 27/21 Q1012 NOSIG,0,10,0,10000,0,0,0,
2026-04-09 00:00:00,METAR VHHH 090000Z 11010KT 9999 FEW008 SCT045 26/21 Q1011 NOSIG,0,10,0,10000,0,0,0,
2026-04-08 23:30:00,METAR VHHH 082330Z 10011KT 9999 FEW008 SCT045 26/21 Q1011 NOSIG,0,11,0,10000,0,0,0,
2026-04-08 23:00:00,METAR VHHH 082300Z 09012KT 9999 FEW008 SCT045 26/21 Q1011 NOSIG,0,12,0,10000,0,0,0,
2026-04-08 22:30:00,METAR VHHH 082230Z 11010KT 9999 FEW010 26/21 Q1011 NOSIG,0,10,0,10000,0,0,0,
2026-04-08 22:00:00,METAR VHHH 082200Z 11011KT 9999 FEW010 26/21 Q1011 NOSIG,0,11,0,10000,0,0,0,
2026-04-08 21:30:00,METAR VHHH 082130Z 13006KT 9999 FEW010 SCT030 26/21 Q1011 NOSIG,0,6,0,10000,0,0,0,
2026-04-08 21:00:00,METAR VHHH 082100Z 11008KT 9999 FEW010 SCT030 26/21 Q1011 NOSIG,0,8,0,10000,0,0,0,
2026-04-08 20:30:00,METAR VHHH 082030Z 11008KT 9999 FEW010 SCT030 25/22 Q1011 NOSIG,0,8,0,10000,0,0,0,
2026-04-08 20:00:00,METAR VHHH 082000Z 11010KT 9999 FEW010 SCT025 25/22 Q1010 NOSIG,0,10,0,10000,0,0,0,
2026-04-08 19:30:00,METAR VHHH 081930Z 11010KT 9999 FEW010 SCT025 25/22 Q1010 NOSIG,0,10,0,10000,0,0,0,
2026-04-08 19:00:00,METAR VHHH 081900Z 10008KT 9999 FEW010 SCT025 25/22 Q1011 NOSIG,0,8,0,10000,0,0,0,
2026-04-08 18:30:00,METAR VHHH 081830Z 09008KT 9999 FEW010 SCT025 24/22 Q1011 NOSIG,0,8,0,10000,0,0,0,
2026-04-08 18:00:00,METAR VHHH 081800Z 09009KT 9999 FEW010 SCT025 25/22 Q1011 NOSIG,0,9,0,10000,0,0,0,
2026-04-08 17:30:00,METAR VHHH 081730Z 10011KT 9999 FEW010 SCT025 25/22 Q1011 NOSIG,0,11,0,10000,0,0,0,
2026-04-08 17:00:00,METAR VHHH 081700Z 10011KT 9999 FEW010 SCT025 25/22 Q1011 NOSIG,0,11,0,10000,0,0,0,
2026-04-08 16:30:00,METAR VHHH 081630Z 10011KT 9999 FEW010 SCT025 25/22 Q1012 NOSIG,0,11,0,10000,0,0,0,
2026-04-08 16:00:00,METAR VHHH 081600Z 09010KT 9999 FEW010 SCT025 25/22 Q1012 NOSIG,0,10,0,10000,0,0,0,
2026-04-08 15:30:00,METAR VHHH 081530Z 10012KT 9999 FEW010 SCT025 25/22 Q1012 NOSIG,0,12,0,10000,0,0,0,
2026-04-08 15:00:00,METAR VHHH 081500Z 10012KT 9999 FEW010 SCT025 25/22 Q1012 NOSIG,0,12,0,10000,0,0,0,
2026-04-08 14:30:00,METAR VHHH 081430Z 11012KT 9999 FEW010 SCT025 25/22 Q1013 NOSIG,0,12,0,10000,0,0,0,
2026-04-08 14:00:00,METAR VHHH 081400Z 11012KT 9999 FEW010 SCT025 25/22 Q1013 NOSIG,0,12,0,10000,0,0,0,
2026-04-08 13:30:00,METAR VHHH 081330Z 10014KT 9999 FEW010 SCT025 25/21 Q1012 NOSIG,0,14,0,10000,0,0,0,
2026-04-08 13:00:00,METAR VHHH 081300Z 10015KT 9999 FEW007 SCT015 24/21 Q1012 NOSIG,0,15,0,10000,0,0,0,
2026-04-08 12:30:00,METAR VHHH 081230Z 10015KT 9999 FEW007 SCT015 24/21 Q1012 NOSIG,0,15,0,10000,0,0,0,
2026-04-08 12:00:00,METAR VHHH 081200Z 10016KT 9999 FEW007 SCT015 24/21 Q1012 NOSIG,0,16,0,10000,0,0,0,
2026-04-08 11:30:00,METAR VHHH 081130Z 10015KT 9999 FEW007 SCT015 24/21 Q1011 NOSIG,0,15,0,10000,0,0,0,
2026-04-08 11:00:00,METAR VHHH 081100Z 10015KT 9999 FEW007 SCT015 24/21 Q1011 NOSIG,0,15,0,10000,0,0,0,
2026-04-08 10:30:00,METAR VHHH 081030Z 10013KT 9999 FEW007 SCT015 24/21 Q1011 NOSIG,0,13,0,10000,0,0,0,
2026-04-08 10:00:00,METAR VHHH 081000Z 10014KT 9999 FEW007 SCT015 24/21 Q1011 NOSIG,0,14,0,10000,0,0,0,
2026-04-08 09:30:00,METAR VHHH 080930Z 10015KT 9999 FEW007 SCT015 24/21 Q1010 NOSIG,0,15,0,10000,0,0,0,
2026-04-08 09:00:00,METAR VHHH 080900Z 10017KT 9999 FEW007 SCT015 24/21 Q1010 NOSIG,0,17,0,10000,0,0,0,
2026-04-08 08:30:00,METAR VHHH 080830Z 10017KT 9999 FEW007 SCT015 24/21 Q1010 NOSIG,0,17,0,10000,0,0,0,
2026-04-08 08:00:00,METAR VHHH 080800Z 10017KT 9999 FEW007 SCT015 25/21 Q1010 WS R07R NOSIG,0,17,0,10000,0,0,0,
2026-04-08 07:30:00,METAR VHHH 080730Z 10016KT 9999 FEW007 SCT015 25/21 Q1010 NOSIG,0,16,0,10000,0,0,0,
2026-04-08 07:00:00,METAR VHHH 080700Z 10017KT 9999 FEW007 SCT015 25/21 Q1011 NOSIG,0,17,0,10000,0,0,0,
2026-04-08 06:30:00,METAR VHHH 080630Z 10014KT 9999 FEW007 SCT015 25/21 Q1011 NOSIG,0,14,0,10000,0,0,0,
2026-04-08 06:00:00,METAR VHHH 080600Z 09014KT 9999 FEW007 SCT015 25/21 Q1011 NOSIG,0,14,0,10000,0,0,0,
2026-04-08 05:30:00,METAR VHHH 080530Z 11014KT 9999 -RA FEW007 SCT015 24/21 Q1012 NOSIG,0,14,0,10000,0,0,0,-RA
2026-04-08 05:00:00,METAR VHHH 080500Z 10014KT 9999 FEW007 SCT015 24/21 Q1012 NOSIG,0,14,0,10000,0,0,0,
2026-04-08 04:30:00,METAR VHHH 080430Z 10016KT 9999 FEW008 SCT015 24/20 Q1013 NOSIG,0,16,0,10000,0,0,0,
2026-04-08 04:00:00,METAR VHHH 080400Z 10017KT 9999 FEW007 SCT015 23/20 Q1014 NOSIG,0,17,0,10000,0,0,0,
2026-04-08 03:30:00,METAR VHHH 080330Z 10014KT 9999 FEW007 SCT015 24/20 Q1014 NOSIG,0,14,0,10000,0,0,0,
2026-04-08 03:00:00,METAR VHHH 080300Z 10013KT 9999 FEW007 SCT015 23/20 Q1014 NOSIG,0,13,0,10000,0,0,0,
2026-04-08 02:30:00,METAR VHHH 080230Z 10014KT 9999 FEW007 SCT012 23/20 Q1014 NOSIG,0,14,0,10000,0,0,0,
2026-04-08 02:00:00,METAR VHHH 080200Z 10013KT 9999 FEW007 SCT012 23/20 Q1014 NOSIG,0,13,0,10000,0,0,0,
2026-04-08 01:30:00,METAR VHHH 080130Z 09013KT 9999 -RA FEW007 SCT012 23/21 Q1014 NOSIG,0,13,0,10000,0,0,0,-RA
2026-04-08 01:00:00,METAR VHHH 080100Z 09013KT 9999 FEW007 SCT012 23/20 Q1014 NOSIG,0,13,0,10000,0,0,0,
2026-04-08 00:30:00,METAR VHHH 080030Z 10014KT 9999 -RA FEW007 SCT012 23/21 Q1013 NOSIG,0,14,0,10000,0,0,0,-RA
2026-04-08 00:00:00,METAR VHHH 080000Z 10016KT 9999 -RA FEW007 SCT012 23/21 Q1013 NOSIG,0,16,0,10000,0,0,0,-RA
2026-04-07 23:30:00,METAR VHHH 072330Z 09014KT 9999 -RA FEW007 SCT012 23/21 Q1012 NOSIG,0,14,0,10000,0,0,0,-RA
2026-04-07 23:00:00,METAR VHHH 072300Z 10014KT 9999 -RA FEW007 SCT012 23/21 Q1012 NOSIG,0,14,0,10000,0,0,0,-RA
2026-04-07 22:30:00,METAR VHHH 072230Z 09016KT 9999 -RA FEW007 SCT012 23/21 Q1011 NOSIG,0,16,0,10000,0,0,0,-RA
2026-04-07 22:00:00,METAR VHHH 072200Z 10014KT 9999 FEW008 SCT020 24/21 Q1011 NOSIG,0,14,0,10000,0,0,0,
2026-04-07 21:30:00,METAR VHHH 072130Z 10014KT 9999 -RA FEW006 SCT020 23/21 Q1011 NOSIG,0,14,0,10000,0,0,0,-RA
2026-04-07 21:00:00,METAR VHHH 072100Z 09015KT 9999 FEW008 SCT020 24/21 Q1010 NOSIG,0,15,0,10000,0,0,0,
2026-04-07 20:30:00,METAR VHHH 072030Z 10016KT 9999 FEW008 SCT020 24/22 Q1010 NOSIG,0,16,0,10000,0,0,0,
2026-04-07 20:00:00,METAR VHHH 072000Z 10015KT 9999 FEW008 SCT020 25/22 Q1010 NOSIG,0,15,0,10000,0,0,0,
2026-04-07 19:30:00,METAR VHHH 071930Z 10015KT 9999 FEW008 SCT020 26/23 Q1010 NOSIG,0,15,0,10000,0,0,0,
2026-04-07 19:00:00,METAR VHHH 071900Z 12014KT 9999 FEW008 SCT030 27/24 Q1010 NOSIG,0,14,0,10000,0,0,0,
2026-04-07 18:30:00,METAR VHHH 071830Z 12015KT 9999 FEW008 SCT025 26/24 Q1010 NOSIG,0,15,0,10000,0,0,0,
2026-04-07 18:00:00,METAR VHHH 071800Z 12011KT 9999 -RA FEW008 SCT025 27/24 Q1010 NOSIG,0,11,0,10000,0,0,0,-RA
2026-04-07 17:30:00,METAR VHHH 071730Z 12010KT 9999 FEW008 SCT028 27/24 Q1010 NOSIG,0,10,0,10000,0,0,0,
2026-04-07 17:00:00,METAR VHHH 071700Z 12011KT 9999 FEW008 SCT025 27/24 Q1011 NOSIG,0,11,0,10000,0,0,0,
2026-04-07 16:30:00,METAR VHHH 071630Z 12007KT 9999 -RA FEW008 SCT025 27/24 Q1011 NOSIG,0,7,0,10000,0,0,0,-RA
2026-04-07 16:00:00,METAR VHHH 071600Z 13007KT 9999 -RA FEW008 SCT025 27/24 Q1011 NOSIG,0,7,0,10000,0,0,0,-RA
2026-04-07 15:30:00,METAR VHHH 071530Z 16009KT 9999 -RA FEW008 SCT025 27/24 Q1011 NOSIG,0,9,0,10000,0,0,0,-RA
2026-04-07 15:00:00,METAR VHHH 071500Z 16009KT 9999 -RA FEW008 SCT022 27/24 Q1011 NOSIG,0,9,0,10000,0,0,0,-RA
2026-04-07 14:30:00,METAR VHHH 071430Z 16007KT 130V190 9999 -RA FEW008 SCT022 27/24 Q1011 NOSIG,0,7,0,10000,0,0,0,-RA
2026-04-07 14:00:00,METAR VHHH 071400Z 16007KT 110V200 9999 FEW008 SCT022 27/24 Q1010 NOSIG,0,7,0,10000,0,0,0,
2026-04-07 13:30:00,METAR VHHH 071330Z 15006KT 090V180 9999 FEW008 SCT022 27/24 Q1010 NOSIG,0,6,0,10000,0,0,0,
2026-04-07 13:00:00,METAR VHHH 071300Z 17005KT 100V260 9999 FEW008 SCT022 27/24 Q1010 NOSIG,0,5,0,10000,0,0,0,
2026-04-07 12:30:00,METAR VHHH 071230Z 15007KT 100V240 9999 FEW008 SCT028 27/24 Q1009 NOSIG,0,7,0,10000,0,0,0,
2026-04-07 12:00:00,METAR VHHH 071200Z 15007KT 9999 FEW008 SCT028 27/24 Q1009 NOSIG,0,7,0,10000,0,0,0,
2026-04-07 11:30:00,METAR VHHH 071130Z 16008KT 110V220 9999 FEW008 SCT028 27/24 Q1009 NOSIG,0,8,0,10000,0,0,0,
2026-04-07 11:00:00,METAR VHHH 071100Z 15006KT 110V250 9999 FEW008 SCT025 27/24 Q1009 NOSIG,0,6,0,10000,0,0,0,
2026-04-07 10:30:00,METAR VHHH 071030Z 15007KT 110V190 9999 FEW008 SCT025 28/24 Q1008 NOSIG,0,7,0,10000,0,0,0,
2026-04-07 10:00:00,METAR VHHH 071000Z 17008KT 140V230 9999 FEW008 SCT025 28/23 Q1008 NOSIG,0,8,0,10000,0,0,0,
2026-04-07 09:30:00,METAR VHHH 070930Z 19008KT 140V230 9999 FEW008 SCT028 28/23 Q1008 NOSIG,0,8,0,10000,0,0,0,
2026-04-07 09:00:00,METAR VHHH 070900Z 18008KT 130V230 9999 FEW008 SCT028 28/23 Q1007 NOSIG,0,8,0,10000,0,0,0,
2026-04-07 08:30:00,METAR VHHH 070830Z 18007KT 130V230 9999 FEW008 SCT028 28/23 Q1007 NOSIG,0,7,0,10000,0,0,0,
2026-04-07 08:00:00,METAR VHHH 070800Z 19007KT 130V230 9999 FEW008 SCT025 28/24 Q1007 NOSIG,0,7,0,10000,0,0,0,
2026-04-07 07:30:00,METAR VHHH 070730Z 19007KT 130V250 9999 FEW008 SCT025 28/23 Q1008 NOSIG,0,7,0,10000,0,0,0,
2026-04-07 07:00:00,METAR VHHH 070700Z 20009KT 170V240 9999 FEW008 SCT025 28/23 Q1008 NOSIG,0,9,0,10000,0,0,0,
2026-04-07 06:30:00,METAR VHHH 070630Z 20008KT 170V240 9999 FEW008 SCT025 29/23 Q1008 NOSIG,0,8,0,10000,0,0,0,
2026-04-07 06:00:00,METAR VHHH 070600Z 20010KT 180V240 9999 FEW008 SCT025 29/23 Q1008 NOSIG,0,10,0,10000,0,0,0,
2026-04-07 05:30:00,METAR VHHH 070530Z 20010KT 9999 FEW008 SCT025 29/23 Q1009 NOSIG,0,10,0,10000,0,0,0,
2026-04-07 05:00:00,METAR VHHH 070500Z 20012KT 170V230 9999 FEW010 SCT025 29/23 Q1009 NOSIG,0,12,0,10000,0,0,0,
2026-04-07 04:30:00,METAR VHHH 070430Z 21010KT 180V240 9999 FEW010 SCT025 29/23 Q1009 NOSIG,0,10,0,10000,0,0,0,
2026-04-07 04:00:00,METAR VHHH 070400Z 19008KT 9999 FEW010 SCT025 29/23 Q1010 NOSIG,0,8,0,10000,0,0,0,
2026-04-07 03:30:00,METAR VHHH 070330Z 20008KT 9999 FEW010 SCT025 29/23 Q1010 NOSIG,0,8,0,10000,0,0,0,
2026-04-07 03:00:00,METAR VHHH 070300Z 20008KT 170V230 9999 FEW008 SCT025 28/23 Q1010 NOSIG,0,8,0,10000,0,0,0,
2026-04-07 02:30:00,METAR VHHH 070230Z 19007KT 9999 FEW008 SCT022 28/23 Q1010 NOSIG,0,7,0,10000,0,0,0,
2026-04-07 02:00:00,METAR VHHH 070200Z 20008KT 9999 FEW008 SCT022 28/23 Q1010 NOSIG,0,8,0,10000,0,0,0,
2026-04-07 01:30:00,METAR VHHH 070130Z 19008KT 170V230 9999 FEW008 SCT022 28/23 Q1010 NOSIG,0,8,0,10000,0,0,0,
2026-04-07 01:00:00,METAR VHHH 070100Z 20007KT 180V240 9999 FEW008 SCT022 28/23 Q1010 NOSIG,0,7,0,10000,0,0,0,
2026-04-07 00:30:00,METAR VHHH 070030Z 19006KT 140V240 9999 FEW008 SCT022 28/24 Q1009 NOSIG,0,6,0,10000,0,0,0,
2026-04-07 00:00:00,METAR VHHH 070000Z 19006KT 150V240 9999 FEW008 SCT020 27/24 Q1009 NOSIG,0,6,0,10000,0,0,0,
2026-04-06 23:30:00,METAR VHHH 062330Z 20006KT 160V230 9999 FEW008 SCT020 27/24 Q1009 NOSIG,0,6,0,10000,0,0,0,
2026-04-06 23:00:00,METAR VHHH 062300Z 20005KT 9999 FEW008 SCT020 27/24 Q1008 NOSIG,0,5,0,10000,0,0,0,
2026-04-06 22:30:00,METAR VHHH 062230Z 21007KT 9999 FEW008 SCT020 27/24 Q1008 NOSIG,0,7,0,10000,0,0,0,
2026-04-06 22:00:00,METAR VHHH 062200Z 19008KT 9999 FEW008 SCT020 27/24 Q1008 NOSIG,0,8,0,10000,0,0,0,
2026-04-06 21:30:00,METAR VHHH 062130Z 19008KT 9999 FEW008 SCT035 27/24 Q1007 NOSIG,0,8,0,10000,0,0,0,
2026-04-06 21:00:00,METAR VHHH 062100Z 19006KT 9999 FEW008 SCT035 27/24 Q1007 NOSIG,0,6,0,10000,0,0,0,
2026-04-06 20:30:00,METAR VHHH 062030Z 20008KT 9999 FEW008 SCT040 27/24 Q1007 NOSIG,0,8,0,10000,0,0,0,
2026-04-06 20:00:00,METAR VHHH 062000Z 20008KT 9999 FEW008 SCT040 27/24 Q1007 NOSIG,0,8,0,10000,0,0,0,
2026-04-06 19:30:00,METAR VHHH 061930Z 21011KT 9999 FEW008 SCT040 27/24 Q1007 NOSIG,0,11,0,10000,0,0,0,
2026-04-06 19:00:00,METAR VHHH 061900Z 22011KT 9999 FEW008 SCT040 27/24 Q1007 NOSIG,0,11,0,10000,0,0,0,
2026-04-06 18:30:00,METAR VHHH 061830Z 21012KT 9999 -RA FEW008 SCT035 27/24 Q1007 NOSIG,0,12,0,10000,0,0,0,-RA
2026-04-06 18:00:00,METAR VHHH 061800Z 22012KT 9999 -RA FEW008 SCT035 27/24 Q1007 NOSIG,0,12,0,10000,0,0,0,-RA
2026-04-06 17:30:00,METAR VHHH 061730Z 21010KT 9999 FEW008 SCT020 27/24 Q1007 NOSIG,0,10,0,10000,0,0,0,
2026-04-06 17:00:00,METAR VHHH 061700Z 21009KT 9999 FEW008 SCT018 27/24 Q1008 NOSIG,0,9,0,10000,0,0,0,
2026-04-06 16:30:00,METAR VHHH 061630Z 20011KT 9999 FEW008 SCT018 27/24 Q1008 NOSIG,0,11,0,10000,0,0,0,
2026-04-06 16:00:00,METAR VHHH 061600Z 20011KT 9999 FEW008 SCT018 27/24 Q1008 NOSIG,0,11,0,10000,0,0,0,
2026-04-06 15:30:00,METAR VHHH 061530Z 20011KT 9999 -SHRA FEW008 SCT018 27/24 Q1008 NOSIG,0,11,0,10000,0,0,0,RA
2026-04-06 15:00:00,METAR VHHH 061500Z 20011KT 9999 FEW008 SCT018 27/24 Q1008 NOSIG,0,11,0,10000,0,0,0,
2026-04-06 14:30:00,METAR VHHH 061430Z 19011KT 170V240 9999 -SHRA FEW008 SCT018 27/24 Q1008 NOSIG,0,11,0,10000,0,0,0,RA
2026-04-06 14:00:00,METAR VHHH 061400Z 19012KT 9999 -SHRA FEW008 SCT020 27/24 Q1008 NOSIG,0,12,0,10000,0,0,0,RA
2026-04-06 13:30:00,METAR VHHH 061330Z 19011KT 130V220 9999 FEW008 SCT020 27/24 Q1007 WS R25L NOSIG,0,11,0,10000,0,0,0,
2026-04-06 13:00:00,METAR VHHH 061300Z 19011KT 170V240 9999 FEW008 SCT020 28/24 Q1007 NOSIG,0,11,0,10000,0,0,0,
2026-04-06 12:30:00,METAR VHHH 061230Z 19012KT 150V220 9999 FEW008 SCT020 27/24 Q1007 NOSIG,0,12,0,10000,0,0,0,
2026-04-06 12:00:00,METAR VHHH 061200Z 19012KT 150V220 9999 FEW008 SCT020 28/23 Q1006 NOSIG,0,12,0,10000,0,0,0,
2026-04-06 11:30:00,METAR VHHH 061130Z 19012KT 9999 -SHRA FEW008 SCT022 27/23 Q1006 NOSIG,0,12,0,10000,0,0,0,RA
2026-04-06 11:00:00,METAR VHHH 061100Z 19013G24KT 9999 FEW008 SCT022 28/23 Q1006 NOSIG,0,13,1,10000,0,0,0,
2026-04-06 10:30:00,METAR VHHH 061030Z 19012KT 150V220 9999 FEW008 SCT022 28/23 Q1006 NOSIG,0,12,0,10000,0,0,0,
2026-04-06 10:00:00,METAR VHHH 061000Z 19013KT 160V220 9999 FEW008 SCT022 28/23 Q1006 WS R25R NOSIG,0,13,0,10000,0,0,0,
2026-04-06 09:30:00,METAR VHHH 060930Z 20014KT 170V230 9999 FEW008 SCT022 28/23 Q1005 NOSIG,0,14,0,10000,0,0,0,
2026-04-06 09:00:00,METAR VHHH 060900Z 20014KT 9999 FEW008 SCT022 28/23 Q1005 NOSIG,0,14,0,10000,0,0,0,
2026-04-06 08:30:00,METAR VHHH 060830Z 20016KT 9999 FEW008 SCT022 28/23 Q1005 NOSIG,0,16,0,10000,0,0,0,
2026-04-06 08:00:00,METAR VHHH 060800Z 20013KT 9999 FEW008 SCT022 29/23 Q1006 NOSIG,0,13,0,10000,0,0,0,
2026-04-06 07:30:00,METAR VHHH 060730Z 20012KT 170V240 9999 FEW008 SCT022 29/23 Q1006 NOSIG,0,12,0,10000,0,0,0,
2026-04-06 07:00:00,METAR VHHH 060700Z 21014KT 180V240 9999 FEW008 SCT022 29/23 Q1006 NOSIG,0,14,0,10000,0,0,0,
2026-04-06 06:30:00,METAR VHHH 060630Z 20015KT 9999 FEW010 SCT022 28/23 Q1006 WS R25L NOSIG,0,15,0,10000,0,0,0,
2026-04-06 06:00:00,METAR VHHH 060600Z 20014KT 9999 FEW010 SCT022 29/23 Q1006 NOSIG,0,14,0,10000,0,0,0,
2026-04-06 05:30:00,METAR VHHH 060530Z 21014KT 180V240 9999 FEW008 SCT022 29/23 Q1007 NOSIG,0,14,0,10000,0,0,0,
2026-04-06 05:00:00,METAR VHHH 060500Z 21015KT 170V230 9999 FEW008 SCT025 29/23 Q1007 NOSIG,0,15,0,10000,0,0,0,
2026-04-06 04:30:00,METAR VHHH 060430Z 20015KT 9999 FEW008 SCT025 28/23 Q1007 NOSIG,0,15,0,10000,0,0,0,
2026-04-06 04:00:00,METAR VHHH 060400Z 19016KT 9999 FEW008 SCT025 28/23 Q1008 NOSIG,0,16,0,10000,0,0,0,
2026-04-06 03:30:00,METAR VHHH 060330Z 19014KT 9999 FEW008 SCT025 28/23 Q1008 NOSIG,0,14,0,10000,0,0,0,
2026-04-06 03:00:00,METAR VHHH 060300Z 19014KT 9999 FEW008 SCT022 28/23 Q1008 NOSIG,0,14,0,10000,0,0,0,
2026-04-06 02:30:00,METAR VHHH 060230Z 19013KT 9999 -SHRA FEW008 SCT022 27/23 Q1009 NOSIG,0,13,0,10000,0,0,0,RA
2026-04-06 02:00:00,METAR VHHH 060200Z 20012KT 9999 -SHRA FEW008 SCT022 27/24 Q1009 NOSIG,0,12,0,10000,0,0,0,RA
2026-04-06 01:30:00,METAR VHHH 060130Z 19010KT 160V220 9999 -SHRA FEW008 SCT022 27/24 Q1009 NOSIG,0,10,0,10000,0,0,0,RA
2026-04-06 01:00:00,METAR VHHH 060100Z 18010KT 140V210 9999 -SHRA FEW008 SCT022 26/24 Q1008 NOSIG,0,10,0,10000,0,0,0,RA
2026-04-06 00:30:00,METAR VHHH 060030Z 18007KT 140V220 9999 -SHRA FEW006 SCT020 26/24 Q1008 NOSIG,0,7,0,10000,0,0,0,RA
2026-04-06 00:00:00,METAR VHHH 060000Z 18009KT 150V220 9999 -SHRA FEW006 SCT020 26/24 Q1008 NOSIG,0,9,0,10000,0,0,0,RA
2026-04-05 23:30:00,METAR VHHH 052330Z 18009KT 140V220 9999 -SHRA FEW008 SCT022 26/24 Q1008 NOSIG,0,9,0,10000,0,0,0,RA
2026-04-05 23:00:00,METAR VHHH 052300Z 19009KT 150V220 9999 FEW008 SCT028 27/23 Q1007 NOSIG,0,9,0,10000,0,0,0,
2026-04-05 22:30:00,METAR VHHH 052230Z 18009KT 160V230 9999 FEW008 SCT030 27/22 Q1007 NOSIG,0,9,0,10000,0,0,0,
2026-04-05 22:00:00,METAR VHHH 052200Z 19009KT 160V230 9999 FEW010 SCT030 27/22 Q1007 NOSIG,0,9,0,10000,0,0,0,
2026-04-05 21:30:00,METAR VHHH 052130Z 20009KT 9999 FEW010 SCT030 26/23 Q1007 NOSIG,0,9,0,10000,0,0,0,
2026-04-05 21:00:00,METAR VHHH 052100Z 19008KT 9999 FEW010 SCT030 27/23 Q1006 NOSIG,0,8,0,10000,0,0,0,
2026-04-05 20:30:00,METAR VHHH 052030Z 19008KT 9999 FEW010 SCT030 27/22 Q1006 NOSIG,0,8,0,10000,0,0,0,
2026-04-05 20:00:00,METAR VHHH 052000Z 20009KT 9999 FEW010 SCT025 27/22 Q1006 NOSIG,0,9,0,10000,0,0,0,
2026-04-05 19:30:00,METAR VHHH 051930Z 20009KT 170V230 9999 FEW010 SCT025 27/22 Q1006 NOSIG,0,9,0,10000,0,0,0,
2026-04-05 19:00:00,METAR VHHH 051900Z 21009KT 180V240 9999 FEW010 SCT025 27/23 Q1007 NOSIG,0,9,0,10000,0,0,0,
2026-04-05 18:30:00,METAR VHHH 051830Z 21010KT 9999 FEW010 SCT025 27/23 Q1007 NOSIG,0,10,0,10000,0,0,0,
2026-04-05 18:00:00,METAR VHHH 051800Z 20011KT 9999 FEW010 SCT025 27/22 Q1007 NOSIG,0,11,0,10000,0,0,0,
2026-04-05 17:30:00,METAR VHHH 051730Z 19011KT 9999 FEW010 SCT025 27/22 Q1007 NOSIG,0,11,0,10000,0,0,0,
2026-04-05 17:00:00,METAR VHHH 051700Z 20010KT 9999 FEW010 SCT025 27/22 Q1008 NOSIG,0,10,0,10000,0,0,0,
2026-04-05 16:30:00,METAR VHHH 051630Z 19010KT 9999 FEW010 SCT025 27/23 Q1008 NOSIG,0,10,0,10000,0,0,0,
2026-04-05 16:00:00,METAR VHHH 051600Z 19009KT 9999 FEW010 SCT025 27/22 Q1008 WS R25L NOSIG,0,9,0,10000,0,0,0,
2026-04-05 15:00:00,METAR VHHH 051500Z 18010KT 140V220 9999 FEW010 SCT025 27/23 Q1008 NOSIG,0,10,0,10000,0,0,0,
2026-04-05 13:00:00,METAR VHHH 051300Z 15010KT 9999 FEW008 SCT030 26/23 Q1007 NOSIG,0,10,0,10000,0,0,0,
2026-04-05 12:30:00,METAR VHHH 051230Z 13006KT 9999 FEW008 SCT035 26/23 Q1007 NOSIG,0,6,0,10000,0,0,0,
2026-04-05 12:00:00,METAR VHHH 051200Z 13011KT 9999 FEW006 SCT040 25/23 Q1006 NOSIG,0,11,0,10000,0,0,0,
2026-04-05 11:30:00,METAR VHHH 051130Z 13010KT 9999 FEW006 SCT040 25/23 Q1006 NOSIG,0,10,0,10000,0,0,0,
2026-04-05 11:00:00,METAR VHHH 051100Z 15010KT 9999 FEW006 SCT040 25/23 Q1006 NOSIG,0,10,0,10000,0,0,0,
2026-04-05 10:30:00,METAR VHHH 051030Z 10009KT 9999 FEW006 SCT040 26/22 Q1006 NOSIG,0,9,0,10000,0,0,0,
2026-04-05 10:00:00,METAR VHHH 051000Z 14007KT 020V170 9999 FEW006 SCT022 25/22 Q1005 NOSIG,0,7,0,10000,0,0,0,
2026-04-05 09:30:00,METAR VHHH 050930Z 10007KT 050V140 9999 -SHRA FEW006 SCT022 25/22 Q1006 NOSIG,0,7,0,10000,0,0,0,RA
2026-04-05 09:00:00,METAR VHHH 050900Z 17004KT 120V270 9999 -SHRA FEW008 SCT022 25/22 Q1006 NOSIG,0,4,0,10000,0,0,0,RA
2026-04-05 08:56:00,SPECI VHHH 050856Z 21004KT 120V270 9999 -SHRA FEW008 SCT022 25/22 Q1006 RERA NOSIG,0,4,0,10000,0,0,0,RA
2026-04-05 08:38:00,SPECI VHHH 050838Z 16009KT 110V190 9999 2100S +SHRA FEW008 FEW012CB SCT022 25/22 Q1006 TEMPO 22015G25KT 2500 TSRA SHRA FEW008CB SCT020,0,9,0,10000,1,0,0,"RA,SH,TS"
2026-04-05 08:30:00,METAR VHHH 050830Z 12007KT 080V170 9999 -SHRA FEW008 FEW012CB SCT022 25/21 Q1006 TEMPO 22015G25KT 2500 TSRA SHRA FEW008CB SCT020,0,7,0,10000,1,0,0,"RA,SH,TS"
2026-04-05 08:00:00,METAR VHHH 050800Z 10010KT 9999 VCSH FEW006 FEW012CB SCT022 26/22 Q1005 WS R07R TEMPO 22015G25KT 2500 TSRA SHRA FEW008CB SCT020,0,10,0,10000,1,0,0,"RA,SH,TS,VC"
2026-04-05 07:30:00,METAR VHHH 050730Z 11014KT 9999 FEW006 SCT022 26/22 Q1006 TEMPO 22015G25KT 2500 TSRA SHRA FEW008CB SCT020,0,14,0,10000,1,0,0,"RA,SH,TS"
2026-04-05 07:00:00,METAR VHHH 050700Z 09014KT 9999 -SHRA FEW006 SCT022 25/22 Q1006 TEMPO 3000 TSRA SHRA FEW008CB SCT020,0,14,0,10000,1,0,0,"RA,SH,TS"
2026-04-05 06:30:00,METAR VHHH 050630Z 10013KT 9999 FEW008 SCT022 26/23 Q1005 TEMPO 3000 TSRA SHRA FEW008CB SCT020,0,13,0,10000,1,0,0,"RA,SH,TS"
2026-04-05 06:00:00,METAR VHHH 050600Z 10012KT 9999 FEW008 SCT025 26/22 Q1006 NOSIG,0,12,0,10000,0,0,0,
2026-04-05 05:30:00,METAR VHHH 050530Z 09013KT 9999 FEW008 SCT025 25/22 Q1006 TEMPO 24020G30KT 2500 TSRA SHRA FEW008CB SCT020,0,13,0,10000,1,0,0,"RA,SH,TS"
2026-04-05 05:00:00,METAR VHHH 050500Z 10018KT 9999 FEW008 SCT025 26/22 Q1006 TEMPO 24020G30KT 2500 TSRA SHRA FEW008CB SCT020,0,18,0,10000,1,0,0,"RA,SH,TS"
2026-04-05 04:30:00,METAR VHHH 050430Z 10016KT 9999 FEW008 SCT025 25/23 Q1007 NOSIG,0,16,0,10000,0,0,0,
2026-04-05 04:00:00,METAR VHHH 050400Z 11016KT 9999 FEW008 SCT020 25/23 Q1007 TEMPO 24020G30KT 2000 TSRA +SHRA FEW008CB SCT020,0,16,0,10000,1,0,0,"RA,TS"
2026-04-05 03:30:00,METAR VHHH 050330Z 10013KT 9999 FEW008CB FEW010 SCT020 24/23 Q1008 TEMPO 24020G30KT 2000 TSRA +SHRA FEW008CB SCT020,0,13,0,10000,1,0,0,"RA,TS"
2026-04-05 03:08:00,SPECI VHHH 050308Z 11011KT 9999 -SHRA FEW008CB FEW010 SCT020 24/23 Q1008 RERA TEMPO 24020G30KT 2000 TSRA +SHRA FEW008CB SCT020,0,11,0,10000,1,0,0,"RA,TS"
2026-04-05 03:00:00,METAR VHHH 050300Z 10012KT 8000 +SHRA FEW008CB FEW010 SCT018 24/23 Q1008 TEMPO 24020G30KT 2000 TSRA +SHRA FEW008CB SCT020,0,12,0,8000,1,0,0,"RA,TS"
2026-04-05 02:51:00,SPECI VHHH 050251Z 11012KT 2600 1200E R07C/P2000D R25C/P2000D R07L/P2000N R25R/P2000N +SHRA FEW008CB FEW010 SCT018 24/23 Q1008 TEMPO 24020G30KT 2000 TSRA +SHRA FEW008CB SCT020,0,12,0,2600,1,0,0,"RA,TS"
2026-04-05 02:48:00,SPECI VHHH 050248Z 11013KT 9999 1800N SHRA FEW008CB FEW010 SCT020 24/22 Q1008 TEMPO 24020G30KT 2000 TSRA +SHRA FEW008CB SCT020,0,13,0,10000,1,0,0,"RA,SH,TS"
2026-04-05 02:30:00,METAR VHHH 050230Z 11013KT 9999 VCSH FEW008CB FEW010 SCT020 25/22 Q1008 TEMPO 24020G30KT 2000 TSRA +SHRA FEW008CB SCT020,0,13,0,10000,1,0,0,"RA,SH,TS,VC"
2026-04-05 02:00:00,METAR VHHH 050200Z 11012KT 9999 FEW008CB FEW010 SCT020 25/22 Q1009 TEMPO FM0330 24020G30KT 2000 TSRA +SHRA FEW008CB SCT020,0,12,0,10000,1,0,0,"RA,TS"
2026-04-05 01:30:00,METAR VHHH 050130Z 11012KT 9999 FEW008CB FEW010 SCT020 25/22 Q1008 TEMPO FM0330 24020G30KT 2000 TSRA +SHRA FEW008CB SCT020,0,12,0,10000,1,0,0,"RA,TS"
2026-04-05 01:00:00,METAR VHHH 050100Z 10014KT 9999 FEW008 SCT020 25/22 Q1008 NOSIG,0,14,0,10000,0,0,0,
2026-04-05 00:30:00,METAR VHHH 050030Z 10012KT 9999 FEW008 SCT020 26/22 Q1008 NOSIG,0,12,0,10000,0,0,0,
2026-04-05 00:00:00,METAR VHHH 050000Z 10011KT 9999 FEW008 SCT020 25/22 Q1008 NOSIG,0,11,0,10000,0,0,0,
2026-04-04 23:30:00,METAR VHHH 042330Z 10012KT 9999 FEW008 SCT020 25/22 Q1008 NOSIG,0,12,0,10000,0,0,0,
2026-04-04 23:00:00,METAR VHHH 042300Z 10011KT 9999 FEW008 SCT020 24/22 Q1007 NOSIG,0,11,0,10000,0,0,0,
2026-04-04 22:30:00,METAR VHHH 042230Z 10010KT 9999 FEW009 SCT020 24/22 Q1007 NOSIG,0,10,0,10000,0,0,0,
2026-04-04 22:00:00,METAR VHHH 042200Z 10010KT 9999 FEW009 SCT022 24/22 Q1007 NOSIG,0,10,0,10000,0,0,0,
2026-04-04 21:30:00,METAR VHHH 042130Z 10010KT 9999 FEW009 SCT025 24/22 Q1007 NOSIG,0,10,0,10000,0,0,0,
2026-04-04 21:00:00,METAR VHHH 042100Z 10009KT 9999 FEW009 SCT025 24/22 Q1007 NOSIG,0,9,0,10000,0,0,0,
2026-04-04 20:30:00,METAR VHHH 042030Z 10008KT 9999 FEW009 SCT025 24/22 Q1007 NOSIG,0,8,0,10000,0,0,0,
2026-04-04 20:00:00,METAR VHHH 042000Z 10008KT 9999 FEW009 SCT025 24/22 Q1007 NOSIG,0,8,0,10000,0,0,0,
2026-04-04 19:30:00,METAR VHHH 041930Z 10007KT 9999 FEW009 SCT025 24/22 Q1007 NOSIG,0,7,0,10000,0,0,0,
2026-04-04 19:00:00,METAR VHHH 041900Z 09007KT 9999 FEW009 SCT025 24/22 Q1007 NOSIG,0,7,0,10000,0,0,0,
2026-04-04 18:30:00,METAR VHHH 041830Z 11007KT 9999 FEW009 SCT025 24/22 Q1007 NOSIG,0,7,0,10000,0,0,0,
2026-04-04 18:00:00,METAR VHHH 041800Z 08005KT 9999 FEW009 SCT025 24/22 Q1007 NOSIG,0,5,0,10000,0,0,0,
2026-04-04 17:30:00,METAR VHHH 041730Z 07005KT 9999 FEW009 SCT025 24/22 Q1007 NOSIG,0,5,0,10000,0,0,0,
2026-04-04 17:00:00,METAR VHHH 041700Z 05005KT 9999 FEW010 SCT025 24/22 Q1008 NOSIG,0,5,0,10000,0,0,0,
2026-04-04 16:30:00,METAR VHHH 041630Z 08005KT 9999 FEW010 SCT025 24/22 Q1008 NOSIG,0,5,0,10000,0,0,0,
2026-04-04 16:00:00,METAR VHHH 041600Z 10005KT 9999 FEW010 SCT028 24/22 Q1008 NOSIG,0,5,0,10000,0,0,0,
2026-04-04 15:30:00,METAR VHHH 041530Z 10004KT 9999 FEW008 SCT025 24/22 Q1008 NOSIG,0,4,0,10000,0,0,0,
2026-04-04 15:00:00,METAR VHHH 041500Z 12004KT 090V190 9999 FEW008 SCT025 24/22 Q1008 NOSIG,0,4,0,10000,0,0,0,
2026-04-04 14:30:00,METAR VHHH 041430Z VRB02KT 9999 FEW008 SCT020 24/22 Q1008 NOSIG,0,2,0,10000,0,0,0,
2026-04-04 14:00:00,METAR VHHH 041400Z VRB03KT 9999 FEW005 SCT020 24/22 Q1008 NOSIG,0,3,0,10000,0,0,0,
2026-04-04 13:30:00,METAR VHHH 041330Z VRB02KT 9999 FEW005 SCT020 24/22 Q1008 NOSIG,0,2,0,10000,0,0,0,
2026-04-04 13:00:00,METAR VHHH 041300Z VRB01KT 9999 FEW005 SCT020 24/22 Q1007 NOSIG,0,1,0,10000,0,0,0,
2026-04-04 12:30:00,METAR VHHH 041230Z VRB03KT 9999 FEW006 SCT020 24/22 Q1007 NOSIG,0,3,0,10000,0,0,0,
2026-04-04 12:00:00,METAR VHHH 041200Z 21004KT 170V240 9999 FEW006 SCT020 24/22 Q1007 NOSIG,0,4,0,10000,0,0,0,
2026-04-04 11:30:00,METAR VHHH 041130Z 20005KT 9999 FEW005 SCT020 23/22 Q1006 NOSIG,0,5,0,10000,0,0,0,
2026-04-04 11:00:00,METAR VHHH 041100Z 21004KT 170V240 9999 FEW005 SCT020 23/22 Q1006 NOSIG,0,4,0,10000,0,0,0,
2026-04-04 10:30:00,METAR VHHH 041030Z VRB03KT 9999 FEW005 SCT020 24/22 Q1006 NOSIG,0,3,0,10000,0,0,0,
2026-04-04 10:00:00,METAR VHHH 041000Z 27003KT 9999 FEW005 SCT020 24/22 Q1006 NOSIG,0,3,0,10000,0,0,0,
2026-04-04 09:30:00,METAR VHHH 040930Z 24003KT 190V260 9999 -SHRA FEW005 SCT018 24/22 Q1006 NOSIG,0,3,0,10000,0,0,0,RA
2026-04-04 09:00:00,METAR VHHH 040900Z VRB03KT 9999 -SHRA FEW005 SCT018 23/22 Q1006 NOSIG,0,3,0,10000,0,0,0,RA
2026-04-04 08:30:00,METAR VHHH 040830Z 26004KT 180V280 9999 -SHRA FEW005 SCT018 24/22 Q1006 NOSIG,0,4,0,10000,0,0,0,RA
2026-04-04 08:00:00,METAR VHHH 040800Z 20003KT 160V250 9999 -SHRA FEW005 SCT018 24/22 Q1005 NOSIG,0,3,0,10000,0,0,0,RA
2026-04-04 07:46:00,SPECI VHHH 040746Z 24003KT 190V270 9000 -SHRA FEW005 SCT018 23/22 Q1005 RERA NOSIG,0,3,0,9000,0,0,0,RA
2026-04-04 07:32:00,SPECI VHHH 040732Z 29003KT 250V310 4900 1200E R07R/P2000U R25L/P2000D R07L/P2000N R25R/P2000N +SHRA FEW005 SCT015 24/22 Q1005 TEMPO 4000 SHRA,0,3,0,4900,0,0,0,"RA,SH"
2026-04-04 07:30:00,METAR VHHH 040730Z 29003KT 260V320 8000 0700S R07R/P2000D R25L/P2000N R07L/P2000N R25R/P2000N +SHRA FEW005 SCT015 24/22 Q1005 TEMPO 4000 SHRA,0,3,0,8000,0,0,0,"RA,SH"
2026-04-04 07:00:00,METAR VHHH 040700Z 33006KT 310V010 9999 SHRA FEW005 SCT018 24/22 Q1005 TEMPO 4000 SHRA,0,6,0,10000,0,0,0,"RA,SH"
2026-04-04 06:30:00,METAR VHHH 040630Z 33009KT 9999 -SHRA FEW005 SCT018 24/22 Q1006 NOSIG,0,9,0,10000,0,0,0,RA
2026-04-04 06:00:00,METAR VHHH 040600Z VRB03KT 9999 FEW005 SCT040 24/22 Q1006 NOSIG,0,3,0,10000,0,0,0,
2026-04-04 05:30:00,METAR VHHH 040530Z 31004KT 9999 FEW005 SCT045 24/22 Q1007 NOSIG,0,4,0,10000,0,0,0,
2026-04-04 05:00:00,METAR VHHH 040500Z 33003KT 300V360 9999 -SHRA FEW004 SCT012 23/22 Q1007 RERA NOSIG,0,3,0,10000,0,0,0,RA
2026-04-04 04:30:00,METAR VHHH 040430Z 30006KT 1800 1300W R07R/2000D R25L/P2000N R07L/P2000U R25R/P2000D +SHRA FEW005 SCT015 23/22 Q1008 NOSIG,0,6,0,1800,0,0,0,RA
2026-04-04 04:00:00,METAR VHHH 040400Z 29010KT 4100 SHRA FEW005 FEW015CB SCT018 23/22 Q1008 TEMPO VRB15G30KT 2000 TSRA SHRA FEW008CB SCT020,0,10,0,4100,1,0,0,"RA,SH,TS"
2026-04-04 03:45:00,SPECI VHHH 040345Z 27015KT 4600 VCTS SHRA FEW005 SCT015CB 23/22 Q1008 RETS RERA TEMPO VRB15G30KT 2000 TSRA SHRA FEW008CB SCT020,0,15,0,4600,1,0,0,"RA,SH,TS,VC"
2026-04-04 03:42:00,SPECI VHHH 040342Z 26016KT 6000 VCTS SHRA FEW005 SCT015CB 23/21 Q1008 TEMPO VRB15G30KT 2000 TSRA SHRA FEW008CB SCT020,0,16,0,6000,1,0,0,"RA,SH,TS,VC"
2026-04-04 03:30:00,METAR VHHH 040330Z 26015KT 220V290 4200 +TSRA FEW005 SCT015CB 24/21 Q1008 TEMPO VRB15G30KT 2000 TSRA SHRA FEW008CB SCT020,0,15,0,4200,1,0,0,"RA,SH,TS"
2026-04-04 03:22:00,SPECI VHHH 040322Z 23016KT 200V270 1400 1100N R07R/1800D R25L/P2000D R07L/P2000D R25R/P2000D +TSRA FEW006 SCT015CB BKN040 25/23 Q1008 TEMPO VRB15G30KT 2000 TSRA SHRA FEW008CB SCT020,0,16,0,1400,1,0,0,"RA,SH,TS"
2026-04-04 03:17:00,SPECI VHHH 040317Z 22014KT 2900 1400W R07R/P2000N R25L/P2000N R07L/P2000D R25R/P2000N +TSRA FEW006 SCT015CB BKN040 26/23 Q1008 TEMPO VRB15G30KT 2000 TSRA SHRA FEW008CB SCT020,0,14,0,2900,1,0,0,"RA,SH,TS"
2026-04-04 03:16:00,SPECI VHHH 040316Z 22013KT 3600 +TSRA FEW006 SCT015CB BKN040 26/23 Q1008 TEMPO VRB15G30KT 2000 TSRA SHRA FEW008CB SCT020,0,13,0,3600,1,0,0,"RA,SH,TS"
2026-04-04 03:12:00,SPECI VHHH 040312Z 22012KT 9999 +TSRA FEW006 SCT015CB BKN040 27/23 Q1008 TEMPO VRB15G30KT 2000 TSRA SHRA FEW008CB SCT020,0,12,0,10000,1,0,0,"RA,SH,TS"
2026-04-04 03:07:00,SPECI VHHH 040307Z 22010KT 9999 -TSRA FEW006 SCT015CB BKN040 27/22 Q1008 TEMPO VRB15G30KT 2000 TSRA SHRA FEW008CB SCT020,0,10,0,10000,1,0,0,"RA,SH,TS"
2026-04-04 03:00:00,METAR VHHH 040300Z 22009KT 9999 VCTS -SHRA FEW006 SCT015CB BKN040 27/22 Q1007 TEMPO VRB15G30KT 2000 TSRA SHRA FEW008CB SCT020,0,9,0,10000,1,0,0,"RA,SH,TS,VC"
2026-04-04 02:30:00,METAR VHHH 040230Z 22009KT 9999 VCTS FEW008 FEW015CB SCT022 BKN045 27/22 Q1008 TEMPO VRB15G30KT 2000 TSRA SHRA FEW008CB SCT020,0,9,0,10000,1,0,0,"RA,SH,TS,VC"
2026-04-04 02:21:00,SPECI VHHH 040221Z 23009KT 9999 VCTS FEW008CB SCT025 28/22 Q1008 TEMPO VRB15G30KT 2000 TSRA SHRA FEW008CB SCT020,0,9,0,10000,1,0,0,"RA,SH,TS,VC"
2026-04-04 02:00:00,METAR VHHH 040200Z 23009KT 9999 FEW008 SCT025 27/22 Q1008 TEMPO FM0300 VRB15G30KT 2000 TSRA SHRA FEW008CB SCT020,0,9,0,10000,1,0,0,"RA,SH,TS"
2026-04-04 01:30:00,METAR VHHH 040130Z 21009KT 9999 FEW012 SCT030 27/22 Q1008 TEMPO FM0300 VRB15G30KT 2000 TSRA SHRA FEW008CB SCT020,0,9,0,10000,1,0,0,"RA,SH,TS"
2026-04-04 01:00:00,METAR VHHH 040100Z 21007KT 9999 FEW012 SCT030 27/22 Q1008 NOSIG,0,7,0,10000,0,0,0,
2026-04-04 00:30:00,METAR VHHH 040030Z 23005KT 9999 FEW012 SCT030 27/22 Q1008 NOSIG,0,5,0,10000,0,0,0,
2026-04-04 00:00:00,METAR VHHH 040000Z 23007KT 9999 FEW012 SCT030 27/22 Q1008 NOSIG,0,7,0,10000,0,0,0,
2026-04-03 23:30:00,METAR VHHH 032330Z 22005KT 170V240 9999 FEW015 SCT030 26/22 Q1007 NOSIG,0,5,0,10000,0,0,0,
2026-04-03 23:00:00,METAR VHHH 032300Z 21005KT 170V230 9999 FEW015 SCT030 26/22 Q1007 NOSIG,0,5,0,10000,0,0,0,
2026-04-03 22:30:00,METAR VHHH 032230Z 21006KT 160V240 9999 FEW015 SCT030 26/22 Q1006 NOSIG,0,6,0,10000,0,0,0,
2026-04-03 22:00:00,METAR VHHH 032200Z 21007KT 190V250 9999 FEW015 SCT030 26/22 Q1006 NOSIG,0,7,0,10000,0,0,0,
2026-04-03 21:30:00,METAR VHHH 032130Z 22006KT 9999 FEW012 SCT030 26/22 Q1006 NOSIG,0,6,0,10000,0,0,0,
2026-04-03 21:00:00,METAR VHHH 032100Z 22009KT 9999 FEW012 SCT030 26/23 Q1006 NOSIG,0,9,0,10000,0,0,0,
2026-04-03 20:30:00,METAR VHHH 032030Z 23008KT 180V250 9999 FEW012 SCT025 26/23 Q1006 NOSIG,0,8,0,10000,0,0,0,
2026-04-03 20:00:00,METAR VHHH 032000Z 23009KT 9999 FEW012 SCT025 26/23 Q1006 NOSIG,0,9,0,10000,0,0,0,
2026-04-03 19:30:00,METAR VHHH 031930Z 22009KT 9999 FEW012 26/23 Q1006 NOSIG,0,9,0,10000,0,0,0,
2026-04-03 19:00:00,METAR VHHH 031900Z 23012KT 9999 FEW012 26/23 Q1006 NOSIG,0,12,0,10000,0,0,0,
2026-04-03 18:30:00,METAR VHHH 031830Z 22013KT 9999 FEW012 27/23 Q1006 NOSIG,0,13,0,10000,0,0,0,
2026-04-03 18:00:00,METAR VHHH 031800Z 22014KT 9999 FEW015 27/23 Q1006 NOSIG,0,14,0,10000,0,0,0,
2026-04-03 17:30:00,METAR VHHH 031730Z 22013KT 9999 FEW015 27/22 Q1007 NOSIG,0,13,0,10000,0,0,0,
2026-04-03 17:00:00,METAR VHHH 031700Z 23014KT 9999 FEW015 27/22 Q1007 NOSIG,0,14,0,10000,0,0,0,
2026-04-03 16:30:00,METAR VHHH 031630Z 22015KT 9999 FEW015 27/22 Q1007 NOSIG,0,15,0,10000,0,0,0,
2026-04-03 16:00:00,METAR VHHH 031600Z 21015KT 9999 FEW015 27/22 Q1008 NOSIG,0,15,0,10000,0,0,0,
2026-04-03 15:30:00,METAR VHHH 031530Z 21015KT 9999 FEW015 27/22 Q1008 NOSIG,0,15,0,10000,0,0,0,
2026-04-03 15:00:00,METAR VHHH 031500Z 21015KT 9999 FEW015 27/22 Q1008 NOSIG,0,15,0,10000,0,0,0,
2026-04-03 14:30:00,METAR VHHH 031430Z 22013KT 9999 FEW015 27/21 Q1008 NOSIG,0,13,0,10000,0,0,0,
2026-04-03 14:00:00,METAR VHHH 031400Z 21012KT 9999 FEW015 27/21 Q1008 NOSIG,0,12,0,10000,0,0,0,
2026-04-03 13:30:00,METAR VHHH 031330Z 20012KT 9999 FEW015 27/22 Q1008 NOSIG,0,12,0,10000,0,0,0,
2026-04-03 13:00:00,METAR VHHH 031300Z 21014KT 9999 FEW012 27/22 Q1007 NOSIG,0,14,0,10000,0,0,0,
2026-04-03 12:30:00,METAR VHHH 031230Z 21013KT 9999 FEW012 27/22 Q1007 NOSIG,0,13,0,10000,0,0,0,
2026-04-03 12:00:00,METAR VHHH 031200Z 21013KT 9999 FEW012 27/22 Q1007 NOSIG,0,13,0,10000,0,0,0,
2026-04-03 11:30:00,METAR VHHH 031130Z 21012KT 9999 FEW010 SCT025 27/22 Q1007 NOSIG,0,12,0,10000,0,0,0,
2026-04-03 11:00:00,METAR VHHH 031100Z 21012KT 180V240 9999 FEW010 SCT020 27/22 Q1006 NOSIG,0,12,0,10000,0,0,0,
2026-04-03 10:30:00,METAR VHHH 031030Z 22011KT 9999 FEW010 SCT020 27/22 Q1006 NOSIG,0,11,0,10000,0,0,0,
2026-04-03 10:00:00,METAR VHHH 031000Z 22012KT 9999 FEW010 SCT020 27/22 Q1006 NOSIG,0,12,0,10000,0,0,0,
2026-04-03 09:30:00,METAR VHHH 030930Z 22013KT 9999 FEW010 SCT025 27/22 Q1006 NOSIG,0,13,0,10000,0,0,0,
2026-04-03 09:00:00,METAR VHHH 030900Z 22014KT 9999 FEW010 SCT025 27/22 Q1006 NOSIG,0,14,0,10000,0,0,0,
2026-04-03 08:30:00,METAR VHHH 030830Z 22014KT 9999 FEW010 SCT025 28/22 Q1005 NOSIG,0,14,0,10000,0,0,0,
2026-04-03 08:00:00,METAR VHHH 030800Z 22014KT 9999 FEW010 SCT025 27/22 Q1006 NOSIG,0,14,0,10000,0,0,0,
2026-04-03 07:30:00,METAR VHHH 030730Z 22015KT 9999 FEW010 SCT030 27/22 Q1006 NOSIG,0,15,0,10000,0,0,0,
2026-04-03 07:00:00,METAR VHHH 030700Z 20016KT 170V230 9999 FEW010 SCT030 28/22 Q1006 NOSIG,0,16,0,10000,0,0,0,
2026-04-03 06:30:00,METAR VHHH 030630Z 20014KT 9999 FEW008 SCT020 28/22 Q1006 WS R25R NOSIG,0,14,0,10000,0,0,0,
2026-04-03 06:00:00,METAR VHHH 030600Z 20017KT 9999 FEW008 SCT020 28/22 Q1007 NOSIG,0,17,0,10000,0,0,0,
2026-04-03 05:30:00,METAR VHHH 030530Z 20017KT 9999 FEW008 SCT020 28/22 Q1007 NOSIG,0,17,0,10000,0,0,0,
2026-04-03 05:00:00,METAR VHHH 030500Z 20019KT 170V230 9999 FEW008 SCT020 29/22 Q1007 NOSIG,0,19,0,10000,0,0,0,
2026-04-03 04:30:00,METAR VHHH 030430Z 20017KT 9999 FEW008 SCT020 28/21 Q1008 NOSIG,0,17,0,10000,0,0,0,
2026-04-03 04:00:00,METAR VHHH 030400Z 19018KT 9999 FEW008 SCT020 28/22 Q1008 NOSIG,0,18,0,10000,0,0,0,
2026-04-03 03:30:00,METAR VHHH 030330Z 19015KT 170V230 9999 FEW008 SCT020 28/22 Q1009 NOSIG,0,15,0,10000,0,0,0,
2026-04-03 03:00:00,METAR VHHH 030300Z 19013G23KT 9999 FEW008 SCT020 28/22 Q1009 NOSIG,0,13,1,10000,0,0,0,
2026-04-03 02:30:00,METAR VHHH 030230Z 19015KT 9999 FEW008 SCT020 28/22 Q1010 NOSIG,0,15,0,10000,0,0,0,
2026-04-03 02:00:00,METAR VHHH 030200Z 16013G23KT 130V200 9999 FEW008 SCT020 27/22 Q1010 NOSIG,0,13,1,10000,0,0,0,
2026-04-03 01:30:00,METAR VHHH 030130Z 14009G19KT 9999 FEW008 SCT020 27/22 Q1010 NOSIG,0,9,1,10000,0,0,0,
2026-04-03 01:00:00,METAR VHHH 030100Z 15010KT 130V200 9999 FEW008 SCT020 26/23 Q1010 NOSIG,0,10,0,10000,0,0,0,
2026-04-03 00:30:00,METAR VHHH 030030Z 15009G19KT 9999 FEW008 SCT020 26/22 Q1010 NOSIG,0,9,1,10000,0,0,0,
2026-04-03 00:00:00,METAR VHHH 030000Z 14012KT 9999 FEW008 SCT025 26/22 Q1010 NOSIG,0,12,0,10000,0,0,0,
2026-04-02 23:30:00,METAR VHHH 022330Z 14010KT 9999 FEW008 SCT025 26/22 Q1009 NOSIG,0,10,0,10000,0,0,0,
2026-04-02 23:00:00,METAR VHHH 022300Z 14011KT 9999 FEW008 SCT025 25/22 Q1009 NOSIG,0,11,0,10000,0,0,0,
2026-04-02 22:30:00,METAR VHHH 022230Z 14010KT 110V170 9999 FEW008 SCT025 26/22 Q1009 WS R07C NOSIG,0,10,0,10000,0,0,0,
2026-04-02 22:00:00,METAR VHHH 022200Z 12009KT 9999 FEW008 SCT025 26/22 Q1009 NOSIG,0,9,0,10000,0,0,0,
2026-04-02 21:30:00,METAR VHHH 022130Z 13008KT 070V170 9999 FEW008 SCT025 25/22 Q1009 NOSIG,0,8,0,10000,0,0,0,
2026-04-02 21:00:00,METAR VHHH 022100Z 12009KT 9999 FEW008 SCT025 25/22 Q1009 NOSIG,0,9,0,10000,0,0,0,
2026-04-02 20:30:00,METAR VHHH 022030Z 12012KT 9999 FEW008 SCT025 25/22 Q1009 NOSIG,0,12,0,10000,0,0,0,
2026-04-02 20:00:00,METAR VHHH 022000Z 12011KT 9999 FEW010 SCT025 25/22 Q1009 NOSIG,0,11,0,10000,0,0,0,
2026-04-02 19:30:00,METAR VHHH 021930Z 11013KT 9999 FEW010 SCT025 25/22 Q1010 NOSIG,0,13,0,10000,0,0,0,
2026-04-02 19:00:00,METAR VHHH 021900Z 12013KT 9999 FEW010 SCT025 25/22 Q1010 NOSIG,0,13,0,10000,0,0,0,
2026-04-02 18:30:00,METAR VHHH 021830Z 12015KT 9999 FEW010 SCT020 25/22 Q1010 NOSIG,0,15,0,10000,0,0,0,
2026-04-02 18:00:00,METAR VHHH 021800Z 12014KT 9999 FEW010 SCT020 25/22 Q1011 NOSIG,0,14,0,10000,0,0,0,
2026-04-02 17:30:00,METAR VHHH 021730Z 12014KT 9999 FEW010 SCT020 25/22 Q1011 NOSIG,0,14,0,10000,0,0,0,
2026-04-02 17:00:00,METAR VHHH 021700Z 12015KT 9999 FEW010 SCT020 25/22 Q1011 NOSIG,0,15,0,10000,0,0,0,
2026-04-02 16:30:00,METAR VHHH 021630Z 11012KT 9999 FEW010 SCT020 25/22 Q1012 NOSIG,0,12,0,10000,0,0,0,
2026-04-02 16:00:00,METAR VHHH 021600Z 12015KT 9999 FEW010 SCT018 24/22 Q1012 NOSIG,0,15,0,10000,0,0,0,
2026-04-02 15:30:00,METAR VHHH 021530Z 12017KT 9999 FEW010 SCT018 25/22 Q1012 NOSIG,0,17,0,10000,0,0,0,
2026-04-02 15:00:00,METAR VHHH 021500Z 11014KT 9999 FEW008 SCT018 24/22 Q1013 NOSIG,0,14,0,10000,0,0,0,
2026-04-02 14:30:00,METAR VHHH 021430Z 11014KT 9999 FEW008 SCT018 24/22 Q1013 NOSIG,0,14,0,10000,0,0,0,
2026-04-02 14:00:00,METAR VHHH 021400Z 12017KT 9999 FEW008 SCT018 24/21 Q1013 NOSIG,0,17,0,10000,0,0,0,
2026-04-02 13:30:00,METAR VHHH 021330Z 11016KT 9999 FEW008 SCT018 24/21 Q1013 NOSIG,0,16,0,10000,0,0,0,
2026-04-02 13:00:00,METAR VHHH 021300Z 12014KT 9999 FEW008 SCT018 25/22 Q1012 NOSIG,0,14,0,10000,0,0,0,
2026-04-02 12:30:00,METAR VHHH 021230Z 12015KT 9999 FEW008 SCT018 25/22 Q1012 NOSIG,0,15,0,10000,0,0,0,
2026-04-02 12:00:00,METAR VHHH 021200Z 12013KT 9999 FEW008 SCT018 25/21 Q1011 NOSIG,0,13,0,10000,0,0,0,
2026-04-02 11:30:00,METAR VHHH 021130Z 12013KT 9999 FEW008 SCT018 25/21 Q1011 NOSIG,0,13,0,10000,0,0,0,
2026-04-02 11:00:00,METAR VHHH 021100Z 10013KT 9999 FEW008 SCT018 24/21 Q1011 NOSIG,0,13,0,10000,0,0,0,
2026-04-02 10:30:00,METAR VHHH 021030Z 11011KT 9999 FEW008 SCT018 25/21 Q1011 NOSIG,0,11,0,10000,0,0,0,
2026-04-02 10:00:00,METAR VHHH 021000Z 11010KT 090V150 9999 FEW008 SCT018 25/21 Q1010 NOSIG,0,10,0,10000,0,0,0,
2026-04-02 09:30:00,METAR VHHH 020930Z 11012KT 9999 FEW008 SCT018 24/21 Q1010 NOSIG,0,12,0,10000,0,0,0,
2026-04-02 09:00:00,METAR VHHH 020900Z 11016KT 9999 FEW010 SCT018 25/21 Q1010 NOSIG,0,16,0,10000,0,0,0,
2026-04-02 08:30:00,METAR VHHH 020830Z 11017KT 9999 FEW010 SCT018 25/21 Q1010 NOSIG,0,17,0,10000,0,0,0,
2026-04-02 08:00:00,METAR VHHH 020800Z 11017KT 9999 FEW010 SCT018 25/21 Q1010 NOSIG,0,17,0,10000,0,0,0,
2026-04-02 07:30:00,METAR VHHH 020730Z 11015KT 9999 FEW010 SCT018 24/21 Q1011 NOSIG,0,15,0,10000,0,0,0,
2026-04-02 07:00:00,METAR VHHH 020700Z 11016KT 9999 FEW010 SCT018 25/20 Q1011 NOSIG,0,16,0,10000,0,0,0,
2026-04-02 06:30:00,METAR VHHH 020630Z 11018KT 9999 FEW010 SCT018 25/20 Q1012 NOSIG,0,18,0,10000,0,0,0,
2026-04-02 06:00:00,METAR VHHH 020600Z 10018KT 9999 FEW010 SCT018 25/20 Q1012 NOSIG,0,18,0,10000,0,0,0,
2026-04-02 05:30:00,METAR VHHH 020530Z 10016KT 9999 FEW010 SCT018 24/20 Q1013 NOSIG,0,16,0,10000,0,0,0,
2026-04-02 05:00:00,METAR VHHH 020500Z 11016KT 9999 -RA FEW010 SCT018 24/20 Q1013 NOSIG,0,16,0,10000,0,0,0,-RA
2026-04-02 04:30:00,METAR VHHH 020430Z 11013KT 9999 -RA FEW010 SCT018 24/20 Q1014 NOSIG,0,13,0,10000,0,0,0,-RA
2026-04-02 04:00:00,METAR VHHH 020400Z 11014KT 9999 -RA FEW010 SCT018 24/20 Q1014 NOSIG,0,14,0,10000,0,0,0,-RA
2026-04-02 03:30:00,METAR VHHH 020330Z 10013KT 9999 FEW010 SCT018 25/20 Q1014 NOSIG,0,13,0,10000,0,0,0,
2026-04-02 03:00:00,METAR VHHH 020300Z 10014KT 9999 FEW010 SCT018 25/20 Q1015 NOSIG,0,14,0,10000,0,0,0,
2026-04-02 02:30:00,METAR VHHH 020230Z 10017KT 9999 FEW010 SCT018 25/20 Q1015 WS R07R NOSIG,0,17,0,10000,0,0,0,
2026-04-02 02:00:00,METAR VHHH 020200Z 10021KT 9999 FEW010 SCT020 25/20 Q1014 NOSIG,0,21,0,10000,0,0,0,
2026-04-02 01:30:00,METAR VHHH 020130Z 10020KT 9999 FEW010 SCT020 25/20 Q1014 NOSIG,0,20,0,10000,0,0,0,
2026-04-02 01:00:00,METAR VHHH 020100Z 10022KT 9999 FEW010 25/20 Q1014 NOSIG,0,22,0,10000,0,0,0,
2026-04-02 00:30:00,METAR VHHH 020030Z 10020KT 9999 FEW010 24/20 Q1014 NOSIG,0,20,0,10000,0,0,0,
2026-04-02 00:00:00,METAR VHHH 020000Z 10019KT 9999 FEW010 SCT020 24/20 Q1014 NOSIG,0,19,0,10000,0,0,0,
2026-04-01 23:30:00,METAR VHHH 012330Z 11017KT 9999 FEW010 SCT020 23/20 Q1014 NOSIG,0,17,0,10000,0,0,0,
2026-04-01 23:00:00,METAR VHHH 012300Z 11014KT 9999 FEW008 SCT016 23/20 Q1014 NOSIG,0,14,0,10000,0,0,0,
2026-04-01 22:30:00,METAR VHHH 012230Z 11013KT 9999 FEW010 SCT016 24/20 Q1013 NOSIG,0,13,0,10000,0,0,0,
2026-04-01 22:00:00,METAR VHHH 012200Z 11013KT 9999 FEW010 SCT016 24/21 Q1013 NOSIG,0,13,0,10000,0,0,0,
2026-04-01 21:30:00,METAR VHHH 012130Z 10014KT 9999 -RA FEW010 SCT018 23/21 Q1013 NOSIG,0,14,0,10000,0,0,0,-RA
2026-04-01 21:00:00,METAR VHHH 012100Z 10013KT 9999 -RA FEW012 SCT022 24/21 Q1012 NOSIG,0,13,0,10000,0,0,0,-RA
2026-04-01 20:30:00,METAR VHHH 012030Z 11010KT 9999 FEW012 SCT030 24/21 Q1012 NOSIG,0,10,0,10000,0,0,0,
2026-04-01 20:00:00,METAR VHHH 012000Z 10011KT 9999 FEW012 SCT030 24/21 Q1012 NOSIG,0,11,0,10000,0,0,0,
2026-04-01 19:30:00,METAR VHHH 011930Z 10013KT 9999 FEW012 SCT035 24/21 Q1012 NOSIG,0,13,0,10000,0,0,0,
2026-04-01 19:00:00,METAR VHHH 011900Z 11011KT 9999 FEW012 SCT040 24/21 Q1012 NOSIG,0,11,0,10000,0,0,0,
2026-04-01 18:30:00,METAR VHHH 011830Z 10010KT 9999 FEW015 SCT040 25/20 Q1013 NOSIG,0,10,0,10000,0,0,0,
2026-04-01 18:00:00,METAR VHHH 011800Z 10011KT 9999 FEW015 25/20 Q1013 NOSIG,0,11,0,10000,0,0,0,
2026-04-01 17:30:00,METAR VHHH 011730Z 10011KT 9999 FEW015 SCT040 25/20 Q1013 NOSIG,0,11,0,10000,0,0,0,
2026-04-01 17:00:00,METAR VHHH 011700Z 10012KT 9999 FEW015 SCT040 25/20 Q1013 NOSIG,0,12,0,10000,0,0,0,
2026-04-01 16:30:00,METAR VHHH 011630Z 10012KT 9999 FEW025 25/20 Q1013 NOSIG,0,12,0,10000,0,0,0,
2026-04-01 16:00:00,METAR VHHH 011600Z 09010KT 9999 FEW025 26/19 Q1013 NOSIG,0,10,0,10000,0,0,0,
2026-04-01 15:30:00,METAR VHHH 011530Z 07009KT 9999 FEW025 26/19 Q1013 NOSIG,0,9,0,10000,0,0,0,
2026-04-01 15:00:00,METAR VHHH 011500Z 07006KT 9999 FEW025 SCT045 25/19 Q1013 NOSIG,0,6,0,10000,0,0,0,
2026-04-01 14:00:00,METAR VHHH 011400Z 08007KT 9999 FEW025 SCT040 25/20 Q1013 NOSIG,0,7,0,10000,0,0,0,
2026-04-01 13:30:00,METAR VHHH 011330Z 09007KT 9999 FEW025 SCT040 25/20 Q1013 NOSIG,0,7,0,10000,0,0,0,
2026-04-01 13:00:00,METAR VHHH 011300Z 09007KT 9999 FEW025 26/19 Q1013 NOSIG,0,7,0,10000,0,0,0,
2026-04-01 12:30:00,METAR VHHH 011230Z 10006KT 9999 FEW025 SCT040 26/18 Q1012 NOSIG,0,6,0,10000,0,0,0,
2026-04-01 12:00:00,METAR VHHH 011200Z 10007KT 080V140 9999 FEW025 SCT040 26/18 Q1012 NOSIG,0,7,0,10000,0,0,0,
2026-04-01 11:30:00,METAR VHHH 011130Z 11003KT 040V190 9999 FEW025 SCT040 26/18 Q1011 NOSIG,0,3,0,10000,0,0,0,
2026-04-01 11:00:00,METAR VHHH 011100Z 18003KT 120V230 9999 FEW025 SCT040 26/16 Q1011 TEMPO 4000 SHRA,0,3,0,10000,0,0,0,"RA,SH"
2026-04-01 10:30:00,METAR VHHH 011030Z 21004KT 150V240 9999 FEW030 SCT040 26/16 Q1011 TEMPO 4000 SHRA,0,4,0,10000,0,0,0,"RA,SH"
2026-04-01 10:00:00,METAR VHHH 011000Z VRB02KT 9999 FEW030 SCT045 26/16 Q1011 NOSIG,0,2,0,10000,0,0,0,
2026-04-01 09:30:00,METAR VHHH 010930Z 22003KT 160V320 9999 FEW030 SCT045 26/17 Q1011 NOSIG,0,3,0,10000,0,0,0,
2026-04-01 09:00:00,METAR VHHH 010900Z VRB03KT 9999 FEW025 SCT045 26/17 Q1011 NOSIG,0,3,0,10000,0,0,0,
2026-04-01 08:30:00,METAR VHHH 010830Z 26004KT 9999 FEW025 SCT045 26/17 Q1011 NOSIG,0,4,0,10000,0,0,0,
2026-04-01 08:00:00,METAR VHHH 010800Z 27004KT 9999 FEW025 SCT045 26/16 Q1011 NOSIG,0,4,0,10000,0,0,0,
2026-04-01 07:30:00,METAR VHHH 010730Z 28005KT 9999 FEW025 SCT045 25/17 Q1011 NOSIG,0,5,0,10000,0,0,0,
2026-04-01 07:00:00,METAR VHHH 010700Z 30007KT 270V330 9999 FEW025 SCT045 25/17 Q1011 NOSIG,0,7,0,10000,0,0,0,
2026-04-01 06:30:00,METAR VHHH 010630Z 31008KT 9999 FEW025 SCT045 25/17 Q1012 NOSIG,0,8,0,10000,0,0,0,
2026-04-01 06:00:00,METAR VHHH 010600Z 31008KT 9999 FEW025 SCT045 25/17 Q1012 NOSIG,0,8,0,10000,0,0,0,
2026-04-01 05:30:00,METAR VHHH 010530Z 30009KT 9999 FEW025 SCT045 26/17 Q1013 NOSIG,0,9,0,10000,0,0,0,
2026-04-01 05:00:00,METAR VHHH 010500Z 31009KT 9999 FEW025 SCT045 26/18 Q1013 NOSIG,0,9,0,10000,0,0,0,
2026-04-01 04:30:00,METAR VHHH 010430Z 29006KT 9999 FEW025 SCT045 25/17 Q1013 NOSIG,0,6,0,10000,0,0,0,
2026-04-01 04:00:00,METAR VHHH 010400Z 30007KT 9999 FEW025 SCT045 25/18 Q1014 NOSIG,0,7,0,10000,0,0,0,
2026-04-01 03:30:00,METAR VHHH 010330Z 32010KT 9999 FEW025 25/18 Q1014 NOSIG,0,10,0,10000,0,0,0,
2026-04-01 03:00:00,METAR VHHH 010300Z 33007KT 9999 FEW025 24/18 Q1014 NOSIG,0,7,0,10000,0,0,0,
2026-04-01 02:30:00,METAR VHHH 010230Z 34007KT 9999 FEW015 24/18 Q1014 NOSIG,0,7,0,10000,0,0,0,
2026-04-01 02:00:00,METAR VHHH 010200Z 36009KT 9999 FEW015 SCT035 23/18 Q1014 NOSIG,0,9,0,10000,0,0,0,
2026-04-01 01:30:00,METAR VHHH 010130Z 35009KT 9999 FEW015 SCT035 23/18 Q1014 NOSIG,0,9,0,10000,0,0,0,
2026-04-01 01:00:00,METAR VHHH 010100Z 34007KT 9999 FEW012 SCT035 22/18 Q1014 NOSIG,0,7,0,10000,0,0,0,
2026-04-01 00:30:00,METAR VHHH 010030Z 01009KT 9999 FEW012 SCT016 22/18 Q1014 NOSIG,0,9,0,10000,0,0,0,
2026-04-01 00:00:00,METAR VHHH 010000Z 36008KT 320V040 9999 FEW012 SCT016 22/18 Q1014 NOSIG,0,8,0,10000,0,0,0,
2026-03-31 23:30:00,METAR VHHH 312330Z 01010KT 9999 FEW012 SCT018 22/18 Q1013 NOSIG,0,10,0,9999,0,0,0,
2026-03-31 23:00:00,METAR VHHH 312300Z 34014KT 9999 FEW012 SCT020 22/18 Q1013 NOSIG,0,14,0,9999,0,0,0,
2026-03-31 22:30:00,METAR VHHH 312230Z 33017KT 9999 FEW012 SCT022 21/17 Q1012 NOSIG,0,17,0,9999,0,0,0,
2026-03-31 22:00:00,METAR VHHH 312200Z 33018KT 9999 FEW012 SCT020 21/17 Q1012 NOSIG,0,18,0,9999,0,0,0,
2026-03-31 21:30:00,METAR VHHH 312130Z 33016KT 9999 FEW010 SCT018 22/17 Q1011 NOSIG,0,16,0,9999,0,0,0,
2026-03-31 21:00:00,METAR VHHH 312100Z 33016KT 9999 FEW010 SCT018 22/18 Q1011 NOSIG,0,16,0,9999,0,0,0,
2026-03-31 20:30:00,METAR VHHH 312030Z 33016KT 9999 FEW010 SCT020 22/18 Q1011 NOSIG,0,16,0,9999,0,0,0,
2026-03-31 20:00:00,METAR VHHH 312000Z 32014KT 9999 FEW010 SCT020 22/18 Q1011 NOSIG,0,14,0,9999,0,0,0,
2026-03-31 19:30:00,METAR VHHH 311930Z 32014KT 9999 FEW012 SCT025 22/18 Q1011 NOSIG,0,14,0,9999,0,0,0,
2026-03-31 19:00:00,METAR VHHH 311900Z 33015KT 9999 FEW010 SCT018 22/18 Q1011 NOSIG,0,15,0,9999,0,0,0,
2026-03-31 18:30:00,METAR VHHH 311830Z 32016KT 9999 FEW010 SCT018 23/19 Q1011 NOSIG,0,16,0,9999,0,0,0,
2026-03-31 18:00:00,METAR VHHH 311800Z 33015KT 9999 FEW010 SCT025 23/20 Q1011 NOSIG,0,15,0,9999,0,0,0,
2026-03-31 17:30:00,METAR VHHH 311730Z 32019KT 9999 FEW010 SCT025 23/20 Q1011 NOSIG,0,19,0,9999,0,0,0,
2026-03-31 17:00:00,METAR VHHH 311700Z 32017KT 9999 FEW010 SCT020 23/21 Q1011 NOSIG,0,17,0,9999,0,0,0,
2026-03-31 16:45:00,SPECI VHHH 311645Z 33015KT 9999 FEW010 SCT025 24/21 Q1011 NOSIG,0,15,0,9999,0,0,0,
2026-03-31 16:30:00,METAR VHHH 311630Z 33020KT 9999 FEW008 SCT018 24/21 Q1011 NOSIG,0,20,0,9999,0,0,0,
2026-03-31 16:03:00,SPECI VHHH 311603Z 33020KT 9999 -SHRA FEW008 SCT018 24/21 Q1011 NOSIG,0,20,0,9999,0,0,0,RA
2026-03-31 16:00:00,METAR VHHH 311600Z 33019KT 9999 -SHRA FEW008 SCT018 24/21 Q1011 NOSIG,0,19,0,9999,0,0,0,RA
2026-03-31 15:57:00,SPECI VHHH 311557Z 33020KT 9999 -SHRA FEW008 SCT018 24/21 Q1011 NOSIG,0,20,0,9999,0,0,0,RA
2026-03-31 15:46:00,SPECI VHHH 311546Z 32014KT 280V340 9999 -SHRA FEW008 SCT025 26/23 Q1011 BECMG 03010KT,0,14,0,9999,0,0,0,RA
2026-03-31 15:30:00,METAR VHHH 311530Z 22008KT 9999 FEW012 SCT030 26/23 Q1011 BECMG 03010KT,0,8,0,9999,0,0,0,
2026-03-31 15:00:00,METAR VHHH 311500Z 22008KT 9999 FEW012 SCT035 26/22 Q1011 BECMG 03010KT,0,8,0,9999,0,0,0,
2026-03-31 14:30:00,METAR VHHH 311430Z 22008KT 190V250 9999 FEW012 SCT040 26/22 Q1011 TEMPO 4000 SHRA,0,8,0,9999,0,0,0,"RA,SH"
2026-03-31 14:00:00,METAR VHHH 311400Z 23008KT 9999 FEW012 26/22 Q1011 TEMPO 4000 SHRA,0,8,0,9999,0,0,0,"RA,SH"
2026-03-31 13:30:00,METAR VHHH 311330Z 21009KT 9999 FEW012 26/22 Q1010 TEMPO 4000 SHRA FEW008CB SCT020,0,9,0,9999,0,0,0,"RA,SH"
2026-03-31 13:00:00,METAR VHHH 311300Z 22009KT 9999 FEW012 FEW016CB SCT025 26/22 Q1010 TEMPO 3000 TSRA SHRA FEW008CB SCT020,0,9,0,9999,1,0,0,"RA,SH,TS"
2026-03-31 12:30:00,METAR VHHH 311230Z 23009KT 9999 -SHRA FEW012 SCT025 26/22 Q1010 TEMPO 3000 TSRA SHRA FEW008CB SCT020,0,9,0,9999,1,0,0,"RA,SH,TS"
2026-03-31 12:00:00,METAR VHHH 311200Z 22010KT 9999 FEW012 SCT025 27/22 Q1009 TEMPO 33020G30KT 2500 TSRA SHRA FEW008CB SCT020,0,10,0,9999,1,0,0,"RA,SH,TS"
2026-03-31 11:30:00,METAR VHHH 311130Z 21010KT 9999 FEW010 SCT025 27/22 Q1009 TEMPO 33020G30KT 2500 TSRA SHRA FEW008CB SCT020,0,10,0,9999,1,0,0,"RA,SH,TS"
2026-03-31 11:00:00,METAR VHHH 311100Z 22011KT 9999 FEW010 SCT025 27/22 Q1009 TEMPO 33020G30KT 2500 TSRA SHRA FEW008CB SCT020,0,11,0,9999,1,0,0,"RA,SH,TS"
2026-03-31 10:30:00,METAR VHHH 311030Z 21011KT 170V240 9999 FEW010 SCT025 27/22 Q1008 NOSIG,0,11,0,9999,0,0,0,
2026-03-31 10:00:00,METAR VHHH 311000Z 21012KT 9999 FEW010 SCT025 27/21 Q1008 NOSIG,0,12,0,9999,0,0,0,
2026-03-31 09:30:00,METAR VHHH 310930Z 20010KT 180V240 9999 FEW010 SCT025 27/21 Q1007 NOSIG,0,10,0,9999,0,0,0,
2026-03-31 09:00:00,METAR VHHH 310900Z 20011KT 9999 FEW010 SCT025 27/22 Q1007 NOSIG,0,11,0,9999,0,0,0,
2026-03-31 08:30:00,METAR VHHH 310830Z 20012KT 170V230 9999 FEW010 SCT025 27/22 Q1007 NOSIG,0,12,0,9999,0,0,0,
2026-03-31 08:00:00,METAR VHHH 310800Z 20012KT 160V230 9999 FEW010 SCT025 28/21 Q1007 WS R25R NOSIG,0,12,0,9999,0,0,0,
2026-03-31 07:30:00,METAR VHHH 310730Z 20016KT 9999 FEW010 SCT025 28/21 Q1007 WS R25R NOSIG,0,16,0,9999,0,0,0,
2026-03-31 07:00:00,METAR VHHH 310700Z 19013G24KT 110V230 9999 FEW010 SCT025 27/22 Q1008 NOSIG,0,13,1,9999,0,0,0,
2026-03-31 06:30:00,METAR VHHH 310630Z 18009KT 130V230 9999 FEW010 SCT025 26/22 Q1008 NOSIG,0,9,0,9999,0,0,0,
2026-03-31 06:00:00,METAR VHHH 310600Z 16012KT 130V190 9999 FEW010 SCT025 26/22 Q1008 NOSIG,0,12,0,9999,0,0,0,
2026-03-31 05:30:00,METAR VHHH 310530Z 17011KT 140V200 9999 FEW010 SCT025 26/22 Q1009 NOSIG,0,11,0,9999,0,0,0,
2026-03-31 05:00:00,METAR VHHH 310500Z 20013KT 9999 FEW010 SCT025 27/21 Q1010 NOSIG,0,13,0,9999,0,0,0,
2026-03-31 04:30:00,METAR VHHH 310430Z 19013KT 9999 FEW010 SCT025 27/21 Q1010 NOSIG,0,13,0,9999,0,0,0,
2026-03-31 04:00:00,METAR VHHH 310400Z 21011KT 9999 FEW008 SCT022 27/21 Q1011 NOSIG,0,11,0,9999,0,0,0,
2026-03-31 03:30:00,METAR VHHH 310330Z 19011KT 160V230 9999 FEW010 SCT022 27/21 Q1011 NOSIG,0,11,0,9999,0,0,0,
2026-03-31 03:00:00,METAR VHHH 310300Z 20011KT 160V230 9999 FEW010 SCT022 27/22 Q1011 NOSIG,0,11,0,9999,0,0,0,
2026-03-31 02:30:00,METAR VHHH 310230Z 18009KT 140V230 9999 FEW010 SCT022 27/21 Q1011 NOSIG,0,9,0,9999,0,0,0,
2026-03-31 02:00:00,METAR VHHH 310200Z 15010KT 9999 FEW010 SCT022 26/22 Q1011 NOSIG,0,10,0,9999,0,0,0,
2026-03-31 01:30:00,METAR VHHH 310130Z 14011KT 120V180 9999 FEW008 SCT022 26/21 Q1011 NOSIG,0,11,0,9999,0,0,0,
2026-03-31 01:00:00,METAR VHHH 310100Z 15011KT 110V190 9999 FEW008 SCT022 27/21 Q1010 NOSIG,0,11,0,9999,0,0,0,
2026-03-31 00:30:00,METAR VHHH 310030Z 15011KT 9999 FEW008 SCT022 26/21 Q1010 NOSIG,0,11,0,9999,0,0,0,
2026-03-31 00:00:00,METAR VHHH 310000Z 16010KT 9999 FEW008 SCT022 26/21 Q1010 NOSIG,0,10,0,9999,0,0,0,
2026-03-30 23:30:00,METAR VHHH 302330Z 15007KT 9999 FEW012 SCT025 25/22 Q1010 NOSIG,0,7,0,10000,0,0,0,
2026-03-30 23:00:00,METAR VHHH 302300Z COR 15008KT 9999 FEW012 25/22 Q1010 NOSIG,0,8,0,10000,0,0,0,
2026-03-30 22:30:00,METAR VHHH 302230Z 14005KT 040V190 9999 FEW012 25/21 Q1010 NOSIG,0,5,0,10000,0,0,0,
2026-03-30 22:00:00,METAR VHHH 302200Z 17006KT 130V300 9999 FEW012 25/21 Q1009 NOSIG,0,6,0,10000,0,0,0,
2026-03-30 21:30:00,METAR VHHH 302130Z VRB04KT 9999 FEW012 SCT025 25/21 Q1009 NOSIG,0,4,0,10000,0,0,0,
2026-03-30 21:00:00,METAR VHHH 302100Z 15004KT 9999 FEW012 25/21 Q1009 NOSIG,0,4,0,10000,0,0,0,
2026-03-30 20:30:00,METAR VHHH 302030Z 14004KT 100V190 9999 FEW012 25/21 Q1009 NOSIG,0,4,0,10000,0,0,0,
2026-03-30 20:00:00,METAR VHHH 302000Z VRB03KT 9999 FEW012 25/21 Q1009 NOSIG,0,3,0,10000,0,0,0,
2026-03-30 19:30:00,METAR VHHH 301930Z VRB02KT 9999 FEW012 25/21 Q1009 NOSIG,0,2,0,10000,0,0,0,
2026-03-30 19:00:00,METAR VHHH 301900Z VRB04KT 9999 FEW012 25/21 Q1009 NOSIG,0,4,0,10000,0,0,0,
2026-03-30 18:30:00,METAR VHHH 301830Z 16005KT 130V200 9999 FEW012 26/21 Q1010 NOSIG,0,5,0,10000,0,0,0,
2026-03-30 18:00:00,METAR VHHH 301800Z 18005KT 9999 FEW012 26/22 Q1010 NOSIG,0,5,0,10000,0,0,0,
2026-03-30 17:30:00,METAR VHHH 301730Z 20006KT 9999 FEW012 SCT035 26/21 Q1011 NOSIG,0,6,0,10000,0,0,0,
2026-03-30 17:00:00,METAR VHHH 301700Z 18004KT 150V210 9999 FEW012 SCT030 26/21 Q1011 NOSIG,0,4,0,10000,0,0,0,
2026-03-30 16:30:00,METAR VHHH 301630Z 20005KT 160V240 9999 FEW012 SCT035 26/21 Q1011 NOSIG,0,5,0,10000,0,0,0,
2026-03-30 16:00:00,METAR VHHH 301600Z 16004KT 9999 FEW012 SCT035 26/21 Q1011 NOSIG,0,4,0,10000,0,0,0,
2026-03-30 15:30:00,METAR VHHH 301530Z 16005KT 9999 FEW012 SCT030 26/22 Q1011 NOSIG,0,5,0,10000,0,0,0,
2026-03-30 15:00:00,METAR VHHH 301500Z 18005KT 140V220 9999 FEW012 SCT030 26/22 Q1011 NOSIG,0,5,0,10000,0,0,0,
2026-03-30 14:30:00,METAR VHHH 301430Z 19007KT 9999 FEW012 SCT025 26/22 Q1011 NOSIG,0,7,0,10000,0,0,0,
2026-03-30 14:00:00,METAR VHHH 301400Z 18006KT 140V210 9999 FEW012 SCT025 26/22 Q1011 NOSIG,0,6,0,10000,0,0,0,
2026-03-30 13:30:00,METAR VHHH 301330Z 15006KT 120V180 9999 FEW012 SCT030 26/22 Q1011 NOSIG,0,6,0,10000,0,0,0,
2026-03-30 13:00:00,METAR VHHH 301300Z 18006KT 9999 FEW012 26/22 Q1011 NOSIG,0,6,0,10000,0,0,0,
2026-03-30 12:30:00,METAR VHHH 301230Z 16006KT 140V240 9999 FEW012 26/22 Q1010 NOSIG,0,6,0,10000,0,0,0,
2026-03-30 12:00:00,METAR VHHH 301200Z 15008KT 120V180 9999 FEW012 26/22 Q1010 NOSIG,0,8,0,10000,0,0,0,
2026-03-30 11:30:00,METAR VHHH 301130Z 16006KT 120V200 9999 FEW012 SCT025 26/22 Q1010 NOSIG,0,6,0,10000,0,0,0,
2026-03-30 11:00:00,METAR VHHH 301100Z 17007KT 130V210 9999 FEW012 26/22 Q1009 NOSIG,0,7,0,10000,0,0,0,
2026-03-30 10:30:00,METAR VHHH 301030Z 16008KT 9999 FEW012 SCT030 26/22 Q1009 NOSIG,0,8,0,10000,0,0,0,
2026-03-30 10:00:00,METAR VHHH 301000Z 14007KT 110V170 9999 FEW010 26/22 Q1009 NOSIG,0,7,0,10000,0,0,0,
2026-03-30 09:30:00,METAR VHHH 300930Z 15008KT 110V170 9999 FEW010 27/22 Q1009 NOSIG,0,8,0,10000,0,0,0,
2026-03-30 09:00:00,METAR VHHH 300900Z 16008KT 9999 FEW010 SCT025 27/21 Q1009 NOSIG,0,8,0,10000,0,0,0,
2026-03-30 08:30:00,METAR VHHH 300830Z 17009KT 9999 FEW012 SCT025 27/22 Q1008 NOSIG,0,9,0,10000,0,0,0,
2026-03-30 08:00:00,METAR VHHH 300800Z 15010KT 9999 FEW012 27/21 Q1008 NOSIG,0,10,0,10000,0,0,0,
2026-03-30 07:30:00,METAR VHHH 300730Z 15012KT 9999 FEW015 SCT025 28/21 Q1008 NOSIG,0,12,0,10000,0,0,0,
2026-03-30 07:12:00,SPECI VHHH 300712Z 15011KT 9999 FEW015 SCT025 27/22 Q1008 NOSIG,0,11,0,10000,0,0,0,
2026-03-30 07:00:00,METAR VHHH 300700Z 09012KT 050V120 9999 FEW015 SCT025 27/21 Q1008 NOSIG,0,12,0,10000,0,0,0,
2026-03-30 06:30:00,METAR VHHH 300630Z 09007KT 040V130 9999 FEW015 SCT025 26/21 Q1009 NOSIG,0,7,0,10000,0,0,0,
2026-03-30 06:15:00,SPECI VHHH 300615Z 05008KT 9999 FEW010 SCT025 26/21 Q1009 NOSIG,0,8,0,10000,0,0,0,
2026-03-30 06:00:00,METAR VHHH 300600Z 34008KT 310V020 9999 FEW010 SCT025 26/22 Q1011 NOSIG,0,8,0,10000,0,0,0,
2026-03-30 05:50:00,SPECI VHHH 300550Z 31008KT 260V340 9999 -SHRA FEW010 FEW015CB SCT025 25/22 Q1011 NOSIG,0,8,0,10000,0,0,0,RA
2026-03-30 05:30:00,METAR VHHH 300530Z 25014KT 9999 -SHRA FEW015CB SCT025 27/21 Q1012 TEMPO VRB20G40KT 2000 +TSRA SHRA FEW008CB SCT020,0,14,0,10000,1,0,0,"RA,SH"
2026-03-30 05:19:00,SPECI VHHH 300519Z 25011KT 230V290 9999 FEW015 SCT025 27/21 Q1012 TEMPO FM0530 VRB20G40KT 2000 +TSRA SHRA FEW008CB SCT020,0,11,0,10000,1,0,0,"RA,SH"
2026-03-30 05:00:00,METAR VHHH 300500Z VRB05KT 9999 FEW015 SCT025 27/20 Q1011 TEMPO FM0530 VRB20G40KT 2000 +TSRA SHRA FEW008CB SCT020,0,5,0,10000,1,0,0,"RA,SH"
2026-03-30 04:30:00,METAR VHHH 300430Z 06008KT 9999 FEW015 SCT028 28/20 Q1011 TEMPO FM0530 29020G35KT 2000 +TSRA SHRA FEW008CB SCT020,0,8,0,10000,1,0,0,"RA,SH"
2026-03-30 04:10:00,SPECI VHHH 300410Z 07010KT 9999 FEW015 27/19 Q1011 TEMPO FM0530 29020G35KT 2000 +TSRA SHRA FEW008CB SCT020,0,10,0,10000,1,0,0,"RA,SH"
2026-03-30 04:00:00,METAR VHHH 300400Z 22005KT 130V300 9999 FEW015 27/19 Q1011 TEMPO FM0530 29020G35KT 2000 +TSRA SHRA FEW008CB SCT020,0,5,0,10000,1,0,0,"RA,SH"
2026-03-30 03:51:00,SPECI VHHH 300351Z VRB04KT 9999 FEW015 28/19 Q1011 TEMPO FM0530 29020G35KT 2000 +TSRA SHRA FEW008CB SCT020,0,4,0,10000,1,0,0,"RA,SH"
2026-03-30 03:30:00,METAR VHHH 300330Z 12006KT 080V150 9999 FEW015 25/20 Q1011 TEMPO FM0530 29020G35KT 2000 +TSRA SHRA FEW008CB SCT020,0,6,0,10000,1,0,0,"RA,SH"
2026-03-30 03:23:00,SPECI VHHH 300323Z 12007KT 080V180 9999 FEW012 SCT025 25/20 Q1011 NOSIG,0,7,0,10000,0,0,0,
2026-03-30 03:00:00,METAR VHHH 300300Z 14006KT 100V260 9999 FEW012 SCT025 23/20 Q1013 RERA NOSIG,0,6,0,10000,0,0,0,RA
2026-03-30 02:46:00,SPECI VHHH 300246Z 02005KT 270V050 7000 3600E SHRA FEW010CB SCT025 22/20 Q1014 RERA TEMPO 30020G40KT 2000 +TSRA SHRA FEW008CB SCT020,0,5,0,7000,1,0,0,"RA,SH"
2026-03-30 02:37:00,SPECI VHHH 300237Z 32014KT 3500 1400E R07R/P2000D R25L/P2000N R07L/P2000N R25R/P2000N +SHRA FEW010CB SCT025 22/19 Q1015 TEMPO 30020G40KT 2000 +TSRA SHRA FEW008CB SCT020,0,14,0,3500,1,0,0,"RA,SH"
2026-03-30 02:35:00,SPECI VHHH 300235Z 32015KT 7000 3000W +SHRA FEW010CB SCT025 22/19 Q1015 RERA TEMPO 30020G40KT 2000 +TSRA SHRA FEW008CB SCT020,0,15,0,7000,1,0,0,"RA,SH"
2026-03-30 02:30:00,METAR VHHH 300230Z 31018KT 8000 3600N SHRA FEW010CB SCT025 22/19 Q1015 RERA TEMPO 30020G40KT 2000 +TSRA SHRA FEW008CB SCT020,0,18,0,8000,1,0,0,"RA,SH"
2026-03-30 02:15:00,SPECI VHHH 300215Z 30017G28KT 3600 +SHRA FEW010CB SCT025 21/19 Q1015 TEMPO 30020G40KT 2000 +TSRA SHRA FEW008CB SCT020,0,17,1,3600,1,0,0,"RA,SH"
2026-03-30 02:10:00,SPECI VHHH 300210Z 30019G38KT 280V350 2200 +SHRA FEW010CB SCT025 22/18 Q1015 TEMPO FM0230 30020G40KT 2000 +TSRA SHRA FEW008CB SCT020,0,19,1,2200,1,0,0,"RA,SH"
2026-03-30 02:07:00,SPECI VHHH 300207Z 30019G38KT 260V350 3100 SHRA FEW010CB SCT025 24/19 Q1015 TEMPO FM0230 30020G40KT 2000 +TSRA SHRA FEW008CB SCT020,0,19,1,3100,1,0,0,"RA,SH"
2026-03-30 02:00:00,METAR VHHH 300200Z 28011KT 9999 -SHRA FEW010CB SCT025 26/22 Q1014 TEMPO FM0230 30020G40KT 2000 +TSRA SHRA FEW008CB SCT020,0,11,0,10000,1,0,0,"RA,SH"
2026-03-30 01:30:00,METAR VHHH 300130Z 23013KT 9999 FEW010 SCT025 26/21 Q1013 TEMPO FM0230 29020G35KT 2000 +TSRA SHRA FEW008CB SCT020,0,13,0,10000,1,0,0,"RA,SH"
2026-03-30 01:00:00,METAR VHHH 300100Z 21010KT 160V240 9999 FEW010 SCT025 26/21 Q1012 TEMPO FM0230 29020G35KT 2000 +TSRA SHRA FEW008CB SCT020,0,10,0,10000,1,0,0,"RA,SH"
2026-03-30 00:30:00,METAR VHHH 300030Z 20009KT 170V230 9999 FEW010 SCT025 27/21 Q1011 TEMPO FM0230 29020G35KT 2000 +TSRA SHRA FEW008CB SCT020,0,9,0,10000,1,0,0,"RA,SH"
2026-03-30 00:00:00,METAR VHHH 300000Z 21010KT 9999 FEW010 SCT025 26/21 Q1011 NOSIG,0,10,0,10000,0,0,0,
2026-03-29 23:30:00,METAR VHHH 292330Z 19010KT 170V230 9999 FEW010 SCT025 25/21 Q1010 NOSIG,0,10,0,10000,0,0,0,
2026-03-29 23:00:00,METAR VHHH 292300Z 18005KT 150V230 9999 FEW010 SCT025 25/21 Q1009 NOSIG,0,5,0,10000,0,0,0,
2026-03-29 22:30:00,METAR VHHH 292230Z 16009KT 9999 FEW010 SCT025 25/21 Q1008 NOSIG,0,9,0,10000,0,0,0,
2026-03-29 22:00:00,METAR VHHH 292200Z 16008KT 9999 FEW010 SCT025 25/21 Q1008 NOSIG,0,8,0,10000,0,0,0,
2026-03-29 21:30:00,METAR VHHH 292130Z 16009KT 9999 FEW010 SCT025 25/21 Q1008 NOSIG,0,9,0,10000,0,0,0,
2026-03-29 21:00:00,METAR VHHH 292100Z 14008KT 9999 FEW010 SCT025 25/21 Q1008 NOSIG,0,8,0,10000,0,0,0,
2026-03-29 20:30:00,METAR VHHH 292030Z 14009KT 9999 FEW010 SCT025 25/21 Q1008 NOSIG,0,9,0,10000,0,0,0,
2026-03-29 20:00:00,METAR VHHH 292000Z 15009KT 9999 FEW010 SCT025 25/21 Q1009 NOSIG,0,9,0,10000,0,0,0,
2026-03-29 19:30:00,METAR VHHH 291930Z 15010KT 9999 FEW012 SCT025 25/21 Q1009 NOSIG,0,10,0,10000,0,0,0,
2026-03-29 19:00:00,METAR VHHH 291900Z 15009KT 110V170 9999 FEW012 SCT025 25/21 Q1009 NOSIG,0,9,0,10000,0,0,0,
2026-03-29 18:30:00,METAR VHHH 291830Z 12007KT 080V170 9999 FEW012 SCT025 25/21 Q1010 NOSIG,0,7,0,10000,0,0,0,
2026-03-29 18:00:00,METAR VHHH 291800Z 11007KT 060V160 9999 FEW012 SCT025 25/21 Q1010 NOSIG,0,7,0,10000,0,0,0,
2026-03-29 17:30:00,METAR VHHH 291730Z 10008KT 9999 FEW015 SCT030 25/21 Q1010 NOSIG,0,8,0,10000,0,0,0,
2026-03-29 17:00:00,METAR VHHH 291700Z 12010KT 9999 FEW015 25/20 Q1010 NOSIG,0,10,0,10000,0,0,0,
2026-03-29 16:30:00,METAR VHHH 291630Z 12008KT 090V160 9999 FEW015 25/21 Q1011 NOSIG,0,8,0,10000,0,0,0,
2026-03-29 16:00:00,METAR VHHH 291600Z 10009KT 080V150 9999 FEW015 25/21 Q1010 NOSIG,0,9,0,10000,0,0,0,
2026-03-29 15:30:00,METAR VHHH 291530Z 12007KT 9999 FEW015 25/21 Q1010 NOSIG,0,7,0,10000,0,0,0,
2026-03-29 15:00:00,METAR VHHH 291500Z 09010KT 9999 FEW015 25/20 Q1011 NOSIG,0,10,0,10000,0,0,0,
2026-03-29 14:30:00,METAR VHHH 291430Z 11006KT 080V160 9999 FEW015 25/20 Q1011 NOSIG,0,6,0,10000,0,0,0,
2026-03-29 14:00:00,METAR VHHH 291400Z 11007KT 9999 FEW015 25/20 Q1011 NOSIG,0,7,0,10000,0,0,0,
2026-03-29 13:30:00,METAR VHHH 291330Z 08009KT 9999 FEW015 25/20 Q1012 NOSIG,0,9,0,10000,0,0,0,
2026-03-29 13:00:00,METAR VHHH 291300Z 09007KT 9999 FEW015 26/20 Q1011 NOSIG,0,7,0,10000,0,0,0,
2026-03-29 12:30:00,METAR VHHH 291230Z 07006KT 9999 FEW015 SCT045 26/21 Q1012 NOSIG,0,6,0,10000,0,0,0,
2026-03-29 12:00:00,METAR VHHH 291200Z 19005KT 160V240 9999 FEW015 SCT045 26/20 Q1011 NOSIG,0,5,0,10000,0,0,0,
2026-03-29 11:30:00,METAR VHHH 291130Z 23006KT 9999 FEW015 SCT045 26/21 Q1011 NOSIG,0,6,0,10000,0,0,0,
2026-03-29 11:00:00,METAR VHHH 291100Z 09006KT 9999 FEW010 SCT045 26/21 Q1011 NOSIG,0,6,0,10000,0,0,0,
2026-03-29 10:30:00,METAR VHHH 291030Z 08007KT 9999 FEW010 SCT045 26/21 Q1011 NOSIG,0,7,0,10000,0,0,0,
2026-03-29 10:00:00,METAR VHHH 291000Z 06007KT 020V100 9999 FEW010 SCT045 26/21 Q1010 NOSIG,0,7,0,10000,0,0,0,
2026-03-29 09:30:00,METAR VHHH 290930Z 07007KT 330V120 9999 FEW010 SCT045 26/21 Q1010 NOSIG,0,7,0,10000,0,0,0,
2026-03-29 09:00:00,METAR VHHH 290900Z 22007KT 170V260 9999 FEW010 SCT045 26/21 Q1010 NOSIG,0,7,0,10000,0,0,0,
2026-03-29 08:30:00,METAR VHHH 290830Z 15008KT 120V180 9999 FEW010 SCT040 26/21 Q1009 NOSIG,0,8,0,10000,0,0,0,
2026-03-29 08:00:00,METAR VHHH 290800Z 13007KT 090V180 9999 FEW010 SCT040 27/21 Q1009 NOSIG,0,7,0,10000,0,0,0,
2026-03-29 07:30:00,METAR VHHH 290730Z 14009KT 060V180 9999 FEW010 SCT040 27/21 Q1009 NOSIG,0,9,0,10000,0,0,0,
2026-03-29 07:00:00,METAR VHHH 290700Z 11014KT 9999 FEW010 SCT040 27/21 Q1009 NOSIG,0,14,0,10000,0,0,0,
2026-03-29 06:30:00,METAR VHHH 290630Z 14012KT 9999 FEW012 27/21 Q1009 NOSIG,0,12,0,10000,0,0,0,
2026-03-29 06:00:00,METAR VHHH 290600Z 16013KT 9999 FEW012 27/21 Q1009 NOSIG,0,13,0,10000,0,0,0,
2026-03-29 05:30:00,METAR VHHH 290530Z 15013KT 110V170 9999 FEW012 28/21 Q1010 NOSIG,0,13,0,10000,0,0,0,
2026-03-29 05:00:00,METAR VHHH 290500Z 14011KT 100V160 9999 FEW012 27/21 Q1011 NOSIG,0,11,0,10000,0,0,0,
2026-03-29 04:30:00,METAR VHHH 290430Z 11014KT 9999 FEW012 SCT035 27/20 Q1011 NOSIG,0,14,0,10000,0,0,0,
2026-03-29 04:00:00,METAR VHHH 290400Z 08013KT 9999 FEW012 SCT035 28/20 Q1012 NOSIG,0,13,0,10000,0,0,0,
2026-03-29 03:30:00,METAR VHHH 290330Z 09014KT 9999 FEW012 SCT035 27/20 Q1012 NOSIG,0,14,0,10000,0,0,0,
2026-03-29 03:00:00,METAR VHHH 290300Z 08014KT 9999 FEW012 27/21 Q1013 NOSIG,0,14,0,10000,0,0,0,
2026-03-29 02:30:00,METAR VHHH 290230Z 09014KT 9999 FEW010 27/21 Q1013 NOSIG,0,14,0,10000,0,0,0,
2026-03-29 02:00:00,METAR VHHH 290200Z 09013KT 9999 FEW010 26/21 Q1013 NOSIG,0,13,0,10000,0,0,0,
2026-03-29 01:30:00,METAR VHHH 290130Z 09014KT 9999 FEW010 26/21 Q1013 NOSIG,0,14,0,10000,0,0,0,
2026-03-29 01:00:00,METAR VHHH 290100Z 09013KT 9999 FEW010 25/21 Q1012 NOSIG,0,13,0,10000,0,0,0,
2026-03-29 00:30:00,METAR VHHH 290030Z 10014KT 9999 FEW010 25/21 Q1012 NOSIG,0,14,0,10000,0,0,0,
2026-03-29 00:00:00,METAR VHHH 290000Z 09014KT 9999 FEW010 24/21 Q1012 NOSIG,0,14,0,10000,0,0,0,
2026-03-28 23:30:00,METAR VHHH 282330Z 09014KT 9999 FEW010 SCT035 23/21 Q1012 NOSIG,0,14,0,10000,0,0,0,
2026-03-28 23:00:00,METAR VHHH 282300Z 09013KT 9999 FEW010 SCT035 23/21 Q1011 NOSIG,0,13,0,10000,0,0,0,
2026-03-28 22:30:00,METAR VHHH 282230Z 09014KT 9999 FEW010 SCT035 23/21 Q1011 NOSIG,0,14,0,10000,0,0,0,
2026-03-28 22:00:00,METAR VHHH 282200Z 09015KT 9999 FEW008 SCT035 23/21 Q1011 NOSIG,0,15,0,10000,0,0,0,
2026-03-28 21:30:00,METAR VHHH 282130Z 09013KT 9999 FEW008 SCT035 23/21 Q1010 NOSIG,0,13,0,10000,0,0,0,
2026-03-28 21:00:00,METAR VHHH 282100Z 10013KT 9999 FEW008 SCT035 23/21 Q1010 NOSIG,0,13,0,10000,0,0,0,
2026-03-28 20:30:00,METAR VHHH 282030Z 09013KT 9999 FEW008 SCT035 24/21 Q1010 NOSIG,0,13,0,10000,0,0,0,
2026-03-28 20:00:00,METAR VHHH 282000Z 09011KT 9999 FEW008 SCT035 23/21 Q1010 NOSIG,0,11,0,10000,0,0,0,
2026-03-28 19:30:00,METAR VHHH 281930Z 10012KT 9999 FEW008 SCT035 23/21 Q1010 NOSIG,0,12,0,10000,0,0,0,
2026-03-28 19:00:00,METAR VHHH 281900Z 10011KT 9999 FEW008 SCT035 23/21 Q1010 NOSIG,0,11,0,10000,0,0,0,
2026-03-28 18:30:00,METAR VHHH 281830Z 09012KT 9999 FEW008 SCT040 23/21 Q1011 NOSIG,0,12,0,10000,0,0,0,
2026-03-28 18:00:00,METAR VHHH 281800Z 09014KT 9999 FEW008 SCT040 24/21 Q1011 NOSIG,0,14,0,10000,0,0,0,
2026-03-28 17:30:00,METAR VHHH 281730Z 08014KT 9999 FEW008 SCT045 24/21 Q1011 NOSIG,0,14,0,10000,0,0,0,
2026-03-28 17:00:00,METAR VHHH 281700Z 09013KT 9999 FEW008 SCT045 24/21 Q1011 NOSIG,0,13,0,10000,0,0,0,
2026-03-28 16:30:00,METAR VHHH 281630Z 09012KT 9999 FEW008 SCT045 24/21 Q1011 NOSIG,0,12,0,10000,0,0,0,
2026-03-28 16:00:00,METAR VHHH 281600Z 10014KT 9999 FEW008 SCT045 24/21 Q1011 NOSIG,0,14,0,10000,0,0,0,
2026-03-28 15:30:00,METAR VHHH 281530Z 09014KT 9999 FEW008 24/21 Q1012 NOSIG,0,14,0,10000,0,0,0,
2026-03-28 15:00:00,METAR VHHH 281500Z 10013KT 9999 FEW008 SCT045 25/21 Q1012 NOSIG,0,13,0,10000,0,0,0,
2026-03-28 14:30:00,METAR VHHH 281430Z 11012KT 9999 FEW010 SCT045 25/21 Q1012 NOSIG,0,12,0,10000,0,0,0,
2026-03-28 14:00:00,METAR VHHH 281400Z 10013KT 9999 FEW012 SCT045 25/21 Q1012 NOSIG,0,13,0,10000,0,0,0,
2026-03-28 13:30:00,METAR VHHH 281330Z 10013KT 9999 FEW012 25/21 Q1012 NOSIG,0,13,0,10000,0,0,0,
2026-03-28 13:00:00,METAR VHHH 281300Z 09013KT 9999 FEW012 25/21 Q1012 NOSIG,0,13,0,10000,0,0,0,
2026-03-28 12:30:00,METAR VHHH 281230Z 09012KT 9999 FEW010 SCT045 26/21 Q1011 NOSIG,0,12,0,10000,0,0,0,
2026-03-28 12:00:00,METAR VHHH 281200Z 09011KT 9999 FEW010 SCT045 25/21 Q1011 NOSIG,0,11,0,10000,0,0,0,
2026-03-28 11:30:00,METAR VHHH 281130Z 11008KT 9999 FEW010 SCT045 26/20 Q1011 NOSIG,0,8,0,10000,0,0,0,
2026-03-28 11:00:00,METAR VHHH 281100Z 11005KT 070V140 9999 FEW010 SCT045 26/20 Q1010 NOSIG,0,5,0,10000,0,0,0,
2026-03-28 10:30:00,METAR VHHH 281030Z 16011KT 9999 FEW010 SCT038 26/21 Q1010 NOSIG,0,11,0,10000,0,0,0,
2026-03-28 10:00:00,METAR VHHH 281000Z 16009KT 9999 FEW010 SCT038 26/21 Q1010 NOSIG,0,9,0,10000,0,0,0,
2026-03-28 09:30:00,METAR VHHH 280930Z 15009KT 9999 FEW010 SCT038 26/21 Q1010 NOSIG,0,9,0,10000,0,0,0,
2026-03-28 09:00:00,METAR VHHH 280900Z 16009KT 9999 FEW012 SCT045 26/21 Q1009 NOSIG,0,9,0,10000,0,0,0,
2026-03-28 08:30:00,METAR VHHH 280830Z 16011KT 9999 FEW012 SCT045 26/20 Q1009 NOSIG,0,11,0,10000,0,0,0,
2026-03-28 08:00:00,METAR VHHH 280800Z 16012KT 9999 FEW012 SCT045 27/21 Q1009 NOSIG,0,12,0,10000,0,0,0,
2026-03-28 07:30:00,METAR VHHH 280730Z 16011KT 9999 FEW012 SCT045 27/20 Q1010 NOSIG,0,11,0,10000,0,0,0,
2026-03-28 07:00:00,METAR VHHH 280700Z 16010KT 9999 FEW015 SCT045 27/20 Q1010 NOSIG,0,10,0,10000,0,0,0,
2026-03-28 06:30:00,METAR VHHH 280630Z 16012KT 9999 FEW017 SCT045 27/19 Q1010 NOSIG,0,12,0,10000,0,0,0,
2026-03-28 06:00:00,METAR VHHH 280600Z 16010KT 9999 FEW017 SCT045 28/20 Q1011 NOSIG,0,10,0,10000,0,0,0,
2026-03-28 05:30:00,METAR VHHH 280530Z 15013KT 9999 FEW017 SCT040 27/20 Q1011 NOSIG,0,13,0,10000,0,0,0,
2026-03-28 05:00:00,METAR VHHH 280500Z 16010KT 9999 FEW015 SCT035 27/20 Q1012 NOSIG,0,10,0,10000,0,0,0,
2026-03-28 04:30:00,METAR VHHH 280430Z 15008KT 9999 FEW015 SCT035 27/20 Q1012 NOSIG,0,8,0,10000,0,0,0,
2026-03-28 04:00:00,METAR VHHH 280400Z 16008KT 110V180 9999 FEW015 SCT035 27/20 Q1012 NOSIG,0,8,0,10000,0,0,0,
2026-03-28 03:30:00,METAR VHHH 280330Z 15008KT 9999 FEW015 SCT035 27/20 Q1013 NOSIG,0,8,0,10000,0,0,0,
2026-03-28 03:00:00,METAR VHHH 280300Z 14008KT 100V180 9999 FEW015 SCT040 27/20 Q1013 NOSIG,0,8,0,10000,0,0,0,
2026-03-28 02:30:00,METAR VHHH 280230Z 16009KT 120V180 9999 FEW015 28/20 Q1013 NOSIG,0,9,0,10000,0,0,0,
2026-03-28 02:00:00,METAR VHHH 280200Z 12009KT 090V200 9999 FEW015 SCT040 27/20 Q1013 NOSIG,0,9,0,10000,0,0,0,
2026-03-28 01:30:00,METAR VHHH 280130Z 10010KT 9999 FEW012 SCT040 27/20 Q1013 NOSIG,0,10,0,10000,0,0,0,
2026-03-28 01:00:00,METAR VHHH 280100Z 10008KT 9999 FEW010 SCT040 26/20 Q1013 NOSIG,0,8,0,10000,0,0,0,
2026-03-28 00:30:00,METAR VHHH 280030Z 12007KT 9999 FEW008 SCT040 26/21 Q1012 NOSIG,0,7,0,10000,0,0,0,
2026-03-28 00:00:00,METAR VHHH 280000Z 10007KT 9999 FEW008 SCT040 25/21 Q1012 NOSIG,0,7,0,10000,0,0,0,
2026-03-27 23:30:00,METAR VHHH 272330Z 12008KT 090V150 9999 FEW008 25/21 Q1012 NOSIG,0,8,0,10000,0,0,0,
2026-03-27 23:00:00,METAR VHHH 272300Z 12008KT 080V150 9999 FEW008 24/21 Q1011 NOSIG,0,8,0,10000,0,0,0,
2026-03-27 22:30:00,METAR VHHH 272230Z 10006KT 040V190 9999 FEW008 24/21 Q1011 NOSIG,0,6,0,10000,0,0,0,
2026-03-27 22:00:00,METAR VHHH 272200Z 11006KT 080V140 9999 FEW008 SCT022 24/22 Q1011 NOSIG,0,6,0,10000,0,0,0,
2026-03-27 21:30:00,METAR VHHH 272130Z 10006KT 9999 FEW008 SCT022 24/21 Q1011 NOSIG,0,6,0,10000,0,0,0,
2026-03-27 21:00:00,METAR VHHH 272100Z 09006KT 010V120 9999 FEW008 SCT022 24/22 Q1011 NOSIG,0,6,0,10000,0,0,0,
2026-03-27 20:30:00,METAR VHHH 272030Z 10006KT 9999 FEW008 SCT022 24/22 Q1010 NOSIG,0,6,0,10000,0,0,0,
2026-03-27 20:00:00,METAR VHHH 272000Z 11007KT 9999 FEW008 SCT022 24/22 Q1010 NOSIG,0,7,0,10000,0,0,0,
2026-03-27 19:30:00,METAR VHHH 271930Z 10007KT 080V140 9999 FEW008 SCT022 25/21 Q1010 NOSIG,0,7,0,10000,0,0,0,
2026-03-27 19:00:00,METAR VHHH 271900Z 10008KT 050V140 9999 FEW008 SCT022 25/22 Q1010 NOSIG,0,8,0,10000,0,0,0,
2026-03-27 18:30:00,METAR VHHH 271830Z 11008KT 9999 FEW008 SCT022 25/22 Q1010 NOSIG,0,8,0,10000,0,0,0,
2026-03-27 18:00:00,METAR VHHH 271800Z 10010KT 9999 FEW008 SCT022 24/22 Q1011 NOSIG,0,10,0,10000,0,0,0,
2026-03-27 17:30:00,METAR VHHH 271730Z 10011KT 9999 FEW008 SCT025 24/21 Q1011 NOSIG,0,11,0,10000,0,0,0,
2026-03-27 17:00:00,METAR VHHH 271700Z 10009KT 9999 FEW010 SCT025 25/21 Q1011 NOSIG,0,9,0,10000,0,0,0,
2026-03-27 16:30:00,METAR VHHH 271630Z 11006KT 090V150 9999 FEW010 SCT025 25/22 Q1011 NOSIG,0,6,0,10000,0,0,0,
2026-03-27 16:00:00,METAR VHHH 271600Z 10007KT 9999 -SHRA FEW010 SCT022 25/21 Q1012 NOSIG,0,7,0,10000,0,0,0,RA
2026-03-25 15:00:00,METAR VHHH 251500Z 07006KT CAVOK 25/20 Q1012 NOSIG,1,0,0,9999,0,0,0,
2026-03-25 14:30:00,METAR VHHH 251430Z 07005KT CAVOK 26/19 Q1012 NOSIG,1,0,0,9999,0,0,0,
2026-03-25 14:00:00,METAR VHHH 251400Z 03004KT 360V070 CAVOK 25/19 Q1013 NOSIG,1,0,0,9999,0,0,0,
2026-03-25 13:30:00,METAR VHHH 251330Z 03003KT 9999 FEW025 25/19 Q1012 NOSIG,0,3,0,10000,0,0,0,
2026-03-25 13:00:00,METAR VHHH 251300Z 07004KT 9999 FEW025 25/19 Q1012 NOSIG,0,4,0,10000,0,0,0,
2026-03-25 12:30:00,METAR VHHH 251230Z 08005KT 9999 FEW025 26/20 Q1012 NOSIG,0,5,0,10000,0,0,0,
2026-03-25 12:00:00,METAR VHHH 251200Z 35006KT 310V030 9999 FEW025 26/19 Q1012 NOSIG,0,6,0,10000,0,0,0,
2026-03-25 11:30:00,METAR VHHH 251130Z 30006KT 270V360 9999 FEW025 26/21 Q1012 BECMG 11010KT,0,6,0,10000,0,0,0,
2026-03-25 11:00:00,METAR VHHH 251100Z 23006KT 100V270 9999 FEW025 26/20 Q1011 BECMG 11010KT,0,6,0,10000,0,0,0,
2026-03-25 10:30:00,METAR VHHH 251030Z 04008KT 9999 FEW025 27/21 Q1011 NOSIG,0,8,0,10000,0,0,0,
2026-03-25 10:00:00,METAR VHHH 251000Z 06007KT 9999 FEW025 28/20 Q1011 NOSIG,0,7,0,10000,0,0,0,
2026-03-25 09:30:00,METAR VHHH 250930Z 04005KT 9999 FEW025 28/20 Q1011 NOSIG,0,5,0,10000,0,0,0,
2026-03-25 09:08:00,SPECI VHHH 250908Z 07010KT 9999 FEW025 28/19 Q1010 NOSIG,0,10,0,10000,0,0,0,
2026-03-25 09:00:00,METAR VHHH 250900Z 22007KT 9999 FEW025 28/19 Q1010 BECMG 12010KT,0,7,0,10000,0,0,0,
2026-03-25 08:30:00,METAR VHHH 250830Z 23011KT 9999 FEW025 29/19 Q1010 NOSIG,0,11,0,10000,0,0,0,
2026-03-25 08:00:00,METAR VHHH 250800Z 23010KT 9999 FEW025 29/19 Q1011 NOSIG,0,10,0,10000,0,0,0,
2026-03-25 07:30:00,METAR VHHH 250730Z 23010KT 9999 FEW018 29/19 Q1011 NOSIG,0,10,0,10000,0,0,0,
2026-03-25 07:00:00,METAR VHHH 250700Z 25008KT 220V280 9999 FEW018 29/18 Q1011 NOSIG,0,8,0,10000,0,0,0,
2026-03-25 06:30:00,METAR VHHH 250630Z 27007KT 9999 FEW018 29/18 Q1011 NOSIG,0,7,0,10000,0,0,0,
2026-03-25 06:00:00,METAR VHHH 250600Z 27008KT 9999 FEW018 28/18 Q1012 NOSIG,0,8,0,10000,0,0,0,
2026-03-25 05:30:00,METAR VHHH 250530Z 25008KT 220V290 9999 FEW018 28/19 Q1012 NOSIG,0,8,0,10000,0,0,0,
2026-03-25 05:00:00,METAR VHHH 250500Z 27008KT 9999 FEW018 27/20 Q1013 NOSIG,0,8,0,10000,0,0,0,
2026-03-25 04:30:00,METAR VHHH 250430Z 27007KT 9999 FEW018 27/21 Q1013 NOSIG,0,7,0,10000,0,0,0,
2026-03-25 04:00:00,METAR VHHH 250400Z 29006KT 9999 FEW018 27/20 Q1013 NOSIG,0,6,0,10000,0,0,0,
2026-03-25 03:30:00,METAR VHHH 250330Z 29005KT 9999 FEW018 27/20 Q1014 NOSIG,0,5,0,10000,0,0,0,
2026-03-25 03:00:00,METAR VHHH 250300Z 29004KT 9999 FEW020 28/20 Q1014 NOSIG,0,4,0,10000,0,0,0,
2026-03-25 02:30:00,METAR VHHH 250230Z 29004KT 9999 FEW020 27/20 Q1014 NOSIG,0,4,0,10000,0,0,0,
2026-03-25 02:00:00,METAR VHHH 250200Z 29004KT 9999 FEW018 26/20 Q1014 NOSIG,0,4,0,10000,0,0,0,
2026-03-25 01:30:00,METAR VHHH 250130Z 31003KT 9999 FEW015 26/20 Q1014 NOSIG,0,3,0,10000,0,0,0,
2026-03-25 01:00:00,METAR VHHH 250100Z VRB02KT 9999 FEW015 26/20 Q1014 BECMG 26010KT,0,2,0,10000,0,0,0,
2026-03-25 00:30:00,METAR VHHH 250030Z VRB02KT 9999 FEW006 25/20 Q1014 NOSIG,0,2,0,10000,0,0,0,
2026-03-25 00:00:00,METAR VHHH 250000Z VRB02KT 9999 FEW006 25/20 Q1014 NOSIG,0,2,0,10000,0,0,0,
2026-03-24 23:30:00,METAR VHHH 242330Z 07002KT 9999 FEW007 24/19 Q1013 NOSIG,0,2,0,10000,0,0,0,
2026-03-24 23:00:00,METAR VHHH 242300Z 09003KT 9999 FEW007 23/19 Q1013 NOSIG,0,3,0,10000,0,0,0,
2026-03-24 22:30:00,METAR VHHH 242230Z 11002KT 9999 FEW007 22/19 Q1013 NOSIG,0,2,0,10000,0,0,0,
2026-03-24 22:00:00,METAR VHHH 242200Z 08003KT 9999 FEW010 22/19 Q1012 NOSIG,0,3,0,10000,0,0,0,
2026-03-24 21:30:00,METAR VHHH 242130Z 05002KT 9999 FEW010 23/19 Q1012 NOSIG,0,2,0,10000,0,0,0,
2026-03-24 21:00:00,METAR VHHH 242100Z VRB01KT 9999 FEW010 23/19 Q1012 NOSIG,0,1,0,10000,0,0,0,
2026-03-24 20:30:00,METAR VHHH 242030Z 00000KT 9999 FEW010 23/19 Q1012 NOSIG,0,0,0,10000,0,0,0,
2026-03-24 20:00:00,METAR VHHH 242000Z 10002KT 9999 FEW010 23/19 Q1012 NOSIG,0,2,0,10000,0,0,0,
2026-03-24 19:30:00,METAR VHHH 241930Z 10003KT 9999 FEW010 23/19 Q1012 NOSIG,0,3,0,10000,0,0,0,
2026-03-24 19:00:00,METAR VHHH 241900Z 10003KT 9999 FEW010 23/19 Q1012 NOSIG,0,3,0,10000,0,0,0,
2026-03-24 18:30:00,METAR VHHH 241830Z 08004KT 9999 FEW010 23/19 Q1012 NOSIG,0,4,0,10000,0,0,0,
2026-03-24 18:00:00,METAR VHHH 241800Z 08005KT 9999 FEW010 23/20 Q1012 NOSIG,0,5,0,10000,0,0,0,
2026-03-24 17:30:00,METAR VHHH 241730Z 08005KT 9999 FEW010 23/21 Q1012 NOSIG,0,5,0,10000,0,0,0,
2026-03-24 17:00:00,METAR VHHH 241700Z 08006KT 9999 FEW010 24/21 Q1012 NOSIG,0,6,0,10000,0,0,0,
2026-03-24 16:30:00,METAR VHHH 241630Z 07007KT 9999 FEW010 24/21 Q1012 NOSIG,0,7,0,10000,0,0,0,
2026-03-24 16:00:00,METAR VHHH 241600Z 08009KT 9999 FEW010 24/21 Q1012 NOSIG,0,9,0,10000,0,0,0,
2026-03-24 15:30:00,METAR VHHH 241530Z 07008KT 9999 FEW010 24/21 Q1013 NOSIG,0,8,0,10000,0,0,0,
2026-03-24 15:00:00,METAR VHHH 241500Z 10008KT 9999 FEW010 24/20 Q1013 NOSIG,0,8,0,10000,0,0,0,
2026-03-24 14:30:00,METAR VHHH 241430Z 09008KT 9999 FEW010 24/20 Q1013 NOSIG,0,8,0,10000,0,0,0,
2026-03-24 14:00:00,METAR VHHH 241400Z 08007KT 9999 FEW010 24/20 Q1013 NOSIG,0,7,0,10000,0,0,0,
2026-03-24 13:30:00,METAR VHHH 241330Z 08007KT 9999 FEW010 24/20 Q1013 NOSIG,0,7,0,10000,0,0,0,
2026-03-24 13:00:00,METAR VHHH 241300Z 07006KT 9999 FEW010 25/20 Q1012 NOSIG,0,6,0,10000,0,0,0,
2026-03-24 12:30:00,METAR VHHH 241230Z 07006KT 9999 FEW010 25/19 Q1012 NOSIG,0,6,0,10000,0,0,0,
2026-03-24 12:00:00,METAR VHHH 241200Z 07004KT 9999 FEW010 25/19 Q1012 NOSIG,0,4,0,10000,0,0,0,
2026-03-24 11:30:00,METAR VHHH 241130Z 07004KT 9999 FEW010 25/19 Q1011 NOSIG,0,4,0,10000,0,0,0,
2026-03-24 11:00:00,METAR VHHH 241100Z 02004KT 300V050 9999 FEW010 26/20 Q1011 NOSIG,0,4,0,10000,0,0,0,
2026-03-24 10:30:00,METAR VHHH 241030Z 35003KT 240V050 9999 FEW010 26/19 Q1011 NOSIG,0,3,0,10000,0,0,0,
2026-03-24 10:00:00,METAR VHHH 241000Z 05004KT 330V080 9999 FEW010 26/19 Q1011 NOSIG,0,4,0,10000,0,0,0,
2026-03-24 09:30:00,METAR VHHH 240930Z 17005KT 130V260 9999 FEW010 27/19 Q1011 BECMG 08010KT,0,5,0,10000,0,0,0,
2026-03-24 09:26:00,SPECI VHHH 240926Z 15007KT 130V190 9999 FEW025 27/19 Q1011 BECMG 08010KT,0,7,0,10000,0,0,0,
2026-03-24 09:00:00,METAR VHHH 240900Z 23010KT 9999 FEW025 27/19 Q1011 BECMG 08010KT,0,10,0,10000,0,0,0,
2026-03-24 08:52:00,SPECI VHHH 240852Z 24010KT 9999 FEW025 27/19 Q1011 BECMG 08010KT,0,10,0,10000,0,0,0,
2026-03-24 08:30:00,METAR VHHH 240830Z 30005KT 270V010 9999 FEW025 28/18 Q1011 BECMG 08010KT,0,5,0,10000,0,0,0,
2026-03-24 08:00:00,METAR VHHH 240800Z 04004KT 360V080 9999 FEW025 27/19 Q1011 NOSIG,0,4,0,10000,0,0,0,
2026-03-24 07:30:00,METAR VHHH 240730Z 08006KT 050V140 9999 FEW025 28/19 Q1011 NOSIG,0,6,0,10000,0,0,0,
2026-03-24 07:00:00,METAR VHHH 240700Z 14004KT 060V150 9999 FEW025 27/19 Q1011 NOSIG,0,4,0,10000,0,0,0,
2026-03-24 06:30:00,METAR VHHH 240630Z 29004KT 220V330 9999 FEW025 SCT040 27/20 Q1011 NOSIG,0,4,0,10000,0,0,0,
2026-03-24 06:00:00,METAR VHHH 240600Z 29005KT 9999 FEW020 SCT045 27/19 Q1012 NOSIG,0,5,0,10000,0,0,0,
2026-03-24 05:30:00,METAR VHHH 240530Z 30007KT 9999 FEW020 SCT045 27/20 Q1012 NOSIG,0,7,0,10000,0,0,0,
2026-03-24 05:00:00,METAR VHHH 240500Z 28006KT 9999 FEW020 SCT040 27/20 Q1013 NOSIG,0,6,0,10000,0,0,0,
2026-03-24 04:30:00,METAR VHHH 240430Z 27008KT 9999 FEW018 SCT040 27/20 Q1013 NOSIG,0,8,0,10000,0,0,0,
2026-03-24 04:00:00,METAR VHHH 240400Z 29006KT 9999 FEW018 SCT035 27/20 Q1013 WS R25R NOSIG,0,6,0,10000,0,0,0,
2026-03-24 03:30:00,METAR VHHH 240330Z VRB03KT 9999 FEW018 SCT035 26/20 Q1014 NOSIG,0,3,0,10000,0,0,0,
2026-03-24 03:00:00,METAR VHHH 240300Z 03004KT 9999 FEW018 SCT040 28/19 Q1014 NOSIG,0,4,0,10000,0,0,0,
2026-03-24 02:30:00,METAR VHHH 240230Z 07006KT 9999 FEW015 SCT040 26/19 Q1014 NOSIG,0,6,0,10000,0,0,0,
2026-03-24 02:00:00,METAR VHHH 240200Z 07005KT 9999 FEW015 SCT040 26/20 Q1014 NOSIG,0,5,0,10000,0,0,0,
2026-03-24 01:30:00,METAR VHHH 240130Z 09005KT 9999 FEW015 SCT040 25/20 Q1014 NOSIG,0,5,0,10000,0,0,0,
2026-03-24 01:00:00,METAR VHHH 240100Z 07005KT 040V100 9999 FEW015 SCT035 25/20 Q1014 NOSIG,0,5,0,10000,0,0,0,
2026-03-24 00:30:00,METAR VHHH 240030Z 06005KT 9999 FEW015 SCT030 24/20 Q1014 NOSIG,0,5,0,10000,0,0,0,
2026-03-24 00:00:00,METAR VHHH 240000Z 08006KT 9999 FEW012 SCT030 24/20 Q1014 NOSIG,0,6,0,10000,0,0,0,
2026-03-23 23:30:00,METAR VHHH 232330Z 09007KT 9999 FEW008 SCT030 23/20 Q1013 NOSIG,0,7,0,10000,0,0,0,
2026-03-23 23:00:00,METAR VHHH 232300Z 10007KT 9999 FEW008 23/20 Q1012 NOSIG,0,7,0,10000,0,0,0,
2026-03-23 22:30:00,METAR VHHH 232230Z 10008KT 9999 FEW015 23/20 Q1012 NOSIG,0,8,0,10000,0,0,0,
2026-03-23 22:00:00,METAR VHHH 232200Z 10009KT 9999 FEW015 23/20 Q1012 NOSIG,0,9,0,10000,0,0,0,
2026-03-23 21:30:00,METAR VHHH 232130Z 10009KT 9999 FEW025 23/20 Q1012 NOSIG,0,9,0,10000,0,0,0,
2026-03-23 21:00:00,METAR VHHH 232100Z 10007KT 9999 FEW025 23/19 Q1011 NOSIG,0,7,0,10000,0,0,0,
2026-03-23 20:30:00,METAR VHHH 232030Z 09007KT 9999 FEW025 23/19 Q1011 NOSIG,0,7,0,10000,0,0,0,
2026-03-23 20:00:00,METAR VHHH 232000Z 10009KT 9999 FEW025 23/19 Q1011 NOSIG,0,9,0,10000,0,0,0,
2026-03-23 19:30:00,METAR VHHH 231930Z 10008KT 9999 FEW025 23/19 Q1011 NOSIG,0,8,0,10000,0,0,0,
2026-03-23 19:00:00,METAR VHHH 231900Z 11007KT 9999 FEW025 23/19 Q1012 NOSIG,0,7,0,10000,0,0,0,
2026-03-23 18:30:00,METAR VHHH 231830Z 09008KT 9999 FEW025 23/20 Q1012 NOSIG,0,8,0,10000,0,0,0,
2026-03-23 18:00:00,METAR VHHH 231800Z 08005KT 9999 FEW025 23/19 Q1013 NOSIG,0,5,0,10000,0,0,0,
2026-03-23 17:30:00,METAR VHHH 231730Z 10006KT 9999 FEW025 23/19 Q1013 NOSIG,0,6,0,10000,0,0,0,
2026-03-23 17:00:00,METAR VHHH 231700Z 12006KT 9999 FEW025 23/19 Q1013 NOSIG,0,6,0,10000,0,0,0,
2026-03-23 16:30:00,METAR VHHH 231630Z 10005KT 9999 FEW025 23/19 Q1014 NOSIG,0,5,0,10000,0,0,0,
2026-03-23 16:00:00,METAR VHHH 231600Z 09007KT 9999 FEW025 23/19 Q1014 NOSIG,0,7,0,10000,0,0,0,
2026-03-23 15:30:00,METAR VHHH 231530Z 09007KT 9999 FEW025 23/19 Q1014 NOSIG,0,7,0,10000,0,0,0,
2026-03-23 15:00:00,METAR VHHH 231500Z 11007KT 9999 FEW020 23/19 Q1014 NOSIG,0,7,0,10000,0,0,0,
2026-03-23 14:30:00,METAR VHHH 231430Z 09004KT 070V130 9999 FEW020 23/18 Q1014 NOSIG,0,4,0,10000,0,0,0,
2026-03-23 14:00:00,METAR VHHH 231400Z 10007KT 9999 FEW020 24/19 Q1014 NOSIG,0,7,0,10000,0,0,0,
2026-03-23 13:30:00,METAR VHHH 231330Z 07007KT 9999 FEW025 24/18 Q1014 NOSIG,0,7,0,10000,0,0,0,
2026-03-23 13:00:00,METAR VHHH 231300Z 05005KT 9999 FEW025 24/18 Q1014 NOSIG,0,5,0,10000,0,0,0,
2026-03-23 12:30:00,METAR VHHH 231230Z 04005KT 9999 FEW025 24/18 Q1013 NOSIG,0,5,0,10000,0,0,0,
2026-03-23 12:00:00,METAR VHHH 231200Z VRB02KT 9999 FEW025 24/18 Q1013 NOSIG,0,2,0,10000,0,0,0,
2026-03-23 11:30:00,METAR VHHH 231130Z VRB03KT 9999 FEW025 24/18 Q1013 NOSIG,0,3,0,10000,0,0,0,
2026-03-23 11:00:00,METAR VHHH 231100Z 34003KT 300V040 9999 FEW025 24/18 Q1013 NOSIG,0,3,0,10000,0,0,0,
2026-03-23 10:30:00,METAR VHHH 231030Z 09005KT 9999 FEW025 25/18 Q1013 NOSIG,0,5,0,10000,0,0,0,
2026-03-23 10:00:00,METAR VHHH 231000Z 08004KT 9999 FEW025 25/18 Q1012 NOSIG,0,4,0,10000,0,0,0,
2026-03-23 09:30:00,METAR VHHH 230930Z 08005KT 040V120 9999 FEW025 26/19 Q1012 NOSIG,0,5,0,10000,0,0,0,
2026-03-23 09:07:00,SPECI VHHH 230907Z 13007KT 100V160 9999 FEW025 27/18 Q1012 WS R25R NOSIG,0,7,0,10000,0,0,0,
2026-03-23 09:00:00,METAR VHHH 230900Z 23010KT 9999 FEW025 27/19 Q1012 WS R25R BECMG 10010KT,0,10,0,10000,0,0,0,
2026-03-23 08:30:00,METAR VHHH 230830Z 26008KT 200V280 9999 FEW025 26/19 Q1012 NOSIG,0,8,0,10000,0,0,0,
2026-03-23 08:00:00,METAR VHHH 230800Z 24010KT 9999 FEW025 27/19 Q1012 NOSIG,0,10,0,10000,0,0,0,
2026-03-23 07:30:00,METAR VHHH 230730Z 27009KT 230V290 9999 FEW025 27/19 Q1012 NOSIG,0,9,0,10000,0,0,0,
2026-03-23 07:00:00,METAR VHHH 230700Z 26009KT 220V280 9999 FEW025 27/19 Q1012 NOSIG,0,9,0,10000,0,0,0,
2026-03-23 06:30:00,METAR VHHH 230630Z 27009KT 9999 FEW020 26/19 Q1013 NOSIG,0,9,0,10000,0,0,0,
2026-03-23 06:00:00,METAR VHHH 230600Z 28006KT 9999 FEW020 26/19 Q1013 NOSIG,0,6,0,10000,0,0,0,
2026-03-23 05:30:00,METAR VHHH 230530Z 29005KT 9999 FEW020 26/19 Q1014 NOSIG,0,5,0,10000,0,0,0,
2026-03-23 05:00:00,METAR VHHH 230500Z 27009KT 9999 FEW015 SCT025 25/19 Q1014 NOSIG,0,9,0,10000,0,0,0,
2026-03-23 04:41:00,SPECI VHHH 230441Z 27010KT 9999 FEW015 SCT025 25/19 Q1014 NOSIG,0,10,0,10000,0,0,0,
2026-03-23 04:30:00,METAR VHHH 230430Z 04004KT 330V110 9999 FEW015 SCT025 26/19 Q1014 BECMG 27010KT,0,4,0,10000,0,0,0,
2026-03-23 04:00:00,METAR VHHH 230400Z 08008KT 9999 FEW015 SCT025 25/19 Q1015 BECMG 27010KT,0,8,0,10000,0,0,0,
2026-03-23 03:30:00,METAR VHHH 230330Z 09010KT 9999 FEW015 SCT030 26/19 Q1015 BECMG 27010KT,0,10,0,10000,0,0,0,
2026-03-23 03:00:00,METAR VHHH 230300Z 09010KT 070V130 9999 FEW012 SCT030 26/19 Q1015 BECMG 27010KT,0,10,0,10000,0,0,0,
2026-03-23 02:30:00,METAR VHHH 230230Z 08009KT 9999 FEW012 SCT030 25/19 Q1015 BECMG 27010KT,0,9,0,10000,0,0,0,
2026-03-23 02:00:00,METAR VHHH 230200Z 09010KT 9999 FEW012 25/19 Q1015 BECMG 27010KT,0,10,0,10000,0,0,0,
2026-03-23 01:30:00,METAR VHHH 230130Z 09010KT 060V120 9999 FEW012 25/19 Q1015 NOSIG,0,10,0,10000,0,0,0,
2026-03-23 01:00:00,METAR VHHH 230100Z 09009KT 050V110 9999 FEW012 25/19 Q1015 NOSIG,0,9,0,10000,0,0,0,
2026-03-23 00:30:00,METAR VHHH 230030Z 09008KT 9999 FEW008 24/19 Q1015 NOSIG,0,8,0,10000,0,0,0,
2026-03-23 00:00:00,METAR VHHH 230000Z VRB02KT 9999 FEW008 23/19 Q1015 NOSIG,0,2,0,10000,0,0,0,
2026-03-22 23:30:00,METAR VHHH 222330Z 10005KT 9999 FEW008 22/19 Q1015 NOSIG,0,5,0,10000,0,0,0,
2026-03-22 23:00:00,METAR VHHH 222300Z 08003KT 9999 FEW008 22/18 Q1015 NOSIG,0,3,0,10000,0,0,0,
2026-03-22 22:30:00,METAR VHHH 222230Z 09006KT 060V140 9999 FEW010 21/18 Q1014 NOSIG,0,6,0,10000,0,0,0,
2026-03-22 22:00:00,METAR VHHH 222200Z 12005KT 060V200 9999 FEW012 22/18 Q1014 NOSIG,0,5,0,10000,0,0,0,
2026-03-22 21:30:00,METAR VHHH 222130Z 11005KT 9999 FEW012 22/18 Q1014 NOSIG,0,5,0,10000,0,0,0,
2026-03-22 21:00:00,METAR VHHH 222100Z 09006KT 060V140 9999 FEW012 21/18 Q1013 NOSIG,0,6,0,10000,0,0,0,
2026-03-22 20:30:00,METAR VHHH 222030Z 08005KT 9999 FEW012 22/19 Q1013 NOSIG,0,5,0,10000,0,0,0,
2026-03-22 20:00:00,METAR VHHH 222000Z 10007KT 9999 FEW015 22/19 Q1013 NOSIG,0,7,0,10000,0,0,0,
2026-03-22 19:30:00,METAR VHHH 221930Z 08007KT 030V120 9999 FEW015 21/17 Q1013 NOSIG,0,7,0,10000,0,0,0,
2026-03-22 19:00:00,METAR VHHH 221900Z 09006KT 9999 FEW015 22/19 Q1014 NOSIG,0,6,0,10000,0,0,0,
2026-03-22 18:30:00,METAR VHHH 221830Z 09005KT 050V140 9999 FEW020 22/18 Q1014 NOSIG,0,5,0,10000,0,0,0,
2026-03-22 18:00:00,METAR VHHH 221800Z 09005KT 9999 FEW020 22/18 Q1015 NOSIG,0,5,0,10000,0,0,0,
2026-03-22 17:30:00,METAR VHHH 221730Z 10004KT 070V130 9999 FEW020 23/18 Q1015 NOSIG,0,4,0,10000,0,0,0,
2026-03-22 17:00:00,METAR VHHH 221700Z 07007KT 9999 FEW020 23/18 Q1015 NOSIG,0,7,0,10000,0,0,0,
2026-03-22 16:30:00,METAR VHHH 221630Z 08006KT 9999 FEW020 23/18 Q1016 NOSIG,0,6,0,10000,0,0,0,
2026-03-22 16:00:00,METAR VHHH 221600Z 08008KT 9999 FEW020 23/18 Q1016 NOSIG,0,8,0,10000,0,0,0,
2026-03-22 15:30:00,METAR VHHH 221530Z 08008KT 9999 FEW020 23/18 Q1016 NOSIG,0,8,0,10000,0,0,0,
2026-03-22 15:00:00,METAR VHHH 221500Z 10008KT 9999 FEW020 23/18 Q1016 NOSIG,0,8,0,10000,0,0,0,
2026-03-22 14:30:00,METAR VHHH 221430Z 10006KT 9999 FEW025 23/18 Q1016 NOSIG,0,6,0,10000,0,0,0,
2026-03-22 14:00:00,METAR VHHH 221400Z 08006KT 9999 FEW025 23/18 Q1016 NOSIG,0,6,0,10000,0,0,0,
2026-03-22 13:30:00,METAR VHHH 221330Z VRB03KT 9999 FEW025 23/19 Q1016 NOSIG,0,3,0,10000,0,0,0,
2026-03-22 13:00:00,METAR VHHH 221300Z VRB02KT 9999 FEW025 24/18 Q1016 NOSIG,0,2,0,10000,0,0,0,
2026-03-22 12:30:00,METAR VHHH 221230Z 08007KT 9999 FEW025 24/18 Q1016 NOSIG,0,7,0,10000,0,0,0,
2026-03-22 12:00:00,METAR VHHH 221200Z 08006KT 9999 FEW025 24/18 Q1015 NOSIG,0,6,0,10000,0,0,0,
2026-03-22 11:30:00,METAR VHHH 221130Z 08009KT 9999 FEW025 24/17 Q1015 NOSIG,0,9,0,10000,0,0,0,
2026-03-22 11:00:00,METAR VHHH 221100Z 07008KT 9999 FEW025 24/17 Q1014 NOSIG,0,8,0,10000,0,0,0,
2026-03-22 10:30:00,METAR VHHH 221030Z 07008KT 9999 FEW030 25/17 Q1014 NOSIG,0,8,0,10000,0,0,0,
2026-03-22 10:00:00,METAR VHHH 221000Z 07009KT 9999 FEW025 25/17 Q1014 NOSIG,0,9,0,10000,0,0,0,
2026-03-22 09:30:00,METAR VHHH 220930Z 10007KT 060V150 9999 FEW025 26/17 Q1013 NOSIG,0,7,0,10000,0,0,0,
2026-03-22 09:00:00,METAR VHHH 220900Z 34004KT 280V030 9999 FEW030 26/17 Q1013 NOSIG,0,4,0,10000,0,0,0,
2026-03-22 08:30:00,METAR VHHH 220830Z 31003KT 9999 FEW030 27/17 Q1013 NOSIG,0,3,0,10000,0,0,0,
2026-03-22 08:00:00,METAR VHHH 220800Z 28004KT 9999 FEW025 27/18 Q1013 NOSIG,0,4,0,10000,0,0,0,
2026-03-22 07:30:00,METAR VHHH 220730Z 28005KT 9999 FEW025 26/18 Q1014 NOSIG,0,5,0,10000,0,0,0,
2026-03-22 07:00:00,METAR VHHH 220700Z 08005KT 040V130 9999 FEW020 27/18 Q1014 NOSIG,0,5,0,10000,0,0,0,
2026-03-22 06:30:00,METAR VHHH 220630Z 05007KT 9999 FEW015 27/18 Q1014 NOSIG,0,7,0,10000,0,0,0,
2026-03-22 06:00:00,METAR VHHH 220600Z 06009KT 9999 FEW015 SCT040 26/18 Q1015 NOSIG,0,9,0,10000,0,0,0,
2026-03-22 05:30:00,METAR VHHH 220530Z 07012KT 9999 FEW022 26/18 Q1015 NOSIG,0,12,0,10000,0,0,0,
2026-03-22 05:00:00,METAR VHHH 220500Z 08015KT 9999 FEW022 27/17 Q1015 NOSIG,0,15,0,10000,0,0,0,
2026-03-22 04:30:00,METAR VHHH 220430Z 09014KT 9999 FEW018 27/18 Q1016 NOSIG,0,14,0,10000,0,0,0,
2026-03-22 04:00:00,METAR VHHH 220400Z 09015KT 9999 FEW018 26/18 Q1016 NOSIG,0,15,0,10000,0,0,0,
2026-03-22 03:30:00,METAR VHHH 220330Z 09016KT 9999 FEW015 26/18 Q1016 NOSIG,0,16,0,10000,0,0,0,
2026-03-22 03:00:00,METAR VHHH 220300Z 09018KT 9999 FEW015 25/18 Q1017 NOSIG,0,18,0,10000,0,0,0,
2026-03-22 02:30:00,METAR VHHH 220230Z 10018KT 9999 FEW015 24/18 Q1017 NOSIG,0,18,0,10000,0,0,0,
2026-03-22 02:00:00,METAR VHHH 220200Z 10018KT 9999 FEW012 24/18 Q1017 NOSIG,0,18,0,10000,0,0,0,
2026-03-22 01:30:00,METAR VHHH 220130Z 09019KT 9999 FEW012 23/18 Q1017 NOSIG,0,19,0,10000,0,0,0,
2026-03-22 01:00:00,METAR VHHH 220100Z 09018KT 9999 FEW012 23/18 Q1017 NOSIG,0,18,0,10000,0,0,0,
2026-03-22 00:30:00,METAR VHHH 220030Z 09018KT 9999 FEW012 23/18 Q1016 NOSIG,0,18,0,10000,0,0,0,
2026-03-22 00:00:00,METAR VHHH 220000Z 10019KT 9999 FEW012 SCT040 22/18 Q1016 NOSIG,0,19,0,10000,0,0,0,
2026-03-21 23:30:00,METAR VHHH 212330Z 10019KT 9999 FEW010 SCT040 22/18 Q1016 NOSIG,0,19,0,10000,0,0,0,
2026-03-21 23:00:00,METAR VHHH 212300Z 10017KT 9999 FEW010 SCT022 22/18 Q1016 NOSIG,0,17,0,10000,0,0,0,
2026-03-21 22:30:00,METAR VHHH 212230Z 10015KT 9999 FEW010 SCT022 21/18 Q1015 NOSIG,0,15,0,10000,0,0,0,
2026-03-21 22:00:00,METAR VHHH 212200Z 10013KT 9999 FEW010 SCT022 22/18 Q1015 NOSIG,0,13,0,10000,0,0,0,
2026-03-21 21:30:00,METAR VHHH 212130Z 10012KT 9999 FEW010 SCT022 22/18 Q1015 NOSIG,0,12,0,10000,0,0,0,
2026-03-21 21:00:00,METAR VHHH 212100Z 10012KT 9999 FEW010 SCT022 21/18 Q1015 NOSIG,0,12,0,10000,0,0,0,
2026-03-21 20:30:00,METAR VHHH 212030Z 10015KT 9999 FEW010 SCT022 22/18 Q1015 NOSIG,0,15,0,10000,0,0,0,
2026-03-21 20:00:00,METAR VHHH 212000Z 10015KT 9999 FEW010 SCT025 21/19 Q1014 NOSIG,0,15,0,10000,0,0,0,
2026-03-21 19:30:00,METAR VHHH 211930Z 10015KT 9999 FEW015 SCT025 21/19 Q1014 NOSIG,0,15,0,10000,0,0,0,
2026-03-21 19:00:00,METAR VHHH 211900Z 10014KT 9999 FEW015 SCT025 22/19 Q1015 NOSIG,0,14,0,10000,0,0,0,
2026-03-21 18:30:00,METAR VHHH 211830Z 10015KT 9999 FEW015 SCT025 22/19 Q1015 NOSIG,0,15,0,10000,0,0,0,
2026-03-21 18:00:00,METAR VHHH 211800Z 10012KT 9999 FEW015 SCT025 22/19 Q1015 NOSIG,0,12,0,10000,0,0,0,
2026-03-21 17:30:00,METAR VHHH 211730Z 10011KT 9999 FEW015 22/18 Q1015 NOSIG,0,11,0,10000,0,0,0,
2026-03-21 17:00:00,METAR VHHH 211700Z 09010KT 9999 FEW015 22/18 Q1016 NOSIG,0,10,0,10000,0,0,0,
2026-03-21 16:30:00,METAR VHHH 211630Z 08009KT 9999 FEW015 22/19 Q1016 NOSIG,0,9,0,10000,0,0,0,
2026-03-21 16:00:00,METAR VHHH 211600Z 10013KT 9999 FEW015 22/18 Q1016 NOSIG,0,13,0,10000,0,0,0,
2026-03-21 15:30:00,METAR VHHH 211530Z 10015KT 9999 FEW015 23/19 Q1016 NOSIG,0,15,0,10000,0,0,0,
2026-03-21 15:00:00,METAR VHHH 211500Z 09013KT 9999 FEW015 22/18 Q1016 NOSIG,0,13,0,10000,0,0,0,
2026-03-21 14:30:00,METAR VHHH 211430Z 10013KT 9999 FEW015 23/18 Q1016 NOSIG,0,13,0,10000,0,0,0,
2026-03-21 14:00:00,METAR VHHH 211400Z 10013KT 9999 FEW015 SCT045 23/18 Q1016 NOSIG,0,13,0,10000,0,0,0,
2026-03-21 13:30:00,METAR VHHH 211330Z 10015KT 9999 FEW015 23/18 Q1016 NOSIG,0,15,0,10000,0,0,0,
2026-03-21 13:00:00,METAR VHHH 211300Z 10016KT 9999 FEW015 23/18 Q1016 NOSIG,0,16,0,10000,0,0,0,
2026-03-21 12:30:00,METAR VHHH 211230Z 10016KT 9999 FEW015 SCT045 22/18 Q1016 NOSIG,0,16,0,10000,0,0,0,
2026-03-21 12:00:00,METAR VHHH 211200Z 09013KT 9999 FEW014 SCT020 23/18 Q1015 NOSIG,0,13,0,10000,0,0,0,
2026-03-21 11:30:00,METAR VHHH 211130Z 09014KT 9999 FEW015 SCT025 23/19 Q1015 NOSIG,0,14,0,10000,0,0,0,
2026-03-21 11:00:00,METAR VHHH 211100Z 09013KT 9999 FEW015 SCT025 23/18 Q1015 NOSIG,0,13,0,10000,0,0,0,
2026-03-21 10:30:00,METAR VHHH 211030Z 10013KT 9999 FEW015 SCT025 23/19 Q1015 NOSIG,0,13,0,10000,0,0,0,
2026-03-21 10:00:00,METAR VHHH 211000Z 09011KT 9999 FEW015 SCT025 23/18 Q1015 NOSIG,0,11,0,10000,0,0,0,
2026-03-21 09:30:00,METAR VHHH 210930Z 10012KT 9999 FEW015 SCT025 23/18 Q1015 NOSIG,0,12,0,10000,0,0,0,
2026-03-21 09:00:00,METAR VHHH 210900Z 10012KT 9999 FEW015 SCT025 23/18 Q1015 NOSIG,0,12,0,10000,0,0,0,
2026-03-21 08:30:00,METAR VHHH 210830Z 10014KT 9999 FEW015 SCT040 24/18 Q1014 NOSIG,0,14,0,10000,0,0,0,
2026-03-21 08:00:00,METAR VHHH 210800Z 09012KT 9999 FEW015 SCT040 24/18 Q1014 NOSIG,0,12,0,10000,0,0,0,
2026-03-21 07:30:00,METAR VHHH 210730Z 09013KT 9999 FEW015 SCT040 25/18 Q1015 NOSIG,0,13,0,10000,0,0,0,
2026-03-21 07:00:00,METAR VHHH 210700Z 10014KT 9999 FEW012 SCT025 24/18 Q1015 NOSIG,0,14,0,10000,0,0,0,
2026-03-21 06:30:00,METAR VHHH 210630Z 10013KT 9999 FEW012 SCT025 24/18 Q1016 NOSIG,0,13,0,10000,0,0,0,
2026-03-21 06:00:00,METAR VHHH 210600Z 09015KT 9999 FEW012 SCT025 24/18 Q1016 NOSIG,0,15,0,10000,0,0,0,
2026-03-21 05:30:00,METAR VHHH 210530Z 10014KT 9999 FEW012 SCT025 23/18 Q1016 NOSIG,0,14,0,10000,0,0,0,
2026-03-21 05:00:00,METAR VHHH 210500Z 09014KT 9999 FEW012 SCT025 24/18 Q1017 NOSIG,0,14,0,10000,0,0,0,
2026-03-21 04:30:00,METAR VHHH 210430Z 10014KT 9999 FEW012 SCT025 23/18 Q1017 NOSIG,0,14,0,10000,0,0,0,
2026-03-21 04:00:00,METAR VHHH 210400Z 09013KT 9999 FEW012 SCT025 24/18 Q1018 NOSIG,0,13,0,10000,0,0,0,
2026-03-21 03:30:00,METAR VHHH 210330Z 09014KT 9999 FEW012 SCT025 23/18 Q1018 NOSIG,0,14,0,10000,0,0,0,
2026-03-21 03:00:00,METAR VHHH 210300Z 09015KT 9999 FEW012 SCT025 23/18 Q1018 NOSIG,0,15,0,10000,0,0,0,
2026-03-21 02:30:00,METAR VHHH 210230Z 10016KT 9999 FEW012 SCT025 22/18 Q1018 NOSIG,0,16,0,10000,0,0,0,
2026-03-21 02:00:00,METAR VHHH 210200Z 09016KT 9999 FEW012 SCT025 22/18 Q1018 WS R07L NOSIG,0,16,0,10000,0,0,0,
2026-03-21 01:30:00,METAR VHHH 210130Z 09017KT 9999 FEW012 SCT025 22/18 Q1018 NOSIG,0,17,0,10000,0,0,0,
2026-03-21 01:00:00,METAR VHHH 210100Z 10018KT 9999 FEW012 SCT025 22/18 Q1017 NOSIG,0,18,0,10000,0,0,0,
2026-03-21 00:30:00,METAR VHHH 210030Z 10016KT 9999 FEW012 SCT025 22/18 Q1017 NOSIG,0,16,0,10000,0,0,0,
2026-03-21 00:00:00,METAR VHHH 210000Z 10016KT 9999 FEW012 SCT025 22/18 Q1017 NOSIG,0,16,0,10000,0,0,0,
2026-03-20 23:30:00,METAR VHHH 202330Z 10014KT 9999 FEW012 SCT025 22/18 Q1017 NOSIG,0,14,0,10000,0,0,0,
2026-03-20 23:00:00,METAR VHHH 202300Z 10016KT 9999 FEW012 SCT025 22/18 Q1016 NOSIG,0,16,0,10000,0,0,0,
2026-03-20 22:30:00,METAR VHHH 202230Z 10013KT 360V140 9999 FEW012 SCT030 22/18 Q1016 NOSIG,0,13,0,10000,0,0,0,
2026-03-20 22:00:00,METAR VHHH 202200Z 09014KT 9999 FEW010 SCT030 22/19 Q1016 NOSIG,0,14,0,10000,0,0,0,
2026-03-20 21:30:00,METAR VHHH 202130Z 09013KT 060V120 9999 FEW010 SCT030 22/19 Q1015 NOSIG,0,13,0,10000,0,0,0,
2026-03-20 21:00:00,METAR VHHH 202100Z 09014KT 9999 FEW010 SCT030 22/19 Q1015 NOSIG,0,14,0,10000,0,0,0,
2026-03-20 20:30:00,METAR VHHH 202030Z 08015KT 040V120 9999 FEW010 SCT045 22/19 Q1015 NOSIG,0,15,0,10000,0,0,0,
2026-03-20 20:00:00,METAR VHHH 202000Z 09013KT 9999 FEW010 SCT045 22/19 Q1015 NOSIG,0,13,0,10000,0,0,0,
2026-03-20 19:30:00,METAR VHHH 201930Z 10013KT 9999 FEW012 SCT045 22/19 Q1015 NOSIG,0,13,0,10000,0,0,0,
2026-03-20 19:00:00,METAR VHHH 201900Z 10011KT 9999 FEW012 SCT045 23/19 Q1015 NOSIG,0,11,0,10000,0,0,0,
2026-03-20 18:30:00,METAR VHHH 201830Z 10011KT 020V140 9999 FEW010 SCT022 22/20 Q1015 NOSIG,0,11,0,10000,0,0,0,
2026-03-20 18:00:00,METAR VHHH 201800Z 09012KT 9999 FEW010 SCT022 23/20 Q1015 NOSIG,0,12,0,10000,0,0,0,
2026-03-20 17:30:00,METAR VHHH 201730Z 09011KT 9999 FEW010 SCT022 23/20 Q1016 NOSIG,0,11,0,10000,0,0,0,
2026-03-20 17:00:00,METAR VHHH 201700Z 10012KT 9999 FEW010 SCT025 23/20 Q1016 NOSIG,0,12,0,10000,0,0,0,
2026-03-20 16:30:00,METAR VHHH 201630Z 10011KT 9999 FEW010 SCT025 23/20 Q1016 NOSIG,0,11,0,10000,0,0,0,
2026-03-20 16:00:00,METAR VHHH 201600Z 10010KT 9999 FEW010 SCT025 23/20 Q1016 NOSIG,0,10,0,10000,0,0,0,
2026-03-20 15:30:00,METAR VHHH 201530Z 09009KT 9999 FEW010 SCT022 23/19 Q1016 NOSIG,0,9,0,10000,0,0,0,
2026-03-20 15:00:00,METAR VHHH 201500Z 09009KT 9999 FEW010 SCT020 23/19 Q1016 NOSIG,0,9,0,10000,0,0,0,
2026-03-20 14:30:00,METAR VHHH 201430Z 09009KT 9999 FEW010 SCT020 23/19 Q1016 NOSIG,0,9,0,10000,0,0,0,
2026-03-20 14:00:00,METAR VHHH 201400Z 11013KT 9999 FEW010 SCT020 23/19 Q1016 NOSIG,0,13,0,10000,0,0,0,
2026-03-20 13:30:00,METAR VHHH 201330Z 11014KT 9999 FEW010 SCT025 23/19 Q1015 NOSIG,0,14,0,10000,0,0,0,
2026-03-20 13:00:00,METAR VHHH 201300Z 10012KT 9999 FEW010 SCT025 23/19 Q1016 NOSIG,0,12,0,10000,0,0,0,
2026-03-20 12:30:00,METAR VHHH 201230Z 11012KT 9999 FEW010 SCT020 23/19 Q1015 NOSIG,0,12,0,10000,0,0,0,
2026-03-20 12:00:00,METAR VHHH 201200Z 11012KT 9999 FEW010 SCT020 23/19 Q1015 NOSIG,0,12,0,10000,0,0,0,
2026-03-20 11:30:00,METAR VHHH 201130Z 10011KT 9999 FEW010 SCT020 23/19 Q1014 NOSIG,0,11,0,10000,0,0,0,
2026-03-20 11:00:00,METAR VHHH 201100Z 10010KT 9999 FEW010 SCT020 23/19 Q1014 NOSIG,0,10,0,10000,0,0,0,
2026-03-20 10:30:00,METAR VHHH 201030Z 10013KT 9999 FEW010 SCT025 23/19 Q1014 NOSIG,0,13,0,10000,0,0,0,
2026-03-20 10:00:00,METAR VHHH 201000Z 10012KT 9999 FEW012 SCT025 24/19 Q1014 NOSIG,0,12,0,10000,0,0,0,
2026-03-20 09:30:00,METAR VHHH 200930Z 10012KT 9999 FEW012 SCT025 24/19 Q1013 NOSIG,0,12,0,10000,0,0,0,
2026-03-20 09:00:00,METAR VHHH 200900Z 10014KT 9999 FEW012 25/19 Q1013 NOSIG,0,14,0,10000,0,0,0,
2026-03-20 08:30:00,METAR VHHH 200830Z 10015KT 9999 FEW012 25/19 Q1013 NOSIG,0,15,0,10000,0,0,0,
2026-03-20 08:00:00,METAR VHHH 200800Z 10014KT 080V140 9999 FEW012 24/19 Q1013 WS R07L NOSIG,0,14,0,10000,0,0,0,
2026-03-20 07:30:00,METAR VHHH 200730Z 10012KT 070V130 9999 FEW012 25/19 Q1014 NOSIG,0,12,0,10000,0,0,0,
2026-03-20 07:00:00,METAR VHHH 200700Z 10017KT 9999 FEW012 SCT025 25/19 Q1013 NOSIG,0,17,0,10000,0,0,0,
2026-03-20 06:30:00,METAR VHHH 200630Z 10019KT 9999 FEW012 SCT025 26/19 Q1013 NOSIG,0,19,0,10000,0,0,0,
2026-03-20 06:00:00,METAR VHHH 200600Z 10016KT 9999 FEW012 SCT025 27/18 Q1014 WS ALL RWY NOSIG,0,16,0,10000,0,0,0,
2026-03-20 05:30:00,METAR VHHH 200530Z 10016KT 9999 FEW012 SCT025 26/18 Q1014 WS R07R NOSIG,0,16,0,10000,0,0,0,
2026-03-20 05:00:00,METAR VHHH 200500Z 09017KT 9999 FEW010 25/18 Q1015 NOSIG,0,17,0,10000,0,0,0,
2026-03-20 04:30:00,METAR VHHH 200430Z 09017KT 9999 FEW010 SCT025 25/18 Q1015 NOSIG,0,17,0,10000,0,0,0,
2026-03-20 04:00:00,METAR VHHH 200400Z 09017KT 9999 FEW010 SCT025 24/18 Q1016 NOSIG,0,17,0,10000,0,0,0,
2026-03-20 03:30:00,METAR VHHH 200330Z 10017KT 9999 FEW010 SCT025 23/18 Q1016 NOSIG,0,17,0,10000,0,0,0,
2026-03-20 03:00:00,METAR VHHH 200300Z 09017KT 9999 FEW010 SCT025 23/18 Q1017 NOSIG,0,17,0,10000,0,0,0,
2026-03-20 02:30:00,METAR VHHH 200230Z 09017KT 9999 FEW010 23/18 Q1017 NOSIG,0,17,0,10000,0,0,0,
2026-03-20 02:00:00,METAR VHHH 200200Z 10019KT 9999 FEW010 SCT018 22/18 Q1017 NOSIG,0,19,0,10000,0,0,0,
2026-03-20 01:30:00,METAR VHHH 200130Z 10017KT 9999 FEW010 SCT018 22/18 Q1016 NOSIG,0,17,0,10000,0,0,0,
2026-03-20 01:00:00,METAR VHHH 200100Z 11016KT 9999 FEW010 SCT018 22/18 Q1016 NOSIG,0,16,0,10000,0,0,0,
2026-03-20 00:30:00,METAR VHHH 200030Z 10018KT 9999 FEW010 SCT018 22/18 Q1016 NOSIG,0,18,0,10000,0,0,0,
2026-03-20 00:00:00,METAR VHHH 200000Z 10017KT 9999 FEW010 SCT018 22/18 Q1016 NOSIG,0,17,0,10000,0,0,0,
2026-03-19 23:30:00,METAR VHHH 192330Z 11017KT 9999 FEW010 SCT018 22/18 Q1015 NOSIG,0,17,0,10000,0,0,0,
2026-03-19 23:00:00,METAR VHHH 192300Z 10017KT 9999 FEW010 SCT020 21/18 Q1015 NOSIG,0,17,0,10000,0,0,0,
2026-03-19 22:30:00,METAR VHHH 192230Z 10014KT 9999 FEW010 SCT020 22/18 Q1014 NOSIG,0,14,0,10000,0,0,0,
2026-03-19 22:00:00,METAR VHHH 192200Z 09016KT 9999 FEW008 SCT020 21/18 Q1014 NOSIG,0,16,0,10000,0,0,0,
2026-03-19 21:30:00,METAR VHHH 192130Z 10015KT 9999 FEW008 SCT020 21/19 Q1013 NOSIG,0,15,0,10000,0,0,0,
2026-03-19 21:00:00,METAR VHHH 192100Z 10013KT 9999 FEW008 SCT020 22/19 Q1013 NOSIG,0,13,0,10000,0,0,0,
2026-03-19 20:30:00,METAR VHHH 192030Z 11012KT 9999 FEW010 SCT020 22/19 Q1013 NOSIG,0,12,0,10000,0,0,0,
2026-03-19 20:00:00,METAR VHHH 192000Z 11013KT 9999 FEW010 SCT020 22/19 Q1013 NOSIG,0,13,0,10000,0,0,0,
2026-03-19 19:30:00,METAR VHHH 191930Z 10011KT 9999 FEW010 SCT020 22/19 Q1013 NOSIG,0,11,0,10000,0,0,0,
2026-03-19 19:00:00,METAR VHHH 191900Z 11010KT 9999 FEW010 SCT020 22/19 Q1014 NOSIG,0,10,0,10000,0,0,0,
2026-03-19 18:30:00,METAR VHHH 191830Z 10013KT 9999 -RA FEW010 SCT020 23/20 Q1014 NOSIG,0,13,0,10000,0,0,0,-RA
2026-03-19 18:00:00,METAR VHHH 191800Z 09011KT 9999 FEW012 SCT022 23/20 Q1014 NOSIG,0,11,0,10000,0,0,0,
2026-03-19 17:30:00,METAR VHHH 191730Z 10008KT 9999 FEW011 SCT022 23/20 Q1014 NOSIG,0,8,0,10000,0,0,0,
2026-03-19 17:00:00,METAR VHHH 191700Z 11009KT 9999 FEW018 SCT025 24/20 Q1014 NOSIG,0,9,0,10000,0,0,0,
2026-03-19 16:30:00,METAR VHHH 191630Z 11008KT 9999 FEW018 SCT028 24/20 Q1014 NOSIG,0,8,0,10000,0,0,0,
2026-03-19 16:00:00,METAR VHHH 191600Z 11011KT 9999 FEW018 SCT025 24/20 Q1014 NOSIG,0,11,0,10000,0,0,0,
2026-03-19 15:30:00,METAR VHHH 191530Z 12010KT 9999 FEW018 SCT025 24/20 Q1014 NOSIG,0,10,0,10000,0,0,0,
2026-03-19 15:00:00,METAR VHHH 191500Z 11011KT 9999 FEW018 SCT025 24/20 Q1014 NOSIG,0,11,0,10000,0,0,0,
2026-03-19 14:30:00,METAR VHHH 191430Z 11009KT 9999 FEW020 24/19 Q1014 NOSIG,0,9,0,10000,0,0,0,
2026-03-19 14:00:00,METAR VHHH 191400Z 11009KT 9999 FEW020 24/19 Q1014 NOSIG,0,9,0,10000,0,0,0,
2026-03-19 13:30:00,METAR VHHH 191330Z 11008KT 9999 FEW020 24/18 Q1014 NOSIG,0,8,0,10000,0,0,0,
2026-03-19 13:00:00,METAR VHHH 191300Z 12007KT CAVOK 24/18 Q1014 NOSIG,1,0,0,9999,0,0,0,
2026-03-19 12:30:00,METAR VHHH 191230Z 11005KT CAVOK 24/17 Q1014 NOSIG,1,0,0,9999,0,0,0,
2026-03-19 12:00:00,METAR VHHH 191200Z 10007KT CAVOK 25/17 Q1013 NOSIG,1,0,0,9999,0,0,0,
2026-03-19 11:30:00,METAR VHHH 191130Z 11007KT 080V150 CAVOK 25/17 Q1013 NOSIG,1,0,0,9999,0,0,0,
2026-03-19 11:00:00,METAR VHHH 191100Z VRB05KT CAVOK 25/16 Q1012 BECMG 08010KT,1,0,0,9999,0,0,0,
2026-03-19 10:30:00,METAR VHHH 191030Z 19004KT 140V250 9999 FEW025 26/15 Q1012 BECMG 08010KT,0,4,0,10000,0,0,0,
2026-03-19 10:00:00,METAR VHHH 191000Z 22009KT 9999 FEW025 26/15 Q1012 BECMG 08010KT,0,9,0,10000,0,0,0,
2026-03-19 09:30:00,METAR VHHH 190930Z 23010KT 9999 FEW035 27/15 Q1012 BECMG 08010KT,0,10,0,10000,0,0,0,
2026-03-19 09:00:00,METAR VHHH 190900Z 23011KT 9999 FEW025 28/16 Q1012 NOSIG,0,11,0,10000,0,0,0,
2026-03-19 08:30:00,METAR VHHH 190830Z 25010KT 9999 FEW025 26/18 Q1012 NOSIG,0,10,0,10000,0,0,0,
2026-03-19 08:00:00,METAR VHHH 190800Z 24011KT 9999 FEW025 26/18 Q1012 NOSIG,0,11,0,10000,0,0,0,
2026-03-19 07:30:00,METAR VHHH 190730Z 25011KT 210V270 9999 FEW025 27/17 Q1012 NOSIG,0,11,0,10000,0,0,0,
2026-03-19 07:00:00,METAR VHHH 190700Z 25011KT 9999 FEW020 28/16 Q1012 NOSIG,0,11,0,10000,0,0,0,
2026-03-19 06:30:00,METAR VHHH 190630Z 24012KT 9999 FEW020 28/17 Q1013 NOSIG,0,12,0,10000,0,0,0,
2026-03-19 06:00:00,METAR VHHH 190600Z 23013KT 9999 FEW020 27/17 Q1013 NOSIG,0,13,0,10000,0,0,0,
2026-03-19 05:30:00,METAR VHHH 190530Z 24013KT 9999 FEW020 SCT035 27/18 Q1014 NOSIG,0,13,0,10000,0,0,0,
2026-03-19 05:00:00,METAR VHHH 190500Z 24014KT 9999 FEW015 27/18 Q1014 NOSIG,0,14,0,10000,0,0,0,
2026-03-19 04:30:00,METAR VHHH 190430Z 24014KT 9999 FEW015 26/18 Q1015 NOSIG,0,14,0,10000,0,0,0,
2026-03-19 04:00:00,METAR VHHH 190400Z 26011KT 9999 FEW015 26/19 Q1015 NOSIG,0,11,0,10000,0,0,0,
2026-03-19 03:30:00,METAR VHHH 190330Z 27009KT 9999 FEW010 25/20 Q1016 NOSIG,0,9,0,10000,0,0,0,
2026-03-19 03:00:00,METAR VHHH 190300Z 27008KT 9999 FEW010 25/18 Q1016 NOSIG,0,8,0,10000,0,0,0,
2026-03-19 02:30:00,METAR VHHH 190230Z 27006KT 9999 FEW015 25/18 Q1016 NOSIG,0,6,0,10000,0,0,0,
2026-03-19 02:00:00,METAR VHHH 190200Z 31003KT 280V340 9999 FEW015 26/18 Q1016 NOSIG,0,3,0,10000,0,0,0,
2026-03-19 01:30:00,METAR VHHH 190130Z VRB03KT 9999 FEW020 26/17 Q1016 NOSIG,0,3,0,10000,0,0,0,
2026-03-19 01:00:00,METAR VHHH 190100Z VRB02KT 9999 FEW020 24/17 Q1016 NOSIG,0,2,0,10000,0,0,0,
2026-03-19 00:30:00,METAR VHHH 190030Z VRB01KT 9999 FEW020 23/17 Q1016 NOSIG,0,1,0,10000,0,0,0,
2026-03-19 00:00:00,METAR VHHH 190000Z 16003KT 9999 FEW020 22/17 Q1015 NOSIG,0,3,0,10000,0,0,0,
2026-03-18 23:30:00,METAR VHHH 182330Z 36004KT CAVOK 22/19 Q1015 NOSIG,1,0,0,9999,0,0,0,
2026-03-18 23:00:00,METAR VHHH 182300Z VRB02KT CAVOK 21/16 Q1015 NOSIG,1,0,0,9999,0,0,0,
2026-03-18 22:30:00,METAR VHHH 182230Z 14003KT CAVOK 21/17 Q1014 NOSIG,1,0,0,9999,0,0,0,
2026-03-18 22:00:00,METAR VHHH 182200Z 10003KT CAVOK 21/17 Q1014 NOSIG,1,0,0,9999,0,0,0,
2026-03-18 21:30:00,METAR VHHH 182130Z VRB03KT CAVOK 21/16 Q1013 NOSIG,1,0,0,9999,0,0,0,
2026-03-18 21:00:00,METAR VHHH 182100Z 15003KT CAVOK 21/16 Q1013 NOSIG,1,0,0,9999,0,0,0,
2026-03-18 20:30:00,METAR VHHH 182030Z 08003KT CAVOK 21/16 Q1013 NOSIG,1,0,0,9999,0,0,0,
2026-03-18 20:00:00,METAR VHHH 182000Z VRB02KT CAVOK 21/16 Q1013 NOSIG,1,0,0,9999,0,0,0,
2026-03-18 19:30:00,METAR VHHH 181930Z 17003KT CAVOK 22/16 Q1013 NOSIG,1,0,0,9999,0,0,0,
2026-03-18 19:00:00,METAR VHHH 181900Z VRB03KT CAVOK 21/16 Q1014 NOSIG,1,0,0,9999,0,0,0,
2026-03-18 18:30:00,METAR VHHH 181830Z 09003KT CAVOK 22/15 Q1014 NOSIG,1,0,0,9999,0,0,0,
2026-03-18 18:00:00,METAR VHHH 181800Z 06003KT CAVOK 22/16 Q1014 NOSIG,1,0,0,9999,0,0,0,
2026-03-18 17:30:00,METAR VHHH 181730Z 08003KT CAVOK 23/16 Q1014 NOSIG,1,0,0,9999,0,0,0,
2026-03-18 17:00:00,METAR VHHH 181700Z 09004KT CAVOK 22/16 Q1014 NOSIG,1,0,0,9999,0,0,0,
2026-03-18 16:30:00,METAR VHHH 181630Z 10004KT CAVOK 23/16 Q1015 NOSIG,1,0,0,9999,0,0,0,
2026-03-18 16:00:00,METAR VHHH 181600Z 08004KT CAVOK 22/16 Q1015 NOSIG,1,0,0,9999,0,0,0,
2026-03-18 15:30:00,METAR VHHH 181530Z 09005KT CAVOK 23/17 Q1015 NOSIG,1,0,0,9999,0,0,0,
2026-03-18 15:00:00,METAR VHHH 181500Z 09005KT CAVOK 23/17 Q1015 NOSIG,1,0,0,9999,0,0,0,
2026-03-18 14:30:00,METAR VHHH 181430Z 09007KT CAVOK 23/19 Q1015 NOSIG,1,0,0,9999,0,0,0,
2026-03-18 14:00:00,METAR VHHH 181400Z 09007KT CAVOK 23/17 Q1015 NOSIG,1,0,0,9999,0,0,0,
2026-03-18 13:30:00,METAR VHHH 181330Z 08006KT CAVOK 24/18 Q1015 NOSIG,1,0,0,9999,0,0,0,
2026-03-18 13:00:00,METAR VHHH 181300Z 07005KT CAVOK 24/17 Q1015 NOSIG,1,0,0,9999,0,0,0,
2026-03-18 12:30:00,METAR VHHH 181230Z 09005KT CAVOK 24/17 Q1015 NOSIG,1,0,0,9999,0,0,0,
2026-03-18 12:00:00,METAR VHHH 181200Z 11006KT 090V150 CAVOK 24/18 Q1014 NOSIG,1,0,0,9999,0,0,0,
2026-03-18 11:30:00,METAR VHHH 181130Z 08005KT 030V100 CAVOK 24/18 Q1014 NOSIG,1,0,0,9999,0,0,0,
2026-03-18 11:00:00,METAR VHHH 181100Z 21009KT CAVOK 25/18 Q1014 WS R25R BECMG 08010KT,1,0,0,9999,0,0,0,
2026-03-18 10:30:00,METAR VHHH 181030Z 23010KT CAVOK 25/16 Q1014 BECMG 08010KT,1,0,0,9999,0,0,0,
2026-03-18 10:00:00,METAR VHHH 181000Z 24008KT 210V270 9999 FEW020 26/16 Q1013 BECMG 08010KT,0,8,0,10000,0,0,0,
2026-03-18 09:30:00,METAR VHHH 180930Z 25006KT 210V290 9999 FEW020 27/16 Q1013 BECMG 08010KT,0,6,0,10000,0,0,0,
2026-03-18 09:00:00,METAR VHHH 180900Z 01005KT 330V040 9999 FEW020 27/15 Q1013 BECMG 08010KT,0,5,0,10000,0,0,0,
2026-03-18 08:30:00,METAR VHHH 180830Z VRB04KT 9999 FEW020 27/15 Q1013 BECMG 08010KT,0,4,0,10000,0,0,0,
2026-03-18 08:00:00,METAR VHHH 180800Z 18007KT 140V220 9999 FEW020 28/16 Q1013 NOSIG,0,7,0,10000,0,0,0,
2026-03-18 07:30:00,METAR VHHH 180730Z 23012KT 9999 FEW020 28/17 Q1013 NOSIG,0,12,0,10000,0,0,0,
2026-03-18 07:00:00,METAR VHHH 180700Z 23011KT 9999 FEW020 27/17 Q1014 NOSIG,0,11,0,10000,0,0,0,
2026-03-18 06:30:00,METAR VHHH 180630Z 24010KT 9999 FEW020 26/18 Q1014 NOSIG,0,10,0,10000,0,0,0,
2026-03-18 06:00:00,METAR VHHH 180600Z 28005KT 9999 FEW020 26/18 Q1015 NOSIG,0,5,0,10000,0,0,0,
2026-03-18 05:30:00,METAR VHHH 180530Z 28005KT 9999 FEW022 26/19 Q1015 NOSIG,0,5,0,10000,0,0,0,
2026-03-18 05:00:00,METAR VHHH 180500Z 28007KT 9999 FEW022 25/19 Q1016 NOSIG,0,7,0,10000,0,0,0,
2026-03-18 04:30:00,METAR VHHH 180430Z 28006KT 9999 FEW022 25/19 Q1016 NOSIG,0,6,0,10000,0,0,0,
2026-03-18 04:00:00,METAR VHHH 180400Z 24008KT 220V290 9999 FEW022 25/18 Q1017 NOSIG,0,8,0,10000,0,0,0,
2026-03-18 03:30:00,METAR VHHH 180330Z 27007KT 9999 FEW022 25/18 Q1017 NOSIG,0,7,0,10000,0,0,0,
2026-03-18 03:00:00,METAR VHHH 180300Z 27008KT 9999 FEW022 25/19 Q1017 NOSIG,0,8,0,10000,0,0,0,
2026-03-18 02:30:00,METAR VHHH 180230Z 04004KT 9999 FEW020 25/19 Q1018 BECMG 26010KT,0,4,0,10000,0,0,0,
2026-03-18 02:00:00,METAR VHHH 180200Z 04005KT 9999 FEW020 25/18 Q1017 BECMG FM0300 26010KT,0,5,0,10000,0,0,0,
2026-03-18 01:30:00,METAR VHHH 180130Z 07006KT 9999 FEW020 25/19 Q1017 BECMG FM0300 26010KT,0,6,0,10000,0,0,0,
2026-03-18 01:00:00,METAR VHHH 180100Z 05005KT 9999 FEW020 24/18 Q1017 NOSIG,0,5,0,10000,0,0,0,
2026-03-18 00:30:00,METAR VHHH 180030Z 08006KT 9999 FEW018 23/18 Q1017 NOSIG,0,6,0,10000,0,0,0,
2026-03-18 00:00:00,METAR VHHH 180000Z 07007KT 9999 FEW015 22/18 Q1017 NOSIG,0,7,0,10000,0,0,0,
2026-03-17 23:30:00,METAR VHHH 172330Z 08008KT 9999 FEW015 21/18 Q1016 NOSIG,0,8,0,10000,0,0,0,
2026-03-17 23:00:00,METAR VHHH 172300Z 08010KT 9999 FEW015 21/18 Q1016 NOSIG,0,10,0,10000,0,0,0,
2026-03-17 22:30:00,METAR VHHH 172230Z 09010KT 9999 FEW015 21/18 Q1016 NOSIG,0,10,0,10000,0,0,0,
2026-03-17 22:00:00,METAR VHHH 172200Z 08007KT 9999 FEW020 21/18 Q1015 NOSIG,0,7,0,10000,0,0,0,
2026-03-17 21:30:00,METAR VHHH 172130Z 08008KT 9999 FEW025 21/18 Q1015 NOSIG,0,8,0,10000,0,0,0,
2026-03-17 21:00:00,METAR VHHH 172100Z 08007KT 9999 FEW025 21/18 Q1015 NOSIG,0,7,0,10000,0,0,0,
2026-03-17 20:30:00,METAR VHHH 172030Z 07007KT 9999 FEW025 21/18 Q1015 NOSIG,0,7,0,10000,0,0,0,
2026-03-17 20:00:00,METAR VHHH 172000Z 08007KT 9999 FEW025 21/18 Q1015 NOSIG,0,7,0,10000,0,0,0,
2026-03-17 19:30:00,METAR VHHH 171930Z 08005KT 9999 FEW030 21/18 Q1015 NOSIG,0,5,0,10000,0,0,0,
2026-03-17 19:00:00,METAR VHHH 171900Z 09007KT 9999 FEW030 21/18 Q1015 NOSIG,0,7,0,10000,0,0,0,
2026-03-17 18:30:00,METAR VHHH 171830Z 08007KT 9999 FEW030 21/18 Q1015 NOSIG,0,7,0,10000,0,0,0,
2026-03-17 18:00:00,METAR VHHH 171800Z 08008KT 9999 FEW030 21/18 Q1015 NOSIG,0,8,0,10000,0,0,0,
2026-03-17 17:30:00,METAR VHHH 171730Z 09009KT 9999 FEW030 21/18 Q1016 NOSIG,0,9,0,10000,0,0,0,
2026-03-17 17:00:00,METAR VHHH 171700Z 09009KT 9999 FEW030 21/18 Q1016 NOSIG,0,9,0,10000,0,0,0,
2026-03-17 16:30:00,METAR VHHH 171630Z 08007KT 9999 FEW030 22/18 Q1016 NOSIG,0,7,0,10000,0,0,0,
2026-03-17 16:00:00,METAR VHHH 171600Z 10008KT 9999 FEW020 21/18 Q1017 NOSIG,0,8,0,10000,0,0,0,
2026-03-17 15:30:00,METAR VHHH 171530Z 10010KT 9999 FEW020 21/18 Q1017 NOSIG,0,10,0,10000,0,0,0,
2026-03-17 15:00:00,METAR VHHH 171500Z 10010KT 9999 FEW020 21/18 Q1016 NOSIG,0,10,0,10000,0,0,0,
2026-03-17 14:30:00,METAR VHHH 171430Z 10011KT 9999 FEW020 21/18 Q1017 NOSIG,0,11,0,10000,0,0,0,
2026-03-17 14:00:00,METAR VHHH 171400Z 11010KT 9999 FEW018 21/18 Q1017 NOSIG,0,10,0,10000,0,0,0,
2026-03-17 13:30:00,METAR VHHH 171330Z 10012KT 9999 FEW018 21/18 Q1016 NOSIG,0,12,0,10000,0,0,0,
2026-03-17 13:00:00,METAR VHHH 171300Z 09010KT 9999 FEW018 22/18 Q1016 NOSIG,0,10,0,10000,0,0,0,
2026-03-17 12:30:00,METAR VHHH 171230Z 11011KT 9999 FEW018 22/17 Q1015 NOSIG,0,11,0,10000,0,0,0,
2026-03-17 12:00:00,METAR VHHH 171200Z 11009KT 9999 FEW018 22/18 Q1015 NOSIG,0,9,0,10000,0,0,0,
2026-03-17 11:30:00,METAR VHHH 171130Z 11007KT 9999 FEW018 23/18 Q1015 NOSIG,0,7,0,10000,0,0,0,
2026-03-17 11:00:00,METAR VHHH 171100Z 10008KT 9999 FEW018 23/18 Q1015 NOSIG,0,8,0,10000,0,0,0,
2026-03-17 10:30:00,METAR VHHH 171030Z 11008KT 9999 FEW018 23/18 Q1015 NOSIG,0,8,0,10000,0,0,0,
2026-03-17 10:00:00,METAR VHHH 171000Z 10007KT 9999 FEW018 23/18 Q1014 NOSIG,0,7,0,10000,0,0,0,
2026-03-17 09:30:00,METAR VHHH 170930Z 07006KT 9999 FEW018 24/18 Q1014 NOSIG,0,6,0,10000,0,0,0,
2026-03-17 09:00:00,METAR VHHH 170900Z 07005KT 9999 FEW018 24/18 Q1015 NOSIG,0,5,0,10000,0,0,0,
2026-03-17 08:30:00,METAR VHHH 170830Z 08005KT 9999 FEW018 SCT035 23/18 Q1015 NOSIG,0,5,0,10000,0,0,0,
2026-03-17 08:00:00,METAR VHHH 170800Z 05004KT 9999 FEW015 SCT035 22/18 Q1015 NOSIG,0,4,0,10000,0,0,0,
2026-03-17 07:30:00,METAR VHHH 170730Z 09006KT 9999 FEW015 SCT035 22/19 Q1015 NOSIG,0,6,0,10000,0,0,0,
2026-03-17 07:00:00,METAR VHHH 170700Z 08007KT 9999 FEW015 SCT035 22/19 Q1015 NOSIG,0,7,0,10000,0,0,0,
2026-03-17 06:30:00,METAR VHHH 170630Z 05004KT 020V080 9999 FEW013 SCT025 21/19 Q1016 NOSIG,0,4,0,10000,0,0,0,
2026-03-17 06:18:00,SPECI VHHH 170618Z VRB02KT 9999 -RA FEW013 SCT025 21/19 Q1016 RERA NOSIG,0,2,0,10000,0,0,0,"-RA,RA"
2026-03-17 06:00:00,METAR VHHH 170600Z 14003KT 080V190 4400 RA BR FEW013 SCT025 21/19 Q1016 TEMPO 3000 RA BR,0,3,0,4400,0,0,1,"BR,RA"
2026-03-17 05:54:00,SPECI VHHH 170554Z 10004KT 070V170 4200 RA BR FEW015 SCT025 21/19 Q1016 NOSIG,0,4,0,4200,0,0,1,"BR,RA"
2026-03-17 05:52:00,SPECI VHHH 170552Z 09004KT 070V130 3400 -RA BR FEW015 SCT025 21/19 Q1017 NOSIG,0,4,0,3400,0,0,1,"-RA,BR"
2026-03-17 05:30:00,METAR VHHH 170530Z 12006KT 9000 3700W -RA FEW015 SCT025 22/19 Q1017 NOSIG,0,6,0,9000,0,0,0,-RA
2026-03-17 05:00:00,METAR VHHH 170500Z 10012KT 9999 -RA FEW015 SCT025 22/18 Q1017 WS R07R NOSIG,0,12,0,10000,0,0,0,-RA
2026-03-17 04:30:00,METAR VHHH 170430Z 10012KT 9999 FEW015 SCT025 23/18 Q1017 NOSIG,0,12,0,10000,0,0,0,
2026-03-17 04:00:00,METAR VHHH 170400Z 10013KT 9999 FEW015 SCT025 25/18 Q1017 NOSIG,0,13,0,10000,0,0,0,
2026-03-17 03:30:00,METAR VHHH 170330Z 10011KT 9999 FEW015 SCT025 23/17 Q1017 NOSIG,0,11,0,10000,0,0,0,
2026-03-17 03:00:00,METAR VHHH 170300Z 10012KT 9999 FEW015 SCT025 23/17 Q1018 NOSIG,0,12,0,10000,0,0,0,
2026-03-17 02:30:00,METAR VHHH 170230Z 10016KT 9999 FEW015 SCT025 23/17 Q1018 NOSIG,0,16,0,10000,0,0,0,
2026-03-17 02:00:00,METAR VHHH 170200Z 10015KT 9999 FEW015 24/17 Q1018 NOSIG,0,15,0,10000,0,0,0,
2026-03-17 01:30:00,METAR VHHH 170130Z 10012KT 9999 FEW015 23/17 Q1017 NOSIG,0,12,0,10000,0,0,0,
2026-03-17 01:00:00,METAR VHHH 170100Z 09012KT 9999 FEW015 23/17 Q1017 NOSIG,0,12,0,10000,0,0,0,
2026-03-17 00:30:00,METAR VHHH 170030Z 09010KT 9999 FEW013 22/17 Q1017 NOSIG,0,10,0,10000,0,0,0,
2026-03-17 00:00:00,METAR VHHH 170000Z 10009KT 9999 FEW013 22/17 Q1017 NOSIG,0,9,0,10000,0,0,0,
2026-03-16 23:30:00,METAR VHHH 162330Z 09008KT 9999 FEW015 21/17 Q1017 NOSIG,0,8,0,10000,0,0,0,
2026-03-16 23:00:00,METAR VHHH 162300Z 10011KT 9999 FEW015 20/17 Q1016 NOSIG,0,11,0,10000,0,0,0,
2026-03-16 22:30:00,METAR VHHH 162230Z 09012KT 9999 FEW012 20/17 Q1016 NOSIG,0,12,0,10000,0,0,0,
2026-03-16 22:00:00,METAR VHHH 162200Z 09012KT 9999 FEW012 20/17 Q1016 NOSIG,0,12,0,10000,0,0,0,
2026-03-16 21:30:00,METAR VHHH 162130Z 09012KT 9999 FEW012 20/17 Q1016 NOSIG,0,12,0,10000,0,0,0,
2026-03-16 21:00:00,METAR VHHH 162100Z 09011KT 9999 FEW015 20/17 Q1016 NOSIG,0,11,0,10000,0,0,0,
2026-03-16 20:30:00,METAR VHHH 162030Z 08011KT 050V130 9999 FEW015 20/17 Q1015 NOSIG,0,11,0,10000,0,0,0,
2026-03-16 20:00:00,METAR VHHH 162000Z 08011KT 9999 FEW015 20/17 Q1015 NOSIG,0,11,0,10000,0,0,0,
2026-03-16 19:30:00,METAR VHHH 161930Z 09013KT 9999 FEW015 20/17 Q1016 NOSIG,0,13,0,10000,0,0,0,
2026-03-16 19:00:00,METAR VHHH 161900Z 09011KT 9999 FEW015 20/17 Q1016 NOSIG,0,11,0,10000,0,0,0,
2026-03-16 18:30:00,METAR VHHH 161830Z 09012KT 9999 FEW015 21/17 Q1016 NOSIG,0,12,0,10000,0,0,0,
2026-03-16 18:00:00,METAR VHHH 161800Z 09011KT 9999 FEW030 21/17 Q1017 NOSIG,0,11,0,10000,0,0,0,
2026-03-16 17:30:00,METAR VHHH 161730Z 10011KT 9999 FEW030 21/17 Q1017 NOSIG,0,11,0,10000,0,0,0,
2026-03-16 17:00:00,METAR VHHH 161700Z 10010KT 9999 FEW030 21/16 Q1018 NOSIG,0,10,0,10000,0,0,0,
2026-03-16 16:30:00,METAR VHHH 161630Z 09011KT 9999 FEW030 21/16 Q1018 NOSIG,0,11,0,10000,0,0,0,
2026-03-16 16:00:00,METAR VHHH 161600Z 11010KT 9999 FEW030 21/16 Q1018 NOSIG,0,10,0,10000,0,0,0,
2026-03-16 15:30:00,METAR VHHH 161530Z 10011KT 9999 FEW030 21/16 Q1018 NOSIG,0,11,0,10000,0,0,0,
2026-03-16 15:00:00,METAR VHHH 161500Z 11011KT 9999 FEW030 21/16 Q1018 NOSIG,0,11,0,10000,0,0,0,
2026-03-16 14:30:00,METAR VHHH 161430Z 11010KT 9999 FEW025 21/16 Q1018 NOSIG,0,10,0,10000,0,0,0,
2026-03-16 14:00:00,METAR VHHH 161400Z 12010KT 9999 FEW025 21/15 Q1018 NOSIG,0,10,0,10000,0,0,0,
2026-03-16 13:30:00,METAR VHHH 161330Z 10012KT 9999 FEW040 21/15 Q1017 NOSIG,0,12,0,10000,0,0,0,
2026-03-16 13:00:00,METAR VHHH 161300Z 10013KT 9999 FEW040 21/15 Q1017 NOSIG,0,13,0,10000,0,0,0,
2026-03-16 12:30:00,METAR VHHH 161230Z 11010KT 9999 FEW030 21/15 Q1017 NOSIG,0,10,0,10000,0,0,0,
2026-03-16 12:00:00,METAR VHHH 161200Z 11010KT 9999 FEW030 22/15 Q1017 NOSIG,0,10,0,10000,0,0,0,
2026-03-16 11:30:00,METAR VHHH 161130Z 10011KT 9999 FEW030 22/15 Q1016 NOSIG,0,11,0,10000,0,0,0,
2026-03-16 11:00:00,METAR VHHH 161100Z 12012KT 9999 FEW030 22/15 Q1016 WS R07L NOSIG,0,12,0,10000,0,0,0,
2026-03-16 10:30:00,METAR VHHH 161030Z 13009KT 9999 FEW030 23/13 Q1016 NOSIG,0,9,0,10000,0,0,0,
2026-03-16 10:00:00,METAR VHHH 161000Z 12009KT 9999 FEW030 24/12 Q1016 NOSIG,0,9,0,10000,0,0,0,
2026-03-16 09:30:00,METAR VHHH 160930Z 10010KT 9999 FEW030 25/09 Q1016 NOSIG,0,10,0,10000,0,0,0,
2026-03-16 09:00:00,METAR VHHH 160900Z 10012KT 9999 FEW030 25/11 Q1016 NOSIG,0,12,0,10000,0,0,0,
2026-03-16 08:30:00,METAR VHHH 160830Z 10009KT 9999 FEW030 25/11 Q1016 NOSIG,0,9,0,10000,0,0,0,
2026-03-16 08:00:00,METAR VHHH 160800Z 11011KT 9999 FEW030 25/11 Q1016 NOSIG,0,11,0,10000,0,0,0,
2026-03-16 07:30:00,METAR VHHH 160730Z 12011KT 9999 FEW030 26/10 Q1016 NOSIG,0,11,0,10000,0,0,0,
2026-03-16 07:00:00,METAR VHHH 160700Z 08011KT 9999 FEW030 27/10 Q1016 WS R07C NOSIG,0,11,0,10000,0,0,0,
2026-03-16 06:30:00,METAR VHHH 160630Z 09012KT 9999 FEW025 27/11 Q1017 NOSIG,0,12,0,10000,0,0,0,
2026-03-16 06:00:00,METAR VHHH 160600Z 08011KT 9999 FEW025 26/10 Q1017 WS R07L NOSIG,0,11,0,10000,0,0,0,
2026-03-16 05:30:00,METAR VHHH 160530Z 10011KT 060V130 9999 FEW025 25/10 Q1017 NOSIG,0,11,0,10000,0,0,0,
2026-03-16 05:00:00,METAR VHHH 160500Z 09012KT 060V120 9999 FEW025 25/10 Q1018 NOSIG,0,12,0,10000,0,0,0,
2026-03-16 04:30:00,METAR VHHH 160430Z 11008KT 060V190 9999 FEW025 26/11 Q1018 BECMG 27010KT,0,8,0,10000,0,0,0,
2026-03-16 04:00:00,METAR VHHH 160400Z 11012KT 9999 FEW025 24/12 Q1019 WS R07L BECMG 27010KT,0,12,0,10000,0,0,0,
2026-03-16 03:30:00,METAR VHHH 160330Z 10014KT 9999 FEW025 25/12 Q1019 BECMG 27010KT,0,14,0,10000,0,0,0,
2026-03-16 03:00:00,METAR VHHH 160300Z 09010KT 9999 FEW020 26/11 Q1019 NOSIG,0,10,0,10000,0,0,0,
2026-03-16 02:30:00,METAR VHHH 160230Z 06010KT 9999 FEW020 25/11 Q1019 NOSIG,0,10,0,10000,0,0,0,
2026-03-16 02:00:00,METAR VHHH 160200Z 07009KT 9999 FEW020 24/10 Q1019 NOSIG,0,9,0,10000,0,0,0,
2026-03-16 01:30:00,METAR VHHH 160130Z 09009KT CAVOK 23/11 Q1019 NOSIG,1,0,0,9999,0,0,0,
2026-03-16 01:00:00,METAR VHHH 160100Z 10011KT CAVOK 22/12 Q1020 NOSIG,1,0,0,9999,0,0,0,
2026-03-16 00:30:00,METAR VHHH 160030Z 09012KT CAVOK 21/12 Q1019 NOSIG,1,0,0,9999,0,0,0,
2026-03-16 00:00:00,METAR VHHH 160000Z 09010KT CAVOK 21/12 Q1019 NOSIG,1,0,0,9999,0,0,0,
2026-03-15 23:30:00,METAR VHHH 152330Z 09009KT CAVOK 20/14 Q1019 NOSIG,1,0,0,9999,0,0,0,
2026-03-15 23:00:00,METAR VHHH 152300Z 11012KT CAVOK 19/14 Q1018 NOSIG,1,0,0,9999,0,0,0,
2026-03-15 22:30:00,METAR VHHH 152230Z 10013KT 9999 FEW020 19/15 Q1018 NOSIG,0,13,0,10000,0,0,0,
2026-03-15 22:00:00,METAR VHHH 152200Z 10014KT 9999 FEW020 19/16 Q1018 NOSIG,0,14,0,10000,0,0,0,
2026-03-15 21:30:00,METAR VHHH 152130Z 10014KT 9999 FEW020 19/16 Q1018 NOSIG,0,14,0,10000,0,0,0,
2026-03-15 21:00:00,METAR VHHH 152100Z 10016KT 9999 FEW020 19/16 Q1018 NOSIG,0,16,0,10000,0,0,0,
2026-03-15 20:30:00,METAR VHHH 152030Z 10014KT 9999 FEW020 19/16 Q1018 NOSIG,0,14,0,10000,0,0,0,
2026-03-15 20:00:00,METAR VHHH 152000Z 10014KT 9999 FEW025 20/16 Q1018 NOSIG,0,14,0,10000,0,0,0,
2026-03-15 19:30:00,METAR VHHH 151930Z 10012KT 9999 FEW025 20/16 Q1018 NOSIG,0,12,0,10000,0,0,0,
2026-03-15 19:00:00,METAR VHHH 151900Z 09012KT 9999 FEW025 20/16 Q1018 NOSIG,0,12,0,10000,0,0,0,
2026-03-15 18:30:00,METAR VHHH 151830Z 09012KT 9999 FEW025 20/16 Q1019 NOSIG,0,12,0,10000,0,0,0,
2026-03-15 18:00:00,METAR VHHH 151800Z 09011KT CAVOK 20/16 Q1019 NOSIG,1,0,0,9999,0,0,0,
2026-03-15 17:30:00,METAR VHHH 151730Z 10011KT CAVOK 20/16 Q1019 NOSIG,1,0,0,9999,0,0,0,
2026-03-15 17:00:00,METAR VHHH 151700Z 11010KT CAVOK 20/15 Q1020 NOSIG,1,0,0,9999,0,0,0,
2026-03-15 16:30:00,METAR VHHH 151630Z 10010KT CAVOK 21/15 Q1020 NOSIG,1,0,0,9999,0,0,0,
2026-03-15 16:00:00,METAR VHHH 151600Z 10010KT CAVOK 21/14 Q1020 NOSIG,1,0,0,9999,0,0,0,
2026-03-15 15:30:00,METAR VHHH 151530Z 10010KT CAVOK 21/14 Q1020 NOSIG,1,0,0,9999,0,0,0,
2026-03-15 15:00:00,METAR VHHH 151500Z 10011KT CAVOK 21/14 Q1020 NOSIG,1,0,0,9999,0,0,0,
2026-03-15 14:30:00,METAR VHHH 151430Z 10010KT CAVOK 22/14 Q1020 NOSIG,1,0,0,9999,0,0,0,
2026-03-15 14:00:00,METAR VHHH 151400Z 10011KT CAVOK 22/13 Q1020 NOSIG,1,0,0,9999,0,0,0,
2026-03-15 13:30:00,METAR VHHH 151330Z 09011KT CAVOK 22/13 Q1020 NOSIG,1,0,0,9999,0,0,0,
2026-03-15 13:00:00,METAR VHHH 151300Z 09011KT CAVOK 21/14 Q1020 NOSIG,1,0,0,9999,0,0,0,
2026-03-15 12:30:00,METAR VHHH 151230Z 10011KT CAVOK 22/13 Q1020 NOSIG,1,0,0,9999,0,0,0,
2026-03-15 12:00:00,METAR VHHH 151200Z 10013KT 9999 FEW040 22/13 Q1019 NOSIG,0,13,0,10000,0,0,0,
2026-03-15 11:30:00,METAR VHHH 151130Z 10010KT 9999 FEW040 22/11 Q1019 NOSIG,0,10,0,10000,0,0,0,
2026-03-15 11:00:00,METAR VHHH 151100Z 11006KT 9999 FEW040 22/09 Q1019 NOSIG,0,6,0,10000,0,0,0,
2026-03-15 10:30:00,METAR VHHH 151030Z 12007KT 9999 FEW040 23/10 Q1019 NOSIG,0,7,0,10000,0,0,0,
2026-03-15 10:00:00,METAR VHHH 151000Z VRB05KT 9999 FEW040 24/09 Q1018 NOSIG,0,5,0,10000,0,0,0,
2026-03-15 09:30:00,METAR VHHH 150930Z 11010KT 090V150 9999 FEW040 24/10 Q1018 NOSIG,0,10,0,10000,0,0,0,
2026-03-15 09:00:00,METAR VHHH 150900Z 31005KT 270V330 9999 FEW035 25/12 Q1018 BECMG 10010KT,0,5,0,10000,0,0,0,
2026-03-15 08:30:00,METAR VHHH 150830Z 30005KT 9999 FEW040 26/09 Q1018 BECMG 10010KT,0,5,0,10000,0,0,0,
2026-03-15 08:00:00,METAR VHHH 150800Z 29004KT 9999 FEW030 25/14 Q1018 NOSIG,0,4,0,10000,0,0,0,
