Time_recorded,METAR,is_cavok,wind_speed,is_gust,visibility_meters,has_thunderstorm,has_heavy_rain,has_low_vis_fog,other_phenomenon
2026-05-02 15:50:00,METAR LSGS 021550Z 25015KT 9999 FEW120 23/10 Q1017,0,15,0,10000,0,0,0,
2026-05-02 15:20:00,METAR LSGS 021520Z 25014KT 9999 FEW120 24/10 Q1017,0,14,0,10000,0,0,0,
2026-05-02 14:50:00,METAR LSGS 021450Z 25016KT 9999 FEW120 24/09 Q1017,0,16,0,10000,0,0,0,
2026-05-02 14:20:00,METAR LSGS 021420Z 25015KT 9999 FEW100 24/09 Q1018,0,15,0,10000,0,0,0,
2026-05-02 13:50:00,METAR LSGS 021350Z 25013KT 9999 FEW100 25/08 Q1018,0,13,0,10000,0,0,0,
2026-05-02 13:20:00,METAR LSGS 021320Z 25011KT 9999 FEW080 24/08 Q1018,0,11,0,10000,0,0,0,
2026-05-02 12:50:00,METAR LSGS 021250Z 24009KT 9999 FEW100 25/10 Q1019,0,9,0,10000,0,0,0,
2026-05-02 12:20:00,METAR LSGS 021220Z 24008KT 200V280 9999 FEW080 25/08 Q1019,0,8,0,10000,0,0,0,
2026-05-02 11:50:00,METAR LSGS 021150Z 25006KT 200V280 9999 FEW080 24/07 Q1020,0,6,0,10000,0,0,0,
2026-05-02 11:20:00,METAR LSGS 021120Z 26004KT 200V350 9999 FEW080 23/07 Q1020,0,4,0,10000,0,0,0,
2026-05-02 10:50:00,METAR LSGS 021050Z VRB03KT 9999 NSC 23/07 Q1021,0,3,0,10000,0,0,0,
2026-05-02 10:20:00,METAR LSGS 021020Z 21003KT 120V270 9999 NSC 22/04 Q1022,0,3,0,10000,0,0,0,
2026-05-02 09:50:00,METAR LSGS 020950Z VRB02KT CAVOK 20/05 Q1022,1,0,0,9999,0,0,0,
2026-05-02 09:20:00,METAR LSGS 020920Z VRB02KT CAVOK 20/06 Q1023,1,0,0,9999,0,0,0,
2026-05-02 08:50:00,METAR LSGS 020850Z VRB02KT CAVOK 19/05 Q1023,1,0,0,9999,0,0,0,
2026-05-02 08:20:00,METAR LSGS 020820Z VRB02KT CAVOK 18/07 Q1024,1,0,0,9999,0,0,0,
2026-05-02 07:50:00,METAR LSGS 020750Z 08004KT 020V130 CAVOK 16/06 Q1024,1,0,0,9999,0,0,0,
2026-05-02 07:20:00,METAR LSGS 020720Z 08005KT CAVOK 15/06 Q1025,1,0,0,9999,0,0,0,
2026-05-02 06:50:00,METAR LSGS 020650Z 08006KT CAVOK 14/07 Q1025,1,0,0,9999,0,0,0,
2026-05-02 06:20:00,METAR LSGS 020620Z 07005KT CAVOK 13/06 Q1025,1,0,0,9999,0,0,0,
2026-05-02 05:50:00,METAR LSGS 020550Z 07005KT CAVOK 11/06 Q1025,1,0,0,9999,0,0,0,
2026-05-02 05:20:00,METAR LSGS 020520Z 07006KT CAVOK 10/06 Q1025,1,0,0,9999,0,0,0,
2026-05-02 04:50:00,METAR LSGS 020450Z 08005KT 9999 NSC 10/06 Q1025,0,5,0,10000,0,0,0,
2026-05-02 04:20:00,METAR LSGS 020420Z AUTO 07004KT CAVOK 10/06 Q1025,1,0,0,9999,0,0,0,
2026-05-02 03:50:00,METAR LSGS 020350Z AUTO 06003KT 030V150 CAVOK 10/07 Q1025,1,0,0,9999,0,0,0,
2026-05-02 03:20:00,METAR LSGS 020320Z AUTO VRB02KT CAVOK 10/07 Q1025,1,0,0,9999,0,0,0,
2026-05-02 02:50:00,METAR LSGS 020250Z AUTO 08004KT 060V120 CAVOK 11/07 Q1025,1,0,0,9999,0,0,0,
2026-05-02 02:20:00,METAR LSGS 020220Z AUTO 08005KT CAVOK 11/07 Q1025,1,0,0,9999,0,0,0,
2026-05-02 01:50:00,METAR LSGS 020150Z AUTO 07004KT CAVOK 10/08 Q1025,1,0,0,9999,0,0,0,
2026-05-02 01:20:00,METAR LSGS 020120Z AUTO 08004KT CAVOK 11/08 Q1025,1,0,0,9999,0,0,0,
2026-05-02 00:50:00,METAR LSGS 020050Z AUTO VRB01KT CAVOK 10/08 Q1025,1,0,0,9999,0,0,0,
2026-05-02 00:20:00,METAR LSGS 020020Z AUTO VRB01KT CAVOK 11/08 Q1025,1,0,0,9999,0,0,0,
2026-05-01 23:50:00,METAR LSGS 012350Z AUTO VRB01KT CAVOK 11/08 Q1025,1,0,0,9999,0,0,0,
2026-05-01 23:20:00,METAR LSGS 012320Z AUTO VRB01KT CAVOK 12/09 Q1025,1,0,0,9999,0,0,0,
2026-05-01 22:50:00,METAR LSGS 012250Z AUTO VRB02KT CAVOK 13/08 Q1025,1,0,0,9999,0,0,0,
2026-05-01 22:20:00,METAR LSGS 012220Z AUTO VRB01KT CAVOK 14/08 Q1025,1,0,0,9999,0,0,0,
2026-05-01 21:50:00,METAR LSGS 012150Z AUTO VRB02KT CAVOK 14/08 Q1024,1,0,0,9999,0,0,0,
2026-05-01 21:20:00,METAR LSGS 012120Z AUTO VRB01KT CAVOK 16/08 Q1024,1,0,0,9999,0,0,0,
2026-05-01 20:50:00,METAR LSGS 012050Z AUTO 07005KT 040V110 CAVOK 16/08 Q1024,1,0,0,9999,0,0,0,
2026-05-01 20:20:00,METAR LSGS 012020Z AUTO 07005KT 010V090 CAVOK 18/08 Q1023,1,0,0,9999,0,0,0,
2026-05-01 19:50:00,METAR LSGS 011950Z AUTO 01005KT 290V040 9999 FEW100 17/08 Q1023,0,5,0,10000,0,0,0,
2026-05-01 19:20:00,METAR LSGS 011920Z AUTO VRB01KT 9999 SCT100 17/08 Q1022,0,1,0,10000,0,0,0,
2026-05-01 18:50:00,METAR LSGS 011850Z AUTO VRB03KT CAVOK 19/07 Q1022,1,0,0,9999,0,0,0,
2026-05-01 18:20:00,METAR LSGS 011820Z AUTO 26004KT 210V330 CAVOK 20/07 Q1021,1,0,0,9999,0,0,0,
2026-05-01 17:50:00,METAR LSGS 011750Z AUTO 27008KT CAVOK 20/07 Q1021,1,0,0,9999,0,0,0,
2026-05-01 17:20:00,METAR LSGS 011720Z AUTO 27012KT CAVOK 22/08 Q1020,1,0,0,9999,0,0,0,
2026-05-01 16:50:00,METAR LSGS 011650Z AUTO 25015KT CAVOK 22/08 Q1020,1,0,0,9999,0,0,0,
2026-05-01 16:20:00,METAR LSGS 011620Z 25019KT 9999 FEW110 23/08 Q1020,0,19,0,10000,0,0,0,
2026-05-01 15:50:00,METAR LSGS 011550Z 25020KT 9999 FEW110 23/08 Q1020,0,20,0,10000,0,0,0,
2026-05-01 15:20:00,METAR LSGS 011520Z 25019KT CAVOK 23/08 Q1020,1,0,0,9999,0,0,0,
2026-05-01 14:50:00,METAR LSGS 011450Z 25018KT 9999 FEW110 23/08 Q1021,0,18,0,10000,0,0,0,
2026-05-01 14:20:00,METAR LSGS 011420Z 25018KT 9999 FEW100 23/08 Q1021,0,18,0,10000,0,0,0,
2026-05-01 13:50:00,METAR LSGS 011350Z AUTO 25015KT CAVOK 23/08 Q1021,1,0,0,9999,0,0,0,
2026-05-01 13:20:00,METAR LSGS 011320Z AUTO 25014KT CAVOK 23/08 Q1021,1,0,0,9999,0,0,0,
2026-05-01 12:50:00,METAR LSGS 011250Z 25014KT 9999 FEW100 23/10 Q1022,0,14,0,10000,0,0,0,
2026-05-01 12:20:00,METAR LSGS 011220Z 25012KT 9999 FEW100 22/09 Q1022,0,12,0,10000,0,0,0,
2026-05-01 11:50:00,METAR LSGS 011150Z 25011KT 9999 FEW130 21/10 Q1023,0,11,0,10000,0,0,0,
2026-05-01 11:20:00,METAR LSGS 011120Z 23007KT 170V250 9999 FEW080 21/10 Q1023,0,7,0,10000,0,0,0,
2026-05-01 10:50:00,METAR LSGS 011050Z 25006KT 190V270 9999 FEW120 20/09 Q1023,0,6,0,10000,0,0,0,
2026-05-01 10:20:00,METAR LSGS 011020Z 23004KT 180V270 CAVOK 20/09 Q1023,1,0,0,9999,0,0,0,
2026-05-01 09:50:00,METAR LSGS 010950Z AUTO 19003KT 080V250 CAVOK 20/08 Q1024,1,0,0,9999,0,0,0,
2026-05-01 09:20:00,METAR LSGS 010920Z AUTO VRB03KT CAVOK 19/07 Q1024,1,0,0,9999,0,0,0,
2026-05-01 08:50:00,METAR LSGS 010850Z VRB03KT 9999 FEW075 18/08 Q1024,0,3,0,10000,0,0,0,
2026-05-01 08:20:00,METAR LSGS 010820Z VRB02KT 9999 FEW075 17/08 Q1025,0,2,0,10000,0,0,0,
2026-05-01 07:50:00,METAR LSGS 010750Z VRB03KT 9999 FEW075 15/07 Q1025,0,3,0,10000,0,0,0,
2026-05-01 07:20:00,METAR LSGS 010720Z 07003KT 030V110 9999 FEW070 15/09 Q1025,0,3,0,10000,0,0,0,
2026-05-01 06:50:00,METAR LSGS 010650Z 07005KT 9999 FEW060 14/08 Q1025,0,5,0,10000,0,0,0,
2026-05-01 06:20:00,METAR LSGS 010620Z 06005KT 9999 FEW060 12/08 Q1025,0,5,0,10000,0,0,0,
2026-05-01 05:50:00,METAR LSGS 010550Z 09004KT CAVOK 11/08 Q1025,1,0,0,9999,0,0,0,
2026-05-01 05:20:00,METAR LSGS 010520Z VRB03KT 9999 FEW075 10/08 Q1025,0,3,0,10000,0,0,0,
2026-05-01 04:50:00,METAR LSGS 010450Z VRB01KT 9999 FEW100 08/07 Q1025,0,1,0,10000,0,0,0,
2026-05-01 04:20:00,METAR LSGS 010420Z AUTO 11002KT CAVOK 08/07 Q1024,1,0,0,9999,0,0,0,
2026-05-01 03:50:00,METAR LSGS 010350Z AUTO VRB03KT CAVOK 09/07 Q1024,1,0,0,9999,0,0,0,
2026-05-01 03:20:00,METAR LSGS 010320Z AUTO 09003KT CAVOK 09/07 Q1024,1,0,0,9999,0,0,0,
2026-05-01 02:50:00,METAR LSGS 010250Z AUTO 07002KT CAVOK 09/08 Q1024,1,0,0,9999,0,0,0,
2026-05-01 02:20:00,METAR LSGS 010220Z AUTO VRB01KT CAVOK 10/08 Q1024,1,0,0,9999,0,0,0,
2026-05-01 01:50:00,METAR LSGS 010150Z AUTO VRB01KT 9999 NCD 10/08 Q1024,0,1,0,10000,0,0,0,
2026-05-01 01:20:00,METAR LSGS 010120Z AUTO VRB01KT 9999 OVC090 11/09 Q1024,0,1,0,10000,0,0,0,
2026-05-01 00:50:00,METAR LSGS 010050Z AUTO VRB01KT 9999 BKN090 12/09 Q1024,0,1,0,10000,0,0,0,
2026-05-01 00:20:00,METAR LSGS 010020Z AUTO VRB01KT CAVOK 11/08 Q1023,1,0,0,9999,0,0,0,
2026-04-30 23:50:00,METAR LSGS 302350Z AUTO VRB01KT CAVOK 12/08 Q1023,1,0,0,9999,0,0,0,
2026-04-30 23:20:00,METAR LSGS 302320Z AUTO VRB01KT CAVOK 12/08 Q1023,1,0,0,9999,0,0,0,
2026-04-30 22:50:00,METAR LSGS 302250Z AUTO VRB01KT CAVOK 12/09 Q1022,1,0,0,9999,0,0,0,
2026-04-30 22:20:00,METAR LSGS 302220Z AUTO VRB01KT CAVOK 14/09 Q1022,1,0,0,9999,0,0,0,
2026-04-30 21:50:00,METAR LSGS 302150Z AUTO VRB02KT CAVOK 15/08 Q1022,1,0,0,9999,0,0,0,
2026-04-30 21:20:00,METAR LSGS 302120Z AUTO 08006KT 330V140 9999 NCD 16/09 Q1021,0,6,0,10000,0,0,0,
2026-04-30 20:50:00,METAR LSGS 302050Z AUTO 26007KT 210V290 9999 BKN090 18/08 Q1021,0,7,0,10000,0,0,0,
2026-04-30 20:20:00,METAR LSGS 302020Z AUTO 29005KT 260V320 9999 FEW090 17/08 Q1020,0,5,0,10000,0,0,0,
2026-04-30 19:50:00,METAR LSGS 301950Z AUTO VRB02KT 9999 FEW090 17/08 Q1020,0,2,0,10000,0,0,0,
2026-04-30 19:20:00,METAR LSGS 301920Z AUTO 28003KT 240V330 CAVOK 18/08 Q1019,1,0,0,9999,0,0,0,
2026-04-30 18:50:00,METAR LSGS 301850Z AUTO 27009KT 240V310 CAVOK 18/09 Q1019,1,0,0,9999,0,0,0,
2026-04-30 18:20:00,METAR LSGS 301820Z AUTO 29010KT 250V310 CAVOK 19/08 Q1018,1,0,0,9999,0,0,0,
2026-04-30 17:50:00,METAR LSGS 301750Z 28009KT 250V320 9999 FEW120 19/09 Q1018,0,9,0,10000,0,0,0,
2026-04-30 17:20:00,METAR LSGS 301720Z 28010KT 250V310 9999 FEW110 21/09 Q1017,0,10,0,10000,0,0,0,
2026-04-30 16:50:00,METAR LSGS 301650Z 27014KT 9999 FEW110TCU 22/09 Q1017,0,14,0,10000,0,0,0,
2026-04-30 16:20:00,METAR LSGS 301620Z 26013KT 9999 FEW110 22/10 Q1017,0,13,0,10000,0,0,0,
2026-04-30 14:50:00,METAR LSGS 301450Z 26014KT 9999 SCT110 23/10 Q1017,0,14,0,10000,0,0,0,
2026-04-30 14:20:00,METAR LSGS 301420Z 25013KT 9999 FEW110 22/10 Q1017,0,13,0,10000,0,0,0,
2026-04-30 13:50:00,METAR LSGS 301350Z 25014KT 9999 FEW120 22/11 Q1017,0,14,0,10000,0,0,0,
2026-04-30 13:20:00,METAR LSGS 301320Z 26016KT 9999 FEW070 21/10 Q1017,0,16,0,10000,0,0,0,
2026-04-30 12:50:00,METAR LSGS 301250Z 25017KT 9999 FEW070 20/10 Q1018,0,17,0,10000,0,0,0,
2026-04-30 12:20:00,METAR LSGS 301220Z 25015KT 9999 FEW070 20/10 Q1018,0,15,0,10000,0,0,0,
2026-04-30 11:50:00,METAR LSGS 301150Z 25013KT 9999 FEW070 20/11 Q1018,0,13,0,10000,0,0,0,
2026-04-30 11:20:00,METAR LSGS 301120Z 25011KT 160V280 9999 FEW070 20/11 Q1018,0,11,0,10000,0,0,0,
2026-04-30 10:50:00,METAR LSGS 301050Z 23007KT 9999 FEW070 19/11 Q1018,0,7,0,10000,0,0,0,
2026-04-30 10:20:00,METAR LSGS 301020Z 22004KT 150V270 9999 FEW070 19/10 Q1019,0,4,0,10000,0,0,0,
2026-04-30 09:50:00,METAR LSGS 300950Z 20004KT 140V280 9999 FEW065 19/11 Q1019,0,4,0,10000,0,0,0,
2026-04-30 09:20:00,METAR LSGS 300920Z VRB03KT 9999 FEW070 19/10 Q1019,0,3,0,10000,0,0,0,
2026-04-30 08:50:00,METAR LSGS 300850Z VRB01KT 9999 FEW065 17/10 Q1020,0,1,0,10000,0,0,0,
2026-04-30 08:20:00,METAR LSGS 300820Z VRB01KT 9999 FEW070 16/10 Q1020,0,1,0,10000,0,0,0,
2026-04-30 07:50:00,METAR LSGS 300750Z VRB01KT 9999 FEW070 15/10 Q1020,0,1,0,10000,0,0,0,
2026-04-30 07:20:00,METAR LSGS 300720Z VRB02KT 9999 FEW070 14/10 Q1021,0,2,0,10000,0,0,0,
2026-04-30 06:50:00,METAR LSGS 300650Z VRB01KT 9999 FEW070 13/09 Q1021,0,1,0,10000,0,0,0,
2026-04-30 06:20:00,METAR LSGS 300620Z VRB01KT 9999 FEW070 11/10 Q1021,0,1,0,10000,0,0,0,
2026-04-30 05:50:00,METAR LSGS 300550Z 27001KT 9999 FEW070 10/09 Q1021,0,1,0,10000,0,0,0,
2026-04-30 05:20:00,METAR LSGS 300520Z 25002KT 9999 FEW095 09/09 Q1021,0,2,0,10000,0,0,0,
2026-04-30 04:50:00,METAR LSGS 300450Z VRB01KT 9999 FEW095 08/08 Q1020,0,1,0,10000,0,0,0,
2026-04-30 04:20:00,METAR LSGS 300420Z AUTO VRB01KT CAVOK 08/08 Q1020,1,0,0,9999,0,0,0,
2026-04-30 03:50:00,METAR LSGS 300350Z AUTO VRB01KT CAVOK 08/07 Q1020,1,0,0,9999,0,0,0,
2026-04-30 03:20:00,METAR LSGS 300320Z AUTO VRB01KT CAVOK 09/08 Q1020,1,0,0,9999,0,0,0,
2026-04-30 02:50:00,METAR LSGS 300250Z AUTO VRB01KT CAVOK 09/08 Q1019,1,0,0,9999,0,0,0,
2026-04-30 02:20:00,METAR LSGS 300220Z AUTO 07003KT CAVOK 10/09 Q1019,1,0,0,9999,0,0,0,
2026-04-30 01:50:00,METAR LSGS 300150Z AUTO 05003KT CAVOK 10/09 Q1019,1,0,0,9999,0,0,0,
2026-04-30 01:20:00,METAR LSGS 300120Z AUTO 06004KT CAVOK 10/10 Q1019,1,0,0,9999,0,0,0,
2026-04-30 00:50:00,METAR LSGS 300050Z AUTO 08003KT CAVOK 10/09 Q1019,1,0,0,9999,0,0,0,
2026-04-30 00:20:00,METAR LSGS 300020Z AUTO 07004KT CAVOK 11/10 Q1019,1,0,0,9999,0,0,0,
2026-04-29 23:50:00,METAR LSGS 292350Z AUTO VRB02KT CAVOK 11/10 Q1019,1,0,0,9999,0,0,0,
2026-04-29 23:20:00,METAR LSGS 292320Z AUTO VRB01KT CAVOK 10/10 Q1019,1,0,0,9999,0,0,0,
2026-04-29 22:50:00,METAR LSGS 292250Z AUTO VRB01KT 9999 NCD 12/10 Q1018,0,1,0,10000,0,0,0,
2026-04-29 22:20:00,METAR LSGS 292220Z AUTO VRB01KT 9999 FEW042 12/10 Q1018,0,1,0,10000,0,0,0,
2026-04-29 21:50:00,METAR LSGS 292150Z AUTO VRB03KT CAVOK 12/11 Q1018,1,0,0,9999,0,0,0,
2026-04-29 21:20:00,METAR LSGS 292120Z AUTO 08004KT 040V100 CAVOK 13/11 Q1018,1,0,0,9999,0,0,0,
2026-04-29 20:50:00,METAR LSGS 292050Z AUTO 07004KT 9999 NCD 13/12 Q1017,0,4,0,10000,0,0,0,
2026-04-29 20:20:00,METAR LSGS 292020Z AUTO VRB02KT 9999 FEW100 13/12 Q1017,0,2,0,10000,0,0,0,
2026-04-29 19:50:00,METAR LSGS 291950Z AUTO VRB02KT 9999 FEW110 SCT120 15/13 Q1017,0,2,0,10000,0,0,0,
2026-04-29 19:20:00,METAR LSGS 291920Z AUTO VRB02KT 9999 OVC110 16/11 Q1017,0,2,0,10000,0,0,0,
2026-04-29 18:50:00,METAR LSGS 291850Z AUTO VRB01KT 9999 BKN110 15/12 Q1016,0,1,0,10000,0,0,0,
2026-04-29 18:20:00,METAR LSGS 291820Z AUTO VRB02KT 9999 SCT120 16/13 Q1016,0,2,0,10000,0,0,0,
2026-04-29 17:50:00,METAR LSGS 291750Z AUTO 32003KT 9999 FEW100 SCT110 17/13 Q1016,0,3,0,10000,0,0,0,
2026-04-29 17:20:00,METAR LSGS 291720Z VRB02KT 9999 SCT100 17/13 Q1016,0,2,0,10000,0,0,0,
2026-04-29 16:50:00,METAR LSGS 291650Z VRB02KT 9999 -RA BKN075 17/12 Q1016,0,2,0,10000,0,0,0,-RA
2026-04-29 16:20:00,METAR LSGS 291620Z 26004KT 210V320 6000 RA FEW070 BKN080 17/13 Q1016,0,4,0,6000,0,0,0,RA
2026-04-29 15:50:00,METAR LSGS 291550Z 26006KT 9999 SCT075 BKN085 19/12 Q1015,0,6,0,10000,0,0,0,
2026-04-29 15:20:00,METAR LSGS 291520Z 27006KT 240V300 9999 -RA SCT080 BKN090 20/12 Q1015,0,6,0,10000,0,0,0,-RA
2026-04-29 14:50:00,METAR LSGS 291450Z 26009KT 9999 FEW110 SCT120 BKN130 20/12 Q1015,0,9,0,10000,0,0,0,
2026-04-29 14:20:00,METAR LSGS 291420Z 26009KT 9999 FEW075 BKN120 19/11 Q1015,0,9,0,10000,0,0,0,
2026-04-29 13:50:00,METAR LSGS 291350Z 25012KT 9999 FEW075 BKN120 19/11 Q1015,0,12,0,10000,0,0,0,
2026-04-29 13:20:00,METAR LSGS 291320Z 25013KT 9999 FEW070 SCT120 19/11 Q1015,0,13,0,10000,0,0,0,
2026-04-29 12:50:00,METAR LSGS 291250Z 25012KT 9999 FEW070 BKN120 19/12 Q1015,0,12,0,10000,0,0,0,
2026-04-29 12:20:00,METAR LSGS 291220Z 25006KT 190V310 9999 FEW065 BKN120 21/11 Q1015,0,6,0,10000,0,0,0,
2026-04-29 11:50:00,METAR LSGS 291150Z 25004KT 200V320 9999 FEW065 SCT120 20/09 Q1016,0,4,0,10000,0,0,0,
2026-04-29 11:20:00,METAR LSGS 291120Z VRB02KT 9999 FEW070 SCT120 20/08 Q1016,0,2,0,10000,0,0,0,
2026-04-29 10:50:00,METAR LSGS 291050Z VRB03KT 9999 FEW060 SCT120 20/07 Q1016,0,3,0,10000,0,0,0,
2026-04-29 10:20:00,METAR LSGS 291020Z 05005KT 9999 FEW065 SCT110 19/09 Q1016,0,5,0,10000,0,0,0,
2026-04-29 09:50:00,METAR LSGS 290950Z 07005KT 020V120 9999 FEW060 SCT110 18/12 Q1016,0,5,0,10000,0,0,0,
2026-04-29 09:20:00,METAR LSGS 290920Z VRB04KT 9999 SCT070 BKN120 17/09 Q1017,0,4,0,10000,0,0,0,
2026-04-29 08:50:00,METAR LSGS 290850Z 07005KT 020V110 9999 FEW015 BKN120 16/11 Q1017,0,5,0,10000,0,0,0,
2026-04-29 08:20:00,METAR LSGS 290820Z AUTO 06005KT 010V120 9999 OVC120 16/11 Q1017,0,5,0,10000,0,0,0,
2026-04-29 07:50:00,METAR LSGS 290750Z 06005KT 030V100 9999 FEW010 BKN120 15/12 Q1017,0,5,0,10000,0,0,0,
2026-04-29 07:20:00,METAR LSGS 290720Z 08004KT 9999 FEW008 SCT130 14/12 Q1018,0,4,0,10000,0,0,0,
2026-04-29 06:50:00,METAR LSGS 290650Z VRB02KT 9999 FEW010 BKN095 13/12 Q1018,0,2,0,10000,0,0,0,
2026-04-29 06:20:00,METAR LSGS 290620Z 07003KT 030V090 9999 FEW010 OVC095 12/12 Q1018,0,3,0,10000,0,0,0,
2026-04-29 05:50:00,METAR LSGS 290550Z VRB02KT 9999 FEW088 BKN090 12/12 Q1017,0,2,0,10000,0,0,0,
2026-04-29 05:20:00,METAR LSGS 290520Z VRB01KT 9999 FEW007 BKN085 11/11 Q1017,0,1,0,10000,0,0,0,
2026-04-29 04:50:00,METAR LSGS 290450Z VRB01KT 9999 FEW007 BKN090 11/11 Q1017,0,1,0,10000,0,0,0,
2026-04-29 04:20:00,METAR LSGS 290420Z AUTO VRB01KT 9999 OVC095 11/11 Q1017,0,1,0,10000,0,0,0,
2026-04-29 03:50:00,METAR LSGS 290350Z AUTO VRB01KT 9999 OVC095 11/11 Q1017,0,1,0,10000,0,0,0,
2026-04-29 03:20:00,METAR LSGS 290320Z AUTO VRB01KT 9999 SCT090 11/11 Q1017,0,1,0,10000,0,0,0,
2026-04-29 02:50:00,METAR LSGS 290250Z AUTO VRB02KT 9999 SCT075 BKN130 12/12 Q1017,0,2,0,10000,0,0,0,
2026-04-29 02:20:00,METAR LSGS 290220Z AUTO 08003KT 050V120 9999 FEW070 BKN100 BKN130 12/12 Q1017,0,3,0,10000,0,0,0,
2026-04-29 01:50:00,METAR LSGS 290150Z AUTO 09003KT 9999 FEW095 BKN100 12/12 Q1017,0,3,0,10000,0,0,0,
2026-04-29 01:20:00,METAR LSGS 290120Z AUTO 08004KT 9999 FEW075 OVC100 12/12 Q1017,0,4,0,10000,0,0,0,
2026-04-29 00:50:00,METAR LSGS 290050Z AUTO VRB02KT 9999 FEW036 BKN050 OVC095 12/12 Q1017,0,2,0,10000,0,0,0,
2026-04-29 00:20:00,METAR LSGS 290020Z AUTO 06004KT 9999 FEW005 BKN095 12/12 Q1017,0,4,0,10000,0,0,0,
2026-04-28 23:50:00,METAR LSGS 282350Z AUTO 07004KT 9999 BKN090 12/12 Q1017,0,4,0,10000,0,0,0,
2026-04-28 23:20:00,METAR LSGS 282320Z AUTO VRB02KT 9999 -RA FEW007 BKN090 12/12 Q1018,0,2,0,10000,0,0,0,-RA
2026-04-28 22:50:00,METAR LSGS 282250Z AUTO 08003KT 9999 -RA SCT007 BKN095 12/12 Q1018,0,3,0,10000,0,0,0,-RA
2026-04-28 22:20:00,METAR LSGS 282220Z AUTO VRB01KT 9999 -RA OVC075 12/12 Q1018,0,1,0,10000,0,0,0,-RA
2026-04-28 21:50:00,METAR LSGS 282150Z AUTO VRB01KT 9999 -RA SCT048 BKN065 12/12 Q1018 RERA,0,1,0,10000,0,0,0,"-RA,RA"
2026-04-28 21:20:00,METAR LSGS 282120Z AUTO VRB02KT 9000 -RA BKN050 BKN060 12/12 Q1018,0,2,0,9000,0,0,0,-RA
2026-04-28 20:50:00,METAR LSGS 282050Z AUTO VRB02KT 9999 -RA FEW011 BKN048 12/12 Q1018 RERA,0,2,0,10000,0,0,0,"-RA,RA"
2026-04-28 20:20:00,METAR LSGS 282020Z AUTO VRB02KT 9999 -RA SCT050 BKN065 13/12 Q1018,0,2,0,10000,0,0,0,-RA
2026-04-28 19:50:00,METAR LSGS 281950Z AUTO 27006KT 9999 -RA BKN045 13/12 Q1017,0,6,0,10000,0,0,0,-RA
2026-04-28 19:20:00,METAR LSGS 281920Z AUTO 26006KT 9999 -RA BKN049 13/12 Q1017,0,6,0,10000,0,0,0,-RA
2026-04-28 18:50:00,METAR LSGS 281850Z AUTO 27005KT 9999 -RA OVC065 13/12 Q1017,0,5,0,10000,0,0,0,-RA
2026-04-28 18:20:00,METAR LSGS 281820Z AUTO 26010KT 9999 -RA SCT060 BKN070 13/11 Q1016,0,10,0,10000,0,0,0,-RA
2026-04-28 17:50:00,METAR LSGS 281750Z AUTO 25013KT 9999 -RA OVC070 14/11 Q1016,0,13,0,10000,0,0,0,-RA
2026-04-28 17:20:00,METAR LSGS 281720Z AUTO 26018KT 9999 -RA SCT049 BKN055 BKN065 15/10 Q1015,0,18,0,10000,0,0,0,-RA
2026-04-28 16:50:00,METAR LSGS 281650Z 09009KT 050V130 9999 BKN095 19/07 Q1014,0,9,0,10000,0,0,0,
2026-04-28 16:20:00,METAR LSGS 281620Z 08012KT 9999 SCT080 BKN095 19/08 Q1014,0,12,0,10000,0,0,0,
2026-04-28 15:50:00,METAR LSGS 281550Z AUTO 06013KT 9999 FEW080 SCT100 BKN130 20/08 Q1013,0,13,0,10000,0,0,0,
2026-04-28 15:20:00,METAR LSGS 281520Z 07010KT 030V120 9999 SCT110 BKN150 21/09 Q1014,0,10,0,10000,0,0,0,
2026-04-28 14:50:00,METAR LSGS 281450Z VRB01KT 9999 BKN100 21/07 Q1014,0,1,0,10000,0,0,0,
2026-04-28 14:20:00,METAR LSGS 281420Z VRB02KT 9999 BKN085 20/07 Q1014,0,2,0,10000,0,0,0,
2026-04-28 13:50:00,METAR LSGS 281350Z VRB03KT 9999 BKN085 20/07 Q1014,0,3,0,10000,0,0,0,
2026-04-28 13:20:00,METAR LSGS 281320Z 24004KT 190V270 9999 BKN085 20/08 Q1014,0,4,0,10000,0,0,0,
2026-04-28 12:50:00,METAR LSGS 281250Z 24005KT 200V280 9999 FEW090 BKN110 19/07 Q1015,0,5,0,10000,0,0,0,
2026-04-28 12:20:00,METAR LSGS 281220Z VRB05KT 9999 BKN095 19/09 Q1015,0,5,0,10000,0,0,0,
2026-04-28 11:50:00,METAR LSGS 281150Z 25007KT 9999 SCT120 BKN130 18/08 Q1015,0,7,0,10000,0,0,0,
2026-04-28 11:20:00,METAR LSGS 281120Z 25007KT 9999 SCT090 BKN100 17/08 Q1015,0,7,0,10000,0,0,0,
2026-04-28 10:50:00,METAR LSGS 281050Z 25010KT 9999 OVC100 17/07 Q1015,0,10,0,10000,0,0,0,
2026-04-28 10:20:00,METAR LSGS 281020Z 26007KT 9999 OVC100 17/08 Q1016,0,7,0,10000,0,0,0,
2026-04-28 09:50:00,METAR LSGS 280950Z 23004KT 170V280 9999 SCT110 BKN120 17/07 Q1016,0,4,0,10000,0,0,0,
2026-04-28 09:20:00,METAR LSGS 280920Z 25003KT 220V290 9999 BKN120 BKN130 17/07 Q1016,0,3,0,10000,0,0,0,
2026-04-28 08:50:00,METAR LSGS 280850Z VRB01KT 9999 BKN130 17/06 Q1016,0,1,0,10000,0,0,0,
2026-04-28 08:20:00,METAR LSGS 280820Z VRB01KT 9999 BKN140 16/06 Q1016,0,1,0,10000,0,0,0,
2026-04-28 07:50:00,METAR LSGS 280750Z VRB03KT 9999 BKN110 15/07 Q1016,0,3,0,10000,0,0,0,
2026-04-28 07:20:00,METAR LSGS 280720Z 08004KT 9999 FEW100 BKN110 15/07 Q1016,0,4,0,10000,0,0,0,
2026-04-28 06:50:00,METAR LSGS 280650Z 07004KT 9999 BKN110 14/07 Q1016,0,4,0,10000,0,0,0,
2026-04-28 06:20:00,METAR LSGS 280620Z 07005KT 9999 FEW110 BKN140 12/07 Q1017,0,5,0,10000,0,0,0,
2026-04-28 05:50:00,METAR LSGS 280550Z 07003KT 020V140 9999 SCT100 BKN140 11/06 Q1017,0,3,0,10000,0,0,0,
2026-04-28 05:20:00,METAR LSGS 280520Z 08005KT 9999 FEW100 BKN130 11/06 Q1017,0,5,0,10000,0,0,0,
2026-04-28 04:50:00,METAR LSGS 280450Z 10004KT 070V150 9999 FEW100 BKN130 11/06 Q1016,0,4,0,10000,0,0,0,
2026-04-28 04:20:00,METAR LSGS 280420Z AUTO VRB03KT 9999 BKN130 11/06 Q1017,0,3,0,10000,0,0,0,
2026-04-28 03:50:00,METAR LSGS 280350Z AUTO 07003KT 060V120 9999 OVC140 09/06 Q1017,0,3,0,10000,0,0,0,
2026-04-28 03:20:00,METAR LSGS 280320Z AUTO VRB01KT 9999 BKN130 09/06 Q1017,0,1,0,10000,0,0,0,
2026-04-28 02:50:00,METAR LSGS 280250Z AUTO VRB01KT 9999 NSC 09/06 Q1017,0,1,0,10000,0,0,0,
2026-04-28 02:20:00,METAR LSGS 280220Z AUTO VRB01KT CAVOK 09/06 Q1017,1,0,0,9999,0,0,0,
2026-04-28 01:50:00,METAR LSGS 280150Z AUTO VRB01KT 9999 NCD 09/06 Q1017,0,1,0,10000,0,0,0,
2026-04-28 01:20:00,METAR LSGS 280120Z AUTO VRB01KT 9999 NSC 11/06 Q1017,0,1,0,10000,0,0,0,
2026-04-28 00:50:00,METAR LSGS 280050Z AUTO VRB01KT CAVOK 09/06 Q1017,1,0,0,9999,0,0,0,
2026-04-28 00:20:00,METAR LSGS 280020Z AUTO VRB01KT 9999 NCD 10/06 Q1017,0,1,0,10000,0,0,0,
2026-04-27 23:50:00,METAR LSGS 272350Z AUTO VRB01KT 9999 NSC 13/05 Q1017,0,1,0,10000,0,0,0,
2026-04-27 23:20:00,METAR LSGS 272320Z AUTO 10003KT 9999 NCD 11/06 Q1017,0,3,0,10000,0,0,0,
2026-04-27 22:50:00,METAR LSGS 272250Z AUTO VRB03KT CAVOK 12/05 Q1017,1,0,0,9999,0,0,0,
2026-04-27 22:20:00,METAR LSGS 272220Z AUTO VRB02KT CAVOK 14/04 Q1017,1,0,0,9999,0,0,0,
2026-04-27 21:50:00,METAR LSGS 272150Z AUTO 10003KT 060V180 CAVOK 14/05 Q1017,1,0,0,9999,0,0,0,
2026-04-27 21:20:00,METAR LSGS 272120Z AUTO VRB02KT CAVOK 15/05 Q1016,1,0,0,9999,0,0,0,
2026-04-27 20:50:00,METAR LSGS 272050Z AUTO VRB02KT CAVOK 18/03 Q1016,1,0,0,9999,0,0,0,
2026-04-27 20:20:00,METAR LSGS 272020Z AUTO VRB02KT CAVOK 17/04 Q1016,1,0,0,9999,0,0,0,
2026-04-27 19:50:00,METAR LSGS 271950Z AUTO VRB04KT CAVOK 18/04 Q1016,1,0,0,9999,0,0,0,
2026-04-27 19:20:00,METAR LSGS 271920Z AUTO 24005KT 200V260 CAVOK 19/04 Q1016,1,0,0,9999,0,0,0,
2026-04-27 18:50:00,METAR LSGS 271850Z AUTO 24004KT 200V310 CAVOK 19/03 Q1016,1,0,0,9999,0,0,0,
2026-04-27 18:20:00,METAR LSGS 271820Z AUTO 27005KT CAVOK 20/04 Q1015,1,0,0,9999,0,0,0,
2026-04-27 17:50:00,METAR LSGS 271750Z 26013KT 9999 FEW100 21/04 Q1015,0,13,0,10000,0,0,0,
2026-04-27 17:20:00,METAR LSGS 271720Z AUTO 26013KT CAVOK 21/05 Q1015,1,0,0,9999,0,0,0,
2026-04-27 16:50:00,METAR LSGS 271650Z AUTO 25017KT CAVOK 22/04 Q1015,1,0,0,9999,0,0,0,
2026-04-27 16:20:00,METAR LSGS 271620Z 25015KT 9999 FEW100 23/05 Q1015,0,15,0,10000,0,0,0,
2026-04-27 15:50:00,METAR LSGS 271550Z 25013KT 9999 FEW080 24/06 Q1015,0,13,0,10000,0,0,0,
2026-04-27 15:20:00,METAR LSGS 271520Z 25017KT 9999 FEW080 24/06 Q1015,0,17,0,10000,0,0,0,
2026-04-27 14:50:00,METAR LSGS 271450Z 25015KT 9999 FEW100 24/06 Q1015,0,15,0,10000,0,0,0,
2026-04-27 14:20:00,METAR LSGS 271420Z 26016KT 9999 FEW100 24/06 Q1015,0,16,0,10000,0,0,0,
2026-04-27 13:50:00,METAR LSGS 271350Z 25015KT 9999 FEW080 24/06 Q1016,0,15,0,10000,0,0,0,
2026-04-27 13:20:00,METAR LSGS 271320Z 26016KT 9999 FEW080 24/07 Q1016,0,16,0,10000,0,0,0,
2026-04-27 12:50:00,METAR LSGS 271250Z 25013KT 9999 FEW080 23/07 Q1017,0,13,0,10000,0,0,0,
2026-04-27 12:20:00,METAR LSGS 271220Z 25012KT 9999 FEW080 23/07 Q1017,0,12,0,10000,0,0,0,
2026-04-27 11:50:00,METAR LSGS 271150Z 24009KT 210V270 9999 FEW080 23/08 Q1017,0,9,0,10000,0,0,0,
2026-04-27 11:20:00,METAR LSGS 271120Z 22005KT 170V290 9999 FEW075 22/06 Q1018,0,5,0,10000,0,0,0,
2026-04-27 10:50:00,METAR LSGS 271050Z 22004KT 160V270 CAVOK 21/06 Q1018,1,0,0,9999,0,0,0,
2026-04-27 10:20:00,METAR LSGS 271020Z 20004KT 140V290 CAVOK 20/06 Q1019,1,0,0,9999,0,0,0,
2026-04-27 09:50:00,METAR LSGS 270950Z VRB03KT CAVOK 20/06 Q1019,1,0,0,9999,0,0,0,
2026-04-27 09:20:00,METAR LSGS 270920Z VRB02KT CAVOK 19/05 Q1020,1,0,0,9999,0,0,0,
2026-04-27 08:50:00,METAR LSGS 270850Z VRB02KT CAVOK 18/05 Q1020,1,0,0,9999,0,0,0,
2026-04-27 08:20:00,METAR LSGS 270820Z VRB02KT CAVOK 17/06 Q1020,1,0,0,9999,0,0,0,
2026-04-27 07:50:00,METAR LSGS 270750Z VRB03KT CAVOK 16/05 Q1021,1,0,0,9999,0,0,0,
2026-04-27 07:20:00,METAR LSGS 270720Z 06003KT CAVOK 15/06 Q1021,1,0,0,9999,0,0,0,
2026-04-27 06:50:00,METAR LSGS 270650Z VRB02KT CAVOK 14/06 Q1021,1,0,0,9999,0,0,0,
2026-04-27 06:20:00,METAR LSGS 270620Z 07004KT CAVOK 12/07 Q1021,1,0,0,9999,0,0,0,
2026-04-27 05:50:00,METAR LSGS 270550Z 08004KT CAVOK 11/06 Q1021,1,0,0,9999,0,0,0,
2026-04-27 05:20:00,METAR LSGS 270520Z 07005KT CAVOK 09/05 Q1021,1,0,0,9999,0,0,0,
2026-04-27 04:50:00,METAR LSGS 270450Z 09005KT CAVOK 07/05 Q1021,1,0,0,9999,0,0,0,
2026-04-27 04:20:00,METAR LSGS 270420Z AUTO 08003KT 060V120 CAVOK 08/05 Q1021,1,0,0,9999,0,0,0,
2026-04-27 03:50:00,METAR LSGS 270350Z AUTO VRB01KT CAVOK 08/05 Q1021,1,0,0,9999,0,0,0,
2026-04-27 03:20:00,METAR LSGS 270320Z AUTO 09002KT CAVOK 07/05 Q1021,1,0,0,9999,0,0,0,
2026-04-27 02:50:00,METAR LSGS 270250Z AUTO 09001KT CAVOK 08/07 Q1021,1,0,0,9999,0,0,0,
2026-04-27 02:20:00,METAR LSGS 270220Z AUTO 00000KT CAVOK 08/05 Q1021,1,0,0,9999,0,0,0,
2026-04-27 01:50:00,METAR LSGS 270150Z AUTO VRB01KT CAVOK 09/06 Q1021,1,0,0,9999,0,0,0,
2026-04-27 01:20:00,METAR LSGS 270120Z AUTO VRB01KT CAVOK 09/05 Q1021,1,0,0,9999,0,0,0,
2026-04-27 00:50:00,METAR LSGS 270050Z AUTO VRB01KT CAVOK 10/06 Q1021,1,0,0,9999,0,0,0,
2026-04-27 00:20:00,METAR LSGS 270020Z AUTO VRB01KT CAVOK 10/05 Q1021,1,0,0,9999,0,0,0,
2026-04-26 23:50:00,METAR LSGS 262350Z AUTO VRB01KT CAVOK 11/06 Q1021,1,0,0,9999,0,0,0,
2026-04-26 23:20:00,METAR LSGS 262320Z AUTO 08004KT CAVOK 11/07 Q1020,1,0,0,9999,0,0,0,
2026-04-26 22:50:00,METAR LSGS 262250Z AUTO 10003KT CAVOK 13/05 Q1020,1,0,0,9999,0,0,0,
2026-04-26 22:20:00,METAR LSGS 262220Z AUTO 09005KT CAVOK 13/05 Q1020,1,0,0,9999,0,0,0,
2026-04-26 21:50:00,METAR LSGS 262150Z AUTO VRB02KT CAVOK 14/06 Q1020,1,0,0,9999,0,0,0,
2026-04-26 21:20:00,METAR LSGS 262120Z AUTO 10004KT 060V140 CAVOK 16/05 Q1019,1,0,0,9999,0,0,0,
2026-04-26 20:50:00,METAR LSGS 262050Z AUTO 08003KT 020V180 CAVOK 16/05 Q1019,1,0,0,9999,0,0,0,
2026-04-26 20:20:00,METAR LSGS 262020Z AUTO VRB03KT CAVOK 15/06 Q1019,1,0,0,9999,0,0,0,
2026-04-26 19:50:00,METAR LSGS 261950Z AUTO VRB01KT CAVOK 17/05 Q1019,1,0,0,9999,0,0,0,
2026-04-26 19:20:00,METAR LSGS 261920Z AUTO 22004KT 170V250 CAVOK 18/05 Q1018,1,0,0,9999,0,0,0,
2026-04-26 18:50:00,METAR LSGS 261850Z AUTO 24006KT 200V270 CAVOK 19/05 Q1018,1,0,0,9999,0,0,0,
2026-04-26 18:20:00,METAR LSGS 261820Z AUTO 25009KT CAVOK 20/05 Q1017,1,0,0,9999,0,0,0,
2026-04-26 17:50:00,METAR LSGS 261750Z 25013KT CAVOK 21/05 Q1017,1,0,0,9999,0,0,0,
2026-04-26 17:20:00,METAR LSGS 261720Z 24015KT CAVOK 22/06 Q1016,1,0,0,9999,0,0,0,
2026-04-26 16:50:00,METAR LSGS 261650Z 25017KT CAVOK 23/06 Q1016,1,0,0,9999,0,0,0,
2026-04-26 16:20:00,METAR LSGS 261620Z 25018KT CAVOK 23/06 Q1016,1,0,0,9999,0,0,0,
2026-04-26 15:50:00,METAR LSGS 261550Z 25018KT CAVOK 24/07 Q1016,1,0,0,9999,0,0,0,
2026-04-26 15:20:00,METAR LSGS 261520Z 25017KT CAVOK 23/06 Q1016,1,0,0,9999,0,0,0,
2026-04-26 14:50:00,METAR LSGS 261450Z 25015KT CAVOK 24/06 Q1016,1,0,0,9999,0,0,0,
2026-04-26 14:20:00,METAR LSGS 261420Z 25015KT CAVOK 24/07 Q1017,1,0,0,9999,0,0,0,
2026-04-26 13:50:00,METAR LSGS 261350Z 25015KT CAVOK 24/05 Q1017,1,0,0,9999,0,0,0,
2026-04-26 13:20:00,METAR LSGS 261320Z 25012KT 210V280 CAVOK 23/05 Q1017,1,0,0,9999,0,0,0,
2026-04-26 12:50:00,METAR LSGS 261250Z 24010KT 200V260 CAVOK 23/06 Q1018,1,0,0,9999,0,0,0,
2026-04-26 12:20:00,METAR LSGS 261220Z 26009KT CAVOK 22/05 Q1018,1,0,0,9999,0,0,0,
2026-04-26 11:50:00,METAR LSGS 261150Z 23007KT 190V260 CAVOK 21/04 Q1018,1,0,0,9999,0,0,0,
2026-04-26 11:20:00,METAR LSGS 261120Z 24005KT 180V280 CAVOK 21/04 Q1019,1,0,0,9999,0,0,0,
2026-04-26 10:50:00,METAR LSGS 261050Z 23004KT 140V270 CAVOK 20/04 Q1019,1,0,0,9999,0,0,0,
2026-04-26 10:20:00,METAR LSGS 261020Z VRB02KT CAVOK 20/04 Q1019,1,0,0,9999,0,0,0,
2026-04-26 09:50:00,METAR LSGS 260950Z VRB01KT CAVOK 19/03 Q1020,1,0,0,9999,0,0,0,
2026-04-26 09:20:00,METAR LSGS 260920Z VRB03KT CAVOK 18/04 Q1020,1,0,0,9999,0,0,0,
2026-04-26 08:50:00,METAR LSGS 260850Z VRB01KT CAVOK 17/04 Q1020,1,0,0,9999,0,0,0,
2026-04-26 08:20:00,METAR LSGS 260820Z 08003KT 040V160 CAVOK 17/05 Q1020,1,0,0,9999,0,0,0,
2026-04-26 07:50:00,METAR LSGS 260750Z VRB03KT CAVOK 15/04 Q1021,1,0,0,9999,0,0,0,
2026-04-26 07:20:00,METAR LSGS 260720Z 08004KT 030V120 CAVOK 14/04 Q1021,1,0,0,9999,0,0,0,
2026-04-26 06:50:00,METAR LSGS 260650Z 07004KT CAVOK 13/04 Q1021,1,0,0,9999,0,0,0,
2026-04-26 06:20:00,METAR LSGS 260620Z 08004KT CAVOK 12/05 Q1021,1,0,0,9999,0,0,0,
2026-04-26 05:50:00,METAR LSGS 260550Z VRB02KT CAVOK 10/05 Q1021,1,0,0,9999,0,0,0,
2026-04-26 05:20:00,METAR LSGS 260520Z VRB02KT CAVOK 09/03 Q1021,1,0,0,9999,0,0,0,
2026-04-26 04:50:00,METAR LSGS 260450Z 05004KT CAVOK 08/03 Q1020,1,0,0,9999,0,0,0,
2026-04-26 04:20:00,METAR LSGS 260420Z AUTO 06004KT CAVOK 09/03 Q1020,1,0,0,9999,0,0,0,
2026-04-26 03:50:00,METAR LSGS 260350Z AUTO 09004KT CAVOK 07/04 Q1020,1,0,0,9999,0,0,0,
2026-04-26 03:20:00,METAR LSGS 260320Z AUTO VRB01KT CAVOK 07/04 Q1020,1,0,0,9999,0,0,0,
2026-04-26 02:50:00,METAR LSGS 260250Z AUTO 09003KT CAVOK 07/04 Q1020,1,0,0,9999,0,0,0,
2026-04-26 02:20:00,METAR LSGS 260220Z AUTO VRB01KT CAVOK 08/04 Q1020,1,0,0,9999,0,0,0,
2026-04-26 01:50:00,METAR LSGS 260150Z AUTO VRB01KT CAVOK 08/05 Q1020,1,0,0,9999,0,0,0,
2026-04-26 01:20:00,METAR LSGS 260120Z AUTO VRB01KT CAVOK 09/04 Q1020,1,0,0,9999,0,0,0,
2026-04-26 00:50:00,METAR LSGS 260050Z AUTO VRB03KT CAVOK 11/04 Q1019,1,0,0,9999,0,0,0,
2026-04-26 00:20:00,METAR LSGS 260020Z AUTO 09004KT CAVOK 10/05 Q1019,1,0,0,9999,0,0,0,
2026-04-25 23:50:00,METAR LSGS 252350Z AUTO VRB01KT CAVOK 11/06 Q1019,1,0,0,9999,0,0,0,
2026-04-25 23:20:00,METAR LSGS 252320Z AUTO VRB01KT CAVOK 10/05 Q1019,1,0,0,9999,0,0,0,
2026-04-25 22:50:00,METAR LSGS 252250Z AUTO VRB01KT CAVOK 11/04 Q1019,1,0,0,9999,0,0,0,
2026-04-25 22:20:00,METAR LSGS 252220Z AUTO VRB02KT CAVOK 12/04 Q1019,1,0,0,9999,0,0,0,
2026-04-25 21:50:00,METAR LSGS 252150Z AUTO VRB01KT CAVOK 13/04 Q1018,1,0,0,9999,0,0,0,
2026-04-25 21:20:00,METAR LSGS 252120Z AUTO VRB01KT CAVOK 15/03 Q1018,1,0,0,9999,0,0,0,
2026-04-25 20:50:00,METAR LSGS 252050Z AUTO VRB02KT CAVOK 15/03 Q1018,1,0,0,9999,0,0,0,
2026-04-25 20:20:00,METAR LSGS 252020Z AUTO VRB02KT CAVOK 14/03 Q1017,1,0,0,9999,0,0,0,
2026-04-25 19:50:00,METAR LSGS 251950Z AUTO 26005KT CAVOK 16/03 Q1017,1,0,0,9999,0,0,0,
2026-04-25 19:20:00,METAR LSGS 251920Z AUTO 25006KT CAVOK 18/02 Q1017,1,0,0,9999,0,0,0,
2026-04-25 18:50:00,METAR LSGS 251850Z AUTO 24005KT 210V280 CAVOK 19/03 Q1016,1,0,0,9999,0,0,0,
2026-04-25 18:20:00,METAR LSGS 251820Z AUTO 27006KT CAVOK 19/03 Q1016,1,0,0,9999,0,0,0,
2026-04-25 17:50:00,METAR LSGS 251750Z 26008KT CAVOK 21/02 Q1015,1,0,0,9999,0,0,0,
2026-04-25 17:20:00,METAR LSGS 251720Z 27007KT 240V310 CAVOK 24/02 Q1015,1,0,0,9999,0,0,0,
2026-04-25 16:50:00,METAR LSGS 251650Z 23009KT 9999 FEW100 24/02 Q1015,0,9,0,10000,0,0,0,
2026-04-25 16:20:00,METAR LSGS 251620Z 24007KT 9999 FEW100 25/01 Q1015,0,7,0,10000,0,0,0,
2026-04-25 15:50:00,METAR LSGS 251550Z 23007KT 180V260 9999 FEW100 25/03 Q1015,0,7,0,10000,0,0,0,
2026-04-25 15:20:00,METAR LSGS 251520Z 24007KT 170V270 9999 FEW100 25/02 Q1015,0,7,0,10000,0,0,0,
2026-04-25 14:50:00,METAR LSGS 251450Z 23009KT 170V250 CAVOK 25/02 Q1015,1,0,0,9999,0,0,0,
2026-04-25 14:20:00,METAR LSGS 251420Z 23008KT 210V270 CAVOK 25/01 Q1015,1,0,0,9999,0,0,0,
2026-04-25 13:50:00,METAR LSGS 251350Z 23008KT 150V280 9999 FEW100 25/02 Q1015,0,8,0,10000,0,0,0,
2026-04-25 13:20:00,METAR LSGS 251320Z VRB05KT 9999 FEW100 24/02 Q1016,0,5,0,10000,0,0,0,
2026-04-25 12:50:00,METAR LSGS 251250Z 22005KT 160V290 CAVOK 24/02 Q1016,1,0,0,9999,0,0,0,
2026-04-25 12:20:00,METAR LSGS 251220Z 25007KT 210V310 CAVOK 24/03 Q1016,1,0,0,9999,0,0,0,
2026-04-25 11:50:00,METAR LSGS 251150Z 25008KT 9999 FEW080 23/06 Q1017,0,8,0,10000,0,0,0,
2026-04-25 11:20:00,METAR LSGS 251120Z 25008KT CAVOK 21/04 Q1017,1,0,0,9999,0,0,0,
2026-04-25 10:50:00,METAR LSGS 251050Z 23006KT 170V280 CAVOK 20/03 Q1017,1,0,0,9999,0,0,0,
2026-04-25 10:20:00,METAR LSGS 251020Z 25004KT 180V340 CAVOK 20/05 Q1018,1,0,0,9999,0,0,0,
2026-04-25 09:50:00,METAR LSGS 250950Z 22003KT 150V280 CAVOK 19/03 Q1018,1,0,0,9999,0,0,0,
2026-04-25 09:20:00,METAR LSGS 250920Z VRB03KT CAVOK 18/04 Q1018,1,0,0,9999,0,0,0,
2026-04-25 08:50:00,METAR LSGS 250850Z VRB02KT CAVOK 17/04 Q1019,1,0,0,9999,0,0,0,
2026-04-25 08:20:00,METAR LSGS 250820Z VRB02KT CAVOK 16/05 Q1019,1,0,0,9999,0,0,0,
2026-04-25 07:50:00,METAR LSGS 250750Z VRB03KT CAVOK 15/03 Q1019,1,0,0,9999,0,0,0,
2026-04-25 07:20:00,METAR LSGS 250720Z 07004KT CAVOK 13/03 Q1020,1,0,0,9999,0,0,0,
2026-04-25 06:50:00,METAR LSGS 250650Z 08003KT 050V130 CAVOK 12/04 Q1020,1,0,0,9999,0,0,0,
2026-04-25 06:20:00,METAR LSGS 250620Z 08003KT 030V120 CAVOK 11/04 Q1020,1,0,0,9999,0,0,0,
2026-04-25 05:50:00,METAR LSGS 250550Z 08005KT CAVOK 10/04 Q1020,1,0,0,9999,0,0,0,
2026-04-25 05:20:00,METAR LSGS 250520Z VRB03KT CAVOK 07/03 Q1020,1,0,0,9999,0,0,0,
2026-04-25 04:50:00,METAR LSGS 250450Z 07004KT CAVOK 06/04 Q1020,1,0,0,9999,0,0,0,
2026-04-25 04:20:00,METAR LSGS 250420Z AUTO 06004KT CAVOK 07/03 Q1019,1,0,0,9999,0,0,0,
2026-04-25 03:50:00,METAR LSGS 250350Z AUTO VRB01KT CAVOK 06/03 Q1019,1,0,0,9999,0,0,0,
2026-04-25 03:20:00,METAR LSGS 250320Z AUTO 09003KT CAVOK 06/04 Q1019,1,0,0,9999,0,0,0,
2026-04-25 02:50:00,METAR LSGS 250250Z AUTO VRB01KT CAVOK 06/04 Q1019,1,0,0,9999,0,0,0,
2026-04-25 02:20:00,METAR LSGS 250220Z AUTO 09003KT CAVOK 08/04 Q1019,1,0,0,9999,0,0,0,
2026-04-25 01:50:00,METAR LSGS 250150Z AUTO VRB02KT CAVOK 09/04 Q1019,1,0,0,9999,0,0,0,
2026-04-25 01:20:00,METAR LSGS 250120Z AUTO VRB02KT CAVOK 09/04 Q1019,1,0,0,9999,0,0,0,
2026-04-25 00:50:00,METAR LSGS 250050Z AUTO 10003KT CAVOK 08/04 Q1019,1,0,0,9999,0,0,0,
2026-04-25 00:20:00,METAR LSGS 250020Z AUTO VRB01KT CAVOK 09/04 Q1019,1,0,0,9999,0,0,0,
2026-04-24 23:50:00,METAR LSGS 242350Z AUTO 10003KT CAVOK 11/04 Q1019,1,0,0,9999,0,0,0,
2026-04-24 23:20:00,METAR LSGS 242320Z AUTO 11004KT CAVOK 10/04 Q1019,1,0,0,9999,0,0,0,
2026-04-24 22:50:00,METAR LSGS 242250Z AUTO 09004KT CAVOK 10/05 Q1019,1,0,0,9999,0,0,0,
2026-04-24 22:20:00,METAR LSGS 242220Z AUTO VRB03KT CAVOK 11/04 Q1019,1,0,0,9999,0,0,0,
2026-04-24 21:50:00,METAR LSGS 242150Z AUTO VRB02KT CAVOK 11/05 Q1019,1,0,0,9999,0,0,0,
2026-04-24 21:20:00,METAR LSGS 242120Z AUTO VRB02KT CAVOK 14/03 Q1019,1,0,0,9999,0,0,0,
2026-04-24 20:50:00,METAR LSGS 242050Z AUTO 08003KT CAVOK 15/03 Q1018,1,0,0,9999,0,0,0,
2026-04-24 20:20:00,METAR LSGS 242020Z AUTO VRB02KT CAVOK 16/03 Q1018,1,0,0,9999,0,0,0,
2026-04-24 19:50:00,METAR LSGS 241950Z AUTO VRB03KT CAVOK 15/03 Q1018,1,0,0,9999,0,0,0,
2026-04-24 19:20:00,METAR LSGS 241920Z AUTO VRB02KT CAVOK 16/02 Q1018,1,0,0,9999,0,0,0,
2026-04-24 18:50:00,METAR LSGS 241850Z AUTO 26006KT 210V290 CAVOK 18/02 Q1017,1,0,0,9999,0,0,0,
2026-04-24 18:20:00,METAR LSGS 241820Z AUTO 27006KT 210V320 CAVOK 19/02 Q1017,1,0,0,9999,0,0,0,
2026-04-24 17:50:00,METAR LSGS 241750Z 29010KT CAVOK 20/02 Q1016,1,0,0,9999,0,0,0,
2026-04-24 17:20:00,METAR LSGS 241720Z 27013KT CAVOK 21/03 Q1016,1,0,0,9999,0,0,0,
2026-04-24 16:50:00,METAR LSGS 241650Z 26014KT CAVOK 21/04 Q1016,1,0,0,9999,0,0,0,
2026-04-24 16:20:00,METAR LSGS 241620Z 25018KT CAVOK 22/04 Q1016,1,0,0,9999,0,0,0,
2026-04-24 15:50:00,METAR LSGS 241550Z 25018KT CAVOK 22/05 Q1016,1,0,0,9999,0,0,0,
2026-04-24 15:20:00,METAR LSGS 241520Z 25019KT CAVOK 23/04 Q1016,1,0,0,9999,0,0,0,
2026-04-24 14:50:00,METAR LSGS 241450Z 25019KT CAVOK 23/05 Q1016,1,0,0,9999,0,0,0,
2026-04-24 14:20:00,METAR LSGS 241420Z 25017KT CAVOK 23/05 Q1017,1,0,0,9999,0,0,0,
2026-04-24 13:50:00,METAR LSGS 241350Z 25017KT CAVOK 23/06 Q1017,1,0,0,9999,0,0,0,
2026-04-24 13:20:00,METAR LSGS 241320Z 26014KT CAVOK 23/06 Q1017,1,0,0,9999,0,0,0,
2026-04-24 12:50:00,METAR LSGS 241250Z 25015KT CAVOK 22/06 Q1018,1,0,0,9999,0,0,0,
2026-04-24 12:20:00,METAR LSGS 241220Z 25010KT 220V290 CAVOK 21/07 Q1018,1,0,0,9999,0,0,0,
2026-04-24 11:50:00,METAR LSGS 241150Z 26011KT CAVOK 20/05 Q1019,1,0,0,9999,0,0,0,
2026-04-24 11:20:00,METAR LSGS 241120Z 24008KT CAVOK 20/05 Q1019,1,0,0,9999,0,0,0,
2026-04-24 10:50:00,METAR LSGS 241050Z 22006KT 170V250 CAVOK 19/04 Q1019,1,0,0,9999,0,0,0,
2026-04-24 10:20:00,METAR LSGS 241020Z 22005KT 160V270 CAVOK 18/02 Q1020,1,0,0,9999,0,0,0,
2026-04-24 09:50:00,METAR LSGS 240950Z 21004KT 160V240 CAVOK 17/03 Q1020,1,0,0,9999,0,0,0,
2026-04-24 09:20:00,METAR LSGS 240920Z 23003KT 180V270 CAVOK 17/02 Q1020,1,0,0,9999,0,0,0,
2026-04-24 08:50:00,METAR LSGS 240850Z VRB02KT CAVOK 16/02 Q1021,1,0,0,9999,0,0,0,
2026-04-24 08:20:00,METAR LSGS 240820Z VRB02KT CAVOK 15/04 Q1021,1,0,0,9999,0,0,0,
2026-04-24 07:50:00,METAR LSGS 240750Z 09004KT 050V130 CAVOK 13/02 Q1021,1,0,0,9999,0,0,0,
2026-04-24 07:20:00,METAR LSGS 240720Z 08004KT CAVOK 13/04 Q1022,1,0,0,9999,0,0,0,
2026-04-24 06:50:00,METAR LSGS 240650Z 08005KT 050V110 CAVOK 11/04 Q1022,1,0,0,9999,0,0,0,
2026-04-24 06:20:00,METAR LSGS 240620Z 08005KT CAVOK 10/04 Q1022,1,0,0,9999,0,0,0,
2026-04-24 05:50:00,METAR LSGS 240550Z 07004KT CAVOK 08/03 Q1022,1,0,0,9999,0,0,0,
2026-04-24 05:20:00,METAR LSGS 240520Z 07005KT CAVOK 05/02 Q1022,1,0,0,9999,0,0,0,
2026-04-24 04:50:00,METAR LSGS 240450Z 08004KT CAVOK 07/03 Q1022,1,0,0,9999,0,0,0,
2026-04-24 04:20:00,METAR LSGS 240420Z AUTO VRB03KT CAVOK 06/03 Q1022,1,0,0,9999,0,0,0,
2026-04-24 03:50:00,METAR LSGS 240350Z AUTO VRB01KT CAVOK 06/03 Q1022,1,0,0,9999,0,0,0,
2026-04-24 03:20:00,METAR LSGS 240320Z AUTO 07005KT CAVOK 06/03 Q1022,1,0,0,9999,0,0,0,
2026-04-24 02:50:00,METAR LSGS 240250Z AUTO 08004KT CAVOK 07/03 Q1022,1,0,0,9999,0,0,0,
2026-04-24 02:20:00,METAR LSGS 240220Z AUTO 08003KT CAVOK 07/04 Q1022,1,0,0,9999,0,0,0,
2026-04-24 01:50:00,METAR LSGS 240150Z AUTO 09002KT CAVOK 06/04 Q1022,1,0,0,9999,0,0,0,
2026-04-24 01:20:00,METAR LSGS 240120Z AUTO VRB01KT CAVOK 07/04 Q1022,1,0,0,9999,0,0,0,
2026-04-24 00:50:00,METAR LSGS 240050Z AUTO VRB01KT CAVOK 08/04 Q1022,1,0,0,9999,0,0,0,
2026-04-24 00:20:00,METAR LSGS 240020Z AUTO VRB02KT CAVOK 08/04 Q1022,1,0,0,9999,0,0,0,
2026-04-23 23:50:00,METAR LSGS 232350Z AUTO VRB01KT CAVOK 09/04 Q1022,1,0,0,9999,0,0,0,
2026-04-23 23:20:00,METAR LSGS 232320Z AUTO VRB01KT CAVOK 09/05 Q1022,1,0,0,9999,0,0,0,
2026-04-23 22:50:00,METAR LSGS 232250Z AUTO VRB01KT CAVOK 09/04 Q1022,1,0,0,9999,0,0,0,
2026-04-23 22:20:00,METAR LSGS 232220Z AUTO VRB02KT CAVOK 10/04 Q1022,1,0,0,9999,0,0,0,
2026-04-23 21:50:00,METAR LSGS 232150Z AUTO 08006KT CAVOK 10/04 Q1022,1,0,0,9999,0,0,0,
2026-04-23 21:20:00,METAR LSGS 232120Z AUTO 09004KT CAVOK 11/05 Q1022,1,0,0,9999,0,0,0,
2026-04-23 20:50:00,METAR LSGS 232050Z AUTO 10002KT CAVOK 12/06 Q1022,1,0,0,9999,0,0,0,
2026-04-23 20:20:00,METAR LSGS 232020Z AUTO VRB03KT CAVOK 13/05 Q1021,1,0,0,9999,0,0,0,
2026-04-23 19:50:00,METAR LSGS 231950Z AUTO VRB03KT CAVOK 14/04 Q1021,1,0,0,9999,0,0,0,
2026-04-23 19:20:00,METAR LSGS 231920Z AUTO VRB02KT CAVOK 16/04 Q1021,1,0,0,9999,0,0,0,
2026-04-23 18:50:00,METAR LSGS 231850Z 24009KT CAVOK 17/04 Q1020,1,0,0,9999,0,0,0,
2026-04-23 18:20:00,METAR LSGS 231820Z 28005KT 240V310 CAVOK 17/05 Q1020,1,0,0,9999,0,0,0,
2026-04-23 17:50:00,METAR LSGS 231750Z 28009KT 250V310 CAVOK 18/05 Q1020,1,0,0,9999,0,0,0,
2026-04-23 17:20:00,METAR LSGS 231720Z 27014KT CAVOK 19/05 Q1019,1,0,0,9999,0,0,0,
2026-04-23 16:50:00,METAR LSGS 231650Z 25016KT CAVOK 20/06 Q1019,1,0,0,9999,0,0,0,
2026-04-23 16:20:00,METAR LSGS 231620Z 25017KT CAVOK 20/06 Q1019,1,0,0,9999,0,0,0,
2026-04-23 15:50:00,METAR LSGS 231550Z 25018KT CAVOK 20/06 Q1019,1,0,0,9999,0,0,0,
2026-04-23 15:20:00,METAR LSGS 231520Z 25017KT CAVOK 20/06 Q1020,1,0,0,9999,0,0,0,
2026-04-23 14:50:00,METAR LSGS 231450Z 25018KT 9999 NSC 20/06 Q1020,0,18,0,10000,0,0,0,
2026-04-23 14:20:00,METAR LSGS 231420Z 25017KT CAVOK 20/04 Q1020,1,0,0,9999,0,0,0,
2026-04-23 13:50:00,METAR LSGS 231350Z 25017KT CAVOK 20/04 Q1021,1,0,0,9999,0,0,0,
2026-04-23 13:20:00,METAR LSGS 231320Z 25015KT CAVOK 20/04 Q1021,1,0,0,9999,0,0,0,
2026-04-23 12:50:00,METAR LSGS 231250Z 24012KT CAVOK 19/05 Q1022,1,0,0,9999,0,0,0,
2026-04-23 12:20:00,METAR LSGS 231220Z 25011KT 210V280 CAVOK 20/06 Q1022,1,0,0,9999,0,0,0,
2026-04-23 11:50:00,METAR LSGS 231150Z 25009KT 190V270 CAVOK 19/06 Q1022,1,0,0,9999,0,0,0,
2026-04-23 11:20:00,METAR LSGS 231120Z 22006KT 160V260 CAVOK 19/05 Q1023,1,0,0,9999,0,0,0,
2026-04-23 10:50:00,METAR LSGS 231050Z 24005KT 190V290 CAVOK 17/02 Q1023,1,0,0,9999,0,0,0,
2026-04-23 10:20:00,METAR LSGS 231020Z 26004KT 210V290 CAVOK 17/02 Q1024,1,0,0,9999,0,0,0,
2026-04-23 09:50:00,METAR LSGS 230950Z 23004KT 130V300 CAVOK 16/03 Q1024,1,0,0,9999,0,0,0,
2026-04-23 09:20:00,METAR LSGS 230920Z VRB02KT CAVOK 15/03 Q1024,1,0,0,9999,0,0,0,
2026-04-23 08:50:00,METAR LSGS 230850Z VRB02KT CAVOK 14/02 Q1025,1,0,0,9999,0,0,0,
2026-04-23 08:20:00,METAR LSGS 230820Z VRB01KT CAVOK 13/02 Q1025,1,0,0,9999,0,0,0,
2026-04-23 07:50:00,METAR LSGS 230750Z VRB02KT CAVOK 12/03 Q1025,1,0,0,9999,0,0,0,
2026-04-23 07:20:00,METAR LSGS 230720Z VRB02KT CAVOK 11/03 Q1025,1,0,0,9999,0,0,0,
2026-04-23 06:50:00,METAR LSGS 230650Z 07003KT CAVOK 10/03 Q1025,1,0,0,9999,0,0,0,
2026-04-23 06:20:00,METAR LSGS 230620Z VRB01KT CAVOK 09/04 Q1025,1,0,0,9999,0,0,0,
2026-04-23 05:50:00,METAR LSGS 230550Z VRB02KT CAVOK 07/04 Q1025,1,0,0,9999,0,0,0,
2026-04-23 05:20:00,METAR LSGS 230520Z AUTO VRB02KT CAVOK 07/03 Q1025,1,0,0,9999,0,0,0,
2026-04-23 04:50:00,METAR LSGS 230450Z AUTO VRB02KT CAVOK 06/02 Q1024,1,0,0,9999,0,0,0,
2026-04-23 04:20:00,METAR LSGS 230420Z AUTO 09005KT CAVOK 06/03 Q1024,1,0,0,9999,0,0,0,
2026-04-23 03:50:00,METAR LSGS 230350Z AUTO 06006KT CAVOK 06/03 Q1024,1,0,0,9999,0,0,0,
2026-04-23 03:20:00,METAR LSGS 230320Z AUTO 10003KT CAVOK 07/04 Q1024,1,0,0,9999,0,0,0,
2026-04-23 02:50:00,METAR LSGS 230250Z AUTO 09003KT 060V120 CAVOK 07/04 Q1024,1,0,0,9999,0,0,0,
2026-04-23 02:20:00,METAR LSGS 230220Z AUTO 08004KT CAVOK 06/04 Q1024,1,0,0,9999,0,0,0,
2026-04-23 01:50:00,METAR LSGS 230150Z AUTO 10002KT CAVOK 05/04 Q1023,1,0,0,9999,0,0,0,
2026-04-23 01:20:00,METAR LSGS 230120Z AUTO VRB02KT CAVOK 07/04 Q1023,1,0,0,9999,0,0,0,
2026-04-23 00:50:00,METAR LSGS 230050Z AUTO VRB01KT CAVOK 07/04 Q1023,1,0,0,9999,0,0,0,
2026-04-23 00:20:00,METAR LSGS 230020Z AUTO VRB01KT CAVOK 08/04 Q1023,1,0,0,9999,0,0,0,
2026-04-22 23:50:00,METAR LSGS 222350Z AUTO VRB01KT CAVOK 07/05 Q1022,1,0,0,9999,0,0,0,
2026-04-22 23:20:00,METAR LSGS 222320Z AUTO VRB01KT CAVOK 09/04 Q1022,1,0,0,9999,0,0,0,
2026-04-22 22:50:00,METAR LSGS 222250Z AUTO VRB01KT CAVOK 10/04 Q1022,1,0,0,9999,0,0,0,
2026-04-22 22:20:00,METAR LSGS 222220Z AUTO VRB03KT CAVOK 11/05 Q1021,1,0,0,9999,0,0,0,
2026-04-22 21:50:00,METAR LSGS 222150Z AUTO 10005KT CAVOK 10/05 Q1021,1,0,0,9999,0,0,0,
2026-04-22 21:20:00,METAR LSGS 222120Z AUTO VRB02KT CAVOK 12/04 Q1020,1,0,0,9999,0,0,0,
2026-04-22 20:50:00,METAR LSGS 222050Z AUTO VRB03KT CAVOK 13/04 Q1020,1,0,0,9999,0,0,0,
2026-04-22 20:20:00,METAR LSGS 222020Z AUTO 26005KT 190V300 CAVOK 14/05 Q1019,1,0,0,9999,0,0,0,
2026-04-22 19:50:00,METAR LSGS 221950Z AUTO VRB02KT CAVOK 14/04 Q1019,1,0,0,9999,0,0,0,
2026-04-22 19:20:00,METAR LSGS 221920Z AUTO 27006KT CAVOK 15/05 Q1018,1,0,0,9999,0,0,0,
2026-04-22 18:50:00,METAR LSGS 221850Z AUTO 24009KT 200V260 CAVOK 15/05 Q1017,1,0,0,9999,0,0,0,
2026-04-22 18:20:00,METAR LSGS 221820Z AUTO 25009KT CAVOK 15/05 Q1017,1,0,0,9999,0,0,0,
2026-04-22 17:50:00,METAR LSGS 221750Z 24010KT 9999 FEW120 16/06 Q1016,0,10,0,10000,0,0,0,
2026-04-22 17:20:00,METAR LSGS 221720Z 26014KT 9999 FEW095 SCT130 17/06 Q1016,0,14,0,10000,0,0,0,
2026-04-22 16:50:00,METAR LSGS 221650Z 26014KT 9999 FEW095TCU 18/06 Q1016,0,14,0,10000,0,0,0,
2026-04-22 16:20:00,METAR LSGS 221620Z 26016KT 9999 FEW095 19/06 Q1015,0,16,0,10000,0,0,0,
2026-04-22 15:50:00,METAR LSGS 221550Z 25016KT 9999 FEW095 19/06 Q1015,0,16,0,10000,0,0,0,
2026-04-22 15:20:00,METAR LSGS 221520Z 25016KT 9999 FEW095 19/06 Q1015,0,16,0,10000,0,0,0,
2026-04-22 14:50:00,METAR LSGS 221450Z 25016KT 9999 FEW095 19/05 Q1015,0,16,0,10000,0,0,0,
2026-04-22 14:20:00,METAR LSGS 221420Z 25014KT 9999 FEW095 19/05 Q1015,0,14,0,10000,0,0,0,
2026-04-22 13:50:00,METAR LSGS 221350Z 25014KT 9999 FEW065 18/04 Q1015,0,14,0,10000,0,0,0,
2026-04-22 13:20:00,METAR LSGS 221320Z 25014KT 9999 FEW065 19/05 Q1015,0,14,0,10000,0,0,0,
2026-04-22 12:50:00,METAR LSGS 221250Z 24011KT 200V300 9999 FEW065 19/05 Q1015,0,11,0,10000,0,0,0,
2026-04-22 12:20:00,METAR LSGS 221220Z 25009KT 220V290 9999 FEW075 19/04 Q1015,0,9,0,10000,0,0,0,
2026-04-22 11:50:00,METAR LSGS 221150Z VRB04KT 9999 FEW090 18/02 Q1015,0,4,0,10000,0,0,0,
2026-04-22 11:20:00,METAR LSGS 221120Z 21005KT 140V280 9999 FEW080 18/03 Q1016,0,5,0,10000,0,0,0,
2026-04-22 10:50:00,METAR LSGS 221050Z VRB03KT CAVOK 17/02 Q1016,1,0,0,9999,0,0,0,
2026-04-22 10:20:00,METAR LSGS 221020Z VRB02KT CAVOK 16/01 Q1016,1,0,0,9999,0,0,0,
2026-04-22 09:50:00,METAR LSGS 220950Z VRB02KT 9999 FEW075 16/03 Q1017,0,2,0,10000,0,0,0,
2026-04-22 09:20:00,METAR LSGS 220920Z VRB02KT 9999 FEW075 15/02 Q1017,0,2,0,10000,0,0,0,
2026-04-22 08:50:00,METAR LSGS 220850Z VRB03KT CAVOK 14/02 Q1017,1,0,0,9999,0,0,0,
2026-04-22 08:20:00,METAR LSGS 220820Z 07003KT 020V120 9999 FEW080 13/03 Q1018,0,3,0,10000,0,0,0,
2026-04-22 07:50:00,METAR LSGS 220750Z 07003KT 010V130 CAVOK 11/02 Q1018,1,0,0,9999,0,0,0,
2026-04-22 07:20:00,METAR LSGS 220720Z 06004KT CAVOK 10/02 Q1018,1,0,0,9999,0,0,0,
2026-04-22 06:50:00,METAR LSGS 220650Z 08005KT CAVOK 09/03 Q1018,1,0,0,9999,0,0,0,
2026-04-22 06:20:00,METAR LSGS 220620Z 09006KT CAVOK 08/03 Q1018,1,0,0,9999,0,0,0,
2026-04-22 05:50:00,METAR LSGS 220550Z AUTO 08004KT CAVOK 07/03 Q1018,1,0,0,9999,0,0,0,
2026-04-22 05:20:00,METAR LSGS 220520Z 08004KT CAVOK 05/02 Q1018,1,0,0,9999,0,0,0,
2026-04-22 04:50:00,METAR LSGS 220450Z AUTO 07003KT CAVOK 04/02 Q1017,1,0,0,9999,0,0,0,
2026-04-22 04:20:00,METAR LSGS 220420Z AUTO 14002KT CAVOK 04/01 Q1017,1,0,0,9999,0,0,0,
2026-04-22 03:50:00,METAR LSGS 220350Z AUTO VRB01KT CAVOK 04/02 Q1017,1,0,0,9999,0,0,0,
2026-04-22 03:20:00,METAR LSGS 220320Z AUTO VRB01KT CAVOK 04/02 Q1017,1,0,0,9999,0,0,0,
2026-04-22 02:50:00,METAR LSGS 220250Z AUTO VRB01KT CAVOK 05/03 Q1017,1,0,0,9999,0,0,0,
2026-04-22 02:20:00,METAR LSGS 220220Z AUTO VRB01KT CAVOK 04/02 Q1017,1,0,0,9999,0,0,0,
2026-04-22 01:50:00,METAR LSGS 220150Z AUTO VRB02KT CAVOK 05/03 Q1016,1,0,0,9999,0,0,0,
2026-04-22 01:20:00,METAR LSGS 220120Z AUTO VRB01KT CAVOK 06/04 Q1016,1,0,0,9999,0,0,0,
2026-04-22 00:50:00,METAR LSGS 220050Z AUTO 00000KT CAVOK 06/03 Q1016,1,0,0,9999,0,0,0,
2026-04-22 00:20:00,METAR LSGS 220020Z AUTO VRB01KT CAVOK 07/03 Q1016,1,0,0,9999,0,0,0,
2026-04-21 23:50:00,METAR LSGS 212350Z AUTO VRB02KT CAVOK 06/03 Q1016,1,0,0,9999,0,0,0,
2026-04-21 23:20:00,METAR LSGS 212320Z AUTO VRB01KT CAVOK 07/03 Q1016,1,0,0,9999,0,0,0,
2026-04-21 22:50:00,METAR LSGS 212250Z AUTO VRB03KT CAVOK 08/03 Q1015,1,0,0,9999,0,0,0,
2026-04-21 22:20:00,METAR LSGS 212220Z AUTO 09003KT CAVOK 09/03 Q1015,1,0,0,9999,0,0,0,
2026-04-21 21:50:00,METAR LSGS 212150Z AUTO 14002KT CAVOK 10/03 Q1015,1,0,0,9999,0,0,0,
2026-04-21 21:20:00,METAR LSGS 212120Z AUTO VRB02KT CAVOK 10/02 Q1014,1,0,0,9999,0,0,0,
2026-04-21 20:50:00,METAR LSGS 212050Z AUTO VRB02KT CAVOK 13/02 Q1014,1,0,0,9999,0,0,0,
2026-04-21 20:20:00,METAR LSGS 212020Z AUTO VRB01KT 9999 NCD 13/01 Q1014,0,1,0,10000,0,0,0,
2026-04-21 19:50:00,METAR LSGS 211950Z AUTO 26004KT CAVOK 13/01 Q1014,1,0,0,9999,0,0,0,
2026-04-21 19:20:00,METAR LSGS 211920Z AUTO 26007KT CAVOK 14/01 Q1013,1,0,0,9999,0,0,0,
2026-04-21 18:50:00,METAR LSGS 211850Z AUTO 25006KT 220V280 CAVOK 14/00 Q1013,1,0,0,9999,0,0,0,
2026-04-21 18:20:00,METAR LSGS 211820Z AUTO 24007KT CAVOK 15/01 Q1012,1,0,0,9999,0,0,0,
2026-04-21 17:50:00,METAR LSGS 211750Z AUTO 26012KT CAVOK 16/01 Q1012,1,0,0,9999,0,0,0,
2026-04-21 17:20:00,METAR LSGS 211720Z 26009KT 230V290 9999 FEW110 18/01 Q1012,0,9,0,10000,0,0,0,
2026-04-21 16:50:00,METAR LSGS 211650Z 25007KT 210V270 9999 SCT085 18/02 Q1012,0,7,0,10000,0,0,0,
2026-04-21 16:20:00,METAR LSGS 211620Z AUTO 24007KT 190V300 9999 SCT085 18/00 Q1012,0,7,0,10000,0,0,0,
2026-04-21 15:50:00,METAR LSGS 211550Z 27010G20KT 240V300 9999 SCT090 18/02 Q1011,0,10,1,10000,0,0,0,
2026-04-21 15:20:00,METAR LSGS 211520Z 24010KT 200V260 9999 SCT080 18/03 Q1011,0,10,0,10000,0,0,0,
2026-04-21 14:50:00,METAR LSGS 211450Z 24013KT 9999 SCT080 19/03 Q1011,0,13,0,10000,0,0,0,
2026-04-21 14:20:00,METAR LSGS 211420Z 24013KT 9999 FEW100 20/03 Q1011,0,13,0,10000,0,0,0,
2026-04-21 13:50:00,METAR LSGS 211350Z 24012KT 210V270 9999 FEW100 20/04 Q1011,0,12,0,10000,0,0,0,
2026-04-21 13:20:00,METAR LSGS 211320Z 24013KT 9999 NSC 19/04 Q1011,0,13,0,10000,0,0,0,
2026-04-21 12:50:00,METAR LSGS 211250Z 25015KT 220V290 9999 FEW080 20/06 Q1011,0,15,0,10000,0,0,0,
2026-04-21 12:20:00,METAR LSGS 211220Z 26014KT 9999 FEW080 19/06 Q1012,0,14,0,10000,0,0,0,
2026-04-21 11:50:00,METAR LSGS 211150Z 25013KT 220V280 9999 FEW080 17/06 Q1012,0,13,0,10000,0,0,0,
2026-04-21 11:20:00,METAR LSGS 211120Z 25013KT 9999 FEW080 17/06 Q1012,0,13,0,10000,0,0,0,
2026-04-21 10:50:00,METAR LSGS 211050Z 26010KT 230V290 9999 FEW080 17/07 Q1013,0,10,0,10000,0,0,0,
2026-04-21 10:20:00,METAR LSGS 211020Z 25009KT 220V290 9999 FEW080 16/06 Q1013,0,9,0,10000,0,0,0,
2026-04-21 09:50:00,METAR LSGS 210950Z 25007KT 220V280 9999 FEW085 14/06 Q1014,0,7,0,10000,0,0,0,
2026-04-21 09:20:00,METAR LSGS 210920Z 22005KT 180V250 9999 FEW076 14/06 Q1014,0,5,0,10000,0,0,0,
2026-04-21 08:50:00,METAR LSGS 210850Z 25004KT 170V300 9999 FEW075 13/04 Q1015,0,4,0,10000,0,0,0,
2026-04-21 08:20:00,METAR LSGS 210820Z 21004KT 150V260 9999 FEW075 12/04 Q1015,0,4,0,10000,0,0,0,
2026-04-21 07:50:00,METAR LSGS 210750Z VRB03KT 9999 FEW075 11/05 Q1015,0,3,0,10000,0,0,0,
2026-04-21 07:20:00,METAR LSGS 210720Z VRB03KT CAVOK 11/04 Q1016,1,0,0,9999,0,0,0,
2026-04-21 06:50:00,METAR LSGS 210650Z VRB01KT CAVOK 10/05 Q1016,1,0,0,9999,0,0,0,
2026-04-21 06:20:00,METAR LSGS 210620Z VRB02KT CAVOK 10/04 Q1016,1,0,0,9999,0,0,0,
2026-04-21 05:50:00,METAR LSGS 210550Z VRB01KT CAVOK 07/05 Q1016,1,0,0,9999,0,0,0,
2026-04-21 05:20:00,METAR LSGS 210520Z 00000KT CAVOK 06/04 Q1016,1,0,0,9999,0,0,0,
2026-04-21 04:50:00,METAR LSGS 210450Z VRB01KT CAVOK 05/03 Q1015,1,0,0,9999,0,0,0,
2026-04-21 04:20:00,METAR LSGS 210420Z AUTO VRB01KT CAVOK 06/04 Q1015,1,0,0,9999,0,0,0,
2026-04-21 03:50:00,METAR LSGS 210350Z AUTO VRB02KT CAVOK 06/04 Q1015,1,0,0,9999,0,0,0,
2026-04-21 03:20:00,METAR LSGS 210320Z AUTO VRB02KT 9999 NCD 06/04 Q1015,0,2,0,10000,0,0,0,
2026-04-21 02:50:00,METAR LSGS 210250Z AUTO VRB02KT 9999 SCT160 07/04 Q1015,0,2,0,10000,0,0,0,
2026-04-21 02:20:00,METAR LSGS 210220Z AUTO VRB01KT 9999 SCT160 08/04 Q1015,0,1,0,10000,0,0,0,
2026-04-21 01:50:00,METAR LSGS 210150Z AUTO VRB02KT 9999 OVC160 09/04 Q1015,0,2,0,10000,0,0,0,
2026-04-21 01:20:00,METAR LSGS 210120Z AUTO VRB02KT 9999 SCT160 07/04 Q1015,0,2,0,10000,0,0,0,
2026-04-21 00:50:00,METAR LSGS 210050Z AUTO VRB02KT 9999 NSC 09/04 Q1015,0,2,0,10000,0,0,0,
2026-04-21 00:20:00,METAR LSGS 210020Z AUTO VRB01KT 9999 BKN160 08/05 Q1015,0,1,0,10000,0,0,0,
2026-04-20 23:50:00,METAR LSGS 202350Z AUTO VRB02KT CAVOK 08/04 Q1015,1,0,0,9999,0,0,0,
2026-04-20 23:20:00,METAR LSGS 202320Z AUTO VRB02KT CAVOK 10/04 Q1015,1,0,0,9999,0,0,0,
2026-04-20 22:50:00,METAR LSGS 202250Z AUTO VRB01KT CAVOK 11/03 Q1014,1,0,0,9999,0,0,0,
2026-04-20 22:20:00,METAR LSGS 202220Z AUTO VRB02KT 9999 NSC 12/04 Q1014,0,2,0,10000,0,0,0,
2026-04-20 21:50:00,METAR LSGS 202150Z AUTO VRB02KT CAVOK 11/05 Q1014,1,0,0,9999,0,0,0,
2026-04-20 21:20:00,METAR LSGS 202120Z AUTO VRB03KT CAVOK 14/04 Q1014,1,0,0,9999,0,0,0,
2026-04-20 20:50:00,METAR LSGS 202050Z AUTO 23004KT 190V270 CAVOK 14/04 Q1014,1,0,0,9999,0,0,0,
2026-04-20 20:20:00,METAR LSGS 202020Z AUTO 21003KT 150V290 9999 NCD 14/04 Q1014,0,3,0,10000,0,0,0,
2026-04-20 19:50:00,METAR LSGS 201950Z AUTO VRB03KT 9999 FEW080 14/04 Q1013,0,3,0,10000,0,0,0,
2026-04-20 19:20:00,METAR LSGS 201920Z AUTO 24004KT 210V280 9999 FEW080 15/04 Q1013,0,4,0,10000,0,0,0,
2026-04-20 18:50:00,METAR LSGS 201850Z AUTO 25005KT 210V280 9999 NCD 16/04 Q1013,0,5,0,10000,0,0,0,
2026-04-20 18:20:00,METAR LSGS 201820Z AUTO 26011KT 9999 FEW090 16/04 Q1012,0,11,0,10000,0,0,0,
2026-04-20 17:50:00,METAR LSGS 201750Z AUTO 26014KT 9999 SCT140 17/04 Q1012,0,14,0,10000,0,0,0,
2026-04-20 17:20:00,METAR LSGS 201720Z AUTO 26012KT 9999 SCT150 17/04 Q1012,0,12,0,10000,0,0,0,
2026-04-20 16:50:00,METAR LSGS 201650Z 25011KT 9999 FEW150 SCT160 18/05 Q1011,0,11,0,10000,0,0,0,
2026-04-20 16:20:00,METAR LSGS 201620Z 24011KT 9999 FEW100 SCT160 19/05 Q1011,0,11,0,10000,0,0,0,
2026-04-20 15:50:00,METAR LSGS 201550Z 24010KT 9999 SCT160 19/05 Q1011,0,10,0,10000,0,0,0,
2026-04-20 15:20:00,METAR LSGS 201520Z 24011KT 9999 FEW085 SCT160 19/05 Q1011,0,11,0,10000,0,0,0,
2026-04-20 14:50:00,METAR LSGS 201450Z 25013KT 9999 FEW085 SCT160 19/06 Q1011,0,13,0,10000,0,0,0,
2026-04-20 14:20:00,METAR LSGS 201420Z 25015KT 9999 FEW085 SCT160 19/06 Q1011,0,15,0,10000,0,0,0,
2026-04-20 13:50:00,METAR LSGS 201350Z 25013KT 9999 FEW085 20/07 Q1012,0,13,0,10000,0,0,0,
2026-04-20 13:20:00,METAR LSGS 201320Z 25015KT 9999 FEW085 20/06 Q1012,0,15,0,10000,0,0,0,
2026-04-20 12:50:00,METAR LSGS 201250Z 25015KT 9999 FEW080 20/07 Q1012,0,15,0,10000,0,0,0,
2026-04-20 12:20:00,METAR LSGS 201220Z 26011KT CAVOK 19/06 Q1012,1,0,0,9999,0,0,0,
2026-04-20 11:50:00,METAR LSGS 201150Z 26012KT 210V280 CAVOK 19/07 Q1013,1,0,0,9999,0,0,0,
2026-04-20 11:20:00,METAR LSGS 201120Z 25011KT CAVOK 18/06 Q1013,1,0,0,9999,0,0,0,
2026-04-20 10:50:00,METAR LSGS 201050Z 24008KT 210V270 9999 FEW110 17/06 Q1014,0,8,0,10000,0,0,0,
2026-04-20 10:20:00,METAR LSGS 201020Z 25007KT 210V280 CAVOK 17/08 Q1014,1,0,0,9999,0,0,0,
2026-04-20 09:50:00,METAR LSGS 200950Z 24008KT CAVOK 15/07 Q1015,1,0,0,9999,0,0,0,
2026-04-20 09:20:00,METAR LSGS 200920Z 25005KT 220V280 CAVOK 15/07 Q1015,1,0,0,9999,0,0,0,
2026-04-20 08:50:00,METAR LSGS 200850Z 24005KT 180V290 CAVOK 14/06 Q1016,1,0,0,9999,0,0,0,
2026-04-20 08:20:00,METAR LSGS 200820Z 24005KT 180V300 CAVOK 13/06 Q1016,1,0,0,9999,0,0,0,
2026-04-20 07:50:00,METAR LSGS 200750Z VRB05KT CAVOK 12/06 Q1016,1,0,0,9999,0,0,0,
2026-04-20 07:20:00,METAR LSGS 200720Z VRB02KT CAVOK 11/06 Q1017,1,0,0,9999,0,0,0,
2026-04-20 06:50:00,METAR LSGS 200650Z VRB01KT CAVOK 11/05 Q1017,1,0,0,9999,0,0,0,
2026-04-20 06:20:00,METAR LSGS 200620Z VRB01KT CAVOK 11/05 Q1017,1,0,0,9999,0,0,0,
2026-04-20 05:50:00,METAR LSGS 200550Z VRB02KT CAVOK 08/05 Q1017,1,0,0,9999,0,0,0,
2026-04-20 05:20:00,METAR LSGS 200520Z VRB01KT CAVOK 07/05 Q1017,1,0,0,9999,0,0,0,
2026-04-20 04:50:00,METAR LSGS 200450Z VRB01KT CAVOK 07/05 Q1017,1,0,0,9999,0,0,0,
2026-04-20 04:20:00,METAR LSGS 200420Z AUTO VRB02KT CAVOK 06/05 Q1017,1,0,0,9999,0,0,0,
2026-04-20 03:50:00,METAR LSGS 200350Z AUTO VRB01KT CAVOK 06/04 Q1017,1,0,0,9999,0,0,0,
2026-04-20 03:20:00,METAR LSGS 200320Z AUTO VRB01KT CAVOK 06/05 Q1017,1,0,0,9999,0,0,0,
2026-04-20 02:50:00,METAR LSGS 200250Z AUTO VRB01KT CAVOK 07/05 Q1017,1,0,0,9999,0,0,0,
2026-04-20 02:20:00,METAR LSGS 200220Z AUTO VRB01KT CAVOK 07/05 Q1017,1,0,0,9999,0,0,0,
2026-04-20 01:50:00,METAR LSGS 200150Z AUTO VRB01KT CAVOK 08/06 Q1017,1,0,0,9999,0,0,0,
2026-04-20 01:20:00,METAR LSGS 200120Z AUTO VRB01KT CAVOK 08/05 Q1017,1,0,0,9999,0,0,0,
2026-04-20 00:50:00,METAR LSGS 200050Z AUTO VRB01KT CAVOK 09/05 Q1017,1,0,0,9999,0,0,0,
2026-04-20 00:20:00,METAR LSGS 200020Z AUTO VRB01KT CAVOK 10/05 Q1017,1,0,0,9999,0,0,0,
2026-04-19 23:50:00,METAR LSGS 192350Z AUTO VRB02KT CAVOK 10/05 Q1017,1,0,0,9999,0,0,0,
2026-04-19 23:20:00,METAR LSGS 192320Z AUTO VRB02KT CAVOK 11/05 Q1017,1,0,0,9999,0,0,0,
2026-04-19 22:50:00,METAR LSGS 192250Z AUTO VRB02KT CAVOK 14/05 Q1017,1,0,0,9999,0,0,0,
2026-04-19 22:20:00,METAR LSGS 192220Z AUTO 23005KT CAVOK 14/05 Q1017,1,0,0,9999,0,0,0,
2026-04-19 21:50:00,METAR LSGS 192150Z AUTO 27004KT 210V340 CAVOK 14/05 Q1017,1,0,0,9999,0,0,0,
2026-04-19 21:20:00,METAR LSGS 192120Z AUTO 25008KT 210V270 CAVOK 14/05 Q1017,1,0,0,9999,0,0,0,
2026-04-19 20:50:00,METAR LSGS 192050Z AUTO 25009KT CAVOK 15/05 Q1017,1,0,0,9999,0,0,0,
2026-04-19 20:20:00,METAR LSGS 192020Z AUTO 25009KT CAVOK 15/05 Q1016,1,0,0,9999,0,0,0,
2026-04-19 19:50:00,METAR LSGS 191950Z AUTO 24010KT CAVOK 16/06 Q1016,1,0,0,9999,0,0,0,
2026-04-19 19:20:00,METAR LSGS 191920Z AUTO 23010KT CAVOK 16/06 Q1016,1,0,0,9999,0,0,0,
2026-04-19 18:50:00,METAR LSGS 191850Z AUTO 24011KT 9999 NCD 16/07 Q1016,0,11,0,10000,0,0,0,
2026-04-19 18:20:00,METAR LSGS 191820Z AUTO 25013KT CAVOK 17/08 Q1015,1,0,0,9999,0,0,0,
2026-04-19 17:50:00,METAR LSGS 191750Z 25016KT 9999 FEW110 18/08 Q1015,0,16,0,10000,0,0,0,
2026-04-19 17:20:00,METAR LSGS 191720Z 25015KT 9999 FEW110 19/08 Q1015,0,15,0,10000,0,0,0,
2026-04-19 16:50:00,METAR LSGS 191650Z 25013KT 9999 SCT130 21/07 Q1015,0,13,0,10000,0,0,0,
2026-04-19 16:20:00,METAR LSGS 191620Z 24012KT 9999 SCT110 22/07 Q1015,0,12,0,10000,0,0,0,
2026-04-19 15:50:00,METAR LSGS 191550Z 24012KT 9999 SCT100 22/06 Q1015,0,12,0,10000,0,0,0,
2026-04-19 15:20:00,METAR LSGS 191520Z 24009KT 200V280 9999 SCT100 23/04 Q1015,0,9,0,10000,0,0,0,
2026-04-19 14:50:00,METAR LSGS 191450Z 25011KT 9999 SCT100 23/05 Q1015,0,11,0,10000,0,0,0,
2026-04-19 14:20:00,METAR LSGS 191420Z 24010KT 9999 SCT110 24/05 Q1015,0,10,0,10000,0,0,0,
2026-04-19 13:50:00,METAR LSGS 191350Z 23010KT 200V270 9999 SCT085 23/04 Q1016,0,10,0,10000,0,0,0,
2026-04-19 13:20:00,METAR LSGS 191320Z 23011KT 180V270 9999 SCT090 24/06 Q1016,0,11,0,10000,0,0,0,
2026-04-19 12:50:00,METAR LSGS 191250Z 23010KT 190V250 9999 SCT090 23/04 Q1016,0,10,0,10000,0,0,0,
2026-04-19 12:20:00,METAR LSGS 191220Z 25008KT 210V280 9999 SCT090 23/06 Q1017,0,8,0,10000,0,0,0,
2026-04-19 11:50:00,METAR LSGS 191150Z 25006KT 210V300 9999 FEW100 23/07 Q1017,0,6,0,10000,0,0,0,
2026-04-19 11:20:00,METAR LSGS 191120Z 24005KT 150V300 9999 FEW100 SCT110 22/07 Q1018,0,5,0,10000,0,0,0,
2026-04-19 10:50:00,METAR LSGS 191050Z 25005KT 210V310 9999 SCT080 22/07 Q1018,0,5,0,10000,0,0,0,
2026-04-19 10:20:00,METAR LSGS 191020Z VRB02KT 9999 SCT080 20/05 Q1019,0,2,0,10000,0,0,0,
2026-04-19 09:50:00,METAR LSGS 190950Z VRB01KT 9999 SCT090 19/05 Q1019,0,1,0,10000,0,0,0,
2026-04-19 09:20:00,METAR LSGS 190920Z VRB02KT 9999 FEW080 SCT150 17/07 Q1019,0,2,0,10000,0,0,0,
2026-04-19 08:50:00,METAR LSGS 190850Z VRB02KT 9999 FEW070 SCT110 16/08 Q1020,0,2,0,10000,0,0,0,
2026-04-19 08:20:00,METAR LSGS 190820Z 12005KT 9999 SCT090 BKN130 15/07 Q1020,0,5,0,10000,0,0,0,
2026-04-19 07:50:00,METAR LSGS 190750Z VRB03KT 9999 SCT090 BKN120 14/08 Q1020,0,3,0,10000,0,0,0,
2026-04-19 07:20:00,METAR LSGS 190720Z VRB03KT 9999 BKN080 OVC120 13/09 Q1020,0,3,0,10000,0,0,0,
2026-04-19 06:50:00,METAR LSGS 190650Z VRB02KT 9999 BKN075 OVC110 12/09 Q1020,0,2,0,10000,0,0,0,
2026-04-19 06:20:00,METAR LSGS 190620Z VRB02KT 9999 BKN090 OVC100 12/07 Q1020,0,2,0,10000,0,0,0,
2026-04-19 05:50:00,METAR LSGS 190550Z VRB03KT 9999 SCT075 BKN120 11/07 Q1020,0,3,0,10000,0,0,0,
2026-04-19 05:20:00,METAR LSGS 190520Z 11003KT 070V140 9999 BKN130 10/07 Q1019,0,3,0,10000,0,0,0,
2026-04-19 04:50:00,METAR LSGS 190450Z 11004KT 070V140 9999 SCT130 BKN140 09/07 Q1019,0,4,0,10000,0,0,0,
2026-04-19 04:20:00,METAR LSGS 190420Z AUTO VRB02KT 9999 OVC140 11/07 Q1019,0,2,0,10000,0,0,0,
2026-04-19 03:50:00,METAR LSGS 190350Z AUTO VRB01KT 9999 SCT130 10/07 Q1019,0,1,0,10000,0,0,0,
2026-04-19 03:20:00,METAR LSGS 190320Z AUTO VRB02KT 9999 FEW140 BKN150 11/07 Q1019,0,2,0,10000,0,0,0,
2026-04-19 02:50:00,METAR LSGS 190250Z AUTO VRB01KT 9999 BKN140 10/07 Q1019,0,1,0,10000,0,0,0,
2026-04-19 02:20:00,METAR LSGS 190220Z AUTO VRB01KT 9999 SCT140 BKN150 11/07 Q1019,0,1,0,10000,0,0,0,
2026-04-19 01:50:00,METAR LSGS 190150Z AUTO VRB02KT 9999 OVC150 12/07 Q1019,0,2,0,10000,0,0,0,
2026-04-19 01:20:00,METAR LSGS 190120Z AUTO VRB01KT 9999 BKN150 12/07 Q1019,0,1,0,10000,0,0,0,
2026-04-19 00:50:00,METAR LSGS 190050Z AUTO 11002KT 9999 SCT150 BKN160 12/06 Q1019,0,2,0,10000,0,0,0,
2026-04-19 00:20:00,METAR LSGS 190020Z AUTO 11004KT 9999 BKN160 12/06 Q1019,0,4,0,10000,0,0,0,
2026-04-18 23:50:00,METAR LSGS 182350Z AUTO 07006KT 9999 SCT150 SCT160 13/06 Q1019,0,6,0,10000,0,0,0,
2026-04-18 23:20:00,METAR LSGS 182320Z AUTO 08005KT 9999 BKN130 13/06 Q1019,0,5,0,10000,0,0,0,
2026-04-18 22:50:00,METAR LSGS 182250Z AUTO 09004KT 070V160 9999 FEW130 13/06 Q1019,0,4,0,10000,0,0,0,
2026-04-18 22:20:00,METAR LSGS 182220Z AUTO VRB03KT 9999 BKN140 13/07 Q1019,0,3,0,10000,0,0,0,
2026-04-18 21:50:00,METAR LSGS 182150Z AUTO VRB01KT 9999 SCT130 BKN140 BKN150 14/06 Q1019,0,1,0,10000,0,0,0,
2026-04-18 21:20:00,METAR LSGS 182120Z AUTO 06004KT 9999 FEW150 14/06 Q1019,0,4,0,10000,0,0,0,
2026-04-18 20:50:00,METAR LSGS 182050Z AUTO 08004KT 060V130 9999 SCT130 14/06 Q1019,0,4,0,10000,0,0,0,
2026-04-18 20:20:00,METAR LSGS 182020Z AUTO VRB01KT 9999 NCD 15/06 Q1019,0,1,0,10000,0,0,0,
2026-04-18 19:50:00,METAR LSGS 181950Z AUTO VRB02KT 9999 NSC 16/06 Q1019,0,2,0,10000,0,0,0,
2026-04-18 19:20:00,METAR LSGS 181920Z AUTO 26003KT 200V330 9999 NCD 18/06 Q1019,0,3,0,10000,0,0,0,
2026-04-18 18:50:00,METAR LSGS 181850Z AUTO 28008KT 9999 BKN150 18/06 Q1018,0,8,0,10000,0,0,0,
2026-04-18 18:20:00,METAR LSGS 181820Z AUTO 28005KT 9999 BKN140 19/06 Q1018,0,5,0,10000,0,0,0,
2026-04-18 17:50:00,METAR LSGS 181750Z 27006KT 9999 FEW110 SCT150 20/06 Q1018,0,6,0,10000,0,0,0,
2026-04-18 17:20:00,METAR LSGS 181720Z 25012KT 9999 FEW110 21/06 Q1017,0,12,0,10000,0,0,0,
2026-04-18 16:50:00,METAR LSGS 181650Z 25011KT 9999 FEW120 22/07 Q1017,0,11,0,10000,0,0,0,
2026-04-18 16:20:00,METAR LSGS 181620Z 24010KT 9999 FEW100 22/07 Q1017,0,10,0,10000,0,0,0,
2026-04-18 15:20:00,METAR LSGS 181520Z 25011KT 9999 FEW110 24/07 Q1017,0,11,0,10000,0,0,0,
2026-04-18 14:50:00,METAR LSGS 181450Z 25011KT 9999 FEW085 24/08 Q1018,0,11,0,10000,0,0,0,
2026-04-18 14:20:00,METAR LSGS 181420Z 25012KT 9999 FEW085 24/07 Q1018,0,12,0,10000,0,0,0,
2026-04-18 13:50:00,METAR LSGS 181350Z 25012KT 9999 FEW090 24/07 Q1018,0,12,0,10000,0,0,0,
2026-04-18 13:20:00,METAR LSGS 181320Z 25008KT 200V290 9999 FEW080 24/07 Q1018,0,8,0,10000,0,0,0,
2026-04-18 12:50:00,METAR LSGS 181250Z 25010KT 210V270 9999 FEW080 22/06 Q1018,0,10,0,10000,0,0,0,
2026-04-18 12:20:00,METAR LSGS 181220Z 24008KT 210V270 9999 FEW080 23/08 Q1019,0,8,0,10000,0,0,0,
2026-04-18 11:50:00,METAR LSGS 181150Z 26009KT 9999 FEW080 22/09 Q1019,0,9,0,10000,0,0,0,
2026-04-18 11:20:00,METAR LSGS 181120Z 23005KT 170V270 CAVOK 21/08 Q1019,1,0,0,9999,0,0,0,
2026-04-18 10:50:00,METAR LSGS 181050Z 22005KT 160V260 CAVOK 20/08 Q1020,1,0,0,9999,0,0,0,
2026-04-18 10:20:00,METAR LSGS 181020Z 22003KT 130V280 CAVOK 19/06 Q1020,1,0,0,9999,0,0,0,
2026-04-18 09:50:00,METAR LSGS 180950Z VRB02KT CAVOK 18/07 Q1021,1,0,0,9999,0,0,0,
2026-04-18 09:20:00,METAR LSGS 180920Z VRB02KT CAVOK 17/06 Q1021,1,0,0,9999,0,0,0,
2026-04-18 08:50:00,METAR LSGS 180850Z VRB02KT CAVOK 17/07 Q1021,1,0,0,9999,0,0,0,
2026-04-18 08:20:00,METAR LSGS 180820Z VRB02KT CAVOK 16/08 Q1022,1,0,0,9999,0,0,0,
2026-04-18 07:50:00,METAR LSGS 180750Z AUTO 08003KT 040V120 CAVOK 15/07 Q1022,1,0,0,9999,0,0,0,
2026-04-18 07:20:00,METAR LSGS 180720Z VRB02KT CAVOK 13/07 Q1022,1,0,0,9999,0,0,0,
2026-04-18 06:50:00,METAR LSGS 180650Z 07004KT CAVOK 12/07 Q1022,1,0,0,9999,0,0,0,
2026-04-18 06:20:00,METAR LSGS 180620Z 08004KT CAVOK 10/07 Q1022,1,0,0,9999,0,0,0,
2026-04-18 05:50:00,METAR LSGS 180550Z 08004KT CAVOK 09/06 Q1022,1,0,0,9999,0,0,0,
2026-04-18 05:20:00,METAR LSGS 180520Z 09002KT CAVOK 07/06 Q1022,1,0,0,9999,0,0,0,
2026-04-18 04:50:00,METAR LSGS 180450Z VRB01KT CAVOK 07/06 Q1022,1,0,0,9999,0,0,0,
2026-04-18 04:20:00,METAR LSGS 180420Z AUTO VRB01KT CAVOK 07/05 Q1022,1,0,0,9999,0,0,0,
2026-04-18 03:50:00,METAR LSGS 180350Z AUTO VRB02KT CAVOK 07/04 Q1022,1,0,0,9999,0,0,0,
2026-04-18 03:20:00,METAR LSGS 180320Z AUTO 13003KT 100V160 CAVOK 08/06 Q1022,1,0,0,9999,0,0,0,
2026-04-18 02:50:00,METAR LSGS 180250Z AUTO VRB02KT CAVOK 08/06 Q1022,1,0,0,9999,0,0,0,
2026-04-18 02:20:00,METAR LSGS 180220Z AUTO VRB03KT CAVOK 08/05 Q1022,1,0,0,9999,0,0,0,
2026-04-18 01:50:00,METAR LSGS 180150Z AUTO 07003KT 040V110 CAVOK 09/06 Q1021,1,0,0,9999,0,0,0,
2026-04-18 01:20:00,METAR LSGS 180120Z AUTO VRB02KT CAVOK 09/06 Q1021,1,0,0,9999,0,0,0,
2026-04-18 00:50:00,METAR LSGS 180050Z AUTO VRB01KT CAVOK 08/06 Q1022,1,0,0,9999,0,0,0,
2026-04-18 00:20:00,METAR LSGS 180020Z AUTO 08003KT CAVOK 10/05 Q1022,1,0,0,9999,0,0,0,
2026-04-17 23:50:00,METAR LSGS 172350Z AUTO VRB03KT CAVOK 10/06 Q1022,1,0,0,9999,0,0,0,
2026-04-17 23:20:00,METAR LSGS 172320Z AUTO 09004KT CAVOK 10/06 Q1022,1,0,0,9999,0,0,0,
2026-04-17 22:50:00,METAR LSGS 172250Z AUTO 08005KT CAVOK 11/07 Q1021,1,0,0,9999,0,0,0,
2026-04-17 22:20:00,METAR LSGS 172220Z AUTO VRB02KT CAVOK 12/07 Q1021,1,0,0,9999,0,0,0,
2026-04-17 21:50:00,METAR LSGS 172150Z AUTO VRB02KT CAVOK 13/07 Q1021,1,0,0,9999,0,0,0,
2026-04-17 21:20:00,METAR LSGS 172120Z AUTO 08004KT 9999 NCD 14/07 Q1021,0,4,0,10000,0,0,0,
2026-04-17 20:50:00,METAR LSGS 172050Z AUTO VRB03KT 9999 FEW080 13/07 Q1020,0,3,0,10000,0,0,0,
2026-04-17 20:20:00,METAR LSGS 172020Z AUTO VRB03KT CAVOK 14/07 Q1020,1,0,0,9999,0,0,0,
2026-04-17 19:50:00,METAR LSGS 171950Z AUTO VRB02KT CAVOK 15/07 Q1020,1,0,0,9999,0,0,0,
2026-04-17 19:20:00,METAR LSGS 171920Z AUTO VRB02KT 9999 NSC 17/07 Q1020,0,2,0,10000,0,0,0,
2026-04-17 18:50:00,METAR LSGS 171850Z AUTO VRB03KT 9999 NSC 17/06 Q1019,0,3,0,10000,0,0,0,
2026-04-17 18:20:00,METAR LSGS 171820Z AUTO 26005KT CAVOK 18/07 Q1019,1,0,0,9999,0,0,0,
2026-04-17 17:50:00,METAR LSGS 171750Z 28008KT 250V320 CAVOK 18/07 Q1018,1,0,0,9999,0,0,0,
2026-04-17 17:20:00,METAR LSGS 171720Z 27011KT CAVOK 20/08 Q1018,1,0,0,9999,0,0,0,
2026-04-17 16:50:00,METAR LSGS 171650Z 26012KT CAVOK 20/08 Q1018,1,0,0,9999,0,0,0,
2026-04-17 16:20:00,METAR LSGS 171620Z 27012KT CAVOK 21/08 Q1018,1,0,0,9999,0,0,0,
2026-04-17 15:50:00,METAR LSGS 171550Z 26015KT CAVOK 21/09 Q1018,1,0,0,9999,0,0,0,
2026-04-17 15:20:00,METAR LSGS 171520Z 26013KT 9999 FEW085 22/09 Q1018,0,13,0,10000,0,0,0,
2026-04-17 14:50:00,METAR LSGS 171450Z 26014KT 9999 FEW080 21/08 Q1018,0,14,0,10000,0,0,0,
2026-04-17 14:20:00,METAR LSGS 171420Z 26015KT 9999 FEW080 22/08 Q1018,0,15,0,10000,0,0,0,
2026-04-17 13:50:00,METAR LSGS 171350Z 25016KT 9999 FEW070 21/08 Q1018,0,16,0,10000,0,0,0,
2026-04-17 13:20:00,METAR LSGS 171320Z 26014KT 9999 FEW070 21/08 Q1019,0,14,0,10000,0,0,0,
2026-04-17 12:50:00,METAR LSGS 171250Z 25014KT 9999 FEW065 20/08 Q1019,0,14,0,10000,0,0,0,
2026-04-17 12:20:00,METAR LSGS 171220Z AUTO 25011KT CAVOK 20/09 Q1019,1,0,0,9999,0,0,0,
2026-04-17 11:50:00,METAR LSGS 171150Z 23006KT 180V260 CAVOK 20/07 Q1020,1,0,0,9999,0,0,0,
2026-04-17 11:20:00,METAR LSGS 171120Z 24006KT 200V280 CAVOK 20/07 Q1020,1,0,0,9999,0,0,0,
2026-04-17 10:50:00,METAR LSGS 171050Z 23004KT 180V290 9999 FEW080 19/06 Q1020,0,4,0,10000,0,0,0,
2026-04-17 10:20:00,METAR LSGS 171020Z VRB03KT 9999 FEW080 17/06 Q1021,0,3,0,10000,0,0,0,
2026-04-17 09:50:00,METAR LSGS 170950Z VRB03KT 9999 FEW080 17/07 Q1021,0,3,0,10000,0,0,0,
2026-04-17 09:20:00,METAR LSGS 170920Z VRB02KT 9999 FEW080 16/07 Q1022,0,2,0,10000,0,0,0,
2026-04-17 08:50:00,METAR LSGS 170850Z VRB02KT CAVOK 15/06 Q1022,1,0,0,9999,0,0,0,
2026-04-17 08:20:00,METAR LSGS 170820Z VRB02KT CAVOK 14/06 Q1022,1,0,0,9999,0,0,0,
2026-04-17 07:50:00,METAR LSGS 170750Z AUTO VRB03KT CAVOK 13/07 Q1022,1,0,0,9999,0,0,0,
2026-04-17 07:20:00,METAR LSGS 170720Z 07003KT CAVOK 11/06 Q1023,1,0,0,9999,0,0,0,
2026-04-17 06:50:00,METAR LSGS 170650Z 08004KT CAVOK 11/07 Q1023,1,0,0,9999,0,0,0,
2026-04-17 06:20:00,METAR LSGS 170620Z 08004KT CAVOK 09/06 Q1023,1,0,0,9999,0,0,0,
2026-04-17 05:50:00,METAR LSGS 170550Z VRB02KT CAVOK 08/06 Q1023,1,0,0,9999,0,0,0,
2026-04-17 05:20:00,METAR LSGS 170520Z VRB01KT CAVOK 06/05 Q1023,1,0,0,9999,0,0,0,
2026-04-17 04:50:00,METAR LSGS 170450Z VRB01KT CAVOK 06/05 Q1023,1,0,0,9999,0,0,0,
2026-04-17 04:20:00,METAR LSGS 170420Z AUTO VRB01KT CAVOK 06/05 Q1022,1,0,0,9999,0,0,0,
2026-04-17 03:50:00,METAR LSGS 170350Z AUTO VRB02KT CAVOK 06/05 Q1022,1,0,0,9999,0,0,0,
2026-04-17 03:20:00,METAR LSGS 170320Z AUTO VRB01KT CAVOK 06/05 Q1022,1,0,0,9999,0,0,0,
2026-04-17 02:50:00,METAR LSGS 170250Z AUTO VRB01KT CAVOK 07/05 Q1022,1,0,0,9999,0,0,0,
2026-04-17 02:20:00,METAR LSGS 170220Z AUTO VRB01KT CAVOK 07/05 Q1022,1,0,0,9999,0,0,0,
2026-04-17 01:50:00,METAR LSGS 170150Z AUTO VRB01KT CAVOK 08/05 Q1022,1,0,0,9999,0,0,0,
2026-04-17 01:20:00,METAR LSGS 170120Z AUTO VRB01KT CAVOK 08/06 Q1022,1,0,0,9999,0,0,0,
2026-04-17 00:50:00,METAR LSGS 170050Z AUTO VRB02KT CAVOK 08/05 Q1022,1,0,0,9999,0,0,0,
2026-04-17 00:20:00,METAR LSGS 170020Z AUTO VRB02KT CAVOK 08/06 Q1022,1,0,0,9999,0,0,0,
2026-04-16 23:50:00,METAR LSGS 162350Z AUTO VRB01KT CAVOK 09/06 Q1023,1,0,0,9999,0,0,0,
2026-04-16 23:20:00,METAR LSGS 162320Z AUTO VRB01KT CAVOK 09/06 Q1022,1,0,0,9999,0,0,0,
2026-04-16 22:50:00,METAR LSGS 162250Z AUTO VRB01KT CAVOK 10/06 Q1022,1,0,0,9999,0,0,0,
2026-04-16 22:20:00,METAR LSGS 162220Z AUTO VRB03KT CAVOK 11/06 Q1022,1,0,0,9999,0,0,0,
2026-04-16 21:50:00,METAR LSGS 162150Z AUTO 08004KT CAVOK 11/06 Q1022,1,0,0,9999,0,0,0,
2026-04-16 21:20:00,METAR LSGS 162120Z AUTO 10004KT CAVOK 11/07 Q1022,1,0,0,9999,0,0,0,
2026-04-16 20:50:00,METAR LSGS 162050Z AUTO VRB01KT CAVOK 12/06 Q1021,1,0,0,9999,0,0,0,
2026-04-16 20:20:00,METAR LSGS 162020Z AUTO VRB02KT CAVOK 13/07 Q1021,1,0,0,9999,0,0,0,
2026-04-16 19:50:00,METAR LSGS 161950Z AUTO VRB01KT CAVOK 14/07 Q1021,1,0,0,9999,0,0,0,
2026-04-16 19:20:00,METAR LSGS 161920Z AUTO VRB02KT CAVOK 16/06 Q1021,1,0,0,9999,0,0,0,
2026-04-16 18:50:00,METAR LSGS 161850Z AUTO 25007KT CAVOK 16/06 Q1020,1,0,0,9999,0,0,0,
2026-04-16 18:20:00,METAR LSGS 161820Z 24010KT CAVOK 17/06 Q1020,1,0,0,9999,0,0,0,
2026-04-16 17:50:00,METAR LSGS 161750Z 25013KT CAVOK 17/07 Q1019,1,0,0,9999,0,0,0,
2026-04-16 17:20:00,METAR LSGS 161720Z 25013KT 9999 FEW080 19/07 Q1019,0,13,0,10000,0,0,0,
2026-04-16 16:50:00,METAR LSGS 161650Z 25013KT CAVOK 20/07 Q1019,1,0,0,9999,0,0,0,
2026-04-16 16:20:00,METAR LSGS 161620Z 24014KT CAVOK 20/08 Q1019,1,0,0,9999,0,0,0,
2026-04-16 15:50:00,METAR LSGS 161550Z 25015KT 9999 FEW065 20/07 Q1019,0,15,0,10000,0,0,0,
2026-04-16 14:50:00,METAR LSGS 161450Z 25012KT 9999 FEW060 21/07 Q1019,0,12,0,10000,0,0,0,
2026-04-16 14:20:00,METAR LSGS 161420Z 25010KT 200V270 9999 FEW060 21/08 Q1019,0,10,0,10000,0,0,0,
2026-04-16 13:50:00,METAR LSGS 161350Z AUTO 24008KT 180V270 CAVOK 21/08 Q1020,1,0,0,9999,0,0,0,
2026-04-16 13:20:00,METAR LSGS 161320Z 24006KT 190V300 9999 FEW065 20/06 Q1020,0,6,0,10000,0,0,0,
2026-04-16 12:50:00,METAR LSGS 161250Z 23006KT 200V260 9999 FEW060 20/06 Q1021,0,6,0,10000,0,0,0,
2026-04-16 12:20:00,METAR LSGS 161220Z 24005KT 200V320 9999 FEW060 20/07 Q1021,0,5,0,10000,0,0,0,
2026-04-16 11:50:00,METAR LSGS 161150Z VRB04KT 9999 FEW060 19/06 Q1021,0,4,0,10000,0,0,0,
2026-04-16 11:20:00,METAR LSGS 161120Z 26003KT 210V300 9999 SCT060 18/06 Q1022,0,3,0,10000,0,0,0,
2026-04-16 10:50:00,METAR LSGS 161050Z VRB03KT 9999 FEW050 SCT075 16/08 Q1023,0,3,0,10000,0,0,0,
2026-04-16 10:20:00,METAR LSGS 161020Z VRB02KT 9999 FEW040 SCT065 15/08 Q1023,0,2,0,10000,0,0,0,
2026-04-16 09:50:00,METAR LSGS 160950Z VRB01KT 9999 FEW040 BKN065 14/08 Q1023,0,1,0,10000,0,0,0,
2026-04-16 09:20:00,METAR LSGS 160920Z VRB01KT 9999 FEW040 BKN064 13/08 Q1024,0,1,0,10000,0,0,0,
2026-04-16 08:50:00,METAR LSGS 160850Z VRB02KT 9999 FEW040 OVC065 12/08 Q1024,0,2,0,10000,0,0,0,
2026-04-16 08:20:00,METAR LSGS 160820Z VRB02KT 9999 FEW040 OVC060 12/08 Q1024,0,2,0,10000,0,0,0,
2026-04-16 07:50:00,METAR LSGS 160750Z VRB02KT 9999 FEW040 OVC061 11/08 Q1024,0,2,0,10000,0,0,0,
2026-04-16 07:20:00,METAR LSGS 160720Z 26002KT 9999 FEW040 OVC060 11/08 Q1024,0,2,0,10000,0,0,0,
2026-04-16 06:50:00,METAR LSGS 160650Z VRB01KT 9999 FEW035 OVC060 11/08 Q1024,0,1,0,10000,0,0,0,
2026-04-16 06:20:00,METAR LSGS 160620Z 24002KT 9999 FEW034 OVC060 10/08 Q1024,0,2,0,10000,0,0,0,
2026-04-16 05:50:00,METAR LSGS 160550Z AUTO VRB01KT 9999 FEW041 OVC055 10/08 Q1023,0,1,0,10000,0,0,0,
2026-04-16 05:20:00,METAR LSGS 160520Z VRB02KT 9999 SCT036 BKN060 09/08 Q1023,0,2,0,10000,0,0,0,
2026-04-16 04:50:00,METAR LSGS 160450Z VRB01KT 9999 SCT035 OVC060 09/07 Q1023,0,1,0,10000,0,0,0,
2026-04-16 04:20:00,METAR LSGS 160420Z AUTO VRB02KT 9999 BKN034 OVC050 09/07 Q1023,0,2,0,10000,0,0,0,
2026-04-16 03:50:00,METAR LSGS 160350Z AUTO VRB01KT 9999 SCT035 OVC055 09/07 Q1023,0,1,0,10000,0,0,0,
2026-04-16 03:20:00,METAR LSGS 160320Z AUTO VRB01KT 9999 BKN038 08/07 Q1023,0,1,0,10000,0,0,0,
2026-04-16 02:50:00,METAR LSGS 160250Z AUTO 10002KT 9999 FEW041 BKN055 08/07 Q1023,0,2,0,10000,0,0,0,
2026-04-16 02:20:00,METAR LSGS 160220Z AUTO VRB01KT 9999 BKN042 08/07 Q1023,0,1,0,10000,0,0,0,
2026-04-16 01:50:00,METAR LSGS 160150Z AUTO VRB01KT 9999 BKN042 08/06 Q1023,0,1,0,10000,0,0,0,
2026-04-16 01:20:00,METAR LSGS 160120Z AUTO VRB01KT CAVOK 07/06 Q1023,1,0,0,9999,0,0,0,
2026-04-16 00:50:00,METAR LSGS 160050Z AUTO VRB02KT 9999 FEW038 08/07 Q1023,0,2,0,10000,0,0,0,
2026-04-16 00:20:00,METAR LSGS 160020Z AUTO 10002KT 9999 FEW039 09/07 Q1023,0,2,0,10000,0,0,0,
2026-04-15 23:50:00,METAR LSGS 152350Z AUTO 05002KT CAVOK 09/07 Q1023,1,0,0,9999,0,0,0,
2026-04-15 23:20:00,METAR LSGS 152320Z AUTO VRB02KT CAVOK 10/07 Q1023,1,0,0,9999,0,0,0,
2026-04-15 22:50:00,METAR LSGS 152250Z AUTO VRB02KT CAVOK 10/07 Q1023,1,0,0,9999,0,0,0,
2026-04-15 22:20:00,METAR LSGS 152220Z AUTO VRB01KT 9999 NCD 11/07 Q1022,0,1,0,10000,0,0,0,
2026-04-15 21:50:00,METAR LSGS 152150Z AUTO VRB03KT 9999 FEW085 11/07 Q1022,0,3,0,10000,0,0,0,
2026-04-15 21:20:00,METAR LSGS 152120Z AUTO VRB02KT 9999 BKN080 12/07 Q1022,0,2,0,10000,0,0,0,
2026-04-15 20:50:00,METAR LSGS 152050Z AUTO VRB02KT 9999 SCT080 11/07 Q1021,0,2,0,10000,0,0,0,
2026-04-15 20:20:00,METAR LSGS 152020Z AUTO VRB02KT 9999 NCD 13/07 Q1021,0,2,0,10000,0,0,0,
2026-04-15 19:50:00,METAR LSGS 151950Z AUTO 25004KT 180V320 CAVOK 14/07 Q1021,1,0,0,9999,0,0,0,
2026-04-15 19:20:00,METAR LSGS 151920Z AUTO 26010KT CAVOK 14/07 Q1020,1,0,0,9999,0,0,0,
2026-04-15 18:50:00,METAR LSGS 151850Z AUTO 26011KT 9999 NSC 14/07 Q1020,0,11,0,10000,0,0,0,
2026-04-15 18:20:00,METAR LSGS 151820Z AUTO 27009KT 240V300 CAVOK 14/07 Q1019,1,0,0,9999,0,0,0,
2026-04-15 17:50:00,METAR LSGS 151750Z 26013KT CAVOK 15/07 Q1019,1,0,0,9999,0,0,0,
2026-04-15 17:20:00,METAR LSGS 151720Z 26013KT CAVOK 16/08 Q1018,1,0,0,9999,0,0,0,
2026-04-15 16:50:00,METAR LSGS 151650Z 26016KT CAVOK 17/08 Q1018,1,0,0,9999,0,0,0,
2026-04-15 16:20:00,METAR LSGS 151620Z 26016KT CAVOK 17/08 Q1018,1,0,0,9999,0,0,0,
2026-04-15 15:50:00,METAR LSGS 151550Z 25017KT 9999 FEW080 17/08 Q1018,0,17,0,10000,0,0,0,
2026-04-15 15:20:00,METAR LSGS 151520Z 25019KT 9999 FEW080 17/08 Q1018,0,19,0,10000,0,0,0,
2026-04-15 14:50:00,METAR LSGS 151450Z 25019KT 9999 FEW080 17/08 Q1018,0,19,0,10000,0,0,0,
2026-04-15 14:20:00,METAR LSGS 151420Z 25017KT 9999 FEW080 18/08 Q1018,0,17,0,10000,0,0,0,
2026-04-15 13:50:00,METAR LSGS 151350Z AUTO 25016KT CAVOK 18/08 Q1018,1,0,0,9999,0,0,0,
2026-04-15 13:20:00,METAR LSGS 151320Z 25014KT 9999 FEW080 18/08 Q1018,0,14,0,10000,0,0,0,
2026-04-15 12:50:00,METAR LSGS 151250Z 25014KT CAVOK 18/08 Q1018,1,0,0,9999,0,0,0,
2026-04-15 12:20:00,METAR LSGS 151220Z 25011KT 9999 FEW070 18/08 Q1018,0,11,0,10000,0,0,0,
2026-04-15 11:50:00,METAR LSGS 151150Z AUTO 25008KT 220V280 CAVOK 18/08 Q1019,1,0,0,9999,0,0,0,
2026-04-15 11:20:00,METAR LSGS 151120Z 23005KT 160V270 9999 FEW060 17/06 Q1019,0,5,0,10000,0,0,0,
2026-04-15 10:50:00,METAR LSGS 151050Z 22004KT 170V280 9999 FEW070 16/08 Q1019,0,4,0,10000,0,0,0,
2026-04-15 10:20:00,METAR LSGS 151020Z VRB02KT 9999 FEW045 15/07 Q1020,0,2,0,10000,0,0,0,
2026-04-15 09:50:00,METAR LSGS 150950Z VRB02KT 9999 FEW045 15/06 Q1020,0,2,0,10000,0,0,0,
2026-04-15 09:20:00,METAR LSGS 150920Z VRB02KT 9999 FEW040 14/06 Q1021,0,2,0,10000,0,0,0,
2026-04-15 08:50:00,METAR LSGS 150850Z VRB02KT 9999 FEW040 13/06 Q1021,0,2,0,10000,0,0,0,
2026-04-15 08:20:00,METAR LSGS 150820Z VRB01KT 9999 FEW040 12/06 Q1021,0,1,0,10000,0,0,0,
2026-04-15 07:50:00,METAR LSGS 150750Z VRB03KT 9999 FEW045 11/05 Q1021,0,3,0,10000,0,0,0,
2026-04-15 07:20:00,METAR LSGS 150720Z 06003KT 020V100 9999 FEW045 10/05 Q1022,0,3,0,10000,0,0,0,
2026-04-15 06:50:00,METAR LSGS 150650Z 08005KT 9999 FEW040 09/06 Q1022,0,5,0,10000,0,0,0,
2026-04-15 06:20:00,METAR LSGS 150620Z 07005KT 9999 FEW040 08/05 Q1022,0,5,0,10000,0,0,0,
2026-04-15 05:50:00,METAR LSGS 150550Z 11003KT 9999 FEW040 05/04 Q1021,0,3,0,10000,0,0,0,
2026-04-15 05:20:00,METAR LSGS 150520Z VRB01KT 9999 FEW040 04/04 Q1021,0,1,0,10000,0,0,0,
2026-04-15 04:50:00,METAR LSGS 150450Z VRB01KT 9999 FEW040 05/04 Q1021,0,1,0,10000,0,0,0,
2026-04-15 04:20:00,METAR LSGS 150420Z AUTO VRB01KT CAVOK 04/04 Q1021,1,0,0,9999,0,0,0,
2026-04-15 03:50:00,METAR LSGS 150350Z AUTO 12001KT CAVOK 05/04 Q1021,1,0,0,9999,0,0,0,
2026-04-15 03:20:00,METAR LSGS 150320Z AUTO VRB01KT CAVOK 06/05 Q1021,1,0,0,9999,0,0,0,
2026-04-15 02:50:00,METAR LSGS 150250Z AUTO 24002KT 9999 NCD 06/05 Q1021,0,2,0,10000,0,0,0,
2026-04-15 02:20:00,METAR LSGS 150220Z AUTO VRB02KT 9999 FEW055 06/05 Q1021,0,2,0,10000,0,0,0,
2026-04-15 01:50:00,METAR LSGS 150150Z AUTO 10003KT 9999 FEW050 07/05 Q1020,0,3,0,10000,0,0,0,
2026-04-15 01:20:00,METAR LSGS 150120Z AUTO VRB01KT 9999 BKN055 08/06 Q1020,0,1,0,10000,0,0,0,
2026-04-15 00:50:00,METAR LSGS 150050Z AUTO VRB02KT 9999 SCT055 08/06 Q1020,0,2,0,10000,0,0,0,
2026-04-15 00:20:00,METAR LSGS 150020Z AUTO 00000KT 9999 BKN060 08/06 Q1021,0,0,0,10000,0,0,0,
2026-04-14 23:50:00,METAR LSGS 142350Z AUTO VRB01KT 9999 FEW041 OVC060 08/06 Q1021,0,1,0,10000,0,0,0,
2026-04-14 23:20:00,METAR LSGS 142320Z AUTO 11002KT 9999 OVC065 09/06 Q1021,0,2,0,10000,0,0,0,
2026-04-14 22:50:00,METAR LSGS 142250Z AUTO VRB01KT 9999 OVC065 10/06 Q1021,0,1,0,10000,0,0,0,
2026-04-14 22:20:00,METAR LSGS 142220Z AUTO VRB02KT 9999 OVC065 10/06 Q1021,0,2,0,10000,0,0,0,
2026-04-14 21:50:00,METAR LSGS 142150Z AUTO VRB02KT 9999 OVC060 10/05 Q1021,0,2,0,10000,0,0,0,
2026-04-14 21:20:00,METAR LSGS 142120Z AUTO 24003KT 200V290 9999 OVC060 10/06 Q1021,0,3,0,10000,0,0,0,
2026-04-14 20:50:00,METAR LSGS 142050Z AUTO VRB02KT 9999 OVC060 10/05 Q1021,0,2,0,10000,0,0,0,
2026-04-14 20:20:00,METAR LSGS 142020Z AUTO 25007KT 9999 OVC060 11/05 Q1020,0,7,0,10000,0,0,0,
2026-04-14 19:50:00,METAR LSGS 141950Z AUTO 25007KT 9999 OVC060 11/05 Q1020,0,7,0,10000,0,0,0,
2026-04-14 19:20:00,METAR LSGS 141920Z AUTO 26009KT 230V290 9999 OVC060 11/06 Q1020,0,9,0,10000,0,0,0,
2026-04-14 18:50:00,METAR LSGS 141850Z AUTO 26014KT 9999 OVC060 11/05 Q1019,0,14,0,10000,0,0,0,
2026-04-14 18:20:00,METAR LSGS 141820Z AUTO 26012KT 9999 OVC060 11/05 Q1019,0,12,0,10000,0,0,0,
2026-04-14 17:50:00,METAR LSGS 141750Z AUTO 25014KT 9999 BKN065 11/06 Q1018,0,14,0,10000,0,0,0,
2026-04-14 17:20:00,METAR LSGS 141720Z 26013KT 9999 OVC065 11/06 Q1018,0,13,0,10000,0,0,0,
2026-04-14 16:50:00,METAR LSGS 141650Z 26014KT 9999 OVC065 12/05 Q1018,0,14,0,10000,0,0,0,
2026-04-14 16:20:00,METAR LSGS 141620Z AUTO 26014KT 9999 OVC065 12/06 Q1018,0,14,0,10000,0,0,0,
2026-04-14 15:50:00,METAR LSGS 141550Z 25015KT 9999 BKN060 13/05 Q1017,0,15,0,10000,0,0,0,
2026-04-14 15:20:00,METAR LSGS 141520Z 25015KT 9999 BKN060 13/06 Q1017,0,15,0,10000,0,0,0,
2026-04-14 14:50:00,METAR LSGS 141450Z 25015KT 9999 BKN060 13/05 Q1017,0,15,0,10000,0,0,0,
2026-04-14 14:20:00,METAR LSGS 141420Z 25014KT 9999 FEW030 BKN060 13/06 Q1017,0,14,0,10000,0,0,0,
2026-04-14 13:50:00,METAR LSGS 141350Z 25011KT 9999 FEW045 OVC065 14/06 Q1017,0,11,0,10000,0,0,0,
2026-04-14 13:20:00,METAR LSGS 141320Z 25008KT 210V280 9999 FEW045 BKN065 14/05 Q1017,0,8,0,10000,0,0,0,
2026-04-14 12:50:00,METAR LSGS 141250Z 24004KT 190V270 9999 FEW035 BKN065 14/06 Q1017,0,4,0,10000,0,0,0,
2026-04-14 12:20:00,METAR LSGS 141220Z 18004KT 140V250 9999 FEW030 BKN060 13/03 Q1017,0,4,0,10000,0,0,0,
2026-04-14 11:50:00,METAR LSGS 141150Z VRB03KT 9999 SCT030 BKN060 13/04 Q1017,0,3,0,10000,0,0,0,
2026-04-14 11:20:00,METAR LSGS 141120Z VRB03KT 9999 SCT030 BKN060 12/04 Q1017,0,3,0,10000,0,0,0,
2026-04-14 10:50:00,METAR LSGS 141050Z VRB02KT 9999 FEW030 BKN060 13/06 Q1018,0,2,0,10000,0,0,0,
2026-04-14 10:20:00,METAR LSGS 141020Z 26004KT 220V340 9999 FEW030 BKN060 11/04 Q1018,0,4,0,10000,0,0,0,
2026-04-14 09:50:00,METAR LSGS 140950Z AUTO 25004KT 190V280 9999 OVC060 10/05 Q1018,0,4,0,10000,0,0,0,
2026-04-14 09:20:00,METAR LSGS 140920Z VRB03KT 9999 SCT030 OVC060 10/06 Q1018,0,3,0,10000,0,0,0,
2026-04-14 08:50:00,METAR LSGS 140850Z 26005KT 220V300 9999 SCT030 OVC060 09/05 Q1018,0,5,0,10000,0,0,0,
2026-04-14 08:20:00,METAR LSGS 140820Z 25004KT 210V280 9999 BKN032 08/04 Q1018,0,4,0,10000,0,0,0,
2026-04-14 07:50:00,METAR LSGS 140750Z VRB01KT 9999 BKN030 08/04 Q1018,0,1,0,10000,0,0,0,
2026-04-14 07:20:00,METAR LSGS 140720Z VRB02KT 9999 BKN032 08/04 Q1017,0,2,0,10000,0,0,0,
2026-04-14 06:50:00,METAR LSGS 140650Z 25002KT 9999 BKN030 08/05 Q1017,0,2,0,10000,0,0,0,
2026-04-14 06:20:00,METAR LSGS 140620Z 27003KT 9999 BKN039 07/05 Q1017,0,3,0,10000,0,0,0,
2026-04-14 05:50:00,METAR LSGS 140550Z VRB01KT 9999 BKN034 07/04 Q1017,0,1,0,10000,0,0,0,
2026-04-14 05:20:00,METAR LSGS 140520Z 27002KT 9999 BKN030 07/04 Q1016,0,2,0,10000,0,0,0,
2026-04-14 04:50:00,METAR LSGS 140450Z 26003KT 9999 BKN035 07/04 Q1016,0,3,0,10000,0,0,0,
2026-04-14 04:20:00,METAR LSGS 140420Z AUTO 28003KT 9999 FEW023 BKN039 07/04 Q1016,0,3,0,10000,0,0,0,
2026-04-14 03:50:00,METAR LSGS 140350Z AUTO VRB01KT 9999 SCT031 SCT035 OVC050 07/04 Q1016,0,1,0,10000,0,0,0,
2026-04-14 03:20:00,METAR LSGS 140320Z AUTO VRB03KT 9999 BKN023 07/05 Q1016,0,3,0,10000,0,0,0,
2026-04-14 02:50:00,METAR LSGS 140250Z AUTO 27004KT 220V010 9999 BKN019 BKN021 07/05 Q1015,0,4,0,10000,0,0,0,
2026-04-14 02:20:00,METAR LSGS 140220Z AUTO 24005KT 9999 SCT023 BKN027 OVC050 07/04 Q1015,0,5,0,10000,0,0,0,
2026-04-14 01:50:00,METAR LSGS 140150Z AUTO 27008KT 230V300 9999 FEW024 OVC050 07/04 Q1015,0,8,0,10000,0,0,0,
2026-04-14 01:20:00,METAR LSGS 140120Z AUTO 27008KT 9999 SCT023 OVC050 07/04 Q1015,0,8,0,10000,0,0,0,
2026-04-14 00:50:00,METAR LSGS 140050Z AUTO 25005KT 210V340 9999 FEW025 BKN045 07/04 Q1015,0,5,0,10000,0,0,0,
2026-04-14 00:20:00,METAR LSGS 140020Z AUTO 27004KT 230V310 9999 BKN025 07/05 Q1015,0,4,0,10000,0,0,0,
2026-04-13 23:50:00,METAR LSGS 132350Z AUTO 27004KT 230V310 9999 BKN024 07/04 Q1015,0,4,0,10000,0,0,0,
2026-04-13 23:20:00,METAR LSGS 132320Z AUTO VRB03KT 9999 BKN040 07/05 Q1014 REDZ,0,3,0,10000,0,0,0,DZ
2026-04-13 22:50:00,METAR LSGS 132250Z AUTO 25004KT 200V290 9999 SCT023 SCT026 BKN050 07/05 Q1014 REDZ,0,4,0,10000,0,0,0,DZ
2026-04-13 22:20:00,METAR LSGS 132220Z AUTO 20004KT 150V290 9999 DZ FEW037 OVC049 07/05 Q1014,0,4,0,10000,0,0,0,DZ
2026-04-13 21:50:00,METAR LSGS 132150Z AUTO 25005KT 9999 -RA BKN041 08/05 Q1014 RERA,0,5,0,10000,0,0,0,"-RA,RA"
2026-04-13 21:20:00,METAR LSGS 132120Z AUTO 26008KT 9999 -RA FEW039 SCT050 08/05 Q1013,0,8,0,10000,0,0,0,-RA
2026-04-13 20:50:00,METAR LSGS 132050Z AUTO 25009KT 210V280 9999 -RA OVC050 08/05 Q1013,0,9,0,10000,0,0,0,-RA
2026-04-13 20:20:00,METAR LSGS 132020Z AUTO 24010KT 210V280 9999 -RA BKN050 08/05 Q1013 REDZ,0,10,0,10000,0,0,0,"-RA,DZ"
2026-04-13 19:50:00,METAR LSGS 131950Z AUTO 25011KT 9999 -RA BKN050 08/05 Q1012,0,11,0,10000,0,0,0,-RA
2026-04-13 19:20:00,METAR LSGS 131920Z AUTO 26006KT 230V290 9999 -RA BKN055 08/05 Q1012,0,6,0,10000,0,0,0,-RA
2026-04-13 18:50:00,METAR LSGS 131850Z AUTO 26011KT 220V290 9999 -RA BKN055 09/06 Q1011,0,11,0,10000,0,0,0,-RA
2026-04-13 18:20:00,METAR LSGS 131820Z AUTO 26012KT 9999 -RA SCT050 BKN060 09/06 Q1010,0,12,0,10000,0,0,0,-RA
2026-04-13 17:50:00,METAR LSGS 131750Z AUTO 27012KT 9999 -RA SCT055 BKN065 09/06 Q1010,0,12,0,10000,0,0,0,-RA
2026-04-13 17:20:00,METAR LSGS 131720Z 26012KT 9999 -RA SCT040 OVC065 10/07 Q1009,0,12,0,10000,0,0,0,-RA
2026-04-13 16:50:00,METAR LSGS 131650Z 26012KT 9999 -RA BKN050 OVC060 10/07 Q1009 REDZ,0,12,0,10000,0,0,0,"-RA,DZ"
2026-04-13 16:20:00,METAR LSGS 131620Z 28012KT 9999 DZ SCT049 OVC055 10/08 Q1009,0,12,0,10000,0,0,0,DZ
2026-04-13 15:50:00,METAR LSGS 131550Z 27013KT 9999 -RA SCT045 OVC060 10/07 Q1008,0,13,0,10000,0,0,0,-RA
2026-04-13 15:20:00,METAR LSGS 131520Z 26016KT 9999 -RA SCT038 BKN060 11/07 Q1008 REDZ,0,16,0,10000,0,0,0,"-RA,DZ"
2026-04-13 14:50:00,METAR LSGS 131450Z 26016KT 9999 -RA SCT040 BKN065 11/07 Q1008,0,16,0,10000,0,0,0,-RA
2026-04-13 14:20:00,METAR LSGS 131420Z 26016KT 9999 -RA SCT040 BKN065 12/07 Q1008,0,16,0,10000,0,0,0,-RA
2026-04-13 13:50:00,METAR LSGS 131350Z 26017KT 9999 SCT045 BKN050 12/07 Q1008,0,17,0,10000,0,0,0,
2026-04-13 13:20:00,METAR LSGS 131320Z 25016KT 9999 SCT048 BKN080 13/07 Q1008,0,16,0,10000,0,0,0,
2026-04-13 12:50:00,METAR LSGS 131250Z 25016KT 9999 SCT025 BKN065 14/08 Q1008,0,16,0,10000,0,0,0,
2026-04-13 12:20:00,METAR LSGS 131220Z AUTO 25014KT 9999 OVC075 13/08 Q1008,0,14,0,10000,0,0,0,
2026-04-13 11:50:00,METAR LSGS 131150Z 25014KT 9999 SCT025 BKN065 13/08 Q1008,0,14,0,10000,0,0,0,
2026-04-13 11:20:00,METAR LSGS 131120Z 26011KT 9999 SCT025 BKN065 13/08 Q1008,0,11,0,10000,0,0,0,
2026-04-13 10:50:00,METAR LSGS 131050Z 25009KT 210V280 9999 BKN020 BKN060 11/07 Q1008,0,9,0,10000,0,0,0,
2026-04-13 10:20:00,METAR LSGS 131020Z 25005KT 210V310 9999 SCT015 BKN030 11/07 Q1009,0,5,0,10000,0,0,0,
2026-04-13 09:50:00,METAR LSGS 130950Z 24005KT 200V270 9999 BKN015 BKN030 11/08 Q1009,0,5,0,10000,0,0,0,
2026-04-13 09:20:00,METAR LSGS 130920Z 23007KT 180V300 9999 BKN014 BKN060 11/07 Q1009,0,7,0,10000,0,0,0,
2026-04-13 08:50:00,METAR LSGS 130850Z 25008KT 220V280 9999 BKN019 BKN060 10/07 Q1009,0,8,0,10000,0,0,0,
2026-04-13 08:20:00,METAR LSGS 130820Z 25008KT 9999 BKN012 BKN065 10/07 Q1008,0,8,0,10000,0,0,0,
2026-04-13 07:50:00,METAR LSGS 130750Z 25008KT 9999 OVC016 09/08 Q1008,0,8,0,10000,0,0,0,
2026-04-13 07:20:00,METAR LSGS 130720Z 25005KT 210V270 9999 BKN015 BKN060 09/07 Q1009,0,5,0,10000,0,0,0,
2026-04-13 06:50:00,METAR LSGS 130650Z 26006KT 9999 FEW007 BKN015 BKN060 09/07 Q1008,0,6,0,10000,0,0,0,
2026-04-13 06:20:00,METAR LSGS 130620Z 26004KT 9999 -SHRA BKN013 OVC065 09/08 Q1008,0,4,0,10000,0,0,0,RA
2026-04-13 05:50:00,METAR LSGS 130550Z 26005KT 9999 BKN011 BKN045 09/07 Q1008,0,5,0,10000,0,0,0,
2026-04-13 05:20:00,METAR LSGS 130520Z 25006KT 9999 BKN010 BKN030 09/08 Q1008,0,6,0,10000,0,0,0,
2026-04-13 04:50:00,METAR LSGS 130450Z 26006KT 9999 BKN013 BKN035 09/08 Q1008,0,6,0,10000,0,0,0,
2026-04-13 04:20:00,METAR LSGS 130420Z AUTO 26005KT 9999 FEW009 OVC036 09/08 Q1009 REDZ,0,5,0,10000,0,0,0,DZ
2026-04-13 03:50:00,METAR LSGS 130350Z AUTO 26004KT 9999 FEW009 SCT041 BKN050 09/08 Q1009,0,4,0,10000,0,0,0,
2026-04-13 03:20:00,METAR LSGS 130320Z AUTO 26006KT 9999 BKN013 BKN050 09/08 Q1009,0,6,0,10000,0,0,0,
2026-04-13 02:50:00,METAR LSGS 130250Z AUTO 26006KT 9999 OVC010 09/08 Q1009,0,6,0,10000,0,0,0,
2026-04-13 02:20:00,METAR LSGS 130220Z AUTO 26005KT 9999 SCT012 BKN049 BKN065 09/08 Q1009,0,5,0,10000,0,0,0,
2026-04-13 01:50:00,METAR LSGS 130150Z AUTO 26006KT 9999 BKN011 09/08 Q1009,0,6,0,10000,0,0,0,
2026-04-13 01:20:00,METAR LSGS 130120Z AUTO 24003KT 200V270 9999 BKN012 09/08 Q1009,0,3,0,10000,0,0,0,
2026-04-13 00:50:00,METAR LSGS 130050Z AUTO 26005KT 9999 FEW015 SCT032 BKN037 09/08 Q1010,0,5,0,10000,0,0,0,
2026-04-13 00:20:00,METAR LSGS 130020Z AUTO 26004KT 9999 BKN013 BKN016 BKN037 09/08 Q1010,0,4,0,10000,0,0,0,
2026-04-12 23:50:00,METAR LSGS 122350Z AUTO 28004KT 9999 FEW034 BKN050 09/08 Q1010,0,4,0,10000,0,0,0,
2026-04-12 23:20:00,METAR LSGS 122320Z AUTO 26006KT 9999 OVC015 10/08 Q1010,0,6,0,10000,0,0,0,
2026-04-12 22:50:00,METAR LSGS 122250Z AUTO 26004KT 9999 FEW016 SCT022 BKN031 10/08 Q1010,0,4,0,10000,0,0,0,
2026-04-12 22:20:00,METAR LSGS 122220Z AUTO 25004KT 9999 BKN049 10/08 Q1010 REDZ,0,4,0,10000,0,0,0,DZ
2026-04-12 21:50:00,METAR LSGS 122150Z AUTO 28004KT 9999 SCT085 SCT095 10/08 Q1011 REDZ,0,4,0,10000,0,0,0,DZ
2026-04-12 21:20:00,METAR LSGS 122120Z AUTO 26003KT 9999 -RA FEW028 BKN070 10/08 Q1011,0,3,0,10000,0,0,0,-RA
2026-04-12 20:50:00,METAR LSGS 122050Z AUTO VRB01KT 9999 FEW100 BKN130 10/08 Q1011,0,1,0,10000,0,0,0,
2026-04-12 20:20:00,METAR LSGS 122020Z AUTO 25007KT 9999 FEW026 10/08 Q1011,0,7,0,10000,0,0,0,
2026-04-12 19:50:00,METAR LSGS 121950Z AUTO 25007KT 9999 FEW120 BKN130 BKN150 11/08 Q1011,0,7,0,10000,0,0,0,
2026-04-12 19:20:00,METAR LSGS 121920Z AUTO 26006KT 9999 SCT120 SCT140 BKN150 11/08 Q1011,0,6,0,10000,0,0,0,
2026-04-12 18:50:00,METAR LSGS 121850Z AUTO 25006KT 9999 SCT150 BKN160 11/08 Q1011,0,6,0,10000,0,0,0,
2026-04-12 18:20:00,METAR LSGS 121820Z AUTO 25007KT 210V270 9999 SCT140 BKN150 11/08 Q1011,0,7,0,10000,0,0,0,
2026-04-12 17:50:00,METAR LSGS 121750Z 26006KT 9999 BKN100 12/08 Q1011,0,6,0,10000,0,0,0,
2026-04-12 17:20:00,METAR LSGS 121720Z 27007KT 9999 BKN160 12/08 Q1011,0,7,0,10000,0,0,0,
2026-04-12 16:50:00,METAR LSGS 121650Z 27008KT 240V300 9999 FEW140 SCT150 BKN160 12/08 Q1011,0,8,0,10000,0,0,0,
2026-04-12 16:20:00,METAR LSGS 121620Z 26012KT 9999 BKN075 12/08 Q1011,0,12,0,10000,0,0,0,
2026-04-12 15:50:00,METAR LSGS 121550Z 26013KT 9999 BKN075 13/08 Q1011,0,13,0,10000,0,0,0,
2026-04-12 14:50:00,METAR LSGS 121450Z 25014KT 9999 BKN075 13/08 Q1011,0,14,0,10000,0,0,0,
2026-04-12 14:20:00,METAR LSGS 121420Z 25013KT 9999 OVC075 13/09 Q1011,0,13,0,10000,0,0,0,
2026-04-12 13:50:00,METAR LSGS 121350Z 25012KT 9999 OVC075 13/08 Q1011,0,12,0,10000,0,0,0,
2026-04-12 13:20:00,METAR LSGS 121320Z 25014KT 9999 FEW055 BKN075 13/08 Q1012,0,14,0,10000,0,0,0,
2026-04-12 12:50:00,METAR LSGS 121250Z 25013KT 9999 FEW040 BKN065 14/09 Q1012,0,13,0,10000,0,0,0,
2026-04-12 12:20:00,METAR LSGS 121220Z 25012KT 9999 FEW040 BKN065 14/09 Q1012,0,12,0,10000,0,0,0,
2026-04-12 11:50:00,METAR LSGS 121150Z 25012KT 9999 FEW040 OVC130 14/08 Q1012,0,12,0,10000,0,0,0,
2026-04-12 11:20:00,METAR LSGS 121120Z 25010KT 9999 FEW040 OVC130 15/09 Q1013,0,10,0,10000,0,0,0,
2026-04-12 10:50:00,METAR LSGS 121050Z 26006KT 230V310 9999 FEW040 SCT065 14/08 Q1013,0,6,0,10000,0,0,0,
2026-04-12 10:20:00,METAR LSGS 121020Z 25005KT 210V300 9999 FEW040 SCT065 14/09 Q1013,0,5,0,10000,0,0,0,
2026-04-12 09:50:00,METAR LSGS 120950Z COR 25003KT 230V290 9999 SCT065 OVC100 13/08 Q1014,0,3,0,10000,0,0,0,
2026-04-12 09:20:00,METAR LSGS 120920Z VRB02KT 9999 SCT040 OVC060 13/09 Q1014,0,2,0,10000,0,0,0,
2026-04-12 08:50:00,METAR LSGS 120850Z 24006KT 9999 FEW015 OVC045 12/08 Q1014,0,6,0,10000,0,0,0,
2026-04-12 08:20:00,METAR LSGS 120820Z 25007KT 9999 BKN040 12/08 Q1014,0,7,0,10000,0,0,0,
2026-04-12 07:50:00,METAR LSGS 120750Z 25006KT 9999 OVC040 12/09 Q1015,0,6,0,10000,0,0,0,
2026-04-12 07:20:00,METAR LSGS 120720Z 25007KT 9999 OVC041 12/08 Q1014,0,7,0,10000,0,0,0,
2026-04-12 06:50:00,METAR LSGS 120650Z 25005KT 9999 OVC060 12/08 Q1014,0,5,0,10000,0,0,0,
2026-04-12 06:20:00,METAR LSGS 120620Z 25003KT 220V280 9999 BKN045 OVC070 12/08 Q1014,0,3,0,10000,0,0,0,
2026-04-12 05:50:00,METAR LSGS 120550Z 29005KT 260V320 9999 BKN040 OVC120 11/08 Q1014,0,5,0,10000,0,0,0,
2026-04-12 05:20:00,METAR LSGS 120520Z 28005KT 250V310 9999 FEW050 BKN130 12/08 Q1014,0,5,0,10000,0,0,0,
2026-04-12 04:50:00,METAR LSGS 120450Z 26006KT 220V290 9999 FEW060 BKN110 12/07 Q1014,0,6,0,10000,0,0,0,
2026-04-12 04:20:00,METAR LSGS 120420Z AUTO 25010KT 200V270 9999 FEW120 BKN130 12/08 Q1014,0,10,0,10000,0,0,0,
2026-04-12 03:50:00,METAR LSGS 120350Z AUTO 25011KT 9999 FEW120 12/08 Q1014,0,11,0,10000,0,0,0,
2026-04-12 03:20:00,METAR LSGS 120320Z AUTO 27012KT 9999 BKN110 13/08 Q1014,0,12,0,10000,0,0,0,
2026-04-12 02:50:00,METAR LSGS 120250Z AUTO 26017KT 9999 SCT120 BKN130 14/08 Q1013,0,17,0,10000,0,0,0,
2026-04-12 02:20:00,METAR LSGS 120220Z AUTO 25012KT 210V280 9999 SCT120 BKN130 14/09 Q1013,0,12,0,10000,0,0,0,
2026-04-12 01:50:00,METAR LSGS 120150Z AUTO 27008KT 9999 NCD 15/09 Q1013,0,8,0,10000,0,0,0,
2026-04-12 01:20:00,METAR LSGS 120120Z AUTO 24007KT 170V280 9999 FEW130 15/09 Q1013,0,7,0,10000,0,0,0,
2026-04-12 00:50:00,METAR LSGS 120050Z AUTO 25010KT 9999 NCD 16/09 Q1013,0,10,0,10000,0,0,0,
2026-04-12 00:20:00,METAR LSGS 120020Z AUTO VRB02KT 9999 OVC130 16/09 Q1013,0,2,0,10000,0,0,0,
2026-04-11 23:50:00,METAR LSGS 112350Z AUTO VRB02KT 9999 BKN120 BKN130 16/08 Q1013,0,2,0,10000,0,0,0,
2026-04-11 23:20:00,METAR LSGS 112320Z AUTO VRB01KT 9999 BKN120 BKN130 14/07 Q1013,0,1,0,10000,0,0,0,
2026-04-11 22:50:00,METAR LSGS 112250Z AUTO VRB02KT 9999 BKN130 14/06 Q1012,0,2,0,10000,0,0,0,
2026-04-11 22:20:00,METAR LSGS 112220Z AUTO VRB02KT 9999 OVC130 16/06 Q1012,0,2,0,10000,0,0,0,
2026-04-11 21:50:00,METAR LSGS 112150Z AUTO VRB02KT 9999 BKN130 16/05 Q1012,0,2,0,10000,0,0,0,
2026-04-11 21:20:00,METAR LSGS 112120Z AUTO VRB02KT 9999 NCD 14/07 Q1012,0,2,0,10000,0,0,0,
2026-04-11 20:50:00,METAR LSGS 112050Z AUTO VRB02KT 9999 NSC 15/06 Q1012,0,2,0,10000,0,0,0,
2026-04-11 20:20:00,METAR LSGS 112020Z AUTO 10002KT 9999 NCD 16/05 Q1012,0,2,0,10000,0,0,0,
2026-04-11 19:50:00,METAR LSGS 111950Z AUTO VRB01KT 9999 BKN130 19/03 Q1012,0,1,0,10000,0,0,0,
2026-04-11 19:20:00,METAR LSGS 111920Z AUTO VRB02KT 9999 SCT110 BKN120 BKN150 19/04 Q1012,0,2,0,10000,0,0,0,
2026-04-11 18:50:00,METAR LSGS 111850Z AUTO VRB02KT 9999 FEW110 BKN130 20/04 Q1011,0,2,0,10000,0,0,0,
2026-04-11 18:20:00,METAR LSGS 111820Z AUTO VRB02KT 9999 BKN110 21/03 Q1011,0,2,0,10000,0,0,0,
2026-04-11 17:50:00,METAR LSGS 111750Z VRB01KT 9999 FEW085 OVC110 22/03 Q1011,0,1,0,10000,0,0,0,
2026-04-11 17:20:00,METAR LSGS 111720Z VRB03KT 9999 BKN090 OVC120 22/05 Q1012,0,3,0,10000,0,0,0,
2026-04-11 16:50:00,METAR LSGS 111650Z 25004KT 180V300 9999 SCT110 BKN140 23/04 Q1012,0,4,0,10000,0,0,0,
2026-04-11 16:20:00,METAR LSGS 111620Z 25010KT 9999 FEW110 OVC140 23/04 Q1012,0,10,0,10000,0,0,0,
2026-04-11 15:50:00,METAR LSGS 111550Z 29009KT 9999 SCT140 24/03 Q1011,0,9,0,10000,0,0,0,
2026-04-11 15:20:00,METAR LSGS 111520Z 27008G18KT 230V310 9999 SCT110 BKN140 24/03 Q1011,0,8,1,10000,0,0,0,
2026-04-11 14:50:00,METAR LSGS 111450Z 23011KT 180V250 9999 SCT110 BKN140 24/05 Q1011,0,11,0,10000,0,0,0,
2026-04-11 14:20:00,METAR LSGS 111420Z 26012KT 220V300 9999 SCT120 BKN130 22/07 Q1011,0,12,0,10000,0,0,0,
2026-04-11 13:50:00,METAR LSGS 111350Z 25011KT 9999 BKN130 23/07 Q1011,0,11,0,10000,0,0,0,
2026-04-11 13:20:00,METAR LSGS 111320Z 24007KT 190V270 9999 SCT120 24/06 Q1011,0,7,0,10000,0,0,0,
2026-04-11 12:50:00,METAR LSGS 111250Z 25005KT 200V280 9999 FEW130 24/04 Q1011,0,5,0,10000,0,0,0,
2026-04-11 12:20:00,METAR LSGS 111220Z VRB02KT CAVOK 24/01 Q1011,1,0,0,9999,0,0,0,
2026-04-11 11:50:00,METAR LSGS 111150Z 07003KT 010V120 CAVOK 23/03 Q1011,1,0,0,9999,0,0,0,
2026-04-11 11:20:00,METAR LSGS 111120Z VRB03KT CAVOK 22/02 Q1012,1,0,0,9999,0,0,0,
2026-04-11 10:50:00,METAR LSGS 111050Z 06003KT 330V120 CAVOK 21/03 Q1012,1,0,0,9999,0,0,0,
2026-04-11 10:20:00,METAR LSGS 111020Z 09004KT 050V150 CAVOK 19/04 Q1013,1,0,0,9999,0,0,0,
2026-04-11 09:50:00,METAR LSGS 110950Z 08004KT 020V160 CAVOK 19/05 Q1014,1,0,0,9999,0,0,0,
2026-04-11 09:20:00,METAR LSGS 110920Z VRB03KT CAVOK 18/05 Q1014,1,0,0,9999,0,0,0,
2026-04-11 08:50:00,METAR LSGS 110850Z 06004KT 010V100 CAVOK 16/04 Q1015,1,0,0,9999,0,0,0,
2026-04-11 08:20:00,METAR LSGS 110820Z 06005KT CAVOK 15/05 Q1015,1,0,0,9999,0,0,0,
2026-04-11 07:50:00,METAR LSGS 110750Z 10004KT 070V140 CAVOK 14/06 Q1015,1,0,0,9999,0,0,0,
2026-04-11 07:20:00,METAR LSGS 110720Z 07007KT CAVOK 12/05 Q1016,1,0,0,9999,0,0,0,
2026-04-11 06:50:00,METAR LSGS 110650Z 08007KT CAVOK 11/05 Q1016,1,0,0,9999,0,0,0,
2026-04-11 06:20:00,METAR LSGS 110620Z VRB02KT CAVOK 09/04 Q1016,1,0,0,9999,0,0,0,
2026-04-11 05:50:00,METAR LSGS 110550Z AUTO VRB01KT CAVOK 08/04 Q1016,1,0,0,9999,0,0,0,
2026-04-11 05:20:00,METAR LSGS 110520Z VRB02KT CAVOK 08/04 Q1016,1,0,0,9999,0,0,0,
2026-04-11 04:50:00,METAR LSGS 110450Z 09003KT CAVOK 07/05 Q1016,1,0,0,9999,0,0,0,
2026-04-11 04:20:00,METAR LSGS 110420Z AUTO VRB02KT CAVOK 07/04 Q1015,1,0,0,9999,0,0,0,
2026-04-11 03:50:00,METAR LSGS 110350Z AUTO VRB02KT CAVOK 08/05 Q1016,1,0,0,9999,0,0,0,
2026-04-11 03:20:00,METAR LSGS 110320Z AUTO VRB01KT 9999 NCD 08/05 Q1016,0,1,0,10000,0,0,0,
2026-04-11 02:50:00,METAR LSGS 110250Z AUTO VRB03KT 9999 NSC 08/05 Q1016,0,3,0,10000,0,0,0,
2026-04-11 02:20:00,METAR LSGS 110220Z AUTO 09003KT CAVOK 10/05 Q1016,1,0,0,9999,0,0,0,
2026-04-11 01:50:00,METAR LSGS 110150Z AUTO 11004KT CAVOK 08/05 Q1016,1,0,0,9999,0,0,0,
2026-04-11 01:20:00,METAR LSGS 110120Z AUTO VRB02KT 9999 NSC 08/05 Q1016,0,2,0,10000,0,0,0,
2026-04-11 00:50:00,METAR LSGS 110050Z AUTO VRB02KT CAVOK 10/05 Q1016,1,0,0,9999,0,0,0,
2026-04-11 00:20:00,METAR LSGS 110020Z AUTO 08004KT 9999 NCD 09/06 Q1016,0,4,0,10000,0,0,0,
2026-04-10 23:50:00,METAR LSGS 102350Z AUTO VRB01KT CAVOK 09/06 Q1016,1,0,0,9999,0,0,0,
2026-04-10 23:20:00,METAR LSGS 102320Z AUTO VRB01KT CAVOK 10/06 Q1016,1,0,0,9999,0,0,0,
2026-04-10 22:50:00,METAR LSGS 102250Z AUTO VRB02KT CAVOK 11/06 Q1016,1,0,0,9999,0,0,0,
2026-04-10 22:20:00,METAR LSGS 102220Z AUTO VRB01KT CAVOK 11/06 Q1016,1,0,0,9999,0,0,0,
2026-04-10 21:50:00,METAR LSGS 102150Z AUTO VRB01KT CAVOK 12/06 Q1016,1,0,0,9999,0,0,0,
2026-04-10 21:20:00,METAR LSGS 102120Z AUTO VRB02KT CAVOK 11/05 Q1016,1,0,0,9999,0,0,0,
2026-04-10 20:50:00,METAR LSGS 102050Z AUTO VRB01KT CAVOK 13/05 Q1016,1,0,0,9999,0,0,0,
2026-04-10 20:20:00,METAR LSGS 102020Z AUTO VRB02KT CAVOK 15/05 Q1016,1,0,0,9999,0,0,0,
2026-04-10 19:50:00,METAR LSGS 101950Z AUTO 07004KT CAVOK 17/05 Q1015,1,0,0,9999,0,0,0,
2026-04-10 19:20:00,METAR LSGS 101920Z AUTO 28006KT 250V320 CAVOK 17/06 Q1015,1,0,0,9999,0,0,0,
2026-04-10 18:50:00,METAR LSGS 101850Z AUTO 27004KT 250V310 9999 NSC 17/07 Q1015,0,4,0,10000,0,0,0,
2026-04-10 18:20:00,METAR LSGS 101820Z AUTO 26004KT 190V340 CAVOK 18/07 Q1015,1,0,0,9999,0,0,0,
2026-04-10 17:50:00,METAR LSGS 101750Z 25007KT 9999 SCT085 19/07 Q1015,0,7,0,10000,0,0,0,
2026-04-10 17:20:00,METAR LSGS 101720Z 25011KT 9999 BKN095 20/07 Q1015,0,11,0,10000,0,0,0,
2026-04-10 16:50:00,METAR LSGS 101650Z 25009KT 9999 SCT100 20/07 Q1015,0,9,0,10000,0,0,0,
2026-04-10 16:20:00,METAR LSGS 101620Z 25007KT 9999 SCT095 22/05 Q1015,0,7,0,10000,0,0,0,
2026-04-10 15:50:00,METAR LSGS 101550Z AUTO 23007KT 190V250 9999 SCT090 SCT100 21/06 Q1015,0,7,0,10000,0,0,0,
2026-04-10 15:20:00,METAR LSGS 101520Z 24009KT 200V260 9999 BKN095 21/06 Q1015,0,9,0,10000,0,0,0,
2026-04-10 14:50:00,METAR LSGS 101450Z 25014KT 9999 SCT110 22/05 Q1015,0,14,0,10000,0,0,0,
2026-04-10 14:20:00,METAR LSGS 101420Z 25011KT 9999 SCT100 23/04 Q1015,0,11,0,10000,0,0,0,
2026-04-10 13:50:00,METAR LSGS 101350Z 25012KT 9999 SCT110 24/06 Q1015,0,12,0,10000,0,0,0,
2026-04-10 13:20:00,METAR LSGS 101320Z 24013KT 9999 SCT100 24/04 Q1015,0,13,0,10000,0,0,0,
2026-04-10 12:50:00,METAR LSGS 101250Z 23010KT 170V260 9999 FEW090 24/03 Q1015,0,10,0,10000,0,0,0,
2026-04-10 12:20:00,METAR LSGS 101220Z VRB07KT 9999 FEW090 23/03 Q1015,0,7,0,10000,0,0,0,
2026-04-10 11:50:00,METAR LSGS 101150Z VRB04KT 9999 FEW085 23/05 Q1016,0,4,0,10000,0,0,0,
2026-04-10 11:20:00,METAR LSGS 101120Z 24005KT 190V280 9999 FEW100 21/06 Q1016,0,5,0,10000,0,0,0,
2026-04-10 10:50:00,METAR LSGS 101050Z 21004KT 130V290 9999 FEW100 20/06 Q1017,0,4,0,10000,0,0,0,
2026-04-10 10:20:00,METAR LSGS 101020Z VRB04KT 9999 FEW100 19/04 Q1017,0,4,0,10000,0,0,0,
2026-04-10 09:50:00,METAR LSGS 100950Z 21004KT 140V270 9999 FEW100 18/06 Q1017,0,4,0,10000,0,0,0,
2026-04-10 09:20:00,METAR LSGS 100920Z 25004KT 180V280 9999 FEW100 17/05 Q1018,0,4,0,10000,0,0,0,
2026-04-10 08:50:00,METAR LSGS 100850Z 26003KT 200V290 9999 FEW100 17/06 Q1018,0,3,0,10000,0,0,0,
2026-04-10 08:20:00,METAR LSGS 100820Z VRB02KT 9999 FEW110 16/05 Q1018,0,2,0,10000,0,0,0,
2026-04-10 07:50:00,METAR LSGS 100750Z VRB02KT 9999 FEW110 15/05 Q1018,0,2,0,10000,0,0,0,
2026-04-10 07:20:00,METAR LSGS 100720Z 09004KT 060V120 CAVOK 14/06 Q1018,1,0,0,9999,0,0,0,
2026-04-10 06:50:00,METAR LSGS 100650Z 08004KT CAVOK 11/07 Q1019,1,0,0,9999,0,0,0,
2026-04-10 06:20:00,METAR LSGS 100620Z VRB02KT 9999 FEW120 09/06 Q1019,0,2,0,10000,0,0,0,
2026-04-10 05:50:00,METAR LSGS 100550Z VRB02KT 9999 FEW120 09/06 Q1018,0,2,0,10000,0,0,0,
2026-04-10 05:20:00,METAR LSGS 100520Z VRB01KT 9999 FEW100 07/05 Q1018,0,1,0,10000,0,0,0,
2026-04-10 04:50:00,METAR LSGS 100450Z VRB02KT 9999 FEW130 08/06 Q1018,0,2,0,10000,0,0,0,
2026-04-10 04:20:00,METAR LSGS 100420Z AUTO VRB01KT 9999 OVC120 07/05 Q1018,0,1,0,10000,0,0,0,
2026-04-10 03:50:00,METAR LSGS 100350Z AUTO VRB01KT CAVOK 07/05 Q1018,1,0,0,9999,0,0,0,
2026-04-10 03:20:00,METAR LSGS 100320Z AUTO VRB02KT CAVOK 07/05 Q1018,1,0,0,9999,0,0,0,
2026-04-10 02:50:00,METAR LSGS 100250Z AUTO VRB02KT CAVOK 09/07 Q1018,1,0,0,9999,0,0,0,
2026-04-10 02:20:00,METAR LSGS 100220Z AUTO VRB01KT CAVOK 09/06 Q1018,1,0,0,9999,0,0,0,
2026-04-10 01:50:00,METAR LSGS 100150Z AUTO VRB02KT CAVOK 09/06 Q1018,1,0,0,9999,0,0,0,
2026-04-10 01:20:00,METAR LSGS 100120Z AUTO VRB01KT CAVOK 09/05 Q1018,1,0,0,9999,0,0,0,
2026-04-10 00:50:00,METAR LSGS 100050Z AUTO VRB01KT CAVOK 10/06 Q1019,1,0,0,9999,0,0,0,
2026-04-10 00:20:00,METAR LSGS 100020Z AUTO VRB01KT CAVOK 10/06 Q1018,1,0,0,9999,0,0,0,
2026-04-09 23:50:00,METAR LSGS 092350Z AUTO VRB02KT 9999 NCD 11/06 Q1018,0,2,0,10000,0,0,0,
2026-04-09 23:20:00,METAR LSGS 092320Z AUTO VRB02KT CAVOK 12/06 Q1018,1,0,0,9999,0,0,0,
2026-04-09 22:50:00,METAR LSGS 092250Z AUTO VRB02KT CAVOK 12/06 Q1018,1,0,0,9999,0,0,0,
2026-04-09 22:20:00,METAR LSGS 092220Z AUTO 08002KT CAVOK 12/06 Q1018,1,0,0,9999,0,0,0,
2026-04-09 21:50:00,METAR LSGS 092150Z AUTO VRB01KT CAVOK 13/06 Q1018,1,0,0,9999,0,0,0,
2026-04-09 21:20:00,METAR LSGS 092120Z AUTO VRB01KT CAVOK 16/05 Q1018,1,0,0,9999,0,0,0,
2026-04-09 20:50:00,METAR LSGS 092050Z AUTO VRB01KT CAVOK 16/05 Q1018,1,0,0,9999,0,0,0,
2026-04-09 20:20:00,METAR LSGS 092020Z AUTO VRB02KT CAVOK 17/05 Q1017,1,0,0,9999,0,0,0,
2026-04-09 19:50:00,METAR LSGS 091950Z AUTO 24004KT 190V280 CAVOK 17/06 Q1017,1,0,0,9999,0,0,0,
2026-04-09 19:20:00,METAR LSGS 091920Z AUTO 27005KT CAVOK 17/06 Q1017,1,0,0,9999,0,0,0,
2026-04-09 18:50:00,METAR LSGS 091850Z AUTO 22004KT 180V250 CAVOK 19/05 Q1017,1,0,0,9999,0,0,0,
2026-04-09 18:20:00,METAR LSGS 091820Z AUTO 24004KT 210V280 9999 NCD 21/05 Q1016,0,4,0,10000,0,0,0,
2026-04-09 17:50:00,METAR LSGS 091750Z AUTO 27005KT 230V310 CAVOK 21/05 Q1016,1,0,0,9999,0,0,0,
2026-04-09 17:20:00,METAR LSGS 091720Z 26007KT 210V330 9999 FEW100 23/04 Q1016,0,7,0,10000,0,0,0,
2026-04-09 16:50:00,METAR LSGS 091650Z 26008KT 9999 FEW100 24/04 Q1016,0,8,0,10000,0,0,0,
2026-04-09 16:20:00,METAR LSGS 091620Z 26008KT 220V290 9999 FEW100 24/07 Q1016,0,8,0,10000,0,0,0,
2026-04-09 15:50:00,METAR LSGS 091550Z 24011KT 200V270 9999 FEW100 25/05 Q1015,0,11,0,10000,0,0,0,
2026-04-09 15:20:00,METAR LSGS 091520Z 27010KT 9999 FEW100 25/02 Q1016,0,10,0,10000,0,0,0,
2026-04-09 14:50:00,METAR LSGS 091450Z 23010KT CAVOK 25/06 Q1016,1,0,0,9999,0,0,0,
2026-04-09 14:20:00,METAR LSGS 091420Z 24009KT CAVOK 25/04 Q1016,1,0,0,9999,0,0,0,
2026-04-09 13:50:00,METAR LSGS 091350Z 22007KT 180V260 CAVOK 25/05 Q1016,1,0,0,9999,0,0,0,
2026-04-09 13:20:00,METAR LSGS 091320Z 24010KT CAVOK 25/05 Q1016,1,0,0,9999,0,0,0,
2026-04-09 12:50:00,METAR LSGS 091250Z 25007KT 180V290 CAVOK 24/07 Q1017,1,0,0,9999,0,0,0,
2026-04-09 12:20:00,METAR LSGS 091220Z 26009KT 240V320 CAVOK 23/08 Q1017,1,0,0,9999,0,0,0,
2026-04-09 11:50:00,METAR LSGS 091150Z 25006KT 190V290 CAVOK 23/07 Q1018,1,0,0,9999,0,0,0,
2026-04-09 11:20:00,METAR LSGS 091120Z 25006KT 210V290 CAVOK 21/05 Q1018,1,0,0,9999,0,0,0,
2026-04-09 10:50:00,METAR LSGS 091050Z 24003KT 140V280 CAVOK 21/07 Q1019,1,0,0,9999,0,0,0,
2026-04-09 10:20:00,METAR LSGS 091020Z VRB03KT CAVOK 20/04 Q1019,1,0,0,9999,0,0,0,
2026-04-09 09:50:00,METAR LSGS 090950Z 24003KT 190V300 CAVOK 19/02 Q1020,1,0,0,9999,0,0,0,
2026-04-09 09:20:00,METAR LSGS 090920Z VRB02KT CAVOK 18/04 Q1020,1,0,0,9999,0,0,0,
2026-04-09 08:50:00,METAR LSGS 090850Z VRB02KT CAVOK 16/03 Q1021,1,0,0,9999,0,0,0,
2026-04-09 08:20:00,METAR LSGS 090820Z 08004KT 010V130 CAVOK 15/04 Q1021,1,0,0,9999,0,0,0,
2026-04-09 07:50:00,METAR LSGS 090750Z 08006KT CAVOK 14/04 Q1021,1,0,0,9999,0,0,0,
2026-04-09 07:20:00,METAR LSGS 090720Z 09005KT CAVOK 13/04 Q1022,1,0,0,9999,0,0,0,
2026-04-09 06:50:00,METAR LSGS 090650Z 07005KT CAVOK 12/05 Q1022,1,0,0,9999,0,0,0,
2026-04-09 06:20:00,METAR LSGS 090620Z 08004KT CAVOK 10/04 Q1022,1,0,0,9999,0,0,0,
2026-04-09 05:50:00,METAR LSGS 090550Z 08004KT CAVOK 08/04 Q1022,1,0,0,9999,0,0,0,
2026-04-09 05:20:00,METAR LSGS 090520Z 07004KT CAVOK 08/04 Q1022,1,0,0,9999,0,0,0,
2026-04-09 04:50:00,METAR LSGS 090450Z 05004KT CAVOK 08/04 Q1022,1,0,0,9999,0,0,0,
2026-04-09 04:20:00,METAR LSGS 090420Z AUTO 09003KT 040V120 CAVOK 08/04 Q1022,1,0,0,9999,0,0,0,
2026-04-09 03:50:00,METAR LSGS 090350Z AUTO 08003KT 060V130 CAVOK 09/04 Q1022,1,0,0,9999,0,0,0,
2026-04-09 03:20:00,METAR LSGS 090320Z AUTO 08004KT CAVOK 08/04 Q1022,1,0,0,9999,0,0,0,
2026-04-09 02:50:00,METAR LSGS 090250Z AUTO 07003KT CAVOK 09/05 Q1022,1,0,0,9999,0,0,0,
2026-04-09 02:20:00,METAR LSGS 090220Z AUTO VRB02KT CAVOK 09/06 Q1022,1,0,0,9999,0,0,0,
2026-04-09 01:50:00,METAR LSGS 090150Z AUTO VRB01KT CAVOK 08/05 Q1022,1,0,0,9999,0,0,0,
2026-04-09 01:20:00,METAR LSGS 090120Z AUTO VRB01KT CAVOK 08/06 Q1022,1,0,0,9999,0,0,0,
2026-04-09 00:50:00,METAR LSGS 090050Z AUTO VRB01KT CAVOK 10/06 Q1022,1,0,0,9999,0,0,0,
2026-04-09 00:20:00,METAR LSGS 090020Z AUTO VRB01KT CAVOK 10/06 Q1022,1,0,0,9999,0,0,0,
2026-04-08 23:50:00,METAR LSGS 082350Z AUTO VRB01KT CAVOK 11/05 Q1022,1,0,0,9999,0,0,0,
2026-04-08 23:20:00,METAR LSGS 082320Z AUTO VRB02KT CAVOK 10/06 Q1022,1,0,0,9999,0,0,0,
2026-04-08 22:50:00,METAR LSGS 082250Z AUTO VRB01KT CAVOK 12/06 Q1022,1,0,0,9999,0,0,0,
2026-04-08 22:20:00,METAR LSGS 082220Z AUTO VRB01KT CAVOK 12/06 Q1022,1,0,0,9999,0,0,0,
2026-04-08 21:50:00,METAR LSGS 082150Z AUTO VRB02KT CAVOK 13/06 Q1022,1,0,0,9999,0,0,0,
2026-04-08 21:20:00,METAR LSGS 082120Z AUTO 09003KT CAVOK 14/07 Q1021,1,0,0,9999,0,0,0,
2026-04-08 20:50:00,METAR LSGS 082050Z AUTO VRB01KT CAVOK 14/07 Q1021,1,0,0,9999,0,0,0,
2026-04-08 20:20:00,METAR LSGS 082020Z AUTO VRB02KT CAVOK 15/07 Q1021,1,0,0,9999,0,0,0,
2026-04-08 19:50:00,METAR LSGS 081950Z AUTO VRB02KT CAVOK 18/06 Q1021,1,0,0,9999,0,0,0,
2026-04-08 19:20:00,METAR LSGS 081920Z AUTO 10003KT CAVOK 18/08 Q1020,1,0,0,9999,0,0,0,
2026-04-08 18:50:00,METAR LSGS 081850Z AUTO VRB03KT CAVOK 18/08 Q1020,1,0,0,9999,0,0,0,
2026-04-08 18:20:00,METAR LSGS 081820Z AUTO 27006KT CAVOK 19/09 Q1020,1,0,0,9999,0,0,0,
2026-04-08 17:50:00,METAR LSGS 081750Z 27007KT CAVOK 21/09 Q1019,1,0,0,9999,0,0,0,
2026-04-08 17:20:00,METAR LSGS 081720Z 24011KT CAVOK 22/09 Q1019,1,0,0,9999,0,0,0,
2026-04-08 16:50:00,METAR LSGS 081650Z 25015KT CAVOK 23/10 Q1019,1,0,0,9999,0,0,0,
2026-04-08 16:20:00,METAR LSGS 081620Z 25015KT CAVOK 23/09 Q1019,1,0,0,9999,0,0,0,
2026-04-08 15:50:00,METAR LSGS 081550Z 25014KT CAVOK 24/08 Q1019,1,0,0,9999,0,0,0,
2026-04-08 15:20:00,METAR LSGS 081520Z 25015KT CAVOK 24/07 Q1019,1,0,0,9999,0,0,0,
2026-04-08 14:50:00,METAR LSGS 081450Z 25015KT CAVOK 24/06 Q1019,1,0,0,9999,0,0,0,
2026-04-08 14:20:00,METAR LSGS 081420Z 25014KT CAVOK 25/07 Q1019,1,0,0,9999,0,0,0,
2026-04-08 13:50:00,METAR LSGS 081350Z 25012KT CAVOK 25/07 Q1019,1,0,0,9999,0,0,0,
2026-04-08 13:20:00,METAR LSGS 081320Z 24010KT CAVOK 24/07 Q1020,1,0,0,9999,0,0,0,
2026-04-08 12:50:00,METAR LSGS 081250Z 22006KT 170V280 CAVOK 23/05 Q1020,1,0,0,9999,0,0,0,
2026-04-08 12:20:00,METAR LSGS 081220Z 24006KT 210V280 CAVOK 23/06 Q1020,1,0,0,9999,0,0,0,
2026-04-08 11:50:00,METAR LSGS 081150Z VRB03KT CAVOK 22/05 Q1021,1,0,0,9999,0,0,0,
2026-04-08 11:20:00,METAR LSGS 081120Z VRB03KT CAVOK 22/04 Q1021,1,0,0,9999,0,0,0,
2026-04-08 10:50:00,METAR LSGS 081050Z VRB01KT CAVOK 21/03 Q1022,1,0,0,9999,0,0,0,
2026-04-08 10:20:00,METAR LSGS 081020Z VRB02KT CAVOK 20/03 Q1022,1,0,0,9999,0,0,0,
2026-04-08 09:50:00,METAR LSGS 080950Z VRB02KT CAVOK 19/04 Q1023,1,0,0,9999,0,0,0,
2026-04-08 09:20:00,METAR LSGS 080920Z 06005KT 040V110 CAVOK 18/03 Q1023,1,0,0,9999,0,0,0,
2026-04-08 08:50:00,METAR LSGS 080850Z 08003KT 040V120 CAVOK 16/04 Q1023,1,0,0,9999,0,0,0,
2026-04-08 08:20:00,METAR LSGS 080820Z 08005KT CAVOK 15/03 Q1024,1,0,0,9999,0,0,0,
2026-04-08 07:50:00,METAR LSGS 080750Z 08005KT CAVOK 14/03 Q1024,1,0,0,9999,0,0,0,
2026-04-08 07:20:00,METAR LSGS 080720Z 07005KT CAVOK 12/04 Q1024,1,0,0,9999,0,0,0,
2026-04-08 06:50:00,METAR LSGS 080650Z VRB04KT CAVOK 11/04 Q1024,1,0,0,9999,0,0,0,
2026-04-08 06:20:00,METAR LSGS 080620Z 05004KT CAVOK 10/04 Q1024,1,0,0,9999,0,0,0,
2026-04-08 05:50:00,METAR LSGS 080550Z 07004KT CAVOK 08/03 Q1024,1,0,0,9999,0,0,0,
2026-04-08 05:20:00,METAR LSGS 080520Z 07004KT CAVOK 08/03 Q1024,1,0,0,9999,0,0,0,
2026-04-08 04:50:00,METAR LSGS 080450Z 05004KT CAVOK 07/03 Q1024,1,0,0,9999,0,0,0,
2026-04-08 04:20:00,METAR LSGS 080420Z AUTO 09003KT CAVOK 06/03 Q1024,1,0,0,9999,0,0,0,
2026-04-08 03:50:00,METAR LSGS 080350Z AUTO 09003KT CAVOK 07/03 Q1024,1,0,0,9999,0,0,0,
2026-04-08 03:20:00,METAR LSGS 080320Z AUTO VRB02KT CAVOK 07/03 Q1024,1,0,0,9999,0,0,0,
2026-04-08 02:50:00,METAR LSGS 080250Z AUTO 06004KT CAVOK 08/03 Q1024,1,0,0,9999,0,0,0,
2026-04-08 02:20:00,METAR LSGS 080220Z AUTO 08002KT CAVOK 08/04 Q1024,1,0,0,9999,0,0,0,
2026-04-08 01:50:00,METAR LSGS 080150Z AUTO VRB01KT CAVOK 07/04 Q1024,1,0,0,9999,0,0,0,
2026-04-08 01:20:00,METAR LSGS 080120Z AUTO 07005KT CAVOK 09/04 Q1024,1,0,0,9999,0,0,0,
2026-04-08 00:50:00,METAR LSGS 080050Z AUTO 07002KT CAVOK 09/03 Q1024,1,0,0,9999,0,0,0,
2026-04-08 00:20:00,METAR LSGS 080020Z AUTO 10003KT CAVOK 09/04 Q1024,1,0,0,9999,0,0,0,
2026-04-07 23:50:00,METAR LSGS 072350Z AUTO VRB02KT CAVOK 09/04 Q1024,1,0,0,9999,0,0,0,
2026-04-07 23:20:00,METAR LSGS 072320Z AUTO 09002KT CAVOK 10/05 Q1024,1,0,0,9999,0,0,0,
2026-04-07 22:50:00,METAR LSGS 072250Z AUTO VRB01KT CAVOK 10/04 Q1023,1,0,0,9999,0,0,0,
2026-04-07 22:20:00,METAR LSGS 072220Z AUTO 09004KT CAVOK 10/04 Q1023,1,0,0,9999,0,0,0,
2026-04-07 21:50:00,METAR LSGS 072150Z AUTO 07004KT CAVOK 11/05 Q1023,1,0,0,9999,0,0,0,
2026-04-07 21:20:00,METAR LSGS 072120Z AUTO VRB01KT CAVOK 11/05 Q1023,1,0,0,9999,0,0,0,
2026-04-07 20:50:00,METAR LSGS 072050Z AUTO VRB02KT CAVOK 14/04 Q1023,1,0,0,9999,0,0,0,
2026-04-07 20:20:00,METAR LSGS 072020Z AUTO VRB01KT CAVOK 14/04 Q1022,1,0,0,9999,0,0,0,
2026-04-07 19:50:00,METAR LSGS 071950Z AUTO VRB02KT CAVOK 16/03 Q1022,1,0,0,9999,0,0,0,
2026-04-07 19:20:00,METAR LSGS 071920Z AUTO VRB01KT CAVOK 17/03 Q1022,1,0,0,9999,0,0,0,
2026-04-07 18:50:00,METAR LSGS 071850Z AUTO 25005KT 210V280 CAVOK 19/02 Q1021,1,0,0,9999,0,0,0,
2026-04-07 18:20:00,METAR LSGS 071820Z AUTO 24009KT CAVOK 20/02 Q1021,1,0,0,9999,0,0,0,
2026-04-07 17:50:00,METAR LSGS 071750Z AUTO 27006KT CAVOK 20/03 Q1021,1,0,0,9999,0,0,0,
2026-04-07 17:20:00,METAR LSGS 071720Z 25013KT CAVOK 22/02 Q1020,1,0,0,9999,0,0,0,
2026-04-07 16:50:00,METAR LSGS 071650Z 25011KT CAVOK 23/03 Q1020,1,0,0,9999,0,0,0,
2026-04-07 16:20:00,METAR LSGS 071620Z AUTO 24011KT CAVOK 24/03 Q1020,1,0,0,9999,0,0,0,
2026-04-07 15:50:00,METAR LSGS 071550Z 25012KT CAVOK 24/05 Q1020,1,0,0,9999,0,0,0,
2026-04-07 15:20:00,METAR LSGS 071520Z 25012KT CAVOK 24/04 Q1020,1,0,0,9999,0,0,0,
2026-04-07 14:50:00,METAR LSGS 071450Z 25011KT CAVOK 25/06 Q1020,1,0,0,9999,0,0,0,
2026-04-07 14:20:00,METAR LSGS 071420Z 25010KT CAVOK 25/05 Q1020,1,0,0,9999,0,0,0,
2026-04-07 13:50:00,METAR LSGS 071350Z 26009KT CAVOK 24/06 Q1021,1,0,0,9999,0,0,0,
2026-04-07 13:20:00,METAR LSGS 071320Z 26010KT CAVOK 24/05 Q1021,1,0,0,9999,0,0,0,
2026-04-07 12:50:00,METAR LSGS 071250Z 25006KT 220V290 CAVOK 23/04 Q1022,1,0,0,9999,0,0,0,
2026-04-07 12:20:00,METAR LSGS 071220Z 26005KT CAVOK 22/04 Q1022,1,0,0,9999,0,0,0,
2026-04-07 11:50:00,METAR LSGS 071150Z 24003KT 190V340 CAVOK 22/04 Q1022,1,0,0,9999,0,0,0,
2026-04-07 11:20:00,METAR LSGS 071120Z VRB03KT CAVOK 21/03 Q1023,1,0,0,9999,0,0,0,
2026-04-07 10:50:00,METAR LSGS 071050Z VRB02KT CAVOK 20/04 Q1023,1,0,0,9999,0,0,0,
2026-04-07 10:20:00,METAR LSGS 071020Z VRB02KT CAVOK 19/03 Q1024,1,0,0,9999,0,0,0,
2026-04-07 09:50:00,METAR LSGS 070950Z VRB02KT CAVOK 18/02 Q1025,1,0,0,9999,0,0,0,
2026-04-07 09:20:00,METAR LSGS 070920Z VRB02KT CAVOK 17/02 Q1025,1,0,0,9999,0,0,0,
2026-04-07 08:50:00,METAR LSGS 070850Z VRB02KT CAVOK 16/03 Q1025,1,0,0,9999,0,0,0,
2026-04-07 08:20:00,METAR LSGS 070820Z 08004KT 040V120 CAVOK 14/04 Q1025,1,0,0,9999,0,0,0,
2026-04-07 07:50:00,METAR LSGS 070750Z 07004KT CAVOK 13/04 Q1026,1,0,0,9999,0,0,0,
2026-04-07 07:20:00,METAR LSGS 070720Z 08006KT CAVOK 12/05 Q1026,1,0,0,9999,0,0,0,
2026-04-07 06:50:00,METAR LSGS 070650Z 09005KT 060V120 CAVOK 10/04 Q1026,1,0,0,9999,0,0,0,
2026-04-07 06:20:00,METAR LSGS 070620Z 06004KT CAVOK 10/04 Q1026,1,0,0,9999,0,0,0,
2026-04-07 05:50:00,METAR LSGS 070550Z 09003KT CAVOK 08/03 Q1026,1,0,0,9999,0,0,0,
2026-04-07 05:20:00,METAR LSGS 070520Z 06003KT CAVOK 06/04 Q1026,1,0,0,9999,0,0,0,
2026-04-07 04:50:00,METAR LSGS 070450Z 06004KT CAVOK 07/04 Q1026,1,0,0,9999,0,0,0,
2026-04-07 04:20:00,METAR LSGS 070420Z AUTO 07005KT CAVOK 07/03 Q1026,1,0,0,9999,0,0,0,
2026-04-07 03:50:00,METAR LSGS 070350Z AUTO 05005KT CAVOK 07/04 Q1026,1,0,0,9999,0,0,0,
2026-04-07 03:20:00,METAR LSGS 070320Z AUTO 06004KT 050V130 CAVOK 07/03 Q1026,1,0,0,9999,0,0,0,
2026-04-07 02:50:00,METAR LSGS 070250Z AUTO 09003KT CAVOK 08/05 Q1026,1,0,0,9999,0,0,0,
2026-04-07 02:20:00,METAR LSGS 070220Z AUTO 07003KT CAVOK 07/04 Q1026,1,0,0,9999,0,0,0,
2026-04-07 01:50:00,METAR LSGS 070150Z AUTO 08003KT 060V130 CAVOK 08/04 Q1025,1,0,0,9999,0,0,0,
2026-04-07 01:20:00,METAR LSGS 070120Z AUTO 08004KT CAVOK 07/04 Q1025,1,0,0,9999,0,0,0,
2026-04-07 00:50:00,METAR LSGS 070050Z AUTO 14002KT CAVOK 09/05 Q1025,1,0,0,9999,0,0,0,
2026-04-07 00:20:00,METAR LSGS 070020Z AUTO 08002KT CAVOK 09/05 Q1026,1,0,0,9999,0,0,0,
2026-04-06 23:50:00,METAR LSGS 062350Z AUTO 10003KT CAVOK 09/06 Q1026,1,0,0,9999,0,0,0,
2026-04-06 23:20:00,METAR LSGS 062320Z AUTO 00000KT CAVOK 10/06 Q1025,1,0,0,9999,0,0,0,
2026-04-06 22:50:00,METAR LSGS 062250Z AUTO VRB01KT CAVOK 10/06 Q1025,1,0,0,9999,0,0,0,
2026-04-06 22:20:00,METAR LSGS 062220Z AUTO 08004KT CAVOK 12/05 Q1025,1,0,0,9999,0,0,0,
2026-04-06 21:50:00,METAR LSGS 062150Z AUTO 09003KT CAVOK 11/06 Q1025,1,0,0,9999,0,0,0,
2026-04-06 21:20:00,METAR LSGS 062120Z AUTO 09003KT CAVOK 13/06 Q1025,1,0,0,9999,0,0,0,
2026-04-06 20:50:00,METAR LSGS 062050Z AUTO VRB02KT CAVOK 13/06 Q1025,1,0,0,9999,0,0,0,
2026-04-06 20:20:00,METAR LSGS 062020Z AUTO VRB02KT CAVOK 14/06 Q1024,1,0,0,9999,0,0,0,
2026-04-06 19:50:00,METAR LSGS 061950Z AUTO VRB02KT CAVOK 16/05 Q1024,1,0,0,9999,0,0,0,
2026-04-06 19:20:00,METAR LSGS 061920Z AUTO VRB01KT CAVOK 17/05 Q1024,1,0,0,9999,0,0,0,
2026-04-06 18:50:00,METAR LSGS 061850Z AUTO VRB03KT 9999 NCD 18/05 Q1023,0,3,0,10000,0,0,0,
2026-04-06 18:20:00,METAR LSGS 061820Z AUTO 27006KT 9999 NSC 19/05 Q1023,0,6,0,10000,0,0,0,
2026-04-06 17:50:00,METAR LSGS 061750Z 28007KT 9999 FEW110 20/06 Q1023,0,7,0,10000,0,0,0,
2026-04-06 17:20:00,METAR LSGS 061720Z AUTO 27007KT CAVOK 20/07 Q1023,1,0,0,9999,0,0,0,
2026-04-06 16:50:00,METAR LSGS 061650Z 25008KT 9999 FEW110 21/07 Q1022,0,8,0,10000,0,0,0,
2026-04-06 16:20:00,METAR LSGS 061620Z 24008KT 210V270 9999 FEW100 22/07 Q1022,0,8,0,10000,0,0,0,
2026-04-06 15:50:00,METAR LSGS 061550Z 25009KT 9999 FEW110 23/07 Q1022,0,9,0,10000,0,0,0,
2026-04-06 14:50:00,METAR LSGS 061450Z 26006KT 210V310 9999 FEW100 24/08 Q1023,0,6,0,10000,0,0,0,
2026-04-06 14:20:00,METAR LSGS 061420Z 25006KT 220V330 9999 FEW100 24/08 Q1023,0,6,0,10000,0,0,0,
2026-04-06 13:50:00,METAR LSGS 061350Z 25009KT 9999 FEW100 24/09 Q1023,0,9,0,10000,0,0,0,
2026-04-06 13:20:00,METAR LSGS 061320Z 25007KT 210V270 9999 FEW100 23/08 Q1023,0,7,0,10000,0,0,0,
2026-04-06 12:50:00,METAR LSGS 061250Z 26006KT 180V310 9999 SCT100 22/08 Q1024,0,6,0,10000,0,0,0,
2026-04-06 12:20:00,METAR LSGS 061220Z 22005KT 170V260 9999 FEW085 22/10 Q1024,0,5,0,10000,0,0,0,
2026-04-06 11:50:00,METAR LSGS 061150Z 21006KT 150V250 9999 FEW075 20/08 Q1025,0,6,0,10000,0,0,0,
2026-04-06 11:20:00,METAR LSGS 061120Z 24005KT 150V280 9999 FEW075 20/09 Q1025,0,5,0,10000,0,0,0,
2026-04-06 10:50:00,METAR LSGS 061050Z 22004KT 170V270 CAVOK 18/07 Q1026,1,0,0,9999,0,0,0,
2026-04-06 10:20:00,METAR LSGS 061020Z 23003KT 150V300 CAVOK 18/07 Q1026,1,0,0,9999,0,0,0,
2026-04-06 09:50:00,METAR LSGS 060950Z 21004KT 150V260 9999 FEW080 17/08 Q1026,0,4,0,10000,0,0,0,
2026-04-06 09:20:00,METAR LSGS 060920Z VRB02KT 9999 FEW080 16/07 Q1027,0,2,0,10000,0,0,0,
2026-04-06 08:50:00,METAR LSGS 060850Z VRB01KT 9999 FEW080 15/08 Q1027,0,1,0,10000,0,0,0,
2026-04-06 08:20:00,METAR LSGS 060820Z VRB03KT 9999 FEW080 14/07 Q1027,0,3,0,10000,0,0,0,
2026-04-06 07:50:00,METAR LSGS 060750Z 08004KT 030V130 9999 FEW080 13/08 Q1027,0,4,0,10000,0,0,0,
2026-04-06 07:20:00,METAR LSGS 060720Z 07006KT CAVOK 12/08 Q1027,1,0,0,9999,0,0,0,
2026-04-06 06:50:00,METAR LSGS 060650Z 09005KT 9999 FEW065 11/07 Q1027,0,5,0,10000,0,0,0,
2026-04-06 06:20:00,METAR LSGS 060620Z 07003KT 9999 FEW065 10/07 Q1027,0,3,0,10000,0,0,0,
2026-04-06 05:50:00,METAR LSGS 060550Z VRB03KT 9999 FEW065 09/07 Q1027,0,3,0,10000,0,0,0,
2026-04-06 05:20:00,METAR LSGS 060520Z 05004KT 040V100 9999 SCT090 09/07 Q1027,0,4,0,10000,0,0,0,
2026-04-06 04:50:00,METAR LSGS 060450Z 07004KT 9999 SCT090 09/08 Q1026,0,4,0,10000,0,0,0,
2026-04-06 04:20:00,METAR LSGS 060420Z AUTO 06004KT 9999 FEW120 09/08 Q1026,0,4,0,10000,0,0,0,
2026-04-06 03:50:00,METAR LSGS 060350Z AUTO 02004KT 360V110 CAVOK 09/08 Q1026,1,0,0,9999,0,0,0,
2026-04-06 03:20:00,METAR LSGS 060320Z AUTO VRB02KT 9999 NCD 10/08 Q1026,0,2,0,10000,0,0,0,
2026-04-06 02:50:00,METAR LSGS 060250Z AUTO VRB03KT 9999 FEW085 OVC150 11/08 Q1026 REDZ,0,3,0,10000,0,0,0,DZ
2026-04-06 02:20:00,METAR LSGS 060220Z AUTO 03004KT 350V140 9999 -RA SCT080 BKN090 12/08 Q1026,0,4,0,10000,0,0,0,-RA
2026-04-06 01:50:00,METAR LSGS 060150Z AUTO 02005KT 360V120 9999 FEW080 SCT095 BKN130 12/08 Q1026,0,5,0,10000,0,0,0,
2026-04-06 01:20:00,METAR LSGS 060120Z AUTO 07004KT 010V140 9999 -RA SCT085 BKN095 11/09 Q1026,0,4,0,10000,0,0,0,-RA
2026-04-06 00:50:00,METAR LSGS 060050Z AUTO 09004KT 9999 FEW090 SCT110 11/09 Q1027,0,4,0,10000,0,0,0,
2026-04-06 00:20:00,METAR LSGS 060020Z AUTO VRB02KT 9999 SCT090 SCT100 12/10 Q1027,0,2,0,10000,0,0,0,
2026-04-05 23:50:00,METAR LSGS 052350Z AUTO 04003KT 360V070 9999 SCT090 SCT100 12/09 Q1027,0,3,0,10000,0,0,0,
2026-04-05 23:20:00,METAR LSGS 052320Z AUTO 06003KT 340V120 9999 FEW070 SCT100 12/10 Q1027,0,3,0,10000,0,0,0,
2026-04-05 22:50:00,METAR LSGS 052250Z AUTO VRB02KT 9999 -RA SCT095 BKN100 13/09 Q1026,0,2,0,10000,0,0,0,-RA
2026-04-05 22:20:00,METAR LSGS 052220Z AUTO VRB03KT 9999 SCT090 SCT100 12/09 Q1026,0,3,0,10000,0,0,0,
2026-04-05 21:50:00,METAR LSGS 052150Z AUTO VRB02KT 9999 -RA SCT090 BKN100 14/09 Q1026,0,2,0,10000,0,0,0,-RA
2026-04-05 21:20:00,METAR LSGS 052120Z AUTO VRB02KT 9999 FEW095 BKN130 14/08 Q1026,0,2,0,10000,0,0,0,
2026-04-05 20:50:00,METAR LSGS 052050Z AUTO 09004KT 050V180 9999 FEW120 13/09 Q1026,0,4,0,10000,0,0,0,
2026-04-05 20:20:00,METAR LSGS 052020Z AUTO VRB02KT 9999 FEW130 BKN140 BKN150 16/08 Q1026 RERA,0,2,0,10000,0,0,0,RA
2026-04-05 19:50:00,METAR LSGS 051950Z AUTO 29015KT 260V340 9999 -RA SCT065 BKN075 18/07 Q1026 REDZ,0,15,0,10000,0,0,0,"-RA,DZ"
2026-04-05 19:20:00,METAR LSGS 051920Z AUTO VRB01KT 9999 FEW100 SCT110 18/04 Q1023,0,1,0,10000,0,0,0,
2026-04-05 18:50:00,METAR LSGS 051850Z AUTO VRB02KT 9999 BKN120 20/03 Q1023,0,2,0,10000,0,0,0,
2026-04-05 18:20:00,METAR LSGS 051820Z AUTO 27006KT CAVOK 19/04 Q1022,1,0,0,9999,0,0,0,
2026-04-05 17:50:00,METAR LSGS 051750Z 25007KT 9999 FEW065 21/03 Q1022,0,7,0,10000,0,0,0,
2026-04-05 17:20:00,METAR LSGS 051720Z 26008KT 9999 FEW065 21/06 Q1022,0,8,0,10000,0,0,0,
2026-04-05 16:50:00,METAR LSGS 051650Z 25011KT 9999 FEW070 21/07 Q1022,0,11,0,10000,0,0,0,
2026-04-05 16:20:00,METAR LSGS 051620Z 25011KT 9999 SCT120 22/06 Q1022,0,11,0,10000,0,0,0,
2026-04-05 15:50:00,METAR LSGS 051550Z 25010KT 9999 SCT110 23/04 Q1021,0,10,0,10000,0,0,0,
2026-04-05 15:20:00,METAR LSGS 051520Z 25013KT 9999 SCT120 23/04 Q1021,0,13,0,10000,0,0,0,
2026-04-05 14:50:00,METAR LSGS 051450Z 24012KT 9999 FEW100 SCT120 25/05 Q1021,0,12,0,10000,0,0,0,
2026-04-05 12:50:00,METAR LSGS 051250Z 25006KT 220V280 9999 FEW080 22/05 Q1022,0,6,0,10000,0,0,0,
2026-04-05 12:20:00,METAR LSGS 051220Z 27004KT 220V310 9999 FEW080 22/02 Q1023,0,4,0,10000,0,0,0,
2026-04-05 11:50:00,METAR LSGS 051150Z VRB02KT 9999 FEW070 21/04 Q1023,0,2,0,10000,0,0,0,
2026-04-05 11:20:00,METAR LSGS 051120Z VRB01KT CAVOK 19/03 Q1024,1,0,0,9999,0,0,0,
2026-04-05 10:50:00,METAR LSGS 051050Z VRB03KT CAVOK 19/03 Q1024,1,0,0,9999,0,0,0,
2026-04-05 10:20:00,METAR LSGS 051020Z VRB03KT CAVOK 18/03 Q1025,1,0,0,9999,0,0,0,
2026-04-05 09:50:00,METAR LSGS 050950Z VRB03KT CAVOK 16/03 Q1025,1,0,0,9999,0,0,0,
2026-04-05 09:20:00,METAR LSGS 050920Z 08004KT 040V100 CAVOK 15/04 Q1025,1,0,0,9999,0,0,0,
2026-04-05 08:50:00,METAR LSGS 050850Z 06005KT 030V110 CAVOK 14/03 Q1026,1,0,0,9999,0,0,0,
2026-04-05 08:20:00,METAR LSGS 050820Z 07004KT CAVOK 13/04 Q1026,1,0,0,9999,0,0,0,
2026-04-05 07:50:00,METAR LSGS 050750Z 07005KT CAVOK 11/04 Q1026,1,0,0,9999,0,0,0,
2026-04-05 07:20:00,METAR LSGS 050720Z 06004KT CAVOK 10/04 Q1026,1,0,0,9999,0,0,0,
2026-04-05 06:50:00,METAR LSGS 050650Z 05005KT CAVOK 09/04 Q1026,1,0,0,9999,0,0,0,
2026-04-05 06:20:00,METAR LSGS 050620Z VRB02KT CAVOK 08/03 Q1026,1,0,0,9999,0,0,0,
2026-04-05 05:50:00,METAR LSGS 050550Z 08006KT CAVOK 06/03 Q1026,1,0,0,9999,0,0,0,
2026-04-05 05:20:00,METAR LSGS 050520Z 07004KT CAVOK 07/03 Q1026,1,0,0,9999,0,0,0,
2026-04-05 04:50:00,METAR LSGS 050450Z 07004KT CAVOK 05/02 Q1026,1,0,0,9999,0,0,0,
2026-04-05 04:20:00,METAR LSGS 050420Z AUTO 06005KT CAVOK 07/03 Q1025,1,0,0,9999,0,0,0,
2026-04-05 03:50:00,METAR LSGS 050350Z AUTO 06004KT CAVOK 06/03 Q1025,1,0,0,9999,0,0,0,
2026-04-05 03:20:00,METAR LSGS 050320Z AUTO 07003KT 040V110 CAVOK 06/04 Q1025,1,0,0,9999,0,0,0,
2026-04-05 02:50:00,METAR LSGS 050250Z AUTO VRB01KT CAVOK 07/03 Q1026,1,0,0,9999,0,0,0,
2026-04-05 02:20:00,METAR LSGS 050220Z AUTO 08005KT 9999 NCD 06/03 Q1026,0,5,0,10000,0,0,0,
2026-04-05 01:50:00,METAR LSGS 050150Z AUTO 08004KT 9999 NSC 07/03 Q1025,0,4,0,10000,0,0,0,
2026-04-05 01:20:00,METAR LSGS 050120Z AUTO 06006KT CAVOK 07/04 Q1025,1,0,0,9999,0,0,0,
2026-04-05 00:50:00,METAR LSGS 050050Z AUTO 08003KT CAVOK 07/04 Q1025,1,0,0,9999,0,0,0,
2026-04-05 00:20:00,METAR LSGS 050020Z AUTO VRB02KT 9999 NSC 07/04 Q1025,0,2,0,10000,0,0,0,
2026-04-04 23:50:00,METAR LSGS 042350Z AUTO VRB01KT CAVOK 08/05 Q1025,1,0,0,9999,0,0,0,
2026-04-04 23:20:00,METAR LSGS 042320Z AUTO 07002KT CAVOK 08/05 Q1025,1,0,0,9999,0,0,0,
2026-04-04 22:50:00,METAR LSGS 042250Z AUTO VRB01KT CAVOK 09/04 Q1025,1,0,0,9999,0,0,0,
2026-04-04 22:20:00,METAR LSGS 042220Z AUTO VRB02KT CAVOK 09/04 Q1025,1,0,0,9999,0,0,0,
2026-04-04 21:50:00,METAR LSGS 042150Z AUTO VRB01KT CAVOK 09/04 Q1025,1,0,0,9999,0,0,0,
2026-04-04 21:20:00,METAR LSGS 042120Z AUTO VRB01KT CAVOK 10/05 Q1024,1,0,0,9999,0,0,0,
2026-04-04 20:50:00,METAR LSGS 042050Z AUTO 09004KT CAVOK 11/05 Q1024,1,0,0,9999,0,0,0,
2026-04-04 20:20:00,METAR LSGS 042020Z AUTO 09002KT CAVOK 11/05 Q1024,1,0,0,9999,0,0,0,
2026-04-04 19:50:00,METAR LSGS 041950Z AUTO VRB03KT CAVOK 13/05 Q1023,1,0,0,9999,0,0,0,
2026-04-04 19:20:00,METAR LSGS 041920Z AUTO VRB01KT CAVOK 14/05 Q1023,1,0,0,9999,0,0,0,
2026-04-04 18:50:00,METAR LSGS 041850Z AUTO VRB02KT CAVOK 15/04 Q1023,1,0,0,9999,0,0,0,
2026-04-04 18:20:00,METAR LSGS 041820Z AUTO 28004KT CAVOK 16/04 Q1023,1,0,0,9999,0,0,0,
2026-04-04 17:50:00,METAR LSGS 041750Z 26009KT CAVOK 17/05 Q1022,1,0,0,9999,0,0,0,
2026-04-04 17:20:00,METAR LSGS 041720Z 27011KT CAVOK 18/05 Q1022,1,0,0,9999,0,0,0,
2026-04-04 16:50:00,METAR LSGS 041650Z 26014KT CAVOK 19/05 Q1022,1,0,0,9999,0,0,0,
2026-04-04 16:20:00,METAR LSGS 041620Z 25015KT CAVOK 19/05 Q1022,1,0,0,9999,0,0,0,
2026-04-04 15:50:00,METAR LSGS 041550Z 25014KT CAVOK 20/05 Q1022,1,0,0,9999,0,0,0,
2026-04-04 15:20:00,METAR LSGS 041520Z 25013KT CAVOK 20/05 Q1022,1,0,0,9999,0,0,0,
2026-04-04 14:50:00,METAR LSGS 041450Z 26011KT CAVOK 20/05 Q1022,1,0,0,9999,0,0,0,
2026-04-04 14:20:00,METAR LSGS 041420Z 25007KT 220V300 CAVOK 20/06 Q1022,1,0,0,9999,0,0,0,
2026-04-04 13:50:00,METAR LSGS 041350Z 24006KT 200V280 CAVOK 20/05 Q1022,1,0,0,9999,0,0,0,
2026-04-04 13:20:00,METAR LSGS 041320Z 26004KT 190V310 CAVOK 19/04 Q1023,1,0,0,9999,0,0,0,
2026-04-04 12:50:00,METAR LSGS 041250Z VRB02KT CAVOK 19/04 Q1023,1,0,0,9999,0,0,0,
2026-04-04 12:20:00,METAR LSGS 041220Z VRB04KT CAVOK 18/02 Q1024,1,0,0,9999,0,0,0,
2026-04-04 11:50:00,METAR LSGS 041150Z VRB02KT CAVOK 17/02 Q1024,1,0,0,9999,0,0,0,
2026-04-04 11:20:00,METAR LSGS 041120Z VRB02KT CAVOK 16/01 Q1024,1,0,0,9999,0,0,0,
2026-04-04 10:50:00,METAR LSGS 041050Z VRB02KT CAVOK 16/02 Q1025,1,0,0,9999,0,0,0,
2026-04-04 10:20:00,METAR LSGS 041020Z VRB02KT CAVOK 15/01 Q1025,1,0,0,9999,0,0,0,
2026-04-04 09:50:00,METAR LSGS 040950Z VRB02KT CAVOK 15/03 Q1026,1,0,0,9999,0,0,0,
2026-04-04 09:20:00,METAR LSGS 040920Z VRB03KT 9999 NSC 14/01 Q1026,0,3,0,10000,0,0,0,
2026-04-04 08:50:00,METAR LSGS 040850Z VRB03KT 9999 FEW080 12/01 Q1026,0,3,0,10000,0,0,0,
2026-04-04 08:20:00,METAR LSGS 040820Z 07004KT 030V110 9999 FEW075 11/01 Q1026,0,4,0,10000,0,0,0,
2026-04-04 07:50:00,METAR LSGS 040750Z 07006KT 9999 SCT075 10/01 Q1026,0,6,0,10000,0,0,0,
2026-04-04 07:20:00,METAR LSGS 040720Z 08004KT 050V130 9999 BKN075 10/01 Q1026,0,4,0,10000,0,0,0,
2026-04-04 06:50:00,METAR LSGS 040650Z 04004KT 9999 BKN070 09/02 Q1026,0,4,0,10000,0,0,0,
2026-04-04 06:20:00,METAR LSGS 040620Z 08004KT 9999 BKN075 09/02 Q1026,0,4,0,10000,0,0,0,
2026-04-04 05:50:00,METAR LSGS 040550Z VRB02KT 9999 BKN075 08/02 Q1025,0,2,0,10000,0,0,0,
2026-04-04 05:20:00,METAR LSGS 040520Z 05003KT 9999 SCT075 BKN085 08/01 Q1025,0,3,0,10000,0,0,0,
2026-04-04 04:50:00,METAR LSGS 040450Z 10003KT 9999 BKN075 09/01 Q1025,0,3,0,10000,0,0,0,
2026-04-04 04:20:00,METAR LSGS 040420Z AUTO 08003KT 050V130 9999 SCT075 BKN085 09/01 Q1024,0,3,0,10000,0,0,0,
2026-04-04 03:50:00,METAR LSGS 040350Z AUTO 08004KT 9999 OVC075 09/02 Q1024,0,4,0,10000,0,0,0,
2026-04-04 03:20:00,METAR LSGS 040320Z AUTO 06006KT 9999 BKN080 09/01 Q1024,0,6,0,10000,0,0,0,
2026-04-04 02:50:00,METAR LSGS 040250Z AUTO 04004KT 9999 SCT080 BKN100 09/01 Q1024,0,4,0,10000,0,0,0,
2026-04-04 02:20:00,METAR LSGS 040220Z AUTO VRB02KT 9999 OVC085 09/02 Q1024,0,2,0,10000,0,0,0,
2026-04-04 01:50:00,METAR LSGS 040150Z AUTO VRB01KT 9999 OVC100 09/02 Q1024,0,1,0,10000,0,0,0,
2026-04-04 01:20:00,METAR LSGS 040120Z AUTO VRB01KT 9999 OVC100 09/01 Q1024,0,1,0,10000,0,0,0,
2026-04-04 00:50:00,METAR LSGS 040050Z AUTO 07003KT 9999 SCT080 BKN100 10/01 Q1023,0,3,0,10000,0,0,0,
2026-04-04 00:20:00,METAR LSGS 040020Z AUTO VRB02KT 9999 BKN090 09/01 Q1023,0,2,0,10000,0,0,0,
2026-04-03 23:50:00,METAR LSGS 032350Z AUTO 11003KT 9999 FEW080 OVC110 09/01 Q1023,0,3,0,10000,0,0,0,
2026-04-03 23:20:00,METAR LSGS 032320Z AUTO VRB02KT 9999 FEW075 SCT090 OVC110 09/01 Q1023,0,2,0,10000,0,0,0,
2026-04-03 22:50:00,METAR LSGS 032250Z AUTO VRB03KT 9999 SCT080 OVC110 10/00 Q1023,0,3,0,10000,0,0,0,
2026-04-03 22:20:00,METAR LSGS 032220Z AUTO VRB02KT 9999 BKN080 BKN110 09/01 Q1023,0,2,0,10000,0,0,0,
2026-04-03 21:50:00,METAR LSGS 032150Z AUTO VRB03KT 9999 SCT085 11/M00 Q1022,0,3,0,10000,0,0,0,
2026-04-03 21:20:00,METAR LSGS 032120Z AUTO 29003KT 250V330 9999 BKN085 11/M00 Q1022,0,3,0,10000,0,0,0,
2026-04-03 20:50:00,METAR LSGS 032050Z AUTO 31005KT 260V340 9999 SCT085 OVC100 12/M00 Q1022,0,5,0,10000,0,0,0,
2026-04-03 20:20:00,METAR LSGS 032020Z AUTO 26004KT 220V320 9999 FEW090 OVC110 12/M00 Q1022,0,4,0,10000,0,0,0,
2026-04-03 19:50:00,METAR LSGS 031950Z AUTO 24007KT 9999 BKN095 BKN110 12/M01 Q1022,0,7,0,10000,0,0,0,
2026-04-03 19:20:00,METAR LSGS 031920Z AUTO 23006KT 180V270 9999 BKN110 12/M01 Q1021,0,6,0,10000,0,0,0,
2026-04-03 18:50:00,METAR LSGS 031850Z AUTO 23004KT 160V280 9999 OVC110 12/M01 Q1021,0,4,0,10000,0,0,0,
2026-04-03 18:20:00,METAR LSGS 031820Z AUTO 24007KT 200V260 CAVOK 12/M01 Q1020,1,0,0,9999,0,0,0,
2026-04-03 17:50:00,METAR LSGS 031750Z 24007KT 200V270 CAVOK 13/M01 Q1019,1,0,0,9999,0,0,0,
2026-04-03 17:20:00,METAR LSGS 031720Z 24013KT CAVOK 14/M00 Q1019,1,0,0,9999,0,0,0,
2026-04-03 16:50:00,METAR LSGS 031650Z 24012KT CAVOK 15/M00 Q1019,1,0,0,9999,0,0,0,
2026-04-03 16:20:00,METAR LSGS 031620Z 24013KT CAVOK 16/M00 Q1018,1,0,0,9999,0,0,0,
2026-04-03 15:50:00,METAR LSGS 031550Z 25013KT CAVOK 16/M00 Q1018,1,0,0,9999,0,0,0,
2026-04-03 15:20:00,METAR LSGS 031520Z 25013KT 220V290 CAVOK 16/M01 Q1018,1,0,0,9999,0,0,0,
2026-04-03 14:50:00,METAR LSGS 031450Z 24011KT CAVOK 16/M02 Q1018,1,0,0,9999,0,0,0,
2026-04-03 14:20:00,METAR LSGS 031420Z 24012KT CAVOK 16/M02 Q1018,1,0,0,9999,0,0,0,
2026-04-03 13:50:00,METAR LSGS 031350Z 25012KT CAVOK 16/M02 Q1018,1,0,0,9999,0,0,0,
2026-04-03 13:20:00,METAR LSGS 031320Z 25009KT 210V290 CAVOK 15/M01 Q1019,1,0,0,9999,0,0,0,
2026-04-03 12:50:00,METAR LSGS 031250Z 25010KT 220V280 CAVOK 16/00 Q1019,1,0,0,9999,0,0,0,
2026-04-03 12:20:00,METAR LSGS 031220Z 25010KT CAVOK 15/00 Q1019,1,0,0,9999,0,0,0,
2026-04-03 11:50:00,METAR LSGS 031150Z 26006KT 200V290 CAVOK 14/M01 Q1020,1,0,0,9999,0,0,0,
2026-04-03 11:20:00,METAR LSGS 031120Z 25005KT 180V290 CAVOK 12/M01 Q1020,1,0,0,9999,0,0,0,
2026-04-03 10:50:00,METAR LSGS 031050Z VRB03KT CAVOK 12/M02 Q1020,1,0,0,9999,0,0,0,
2026-04-03 10:20:00,METAR LSGS 031020Z 23004KT 150V280 CAVOK 11/M02 Q1020,1,0,0,9999,0,0,0,
2026-04-03 09:50:00,METAR LSGS 030950Z VRB02KT 9999 NSC 10/M02 Q1021,0,2,0,10000,0,0,0,
2026-04-03 09:20:00,METAR LSGS 030920Z VRB02KT 9999 NSC 09/M02 Q1021,0,2,0,10000,0,0,0,
2026-04-03 08:50:00,METAR LSGS 030850Z VRB02KT CAVOK 08/M02 Q1021,1,0,0,9999,0,0,0,
2026-04-03 08:20:00,METAR LSGS 030820Z VRB03KT CAVOK 07/M02 Q1021,1,0,0,9999,0,0,0,
2026-04-03 07:50:00,METAR LSGS 030750Z VRB03KT CAVOK 07/M01 Q1021,1,0,0,9999,0,0,0,
2026-04-03 07:20:00,METAR LSGS 030720Z 11003KT 050V170 CAVOK 05/M02 Q1021,1,0,0,9999,0,0,0,
2026-04-03 06:50:00,METAR LSGS 030650Z VRB03KT CAVOK 04/M01 Q1021,1,0,0,9999,0,0,0,
2026-04-03 06:20:00,METAR LSGS 030620Z VRB02KT CAVOK 02/M02 Q1021,1,0,0,9999,0,0,0,
2026-04-03 05:50:00,METAR LSGS 030550Z 02004KT 360V090 CAVOK 01/M02 Q1020,1,0,0,9999,0,0,0,
2026-04-03 05:20:00,METAR LSGS 030520Z 02003KT 360V070 CAVOK 01/M02 Q1020,1,0,0,9999,0,0,0,
2026-04-03 04:50:00,METAR LSGS 030450Z 09005KT CAVOK 01/M03 Q1020,1,0,0,9999,0,0,0,
2026-04-03 04:20:00,METAR LSGS 030420Z AUTO 07004KT CAVOK 00/M03 Q1020,1,0,0,9999,0,0,0,
2026-04-03 03:50:00,METAR LSGS 030350Z AUTO 04004KT 350V150 CAVOK 02/M03 Q1019,1,0,0,9999,0,0,0,
2026-04-03 03:20:00,METAR LSGS 030320Z AUTO VRB01KT CAVOK 01/M02 Q1019,1,0,0,9999,0,0,0,
2026-04-03 02:50:00,METAR LSGS 030250Z AUTO VRB02KT CAVOK 01/M02 Q1019,1,0,0,9999,0,0,0,
2026-04-03 02:20:00,METAR LSGS 030220Z AUTO VRB01KT CAVOK 02/M02 Q1019,1,0,0,9999,0,0,0,
2026-04-03 01:50:00,METAR LSGS 030150Z AUTO VRB01KT CAVOK 01/M02 Q1018,1,0,0,9999,0,0,0,
2026-04-03 01:20:00,METAR LSGS 030120Z AUTO 08003KT CAVOK 02/M02 Q1018,1,0,0,9999,0,0,0,
2026-04-03 00:50:00,METAR LSGS 030050Z AUTO VRB01KT CAVOK 02/M02 Q1018,1,0,0,9999,0,0,0,
2026-04-03 00:20:00,METAR LSGS 030020Z AUTO VRB02KT CAVOK 03/M02 Q1017,1,0,0,9999,0,0,0,
2026-04-02 23:50:00,METAR LSGS 022350Z AUTO VRB02KT CAVOK 03/M02 Q1017,1,0,0,9999,0,0,0,
2026-04-02 23:20:00,METAR LSGS 022320Z AUTO 10003KT 080V140 CAVOK 04/M02 Q1017,1,0,0,9999,0,0,0,
2026-04-02 22:50:00,METAR LSGS 022250Z AUTO 06004KT CAVOK 04/M02 Q1017,1,0,0,9999,0,0,0,
2026-04-02 22:20:00,METAR LSGS 022220Z AUTO 03003KT CAVOK 05/M02 Q1016,1,0,0,9999,0,0,0,
2026-04-02 21:50:00,METAR LSGS 022150Z AUTO VRB02KT CAVOK 05/M02 Q1016,1,0,0,9999,0,0,0,
2026-04-02 21:20:00,METAR LSGS 022120Z AUTO VRB02KT CAVOK 06/M01 Q1016,1,0,0,9999,0,0,0,
2026-04-02 20:50:00,METAR LSGS 022050Z AUTO VRB02KT CAVOK 07/M02 Q1016,1,0,0,9999,0,0,0,
2026-04-02 20:20:00,METAR LSGS 022020Z AUTO VRB03KT CAVOK 08/M01 Q1016,1,0,0,9999,0,0,0,
2026-04-02 19:50:00,METAR LSGS 021950Z AUTO 29007KT 240V310 CAVOK 08/M01 Q1016,1,0,0,9999,0,0,0,
2026-04-02 19:20:00,METAR LSGS 021920Z AUTO 28008KT 9999 NCD 08/M00 Q1015,0,8,0,10000,0,0,0,
2026-04-02 18:50:00,METAR LSGS 021850Z AUTO 24006KT 200V270 9999 SCT095 09/M00 Q1015,0,6,0,10000,0,0,0,
2026-04-02 18:20:00,METAR LSGS 021820Z AUTO 26010KT CAVOK 10/M00 Q1014,1,0,0,9999,0,0,0,
2026-04-02 17:50:00,METAR LSGS 021750Z AUTO 23009KT 190V250 9999 NCD 10/M01 Q1014,0,9,0,10000,0,0,0,
2026-04-02 17:20:00,METAR LSGS 021720Z 25013G24KT 210V290 9999 FEW080 11/M01 Q1013,0,13,1,10000,0,0,0,
2026-04-02 16:50:00,METAR LSGS 021650Z 24015KT 9999 FEW080 12/M01 Q1012,0,15,0,10000,0,0,0,
2026-04-02 16:20:00,METAR LSGS 021620Z 24014KT 9999 FEW080 12/00 Q1012,0,14,0,10000,0,0,0,
2026-04-02 15:50:00,METAR LSGS 021550Z 23012G24KT 190V260 9999 FEW080 13/M00 Q1011,0,12,1,10000,0,0,0,
2026-04-02 15:20:00,METAR LSGS 021520Z 24017KT 9999 FEW080 13/M00 Q1011,0,17,0,10000,0,0,0,
2026-04-02 14:50:00,METAR LSGS 021450Z 25016KT 9999 FEW080 13/00 Q1011,0,16,0,10000,0,0,0,
2026-04-02 14:20:00,METAR LSGS 021420Z 25017KT 9999 FEW080 13/M01 Q1011,0,17,0,10000,0,0,0,
2026-04-02 13:50:00,METAR LSGS 021350Z 25016KT 9999 FEW075 12/M01 Q1012,0,16,0,10000,0,0,0,
2026-04-02 13:20:00,METAR LSGS 021320Z 25015KT CAVOK 12/M02 Q1012,1,0,0,9999,0,0,0,
2026-04-02 12:50:00,METAR LSGS 021250Z 25012KT CAVOK 11/M02 Q1012,1,0,0,9999,0,0,0,
2026-04-02 12:20:00,METAR LSGS 021220Z 24012KT CAVOK 11/M02 Q1013,1,0,0,9999,0,0,0,
2026-04-02 11:50:00,METAR LSGS 021150Z 25012KT CAVOK 10/M04 Q1013,1,0,0,9999,0,0,0,
2026-04-02 11:20:00,METAR LSGS 021120Z 26010KT 220V290 CAVOK 10/M03 Q1013,1,0,0,9999,0,0,0,
2026-04-02 10:50:00,METAR LSGS 021050Z 26008KT 230V310 CAVOK 09/M04 Q1013,1,0,0,9999,0,0,0,
2026-04-02 10:20:00,METAR LSGS 021020Z 25007KT 170V330 CAVOK 08/M03 Q1014,1,0,0,9999,0,0,0,
2026-04-02 09:50:00,METAR LSGS 020950Z 26005KT 210V290 CAVOK 07/M04 Q1014,1,0,0,9999,0,0,0,
2026-04-02 09:20:00,METAR LSGS 020920Z 25004KT 210V280 CAVOK 06/M05 Q1014,1,0,0,9999,0,0,0,
2026-04-02 08:50:00,METAR LSGS 020850Z 23004KT 170V270 CAVOK 05/M03 Q1015,1,0,0,9999,0,0,0,
2026-04-02 08:20:00,METAR LSGS 020820Z VRB02KT CAVOK 04/M05 Q1015,1,0,0,9999,0,0,0,
2026-04-02 07:50:00,METAR LSGS 020750Z VRB01KT CAVOK 04/M03 Q1015,1,0,0,9999,0,0,0,
2026-04-02 07:20:00,METAR LSGS 020720Z VRB01KT CAVOK 03/M03 Q1015,1,0,0,9999,0,0,0,
2026-04-02 06:50:00,METAR LSGS 020650Z VRB03KT CAVOK 01/M02 Q1015,1,0,0,9999,0,0,0,
2026-04-02 06:20:00,METAR LSGS 020620Z VRB01KT CAVOK M00/M04 Q1015,1,0,0,9999,0,0,0,
2026-04-02 05:50:00,METAR LSGS 020550Z VRB02KT CAVOK M01/M04 Q1015,1,0,0,9999,0,0,0,
2026-04-02 05:20:00,METAR LSGS 020520Z 08003KT CAVOK M01/M04 Q1015,1,0,0,9999,0,0,0,
2026-04-02 04:50:00,METAR LSGS 020450Z VRB02KT CAVOK M01/M04 Q1015,1,0,0,9999,0,0,0,
2026-04-02 04:20:00,METAR LSGS 020420Z AUTO 10002KT CAVOK M01/M03 Q1015,1,0,0,9999,0,0,0,
2026-04-02 03:50:00,METAR LSGS 020350Z AUTO VRB01KT CAVOK M00/M02 Q1015,1,0,0,9999,0,0,0,
2026-04-02 03:20:00,METAR LSGS 020320Z AUTO 09002KT CAVOK M01/M03 Q1015,1,0,0,9999,0,0,0,
2026-04-02 02:50:00,METAR LSGS 020250Z AUTO VRB02KT CAVOK M01/M02 Q1015,1,0,0,9999,0,0,0,
2026-04-02 02:20:00,METAR LSGS 020220Z AUTO VRB02KT CAVOK M00/M02 Q1015,1,0,0,9999,0,0,0,
2026-04-02 01:50:00,METAR LSGS 020150Z AUTO VRB01KT CAVOK 00/M02 Q1015,1,0,0,9999,0,0,0,
2026-04-02 01:20:00,METAR LSGS 020120Z AUTO VRB01KT CAVOK 00/M03 Q1016,1,0,0,9999,0,0,0,
2026-04-02 00:50:00,METAR LSGS 020050Z AUTO 07004KT CAVOK 01/M03 Q1016,1,0,0,9999,0,0,0,
2026-04-02 00:20:00,METAR LSGS 020020Z AUTO 07003KT CAVOK 01/M04 Q1016,1,0,0,9999,0,0,0,
2026-04-01 23:50:00,METAR LSGS 012350Z AUTO 07003KT CAVOK 01/M04 Q1016,1,0,0,9999,0,0,0,
2026-04-01 23:20:00,METAR LSGS 012320Z AUTO VRB01KT CAVOK 01/M02 Q1016,1,0,0,9999,0,0,0,
2026-04-01 22:50:00,METAR LSGS 012250Z AUTO VRB01KT CAVOK 02/M03 Q1017,1,0,0,9999,0,0,0,
2026-04-01 22:20:00,METAR LSGS 012220Z AUTO VRB01KT CAVOK 02/M03 Q1017,1,0,0,9999,0,0,0,
2026-04-01 21:50:00,METAR LSGS 012150Z AUTO VRB01KT CAVOK 02/M03 Q1017,1,0,0,9999,0,0,0,
2026-04-01 21:20:00,METAR LSGS 012120Z AUTO 09004KT CAVOK 03/M02 Q1017,1,0,0,9999,0,0,0,
2026-04-01 20:50:00,METAR LSGS 012050Z AUTO 09004KT CAVOK 03/M03 Q1017,1,0,0,9999,0,0,0,
2026-04-01 20:20:00,METAR LSGS 012020Z AUTO 09002KT CAVOK 04/M04 Q1017,1,0,0,9999,0,0,0,
2026-04-01 19:50:00,METAR LSGS 011950Z AUTO VRB01KT CAVOK 05/M04 Q1017,1,0,0,9999,0,0,0,
2026-04-01 19:20:00,METAR LSGS 011920Z AUTO 23004KT 190V270 CAVOK 05/M04 Q1017,1,0,0,9999,0,0,0,
2026-04-01 18:50:00,METAR LSGS 011850Z AUTO 23006KT 200V260 CAVOK 07/M04 Q1017,1,0,0,9999,0,0,0,
2026-04-01 18:20:00,METAR LSGS 011820Z AUTO 24006KT CAVOK 07/M05 Q1016,1,0,0,9999,0,0,0,
2026-04-01 17:50:00,METAR LSGS 011750Z 25012KT CAVOK 08/M04 Q1016,1,0,0,9999,0,0,0,
2026-04-01 17:20:00,METAR LSGS 011720Z 26014KT CAVOK 09/M04 Q1016,1,0,0,9999,0,0,0,
2026-04-01 16:50:00,METAR LSGS 011650Z 25013KT CAVOK 10/M04 Q1015,1,0,0,9999,0,0,0,
2026-04-01 16:20:00,METAR LSGS 011620Z AUTO 24011KT CAVOK 11/M04 Q1015,1,0,0,9999,0,0,0,
2026-04-01 15:50:00,METAR LSGS 011550Z 25010KT 9999 FEW075 11/M04 Q1015,0,10,0,10000,0,0,0,
2026-04-01 15:20:00,METAR LSGS 011520Z 25009KT 220V280 9999 FEW070 11/M05 Q1015,0,9,0,10000,0,0,0,
2026-04-01 14:50:00,METAR LSGS 011450Z 26009KT 230V320 9999 FEW070 11/M06 Q1015,0,9,0,10000,0,0,0,
2026-04-01 13:50:00,METAR LSGS 011350Z 23006KT 160V270 9999 FEW075 10/M08 Q1016,0,6,0,10000,0,0,0,
2026-04-01 13:20:00,METAR LSGS 011320Z 25006KT 180V300 9999 FEW065 11/M07 Q1017,0,6,0,10000,0,0,0,
2026-04-01 12:50:00,METAR LSGS 011250Z 26004KT 180V340 9999 FEW065 10/M07 Q1017,0,4,0,10000,0,0,0,
2026-04-01 12:20:00,METAR LSGS 011220Z 25005KT 190V320 9999 FEW060 10/M07 Q1018,0,5,0,10000,0,0,0,
2026-04-01 11:50:00,METAR LSGS 011150Z 26004KT 220V350 9999 FEW060 08/M07 Q1018,0,4,0,10000,0,0,0,
2026-04-01 11:20:00,METAR LSGS 011120Z 24006KT 180V290 9999 FEW065 07/M07 Q1019,0,6,0,10000,0,0,0,
2026-04-01 10:50:00,METAR LSGS 011050Z VRB04KT 9999 FEW065 07/M06 Q1020,0,4,0,10000,0,0,0,
2026-04-01 10:20:00,METAR LSGS 011020Z 25005KT 190V310 9999 FEW065 07/M05 Q1020,0,5,0,10000,0,0,0,
2026-04-01 09:50:00,METAR LSGS 010950Z VRB03KT 9999 FEW065 05/M07 Q1021,0,3,0,10000,0,0,0,
2026-04-01 09:20:00,METAR LSGS 010920Z VRB02KT 9999 FEW060 05/M06 Q1021,0,2,0,10000,0,0,0,
2026-04-01 08:50:00,METAR LSGS 010850Z VRB02KT 9999 FEW070 04/M05 Q1022,0,2,0,10000,0,0,0,
2026-04-01 08:20:00,METAR LSGS 010820Z VRB02KT 9999 FEW070 03/M07 Q1022,0,2,0,10000,0,0,0,
2026-04-01 07:50:00,METAR LSGS 010750Z VRB02KT 9999 FEW065 03/M07 Q1022,0,2,0,10000,0,0,0,
2026-04-01 07:20:00,METAR LSGS 010720Z VRB02KT 9999 FEW065 02/M05 Q1022,0,2,0,10000,0,0,0,
2026-04-01 06:50:00,METAR LSGS 010650Z 08005KT 9999 FEW070 01/M04 Q1023,0,5,0,10000,0,0,0,
2026-04-01 06:20:00,METAR LSGS 010620Z VRB03KT 9999 FEW070 M01/M05 Q1023,0,3,0,10000,0,0,0,
2026-04-01 05:50:00,METAR LSGS 010550Z VRB01KT 9999 FEW070 M01/M05 Q1023,0,1,0,10000,0,0,0,
2026-04-01 05:20:00,METAR LSGS 010520Z VRB01KT 9999 FEW080 M02/M05 Q1022,0,1,0,10000,0,0,0,
2026-04-01 04:50:00,METAR LSGS 010450Z VRB01KT 9999 FEW075 M02/M05 Q1023,0,1,0,10000,0,0,0,
2026-04-01 04:20:00,METAR LSGS 010420Z AUTO VRB02KT CAVOK M02/M05 Q1023,1,0,0,9999,0,0,0,
2026-04-01 03:50:00,METAR LSGS 010350Z AUTO VRB01KT 9999 NCD M01/M05 Q1023,0,1,0,10000,0,0,0,
2026-04-01 03:20:00,METAR LSGS 010320Z AUTO 11002KT CAVOK M01/M04 Q1023,1,0,0,9999,0,0,0,
2026-04-01 02:50:00,METAR LSGS 010250Z AUTO VRB01KT CAVOK M01/M04 Q1023,1,0,0,9999,0,0,0,
2026-04-01 02:20:00,METAR LSGS 010220Z AUTO VRB02KT CAVOK M00/M05 Q1024,1,0,0,9999,0,0,0,
2026-04-01 01:50:00,METAR LSGS 010150Z AUTO VRB02KT CAVOK 00/M04 Q1024,1,0,0,9999,0,0,0,
2026-04-01 01:20:00,METAR LSGS 010120Z AUTO VRB01KT 9999 NSC M00/M04 Q1024,0,1,0,10000,0,0,0,
2026-04-01 00:50:00,METAR LSGS 010050Z AUTO VRB01KT 9999 NCD M00/M04 Q1024,0,1,0,10000,0,0,0,
2026-04-01 00:20:00,METAR LSGS 010020Z AUTO VRB01KT 9999 NSC M00/M02 Q1024,0,1,0,10000,0,0,0,
2026-03-31 23:50:00,METAR LSGS 312350Z AUTO 10003KT CAVOK 00/M03 Q1024,1,0,0,9999,0,0,0,
2026-03-31 23:20:00,METAR LSGS 312320Z AUTO 07004KT CAVOK 01/M06 Q1025,1,0,0,9999,0,0,0,
2026-03-31 22:50:00,METAR LSGS 312250Z AUTO VRB02KT CAVOK 01/M04 Q1024,1,0,0,9999,0,0,0,
2026-03-31 22:20:00,METAR LSGS 312220Z AUTO VRB02KT CAVOK 02/M04 Q1024,1,0,0,9999,0,0,0,
2026-03-31 21:50:00,METAR LSGS 312150Z AUTO VRB02KT CAVOK 03/M04 Q1024,1,0,0,9999,0,0,0,
2026-03-31 21:20:00,METAR LSGS 312120Z AUTO VRB03KT 9999 NCD 03/M04 Q1024,0,3,0,9999,0,0,0,
2026-03-31 20:50:00,METAR LSGS 312050Z AUTO 26005KT 9999 FEW080 03/M04 Q1024,0,5,0,9999,0,0,0,
2026-03-31 20:20:00,METAR LSGS 312020Z AUTO 28006KT 9999 SCT080 04/M05 Q1024,0,6,0,9999,0,0,0,
2026-03-31 19:50:00,METAR LSGS 311950Z AUTO 26008KT 9999 FEW080 04/M05 Q1024,0,8,0,9999,0,0,0,
2026-03-31 19:20:00,METAR LSGS 311920Z AUTO 25008KT 9999 SCT080 03/M03 Q1024,0,8,0,9999,0,0,0,
2026-03-31 18:50:00,METAR LSGS 311850Z AUTO 27006KT 240V300 9999 BKN080 05/M04 Q1024,0,6,0,9999,0,0,0,
2026-03-31 18:20:00,METAR LSGS 311820Z AUTO 27006KT 9999 SCT075 SCT085 05/M03 Q1023,0,6,0,9999,0,0,0,
2026-03-31 17:50:00,METAR LSGS 311750Z 24005KT 160V270 9999 SCT085 05/M03 Q1023,0,5,0,9999,0,0,0,
2026-03-31 17:20:00,METAR LSGS 311720Z 28007KT 240V340 9999 FEW070 06/M03 Q1023,0,7,0,9999,0,0,0,
2026-03-31 16:50:00,METAR LSGS 311650Z AUTO 26012KT 9999 NCD 07/M03 Q1023,0,12,0,9999,0,0,0,
2026-03-31 16:20:00,METAR LSGS 311620Z 25014KT 9999 FEW070 07/M03 Q1022,0,14,0,9999,0,0,0,
2026-03-31 15:50:00,METAR LSGS 311550Z AUTO 25013KT 9999 NCD 07/M03 Q1023,0,13,0,9999,0,0,0,
2026-03-31 15:20:00,METAR LSGS 311520Z 25013KT 9999 SCT065 08/M03 Q1023,0,13,0,9999,0,0,0,
2026-03-31 14:50:00,METAR LSGS 311450Z 25015KT 9999 FEW065 08/M02 Q1023,0,15,0,9999,0,0,0,
2026-03-31 14:20:00,METAR LSGS 311420Z 24014KT 9999 FEW070 08/M03 Q1023,0,14,0,9999,0,0,0,
2026-03-31 13:50:00,METAR LSGS 311350Z 31009KT 280V080 9999 FEW075 09/M03 Q1023,0,9,0,9999,0,0,0,
2026-03-31 13:20:00,METAR LSGS 311320Z 30009KT 250V360 9999 SCT070 10/M07 Q1023,0,9,0,9999,0,0,0,
2026-03-31 12:50:00,METAR LSGS 311250Z VRB04KT 9999 SCT075 10/M07 Q1023,0,4,0,9999,0,0,0,
2026-03-31 12:20:00,METAR LSGS 311220Z 28008KT 170V350 9999 FEW035 SCT080 09/M08 Q1023,0,8,0,9999,0,0,0,
2026-03-31 11:50:00,METAR LSGS 311150Z 29007KT 220V350 9999 SCT080 08/M08 Q1023,0,7,0,9999,0,0,0,
2026-03-31 11:20:00,METAR LSGS 311120Z 26008KT 210V320 9999 SCT060 SCT085 08/M07 Q1024,0,8,0,9999,0,0,0,
2026-03-31 10:50:00,METAR LSGS 311050Z 24011KT 190V260 9999 SCT070 BKN085 08/M04 Q1023,0,11,0,9999,0,0,0,
2026-03-31 10:20:00,METAR LSGS 311020Z AUTO 22009KT 160V260 9999 FEW070 BKN080 09/M02 Q1023,0,9,0,9999,0,0,0,
2026-03-31 09:50:00,METAR LSGS 310950Z 25013KT 9999 SCT060 BKN080 06/M03 Q1023,0,13,0,9999,0,0,0,
2026-03-31 09:20:00,METAR LSGS 310920Z 25013KT 9999 FEW035 BKN070 07/M02 Q1023,0,13,0,9999,0,0,0,
2026-03-31 08:50:00,METAR LSGS 310850Z 25013KT 9999 FEW035 BKN080 06/M02 Q1023,0,13,0,9999,0,0,0,
2026-03-31 08:20:00,METAR LSGS 310820Z 25010KT 9999 SCT070 BKN080 06/M00 Q1024,0,10,0,9999,0,0,0,
2026-03-31 07:50:00,METAR LSGS 310750Z 25009KT 210V280 9999 FEW025 BKN075 05/00 Q1023,0,9,0,9999,0,0,0,
2026-03-31 07:20:00,METAR LSGS 310720Z 25010KT 220V280 9999 VCSH FEW025 BKN065 04/M00 Q1023,0,10,0,9999,0,0,0,"SH,VC"
2026-03-31 06:50:00,METAR LSGS 310650Z 25011KT 210V280 9999 FEW025 BKN065 03/M00 Q1022,0,11,0,9999,0,0,0,
2026-03-31 06:20:00,METAR LSGS 310620Z 29008KT 260V330 9999 FEW020 BKN055 03/M00 Q1022,0,8,0,9999,0,0,0,
2026-03-31 05:50:00,METAR LSGS 310550Z 26011KT 9999 FEW025 BKN055 03/M00 Q1022,0,11,0,9999,0,0,0,
2026-03-31 05:20:00,METAR LSGS 310520Z AUTO 26006KT 220V290 9999 FEW095 SCT110 03/M00 Q1022,0,6,0,9999,0,0,0,
2026-03-31 04:50:00,METAR LSGS 310450Z AUTO 27007KT 9999 FEW090 04/M00 Q1021,0,7,0,9999,0,0,0,
2026-03-31 04:20:00,METAR LSGS 310420Z AUTO VRB03KT 9999 BKN065 04/M00 Q1021,0,3,0,9999,0,0,0,
2026-03-31 03:50:00,METAR LSGS 310350Z AUTO VRB02KT 9999 FEW055 04/M00 Q1021,0,2,0,9999,0,0,0,
2026-03-31 03:20:00,METAR LSGS 310320Z AUTO VRB03KT 9999 NCD 03/00 Q1020,0,3,0,9999,0,0,0,
2026-03-31 02:50:00,METAR LSGS 310250Z AUTO 26008KT 9999 SCT060 SCT070 BKN080 03/00 Q1020,0,8,0,9999,0,0,0,
2026-03-31 02:20:00,METAR LSGS 310220Z AUTO 25010KT 9999 FEW050 SCT095 03/00 Q1020,0,10,0,9999,0,0,0,
2026-03-31 01:50:00,METAR LSGS 310150Z AUTO 25011KT 9999 FEW050 SCT085 BKN100 03/01 Q1020,0,11,0,9999,0,0,0,
2026-03-31 01:20:00,METAR LSGS 310120Z AUTO 26007KT 220V290 9999 FEW055 BKN065 BKN075 04/00 Q1020,0,7,0,9999,0,0,0,
2026-03-31 00:50:00,METAR LSGS 310050Z AUTO 28005KT 250V320 9999 FEW065 04/01 Q1020,0,5,0,9999,0,0,0,
2026-03-31 00:20:00,METAR LSGS 310020Z AUTO 19003KT 140V270 9999 FEW055 SCT070 04/01 Q1020,0,3,0,9999,0,0,0,
2026-03-30 23:50:00,METAR LSGS 302350Z AUTO 19003KT 150V250 9999 SCT065 04/01 Q1020,0,3,0,10000,0,0,0,
2026-03-30 23:20:00,METAR LSGS 302320Z AUTO VRB02KT 9999 -RA BKN065 04/02 Q1020,0,2,0,10000,0,0,0,-RA
2026-03-30 22:50:00,METAR LSGS 302250Z AUTO VRB02KT 9999 FEW027 BKN070 BKN080 04/01 Q1020 REDZ,0,2,0,10000,0,0,0,DZ
2026-03-30 22:20:00,METAR LSGS 302220Z AUTO 24006KT 210V270 9999 -RA FEW065 BKN075 04/01 Q1020 REDZ,0,6,0,10000,0,0,0,"-RA,DZ"
2026-03-30 21:50:00,METAR LSGS 302150Z AUTO 24009KT CAVOK 04/01 Q1020 REDZ,1,0,0,9999,0,0,0,
2026-03-30 21:20:00,METAR LSGS 302120Z AUTO 23005KT 170V270 9999 NCD 05/01 Q1020,0,5,0,10000,0,0,0,
2026-03-30 20:50:00,METAR LSGS 302050Z AUTO VRB02KT 9999 FEW065 05/02 Q1020 REDZ,0,2,0,10000,0,0,0,DZ
2026-03-30 20:20:00,METAR LSGS 302020Z AUTO 24007KT 200V260 9999 -DZ SCT065 BKN075 04/02 Q1020 RERA,0,7,0,10000,0,0,0,"DZ,RA"
2026-03-30 19:50:00,METAR LSGS 301950Z AUTO 22008KT 190V260 9999 -RA BKN021 05/02 Q1020,0,8,0,10000,0,0,0,-RA
2026-03-30 19:20:00,METAR LSGS 301920Z AUTO VRB03KT 9999 -RA BKN034 04/02 Q1019,0,3,0,10000,0,0,0,-RA
2026-03-30 18:50:00,METAR LSGS 301850Z AUTO 23004KT 180V270 9999 -RA BKN/// 04/02 Q1018,0,4,0,10000,0,0,0,-RA
2026-03-30 18:20:00,METAR LSGS 301820Z AUTO 24012KT 9999 -RA BKN031 04/02 Q1018,0,12,0,10000,0,0,0,-RA
2026-03-30 17:50:00,METAR LSGS 301750Z AUTO 25011KT 9999 -RA BKN/// 05/02 Q1018 REDZ,0,11,0,10000,0,0,0,"-RA,DZ"
2026-03-30 17:20:00,METAR LSGS 301720Z AUTO 24009KT 9999 -RA BKN028 06/02 Q1018,0,9,0,10000,0,0,0,-RA
2026-03-30 16:50:00,METAR LSGS 301650Z AUTO 25008KT 210V290 9999 -RA BKN/// 07/01 Q1018,0,8,0,10000,0,0,0,-RA
2026-03-30 16:20:00,METAR LSGS 301620Z 27011KT 9999 FEW030 OVC050 07/M01 Q1018,0,11,0,10000,0,0,0,
2026-03-30 15:50:00,METAR LSGS 301550Z AUTO 27015KT 9999 -RA FEW050 SCT060 08/M02 Q1017,0,15,0,10000,0,0,0,-RA
2026-03-30 15:20:00,METAR LSGS 301520Z 26011G21KT 9999 FEW040 OVC050 09/M04 Q1017,0,11,1,10000,0,0,0,
2026-03-30 14:50:00,METAR LSGS 301450Z 28009KT 240V330 9999 -RA FEW020 OVC055 09/M04 Q1018,0,9,0,10000,0,0,0,-RA
2026-03-30 14:20:00,METAR LSGS 301420Z 31010KT 270V360 9999 -RA FEW015 OVC050 09/M04 Q1018,0,10,0,10000,0,0,0,-RA
2026-03-30 13:50:00,METAR LSGS 301350Z 26015G25KT 230V320 9999 DZ SCT065 BKN075 10/M06 Q1018,0,15,1,10000,0,0,0,DZ
2026-03-30 13:20:00,METAR LSGS 301320Z 25017KT 9999 FEW090 SCT110 12/M07 Q1017,0,17,0,10000,0,0,0,
2026-03-30 12:50:00,METAR LSGS 301250Z 26016KT 9999 FEW075 SCT110 11/M06 Q1018,0,16,0,10000,0,0,0,
2026-03-30 12:20:00,METAR LSGS 301220Z 26016KT 9999 FEW080 SCT150 12/M03 Q1018,0,16,0,10000,0,0,0,
2026-03-30 11:50:00,METAR LSGS 301150Z 26017KT 9999 FEW075 SCT150 10/M02 Q1019,0,17,0,10000,0,0,0,
2026-03-30 11:20:00,METAR LSGS 301120Z 24012KT 9999 FEW065 SCT075 09/M01 Q1020,0,12,0,10000,0,0,0,
2026-03-30 10:50:00,METAR LSGS 301050Z 25006KT 230V290 9999 BKN065 08/M01 Q1021,0,6,0,10000,0,0,0,
2026-03-30 10:20:00,METAR LSGS 301020Z VRB03KT 9999 -RA OVC065 07/M02 Q1022,0,3,0,10000,0,0,0,-RA
2026-03-30 09:50:00,METAR LSGS 300950Z 27004KT 200V350 9999 OVC065 07/M02 Q1022,0,4,0,10000,0,0,0,
2026-03-30 09:20:00,METAR LSGS 300920Z 27008KT 230V300 9999 OVC065 07/M02 Q1022,0,8,0,10000,0,0,0,
2026-03-30 08:50:00,METAR LSGS 300850Z 25009KT 210V270 9999 -RA OVC060 07/M01 Q1023,0,9,0,10000,0,0,0,-RA
2026-03-30 08:20:00,METAR LSGS 300820Z 24010KT 9999 OVC060 06/M02 Q1023,0,10,0,10000,0,0,0,
2026-03-30 07:50:00,METAR LSGS 300750Z 23010KT 180V270 9999 -RA OVC070 06/M02 Q1024,0,10,0,10000,0,0,0,-RA
2026-03-30 07:20:00,METAR LSGS 300720Z VRB01KT 9999 FEW045 OVC070 05/M02 Q1024,0,1,0,10000,0,0,0,
2026-03-30 06:50:00,METAR LSGS 300650Z VRB01KT 9999 OVC075 05/M02 Q1025,0,1,0,10000,0,0,0,
2026-03-30 06:20:00,METAR LSGS 300620Z VRB01KT 9999 OVC080 04/M02 Q1025,0,1,0,10000,0,0,0,
2026-03-30 05:50:00,METAR LSGS 300550Z VRB01KT 9999 OVC080 04/M02 Q1025,0,1,0,10000,0,0,0,
2026-03-30 05:20:00,METAR LSGS 300520Z AUTO VRB02KT 9999 OVC080 04/M01 Q1025,0,2,0,10000,0,0,0,
2026-03-30 04:50:00,METAR LSGS 300450Z AUTO VRB03KT 9999 OVC080 04/M01 Q1024,0,3,0,10000,0,0,0,
2026-03-30 04:20:00,METAR LSGS 300420Z AUTO VRB02KT 9999 BKN085 04/M01 Q1025,0,2,0,10000,0,0,0,
2026-03-30 03:50:00,METAR LSGS 300350Z AUTO VRB01KT 9999 OVC085 04/M01 Q1025,0,1,0,10000,0,0,0,
2026-03-30 03:20:00,METAR LSGS 300320Z AUTO VRB01KT 9999 BKN085 BKN095 04/M01 Q1026,0,1,0,10000,0,0,0,
2026-03-30 02:50:00,METAR LSGS 300250Z AUTO VRB02KT 9999 OVC095 04/M01 Q1026,0,2,0,10000,0,0,0,
2026-03-30 02:20:00,METAR LSGS 300220Z AUTO VRB02KT 9999 OVC100 04/M02 Q1027,0,2,0,10000,0,0,0,
2026-03-30 01:50:00,METAR LSGS 300150Z AUTO VRB02KT 9999 BKN100 03/M01 Q1027,0,2,0,10000,0,0,0,
2026-03-30 01:20:00,METAR LSGS 300120Z AUTO 07003KT 9999 OVC110 04/M02 Q1027,0,3,0,10000,0,0,0,
2026-03-30 00:50:00,METAR LSGS 300050Z AUTO 12002KT 9999 FEW110 OVC130 03/M02 Q1027,0,2,0,10000,0,0,0,
2026-03-30 00:20:00,METAR LSGS 300020Z AUTO VRB01KT CAVOK 03/M02 Q1027,1,0,0,9999,0,0,0,
2026-03-29 23:50:00,METAR LSGS 292350Z AUTO VRB01KT CAVOK 03/M02 Q1027,1,0,0,9999,0,0,0,
2026-03-29 23:20:00,METAR LSGS 292320Z AUTO VRB02KT CAVOK 04/M02 Q1027,1,0,0,9999,0,0,0,
2026-03-29 22:50:00,METAR LSGS 292250Z AUTO VRB02KT CAVOK 04/M02 Q1027,1,0,0,9999,0,0,0,
2026-03-29 22:20:00,METAR LSGS 292220Z AUTO 26004KT 230V300 9999 NSC 04/M02 Q1027,0,4,0,10000,0,0,0,
2026-03-29 21:50:00,METAR LSGS 292150Z AUTO VRB02KT 9999 BKN070 05/M03 Q1027,0,2,0,10000,0,0,0,
2026-03-29 21:20:00,METAR LSGS 292120Z AUTO VRB02KT 9999 BKN070 06/M03 Q1026,0,2,0,10000,0,0,0,
2026-03-29 20:50:00,METAR LSGS 292050Z AUTO 26006KT 9999 NSC 06/M02 Q1027,0,6,0,10000,0,0,0,
2026-03-29 20:20:00,METAR LSGS 292020Z AUTO 26007KT 220V290 9999 OVC075 06/M03 Q1026,0,7,0,10000,0,0,0,
2026-03-29 19:50:00,METAR LSGS 291950Z AUTO 25008KT 9999 BKN075 06/M02 Q1026,0,8,0,10000,0,0,0,
2026-03-29 19:20:00,METAR LSGS 291920Z AUTO 25010KT 9999 FEW070 OVC080 06/M03 Q1026,0,10,0,10000,0,0,0,
2026-03-29 18:50:00,METAR LSGS 291850Z AUTO 25009KT 9999 OVC075 07/M03 Q1026,0,9,0,10000,0,0,0,
2026-03-29 18:20:00,METAR LSGS 291820Z AUTO 24010KT 9999 OVC080 07/M03 Q1025,0,10,0,10000,0,0,0,
2026-03-29 17:50:00,METAR LSGS 291750Z AUTO 24009KT 210V270 9999 FEW070 OVC080 08/M03 Q1025,0,9,0,10000,0,0,0,
2026-03-29 17:20:00,METAR LSGS 291720Z 25012KT 9999 SCT075 08/M03 Q1024,0,12,0,10000,0,0,0,
2026-03-29 16:50:00,METAR LSGS 291650Z 24012KT 9999 BKN075 08/M02 Q1024,0,12,0,10000,0,0,0,
2026-03-29 16:20:00,METAR LSGS 291620Z 24013KT 9999 BKN080 09/M03 Q1023,0,13,0,10000,0,0,0,
2026-03-29 15:50:00,METAR LSGS 291550Z 24014KT 9999 BKN075 09/M03 Q1023,0,14,0,10000,0,0,0,
2026-03-29 15:20:00,METAR LSGS 291520Z 24013KT 9999 BKN075 09/M02 Q1022,0,13,0,10000,0,0,0,
2026-03-29 14:50:00,METAR LSGS 291450Z 24011KT 9999 BKN080 10/M03 Q1022,0,11,0,10000,0,0,0,
2026-03-29 14:20:00,METAR LSGS 291420Z 25012KT 9999 BKN080 10/M03 Q1022,0,12,0,10000,0,0,0,
2026-03-29 13:50:00,METAR LSGS 291350Z 25011KT 9999 BKN080 10/M03 Q1022,0,11,0,10000,0,0,0,
2026-03-29 13:20:00,METAR LSGS 291320Z 25011KT 9999 BKN080 10/M03 Q1022,0,11,0,10000,0,0,0,
2026-03-29 12:50:00,METAR LSGS 291250Z 24011KT 190V270 9999 BKN085 10/M03 Q1022,0,11,0,10000,0,0,0,
2026-03-29 12:20:00,METAR LSGS 291220Z 25009KT 190V300 9999 BKN085 11/M02 Q1022,0,9,0,10000,0,0,0,
2026-03-29 11:50:00,METAR LSGS 291150Z 24007KT 170V310 9999 BKN085 10/M02 Q1023,0,7,0,10000,0,0,0,
2026-03-29 11:20:00,METAR LSGS 291120Z 25006KT 180V290 9999 SCT080 10/M02 Q1023,0,6,0,10000,0,0,0,
2026-03-29 10:50:00,METAR LSGS 291050Z 23005KT 160V280 9999 SCT075 10/M01 Q1023,0,5,0,10000,0,0,0,
2026-03-29 10:20:00,METAR LSGS 291020Z 24007KT 190V280 9999 SCT055 09/M02 Q1023,0,7,0,10000,0,0,0,
2026-03-29 09:50:00,METAR LSGS 290950Z 27007KT 240V310 9999 FEW045 08/M02 Q1023,0,7,0,10000,0,0,0,
2026-03-29 09:20:00,METAR LSGS 290920Z 25006KT 190V280 9999 FEW045 07/M02 Q1023,0,6,0,10000,0,0,0,
2026-03-29 08:50:00,METAR LSGS 290850Z VRB04KT 9999 FEW045 07/M02 Q1023,0,4,0,10000,0,0,0,
2026-03-29 08:20:00,METAR LSGS 290820Z VRB02KT 9999 FEW050 06/M01 Q1023,0,2,0,10000,0,0,0,
2026-03-29 07:50:00,METAR LSGS 290750Z 08005KT 9999 FEW040 05/M01 Q1022,0,5,0,10000,0,0,0,
2026-03-29 07:20:00,METAR LSGS 290720Z 08005KT 9999 FEW040 05/00 Q1022,0,5,0,10000,0,0,0,
2026-03-29 06:50:00,METAR LSGS 290650Z VRB02KT 9999 FEW040 03/M01 Q1022,0,2,0,10000,0,0,0,
2026-03-29 06:20:00,METAR LSGS 290620Z AUTO 08003KT 9999 NCD 03/M01 Q1022,0,3,0,10000,0,0,0,
2026-03-29 05:50:00,METAR LSGS 290550Z VRB02KT 9999 FEW035 SCT120 03/M01 Q1021,0,2,0,10000,0,0,0,
2026-03-29 05:20:00,METAR LSGS 290520Z AUTO VRB01KT 9999 SCT100 SCT110 BKN120 04/M01 Q1021,0,1,0,10000,0,0,0,
2026-03-29 04:50:00,METAR LSGS 290450Z AUTO VRB02KT 9999 BKN110 03/M01 Q1020,0,2,0,10000,0,0,0,
2026-03-29 04:20:00,METAR LSGS 290420Z AUTO VRB02KT 9999 BKN100 03/M01 Q1020,0,2,0,10000,0,0,0,
2026-03-29 03:50:00,METAR LSGS 290350Z AUTO VRB01KT 9999 FEW085 BKN100 BKN110 04/M01 Q1020,0,1,0,10000,0,0,0,
2026-03-29 03:20:00,METAR LSGS 290320Z AUTO VRB03KT 9999 SCT090 BKN100 04/M01 Q1020,0,3,0,10000,0,0,0,
2026-03-29 02:50:00,METAR LSGS 290250Z AUTO VRB02KT 9999 BKN095 04/M01 Q1020,0,2,0,10000,0,0,0,
2026-03-29 02:20:00,METAR LSGS 290220Z AUTO VRB01KT 9999 OVC100 04/M01 Q1020,0,1,0,10000,0,0,0,
2026-03-29 01:50:00,METAR LSGS 290150Z AUTO 26003KT 150V320 9999 BKN090 BKN100 04/M01 Q1020,0,3,0,10000,0,0,0,
2026-03-29 01:20:00,METAR LSGS 290120Z AUTO 24004KT 190V280 9999 SCT090 04/M01 Q1020,0,4,0,10000,0,0,0,
2026-03-29 00:50:00,METAR LSGS 290050Z AUTO 24005KT 9999 FEW090 BKN100 BKN110 04/M00 Q1019,0,5,0,10000,0,0,0,
2026-03-29 00:20:00,METAR LSGS 290020Z AUTO 26006KT 9999 SCT095 BKN100 05/M00 Q1019,0,6,0,10000,0,0,0,
2026-03-28 23:50:00,METAR LSGS 282350Z AUTO 25008KT 9999 SCT090 BKN100 05/00 Q1019,0,8,0,10000,0,0,0,
2026-03-28 23:20:00,METAR LSGS 282320Z AUTO 23007KT 170V270 9999 FEW090 OVC100 05/M00 Q1019,0,7,0,10000,0,0,0,
2026-03-28 22:50:00,METAR LSGS 282250Z AUTO 24007KT 180V290 9999 BKN085 05/M00 Q1019,0,7,0,10000,0,0,0,
2026-03-28 22:20:00,METAR LSGS 282220Z AUTO 26010KT 220V280 9999 FEW085 OVC095 05/M00 Q1019,0,10,0,10000,0,0,0,
2026-03-28 21:50:00,METAR LSGS 282150Z AUTO 26013KT 9999 FEW080 SCT090 OVC100 05/M00 Q1019,0,13,0,10000,0,0,0,
2026-03-28 21:20:00,METAR LSGS 282120Z AUTO 25010KT 9999 BKN090 05/00 Q1020,0,10,0,10000,0,0,0,
2026-03-28 20:50:00,METAR LSGS 282050Z AUTO 25013KT 9999 BKN095 05/M00 Q1020,0,13,0,10000,0,0,0,
2026-03-28 20:20:00,METAR LSGS 282020Z AUTO 25010KT 200V280 9999 FEW085 BKN100 05/00 Q1020,0,10,0,10000,0,0,0,
2026-03-28 19:50:00,METAR LSGS 281950Z AUTO 26015KT 9999 FEW070 OVC080 05/00 Q1020,0,15,0,10000,0,0,0,
2026-03-28 19:20:00,METAR LSGS 281920Z AUTO 25013KT 9999 SCT055 SCT065 BKN080 05/00 Q1019,0,13,0,10000,0,0,0,
2026-03-28 18:50:00,METAR LSGS 281850Z AUTO 26016KT 9999 SCT060 SCT070 BKN080 05/00 Q1019,0,16,0,10000,0,0,0,
2026-03-28 18:20:00,METAR LSGS 281820Z 27016KT 9999 BKN080 05/00 Q1018,0,16,0,10000,0,0,0,
2026-03-28 17:50:00,METAR LSGS 281750Z 26020KT 9999 OVC090 05/M01 Q1018,0,20,0,10000,0,0,0,
2026-03-28 17:20:00,METAR LSGS 281720Z 26017KT 9999 BKN090 06/M02 Q1018,0,17,0,10000,0,0,0,
2026-03-28 16:50:00,METAR LSGS 281650Z 26018KT 9999 SCT080 BKN090 07/M03 Q1017,0,18,0,10000,0,0,0,
2026-03-28 16:20:00,METAR LSGS 281620Z 25018KT 9999 SCT080 BKN090 07/M03 Q1017,0,18,0,10000,0,0,0,
2026-03-28 15:50:00,METAR LSGS 281550Z 25016KT 9999 BKN085 OVC095 08/M04 Q1017,0,16,0,10000,0,0,0,
2026-03-28 15:20:00,METAR LSGS 281520Z 25013KT 9999 SCT075 OVC100 09/M04 Q1017,0,13,0,10000,0,0,0,
2026-03-28 14:50:00,METAR LSGS 281450Z 24011KT 9999 BKN090 09/M06 Q1017,0,11,0,10000,0,0,0,
2026-03-28 14:20:00,METAR LSGS 281420Z 26014KT 9999 SCT095 BKN100 09/M06 Q1017,0,14,0,10000,0,0,0,
2026-03-28 13:50:00,METAR LSGS 281350Z 25012KT 9999 BKN100 09/M05 Q1018,0,12,0,10000,0,0,0,
2026-03-28 13:20:00,METAR LSGS 281320Z 24008KT 200V260 9999 SCT100 BKN110 09/M05 Q1018,0,8,0,10000,0,0,0,
2026-03-28 12:50:00,METAR LSGS 281250Z 24007KT 190V270 9999 SCT110 09/M05 Q1018,0,7,0,10000,0,0,0,
2026-03-28 12:20:00,METAR LSGS 281220Z 24007KT 200V280 CAVOK 08/M05 Q1019,1,0,0,9999,0,0,0,
2026-03-28 11:50:00,METAR LSGS 281150Z VRB07KT CAVOK 08/M03 Q1020,1,0,0,9999,0,0,0,
2026-03-28 11:20:00,METAR LSGS 281120Z 25007KT CAVOK 07/M03 Q1020,1,0,0,9999,0,0,0,
2026-03-28 10:50:00,METAR LSGS 281050Z 25005KT 200V310 CAVOK 05/M05 Q1020,1,0,0,9999,0,0,0,
2026-03-28 10:20:00,METAR LSGS 281020Z 23004KT 160V290 CAVOK 04/M06 Q1021,1,0,0,9999,0,0,0,
2026-03-28 09:50:00,METAR LSGS 280950Z VRB01KT 9999 FEW045 04/M06 Q1021,0,1,0,10000,0,0,0,
2026-03-28 09:20:00,METAR LSGS 280920Z VRB02KT 9999 FEW045 03/M06 Q1021,0,2,0,10000,0,0,0,
2026-03-28 08:50:00,METAR LSGS 280850Z VRB03KT 9999 FEW040 03/M06 Q1022,0,3,0,10000,0,0,0,
2026-03-28 08:20:00,METAR LSGS 280820Z VRB02KT 9999 FEW035 02/M06 Q1022,0,2,0,10000,0,0,0,
2026-03-28 07:50:00,METAR LSGS 280750Z VRB03KT 9999 FEW032 02/M05 Q1022,0,3,0,10000,0,0,0,
2026-03-28 07:20:00,METAR LSGS 280720Z 08003KT CAVOK 01/M04 Q1022,1,0,0,9999,0,0,0,
2026-03-28 06:50:00,METAR LSGS 280650Z VRB01KT CAVOK M01/M04 Q1022,1,0,0,9999,0,0,0,
2026-03-28 06:20:00,METAR LSGS 280620Z AUTO 00000KT 9999 FEW160 M01/M03 Q1022,0,0,0,10000,0,0,0,
2026-03-28 05:50:00,METAR LSGS 280550Z AUTO 00000KT CAVOK M02/M04 Q1022 REFZDZ,1,0,0,9999,0,0,0,
2026-03-28 05:20:00,METAR LSGS 280520Z AUTO VRB01KT CAVOK M02/M04 Q1021,1,0,0,9999,0,0,0,
2026-03-28 04:50:00,METAR LSGS 280450Z AUTO VRB01KT CAVOK M02/M05 Q1021,1,0,0,9999,0,0,0,
2026-03-28 04:20:00,METAR LSGS 280420Z AUTO VRB02KT CAVOK M02/M05 Q1021,1,0,0,9999,0,0,0,
2026-03-28 03:50:00,METAR LSGS 280350Z AUTO VRB01KT CAVOK M02/M04 Q1021,1,0,0,9999,0,0,0,
2026-03-28 03:20:00,METAR LSGS 280320Z AUTO VRB01KT CAVOK M02/M05 Q1021,1,0,0,9999,0,0,0,
2026-03-28 02:50:00,METAR LSGS 280250Z AUTO VRB01KT CAVOK M02/M04 Q1021,1,0,0,9999,0,0,0,
2026-03-28 02:20:00,METAR LSGS 280220Z AUTO VRB01KT CAVOK M01/M04 Q1021,1,0,0,9999,0,0,0,
2026-03-28 01:50:00,METAR LSGS 280150Z AUTO VRB01KT CAVOK M01/M03 Q1021,1,0,0,9999,0,0,0,
2026-03-28 01:20:00,METAR LSGS 280120Z AUTO VRB01KT CAVOK M01/M03 Q1021,1,0,0,9999,0,0,0,
2026-03-28 00:50:00,METAR LSGS 280050Z AUTO 14002KT CAVOK M01/M03 Q1021,1,0,0,9999,0,0,0,
2026-03-28 00:20:00,METAR LSGS 280020Z AUTO VRB01KT CAVOK M01/M03 Q1021,1,0,0,9999,0,0,0,
2026-03-27 23:50:00,METAR LSGS 272350Z AUTO VRB01KT CAVOK M01/M03 Q1021,1,0,0,9999,0,0,0,
2026-03-27 23:20:00,METAR LSGS 272320Z AUTO VRB02KT CAVOK M00/M03 Q1021,1,0,0,9999,0,0,0,
2026-03-27 22:50:00,METAR LSGS 272250Z AUTO VRB01KT CAVOK M00/M02 Q1021,1,0,0,9999,0,0,0,
2026-03-27 22:20:00,METAR LSGS 272220Z AUTO VRB01KT CAVOK 00/M02 Q1021,1,0,0,9999,0,0,0,
2026-03-27 21:50:00,METAR LSGS 272150Z AUTO VRB01KT CAVOK 00/M04 Q1021,1,0,0,9999,0,0,0,
2026-03-27 21:20:00,METAR LSGS 272120Z AUTO VRB01KT CAVOK 01/M03 Q1021,1,0,0,9999,0,0,0,
2026-03-27 20:50:00,METAR LSGS 272050Z AUTO VRB01KT CAVOK 01/M04 Q1021,1,0,0,9999,0,0,0,
2026-03-27 20:20:00,METAR LSGS 272020Z AUTO 31002KT CAVOK 02/M04 Q1021,1,0,0,9999,0,0,0,
2026-03-27 19:50:00,METAR LSGS 271950Z VRB03KT CAVOK 03/M05 Q1020,1,0,0,9999,0,0,0,
2026-03-27 19:20:00,METAR LSGS 271920Z 22003KT 180V260 9999 FEW065 03/M04 Q1020,0,3,0,10000,0,0,0,
2026-03-27 18:50:00,METAR LSGS 271850Z 24006KT 9999 FEW065 03/M05 Q1020,0,6,0,10000,0,0,0,
2026-03-27 18:20:00,METAR LSGS 271820Z 24008KT 9999 FEW065 03/M05 Q1019,0,8,0,10000,0,0,0,
2026-03-27 17:50:00,METAR LSGS 271750Z 25011KT 9999 SCT065 04/M05 Q1019,0,11,0,10000,0,0,0,
2026-03-27 17:20:00,METAR LSGS 271720Z 25011KT 9999 SCT065 05/M05 Q1018,0,11,0,10000,0,0,0,
2026-03-27 16:50:00,METAR LSGS 271650Z 25013KT 9999 SCT070 05/M05 Q1018,0,13,0,10000,0,0,0,
2026-03-27 16:20:00,METAR LSGS 271620Z 25012KT 9999 SCT075 05/M06 Q1018,0,12,0,10000,0,0,0,
2026-03-25 14:50:00,METAR LSGS 251450Z AUTO 28012KT 240V320 9999 -RA BKN045 11/03 Q1007,0,12,0,10000,0,0,0,-RA
2026-03-25 14:20:00,METAR LSGS 251420Z 28015KT 220V330 9999 -RA FEW065 OVC075CB 14/00 Q1005,0,15,0,10000,0,0,0,-RA
2026-03-25 13:50:00,METAR LSGS 251350Z 25019KT 9999 SCT050 OVC080 16/M02 Q1004,0,19,0,10000,0,0,0,
2026-03-25 13:20:00,METAR LSGS 251320Z AUTO 25025KT 9999 -RA FEW080 SCT090 BKN100 16/M02 Q1005,0,25,0,10000,0,0,0,-RA
2026-03-25 12:50:00,METAR LSGS 251250Z 24022G33KT 9999 SCT100 18/M03 Q1005,0,22,1,10000,0,0,0,
2026-03-25 12:20:00,METAR LSGS 251220Z 24013KT 200V290 9999 FEW100 18/M02 Q1005,0,13,0,10000,0,0,0,
2026-03-25 11:50:00,METAR LSGS 251150Z AUTO 26003KT 200V350 9999 NCD 15/00 Q1006,0,3,0,10000,0,0,0,
2026-03-25 11:20:00,METAR LSGS 251120Z VRB03KT 9999 BKN100 12/M02 Q1008,0,3,0,10000,0,0,0,
2026-03-25 10:50:00,METAR LSGS 251050Z 27005KT 230V310 9999 SCT110 11/M02 Q1009,0,5,0,10000,0,0,0,
2026-03-25 10:20:00,METAR LSGS 251020Z 24006KT 200V270 9999 SCT100 10/M01 Q1010,0,6,0,10000,0,0,0,
2026-03-25 09:50:00,METAR LSGS 250950Z 22005KT 160V250 9999 SCT120 10/M01 Q1011,0,5,0,10000,0,0,0,
2026-03-25 09:20:00,METAR LSGS 250920Z VRB01KT CAVOK 10/M01 Q1012,1,0,0,9999,0,0,0,
2026-03-25 08:50:00,METAR LSGS 250850Z 09005KT 040V130 9999 FEW140 09/M00 Q1013,0,5,0,10000,0,0,0,
2026-03-25 08:20:00,METAR LSGS 250820Z 06004KT 9999 BKN120 08/M01 Q1013,0,4,0,10000,0,0,0,
2026-03-25 07:50:00,METAR LSGS 250750Z VRB01KT CAVOK 07/M00 Q1014,1,0,0,9999,0,0,0,
2026-03-25 07:20:00,METAR LSGS 250720Z 08004KT 040V150 CAVOK 05/M00 Q1015,1,0,0,9999,0,0,0,
2026-03-25 06:50:00,METAR LSGS 250650Z 09003KT 070V130 CAVOK 04/M00 Q1015,1,0,0,9999,0,0,0,
2026-03-25 06:20:00,METAR LSGS 250620Z AUTO 12003KT 080V140 CAVOK 01/M02 Q1016,1,0,0,9999,0,0,0,
2026-03-25 05:50:00,METAR LSGS 250550Z AUTO VRB03KT CAVOK 01/M01 Q1016,1,0,0,9999,0,0,0,
2026-03-25 05:20:00,METAR LSGS 250520Z AUTO VRB01KT CAVOK 01/M02 Q1016,1,0,0,9999,0,0,0,
2026-03-25 04:50:00,METAR LSGS 250450Z AUTO 09003KT 060V130 CAVOK 02/M01 Q1016,1,0,0,9999,0,0,0,
2026-03-25 04:20:00,METAR LSGS 250420Z AUTO 08004KT 040V120 CAVOK 02/M01 Q1016,1,0,0,9999,0,0,0,
2026-03-25 03:50:00,METAR LSGS 250350Z AUTO 05004KT 030V130 CAVOK 04/M01 Q1017,1,0,0,9999,0,0,0,
2026-03-25 03:20:00,METAR LSGS 250320Z AUTO 09004KT CAVOK 02/M01 Q1017,1,0,0,9999,0,0,0,
2026-03-25 02:50:00,METAR LSGS 250250Z AUTO VRB01KT CAVOK 04/M01 Q1018,1,0,0,9999,0,0,0,
2026-03-25 02:20:00,METAR LSGS 250220Z AUTO 04004KT 340V110 CAVOK 03/M00 Q1018,1,0,0,9999,0,0,0,
2026-03-25 01:50:00,METAR LSGS 250150Z AUTO 13003KT CAVOK 03/M01 Q1019,1,0,0,9999,0,0,0,
2026-03-25 01:20:00,METAR LSGS 250120Z AUTO VRB03KT CAVOK 05/M01 Q1019,1,0,0,9999,0,0,0,
2026-03-25 00:50:00,METAR LSGS 250050Z AUTO VRB02KT 9999 NCD 05/M01 Q1019,0,2,0,10000,0,0,0,
2026-03-25 00:20:00,METAR LSGS 250020Z AUTO 09005KT CAVOK 05/M01 Q1019,1,0,0,9999,0,0,0,
2026-03-24 23:50:00,METAR LSGS 242350Z AUTO 08004KT 040V120 CAVOK 05/M00 Q1020,1,0,0,9999,0,0,0,
2026-03-24 23:20:00,METAR LSGS 242320Z AUTO 04005KT 360V140 9999 NSC 06/M00 Q1020,0,5,0,10000,0,0,0,
2026-03-24 22:50:00,METAR LSGS 242250Z AUTO VRB03KT 9999 NCD 06/00 Q1020,0,3,0,10000,0,0,0,
2026-03-24 22:20:00,METAR LSGS 242220Z AUTO VRB01KT CAVOK 05/00 Q1020,1,0,0,9999,0,0,0,
2026-03-24 21:50:00,METAR LSGS 242150Z AUTO VRB01KT CAVOK 06/00 Q1020,1,0,0,9999,0,0,0,
2026-03-24 21:20:00,METAR LSGS 242120Z AUTO 09002KT CAVOK 06/M00 Q1020,1,0,0,9999,0,0,0,
2026-03-24 20:50:00,METAR LSGS 242050Z AUTO VRB03KT CAVOK 09/M01 Q1020,1,0,0,9999,0,0,0,
2026-03-24 20:20:00,METAR LSGS 242020Z AUTO VRB02KT CAVOK 09/M00 Q1020,1,0,0,9999,0,0,0,
2026-03-24 19:50:00,METAR LSGS 241950Z AUTO VRB01KT CAVOK 09/M00 Q1020,1,0,0,9999,0,0,0,
2026-03-24 19:20:00,METAR LSGS 241920Z AUTO 24003KT 160V300 CAVOK 11/M01 Q1020,1,0,0,9999,0,0,0,
2026-03-24 18:50:00,METAR LSGS 241850Z 27009KT CAVOK 12/M02 Q1020,1,0,0,9999,0,0,0,
2026-03-24 18:20:00,METAR LSGS 241820Z AUTO 29009KT CAVOK 11/M02 Q1020,1,0,0,9999,0,0,0,
2026-03-24 17:50:00,METAR LSGS 241750Z 27009KT CAVOK 13/M02 Q1019,1,0,0,9999,0,0,0,
2026-03-24 17:20:00,METAR LSGS 241720Z 27012KT CAVOK 13/M01 Q1019,1,0,0,9999,0,0,0,
2026-03-24 16:50:00,METAR LSGS 241650Z 25013KT CAVOK 14/M01 Q1019,1,0,0,9999,0,0,0,
2026-03-24 16:20:00,METAR LSGS 241620Z 25015KT CAVOK 15/M00 Q1019,1,0,0,9999,0,0,0,
2026-03-24 15:50:00,METAR LSGS 241550Z 25013KT CAVOK 16/M00 Q1019,1,0,0,9999,0,0,0,
2026-03-24 15:20:00,METAR LSGS 241520Z 24012KT CAVOK 16/M00 Q1019,1,0,0,9999,0,0,0,
2026-03-24 14:50:00,METAR LSGS 241450Z 25012KT CAVOK 16/00 Q1019,1,0,0,9999,0,0,0,
2026-03-24 14:20:00,METAR LSGS 241420Z 25012KT CAVOK 16/M00 Q1020,1,0,0,9999,0,0,0,
2026-03-24 13:50:00,METAR LSGS 241350Z 26010KT CAVOK 16/00 Q1020,1,0,0,9999,0,0,0,
2026-03-24 13:20:00,METAR LSGS 241320Z 25009KT CAVOK 16/01 Q1020,1,0,0,9999,0,0,0,
2026-03-24 12:50:00,METAR LSGS 241250Z 25007KT CAVOK 16/01 Q1021,1,0,0,9999,0,0,0,
2026-03-24 12:20:00,METAR LSGS 241220Z 24005KT 200V310 CAVOK 14/M00 Q1021,1,0,0,9999,0,0,0,
2026-03-24 11:50:00,METAR LSGS 241150Z 24005KT 130V280 CAVOK 14/01 Q1021,1,0,0,9999,0,0,0,
2026-03-24 11:20:00,METAR LSGS 241120Z 24004KT 190V270 CAVOK 13/M02 Q1022,1,0,0,9999,0,0,0,
2026-03-24 10:50:00,METAR LSGS 241050Z VRB02KT CAVOK 12/M03 Q1022,1,0,0,9999,0,0,0,
2026-03-24 10:20:00,METAR LSGS 241020Z VRB02KT CAVOK 12/M02 Q1023,1,0,0,9999,0,0,0,
2026-03-24 09:50:00,METAR LSGS 240950Z VRB02KT CAVOK 10/M02 Q1023,1,0,0,9999,0,0,0,
2026-03-24 09:20:00,METAR LSGS 240920Z VRB03KT CAVOK 09/M01 Q1024,1,0,0,9999,0,0,0,
2026-03-24 08:50:00,METAR LSGS 240850Z 06004KT 010V110 CAVOK 08/M01 Q1024,1,0,0,9999,0,0,0,
2026-03-24 08:20:00,METAR LSGS 240820Z 07005KT CAVOK 07/M01 Q1024,1,0,0,9999,0,0,0,
2026-03-24 07:50:00,METAR LSGS 240750Z 06006KT CAVOK 06/M00 Q1024,1,0,0,9999,0,0,0,
2026-03-24 07:20:00,METAR LSGS 240720Z 08006KT CAVOK 05/00 Q1024,1,0,0,9999,0,0,0,
2026-03-24 06:50:00,METAR LSGS 240650Z 08005KT CAVOK 04/M01 Q1024,1,0,0,9999,0,0,0,
2026-03-24 06:20:00,METAR LSGS 240620Z AUTO 12003KT 080V160 CAVOK 03/M01 Q1024,1,0,0,9999,0,0,0,
2026-03-24 05:50:00,METAR LSGS 240550Z AUTO 09005KT CAVOK 02/M01 Q1024,1,0,0,9999,0,0,0,
2026-03-24 05:20:00,METAR LSGS 240520Z AUTO VRB01KT CAVOK 01/M00 Q1024,1,0,0,9999,0,0,0,
2026-03-24 04:50:00,METAR LSGS 240450Z AUTO 10003KT CAVOK 01/M01 Q1023,1,0,0,9999,0,0,0,
2026-03-24 04:20:00,METAR LSGS 240420Z AUTO VRB02KT 9999 NCD 01/M01 Q1023,0,2,0,10000,0,0,0,
2026-03-24 03:50:00,METAR LSGS 240350Z AUTO VRB02KT CAVOK 02/00 Q1023,1,0,0,9999,0,0,0,
2026-03-24 03:20:00,METAR LSGS 240320Z AUTO VRB01KT CAVOK 03/M00 Q1023,1,0,0,9999,0,0,0,
2026-03-24 02:50:00,METAR LSGS 240250Z AUTO VRB02KT CAVOK 02/M01 Q1022,1,0,0,9999,0,0,0,
2026-03-24 02:20:00,METAR LSGS 240220Z AUTO VRB03KT 9999 NCD 03/00 Q1022,0,3,0,10000,0,0,0,
2026-03-24 01:50:00,METAR LSGS 240150Z AUTO 13003KT 9999 SCT070 03/00 Q1022,0,3,0,10000,0,0,0,
2026-03-24 01:20:00,METAR LSGS 240120Z AUTO VRB01KT 9999 OVC070 04/00 Q1022,0,1,0,10000,0,0,0,
2026-03-24 00:50:00,METAR LSGS 240050Z AUTO VRB01KT CAVOK 04/00 Q1022,1,0,0,9999,0,0,0,
2026-03-24 00:20:00,METAR LSGS 240020Z AUTO 09002KT 9999 NCD 04/00 Q1022,0,2,0,10000,0,0,0,
2026-03-23 23:50:00,METAR LSGS 232350Z AUTO VRB01KT 9999 SCT070 04/00 Q1022,0,1,0,10000,0,0,0,
2026-03-23 23:20:00,METAR LSGS 232320Z AUTO VRB01KT 9999 FEW065 05/00 Q1021,0,1,0,10000,0,0,0,
2026-03-23 22:50:00,METAR LSGS 232250Z AUTO 06004KT CAVOK 05/00 Q1021,1,0,0,9999,0,0,0,
2026-03-23 22:20:00,METAR LSGS 232220Z AUTO VRB02KT CAVOK 05/01 Q1021,1,0,0,9999,0,0,0,
2026-03-23 21:50:00,METAR LSGS 232150Z AUTO 11003KT CAVOK 05/M00 Q1021,1,0,0,9999,0,0,0,
2026-03-23 21:20:00,METAR LSGS 232120Z AUTO 09004KT 060V130 CAVOK 07/01 Q1021,1,0,0,9999,0,0,0,
2026-03-23 20:50:00,METAR LSGS 232050Z AUTO VRB03KT CAVOK 08/M01 Q1020,1,0,0,9999,0,0,0,
2026-03-23 20:20:00,METAR LSGS 232020Z AUTO 12002KT CAVOK 09/00 Q1020,1,0,0,9999,0,0,0,
2026-03-23 19:50:00,METAR LSGS 231950Z AUTO VRB03KT 9999 NCD 09/01 Q1020,0,3,0,10000,0,0,0,
2026-03-23 19:20:00,METAR LSGS 231920Z AUTO VRB03KT 9999 BKN075 10/01 Q1020,0,3,0,10000,0,0,0,
2026-03-23 18:50:00,METAR LSGS 231850Z AUTO 25003KT 180V320 9999 BKN075 11/01 Q1019,0,3,0,10000,0,0,0,
2026-03-23 18:20:00,METAR LSGS 231820Z AUTO 25009KT 9999 BKN090 11/01 Q1019,0,9,0,10000,0,0,0,
2026-03-23 17:50:00,METAR LSGS 231750Z AUTO 25008KT 9999 OVC095 12/01 Q1018,0,8,0,10000,0,0,0,
2026-03-23 17:20:00,METAR LSGS 231720Z 26011KT 9999 BKN095 12/02 Q1018,0,11,0,10000,0,0,0,
2026-03-23 16:50:00,METAR LSGS 231650Z 25011KT 9999 BKN100 13/01 Q1017,0,11,0,10000,0,0,0,
2026-03-23 16:20:00,METAR LSGS 231620Z 25012KT 9999 FEW080 BKN095 13/02 Q1017,0,12,0,10000,0,0,0,
2026-03-23 15:50:00,METAR LSGS 231550Z 25013KT 9999 SCT085 13/01 Q1017,0,13,0,10000,0,0,0,
2026-03-23 15:20:00,METAR LSGS 231520Z 25015KT 9999 FEW080 BKN090 13/01 Q1016,0,15,0,10000,0,0,0,
2026-03-23 14:50:00,METAR LSGS 231450Z 24013KT 9999 BKN085 14/02 Q1016,0,13,0,10000,0,0,0,
2026-03-23 14:20:00,METAR LSGS 231420Z 25015KT 9999 BKN090 14/01 Q1016,0,15,0,10000,0,0,0,
2026-03-23 13:50:00,METAR LSGS 231350Z 25013KT 9999 BKN090 14/M01 Q1016,0,13,0,10000,0,0,0,
2026-03-23 13:20:00,METAR LSGS 231320Z 27010KT 9999 SCT085 BKN095 15/00 Q1016,0,10,0,10000,0,0,0,
2026-03-23 12:50:00,METAR LSGS 231250Z 24009KT 210V270 9999 BKN085 15/00 Q1016,0,9,0,10000,0,0,0,
2026-03-23 12:20:00,METAR LSGS 231220Z 24007KT 200V280 9999 SCT090 14/01 Q1017,0,7,0,10000,0,0,0,
2026-03-23 11:50:00,METAR LSGS 231150Z 24005KT 200V290 9999 FEW090 13/00 Q1017,0,5,0,10000,0,0,0,
2026-03-23 11:20:00,METAR LSGS 231120Z 23003KT 190V280 9999 FEW085 11/M03 Q1018,0,3,0,10000,0,0,0,
2026-03-23 10:50:00,METAR LSGS 231050Z 20005KT 140V260 9999 FEW085 10/M02 Q1018,0,5,0,10000,0,0,0,
2026-03-23 10:20:00,METAR LSGS 231020Z VRB04KT 9999 FEW080 09/M03 Q1018,0,4,0,10000,0,0,0,
2026-03-23 09:50:00,METAR LSGS 230950Z VRB03KT 9999 FEW080 08/M03 Q1018,0,3,0,10000,0,0,0,
2026-03-23 09:20:00,METAR LSGS 230920Z VRB02KT 9999 FEW080 08/M03 Q1018,0,2,0,10000,0,0,0,
2026-03-23 08:50:00,METAR LSGS 230850Z VRB02KT CAVOK 07/M02 Q1018,1,0,0,9999,0,0,0,
2026-03-23 08:20:00,METAR LSGS 230820Z VRB02KT CAVOK 06/M03 Q1018,1,0,0,9999,0,0,0,
2026-03-23 07:50:00,METAR LSGS 230750Z VRB02KT 9999 FEW085 05/M01 Q1018,0,2,0,10000,0,0,0,
2026-03-23 07:20:00,METAR LSGS 230720Z VRB01KT 9999 FEW075 04/M01 Q1018,0,1,0,10000,0,0,0,
2026-03-23 06:50:00,METAR LSGS 230650Z VRB03KT 9999 FEW070 03/M01 Q1018,0,3,0,10000,0,0,0,
2026-03-23 06:20:00,METAR LSGS 230620Z 07004KT 9999 FEW050 02/M01 Q1018,0,4,0,10000,0,0,0,
2026-03-23 05:50:00,METAR LSGS 230550Z AUTO 12002KT CAVOK 02/M01 Q1018,1,0,0,9999,0,0,0,
2026-03-23 05:20:00,METAR LSGS 230520Z AUTO 09003KT 9999 NCD 02/M01 Q1017,0,3,0,10000,0,0,0,
2026-03-23 04:50:00,METAR LSGS 230450Z AUTO 09004KT 9999 FEW090 02/M00 Q1017,0,4,0,10000,0,0,0,
2026-03-23 04:20:00,METAR LSGS 230420Z AUTO VRB01KT 9999 BKN085 03/M00 Q1017,0,1,0,10000,0,0,0,
2026-03-23 03:50:00,METAR LSGS 230350Z AUTO 00000KT 9999 BKN075 03/M00 Q1017,0,0,0,10000,0,0,0,
2026-03-23 03:20:00,METAR LSGS 230320Z AUTO VRB01KT 9999 BKN080 02/M00 Q1017,0,1,0,10000,0,0,0,
2026-03-23 02:50:00,METAR LSGS 230250Z AUTO VRB02KT 9999 BKN080 03/M01 Q1016,0,2,0,10000,0,0,0,
2026-03-23 02:20:00,METAR LSGS 230220Z AUTO 07005KT CAVOK 03/M01 Q1016,1,0,0,9999,0,0,0,
2026-03-23 01:50:00,METAR LSGS 230150Z AUTO 07003KT CAVOK 03/M00 Q1016,1,0,0,9999,0,0,0,
2026-03-23 01:20:00,METAR LSGS 230120Z AUTO 06005KT CAVOK 03/M00 Q1016,1,0,0,9999,0,0,0,
2026-03-23 00:50:00,METAR LSGS 230050Z AUTO 05005KT CAVOK 03/M00 Q1016,1,0,0,9999,0,0,0,
2026-03-23 00:20:00,METAR LSGS 230020Z AUTO 07005KT 9999 NCD 04/00 Q1016,0,5,0,10000,0,0,0,
2026-03-22 23:50:00,METAR LSGS 222350Z AUTO 09003KT 9999 BKN095 04/01 Q1015,0,3,0,10000,0,0,0,
2026-03-22 23:20:00,METAR LSGS 222320Z AUTO 08004KT 9999 OVC090 04/00 Q1015,0,4,0,10000,0,0,0,
2026-03-22 22:50:00,METAR LSGS 222250Z AUTO 11003KT 9999 OVC090 04/01 Q1015,0,3,0,10000,0,0,0,
2026-03-22 22:20:00,METAR LSGS 222220Z AUTO VRB03KT 9999 OVC095 04/01 Q1015,0,3,0,10000,0,0,0,
2026-03-22 21:50:00,METAR LSGS 222150Z AUTO VRB02KT 9999 BKN095 03/01 Q1015,0,2,0,10000,0,0,0,
2026-03-22 21:20:00,METAR LSGS 222120Z AUTO VRB01KT 9999 SCT095 04/02 Q1015,0,1,0,10000,0,0,0,
2026-03-22 20:50:00,METAR LSGS 222050Z AUTO VRB02KT CAVOK 05/02 Q1014,1,0,0,9999,0,0,0,
2026-03-22 20:20:00,METAR LSGS 222020Z AUTO 28003KT CAVOK 05/02 Q1014,1,0,0,9999,0,0,0,
2026-03-22 19:50:00,METAR LSGS 221950Z AUTO VRB03KT CAVOK 05/02 Q1014,1,0,0,9999,0,0,0,
2026-03-22 19:20:00,METAR LSGS 221920Z AUTO 27005KT CAVOK 06/03 Q1013,1,0,0,9999,0,0,0,
2026-03-22 18:50:00,METAR LSGS 221850Z AUTO 27006KT CAVOK 07/03 Q1013,1,0,0,9999,0,0,0,
2026-03-22 18:20:00,METAR LSGS 221820Z 28008KT 9999 FEW095 08/03 Q1012,0,8,0,10000,0,0,0,
2026-03-22 17:50:00,METAR LSGS 221750Z 27008KT 240V300 9999 NSC 08/03 Q1012,0,8,0,10000,0,0,0,
2026-03-22 17:20:00,METAR LSGS 221720Z 28008KT 250V310 9999 FEW090 09/02 Q1011,0,8,0,10000,0,0,0,
2026-03-22 16:50:00,METAR LSGS 221650Z 27010KT 240V300 9999 FEW090 10/02 Q1011,0,10,0,10000,0,0,0,
2026-03-22 16:20:00,METAR LSGS 221620Z VRB07KT 9999 FEW090 11/02 Q1010,0,7,0,10000,0,0,0,
2026-03-22 15:50:00,METAR LSGS 221550Z VRB12KT 9999 FEW075 11/02 Q1010,0,12,0,10000,0,0,0,
2026-03-22 15:20:00,METAR LSGS 221520Z 07012KT 040V100 9999 SCT085 13/M01 Q1009,0,12,0,10000,0,0,0,
2026-03-22 14:50:00,METAR LSGS 221450Z 07014KT 9999 SCT085 14/M05 Q1009,0,14,0,10000,0,0,0,
2026-03-22 14:20:00,METAR LSGS 221420Z 07014KT 040V100 9999 SCT080 14/M04 Q1009,0,14,0,10000,0,0,0,
2026-03-22 13:50:00,METAR LSGS 221350Z 07014KT 040V100 9999 FEW082 14/M04 Q1009,0,14,0,10000,0,0,0,
2026-03-22 13:20:00,METAR LSGS 221320Z 06016KT 9999 FEW080 15/M02 Q1009,0,16,0,10000,0,0,0,
2026-03-22 12:50:00,METAR LSGS 221250Z 07015KT 030V090 9999 FEW080 14/M02 Q1009,0,15,0,10000,0,0,0,
2026-03-22 12:20:00,METAR LSGS 221220Z 08009KT 040V140 9999 FEW075 13/M03 Q1009,0,9,0,10000,0,0,0,
2026-03-22 11:50:00,METAR LSGS 221150Z 20005KT 110V250 9999 SCT070 12/M03 Q1010,0,5,0,10000,0,0,0,
2026-03-22 11:20:00,METAR LSGS 221120Z 20005KT 120V270 9999 SCT070 12/M02 Q1010,0,5,0,10000,0,0,0,
2026-03-22 10:50:00,METAR LSGS 221050Z VRB03KT 9999 SCT070 12/M01 Q1010,0,3,0,10000,0,0,0,
2026-03-22 10:20:00,METAR LSGS 221020Z VRB03KT 9999 FEW075 11/M00 Q1010,0,3,0,10000,0,0,0,
2026-03-22 09:50:00,METAR LSGS 220950Z VRB02KT 9999 FEW075 10/02 Q1011,0,2,0,10000,0,0,0,
2026-03-22 09:20:00,METAR LSGS 220920Z VRB01KT 9999 FEW070 SCT160 09/03 Q1011,0,1,0,10000,0,0,0,
2026-03-22 08:50:00,METAR LSGS 220850Z VRB02KT 9999 FEW050 SCT070 09/04 Q1011,0,2,0,10000,0,0,0,
2026-03-22 08:20:00,METAR LSGS 220820Z VRB01KT 9999 FEW075 SCT130 08/04 Q1011,0,1,0,10000,0,0,0,
2026-03-22 07:50:00,METAR LSGS 220750Z VRB02KT 9999 FEW080 SCT090 BKN120 06/03 Q1012,0,2,0,10000,0,0,0,
2026-03-22 07:20:00,METAR LSGS 220720Z 29003KT 9999 SCT070 BKN080 05/04 Q1012 REDZ,0,3,0,10000,0,0,0,DZ
2026-03-22 06:50:00,METAR LSGS 220650Z 25005KT 210V280 9999 DZ FEW020 BKN050 05/03 Q1012,0,5,0,10000,0,0,0,DZ
2026-03-22 06:20:00,METAR LSGS 220620Z 26008KT 9999 -RA FEW020 OVC045 05/03 Q1012 REDZ,0,8,0,10000,0,0,0,"-RA,DZ"
2026-03-22 05:50:00,METAR LSGS 220550Z AUTO 26009KT 230V290 9999 -RA BKN/// 05/03 Q1012,0,9,0,10000,0,0,0,-RA
2026-03-22 05:20:00,METAR LSGS 220520Z AUTO VRB03KT 9999 -RA SCT033 BKN039 05/03 Q1011,0,3,0,10000,0,0,0,-RA
2026-03-22 04:50:00,METAR LSGS 220450Z AUTO 11004KT 070V150 9999 -RA BKN027 //////TCU 06/03 Q1011 RERA,0,4,0,10000,0,0,0,"-RA,RA"
2026-03-22 04:20:00,METAR LSGS 220420Z AUTO 07010KT 9999 -RA BKN026 //////TCU 06/02 Q1011,0,10,0,10000,0,0,0,-RA
2026-03-22 03:50:00,METAR LSGS 220350Z AUTO 08008KT 9999 -RA BKN031 07/03 Q1011,0,8,0,10000,0,0,0,-RA
2026-03-22 03:20:00,METAR LSGS 220320Z AUTO VRB02KT 9999 -RA FEW024 BKN030 06/04 Q1011,0,2,0,10000,0,0,0,-RA
2026-03-22 02:50:00,METAR LSGS 220250Z AUTO VRB02KT 9999 FEW026 OVC030 06/04 Q1011,0,2,0,10000,0,0,0,
2026-03-22 02:20:00,METAR LSGS 220220Z AUTO 12004KT 9999 SCT028 SCT031 BKN048 06/04 Q1011 REDZ,0,4,0,10000,0,0,0,DZ
2026-03-22 01:50:00,METAR LSGS 220150Z AUTO 09005KT 9999 DZ FEW025 BKN031 BKN035 06/05 Q1011,0,5,0,10000,0,0,0,DZ
2026-03-22 01:20:00,METAR LSGS 220120Z AUTO 09005KT 9999 -RA SCT032 OVC042 06/05 Q1011,0,5,0,10000,0,0,0,-RA
2026-03-22 00:50:00,METAR LSGS 220050Z AUTO 03004KT 9999 -RA OVC035 07/05 Q1011,0,4,0,10000,0,0,0,-RA
2026-03-22 00:20:00,METAR LSGS 220020Z AUTO VRB01KT 9999 -RA FEW027 BKN033 07/05 Q1011 RERA,0,1,0,10000,0,0,0,"-RA,RA"
2026-03-21 23:50:00,METAR LSGS 212350Z AUTO VRB03KT 9999 RA BKN034 07/04 Q1012,0,3,0,10000,0,0,0,RA
2026-03-21 23:20:00,METAR LSGS 212320Z AUTO 05004KT 020V080 9999 -RA BKN037 BKN041 08/04 Q1011,0,4,0,10000,0,0,0,-RA
2026-03-21 22:50:00,METAR LSGS 212250Z AUTO 12004KT 080V230 9999 -RA BKN042 09/02 Q1011,0,4,0,10000,0,0,0,-RA
2026-03-21 22:20:00,METAR LSGS 212220Z AUTO 19007KT 130V250 9999 -RA BKN050 10/03 Q1011,0,7,0,10000,0,0,0,-RA
2026-03-21 21:50:00,METAR LSGS 212150Z AUTO 07005KT 9999 -RA BKN065 10/01 Q1010,0,5,0,10000,0,0,0,-RA
2026-03-21 21:20:00,METAR LSGS 212120Z AUTO 07007KT 9999 FEW070 BKN080 BKN090 11/00 Q1010,0,7,0,10000,0,0,0,
2026-03-21 20:50:00,METAR LSGS 212050Z AUTO VRB02KT 9999 BKN090 11/00 Q1010,0,2,0,10000,0,0,0,
2026-03-21 20:20:00,METAR LSGS 212020Z AUTO VRB02KT 9999 OVC095 10/01 Q1010,0,2,0,10000,0,0,0,
2026-03-21 19:50:00,METAR LSGS 211950Z AUTO VRB02KT 9999 FEW110 BKN130 10/00 Q1010,0,2,0,10000,0,0,0,
2026-03-21 19:20:00,METAR LSGS 211920Z AUTO 29003KT 9999 BKN140 BKN150 11/M00 Q1010,0,3,0,10000,0,0,0,
2026-03-21 18:50:00,METAR LSGS 211850Z AUTO VRB02KT 9999 FEW120 SCT140 BKN160 11/M00 Q1010,0,2,0,10000,0,0,0,
2026-03-21 18:20:00,METAR LSGS 211820Z AUTO 26006KT 9999 OVC110 11/M00 Q1010,0,6,0,10000,0,0,0,
2026-03-21 17:50:00,METAR LSGS 211750Z AUTO 25007KT 9999 OVC110 12/M01 Q1009,0,7,0,10000,0,0,0,
2026-03-21 17:20:00,METAR LSGS 211720Z AUTO 25012KT 9999 FEW080 SCT090 BKN100 13/00 Q1009,0,12,0,10000,0,0,0,
2026-03-21 16:50:00,METAR LSGS 211650Z 23003KT 180V270 9999 FEW100 BKN110 15/01 Q1009,0,3,0,10000,0,0,0,
2026-03-21 16:20:00,METAR LSGS 211620Z 26006KT 230V330 9999 FEW090 BKN100 BKN110 14/M00 Q1009,0,6,0,10000,0,0,0,
2026-03-21 15:50:00,METAR LSGS 211550Z 29013KT 220V320 9999 FEW090 BKN100 15/M02 Q1009,0,13,0,10000,0,0,0,
2026-03-21 14:50:00,METAR LSGS 211450Z 25011KT 9999 SCT100 BKN110 15/01 Q1009,0,11,0,10000,0,0,0,
2026-03-21 14:20:00,METAR LSGS 211420Z 25012KT 9999 BKN090 15/01 Q1009,0,12,0,10000,0,0,0,
2026-03-21 13:50:00,METAR LSGS 211350Z 25011KT 9999 BKN080 15/00 Q1010,0,11,0,10000,0,0,0,
2026-03-21 13:20:00,METAR LSGS 211320Z 25013KT 9999 SCT090 15/01 Q1010,0,13,0,10000,0,0,0,
2026-03-21 12:50:00,METAR LSGS 211250Z 25009KT 200V280 9999 SCT100 SCT110 15/02 Q1010,0,9,0,10000,0,0,0,
2026-03-21 12:20:00,METAR LSGS 211220Z 25010KT 220V280 9999 FEW100 SCT110 13/00 Q1011,0,10,0,10000,0,0,0,
2026-03-21 11:50:00,METAR LSGS 211150Z 24007KT 210V270 9999 FEW085 BKN100 13/01 Q1011,0,7,0,10000,0,0,0,
2026-03-21 11:20:00,METAR LSGS 211120Z 23006KT 170V290 9999 FEW080 SCT110 13/01 Q1012,0,6,0,10000,0,0,0,
2026-03-21 10:50:00,METAR LSGS 211050Z 25006KT 210V290 9999 FEW075 12/M01 Q1012,0,6,0,10000,0,0,0,
2026-03-21 10:20:00,METAR LSGS 211020Z VRB03KT 9999 FEW075 11/M01 Q1012,0,3,0,10000,0,0,0,
2026-03-21 09:50:00,METAR LSGS 210950Z VRB02KT 9999 FEW070 10/M00 Q1013,0,2,0,10000,0,0,0,
2026-03-21 09:20:00,METAR LSGS 210920Z VRB02KT 9999 FEW070 10/M00 Q1013,0,2,0,10000,0,0,0,
2026-03-21 08:50:00,METAR LSGS 210850Z VRB02KT 9999 FEW070 08/M02 Q1014,0,2,0,10000,0,0,0,
2026-03-21 08:20:00,METAR LSGS 210820Z 07004KT CAVOK 07/M01 Q1014,1,0,0,9999,0,0,0,
2026-03-21 07:50:00,METAR LSGS 210750Z 08004KT 9999 NSC 06/M00 Q1014,0,4,0,10000,0,0,0,
2026-03-21 07:20:00,METAR LSGS 210720Z AUTO 08005KT CAVOK 05/M00 Q1015,1,0,0,9999,0,0,0,
2026-03-21 06:50:00,METAR LSGS 210650Z 06004KT CAVOK 02/M02 Q1015,1,0,0,9999,0,0,0,
2026-03-21 06:20:00,METAR LSGS 210620Z AUTO 09003KT CAVOK 02/M02 Q1015,1,0,0,9999,0,0,0,
2026-03-21 05:50:00,METAR LSGS 210550Z AUTO 08004KT CAVOK 01/M02 Q1014,1,0,0,9999,0,0,0,
2026-03-21 05:20:00,METAR LSGS 210520Z AUTO 09003KT CAVOK 01/M02 Q1014,1,0,0,9999,0,0,0,
2026-03-21 04:50:00,METAR LSGS 210450Z AUTO 09003KT CAVOK 01/M02 Q1014,1,0,0,9999,0,0,0,
2026-03-21 04:20:00,METAR LSGS 210420Z AUTO VRB01KT CAVOK 01/M02 Q1014,1,0,0,9999,0,0,0,
2026-03-21 03:50:00,METAR LSGS 210350Z AUTO 09002KT CAVOK 02/M01 Q1014,1,0,0,9999,0,0,0,
2026-03-21 03:20:00,METAR LSGS 210320Z AUTO 07003KT CAVOK 01/M02 Q1014,1,0,0,9999,0,0,0,
2026-03-21 02:50:00,METAR LSGS 210250Z AUTO VRB02KT CAVOK 03/M01 Q1014,1,0,0,9999,0,0,0,
2026-03-21 02:20:00,METAR LSGS 210220Z AUTO 08002KT CAVOK 03/M01 Q1014,1,0,0,9999,0,0,0,
2026-03-21 01:50:00,METAR LSGS 210150Z AUTO 08004KT 9999 FEW160 04/M01 Q1014,0,4,0,10000,0,0,0,
2026-03-21 01:20:00,METAR LSGS 210120Z AUTO 07002KT 9999 NCD 03/M01 Q1014,0,2,0,10000,0,0,0,
2026-03-21 00:50:00,METAR LSGS 210050Z AUTO VRB01KT CAVOK 03/M01 Q1015,1,0,0,9999,0,0,0,
2026-03-21 00:20:00,METAR LSGS 210020Z AUTO VRB01KT 9999 NSC 04/M01 Q1015,0,1,0,10000,0,0,0,
2026-03-20 23:50:00,METAR LSGS 202350Z AUTO VRB01KT 9999 NSC 04/M01 Q1015,0,1,0,10000,0,0,0,
2026-03-20 23:20:00,METAR LSGS 202320Z AUTO VRB02KT CAVOK 05/M00 Q1015,1,0,0,9999,0,0,0,
2026-03-20 22:50:00,METAR LSGS 202250Z AUTO VRB01KT CAVOK 05/M00 Q1015,1,0,0,9999,0,0,0,
2026-03-20 22:20:00,METAR LSGS 202220Z AUTO VRB01KT CAVOK 07/M01 Q1015,1,0,0,9999,0,0,0,
2026-03-20 21:50:00,METAR LSGS 202150Z AUTO 09005KT 9999 NCD 07/M01 Q1015,0,5,0,10000,0,0,0,
2026-03-20 21:20:00,METAR LSGS 202120Z AUTO 08005KT 9999 NSC 06/00 Q1015,0,5,0,10000,0,0,0,
2026-03-20 20:50:00,METAR LSGS 202050Z AUTO VRB03KT 9999 NSC 07/01 Q1015,0,3,0,10000,0,0,0,
2026-03-20 20:20:00,METAR LSGS 202020Z AUTO VRB02KT CAVOK 07/00 Q1015,1,0,0,9999,0,0,0,
2026-03-20 19:50:00,METAR LSGS 201950Z AUTO VRB02KT 9999 NCD 09/01 Q1014,0,2,0,10000,0,0,0,
2026-03-20 19:20:00,METAR LSGS 201920Z VRB02KT CAVOK 10/00 Q1014,1,0,0,9999,0,0,0,
2026-03-20 18:50:00,METAR LSGS 201850Z VRB03KT CAVOK 11/01 Q1014,1,0,0,9999,0,0,0,
2026-03-20 18:20:00,METAR LSGS 201820Z 26008KT CAVOK 11/01 Q1014,1,0,0,9999,0,0,0,
2026-03-20 17:50:00,METAR LSGS 201750Z 27007KT CAVOK 12/01 Q1014,1,0,0,9999,0,0,0,
2026-03-20 17:20:00,METAR LSGS 201720Z 27010KT CAVOK 12/01 Q1013,1,0,0,9999,0,0,0,
2026-03-20 16:50:00,METAR LSGS 201650Z 26016KT CAVOK 13/01 Q1013,1,0,0,9999,0,0,0,
2026-03-20 16:20:00,METAR LSGS 201620Z 25017KT CAVOK 14/01 Q1013,1,0,0,9999,0,0,0,
2026-03-20 15:50:00,METAR LSGS 201550Z 25015KT CAVOK 15/01 Q1013,1,0,0,9999,0,0,0,
2026-03-20 15:20:00,METAR LSGS 201520Z 25015KT 9999 FEW085 15/02 Q1013,0,15,0,10000,0,0,0,
2026-03-20 14:50:00,METAR LSGS 201450Z 26013KT 9999 FEW085 16/01 Q1014,0,13,0,10000,0,0,0,
2026-03-20 14:20:00,METAR LSGS 201420Z 26012KT CAVOK 15/01 Q1014,1,0,0,9999,0,0,0,
2026-03-20 13:50:00,METAR LSGS 201350Z 25013KT CAVOK 15/01 Q1014,1,0,0,9999,0,0,0,
2026-03-20 13:20:00,METAR LSGS 201320Z 26012KT CAVOK 15/01 Q1015,1,0,0,9999,0,0,0,
2026-03-20 12:50:00,METAR LSGS 201250Z 26010KT CAVOK 15/01 Q1015,1,0,0,9999,0,0,0,
2026-03-20 12:20:00,METAR LSGS 201220Z 24008KT CAVOK 14/M01 Q1016,1,0,0,9999,0,0,0,
2026-03-20 11:50:00,METAR LSGS 201150Z 25005KT 180V290 CAVOK 14/M01 Q1016,1,0,0,9999,0,0,0,
2026-03-20 11:20:00,METAR LSGS 201120Z VRB04KT CAVOK 12/M03 Q1016,1,0,0,9999,0,0,0,
2026-03-20 10:50:00,METAR LSGS 201050Z 23004KT 140V270 CAVOK 12/M02 Q1017,1,0,0,9999,0,0,0,
2026-03-20 10:20:00,METAR LSGS 201020Z VRB02KT CAVOK 12/M02 Q1017,1,0,0,9999,0,0,0,
2026-03-20 09:50:00,METAR LSGS 200950Z VRB02KT CAVOK 10/M03 Q1018,1,0,0,9999,0,0,0,
2026-03-20 09:20:00,METAR LSGS 200920Z 09004KT CAVOK 09/M02 Q1018,1,0,0,9999,0,0,0,
2026-03-20 08:50:00,METAR LSGS 200850Z 06005KT CAVOK 08/M02 Q1019,1,0,0,9999,0,0,0,
2026-03-20 08:20:00,METAR LSGS 200820Z VRB04KT CAVOK 07/M01 Q1019,1,0,0,9999,0,0,0,
2026-03-20 07:50:00,METAR LSGS 200750Z 08005KT CAVOK 06/M00 Q1019,1,0,0,9999,0,0,0,
2026-03-20 07:20:00,METAR LSGS 200720Z VRB04KT CAVOK 05/M00 Q1019,1,0,0,9999,0,0,0,
2026-03-20 06:50:00,METAR LSGS 200650Z 07005KT CAVOK 03/M01 Q1019,1,0,0,9999,0,0,0,
2026-03-20 06:20:00,METAR LSGS 200620Z AUTO VRB02KT CAVOK 02/M01 Q1019,1,0,0,9999,0,0,0,
2026-03-20 05:50:00,METAR LSGS 200550Z AUTO 10004KT 080V150 CAVOK 01/M01 Q1019,1,0,0,9999,0,0,0,
2026-03-20 05:20:00,METAR LSGS 200520Z AUTO 12003KT CAVOK 02/M01 Q1019,1,0,0,9999,0,0,0,
2026-03-20 04:50:00,METAR LSGS 200450Z AUTO VRB02KT CAVOK 01/M01 Q1018,1,0,0,9999,0,0,0,
2026-03-20 04:20:00,METAR LSGS 200420Z AUTO 12003KT CAVOK 01/M01 Q1018,1,0,0,9999,0,0,0,
2026-03-20 03:50:00,METAR LSGS 200350Z AUTO VRB02KT CAVOK 01/M01 Q1018,1,0,0,9999,0,0,0,
2026-03-20 03:20:00,METAR LSGS 200320Z AUTO VRB01KT CAVOK 02/00 Q1018,1,0,0,9999,0,0,0,
2026-03-20 02:50:00,METAR LSGS 200250Z AUTO VRB02KT CAVOK 03/M00 Q1018,1,0,0,9999,0,0,0,
2026-03-20 02:20:00,METAR LSGS 200220Z AUTO 13003KT CAVOK 01/M01 Q1018,1,0,0,9999,0,0,0,
2026-03-20 01:50:00,METAR LSGS 200150Z AUTO VRB01KT CAVOK 03/M00 Q1018,1,0,0,9999,0,0,0,
2026-03-20 01:20:00,METAR LSGS 200120Z AUTO VRB02KT CAVOK 03/M01 Q1018,1,0,0,9999,0,0,0,
2026-03-20 00:50:00,METAR LSGS 200050Z AUTO 06005KT CAVOK 05/M01 Q1018,1,0,0,9999,0,0,0,
2026-03-20 00:20:00,METAR LSGS 200020Z AUTO 09005KT CAVOK 06/M01 Q1018,1,0,0,9999,0,0,0,
2026-03-19 23:50:00,METAR LSGS 192350Z AUTO 10004KT CAVOK 03/M00 Q1018,1,0,0,9999,0,0,0,
2026-03-19 23:20:00,METAR LSGS 192320Z AUTO VRB01KT CAVOK 04/M00 Q1018,1,0,0,9999,0,0,0,
2026-03-19 22:50:00,METAR LSGS 192250Z AUTO VRB01KT CAVOK 05/00 Q1018,1,0,0,9999,0,0,0,
2026-03-19 22:20:00,METAR LSGS 192220Z AUTO VRB01KT CAVOK 05/M00 Q1018,1,0,0,9999,0,0,0,
2026-03-19 21:50:00,METAR LSGS 192150Z AUTO 12004KT 090V150 CAVOK 06/M00 Q1018,1,0,0,9999,0,0,0,
2026-03-19 21:20:00,METAR LSGS 192120Z AUTO 10003KT 060V120 CAVOK 07/M01 Q1018,1,0,0,9999,0,0,0,
2026-03-19 20:50:00,METAR LSGS 192050Z AUTO 10005KT CAVOK 08/M01 Q1018,1,0,0,9999,0,0,0,
2026-03-19 20:20:00,METAR LSGS 192020Z AUTO 08006KT CAVOK 08/M01 Q1017,1,0,0,9999,0,0,0,
2026-03-19 19:50:00,METAR LSGS 191950Z AUTO 09005KT CAVOK 08/02 Q1017,1,0,0,9999,0,0,0,
2026-03-19 19:20:00,METAR LSGS 191920Z AUTO 06004KT 9999 NCD 10/02 Q1017,0,4,0,10000,0,0,0,
2026-03-19 18:50:00,METAR LSGS 191850Z AUTO VRB03KT 9999 NSC 11/02 Q1017,0,3,0,10000,0,0,0,
2026-03-19 18:20:00,METAR LSGS 191820Z 23007KT 200V270 CAVOK 11/02 Q1016,1,0,0,9999,0,0,0,
2026-03-19 17:50:00,METAR LSGS 191750Z 28008KT CAVOK 12/02 Q1016,1,0,0,9999,0,0,0,
2026-03-19 17:20:00,METAR LSGS 191720Z 27011KT CAVOK 13/02 Q1015,1,0,0,9999,0,0,0,
2026-03-19 16:50:00,METAR LSGS 191650Z 26014KT CAVOK 14/02 Q1015,1,0,0,9999,0,0,0,
2026-03-19 16:20:00,METAR LSGS 191620Z 25016KT CAVOK 15/03 Q1015,1,0,0,9999,0,0,0,
2026-03-19 15:50:00,METAR LSGS 191550Z 26014KT CAVOK 15/02 Q1015,1,0,0,9999,0,0,0,
2026-03-19 15:20:00,METAR LSGS 191520Z 26016KT CAVOK 15/02 Q1015,1,0,0,9999,0,0,0,
2026-03-19 14:50:00,METAR LSGS 191450Z 25015KT CAVOK 15/00 Q1016,1,0,0,9999,0,0,0,
2026-03-19 14:20:00,METAR LSGS 191420Z 25014KT CAVOK 16/M01 Q1016,1,0,0,9999,0,0,0,
2026-03-19 13:50:00,METAR LSGS 191350Z 26012KT CAVOK 16/M02 Q1016,1,0,0,9999,0,0,0,
2026-03-19 13:20:00,METAR LSGS 191320Z 25010KT CAVOK 16/M00 Q1017,1,0,0,9999,0,0,0,
2026-03-19 12:50:00,METAR LSGS 191250Z 25008KT 220V280 CAVOK 15/M03 Q1017,1,0,0,9999,0,0,0,
2026-03-19 12:20:00,METAR LSGS 191220Z 24006KT 180V300 CAVOK 15/M02 Q1018,1,0,0,9999,0,0,0,
2026-03-19 11:50:00,METAR LSGS 191150Z 26005KT 230V310 CAVOK 14/M03 Q1018,1,0,0,9999,0,0,0,
2026-03-19 11:20:00,METAR LSGS 191120Z 25003KT 160V320 CAVOK 13/M04 Q1019,1,0,0,9999,0,0,0,
2026-03-19 10:50:00,METAR LSGS 191050Z VRB02KT CAVOK 13/M02 Q1019,1,0,0,9999,0,0,0,
2026-03-19 10:20:00,METAR LSGS 191020Z VRB03KT CAVOK 12/M03 Q1020,1,0,0,9999,0,0,0,
2026-03-19 09:50:00,METAR LSGS 190950Z VRB02KT CAVOK 11/M02 Q1020,1,0,0,9999,0,0,0,
2026-03-19 09:20:00,METAR LSGS 190920Z VRB02KT CAVOK 09/M02 Q1021,1,0,0,9999,0,0,0,
2026-03-19 08:50:00,METAR LSGS 190850Z AUTO VRB02KT CAVOK 08/M02 Q1021,1,0,0,9999,0,0,0,
2026-03-19 08:20:00,METAR LSGS 190820Z VRB02KT CAVOK 07/M01 Q1021,1,0,0,9999,0,0,0,
2026-03-19 07:50:00,METAR LSGS 190750Z VRB02KT CAVOK 05/M02 Q1021,1,0,0,9999,0,0,0,
2026-03-19 07:20:00,METAR LSGS 190720Z VRB02KT CAVOK 04/M02 Q1021,1,0,0,9999,0,0,0,
2026-03-19 06:50:00,METAR LSGS 190650Z 07003KT CAVOK 03/M03 Q1021,1,0,0,9999,0,0,0,
2026-03-19 06:20:00,METAR LSGS 190620Z AUTO VRB03KT CAVOK 03/M03 Q1021,1,0,0,9999,0,0,0,
2026-03-19 05:50:00,METAR LSGS 190550Z AUTO 07006KT CAVOK 01/M03 Q1021,1,0,0,9999,0,0,0,
2026-03-19 05:20:00,METAR LSGS 190520Z AUTO 07006KT CAVOK 02/M03 Q1020,1,0,0,9999,0,0,0,
2026-03-19 04:50:00,METAR LSGS 190450Z AUTO 09004KT CAVOK 02/M03 Q1020,1,0,0,9999,0,0,0,
2026-03-19 04:20:00,METAR LSGS 190420Z AUTO 07006KT CAVOK 03/M03 Q1020,1,0,0,9999,0,0,0,
2026-03-19 03:50:00,METAR LSGS 190350Z AUTO 07005KT CAVOK 03/M03 Q1020,1,0,0,9999,0,0,0,
2026-03-19 03:20:00,METAR LSGS 190320Z AUTO 02004KT 340V090 CAVOK 03/M03 Q1020,1,0,0,9999,0,0,0,
2026-03-19 02:50:00,METAR LSGS 190250Z AUTO 08005KT CAVOK 04/M03 Q1020,1,0,0,9999,0,0,0,
2026-03-19 02:20:00,METAR LSGS 190220Z AUTO 06006KT CAVOK 04/M03 Q1020,1,0,0,9999,0,0,0,
2026-03-19 01:50:00,METAR LSGS 190150Z AUTO 07006KT CAVOK 04/M03 Q1020,1,0,0,9999,0,0,0,
2026-03-19 01:20:00,METAR LSGS 190120Z AUTO 09004KT 060V120 CAVOK 05/M04 Q1020,1,0,0,9999,0,0,0,
2026-03-19 00:50:00,METAR LSGS 190050Z AUTO 09004KT CAVOK 03/M04 Q1020,1,0,0,9999,0,0,0,
2026-03-19 00:20:00,METAR LSGS 190020Z AUTO 09003KT CAVOK 05/M04 Q1020,1,0,0,9999,0,0,0,
2026-03-18 23:50:00,METAR LSGS 182350Z AUTO 10004KT CAVOK 05/M04 Q1020,1,0,0,9999,0,0,0,
2026-03-18 23:20:00,METAR LSGS 182320Z AUTO 08005KT CAVOK 06/M04 Q1020,1,0,0,9999,0,0,0,
2026-03-18 22:50:00,METAR LSGS 182250Z AUTO VRB02KT CAVOK 06/M04 Q1019,1,0,0,9999,0,0,0,
2026-03-18 22:20:00,METAR LSGS 182220Z AUTO 10005KT CAVOK 05/M03 Q1019,1,0,0,9999,0,0,0,
2026-03-18 21:50:00,METAR LSGS 182150Z AUTO 09004KT 030V140 CAVOK 06/M03 Q1019,1,0,0,9999,0,0,0,
2026-03-18 21:20:00,METAR LSGS 182120Z AUTO VRB03KT CAVOK 05/M02 Q1019,1,0,0,9999,0,0,0,
2026-03-18 20:50:00,METAR LSGS 182050Z AUTO VRB02KT CAVOK 06/M03 Q1018,1,0,0,9999,0,0,0,
2026-03-18 20:20:00,METAR LSGS 182020Z AUTO VRB01KT CAVOK 07/M03 Q1018,1,0,0,9999,0,0,0,
2026-03-18 19:50:00,METAR LSGS 181950Z AUTO VRB01KT CAVOK 07/M03 Q1018,1,0,0,9999,0,0,0,
2026-03-18 19:20:00,METAR LSGS 181920Z AUTO VRB02KT CAVOK 10/M05 Q1017,1,0,0,9999,0,0,0,
2026-03-18 18:50:00,METAR LSGS 181850Z VRB01KT CAVOK 11/M05 Q1017,1,0,0,9999,0,0,0,
2026-03-18 18:20:00,METAR LSGS 181820Z VRB01KT CAVOK 11/M06 Q1016,1,0,0,9999,0,0,0,
2026-03-18 17:50:00,METAR LSGS 181750Z 06003KT 030V100 CAVOK 11/M05 Q1016,1,0,0,9999,0,0,0,
2026-03-18 17:20:00,METAR LSGS 181720Z 06009KT 030V100 CAVOK 14/M06 Q1015,1,0,0,9999,0,0,0,
2026-03-18 16:50:00,METAR LSGS 181650Z 07013KT 030V090 CAVOK 15/M06 Q1015,1,0,0,9999,0,0,0,
2026-03-18 16:20:00,METAR LSGS 181620Z 06014G25KT 030V090 CAVOK 15/M06 Q1014,1,0,0,9999,0,0,0,
2026-03-18 15:50:00,METAR LSGS 181550Z 07017KT CAVOK 15/M06 Q1014,1,0,0,9999,0,0,0,
2026-03-18 15:20:00,METAR LSGS 181520Z 07018KT CAVOK 15/M05 Q1014,1,0,0,9999,0,0,0,
2026-03-18 14:50:00,METAR LSGS 181450Z 07020G30KT 9999 FEW085 15/M05 Q1014,0,20,1,10000,0,0,0,
2026-03-18 14:20:00,METAR LSGS 181420Z 07021KT 9999 FEW090 15/M05 Q1014,0,21,0,10000,0,0,0,
2026-03-18 13:50:00,METAR LSGS 181350Z 07022KT 9999 FEW110 15/M06 Q1014,0,22,0,10000,0,0,0,
2026-03-18 13:20:00,METAR LSGS 181320Z 06022G33KT CAVOK 15/M04 Q1014,1,0,0,9999,0,0,0,
2026-03-18 12:50:00,METAR LSGS 181250Z 07021G33KT 9999 FEW085 15/M06 Q1014,0,21,1,10000,0,0,0,
2026-03-18 12:20:00,METAR LSGS 181220Z 07019KT 9999 FEW100 15/M04 Q1014,0,19,0,10000,0,0,0,
2026-03-18 11:50:00,METAR LSGS 181150Z AUTO 24008KT 210V280 CAVOK 13/M03 Q1014,1,0,0,9999,0,0,0,
2026-03-18 11:20:00,METAR LSGS 181120Z 26010KT 9999 FEW110 10/03 Q1015,0,10,0,10000,0,0,0,
2026-03-18 10:50:00,METAR LSGS 181050Z 23004KT 180V340 9999 SCT070 SCT110 08/03 Q1015,0,4,0,10000,0,0,0,
2026-03-18 10:20:00,METAR LSGS 181020Z VRB01KT 9999 SCT070 BKN085 07/02 Q1015,0,1,0,10000,0,0,0,
2026-03-18 09:50:00,METAR LSGS 180950Z 25004KT 210V280 9999 SCT048 BKN100 07/03 Q1015,0,4,0,10000,0,0,0,
2026-03-18 09:20:00,METAR LSGS 180920Z VRB01KT 9999 SCT048 BKN100 06/02 Q1015,0,1,0,10000,0,0,0,
2026-03-18 08:50:00,METAR LSGS 180850Z VRB02KT 9999 SCT040 BKN090 06/02 Q1015,0,2,0,10000,0,0,0,
2026-03-18 08:20:00,METAR LSGS 180820Z 25003KT 180V290 9999 FEW027 SCT031 BKN070 05/02 Q1015,0,3,0,10000,0,0,0,
2026-03-18 07:50:00,METAR LSGS 180750Z COR 23003KT 190V260 9999 FEW020 SCT029 BKN070 05/02 Q1015,0,3,0,10000,0,0,0,
2026-03-18 07:20:00,METAR LSGS 180720Z 05004KT 9999 FEW020 BKN029 04/02 Q1015,0,4,0,10000,0,0,0,
2026-03-18 06:50:00,METAR LSGS 180650Z 10004KT 070V140 9999 BKN027 03/01 Q1014,0,4,0,10000,0,0,0,
2026-03-18 06:20:00,METAR LSGS 180620Z AUTO VRB03KT 9999 BKN022 BKN026 03/01 Q1014,0,3,0,10000,0,0,0,
2026-03-18 05:50:00,METAR LSGS 180550Z AUTO 08006KT 9999 BKN026 01/00 Q1014,0,6,0,10000,0,0,0,
2026-03-18 05:20:00,METAR LSGS 180520Z AUTO 22003KT 170V300 CAVOK 01/M00 Q1014,1,0,0,9999,0,0,0,
2026-03-18 04:50:00,METAR LSGS 180450Z AUTO VRB02KT CAVOK 02/01 Q1014,1,0,0,9999,0,0,0,
2026-03-18 04:20:00,METAR LSGS 180420Z AUTO VRB01KT CAVOK 01/00 Q1014,1,0,0,9999,0,0,0,
2026-03-18 03:50:00,METAR LSGS 180350Z AUTO VRB02KT 9999 NCD 01/M00 Q1015,0,2,0,10000,0,0,0,
2026-03-18 03:20:00,METAR LSGS 180320Z AUTO 06003KT CAVOK 02/01 Q1015,1,0,0,9999,0,0,0,
2026-03-18 02:50:00,METAR LSGS 180250Z AUTO VRB02KT CAVOK 02/00 Q1015,1,0,0,9999,0,0,0,
2026-03-18 02:20:00,METAR LSGS 180220Z AUTO VRB02KT CAVOK 02/01 Q1015,1,0,0,9999,0,0,0,
2026-03-18 01:50:00,METAR LSGS 180150Z AUTO VRB02KT CAVOK 02/00 Q1015,1,0,0,9999,0,0,0,
2026-03-18 01:20:00,METAR LSGS 180120Z AUTO 11001KT CAVOK 02/01 Q1016,1,0,0,9999,0,0,0,
2026-03-18 00:50:00,METAR LSGS 180050Z AUTO VRB02KT CAVOK 02/00 Q1016,1,0,0,9999,0,0,0,
2026-03-18 00:20:00,METAR LSGS 180020Z AUTO VRB01KT CAVOK 03/01 Q1016,1,0,0,9999,0,0,0,
2026-03-17 23:50:00,METAR LSGS 172350Z AUTO VRB01KT CAVOK 04/03 Q1016,1,0,0,9999,0,0,0,
2026-03-17 23:20:00,METAR LSGS 172320Z AUTO VRB02KT CAVOK 03/01 Q1017,1,0,0,9999,0,0,0,
2026-03-17 22:50:00,METAR LSGS 172250Z AUTO VRB01KT CAVOK 05/02 Q1017,1,0,0,9999,0,0,0,
2026-03-17 22:20:00,METAR LSGS 172220Z AUTO VRB01KT CAVOK 05/02 Q1017,1,0,0,9999,0,0,0,
2026-03-17 21:50:00,METAR LSGS 172150Z AUTO VRB02KT CAVOK 06/02 Q1017,1,0,0,9999,0,0,0,
2026-03-17 21:20:00,METAR LSGS 172120Z AUTO VRB03KT CAVOK 07/02 Q1017,1,0,0,9999,0,0,0,
2026-03-17 20:50:00,METAR LSGS 172050Z AUTO 08005KT CAVOK 07/02 Q1017,1,0,0,9999,0,0,0,
2026-03-17 20:20:00,METAR LSGS 172020Z AUTO 10003KT CAVOK 09/02 Q1017,1,0,0,9999,0,0,0,
2026-03-17 19:50:00,METAR LSGS 171950Z AUTO 09003KT CAVOK 08/02 Q1017,1,0,0,9999,0,0,0,
2026-03-17 19:20:00,METAR LSGS 171920Z AUTO 09003KT CAVOK 09/02 Q1017,1,0,0,9999,0,0,0,
2026-03-17 18:50:00,METAR LSGS 171850Z AUTO VRB02KT CAVOK 10/02 Q1016,1,0,0,9999,0,0,0,
2026-03-17 18:20:00,METAR LSGS 171820Z AUTO VRB03KT CAVOK 12/02 Q1016,1,0,0,9999,0,0,0,
2026-03-17 17:50:00,METAR LSGS 171750Z 26009KT CAVOK 12/02 Q1016,1,0,0,9999,0,0,0,
2026-03-17 17:20:00,METAR LSGS 171720Z 27011KT 9999 FEW120 13/02 Q1016,0,11,0,10000,0,0,0,
2026-03-17 16:50:00,METAR LSGS 171650Z 25013KT 9999 FEW120 14/03 Q1015,0,13,0,10000,0,0,0,
2026-03-17 16:20:00,METAR LSGS 171620Z 27013KT 9999 FEW120 14/02 Q1015,0,13,0,10000,0,0,0,
2026-03-17 15:50:00,METAR LSGS 171550Z 25011KT 9999 FEW120 15/02 Q1015,0,11,0,10000,0,0,0,
2026-03-17 14:50:00,METAR LSGS 171450Z 25009KT CAVOK 15/02 Q1016,1,0,0,9999,0,0,0,
2026-03-17 14:20:00,METAR LSGS 171420Z 25007KT 220V290 CAVOK 15/03 Q1016,1,0,0,9999,0,0,0,
2026-03-17 13:50:00,METAR LSGS 171350Z 26008KT 210V310 CAVOK 14/02 Q1017,1,0,0,9999,0,0,0,
2026-03-17 13:20:00,METAR LSGS 171320Z 24005KT 150V310 CAVOK 14/02 Q1017,1,0,0,9999,0,0,0,
2026-03-17 12:50:00,METAR LSGS 171250Z 22005KT 170V310 CAVOK 13/01 Q1018,1,0,0,9999,0,0,0,
2026-03-17 12:20:00,METAR LSGS 171220Z VRB03KT CAVOK 13/01 Q1019,1,0,0,9999,0,0,0,
2026-03-17 11:50:00,METAR LSGS 171150Z VRB02KT CAVOK 13/M01 Q1019,1,0,0,9999,0,0,0,
2026-03-17 11:20:00,METAR LSGS 171120Z VRB02KT CAVOK 12/01 Q1019,1,0,0,9999,0,0,0,
2026-03-17 10:50:00,METAR LSGS 171050Z AUTO VRB02KT CAVOK 11/02 Q1020,1,0,0,9999,0,0,0,
2026-03-17 10:20:00,METAR LSGS 171020Z VRB03KT 9999 FEW035 10/01 Q1020,0,3,0,10000,0,0,0,
2026-03-17 09:50:00,METAR LSGS 170950Z VRB01KT 9999 FEW045 10/01 Q1021,0,1,0,10000,0,0,0,
2026-03-17 09:20:00,METAR LSGS 170920Z VRB03KT 9999 FEW040 09/01 Q1021,0,3,0,10000,0,0,0,
2026-03-17 08:50:00,METAR LSGS 170850Z VRB02KT 9999 FEW036 08/00 Q1021,0,2,0,10000,0,0,0,
2026-03-17 08:20:00,METAR LSGS 170820Z 08004KT 040V120 9999 SCT037 07/00 Q1022,0,4,0,10000,0,0,0,
2026-03-17 07:50:00,METAR LSGS 170750Z 09005KT 9999 BKN036 06/01 Q1022,0,5,0,10000,0,0,0,
2026-03-17 07:20:00,METAR LSGS 170720Z 08004KT 9999 BKN034 04/01 Q1022,0,4,0,10000,0,0,0,
2026-03-17 06:50:00,METAR LSGS 170650Z VRB03KT 9999 BKN034 03/00 Q1022,0,3,0,10000,0,0,0,
2026-03-17 06:20:00,METAR LSGS 170620Z AUTO 08004KT 9999 OVC034 02/00 Q1022,0,4,0,10000,0,0,0,
2026-03-17 05:50:00,METAR LSGS 170550Z AUTO VRB01KT 9999 SCT037 02/00 Q1022,0,1,0,10000,0,0,0,
2026-03-17 05:20:00,METAR LSGS 170520Z AUTO 09002KT 9999 NCD 01/00 Q1022,0,2,0,10000,0,0,0,
2026-03-17 04:50:00,METAR LSGS 170450Z AUTO VRB01KT 9999 FEW040 01/00 Q1022,0,1,0,10000,0,0,0,
2026-03-17 04:20:00,METAR LSGS 170420Z AUTO VRB02KT CAVOK 02/00 Q1022,1,0,0,9999,0,0,0,
2026-03-17 03:50:00,METAR LSGS 170350Z AUTO VRB01KT CAVOK 02/00 Q1021,1,0,0,9999,0,0,0,
2026-03-17 03:20:00,METAR LSGS 170320Z AUTO VRB02KT CAVOK 02/M00 Q1021,1,0,0,9999,0,0,0,
2026-03-17 02:50:00,METAR LSGS 170250Z AUTO 00000KT CAVOK 03/01 Q1021,1,0,0,9999,0,0,0,
2026-03-17 02:20:00,METAR LSGS 170220Z AUTO VRB01KT CAVOK 03/01 Q1021,1,0,0,9999,0,0,0,
2026-03-17 01:50:00,METAR LSGS 170150Z AUTO VRB02KT CAVOK 03/01 Q1022,1,0,0,9999,0,0,0,
2026-03-17 01:20:00,METAR LSGS 170120Z AUTO 09002KT CAVOK 03/01 Q1022,1,0,0,9999,0,0,0,
2026-03-17 00:50:00,METAR LSGS 170050Z AUTO VRB02KT CAVOK 04/01 Q1022,1,0,0,9999,0,0,0,
2026-03-17 00:20:00,METAR LSGS 170020Z AUTO VRB01KT CAVOK 05/01 Q1022,1,0,0,9999,0,0,0,
2026-03-16 23:50:00,METAR LSGS 162350Z AUTO VRB02KT CAVOK 05/01 Q1022,1,0,0,9999,0,0,0,
2026-03-16 23:20:00,METAR LSGS 162320Z AUTO 26003KT 9999 NSC 07/02 Q1022,0,3,0,10000,0,0,0,
2026-03-16 22:50:00,METAR LSGS 162250Z AUTO 24003KT 150V310 9999 FEW095 07/01 Q1022,0,3,0,10000,0,0,0,
2026-03-16 22:20:00,METAR LSGS 162220Z AUTO VRB07KT 9999 BKN095 08/02 Q1023,0,7,0,10000,0,0,0,
2026-03-16 21:50:00,METAR LSGS 162150Z AUTO 28009KT 9999 OVC095 08/02 Q1022,0,9,0,10000,0,0,0,
2026-03-16 21:20:00,METAR LSGS 162120Z AUTO 25008KT 9999 OVC100 08/02 Q1022,0,8,0,10000,0,0,0,
2026-03-16 20:50:00,METAR LSGS 162050Z AUTO 24005KT 180V270 9999 OVC100 09/02 Q1022,0,5,0,10000,0,0,0,
2026-03-16 20:20:00,METAR LSGS 162020Z AUTO VRB02KT 9999 OVC100 09/02 Q1022,0,2,0,10000,0,0,0,
2026-03-16 19:50:00,METAR LSGS 161950Z AUTO VRB02KT 9999 BKN100 09/01 Q1022,0,2,0,10000,0,0,0,
2026-03-16 19:20:00,METAR LSGS 161920Z AUTO 23004KT 170V320 9999 OVC100 09/02 Q1022,0,4,0,10000,0,0,0,
2026-03-16 18:50:00,METAR LSGS 161850Z AUTO VRB03KT 9999 BKN110 09/01 Q1021,0,3,0,10000,0,0,0,
2026-03-16 18:20:00,METAR LSGS 161820Z 27004KT 220V030 9999 SCT110 BKN120 09/02 Q1021,0,4,0,10000,0,0,0,
2026-03-16 17:50:00,METAR LSGS 161750Z 26011KT 9999 BKN110 09/02 Q1020,0,11,0,10000,0,0,0,
2026-03-16 17:20:00,METAR LSGS 161720Z 26015KT 9999 BKN110 09/02 Q1020,0,15,0,10000,0,0,0,
2026-03-16 16:50:00,METAR LSGS 161650Z 25014KT 9999 OVC120 09/02 Q1020,0,14,0,10000,0,0,0,
2026-03-16 16:20:00,METAR LSGS 161620Z 26014KT 9999 OVC130 09/02 Q1020,0,14,0,10000,0,0,0,
2026-03-16 15:50:00,METAR LSGS 161550Z 25004KT 9999 OVC130 12/01 Q1020,0,4,0,10000,0,0,0,
2026-03-16 15:20:00,METAR LSGS 161520Z VRB03KT 9999 BKN120 12/00 Q1019,0,3,0,10000,0,0,0,
2026-03-16 14:50:00,METAR LSGS 161450Z 22003KT 160V280 9999 OVC120 12/M01 Q1020,0,3,0,10000,0,0,0,
2026-03-16 14:20:00,METAR LSGS 161420Z VRB02KT 9999 BKN120 12/M02 Q1020,0,2,0,10000,0,0,0,
2026-03-16 13:50:00,METAR LSGS 161350Z 24006KT 200V270 9999 SCT120 BKN130 OVC140 12/M00 Q1020,0,6,0,10000,0,0,0,
2026-03-16 13:20:00,METAR LSGS 161320Z VRB02KT 9999 SCT120 BKN140 12/M01 Q1020,0,2,0,10000,0,0,0,
2026-03-16 12:50:00,METAR LSGS 161250Z VRB02KT 9999 FEW070 BKN140 11/M01 Q1021,0,2,0,10000,0,0,0,
2026-03-16 12:20:00,METAR LSGS 161220Z VRB03KT 9999 SCT120 BKN130 11/02 Q1021,0,3,0,10000,0,0,0,
2026-03-16 11:50:00,METAR LSGS 161150Z 21003KT 130V280 9999 FEW050 BKN140 10/01 Q1022,0,3,0,10000,0,0,0,
2026-03-16 11:20:00,METAR LSGS 161120Z VRB02KT 9999 FEW055 BKN160 10/01 Q1022,0,2,0,10000,0,0,0,
2026-03-16 10:50:00,METAR LSGS 161050Z VRB01KT 9999 FEW050 OVC160 09/02 Q1022,0,1,0,10000,0,0,0,
2026-03-16 10:20:00,METAR LSGS 161020Z 20003KT 140V260 9999 FEW045 BKN160 09/01 Q1022,0,3,0,10000,0,0,0,
2026-03-16 09:50:00,METAR LSGS 160950Z 25004KT 180V310 9999 FEW042 BKN160 08/01 Q1022,0,4,0,10000,0,0,0,
2026-03-16 09:20:00,METAR LSGS 160920Z 20004KT 130V250 9999 FEW035 07/01 Q1023,0,4,0,10000,0,0,0,
2026-03-16 08:50:00,METAR LSGS 160850Z 19005KT 140V260 9999 FEW035 SCT160 07/01 Q1023,0,5,0,10000,0,0,0,
2026-03-16 08:20:00,METAR LSGS 160820Z 20003KT 150V270 9999 FEW040 07/01 Q1023,0,3,0,10000,0,0,0,
2026-03-16 07:50:00,METAR LSGS 160750Z VRB01KT 9999 FEW035 06/01 Q1022,0,1,0,10000,0,0,0,
2026-03-16 07:20:00,METAR LSGS 160720Z VRB03KT 9999 FEW035 05/01 Q1022,0,3,0,10000,0,0,0,
2026-03-16 06:50:00,METAR LSGS 160650Z VRB03KT 9999 SCT050 04/01 Q1022,0,3,0,10000,0,0,0,
2026-03-16 06:20:00,METAR LSGS 160620Z AUTO 26004KT 9999 FEW035 04/01 Q1022,0,4,0,10000,0,0,0,
2026-03-16 05:50:00,METAR LSGS 160550Z AUTO VRB03KT 9999 FEW033 BKN050 05/01 Q1022,0,3,0,10000,0,0,0,
2026-03-16 05:20:00,METAR LSGS 160520Z AUTO 25006KT 9999 BKN050 05/01 Q1021,0,6,0,10000,0,0,0,
2026-03-16 04:50:00,METAR LSGS 160450Z AUTO 26006KT 9999 BKN049 05/01 Q1021,0,6,0,10000,0,0,0,
2026-03-16 04:20:00,METAR LSGS 160420Z AUTO VRB03KT 9999 BKN049 05/01 Q1020,0,3,0,10000,0,0,0,
2026-03-16 03:50:00,METAR LSGS 160350Z AUTO 05002KT 9999 OVC050 05/01 Q1019,0,2,0,10000,0,0,0,
2026-03-16 03:20:00,METAR LSGS 160320Z AUTO VRB02KT 9999 OVC050 05/01 Q1019,0,2,0,10000,0,0,0,
2026-03-16 02:50:00,METAR LSGS 160250Z AUTO VRB02KT 9999 OVC050 05/01 Q1019,0,2,0,10000,0,0,0,
2026-03-16 02:20:00,METAR LSGS 160220Z AUTO VRB02KT 9999 SCT044 BKN050 05/00 Q1020,0,2,0,10000,0,0,0,
2026-03-16 01:50:00,METAR LSGS 160150Z AUTO 28003KT 250V330 9999 FEW034 OVC050 05/01 Q1020,0,3,0,10000,0,0,0,
2026-03-16 01:20:00,METAR LSGS 160120Z AUTO 25003KT 9999 OVC050 05/01 Q1020,0,3,0,10000,0,0,0,
2026-03-16 00:50:00,METAR LSGS 160050Z AUTO VRB03KT 9999 OVC050 05/01 Q1020,0,3,0,10000,0,0,0,
2026-03-16 00:20:00,METAR LSGS 160020Z AUTO VRB02KT 9999 OVC050 06/01 Q1019,0,2,0,10000,0,0,0,
2026-03-15 23:50:00,METAR LSGS 152350Z AUTO VRB02KT 9999 OVC050 06/00 Q1019,0,2,0,10000,0,0,0,
2026-03-15 23:20:00,METAR LSGS 152320Z AUTO VRB03KT 9999 OVC050 06/00 Q1019,0,3,0,10000,0,0,0,
2026-03-15 22:50:00,METAR LSGS 152250Z AUTO 27002KT 9999 OVC050 06/00 Q1019,0,2,0,10000,0,0,0,
2026-03-15 22:20:00,METAR LSGS 152220Z AUTO 25006KT 190V280 9999 OVC050 06/00 Q1019,0,6,0,10000,0,0,0,
2026-03-15 21:50:00,METAR LSGS 152150Z AUTO 26006KT 9999 OVC050 06/01 Q1019,0,6,0,10000,0,0,0,
2026-03-15 21:20:00,METAR LSGS 152120Z AUTO 26006KT 230V310 9999 OVC050 06/00 Q1019,0,6,0,10000,0,0,0,
2026-03-15 20:50:00,METAR LSGS 152050Z AUTO 26009KT 210V290 9999 OVC050 06/00 Q1018,0,9,0,10000,0,0,0,
2026-03-15 20:20:00,METAR LSGS 152020Z AUTO 24007KT 9999 OVC050 06/00 Q1018,0,7,0,10000,0,0,0,
2026-03-15 19:50:00,METAR LSGS 151950Z AUTO 25009KT 220V290 9999 OVC050 06/00 Q1017,0,9,0,10000,0,0,0,
2026-03-15 19:20:00,METAR LSGS 151920Z AUTO 25010KT 9999 OVC050 06/00 Q1017,0,10,0,10000,0,0,0,
2026-03-15 18:50:00,METAR LSGS 151850Z 25011KT 9999 OVC050 06/M00 Q1017,0,11,0,10000,0,0,0,
2026-03-15 18:20:00,METAR LSGS 151820Z 26013KT 9999 OVC050 06/M00 Q1016,0,13,0,10000,0,0,0,
2026-03-15 17:50:00,METAR LSGS 151750Z 26011KT 9999 BKN049 06/00 Q1016,0,11,0,10000,0,0,0,
2026-03-15 17:20:00,METAR LSGS 151720Z 26016KT 9999 BKN050 06/M00 Q1015,0,16,0,10000,0,0,0,
2026-03-15 16:50:00,METAR LSGS 151650Z 26019KT 9999 BKN050 07/00 Q1014,0,19,0,10000,0,0,0,
2026-03-15 16:20:00,METAR LSGS 151620Z 25018KT 9999 SCT050 07/M00 Q1014,0,18,0,10000,0,0,0,
2026-03-15 15:50:00,METAR LSGS 151550Z 25018KT 9999 FEW050 08/01 Q1013,0,18,0,10000,0,0,0,
2026-03-15 15:20:00,METAR LSGS 151520Z 26016KT 9999 FEW050 09/01 Q1012,0,16,0,10000,0,0,0,
2026-03-15 14:50:00,METAR LSGS 151450Z 25013KT 9999 FEW050 10/01 Q1012,0,13,0,10000,0,0,0,
2026-03-15 14:20:00,METAR LSGS 151420Z 24007KT 180V270 9999 FEW048 10/01 Q1012,0,7,0,10000,0,0,0,
2026-03-15 13:50:00,METAR LSGS 151350Z 24005KT 130V300 9999 SCT048 10/00 Q1012,0,5,0,10000,0,0,0,
2026-03-15 13:20:00,METAR LSGS 151320Z 24005KT 160V330 9999 SCT060 10/M00 Q1012,0,5,0,10000,0,0,0,
2026-03-15 12:50:00,METAR LSGS 151250Z VRB03KT 9999 SCT048 10/M01 Q1012,0,3,0,10000,0,0,0,
2026-03-15 12:20:00,METAR LSGS 151220Z VRB04KT 9999 SCT060 09/M01 Q1012,0,4,0,10000,0,0,0,
2026-03-15 11:50:00,METAR LSGS 151150Z 07004KT 020V130 9999 SCT040 08/M01 Q1012,0,4,0,10000,0,0,0,
2026-03-15 11:20:00,METAR LSGS 151120Z 06006KT 020V110 9999 SCT040 07/M01 Q1012,0,6,0,10000,0,0,0,
2026-03-15 10:50:00,METAR LSGS 151050Z AUTO 08009KT CAVOK 07/01 Q1012,1,0,0,9999,0,0,0,
2026-03-15 10:20:00,METAR LSGS 151020Z 08008KT 9999 FEW017 06/01 Q1012,0,8,0,10000,0,0,0,
2026-03-15 09:50:00,METAR LSGS 150950Z 08006KT 040V150 9999 FEW015 05/01 Q1012,0,6,0,10000,0,0,0,
2026-03-15 09:20:00,METAR LSGS 150920Z 08006KT 040V120 9999 FEW015 04/01 Q1012,0,6,0,10000,0,0,0,
2026-03-15 08:50:00,METAR LSGS 150850Z 09005KT 060V120 9999 SCT012 05/02 Q1012,0,5,0,10000,0,0,0,
2026-03-15 08:20:00,METAR LSGS 150820Z 06006KT 9999 FEW015 SCT065 04/01 Q1012,0,6,0,10000,0,0,0,
