Time_recorded,METAR,is_cavok,wind_speed,is_gust,visibility_meters,has_thunderstorm,has_heavy_rain,has_low_vis_fog,other_phenomenon
2026-05-02 15:30:00,METAR VMMC 021530Z 15005KT 9999 FEW010 SCT022 25/24 Q1011 NOSIG,0,5,0,10000,0,0,0,
2026-05-02 15:00:00,METAR VMMC 021500Z 14006KT 9999 FEW010 SCT022 25/24 Q1011 NOSIG,0,6,0,10000,0,0,0,
2026-05-02 14:30:00,METAR VMMC 021430Z 15003KT 110V190 9999 FEW007 SCT022 25/24 Q1011 NOSIG,0,3,0,10000,0,0,0,
2026-05-02 14:00:00,METAR VMMC 021400Z 17005KT 150V220 9999 FEW007 SCT022 25/24 Q1011 NOSIG,0,5,0,10000,0,0,0,
2026-05-02 13:30:00,METAR VMMC 021330Z 15008KT 9999 FEW010 SCT022 25/24 Q1010 NOSIG,0,8,0,10000,0,0,0,
2026-05-02 13:00:00,METAR VMMC 021300Z 15008KT 9999 FEW008 SCT025 25/24 Q1010 NOSIG,0,8,0,10000,0,0,0,
2026-05-02 12:30:00,METAR VMMC 021230Z 14010KT 9999 FEW008 SCT025 25/24 Q1009 NOSIG,0,10,0,10000,0,0,0,
2026-05-02 12:00:00,METAR VMMC 021200Z 14010KT 9999 FEW008 SCT025 25/24 Q1009 NOSIG,0,10,0,10000,0,0,0,
2026-05-02 11:30:00,METAR VMMC 021130Z 14011KT 9999 FEW008 SCT025 25/24 Q1009 NOSIG,0,11,0,10000,0,0,0,
2026-05-02 11:00:00,METAR VMMC 021100Z 14010KT 9999 FEW012 SCT022 25/23 Q1009 NOSIG,0,10,0,10000,0,0,0,
2026-05-02 10:30:00,METAR VMMC 021030Z 14011KT 9999 FEW010 SCT022 25/24 Q1009 NOSIG,0,11,0,10000,0,0,0,
2026-05-02 10:00:00,METAR VMMC 021000Z 14011KT 9999 FEW010 SCT022 25/24 Q1009 NOSIG,0,11,0,10000,0,0,0,
2026-05-02 09:30:00,METAR VMMC 020930Z 14012KT 9999 -SHRA FEW010 SCT022 25/24 Q1008 NOSIG,0,12,0,10000,0,0,0,RA
2026-05-02 09:00:00,METAR VMMC 020900Z 13011KT 9999 -SHRA FEW010 SCT022 25/23 Q1008 NOSIG,0,11,0,10000,0,0,0,RA
2026-05-02 08:30:00,METAR VMMC 020830Z 13009KT 9999 FEW010 SCT022 25/24 Q1009 NOSIG,0,9,0,10000,0,0,0,
2026-05-02 08:00:00,METAR VMMC 020800Z 14010KT 9999 FEW010 SCT022 26/23 Q1009 NOSIG,0,10,0,10000,0,0,0,
2026-05-02 07:30:00,METAR VMMC 020730Z 14011KT 9999 FEW012 SCT022 26/24 Q1009 NOSIG,0,11,0,10000,0,0,0,
2026-05-02 07:00:00,METAR VMMC 020700Z 14007KT 9999 -SHRA FEW010 SCT022 26/23 Q1010 NOSIG,0,7,0,10000,0,0,0,RA
2026-05-02 06:30:00,METAR VMMC 020630Z 13008KT 9999 -SHRA FEW012 SCT022 26/23 Q1010 NOSIG,0,8,0,10000,0,0,0,RA
2026-05-02 06:00:00,METAR VMMC 020600Z 14009KT 9999 VCSH FEW012 SCT022 26/23 Q1011 NOSIG,0,9,0,10000,0,0,0,"SH,VC"
2026-05-02 05:30:00,METAR VMMC 020530Z 13009KT 9999 FEW012 SCT025 26/23 Q1011 NOSIG,0,9,0,10000,0,0,0,
2026-05-02 05:00:00,METAR VMMC 020500Z 13009KT 9999 FEW012 SCT025 26/24 Q1012 NOSIG,0,9,0,10000,0,0,0,
2026-05-02 04:30:00,METAR VMMC 020430Z 13009KT 9999 FEW012 SCT025 26/24 Q1012 NOSIG,0,9,0,10000,0,0,0,
2026-05-02 04:00:00,METAR VMMC 020400Z 14011KT 9999 FEW012 SCT025 26/24 Q1012 NOSIG,0,11,0,10000,0,0,0,
2026-05-02 03:30:00,METAR VMMC 020330Z 13010KT 9999 FEW012 SCT025 27/24 Q1012 NOSIG,0,10,0,10000,0,0,0,
2026-05-02 03:00:00,METAR VMMC 020300Z 14009KT 9999 FEW012 SCT025 26/23 Q1013 NOSIG,0,9,0,10000,0,0,0,
2026-05-02 02:30:00,METAR VMMC 020230Z 13011KT 9999 FEW012 SCT025 25/23 Q1013 NOSIG,0,11,0,10000,0,0,0,
2026-05-02 02:00:00,METAR VMMC 020200Z 13011KT 9999 FEW012 SCT025 25/23 Q1013 NOSIG,0,11,0,10000,0,0,0,
2026-05-02 01:30:00,METAR VMMC 020130Z 13011KT 9999 FEW012 SCT025 25/23 Q1012 NOSIG,0,11,0,10000,0,0,0,
2026-05-02 01:00:00,METAR VMMC 020100Z 13013KT 9999 FEW009 SCT020 25/23 Q1012 NOSIG,0,13,0,10000,0,0,0,
2026-05-02 00:30:00,METAR VMMC 020030Z 11013KT 9999 FEW009 SCT020 25/23 Q1012 NOSIG,0,13,0,10000,0,0,0,
2026-05-02 00:00:00,METAR VMMC 020000Z 11012KT 9999 FEW010 SCT020 25/23 Q1012 NOSIG,0,12,0,10000,0,0,0,
2026-05-01 23:30:00,METAR VMMC 012330Z 11012KT 9999 FEW010 SCT028 25/23 Q1012 NOSIG,0,12,0,10000,0,0,0,
2026-05-01 23:00:00,METAR VMMC 012300Z 12013KT 9999 FEW010 SCT030 25/23 Q1012 NOSIG,0,13,0,10000,0,0,0,
2026-05-01 22:30:00,METAR VMMC 012230Z 12012KT 9999 FEW010 SCT030 25/23 Q1011 NOSIG,0,12,0,10000,0,0,0,
2026-05-01 22:00:00,METAR VMMC 012200Z 11012KT 9999 FEW010 SCT030 25/23 Q1011 NOSIG,0,12,0,10000,0,0,0,
2026-05-01 21:30:00,METAR VMMC 012130Z 12010KT 9999 FEW010 SCT030 25/23 Q1011 NOSIG,0,10,0,10000,0,0,0,
2026-05-01 21:00:00,METAR VMMC 012100Z 11011KT 070V130 9999 FEW010 SCT025 25/23 Q1011 NOSIG,0,11,0,10000,0,0,0,
2026-05-01 20:30:00,METAR VMMC 012030Z 11010KT 080V140 9999 FEW010 SCT025 24/23 Q1011 NOSIG,0,10,0,10000,0,0,0,
2026-05-01 20:00:00,METAR VMMC 012000Z 11012KT 9999 VCSH FEW010 SCT025 25/22 Q1011 NOSIG,0,12,0,10000,0,0,0,"SH,VC"
2026-05-01 19:30:00,METAR VMMC 011930Z 11011KT 9999 FEW012 SCT030 25/23 Q1011 NOSIG,0,11,0,10000,0,0,0,
2026-05-01 19:00:00,METAR VMMC 011900Z 10010KT 9999 FEW012 SCT030 24/22 Q1011 NOSIG,0,10,0,10000,0,0,0,
2026-05-01 18:30:00,METAR VMMC 011830Z 11010KT 9999 FEW012 SCT030 24/22 Q1012 NOSIG,0,10,0,10000,0,0,0,
2026-05-01 18:00:00,METAR VMMC 011800Z 10011KT 9999 FEW012 SCT030 24/22 Q1012 NOSIG,0,11,0,10000,0,0,0,
2026-05-01 17:30:00,METAR VMMC 011730Z 11010KT 9999 FEW012 SCT030 25/22 Q1012 NOSIG,0,10,0,10000,0,0,0,
2026-05-01 17:00:00,METAR VMMC 011700Z 11010KT 9999 FEW012 SCT030 25/22 Q1012 NOSIG,0,10,0,10000,0,0,0,
2026-05-01 16:30:00,METAR VMMC 011630Z 11013KT 9999 FEW012 SCT030 25/22 Q1012 NOSIG,0,13,0,10000,0,0,0,
2026-05-01 16:00:00,METAR VMMC 011600Z 11012KT 9999 FEW015 SCT030 25/22 Q1013 NOSIG,0,12,0,10000,0,0,0,
2026-05-01 15:30:00,METAR VMMC 011530Z 11014KT 9999 FEW015 SCT035 25/22 Q1013 NOSIG,0,14,0,10000,0,0,0,
2026-05-01 15:00:00,METAR VMMC 011500Z 11014KT 9999 FEW015 SCT035 25/22 Q1013 NOSIG,0,14,0,10000,0,0,0,
2026-05-01 14:30:00,METAR VMMC 011430Z 11015KT 9999 FEW015 SCT035 25/22 Q1013 NOSIG,0,15,0,10000,0,0,0,
2026-05-01 14:00:00,METAR VMMC 011400Z 10014KT 9999 FEW015 SCT035 24/22 Q1013 NOSIG,0,14,0,10000,0,0,0,
2026-05-01 13:30:00,METAR VMMC 011330Z 10015KT 9999 FEW015 SCT035 24/22 Q1013 NOSIG,0,15,0,10000,0,0,0,
2026-05-01 13:00:00,METAR VMMC 011300Z 10016KT 9999 FEW015 SCT035 24/22 Q1013 NOSIG,0,16,0,10000,0,0,0,
2026-05-01 12:30:00,METAR VMMC 011230Z 11014KT 9999 FEW015 SCT035 24/22 Q1012 NOSIG,0,14,0,10000,0,0,0,
2026-05-01 12:00:00,METAR VMMC 011200Z 10015KT 9999 FEW015 SCT035 24/22 Q1012 NOSIG,0,15,0,10000,0,0,0,
2026-05-01 11:30:00,METAR VMMC 011130Z 10015KT 9999 FEW015 SCT035 24/22 Q1012 NOSIG,0,15,0,10000,0,0,0,
2026-05-01 11:00:00,METAR VMMC 011100Z 09013KT 9999 FEW015 SCT035 24/21 Q1012 NOSIG,0,13,0,10000,0,0,0,
2026-05-01 10:30:00,METAR VMMC 011030Z 10013KT 9999 FEW015 SCT035 25/21 Q1012 NOSIG,0,13,0,10000,0,0,0,
2026-05-01 10:00:00,METAR VMMC 011000Z 10012KT 9999 FEW015 SCT035 25/21 Q1012 NOSIG,0,12,0,10000,0,0,0,
2026-05-01 09:30:00,METAR VMMC 010930Z 09010KT 060V120 9999 FEW015 SCT035 25/21 Q1012 NOSIG,0,10,0,10000,0,0,0,
2026-05-01 09:00:00,METAR VMMC 010900Z 10008KT 060V140 9999 FEW018 SCT035 25/21 Q1012 NOSIG,0,8,0,10000,0,0,0,
2026-05-01 08:30:00,METAR VMMC 010830Z 10009KT 010V150 9999 FEW020 SCT035 25/21 Q1012 NOSIG,0,9,0,10000,0,0,0,
2026-05-01 08:00:00,METAR VMMC 010800Z 11009KT 070V150 9999 FEW020 SCT040 25/21 Q1012 NOSIG,0,9,0,10000,0,0,0,
2026-05-01 07:30:00,METAR VMMC 010730Z VRB10KT 9999 FEW020 SCT035 25/21 Q1012 NOSIG,0,10,0,10000,0,0,0,
2026-05-01 07:00:00,METAR VMMC 010700Z 12009KT 090V160 9999 FEW020 SCT035 26/21 Q1013 NOSIG,0,9,0,10000,0,0,0,
2026-05-01 06:30:00,METAR VMMC 010630Z 10008KT 9999 FEW020 SCT035 25/20 Q1013 NOSIG,0,8,0,10000,0,0,0,
2026-05-01 06:00:00,METAR VMMC 010600Z 09005KT 030V140 9999 FEW020 26/21 Q1013 NOSIG,0,5,0,10000,0,0,0,
2026-05-01 05:30:00,METAR VMMC 010530Z 05003KT 360V090 9999 FEW025 25/19 Q1014 NOSIG,0,3,0,10000,0,0,0,
2026-05-01 05:00:00,METAR VMMC 010500Z 02004KT 330V050 9999 FEW025 25/19 Q1014 NOSIG,0,4,0,10000,0,0,0,
2026-05-01 04:30:00,METAR VMMC 010430Z 02005KT 350V050 9999 FEW025 SCT045 25/20 Q1014 NOSIG,0,5,0,10000,0,0,0,
2026-05-01 04:00:00,METAR VMMC 010400Z 02005KT 340V060 9999 FEW025 25/19 Q1015 NOSIG,0,5,0,10000,0,0,0,
2026-05-01 03:30:00,METAR VMMC 010330Z 01007KT 9999 FEW020 SCT045 24/19 Q1015 NOSIG,0,7,0,10000,0,0,0,
2026-05-01 03:00:00,METAR VMMC 010300Z 01008KT 9999 FEW020 25/19 Q1015 NOSIG,0,8,0,10000,0,0,0,
2026-05-01 02:30:00,METAR VMMC 010230Z 03007KT 340V080 9999 FEW020 24/19 Q1015 NOSIG,0,7,0,10000,0,0,0,
2026-05-01 02:00:00,METAR VMMC 010200Z 02008KT 360V070 9999 FEW025 24/19 Q1015 NOSIG,0,8,0,10000,0,0,0,
2026-05-01 01:30:00,METAR VMMC 010130Z 02009KT 9999 FEW020 SCT035 24/19 Q1015 NOSIG,0,9,0,10000,0,0,0,
2026-05-01 01:00:00,METAR VMMC 010100Z 01008KT 9999 FEW020 SCT035 23/18 Q1015 NOSIG,0,8,0,10000,0,0,0,
2026-05-01 00:30:00,METAR VMMC 010030Z 36009KT 9999 FEW020 SCT035 23/18 Q1015 NOSIG,0,9,0,10000,0,0,0,
2026-05-01 00:00:00,METAR VMMC 010000Z 01010KT 9999 FEW020 SCT035 23/18 Q1015 NOSIG,0,10,0,10000,0,0,0,
2026-04-30 23:30:00,METAR VMMC 302330Z 01008KT 9999 FEW020 SCT030 23/18 Q1015 NOSIG,0,8,0,10000,0,0,0,
2026-04-30 23:00:00,METAR VMMC 302300Z 02008KT 9999 FEW030 22/18 Q1014 NOSIG,0,8,0,10000,0,0,0,
2026-04-30 22:30:00,METAR VMMC 302230Z 02010KT 9999 FEW030 22/18 Q1014 NOSIG,0,10,0,10000,0,0,0,
2026-04-30 22:00:00,METAR VMMC 302200Z 02010KT 9999 FEW030 22/17 Q1014 NOSIG,0,10,0,10000,0,0,0,
2026-04-30 21:30:00,METAR VMMC 302130Z 02010KT 9999 FEW030 22/17 Q1014 NOSIG,0,10,0,10000,0,0,0,
2026-04-30 21:00:00,METAR VMMC 302100Z 01010KT 9999 FEW030 23/17 Q1014 NOSIG,0,10,0,10000,0,0,0,
2026-04-30 20:30:00,METAR VMMC 302030Z 02008KT 9999 FEW030 23/18 Q1014 NOSIG,0,8,0,10000,0,0,0,
2026-04-30 20:00:00,METAR VMMC 302000Z 02006KT 350V050 9999 FEW040 23/18 Q1014 NOSIG,0,6,0,10000,0,0,0,
2026-04-30 19:30:00,METAR VMMC 301930Z 02004KT 340V060 9999 FEW040 23/18 Q1014 NOSIG,0,4,0,10000,0,0,0,
2026-04-30 19:00:00,METAR VMMC 301900Z 02003KT 340V060 9999 FEW040 23/17 Q1014 NOSIG,0,3,0,10000,0,0,0,
2026-04-30 18:30:00,METAR VMMC 301830Z 07005KT 030V100 9999 FEW040 23/18 Q1014 NOSIG,0,5,0,10000,0,0,0,
2026-04-30 18:00:00,METAR VMMC 301800Z VRB06KT 9999 FEW030 23/19 Q1014 NOSIG,0,6,0,10000,0,0,0,
2026-04-30 17:30:00,METAR VMMC 301730Z 09007KT 060V130 9999 FEW030 23/19 Q1014 NOSIG,0,7,0,10000,0,0,0,
2026-04-30 17:00:00,METAR VMMC 301700Z 09007KT 070V130 9999 FEW030 23/18 Q1014 NOSIG,0,7,0,10000,0,0,0,
2026-04-30 16:30:00,METAR VMMC 301630Z 10008KT 070V140 9999 FEW030 23/18 Q1014 NOSIG,0,8,0,10000,0,0,0,
2026-04-30 16:00:00,METAR VMMC 301600Z 11007KT 9999 FEW030 23/18 Q1015 NOSIG,0,7,0,10000,0,0,0,
2026-04-30 15:00:00,METAR VMMC 301500Z 13007KT 9999 FEW040 23/18 Q1015 NOSIG,0,7,0,10000,0,0,0,
2026-04-30 14:30:00,METAR VMMC 301430Z 12008KT 9999 FEW040 23/18 Q1015 NOSIG,0,8,0,10000,0,0,0,
2026-04-30 14:00:00,METAR VMMC 301400Z 12008KT CAVOK 23/18 Q1015 NOSIG,1,0,0,9999,0,0,0,
2026-04-30 13:30:00,METAR VMMC 301330Z 07007KT 010V120 CAVOK 24/18 Q1015 NOSIG,1,0,0,9999,0,0,0,
2026-04-30 13:00:00,METAR VMMC 301300Z 01007KT CAVOK 24/16 Q1014 NOSIG,1,0,0,9999,0,0,0,
2026-04-30 12:30:00,METAR VMMC 301230Z 36007KT CAVOK 24/16 Q1014 NOSIG,1,0,0,9999,0,0,0,
2026-04-30 12:00:00,METAR VMMC 301200Z 36008KT CAVOK 24/16 Q1014 NOSIG,1,0,0,9999,0,0,0,
2026-04-30 11:30:00,METAR VMMC 301130Z 01007KT 9999 FEW025 24/16 Q1014 NOSIG,0,7,0,10000,0,0,0,
2026-04-30 11:00:00,METAR VMMC 301100Z 36008KT 9999 FEW025 24/16 Q1014 NOSIG,0,8,0,10000,0,0,0,
2026-04-30 10:30:00,METAR VMMC 301030Z 02010KT 9999 FEW025 24/16 Q1013 NOSIG,0,10,0,10000,0,0,0,
2026-04-30 10:00:00,METAR VMMC 301000Z 02010KT CAVOK 24/16 Q1013 NOSIG,1,0,0,9999,0,0,0,
2026-04-30 09:30:00,METAR VMMC 300930Z 02011KT CAVOK 24/16 Q1013 NOSIG,1,0,0,9999,0,0,0,
2026-04-30 09:00:00,METAR VMMC 300900Z 03010KT 350V050 CAVOK 24/16 Q1013 NOSIG,1,0,0,9999,0,0,0,
2026-04-30 08:30:00,METAR VMMC 300830Z 03011KT CAVOK 24/16 Q1013 NOSIG,1,0,0,9999,0,0,0,
2026-04-30 08:00:00,METAR VMMC 300800Z 03012KT CAVOK 24/16 Q1013 NOSIG,1,0,0,9999,0,0,0,
2026-04-30 07:30:00,METAR VMMC 300730Z 02013KT CAVOK 24/16 Q1014 NOSIG,1,0,0,9999,0,0,0,
2026-04-30 07:00:00,METAR VMMC 300700Z 03012KT CAVOK 24/16 Q1014 NOSIG,1,0,0,9999,0,0,0,
2026-04-30 06:30:00,METAR VMMC 300630Z 02013KT CAVOK 23/16 Q1014 NOSIG,1,0,0,9999,0,0,0,
2026-04-30 06:00:00,METAR VMMC 300600Z 01013KT CAVOK 23/15 Q1014 NOSIG,1,0,0,9999,0,0,0,
2026-04-30 05:30:00,METAR VMMC 300530Z 01015KT 9999 FEW020 SCT045 23/16 Q1015 NOSIG,0,15,0,10000,0,0,0,
2026-04-30 05:00:00,METAR VMMC 300500Z 01015KT 9999 FEW020 SCT045 23/15 Q1015 NOSIG,0,15,0,10000,0,0,0,
2026-04-30 04:30:00,METAR VMMC 300430Z 01016KT 9999 FEW020 SCT045 22/15 Q1015 NOSIG,0,16,0,10000,0,0,0,
2026-04-30 04:00:00,METAR VMMC 300400Z 36016KT 9999 FEW020 SCT045 22/15 Q1016 NOSIG,0,16,0,10000,0,0,0,
2026-04-30 03:30:00,METAR VMMC 300330Z 36017KT 9999 FEW020 SCT045 22/15 Q1016 NOSIG,0,17,0,10000,0,0,0,
2026-04-30 03:00:00,METAR VMMC 300300Z 36016KT 9999 FEW020 SCT045 22/15 Q1016 NOSIG,0,16,0,10000,0,0,0,
2026-04-30 02:30:00,METAR VMMC 300230Z 35017KT 9999 FEW025 SCT045 21/15 Q1016 NOSIG,0,17,0,10000,0,0,0,
2026-04-30 02:00:00,METAR VMMC 300200Z 36017KT 9999 FEW025 SCT045 21/15 Q1016 NOSIG,0,17,0,10000,0,0,0,
2026-04-30 01:30:00,METAR VMMC 300130Z 36017KT 9999 FEW025 SCT045 21/15 Q1016 NOSIG,0,17,0,10000,0,0,0,
2026-04-30 01:00:00,METAR VMMC 300100Z 36018KT 9999 FEW025 SCT045 21/15 Q1016 NOSIG,0,18,0,10000,0,0,0,
2026-04-30 00:30:00,METAR VMMC 300030Z 36020KT 9999 FEW020 SCT045 21/15 Q1016 NOSIG,0,20,0,10000,0,0,0,
2026-04-30 00:00:00,METAR VMMC 300000Z 35019KT 9999 FEW020 SCT045 21/15 Q1015 NOSIG,0,19,0,10000,0,0,0,
2026-04-29 23:30:00,METAR VMMC 292330Z 36019KT 9999 FEW020 SCT045 21/15 Q1015 NOSIG,0,19,0,10000,0,0,0,
2026-04-29 23:00:00,METAR VMMC 292300Z 35017KT 9999 FEW020 SCT045 21/16 Q1014 NOSIG,0,17,0,10000,0,0,0,
2026-04-29 22:30:00,METAR VMMC 292230Z 34016KT 9999 FEW020 SCT045 20/15 Q1014 NOSIG,0,16,0,10000,0,0,0,
2026-04-29 22:00:00,METAR VMMC 292200Z 35016KT 9999 FEW020 SCT045 20/15 Q1014 NOSIG,0,16,0,10000,0,0,0,
2026-04-29 21:30:00,METAR VMMC 292130Z 34018KT 9999 FEW020 SCT045 20/15 Q1013 NOSIG,0,18,0,10000,0,0,0,
2026-04-29 21:00:00,METAR VMMC 292100Z 35019KT 9999 FEW020 SCT045 21/15 Q1013 NOSIG,0,19,0,10000,0,0,0,
2026-04-29 20:30:00,METAR VMMC 292030Z 35017KT 9999 FEW020 SCT045 21/16 Q1013 NOSIG,0,17,0,10000,0,0,0,
2026-04-29 20:00:00,METAR VMMC 292000Z 36018KT 9999 FEW020 SCT045 21/16 Q1013 NOSIG,0,18,0,10000,0,0,0,
2026-04-29 19:30:00,METAR VMMC 291930Z 36018KT 9999 FEW020 SCT045 21/16 Q1013 NOSIG,0,18,0,10000,0,0,0,
2026-04-29 19:00:00,METAR VMMC 291900Z 35016KT 9999 FEW020 SCT040 21/15 Q1013 NOSIG,0,16,0,10000,0,0,0,
2026-04-29 18:30:00,METAR VMMC 291830Z 35021KT 9999 FEW020 SCT040 21/16 Q1013 NOSIG,0,21,0,10000,0,0,0,
2026-04-29 18:00:00,METAR VMMC 291800Z 35018KT 9999 FEW020 SCT040 22/17 Q1013 NOSIG,0,18,0,10000,0,0,0,
2026-04-29 17:30:00,METAR VMMC 291730Z 36020KT 9999 FEW020 SCT040 22/17 Q1013 NOSIG,0,20,0,10000,0,0,0,
2026-04-29 17:00:00,METAR VMMC 291700Z 36021KT 9999 FEW020 SCT040 22/17 Q1013 NOSIG,0,21,0,10000,0,0,0,
2026-04-29 16:30:00,METAR VMMC 291630Z 35019KT 9999 FEW012 SCT030 22/17 Q1014 NOSIG,0,19,0,10000,0,0,0,
2026-04-29 16:00:00,METAR VMMC 291600Z 35017KT 9999 FEW012 SCT022 22/18 Q1014 NOSIG,0,17,0,10000,0,0,0,
2026-04-29 15:30:00,METAR VMMC 291530Z COR 36020KT 9999 FEW010 SCT025 23/19 Q1014 NOSIG,0,20,0,10000,0,0,0,
2026-04-29 15:00:00,METAR VMMC 291500Z 36020KT 9999 FEW010 SCT020 23/19 Q1014 NOSIG,0,20,0,10000,0,0,0,
2026-04-29 14:30:00,METAR VMMC 291430Z 35017KT 9999 FEW012 SCT025 23/19 Q1014 NOSIG,0,17,0,10000,0,0,0,
2026-04-29 14:00:00,METAR VMMC 291400Z 34016KT 9999 FEW012 SCT025 23/18 Q1013 NOSIG,0,16,0,10000,0,0,0,
2026-04-29 13:30:00,METAR VMMC 291330Z 34013KT 9999 FEW012 SCT045 23/18 Q1013 NOSIG,0,13,0,10000,0,0,0,
2026-04-29 13:00:00,METAR VMMC 291300Z 34014KT 9999 FEW012 SCT045 23/18 Q1012 NOSIG,0,14,0,10000,0,0,0,
2026-04-29 12:30:00,METAR VMMC 291230Z 34014KT 9999 FEW012 SCT045 23/18 Q1012 NOSIG,0,14,0,10000,0,0,0,
2026-04-29 12:00:00,METAR VMMC 291200Z 34011KT 9999 FEW012 SCT035 23/19 Q1011 NOSIG,0,11,0,10000,0,0,0,
2026-04-29 11:30:00,METAR VMMC 291130Z 34012KT 9999 FEW012 SCT035 24/20 Q1011 NOSIG,0,12,0,10000,0,0,0,
2026-04-29 11:00:00,METAR VMMC 291100Z 35012KT 9999 FEW012 SCT045 24/20 Q1010 NOSIG,0,12,0,10000,0,0,0,
2026-04-29 10:30:00,METAR VMMC 291030Z 36015KT 9999 FEW012 SCT025 24/20 Q1010 NOSIG,0,15,0,10000,0,0,0,
2026-04-29 10:00:00,METAR VMMC 291000Z 36016KT 9999 FEW012 SCT025 24/21 Q1010 NOSIG,0,16,0,10000,0,0,0,
2026-04-29 09:30:00,METAR VMMC 290930Z 36014KT 9999 FEW012 SCT025 25/22 Q1009 NOSIG,0,14,0,10000,0,0,0,
2026-04-29 09:00:00,METAR VMMC 290900Z 02013KT 7000 -SHRA FEW010 FEW015CB SCT020 25/23 Q1009 NOSIG,0,13,0,7000,0,0,0,RA
2026-04-29 08:46:00,SPECI VMMC 290846Z 01013KT 6000 -SHRA FEW010 FEW015CB SCT020 24/23 Q1009 RESHRA TEMPO 4000 SHRA,0,13,0,6000,0,0,0,"RA,SH"
2026-04-29 08:30:00,METAR VMMC 290830Z 36015KT 2800 SHRA FEW008 FEW015CB SCT018 24/23 Q1009 TEMPO VRB18G28KT 1400 TSRA,0,15,0,2800,1,0,0,"RA,SH,TS"
2026-04-29 08:00:00,METAR VMMC 290800Z 16007KT 130V190 8000 -SHRA FEW010 FEW015CB SCT020 27/24 Q1008 NOSIG,0,7,0,8000,0,0,0,RA
2026-04-29 07:30:00,METAR VMMC 290730Z 19007KT 9999 FEW010 SCT020 27/24 Q1008 TEMPO VRB18G28KT 4000 TSRA FEW010CB SCT020,0,7,0,10000,1,0,0,"RA,TS"
2026-04-29 07:00:00,METAR VMMC 290700Z 18008KT 9999 FEW010 SCT025 27/24 Q1008 NOSIG,0,8,0,10000,0,0,0,
2026-04-29 06:30:00,METAR VMMC 290630Z 18008KT 9999 FEW010 SCT025 27/24 Q1009 NOSIG,0,8,0,10000,0,0,0,
2026-04-29 06:00:00,METAR VMMC 290600Z 18011KT 9999 FEW010 SCT025 26/24 Q1009 NOSIG,0,11,0,10000,0,0,0,
2026-04-29 05:30:00,METAR VMMC 290530Z 19011KT 9999 FEW015 SCT035 27/24 Q1009 NOSIG,0,11,0,10000,0,0,0,
2026-04-29 05:00:00,METAR VMMC 290500Z 21006KT 180V250 9999 FEW015 SCT035 27/24 Q1009 NOSIG,0,6,0,10000,0,0,0,
2026-04-29 04:30:00,METAR VMMC 290430Z 24008KT 9999 FEW015 SCT035 26/23 Q1010 NOSIG,0,8,0,10000,0,0,0,
2026-04-29 04:00:00,METAR VMMC 290400Z 24011KT 9000 -SHRA FEW015CB SCT035 24/22 Q1010 RETS NOSIG,0,11,0,9000,1,0,0,"RA,TS"
2026-04-29 03:30:00,METAR VMMC 290330Z 22015KT 7000 3400SW -TSRA FEW010 FEW015CB SCT025 23/20 Q1011 NOSIG,0,15,0,7000,1,0,0,RA
2026-04-29 03:15:00,SPECI VMMC 290315Z 22014KT 6000 -TSRA FEW010 FEW015CB SCT025 24/22 Q1011 RESHRA NOSIG,0,14,0,6000,1,0,0,RA
2026-04-29 03:00:00,METAR VMMC 290300Z 23006KT 4200 TSRA FEW010 FEW015CB SCT028 26/24 Q1011 NOSIG,0,6,0,4200,1,0,0,"RA,TS"
2026-04-29 02:50:00,SPECI VMMC 290250Z 23006KT 7000 3200W -TSRA FEW010 FEW015CB SCT028 26/24 Q1011 NOSIG,0,6,0,7000,1,0,0,RA
2026-04-29 02:30:00,METAR VMMC 290230Z 19005KT 9999 -SHRA FEW010 FEW015CB SCT030 26/24 Q1011 TEMPO VRB18G28KT 2000 +TSRA,0,5,0,10000,1,0,0,RA
2026-04-29 02:00:00,METAR VMMC 290200Z 24004KT 200V320 9999 -SHRA FEW010 FEW015CB SCT028 26/23 Q1011 TEMPO VRB15G25KT 3500 TSRA,0,4,0,10000,1,0,0,"RA,TS"
2026-04-29 01:30:00,METAR VMMC 290130Z 14004KT 9999 -SHRA VCTS FEW010 FEW015CB SCT028 26/23 Q1010 NOSIG,0,4,0,10000,1,0,0,"RA,TS,VC"
2026-04-29 01:00:00,METAR VMMC 290100Z 17003KT 120V220 9999 FEW010 SCT020 27/22 Q1010 TEMPO VRB15G25KT 3500 TSRA,0,3,0,10000,1,0,0,"RA,TS"
2026-04-29 00:30:00,METAR VMMC 290030Z 18003KT 150V220 9999 FEW010 SCT022 26/23 Q1010 NOSIG,0,3,0,10000,0,0,0,
2026-04-29 00:00:00,METAR VMMC 290000Z VRB02KT 9999 FEW010 SCT025 26/23 Q1009 NOSIG,0,2,0,10000,0,0,0,
2026-04-28 23:30:00,METAR VMMC 282330Z 23003KT 200V270 9999 FEW010 25/24 Q1009 NOSIG,0,3,0,10000,0,0,0,
2026-04-28 23:00:00,METAR VMMC 282300Z 22005KT 9999 FEW010 25/23 Q1009 NOSIG,0,5,0,10000,0,0,0,
2026-04-28 22:30:00,METAR VMMC 282230Z 20008KT 9999 FEW010 SCT030 25/23 Q1008 NOSIG,0,8,0,10000,0,0,0,
2026-04-28 22:00:00,METAR VMMC 282200Z 21003KT 180V260 9999 FEW012 25/23 Q1008 NOSIG,0,3,0,10000,0,0,0,
2026-04-28 21:30:00,METAR VMMC 282130Z 24004KT 200V280 9999 -SHRA FEW012 SCT025 24/22 Q1008 RETS NOSIG,0,4,0,10000,1,0,0,"RA,TS"
2026-04-28 21:00:00,METAR VMMC 282100Z 20005KT 9999 -TSRA FEW008 FEW015CB SCT025 BKN045 24/22 Q1008 NOSIG,0,5,0,10000,1,0,0,RA
2026-04-28 20:30:00,METAR VMMC 282030Z 20004KT 8000 -TSRA FEW010 FEW015CB SCT025 BKN045 23/22 Q1008 TEMPO VRB15G25KT 3500 TSRA,0,4,0,8000,1,0,0,"RA,TS"
2026-04-28 20:00:00,METAR VMMC 282000Z 17011KT 9999 -TSRA FEW010 FEW015CB SCT025 BKN045 23/22 Q1008 NOSIG,0,11,0,10000,1,0,0,RA
2026-04-28 19:30:00,METAR VMMC 281930Z 19011KT 9999 -SHRA VCTS FEW010 FEW015CB SCT025 BKN045 23/22 Q1008 RETS NOSIG,0,11,0,10000,1,0,0,"RA,TS,VC"
2026-04-28 19:00:00,METAR VMMC 281900Z 18011KT 9999 -TSRA FEW010 FEW015CB SCT025 BKN045 23/22 Q1008 RESHRA NOSIG,0,11,0,10000,1,0,0,RA
2026-04-28 18:30:00,METAR VMMC 281830Z 22009KT 4200 TSRA FEW006 SCT012CB BKN045 23/22 Q1008 TEMPO 2000 +TSRA,0,9,0,4200,1,0,0,"RA,TS"
2026-04-28 18:00:00,METAR VMMC 281800Z 26012KT 4000 TSRA FEW006 SCT012CB BKN045 22/21 Q1008 NOSIG,0,12,0,4000,1,0,0,"RA,TS"
2026-04-28 17:30:00,METAR VMMC 281730Z 21017KT 3000 TSRA FEW006 SCT012CB BKN045 22/22 Q1008 NOSIG,0,17,0,3000,1,0,0,"RA,TS"
2026-04-28 17:06:00,SPECI VMMC 281706Z 17010KT 2500 TSRA FEW010 SCT15CB BKN045 26/25 Q1009 NOSIG,0,10,0,2500,1,0,0,"RA,TS"
2026-04-28 17:00:00,METAR VMMC 281700Z 15007KT 9999 TS FEW010 FEW015CB SCT025 26/25 Q1009 NOSIG,0,7,0,10000,1,0,0,TS
2026-04-28 16:45:00,SPECI VMMC 281645Z 16007KT 9999 TS FEW010 FEW015CB SCT025 26/25 Q1009 TEMPO VRB20G32KT 1400 +TSRA,0,7,0,10000,1,0,0,"RA,TS"
2026-04-28 16:30:00,METAR VMMC 281630Z 17008KT 9999 FEW010 SCT025 26/25 Q1009 TEMPO VRB20G32KT 1400 +TSRA FEW008 SCT015CB,0,8,0,10000,1,0,0,RA
2026-04-28 16:00:00,METAR VMMC 281600Z 16008KT 9999 -SHRA FEW010 SCT025 26/25 Q1009 NOSIG,0,8,0,10000,0,0,0,RA
2026-04-28 15:30:00,METAR VMMC 281530Z 17008KT 9999 -SHRA FEW010 SCT025 26/25 Q1009 NOSIG,0,8,0,10000,0,0,0,RA
2026-04-28 15:00:00,METAR VMMC 281500Z 17008KT 9999 -SHRA FEW010 SCT025 26/25 Q1009 NOSIG,0,8,0,10000,0,0,0,RA
2026-04-28 14:30:00,METAR VMMC 281430Z 17007KT 9999 -SHRA FEW010 SCT025 26/25 Q1009 NOSIG,0,7,0,10000,0,0,0,RA
2026-04-28 14:00:00,METAR VMMC 281400Z 16009KT 9999 -SHRA FEW010 SCT025 26/25 Q1009 NOSIG,0,9,0,10000,0,0,0,RA
2026-04-28 13:30:00,METAR VMMC 281330Z 17007KT 9999 FEW010 SCT025 26/24 Q1009 NOSIG,0,7,0,10000,0,0,0,
2026-04-28 13:00:00,METAR VMMC 281300Z 15008KT 9999 -SHRA FEW010 SCT025 26/25 Q1008 NOSIG,0,8,0,10000,0,0,0,RA
2026-04-28 12:30:00,METAR VMMC 281230Z 17008KT 9999 -SHRA FEW010 SCT020 26/25 Q1009 NOSIG,0,8,0,10000,0,0,0,RA
2026-04-28 12:00:00,METAR VMMC 281200Z 17009KT 9999 FEW010 SCT020 26/24 Q1009 NOSIG,0,9,0,10000,0,0,0,
2026-04-28 11:30:00,METAR VMMC 281130Z 17009KT 9999 FEW010 SCT020 26/25 Q1008 NOSIG,0,9,0,10000,0,0,0,
2026-04-28 11:00:00,METAR VMMC 281100Z 17009KT 9999 FEW010 SCT025 26/24 Q1008 NOSIG,0,9,0,10000,0,0,0,
2026-04-28 10:30:00,METAR VMMC 281030Z 17010KT 9999 FEW010 SCT025 26/24 Q1008 NOSIG,0,10,0,10000,0,0,0,
2026-04-28 10:00:00,METAR VMMC 281000Z 17012KT 9999 FEW010 SCT025 26/25 Q1007 NOSIG,0,12,0,10000,0,0,0,
2026-04-28 09:30:00,METAR VMMC 280930Z 17012KT 9999 FEW010 SCT025 27/24 Q1007 NOSIG,0,12,0,10000,0,0,0,
2026-04-28 09:00:00,METAR VMMC 280900Z 16012KT 9999 FEW010 SCT025 27/24 Q1007 NOSIG,0,12,0,10000,0,0,0,
2026-04-28 08:30:00,METAR VMMC 280830Z 17014KT 9999 FEW012 SCT025 27/24 Q1007 NOSIG,0,14,0,10000,0,0,0,
2026-04-28 08:00:00,METAR VMMC 280800Z 18013KT 9999 FEW012 SCT025 28/24 Q1008 NOSIG,0,13,0,10000,0,0,0,
2026-04-28 07:30:00,METAR VMMC 280730Z 16009KT 9999 FEW015 28/25 Q1008 NOSIG,0,9,0,10000,0,0,0,
2026-04-28 07:00:00,METAR VMMC 280700Z 15009KT 9999 FEW012 28/25 Q1008 NOSIG,0,9,0,10000,0,0,0,
2026-04-28 06:30:00,METAR VMMC 280630Z 14009KT 9999 FEW015 SCT045 28/25 Q1008 NOSIG,0,9,0,10000,0,0,0,
2026-04-28 06:00:00,METAR VMMC 280600Z 14010KT 9999 FEW012 SCT045 28/25 Q1009 NOSIG,0,10,0,10000,0,0,0,
2026-04-28 05:30:00,METAR VMMC 280530Z 14010KT 9999 FEW010 SCT045 27/25 Q1009 NOSIG,0,10,0,10000,0,0,0,
2026-04-28 05:00:00,METAR VMMC 280500Z 14010KT 9999 FEW010 SCT045 27/25 Q1009 NOSIG,0,10,0,10000,0,0,0,
2026-04-28 04:30:00,METAR VMMC 280430Z 12009KT 9999 FEW012 SCT045 27/25 Q1010 NOSIG,0,9,0,10000,0,0,0,
2026-04-28 04:00:00,METAR VMMC 280400Z 13010KT 9999 FEW015 SCT045 27/25 Q1011 TEMPO 4000 SHRA,0,10,0,10000,0,0,0,"RA,SH"
2026-04-28 03:30:00,METAR VMMC 280330Z 13010KT 110V170 9999 FEW015 SCT045 26/24 Q1011 NOSIG,0,10,0,10000,0,0,0,
2026-04-28 03:00:00,METAR VMMC 280300Z 12009KT 9999 FEW015 SCT045 27/24 Q1011 NOSIG,0,9,0,10000,0,0,0,
2026-04-28 02:30:00,METAR VMMC 280230Z 11013KT 9999 FEW015 26/24 Q1010 NOSIG,0,13,0,10000,0,0,0,
2026-04-28 02:00:00,METAR VMMC 280200Z 11009KT 9999 FEW012 SCT045 26/24 Q1011 NOSIG,0,9,0,10000,0,0,0,
2026-04-28 01:30:00,METAR VMMC 280130Z 11009KT 9999 FEW012 SCT045 26/24 Q1011 NOSIG,0,9,0,10000,0,0,0,
2026-04-28 01:00:00,METAR VMMC 280100Z 11010KT 9999 FEW012 SCT045 26/24 Q1011 NOSIG,0,10,0,10000,0,0,0,
2026-04-28 00:30:00,METAR VMMC 280030Z 12009KT 9999 FEW012 SCT045 25/24 Q1011 NOSIG,0,9,0,10000,0,0,0,
2026-04-28 00:00:00,METAR VMMC 280000Z 12010KT 9999 FEW012 SCT045 25/24 Q1011 NOSIG,0,10,0,10000,0,0,0,
2026-04-27 23:30:00,METAR VMMC 272330Z 11011KT 9999 FEW012 SCT045 25/23 Q1010 NOSIG,0,11,0,10000,0,0,0,
2026-04-27 23:00:00,METAR VMMC 272300Z 11010KT 9999 FEW012 SCT045 25/23 Q1010 NOSIG,0,10,0,10000,0,0,0,
2026-04-27 22:30:00,METAR VMMC 272230Z 11011KT 9999 FEW012 SCT045 25/23 Q1010 NOSIG,0,11,0,10000,0,0,0,
2026-04-27 22:00:00,METAR VMMC 272200Z 11012KT 9999 FEW012 SCT045 25/23 Q1010 NOSIG,0,12,0,10000,0,0,0,
2026-04-27 21:30:00,METAR VMMC 272130Z 10011KT 9999 FEW010 SCT035 25/23 Q1009 NOSIG,0,11,0,10000,0,0,0,
2026-04-27 21:00:00,METAR VMMC 272100Z 09008KT 9999 FEW010 SCT035 25/23 Q1009 TEMPO 4000 SHRA,0,8,0,10000,0,0,0,"RA,SH"
2026-04-27 20:30:00,METAR VMMC 272030Z 09008KT 060V120 9999 FEW012 SCT035 25/23 Q1009 NOSIG,0,8,0,10000,0,0,0,
2026-04-27 20:00:00,METAR VMMC 272000Z VRB07KT 9999 FEW012 SCT035 25/23 Q1009 NOSIG,0,7,0,10000,0,0,0,
2026-04-27 19:30:00,METAR VMMC 271930Z 09007KT 010V150 9999 FEW012 SCT035 25/22 Q1009 NOSIG,0,7,0,10000,0,0,0,
2026-04-27 19:00:00,METAR VMMC 271900Z 09007KT 9999 FEW012 SCT035 25/23 Q1010 NOSIG,0,7,0,10000,0,0,0,
2026-04-27 18:30:00,METAR VMMC 271830Z 09006KT 060V130 9999 FEW015 SCT035 25/23 Q1010 NOSIG,0,6,0,10000,0,0,0,
2026-04-27 18:00:00,METAR VMMC 271800Z 11007KT 9999 FEW015 SCT028 25/23 Q1011 TEMPO 4000 SHRA,0,7,0,10000,0,0,0,"RA,SH"
2026-04-27 17:30:00,METAR VMMC 271730Z 12008KT 9999 FEW015 SCT028 25/23 Q1011 NOSIG,0,8,0,10000,0,0,0,
2026-04-27 17:00:00,METAR VMMC 271700Z 13009KT 9999 FEW015 SCT028 25/22 Q1011 NOSIG,0,9,0,10000,0,0,0,
2026-04-27 16:30:00,METAR VMMC 271630Z 13010KT 9999 FEW012 SCT028 25/22 Q1011 TEMPO 4000 SHRA,0,10,0,10000,0,0,0,"RA,SH"
2026-04-27 16:00:00,METAR VMMC 271600Z 13008KT 9999 FEW012 SCT028 25/22 Q1011 NOSIG,0,8,0,10000,0,0,0,
2026-04-27 15:30:00,METAR VMMC 271530Z 11009KT 9999 FEW012 25/22 Q1011 NOSIG,0,9,0,10000,0,0,0,
2026-04-27 15:00:00,METAR VMMC 271500Z 13011KT 9999 FEW012 25/22 Q1011 NOSIG,0,11,0,10000,0,0,0,
2026-04-27 14:30:00,METAR VMMC 271430Z 12010KT 100V160 9999 FEW012 SCT025 25/22 Q1011 NOSIG,0,10,0,10000,0,0,0,
2026-04-27 14:00:00,METAR VMMC 271400Z 13014KT 9999 FEW012 SCT025 25/23 Q1011 NOSIG,0,14,0,10000,0,0,0,
2026-04-27 13:30:00,METAR VMMC 271330Z 12015KT 9999 FEW010 SCT020 25/23 Q1010 NOSIG,0,15,0,10000,0,0,0,
2026-04-27 13:00:00,METAR VMMC 271300Z 12014KT 9999 -SHRA FEW010 SCT020 25/22 Q1011 NOSIG,0,14,0,10000,0,0,0,RA
2026-04-27 12:30:00,METAR VMMC 271230Z 13010KT 9999 -SHRA FEW010 SCT020 25/22 Q1011 NOSIG,0,10,0,10000,0,0,0,RA
2026-04-27 12:00:00,METAR VMMC 271200Z 12010KT 9999 FEW020 25/22 Q1011 TEMPO 4500 SHRA,0,10,0,10000,0,0,0,"RA,SH"
2026-04-27 11:30:00,METAR VMMC 271130Z 10007KT 9999 FEW020 25/22 Q1011 NOSIG,0,7,0,10000,0,0,0,
2026-04-27 11:00:00,METAR VMMC 271100Z 11006KT 080V140 9999 FEW020 25/22 Q1011 NOSIG,0,6,0,10000,0,0,0,
2026-04-27 10:30:00,METAR VMMC 271030Z 13004KT 100V170 9999 FEW020 25/22 Q1011 NOSIG,0,4,0,10000,0,0,0,
2026-04-27 10:00:00,METAR VMMC 271000Z 11008KT 9999 FEW020 25/22 Q1010 NOSIG,0,8,0,10000,0,0,0,
2026-04-27 09:30:00,METAR VMMC 270930Z 10009KT 9999 FEW020 25/22 Q1010 NOSIG,0,9,0,10000,0,0,0,
2026-04-27 09:00:00,METAR VMMC 270900Z 12008KT 100V160 9999 FEW020 26/22 Q1010 TEMPO 4000 SHRA,0,8,0,10000,0,0,0,"RA,SH"
2026-04-27 08:30:00,METAR VMMC 270830Z 12009KT 9999 FEW018 SCT025 25/22 Q1010 NOSIG,0,9,0,10000,0,0,0,
2026-04-27 08:00:00,METAR VMMC 270800Z 10007KT 070V130 9999 FEW018 SCT025 26/22 Q1010 NOSIG,0,7,0,10000,0,0,0,
2026-04-27 07:30:00,METAR VMMC 270730Z 11008KT 9999 FEW018 SCT025 26/22 Q1010 NOSIG,0,8,0,10000,0,0,0,
2026-04-27 07:00:00,METAR VMMC 270700Z 10010KT 9999 FEW018 SCT025 26/22 Q1010 NOSIG,0,10,0,10000,0,0,0,
2026-04-27 06:30:00,METAR VMMC 270630Z 10010KT 9999 FEW018 SCT025 26/22 Q1011 NOSIG,0,10,0,10000,0,0,0,
2026-04-27 06:00:00,METAR VMMC 270600Z 10009KT 9999 FEW018 SCT025 26/22 Q1011 NOSIG,0,9,0,10000,0,0,0,
2026-04-27 05:30:00,METAR VMMC 270530Z 11008KT 9999 FEW018 26/22 Q1012 NOSIG,0,8,0,10000,0,0,0,
2026-04-27 05:00:00,METAR VMMC 270500Z 11009KT 9999 FEW018 26/22 Q1012 NOSIG,0,9,0,10000,0,0,0,
2026-04-27 04:30:00,METAR VMMC 270430Z 11009KT 9999 FEW020 26/22 Q1012 NOSIG,0,9,0,10000,0,0,0,
2026-04-27 04:00:00,METAR VMMC 270400Z 11010KT 9999 FEW020 26/22 Q1013 NOSIG,0,10,0,10000,0,0,0,
2026-04-27 03:30:00,METAR VMMC 270330Z 11010KT 9999 FEW020 26/22 Q1013 NOSIG,0,10,0,10000,0,0,0,
2026-04-27 03:00:00,METAR VMMC 270300Z 10011KT 090V150 9999 FEW020 26/22 Q1013 NOSIG,0,11,0,10000,0,0,0,
2026-04-27 02:30:00,METAR VMMC 270230Z 11010KT 9999 FEW020 26/22 Q1013 NOSIG,0,10,0,10000,0,0,0,
2026-04-27 02:00:00,METAR VMMC 270200Z 11010KT 9999 FEW020 26/22 Q1014 NOSIG,0,10,0,10000,0,0,0,
2026-04-27 01:30:00,METAR VMMC 270130Z 11009KT 9999 FEW020 25/22 Q1014 NOSIG,0,9,0,10000,0,0,0,
2026-04-27 01:00:00,METAR VMMC 270100Z 11008KT 9999 FEW020 25/22 Q1013 NOSIG,0,8,0,10000,0,0,0,
2026-04-27 00:30:00,METAR VMMC 270030Z 11008KT 9999 FEW020 25/22 Q1013 NOSIG,0,8,0,10000,0,0,0,
2026-04-27 00:00:00,METAR VMMC 270000Z 10007KT 9999 FEW020 25/22 Q1013 NOSIG,0,7,0,10000,0,0,0,
2026-04-26 23:30:00,METAR VMMC 262330Z 10007KT 070V140 9999 FEW015 25/22 Q1013 NOSIG,0,7,0,10000,0,0,0,
2026-04-26 23:00:00,METAR VMMC 262300Z 10008KT 9999 FEW015 25/22 Q1012 NOSIG,0,8,0,10000,0,0,0,
2026-04-26 22:30:00,METAR VMMC 262230Z 10007KT 9999 FEW015 25/22 Q1012 NOSIG,0,7,0,10000,0,0,0,
2026-04-26 22:00:00,METAR VMMC 262200Z 11008KT 080V140 9999 FEW015 24/22 Q1012 NOSIG,0,8,0,10000,0,0,0,
2026-04-26 21:30:00,METAR VMMC 262130Z 11008KT 9999 FEW014 SCT026 24/22 Q1011 NOSIG,0,8,0,10000,0,0,0,
2026-04-26 21:00:00,METAR VMMC 262100Z 11007KT 9999 FEW014 SCT022 24/22 Q1011 NOSIG,0,7,0,10000,0,0,0,
2026-04-26 20:30:00,METAR VMMC 262030Z 10007KT 080V160 9999 FEW014 SCT020 24/22 Q1011 NOSIG,0,7,0,10000,0,0,0,
2026-04-26 20:00:00,METAR VMMC 262000Z 10007KT 9999 FEW014 SCT020 24/22 Q1011 NOSIG,0,7,0,10000,0,0,0,
2026-04-26 19:30:00,METAR VMMC 261930Z 11006KT 080V140 9999 FEW014 24/22 Q1011 NOSIG,0,6,0,10000,0,0,0,
2026-04-26 19:00:00,METAR VMMC 261900Z 12007KT 9999 FEW014 24/21 Q1011 NOSIG,0,7,0,10000,0,0,0,
2026-04-26 18:30:00,METAR VMMC 261830Z 12008KT 9999 FEW017 24/21 Q1011 NOSIG,0,8,0,10000,0,0,0,
2026-04-26 18:00:00,METAR VMMC 261800Z 12008KT 9999 FEW017 25/21 Q1011 NOSIG,0,8,0,10000,0,0,0,
2026-04-26 17:30:00,METAR VMMC 261730Z 12008KT 9999 FEW017 25/22 Q1012 NOSIG,0,8,0,10000,0,0,0,
2026-04-26 17:00:00,METAR VMMC 261700Z 13006KT 9999 FEW015 25/21 Q1012 NOSIG,0,6,0,10000,0,0,0,
2026-04-26 16:30:00,METAR VMMC 261630Z 13007KT 9999 FEW015 25/21 Q1012 NOSIG,0,7,0,10000,0,0,0,
2026-04-26 16:00:00,METAR VMMC 261600Z 13006KT 100V160 CAVOK 25/21 Q1012 NOSIG,1,0,0,9999,0,0,0,
2026-04-26 15:30:00,METAR VMMC 261530Z 13007KT 9999 FEW015 25/22 Q1013 NOSIG,0,7,0,10000,0,0,0,
2026-04-26 15:00:00,METAR VMMC 261500Z 14006KT CAVOK 25/21 Q1013 NOSIG,1,0,0,9999,0,0,0,
2026-04-26 14:30:00,METAR VMMC 261430Z 14006KT 110V170 CAVOK 25/21 Q1013 NOSIG,1,0,0,9999,0,0,0,
2026-04-26 14:00:00,METAR VMMC 261400Z 15007KT CAVOK 25/21 Q1013 NOSIG,1,0,0,9999,0,0,0,
2026-04-26 13:30:00,METAR VMMC 261330Z 14007KT CAVOK 25/21 Q1012 NOSIG,1,0,0,9999,0,0,0,
2026-04-26 13:00:00,METAR VMMC 261300Z 14007KT CAVOK 25/21 Q1012 NOSIG,1,0,0,9999,0,0,0,
2026-04-26 12:30:00,METAR VMMC 261230Z 14007KT 110V170 CAVOK 25/21 Q1012 NOSIG,1,0,0,9999,0,0,0,
2026-04-26 12:00:00,METAR VMMC 261200Z 13007KT CAVOK 25/21 Q1012 NOSIG,1,0,0,9999,0,0,0,
2026-04-26 11:30:00,METAR VMMC 261130Z 15008KT CAVOK 25/21 Q1011 NOSIG,1,0,0,9999,0,0,0,
2026-04-26 11:00:00,METAR VMMC 261100Z 14008KT CAVOK 25/21 Q1011 NOSIG,1,0,0,9999,0,0,0,
2026-04-26 10:30:00,METAR VMMC 261030Z 14007KT CAVOK 25/21 Q1011 NOSIG,1,0,0,9999,0,0,0,
2026-04-26 10:00:00,METAR VMMC 261000Z 14007KT 9999 FEW025 25/21 Q1011 NOSIG,0,7,0,10000,0,0,0,
2026-04-26 09:30:00,METAR VMMC 260930Z 13008KT CAVOK 26/21 Q1011 NOSIG,1,0,0,9999,0,0,0,
2026-04-26 09:00:00,METAR VMMC 260900Z 13007KT 9999 FEW020 26/21 Q1011 NOSIG,0,7,0,10000,0,0,0,
2026-04-26 08:30:00,METAR VMMC 260830Z 14007KT 110V170 9999 FEW020 26/21 Q1011 NOSIG,0,7,0,10000,0,0,0,
2026-04-26 08:00:00,METAR VMMC 260800Z 13007KT 9999 FEW020 26/21 Q1011 NOSIG,0,7,0,10000,0,0,0,
2026-04-26 07:30:00,METAR VMMC 260730Z 13007KT 9999 FEW020 26/21 Q1012 NOSIG,0,7,0,10000,0,0,0,
2026-04-26 07:00:00,METAR VMMC 260700Z 13007KT 9999 FEW020 26/21 Q1012 NOSIG,0,7,0,10000,0,0,0,
2026-04-26 06:30:00,METAR VMMC 260630Z 14007KT 9999 FEW020 26/21 Q1012 NOSIG,0,7,0,10000,0,0,0,
2026-04-26 06:00:00,METAR VMMC 260600Z 14006KT 9999 FEW020 26/21 Q1013 NOSIG,0,6,0,10000,0,0,0,
2026-04-26 05:30:00,METAR VMMC 260530Z 13007KT 9999 FEW015 26/21 Q1013 NOSIG,0,7,0,10000,0,0,0,
2026-04-26 05:00:00,METAR VMMC 260500Z 12006KT 100V160 9999 FEW015 26/21 Q1014 NOSIG,0,6,0,10000,0,0,0,
2026-04-26 04:30:00,METAR VMMC 260430Z 12005KT 070V150 9999 FEW015 26/21 Q1014 NOSIG,0,5,0,10000,0,0,0,
2026-04-26 04:00:00,METAR VMMC 260400Z 11006KT 050V140 9999 FEW016 26/21 Q1015 NOSIG,0,6,0,10000,0,0,0,
2026-04-26 03:30:00,METAR VMMC 260330Z 10003KT 030V140 9999 FEW015 26/22 Q1015 NOSIG,0,3,0,10000,0,0,0,
2026-04-26 03:00:00,METAR VMMC 260300Z VRB04KT 9999 FEW015 26/22 Q1015 NOSIG,0,4,0,10000,0,0,0,
2026-04-26 02:30:00,METAR VMMC 260230Z 05005KT 010V090 9999 FEW015 26/22 Q1015 NOSIG,0,5,0,10000,0,0,0,
2026-04-26 02:00:00,METAR VMMC 260200Z 05006KT 020V080 9999 FEW015 25/22 Q1015 NOSIG,0,6,0,10000,0,0,0,
2026-04-26 01:30:00,METAR VMMC 260130Z 09007KT 060V130 9999 FEW012 SCT022 25/21 Q1015 NOSIG,0,7,0,10000,0,0,0,
2026-04-26 01:00:00,METAR VMMC 260100Z 08006KT 350V120 9999 FEW012 SCT022 25/22 Q1015 NOSIG,0,6,0,10000,0,0,0,
2026-04-26 00:30:00,METAR VMMC 260030Z 04008KT 9999 FEW012 SCT025 25/22 Q1014 NOSIG,0,8,0,10000,0,0,0,
2026-04-26 00:00:00,METAR VMMC 260000Z 04008KT 360V060 9000 FEW012 SCT020 25/21 Q1014 NOSIG,0,8,0,9000,0,0,0,
2026-04-25 23:30:00,METAR VMMC 252330Z 08007KT 020V100 9999 FEW010 SCT018 24/21 Q1014 NOSIG,0,7,0,10000,0,0,0,
2026-04-25 23:00:00,METAR VMMC 252300Z 10007KT 9999 FEW010 SCT018 24/21 Q1014 NOSIG,0,7,0,10000,0,0,0,
2026-04-25 22:30:00,METAR VMMC 252230Z 10007KT 060V130 9999 FEW012 SCT020 24/21 Q1014 NOSIG,0,7,0,10000,0,0,0,
2026-04-25 22:00:00,METAR VMMC 252200Z 07005KT 020V130 9999 FEW012 SCT020 24/21 Q1013 NOSIG,0,5,0,10000,0,0,0,
2026-04-25 21:30:00,METAR VMMC 252130Z 08006KT 040V110 9999 FEW012 SCT020 24/21 Q1013 NOSIG,0,6,0,10000,0,0,0,
2026-04-25 21:00:00,METAR VMMC 252100Z VRB06KT 9999 FEW012 SCT025 24/21 Q1013 NOSIG,0,6,0,10000,0,0,0,
2026-04-25 20:30:00,METAR VMMC 252030Z VRB08KT 9999 FEW012 24/21 Q1012 NOSIG,0,8,0,10000,0,0,0,
2026-04-25 20:00:00,METAR VMMC 252000Z 09008KT 020V150 9999 FEW012 24/21 Q1012 NOSIG,0,8,0,10000,0,0,0,
2026-04-25 19:30:00,METAR VMMC 251930Z 08008KT 9999 FEW012 24/21 Q1013 NOSIG,0,8,0,10000,0,0,0,
2026-04-25 19:00:00,METAR VMMC 251900Z 07009KT 040V100 9999 FEW012 SCT035 24/21 Q1013 NOSIG,0,9,0,10000,0,0,0,
2026-04-25 18:30:00,METAR VMMC 251830Z VRB08KT 9999 FEW012 SCT035 24/21 Q1013 NOSIG,0,8,0,10000,0,0,0,
2026-04-25 18:00:00,METAR VMMC 251800Z 09008KT 050V120 9999 FEW012 SCT035 24/21 Q1013 NOSIG,0,8,0,10000,0,0,0,
2026-04-25 17:30:00,METAR VMMC 251730Z 09009KT 040V150 9999 FEW012 SCT035 24/21 Q1014 NOSIG,0,9,0,10000,0,0,0,
2026-04-25 17:00:00,METAR VMMC 251700Z 09010KT 060V220 9999 FEW012 SCT030 24/21 Q1014 NOSIG,0,10,0,10000,0,0,0,
2026-04-25 16:30:00,METAR VMMC 251630Z 10011KT 9999 FEW012 SCT030 24/22 Q1014 NOSIG,0,11,0,10000,0,0,0,
2026-04-25 16:00:00,METAR VMMC 251600Z 10010KT 060V140 9999 FEW012 24/22 Q1014 NOSIG,0,10,0,10000,0,0,0,
2026-04-25 15:30:00,METAR VMMC 251530Z 10011KT 070V130 9999 FEW012 24/22 Q1014 NOSIG,0,11,0,10000,0,0,0,
2026-04-25 15:00:00,METAR VMMC 251500Z 10010KT 9999 FEW012 24/22 Q1014 NOSIG,0,10,0,10000,0,0,0,
2026-04-25 14:30:00,METAR VMMC 251430Z 10010KT 080V160 9999 FEW012 SCT035 24/22 Q1015 NOSIG,0,10,0,10000,0,0,0,
2026-04-25 14:00:00,METAR VMMC 251400Z 11010KT 9999 FEW012 SCT035 24/22 Q1015 NOSIG,0,10,0,10000,0,0,0,
2026-04-25 13:30:00,METAR VMMC 251330Z 11010KT 9999 FEW012 24/22 Q1014 NOSIG,0,10,0,10000,0,0,0,
2026-04-25 13:00:00,METAR VMMC 251300Z 11009KT 9999 FEW012 24/22 Q1014 NOSIG,0,9,0,10000,0,0,0,
2026-04-25 12:30:00,METAR VMMC 251230Z 11009KT 9999 FEW012 24/22 Q1014 NOSIG,0,9,0,10000,0,0,0,
2026-04-25 12:00:00,METAR VMMC 251200Z 11010KT 9999 FEW012 24/22 Q1014 NOSIG,0,10,0,10000,0,0,0,
2026-04-25 11:30:00,METAR VMMC 251130Z 11009KT 9999 FEW012 24/21 Q1014 NOSIG,0,9,0,10000,0,0,0,
2026-04-25 11:00:00,METAR VMMC 251100Z 11009KT 9999 FEW012 24/21 Q1014 NOSIG,0,9,0,10000,0,0,0,
2026-04-25 10:30:00,METAR VMMC 251030Z 11008KT 9999 FEW022 24/21 Q1013 NOSIG,0,8,0,10000,0,0,0,
2026-04-25 10:00:00,METAR VMMC 251000Z 11007KT 080V160 9999 FEW022 SCT045 24/21 Q1013 NOSIG,0,7,0,10000,0,0,0,
2026-04-25 09:30:00,METAR VMMC 250930Z 12007KT 9000 FEW025 SCT045 25/20 Q1013 NOSIG,0,7,0,9000,0,0,0,
2026-04-25 09:00:00,METAR VMMC 250900Z 11006KT 060V140 9999 FEW025 SCT045 25/20 Q1013 NOSIG,0,6,0,10000,0,0,0,
2026-04-25 08:30:00,METAR VMMC 250830Z 09006KT 010V120 9999 FEW025 25/19 Q1013 NOSIG,0,6,0,10000,0,0,0,
2026-04-25 08:00:00,METAR VMMC 250800Z 07007KT 050V130 9999 FEW025 26/19 Q1013 NOSIG,0,7,0,10000,0,0,0,
2026-04-25 07:30:00,METAR VMMC 250730Z 05007KT 9999 FEW020 26/20 Q1013 NOSIG,0,7,0,10000,0,0,0,
2026-04-25 07:00:00,METAR VMMC 250700Z 03008KT 360V060 9999 FEW020 SCT045 26/19 Q1013 NOSIG,0,8,0,10000,0,0,0,
2026-04-25 06:30:00,METAR VMMC 250630Z 02009KT 9999 FEW020 SCT045 26/19 Q1013 NOSIG,0,9,0,10000,0,0,0,
2026-04-25 06:00:00,METAR VMMC 250600Z 03009KT 360V060 9999 FEW020 SCT045 25/19 Q1014 NOSIG,0,9,0,10000,0,0,0,
2026-04-25 05:30:00,METAR VMMC 250530Z 03008KT 360V070 9999 FEW020 SCT045 25/19 Q1015 NOSIG,0,8,0,10000,0,0,0,
2026-04-25 05:00:00,METAR VMMC 250500Z 03008KT 9000 FEW025 SCT045 25/19 Q1015 NOSIG,0,8,0,9000,0,0,0,
2026-04-25 04:30:00,METAR VMMC 250430Z 03008KT 360V080 9000 FEW015 SCT045 24/19 Q1015 NOSIG,0,8,0,9000,0,0,0,
2026-04-25 04:00:00,METAR VMMC 250400Z 36010KT 8000 SCT040 24/18 Q1016 NOSIG,0,10,0,8000,0,0,0,
2026-04-25 03:30:00,METAR VMMC 250330Z 01011KT 9000 SCT040 23/18 Q1016 NOSIG,0,11,0,9000,0,0,0,
2026-04-25 03:00:00,METAR VMMC 250300Z 36012KT 9000 SCT040 23/18 Q1016 NOSIG,0,12,0,9000,0,0,0,
2026-04-25 02:30:00,METAR VMMC 250230Z 36010KT 9000 SCT040 22/18 Q1017 NOSIG,0,10,0,9000,0,0,0,
2026-04-25 02:00:00,METAR VMMC 250200Z 35010KT 9000 SCT040 22/18 Q1017 NOSIG,0,10,0,9000,0,0,0,
2026-04-25 01:30:00,METAR VMMC 250130Z 36010KT 9000 SCT040 21/18 Q1016 NOSIG,0,10,0,9000,0,0,0,
2026-04-25 01:00:00,METAR VMMC 250100Z 36011KT 9000 SCT040 21/18 Q1016 NOSIG,0,11,0,9000,0,0,0,
2026-04-25 00:30:00,METAR VMMC 250030Z 36010KT 9999 SCT040 21/17 Q1016 NOSIG,0,10,0,10000,0,0,0,
2026-04-25 00:00:00,METAR VMMC 250000Z 35012KT 9999 SCT040 21/17 Q1016 NOSIG,0,12,0,10000,0,0,0,
2026-04-24 23:30:00,METAR VMMC 242330Z 35010KT 9999 FEW025 SCT045 21/18 Q1016 NOSIG,0,10,0,10000,0,0,0,
2026-04-24 23:00:00,METAR VMMC 242300Z 34010KT 9999 FEW025 SCT045 20/17 Q1015 NOSIG,0,10,0,10000,0,0,0,
2026-04-24 22:30:00,METAR VMMC 242230Z 34009KT 9999 SCT040 20/17 Q1015 NOSIG,0,9,0,10000,0,0,0,
2026-04-24 22:00:00,METAR VMMC 242200Z 34009KT 9999 SCT040 20/17 Q1015 NOSIG,0,9,0,10000,0,0,0,
2026-04-24 21:30:00,METAR VMMC 242130Z 34008KT 9999 SCT040 20/17 Q1014 NOSIG,0,8,0,10000,0,0,0,
2026-04-24 21:00:00,METAR VMMC 242100Z 34007KT 9999 FEW010 SCT040 20/17 Q1014 NOSIG,0,7,0,10000,0,0,0,
2026-04-24 20:30:00,METAR VMMC 242030Z 34009KT 9999 FEW010 SCT040 20/17 Q1013 NOSIG,0,9,0,10000,0,0,0,
2026-04-24 20:00:00,METAR VMMC 242000Z 34009KT 9999 SCT040 19/17 Q1013 NOSIG,0,9,0,10000,0,0,0,
2026-04-24 19:30:00,METAR VMMC 241930Z 34008KT 9000 -SHRA FEW010 SCT040 20/18 Q1013 NOSIG,0,8,0,9000,0,0,0,RA
2026-04-24 19:00:00,METAR VMMC 241900Z 34008KT 9999 FEW010 SCT040 20/17 Q1013 NOSIG,0,8,0,10000,0,0,0,
2026-04-24 18:30:00,METAR VMMC 241830Z 34008KT 9999 FEW010 SCT040 20/18 Q1013 NOSIG,0,8,0,10000,0,0,0,
2026-04-24 18:00:00,METAR VMMC 241800Z 35008KT 9999 FEW010 SCT040 20/18 Q1014 NOSIG,0,8,0,10000,0,0,0,
2026-04-24 17:30:00,METAR VMMC 241730Z 35009KT 9999 FEW010 SCT020 20/18 Q1014 NOSIG,0,9,0,10000,0,0,0,
2026-04-24 17:00:00,METAR VMMC 241700Z 36010KT 9999 FEW010 SCT020 20/18 Q1014 NOSIG,0,10,0,10000,0,0,0,
2026-04-24 16:30:00,METAR VMMC 241630Z 35010KT 9999 FEW010 SCT040 20/18 Q1014 NOSIG,0,10,0,10000,0,0,0,
2026-04-24 16:00:00,METAR VMMC 241600Z 36010KT 9999 SCT010 20/19 Q1014 NOSIG,0,10,0,10000,0,0,0,
2026-04-24 15:30:00,METAR VMMC 241530Z 36009KT 9999 FEW008 SCT020 20/18 Q1015 NOSIG,0,9,0,10000,0,0,0,
2026-04-24 15:00:00,METAR VMMC 241500Z 36013KT 9999 FEW008 SCT018 20/18 Q1015 NOSIG,0,13,0,10000,0,0,0,
2026-04-24 14:30:00,METAR VMMC 241430Z 35013KT 9999 FEW008 SCT016 20/18 Q1015 NOSIG,0,13,0,10000,0,0,0,
2026-04-24 14:00:00,METAR VMMC 241400Z 36013KT 9999 FEW008 SCT016 20/18 Q1015 NOSIG,0,13,0,10000,0,0,0,
2026-04-24 13:30:00,METAR VMMC 241330Z 36014KT 9999 FEW007 SCT018 20/18 Q1015 NOSIG,0,14,0,10000,0,0,0,
2026-04-24 13:00:00,METAR VMMC 241300Z 36015KT 9999 FEW007 SCT018 20/18 Q1015 NOSIG,0,15,0,10000,0,0,0,
2026-04-24 12:30:00,METAR VMMC 241230Z 36014KT 9999 -SHRA FEW007 SCT018 19/18 Q1015 NOSIG,0,14,0,10000,0,0,0,RA
2026-04-24 12:00:00,METAR VMMC 241200Z 36015KT 9999 -SHRA FEW007 SCT018 19/18 Q1015 NOSIG,0,15,0,10000,0,0,0,RA
2026-04-24 11:30:00,METAR VMMC 241130Z 35012KT 9000 -SHRA FEW008 SCT018 19/18 Q1014 NOSIG,0,12,0,9000,0,0,0,RA
2026-04-24 11:00:00,METAR VMMC 241100Z 34011KT 8000 -SHRA FEW008 SCT018 19/17 Q1014 NOSIG,0,11,0,8000,0,0,0,RA
2026-04-24 10:30:00,METAR VMMC 241030Z 34012KT 8000 -SHRA FEW007 SCT015 18/17 Q1014 NOSIG,0,12,0,8000,0,0,0,RA
2026-04-24 10:00:00,METAR VMMC 241000Z 35012KT 7000 -SHRA FEW007 SCT015 18/17 Q1013 NOSIG,0,12,0,7000,0,0,0,RA
2026-04-24 09:39:00,SPECI VMMC 240939Z 34012KT 6000 -SHRA FEW007 SCT015 18/17 Q1014 RERA TEMPO 2500 SHRA,0,12,0,6000,0,0,0,"RA,SH"
2026-04-24 09:30:00,METAR VMMC 240930Z 34013KT 2300 SHRA FEW010 SCT015 18/17 Q1013 TEMPO 1400 +SHRA,0,13,0,2300,0,0,0,"RA,SH"
2026-04-24 09:20:00,SPECI VMMC 240920Z 34013KT 2500 SHRA FEW010 SCT015 18/17 Q1013 TEMPO 1400 +SHRA,0,13,0,2500,0,0,0,"RA,SH"
2026-04-24 09:00:00,METAR VMMC 240900Z 35017KT 7000 -SHRA FEW010 SCT020 19/18 Q1013 NOSIG,0,17,0,7000,0,0,0,RA
2026-04-24 08:30:00,METAR VMMC 240830Z 36014KT 5000 -SHRA FEW010 SCT015 19/18 Q1013 NOSIG,0,14,0,5000,0,0,0,RA
2026-04-24 08:00:00,METAR VMMC 240800Z 35018KT 5000 -SHRA FEW010 SCT015 19/17 Q1012 RERA NOSIG,0,18,0,5000,0,0,0,RA
2026-04-24 07:47:00,SPECI VMMC 240747Z 35020KT 2500 SHRA FEW010 SCT015 19/18 Q1012 TEMPO VRB20G30KT 1400 TSRA FEW010CB SCT015,0,20,0,2500,1,0,0,"RA,SH,TS"
2026-04-24 07:30:00,METAR VMMC 240730Z 35017KT 9999 -SHRA FEW010 SCT020 19/17 Q1012 NOSIG,0,17,0,10000,0,0,0,RA
2026-04-24 07:00:00,METAR VMMC 240700Z 36016KT 9000 -SHRA FEW010 SCT020 19/18 Q1012 NOSIG,0,16,0,9000,0,0,0,RA
2026-04-24 06:30:00,METAR VMMC 240630Z 35016KT 9000 -SHRA FEW010 SCT020 19/18 Q1012 NOSIG,0,16,0,9000,0,0,0,RA
2026-04-24 06:00:00,METAR VMMC 240600Z 36016KT 9999 -SHRA FEW010 SCT020 20/18 Q1012 TEMPO 2000 SHRA,0,16,0,10000,0,0,0,"RA,SH"
2026-04-24 05:30:00,METAR VMMC 240530Z 35014KT 8000 -SHRA FEW010 SCT020 19/18 Q1013 NOSIG,0,14,0,8000,0,0,0,RA
2026-04-24 05:00:00,METAR VMMC 240500Z 35015KT 6000 -SHRA FEW010 SCT015 19/18 Q1013 RERA TEMPO 4000 SHRA,0,15,0,6000,0,0,0,"RA,SH"
2026-04-24 04:37:00,SPECI VMMC 240437Z 35016KT 4000 SHRA FEW010 SCT015 20/17 Q1013 TEMPO 2000 SHRA,0,16,0,4000,0,0,0,"RA,SH"
2026-04-24 04:30:00,METAR VMMC 240430Z 35015KT 7000 -SHRA FEW010 SCT020 20/17 Q1013 NOSIG,0,15,0,7000,0,0,0,RA
2026-04-24 04:00:00,METAR VMMC 240400Z 01014KT 9999 SCT020 22/18 Q1013 TEMPO VRB18G28KT 3500 TSRA,0,14,0,10000,1,0,0,"RA,TS"
2026-04-24 03:30:00,METAR VMMC 240330Z 01011KT 9999 SCT020 22/17 Q1013 TEMPO 4000 SHRA,0,11,0,10000,0,0,0,"RA,SH"
2026-04-24 03:00:00,METAR VMMC 240300Z 01010KT 9999 SCT020 22/18 Q1013 NOSIG,0,10,0,10000,0,0,0,
2026-04-24 02:30:00,METAR VMMC 240230Z 02011KT 9999 SCT020 22/18 Q1013 NOSIG,0,11,0,10000,0,0,0,
2026-04-24 02:00:00,METAR VMMC 240200Z 01011KT 9000 -SHRA FEW012 SCT020 21/18 Q1013 TEMPO 2800 SHRA,0,11,0,9000,0,0,0,"RA,SH"
2026-04-24 01:30:00,METAR VMMC 240130Z 35013KT 9999 -SHRA FEW012 SCT020 21/18 Q1013 TEMPO 4000 SHRA,0,13,0,10000,0,0,0,"RA,SH"
2026-04-24 01:00:00,METAR VMMC 240100Z 36013KT 9999 SCT020 21/18 Q1013 NOSIG,0,13,0,10000,0,0,0,
2026-04-24 00:30:00,METAR VMMC 240030Z 36011KT 9999 -SHRA FEW012 SCT020 20/19 Q1013 RETS NOSIG,0,11,0,10000,1,0,0,"RA,TS"
2026-04-24 00:00:00,METAR VMMC 240000Z 35013KT 6000 -TSRA FEW010 SCT018CB BKN040 20/18 Q1012 NOSIG,0,13,0,6000,1,0,0,RA
2026-04-23 23:30:00,METAR VMMC 232330Z 36016KT 9000 -TSRA FEW010 SCT018CB BKN040 21/18 Q1012 TEMPO VRB20G30KT 2000 +TSRA,0,16,0,9000,1,0,0,RA
2026-04-23 23:07:00,SPECI VMMC 232307Z 36014KT 9999 -TSRA FEW010 SCT018CB BKN040 21/18 Q1012 TEMPO VRB20G30KT 2000 +TSRA,0,14,0,10000,1,0,0,RA
2026-04-23 23:00:00,METAR VMMC 232300Z 35014KT 9999 -SHRA FEW015 SCT025 21/19 Q1012 NOSIG,0,14,0,10000,0,0,0,RA
2026-04-23 22:30:00,METAR VMMC 232230Z 35014KT 9999 -SHRA FEW010 SCT022 21/18 Q1011 TEMPO VRB20G30KT 2000 +TSRA FEW010CB SCT020,0,14,0,10000,1,0,0,RA
2026-04-23 22:00:00,METAR VMMC 232200Z 35015KT 9999 -SHRA FEW010 SCT022 21/19 Q1011 NOSIG,0,15,0,10000,0,0,0,RA
2026-04-23 21:30:00,METAR VMMC 232130Z 35014KT 9999 FEW012 SCT025 21/19 Q1010 TEMPO 4000 SHRA,0,14,0,10000,0,0,0,"RA,SH"
2026-04-23 21:00:00,METAR VMMC 232100Z 36015KT 9999 FEW012 SCT025 22/19 Q1010 NOSIG,0,15,0,10000,0,0,0,
2026-04-23 20:30:00,METAR VMMC 232030Z 36015KT 9999 FEW015 SCT025 21/19 Q1010 NOSIG,0,15,0,10000,0,0,0,
2026-04-23 20:00:00,METAR VMMC 232000Z 35014KT 9999 -SHRA FEW010 SCT025 22/20 Q1010 NOSIG,0,14,0,10000,0,0,0,RA
2026-04-23 19:30:00,METAR VMMC 231930Z 36014KT 9999 FEW010 SCT025 22/20 Q1010 NOSIG,0,14,0,10000,0,0,0,
2026-04-23 19:00:00,METAR VMMC 231900Z 36013KT 9999 FEW010 SCT025 21/19 Q1010 TEMPO 4000 SHRA,0,13,0,10000,0,0,0,"RA,SH"
2026-04-23 18:30:00,METAR VMMC 231830Z 36010KT 8000 -SHRA FEW008 FEW012CB SCT025 21/20 Q1010 RETS NOSIG,0,10,0,8000,1,0,0,"RA,TS"
2026-04-23 18:00:00,METAR VMMC 231800Z 34008KT 310V010 7000 -TSRA FEW007 FEW012CB SCT025 21/20 Q1010 NOSIG,0,8,0,7000,1,0,0,RA
2026-04-23 17:30:00,METAR VMMC 231730Z 34015KT 9000 -TSRA FEW008 FEW012CB SCT025 21/19 Q1011 NOSIG,0,15,0,9000,1,0,0,RA
2026-04-23 17:08:00,SPECI VMMC 231708Z 36015KT 9999 -TSRA FEW008 FEW012CB SCT025 22/20 Q1010 NOSIG,0,15,0,10000,1,0,0,RA
2026-04-23 17:00:00,METAR VMMC 231700Z 35014KT 9999 -SHRA VCTS FEW008 FEW012CB SCT025 22/20 Q1010 NOSIG,0,14,0,10000,1,0,0,"RA,TS,VC"
2026-04-23 16:30:00,METAR VMMC 231630Z 35016KT 9999 -SHRA FEW009 SCT022 22/20 Q1010 TEMPO VRB20G30KT 2000 +TSRA FEW010CB SCT020,0,16,0,10000,1,0,0,RA
2026-04-23 16:00:00,METAR VMMC 231600Z 35015KT 9999 -SHRA FEW010 SCT025 22/19 Q1010 NOSIG,0,15,0,10000,0,0,0,RA
2026-04-23 15:30:00,METAR VMMC 231530Z 35015KT 9000 -SHRA FEW010 SCT025 22/19 Q1011 TEMPO 4000 SHRA,0,15,0,9000,0,0,0,"RA,SH"
2026-04-23 15:00:00,METAR VMMC 231500Z 35014KT 9000 -SHRA FEW010 SCT025 22/20 Q1011 NOSIG,0,14,0,9000,0,0,0,RA
2026-04-23 14:30:00,METAR VMMC 231430Z 35014KT 9000 -SHRA FEW010 SCT025 22/19 Q1011 NOSIG,0,14,0,9000,0,0,0,RA
2026-04-23 14:00:00,METAR VMMC 231400Z 34013KT 9999 FEW010 SCT025 22/19 Q1011 NOSIG,0,13,0,10000,0,0,0,
2026-04-23 13:30:00,METAR VMMC 231330Z 35013KT 9999 FEW010 SCT025 22/19 Q1010 NOSIG,0,13,0,10000,0,0,0,
2026-04-23 13:00:00,METAR VMMC 231300Z 35010KT 9999 FEW010 SCT025 22/20 Q1010 TEMPO 4000 SHRA,0,10,0,10000,0,0,0,"RA,SH"
2026-04-23 12:30:00,METAR VMMC 231230Z 34011KT 9999 FEW010 SCT025 22/20 Q1010 NOSIG,0,11,0,10000,0,0,0,
2026-04-23 12:00:00,METAR VMMC 231200Z 35010KT 9999 FEW010 SCT025 BKN045 23/20 Q1009 NOSIG,0,10,0,10000,0,0,0,
2026-04-23 11:30:00,METAR VMMC 231130Z 34008KT 9999 FEW010 SCT025 BKN045 22/20 Q1009 NOSIG,0,8,0,10000,0,0,0,
2026-04-23 11:00:00,METAR VMMC 231100Z 34007KT 9000 -SHRA FEW010 SCT025 BKN045 22/21 Q1009 NOSIG,0,7,0,9000,0,0,0,RA
2026-04-23 10:30:00,METAR VMMC 231030Z 34009KT 7000 -SHRA FEW008 SCT015 BKN045 22/20 Q1008 TEMPO 4000 SHRA,0,9,0,7000,0,0,0,"RA,SH"
2026-04-23 10:00:00,METAR VMMC 231000Z 33013KT 9999 -SHRA FEW008 SCT015 BKN045 23/20 Q1008 NOSIG,0,13,0,10000,0,0,0,RA
2026-04-23 09:30:00,METAR VMMC 230930Z 36010KT 9999 FEW015 SCT022 23/21 Q1008 NOSIG,0,10,0,10000,0,0,0,
2026-04-23 09:00:00,METAR VMMC 230900Z 01011KT 9999 FEW015 SCT022 24/21 Q1007 NOSIG,0,11,0,10000,0,0,0,
2026-04-23 08:30:00,METAR VMMC 230830Z 01012KT 9999 FEW012 SCT020 23/21 Q1007 NOSIG,0,12,0,10000,0,0,0,
2026-04-23 08:00:00,METAR VMMC 230800Z 01014KT 9999 FEW012 SCT025 23/21 Q1007 TEMPO 4000 SHRA,0,14,0,10000,0,0,0,"RA,SH"
2026-04-23 07:30:00,METAR VMMC 230730Z 02014KT 9999 FEW012 SCT025 24/21 Q1007 TEMPO 4000 SHRA,0,14,0,10000,0,0,0,"RA,SH"
2026-04-23 07:00:00,METAR VMMC 230700Z 02012KT 9999 FEW012 SCT025 24/21 Q1007 NOSIG,0,12,0,10000,0,0,0,
2026-04-23 06:30:00,METAR VMMC 230630Z 02010KT 9999 FEW012 SCT025 24/21 Q1007 NOSIG,0,10,0,10000,0,0,0,
2026-04-23 06:00:00,METAR VMMC 230600Z 02011KT 9999 FEW012 SCT025 BKN045 24/22 Q1007 NOSIG,0,11,0,10000,0,0,0,
2026-04-23 05:30:00,METAR VMMC 230530Z 02012KT 9999 FEW012 SCT022 25/22 Q1008 TEMPO 4000 SHRA,0,12,0,10000,0,0,0,"RA,SH"
2026-04-23 05:00:00,METAR VMMC 230500Z 26010KT 9999 FEW012 SCT035 27/22 Q1008 NOSIG,0,10,0,10000,0,0,0,
2026-04-23 04:30:00,METAR VMMC 230430Z 21012KT 9999 FEW012 SCT022 28/24 Q1008 NOSIG,0,12,0,10000,0,0,0,
2026-04-23 04:00:00,METAR VMMC 230400Z 21012KT 9999 FEW012 SCT022 28/24 Q1008 NOSIG,0,12,0,10000,0,0,0,
2026-04-23 03:30:00,METAR VMMC 230330Z 21014KT 9999 FEW012 SCT022 29/24 Q1008 TEMPO 4000 SHRA,0,14,0,10000,0,0,0,"RA,SH"
2026-04-23 03:00:00,METAR VMMC 230300Z 21013KT 9999 FEW010 SCT022 28/24 Q1008 NOSIG,0,13,0,10000,0,0,0,
2026-04-23 02:30:00,METAR VMMC 230230Z 20011KT 9999 FEW010 SCT022 28/24 Q1008 NOSIG,0,11,0,10000,0,0,0,
2026-04-23 02:00:00,METAR VMMC 230200Z 21011KT 9999 FEW012 SCT022 28/24 Q1008 NOSIG,0,11,0,10000,0,0,0,
2026-04-23 01:30:00,METAR VMMC 230130Z 21011KT 9999 FEW012 SCT025 28/24 Q1008 NOSIG,0,11,0,10000,0,0,0,
2026-04-23 01:00:00,METAR VMMC 230100Z 20010KT 9999 FEW012 SCT025 27/24 Q1008 NOSIG,0,10,0,10000,0,0,0,
2026-04-23 00:30:00,METAR VMMC 230030Z 20012KT 9999 FEW012 SCT025 27/24 Q1007 NOSIG,0,12,0,10000,0,0,0,
2026-04-23 00:00:00,METAR VMMC 230000Z 21007KT 170V240 9999 FEW012 SCT025 27/24 Q1007 NOSIG,0,7,0,10000,0,0,0,
2026-04-22 23:30:00,METAR VMMC 222330Z 21007KT 180V240 9999 FEW012 SCT025 27/24 Q1007 NOSIG,0,7,0,10000,0,0,0,
2026-04-22 23:00:00,METAR VMMC 222300Z 21008KT 9999 FEW012 SCT025 26/24 Q1007 NOSIG,0,8,0,10000,0,0,0,
2026-04-22 22:30:00,METAR VMMC 222230Z 21009KT 9999 FEW012 SCT025 26/24 Q1007 NOSIG,0,9,0,10000,0,0,0,
2026-04-22 22:00:00,METAR VMMC 222200Z 20008KT 9999 FEW015 SCT025 26/24 Q1007 NOSIG,0,8,0,10000,0,0,0,
2026-04-22 21:30:00,METAR VMMC 222130Z 21006KT 9999 FEW010 SCT022 26/24 Q1006 NOSIG,0,6,0,10000,0,0,0,
2026-04-22 21:00:00,METAR VMMC 222100Z 22006KT 9999 FEW012 SCT025 26/24 Q1006 NOSIG,0,6,0,10000,0,0,0,
2026-04-22 20:30:00,METAR VMMC 222030Z 21006KT 9999 FEW015 SCT025 26/24 Q1006 NOSIG,0,6,0,10000,0,0,0,
2026-04-22 20:00:00,METAR VMMC 222000Z 21007KT 9999 FEW015 SCT025 26/24 Q1006 NOSIG,0,7,0,10000,0,0,0,
2026-04-22 19:30:00,METAR VMMC 221930Z 21008KT 9999 FEW012 SCT025 26/24 Q1006 NOSIG,0,8,0,10000,0,0,0,
2026-04-22 19:00:00,METAR VMMC 221900Z 21007KT 9999 FEW015 SCT025 26/24 Q1007 NOSIG,0,7,0,10000,0,0,0,
2026-04-22 18:30:00,METAR VMMC 221830Z 22006KT 9999 FEW015 SCT025 26/24 Q1007 NOSIG,0,6,0,10000,0,0,0,
2026-04-22 18:00:00,METAR VMMC 221800Z 20006KT 9999 FEW015 SCT025 26/24 Q1007 NOSIG,0,6,0,10000,0,0,0,
2026-04-22 17:30:00,METAR VMMC 221730Z 21008KT 9999 FEW015 SCT025 26/24 Q1008 NOSIG,0,8,0,10000,0,0,0,
2026-04-22 17:00:00,METAR VMMC 221700Z 22008KT 9999 FEW015 SCT025 26/24 Q1008 NOSIG,0,8,0,10000,0,0,0,
2026-04-22 16:30:00,METAR VMMC 221630Z 21007KT 170V230 9999 FEW015 26/24 Q1008 NOSIG,0,7,0,10000,0,0,0,
2026-04-22 16:00:00,METAR VMMC 221600Z 21007KT 170V250 9999 FEW015 SCT025 27/24 Q1008 NOSIG,0,7,0,10000,0,0,0,
2026-04-22 15:30:00,METAR VMMC 221530Z 19013KT 9999 FEW012 27/24 Q1008 NOSIG,0,13,0,10000,0,0,0,
2026-04-22 15:00:00,METAR VMMC 221500Z 21010KT 180V240 9999 FEW012 27/24 Q1008 NOSIG,0,10,0,10000,0,0,0,
2026-04-22 14:30:00,METAR VMMC 221430Z 20010KT 170V230 9999 FEW012 27/24 Q1008 NOSIG,0,10,0,10000,0,0,0,
2026-04-22 14:00:00,METAR VMMC 221400Z 20009KT 160V240 9999 FEW015 27/23 Q1008 NOSIG,0,9,0,10000,0,0,0,
2026-04-22 13:30:00,METAR VMMC 221330Z 20008KT 170V230 9999 FEW015 27/24 Q1008 NOSIG,0,8,0,10000,0,0,0,
2026-04-22 13:00:00,METAR VMMC 221300Z 21009KT 9999 FEW015 27/23 Q1008 NOSIG,0,9,0,10000,0,0,0,
2026-04-22 12:30:00,METAR VMMC 221230Z 20010KT 9999 FEW015 27/23 Q1007 NOSIG,0,10,0,10000,0,0,0,
2026-04-22 12:00:00,METAR VMMC 221200Z 22008KT 9999 FEW015 27/23 Q1007 NOSIG,0,8,0,10000,0,0,0,
2026-04-22 11:30:00,METAR VMMC 221130Z 21009KT 180V240 9999 FEW015 27/23 Q1007 NOSIG,0,9,0,10000,0,0,0,
2026-04-22 11:00:00,METAR VMMC 221100Z 21009KT 180V260 9999 FEW012 SCT025 27/23 Q1007 NOSIG,0,9,0,10000,0,0,0,
2026-04-22 10:30:00,METAR VMMC 221030Z 21009KT 9999 FEW012 SCT025 27/23 Q1007 NOSIG,0,9,0,10000,0,0,0,
2026-04-22 10:00:00,METAR VMMC 221000Z 22011KT 9999 FEW015 SCT030 27/23 Q1006 NOSIG,0,11,0,10000,0,0,0,
2026-04-22 09:30:00,METAR VMMC 220930Z 22011KT 9999 FEW015 SCT025 27/23 Q1006 NOSIG,0,11,0,10000,0,0,0,
2026-04-22 09:00:00,METAR VMMC 220900Z 21011KT 9999 FEW015 SCT025 28/23 Q1006 NOSIG,0,11,0,10000,0,0,0,
2026-04-22 08:30:00,METAR VMMC 220830Z 22013KT 9999 FEW015 SCT025 28/23 Q1006 NOSIG,0,13,0,10000,0,0,0,
2026-04-22 08:00:00,METAR VMMC 220800Z 21014KT 9999 FEW015 SCT025 28/23 Q1006 NOSIG,0,14,0,10000,0,0,0,
2026-04-22 07:30:00,METAR VMMC 220730Z 22015KT 9999 FEW015 SCT025 28/23 Q1006 NOSIG,0,15,0,10000,0,0,0,
2026-04-22 07:00:00,METAR VMMC 220700Z 22014G24KT 190V250 9999 FEW015 SCT025 29/23 Q1007 NOSIG,0,14,1,10000,0,0,0,
2026-04-22 06:30:00,METAR VMMC 220630Z 21014KT 9999 FEW015 SCT025 28/23 Q1007 NOSIG,0,14,0,10000,0,0,0,
2026-04-22 06:00:00,METAR VMMC 220600Z 22015KT 9999 FEW015 SCT025 29/23 Q1008 NOSIG,0,15,0,10000,0,0,0,
2026-04-22 05:30:00,METAR VMMC 220530Z 21015KT 9999 FEW015 SCT025 28/23 Q1008 NOSIG,0,15,0,10000,0,0,0,
2026-04-22 05:00:00,METAR VMMC 220500Z 19013KT 9999 FEW015 SCT025 29/23 Q1008 NOSIG,0,13,0,10000,0,0,0,
2026-04-22 04:30:00,METAR VMMC 220430Z 20013KT 9999 FEW015 SCT025 29/23 Q1009 NOSIG,0,13,0,10000,0,0,0,
2026-04-22 04:00:00,METAR VMMC 220400Z 20015KT 9999 FEW015 SCT025 28/23 Q1009 NOSIG,0,15,0,10000,0,0,0,
2026-04-22 03:30:00,METAR VMMC 220330Z 20016KT 9999 FEW015 SCT025 29/23 Q1009 NOSIG,0,16,0,10000,0,0,0,
2026-04-22 03:00:00,METAR VMMC 220300Z 20013KT 9999 FEW015 SCT025 28/23 Q1009 NOSIG,0,13,0,10000,0,0,0,
2026-04-22 02:30:00,METAR VMMC 220230Z 20014KT 9999 FEW015 SCT025 29/23 Q1010 NOSIG,0,14,0,10000,0,0,0,
2026-04-22 02:00:00,METAR VMMC 220200Z 20012KT 9999 FEW015 SCT025 28/23 Q1010 NOSIG,0,12,0,10000,0,0,0,
2026-04-22 01:30:00,METAR VMMC 220130Z 20012KT 9999 FEW015 SCT025 28/23 Q1010 NOSIG,0,12,0,10000,0,0,0,
2026-04-22 01:00:00,METAR VMMC 220100Z 20011KT 9999 FEW015 SCT025 27/23 Q1009 NOSIG,0,11,0,10000,0,0,0,
2026-04-22 00:30:00,METAR VMMC 220030Z 19012KT 9999 FEW015 27/23 Q1009 NOSIG,0,12,0,10000,0,0,0,
2026-04-22 00:00:00,METAR VMMC 220000Z 20011KT 9999 FEW015 27/22 Q1009 NOSIG,0,11,0,10000,0,0,0,
2026-04-21 23:30:00,METAR VMMC 212330Z 21009KT 9999 FEW015 26/22 Q1009 NOSIG,0,9,0,10000,0,0,0,
2026-04-21 23:00:00,METAR VMMC 212300Z 21006KT 9999 FEW015 26/23 Q1009 NOSIG,0,6,0,10000,0,0,0,
2026-04-21 22:30:00,METAR VMMC 212230Z 21008KT 9999 FEW015 26/22 Q1008 NOSIG,0,8,0,10000,0,0,0,
2026-04-21 22:00:00,METAR VMMC 212200Z 20009KT 9999 FEW018 26/23 Q1008 NOSIG,0,9,0,10000,0,0,0,
2026-04-21 21:30:00,METAR VMMC 212130Z 20009KT 9999 FEW018 26/22 Q1008 NOSIG,0,9,0,10000,0,0,0,
2026-04-21 21:00:00,METAR VMMC 212100Z 20009KT 9999 FEW018 SCT025 26/23 Q1008 NOSIG,0,9,0,10000,0,0,0,
2026-04-21 20:30:00,METAR VMMC 212030Z 19010KT 9999 FEW018 26/23 Q1007 NOSIG,0,10,0,10000,0,0,0,
2026-04-21 20:00:00,METAR VMMC 212000Z 19010KT 9999 FEW018 26/22 Q1008 NOSIG,0,10,0,10000,0,0,0,
2026-04-21 19:30:00,METAR VMMC 211930Z 18010KT 9999 FEW018 SCT030 26/23 Q1008 NOSIG,0,10,0,10000,0,0,0,
2026-04-21 19:00:00,METAR VMMC 211900Z 19009KT 9999 FEW018 SCT025 26/23 Q1008 NOSIG,0,9,0,10000,0,0,0,
2026-04-21 18:30:00,METAR VMMC 211830Z 18010KT 9999 FEW018 SCT025 26/22 Q1008 NOSIG,0,10,0,10000,0,0,0,
2026-04-21 18:00:00,METAR VMMC 211800Z 19010KT 9999 FEW015 26/22 Q1008 NOSIG,0,10,0,10000,0,0,0,
2026-04-21 17:30:00,METAR VMMC 211730Z 19010KT 9999 FEW015 SCT025 26/22 Q1009 NOSIG,0,10,0,10000,0,0,0,
2026-04-21 17:00:00,METAR VMMC 211700Z 19010KT 9999 FEW015 SCT025 26/23 Q1009 NOSIG,0,10,0,10000,0,0,0,
2026-04-21 16:30:00,METAR VMMC 211630Z 19010KT 9999 FEW015 26/23 Q1009 NOSIG,0,10,0,10000,0,0,0,
2026-04-21 16:00:00,METAR VMMC 211600Z 19011KT 9999 FEW015 SCT025 26/23 Q1009 NOSIG,0,11,0,10000,0,0,0,
2026-04-21 15:30:00,METAR VMMC 211530Z 19010KT 9999 FEW015 SCT025 26/23 Q1010 NOSIG,0,10,0,10000,0,0,0,
2026-04-21 15:00:00,METAR VMMC 211500Z 19009KT 9999 FEW015 SCT025 26/23 Q1010 NOSIG,0,9,0,10000,0,0,0,
2026-04-21 14:30:00,METAR VMMC 211430Z 18009KT 9999 FEW015 SCT025 26/23 Q1010 NOSIG,0,9,0,10000,0,0,0,
2026-04-21 14:00:00,METAR VMMC 211400Z 18010KT 9999 FEW018 SCT025 27/23 Q1010 NOSIG,0,10,0,10000,0,0,0,
2026-04-21 13:30:00,METAR VMMC 211330Z 18010KT 9999 FEW018 SCT025 26/23 Q1010 NOSIG,0,10,0,10000,0,0,0,
2026-04-21 13:00:00,METAR VMMC 211300Z 18009KT 9999 FEW018 SCT025 26/23 Q1009 NOSIG,0,9,0,10000,0,0,0,
2026-04-21 12:30:00,METAR VMMC 211230Z 19009KT 9999 FEW018 SCT025 27/23 Q1009 NOSIG,0,9,0,10000,0,0,0,
2026-04-21 12:00:00,METAR VMMC 211200Z 20008KT 9999 FEW018 SCT025 27/23 Q1009 NOSIG,0,8,0,10000,0,0,0,
2026-04-21 11:30:00,METAR VMMC 211130Z 20010KT 9999 FEW018 27/23 Q1009 NOSIG,0,10,0,10000,0,0,0,
2026-04-21 11:00:00,METAR VMMC 211100Z 20009KT 9999 FEW018 27/23 Q1009 NOSIG,0,9,0,10000,0,0,0,
2026-04-21 10:30:00,METAR VMMC 211030Z 20009KT 9999 FEW015 SCT025 27/23 Q1008 NOSIG,0,9,0,10000,0,0,0,
2026-04-21 10:00:00,METAR VMMC 211000Z 20010KT 9999 FEW015 SCT025 27/23 Q1008 NOSIG,0,10,0,10000,0,0,0,
2026-04-21 09:30:00,METAR VMMC 210930Z 20010KT 9999 FEW015 SCT025 27/23 Q1008 NOSIG,0,10,0,10000,0,0,0,
2026-04-21 09:00:00,METAR VMMC 210900Z 20010KT 9999 FEW015 SCT025 28/23 Q1008 NOSIG,0,10,0,10000,0,0,0,
2026-04-21 08:30:00,METAR VMMC 210830Z 20011KT 9999 FEW015 SCT025 28/23 Q1008 NOSIG,0,11,0,10000,0,0,0,
2026-04-21 08:00:00,METAR VMMC 210800Z 21011KT 9999 FEW022 28/23 Q1008 NOSIG,0,11,0,10000,0,0,0,
2026-04-21 07:30:00,METAR VMMC 210730Z 20011KT 9999 FEW022 29/23 Q1008 NOSIG,0,11,0,10000,0,0,0,
2026-04-21 07:00:00,METAR VMMC 210700Z 20010KT 9999 FEW022 29/23 Q1008 NOSIG,0,10,0,10000,0,0,0,
2026-04-21 06:30:00,METAR VMMC 210630Z 20009KT 170V240 9999 FEW022 29/22 Q1009 NOSIG,0,9,0,10000,0,0,0,
2026-04-21 06:00:00,METAR VMMC 210600Z 19010KT 9999 FEW020 29/23 Q1009 NOSIG,0,10,0,10000,0,0,0,
2026-04-21 05:30:00,METAR VMMC 210530Z 20011KT 9999 FEW015 SCT025 29/23 Q1010 NOSIG,0,11,0,10000,0,0,0,
2026-04-21 05:00:00,METAR VMMC 210500Z 20012KT 9999 FEW015 SCT025 29/23 Q1010 NOSIG,0,12,0,10000,0,0,0,
2026-04-21 04:30:00,METAR VMMC 210430Z 19011KT 9999 FEW015 SCT025 28/24 Q1010 NOSIG,0,11,0,10000,0,0,0,
2026-04-21 04:00:00,METAR VMMC 210400Z 19010KT 9999 FEW012 28/24 Q1011 NOSIG,0,10,0,10000,0,0,0,
2026-04-21 03:30:00,METAR VMMC 210330Z 20010KT 9999 FEW015 SCT025 28/24 Q1011 NOSIG,0,10,0,10000,0,0,0,
2026-04-21 03:00:00,METAR VMMC 210300Z 20010KT 9999 FEW015 SCT025 28/24 Q1011 NOSIG,0,10,0,10000,0,0,0,
2026-04-21 02:30:00,METAR VMMC 210230Z 19009KT 9999 FEW015 28/24 Q1011 NOSIG,0,9,0,10000,0,0,0,
2026-04-21 02:00:00,METAR VMMC 210200Z 20008KT 170V240 9999 FEW012 28/24 Q1011 NOSIG,0,8,0,10000,0,0,0,
2026-04-21 01:30:00,METAR VMMC 210130Z 20008KT 170V230 9999 FEW012 27/24 Q1011 NOSIG,0,8,0,10000,0,0,0,
2026-04-21 01:00:00,METAR VMMC 210100Z 21007KT 180V240 9999 FEW015 27/23 Q1012 NOSIG,0,7,0,10000,0,0,0,
2026-04-21 00:30:00,METAR VMMC 210030Z 21008KT 9999 FEW015 27/23 Q1011 NOSIG,0,8,0,10000,0,0,0,
2026-04-21 00:00:00,METAR VMMC 210000Z 21008KT 9999 FEW015 SCT045 27/23 Q1011 NOSIG,0,8,0,10000,0,0,0,
2026-04-20 23:30:00,METAR VMMC 202330Z 22008KT 9999 FEW010 SCT025 26/23 Q1011 NOSIG,0,8,0,10000,0,0,0,
2026-04-20 23:00:00,METAR VMMC 202300Z 22007KT 9999 FEW010 SCT025 26/23 Q1010 NOSIG,0,7,0,10000,0,0,0,
2026-04-20 22:30:00,METAR VMMC 202230Z 21008KT 9999 FEW012 SCT025 26/23 Q1010 NOSIG,0,8,0,10000,0,0,0,
2026-04-20 22:00:00,METAR VMMC 202200Z 19008KT 9999 FEW012 SCT025 26/24 Q1010 NOSIG,0,8,0,10000,0,0,0,
2026-04-20 21:30:00,METAR VMMC 202130Z 18008KT 9999 FEW012 SCT025 26/24 Q1010 NOSIG,0,8,0,10000,0,0,0,
2026-04-20 21:00:00,METAR VMMC 202100Z 18009KT 9999 FEW012 SCT025 26/24 Q1010 NOSIG,0,9,0,10000,0,0,0,
2026-04-20 20:30:00,METAR VMMC 202030Z 19006KT 9999 FEW015 SCT030 26/24 Q1009 NOSIG,0,6,0,10000,0,0,0,
2026-04-20 20:00:00,METAR VMMC 202000Z 18007KT 9999 FEW015 SCT030 26/23 Q1009 NOSIG,0,7,0,10000,0,0,0,
2026-04-20 19:30:00,METAR VMMC 201930Z 17008KT 9999 FEW015 SCT030 26/23 Q1010 NOSIG,0,8,0,10000,0,0,0,
2026-04-20 19:00:00,METAR VMMC 201900Z 18008KT 9999 FEW015 SCT030 26/23 Q1010 NOSIG,0,8,0,10000,0,0,0,
2026-04-20 18:30:00,METAR VMMC 201830Z 17009KT 9999 FEW015 SCT030 26/23 Q1010 NOSIG,0,9,0,10000,0,0,0,
2026-04-20 18:00:00,METAR VMMC 201800Z 17009KT 9999 FEW015 SCT025 26/24 Q1010 NOSIG,0,9,0,10000,0,0,0,
2026-04-20 17:30:00,METAR VMMC 201730Z 17011KT 9999 FEW015 SCT025 26/23 Q1010 NOSIG,0,11,0,10000,0,0,0,
2026-04-20 17:00:00,METAR VMMC 201700Z 17011KT 9999 FEW015 SCT025 26/24 Q1011 NOSIG,0,11,0,10000,0,0,0,
2026-04-20 16:30:00,METAR VMMC 201630Z 16009KT 9999 FEW015 SCT025 26/24 Q1011 NOSIG,0,9,0,10000,0,0,0,
2026-04-20 16:00:00,METAR VMMC 201600Z 15008KT 9999 FEW015 SCT025 26/24 Q1012 NOSIG,0,8,0,10000,0,0,0,
2026-04-20 15:30:00,METAR VMMC 201530Z 16008KT 9999 FEW015 SCT025 26/24 Q1012 NOSIG,0,8,0,10000,0,0,0,
2026-04-20 15:00:00,METAR VMMC 201500Z 16008KT 9999 FEW020 26/24 Q1012 NOSIG,0,8,0,10000,0,0,0,
2026-04-20 14:30:00,METAR VMMC 201430Z 16007KT 9999 FEW020 26/23 Q1012 NOSIG,0,7,0,10000,0,0,0,
2026-04-20 14:00:00,METAR VMMC 201400Z 16009KT 9999 FEW018 26/23 Q1012 NOSIG,0,9,0,10000,0,0,0,
2026-04-20 13:30:00,METAR VMMC 201330Z 15009KT 9999 FEW015 SCT025 26/24 Q1011 NOSIG,0,9,0,10000,0,0,0,
2026-04-20 13:00:00,METAR VMMC 201300Z 15007KT 9999 FEW015 SCT025 26/24 Q1011 NOSIG,0,7,0,10000,0,0,0,
2026-04-20 12:30:00,METAR VMMC 201230Z 15008KT 9999 FEW020 SCT030 26/23 Q1011 NOSIG,0,8,0,10000,0,0,0,
2026-04-20 12:00:00,METAR VMMC 201200Z 13008KT 9999 FEW015 SCT025 26/24 Q1011 NOSIG,0,8,0,10000,0,0,0,
2026-04-20 11:30:00,METAR VMMC 201130Z 13006KT 100V170 9999 FEW020 26/23 Q1010 NOSIG,0,6,0,10000,0,0,0,
2026-04-20 11:00:00,METAR VMMC 201100Z 14007KT 9999 FEW020 26/24 Q1010 NOSIG,0,7,0,10000,0,0,0,
2026-04-20 10:30:00,METAR VMMC 201030Z 14008KT 9999 FEW015 SCT040 26/23 Q1010 NOSIG,0,8,0,10000,0,0,0,
2026-04-20 10:00:00,METAR VMMC 201000Z 14009KT 9999 FEW012 SCT025 26/23 Q1009 NOSIG,0,9,0,10000,0,0,0,
2026-04-20 09:30:00,METAR VMMC 200930Z 13009KT 9999 FEW012 SCT035 26/23 Q1009 NOSIG,0,9,0,10000,0,0,0,
2026-04-20 09:00:00,METAR VMMC 200900Z 15009KT 9999 FEW010 SCT025 26/24 Q1009 NOSIG,0,9,0,10000,0,0,0,
2026-04-20 08:30:00,METAR VMMC 200830Z 16008KT 9999 FEW020 SCT045 26/23 Q1010 NOSIG,0,8,0,10000,0,0,0,
2026-04-20 08:00:00,METAR VMMC 200800Z 16008KT 9999 FEW020 SCT045 26/22 Q1010 TEMPO 4000 SHRA,0,8,0,10000,0,0,0,"RA,SH"
2026-04-20 07:30:00,METAR VMMC 200730Z 16008KT 9999 -SHRA FEW015 SCT025 26/23 Q1010 NOSIG,0,8,0,10000,0,0,0,RA
2026-04-20 07:00:00,METAR VMMC 200700Z 19011KT 9999 -SHRA FEW015 SCT025 25/22 Q1010 NOSIG,0,11,0,10000,0,0,0,RA
2026-04-20 06:30:00,METAR VMMC 200630Z 16011KT 9999 FEW018 SCT035 28/23 Q1010 NOSIG,0,11,0,10000,0,0,0,
2026-04-20 06:00:00,METAR VMMC 200600Z 18009KT 9999 -SHRA FEW015 SCT025 27/23 Q1011 NOSIG,0,9,0,10000,0,0,0,RA
2026-04-20 05:30:00,METAR VMMC 200530Z 17009KT 9999 FEW015 SCT045 27/23 Q1011 NOSIG,0,9,0,10000,0,0,0,
2026-04-20 05:00:00,METAR VMMC 200500Z 17009KT 9999 FEW015 SCT025 28/23 Q1011 TEMPO 4000 SHRA,0,9,0,10000,0,0,0,"RA,SH"
2026-04-20 04:30:00,METAR VMMC 200430Z 16009KT 9999 FEW018 SCT030 28/23 Q1012 TEMPO 4000 SHRA,0,9,0,10000,0,0,0,"RA,SH"
2026-04-20 04:00:00,METAR VMMC 200400Z 15008KT 120V190 9999 FEW015 SCT030 28/24 Q1012 NOSIG,0,8,0,10000,0,0,0,
2026-04-20 03:30:00,METAR VMMC 200330Z 13009KT 9999 VCSH FEW010 SCT015 27/24 Q1012 TEMPO 4000 SHRA,0,9,0,10000,0,0,0,"RA,SH,VC"
2026-04-20 03:00:00,METAR VMMC 200300Z 14006KT 110V170 9999 FEW010 SCT015 27/24 Q1013 NOSIG,0,6,0,10000,0,0,0,
2026-04-20 02:30:00,METAR VMMC 200230Z 12007KT 9999 FEW010 SCT030 27/24 Q1013 NOSIG,0,7,0,10000,0,0,0,
2026-04-20 02:00:00,METAR VMMC 200200Z 13005KT 100V160 6000 FEW010 SCT030 27/24 Q1013 TEMPO 4000 HZ,0,5,0,6000,0,0,0,
2026-04-20 01:30:00,METAR VMMC 200130Z 12005KT 090V160 4800 BR FEW010 27/24 Q1013 NOSIG,0,5,0,4800,0,0,1,BR
2026-04-20 01:00:00,METAR VMMC 200100Z 12006KT 100V160 4800 BR FEW010 27/24 Q1012 NOSIG,0,6,0,4800,0,0,1,BR
2026-04-20 00:30:00,METAR VMMC 200030Z 11005KT 4800 BR FEW012 26/24 Q1012 NOSIG,0,5,0,4800,0,0,1,BR
2026-04-20 00:00:00,METAR VMMC 200000Z 09004KT 360V160 4500 BR FEW012 26/24 Q1012 NOSIG,0,4,0,4500,0,0,1,BR
2026-04-19 23:30:00,METAR VMMC 192330Z 11004KT 070V140 5000 BR FEW012 SCT025 26/24 Q1011 TEMPO 4000 BR,0,4,0,5000,0,0,1,BR
2026-04-19 23:00:00,METAR VMMC 192300Z 13003KT 110V170 9999 FEW015 26/23 Q1011 NOSIG,0,3,0,10000,0,0,0,
2026-04-19 22:30:00,METAR VMMC 192230Z 14003KT 9999 FEW015 26/23 Q1010 NOSIG,0,3,0,10000,0,0,0,
2026-04-19 22:00:00,METAR VMMC 192200Z 14004KT 110V170 9999 FEW015 26/23 Q1010 NOSIG,0,4,0,10000,0,0,0,
2026-04-19 21:30:00,METAR VMMC 192130Z 16005KT 9999 FEW015 25/23 Q1010 NOSIG,0,5,0,10000,0,0,0,
2026-04-19 21:00:00,METAR VMMC 192100Z 16004KT 9999 FEW015 25/23 Q1010 NOSIG,0,4,0,10000,0,0,0,
2026-04-19 20:30:00,METAR VMMC 192030Z VRB02KT CAVOK 25/22 Q1010 NOSIG,1,0,0,9999,0,0,0,
2026-04-19 20:00:00,METAR VMMC 192000Z VRB01KT CAVOK 25/23 Q1010 NOSIG,1,0,0,9999,0,0,0,
2026-04-19 19:30:00,METAR VMMC 191930Z VRB01KT 9999 FEW015 25/22 Q1010 NOSIG,0,1,0,10000,0,0,0,
2026-04-19 19:00:00,METAR VMMC 191900Z 23003KT 9999 FEW015 26/23 Q1010 NOSIG,0,3,0,10000,0,0,0,
2026-04-19 18:30:00,METAR VMMC 191830Z 26004KT 9999 FEW015 26/23 Q1011 NOSIG,0,4,0,10000,0,0,0,
2026-04-19 18:00:00,METAR VMMC 191800Z 21005KT 180V240 9999 FEW015 26/23 Q1011 NOSIG,0,5,0,10000,0,0,0,
2026-04-19 17:30:00,METAR VMMC 191730Z 20006KT 9999 FEW015 26/23 Q1011 NOSIG,0,6,0,10000,0,0,0,
2026-04-19 17:00:00,METAR VMMC 191700Z 19006KT 9999 FEW015 SCT025 26/23 Q1011 NOSIG,0,6,0,10000,0,0,0,
2026-04-19 16:30:00,METAR VMMC 191630Z 19007KT 9999 FEW015 26/23 Q1012 NOSIG,0,7,0,10000,0,0,0,
2026-04-19 16:00:00,METAR VMMC 191600Z 21004KT 9999 FEW020 26/22 Q1012 NOSIG,0,4,0,10000,0,0,0,
2026-04-19 15:30:00,METAR VMMC 191530Z 18009KT 9999 FEW020 SCT030 27/23 Q1012 NOSIG,0,9,0,10000,0,0,0,
2026-04-19 15:00:00,METAR VMMC 191500Z 17008KT 9999 FEW020 SCT030 27/23 Q1012 NOSIG,0,8,0,10000,0,0,0,
2026-04-19 14:30:00,METAR VMMC 191430Z 19007KT 9999 FEW020 27/22 Q1012 NOSIG,0,7,0,10000,0,0,0,
2026-04-19 14:00:00,METAR VMMC 191400Z 18007KT 9999 FEW020 27/23 Q1012 NOSIG,0,7,0,10000,0,0,0,
2026-04-19 13:30:00,METAR VMMC 191330Z 18009KT 9000 FEW020 27/22 Q1012 NOSIG,0,9,0,9000,0,0,0,
2026-04-19 13:00:00,METAR VMMC 191300Z 17009KT 8000 FEW020 SCT045 26/22 Q1011 NOSIG,0,9,0,8000,0,0,0,
2026-04-19 12:30:00,METAR VMMC 191230Z 16009KT 8000 FEW020 26/23 Q1011 NOSIG,0,9,0,8000,0,0,0,
2026-04-19 12:00:00,METAR VMMC 191200Z 16008KT 7000 FEW020 27/23 Q1010 NOSIG,0,8,0,7000,0,0,0,
2026-04-19 11:30:00,METAR VMMC 191130Z 15007KT 8000 FEW020 27/23 Q1010 NOSIG,0,7,0,8000,0,0,0,
2026-04-19 11:00:00,METAR VMMC 191100Z 15008KT 6000 FEW020 27/23 Q1010 NOSIG,0,8,0,6000,0,0,0,
2026-04-19 10:30:00,METAR VMMC 191030Z 15009KT 6000 FEW020 27/23 Q1009 NOSIG,0,9,0,6000,0,0,0,
2026-04-19 10:00:00,METAR VMMC 191000Z 15008KT 110V170 4800 HZ FEW020 27/22 Q1009 NOSIG,0,8,0,4800,0,0,0,
2026-04-19 09:30:00,METAR VMMC 190930Z 13007KT 110V170 4800 HZ FEW020 27/23 Q1009 NOSIG,0,7,0,4800,0,0,0,
2026-04-19 09:00:00,METAR VMMC 190900Z 13008KT 4800 HZ FEW020 28/23 Q1009 NOSIG,0,8,0,4800,0,0,0,
2026-04-19 08:30:00,METAR VMMC 190830Z 13008KT 4800 HZ FEW020 28/23 Q1009 NOSIG,0,8,0,4800,0,0,0,
2026-04-19 08:00:00,METAR VMMC 190800Z 13008KT 4800 HZ FEW020 28/23 Q1009 NOSIG,0,8,0,4800,0,0,0,
2026-04-19 07:30:00,METAR VMMC 190730Z 15007KT 6000 FEW020 28/22 Q1010 TEMPO 4000 HZ,0,7,0,6000,0,0,0,
2026-04-19 07:00:00,METAR VMMC 190700Z 16007KT 120V190 4800 HZ FEW020 28/22 Q1010 NOSIG,0,7,0,4800,0,0,0,
2026-04-19 06:30:00,METAR VMMC 190630Z 16007KT 130V190 4800 HZ FEW015 29/22 Q1010 NOSIG,0,7,0,4800,0,0,0,
2026-04-19 06:00:00,METAR VMMC 190600Z 14007KT 6000 FEW015 29/22 Q1011 NOSIG,0,7,0,6000,0,0,0,
2026-04-19 05:30:00,METAR VMMC 190530Z 15006KT 6000 FEW015 29/21 Q1011 TEMPO 4000 HZ,0,6,0,6000,0,0,0,
2026-04-19 05:00:00,METAR VMMC 190500Z 12004KT 070V170 4900 HZ FEW015 28/22 Q1011 NOSIG,0,4,0,4900,0,0,0,
2026-04-19 04:30:00,METAR VMMC 190430Z 11003KT 070V160 4900 HZ FEW015 28/22 Q1011 NOSIG,0,3,0,4900,0,0,0,
2026-04-19 04:00:00,METAR VMMC 190400Z 09003KT 070V150 4900 HZ FEW015 28/21 Q1012 NOSIG,0,3,0,4900,0,0,0,
2026-04-19 03:30:00,METAR VMMC 190330Z 08003KT 030V140 4900 HZ FEW015 28/21 Q1012 NOSIG,0,3,0,4900,0,0,0,
2026-04-19 03:00:00,METAR VMMC 190300Z 06003KT 350V110 4800 HZ FEW012 28/23 Q1012 NOSIG,0,3,0,4800,0,0,0,
2026-04-19 02:30:00,METAR VMMC 190230Z VRB02KT 4900 HZ FEW012 27/22 Q1012 NOSIG,0,2,0,4900,0,0,0,
2026-04-19 02:00:00,METAR VMMC 190200Z VRB02KT 4800 HZ FEW012 27/23 Q1012 NOSIG,0,2,0,4800,0,0,0,
2026-04-19 01:30:00,METAR VMMC 190130Z VRB02KT 4600 HZ FEW012 27/23 Q1012 NOSIG,0,2,0,4600,0,0,0,
2026-04-19 01:00:00,METAR VMMC 190100Z VRB02KT 4800 BR FEW012 26/23 Q1012 NOSIG,0,2,0,4800,0,0,1,BR
2026-04-19 00:30:00,METAR VMMC 190030Z VRB02KT 4700 BR FEW012 26/23 Q1012 NOSIG,0,2,0,4700,0,0,1,BR
2026-04-19 00:00:00,METAR VMMC 190000Z VRB01KT 4800 BR FEW012 26/23 Q1011 NOSIG,0,1,0,4800,0,0,1,BR
2026-04-18 23:30:00,METAR VMMC 182330Z 26002KT 4900 BR FEW012 25/22 Q1011 NOSIG,0,2,0,4900,0,0,1,BR
2026-04-18 23:00:00,METAR VMMC 182300Z VRB02KT 4800 BR FEW012 24/22 Q1011 NOSIG,0,2,0,4800,0,0,1,BR
2026-04-18 22:30:00,METAR VMMC 182230Z 25003KT 4800 BR FEW015 24/22 Q1011 NOSIG,0,3,0,4800,0,0,1,BR
2026-04-18 22:00:00,METAR VMMC 182200Z 25002KT 4800 BR NSC 24/22 Q1010 NOSIG,0,2,0,4800,0,0,1,BR
2026-04-18 21:30:00,METAR VMMC 182130Z 26002KT 6000 FEW015 24/22 Q1010 NOSIG,0,2,0,6000,0,0,0,
2026-04-18 21:00:00,METAR VMMC 182100Z 00000KT 7000 NSC 24/23 Q1010 NOSIG,0,0,0,7000,0,0,0,
2026-04-18 20:30:00,METAR VMMC 182030Z VRB01KT 7000 NSC 24/23 Q1010 TEMPO 4500 BR,0,1,0,7000,0,0,1,BR
2026-04-18 20:00:00,METAR VMMC 182000Z 18001KT 8000 NSC 24/22 Q1010 NOSIG,0,1,0,8000,0,0,0,
2026-04-18 19:30:00,METAR VMMC 181930Z VRB01KT 9000 NSC 24/22 Q1010 NOSIG,0,1,0,9000,0,0,0,
2026-04-18 19:00:00,METAR VMMC 181900Z 22002KT 9000 NSC 24/22 Q1010 NOSIG,0,2,0,9000,0,0,0,
2026-04-18 18:30:00,METAR VMMC 181830Z 22003KT 9000 NSC 24/22 Q1010 NOSIG,0,3,0,9000,0,0,0,
2026-04-18 18:00:00,METAR VMMC 181800Z 30003KT 9000 NSC 25/22 Q1011 NOSIG,0,3,0,9000,0,0,0,
2026-04-18 17:30:00,METAR VMMC 181730Z 29002KT 9000 NSC 25/22 Q1011 NOSIG,0,2,0,9000,0,0,0,
2026-04-18 17:00:00,METAR VMMC 181700Z 29004KT CAVOK 25/22 Q1011 NOSIG,1,0,0,9999,0,0,0,
2026-04-18 16:30:00,METAR VMMC 181630Z 29003KT CAVOK 25/22 Q1011 NOSIG,1,0,0,9999,0,0,0,
2026-04-18 16:00:00,METAR VMMC 181600Z 24003KT CAVOK 25/22 Q1011 NOSIG,1,0,0,9999,0,0,0,
2026-04-18 15:00:00,METAR VMMC 181500Z 23004KT 9999 FEW030 25/22 Q1011 NOSIG,0,4,0,10000,0,0,0,
2026-04-18 14:30:00,METAR VMMC 181430Z 23004KT 9999 FEW030 25/22 Q1011 NOSIG,0,4,0,10000,0,0,0,
2026-04-18 14:00:00,METAR VMMC 181400Z 22006KT 180V260 9999 FEW030 26/22 Q1011 NOSIG,0,6,0,10000,0,0,0,
2026-04-18 13:30:00,METAR VMMC 181330Z 22006KT 190V290 9999 FEW020 26/22 Q1011 NOSIG,0,6,0,10000,0,0,0,
2026-04-18 13:00:00,METAR VMMC 181300Z 22007KT 9999 FEW020 25/22 Q1010 NOSIG,0,7,0,10000,0,0,0,
2026-04-18 12:30:00,METAR VMMC 181230Z 22007KT 200V260 9999 FEW020 26/22 Q1010 NOSIG,0,7,0,10000,0,0,0,
2026-04-18 12:00:00,METAR VMMC 181200Z 20008KT 9999 FEW020 26/22 Q1010 NOSIG,0,8,0,10000,0,0,0,
2026-04-18 11:30:00,METAR VMMC 181130Z 21007KT 9999 FEW020 SCT040 26/22 Q1010 NOSIG,0,7,0,10000,0,0,0,
2026-04-18 11:00:00,METAR VMMC 181100Z 21005KT 180V300 9999 FEW020 SCT030 26/22 Q1010 NOSIG,0,5,0,10000,0,0,0,
2026-04-18 10:30:00,METAR VMMC 181030Z 20005KT 180V240 9000 FEW020 SCT030 26/22 Q1010 NOSIG,0,5,0,9000,0,0,0,
2026-04-18 10:00:00,METAR VMMC 181000Z 18005KT 9000 FEW020 SCT030 26/21 Q1010 NOSIG,0,5,0,9000,0,0,0,
2026-04-18 09:30:00,METAR VMMC 180930Z 16006KT 6000 FEW020 SCT030 26/22 Q1009 NOSIG,0,6,0,6000,0,0,0,
2026-04-18 09:00:00,METAR VMMC 180900Z 17005KT 4800 HZ FEW020 SCT030 26/22 Q1009 NOSIG,0,5,0,4800,0,0,0,
2026-04-18 08:30:00,METAR VMMC 180830Z 15005KT 4500 HZ FEW020 SCT030 26/22 Q1009 NOSIG,0,5,0,4500,0,0,0,
2026-04-18 08:00:00,METAR VMMC 180800Z 16005KT 4500 HZ FEW020 SCT030 27/22 Q1010 NOSIG,0,5,0,4500,0,0,0,
2026-04-18 07:30:00,METAR VMMC 180730Z 13005KT 090V160 4000 HZ FEW020 SCT030 27/22 Q1010 NOSIG,0,5,0,4000,0,0,0,
2026-04-18 07:00:00,METAR VMMC 180700Z 13005KT 3900 HZ FEW018 SCT030 27/22 Q1010 NOSIG,0,5,0,3900,0,0,0,
2026-04-18 06:30:00,METAR VMMC 180630Z 11006KT 3800 HZ FEW018 SCT030 27/22 Q1010 NOSIG,0,6,0,3800,0,0,0,
2026-04-18 06:00:00,METAR VMMC 180600Z 12005KT 090V150 3500 HZ SCT020 26/22 Q1011 NOSIG,0,5,0,3500,0,0,0,
2026-04-18 05:30:00,METAR VMMC 180530Z 12005KT 100V160 4000 HZ SCT020 26/22 Q1011 NOSIG,0,5,0,4000,0,0,0,
2026-04-18 05:00:00,METAR VMMC 180500Z 06006KT 360V140 4300 HZ SCT015 27/23 Q1012 NOSIG,0,6,0,4300,0,0,0,
2026-04-18 04:30:00,METAR VMMC 180430Z 04006KT 310V100 4200 HZ SCT015 27/22 Q1012 NOSIG,0,6,0,4200,0,0,0,
2026-04-18 04:00:00,METAR VMMC 180400Z 03006KT 340V060 4000 HZ FEW020 27/22 Q1012 NOSIG,0,6,0,4000,0,0,0,
2026-04-18 03:30:00,METAR VMMC 180330Z 03006KT 350V060 3500 HZ FEW020 26/22 Q1013 NOSIG,0,6,0,3500,0,0,0,
2026-04-18 03:00:00,METAR VMMC 180300Z 03007KT 340V050 3500 HZ FEW020 26/22 Q1013 NOSIG,0,7,0,3500,0,0,0,
2026-04-18 02:30:00,METAR VMMC 180230Z 02005KT 350V050 3600 HZ FEW020 26/21 Q1013 TEMPO 2800 HZ,0,5,0,3600,0,0,0,
2026-04-18 02:00:00,METAR VMMC 180200Z 01005KT 340V050 4000 HZ FEW020 26/21 Q1013 NOSIG,0,5,0,4000,0,0,0,
2026-04-18 01:30:00,METAR VMMC 180130Z 36004KT 330V030 4000 HZ FEW020 25/21 Q1013 NOSIG,0,4,0,4000,0,0,0,
2026-04-18 01:00:00,METAR VMMC 180100Z 36003KT 330V030 4500 HZ FEW020 25/21 Q1012 NOSIG,0,3,0,4500,0,0,0,
2026-04-18 00:30:00,METAR VMMC 180030Z 35003KT 310V020 4500 BR NSC 24/20 Q1012 NOSIG,0,3,0,4500,0,0,1,BR
2026-04-18 00:00:00,METAR VMMC 180000Z 34005KT 320V020 4800 BR NSC 24/20 Q1012 NOSIG,0,5,0,4800,0,0,1,BR
2026-04-17 23:30:00,METAR VMMC 172330Z 32004KT 7000 NSC 23/21 Q1011 NOSIG,0,4,0,7000,0,0,0,
2026-04-17 23:00:00,METAR VMMC 172300Z 32005KT 7000 NSC 23/20 Q1011 NOSIG,0,5,0,7000,0,0,0,
2026-04-17 22:30:00,METAR VMMC 172230Z 31004KT 6000 NSC 22/20 Q1011 TEMPO 4500 BR,0,4,0,6000,0,0,1,BR
2026-04-17 22:00:00,METAR VMMC 172200Z 31004KT 7000 NSC 22/20 Q1011 NOSIG,0,4,0,7000,0,0,0,
2026-04-17 21:30:00,METAR VMMC 172130Z 31005KT 9000 NSC 22/20 Q1011 NOSIG,0,5,0,9000,0,0,0,
2026-04-17 21:00:00,METAR VMMC 172100Z 32004KT 9000 NSC 22/20 Q1010 NOSIG,0,4,0,9000,0,0,0,
2026-04-17 20:30:00,METAR VMMC 172030Z 32005KT 9000 NSC 21/19 Q1010 NOSIG,0,5,0,9000,0,0,0,
2026-04-17 20:00:00,METAR VMMC 172000Z 33004KT CAVOK 22/20 Q1010 NOSIG,1,0,0,9999,0,0,0,
2026-04-17 19:30:00,METAR VMMC 171930Z 33005KT CAVOK 21/19 Q1010 NOSIG,1,0,0,9999,0,0,0,
2026-04-17 19:00:00,METAR VMMC 171900Z 34005KT CAVOK 22/19 Q1010 NOSIG,1,0,0,9999,0,0,0,
2026-04-17 18:30:00,METAR VMMC 171830Z 34007KT CAVOK 22/20 Q1010 NOSIG,1,0,0,9999,0,0,0,
2026-04-17 18:00:00,METAR VMMC 171800Z 33006KT CAVOK 22/20 Q1011 NOSIG,1,0,0,9999,0,0,0,
2026-04-17 17:30:00,METAR VMMC 171730Z 36005KT CAVOK 23/20 Q1011 NOSIG,1,0,0,9999,0,0,0,
2026-04-17 17:00:00,METAR VMMC 171700Z 34006KT CAVOK 22/20 Q1011 NOSIG,1,0,0,9999,0,0,0,
2026-04-17 16:30:00,METAR VMMC 171630Z 35008KT CAVOK 23/20 Q1011 NOSIG,1,0,0,9999,0,0,0,
2026-04-17 16:00:00,METAR VMMC 171600Z 36007KT CAVOK 23/21 Q1011 NOSIG,1,0,0,9999,0,0,0,
2026-04-17 15:30:00,METAR VMMC 171530Z 34008KT CAVOK 23/20 Q1012 NOSIG,1,0,0,9999,0,0,0,
2026-04-17 15:00:00,METAR VMMC 171500Z 33005KT CAVOK 23/21 Q1012 NOSIG,1,0,0,9999,0,0,0,
2026-04-17 14:30:00,METAR VMMC 171430Z 35005KT 320V020 CAVOK 23/20 Q1012 NOSIG,1,0,0,9999,0,0,0,
2026-04-17 14:00:00,METAR VMMC 171400Z 31008KT 9999 FEW015 23/21 Q1012 NOSIG,0,8,0,10000,0,0,0,
2026-04-17 13:30:00,METAR VMMC 171330Z 31005KT 9999 FEW015 23/21 Q1012 NOSIG,0,5,0,10000,0,0,0,
2026-04-17 13:00:00,METAR VMMC 171300Z 29007KT 9999 FEW015 SCT030 23/21 Q1012 TEMPO 4000 SHRA,0,7,0,10000,0,0,0,"RA,SH"
2026-04-17 12:30:00,METAR VMMC 171230Z 31007KT 270V330 9999 FEW015 SCT030 24/21 Q1012 NOSIG,0,7,0,10000,0,0,0,
2026-04-17 12:00:00,METAR VMMC 171200Z 18007KT 9999 FEW015 SCT030 24/21 Q1011 TEMPO 4000 SHRA,0,7,0,10000,0,0,0,"RA,SH"
2026-04-17 11:30:00,METAR VMMC 171130Z 19009KT 9999 FEW012 SCT030 23/21 Q1011 NOSIG,0,9,0,10000,0,0,0,
2026-04-17 11:00:00,METAR VMMC 171100Z 17008KT 9999 -SHRA FEW010 SCT030 23/21 Q1010 NOSIG,0,8,0,10000,0,0,0,RA
2026-04-17 10:30:00,METAR VMMC 171030Z 17010KT 7000 -SHRA FEW010 FEW015CB SCT035 22/21 Q1011 RETS TEMPO 4000 SHRA,0,10,0,7000,1,0,0,"RA,SH,TS"
2026-04-17 10:00:00,METAR VMMC 171000Z 19004KT 150V230 7000 -TSRA FEW010 FEW015CB SCT025 BKN040 22/21 Q1011 NOSIG,0,4,0,7000,1,0,0,RA
2026-04-17 09:30:00,METAR VMMC 170930Z 27007KT 240V300 7000 -TSRA FEW010 FEW015CB SCT025 BKN045 23/22 Q1012 NOSIG,0,7,0,7000,1,0,0,RA
2026-04-17 09:06:00,SPECI VMMC 170906Z 32013KT 5000 -TSRA FEW009 FEW015CB SCT030 BNK040 23/22 Q1011 RESHRA NOSIG,0,13,0,5000,1,0,0,RA
2026-04-17 09:00:00,METAR VMMC 170900Z 32016KT 2000 +TSRA FEW009 SCT015CB BKN040 23/22 Q1011 TEMPO VRB15G25KT 1400 +TSRA,0,16,0,2000,1,0,0,RA
2026-04-17 08:46:00,SPECI VMMC 170846Z 33014KT 3000 TSRA FEW010 SCT015CB BKN040 24/22 Q1011 NOSIG,0,14,0,3000,1,0,0,"RA,TS"
2026-04-17 08:30:00,METAR VMMC 170830Z 35009KT 9999 -SHRA FEW012 FEW015CB SCT030 24/22 Q1010 TEMPO VRB15G25KT 3500 TSRA,0,9,0,10000,1,0,0,"RA,TS"
2026-04-17 08:07:00,SPECI VMMC 170807Z 36010KT 7000 -SHRA FEW012 FEW015CB SCT030 24/22 Q1011 NOSIG,0,10,0,7000,0,0,0,RA
2026-04-17 08:00:00,METAR VMMC 170800Z 01008KT 330V040 4000 -SHRA FEW012 FEW015CB SCT030 25/23 Q1010 RETS NOSIG,0,8,0,4000,1,0,0,"RA,TS"
2026-04-17 07:47:00,SPECI VMMC 170747Z 01003KT 310V040 4000 -TSRA FEW012 FEW015CB SCT030 26/22 Q1011,0,3,0,4000,1,0,0,RA
2026-04-17 07:30:00,METAR VMMC 170730Z 11003KT 060V200 9999 VCTS FEW012 FEW015CB SCT030 26/22 Q1010 NOSIG,0,3,0,10000,1,0,0,"TS,VC"
2026-04-17 07:00:00,METAR VMMC 170700Z 17006KT 9999 FEW015 SCT035 27/22 Q1010 TEMPO VRB15G25KT 4000 TSRA FEW010CB SCT020,0,6,0,10000,1,0,0,"RA,TS"
2026-04-17 06:30:00,METAR VMMC 170630Z 18006KT 9999 FEW015 SCT045 27/22 Q1011 NOSIG,0,6,0,10000,0,0,0,
2026-04-17 06:00:00,METAR VMMC 170600Z 17007KT 9999 FEW015 SCT045 27/22 Q1011 NOSIG,0,7,0,10000,0,0,0,
2026-04-17 05:30:00,METAR VMMC 170530Z 18006KT 9999 FEW015 SCT045 27/22 Q1012 NOSIG,0,6,0,10000,0,0,0,
2026-04-17 05:00:00,METAR VMMC 170500Z 17006KT 150V220 9999 FEW015 SCT045 27/22 Q1012 NOSIG,0,6,0,10000,0,0,0,
2026-04-17 04:30:00,METAR VMMC 170430Z 18006KT 150V220 9999 FEW015 SCT045 27/22 Q1013 NOSIG,0,6,0,10000,0,0,0,
2026-04-17 04:00:00,METAR VMMC 170400Z 18007KT 150V210 9999 FEW020 27/22 Q1013 NOSIG,0,7,0,10000,0,0,0,
2026-04-17 03:30:00,METAR VMMC 170330Z 18006KT 150V220 9999 FEW015 27/22 Q1013 NOSIG,0,6,0,10000,0,0,0,
2026-04-17 03:00:00,METAR VMMC 170300Z 19007KT 150V220 9999 FEW015 27/23 Q1013 NOSIG,0,7,0,10000,0,0,0,
2026-04-17 02:30:00,METAR VMMC 170230Z 19006KT 9999 FEW015 27/22 Q1013 NOSIG,0,6,0,10000,0,0,0,
2026-04-17 02:00:00,METAR VMMC 170200Z 18006KT 9999 FEW015 27/22 Q1013 NOSIG,0,6,0,10000,0,0,0,
2026-04-17 01:30:00,METAR VMMC 170130Z 19005KT 160V230 9999 FEW015 SCT040 27/22 Q1013 NOSIG,0,5,0,10000,0,0,0,
2026-04-17 01:00:00,METAR VMMC 170100Z 20003KT 9999 FEW015 SCT040 27/22 Q1013 NOSIG,0,3,0,10000,0,0,0,
2026-04-17 00:30:00,METAR VMMC 170030Z 18005KT 9999 FEW015 26/22 Q1013 NOSIG,0,5,0,10000,0,0,0,
2026-04-17 00:00:00,METAR VMMC 170000Z 19004KT 9999 FEW018 26/22 Q1012 NOSIG,0,4,0,10000,0,0,0,
2026-04-16 23:30:00,METAR VMMC 162330Z 21004KT 190V250 9999 FEW018 26/22 Q1012 NOSIG,0,4,0,10000,0,0,0,
2026-04-16 23:00:00,METAR VMMC 162300Z 20005KT 180V240 9999 FEW018 25/22 Q1011 NOSIG,0,5,0,10000,0,0,0,
2026-04-16 22:30:00,METAR VMMC 162230Z 19005KT 9999 FEW014 SCT035 25/22 Q1011 NOSIG,0,5,0,10000,0,0,0,
2026-04-16 22:00:00,METAR VMMC 162200Z 18006KT 9999 FEW016 SCT025 25/22 Q1011 NOSIG,0,6,0,10000,0,0,0,
2026-04-16 21:30:00,METAR VMMC 162130Z 17005KT 9999 FEW016 25/22 Q1010 NOSIG,0,5,0,10000,0,0,0,
2026-04-16 21:00:00,METAR VMMC 162100Z 17006KT 9999 FEW016 25/22 Q1010 NOSIG,0,6,0,10000,0,0,0,
2026-04-16 20:30:00,METAR VMMC 162030Z 16007KT 9999 FEW016 25/22 Q1010 NOSIG,0,7,0,10000,0,0,0,
2026-04-16 20:00:00,METAR VMMC 162000Z 19005KT 9999 FEW016 SCT025 25/22 Q1010 NOSIG,0,5,0,10000,0,0,0,
2026-04-16 19:30:00,METAR VMMC 161930Z 18006KT 9999 FEW016 SCT025 25/22 Q1010 NOSIG,0,6,0,10000,0,0,0,
2026-04-16 19:00:00,METAR VMMC 161900Z 18006KT 9999 SCT020 25/22 Q1010 NOSIG,0,6,0,10000,0,0,0,
2026-04-16 18:30:00,METAR VMMC 161830Z 17007KT 9999 FEW020 25/22 Q1010 NOSIG,0,7,0,10000,0,0,0,
2026-04-16 18:00:00,METAR VMMC 161800Z 17007KT 9999 FEW020 25/22 Q1010 NOSIG,0,7,0,10000,0,0,0,
2026-04-16 17:30:00,METAR VMMC 161730Z 17007KT 9999 FEW020 25/22 Q1011 NOSIG,0,7,0,10000,0,0,0,
2026-04-16 17:00:00,METAR VMMC 161700Z 17007KT 9999 FEW020 25/22 Q1011 NOSIG,0,7,0,10000,0,0,0,
2026-04-16 16:30:00,METAR VMMC 161630Z 17006KT 090V210 9999 FEW020 25/22 Q1011 NOSIG,0,6,0,10000,0,0,0,
2026-04-16 16:00:00,METAR VMMC 161600Z 18005KT 9999 FEW020 26/22 Q1011 NOSIG,0,5,0,10000,0,0,0,
2026-04-16 15:30:00,METAR VMMC 161530Z 19004KT CAVOK 25/22 Q1012 NOSIG,1,0,0,9999,0,0,0,
2026-04-16 15:00:00,METAR VMMC 161500Z 22004KT CAVOK 26/22 Q1012 NOSIG,1,0,0,9999,0,0,0,
2026-04-16 14:30:00,METAR VMMC 161430Z 22006KT 9999 FEW015 26/22 Q1011 NOSIG,0,6,0,10000,0,0,0,
2026-04-16 14:00:00,METAR VMMC 161400Z 21008KT 180V250 9999 FEW015 26/22 Q1011 NOSIG,0,8,0,10000,0,0,0,
2026-04-16 13:30:00,METAR VMMC 161330Z 20008KT 9999 FEW015 26/22 Q1011 NOSIG,0,8,0,10000,0,0,0,
2026-04-16 13:00:00,METAR VMMC 161300Z 20010KT 9999 FEW015 26/22 Q1010 NOSIG,0,10,0,10000,0,0,0,
2026-04-16 12:30:00,METAR VMMC 161230Z 21007KT 9999 FEW015 26/22 Q1010 NOSIG,0,7,0,10000,0,0,0,
2026-04-16 12:00:00,METAR VMMC 161200Z 21008KT 9999 FEW015 26/22 Q1010 NOSIG,0,8,0,10000,0,0,0,
2026-04-16 11:30:00,METAR VMMC 161130Z 20008KT 9999 FEW015 26/22 Q1010 NOSIG,0,8,0,10000,0,0,0,
2026-04-16 11:00:00,METAR VMMC 161100Z 20008KT 9999 FEW015 26/23 Q1010 NOSIG,0,8,0,10000,0,0,0,
2026-04-16 10:30:00,METAR VMMC 161030Z 20010KT 9999 FEW015 26/23 Q1009 NOSIG,0,10,0,10000,0,0,0,
2026-04-16 10:00:00,METAR VMMC 161000Z 19010KT 9999 FEW015 27/23 Q1009 NOSIG,0,10,0,10000,0,0,0,
2026-04-16 09:30:00,METAR VMMC 160930Z 20011KT 9999 FEW015 SCT025 27/22 Q1009 NOSIG,0,11,0,10000,0,0,0,
2026-04-16 09:00:00,METAR VMMC 160900Z 20010KT 9999 FEW015 SCT025 27/22 Q1009 NOSIG,0,10,0,10000,0,0,0,
2026-04-16 08:30:00,METAR VMMC 160830Z 20010KT 9999 FEW015 SCT025 27/23 Q1009 NOSIG,0,10,0,10000,0,0,0,
2026-04-16 08:00:00,METAR VMMC 160800Z 18012KT 9999 FEW015 SCT025 27/23 Q1010 NOSIG,0,12,0,10000,0,0,0,
2026-04-16 07:30:00,METAR VMMC 160730Z 19012KT 9999 FEW015 SCT025 28/23 Q1010 NOSIG,0,12,0,10000,0,0,0,
2026-04-16 07:00:00,METAR VMMC 160700Z 18013KT 9999 FEW015 SCT025 28/23 Q1010 NOSIG,0,13,0,10000,0,0,0,
2026-04-16 06:30:00,METAR VMMC 160630Z 19012KT 9999 FEW015 SCT030 28/23 Q1010 NOSIG,0,12,0,10000,0,0,0,
2026-04-16 06:00:00,METAR VMMC 160600Z 19012KT 9999 FEW015 SCT030 28/23 Q1011 NOSIG,0,12,0,10000,0,0,0,
2026-04-16 05:30:00,METAR VMMC 160530Z 18013KT 9999 FEW015 SCT030 29/24 Q1011 NOSIG,0,13,0,10000,0,0,0,
2026-04-16 05:00:00,METAR VMMC 160500Z 19014KT 9999 FEW015 SCT030 28/22 Q1011 NOSIG,0,14,0,10000,0,0,0,
2026-04-16 04:30:00,METAR VMMC 160430Z 18014KT 9999 FEW015 SCT030 28/23 Q1012 NOSIG,0,14,0,10000,0,0,0,
2026-04-16 04:00:00,METAR VMMC 160400Z 18013KT 9999 FEW015 SCT020 28/23 Q1012 NOSIG,0,13,0,10000,0,0,0,
2026-04-16 03:30:00,METAR VMMC 160330Z 18013KT 9999 FEW015 SCT020 28/23 Q1012 NOSIG,0,13,0,10000,0,0,0,
2026-04-16 03:00:00,METAR VMMC 160300Z 18013KT 9999 FEW015 SCT020 28/23 Q1012 NOSIG,0,13,0,10000,0,0,0,
2026-04-16 02:30:00,METAR VMMC 160230Z 18012KT 9999 FEW012 SCT040 28/24 Q1013 NOSIG,0,12,0,10000,0,0,0,
2026-04-16 02:00:00,METAR VMMC 160200Z 18011KT 9999 FEW012 SCT040 27/23 Q1012 NOSIG,0,11,0,10000,0,0,0,
2026-04-16 01:30:00,METAR VMMC 160130Z 18010KT 9999 FEW012 SCT040 27/24 Q1012 NOSIG,0,10,0,10000,0,0,0,
2026-04-16 01:00:00,METAR VMMC 160100Z 18011KT 9999 FEW012 SCT040 27/23 Q1012 NOSIG,0,11,0,10000,0,0,0,
2026-04-16 00:30:00,METAR VMMC 160030Z 18012KT 9999 FEW012 SCT040 27/23 Q1011 NOSIG,0,12,0,10000,0,0,0,
2026-04-16 00:00:00,METAR VMMC 160000Z 18012KT 9999 FEW010 SCT022 26/23 Q1011 NOSIG,0,12,0,10000,0,0,0,
2026-04-15 23:30:00,METAR VMMC 152330Z 18013KT 9999 FEW010 SCT022 26/23 Q1010 NOSIG,0,13,0,10000,0,0,0,
2026-04-15 23:00:00,METAR VMMC 152300Z 17012KT 9999 FEW010 SCT022 26/23 Q1010 NOSIG,0,12,0,10000,0,0,0,
2026-04-15 22:30:00,METAR VMMC 152230Z 17011KT 9999 FEW010 SCT025 25/23 Q1009 NOSIG,0,11,0,10000,0,0,0,
2026-04-15 22:00:00,METAR VMMC 152200Z 17011KT 9999 FEW010 SCT025 25/23 Q1009 NOSIG,0,11,0,10000,0,0,0,
2026-04-15 21:30:00,METAR VMMC 152130Z 18012KT 9999 FEW010 SCT020 25/24 Q1008 NOSIG,0,12,0,10000,0,0,0,
2026-04-15 21:00:00,METAR VMMC 152100Z 17011KT 9999 FEW010 SCT020 25/24 Q1008 NOSIG,0,11,0,10000,0,0,0,
2026-04-15 20:30:00,METAR VMMC 152030Z 17008KT 9999 FEW010 SCT020 25/24 Q1008 NOSIG,0,8,0,10000,0,0,0,
2026-04-15 20:00:00,METAR VMMC 152000Z 18008KT 9999 FEW010 SCT020 25/24 Q1008 NOSIG,0,8,0,10000,0,0,0,
2026-04-15 19:30:00,METAR VMMC 151930Z 18009KT 9999 FEW010 SCT020 25/24 Q1008 NOSIG,0,9,0,10000,0,0,0,
2026-04-15 19:00:00,METAR VMMC 151900Z 17008KT 9999 FEW010 SCT020 25/24 Q1009 NOSIG,0,8,0,10000,0,0,0,
2026-04-15 18:30:00,METAR VMMC 151830Z 17008KT 9999 FEW010 SCT020 25/24 Q1009 NOSIG,0,8,0,10000,0,0,0,
2026-04-15 18:00:00,METAR VMMC 151800Z 18008KT 9999 FEW010 SCT020 26/24 Q1009 NOSIG,0,8,0,10000,0,0,0,
2026-04-15 17:30:00,METAR VMMC 151730Z 18009KT 9999 FEW010 SCT020 26/24 Q1009 NOSIG,0,9,0,10000,0,0,0,
2026-04-15 17:00:00,METAR VMMC 151700Z 17008KT 9999 FEW010 SCT020 26/24 Q1010 NOSIG,0,8,0,10000,0,0,0,
2026-04-15 16:30:00,METAR VMMC 151630Z 18008KT 9999 FEW010 SCT020 26/24 Q1010 NOSIG,0,8,0,10000,0,0,0,
2026-04-15 16:00:00,METAR VMMC 151600Z 18008KT 9999 FEW009 SCT018 26/24 Q1010 NOSIG,0,8,0,10000,0,0,0,
2026-04-15 15:30:00,METAR VMMC 151530Z 18009KT 9999 FEW009 SCT018 26/24 Q1010 NOSIG,0,9,0,10000,0,0,0,
2026-04-15 15:00:00,METAR VMMC 151500Z 18008KT 9999 FEW009 SCT018 26/24 Q1010 NOSIG,0,8,0,10000,0,0,0,
2026-04-15 14:30:00,METAR VMMC 151430Z 20006KT 9999 FEW009 26/24 Q1010 NOSIG,0,6,0,10000,0,0,0,
2026-04-15 14:00:00,METAR VMMC 151400Z 20007KT 9999 FEW010 26/24 Q1010 NOSIG,0,7,0,10000,0,0,0,
2026-04-15 13:30:00,METAR VMMC 151330Z 20008KT 9999 FEW010 26/24 Q1010 NOSIG,0,8,0,10000,0,0,0,
2026-04-15 13:00:00,METAR VMMC 151300Z 20009KT 9999 FEW010 26/24 Q1009 NOSIG,0,9,0,10000,0,0,0,
2026-04-15 12:30:00,METAR VMMC 151230Z 19009KT 9999 FEW010 SCT020 26/24 Q1009 NOSIG,0,9,0,10000,0,0,0,
2026-04-15 12:00:00,METAR VMMC 151200Z 20009KT 9999 FEW010 SCT020 26/24 Q1009 NOSIG,0,9,0,10000,0,0,0,
2026-04-15 11:30:00,METAR VMMC 151130Z 20010KT 9999 FEW010 SCT020 26/24 Q1009 NOSIG,0,10,0,10000,0,0,0,
2026-04-15 11:00:00,METAR VMMC 151100Z 19009KT 9999 FEW010 SCT020 26/24 Q1008 NOSIG,0,9,0,10000,0,0,0,
2026-04-15 10:30:00,METAR VMMC 151030Z 20009KT 9999 FEW012 SCT025 27/24 Q1008 NOSIG,0,9,0,10000,0,0,0,
2026-04-15 10:00:00,METAR VMMC 151000Z 20011KT 9999 FEW012 SCT025 27/24 Q1008 NOSIG,0,11,0,10000,0,0,0,
2026-04-15 09:30:00,METAR VMMC 150930Z 20011KT 9999 FEW012 SCT025 27/24 Q1008 NOSIG,0,11,0,10000,0,0,0,
2026-04-15 09:00:00,METAR VMMC 150900Z 19010KT 9999 FEW012 SCT020 27/24 Q1008 NOSIG,0,10,0,10000,0,0,0,
2026-04-15 08:30:00,METAR VMMC 150830Z 19010KT 9999 FEW012 SCT020 27/24 Q1008 NOSIG,0,10,0,10000,0,0,0,
2026-04-15 08:00:00,METAR VMMC 150800Z 19011KT 9999 FEW012 SCT020 28/24 Q1008 NOSIG,0,11,0,10000,0,0,0,
2026-04-15 07:30:00,METAR VMMC 150730Z 19011KT 9999 FEW012 SCT020 28/24 Q1008 NOSIG,0,11,0,10000,0,0,0,
2026-04-15 07:00:00,METAR VMMC 150700Z 19013KT 9999 FEW012 SCT020 28/24 Q1008 NOSIG,0,13,0,10000,0,0,0,
2026-04-15 06:30:00,METAR VMMC 150630Z 19013KT 9999 FEW012 SCT020 28/24 Q1009 NOSIG,0,13,0,10000,0,0,0,
2026-04-15 06:00:00,METAR VMMC 150600Z 19014KT 9999 FEW012 SCT020 28/24 Q1009 NOSIG,0,14,0,10000,0,0,0,
2026-04-15 05:30:00,METAR VMMC 150530Z 18014KT 9999 FEW012 SCT020 28/24 Q1010 NOSIG,0,14,0,10000,0,0,0,
2026-04-15 05:00:00,METAR VMMC 150500Z 18014KT 9999 FEW012 SCT020 29/25 Q1010 NOSIG,0,14,0,10000,0,0,0,
2026-04-15 04:30:00,METAR VMMC 150430Z 18015KT 9999 FEW010 SCT020 29/25 Q1011 NOSIG,0,15,0,10000,0,0,0,
2026-04-15 04:00:00,METAR VMMC 150400Z 18014KT 9999 FEW010 SCT020 29/25 Q1011 NOSIG,0,14,0,10000,0,0,0,
2026-04-15 03:30:00,METAR VMMC 150330Z 18013KT 9999 FEW010 SCT020 29/24 Q1011 NOSIG,0,13,0,10000,0,0,0,
2026-04-15 03:00:00,METAR VMMC 150300Z 18014KT 9999 FEW010 SCT020 28/25 Q1011 NOSIG,0,14,0,10000,0,0,0,
2026-04-15 02:30:00,METAR VMMC 150230Z 18013KT 9999 FEW010 SCT020 28/24 Q1011 NOSIG,0,13,0,10000,0,0,0,
2026-04-15 02:00:00,METAR VMMC 150200Z 18013KT 9999 FEW010 SCT020 28/25 Q1011 NOSIG,0,13,0,10000,0,0,0,
2026-04-15 01:30:00,METAR VMMC 150130Z 18013KT 9999 FEW010 SCT020 28/24 Q1011 NOSIG,0,13,0,10000,0,0,0,
2026-04-15 01:00:00,METAR VMMC 150100Z 18011KT 9999 FEW010 SCT020 27/24 Q1011 NOSIG,0,11,0,10000,0,0,0,
2026-04-15 00:30:00,METAR VMMC 150030Z 17010KT 9999 FEW010 SCT020 27/24 Q1010 NOSIG,0,10,0,10000,0,0,0,
2026-04-15 00:00:00,METAR VMMC 150000Z 16008KT 9999 FEW010 SCT020 27/24 Q1010 NOSIG,0,8,0,10000,0,0,0,
2026-04-14 23:30:00,METAR VMMC 142330Z 16009KT 9999 FEW010 SCT020 26/24 Q1009 NOSIG,0,9,0,10000,0,0,0,
2026-04-14 23:00:00,METAR VMMC 142300Z 15007KT 9999 FEW010 SCT020 26/24 Q1009 NOSIG,0,7,0,10000,0,0,0,
2026-04-14 22:30:00,METAR VMMC 142230Z 14005KT 9999 FEW010 SCT016 26/24 Q1009 NOSIG,0,5,0,10000,0,0,0,
2026-04-14 22:00:00,METAR VMMC 142200Z 16007KT 9999 FEW010 25/24 Q1009 NOSIG,0,7,0,10000,0,0,0,
2026-04-14 21:30:00,METAR VMMC 142130Z 17007KT 9999 FEW010 25/24 Q1009 NOSIG,0,7,0,10000,0,0,0,
2026-04-14 21:00:00,METAR VMMC 142100Z 17007KT 9999 FEW010 25/24 Q1008 NOSIG,0,7,0,10000,0,0,0,
2026-04-14 20:30:00,METAR VMMC 142030Z 17007KT 9999 FEW010 SCT030 26/24 Q1009 NOSIG,0,7,0,10000,0,0,0,
2026-04-14 20:00:00,METAR VMMC 142000Z 18007KT 9999 FEW010 SCT030 26/24 Q1009 NOSIG,0,7,0,10000,0,0,0,
2026-04-14 19:30:00,METAR VMMC 141930Z 17007KT 9999 SCT010 26/24 Q1008 NOSIG,0,7,0,10000,0,0,0,
2026-04-14 19:00:00,METAR VMMC 141900Z 17007KT 9999 SCT010 26/24 Q1009 NOSIG,0,7,0,10000,0,0,0,
2026-04-14 18:30:00,METAR VMMC 141830Z 17007KT 9999 SCT010 26/24 Q1009 NOSIG,0,7,0,10000,0,0,0,
2026-04-14 18:00:00,METAR VMMC 141800Z 18006KT 9999 SCT010 26/24 Q1009 NOSIG,0,6,0,10000,0,0,0,
2026-04-14 17:30:00,METAR VMMC 141730Z 18008KT 9999 SCT010 26/24 Q1010 NOSIG,0,8,0,10000,0,0,0,
2026-04-14 17:00:00,METAR VMMC 141700Z 18008KT 9999 SCT010 26/24 Q1010 NOSIG,0,8,0,10000,0,0,0,
2026-04-14 16:30:00,METAR VMMC 141630Z 17007KT 9999 SCT010 26/24 Q1010 NOSIG,0,7,0,10000,0,0,0,
2026-04-14 16:00:00,METAR VMMC 141600Z 17008KT 9999 SCT010 26/24 Q1010 NOSIG,0,8,0,10000,0,0,0,
2026-04-14 15:30:00,METAR VMMC 141530Z 18008KT 9999 FEW010 26/24 Q1010 NOSIG,0,8,0,10000,0,0,0,
2026-04-14 15:00:00,METAR VMMC 141500Z 19007KT 9999 FEW010 26/24 Q1010 NOSIG,0,7,0,10000,0,0,0,
2026-04-14 14:30:00,METAR VMMC 141430Z 20007KT 9999 FEW010 26/24 Q1010 NOSIG,0,7,0,10000,0,0,0,
2026-04-14 14:00:00,METAR VMMC 141400Z 20008KT 9999 FEW010 26/24 Q1010 NOSIG,0,8,0,10000,0,0,0,
2026-04-14 13:30:00,METAR VMMC 141330Z 19009KT 9999 FEW010 26/24 Q1010 NOSIG,0,9,0,10000,0,0,0,
2026-04-14 13:00:00,METAR VMMC 141300Z 20007KT 9999 FEW010 26/24 Q1010 NOSIG,0,7,0,10000,0,0,0,
2026-04-14 12:30:00,METAR VMMC 141230Z 19008KT 9999 FEW010 26/24 Q1010 NOSIG,0,8,0,10000,0,0,0,
2026-04-14 12:00:00,METAR VMMC 141200Z 19007KT 9999 FEW010 SCT025 26/24 Q1010 NOSIG,0,7,0,10000,0,0,0,
2026-04-14 11:30:00,METAR VMMC 141130Z 19009KT 9999 FEW012 SCT025 26/24 Q1009 NOSIG,0,9,0,10000,0,0,0,
2026-04-14 11:00:00,METAR VMMC 141100Z 19009KT 9999 FEW012 SCT025 27/24 Q1009 NOSIG,0,9,0,10000,0,0,0,
2026-04-14 10:30:00,METAR VMMC 141030Z 19010KT 9999 FEW012 SCT025 27/24 Q1009 NOSIG,0,10,0,10000,0,0,0,
2026-04-14 10:00:00,METAR VMMC 141000Z 19010KT 9999 FEW012 SCT025 27/24 Q1009 NOSIG,0,10,0,10000,0,0,0,
2026-04-14 09:30:00,METAR VMMC 140930Z 20011KT 9999 FEW012 SCT025 27/24 Q1008 NOSIG,0,11,0,10000,0,0,0,
2026-04-14 09:00:00,METAR VMMC 140900Z 20011KT 9999 FEW012 SCT025 27/24 Q1009 NOSIG,0,11,0,10000,0,0,0,
2026-04-14 08:30:00,METAR VMMC 140830Z 20012KT 9999 FEW010 SCT025 27/25 Q1009 NOSIG,0,12,0,10000,0,0,0,
2026-04-14 08:00:00,METAR VMMC 140800Z 20013KT 9999 FEW010 SCT025 28/25 Q1009 NOSIG,0,13,0,10000,0,0,0,
2026-04-14 07:30:00,METAR VMMC 140730Z 20013KT 9999 FEW010 SCT025 28/25 Q1009 NOSIG,0,13,0,10000,0,0,0,
2026-04-14 07:00:00,METAR VMMC 140700Z 20012KT 9999 FEW010 SCT025 28/25 Q1009 NOSIG,0,12,0,10000,0,0,0,
2026-04-14 06:30:00,METAR VMMC 140630Z 20011KT 9999 FEW010 SCT025 28/25 Q1010 NOSIG,0,11,0,10000,0,0,0,
2026-04-14 06:00:00,METAR VMMC 140600Z 19012KT 9999 FEW010 SCT025 28/25 Q1010 NOSIG,0,12,0,10000,0,0,0,
2026-04-14 05:30:00,METAR VMMC 140530Z 19013KT 9999 FEW010 SCT025 28/25 Q1011 NOSIG,0,13,0,10000,0,0,0,
2026-04-14 05:00:00,METAR VMMC 140500Z 19013KT 9999 FEW010 SCT025 29/25 Q1011 NOSIG,0,13,0,10000,0,0,0,
2026-04-14 04:30:00,METAR VMMC 140430Z 18014KT 9999 FEW010 SCT025 29/25 Q1011 NOSIG,0,14,0,10000,0,0,0,
2026-04-14 04:00:00,METAR VMMC 140400Z 19014KT 9999 FEW010 SCT025 28/25 Q1012 NOSIG,0,14,0,10000,0,0,0,
2026-04-14 03:30:00,METAR VMMC 140330Z 19013KT 9999 FEW010 SCT025 29/25 Q1012 NOSIG,0,13,0,10000,0,0,0,
2026-04-14 03:00:00,METAR VMMC 140300Z 18014KT 9999 FEW010 SCT025 29/25 Q1012 NOSIG,0,14,0,10000,0,0,0,
2026-04-14 02:30:00,METAR VMMC 140230Z 18013KT 9999 FEW010 28/25 Q1012 NOSIG,0,13,0,10000,0,0,0,
2026-04-14 02:00:00,METAR VMMC 140200Z 18013KT 9999 FEW010 SCT025 27/25 Q1012 NOSIG,0,13,0,10000,0,0,0,
2026-04-14 01:30:00,METAR VMMC 140130Z 18012KT 9999 FEW010 SCT025 Q1012 NOSIG,0,12,0,10000,0,0,0,
2026-04-14 01:00:00,METAR VMMC 140100Z 17010KT 9999 FEW010 SCT025 27/25 Q1012 NOSIG,0,10,0,10000,0,0,0,
2026-04-14 00:30:00,METAR VMMC 140030Z 15007KT 9999 FEW010 SCT025 27/25 Q1012 NOSIG,0,7,0,10000,0,0,0,
2026-04-14 00:00:00,METAR VMMC 140000Z 16008KT 9999 FEW010 27/25 Q1012 NOSIG,0,8,0,10000,0,0,0,
2026-04-13 23:30:00,METAR VMMC 132330Z 15008KT 9999 FEW010 26/25 Q1011 NOSIG,0,8,0,10000,0,0,0,
2026-04-13 23:00:00,METAR VMMC 132300Z 16008KT 9999 FEW010 26/24 Q1011 NOSIG,0,8,0,10000,0,0,0,
2026-04-13 22:30:00,METAR VMMC 132230Z 15006KT 9999 FEW009 SCT025 26/24 Q1011 NOSIG,0,6,0,10000,0,0,0,
2026-04-13 22:00:00,METAR VMMC 132200Z 17007KT 9999 FEW009 SCT022 26/24 Q1010 NOSIG,0,7,0,10000,0,0,0,
2026-04-13 21:30:00,METAR VMMC 132130Z 17008KT 9999 FEW009 SCT020 26/24 Q1010 NOSIG,0,8,0,10000,0,0,0,
2026-04-13 21:00:00,METAR VMMC 132100Z 17007KT 9999 FEW009 SCT020 26/24 Q1010 NOSIG,0,7,0,10000,0,0,0,
2026-04-13 20:30:00,METAR VMMC 132030Z 17007KT 9999 FEW008 SCT020 26/24 Q1010 NOSIG,0,7,0,10000,0,0,0,
2026-04-13 20:00:00,METAR VMMC 132000Z 18008KT 9999 FEW009 SCT020 26/25 Q1010 NOSIG,0,8,0,10000,0,0,0,
2026-04-13 19:30:00,METAR VMMC 131930Z 17009KT 9999 FEW009 SCT020 26/24 Q1010 NOSIG,0,9,0,10000,0,0,0,
2026-04-13 19:00:00,METAR VMMC 131900Z 17009KT 9999 FEW009 SCT025 26/24 Q1010 NOSIG,0,9,0,10000,0,0,0,
2026-04-13 18:30:00,METAR VMMC 131830Z 18009KT 9999 FEW009 SCT022 26/24 Q1010 NOSIG,0,9,0,10000,0,0,0,
2026-04-13 18:00:00,METAR VMMC 131800Z 19007KT 9999 FEW009 SCT022 26/24 Q1010 NOSIG,0,7,0,10000,0,0,0,
2026-04-13 17:30:00,METAR VMMC 131730Z 17009KT 9999 FEW010 SCT025 26/24 Q1010 NOSIG,0,9,0,10000,0,0,0,
2026-04-13 17:00:00,METAR VMMC 131700Z 18008KT 9999 FEW010 SCT025 26/24 Q1011 NOSIG,0,8,0,10000,0,0,0,
2026-04-13 16:30:00,METAR VMMC 131630Z 19008KT 9999 FEW010 SCT025 26/24 Q1011 NOSIG,0,8,0,10000,0,0,0,
2026-04-13 16:00:00,METAR VMMC 131600Z 17009KT 9999 FEW010 SCT025 26/24 Q1011 NOSIG,0,9,0,10000,0,0,0,
2026-04-13 15:30:00,METAR VMMC 131530Z 17011KT 9999 FEW010 SCT025 26/24 Q1011 NOSIG,0,11,0,10000,0,0,0,
2026-04-13 15:00:00,METAR VMMC 131500Z 17010KT 9999 FEW010 SCT025 26/24 Q1011 NOSIG,0,10,0,10000,0,0,0,
2026-04-13 14:30:00,METAR VMMC 131430Z 18010KT 9999 FEW010 SCT025 26/24 Q1012 NOSIG,0,10,0,10000,0,0,0,
2026-04-13 14:00:00,METAR VMMC 131400Z 17012KT 9999 FEW010 SCT025 26/25 Q1011 NOSIG,0,12,0,10000,0,0,0,
2026-04-13 13:30:00,METAR VMMC 131330Z 17011KT 9999 FEW010 SCT025 26/24 Q1011 NOSIG,0,11,0,10000,0,0,0,
2026-04-13 13:00:00,METAR VMMC 131300Z 17011KT 9999 FEW010 SCT025 26/25 Q1011 NOSIG,0,11,0,10000,0,0,0,
2026-04-13 12:30:00,METAR VMMC 131230Z 18009KT 9999 FEW010 SCT025 26/24 Q1011 NOSIG,0,9,0,10000,0,0,0,
2026-04-13 12:00:00,METAR VMMC 131200Z 18010KT 9999 FEW010 SCT025 26/24 Q1010 NOSIG,0,10,0,10000,0,0,0,
2026-04-13 11:30:00,METAR VMMC 131130Z 19011KT 9999 FEW010 SCT025 27/24 Q1010 NOSIG,0,11,0,10000,0,0,0,
2026-04-13 11:00:00,METAR VMMC 131100Z 19009KT 9999 FEW010 SCT025 27/24 Q1010 NOSIG,0,9,0,10000,0,0,0,
2026-04-13 10:30:00,METAR VMMC 131030Z 19009KT 9999 FEW010 SCT025 27/24 Q1010 NOSIG,0,9,0,10000,0,0,0,
2026-04-13 10:00:00,METAR VMMC 131000Z 19011KT 9999 FEW010 SCT025 27/24 Q1009 NOSIG,0,11,0,10000,0,0,0,
2026-04-13 09:30:00,METAR VMMC 130930Z 18012KT 9999 FEW010 SCT018 27/24 Q1009 NOSIG,0,12,0,10000,0,0,0,
2026-04-13 09:00:00,METAR VMMC 130900Z 17011KT 9999 -SHRA FEW010 SCT018 27/24 Q1009 NOSIG,0,11,0,10000,0,0,0,RA
2026-04-13 08:30:00,METAR VMMC 130830Z 19012KT 9999 FEW010 SCT025 27/24 Q1009 NOSIG,0,12,0,10000,0,0,0,
2026-04-13 08:00:00,METAR VMMC 130800Z 18013KT 9999 -SHRA FEW010 SCT018 27/24 Q1009 NOSIG,0,13,0,10000,0,0,0,RA
2026-04-13 07:30:00,METAR VMMC 130730Z 18014KT 9999 FEW010 SCT018 28/24 Q1009 NOSIG,0,14,0,10000,0,0,0,
2026-04-13 07:00:00,METAR VMMC 130700Z 18014KT 9999 FEW010 SCT020 28/25 Q1009 NOSIG,0,14,0,10000,0,0,0,
2026-04-13 06:30:00,METAR VMMC 130630Z 18014KT 9999 SCT010 29/25 Q1010 NOSIG,0,14,0,10000,0,0,0,
2026-04-13 06:00:00,METAR VMMC 130600Z 18014KT 9999 SCT010 28/24 Q1010 NOSIG,0,14,0,10000,0,0,0,
2026-04-13 05:30:00,METAR VMMC 130530Z 18015KT 9999 SCT010 29/25 Q1010 NOSIG,0,15,0,10000,0,0,0,
2026-04-13 05:00:00,METAR VMMC 130500Z 18014KT 9999 FEW010 SCT025 28/25 Q1011 NOSIG,0,14,0,10000,0,0,0,
2026-04-13 04:30:00,METAR VMMC 130430Z 18015KT 9999 FEW010 SCT025 28/25 Q1011 NOSIG,0,15,0,10000,0,0,0,
2026-04-13 04:00:00,METAR VMMC 130400Z 18014KT 9999 FEW010 29/25 Q1012 NOSIG,0,14,0,10000,0,0,0,
2026-04-13 03:30:00,METAR VMMC 130330Z 18014KT 9999 FEW010 SCT030 29/25 Q1012 NOSIG,0,14,0,10000,0,0,0,
2026-04-13 03:00:00,METAR VMMC 130300Z 18014KT 9999 FEW010 28/25 Q1012 NOSIG,0,14,0,10000,0,0,0,
2026-04-13 02:30:00,METAR VMMC 130230Z 19013KT 9999 FEW010 28/25 Q1012 NOSIG,0,13,0,10000,0,0,0,
2026-04-13 02:00:00,METAR VMMC 130200Z 18013KT 9999 FEW010 28/24 Q1012 NOSIG,0,13,0,10000,0,0,0,
2026-04-13 01:30:00,METAR VMMC 130130Z 17013KT 9999 FEW010 28/25 Q1012 NOSIG,0,13,0,10000,0,0,0,
2026-04-13 01:00:00,METAR VMMC 130100Z 17012KT 9999 FEW010 27/24 Q1012 NOSIG,0,12,0,10000,0,0,0,
2026-04-13 00:30:00,METAR VMMC 130030Z 17011KT 9999 FEW010 27/24 Q1011 NOSIG,0,11,0,10000,0,0,0,
2026-04-13 00:00:00,METAR VMMC 130000Z 17010KT 9999 FEW010 27/24 Q1011 NOSIG,0,10,0,10000,0,0,0,
2026-04-12 23:30:00,METAR VMMC 122330Z 17010KT 9999 FEW010 26/24 Q1011 NOSIG,0,10,0,10000,0,0,0,
2026-04-12 23:00:00,METAR VMMC 122300Z 17011KT 9999 FEW010 SCT020 26/24 Q1010 NOSIG,0,11,0,10000,0,0,0,
2026-04-12 22:30:00,METAR VMMC 122230Z 17010KT 9999 FEW010 SCT020 25/24 Q1010 NOSIG,0,10,0,10000,0,0,0,
2026-04-12 22:00:00,METAR VMMC 122200Z 18008KT 9999 FEW010 SCT020 25/24 Q1010 NOSIG,0,8,0,10000,0,0,0,
2026-04-12 21:30:00,METAR VMMC 122130Z 18008KT 9999 FEW009 SCT018 25/24 Q1009 NOSIG,0,8,0,10000,0,0,0,
2026-04-12 21:00:00,METAR VMMC 122100Z 18007KT 9999 FEW009 SCT018 25/24 Q1009 NOSIG,0,7,0,10000,0,0,0,
2026-04-12 20:30:00,METAR VMMC 122030Z 18009KT 9999 FEW008 SCT018 25/24 Q1008 NOSIG,0,9,0,10000,0,0,0,
2026-04-12 20:00:00,METAR VMMC 122000Z 18008KT 9999 FEW009 SCT018 25/24 Q1008 NOSIG,0,8,0,10000,0,0,0,
2026-04-12 19:30:00,METAR VMMC 121930Z 18009KT 9999 FEW009 SCT018 25/24 Q1008 NOSIG,0,9,0,10000,0,0,0,
2026-04-12 19:00:00,METAR VMMC 121900Z 17010KT 9999 FEW009 SCT018 25/24 Q1008 NOSIG,0,10,0,10000,0,0,0,
2026-04-12 18:30:00,METAR VMMC 121830Z 18009KT 9999 FEW009 SCT018 25/24 Q1008 NOSIG,0,9,0,10000,0,0,0,
2026-04-12 18:00:00,METAR VMMC 121800Z 17009KT 9999 FEW010 SCT018 26/24 Q1009 NOSIG,0,9,0,10000,0,0,0,
2026-04-12 17:30:00,METAR VMMC 121730Z 17009KT 9999 FEW009 SCT018 25/24 Q1009 NOSIG,0,9,0,10000,0,0,0,
2026-04-12 17:00:00,METAR VMMC 121700Z 18008KT 9999 FEW009 SCT018 26/24 Q1009 NOSIG,0,8,0,10000,0,0,0,
2026-04-12 16:30:00,METAR VMMC 121630Z 18009KT 9999 FEW009 SCT018 26/24 Q1009 NOSIG,0,9,0,10000,0,0,0,
2026-04-12 16:00:00,METAR VMMC 121600Z 17009KT 9999 FEW009 SCT018 26/24 Q1010 NOSIG,0,9,0,10000,0,0,0,
2026-04-12 15:00:00,METAR VMMC 121500Z 17009KT 9999 FEW010 26/24 Q1010 NOSIG,0,9,0,10000,0,0,0,
2026-04-12 14:30:00,METAR VMMC 121430Z 17011KT 9999 FEW010 SCT025 26/24 Q1010 NOSIG,0,11,0,10000,0,0,0,
2026-04-12 14:00:00,METAR VMMC 121400Z 17009KT 9999 FEW010 SCT025 26/24 Q1010 NOSIG,0,9,0,10000,0,0,0,
2026-04-12 13:30:00,METAR VMMC 121330Z 17011KT 9999 FEW010 SCT020 26/24 Q1009 NOSIG,0,11,0,10000,0,0,0,
2026-04-12 13:00:00,METAR VMMC 121300Z 18010KT 9999 FEW010 26/24 Q1009 NOSIG,0,10,0,10000,0,0,0,
2026-04-12 12:30:00,METAR VMMC 121230Z 17010KT 9999 FEW010 SCT025 26/24 Q1009 NOSIG,0,10,0,10000,0,0,0,
2026-04-12 12:00:00,METAR VMMC 121200Z 17011KT 9999 FEW008 SCT020 26/24 Q1008 NOSIG,0,11,0,10000,0,0,0,
2026-04-12 11:30:00,METAR VMMC 121130Z 17010KT 9999 FEW008 SCT016 26/24 Q1008 NOSIG,0,10,0,10000,0,0,0,
2026-04-12 11:00:00,METAR VMMC 121100Z 17010KT 9999 FEW008 SCT016 26/24 Q1008 NOSIG,0,10,0,10000,0,0,0,
2026-04-12 10:30:00,METAR VMMC 121030Z 18011KT 9999 FEW010 SCT020 26/24 Q1008 NOSIG,0,11,0,10000,0,0,0,
2026-04-12 10:00:00,METAR VMMC 121000Z 18011KT 9999 FEW010 SCT020 26/24 Q1007 NOSIG,0,11,0,10000,0,0,0,
2026-04-12 09:30:00,METAR VMMC 120930Z 18012KT 9999 FEW010 SCT020 27/25 Q1007 NOSIG,0,12,0,10000,0,0,0,
2026-04-12 09:00:00,METAR VMMC 120900Z 18012KT 9999 FEW010 SCT020 27/24 Q1007 NOSIG,0,12,0,10000,0,0,0,
2026-04-12 08:30:00,METAR VMMC 120830Z 18014KT 9999 FEW010 SCT020 27/24 Q1007 NOSIG,0,14,0,10000,0,0,0,
2026-04-12 08:00:00,METAR VMMC 120800Z 18013KT 9999 FEW010 SCT020 28/25 Q1007 NOSIG,0,13,0,10000,0,0,0,
2026-04-12 07:30:00,METAR VMMC 120730Z 18013KT 9999 FEW010 SCT020 28/25 Q1007 NOSIG,0,13,0,10000,0,0,0,
2026-04-12 07:00:00,METAR VMMC 120700Z 19013KT 9999 FEW009 SCT020 28/25 Q1007 NOSIG,0,13,0,10000,0,0,0,
2026-04-12 06:30:00,METAR VMMC 120630Z 19013KT 9999 FEW009 SCT020 28/25 Q1007 NOSIG,0,13,0,10000,0,0,0,
2026-04-12 06:00:00,METAR VMMC 120600Z 18013KT 9999 FEW009 SCT020 28/25 Q1008 NOSIG,0,13,0,10000,0,0,0,
2026-04-12 05:30:00,METAR VMMC 120530Z 18013KT 9999 FEW009 SCT020 28/25 Q1008 NOSIG,0,13,0,10000,0,0,0,
2026-04-12 05:00:00,METAR VMMC 120500Z 18011KT 150V210 9999 FEW009 SCT018 28/25 Q1009 NOSIG,0,11,0,10000,0,0,0,
2026-04-12 04:30:00,METAR VMMC 120430Z 18013KT 9999 FEW009 SCT018 28/25 Q1009 NOSIG,0,13,0,10000,0,0,0,
2026-04-12 04:00:00,METAR VMMC 120400Z 17012KT 9999 FEW009 SCT018 28/25 Q1009 NOSIG,0,12,0,10000,0,0,0,
2026-04-12 03:30:00,METAR VMMC 120330Z 18012KT 9999 FEW010 SCT018 28/25 Q1010 NOSIG,0,12,0,10000,0,0,0,
2026-04-12 03:00:00,METAR VMMC 120300Z 17014KT 9999 FEW010 SCT018 28/25 Q1010 NOSIG,0,14,0,10000,0,0,0,
2026-04-12 02:30:00,METAR VMMC 120230Z 16014KT 9999 FEW010 SCT018 27/24 Q1010 NOSIG,0,14,0,10000,0,0,0,
2026-04-12 02:00:00,METAR VMMC 120200Z 16013KT 9999 FEW009 SCT015 27/25 Q1010 NOSIG,0,13,0,10000,0,0,0,
2026-04-12 01:30:00,METAR VMMC 120130Z 16013KT 9999 FEW009 SCT018 27/24 Q1010 NOSIG,0,13,0,10000,0,0,0,
2026-04-12 01:00:00,METAR VMMC 120100Z 16014KT 9999 FEW009 SCT020 27/24 Q1009 NOSIG,0,14,0,10000,0,0,0,
2026-04-12 00:30:00,METAR VMMC 120030Z 17014KT 9999 FEW008 SCT020 26/24 Q1009 NOSIG,0,14,0,10000,0,0,0,
2026-04-12 00:00:00,METAR VMMC 120000Z 17012KT 9999 FEW008 SCT015 26/25 Q1009 NOSIG,0,12,0,10000,0,0,0,
2026-04-11 23:30:00,METAR VMMC 112330Z 17013KT 9999 FEW008 SCT015 26/24 Q1008 NOSIG,0,13,0,10000,0,0,0,
2026-04-11 23:00:00,METAR VMMC 112300Z 17012KT 9999 FEW008 SCT015 26/24 Q1008 NOSIG,0,12,0,10000,0,0,0,
2026-04-11 22:30:00,METAR VMMC 112230Z 17013KT 9999 FEW008 SCT015 25/24 Q1008 NOSIG,0,13,0,10000,0,0,0,
2026-04-11 22:00:00,METAR VMMC 112200Z 17012KT 9999 FEW007 SCT015 25/24 Q1007 NOSIG,0,12,0,10000,0,0,0,
2026-04-11 21:30:00,METAR VMMC 112130Z 18011KT 9999 FEW008 SCT015 25/24 Q1007 NOSIG,0,11,0,10000,0,0,0,
2026-04-11 21:00:00,METAR VMMC 112100Z 17011KT 9999 FEW006 SCT015 25/24 Q1007 NOSIG,0,11,0,10000,0,0,0,
2026-04-11 20:30:00,METAR VMMC 112030Z 19008KT 9999 FEW006 SCT015 26/24 Q1007 NOSIG,0,8,0,10000,0,0,0,
2026-04-11 20:00:00,METAR VMMC 112000Z 18010KT 9999 FEW007 SCT015 25/24 Q1007 NOSIG,0,10,0,10000,0,0,0,
2026-04-11 19:30:00,METAR VMMC 111930Z 18010KT 9999 FEW007 SCT015 25/24 Q1007 NOSIG,0,10,0,10000,0,0,0,
2026-04-11 19:00:00,METAR VMMC 111900Z 18010KT 9999 FEW009 SCT020 26/24 Q1007 NOSIG,0,10,0,10000,0,0,0,
2026-04-11 18:30:00,METAR VMMC 111830Z 19009KT 9999 FEW008 SCT025 26/24 Q1008 NOSIG,0,9,0,10000,0,0,0,
2026-04-11 18:00:00,METAR VMMC 111800Z 19010KT 9999 FEW008 SCT025 26/24 Q1008 NOSIG,0,10,0,10000,0,0,0,
2026-04-11 17:30:00,METAR VMMC 111730Z 17012KT 9999 FEW007 SCT015 26/24 Q1008 NOSIG,0,12,0,10000,0,0,0,
2026-04-11 17:00:00,METAR VMMC 111700Z 19009KT 9999 FEW009 SCT015 26/25 Q1008 NOSIG,0,9,0,10000,0,0,0,
2026-04-11 16:30:00,METAR VMMC 111630Z 18010KT 9999 FEW009 SCT015 26/24 Q1009 NOSIG,0,10,0,10000,0,0,0,
2026-04-11 16:00:00,METAR VMMC 111600Z 18010KT 9999 FEW009 SCT015 26/24 Q1009 NOSIG,0,10,0,10000,0,0,0,
2026-04-11 15:30:00,METAR VMMC 111530Z 17009KT 9999 FEW009 SCT015 26/24 Q1009 NOSIG,0,9,0,10000,0,0,0,
2026-04-11 15:00:00,METAR VMMC 111500Z 17011KT 9999 FEW009 SCT015 26/24 Q1009 NOSIG,0,11,0,10000,0,0,0,
2026-04-11 14:30:00,METAR VMMC 111430Z 17011KT 9999 FEW009 SCT015 26/24 Q1009 NOSIG,0,11,0,10000,0,0,0,
2026-04-11 14:00:00,METAR VMMC 111400Z 18011KT 9999 FEW009 SCT015 26/24 Q1008 NOSIG,0,11,0,10000,0,0,0,
2026-04-11 13:30:00,METAR VMMC 111330Z 18013KT 9999 FEW008 SCT015 26/24 Q1008 NOSIG,0,13,0,10000,0,0,0,
2026-04-11 13:00:00,METAR VMMC 111300Z 17012KT 9999 FEW009 SCT015 26/24 Q1008 NOSIG,0,12,0,10000,0,0,0,
2026-04-11 12:30:00,METAR VMMC 111230Z 17012KT 9999 FEW009 SCT015 26/25 Q1007 NOSIG,0,12,0,10000,0,0,0,
2026-04-11 12:00:00,METAR VMMC 111200Z 18012KT 9999 FEW009 SCT015 26/24 Q1007 NOSIG,0,12,0,10000,0,0,0,
2026-04-11 11:30:00,METAR VMMC 111130Z 18013KT 9999 FEW009 SCT015 26/25 Q1007 NOSIG,0,13,0,10000,0,0,0,
2026-04-11 11:00:00,METAR VMMC 111100Z 19010KT 9000 FEW009 SCT015 26/24 Q1006 NOSIG,0,10,0,9000,0,0,0,
2026-04-11 10:30:00,METAR VMMC 111030Z 18010KT 9999 FEW009 SCT015 26/25 Q1006 NOSIG,0,10,0,10000,0,0,0,
2026-04-11 10:00:00,METAR VMMC 111000Z 19009KT 9999 FEW008 SCT012 BKN035 26/25 Q1006 NOSIG,0,9,0,10000,0,0,0,
2026-04-11 09:30:00,METAR VMMC 110930Z 19011KT 9999 FEW008 SCT015 27/25 Q1006 NOSIG,0,11,0,10000,0,0,0,
2026-04-11 09:00:00,METAR VMMC 110900Z 19011KT 9999 FEW008 SCT015 27/25 Q1006 NOSIG,0,11,0,10000,0,0,0,
2026-04-11 08:30:00,METAR VMMC 110830Z 19010KT 9999 FEW008 SCT015 BKN040 27/25 Q1006 NOSIG,0,10,0,10000,0,0,0,
2026-04-11 08:00:00,METAR VMMC 110800Z 19011KT 160V220 9000 FEW008 SCT015 BKN040 27/25 Q1006 NOSIG,0,11,0,9000,0,0,0,
2026-04-11 07:30:00,METAR VMMC 110730Z 19011KT 9999 FEW008 SCT015 BKN040 27/25 Q1006 NOSIG,0,11,0,10000,0,0,0,
2026-04-11 07:00:00,METAR VMMC 110700Z 20011KT 9999 FEW009 SCT015 BKN040 27/25 Q1007 NOSIG,0,11,0,10000,0,0,0,
2026-04-11 06:30:00,METAR VMMC 110630Z 19010KT 9999 FEW009 SCT015 BKN040 28/25 Q1007 NOSIG,0,10,0,10000,0,0,0,
2026-04-11 06:00:00,METAR VMMC 110600Z 19013KT 9999 FEW009 SCT015 BKN040 28/25 Q1007 NOSIG,0,13,0,10000,0,0,0,
2026-04-11 05:30:00,METAR VMMC 110530Z 19012KT 9999 FEW008 SCT015 27/25 Q1008 NOSIG,0,12,0,10000,0,0,0,
2026-04-11 05:00:00,METAR VMMC 110500Z 20011KT 9999 FEW008 SCT015 27/25 Q1009 NOSIG,0,11,0,10000,0,0,0,
2026-04-11 04:30:00,METAR VMMC 110430Z 20011KT 9999 FEW008 SCT015 BKN040 27/25 Q1009 NOSIG,0,11,0,10000,0,0,0,
2026-04-11 04:00:00,METAR VMMC 110400Z 20014KT 9999 FEW009 SCT020 28/25 Q1009 NOSIG,0,14,0,10000,0,0,0,
2026-04-11 03:30:00,METAR VMMC 110330Z 19014KT 9999 FEW009 SCT020 27/25 Q1009 NOSIG,0,14,0,10000,0,0,0,
2026-04-11 03:00:00,METAR VMMC 110300Z 19013KT 9999 FEW009 SCT020 27/25 Q1010 NOSIG,0,13,0,10000,0,0,0,
2026-04-11 02:30:00,METAR VMMC 110230Z 20013KT 170V230 9999 FEW009 SCT020 27/25 Q1010 NOSIG,0,13,0,10000,0,0,0,
2026-04-11 02:00:00,METAR VMMC 110200Z 19012KT 9999 FEW008 SCT020 27/25 Q1010 NOSIG,0,12,0,10000,0,0,0,
2026-04-11 01:30:00,METAR VMMC 110130Z 19010KT 9999 FEW009 SCT020 27/25 Q1010 NOSIG,0,10,0,10000,0,0,0,
2026-04-11 01:00:00,METAR VMMC 110100Z 19010KT 9999 FEW009 SCT020 26/25 Q1009 NOSIG,0,10,0,10000,0,0,0,
2026-04-11 00:30:00,METAR VMMC 110030Z 19009KT 9999 FEW009 SCT020 26/25 Q1009 NOSIG,0,9,0,10000,0,0,0,
2026-04-11 00:00:00,METAR VMMC 110000Z 19010KT 9999 FEW009 SCT020 26/25 Q1009 NOSIG,0,10,0,10000,0,0,0,
2026-04-10 23:30:00,METAR VMMC 102330Z 19010KT 9999 FEW009 SCT020 26/24 Q1008 NOSIG,0,10,0,10000,0,0,0,
2026-04-10 23:00:00,METAR VMMC 102300Z 19010KT 9999 FEW009 SCT020 26/24 Q1008 NOSIG,0,10,0,10000,0,0,0,
2026-04-10 22:30:00,METAR VMMC 102230Z 19009KT 9999 FEW009 SCT020 26/24 Q1008 NOSIG,0,9,0,10000,0,0,0,
2026-04-10 22:00:00,METAR VMMC 102200Z 19009KT 9999 FEW009 SCT020 26/24 Q1008 NOSIG,0,9,0,10000,0,0,0,
2026-04-10 21:30:00,METAR VMMC 102130Z 19008KT 9999 FEW009 SCT020 26/24 Q1007 NOSIG,0,8,0,10000,0,0,0,
2026-04-10 21:00:00,METAR VMMC 102100Z 21009KT 9999 FEW008 SCT018 26/24 Q1007 NOSIG,0,9,0,10000,0,0,0,
2026-04-10 20:30:00,METAR VMMC 102030Z 20010KT 9999 FEW008 SCT018 26/24 Q1007 NOSIG,0,10,0,10000,0,0,0,
2026-04-10 20:00:00,METAR VMMC 102000Z 20008KT 9999 FEW008 SCT018 26/24 Q1007 NOSIG,0,8,0,10000,0,0,0,
2026-04-10 19:30:00,METAR VMMC 101930Z 21008KT 9999 FEW008 SCT018 26/24 Q1007 NOSIG,0,8,0,10000,0,0,0,
2026-04-10 19:00:00,METAR VMMC 101900Z 20009KT 9999 FEW008 SCT018 26/24 Q1007 NOSIG,0,9,0,10000,0,0,0,
2026-04-10 18:30:00,METAR VMMC 101830Z 20009KT 9999 FEW008 SCT015 26/24 Q1008 NOSIG,0,9,0,10000,0,0,0,
2026-04-10 18:00:00,METAR VMMC 101800Z 20011KT 9999 FEW008 SCT015 26/24 Q1008 NOSIG,0,11,0,10000,0,0,0,
2026-04-10 17:30:00,METAR VMMC 101730Z 20010KT 9999 FEW008 SCT015 26/24 Q1008 NOSIG,0,10,0,10000,0,0,0,
2026-04-10 17:00:00,METAR VMMC 101700Z 20007KT 9999 FEW008 SCT015 26/24 Q1008 NOSIG,0,7,0,10000,0,0,0,
2026-04-10 16:30:00,METAR VMMC 101630Z 20010KT 9999 FEW008 SCT015 26/24 Q1008 NOSIG,0,10,0,10000,0,0,0,
2026-04-10 16:00:00,METAR VMMC 101600Z 19010KT 9999 FEW008 SCT015 26/24 Q1009 NOSIG,0,10,0,10000,0,0,0,
2026-04-10 15:30:00,METAR VMMC 101530Z 19010KT 9999 FEW008 SCT015 26/24 Q1009 NOSIG,0,10,0,10000,0,0,0,
2026-04-10 15:00:00,METAR VMMC 101500Z 19011KT 9999 FEW008 SCT015 26/24 Q1009 NOSIG,0,11,0,10000,0,0,0,
2026-04-10 14:30:00,METAR VMMC 101430Z 19011KT 9999 FEW009 SCT015 26/24 Q1009 NOSIG,0,11,0,10000,0,0,0,
2026-04-10 14:00:00,METAR VMMC 101400Z 20010KT 9999 FEW009 SCT015 26/24 Q1009 NOSIG,0,10,0,10000,0,0,0,
2026-04-10 13:30:00,METAR VMMC 101330Z 19010KT 9999 FEW009 SCT015 26/24 Q1009 NOSIG,0,10,0,10000,0,0,0,
2026-04-10 13:00:00,METAR VMMC 101300Z 19011KT 9999 FEW009 SCT015 26/24 Q1009 NOSIG,0,11,0,10000,0,0,0,
2026-04-10 12:30:00,METAR VMMC 101230Z 20009KT 9999 FEW009 SCT015 26/24 Q1009 NOSIG,0,9,0,10000,0,0,0,
2026-04-10 12:00:00,METAR VMMC 101200Z 19010KT 9999 FEW009 SCT015 26/24 Q1008 NOSIG,0,10,0,10000,0,0,0,
2026-04-10 11:30:00,METAR VMMC 101130Z 20012KT 9999 FEW008 SCT015 26/24 Q1008 NOSIG,0,12,0,10000,0,0,0,
2026-04-10 11:00:00,METAR VMMC 101100Z 19010KT 9999 FEW008 SCT012 BKN035 26/24 Q1008 NOSIG,0,10,0,10000,0,0,0,
2026-04-10 10:30:00,METAR VMMC 101030Z 20012KT 9999 FEW008 SCT012 BKN035 26/24 Q1008 NOSIG,0,12,0,10000,0,0,0,
2026-04-10 10:00:00,METAR VMMC 101000Z 19012KT 9999 FEW009 SCT025 26/24 Q1007 NOSIG,0,12,0,10000,0,0,0,
2026-04-10 09:30:00,METAR VMMC 100930Z 19010KT 9999 FEW009 SCT025 27/24 Q1007 NOSIG,0,10,0,10000,0,0,0,
2026-04-10 09:00:00,METAR VMMC 100900Z 19011KT 9999 FEW010 SCT025 27/24 Q1007 NOSIG,0,11,0,10000,0,0,0,
2026-04-10 08:30:00,METAR VMMC 100830Z 19011KT 9999 FEW009 SCT025 27/25 Q1008 NOSIG,0,11,0,10000,0,0,0,
2026-04-10 08:00:00,METAR VMMC 100800Z 19012KT 9999 FEW009 SCT025 27/24 Q1008 NOSIG,0,12,0,10000,0,0,0,
2026-04-10 07:30:00,METAR VMMC 100730Z 19014KT 9999 FEW009 SCT025 28/25 Q1008 NOSIG,0,14,0,10000,0,0,0,
2026-04-10 07:00:00,METAR VMMC 100700Z 19013KT 9999 FEW009 SCT025 28/25 Q1008 NOSIG,0,13,0,10000,0,0,0,
2026-04-10 06:30:00,METAR VMMC 100630Z 19013KT 9999 FEW009 SCT025 28/24 Q1009 NOSIG,0,13,0,10000,0,0,0,
2026-04-10 06:00:00,METAR VMMC 100600Z 19013KT 9999 FEW009 SCT025 28/25 Q1009 NOSIG,0,13,0,10000,0,0,0,
2026-04-10 05:30:00,METAR VMMC 100530Z 19013KT 9999 FEW009 SCT025 28/24 Q1009 NOSIG,0,13,0,10000,0,0,0,
2026-04-10 05:00:00,METAR VMMC 100500Z 19013KT 9999 FEW009 SCT025 28/25 Q1010 NOSIG,0,13,0,10000,0,0,0,
2026-04-10 04:30:00,METAR VMMC 100430Z 19013KT 9999 FEW009 SCT025 27/24 Q1010 NOSIG,0,13,0,10000,0,0,0,
2026-04-10 04:00:00,METAR VMMC 100400Z 19012KT 9999 FEW010 SCT025 28/25 Q1011 NOSIG,0,12,0,10000,0,0,0,
2026-04-10 03:30:00,METAR VMMC 100330Z 19011KT 9999 FEW012 SCT025 28/25 Q1011 NOSIG,0,11,0,10000,0,0,0,
2026-04-10 03:00:00,METAR VMMC 100300Z 19012KT 9999 FEW012 SCT025 28/25 Q1011 NOSIG,0,12,0,10000,0,0,0,
2026-04-10 02:30:00,METAR VMMC 100230Z 19012KT 9999 FEW010 SCT025 28/24 Q1011 NOSIG,0,12,0,10000,0,0,0,
2026-04-10 02:00:00,METAR VMMC 100200Z 19012KT 9999 FEW010 SCT025 27/24 Q1011 NOSIG,0,12,0,10000,0,0,0,
2026-04-10 01:30:00,METAR VMMC 100130Z 20011KT 9999 FEW010 SCT025 27/24 Q1011 NOSIG,0,11,0,10000,0,0,0,
2026-04-10 01:00:00,METAR VMMC 100100Z 20009KT 9999 FEW010 SCT020 26/24 Q1011 NOSIG,0,9,0,10000,0,0,0,
2026-04-10 00:30:00,METAR VMMC 100030Z 19010KT 9999 FEW010 SCT020 26/24 Q1010 NOSIG,0,10,0,10000,0,0,0,
2026-04-10 00:00:00,METAR VMMC 100000Z 20009KT 160V230 9999 FEW010 SCT020 26/24 Q1010 NOSIG,0,9,0,10000,0,0,0,
2026-04-09 23:30:00,METAR VMMC 092330Z 20008KT 160V240 9999 FEW012 SCT020 26/24 Q1009 NOSIG,0,8,0,10000,0,0,0,
2026-04-09 23:00:00,METAR VMMC 092300Z 21008KT 180V240 9999 FEW012 SCT020 25/23 Q1009 NOSIG,0,8,0,10000,0,0,0,
2026-04-09 22:30:00,METAR VMMC 092230Z 21008KT 180V240 9999 FEW012 SCT020 25/23 Q1009 NOSIG,0,8,0,10000,0,0,0,
2026-04-09 22:00:00,METAR VMMC 092200Z 21009KT 9999 FEW012 SCT020 25/23 Q1008 NOSIG,0,9,0,10000,0,0,0,
2026-04-09 21:30:00,METAR VMMC 092130Z 21010KT 170V240 9999 FEW012 25/23 Q1008 NOSIG,0,10,0,10000,0,0,0,
2026-04-09 21:00:00,METAR VMMC 092100Z 21012KT 9999 FEW012 25/23 Q1008 NOSIG,0,12,0,10000,0,0,0,
2026-04-09 20:30:00,METAR VMMC 092030Z 21009KT 180V250 9999 FEW012 SCT022 25/23 Q1008 NOSIG,0,9,0,10000,0,0,0,
2026-04-09 20:00:00,METAR VMMC 092000Z 20009KT 9999 FEW012 SCT022 25/23 Q1008 NOSIG,0,9,0,10000,0,0,0,
2026-04-09 19:30:00,METAR VMMC 091930Z 21010KT 9999 FEW012 SCT022 25/24 Q1008 NOSIG,0,10,0,10000,0,0,0,
2026-04-09 19:00:00,METAR VMMC 091900Z 21010KT 180V240 9999 FEW012 SCT022 25/24 Q1008 NOSIG,0,10,0,10000,0,0,0,
2026-04-09 18:30:00,METAR VMMC 091830Z 21007KT 170V240 9999 FEW012 SCT022 25/24 Q1008 NOSIG,0,7,0,10000,0,0,0,
2026-04-09 18:00:00,METAR VMMC 091800Z 21006KT 170V230 9999 FEW009 SCT020 25/24 Q1009 NOSIG,0,6,0,10000,0,0,0,
2026-04-09 17:30:00,METAR VMMC 091730Z 20010KT 9999 FEW009 SCT020 25/24 Q1009 NOSIG,0,10,0,10000,0,0,0,
2026-04-09 17:00:00,METAR VMMC 091700Z 19009KT 9999 FEW008 SCT020 25/24 Q1010 NOSIG,0,9,0,10000,0,0,0,
2026-04-09 16:30:00,METAR VMMC 091630Z 20010KT 9999 FEW008 SCT020 26/24 Q1010 NOSIG,0,10,0,10000,0,0,0,
2026-04-09 16:00:00,METAR VMMC 091600Z 20009KT 9999 FEW008 SCT020 26/24 Q1010 NOSIG,0,9,0,10000,0,0,0,
2026-04-09 15:30:00,METAR VMMC 091530Z 20011KT 9999 FEW008 SCT025 26/24 Q1010 NOSIG,0,11,0,10000,0,0,0,
2026-04-09 15:00:00,METAR VMMC 091500Z 20011KT 9999 FEW008 SCT025 26/24 Q1010 NOSIG,0,11,0,10000,0,0,0,
2026-04-09 14:30:00,METAR VMMC 091430Z 20011KT 9999 FEW008 SCT025 26/24 Q1010 NOSIG,0,11,0,10000,0,0,0,
2026-04-09 14:00:00,METAR VMMC 091400Z 19014KT 9999 FEW008 SCT025 26/24 Q1010 NOSIG,0,14,0,10000,0,0,0,
2026-04-09 13:30:00,METAR VMMC 091330Z 20012KT 9999 FEW009 SCT025 26/24 Q1010 NOSIG,0,12,0,10000,0,0,0,
2026-04-09 13:00:00,METAR VMMC 091300Z 19011KT 9999 FEW009 SCT025 26/24 Q1009 NOSIG,0,11,0,10000,0,0,0,
2026-04-09 12:30:00,METAR VMMC 091230Z 19010KT 9999 FEW009 SCT025 26/24 Q1009 NOSIG,0,10,0,10000,0,0,0,
2026-04-09 12:00:00,METAR VMMC 091200Z 19012KT 9999 FEW009 SCT025 26/24 Q1009 NOSIG,0,12,0,10000,0,0,0,
2026-04-09 11:30:00,METAR VMMC 091130Z 19012KT 9999 FEW009 SCT025 26/24 Q1009 NOSIG,0,12,0,10000,0,0,0,
2026-04-09 11:00:00,METAR VMMC 091100Z 20011KT 9999 FEW009 SCT025 26/24 Q1009 NOSIG,0,11,0,10000,0,0,0,
2026-04-09 10:30:00,METAR VMMC 091030Z 20012KT 9999 FEW009 SCT025 26/24 Q1009 NOSIG,0,12,0,10000,0,0,0,
2026-04-09 10:00:00,METAR VMMC 091000Z 19013KT 9999 FEW010 SCT025 26/24 Q1008 NOSIG,0,13,0,10000,0,0,0,
2026-04-09 09:30:00,METAR VMMC 090930Z 19013KT 9999 FEW010 SCT025 26/24 Q1008 NOSIG,0,13,0,10000,0,0,0,
2026-04-09 09:00:00,METAR VMMC 090900Z 19012KT 9999 FEW010 SCT025 27/24 Q1008 NOSIG,0,12,0,10000,0,0,0,
2026-04-09 08:30:00,METAR VMMC 090830Z 19011KT 9999 FEW012 SCT025 27/24 Q1009 NOSIG,0,11,0,10000,0,0,0,
2026-04-09 08:00:00,METAR VMMC 090800Z 19012KT 9999 FEW012 SCT025 27/24 Q1009 NOSIG,0,12,0,10000,0,0,0,
2026-04-09 07:30:00,METAR VMMC 090730Z 19012KT 9999 FEW012 SCT025 27/24 Q1009 NOSIG,0,12,0,10000,0,0,0,
2026-04-09 07:00:00,METAR VMMC 090700Z 19014KT 9999 FEW012 SCT025 28/24 Q1009 NOSIG,0,14,0,10000,0,0,0,
2026-04-09 06:30:00,METAR VMMC 090630Z 19014KT 9999 FEW012 SCT025 28/24 Q1010 NOSIG,0,14,0,10000,0,0,0,
2026-04-09 06:00:00,METAR VMMC 090600Z 18014KT 9999 FEW012 SCT025 28/24 Q1010 NOSIG,0,14,0,10000,0,0,0,
2026-04-09 05:30:00,METAR VMMC 090530Z 18015KT 9999 FEW012 SCT025 28/24 Q1011 NOSIG,0,15,0,10000,0,0,0,
2026-04-09 05:00:00,METAR VMMC 090500Z 19012KT 9999 FEW010 SCT025 28/24 Q1011 NOSIG,0,12,0,10000,0,0,0,
2026-04-09 04:30:00,METAR VMMC 090430Z 18013KT 9999 FEW010 SCT025 28/25 Q1011 NOSIG,0,13,0,10000,0,0,0,
2026-04-09 04:00:00,METAR VMMC 090400Z 19013KT 9999 FEW010 SCT025 28/24 Q1012 NOSIG,0,13,0,10000,0,0,0,
2026-04-09 03:30:00,METAR VMMC 090330Z 16012KT 9999 FEW010 SCT025 28/24 Q1012 NOSIG,0,12,0,10000,0,0,0,
2026-04-09 03:00:00,METAR VMMC 090300Z 16010KT 9999 FEW010 SCT025 27/24 Q1012 NOSIG,0,10,0,10000,0,0,0,
2026-04-09 02:30:00,METAR VMMC 090230Z 16010KT 9999 FEW010 SCT025 27/24 Q1013 NOSIG,0,10,0,10000,0,0,0,
2026-04-09 02:00:00,METAR VMMC 090200Z 16009KT 9999 FEW010 SCT025 27/24 Q1013 NOSIG,0,9,0,10000,0,0,0,
2026-04-09 01:30:00,METAR VMMC 090130Z 16010KT 9999 FEW008 SCT025 26/24 Q1013 NOSIG,0,10,0,10000,0,0,0,
2026-04-09 01:00:00,METAR VMMC 090100Z 15009KT 9999 FEW008 SCT020 25/24 Q1012 NOSIG,0,9,0,10000,0,0,0,
2026-04-09 00:30:00,METAR VMMC 090030Z 14007KT 9999 FEW008 SCT020 25/24 Q1012 NOSIG,0,7,0,10000,0,0,0,
2026-04-09 00:00:00,METAR VMMC 090000Z 13008KT 9999 FEW005 SCT020 25/24 Q1012 NOSIG,0,8,0,10000,0,0,0,
2026-04-08 23:30:00,METAR VMMC 082330Z 13009KT 9000 FEW005 SCT018 25/24 Q1011 NOSIG,0,9,0,9000,0,0,0,
2026-04-08 23:00:00,METAR VMMC 082300Z 13009KT 7000 FEW005 SCT018 25/24 Q1011 NOSIG,0,9,0,7000,0,0,0,
2026-04-08 22:30:00,METAR VMMC 082230Z 13009KT 7000 FEW006 SCT020 25/24 Q1011 TEMPO 4500 BR,0,9,0,7000,0,0,1,BR
2026-04-08 22:00:00,METAR VMMC 082200Z 13008KT 8000 FEW008 SCT020 25/24 Q1010 NOSIG,0,8,0,8000,0,0,0,
2026-04-08 21:30:00,METAR VMMC 082130Z 13007KT 100V160 9000 FEW010 SCT020 25/24 Q1010 NOSIG,0,7,0,9000,0,0,0,
2026-04-08 21:00:00,METAR VMMC 082100Z 13005KT 100V170 9000 FEW010 SCT020 25/24 Q1010 NOSIG,0,5,0,9000,0,0,0,
2026-04-08 20:30:00,METAR VMMC 082030Z 14006KT 8000 FEW010 SCT020 25/23 Q1010 NOSIG,0,6,0,8000,0,0,0,
2026-04-08 20:00:00,METAR VMMC 082000Z 13005KT 7000 FEW008 SCT015 25/24 Q1010 NOSIG,0,5,0,7000,0,0,0,
2026-04-08 19:30:00,METAR VMMC 081930Z 13006KT 7000 FEW006 SCT015 24/24 Q1010 NOSIG,0,6,0,7000,0,0,0,
2026-04-08 19:00:00,METAR VMMC 081900Z 13008KT 7000 FEW006 SCT015 25/24 Q1010 NOSIG,0,8,0,7000,0,0,0,
2026-04-08 18:30:00,METAR VMMC 081830Z 15008KT 7000 FEW006 SCT015 25/24 Q1011 NOSIG,0,8,0,7000,0,0,0,
2026-04-08 18:00:00,METAR VMMC 081800Z 13007KT 6000 FEW005 SCT015 24/24 Q1011 NOSIG,0,7,0,6000,0,0,0,
2026-04-08 17:30:00,METAR VMMC 081730Z 14009KT 7000 FEW006 SCT015 24/24 Q1011 TEMPO 4500 BR,0,9,0,7000,0,0,1,BR
2026-04-08 17:00:00,METAR VMMC 081700Z 13010KT 8000 FEW008 SCT015 24/23 Q1011 NOSIG,0,10,0,8000,0,0,0,
2026-04-08 16:30:00,METAR VMMC 081630Z 13009KT 8000 FEW008 SCT015 24/23 Q1012 NOSIG,0,9,0,8000,0,0,0,
2026-04-08 16:00:00,METAR VMMC 081600Z 13011KT 8000 FEW008 SCT015 24/23 Q1012 NOSIG,0,11,0,8000,0,0,0,
2026-04-08 15:30:00,METAR VMMC 081530Z 13010KT 7000 FEW010 SCT025 25/23 Q1012 NOSIG,0,10,0,7000,0,0,0,
2026-04-08 15:00:00,METAR VMMC 081500Z 12010KT 7000 FEW007 SCT015 24/23 Q1012 TEMPO 4500 BR,0,10,0,7000,0,0,1,BR
2026-04-08 14:30:00,METAR VMMC 081430Z 12011KT 7000 FEW007 SCT015 24/23 Q1012 NOSIG,0,11,0,7000,0,0,0,
2026-04-08 14:00:00,METAR VMMC 081400Z 11012KT 7000 FEW008 SCT015 24/23 Q1012 NOSIG,0,12,0,7000,0,0,0,
2026-04-08 13:30:00,METAR VMMC 081330Z 11012KT 7000 FEW008 SCT015 24/23 Q1012 NOSIG,0,12,0,7000,0,0,0,
2026-04-08 13:00:00,METAR VMMC 081300Z 11012KT 040V150 7000 FEW008 SCT015 24/23 Q1011 NOSIG,0,12,0,7000,0,0,0,
2026-04-08 12:30:00,METAR VMMC 081230Z 12014KT 8000 FEW008 SCT015 24/23 Q1011 NOSIG,0,14,0,8000,0,0,0,
2026-04-08 12:00:00,METAR VMMC 081200Z 12013KT 8000 FEW008 SCT015 24/23 Q1011 NOSIG,0,13,0,8000,0,0,0,
2026-04-08 11:30:00,METAR VMMC 081130Z 12012KT 6000 FEW007 SCT015 24/23 Q1011 TEMPO 4500 BR,0,12,0,6000,0,0,1,BR
2026-04-08 11:00:00,METAR VMMC 081100Z 11013KT 5000 BR FEW007 SCT015 24/23 Q1011 NOSIG,0,13,0,5000,0,0,1,BR
2026-04-08 10:30:00,METAR VMMC 081030Z 11013KT 4800 BR FEW007 SCT015 24/23 Q1010 NOSIG,0,13,0,4800,0,0,1,BR
2026-04-08 10:00:00,METAR VMMC 081000Z 12014KT 4800 BR FEW007 SCT015 24/23 Q1010 NOSIG,0,14,0,4800,0,0,1,BR
2026-04-08 09:30:00,METAR VMMC 080930Z 12014KT 5000 BR FEW007 SCT015 24/22 Q1010 NOSIG,0,14,0,5000,0,0,1,BR
2026-04-08 09:00:00,METAR VMMC 080900Z 12015KT 5000 BR FEW007 SCT015 24/23 Q1010 NOSIG,0,15,0,5000,0,0,1,BR
2026-04-08 08:30:00,METAR VMMC 080830Z 12016KT 4800 BR FEW007 SCT015 24/22 Q1010 NOSIG,0,16,0,4800,0,0,1,BR
2026-04-08 08:00:00,METAR VMMC 080800Z 12016KT 5000 BR FEW007 SCT015 24/22 Q1010 TEMPO 4500 BR,0,16,0,5000,0,0,1,BR
2026-04-08 07:30:00,METAR VMMC 080730Z 12015KT 5000 BR FEW007 SCT015 24/22 Q1010 NOSIG,0,15,0,5000,0,0,1,BR
2026-04-08 07:00:00,METAR VMMC 080700Z 12016KT 6000 FEW007 SCT015 24/22 Q1010 NOSIG,0,16,0,6000,0,0,0,
2026-04-08 06:30:00,METAR VMMC 080630Z 12017KT 6000 FEW007 SCT015 24/22 Q1011 TEMPO 4500 BR,0,17,0,6000,0,0,1,BR
2026-04-08 06:00:00,METAR VMMC 080600Z 12019KT 6000 FEW007 SCT015 24/22 Q1011 NOSIG,0,19,0,6000,0,0,0,
2026-04-08 05:30:00,METAR VMMC 080530Z 12019KT 6000 FEW007 SCT015 24/22 Q1011 NOSIG,0,19,0,6000,0,0,0,
2026-04-08 05:00:00,METAR VMMC 080500Z 12019KT 6000 FEW008 SCT015 24/22 Q1012 TEMPO 4500 BR,0,19,0,6000,0,0,1,BR
2026-04-08 04:30:00,METAR VMMC 080430Z 11016KT 7000 FEW008 SCT015 24/22 Q1013 NOSIG,0,16,0,7000,0,0,0,
2026-04-08 04:00:00,METAR VMMC 080400Z 12017KT 6000 FEW008 SCT015 24/22 Q1013 NOSIG,0,17,0,6000,0,0,0,
2026-04-08 03:30:00,METAR VMMC 080330Z 11019KT 6000 FEW008 SCT015 24/22 Q1013 NOSIG,0,19,0,6000,0,0,0,
2026-04-08 03:00:00,METAR VMMC 080300Z 11020KT 6000 FEW007 SCT012 24/22 Q1013 TEMPO 4500 BR,0,20,0,6000,0,0,1,BR
2026-04-08 02:30:00,METAR VMMC 080230Z 11019KT 5000 BR FEW007 SCT012 24/22 Q1014 NOSIG,0,19,0,5000,0,0,1,BR
2026-04-08 02:00:00,METAR VMMC 080200Z 10019KT 5000 BR FEW007 SCT012 24/22 Q1013 NOSIG,0,19,0,5000,0,0,1,BR
2026-04-08 01:30:00,METAR VMMC 080130Z 11019KT 5000 BR FEW007 SCT012 24/22 Q1013 NOSIG,0,19,0,5000,0,0,1,BR
2026-04-08 01:00:00,METAR VMMC 080100Z 11018KT 5000 BR FEW007 SCT012 24/22 Q1013 NOSIG,0,18,0,5000,0,0,1,BR
2026-04-08 00:30:00,METAR VMMC 080030Z 11019KT 5000 BR FEW007 SCT012 24/22 Q1013 NOSIG,0,19,0,5000,0,0,1,BR
2026-04-08 00:00:00,METAR VMMC 080000Z 11018KT 5000 BR FEW007 SCT012 24/22 Q1012 NOSIG,0,18,0,5000,0,0,1,BR
2026-04-07 23:30:00,METAR VMMC 072330Z 11019KT 070V130 5000 BR FEW007 SCT012 24/23 Q1012 NOSIG,0,19,0,5000,0,0,1,BR
2026-04-07 23:00:00,METAR VMMC 072300Z 11020KT 5000 BR FEW006 SCT012 24/23 Q1011 TEMPO 4000 SHRA,0,20,0,5000,0,0,1,"BR,RA,SH"
2026-04-07 22:30:00,METAR VMMC 072230Z 10019KT 4800 BR FEW006 SCT012 BKN040 24/23 Q1011 NOSIG,0,19,0,4800,0,0,1,BR
2026-04-07 22:00:00,METAR VMMC 072200Z 11021KT 6000 FEW006 SCT012 BKN040 24/23 Q1011 NOSIG,0,21,0,6000,0,0,0,
2026-04-07 21:30:00,METAR VMMC 072130Z 10020KT 6000 FEW005 SCT012 BKN040 24/23 Q1010 NOSIG,0,20,0,6000,0,0,0,
2026-04-07 21:00:00,METAR VMMC 072100Z 11017KT 7000 FEW005 SCT015 BKN040 25/23 Q1010 TEMPO 4500 BR,0,17,0,7000,0,0,1,BR
2026-04-07 20:30:00,METAR VMMC 072030Z 13014KT 9000 FEW004 SCT020 BKN045 25/24 Q1009 NOSIG,0,14,0,9000,0,0,0,
2026-04-07 20:00:00,METAR VMMC 072000Z 14014KT 8000 FEW004 SCT022 BKN045 25/24 Q1010 NOSIG,0,14,0,8000,0,0,0,
2026-04-07 19:30:00,METAR VMMC 071930Z 13014KT 9000 FEW008 SCT025 BKN045 26/24 Q1010 NOSIG,0,14,0,9000,0,0,0,
2026-04-07 19:00:00,METAR VMMC 071900Z 14013KT 9999 FEW008 SCT018 BKN040 26/24 Q1010 NOSIG,0,13,0,10000,0,0,0,
2026-04-07 18:30:00,METAR VMMC 071830Z 14014KT 9000 FEW007 SCT018 BKN040 26/24 Q1010 NOSIG,0,14,0,9000,0,0,0,
2026-04-07 18:00:00,METAR VMMC 071800Z 14014KT 9000 FEW010 SCT018 BKN040 26/24 Q1010 NOSIG,0,14,0,9000,0,0,0,
2026-04-07 17:30:00,METAR VMMC 071730Z 14011KT 9999 FEW010 SCT018 BKN040 26/24 Q1010 NOSIG,0,11,0,10000,0,0,0,
2026-04-07 17:00:00,METAR VMMC 071700Z 15010KT 9000 FEW008 SCT018 BKN040 26/24 Q1010 NOSIG,0,10,0,9000,0,0,0,
2026-04-07 16:30:00,METAR VMMC 071630Z 15008KT 9999 FEW008 SCT015 BKN040 26/24 Q1010 NOSIG,0,8,0,10000,0,0,0,
2026-04-07 16:00:00,METAR VMMC 071600Z 15008KT 9999 FEW008 SCT015 BKN040 26/24 Q1010 NOSIG,0,8,0,10000,0,0,0,
2026-04-07 15:30:00,METAR VMMC 071530Z 15010KT 9999 FEW007 SCT015 26/24 Q1010 NOSIG,0,10,0,10000,0,0,0,
2026-04-07 15:00:00,METAR VMMC 071500Z 16010KT 9999 FEW007 SCT015 26/24 Q1010 NOSIG,0,10,0,10000,0,0,0,
2026-04-07 14:30:00,METAR VMMC 071430Z 16011KT 9999 FEW006 SCT012 26/24 Q1010 NOSIG,0,11,0,10000,0,0,0,
2026-04-07 14:00:00,METAR VMMC 071400Z 17011KT 9999 FEW006 SCT012 26/24 Q1010 NOSIG,0,11,0,10000,0,0,0,
2026-04-07 13:30:00,METAR VMMC 071330Z 17012KT 9999 FEW006 SCT015 26/24 Q1009 NOSIG,0,12,0,10000,0,0,0,
2026-04-07 13:00:00,METAR VMMC 071300Z 17013KT 9999 FEW006 SCT015 26/24 Q1009 NOSIG,0,13,0,10000,0,0,0,
2026-04-07 12:30:00,METAR VMMC 071230Z 17013KT 9999 FEW006 SCT015 26/25 Q1009 NOSIG,0,13,0,10000,0,0,0,
2026-04-07 12:00:00,METAR VMMC 071200Z 16012KT 9000 FEW006 SCT012 26/24 Q1009 NOSIG,0,12,0,9000,0,0,0,
2026-04-07 11:30:00,METAR VMMC 071130Z 17011KT 9000 FEW006 SCT012 26/25 Q1008 NOSIG,0,11,0,9000,0,0,0,
2026-04-07 11:00:00,METAR VMMC 071100Z 17013KT 8000 FEW006 SCT012 26/25 Q1008 NOSIG,0,13,0,8000,0,0,0,
2026-04-07 10:30:00,METAR VMMC 071030Z 17013KT 8000 FEW006 SCT012 26/25 Q1008 NOSIG,0,13,0,8000,0,0,0,
2026-04-07 10:00:00,METAR VMMC 071000Z 18014KT 9000 FEW007 SCT015 26/25 Q1007 NOSIG,0,14,0,9000,0,0,0,
2026-04-07 09:30:00,METAR VMMC 070930Z 17014KT 9999 FEW007 SCT018 26/25 Q1007 NOSIG,0,14,0,10000,0,0,0,
2026-04-07 09:00:00,METAR VMMC 070900Z 17013KT 9999 FEW007 SCT018 26/25 Q1007 NOSIG,0,13,0,10000,0,0,0,
2026-04-07 08:30:00,METAR VMMC 070830Z 17014KT 9999 FEW007 SCT018 27/25 Q1007 NOSIG,0,14,0,10000,0,0,0,
2026-04-07 08:00:00,METAR VMMC 070800Z 17013KT 9999 FEW007 SCT018 27/25 Q1007 NOSIG,0,13,0,10000,0,0,0,
2026-04-07 07:30:00,METAR VMMC 070730Z 18012KT 9999 FEW009 SCT020 27/25 Q1007 NOSIG,0,12,0,10000,0,0,0,
2026-04-07 07:00:00,METAR VMMC 070700Z 18013KT 9999 FEW009 SCT020 27/25 Q1007 NOSIG,0,13,0,10000,0,0,0,
2026-04-07 06:30:00,METAR VMMC 070630Z 18014KT 9999 FEW009 SCT020 28/25 Q1008 NOSIG,0,14,0,10000,0,0,0,
2026-04-07 06:00:00,METAR VMMC 070600Z 17014KT 9999 FEW009 SCT020 28/25 Q1008 NOSIG,0,14,0,10000,0,0,0,
2026-04-07 05:30:00,METAR VMMC 070530Z 17014KT 9000 FEW009 SCT020 28/25 Q1008 NOSIG,0,14,0,9000,0,0,0,
2026-04-07 05:00:00,METAR VMMC 070500Z 17015KT 9000 FEW009 SCT020 28/25 Q1009 NOSIG,0,15,0,9000,0,0,0,
2026-04-07 04:30:00,METAR VMMC 070430Z 16013KT 9000 FEW009 SCT020 27/25 Q1009 NOSIG,0,13,0,9000,0,0,0,
2026-04-07 04:00:00,METAR VMMC 070400Z 18012KT 9000 FEW008 SCT015 BKN040 27/25 Q1010 NOSIG,0,12,0,9000,0,0,0,
2026-04-07 03:30:00,METAR VMMC 070330Z 18010KT 9000 FEW008 SCT015 BKN040 27/25 Q1010 NOSIG,0,10,0,9000,0,0,0,
2026-04-07 03:00:00,METAR VMMC 070300Z 18008KT 160V240 9000 FEW008 SCT015 BKN040 27/25 Q1010 NOSIG,0,8,0,9000,0,0,0,
2026-04-07 02:30:00,METAR VMMC 070230Z 19007KT 8000 FEW006 SCT015 BKN040 26/25 Q1010 NOSIG,0,7,0,8000,0,0,0,
2026-04-07 02:00:00,METAR VMMC 070200Z 18009KT 7000 FEW006 SCT015 BKN040 26/25 Q1009 NOSIG,0,9,0,7000,0,0,0,
2026-04-07 01:30:00,METAR VMMC 070130Z 18008KT 7000 FEW004 SCT015 BKN040 26/25 Q1009 NOSIG,0,8,0,7000,0,0,0,
2026-04-07 01:00:00,METAR VMMC 070100Z 19006KT 170V240 6000 FEW004 SCT015 BKN040 26/25 Q1009 NOSIG,0,6,0,6000,0,0,0,
2026-04-07 00:30:00,METAR VMMC 070030Z 19005KT 4800 BR FEW005 SCT015 BKN040 25/25 Q1009 NOSIG,0,5,0,4800,0,0,1,BR
2026-04-07 00:00:00,METAR VMMC 070000Z 18007KT 4800 BR FEW004 SCT015 BKN040 25/25 Q1009 NOSIG,0,7,0,4800,0,0,1,BR
2026-04-06 23:30:00,METAR VMMC 062330Z 18007KT 4800 BR FEW006 SCT012 BKN040 25/24 Q1009 NOSIG,0,7,0,4800,0,0,1,BR
2026-04-06 23:00:00,METAR VMMC 062300Z 18006KT 5000 BR FEW008 SCT016 25/24 Q1008 NOSIG,0,6,0,5000,0,0,1,BR
2026-04-06 22:30:00,METAR VMMC 062230Z 19006KT 8000 -RA FEW008 SCT018 25/24 Q1008 TEMPO 4000 -RA,0,6,0,8000,0,0,0,-RA
2026-04-06 22:00:00,METAR VMMC 062200Z 19006KT 9000 FEW008 SCT015 25/24 Q1008 NOSIG,0,6,0,9000,0,0,0,
2026-04-06 21:30:00,METAR VMMC 062130Z 19006KT 9000 FEW007 SCT015 25/24 Q1007 NOSIG,0,6,0,9000,0,0,0,
2026-04-06 21:00:00,METAR VMMC 062100Z 19006KT 150V210 7000 FEW007 SCT012 25/24 Q1007 NOSIG,0,6,0,7000,0,0,0,
2026-04-06 20:30:00,METAR VMMC 062030Z 19005KT 7000 FEW007 SCT012 25/24 Q1007 NOSIG,0,5,0,7000,0,0,0,
2026-04-06 20:00:00,METAR VMMC 062000Z 17005KT 6000 -RA FEW007 SCT012 25/24 Q1007 NOSIG,0,5,0,6000,0,0,0,-RA
2026-04-06 19:30:00,METAR VMMC 061930Z 16005KT 7000 -RA FEW007 SCT015 25/24 Q1007 NOSIG,0,5,0,7000,0,0,0,-RA
2026-04-06 19:00:00,METAR VMMC 061900Z 16004KT 7000 -RA FEW008 SCT015 25/24 Q1007 NOSIG,0,4,0,7000,0,0,0,-RA
2026-04-06 18:30:00,METAR VMMC 061830Z 18003KT 8000 -RA FEW008 SCT012 25/24 Q1007 NOSIG,0,3,0,8000,0,0,0,-RA
2026-04-06 18:00:00,METAR VMMC 061800Z 19003KT 8000 -SHRA FEW008 SCT012 25/24 Q1007 NOSIG,0,3,0,8000,0,0,0,RA
2026-04-06 17:30:00,METAR VMMC 061730Z 19006KT 8000 -SHRA FEW008 SCT015 25/24 Q1007 NOSIG,0,6,0,8000,0,0,0,RA
2026-04-06 17:00:00,METAR VMMC 061700Z 20005KT 170V230 7000 -SHRA FEW008 SCT012 25/24 Q1007 TEMPO 4000 -SHRA,0,5,0,7000,0,0,0,RA
2026-04-06 16:30:00,METAR VMMC 061630Z 20006KT 160V240 6000 -SHRA FEW008 SCT015 25/25 Q1008 NOSIG,0,6,0,6000,0,0,0,RA
2026-04-06 16:00:00,METAR VMMC 061600Z 20009KT 6000 -SHRA FEW008 SCT015 26/24 Q1008 TEMPO 4500 -SHRA,0,9,0,6000,0,0,0,RA
2026-04-06 15:30:00,METAR VMMC 061530Z 20008KT 8000 -RA FEW009 SCT015 26/24 Q1007 NOSIG,0,8,0,8000,0,0,0,-RA
2026-04-06 15:00:00,METAR VMMC 061500Z 21010KT 180V240 9999 -RA FEW009 SCT015 26/24 Q1008 NOSIG,0,10,0,10000,0,0,0,-RA
2026-04-06 14:30:00,METAR VMMC 061430Z 21009KT 190V250 9999 -RA FEW009 SCT015 26/24 Q1008 NOSIG,0,9,0,10000,0,0,0,-RA
2026-04-06 14:00:00,METAR VMMC 061400Z 21007KT 170V240 9999 FEW009 SCT015 26/24 Q1008 NOSIG,0,7,0,10000,0,0,0,
2026-04-06 13:30:00,METAR VMMC 061330Z 21008KT 180V260 9999 -RA FEW009 SCT015 26/24 Q1007 NOSIG,0,8,0,10000,0,0,0,-RA
2026-04-06 13:00:00,METAR VMMC 061300Z 21009KT 160V240 9999 FEW009 SCT015 26/24 Q1007 NOSIG,0,9,0,10000,0,0,0,
2026-04-06 12:30:00,METAR VMMC 061230Z 19009KT 160V230 9999 FEW009 SCT015 26/24 Q1006 NOSIG,0,9,0,10000,0,0,0,
2026-04-06 12:00:00,METAR VMMC 061200Z 19006KT 9999 FEW009 SCT015 26/24 Q1006 NOSIG,0,6,0,10000,0,0,0,
2026-04-06 11:30:00,METAR VMMC 061130Z 18005KT 9000 FEW008 SCT015 25/24 Q1006 NOSIG,0,5,0,9000,0,0,0,
2026-04-06 11:00:00,METAR VMMC 061100Z 17006KT 8000 FEW007 SCT015 26/24 Q1006 NOSIG,0,6,0,8000,0,0,0,
2026-04-06 10:30:00,METAR VMMC 061030Z 17007KT 7000 FEW007 SCT015 25/24 Q1005 NOSIG,0,7,0,7000,0,0,0,
2026-04-06 10:00:00,METAR VMMC 061000Z 17009KT 7000 FEW007 SCT012 BKN040 25/24 Q1005 TEMPO 4500 BR,0,9,0,7000,0,0,1,BR
2026-04-06 09:30:00,METAR VMMC 060930Z 19010KT 7000 FEW008 SCT012 BKN040 26/24 Q1005 NOSIG,0,10,0,7000,0,0,0,
2026-04-06 09:00:00,METAR VMMC 060900Z 20011KT 8000 FEW008 SCT012 BKN040 26/24 Q1005 NOSIG,0,11,0,8000,0,0,0,
2026-04-06 08:30:00,METAR VMMC 060830Z 20011KT 8000 FEW006 SCT012 BKN040 26/24 Q1005 NOSIG,0,11,0,8000,0,0,0,
2026-04-06 08:00:00,METAR VMMC 060800Z 19011KT 8000 FEW006 SCT012 BKN040 26/25 Q1005 NOSIG,0,11,0,8000,0,0,0,
2026-04-06 07:30:00,METAR VMMC 060730Z 19012KT 8000 FEW006 SCT012 BKN040 26/25 Q1005 NOSIG,0,12,0,8000,0,0,0,
2026-04-06 07:00:00,METAR VMMC 060700Z 19011KT 8000 FEW006 SCT012 BKN040 26/24 Q1006 NOSIG,0,11,0,8000,0,0,0,
2026-04-06 06:30:00,METAR VMMC 060630Z 19011KT 7000 FEW006 SCT012 BKN040 26/24 Q1006 NOSIG,0,11,0,7000,0,0,0,
2026-04-06 06:00:00,METAR VMMC 060600Z 19010KT 8000 FEW008 SCT015 26/24 Q1006 NOSIG,0,10,0,8000,0,0,0,
2026-04-06 05:30:00,METAR VMMC 060530Z 19009KT 170V240 9000 FEW008 SCT015 26/24 Q1006 NOSIG,0,9,0,9000,0,0,0,
2026-04-06 05:00:00,METAR VMMC 060500Z 18009KT 150V210 8000 FEW008 SCT015 26/25 Q1007 NOSIG,0,9,0,8000,0,0,0,
2026-04-06 04:30:00,METAR VMMC 060430Z 19008KT 9000 FEW008 SCT015 BKN035 26/24 Q1007 NOSIG,0,8,0,9000,0,0,0,
2026-04-06 04:00:00,METAR VMMC 060400Z 19009KT 160V220 9000 FEW006 SCT012 BKN035 26/24 Q1008 NOSIG,0,9,0,9000,0,0,0,
2026-04-06 03:30:00,METAR VMMC 060330Z 19006KT 170V230 9000 FEW006 SCT012 BKN035 25/24 Q1008 NOSIG,0,6,0,9000,0,0,0,
2026-04-06 03:00:00,METAR VMMC 060300Z 19007KT 160V220 8000 FEW006 SCT012 BKN030 26/24 Q1008 NOSIG,0,7,0,8000,0,0,0,
2026-04-06 02:30:00,METAR VMMC 060230Z 20011KT 8000 FEW006 SCT012 25/24 Q1008 NOSIG,0,11,0,8000,0,0,0,
2026-04-06 02:00:00,METAR VMMC 060200Z 19009KT 8000 FEW005 SCT012 25/24 Q1008 NOSIG,0,9,0,8000,0,0,0,
2026-04-06 01:30:00,METAR VMMC 060130Z 19010KT 7000 -SHRA FEW005 SCT012 25/24 Q1008 NOSIG,0,10,0,7000,0,0,0,RA
2026-04-06 01:00:00,METAR VMMC 060100Z 18012KT 7000 FEW005 SCT012 25/24 Q1008 NOSIG,0,12,0,7000,0,0,0,
2026-04-06 00:30:00,METAR VMMC 060030Z 18010KT 7000 -SHRA FEW005 SCT012 25/24 Q1008 TEMPO 4000 -SHRA BR,0,10,0,7000,0,0,1,"BR,RA"
2026-04-06 00:00:00,METAR VMMC 060000Z 19010KT 7000 FEW005 SCT010 25/24 Q1007 NOSIG,0,10,0,7000,0,0,0,
2026-04-05 23:30:00,METAR VMMC 052330Z 19009KT 7000 FEW004 SCT010 25/24 Q1007 NOSIG,0,9,0,7000,0,0,0,
2026-04-05 23:00:00,METAR VMMC 052300Z 19010KT 6000 FEW004 SCT010 25/24 Q1007 TEMPO 4000 BR,0,10,0,6000,0,0,1,BR
2026-04-05 22:30:00,METAR VMMC 052230Z 19009KT 6000 FEW008 SCT012 25/24 Q1007 TEMPO 4000 BR,0,9,0,6000,0,0,1,BR
2026-04-05 22:00:00,METAR VMMC 052200Z 20008KT 7000 FEW008 SCT015 25/24 Q1006 NOSIG,0,8,0,7000,0,0,0,
2026-04-05 21:30:00,METAR VMMC 052130Z 19008KT 6000 FEW008 SCT018 25/24 Q1006 NOSIG,0,8,0,6000,0,0,0,
2026-04-05 21:00:00,METAR VMMC 052100Z 20008KT 7000 FEW008 SCT018 25/24 Q1006 NOSIG,0,8,0,7000,0,0,0,
2026-04-05 20:30:00,METAR VMMC 052030Z 21008KT 7000 FEW008 SCT018 25/24 Q1006 NOSIG,0,8,0,7000,0,0,0,
2026-04-05 20:00:00,METAR VMMC 052000Z 20008KT 7000 FEW008 SCT018 25/24 Q1006 NOSIG,0,8,0,7000,0,0,0,
2026-04-05 19:30:00,METAR VMMC 051930Z 20008KT 7000 FEW008 SCT018 25/24 Q1006 NOSIG,0,8,0,7000,0,0,0,
2026-04-05 19:00:00,METAR VMMC 051900Z 21006KT 8000 FEW008 SCT018 25/24 Q1007 NOSIG,0,6,0,8000,0,0,0,
2026-04-05 18:30:00,METAR VMMC 051830Z 20008KT 170V230 8000 FEW008 SCT018 25/24 Q1007 NOSIG,0,8,0,8000,0,0,0,
2026-04-05 18:00:00,METAR VMMC 051800Z 18009KT 7000 FEW008 SCT018 25/24 Q1007 NOSIG,0,9,0,7000,0,0,0,
2026-04-05 17:30:00,METAR VMMC 051730Z 19010KT 8000 FEW008 SCT018 25/24 Q1007 NOSIG,0,10,0,8000,0,0,0,
2026-04-05 17:00:00,METAR VMMC 051700Z 18010KT 8000 FEW008 SCT018 25/24 Q1007 NOSIG,0,10,0,8000,0,0,0,
2026-04-05 16:30:00,METAR VMMC 051630Z 19010KT 8000 FEW008 SCT018 25/24 Q1007 NOSIG,0,10,0,8000,0,0,0,
2026-04-05 16:00:00,METAR VMMC 051600Z 18012KT 9000 FEW008 SCT018 25/24 Q1007 NOSIG,0,12,0,9000,0,0,0,
2026-04-05 15:30:00,METAR VMMC 051530Z 18013KT 9999 FEW008 SCT018 25/24 Q1007 NOSIG,0,13,0,10000,0,0,0,
2026-04-05 15:00:00,METAR VMMC 051500Z 17015KT 9999 FEW008 SCT018 25/24 Q1007 NOSIG,0,15,0,10000,0,0,0,
2026-04-05 13:00:00,METAR VMMC 051300Z 19004KT 160V230 9999 FEW008 SCT015 BKN040 25/23 Q1007 NOSIG,0,4,0,10000,0,0,0,
2026-04-05 12:30:00,METAR VMMC 051230Z 19006KT 9999 FEW006 SCT015 BKN040 24/23 Q1007 NOSIG,0,6,0,10000,0,0,0,
2026-04-05 12:00:00,METAR VMMC 051200Z 21003KT 160V240 9999 FEW006 SCT012 BKN040 24/23 Q1006 NOSIG,0,3,0,10000,0,0,0,
2026-04-05 11:30:00,METAR VMMC 051130Z 17007KT 140V200 9999 FEW004 SCT008 BKN030 24/23 Q1006 NOSIG,0,7,0,10000,0,0,0,
2026-04-05 11:00:00,METAR VMMC 051100Z 13005KT 100V160 8000 FEW004 SCT008 BKN030 24/23 Q1006 NOSIG,0,5,0,8000,0,0,0,
2026-04-05 10:30:00,METAR VMMC 051030Z 14004KT 110V180 8000 FEW004 SCT010 BKN040 24/23 Q1006 NOSIG,0,4,0,8000,0,0,0,
2026-04-05 10:00:00,METAR VMMC 051000Z 16004KT 060V200 8000 FEW006 SCT018 24/22 Q1005 NOSIG,0,4,0,8000,0,0,0,
2026-04-05 09:30:00,METAR VMMC 050930Z 17010KT 7000 FEW006 SCT012 BKN030 23/22 Q1006 NOSIG,0,10,0,7000,0,0,0,
2026-04-05 09:14:00,SPECI VMMC 050914Z 17010KT 6000 FEW006 SCT012 BKN030 23/22 Q1005 NOSIG,0,10,0,6000,0,0,0,
2026-04-05 09:00:00,METAR VMMC 050900Z 19012KT 3200 -SHRA BR FEW006 SCT010 BKN035 23/22 Q1006 NOSIG,0,12,0,3200,0,0,1,"BR,RA"
2026-04-05 08:30:00,METAR VMMC 050830Z 19013KT 4800 -SHRA FEW006 SCT012 23/22 Q1006 NOSIG,0,13,0,4800,0,0,0,RA
2026-04-05 08:18:00,SPECI VMMC 050818Z 19014KT 3800 -SHRA FEW006 SCT012 23/22 Q1006 NOSIG,0,14,0,3800,0,0,0,RA
2026-04-05 08:10:00,SPECI VMMC 050810Z 19013KT 2300 -SHRA FEW004 FEW010CB SCT020 23/22 Q1006 RERA NOSIG,0,13,0,2300,0,0,0,RA
2026-04-05 08:03:00,SPECI VMMC 050803Z 19012KT 1400 R16/P2000N +SHRA FEW005 FEW010CB SCT020 23/22 Q1006 NOSIG,0,12,0,1400,0,0,0,RA
2026-04-05 08:00:00,METAR VMMC 050800Z 18014KT 2800 SHRA FEW005 FEW010CB SCT020 23/22 Q1006 TEMPO VRB15G25KT 2500 TSRA FEW008 SCT012CB,0,14,0,2800,1,0,0,"RA,SH,TS"
2026-04-05 07:30:00,METAR VMMC 050730Z 18011KT 8000 -SHRA FEW008 FEW015CB SCT025 24/22 Q1006 TEMPO VRB15G25KT 2500 TSRA FEW008 SCT012CB,0,11,0,8000,1,0,0,"RA,TS"
2026-04-05 07:00:00,METAR VMMC 050700Z 18010KT 9999 -SHRA FEW008 SCT020 24/22 Q1006 TEMPO 2500 +SHRA,0,10,0,10000,0,0,0,RA
2026-04-05 06:30:00,METAR VMMC 050630Z 17011KT 9999 -SHRA FEW008 SCT025 24/22 Q1006 TEMPO 4000 SHRA,0,11,0,10000,0,0,0,"RA,SH"
2026-04-05 06:00:00,METAR VMMC 050600Z 14014KT 9000 FEW004 SCT015 24/23 Q1006 TEMPO 4000 SHRA,0,14,0,9000,0,0,0,"RA,SH"
2026-04-05 05:30:00,METAR VMMC 050530Z 13014KT 9999 FEW010 SCT035 24/22 Q1007 NOSIG,0,14,0,10000,0,0,0,
2026-04-05 05:00:00,METAR VMMC 050500Z 10010KT 080V140 9999 FEW008 SCT035 25/23 Q1007 NOSIG,0,10,0,10000,0,0,0,
2026-04-05 04:30:00,METAR VMMC 050430Z 10013KT 9999 FEW010 SCT035 25/23 Q1007 NOSIG,0,13,0,10000,0,0,0,
2026-04-05 04:00:00,METAR VMMC 050400Z 09012KT 050V120 8000 FEW010 SCT018 25/23 Q1007 NOSIG,0,12,0,8000,0,0,0,
2026-04-05 03:30:00,METAR VMMC 050330Z 10014KT 7000 FEW008 SCT018 24/23 Q1007 NOSIG,0,14,0,7000,0,0,0,
2026-04-05 03:00:00,METAR VMMC 050300Z 10013KT 060V120 4800 -SHRA FEW008 FEW015CB SCT020 24/23 Q1008 NOSIG,0,13,0,4800,0,0,0,RA
2026-04-05 02:30:00,METAR VMMC 050230Z 09012KT 020V140 5000 -SHRA FEW008 FEW015CB SCT020 24/23 Q1008 NOSIG,0,12,0,5000,0,0,0,RA
2026-04-05 02:00:00,METAR VMMC 050200Z 08011KT 5000 -SHRA FEW008 FEW015CB SCT020 24/23 Q1008 TEMPO VRB15G25KT 2500 TSRA,0,11,0,5000,1,0,0,"RA,TS"
2026-04-05 01:30:00,METAR VMMC 050130Z 09013KT 340V120 9000 FEW010 SCT018 24/22 Q1008 NOSIG,0,13,0,9000,0,0,0,
2026-04-05 01:00:00,METAR VMMC 050100Z 09014KT 070V130 8000 FEW010 SCT018 24/22 Q1008 NOSIG,0,14,0,8000,0,0,0,
2026-04-05 00:30:00,METAR VMMC 050030Z 08009KT 040V120 8000 FEW010 SCT018 24/22 Q1008 TEMPO 4000 SHRA,0,9,0,8000,0,0,0,"RA,SH"
2026-04-05 00:00:00,METAR VMMC 050000Z 07006KT 330V110 6000 FEW010 SCT018 24/22 Q1008 NOSIG,0,6,0,6000,0,0,0,
2026-04-04 23:30:00,METAR VMMC 042330Z 04005KT 350V070 5000 -SHRA FEW010 SCT018 24/22 Q1007 NOSIG,0,5,0,5000,0,0,0,RA
2026-04-04 23:00:00,METAR VMMC 042300Z 08007KT 040V110 6000 FEW010 SCT018 24/22 Q1007 TEMPO 4000 SHRA,0,7,0,6000,0,0,0,"RA,SH"
2026-04-04 22:30:00,METAR VMMC 042230Z 09005KT 050V140 6000 FEW010 SCT018 24/22 Q1007 TEMPO 4000 SHRA,0,5,0,6000,0,0,0,"RA,SH"
2026-04-04 22:00:00,METAR VMMC 042200Z 08006KT 050V140 7000 FEW008 SCT018 24/22 Q1007 NOSIG,0,6,0,7000,0,0,0,
2026-04-04 21:30:00,METAR VMMC 042130Z 06004KT 030V090 7000 FEW008 SCT018 24/22 Q1007 TEMPO 4500 -SHRA,0,4,0,7000,0,0,0,RA
2026-04-04 21:00:00,METAR VMMC 042100Z 03004KT 350V060 7000 FEW008 SCT018 23/22 Q1007 NOSIG,0,4,0,7000,0,0,0,
2026-04-04 20:30:00,METAR VMMC 042030Z 06005KT 8000 FEW008 SCT018 23/22 Q1006 NOSIG,0,5,0,8000,0,0,0,
2026-04-04 20:00:00,METAR VMMC 042000Z 02003KT 350V050 8000 FEW008 SCT022 23/21 Q1007 NOSIG,0,3,0,8000,0,0,0,
2026-04-04 19:30:00,METAR VMMC 041930Z 02004KT 7000 FEW008 SCT022 23/21 Q1007 NOSIG,0,4,0,7000,0,0,0,
2026-04-04 19:00:00,METAR VMMC 041900Z 05005KT 360V070 7000 FEW010 SCT022 23/21 Q1007 NOSIG,0,5,0,7000,0,0,0,
2026-04-04 18:30:00,METAR VMMC 041830Z 03004KT 340V070 7000 FEW010 SCT022 23/21 Q1007 NOSIG,0,4,0,7000,0,0,0,
2026-04-04 18:00:00,METAR VMMC 041800Z 04005KT 340V090 7000 FEW010 SCT022 23/22 Q1007 NOSIG,0,5,0,7000,0,0,0,
2026-04-04 17:30:00,METAR VMMC 041730Z 03004KT 350V070 7000 FEW010 SCT022 23/22 Q1007 NOSIG,0,4,0,7000,0,0,0,
2026-04-04 17:00:00,METAR VMMC 041700Z 02004KT 350V050 8000 FEW012 SCT025 23/22 Q1008 NOSIG,0,4,0,8000,0,0,0,
2026-04-04 16:30:00,METAR VMMC 041630Z 02004KT 9000 FEW015 SCT025 23/21 Q1008 NOSIG,0,4,0,9000,0,0,0,
2026-04-04 16:00:00,METAR VMMC 041600Z 02005KT 9000 FEW015 SCT025 23/21 Q1008 NOSIG,0,5,0,9000,0,0,0,
2026-04-04 15:30:00,METAR VMMC 041530Z 01006KT 340V040 9000 FEW012 SCT025 23/21 Q1008 NOSIG,0,6,0,9000,0,0,0,
2026-04-04 15:00:00,METAR VMMC 041500Z 02006KT 340V040 9000 FEW012 SCT025 23/21 Q1008 NOSIG,0,6,0,9000,0,0,0,
2026-04-04 14:30:00,METAR VMMC 041430Z 02005KT 350V060 9999 FEW016 SCT025 23/21 Q1008 NOSIG,0,5,0,10000,0,0,0,
2026-04-04 14:00:00,METAR VMMC 041400Z 01005KT 9999 FEW016 SCT045 23/21 Q1008 NOSIG,0,5,0,10000,0,0,0,
2026-04-04 13:30:00,METAR VMMC 041330Z 01004KT 9999 FEW016 SCT045 23/21 Q1008 NOSIG,0,4,0,10000,0,0,0,
2026-04-04 13:00:00,METAR VMMC 041300Z 01003KT 340V040 9999 FEW016 SCT045 23/21 Q1007 NOSIG,0,3,0,10000,0,0,0,
2026-04-04 12:30:00,METAR VMMC 041230Z VRB02KT 9999 FEW016 SCT045 23/21 Q1007 NOSIG,0,2,0,10000,0,0,0,
2026-04-04 12:00:00,METAR VMMC 041200Z 36003KT 9999 FEW016 SCT040 23/20 Q1006 NOSIG,0,3,0,10000,0,0,0,
2026-04-04 11:30:00,METAR VMMC 041130Z 33004KT 9999 FEW020 SCT035 23/20 Q1006 NOSIG,0,4,0,10000,0,0,0,
2026-04-04 11:00:00,METAR VMMC 041100Z 34004KT 9999 FEW020 SCT035 23/20 Q1006 NOSIG,0,4,0,10000,0,0,0,
2026-04-04 10:30:00,METAR VMMC 041030Z 33004KT 9999 FEW018 SCT030 23/21 Q1006 NOSIG,0,4,0,10000,0,0,0,
2026-04-04 10:00:00,METAR VMMC 041000Z 34008KT 8000 -SHRA FEW015 SCT030 22/21 Q1006 NOSIG,0,8,0,8000,0,0,0,RA
2026-04-04 09:30:00,METAR VMMC 040930Z 35008KT 8000 -SHRA FEW010 SCT030 22/21 Q1006 NOSIG,0,8,0,8000,0,0,0,RA
2026-04-04 09:00:00,METAR VMMC 040900Z 01010KT 6000 -SHRA FEW010 SCT030 23/21 Q1006 NOSIG,0,10,0,6000,0,0,0,RA
2026-04-04 08:30:00,METAR VMMC 040830Z 01012KT 4500 -SHRA BR FEW010 SCT030 23/21 Q1005 TEMPO 2500 SHRA,0,12,0,4500,0,0,1,"BR,RA,SH"
2026-04-04 08:00:00,METAR VMMC 040800Z 03009KT 350V050 6000 -SHRA FEW010 SCT030 23/21 Q1005 NOSIG,0,9,0,6000,0,0,0,RA
2026-04-04 07:30:00,METAR VMMC 040730Z 04009KT 350V060 6000 -SHRA FEW010 SCT030 23/21 Q1005 TEMPO 4000 SHRA,0,9,0,6000,0,0,0,"RA,SH"
2026-04-04 07:00:00,METAR VMMC 040700Z 02008KT 330V060 6000 -SHRA FEW010 SCT030 23/22 Q1005 RERA NOSIG,0,8,0,6000,0,0,0,RA
2026-04-04 06:30:00,METAR VMMC 040630Z 03008KT 2000 SHRA FEW010 SCT030 23/22 Q1005 NOSIG,0,8,0,2000,0,0,0,"RA,SH"
2026-04-04 06:19:00,SPECI VMMC 040619Z 03008KT 2800 -SHRA FEW015 SCT040 23/22 Q1005 TEMPO 1400 +SHRA,0,8,0,2800,0,0,0,RA
2026-04-04 06:00:00,METAR VMMC 040600Z 02008KT 6000 -SHRA FEW015 SCT040 24/22 Q1006 TEMPO 2500 SHRA,0,8,0,6000,0,0,0,"RA,SH"
2026-04-04 05:30:00,METAR VMMC 040530Z 36007KT 9000 -SHRA FEW015 SCT040 25/22 Q1006 NOSIG,0,7,0,9000,0,0,0,RA
2026-04-04 05:00:00,METAR VMMC 040500Z 36003KT 300V100 9000 -SHRA FEW015 SCT040 24/22 Q1007 NOSIG,0,3,0,9000,0,0,0,RA
2026-04-04 04:30:00,METAR VMMC 040430Z VRB02KT 7000 -SHRA FEW008 FEW015CB SCT040 24/23 Q1007 NOSIG,0,2,0,7000,0,0,0,RA
2026-04-04 04:09:00,SPECI VMMC 040409Z 33004KT 7000 -SHRA FEW008 FEW015CB SCT030 23/22 Q1007 RETS NOSIG,0,4,0,7000,1,0,0,"RA,TS"
2026-04-04 04:00:00,METAR VMMC 040400Z 33006KT 4500 -TSRA FEW006 FEW015CB BKN030 23/22 Q1008 RERA NOSIG,0,6,0,4500,1,0,0,RA
2026-04-04 03:30:00,METAR VMMC 040330Z 27007KT 240V310 2200 TSRA FEW004 SCT015CB BKN030 24/22 Q1008 TEMPO 1400 TSRA,0,7,0,2200,1,0,0,"RA,TS"
2026-04-04 03:00:00,METAR VMMC 040300Z 24009KT 210V270 3200 -TSRA FEW004 SCT015CB BKN030 23/22 Q1008 RERA NOSIG,0,9,0,3200,1,0,0,RA
2026-04-04 02:43:00,SPECI VMMC 040243Z 20009KT 170V230 1000 R34/P2000N +TSRA FEW004 SCT015CB BKN035 24/23 Q1008 NOSIG,0,9,0,1000,1,0,0,RA
2026-04-04 02:39:00,SPECI VMMC 040239Z 18006KT 150V220 4000 TSRA FEW004 SCT015CB BKN035 25/24 Q1008 NOSIG,0,6,0,4000,1,0,0,"RA,TS"
2026-04-04 02:30:00,METAR VMMC 040230Z 18006KT 4800 -SHRA FEW006 SCT015CB BKN035 25/24 Q1008 TEMPO VRB18G28KT 2000 +TSRA,0,6,0,4800,1,0,0,RA
2026-04-04 02:00:00,METAR VMMC 040200Z 20004KT 170V250 8000 FEW015 SCT030 25/24 Q1008 TEMPO VRB18G28KT 2000 TSRA FEW008 SCT015CB,0,4,0,8000,1,0,0,"RA,TS"
2026-04-04 01:30:00,METAR VMMC 040130Z 19007KT 9000 FEW015 SCT030 25/24 Q1008 TEMPO 4000 SHRA,0,7,0,9000,0,0,0,"RA,SH"
2026-04-04 01:00:00,METAR VMMC 040100Z 20004KT 180V240 9999 FEW015 SCT040 26/24 Q1008 NOSIG,0,4,0,10000,0,0,0,
2026-04-04 00:30:00,METAR VMMC 040030Z 20004KT 160V220 9999 FEW015 SCT040 26/24 Q1008 NOSIG,0,4,0,10000,0,0,0,
2026-04-04 00:00:00,METAR VMMC 040000Z 20004KT 8000 FEW015 25/24 Q1007 NOSIG,0,4,0,8000,0,0,0,
2026-04-03 23:30:00,METAR VMMC 032330Z 20003KT 9000 FEW015 25/23 Q1007 NOSIG,0,3,0,9000,0,0,0,
2026-04-03 23:00:00,METAR VMMC 032300Z 17003KT 160V220 7000 FEW015 25/23 Q1006 NOSIG,0,3,0,7000,0,0,0,
2026-04-03 22:30:00,METAR VMMC 032230Z 17005KT 6000 FEW015 25/23 Q1006 TEMPO 4000 BR,0,5,0,6000,0,0,1,BR
2026-04-03 22:00:00,METAR VMMC 032200Z 17003KT 9999 FEW015 24/23 Q1006 NOSIG,0,3,0,10000,0,0,0,
2026-04-03 21:30:00,METAR VMMC 032130Z 20003KT 160V220 9999 FEW015 25/23 Q1006 NOSIG,0,3,0,10000,0,0,0,
2026-04-03 21:00:00,METAR VMMC 032100Z 18004KT 9999 FEW015 25/23 Q1006 NOSIG,0,4,0,10000,0,0,0,
2026-04-03 20:30:00,METAR VMMC 032030Z 16004KT 140V240 9999 FEW015 25/23 Q1005 NOSIG,0,4,0,10000,0,0,0,
2026-04-03 20:00:00,METAR VMMC 032000Z 22004KT 190V280 9999 FEW012 26/23 Q1006 NOSIG,0,4,0,10000,0,0,0,
2026-04-03 19:30:00,METAR VMMC 031930Z 23008KT 9999 FEW012 26/23 Q1006 NOSIG,0,8,0,10000,0,0,0,
2026-04-03 19:00:00,METAR VMMC 031900Z 23007KT 210V300 9999 FEW012 26/23 Q1006 NOSIG,0,7,0,10000,0,0,0,
2026-04-03 18:30:00,METAR VMMC 031830Z 23007KT 9999 FEW012 26/23 Q1006 NOSIG,0,7,0,10000,0,0,0,
2026-04-03 18:00:00,METAR VMMC 031800Z 23008KT 9999 FEW012 26/23 Q1006 NOSIG,0,8,0,10000,0,0,0,
2026-04-03 17:30:00,METAR VMMC 031730Z 23009KT 9999 FEW012 26/23 Q1007 NOSIG,0,9,0,10000,0,0,0,
2026-04-03 17:00:00,METAR VMMC 031700Z 23011KT 9999 FEW012 26/23 Q1007 NOSIG,0,11,0,10000,0,0,0,
2026-04-03 16:30:00,METAR VMMC 031630Z 22012KT 9999 FEW012 26/23 Q1007 NOSIG,0,12,0,10000,0,0,0,
2026-04-03 16:00:00,METAR VMMC 031600Z 22011KT 9999 FEW012 26/23 Q1008 NOSIG,0,11,0,10000,0,0,0,
2026-04-03 15:30:00,METAR VMMC 031530Z 22012KT 9999 FEW015 26/23 Q1008 NOSIG,0,12,0,10000,0,0,0,
2026-04-03 15:00:00,METAR VMMC 031500Z 23013KT 9999 FEW015 26/23 Q1008 NOSIG,0,13,0,10000,0,0,0,
2026-04-03 14:30:00,METAR VMMC 031430Z 21013KT 9999 FEW015 26/23 Q1008 NOSIG,0,13,0,10000,0,0,0,
2026-04-03 14:00:00,METAR VMMC 031400Z 22011KT 9999 FEW012 26/23 Q1008 NOSIG,0,11,0,10000,0,0,0,
2026-04-03 13:30:00,METAR VMMC 031330Z 22011KT 200V260 9999 FEW012 26/23 Q1008 NOSIG,0,11,0,10000,0,0,0,
2026-04-03 13:00:00,METAR VMMC 031300Z 21010KT 190V260 9999 FEW012 SCT025 26/23 Q1007 NOSIG,0,10,0,10000,0,0,0,
2026-04-03 12:30:00,METAR VMMC 031230Z 21007KT 9999 FEW010 SCT025 26/23 Q1007 NOSIG,0,7,0,10000,0,0,0,
2026-04-03 12:00:00,METAR VMMC 031200Z 22011KT 9000 FEW010 SCT025 26/24 Q1007 NOSIG,0,11,0,9000,0,0,0,
2026-04-03 11:30:00,METAR VMMC 031130Z 21011KT 9000 FEW010 SCT025 26/24 Q1006 NOSIG,0,11,0,9000,0,0,0,
2026-04-03 11:00:00,METAR VMMC 031100Z 20013KT 8000 FEW010 SCT025 26/24 Q1006 NOSIG,0,13,0,8000,0,0,0,
2026-04-03 10:30:00,METAR VMMC 031030Z 22011KT 210V280 9999 FEW010 SCT025 26/23 Q1006 NOSIG,0,11,0,10000,0,0,0,
2026-04-03 10:00:00,METAR VMMC 031000Z 22010KT 9999 FEW010 26/23 Q1006 NOSIG,0,10,0,10000,0,0,0,
2026-04-03 09:30:00,METAR VMMC 030930Z 22011KT 9999 FEW010 26/23 Q1006 NOSIG,0,11,0,10000,0,0,0,
2026-04-03 09:00:00,METAR VMMC 030900Z 21009KT 9999 FEW010 SCT025 26/23 Q1006 NOSIG,0,9,0,10000,0,0,0,
2026-04-03 08:30:00,METAR VMMC 030830Z 21009KT 9000 FEW010 SCT025 26/24 Q1005 NOSIG,0,9,0,9000,0,0,0,
2026-04-03 08:00:00,METAR VMMC 030800Z 21007KT 170V230 9000 FEW008 SCT018 BKN045 26/24 Q1006 NOSIG,0,7,0,9000,0,0,0,
2026-04-03 07:30:00,METAR VMMC 030730Z 20008KT 9000 FEW008 SCT015 BKN040 26/24 Q1006 NOSIG,0,8,0,9000,0,0,0,
2026-04-03 07:00:00,METAR VMMC 030700Z 22008KT 180V260 9000 FEW008 SCT015 BKN040 26/24 Q1006 NOSIG,0,8,0,9000,0,0,0,
2026-04-03 06:30:00,METAR VMMC 030630Z 20013KT 9999 FEW008 SCT015 BKN040 26/24 Q1006 NOSIG,0,13,0,10000,0,0,0,
2026-04-03 06:00:00,METAR VMMC 030600Z 21013KT 9000 FEW006 SCT012 BKN040 26/24 Q1007 NOSIG,0,13,0,9000,0,0,0,
2026-04-03 05:30:00,METAR VMMC 030530Z 20016KT 9000 FEW008 SCT015 BKN040 26/24 Q1007 NOSIG,0,16,0,9000,0,0,0,
2026-04-03 05:00:00,METAR VMMC 030500Z 21013KT 8000 FEW008 SCT015 BKN040 27/24 Q1008 NOSIG,0,13,0,8000,0,0,0,
2026-04-03 04:30:00,METAR VMMC 030430Z 19013KT 170V230 8000 FEW008 SCT018 BKN040 27/24 Q1008 NOSIG,0,13,0,8000,0,0,0,
2026-04-03 04:00:00,METAR VMMC 030400Z 20014KT 7000 FEW010 SCT020 27/24 Q1009 NOSIG,0,14,0,7000,0,0,0,
2026-04-03 03:30:00,METAR VMMC 030330Z 19015KT 7000 FEW008 SCT018 27/24 Q1009 NOSIG,0,15,0,7000,0,0,0,
2026-04-03 03:00:00,METAR VMMC 030300Z 19014KT 6000 FEW008 SCT018 27/24 Q1009 NOSIG,0,14,0,6000,0,0,0,
2026-04-03 02:30:00,METAR VMMC 030230Z 19013KT 6000 FEW008 SCT018 27/24 Q1010 TEMPO 4500 BR,0,13,0,6000,0,0,1,BR
2026-04-03 02:00:00,METAR VMMC 030200Z 19013KT 6000 FEW008 SCT018 26/24 Q1010 NOSIG,0,13,0,6000,0,0,0,
2026-04-03 01:30:00,METAR VMMC 030130Z 19013KT 6000 FEW008 SCT018 26/24 Q1010 NOSIG,0,13,0,6000,0,0,0,
2026-04-03 01:00:00,METAR VMMC 030100Z 18014KT 7000 FEW008 SCT018 26/23 Q1010 NOSIG,0,14,0,7000,0,0,0,
2026-04-03 00:30:00,METAR VMMC 030030Z 17016KT 7000 FEW008 SCT018 25/23 Q1010 TEMPO 4500 BR,0,16,0,7000,0,0,1,BR
2026-04-03 00:00:00,METAR VMMC 030000Z 18015KT 6000 FEW008 SCT016 25/23 Q1009 NOSIG,0,15,0,6000,0,0,0,
2026-04-02 23:30:00,METAR VMMC 022330Z 17013KT 6000 FEW008 SCT016 25/23 Q1009 NOSIG,0,13,0,6000,0,0,0,
2026-04-02 23:00:00,METAR VMMC 022300Z 17013KT 5000 BR FEW008 SCT016 25/23 Q1009 NOSIG,0,13,0,5000,0,0,1,BR
2026-04-02 22:30:00,METAR VMMC 022230Z 17013KT 5000 BR FEW008 SCT016 24/23 Q1009 TEMPO 4500 BR,0,13,0,5000,0,0,1,BR
2026-04-02 22:00:00,METAR VMMC 022200Z 17013KT 7000 FEW008 SCT020 25/23 Q1009 NOSIG,0,13,0,7000,0,0,0,
2026-04-02 21:30:00,METAR VMMC 022130Z 17015KT 8000 FEW010 SCT020 25/23 Q1009 NOSIG,0,15,0,8000,0,0,0,
2026-04-02 21:00:00,METAR VMMC 022100Z 17015KT 7000 FEW010 SCT020 24/23 Q1008 NOSIG,0,15,0,7000,0,0,0,
2026-04-02 20:30:00,METAR VMMC 022030Z 17014KT 7000 FEW010 SCT020 25/23 Q1008 NOSIG,0,14,0,7000,0,0,0,
2026-04-02 20:00:00,METAR VMMC 022000Z 16013KT 7000 FEW010 SCT020 24/23 Q1009 NOSIG,0,13,0,7000,0,0,0,
2026-04-02 19:30:00,METAR VMMC 021930Z 16013KT 8000 FEW010 SCT020 25/23 Q1009 NOSIG,0,13,0,8000,0,0,0,
2026-04-02 19:00:00,METAR VMMC 021900Z 16014KT 8000 FEW008 SCT020 25/23 Q1010 NOSIG,0,14,0,8000,0,0,0,
2026-04-02 18:30:00,METAR VMMC 021830Z 15012KT 8000 FEW008 SCT016 25/23 Q1010 NOSIG,0,12,0,8000,0,0,0,
2026-04-02 18:00:00,METAR VMMC 021800Z 15013KT 8000 FEW008 SCT016 24/23 Q1010 NOSIG,0,13,0,8000,0,0,0,
2026-04-02 17:30:00,METAR VMMC 021730Z 14013KT 8000 FEW008 SCT016 25/23 Q1011 NOSIG,0,13,0,8000,0,0,0,
2026-04-02 17:00:00,METAR VMMC 021700Z 14012KT 9000 FEW008 SCT018 24/23 Q1011 NOSIG,0,12,0,9000,0,0,0,
2026-04-02 16:30:00,METAR VMMC 021630Z 14013KT 8000 FEW008 SCT020 24/23 Q1011 NOSIG,0,13,0,8000,0,0,0,
2026-04-02 16:00:00,METAR VMMC 021600Z 14013KT 9000 FEW010 SCT020 24/23 Q1012 NOSIG,0,13,0,9000,0,0,0,
2026-04-02 15:30:00,METAR VMMC 021530Z 15011KT 9999 FEW010 SCT025 24/23 Q1012 NOSIG,0,11,0,10000,0,0,0,
2026-04-02 15:00:00,METAR VMMC 021500Z 14014KT 9999 FEW010 SCT016 24/23 Q1012 NOSIG,0,14,0,10000,0,0,0,
2026-04-02 14:30:00,METAR VMMC 021430Z 14011KT 9999 FEW010 SCT016 24/23 Q1012 NOSIG,0,11,0,10000,0,0,0,
2026-04-02 14:00:00,METAR VMMC 021400Z 13011KT 9999 FEW012 SCT016 24/23 Q1012 NOSIG,0,11,0,10000,0,0,0,
2026-04-02 13:30:00,METAR VMMC 021330Z 13012KT 9999 FEW012 SCT020 24/23 Q1012 NOSIG,0,12,0,10000,0,0,0,
2026-04-02 13:00:00,METAR VMMC 021300Z 14014KT 9999 FEW012 SCT040 24/23 Q1012 NOSIG,0,14,0,10000,0,0,0,
2026-04-02 12:30:00,METAR VMMC 021230Z 13013KT 9999 FEW010 SCT025 24/23 Q1011 NOSIG,0,13,0,10000,0,0,0,
2026-04-02 12:00:00,METAR VMMC 021200Z 13013KT 9999 FEW010 SCT020 24/23 Q1011 NOSIG,0,13,0,10000,0,0,0,
2026-04-02 11:30:00,METAR VMMC 021130Z 13012KT 9999 FEW008 SCT020 24/23 Q1011 NOSIG,0,12,0,10000,0,0,0,
2026-04-02 11:00:00,METAR VMMC 021100Z 14009KT 9000 FEW007 BKN020 24/22 Q1011 NOSIG,0,9,0,9000,0,0,0,
2026-04-02 10:30:00,METAR VMMC 021030Z 13014KT 9000 FEW007 SCT016 24/23 Q1011 NOSIG,0,14,0,9000,0,0,0,
2026-04-02 10:00:00,METAR VMMC 021000Z 13017KT 7000 FEW007 SCT016 24/23 Q1010 TEMPO 4500 BR,0,17,0,7000,0,0,1,BR
2026-04-02 09:30:00,METAR VMMC 020930Z 13015KT 8000 FEW008 SCT016 24/22 Q1010 NOSIG,0,15,0,8000,0,0,0,
2026-04-02 09:00:00,METAR VMMC 020900Z 13014KT 8000 FEW008 SCT016 24/22 Q1010 NOSIG,0,14,0,8000,0,0,0,
2026-04-02 08:30:00,METAR VMMC 020830Z 13015KT 8000 FEW008 SCT016 24/22 Q1010 NOSIG,0,15,0,8000,0,0,0,
2026-04-02 08:00:00,METAR VMMC 020800Z 13016KT 8000 FEW008 SCT016 24/22 Q1010 NOSIG,0,16,0,8000,0,0,0,
2026-04-02 07:30:00,METAR VMMC 020730Z 12015KT 8000 FEW008 SCT016 24/22 Q1010 NOSIG,0,15,0,8000,0,0,0,
2026-04-02 07:00:00,METAR VMMC 020700Z 12015KT 8000 FEW008 SCT016 24/22 Q1011 NOSIG,0,15,0,8000,0,0,0,
2026-04-02 06:30:00,METAR VMMC 020630Z 12015KT 8000 FEW008 SCT016 24/22 Q1011 NOSIG,0,15,0,8000,0,0,0,
2026-04-02 06:00:00,METAR VMMC 020600Z 11014KT 9000 FEW008 SCT016 25/22 Q1012 NOSIG,0,14,0,9000,0,0,0,
2026-04-02 05:30:00,METAR VMMC 020530Z 12015KT 8000 FEW008 SCT016 24/22 Q1013 NOSIG,0,15,0,8000,0,0,0,
2026-04-02 05:00:00,METAR VMMC 020500Z 12015KT 8000 FEW008 SCT016 24/22 Q1013 NOSIG,0,15,0,8000,0,0,0,
2026-04-02 04:30:00,METAR VMMC 020430Z 12013KT 8000 FEW008 SCT016 24/22 Q1014 NOSIG,0,13,0,8000,0,0,0,
2026-04-02 04:00:00,METAR VMMC 020400Z 11014KT 8000 FEW008 SCT016 24/22 Q1014 NOSIG,0,14,0,8000,0,0,0,
2026-04-02 03:30:00,METAR VMMC 020330Z 11016KT 8000 FEW008 SCT016 24/22 Q1014 NOSIG,0,16,0,8000,0,0,0,
2026-04-02 03:00:00,METAR VMMC 020300Z 12015KT 9000 FEW008 SCT016 24/22 Q1015 NOSIG,0,15,0,9000,0,0,0,
2026-04-02 02:30:00,METAR VMMC 020230Z 12015KT 9000 FEW008 SCT016 24/22 Q1014 NOSIG,0,15,0,9000,0,0,0,
2026-04-02 02:00:00,METAR VMMC 020200Z 12015KT 9000 FEW008 SCT018 24/21 Q1014 NOSIG,0,15,0,9000,0,0,0,
2026-04-02 01:30:00,METAR VMMC 020130Z 12016KT 9000 FEW008 SCT020 24/22 Q1014 NOSIG,0,16,0,9000,0,0,0,
2026-04-02 01:00:00,METAR VMMC 020100Z 12016KT 9000 FEW008 SCT018 24/21 Q1014 NOSIG,0,16,0,9000,0,0,0,
2026-04-02 00:30:00,METAR VMMC 020030Z 11015KT 9999 FEW008 SCT018 24/22 Q1014 NOSIG,0,15,0,10000,0,0,0,
2026-04-02 00:00:00,METAR VMMC 020000Z 10015KT 9999 FEW008 SCT018 23/21 Q1014 NOSIG,0,15,0,10000,0,0,0,
2026-04-01 23:30:00,METAR VMMC 012330Z 11016KT 9000 FEW008 SCT020 23/22 Q1013 NOSIG,0,16,0,9000,0,0,0,
2026-04-01 23:00:00,METAR VMMC 012300Z 10013KT 9999 FEW008 SCT020 23/22 Q1013 NOSIG,0,13,0,10000,0,0,0,
2026-04-01 22:30:00,METAR VMMC 012230Z 11015KT 9999 FEW008 SCT018 24/22 Q1013 NOSIG,0,15,0,10000,0,0,0,
2026-04-01 22:00:00,METAR VMMC 012200Z 11013KT 9999 FEW008 SCT018 24/22 Q1013 NOSIG,0,13,0,10000,0,0,0,
2026-04-01 21:30:00,METAR VMMC 012130Z 11013KT 9999 FEW009 SCT018 24/22 Q1012 NOSIG,0,13,0,10000,0,0,0,
2026-04-01 21:00:00,METAR VMMC 012100Z 10013KT 9999 FEW010 SCT020 24/22 Q1012 NOSIG,0,13,0,10000,0,0,0,
2026-04-01 20:30:00,METAR VMMC 012030Z 11010KT 070V140 9999 FEW010 SCT020 24/22 Q1012 NOSIG,0,10,0,10000,0,0,0,
2026-04-01 20:00:00,METAR VMMC 012000Z 10008KT 080V140 9999 FEW012 SCT025 24/21 Q1012 NOSIG,0,8,0,10000,0,0,0,
2026-04-01 19:30:00,METAR VMMC 011930Z 10007KT 080V140 9999 FEW012 SCT025 24/21 Q1012 NOSIG,0,7,0,10000,0,0,0,
2026-04-01 19:00:00,METAR VMMC 011900Z 11007KT 9999 FEW012 SCT030 24/21 Q1012 NOSIG,0,7,0,10000,0,0,0,
2026-04-01 18:30:00,METAR VMMC 011830Z 10007KT 080V140 9999 FEW010 SCT030 24/21 Q1012 NOSIG,0,7,0,10000,0,0,0,
2026-04-01 18:00:00,METAR VMMC 011800Z 12008KT 9999 FEW025 SCT045 24/21 Q1013 NOSIG,0,8,0,10000,0,0,0,
2026-04-01 17:30:00,METAR VMMC 011730Z 14008KT 9999 FEW025 SCT045 24/21 Q1013 NOSIG,0,8,0,10000,0,0,0,
2026-04-01 17:00:00,METAR VMMC 011700Z 14007KT 9999 FEW030 SCT045 24/21 Q1013 NOSIG,0,7,0,10000,0,0,0,
2026-04-01 16:30:00,METAR VMMC 011630Z 14007KT 9999 FEW025 SCT035 24/21 Q1013 NOSIG,0,7,0,10000,0,0,0,
2026-04-01 16:00:00,METAR VMMC 011600Z 13006KT 9999 FEW025 SCT035 24/21 Q1014 NOSIG,0,6,0,10000,0,0,0,
2026-04-01 15:30:00,METAR VMMC 011530Z 14006KT 9999 FEW025 SCT035 24/21 Q1013 NOSIG,0,6,0,10000,0,0,0,
2026-04-01 15:00:00,METAR VMMC 011500Z 12007KT 9999 FEW025 SCT035 24/21 Q1013 NOSIG,0,7,0,10000,0,0,0,
2026-04-01 14:00:00,METAR VMMC 011400Z 10003KT 9999 FEW025 SCT035 25/20 Q1013 NOSIG,0,3,0,10000,0,0,0,
2026-04-01 13:30:00,METAR VMMC 011330Z 15004KT 9999 FEW025 SCT035 25/20 Q1013 NOSIG,0,4,0,10000,0,0,0,
2026-04-01 13:00:00,METAR VMMC 011300Z 13005KT 110V170 9999 FEW025 SCT035 24/20 Q1012 NOSIG,0,5,0,10000,0,0,0,
2026-04-01 12:30:00,METAR VMMC 011230Z VRB02KT 9999 FEW025 SCT035 25/20 Q1012 NOSIG,0,2,0,10000,0,0,0,
2026-04-01 12:00:00,METAR VMMC 011200Z 25004KT 9999 FEW025 SCT035 25/19 Q1012 NOSIG,0,4,0,10000,0,0,0,
2026-04-01 11:30:00,METAR VMMC 011130Z 31004KT 9999 FEW020 SCT035 25/19 Q1011 NOSIG,0,4,0,10000,0,0,0,
2026-04-01 11:00:00,METAR VMMC 011100Z 36003KT 9999 -SHRA FEW020 SCT035 24/19 Q1011 NOSIG,0,3,0,10000,0,0,0,RA
2026-04-01 10:30:00,METAR VMMC 011030Z VRB02KT 9000 -SHRA FEW020 SCT035 25/19 Q1011 TEMPO 4000 SHRA,0,2,0,9000,0,0,0,"RA,SH"
2026-04-01 10:00:00,METAR VMMC 011000Z VRB02KT 9999 FEW030 SCT045 25/19 Q1011 NOSIG,0,2,0,10000,0,0,0,
2026-04-01 09:30:00,METAR VMMC 010930Z 36004KT 9999 FEW030 SCT045 25/19 Q1011 NOSIG,0,4,0,10000,0,0,0,
2026-04-01 09:00:00,METAR VMMC 010900Z 01006KT 9999 FEW030 SCT045 25/18 Q1011 TEMPO VRB15G25KT 3500 TSRA FEW010CB SCT025,0,6,0,10000,1,0,0,"RA,TS"
2026-04-01 08:30:00,METAR VMMC 010830Z 02007KT 9999 FEW030 SCT045 25/18 Q1011 NOSIG,0,7,0,10000,0,0,0,
2026-04-01 08:00:00,METAR VMMC 010800Z 02008KT 9999 FEW030 SCT045 25/18 Q1011 NOSIG,0,8,0,10000,0,0,0,
2026-04-01 07:30:00,METAR VMMC 010730Z 02009KT 9999 FEW025 SCT035 25/18 Q1011 NOSIG,0,9,0,10000,0,0,0,
2026-04-01 07:00:00,METAR VMMC 010700Z 02009KT 350V050 9999 FEW025 SCT035 25/18 Q1011 NOSIG,0,9,0,10000,0,0,0,
2026-04-01 06:30:00,METAR VMMC 010630Z 02010KT 9999 FEW025 SCT035 25/18 Q1012 NOSIG,0,10,0,10000,0,0,0,
2026-04-01 06:00:00,METAR VMMC 010600Z 02010KT 9999 FEW025 SCT035 25/18 Q1012 NOSIG,0,10,0,10000,0,0,0,
2026-04-01 05:30:00,METAR VMMC 010530Z 02010KT 9999 FEW025 SCT035 25/18 Q1013 NOSIG,0,10,0,10000,0,0,0,
2026-04-01 05:00:00,METAR VMMC 010500Z 02011KT 9999 FEW025 SCT040 25/18 Q1013 NOSIG,0,11,0,10000,0,0,0,
2026-04-01 04:30:00,METAR VMMC 010430Z 02012KT 9999 FEW040 24/18 Q1013 NOSIG,0,12,0,10000,0,0,0,
2026-04-01 04:00:00,METAR VMMC 010400Z 02011KT CAVOK 24/18 Q1014 NOSIG,1,0,0,9999,0,0,0,
2026-04-01 03:30:00,METAR VMMC 010330Z 02011KT CAVOK 24/17 Q1014 NOSIG,1,0,0,9999,0,0,0,
2026-04-01 03:00:00,METAR VMMC 010300Z 36011KT CAVOK 24/17 Q1014 NOSIG,1,0,0,9999,0,0,0,
2026-04-01 02:30:00,METAR VMMC 010230Z 36014KT CAVOK 23/17 Q1014 NOSIG,1,0,0,9999,0,0,0,
2026-04-01 02:00:00,METAR VMMC 010200Z 35015KT CAVOK 23/17 Q1014 NOSIG,1,0,0,9999,0,0,0,
2026-04-01 01:30:00,METAR VMMC 010130Z 36017KT 9999 FEW020 SCT035 22/17 Q1014 NOSIG,0,17,0,10000,0,0,0,
2026-04-01 01:00:00,METAR VMMC 010100Z 36014KT 9999 FEW020 SCT035 22/17 Q1014 NOSIG,0,14,0,10000,0,0,0,
2026-04-01 00:30:00,METAR VMMC 010030Z 35015KT 9999 FEW020 SCT035 22/17 Q1014 NOSIG,0,15,0,10000,0,0,0,
2026-04-01 00:00:00,METAR VMMC 010000Z 35012KT 9999 FEW012 SCT030 22/17 Q1013 NOSIG,0,12,0,10000,0,0,0,
2026-03-31 23:30:00,METAR VMMC 312330Z 34013KT 9999 FEW012 SCT025 21/16 Q1013 NOSIG,0,13,0,9999,0,0,0,
2026-03-31 23:00:00,METAR VMMC 312300Z 34012KT 9999 FEW012 SCT025 21/16 Q1012 NOSIG,0,12,0,9999,0,0,0,
2026-03-31 22:30:00,METAR VMMC 312230Z 34014KT 9999 FEW012 SCT030 21/16 Q1012 NOSIG,0,14,0,9999,0,0,0,
2026-03-31 22:00:00,METAR VMMC 312200Z 34016KT 9999 FEW012 SCT030 21/16 Q1011 NOSIG,0,16,0,9999,0,0,0,
2026-03-31 21:30:00,METAR VMMC 312130Z 34014KT 9999 FEW012 SCT030 21/16 Q1011 NOSIG,0,14,0,9999,0,0,0,
2026-03-31 21:00:00,METAR VMMC 312100Z 34010KT 9999 FEW012 SCT030 21/17 Q1011 NOSIG,0,10,0,9999,0,0,0,
2026-03-31 20:30:00,METAR VMMC 312030Z 34009KT 9999 FEW010 SCT025 22/17 Q1010 NOSIG,0,9,0,9999,0,0,0,
2026-03-31 20:00:00,METAR VMMC 312000Z 35012KT 9999 FEW010 SCT025 22/17 Q1010 NOSIG,0,12,0,9999,0,0,0,
2026-03-31 19:30:00,METAR VMMC 311930Z 35010KT 9999 FEW010 SCT025 23/18 Q1010 NOSIG,0,10,0,9999,0,0,0,
2026-03-31 19:00:00,METAR VMMC 311900Z 34011KT 9999 FEW010 SCT025 23/18 Q1010 NOSIG,0,11,0,9999,0,0,0,
2026-03-31 18:30:00,METAR VMMC 311830Z 33012KT 9999 FEW010 SCT025 23/18 Q1010 NOSIG,0,12,0,9999,0,0,0,
2026-03-31 18:00:00,METAR VMMC 311800Z 35009KT 9999 FEW012 SCT025 23/19 Q1011 NOSIG,0,9,0,9999,0,0,0,
2026-03-31 17:30:00,METAR VMMC 311730Z 34011KT 9999 FEW012 SCT025 23/20 Q1011 NOSIG,0,11,0,9999,0,0,0,
2026-03-31 17:00:00,METAR VMMC 311700Z 35012KT 9999 FEW012 SCT028 23/20 Q1011 NOSIG,0,12,0,9999,0,0,0,
2026-03-31 16:30:00,METAR VMMC 311630Z 01015KT 9999 FEW012 SCT028 23/21 Q1011 NOSIG,0,15,0,9999,0,0,0,
2026-03-31 16:00:00,METAR VMMC 311600Z VRB02KT 9999 FEW012 SCT028 25/23 Q1011 NOSIG,0,2,0,9999,0,0,0,
2026-03-31 15:30:00,METAR VMMC 311530Z 22004KT 9999 FEW012 SCT028 25/23 Q1011 NOSIG,0,4,0,9999,0,0,0,
2026-03-31 15:00:00,METAR VMMC 311500Z 23004KT 9999 FEW012 25/23 Q1011 NOSIG,0,4,0,9999,0,0,0,
2026-03-31 14:30:00,METAR VMMC 311430Z 21007KT 160V240 9999 FEW012 26/23 Q1011 NOSIG,0,7,0,9999,0,0,0,
2026-03-31 14:00:00,METAR VMMC 311400Z 23005KT 210V280 9999 FEW012 26/23 Q1010 NOSIG,0,5,0,9999,0,0,0,
2026-03-31 13:30:00,METAR VMMC 311330Z 22006KT 190V250 9999 FEW012 SCT022 26/23 Q1010 NOSIG,0,6,0,9999,0,0,0,
2026-03-31 13:00:00,METAR VMMC 311300Z VRB05KT 9999 FEW012 SCT018 26/23 Q1010 NOSIG,0,5,0,9999,0,0,0,
2026-03-31 12:30:00,METAR VMMC 311230Z 20004KT 9000 FEW010 SCT016 25/24 Q1009 NOSIG,0,4,0,9000,0,0,0,
2026-03-31 12:00:00,METAR VMMC 311200Z 19007KT 9000 FEW010 SCT016 25/24 Q1009 TEMPO VRB15G25KT 2500 +TSRA FEW008CB SCT015,0,7,0,9000,1,0,0,RA
2026-03-31 11:30:00,METAR VMMC 311130Z 20006KT 9999 FEW010 SCT016 25/23 Q1008 NOSIG,0,6,0,9999,0,0,0,
2026-03-31 11:00:00,METAR VMMC 311100Z 20008KT 9999 FEW010 SCT016 26/23 Q1008 NOSIG,0,8,0,9999,0,0,0,
2026-03-31 10:30:00,METAR VMMC 311030Z 21009KT 9000 FEW010 SCT016 25/23 Q1008 NOSIG,0,9,0,9000,0,0,0,
2026-03-31 10:00:00,METAR VMMC 311000Z 20008KT 9999 FEW010 SCT020 25/23 Q1007 NOSIG,0,8,0,9999,0,0,0,
2026-03-31 09:30:00,METAR VMMC 310930Z 19009KT 9000 FEW010 SCT020 26/23 Q1007 NOSIG,0,9,0,9000,0,0,0,
2026-03-31 09:00:00,METAR VMMC 310900Z 20009KT 170V230 9999 FEW010 SCT018 26/23 Q1007 NOSIG,0,9,0,9999,0,0,0,
2026-03-31 08:30:00,METAR VMMC 310830Z 20009KT 9999 FEW010 SCT018 26/23 Q1007 NOSIG,0,9,0,9999,0,0,0,
2026-03-31 08:00:00,METAR VMMC 310800Z 19011KT 9999 FEW010 SCT020 26/23 Q1007 NOSIG,0,11,0,9999,0,0,0,
2026-03-31 07:30:00,METAR VMMC 310730Z 20010KT 9999 FEW010 SCT020 27/24 Q1007 NOSIG,0,10,0,9999,0,0,0,
2026-03-31 07:00:00,METAR VMMC 310700Z 19009KT 9999 FEW010 SCT020 26/23 Q1008 NOSIG,0,9,0,9999,0,0,0,
2026-03-31 06:30:00,METAR VMMC 310630Z 19011KT 160V230 9999 FEW010 SCT022 26/23 Q1008 TEMPO 4000 SHRA,0,11,0,9999,0,0,0,"RA,SH"
2026-03-31 06:00:00,METAR VMMC 310600Z 19012KT 9999 FEW010 SCT022 26/23 Q1008 NOSIG,0,12,0,9999,0,0,0,
2026-03-31 05:30:00,METAR VMMC 310530Z 19013KT 9999 FEW010 SCT025 25/23 Q1008 NOSIG,0,13,0,9999,0,0,0,
2026-03-31 05:00:00,METAR VMMC 310500Z 20012KT 9999 FEW008 SCT020 26/23 Q1009 NOSIG,0,12,0,9999,0,0,0,
2026-03-31 04:30:00,METAR VMMC 310430Z 20012KT 9999 FEW008 SCT018 26/23 Q1010 NOSIG,0,12,0,9999,0,0,0,
2026-03-31 04:00:00,METAR VMMC 310400Z 20012KT 9999 FEW008 SCT018 26/24 Q1011 TEMPO 4000 SHRA,0,12,0,9999,0,0,0,"RA,SH"
2026-03-31 03:30:00,METAR VMMC 310330Z 20011KT 9999 FEW008 SCT018 26/23 Q1012 NOSIG,0,11,0,9999,0,0,0,
2026-03-31 03:00:00,METAR VMMC 310300Z 19011KT 9999 FEW008 SCT018 26/23 Q1011 NOSIG,0,11,0,9999,0,0,0,
2026-03-31 02:30:00,METAR VMMC 310230Z 19010KT 9999 FEW008 SCT020 26/23 Q1011 TEMPO 4000 SHRA,0,10,0,9999,0,0,0,"RA,SH"
2026-03-31 02:00:00,METAR VMMC 310200Z 19011KT 9999 FEW008 SCT020 26/23 Q1011 NOSIG,0,11,0,9999,0,0,0,
2026-03-31 01:30:00,METAR VMMC 310130Z 18013KT 9999 FEW008 SCT020 26/23 Q1010 NOSIG,0,13,0,9999,0,0,0,
2026-03-31 01:00:00,METAR VMMC 310100Z 18012KT 9999 FEW008 SCT020 25/24 Q1010 NOSIG,0,12,0,9999,0,0,0,
2026-03-31 00:30:00,METAR VMMC 310030Z 17015KT 9999 FEW010 SCT020 25/24 Q1010 NOSIG,0,15,0,9999,0,0,0,
2026-03-31 00:00:00,METAR VMMC 310000Z 18012KT 9999 FEW010 SCT020 24/23 Q1010 NOSIG,0,12,0,9999,0,0,0,
2026-03-30 23:30:00,METAR VMMC 302330Z 16011KT 9000 FEW008 SCT020 24/23 Q1010 NOSIG,0,11,0,9000,0,0,0,
2026-03-30 23:00:00,METAR VMMC 302300Z 17010KT 9999 FEW008 SCT020 24/23 Q1010 NOSIG,0,10,0,10000,0,0,0,
2026-03-30 22:30:00,METAR VMMC 302230Z 16010KT 9000 FEW008 SCT020 24/23 Q1009 NOSIG,0,10,0,9000,0,0,0,
2026-03-30 22:00:00,METAR VMMC 302200Z 16011KT 9999 FEW008 SCT020 24/23 Q1009 NOSIG,0,11,0,10000,0,0,0,
2026-03-30 21:30:00,METAR VMMC 302130Z 16009KT 9999 FEW007 SCT020 24/23 Q1009 NOSIG,0,9,0,10000,0,0,0,
2026-03-30 21:00:00,METAR VMMC 302100Z 16009KT 9999 FEW006 SCT020 24/23 Q1009 NOSIG,0,9,0,10000,0,0,0,
2026-03-30 20:30:00,METAR VMMC 302030Z 16009KT 9999 FEW006 SCT020 24/23 Q1009 NOSIG,0,9,0,10000,0,0,0,
2026-03-30 20:00:00,METAR VMMC 302000Z 16009KT 9999 FEW005 SCT020 24/23 Q1009 NOSIG,0,9,0,10000,0,0,0,
2026-03-30 19:30:00,METAR VMMC 301930Z 17008KT 9999 FEW005 SCT020 24/23 Q1009 NOSIG,0,8,0,10000,0,0,0,
2026-03-30 19:00:00,METAR VMMC 301900Z 16009KT 9999 FEW007 SCT020 24/23 Q1009 NOSIG,0,9,0,10000,0,0,0,
2026-03-30 18:30:00,METAR VMMC 301830Z 17009KT 9999 FEW005 SCT020 24/23 Q1010 NOSIG,0,9,0,10000,0,0,0,
2026-03-30 18:00:00,METAR VMMC 301800Z 17007KT 9999 FEW005 SCT020 24/23 Q1010 NOSIG,0,7,0,10000,0,0,0,
2026-03-30 17:30:00,METAR VMMC 301730Z 17008KT 9999 FEW006 SCT020 24/23 Q1010 NOSIG,0,8,0,10000,0,0,0,
2026-03-30 17:00:00,METAR VMMC 301700Z 18008KT 9999 FEW006 SCT020 24/23 Q1011 NOSIG,0,8,0,10000,0,0,0,
2026-03-30 16:30:00,METAR VMMC 301630Z 17009KT 9999 FEW010 SCT020 24/23 Q1011 NOSIG,0,9,0,10000,0,0,0,
2026-03-30 16:00:00,METAR VMMC 301600Z 17009KT 9999 FEW010 SCT020 25/23 Q1011 NOSIG,0,9,0,10000,0,0,0,
2026-03-30 15:30:00,METAR VMMC 301530Z 16008KT 9999 FEW010 SCT020 25/23 Q1011 NOSIG,0,8,0,10000,0,0,0,
2026-03-30 15:00:00,METAR VMMC 301500Z 16009KT 9999 FEW010 SCT020 25/23 Q1011 NOSIG,0,9,0,10000,0,0,0,
2026-03-30 14:30:00,METAR VMMC 301430Z 17008KT 9999 FEW010 SCT020 25/23 Q1011 NOSIG,0,8,0,10000,0,0,0,
2026-03-30 14:00:00,METAR VMMC 301400Z 18011KT 9999 FEW010 SCT020 25/23 Q1011 NOSIG,0,11,0,10000,0,0,0,
2026-03-30 13:30:00,METAR VMMC 301330Z 17010KT 9999 FEW010 SCT022 25/23 Q1011 NOSIG,0,10,0,10000,0,0,0,
2026-03-30 13:00:00,METAR VMMC 301300Z 17010KT 9999 FEW010 SCT022 25/23 Q1010 NOSIG,0,10,0,10000,0,0,0,
2026-03-30 12:30:00,METAR VMMC 301230Z 18013KT 9999 FEW010 SCT022 25/23 Q1010 NOSIG,0,13,0,10000,0,0,0,
2026-03-30 12:00:00,METAR VMMC 301200Z 18010KT 9999 FEW010 SCT022 25/23 Q1009 NOSIG,0,10,0,10000,0,0,0,
2026-03-30 11:30:00,METAR VMMC 301130Z 19009KT 9999 FEW010 SCT022 25/23 Q1009 NOSIG,0,9,0,10000,0,0,0,
2026-03-30 11:00:00,METAR VMMC 301100Z 19009KT 9999 FEW010 SCT022 25/23 Q1009 NOSIG,0,9,0,10000,0,0,0,
2026-03-30 10:30:00,METAR VMMC 301030Z 19009KT 9999 FEW010 SCT025 25/23 Q1009 NOSIG,0,9,0,10000,0,0,0,
2026-03-30 10:00:00,METAR VMMC 301000Z 19010KT 9999 FEW012 SCT030 25/23 Q1008 NOSIG,0,10,0,10000,0,0,0,
2026-03-30 09:30:00,METAR VMMC 300930Z 19010KT 9999 FEW012 SCT030 26/23 Q1008 NOSIG,0,10,0,10000,0,0,0,
2026-03-30 09:00:00,METAR VMMC 300900Z 19010KT 9999 FEW012 SCT030 26/23 Q1008 NOSIG,0,10,0,10000,0,0,0,
2026-03-30 08:30:00,METAR VMMC 300830Z 19012KT 9999 FEW012 SCT030 26/23 Q1008 NOSIG,0,12,0,10000,0,0,0,
2026-03-30 08:00:00,METAR VMMC 300800Z 18013KT 9999 FEW012 SCT035 27/23 Q1008 NOSIG,0,13,0,10000,0,0,0,
2026-03-30 07:30:00,METAR VMMC 300730Z 18012KT 9999 FEW012 SCT035 27/23 Q1008 NOSIG,0,12,0,10000,0,0,0,
2026-03-30 07:00:00,METAR VMMC 300700Z 16010KT 9999 FEW012 SCT035 27/23 Q1008 NOSIG,0,10,0,10000,0,0,0,
2026-03-30 06:30:00,METAR VMMC 300630Z 14012KT 9999 FEW012 SCT035 26/23 Q1009 NOSIG,0,12,0,10000,0,0,0,
2026-03-30 06:00:00,METAR VMMC 300600Z 14008KT 9999 FEW010 SCT025 25/23 Q1010 NOSIG,0,8,0,10000,0,0,0,
2026-03-30 05:30:00,METAR VMMC 300530Z 22006KT 190V270 7000 -SHRA FEW010 SCT018 25/22 Q1011 NOSIG,0,6,0,7000,0,0,0,RA
2026-03-30 05:00:00,METAR VMMC 300500Z 21008KT 9999 VCSH FEW010 SCT025 25/21 Q1012 TEMPO VRB15G25KT 4000 TSRA,0,8,0,10000,1,0,0,"RA,SH,TS,VC"
2026-03-30 04:30:00,METAR VMMC 300430Z 21012KT 9999 FEW015 SCT035 25/20 Q1011 NOSIG,0,12,0,10000,0,0,0,
2026-03-30 04:00:00,METAR VMMC 300400Z 19009KT 9999 FEW015 25/20 Q1011 NOSIG,0,9,0,10000,0,0,0,
2026-03-30 03:30:00,METAR VMMC 300330Z 18009KT 9999 FEW012 24/19 Q1011 NOSIG,0,9,0,10000,0,0,0,
2026-03-30 03:00:00,METAR VMMC 300300Z 23006KT 170V270 9999 FEW010 23/20 Q1012 NOSIG,0,6,0,10000,0,0,0,
2026-03-30 02:52:00,SPECI VMMC 300252Z 24007KT 210V290 9999 FEW008 23/20 Q1012 NOSIG,0,7,0,10000,0,0,0,
2026-03-30 02:30:00,METAR VMMC 300230Z 30015G25KT 270V330 8000 -SHRA FEW008 SCT015CB 23/19 Q1013 RERA NOSIG,0,15,1,8000,0,0,0,RA
2026-03-30 02:15:00,SPECI VMMC 300215Z 01010KT 5000 SHRA FEW008 SCT015CB 25/21 Q1014 NOSIG,0,10,0,5000,0,0,0,"RA,SH"
2026-03-30 02:00:00,METAR VMMC 300200Z 22007KT 180V250 9999 -SHRA FEW008 SCT015CB 25/23 Q1013 TEMPO VRB16G30KT 2000 +TSRA FEW008 SCT015CB,0,7,0,10000,1,0,0,RA
2026-03-30 01:30:00,METAR VMMC 300130Z 21009KT 9999 FEW009 SCT015 26/22 Q1013 TEMPO VRB16G30KT 2000 +TSRA FEW008 SCT015CB,0,9,0,10000,1,0,0,RA
2026-03-30 01:00:00,METAR VMMC 300100Z 21010KT 9999 FEW008 SCT015 25/23 Q1012 TEMPO 2000 +TSRA FEW008 SCT015CB,0,10,0,10000,1,0,0,RA
2026-03-30 00:30:00,METAR VMMC 300030Z 20009KT 180V240 9999 FEW008 SCT015 25/22 Q1011 NOSIG,0,9,0,10000,0,0,0,
2026-03-30 00:00:00,METAR VMMC 300000Z 20008KT 170V240 9999 FEW008 SCT015 25/22 Q1011 NOSIG,0,8,0,10000,0,0,0,
2026-03-29 23:30:00,METAR VMMC 292330Z COR 19010KT 9999 FEW007 SCT015 24/23 Q1010 NOSIG,0,10,0,10000,0,0,0,
2026-03-29 23:00:00,METAR VMMC 292300Z 19011KT 9999 FEW007 SCT015 24/23 Q1009 NOSIG,0,11,0,10000,0,0,0,
2026-03-29 22:30:00,METAR VMMC 292230Z 18013KT 9999 FEW008 SCT015 24/23 Q1008 NOSIG,0,13,0,10000,0,0,0,
2026-03-29 22:00:00,METAR VMMC 292200Z 18014KT 9999 FEW008 SCT015 24/23 Q1008 NOSIG,0,14,0,10000,0,0,0,
2026-03-29 21:30:00,METAR VMMC 292130Z 18014KT 9999 FEW007 SCT015 24/23 Q1008 NOSIG,0,14,0,10000,0,0,0,
2026-03-29 21:00:00,METAR VMMC 292100Z 17012KT 9999 FEW007 SCT015 24/23 Q1008 NOSIG,0,12,0,10000,0,0,0,
2026-03-29 20:30:00,METAR VMMC 292030Z 17012KT 9999 FEW008 SCT020 24/22 Q1008 NOSIG,0,12,0,10000,0,0,0,
2026-03-29 20:00:00,METAR VMMC 292000Z 17011KT 9999 FEW008 SCT020 24/23 Q1009 NOSIG,0,11,0,10000,0,0,0,
2026-03-29 19:30:00,METAR VMMC 291930Z 17009KT 9999 FEW010 SCT020 24/23 Q1009 NOSIG,0,9,0,10000,0,0,0,
2026-03-29 19:00:00,METAR VMMC 291900Z 16009KT 9999 FEW010 SCT020 24/23 Q1009 NOSIG,0,9,0,10000,0,0,0,
2026-03-29 18:30:00,METAR VMMC 291830Z 16007KT 9999 FEW010 SCT020 24/23 Q1010 NOSIG,0,7,0,10000,0,0,0,
2026-03-29 18:00:00,METAR VMMC 291800Z 16008KT 9999 FEW010 SCT020 24/23 Q1010 NOSIG,0,8,0,10000,0,0,0,
2026-03-29 17:30:00,METAR VMMC 291730Z 15006KT 9999 FEW010 SCT020 24/22 Q1010 NOSIG,0,6,0,10000,0,0,0,
2026-03-29 17:00:00,METAR VMMC 291700Z 15008KT 9999 FEW015 SCT025 24/22 Q1010 NOSIG,0,8,0,10000,0,0,0,
2026-03-29 16:30:00,METAR VMMC 291630Z 15007KT 9999 FEW015 SCT025 24/22 Q1010 NOSIG,0,7,0,10000,0,0,0,
2026-03-29 16:00:00,METAR VMMC 291600Z 16007KT 9999 FEW015 24/22 Q1010 NOSIG,0,7,0,10000,0,0,0,
2026-03-29 15:30:00,METAR VMMC 291530Z 15008KT 9999 FEW015 24/22 Q1010 NOSIG,0,8,0,10000,0,0,0,
2026-03-29 15:00:00,METAR VMMC 291500Z 15010KT 8000 FEW015 24/23 Q1011 NOSIG,0,10,0,8000,0,0,0,
2026-03-29 14:30:00,METAR VMMC 291430Z 15009KT 9000 FEW015 24/23 Q1011 NOSIG,0,9,0,9000,0,0,0,
2026-03-29 14:00:00,METAR VMMC 291400Z 15009KT 9000 FEW015 24/23 Q1011 NOSIG,0,9,0,9000,0,0,0,
2026-03-29 13:30:00,METAR VMMC 291330Z 13006KT 090V160 9000 FEW015 24/23 Q1011 NOSIG,0,6,0,9000,0,0,0,
2026-03-29 13:00:00,METAR VMMC 291300Z 13007KT 9000 FEW015 24/23 Q1011 NOSIG,0,7,0,9000,0,0,0,
2026-03-29 12:30:00,METAR VMMC 291230Z 15009KT 9000 FEW012 SCT045 24/23 Q1011 NOSIG,0,9,0,9000,0,0,0,
2026-03-29 12:00:00,METAR VMMC 291200Z 16009KT 9999 FEW012 SCT030 24/22 Q1011 NOSIG,0,9,0,10000,0,0,0,
2026-03-29 11:30:00,METAR VMMC 291130Z 16005KT 9999 FEW012 SCT030 24/22 Q1012 NOSIG,0,5,0,10000,0,0,0,
2026-03-29 11:00:00,METAR VMMC 291100Z 12004KT 080V150 7000 FEW010 SCT025 24/22 Q1011 NOSIG,0,4,0,7000,0,0,0,
2026-03-29 10:30:00,METAR VMMC 291030Z 12006KT 7000 FEW010 SCT025 24/22 Q1011 TEMPO 4000 SHRA,0,6,0,7000,0,0,0,"RA,SH"
2026-03-29 10:00:00,METAR VMMC 291000Z 13006KT 8000 FEW010 SCT025 24/22 Q1010 NOSIG,0,6,0,8000,0,0,0,
2026-03-29 09:30:00,METAR VMMC 290930Z 13007KT 8000 FEW010 SCT025 24/22 Q1010 NOSIG,0,7,0,8000,0,0,0,
2026-03-29 09:00:00,METAR VMMC 290900Z 13006KT 8000 FEW010 SCT022 25/22 Q1010 NOSIG,0,6,0,8000,0,0,0,
2026-03-29 08:30:00,METAR VMMC 290830Z 14006KT 110V170 9999 FEW010 SCT022 25/22 Q1010 NOSIG,0,6,0,10000,0,0,0,
2026-03-29 08:00:00,METAR VMMC 290800Z 13006KT 9999 FEW010 SCT022 25/22 Q1009 NOSIG,0,6,0,10000,0,0,0,
2026-03-29 07:30:00,METAR VMMC 290730Z 13009KT 9000 FEW010 SCT022 25/22 Q1009 NOSIG,0,9,0,9000,0,0,0,
2026-03-29 07:00:00,METAR VMMC 290700Z 14010KT 9000 FEW008 SCT022 25/22 Q1009 NOSIG,0,10,0,9000,0,0,0,
2026-03-29 06:30:00,METAR VMMC 290630Z 15012KT 9000 FEW008 SCT022 25/22 Q1009 NOSIG,0,12,0,9000,0,0,0,
2026-03-29 06:00:00,METAR VMMC 290600Z 13009KT 8000 FEW008 SCT020 25/22 Q1010 NOSIG,0,9,0,8000,0,0,0,
2026-03-29 05:30:00,METAR VMMC 290530Z 13011KT 8000 FEW008 SCT020 25/22 Q1010 NOSIG,0,11,0,8000,0,0,0,
2026-03-29 05:00:00,METAR VMMC 290500Z 13008KT 8000 FEW008 SCT020 25/22 Q1011 NOSIG,0,8,0,8000,0,0,0,
2026-03-29 04:30:00,METAR VMMC 290430Z 12009KT 8000 FEW008 SCT020 25/22 Q1012 NOSIG,0,9,0,8000,0,0,0,
2026-03-29 04:00:00,METAR VMMC 290400Z 11009KT 090V150 8000 FEW009 SCT025 25/22 Q1012 NOSIG,0,9,0,8000,0,0,0,
2026-03-29 03:30:00,METAR VMMC 290330Z 12010KT 8000 FEW009 SCT025 25/22 Q1013 NOSIG,0,10,0,8000,0,0,0,
2026-03-29 03:00:00,METAR VMMC 290300Z 12011KT 090V160 8000 FEW009 SCT025 25/22 Q1013 NOSIG,0,11,0,8000,0,0,0,
2026-03-29 02:30:00,METAR VMMC 290230Z 11010KT 9000 FEW009 SCT025 25/22 Q1013 NOSIG,0,10,0,9000,0,0,0,
2026-03-29 02:00:00,METAR VMMC 290200Z 11011KT 080V150 9000 FEW009 SCT025 24/22 Q1013 NOSIG,0,11,0,9000,0,0,0,
2026-03-29 01:30:00,METAR VMMC 290130Z 11011KT 080V140 9000 FEW009 SCT030 24/22 Q1013 NOSIG,0,11,0,9000,0,0,0,
2026-03-29 01:00:00,METAR VMMC 290100Z 11011KT 9000 FEW009 SCT030 24/22 Q1013 NOSIG,0,11,0,9000,0,0,0,
2026-03-29 00:30:00,METAR VMMC 290030Z 11011KT 9000 FEW009 SCT030 24/22 Q1012 NOSIG,0,11,0,9000,0,0,0,
2026-03-29 00:00:00,METAR VMMC 290000Z 11011KT 8000 FEW009 SCT030 23/22 Q1012 NOSIG,0,11,0,8000,0,0,0,
2026-03-28 23:30:00,METAR VMMC 282330Z 11011KT 8000 FEW009 SCT025 23/22 Q1011 NOSIG,0,11,0,8000,0,0,0,
2026-03-28 23:00:00,METAR VMMC 282300Z 11012KT 8000 FEW007 SCT025 23/22 Q1011 NOSIG,0,12,0,8000,0,0,0,
2026-03-28 22:30:00,METAR VMMC 282230Z 11010KT 8000 FEW007 SCT022 23/21 Q1011 NOSIG,0,10,0,8000,0,0,0,
2026-03-28 22:00:00,METAR VMMC 282200Z 11010KT 9000 FEW007 SCT022 23/22 Q1010 NOSIG,0,10,0,9000,0,0,0,
2026-03-28 21:30:00,METAR VMMC 282130Z 11012KT 9000 FEW007 SCT022 23/22 Q1010 NOSIG,0,12,0,9000,0,0,0,
2026-03-28 21:00:00,METAR VMMC 282100Z 11012KT 9000 FEW007 SCT022 23/22 Q1010 NOSIG,0,12,0,9000,0,0,0,
2026-03-28 20:30:00,METAR VMMC 282030Z 11012KT 8000 FEW007 SCT022 23/22 Q1010 NOSIG,0,12,0,8000,0,0,0,
2026-03-28 20:00:00,METAR VMMC 282000Z 11011KT 9000 FEW007 SCT022 23/22 Q1010 NOSIG,0,11,0,9000,0,0,0,
2026-03-28 19:30:00,METAR VMMC 281930Z 11010KT 8000 FEW007 SCT022 23/22 Q1010 NOSIG,0,10,0,8000,0,0,0,
2026-03-28 19:00:00,METAR VMMC 281900Z 11010KT 8000 FEW007 SCT022 23/22 Q1010 NOSIG,0,10,0,8000,0,0,0,
2026-03-28 18:30:00,METAR VMMC 281830Z 10010KT 8000 FEW007 SCT022 23/22 Q1011 NOSIG,0,10,0,8000,0,0,0,
2026-03-28 18:00:00,METAR VMMC 281800Z 10010KT 7000 FEW006 SCT018 23/22 Q1011 NOSIG,0,10,0,7000,0,0,0,
2026-03-28 17:30:00,METAR VMMC 281730Z 11009KT 8000 FEW007 SCT018 23/22 Q1011 NOSIG,0,9,0,8000,0,0,0,
2026-03-28 17:00:00,METAR VMMC 281700Z 11010KT 8000 FEW006 SCT012 23/22 Q1011 NOSIG,0,10,0,8000,0,0,0,
2026-03-28 16:30:00,METAR VMMC 281630Z 11009KT 7000 FEW006 SCT012 23/22 Q1011 NOSIG,0,9,0,7000,0,0,0,
2026-03-28 16:00:00,METAR VMMC 281600Z 11010KT 7000 FEW006 SCT012 23/22 Q1011 NOSIG,0,10,0,7000,0,0,0,
2026-03-28 15:30:00,METAR VMMC 281530Z 11010KT 8000 FEW006 SCT012 24/22 Q1012 NOSIG,0,10,0,8000,0,0,0,
2026-03-28 15:00:00,METAR VMMC 281500Z 12011KT 9000 FEW006 SCT012 24/22 Q1012 NOSIG,0,11,0,9000,0,0,0,
2026-03-28 14:30:00,METAR VMMC 281430Z 12010KT 9000 FEW006 SCT015 24/22 Q1012 NOSIG,0,10,0,9000,0,0,0,
2026-03-28 14:00:00,METAR VMMC 281400Z 12008KT 100V160 9999 FEW006 SCT018 24/22 Q1012 NOSIG,0,8,0,10000,0,0,0,
2026-03-28 13:30:00,METAR VMMC 281330Z 12006KT 090V160 9999 FEW008 SCT030 24/23 Q1012 NOSIG,0,6,0,10000,0,0,0,
2026-03-28 13:00:00,METAR VMMC 281300Z 13008KT 9999 FEW010 SCT035 24/23 Q1011 NOSIG,0,8,0,10000,0,0,0,
2026-03-28 12:30:00,METAR VMMC 281230Z 15007KT 9999 FEW010 SCT035 24/23 Q1011 NOSIG,0,7,0,10000,0,0,0,
2026-03-28 12:00:00,METAR VMMC 281200Z 14007KT 9999 FEW010 SCT030 24/22 Q1011 NOSIG,0,7,0,10000,0,0,0,
2026-03-28 11:30:00,METAR VMMC 281130Z 14005KT 100V170 9999 FEW010 SCT030 24/22 Q1011 NOSIG,0,5,0,10000,0,0,0,
2026-03-28 11:00:00,METAR VMMC 281100Z 15006KT 9999 FEW010 SCT030 24/22 Q1010 NOSIG,0,6,0,10000,0,0,0,
2026-03-28 10:30:00,METAR VMMC 281030Z 15007KT 9999 FEW010 SCT030 25/22 Q1010 NOSIG,0,7,0,10000,0,0,0,
2026-03-28 10:00:00,METAR VMMC 281000Z 17008KT 9999 FEW010 SCT035 25/22 Q1010 NOSIG,0,8,0,10000,0,0,0,
2026-03-28 09:30:00,METAR VMMC 280930Z 16008KT 9999 FEW010 SCT035 25/22 Q1009 NOSIG,0,8,0,10000,0,0,0,
2026-03-28 09:00:00,METAR VMMC 280900Z 17009KT 9999 FEW010 SCT035 25/22 Q1009 NOSIG,0,9,0,10000,0,0,0,
2026-03-28 08:30:00,METAR VMMC 280830Z 18009KT 9999 FEW010 SCT020 25/22 Q1009 NOSIG,0,9,0,10000,0,0,0,
2026-03-28 08:00:00,METAR VMMC 280800Z 18009KT 9999 FEW010 SCT020 25/22 Q1009 NOSIG,0,9,0,10000,0,0,0,
2026-03-28 07:30:00,METAR VMMC 280730Z 17008KT 9999 FEW010 SCT020 26/23 Q1010 NOSIG,0,8,0,10000,0,0,0,
2026-03-28 07:00:00,METAR VMMC 280700Z 17009KT 9999 FEW010 SCT025 26/23 Q1010 NOSIG,0,9,0,10000,0,0,0,
2026-03-28 06:30:00,METAR VMMC 280630Z 16007KT 9999 FEW010 SCT025 26/22 Q1010 NOSIG,0,7,0,10000,0,0,0,
2026-03-28 06:00:00,METAR VMMC 280600Z 18008KT 9999 FEW010 SCT025 26/22 Q1011 NOSIG,0,8,0,10000,0,0,0,
2026-03-28 05:30:00,METAR VMMC 280530Z 16009KT 9999 FEW010 SCT025 26/22 Q1011 NOSIG,0,9,0,10000,0,0,0,
2026-03-28 05:00:00,METAR VMMC 280500Z 16008KT 9999 FEW012 SCT025 26/23 Q1012 NOSIG,0,8,0,10000,0,0,0,
2026-03-28 04:30:00,METAR VMMC 280430Z 17008KT 9999 FEW012 SCT025 26/23 Q1012 NOSIG,0,8,0,10000,0,0,0,
2026-03-28 04:00:00,METAR VMMC 280400Z 17007KT 9999 FEW010 SCT020 25/22 Q1013 NOSIG,0,7,0,10000,0,0,0,
2026-03-28 03:30:00,METAR VMMC 280330Z 15005KT 9999 FEW010 SCT020 25/23 Q1013 NOSIG,0,5,0,10000,0,0,0,
2026-03-28 03:00:00,METAR VMMC 280300Z 15006KT 9999 FEW008 SCT020 25/23 Q1013 TEMPO 4500 SHRA,0,6,0,10000,0,0,0,"RA,SH"
2026-03-28 02:30:00,METAR VMMC 280230Z 13006KT 9999 FEW012 SCT025 25/23 Q1012 NOSIG,0,6,0,10000,0,0,0,
2026-03-28 02:00:00,METAR VMMC 280200Z 13005KT 9000 FEW010 SCT025 25/23 Q1013 NOSIG,0,5,0,9000,0,0,0,
2026-03-28 01:30:00,METAR VMMC 280130Z 12007KT 8000 FEW010 SCT025 24/23 Q1013 NOSIG,0,7,0,8000,0,0,0,
2026-03-28 01:00:00,METAR VMMC 280100Z 13006KT 110V170 7000 FEW010 SCT025 24/23 Q1013 NOSIG,0,6,0,7000,0,0,0,
2026-03-28 00:30:00,METAR VMMC 280030Z 13006KT 110V170 6000 FEW006 SCT018 24/23 Q1012 TEMPO 4500 BR,0,6,0,6000,0,0,1,BR
2026-03-28 00:00:00,METAR VMMC 280000Z 13006KT 4800 BR FEW006 SCT030 24/23 Q1012 NOSIG,0,6,0,4800,0,0,1,BR
2026-03-27 23:30:00,METAR VMMC 272330Z 14005KT 100V170 4800 BR FEW006 SCT035 24/23 Q1012 NOSIG,0,5,0,4800,0,0,1,BR
2026-03-27 23:00:00,METAR VMMC 272300Z 13006KT 4800 BR FEW006 SCT035 24/23 Q1011 NOSIG,0,6,0,4800,0,0,1,BR
2026-03-27 22:30:00,METAR VMMC 272230Z 12005KT 6000 FEW008 SCT020 24/22 Q1011 TEMPO 4500 BR,0,5,0,6000,0,0,1,BR
2026-03-27 22:00:00,METAR VMMC 272200Z 12004KT 8000 FEW007 SCT018 24/22 Q1011 NOSIG,0,4,0,8000,0,0,0,
2026-03-27 21:30:00,METAR VMMC 272130Z 12005KT 8000 FEW007 SCT018 24/22 Q1011 NOSIG,0,5,0,8000,0,0,0,
2026-03-27 21:00:00,METAR VMMC 272100Z 10003KT 8000 FEW007 SCT015 24/22 Q1011 NOSIG,0,3,0,8000,0,0,0,
2026-03-27 20:30:00,METAR VMMC 272030Z 13004KT 100V170 7000 FEW005 SCT015 23/22 Q1010 NOSIG,0,4,0,7000,0,0,0,
2026-03-27 20:00:00,METAR VMMC 272000Z 11003KT 7000 FEW005 SCT015 24/23 Q1010 NOSIG,0,3,0,7000,0,0,0,
2026-03-27 19:30:00,METAR VMMC 271930Z 13005KT 110V170 7000 FEW005 SCT015 24/23 Q1010 NOSIG,0,5,0,7000,0,0,0,
2026-03-27 19:00:00,METAR VMMC 271900Z 13005KT 110V170 7000 FEW007 SCT020 24/22 Q1010 NOSIG,0,5,0,7000,0,0,0,
2026-03-27 18:30:00,METAR VMMC 271830Z 14003KT 100V170 7000 FEW006 SCT020 24/22 Q1011 NOSIG,0,3,0,7000,0,0,0,
2026-03-27 18:00:00,METAR VMMC 271800Z 13005KT 100V160 7000 FEW006 SCT020 24/22 Q1011 NOSIG,0,5,0,7000,0,0,0,
2026-03-27 17:30:00,METAR VMMC 271730Z 12007KT 7000 FEW006 SCT012 24/22 Q1011 NOSIG,0,7,0,7000,0,0,0,
2026-03-27 17:00:00,METAR VMMC 271700Z 14008KT 8000 FEW008 SCT030 24/22 Q1011 NOSIG,0,8,0,8000,0,0,0,
2026-03-27 16:30:00,METAR VMMC 271630Z 13007KT 8000 FEW008 SCT030 24/22 Q1011 NOSIG,0,7,0,8000,0,0,0,
2026-03-27 16:00:00,METAR VMMC 271600Z 11006KT 070V150 9000 FEW009 SCT020 24/22 Q1012 NOSIG,0,6,0,9000,0,0,0,
2026-03-25 15:00:00,METAR VMMC 251500Z 19008KT 9999 FEW014 24/22 Q1012 NOSIG,0,8,0,10000,0,0,0,
2026-03-25 14:30:00,METAR VMMC 251430Z 19007KT 160V220 9999 FEW014 24/22 Q1013 NOSIG,0,7,0,10000,0,0,0,
2026-03-25 14:00:00,METAR VMMC 251400Z 19009KT 170V230 9999 FEW014 24/22 Q1013 NOSIG,0,9,0,10000,0,0,0,
2026-03-25 13:30:00,METAR VMMC 251330Z 19008KT CAVOK 24/22 Q1012 NOSIG,1,0,0,9999,0,0,0,
2026-03-25 13:00:00,METAR VMMC 251300Z 19010KT CAVOK 24/22 Q1012 NOSIG,1,0,0,9999,0,0,0,
2026-03-25 12:30:00,METAR VMMC 251230Z 19009KT 160V220 CAVOK 24/21 Q1012 NOSIG,1,0,0,9999,0,0,0,
2026-03-25 12:00:00,METAR VMMC 251200Z 19009KT CAVOK 25/21 Q1012 NOSIG,1,0,0,9999,0,0,0,
2026-03-25 11:30:00,METAR VMMC 251130Z 20009KT CAVOK 25/21 Q1012 NOSIG,1,0,0,9999,0,0,0,
2026-03-25 11:00:00,METAR VMMC 251100Z 20007KT CAVOK 25/20 Q1011 NOSIG,1,0,0,9999,0,0,0,
2026-03-25 10:30:00,METAR VMMC 251030Z 22007KT 180V240 CAVOK 25/20 Q1011 NOSIG,1,0,0,9999,0,0,0,
2026-03-25 10:00:00,METAR VMMC 251000Z 19009KT CAVOK 25/21 Q1011 NOSIG,1,0,0,9999,0,0,0,
2026-03-25 09:30:00,METAR VMMC 250930Z 20010KT CAVOK 26/21 Q1011 NOSIG,1,0,0,9999,0,0,0,
2026-03-25 09:00:00,METAR VMMC 250900Z 20011KT 9999 FEW012 26/21 Q1010 NOSIG,0,11,0,10000,0,0,0,
2026-03-25 08:30:00,METAR VMMC 250830Z 19010KT 9999 FEW012 26/22 Q1011 NOSIG,0,10,0,10000,0,0,0,
2026-03-25 08:00:00,METAR VMMC 250800Z 19009KT 9999 FEW012 26/22 Q1011 NOSIG,0,9,0,10000,0,0,0,
2026-03-25 07:30:00,METAR VMMC 250730Z 19009KT 9999 FEW012 26/21 Q1011 NOSIG,0,9,0,10000,0,0,0,
2026-03-25 07:00:00,METAR VMMC 250700Z 19008KT 160V220 9999 FEW012 27/21 Q1011 NOSIG,0,8,0,10000,0,0,0,
2026-03-25 06:30:00,METAR VMMC 250630Z 18009KT 9999 FEW012 26/21 Q1011 NOSIG,0,9,0,10000,0,0,0,
2026-03-25 06:00:00,METAR VMMC 250600Z 17008KT 9999 FEW012 27/21 Q1012 NOSIG,0,8,0,10000,0,0,0,
2026-03-25 05:30:00,METAR VMMC 250530Z 17007KT 130V190 9999 FEW012 27/21 Q1013 NOSIG,0,7,0,10000,0,0,0,
2026-03-25 05:00:00,METAR VMMC 250500Z 17006KT 140V200 9999 FEW012 26/21 Q1013 NOSIG,0,6,0,10000,0,0,0,
2026-03-25 04:30:00,METAR VMMC 250430Z 16005KT 130V200 9999 FEW012 26/21 Q1013 NOSIG,0,5,0,10000,0,0,0,
2026-03-25 04:00:00,METAR VMMC 250400Z 14005KT 9999 FEW012 26/22 Q1014 NOSIG,0,5,0,10000,0,0,0,
2026-03-25 03:30:00,METAR VMMC 250330Z 13004KT 9000 FEW010 25/22 Q1014 NOSIG,0,4,0,9000,0,0,0,
2026-03-25 03:00:00,METAR VMMC 250300Z 12005KT 100V160 8000 FEW009 25/22 Q1014 NOSIG,0,5,0,8000,0,0,0,
2026-03-25 02:30:00,METAR VMMC 250230Z 09003KT 030V160 7000 FEW010 26/22 Q1014 NOSIG,0,3,0,7000,0,0,0,
2026-03-25 02:00:00,METAR VMMC 250200Z VRB03KT 7000 FEW009 25/22 Q1014 NOSIG,0,3,0,7000,0,0,0,
2026-03-25 01:30:00,METAR VMMC 250130Z 08003KT 030V130 6000 FEW008 24/22 Q1014 TEMPO 4500 BR,0,3,0,6000,0,0,1,BR
2026-03-25 01:00:00,METAR VMMC 250100Z VRB02KT 4700 BR FEW007 24/22 Q1014 NOSIG,0,2,0,4700,0,0,1,BR
2026-03-25 00:30:00,METAR VMMC 250030Z VRB02KT 4000 BR FEW008 24/22 Q1014 NOSIG,0,2,0,4000,0,0,1,BR
2026-03-25 00:00:00,METAR VMMC 250000Z VRB01KT 4200 BR FEW006 23/22 Q1013 NOSIG,0,1,0,4200,0,0,1,BR
2026-03-24 23:30:00,METAR VMMC 242330Z VRB01KT 3100 BR FEW007 23/22 Q1013 NOSIG,0,1,0,3100,0,0,1,BR
2026-03-24 23:00:00,METAR VMMC 242300Z COR 00000KT 2100 BR FEW006 22/21 Q1013 NOSIG,0,0,0,2100,0,0,1,BR
2026-03-24 22:30:00,METAR VMMC 242230Z 06002KT 3000 BR FEW006 22/21 Q1012 TEMPO 2200 BR,0,2,0,3000,0,0,1,BR
2026-03-24 22:00:00,METAR VMMC 242200Z VRB01KT 4800 BR FEW004 22/21 Q1012 NOSIG,0,1,0,4800,0,0,1,BR
2026-03-24 21:30:00,METAR VMMC 242130Z VRB01KT 5000 BR FEW006 22/21 Q1012 NOSIG,0,1,0,5000,0,0,1,BR
2026-03-24 21:00:00,METAR VMMC 242100Z 16002KT 7000 FEW010 22/22 Q1012 NOSIG,0,2,0,7000,0,0,0,
2026-03-24 20:30:00,METAR VMMC 242030Z 16003KT 8000 FEW010 22/21 Q1012 NOSIG,0,3,0,8000,0,0,0,
2026-03-24 20:00:00,METAR VMMC 242000Z VRB02KT 7000 FEW010 23/22 Q1012 TEMPO 3500 BR,0,2,0,7000,0,0,1,BR
2026-03-24 19:30:00,METAR VMMC 241930Z VRB02KT 7000 FEW008 23/22 Q1012 NOSIG,0,2,0,7000,0,0,0,
2026-03-24 19:00:00,METAR VMMC 241900Z VRB01KT 8000 FEW008 23/21 Q1012 NOSIG,0,1,0,8000,0,0,0,
2026-03-24 18:30:00,METAR VMMC 241830Z VRB01KT 9999 FEW008 23/21 Q1012 NOSIG,0,1,0,10000,0,0,0,
2026-03-24 18:00:00,METAR VMMC 241800Z 23002KT 8000 FEW008 23/21 Q1012 TEMPO 3500 BR,0,2,0,8000,0,0,1,BR
2026-03-24 17:30:00,METAR VMMC 241730Z VRB02KT 9000 FEW006 23/22 Q1012 NOSIG,0,2,0,9000,0,0,0,
2026-03-24 17:00:00,METAR VMMC 241700Z 16003KT 9000 FEW006 SCT022 23/22 Q1012 NOSIG,0,3,0,9000,0,0,0,
2026-03-24 16:30:00,METAR VMMC 241630Z 15003KT 120V190 8000 FEW006 SCT015 23/22 Q1012 NOSIG,0,3,0,8000,0,0,0,
2026-03-24 16:00:00,METAR VMMC 241600Z 15005KT 8000 FEW006 SCT015 23/22 Q1013 NOSIG,0,5,0,8000,0,0,0,
2026-03-24 15:30:00,METAR VMMC 241530Z 17005KT 8000 FEW009 SCT015 23/22 Q1013 NOSIG,0,5,0,8000,0,0,0,
2026-03-24 15:00:00,METAR VMMC 241500Z 15008KT 120V180 8000 FEW009 SCT020 23/22 Q1012 NOSIG,0,8,0,8000,0,0,0,
2026-03-24 14:30:00,METAR VMMC 241430Z 13004KT 090V170 8000 FEW010 SCT025 23/22 Q1013 NOSIG,0,4,0,8000,0,0,0,
2026-03-24 14:00:00,METAR VMMC 241400Z 14004KT 100V190 8000 FEW010 SCT025 23/22 Q1013 NOSIG,0,4,0,8000,0,0,0,
2026-03-24 13:30:00,METAR VMMC 241330Z 14004KT 110V170 9000 FEW010 23/22 Q1012 NOSIG,0,4,0,9000,0,0,0,
2026-03-24 13:00:00,METAR VMMC 241300Z 14004KT 100V180 9000 FEW010 23/22 Q1012 NOSIG,0,4,0,9000,0,0,0,
2026-03-24 12:30:00,METAR VMMC 241230Z 15004KT 120V180 9999 FEW010 23/22 Q1012 NOSIG,0,4,0,10000,0,0,0,
2026-03-24 12:00:00,METAR VMMC 241200Z 15005KT 9000 FEW010 23/22 Q1012 NOSIG,0,5,0,9000,0,0,0,
2026-03-24 11:30:00,METAR VMMC 241130Z 15007KT 9000 FEW010 23/22 Q1011 NOSIG,0,7,0,9000,0,0,0,
2026-03-24 11:00:00,METAR VMMC 241100Z 14006KT 8000 FEW010 24/22 Q1011 NOSIG,0,6,0,8000,0,0,0,
2026-03-24 10:30:00,METAR VMMC 241030Z 14006KT 110V170 8000 FEW010 24/22 Q1011 NOSIG,0,6,0,8000,0,0,0,
2026-03-24 10:00:00,METAR VMMC 241000Z 15008KT 9000 FEW010 24/22 Q1011 NOSIG,0,8,0,9000,0,0,0,
2026-03-24 09:30:00,METAR VMMC 240930Z 15007KT 8000 FEW010 24/22 Q1011 NOSIG,0,7,0,8000,0,0,0,
2026-03-24 09:00:00,METAR VMMC 240900Z 14006KT 110V170 8000 FEW011 25/22 Q1011 NOSIG,0,6,0,8000,0,0,0,
2026-03-24 08:30:00,METAR VMMC 240830Z 14007KT 9999 FEW012 25/22 Q1011 NOSIG,0,7,0,10000,0,0,0,
2026-03-24 08:00:00,METAR VMMC 240800Z 14007KT 9999 FEW012 25/22 Q1011 NOSIG,0,7,0,10000,0,0,0,
2026-03-24 07:30:00,METAR VMMC 240730Z 14008KT 9999 FEW012 25/22 Q1011 NOSIG,0,8,0,10000,0,0,0,
2026-03-24 07:00:00,METAR VMMC 240700Z 13007KT 9999 FEW012 25/22 Q1011 NOSIG,0,7,0,10000,0,0,0,
2026-03-24 06:30:00,METAR VMMC 240630Z 14007KT 9999 FEW012 SCT042 26/22 Q1011 NOSIG,0,7,0,10000,0,0,0,
2026-03-24 06:00:00,METAR VMMC 240600Z 13006KT 9999 FEW015 SCT042 26/22 Q1012 NOSIG,0,6,0,10000,0,0,0,
2026-03-24 05:30:00,METAR VMMC 240530Z 14007KT 9999 FEW014 SCT045 25/21 Q1012 NOSIG,0,7,0,10000,0,0,0,
2026-03-24 05:00:00,METAR VMMC 240500Z 14007KT 9999 FEW013 SCT045 25/22 Q1013 NOSIG,0,7,0,10000,0,0,0,
2026-03-24 04:30:00,METAR VMMC 240430Z 14006KT 9999 FEW013 SCT045 25/22 Q1013 NOSIG,0,6,0,10000,0,0,0,
2026-03-24 04:00:00,METAR VMMC 240400Z 12005KT 110V170 9999 FEW012 25/22 Q1014 NOSIG,0,5,0,10000,0,0,0,
2026-03-24 03:30:00,METAR VMMC 240330Z 11004KT 080V170 9999 FEW012 25/21 Q1014 NOSIG,0,4,0,10000,0,0,0,
2026-03-24 03:00:00,METAR VMMC 240300Z 12004KT 9999 FEW012 25/21 Q1014 NOSIG,0,4,0,10000,0,0,0,
2026-03-24 02:30:00,METAR VMMC 240230Z 11003KT 090V150 9999 FEW010 SCT025 25/22 Q1014 NOSIG,0,3,0,10000,0,0,0,
2026-03-24 02:00:00,METAR VMMC 240200Z VRB02KT 9000 FEW010 SCT025 24/21 Q1014 NOSIG,0,2,0,9000,0,0,0,
2026-03-24 01:30:00,METAR VMMC 240130Z VRB02KT 8000 FEW008 SCT022 24/21 Q1014 NOSIG,0,2,0,8000,0,0,0,
2026-03-24 01:00:00,METAR VMMC 240100Z VRB02KT 7000 FEW008 SCT020 23/21 Q1014 NOSIG,0,2,0,7000,0,0,0,
2026-03-24 00:30:00,METAR VMMC 240030Z VRB02KT 6000 FEW008 SCT020 23/21 Q1014 TEMPO 4500 BR,0,2,0,6000,0,0,1,BR
2026-03-24 00:00:00,METAR VMMC 240000Z VRB02KT 7000 FEW008 SCT020 23/21 Q1013 NOSIG,0,2,0,7000,0,0,0,
2026-03-23 23:30:00,METAR VMMC 232330Z 13005KT 5000 BR FEW008 23/21 Q1013 NOSIG,0,5,0,5000,0,0,1,BR
2026-03-23 23:00:00,METAR VMMC 232300Z 13006KT 100V170 6000 FEW012 22/21 Q1013 NOSIG,0,6,0,6000,0,0,0,
2026-03-23 22:30:00,METAR VMMC 232230Z 14007KT 6000 FEW012 22/21 Q1012 TEMPO 4500 BR,0,7,0,6000,0,0,1,BR
2026-03-23 22:00:00,METAR VMMC 232200Z 13006KT 8000 FEW008 22/21 Q1012 NOSIG,0,6,0,8000,0,0,0,
2026-03-23 21:30:00,METAR VMMC 232130Z 13005KT 100V160 7000 FEW008 22/21 Q1011 NOSIG,0,5,0,7000,0,0,0,
2026-03-23 21:00:00,METAR VMMC 232100Z 13007KT 120V180 8000 FEW008 22/21 Q1011 NOSIG,0,7,0,8000,0,0,0,
2026-03-23 20:30:00,METAR VMMC 232030Z 13008KT 7000 FEW005 SCT012 22/21 Q1011 NOSIG,0,8,0,7000,0,0,0,
2026-03-23 20:00:00,METAR VMMC 232000Z 13008KT 7000 FEW006 SCT012 22/21 Q1011 NOSIG,0,8,0,7000,0,0,0,
2026-03-23 19:30:00,METAR VMMC 231930Z 13008KT 9000 FEW010 22/21 Q1011 NOSIG,0,8,0,9000,0,0,0,
2026-03-23 19:00:00,METAR VMMC 231900Z 13007KT 9000 FEW010 22/21 Q1012 NOSIG,0,7,0,9000,0,0,0,
2026-03-23 18:30:00,METAR VMMC 231830Z 12008KT 100V160 8000 FEW010 22/21 Q1012 NOSIG,0,8,0,8000,0,0,0,
2026-03-23 18:00:00,METAR VMMC 231800Z 14007KT 9999 FEW012 22/20 Q1012 NOSIG,0,7,0,10000,0,0,0,
2026-03-23 17:30:00,METAR VMMC 231730Z 13006KT 100V160 9999 FEW012 22/20 Q1013 NOSIG,0,6,0,10000,0,0,0,
2026-03-23 17:00:00,METAR VMMC 231700Z 13006KT 9999 FEW012 22/20 Q1013 NOSIG,0,6,0,10000,0,0,0,
2026-03-23 16:30:00,METAR VMMC 231630Z 12005KT 100V160 9999 FEW010 22/20 Q1014 NOSIG,0,5,0,10000,0,0,0,
2026-03-23 16:00:00,METAR VMMC 231600Z 13006KT 110V170 9999 FEW010 22/20 Q1014 NOSIG,0,6,0,10000,0,0,0,
2026-03-23 15:30:00,METAR VMMC 231530Z 13008KT 9999 FEW010 22/21 Q1014 NOSIG,0,8,0,10000,0,0,0,
2026-03-23 15:00:00,METAR VMMC 231500Z 13006KT 9999 FEW011 23/20 Q1014 NOSIG,0,6,0,10000,0,0,0,
2026-03-23 14:30:00,METAR VMMC 231430Z 14006KT 110V170 9999 FEW011 23/21 Q1014 NOSIG,0,6,0,10000,0,0,0,
2026-03-23 14:00:00,METAR VMMC 231400Z 15006KT 9999 FEW012 23/21 Q1014 NOSIG,0,6,0,10000,0,0,0,
2026-03-23 13:30:00,METAR VMMC 231330Z 15006KT 9999 FEW012 23/21 Q1014 NOSIG,0,6,0,10000,0,0,0,
2026-03-23 13:00:00,METAR VMMC 231300Z 16005KT 9999 FEW012 22/20 Q1014 NOSIG,0,5,0,10000,0,0,0,
2026-03-23 12:30:00,METAR VMMC 231230Z 15004KT 9999 FEW012 23/20 Q1013 NOSIG,0,4,0,10000,0,0,0,
2026-03-23 12:00:00,METAR VMMC 231200Z 15005KT 9999 FEW013 23/20 Q1013 NOSIG,0,5,0,10000,0,0,0,
2026-03-23 11:30:00,METAR VMMC 231130Z 14005KT 110V170 9999 FEW013 23/20 Q1013 NOSIG,0,5,0,10000,0,0,0,
2026-03-23 11:00:00,METAR VMMC 231100Z 15005KT 9999 FEW013 23/20 Q1013 NOSIG,0,5,0,10000,0,0,0,
2026-03-23 10:30:00,METAR VMMC 231030Z 15005KT 9999 FEW012 23/20 Q1012 NOSIG,0,5,0,10000,0,0,0,
2026-03-23 10:00:00,METAR VMMC 231000Z 15005KT 120V180 9999 FEW012 24/20 Q1013 NOSIG,0,5,0,10000,0,0,0,
2026-03-23 09:30:00,METAR VMMC 230930Z 15005KT 120V180 9999 FEW012 24/20 Q1012 NOSIG,0,5,0,10000,0,0,0,
2026-03-23 09:00:00,METAR VMMC 230900Z 17006KT 9999 FEW012 24/20 Q1012 NOSIG,0,6,0,10000,0,0,0,
2026-03-23 08:30:00,METAR VMMC 230830Z 17007KT 9999 FEW012 24/20 Q1012 NOSIG,0,7,0,10000,0,0,0,
2026-03-23 08:00:00,METAR VMMC 230800Z 15007KT 9999 FEW012 24/20 Q1012 NOSIG,0,7,0,10000,0,0,0,
2026-03-23 07:30:00,METAR VMMC 230730Z 15007KT 9999 FEW012 25/20 Q1012 NOSIG,0,7,0,10000,0,0,0,
2026-03-23 07:00:00,METAR VMMC 230700Z 14007KT 9999 FEW012 25/20 Q1013 NOSIG,0,7,0,10000,0,0,0,
2026-03-23 06:30:00,METAR VMMC 230630Z 14006KT 9999 FEW012 25/20 Q1013 NOSIG,0,6,0,10000,0,0,0,
2026-03-23 06:00:00,METAR VMMC 230600Z 14007KT 9999 FEW012 25/20 Q1013 NOSIG,0,7,0,10000,0,0,0,
2026-03-23 05:30:00,METAR VMMC 230530Z 13007KT 9999 FEW012 25/20 Q1014 NOSIG,0,7,0,10000,0,0,0,
2026-03-23 05:00:00,METAR VMMC 230500Z 13005KT 100V160 9999 FEW012 25/20 Q1014 NOSIG,0,5,0,10000,0,0,0,
2026-03-23 04:30:00,METAR VMMC 230430Z 13004KT 9999 FEW012 SCT022 24/20 Q1015 NOSIG,0,4,0,10000,0,0,0,
2026-03-23 04:00:00,METAR VMMC 230400Z 13005KT 9999 FEW012 SCT022 24/20 Q1015 NOSIG,0,5,0,10000,0,0,0,
2026-03-23 03:30:00,METAR VMMC 230330Z 10004KT 060V150 9999 FEW012 SCT022 24/20 Q1015 NOSIG,0,4,0,10000,0,0,0,
2026-03-23 03:00:00,METAR VMMC 230300Z 13005KT 9999 FEW012 SCT022 24/20 Q1015 NOSIG,0,5,0,10000,0,0,0,
2026-03-23 02:30:00,METAR VMMC 230230Z 13005KT 100V170 9999 FEW010 SCT018 23/20 Q1015 NOSIG,0,5,0,10000,0,0,0,
2026-03-23 02:00:00,METAR VMMC 230200Z 13006KT 110V170 9999 FEW010 SCT018 23/20 Q1015 NOSIG,0,6,0,10000,0,0,0,
2026-03-23 01:30:00,METAR VMMC 230130Z 12005KT 110V170 9000 FEW007 SCT015 23/20 Q1015 NOSIG,0,5,0,9000,0,0,0,
2026-03-23 01:00:00,METAR VMMC 230100Z 13005KT 110V170 9000 FEW007 SCT015 22/20 Q1015 NOSIG,0,5,0,9000,0,0,0,
2026-03-23 00:30:00,METAR VMMC 230030Z 13006KT 7000 FEW010 SCT015 22/20 Q1015 NOSIG,0,6,0,7000,0,0,0,
2026-03-23 00:00:00,METAR VMMC 230000Z 13004KT 6000 FEW007 SCT012 22/20 Q1015 NOSIG,0,4,0,6000,0,0,0,
2026-03-22 23:30:00,METAR VMMC 222330Z 14005KT 6000 FEW006 SCT012 22/20 Q1014 NOSIG,0,5,0,6000,0,0,0,
2026-03-22 23:00:00,METAR VMMC 222300Z 16004KT 6000 FEW006 SCT012 21/20 Q1014 TEMPO 4500 BR,0,4,0,6000,0,0,1,BR
2026-03-22 22:30:00,METAR VMMC 222230Z 14004KT 100V180 7000 FEW006 SCT010 21/20 Q1014 NOSIG,0,4,0,7000,0,0,0,
2026-03-22 22:00:00,METAR VMMC 222200Z 15004KT 7000 FEW007 SCT012 21/20 Q1014 NOSIG,0,4,0,7000,0,0,0,
2026-03-22 21:30:00,METAR VMMC 222130Z 16004KT 9000 FEW008 SCT012 21/20 Q1014 NOSIG,0,4,0,9000,0,0,0,
2026-03-22 21:00:00,METAR VMMC 222100Z VRB01KT 8000 FEW006 SCT012 21/19 Q1013 NOSIG,0,1,0,8000,0,0,0,
2026-03-22 20:30:00,METAR VMMC 222030Z 17001KT 9000 FEW006 SCT012 21/20 Q1013 NOSIG,0,1,0,9000,0,0,0,
2026-03-22 20:00:00,METAR VMMC 222000Z 13003KT 100V180 9000 FEW006 SCT018 21/20 Q1013 NOSIG,0,3,0,9000,0,0,0,
2026-03-22 19:30:00,METAR VMMC 221930Z 12003KT 080V180 9000 FEW006 21/20 Q1013 NOSIG,0,3,0,9000,0,0,0,
2026-03-22 19:00:00,METAR VMMC 221900Z VRB03KT 9000 FEW006 22/20 Q1014 NOSIG,0,3,0,9000,0,0,0,
2026-03-22 18:30:00,METAR VMMC 221830Z 14004KT 100V160 9999 FEW006 22/20 Q1014 NOSIG,0,4,0,10000,0,0,0,
2026-03-22 18:00:00,METAR VMMC 221800Z VRB02KT 9999 FEW006 21/20 Q1015 NOSIG,0,2,0,10000,0,0,0,
2026-03-22 17:30:00,METAR VMMC 221730Z VRB02KT 9999 FEW010 21/20 Q1015 NOSIG,0,2,0,10000,0,0,0,
2026-03-22 17:00:00,METAR VMMC 221700Z VRB02KT 9999 FEW010 22/20 Q1015 NOSIG,0,2,0,10000,0,0,0,
2026-03-22 16:30:00,METAR VMMC 221630Z 16004KT 9999 FEW012 21/20 Q1016 NOSIG,0,4,0,10000,0,0,0,
2026-03-22 16:00:00,METAR VMMC 221600Z 15005KT 9999 FEW012 22/20 Q1016 NOSIG,0,5,0,10000,0,0,0,
2026-03-22 15:30:00,METAR VMMC 221530Z 15005KT 110V170 9999 FEW015 22/20 Q1016 NOSIG,0,5,0,10000,0,0,0,
2026-03-22 15:00:00,METAR VMMC 221500Z 14006KT 9999 FEW020 22/20 Q1016 NOSIG,0,6,0,10000,0,0,0,
2026-03-22 14:30:00,METAR VMMC 221430Z 13006KT 110V170 9999 FEW020 22/20 Q1016 NOSIG,0,6,0,10000,0,0,0,
2026-03-22 13:30:00,METAR VMMC 221330Z 12006KT 9999 FEW020 22/20 Q1016 NOSIG,0,6,0,10000,0,0,0,
2026-03-22 12:30:00,METAR VMMC 221230Z 10005KT 070V130 9999 FEW015 SCT022 22/20 Q1016 NOSIG,0,5,0,10000,0,0,0,
2026-03-22 12:00:00,METAR VMMC 221200Z 10004KT 070V170 9999 FEW012 SCT020 23/20 Q1015 NOSIG,0,4,0,10000,0,0,0,
2026-03-22 11:30:00,METAR VMMC 221130Z 12006KT 100V180 9999 FEW010 SCT020 23/20 Q1015 NOSIG,0,6,0,10000,0,0,0,
2026-03-22 10:30:00,METAR VMMC 221030Z 14006KT 100V170 9999 FEW012 SCT020 23/20 Q1014 NOSIG,0,6,0,10000,0,0,0,
2026-03-22 09:30:00,METAR VMMC 220930Z 14008KT 9999 FEW020 23/20 Q1014 NOSIG,0,8,0,10000,0,0,0,
2026-03-22 09:00:00,METAR VMMC 220900Z 14008KT 100V160 9000 FEW020 23/20 Q1014 NOSIG,0,8,0,9000,0,0,0,
2026-03-22 08:30:00,METAR VMMC 220830Z 14009KT 9999 FEW020 23/20 Q1014 NOSIG,0,9,0,10000,0,0,0,
2026-03-22 08:00:00,METAR VMMC 220800Z 14007KT 100V160 9999 FEW020 23/20 Q1014 NOSIG,0,7,0,10000,0,0,0,
2026-03-22 07:30:00,METAR VMMC 220730Z 14007KT 110V170 9999 FEW015 24/20 Q1014 NOSIG,0,7,0,10000,0,0,0,
2026-03-22 07:00:00,METAR VMMC 220700Z 12005KT 100V160 9999 FEW012 24/20 Q1014 NOSIG,0,5,0,10000,0,0,0,
2026-03-22 06:30:00,METAR VMMC 220630Z 10005KT 040V160 9999 FEW012 23/19 Q1015 NOSIG,0,5,0,10000,0,0,0,
2026-03-22 05:30:00,METAR VMMC 220530Z 11008KT 090V160 9999 FEW012 SCT030 23/19 Q1016 NOSIG,0,8,0,10000,0,0,0,
2026-03-22 05:00:00,METAR VMMC 220500Z 11010KT 080V140 9999 FEW015 23/20 Q1016 NOSIG,0,10,0,10000,0,0,0,
2026-03-22 04:30:00,METAR VMMC 220430Z 11010KT 9999 FEW015 23/20 Q1016 NOSIG,0,10,0,10000,0,0,0,
2026-03-22 04:00:00,METAR VMMC 220400Z 11011KT 090V150 9999 FEW012 23/19 Q1017 NOSIG,0,11,0,10000,0,0,0,
2026-03-22 03:30:00,METAR VMMC 220330Z 10013KT 9999 FEW012 23/19 Q1017 NOSIG,0,13,0,10000,0,0,0,
2026-03-22 03:00:00,METAR VMMC 220300Z 10014KT 9999 FEW012 23/19 Q1017 NOSIG,0,14,0,10000,0,0,0,
2026-03-22 02:30:00,METAR VMMC 220230Z 10014KT 9999 FEW012 SCT030 23/19 Q1017 NOSIG,0,14,0,10000,0,0,0,
2026-03-22 02:00:00,METAR VMMC 220200Z 11013KT 9999 FEW012 SCT030 23/19 Q1017 NOSIG,0,13,0,10000,0,0,0,
2026-03-22 01:30:00,METAR VMMC 220130Z 10013KT 9999 FEW012 SCT030 23/19 Q1017 NOSIG,0,13,0,10000,0,0,0,
2026-03-22 01:00:00,METAR VMMC 220100Z 10013KT 9999 FEW012 SCT020 22/19 Q1017 NOSIG,0,13,0,10000,0,0,0,
2026-03-22 00:30:00,METAR VMMC 220030Z 10013KT 9999 FEW012 SCT020 22/19 Q1017 NOSIG,0,13,0,10000,0,0,0,
2026-03-22 00:00:00,METAR VMMC 220000Z 10012KT 9999 FEW010 SCT020 22/19 Q1016 NOSIG,0,12,0,10000,0,0,0,
2026-03-21 23:30:00,METAR VMMC 212330Z 10013KT 9999 FEW010 SCT020 22/19 Q1016 NOSIG,0,13,0,10000,0,0,0,
2026-03-21 23:00:00,METAR VMMC 212300Z 11013KT 9999 FEW010 SCT020 22/19 Q1015 NOSIG,0,13,0,10000,0,0,0,
2026-03-21 22:30:00,METAR VMMC 212230Z 10013KT 9999 FEW010 SCT020 22/19 Q1015 NOSIG,0,13,0,10000,0,0,0,
2026-03-21 21:30:00,METAR VMMC 212130Z 09012KT 9999 FEW010 SCT020 22/19 Q1015 NOSIG,0,12,0,10000,0,0,0,
2026-03-21 21:00:00,METAR VMMC 212100Z 09013KT 070V130 9999 FEW010 SCT018 22/20 Q1014 NOSIG,0,13,0,10000,0,0,0,
2026-03-21 20:30:00,METAR VMMC 212030Z 09013KT 070V130 9999 FEW010 SCT018 22/20 Q1014 NOSIG,0,13,0,10000,0,0,0,
2026-03-21 20:00:00,METAR VMMC 212000Z 09012KT 040V130 9999 FEW010 SCT018 22/19 Q1014 NOSIG,0,12,0,10000,0,0,0,
2026-03-21 19:30:00,METAR VMMC 211930Z 10014KT 9999 FEW010 SCT018 22/19 Q1014 NOSIG,0,14,0,10000,0,0,0,
2026-03-21 19:00:00,METAR VMMC 211900Z 09012KT 9999 FEW010 SCT018 22/20 Q1015 NOSIG,0,12,0,10000,0,0,0,
2026-03-21 18:30:00,METAR VMMC 211830Z 10011KT 070V140 9999 FEW010 SCT018 22/20 Q1015 NOSIG,0,11,0,10000,0,0,0,
2026-03-21 18:00:00,METAR VMMC 211800Z 10009KT 9999 FEW010 SCT020 22/19 Q1015 NOSIG,0,9,0,10000,0,0,0,
2026-03-21 17:30:00,METAR VMMC 211730Z 09010KT 9999 FEW010 SCT020 22/20 Q1015 NOSIG,0,10,0,10000,0,0,0,
2026-03-21 17:00:00,METAR VMMC 211700Z 10011KT 060V120 9999 FEW010 SCT020 22/20 Q1016 NOSIG,0,11,0,10000,0,0,0,
2026-03-21 16:30:00,METAR VMMC 211630Z 09011KT 9999 FEW010 SCT020 22/20 Q1016 NOSIG,0,11,0,10000,0,0,0,
2026-03-21 16:00:00,METAR VMMC 211600Z 09010KT 050V110 9999 -RA FEW010 SCT016 22/20 Q1016 NOSIG,0,10,0,10000,0,0,0,-RA
2026-03-21 15:30:00,METAR VMMC 211530Z 10008KT 070V130 9999 -RA FEW010 SCT016 22/20 Q1016 NOSIG,0,8,0,10000,0,0,0,-RA
2026-03-21 14:30:00,METAR VMMC 211430Z 10011KT 9999 FEW010 SCT016 22/20 Q1016 NOSIG,0,11,0,10000,0,0,0,
2026-03-21 14:00:00,METAR VMMC 211400Z 10010KT 070V130 9999 FEW010 SCT016 22/20 Q1016 NOSIG,0,10,0,10000,0,0,0,
2026-03-21 13:30:00,METAR VMMC 211330Z 10011KT 9999 -RA FEW010 SCT016 22/19 Q1016 NOSIG,0,11,0,10000,0,0,0,-RA
2026-03-21 13:00:00,METAR VMMC 211300Z 10009KT 9999 FEW010 SCT020 22/19 Q1016 NOSIG,0,9,0,10000,0,0,0,
2026-03-21 12:30:00,METAR VMMC 211230Z 10011KT 9999 FEW010 SCT020 22/19 Q1016 NOSIG,0,11,0,10000,0,0,0,
2026-03-21 12:00:00,METAR VMMC 211200Z 10009KT 9999 FEW010 SCT018 22/19 Q1016 NOSIG,0,9,0,10000,0,0,0,
2026-03-21 11:30:00,METAR VMMC 211130Z 10009KT 9999 FEW010 SCT018 22/19 Q1015 NOSIG,0,9,0,10000,0,0,0,
2026-03-21 11:00:00,METAR VMMC 211100Z 10009KT 070V150 9000 FEW010 SCT018 22/20 Q1015 NOSIG,0,9,0,9000,0,0,0,
2026-03-21 10:30:00,METAR VMMC 211030Z 10009KT 080V140 9000 FEW010 SCT018 22/19 Q1015 NOSIG,0,9,0,9000,0,0,0,
2026-03-21 10:00:00,METAR VMMC 211000Z 10010KT 9999 FEW012 SCT020 22/19 Q1015 NOSIG,0,10,0,10000,0,0,0,
2026-03-21 09:30:00,METAR VMMC 210930Z 10010KT 9999 FEW010 SCT020 22/19 Q1015 NOSIG,0,10,0,10000,0,0,0,
2026-03-21 09:00:00,METAR VMMC 210900Z 11009KT 9999 FEW010 SCT020 22/19 Q1015 NOSIG,0,9,0,10000,0,0,0,
2026-03-21 08:30:00,METAR VMMC 210830Z 10008KT 070V140 9999 FEW010 SCT020 22/19 Q1015 NOSIG,0,8,0,10000,0,0,0,
2026-03-21 08:00:00,METAR VMMC 210800Z 10009KT 9999 FEW010 SCT020 22/19 Q1015 NOSIG,0,9,0,10000,0,0,0,
2026-03-21 07:30:00,METAR VMMC 210730Z 10008KT 050V120 9999 FEW010 SCT020 22/19 Q1015 NOSIG,0,8,0,10000,0,0,0,
2026-03-21 07:00:00,METAR VMMC 210700Z 10009KT 9999 FEW010 SCT020 22/19 Q1015 NOSIG,0,9,0,10000,0,0,0,
2026-03-21 06:30:00,METAR VMMC 210630Z 10009KT 8000 FEW010 SCT020 23/19 Q1016 NOSIG,0,9,0,8000,0,0,0,
2026-03-21 06:00:00,METAR VMMC 210600Z 10009KT 060V130 7000 FEW010 SCT020 23/19 Q1016 NOSIG,0,9,0,7000,0,0,0,
2026-03-21 05:30:00,METAR VMMC 210530Z VRB09KT 7000 FEW010 SCT020 22/19 Q1017 NOSIG,0,9,0,7000,0,0,0,
2026-03-21 04:30:00,METAR VMMC 210430Z 09009KT 050V110 7000 FEW010 SCT020 22/19 Q1017 NOSIG,0,9,0,7000,0,0,0,
2026-03-21 04:00:00,METAR VMMC 210400Z 10011KT 7000 FEW010 SCT020 22/19 Q1018 NOSIG,0,11,0,7000,0,0,0,
2026-03-21 03:30:00,METAR VMMC 210330Z 09010KT 050V120 7000 FEW010 SCT020 22/19 Q1018 NOSIG,0,10,0,7000,0,0,0,
2026-03-21 03:00:00,METAR VMMC 210300Z 09010KT 340V120 6000 FEW010 SCT020 22/19 Q1018 NOSIG,0,10,0,6000,0,0,0,
2026-03-21 02:30:00,METAR VMMC 210230Z 10013KT 6000 FEW010 SCT025 22/19 Q1018 TEMPO 4500 -RA,0,13,0,6000,0,0,0,-RA
2026-03-21 02:00:00,METAR VMMC 210200Z 10012KT 6000 -RA FEW010 SCT025 22/20 Q1018 NOSIG,0,12,0,6000,0,0,0,-RA
2026-03-21 01:30:00,METAR VMMC 210130Z 10012KT 060V130 6000 -RA FEW010 SCT025 21/19 Q1018 NOSIG,0,12,0,6000,0,0,0,-RA
2026-03-21 01:00:00,METAR VMMC 210100Z 11011KT 6000 -RA FEW010 SCT020 21/19 Q1018 NOSIG,0,11,0,6000,0,0,0,-RA
2026-03-21 00:30:00,METAR VMMC 210030Z 10013KT 7000 -RA FEW010 SCT020 21/19 Q1017 TEMPO 4500 -RA,0,13,0,7000,0,0,0,-RA
2026-03-21 00:00:00,METAR VMMC 210000Z VRB10KT 8000 FEW009 SCT020 22/19 Q1017 NOSIG,0,10,0,8000,0,0,0,
2026-03-20 23:30:00,METAR VMMC 202330Z 09008KT 060V150 7000 FEW009 SCT020 22/19 Q1017 NOSIG,0,8,0,7000,0,0,0,
2026-03-20 23:00:00,METAR VMMC 202300Z 09009KT 060V140 6000 -RA FEW008 SCT018 22/19 Q1016 TEMPO 4500 -RA,0,9,0,6000,0,0,0,-RA
2026-03-20 22:30:00,METAR VMMC 202230Z 09009KT 060V130 8000 FEW008 SCT018 22/20 Q1016 NOSIG,0,9,0,8000,0,0,0,
2026-03-20 22:00:00,METAR VMMC 202200Z 08012KT 050V130 9999 FEW010 SCT018 22/20 Q1015 NOSIG,0,12,0,10000,0,0,0,
2026-03-20 21:30:00,METAR VMMC 202130Z 09010KT 060V120 9999 FEW010 SCT018 22/20 Q1015 NOSIG,0,10,0,10000,0,0,0,
2026-03-20 21:00:00,METAR VMMC 202100Z 10007KT 070V130 9000 FEW008 SCT018 22/20 Q1015 NOSIG,0,7,0,9000,0,0,0,
2026-03-20 20:30:00,METAR VMMC 202030Z 11011KT 9000 FEW010 SCT020 22/20 Q1015 NOSIG,0,11,0,9000,0,0,0,
2026-03-20 19:30:00,METAR VMMC 201930Z 08009KT 050V130 8000 -RA FEW008 SCT018 22/20 Q1015 NOSIG,0,9,0,8000,0,0,0,-RA
2026-03-20 18:30:00,METAR VMMC 201830Z 09010KT 050V140 8000 FEW008 SCT018 22/20 Q1015 NOSIG,0,10,0,8000,0,0,0,
2026-03-20 18:00:00,METAR VMMC 201800Z 09009KT 050V140 8000 FEW008 SCT018 22/20 Q1015 NOSIG,0,9,0,8000,0,0,0,
2026-03-20 17:30:00,METAR VMMC 201730Z 09007KT 8000 FEW008 SCT018 22/20 Q1016 NOSIG,0,7,0,8000,0,0,0,
2026-03-20 16:30:00,METAR VMMC 201630Z 10008KT 080V150 8000 FEW010 SCT018 22/20 Q1016 NOSIG,0,8,0,8000,0,0,0,
2026-03-20 15:30:00,METAR VMMC 201530Z 10012KT 9000 FEW010 SCT025 22/20 Q1016 NOSIG,0,12,0,9000,0,0,0,
2026-03-20 14:30:00,METAR VMMC 201430Z 11012KT 9000 FEW010 SCT020 22/20 Q1016 NOSIG,0,12,0,9000,0,0,0,
2026-03-20 14:00:00,METAR VMMC 201400Z 10010KT 070V170 9000 FEW010 SCT018 22/20 Q1016 NOSIG,0,10,0,9000,0,0,0,
2026-03-20 13:30:00,METAR VMMC 201330Z 10010KT 090V240 9000 FEW010 SCT018 22/20 Q1016 NOSIG,0,10,0,9000,0,0,0,
2026-03-20 12:30:00,METAR VMMC 201230Z 10009KT 9000 FEW010 SCT025 22/20 Q1015 NOSIG,0,9,0,9000,0,0,0,
2026-03-20 11:30:00,METAR VMMC 201130Z 10010KT 9000 FEW009 SCT025 22/20 Q1014 NOSIG,0,10,0,9000,0,0,0,
2026-03-20 11:00:00,METAR VMMC 201100Z 10008KT 050V110 8000 FEW009 SCT020 22/20 Q1014 NOSIG,0,8,0,8000,0,0,0,
2026-03-20 10:30:00,METAR VMMC 201030Z 10008KT 080V140 8000 FEW010 SCT020 22/20 Q1014 NOSIG,0,8,0,8000,0,0,0,
2026-03-20 10:00:00,METAR VMMC 201000Z 10009KT 070V140 8000 FEW010 SCT020 22/20 Q1014 NOSIG,0,9,0,8000,0,0,0,
2026-03-20 09:30:00,METAR VMMC 200930Z 09008KT 060V130 8000 FEW010 SCT020 22/20 Q1014 NOSIG,0,8,0,8000,0,0,0,
2026-03-20 09:00:00,METAR VMMC 200900Z 10007KT 9000 FEW008 SCT020 22/20 Q1014 NOSIG,0,7,0,9000,0,0,0,
2026-03-20 08:30:00,METAR VMMC 200830Z 12009KT 090V150 9000 FEW008 SCT020 23/20 Q1013 NOSIG,0,9,0,9000,0,0,0,
2026-03-20 08:00:00,METAR VMMC 200800Z 12009KT 9000 FEW008 SCT020 23/20 Q1014 NOSIG,0,9,0,9000,0,0,0,
2026-03-20 07:30:00,METAR VMMC 200730Z 11009KT 9000 FEW008 SCT020 23/20 Q1014 NOSIG,0,9,0,9000,0,0,0,
2026-03-20 07:00:00,METAR VMMC 200700Z 13009KT 090V160 9999 FEW010 SCT020 23/20 Q1014 NOSIG,0,9,0,10000,0,0,0,
2026-03-20 06:30:00,METAR VMMC 200630Z 11009KT 080V150 9999 FEW010 SCT020 23/20 Q1014 NOSIG,0,9,0,10000,0,0,0,
2026-03-20 06:00:00,METAR VMMC 200600Z 11011KT 9999 FEW010 SCT020 23/20 Q1015 NOSIG,0,11,0,10000,0,0,0,
2026-03-20 05:30:00,METAR VMMC 200530Z 10009KT 070V150 9999 FEW010 SCT020 22/19 Q1015 NOSIG,0,9,0,10000,0,0,0,
2026-03-20 05:00:00,METAR VMMC 200500Z 10011KT 9999 FEW010 SCT020 22/19 Q1016 NOSIG,0,11,0,10000,0,0,0,
2026-03-20 04:30:00,METAR VMMC 200430Z 11012KT 9999 FEW010 SCT022 22/19 Q1016 NOSIG,0,12,0,10000,0,0,0,
2026-03-20 04:00:00,METAR VMMC 200400Z 11010KT 9999 FEW010 SCT022 22/19 Q1016 NOSIG,0,10,0,10000,0,0,0,
2026-03-20 03:30:00,METAR VMMC 200330Z 09011KT 040V120 9999 FEW010 SCT018 22/19 Q1017 NOSIG,0,11,0,10000,0,0,0,
2026-03-20 03:00:00,METAR VMMC 200300Z 10011KT 9999 FEW010 SCT018 22/19 Q1017 NOSIG,0,11,0,10000,0,0,0,
2026-03-20 02:30:00,METAR VMMC 200230Z 10010KT 070V130 9999 FEW008 SCT018 22/19 Q1017 NOSIG,0,10,0,10000,0,0,0,
2026-03-20 02:00:00,METAR VMMC 200200Z 10011KT 9999 FEW008 SCT020 22/19 Q1017 NOSIG,0,11,0,10000,0,0,0,
2026-03-20 01:30:00,METAR VMMC 200130Z 10012KT 9999 FEW008 SCT020 22/19 Q1017 NOSIG,0,12,0,10000,0,0,0,
2026-03-20 01:00:00,METAR VMMC 200100Z 09013KT 9999 FEW008 SCT020 22/19 Q1016 NOSIG,0,13,0,10000,0,0,0,
2026-03-20 00:30:00,METAR VMMC 200030Z 09012KT 070V140 9999 FEW008 SCT020 22/19 Q1016 NOSIG,0,12,0,10000,0,0,0,
2026-03-20 00:00:00,METAR VMMC 200000Z 09012KT 9999 FEW008 SCT020 21/19 Q1016 NOSIG,0,12,0,10000,0,0,0,
2026-03-19 23:30:00,METAR VMMC 192330Z 09011KT 010V130 9000 FEW008 SCT018 21/19 Q1015 NOSIG,0,11,0,9000,0,0,0,
2026-03-19 23:00:00,METAR VMMC 192300Z 09013KT 9000 FEW008 SCT018 21/19 Q1015 NOSIG,0,13,0,9000,0,0,0,
2026-03-19 22:30:00,METAR VMMC 192230Z 09014KT 040V120 9000 FEW008 SCT020 21/20 Q1014 NOSIG,0,14,0,9000,0,0,0,
2026-03-19 22:00:00,METAR VMMC 192200Z 09013KT 070V200 9999 FEW008 SCT020 22/20 Q1014 NOSIG,0,13,0,10000,0,0,0,
2026-03-19 21:30:00,METAR VMMC 192130Z 09013KT 060V120 9999 FEW008 SCT020 21/20 Q1013 NOSIG,0,13,0,10000,0,0,0,
2026-03-19 21:00:00,METAR VMMC 192100Z 09013KT 060V120 9999 FEW008 SCT020 22/20 Q1013 NOSIG,0,13,0,10000,0,0,0,
2026-03-19 20:30:00,METAR VMMC 192030Z 09012KT 9999 FEW008 SCT020 22/20 Q1013 NOSIG,0,12,0,10000,0,0,0,
2026-03-19 20:00:00,METAR VMMC 192000Z 09012KT 9000 FEW008 SCT020 22/20 Q1013 NOSIG,0,12,0,9000,0,0,0,
2026-03-19 19:30:00,METAR VMMC 191930Z 09011KT 060V140 9000 FEW010 SCT020 22/20 Q1013 NOSIG,0,11,0,9000,0,0,0,
2026-03-19 19:00:00,METAR VMMC 191900Z 10009KT 070V130 9000 FEW015 22/21 Q1013 NOSIG,0,9,0,9000,0,0,0,
2026-03-19 18:30:00,METAR VMMC 191830Z 07003KT 040V100 9000 FEW015 22/21 Q1013 TEMPO 3500 BR,0,3,0,9000,0,0,1,BR
2026-03-19 18:00:00,METAR VMMC 191800Z VRB02KT 9999 FEW015 22/21 Q1013 NOSIG,0,2,0,10000,0,0,0,
2026-03-19 17:30:00,METAR VMMC 191730Z VRB02KT 9999 FEW015 22/20 Q1014 NOSIG,0,2,0,10000,0,0,0,
2026-03-19 17:00:00,METAR VMMC 191700Z 15003KT 9999 FEW015 22/20 Q1014 NOSIG,0,3,0,10000,0,0,0,
2026-03-19 16:30:00,METAR VMMC 191630Z 16004KT 9999 FEW015 22/20 Q1014 NOSIG,0,4,0,10000,0,0,0,
2026-03-19 16:00:00,METAR VMMC 191600Z 15004KT 9999 FEW015 22/20 Q1014 NOSIG,0,4,0,10000,0,0,0,
2026-03-19 15:30:00,METAR VMMC 191530Z 16005KT 9999 FEW020 22/20 Q1014 NOSIG,0,5,0,10000,0,0,0,
2026-03-19 15:00:00,METAR VMMC 191500Z 16005KT 9999 FEW020 22/20 Q1014 NOSIG,0,5,0,10000,0,0,0,
2026-03-19 14:30:00,METAR VMMC 191430Z 16007KT CAVOK 22/20 Q1014 NOSIG,1,0,0,9999,0,0,0,
2026-03-19 13:30:00,METAR VMMC 191330Z 16006KT CAVOK 22/20 Q1014 NOSIG,1,0,0,9999,0,0,0,
2026-03-19 13:00:00,METAR VMMC 191300Z 17005KT CAVOK 22/19 Q1014 NOSIG,1,0,0,9999,0,0,0,
2026-03-19 12:30:00,METAR VMMC 191230Z 19005KT 160V220 CAVOK 23/19 Q1013 NOSIG,1,0,0,9999,0,0,0,
2026-03-19 11:30:00,METAR VMMC 191130Z 18007KT CAVOK 23/18 Q1013 NOSIG,1,0,0,9999,0,0,0,
2026-03-19 11:00:00,METAR VMMC 191100Z 18007KT CAVOK 23/19 Q1012 NOSIG,1,0,0,9999,0,0,0,
2026-03-19 10:30:00,METAR VMMC 191030Z 17007KT 140V200 CAVOK 23/18 Q1012 NOSIG,1,0,0,9999,0,0,0,
2026-03-19 10:00:00,METAR VMMC 191000Z 18007KT CAVOK 24/19 Q1012 NOSIG,1,0,0,9999,0,0,0,
2026-03-19 09:30:00,METAR VMMC 190930Z 18007KT CAVOK 24/18 Q1012 NOSIG,1,0,0,9999,0,0,0,
2026-03-19 09:00:00,METAR VMMC 190900Z 19009KT CAVOK 25/18 Q1012 NOSIG,1,0,0,9999,0,0,0,
2026-03-19 08:30:00,METAR VMMC 190830Z 19008KT 9999 FEW020 25/19 Q1012 NOSIG,0,8,0,10000,0,0,0,
2026-03-19 08:00:00,METAR VMMC 190800Z 19009KT 9999 FEW018 25/19 Q1012 NOSIG,0,9,0,10000,0,0,0,
2026-03-19 07:30:00,METAR VMMC 190730Z 18008KT 9999 FEW018 25/19 Q1012 NOSIG,0,8,0,10000,0,0,0,
2026-03-19 07:00:00,METAR VMMC 190700Z 18008KT 9999 FEW018 25/19 Q1012 NOSIG,0,8,0,10000,0,0,0,
2026-03-19 06:30:00,METAR VMMC 190630Z 18008KT 9999 FEW018 25/19 Q1013 NOSIG,0,8,0,10000,0,0,0,
2026-03-19 06:00:00,METAR VMMC 190600Z 19008KT 9999 FEW015 25/19 Q1013 NOSIG,0,8,0,10000,0,0,0,
2026-03-19 05:30:00,METAR VMMC 190530Z 19010KT 9999 FEW015 25/20 Q1014 NOSIG,0,10,0,10000,0,0,0,
2026-03-19 05:00:00,METAR VMMC 190500Z 18010KT 9999 FEW012 24/20 Q1014 NOSIG,0,10,0,10000,0,0,0,
2026-03-19 04:30:00,METAR VMMC 190430Z 19010KT 9999 FEW012 25/20 Q1015 NOSIG,0,10,0,10000,0,0,0,
2026-03-19 04:00:00,METAR VMMC 190400Z 19009KT 9999 FEW012 24/20 Q1015 NOSIG,0,9,0,10000,0,0,0,
2026-03-19 03:30:00,METAR VMMC 190330Z 18008KT 160V220 9000 FEW012 24/21 Q1016 NOSIG,0,8,0,9000,0,0,0,
2026-03-19 03:00:00,METAR VMMC 190300Z 17008KT 9000 FEW012 24/21 Q1016 NOSIG,0,8,0,9000,0,0,0,
2026-03-19 02:30:00,METAR VMMC 190230Z 18006KT 9000 FEW012 23/20 Q1016 NOSIG,0,6,0,9000,0,0,0,
2026-03-19 02:00:00,METAR VMMC 190200Z 15006KT 8000 FEW012 22/20 Q1016 TEMPO 4000 BR,0,6,0,8000,0,0,1,BR
2026-03-19 01:30:00,METAR VMMC 190130Z 15006KT 120V180 8000 FEW015 22/20 Q1016 NOSIG,0,6,0,8000,0,0,0,
2026-03-19 01:00:00,METAR VMMC 190100Z 14005KT 8000 FEW015 22/20 Q1016 NOSIG,0,5,0,8000,0,0,0,
2026-03-19 00:30:00,METAR VMMC 190030Z VRB02KT 9000 FEW015 22/20 Q1015 NOSIG,0,2,0,9000,0,0,0,
2026-03-19 00:00:00,METAR VMMC 190000Z 00000KT 9000 FEW015 22/20 Q1015 NOSIG,0,0,0,9000,0,0,0,
2026-03-18 23:30:00,METAR VMMC 182330Z 26002KT 9000 NSC 21/19 Q1015 TEMPO 4000 BR,0,2,0,9000,0,0,1,BR
2026-03-18 22:30:00,METAR VMMC 182230Z 27001KT 8000 NSC 20/19 Q1014 NOSIG,0,1,0,8000,0,0,0,
2026-03-18 22:00:00,METAR VMMC 182200Z 24002KT 9000 FEW012 20/19 Q1013 NOSIG,0,2,0,9000,0,0,0,
2026-03-18 21:30:00,METAR VMMC 182130Z 25001KT 7000 FEW012 20/19 Q1013 TEMPO 4000 BR,0,1,0,7000,0,0,1,BR
2026-03-18 21:00:00,METAR VMMC 182100Z 22002KT 7000 FEW012 21/20 Q1013 NOSIG,0,2,0,7000,0,0,0,
2026-03-18 20:30:00,METAR VMMC 182030Z 31002KT 8000 FEW012 20/19 Q1013 NOSIG,0,2,0,8000,0,0,0,
2026-03-18 20:00:00,METAR VMMC 182000Z 28002KT 8000 FEW012 21/19 Q1013 NOSIG,0,2,0,8000,0,0,0,
2026-03-18 19:30:00,METAR VMMC 181930Z 00000KT 9999 FEW012 21/20 Q1013 NOSIG,0,0,0,10000,0,0,0,
2026-03-18 19:00:00,METAR VMMC 181900Z 23001KT 8000 FEW012 21/20 Q1014 NOSIG,0,1,0,8000,0,0,0,
2026-03-18 18:30:00,METAR VMMC 181830Z VRB02KT 9000 FEW012 21/20 Q1014 NOSIG,0,2,0,9000,0,0,0,
2026-03-18 18:00:00,METAR VMMC 181800Z VRB02KT 9000 FEW012 21/20 Q1014 NOSIG,0,2,0,9000,0,0,0,
2026-03-18 17:30:00,METAR VMMC 181730Z 23003KT 9999 FEW010 21/20 Q1014 NOSIG,0,3,0,10000,0,0,0,
2026-03-18 16:30:00,METAR VMMC 181630Z 19005KT 9999 FEW012 22/20 Q1014 NOSIG,0,5,0,10000,0,0,0,
2026-03-18 15:30:00,METAR VMMC 181530Z 19004KT 9999 FEW015 22/20 Q1015 NOSIG,0,4,0,10000,0,0,0,
2026-03-18 15:00:00,METAR VMMC 181500Z 19003KT 9999 FEW015 22/21 Q1015 NOSIG,0,3,0,10000,0,0,0,
2026-03-18 14:30:00,METAR VMMC 181430Z 20003KT 140V260 CAVOK 22/21 Q1015 NOSIG,1,0,0,9999,0,0,0,
2026-03-18 13:30:00,METAR VMMC 181330Z 19004KT 150V210 9999 FEW015 22/20 Q1015 NOSIG,0,4,0,10000,0,0,0,
2026-03-18 12:30:00,METAR VMMC 181230Z 18007KT 9999 FEW018 22/20 Q1014 NOSIG,0,7,0,10000,0,0,0,
2026-03-18 11:30:00,METAR VMMC 181130Z 18006KT CAVOK 22/20 Q1014 NOSIG,1,0,0,9999,0,0,0,
2026-03-18 11:00:00,METAR VMMC 181100Z 19006KT CAVOK 23/20 Q1014 NOSIG,1,0,0,9999,0,0,0,
2026-03-18 10:30:00,METAR VMMC 181030Z 21006KT 190V250 CAVOK 23/20 Q1014 NOSIG,1,0,0,9999,0,0,0,
2026-03-18 10:00:00,METAR VMMC 181000Z 20007KT CAVOK 23/20 Q1013 NOSIG,1,0,0,9999,0,0,0,
2026-03-18 09:30:00,METAR VMMC 180930Z 19007KT 160V220 9999 FEW020 23/20 Q1013 NOSIG,0,7,0,10000,0,0,0,
2026-03-18 09:00:00,METAR VMMC 180900Z 18008KT 150V210 9999 FEW020 24/20 Q1013 NOSIG,0,8,0,10000,0,0,0,
2026-03-18 08:30:00,METAR VMMC 180830Z 17009KT 9999 FEW020 24/20 Q1013 NOSIG,0,9,0,10000,0,0,0,
2026-03-18 08:00:00,METAR VMMC 180800Z 17007KT 9999 FEW020 24/20 Q1013 NOSIG,0,7,0,10000,0,0,0,
2026-03-18 07:30:00,METAR VMMC 180730Z 16006KT 9999 FEW020 24/20 Q1014 NOSIG,0,6,0,10000,0,0,0,
2026-03-18 07:00:00,METAR VMMC 180700Z 14007KT 9999 FEW020 24/20 Q1014 NOSIG,0,7,0,10000,0,0,0,
2026-03-18 06:30:00,METAR VMMC 180630Z 14007KT 9999 FEW020 24/20 Q1014 NOSIG,0,7,0,10000,0,0,0,
2026-03-18 06:00:00,METAR VMMC 180600Z 14006KT 9999 FEW020 24/20 Q1015 NOSIG,0,6,0,10000,0,0,0,
2026-03-18 05:30:00,METAR VMMC 180530Z 13006KT 9999 FEW020 24/20 Q1016 NOSIG,0,6,0,10000,0,0,0,
2026-03-18 05:00:00,METAR VMMC 180500Z 14006KT 100V190 9999 FEW020 24/20 Q1016 NOSIG,0,6,0,10000,0,0,0,
2026-03-18 04:30:00,METAR VMMC 180430Z 14006KT 9999 FEW020 24/20 Q1016 NOSIG,0,6,0,10000,0,0,0,
2026-03-18 04:00:00,METAR VMMC 180400Z 11003KT 060V160 9999 FEW015 24/19 Q1017 NOSIG,0,3,0,10000,0,0,0,
2026-03-18 03:30:00,METAR VMMC 180330Z VRB02KT 9999 FEW015 23/19 Q1017 NOSIG,0,2,0,10000,0,0,0,
2026-03-18 03:00:00,METAR VMMC 180300Z VRB02KT 9999 FEW015 23/19 Q1017 NOSIG,0,2,0,10000,0,0,0,
2026-03-18 02:30:00,METAR VMMC 180230Z VRB02KT 9999 FEW015 23/19 Q1018 NOSIG,0,2,0,10000,0,0,0,
2026-03-18 02:00:00,METAR VMMC 180200Z 36003KT 320V030 9999 FEW015 23/19 Q1018 NOSIG,0,3,0,10000,0,0,0,
2026-03-18 01:30:00,METAR VMMC 180130Z 36004KT 9000 FEW015 23/19 Q1017 NOSIG,0,4,0,9000,0,0,0,
2026-03-18 01:00:00,METAR VMMC 180100Z 01005KT 9000 FEW010 22/20 Q1017 NOSIG,0,5,0,9000,0,0,0,
2026-03-18 00:30:00,METAR VMMC 180030Z 02003KT 330V050 8000 FEW022 22/19 Q1017 NOSIG,0,3,0,8000,0,0,0,
2026-03-17 23:30:00,METAR VMMC 172330Z VRB02KT 9000 FEW012 21/19 Q1016 NOSIG,0,2,0,9000,0,0,0,
2026-03-17 23:00:00,METAR VMMC 172300Z 06003KT 330V120 8000 FEW012 21/19 Q1016 NOSIG,0,3,0,8000,0,0,0,
2026-03-17 22:30:00,METAR VMMC 172230Z 03004KT 350V060 9000 FEW015 21/19 Q1016 NOSIG,0,4,0,9000,0,0,0,
2026-03-17 22:00:00,METAR VMMC 172200Z 03003KT 340V060 9999 FEW015 21/19 Q1015 NOSIG,0,3,0,10000,0,0,0,
2026-03-17 21:30:00,METAR VMMC 172130Z 02003KT 340V050 9999 FEW012 SCT025 21/19 Q1015 NOSIG,0,3,0,10000,0,0,0,
2026-03-17 21:00:00,METAR VMMC 172100Z 02003KT 330V050 9999 FEW012 SCT020 21/19 Q1015 NOSIG,0,3,0,10000,0,0,0,
2026-03-17 20:30:00,METAR VMMC 172030Z 02003KT 340V060 9999 FEW012 SCT020 21/19 Q1015 NOSIG,0,3,0,10000,0,0,0,
2026-03-17 20:00:00,METAR VMMC 172000Z 02004KT 350V050 9999 FEW010 SCT020 21/19 Q1015 NOSIG,0,4,0,10000,0,0,0,
2026-03-17 19:30:00,METAR VMMC 171930Z VRB02KT 9999 FEW012 SCT020 21/19 Q1015 NOSIG,0,2,0,10000,0,0,0,
2026-03-17 19:00:00,METAR VMMC 171900Z 06005KT 030V090 9999 FEW012 SCT020 21/19 Q1015 NOSIG,0,5,0,10000,0,0,0,
2026-03-17 18:30:00,METAR VMMC 171830Z 06006KT 9999 FEW012 SCT020 21/19 Q1015 NOSIG,0,6,0,10000,0,0,0,
2026-03-17 18:00:00,METAR VMMC 171800Z 06005KT 9999 FEW010 SCT020 21/19 Q1015 NOSIG,0,5,0,10000,0,0,0,
2026-03-17 17:30:00,METAR VMMC 171730Z 08005KT 030V180 9999 FEW010 SCT015 21/19 Q1016 NOSIG,0,5,0,10000,0,0,0,
2026-03-17 17:00:00,METAR VMMC 171700Z 08005KT 360V100 9999 FEW009 SCT012 21/19 Q1016 NOSIG,0,5,0,10000,0,0,0,
2026-03-17 16:30:00,METAR VMMC 171630Z 11003KT 080V140 9999 FEW009 SCT012 21/19 Q1016 NOSIG,0,3,0,10000,0,0,0,
2026-03-17 16:00:00,METAR VMMC 171600Z VRB02KT 9999 FEW009 SCT012 21/19 Q1017 NOSIG,0,2,0,10000,0,0,0,
2026-03-17 15:30:00,METAR VMMC 171530Z 11005KT 070V140 9999 FEW009 SCT012 21/19 Q1017 NOSIG,0,5,0,10000,0,0,0,
2026-03-17 15:00:00,METAR VMMC 171500Z 10005KT 060V130 9999 FEW008 SCT012 21/19 Q1017 NOSIG,0,5,0,10000,0,0,0,
2026-03-17 14:30:00,METAR VMMC 171430Z 11007KT 9999 FEW008 SCT012 21/19 Q1016 NOSIG,0,7,0,10000,0,0,0,
2026-03-17 14:00:00,METAR VMMC 171400Z 12008KT 090V150 9999 FEW008 SCT030 21/19 Q1016 NOSIG,0,8,0,10000,0,0,0,
2026-03-17 13:30:00,METAR VMMC 171330Z 11008KT 9999 FEW011 21/19 Q1016 NOSIG,0,8,0,10000,0,0,0,
2026-03-17 13:00:00,METAR VMMC 171300Z 11010KT 9999 FEW011 21/19 Q1016 NOSIG,0,10,0,10000,0,0,0,
2026-03-17 12:30:00,METAR VMMC 171230Z 11009KT 9999 FEW012 21/19 Q1015 NOSIG,0,9,0,10000,0,0,0,
2026-03-17 12:00:00,METAR VMMC 171200Z 12007KT 9999 FEW015 21/19 Q1015 NOSIG,0,7,0,10000,0,0,0,
2026-03-17 11:30:00,METAR VMMC 171130Z 12008KT 9999 FEW015 21/19 Q1015 NOSIG,0,8,0,10000,0,0,0,
2026-03-17 11:00:00,METAR VMMC 171100Z 11006KT 070V150 9999 FEW015 21/19 Q1015 NOSIG,0,6,0,10000,0,0,0,
2026-03-17 10:30:00,METAR VMMC 171030Z 10003KT 050V170 9999 FEW013 21/18 Q1015 NOSIG,0,3,0,10000,0,0,0,
2026-03-17 10:00:00,METAR VMMC 171000Z 10006KT 9999 FEW018 22/18 Q1014 NOSIG,0,6,0,10000,0,0,0,
2026-03-17 09:30:00,METAR VMMC 170930Z 10006KT 070V130 9999 FEW018 22/19 Q1014 NOSIG,0,6,0,10000,0,0,0,
2026-03-17 09:00:00,METAR VMMC 170900Z 07004KT 020V120 9999 FEW018 22/19 Q1015 NOSIG,0,4,0,10000,0,0,0,
2026-03-17 08:30:00,METAR VMMC 170830Z 08006KT 050V150 9999 FEW018 SCT040 23/19 Q1015 NOSIG,0,6,0,10000,0,0,0,
2026-03-17 08:00:00,METAR VMMC 170800Z 09005KT 060V160 9999 FEW018 23/19 Q1015 NOSIG,0,5,0,10000,0,0,0,
2026-03-17 07:30:00,METAR VMMC 170730Z 09004KT 040V180 9999 FEW012 SCT025 23/19 Q1015 NOSIG,0,4,0,10000,0,0,0,
2026-03-17 07:00:00,METAR VMMC 170700Z VRB04KT 9999 FEW012 SCT020 22/19 Q1015 NOSIG,0,4,0,10000,0,0,0,
2026-03-17 06:30:00,METAR VMMC 170630Z 07004KT 360V130 9999 FEW006 SCT020 21/19 Q1016 NOSIG,0,4,0,10000,0,0,0,
2026-03-17 06:00:00,METAR VMMC 170600Z 06005KT 360V130 8000 -RA FEW006 SCT018 21/19 Q1016 NOSIG,0,5,0,8000,0,0,0,-RA
2026-03-17 05:30:00,METAR VMMC 170530Z 09006KT 030V140 9999 FEW010 SCT022 22/19 Q1017 NOSIG,0,6,0,10000,0,0,0,
2026-03-17 05:00:00,METAR VMMC 170500Z 09005KT 360V140 9999 FEW012 SCT025 22/18 Q1017 NOSIG,0,5,0,10000,0,0,0,
2026-03-17 04:30:00,METAR VMMC 170430Z 09005KT 060V130 9999 FEW012 SCT025 22/19 Q1017 NOSIG,0,5,0,10000,0,0,0,
2026-03-17 04:00:00,METAR VMMC 170400Z 08006KT 050V120 9999 FEW012 SCT025 22/19 Q1017 NOSIG,0,6,0,10000,0,0,0,
2026-03-17 03:30:00,METAR VMMC 170330Z 09007KT 050V140 9999 FEW012 SCT025 23/18 Q1018 NOSIG,0,7,0,10000,0,0,0,
2026-03-17 03:00:00,METAR VMMC 170300Z 07006KT 030V150 9999 FEW012 SCT025 23/19 Q1018 NOSIG,0,6,0,10000,0,0,0,
2026-03-17 02:30:00,METAR VMMC 170230Z 09007KT 060V140 9999 FEW012 SCT025 23/18 Q1018 NOSIG,0,7,0,10000,0,0,0,
2026-03-17 02:00:00,METAR VMMC 170200Z 10006KT 010V160 9999 FEW012 SCT025 23/18 Q1018 NOSIG,0,6,0,10000,0,0,0,
2026-03-17 01:30:00,METAR VMMC 170130Z 10008KT 050V120 9999 FEW012 SCT020 22/18 Q1018 NOSIG,0,8,0,10000,0,0,0,
2026-03-17 01:00:00,METAR VMMC 170100Z 10007KT 060V160 9999 FEW010 SCT020 22/18 Q1017 NOSIG,0,7,0,10000,0,0,0,
2026-03-17 00:30:00,METAR VMMC 170030Z 09006KT 060V130 9999 FEW012 SCT020 22/18 Q1017 NOSIG,0,6,0,10000,0,0,0,
2026-03-17 00:00:00,METAR VMMC 170000Z VRB07KT 9999 FEW012 SCT020 21/18 Q1017 NOSIG,0,7,0,10000,0,0,0,
2026-03-16 23:30:00,METAR VMMC 162330Z 09007KT 070V160 9999 FEW012 SCT020 21/18 Q1017 NOSIG,0,7,0,10000,0,0,0,
2026-03-16 23:00:00,METAR VMMC 162300Z 09007KT 050V130 9999 FEW010 SCT020 20/18 Q1016 NOSIG,0,7,0,10000,0,0,0,
2026-03-16 22:30:00,METAR VMMC 162230Z 09007KT 050V160 9999 FEW010 SCT020 20/18 Q1016 NOSIG,0,7,0,10000,0,0,0,
2026-03-16 22:00:00,METAR VMMC 162200Z 08007KT 9999 FEW010 SCT020 20/18 Q1016 NOSIG,0,7,0,10000,0,0,0,
2026-03-16 21:30:00,METAR VMMC 162130Z 09007KT 050V170 9999 FEW010 SCT025 20/18 Q1016 NOSIG,0,7,0,10000,0,0,0,
2026-03-16 21:00:00,METAR VMMC 162100Z 09005KT 010V150 9999 FEW012 SCT025 20/18 Q1015 NOSIG,0,5,0,10000,0,0,0,
2026-03-16 20:30:00,METAR VMMC 162030Z 09006KT 040V130 9999 FEW012 SCT025 20/18 Q1015 NOSIG,0,6,0,10000,0,0,0,
2026-03-16 20:00:00,METAR VMMC 162000Z 09006KT 020V130 9999 FEW012 SCT025 20/18 Q1016 NOSIG,0,6,0,10000,0,0,0,
2026-03-16 19:30:00,METAR VMMC 161930Z 10007KT 9999 FEW012 SCT025 20/18 Q1016 NOSIG,0,7,0,10000,0,0,0,
2026-03-16 19:00:00,METAR VMMC 161900Z 10006KT 080V140 9999 FEW015 20/18 Q1016 NOSIG,0,6,0,10000,0,0,0,
2026-03-16 18:30:00,METAR VMMC 161830Z 09005KT 050V130 9999 FEW015 20/18 Q1016 NOSIG,0,5,0,10000,0,0,0,
2026-03-16 18:00:00,METAR VMMC 161800Z 09005KT 050V140 9999 FEW015 20/18 Q1017 NOSIG,0,5,0,10000,0,0,0,
2026-03-16 17:30:00,METAR VMMC 161730Z 09005KT 9999 FEW018 20/18 Q1017 NOSIG,0,5,0,10000,0,0,0,
2026-03-16 17:00:00,METAR VMMC 161700Z 08005KT 050V150 9999 FEW015 20/18 Q1018 NOSIG,0,5,0,10000,0,0,0,
2026-03-16 16:30:00,METAR VMMC 161630Z 08004KT 9999 FEW015 20/18 Q1018 NOSIG,0,4,0,10000,0,0,0,
2026-03-16 16:00:00,METAR VMMC 161600Z 09005KT 060V120 9999 FEW020 21/18 Q1018 NOSIG,0,5,0,10000,0,0,0,
2026-03-16 15:30:00,METAR VMMC 161530Z 10006KT 9999 FEW020 21/18 Q1018 NOSIG,0,6,0,10000,0,0,0,
2026-03-16 15:00:00,METAR VMMC 161500Z 11007KT 090V150 9999 FEW020 21/18 Q1018 NOSIG,0,7,0,10000,0,0,0,
2026-03-16 14:30:00,METAR VMMC 161430Z 11009KT 9999 FEW020 21/18 Q1018 NOSIG,0,9,0,10000,0,0,0,
2026-03-16 14:00:00,METAR VMMC 161400Z 11009KT 080V150 9999 FEW020 21/18 Q1018 NOSIG,0,9,0,10000,0,0,0,
2026-03-16 13:30:00,METAR VMMC 161330Z 11008KT CAVOK 21/17 Q1017 NOSIG,1,0,0,9999,0,0,0,
2026-03-16 13:00:00,METAR VMMC 161300Z 12008KT CAVOK 21/17 Q1017 NOSIG,1,0,0,9999,0,0,0,
2026-03-16 12:30:00,METAR VMMC 161230Z 12011KT CAVOK 21/17 Q1017 NOSIG,1,0,0,9999,0,0,0,
2026-03-16 12:00:00,METAR VMMC 161200Z 13009KT CAVOK 21/17 Q1017 NOSIG,1,0,0,9999,0,0,0,
2026-03-16 11:30:00,METAR VMMC 161130Z 13011KT 9999 FEW025 21/16 Q1016 NOSIG,0,11,0,10000,0,0,0,
2026-03-16 11:00:00,METAR VMMC 161100Z 14010KT 9999 FEW025 21/16 Q1016 NOSIG,0,10,0,10000,0,0,0,
2026-03-16 10:30:00,METAR VMMC 161030Z 13009KT 9999 FEW025 21/16 Q1016 NOSIG,0,9,0,10000,0,0,0,
2026-03-16 10:00:00,METAR VMMC 161000Z 13009KT 9999 FEW022 21/17 Q1016 NOSIG,0,9,0,10000,0,0,0,
2026-03-16 09:30:00,METAR VMMC 160930Z 13009KT 9999 FEW022 21/17 Q1016 NOSIG,0,9,0,10000,0,0,0,
2026-03-16 09:00:00,METAR VMMC 160900Z 13006KT 110V170 9999 FEW022 22/15 Q1016 NOSIG,0,6,0,10000,0,0,0,
2026-03-16 08:30:00,METAR VMMC 160830Z 11009KT 080V140 9999 FEW022 22/15 Q1016 NOSIG,0,9,0,10000,0,0,0,
2026-03-16 08:00:00,METAR VMMC 160800Z 12008KT 100V160 9999 FEW022 22/15 Q1016 NOSIG,0,8,0,10000,0,0,0,
2026-03-16 07:30:00,METAR VMMC 160730Z 11011KT 9999 FEW020 22/16 Q1016 NOSIG,0,11,0,10000,0,0,0,
2026-03-16 07:00:00,METAR VMMC 160700Z 12008KT 100V160 9999 FEW020 22/15 Q1017 NOSIG,0,8,0,10000,0,0,0,
2026-03-16 06:30:00,METAR VMMC 160630Z 12006KT 9999 FEW020 22/14 Q1017 NOSIG,0,6,0,10000,0,0,0,
2026-03-16 06:00:00,METAR VMMC 160600Z 12008KT 090V160 9999 FEW020 22/16 Q1017 NOSIG,0,8,0,10000,0,0,0,
2026-03-16 05:30:00,METAR VMMC 160530Z 11010KT 9999 FEW020 22/15 Q1018 NOSIG,0,10,0,10000,0,0,0,
2026-03-16 05:00:00,METAR VMMC 160500Z 12009KT 9999 FEW020 22/15 Q1018 NOSIG,0,9,0,10000,0,0,0,
2026-03-16 04:30:00,METAR VMMC 160430Z 12011KT 9999 FEW020 22/15 Q1019 NOSIG,0,11,0,10000,0,0,0,
2026-03-16 04:00:00,METAR VMMC 160400Z 11010KT 9999 FEW025 22/15 Q1020 NOSIG,0,10,0,10000,0,0,0,
2026-03-16 03:30:00,METAR VMMC 160330Z 08004KT 350V140 9999 FEW025 23/16 Q1020 NOSIG,0,4,0,10000,0,0,0,
2026-03-16 03:00:00,METAR VMMC 160300Z 04004KT 360V070 9999 FEW025 22/15 Q1020 NOSIG,0,4,0,10000,0,0,0,
2026-03-16 02:30:00,METAR VMMC 160230Z 02006KT 340V060 9999 FEW025 22/16 Q1020 NOSIG,0,6,0,10000,0,0,0,
2026-03-16 02:00:00,METAR VMMC 160200Z 03007KT 350V050 9999 FEW025 22/15 Q1020 NOSIG,0,7,0,10000,0,0,0,
2026-03-16 01:30:00,METAR VMMC 160130Z 05006KT 010V070 9999 FEW025 22/16 Q1020 NOSIG,0,6,0,10000,0,0,0,
2026-03-16 01:00:00,METAR VMMC 160100Z 04005KT 320V060 9999 FEW015 21/16 Q1020 NOSIG,0,5,0,10000,0,0,0,
2026-03-16 00:30:00,METAR VMMC 160030Z 02004KT 350V050 9999 FEW015 21/17 Q1019 NOSIG,0,4,0,10000,0,0,0,
2026-03-16 00:00:00,METAR VMMC 160000Z 02009KT 9999 FEW015 20/17 Q1019 NOSIG,0,9,0,10000,0,0,0,
2026-03-15 23:30:00,METAR VMMC 152330Z 06006KT 360V100 9999 FEW015 20/17 Q1019 NOSIG,0,6,0,10000,0,0,0,
2026-03-15 23:00:00,METAR VMMC 152300Z 07007KT 020V140 9999 FEW013 SCT030 20/17 Q1019 NOSIG,0,7,0,10000,0,0,0,
2026-03-15 22:30:00,METAR VMMC 152230Z 10012KT 9999 FEW013 SCT030 20/17 Q1018 NOSIG,0,12,0,10000,0,0,0,
2026-03-15 22:00:00,METAR VMMC 152200Z 10013KT 9999 FEW015 20/17 Q1018 NOSIG,0,13,0,10000,0,0,0,
2026-03-15 21:30:00,METAR VMMC 152130Z 10007KT 080V160 9999 FEW020 20/17 Q1017 NOSIG,0,7,0,10000,0,0,0,
2026-03-15 21:00:00,METAR VMMC 152100Z 08005KT 030V140 9999 FEW022 20/17 Q1017 NOSIG,0,5,0,10000,0,0,0,
2026-03-15 20:30:00,METAR VMMC 152030Z 11005KT 070V130 9999 FEW025 20/17 Q1018 NOSIG,0,5,0,10000,0,0,0,
2026-03-15 20:00:00,METAR VMMC 152000Z 12005KT 9999 FEW020 SCT025 20/17 Q1018 NOSIG,0,5,0,10000,0,0,0,
2026-03-15 19:30:00,METAR VMMC 151930Z VRB05KT 9999 FEW020 SCT025 20/17 Q1018 NOSIG,0,5,0,10000,0,0,0,
2026-03-15 19:00:00,METAR VMMC 151900Z 12004KT 060V170 9999 FEW018 20/17 Q1018 NOSIG,0,4,0,10000,0,0,0,
2026-03-15 18:30:00,METAR VMMC 151830Z 07003KT 340V150 CAVOK 20/17 Q1019 NOSIG,1,0,0,9999,0,0,0,
2026-03-15 18:00:00,METAR VMMC 151800Z 11003KT 080V150 CAVOK 20/17 Q1019 NOSIG,1,0,0,9999,0,0,0,
2026-03-15 17:30:00,METAR VMMC 151730Z 10005KT 080V150 CAVOK 20/17 Q1019 NOSIG,1,0,0,9999,0,0,0,
2026-03-15 17:00:00,METAR VMMC 151700Z 10004KT 060V140 CAVOK 20/17 Q1020 NOSIG,1,0,0,9999,0,0,0,
2026-03-15 16:30:00,METAR VMMC 151630Z VRB02KT CAVOK 20/17 Q1020 NOSIG,1,0,0,9999,0,0,0,
2026-03-15 16:00:00,METAR VMMC 151600Z 00000KT CAVOK 20/17 Q1020 NOSIG,1,0,0,9999,0,0,0,
2026-03-15 15:30:00,METAR VMMC 151530Z VRB02KT CAVOK 20/17 Q1020 NOSIG,1,0,0,9999,0,0,0,
2026-03-15 15:00:00,METAR VMMC 151500Z 12002KT CAVOK 20/17 Q1020 NOSIG,1,0,0,9999,0,0,0,
2026-03-15 14:30:00,METAR VMMC 151430Z VRB02KT CAVOK 20/17 Q1020 NOSIG,1,0,0,9999,0,0,0,
2026-03-15 14:00:00,METAR VMMC 151400Z 11004KT CAVOK 21/17 Q1020 NOSIG,1,0,0,9999,0,0,0,
2026-03-15 13:30:00,METAR VMMC 151330Z 14003KT 110V170 CAVOK 20/16 Q1020 NOSIG,1,0,0,9999,0,0,0,
2026-03-15 13:00:00,METAR VMMC 151300Z 14004KT CAVOK 20/16 Q1020 NOSIG,1,0,0,9999,0,0,0,
2026-03-15 12:30:00,METAR VMMC 151230Z 14003KT CAVOK 20/16 Q1020 NOSIG,1,0,0,9999,0,0,0,
2026-03-15 12:00:00,METAR VMMC 151200Z 13003KT 090V190 CAVOK 20/16 Q1019 NOSIG,1,0,0,9999,0,0,0,
2026-03-15 11:30:00,METAR VMMC 151130Z 13004KT 090V180 CAVOK 20/16 Q1019 NOSIG,1,0,0,9999,0,0,0,
2026-03-15 11:00:00,METAR VMMC 151100Z 13007KT 100V160 CAVOK 21/17 Q1019 NOSIG,1,0,0,9999,0,0,0,
2026-03-15 10:30:00,METAR VMMC 151030Z 13004KT 100V180 9999 FEW020 21/15 Q1019 NOSIG,0,4,0,10000,0,0,0,
2026-03-15 10:00:00,METAR VMMC 151000Z 12007KT 9999 FEW020 21/16 Q1018 NOSIG,0,7,0,10000,0,0,0,
2026-03-15 09:30:00,METAR VMMC 150930Z 13005KT 110V170 9999 FEW020 22/17 Q1018 NOSIG,0,5,0,10000,0,0,0,
2026-03-15 09:00:00,METAR VMMC 150900Z VRB02KT 9999 FEW020 22/16 Q1018 NOSIG,0,2,0,10000,0,0,0,
2026-03-15 08:30:00,METAR VMMC 150830Z 12003KT 100V160 9999 FEW020 22/15 Q1018 NOSIG,0,3,0,10000,0,0,0,
2026-03-15 08:00:00,METAR VMMC 150800Z 12005KT 9999 FEW020 22/16 Q1019 NOSIG,0,5,0,10000,0,0,0,
