Time_recorded,METAR,is_cavok,wind_speed,is_gust,visibility_meters,has_thunderstorm,has_heavy_rain,has_low_vis_fog,other_phenomenon
2026-05-02 15:00:00,METAR RPVM 021500Z 33003KT 9000 FEW035 28/25 Q1010 NOSIG RMK A2983,0,3,0,9000,0,0,0,
2026-05-02 14:00:00,METAR RPVM 021400Z 35003KT 310V020 9999 FEW007CB SCT010 BKN015 28/26 Q1010 NOSIG RMK A2983 CB SE-SW,0,3,0,10000,0,0,0,
2026-05-02 13:00:00,METAR RPVM 021300Z 33004KT 9999 FEW003 28/26 Q1010 NOSIG RMK A2983,0,4,0,10000,0,0,0,
2026-05-02 12:00:00,METAR RPVM 021200Z 03007KT 9999 FEW004 SCT049 28/25 Q1009 NOSIG RMK A2980,0,7,0,10000,0,0,0,
2026-05-02 11:00:00,METAR RPVM 021100Z 04008KT 9999 FEW003CB SCT004 BKN045 28/26 Q1008 NOSIG RMK A2977,0,8,0,10000,0,0,0,
2026-05-02 10:00:00,METAR RPVM 021000Z 02009KT 9999 FEW003CB SCT005 BKN020 28/26 Q1008 RESHRA NOSIG RMK A2977 CB SW,0,9,0,10000,0,0,0,RA
2026-05-02 09:16:00,SPECI RPVM 020916Z 04015KT 3000 +SHRA SCT005CB BKN007 BKN017 29/25 Q1008 NOSIG RMK A2977 CB OHD,0,15,0,3000,0,0,0,RA
2026-05-02 09:00:00,"METAR RPVM 020900Z 03015KT 9999 VCSH SCT004CB SCT007 BKN021 30/26 Q1007 NOSIG RMK A2974 CB/VCSH N-NE,SE-S",0,15,0,10000,0,0,0,"SH,VC"
2026-05-02 08:00:00,"METAR RPVM 020800Z 03016KT 9999 FEW017CB SCT045 30/25 Q1007 NOSIG RMK A2974 CB NE-SE,SW",0,16,0,10000,0,0,0,
2026-05-02 07:00:00,"METAR RPVM 020700Z 04014KT 9999 FEW011CB SCT032 29/26 Q1007 NOSIG RMK A2974 CB SE-S,SW-NW",0,14,0,10000,0,0,0,
2026-05-02 06:41:00,"SPECI RPVM 020641Z 04014KT 9999 DZ FEW011CB BKN032 31/25 Q1007 NOSIG RMK A2974 CB S-SW,W-N",0,14,0,10000,0,0,0,DZ
2026-05-02 06:00:00,"METAR RPVM 020600Z 03013KT 9999 VCSH FEW019CB 32/25 Q1008 NOSIG RMK A2977 VCSH E,SW-N",0,13,0,10000,0,0,0,"SH,VC"
2026-05-02 05:00:00,"METAR RPVM 020500Z 04013KT 010V070 9999 FEW018CB 32/25 Q1008 NOSIG RMK A2977 CB NE,W-NW",0,13,0,10000,0,0,0,
2026-05-02 04:00:00,"METAR RPVM 020400Z 04012KT 9999 FEW033CB 32/25 Q1009 NOSIG RMK A2980 CB NE,S,W-NW",0,12,0,10000,0,0,0,
2026-05-02 03:00:00,"METAR RPVM 020300Z 05009KT 010V080 9999 FEW026CB 32/23 Q1010 NOSIG RMK A2983 CB NE,SE,W-NW",0,9,0,10000,0,0,0,
2026-05-02 02:00:00,METAR RPVM 020200Z 05008KT 020V100 9999 FEW017TCU 32/25 Q1010 NOSIG RMK A2983 TCU SW-NW,0,8,0,10000,0,0,0,
2026-05-02 01:00:00,METAR RPVM 020100Z 04006KT 360V070 CAVOK 31/24 Q1010 NOSIG RMK A2983,1,0,0,9999,0,0,0,
2026-05-02 00:00:00,"METAR RPVM 020000Z 05005KT 010V080 9999 FEW014TCU SCT019 31/25 Q1010 NOSIG RMK A2983 TCU S,SW,W",0,5,0,10000,0,0,0,
2026-05-01 23:00:00,METAR RPVM 012300Z 35006KT 330V030 9999 FEW005CB 29/26 Q1010 NOSIG RMK A2983 CB SE,0,6,0,10000,0,0,0,
2026-05-01 22:00:00,METAR RPVM 012200Z 02003KT 9999 FEW004CB 27/25 Q1009 NOSIG RMK A2980 CB S,0,3,0,10000,0,0,0,
2026-05-01 21:00:00,METAR RPVM 012100Z 04003KT 360V080 9999 FEW004 26/25 Q1008 NOSIG RMK A2977,0,3,0,10000,0,0,0,
2026-05-01 20:00:00,METAR RPVM 012000Z VRB02KT 5000 NSC 26/25 Q1008 NOSIG RMK A2977,0,2,0,5000,0,0,0,
2026-05-01 19:00:00,METAR RPVM 011900Z 36002KT 7000 NSC 27/25 Q1008 NOSIG RMK A2977,0,2,0,7000,0,0,0,
2026-05-01 18:00:00,METAR RPVM 011800Z VRB01KT 9999 FEW005CB 27/25 Q1008 NOSIG RMK A2977 CB SE,0,1,0,10000,0,0,0,
2026-05-01 17:00:00,METAR RPVM 011700Z 33004KT 310V030 9999 FEW006CB SCT016 BKN049 27/25 Q1009 NOSIG RMK A2980 CB N/S-SW,0,4,0,10000,0,0,0,
2026-05-01 16:23:00,SPECI RPVM 011623Z 34003KT 310V030 8000 -SHRA SCT003CB SCT006 BKN015 28/25 Q1009 NOSIG RMK A2980 CB OHD/W-N,0,3,0,8000,0,0,0,RA
2026-05-01 16:00:00,METAR RPVM 011600Z COR 02005KT 350V050 9999 FEW004CB SCT009 29/25 Q1010 NOSIG RMK A2983 CB N,0,5,0,10000,0,0,0,
2026-05-01 15:00:00,METAR RPVM 011500Z 03010KT 9999 FEW006CB SCT030 29/25 Q1010 NOSIG RMK A2983 CB S,0,10,0,10000,0,0,0,
2026-05-01 14:00:00,METAR RPVM 011400Z 05011KT 9999 FEW010CB SCT013 30/25 Q1010 NOSIG RMK A2983 CB S,0,11,0,10000,0,0,0,
2026-05-01 13:00:00,METAR RPVM 011300Z 04012KT 9999 FEW012 30/25 Q1010 NOSIG RMK A2983,0,12,0,10000,0,0,0,
2026-05-01 12:00:00,METAR RPVM 011200Z 05010KT 9999 FEW015 30/25 Q1009 NOSIG RMK A2980,0,10,0,10000,0,0,0,
2026-05-01 11:00:00,METAR RPVM 011100Z 04007KT 9999 SCT025 30/25 Q1009 NOSIG RMK A2980,0,7,0,10000,0,0,0,
2026-05-01 10:00:00,METAR RPVM 011000Z 03006KT CAVOK 30/24 Q1008 NOSIG RMK A2977,1,0,0,9999,0,0,0,
2026-05-01 09:00:00,METAR RPVM 010900Z 05007KT 020V080 CAVOK 32/24 Q1008 NOSIG RMK A2977,1,0,0,9999,0,0,0,
2026-05-01 08:00:00,METAR RPVM 010800Z 04009KT CAVOK 33/23 Q1008 NOSIG RMK A2977,1,0,0,9999,0,0,0,
2026-05-01 07:00:00,METAR RPVM 010700Z 04010KT CAVOK 33/23 Q1008 NOSIG RMK A2977,1,0,0,9999,0,0,0,
2026-05-01 06:00:00,METAR RPVM 010600Z 03009KT 360V060 CAVOK 33/23 Q1008 NOSIG RMK A2977,1,0,0,9999,0,0,0,
2026-05-01 05:00:00,METAR RPVM 010500Z 04009KT 010V070 CAVOK 33/23 Q1009 NOSIG RMK A2980,1,0,0,9999,0,0,0,
2026-05-01 04:00:00,METAR RPVM 010400Z 05009KT 020V080 9999 FEW047 32/24 Q1010 NOSIG RMK A2983,0,9,0,10000,0,0,0,
2026-05-01 03:00:00,METAR RPVM 010300Z 03008KT 360V070 CAVOK 32/24 Q1011 NOSIG RMK A2985,1,0,0,9999,0,0,0,
2026-05-01 02:00:00,METAR RPVM 010200Z 03009KT 340V060 9999 FEW020 31/25 Q1011 NOSIG RMK A2985,0,9,0,10000,0,0,0,
2026-05-01 01:00:00,METAR RPVM 010100Z 03010KT 9999 FEW020 31/25 Q1011 NOSIG RMK A2985,0,10,0,10000,0,0,0,
2026-05-01 00:00:00,METAR RPVM 010000Z 03013KT CAVOK 30/25 Q1011 NOSIG RMK A2985,1,0,0,9999,0,0,0,
2026-04-30 23:00:00,METAR RPVM 302300Z 36006KT 9999 FEW005 28/25 Q1010 NOSIG RMK A2983,0,6,0,10000,0,0,0,
2026-04-30 22:00:00,METAR RPVM 302200Z 35004KT 9999 FEW004 26/25 Q1010 NOSIG RMK A2983,0,4,0,10000,0,0,0,
2026-04-30 21:00:00,METAR RPVM 302100Z VRB02KT 9999 FEW004 SCT006 BKN016 27/25 Q1009 NOSIG RMK A2980,0,2,0,10000,0,0,0,
2026-04-30 20:00:00,METAR RPVM 302000Z 35006KT 9999 FEW005 26/25 Q1009 NOSIG RMK A2980,0,6,0,10000,0,0,0,
2026-04-30 19:00:00,METAR RPVM 301900Z 36003KT 9999 FEW023 26/25 Q1009 NOSIG RMK A2980,0,3,0,10000,0,0,0,
2026-04-30 18:00:00,METAR RPVM 301800Z 35003KT 310V010 CAVOK 26/25 Q1009 NOSIG RMK A2980,1,0,0,9999,0,0,0,
2026-04-30 17:00:00,METAR RPVM 301700Z 34003KT 310V010 9999 FEW015CB 27/25 Q1010 NOSIG RMK A2983 CB/OCNL LTG S,0,3,0,10000,0,0,0,
2026-04-30 16:00:00,METAR RPVM 301600Z 34003KT 9999 FEW015CB 27/25 Q1011 NOSIG RMK A2985 CB/OCNL LTG SE-S,0,3,0,10000,0,0,0,
2026-04-30 15:00:00,METAR RPVM 301500Z VRB01KT 9999 FEW021CB 26/25 Q1012 NOSIG RMK A2988 CB/OCNL LTG SW,0,1,0,10000,0,0,0,
2026-04-30 14:00:00,METAR RPVM 301400Z VRB02KT 9999 FEW001CB SCT019 26/25 Q1011 RETS NOSIG RMK A2985 CB/OCNL LTG SE-SW,0,2,0,10000,1,0,0,TS
2026-04-30 13:23:00,SPECI RPVM 301323Z 34005KT 330V030 9999 TS FEW001CB SCT009 BKN013 26/25 Q1011 NOSIG RMK A2985 CB/OCNL LTG SE-SW/W,0,5,0,10000,1,0,0,TS
2026-04-30 13:00:00,METAR RPVM 301300Z 02003KT 320V090 9000 -SHRA FEW001CB SCT002 BKN006 26/25 Q1011 NOSIG RMK A2985 CB SE-SW/W,0,3,0,9000,0,0,0,RA
2026-04-30 12:40:00,SPECI RPVM 301240Z 06004KT 040V100 5000 -SHRA FEW001CB SCT002 BKN007 26/25 Q1011 RESHRA NOSIG RMK A2985 CB OHD,0,4,0,5000,0,0,0,RA
2026-04-30 12:27:00,SPECI RPVM 301227Z 10006KT 0900 R04/P2000 +SHRA FEW001CB SCT002 BKN009 26/25 Q1011 NOSIG RMK A2985 CB OHD,0,6,0,1448100,0,0,0,RA
2026-04-30 12:25:00,SPECI RPVM 301225Z 09005KT 5000 +SHRA FEW001CB SCT002 BKN010 26/25 Q1011 NOSIG RMK A2985 CB OHD,0,5,0,5000,0,0,0,RA
2026-04-30 12:00:00,METAR RPVM 301200Z 02009KT 8000 -SHRA FEW002CB SCT010 BKN014 27/25 Q1011 NOSIG RMK A2985 CB S-SE,0,9,0,8000,0,0,0,RA
2026-04-30 11:31:00,SPECI RPVM 301131Z 03013KT 8000 -SHRA FEW005CB SCT008 BKN014 29/24 Q1011 NOSIG RMK A2985 CB S-SE,0,13,0,8000,0,0,0,RA
2026-04-30 11:00:00,METAR RPVM 301100Z 05004KT 9999 FEW009CB BKN010 OVC036 29/24 Q1010 NOSIG RMK A2983 CB S,0,4,0,10000,0,0,0,
2026-04-30 10:00:00,METAR RPVM 301000Z 05006KT 9999 SCT011 SCT019 29/24 Q1009 NOSIG RMK A2980,0,6,0,10000,0,0,0,
2026-04-30 09:00:00,METAR RPVM 300900Z 05006KT 9999 SCT011 SCT013 BKN038 30/24 Q1009 NOSIG RMK A2980,0,6,0,10000,0,0,0,
2026-04-30 08:00:00,METAR RPVM 300800Z 04007KT 010V070 9999 SCT011 SCT014 BKN020 30/24 Q1009 NOSIG RMK A2980,0,7,0,10000,0,0,0,
2026-04-30 07:00:00,METAR RPVM 300700Z 04009KT 9999 FEW015 SCT018 BKN022 30/24 Q1009 NOSIG RMK A2980,0,9,0,10000,0,0,0,
2026-04-30 06:00:00,METAR RPVM 300600Z 04006KT 010V070 9999 FEW012 SCT019 BKN042 30/23 Q1009 NOSIG RMK A2980,0,6,0,10000,0,0,0,
2026-04-30 05:00:00,METAR RPVM 300500Z 04008KT 360V070 9999 FEW015 BKN021 30/23 Q1010 NOSIG RMK A2983,0,8,0,10000,0,0,0,
2026-04-30 04:00:00,METAR RPVM 300400Z 04009KT 010V070 9999 FEW020 30/24 Q1011 NOSIG RMK A2985,0,9,0,10000,0,0,0,
2026-04-30 03:00:00,METAR RPVM 300300Z 02007KT 330V080 9999 FEW004 31/24 Q1011 NOSIG RMK A2985,0,7,0,10000,0,0,0,
2026-04-30 02:00:00,"METAR RPVM 300200Z 11005KT 060V170 9999 FEW006TCU SCT011 BKN027 28/24 Q1012 RERA NOSIG RMK A2988 TCU SE,S,SW,W",0,5,0,10000,0,0,0,RA
2026-04-30 01:00:00,"METAR RPVM 300100Z 08006KT 050V110 9000 -RA FEW003TCU SCT021 BKN030 29/22 Q1012 NOSIG RMK A2988 TCU NE,E,SE,W",0,6,0,9000,0,0,0,-RA
2026-04-30 00:00:00,METAR RPVM 300000Z 02014KT 9999 SCT015 SCT025 30/23 Q1011 NOSIG RMK A2985,0,14,0,10000,0,0,0,
2026-04-29 23:00:00,METAR RPVM 292300Z 01009KT 9999 FEW028 29/24 Q1011 NOSIG RMK A2985,0,9,0,10000,0,0,0,
2026-04-29 22:00:00,METAR RPVM 292200Z 33005KT 9999 FEW020 27/23 Q1010 NOSIG RMK A2983,0,5,0,10000,0,0,0,
2026-04-29 21:00:00,METAR RPVM 292100Z 35005KT 9999 SCT016 SCT020 27/23 Q1010 NOSIG RMK A2983,0,5,0,10000,0,0,0,
2026-04-29 20:00:00,METAR RPVM 292000Z 35004KT 330V030 CAVOK 27/23 Q1010 NOSIG RMK A2983,1,0,0,9999,0,0,0,
2026-04-29 19:00:00,METAR RPVM 291900Z 36003KT 330V030 CAVOK 27/23 Q1010 NOSIG RMK A2983,1,0,0,9999,0,0,0,
2026-04-29 18:00:00,METAR RPVM 291800Z 33005KT CAVOK 27/23 Q1010 NOSIG RMK A2983,1,0,0,9999,0,0,0,
2026-04-29 17:00:00,METAR RPVM 291700Z 32006KT 9999 FEW016 28/23 Q1011 NOSIG RMK A2985,0,6,0,10000,0,0,0,
2026-04-29 16:00:00,METAR RPVM 291600Z 05003KT CAVOK 28/22 Q1011 NOSIG RMK A2985,1,0,0,9999,0,0,0,
2026-04-29 15:00:00,METAR RPVM 291500Z 06005KT CAVOK 29/22 Q1012 NOSIG RMK A2988,1,0,0,9999,0,0,0,
2026-04-29 14:00:00,METAR RPVM 291400Z 06008KT CAVOK 29/24 Q1012 NOSIG RMK A2988,1,0,0,9999,0,0,0,
2026-04-29 13:00:00,METAR RPVM 291300Z 06009KT 9999 FEW018 30/23 Q1012 NOSIG RMK A2988,0,9,0,10000,0,0,0,
2026-04-29 12:00:00,METAR RPVM 291200Z 05010KT 9999 FEW014 BKN048 30/23 Q1011 NOSIG RMK A2985,0,10,0,10000,0,0,0,
2026-04-29 11:00:00,METAR RPVM 291100Z 03009KT 9999 FEW016 SCT020 30/23 Q1010 NOSIG RMK A2983,0,9,0,10000,0,0,0,
2026-04-29 10:00:00,METAR RPVM 291000Z 05008KT CAVOK 31/22 Q1010 NOSIG RMK A2983,1,0,0,9999,0,0,0,
2026-04-29 09:00:00,METAR RPVM 290900Z 07009KT CAVOK 32/22 Q1009 NOSIG RMK A2980,1,0,0,9999,0,0,0,
2026-04-29 08:00:00,METAR RPVM 290800Z 06010KT 030V100 CAVOK 33/21 Q1008 NOSIG RMK A2977,1,0,0,9999,0,0,0,
2026-04-29 07:00:00,METAR RPVM 290700Z 05011KT CAVOK 32/22 Q1009 NOSIG RMK A2980,1,0,0,9999,0,0,0,
2026-04-29 06:00:00,METAR RPVM 290600Z 06009KT 030V100 CAVOK 33/22 Q1009 NOSIG RMK A2980,1,0,0,9999,0,0,0,
2026-04-29 05:00:00,METAR RPVM 290500Z 04011KT CAVOK 33/22 Q1010 NOSIG RMK A2983,1,0,0,9999,0,0,0,
2026-04-29 04:00:00,METAR RPVM 290400Z 05007KT 010V120 9999 FEW045 32/22 Q1011 NOSIG RMK A2985,0,7,0,10000,0,0,0,
2026-04-29 03:00:00,METAR RPVM 290300Z 03009KT 360V060 9999 FEW035 32/22 Q1012 NOSIG RMK A2988,0,9,0,10000,0,0,0,
2026-04-29 02:00:00,METAR RPVM 290200Z 13005KT 100V170 9999 FEW034 32/21 Q1012 NOSIG RMK A2988,0,5,0,10000,0,0,0,
2026-04-29 01:00:00,METAR RPVM 290100Z VRB03KT 9999 FEW009 32/22 Q1012 NOSIG RMK A2988,0,3,0,10000,0,0,0,
2026-04-29 00:00:00,METAR RPVM 290000Z 07004KT 040V120 9999 SCT007 31/22 Q1012 NOSIG RMK A2988,0,4,0,10000,0,0,0,
2026-04-28 23:00:00,METAR RPVM 282300Z 19003KT 160V240 CAVOK 31/24 Q1012 NOSIG RMK A2988,1,0,0,9999,0,0,0,
2026-04-28 22:00:00,METAR RPVM 282200Z 28001KT CAVOK 26/23 Q1011 NOSIG RMK A2985,1,0,0,9999,0,0,0,
2026-04-28 21:00:00,METAR RPVM 282100Z VRB02KT CAVOK 26/23 Q1010 NOSIG RMK A2983,1,0,0,9999,0,0,0,
2026-04-28 20:00:00,METAR RPVM 282000Z 17002KT CAVOK 26/23 Q1010 NOSIG RMK A2983,1,0,0,9999,0,0,0,
2026-04-28 19:00:00,METAR RPVM 281900Z 05005KT CAVOK 28/22 Q1010 NOSIG RMK A2983,1,0,0,9999,0,0,0,
2026-04-28 18:00:00,METAR RPVM 281800Z 07004KT CAVOK 28/22 Q1010 NOSIG RMK A2983,1,0,0,9999,0,0,0,
2026-04-28 17:00:00,METAR RPVM 281700Z 06003KT CAVOK 28/22 Q1010 NOSIG RMK A2983,1,0,0,9999,0,0,0,
2026-04-28 16:00:00,METAR RPVM 281600Z 07005KT 030V090 CAVOK 29/22 Q1011 NOSIG RMK A2985,1,0,0,9999,0,0,0,
2026-04-28 15:00:00,METAR RPVM 281500Z 06003KT 030V090 CAVOK 29/23 Q1011 NOSIG RMK A2985,1,0,0,9999,0,0,0,
2026-04-28 14:00:00,METAR RPVM 281400Z 07007KT CAVOK 29/22 Q1011 NOSIG RMK A2985,1,0,0,9999,0,0,0,
2026-04-28 13:00:00,METAR RPVM 281300Z 07006KT CAVOK 30/23 Q1010 NOSIG RMK A2983,1,0,0,9999,0,0,0,
2026-04-28 12:00:00,METAR RPVM 281200Z 01008KT CAVOK 30/24 Q1010 NOSIG RMK A2983,1,0,0,9999,0,0,0,
2026-04-28 11:00:00,METAR RPVM 281100Z 03008KT CAVOK 29/24 Q1009 NOSIG RMK A2980,1,0,0,9999,0,0,0,
2026-04-28 10:00:00,METAR RPVM 281000Z 05005KT CAVOK 30/23 Q1009 NOSIG RMK A2980,1,0,0,9999,0,0,0,
2026-04-28 09:00:00,METAR RPVM 280900Z 05009KT CAVOK 31/23 Q1008 NOSIG RMK A2977,1,0,0,9999,0,0,0,
2026-04-28 08:00:00,METAR RPVM 280800Z 04011KT 010V070 CAVOK 31/24 Q1008 NOSIG RMK A2977,1,0,0,9999,0,0,0,
2026-04-28 07:00:00,METAR RPVM 280700Z 04011KT 020V090 CAVOK 32/24 Q1008 NOSIG RMK A2977,1,0,0,9999,0,0,0,
2026-04-28 06:00:00,METAR RPVM 280600Z 03010KT 350V070 9999 FEW023 32/24 Q1008 NOSIG RMK A2977,0,10,0,10000,0,0,0,
2026-04-28 05:00:00,METAR RPVM 280500Z 04011KT 010V080 CAVOK 32/23 Q1010 NOSIG RMK A2983,1,0,0,9999,0,0,0,
2026-04-28 04:00:00,METAR RPVM 280400Z 06009KT 360V100 9999 FEW043 33/23 Q1010 NOSIG RMK A2983,0,9,0,10000,0,0,0,
2026-04-28 03:00:00,METAR RPVM 280300Z 06010KT 030V110 CAVOK 33/23 Q1011 NOSIG RMK A2985,1,0,0,9999,0,0,0,
2026-04-28 02:00:00,METAR RPVM 280200Z 09008KT 030V120 9999 FEW007 32/23 Q1011 NOSIG RMK A2985,0,8,0,10000,0,0,0,
2026-04-28 01:00:00,METAR RPVM 280100Z 03007KT 350V080 9999 FEW008 SCT024 31/24 Q1011 NOSIG RMK A2985,0,7,0,10000,0,0,0,
2026-04-28 00:00:00,METAR RPVM 280000Z 04008KT 360V060 CAVOK 31/23 Q1011 NOSIG RMK A2985,1,0,0,9999,0,0,0,
2026-04-27 23:00:00,METAR RPVM 272300Z 05009KT CAVOK 30/23 Q1010 NOSIG RMK A2983,1,0,0,9999,0,0,0,
2026-04-27 22:00:00,METAR RPVM 272200Z 04005KT CAVOK 27/24 Q1010 NOSIG RMK A2983,1,0,0,9999,0,0,0,
2026-04-27 21:00:00,METAR RPVM 272100Z 01002KT CAVOK 26/24 Q1010 NOSIG RMK A2983,1,0,0,9999,0,0,0,
2026-04-27 20:00:00,METAR RPVM 272000Z 33004KT 9999 FEW039 27/24 Q1009 NOSIG RMK A2980,0,4,0,10000,0,0,0,
2026-04-27 19:00:00,METAR RPVM 271900Z VRB02KT CAVOK 27/24 Q1009 NOSIG RMK A2980,1,0,0,9999,0,0,0,
2026-04-27 18:00:00,METAR RPVM 271800Z VRB01KT 9999 FEW013 28/24 Q1009 NOSIG RMK A2980,0,1,0,10000,0,0,0,
2026-04-27 17:00:00,METAR RPVM 271700Z 05003KT CAVOK 28/24 Q1009 NOSIG RMK A2980,1,0,0,9999,0,0,0,
2026-04-27 16:00:00,METAR RPVM 271600Z 05004KT CAVOK 28/24 Q1010 NOSIG RMK A2983,1,0,0,9999,0,0,0,
2026-04-27 15:00:00,METAR RPVM 271500Z 05006KT CAVOK 29/25 Q1010 NOSIG RMK A2983,1,0,0,9999,0,0,0,
2026-04-27 14:00:00,METAR RPVM 271400Z 06007KT CAVOK 29/24 Q1010 NOSIG RMK A2983,1,0,0,9999,0,0,0,
2026-04-27 13:00:00,METAR RPVM 271300Z 05006KT CAVOK 29/25 Q1010 NOSIG RMK A2983,1,0,0,9999,0,0,0,
2026-04-27 12:00:00,METAR RPVM 271200Z 03011KT CAVOK 29/24 Q1009 NOSIG RMK A2980,1,0,0,9999,0,0,0,
2026-04-27 11:00:00,METAR RPVM 271100Z 03006KT CAVOK 29/24 Q1009 NOSIG RMK A2980,1,0,0,9999,0,0,0,
2026-04-27 10:00:00,METAR RPVM 271000Z 03008KT 9999 FEW039 29/24 Q1008 NOSIG RMK A2977,0,8,0,10000,0,0,0,
2026-04-27 09:00:00,METAR RPVM 270900Z 04009KT CAVOK 30/23 Q1007 NOSIG RMK A2974,1,0,0,9999,0,0,0,
2026-04-27 08:00:00,METAR RPVM 270800Z 04009KT CAVOK 30/23 Q1007 NOSIG RMK A2974,1,0,0,9999,0,0,0,
2026-04-27 07:00:00,METAR RPVM 270700Z 03014KT 9999 FEW039 32/24 Q1007 NOSIG RMK A2974,0,14,0,10000,0,0,0,
2026-04-27 06:00:00,"METAR RPVM 270600Z 03011KT 9999 FEW025CB 32/24 Q1008 NOSIG RMK A2977 CB SE,NW",0,11,0,10000,0,0,0,
2026-04-27 05:00:00,"METAR RPVM 270500Z 05013KT 030V090 9999 FEW006CB SCT017 BKN024 32/24 Q1008 NOSIG RMK A2977 CB SW,NW",0,13,0,10000,0,0,0,
2026-04-27 04:00:00,"METAR RPVM 270400Z 07010KT 050V110 9999 FEW016CB BKN048 32/24 Q1010 NOSIG RMK A2983 CB S,W-NW",0,10,0,10000,0,0,0,
2026-04-27 03:00:00,"METAR RPVM 270300Z 07010KT 040V120 9999 FEW004CB SCT019 BKN029 30/25 Q1010 NOSIG RMK A2983 CB SW,NW",0,10,0,10000,0,0,0,
2026-04-27 02:00:00,"METAR RPVM 270200Z 07008KT 040V100 9999 FEW003CB BKN020 BKN047 30/25 Q1011 NOSIG RMK A2985 CB NE,SW",0,8,0,10000,0,0,0,
2026-04-27 01:00:00,"METAR RPVM 270100Z 09007KT 050V140 9999 FEW003CB SCT018 BKN030 28/25 Q1011 NOSIG RMK A2985 CB SE,NW",0,7,0,10000,0,0,0,
2026-04-27 00:40:00,SPECI RPVM 270040Z 09007KT 050V140 9999 FEW001CB SCT010 BKN023 28/26 Q1011 NOSIG RMK A2985 CB S-SW,0,7,0,10000,0,0,0,
2026-04-27 00:26:00,"SPECI RPVM 270026Z 11008KT 070V160 2400 -SHRA FEW001 SCT004CB BKN011 27/25 Q1011 NOSIG RMK A2985 CB NE,SE-SW",0,8,0,2400,0,0,0,RA
2026-04-27 00:15:00,"SPECI RPVM 270015Z COR 07010KT 020V130 1500 SHRA FEW004 SCT005CB BKN012 29/25 Q1011 NOSIG RMK A2985 CB NE,SE-SW",0,10,0,1500,0,0,0,"RA,SH"
2026-04-27 00:00:00,"METAR RPVM 270000Z 02010KT 9999 FEW007CB SCT011 BKN023 30/25 Q1011 NOSIG RMK A2985 CB NE,S-SW",0,10,0,10000,0,0,0,
2026-04-26 23:00:00,"METAR RPVM 262300Z 05006KT 360V090 9999 FEW005CB SCT020 BKN049 30/24 Q1010 NOSIG RMK A2983 CB NE,SW",0,6,0,10000,0,0,0,
2026-04-26 22:00:00,METAR RPVM 262200Z VRB01KT 9999 FEW005 SCT009 BKN010 27/24 Q1009 NOSIG RMK A2980,0,1,0,10000,0,0,0,
2026-04-26 21:00:00,METAR RPVM 262100Z VRB02KT 9999 FEW006 SCT015 BKN046 27/25 Q1009 NOSIG RMK A2980,0,2,0,10000,0,0,0,
2026-04-26 20:00:00,METAR RPVM 262000Z VRB01KT 9999 FEW005 SCT018 27/25 Q1008 NOSIG RMK A2977,0,1,0,10000,0,0,0,
2026-04-26 19:00:00,METAR RPVM 261900Z 36005KT 330V030 9999 SCT004 SCT006 BKN015 28/25 Q1008 NOSIG RMK A2977,0,5,0,10000,0,0,0,
2026-04-26 18:00:00,METAR RPVM 261800Z 06004KT -SHRA 7000 FEW005CB SCT009 BKN017 28/25 Q1009 NOSIG RMK A2980 CB OHD,0,4,0,7000,0,0,0,RA
2026-04-26 17:00:00,METAR RPVM 261700Z 06005KT 9999 FEW004 SCT038 29/24 Q1009 NOSIG RMK A2980,0,5,0,10000,0,0,0,
2026-04-26 16:00:00,METAR RPVM 261600Z 06006KT 9999 FEW005 SCT010 BKN032 29/24 Q1010 NOSIG RMK A2983,0,6,0,10000,0,0,0,
2026-04-26 15:00:00,METAR RPVM 261500Z 04010KT 9999 FEW009 29/25 Q1010 NOSIG RMK A2983,0,10,0,10000,0,0,0,
2026-04-26 14:00:00,METAR RPVM 261400Z 04009KT 9999 FEW005 SCT020 29/25 Q1010 NOSIG RMK A2983,0,9,0,10000,0,0,0,
2026-04-26 13:00:00,METAR RPVM 261300Z 02011KT 9999 FEW017 29/25 Q1010 NOSIG RMK A2983,0,11,0,10000,0,0,0,
2026-04-26 12:00:00,METAR RPVM 261200Z 03012KT 9999 FEW010 SCT027 29/26 Q1010 NOSIG RMK A2983,0,12,0,10000,0,0,0,
2026-04-26 11:00:00,METAR RPVM 261100Z 03011KT 9999 FEW005TCU SCT009 BKN031 30/25 Q1009 NOSIG RMK A2980 TCU NE,0,11,0,10000,0,0,0,
2026-04-26 10:00:00,METAR RPVM 261000Z 02009KT 9999 FEW040 30/24 Q1008 NOSIG RMK A2977,0,9,0,10000,0,0,0,
2026-04-26 09:00:00,METAR RPVM 260900Z 03010KT 9999 FEW012CB SCT022 BKN036 30/23 Q1007 NOSIG RMK A2974 CB NE/W,0,10,0,10000,0,0,0,
2026-04-26 08:17:00,SPECI RPVM 260817Z 04013KT 9999 -SHRA FEW019CB BKN022 31/24 Q1007 NOSIG RMK A2974 CB W-NW,0,13,0,10000,0,0,0,RA
2026-04-26 08:00:00,METAR RPVM 260800Z 04014KT 9999 FEW019CB SCT022 32/24 Q1007 NOSIG RMK A2974 CB W-NW,0,14,0,10000,0,0,0,
2026-04-26 07:00:00,METAR RPVM 260700Z 04012KT 9999 FEW018CB 33/23 Q1007 NOSIG RMK A2974 CB NE/NW,0,12,0,10000,0,0,0,
2026-04-26 06:00:00,METAR RPVM 260600Z 03013KT CAVOK 33/23 Q1007 NOSIG RMK A2974,1,0,0,9999,0,0,0,
2026-04-26 05:00:00,METAR RPVM 260500Z 04012KT 9999 FEW020TCU SCT026 33/22 Q1008 NOSIG RMK A2977,0,12,0,10000,0,0,0,
2026-04-26 04:00:00,METAR RPVM 260400Z 04010KT 010V070 9999 FEW025TCU 33/22 Q1009 NOSIG RMK A2980 TCU NE,0,10,0,10000,0,0,0,
2026-04-26 03:00:00,METAR RPVM 260300Z 04009KT 350V060 CAVOK 32/23 Q1010 NOSIG RMK A2983,1,0,0,9999,0,0,0,
2026-04-26 02:00:00,METAR RPVM 260200Z 02007KT 340V070 CAVOK 32/24 Q1011 NOSIG RMK A2985,1,0,0,9999,0,0,0,
2026-04-26 01:00:00,METAR RPVM 260100Z 01007KT 9999 FEW006 31/24 Q1011 NOSIG RMK A2985,0,7,0,10000,0,0,0,
2026-04-26 00:00:00,METAR RPVM 260000Z 05005KT 020V090 9999 FEW007 SCT023 30/24 Q1011 NOSIG RMK A2985,0,5,0,10000,0,0,0,
2026-04-25 23:00:00,METAR RPVM 252300Z 06004KT 020V100 CAVOK 30/25 Q1011 NOSIG RMK A2985,1,0,0,9999,0,0,0,
2026-04-25 22:00:00,METAR RPVM 252200Z VRB02KT 9999 FEW013 28/25 Q1010 NOSIG RMK A2983,0,2,0,10000,0,0,0,
2026-04-25 21:00:00,METAR RPVM 252100Z 04008KT 9999 FEW006 SCT010 BKN015 28/25 Q1010 NOSIG RMK A2983,0,8,0,10000,0,0,0,
2026-04-25 20:00:00,METAR RPVM 252000Z 04008KT 9999 FEW019 28/24 Q1009 NOSIG RMK A2980,0,8,0,10000,0,0,0,
2026-04-25 19:00:00,METAR RPVM 251900Z 04006KT 010V070 CAVOK 28/23 Q1009 NOSIG RMK A2980,1,0,0,9999,0,0,0,
2026-04-25 18:00:00,METAR RPVM 251800Z 04010KT 9999 FEW013 SCT020 28/23 Q1009 NOSIG RMK A2980,0,10,0,10000,0,0,0,
2026-04-25 17:00:00,METAR RPVM 251700Z 05012KT 9999 FEW005 SCT012 BKN019 28/23 Q1010 NOSIG RMK A2983,0,12,0,10000,0,0,0,
2026-04-25 16:00:00,METAR RPVM 251600Z 04009KT 9999 SCT012 BKN014 OVC044 30/25 Q1011 NOSIG RMK A2985,0,9,0,10000,0,0,0,
2026-04-25 15:00:00,METAR RPVM 251500Z 04007KT 9999 SCT016 SCT018 BKN048 30/24 Q1011 NOSIG RMK A2985,0,7,0,10000,0,0,0,
2026-04-25 14:00:00,METAR RPVM 251400Z 05008KT CAVOK 30/24 Q1011 NOSIG RMK A2985,1,0,0,9999,0,0,0,
2026-04-25 13:00:00,METAR RPVM 251300Z 05010KT CAVOK 30/24 Q1011 NOSIG RMK A2985,1,0,0,9999,0,0,0,
2026-04-25 12:00:00,METAR RPVM 251200Z 06008KT CAVOK 30/23 Q1010 NOSIG RMK A2983,1,0,0,9999,0,0,0,
2026-04-25 11:00:00,METAR RPVM 251100Z 05007KT CAVOK 31/24 Q1010 NOSIG RMK A2983,1,0,0,9999,0,0,0,
2026-04-25 10:00:00,METAR RPVM 251000Z 05009KT CAVOK 31/23 Q1009 NOSIG RMK A2980,1,0,0,9999,0,0,0,
2026-04-25 09:00:00,METAR RPVM 250900Z 05008KT 010V080 CAVOK 32/23 Q1009 NOSIG RMK A2980,1,0,0,9999,0,0,0,
2026-04-25 08:00:00,METAR RPVM 250800Z 03010KT 350V050 CAVOK 33/23 Q1009 NOSIG RMK A2980,1,0,0,9999,0,0,0,
2026-04-25 07:00:00,METAR RPVM 250700Z 05010KT CAVOK 33/23 Q1009 NOSIG RMK A2980,1,0,0,9999,0,0,0,
2026-04-25 06:00:00,METAR RPVM 250600Z 02008KT 340V060 CAVOK 33/23 Q1009 NOSIG RMK A2980,1,0,0,9999,0,0,0,
2026-04-25 05:00:00,METAR RPVM 250500Z 03009KT 350V080 9999 FEW049 33/23 Q1010 NOSIG RMK A2983,0,9,0,10000,0,0,0,
2026-04-25 04:00:00,METAR RPVM 250400Z 05008KT 360V080 9999 FEW028 33/22 Q1011 NOSIG RMK A2985,0,8,0,10000,0,0,0,
2026-04-25 03:00:00,METAR RPVM 250300Z 04009KT 360V080 CAVOK 32/22 Q1012 NOSIG RMK A2988,1,0,0,9999,0,0,0,
2026-04-25 02:00:00,METAR RPVM 250200Z 04011KT 360V060 CAVOK 32/22 Q1013 NOSIG RMK A2991,1,0,0,9999,0,0,0,
2026-04-25 01:00:00,METAR RPVM 250100Z 07009KT 030V100 CAVOK 32/21 Q1013 NOSIG RMK A2991,1,0,0,9999,0,0,0,
2026-04-25 00:00:00,METAR RPVM 250000Z 03008KT CAVOK 31/22 Q1013 NOSIG RMK A2991,1,0,0,9999,0,0,0,
2026-04-24 23:00:00,METAR RPVM 242300Z 06005KT 040V100 CAVOK 30/22 Q1013 NOSIG RMK A2991,1,0,0,9999,0,0,0,
2026-04-24 22:00:00,METAR RPVM 242200Z 07002KT CAVOK 28/23 Q1012 NOSIG RMK A2988,1,0,0,9999,0,0,0,
2026-04-24 21:00:00,METAR RPVM 242100Z 06005KT CAVOK 28/23 Q1011 NOSIG RMK A2985,1,0,0,9999,0,0,0,
2026-04-24 20:00:00,METAR RPVM 242000Z 05004KT CAVOK 28/23 Q1011 NOSIG RMK A2985,1,0,0,9999,0,0,0,
2026-04-24 19:00:00,METAR RPVM 241900Z 05005KT CAVOK 28/23 Q1011 NOSIG RMK A2985,1,0,0,9999,0,0,0,
2026-04-24 18:00:00,METAR RPVM 241800Z 05005KT CAVOK 28/22 Q1011 NOSIG RMK A2985,1,0,0,9999,0,0,0,
2026-04-24 17:00:00,METAR RPVM 241700Z 04005KT CAVOK 28/24 Q1011 NOSIG RMK A2985,1,0,0,9999,0,0,0,
2026-04-24 16:00:00,METAR RPVM 241600Z 05005KT CAVOK 29/23 Q1011 NOSIG RMK A2985,1,0,0,9999,0,0,0,
2026-04-24 15:00:00,METAR RPVM 241500Z 06007KT CAVOK 29/23 Q1012 NOSIG RMK A2988,1,0,0,9999,0,0,0,
2026-04-24 14:00:00,METAR RPVM 241400Z 05008KT 9999 FEW011 30/25 Q1012 NOSIG RMK A2988,0,8,0,10000,0,0,0,
2026-04-24 13:00:00,METAR RPVM 241300Z 01008KT 9999 FEW009 SCT011 BKN037 30/25 Q1011 NOSIG RMK A2985,0,8,0,10000,0,0,0,
2026-04-24 12:00:00,METAR RPVM 241200Z 04008KT CAVOK 30/25 Q1010 NOSIG RMK A2983,1,0,0,9999,0,0,0,
2026-04-24 11:00:00,METAR RPVM 241100Z 03007KT CAVOK 30/25 Q1010 NOSIG RMK A2983,1,0,0,9999,0,0,0,
2026-04-24 10:00:00,METAR RPVM 241000Z 04006KT CAVOK 31/24 Q1009 NOSIG RMK A2980,1,0,0,9999,0,0,0,
2026-04-24 09:00:00,METAR RPVM 240900Z 04008KT CAVOK 32/24 Q1009 NOSIG RMK A2980,1,0,0,9999,0,0,0,
2026-04-24 08:00:00,METAR RPVM 240800Z 05008KT 010V090 CAVOK 33/24 Q1008 NOSIG RMK A2977,1,0,0,9999,0,0,0,
2026-04-24 07:00:00,METAR RPVM 240700Z 04009KT 360V070 CAVOK 33/24 Q1009 NOSIG RMK A2980,1,0,0,9999,0,0,0,
2026-04-24 06:00:00,METAR RPVM 240600Z 03010KT CAVOK 33/24 Q1009 NOSIG RMK A2980,1,0,0,9999,0,0,0,
2026-04-24 05:00:00,METAR RPVM 240500Z 03011KT 360V060 9999 FEW048 33/24 Q1010 NOSIG RMK A2983,0,11,0,10000,0,0,0,
2026-04-24 04:00:00,METAR RPVM 240400Z 04011KT 010V070 9999 FEW030 33/24 Q1011 NOSIG RMK A2985,0,11,0,10000,0,0,0,
2026-04-24 03:00:00,METAR RPVM 240300Z 07008KT 010V140 CAVOK 33/24 Q1012 NOSIG RMK A2988,1,0,0,9999,0,0,0,
2026-04-24 02:00:00,METAR RPVM 240200Z 07009KT 040V120 CAVOK 32/24 Q1013 NOSIG RMK A2991,1,0,0,9999,0,0,0,
2026-04-24 01:00:00,METAR RPVM 240100Z 07008KT 030V120 9999 FEW008 32/24 Q1013 NOSIG RMK A2991,0,8,0,10000,0,0,0,
2026-04-24 00:00:00,METAR RPVM 240000Z 06005KT 030V130 9999 FEW006 31/24 Q1013 NOSIG RMK A2991,0,5,0,10000,0,0,0,
2026-04-23 23:00:00,METAR RPVM 232300Z VRB01KT 9999 FEW027 30/24 Q1012 NOSIG RMK A2988,0,1,0,10000,0,0,0,
2026-04-23 22:00:00,METAR RPVM 232200Z VRB01KT 9999 SCT015 27/24 Q1011 NOSIG RMK A2985,0,1,0,10000,0,0,0,
2026-04-23 21:00:00,METAR RPVM 232100Z 33003KT 290V010 9999 SCT011 SCT013 BKN036 27/24 Q1011 NOSIG RMK A2985,0,3,0,10000,0,0,0,
2026-04-23 20:00:00,METAR RPVM 232000Z 35002KT 9999 FEW012 27/24 Q1010 NOSIG RMK A2983,0,2,0,10000,0,0,0,
2026-04-23 19:00:00,METAR RPVM 231900Z 33004KT 9999 FEW049 27/24 Q1010 NOSIG RMK A2983,0,4,0,10000,0,0,0,
2026-04-23 18:00:00,METAR RPVM 231800Z 01003KT 320V030 CAVOK 28/24 Q1010 NOSIG RMK A2983,1,0,0,9999,0,0,0,
2026-04-23 17:00:00,METAR RPVM 231700Z 05003KT CAVOK 28/24 Q1010 NOSIG RMK A2983,1,0,0,9999,0,0,0,
2026-04-23 16:00:00,METAR RPVM 231600Z 05006KT CAVOK 29/24 Q1010 NOSIG RMK A2983,1,0,0,9999,0,0,0,
2026-04-23 15:00:00,METAR RPVM 231500Z 04008KT CAVOK 29/25 Q1010 NOSIG RMK A2983,1,0,0,9999,0,0,0,
2026-04-23 14:00:00,METAR RPVM 231400Z 04006KT CAVOK 29/25 Q1011 NOSIG RMK A2985,1,0,0,9999,0,0,0,
2026-04-23 13:00:00,METAR RPVM 231300Z 02008KT CAVOK 29/25 Q1010 NOSIG RMK A2983,1,0,0,9999,0,0,0,
2026-04-23 12:00:00,METAR RPVM 231200Z 35005KT CAVOK 29/25 Q1009 NOSIG RMK A2980,1,0,0,9999,0,0,0,
2026-04-23 11:00:00,METAR RPVM 231100Z 02006KT 330V050 CAVOK 30/24 Q1009 NOSIG RMK A2980,1,0,0,9999,0,0,0,
2026-04-23 10:00:00,METAR RPVM 231000Z 03007KT CAVOK 30/23 Q1008 NOSIG RMK A2977,1,0,0,9999,0,0,0,
2026-04-23 09:00:00,METAR RPVM 230900Z 03008KT CAVOK 31/23 Q1008 NOSIG RMK A2977,1,0,0,9999,0,0,0,
2026-04-23 08:00:00,METAR RPVM 230800Z 04011KT CAVOK 32/23 Q1007 NOSIG RMK A2974,1,0,0,9999,0,0,0,
2026-04-23 07:00:00,METAR RPVM 230700Z 04011KT CAVOK 33/22 Q1007 NOSIG RMK A2974,1,0,0,9999,0,0,0,
2026-04-23 06:00:00,METAR RPVM 230600Z 04012KT 010V080 CAVOK 33/23 Q1008 NOSIG RMK A2977,1,0,0,9999,0,0,0,
2026-04-23 05:00:00,METAR RPVM 230500Z 03010KT 360V060 CAVOK 32/23 Q1009 NOSIG RMK A2980,1,0,0,9999,0,0,0,
2026-04-23 04:00:00,METAR RPVM 230400Z 03010KT 360V070 9999 FEW032 32/23 Q1010 NOSIG RMK A2983,0,10,0,10000,0,0,0,
2026-04-23 03:00:00,METAR RPVM 230300Z 04010KT 360V070 9999 FEW021 31/24 Q1010 NOSIG RMK A2983,0,10,0,10000,0,0,0,
2026-04-23 02:00:00,METAR RPVM 230200Z 03009KT 350V060 9999 SCT020 SCT025 31/24 Q1011 NOSIG RMK A2985,0,9,0,10000,0,0,0,
2026-04-23 01:00:00,METAR RPVM 230100Z 04008KT 010V070 9999 BKN019 30/24 Q1011 NOSIG RMK A2985,0,8,0,10000,0,0,0,
2026-04-23 00:00:00,"METAR RPVM 230000Z 04008KT 9999 FEW019TCU SCT022 BKN025 29/24 Q1011 NOSIG RMK A2985 TCU S,SW",0,8,0,10000,0,0,0,
2026-04-22 23:00:00,METAR RPVM 222300Z 02004KT 330V050 9999 FEW005 SCT007 30/24 Q1011 NOSIG RMK A2985,0,4,0,10000,0,0,0,
2026-04-22 22:00:00,METAR RPVM 222200Z 34005KT 9999 SCT018 27/23 Q1010 NOSIG RMK A2983,0,5,0,10000,0,0,0,
2026-04-22 21:00:00,METAR RPVM 222100Z 34004KT 9999 FEW013 27/23 Q1010 NOSIG RMK A2983,0,4,0,10000,0,0,0,
2026-04-22 20:00:00,METAR RPVM 222000Z 34003KT 9999 FEW006 SCT045 27/23 Q1009 NOSIG RMK A2980,0,3,0,10000,0,0,0,
2026-04-22 19:00:00,METAR RPVM 221900Z 34004KT 9999 FEW013 SCT015 BKN041 27/23 Q1009 NOSIG RMK A2980,0,4,0,10000,0,0,0,
2026-04-22 18:00:00,METAR RPVM 221800Z 34003KT 9999 FEW006 SCT013 BKN021 27/23 Q1009 NOSIG RMK A2980,0,3,0,10000,0,0,0,
2026-04-22 17:00:00,METAR RPVM 221700Z 34005KT 9999 FEW006 SCT016 27/23 Q1009 NOSIG RMK A2980,0,5,0,10000,0,0,0,
2026-04-22 16:00:00,METAR RPVM 221600Z 02009KT CAVOK 28/24 Q1010 NOSIG RMK A2983,1,0,0,9999,0,0,0,
2026-04-22 15:00:00,METAR RPVM 221500Z 02009KT CAVOK 28/24 Q1010 NOSIG RMK A2983,1,0,0,9999,0,0,0,
2026-04-22 14:00:00,METAR RPVM 221400Z 03011KT 9999 FEW012 29/23 Q1010 NOSIG RMK A2983,0,11,0,10000,0,0,0,
2026-04-22 13:00:00,METAR RPVM 221300Z 04009KT CAVOK 29/23 Q1009 NOSIG RMK A2980,1,0,0,9999,0,0,0,
2026-04-22 12:00:00,METAR RPVM 221200Z 04008KT CAVOK 29/22 Q1009 NOSIG RMK A2980,1,0,0,9999,0,0,0,
2026-04-22 11:00:00,METAR RPVM 221100Z 03006KT CAVOK 29/21 Q1009 NOSIG RMK A2980,1,0,0,9999,0,0,0,
2026-04-22 10:00:00,METAR RPVM 221000Z 04007KT CAVOK 30/21 Q1008 NOSIG RMK A2977,1,0,0,9999,0,0,0,
2026-04-22 09:00:00,METAR RPVM 220900Z 03010KT CAVOK 31/21 Q1008 NOSIG RMK A2977,1,0,0,9999,0,0,0,
2026-04-22 08:00:00,METAR RPVM 220800Z 03010KT CAVOK 32/21 Q1007 NOSIG RMK A2974,1,0,0,9999,0,0,0,
2026-04-22 07:00:00,METAR RPVM 220700Z 04009KT CAVOK 32/21 Q1008 NOSIG RMK A2977,1,0,0,9999,0,0,0,
2026-04-22 06:00:00,METAR RPVM 220600Z 03009KT 330V080 CAVOK 32/21 Q1008 NOSIG RMK A2977,1,0,0,9999,0,0,0,
2026-04-22 05:00:00,METAR RPVM 220500Z 02009KT 360V060 CAVOK 32/21 Q1009 NOSIG RMK A2980,1,0,0,9999,0,0,0,
2026-04-22 04:00:00,METAR RPVM 220400Z 03008KT 350V080 9999 FEW033 32/22 Q1010 NOSIG RMK A2983,0,8,0,10000,0,0,0,
2026-04-22 03:00:00,METAR RPVM 220300Z 02010KT 340V050 9999 FEW036 31/22 Q1011 NOSIG RMK A2985,0,10,0,10000,0,0,0,
2026-04-22 02:00:00,METAR RPVM 220200Z 03009KT 360V060 9999 FEW007 31/23 Q1011 NOSIG RMK A2985,0,9,0,10000,0,0,0,
2026-04-22 01:00:00,METAR RPVM 220100Z 05013KT CAVOK 31/21 Q1011 NOSIG RMK A2985,1,0,0,9999,0,0,0,
2026-04-22 00:00:00,METAR RPVM 220000Z 04009KT CAVOK 30/22 Q1011 NOSIG RMK A2985,1,0,0,9999,0,0,0,
2026-04-21 23:00:00,METAR RPVM 212300Z 05007KT CAVOK 29/22 Q1011 NOSIG RMK A2985,1,0,0,9999,0,0,0,
2026-04-21 22:00:00,METAR RPVM 212200Z 02005KT 320V060 9999 FEW027 26/22 Q1010 NOSIG RMK A2983,0,5,0,10000,0,0,0,
2026-04-21 21:00:00,METAR RPVM 212100Z 36003KT 330V050 9999 FEW007 SCT008 26/22 Q1010 NOSIG RMK A2983,0,3,0,10000,0,0,0,
2026-04-21 20:00:00,METAR RPVM 212000Z 34004KT 9999 FEW006 26/23 Q1010 NOSIG RMK A2983,0,4,0,10000,0,0,0,
2026-04-21 19:00:00,METAR RPVM 211900Z 34006KT CAVOK 26/23 Q1010 NOSIG RMK A2983,1,0,0,9999,0,0,0,
2026-04-21 18:00:00,METAR RPVM 211800Z 05008KT 9999 FEW007 28/22 Q1010 NOSIG RMK A2983,0,8,0,10000,0,0,0,
2026-04-21 17:00:00,METAR RPVM 211700Z 06007KT CAVOK 28/22 Q1010 NOSIG RMK A2983,1,0,0,9999,0,0,0,
2026-04-21 16:00:00,METAR RPVM 211600Z 06008KT CAVOK 28/22 Q1010 NOSIG RMK A2983,1,0,0,9999,0,0,0,
2026-04-21 15:00:00,METAR RPVM 211500Z 05007KT CAVOK 28/24 Q1011 NOSIG RMK A2985,1,0,0,9999,0,0,0,
2026-04-21 14:00:00,METAR RPVM 211400Z 06007KT CAVOK 28/23 Q1010 NOSIG RMK A2983,1,0,0,9999,0,0,0,
2026-04-21 13:00:00,METAR RPVM 211300Z 05009KT CAVOK 29/24 Q1010 NOSIG RMK A2983,1,0,0,9999,0,0,0,
2026-04-21 12:00:00,METAR RPVM 211200Z 04011KT CAVOK 30/23 Q1009 NOSIG RMK A2980,1,0,0,9999,0,0,0,
2026-04-21 11:00:00,METAR RPVM 211100Z 03009KT CAVOK 29/23 Q1009 NOSIG RMK A2980,1,0,0,9999,0,0,0,
2026-04-21 10:00:00,METAR RPVM 211000Z 03007KT CAVOK 30/23 Q1008 NOSIG RMK A2977,1,0,0,9999,0,0,0,
2026-04-21 09:00:00,METAR RPVM 210900Z 04008KT CAVOK 31/23 Q1008 NOSIG RMK A2977,1,0,0,9999,0,0,0,
2026-04-21 08:00:00,METAR RPVM 210800Z 07009KT 040V100 CAVOK 32/22 Q1008 NOSIG RMK A2977,1,0,0,9999,0,0,0,
2026-04-21 07:00:00,METAR RPVM 210700Z 04010KT 020V080 CAVOK 32/22 Q1008 NOSIG RMK A2977,1,0,0,9999,0,0,0,
2026-04-21 06:00:00,METAR RPVM 210600Z 03008KT 340V060 CAVOK 32/21 Q1009 NOSIG RMK A2980,1,0,0,9999,0,0,0,
2026-04-21 05:00:00,METAR RPVM 210500Z 03009KT 350V050 9999 FEW047 32/22 Q1009 NOSIG RMK A2980,0,9,0,10000,0,0,0,
2026-04-21 04:00:00,METAR RPVM 210400Z 03009KT 350V060 9999 FEW034 32/23 Q1011 NOSIG RMK A2985,0,9,0,10000,0,0,0,
2026-04-21 03:00:00,METAR RPVM 210300Z 03009KT 350V060 9999 FEW029 SCT035 31/23 Q1011 NOSIG RMK A2985,0,9,0,10000,0,0,0,
2026-04-21 02:00:00,METAR RPVM 210200Z 03010KT 9000 FEW009 31/23 Q1012 NOSIG RMK A2988,0,10,0,9000,0,0,0,
2026-04-21 01:00:00,METAR RPVM 210100Z 03010KT 010V070 CAVOK 31/23 Q1012 NOSIG RMK A2988,1,0,0,9999,0,0,0,
2026-04-21 00:00:00,METAR RPVM 210000Z 05009KT 9999 FEW008 30/23 Q1012 NOSIG RMK A2988,0,9,0,10000,0,0,0,
2026-04-20 23:00:00,METAR RPVM 202300Z 34004KT 9999 FEW007 SCT025 28/24 Q1012 NOSIG RMK A2988,0,4,0,10000,0,0,0,
2026-04-20 22:00:00,METAR RPVM 202200Z VRB01KT CAVOK 26/23 Q1011 NOSIG RMK A2985,1,0,0,9999,0,0,0,
2026-04-20 21:00:00,METAR RPVM 202100Z 34003KT 9999 FEW007 26/24 Q1010 NOSIG RMK A2983,0,3,0,10000,0,0,0,
2026-04-20 20:00:00,METAR RPVM 202000Z VRB02KT 9999 SCT006 SCT008 27/23 Q1010 NOSIG RMK A2983,0,2,0,10000,0,0,0,
2026-04-20 19:00:00,METAR RPVM 201900Z VRB02KT 9999 FEW007 SCT008 BKN024 27/24 Q1010 NOSIG RMK A2983,0,2,0,10000,0,0,0,
2026-04-20 18:00:00,METAR RPVM 201800Z 33004KT 9999 FEW007 27/23 Q1011 NOSIG RMK A2985,0,4,0,10000,0,0,0,
2026-04-20 17:00:00,METAR RPVM 201700Z 34005KT 9999 FEW008 SCT029 27/23 Q1011 NOSIG RMK A2985,0,5,0,10000,0,0,0,
2026-04-20 16:00:00,METAR RPVM 201600Z 02004KT 340V060 9999 FEW007 28/23 Q1011 NOSIG RMK A2985,0,4,0,10000,0,0,0,
2026-04-20 15:00:00,METAR RPVM 201500Z 34005KT CAVOK 27/23 Q1012 NOSIG RMK A2988,1,0,0,9999,0,0,0,
2026-04-20 14:00:00,METAR RPVM 201400Z 34005KT CAVOK 27/23 Q1011 NOSIG RMK A2985,1,0,0,9999,0,0,0,
2026-04-20 13:00:00,METAR RPVM 201300Z 01007KT CAVOK 28/23 Q1011 NOSIG RMK A2985,1,0,0,9999,0,0,0,
2026-04-20 12:00:00,METAR RPVM 201200Z 01008KT CAVOK 28/23 Q1010 NOSIG RMK A2983,1,0,0,9999,0,0,0,
2026-04-20 11:00:00,METAR RPVM 201100Z 01010KT CAVOK 29/23 Q1010 NOSIG RMK A2983,1,0,0,9999,0,0,0,
2026-04-20 10:00:00,METAR RPVM 201000Z 04011KT 9999 FEW020TCU 30/23 Q1009 NOSIG RMK A2980 TCU N,0,11,0,10000,0,0,0,
2026-04-20 09:00:00,METAR RPVM 200900Z 04010KT 9999 FEW040 31/22 Q1009 NOSIG RMK A2980,0,10,0,10000,0,0,0,
2026-04-20 08:00:00,METAR RPVM 200800Z 04008KT 010V070 CAVOK 33/20 Q1008 NOSIG RMK A2977,1,0,0,9999,0,0,0,
2026-04-20 07:00:00,METAR RPVM 200700Z 04008KT 010V070 CAVOK 33/20 Q1009 NOSIG RMK A2980,1,0,0,9999,0,0,0,
2026-04-20 06:00:00,METAR RPVM 200600Z 02008KT 350V060 9999 FEW058CB 32/22 Q1009 NOSIG RMK A2980 CB W,0,8,0,10000,0,0,0,
2026-04-20 05:00:00,METAR RPVM 200500Z 03009KT 360V080 9999 FEW059CB 33/22 Q1010 NOSIG RMK A2983 CB NW,0,9,0,10000,0,0,0,
2026-04-20 04:00:00,METAR RPVM 200400Z COR 11007KT 060V160 9999 FEW028CB 32/23 Q1011 NOSIG RMK A2985 CB NW,0,7,0,10000,0,0,0,
2026-04-20 03:00:00,METAR RPVM 200300Z 11006KT 050V160 9999 FEW007CB SCT009 32/23 Q1012 NOSIG RMK A2988 CB NW,0,6,0,10000,0,0,0,
2026-04-20 02:00:00,METAR RPVM 200200Z VRB04KT 9999 FEW028TCU SCT032 31/23 Q1012 NOSIG RMK A2988 TCU S,0,4,0,10000,0,0,0,
2026-04-20 01:00:00,"METAR RPVM 200100Z VRB02KT 9999 SCT026TCU SCT029 31/23 Q1012 NOSIG RMK A2988 TCU S,NW",0,2,0,10000,0,0,0,
2026-04-20 00:00:00,METAR RPVM 200000Z VRB02KT 9999 FEW037 31/23 Q1012 NOSIG RMK A2988 LGT HZ ALQDS,0,2,0,10000,0,0,0,DS
2026-04-19 23:00:00,METAR RPVM 192300Z VRB02KT CAVOK 28/22 Q1011 NOSIG RMK A2985 LGT HZ ALQDS,1,0,0,9999,0,0,0,
2026-04-19 22:00:00,METAR RPVM 192200Z VRB01KT 9999 FEW012 25/21 Q1010 NOSIG RMK A2983,0,1,0,10000,0,0,0,
2026-04-19 21:00:00,METAR RPVM 192100Z VRB02KT 9999 FEW028 24/21 Q1010 NOSIG RMK A2983,0,2,0,10000,0,0,0,
2026-04-19 20:00:00,METAR RPVM 192000Z VRB01KT 9999 FEW011 25/20 Q1010 NOSIG RMK A2983,0,1,0,10000,0,0,0,
2026-04-19 19:00:00,METAR RPVM 191900Z 36002KT CAVOK 25/20 Q1009 NOSIG RMK A2980,1,0,0,9999,0,0,0,
2026-04-19 18:00:00,METAR RPVM 191800Z VRB01KT CAVOK 25/20 Q1010 NOSIG RMK A2983,1,0,0,9999,0,0,0,
2026-04-19 17:00:00,METAR RPVM 191700Z VRB01KT CAVOK 26/19 Q1010 NOSIG RMK A2983,1,0,0,9999,0,0,0,
2026-04-19 16:00:00,METAR RPVM 191600Z 31003KT 290V350 CAVOK 26/20 Q1011 NOSIG RMK A2985,1,0,0,9999,0,0,0,
2026-04-19 15:00:00,METAR RPVM 191500Z 35004KT CAVOK 26/20 Q1011 NOSIG RMK A2985,1,0,0,9999,0,0,0,
2026-04-19 14:00:00,METAR RPVM 191400Z 35003KT 330V030 CAVOK 27/19 Q1011 NOSIG RMK A2985,1,0,0,9999,0,0,0,
2026-04-19 13:00:00,METAR RPVM 191300Z 36006KT 330V030 CAVOK 28/19 Q1010 NOSIG RMK A2983,1,0,0,9999,0,0,0,
2026-04-19 12:00:00,METAR RPVM 191200Z 35005KT 9000 NSC 28/19 Q1009 NOSIG RMK A2980,0,5,0,9000,0,0,0,
2026-04-19 11:00:00,METAR RPVM 191100Z 01004KT CAVOK 29/20 Q1009 NOSIG RMK A2980,1,0,0,9999,0,0,0,
2026-04-19 10:00:00,METAR RPVM 191000Z 05006KT CAVOK 30/19 Q1008 NOSIG RMK A2977,1,0,0,9999,0,0,0,
2026-04-19 09:00:00,METAR RPVM 190900Z 04009KT CAVOK 31/17 Q1008 NOSIG RMK A2977,1,0,0,9999,0,0,0,
2026-04-19 08:00:00,METAR RPVM 190800Z 03008KT CAVOK 32/19 Q1008 NOSIG RMK A2977,1,0,0,9999,0,0,0,
2026-04-19 07:00:00,METAR RPVM 190700Z 03008KT 350V060 CAVOK 32/19 Q1008 NOSIG RMK A2977,1,0,0,9999,0,0,0,
2026-04-19 06:00:00,METAR RPVM 190600Z 08006KT 020V150 CAVOK 33/20 Q1008 NOSIG RMK A2977,1,0,0,9999,0,0,0,
2026-04-19 05:00:00,METAR RPVM 190500Z 12006KT 060V190 9999 FEW041 32/20 Q1009 NOSIG RMK A2980,0,6,0,10000,0,0,0,
2026-04-19 04:00:00,METAR RPVM 190400Z 14005KT 070V200 9999 FEW032 SCT037 32/21 Q1010 NOSIG RMK A2983,0,5,0,10000,0,0,0,
2026-04-19 03:00:00,METAR RPVM 190300Z VRB04KT 9999 FEW008CB SCT010 BKN029 30/21 Q1011 NOSIG RMK A2985 CB W,0,4,0,10000,0,0,0,
2026-04-19 02:00:00,METAR RPVM 190200Z VRB03KT 9999 SCT030CB SCT038 30/21 Q1011 NOSIG RMK A2985 CB SW-W,0,3,0,10000,0,0,0,
2026-04-19 01:00:00,METAR RPVM 190100Z VRB02KT 9999 FEW031 29/22 Q1011 NOSIG RMK A2985,0,2,0,10000,0,0,0,
2026-04-19 00:00:00,METAR RPVM 190000Z 36003KT 300V070 9999 FEW005 SCT020 29/22 Q1011 NOSIG RMK A2985,0,3,0,10000,0,0,0,
2026-04-18 23:00:00,METAR RPVM 182300Z VRB01KT 9999 FEW006 28/20 Q1011 NOSIG RMK A2985,0,1,0,10000,0,0,0,
2026-04-18 22:00:00,METAR RPVM 182200Z VRB01KT CAVOK 24/19 Q1010 NOSIG RMK A2983,1,0,0,9999,0,0,0,
2026-04-18 21:00:00,METAR RPVM 182100Z VRB02KT 9999 FEW020 24/18 Q1010 NOSIG RMK A2983,0,2,0,10000,0,0,0,
2026-04-18 20:00:00,METAR RPVM 182000Z VRB01KT CAVOK 24/18 Q1009 NOSIG RMK A2980,1,0,0,9999,0,0,0,
2026-04-18 19:00:00,METAR RPVM 181900Z VRB01KT CAVOK 24/18 Q1009 NOSIG RMK A2980,1,0,0,9999,0,0,0,
2026-04-18 18:00:00,METAR RPVM 181800Z VRB01KT CAVOK 25/18 Q1009 NOSIG RMK A2980,1,0,0,9999,0,0,0,
2026-04-18 17:00:00,METAR RPVM 181700Z VRB02KT CAVOK 24/17 Q1010 NOSIG RMK A2983,1,0,0,9999,0,0,0,
2026-04-18 16:00:00,METAR RPVM 181600Z 33004KT CAVOK 24/16 Q1010 NOSIG RMK A2983,1,0,0,9999,0,0,0,
2026-04-18 15:00:00,METAR RPVM 181500Z 35003KT 330V040 CAVOK 25/16 Q1010 NOSIG RMK A2983,1,0,0,9999,0,0,0,
2026-04-18 14:00:00,METAR RPVM 181400Z 34004KT CAVOK 26/16 Q1010 NOSIG RMK A2983,1,0,0,9999,0,0,0,
2026-04-18 13:00:00,METAR RPVM 181300Z 35004KT CAVOK 26/17 Q1010 NOSIG RMK A2983,1,0,0,9999,0,0,0,
2026-04-18 12:00:00,METAR RPVM 181200Z 34004KT CAVOK 27/18 Q1009 NOSIG RMK A2980,1,0,0,9999,0,0,0,
2026-04-18 11:00:00,METAR RPVM 181100Z 35005KT CAVOK 29/19 Q1009 NOSIG RMK A2980,1,0,0,9999,0,0,0,
2026-04-18 10:00:00,METAR RPVM 181000Z 05007KT CAVOK 30/19 Q1008 NOSIG RMK A2977,1,0,0,9999,0,0,0,
2026-04-18 09:00:00,METAR RPVM 180900Z 03008KT CAVOK 31/19 Q1008 NOSIG RMK A2977,1,0,0,9999,0,0,0,
2026-04-18 08:00:00,METAR RPVM 180800Z 05008KT 020V080 CAVOK 31/20 Q1008 NOSIG RMK A2977,1,0,0,9999,0,0,0,
2026-04-18 07:00:00,METAR RPVM 180700Z 05009KT 010V080 CAVOK 32/20 Q1008 NOSIG RMK A2977,1,0,0,9999,0,0,0,
2026-04-18 06:00:00,METAR RPVM 180600Z 04010KT CAVOK 32/20 Q1008 NOSIG RMK A2977,1,0,0,9999,0,0,0,
2026-04-18 05:00:00,METAR RPVM 180500Z 04009KT 010V070 CAVOK 32/20 Q1010 NOSIG RMK A2983,1,0,0,9999,0,0,0,
2026-04-18 04:00:00,METAR RPVM 180400Z 04009KT 010V070 9999 FEW019 32/20 Q1011 NOSIG RMK A2985,0,9,0,10000,0,0,0,
2026-04-18 03:00:00,METAR RPVM 180300Z 04006KT 010V080 CAVOK 32/20 Q1011 NOSIG RMK A2985,1,0,0,9999,0,0,0,
2026-04-18 02:00:00,METAR RPVM 180200Z 04006KT 350V110 CAVOK 31/20 Q1012 NOSIG RMK A2988,1,0,0,9999,0,0,0,
2026-04-18 01:00:00,METAR RPVM 180100Z 05006KT 350V100 CAVOK 31/21 Q1012 NOSIG RMK A2988,1,0,0,9999,0,0,0,
2026-04-18 00:00:00,METAR RPVM 180000Z 34005KT 300V020 CAVOK 29/22 Q1012 NOSIG RMK A2988,1,0,0,9999,0,0,0,
2026-04-17 23:00:00,METAR RPVM 172300Z 33003KT CAVOK 27/21 Q1012 NOSIG RMK A2988,1,0,0,9999,0,0,0,
2026-04-17 22:00:00,METAR RPVM 172200Z 31004KT CAVOK 24/20 Q1011 NOSIG RMK A2985,1,0,0,9999,0,0,0,
2026-04-17 21:00:00,METAR RPVM 172100Z 32005KT CAVOK 25/20 Q1010 NOSIG RMK A2983,1,0,0,9999,0,0,0,
2026-04-17 20:00:00,METAR RPVM 172000Z 33004KT CAVOK 24/19 Q1010 NOSIG RMK A2983,1,0,0,9999,0,0,0,
2026-04-17 19:00:00,METAR RPVM 171900Z 32004KT CAVOK 25/18 Q1009 NOSIG RMK A2980,1,0,0,9999,0,0,0,
2026-04-17 18:00:00,METAR RPVM 171800Z 34003KT CAVOK 25/17 Q1009 NOSIG RMK A2980,1,0,0,9999,0,0,0,
2026-04-17 17:00:00,METAR RPVM 171700Z 33003KT CAVOK 25/18 Q1010 NOSIG RMK A2983,1,0,0,9999,0,0,0,
2026-04-17 16:00:00,METAR RPVM 171600Z 34003KT CAVOK 26/17 Q1010 NOSIG RMK A2983,1,0,0,9999,0,0,0,
2026-04-17 15:00:00,METAR RPVM 171500Z 03003KT CAVOK 26/17 Q1011 NOSIG RMK A2985,1,0,0,9999,0,0,0,
2026-04-17 14:00:00,METAR RPVM 171400Z 34004KT 300V010 CAVOK 27/18 Q1011 NOSIG RMK A2985,1,0,0,9999,0,0,0,
2026-04-17 13:00:00,METAR RPVM 171300Z 34004KT CAVOK 27/19 Q1010 NOSIG RMK A2983,1,0,0,9999,0,0,0,
2026-04-17 12:00:00,METAR RPVM 171200Z 36006KT CAVOK 29/20 Q1010 NOSIG RMK A2983,1,0,0,9999,0,0,0,
2026-04-17 11:00:00,METAR RPVM 171100Z 03010KT CAVOK 29/21 Q1009 NOSIG RMK A2980,1,0,0,9999,0,0,0,
2026-04-17 10:00:00,METAR RPVM 171000Z 04009KT CAVOK 30/21 Q1009 NOSIG RMK A2980,1,0,0,9999,0,0,0,
2026-04-17 09:00:00,METAR RPVM 170900Z 04009KT CAVOK 31/21 Q1008 NOSIG RMK A2977,1,0,0,9999,0,0,0,
2026-04-17 08:00:00,METAR RPVM 170800Z 03009KT CAVOK 31/21 Q1008 NOSIG RMK A2977,1,0,0,9999,0,0,0,
2026-04-17 07:00:00,METAR RPVM 170700Z 03010KT CAVOK 32/21 Q1009 NOSIG RMK A2980,1,0,0,9999,0,0,0,
2026-04-17 06:00:00,METAR RPVM 170600Z 04011KT 010V070 CAVOK 33/19 Q1009 NOSIG RMK A2980,1,0,0,9999,0,0,0,
2026-04-17 05:00:00,METAR RPVM 170500Z 04009KT CAVOK 32/19 Q1010 NOSIG RMK A2983,1,0,0,9999,0,0,0,
2026-04-17 04:00:00,METAR RPVM 170400Z 03008KT 350V080 9999 FEW033 32/21 Q1011 NOSIG RMK A2985,0,8,0,10000,0,0,0,
2026-04-17 03:00:00,METAR RPVM 170300Z 05007KT 020V190 9999 FEW026TCU 32/22 Q1012 NOSIG RMK A2988 TCU SW/W,0,7,0,10000,0,0,0,
2026-04-17 02:00:00,METAR RPVM 170200Z 13006KT 070V190 9999 FEW022 SCT036 30/23 Q1012 NOSIG RMK A2988,0,6,0,10000,0,0,0,
2026-04-17 01:00:00,METAR RPVM 170100Z 16004KT 090V190 9999 FEW008TCU SCT023 29/23 Q1012 NOSIG RMK A2988 TCU SE/S-W,0,4,0,10000,0,0,0,
2026-04-17 00:00:00,METAR RPVM 170000Z VRB03KT 9999 FEW005TCU SCT021 30/23 Q1012 NOSIG RMK A2988 TCU N/SE/S,0,3,0,10000,0,0,0,
2026-04-16 23:00:00,METAR RPVM 162300Z VRB01KT 9999 SCT006TCU SCT008 BKN031 28/22 Q1012 NOSIG RMK A2988 TCU NE/E,0,1,0,10000,0,0,0,
2026-04-16 22:00:00,METAR RPVM 162200Z VRB01KT 9999 FEW005TCU 25/21 Q1011 NOSIG RMK A2985,0,1,0,10000,0,0,0,
2026-04-16 21:00:00,METAR RPVM 162100Z VRB01KT 9999 FEW020 25/20 Q1010 NOSIG RMK A2983,0,1,0,10000,0,0,0,
2026-04-16 20:00:00,METAR RPVM 162000Z VRB01KT CAVOK 25/19 Q1010 NOSIG RMK A2983,1,0,0,9999,0,0,0,
2026-04-16 19:00:00,METAR RPVM 161900Z 33003KT 9999 FEW018 25/19 Q1009 NOSIG RMK A2980,0,3,0,10000,0,0,0,
2026-04-16 18:00:00,METAR RPVM 161800Z VRB01KT CAVOK 26/18 Q1010 NOSIG RMK A2983,1,0,0,9999,0,0,0,
2026-04-16 17:00:00,METAR RPVM 161700Z 03005KT CAVOK 25/18 Q1010 NOSIG RMK A2983,1,0,0,9999,0,0,0,
2026-04-16 16:00:00,METAR RPVM 161600Z 36004KT 320V020 CAVOK 26/17 Q1010 NOSIG RMK A2983,1,0,0,9999,0,0,0,
2026-04-16 15:00:00,METAR RPVM 161500Z 36005KT CAVOK 28/19 Q1011 NOSIG RMK A2985,1,0,0,9999,0,0,0,
2026-04-16 14:00:00,METAR RPVM 161400Z 01007KT CAVOK 28/20 Q1011 NOSIG RMK A2985,1,0,0,9999,0,0,0,
2026-04-16 13:00:00,METAR RPVM 161300Z 35004KT 320V030 CAVOK 28/19 Q1010 NOSIG RMK A2983,1,0,0,9999,0,0,0,
2026-04-16 12:00:00,METAR RPVM 161200Z 01007KT CAVOK 29/19 Q1010 NOSIG RMK A2983,1,0,0,9999,0,0,0,
2026-04-16 11:00:00,METAR RPVM 161100Z 02010KT CAVOK 29/18 Q1009 NOSIG RMK A2980,1,0,0,9999,0,0,0,
2026-04-16 10:00:00,METAR RPVM 161000Z 04008KT CAVOK 30/21 Q1009 NOSIG RMK A2980,1,0,0,9999,0,0,0,
2026-04-16 09:00:00,METAR RPVM 160900Z 04007KT CAVOK 32/18 Q1008 NOSIG RMK A2977,1,0,0,9999,0,0,0,
2026-04-16 08:00:00,METAR RPVM 160800Z 03008KT CAVOK 32/19 Q1008 NOSIG RMK A2977,1,0,0,9999,0,0,0,
2026-04-16 07:00:00,METAR RPVM 160700Z 05009KT 020V080 CAVOK 33/19 Q1008 NOSIG RMK A2977,1,0,0,9999,0,0,0,
2026-04-16 06:00:00,METAR RPVM 160600Z 05009KT 010V070 CAVOK 33/19 Q1009 NOSIG RMK A2980,1,0,0,9999,0,0,0,
2026-04-16 05:00:00,METAR RPVM 160500Z 04010KT 010V070 CAVOK 33/20 Q1010 NOSIG RMK A2983,1,0,0,9999,0,0,0,
2026-04-16 04:00:00,METAR RPVM 160400Z 05008KT 360V090 9999 FEW025 32/21 Q1011 NOSIG RMK A2985,0,8,0,10000,0,0,0,
2026-04-16 03:00:00,METAR RPVM 160300Z 05009KT 010V100 CAVOK 32/20 Q1010 NOSIG RMK A2983,1,0,0,9999,0,0,0,
2026-04-16 02:00:00,METAR RPVM 160200Z 05006KT 010V090 CAVOK 32/21 Q1011 NOSIG RMK A2985,1,0,0,9999,0,0,0,
2026-04-16 01:00:00,"METAR RPVM 160100Z 04005KT 350V110 9999 FEW024TCU 31/21 Q1011 NOSIG RMK A2985 TCU SE,S,SW-NW",0,5,0,10000,0,0,0,
2026-04-16 00:00:00,"METAR RPVM 160000Z 34004KT 300V040 9999 FEW020TCU 29/24 Q1012 NOSIG RMK A2988 TCU SE,S,SW",0,4,0,10000,0,0,0,
2026-04-15 23:00:00,METAR RPVM 152300Z VRB02KT 9999 FEW006TCU 26/22 Q1011 NOSIG RMK A2985 TCU SE,0,2,0,10000,0,0,0,
2026-04-15 22:00:00,METAR RPVM 152200Z VRB01KT 9999 FEW020TCU 25/21 Q1010 NOSIG RMK A2983,0,1,0,10000,0,0,0,
2026-04-15 21:00:00,METAR RPVM 152100Z VRB02KT 9999 FEW005TCU 25/22 Q1009 NOSIG RMK A2980 TCU NE,0,2,0,10000,0,0,0,
2026-04-15 20:00:00,METAR RPVM 152000Z VRB02KT 9999 FEW004 25/22 Q1009 NOSIG RMK A2980,0,2,0,10000,0,0,0,
2026-04-15 19:00:00,METAR RPVM 151900Z 36005KT CAVOK 26/21 Q1008 NOSIG RMK A2977,1,0,0,9999,0,0,0,
2026-04-15 18:00:00,METAR RPVM 151800Z 36006KT CAVOK 26/20 Q1009 NOSIG RMK A2980,1,0,0,9999,0,0,0,
2026-04-15 17:00:00,METAR RPVM 151700Z 03004KT CAVOK 26/20 Q1009 NOSIG RMK A2980,1,0,0,9999,0,0,0,
2026-04-15 16:00:00,METAR RPVM 151600Z 36004KT CAVOK 27/20 Q1010 NOSIG RMK A2983,1,0,0,9999,0,0,0,
2026-04-15 15:00:00,METAR RPVM 151500Z 36005KT CAVOK 28/20 Q1010 NOSIG RMK A2983,1,0,0,9999,0,0,0,
2026-04-15 14:00:00,METAR RPVM 151400Z 02007KT CAVOK 27/21 Q1010 NOSIG RMK A2983,1,0,0,9999,0,0,0,
2026-04-15 13:00:00,METAR RPVM 151300Z 36004KT CAVOK 28/21 Q1010 NOSIG RMK A2983,1,0,0,9999,0,0,0,
2026-04-15 12:00:00,METAR RPVM 151200Z 02008KT CAVOK 29/21 Q1009 NOSIG RMK A2980,1,0,0,9999,0,0,0,
2026-04-15 11:00:00,METAR RPVM 151100Z 01007KT CAVOK 29/21 Q1009 NOSIG RMK A2980,1,0,0,9999,0,0,0,
2026-04-15 10:00:00,METAR RPVM 151000Z 03010KT CAVOK 30/21 Q1008 NOSIG RMK A2977,1,0,0,9999,0,0,0,
2026-04-15 09:00:00,METAR RPVM 150900Z 04010KT CAVOK 31/21 Q1007 NOSIG RMK A2974,1,0,0,9999,0,0,0,
2026-04-15 08:00:00,METAR RPVM 150800Z 04010KT CAVOK 32/19 Q1007 NOSIG RMK A2974,1,0,0,9999,0,0,0,
2026-04-15 07:00:00,METAR RPVM 150700Z 04010KT CAVOK 33/18 Q1008 NOSIG RMK A2977,1,0,0,9999,0,0,0,
2026-04-15 06:00:00,METAR RPVM 150600Z 04011KT CAVOK 32/20 Q1008 NOSIG RMK A2977,1,0,0,9999,0,0,0,
2026-04-15 05:00:00,METAR RPVM 150500Z 04012KT CAVOK 32/20 Q1009 NOSIG RMK A2980,1,0,0,9999,0,0,0,
2026-04-15 04:00:00,METAR RPVM 150400Z 04011KT 010V070 9999 FEW028 32/20 Q1010 NOSIG RMK A2983,0,11,0,10000,0,0,0,
2026-04-15 03:00:00,METAR RPVM 150300Z 04009KT 360V080 CAVOK 32/20 Q1011 NOSIG RMK A2985,1,0,0,9999,0,0,0,
2026-04-15 02:00:00,METAR RPVM 150200Z 03007KT 340V080 CAVOK 31/21 Q1011 NOSIG RMK A2985,1,0,0,9999,0,0,0,
2026-04-15 01:00:00,METAR RPVM 150100Z 05005KT 020V120 9999 FEW024 31/23 Q1011 NOSIG RMK A2985,0,5,0,10000,0,0,0,
2026-04-15 00:00:00,"METAR RPVM 150000Z 35008KT 320V030 9999 FEW007TCU SCT048 28/23 Q1011 NOSIG RMK A2985 TCU NE,SE,S",0,8,0,10000,0,0,0,
2026-04-14 23:00:00,"METAR RPVM 142300Z 33005KT 9999 FEW004TCU SCT007 BKN014 27/22 Q1011 NOSIG RMK A2985 TCU E,SE,S,SW",0,5,0,10000,0,0,0,
2026-04-14 22:00:00,METAR RPVM 142200Z 33005KT 9999 SCT004TCU SCT006 BKN016 27/23 Q1010 NOSIG RMK A2983 TCU NE,0,5,0,10000,0,0,0,
2026-04-14 21:00:00,METAR RPVM 142100Z VRB02KT 9999 FEW005TCU SCT032 27/24 Q1009 NOSIG RMK A2980 TCU N-NE,0,2,0,10000,0,0,0,
2026-04-14 20:00:00,METAR RPVM 142000Z 04005KT 9999 FEW008 SCT010 BKN030 27/22 Q1009 NOSIG RMK A2980,0,5,0,10000,0,0,0,
2026-04-14 19:00:00,METAR RPVM 141900Z 09002KT 9999 FEW008 SCT010 BKN030 27/22 Q1009 NOSIG RMK A2980,0,2,0,10000,0,0,0,
2026-04-14 18:00:00,METAR RPVM 141800Z 34005KT 9999 FEW016 26/21 Q1009 NOSIG RMK A2980,0,5,0,10000,0,0,0,
2026-04-14 17:00:00,METAR RPVM 141700Z 34003KT 9999 FEW016 26/20 Q1009 NOSIG RMK A2980,0,3,0,10000,0,0,0,
2026-04-14 16:00:00,METAR RPVM 141600Z 33003KT CAVOK 27/20 Q1010 NOSIG RMK A2983,1,0,0,9999,0,0,0,
2026-04-14 15:00:00,METAR RPVM 141500Z 35004KT CAVOK 27/21 Q1010 NOSIG RMK A2983,1,0,0,9999,0,0,0,
2026-04-14 14:00:00,METAR RPVM 141400Z 35004KT 320V020 CAVOK 27/20 Q1010 NOSIG RMK A2983,1,0,0,9999,0,0,0,
2026-04-14 13:00:00,METAR RPVM 141300Z 34005KT CAVOK 27/19 Q1010 NOSIG RMK A2983,1,0,0,9999,0,0,0,
2026-04-14 12:00:00,METAR RPVM 141200Z 35006KT 320V020 CAVOK 28/19 Q1010 NOSIG RMK A2983,1,0,0,9999,0,0,0,
2026-04-14 11:00:00,METAR RPVM 141100Z 34007KT CAVOK 29/19 Q1009 NOSIG RMK A2980,1,0,0,9999,0,0,0,
2026-04-14 10:00:00,METAR RPVM 141000Z 03011KT CAVOK 30/19 Q1009 NOSIG RMK A2980,1,0,0,9999,0,0,0,
2026-04-14 09:00:00,METAR RPVM 140900Z 03014KT CAVOK 31/19 Q1008 NOSIG RMK A2977,1,0,0,9999,0,0,0,
2026-04-14 08:00:00,METAR RPVM 140800Z 04016KT CAVOK 32/20 Q1008 NOSIG RMK A2977,1,0,0,9999,0,0,0,
2026-04-14 07:00:00,METAR RPVM 140700Z 04016KT CAVOK 32/21 Q1008 NOSIG RMK A2977,1,0,0,9999,0,0,0,
2026-04-14 06:00:00,METAR RPVM 140600Z 04017KT CAVOK 32/20 Q1009 NOSIG RMK A2980,1,0,0,9999,0,0,0,
2026-04-14 05:00:00,METAR RPVM 140500Z 04015KT CAVOK 32/20 Q1010 NOSIG RMK A2983,1,0,0,9999,0,0,0,
2026-04-14 04:00:00,METAR RPVM 140400Z 03016KT 9999 FEW025 31/20 Q1011 NOSIG RMK A2985,0,16,0,10000,0,0,0,
2026-04-14 03:00:00,METAR RPVM 140300Z 04016KT CAVOK 32/20 Q1012 NOSIG RMK A2988,1,0,0,9999,0,0,0,
2026-04-14 02:00:00,METAR RPVM 140200Z 03015KT CAVOK 31/22 Q1013 NOSIG RMK A2991,1,0,0,9999,0,0,0,
2026-04-14 01:00:00,METAR RPVM 140100Z 03011KT 350V060 9999 FEW019 30/22 Q1013 NOSIG RMK A2991,0,11,0,10000,0,0,0,
2026-04-14 00:00:00,METAR RPVM 140000Z 36009KT CAVOK 29/23 Q1013 NOSIG RMK A2991,1,0,0,9999,0,0,0,
2026-04-13 23:00:00,METAR RPVM 132300Z 36008KT CAVOK 28/23 Q1012 NOSIG RMK A2988,1,0,0,9999,0,0,0,
2026-04-13 22:00:00,METAR RPVM 132200Z 35005KT 9999 BKN018 26/23 Q1011 NOSIG RMK A2985,0,5,0,10000,0,0,0,
2026-04-13 21:00:00,METAR RPVM 132100Z 34005KT 9999 FEW013 SCT019 26/23 Q1011 NOSIG RMK A2985,0,5,0,10000,0,0,0,
2026-04-13 20:00:00,METAR RPVM 132000Z 35005KT 9999 SCT012 BKN017 BKN041 26/23 Q1010 NOSIG RMK A2983,0,5,0,10000,0,0,0,
2026-04-13 19:00:00,METAR RPVM 131900Z 33004KT 9999 FEW005 SCT022 BKN027 26/24 Q1010 NOSIG RMK A2983,0,4,0,10000,0,0,0,
2026-04-13 18:00:00,METAR RPVM 131800Z 01007K 330V040 9999 FEW001 SCT013 BKN018 26/24 Q1011 NOSIG RMK A2985,0,7,0,10000,0,0,0,
2026-04-13 17:00:00,METAR RPVM 131700Z 34003KT 300V010 9999 SCT007 SCT008 BKN013 27/24 Q1011 NOSIG RMK A2985,0,3,0,10000,0,0,0,
2026-04-13 16:00:00,METAR RPVM 131600Z 02010KT 4900 -DZ FEW001 SCT010 BKN021 28/24 Q1012 NOSIG RMK A2988,0,10,0,4900,0,0,0,DZ
2026-04-13 15:00:00,METAR RPVM 131500Z 02004KT 9999 FEW020 SCT029 28/23 Q1012 NOSIG RMK A2988,0,4,0,10000,0,0,0,
2026-04-13 14:00:00,METAR RPVM 131400Z 34004KT 9999 FEW013 29/23 Q1012 NOSIG RMK A2988,0,4,0,10000,0,0,0,
2026-04-13 13:00:00,METAR RPVM 131300Z 03007KT 9999 FEW011 SCT036 29/24 Q1012 NOSIG RMK A2988,0,7,0,10000,0,0,0,
2026-04-13 12:00:00,METAR RPVM 131200Z 03009KT 9999 FEW024 29/24 Q1011 NOSIG RMK A2985,0,9,0,10000,0,0,0,
2026-04-13 11:00:00,METAR RPVM 131100Z 01009KT CAVOK 29/23 Q1010 NOSIG RMK A2983,1,0,0,9999,0,0,0,
2026-04-13 10:00:00,METAR RPVM 131000Z 02009KT CAVOK 30/22 Q1010 NOSIG RMK A2983,1,0,0,9999,0,0,0,
2026-04-13 09:00:00,METAR RPVM 130900Z 03009KT CAVOK 32/21 Q1009 NOSIG RMK A2980,1,0,0,9999,0,0,0,
2026-04-13 08:00:00,METAR RPVM 130800Z 04009KT 9999 FEW022 32/20 Q1009 NOSIG RMK A2980,0,9,0,10000,0,0,0,
2026-04-13 07:00:00,METAR RPVM 130700Z 03010KT 9999 FEW022 32/21 Q1009 NOSIG RMK A2980,0,10,0,10000,0,0,0,
2026-04-13 06:00:00,METAR RPVM 130600Z 05010KT 010V080 CAVOK 32/20 Q1009 NOSIG RMK A2980,1,0,0,9999,0,0,0,
2026-04-13 05:00:00,METAR RPVM 130500Z 05008KT 020V100 CAVOK 32/21 Q1010 NOSIG RMK A2983,1,0,0,9999,0,0,0,
2026-04-13 04:00:00,METAR RPVM 130400Z 04011KT 9999 FEW030 32/21 Q1011 NOSIG RMK A2985,0,11,0,10000,0,0,0,
2026-04-13 03:00:00,METAR RPVM 130300Z 05008KT 360V110 CAVOK 32/21 Q1012 RMK A2988,1,0,0,9999,0,0,0,
2026-04-13 02:00:00,METAR RPVM 130200Z 03009KT 360V090 CAVOK 31/22 Q1012 NOSIG RMK A2988,1,0,0,9999,0,0,0,
2026-04-13 01:00:00,METAR RPVM 130100Z 03005KT 340V080 CAVOK 31/22 Q1013 NOSIG RMK A2991,1,0,0,9999,0,0,0,
2026-04-13 00:00:00,METAR RPVM 130000Z 01004KT 290V050 CAVOK 30/23 Q1012 NOSIG RMK A2988,1,0,0,9999,0,0,0,
2026-04-12 23:00:00,METAR RPVM 122300Z VRB01KT CAVOK 30/22 Q1012 NOSIG RMK A2988,1,0,0,9999,0,0,0,
2026-04-12 22:00:00,METAR RPVM 122200Z VRB02KT CAVOK 25/21 Q1011 NOSIG RMK A2985,1,0,0,9999,0,0,0,
2026-04-12 21:00:00,METAR RPVM 122100Z VRB01KT 9999 FEW011 25/21 Q1011 NOSIG RMK A2985,0,1,0,10000,0,0,0,
2026-04-12 20:00:00,METAR RPVM 122000Z VRB02KT 9999 FEW017 25/20 Q1010 NOSIG RMK A2983,0,2,0,10000,0,0,0,
2026-04-12 19:00:00,METAR RPVM 121900Z 33004KT CAVOK 25/20 Q1010 NOSIG RMK A2983,1,0,0,9999,0,0,0,
2026-04-12 18:00:00,METAR RPVM 121800Z 34002KT CAVOK 26/19 Q1010 NOSIG RMK A2983,1,0,0,9999,0,0,0,
2026-04-12 17:00:00,METAR RPVM 121700Z VRB02KT CAVOK 26/19 Q1010 NOSIG RMK A2983,1,0,0,9999,0,0,0,
2026-04-12 16:00:00,METAR RPVM 121600Z 05002KT CAVOK 26/20 Q1011 NOSIG RMK A2985,1,0,0,9999,0,0,0,
2026-04-12 15:00:00,METAR RPVM 121500Z 01006KT CAVOK 27/20 Q1011 NOSIG RMK A2985,1,0,0,9999,0,0,0,
2026-04-12 14:00:00,METAR RPVM 121400Z 04006KT CAVOK 27/20 Q1011 NOSIG RMK A2985,1,0,0,9999,0,0,0,
2026-04-12 13:00:00,METAR RPVM 121300Z 03003KT CAVOK 27/19 Q1011 NOSIG RMK A2985,1,0,0,9999,0,0,0,
2026-04-12 12:00:00,METAR RPVM 121200Z 34003KT CAVOK 28/20 Q1010 NOSIG RMK A2983,1,0,0,9999,0,0,0,
2026-04-12 11:00:00,METAR RPVM 121100Z 36006KT CAVOK 29/22 Q1010 NOSIG RMK A2983,1,0,0,9999,0,0,0,
2026-04-12 10:00:00,METAR RPVM 121000Z 04008KT CAVOK 30/20 Q1009 NOSIG RMK A2980,1,0,0,9999,0,0,0,
2026-04-12 09:00:00,METAR RPVM 120900Z 03009KT CAVOK 30/21 Q1009 NOSIG RMK A2980,1,0,0,9999,0,0,0,
2026-04-12 08:00:00,METAR RPVM 120800Z 05008KT 010V070 CAVOK 31/19 Q1009 NOSIG RMK A2980,1,0,0,9999,0,0,0,
2026-04-12 07:00:00,METAR RPVM 120700Z 04011KT 010V070 CAVOK 31/19 Q1009 NOSIG RMK A2980,1,0,0,9999,0,0,0,
2026-04-12 06:00:00,METAR RPVM 120600Z 05010KT 010V100 CAVOK 32/20 Q1009 NOSIG RMK A2980,1,0,0,9999,0,0,0,
2026-04-12 05:00:00,METAR RPVM 120500Z 04008KT 360V090 9999 FEW034 32/22 Q1010 NOSIG RMK A2983,0,8,0,10000,0,0,0,
2026-04-12 04:00:00,METAR RPVM 120400Z 05010KT 360V090 9999 FEW033 32/20 Q1011 NOSIG RMK A2985,0,10,0,10000,0,0,0,
2026-04-12 03:00:00,METAR RPVM 120300Z 04010KT 010V090 CAVOK 31/22 Q1011 NOSIG RMK A2985,1,0,0,9999,0,0,0,
2026-04-12 02:00:00,METAR RPVM 120200Z 04010KT 010V070 9999 FEW015 30/23 Q1012 NOSIG RMK A2988,0,10,0,10000,0,0,0,
2026-04-12 01:00:00,METAR RPVM 120100Z 04005KT 360V070 9999 FEW006CB SCT009 BKN020 29/23 Q1012 NOSIG RMK A2988 CB E-SE,0,5,0,10000,0,0,0,
2026-04-12 00:00:00,METAR RPVM 120000Z 07004KT 020V130 9999 FEW007TCU 29/23 Q1012 NOSIG RMK A2988 TCU N-E,0,4,0,10000,0,0,0,
2026-04-11 23:00:00,METAR RPVM 112300Z 33002KT 9999 FEW005TCU SCT034 27/23 Q1012 NOSIG RMK A2988 TCU NE-E,0,2,0,10000,0,0,0,
2026-04-11 22:00:00,METAR RPVM 112200Z 34003KT 310V020 9999 FEW007 SCT032 26/22 Q1011 NOSIG RMK A2985,0,3,0,10000,0,0,0,
2026-04-11 21:00:00,METAR RPVM 112100Z VRB02KT CAVOK 25/22 Q1010 NOSIG RMK A2983,1,0,0,9999,0,0,0,
2026-04-11 20:00:00,METAR RPVM 112000Z VRB02KT CAVOK 25/21 Q1010 NOSIG RMK A2983,1,0,0,9999,0,0,0,
2026-04-11 19:00:00,METAR RPVM 111900Z VRB02KT 9999 FEW006 SCT023 BKN028 26/21 Q1010 NOSIG RMK A2983,0,2,0,10000,0,0,0,
2026-04-11 18:00:00,METAR RPVM 111800Z 35002KT 9999 SCT007 SCT009 BKN028 26/20 Q1010 NOSIG RMK A2983,0,2,0,10000,0,0,0,
2026-04-11 17:00:00,METAR RPVM 111700Z VRB02KT 9999 FEW009 26/21 Q1010 NOSIG RMK A2983,0,2,0,10000,0,0,0,
2026-04-11 16:00:00,METAR RPVM 111600Z VRB01KT CAVOK 27/20 Q1011 NOSIG RMK A2985,1,0,0,9999,0,0,0,
2026-04-11 15:00:00,METAR RPVM 111500Z VRB01KT CAVOK 27/20 Q1012 NOSIG RMK A2988,1,0,0,9999,0,0,0,
2026-04-11 14:00:00,METAR RPVM 111400Z 00004KT CAVOK 27/21 Q1011 NOSIG RMK A2985,1,0,0,9999,0,0,0,
2026-04-11 13:00:00,METAR RPVM 111300Z 34004KT 320V020 CAVOK 28/22 Q1011 NOSIG RMK A2985,1,0,0,9999,0,0,0,
2026-04-11 12:00:00,METAR RPVM 111200Z 03008KT CAVOK 29/23 Q1011 NOSIG RMK A2985,1,0,0,9999,0,0,0,
2026-04-11 11:00:00,METAR RPVM 111100Z 04008KT CAVOK 29/21 Q1010 NOSIG RMK A2983,1,0,0,9999,0,0,0,
2026-04-11 10:00:00,METAR RPVM 111000Z 03008KT CAVOK 30/20 Q1009 NOSIG RMK A2980,1,0,0,9999,0,0,0,
2026-04-11 09:00:00,METAR RPVM 110900Z 04009KT 9999 FEW016 32/19 Q1009 NOSIG RMK A2980,0,9,0,10000,0,0,0,
2026-04-11 08:00:00,METAR RPVM 110800Z 04009KT 9999 FEW016 32/17 Q1008 NOSIG RMK A2977,0,9,0,10000,0,0,0,
2026-04-11 07:00:00,METAR RPVM 110700Z 05008KT 9999 FEW014 33/15 Q1009 NOSIG RMK A2980,0,8,0,10000,0,0,0,
2026-04-11 06:00:00,METAR RPVM 110600Z 03009KT 360V060 9999 FEW012 SCT045 33/15 Q1009 NOSIG RMK A2980,0,9,0,10000,0,0,0,
2026-04-11 05:00:00,METAR RPVM 110500Z 05007KT 360V120 9999 FEW040 33/20 Q1010 NOSIG RMK A2983,0,7,0,10000,0,0,0,
2026-04-11 04:00:00,METAR RPVM 110400Z 10005KT 030V180 9999 FEW025 SCT031 BKN036 31/23 Q1011 NOSIG RMK A2985,0,5,0,10000,0,0,0,
2026-04-11 03:00:00,METAR RPVM 110300Z 12006KT 070V170 9999 SCT008 BKN029 BKN038 31/23 Q1012 NOSIG RMK A2988,0,6,0,10000,0,0,0,
2026-04-11 02:00:00,METAR RPVM 110200Z 10006KT 060V150 9999 SCT005TCU BKN007 BKN024 31/24 Q1012 NOSIG RMK A2988 TCU SW-W,0,6,0,10000,0,0,0,
2026-04-11 01:00:00,"METAR RPVM 110100Z 22004KT 190V250 9999 SCT006TCU BKN019 BKN021 29/24 Q1012 NOSIG RMK A2988 TCU S, SW",0,4,0,10000,0,0,0,
2026-04-11 00:00:00,"METAR RPVM 110000Z COR VRB02KT 9999 FEW006 SCT010TCU BKN031 29/24 Q1012 NOSIG RMK A2988 TCU NE-SE, SW",0,2,0,10000,0,0,0,
2026-04-10 23:00:00,"METAR RPVM 102300Z 33003KT 310V020 9999 FEW005 SCT006TCU BKN020 28/23 Q1012 NOSIG RMK A2988 TCU NE-E, S-SW",0,3,0,10000,0,0,0,
2026-04-10 22:00:00,METAR RPVM 102200Z VRB02KT CAVOK 26/22 Q1011 NOSIG RMK A2985,1,0,0,9999,0,0,0,
2026-04-10 21:00:00,METAR RPVM 102100Z 02001KT CAVOK 26/22 Q1010 NOSIG RMK A2983,1,0,0,9999,0,0,0,
2026-04-10 20:00:00,METAR RPVM 102000Z VRB02KT CAVOK 26/22 Q1010 NOSIG RMK A2983,1,0,0,9999,0,0,0,
2026-04-10 19:00:00,METAR RPVM 101900Z 32004KT 9999 FEW006 SCT013 BKN023 27/22 Q1010 NOSIG RMK A2983,0,4,0,10000,0,0,0,
2026-04-10 18:00:00,METAR RPVM 101800Z VRB02KT 9999 FEW006TCU SCT020 27/22 Q1011 NOSIG RMK A2985 TCU E-SE,0,2,0,10000,0,0,0,
2026-04-10 17:00:00,METAR RPVM 101700Z 32004KT 9999 SCT005 SCT007 BKN020 27/22 Q1011 NOSIG RMK A2985,0,4,0,10000,0,0,0,
2026-04-10 16:00:00,METAR RPVM 101600Z VRB01KT 9999 FEW014 BKN047 27/22 Q1012 NOSIG RMK A2988,0,1,0,10000,0,0,0,
2026-04-10 15:00:00,METAR RPVM 101500Z 33004KT 310V020 CAVOK 27/22 Q1012 NOSIG RMK A2988,1,0,0,9999,0,0,0,
2026-04-10 14:00:00,METAR RPVM 101400Z VRB02KT CAVOK 28/22 Q1012 NOSIG RMK A2988,1,0,0,9999,0,0,0,
2026-04-10 13:00:00,METAR RPVM 101300Z VRB02KT CAVOK 28/22 Q1012 NOSIG RMK A2988,1,0,0,9999,0,0,0,
2026-04-10 12:00:00,METAR RPVM 101200Z 34003KT 310V020 CAVOK 29/22 Q1011 NOSIG RMK A2985,1,0,0,9999,0,0,0,
2026-04-10 11:00:00,METAR RPVM 101100Z 03007KT CAVOK 29/21 Q1011 NOSIG RMK A2985,1,0,0,9999,0,0,0,
2026-04-10 10:00:00,METAR RPVM 101000Z 03008KT CAVOK 30/20 Q1010 NOSIG RMK A2983,1,0,0,9999,0,0,0,
2026-04-10 09:00:00,METAR RPVM 100900Z 04008KT CAVOK 31/22 Q1010 NOSIG RMK A2983,1,0,0,9999,0,0,0,
2026-04-10 08:00:00,METAR RPVM 100800Z 03008KT CAVOK 32/19 Q1009 NOSIG RMK A2980,1,0,0,9999,0,0,0,
2026-04-10 07:00:00,METAR RPVM 100700Z 04006KT 360V060 CAVOK 33/19 Q1010 NOSIG RMK A2983,1,0,0,9999,0,0,0,
2026-04-10 06:00:00,METAR RPVM 100600Z 03008KT 350V070 9999 FEW014 SCT046 32/22 Q1011 NOSIG RMK A2985,0,8,0,10000,0,0,0,
2026-04-10 05:00:00,METAR RPVM 100500Z 06006KT 020V120 9999 FEW028 32/23 Q1011 NOSIG RMK A2985,0,6,0,10000,0,0,0,
2026-04-10 04:00:00,METAR RPVM 100400Z 09008KT 050V140 9999 FEW026 32/24 Q1012 NOSIG RMK A2988,0,8,0,10000,0,0,0,
2026-04-10 03:00:00,METAR RPVM 100300Z 04008KT 360V100 9999 FEW023 31/24 Q1012 NOSIG RMK A2988,0,8,0,10000,0,0,0,
2026-04-10 02:00:00,METAR RPVM 100200Z 05009KT 9999 SCT018 31/24 Q1013 NOSIG RMK A2991,0,9,0,10000,0,0,0,
2026-04-10 01:00:00,METAR RPVM 100100Z 03007KT 350V080 9999 FEW017 30/24 Q1013 NOSIG RMK A2991,0,7,0,10000,0,0,0,
2026-04-10 00:00:00,"METAR RPVM 100000Z 02006KT 350V050 9999 FEW016TCU 29/24 Q1013 NOSIG RMK A2991 TCU S,SW",0,6,0,10000,0,0,0,
2026-04-09 23:00:00,"METAR RPVM 092300Z VRB02KT 9999 FEW004CB SCT007 BKN020 29/24 Q1013 NOSIG RMK A2991 CB NE-SE,S-W",0,2,0,10000,0,0,0,
2026-04-09 22:00:00,METAR RPVM 092200Z 34003KT 9999 FEW004CB SCT010 BKN020 27/24 Q1011 NOSIG RMK A2985 CB NE/SW,0,3,0,10000,0,0,0,
2026-04-09 21:00:00,METAR RPVM 092100Z VRB02KT 9999 SCT004 SCT006 BKN032 27/24 Q1011 NOSIG RMK A2985,0,2,0,10000,0,0,0,
2026-04-09 20:00:00,METAR RPVM 092000Z 02002KT 9999 FEW004CB SCT006 BKN018 27/24 Q1010 NOSIG RMK A2983 CB SW,0,2,0,10000,0,0,0,
2026-04-09 19:00:00,METAR RPVM 091900Z 34003KT 9999 FEW010 27/24 Q1011 NOSIG RMK A2985,0,3,0,10000,0,0,0,
2026-04-09 18:00:00,METAR RPVM 091800Z 33003KT 310V020 9999 FEW008 SCT009 BKN023 27/24 Q1011 NOSIG RMK A2985,0,3,0,10000,0,0,0,
2026-04-09 17:00:00,METAR RPVM 091700Z 34003KT 9999 FEW006CB SCT041 27/23 Q1012 NOSIG RMK A2988 CB E,0,3,0,10000,0,0,0,
2026-04-09 16:00:00,METAR RPVM 091600Z 35003KT 320V040 9999 FEW007 SCT008 BKN024 28/24 Q1012 NOSIG RMK A2988,0,3,0,10000,0,0,0,
2026-04-09 15:00:00,METAR RPVM 091500Z 34003KT 310V020 9999 SCT007 BKN008 BKN026 28/24 Q1012 NOSIG RMK A2988,0,3,0,10000,0,0,0,
2026-04-09 14:00:00,METAR RPVM 091400Z 06005KT CAVOK 28/24 Q1012 NOSIG RMK A2988,1,0,0,9999,0,0,0,
2026-04-09 13:00:00,METAR RPVM 091300Z VRB02KT CAVOK 28/23 Q1012 NOSIG RMK A2988,1,0,0,9999,0,0,0,
2026-04-09 12:00:00,METAR RPVM 091200Z VRB02KT 9999 FEW031 29/24 Q1012 NOSIG RMK A2988,0,2,0,10000,0,0,0,
2026-04-09 11:00:00,METAR RPVM 091100Z 04005KT 9999 SCT033 29/24 Q1011 NOSIG RMK A2985,0,5,0,10000,0,0,0,
2026-04-09 10:00:00,METAR RPVM 091000Z 03010KT CAVOK 29/24 Q1011 NOSIG RMK A2985,1,0,0,9999,0,0,0,
2026-04-09 09:00:00,METAR RPVM 090900Z 03011KT CAVOK 30/23 Q1010 NOSIG RMK A2983,1,0,0,9999,0,0,0,
2026-04-09 08:00:00,METAR RPVM 090800Z 05012KT 9999 SCT038TCU SCT042 31/22 Q1010 NOSIG RMK A2983 TCU S,0,12,0,10000,0,0,0,
2026-04-09 07:00:00,METAR RPVM 090700Z 05008KT 360V100 9999 SCT042 32/22 Q1010 NOSIG RMK A2983,0,8,0,10000,0,0,0,
2026-04-09 06:00:00,METAR RPVM 090600Z 03008KT 350V060 CAVOK 31/22 Q1010 NOSIG RMK A2983,1,0,0,9999,0,0,0,
2026-04-09 05:00:00,METAR RPVM 090500Z 03008KT 340V110 9999 FEW040 31/23 Q1011 NOSIG RMK A2985,0,8,0,10000,0,0,0,
2026-04-09 04:00:00,METAR RPVM 090400Z 05009KT 360V080 9999 FEW035 31/23 Q1012 NOSIG RMK A2988,0,9,0,10000,0,0,0,
2026-04-09 03:00:00,METAR RPVM 090300Z 03011KT 010V070 CAVOK 31/23 Q1013 NOSIG RMK A2991,1,0,0,9999,0,0,0,
2026-04-09 02:00:00,METAR RPVM 090200Z 03011KT 360V060 9999 FEW029 31/23 Q1013 NOSIG RMK A2991,0,11,0,10000,0,0,0,
2026-04-09 01:00:00,METAR RPVM 090100Z 03010KT 360V060 9999 FEW026 30/23 Q1013 NOSIG RMK A2991,0,10,0,10000,0,0,0,
2026-04-09 00:00:00,METAR RPVM 090000Z 05007KT 020V080 9999 FEW007 30/22 Q1013 NOSIG RMK A2991,0,7,0,10000,0,0,0,
2026-04-08 23:00:00,METAR RPVM 082300Z 36003KT 340V040 9999 FEW007 29/23 Q1013 NOSIG RMK A2991,0,3,0,10000,0,0,0,
2026-04-08 22:00:00,METAR RPVM 082200Z VRB01KT 9999 FEW008 25/23 Q1012 NOSIG RMK A2988,0,1,0,10000,0,0,0,
2026-04-08 21:00:00,METAR RPVM 082100Z VRB02KT 9999 FEW009 26/23 Q1011 NOSIG RMK A2985,0,2,0,10000,0,0,0,
2026-04-08 20:00:00,METAR RPVM 082000Z 07004KT 9999 FEW008 26/23 Q1011 NOSIG RMK A2985,0,4,0,10000,0,0,0,
2026-04-08 19:00:00,METAR RPVM 081900Z 06003KT CAVOK 27/22 Q1011 NOSIG RMK A2985,1,0,0,9999,0,0,0,
2026-04-08 18:00:00,METAR RPVM 081800Z 08006KT 9999 FEW010 SCT031 28/22 Q1011 NOSIG RMK A2985,0,6,0,10000,0,0,0,
2026-04-08 17:00:00,METAR RPVM 081700Z 06008KT 9999 FEW007 SCT010 BKN026 28/22 Q1012 NOSIG RMK A2988,0,8,0,10000,0,0,0,
2026-04-08 16:00:00,METAR RPVM 081600Z 03010KT 9999 FEW006 28/24 Q1012 NOSIG RMK A2988,0,10,0,10000,0,0,0,
2026-04-08 15:00:00,METAR RPVM 081500Z 03008KT 9999 FEW005 28/25 Q1013 NOSIG RMK A2991,0,8,0,10000,0,0,0,
2026-04-08 14:00:00,METAR RPVM 081400Z 01008KT 9999 FEW005 28/24 Q1013 NOSIG RMK A2991,0,8,0,10000,0,0,0,
2026-04-08 13:00:00,METAR RPVM 081300Z 02013KT 9999 FEW004 SCT032 28/25 Q1012 NOSIG RMK A2988,0,13,0,10000,0,0,0,
2026-04-08 12:00:00,METAR RPVM 081200Z 01009KT 9999 FEW011 SCT014 BKN041 29/24 Q1012 NOSIG RMK A2988,0,9,0,10000,0,0,0,
2026-04-08 11:00:00,METAR RPVM 081100Z 03013KT 9999 FEW013 29/24 Q1012 NOSIG RMK A2988,0,13,0,10000,0,0,0,
2026-04-08 10:00:00,METAR RPVM 081000Z 03013KT 9999 FEW004CB 30/25 Q1011 NOSIG RMK A2985 CB N,0,13,0,10000,0,0,0,
2026-04-08 09:00:00,METAR RPVM 080900Z 03011KT CAVOK 32/23 Q1010 NOSIG RMK A2983,1,0,0,9999,0,0,0,
2026-04-08 08:00:00,METAR RPVM 080800Z 04011KT CAVOK 32/23 Q1009 NOSIG RMK A2980,1,0,0,9999,0,0,0,
2026-04-08 07:00:00,METAR RPVM 080700Z 04007KT 010V070 CAVOK 33/22 Q1009 NOSIG RMK A2980,1,0,0,9999,0,0,0,
2026-04-08 06:00:00,METAR RPVM 080600Z 03008KT 010V080 CAVOK 33/22 Q1010 NOSIG RMK A2983,1,0,0,9999,0,0,0,
2026-04-08 05:00:00,METAR RPVM 080500Z 05009KT 010V080 CAVOK 32/22 Q1011 NOSIG RMK A2985,1,0,0,9999,0,0,0,
2026-04-08 04:00:00,METAR RPVM 080400Z 04011KT 9999 FEW037 32/24 Q1012 NOSIG RMK A2988,0,11,0,10000,0,0,0,
2026-04-08 03:00:00,METAR RPVM 080300Z 03010KT 360V060 CAVOK 32/24 Q1012 NOSIG RMK A2988,1,0,0,9999,0,0,0,
2026-04-08 02:00:00,METAR RPVM 080200Z 02006KT 330V090 CAVOK 32/23 Q1013 NOSIG RMK A2991,1,0,0,9999,0,0,0,
2026-04-08 01:00:00,METAR RPVM 080100Z 02006KT 9999 FEW026 31/23 Q1013 NOSIG RMK A2991,0,6,0,10000,0,0,0,
2026-04-08 00:00:00,METAR RPVM 080000Z 04004KT 350V110 9999 SCT021 SCT026 31/24 Q1012 NOSIG RMK A2988,0,4,0,10000,0,0,0,
2026-04-07 23:00:00,METAR RPVM 072300Z VRB02KT CAVOK 30/24 Q1012 NOSIG RMK A2988,1,0,0,9999,0,0,0,
2026-04-07 22:00:00,METAR RPVM 072200Z VRB02KT CAVOK 26/24 Q1011 NOSIG RMK A2985,1,0,0,9999,0,0,0,
2026-04-07 21:00:00,METAR RPVM 072100Z 31003KT CAVOK 27/24 Q1011 NOSIG RMK A2985,1,0,0,9999,0,0,0,
2026-04-07 20:00:00,METAR RPVM 072000Z 04004KT 9999 SCT010 SCT037 27/23 Q1010 NOSIG RMK A2983,0,4,0,10000,0,0,0,
2026-04-07 19:00:00,METAR RPVM 071900Z 06004KT CAVOK 28/23 Q1010 NOSIG RMK A2983,1,0,0,9999,0,0,0,
2026-04-07 18:00:00,METAR RPVM 071800Z 05003KT CAVOK 28/24 Q1010 NOSIG RMK A2983,1,0,0,9999,0,0,0,
2026-04-07 17:00:00,METAR RPVM 071700Z 36003KT 330V030 9999 FEW008TCU 27/24 Q1011 NOSIG RMK A2985 TCU E,0,3,0,10000,0,0,0,
2026-04-07 16:00:00,METAR RPVM 071600Z 34004KT 320V030 9999 FEW006 28/24 Q1011 NOSIG RMK A2985,0,4,0,10000,0,0,0,
2026-04-07 15:00:00,METAR RPVM 071500Z 03005KT CAVOK 28/24 Q1011 NOSIG RMK A2985,1,0,0,9999,0,0,0,
2026-04-07 14:00:00,METAR RPVM 071400Z 03008KT 9999 FEW004 29/24 Q1011 NOSIG RMK A2985,0,8,0,10000,0,0,0,
2026-04-07 13:00:00,METAR RPVM 071300Z 03008KT CAVOK 29/24 Q1011 NOSIG RMK A2985,1,0,0,9999,0,0,0,
2026-04-07 12:00:00,METAR RPVM 071200Z 36007KT CAVOK 29/23 Q1010 NOSIG RMK A2983,1,0,0,9999,0,0,0,
2026-04-07 11:00:00,METAR RPVM 071100Z 02009KT CAVOK 29/24 Q1010 NOSIG RMK A2983,1,0,0,9999,0,0,0,
2026-04-07 10:00:00,METAR RPVM 071000Z 04011KT CAVOK 30/23 Q1009 NOSIG RMK A2980,1,0,0,9999,0,0,0,
2026-04-07 09:00:00,METAR RPVM 070900Z 04009KT CAVOK 32/22 Q1009 NOSIG RMK A2980,1,0,0,9999,0,0,0,
2026-04-07 08:00:00,METAR RPVM 070800Z 04010KT CAVOK 32/22 Q1008 NOSIG RMK A2977,1,0,0,9999,0,0,0,
2026-04-07 07:00:00,METAR RPVM 070700Z 04010KT CAVOK 33/21 Q1008 NOSIG RMK A2977,1,0,0,9999,0,0,0,
2026-04-07 06:00:00,METAR RPVM 070600Z 03010KT 360V060 CAVOK 33/21 Q1009 NOSIG RMK A2980,1,0,0,9999,0,0,0,
2026-04-07 05:00:00,METAR RPVM 070500Z 04010KT CAVOK 33/22 Q1010 NOSIG RMK A2983,1,0,0,9999,0,0,0,
2026-04-07 04:00:00,METAR RPVM 070400Z 03010KT 360V060 9999 FEW048 32/22 Q1011 NOSIG RMK A2985,0,10,0,10000,0,0,0,
2026-04-07 03:00:00,METAR RPVM 070300Z 04009KT CAVOK 31/23 Q1012 NOSIG RMK A2988,1,0,0,9999,0,0,0,
2026-04-07 02:00:00,METAR RPVM 070200Z 03009KT 350V070 9999 FEW010 SCT025 30/23 Q1012 NOSIG RMK A2988,0,9,0,10000,0,0,0,
2026-04-07 01:00:00,METAR RPVM 070100Z 02006KT 9999 FEW005 SCT022 30/24 Q1012 NOSIG RMK A2988,0,6,0,10000,0,0,0,
2026-04-07 00:00:00,METAR RPVM 070000Z 03008KT 9999 FEW019 30/24 Q1012 NOSIG RMK A2988,0,8,0,10000,0,0,0,
2026-04-06 23:00:00,METAR RPVM 062300Z 34004KT 9999 FEW026 28/24 Q1011 NOSIG RMK A2985,0,4,0,10000,0,0,0,
2026-04-06 22:00:00,METAR RPVM 062200Z 33003KT 300V360 9999 SCT018 BKN029 27/24 Q1011 NOSIG RMK A2985,0,3,0,10000,0,0,0,
2026-04-06 21:00:00,METAR RPVM 062100Z 36003KT 330V030 9999 FEW018 BKN027 27/23 Q1010 NOSIG RMK A2983,0,3,0,10000,0,0,0,
2026-04-06 20:00:00,METAR RPVM 062000Z 33003KT 9999 FEW014 BKN018 BKN049 27/23 Q1010 NOSIG RMK A2983,0,3,0,10000,0,0,0,
2026-04-06 19:00:00,METAR RPVM 061900Z 33004KT 310V010 9999 SCT014 27/23 Q1010 NOSIG RMK A2983,0,4,0,10000,0,0,0,
2026-04-06 18:00:00,METAR RPVM 061800Z 33004KT 9999 FEW008 SCT018 BKN025 28/23 Q1010 NOSIG RMK A2983,0,4,0,10000,0,0,0,
2026-04-06 17:00:00,METAR RPVM 061700Z 07004KT 040V100 9999 FEW006 SCT018 28/23 Q1011 NOSIG RMK A2985,0,4,0,10000,0,0,0,
2026-04-06 16:00:00,METAR RPVM 061600Z 04010KT CAVOK 28/24 Q1011 NOSIG RMK A2985,1,0,0,9999,0,0,0,
2026-04-06 15:00:00,METAR RPVM 061500Z 05006KT CAVOK 28/23 Q1011 NOSIG RMK A2985,1,0,0,9999,0,0,0,
2026-04-06 14:00:00,METAR RPVM 061400Z 04009KT CAVOK 28/24 Q1011 NOSIG RMK A2985,1,0,0,9999,0,0,0,
2026-04-06 13:00:00,METAR RPVM 061300Z 04014KT CAVOK 29/24 Q1011 NOSIG RMK A2985,1,0,0,9999,0,0,0,
2026-04-06 12:00:00,METAR RPVM 061200Z 04009KT CAVOK 29/23 Q1010 NOSIG RMK A2983,1,0,0,9999,0,0,0,
2026-04-06 11:00:00,METAR RPVM 061100Z 03009KT CAVOK 29/22 Q1010 NOSIG RMK A2983,1,0,0,9999,0,0,0,
2026-04-06 10:00:00,METAR RPVM 061000Z 03009KT CAVOK 30/21 Q1009 NOSIG RMK A2980,1,0,0,9999,0,0,0,
2026-04-06 09:00:00,METAR RPVM 060900Z 03009KT CAVOK 31/21 Q1009 NOSIG RMK A2980,1,0,0,9999,0,0,0,
2026-04-06 08:00:00,METAR RPVM 060800Z 03009KT 010V070 CAVOK 32/21 Q1009 NOSIG RMK A2980,1,0,0,9999,0,0,0,
2026-04-06 07:00:00,METAR RPVM 060700Z 03007KT 360V060 CAVOK 32/21 Q1009 NOSIG RMK A2980,1,0,0,9999,0,0,0,
2026-04-06 06:00:00,METAR RPVM 060600Z 02007KT 340V050 CAVOK 33/21 Q1009 NOSIG RMK A2980,1,0,0,9999,0,0,0,
2026-04-06 05:00:00,METAR RPVM 060500Z 02008KT 340V060 CAVOK 32/21 Q1010 NOSIG RMK A2983,1,0,0,9999,0,0,0,
2026-04-06 04:00:00,METAR RPVM 060400Z 04007KT 340V110 9999 FEW043 32/22 Q1011 NOSIG RMK A2985,0,7,0,10000,0,0,0,
2026-04-06 03:00:00,METAR RPVM 060300Z 03007KT 350V070 CAVOK 31/22 Q1011 NOSIG RMK A2985,1,0,0,9999,0,0,0,
2026-04-06 02:00:00,METAR RPVM 060200Z 03008KT 350V080 CAVOK 31/22 Q1012 NOSIG RMK A2988,1,0,0,9999,0,0,0,
2026-04-06 01:00:00,METAR RPVM 060100Z 03007KT 350V060 9999 FEW025 SCT030 31/23 Q1012 NOSIG RMK A2988,0,7,0,10000,0,0,0,
2026-04-06 00:00:00,METAR RPVM 060000Z 08007KT 050V110 9999 FEW006 30/23 Q1012 NOSIG RMK A2988,0,7,0,10000,0,0,0,
2026-04-05 23:00:00,METAR RPVM 052300Z 06005KT 030V110 CAVOK 29/23 Q1012 NOSIG RMK A2988,1,0,0,9999,0,0,0,
2026-04-05 22:00:00,METAR RPVM 052200Z 05005KT CAVOK 27/23 Q1011 NOSIG RMK A2985,1,0,0,9999,0,0,0,
2026-04-05 21:00:00,METAR RPVM 052100Z 36003KT CAVOK 26/23 Q1011 NOSIG RMK A2985,1,0,0,9999,0,0,0,
2026-04-05 20:00:00,METAR RPVM 052000Z 06003KT CAVOK 27/22 Q1010 NOSIG RMK A2983,1,0,0,9999,0,0,0,
2026-04-05 19:00:00,METAR RPVM 051900Z 05004KT CAVOK 27/22 Q1010 NOSIG RMK A2983,1,0,0,9999,0,0,0,
2026-04-05 18:00:00,METAR RPVM 051800Z 06005KT 020V090 CAVOK 27/23 Q1010 NOSIG RMK A2983,1,0,0,9999,0,0,0,
2026-04-05 17:00:00,METAR RPVM 051700Z 06003KT CAVOK 27/23 Q1011 NOSIG RMK A2985,1,0,0,9999,0,0,0,
2026-04-05 16:00:00,METAR RPVM 051600Z 07004KT 050V110 CAVOK 28/23 Q1011 NOSIG RMK A2985,1,0,0,9999,0,0,0,
2026-04-05 15:00:00,METAR RPVM 051500Z 07005KT CAVOK 28/24 Q1011 NOSIG RMK A2985,1,0,0,9999,0,0,0,
2026-04-05 13:00:00,METAR RPVM 051300Z 03006KT 340V060 CAVOK 29/24 Q1010 NOSIG RMK A2983,1,0,0,9999,0,0,0,
2026-04-05 12:00:00,METAR RPVM 051200Z 04007KT CAVOK 29/24 Q1009 NOSIG RMK A2980,1,0,0,9999,0,0,0,
2026-04-05 11:00:00,METAR RPVM 051100Z 03007KT CAVOK 29/24 Q1009 NOSIG RMK A2980,1,0,0,9999,0,0,0,
2026-04-05 10:00:00,METAR RPVM 051000Z 03007KT CAVOK 30/24 Q1009 NOSIG RMK A2980,1,0,0,9999,0,0,0,
2026-04-05 09:00:00,METAR RPVM 050900Z 04007KT 010V080 CAVOK 32/23 Q1008 NOSIG RMK A2977,1,0,0,9999,0,0,0,
2026-04-05 08:00:00,METAR RPVM 050800Z 04008KT 360V070 CAVOK 33/23 Q1008 NOSIG RMK A2977,1,0,0,9999,0,0,0,
2026-04-05 07:00:00,METAR RPVM 050700Z 05009KT CAVOK 33/22 Q1008 NOSIG RMK A2977,1,0,0,9999,0,0,0,
2026-04-05 06:00:00,METAR RPVM 050600Z 03009KT 010V070 CAVOK 32/23 Q1008 NOSIG RMK A2977,1,0,0,9999,0,0,0,
2026-04-05 05:00:00,METAR RPVM 050500Z 03009KT CAVOK 32/23 Q1009 NOSIG RMK A2980,1,0,0,9999,0,0,0,
2026-04-05 04:00:00,METAR RPVM 050400Z 03009KT 360V060 9999 FEW038 32/23 Q1010 NOSIG RMK A2983,0,9,0,10000,0,0,0,
2026-04-05 03:00:00,METAR RPVM 050300Z 03009KT 360V080 9999 FEW027 32/24 Q1011 NOSIG RMK A2985,0,9,0,10000,0,0,0,
2026-04-05 02:00:00,METAR RPVM 050200Z 05009KT 020V100 9999 FEW026 31/23 Q1011 NOSIG RMK A2985,0,9,0,10000,0,0,0,
2026-04-05 01:00:00,METAR RPVM 050100Z 05007KT 020V080 9999 FEW022 30/24 Q1012 NOSIG RMK A2988,0,7,0,10000,0,0,0,
2026-04-05 00:00:00,METAR RPVM 050000Z 03007KT 360V060 9999 FEW020 30/24 Q1011 NOSIG RMK A2985,0,7,0,10000,0,0,0,
2026-04-04 23:00:00,METAR RPVM 042300Z 34005KT 320V030 CAVOK 29/24 Q1011 NOSIG RMK A2985,1,0,0,9999,0,0,0,
2026-04-04 22:00:00,METAR RPVM 042200Z VRB01KT CAVOK 26/23 Q1010 NOSIG RMK A2985,1,0,0,9999,0,0,0,
2026-04-04 21:00:00,METAR RPVM 042100Z VRB02KT CAVOK 26/23 Q1009 NOSIG RMK A2980,1,0,0,9999,0,0,0,
2026-04-04 20:00:00,METAR RPVM 042000Z 36002KT CAVOK 26/23 Q1009 NOSIG RMK A2980,1,0,0,9999,0,0,0,
2026-04-04 19:00:00,METAR RPVM 041900Z VRB02KT CAVOK 26/23 Q1009 NOSIG RMK A2980,1,0,0,9999,0,0,0,
2026-04-04 18:00:00,METAR RPVM 041800Z 34004KT CAVOK 26/23 Q1010 NOSIG RMK A2983,1,0,0,9999,0,0,0,
2026-04-04 17:00:00,METAR RPVM 041700Z 33007KT CAVOK 26/22 Q1010 NOSIG RMK A2983,1,0,0,9999,0,0,0,
2026-04-04 16:00:00,METAR RPVM 041600Z 35004KT CAVOK 27/22 Q1010 NOSIG RMK A2983,1,0,0,9999,0,0,0,
2026-04-02 17:00:00,METAR RPVM 021700Z 35003KT 9999 FEW005CB SCT007 26/23 Q1011 NOSIG RMK A2985 CB NE-E,0,3,0,10000,0,0,0,
2026-04-02 16:00:00,METAR RPVM 021600Z 35004KT 9999 FEW007CB 27/23 Q1011 NOSIG RMK A2985 CB NE-E,0,4,0,10000,0,0,0,
2026-04-02 15:00:00,METAR RPVM 021500Z 36006KT CAVOK 28/23 Q1012 NOSIG RMK A2988,1,0,0,9999,0,0,0,
2026-04-02 14:00:00,METAR RPVM 021400Z 05011KT CAVOK 28/23 Q1012 NOSIG RMK A2988,1,0,0,9999,0,0,0,
2026-04-02 13:00:00,METAR RPVM 021300Z 03008KT CAVOK 28/24 Q1011 NOSIG RMK A2985,1,0,0,9999,0,0,0,
2026-04-02 12:00:00,METAR RPVM 021200Z 06005KT CAVOK 29/23 Q1011 NOSIG RMK A2985,1,0,0,9999,0,0,0,
2026-04-02 11:00:00,METAR RPVM 021100Z 05006KT CAVOK 29/22 Q1010 NOSIG RMK A2983,1,0,0,9999,0,0,0,
2026-04-02 10:00:00,METAR RPVM 021000Z 03007KT 9999 BKN020 30/22 Q1010 NOSIG RMK A2983,0,7,0,10000,0,0,0,
2026-04-02 09:00:00,METAR RPVM 020900Z 03008KT 9999 FEW021 30/22 Q1009 NOSIG RMK A2980,0,8,0,10000,0,0,0,
2026-04-02 08:00:00,METAR RPVM 020800Z 05010KT 010V070 CAVOK 32/21 Q1009 NOSIG RMK A2980,1,0,0,9999,0,0,0,
2026-04-02 07:00:00,METAR RPVM 020700Z 04010KT CAVOK 32/22 Q1009 NOSIG RMK A2980,1,0,0,9999,0,0,0,
2026-04-02 06:00:00,METAR RPVM 020600Z 05011KT CAVOK 32/22 Q1010 NOSIG RMK A2983,1,0,0,9999,0,0,0,
2026-04-02 05:00:00,METAR RPVM 020500Z 05012KT CAVOK 31/22 Q1011 NOSIG RMK A2985,1,0,0,9999,0,0,0,
2026-04-02 04:00:00,METAR RPVM 020400Z 03010KT 340V070 9999 FEW044 31/23 Q1012 NOSIG RMK A2988,0,10,0,10000,0,0,0,
2026-04-02 03:00:00,METAR RPVM 020300Z 03010KT 330V060 9999 FEW027 30/23 Q1013 NOSIG RMK A2991,0,10,0,10000,0,0,0,
2026-04-02 02:00:00,METAR RPVM 020200Z 03010KT 360V060 9999 FEW027 30/22 Q1013 NOSIG RMK A2991,0,10,0,10000,0,0,0,
2026-04-02 01:00:00,"METAR RPVM 020100Z 06008KT 020V110 9999 FEW005TCU SCT006 BKN019 29/24 Q1014 NOSIG RMK A2994 TCU S,SW,W,NW",0,8,0,10000,0,0,0,
2026-04-02 00:00:00,"METAR RPVM 020000Z 03006KT 340V070 9999 FEW006TCU 29/23 Q1013 NOSIG RMK A2991 TCU N,NE,NW",0,6,0,10000,0,0,0,
2026-04-01 23:00:00,METAR RPVM 012300Z VRB02KT 9999 FEW005 SCT008 BKN022 26/23 Q1013 NOSIG RMK A2991,0,2,0,10000,0,0,0,
2026-04-01 22:00:00,METAR RPVM 012200Z VRB02KT 9999 FEW006TCU 25/22 Q1012 NOSIG RMK A2988 TCU NE/E,0,2,0,10000,0,0,0,
2026-04-01 21:00:00,METAR RPVM 012100Z 35002KT CAVOK 25/22 Q1011 NOSIG RMK A2985,1,0,0,9999,0,0,0,
2026-04-01 20:00:00,METAR RPVM 012000Z VRB02KT 9999 FEW006 SCT021 25/21 Q1011 NOSIG RMK A2985,0,2,0,10000,0,0,0,
2026-04-01 19:00:00,METAR RPVM 011900Z VRB01KT 9999 FEW013 SCT044 25/20 Q1011 NOSIG RMK A2985,0,1,0,10000,0,0,0,
2026-04-01 18:00:00,METAR RPVM 011800Z VRB02KT 9999 FEW012 26/20 Q1011 NOSIG RMK A2985,0,2,0,10000,0,0,0,
2026-04-01 17:00:00,METAR RPVM 011700Z 04003KT 9999 FEW012 SCT041 27/20 Q1012 NOSIG RMK A2988,0,3,0,10000,0,0,0,
2026-04-01 16:00:00,METAR RPVM 011600Z 02006KT 9999 FEW011 27/21 Q1013 NOSIG RMK A2991,0,6,0,10000,0,0,0,
2026-04-01 15:00:00,METAR RPVM 011500Z 02008KT CAVOK 27/21 Q1013 NOSIG RMK A2991,1,0,0,9999,0,0,0,
2026-04-01 14:00:00,METAR RPVM 011400Z 02008KT CAVOK 28/21 Q1012 NOSIG RMK A2988,1,0,0,9999,0,0,0,
2026-04-01 13:00:00,METAR RPVM 011300Z 01008KT CAVOK 28/23 Q1012 NOSIG RMK A2988,1,0,0,9999,0,0,0,
2026-04-01 12:00:00,METAR RPVM 011200Z 03008KT CAVOK 28/21 Q1011 NOSIG RMK A2985,1,0,0,9999,0,0,0,
2026-04-01 11:00:00,METAR RPVM 011100Z 02007KT CAVOK 28/21 Q1011 NOSIG RMK A2985,1,0,0,9999,0,0,0,
2026-04-01 10:00:00,METAR RPVM 011000Z 03009KT CAVOK 29/23 Q1010 NOSIG RMK A2983,1,0,0,9999,0,0,0,
2026-04-01 09:00:00,METAR RPVM 010900Z 04009KT CAVOK 31/21 Q1010 NOSIG RMK A2983,1,0,0,9999,0,0,0,
2026-04-01 08:00:00,METAR RPVM 010800Z 04011KT CAVOK 31/21 Q1010 NOSIG RMK A2983,1,0,0,9999,0,0,0,
2026-04-01 07:00:00,METAR RPVM 010700Z 03011KT CAVOK 31/22 Q1010 NOSIG RMK A2983,1,0,0,9999,0,0,0,
2026-04-01 06:00:00,METAR RPVM 010600Z 04010KT CAVOK 31/21 Q1010 NOSIG RMK A2983,1,0,0,9999,0,0,0,
2026-04-01 05:00:00,METAR RPVM 010500Z 03011KT CAVOK 31/22 Q1011 NOSIG RMK A2985,1,0,0,9999,0,0,0,
2026-04-01 04:00:00,METAR RPVM 010400Z 04010KT 360V060 9999 FEW030 31/21 Q1012 NOSIG RMK A2988,0,10,0,10000,0,0,0,
2026-04-01 03:00:00,METAR RPVM 010300Z 05007KT 010V100 CAVOK 31/22 Q1013 NOSIG RMK A2991,1,0,0,9999,0,0,0,
2026-04-01 02:00:00,METAR RPVM 010200Z 03008KT 350V070 9999 FEW007 SCT024 30/23 Q1013 NOSIG RMK A2991,0,8,0,10000,0,0,0,
2026-04-01 01:00:00,METAR RPVM 010100Z 05009KT 010V070 9999 FEW005 SCT019 29/24 Q1013 NOSIG RMK A2991,0,9,0,10000,0,0,0,
2026-04-01 00:00:00,METAR RPVM 010000Z 04003KT 330V110 9999 FEW005 SCT019 29/24 Q1013 NOSIG RMK A2991,0,3,0,10000,0,0,0,
2026-03-31 23:00:00,METAR RPVM 312300Z VRB02KT 9999 FEW005 SCT023 26/23 Q1012 NOSIG RMK A2988,0,2,0,9999,0,0,0,
2026-03-31 22:00:00,METAR RPVM 312200Z VRB01KT 9999 FEW008CB SCT012 BKN035 25/23 Q1011 NOSIG RMK A2985 CB SE,0,1,0,9999,0,0,0,
2026-03-31 21:00:00,METAR RPVM 312100Z 32004KT 9999 FEW013 25/23 Q1011 NOSIG RMK A2985,0,4,0,9999,0,0,0,
2026-03-31 20:00:00,METAR RPVM 312000Z VRB01KT 9999 FEW011 25/23 Q1010 NOSIG RMK A2983,0,1,0,9999,0,0,0,
2026-03-31 19:00:00,METAR RPVM 311900Z 33003KT 310V040 CAVOK 26/23 Q1010 NOSIG RMK A2983,1,0,0,9999,0,0,0,
2026-03-31 18:00:00,METAR RPVM 311800Z VRB01KT 9999 FEW007CB 26/23 Q1010 NOSIG RMK A2983 CB W,0,1,0,9999,0,0,0,
2026-03-31 17:00:00,METAR RPVM 311700Z VRB01KT 9999 SCT007 SCT010 BKN026 26/23 Q1011 NOSIG RMK A2985,0,1,0,9999,0,0,0,
2026-03-31 16:00:00,METAR RPVM 311600Z VRB02KT 9999 FEW024 27/23 Q1011 NOSIG RMK A2985,0,2,0,9999,0,0,0,
2026-03-31 15:00:00,METAR RPVM 311500Z 04005KT 9999 BKN046 27/23 Q1012 NOSIG RMK A2988,0,5,0,9999,0,0,0,
2026-03-31 14:00:00,METAR RPVM 311400Z 35005KT CAVOK 27/23 Q1012 NOSIG RMK A2988,1,0,0,9999,0,0,0,
2026-03-31 13:00:00,METAR RPVM 311300Z 35004KT 9999 FEW027 27/23 Q1011 NOSIG RMK A2985,0,4,0,9999,0,0,0,
2026-03-31 12:00:00,METAR RPVM 311200Z 04004KT 360V070 9999 FEW027 28/23 Q1011 NOSIG RMK A2985,0,4,0,9999,0,0,0,
2026-03-31 11:00:00,METAR RPVM 311100Z 07004KT CAVOK 28/22 Q1010 NOSIG RMK A2983,1,0,0,9999,0,0,0,
2026-03-31 10:00:00,METAR RPVM 311000Z 08005KT 9999 FEW027 29/21 Q1010 NOSIG RMK A2983,0,5,0,9999,0,0,0,
2026-03-31 09:00:00,METAR RPVM 310900Z 06007KT 040V100 CAVOK 31/21 Q1009 NOSIG RMK A2980,1,0,0,9999,0,0,0,
2026-03-31 08:00:00,METAR RPVM 310800Z 05008KT 010V090 9999 SCT019 31/21 Q1009 NOSIG RMK A2980,0,8,0,9999,0,0,0,
2026-03-31 07:00:00,METAR RPVM 310700Z 05009KT 9999 SCT019 SCT025 31/21 Q1010 NOSIG RMK A2983,0,9,0,9999,0,0,0,
2026-03-31 06:00:00,METAR RPVM 310600Z 04009KT 350V070 9999 FEW019 SCT021 31/21 Q1010 NOSIG RMK A2983,0,9,0,9999,0,0,0,
2026-03-31 05:00:00,METAR RPVM 310500Z 04006KT 340V100 9999 FEW018 SCT022 31/21 Q1011 NOSIG RMK A2985,0,6,0,9999,0,0,0,
2026-03-31 04:00:00,METAR RPVM 310400Z VRB04KT 9999 SCT018 BKN023 30/22 Q1012 NOSIG RMK A2988,0,4,0,9999,0,0,0,
2026-03-31 03:00:00,METAR RPVM 310300Z 12006KT 070V180 9999 FEW007 BKN020 30/22 Q1013 NOSIG RMK A2991,0,6,0,9999,0,0,0,
2026-03-31 02:00:00,METAR RPVM 310200Z 07007KT 010V110 9999 FEW029 30/22 Q1013 NOSIG RMK A2991,0,7,0,9999,0,0,0,
2026-03-31 01:00:00,METAR RPVM 310100Z 05007KT 9999 BKN019 29/22 Q1013 NOSIG RMK A2991,0,7,0,9999,0,0,0,
2026-03-31 00:00:00,METAR RPVM 310000Z 03007KT 360V070 9999 FEW020 29/22 Q1012 NOSIG RMK A2988,0,7,0,9999,0,0,0,
2026-03-30 23:00:00,METAR RPVM 302300Z 33006KT CAVOK 27/22 Q1012 NOSIG RMK A2988,1,0,0,9999,0,0,0,
2026-03-30 22:00:00,METAR RPVM 302200Z 36003KT 330V040 CAVOK 25/22 Q1011 NOSIG RMK A2985,1,0,0,9999,0,0,0,
2026-03-30 21:00:00,METAR RPVM 302100Z 06005KT CAVOK 26/21 Q1010 NOSIG RMK A2983,1,0,0,9999,0,0,0,
2026-03-30 20:00:00,METAR RPVM 302000Z 07004KT CAVOK 26/22 Q1011 NOSIG RMK A2985,1,0,0,9999,0,0,0,
2026-03-30 19:00:00,METAR RPVM 301900Z 05005KT CAVOK 26/22 Q1011 NOSIG RMK A2985,1,0,0,9999,0,0,0,
2026-03-30 18:00:00,METAR RPVM 301800Z 05005KT CAVOK 26/22 Q1011 NOSIG RMK A2985,1,0,0,9999,0,0,0,
2026-03-30 17:00:00,METAR RPVM 301700Z 06005KT 9999 FEW011 27/22 Q1011 NOSIG RMK A2985,0,5,0,10000,0,0,0,
2026-03-30 16:00:00,METAR RPVM 301600Z 07005KT 9999 FEW010 SCT037 BKN045 28/22 Q1012 NOSIG RMK A2988,0,5,0,10000,0,0,0,
2026-03-30 15:00:00,METAR RPVM 301500Z 07007KT 9999 FEW013 28/21 Q1012 NOSIG RMK A2988,0,7,0,10000,0,0,0,
2026-03-30 14:00:00,METAR RPVM 301400Z 06005KT 9999 FEW014 28/23 Q1012 NOSIG RMK A2988,0,5,0,10000,0,0,0,
2026-03-30 13:00:00,METAR RPVM 301300Z 05004KT 9999 SCT015 28/23 Q1012 NOSIG RMK A2988,0,4,0,10000,0,0,0,
2026-03-30 12:00:00,METAR RPVM 301200Z 04007KT CAVOK 28/23 Q1011 NOSIG RMK A2985,1,0,0,9999,0,0,0,
2026-03-30 11:00:00,METAR RPVM 301100Z 03009KT 9999 FEW017 29/22 Q1010 NOSIG RMK A2983,0,9,0,10000,0,0,0,
2026-03-30 10:00:00,METAR RPVM 301000Z 05008KT CAVOK 29/22 Q1010 NOSIG RMK A2983,1,0,0,9999,0,0,0,
2026-03-30 09:00:00,METAR RPVM 300900Z 03007KT CAVOK 30/21 Q1009 NOSIG RMK A2980,1,0,0,9999,0,0,0,
2026-03-30 08:00:00,METAR RPVM 300800Z 05009KT 010V070 CAVOK 31/21 Q1009 NOSIG RMK A2980,1,0,0,9999,0,0,0,
2026-03-30 07:00:00,METAR RPVM 300700Z 03008KT 350V090 CAVOK 32/21 Q1009 NOSIG RMK A2980,1,0,0,9999,0,0,0,
2026-03-30 06:00:00,METAR RPVM 300600Z 04010KT 360V070 CAVOK 32/21 Q1010 NOSIG RMK A2983,1,0,0,9999,0,0,0,
2026-03-30 05:00:00,METAR RPVM 300500Z 03010KT 360V060 CAVOK 30/22 Q1011 NOSIG RMK A2985,1,0,0,9999,0,0,0,
2026-03-30 04:00:00,METAR RPVM 300400Z 04009KT 360V080 9999 FEW034 31/22 Q1012 NOSIG RMK A2988,0,9,0,10000,0,0,0,
2026-03-30 03:00:00,METAR RPVM 300300Z 03009KT 360V070 CAVOK 31/22 Q1012 NOSIG RMK A2988,1,0,0,9999,0,0,0,
2026-03-30 02:00:00,METAR RPVM 300200Z 03010KT 360V060 CAVOK 30/23 Q1013 NOSIG RMK A2991,1,0,0,9999,0,0,0,
2026-03-30 01:00:00,METAR RPVM 300100Z 03008KT 9999 FEW006 29/23 Q1012 NOSIG RMK A2988,0,8,0,10000,0,0,0,
2026-03-30 00:00:00,METAR RPVM 300000Z 03008KT 350V060 CAVOK 29/23 Q1012 NOSIG RMK A2988,1,0,0,9999,0,0,0,
2026-03-29 23:00:00,METAR RPVM 292300Z 35005KT 9999 FEW007 27/23 Q1011 NOSIG RMK A2985,0,5,0,10000,0,0,0,
2026-03-29 22:00:00,METAR RPVM 292200Z 07003KT CAVOK 24/22 Q1011 NOSIG RMK A2985,1,0,0,9999,0,0,0,
2026-03-29 21:00:00,METAR RPVM 292100Z VRB02KT CAVOK 24/23 Q1010 NOSIG RMK A2983,1,0,0,9999,0,0,0,
2026-03-29 20:00:00,METAR RPVM 292000Z 35003KT CAVOK 25/23 Q1010 NOSIG RMK A2983,1,0,0,9999,0,0,0,
2026-03-29 19:00:00,METAR RPVM 291900Z 34003KT CAVOK 26/23 Q1010 NOSIG RMK A2983,1,0,0,9999,0,0,0,
2026-03-29 18:00:00,METAR RPVM 291800Z 06003KT CAVOK 26/22 Q1010 NOSIG RMK A2983,1,0,0,9999,0,0,0,
2026-03-29 17:00:00,METAR RPVM 291700Z 05005KT CAVOK 27/23 Q1011 NOSIG RMK A2985,1,0,0,9999,0,0,0,
2026-03-29 16:00:00,METAR RPVM 291600Z 05005KT CAVOK 27/23 Q1011 NOSIG RMK A2985,1,0,0,9999,0,0,0,
2026-03-29 15:00:00,METAR RPVM 291500Z 03009KT 9999 FEW012 28/23 Q1012 NOSIG RMK A2988,0,9,0,10000,0,0,0,
2026-03-29 14:00:00,METAR RPVM 291400Z 04011KT 9999 FEW015 28/22 Q1012 NOSIG RMK A2988,0,11,0,10000,0,0,0,
2026-03-29 13:00:00,METAR RPVM 291300Z 02010KT 9999 FEW012 SCT015 BKN044 28/24 Q1012 NOSIG RMK A2988,0,10,0,10000,0,0,0,
2026-03-29 12:00:00,METAR RPVM 291200Z 03010KT 9999 SCT015 BKN017 29/23 Q1011 NOSIG RMK A2985,0,10,0,10000,0,0,0,
2026-03-29 11:00:00,METAR RPVM 291100Z 06005KT 9999 FEW015 SCT019 29/22 Q1010 NOSIG RMK A2983,0,5,0,10000,0,0,0,
2026-03-29 10:00:00,METAR RPVM 291000Z 06007KT CAVOK 29/22 Q1009 NOSIG RMK A2980,1,0,0,9999,0,0,0,
2026-03-29 09:00:00,METAR RPVM 290900Z 05008KT CAVOK 31/20 Q1009 NOSIG RMK A2980,1,0,0,9999,0,0,0,
2026-03-29 08:00:00,METAR RPVM 290800Z 06007KT 020V090 CAVOK 32/20 Q1008 NOSIG RMK A2977,1,0,0,9999,0,0,0,
2026-03-29 07:00:00,METAR RPVM 290700Z 03008KT 360V070 CAVOK 31/20 Q1008 NOSIG RMK A2977,1,0,0,9999,0,0,0,
2026-03-29 06:00:00,METAR RPVM 290600Z 03009KT 350V070 CAVOK 31/20 Q1009 NOSIG RMK A2980,1,0,0,9999,0,0,0,
2026-03-29 05:00:00,METAR RPVM 290500Z 03006KT 340V100 CAVOK 31/21 Q1010 NOSIG RMK A2983,1,0,0,9999,0,0,0,
2026-03-29 04:00:00,METAR RPVM 290400Z 03008KT 350V070 CAVOK 30/22 Q1011 NOSIG RMK A2985,1,0,0,9999,0,0,0,
2026-03-29 03:00:00,METAR RPVM 290300Z 02008KT 340V050 CAVOK 30/22 Q1011 NOSIG RMK A2985,1,0,0,9999,0,0,0,
2026-03-29 02:00:00,METAR RPVM 290200Z 02008KT 350V050 9999 FEW027 29/22 Q1012 NOSIG RMK A2988,0,8,0,10000,0,0,0,
2026-03-29 01:00:00,METAR RPVM 290100Z 05009KT 010V090 9999 FEW007 30/22 Q1011 NOSIG RMK A2985,0,9,0,10000,0,0,0,
2026-03-29 00:00:00,METAR RPVM 290000Z 04007KT 9999 FEW022 29/23 Q1011 NOSIG RMK A2985,0,7,0,10000,0,0,0,
2026-03-28 23:00:00,METAR RPVM 282300Z 34003KT CAVOK 27/23 Q1011 NOSIG RMK A2985,1,0,0,9999,0,0,0,
2026-03-28 22:00:00,METAR RPVM 282200Z 03001KT 9999 FEW013 25/22 Q1011 NOSIG RMK A2985,0,1,0,10000,0,0,0,
2026-03-28 21:00:00,METAR RPVM 282100Z 28001KT 9999 FEW006 SCT012 BKN032 25/22 Q1010 NOSIG RMK A2983,0,1,0,10000,0,0,0,
2026-03-28 20:00:00,METAR RPVM 282000Z VRB02KT 9999 FEW012 SCT042 24/21 Q1010 NOSIG RMK A2983,0,2,0,10000,0,0,0,
2026-03-28 19:00:00,METAR RPVM 281900Z VRB02KT CAVOK 24/21 Q1010 NOSIG RMK A2983,1,0,0,9999,0,0,0,
2026-03-28 18:00:00,METAR RPVM 281800Z 35002KT 9999 FEW014 25/21 Q1010 NOSIG RMK A2983,0,2,0,10000,0,0,0,
2026-03-28 17:00:00,METAR RPVM 281700Z 36004KT 9999 FEW010 26/21 Q1010 NOSIG RMK A2983,0,4,0,10000,0,0,0,
2026-03-28 16:00:00,METAR RPVM 281600Z 35004KT CAVOK 26/21 Q1011 NOSIG RMK A2985,1,0,0,9999,0,0,0,
2026-03-28 15:00:00,METAR RPVM 281500Z 01005KT 330V030 CAVOK 26/21 Q1011 NOSIG RMK A2985,1,0,0,9999,0,0,0,
2026-03-28 14:00:00,METAR RPVM 281400Z 01005KT CAVOK 26/22 Q1011 NOSIG RMK A2985,1,0,0,9999,0,0,0,
2026-03-28 13:00:00,METAR RPVM 281300Z 02005KT 340V040 CAVOK 26/22 Q1010 NOSIG RMK A2983,1,0,0,9999,0,0,0,
2026-03-28 12:00:00,METAR RPVM 281200Z 02005KT CAVOK 27/22 Q1010 NOSIG RMK A2983,1,0,0,9999,0,0,0,
2026-03-28 11:00:00,METAR RPVM 281100Z 36008KT CAVOK 28/22 Q1009 NOSIG RMK A2980,1,0,0,9999,0,0,0,
2026-03-28 10:00:00,METAR RPVM 281000Z 03011KT CAVOK 28/22 Q1009 NOSIG RMK A2980,1,0,0,9999,0,0,0,
2026-03-28 09:00:00,METAR RPVM 280900Z 03013KT CAVOK 30/22 Q1008 NOSIG RMK A2977,1,0,0,9999,0,0,0,
2026-03-28 08:00:00,METAR RPVM 280800Z 04012KT CAVOK 30/21 Q1008 NOSIG RMK A2977,1,0,0,9999,0,0,0,
2026-03-28 07:00:00,METAR RPVM 280700Z 05011KT 020V080 CAVOK 30/22 Q1008 NOSIG RMK A2977,1,0,0,9999,0,0,0,
2026-03-28 06:00:00,METAR RPVM 280600Z 05011KT 020V080 CAVOK 30/22 Q1009 NOSIG RMK A2980,1,0,0,9999,0,0,0,
2026-03-28 05:00:00,METAR RPVM 280500Z 05010KT 020V090 CAVOK 31/21 Q1010 NOSIG RMK A2983,1,0,0,9999,0,0,0,
2026-03-28 04:00:00,METAR RPVM 280400Z 05010KT 020V100 CAVOK 30/21 Q1011 NOSIG RMK A2985,1,0,0,9999,0,0,0,
2026-03-28 03:00:00,METAR RPVM 280300Z 04012KT CAVOK 30/21 Q1011 NOSIG RMK A2985,1,0,0,9999,0,0,0,
2026-03-28 02:00:00,METAR RPVM 280200Z 04012KT 9999 FEW026 29/22 Q1012 NOSIG RMK A2988,0,12,0,10000,0,0,0,
2026-03-28 01:00:00,METAR RPVM 280100Z 04010KT 9999 FEW006 SCT024 30/23 Q1012 NOSIG RMK A2988,0,10,0,10000,0,0,0,
2026-03-28 00:00:00,METAR RPVM 280000Z 35008KT 320V020 9999 FEW020TCU 28/24 Q1012 NOSIG RMK A2988 TCU E-SE,0,8,0,10000,0,0,0,
2026-03-27 23:00:00,METAR RPVM 272300Z 34003KT 310V030 9999 FEW005 SCT006TCU BKN020 27/24 Q1012 NOSIG RMK A2988 TCU SE-SW/NW-N,0,3,0,10000,0,0,0,
2026-03-27 22:00:00,METAR RPVM 272200Z 34003KT 310V010 9999 FEW011 26/23 Q1011 NOSIG RMK A2985,0,3,0,10000,0,0,0,
2026-03-27 21:00:00,METAR RPVM 272100Z 07003KT 9999 FEW006 SCT009 26/23 Q1010 NOSIG RMK A2983,0,3,0,10000,0,0,0,
2026-03-27 20:00:00,METAR RPVM 272000Z VRB02KT 9999 FEW007 SCT011 BKN019 26/23 Q1010 NOSIG RMK A2983,0,2,0,10000,0,0,0,
2026-03-27 19:00:00,METAR RPVM 271900Z 05002KT 9999 FEW008 SCT023 BKN027 26/24 Q1010 NOSIG RMK A2983,0,2,0,10000,0,0,0,
2026-03-27 18:00:00,METAR RPVM 271800Z VRB01KT 9999 SCT010 BKN034 26/23 Q1010 NOSIG RMK A2983,0,1,0,10000,0,0,0,
2026-03-27 17:00:00,METAR RPVM 271700Z 35007KT CAVOK 26/23 Q1010 NOSIG RMK A2983,1,0,0,9999,0,0,0,
2026-03-27 16:00:00,METAR RPVM 271600Z 36010KT CAVOK 27/22 Q1010 NOSIG RMK A2983,1,0,0,9999,0,0,0,
2026-03-25 15:00:00,METAR RPVM 251500Z 02011KT 9999 SCT026 SCT029 28/24 Q1010 NOSIG RMK A2983,0,11,0,10000,0,0,0,
2026-03-25 14:00:00,METAR RPVM 251400Z 03012KT 9999 SCT025 BKN029 28/25 Q1011 NOSIG RMK A2985,0,12,0,10000,0,0,0,
2026-03-25 13:00:00,METAR RPVM 251300Z 02011KT 9999 FEW019 BKN026 28/25 Q1010 NOSIG RMK A2983,0,11,0,10000,0,0,0,
2026-03-25 12:00:00,METAR RPVM 251200Z 03010KT CAVOK 28/24 Q1010 NOSIG RMK A2983,1,0,0,9999,0,0,0,
2026-03-25 11:00:00,METAR RPVM 251100Z 04008KT CAVOK 28/24 Q1009 NOSIG RMK A2980,1,0,0,9999,0,0,0,
2026-03-25 10:00:00,METAR RPVM 251000Z 03006KT CAVOK 30/22 Q1008 NOSIG RMK A2977,1,0,0,9999,0,0,0,
2026-03-25 09:00:00,METAR RPVM 250900Z 04008KT 9999 FU NSC 32/21 Q1008 NOSIG RMK A2977 FU S,0,8,0,10000,0,0,0,
2026-03-25 08:00:00,METAR RPVM 250800Z 04008KT 020V080 CAVOK 32/21 Q1007 NOSIG RMK A2974,1,0,0,9999,0,0,0,
2026-03-25 07:00:00,METAR RPVM 250700Z 04009KT 360V070 CAVOK 32/21 Q1007 NOSIG RMK A2974,1,0,0,9999,0,0,0,
2026-03-25 06:00:00,METAR RPVM 250600Z 03008KT 360V070 CAVOK 32/21 Q1008 NOSIG RMK A2977,1,0,0,9999,0,0,0,
2026-03-25 05:00:00,METAR RPVM 250500Z 04008KT 010V080 CAVOK 32/22 Q1009 NOSIG RMK A2980,1,0,0,9999,0,0,0,
2026-03-25 04:00:00,METAR RPVM 250400Z 03008KT 360V060 CAVOK 31/23 Q1010 NOSIG RMK A2983,1,0,0,9999,0,0,0,
2026-03-25 03:00:00,METAR RPVM 250300Z 02008KT 350V050 CAVOK 31/23 Q1010 NOSIG RMK A2983,1,0,0,9999,0,0,0,
2026-03-25 02:00:00,METAR RPVM 250200Z 03007KT 350V100 CAVOK 31/23 Q1011 NOSIG RMK A2985,1,0,0,9999,0,0,0,
2026-03-25 01:00:00,METAR RPVM 250100Z 05005KT 010V100 9999 FEW014 30/23 Q1011 NOSIG RMK A2985,0,5,0,10000,0,0,0,
2026-03-25 00:00:00,METAR RPVM 250000Z 01004KT 310V060 CAVOK 29/22 Q1011 NOSIG RMK A2985,1,0,0,9999,0,0,0,
2026-03-24 23:00:00,METAR RPVM 242300Z 03004KT CAVOK 2722 Q1011 NOSIG RMK A2985,1,0,0,9999,0,0,0,
2026-03-24 22:00:00,METAR RPVM 242200Z 07003KT 9999 FEW032 25/22 Q1010 NOSIG RMK A2983,0,3,0,10000,0,0,0,
2026-03-24 21:00:00,METAR RPVM 242100Z VRB02KT CAVOK 24/22 Q1009 NOSIG RMK A2980,1,0,0,9999,0,0,0,
2026-03-24 20:00:00,METAR RPVM 242000Z 36002KT CAVOK 25/22 Q1009 NOSIG RMK A2980,1,0,0,9999,0,0,0,
2026-03-24 19:00:00,METAR RPVM 241900Z 01005KT CAVOK 26/22 Q1009 NOSIG RMK A2980,1,0,0,9999,0,0,0,
2026-03-24 18:00:00,METAR RPVM 241800Z 35005KT 9999 SCT044 26/22 Q1009 NOSIG RMK A2980,0,5,0,10000,0,0,0,
2026-03-24 17:00:00,METAR RPVM 241700Z 01006KT CAVOK 26/22 Q1009 NOSIG RMK A2980,1,0,0,9999,0,0,0,
2026-03-24 16:00:00,METAR RPVM 241600Z 35006KT 9999 SCT013 BKN044 26/22 Q1010 NOSIG RMK A2983,0,6,0,10000,0,0,0,
2026-03-24 15:00:00,METAR RPVM 241500Z 01006KT CAVOK 26/22 Q1010 NOSIG RMK A2983,1,0,0,9999,0,0,0,
2026-03-24 14:00:00,METAR RPVM 241400Z 36006KT CAVOK 27/21 Q1010 NOSIG RMK A2983,1,0,0,9999,0,0,0,
2026-03-24 13:00:00,METAR RPVM 241300Z 01006KT CAVOK 27/21 Q1009 NOSIG RMK A2980,1,0,0,9999,0,0,0,
2026-03-24 12:00:00,METAR RPVM 241200Z 35008KT CAVOK 28/20 Q1009 NOSIG RMK A2980,1,0,0,9999,0,0,0,
2026-03-24 11:00:00,METAR RPVM 241100Z 34007KT CAVOK 28/21 Q1008 NOSIG RMK A2977,1,0,0,9999,0,0,0,
2026-03-24 10:00:00,METAR RPVM 241000Z 01008KT CAVOK 29/23 Q1008 NOSIG RMK A2977,1,0,0,9999,0,0,0,
2026-03-24 09:00:00,METAR RPVM 240900Z 04013KT CAVOK 30/22 Q1007 NOSIG RMK A2974,1,0,0,9999,0,0,0,
2026-03-24 08:00:00,METAR RPVM 240800Z 03015KT CAVOK 30/21 Q1007 NOSIG RMK A2974,1,0,0,9999,0,0,0,
2026-03-24 07:00:00,METAR RPVM 240700Z 04015KT 9999 FEW020TCU 31/19 Q1007 NOSIG RMK A2974 TCU W,0,15,0,10000,0,0,0,
2026-03-24 06:00:00,METAR RPVM 240600Z 03016KT 9999 FEW120TCU 30/22 Q1008 NOSIG RMK A2977 TCU W,0,16,0,10000,0,0,0,
2026-03-24 05:00:00,METAR RPVM 240500Z 04016KT 9999 FEW065TCU 31/20 Q1008 NOSIG RMK A2977 TCU SW,0,16,0,10000,0,0,0,
2026-03-24 04:00:00,METAR RPVM 240400Z 04016KT CAVOK 30/21 Q1009 NOSIG RMK A2980,1,0,0,9999,0,0,0,
2026-03-24 03:00:00,METAR RPVM 240300Z 04015KT CAVOK 29/22 Q1010 NOSIG RMK A2983,1,0,0,9999,0,0,0,
2026-03-24 02:00:00,METAR RPVM 240200Z 04013KT CAVOK 30/20 Q1011 NOSIG RMK A2985 SMOKE NE,1,0,0,9999,0,0,0,
2026-03-24 01:00:00,METAR RPVM 240100Z 01012KT CAVOK 29/21 Q1011 NOSIG RMK A2985,1,0,0,9999,0,0,0,
2026-03-24 00:00:00,METAR RPVM 240000Z 01011KT CAVOK 28/21 Q1011 NOSIG RMK A2985,1,0,0,9999,0,0,0,
2026-03-23 23:00:00,METAR RPVM 232300Z 36006KT CAVOK 26/21 Q1011 NOSIG RMK A2985,1,0,0,9999,0,0,0,
2026-03-23 22:00:00,METAR RPVM 232200Z 01008KT CAVOK 25/21 Q1010 NOSIG RMK A2983,1,0,0,9999,0,0,0,
2026-03-23 21:00:00,METAR RPVM 232100Z 02008KT 9999 FEW017 25/21 Q1010 NOSIG RMK A2983,0,8,0,10000,0,0,0,
2026-03-23 20:00:00,METAR RPVM 232000Z 02005KT 9999 FEW017 BKN023 25/20 Q1009 NOSIG RMK A2980,0,5,0,10000,0,0,0,
2026-03-23 19:00:00,METAR RPVM 231900Z 34004KT 310V010 9999 SCT015 SCT017 BKN023 25/21 Q1009 NOSIG RMK A2980,0,4,0,10000,0,0,0,
2026-03-23 18:00:00,METAR RPVM 231800Z 34008KT 9999 FEW017 BKN023 25/21 Q1009 NOSIG RMK A2980,0,8,0,10000,0,0,0,
2026-03-23 17:00:00,METAR RPVM 231700Z 36008KT 9999 BKN022 25/22 Q1010 NOSIG RMK A2983,0,8,0,10000,0,0,0,
2026-03-23 16:00:00,METAR RPVM 231600Z 36009KT 9999 FEW015 BKN018 BKN021 25/23 Q1011 NOSIG RMK A2985,0,9,0,10000,0,0,0,
2026-03-23 15:00:00,METAR RPVM 231500Z 01013KT 8000 -RA FEW010 SCT013 BKN031 25/23 Q1011 NOSIG RMK A2985,0,13,0,8000,0,0,0,-RA
2026-03-23 14:00:00,METAR RPVM 231400Z 01009KT 9999 FEW015CB SCT029 27/22 Q1011 NOSIG RMK A2985 CB N-NE,0,9,0,10000,0,0,0,
2026-03-23 13:00:00,METAR RPVM 231300Z 36010KT 9999 FEW004CB SCT014 BKN023 27/22 Q1011 NOSIG RMK A2985 CB NE/W,0,10,0,10000,0,0,0,
2026-03-23 12:00:00,METAR RPVM 231200Z 36007KT 9999 FEW008 SCT019 BKN022 27/23 Q1011 NOSIG RMK A2985,0,7,0,10000,0,0,0,
2026-03-23 11:00:00,METAR RPVM 231100Z 34007KT 9999 FEW018 BKN020 28/23 Q1010 NOSIG RMK A2983,0,7,0,10000,0,0,0,
2026-03-23 10:00:00,METAR RPVM 231000Z 36010KT 9999 FEW015 BKN018 28/21 Q1010 NOSIG RMK A2983,0,10,0,10000,0,0,0,
2026-03-23 09:00:00,METAR RPVM 230900Z 03015KT 9999 FEW016CB SCT020 29/22 Q1009 NOSIG RMK A2980 CB NE/E/SW/NW,0,15,0,10000,0,0,0,
2026-03-23 08:00:00,METAR RPVM 230800Z 03014KT 9999 SCT017CB BKN019 BKN022 29/21 Q1009 NOSIG RMK A2980 CB SW/W/NW,0,14,0,10000,0,0,0,
2026-03-23 07:00:00,METAR RPVM 230700Z 04012KT 9999 SCT020 SCT024 31/20 Q1009 NOSIG RMK A2980,0,12,0,10000,0,0,0,
2026-03-23 06:00:00,METAR RPVM 230600Z 03013KT 9999 SCT026 BKN031 31/21 Q1009 NOSIG RMK A2980,0,13,0,10000,0,0,0,
2026-03-23 05:00:00,METAR RPVM 230500Z 03015KT 9999 FEW031 30/21 Q1010 NOSIG RMK A2983,0,15,0,10000,0,0,0,
2026-03-23 04:00:00,METAR RPVM 230400Z 03016KT 9999 SCT016 30/22 Q1011 NOSIG RMK A2985,0,16,0,10000,0,0,0,
2026-03-23 03:00:00,METAR RPVM 230300Z 03015KT 9999 BKN018 30/21 Q1012 NOSIG RMK A2988,0,15,0,10000,0,0,0,
2026-03-23 02:00:00,METAR RPVM 230200Z 03017KT 9999 FEW005 SCT020 29/23 Q1012 NOSIG RMK A2988,0,17,0,10000,0,0,0,
2026-03-23 01:00:00,METAR RPVM 230100Z 03012KT 9999 FEW007 29/22 Q1012 NOSIG RMK A2988,0,12,0,10000,0,0,0,
2026-03-23 00:00:00,METAR RPVM 230000Z 01009KT 9999 FEW005 28/23 Q1012 NOSIG RMK A2988,0,9,0,10000,0,0,0,
2026-03-22 23:00:00,METAR RPVM 222300Z 35007KT 9999 FEW007 26/22 Q1012 NOSIG RMK A2988,0,7,0,10000,0,0,0,
2026-03-22 22:00:00,METAR RPVM 222200Z 34006KT 9999 FEW005 SCT049 25/22 Q1011 NOSIG RMK A2985,0,6,0,10000,0,0,0,
2026-03-22 21:00:00,METAR RPVM 222100Z 34005KT 9999 FEW005 BKN011 BKN034 25/22 Q1011 NOSIG RMK A2985,0,5,0,10000,0,0,0,
2026-03-22 20:00:00,METAR RPVM 222000Z 36007KT CAVOK 25/22 Q1010 NOSIG RMK A2983,1,0,0,9999,0,0,0,
2026-03-22 19:00:00,METAR RPVM 221900Z 36007KT CAVOK 25/22 Q1010 NOSIG RMK A2983,1,0,0,9999,0,0,0,
2026-03-22 18:00:00,METAR RPVM 221800Z 04009KT CAVOK 26/22 Q1011 NOSIG RMK A2985,1,0,0,9999,0,0,0,
2026-03-22 17:00:00,METAR RPVM 221700Z 36006KT 9999 SCT025 26/23 Q1011 NOSIG RMK A2985,0,6,0,10000,0,0,0,
2026-03-22 16:00:00,METAR RPVM 221600Z 35005KT 9999 BKN022 26/23 Q1012 NOSIG RMK A2988,0,5,0,10000,0,0,0,
2026-03-22 15:00:00,METAR RPVM 221500Z 03006KT 330V060 9999 FEW006 SCT007 BKN026 27/22 Q1012 NOSIG RMK A2988,0,6,0,10000,0,0,0,
2026-03-22 14:00:00,METAR RPVM 221400Z 36006KT 9999 FEW009 SCT018 BKN021 26/22 Q1012 NOSIG RMK A2988,0,6,0,10000,0,0,0,
2026-03-22 13:17:00,SPECI RPVM 221317Z 05009KT 9000 -SHRA FEW008CB BKN011 BKN025 27/22 Q1012 NOSIG RMK A2988 CB OHD,0,9,0,9000,0,0,0,RA
2026-03-22 12:31:00,SPECI RPVM 221231Z 04007KT 6000 SHRA FEW009CB SCT010 BKN021 28/23 Q1012 NOSIG RMK A2988 CB NE,0,7,0,6000,0,0,0,"RA,SH"
2026-03-22 12:00:00,METAR RPVM 221200Z 01009KT 9999 SCT023 28/23 Q1012 NOSIG RMK A2988,0,9,0,10000,0,0,0,
2026-03-22 09:00:00,METAR RPVM 220900Z 03014KT 9999 FEW022 29/22 Q1010 NOSIG RMK A2983,0,14,0,10000,0,0,0,
2026-03-22 08:00:00,METAR RPVM 220800Z 03013KT 9999 FEW018CB 30/22 Q1009 NOSIG RMK A2980 CB SW-NW,0,13,0,10000,0,0,0,
2026-03-22 07:00:00,METAR RPVM 220700Z 03012KT CAVOK 30/22 Q1010 NOSIG RMK A2983,1,0,0,9999,0,0,0,
2026-03-22 06:00:00,METAR RPVM 220600Z 04010KT CAVOK 30/22 Q1010 NOSIG RMK A2983,1,0,0,9999,0,0,0,
2026-03-22 05:00:00,METAR RPVM 220500Z 04010KT 020V090 CAVOK 30/22 Q1011 NOSIG RMK A2985,1,0,0,9999,0,0,0,
2026-03-22 04:00:00,METAR RPVM 220400Z 05010KT 9999 FEW019 SCT021 29/23 Q1012 NOSIG RMK A2988,0,10,0,10000,0,0,0,
2026-03-22 03:00:00,METAR RPVM 220300Z 04012KT 360V060 9999 FEW017 BKN019 30/22 Q1012 NOSIG RMK A2988,0,12,0,10000,0,0,0,
2026-03-22 02:00:00,METAR RPVM 220200Z 02011KT 9999 FEW016 30/22 Q1013 NOSIG RMK A2991,0,11,0,10000,0,0,0,
2026-03-22 01:00:00,METAR RPVM 220100Z 02008KT 320V060 9999 FEW022 30/22 Q1013 NOSIG RMK A2991,0,8,0,10000,0,0,0,
2026-03-22 00:00:00,METAR RPVM 220000Z 36008KT 9999 SCT020 28/22 Q1012 NOSIG RMK A2988,0,8,0,10000,0,0,0,
2026-03-21 23:00:00,METAR RPVM 212300Z 35007KT 9999 FEW020 26/22 Q1012 NOSIG RMK A2988,0,7,0,10000,0,0,0,
2026-03-21 22:00:00,METAR RPVM 212200Z 35005KT CAVOK 24/22 Q1012 NOSIG RMK A2988,1,0,0,9999,0,0,0,
2026-03-21 21:00:00,METAR RPVM 212100Z 35006KT CAVOK 25/22 Q1011 NOSIG RMK A2985,1,0,0,9999,0,0,0,
2026-03-21 20:00:00,METAR RPVM 212000Z 35007KT 9999 FEW036 25/22 Q1011 NOSIG RMK A2985,0,7,0,10000,0,0,0,
2026-03-21 19:00:00,METAR RPVM 211900Z 35005KT CAVOK 25/23 Q1011 NOSIG RMK A2985,1,0,0,9999,0,0,0,
2026-03-21 18:00:00,METAR RPVM 211800Z 33006KT CAVOK 25/23 Q1011 NOSIG RMK A2985,1,0,0,9999,0,0,0,
2026-03-21 17:00:00,METAR RPVM 211700Z 34006KT 9999 FEW007 26/23 Q1011 NOSIG RMK A2985,0,6,0,10000,0,0,0,
2026-03-21 16:00:00,METAR RPVM 211600Z 06005KT 9999 BKN021 27/22 Q1012 NOSIG RMK A2988,0,5,0,10000,0,0,0,
2026-03-21 14:00:00,METAR RPVM 211400Z 05009KT 9999 FEW013 SCT019 28/22 Q1013 NOSIG RMK A2991,0,9,0,10000,0,0,0,
2026-03-21 13:00:00,METAR RPVM 211300Z 03009KT 9999 BKN019 27/24 Q1012 NOSIG RMK A2988,0,9,0,10000,0,0,0,
2026-03-21 12:00:00,METAR RPVM 211200Z 02011KT 9999 FEW010 SCT013 BKN019 28/23 Q1012 NOSIG RMK A2988,0,11,0,10000,0,0,0,
2026-03-21 11:00:00,METAR RPVM 211100Z 03013KT 9999 FEW011 BKN018 28/23 Q1011 NOSIG RMK A2985,0,13,0,10000,0,0,0,
2026-03-21 10:00:00,METAR RPVM 211000Z 03013KT 9999 SCT014 BKN047 28/23 Q1011 NOSIG RMK A2985,0,13,0,10000,0,0,0,
2026-03-21 09:00:00,METAR RPVM 210900Z 05010KT 9999 FEW046 30/21 Q1010 NOSIG RMK A2983,0,10,0,10000,0,0,0,
2026-03-21 08:00:00,METAR RPVM 210800Z 06011KT 9999 SCT036 SCT046 30/22 Q1010 NOSIG RMK A2983,0,11,0,10000,0,0,0,
2026-03-21 07:00:00,METAR RPVM 210700Z 05011KT 9999 SCT037 31/20 Q1010 NOSIG RMK A2983,0,11,0,10000,0,0,0,
2026-03-21 06:00:00,METAR RPVM 210600Z 04011KT 9999 FEW038CB 31/21 Q1011 NOSIG RMK A2985 CB NW,0,11,0,10000,0,0,0,
2026-03-21 05:00:00,METAR RPVM 210500Z 04012KT 9999 SCT037 31/21 Q1012 NOSIG RMK A2988,0,12,0,10000,0,0,0,
2026-03-21 04:00:00,METAR RPVM 210400Z 03012KT 9999 BKN036 30/20 Q1013 NOSIG RMK A2991,0,12,0,10000,0,0,0,
2026-03-21 03:00:00,METAR RPVM 210300Z 03013KT 9999 FEW036CB 31/21 Q1013 NOSIG RMK A2991 CB W,0,13,0,10000,0,0,0,
2026-03-21 02:00:00,METAR RPVM 210200Z 03013KT 9999 FEW034CB 30/21 Q1014 NOSIG RMK A2994 CB W,0,13,0,10000,0,0,0,
2026-03-21 01:00:00,METAR RPVM 210100Z 36009KT 9999 FEW005 BKN020 BKN032 28/23 Q1014 NOSIG RMK A2994,0,9,0,10000,0,0,0,
2026-03-21 00:00:00,METAR RPVM 210000Z 35007KT 9999 FEW006CB BKN026 BKN032 27/22 Q1014 NOSIG RMK A2994 CB SW,0,7,0,10000,0,0,0,
2026-03-20 23:00:00,METAR RPVM 202300Z VRB01KT 9999 FEW030CB SCT036 25/23 Q1013 NOSIG RMK A2991 CB E-SE,0,1,0,10000,0,0,0,
2026-03-20 22:00:00,METAR RPVM 202200Z VRB01KT 9999 FEW038CB 24/22 Q1012 NOSIG RMK A2988 CB E-SE,0,1,0,10000,0,0,0,
2026-03-20 21:00:00,METAR RPVM 202100Z 01003KT 9999 FEW029 24/22 Q1011 NOSIG RMK A2985,0,3,0,10000,0,0,0,
2026-03-20 20:00:00,METAR RPVM 202000Z 36003KT 9999 FEW005 SCT009 BKN025 25/22 Q1011 NOSIG RMK A2985,0,3,0,10000,0,0,0,
2026-03-20 19:00:00,METAR RPVM 201900Z 34004KT 9999 SCT004 SCT006 BKN013 25/23 Q1011 NOSIG RMK A2985,0,4,0,10000,0,0,0,
2026-03-20 18:00:00,METAR RPVM 201800Z 34004KT 9999 FEW029 SCT033 BKN037 25/23 Q1012 NOSIG RMK A2988,0,4,0,10000,0,0,0,
2026-03-20 17:00:00,METAR RPVM 201700Z 34004KT 310V010 9999 FEW015 SCT018 BKN030 25/23 Q1012 NOSIG RMK A2988,0,4,0,10000,0,0,0,
2026-03-20 15:00:00,METAR RPVM 201500Z 34005KT 9000 -RA FEW016 SCT019 BKN029 24/22 Q1013 NOSIG RMK A2991,0,5,0,9000,0,0,0,-RA
2026-03-20 14:20:00,SPECI RPVM 201420Z 35010KT 9999 FEW005 BKN022 BKN030 25/22 Q1013 NOSIG RMK A2991,0,10,0,10000,0,0,0,
2026-03-20 14:00:00,METAR RPVM 201400Z 35008KT 320V020 9999 -SHRA FEW004CB SCT007 BKN014 26/23 Q1013 NOSIG RMK A2991 CB OHD,0,8,0,10000,0,0,0,RA
2026-03-20 13:37:00,SPECI RPVM 201337Z 32003KT 260V030 9999 -SHRA FEW008CB SCT011 BKN030 26/23 Q1013 NOSIG RMK A2991 CB N/S,0,3,0,10000,0,0,0,RA
2026-03-20 12:00:00,METAR RPVM 201200Z 10009KT 060V130 9999 FEW008CB SCT029 BKN035 26/22 Q1012 NOSIG RMK A2988 CB SE-W,0,9,0,10000,0,0,0,
2026-03-20 11:00:00,METAR RPVM 201100Z 04009KT 9999 FEW008CB SCT012 BKN031 28/23 Q1011 NOSIG RMK A2985 CB E-SE,0,9,0,10000,0,0,0,
2026-03-20 10:00:00,METAR RPVM 201000Z 05008KT 9999 FEW011CB SCT016 BKN038 28/22 Q1011 NOSIG RMK A2985 CB E,0,8,0,10000,0,0,0,
2026-03-20 09:00:00,METAR RPVM 200900Z 05009KT 9999 FEW012CB SCT017 BKN039 29/23 Q1010 NOSIG RMK A2983 CB W,0,9,0,10000,0,0,0,
2026-03-20 08:00:00,METAR RPVM 200800Z 05009KT 9999 SCT030CB BKN040 30/21 Q1010 NOSIG RMK A2983 CB SE/NW,0,9,0,10000,0,0,0,
2026-03-20 07:00:00,METAR RPVM 200700Z 06010KT 9999 FEW021CB BKN033 30/22 Q1010 NOSIG RMK A2983 CB NW,0,10,0,10000,0,0,0,
2026-03-20 06:00:00,METAR RPVM 200600Z 04010KT 9999 SCT019 BKN023 30/22 Q1010 NOSIG RMK A2983,0,10,0,10000,0,0,0,
2026-03-20 05:00:00,METAR RPVM 200500Z 04011KT 9999 SCT017 BKN019 29/22 Q1011 NOSIG RMK A2985,0,11,0,10000,0,0,0,
2026-03-20 04:00:00,METAR RPVM 200400Z 04011KT 9999 SCT016 SCT019 BKN022 29/22 Q1012 NOSIG RMK A2988,0,11,0,10000,0,0,0,
2026-03-20 03:00:00,METAR RPVM 200300Z 04011KT 9999 SCT017 SCT021 BKN036 30/22 Q1012 NOSIG RMK A2988,0,11,0,10000,0,0,0,
2026-03-20 02:00:00,METAR RPVM 200200Z 04011KT 9999 FEW020 30/22 Q1013 NOSIG RMK A2991,0,11,0,10000,0,0,0,
2026-03-20 01:00:00,METAR RPVM 200100Z 02012KT 350V050 9999 FEW021 29/23 Q1013 NOSIG RMK A2991,0,12,0,10000,0,0,0,
2026-03-20 00:00:00,METAR RPVM 200000Z 01010KT 9999 SCT019 28/23 Q1013 NOSIG RMK A2991,0,10,0,10000,0,0,0,
2026-03-19 23:00:00,METAR RPVM 192300Z 01007KT 9999 FEW020 26/22 Q1012 NOSIG RMK A2988,0,7,0,10000,0,0,0,
2026-03-19 22:00:00,METAR RPVM 192200Z 35006KT 9999 FEW016 BKN020 25/22 Q1011 NOSIG RMK A2985,0,6,0,10000,0,0,0,
2026-03-19 21:00:00,METAR RPVM 192100Z 35005KT 9999 FEW006 BKN020 25/22 Q1011 NOSIG RMK A2985,0,5,0,10000,0,0,0,
2026-03-19 20:00:00,METAR RPVM 192000Z 34005KT 9999 FEW018 25/22 Q1011 NOSIG RMK A2985,0,5,0,10000,0,0,0,
2026-03-19 19:00:00,METAR RPVM 191900Z 36006KT 9999 FEW006 SCT008 BKN021 25/22 Q1011 NOSIG RMK A2985,0,6,0,10000,0,0,0,
2026-03-19 18:05:00,SPECI RPVM 191805Z 35008KT 9000 -SHRA FEW005 SCT006 BKN020 26/22 Q1011 NOSIG RMK A2985 CB OHD/NE,0,8,0,9000,0,0,0,RA
2026-03-19 18:00:00,METAR RPVM 191800Z 02010KT 350V060 9999 FEW005 SCT007CB BKN020 27/22 Q1011 NOSIG RMK A2985 CB NE,0,10,0,10000,0,0,0,
2026-03-19 17:00:00,METAR RPVM 191700Z 06005KT 9999 SCT010 BKN035 27/23 Q1011 NOSIG RMK A2985,0,5,0,10000,0,0,0,
2026-03-19 16:00:00,METAR RPVM 191600Z 36007KT 9999 FEW019 26/22 Q1012 NOSIG RMK A2988,0,7,0,10000,0,0,0,
2026-03-19 15:00:00,METAR RPVM 191500Z 35004KT 9999 FEW010 26/21 Q1012 NOSIG RMK A2988,0,4,0,10000,0,0,0,
2026-03-19 14:00:00,METAR RPVM 191400Z 36006KT CAVOK 26/21 Q1012 NOSIG RMK A2988,1,0,0,9999,0,0,0,
2026-03-19 13:00:00,METAR RPVM 191300Z 35003KT CAVOK 27/21 Q1012 NOSIG RMK A2988,1,0,0,9999,0,0,0,
2026-03-19 12:00:00,METAR RPVM 191200Z 36005KT CAVOK 27/21 Q1011 NOSIG RMK A2985,1,0,0,9999,0,0,0,
2026-03-19 11:00:00,METAR RPVM 191100Z 36007KT CAVOK 28/22 Q1010 NOSIG RMK A2983,1,0,0,9999,0,0,0,
2026-03-19 10:00:00,METAR RPVM 191000Z 04009KT CAVOK 29/22 Q1010 NOSIG RMK A2983,1,0,0,9999,0,0,0,
2026-03-19 09:00:00,METAR RPVM 190900Z 03011KT CAVOK 30/21 Q1009 NOSIG RMK A2980,1,0,0,9999,0,0,0,
2026-03-19 08:00:00,METAR RPVM 190800Z 04012KT CAVOK 30/22 Q1009 NOSIG RMK A2980,1,0,0,9999,0,0,0,
2026-03-19 07:00:00,METAR RPVM 190700Z 04013KT CAVOK 30/21 Q1009 NOSIG RMK A2980,1,0,0,9999,0,0,0,
2026-03-19 06:00:00,METAR RPVM 190600Z 04014KT CAVOK 30/22 Q1010 NOSIG RMK A2983,1,0,0,9999,0,0,0,
2026-03-19 05:00:00,METAR RPVM 190500Z 05013KT 9999 FEW045 30/21 Q1011 NOSIG RMK A2985,0,13,0,10000,0,0,0,
2026-03-19 04:00:00,METAR RPVM 190400Z 04012KT CAVOK 30/21 Q1012 NOSIG RMK A2988,1,0,0,9999,0,0,0,
2026-03-19 03:00:00,METAR RPVM 190300Z 04012KT CAVOK 30/23 Q1013 NOSIG RMK A2991,1,0,0,9999,0,0,0,
2026-03-19 02:00:00,METAR RPVM 190200Z 04013KT CAVOK 30/22 Q1013 NOSIG RMK A2991,1,0,0,9999,0,0,0,
2026-03-19 01:00:00,METAR RPVM 190100Z 04009KT 9999 FEW024 29/23 Q1013 NOSIG RMK A2991,0,9,0,10000,0,0,0,
2026-03-19 00:00:00,METAR RPVM 190000Z 01009KT CAVOK 28/22 Q1013 NOSIG RMK A2991,1,0,0,9999,0,0,0,
2026-03-18 23:00:00,METAR RPVM 182300Z 35007KT CAVOK 26/23 Q1012 NOSIG RMK A2988,1,0,0,9999,0,0,0,
2026-03-18 22:00:00,METAR RPVM 182200Z 36004KT CAVOK 24/23 Q1011 NOSIG RMK A2985,1,0,0,9999,0,0,0,
2026-03-18 21:00:00,METAR RPVM 182100Z VRB02KT CAVOK 24/23 Q1011 NOSIG RMK A2985,1,0,0,9999,0,0,0,
2026-03-18 20:00:00,METAR RPVM 182000Z 34002KT CAVOK 25/23 Q1011 RMK A2985,1,0,0,9999,0,0,0,
2026-03-18 19:00:00,METAR RPVM 181900Z VRB01KT CAVOK 25/23 Q1011 NOSIG RMK A2985,1,0,0,9999,0,0,0,
2026-03-18 18:00:00,METAR RPVM 181800Z VRB02KT CAVOK 25/22 Q1011 NOSIG RMK A2985,1,0,0,9999,0,0,0,
2026-03-18 17:00:00,METAR RPVM 181700Z VRB01KT 9999 FEW006CB SCT017 26/22 Q1012 NOSIG RMK A2988 CB NE,0,1,0,10000,0,0,0,
2026-03-18 16:00:00,METAR RPVM 181600Z VRB02KT 9999 FEW005 26/22 Q1013 NOSIG RMK A2991,0,2,0,10000,0,0,0,
2026-03-18 15:00:00,METAR RPVM 181500Z 36005KT 330V030 CAVOK 26/22 Q1013 NOSIG RMK A2991,1,0,0,9999,0,0,0,
2026-03-18 14:00:00,METAR RPVM 181400Z 36006KT CAVOK 27/22 Q1013 NOSIG RMK A2991,1,0,0,9999,0,0,0,
2026-03-18 13:00:00,METAR RPVM 181300Z 01008KT CAVOK 27/22 Q1012 NOSIG RMK A2988,1,0,0,9999,0,0,0,
2026-03-18 12:00:00,METAR RPVM 181200Z 01009KT CAVOK 28/22 Q1012 NOSIG RMK A2988,1,0,0,9999,0,0,0,
2026-03-18 11:00:00,METAR RPVM 181100Z 03010KT CAVOK 27/23 Q1011 NOSIG RMK A2985,1,0,0,9999,0,0,0,
2026-03-18 10:00:00,METAR RPVM 181000Z 03010KT CAVOK 28/23 Q1010 NOSIG RMK A2983,1,0,0,9999,0,0,0,
2026-03-18 09:00:00,METAR RPVM 180900Z 04010KT CAVOK 29/22 Q1010 NOSIG RMK A2983,1,0,0,9999,0,0,0,
2026-03-18 08:00:00,METAR RPVM 180800Z 03011KT CAVOK 30/23 Q1010 NOSIG RMK A2983,1,0,0,9999,0,0,0,
2026-03-18 07:00:00,METAR RPVM 180700Z 04012KT CAVOK 31/22 Q1010 NOSIG RMK A2983,1,0,0,9999,0,0,0,
2026-03-18 06:00:00,METAR RPVM 180600Z 03010KT CAVOK 30/21 Q1011 NOSIG RMK A2985,1,0,0,9999,0,0,0,
2026-03-18 05:00:00,METAR RPVM 180500Z 03010KT CAVOK 30/22 Q1012 NOSIG RMK A2988,1,0,0,9999,0,0,0,
2026-03-18 04:00:00,METAR RPVM 180400Z 02009KT 350V050 CAVOK 30/22 Q1013 NOSIG RMK A2991,1,0,0,9999,0,0,0,
2026-03-18 03:00:00,METAR RPVM 180300Z 03011KT 360V070 9999 FEW024 30/23 Q1014 NOSIG RMK A2994,0,11,0,10000,0,0,0,
2026-03-18 02:00:00,METAR RPVM 180200Z 04008KT 9999 FEW018 29/22 Q1014 NOSIG RMK A2994,0,8,0,10000,0,0,0,
2026-03-18 01:00:00,METAR RPVM 180100Z 04010KT 010V070 9999 FEW006 29/23 Q1013 NOSIG RMK A2991,0,10,0,10000,0,0,0,
2026-03-18 00:00:00,METAR RPVM 180000Z 36007KT 340V040 9999 FEW010 28/23 Q1013 NOSIG RMK A2991,0,7,0,10000,0,0,0,
2026-03-17 23:00:00,METAR RPVM 172300Z 35004KT 320V020 9999 FEW005 SCT009 BKN029 24/22 Q1013 NOSIG RMK A2991,0,4,0,10000,0,0,0,
2026-03-17 22:00:00,METAR RPVM 172200Z VRB02KT CAVOK 23/21 Q1012 NOSIG RMK A2988,1,0,0,9999,0,0,0,
2026-03-17 21:00:00,METAR RPVM 172100Z 33003KT CAVOK 24/21 Q1011 NOSIG RMK A2985,1,0,0,9999,0,0,0,
2026-03-17 20:00:00,METAR RPVM 172000Z 36002KT 9999 FEW035 25/21 Q1011 NOSIG RMK A2985,0,2,0,10000,0,0,0,
2026-03-17 19:00:00,METAR RPVM 171900Z 35003KT 9999 FEW006 SCT020 24/21 Q1011 NOSIG RMK A2985,0,3,0,10000,0,0,0,
2026-03-17 18:00:00,METAR RPVM 171800Z 02003KT 9999 FEW005 SCT011 BKN033 25/20 Q1011 NOSIG RMK A2985,0,3,0,10000,0,0,0,
2026-03-17 17:00:00,METAR RPVM 171700Z 36004KT 9999 FEW007 24/20 Q1011 NOSIG RMK A2985,0,4,0,10000,0,0,0,
2026-03-17 16:00:00,METAR RPVM 171600Z 35005KT CAVOK 25/20 Q1012 NOSIG RMK A2988,1,0,0,9999,0,0,0,
2026-03-17 15:00:00,METAR RPVM 171500Z 36005KT CAVOK 25/20 Q1012 NOSIG RMK A2988,1,0,0,9999,0,0,0,
2026-03-17 14:00:00,METAR RPVM 171400Z 35005KT CAVOK 25/20 Q1013 NOSIG RMK A2991,1,0,0,9999,0,0,0,
2026-03-17 13:00:00,METAR RPVM 171300Z 01008KT CAVOK 26/19 Q1012 NOSIG RMK A2988,1,0,0,9999,0,0,0,
2026-03-17 12:00:00,METAR RPVM 171200Z 36005KT CAVOK 27/18 Q1011 NOSIG RMK A2985,1,0,0,9999,0,0,0,
2026-03-17 11:00:00,METAR RPVM 171100Z 03006KT CAVOK 26/17 Q1011 NOSIG RMK A2985,1,0,0,9999,0,0,0,
2026-03-17 10:00:00,METAR RPVM 171000Z 04006KT CAVOK 28/17 Q1010 NOSIG RMK A2983,1,0,0,9999,0,0,0,
2026-03-17 09:00:00,METAR RPVM 170900Z 03008KT CAVOK 29/20 Q1010 NOSIG RMK A2983,1,0,0,9999,0,0,0,
2026-03-17 08:00:00,METAR RPVM 170800Z 03010KT CAVOK 30/17 Q1009 NOSIG RMK A2980,1,0,0,9999,0,0,0,
2026-03-17 07:00:00,METAR RPVM 170700Z 03011KT CAVOK 30/18 Q1010 NOSIG RMK A2983,1,0,0,9999,0,0,0,
2026-03-17 06:00:00,METAR RPVM 170600Z 04010KT CAVOK 30/18 Q1011 NOSIG RMK A2985,1,0,0,9999,0,0,0,
2026-03-17 05:00:00,METAR RPVM 170500Z 07008KT 040V110 CAVOK 30/19 Q1012 NOSIG RMK A2988,1,0,0,9999,0,0,0,
2026-03-17 04:00:00,METAR RPVM 170400Z 05009KT 020V080 CAVOK 29/20 Q1012 NOSIG RMK A2988,1,0,0,9999,0,0,0,
2026-03-17 03:00:00,METAR RPVM 170300Z 04010KT CAVOK 29/21 Q1013 NOSIG RMK A2991,1,0,0,9999,0,0,0,
2026-03-17 02:00:00,METAR RPVM 170200Z 04008KT 010V070 CAVOK 28/21 Q1013 NOSIG RMK A2991,1,0,0,9999,0,0,0,
2026-03-17 01:00:00,METAR RPVM 170100Z 03007KT 350V060 CAVOK 28/21 Q1013 NOSIG RMK A2991,1,0,0,9999,0,0,0,
2026-03-17 00:00:00,METAR RPVM 170000Z 04004KT CAVOK 28/21 Q1013 NOSIG RMK A2991,1,0,0,9999,0,0,0,
2026-03-16 23:00:00,METAR RPVM 162300Z 33003KT 300V360 CAVOK 26/21 Q1013 NOSIG RMK A2991,1,0,0,9999,0,0,0,
2026-03-16 22:00:00,METAR RPVM 162200Z 33004KT CAVOK 23/20 Q1012 NOSIG RMK A2988,1,0,0,9999,0,0,0,
2026-03-16 21:00:00,METAR RPVM 162100Z 34003KT 9999 SCT009 23/20 Q1011 NOSIG RMK A2985,0,3,0,10000,0,0,0,
2026-03-16 20:00:00,METAR RPVM 162000Z VRB02KT 9999 SCT008 BKN031 23/20 Q1011 NOSIG RMK A2985,0,2,0,10000,0,0,0,
2026-03-16 19:00:00,METAR RPVM 161900Z VRB02KT CAVOK 23/20 Q1011 NOSIG RMK A2985,1,0,0,9999,0,0,0,
2026-03-16 18:00:00,METAR RPVM 161800Z 35004KT 9999 FEW009 24/20 Q1011 NOSIG RMK A2985,0,4,0,10000,0,0,0,
2026-03-16 17:00:00,METAR RPVM 161700Z 34005KT CAVOK 24/19 Q1012 NOSIG RMK A2988,1,0,0,9999,0,0,0,
2026-03-16 16:00:00,METAR RPVM 161600Z 34004KT CAVOK 23/19 Q1012 NOSIG RMK A2988,1,0,0,9999,0,0,0,
2026-03-16 15:00:00,METAR RPVM 161500Z 02004KT 350V060 CAVOK 24/19 Q1013 NOSIG RMK A2991,1,0,0,9999,0,0,0,
2026-03-16 14:00:00,METAR RPVM 161400Z 03006KT CAVOK 24/18 Q1013 NOSIG RMK A2991,1,0,0,9999,0,0,0,
2026-03-16 13:00:00,METAR RPVM 161300Z 36006KT CAVOK 25/18 Q1012 NOSIG RMK A2988,1,0,0,9999,0,0,0,
2026-03-16 12:00:00,METAR RPVM 161200Z 35006KT 9999 NSC 25/18 Q1012 NOSIG RMK A2988,0,6,0,10000,0,0,0,
2026-03-16 11:00:00,METAR RPVM 161100Z 36007KT CAVOK 26/17 Q1011 NOSIG RMK A2985,1,0,0,9999,0,0,0,
2026-03-16 10:00:00,METAR RPVM 161000Z COR 03006KT CAVOK 27/17 Q1011 NOSIG RMK A2985,1,0,0,9999,0,0,0,
2026-03-16 09:00:00,METAR RPVM 160900Z 03009KT 9999 FEW021 28/16 Q1010 NOSIG RMK A2983,0,9,0,10000,0,0,0,
2026-03-16 08:00:00,METAR RPVM 160800Z 04011KT 9999 FEW020 29/18 Q1010 NOSIG RMK A2983,0,11,0,10000,0,0,0,
2026-03-16 07:00:00,METAR RPVM 160700Z 04011KT CAVOK 29/18 Q1010 NOSIG RMK A2983,1,0,0,9999,0,0,0,
2026-03-16 06:00:00,METAR RPVM 160600Z 04013KT CAVOK 29/18 Q1011 NOSIG RMK A2985,1,0,0,9999,0,0,0,
2026-03-16 05:00:00,METAR RPVM 160500Z 05013KT CAVOK 29/18 Q1012 NOSIG RMK A2988,1,0,0,9999,0,0,0,
2026-03-16 04:00:00,METAR RPVM 160400Z 04013KT CAVOK 28/18 Q1012 NOSIG RMK A2988,1,0,0,9999,0,0,0,
2026-03-16 03:00:00,METAR RPVM 160300Z 03012KT CAVOK 28/18 Q1013 NOSIG RMK A2991,1,0,0,9999,0,0,0,
2026-03-16 02:00:00,METAR RPVM 160200Z 03010KT 360V060 CAVOK 28/18 Q1014 NOSIG RMK A2994,1,0,0,9999,0,0,0,
2026-03-16 01:00:00,METAR RPVM 160100Z 03012KT CAVOK 27/19 Q1014 NOSIG RMK A2994,1,0,0,9999,0,0,0,
2026-03-16 00:00:00,METAR RPVM 160000Z 01010KT CAVOK 26/20 Q1013 NOSIG RMK A2991,1,0,0,9999,0,0,0,
2026-03-15 23:00:00,METAR RPVM 152300Z 35007KT CAVOK 24/19 Q1012 NOSIG RMK A2988,1,0,0,9999,0,0,0,
2026-03-15 22:00:00,METAR RPVM 152200Z 35007KT CAVOK 22/19 Q1012 NOSIG RMK A2988,1,0,0,9999,0,0,0,
2026-03-15 21:00:00,METAR RPVM 152100Z 35007KT CAVOK 23/19 Q1011 NOSIG RMK A2985,1,0,0,9999,0,0,0,
2026-03-15 20:00:00,METAR RPVM 152000Z 35007KT CAVOK 23/19 Q1011 NOSIG RMK A2985,1,0,0,9999,0,0,0,
2026-03-15 19:00:00,METAR RPVM 151900Z 35008KT CAVOK 23/19 Q1011 NOSIG RMK A2985,1,0,0,9999,0,0,0,
2026-03-15 18:00:00,METAR RPVM 151800Z 35007KT CAVOK 24/19 Q1012 NOSIG RMK A2988,1,0,0,9999,0,0,0,
2026-03-15 17:00:00,METAR RPVM 151700Z 35007KT CAVOK 24/19 Q1013 NOSIG RMK A2991,1,0,0,9999,0,0,0,
2026-03-15 16:00:00,METAR RPVM 151600Z 01009KT 9999 FEW023 25/19 Q1013 NOSIG RMK A2991,0,9,0,10000,0,0,0,
2026-03-15 15:00:00,METAR RPVM 151500Z 04010KT 9999 FEW015 SCT022 26/20 Q1014 NOSIG RMK A2994,0,10,0,10000,0,0,0,
2026-03-15 14:00:00,METAR RPVM 151400Z 34006KT CAVOK 24/19 Q1014 NOSIG RMK A2994,1,0,0,9999,0,0,0,
2026-03-15 13:00:00,METAR RPVM 151300Z 34006KT CAVOK 25/19 Q1014 NOSIG RMK A2994,1,0,0,9999,0,0,0,
2026-03-15 12:00:00,METAR RPVM 151200Z 33007KT CAVOK 25/19 Q1013 NOSIG RMK A2991,1,0,0,9999,0,0,0,
2026-03-15 11:00:00,METAR RPVM 151100Z 01008KT CAVOK 26/17 Q1013 NOSIG RMK A2991,1,0,0,9999,0,0,0,
2026-03-15 10:00:00,METAR RPVM 151000Z 03011KT CAVOK 27/17 Q1012 NOSIG RMK A2988,1,0,0,9999,0,0,0,
2026-03-15 09:00:00,METAR RPVM 150900Z 03011KT CAVOK 28/17 Q1012 NOSIG RMK A2988,1,0,0,9999,0,0,0,
2026-03-15 08:00:00,METAR RPVM 150800Z 03012KT CAVOK 29/17 Q1011 NOSIG RMK A2985,1,0,0,9999,0,0,0,
