Time_recorded,METAR,is_cavok,wind_speed,is_gust,visibility_meters,has_thunderstorm,has_heavy_rain,has_low_vis_fog,other_phenomenon
2026-05-02 14:51:00,METAR KBED 021451Z 13003KT 10SM FEW065 OVC075 10/06 A2987 RMK RNAV RY29 APCH IN USE,0,3.0,0,16090,0,0,0,
2026-05-02 13:51:00,METAR KBED 021351Z VRB03KT 10SM SCT050 OVC065 09/06 A2988,0,3.0,0,16090,0,0,0,
2026-05-02 11:51:00,METAR KBED 021151Z 32006KT 7SM -RA BKN048 BKN060 OVC080 08/07 A2988,0,6.0,0,11263,0,0,0,-RA
2026-05-02 10:52:00,METAR KBED 021052Z 00000KT 10SM BKN065 OVC080 08/06 A2986,0,0.0,0,16090,0,0,0,
2026-05-02 01:51:00,METAR KBED 020151Z 00000KT 10SM BKN100 08/01 A2986,0,0.0,0,16090,0,0,0,
2026-05-01 23:51:00,METAR KBED 012351Z 30003KT 10SM CLR 14/M02 A2982,0,3.0,0,16090,0,0,0,
2026-05-01 22:51:00,METAR KBED 012251Z 31010KT 10SM FEW080 16/M03 A2980,0,10.0,0,16090,0,0,0,
2026-05-01 21:51:00,METAR KBED 012151Z 33008G13KT 10SM FEW080 17/M03 A2978,0,8.0,1,16090,0,0,0,
2026-05-01 20:51:00,METAR KBED 012051Z 34009G19KT 10SM FEW080 17/M02 A2977,0,9.0,1,16090,0,0,0,
2026-05-01 19:51:00,METAR KBED 011951Z 32009G19KT 10SM SCT080 16/M01 A2977,0,9.0,1,16090,0,0,0,
2026-05-01 18:51:00,METAR KBED 011851Z 33009G19KT 10SM SCT075 15/M02 A2979,0,9.0,1,16090,0,0,0,
2026-05-01 17:51:00,METAR KBED 011751Z 32010G17KT 10SM SCT065 16/00 A2979,0,10.0,1,16090,0,0,0,
2026-05-01 15:51:00,METAR KBED 011551Z 32015G19KT 10SM SCT050 13/00 A2982,0,15.0,1,16090,0,0,0,
2026-05-01 11:51:00,METAR KBED 011151Z 30011G19KT 10SM CLR 09/02 A2982 RMK AO2 SLP110 70012 T00890022 10100 20061 51012,0,11.0,1,16090,0,0,0,
2026-05-01 10:51:00,METAR KBED 011051Z VRB04KT 10SM CLR 08/03 A2981 RMK AO2 SLP106 T00780028,0,4.0,0,16090,0,0,0,
2026-05-01 09:51:00,METAR KBED 010951Z AUTO 30007KT 10SM FEW050 06/02 A2979 RMK AO2 SLP102 T00610022,0,7.0,0,16090,0,0,0,
2026-05-01 08:51:00,METAR KBED 010851Z AUTO 28005KT 10SM OVC048 08/03 A2978 RMK AO2 SLP098 T00780033 53011,0,5.0,0,16090,0,0,0,
2026-05-01 07:51:00,METAR KBED 010751Z AUTO 31008KT 10SM OVC049 08/03 A2976 RMK AO2 SLP092 T00780033,0,8.0,0,16090,0,0,0,
2026-05-01 06:51:00,METAR KBED 010651Z AUTO 33011G20KT 10SM OVC047 09/04 A2976 RMK AO2 SLP090 T00890039,0,11.0,1,16090,0,0,0,
2026-05-01 05:51:00,METAR KBED 010551Z AUTO 35009KT 10SM BKN043 OVC049 10/06 A2975 RMK AO2 SLP087 T01000061 10111 20094 51010,0,9.0,0,16090,0,0,0,
2026-05-01 04:51:00,METAR KBED 010451Z AUTO 31007KT 10SM FEW017 BKN031 OVC039 11/08 A2974 RMK AO2 SLP083 T01060078 401220072,0,7.0,0,16090,0,0,0,
2026-05-01 04:46:00,SPECI KBED 010446Z AUTO 32006KT 10SM FEW017 BKN029 OVC039 11/08 A2974 RMK AO2,0,6.0,0,16090,0,0,0,
2026-05-01 03:51:00,METAR KBED 010351Z AUTO 31008KT 10SM FEW021 OVC038 11/08 A2972 RMK AO2 SLP077 T01110078,0,8.0,0,16090,0,0,0,
2026-05-01 02:51:00,METAR KBED 010251Z AUTO 00000KT 10SM OVC055 09/09 A2972 RMK AO2 SLP076 T00940089 50003,0,0.0,0,16090,0,0,0,
2026-05-01 01:51:00,METAR KBED 010151Z 00000KT 10SM FEW036 OVC055 10/09 A2973 RMK AO2 SLP079 T01000094,0,0.0,0,16090,0,0,0,
2026-05-01 00:51:00,METAR KBED 010051Z 30003KT 10SM FEW029 SCT037 BKN050 11/09 A2972 RMK AO2 SLP076 T01060094,0,3.0,0,16090,0,0,0,
2026-05-01 00:44:00,SPECI KBED 010044Z 30003KT 10SM FEW021 BKN037 OVC050 11/09 A2972 RMK AO2 T01060089,0,3.0,0,16090,0,0,0,
2026-04-30 23:51:00,METAR KBED 302351Z 00000KT 10SM BKN027 OVC033 11/09 A2971 RMK AO2 SLP073 60000 T01110089 10122 20100 53008,0,0.0,0,16090,0,0,0,
2026-04-30 22:51:00,METAR KBED 302251Z 00000KT 10SM BKN025 OVC038 12/09 A2970 RMK AO2 SLP069 T01170089,0,0.0,0,16090,0,0,0,
2026-04-30 21:51:00,METAR KBED 302151Z 30005KT 10SM BKN025 OVC038 12/08 A2969 RMK AO2 SLP066 T01220083,0,5.0,0,16090,0,0,0,
2026-04-30 20:51:00,METAR KBED 302051Z 31004KT 10SM BKN021 OVC038 12/09 A2968 RMK AO2 SLP065 60000 T01220089 56009,0,4.0,0,16090,0,0,0,
2026-04-30 20:10:00,SPECI KBED 302010Z 32005KT 10SM SCT015 OVC023 12/09 A2969 RMK AO2 T01170089,0,5.0,0,16090,0,0,0,
2026-04-30 19:51:00,METAR KBED 301951Z 32003KT 10SM OVC009 12/09 A2969 RMK AO2 SLP067 T01170089,0,3.0,0,16090,0,0,0,
2026-04-30 18:51:00,METAR KBED 301851Z 00000KT 10SM BKN009 11/08 A2970 RMK AO2 RAE1756 SLP069 P0000 T01060083,0,0.0,0,16090,0,0,0,RA
2026-04-30 17:51:00,METAR KBED 301751Z 00000KT 10SM -RA BKN005 OVC010 11/09 A2971 RMK AO2 RAB31 SLP074 P0000 60012 T01060089 10106 20078 58011,0,0.0,0,16090,0,0,0,-RA
2026-04-30 17:12:00,SPECI KBED 301712Z 00000KT 10SM BKN005 OVC010 09/08 A2973 RMK AO2 T00940083,0,0.0,0,16090,0,0,0,
2026-04-30 16:58:00,SPECI KBED 301658Z 00000KT 5SM BR OVC011 09/08 A2973 RMK AO2 T00940083,0,0.0,0,8045,0,0,1,BR
2026-04-30 16:51:00,METAR KBED 301651Z 00000KT 3SM BR BKN005 OVC011 09/08 A2973 RMK AO2 RAE50 SLP081 P0003 T00940083,0,0.0,0,4827,0,0,1,BR
2026-04-30 15:51:00,METAR KBED 301551Z 00000KT 3SM -RA BR BKN005 BKN011 OVC021 09/08 A2973 RMK AO2 SLP081 P0005 T00890078,0,0.0,0,4827,0,0,1,"-RA,BR"
2026-04-30 14:51:00,METAR KBED 301451Z 00000KT 5SM -RA BR BKN005 OVC011 09/08 A2974 RMK AO2 SLP085 P0001 60004 T00890078 57008,0,0.0,0,8045,0,0,1,"-RA,BR"
2026-04-30 13:51:00,METAR KBED 301351Z 00000KT 2SM -RA BR BKN008 BKN036 OVC050 08/07 A2975 RMK AO2 RAB04 SLP089 P0003 T00830072,0,0.0,0,3218,0,0,1,"-RA,BR"
2026-04-30 13:16:00,SPECI KBED 301316Z 11003KT 1 1/2SM R11/6000VP6000FT -RA BR BKN006 OVC012 08/07 A2976 RMK AO2 RAB04 P0000 T00830072,0,3.0,0,2414,0,0,1,"-RA,BR"
2026-04-30 12:51:00,METAR KBED 301251Z 07003KT 5SM BR OVC005 08/07 A2976 RMK AO2 RAB23E37 SLP091 P0000 T00830072,0,3.0,0,8045,0,0,1,"BR,RA"
2026-04-30 11:51:00,METAR KBED 301151Z 03004KT 10SM BKN006 OVC011 08/07 A2977 RMK AO2 SLP094 60004 70004 T00780067 10078 20072 53001,0,4.0,0,16090,0,0,0,
2026-04-30 10:51:00,METAR KBED 301051Z 35004KT 10SM BKN006 OVC075 08/07 A2975 RMK AO2 RAE31 SLP088 P0001 T00780067,0,4.0,0,16090,0,0,0,
2026-04-30 10:38:00,SPECI KBED 301038Z AUTO 01005KT 10SM BKN006 OVC080 07/07 A2975 RMK AO2 RAE31 CIG 004V009 P0001 T00720067,0,5.0,0,16090,0,0,0,
2026-04-30 09:58:00,SPECI KBED 300958Z AUTO 32004KT 10SM -RA FEW009 BKN075 OVC095 07/07 A2976 RMK AO2 P0001 T00720067,0,4.0,0,16090,0,0,0,-RA
2026-04-30 09:51:00,METAR KBED 300951Z AUTO 32004KT 10SM -RA BKN007 OVC075 07/07 A2976 RMK AO2 CIG 004V010 SLP092 P0002 T00720067,0,4.0,0,16090,0,0,0,-RA
2026-04-30 09:27:00,SPECI KBED 300927Z AUTO 00000KT 10SM -RA BKN007 OVC070 07/07 A2976 RMK AO2 P0002 T00720067,0,0.0,0,16090,0,0,0,-RA
2026-04-30 09:12:00,SPECI KBED 300912Z AUTO 36003KT 9SM -RA SCT005 BKN033 OVC080 07/07 A2976 RMK AO2 P0001 T00720067,0,3.0,0,14481,0,0,0,-RA
2026-04-30 08:51:00,METAR KBED 300851Z AUTO 04003KT 10SM -RA BKN004 OVC065 07/07 A2976 RMK AO2 RAB14 SLP092 P0001 60001 T00720067 58016,0,3.0,0,16090,0,0,0,-RA
2026-04-30 08:22:00,SPECI KBED 300822Z AUTO 02003KT 4SM -RA BR BKN004 OVC008 07/07 A2978 RMK AO2 RAB14 P0000 T00720067,0,3.0,0,6436,0,0,1,"-RA,BR"
2026-04-30 08:08:00,SPECI KBED 300808Z AUTO 00000KT 10SM BKN007 OVC016 07/07 A2978 RMK AO2 T00720067,0,0.0,0,16090,0,0,0,
2026-04-30 07:51:00,METAR KBED 300751Z AUTO 00000KT 10SM FEW005 OVC015 07/07 A2980 RMK AO2 SLP104 T00720067,0,0.0,0,16090,0,0,0,
2026-04-30 07:48:00,SPECI KBED 300748Z AUTO 00000KT 10SM FEW005 BKN015 OVC020 07/07 A2980 RMK AO2,0,0.0,0,16090,0,0,0,
2026-04-30 07:41:00,SPECI KBED 300741Z AUTO 00000KT 10SM SCT005 BKN014 OVC019 07/07 A2980 RMK AO2 T00720067,0,0.0,0,16090,0,0,0,
2026-04-30 07:31:00,SPECI KBED 300731Z AUTO 00000KT 10SM SCT006 OVC019 07/07 A2980 RMK AO2 T00720067,0,0.0,0,16090,0,0,0,
2026-04-30 07:13:00,SPECI KBED 300713Z AUTO 34003KT 5SM BR BKN006 OVC016 07/07 A2980 RMK AO2 T00720067,0,3.0,0,8045,0,0,1,BR
2026-04-30 06:51:00,METAR KBED 300651Z AUTO 30003KT 4SM BR SCT007 BKN011 OVC016 07/07 A2981 RMK AO2 SLP108 T00720067,0,3.0,0,6436,0,0,1,BR
2026-04-30 05:58:00,SPECI KBED 300558Z AUTO 36003KT 5SM BR SCT005 BKN009 OVC021 07/07 A2981 RMK AO2 T00720067,0,3.0,0,8045,0,0,1,BR
2026-04-30 05:51:00,METAR KBED 300551Z AUTO 02004KT 5SM BR FEW005 SCT009 OVC019 07/07 A2982 RMK AO2 SLP110 T00720067 10083 20072 58020,0,4.0,0,8045,0,0,1,BR
2026-04-30 05:36:00,SPECI KBED 300536Z AUTO 36005KT 3SM BR SCT005 OVC015 07/07 A2982 RMK AO2 T00720067,0,5.0,0,4827,0,0,1,BR
2026-04-30 05:25:00,SPECI KBED 300525Z AUTO 35003KT 3SM BR BKN004 OVC011 07/07 A2983 RMK AO2 T00720067,0,3.0,0,4827,0,0,1,BR
2026-04-30 05:08:00,SPECI KBED 300508Z AUTO 36003KT 2 1/2SM BR BKN004 OVC010 07/07 A2983 RMK AO2 T00720067,0,3.0,0,4022,0,0,1,BR
2026-04-30 04:55:00,SPECI KBED 300455Z AUTO 34003KT 1 3/4SM BR OVC004 07/07 A2984 RMK AO2 T00720067,0,3.0,0,2816,0,0,1,BR
2026-04-30 04:51:00,METAR KBED 300451Z AUTO 33003KT 2SM BR OVC005 07/07 A2984 RMK AO2 SLP117 T00720067 401500072,0,3.0,0,3218,0,0,1,BR
2026-04-30 03:51:00,METAR KBED 300351Z AUTO 00000KT 4SM BR BKN006 OVC010 07/07 A2986 RMK AO2 SLP124 T00720067,0,0.0,0,6436,0,0,1,BR
2026-04-30 03:29:00,SPECI KBED 300329Z AUTO 02005KT 3SM BR OVC007 07/07 A2986 RMK AO2 T00720067,0,5.0,0,4827,0,0,1,BR
2026-04-30 03:08:00,SPECI KBED 300308Z AUTO 04005KT 2 1/2SM BR OVC006 07/06 A2987 RMK AO2 CIG 005V009 T00720061,0,5.0,0,4022,0,0,1,BR
2026-04-30 02:51:00,METAR KBED 300251Z AUTO 06006KT 7SM OVC007 07/06 A2987 RMK AO2 SLP130 T00720061 58011,0,6.0,0,11263,0,0,0,
2026-04-30 01:51:00,METAR KBED 300151Z 04006KT 10SM OVC008 07/06 A2989 RMK AO2 SLP137 T00720056,0,6.0,0,16090,0,0,0,
2026-04-30 00:51:00,METAR KBED 300051Z 06007KT 10SM OVC008 08/06 A2991 RMK AO2 CIG 008V011 SLP142 T00780061,0,7.0,0,16090,0,0,0,
2026-04-29 23:51:00,METAR KBED 292351Z 06009KT 10SM OVC012 08/06 A2991 RMK AO2 SLP140 T00780056 10150 20078 58002,0,9.0,0,16090,0,0,0,
2026-04-29 22:51:00,METAR KBED 292251Z 07007KT 10SM OVC017 09/06 A2992 RMK AO2 SLP144 T00890056,0,7.0,0,16090,0,0,0,
2026-04-29 22:30:00,SPECI KBED 292230Z 08009KT 10SM BKN018 10/06 A2991 RMK AO2 T01000056,0,9.0,0,16090,0,0,0,
2026-04-29 21:51:00,METAR KBED 292151Z 08009KT 10SM FEW028 11/06 A2992 RMK AO2 SLP144 T01060061,0,9.0,0,16090,0,0,0,
2026-04-29 20:51:00,METAR KBED 292051Z 09010KT 10SM CLR 12/06 A2991 RMK AO2 SLP143 T01220061 56019,0,10.0,0,16090,0,0,0,
2026-04-29 19:51:00,METAR KBED 291951Z 07010G18KT 10SM FEW028 14/07 A2993 RMK AO2 SLP147 T01390067,0,10.0,1,16090,0,0,0,
2026-04-29 18:58:00,SPECI KBED 291858Z 11007KT 10SM CLR 14/07 A2995 RMK AO2 T01440067,0,7.0,0,16090,0,0,0,
2026-04-29 18:51:00,METAR KBED 291851Z 04004KT 10SM BKN027 14/07 A2995 RMK AO2 SLP156 T01440067,0,4.0,0,16090,0,0,0,
2026-04-29 18:10:00,SPECI KBED 291810Z 06004KT 10SM BKN027 14/07 A2996 RMK AO2 T01390067,0,4.0,0,16090,0,0,0,
2026-04-29 18:03:00,SPECI KBED 291803Z 07006KT 10SM SCT027 14/07 A2996 RMK AO2 T01440072,0,6.0,0,16090,0,0,0,
2026-04-29 17:51:00,METAR KBED 291751Z 10007KT 070V140 10SM BKN027 14/07 A2997 RMK AO2 SLP162 T01390067 10139 20083 58005,0,7.0,0,16090,0,0,0,
2026-04-29 17:38:00,SPECI KBED 291738Z 06007KT 040V110 10SM BKN026 14/07 A2997 RMK AO2 T01390072,0,7.0,0,16090,0,0,0,
2026-04-29 17:29:00,SPECI KBED 291729Z 11007KT 10SM SCT026 13/07 A2998 RMK AO2 T01330067,0,7.0,0,16090,0,0,0,
2026-04-29 16:51:00,METAR KBED 291651Z 14004KT 10SM BKN022 13/06 A2998 RMK AO2 SLP167 T01280061,0,4.0,0,16090,0,0,0,
2026-04-29 15:51:00,METAR KBED 291551Z 10009G17KT 10SM BKN018 12/06 A2999 RMK AO2 SLP167 T01170061,0,9.0,1,16090,0,0,0,
2026-04-29 14:51:00,METAR KBED 291451Z 05009KT 10SM OVC015 09/06 A3003 RMK AO2 SLP183 T00940056 58013,0,9.0,0,16090,0,0,0,
2026-04-29 13:51:00,METAR KBED 291351Z 06007KT 10SM OVC012 09/06 A3005 RMK AO2 SLP191 T00890056,0,7.0,0,16090,0,0,0,
2026-04-29 13:29:00,SPECI KBED 291329Z 05007KT 10SM OVC010 09/06 A3005 RMK AO2 T00890056,0,7.0,0,16090,0,0,0,
2026-04-29 13:09:00,SPECI KBED 291309Z 06009KT 10SM OVC009 09/06 A3006 RMK AO2 T00890056,0,9.0,0,16090,0,0,0,
2026-04-29 12:51:00,METAR KBED 291251Z 05006KT 10SM OVC015 09/06 A3006 RMK AO2 SLP193 T00890056,0,6.0,0,16090,0,0,0,
2026-04-29 11:51:00,METAR KBED 291151Z 36004KT 10SM OVC012 08/04 A3007 RMK AO2 SLP195 T00830044 10083 20072 53005,0,4.0,0,16090,0,0,0,
2026-04-29 11:38:00,SPECI KBED 291138Z 02005KT 10SM OVC014 08/04 A3006 RMK AO2 T00830044,0,5.0,0,16090,0,0,0,
2026-04-29 10:51:00,METAR KBED 291051Z 02005KT 10SM OVC015 08/04 A3005 RMK AO2 SLP189 T00780044,0,5.0,0,16090,0,0,0,
2026-04-29 10:12:00,SPECI KBED 291012Z AUTO 36004KT 10SM OVC014 07/04 A3005 RMK AO2 T00720039,0,4.0,0,16090,0,0,0,
2026-04-29 09:51:00,METAR KBED 290951Z AUTO 33003KT 10SM OVC015 07/03 A3005 RMK AO2 PRESRR SLP190 T00720033,0,3.0,0,16090,0,0,0,
2026-04-29 08:59:00,SPECI KBED 290859Z AUTO 02004KT 10SM OVC015 07/03 A3004 RMK AO2 T00720033,0,4.0,0,16090,0,0,0,
2026-04-29 08:51:00,METAR KBED 290851Z AUTO 03005KT 10SM OVC014 07/03 A3004 RMK AO2 SLP186 T00720028 58020,0,5.0,0,16090,0,0,0,
2026-04-29 08:26:00,SPECI KBED 290826Z AUTO 01009KT 10SM OVC014 07/03 A3005 RMK AO2 T00720028,0,9.0,0,16090,0,0,0,
2026-04-29 07:51:00,METAR KBED 290751Z AUTO 01006KT 10SM OVC016 08/02 A3005 RMK AO2 SLP189 T00780022,0,6.0,0,16090,0,0,0,
2026-04-29 06:51:00,METAR KBED 290651Z AUTO 33004KT 10SM OVC017 07/02 A3009 RMK AO2 SLP202 T00720022,0,4.0,0,16090,0,0,0,
2026-04-29 05:51:00,METAR KBED 290551Z AUTO 30005KT 10SM OVC017 07/02 A3010 RMK AO2 SLP205 T00720022 10094 20061 55002,0,5.0,0,16090,0,0,0,
2026-04-29 04:51:00,METAR KBED 290451Z AUTO 36004KT 10SM OVC016 07/02 A3008 RMK AO2 SLP199 T00720022 401670011,0,4.0,0,16090,0,0,0,
2026-04-29 03:51:00,METAR KBED 290351Z AUTO 36005KT 10SM OVC017 07/02 A3010 RMK AO2 SLP206 T00670022,0,5.0,0,16090,0,0,0,
2026-04-29 02:58:00,SPECI KBED 290258Z AUTO 03004KT 10SM OVC015 07/02 A3010 RMK AO2 T00670022,0,4.0,0,16090,0,0,0,
2026-04-29 02:51:00,METAR KBED 290251Z 02004KT 10SM FEW015 07/02 A3010 RMK AO2 SLP207 T00670022 58003,0,4.0,0,16090,0,0,0,
2026-04-29 01:51:00,METAR KBED 290151Z 06005KT 10SM CLR 07/02 A3012 RMK AO2 SLP214 T00670022,0,5.0,0,16090,0,0,0,
2026-04-29 00:51:00,METAR KBED 290051Z 07006KT 10SM CLR 08/01 A3012 RMK AO2 SLP215 T00780011,0,6.0,0,16090,0,0,0,
2026-04-28 23:51:00,METAR KBED 282351Z 07008KT 10SM CLR 09/00 A3011 RMK AO2 SLP211 T00940000 10161 20094 58007,0,8.0,0,16090,0,0,0,
2026-04-28 22:51:00,METAR KBED 282251Z 11008KT 10SM CLR 10/M09 A3012 RMK AO2 SLP213 T01001094,0,8.0,0,16090,0,0,0,
2026-04-28 21:51:00,METAR KBED 282151Z 12009KT 10SM CLR 12/M12 A3013 RMK AO2 SLP218 T01221122,0,9.0,0,16090,0,0,0,
2026-04-28 20:51:00,METAR KBED 282051Z 12010KT 10SM CLR 14/M10 A3013 RMK AO2 SLP218 T01391100 56010,0,10.0,0,16090,0,0,0,
2026-04-28 19:51:00,METAR KBED 281951Z 15012G20KT 10SM CLR 15/M12 A3015 RMK AO2 SLP222 T01501122,0,12.0,1,16090,0,0,0,
2026-04-28 18:51:00,METAR KBED 281851Z 13009G23KT 10SM CLR 16/M03 A3015 RMK AO2 SLP222 T01561028,0,9.0,1,16090,0,0,0,
2026-04-28 17:51:00,METAR KBED 281751Z 10010KT 10SM CLR 16/04 A3016 RMK AO2 SLP228 T01610039 10167 20089 56014,0,10.0,0,16090,0,0,0,
2026-04-28 16:51:00,METAR KBED 281651Z 06012G17KT 10SM CLR 16/03 A3017 RMK AO2 SLP230 T01610033,0,12.0,1,16090,0,0,0,
2026-04-28 15:51:00,METAR KBED 281551Z 06008KT 10SM CLR 16/03 A3018 RMK AO2 SLP234 T01610033,0,8.0,0,16090,0,0,0,
2026-04-28 14:51:00,METAR KBED 281451Z 08005KT 10SM CLR 14/02 A3021 RMK AO2 SLP242 T01440017 58001,0,5.0,0,16090,0,0,0,
2026-04-28 13:51:00,METAR KBED 281351Z 08006KT 10SM CLR 13/01 A3020 RMK AO2 SLP241 T01280006,0,6.0,0,16090,0,0,0,
2026-04-28 12:51:00,METAR KBED 281251Z VRB03KT 10SM CLR 11/02 A3021 RMK AO2 SLP244 T01110022,0,3.0,0,16090,0,0,0,
2026-04-28 11:51:00,METAR KBED 281151Z 09005KT 10SM CLR 09/04 A3021 RMK AO2 SLP243 T00890039 10089 20011 50001,0,5.0,0,16090,0,0,0,
2026-04-28 10:51:00,METAR KBED 281051Z 09005KT 10SM CLR 04/03 A3022 RMK AO2 SLP245 T00440028,0,5.0,0,16090,0,0,0,
2026-04-28 09:51:00,METAR KBED 280951Z AUTO 31003KT 10SM CLR 02/01 A3021 RMK AO2 SLP245 T00220011,0,3.0,0,16090,0,0,0,
2026-04-28 08:51:00,METAR KBED 280851Z AUTO 08003KT 10SM CLR 03/01 A3021 RMK AO2 SLP242 T00280011 55002,0,3.0,0,16090,0,0,0,
2026-04-28 07:51:00,METAR KBED 280751Z AUTO 00000KT 10SM CLR 04/02 A3019 RMK AO2 SLP238 T00390022,0,0.0,0,16090,0,0,0,
2026-04-28 06:51:00,METAR KBED 280651Z AUTO 00000KT 10SM CLR 04/02 A3020 RMK AO2 SLP241 T00390022,0,0.0,0,16090,0,0,0,
2026-04-28 05:51:00,METAR KBED 280551Z AUTO 00000KT 10SM CLR 05/02 A3021 RMK AO2 SLP244 T00500022 10139 20050 58006,0,0.0,0,16090,0,0,0,
2026-04-28 04:51:00,METAR KBED 280451Z AUTO 00000KT 10SM CLR 06/02 A3022 RMK AO2 SLP248 T00560022 401940000,0,0.0,0,16090,0,0,0,
2026-04-28 03:51:00,METAR KBED 280351Z AUTO 00000KT 10SM CLR 06/02 A3024 RMK AO2 SLP252 T00610017,0,0.0,0,16090,0,0,0,
2026-04-28 02:51:00,METAR KBED 280251Z AUTO 00000KT 10SM CLR 08/02 A3023 RMK AO2 SLP250 T00780017 58003,0,0.0,0,16090,0,0,0,
2026-04-28 01:51:00,METAR KBED 280151Z 07003KT 10SM CLR 09/02 A3024 RMK AO2 SLP254 T00940022,0,3.0,0,16090,0,0,0,
2026-04-28 00:51:00,METAR KBED 280051Z 12004KT 10SM CLR 12/01 A3024 RMK AO2 SLP253 T01170006,0,4.0,0,16090,0,0,0,
2026-04-27 23:51:00,METAR KBED 272351Z 12005KT 10SM CLR 14/01 A3024 RMK AO2 SLP253 T01390011 10194 20139 51002,0,5.0,0,16090,0,0,0,
2026-04-27 22:51:00,METAR KBED 272251Z 11008KT 10SM CLR 16/02 A3024 RMK AO2 SLP253 T01560017,0,8.0,0,16090,0,0,0,
2026-04-27 21:51:00,METAR KBED 272151Z 13009KT 10SM CLR 17/02 A3024 RMK AO2 SLP254 T01720017,0,9.0,0,16090,0,0,0,
2026-04-27 20:51:00,METAR KBED 272051Z 14010KT 10SM CLR 18/02 A3023 RMK AO2 SLP252 T01780017 55004,0,10.0,0,16090,0,0,0,
2026-04-27 19:51:00,METAR KBED 271951Z 10SM CLR 19/02 A3022 RMK AO2 SLP248 T01890022,0,,0,16090,0,0,0,
2026-04-27 18:51:00,METAR KBED 271851Z 11007KT 10SM CLR 19/02 A3023 RMK AO2 SLP252 T01890022,0,7.0,0,16090,0,0,0,
2026-04-27 17:51:00,METAR KBED 271751Z 13008G15KT 10SM CLR 19/03 A3024 RMK AO2 SLP255 T01890028 10189 20083 56007,0,8.0,1,16090,0,0,0,
2026-04-27 16:51:00,METAR KBED 271651Z 08006KT 10SM CLR 18/02 A3025 RMK AO2 SLP258 T01830022,0,6.0,0,16090,0,0,0,
2026-04-27 15:51:00,METAR KBED 271551Z 12011KT 10SM CLR 18/02 A3026 RMK AO2 SLP260 T01780017,0,11.0,0,16090,0,0,0,
2026-04-27 14:51:00,METAR KBED 271451Z 08007KT 10SM CLR 17/02 A3027 RMK AO2 SLP263 T01670017 51003,0,7.0,0,16090,0,0,0,
2026-04-27 13:51:00,METAR KBED 271351Z 04008KT 10SM CLR 15/02 A3026 RMK AO2 SLP262 T01500017,0,8.0,0,16090,0,0,0,
2026-04-27 12:51:00,METAR KBED 271251Z 00000KT 10SM CLR 12/02 A3026 RMK AO2 SLP261 T01220017,0,0.0,0,16090,0,0,0,
2026-04-27 11:51:00,METAR KBED 271151Z 33003KT 10SM CLR 08/02 A3026 RMK AO2 SLP260 T00830022 10083 20000 51019,0,3.0,0,16090,0,0,0,
2026-04-27 10:51:00,METAR KBED 271051Z 00000KT 10SM CLR 03/02 A3024 RMK AO2 SLP253 T00280017,0,0.0,0,16090,0,0,0,
2026-04-27 09:51:00,METAR KBED 270951Z AUTO 00000KT 10SM CLR 01/M01 A3022 RMK AO2 SLP248 T00061006,0,0.0,0,16090,0,0,0,
2026-04-27 08:51:00,METAR KBED 270851Z AUTO 00000KT 10SM CLR 02/01 A3020 RMK AO2 SLP240 T00170006 53008,0,0.0,0,16090,0,0,0,
2026-04-27 07:51:00,METAR KBED 270751Z AUTO 00000KT 10SM CLR 02/01 A3019 RMK AO2 SLP237 T00170006,0,0.0,0,16090,0,0,0,
2026-04-27 06:51:00,METAR KBED 270651Z AUTO 00000KT 10SM CLR 02/01 A3017 RMK AO2 SLP230 T00170006,0,0.0,0,16090,0,0,0,
2026-04-27 05:51:00,METAR KBED 270551Z AUTO 00000KT 10SM CLR 02/01 A3018 RMK AO2 SLP232 T00220006 10122 20022 50001,0,0.0,0,16090,0,0,0,
2026-04-27 04:51:00,METAR KBED 270451Z AUTO 00000KT 10SM CLR 03/01 A3018 RMK AO2 SLP235 T00330006 401610033,0,0.0,0,16090,0,0,0,
2026-04-27 03:51:00,METAR KBED 270351Z AUTO 00000KT 10SM CLR 05/01 A3018 RMK AO2 SLP234 T00500006,0,0.0,0,16090,0,0,0,
2026-04-27 02:51:00,METAR KBED 270251Z AUTO 00000KT 10SM CLR 07/00 A3017 RMK AO2 SLP230 T00670000 51010,0,0.0,0,16090,0,0,0,
2026-04-27 01:51:00,METAR KBED 270151Z 00000KT 10SM CLR 07/M01 A3017 RMK AO2 SLP229 T00721006,0,0.0,0,16090,0,0,0,
2026-04-27 00:51:00,METAR KBED 270051Z 00000KT 10SM CLR 10/M01 A3016 RMK AO2 SLP227 T01001006,0,0.0,0,16090,0,0,0,
2026-04-26 23:51:00,METAR KBED 262351Z 13004KT 10SM CLR 12/M02 A3014 RMK AO2 SLP220 T01221017 10161 20122 53008,0,4.0,0,16090,0,0,0,
2026-04-26 22:51:00,METAR KBED 262251Z VRB03KT 10SM CLR 14/M02 A3013 RMK AO2 SLP215 T01391017,0,3.0,0,16090,0,0,0,
2026-04-26 21:51:00,METAR KBED 262151Z 12008KT 10SM CLR 15/M01 A3012 RMK AO2 SLP214 T01501011,0,8.0,0,16090,0,0,0,
2026-04-26 20:51:00,METAR KBED 262051Z 13007G16KT 10SM CLR 16/M01 A3012 RMK AO2 SLP212 T01561011 55004,0,7.0,1,16090,0,0,0,
2026-04-26 19:51:00,METAR KBED 261951Z 09008KT 10SM CLR 16/M01 A3011 RMK AO2 SLP210 T01561006,0,8.0,0,16090,0,0,0,
2026-04-26 18:51:00,METAR KBED 261851Z 11005KT 10SM CLR 15/00 A3012 RMK AO2 SLP212 T01500000,0,5.0,0,16090,0,0,0,
2026-04-26 17:51:00,METAR KBED 261751Z 09005KT 10SM CLR 14/M01 A3013 RMK AO2 SLP216 T01441006 10150 20078 55001,0,5.0,0,16090,0,0,0,
2026-04-26 16:51:00,METAR KBED 261651Z 10007KT 040V150 10SM CLR 14/M01 A3012 RMK AO2 SLP214 T01441006,0,7.0,0,16090,0,0,0,
2026-04-26 15:51:00,METAR KBED 261551Z 10006KT 10SM CLR 13/M01 A3013 RMK AO2 SLP217 T01331011,0,6.0,0,16090,0,0,0,
2026-04-26 14:51:00,METAR KBED 261451Z 11006KT 10SM CLR 13/00 A3013 RMK AO2 SLP217 T01280000 51010,0,6.0,0,16090,0,0,0,
2026-04-26 13:51:00,METAR KBED 261351Z 00000KT 10SM FEW120 11/00 A3013 RMK AO2 SLP216 T01060000,0,0.0,0,16090,0,0,0,
2026-04-26 12:51:00,METAR KBED 261251Z 00000KT 10SM CLR 10/02 A3011 RMK AO2 SLP210 T01000017,0,0.0,0,16090,0,0,0,
2026-04-26 11:51:00,METAR KBED 261151Z 00000KT 10SM CLR 08/02 A3010 RMK AO2 SLP206 T00780022 10078 20033 51014,0,0.0,0,16090,0,0,0,
2026-04-26 10:51:00,METAR KBED 261051Z 00000KT 10SM CLR 06/02 A3009 RMK AO2 SLP203 T00560022,0,0.0,0,16090,0,0,0,
2026-04-26 09:51:00,METAR KBED 260951Z AUTO 00000KT 10SM SCT120 05/02 A3008 RMK AO2 SLP199 T00500017,0,0.0,0,16090,0,0,0,
2026-04-26 08:51:00,METAR KBED 260851Z AUTO 00000KT 10SM SCT120 04/02 A3006 RMK AO2 SLP194 T00440017 53001,0,0.0,0,16090,0,0,0,
2026-04-26 07:51:00,METAR KBED 260751Z AUTO 00000KT 10SM CLR 06/02 A3006 RMK AO2 SLP191 T00560017,0,0.0,0,16090,0,0,0,
2026-04-26 06:51:00,METAR KBED 260651Z AUTO 00000KT 10SM CLR 06/01 A3005 RMK AO2 SLP190 T00610006,0,0.0,0,16090,0,0,0,
2026-04-26 05:51:00,METAR KBED 260551Z AUTO 00000KT 10SM CLR 07/01 A3006 RMK AO2 SLP191 T00670006 10089 20061 58003,0,0.0,0,16090,0,0,0,
2026-04-26 04:51:00,METAR KBED 260451Z AUTO 00000KT 10SM CLR 06/01 A3007 RMK AO2 SLP195 T00610006 401111022,0,0.0,0,16090,0,0,0,
2026-04-26 03:51:00,METAR KBED 260351Z AUTO 00000KT 10SM CLR 06/01 A3006 RMK AO2 SLP194 T00610006,0,0.0,0,16090,0,0,0,
2026-04-26 02:51:00,METAR KBED 260251Z AUTO 00000KT 10SM CLR 07/00 A3007 RMK AO2 SLP195 T00720000 50009,0,0.0,0,16090,0,0,0,
2026-04-26 01:51:00,METAR KBED 260151Z 20004KT 10SM CLR 07/M02 A3008 RMK AO2 SLP198 T00721017,0,4.0,0,16090,0,0,0,
2026-04-26 00:51:00,METAR KBED 260051Z 18003KT 10SM CLR 09/M03 A3006 RMK AO2 SLP193 T00891033,0,3.0,0,16090,0,0,0,
2026-04-25 23:51:00,METAR KBED 252351Z 15003KT 10SM CLR 09/M04 A3004 RMK AO2 SLP187 T00891039 10111 20089 53004,0,3.0,0,16090,0,0,0,
2026-04-25 22:51:00,METAR KBED 252251Z 17004KT 10SM CLR 09/M04 A3003 RMK AO2 SLP183 T00941039,0,4.0,0,16090,0,0,0,
2026-04-25 21:51:00,METAR KBED 252151Z 12008KT 10SM CLR 09/M04 A3003 RMK AO2 SLP184 T00941044,0,8.0,0,16090,0,0,0,
2026-04-25 20:51:00,METAR KBED 252051Z 14008KT 10SM CLR 11/M04 A3003 RMK AO2 SLP182 T01061039 56004,0,8.0,0,16090,0,0,0,
2026-04-25 19:51:00,METAR KBED 251951Z 11006KT 10SM CLR 11/M03 A3003 RMK AO2 SLP183 T01061033,0,6.0,0,16090,0,0,0,
2026-04-25 18:51:00,METAR KBED 251851Z 11008KT 10SM CLR 11/M04 A3004 RMK AO2 SLP185 T01061039,0,8.0,0,16090,0,0,0,
2026-04-25 17:51:00,METAR KBED 251751Z 14010KT 10SM CLR 11/M03 A3004 RMK AO2 SLP187 T01061033 10111 20044 58010,0,10.0,0,16090,0,0,0,
2026-04-25 16:51:00,METAR KBED 251651Z VRB03KT 10SM CLR 11/M03 A3005 RMK AO2 SLP190 T01061033,0,3.0,0,16090,0,0,0,
2026-04-25 15:51:00,METAR KBED 251551Z VRB04KT 10SM CLR 10/M04 A3007 RMK AO2 SLP196 T01001044,0,4.0,0,16090,0,0,0,
2026-04-25 14:51:00,METAR KBED 251451Z VRB03KT 10SM CLR 09/M04 A3007 RMK AO2 SLP197 T00941044 58008,0,3.0,0,16090,0,0,0,
2026-04-25 13:51:00,METAR KBED 251351Z 03006KT 10SM CLR 09/M04 A3008 RMK AO2 SLP199 T00891039,0,6.0,0,16090,0,0,0,
2026-04-25 12:51:00,METAR KBED 251251Z 06007KT 10SM CLR 07/M04 A3009 RMK AO2 SLP203 T00721044,0,7.0,0,16090,0,0,0,
2026-04-25 11:51:00,METAR KBED 251151Z 35003KT 10SM CLR 04/01 A3009 RMK AO2 SLP205 I6000 T00440006 10044 21022 53016,0,3.0,0,16090,0,0,0,
2026-04-25 10:51:00,METAR KBED 251051Z 00000KT 10SM CLR M01/M01 A3007 RMK AO2 SLP198 T10061006,0,0.0,0,16090,0,0,0,
2026-04-25 10:26:00,SPECI KBED 251026Z AUTO 00000KT 9SM FEW002 M02/M02 A3007 RMK AO2 T10171022,0,0.0,0,14481,0,0,0,
2026-04-25 10:10:00,SPECI KBED 251010Z AUTO 00000KT 1 1/4SM R11/4000VP6000FT BR SCT001 M02/M03 A3007 RMK AO2 T10171028,0,0.0,0,2011,0,0,1,BR
2026-04-25 10:02:00,SPECI KBED 251002Z AUTO 00000KT 4SM R11/3500VP6000FT BR BKN001 M02/M02 A3006 RMK AO2 T10171022,0,0.0,0,6436,0,0,1,BR
2026-04-25 09:51:00,METAR KBED 250951Z AUTO 00000KT 6SM BR FEW002 M02/M02 A3006 RMK AO2 SLP192 I1000 T10171022,0,0.0,0,9654,0,0,1,BR
2026-04-25 08:51:00,METAR KBED 250851Z AUTO 00000KT 10SM CLR M01/M02 A3005 RMK AO2 SLP189 T10111017 53008,0,0.0,0,16090,0,0,0,
2026-04-25 07:51:00,METAR KBED 250751Z AUTO 00000KT 10SM CLR M01/M02 A3004 RMK AO2 SLP187 T10061017,0,0.0,0,16090,0,0,0,
2026-04-25 06:51:00,METAR KBED 250651Z AUTO 00000KT 10SM CLR M01/M02 A3003 RMK AO2 SLP183 T10111017,0,0.0,0,16090,0,0,0,
2026-04-25 05:51:00,METAR KBED 250551Z AUTO 00000KT 10SM CLR 01/M01 A3002 RMK AO2 SLP182 T00061011 10072 20006 51012,0,0.0,0,16090,0,0,0,
2026-04-25 04:51:00,METAR KBED 250451Z AUTO 00000KT 10SM CLR 02/M01 A3002 RMK AO2 SLP181 T00221006 401441017,0,0.0,0,16090,0,0,0,
2026-04-25 03:51:00,METAR KBED 250351Z AUTO 00000KT 10SM SCT065 02/M01 A3000 RMK AO2 SLP174 T00221011,0,0.0,0,16090,0,0,0,
2026-04-25 02:51:00,METAR KBED 250251Z 00000KT 10SM CLR 02/M02 A2999 RMK AO2 SLP170 T00171017 51023,0,0.0,0,16090,0,0,0,
2026-04-25 01:51:00,METAR KBED 250151Z 00000KT 10SM CLR 06/M01 A2997 RMK AO2 SLP164 T00561011,0,0.0,0,16090,0,0,0,
2026-04-25 00:51:00,METAR KBED 250051Z 09006KT 10SM OVC090 07/M02 A2996 RMK AO2 SLP159 T00671022,0,6.0,0,16090,0,0,0,
2026-04-24 23:51:00,METAR KBED 242351Z 12006KT 10SM SCT090 07/M02 A2992 RMK AO2 SLP147 T00671022 10144 20067 53034,0,6.0,0,16090,0,0,0,
2026-04-24 22:51:00,METAR KBED 242251Z 09011KT 10SM SCT085 09/M03 A2988 RMK AO2 SLP134 T00891028,0,11.0,0,16090,0,0,0,
2026-04-24 21:51:00,METAR KBED 242151Z 10013KT 10SM SCT085 10/M02 A2985 RMK AO2 SLP122 T01001022,0,13.0,0,16090,0,0,0,
2026-04-24 20:51:00,METAR KBED 242051Z 10009KT 10SM FEW085 12/M03 A2982 RMK AO2 SLP112 T01221028 53005,0,9.0,0,16090,0,0,0,
2026-04-24 19:51:00,METAR KBED 241951Z 11006KT 10SM SCT080 13/M03 A2980 RMK AO2 SLP107 T01281033,0,6.0,0,16090,0,0,0,
2026-04-24 18:51:00,METAR KBED 241851Z 28010KT 260V330 10SM BKN080 14/M06 A2980 RMK AO2 SLP106 T01391061,0,10.0,0,16090,0,0,0,
2026-04-24 17:51:00,METAR KBED 241751Z 28011G16KT 10SM SCT080 13/M06 A2980 RMK AO2 SLP107 T01281061 10133 20061 56015,0,11.0,1,16090,0,0,0,
2026-04-24 16:51:00,METAR KBED 241651Z 33014G19KT 300V360 10SM FEW065 12/M06 A2981 RMK AO2 SLP110 T01221061,0,14.0,1,16090,0,0,0,
2026-04-24 15:51:00,METAR KBED 241551Z 01012G19KT 10SM FEW065 12/M06 A2983 RMK AO2 SLP117 T01171056,0,12.0,1,16090,0,0,0,
2026-04-24 14:51:00,METAR KBED 241451Z 34007KT 10SM CLR 09/M04 A2985 RMK AO2 SLP122 T00941044 58005,0,7.0,0,16090,0,0,0,
2026-04-24 13:51:00,METAR KBED 241351Z 36007G17KT 10SM CLR 08/M05 A2986 RMK AO2 SLP125 T00831050,0,7.0,1,16090,0,0,0,
2026-04-24 12:51:00,METAR KBED 241251Z 35011KT 10SM CLR 07/M04 A2986 RMK AO2 SLP126 T00721044,0,11.0,0,16090,0,0,0,
2026-04-24 11:51:00,METAR KBED 241151Z 33013G23KT 10SM CLR 06/M04 A2986 RMK AO2 SLP127 I6001 T00611039 10061 21017 53008,0,13.0,1,16090,0,0,0,
2026-04-24 10:51:00,METAR KBED 241051Z 00000KT 10SM CLR 00/M01 A2985 RMK AO2 SLP122 T00001011,0,0.0,0,16090,0,0,0,
2026-04-24 09:51:00,METAR KBED 240951Z AUTO 00000KT 10SM CLR M02/M02 A2985 RMK AO2 SLP121 T10171022,0,0.0,0,16090,0,0,0,
2026-04-24 08:51:00,METAR KBED 240851Z AUTO 00000KT 10SM CLR M01/M02 A2984 RMK AO2 SLP117 I1001 I3001 T10111017 55001,0,0.0,0,16090,0,0,0,
2026-04-24 07:51:00,METAR KBED 240751Z AUTO 00000KT 10SM CLR M01/M01 A2982 RMK AO2 SLP112 T10061011,0,0.0,0,16090,0,0,0,
2026-04-24 06:51:00,METAR KBED 240651Z AUTO 00000KT 10SM FEW075 00/M01 A2983 RMK AO2 SLP114 T00001011,0,0.0,0,16090,0,0,0,
2026-04-24 05:51:00,METAR KBED 240551Z AUTO 00000KT 10SM CLR 01/M01 A2984 RMK AO2 SLP118 T00111006 10083 20006 58008,0,0.0,0,16090,0,0,0,
2026-04-24 04:51:00,METAR KBED 240451Z AUTO 00000KT 10SM SCT085 02/M01 A2985 RMK AO2 SLP122 T00171006 401830017,0,0.0,0,16090,0,0,0,
2026-04-24 03:51:00,METAR KBED 240351Z AUTO 00000KT 10SM CLR 03/M01 A2986 RMK AO2 SLP125 T00281011,0,0.0,0,16090,0,0,0,
2026-04-24 02:51:00,METAR KBED 240251Z AUTO 00000KT 10SM CLR 05/M01 A2986 RMK AO2 SLP126 T00501011 50010,0,0.0,0,16090,0,0,0,
2026-04-24 01:51:00,METAR KBED 240151Z 13006KT 10SM CLR 07/M01 A2987 RMK AO2 SLP129 T00671006,0,6.0,0,16090,0,0,0,
2026-04-24 00:51:00,METAR KBED 240051Z 11008KT 10SM CLR 08/M01 A2986 RMK AO2 SLP125 T00781006,0,8.0,0,16090,0,0,0,
2026-04-23 23:51:00,METAR KBED 232351Z 14014G24KT 10SM CLR 08/M01 A2983 RMK AO2 SLP116 T00831006 10183 20083 53021,0,14.0,1,16090,0,0,0,
2026-04-23 22:51:00,METAR KBED 232251Z 11013KT 10SM CLR 12/M01 A2980 RMK AO2 SLP103 T01171006,0,13.0,0,16090,0,0,0,
2026-04-23 21:51:00,METAR KBED 232151Z 33014G23KT 10SM FEW100 17/M07 A2978 RMK AO2 SLP097 T01721072,0,14.0,1,16090,0,0,0,
2026-04-23 20:51:00,METAR KBED 232051Z AUTO 32010G18KT 10SM FEW110 18/M07 A2977 RMK AO2 PK WND 35029/2022 SLP095 T01831072 56014,0,10.0,1,16090,0,0,0,
2026-04-23 19:51:00,METAR KBED 231951Z AUTO 32014G29KT 10SM CLR 18/M08 A2978 RMK AO2 PK WND 32031/1927 SLP097 T01831083,0,14.0,1,16090,0,0,0,
2026-04-23 18:51:00,METAR KBED 231851Z 35013G24KT 10SM CLR 18/M06 A2979 RMK AO2 PK WND 30029/1759 SLP100 T01781056,0,13.0,1,16090,0,0,0,
2026-04-23 17:51:00,METAR KBED 231751Z 34016G42KT 10SM FEW060 17/M07 A2981 RMK AO2 PK WND 30042/1747 SLP109 T01721072 10178 20083 58012,0,16.0,1,16090,0,0,0,
2026-04-23 16:51:00,METAR KBED 231651Z 35016G26KT 10SM FEW060 17/M04 A2982 RMK AO2 PK WND 35032/1604 SLP112 T01671044,0,16.0,1,16090,0,0,0,
2026-04-23 15:51:00,METAR KBED 231551Z 31016G32KT 10SM FEW060 16/M02 A2984 RMK AO2 PK WND 32032/1543 SLP118 T01611022,0,16.0,1,16090,0,0,0,
2026-04-23 14:51:00,METAR KBED 231451Z 31015G26KT 10SM FEW060 16/M01 A2985 RMK AO2 PK WND 32033/1419 SLP121 T01561011 56009,0,15.0,1,16090,0,0,0,
2026-04-23 13:51:00,METAR KBED 231351Z 35011G20KT 10SM CLR 14/03 A2985 RMK AO2 SLP122 T01440033,0,11.0,1,16090,0,0,0,
2026-04-23 12:51:00,METAR KBED 231251Z 31009G15KT 280V350 10SM CLR 11/04 A2987 RMK AO2 SLP129 T01110044,0,9.0,1,16090,0,0,0,
2026-04-23 11:51:00,METAR KBED 231151Z 26004KT 10SM FEW090 08/05 A2988 RMK AO2 SLP131 T00830050 10083 20022 58007,0,4.0,0,16090,0,0,0,
2026-04-23 10:51:00,METAR KBED 231051Z 24004KT 10SM CLR 05/04 A2988 RMK AO2 SLP133 T00500044,0,4.0,0,16090,0,0,0,
2026-04-23 10:18:00,SPECI KBED 231018Z AUTO 00000KT 3SM R11/1600VP6000FT BR FEW007 03/03 A2988 RMK AO2 T00330028,0,0.0,0,4827,0,0,1,BR
2026-04-23 10:16:00,SPECI KBED 231016Z AUTO 00000KT 1SM R11/1600VP6000FT BR VV007 03/03 A2988 RMK AO2 T00280028,0,0.0,0,1609,0,0,1,BR
2026-04-23 10:05:00,SPECI KBED 231005Z AUTO 00000KT 1/4SM R11/1400VP6000FT FG VV007 03/02 A2989 RMK AO2 T00280022,0,0.0,0,402,0,0,1,FG
2026-04-23 09:51:00,METAR KBED 230951Z AUTO 00000KT 1/2SM R11/P6000FT FG VV009 03/02 A2989 RMK AO2 SLP137 T00280022,0,0.0,0,804,0,0,1,FG
2026-04-23 09:46:00,SPECI KBED 230946Z AUTO 00000KT 1/2SM R11/5000VP6000FT FG VV009 03/03 A2990 RMK AO2,0,0.0,0,804,0,0,1,FG
2026-04-23 09:26:00,SPECI KBED 230926Z AUTO 00000KT 3/4SM R11/P6000FT BR VV010 03/03 A2989 RMK AO2 T00330033,0,0.0,0,1207,0,0,1,BR
2026-04-23 09:21:00,SPECI KBED 230921Z AUTO 00000KT 1 3/4SM BR CLR 03/03 A2989 RMK AO2 T00330033,0,0.0,0,2816,0,0,1,BR
2026-04-23 08:51:00,METAR KBED 230851Z AUTO 00000KT 10SM CLR 05/04 A2990 RMK AO2 SLP139 T00500044 56020,0,0.0,0,16090,0,0,0,
2026-04-23 08:24:00,SPECI KBED 230824Z AUTO 00000KT 10SM SCT018 06/04 A2991 RMK AO2 T00560044,0,0.0,0,16090,0,0,0,
2026-04-23 07:51:00,METAR KBED 230751Z AUTO 23004KT 10SM OVC019 06/04 A2992 RMK AO2 SLP146 T00610044,0,4.0,0,16090,0,0,0,
2026-04-23 07:20:00,SPECI KBED 230720Z AUTO 22003KT 10SM SCT009 OVC019 07/05 A2993 RMK AO2 T00670050,0,3.0,0,16090,0,0,0,
2026-04-23 06:51:00,METAR KBED 230651Z AUTO 21004KT 10SM OVC010 07/05 A2993 RMK AO2 SLP150 T00670050,0,4.0,0,16090,0,0,0,
2026-04-23 05:51:00,METAR KBED 230551Z AUTO 22004KT 10SM OVC011 07/04 A2996 RMK AO2 SLP159 T00670044 10078 20067 58017,0,4.0,0,16090,0,0,0,
2026-04-23 04:51:00,METAR KBED 230451Z AUTO 20005KT 10SM OVC014 07/04 A2998 RMK AO2 SLP167 T00670044 400830011,0,5.0,0,16090,0,0,0,
2026-04-23 04:08:00,SPECI KBED 230408Z AUTO 19004KT 10SM OVC014 07/04 A2999 RMK AO2 T00720044,0,4.0,0,16090,0,0,0,
2026-04-23 03:51:00,METAR KBED 230351Z AUTO 20004KT 10SM OVC015 07/04 A3000 RMK AO2 SLP173 T00720039,0,4.0,0,16090,0,0,0,
2026-04-23 02:51:00,METAR KBED 230251Z AUTO 19005KT 10SM OVC020 07/04 A3001 RMK AO2 SLP176 T00720039 58006,0,5.0,0,16090,0,0,0,
2026-04-23 01:51:00,METAR KBED 230151Z 18007KT 10SM OVC023 07/04 A3001 RMK AO2 SLP178 T00720039,0,7.0,0,16090,0,0,0,
2026-04-23 01:22:00,SPECI KBED 230122Z 17005KT 10SM OVC027 07/04 A3003 RMK AO2 T00720039,0,5.0,0,16090,0,0,0,
2026-04-23 00:51:00,METAR KBED 230051Z 17006KT 10SM OVC030 07/03 A3003 RMK AO2 SLP183 T00720033,0,6.0,0,16090,0,0,0,
2026-04-22 23:51:00,METAR KBED 222351Z 19006KT 10SM OVC030 08/03 A3003 RMK AO2 SLP182 60000 T00780033 10083 20072 55005,0,6.0,0,16090,0,0,0,
2026-04-22 22:51:00,METAR KBED 222251Z 17006KT 10SM OVC032 08/03 A3002 RMK AO2 SLP181 T00780028,0,6.0,0,16090,0,0,0,
2026-04-22 21:51:00,METAR KBED 222151Z 17006KT 10SM BKN027 BKN034 OVC041 08/03 A3003 RMK AO2 SLP185 T00780028,0,6.0,0,16090,0,0,0,
2026-04-22 20:51:00,METAR KBED 222051Z 17007KT 10SM BKN025 OVC036 08/03 A3004 RMK AO2 SLP188 60000 T00780028 56024,0,7.0,0,16090,0,0,0,
2026-04-22 19:51:00,METAR KBED 221951Z 21008KT 10SM OVC021 08/03 A3006 RMK AO2 RAB26E39 SLP194 P0000 T00780028,0,8.0,0,16090,0,0,0,RA
2026-04-22 18:51:00,METAR KBED 221851Z 20009KT 10SM BKN018 BKN023 OVC032 08/03 A3009 RMK AO2 RAB04E13 SLP203 P0000 T00780033,0,9.0,0,16090,0,0,0,RA
2026-04-22 17:51:00,METAR KBED 221751Z 19009G17KT 10SM OVC022 07/02 A3011 RMK AO2 SLP212 60000 T00720022 10078 20050 58015,0,9.0,1,16090,0,0,0,
2026-04-22 16:51:00,METAR KBED 221651Z 18009KT 10SM OVC022 07/02 A3013 RMK AO2 SLP216 T00720022,0,9.0,0,16090,0,0,0,
2026-04-22 15:51:00,METAR KBED 221551Z 21009G18KT 10SM BKN025 OVC033 07/02 A3015 RMK AO2 SLP224 T00720017,0,9.0,1,16090,0,0,0,
2026-04-22 15:29:00,SPECI KBED 221529Z 20013G17KT 10SM BKN023 OVC036 07/02 A3016 RMK AO2 T00670017,0,13.0,1,16090,0,0,0,
2026-04-22 14:51:00,METAR KBED 221451Z 20009KT 10SM OVC045 07/02 A3016 RMK AO2 SLP227 60000 T00670017 56007,0,9.0,0,16090,0,0,0,
2026-04-22 13:51:00,METAR KBED 221351Z 20009G16KT 10SM OVC047 06/01 A3016 RMK AO2 SLP228 T00610011,0,9.0,1,16090,0,0,0,
2026-04-22 12:51:00,METAR KBED 221251Z COR 19008KT 10SM FEW034 OVC045 06/01 A3017 RMK AO2 RAB34E43 SLP232 P0000 T00560011,0,8.0,0,16090,0,0,0,RA
2026-04-22 11:51:00,METAR KBED 221151Z 18007KT 10SM BKN060 OVC090 05/01 A3018 RMK AO2 SLP234 T00500006 10050 20011 56003,0,7.0,0,16090,0,0,0,
2026-04-22 10:51:00,METAR KBED 221051Z 20006KT 10SM BKN100 04/00 A3018 RMK AO2 SLP236 T00390000,0,6.0,0,16090,0,0,0,
2026-04-22 09:51:00,METAR KBED 220951Z AUTO 18005KT 10SM BKN110 03/M01 A3018 RMK AO2 SLP235 T00331006,0,5.0,0,16090,0,0,0,
2026-04-22 08:51:00,METAR KBED 220851Z AUTO 21005KT 10SM CLR 02/M01 A3019 RMK AO2 SLP238 T00221011 55011,0,5.0,0,16090,0,0,0,
2026-04-22 07:51:00,METAR KBED 220751Z AUTO 18004KT 10SM CLR 01/M02 A3019 RMK AO2 SLP237 T00111017,0,4.0,0,16090,0,0,0,
2026-04-22 06:51:00,METAR KBED 220651Z AUTO 19004KT 10SM CLR 01/M02 A3020 RMK AO2 SLP241 T00111022,0,4.0,0,16090,0,0,0,
2026-04-22 05:51:00,METAR KBED 220551Z AUTO 19005KT 10SM CLR 02/M02 A3022 RMK AO2 SLP249 T00171022 10056 20017 58007,0,5.0,0,16090,0,0,0,
2026-04-22 04:51:00,METAR KBED 220451Z AUTO 19006KT 10SM CLR 02/M02 A3024 RMK AO2 SLP256 T00221022 401001039,0,6.0,0,16090,0,0,0,
2026-04-22 03:51:00,METAR KBED 220351Z AUTO 20006KT 10SM CLR 03/M03 A3025 RMK AO2 SLP259 T00281028,0,6.0,0,16090,0,0,0,
2026-04-22 02:51:00,METAR KBED 220251Z AUTO 18007KT 10SM CLR 03/M03 A3024 RMK AO2 SLP256 T00331028 51007,0,7.0,0,16090,0,0,0,
2026-04-22 01:51:00,METAR KBED 220151Z 17009KT 10SM CLR 04/M04 A3024 RMK AO2 SLP255 T00441044,0,9.0,0,16090,0,0,0,
2026-04-22 00:51:00,METAR KBED 220051Z 17009KT 10SM CLR 06/M06 A3023 RMK AO2 SLP252 T00561056,0,9.0,0,16090,0,0,0,
2026-04-21 23:51:00,METAR KBED 212351Z 10006KT 10SM CLR 05/M04 A3022 RMK AO2 SLP250 T00501044 10100 20050 51001,0,6.0,0,16090,0,0,0,
2026-04-21 22:51:00,METAR KBED 212251Z 12009KT 10SM CLR 07/M06 A3022 RMK AO2 SLP250 T00721061,0,9.0,0,16090,0,0,0,
2026-04-21 21:51:00,METAR KBED 212151Z 13012KT 10SM CLR 08/M05 A3022 RMK AO2 SLP250 T00781050,0,12.0,0,16090,0,0,0,
2026-04-21 20:51:00,METAR KBED 212051Z 12016G23KT 10SM CLR 08/M06 A3022 RMK AO2 SLP249 T00831056 56020,0,16.0,1,16090,0,0,0,
2026-04-21 20:33:00,SPECI KBED 212033Z 11015G21KT 10SM CLR 08/M06 A3022 RMK AO2 T00831061,0,15.0,1,16090,0,0,0,
2026-04-21 19:51:00,METAR KBED 211951Z VRB05KT 10SM SCT120 09/M11 A3023 RMK AO2 SLP252 T00891111,0,5.0,0,16090,0,0,0,
2026-04-21 18:51:00,METAR KBED 211851Z 15006G18KT 10SM CLR 09/M11 A3025 RMK AO2 SLP260 T00891111,0,6.0,1,16090,0,0,0,
2026-04-21 17:51:00,METAR KBED 211751Z 28009G16KT 10SM CLR 08/M12 A3028 RMK AO2 SLP268 T00831122 10094 20017 56024,0,9.0,1,16090,0,0,0,
2026-04-21 16:51:00,METAR KBED 211651Z 25008KT 10SM CLR 08/M12 A3030 RMK AO2 SLP275 T00831122,0,8.0,0,16090,0,0,0,
2026-04-21 15:51:00,METAR KBED 211551Z VRB06KT 10SM CLR 07/M12 A3033 RMK AO2 SLP285 T00721117,0,6.0,0,16090,0,0,0,
2026-04-21 14:51:00,METAR KBED 211451Z 29006KT 10SM FEW050 06/M12 A3035 RMK AO2 SLP292 T00611117 58008,0,6.0,0,16090,0,0,0,
2026-04-21 13:51:00,METAR KBED 211351Z 07004KT 10SM CLR 06/M12 A3037 RMK AO2 SLP298 T00561117,0,4.0,0,16090,0,0,0,
2026-04-21 12:51:00,METAR KBED 211251Z 00000KT 10SM CLR 04/M09 A3037 RMK AO2 SLP300 T00391094,0,0.0,0,16090,0,0,0,
2026-04-21 11:51:00,METAR KBED 211151Z 00000KT 10SM CLR 02/M06 A3038 RMK AO2 SLP302 T00171061 10017 21039 51017,0,0.0,0,16090,0,0,0,
2026-04-21 10:51:00,METAR KBED 211051Z 00000KT 10SM CLR M02/M04 A3037 RMK AO2 SLP299 T10221044,0,0.0,0,16090,0,0,0,
2026-04-21 09:51:00,METAR KBED 210951Z AUTO 00000KT 10SM CLR M03/M05 A3034 RMK AO2 SLP291 T10331050,0,0.0,0,16090,0,0,0,
2026-04-21 08:51:00,METAR KBED 210851Z AUTO 00000KT 10SM CLR M03/M06 A3032 RMK AO2 SLP284 T10281061 53006,0,0.0,0,16090,0,0,0,
2026-04-21 07:51:00,METAR KBED 210751Z AUTO 00000KT 10SM CLR M02/M05 A3032 RMK AO2 SLP283 T10171050,0,0.0,0,16090,0,0,0,
2026-04-21 06:51:00,METAR KBED 210651Z AUTO 34003KT 10SM CLR 00/M06 A3031 RMK AO2 SLP278 T00001056,0,3.0,0,16090,0,0,0,
2026-04-21 05:51:00,METAR KBED 210551Z AUTO 36003KT 10SM SCT075 OVC095 02/M07 A3031 RMK AO2 SLP277 T00171072 10061 20017 51013,0,3.0,0,16090,0,0,0,
2026-04-21 04:51:00,METAR KBED 210451Z AUTO 02004KT 10SM OVC070 03/M08 A3030 RMK AO2 SLP275 T00281078 401111039,0,4.0,0,16090,0,0,0,
2026-04-21 03:51:00,METAR KBED 210351Z AUTO 01006KT 10SM SCT065 BKN080 OVC100 04/M07 A3029 RMK AO2 SLP271 T00391067,0,6.0,0,16090,0,0,0,
2026-04-21 02:51:00,METAR KBED 210251Z AUTO 33004KT 10SM BKN060 OVC100 03/M05 A3027 RMK AO2 SLP265 T00331050 51025,0,4.0,0,16090,0,0,0,
2026-04-21 01:51:00,METAR KBED 210151Z 33005KT 10SM BKN065 BKN095 03/M06 A3026 RMK AO2 SLP260 T00331056,0,5.0,0,16090,0,0,0,
2026-04-21 00:51:00,METAR KBED 210051Z 33004KT 10SM BKN100 04/M06 A3023 RMK AO2 SLP251 T00441061,0,4.0,0,16090,0,0,0,
2026-04-20 23:51:00,METAR KBED 202351Z 34008KT 10SM BKN065 06/M07 A3019 RMK AO2 SLP239 T00611067 10111 20061 53030,0,8.0,0,16090,0,0,0,
2026-04-20 22:51:00,METAR KBED 202251Z COR 35008KT 10SM BKN075 BKN090 07/M06 A3016 RMK AO2 SLP229 T00721056,0,8.0,0,16090,0,0,0,
2026-04-20 21:51:00,METAR KBED 202151Z 35011G21KT 10SM BKN080 08/M06 A3014 RMK AO2 SLP221 T00831056,0,11.0,1,16090,0,0,0,
2026-04-20 20:51:00,METAR KBED 202051Z 34009KT 10SM BKN080 09/M07 A3011 RMK AO2 SLP211 T00891072 53001,0,9.0,0,16090,0,0,0,
2026-04-20 19:51:00,METAR KBED 201951Z 35009G15KT 10SM BKN075 09/M07 A3010 RMK AO2 SLP206 T00891067,0,9.0,1,16090,0,0,0,
2026-04-20 18:51:00,METAR KBED 201851Z 24008KT 210V300 10SM BKN080 11/M06 A3009 RMK AO2 SLP203 T01061061,0,8.0,0,16090,0,0,0,
2026-04-20 17:51:00,METAR KBED 201751Z 24007G16KT 10SM SCT060 BKN075 OVC090 09/M06 A3010 RMK AO2 SLP208 T00891056 10089 20028 56004,0,7.0,1,16090,0,0,0,
2026-04-20 16:51:00,METAR KBED 201651Z 30013G20KT 10SM BKN060 OVC080 08/M04 A3010 RMK AO2 SLP209 T00831044,0,13.0,1,16090,0,0,0,
2026-04-20 15:51:00,METAR KBED 201551Z 27006G15KT 10SM OVC055 08/M04 A3011 RMK AO2 SLP210 T00831039,0,6.0,1,16090,0,0,0,
2026-04-20 14:51:00,METAR KBED 201451Z 30010G15KT 10SM BKN045 08/M03 A3011 RMK AO2 SLP212 T00781028 53004,0,10.0,1,16090,0,0,0,
2026-04-20 13:51:00,METAR KBED 201351Z 29008KT 10SM SCT050 07/M01 A3011 RMK AO2 SLP209 T00721011,0,8.0,0,16090,0,0,0,
2026-04-20 12:51:00,METAR KBED 201251Z 26010KT 230V300 10SM CLR 06/M01 A3011 RMK AO2 SLP211 T00561006,0,10.0,0,16090,0,0,0,
2026-04-20 11:51:00,METAR KBED 201151Z 23005KT 10SM CLR 03/M01 A3010 RMK AO2 SLP209 70019 I6002 T00281011 10028 21039 53022,0,5.0,0,16090,0,0,0,
2026-04-20 10:51:00,METAR KBED 201051Z 00000KT 10SM CLR M01/M01 A3008 RMK AO2 SLP200 T10111011,0,0.0,0,16090,0,0,0,
2026-04-20 10:13:00,SPECI KBED 201013Z AUTO 00000KT 3SM BR CLR M02/M02 A3006 RMK AO2 T10221022,0,0.0,0,4827,0,0,1,BR
2026-04-20 09:59:00,SPECI KBED 200959Z AUTO 00000KT 1 1/2SM BR CLR M03/M03 A3005 RMK AO2 T10331033,0,0.0,0,2414,0,0,1,BR
2026-04-20 09:51:00,METAR KBED 200951Z AUTO 23003KT 8SM CLR M02/M02 A3005 RMK AO2 SLP191 I1001 T10171017,0,3.0,0,12872,0,0,0,
2026-04-20 09:48:00,SPECI KBED 200948Z AUTO 23003KT 3SM BR CLR M02/M02 A3005 RMK AO2 I1001,0,3.0,0,4827,0,0,1,BR
2026-04-20 09:39:00,SPECI KBED 200939Z AUTO 00000KT 1 3/4SM BR CLR M02/M02 A3004 RMK AO2 VIS 3/4V5 I1001 T10171022,0,0.0,0,2816,0,0,1,BR
2026-04-20 08:51:00,METAR KBED 200851Z AUTO 00000KT 10SM CLR M01/M02 A3004 RMK AO2 SLP187 I3001 T10111022 53007,0,0.0,0,16090,0,0,0,
2026-04-20 07:51:00,METAR KBED 200751Z AUTO 24005KT 10SM CLR M01/M02 A3003 RMK AO2 SLP183 I1001 T10061017,0,5.0,0,16090,0,0,0,
2026-04-20 07:34:00,SPECI KBED 200734Z AUTO 24004KT 10SM CLR M01/M01 A3002 RMK AO2 I1000 T10061011,0,4.0,0,16090,0,0,0,
2026-04-20 07:27:00,SPECI KBED 200727Z AUTO 00000KT 2 1/2SM BR CLR M01/M02 A3002 RMK AO2 I1000 T10111017,0,0.0,0,4022,0,0,1,BR
2026-04-20 07:20:00,SPECI KBED 200720Z AUTO 00000KT 1 3/4SM BR CLR M02/M02 A3001 RMK AO2 VIS 1V5 I1000 T10171022,0,0.0,0,2816,0,0,1,BR
2026-04-20 06:51:00,METAR KBED 200651Z AUTO 00000KT 10SM CLR M01/M02 A3001 RMK AO2 SLP179 T10061017,0,0.0,0,16090,0,0,0,
2026-04-20 05:51:00,METAR KBED 200551Z AUTO 24003KT 9SM R11/5500VP6000FT CLR 00/00 A3002 RMK AO2 SLP179 I1001 I6001 T00000000 10022 21017 51009,0,3.0,0,14481,0,0,0,
2026-04-20 05:47:00,SPECI KBED 200547Z AUTO 24003KT 3SM R11/4000VP6000FT BR CLR M01/M01 A3002 RMK AO2 I1001,0,3.0,0,4827,0,0,1,BR
2026-04-20 05:18:00,SPECI KBED 200518Z AUTO 00000KT 1 3/4SM R11/6000VP6000FT BR CLR M01/M01 A3001 RMK AO2 I1000 T10111011,0,0.0,0,2816,0,0,1,BR
2026-04-20 05:06:00,SPECI KBED 200506Z AUTO 23003KT 4SM R11/3500VP6000FT BR CLR 00/00 A3001 RMK AO2 I1000 T00000000,0,3.0,0,6436,0,0,1,BR
2026-04-20 04:59:00,SPECI KBED 200459Z AUTO 00000KT 2SM R11/6000VP6000FT BR CLR M01/M01 A3001 RMK AO2 VIS 1V5 T10061006,0,0.0,0,3218,0,0,1,BR
2026-04-20 04:51:00,METAR KBED 200451Z AUTO 00000KT 3SM BR CLR M01/M01 A3001 RMK AO2 SLP175 T10061011 401001006,0,0.0,0,4827,0,0,1,BR
2026-04-20 03:51:00,METAR KBED 200351Z AUTO 27003KT 10SM CLR 01/00 A2999 RMK AO2 SLP170 T00060000,0,3.0,0,16090,0,0,0,
2026-04-20 02:51:00,METAR KBED 200251Z AUTO 24003KT 10SM CLR 01/00 A2997 RMK AO2 SLP164 T00110000 51026,0,3.0,0,16090,0,0,0,
2026-04-20 01:51:00,METAR KBED 200151Z 26004KT 10SM CLR 02/01 A2995 RMK AO2 SLP157 T00170006,0,4.0,0,16090,0,0,0,
2026-04-20 00:51:00,METAR KBED 200051Z 28005KT 10SM CLR 02/01 A2993 RMK AO2 SLP150 T00220011,0,5.0,0,16090,0,0,0,
2026-04-19 23:51:00,METAR KBED 192351Z 32006KT 10SM CLR 02/01 A2990 RMK AO2 RAE2253 SLP138 P0000 60009 T00220011 10089 20022 51035,0,6.0,0,16090,0,0,0,RA
2026-04-19 22:51:00,METAR KBED 192251Z 33010KT 10SM -RA BKN011 BKN019 OVC065 03/02 A2987 RMK AO2 SLP128 P0007 T00330022,0,10.0,0,16090,0,0,0,-RA
2026-04-19 22:19:00,SPECI KBED 192219Z 31011G20KT 4SM -RA BR OVC008 04/03 A2988 RMK AO2 PRESRR P0005 T00390028,0,11.0,1,6436,0,0,1,"-RA,BR"
2026-04-19 21:51:00,METAR KBED 192151Z 32007KT 5SM RA BR OVC015 05/03 A2983 RMK AO2 RAB08 SLP117 P0002 T00500033,0,7.0,0,8045,0,0,1,"BR,RA"
2026-04-19 20:51:00,METAR KBED 192051Z 29007KT 10SM BKN018 OVC027 07/04 A2979 RMK AO2 RAB07E35 SLP102 P0000 60000 T00670039 53019,0,7.0,0,16090,0,0,0,RA
2026-04-19 19:51:00,METAR KBED 191951Z 33009KT 10SM OVC018 07/05 A2976 RMK AO2 RAB18E49 SLP093 P0000 T00720050,0,9.0,0,16090,0,0,0,RA
2026-04-19 19:49:00,SPECI KBED 191949Z 33009G19KT 10SM OVC018 07/05 A2976 RMK AO2 RAB18E49 P0000,0,9.0,1,16090,0,0,0,RA
2026-04-19 19:33:00,SPECI KBED 191933Z 35009KT 2SM -RA BR BKN011 OVC026 08/06 A2974 RMK AO2 RAB18 P0000 T00780056,0,9.0,0,3218,0,0,1,"-RA,BR"
2026-04-19 18:51:00,METAR KBED 191851Z 31014G23KT 10SM BKN011 OVC026 08/06 A2973 RMK AO2 LTG DSNT E AND SE RAE1754 SLP083 P0000 T00830056,0,14.0,1,16090,0,0,0,"DS,RA"
2026-04-19 17:51:00,METAR KBED 191751Z 32014G21KT 10SM -RA BKN011 OVC026 09/07 A2975 RMK AO2 LTG DSNT NE AND E SLP086 P0007 60010 T00890067 10100 20078 53002,0,14.0,1,16090,0,0,0,"-RA,DS"
2026-04-19 17:32:00,SPECI KBED 191732Z 31014G22KT 7SM -RA OVC007 09/07 A2974 RMK AO2 P0007 T00890072,0,14.0,1,11263,0,0,0,-RA
2026-04-19 17:14:00,SPECI KBED 191714Z 29011G21KT 9SM VCTS -RA OVC007 10/08 A2976 RMK AO2 LTG DSNT S PRESRR P0002 T01000083,0,11.0,1,14481,1,0,0,"-RA,DS,TS,VC"
2026-04-19 16:51:00,METAR KBED 191651Z 28008KT 2 1/2SM -RA BR OVC007 10/09 A2972 RMK AO2 RAB23 SLP078 P0001 T01000094,0,8.0,0,4022,0,0,1,"-RA,BR"
2026-04-19 16:40:00,SPECI KBED 191640Z 29005KT 2 1/2SM -RA BR BKN007 OVC012 10/09 A2972 RMK AO2 RAB23 P0001 T01000089,0,5.0,0,4022,0,0,1,"-RA,BR"
2026-04-19 15:51:00,METAR KBED 191551Z 24004KT 10SM OVC005 09/09 A2973 RMK AO2 SLP081 T00940089,0,4.0,0,16090,0,0,0,
2026-04-19 15:03:00,SPECI KBED 191503Z 21003KT 3SM BR BKN005 OVC029 09/08 A2974 RMK AO2 T00890083,0,3.0,0,4827,0,0,1,BR
2026-04-19 14:51:00,METAR KBED 191451Z 19003KT 1 1/2SM BR BKN005 BKN027 OVC037 09/08 A2974 RMK AO2 RAB1355E24 SLP084 P0001 60002 T00890078 56012,0,3.0,0,2414,0,0,1,"BR,RA"
2026-04-19 13:59:00,SPECI KBED 191359Z 00000KT 3/4SM R11/4000V6000FT -RA BR OVC003 08/08 A2976 RMK AO2 RAB55 P0000 T00830078,0,0.0,0,1207,0,0,1,"-RA,BR"
2026-04-19 13:51:00,METAR KBED 191351Z 25003KT 1SM R11/4000V5500FT BR OVC003 08/08 A2976 RMK AO2 RAB03E19B50E51 SLP093 P0001 T00830078,0,3.0,0,1609,0,0,1,"BR,RA"
2026-04-19 13:32:00,SPECI KBED 191332Z 00000KT 1SM R11/6000VP6000FT BR OVC003 08/08 A2975 RMK AO2 RAB03E19 P0000 T00830078,0,0.0,0,1609,0,0,1,"BR,RA"
2026-04-19 12:58:00,SPECI KBED 191258Z 00000KT 2SM BR OVC003 08/07 A2974 RMK AO2 T00780072,0,0.0,0,3218,0,0,1,BR
2026-04-19 12:51:00,METAR KBED 191251Z 00000KT 1 1/2SM BR OVC003 08/07 A2975 RMK AO2 SLP087 T00780072,0,0.0,0,2414,0,0,1,BR
2026-04-19 11:51:00,METAR KBED 191151Z 16003KT 1 1/2SM BR OVC003 08/07 A2977 RMK AO2 RAB26E44 SLP097 P0000 60000 T00780072 10078 20067 58020,0,3.0,0,2414,0,0,1,"BR,RA"
2026-04-19 10:51:00,METAR KBED 191051Z 00000KT 3SM BR OVC003 08/07 A2981 RMK AO2 SLP107 T00780067,0,0.0,0,4827,0,0,1,BR
2026-04-19 09:51:00,METAR KBED 190951Z AUTO 19003KT 10SM OVC003 07/07 A2982 RMK AO2 SLP110 T00720067,0,3.0,0,16090,0,0,0,
2026-04-19 08:51:00,METAR KBED 190851Z AUTO 00000KT 3SM BR OVC002 07/07 A2983 RMK AO2 SLP116 T00720067 55013,0,0.0,0,4827,0,0,1,BR
2026-04-19 08:34:00,SPECI KBED 190834Z AUTO 13004KT 4SM BR OVC002 07/07 A2983 RMK AO2 T00720067,0,4.0,0,6436,0,0,1,BR
2026-04-19 08:24:00,SPECI KBED 190824Z AUTO 12005KT 2 1/2SM BR OVC002 07/07 A2984 RMK AO2 PRESFR T00720067,0,5.0,0,4022,0,0,1,BR
2026-04-19 07:51:00,METAR KBED 190751Z AUTO 14005KT 1 3/4SM BR OVC003 07/07 A2987 RMK AO2 SLP128 T00720067,0,5.0,0,2816,0,0,1,BR
2026-04-19 07:48:00,SPECI KBED 190748Z AUTO 14005KT 2SM BR OVC003 07/07 A2987 RMK AO2,0,5.0,0,3218,0,0,1,BR
2026-04-19 06:51:00,METAR KBED 190651Z AUTO 00000KT 5SM BR OVC004 07/07 A2990 RMK AO2 SLP137 T00720067,0,0.0,0,8045,0,0,1,BR
2026-04-19 06:20:00,SPECI KBED 190620Z AUTO 00000KT 4SM BR OVC004 07/07 A2991 RMK AO2 T00670067,0,0.0,0,6436,0,0,1,BR
2026-04-19 05:51:00,METAR KBED 190551Z AUTO 12004KT 5SM BR BKN006 OVC012 07/06 A2992 RMK AO2 SLP146 T00720061 10078 20072 58017,0,4.0,0,8045,0,0,1,BR
2026-04-19 05:10:00,SPECI KBED 190510Z AUTO 13005KT 5SM BR OVC006 07/07 A2993 RMK AO2 CIG 003V009 T00720067,0,5.0,0,8045,0,0,1,BR
2026-04-19 04:51:00,METAR KBED 190451Z AUTO 13004KT 3SM BR OVC004 07/07 A2994 RMK AO2 SLP153 T00720067 401560044,0,4.0,0,4827,0,0,1,BR
2026-04-19 04:40:00,SPECI KBED 190440Z AUTO 14003KT 3SM BR OVC004 07/07 A2995 RMK AO2 T00720067,0,3.0,0,4827,0,0,1,BR
2026-04-19 03:51:00,METAR KBED 190351Z AUTO 09003KT 7SM OVC005 07/07 A2996 RMK AO2 SLP158 T00720067,0,3.0,0,11263,0,0,0,
2026-04-19 02:51:00,METAR KBED 190251Z AUTO 11004KT 6SM BR OVC005 07/07 A2997 RMK AO2 SLP163 T00720067 58015,0,4.0,0,9654,0,0,1,BR
2026-04-19 02:37:00,SPECI KBED 190237Z 10006KT 5SM BR OVC005 07/07 A2998 RMK AO2 T00720067,0,6.0,0,8045,0,0,1,BR
2026-04-19 01:51:00,METAR KBED 190151Z 06004KT 4SM BR OVC004 07/07 A3000 RMK AO2 SLP171 T00720067,0,4.0,0,6436,0,0,1,BR
2026-04-19 00:51:00,METAR KBED 190051Z 09006KT 4SM BR OVC006 08/07 A3001 RMK AO2 SLP175 T00780067,0,6.0,0,6436,0,0,1,BR
2026-04-19 00:25:00,SPECI KBED 190025Z 05006KT 5SM BR OVC006 08/07 A3001 RMK AO2 T00780067,0,6.0,0,8045,0,0,1,BR
2026-04-18 23:51:00,METAR KBED 182351Z 12003KT 7SM BKN010 OVC014 08/07 A3002 RMK AO2 CIG 008V013 SLP178 T00780067 10150 20078 56013,0,3.0,0,11263,0,0,0,
2026-04-18 22:51:00,METAR KBED 182251Z 08006KT 10SM OVC016 09/06 A3003 RMK AO2 SLP182 T00940056,0,6.0,0,16090,0,0,0,
2026-04-18 21:51:00,METAR KBED 182151Z 11007KT 10SM OVC018 10/06 A3004 RMK AO2 SLP185 T01000061,0,7.0,0,16090,0,0,0,
2026-04-18 20:51:00,METAR KBED 182051Z 12008KT 10SM OVC023 12/06 A3006 RMK AO2 SLP191 T01170061 56014,0,8.0,0,16090,0,0,0,
2026-04-18 19:51:00,METAR KBED 181951Z 12009KT 10SM OVC026 13/06 A3006 RMK AO2 SLP193 T01280061,0,9.0,0,16090,0,0,0,
2026-04-18 18:51:00,METAR KBED 181851Z 13009KT 10SM BKN029 BKN035 14/07 A3009 RMK AO2 SLP201 T01390067,0,9.0,0,16090,0,0,0,
2026-04-18 18:07:00,SPECI KBED 181807Z VRB06KT 10SM BKN029 OVC035 14/07 A3009 RMK AO2 T01440072,0,6.0,0,16090,0,0,0,
2026-04-18 17:51:00,METAR KBED 181751Z COR 15010G13KT 10SM BKN028 BKN034 14/07 A3010 RMK AO2 SLP205 T01500067 10156 20094 58018,0,10.0,1,16090,0,0,0,
2026-04-18 16:51:00,METAR KBED 181651Z 01006KT 10SM BKN025 13/08 A3012 RMK AO2 SLP212 T01330078,0,6.0,0,16090,0,0,0,
2026-04-18 15:51:00,METAR KBED 181551Z 09010KT 10SM OVC015 12/09 A3014 RMK AO2 SLP221 T01170089,0,10.0,0,16090,0,0,0,
2026-04-18 15:16:00,SPECI KBED 181516Z 06009KT 10SM SCT010 OVC018 12/09 A3015 RMK AO2 T01170094,0,9.0,0,16090,0,0,0,
2026-04-18 14:51:00,METAR KBED 181451Z 07009KT 10SM OVC009 11/09 A3015 RMK AO2 CIG 007V013 SLP223 T01110094 53009,0,9.0,0,16090,0,0,0,
2026-04-18 13:51:00,METAR KBED 181351Z 05008KT 5SM BR OVC005 11/09 A3014 RMK AO2 SLP221 T01060094,0,8.0,0,8045,0,0,1,BR
2026-04-18 13:02:00,SPECI KBED 181302Z 08008KT 10SM OVC005 10/09 A3013 RMK AO2 T01000094,0,8.0,0,16090,0,0,0,
2026-04-18 12:51:00,METAR KBED 181251Z 07008KT 10SM OVC004 10/09 A3012 RMK AO2 SLP212 T01000094,0,8.0,0,16090,0,0,0,
2026-04-18 12:09:00,SPECI KBED 181209Z COR 08009KT 2 1/2SM BR OVC002 10/09 A3012 RMK AO2 T01000094,0,9.0,0,4022,0,0,1,BR
2026-04-18 11:56:00,SPECI KBED 181156Z 08009KT 2 1/2SM BR OVC002 10/09 A3012 RMK AO2 T01000094,0,9.0,0,4022,0,0,1,BR
2026-04-18 11:51:00,METAR KBED 181151Z 08008KT 3SM BR OVC015 09/09 A3012 RMK AO2 SLP213 70001 T00940094 10094 20044 51004,0,8.0,0,4827,0,0,1,BR
2026-04-18 11:46:00,SPECI KBED 181146Z 07009KT 2 1/2SM BR OVC015 09/09 A3012 RMK AO2,0,9.0,0,4022,0,0,1,BR
2026-04-18 11:39:00,SPECI KBED 181139Z 07007KT 3SM BR OVC015 09/09 A3012 RMK AO2 T00940094,0,7.0,0,4827,0,0,1,BR
2026-04-18 10:51:00,METAR KBED 181051Z 00000KT 10SM OVC015 08/08 A3013 RMK AO2 SLP215 T00780078,0,0.0,0,16090,0,0,0,
2026-04-18 10:22:00,SPECI KBED 181022Z AUTO 00000KT 10SM BKN015 OVC020 07/07 A3012 RMK AO2 T00720067,0,0.0,0,16090,0,0,0,
2026-04-18 10:03:00,SPECI KBED 181003Z AUTO 00000KT 10SM OVC013 06/06 A3012 RMK AO2 PRESRR T00610061,0,0.0,0,16090,0,0,0,
2026-04-18 09:51:00,METAR KBED 180951Z AUTO 07003KT 9SM FEW002 OVC015 06/06 A3011 RMK AO2 SLP209 T00560056,0,3.0,0,14481,0,0,0,
2026-04-18 09:44:00,SPECI KBED 180944Z AUTO 09005KT 7SM R11/3000VP6000FT SCT002 BKN017 05/05 A3010 RMK AO2 T00500050,0,5.0,0,11263,0,0,0,
2026-04-18 09:41:00,SPECI KBED 180941Z AUTO 08005KT 2 1/2SM R11/3000VP6000FT BR BKN002 BKN017 04/04 A3010 RMK AO2 T00440044,0,5.0,0,4022,0,0,1,BR
2026-04-18 09:38:00,SPECI KBED 180938Z AUTO 08004KT 3/4SM R11/1600VP6000FT BR BKN002 BKN019 04/04 A3010 RMK AO2 T00440044,0,4.0,0,1207,0,0,1,BR
2026-04-18 09:09:00,SPECI KBED 180909Z AUTO 00000KT 1/2SM R11/2400V6000FT FG VV001 06/06 A3009 RMK AO2 T00560056,0,0.0,0,804,0,0,1,FG
2026-04-18 08:51:00,METAR KBED 180851Z AUTO 00000KT 1/4SM R11/1200V2800FT FG VV001 06/06 A3008 RMK AO2 SLP199 T00560056 53001,0,0.0,0,402,0,0,1,FG
2026-04-18 08:39:00,SPECI KBED 180839Z AUTO 00000KT 1/4SM R11/1200V1400FT FG VV001 06/06 A3007 RMK AO2 T00560056,0,0.0,0,402,0,0,1,FG
2026-04-18 08:27:00,SPECI KBED 180827Z AUTO 00000KT 1/4SM R11/1000V1400FT FG VV002 06/06 A3007 RMK AO2 PRESRR T00560056,0,0.0,0,402,0,0,1,FG
2026-04-18 08:12:00,SPECI KBED 180812Z AUTO 00000KT 1/4SM R11/1000V1600FT FG VV001 06/06 A3004 RMK AO2 T00560056,0,0.0,0,402,0,0,1,FG
2026-04-18 08:05:00,SPECI KBED 180805Z AUTO 00000KT 1/4SM R11/1400V2200FT FG VV002 06/06 A3003 RMK AO2 T00560056,0,0.0,0,402,0,0,1,FG
2026-04-18 07:58:00,SPECI KBED 180758Z AUTO 29003KT 1/4SM R11/1200V2200FT FG VV001 05/05 A3003 RMK AO2 T00500050,0,3.0,0,402,0,0,1,FG
2026-04-18 07:51:00,METAR KBED 180751Z AUTO 31003KT 1/4SM R11/1200V1600FT FG VV002 05/05 A3003 RMK AO2 SLP181 T00500050,0,3.0,0,402,0,0,1,FG
2026-04-18 07:38:00,SPECI KBED 180738Z AUTO 00000KT 1/4SM R11/1200V1800FT FG VV002 06/06 A3004 RMK AO2 T00560056,0,0.0,0,402,0,0,1,FG
2026-04-18 07:15:00,SPECI KBED 180715Z AUTO 00000KT 1/4SM R11/1400V2600FT FG VV002 06/06 A3005 RMK AO2 T00610061,0,0.0,0,402,0,0,1,FG
2026-04-18 06:54:00,SPECI KBED 180654Z AUTO 00000KT 1/4SM R11/1000V2200FT FG VV001 05/05 A3007 RMK AO2 T00500050,0,0.0,0,402,0,0,1,FG
2026-04-18 06:51:00,METAR KBED 180651Z AUTO 00000KT 1/4SM R11/1200VP6000FT FG VV002 06/05 A3007 RMK AO2 SLP197 T00560050,0,0.0,0,402,0,0,1,FG
2026-04-18 06:40:00,SPECI KBED 180640Z AUTO 00000KT 1 3/4SM BR BKN002 06/06 A3007 RMK AO2 T00610061,0,0.0,0,2816,0,0,1,BR
2026-04-18 06:38:00,SPECI KBED 180638Z AUTO 00000KT 3SM BR BKN002 06/06 A3007 RMK AO2 T00610061,0,0.0,0,4827,0,0,1,BR
2026-04-18 06:30:00,SPECI KBED 180630Z AUTO 00000KT 2SM R11/3000VP6000FT BR BKN002 06/06 A3008 RMK AO2 T00610061,0,0.0,0,3218,0,0,1,BR
2026-04-18 06:25:00,SPECI KBED 180625Z AUTO 00000KT 3/4SM R11/3000VP6000FT BR VV002 06/06 A3007 RMK AO2 T00560056,0,0.0,0,1207,0,0,1,BR
2026-04-18 06:11:00,SPECI KBED 180611Z AUTO 00000KT 1/4SM R11/2000VP6000FT FG VV002 07/07 A3007 RMK AO2 T00670067,0,0.0,0,402,0,0,1,FG
2026-04-18 05:51:00,METAR KBED 180551Z AUTO 00000KT 1/2SM R11/1200VP6000FT FG VV002 06/06 A3006 RMK AO2 SLP191 T00610061 10111 20061 53003,0,0.0,0,804,0,0,1,FG
2026-04-18 05:40:00,SPECI KBED 180540Z AUTO 00000KT 1/2SM R11/1400V2200FT FG VV002 07/07 A3006 RMK AO2 T00720072,0,0.0,0,804,0,0,1,FG
2026-04-18 05:21:00,SPECI KBED 180521Z AUTO 00000KT 1/4SM R11/1200V1600FT FG VV002 07/06 A3006 RMK AO2 T00670061,0,0.0,0,402,0,0,1,FG
2026-04-18 05:14:00,SPECI KBED 180514Z AUTO 00000KT 3/4SM R11/1200VP6000FT BR VV002 07/07 A3006 RMK AO2 VIS 1/4V5 T00670067,0,0.0,0,1207,0,0,1,BR
2026-04-18 05:08:00,SPECI KBED 180508Z AUTO 00000KT 2SM R11/3500VP6000FT BR OVC002 07/07 A3006 RMK AO2 VIS 1 1/2V4 T00670067,0,0.0,0,3218,0,0,1,BR
2026-04-18 05:01:00,SPECI KBED 180501Z AUTO 33003KT 3/4SM R11/3500VP6000FT BR VV002 07/07 A3006 RMK AO2 T00670067,0,3.0,0,1207,0,0,1,BR
2026-04-18 04:51:00,METAR KBED 180451Z AUTO 00000KT 1/4SM R11/0800VP6000FT FG VV002 07/07 A3005 RMK AO2 SLP191 T00670067 401940067,0,0.0,0,402,0,0,1,FG
2026-04-18 04:34:00,SPECI KBED 180434Z AUTO 00000KT 1SM R11/1200VP6000FT BR VV002 07/07 A3005 RMK AO2 VIS 1/4V3 T00720072,0,0.0,0,1609,0,0,1,BR
2026-04-18 04:27:00,SPECI KBED 180427Z AUTO 00000KT 1/4SM R11/2600VP6000FT FG VV002 07/07 A3004 RMK AO2 T00720072,0,0.0,0,402,0,0,1,FG
2026-04-18 04:18:00,SPECI KBED 180418Z AUTO 00000KT 3/4SM R11/1800V5000FT BR VV002 07/07 A3004 RMK AO2 T00720072,0,0.0,0,1207,0,0,1,BR
2026-04-18 04:15:00,SPECI KBED 180415Z AUTO 00000KT 1 1/4SM R11/1800V5000FT BR FEW002 08/08 A3004 RMK AO2 T00830083,0,0.0,0,2011,0,0,1,BR
2026-04-18 03:57:00,SPECI KBED 180357Z AUTO 00000KT 3/4SM R11/P6000FT BR VV002 08/07 A3004 RMK AO2 VIS 1/2V4 T00780072,0,0.0,0,1207,0,0,1,BR
2026-04-18 03:51:00,METAR KBED 180351Z AUTO 00000KT 1 1/4SM R11/4000VP6000FT BR FEW002 07/07 A3004 RMK AO2 SLP187 T00720072,0,0.0,0,2011,0,0,1,BR
2026-04-18 03:49:00,SPECI KBED 180349Z AUTO 00000KT 1 1/4SM R11/4000VP6000FT BR FEW002 08/08 A3004 RMK AO2,0,0.0,0,2011,0,0,1,BR
2026-04-18 03:46:00,SPECI KBED 180346Z AUTO 00000KT 3/4SM R11/4000VP6000FT BR VV002 08/08 A3005 RMK AO2,0,0.0,0,1207,0,0,1,BR
2026-04-18 03:39:00,SPECI KBED 180339Z AUTO 00000KT 1SM R11/P6000FT BR VV002 08/08 A3004 RMK AO2 VIS 1/4V5 T00780078,0,0.0,0,1609,0,0,1,BR
2026-04-18 03:35:00,SPECI KBED 180335Z AUTO 00000KT 7SM R11/2400VP6000FT FEW002 08/08 A3005 RMK AO2 T00780078,0,0.0,0,11263,0,0,0,
2026-04-18 03:28:00,SPECI KBED 180328Z AUTO 00000KT 2 1/2SM R11/1800VP6000FT BR FEW002 09/08 A3004 RMK AO2 VIS 1V5 T00890083,0,0.0,0,4022,0,0,1,BR
2026-04-18 03:15:00,SPECI KBED 180315Z AUTO 00000KT 3/4SM R11/2000VP6000FT BR VV002 08/08 A3004 RMK AO2 VIS 1/4V5 T00830083,0,0.0,0,1207,0,0,1,BR
2026-04-18 03:06:00,SPECI KBED 180306Z AUTO 00000KT 2SM R11/1600VP6000FT BR CLR 09/08 A3004 RMK AO2 T00890083,0,0.0,0,3218,0,0,1,BR
2026-04-18 02:51:00,METAR KBED 180251Z 00000KT 10SM CLR 08/08 A3004 RMK AO2 SLP186 T00830083 51019,0,0.0,0,16090,0,0,0,
2026-04-18 01:51:00,METAR KBED 180151Z 00000KT 10SM CLR 11/09 A3004 RMK AO2 SLP185 T01060094,0,0.0,0,16090,0,0,0,
2026-04-18 00:51:00,METAR KBED 180051Z 09004KT 10SM CLR 11/09 A3002 RMK AO2 SLP178 T01060089,0,4.0,0,16090,0,0,0,
2026-04-17 23:51:00,METAR KBED 172351Z 15005KT 10SM CLR 13/09 A2999 RMK AO2 SLP167 60000 T01330094 10167 20133 53017,0,5.0,0,16090,0,0,0,
2026-04-17 22:51:00,METAR KBED 172251Z 09004KT 10SM CLR 16/10 A2996 RMK AO2 SLP159 T01610100,0,4.0,0,16090,0,0,0,
2026-04-17 21:51:00,METAR KBED 172151Z 10004KT 10SM CLR 16/10 A2995 RMK AO2 SLP155 T01610100,0,4.0,0,16090,0,0,0,
2026-04-17 20:51:00,METAR KBED 172051Z 05007KT 030V130 10SM FEW019 16/11 A2994 RMK AO2 SLP150 60000 T01610111 53013,0,7.0,0,16090,0,0,0,
2026-04-17 20:09:00,SPECI KBED 172009Z 08008KT 10SM SCT015 SCT090 14/11 A2992 RMK AO2 T01440106,0,8.0,0,16090,0,0,0,
2026-04-17 19:51:00,METAR KBED 171951Z 08010KT 10SM BKN013 OVC085 14/11 A2992 RMK AO2 RAB1858E12 SLP145 P0000 T01440111,0,10.0,0,16090,0,0,0,RA
2026-04-17 18:59:00,SPECI KBED 171859Z 04010KT 7SM -RA BKN014 OVC060 14/12 A2991 RMK AO2 RAB58 P0000 T01440122,0,10.0,0,11263,0,0,0,-RA
2026-04-17 18:51:00,METAR KBED 171851Z 07011KT 10SM SCT014 BKN050 OVC060 15/12 A2991 RMK AO2 SLP141 T01500122,0,11.0,0,16090,0,0,0,
2026-04-17 18:34:00,SPECI KBED 171834Z 05011KT 10SM SCT014 BKN047 OVC055 15/12 A2991 RMK AO2 T01500117,0,11.0,0,16090,0,0,0,
2026-04-17 18:26:00,SPECI KBED 171826Z 06013G17KT 10SM BKN014 OVC046 15/12 A2990 RMK AO2 T01500122,0,13.0,1,16090,0,0,0,
2026-04-17 18:17:00,SPECI KBED 171817Z 05011KT 10SM SCT014 OVC041 16/13 A2990 RMK AO2 T01560128,0,11.0,0,16090,0,0,0,
2026-04-17 17:51:00,METAR KBED 171751Z 06010KT 6SM BR BKN008 BKN014 OVC032 15/13 A2990 RMK AO2 RAE19 SLP138 P0000 60001 T01500133 10194 20128 51022,0,10.0,0,9654,0,0,1,BR
2026-04-17 17:03:00,SPECI KBED 171703Z 06010KT 2 1/2SM -RA BR BKN006 BKN014 OVC022 14/13 A2989 RMK AO2 P0000 T01440133,0,10.0,0,4022,0,0,1,"-RA,BR"
2026-04-17 16:59:00,SPECI KBED 171659Z 03010KT 2 1/2SM -RA BR BKN008 BKN014 OVC022 14/13 A2989 RMK AO2 P0000 T01440133,0,10.0,0,4022,0,0,1,"-RA,BR"
2026-04-17 16:51:00,METAR KBED 171651Z 04007KT 5SM -RA BR BKN010 OVC014 14/13 A2989 RMK AO2 RAB21 SLP134 P0001 T01440133,0,7.0,0,8045,0,0,1,"-RA,BR"
2026-04-17 16:47:00,SPECI KBED 171647Z 04008KT 3SM -RA BR BKN010 OVC016 14/13 A2989 RMK AO2 RAB21 P0001,0,8.0,0,4827,0,0,1,"-RA,BR"
2026-04-17 16:34:00,SPECI KBED 171634Z 04012KT 2SM -RA BR BKN007 OVC016 14/13 A2989 RMK AO2 RAB21 P0001 T01440128,0,12.0,0,3218,0,0,1,"-RA,BR"
2026-04-17 16:23:00,SPECI KBED 171623Z 05011KT 6SM -RA BR BKN007 OVC016 16/13 A2988 RMK AO2 RAB21 P0000 T01560133,0,11.0,0,9654,0,0,1,"-RA,BR"
2026-04-17 15:51:00,METAR KBED 171551Z COR 05013KT 10SM OVC017 17/14 A2986 RMK AO2 SLP123 T01720144,0,13.0,0,16090,0,0,0,
2026-04-17 15:29:00,SPECI KBED 171529Z 03011KT 10SM OVC017 18/15 A2985 RMK AO2 T01830150,0,11.0,0,16090,0,0,0,
2026-04-17 15:11:00,SPECI KBED 171511Z 35008KT 10SM BKN015 BKN045 18/15 A2984 RMK AO2 T01830150,0,8.0,0,16090,0,0,0,
2026-04-17 14:51:00,METAR KBED 171451Z VRB05KT 10SM FEW022 SCT043 BKN050 18/16 A2984 RMK AO2 SLP116 60000 T01830156 53012,0,5.0,0,16090,0,0,0,
2026-04-17 13:51:00,METAR KBED 171351Z 00000KT 10SM SCT020 BKN036 OVC047 14/13 A2983 RMK AO2 SLP115 T01440133,0,0.0,0,16090,0,0,0,
2026-04-17 12:51:00,METAR KBED 171251Z 00000KT 9SM FEW007 BKN031 13/12 A2981 RMK AO2 RAE09 SLP106 P0000 T01330122,0,0.0,0,14481,0,0,0,
2026-04-17 12:46:00,SPECI KBED 171246Z 00000KT 9SM FEW007 BKN031 13/12 A2980 RMK AO2 RAE09 P0000,0,0.0,0,14481,0,0,0,
2026-04-17 11:51:00,METAR KBED 171151Z 12003KT 6SM -RA BR FEW070 OVC100 13/12 A2978 RMK AO2 SLP098 P0006 60017 70017 T01280117 10128 20106 50020,0,3.0,0,9654,0,0,1,"-RA,BR"
2026-04-17 10:51:00,METAR KBED 171051Z 19005KT 4SM RA BR SCT070 BKN090 OVC110 12/12 A2978 RMK AO2 SLP098 P0005 T01220117,0,5.0,0,6436,0,0,1,"BR,RA"
2026-04-17 09:51:00,METAR KBED 170951Z AUTO 00000KT 8SM -RA FEW090 BKN110 12/12 A2973 RMK AO2 RAE0858B41 SLP081 P0001 T01220117,0,0.0,0,12872,0,0,0,"-RA,RA"
2026-04-17 08:51:00,METAR KBED 170851Z AUTO 00000KT 9SM -RA BKN040 12/12 A2972 RMK AO2 RAB03 SLP077 P0002 60005 T01220117 58007,0,0.0,0,14481,0,0,0,-RA
2026-04-17 07:51:00,METAR KBED 170751Z AUTO 13003KT 10SM SCT100 12/11 A2974 RMK AO2 RAE31 SLP082 P0002 T01170111,0,3.0,0,16090,0,0,0,
2026-04-17 06:51:00,METAR KBED 170651Z AUTO 00000KT 8SM -RA BKN055 BKN075 BKN120 12/10 A2974 RMK AO2 LTG DSNT N RAB35 SLP084 P0001 T01170100,0,0.0,0,12872,0,0,0,"-RA,DS"
2026-04-17 05:51:00,METAR KBED 170551Z AUTO 00000KT 10SM CLR 11/09 A2974 RMK AO2 SLP084 T01110094 10122 20089 50010,0,0.0,0,16090,0,0,0,
2026-04-17 04:51:00,METAR KBED 170451Z AUTO 00000KT 10SM FEW012 BKN090 BKN110 12/09 A2976 RMK AO2 SLP090 T01170094 402220089,0,0.0,0,16090,0,0,0,
2026-04-17 03:51:00,METAR KBED 170351Z AUTO 00000KT 10SM CLR 09/08 A2970 RMK AO2 SLP071 T00940083,0,0.0,0,16090,0,0,0,
2026-04-17 02:51:00,METAR KBED 170251Z 00000KT 10SM CLR 09/08 A2971 RMK AO2 SLP074 T00940083 58013,0,0.0,0,16090,0,0,0,
2026-04-17 01:51:00,METAR KBED 170151Z 09004KT 10SM CLR 09/08 A2974 RMK AO2 SLP084 T00940083,0,4.0,0,16090,0,0,0,
2026-04-17 00:51:00,METAR KBED 170051Z 09005KT 10SM CLR 10/08 A2975 RMK AO2 SLP088 T01000083,0,5.0,0,16090,0,0,0,
2026-04-16 23:51:00,METAR KBED 162351Z 08007KT 10SM CLR 11/08 A2975 RMK AO2 SLP087 T01060083 10222 20106 55007,0,7.0,0,16090,0,0,0,
2026-04-16 22:51:00,METAR KBED 162251Z 12007KT 10SM CLR 13/09 A2975 RMK AO2 SLP086 T01280089,0,7.0,0,16090,0,0,0,
2026-04-16 21:51:00,METAR KBED 162151Z 09010KT 10SM CLR 15/10 A2975 RMK AO2 SLP089 T01500100,0,10.0,0,16090,0,0,0,
2026-04-16 20:51:00,METAR KBED 162051Z AUTO 12009KT 10SM CLR 18/12 A2977 RMK AO2 SLP093 T01830117 56022,0,9.0,0,16090,0,0,0,
2026-04-16 19:51:00,METAR KBED 161951Z AUTO 11008KT 10SM CLR 20/13 A2978 RMK AO2 SLP096 T02000128,0,8.0,0,16090,0,0,0,
2026-04-16 18:51:00,METAR KBED 161851Z 10009KT 10SM CLR 22/14 A2980 RMK AO2 SLP105 T02170139,0,9.0,0,16090,0,0,0,
2026-04-16 17:51:00,METAR KBED 161751Z 05007KT 10SM CLR 21/15 A2984 RMK AO2 SLP116 T02060150 10206 20100 58020,0,7.0,0,16090,0,0,0,
2026-04-16 16:51:00,METAR KBED 161651Z VRB03KT 10SM SCT011 17/13 A2987 RMK AO2 SLP126 T01720133,0,3.0,0,16090,0,0,0,
2026-04-16 15:51:00,METAR KBED 161551Z VRB03KT 5SM BR OVC005 14/12 A2990 RMK AO2 SLP137 T01390117,0,3.0,0,8045,0,0,1,BR
2026-04-16 15:29:00,SPECI KBED 161529Z 00000KT 3SM BR OVC004 13/12 A2990 RMK AO2 T01330117,0,0.0,0,4827,0,0,1,BR
2026-04-16 14:51:00,METAR KBED 161451Z 16003KT 2SM BR OVC004 12/11 A2991 RMK AO2 SLP140 T01220106 58002,0,3.0,0,3218,0,0,1,BR
2026-04-16 13:51:00,METAR KBED 161351Z 00000KT 2SM BR OVC004 11/10 A2992 RMK AO2 SLP144 T01110100,0,0.0,0,3218,0,0,1,BR
2026-04-16 13:49:00,SPECI KBED 161349Z 00000KT 2SM BR OVC004 11/11 A2992 RMK AO2,0,0.0,0,3218,0,0,1,BR
2026-04-16 12:51:00,METAR KBED 161251Z 00000KT 1SM R11/P6000FT BR OVC004 10/09 A2991 RMK AO2 SLP142 T01000094,0,0.0,0,1609,0,0,1,BR
2026-04-16 12:13:00,SPECI KBED 161213Z 35003KT 4SM BR OVC004 10/09 A2992 RMK AO2 CIG 002V006 T01000094,0,3.0,0,6436,0,0,1,BR
2026-04-16 11:51:00,METAR KBED 161151Z 00000KT 3SM BR OVC006 10/09 A2990 RMK AO2 SLP139 60018 70020 T01000089 10100 20094 53016,0,0.0,0,4827,0,0,1,BR
2026-04-16 10:51:00,METAR KBED 161051Z 00000KT 10SM OVC005 09/09 A2989 RMK AO2 SLP135 T00940089,0,0.0,0,16090,0,0,0,
2026-04-16 09:51:00,METAR KBED 160951Z AUTO 03004KT 10SM OVC006 09/08 A2986 RMK AO2 SLP126 T00940083,0,4.0,0,16090,0,0,0,
2026-04-16 09:07:00,SPECI KBED 160907Z AUTO 00000KT 10SM BKN005 OVC100 09/09 A2987 RMK AO2 CIG 004V009 PRESRR T00940089,0,0.0,0,16090,0,0,0,
2026-04-16 08:51:00,METAR KBED 160851Z AUTO 01007KT 10SM FEW005 OVC100 09/09 A2985 RMK AO2 RAE51 SLP123 P0006 60018 T00940089 58021,0,7.0,0,16090,0,0,0,
2026-04-16 08:06:00,SPECI KBED 160806Z AUTO 18004KT 6SM -RA BR SCT005 BKN080 OVC090 09/09 A2991 RMK AO2 P0003 T00940089,0,4.0,0,9654,0,0,1,"-RA,BR"
2026-04-16 07:58:00,SPECI KBED 160758Z AUTO 00000KT 6SM -RA BR BKN005 BKN065 OVC095 10/09 A2991 RMK AO2 LTG DSNT S P0001 T01000089,0,0.0,0,9654,0,0,1,"-RA,BR,DS"
2026-04-16 07:51:00,METAR KBED 160751Z AUTO 00000KT 6SM RA BR SCT005 BKN020 OVC095 09/09 A2991 RMK AO2 LTG DSNT S RAE0659B12 SLP142 P0005 T00940089,0,0.0,0,9654,0,0,1,"BR,DS,RA"
2026-04-16 07:01:00,SPECI KBED 160701Z AUTO 35007KT 10SM BKN005 OVC110 09/09 A2988 RMK AO2 RAE0659 PRESRR P0000 T00940089,0,7.0,0,16090,0,0,0,RA
2026-04-16 06:51:00,METAR KBED 160651Z AUTO 04007KT 9SM -RA SCT005 OVC110 10/09 A2986 RMK AO2 SLP123 P0007 T01000089,0,7.0,0,14481,0,0,0,-RA
2026-04-16 05:51:00,METAR KBED 160551Z AUTO 36006KT 7SM -RA FEW008 BKN095 OVC120 10/09 A2992 RMK AO2 LTG DSNT S RAB19 SLP143 P0002 60002 T01000089 10128 20100 53004,0,6.0,0,11263,0,0,0,"-RA,DS"
2026-04-16 05:47:00,SPECI KBED 160547Z AUTO 02006KT 7SM -RA SCT008 BKN090 OVC110 10/09 A2991 RMK AO2 LTG DSNT S RAB19 P0001,0,6.0,0,11263,0,0,0,"-RA,DS"
2026-04-16 04:51:00,METAR KBED 160451Z AUTO 01007KT 10SM OVC007 11/09 A2990 RMK AO2 SLP138 T01060089 402500100,0,7.0,0,16090,0,0,0,
2026-04-16 03:51:00,METAR KBED 160351Z AUTO 08006KT 10SM BKN008 11/09 A2990 RMK AO2 SLP139 T01060094,0,6.0,0,16090,0,0,0,
2026-04-16 03:44:00,SPECI KBED 160344Z AUTO 02005KT 10SM BKN008 BKN095 11/09 A2991 RMK AO2 T01060094,0,5.0,0,16090,0,0,0,
2026-04-16 03:04:00,SPECI KBED 160304Z AUTO 04005KT 10SM SCT008 OVC095 12/09 A2991 RMK AO2 T01170094,0,5.0,0,16090,0,0,0,
2026-04-16 02:51:00,METAR KBED 160251Z AUTO 04004KT 10SM BKN008 BKN100 11/10 A2991 RMK AO2 SLP141 T01110100 50005,0,4.0,0,16090,0,0,0,
2026-04-16 01:51:00,METAR KBED 160151Z 04003KT 10SM OVC006 11/09 A2992 RMK AO2 SLP146 T01110094,0,3.0,0,16090,0,0,0,
2026-04-16 00:51:00,METAR KBED 160051Z 09006KT 10SM OVC007 12/10 A2992 RMK AO2 SLP143 T01170100,0,6.0,0,16090,0,0,0,
2026-04-15 23:51:00,METAR KBED 152351Z 07006KT 10SM OVC009 13/11 A2990 RMK AO2 SLP136 T01280106 10211 20128 53007,0,6.0,0,16090,0,0,0,
2026-04-15 23:05:00,SPECI KBED 152305Z 10010KT 10SM OVC009 13/11 A2989 RMK AO2 CIG 007V011 T01330111,0,10.0,0,16090,0,0,0,
2026-04-15 22:51:00,METAR KBED 152251Z 11010KT 10SM BKN011 BKN070 14/11 A2988 RMK AO2 SLP130 T01390111,0,10.0,0,16090,0,0,0,
2026-04-15 22:46:00,SPECI KBED 152246Z 10009KT 10SM BKN011 BKN070 14/11 A2988 RMK AO2,0,9.0,0,16090,0,0,0,
2026-04-15 21:51:00,METAR KBED 152151Z 10010KT 10SM SCT075 BKN095 15/12 A2988 RMK AO2 SLP129 T01500117,0,10.0,0,16090,0,0,0,
2026-04-15 20:51:00,METAR KBED 152051Z 07010KT 10SM BKN090 15/11 A2988 RMK AO2 SLP129 T01500106 53002,0,10.0,0,16090,0,0,0,
2026-04-15 19:51:00,METAR KBED 151951Z COR 08011KT 10SM FEW008 BKN120 16/11 A2987 RMK AO2 SLP127 T01560111,0,11.0,0,16090,0,0,0,
2026-04-15 18:51:00,METAR KBED 151851Z 12013KT 10SM CLR 18/12 A2985 RMK AO2 SLP120 T01830117,0,13.0,0,16090,0,0,0,
2026-04-15 17:51:00,METAR KBED 151751Z 13013KT 10SM FEW085 21/13 A2987 RMK AO2 SLP126 T02110128 10250 20178 56016,0,13.0,0,16090,0,0,0,
2026-04-15 16:51:00,METAR KBED 151651Z 35003KT 10SM CLR 24/12 A2988 RMK AO2 SLP129 T02440122,0,3.0,0,16090,0,0,0,
2026-04-15 15:51:00,METAR KBED 151551Z 20003KT 10SM CLR 23/13 A2990 RMK AO2 SLP135 T02280128,0,3.0,0,16090,0,0,0,
2026-04-15 14:51:00,METAR KBED 151451Z VRB06KT 10SM CLR 22/13 A2992 RMK AO2 SLP142 T02220128 53014,0,6.0,0,16090,0,0,0,
2026-04-15 13:51:00,METAR KBED 151351Z 27009KT 10SM CLR 21/13 A2990 RMK AO2 SLP138 T02110133,0,9.0,0,16090,0,0,0,
2026-04-15 12:51:00,METAR KBED 151251Z 27006KT 10SM CLR 20/14 A2988 RMK AO2 SLP130 T02000139,0,6.0,0,16090,0,0,0,
2026-04-15 11:51:00,METAR KBED 151151Z 25005KT 10SM CLR 18/14 A2988 RMK AO2 SLP128 70051 T01780144 10178 20150 51020,0,5.0,0,16090,0,0,0,
2026-04-15 10:51:00,METAR KBED 151051Z 24005KT 10SM CLR 16/14 A2987 RMK AO2 SLP127 T01560139,0,5.0,0,16090,0,0,0,
2026-04-15 09:51:00,METAR KBED 150951Z AUTO 27005KT 10SM CLR 16/14 A2983 RMK AO2 SLP114 T01560139,0,5.0,0,16090,0,0,0,
2026-04-15 08:51:00,METAR KBED 150851Z AUTO 22003KT 10SM CLR 16/14 A2982 RMK AO2 SLP107 T01610144 50000,0,3.0,0,16090,0,0,0,
2026-04-15 07:51:00,METAR KBED 150751Z AUTO 25005KT 10SM CLR 17/15 A2982 RMK AO2 SLP110 T01670150,0,5.0,0,16090,0,0,0,
2026-04-15 06:51:00,METAR KBED 150651Z AUTO 22003KT 10SM CLR 17/16 A2981 RMK AO2 SLP105 T01670156,0,3.0,0,16090,0,0,0,
2026-04-15 05:51:00,METAR KBED 150551Z AUTO 24004KT 10SM CLR 17/16 A2981 RMK AO2 SLP106 60051 T01720156 10222 20172 50000,0,4.0,0,16090,0,0,0,
2026-04-15 04:51:00,METAR KBED 150451Z AUTO 24005KT 10SM CLR 18/16 A2982 RMK AO2 SLP108 T01780161 402940139,0,5.0,0,16090,0,0,0,
2026-04-15 03:51:00,METAR KBED 150351Z AUTO 22005KT 10SM CLR 18/17 A2981 RMK AO2 SLP105 T01780167,0,5.0,0,16090,0,0,0,
2026-04-15 02:51:00,METAR KBED 150251Z AUTO 18003KT 10SM CLR 18/17 A2981 RMK AO2 SLP107 60051 T01780167 50023,0,3.0,0,16090,0,0,0,
2026-04-15 01:51:00,METAR KBED 150151Z 20004KT 10SM FEW050 SCT070 SCT085 18/17 A2982 RMK AO2 RAE46 SLP111 P0019 T01780167,0,4.0,0,16090,0,0,0,
2026-04-15 00:51:00,METAR KBED 150051Z 00000KT 6SM RA BR SCT030 BKN047 OVC090 18/17 A2986 RMK AO2 PK WND 32027/0023 WSHFT 0015 RAB21 SLP122 P0032 T01780167,0,0.0,0,9654,0,0,1,"BR,RA"
2026-04-15 00:47:00,SPECI KBED 150047Z 07005KT 3SM -RA BR SCT030 BKN047 OVC095 18/17 A2985 RMK AO2 PK WND 32027/0023 WSHFT 0015 RAB21 P0031,0,5.0,0,4827,0,0,1,"-RA,BR"
2026-04-15 00:31:00,SPECI KBED 150031Z 33012G27KT 1 3/4SM R11/3500VP6000FT +RA SCT024 BKN047 OVC110 19/16 A2987 RMK AO2 PK WND 32027/0023 WSHFT 0015 RAB21 P0018 T01890161,0,12.0,1,2816,0,1,0,+RA
2026-04-15 00:20:00,SPECI KBED 150020Z 36012G21KT 10SM FEW049 BKN075 BKN110 22/13 A2983 RMK AO2 LTG DSNT N PRESRR T02220133,0,12.0,1,16090,0,0,0,DS
2026-04-14 23:51:00,METAR KBED 142351Z 18012KT 10SM CLR 22/13 A2975 RMK AO2 LTG DSNT N AND NW SLP084 T02220128 10294 20222 53000,0,12.0,0,16090,0,0,0,DS
2026-04-14 22:51:00,METAR KBED 142251Z 18011G22KT 10SM CLR 24/13 A2973 RMK AO2 PK WND 18027/2159 SLP079 T02390128,0,11.0,1,16090,0,0,0,
2026-04-14 21:51:00,METAR KBED 142151Z 18016G28KT 10SM CLR 25/13 A2974 RMK AO2 PK WND 18030/2059 SLP081 T02500128,0,16.0,1,16090,0,0,0,
2026-04-14 20:51:00,METAR KBED 142051Z 18016G26KT 10SM FEW100 SCT110 27/13 A2974 RMK AO2 PK WND 17026/2046 SLP084 T02720133 58040,0,16.0,1,16090,0,0,0,
2026-04-14 19:51:00,METAR KBED 141951Z 12011KT 10SM BKN080 BKN110 23/12 A2979 RMK AO2 WSHFT 1855 SLP100 T02280122,0,11.0,0,16090,0,0,0,
2026-04-14 19:15:00,SPECI KBED 141915Z 12017KT 10SM SCT075 BKN090 26/13 A2981 RMK AO2 WSHFT 1855 T02560128,0,17.0,0,16090,0,0,0,
2026-04-14 18:51:00,METAR KBED 141851Z 19010G20KT 10SM BKN080 29/12 A2983 RMK AO2 SLP110 T02890122,0,10.0,1,16090,0,0,0,
2026-04-14 17:51:00,METAR KBED 141751Z 22007G20KT 10SM CLR 28/12 A2986 RMK AO2 SLP123 T02780117 10283 20172 58036,0,7.0,1,16090,0,0,0,
2026-04-14 16:51:00,METAR KBED 141651Z 18005KT 10SM CLR 26/13 A2990 RMK AO2 SLP134 T02610128,0,5.0,0,16090,0,0,0,
2026-04-14 15:51:00,METAR KBED 141551Z 27007KT 10SM CLR 26/12 A2994 RMK AO2 SLP150 T02560122,0,7.0,0,16090,0,0,0,
2026-04-14 14:51:00,METAR KBED 141451Z 31010KT 10SM CLR 23/13 A2997 RMK AO2 SLP160 T02330128 50002,0,10.0,0,16090,0,0,0,
2026-04-14 13:51:00,METAR KBED 141351Z 28007KT 10SM CLR 22/13 A2998 RMK AO2 SLP163 T02170128,0,7.0,0,16090,0,0,0,
2026-04-14 12:51:00,METAR KBED 141251Z 25008KT 10SM CLR 20/13 A2999 RMK AO2 SLP165 T02000133,0,8.0,0,16090,0,0,0,
2026-04-14 11:51:00,METAR KBED 141151Z 24005KT 10SM CLR 17/13 A2997 RMK AO2 SLP158 T01720133 10183 20139 51015,0,5.0,0,16090,0,0,0,
2026-04-14 10:51:00,METAR KBED 141051Z 25005KT 10SM CLR 16/13 A2995 RMK AO2 SLP154 T01560128,0,5.0,0,16090,0,0,0,
2026-04-14 09:51:00,METAR KBED 140951Z AUTO 25004KT 10SM CLR 15/13 A2994 RMK AO2 SLP149 T01500128,0,4.0,0,16090,0,0,0,
2026-04-14 08:51:00,METAR KBED 140851Z AUTO 24006KT 10SM CLR 15/12 A2992 RMK AO2 SLP143 T01500122 53004,0,6.0,0,16090,0,0,0,
2026-04-14 07:51:00,METAR KBED 140751Z AUTO 23003KT 10SM CLR 14/12 A2992 RMK AO2 SLP142 T01390117,0,3.0,0,16090,0,0,0,
2026-04-14 06:51:00,METAR KBED 140651Z AUTO 26005KT 10SM CLR 17/13 A2991 RMK AO2 SLP138 T01670128,0,5.0,0,16090,0,0,0,
2026-04-14 05:51:00,METAR KBED 140551Z AUTO 25007KT 10SM CLR 18/13 A2991 RMK AO2 SLP139 T01780128 10217 20161 50005,0,7.0,0,16090,0,0,0,
2026-04-14 04:51:00,METAR KBED 140451Z AUTO 25005KT 10SM CLR 19/13 A2992 RMK AO2 SLP143 T01890128 402280061,0,5.0,0,16090,0,0,0,
2026-04-14 03:51:00,METAR KBED 140351Z AUTO 24009KT 10SM CLR 19/13 A2990 RMK AO2 SLP135 T01890128,0,9.0,0,16090,0,0,0,
2026-04-14 02:51:00,METAR KBED 140251Z 24005KT 10SM CLR 19/12 A2989 RMK AO2 SLP134 T01890122 51017,0,5.0,0,16090,0,0,0,
2026-04-14 01:51:00,METAR KBED 140151Z 24003KT 10SM FEW060 FEW085 19/12 A2989 RMK AO2 SLP133 T01890122,0,3.0,0,16090,0,0,0,
2026-04-14 00:51:00,METAR KBED 140051Z 18004KT 10SM FEW070 17/11 A2987 RMK AO2 SLP128 T01720111,0,4.0,0,16090,0,0,0,
2026-04-13 23:51:00,METAR KBED 132351Z 28007G16KT 10SM CLR 22/11 A2984 RMK AO2 SLP118 60000 T02170111 10228 20189 53018,0,7.0,1,16090,0,0,0,
2026-04-13 22:51:00,METAR KBED 132251Z 27012G17KT 10SM FEW060 23/11 A2982 RMK AO2 SLP109 T02280111,0,12.0,1,16090,0,0,0,
2026-04-13 22:19:00,SPECI KBED 132219Z 25008KT 10SM BKN070 22/12 A2981 RMK AO2 T02170117,0,8.0,0,16090,0,0,0,
2026-04-13 21:51:00,METAR KBED 132151Z 23010KT 10SM BKN070 OVC085 21/12 A2980 RMK AO2 SLP103 T02110117,0,10.0,0,16090,0,0,0,
2026-04-13 20:51:00,METAR KBED 132051Z 21012G23KT 10SM FEW110 22/12 A2979 RMK AO2 RAB28E38 SLP100 P0000 60000 T02170117 56026,0,12.0,1,16090,0,0,0,RA
2026-04-13 19:51:00,METAR KBED 131951Z 21012G16KT 10SM BKN085 OVC100 21/12 A2981 RMK AO2 SLP107 T02110117,0,12.0,1,16090,0,0,0,
2026-04-13 18:51:00,METAR KBED 131851Z 20010G22KT 10SM CLR 19/12 A2983 RMK AO2 SLP114 T01940117,0,10.0,1,16090,0,0,0,
2026-04-13 17:51:00,METAR KBED 131751Z 21013KT 10SM CLR 18/12 A2987 RMK AO2 PK WND 21026/1732 SLP126 T01830117 10183 20111 58042,0,13.0,0,16090,0,0,0,
2026-04-13 16:51:00,METAR KBED 131651Z COR 21012G21KT 10SM SCT021 16/11 A2992 RMK AO2 SLP145 T01610111,0,12.0,1,16090,0,0,0,
2026-04-13 15:51:00,METAR KBED 131551Z 21015G23KT 10SM SCT021 16/11 A2996 RMK AO2 SLP158 T01610111,0,15.0,1,16090,0,0,0,
2026-04-13 14:51:00,METAR KBED 131451Z 22013G19KT 10SM OVC017 16/11 A2999 RMK AO2 SLP170 T01560106 58032,0,13.0,1,16090,0,0,0,
2026-04-13 13:51:00,METAR KBED 131351Z 22014G24KT 10SM OVC017 14/09 A3003 RMK AO2 PK WND 23026/1253 SLP182 T01390094,0,14.0,1,16090,0,0,0,
2026-04-13 12:51:00,METAR KBED 131251Z 23012G26KT 10SM OVC018 13/09 A3005 RMK AO2 PK WND 25026/1243 SLP191 T01280089,0,12.0,1,16090,0,0,0,
2026-04-13 11:51:00,METAR KBED 131151Z 23007G15KT 10SM OVC020 11/07 A3009 RMK AO2 SLP202 70002 T01110067 10111 20067 56027,0,7.0,1,16090,0,0,0,
2026-04-13 10:51:00,METAR KBED 131051Z 21008KT 10SM OVC027 09/04 A3011 RMK AO2 SLP210 T00940044,0,8.0,0,16090,0,0,0,
2026-04-13 09:51:00,METAR KBED 130951Z AUTO 20009KT 10SM OVC024 08/03 A3013 RMK AO2 SLP217 T00830033,0,9.0,0,16090,0,0,0,
2026-04-13 09:06:00,SPECI KBED 130906Z AUTO 20008KT 10SM BKN028 OVC110 08/04 A3016 RMK AO2 T00780039,0,8.0,0,16090,0,0,0,
2026-04-13 08:51:00,METAR KBED 130851Z AUTO 20010KT 10SM SCT030 OVC110 08/04 A3017 RMK AO2 SLP229 T00780039 56035,0,10.0,0,16090,0,0,0,
2026-04-13 07:51:00,METAR KBED 130751Z AUTO 18007KT 10SM OVC035 08/04 A3020 RMK AO2 SLP239 T00780044,0,7.0,0,16090,0,0,0,
2026-04-13 06:51:00,METAR KBED 130651Z AUTO 20006KT 10SM OVC100 07/04 A3022 RMK AO2 SLP248 T00720039,0,6.0,0,16090,0,0,0,
2026-04-13 05:51:00,METAR KBED 130551Z AUTO 17004KT 10SM SCT017 OVC075 07/03 A3027 RMK AO2 SLP264 60002 T00670033 10089 20061 58025,0,4.0,0,16090,0,0,0,
2026-04-13 05:44:00,SPECI KBED 130544Z AUTO 18006KT 10SM BKN018 OVC070 07/03 A3027 RMK AO2 T00670033,0,6.0,0,16090,0,0,0,
2026-04-13 04:51:00,METAR KBED 130451Z AUTO 19007KT 10SM FEW019 OVC075 06/02 A3031 RMK AO2 SLP276 T00610022 401391022,0,7.0,0,16090,0,0,0,
2026-04-13 03:51:00,METAR KBED 130351Z AUTO 17007KT 10SM OVC070 06/02 A3032 RMK AO2 RAE0258 SLP280 P0000 T00610017,0,7.0,0,16090,0,0,0,RA
2026-04-13 02:51:00,METAR KBED 130251Z 16006KT 10SM -RA OVC075 06/03 A3034 RMK AO2 SLP289 P0002 60002 T00610028 56005,0,6.0,0,16090,0,0,0,-RA
2026-04-13 01:51:00,METAR KBED 130151Z 19007KT 10SM -RA OVC080 07/00 A3035 RMK AO2 RAB0055 SLP293 P0000 T00720000,0,7.0,0,16090,0,0,0,"-RA,RA"
2026-04-13 00:51:00,METAR KBED 130051Z 19009KT 10SM FEW075 OVC095 09/M03 A3034 RMK AO2 SLP287 T00891028,0,9.0,0,16090,0,0,0,
2026-04-12 23:51:00,METAR KBED 122351Z 19008G16KT 10SM OVC110 09/M03 A3036 RMK AO2 SLP295 T00891033 10139 20083 55005,0,8.0,1,16090,0,0,0,
2026-04-12 23:30:00,SPECI KBED 122330Z 19013KT 10SM OVC120 09/M04 A3034 RMK AO2 T00941039,0,13.0,0,16090,0,0,0,
2026-04-12 22:51:00,METAR KBED 122251Z 11004KT 10SM OVC120 08/M03 A3035 RMK AO2 SLP293 T00831028,0,4.0,0,16090,0,0,0,
2026-04-12 21:51:00,METAR KBED 122151Z 13010KT 10SM BKN110 09/M06 A3036 RMK AO2 SLP296 T00891056,0,10.0,0,16090,0,0,0,
2026-04-12 20:51:00,METAR KBED 122051Z 11012KT 10SM FEW120 09/M07 A3037 RMK AO2 SLP300 T00941067 56024,0,12.0,0,16090,0,0,0,
2026-04-12 19:51:00,METAR KBED 121951Z 12011KT 10SM CLR 13/M06 A3038 RMK AO2 SLP303 T01331061,0,11.0,0,16090,0,0,0,
2026-04-12 18:51:00,METAR KBED 121851Z 13010KT 10SM CLR 13/M06 A3040 RMK AO2 SLP311 T01331061,0,10.0,0,16090,0,0,0,
2026-04-12 17:51:00,METAR KBED 121751Z 23006KT 10SM CLR 12/M07 A3044 RMK AO2 SLP323 T01221067 10128 20039 58021,0,6.0,0,16090,0,0,0,
2026-04-12 16:51:00,METAR KBED 121651Z 17007KT 10SM CLR 12/M06 A3046 RMK AO2 SLP327 T01221056,0,7.0,0,16090,0,0,0,
2026-04-12 15:51:00,METAR KBED 121551Z VRB03KT 10SM CLR 10/M07 A3050 RMK AO2 SLP341 T01001067,0,3.0,0,16090,0,0,0,
2026-04-12 14:51:00,METAR KBED 121451Z 15011G16KT 10SM CLR 09/M07 A3051 RMK AO2 SLP344 T00941067 51001,0,11.0,1,16090,0,0,0,
2026-04-12 13:51:00,METAR KBED 121351Z 12004KT 10SM CLR 08/M07 A3051 RMK AO2 SLP344 T00831072,0,4.0,0,16090,0,0,0,
2026-04-12 12:51:00,METAR KBED 121251Z 09004KT 10SM CLR 07/M06 A3052 RMK AO2 SLP347 T00721061,0,4.0,0,16090,0,0,0,
2026-04-12 11:51:00,METAR KBED 121151Z 00000KT 10SM CLR 04/M06 A3051 RMK AO2 SLP345 T00391056 10044 21022 53024,0,0.0,0,16090,0,0,0,
2026-04-12 10:51:00,METAR KBED 121051Z 00000KT 10SM CLR M01/M06 A3048 RMK AO2 SLP335 T10111056,0,0.0,0,16090,0,0,0,
2026-04-12 09:51:00,METAR KBED 120951Z AUTO 31003KT 10SM CLR 00/M04 A3044 RMK AO2 SLP323 T00001044,0,3.0,0,16090,0,0,0,
2026-04-12 08:51:00,METAR KBED 120851Z AUTO 00000KT 10SM CLR 01/M06 A3043 RMK AO2 SLP321 T00111056 53008,0,0.0,0,16090,0,0,0,
2026-04-12 07:51:00,METAR KBED 120751Z AUTO 29005KT 10SM CLR 00/M06 A3042 RMK AO2 SLP316 T00001056,0,5.0,0,16090,0,0,0,
2026-04-12 06:51:00,METAR KBED 120651Z AUTO 00000KT 10SM CLR 02/M06 A3041 RMK AO2 SLP311 T00221056,0,0.0,0,16090,0,0,0,
2026-04-12 05:51:00,METAR KBED 120551Z AUTO 29004KT 10SM CLR 04/M06 A3041 RMK AO2 SLP312 T00441061 10106 20033 51021,0,4.0,0,16090,0,0,0,
2026-04-12 04:51:00,METAR KBED 120451Z AUTO 00000KT 10SM CLR 05/M07 A3040 RMK AO2 SLP308 T00501067 401500050,0,0.0,0,16090,0,0,0,
2026-04-12 03:51:00,METAR KBED 120351Z AUTO 34010G22KT 10SM CLR 07/M06 A3038 RMK AO2 SLP302 T00671061,0,10.0,1,16090,0,0,0,
2026-04-12 02:51:00,METAR KBED 120251Z 35012G20KT 10SM CLR 08/M06 A3035 RMK AO2 SLP291 T00781061 51035,0,12.0,1,16090,0,0,0,
2026-04-12 01:51:00,METAR KBED 120151Z 36007KT 10SM CLR 08/M06 A3032 RMK AO2 SLP280 T00831056,0,7.0,0,16090,0,0,0,
2026-04-12 00:51:00,METAR KBED 120051Z 33005KT 10SM CLR 09/M06 A3029 RMK AO2 SLP269 T00891056,0,5.0,0,16090,0,0,0,
2026-04-11 23:51:00,METAR KBED 112351Z 33006KT 10SM CLR 11/M05 A3025 RMK AO2 SLP256 T01061050 10150 20106 53031,0,6.0,0,16090,0,0,0,
2026-04-11 22:51:00,METAR KBED 112251Z 33008KT 10SM CLR 12/M05 A3021 RMK AO2 SLP244 T01221050,0,8.0,0,16090,0,0,0,
2026-04-11 21:51:00,METAR KBED 112151Z 31014G24KT 10SM CLR 14/M05 A3018 RMK AO2 SLP231 T01391050,0,14.0,1,16090,0,0,0,
2026-04-11 20:51:00,METAR KBED 112051Z 33015G21KT 10SM SCT070 14/M04 A3015 RMK AO2 SLP224 T01441044 53002,0,15.0,1,16090,0,0,0,
2026-04-11 19:51:00,METAR KBED 111951Z 32012G23KT 10SM SCT070 15/M04 A3014 RMK AO2 PK WND 32027/1936 SLP218 T01501039,0,12.0,1,16090,0,0,0,
2026-04-11 18:51:00,METAR KBED 111851Z 33011G23KT 10SM SCT070 14/M03 A3014 RMK AO2 SLP220 T01441033,0,11.0,1,16090,0,0,0,
2026-04-11 17:51:00,METAR KBED 111751Z 27016G24KT 10SM SCT065 14/M03 A3015 RMK AO2 PK WND 28030/1710 SLP221 T01441028 10150 20094 55004,0,16.0,1,16090,0,0,0,
2026-04-11 16:51:00,METAR KBED 111651Z 29019G27KT 10SM FEW055 14/M03 A3014 RMK AO2 PK WND 30028/1637 SLP219 T01391033,0,19.0,1,16090,0,0,0,
2026-04-11 15:51:00,METAR KBED 111551Z 35011G25KT 10SM FEW055 13/M02 A3015 RMK AO2 SLP222 T01281022,0,11.0,1,16090,0,0,0,
2026-04-11 14:51:00,METAR KBED 111451Z 33019G27KT 10SM CLR 12/M03 A3016 RMK AO2 PK WND 33028/1435 SLP226 T01171028 50014,0,19.0,1,16090,0,0,0,
2026-04-11 13:51:00,METAR KBED 111351Z 31014G27KT 10SM CLR 11/M02 A3016 RMK AO2 PK WND 32028/1334 SLP227 T01111022,0,14.0,1,16090,0,0,0,
2026-04-11 12:51:00,METAR KBED 111251Z 34017G25KT 10SM CLR 09/M01 A3014 RMK AO2 PK WND 31026/1155 SLP221 T00941011,0,17.0,1,16090,0,0,0,
2026-04-11 11:51:00,METAR KBED 111151Z 33016G31KT 10SM SCT029 10/02 A3012 RMK AO2 PK WND 33031/1143 SLP212 T01000017 10117 20094 53035,0,16.0,1,16090,0,0,0,
2026-04-11 10:51:00,METAR KBED 111051Z 32012KT 10SM BKN029 OVC038 11/04 A3008 RMK AO2 SLP199 T01060044,0,12.0,0,16090,0,0,0,
2026-04-11 10:31:00,SPECI KBED 111031Z AUTO 36009KT 10SM OVC029 11/06 A3007 RMK AO2 T01110056,0,9.0,0,16090,0,0,0,
2026-04-11 09:51:00,METAR KBED 110951Z AUTO 34010G17KT 10SM BKN031 12/06 A3003 RMK AO2 SLP183 T01170056,0,10.0,1,16090,0,0,0,
2026-04-11 08:51:00,METAR KBED 110851Z AUTO 25006KT 10SM BKN048 11/02 A3001 RMK AO2 SLP176 T01110022 53001,0,6.0,0,16090,0,0,0,
2026-04-11 07:51:00,METAR KBED 110751Z AUTO 23004KT 10SM BKN033 BKN043 OVC050 11/01 A3000 RMK AO2 SLP173 T01110011,0,4.0,0,16090,0,0,0,
2026-04-11 06:51:00,METAR KBED 110651Z AUTO 23005KT 10SM FEW070 OVC100 11/01 A3000 RMK AO2 SLP171 T01110006,0,5.0,0,16090,0,0,0,
2026-04-11 05:51:00,METAR KBED 110551Z AUTO 22004KT 10SM BKN100 BKN120 12/01 A3001 RMK AO2 SLP174 T01170006 10139 20117 56021,0,4.0,0,16090,0,0,0,
2026-04-11 04:51:00,METAR KBED 110451Z AUTO 21006KT 10SM CLR 12/M01 A3003 RMK AO2 SLP182 T01221006 402280006,0,6.0,0,16090,0,0,0,
2026-04-11 03:51:00,METAR KBED 110351Z AUTO 22010G19KT 10SM FEW090 OVC110 12/M02 A3004 RMK AO2 SLP185 T01221017,0,10.0,1,16090,0,0,0,
2026-04-11 02:51:00,METAR KBED 110251Z 23011KT 10SM FEW110 13/M02 A3007 RMK AO2 SLP195 T01281022 50003,0,11.0,0,16090,0,0,0,
2026-04-11 01:51:00,METAR KBED 110151Z 22011G21KT 10SM CLR 13/M02 A3008 RMK AO2 SLP198 T01331022,0,11.0,1,16090,0,0,0,
2026-04-11 00:51:00,METAR KBED 110051Z 21013KT 10SM CLR 13/M01 A3007 RMK AO2 SLP196 T01331006,0,13.0,0,16090,0,0,0,
2026-04-10 23:51:00,METAR KBED 102351Z 19011G21KT 10SM CLR 14/00 A3006 RMK AO2 SLP193 T01390000 10228 20139 55002,0,11.0,1,16090,0,0,0,
2026-04-10 22:51:00,METAR KBED 102251Z 19013KT 10SM CLR 16/00 A3005 RMK AO2 SLP190 T01610000,0,13.0,0,16090,0,0,0,
2026-04-10 21:51:00,METAR KBED 102151Z 18017G25KT 10SM CLR 18/02 A3005 RMK AO2 SLP191 T01830022,0,17.0,1,16090,0,0,0,
2026-04-10 20:51:00,METAR KBED 102051Z 20013G21KT 10SM CLR 21/02 A3007 RMK AO2 SLP196 T02110022 56033,0,13.0,1,16090,0,0,0,
2026-04-10 19:51:00,METAR KBED 101951Z 21016KT 10SM CLR 22/02 A3010 RMK AO2 SLP205 T02220022,0,16.0,0,16090,0,0,0,
2026-04-10 18:51:00,METAR KBED 101851Z 20011G21KT 10SM CLR 21/03 A3014 RMK AO2 SLP218 T02110028,0,11.0,1,16090,0,0,0,
2026-04-10 17:51:00,METAR KBED 101751Z 21014G20KT 10SM CLR 21/03 A3017 RMK AO2 SLP229 T02060028 10206 20044 58035,0,14.0,1,16090,0,0,0,
2026-04-10 16:51:00,METAR KBED 101651Z 20009G17KT 10SM CLR 18/02 A3020 RMK AO2 SLP240 T01830022,0,9.0,1,16090,0,0,0,
2026-04-10 15:51:00,METAR KBED 101551Z 20009G17KT 10SM CLR 17/01 A3024 RMK AO2 SLP253 T01670011,0,9.0,1,16090,0,0,0,
2026-04-10 14:51:00,METAR KBED 101451Z 22004G12KT 10SM CLR 14/01 A3027 RMK AO2 SLP264 T01390011 56022,0,4.0,1,16090,0,0,0,
2026-04-10 13:51:00,METAR KBED 101351Z 20007KT 10SM CLR 10/02 A3029 RMK AO2 SLP271 T01000017,0,7.0,0,16090,0,0,0,
2026-04-10 12:51:00,METAR KBED 101251Z 22008KT 10SM CLR 07/01 A3031 RMK AO2 SLP279 T00720011,0,8.0,0,16090,0,0,0,
2026-04-10 11:51:00,METAR KBED 101151Z 20006KT 10SM CLR 04/01 A3033 RMK AO2 SLP287 T00440011 10044 20006 58009,0,6.0,0,16090,0,0,0,
2026-04-10 10:51:00,METAR KBED 101051Z 00000KT 10SM CLR 02/00 A3035 RMK AO2 SLP294 T00170000,0,0.0,0,16090,0,0,0,
2026-04-10 09:51:00,METAR KBED 100951Z AUTO 15005KT 10SM FEW110 01/M01 A3034 RMK AO2 SLP290 T00111006,0,5.0,0,16090,0,0,0,
2026-04-10 08:51:00,METAR KBED 100851Z AUTO 17003KT 10SM BKN110 01/M01 A3036 RMK AO2 SLP296 T00111006 55016,0,3.0,0,16090,0,0,0,
2026-04-10 07:51:00,METAR KBED 100751Z AUTO 22005KT 10SM CLR 02/M01 A3036 RMK AO2 SLP293 T00171006,0,5.0,0,16090,0,0,0,
2026-04-10 06:51:00,METAR KBED 100651Z AUTO VRB03KT 10SM CLR 02/M01 A3037 RMK AO2 SLP299 T00171011,0,3.0,0,16090,0,0,0,
2026-04-10 05:51:00,METAR KBED 100551Z AUTO 16006KT 10SM CLR 01/M03 A3041 RMK AO2 SLP313 T00111028 10072 20011 58010,0,6.0,0,16090,0,0,0,
2026-04-10 04:51:00,METAR KBED 100451Z AUTO 20003KT 10SM CLR 02/M03 A3044 RMK AO2 SLP324 T00221028 401501039,0,3.0,0,16090,0,0,0,
2026-04-10 03:51:00,METAR KBED 100351Z AUTO 21005KT 10SM CLR 03/M03 A3044 RMK AO2 SLP321 T00281033,0,5.0,0,16090,0,0,0,
2026-04-10 02:51:00,METAR KBED 100251Z AUTO 19007KT 10SM CLR 04/M04 A3044 RMK AO2 SLP323 T00391039 58001,0,7.0,0,16090,0,0,0,
2026-04-10 01:51:00,METAR KBED 100151Z 18004KT 10SM CLR 04/M03 A3044 RMK AO2 SLP322 T00391033,0,4.0,0,16090,0,0,0,
2026-04-10 00:51:00,METAR KBED 100051Z 19008KT 10SM CLR 06/M03 A3044 RMK AO2 SLP324 T00561033,0,8.0,0,16090,0,0,0,
2026-04-09 23:51:00,METAR KBED 092351Z 19010KT 10SM CLR 07/M04 A3044 RMK AO2 SLP324 T00721039 10150 20072 53001,0,10.0,0,16090,0,0,0,
2026-04-09 22:51:00,METAR KBED 092251Z 18011KT 10SM CLR 09/M05 A3044 RMK AO2 SLP323 T00941050,0,11.0,0,16090,0,0,0,
2026-04-09 21:51:00,METAR KBED 092151Z 17015G22KT 10SM CLR 12/M05 A3044 RMK AO2 SLP322 T01171050,0,15.0,1,16090,0,0,0,
2026-04-09 20:51:00,METAR KBED 092051Z AUTO 17016G22KT 10SM CLR 13/M06 A3044 RMK AO2 SLP323 T01331056 56022,0,16.0,1,16090,0,0,0,
2026-04-09 19:51:00,METAR KBED 091951Z AUTO 19012G21KT 10SM CLR 14/M06 A3046 RMK AO2 SLP328 T01441056,0,12.0,1,16090,0,0,0,
2026-04-09 18:51:00,METAR KBED 091851Z 17015G21KT 10SM CLR 14/M07 A3048 RMK AO2 SLP336 T01441067,0,15.0,1,16090,0,0,0,
2026-04-09 17:51:00,METAR KBED 091751Z 18016G22KT 10SM CLR 14/M11 A3051 RMK AO2 SLP345 T01391111 10144 20017 56026,0,16.0,1,16090,0,0,0,
2026-04-09 16:51:00,METAR KBED 091651Z 19013G20KT 10SM CLR 13/M11 A3052 RMK AO2 SLP351 T01331106,0,13.0,1,16090,0,0,0,
2026-04-09 15:51:00,METAR KBED 091551Z 15014G23KT 10SM CLR 12/M11 A3055 RMK AO2 SLP361 T01171106,0,14.0,1,16090,0,0,0,
2026-04-09 14:51:00,METAR KBED 091451Z 19013G19KT 10SM CLR 09/M11 A3058 RMK AO2 SLP371 T00941106 58013,0,13.0,1,16090,0,0,0,
2026-04-09 13:51:00,METAR KBED 091351Z 21005KT 10SM CLR 08/M06 A3060 RMK AO2 SLP377 T00781061,0,5.0,0,16090,0,0,0,
2026-04-09 12:51:00,METAR KBED 091251Z 21006KT 10SM CLR 05/M03 A3061 RMK AO2 SLP382 T00501028,0,6.0,0,16090,0,0,0,
2026-04-09 11:51:00,METAR KBED 091151Z 21005KT 10SM CLR 02/M02 A3062 RMK AO2 SLP386 T00171017 10017 21039 53010 $,0,5.0,0,16090,0,0,0,
2026-04-09 10:51:00,METAR KBED 091051Z 00000KT 10SM CLR M03/M04 A3061 RMK AO2 SLP383 T10331044 $,0,0.0,0,16090,0,0,0,
2026-04-09 09:51:00,METAR KBED 090951Z AUTO 00000KT 10SM CLR M03/M04 A3060 RMK AO2 SLP377 T10281039 $,0,0.0,0,16090,0,0,0,
2026-04-09 08:51:00,METAR KBED 090851Z AUTO 16003KT 10SM CLR M02/M04 A3059 RMK AO2 SLP376 T10171039 53001 $,0,3.0,0,16090,0,0,0,
2026-04-09 07:51:00,METAR KBED 090751Z AUTO 19003KT 10SM CLR 00/M03 A3059 RMK AO2 SLP374 T00001033 $,0,3.0,0,16090,0,0,0,
2026-04-09 06:51:00,METAR KBED 090651Z AUTO 21003KT 10SM CLR M01/M03 A3058 RMK AO2 SLP372 T10061033 $,0,3.0,0,16090,0,0,0,
2026-04-09 05:51:00,METAR KBED 090551Z AUTO 21004KT 10SM CLR 00/M04 A3059 RMK AO2 SLP375 T00001044 10022 21006 50001 $,0,4.0,0,16090,0,0,0,
2026-04-09 04:51:00,METAR KBED 090451Z AUTO 24004KT 10SM CLR 01/M04 A3060 RMK AO2 SLP379 T00061044 400831033 $,0,4.0,0,16090,0,0,0,
2026-04-09 03:51:00,METAR KBED 090351Z AUTO 17005KT 10SM CLR 01/M06 A3060 RMK AO2 SLP378 T00061061 $,0,5.0,0,16090,0,0,0,
2026-04-09 02:51:00,METAR KBED 090251Z 17007KT 10SM CLR 02/M06 A3059 RMK AO2 SLP374 T00171061 50011 $,0,7.0,0,16090,0,0,0,
2026-04-09 01:51:00,METAR KBED 090151Z 16006KT 10SM CLR 02/M06 A3059 RMK AO2 SLP375 T00171061 $,0,6.0,0,16090,0,0,0,
2026-04-09 00:51:00,METAR KBED 090051Z 15003KT 10SM CLR 02/M06 A3058 RMK AO2 SLP371 T00171061 $,0,3.0,0,16090,0,0,0,
2026-04-08 23:51:00,METAR KBED 082351Z 13006KT 10SM CLR 02/M07 A3056 RMK AO2 SLP363 T00221067 10083 20022 51004 $,0,6.0,0,16090,0,0,0,
2026-04-08 22:51:00,METAR KBED 082251Z 12007KT 10SM CLR 04/M07 A3055 RMK AO2 SLP362 T00391072 $,0,7.0,0,16090,0,0,0,
2026-04-08 21:51:00,METAR KBED 082151Z 11010KT 10SM CLR 06/M08 A3055 RMK AO2 SLP362 T00611078 $,0,10.0,0,16090,0,0,0,
2026-04-08 20:51:00,METAR KBED 082051Z 14009KT 10SM CLR 07/M08 A3055 RMK AO2 SLP359 T00721083 56014 $,0,9.0,0,16090,0,0,0,
2026-04-08 19:51:00,METAR KBED 081951Z AUTO 00000KT 10SM CLR 07/M09 A3056 RMK AO2 SLP365 T00671089 $,0,0.0,0,16090,0,0,0,
2026-04-08 18:51:00,METAR KBED 081851Z 35007KT 10SM CLR 08/M12 A3057 RMK AO2 SLP367 T00781117 $,0,7.0,0,16090,0,0,0,
2026-04-08 17:51:00,METAR KBED 081751Z VRB05KT 10SM CLR 07/M12 A3059 RMK AO2 SLP373 T00671117 10067 21011 58018 $,0,5.0,0,16090,0,0,0,
2026-04-08 16:51:00,METAR KBED 081651Z 16006KT 10SM CLR 05/M12 A3060 RMK AO2 SLP379 T00501117 $,0,6.0,0,16090,0,0,0,
2026-04-08 15:51:00,METAR KBED 081551Z 00000KT 10SM CLR 03/M12 A3063 RMK AO2 SLP387 T00331122 $,0,0.0,0,16090,0,0,0,
2026-04-08 14:51:00,METAR KBED 081451Z 07005KT 10SM CLR 03/M12 A3064 RMK AO2 SLP391 T00281117 51009 $,0,5.0,0,16090,0,0,0,
2026-04-08 13:51:00,METAR KBED 081351Z VRB05KT 10SM CLR 02/M12 A3063 RMK AO2 SLP389 T00171117 $,0,5.0,0,16090,0,0,0,
2026-04-08 12:51:00,METAR KBED 081251Z 03007KT 10SM CLR 00/M12 A3063 RMK AO2 SLP389 T00001117 $,0,7.0,0,16090,0,0,0,
2026-04-08 11:51:00,METAR KBED 081151Z 35006KT 10SM CLR M01/M11 A3061 RMK AO2 SLP382 70010 T10111111 11011 21033 53033 $,0,6.0,0,16090,0,0,0,
2026-04-08 10:51:00,METAR KBED 081051Z 34003KT 10SM CLR M03/M11 A3058 RMK AO2 SLP371 T10281106 $,0,3.0,0,16090,0,0,0,
2026-04-08 09:51:00,METAR KBED 080951Z AUTO 34006KT 10SM CLR M03/M11 A3055 RMK AO2 SLP360 T10331106 $,0,6.0,0,16090,0,0,0,
2026-04-08 08:51:00,METAR KBED 080851Z AUTO 34007KT 10SM CLR M03/M10 A3052 RMK AO2 SLP350 T10281100 53023 $,0,7.0,0,16090,0,0,0,
2026-04-08 07:51:00,METAR KBED 080751Z AUTO 33010KT 10SM CLR M02/M09 A3049 RMK AO2 SLP341 T10221094,0,10.0,0,16090,0,0,0,
2026-04-08 06:51:00,METAR KBED 080651Z AUTO 32008KT 10SM CLR M02/M09 A3047 RMK AO2 SLP334 T10221089,0,8.0,0,16090,0,0,0,
2026-04-08 05:51:00,METAR KBED 080551Z AUTO 33010G17KT 10SM CLR M02/M09 A3045 RMK AO2 SLP327 T10171094 10028 21017 51027,0,10.0,1,16090,0,0,0,
2026-04-08 04:51:00,METAR KBED 080451Z AUTO 32011KT 10SM CLR M01/M09 A3044 RMK AO2 SLP323 T10111094 400781039,0,11.0,0,16090,0,0,0,
2026-04-08 03:51:00,METAR KBED 080351Z AUTO 31014G23KT 10SM CLR 00/M08 A3041 RMK AO2 PK WND 30029/0330 SLP314 T00001078,0,14.0,1,16090,0,0,0,
2026-04-08 02:51:00,METAR KBED 080251Z AUTO 31009G16KT 10SM CLR 01/M07 A3037 RMK AO2 SLP299 T00061067 51034,0,9.0,1,16090,0,0,0,
2026-04-08 01:51:00,METAR KBED 080151Z 28006KT 10SM FEW049 01/M07 A3035 RMK AO2 SLP292 T00111072,0,6.0,0,16090,0,0,0,
2026-04-08 00:51:00,METAR KBED 080051Z 27005KT 10SM FEW075 02/M08 A3031 RMK AO2 SLP281 T00171083,0,5.0,0,16090,0,0,0,
2026-04-07 23:51:00,METAR KBED 072351Z 29011KT 10SM SCT065 03/M08 A3027 RMK AO2 SLP265 60004 T00281083 10078 20028 53039,0,11.0,0,16090,0,0,0,
2026-04-07 22:51:00,METAR KBED 072251Z 30011G21KT 10SM FEW070 04/M10 A3023 RMK AO2 PK WND 30026/2221 SLP252 T00391100,0,11.0,1,16090,0,0,0,
2026-04-07 21:51:00,METAR KBED 072151Z 30018G26KT 10SM OVC065 06/M07 A3019 RMK AO2 PK WND 30026/2151 SLP238 T00561072,0,18.0,1,16090,0,0,0,
2026-04-07 20:51:00,METAR KBED 072051Z 30011KT 10SM FEW041 BKN060 06/M02 A3015 RMK AO2 RAB1953E11 SLP226 P0001 60004 T00561022 51016,0,11.0,0,16090,0,0,0,RA
2026-04-07 19:51:00,METAR KBED 071951Z 30009KT 10SM FEW016 SCT024 OVC070 05/02 A3014 RMK AO2 RAE36 SLP221 P0001 T00500022,0,9.0,0,16090,0,0,0,
2026-04-07 18:51:00,METAR KBED 071851Z 32010KT 7SM -RA BKN012 OVC030 05/02 A3012 RMK AO2 RAB25 SLP216 P0002 T00500022,0,10.0,0,11263,0,0,0,-RA
2026-04-07 17:51:00,METAR KBED 071751Z 36005KT 10SM BKN016 BKN049 07/03 A3011 RMK AO2 RAB28E46 SLP210 P0001 60006 T00670033 10067 20011 56007,0,5.0,0,16090,0,0,0,RA
2026-04-07 16:51:00,METAR KBED 071651Z 00000KT 10SM BKN010 BKN022 05/02 A3011 RMK AO2 SLP210 T00500022,0,0.0,0,16090,0,0,0,
2026-04-07 15:51:00,METAR KBED 071551Z VRB04KT 10SM OVC012 04/02 A3011 RMK AO2 RAE20 SLP212 P0000 T00390022,0,4.0,0,16090,0,0,0,
2026-04-07 15:20:00,SPECI KBED 071520Z 12006KT 10SM BKN010 BKN021 OVC038 03/02 A3012 RMK AO2 RAE20 P0000 T00330017,0,6.0,0,16090,0,0,0,
2026-04-07 14:51:00,METAR KBED 071451Z 11004KT 5SM -RA BR BKN008 OVC050 03/01 A3013 RMK AO2 RAB48SNB1352E48 SLP217 P0000 60005 T00330011 55008,0,4.0,0,8045,0,0,1,"-RA,BR,RA"
2026-04-07 13:51:00,METAR KBED 071351Z 10009KT 5SM BR BKN003 OVC020 02/01 A3012 RMK AO2 UPB24E26SNE24 SLP215 P0002 T00220011,0,9.0,0,8045,0,0,1,"BR,UP"
2026-04-07 12:51:00,METAR KBED 071251Z 13006KT 1SM R11/P6000FT -SN BR BKN006 OVC030 02/00 A3013 RMK AO2 SLP218 P0003 T00170000,0,6.0,0,1609,0,0,1,"BR,SN"
2026-04-07 12:08:00,SPECI KBED 071208Z 13004KT 3/4SM R11/3000V5500FT -SN BR VV004 01/M01 A3015 RMK AO2 P0002 T00061006,0,4.0,0,1207,0,0,1,"BR,SN"
2026-04-07 12:01:00,SPECI KBED 071201Z 15006KT 1SM R11/4500VP6000FT -SN BR VV014 01/M01 A3015 RMK AO2 P0001 T00111011,0,6.0,0,1609,0,0,1,"BR,SN"
2026-04-07 11:48:00,METAR KBED 071148Z 19005KT 2SM R11/4500VP6000FT -SN BKN022 OVC049 02/M02 A3015 RMK AO2 SNB42 SLP225 P0000 60000 7//// T00171022 10028 21039 53013,0,5.0,0,3218,0,0,0,SN
2026-04-07 11:47:00,SPECI KBED 071147Z 19006KT 2SM R11/4500VP6000FT -SN BKN022 OVC049 02/M02 A3015 RMK AO2 SNB42 P0000,0,6.0,0,3218,0,0,0,SN
2026-04-07 10:51:00,METAR KBED 071051Z 00000KT 10SM BKN047 OVC060 01/M03 A3013 RMK AO2 SLP217 T00111028,0,0.0,0,16090,0,0,0,
2026-04-07 09:51:00,METAR KBED 070951Z AUTO 00000KT 10SM SCT038 OVC065 02/M03 A3012 RMK AO2 SLP215 T00171028,0,0.0,0,16090,0,0,0,
2026-04-07 08:51:00,METAR KBED 070851Z AUTO 00000KT 10SM OVC065 M01/M03 A3011 RMK AO2 SLP212 T10111028 55000,0,0.0,0,16090,0,0,0,
2026-04-07 07:51:00,METAR KBED 070751Z AUTO 00000KT 10SM OVC095 M01/M04 A3010 RMK AO2 SLP209 T10111039,0,0.0,0,16090,0,0,0,
2026-04-07 06:51:00,METAR KBED 070651Z AUTO 00000KT 10SM OVC090 M02/M04 A3010 RMK AO2 SLP209 T10171044,0,0.0,0,16090,0,0,0,
2026-04-07 05:51:00,METAR KBED 070551Z AUTO 00000KT 10SM SCT095 M03/M04 A3011 RMK AO2 SLP212 T10281044 10056 21028 53006,0,0.0,0,16090,0,0,0,
2026-04-07 04:51:00,METAR KBED 070451Z AUTO 00000KT 10SM CLR M02/M04 A3010 RMK AO2 SLP209 T10171044 401001022,0,0.0,0,16090,0,0,0,
2026-04-07 03:51:00,METAR KBED 070351Z AUTO 00000KT 10SM CLR M01/M04 A3010 RMK AO2 SLP207 T10061044,0,0.0,0,16090,0,0,0,
2026-04-07 02:51:00,METAR KBED 070251Z AUTO 20003KT 10SM CLR 01/M05 A3010 RMK AO2 SLP206 T00111050 51023,0,3.0,0,16090,0,0,0,
2026-04-07 01:51:00,METAR KBED 070151Z 26004KT 10SM CLR 03/M05 A3009 RMK AO2 SLP204 T00331050,0,4.0,0,16090,0,0,0,
2026-04-07 00:51:00,METAR KBED 070051Z 31010KT 10SM CLR 04/M04 A3007 RMK AO2 SLP198 T00391044,0,10.0,0,16090,0,0,0,
2026-04-06 23:51:00,METAR KBED 062351Z 30012G20KT 10SM FEW065 06/M06 A3003 RMK AO2 PK WND 30027/2253 SLP182 T00561056 10100 20050 53040,0,12.0,1,16090,0,0,0,
2026-04-06 22:51:00,METAR KBED 062251Z 29017G24KT 10SM SCT065 07/M07 A2998 RMK AO2 PK WND 29027/2213 PRESRR SLP166 T00671072,0,17.0,1,16090,0,0,0,
2026-04-06 21:51:00,METAR KBED 062151Z 28012G21KT 10SM SCT060 08/M07 A2993 RMK AO2 PK WND 28033/2052 SLP151 T00781067,0,12.0,1,16090,0,0,0,
2026-04-06 20:51:00,METAR KBED 062051Z 29017G29KT 10SM FEW065 09/M07 A2991 RMK AO2 PK WND 29029/2051 SLP142 T00891067 53006,0,17.0,1,16090,0,0,0,
2026-04-06 19:51:00,METAR KBED 061951Z 28018G35KT 10SM SCT060 09/M07 A2990 RMK AO2 PK WND 30038/1938 SLP138 T00891072,0,18.0,1,16090,0,0,0,
2026-04-06 18:51:00,METAR KBED 061851Z 29019G33KT 10SM SCT060 08/M07 A2990 RMK AO2 PK WND 29033/1846 SLP138 T00781067,0,19.0,1,16090,0,0,0,
2026-04-06 17:51:00,METAR KBED 061751Z 27012G27KT 10SM BKN060 08/M07 A2989 RMK AO2 PK WND 28031/1721 SLP135 6//// T00831067 10100 20044 58004,0,12.0,1,16090,0,0,0,
2026-04-06 16:51:00,METAR KBED 061651Z 29012G31KT 10SM OVC060 09/M06 A2990 RMK AO2 PK WND 26032/1640 SLP138 T00891056,0,12.0,1,16090,0,0,0,
2026-04-06 15:51:00,METAR KBED 061551Z 26013G26KT 10SM BKN060 08/M06 A2990 RMK AO2 PK WND 29026/1506 SLP139 T00781056,0,13.0,1,16090,0,0,0,
2026-04-06 14:51:00,METAR KBED 061451Z 30014G26KT 10SM OVC050 07/M05 A2990 RMK AO2 PK WND 31026/1447 SLP139 6//// T00721050,0,14.0,1,16090,0,0,0,
2026-04-06 13:51:00,METAR KBED 061351Z 29016G28KT 10SM BKN050 07/M05 A2989 RMK AO2 PK WND 29029/1341 SLP137 T00671050,0,16.0,1,16090,0,0,0,
2026-04-06 12:51:00,METAR KBED 061251Z 29011G21KT 10SM BKN046 06/M04 A2989 RMK AO2 PK WND 28027/1233 SLP134 T00561044,0,11.0,1,16090,0,0,0,
2026-04-06 11:51:00,METAR KBED 061151Z 29011G19KT 10SM CLR 04/M06 A2988 RMK AO2 SLP132 70008 T00441056 10067 20033 53024,0,11.0,1,16090,0,0,0,
2026-04-06 10:51:00,METAR KBED 061051Z 28010G18KT 10SM CLR 04/M06 A2985 RMK AO2 SLP122 T00391056,0,10.0,1,16090,0,0,0,
2026-04-06 09:51:00,METAR KBED 060951Z AUTO 27014G24KT 10SM OVC049 04/M06 A2983 RMK AO2 PK WND 25027/0927 SLP114 T00441056,0,14.0,1,16090,0,0,0,
2026-04-06 08:51:00,METAR KBED 060851Z AUTO 28009G22KT 10SM BKN055 05/M04 A2981 RMK AO2 PK WND 26026/0834 SLP107 T00501039 53008,0,9.0,1,16090,0,0,0,
2026-04-06 07:51:00,METAR KBED 060751Z AUTO 26012G22KT 10SM FEW046 BKN060 06/M02 A2979 RMK AO2 SLP102 T00611022,0,12.0,1,16090,0,0,0,
2026-04-06 06:51:00,METAR KBED 060651Z AUTO 25005KT 10SM BKN065 06/M02 A2978 RMK AO2 SLP099 T00611017,0,5.0,0,16090,0,0,0,
2026-04-06 05:51:00,METAR KBED 060551Z AUTO 28007KT 10SM OVC055 07/M02 A2978 RMK AO2 SLP099 T00671022 10100 20067 58001,0,7.0,0,16090,0,0,0,
2026-04-06 04:51:00,METAR KBED 060451Z AUTO 29011G21KT 10SM CLR 07/M02 A2979 RMK AO2 PK WND 29028/0405 SLP103 T00671022 401280033,0,11.0,1,16090,0,0,0,
2026-04-06 03:51:00,METAR KBED 060351Z AUTO 30013G28KT 10SM OVC060 08/M01 A2979 RMK AO2 PK WND 28028/0348 SLP102 T00781011,0,13.0,1,16090,0,0,0,
2026-04-06 02:51:00,METAR KBED 060251Z AUTO 30010G18KT 10SM OVC060 08/01 A2978 RMK AO2 SLP100 T00780011 50017,0,10.0,1,16090,0,0,0,
2026-04-06 01:51:00,METAR KBED 060151Z 28009G17KT 10SM OVC060 08/02 A2980 RMK AO2 SLP106 T00830017,0,9.0,1,16090,0,0,0,
2026-04-06 00:51:00,METAR KBED 060051Z 29010G20KT 10SM FEW023 OVC039 09/04 A2978 RMK AO2 SLP098 T00940044,0,10.0,1,16090,0,0,0,
2026-04-05 23:51:00,METAR KBED 052351Z 28008KT 10SM OVC030 10/07 A2974 RMK AO2 SLP084 60005 T01000072 10128 20078 53024,0,8.0,0,16090,0,0,0,
2026-04-05 22:51:00,METAR KBED 052251Z 28008KT 10SM FEW010 SCT017 OVC023 11/09 A2971 RMK AO2 RAE2152B31E44 SLP075 P0000 T01110089,0,8.0,0,16090,0,0,0,RA
2026-04-05 21:51:00,METAR KBED 052151Z 24009KT 10SM -RA BKN033 OVC095 13/11 A2968 RMK AO2 SLP064 P0003 T01280111,0,9.0,0,16090,0,0,0,-RA
2026-04-05 21:08:00,SPECI KBED 052108Z 20008KT 4SM -RA BR OVC013 12/11 A2965 RMK AO2 P0000 T01220111,0,8.0,0,6436,0,0,1,"-RA,BR"
2026-04-05 20:51:00,METAR KBED 052051Z 22003KT 2 1/2SM -RA BR OVC003 12/11 A2967 RMK AO2 RAB14 SLP060 P0001 60002 T01170111 56032,0,3.0,0,4022,0,0,1,"-RA,BR"
2026-04-05 20:23:00,SPECI KBED 052023Z 17003KT 2 1/2SM -RA BR OVC003 11/11 A2965 RMK AO2 RAB14 P0000 T01110106,0,3.0,0,4022,0,0,1,"-RA,BR"
2026-04-05 20:04:00,SPECI KBED 052004Z 00000KT 2 1/2SM BR OVC005 11/10 A2966 RMK AO2 T01060100,0,0.0,0,4022,0,0,1,BR
2026-04-05 19:51:00,METAR KBED 051951Z 00000KT 2 1/2SM BR OVC004 10/09 A2968 RMK AO2 SLP064 T01000094,0,0.0,0,4022,0,0,1,BR
2026-04-05 18:51:00,METAR KBED 051851Z 18004KT 2 1/2SM BR OVC004 09/08 A2971 RMK AO2 RAB11E46 SLP076 P0001 T00890083,0,4.0,0,4022,0,0,1,"BR,RA"
2026-04-05 17:51:00,METAR KBED 051751Z 24003KT 1 3/4SM BR OVC004 08/07 A2976 RMK AO2 RAB05E33 SLP092 P0001 60003 T00780072 10078 20044 56020,0,3.0,0,2816,0,0,1,"BR,RA"
2026-04-05 17:10:00,SPECI KBED 051710Z 30005KT 1 3/4SM -RA BR OVC003 07/07 A2977 RMK AO2 RAB05 P0000 T00720072,0,5.0,0,2816,0,0,1,"-RA,BR"
2026-04-05 16:51:00,METAR KBED 051651Z 28003KT 2 1/2SM BR OVC003 07/07 A2977 RMK AO2 RAB04E37 SLP096 P0000 T00720067,0,3.0,0,4022,0,0,1,"BR,RA"
2026-04-05 15:51:00,METAR KBED 051551Z 00000KT 2 1/2SM BR OVC004 06/06 A2980 RMK AO2 RAE44 SLP104 P0001 T00610056,0,0.0,0,4022,0,0,1,BR
2026-04-05 14:51:00,METAR KBED 051451Z 32005KT 1SM R11/6000VP6000FT -RA BR OVC003 06/06 A2982 RMK AO2 RAB41 SLP112 P0000 60001 T00610056 56036,0,5.0,0,1609,0,0,1,"-RA,BR"
2026-04-05 12:51:00,METAR KBED 051251Z 00000KT 1SM R11/P6000FT -RA BR OVC004 05/04 A2988 RMK AO2 RAB42 SLP132 P0001 T00500044,0,0.0,0,1609,0,0,1,"-RA,BR"
2026-04-05 11:51:00,METAR KBED 051151Z 00000KT 1SM R11/5500VP6000FT BR OVC004 04/04 A2993 RMK AO2 SLP149 60001 70001 T00440039 10044 20033 56030,0,0.0,0,1609,0,0,1,BR
2026-04-05 10:51:00,METAR KBED 051051Z 08003KT 2SM BR OVC004 04/04 A2996 RMK AO2 SLP160 T00390039,0,3.0,0,3218,0,0,1,BR
2026-04-05 10:49:00,SPECI KBED 051049Z 09003KT 2SM BR OVC004 04/04 A2996 RMK AO2 PRESFR,0,3.0,0,3218,0,0,1,BR
2026-04-05 10:39:00,SPECI KBED 051039Z AUTO 10004KT 3SM BR OVC004 04/03 A2997 RMK AO2 T00390033,0,4.0,0,4827,0,0,1,BR
2026-04-05 10:12:00,SPECI KBED 051012Z AUTO 11004KT 2SM BR OVC005 04/03 A2999 RMK AO2 CIG 003V008 T00390033,0,4.0,0,3218,0,0,1,BR
2026-04-05 09:51:00,METAR KBED 050951Z AUTO 12004KT 2SM BR OVC004 04/03 A3002 RMK AO2 RAB00E19 SLP178 P0001 T00390033,0,4.0,0,3218,0,0,1,"BR,RA"
2026-04-05 09:45:00,SPECI KBED 050945Z AUTO 13003KT 1 3/4SM BR OVC004 04/03 A3002 RMK AO2 RAB00E19 P0001,0,3.0,0,2816,0,0,1,"BR,RA"
2026-04-05 09:28:00,SPECI KBED 050928Z AUTO 00000KT 2SM BR OVC006 04/03 A3003 RMK AO2 RAB00E19 P0001 T00390033,0,0.0,0,3218,0,0,1,"BR,RA"
2026-04-05 08:51:00,METAR KBED 050851Z AUTO 12006KT 5SM BR OVC006 04/03 A3005 RMK AO2 RAB10E25 SLP190 P0000 60000 T00390028 56057,0,6.0,0,8045,0,0,1,"BR,RA"
2026-04-05 07:51:00,METAR KBED 050751Z AUTO 13006KT 4SM BR OVC006 04/03 A3011 RMK AO2 RAB0659E08 SLP210 P0000 T00390028,0,6.0,0,6436,0,0,1,"BR,RA"
2026-04-05 06:51:00,METAR KBED 050651Z AUTO 09006KT 6SM BR OVC007 04/03 A3015 RMK AO2 SLP224 T00390028,0,6.0,0,9654,0,0,1,BR
2026-04-05 06:22:00,SPECI KBED 050622Z AUTO 10006KT 3SM BR BKN008 OVC014 04/03 A3018 RMK AO2 T00390028,0,6.0,0,4827,0,0,1,BR
2026-04-05 05:51:00,METAR KBED 050551Z AUTO 12007KT 4SM BR OVC011 04/02 A3022 RMK AO2 CIG 008V013 SLP247 T00390022 10039 20033 56034,0,7.0,0,6436,0,0,1,BR
2026-04-05 04:51:00,METAR KBED 050451Z AUTO 11008KT 10SM OVC012 04/02 A3025 RMK AO2 SLP257 T00390017 401560033,0,8.0,0,16090,0,0,0,
2026-04-05 03:51:00,METAR KBED 050351Z AUTO 12012G17KT 10SM OVC011 04/01 A3029 RMK AO2 SLP270 T00390011,0,12.0,1,16090,0,0,0,
2026-04-05 03:43:00,SPECI KBED 050343Z AUTO 11010KT 10SM OVC011 04/01 A3029 RMK AO2 T00390011,0,10.0,0,16090,0,0,0,
2026-04-05 02:51:00,METAR KBED 050251Z AUTO 11006KT 8SM OVC009 03/02 A3032 RMK AO2 SLP280 T00330017 58018,0,6.0,0,12872,0,0,0,
2026-04-05 02:41:00,SPECI KBED 050241Z 10010KT 9SM OVC009 03/01 A3032 RMK AO2 T00330011,0,10.0,0,14481,0,0,0,
2026-04-05 01:51:00,METAR KBED 050151Z 10011KT 10SM OVC012 03/01 A3035 RMK AO2 SLP290 T00330006,0,11.0,0,16090,0,0,0,
2026-04-05 01:47:00,SPECI KBED 050147Z 11013KT 10SM OVC014 03/00 A3035 RMK AO2,0,13.0,0,16090,0,0,0,
2026-04-05 00:51:00,METAR KBED 050051Z 10011G19KT 10SM OVC016 03/M01 A3037 RMK AO2 SLP298 T00331006,0,11.0,1,16090,0,0,0,
2026-04-04 23:51:00,METAR KBED 042351Z 10012G19KT 10SM OVC019 03/M01 A3038 RMK AO2 SLP301 T00331011 10083 20033 51002,0,12.0,1,16090,0,0,0,
2026-04-04 22:51:00,METAR KBED 042251Z 11012KT 10SM BKN022 BKN046 04/M01 A3037 RMK AO2 SLP299 T00391011,0,12.0,0,16090,0,0,0,
2026-04-04 21:51:00,METAR KBED 042151Z 09009KT 10SM SCT022 OVC046 04/M01 A3038 RMK AO2 SLP300 T00441011,0,9.0,0,16090,0,0,0,
2026-04-04 20:51:00,METAR KBED 042051Z 09017G23KT 10SM BKN022 OVC046 05/M01 A3037 RMK AO2 PK WND 09028/1957 SLP298 T00501006 51009,0,17.0,1,16090,0,0,0,
2026-04-04 19:51:00,METAR KBED 041951Z 10015G24KT 10SM BKN022 OVC044 06/00 A3037 RMK AO2 SLP297 T00560000,0,15.0,1,16090,0,0,0,
2026-04-04 19:11:00,SPECI KBED 041911Z 10015G23KT 10SM BKN022 OVC042 07/01 A3037 RMK AO2 T00670011,0,15.0,1,16090,0,0,0,
2026-04-04 18:51:00,METAR KBED 041851Z 11017KT 10SM FEW022 OVC042 07/01 A3036 RMK AO2 SLP295 T00720011,0,17.0,0,16090,0,0,0,
2026-04-04 17:51:00,METAR KBED 041751Z 11011G20KT 10SM OVC036 08/02 A3034 RMK AO2 SLP289 T00830017 10144 20078 51026,0,11.0,1,16090,0,0,0,
2026-04-04 16:51:00,METAR KBED 041651Z 13011KT 10SM BKN033 09/02 A3032 RMK AO2 SLP282 T00890017,0,11.0,0,16090,0,0,0,
2026-04-04 15:51:00,METAR KBED 041551Z 09016KT 10SM BKN034 10/03 A3030 RMK AO2 SLP272 T01000028,0,16.0,0,16090,0,0,0,
2026-04-04 15:20:00,SPECI KBED 041520Z 07016G22KT 10SM BKN036 12/04 A3028 RMK AO2 T01170044,0,16.0,1,16090,0,0,0,
2026-04-04 14:51:00,METAR KBED 041451Z COR 02009KT 10SM BKN036 13/05 A3027 RMK AO2 SLP262 T01330050 53026,0,9.0,0,16090,0,0,0,
2026-04-04 13:51:00,METAR KBED 041351Z 01009G16KT 10SM CLR 13/04 A3024 RMK AO2 SLP254 T01280039,0,9.0,1,16090,0,0,0,
2026-04-04 12:51:00,METAR KBED 041251Z 34013G20KT 10SM CLR 13/04 A3021 RMK AO2 SLP242 T01280044,0,13.0,1,16090,0,0,0,
2026-04-04 11:51:00,METAR KBED 041151Z 34015G21KT 10SM SCT028 SCT037 12/04 A3019 RMK AO2 SLP235 T01220044 10156 20122 53054,0,15.0,1,16090,0,0,0,
2026-04-04 10:51:00,METAR KBED 041051Z 36014G21KT 10SM BKN028 OVC037 13/07 A3014 RMK AO2 WSHFT 1036 SLP217 T01330072,0,14.0,1,16090,0,0,0,
2026-04-04 09:51:00,METAR KBED 040951Z AUTO 27008KT 10SM CLR 15/11 A3007 RMK AO2 SLP193 T01500111,0,8.0,0,16090,0,0,0,
2026-04-04 08:51:00,METAR KBED 040851Z AUTO 23005KT 10SM CLR 14/11 A3003 RMK AO2 SLP180 T01390111 53010,0,5.0,0,16090,0,0,0,
2026-04-04 07:51:00,METAR KBED 040751Z AUTO 00000KT 10SM CLR 14/12 A3000 RMK AO2 SLP172 T01440117,0,0.0,0,16090,0,0,0,
2026-04-04 06:51:00,METAR KBED 040651Z AUTO 25006KT 10SM CLR 14/11 A2999 RMK AO2 SLP169 T01440111,0,6.0,0,16090,0,0,0,
2026-04-04 05:51:00,METAR KBED 040551Z AUTO 25005KT 10SM CLR 15/11 A3000 RMK AO2 SLP170 T01500111 10172 20144 50000,0,5.0,0,16090,0,0,0,
2026-04-04 04:51:00,METAR KBED 040451Z AUTO 24007KT 10SM CLR 16/11 A3000 RMK AO2 SLP171 T01560106 402110028,0,7.0,0,16090,0,0,0,
2026-04-04 03:51:00,METAR KBED 040351Z AUTO 24007G17KT 10SM CLR 16/11 A3000 RMK AO2 SLP172 T01560106,0,7.0,1,16090,0,0,0,
2026-04-04 02:51:00,METAR KBED 040251Z 24009G17KT 10SM FEW110 15/11 A3000 RMK AO2 SLP171 T01500106 50001,0,9.0,1,16090,0,0,0,
2026-04-04 01:51:00,METAR KBED 040151Z 22007KT 10SM CLR 15/10 A3000 RMK AO2 SLP172 T01500100,0,7.0,0,16090,0,0,0,
2026-04-04 00:51:00,METAR KBED 040051Z 22010KT 10SM CLR 16/11 A3000 RMK AO2 SLP173 T01610106,0,10.0,0,16090,0,0,0,
2026-04-03 23:51:00,METAR KBED 032351Z 21006KT 10SM CLR 17/11 A2999 RMK AO2 SLP170 T01720111 10211 20111 58010,0,6.0,0,16090,0,0,0,
2026-04-03 22:51:00,METAR KBED 032251Z 21006KT 10SM CLR 19/11 A3001 RMK AO2 SLP174 T01890111,0,6.0,0,16090,0,0,0,
2026-04-03 21:51:00,METAR KBED 032151Z 22010G16KT 10SM FEW110 21/11 A3001 RMK AO2 SLP176 T02060111,0,10.0,1,16090,0,0,0,
2026-04-03 20:51:00,METAR KBED 032051Z 23007KT 10SM CLR 21/11 A3002 RMK AO2 SLP180 T02060111 56035,0,7.0,0,16090,0,0,0,
2026-04-03 19:51:00,METAR KBED 031951Z 22012G18KT 10SM BKN080 19/11 A3004 RMK AO2 SLP187 T01890106,0,12.0,1,16090,0,0,0,
2026-04-03 18:51:00,METAR KBED 031851Z 21009G17KT 10SM SCT090 17/10 A3007 RMK AO2 SLP197 T01670100,0,9.0,1,16090,0,0,0,
2026-04-03 18:16:00,SPECI KBED 031816Z 21005KT 10SM FEW014 SCT070 14/09 A3011 RMK AO2 T01390094,0,5.0,0,16090,0,0,0,
2026-04-03 17:51:00,METAR KBED 031751Z 00000KT 10SM BKN009 11/08 A3013 RMK AO2 SLP216 T01110078 10111 20039 56047,0,0.0,0,16090,0,0,0,
2026-04-03 16:51:00,METAR KBED 031651Z 26006KT 10SM OVC006 08/07 A3017 RMK AO2 SLP231 T00830067,0,6.0,0,16090,0,0,0,
2026-04-03 15:51:00,METAR KBED 031551Z 21005KT 6SM BR OVC007 07/06 A3022 RMK AO2 SLP247 T00670056,0,5.0,0,9654,0,0,1,BR
2026-04-03 15:49:00,SPECI KBED 031549Z 23005KT 6SM BR OVC007 07/06 A3022 RMK AO2,0,5.0,0,9654,0,0,1,BR
2026-04-03 14:51:00,METAR KBED 031451Z 25005KT 1 1/2SM BR OVC004 06/04 A3027 RMK AO2 SLP263 T00560044 56020,0,5.0,0,2414,0,0,1,BR
2026-04-03 14:45:00,SPECI KBED 031445Z 23005KT 1 1/2SM BR OVC004 06/05 A3027 RMK AO2,0,5.0,0,2414,0,0,1,BR
2026-04-03 13:51:00,METAR KBED 031351Z VRB05KT 2 1/2SM BR OVC005 06/04 A3028 RMK AO2 SLP268 T00560044,0,5.0,0,4022,0,0,1,BR
2026-04-03 12:51:00,METAR KBED 031251Z 19004KT 1 1/2SM BR VV004 04/04 A3030 RMK AO2 SLP277 T00440039,0,4.0,0,2414,0,0,1,BR
2026-04-03 11:54:00,SPECI KBED 031154Z 15003KT 1 1/2SM BR VV004 04/03 A3032 RMK AO2 T00390033,0,3.0,0,2414,0,0,1,BR
2026-04-03 11:51:00,METAR KBED 031151Z 16004KT 1 1/2SM BR OVC005 04/03 A3032 RMK AO2 SLP284 70012 T00390033 10039 20028 56019,0,4.0,0,2414,0,0,1,BR
2026-04-03 08:51:00,METAR KBED 030851Z AUTO 12004KT 3SM BR OVC006 03/03 A3038 RMK AO2 SLP303 T00330028 58030,0,4.0,0,4827,0,0,1,BR
2026-04-03 08:36:00,SPECI KBED 030836Z AUTO 09006KT 3SM BR OVC006 03/03 A3038 RMK AO2 T00330028,0,6.0,0,4827,0,0,1,BR
2026-04-03 08:28:00,SPECI KBED 030828Z AUTO 09006KT 2 1/2SM BR OVC006 03/03 A3038 RMK AO2 T00330028,0,6.0,0,4022,0,0,1,BR
2026-04-03 06:16:00,SPECI KBED 030616Z AUTO 07005KT 2SM BR OVC005 03/02 A3046 RMK AO2 T00280022,0,5.0,0,3218,0,0,1,BR
2026-04-03 06:08:00,SPECI KBED 030608Z AUTO 08004KT 1 3/4SM BR OVC005 03/02 A3046 RMK AO2 T00280022,0,4.0,0,2816,0,0,1,BR
2026-04-03 05:51:00,METAR KBED 030551Z AUTO 07005KT 2SM BR OVC006 03/02 A3047 RMK AO2 SLP333 60002 T00280022 10028 20022 58014,0,5.0,0,3218,0,0,1,BR
2026-04-03 05:31:00,SPECI KBED 030531Z AUTO 07005KT 2 1/2SM BR OVC006 03/02 A3048 RMK AO2 T00280022,0,5.0,0,4022,0,0,1,BR
2026-04-03 05:00:00,SPECI KBED 030500Z AUTO 08006KT 3SM BR OVC007 03/02 A3048 RMK AO2 CIG 005V009 T00280017,0,6.0,0,4827,0,0,1,BR
2026-04-03 04:51:00,METAR KBED 030451Z AUTO 08005KT 2 1/2SM BR OVC007 03/02 A3048 RMK AO2 RAB16E28 CIG 005V010 SLP338 P0000 T00280022 400560022,0,5.0,0,4022,0,0,1,"BR,RA"
2026-04-03 04:42:00,SPECI KBED 030442Z AUTO 07006KT 2 1/2SM BR OVC007 03/02 A3049 RMK AO2 RAB16E28 CIG 005V012 P0000 T00280017,0,6.0,0,4022,0,0,1,"BR,RA"
2026-04-03 03:51:00,METAR KBED 030351Z AUTO 09005KT 6SM BR OVC008 03/02 A3050 RMK AO2 SLP344 T00280017,0,5.0,0,9654,0,0,1,BR
2026-04-03 02:51:00,METAR KBED 030251Z AUTO 08007KT 8SM OVC008 03/02 A3051 RMK AO2 SLP348 60002 T00280017 58008,0,7.0,0,12872,0,0,0,
2026-04-03 01:51:00,METAR KBED 030151Z 08005KT 10SM OVC008 02/01 A3053 RMK AO2 RAE03 SLP353 P0000 T00220011,0,5.0,0,16090,0,0,0,
2026-04-03 00:51:00,METAR KBED 030051Z 05005KT 3SM -RA BR OVC008 02/01 A3054 RMK AO2 SLP357 P0002 T00220011,0,5.0,0,4827,0,0,1,"-RA,BR"
2026-04-02 23:51:00,METAR KBED 022351Z 07006KT 3SM -RA BR OVC008 02/01 A3053 RMK AO2 SLP355 P0001 60002 T00220006 10033 20022 58001,0,6.0,0,4827,0,0,1,"-RA,BR"
2026-04-02 22:51:00,METAR KBED 022251Z 07008KT 10SM -RA OVC012 02/01 A3053 RMK AO2 RAB47 SLP356 P0000 T00220006,0,8.0,0,16090,0,0,0,-RA
2026-04-02 21:58:00,SPECI KBED 022158Z 07009KT 10SM OVC013 02/01 A3053 RMK AO2 T00220006,0,9.0,0,16090,0,0,0,
2026-04-02 21:51:00,METAR KBED 022151Z 07007KT 10SM OVC008 03/01 A3054 RMK AO2 SLP357 T00280006,0,7.0,0,16090,0,0,0,
2026-04-02 20:51:00,METAR KBED 022051Z 06010KT 10SM OVC008 03/01 A3054 RMK AO2 RAE03 SLP356 P0000 60001 T00280006 56006,0,10.0,0,16090,0,0,0,
2026-04-02 19:51:00,METAR KBED 021951Z 06010KT 6SM -RA BR BKN007 OVC022 03/01 A3054 RMK AO2 SLP357 P0001 T00280011,0,10.0,0,9654,0,0,1,"-RA,BR"
2026-04-02 18:51:00,METAR KBED 021851Z 06008KT 1 1/2SM -RA BR OVC006 03/01 A3055 RMK AO2 RAB06 SLP360 P0000 T00280011,0,8.0,0,2414,0,0,1,"-RA,BR"
2026-04-02 18:28:00,SPECI KBED 021828Z 04007KT 1 1/2SM -RA BR OVC006 03/01 A3056 RMK AO2 RAB06 P0000 T00330011,0,7.0,0,2414,0,0,1,"-RA,BR"
2026-04-02 18:21:00,SPECI KBED 021821Z 05010G21KT 2 1/2SM -RA BR BKN015 OVC022 03/01 A3056 RMK AO2 RAB06 P0000 T00280006,0,10.0,1,4022,0,0,1,"-RA,BR"
2026-04-02 17:51:00,METAR KBED 021751Z 06010KT 9SM OVC016 03/01 A3055 RMK AO2 SLP361 60008 T00330006 10033 20022 55001,0,10.0,0,14481,0,0,0,
2026-04-02 16:51:00,METAR KBED 021651Z 06011KT 10SM BKN008 03/01 A3055 RMK AO2 RAE00 SLP359 P0000 T00330011,0,11.0,0,16090,0,0,0,
2026-04-02 15:51:00,METAR KBED 021551Z 05010KT 5SM -RA BR OVC008 03/02 A3055 RMK AO2 RAE11B51 SLP360 P0001 T00330017,0,10.0,0,8045,0,0,1,"-RA,BR,RA"
2026-04-02 14:58:00,SPECI KBED 021458Z 04009KT 5SM -RA BR OVC008 03/01 A3056 RMK AO2 P0001 T00280011,0,9.0,0,8045,0,0,1,"-RA,BR"
2026-04-02 14:51:00,METAR KBED 021451Z 04011KT 2SM -RA BR OVC008 03/01 A3056 RMK AO2 SLP362 P0000 60007 T00280011 51023,0,11.0,0,3218,0,0,1,"-RA,BR"
2026-04-02 13:54:00,SPECI KBED 021354Z 05009KT 2SM -RA BR OVC008 03/01 A3055 RMK AO2 P0000 T00280011,0,9.0,0,3218,0,0,1,"-RA,BR"
2026-04-02 13:51:00,METAR KBED 021351Z 04008KT 3SM -RA BR BKN008 OVC014 03/01 A3054 RMK AO2 SLP358 P0004 T00280011,0,8.0,0,4827,0,0,1,"-RA,BR"
2026-04-02 12:51:00,METAR KBED 021251Z 06010KT 4SM -RA BR BKN008 OVC014 03/01 A3051 RMK AO2 RAB1152 SLP348 P0003 T00280011,0,10.0,0,6436,0,0,1,"-RA,BR,RA"
2026-04-02 12:09:00,SPECI KBED 021209Z 05009KT 2SM -RA BR BKN009 OVC014 03/02 A3050 RMK AO2 RAB1152 P0000 T00280017,0,9.0,0,3218,0,0,1,"-RA,BR,RA"
2026-04-02 12:02:00,SPECI KBED 021202Z 06011KT 2SM -RA BR BKN011 OVC014 03/02 A3050 RMK AO2 RAB1152 P0000 T00280017,0,11.0,0,3218,0,0,1,"-RA,BR,RA"
2026-04-02 11:51:00,METAR KBED 021151Z 07010KT 2SM BR OVC005 03/02 A3049 RMK AO2 RAE50UPB28E37 SLP339 P0001 60025 7//// T00280017 10044 20028 53020,0,10.0,0,3218,0,0,1,"BR,RA"
2026-04-02 11:26:00,SPECI KBED 021126Z 06009KT 2 1/2SM -RA BR OVC005 03/02 A3047 RMK AO2 P0000 T00280017,0,9.0,0,4022,0,0,1,"-RA,BR"
2026-04-02 10:51:00,METAR KBED 021051Z COR 06010G20KT 6SM -RA BR OVC009 03/02 A3046 RMK AO2 SLP330 P0002 T00280017,0,10.0,1,9654,0,0,1,"-RA,BR"
2026-04-02 10:43:00,SPECI KBED 021043Z AUTO 05012KT 8SM -RA OVC009 03/02 A3046 RMK AO2 CIG 007V013 P0002 T00280017,0,12.0,0,12872,0,0,0,-RA
2026-04-02 09:51:00,METAR KBED 020951Z AUTO 06008KT 8SM -RA BKN013 OVC017 03/02 A3043 RMK AO2 SLP319 P0010 T00280017,0,8.0,0,12872,0,0,0,-RA
2026-04-02 08:51:00,METAR KBED 020851Z AUTO 05006KT 9SM -RA OVC014 03/02 A3043 RMK AO2 SLP319 P0005 60012 T00280017 51010,0,6.0,0,14481,0,0,0,-RA
2026-04-02 08:39:00,SPECI KBED 020839Z AUTO 05009KT 9SM -RA BKN014 OVC021 03/02 A3041 RMK AO2 P0004 T00330017,0,9.0,0,14481,0,0,0,-RA
2026-04-02 07:51:00,METAR KBED 020751Z AUTO 04009KT 10SM -RA OVC019 03/02 A3042 RMK AO2 SLP314 P0006 T00330017,0,9.0,0,16090,0,0,0,-RA
2026-04-02 06:51:00,METAR KBED 020651Z AUTO 06010KT 10SM -RA OVC023 04/02 A3042 RMK AO2 RAE0556B21 SLPNO P0001 T00390017,0,10.0,0,16090,0,0,0,"-RA,RA"
2026-04-02 05:51:00,METAR KBED 020551Z AUTO 06011KT 10SM -RA OVC023 05/01 A3040 RMK AO2 RAB0454 SLP307 P0000 60000 T00500006 10072 20050 53015,0,11.0,0,16090,0,0,0,"-RA,RA"
2026-04-02 04:51:00,METAR KBED 020451Z AUTO 06010KT 10SM BKN026 BKN039 OVC075 06/01 A3038 RMK AO2 RAE49 SLP300 P0000 T00560011 402330044,0,10.0,0,16090,0,0,0,
2026-04-02 03:51:00,METAR KBED 020351Z AUTO 04008KT 10SM -RA OVC037 06/04 A3036 RMK AO2 RAB16 SLP294 P0000 T00610039,0,8.0,0,16090,0,0,0,-RA
2026-04-02 02:51:00,METAR KBED 020251Z AUTO 05009G15KT 10SM OVC033 07/04 A3035 RMK AO2 SLP292 60000 T00670039 51020,0,9.0,1,16090,0,0,0,
2026-04-02 02:09:00,SPECI KBED 020209Z 07005KT 10SM OVC028 07/05 A3032 RMK AO2 T00670050,0,5.0,0,16090,0,0,0,
2026-04-02 01:51:00,METAR KBED 020151Z 05007KT 10SM FEW030 SCT110 07/05 A3032 RMK AO2 SLP282 T00670050,0,7.0,0,16090,0,0,0,
2026-04-02 00:51:00,METAR KBED 020051Z 07007KT 10SM OVC045 07/05 A3029 RMK AO2 RAE00 SLP272 P0000 T00720050,0,7.0,0,16090,0,0,0,
2026-04-01 23:51:00,METAR KBED 012351Z 07004KT 10SM -RA SCT042 BKN090 OVC110 07/06 A3027 RMK AO2 RAB02E37B46 SLP264 P0000 6//// T00720056 10222 20072 51025,0,4.0,0,16090,0,0,0,"-RA,RA"
2026-04-01 22:51:00,METAR KBED 012251Z 04005KT 10SM BKN008 OVC037 08/06 A3025 RMK AO2 RAE37 CIG 008V011 SLP257 P0001 T00780061,0,5.0,0,16090,0,0,0,
2026-04-01 22:49:00,SPECI KBED 012249Z 04005KT 10SM BKN008 OVC035 08/06 A3024 RMK AO2 RAE37 CIG 008V011 PRESRR P0001,0,5.0,0,16090,0,0,0,
2026-04-01 22:39:00,SPECI KBED 012239Z 05005KT 10SM SCT008 OVC035 08/06 A3023 RMK AO2 RAE37 P0001 T00780061,0,5.0,0,16090,0,0,0,
2026-04-01 21:51:00,METAR KBED 012151Z 07007KT 10SM -RA SCT010 BKN030 OVC080 08/06 A3019 RMK AO2 RAB41 SLP239 P0000 T00830061,0,7.0,0,16090,0,0,0,-RA
2026-04-01 21:14:00,SPECI KBED 012114Z 09012KT 10SM BKN008 OVC030 09/07 A3016 RMK AO2 T00890067,0,12.0,0,16090,0,0,0,
2026-04-01 20:51:00,METAR KBED 012051Z 08008KT 10SM FEW011 SCT020 OVC030 09/07 A3014 RMK AO2 RAE1957 SLP221 P0000 6//// T00940072,0,8.0,0,16090,0,0,0,RA
2026-04-01 20:46:00,SPECI KBED 012046Z 07008KT 10SM FEW011 SCT020 OVC030 09/07 A3013 RMK AO2 RAE1957 P0000,0,8.0,0,16090,0,0,0,RA
2026-04-01 20:25:00,SPECI KBED 012025Z 09011KT 10SM SCT020 OVC028 10/08 A3012 RMK AO2 RAE1957 PRESRR P0000 T01000078,0,11.0,0,16090,0,0,0,RA
2026-04-01 19:51:00,METAR KBED 011951Z 06011KT 4SM -RA FEW023 FEW032 OVC044 14/11 A3008 RMK AO2 RAB38 SLP201 T01390111 PNO,0,11.0,0,6436,0,0,0,-RA
2026-04-01 19:40:00,SPECI KBED 011940Z 05011KT 7SM -RA FEW023 SCT032 OVC042 16/11 A3007 RMK AO2 RAB38 T01560111 PNO,0,11.0,0,11263,0,0,0,-RA
2026-04-01 19:18:00,SPECI KBED 011918Z 02011G18KT 10SM OVC028 18/12 A3006 RMK AO2 T01780122,0,11.0,1,16090,0,0,0,
2026-04-01 17:51:00,METAR KBED 011751Z 34011KT 10SM OVC047 21/13 A3001 RMK AO2 SLP173 T02110133 10233 20083 53015 $,0,11.0,0,16090,0,0,0,
2026-04-01 16:51:00,METAR KBED 011651Z COR 28010G16KT 10SM BKN085 22/13 A2999 RMK AO2 SLP167 T02170128 $,0,10.0,1,16090,0,0,0,
2026-04-01 15:51:00,METAR KBED 011551Z 00000KT 10SM BKN043 BKN100 22/14 A2998 RMK AO2 PK WND 30031/1515 SLP164 T02170139 $,0,0.0,0,16090,0,0,0,
2026-04-01 14:51:00,METAR KBED 011451Z 24007KT 10SM SCT100 20/13 A2996 RMK AO2 SLP159 T02000133 52021 $,0,7.0,0,16090,0,0,0,
2026-04-01 13:51:00,METAR KBED 011351Z 19003KT 10SM CLR 16/13 A2994 RMK AO2 SLP151 T01560128 $,0,3.0,0,16090,0,0,0,
2026-04-01 12:51:00,METAR KBED 011251Z 26005KT 10SM SCT120 12/11 A2992 RMK AO2 SLP145 T01220106 $,0,5.0,0,16090,0,0,0,
2026-04-01 11:51:00,METAR KBED 011151Z 29003KT 6SM BR CLR 08/08 A2990 RMK AO2 SLP139 60001 70013 T00830078 10083 20044 53024 $,0,3.0,0,9654,0,0,1,BR
2026-04-01 10:51:00,METAR KBED 011051Z COR 21003KT 4SM BR SCT080 06/05 A2986 RMK AO2 SLP127 T00610056 $,0,3.0,0,6436,0,0,1,BR
2026-04-01 09:51:00,METAR KBED 010951Z AUTO 00000KT 5SM BR FEW120 06/06 A2985 RMK AO2 RAE17 SLP123 P0000 T00610056 $,0,0.0,0,8045,0,0,1,BR
2026-04-01 08:51:00,METAR KBED 010851Z AUTO 00000KT 5SM -RA BR FEW075 BKN100 BKN120 06/05 A2983 RMK AO2 RAB37 SLP114 P0001 60001 T00610050 56010 $,0,0.0,0,8045,0,0,1,"-RA,BR"
2026-04-01 08:04:00,SPECI KBED 010804Z AUTO 00000KT 7SM SCT007 SCT080 BKN110 06/05 A2983 RMK AO2 T00610050 $,0,0.0,0,11263,0,0,0,
2026-04-01 07:51:00,METAR KBED 010751Z AUTO 29003KT 7SM BKN006 06/05 A2983 RMK AO2 SLP115 T00560050 $,0,3.0,0,11263,0,0,0,
2026-04-01 07:00:00,SPECI KBED 010700Z AUTO 23005KT 5SM BR OVC005 05/04 A2983 RMK AO2 T00500044 $,0,5.0,0,8045,0,0,1,BR
2026-04-01 06:51:00,METAR KBED 010651Z AUTO 22005KT 5SM BR OVC004 05/04 A2982 RMK AO2 SLP113 T00500044 $,0,5.0,0,8045,0,0,1,BR
2026-04-01 05:51:00,METAR KBED 010551Z AUTO 20004KT 4SM BR OVC004 04/04 A2986 RMK AO2 SLP123 60000 T00440039 10050 20039 56039 $,0,4.0,0,6436,0,0,1,BR
2026-04-01 04:51:00,METAR KBED 010451Z AUTO 00000KT 6SM BR OVC004 04/03 A2989 RMK AO2 RAE05 PRESFR SLP134 P0000 T00440033 401670039 $,0,0.0,0,9654,0,0,1,BR
2026-04-01 03:51:00,METAR KBED 010351Z AUTO 13008KT 7SM -RA OVC004 04/03 A2990 RMK AO2 RAB49 PRESFR SLP139 P0000 T00390033 $,0,8.0,0,11263,0,0,0,-RA
2026-04-01 02:51:00,METAR KBED 010251Z AUTO 02006KT 6SM BR OVC004 04/03 A2997 RMK AO2 SLP163 T00390033 53004 $,0,6.0,0,9654,0,0,1,BR
2026-04-01 01:58:00,SPECI KBED 010158Z 06003KT 6SM BR OVC004 04/03 A2997 RMK AO2 LTG DSNT NW T00440033 $,0,3.0,0,9654,0,0,1,"BR,DS"
2026-04-01 01:51:00,METAR KBED 010151Z 06004KT 2SM BR OVC004 04/03 A2996 RMK AO2 SLP159 T00440033 $,0,4.0,0,3218,0,0,1,BR
2026-04-01 00:51:00,METAR KBED 010051Z 07005KT 2SM BR OVC004 04/03 A2996 RMK AO2 SLP158 T00440033 $,0,5.0,0,3218,0,0,1,BR
2026-03-31 23:51:00,METAR KBED 312351Z 06006KT 1 1/2SM BR OVC005 05/04 A2996 RMK AO2 SLP159 60001 T00500039 10167 20050 50006 $,0,6.0,0,2414,0,0,1,BR
2026-03-31 22:51:00,METAR KBED 312251Z 07007KT 1 1/2SM BR OVC005 05/04 A2996 RMK AO2 SLP159 T00500039 $,0,7.0,0,2414,0,0,1,BR
2026-03-31 21:51:00,METAR KBED 312151Z 07009KT 9SM OVC005 06/05 A2995 RMK AO2 SLP156 T00610050 $,0,9.0,0,14481,0,0,0,
2026-03-31 20:51:00,METAR KBED 312051Z 08009KT 7SM OVC005 08/07 A2994 RMK AO2 SLP153 60001 T00780067 53006 $,0,9.0,0,11263,0,0,0,
2026-03-31 19:51:00,METAR KBED 311951Z 04009KT 5SM BR OVC006 09/08 A2994 RMK AO2 RAE00 SLP151 P0000 T00940078 $,0,9.0,0,8045,0,0,1,BR
2026-03-31 18:51:00,METAR KBED 311851Z 04010KT 7SM -RA BKN006 OVC049 11/10 A2992 RMK AO2 RAB1757 SLP143 P0001 T01110100 $,0,10.0,0,11263,0,0,0,"-RA,RA"
2026-03-31 18:34:00,SPECI KBED 311834Z 04010KT 8SM -RA SCT008 OVC095 13/11 A2993 RMK AO2 RAB1757 P0000 T01280111 $,0,10.0,0,12872,0,0,0,"-RA,RA"
2026-03-31 17:51:00,METAR KBED 311751Z 06003KT 10SM BKN100 17/13 A2993 RMK AO2 SLP146 60011 T01670133 10167 20117 55006 $,0,3.0,0,16090,0,0,0,
2026-03-31 16:51:00,METAR KBED 311651Z 11005KT 10SM BKN110 16/13 A2992 RMK AO2 SLP145 T01610133 $,0,5.0,0,16090,0,0,0,
2026-03-31 15:51:00,METAR KBED 311551Z 14005KT 5SM BR FEW009 OVC120 14/13 A2993 RMK AO2 RAE11 SLP146 P0001 T01390128 $,0,5.0,0,8045,0,0,1,BR
2026-03-31 14:51:00,METAR KBED 311451Z 11003KT 4SM -RA BR SCT048 BKN080 OVC095 12/12 A2994 RMK AO2 LTG DSNT SE PRESFR SLP152 P0008 60010 T01220117 55005 $,0,3.0,0,6436,0,0,1,"-RA,BR,DS"
2026-03-31 14:10:00,SPECI KBED 311410Z 34006KT 3SM -RA BR OVC005 12/11 A2996 RMK AO2 LTG DSNT NE AND E P0001 T01220111 $,0,6.0,0,4827,0,0,1,"-RA,BR,DS"
2026-03-31 13:51:00,METAR KBED 311351Z 20006KT 6SM -RA BR OVC050 12/11 A2993 RMK AO2 RAE00B47 SLP148 P0000 T01220106 $,0,6.0,0,9654,0,0,1,"-RA,BR,RA"
2026-03-31 12:51:00,METAR KBED 311251Z 21004KT 5SM -RA BR BKN065 OVC090 12/11 A2995 RMK AO2 LTG DSNT NW RAE1156B21 SLP154 P0002 T01220111 $,0,4.0,0,8045,0,0,1,"-RA,BR,DS,RA"
2026-03-31 11:51:00,METAR KBED 311151Z 20007KT 8SM -RA BKN065 OVC095 12/11 A2996 RMK AO2 SLP157 P0003 60004 70004 T01220106 10139 20117 51004 $,0,7.0,0,12872,0,0,0,-RA
2026-03-31 10:51:00,METAR KBED 311051Z 18005KT 10SM -RA SCT065 OVC090 12/10 A2995 RMK AO2 RAB0959 SLP156 P0001 T01220100 $,0,5.0,0,16090,0,0,0,"-RA,RA"
2026-03-31 09:51:00,METAR KBED 310951Z AUTO 21005KT 10SM OVC090 13/08 A2995 RMK AO2 SLP156 T01330083 $,0,5.0,0,16090,0,0,0,
2026-03-31 08:51:00,METAR KBED 310851Z AUTO 20004KT 10SM BKN090 OVC120 12/08 A2995 RMK AO2 SLP153 T01220078 56016 $,0,4.0,0,16090,0,0,0,
2026-03-31 07:51:00,METAR KBED 310751Z AUTO 22007KT 10SM FEW110 13/08 A2996 RMK AO2 SLP156 T01330078 $,0,7.0,0,16090,0,0,0,
2026-03-31 06:51:00,METAR KBED 310651Z AUTO 24008KT 10SM BKN110 14/07 A2998 RMK AO2 SLP163 T01390072 $,0,8.0,0,16090,0,0,0,
2026-03-31 05:51:00,METAR KBED 310551Z AUTO 23008KT 10SM CLR 13/07 A2999 RMK AO2 SLP169 T01330067 10161 20122 58000 $,0,8.0,0,16090,0,0,0,
2026-03-31 04:51:00,METAR KBED 310451Z AUTO 22006KT 10SM CLR 13/06 A3000 RMK AO2 SLP170 T01280056 402220033 $,0,6.0,0,16090,0,0,0,
2026-03-31 03:51:00,METAR KBED 310351Z AUTO 21004KT 10SM CLR 13/06 A2999 RMK AO2 SLP169 T01280056 $,0,4.0,0,16090,0,0,0,
2026-03-31 02:51:00,METAR KBED 310251Z AUTO 22006KT 10SM CLR 13/06 A2999 RMK AO2 SLP170 T01330056 50008 $,0,6.0,0,16090,0,0,0,
2026-03-31 01:51:00,METAR KBED 310151Z 22007KT 10SM CLR 14/06 A2999 RMK AO2 SLP170 T01390056 $,0,7.0,0,16090,0,0,0,
2026-03-31 00:51:00,METAR KBED 310051Z 22010KT 10SM CLR 16/06 A2998 RMK AO2 SLP167 T01560056 $,0,10.0,0,16090,0,0,0,
2026-03-30 23:51:00,METAR KBED 302351Z 21014KT 10SM CLR 16/06 A2997 RMK AO2 SLP162 T01610056 10222 20156 53012 $,0,14.0,0,16090,0,0,0,
2026-03-30 22:51:00,METAR KBED 302251Z 20012G20KT 10SM CLR 17/04 A2996 RMK AO2 SLP157 T01720044 $,0,12.0,1,16090,0,0,0,
2026-03-30 21:51:00,METAR KBED 302151Z 22014G25KT 10SM CLR 19/03 A2995 RMK AO2 PK WND 21026/2059 SLP154 T01940033 $,0,14.0,1,16090,0,0,0,
2026-03-30 20:51:00,METAR KBED 302051Z 21012G20KT 10SM CLR 21/03 A2994 RMK AO2 PK WND 22027/2037 SLP150 T02060028 56015 $,0,12.0,1,16090,0,0,0,
2026-03-30 19:51:00,METAR KBED 301951Z 24019G26KT 10SM FEW080 22/02 A2994 RMK AO2 PK WND 24027/1911 SLP149 T02170017 $,0,19.0,1,16090,0,0,0,
2026-03-30 18:51:00,METAR KBED 301851Z 24016G25KT 10SM CLR 20/02 A2995 RMK AO2 PK WND 25028/1801 SLP156 T02000017 $,0,16.0,1,16090,0,0,0,
2026-03-30 17:51:00,METAR KBED 301751Z 22013G22KT 10SM CLR 19/02 A2998 RMK AO2 PK WND 20029/1730 SLP165 T01890022 10189 20072 56035 $,0,13.0,1,16090,0,0,0,
2026-03-30 16:51:00,METAR KBED 301651Z 21013G25KT 10SM CLR 17/02 A3001 RMK AO2 PK WND 21027/1605 SLP176 T01720022 $,0,13.0,1,16090,0,0,0,
2026-03-30 15:51:00,METAR KBED 301551Z 22017G24KT 10SM BKN095 14/03 A3005 RMK AO2 SLP188 T01440028 $,0,17.0,1,16090,0,0,0,
2026-03-30 14:51:00,METAR KBED 301451Z 23014G20KT 10SM OVC100 11/03 A3008 RMK AO2 SLP202 T01110028 56024 $,0,14.0,1,16090,0,0,0,
2026-03-30 13:51:00,METAR KBED 301351Z 23012G19KT 10SM OVC110 10/03 A3011 RMK AO2 SLP210 T01000028 $,0,12.0,1,16090,0,0,0,
2026-03-30 12:51:00,METAR KBED 301251Z 22011G21KT 10SM BKN120 09/03 A3013 RMK AO2 SLP216 T00890028 $,0,11.0,1,16090,0,0,0,
2026-03-30 11:51:00,METAR KBED 301151Z 22011KT 10SM FEW100 07/03 A3016 RMK AO2 SLP226 T00720028 10072 20039 56021 $,0,11.0,0,16090,0,0,0,
2026-03-30 10:51:00,METAR KBED 301051Z 21009KT 10SM CLR 06/02 A3017 RMK AO2 SLP231 T00610017 $,0,9.0,0,16090,0,0,0,
2026-03-30 09:51:00,METAR KBED 300951Z AUTO 20006KT 10SM CLR 06/M01 A3019 RMK AO2 SLP239 T00561006 $,0,6.0,0,16090,0,0,0,
2026-03-30 08:51:00,METAR KBED 300851Z AUTO 19003KT 10SM CLR 05/M02 A3022 RMK AO2 SLP246 T00501022 56034 $,0,3.0,0,16090,0,0,0,
2026-03-30 07:51:00,METAR KBED 300751Z AUTO 20004KT 10SM FEW120 04/M03 A3025 RMK AO2 SLP257 T00441028 $,0,4.0,0,16090,0,0,0,
2026-03-30 06:51:00,METAR KBED 300651Z AUTO 20005KT 10SM SCT120 04/M03 A3028 RMK AO2 SLP270 T00441033 $,0,5.0,0,16090,0,0,0,
2026-03-30 05:51:00,METAR KBED 300551Z AUTO 21005KT 10SM FEW120 04/M04 A3032 RMK AO2 SLP282 T00391039 10061 20033 58009 $,0,5.0,0,16090,0,0,0,
2026-03-30 04:51:00,METAR KBED 300451Z AUTO 21007KT 10SM CLR 04/M03 A3033 RMK AO2 SLP286 T00441033 401171044 $,0,7.0,0,16090,0,0,0,
2026-03-30 03:51:00,METAR KBED 300351Z AUTO 21005KT 10SM CLR 04/M04 A3034 RMK AO2 SLP290 T00441039 $,0,5.0,0,16090,0,0,0,
2026-03-30 02:51:00,METAR KBED 300251Z AUTO 20005KT 10SM CLR 04/M05 A3035 RMK AO2 SLP291 T00441050 58002 $,0,5.0,0,16090,0,0,0,
2026-03-30 01:51:00,METAR KBED 300151Z 21006KT 10SM CLR 05/M07 A3035 RMK AO2 SLP294 T00501067 $,0,6.0,0,16090,0,0,0,
2026-03-30 00:51:00,METAR KBED 300051Z 22010KT 10SM CLR 06/M06 A3035 RMK AO2 SLP294 T00561061 $,0,10.0,0,16090,0,0,0,
2026-03-29 23:51:00,METAR KBED 292351Z 21009KT 10SM CLR 06/M04 A3035 RMK AO2 SLP294 T00611044 10117 20061 53002 $,0,9.0,0,16090,0,0,0,
2026-03-29 22:51:00,METAR KBED 292251Z 21014G20KT 10SM CLR 07/M05 A3035 RMK AO2 SLP293 T00721050 $,0,14.0,1,16090,0,0,0,
2026-03-29 21:51:00,METAR KBED 292151Z COR 26009G19KT 10SM FEW095 10/M09 A3034 RMK AO2 PK WND 24027/2103 SLP290 T01001094 $,0,9.0,1,16090,0,0,0,
2026-03-29 20:51:00,METAR KBED 292051Z 26014G22KT 10SM FEW100 11/M11 A3034 RMK AO2 SLP291 T01111106 56026 $,0,14.0,1,16090,0,0,0,
2026-03-29 19:51:00,METAR KBED 291951Z 23012G19KT 10SM SCT110 10/M09 A3036 RMK AO2 SLP296 T01001094 $,0,12.0,1,16090,0,0,0,
2026-03-29 18:51:00,METAR KBED 291851Z 23011G20KT 10SM FEW050 10/M11 A3038 RMK AO2 WSHFT 1832 SLP303 T01001111 $,0,11.0,1,16090,0,0,0,
2026-03-29 17:51:00,METAR KBED 291751Z 24013G22KT 10SM CLR 09/M11 A3042 RMK AO2 PK WND 19028/1703 SLP317 T00891111 10094 21022 58033 $,0,13.0,1,16090,0,0,0,
2026-03-29 16:51:00,METAR KBED 291651Z 22009G20KT 190V260 10SM CLR 07/M11 A3046 RMK AO2 SLP330 T00721111 $,0,9.0,1,16090,0,0,0,
2026-03-29 15:51:00,METAR KBED 291551Z 25007G17KT 210V280 10SM CLR 07/M10 A3049 RMK AO2 SLP342 T00671100 $,0,7.0,1,16090,0,0,0,
2026-03-29 14:51:00,METAR KBED 291451Z 27010G15KT 10SM CLR 05/M11 A3052 RMK AO2 SLP350 T00501106 58012 $,0,10.0,1,16090,0,0,0,
2026-03-29 14:26:00,SPECI KBED 291426Z 24008KT 10SM SCT080 03/M11 A3053 RMK AO2 T00331106 $,0,8.0,0,16090,0,0,0,
2026-03-29 13:51:00,METAR KBED 291351Z COR 26007KT 10SM SCT080 03/M09 A3055 RMK AO2 SLP362 T00281094 $,0,7.0,0,16090,0,0,0,
2026-03-29 12:51:00,METAR KBED 291251Z 24008KT 10SM BKN085 01/M11 A3056 RMK AO2 SLP364 T00061106 $,0,8.0,0,16090,0,0,0,
2026-03-29 11:51:00,METAR KBED 291151Z 23005KT 10SM FEW048 SCT090 M02/M11 A3055 RMK AO2 SLP363 T10221111 11017 21044 51015 $,0,5.0,0,16090,0,0,0,
2026-03-29 10:51:00,METAR KBED 291051Z 24006KT 10SM BKN055 OVC110 M03/M12 A3054 RMK AO2 SLP359 T10281117 $,0,6.0,0,16090,0,0,0,
2026-03-29 09:51:00,METAR KBED 290951Z AUTO 24006KT 10SM SCT060 M04/M12 A3052 RMK AO2 SLP351 T10391122 $,0,6.0,0,16090,0,0,0,
2026-03-29 08:51:00,METAR KBED 290851Z AUTO 25004KT 10SM CLR M04/M13 A3051 RMK AO2 SLP347 T10391128 53004 $,0,4.0,0,16090,0,0,0,
2026-03-29 07:51:00,METAR KBED 290751Z AUTO 24004KT 10SM CLR M03/M13 A3050 RMK AO2 SLP345 T10331133 $,0,4.0,0,16090,0,0,0,
2026-03-29 06:51:00,METAR KBED 290651Z AUTO 22004KT 10SM CLR M03/M12 A3049 RMK AO2 SLP343 T10331117 $,0,4.0,0,16090,0,0,0,
2026-03-29 05:51:00,METAR KBED 290551Z AUTO 25003KT 10SM CLR M02/M13 A3049 RMK AO2 SLP342 T10221128 10000 21028 51015 $,0,3.0,0,16090,0,0,0,
2026-03-29 04:51:00,METAR KBED 290451Z AUTO 25003KT 10SM CLR M02/M13 A3048 RMK AO2 SLP337 T10221128 400391044 $,0,3.0,0,16090,0,0,0,
2026-03-29 03:51:00,METAR KBED 290351Z AUTO 26004KT 10SM CLR M02/M13 A3047 RMK AO2 SLP336 T10171128 $,0,4.0,0,16090,0,0,0,
2026-03-29 02:51:00,METAR KBED 290251Z AUTO 27005KT 10SM CLR M02/M12 A3045 RMK AO2 SLP328 T10171117 51022 $,0,5.0,0,16090,0,0,0,
2026-03-29 01:51:00,METAR KBED 290151Z 27008KT 10SM CLR 00/M12 A3044 RMK AO2 SLP325 T00001117 $,0,8.0,0,16090,0,0,0,
2026-03-29 00:51:00,METAR KBED 290051Z 26006KT 10SM CLR M01/M11 A3042 RMK AO2 SLP317 T10111111 $,0,6.0,0,16090,0,0,0,
2026-03-28 23:51:00,METAR KBED 282351Z 28005KT 10SM CLR 00/M12 A3039 RMK AO2 SLP306 T00001122 10039 20000 53014 $,0,5.0,0,16090,0,0,0,
2026-03-28 22:51:00,METAR KBED 282251Z 27005KT 10SM BKN075 02/M15 A3036 RMK AO2 SLP298 T00171150 $,0,5.0,0,16090,0,0,0,
2026-03-28 21:51:00,METAR KBED 282151Z 26010G18KT 10SM BKN080 02/M15 A3035 RMK AO2 SLP295 T00171150 $,0,10.0,1,16090,0,0,0,
2026-03-28 20:51:00,METAR KBED 282051Z 29012G20KT 10SM FEW070 BKN100 02/M16 A3034 RMK AO2 SLP292 T00171156 55002 $,0,12.0,1,16090,0,0,0,
2026-03-28 19:51:00,METAR KBED 281951Z 30016G21KT 10SM FEW065 BKN080 02/M18 A3033 RMK AO2 SLP288 T00221178 $,0,16.0,1,16090,0,0,0,
2026-03-28 18:51:00,METAR KBED 281851Z 30011G18KT 10SM BKN080 02/M17 A3034 RMK AO2 SLP288 T00221172 $,0,11.0,1,16090,0,0,0,
2026-03-28 17:51:00,METAR KBED 281751Z 32007KT 10SM BKN070 02/M17 A3035 RMK AO2 SLP293 T00171172 10028 21039 56013 $,0,7.0,0,16090,0,0,0,
2026-03-28 16:51:00,METAR KBED 281651Z 34010G16KT 10SM CLR 02/M17 A3036 RMK AO2 SLP297 T00171172 $,0,10.0,1,16090,0,0,0,
2026-03-28 15:51:00,METAR KBED 281551Z VRB04G15KT 10SM CLR 01/M17 A3037 RMK AO2 SLP300 T00061167 $,0,4.0,1,16090,0,0,0,
2026-03-28 14:51:00,METAR KBED 281451Z 36009G16KT 10SM CLR M01/M17 A3039 RMK AO2 SLP307 T10061167 51016 $,0,9.0,1,16090,0,0,0,
2026-03-28 13:51:00,METAR KBED 281351Z 31007KT 280V350 10SM FEW120 M01/M16 A3038 RMK AO2 SLP303 T10111156 $,0,7.0,0,16090,0,0,0,
2026-03-28 12:51:00,METAR KBED 281251Z 32012KT 10SM CLR M03/M16 A3036 RMK AO2 SLP297 T10281156 $,0,12.0,0,16090,0,0,0,
2026-03-28 11:51:00,METAR KBED 281151Z 35009KT 10SM FEW060 M04/M15 A3034 RMK AO2 SLP291 T10391150 11022 21044 53028 $,0,9.0,0,16090,0,0,0,
2026-03-28 10:51:00,METAR KBED 281051Z 34006KT 10SM SCT065 M04/M16 A3031 RMK AO2 SLP279 T10441161 $,0,6.0,0,16090,0,0,0,
2026-03-28 09:51:00,METAR KBED 280951Z AUTO 35010KT 10SM OVC065 M03/M15 A3028 RMK AO2 SLP271 T10331150 $,0,10.0,0,16090,0,0,0,
2026-03-28 08:51:00,METAR KBED 280851Z AUTO 35007KT 10SM OVC070 M03/M16 A3026 RMK AO2 SLP262 T10281161 53010 $,0,7.0,0,16090,0,0,0,
2026-03-28 07:51:00,METAR KBED 280751Z AUTO 01007KT 10SM OVC070 M03/M17 A3024 RMK AO2 SLP254 T10331167 $,0,7.0,0,16090,0,0,0,
2026-03-28 06:51:00,METAR KBED 280651Z AUTO 35007KT 10SM BKN060 M02/M16 A3024 RMK AO2 SLP257 T10221161 $,0,7.0,0,16090,0,0,0,
2026-03-28 05:51:00,METAR KBED 280551Z AUTO 01005KT 10SM CLR M02/M16 A3023 RMK AO2 SLP251 T10221156 10022 21028 53017 $,0,5.0,0,16090,0,0,0,
2026-03-28 04:51:00,METAR KBED 280451Z AUTO 36005KT 10SM CLR M02/M15 A3021 RMK AO2 SLP246 T10221150 401171022 $,0,5.0,0,16090,0,0,0,
2026-03-28 03:51:00,METAR KBED 280351Z AUTO 35003KT 10SM CLR M02/M16 A3019 RMK AO2 SLP238 T10171156 $,0,3.0,0,16090,0,0,0,
2026-03-28 02:51:00,METAR KBED 280251Z AUTO 36005KT 10SM CLR M02/M13 A3018 RMK AO2 SLP234 T10171128 51016 $,0,5.0,0,16090,0,0,0,
2026-03-28 01:51:00,METAR KBED 280151Z 02006KT 10SM CLR 01/M16 A3017 RMK AO2 SLP233 T00061156,0,6.0,0,16090,0,0,0,
2026-03-28 00:51:00,METAR KBED 280051Z 01005KT 10SM CLR 01/M14 A3015 RMK AO2 SLP226 T00111144,0,5.0,0,16090,0,0,0,
2026-03-27 23:51:00,METAR KBED 272351Z 36005KT 10SM CLR 02/M14 A3013 RMK AO2 SLP217 T00221144 10061 20022 53025,0,5.0,0,16090,0,0,0,
2026-03-27 22:51:00,METAR KBED 272251Z 34006KT 10SM CLR 04/M15 A3010 RMK AO2 SLP206 T00391150,0,6.0,0,16090,0,0,0,
2026-03-27 21:51:00,METAR KBED 272151Z 33009KT 10SM CLR 05/M16 A3006 RMK AO2 SLP195 T00501156,0,9.0,0,16090,0,0,0,
2026-03-27 20:51:00,METAR KBED 272051Z 33010KT 10SM CLR 06/M13 A3005 RMK AO2 SLP191 T00561133 53001,0,10.0,0,16090,0,0,0,
2026-03-27 19:51:00,METAR KBED 271951Z 36011G17KT 10SM CLR 06/M11 A3005 RMK AO2 SLP190 T00561106,0,11.0,1,16090,0,0,0,
2026-03-27 18:51:00,METAR KBED 271851Z 31006KT 10SM CLR 05/M10 A3005 RMK AO2 SLP191 T00501100,0,6.0,0,16090,0,0,0,
2026-03-27 17:51:00,METAR KBED 271751Z 02008KT 10SM CLR 04/M09 A3005 RMK AO2 SLP191 T00441089 10067 20044 51022,0,8.0,0,16090,0,0,0,
2026-03-27 16:51:00,METAR KBED 271651Z 36015G26KT 10SM SCT040 05/M11 A3004 RMK AO2 PK WND 01026/1644 SLP188 T00501111,0,15.0,1,16090,0,0,0,
2026-03-27 15:51:00,METAR KBED 271551Z 35013G21KT 10SM SCT040 04/M05 A3002 RMK AO2 SLP179 T00441050,0,13.0,1,16090,0,0,0,
2026-03-25 14:51:00,METAR KBED 251451Z VRB05G14KT 10SM CLR 07/M08 A3036 RMK AO2 SLP294 T00671078 51002,0,5.0,1,16090,0,0,0,
2026-03-25 13:51:00,METAR KBED 251351Z 26008KT 10SM CLR 06/M07 A3035 RMK AO2 SLP294 T00561067,0,8.0,0,16090,0,0,0,
2026-03-25 12:51:00,METAR KBED 251251Z 25008KT 10SM CLR 03/M06 A3036 RMK AO2 SLP296 T00331061,0,8.0,0,16090,0,0,0,
2026-03-25 11:51:00,METAR KBED 251151Z 24006KT 10SM CLR 01/M06 A3035 RMK AO2 SLP293 T00061056 10006 21022 51017,0,6.0,0,16090,0,0,0,
2026-03-25 10:51:00,METAR KBED 251051Z 24006KT 10SM CLR M02/M06 A3034 RMK AO2 SLP291 T10221061,0,6.0,0,16090,0,0,0,
2026-03-25 09:51:00,METAR KBED 250951Z AUTO 25004KT 10SM CLR 00/M07 A3032 RMK AO2 SLP282 T00001067,0,4.0,0,16090,0,0,0,
2026-03-25 08:51:00,METAR KBED 250851Z AUTO 25005KT 10SM CLR M01/M07 A3030 RMK AO2 SLP276 T10061067 53010,0,5.0,0,16090,0,0,0,
2026-03-25 07:51:00,METAR KBED 250751Z AUTO 22004KT 10SM CLR 00/M07 A3027 RMK AO2 SLP266 T00001067,0,4.0,0,16090,0,0,0,
2026-03-25 06:51:00,METAR KBED 250651Z AUTO 22005KT 10SM CLR 00/M07 A3026 RMK AO2 SLP263 T00001067,0,5.0,0,16090,0,0,0,
2026-03-25 05:51:00,METAR KBED 250551Z AUTO 22007KT 10SM CLR 01/M07 A3027 RMK AO2 SLP266 T00061067 10044 20006 53004,0,7.0,0,16090,0,0,0,
2026-03-25 04:51:00,METAR KBED 250451Z AUTO 22008KT 10SM CLR 02/M06 A3026 RMK AO2 SLP264 T00171061 400831006,0,8.0,0,16090,0,0,0,
2026-03-25 03:51:00,METAR KBED 250351Z AUTO 24009KT 10SM CLR 02/M06 A3026 RMK AO2 SLP264 T00221061,0,9.0,0,16090,0,0,0,
2026-03-25 02:51:00,METAR KBED 250251Z 22009G17KT 10SM CLR 02/M06 A3026 RMK AO2 SLP262 T00221056 50003,0,9.0,1,16090,0,0,0,
2026-03-25 01:51:00,METAR KBED 250151Z 21012KT 10SM CLR 02/M04 A3026 RMK AO2 SLP263 T00221044,0,12.0,0,16090,0,0,0,
2026-03-25 00:51:00,METAR KBED 250051Z 20011KT 10SM CLR 03/M04 A3027 RMK AO2 SLP265 T00331044,0,11.0,0,16090,0,0,0,
2026-03-24 23:51:00,METAR KBED 242351Z 21005KT 10SM CLR 04/M09 A3025 RMK AO2 SLP259 T00441089 10083 20044 53001,0,5.0,0,16090,0,0,0,
2026-03-24 22:51:00,METAR KBED 242251Z 22005KT 10SM CLR 06/M12 A3025 RMK AO2 SLP258 T00561117,0,5.0,0,16090,0,0,0,
2026-03-24 21:51:00,METAR KBED 242151Z 24007KT 10SM CLR 08/M09 A3024 RMK AO2 SLP257 T00781094,0,7.0,0,16090,0,0,0,
2026-03-24 20:51:00,METAR KBED 242051Z 24008G14KT 10SM CLR 08/M11 A3025 RMK AO2 SLP258 T00781106 56017,0,8.0,1,16090,0,0,0,
2026-03-24 19:51:00,METAR KBED 241951Z 20007KT 10SM FEW060 08/M09 A3025 RMK AO2 SLP260 T00781094,0,7.0,0,16090,0,0,0,
2026-03-24 18:51:00,METAR KBED 241851Z 10SM FEW060 07/M09 A3027 RMK AO2 SLP268 T00721089,0,,0,16090,0,0,0,
2026-03-24 17:51:00,METAR KBED 241751Z VRB04KT 10SM SCT060 06/M08 A3030 RMK AO2 SLP275 T00611078 10061 20000 58015,0,4.0,0,16090,0,0,0,
2026-03-24 16:51:00,METAR KBED 241651Z 34007KT 10SM FEW048 BKN060 05/M08 A3033 RMK AO2 SLP286 T00501078,0,7.0,0,16090,0,0,0,
2026-03-24 15:51:00,METAR KBED 241551Z 30007KT 10SM BKN043 05/M06 A3033 RMK AO2 SLP286 T00501056,0,7.0,0,16090,0,0,0,
2026-03-24 14:51:00,METAR KBED 241451Z 34008KT 10SM BKN037 04/M05 A3034 RMK AO2 SLP290 T00391050 53016,0,8.0,0,16090,0,0,0,
2026-03-24 13:51:00,METAR KBED 241351Z 35011G19KT 10SM BKN030 03/M04 A3033 RMK AO2 SLP285 T00281039,0,11.0,1,16090,0,0,0,
2026-03-24 13:41:00,SPECI KBED 241341Z 33011KT 10SM BKN029 02/M04 A3032 RMK AO2 T00221044,0,11.0,0,16090,0,0,0,
2026-03-24 12:51:00,METAR KBED 241251Z 35007KT 10SM FEW030 01/M04 A3030 RMK AO2 SLP277 T00111044,0,7.0,0,16090,0,0,0,
2026-03-24 11:51:00,METAR KBED 241151Z 33004KT 10SM BKN030 00/M04 A3029 RMK AO2 SLP274 70003 T00001044 10000 21006 51035,0,4.0,0,16090,0,0,0,
2026-03-24 10:51:00,METAR KBED 241051Z 33004KT 10SM OVC037 M01/M04 A3026 RMK AO2 SLP263 T10061044 $,0,4.0,0,16090,0,0,0,
2026-03-24 09:51:00,METAR KBED 240951Z AUTO 36004KT 10SM BKN042 M01/M05 A3023 RMK AO2 SLP251 T10061050 $,0,4.0,0,16090,0,0,0,
2026-03-24 08:51:00,METAR KBED 240851Z AUTO 34008G17KT 10SM OVC040 00/M05 A3019 RMK AO2 SLP239 T00001050 53017 $,0,8.0,1,16090,0,0,0,
2026-03-24 07:51:00,METAR KBED 240751Z AUTO 33007KT 10SM OVC035 00/M05 A3017 RMK AO2 SLP231 T00001050 $,0,7.0,0,16090,0,0,0,
2026-03-24 06:51:00,METAR KBED 240651Z AUTO 34007KT 10SM OVC043 00/M04 A3015 RMK AO2 SLP227 T00001044 $,0,7.0,0,16090,0,0,0,
2026-03-24 05:51:00,METAR KBED 240551Z AUTO 33006G15KT 10SM OVC032 00/M04 A3014 RMK AO2 SNB0452E06 SLP222 P0000 60002 T00001039 10011 20000 51019 $,0,6.0,1,16090,0,0,0,SN
2026-03-24 05:25:00,SPECI KBED 240525Z AUTO 33007KT 10SM OVC030 00/M03 A3014 RMK AO2 SNB0452E06 P0000 T00001033 $,0,7.0,0,16090,0,0,0,SN
2026-03-24 04:58:00,SPECI KBED 240458Z AUTO 33005KT 9SM -SN SCT014 BKN025 OVC034 00/M02 A3013 RMK AO2 SNB52 P0000 T00001017 $,0,5.0,0,14481,0,0,0,SN
2026-03-24 04:51:00,METAR KBED 240451Z AUTO 33006KT 10SM BKN013 BKN029 OVC034 00/M01 A3013 RMK AO2 SNE0356B0359E41 SLP217 P0000 T00001011 400220000 $,0,6.0,0,16090,0,0,0,SN
2026-03-24 03:58:00,SPECI KBED 240358Z AUTO 34005KT 9SM FEW005 BKN024 OVC029 00/M01 A3011 RMK AO2 SNE56 P0000 T00001011 $,0,5.0,0,14481,0,0,0,
2026-03-24 03:51:00,METAR KBED 240351Z AUTO 34008KT 8SM -SN FEW005 BKN011 OVC029 00/M01 A3011 RMK AO2 SLP212 P0002 T00001011 $,0,8.0,0,12872,0,0,0,SN
2026-03-24 03:43:00,SPECI KBED 240343Z AUTO 36006KT 2SM -SN BR SCT005 BKN011 OVC025 00/M01 A3011 RMK AO2 VIS 1V5 P0002 T00001006 $,0,6.0,0,3218,0,0,1,"BR,SN"
2026-03-24 03:25:00,SPECI KBED 240325Z AUTO 31003KT 1SM R11/5500VP6000FT -SN BR FEW006 BKN014 OVC032 00/M01 A3010 RMK AO2 P0001 T00001006 $,0,3.0,0,1609,0,0,1,"BR,SN"
2026-03-24 03:18:00,SPECI KBED 240318Z AUTO 32005KT 1 1/4SM R11/5500VP6000FT -SN BR BKN014 BKN021 OVC030 00/M01 A3010 RMK AO2 P0001 T00001011 $,0,5.0,0,2011,0,0,1,"BR,SN"
2026-03-24 03:03:00,SPECI KBED 240303Z AUTO 35003KT 2 1/2SM -SN BR FEW021 BKN027 OVC034 01/M02 A3009 RMK AO2 P0000 T00061017 $,0,3.0,0,4022,0,0,1,"BR,SN"
2026-03-24 02:51:00,METAR KBED 240251Z AUTO 35005KT 9SM -SN FEW021 BKN030 OVC034 01/M02 A3009 RMK AO2 SNB48 SLP203 P0000 60000 T00061022 51021 $,0,5.0,0,14481,0,0,0,SN
2026-03-24 01:51:00,METAR KBED 240151Z 36005KT 10SM BKN037 BKN046 OVC070 01/M02 A3007 RMK AO2 SLP198 T00061017 $,0,5.0,0,16090,0,0,0,
2026-03-24 00:51:00,METAR KBED 240051Z 35004KT 10SM OVC041 01/M01 A3006 RMK AO2 SLP194 T00061011 $,0,4.0,0,16090,0,0,0,
2026-03-23 23:51:00,METAR KBED 232351Z 01005KT 10SM SCT047 BKN055 OVC065 01/M01 A3002 RMK AO2 RAE46SNE46 SLP182 P0000 60000 T00061011 10022 20006 51034 $,0,5.0,0,16090,0,0,0,RA
2026-03-23 22:51:00,METAR KBED 232251Z 36006KT 5SM -SNRA BR SCT010 BKN016 OVC031 01/M01 A2999 RMK AO2 UPB45E51RAB51SNB51 SLP172 P0000 T00111006 $,0,6.0,0,8045,0,0,1,"BR,RA,UP"
2026-03-23 21:51:00,METAR KBED 232151Z 36009KT 10SM FEW017 OVC023 02/M02 A2996 RMK AO2 SLP160 T00171017 $,0,9.0,0,16090,0,0,0,
2026-03-23 20:51:00,METAR KBED 232051Z 02008KT 10SM BKN020 OVC024 02/M01 A2992 RMK AO2 SLP148 60000 T00221011 53016 $,0,8.0,0,16090,0,0,0,
2026-03-23 19:51:00,METAR KBED 231951Z 01007KT 10SM BKN021 OVC027 02/M01 A2991 RMK AO2 UPB07E16 SLP143 P0000 T00221011 $,0,7.0,0,16090,0,0,0,UP
2026-03-23 18:51:00,METAR KBED 231851Z 03009KT 10SM OVC019 02/M01 A2988 RMK AO2 SLP132 T00221011 $,0,9.0,0,16090,0,0,0,
2026-03-23 17:51:00,METAR KBED 231751Z 02010KT 6SM BR OVC014 02/M01 A2988 RMK AO2 SLP132 60001 T00171006 10017 20006 53007 $,0,10.0,0,9654,0,0,1,BR
2026-03-23 16:51:00,METAR KBED 231651Z 03010KT 6SM BR OVC008 02/M01 A2987 RMK AO2 SLP130 T00171006 $,0,10.0,0,9654,0,0,1,BR
2026-03-23 15:51:00,METAR KBED 231551Z COR 04007KT 6SM BR OVC009 01/00 A2985 RMK AO2 SLP123 T00110000 $,0,7.0,0,9654,0,0,1,BR
2026-03-23 14:51:00,METAR KBED 231451Z 01009KT 10SM OVC008 01/M01 A2986 RMK AO2 SLP125 60001 T00111006 53010 $,0,9.0,0,16090,0,0,0,
2026-03-23 13:51:00,METAR KBED 231351Z 02009KT 4SM BR OVC009 01/M01 A2984 RMK AO2 SLP121 T00061006 $,0,9.0,0,6436,0,0,1,BR
2026-03-23 12:51:00,METAR KBED 231251Z 03010G16KT 3SM BR OVC007 01/M01 A2982 RMK AO2 SNE24 SLP112 P0001 T00061006 $,0,10.0,1,4827,0,0,1,BR
2026-03-23 12:18:00,SPECI KBED 231218Z 02008KT 3SM -SN BR OVC007 01/M01 A2982 RMK AO2 P0001 T00061006 $,0,8.0,0,4827,0,0,1,"BR,SN"
2026-03-23 11:51:00,METAR KBED 231151Z 01008KT 1 1/4SM -SN BR OVC007 01/M01 A2983 RMK AO2 SLP115 P0004 60022 70055 T00061006 10022 20006 52006 $,0,8.0,0,2011,0,0,1,"BR,SN"
2026-03-23 11:20:00,SPECI KBED 231120Z 02006KT 1 3/4SM -SN BR BKN003 OVC013 01/M01 A2982 RMK AO2 P0001 T00061006 $,0,6.0,0,2816,0,0,1,"BR,SN"
2026-03-23 11:13:00,SPECI KBED 231113Z 03005KT 1 3/4SM -SN BR BKN007 OVC013 01/00 A2982 RMK AO2 P0001 T00060000 $,0,5.0,0,2816,0,0,1,"BR,SN"
2026-03-23 10:51:00,METAR KBED 231051Z 01007KT 3SM -SN BR OVC009 01/00 A2982 RMK AO2 UPE10SNB10 SLP113 P0002 T00060000 $,0,7.0,0,4827,0,0,1,"BR,SN,UP"
2026-03-23 10:39:00,SPECI KBED 231039Z AUTO 01007KT 4SM -SN BR OVC009 01/00 A2981 RMK AO2 UPE10SNB10 CIG 007V012 P0001 T00060000 $,0,7.0,0,6436,0,0,1,"BR,SN,UP"
2026-03-23 10:23:00,SPECI KBED 231023Z AUTO 02006KT 5SM -SN BR BKN010 OVC015 01/00 A2981 RMK AO2 UPE10SNB10 P0000 T00060000,0,6.0,0,8045,0,0,1,"BR,SN,UP"
2026-03-23 09:51:00,METAR KBED 230951Z AUTO 04006KT 8SM UP BKN008 OVC055 01/00 A2981 RMK AO2 RAE50UPB50 CIG 006V011 SLP111 P0003 T00110000,0,6.0,0,12872,0,0,0,"RA,UP"
2026-03-23 08:51:00,METAR KBED 230851Z AUTO 02007KT 10SM -RA OVC008 02/01 A2981 RMK AO2 CIG 006V011 SLP108 P0007 60013 T00170006 51003,0,7.0,0,16090,0,0,0,-RA
2026-03-23 07:51:00,METAR KBED 230751Z AUTO 01006KT 8SM RA OVC005 02/01 A2980 RMK AO2 SLP108 P0004 T00170006,0,6.0,0,12872,0,0,0,RA
2026-03-23 06:51:00,METAR KBED 230651Z AUTO 02006KT 10SM -RA OVC006 02/01 A2981 RMK AO2 SLP110 P0002 T00170011,0,6.0,0,16090,0,0,0,-RA
2026-03-23 05:51:00,METAR KBED 230551Z AUTO 01008KT 10SM -RA OVC007 02/01 A2980 RMK AO2 SLP105 P0003 60020 T00220011 10067 20022 58001,0,8.0,0,16090,0,0,0,-RA
2026-03-23 04:59:00,SPECI KBED 230459Z AUTO 36007KT 10SM -RA OVC009 03/01 A2980 RMK AO2 CIG 007V012 P0000 T00280011,0,7.0,0,16090,0,0,0,-RA
2026-03-23 04:51:00,METAR KBED 230451Z AUTO 35009KT 10SM -RA OVC011 03/02 A2980 RMK AO2 CIG 007V012 SLP106 P0003 T00280017 400720017,0,9.0,0,16090,0,0,0,-RA
2026-03-23 04:39:00,SPECI KBED 230439Z AUTO 36007KT 10SM -RA SCT005 OVC011 03/02 A2981 RMK AO2 P0003 T00280017,0,7.0,0,16090,0,0,0,-RA
2026-03-23 04:19:00,SPECI KBED 230419Z AUTO 01007KT 9SM -RA BKN007 OVC011 03/02 A2982 RMK AO2 CIG 004V009 P0002 T00330022,0,7.0,0,14481,0,0,0,-RA
2026-03-23 04:08:00,SPECI KBED 230408Z AUTO 36006KT 10SM -RA OVC010 03/02 A2983 RMK AO2 CIG 006V012 P0001 T00330022,0,6.0,0,16090,0,0,0,-RA
2026-03-23 03:51:00,METAR KBED 230351Z AUTO 02007KT 10SM -RA OVC009 03/02 A2982 RMK AO2 CIG 006V012 SLP112 P0003 T00330022,0,7.0,0,16090,0,0,0,-RA
2026-03-23 03:01:00,SPECI KBED 230301Z AUTO 02005KT 10SM -RA OVC006 03/03 A2980 RMK AO2 CIG 004V010 P0001 T00330028,0,5.0,0,16090,0,0,0,-RA
2026-03-23 02:51:00,METAR KBED 230251Z 02004KT 4SM -RA BR OVC004 03/03 A2980 RMK AO2 SLP107 P0006 60011 T00330028 51024,0,4.0,0,6436,0,0,1,"-RA,BR"
2026-03-23 01:51:00,METAR KBED 230151Z 01006KT 3SM RA BR OVC004 04/03 A2980 RMK AO2 SLP105 P0005 T00390033,0,6.0,0,4827,0,0,1,"BR,RA"
2026-03-23 00:58:00,SPECI KBED 230058Z 02011KT 3SM -RA BR OVC003 05/04 A2976 RMK AO2 P0000 T00500044,0,11.0,0,4827,0,0,1,"-RA,BR"
2026-03-23 00:51:00,METAR KBED 230051Z 01014KT 4SM -RA BR OVC007 05/04 A2975 RMK AO2 RAB11 SLP090 P0000 T00500044,0,14.0,0,6436,0,0,1,"-RA,BR"
2026-03-23 00:13:00,SPECI KBED 230013Z 35003KT 8SM -RA OVC007 07/06 A2974 RMK AO2 RAB11 P0000 T00670061,0,3.0,0,12872,0,0,0,-RA
2026-03-22 23:51:00,METAR KBED 222351Z 00000KT 10SM OVC011 07/06 A2973 RMK AO2 SLP081 60013 T00670061 10072 20056 53020,0,0.0,0,16090,0,0,0,
2026-03-22 22:51:00,METAR KBED 222251Z 36003KT 10SM BKN005 OVC011 07/06 A2970 RMK AO2 RAE50 SLP072 P0001 T00670061,0,3.0,0,16090,0,0,0,
2026-03-22 21:51:00,METAR KBED 222151Z 25003KT 10SM -RA BKN005 OVC011 07/06 A2967 RMK AO2 SLP063 P0001 T00670061,0,3.0,0,16090,0,0,0,-RA
2026-03-22 20:51:00,METAR KBED 222051Z 21006KT 5SM -RA BR OVC007 07/06 A2967 RMK AO2 SLP061 P0006 60011 T00670056 58027,0,6.0,0,8045,0,0,1,"-RA,BR"
2026-03-22 20:18:00,SPECI KBED 222018Z 20006KT 2SM -RA BR OVC007 06/05 A2968 RMK AO2 PRESFR P0004 T00610050,0,6.0,0,3218,0,0,1,"-RA,BR"
2026-03-22 19:51:00,METAR KBED 221951Z 19007KT 4SM RA BR OVC009 06/04 A2970 RMK AO2 RAB06 PRESFR SLP073 P0004 T00610044,0,7.0,0,6436,0,0,1,"BR,RA"
2026-03-22 18:51:00,METAR KBED 221851Z VRB03KT 10SM OVC011 06/04 A2972 RMK AO2 RAE43 SLP079 P0001 T00560039,0,3.0,0,16090,0,0,0,
2026-03-22 17:51:00,METAR KBED 221751Z 19011G18KT 10SM -RA OVC020 06/02 A2975 RMK AO2 RAB35 SLP088 P0000 60000 T00610022 10067 20028 58039,0,11.0,1,16090,0,0,0,-RA
2026-03-22 16:51:00,METAR KBED 221651Z 21017G25KT 10SM OVC019 06/02 A2981 RMK AO2 SLP108 T00610017,0,17.0,1,16090,0,0,0,
2026-03-22 15:51:00,METAR KBED 221551Z 17011G18KT 10SM OVC019 06/01 A2981 RMK AO2 RAE15 SLP108 P0000 T00560011,0,11.0,1,16090,0,0,0,
2026-03-22 15:18:00,SPECI KBED 221518Z 18007KT 10SM BKN024 OVC030 05/01 A2982 RMK AO2 RAE15 P0000 T00500011,0,7.0,0,16090,0,0,0,
2026-03-22 14:51:00,METAR KBED 221451Z VRB06KT 10SM -RA SCT023 OVC031 04/00 A2986 RMK AO2 RAB48 SLP128 P0000 60000 T00440000 58025,0,6.0,0,16090,0,0,0,-RA
2026-03-22 13:51:00,METAR KBED 221351Z 17007KT 130V190 10SM BKN022 OVC035 03/M02 A2988 RMK AO2 SLP135 T00331017,0,7.0,0,16090,0,0,0,
2026-03-22 12:51:00,METAR KBED 221251Z 15006KT 10SM BKN024 OVC038 03/M03 A2992 RMK AO2 SLP146 T00331028,0,6.0,0,16090,0,0,0,
2026-03-22 11:51:00,METAR KBED 221151Z 16008KT 10SM OVC038 03/M03 A2994 RMK AO2 SLP153 T00281033 10028 20017 56014,0,8.0,0,16090,0,0,0,
2026-03-22 10:51:00,METAR KBED 221051Z 14009KT 10SM OVC040 03/M03 A2995 RMK AO2 SLP159 T00281033,0,9.0,0,16090,0,0,0,
2026-03-22 09:51:00,METAR KBED 220951Z AUTO 14008KT 10SM BKN050 OVC065 03/M04 A2995 RMK AO2 SLP156 T00281039,0,8.0,0,16090,0,0,0,
2026-03-22 08:51:00,METAR KBED 220851Z AUTO 15003KT 10SM BKN090 BKN110 02/M05 A2998 RMK AO2 SLP166 T00171050 56018,0,3.0,0,16090,0,0,0,
2026-03-22 07:51:00,METAR KBED 220751Z AUTO 25003KT 10SM BKN100 02/M06 A3001 RMK AO2 PRESRR SLP178 T00171061,0,3.0,0,16090,0,0,0,
2026-03-22 06:51:00,METAR KBED 220651Z AUTO 10007KT 10SM OVC100 02/M06 A2999 RMK AO2 SLP169 T00221061,0,7.0,0,16090,0,0,0,
2026-03-22 05:51:00,METAR KBED 220551Z AUTO 03004KT 10SM OVC110 02/M06 A3003 RMK AO2 SLP184 T00221061 10044 20011 53013,0,4.0,0,16090,0,0,0,
2026-03-22 04:51:00,METAR KBED 220451Z AUTO 00000KT 10SM OVC100 03/M06 A3001 RMK AO2 SLP177 T00281061 401060011,0,0.0,0,16090,0,0,0,
2026-03-22 03:51:00,METAR KBED 220351Z AUTO 01003KT 10SM FEW120 03/M06 A2999 RMK AO2 SLP170 T00281061,0,3.0,0,16090,0,0,0,
2026-03-22 02:51:00,METAR KBED 220251Z AUTO 05004KT 10SM BKN120 03/M06 A3000 RMK AO2 SLP172 T00281056 58000,0,4.0,0,16090,0,0,0,
2026-03-22 01:51:00,METAR KBED 220151Z 34004KT 10SM CLR 02/M06 A3001 RMK AO2 SLP178 T00171061,0,4.0,0,16090,0,0,0,
2026-03-22 00:51:00,METAR KBED 220051Z 33005KT 10SM CLR 03/M07 A3001 RMK AO2 SLP176 T00281072,0,5.0,0,16090,0,0,0,
2026-03-21 23:51:00,METAR KBED 212351Z 02004KT 10SM CLR 04/M08 A3000 RMK AO2 SLP172 T00441078 10100 20044 51030,0,4.0,0,16090,0,0,0,
2026-03-21 22:51:00,METAR KBED 212251Z 35006KT 10SM CLR 05/M08 A2997 RMK AO2 SLP164 T00501078,0,6.0,0,16090,0,0,0,
2026-03-21 21:51:00,METAR KBED 212151Z 36009KT 10SM CLR 07/M07 A2993 RMK AO2 SLP151 T00671072,0,9.0,0,16090,0,0,0,
2026-03-21 20:51:00,METAR KBED 212051Z 36012G21KT 10SM CLR 08/M07 A2991 RMK AO2 SLP142 T00831067 52015,0,12.0,1,16090,0,0,0,
2026-03-21 19:51:00,METAR KBED 211951Z 32014G21KT 10SM FEW050 09/M06 A2990 RMK AO2 SLP138 T00941061,0,14.0,1,16090,0,0,0,
2026-03-21 18:51:00,METAR KBED 211851Z 34011G19KT 10SM FEW046 08/M04 A2987 RMK AO2 SLP131 T00831039,0,11.0,1,16090,0,0,0,
2026-03-21 17:51:00,METAR KBED 211751Z 31016G22KT 10SM BKN046 08/M03 A2986 RMK AO2 SLP127 T00831033 10106 20061 53005,0,16.0,1,16090,0,0,0,
2026-03-21 16:51:00,METAR KBED 211651Z 31014G22KT 10SM SCT041 10/M02 A2985 RMK AO2 PK WND 31026/1616 SLP121 T01001017,0,14.0,1,16090,0,0,0,
2026-03-21 15:51:00,METAR KBED 211551Z 29013KT 10SM OVC038 09/00 A2984 RMK AO2 SLP118 T00940000,0,13.0,0,16090,0,0,0,
2026-03-21 14:51:00,METAR KBED 211451Z 31011G19KT 10SM SCT027 10/02 A2985 RMK AO2 SLP121 T01000017 51022,0,11.0,1,16090,0,0,0,
2026-03-21 13:51:00,METAR KBED 211351Z 35012KT 10SM SCT020 BKN050 09/03 A2983 RMK AO2 SLP116 T00890033,0,12.0,0,16090,0,0,0,
2026-03-21 13:19:00,SPECI KBED 211319Z 01010G14KT 10SM BKN016 OVC050 07/04 A2981 RMK AO2 T00720039,0,10.0,1,16090,0,0,0,
2026-03-21 12:51:00,METAR KBED 211251Z 35006KT 10SM BKN013 OVC050 07/04 A2981 RMK AO2 SLP108 T00670039,0,6.0,0,16090,0,0,0,
2026-03-21 11:51:00,METAR KBED 211151Z 34006KT 10SM OVC014 07/04 A2978 RMK AO2 SLP100 70004 T00670044 10067 20056 53028,0,6.0,0,16090,0,0,0,
2026-03-21 11:43:00,SPECI KBED 211143Z 33005KT 10SM BKN016 OVC049 06/04 A2978 RMK AO2 T00610044,0,5.0,0,16090,0,0,0,
2026-03-21 10:51:00,METAR KBED 211051Z 33003KT 10SM OVC049 06/04 A2974 RMK AO2 SLP085 T00560044,0,3.0,0,16090,0,0,0,
2026-03-21 09:51:00,METAR KBED 210951Z AUTO 31003KT 10SM OVC050 06/04 A2971 RMK AO2 SLP076 T00560044,0,3.0,0,16090,0,0,0,
2026-03-21 08:51:00,METAR KBED 210851Z AUTO 27004KT 10SM OVC050 06/04 A2970 RMK AO2 SLP071 T00610044 56012,0,4.0,0,16090,0,0,0,
2026-03-21 07:51:00,METAR KBED 210751Z AUTO 23004KT 10SM BKN050 OVC060 06/04 A2971 RMK AO2 SLP072 T00610044,0,4.0,0,16090,0,0,0,
2026-03-21 06:51:00,METAR KBED 210651Z AUTO 23004KT 10SM OVC055 07/04 A2973 RMK AO2 SLP079 T00670044,0,4.0,0,16090,0,0,0,
2026-03-21 06:29:00,SPECI KBED 210629Z AUTO 23003KT 10SM SCT013 BKN048 OVC060 07/04 A2973 RMK AO2 T00670044,0,3.0,0,16090,0,0,0,
2026-03-21 05:51:00,METAR KBED 210551Z AUTO 24006KT 10SM OVC012 07/04 A2974 RMK AO2 SLP083 60001 T00670044 10072 20061 56015,0,6.0,0,16090,0,0,0,
2026-03-21 04:51:00,METAR KBED 210451Z AUTO 22007KT 10SM OVC014 07/04 A2974 RMK AO2 SLP085 T00670044 401331028,0,7.0,0,16090,0,0,0,
2026-03-21 03:51:00,METAR KBED 210351Z AUTO 22008KT 10SM OVC014 07/04 A2976 RMK AO2 RAE03 SLP091 P0000 T00670044,0,8.0,0,16090,0,0,0,
2026-03-21 03:16:00,SPECI KBED 210316Z AUTO 22007KT 10SM BKN014 OVC065 07/04 A2977 RMK AO2 RAE03 P0000 T00670044,0,7.0,0,16090,0,0,0,
2026-03-21 02:51:00,METAR KBED 210251Z 20008KT 10SM -RA SCT015 OVC065 06/04 A2978 RMK AO2 RAE04B46 SLP099 P0000 60001 T00610044 58008,0,8.0,0,16090,0,0,0,"-RA,RA"
2026-03-21 01:51:00,METAR KBED 210151Z 21008KT 10SM -RA OVC055 06/04 A2981 RMK AO2 SLP108 P0000 T00610044,0,8.0,0,16090,0,0,0,-RA
2026-03-21 00:51:00,METAR KBED 210051Z 22008KT 10SM -RA OVC055 07/04 A2981 RMK AO2 SLP110 P0001 T00670039,0,8.0,0,16090,0,0,0,-RA
2026-03-20 23:51:00,METAR KBED 202351Z 22011G17KT 10SM -RA OVC060 07/03 A2980 RMK AO2 SLP108 P0003 60003 T00720033 10133 20072 53009,0,11.0,1,16090,0,0,0,-RA
2026-03-20 22:51:00,METAR KBED 202251Z 22011KT 10SM -RA OVC065 09/01 A2979 RMK AO2 RAB40 SLP102 P0000 T00890011,0,11.0,0,16090,0,0,0,-RA
2026-03-20 21:51:00,METAR KBED 202151Z 20017G25KT 10SM OVC070 10/01 A2976 RMK AO2 PK WND 19028/2058 SLP090 T01000006,0,17.0,1,16090,0,0,0,
2026-03-20 20:51:00,METAR KBED 202051Z 21022G30KT 10SM FEW080 11/01 A2978 RMK AO2 PK WND 21030/2050 SLP098 T01110006 55040,0,22.0,1,16090,0,0,0,
2026-03-20 19:51:00,METAR KBED 201951Z 16015KT 10SM CLR 12/01 A2978 RMK AO2 PRESFR SLP097 T01220006,0,15.0,0,16090,0,0,0,
2026-03-20 18:51:00,METAR KBED 201851Z 19011G22KT 10SM OVC050 13/01 A2985 RMK AO2 SLP122 T01280011,0,11.0,1,16090,0,0,0,
2026-03-20 17:51:00,METAR KBED 201751Z 18012G22KT 10SM BKN055 13/M01 A2990 RMK AO2 PRESFR SLP138 T01331006 10133 21006 58054,0,12.0,1,16090,0,0,0,
2026-03-20 16:51:00,METAR KBED 201651Z 20013G20KT 10SM CLR 12/M01 A2995 RMK AO2 SLP158 T01221011,0,13.0,1,16090,0,0,0,
2026-03-20 15:51:00,METAR KBED 201551Z 20011G19KT 10SM CLR 11/M02 A3001 RMK AO2 SLP178 T01111017,0,11.0,1,16090,0,0,0,
2026-03-20 14:51:00,METAR KBED 201451Z 20007KT 10SM CLR 09/M03 A3006 RMK AO2 SLP192 T00891028 58021,0,7.0,0,16090,0,0,0,
2026-03-20 13:51:00,METAR KBED 201351Z VRB03KT 10SM CLR 06/M03 A3008 RMK AO2 SLP202 T00561033,0,3.0,0,16090,0,0,0,
2026-03-20 12:51:00,METAR KBED 201251Z 22004KT 10SM CLR 03/M04 A3010 RMK AO2 SLP208 T00281044,0,4.0,0,16090,0,0,0,
2026-03-20 11:51:00,METAR KBED 201151Z 00000KT 10SM CLR M01/M03 A3012 RMK AO2 SLP215 T10061033 10017 21028 51014,0,0.0,0,16090,0,0,0,
2026-03-20 10:51:00,METAR KBED 201051Z 00000KT 10SM SCT050 M02/M04 A3011 RMK AO2 SLP211 T10221044,0,0.0,0,16090,0,0,0,
2026-03-20 09:51:00,METAR KBED 200951Z AUTO 00000KT 10SM CLR M01/M03 A3009 RMK AO2 SLP206 T10061033,0,0.0,0,16090,0,0,0,
2026-03-20 08:51:00,METAR KBED 200851Z AUTO 22004KT 10SM FEW065 01/M03 A3008 RMK AO2 SLP201 T00061033 56021,0,4.0,0,16090,0,0,0,
2026-03-20 07:51:00,METAR KBED 200751Z AUTO 23006KT 10SM OVC070 02/M03 A3009 RMK AO2 SLP206 T00171028,0,6.0,0,16090,0,0,0,
2026-03-20 06:51:00,METAR KBED 200651Z AUTO 22006KT 10SM OVC070 02/M02 A3011 RMK AO2 SLP213 T00171022,0,6.0,0,16090,0,0,0,
2026-03-20 05:51:00,METAR KBED 200551Z AUTO 22004KT 10SM OVC070 02/M02 A3014 RMK AO2 SLP222 T00171022 10028 20017 58004,0,4.0,0,16090,0,0,0,
2026-03-20 04:51:00,METAR KBED 200451Z AUTO 25005KT 10SM OVC080 02/M03 A3016 RMK AO2 SLP230 T00221028 400441044,0,5.0,0,16090,0,0,0,
2026-03-20 03:51:00,METAR KBED 200351Z AUTO 21004KT 10SM OVC080 02/M03 A3015 RMK AO2 SLP226 T00171028,0,4.0,0,16090,0,0,0,
2026-03-20 02:51:00,METAR KBED 200251Z AUTO 18008KT 10SM OVC075 02/M03 A3015 RMK AO2 SLP226 T00171028 58008,0,8.0,0,16090,0,0,0,
2026-03-20 01:51:00,METAR KBED 200151Z 21008KT 10SM FEW050 SCT080 02/M03 A3018 RMK AO2 SLP234 T00171033,0,8.0,0,16090,0,0,0,
2026-03-20 00:51:00,METAR KBED 200051Z 21006KT 10SM SCT038 OVC049 02/M04 A3018 RMK AO2 SLP237 T00221039,0,6.0,0,16090,0,0,0,
2026-03-19 23:51:00,METAR KBED 192351Z 19005KT 10SM BKN038 OVC050 03/M04 A3018 RMK AO2 SLP234 T00281044 10044 20028 53003,0,5.0,0,16090,0,0,0,
2026-03-19 22:51:00,METAR KBED 192251Z 20005KT 10SM OVC050 03/M04 A3017 RMK AO2 SLP230 T00281044,0,5.0,0,16090,0,0,0,
2026-03-19 21:51:00,METAR KBED 192151Z 21005KT 10SM OVC050 03/M05 A3017 RMK AO2 SLP231 T00331050,0,5.0,0,16090,0,0,0,
2026-03-19 20:51:00,METAR KBED 192051Z 21005KT 10SM OVC050 04/M06 A3017 RMK AO2 SLP231 T00391061 56026,0,5.0,0,16090,0,0,0,
2026-03-19 19:51:00,METAR KBED 191951Z 22008G15KT 10SM FEW045 BKN055 OVC070 04/M07 A3019 RMK AO2 SLP238 T00391072,0,8.0,1,16090,0,0,0,
2026-03-19 18:51:00,METAR KBED 191851Z 19009G17KT 10SM SCT060 OVC085 04/M08 A3022 RMK AO2 SLP249 T00391083,0,9.0,1,16090,0,0,0,
2026-03-19 17:51:00,METAR KBED 191751Z 20006KT 10SM BKN060 OVC075 03/M09 A3024 RMK AO2 SLP257 T00281089 10039 21022 58026,0,6.0,0,16090,0,0,0,
2026-03-19 16:51:00,METAR KBED 191651Z 19008KT 150V220 10SM OVC080 03/M09 A3027 RMK AO2 SLP266 T00331094,0,8.0,0,16090,0,0,0,
2026-03-19 15:51:00,METAR KBED 191551Z 16005KT 10SM OVC090 01/M09 A3030 RMK AO2 SLP278 T00111094,0,5.0,0,16090,0,0,0,
2026-03-19 14:51:00,METAR KBED 191451Z 22006KT 10SM OVC090 01/M09 A3032 RMK AO2 SLP285 T00111089 56008 $,0,6.0,0,16090,0,0,0,
2026-03-19 13:51:00,METAR KBED 191351Z 18006KT 10SM OVC100 01/M08 A3033 RMK AO2 SLP286 T00061083 $,0,6.0,0,16090,0,0,0,
2026-03-19 12:51:00,METAR KBED 191251Z 16005KT 10SM OVC100 M01/M09 A3033 RMK AO2 SLP288 T10061089 $,0,5.0,0,16090,0,0,0,
2026-03-19 11:51:00,METAR KBED 191151Z 17004KT 10SM OVC100 M02/M08 A3035 RMK AO2 SLP293 T10221083 11022 21044 55001 $,0,4.0,0,16090,0,0,0,
2026-03-19 10:51:00,METAR KBED 191051Z 00000KT 10SM SCT100 M03/M09 A3034 RMK AO2 SLP292 T10331094 $,0,0.0,0,16090,0,0,0,
2026-03-19 09:51:00,METAR KBED 190951Z AUTO 00000KT 10SM BKN110 M03/M09 A3035 RMK AO2 SLP294 T10331094 $,0,0.0,0,16090,0,0,0,
2026-03-19 08:51:00,METAR KBED 190851Z AUTO 00000KT 10SM BKN110 M03/M09 A3035 RMK AO2 SLP295 T10331094 55007 $,0,0.0,0,16090,0,0,0,
2026-03-19 07:51:00,METAR KBED 190751Z AUTO 19003KT 10SM CLR M03/M09 A3035 RMK AO2 SLP294 T10331094 $,0,3.0,0,16090,0,0,0,
2026-03-19 06:51:00,METAR KBED 190651Z AUTO 17003KT 10SM CLR M03/M10 A3036 RMK AO2 SLP299 T10331100 $,0,3.0,0,16090,0,0,0,
2026-03-19 05:51:00,METAR KBED 190551Z AUTO 18004KT 10SM CLR M03/M10 A3037 RMK AO2 SLP301 T10331100 11011 21044 58008 $,0,4.0,0,16090,0,0,0,
2026-03-19 04:51:00,METAR KBED 190451Z AUTO 17006KT 10SM CLR M04/M11 A3038 RMK AO2 SLP303 T10391106 400281061 $,0,6.0,0,16090,0,0,0,
2026-03-19 03:51:00,METAR KBED 190351Z AUTO 18006KT 10SM CLR M03/M11 A3039 RMK AO2 SLP308 T10281106 $,0,6.0,0,16090,0,0,0,
2026-03-19 02:51:00,METAR KBED 190251Z AUTO 17007KT 10SM CLR M02/M11 A3040 RMK AO2 SLP310 T10221106 51008 $,0,7.0,0,16090,0,0,0,
2026-03-19 01:51:00,METAR KBED 190151Z 18004KT 10SM CLR M02/M11 A3039 RMK AO2 SLP309 T10221111 $,0,4.0,0,16090,0,0,0,
2026-03-19 00:51:00,METAR KBED 190051Z 14006KT 10SM CLR M02/M11 A3039 RMK AO2 SLP309 T10221106 $,0,6.0,0,16090,0,0,0,
2026-03-18 23:51:00,METAR KBED 182351Z 12006KT 10SM CLR M01/M11 A3037 RMK AO2 SLP302 T10111106 10028 21011 51004,0,6.0,0,16090,0,0,0,
2026-03-18 22:51:00,METAR KBED 182251Z 16007KT 10SM CLR 00/M17 A3037 RMK AO2 SLP302 T00001172,0,7.0,0,16090,0,0,0,
2026-03-18 21:51:00,METAR KBED 182151Z 20010KT 10SM CLR 02/M17 A3037 RMK AO2 SLP301 T00171172,0,10.0,0,16090,0,0,0,
2026-03-18 20:51:00,METAR KBED 182051Z 22009KT 10SM CLR 02/M17 A3036 RMK AO2 SLP298 T00171167 53006,0,9.0,0,16090,0,0,0,
2026-03-18 19:51:00,METAR KBED 181951Z 24008KT 10SM CLR 02/M18 A3035 RMK AO2 SLP295 T00171178 $,0,8.0,0,16090,0,0,0,
2026-03-18 18:51:00,METAR KBED 181851Z 20005KT 10SM CLR 01/M18 A3034 RMK AO2 SLP290 T00111178 $,0,5.0,0,16090,0,0,0,
2026-03-18 17:51:00,METAR KBED 181751Z COR 32007KT 10SM CLR M01/M18 A3034 RMK AO2 SLP292 T10061183 10006 21044 58019 $,0,7.0,0,16090,0,0,0,
2026-03-18 16:51:00,METAR KBED 181651Z 30012KT 10SM CLR 00/M18 A3035 RMK AO2 SLP295 T00001178 $,0,12.0,0,16090,0,0,0,
2026-03-18 15:51:00,METAR KBED 181551Z 29010G16KT 10SM CLR M01/M18 A3039 RMK AO2 SLP309 T10061178 $,0,10.0,1,16090,0,0,0,
2026-03-18 14:51:00,METAR KBED 181451Z 25012KT 10SM CLR M02/M17 A3040 RMK AO2 SLP311 T10171172 51030 $,0,12.0,0,16090,0,0,0,
2026-03-18 13:51:00,METAR KBED 181351Z 30009KT 10SM CLR M03/M16 A3039 RMK AO2 SLP307 T10281161 $,0,9.0,0,16090,0,0,0,
2026-03-18 12:51:00,METAR KBED 181251Z 29009G19KT 10SM CLR M03/M16 A3036 RMK AO2 SLP296 T10331156 $,0,9.0,1,16090,0,0,0,
2026-03-18 11:51:00,METAR KBED 181151Z 30005KT 10SM CLR M04/M13 A3031 RMK AO2 SLP280 T10441133 11039 21061 51032 $,0,5.0,0,16090,0,0,0,
2026-03-18 10:51:00,METAR KBED 181051Z 29005KT 10SM CLR M06/M13 A3028 RMK AO2 SLP271 T10561133 $,0,5.0,0,16090,0,0,0,
2026-03-18 09:51:00,METAR KBED 180951Z AUTO 29007KT 10SM CLR M06/M13 A3025 RMK AO2 SLP259 T10561133 $,0,7.0,0,16090,0,0,0,
2026-03-18 08:51:00,METAR KBED 180851Z AUTO 29006KT 10SM CLR M04/M14 A3021 RMK AO2 SLP248 T10441139 53028 $,0,6.0,0,16090,0,0,0,
2026-03-18 07:51:00,METAR KBED 180751Z AUTO 27009KT 10SM CLR M04/M14 A3018 RMK AO2 SLP236 T10441139 $,0,9.0,0,16090,0,0,0,
2026-03-18 06:51:00,METAR KBED 180651Z AUTO 29009G16KT 10SM CLR M04/M14 A3016 RMK AO2 SLP227 T10441144 $,0,9.0,1,16090,0,0,0,
2026-03-18 05:51:00,METAR KBED 180551Z AUTO 29011KT 10SM CLR M04/M14 A3013 RMK AO2 SLP218 T10391144 10006 21039 53026 $,0,11.0,0,16090,0,0,0,
2026-03-18 04:51:00,METAR KBED 180451Z AUTO 28009KT 10SM CLR M03/M15 A3010 RMK AO2 SLP209 T10331150 401561033 $,0,9.0,0,16090,0,0,0,
2026-03-18 03:51:00,METAR KBED 180351Z AUTO 28014G24KT 10SM CLR M03/M16 A3008 RMK AO2 PK WND 29027/0257 SLP200 T10281156 $,0,14.0,1,16090,0,0,0,
2026-03-18 02:51:00,METAR KBED 180251Z AUTO 27011G24KT 10SM CLR M02/M16 A3005 RMK AO2 PK WND 27026/0214 SLP192 T10221161 51047 $,0,11.0,1,16090,0,0,0,
2026-03-18 01:51:00,METAR KBED 180151Z 28015G24KT 10SM CLR M02/M16 A3001 RMK AO2 PK WND 30029/0126 SLP178 T10171156 $,0,15.0,1,16090,0,0,0,
2026-03-18 00:51:00,METAR KBED 180051Z 29016G29KT 10SM CLR M01/M14 A2997 RMK AO2 PK WND 26029/2358 SLP163 T10111144 $,0,16.0,1,16090,0,0,0,
2026-03-17 23:51:00,METAR KBED 172351Z 28013G24KT 10SM CLR 01/M14 A2991 RMK AO2 SLP145 T00061139 10061 20000 53050,0,13.0,1,16090,0,0,0,
2026-03-17 22:51:00,METAR KBED 172251Z 29012G24KT 10SM FEW070 01/M14 A2986 RMK AO2 SLP126 T00111139,0,12.0,1,16090,0,0,0,
2026-03-17 21:51:00,METAR KBED 172151Z 29017G28KT 10SM CLR 03/M13 A2981 RMK AO2 PK WND 27029/2130 SLP109 T00281133,0,17.0,1,16090,0,0,0,
2026-03-17 20:51:00,METAR KBED 172051Z 29017G27KT 10SM FEW070 03/M13 A2977 RMK AO2 PK WND 30029/2030 SLP093 T00331133 53020,0,17.0,1,16090,0,0,0,
2026-03-17 19:51:00,METAR KBED 171951Z 28017G25KT 10SM BKN070 05/M12 A2974 RMK AO2 PK WND 30031/1853 SLP083 T00501122,0,17.0,1,16090,0,0,0,
2026-03-17 18:51:00,METAR KBED 171851Z 28019G32KT 10SM FEW065 05/M12 A2971 RMK AO2 PK WND 29033/1825 SLP075 T00501122,0,19.0,1,16090,0,0,0,
2026-03-17 17:51:00,METAR KBED 171751Z 27016G28KT 10SM FEW060 06/M11 A2971 RMK AO2 PK WND 25031/1729 SLP072 T00561106 10067 20033 53022,0,16.0,1,16090,0,0,0,
2026-03-17 16:51:00,METAR KBED 171651Z 26016G27KT 10SM SCT060 06/M11 A2968 RMK AO2 PK WND 25036/1555 SLP063 T00561106,0,16.0,1,16090,0,0,0,
2026-03-17 15:51:00,METAR KBED 171551Z 27018G33KT 10SM CLR 06/M10 A2966 RMK AO2 PK WND 26033/1549 SLP058 T00561100,0,18.0,1,16090,0,0,0,
2026-03-17 14:51:00,METAR KBED 171451Z 28018G32KT 10SM CLR 04/M11 A2964 RMK AO2 PK WND 29033/1438 SLP051 T00441106 51039,0,18.0,1,16090,0,0,0,
2026-03-17 13:51:00,METAR KBED 171351Z 28019G29KT 10SM OVC039 03/M07 A2962 RMK AO2 PK WND 27030/1324 SLP042 T00331072,0,19.0,1,16090,0,0,0,
2026-03-17 12:51:00,METAR KBED 171251Z 27012G26KT 10SM BKN042 04/M04 A2958 RMK AO2 PK WND 27026/1247 SLP028 T00391039 $,0,12.0,1,16090,0,0,0,
2026-03-17 11:51:00,METAR KBED 171151Z 26016G26KT 10SM BKN045 04/M03 A2953 RMK AO2 PK WND 28027/1118 SLP011 60000 70051 T00391033 10156 20033 51069 $,0,16.0,1,16090,0,0,0,
2026-03-17 10:51:00,METAR KBED 171051Z 28014G21KT 10SM OVC029 05/M01 A2948 RMK AO2 PK WND 25028/1000 PRESRR SLP994 T00501006 $,0,14.0,1,16090,0,0,0,
2026-03-17 10:36:00,SPECI KBED 171036Z AUTO 28013G27KT 10SM BKN029 BKN037 05/00 A2946 RMK AO2 PK WND 25028/1000 PRESRR T00500000 $,0,13.0,1,16090,0,0,0,
2026-03-17 09:51:00,METAR KBED 170951Z AUTO 27012G24KT 10SM SCT022 SCT029 OVC070 09/05 A2939 RMK AO2 PK WND 26032/0941 SLP965 T00890050 $,0,12.0,1,16090,0,0,0,
2026-03-17 09:32:00,SPECI KBED 170932Z AUTO 27016G22KT 10SM SCT021 BKN027 OVC060 11/07 A2937 RMK AO2 PK WND 24031/0855 PRESRR T01060072 $,0,16.0,1,16090,0,0,0,
2026-03-17 08:51:00,METAR KBED 170851Z AUTO 25012G23KT 10SM FEW023 BKN040 OVC048 13/09 A2932 RMK AO2 PK WND 22036/0755 RAB27E48 SLP941 P0000 60000 T01330094 50022 $,0,12.0,1,16090,0,0,0,RA
2026-03-17 08:49:00,SPECI KBED 170849Z AUTO 23017G23KT 10SM FEW023 BKN038 OVC046 13/10 A2933 RMK AO2 PK WND 22036/0755 RAB27E48 PRESRR P0000 $,0,17.0,1,16090,0,0,0,RA
2026-03-17 07:51:00,METAR KBED 170751Z AUTO 20020G33KT 10SM BKN020 OVC029 15/12 A2927 RMK AO2 PK WND 21040/0715 RAE18 SLP922 P0000 T01500122 $,0,20.0,1,16090,0,0,0,
2026-03-17 06:51:00,METAR KBED 170651Z AUTO 19017G38KT 8SM -RA BKN018 OVC026 15/13 A2926 RMK AO2 PK WND 17041/0620 RAE11B47 SLP919 P0000 T01500128 $,0,17.0,1,12872,0,0,0,"-RA,RA"
2026-03-17 06:25:00,SPECI KBED 170625Z AUTO 19024G41KT 10SM FEW016 BKN027 OVC042 16/13 A2926 RMK AO2 PK WND 17041/0620 RAE11 P0000 T01560128 $,0,24.0,1,16090,0,0,0,
2026-03-17 06:03:00,SPECI KBED 170603Z AUTO 18022G36KT 10SM -RA SCT023 BKN041 OVC050 15/13 A2928 RMK AO2 PK WND 16036/0559 P0000 T01500133 $,0,22.0,1,16090,0,0,0,-RA
2026-03-17 05:51:00,METAR KBED 170551Z AUTO 18022G36KT 9SM -RA SCT017 BKN025 OVC085 16/13 A2929 RMK AO2 PK WND 18050/0537 RAB0459E33B36 SLP930 P0001 60019 T01560133 10156 20150 56050 $,0,22.0,1,14481,0,0,0,"-RA,RA"
2026-03-17 05:33:00,SPECI KBED 170533Z AUTO 18023G35KT 10SM BKN017 OVC023 16/13 A2929 RMK AO2 PK WND 19040/0505 RAB0459E33 P0000 T01560133 $,0,23.0,1,16090,0,0,0,RA
2026-03-17 04:51:00,METAR KBED 170451Z AUTO 18021G40KT 10SM OVC012 16/14 A2932 RMK AO2 PK WND 17040/0448 RAE50 SLP942 P0003 T01560139 401830033 $,0,21.0,1,16090,0,0,0,
2026-03-17 03:51:00,METAR KBED 170351Z AUTO 18014G25KT 10SM -RA BKN011 OVC022 15/14 A2940 RMK AO2 PK WND 19032/0307 SLP966 P0001 T01500139 $,0,14.0,1,16090,0,0,0,-RA
2026-03-17 03:13:00,SPECI KBED 170313Z AUTO 18014G32KT 10SM -RA BKN013 BKN021 OVC110 15/14 A2942 RMK AO2 PK WND 19032/0307 P0001 T01500139 $,0,14.0,1,16090,0,0,0,-RA
2026-03-17 03:05:00,SPECI KBED 170305Z AUTO 17012G29KT 10SM -RA SCT013 BKN019 OVC110 16/14 A2942 RMK AO2 PK WND 17029/0258 P0000 T01560139 $,0,12.0,1,16090,0,0,0,-RA
2026-03-17 02:51:00,METAR KBED 170251Z 18017G23KT 10SM -RA FEW017 SCT090 OVC110 16/14 A2944 RMK AO2 PK WND 19033/0208 SLP980 P0007 60014 T01560139 58042 $,0,17.0,1,16090,0,0,0,-RA
2026-03-17 01:51:00,METAR KBED 170151Z 19018G34KT 4SM RA BR BKN012 OVC025 16/14 A2948 RMK AO2 PK WND 18034/0149 SLP997 P0004 T01560139 $,0,18.0,1,6436,0,0,1,"BR,RA"
2026-03-17 00:51:00,METAR KBED 170051Z 19015G31KT 10SM -RA BKN013 OVC025 16/14 A2953 RMK AO2 PK WND 16031/0019 RAE29B47 SLP011 P0003 T01560139 $,0,15.0,1,16090,0,0,0,"-RA,RA"
2026-03-16 23:51:00,METAR KBED 162351Z 17015G25KT 10SM -RA OVC011 16/14 A2956 RMK AO2 PK WND 20029/2335 SLP023 P0005 60006 T01560139 10183 20156 56018 $,0,15.0,1,16090,0,0,0,-RA
2026-03-16 23:48:00,SPECI KBED 162348Z 18016G24KT 10SM -RA OVC011 16/14 A2956 RMK AO2 PK WND 20029/2335 P0005 $,0,16.0,1,16090,0,0,0,-RA
2026-03-16 22:51:00,METAR KBED 162251Z 19014G29KT 10SM -RA SCT018 BKN025 OVC085 17/14 A2958 RMK AO2 PK WND 21031/2228 RAE2156B26 SLP031 P0000 T01670144 $,0,14.0,1,16090,0,0,0,"-RA,RA"
2026-03-16 21:51:00,METAR KBED 162151Z 19016G27KT 9SM -RA BKN013 17/16 A2961 RMK AO2 PK WND 18029/2109 SLP041 P0000 T01720156 $,0,16.0,1,14481,0,0,0,-RA
2026-03-16 21:22:00,SPECI KBED 162122Z 18016G25KT 10SM -RA OVC014 17/16 A2962 RMK AO2 PK WND 18029/2109 P0000 T01720156 $,0,16.0,1,16090,0,0,0,-RA
2026-03-16 20:51:00,METAR KBED 162051Z 18013G33KT 7SM -RA BKN018 OVC024 17/15 A2964 RMK AO2 PK WND 18033/2045 RAB42 SLP051 P0000 60001 T01720150 58023 $,0,13.0,1,11263,0,0,0,-RA
2026-03-16 20:24:00,SPECI KBED 162024Z 20013G28KT 10SM BKN015 BKN022 OVC028 18/16 A2965 RMK AO2 PK WND 19028/2015 T01830156 $,0,13.0,1,16090,0,0,0,
2026-03-16 19:51:00,METAR KBED 161951Z 20011G21KT 10SM OVC008 17/16 A2967 RMK AO2 PK WND 19027/1911 RAB05E19B39E48 SLP060 P0001 T01720156 $,0,11.0,1,16090,0,0,0,RA
2026-03-16 18:51:00,METAR KBED 161851Z 18013G21KT 5SM BR OVC006 17/15 A2968 RMK AO2 RAE02 SLP065 P0000 T01670150 $,0,13.0,1,8045,0,0,1,BR
2026-03-16 17:51:00,METAR KBED 161751Z 19013G22KT 3SM -RA BR OVC005 16/14 A2971 RMK AO2 RAB45 SLP073 P0001 60026 T01560144 10161 20050 58036 $,0,13.0,1,4827,0,0,1,"-RA,BR"
2026-03-16 16:51:00,METAR KBED 161651Z 17012G20KT 5SM BR OVC005 15/14 A2974 RMK AO2 RAE13 SLP085 P0005 T01500139 $,0,12.0,1,8045,0,0,1,BR
2026-03-16 16:15:00,SPECI KBED 161615Z 16007KT 2SM BR OVC004 14/13 A2976 RMK AO2 RAE13 P0005 T01440133 $,0,7.0,0,3218,0,0,1,BR
2026-03-16 16:10:00,SPECI KBED 161610Z 17007KT 2SM R11/0500VP6000FT -RA BR OVC004 13/13 A2977 RMK AO2 P0005 T01330128 $,0,7.0,0,3218,0,0,1,"-RA,BR"
2026-03-16 15:51:00,METAR KBED 161551Z 27004KT 1 3/4SM R11/5000VP6000FT RA BR OVC004 11/11 A2980 RMK AO2 RAE1459B38 SLP104 P0004 T01110106 $,0,4.0,0,2816,0,0,1,"BR,RA"
2026-03-16 14:56:00,SPECI KBED 161456Z 16007KT 2 1/2SM -RA BR OVC004 13/12 A2981 RMK AO2 P0000 T01280122 $,0,7.0,0,4022,0,0,1,"-RA,BR"
2026-03-16 14:51:00,METAR KBED 161451Z 16008KT 3SM -RA BR OVC004 13/12 A2981 RMK AO2 RAE1355B11 CIG 003V009 SLP110 P0001 60016 T01280122 56048 $,0,8.0,0,4827,0,0,1,"-RA,BR,RA"
2026-03-16 13:51:00,METAR KBED 161351Z 11004KT 2SM -RA BR OVC004 08/08 A2986 RMK AO2 SLP127 P0002 T00830078 $,0,4.0,0,3218,0,0,1,"-RA,BR"
2026-03-16 12:51:00,METAR KBED 161251Z 10006KT 4SM -RA BR BKN005 OVC014 06/06 A2991 RMK AO2 SLP142 P0013 T00610056 $,0,6.0,0,6436,0,0,1,"-RA,BR"
2026-03-16 12:11:00,SPECI KBED 161211Z 10008KT 2 1/2SM RA BR OVC005 06/05 A2993 RMK AO2 P0006 T00560050 $,0,8.0,0,4022,0,0,1,"BR,RA"
2026-03-16 11:51:00,METAR KBED 161151Z 08004KT 4SM RA BR OVC005 05/04 A2996 RMK AO2 SLP159 P0019 60034 70034 T00500044 10050 20033 58044 $,0,4.0,0,6436,0,0,1,"BR,RA"
2026-03-16 10:51:00,METAR KBED 161051Z 05003KT 3SM RA BR OVC005 04/04 A3001 RMK AO2 SLP176 P0015 T00440039 $,0,3.0,0,4827,0,0,1,"BR,RA"
2026-03-16 10:17:00,SPECI KBED 161017Z AUTO 07004KT 4SM RA BR BKN007 OVC013 04/03 A3004 RMK AO2 P0006 T00390033 $,0,4.0,0,6436,0,0,1,"BR,RA"
2026-03-16 09:58:00,SPECI KBED 160958Z AUTO 09006KT 4SM -RA BR SCT008 OVC012 04/03 A3005 RMK AO2 P0001 T00390028 $,0,6.0,0,6436,0,0,1,"-RA,BR"
2026-03-16 09:51:00,METAR KBED 160951Z AUTO 09006KT 5SM -RA BR OVC012 04/03 A3006 RMK AO2 RAB50 SLP195 P0000 T00390028 $,0,6.0,0,8045,0,0,1,"-RA,BR"
2026-03-16 09:08:00,SPECI KBED 160908Z AUTO 07005KT 10SM FEW008 OVC016 04/02 A3008 RMK AO2 T00390022 $,0,5.0,0,16090,0,0,0,
2026-03-16 08:51:00,METAR KBED 160851Z AUTO 08008KT 10SM OVC016 04/02 A3009 RMK AO2 SLP205 T00390022 58049 $,0,8.0,0,16090,0,0,0,
2026-03-16 07:51:00,METAR KBED 160751Z AUTO 09007KT 10SM OVC017 03/02 A3014 RMK AO2 SLP222 T00330017 $,0,7.0,0,16090,0,0,0,
2026-03-16 06:51:00,METAR KBED 160651Z AUTO 08007KT 10SM OVC026 04/01 A3020 RMK AO2 SLP239 T00390006 $,0,7.0,0,16090,0,0,0,
2026-03-16 05:51:00,METAR KBED 160551Z AUTO 12007KT 10SM OVC029 04/00 A3024 RMK AO2 SLP253 T00390000 10044 20022 56040 $,0,7.0,0,16090,0,0,0,
2026-03-16 05:39:00,SPECI KBED 160539Z AUTO 12009KT 10SM OVC029 04/00 A3024 RMK AO2 T00390000 $,0,9.0,0,16090,0,0,0,
2026-03-16 04:51:00,METAR KBED 160451Z AUTO 14008KT 10SM CLR 03/M01 A3028 RMK AO2 SLP268 T00331006 400501028 $,0,8.0,0,16090,0,0,0,
2026-03-16 03:51:00,METAR KBED 160351Z AUTO 13009KT 10SM CLR 03/M01 A3031 RMK AO2 SLP281 T00281011 $,0,9.0,0,16090,0,0,0,
2026-03-16 02:51:00,METAR KBED 160251Z AUTO 15006KT 10SM CLR 02/M02 A3036 RMK AO2 SLP295 T00221017 58022 $,0,6.0,0,16090,0,0,0,
2026-03-16 01:51:00,METAR KBED 160151Z 15009KT 10SM FEW025 SCT080 03/M02 A3039 RMK AO2 SLP308 T00281022 $,0,9.0,0,16090,0,0,0,
2026-03-16 00:51:00,METAR KBED 160051Z 16008KT 10SM BKN060 OVC080 04/M03 A3041 RMK AO2 SLP314 T00391033 $,0,8.0,0,16090,0,0,0,
2026-03-15 23:51:00,METAR KBED 152351Z 17009KT 10SM OVC060 04/M06 A3042 RMK AO2 SLP317 T00441056 10050 20028 58003 $,0,9.0,0,16090,0,0,0,
2026-03-15 22:51:00,METAR KBED 152251Z 12005KT 10SM OVC060 03/M04 A3042 RMK AO2 SLP319 T00331044 $,0,5.0,0,16090,0,0,0,
2026-03-15 21:51:00,METAR KBED 152151Z 11008KT 10SM OVC075 03/M06 A3043 RMK AO2 SLP320 T00331056 $,0,8.0,0,16090,0,0,0,
2026-03-15 20:51:00,METAR KBED 152051Z 10010KT 10SM OVC070 03/M06 A3043 RMK AO2 SLP320 T00331061 57015 $,0,10.0,0,16090,0,0,0,
2026-03-15 19:51:00,METAR KBED 151951Z 09012KT 10SM OVC070 04/M07 A3044 RMK AO2 SLP325 T00391072 $,0,12.0,0,16090,0,0,0,
2026-03-15 18:51:00,METAR KBED 151851Z 13008KT 10SM OVC070 04/M09 A3046 RMK AO2 SLP330 T00441094 $,0,8.0,0,16090,0,0,0,
2026-03-15 17:51:00,METAR KBED 151751Z 09010KT 10SM OVC075 04/M09 A3047 RMK AO2 SLP335 T00441094 10050 20000 57015 $,0,10.0,0,16090,0,0,0,
2026-03-15 16:51:00,METAR KBED 151651Z VRB05KT 10SM FEW110 04/M11 A3048 RMK AO2 SLP338 T00391106 $,0,5.0,0,16090,0,0,0,
2026-03-15 15:51:00,METAR KBED 151551Z 00000KT 10SM OVC085 03/M10 A3051 RMK AO2 SLP348 T00281100 $,0,0.0,0,16090,0,0,0,
2026-03-15 14:51:00,METAR KBED 151451Z 07005KT 10SM FEW090 SCT110 02/M09 A3052 RMK AO2 SLP350 T00221094 51018 $,0,5.0,0,16090,0,0,0,
2026-03-15 13:51:00,METAR KBED 151351Z VRB03KT 10SM OVC100 01/M08 A3051 RMK AO2 SLP349 T00111083 $,0,3.0,0,16090,0,0,0,
2026-03-15 12:51:00,METAR KBED 151251Z 00000KT 10SM OVC110 01/M07 A3050 RMK AO2 SLP344 T00061072 $,0,0.0,0,16090,0,0,0,
2026-03-15 11:51:00,METAR KBED 151151Z 00000KT 10SM SCT110 00/M07 A3046 RMK AO2 SLP331 T00001072 10000 21028 51027 $,0,0.0,0,16090,0,0,0,
2026-03-15 10:51:00,METAR KBED 151051Z 00000KT 10SM CLR M01/M07 A3044 RMK AO2 SLP325 T10111072 $,0,0.0,0,16090,0,0,0,
2026-03-15 09:51:00,METAR KBED 150951Z AUTO 26006KT 10SM CLR M01/M07 A3043 RMK AO2 SLP320 T10111072 $,0,6.0,0,16090,0,0,0,
2026-03-15 08:51:00,METAR KBED 150851Z AUTO 24006KT 10SM CLR M02/M07 A3038 RMK AO2 SLP304 T10171072 51029 $,0,6.0,0,16090,0,0,0,
