Time_recorded,METAR,is_cavok,wind_speed,is_gust,visibility_meters,has_thunderstorm,has_heavy_rain,has_low_vis_fog,other_phenomenon
2026-05-02 15:20:00,METAR LTBA 021520Z 05021KT 9999 SCT040 BKN100 13/02 Q1018 RMK RWY23 06019KT,0,21,0,10000,0,0,0,
2026-05-02 14:50:00,METAR LTBA 021450Z 06020KT 9999 SCT040 BKN100 13/02 Q1018 RMK RWY23 05018KT,0,20,0,10000,0,0,0,
2026-05-02 14:20:00,METAR LTBA 021420Z 05020KT 9999 SCT040 BKN100 13/02 Q1018 RMK RWY23 04019KT,0,20,0,10000,0,0,0,
2026-05-02 13:50:00,METAR LTBA 021350Z 05019KT 9999 SCT040 BKN100 13/02 Q1018 RMK RWY23 04017KT,0,19,0,10000,0,0,0,
2026-05-02 13:20:00,METAR LTBA 021320Z 05019KT 9999 SCT040 BKN100 13/02 Q1018 RMK RWY23 04017KT,0,19,0,10000,0,0,0,
2026-05-02 12:50:00,METAR LTBA 021250Z 05019KT 9999 SCT040 BKN100 13/02 Q1018 RMK RWY23 04017KT,0,19,0,10000,0,0,0,
2026-05-02 12:20:00,METAR LTBA 021220Z 03020G31KT 350V060 9999 SCT040 BKN100 13/03 Q1018 RMK RWY23 04018KT 010V070,0,20,1,10000,0,0,0,
2026-05-02 11:50:00,METAR LTBA 021150Z 02020G30KT 9999 SCT040 BKN100 13/06 Q1018 RMK RWY23 02020KT,0,20,1,10000,0,0,0,
2026-05-02 11:20:00,METAR LTBA 021120Z 03020KT 360V060 9999 SCT040 BKN100 12/05 Q1018 RMK RWY23 03020G30KT 360V070,0,20,0,10000,0,0,0,
2026-05-02 10:50:00,METAR LTBA 021050Z 04021KT 9999 SCT040 BKN100 14/01 Q1018 RMK RWY23 04016KT 010V070,0,21,0,10000,0,0,0,
2026-05-02 10:20:00,METAR LTBA 021020Z 05020KT 9999 SCT035 BKN100 13/02 Q1018 RMK RWY23 04018KT 010V070,0,20,0,10000,0,0,0,
2026-05-02 09:50:00,METAR LTBA 020950Z 04017KT 360V080 9999 SCT035 BKN100 13/02 Q1018 RMK RWY23 05017KT 360V090,0,17,0,10000,0,0,0,
2026-05-02 09:20:00,METAR LTBA 020920Z 05018KT 9999 SCT035 BKN100 13/00 Q1019 RMK RWY23 05016KT 360V070,0,18,0,10000,0,0,0,
2026-05-02 08:50:00,METAR LTBA 020850Z 06019KT 9999 SCT035 BKN100 12/01 Q1019 RMK RWY23 06017G27KT 030V090,0,19,0,10000,0,0,0,
2026-05-02 08:20:00,METAR LTBA 020820Z 04016KT 9999 SCT035 BKN100 12/M00 Q1019 RMK RWY23 05016KT 020V080,0,16,0,10000,0,0,0,
2026-05-02 07:50:00,METAR LTBA 020750Z 06016KT 9999 SCT035 BKN100 11/01 Q1019 RMK RWY23 06016KT 030V090,0,16,0,10000,0,0,0,
2026-05-02 07:20:00,METAR LTBA 020720Z 05015KT 9999 SCT035 BKN100 12/02 Q1019 RMK RWY23 06015KT 020V080,0,15,0,10000,0,0,0,
2026-05-02 06:50:00,METAR LTBA 020650Z 05016KT 9999 SCT030 BKN100 11/03 Q1019 RMK RWY23 04013KT 360V070,0,16,0,10000,0,0,0,
2026-05-02 06:20:00,METAR LTBA 020620Z 04017KT 9999 SCT030 BKN100 11/02 Q1019 RMK RWY23 04013KT 010V080,0,17,0,10000,0,0,0,
2026-05-02 05:50:00,METAR LTBA 020550Z 05018KT 9999 SCT030 BKN100 10/02 Q1019 RMK RWY23 03016KT,0,18,0,10000,0,0,0,
2026-05-02 05:20:00,METAR LTBA 020520Z 04012KT 9999 FEW025 SCT100 10/02 Q1020 RMK RWY23 03011KT,0,12,0,10000,0,0,0,
2026-05-02 04:50:00,METAR LTBA 020450Z 04010KT 9999 FEW040 SCT100 09/02 Q1020 RMK RWY23 03008KT,0,10,0,10000,0,0,0,
2026-05-02 04:20:00,METAR LTBA 020420Z 03010KT 010V070 9999 FEW035 SCT100 09/02 Q1020 RMK RWY23 04008KT,0,10,0,10000,0,0,0,
2026-05-02 03:50:00,METAR LTBA 020350Z 03009KT 9999 FEW035 SCT100 08/02 Q1020 RMK RWY23 03009KT,0,9,0,10000,0,0,0,
2026-05-02 03:20:00,METAR LTBA 020320Z 03008KT 9999 FEW035 SCT080 08/01 Q1020 RMK RWY23 03006KT,0,8,0,10000,0,0,0,
2026-05-02 02:50:00,METAR LTBA 020250Z 02009KT 9999 SCT030 BKN080 08/01 Q1019 RMK RWY23 02010KT,0,9,0,10000,0,0,0,
2026-05-02 02:20:00,METAR LTBA 020220Z 02010KT 9999 SCT030 BKN080 08/01 Q1019 RMK RWY23 03009KT,0,10,0,10000,0,0,0,
2026-05-02 01:50:00,METAR LTBA 020150Z 02010KT 9999 SCT030 BKN080 08/01 Q1020 RMK RWY23 02010KT,0,10,0,10000,0,0,0,
2026-05-02 01:20:00,METAR LTBA 020120Z 02011KT 9999 SCT030 BKN080 08/01 Q1020 RMK RWY23 02011KT,0,11,0,10000,0,0,0,
2026-05-02 00:50:00,METAR LTBA 020050Z 02010KT 9999 SCT030 BKN080 08/01 Q1021 RMK RWY23 02010KT,0,10,0,10000,0,0,0,
2026-05-02 00:20:00,METAR LTBA 020020Z 02010KT 9999 SCT030 BKN080 08/01 Q1021 RMK RWY23 03010KT,0,10,0,10000,0,0,0,
2026-05-01 23:50:00,METAR LTBA 012350Z 03010KT 9999 SCT030 BKN080 09/02 Q1021 RMK RWY23 03010KT,0,10,0,10000,0,0,0,
2026-05-01 23:20:00,METAR LTBA 012320Z 02010KT 9999 SCT030 BKN080 09/03 Q1021 RMK RWY23 02009KT,0,10,0,10000,0,0,0,
2026-05-01 22:50:00,METAR LTBA 012250Z 04008KT 9999 SCT030 BKN080 09/05 Q1021 RMK RWY23 04006KT,0,8,0,10000,0,0,0,
2026-05-01 22:20:00,METAR LTBA 012220Z 04010KT 9999 SCT030 BKN080 09/05 Q1022 RMK RWY23 04007KT,0,10,0,10000,0,0,0,
2026-05-01 21:50:00,METAR LTBA 012150Z 03008KT 9999 SCT030 BKN080 09/05 Q1022 RMK RWY23 04008KT,0,8,0,10000,0,0,0,
2026-05-01 21:20:00,METAR LTBA 012120Z 04011KT 9999 SCT030 BKN080 09/05 Q1022 RMK RWY23 04009KT 010V070,0,11,0,10000,0,0,0,
2026-05-01 20:50:00,METAR LTBA 012050Z 05011KT 9999 BKN025 BKN080 09/05 Q1022 RESHRA RMK RWY23 04009KT,0,11,0,10000,0,0,0,RA
2026-05-01 20:20:00,METAR LTBA 012020Z 06012KT 9999 -SHRA BKN025 08/06 Q1022 RMK RWY23 07011KT,0,12,0,10000,0,0,0,RA
2026-05-01 19:50:00,METAR LTBA 011950Z 05014KT 6000 -SHRA BKN025 09/06 Q1022 RMK RWY23 05015KT,0,14,0,6000,0,0,0,RA
2026-05-01 19:20:00,METAR LTBA 011920Z 05013KT 9999 -SHRA BKN025 10/05 Q1022 RMK RWY23 06009KT,0,13,0,10000,0,0,0,RA
2026-05-01 18:50:00,METAR LTBA 011850Z 04015KT 9999 SCT025 BKN060 10/05 Q1022 RMK RWY23 05010KT,0,15,0,10000,0,0,0,
2026-05-01 18:20:00,METAR LTBA 011820Z 04014KT 9999 SCT025 BKN100 10/05 Q1022 RMK RWY23 04010KT,0,14,0,10000,0,0,0,
2026-05-01 17:50:00,METAR LTBA 011750Z 04016KT 9999 SCT030 BKN100 10/05 Q1022 RMK RWY23 04012KT 020V080,0,16,0,10000,0,0,0,
2026-05-01 17:20:00,METAR LTBA 011720Z 03015KT 9999 SCT030 BKN100 10/04 Q1022 RMK RWY23 04012KT 010V070,0,15,0,10000,0,0,0,
2026-05-01 16:50:00,METAR LTBA 011650Z 03016KT 9999 SCT030 BKN100 10/04 Q1021 RMK RWY23 04012G22KT,0,16,0,10000,0,0,0,
2026-05-01 16:20:00,METAR LTBA 011620Z 04017KT 9999 SCT030 BKN100 10/04 Q1021 RMK RWY23 04015KT 010V070,0,17,0,10000,0,0,0,
2026-05-01 15:50:00,METAR LTBA 011550Z 05018KT 9999 SCT030 BKN100 11/05 Q1021 RMK RWY23 04015KT,0,18,0,10000,0,0,0,
2026-05-01 15:20:00,METAR LTBA 011520Z 04020KT 9999 SCT025 BKN070 11/05 Q1021 RMK RWY23 05014KT,0,20,0,10000,0,0,0,
2026-05-01 14:50:00,METAR LTBA 011450Z 04020KT 9999 SCT024 BKN070 11/06 Q1021 RMK RWY23 04018KT,0,20,0,10000,0,0,0,
2026-05-01 14:20:00,METAR LTBA 011420Z 04017KT 9999 SCT015 BKN035 11/07 Q1021 RESHRA RMK RWY23 04017KT,0,17,0,10000,0,0,0,RA
2026-05-01 13:50:00,METAR LTBA 011350Z 05016KT 9999 -SHRA SCT015 BKN035 10/08 Q1021 RMK RWY23 05012KT 020V080,0,16,0,10000,0,0,0,RA
2026-05-01 13:20:00,METAR LTBA 011320Z 04019KT 9999 SCT015 BKN035 11/07 Q1021 RESHRA RMK RWY23 04016KT 360V060,0,19,0,10000,0,0,0,RA
2026-05-01 12:50:00,METAR LTBA 011250Z 03016KT 9999 -SHRA SCT015 BKN025 10/08 Q1021 RMK RWY23 03013KT,0,16,0,10000,0,0,0,RA
2026-05-01 12:20:00,METAR LTBA 011220Z 02013KT 340V050 9999 -SHRA SCT015 BKN021 11/08 Q1020 RMK RWY23 02014KT,0,13,0,10000,0,0,0,RA
2026-05-01 11:50:00,METAR LTBA 011150Z 02016G26KT 9999 -SHRA BKN021 11/07 Q1021 RMK RWY23 02016KT,0,16,1,10000,0,0,0,RA
2026-05-01 11:20:00,METAR LTBA 011120Z 03015KT 9999 -SHRA BKN021 11/08 Q1021 RMK RWY23 04013KT 010V070,0,15,0,10000,0,0,0,RA
2026-05-01 11:05:00,SPECI LTBA 011105Z 03016KT 9999 -SHRA BKN022 11/08 Q1021,0,16,0,10000,0,0,0,RA
2026-05-01 10:50:00,METAR LTBA 011050Z 03018KT 9999 BKN022 11/07 Q1021 RMK RWY23 03014KT,0,18,0,10000,0,0,0,
2026-05-01 10:20:00,METAR LTBA 011020Z 03016KT 9999 BKN022 11/07 Q1020 RMK RWY23 03014KT 360V060,0,16,0,10000,0,0,0,
2026-05-01 09:50:00,METAR LTBA 010950Z 03019KT 9999 BKN022 11/08 Q1020 RESHRA RMK RWY23 04013KT 010V070,0,19,0,10000,0,0,0,RA
2026-05-01 09:20:00,METAR LTBA 010920Z 05012KT 9999 -SHRA SCT015 BKN025 11/09 Q1020 RMK RWY23 06011KT 030V090,0,12,0,10000,0,0,0,RA
2026-05-01 08:50:00,METAR LTBA 010850Z 04014KT 9999 -SHRA SCT015 BKN025 11/08 Q1020 RMK RWY23 03013KT,0,14,0,10000,0,0,0,RA
2026-05-01 08:20:00,METAR LTBA 010820Z 04017KT 7000 -SHRA SCT015 BKN025 10/08 Q1020 RMK RWY23 04014KT 010V070,0,17,0,7000,0,0,0,RA
2026-05-01 07:50:00,METAR LTBA 010750Z 03015KT 7000 -SHRA SCT015 BKN025 10/08 Q1020 RMK RWY23 03016KT,0,15,0,7000,0,0,0,RA
2026-05-01 07:20:00,METAR LTBA 010720Z 03016KT 7000 -SHRA SCT015 BKN025 10/09 Q1020 RMK RWY23 03014KT,0,16,0,7000,0,0,0,RA
2026-05-01 06:50:00,METAR LTBA 010650Z 03013KT 9999 -SHRA SCT011 BKN025 10/09 Q1020 RMK RWY23 03014KT,0,13,0,10000,0,0,0,RA
2026-05-01 06:20:00,METAR LTBA 010620Z 02013KT 7000 -SHRA SCT011 BKN025 BKN080 10/08 Q1019 RMK RWY23 02012KT 360V060,0,13,0,7000,0,0,0,RA
2026-05-01 05:50:00,METAR LTBA 010550Z 02016G26KT 4500 -SHRA SCT011 BKN025 BKN080 09/08 Q1019 RMK RWY23 02015KT,0,16,1,4500,0,0,0,RA
2026-05-01 05:20:00,METAR LTBA 010520Z 02012KT 5000 -SHRA SCT011 BKN025 BKN080 09/08 Q1019 RMK RWY23 03013G23KT 350V050,0,12,0,5000,0,0,0,RA
2026-05-01 04:50:00,METAR LTBA 010450Z 03014KT 350V050 5000 -SHRA SCT011 BKN025 BKN080 09/08 Q1019 RMK RWY23 03015KT,0,14,0,5000,0,0,0,RA
2026-05-01 04:20:00,METAR LTBA 010420Z 02014KT 5000 -SHRA SCT011 BKN025 BKN080 09/08 Q1019 RMK RWY23 03012KT,0,14,0,5000,0,0,0,RA
2026-05-01 03:50:00,METAR LTBA 010350Z 02015KT 5000 -SHRA SCT011 BKN025 BKN080 09/08 Q1018 RESHRA RMK RWY23 02014KT 350V050,0,15,0,5000,0,0,0,RA
2026-05-01 03:20:00,METAR LTBA 010320Z 01015KT 6000 SHRA SCT011 BKN025 BKN080 09/08 Q1018 RMK RWY23 01012KT,0,15,0,6000,0,0,0,"RA,SH"
2026-05-01 02:50:00,METAR LTBA 010250Z 01015KT 6000 SHRA SCT011 BKN025 BKN080 09/08 Q1018 RMK RWY23 02014KT,0,15,0,6000,0,0,0,"RA,SH"
2026-05-01 02:20:00,METAR LTBA 010220Z 01017KT 7000 -SHRA SCT011 BKN025 BKN080 09/08 Q1018 RMK RWY23 01014KT,0,17,0,7000,0,0,0,RA
2026-05-01 01:50:00,METAR LTBA 010150Z 01015KT 7000 -SHRA SCT011 BKN025 BKN080 10/09 Q1017 RMK RWY23 01016G26KT,0,15,0,7000,0,0,0,RA
2026-05-01 01:20:00,METAR LTBA 010120Z 01020G30KT 7000 -SHRA SCT011 BKN025 BKN080 10/09 Q1017 RMK RWY23 01019KT,0,20,1,7000,0,0,0,RA
2026-05-01 00:50:00,METAR LTBA 010050Z 01016G26KT 7000 -SHRA SCT011 BKN025 BKN080 10/10 Q1018 RMK RWY23 01012G23KT,0,16,1,7000,0,0,0,RA
2026-05-01 00:20:00,METAR LTBA 010020Z 01013KT 7000 -SHRA SCT011 BKN025 BKN080 11/10 Q1017 RMK RWY23 01011KT,0,13,0,7000,0,0,0,RA
2026-04-30 23:50:00,METAR LTBA 302350Z 02014KT 9999 -SHRA SCT013 BKN025 BKN080 12/10 Q1017 RMK RWY23 02012KT 340V040,0,14,0,10000,0,0,0,RA
2026-04-30 23:43:00,SPECI LTBA 302343Z 02014KT 9999 -SHRA SCT013 BKN025 BKN080 12/10 Q1017,0,14,0,10000,0,0,0,RA
2026-04-30 23:20:00,METAR LTBA 302320Z 03015KT 9999 SCT013 BKN025 BKN080 12/09 Q1017 RMK RWY23 03014KT 360V060,0,15,0,10000,0,0,0,
2026-04-30 22:50:00,METAR LTBA 302250Z 04016KT 9999 SCT013 BKN025 BKN080 12/09 Q1017 RMK RWY23 04011KT 010V070,0,16,0,10000,0,0,0,
2026-04-30 22:20:00,METAR LTBA 302220Z 03015KT 9999 SCT015 BKN025 BKN080 12/09 Q1017 RMK RWY23 04013KT 360V060,0,15,0,10000,0,0,0,
2026-04-30 21:50:00,METAR LTBA 302150Z 02011KT 9999 FEW015 BKN025 BKN080 12/09 Q1017 RESHRA RMK RWY23 03011KT,0,11,0,10000,0,0,0,RA
2026-04-30 21:20:00,METAR LTBA 302120Z 03014KT 9999 -SHRA FEW015 BKN025 BKN080 12/09 Q1017 RMK RWY23 03012KT 360V060,0,14,0,10000,0,0,0,RA
2026-04-30 20:50:00,METAR LTBA 302050Z 03015KT 9999 FEW015 SCT025 BKN080 12/08 Q1017 RMK RWY23 04014KT,0,15,0,10000,0,0,0,
2026-04-30 20:20:00,METAR LTBA 302020Z 03014KT 9999 SCT020 BKN080 12/08 Q1017 RMK RWY23 04013KT 010V070,0,14,0,10000,0,0,0,
2026-04-30 19:50:00,METAR LTBA 301950Z 03016KT 9999 SCT020 BKN080 12/09 Q1017 RMK RWY23 03013KT 360V060,0,16,0,10000,0,0,0,
2026-04-30 19:20:00,METAR LTBA 301920Z 03014KT 9999 FEW020 BKN080 13/08 Q1017 RMK RWY23 03012KT,0,14,0,10000,0,0,0,
2026-04-30 18:50:00,METAR LTBA 301850Z 03015KT 9999 FEW020 BKN080 12/08 Q1017 RMK RWY23 02013KT,0,15,0,10000,0,0,0,
2026-04-30 18:20:00,METAR LTBA 301820Z 03015KT 9999 FEW020 BKN080 12/08 Q1017 RMK RWY23 04016KT 360V060,0,15,0,10000,0,0,0,
2026-04-30 17:50:00,METAR LTBA 301750Z 03017KT 9999 FEW020 BKN080 13/08 Q1016 RMK RWY23 03015KT 360V060,0,17,0,10000,0,0,0,
2026-04-30 17:20:00,METAR LTBA 301720Z 04018KT 9999 FEW020 BKN080 13/08 Q1016 RMK RWY23 05016KT,0,18,0,10000,0,0,0,
2026-04-30 16:50:00,METAR LTBA 301650Z 04015KT 9999 FEW020 BKN080 13/08 Q1015 RMK RWY23 04013KT,0,15,0,10000,0,0,0,
2026-04-30 16:20:00,METAR LTBA 301620Z 03018KT 9999 FEW020 BKN080 13/08 Q1015 RMK RWY23 04014KT 010V070,0,18,0,10000,0,0,0,
2026-04-30 14:50:00,METAR LTBA 301450Z 02016KT 9999 FEW020 BKN100 14/08 Q1016 RMK RWY23 03016KT,0,16,0,10000,0,0,0,
2026-04-30 14:20:00,METAR LTBA 301420Z 01014KT 9999 FEW020 BKN100 15/08 Q1016 RMK RWY23 02014KT,0,14,0,10000,0,0,0,
2026-04-30 13:50:00,METAR LTBA 301350Z 04014KT 9999 FEW020 BKN100 15/08 Q1016 RMK RWY23 04013KT,0,14,0,10000,0,0,0,
2026-04-30 13:20:00,METAR LTBA 301320Z 03014KT 9999 FEW020 BKN100 15/08 Q1016 RMK RWY23 04013KT 010V080,0,14,0,10000,0,0,0,
2026-04-30 12:50:00,METAR LTBA 301250Z 03014KT 360V060 9999 FEW020 BKN100 15/08 Q1016 RMK RWY23 03013KT,0,14,0,10000,0,0,0,
2026-04-30 12:20:00,METAR LTBA 301220Z 04014KT 9999 FEW020 SCT100 16/07 Q1017 RMK RWY23 04014KT 010V080,0,14,0,10000,0,0,0,
2026-04-30 11:50:00,METAR LTBA 301150Z 04013KT 9999 FEW020 SCT080 16/07 Q1017 RMK RWY23 02012KT,0,13,0,10000,0,0,0,
2026-04-30 11:20:00,METAR LTBA 301120Z 05014KT 9999 FEW020 SCT080 16/07 Q1017 RMK RWY23 03012KT,0,14,0,10000,0,0,0,
2026-04-30 10:50:00,METAR LTBA 301050Z 04016KT 9999 FEW020 BKN080 16/08 Q1017 RMK RWY23 04014KT 360V070,0,16,0,10000,0,0,0,
2026-04-30 10:20:00,METAR LTBA 301020Z 04016KT 9999 FEW024 BKN080 16/08 Q1018 RMK RWY23 04014KT 010V070,0,16,0,10000,0,0,0,
2026-04-30 09:50:00,METAR LTBA 300950Z 04013KT 9999 SCT019 BKN080 15/07 Q1018 RMK RWY23 02013KT,0,13,0,10000,0,0,0,
2026-04-30 09:20:00,METAR LTBA 300920Z 05014KT 9999 SCT019 BKN080 17/08 Q1018 RMK RWY23 05012KT 020V080,0,14,0,10000,0,0,0,
2026-04-30 08:50:00,METAR LTBA 300850Z 03014KT 010V070 9999 SCT019 BKN080 17/08 Q1018 RMK RWY23 06014KT 030V090,0,14,0,10000,0,0,0,
2026-04-30 08:20:00,METAR LTBA 300820Z 05015KT 010V080 9999 FEW019 BKN080 16/07 Q1018 RMK RWY23 05016KT 020V080,0,15,0,10000,0,0,0,
2026-04-30 07:50:00,METAR LTBA 300750Z 05015KT 010V080 9999 FEW019 BKN080 16/07 Q1018 RMK RWY23 06015KT 030V090,0,15,0,10000,0,0,0,
2026-04-30 07:20:00,METAR LTBA 300720Z 04014KT 360V070 9999 FEW019 BKN080 15/08 Q1018 RMK RWY23 06016KT 020V080,0,14,0,10000,0,0,0,
2026-04-30 06:50:00,METAR LTBA 300650Z 04014KT 9999 FEW019 BKN080 14/08 Q1019 RMK RWY23 05014KT 020V080,0,14,0,10000,0,0,0,
2026-04-30 06:20:00,METAR LTBA 300620Z 04015KT 9999 FEW019 BKN080 14/09 Q1018 RMK RWY23 03014KT 360V060,0,15,0,10000,0,0,0,
2026-04-30 05:50:00,METAR LTBA 300550Z 03013KT 360V060 9999 FEW030 13/08 Q1018 RMK RWY23 05012KT 020V080,0,13,0,10000,0,0,0,
2026-04-30 05:20:00,METAR LTBA 300520Z 03010KT 9999 FEW030 13/08 Q1018 RMK RWY23 03009KT,0,10,0,10000,0,0,0,
2026-04-30 04:50:00,METAR LTBA 300450Z 05010KT CAVOK 12/08 Q1018 RMK RWY23 04008KT 010V070,1,0,0,9999,0,0,0,
2026-04-30 04:20:00,METAR LTBA 300420Z 06010KT CAVOK 11/08 Q1018 RMK RWY23 06009KT,1,0,0,9999,0,0,0,
2026-04-30 03:50:00,METAR LTBA 300350Z 05011KT CAVOK 11/08 Q1018 RMK RWY23 05010KT,1,0,0,9999,0,0,0,
2026-04-30 03:20:00,METAR LTBA 300320Z 07011KT CAVOK 10/08 Q1017 RMK RWY23 08009KT,1,0,0,9999,0,0,0,
2026-04-30 02:50:00,METAR LTBA 300250Z 06011KT CAVOK 10/08 Q1017 RMK RWY23 07010KT,1,0,0,9999,0,0,0,
2026-04-30 02:20:00,METAR LTBA 300220Z 05013KT CAVOK 10/08 Q1018 RMK RWY23 06011KT,1,0,0,9999,0,0,0,
2026-04-30 01:50:00,METAR LTBA 300150Z 04014KT CAVOK 10/08 Q1018 RMK RWY23 05010KT,1,0,0,9999,0,0,0,
2026-04-30 01:20:00,METAR LTBA 300120Z 03010KT CAVOK 10/07 Q1018 RMK RWY23 03009KT 010V070,1,0,0,9999,0,0,0,
2026-04-30 00:50:00,METAR LTBA 300050Z 04010KT CAVOK 10/06 Q1017 RMK RWY23 04009KT,1,0,0,9999,0,0,0,
2026-04-30 00:20:00,METAR LTBA 300020Z 04010KT CAVOK 11/06 Q1017 RMK RWY23 04008KT,1,0,0,9999,0,0,0,
2026-04-29 23:50:00,METAR LTBA 292350Z 04008KT CAVOK 11/06 Q1018 RMK RWY23 04008KT,1,0,0,9999,0,0,0,
2026-04-29 23:20:00,METAR LTBA 292320Z 03009KT CAVOK 11/06 Q1018 RMK RWY23 03008KT,1,0,0,9999,0,0,0,
2026-04-29 22:50:00,METAR LTBA 292250Z 04006KT CAVOK 11/05 Q1018 RMK RWY23 04006KT,1,0,0,9999,0,0,0,
2026-04-29 22:20:00,METAR LTBA 292220Z 04007KT CAVOK 11/05 Q1018 RMK RWY23 04006KT,1,0,0,9999,0,0,0,
2026-04-29 21:50:00,METAR LTBA 292150Z 05008KT CAVOK 11/06 Q1018 RMK RWY23 05006KT,1,0,0,9999,0,0,0,
2026-04-29 21:20:00,METAR LTBA 292120Z 05008KT CAVOK 11/06 Q1018 RMK RWY23 06007KT,1,0,0,9999,0,0,0,
2026-04-29 20:50:00,METAR LTBA 292050Z 05008KT CAVOK 11/06 Q1018 RMK RWY23 05007KT,1,0,0,9999,0,0,0,
2026-04-29 20:20:00,METAR LTBA 292020Z 07008KT CAVOK 12/06 Q1018 RMK RWY23 07007KT,1,0,0,9999,0,0,0,
2026-04-29 19:50:00,METAR LTBA 291950Z 05008KT CAVOK 12/06 Q1018 RMK RWY23 05008KT,1,0,0,9999,0,0,0,
2026-04-29 19:20:00,METAR LTBA 291920Z 04010KT CAVOK 12/07 Q1018 RMK RWY23 05007KT,1,0,0,9999,0,0,0,
2026-04-29 18:50:00,METAR LTBA 291850Z 04010KT CAVOK 13/06 Q1018 RMK RWY23 05010KT,1,0,0,9999,0,0,0,
2026-04-29 18:20:00,METAR LTBA 291820Z 04011KT CAVOK 13/06 Q1018 RMK RWY23 04010KT,1,0,0,9999,0,0,0,
2026-04-29 17:50:00,METAR LTBA 291750Z 04012KT CAVOK 14/06 Q1018 RMK RWY23 04009KT,1,0,0,9999,0,0,0,
2026-04-29 17:20:00,METAR LTBA 291720Z 03012KT CAVOK 15/06 Q1017 RMK RWY23 05010KT,1,0,0,9999,0,0,0,
2026-04-29 16:50:00,METAR LTBA 291650Z 03012KT CAVOK 15/06 Q1017 RMK RWY23 03009KT,1,0,0,9999,0,0,0,
2026-04-29 16:20:00,METAR LTBA 291620Z 03011KT CAVOK 17/05 Q1017 RMK RWY23 05009KT,1,0,0,9999,0,0,0,
2026-04-29 15:50:00,METAR LTBA 291550Z 04011KT CAVOK 18/05 Q1017 RMK RWY23 04011KT 020V080,1,0,0,9999,0,0,0,
2026-04-29 15:20:00,METAR LTBA 291520Z 05011KT CAVOK 19/06 Q1017 RMK RWY23 05011KT,1,0,0,9999,0,0,0,
2026-04-29 14:50:00,METAR LTBA 291450Z 03010KT CAVOK 19/05 Q1017 RMK RWY23 04009KT,1,0,0,9999,0,0,0,
2026-04-29 14:20:00,METAR LTBA 291420Z 22005KT CAVOK 17/10 Q1017 RMK RWY23 VRB08KT,1,0,0,9999,0,0,0,
2026-04-29 13:50:00,METAR LTBA 291350Z 24005KT CAVOK 17/10 Q1017 RMK RWY23 VRB05KT,1,0,0,9999,0,0,0,
2026-04-29 13:20:00,METAR LTBA 291320Z 22005KT 190V250 CAVOK 17/10 Q1017 RMK RWY23 13004KT 090V170,1,0,0,9999,0,0,0,
2026-04-29 12:50:00,METAR LTBA 291250Z 22005KT 190V260 CAVOK 16/09 Q1018 RMK RWY23 22004KT 120V290,1,0,0,9999,0,0,0,
2026-04-29 12:20:00,METAR LTBA 291220Z 24006KT 210V270 CAVOK 16/10 Q1018 RMK RWY23 VRB03KT,1,0,0,9999,0,0,0,
2026-04-29 11:50:00,METAR LTBA 291150Z 22005KT 190V260 CAVOK 16/08 Q1018 RMK RWY23 20005KT,1,0,0,9999,0,0,0,
2026-04-29 11:20:00,METAR LTBA 291120Z 22006KT CAVOK 16/09 Q1019 RMK RWY23 21004KT 150V250,1,0,0,9999,0,0,0,
2026-04-29 10:50:00,METAR LTBA 291050Z 21004KT 150V250 CAVOK 17/09 Q1019 RMK RWY23 21005KT 170V240,1,0,0,9999,0,0,0,
2026-04-29 10:20:00,METAR LTBA 291020Z 17005KT 110V240 CAVOK 16/09 Q1019 RMK RWY23 14006KT 110V180,1,0,0,9999,0,0,0,
2026-04-29 09:50:00,METAR LTBA 290950Z 15007KT 090V180 CAVOK 16/07 Q1019 RMK RWY23 13006KT 110V170,1,0,0,9999,0,0,0,
2026-04-29 09:20:00,METAR LTBA 290920Z 13008KT CAVOK 16/07 Q1019 RMK RWY23 13007KT 100V170,1,0,0,9999,0,0,0,
2026-04-29 08:50:00,METAR LTBA 290850Z 13006KT 080V160 CAVOK 15/07 Q1020 RMK RWY23 13008KT,1,0,0,9999,0,0,0,
2026-04-29 08:20:00,METAR LTBA 290820Z 14006KT 090V170 CAVOK 14/07 Q1020 RMK RWY23 13007KT,1,0,0,9999,0,0,0,
2026-04-29 07:50:00,METAR LTBA 290750Z 12006KT 080V150 CAVOK 14/07 Q1020 RMK RWY23 13007KT 090V170,1,0,0,9999,0,0,0,
2026-04-29 07:20:00,METAR LTBA 290720Z 11007KT 080V140 CAVOK 13/07 Q1020 RMK RWY23 13006KT 090V170,1,0,0,9999,0,0,0,
2026-04-29 06:50:00,METAR LTBA 290650Z 10007KT 070V140 CAVOK 13/06 Q1020 RMK RWY23 13008KT 100V160,1,0,0,9999,0,0,0,
2026-04-29 06:20:00,METAR LTBA 290620Z 11007KT 080V150 CAVOK 13/06 Q1020 RMK RWY23 11007KT 080V140,1,0,0,9999,0,0,0,
2026-04-29 05:50:00,METAR LTBA 290550Z 09008KT 050V120 CAVOK 12/06 Q1020 RMK RWY23 08009KT 050V110,1,0,0,9999,0,0,0,
2026-04-29 05:20:00,METAR LTBA 290520Z 09009KT CAVOK 12/06 Q1020 RMK RWY23 08009KT 040V120,1,0,0,9999,0,0,0,
2026-04-29 04:50:00,METAR LTBA 290450Z 07007KT CAVOK 12/06 Q1020 RMK RWY23 07008KT,1,0,0,9999,0,0,0,
2026-04-29 04:20:00,METAR LTBA 290420Z 05006KT CAVOK 11/07 Q1020 RMK RWY23 05005KT,1,0,0,9999,0,0,0,
2026-04-29 03:50:00,METAR LTBA 290350Z 05006KT CAVOK 09/06 Q1019 RMK RWY23 05006KT,1,0,0,9999,0,0,0,
2026-04-29 03:20:00,METAR LTBA 290320Z 05007KT CAVOK 08/06 Q1019 RMK RWY23 04005KT,1,0,0,9999,0,0,0,
2026-04-29 02:50:00,METAR LTBA 290250Z 08005KT CAVOK 09/06 Q1019 RMK RWY23 07005KT,1,0,0,9999,0,0,0,
2026-04-29 02:20:00,METAR LTBA 290220Z 04007KT CAVOK 09/06 Q1019 RMK RWY23 04005KT,1,0,0,9999,0,0,0,
2026-04-29 01:50:00,METAR LTBA 290150Z 04007KT CAVOK 08/06 Q1019 RMK RWY23 04005KT,1,0,0,9999,0,0,0,
2026-04-29 01:20:00,METAR LTBA 290120Z 04008KT CAVOK 09/06 Q1019 RMK RWY23 04006KT,1,0,0,9999,0,0,0,
2026-04-29 00:50:00,METAR LTBA 290050Z 04008KT CAVOK 09/06 Q1019 RMK RWY23 04006KT 360V060,1,0,0,9999,0,0,0,
2026-04-29 00:20:00,METAR LTBA 290020Z 05007KT CAVOK 08/06 Q1019 RMK RWY23 06006KT,1,0,0,9999,0,0,0,
2026-04-28 23:50:00,METAR LTBA 282350Z 05008KT CAVOK 09/06 Q1019 RMK RWY23 05007KT,1,0,0,9999,0,0,0,
2026-04-28 23:20:00,METAR LTBA 282320Z 05008KT CAVOK 09/06 Q1019 RMK RWY23 06009KT,1,0,0,9999,0,0,0,
2026-04-28 22:50:00,METAR LTBA 282250Z 03009KT CAVOK 09/06 Q1019 RMK RWY23 04008KT,1,0,0,9999,0,0,0,
2026-04-28 22:20:00,METAR LTBA 282220Z 05009KT CAVOK 09/06 Q1019 RMK RWY23 07008KT,1,0,0,9999,0,0,0,
2026-04-28 21:50:00,METAR LTBA 282150Z 05010KT CAVOK 09/06 Q1019 RMK RWY23 07008KT,1,0,0,9999,0,0,0,
2026-04-28 21:20:00,METAR LTBA 282120Z 06011KT CAVOK 10/06 Q1019 RMK RWY23 07008KT,1,0,0,9999,0,0,0,
2026-04-28 20:50:00,METAR LTBA 282050Z 06009KT CAVOK 10/06 Q1019 RMK RWY23 06008KT 030V090,1,0,0,9999,0,0,0,
2026-04-28 20:20:00,METAR LTBA 282020Z 06011KT CAVOK 10/05 Q1019 RMK RWY23 07010KT,1,0,0,9999,0,0,0,
2026-04-28 19:50:00,METAR LTBA 281950Z 05009KT CAVOK 10/06 Q1019 RMK RWY23 06011KT,1,0,0,9999,0,0,0,
2026-04-28 19:20:00,METAR LTBA 281920Z 05011KT CAVOK 11/06 Q1018 RMK RWY23 06010KT,1,0,0,9999,0,0,0,
2026-04-28 18:50:00,METAR LTBA 281850Z 05012KT CAVOK 11/06 Q1018 RMK RWY23 06011KT,1,0,0,9999,0,0,0,
2026-04-28 18:20:00,METAR LTBA 281820Z 04012KT CAVOK 11/05 Q1018 RMK RWY23 05011KT,1,0,0,9999,0,0,0,
2026-04-28 17:50:00,METAR LTBA 281750Z 03011KT CAVOK 11/05 Q1018 RMK RWY23 04012KT,1,0,0,9999,0,0,0,
2026-04-28 17:20:00,METAR LTBA 281720Z 03012KT CAVOK 12/05 Q1018 RMK RWY23 02010KT 360V060,1,0,0,9999,0,0,0,
2026-04-28 16:50:00,METAR LTBA 281650Z 02012KT CAVOK 12/03 Q1017 RMK RWY23 04011KT,1,0,0,9999,0,0,0,
2026-04-28 16:20:00,METAR LTBA 281620Z 03012KT CAVOK 13/03 Q1017 RMK RWY23 04011KT,1,0,0,9999,0,0,0,
2026-04-28 15:50:00,METAR LTBA 281550Z 06013KT CAVOK 14/01 Q1017 RMK RWY23 05011KT,1,0,0,9999,0,0,0,
2026-04-28 15:20:00,METAR LTBA 281520Z 05013KT CAVOK 15/01 Q1017 RMK RWY23 06012KT,1,0,0,9999,0,0,0,
2026-04-28 14:50:00,METAR LTBA 281450Z 04012KT CAVOK 16/02 Q1017 RMK RWY23 06012KT 020V100,1,0,0,9999,0,0,0,
2026-04-28 14:20:00,METAR LTBA 281420Z 03011KT CAVOK 17/00 Q1017 RMK RWY23 03010KT 350V070,1,0,0,9999,0,0,0,
2026-04-28 13:50:00,METAR LTBA 281350Z 04010KT 360V060 CAVOK 17/01 Q1018 RMK RWY23 02010G20KT 350V050,1,0,0,9999,0,0,0,
2026-04-28 13:20:00,METAR LTBA 281320Z 24005KT 200V280 CAVOK 16/05 Q1018 RMK RWY23 03008KT 330V100,1,0,0,9999,0,0,0,
2026-04-28 12:50:00,METAR LTBA 281250Z 23006KT 200V260 CAVOK 16/06 Q1018 RMK RWY23 02007KT 320V080,1,0,0,9999,0,0,0,
2026-04-28 12:20:00,METAR LTBA 281220Z 23007KT CAVOK 16/06 Q1018 RMK RWY23 25006KT 200V310,1,0,0,9999,0,0,0,
2026-04-28 11:50:00,METAR LTBA 281150Z 23008KT CAVOK 16/07 Q1018 RMK RWY23 23007KT 190V270,1,0,0,9999,0,0,0,
2026-04-28 11:20:00,METAR LTBA 281120Z 24008KT 200V270 CAVOK 15/07 Q1018 RMK RWY23 25007KT 230V300,1,0,0,9999,0,0,0,
2026-04-28 10:50:00,METAR LTBA 281050Z 23008KT CAVOK 15/08 Q1018 RMK RWY23 06007KT 350V100,1,0,0,9999,0,0,0,
2026-04-28 10:20:00,METAR LTBA 281020Z VRB04KT CAVOK 16/07 Q1019 RMK RWY23 VRB04KT,1,0,0,9999,0,0,0,
2026-04-28 09:50:00,METAR LTBA 280950Z 05006KT 010V080 CAVOK 17/M00 Q1019 RMK RWY23 VRB07KT,1,0,0,9999,0,0,0,
2026-04-28 09:20:00,METAR LTBA 280920Z 01008KT 330V090 CAVOK 16/03 Q1019 RMK RWY23 VRB06KT,1,0,0,9999,0,0,0,
2026-04-28 08:50:00,METAR LTBA 280850Z 06008KT CAVOK 16/02 Q1019 RMK RWY23 03008KT 340V070,1,0,0,9999,0,0,0,
2026-04-28 08:20:00,METAR LTBA 280820Z 06008KT 020V120 CAVOK 15/03 Q1019 RMK RWY23 03008KT,1,0,0,9999,0,0,0,
2026-04-28 07:50:00,METAR LTBA 280750Z 04008KT 350V110 CAVOK 15/03 Q1019 RMK RWY23 07009KT,1,0,0,9999,0,0,0,
2026-04-28 07:20:00,METAR LTBA 280720Z 06009KT 020V110 CAVOK 14/04 Q1019 RMK RWY23 05008KT 010V080,1,0,0,9999,0,0,0,
2026-04-28 06:50:00,METAR LTBA 280650Z 07008KT CAVOK 14/05 Q1019 RMK RWY23 08008KT 040V110,1,0,0,9999,0,0,0,
2026-04-28 06:20:00,METAR LTBA 280620Z 10010KT CAVOK 12/05 Q1019 RMK RWY23 08009KT,1,0,0,9999,0,0,0,
2026-04-28 05:50:00,METAR LTBA 280550Z 05009KT 010V080 CAVOK 12/05 Q1019 RMK RWY23 05008KT 020V080,1,0,0,9999,0,0,0,
2026-04-28 05:20:00,METAR LTBA 280520Z 07009KT CAVOK 12/06 Q1020 RMK RWY23 06009KT,1,0,0,9999,0,0,0,
2026-04-28 04:50:00,METAR LTBA 280450Z 07010KT CAVOK 11/05 Q1020 RMK RWY23 08006KT 350V110,1,0,0,9999,0,0,0,
2026-04-28 04:20:00,METAR LTBA 280420Z 04008KT CAVOK 10/06 Q1019 RMK RWY23 06008KT,1,0,0,9999,0,0,0,
2026-04-28 03:50:00,METAR LTBA 280350Z 05008KT CAVOK 09/06 Q1019 RMK RWY23 05007KT,1,0,0,9999,0,0,0,
2026-04-28 03:20:00,METAR LTBA 280320Z 04008KT CAVOK 09/05 Q1019 RMK RWY23 04008KT,1,0,0,9999,0,0,0,
2026-04-28 02:50:00,METAR LTBA 280250Z 03011KT CAVOK 09/05 Q1019 RMK RWY23 04008KT,1,0,0,9999,0,0,0,
2026-04-28 02:20:00,METAR LTBA 280220Z 05010KT CAVOK 09/05 Q1019 RMK RWY23 04008KT,1,0,0,9999,0,0,0,
2026-04-28 01:50:00,METAR LTBA 280150Z 06008KT CAVOK 08/05 Q1019 RMK RWY23 05009KT,1,0,0,9999,0,0,0,
2026-04-28 01:20:00,METAR LTBA 280120Z 06008KT CAVOK 08/05 Q1019 RMK RWY23 08005KT 030V100,1,0,0,9999,0,0,0,
2026-04-28 00:50:00,METAR LTBA 280050Z 06008KT CAVOK 08/05 Q1019 RMK RWY23 07006KT,1,0,0,9999,0,0,0,
2026-04-28 00:20:00,METAR LTBA 280020Z 06009KT CAVOK 08/05 Q1020 RMK RWY23 06009KT,1,0,0,9999,0,0,0,
2026-04-27 23:50:00,METAR LTBA 272350Z 06010KT CAVOK 09/05 Q1020 RMK RWY23 06009KT,1,0,0,9999,0,0,0,
2026-04-27 23:20:00,METAR LTBA 272320Z 07007KT CAVOK 09/05 Q1020 RMK RWY23 07008KT 040V100,1,0,0,9999,0,0,0,
2026-04-27 22:50:00,METAR LTBA 272250Z 05008KT CAVOK 09/05 Q1020 RMK RWY23 06006KT,1,0,0,9999,0,0,0,
2026-04-27 22:20:00,METAR LTBA 272220Z 06011KT CAVOK 09/05 Q1020 RMK RWY23 06010KT,1,0,0,9999,0,0,0,
2026-04-27 21:50:00,METAR LTBA 272150Z 06010KT CAVOK 09/04 Q1020 RMK RWY23 06012KT,1,0,0,9999,0,0,0,
2026-04-27 21:20:00,METAR LTBA 272120Z 06013KT CAVOK 10/04 Q1020 RMK RWY23 07012KT,1,0,0,9999,0,0,0,
2026-04-27 20:50:00,METAR LTBA 272050Z 05012KT CAVOK 10/04 Q1021 RMK RWY23 06009KT,1,0,0,9999,0,0,0,
2026-04-27 20:20:00,METAR LTBA 272020Z 06010KT CAVOK 10/04 Q1021 RMK RWY23 06010KT,1,0,0,9999,0,0,0,
2026-04-27 19:50:00,METAR LTBA 271950Z 06013KT CAVOK 10/04 Q1021 RMK RWY23 07011KT,1,0,0,9999,0,0,0,
2026-04-27 19:20:00,METAR LTBA 271920Z 07012KT CAVOK 10/03 Q1021 RMK RWY23 07012KT,1,0,0,9999,0,0,0,
2026-04-27 18:50:00,METAR LTBA 271850Z 06015KT CAVOK 10/04 Q1021 RMK RWY23 07013KT 040V100,1,0,0,9999,0,0,0,
2026-04-27 18:20:00,METAR LTBA 271820Z 06017KT CAVOK 11/03 Q1021 RMK RWY23 07014KT,1,0,0,9999,0,0,0,
2026-04-27 17:50:00,METAR LTBA 271750Z 06018KT CAVOK 11/03 Q1021 RMK RWY23 06018KT,1,0,0,9999,0,0,0,
2026-04-27 17:20:00,METAR LTBA 271720Z 07016KT CAVOK 11/02 Q1021 RMK RWY23 07014KT,1,0,0,9999,0,0,0,
2026-04-27 16:50:00,METAR LTBA 271650Z 04016KT CAVOK 12/02 Q1021 RMK RWY23 05012KT,1,0,0,9999,0,0,0,
2026-04-27 16:20:00,METAR LTBA 271620Z 04018KT CAVOK 12/02 Q1021 RMK RWY23 05014KT 020V080,1,0,0,9999,0,0,0,
2026-04-27 15:50:00,METAR LTBA 271550Z 05019KT CAVOK 13/02 Q1021 RMK RWY23 05016KT 010V080,1,0,0,9999,0,0,0,
2026-04-27 15:20:00,METAR LTBA 271520Z 04017KT CAVOK 13/04 Q1021 RMK RWY23 04013KT 010V070,1,0,0,9999,0,0,0,
2026-04-27 14:50:00,METAR LTBA 271450Z 03015KT CAVOK 14/04 Q1021 RMK RWY23 03018KT,1,0,0,9999,0,0,0,
2026-04-27 14:20:00,METAR LTBA 271420Z 03018KT 350V050 CAVOK 14/04 Q1021 RMK RWY23 04015KT,1,0,0,9999,0,0,0,
2026-04-27 13:50:00,METAR LTBA 271350Z 02019KT CAVOK 15/02 Q1021 RMK RWY23 04015KT 010V070,1,0,0,9999,0,0,0,
2026-04-27 13:20:00,METAR LTBA 271320Z 04019KT 010V070 CAVOK 15/02 Q1022 RMK RWY23 04015KT 360V060,1,0,0,9999,0,0,0,
2026-04-27 12:50:00,METAR LTBA 271250Z 04017KT 010V070 CAVOK 15/02 Q1022 RMK RWY23 05015KT 010V080,1,0,0,9999,0,0,0,
2026-04-27 12:20:00,METAR LTBA 271220Z 03020G31KT CAVOK 16/03 Q1022 RMK RWY23 04015KT 020V090,1,0,0,9999,0,0,0,
2026-04-27 11:50:00,METAR LTBA 271150Z 03018KT CAVOK 16/03 Q1023 RMK RWY23 03018KT 010V070,1,0,0,9999,0,0,0,
2026-04-27 11:20:00,METAR LTBA 271120Z 04017KT 360V090 CAVOK 17/02 Q1023 RMK RWY23 06015KT 010V100,1,0,0,9999,0,0,0,
2026-04-27 10:50:00,METAR LTBA 271050Z 04020KT CAVOK 16/02 Q1023 RMK RWY23 04018KT,1,0,0,9999,0,0,0,
2026-04-27 10:20:00,METAR LTBA 271020Z 06017KT 020V080 CAVOK 17/02 Q1023 RMK RWY23 06016KT,1,0,0,9999,0,0,0,
2026-04-27 09:50:00,METAR LTBA 270950Z 06017KT 010V100 CAVOK 17/02 Q1023 RMK RWY23 07016KT 030V110,1,0,0,9999,0,0,0,
2026-04-27 09:20:00,METAR LTBA 270920Z 04018KT CAVOK 16/03 Q1023 RMK RWY23 05016KT,1,0,0,9999,0,0,0,
2026-04-27 08:50:00,METAR LTBA 270850Z 06018G29KT CAVOK 15/03 Q1024 RMK RWY23 06016KT 020V090,1,0,0,9999,0,0,0,
2026-04-27 08:20:00,METAR LTBA 270820Z 03020KT CAVOK 15/03 Q1023 RMK RWY23 04018KT,1,0,0,9999,0,0,0,
2026-04-27 07:50:00,METAR LTBA 270750Z 04020KT CAVOK 15/03 Q1023 RMK RWY23 04018KT,1,0,0,9999,0,0,0,
2026-04-27 07:20:00,METAR LTBA 270720Z 04022KT CAVOK 15/04 Q1023 RMK RWY23 04018G28KT,1,0,0,9999,0,0,0,
2026-04-27 06:50:00,METAR LTBA 270650Z 05020KT CAVOK 14/03 Q1023 RMK RWY23 06018KT,1,0,0,9999,0,0,0,
2026-04-27 06:20:00,METAR LTBA 270620Z 04021KT CAVOK 14/04 Q1023 RMK RWY23 05018KT,1,0,0,9999,0,0,0,
2026-04-27 05:50:00,METAR LTBA 270550Z 05017KT 9999 FEW033 14/04 Q1023 RMK RWY23 05016G26KT 020V090,0,17,0,10000,0,0,0,
2026-04-27 05:20:00,METAR LTBA 270520Z 06016KT CAVOK 13/05 Q1023 RMK RWY23 07014KT,1,0,0,9999,0,0,0,
2026-04-27 04:50:00,METAR LTBA 270450Z 05018KT CAVOK 13/06 Q1023 RMK RWY23 06016KT,1,0,0,9999,0,0,0,
2026-04-27 04:20:00,METAR LTBA 270420Z 05017KT CAVOK 12/06 Q1022 RMK RWY23 06016KT,1,0,0,9999,0,0,0,
2026-04-27 03:50:00,METAR LTBA 270350Z 05020KT CAVOK 12/06 Q1021 RMK RWY23 06016KT 040V100,1,0,0,9999,0,0,0,
2026-04-27 03:20:00,METAR LTBA 270320Z 06016KT CAVOK 11/06 Q1021 RMK RWY23 06014KT,1,0,0,9999,0,0,0,
2026-04-27 02:50:00,METAR LTBA 270250Z 05017KT 9999 FEW030 12/06 Q1020 RMK RWY23 05015KT,0,17,0,10000,0,0,0,
2026-04-27 02:20:00,METAR LTBA 270220Z 04019KT 9999 SCT015 12/06 Q1020 RMK RWY23 04016KT,0,19,0,10000,0,0,0,
2026-04-27 01:50:00,METAR LTBA 270150Z 04022KT 9999 SCT015 12/06 Q1020 RMK RWY23 04014G24KT 360V070,0,22,0,10000,0,0,0,
2026-04-27 01:20:00,METAR LTBA 270120Z 03019KT 9999 SCT015 12/06 Q1019 RMK RWY23 04014KT 010V080,0,19,0,10000,0,0,0,
2026-04-27 00:50:00,METAR LTBA 270050Z 03022G33KT 9999 SCT015 12/07 Q1018 RMK RWY23 03020G33KT,0,22,1,10000,0,0,0,
2026-04-27 00:20:00,METAR LTBA 270020Z 01020G30KT 9999 SCT015 13/08 Q1018 RMK RWY23 02020G30KT 350V050,0,20,1,10000,0,0,0,
2026-04-26 23:50:00,METAR LTBA 262350Z 01021KT 9999 SCT015 13/10 Q1017 RMK RWY23 01020G30KT,0,21,0,10000,0,0,0,
2026-04-26 23:20:00,METAR LTBA 262320Z 36019KT 9999 SCT025 14/11 Q1017 RMK RWY23 36016G27KT,0,19,0,10000,0,0,0,
2026-04-26 22:50:00,METAR LTBA 262250Z 34018KT CAVOK 15/12 Q1016 RMK RWY23 35014G24KT,1,0,0,9999,0,0,0,
2026-04-26 22:20:00,METAR LTBA 262220Z 31008KT 280V350 8000 NSC 15/09 Q1016 RMK RWY23 31007KT,0,8,0,8000,0,0,0,
2026-04-26 21:50:00,METAR LTBA 262150Z VRB02KT 8000 NSC 14/12 Q1015 RMK RWY23 27004KT,0,2,0,8000,0,0,0,
2026-04-26 21:20:00,METAR LTBA 262120Z 18001KT 8000 NSC 14/12 Q1015 RMK RWY23 00000KT,0,1,0,8000,0,0,0,
2026-04-26 20:50:00,METAR LTBA 262050Z 00000KT CAVOK 14/13 Q1015 RMK RWY23 00000KT,1,0,0,9999,0,0,0,
2026-04-26 20:20:00,METAR LTBA 262020Z 14001KT CAVOK 14/12 Q1014 RMK RWY23 VRB01KT,1,0,0,9999,0,0,0,
2026-04-26 19:50:00,METAR LTBA 261950Z 00000KT CAVOK 15/13 Q1014 RMK RWY23 VRB01KT,1,0,0,9999,0,0,0,
2026-04-26 19:20:00,METAR LTBA 261920Z 00000KT CAVOK 15/13 Q1014 RMK RWY23 00000KT,1,0,0,9999,0,0,0,
2026-04-26 18:50:00,METAR LTBA 261850Z 13002KT CAVOK 15/13 Q1013 RMK RWY23 13003KT,1,0,0,9999,0,0,0,
2026-04-26 18:20:00,METAR LTBA 261820Z VRB02KT CAVOK 15/14 Q1013 RMK RWY23 20003KT 180V240,1,0,0,9999,0,0,0,
2026-04-26 17:50:00,METAR LTBA 261750Z VRB02KT CAVOK 15/13 Q1013 RMK RWY23 20004KT,1,0,0,9999,0,0,0,
2026-04-26 17:20:00,METAR LTBA 261720Z 21004KT CAVOK 15/12 Q1012 RMK RWY23 22004KT 160V240,1,0,0,9999,0,0,0,
2026-04-26 16:50:00,METAR LTBA 261650Z 17003KT 140V220 CAVOK 16/11 Q1012 RMK RWY23 20005KT,1,0,0,9999,0,0,0,
2026-04-26 16:20:00,METAR LTBA 261620Z 22005KT CAVOK 17/06 Q1012 RMK RWY23 23005KT,1,0,0,9999,0,0,0,
2026-04-26 15:50:00,METAR LTBA 261550Z 24005KT CAVOK 19/05 Q1012 RMK RWY23 24006KT,1,0,0,9999,0,0,0,
2026-04-26 15:20:00,METAR LTBA 261520Z 25007KT CAVOK 19/06 Q1012,1,0,0,9999,0,0,0,
2026-04-26 15:20:00,METAR LTBA 261520Z 25007KT CAVOK 19/06 Q1012 RMK RWY23 24009KT,1,0,0,9999,0,0,0,
2026-04-26 14:50:00,METAR LTBA 261450Z 24008KT CAVOK 19/07 Q1012 RMK RWY23 24006KT,1,0,0,9999,0,0,0,
2026-04-26 14:20:00,METAR LTBA 261420Z 23008KT CAVOK 19/07 Q1012 RMK RWY23 24009KT,1,0,0,9999,0,0,0,
2026-04-26 13:50:00,METAR LTBA 261350Z 24009KT CAVOK 19/07 Q1012 RMK RWY23 24008KT,1,0,0,9999,0,0,0,
2026-04-26 13:20:00,METAR LTBA 261320Z 24007KT CAVOK 19/08 Q1012 RMK RWY23 24008KT,1,0,0,9999,0,0,0,
2026-04-26 12:50:00,METAR LTBA 261250Z 24007KT CAVOK 19/08 Q1012 RMK RWY23 24009KT,1,0,0,9999,0,0,0,
2026-04-26 12:20:00,METAR LTBA 261220Z 24007KT CAVOK 19/08 Q1013 RMK RWY23 25008KT,1,0,0,9999,0,0,0,
2026-04-26 11:50:00,METAR LTBA 261150Z 24008KT CAVOK 18/09 Q1013 RMK RWY23 24008KT,1,0,0,9999,0,0,0,
2026-04-26 11:20:00,METAR LTBA 261120Z 23008KT CAVOK 18/11 Q1013 RMK RWY23 23008KT,1,0,0,9999,0,0,0,
2026-04-26 10:50:00,METAR LTBA 261050Z 23007KT CAVOK 18/11 Q1013 RMK RWY23 23007KT,1,0,0,9999,0,0,0,
2026-04-26 10:20:00,METAR LTBA 261020Z 24006KT CAVOK 18/12 Q1014 RMK RWY23 25007KT,1,0,0,9999,0,0,0,
2026-04-26 09:50:00,METAR LTBA 260950Z 23006KT CAVOK 17/13 Q1014 RMK RWY23 24007KT,1,0,0,9999,0,0,0,
2026-04-26 09:20:00,METAR LTBA 260920Z 23007KT CAVOK 17/13 Q1014 RMK RWY23 24009KT,1,0,0,9999,0,0,0,
2026-04-26 08:50:00,METAR LTBA 260850Z 24008KT CAVOK 16/13 Q1014 RMK RWY23 24009KT,1,0,0,9999,0,0,0,
2026-04-26 08:20:00,METAR LTBA 260820Z 22008KT CAVOK 16/12 Q1014 RMK RWY23 22007KT,1,0,0,9999,0,0,0,
2026-04-26 07:50:00,METAR LTBA 260750Z 22008KT 190V250 CAVOK 16/10 Q1014 RMK RWY23 22007KT,1,0,0,9999,0,0,0,
2026-04-26 07:20:00,METAR LTBA 260720Z 21007KT CAVOK 16/12 Q1014 RMK RWY23 22007KT 190V250,1,0,0,9999,0,0,0,
2026-04-26 06:50:00,METAR LTBA 260650Z 20007KT 180V240 CAVOK 15/11 Q1014 RMK RWY23 20007KT,1,0,0,9999,0,0,0,
2026-04-26 06:20:00,METAR LTBA 260620Z 21006KT CAVOK 15/10 Q1014 RMK RWY23 22006KT,1,0,0,9999,0,0,0,
2026-04-26 05:50:00,METAR LTBA 260550Z 22005KT 180V240 CAVOK 15/11 Q1014 RMK RWY23 21006KT,1,0,0,9999,0,0,0,
2026-04-26 05:20:00,METAR LTBA 260520Z 21004KT 180V240 CAVOK 15/10 Q1014 RMK RWY23 22003KT,1,0,0,9999,0,0,0,
2026-04-26 04:50:00,METAR LTBA 260450Z VRB01KT CAVOK 15/06 Q1014 RMK RWY23 VRB01KT,1,0,0,9999,0,0,0,
2026-04-26 04:20:00,METAR LTBA 260420Z 00000KT CAVOK 14/04 Q1014 RMK RWY23 00000KT,1,0,0,9999,0,0,0,
2026-04-26 03:50:00,METAR LTBA 260350Z 00000KT CAVOK 11/04 Q1013 RMK RWY23 33002KT,1,0,0,9999,0,0,0,
2026-04-26 03:20:00,METAR LTBA 260320Z VRB01KT CAVOK 11/04 Q1013 RMK RWY23 00000KT,1,0,0,9999,0,0,0,
2026-04-26 02:50:00,METAR LTBA 260250Z 00000KT CAVOK 11/03 Q1013 RMK RWY23 22001KT,1,0,0,9999,0,0,0,
2026-04-26 02:20:00,METAR LTBA 260220Z 35003KT CAVOK 12/03 Q1013 RMK RWY23 VRB02KT,1,0,0,9999,0,0,0,
2026-04-26 01:50:00,METAR LTBA 260150Z 34005KT CAVOK 12/04 Q1013 RMK RWY23 34005KT,1,0,0,9999,0,0,0,
2026-04-26 01:20:00,METAR LTBA 260120Z 34006KT CAVOK 12/04 Q1013 RMK RWY23 34005KT,1,0,0,9999,0,0,0,
2026-04-26 00:50:00,METAR LTBA 260050Z 34007KT CAVOK 12/03 Q1013 RMK RWY23 34005KT,1,0,0,9999,0,0,0,
2026-04-26 00:20:00,METAR LTBA 260020Z 34007KT CAVOK 13/03 Q1013 RMK RWY23 34006KT,1,0,0,9999,0,0,0,
2026-04-25 23:50:00,METAR LTBA 252350Z 34006KT CAVOK 13/03 Q1013 RMK RWY23 34005KT,1,0,0,9999,0,0,0,
2026-04-25 23:20:00,METAR LTBA 252320Z 34006KT CAVOK 13/03 Q1013 RMK RWY23 34006KT,1,0,0,9999,0,0,0,
2026-04-25 22:50:00,METAR LTBA 252250Z 34006KT CAVOK 13/03 Q1013 RMK RWY23 34006KT,1,0,0,9999,0,0,0,
2026-04-25 22:20:00,METAR LTBA 252220Z 34004KT CAVOK 14/03 Q1014 RMK RWY23 34005KT,1,0,0,9999,0,0,0,
2026-04-25 21:50:00,METAR LTBA 252150Z 00000KT CAVOK 14/02 Q1014 RMK RWY23 VRB01KT,1,0,0,9999,0,0,0,
2026-04-25 21:20:00,METAR LTBA 252120Z 00000KT CAVOK 15/01 Q1014 RMK RWY23 36002KT,1,0,0,9999,0,0,0,
2026-04-25 20:50:00,METAR LTBA 252050Z 36004KT CAVOK 15/01 Q1014 RMK RWY23 35004KT,1,0,0,9999,0,0,0,
2026-04-25 20:20:00,METAR LTBA 252020Z 01003KT CAVOK 16/01 Q1014 RMK RWY23 02004KT,1,0,0,9999,0,0,0,
2026-04-25 19:50:00,METAR LTBA 251950Z 04005KT CAVOK 16/01 Q1014 RMK RWY23 04004KT,1,0,0,9999,0,0,0,
2026-04-25 19:20:00,METAR LTBA 251920Z 05006KT CAVOK 15/01 Q1014 RMK RWY23 05005KT,1,0,0,9999,0,0,0,
2026-04-25 18:50:00,METAR LTBA 251850Z 05007KT CAVOK 15/01 Q1014 RMK RWY23 05005KT,1,0,0,9999,0,0,0,
2026-04-25 18:20:00,METAR LTBA 251820Z 05008KT CAVOK 16/01 Q1014 RMK RWY23 05007KT,1,0,0,9999,0,0,0,
2026-04-25 17:50:00,METAR LTBA 251750Z 06008KT CAVOK 16/01 Q1014 RMK RWY23 06006KT,1,0,0,9999,0,0,0,
2026-04-25 17:20:00,METAR LTBA 251720Z 08007KT CAVOK 18/01 Q1014 RMK RWY23 08004KT,1,0,0,9999,0,0,0,
2026-04-25 16:50:00,METAR LTBA 251650Z 06009KT CAVOK 19/01 Q1013 RMK RWY23 07006KT,1,0,0,9999,0,0,0,
2026-04-25 16:20:00,METAR LTBA 251620Z 06008KT CAVOK 19/02 Q1013 RMK RWY23 07008KT,1,0,0,9999,0,0,0,
2026-04-25 15:50:00,METAR LTBA 251550Z 05012KT CAVOK 20/00 Q1013 RMK RWY23 06011KT,1,0,0,9999,0,0,0,
2026-04-25 15:20:00,METAR LTBA 251520Z 03014KT CAVOK 21/M02 Q1013 RMK RWY23 04013KT,1,0,0,9999,0,0,0,
2026-04-25 14:50:00,METAR LTBA 251450Z 05013KT CAVOK 21/02 Q1013 RMK RWY23 04012KT 020V080,1,0,0,9999,0,0,0,
2026-04-25 14:20:00,METAR LTBA 251420Z 06010KT 030V090 CAVOK 22/02 Q1013 RMK RWY23 07011KT,1,0,0,9999,0,0,0,
2026-04-25 13:50:00,METAR LTBA 251350Z 05007KT 350V110 CAVOK 22/03 Q1013 RMK RWY23 05008KT 010V090,1,0,0,9999,0,0,0,
2026-04-25 13:20:00,METAR LTBA 251320Z 08009KT CAVOK 22/03 Q1014 RMK RWY23 08008KT 040V110,1,0,0,9999,0,0,0,
2026-04-25 12:50:00,METAR LTBA 251250Z 09006KT 060V130 CAVOK 22/04 Q1014 RMK RWY23 08008KT 350V140,1,0,0,9999,0,0,0,
2026-04-25 12:20:00,METAR LTBA 251220Z 10008KT 080V140 CAVOK 22/03 Q1014 RMK RWY23 13007KT 100V160,1,0,0,9999,0,0,0,
2026-04-25 11:50:00,METAR LTBA 251150Z 24005KT 170V280 CAVOK 22/08 Q1014 RMK RWY23 13007KT,1,0,0,9999,0,0,0,
2026-04-25 11:20:00,METAR LTBA 251120Z 23005KT 210V270 CAVOK 19/09 Q1015 RMK RWY23 24005KT 210V290,1,0,0,9999,0,0,0,
2026-04-25 10:50:00,METAR LTBA 251050Z 24007KT CAVOK 17/10 Q1015 RMK RWY23 24008KT,1,0,0,9999,0,0,0,
2026-04-25 10:20:00,METAR LTBA 251020Z 23007KT CAVOK 18/09 Q1015 RMK RWY23 23009KT,1,0,0,9999,0,0,0,
2026-04-25 09:50:00,METAR LTBA 250950Z 23007KT CAVOK 18/08 Q1015 RMK RWY23 15004KT 110V170,1,0,0,9999,0,0,0,
2026-04-25 09:20:00,METAR LTBA 250920Z 21006KT CAVOK 18/06 Q1015 RMK RWY23 VRB04KT,1,0,0,9999,0,0,0,
2026-04-25 08:50:00,METAR LTBA 250850Z 23004KT 190V280 CAVOK 18/07 Q1016 RMK RWY23 22003KT 140V280,1,0,0,9999,0,0,0,
2026-04-25 08:20:00,METAR LTBA 250820Z 17005KT 140V210 CAVOK 17/07 Q1016 RMK RWY23 19005KT 160V220,1,0,0,9999,0,0,0,
2026-04-25 07:50:00,METAR LTBA 250750Z 16006KT CAVOK 17/05 Q1016 RMK RWY23 16006KT 120V200,1,0,0,9999,0,0,0,
2026-04-25 07:20:00,METAR LTBA 250720Z 11004KT 050V150 CAVOK 18/05 Q1016 RMK RWY23 14004KT 110V190,1,0,0,9999,0,0,0,
2026-04-25 06:50:00,METAR LTBA 250650Z 12004KT 060V200 CAVOK 17/07 Q1016 RMK RWY23 VRB02KT,1,0,0,9999,0,0,0,
2026-04-25 06:20:00,METAR LTBA 250620Z 14003KT 110V180 CAVOK 15/07 Q1016 RMK RWY23 12003KT 080V170,1,0,0,9999,0,0,0,
2026-04-25 05:50:00,METAR LTBA 250550Z VRB01KT CAVOK 16/07 Q1016 RMK RWY23 VRB02KT,1,0,0,9999,0,0,0,
2026-04-25 05:20:00,METAR LTBA 250520Z VRB02KT CAVOK 14/07 Q1016 RMK RWY23 00000KT,1,0,0,9999,0,0,0,
2026-04-25 04:50:00,METAR LTBA 250450Z 00000KT CAVOK 13/07 Q1015 RMK RWY23 00000KT,1,0,0,9999,0,0,0,
2026-04-25 04:20:00,METAR LTBA 250420Z 35004KT 9000 NSC 11/06 Q1015 RMK RWY23 34004KT,0,4,0,9000,0,0,0,
2026-04-25 03:50:00,METAR LTBA 250350Z VRB01KT 8000 NSC 10/06 Q1015 RMK RWY23 34003KT,0,1,0,8000,0,0,0,
2026-04-25 03:20:00,METAR LTBA 250320Z 36003KT 6000 NSC 10/06 Q1015 RMK RWY23 35004KT,0,3,0,6000,0,0,0,
2026-04-25 02:50:00,METAR LTBA 250250Z 35004KT 7000 NSC 10/06 Q1015 RMK RWY23 35003KT,0,4,0,7000,0,0,0,
2026-04-25 02:20:00,METAR LTBA 250220Z 36003KT CAVOK 10/06 Q1015 RMK RWY23 36003KT,1,0,0,9999,0,0,0,
2026-04-25 01:50:00,METAR LTBA 250150Z 34004KT CAVOK 09/05 Q1015 RMK RWY23 34004KT,1,0,0,9999,0,0,0,
2026-04-25 01:20:00,METAR LTBA 250120Z 00000KT CAVOK 10/06 Q1015 RMK RWY23 33003KT,1,0,0,9999,0,0,0,
2026-04-25 00:50:00,METAR LTBA 250050Z 00000KT CAVOK 10/06 Q1015 RMK RWY23 00000KT,1,0,0,9999,0,0,0,
2026-04-25 00:20:00,METAR LTBA 250020Z 00000KT CAVOK 10/06 Q1015 RMK RWY23 00000KT,1,0,0,9999,0,0,0,
2026-04-24 23:50:00,METAR LTBA 242350Z 36003KT CAVOK 10/06 Q1015 RMK RWY23 34004KT,1,0,0,9999,0,0,0,
2026-04-24 23:20:00,METAR LTBA 242320Z 00000KT CAVOK 11/06 Q1015 RMK RWY23 00000KT,1,0,0,9999,0,0,0,
2026-04-24 22:50:00,METAR LTBA 242250Z 00000KT CAVOK 11/05 Q1015 RMK RWY23 00000KT,1,0,0,9999,0,0,0,
2026-04-24 22:20:00,METAR LTBA 242220Z 03003KT CAVOK 12/05 Q1015 RMK RWY23 03003KT,1,0,0,9999,0,0,0,
2026-04-24 21:50:00,METAR LTBA 242150Z 05003KT CAVOK 12/06 Q1015 RMK RWY23 06003KT,1,0,0,9999,0,0,0,
2026-04-24 21:20:00,METAR LTBA 242120Z VRB01KT CAVOK 12/06 Q1015 RMK RWY23 VRB02KT,1,0,0,9999,0,0,0,
2026-04-24 20:50:00,METAR LTBA 242050Z 08003KT CAVOK 12/06 Q1015 RMK RWY23 11003KT,1,0,0,9999,0,0,0,
2026-04-24 20:20:00,METAR LTBA 242020Z 04003KT CAVOK 12/06 Q1015 RMK RWY23 04003KT 360V060,1,0,0,9999,0,0,0,
2026-04-24 19:50:00,METAR LTBA 241950Z 07002KT CAVOK 12/08 Q1015 RMK RWY23 VRB01KT,1,0,0,9999,0,0,0,
2026-04-24 19:20:00,METAR LTBA 241920Z 09004KT CAVOK 12/10 Q1015 RMK RWY23 13002KT,1,0,0,9999,0,0,0,
2026-04-24 18:50:00,METAR LTBA 241850Z 09001KT CAVOK 12/11 Q1014 RMK RWY23 VRB02KT,1,0,0,9999,0,0,0,
2026-04-24 18:20:00,METAR LTBA 241820Z 10004KT CAVOK 12/11 Q1014 RMK RWY23 13004KT,1,0,0,9999,0,0,0,
2026-04-24 17:50:00,METAR LTBA 241750Z 12002KT CAVOK 13/11 Q1014 RMK RWY23 13002KT,1,0,0,9999,0,0,0,
2026-04-24 17:20:00,METAR LTBA 241720Z 15004KT CAVOK 13/11 Q1014 RMK RWY23 15004KT,1,0,0,9999,0,0,0,
2026-04-24 16:50:00,METAR LTBA 241650Z VRB02KT CAVOK 14/09 Q1013 RMK RWY23 VRB02KT,1,0,0,9999,0,0,0,
2026-04-24 16:20:00,METAR LTBA 241620Z 19003KT CAVOK 15/08 Q1013 RMK RWY23 20004KT 170V230,1,0,0,9999,0,0,0,
2026-04-24 15:50:00,METAR LTBA 241550Z 21006KT CAVOK 15/07 Q1013 RMK RWY23 20005KT 170V230,1,0,0,9999,0,0,0,
2026-04-24 15:20:00,METAR LTBA 241520Z 21005KT 180V240 CAVOK 15/09 Q1013 RMK RWY23 22006KT,1,0,0,9999,0,0,0,
2026-04-24 14:50:00,METAR LTBA 241450Z 24006KT CAVOK 16/06 Q1013 RMK RWY23 24008KT,1,0,0,9999,0,0,0,
2026-04-24 14:20:00,METAR LTBA 241420Z 24006KT CAVOK 16/08 Q1013 RMK RWY23 24008KT,1,0,0,9999,0,0,0,
2026-04-24 13:50:00,METAR LTBA 241350Z 24007KT CAVOK 16/07 Q1013 RMK RWY23 25009KT,1,0,0,9999,0,0,0,
2026-04-24 13:20:00,METAR LTBA 241320Z 24008KT CAVOK 15/09 Q1013 RMK RWY23 23009KT,1,0,0,9999,0,0,0,
2026-04-24 12:50:00,METAR LTBA 241250Z 22009KT 200V260 CAVOK 15/09 Q1013 RMK RWY23 24009KT,1,0,0,9999,0,0,0,
2026-04-24 12:20:00,METAR LTBA 241220Z 23008KT 200V260 CAVOK 15/09 Q1014 RMK RWY23 23009KT,1,0,0,9999,0,0,0,
2026-04-24 11:50:00,METAR LTBA 241150Z 22007KT 190V260 CAVOK 15/09 Q1014 RMK RWY23 23008KT 200V260,1,0,0,9999,0,0,0,
2026-04-24 11:20:00,METAR LTBA 241120Z 23007KT CAVOK 15/09 Q1014 RMK RWY23 25008KT,1,0,0,9999,0,0,0,
2026-04-24 10:50:00,METAR LTBA 241050Z 24008KT CAVOK 15/09 Q1014 RMK RWY23 25010KT,1,0,0,9999,0,0,0,
2026-04-24 10:20:00,METAR LTBA 241020Z 24009KT CAVOK 14/08 Q1014 RMK RWY23 24012KT,1,0,0,9999,0,0,0,
2026-04-24 09:50:00,METAR LTBA 240950Z 24010KT CAVOK 14/09 Q1014 RMK RWY23 24012KT,1,0,0,9999,0,0,0,
2026-04-24 09:20:00,METAR LTBA 240920Z 23010KT CAVOK 14/08 Q1015 RMK RWY23 23012KT,1,0,0,9999,0,0,0,
2026-04-24 08:50:00,METAR LTBA 240850Z 22011KT CAVOK 14/08 Q1015 RMK RWY23 24011KT,1,0,0,9999,0,0,0,
2026-04-24 08:20:00,METAR LTBA 240820Z 22011KT CAVOK 13/08 Q1015 RMK RWY23 23010KT,1,0,0,9999,0,0,0,
2026-04-24 07:50:00,METAR LTBA 240750Z 22011KT CAVOK 14/09 Q1015 RMK RWY23 24010KT,1,0,0,9999,0,0,0,
2026-04-24 07:20:00,METAR LTBA 240720Z 22010KT CAVOK 13/09 Q1015 RMK RWY23 23011KT,1,0,0,9999,0,0,0,
2026-04-24 06:50:00,METAR LTBA 240650Z 21009KT CAVOK 13/09 Q1015 RMK RWY23 23010KT,1,0,0,9999,0,0,0,
2026-04-24 06:20:00,METAR LTBA 240620Z 23009KT CAVOK 13/09 Q1014 RMK RWY23 23010KT,1,0,0,9999,0,0,0,
2026-04-24 05:50:00,METAR LTBA 240550Z 23008KT CAVOK 12/10 Q1014 RMK RWY23 24010KT,1,0,0,9999,0,0,0,
2026-04-24 05:20:00,METAR LTBA 240520Z 23008KT CAVOK 12/09 Q1014 RMK RWY23 24010KT,1,0,0,9999,0,0,0,
2026-04-24 04:50:00,METAR LTBA 240450Z 23008KT CAVOK 12/10 Q1014 RMK RWY23 24009KT,1,0,0,9999,0,0,0,
2026-04-24 04:20:00,METAR LTBA 240420Z 23008KT CAVOK 12/10 Q1014 RMK RWY23 23006KT,1,0,0,9999,0,0,0,
2026-04-24 03:50:00,METAR LTBA 240350Z 22007KT CAVOK 11/08 Q1014 RMK RWY23 23007KT,1,0,0,9999,0,0,0,
2026-04-24 03:20:00,METAR LTBA 240320Z 23006KT CAVOK 10/08 Q1013 RMK RWY23 24006KT,1,0,0,9999,0,0,0,
2026-04-24 02:50:00,METAR LTBA 240250Z 24004KT CAVOK 10/09 Q1013 RMK RWY23 25005KT,1,0,0,9999,0,0,0,
2026-04-24 02:20:00,METAR LTBA 240220Z 25004KT CAVOK 10/09 Q1013 RMK RWY23 26006KT,1,0,0,9999,0,0,0,
2026-04-24 01:50:00,METAR LTBA 240150Z 27006KT CAVOK 09/08 Q1013 RMK RWY23 28006KT,1,0,0,9999,0,0,0,
2026-04-24 01:20:00,METAR LTBA 240120Z 26007KT CAVOK 10/08 Q1013 RMK RWY23 27005KT,1,0,0,9999,0,0,0,
2026-04-24 00:50:00,METAR LTBA 240050Z 25008KT CAVOK 11/07 Q1013 RMK RWY23 26007KT,1,0,0,9999,0,0,0,
2026-04-24 00:20:00,METAR LTBA 240020Z 25007KT CAVOK 10/07 Q1013 RMK RWY23 27005KT,1,0,0,9999,0,0,0,
2026-04-23 23:50:00,METAR LTBA 232350Z 26006KT CAVOK 10/08 Q1013 RMK RWY23 28005KT,1,0,0,9999,0,0,0,
2026-04-23 23:20:00,METAR LTBA 232320Z 25007KT CAVOK 10/08 Q1014 RMK RWY23 26006KT,1,0,0,9999,0,0,0,
2026-04-23 22:50:00,METAR LTBA 232250Z 23006KT CAVOK 11/08 Q1014 RMK RWY23 23005KT,1,0,0,9999,0,0,0,
2026-04-23 22:20:00,METAR LTBA 232220Z 24006KT CAVOK 10/08 Q1014 RMK RWY23 24006KT,1,0,0,9999,0,0,0,
2026-04-23 21:50:00,METAR LTBA 232150Z 23005KT CAVOK 10/07 Q1014 RMK RWY23 23005KT,1,0,0,9999,0,0,0,
2026-04-23 21:20:00,METAR LTBA 232120Z 22003KT CAVOK 10/07 Q1014 RMK RWY23 22003KT,1,0,0,9999,0,0,0,
2026-04-23 20:50:00,METAR LTBA 232050Z 24004KT CAVOK 10/07 Q1014 RMK RWY23 25002KT,1,0,0,9999,0,0,0,
2026-04-23 20:20:00,METAR LTBA 232020Z 24003KT CAVOK 11/06 Q1014 RMK RWY23 00000KT,1,0,0,9999,0,0,0,
2026-04-23 19:50:00,METAR LTBA 231950Z 20002KT CAVOK 10/06 Q1014 RMK RWY23 22002KT,1,0,0,9999,0,0,0,
2026-04-23 19:20:00,METAR LTBA 231920Z 22003KT CAVOK 10/06 Q1014 RMK RWY23 23001KT,1,0,0,9999,0,0,0,
2026-04-23 18:50:00,METAR LTBA 231850Z 24003KT CAVOK 11/06 Q1014 RMK RWY23 25004KT,1,0,0,9999,0,0,0,
2026-04-23 18:20:00,METAR LTBA 231820Z 27003KT CAVOK 11/05 Q1014 RMK RWY23 26004KT,1,0,0,9999,0,0,0,
2026-04-23 17:50:00,METAR LTBA 231750Z 26006KT CAVOK 11/06 Q1013 RMK RWY23 27005KT,1,0,0,9999,0,0,0,
2026-04-23 17:20:00,METAR LTBA 231720Z 26007KT CAVOK 11/06 Q1013 RMK RWY23 27006KT,1,0,0,9999,0,0,0,
2026-04-23 16:50:00,METAR LTBA 231650Z 26007KT CAVOK 11/06 Q1013 RMK RWY23 27006KT,1,0,0,9999,0,0,0,
2026-04-23 16:20:00,METAR LTBA 231620Z 26009KT CAVOK 12/06 Q1013 RMK RWY23 25008KT,1,0,0,9999,0,0,0,
2026-04-23 15:50:00,METAR LTBA 231550Z 24007KT CAVOK 13/06 Q1013 RMK RWY23 25008KT,1,0,0,9999,0,0,0,
2026-04-23 15:20:00,METAR LTBA 231520Z 25007KT 9999 FEW040 13/06 Q1013 RMK RWY23 VRB07KT,0,7,0,10000,0,0,0,
2026-04-23 14:50:00,METAR LTBA 231450Z 24006KT 9999 FEW040 13/06 Q1013 RMK RWY23 24006KT,0,6,0,10000,0,0,0,
2026-04-23 14:20:00,METAR LTBA 231420Z 22007KT 9999 FEW040 13/06 Q1013 RMK RWY23 24007KT,0,7,0,10000,0,0,0,
2026-04-23 13:50:00,METAR LTBA 231350Z 23007KT 9999 FEW040 14/06 Q1013 RMK RWY23 22007KT,0,7,0,10000,0,0,0,
2026-04-23 13:20:00,METAR LTBA 231320Z 23007KT 9999 SCT040 14/06 Q1013 RMK RWY23 21006KT 190V250,0,7,0,10000,0,0,0,
2026-04-23 12:50:00,METAR LTBA 231250Z 21007KT 170V230 9999 BKN040 14/05 Q1013 RMK RWY23 21006KT 170V240,0,7,0,10000,0,0,0,
2026-04-23 12:20:00,METAR LTBA 231220Z 21007KT 9999 BKN035 13/04 Q1014 RMK RWY23 20006KT,0,7,0,10000,0,0,0,
2026-04-23 11:50:00,METAR LTBA 231150Z 17006KT 9999 BKN035 13/05 Q1014 RMK RWY23 21007KT 180V250,0,6,0,10000,0,0,0,
2026-04-23 11:20:00,METAR LTBA 231120Z 15004KT 120V200 9999 BKN035 13/05 Q1014 RMK RWY23 17005KT 130V210,0,4,0,10000,0,0,0,
2026-04-23 10:50:00,METAR LTBA 231050Z VRB04KT 9999 BKN035 14/05 Q1015 RMK RWY23 17006KT,0,4,0,10000,0,0,0,
2026-04-23 10:20:00,METAR LTBA 231020Z VRB02KT 9999 BKN035 13/04 Q1015 RMK RWY23 14006KT 110V170,0,2,0,10000,0,0,0,
2026-04-23 09:50:00,METAR LTBA 230950Z 06005KT 350V120 9999 BKN035 13/04 Q1015 RMK RWY23 01007KT 330V050,0,5,0,10000,0,0,0,
2026-04-23 09:20:00,METAR LTBA 230920Z 05008KT 9999 BKN035 13/04 Q1015 RMK RWY23 05007KT 010V070,0,8,0,10000,0,0,0,
2026-04-23 08:50:00,METAR LTBA 230850Z 03009KT 350V070 9999 BKN035 12/05 Q1015 RMK RWY23 06010KT,0,9,0,10000,0,0,0,
2026-04-23 08:20:00,METAR LTBA 230820Z 04008KT 010V080 9999 BKN035 12/04 Q1015 RMK RWY23 36010KT,0,8,0,10000,0,0,0,
2026-04-23 07:50:00,METAR LTBA 230750Z 04010KT 010V070 9999 BKN035 12/05 Q1015 RMK RWY23 05010KT,0,10,0,10000,0,0,0,
2026-04-23 07:20:00,METAR LTBA 230720Z 04011KT 010V070 9999 BKN035 12/05 Q1015 RMK RWY23 05009KT,0,11,0,10000,0,0,0,
2026-04-23 06:50:00,METAR LTBA 230650Z 02011KT 9999 BKN035 11/06 Q1015 RMK RWY23 05011KT,0,11,0,10000,0,0,0,
2026-04-23 06:20:00,METAR LTBA 230620Z 04013KT 9999 BKN035 11/06 Q1015 RMK RWY23 03010KT 360V060,0,13,0,10000,0,0,0,
2026-04-23 05:50:00,METAR LTBA 230550Z 04012KT 9999 SCT030 BKN120 10/06 Q1015 RMK RWY23 05009KT 010V070,0,12,0,10000,0,0,0,
2026-04-23 05:20:00,METAR LTBA 230520Z 05010KT 9999 SCT030 BKN120 10/06 Q1015 RMK RWY23 06009KT,0,10,0,10000,0,0,0,
2026-04-23 04:50:00,METAR LTBA 230450Z 05010KT 9999 SCT030 BKN120 10/06 Q1015 RMK RWY23 05009KT 020V080,0,10,0,10000,0,0,0,
2026-04-23 04:20:00,METAR LTBA 230420Z 05009KT 9999 SCT030 BKN120 09/06 Q1015 RMK RWY23 05010KT,0,9,0,10000,0,0,0,
2026-04-23 03:50:00,METAR LTBA 230350Z 05008KT 9999 SCT030 BKN120 09/06 Q1015 RMK RWY23 05007KT,0,8,0,10000,0,0,0,
2026-04-23 03:20:00,METAR LTBA 230320Z 05007KT 9999 SCT030 BKN120 09/06 Q1014 RMK RWY23 05007KT,0,7,0,10000,0,0,0,
2026-04-23 02:50:00,METAR LTBA 230250Z 05006KT 9999 SCT030 BKN120 09/07 Q1015 RMK RWY23 04006KT 020V080,0,6,0,10000,0,0,0,
2026-04-23 02:20:00,METAR LTBA 230220Z 05007KT 9999 SCT030 BKN120 09/06 Q1014 RMK RWY23 05006KT,0,7,0,10000,0,0,0,
2026-04-23 01:50:00,METAR LTBA 230150Z 04009KT 9999 SCT030 BKN120 09/06 Q1014 RMK RWY23 04008KT,0,9,0,10000,0,0,0,
2026-04-23 01:20:00,METAR LTBA 230120Z 06008KT 9999 SCT030 BKN120 08/06 Q1015 RMK RWY23 06006KT,0,8,0,10000,0,0,0,
2026-04-23 00:50:00,METAR LTBA 230050Z 04007KT 9999 SCT030 BKN120 09/06 Q1015 RMK RWY23 04005KT,0,7,0,10000,0,0,0,
2026-04-23 00:20:00,METAR LTBA 230020Z 05008KT 9999 SCT030 BKN120 08/06 Q1014 RMK RWY23 05007KT,0,8,0,10000,0,0,0,
2026-04-22 23:50:00,METAR LTBA 222350Z 05010KT 9999 SCT030 BKN120 09/06 Q1014 RMK RWY23 06010KT,0,10,0,10000,0,0,0,
2026-04-22 23:20:00,METAR LTBA 222320Z 05009KT 9999 SCT030 BKN120 09/06 Q1014 RMK RWY23 06009KT,0,9,0,10000,0,0,0,
2026-04-22 22:50:00,METAR LTBA 222250Z 05010KT 9999 SCT030 BKN120 09/06 Q1015 RMK RWY23 06008KT,0,10,0,10000,0,0,0,
2026-04-22 22:20:00,METAR LTBA 222220Z 07008KT 9999 SCT030 BKN120 09/05 Q1015 RMK RWY23 07007KT,0,8,0,10000,0,0,0,
2026-04-22 21:50:00,METAR LTBA 222150Z 07007KT 9999 SCT030 BKN120 09/06 Q1015 RMK RWY23 08007KT 050V110,0,7,0,10000,0,0,0,
2026-04-22 21:20:00,METAR LTBA 222120Z 07009KT 9999 SCT030 BKN120 09/06 Q1015 RMK RWY23 07008KT 040V100,0,9,0,10000,0,0,0,
2026-04-22 20:50:00,METAR LTBA 222050Z 07010KT 9999 SCT030 BKN120 09/06 Q1015 RMK RWY23 07008KT,0,10,0,10000,0,0,0,
2026-04-22 20:20:00,METAR LTBA 222020Z 06007KT 9999 SCT030 BKN120 09/06 Q1016 RMK RWY23 07006KT,0,7,0,10000,0,0,0,
2026-04-22 19:50:00,METAR LTBA 221950Z 07009KT 9999 SCT030 BKN100 09/06 Q1016 RMK RWY23 08007KT,0,9,0,10000,0,0,0,
2026-04-22 19:20:00,METAR LTBA 221920Z 06009KT 9999 SCT030 BKN100 09/06 Q1016 RMK RWY23 07008KT,0,9,0,10000,0,0,0,
2026-04-22 18:50:00,METAR LTBA 221850Z 06010KT 9999 SCT018 BKN030 09/06 Q1016 RMK RWY23 06010KT,0,10,0,10000,0,0,0,
2026-04-22 18:20:00,METAR LTBA 221820Z 05009KT 9999 FEW018 BKN033 09/06 Q1016 RMK RWY23 06010KT,0,9,0,10000,0,0,0,
2026-04-22 17:50:00,METAR LTBA 221750Z 04008KT 9999 FEW018 BKN033 10/07 Q1016 RMK RWY23 06006KT 030V090,0,8,0,10000,0,0,0,
2026-04-22 17:20:00,METAR LTBA 221720Z 06010KT 9999 FEW019 BKN030 10/07 Q1015 RMK RWY23 06008KT,0,10,0,10000,0,0,0,
2026-04-22 16:50:00,METAR LTBA 221650Z 05008KT 9999 FEW017 BKN025 10/07 Q1015 RMK RWY23 06008KT,0,8,0,10000,0,0,0,
2026-04-22 16:20:00,METAR LTBA 221620Z 06008KT 9999 FEW017 BKN025 10/07 Q1015 RMK RWY23 06007KT,0,8,0,10000,0,0,0,
2026-04-22 15:50:00,METAR LTBA 221550Z 06009KT 9999 FEW017 BKN025 10/07 Q1015 RMK RWY23 07008KT 040V100,0,9,0,10000,0,0,0,
2026-04-22 15:20:00,METAR LTBA 221520Z 06010KT 9999 SCT015 BKN023 10/07 Q1016 RMK RWY23 06009KT,0,10,0,10000,0,0,0,
2026-04-22 14:50:00,METAR LTBA 221450Z 08008KT 9999 SCT015 BKN023 10/07 Q1016 RMK RWY23 09007KT 060V120,0,8,0,10000,0,0,0,
2026-04-22 14:20:00,METAR LTBA 221420Z 07012KT 9999 BKN015 BKN023 10/07 Q1016 RMK RWY23 08008KT,0,12,0,10000,0,0,0,
2026-04-22 13:50:00,METAR LTBA 221350Z 08010KT 9999 SCT013 BKN030 10/07 Q1015 RERA RMK RWY23 08008KT 060V120,0,10,0,10000,0,0,0,RA
2026-04-22 13:20:00,METAR LTBA 221320Z 07009KT 9999 -RA BKN013 BKN030 10/08 Q1016 RMK RWY23 07008KT,0,9,0,10000,0,0,0,-RA
2026-04-22 12:50:00,METAR LTBA 221250Z 06010KT 7000 -RA BKN009 BKN030 09/08 Q1016 RMK RWY23 08009KT,0,10,0,7000,0,0,0,-RA
2026-04-22 12:20:00,METAR LTBA 221220Z 06010KT 5000 -RA BKN009 BKN025 09/09 Q1016,0,10,0,5000,0,0,0,-RA
2026-04-22 11:50:00,METAR LTBA 221150Z 04013KT 5000 -RA BKN009 BKN025 09/08 Q1016 RERA,0,13,0,5000,0,0,0,"-RA,RA"
2026-04-22 11:20:00,METAR LTBA 221120Z 03015KT 5000 RA BKN009 BKN025 09/08 Q1016 RMK RWY23 02013KT,0,15,0,5000,0,0,0,RA
2026-04-22 10:50:00,METAR LTBA 221050Z 02013KT 5000 RA BKN009 BKN025 09/09 Q1015 RMK RWY23 02011KT 340V050,0,13,0,5000,0,0,0,RA
2026-04-22 10:33:00,SPECI LTBA 221033Z 02014KT 5000 RA BKN009 BKN022 09/09 Q1015,0,14,0,5000,0,0,0,RA
2026-04-22 10:20:00,METAR LTBA 221020Z 03016KT 5000 -RA BKN009 BKN022 09/08 Q1015 RMK RWY23 02016KT,0,16,0,5000,0,0,0,-RA
2026-04-22 09:50:00,METAR LTBA 220950Z 02015KT 5000 -RA BKN009 BKN022 10/09 Q1015 RERA RMK RWY23 03015KT 360V060,0,15,0,5000,0,0,0,"-RA,RA"
2026-04-22 09:20:00,METAR LTBA 220920Z 01012KT 5000 RA BKN009 BKN022 10/09 Q1015 RMK RWY23 01011KT 340V050,0,12,0,5000,0,0,0,RA
2026-04-22 08:55:00,SPECI LTBA 220855Z 02013KT 340V040 5000 RA BKN009 BKN022 10/10 Q1014,0,13,0,5000,0,0,0,RA
2026-04-22 08:50:00,METAR LTBA 220850Z 02013KT 340V040 5000 -RA BKN009 BKN022 10/10 Q1014 RMK RWY23 02015KT,0,13,0,5000,0,0,0,-RA
2026-04-22 08:20:00,METAR LTBA 220820Z 03014KT 7000 -RA BKN009 BKN022 10/10 Q1014 RERA RMK RWY23 04012KT,0,14,0,7000,0,0,0,"-RA,RA"
2026-04-22 08:11:00,SPECI LTBA 220811Z 03012KT 9999 RA BKN009 BKN022 10/10 Q1014,0,12,0,10000,0,0,0,RA
2026-04-22 08:02:00,SPECI LTBA 220802Z 03013KT 4000 RA BKN013 BKN022 10/09 Q1014,0,13,0,4000,0,0,0,RA
2026-04-22 07:57:00,SPECI LTBA 220757Z 03013KT 5000 -RA BKN013 BKN022 10/09 Q1014,0,13,0,5000,0,0,0,-RA
2026-04-22 07:50:00,METAR LTBA 220750Z 03013KT 7000 -RA BKN013 BKN022 10/09 Q1014 RMK RWY23 04010KT 010V070,0,13,0,7000,0,0,0,-RA
2026-04-22 07:20:00,METAR LTBA 220720Z 03013KT 9999 -RA BKN013 BKN022 11/09 Q1014 RMK RWY23 05012KT,0,13,0,10000,0,0,0,-RA
2026-04-22 06:50:00,METAR LTBA 220650Z 04014KT 9999 BKN013 BKN022 11/09 Q1014 RMK RWY23 04010KT,0,14,0,10000,0,0,0,
2026-04-22 06:20:00,METAR LTBA 220620Z 04011KT 9999 SCT013 BKN030 11/09 Q1014 RMK RWY23 05010KT 010V080,0,11,0,10000,0,0,0,
2026-04-22 05:50:00,METAR LTBA 220550Z 05010KT 9999 SCT011 BKN025 11/09 Q1014 RMK RWY23 05009KT 010V070,0,10,0,10000,0,0,0,
2026-04-22 05:20:00,METAR LTBA 220520Z 04013KT 9999 SCT011 BKN025 11/09 Q1013 RMK RWY23 04008KT,0,13,0,10000,0,0,0,
2026-04-22 04:50:00,METAR LTBA 220450Z 03012KT 9999 SCT011 BKN025 10/09 Q1014 RMK RWY23 03010KT 330V060,0,12,0,10000,0,0,0,
2026-04-22 04:20:00,METAR LTBA 220420Z 04012KT 9999 SCT011 BKN025 10/09 Q1013 RERA RMK RWY23 05008KT,0,12,0,10000,0,0,0,RA
2026-04-22 03:50:00,METAR LTBA 220350Z 06008KT 9999 -RA SCT011 BKN025 10/10 Q1013 RMK RWY23 05007KT,0,8,0,10000,0,0,0,-RA
2026-04-22 03:20:00,METAR LTBA 220320Z 05007KT 9999 -RA SCT011 BKN025 10/10 Q1013 RMK RWY23 05007KT,0,7,0,10000,0,0,0,-RA
2026-04-22 02:50:00,METAR LTBA 220250Z 06011KT 9999 -RA SCT011 BKN025 10/10 Q1013 RMK RWY23 07008KT,0,11,0,10000,0,0,0,-RA
2026-04-22 02:20:00,METAR LTBA 220220Z 06009KT 9999 -RA SCT011 BKN025 10/10 Q1013 RMK RWY23 07010KT,0,9,0,10000,0,0,0,-RA
2026-04-22 01:50:00,METAR LTBA 220150Z 06008KT 9999 -RA SCT011 BKN025 10/10 Q1013 RMK RWY23 07006KT 030V090,0,8,0,10000,0,0,0,-RA
2026-04-22 01:20:00,METAR LTBA 220120Z 04010KT 9999 -RA SCT011 BKN025 10/10 Q1013 RMK RWY23 04009KT,0,10,0,10000,0,0,0,-RA
2026-04-22 00:50:00,METAR LTBA 220050Z 05012KT 9999 -RA SCT011 BKN025 10/10 Q1013 RMK RWY23 06010KT,0,12,0,10000,0,0,0,-RA
2026-04-22 00:20:00,METAR LTBA 220020Z 04009KT 9999 -RA SCT011 BKN025 10/10 Q1014 RMK RWY23 05008KT,0,9,0,10000,0,0,0,-RA
2026-04-21 23:50:00,METAR LTBA 212350Z 03012KT 9999 -RA SCT011 BKN025 11/10 Q1014 RMK RWY23 04008KT,0,12,0,10000,0,0,0,-RA
2026-04-21 23:20:00,METAR LTBA 212320Z 05013KT 9999 -RA SCT011 BKN025 11/10 Q1014 RMK RWY23 05011KT,0,13,0,10000,0,0,0,-RA
2026-04-21 22:50:00,METAR LTBA 212250Z 05011KT 9999 SCT011 BKN025 11/10 Q1014 RMK RWY23 05008KT 010V070,0,11,0,10000,0,0,0,
2026-04-21 22:20:00,METAR LTBA 212220Z 05011KT 9999 SCT011 BKN025 11/09 Q1014 RMK RWY23 06012KT,0,11,0,10000,0,0,0,
2026-04-21 21:50:00,METAR LTBA 212150Z 04014KT 9999 SCT011 BKN025 11/09 Q1014 RMK RWY23 05011KT,0,14,0,10000,0,0,0,
2026-04-21 21:20:00,METAR LTBA 212120Z 05012KT 9999 SCT011 BKN025 11/10 Q1014 RMK RWY23 05011KT,0,12,0,10000,0,0,0,
2026-04-21 20:50:00,METAR LTBA 212050Z 05013KT 9999 SCT011 BKN025 11/10 Q1014 RMK RWY23 05012KT 020V080,0,13,0,10000,0,0,0,
2026-04-21 20:20:00,METAR LTBA 212020Z 04014KT 9999 SCT011 BKN025 11/10 Q1014 RMK RWY23 03011KT,0,14,0,10000,0,0,0,
2026-04-21 19:50:00,METAR LTBA 211950Z 05015KT 9999 SCT011 BKN025 11/10 Q1013 RMK RWY23 05012KT,0,15,0,10000,0,0,0,
2026-04-21 19:20:00,METAR LTBA 211920Z 04016KT 9999 SCT011 BKN025 11/10 Q1014 RMK RWY23 04011KT 010V070,0,16,0,10000,0,0,0,
2026-04-21 18:50:00,METAR LTBA 211850Z 04017KT 9999 FEW012 BKN025 12/11 Q1013 RMK RWY23 04013KT 010V070,0,17,0,10000,0,0,0,
2026-04-21 18:20:00,METAR LTBA 211820Z 04018KT 9999 SCT030 BKN090 12/11 Q1013 RMK RWY23 04014KT 360V060,0,18,0,10000,0,0,0,
2026-04-21 17:50:00,METAR LTBA 211750Z 03018KT 9999 SCT030 BKN090 12/11 Q1013 RESHRA RMK RWY23 04014KT,0,18,0,10000,0,0,0,RA
2026-04-21 17:20:00,METAR LTBA 211720Z 03015KT 9000 -SHRA BKN030 BKN090 12/11 Q1013 RMK RWY23 03013KT,0,15,0,9000,0,0,0,RA
2026-04-21 16:50:00,METAR LTBA 211650Z 02016KT 8000 -SHRA BKN030 BKN090 12/11 Q1012 RETSRA RMK RWY23 02016KT,0,16,0,8000,1,0,0,RA
2026-04-21 16:35:00,SPECI LTBA 211635Z 03015KT 350V050 6000 -TSRA FEW017CB BKN030 13/10 Q1012 RETSRA,0,15,0,6000,1,0,0,RA
2026-04-21 16:22:00,SPECI LTBA 211622Z 02015KT 350V050 4500 TSRA FEW017CB SCT030 BKN100 13/10 Q1012,0,15,0,4500,1,0,0,"RA,TS"
2026-04-21 16:20:00,METAR LTBA 211620Z 03015KT 350V050 9000 -TSRA FEW017CB SCT030 BKN100 13/10 Q1012 RMK RWY23 04018KT 010V070,0,15,0,9000,1,0,0,RA
2026-04-21 16:15:00,SPECI LTBA 211615Z 04017KT 9999 -TSRA FEW017CB SCT030 BKN100 14/09 Q1011,0,17,0,10000,1,0,0,RA
2026-04-21 16:09:00,SPECI LTBA 211609Z 03017KT 9999 VCTS FEW017CB SCT030 BKN100 14/09 Q1011,0,17,0,10000,1,0,0,"TS,VC"
2026-04-21 15:50:00,METAR LTBA 211550Z 03020KT 9999 SCT030 BKN100 14/09 Q1011 RMK RWY23 03017KT,0,20,0,10000,0,0,0,
2026-04-21 15:20:00,METAR LTBA 211520Z 04017KT CAVOK 15/09 Q1011 RMK RWY23 02016KT,1,0,0,9999,0,0,0,
2026-04-21 14:50:00,METAR LTBA 211450Z 03015KT CAVOK 17/09 Q1011 RMK RWY23 02014KT,1,0,0,9999,0,0,0,
2026-04-21 14:20:00,METAR LTBA 211420Z 05013KT CAVOK 19/10 Q1011 RMK RWY23 07013KT,1,0,0,9999,0,0,0,
2026-04-21 13:50:00,METAR LTBA 211350Z 02012KT CAVOK 19/08 Q1010 RMK RWY23 05011KT,1,0,0,9999,0,0,0,
2026-04-21 13:20:00,METAR LTBA 211320Z 03013KT CAVOK 19/07 Q1011 RMK RWY23 02011KT 360V060,1,0,0,9999,0,0,0,
2026-04-21 12:50:00,METAR LTBA 211250Z 11006KT 050V140 CAVOK 20/08 Q1011 RMK RWY23 10006KT 010V180,1,0,0,9999,0,0,0,
2026-04-21 12:20:00,METAR LTBA 211220Z 10006KT 080V150 CAVOK 19/08 Q1011 RMK RWY23 13007KT,1,0,0,9999,0,0,0,
2026-04-21 11:50:00,METAR LTBA 211150Z 00000KT CAVOK 20/09 Q1012 RMK RWY23 VRB02KT,1,0,0,9999,0,0,0,
2026-04-21 11:20:00,METAR LTBA 211120Z 23004KT CAVOK 17/11 Q1012 RMK RWY23 21005KT,1,0,0,9999,0,0,0,
2026-04-21 10:50:00,METAR LTBA 211050Z 23004KT 190V260 CAVOK 17/10 Q1012 RMK RWY23 20004KT,1,0,0,9999,0,0,0,
2026-04-21 10:20:00,METAR LTBA 211020Z 21004KT 190V250 CAVOK 17/10 Q1012 RMK RWY23 21004KT,1,0,0,9999,0,0,0,
2026-04-21 09:50:00,METAR LTBA 210950Z 21005KT 180V250 CAVOK 17/10 Q1013 RMK RWY23 20004KT 160V230,1,0,0,9999,0,0,0,
2026-04-21 09:20:00,METAR LTBA 210920Z 22008KT CAVOK 16/11 Q1013 RMK RWY23 21006KT 170V240,1,0,0,9999,0,0,0,
2026-04-21 08:50:00,METAR LTBA 210850Z 21008KT CAVOK 17/11 Q1013 RMK RWY23 21006KT 180V240,1,0,0,9999,0,0,0,
2026-04-21 08:20:00,METAR LTBA 210820Z 23007KT 200V260 CAVOK 15/11 Q1013 RMK RWY23 23007KT,1,0,0,9999,0,0,0,
2026-04-21 07:50:00,METAR LTBA 210750Z 22006KT CAVOK 15/11 Q1013 RMK RWY23 24007KT,1,0,0,9999,0,0,0,
2026-04-21 07:20:00,METAR LTBA 210720Z 23006KT 200V260 CAVOK 16/11 Q1013 RMK RWY23 24006KT,1,0,0,9999,0,0,0,
2026-04-21 06:50:00,METAR LTBA 210650Z 22005KT 200V260 CAVOK 15/10 Q1013 RMK RWY23 24006KT,1,0,0,9999,0,0,0,
2026-04-21 06:20:00,METAR LTBA 210620Z 23006KT 200V270 CAVOK 15/10 Q1013 RMK RWY23 25007KT,1,0,0,9999,0,0,0,
2026-04-21 05:50:00,METAR LTBA 210550Z 24005KT CAVOK 14/11 Q1013 RMK RWY23 24007KT,1,0,0,9999,0,0,0,
2026-04-21 05:20:00,METAR LTBA 210520Z 26006KT CAVOK 14/10 Q1012 RMK RWY23 26005KT,1,0,0,9999,0,0,0,
2026-04-21 04:50:00,METAR LTBA 210450Z 26005KT CAVOK 13/10 Q1012 RMK RWY23 25004KT,1,0,0,9999,0,0,0,
2026-04-21 04:20:00,METAR LTBA 210420Z 26005KT 200V300 CAVOK 12/10 Q1012 RMK RWY23 30005KT 210V350,1,0,0,9999,0,0,0,
2026-04-21 03:50:00,METAR LTBA 210350Z VRB02KT CAVOK 12/08 Q1012 RMK RWY23 23004KT,1,0,0,9999,0,0,0,
2026-04-21 03:20:00,METAR LTBA 210320Z VRB01KT CAVOK 11/07 Q1012 RMK RWY23 22001KT,1,0,0,9999,0,0,0,
2026-04-21 02:50:00,METAR LTBA 210250Z 00000KT CAVOK 11/07 Q1012 RMK RWY23 00000KT,1,0,0,9999,0,0,0,
2026-04-21 02:20:00,METAR LTBA 210220Z 26004KT 230V290 CAVOK 10/07 Q1012 RMK RWY23 31003KT,1,0,0,9999,0,0,0,
2026-04-21 01:50:00,METAR LTBA 210150Z VRB01KT CAVOK 11/06 Q1012 RMK RWY23 00000KT,1,0,0,9999,0,0,0,
2026-04-21 01:20:00,METAR LTBA 210120Z 00000KT CAVOK 12/02 Q1011 RMK RWY23 00000KT,1,0,0,9999,0,0,0,
2026-04-21 00:50:00,METAR LTBA 210050Z 00000KT CAVOK 12/02 Q1012 RMK RWY23 00000KT,1,0,0,9999,0,0,0,
2026-04-21 00:20:00,METAR LTBA 210020Z 00000KT CAVOK 12/03 Q1012 RMK RWY23 00000KT,1,0,0,9999,0,0,0,
2026-04-20 23:50:00,METAR LTBA 202350Z 00000KT CAVOK 12/02 Q1012 RMK RWY23 00000KT,1,0,0,9999,0,0,0,
2026-04-20 23:20:00,METAR LTBA 202320Z 32003KT 9999 FEW040 12/02 Q1012 RMK RWY23 33003KT,0,3,0,10000,0,0,0,
2026-04-20 22:50:00,METAR LTBA 202250Z 34004KT 9999 FEW040 SCT090 12/02 Q1012 RMK RWY23 32003KT,0,4,0,10000,0,0,0,
2026-04-20 22:20:00,METAR LTBA 202220Z 34003KT 9999 FEW040 SCT100 13/02 Q1012 RMK RWY23 34002KT,0,3,0,10000,0,0,0,
2026-04-20 21:50:00,METAR LTBA 202150Z 35004KT 9999 SCT040 12/02 Q1012 RMK RWY23 35005KT,0,4,0,10000,0,0,0,
2026-04-20 21:20:00,METAR LTBA 202120Z 06002KT CAVOK 13/M00 Q1012 RMK RWY23 00000KT,1,0,0,9999,0,0,0,
2026-04-20 20:50:00,METAR LTBA 202050Z 00000KT CAVOK 12/04 Q1012 RMK RWY23 00000KT,1,0,0,9999,0,0,0,
2026-04-20 20:20:00,METAR LTBA 202020Z 15002KT CAVOK 12/06 Q1012 RMK RWY23 00000KT,1,0,0,9999,0,0,0,
2026-04-20 19:50:00,METAR LTBA 201950Z 07002KT CAVOK 13/05 Q1012 RMK RWY23 00000KT,1,0,0,9999,0,0,0,
2026-04-20 19:20:00,METAR LTBA 201920Z 08002KT CAVOK 13/07 Q1012 RMK RWY23 00000KT,1,0,0,9999,0,0,0,
2026-04-20 18:50:00,METAR LTBA 201850Z 00000KT CAVOK 13/07 Q1012 RMK RWY23 00000KT,1,0,0,9999,0,0,0,
2026-04-20 18:20:00,METAR LTBA 201820Z 09001KT CAVOK 13/08 Q1012 RMK RWY23 00000KT,1,0,0,9999,0,0,0,
2026-04-20 17:50:00,METAR LTBA 201750Z 13002KT CAVOK 13/08 Q1012 RMK RWY23 00000KT,1,0,0,9999,0,0,0,
2026-04-20 17:20:00,METAR LTBA 201720Z 16002KT CAVOK 13/08 Q1012 RMK RWY23 17002KT,1,0,0,9999,0,0,0,
2026-04-20 16:50:00,METAR LTBA 201650Z VRB02KT CAVOK 14/06 Q1012 RMK RWY23 13003KT,1,0,0,9999,0,0,0,
2026-04-20 16:20:00,METAR LTBA 201620Z 15003KT 120V180 CAVOK 15/00 Q1012 RMK RWY23 14004KT,1,0,0,9999,0,0,0,
2026-04-20 15:50:00,METAR LTBA 201550Z VRB02KT CAVOK 16/M02 Q1012 RMK RWY23 21003KT,1,0,0,9999,0,0,0,
2026-04-20 15:20:00,METAR LTBA 201520Z 22004KT CAVOK 16/01 Q1012 RMK RWY23 21004KT 180V250,1,0,0,9999,0,0,0,
2026-04-20 14:50:00,METAR LTBA 201450Z 21005KT CAVOK 16/02 Q1012 RMK RWY23 24006KT,1,0,0,9999,0,0,0,
2026-04-20 14:20:00,METAR LTBA 201420Z 21005KT CAVOK 16/04 Q1012 RMK RWY23 22005KT,1,0,0,9999,0,0,0,
2026-04-20 13:50:00,METAR LTBA 201350Z 22005KT 180V240 CAVOK 16/07 Q1013 RMK RWY23 21005KT 170V250,1,0,0,9999,0,0,0,
2026-04-20 13:20:00,METAR LTBA 201320Z 22006KT CAVOK 16/06 Q1013 RMK RWY23 22006KT 190V250,1,0,0,9999,0,0,0,
2026-04-20 12:50:00,METAR LTBA 201250Z 22006KT CAVOK 16/06 Q1013 RMK RWY23 24006KT 210V270,1,0,0,9999,0,0,0,
2026-04-20 12:20:00,METAR LTBA 201220Z 22006KT CAVOK 15/07 Q1014 RMK RWY23 24006KT,1,0,0,9999,0,0,0,
2026-04-20 11:50:00,METAR LTBA 201150Z 22006KT 200V260 CAVOK 15/07 Q1014 RMK RWY23 23006KT,1,0,0,9999,0,0,0,
2026-04-20 11:20:00,METAR LTBA 201120Z 24006KT CAVOK 15/06 Q1015 RMK RWY23 22006KT,1,0,0,9999,0,0,0,
2026-04-20 10:50:00,METAR LTBA 201050Z 22006KT CAVOK 15/05 Q1015 RMK RWY23 22006KT 190V250,1,0,0,9999,0,0,0,
2026-04-20 10:20:00,METAR LTBA 201020Z 22006KT CAVOK 14/07 Q1015 RMK RWY23 21006KT 170V230,1,0,0,9999,0,0,0,
2026-04-20 09:50:00,METAR LTBA 200950Z 21006KT 180V240 CAVOK 14/05 Q1016 RMK RWY23 20005KT 170V240,1,0,0,9999,0,0,0,
2026-04-20 09:20:00,METAR LTBA 200920Z 18006KT 150V220 CAVOK 14/07 Q1016 RMK RWY23 20005KT 180V240,1,0,0,9999,0,0,0,
2026-04-20 08:50:00,METAR LTBA 200850Z 19007KT 140V220 CAVOK 13/08 Q1016 RMK RWY23 19006KT 150V220,1,0,0,9999,0,0,0,
2026-04-20 08:20:00,METAR LTBA 200820Z 15005KT 110V180 CAVOK 13/08 Q1016 RMK RWY23 13006KT 110V210,1,0,0,9999,0,0,0,
2026-04-20 07:50:00,METAR LTBA 200750Z 15006KT CAVOK 13/06 Q1017 RMK RWY23 14006KT 110V180,1,0,0,9999,0,0,0,
2026-04-20 07:20:00,METAR LTBA 200720Z 15006KT 110V180 CAVOK 12/07 Q1017 RMK RWY23 15006KT 110V180,1,0,0,9999,0,0,0,
2026-04-20 06:50:00,METAR LTBA 200650Z 14006KT 110V180 CAVOK 12/07 Q1016 RMK RWY23 13006KT 100V180,1,0,0,9999,0,0,0,
2026-04-20 06:20:00,METAR LTBA 200620Z 14006KT 100V170 CAVOK 12/08 Q1016 RMK RWY23 14006KT 100V200,1,0,0,9999,0,0,0,
2026-04-20 05:50:00,METAR LTBA 200550Z 11006KT CAVOK 12/08 Q1016 RMK RWY23 13006KT,1,0,0,9999,0,0,0,
2026-04-20 05:20:00,METAR LTBA 200520Z 12006KT CAVOK 11/08 Q1016 RMK RWY23 13006KT,1,0,0,9999,0,0,0,
2026-04-20 04:50:00,METAR LTBA 200450Z 12005KT CAVOK 11/08 Q1016 RMK RWY23 11004KT 080V150,1,0,0,9999,0,0,0,
2026-04-20 04:20:00,METAR LTBA 200420Z 07003KT CAVOK 10/06 Q1016 RMK RWY23 00000KT,1,0,0,9999,0,0,0,
2026-04-20 03:50:00,METAR LTBA 200350Z 06002KT CAVOK 08/04 Q1016 RMK RWY23 00000KT,1,0,0,9999,0,0,0,
2026-04-20 03:20:00,METAR LTBA 200320Z 09002KT CAVOK 08/04 Q1016 RMK RWY23 00000KT,1,0,0,9999,0,0,0,
2026-04-20 02:50:00,METAR LTBA 200250Z 07003KT CAVOK 07/04 Q1016 RMK RWY23 00000KT,1,0,0,9999,0,0,0,
2026-04-20 02:20:00,METAR LTBA 200220Z 34003KT CAVOK 08/04 Q1016 RMK RWY23 00000KT,1,0,0,9999,0,0,0,
2026-04-20 01:50:00,METAR LTBA 200150Z 33001KT CAVOK 08/04 Q1016 RMK RWY23 00000KT,1,0,0,9999,0,0,0,
2026-04-20 01:20:00,METAR LTBA 200120Z VRB02KT CAVOK 08/05 Q1016 RMK RWY23 00000KT,1,0,0,9999,0,0,0,
2026-04-20 00:50:00,METAR LTBA 200050Z VRB02KT CAVOK 09/05 Q1016 RMK RWY23 VRB01KT,1,0,0,9999,0,0,0,
2026-04-20 00:20:00,METAR LTBA 200020Z VRB01KT CAVOK 09/06 Q1016 RMK RWY23 VRB01KT,1,0,0,9999,0,0,0,
2026-04-19 23:50:00,METAR LTBA 192350Z 00000KT CAVOK 09/05 Q1016 RMK RWY23 00000KT,1,0,0,9999,0,0,0,
2026-04-19 23:20:00,METAR LTBA 192320Z 01003KT 350V080 CAVOK 10/05 Q1017 RMK RWY23 00000KT,1,0,0,9999,0,0,0,
2026-04-19 22:50:00,METAR LTBA 192250Z 34007KT CAVOK 10/06 Q1017 RMK RWY23 33005KT,1,0,0,9999,0,0,0,
2026-04-19 22:20:00,METAR LTBA 192220Z 34006KT CAVOK 10/05 Q1017 RMK RWY23 33005KT,1,0,0,9999,0,0,0,
2026-04-19 21:50:00,METAR LTBA 192150Z 02004KT CAVOK 11/04 Q1017 RMK RWY23 00000KT,1,0,0,9999,0,0,0,
2026-04-19 21:20:00,METAR LTBA 192120Z 02005KT CAVOK 11/04 Q1017 RMK RWY23 03005KT,1,0,0,9999,0,0,0,
2026-04-19 20:50:00,METAR LTBA 192050Z 04006KT CAVOK 11/04 Q1017 RMK RWY23 04005KT,1,0,0,9999,0,0,0,
2026-04-19 20:20:00,METAR LTBA 192020Z 05005KT CAVOK 11/04 Q1017 RMK RWY23 06004KT,1,0,0,9999,0,0,0,
2026-04-19 19:50:00,METAR LTBA 191950Z 05006KT CAVOK 11/04 Q1017 RMK RWY23 05005KT,1,0,0,9999,0,0,0,
2026-04-19 19:20:00,METAR LTBA 191920Z 06006KT CAVOK 11/04 Q1017 RMK RWY23 07005KT,1,0,0,9999,0,0,0,
2026-04-19 18:50:00,METAR LTBA 191850Z 07005KT CAVOK 12/04 Q1017 RMK RWY23 07005KT,1,0,0,9999,0,0,0,
2026-04-19 18:20:00,METAR LTBA 191820Z 08004KT 050V110 CAVOK 13/03 Q1017 RMK RWY23 07005KT,1,0,0,9999,0,0,0,
2026-04-19 17:50:00,METAR LTBA 191750Z 05006KT CAVOK 12/03 Q1017 RMK RWY23 05005KT,1,0,0,9999,0,0,0,
2026-04-19 17:20:00,METAR LTBA 191720Z 05008KT CAVOK 13/03 Q1016 RMK RWY23 06007KT,1,0,0,9999,0,0,0,
2026-04-19 16:50:00,METAR LTBA 191650Z 05008KT CAVOK 14/04 Q1016 RMK RWY23 05009KT,1,0,0,9999,0,0,0,
2026-04-19 16:20:00,METAR LTBA 191620Z 02008KT 340V050 CAVOK 15/04 Q1016 RMK RWY23 03010KT,1,0,0,9999,0,0,0,
2026-04-19 15:50:00,METAR LTBA 191550Z 05011KT CAVOK 16/03 Q1016 RMK RWY23 03011KT,1,0,0,9999,0,0,0,
2026-04-19 15:20:00,METAR LTBA 191520Z 01010KT 340V040 CAVOK 16/03 Q1015 RMK RWY23 03010KT 360V060,1,0,0,9999,0,0,0,
2026-04-19 14:50:00,METAR LTBA 191450Z 01010KT CAVOK 17/03 Q1016 RMK RWY23 03012KT 360V060,1,0,0,9999,0,0,0,
2026-04-19 14:20:00,METAR LTBA 191420Z 03011KT 350V060 CAVOK 17/04 Q1016 RMK RWY23 03011KT 360V070,1,0,0,9999,0,0,0,
2026-04-19 13:50:00,METAR LTBA 191350Z 01012KT CAVOK 17/04 Q1016 RMK RWY23 36010KT 320V040,1,0,0,9999,0,0,0,
2026-04-19 13:20:00,METAR LTBA 191320Z 02010KT 310V060 9999 FEW040 18/05 Q1016 RMK RWY23 02012KT,0,10,0,10000,0,0,0,
2026-04-19 12:50:00,METAR LTBA 191250Z 02012KT 350V050 9999 FEW040 17/04 Q1016 RMK RWY23 35012KT 320V020,0,12,0,10000,0,0,0,
2026-04-19 12:20:00,METAR LTBA 191220Z VRB04KT 9999 FEW040 16/06 Q1016 RMK RWY23 02011KT,0,4,0,10000,0,0,0,
2026-04-19 11:50:00,METAR LTBA 191150Z 25007KT 210V340 9999 SCT040 15/09 Q1017 RMK RWY23 VRB04KT,0,7,0,10000,0,0,0,
2026-04-19 11:20:00,METAR LTBA 191120Z 23010KT 9999 SCT040 14/09 Q1016 RMK RWY23 25009KT 210V300,0,10,0,10000,0,0,0,
2026-04-19 10:50:00,METAR LTBA 191050Z 23010KT 9999 SCT040 15/10 Q1017 RMK RWY23 24010KT,0,10,0,10000,0,0,0,
2026-04-19 10:20:00,METAR LTBA 191020Z 24009KT 9999 BKN040 14/10 Q1016 RMK RWY23 24010KT,0,9,0,10000,0,0,0,
2026-04-19 09:50:00,METAR LTBA 190950Z 23009KT 9999 BKN040 15/12 Q1016 RMK RWY23 24010KT,0,9,0,10000,0,0,0,
2026-04-19 09:20:00,METAR LTBA 190920Z 22009KT 9999 BKN035 14/10 Q1016 RMK RWY23 22008KT,0,9,0,10000,0,0,0,
2026-04-19 08:50:00,METAR LTBA 190850Z 23008KT 9999 BKN035 14/10 Q1016 RMK RWY23 23009KT,0,8,0,10000,0,0,0,
2026-04-19 08:20:00,METAR LTBA 190820Z 22008KT 9999 BKN035 13/10 Q1016 RMK RWY23 23008KT,0,8,0,10000,0,0,0,
2026-04-19 07:50:00,METAR LTBA 190750Z 21008KT 9999 BKN035 13/09 Q1016 RMK RWY23 21008KT,0,8,0,10000,0,0,0,
2026-04-19 07:20:00,METAR LTBA 190720Z 18006KT 9999 SCT040 14/07 Q1016 RMK RWY23 16004KT 120V200,0,6,0,10000,0,0,0,
2026-04-19 06:50:00,METAR LTBA 190650Z 23006KT 200V260 9999 SCT040 14/07 Q1016 RMK RWY23 13008KT,0,6,0,10000,0,0,0,
2026-04-19 06:20:00,METAR LTBA 190620Z 21003KT 9999 SCT040 13/08 Q1016 RMK RWY23 34004KT 270V030,0,3,0,10000,0,0,0,
2026-04-19 05:50:00,METAR LTBA 190550Z 00000KT 9999 SCT040 13/08 Q1016 RMK RWY23 32004KT 290V350,0,0,0,10000,0,0,0,
2026-04-19 05:20:00,METAR LTBA 190520Z VRB02KT 9999 SCT040 12/08 Q1016 RMK RWY23 VRB02KT,0,2,0,10000,0,0,0,
2026-04-19 04:50:00,METAR LTBA 190450Z 00000KT 8000 SCT040 10/08 Q1016 RMK RWY23 VRB01KT,0,0,0,8000,0,0,0,
2026-04-19 04:20:00,METAR LTBA 190420Z VRB02KT 8000 SCT040 09/09 Q1016 RMK RWY23 00000KT,0,2,0,8000,0,0,0,
2026-04-19 03:50:00,METAR LTBA 190350Z 36003KT 8000 SCT040 09/08 Q1015 RMK RWY23 33003KT,0,3,0,8000,0,0,0,
2026-04-19 03:20:00,METAR LTBA 190320Z 35005KT 8000 SCT040 09/09 Q1015 RMK RWY23 33004KT,0,5,0,8000,0,0,0,
2026-04-19 02:50:00,METAR LTBA 190250Z 35004KT 8000 SCT040 09/09 Q1015 RMK RWY23 34004KT,0,4,0,8000,0,0,0,
2026-04-19 02:20:00,METAR LTBA 190220Z 34006KT 8000 SCT040 08/08 Q1015 RMK RWY23 34006KT,0,6,0,8000,0,0,0,
2026-04-19 01:50:00,METAR LTBA 190150Z 34006KT 8000 SCT040 08/08 Q1015 RMK RWY23 34005KT,0,6,0,8000,0,0,0,
2026-04-19 01:20:00,METAR LTBA 190120Z 35006KT 8000 SCT040 09/09 Q1015 RMK RWY23 34006KT,0,6,0,8000,0,0,0,
2026-04-19 00:50:00,METAR LTBA 190050Z 34007KT 8000 SCT040 09/09 Q1015 RMK RWY23 33005KT,0,7,0,8000,0,0,0,
2026-04-19 00:20:00,METAR LTBA 190020Z 33005KT 8000 SCT040 09/09 Q1015 RMK RWY23 32005KT,0,5,0,8000,0,0,0,
2026-04-18 23:50:00,METAR LTBA 182350Z 29003KT 8000 SCT040 09/09 Q1015 RMK RWY23 31003KT,0,3,0,8000,0,0,0,
2026-04-18 23:20:00,METAR LTBA 182320Z 34003KT 9999 FEW015 SCT030 10/09 Q1015 RMK RWY23 34004KT,0,3,0,10000,0,0,0,
2026-04-18 22:50:00,METAR LTBA 182250Z 34005KT 9999 FEW015 SCT030 10/09 Q1015 RMK RWY23 33004KT,0,5,0,10000,0,0,0,
2026-04-18 22:20:00,METAR LTBA 182220Z 35005KT 9999 FEW015 SCT030 10/09 Q1015 RMK RWY23 34005KT,0,5,0,10000,0,0,0,
2026-04-18 21:50:00,METAR LTBA 182150Z 35005KT 9999 FEW015 SCT030 10/09 Q1015 RMK RWY23 32003KT,0,5,0,10000,0,0,0,
2026-04-18 21:20:00,METAR LTBA 182120Z 34005KT 9999 FEW015 SCT030 11/09 Q1015 RMK RWY23 36004KT,0,5,0,10000,0,0,0,
2026-04-18 20:50:00,METAR LTBA 182050Z 04003KT 9999 FEW015 SCT030 11/09 Q1015 RMK RWY23 03004KT,0,3,0,10000,0,0,0,
2026-04-18 20:20:00,METAR LTBA 182020Z 05004KT 9999 FEW015 SCT030 11/09 Q1015 RMK RWY23 05004KT 020V080,0,4,0,10000,0,0,0,
2026-04-18 19:50:00,METAR LTBA 181950Z 06005KT 9999 FEW015 SCT030 11/09 Q1015 RMK RWY23 07004KT,0,5,0,10000,0,0,0,
2026-04-18 19:20:00,METAR LTBA 181920Z 05006KT 9999 FEW015 SCT030 11/09 Q1015 RMK RWY23 05006KT 360V080,0,6,0,10000,0,0,0,
2026-04-18 18:50:00,METAR LTBA 181850Z 04010KT 9999 FEW015 SCT030 12/09 Q1015 RMK RWY23 05005KT 020V080,0,10,0,10000,0,0,0,
2026-04-18 18:20:00,METAR LTBA 181820Z 03009KT 9999 FEW017 SCT030 12/09 Q1014 RMK RWY23 05006KT,0,9,0,10000,0,0,0,
2026-04-18 17:50:00,METAR LTBA 181750Z 05009KT 9999 FEW024 12/08 Q1014 RMK RWY23 06010KT,0,9,0,10000,0,0,0,
2026-04-18 17:20:00,METAR LTBA 181720Z 06012KT 9999 FEW024 12/08 Q1014 RMK RWY23 06011KT,0,12,0,10000,0,0,0,
2026-04-18 16:50:00,METAR LTBA 181650Z 04012KT 9999 FEW024 13/07 Q1013 RMK RWY23 06011KT,0,12,0,10000,0,0,0,
2026-04-18 16:20:00,METAR LTBA 181620Z 05013KT 9999 SCT023 BKN120 13/08 Q1013 RMK RWY23 05014KT,0,13,0,10000,0,0,0,
2026-04-18 15:50:00,METAR LTBA 181550Z 03014KT 9999 SCT023 BKN120 13/08 Q1013 RMK RWY23 05012KT,0,14,0,10000,0,0,0,
2026-04-18 15:20:00,METAR LTBA 181520Z 02015KT 9999 BKN023 BKN100 14/08 Q1013,0,15,0,10000,0,0,0,
2026-04-18 14:50:00,METAR LTBA 181450Z 03018KT 9999 BKN023 BKN120 14/08 Q1013 RMK RWY23 02017KT 360V060,0,18,0,10000,0,0,0,
2026-04-18 14:20:00,METAR LTBA 181420Z 02019KT 9999 BKN025 BKN120 14/08 Q1013 RMK RWY23 03017KT,0,19,0,10000,0,0,0,
2026-04-18 13:50:00,METAR LTBA 181350Z 03018KT 9999 SCT025 BKN120 15/08 Q1012 RMK RWY23 03017KT 010V070,0,18,0,10000,0,0,0,
2026-04-18 13:20:00,METAR LTBA 181320Z 02020KT 9999 SCT025 BKN120 15/08 Q1012 RMK RWY23 02020KT,0,20,0,10000,0,0,0,
2026-04-18 12:50:00,METAR LTBA 181250Z 04020KT 9999 SCT025 BKN120 16/07 Q1012 RMK RWY23 03020KT,0,20,0,10000,0,0,0,
2026-04-18 12:20:00,METAR LTBA 181220Z 02019KT 9999 SCT025 BKN180 17/06 Q1012 RMK RWY23 03017KT 360V070,0,19,0,10000,0,0,0,
2026-04-18 11:50:00,METAR LTBA 181150Z 02016KT 350V060 9999 FEW025 SCT180 16/06 Q1012 RMK RWY23 05016KT,0,16,0,10000,0,0,0,
2026-04-18 11:20:00,METAR LTBA 181120Z 04019KT CAVOK 16/04 Q1012 RMK RWY23 02015KT,1,0,0,9999,0,0,0,
2026-04-18 10:50:00,METAR LTBA 181050Z 04018KT CAVOK 16/05 Q1011 RMK RWY23 03016KT 360V060,1,0,0,9999,0,0,0,
2026-04-18 10:20:00,METAR LTBA 181020Z 02016KT CAVOK 14/06 Q1011 RMK RWY23 04016KT,1,0,0,9999,0,0,0,
2026-04-18 09:50:00,METAR LTBA 180950Z 03014KT 360V060 CAVOK 14/06 Q1011 RMK RWY23 04017KT 010V070,1,0,0,9999,0,0,0,
2026-04-18 09:20:00,METAR LTBA 180920Z 03016KT CAVOK 14/06 Q1011 RMK RWY23 03013KT 010V070,1,0,0,9999,0,0,0,
2026-04-18 08:50:00,METAR LTBA 180850Z 02017KT CAVOK 14/07 Q1011 RMK RWY23 03016KT 350V060,1,0,0,9999,0,0,0,
2026-04-18 08:20:00,METAR LTBA 180820Z 02016KT CAVOK 14/06 Q1011 RMK RWY23 02016KT 350V050,1,0,0,9999,0,0,0,
2026-04-18 07:50:00,METAR LTBA 180750Z 02018KT CAVOK 13/06 Q1011 RMK RWY23 02016KT,1,0,0,9999,0,0,0,
2026-04-18 07:20:00,METAR LTBA 180720Z 03018KT CAVOK 14/06 Q1010 RMK RWY23 03013KT 360V070,1,0,0,9999,0,0,0,
2026-04-18 06:50:00,METAR LTBA 180650Z 02016KT CAVOK 13/06 Q1010 RMK RWY23 02015KT,1,0,0,9999,0,0,0,
2026-04-18 06:20:00,METAR LTBA 180620Z 02014KT CAVOK 13/06 Q1009 RMK RWY23 03014KT 360V060,1,0,0,9999,0,0,0,
2026-04-18 05:50:00,METAR LTBA 180550Z 02014KT 9999 SCT017 BKN100 13/06 Q1009 RMK RWY23 02014KT,0,14,0,10000,0,0,0,
2026-04-18 05:20:00,METAR LTBA 180520Z 03012KT 9999 SCT017 BKN100 13/06 Q1009 RMK RWY23 02011KT,0,12,0,10000,0,0,0,
2026-04-18 04:50:00,METAR LTBA 180450Z 02011KT 9999 SCT017 BKN100 12/07 Q1009 RMK RWY23 03008KT 360V060,0,11,0,10000,0,0,0,
2026-04-18 04:20:00,METAR LTBA 180420Z 02010KT 350V050 9999 SCT017 BKN100 12/07 Q1009 RMK RWY23 03010KT 350V050,0,10,0,10000,0,0,0,
2026-04-18 03:50:00,METAR LTBA 180350Z 03011KT 9999 SCT017 BKN100 12/06 Q1009 RMK RWY23 03011KT 360V060,0,11,0,10000,0,0,0,
2026-04-18 03:20:00,METAR LTBA 180320Z 03013KT 9999 SCT017 BKN100 12/06 Q1009 RMK RWY23 03014KT,0,13,0,10000,0,0,0,
2026-04-18 02:50:00,METAR LTBA 180250Z 03013KT 9999 SCT017 BKN100 12/06 Q1009 RMK RWY23 04012KT 010V070,0,13,0,10000,0,0,0,
2026-04-18 02:20:00,METAR LTBA 180220Z 04013KT 9999 SCT017 BKN035 12/07 Q1008 RMK RWY23 05011KT,0,13,0,10000,0,0,0,
2026-04-18 01:50:00,METAR LTBA 180150Z 04014G24KT 9999 SCT017 BKN035 12/07 Q1008 RMK RWY23 05013KT,0,14,1,10000,0,0,0,
2026-04-18 01:20:00,METAR LTBA 180120Z 04014KT 9999 SCT017 BKN035 11/08 Q1009 RMK RWY23 04012KT 010V070,0,14,0,10000,0,0,0,
2026-04-18 00:50:00,METAR LTBA 180050Z 04014KT 9999 SCT017 BKN035 12/08 Q1009 RMK RWY23 05011KT 020V080,0,14,0,10000,0,0,0,
2026-04-18 00:20:00,METAR LTBA 180020Z 02012KT 9999 SCT017 BKN035 11/08 Q1009 RMK RWY23 03012KT,0,12,0,10000,0,0,0,
2026-04-17 23:50:00,METAR LTBA 172350Z 04012KT 9999 SCT018 BKN035 12/07 Q1009 RMK RWY23 04013KT,0,12,0,10000,0,0,0,
2026-04-17 23:20:00,METAR LTBA 172320Z 05012KT 9999 SCT018 BKN035 12/07 Q1009 RMK RWY23 05012KT,0,12,0,10000,0,0,0,
2026-04-17 22:50:00,METAR LTBA 172250Z 05012KT 030V090 9999 SCT019 BKN035 12/08 Q1009 RMK RWY23 06011KT,0,12,0,10000,0,0,0,
2026-04-17 22:20:00,METAR LTBA 172220Z 04012KT 9999 SCT017 BKN040 12/08 Q1009 RMK RWY23 05013KT,0,12,0,10000,0,0,0,
2026-04-17 21:50:00,METAR LTBA 172150Z 04016KT 010V070 9999 SCT040 12/08 Q1009 RMK RWY23 04014G24KT 010V070,0,16,0,10000,0,0,0,
2026-04-17 21:20:00,METAR LTBA 172120Z 03018KT 9999 SCT040 12/08 Q1009 RMK RWY23 03016G26KT 360V060,0,18,0,10000,0,0,0,
2026-04-17 20:50:00,METAR LTBA 172050Z 03014KT 9999 SCT017 BKN020 12/08 Q1009 RMK RWY23 04016KT,0,14,0,10000,0,0,0,
2026-04-17 20:20:00,METAR LTBA 172020Z 03016KT 9999 SCT017 BKN020 12/08 Q1009 RMK RWY23 03016KT,0,16,0,10000,0,0,0,
2026-04-17 19:50:00,METAR LTBA 171950Z 04016KT 9999 SCT017 BKN020 12/08 Q1009 RMK RWY23 04017KT,0,16,0,10000,0,0,0,
2026-04-17 19:20:00,METAR LTBA 171920Z 04016KT 9999 SCT017 BKN020 12/08 Q1009 RMK RWY23 03013KT 360V060,0,16,0,10000,0,0,0,
2026-04-17 18:50:00,METAR LTBA 171850Z 04017KT 9999 SCT015 BKN020 12/08 Q1009 RMK RWY23 05015KT,0,17,0,10000,0,0,0,
2026-04-17 18:20:00,METAR LTBA 171820Z 03017KT 9999 BKN020 12/08 Q1009 RMK RWY23 03017KT,0,17,0,10000,0,0,0,
2026-04-17 17:50:00,METAR LTBA 171750Z 03015KT 9999 BKN021 12/08 Q1009 RMK RWY23 03015KT,0,15,0,10000,0,0,0,
2026-04-17 17:20:00,METAR LTBA 171720Z 03019KT 9999 BKN021 12/08 Q1009 RMK RWY23 03015G27KT 360V060,0,19,0,10000,0,0,0,
2026-04-17 16:50:00,METAR LTBA 171650Z 03019G29KT 9999 BKN021 12/08 Q1009 RMK RWY23 03018KT,0,19,1,10000,0,0,0,
2026-04-17 16:20:00,METAR LTBA 171620Z 04018KT 9999 BKN021 12/08 Q1009 RMK RWY23 04019KT,0,18,0,10000,0,0,0,
2026-04-17 15:50:00,METAR LTBA 171550Z 03020G30KT 9999 BKN021 12/08 Q1010 RMK RWY23 04016KT,0,20,1,10000,0,0,0,
2026-04-17 15:20:00,METAR LTBA 171520Z 03019KT 9999 BKN021 12/08 Q1010 RMK RWY23 03016KT,0,19,0,10000,0,0,0,
2026-04-17 14:50:00,METAR LTBA 171450Z 02018KT 9999 BKN021 12/08 Q1010 RMK RWY23 03017KT,0,18,0,10000,0,0,0,
2026-04-17 14:20:00,METAR LTBA 171420Z 02019KT 9999 BKN021 12/07 Q1010 RMK RWY23 04014KT 010V070,0,19,0,10000,0,0,0,
2026-04-17 13:50:00,METAR LTBA 171350Z 03017KT 9999 BKN021 13/07 Q1010 RMK RWY23 02019KT,0,17,0,10000,0,0,0,
2026-04-17 13:20:00,METAR LTBA 171320Z 02020KT 9999 BKN021 12/08 Q1010 RMK RWY23 04018KT,0,20,0,10000,0,0,0,
2026-04-17 12:50:00,METAR LTBA 171250Z 03020KT 9999 BKN021 13/08 Q1010 RMK RWY23 02017KT,0,20,0,10000,0,0,0,
2026-04-17 12:20:00,METAR LTBA 171220Z 02017KT 9999 BKN021 13/08 Q1011 RMK RWY23 02016KT,0,17,0,10000,0,0,0,
2026-04-17 11:50:00,METAR LTBA 171150Z 02016KT 9999 BKN021 13/08 Q1012 RMK RWY23 03016KT,0,16,0,10000,0,0,0,
2026-04-17 11:20:00,METAR LTBA 171120Z 02014KT 350V050 9999 BKN021 13/08 Q1012 RMK RWY23 04016KT 360V070,0,14,0,10000,0,0,0,
2026-04-17 10:50:00,METAR LTBA 171050Z 01015KT 9999 BKN021 13/08 Q1012 RMK RWY23 03017KT,0,15,0,10000,0,0,0,
2026-04-17 10:20:00,METAR LTBA 171020Z 02016KT 350V050 9999 BKN021 13/08 Q1012 RMK RWY23 02016KT,0,16,0,10000,0,0,0,
2026-04-17 09:50:00,METAR LTBA 170950Z 02015KT 9999 BKN021 13/08 Q1013 RMK RWY23 02014KT,0,15,0,10000,0,0,0,
2026-04-17 09:20:00,METAR LTBA 170920Z 02014KT 340V050 9999 BKN021 13/08 Q1013 RMK RWY23 02014KT 340V050,0,14,0,10000,0,0,0,
2026-04-17 08:50:00,METAR LTBA 170850Z 02013KT 9999 BKN021 14/08 Q1014 RMK RWY23 01014KT,0,13,0,10000,0,0,0,
2026-04-17 08:20:00,METAR LTBA 170820Z 02012KT 350V060 9999 BKN020 13/08 Q1014 RMK RWY23 03011KT,0,12,0,10000,0,0,0,
2026-04-17 07:50:00,METAR LTBA 170750Z 04012KT 360V070 9999 BKN017 13/08 Q1014 RMK RWY23 04012KT,0,12,0,10000,0,0,0,
2026-04-17 07:20:00,METAR LTBA 170720Z 03012KT 360V060 9999 BKN017 13/08 Q1014 RMK RWY23 04012KT 360V070,0,12,0,10000,0,0,0,
2026-04-17 06:50:00,METAR LTBA 170650Z 03013KT 9999 BKN017 12/07 Q1015 RMK RWY23 03012KT,0,13,0,10000,0,0,0,
2026-04-17 06:20:00,METAR LTBA 170620Z 03012KT 9999 BKN017 12/07 Q1015 RMK RWY23 04009KT 360V070,0,12,0,10000,0,0,0,
2026-04-17 05:50:00,METAR LTBA 170550Z 02012KT 9999 BKN017 11/07 Q1015 RMK RWY23 04008KT 360V070,0,12,0,10000,0,0,0,
2026-04-17 05:20:00,METAR LTBA 170520Z 03013KT 9999 BKN017 11/07 Q1015 RMK RWY23 05010KT,0,13,0,10000,0,0,0,
2026-04-17 04:50:00,METAR LTBA 170450Z 03011KT 010V080 9999 BKN015 11/07 Q1015 RMK RWY23 05010KT,0,11,0,10000,0,0,0,
2026-04-17 04:20:00,METAR LTBA 170420Z 04013KT 9999 BKN015 11/07 Q1015 RMK RWY23 05013KT,0,13,0,10000,0,0,0,
2026-04-17 03:50:00,METAR LTBA 170350Z 04012KT 9999 BKN015 11/07 Q1015 RMK RWY23 04012KT,0,12,0,10000,0,0,0,
2026-04-17 03:20:00,METAR LTBA 170320Z 03013KT 9999 BKN013 11/07 Q1015 RMK RWY23 04010KT,0,13,0,10000,0,0,0,
2026-04-17 02:50:00,METAR LTBA 170250Z 03014KT 9999 BKN013 10/08 Q1015 RMK RWY23 04010KT 010V070,0,14,0,10000,0,0,0,
2026-04-17 02:20:00,METAR LTBA 170220Z 03012KT 9999 BKN013 11/08 Q1015 RMK RWY23 04012KT 360V070,0,12,0,10000,0,0,0,
2026-04-17 01:50:00,METAR LTBA 170150Z 04012KT 9999 BKN014 10/08 Q1015 RMK RWY23 04015KT,0,12,0,10000,0,0,0,
2026-04-17 01:20:00,METAR LTBA 170120Z 03013KT 9999 BKN014 10/08 Q1016 RMK RWY23 04010KT 010V070,0,13,0,10000,0,0,0,
2026-04-17 00:50:00,METAR LTBA 170050Z 03013KT 9999 BKN015 10/07 Q1016 RMK RWY23 04011KT 010V080,0,13,0,10000,0,0,0,
2026-04-17 00:20:00,METAR LTBA 170020Z 03015KT 9999 BKN015 10/07 Q1016 RMK RWY23 03009KT 360V060,0,15,0,10000,0,0,0,
2026-04-16 23:50:00,METAR LTBA 162350Z 05014KT 9999 BKN015 10/07 Q1016 RMK RWY23 03014KT,0,14,0,10000,0,0,0,
2026-04-16 23:20:00,METAR LTBA 162320Z 03012KT 9999 BKN015 10/07 Q1016 RMK RWY23 04009KT 010V070,0,12,0,10000,0,0,0,
2026-04-16 22:50:00,METAR LTBA 162250Z 04013KT 9999 BKN015 10/07 Q1017 RMK RWY23 03013KT,0,13,0,10000,0,0,0,
2026-04-16 22:20:00,METAR LTBA 162220Z 02013KT 9999 BKN015 10/07 Q1017 RMK RWY23 03012KT,0,13,0,10000,0,0,0,
2026-04-16 21:50:00,METAR LTBA 162150Z 02012KT 9999 BKN015 10/08 Q1017 RMK RWY23 03013KT 360V060,0,12,0,10000,0,0,0,
2026-04-16 21:20:00,METAR LTBA 162120Z 04013KT 9999 SCT015 10/07 Q1017 RMK RWY23 04014KT,0,13,0,10000,0,0,0,
2026-04-16 20:50:00,METAR LTBA 162050Z 04014KT 9999 SCT015 10/07 Q1017 RMK RWY23 02014KT,0,14,0,10000,0,0,0,
2026-04-16 20:20:00,METAR LTBA 162020Z 02012KT 9999 SCT015 11/08 Q1017 RMK RWY23 04012KT,0,12,0,10000,0,0,0,
2026-04-16 19:50:00,METAR LTBA 161950Z 04014KT 9999 BKN015 11/07 Q1018 RMK RWY23 03012KT,0,14,0,10000,0,0,0,
2026-04-16 19:20:00,METAR LTBA 161920Z 03014KT 9999 BKN015 11/08 Q1018 RMK RWY23 04012KT 020V080,0,14,0,10000,0,0,0,
2026-04-16 18:50:00,METAR LTBA 161850Z 04015KT 9999 BKN014 11/08 Q1018 RMK RWY23 03013KT,0,15,0,10000,0,0,0,
2026-04-16 18:20:00,METAR LTBA 161820Z 03013KT 9999 BKN014 11/08 Q1018 RMK RWY23 05012KT 010V070,0,13,0,10000,0,0,0,
2026-04-16 17:50:00,METAR LTBA 161750Z 03017KT 9999 BKN015 BKN100 11/08 Q1018 RMK RWY23 04011KT,0,17,0,10000,0,0,0,
2026-04-16 17:20:00,METAR LTBA 161720Z 03017KT 9999 BKN015 BKN100 11/07 Q1018 RMK RWY23 03016KT,0,17,0,10000,0,0,0,
2026-04-16 16:50:00,METAR LTBA 161650Z 02015KT 9999 BKN015 BKN100 11/07 Q1018 RMK RWY23 02016KT,0,15,0,10000,0,0,0,
2026-04-16 16:20:00,METAR LTBA 161620Z 02014KT 9999 FEW009 BKN100 11/07 Q1018 RMK RWY23 03017KT,0,14,0,10000,0,0,0,
2026-04-16 15:50:00,METAR LTBA 161550Z 02016KT 9999 FEW009 BKN100 12/07 Q1018 RMK RWY23 02015KT,0,16,0,10000,0,0,0,
2026-04-16 14:50:00,METAR LTBA 161450Z 02018KT 9999 FEW009 BKN100 13/07 Q1018 RMK RWY23 02016KT,0,18,0,10000,0,0,0,
2026-04-16 14:20:00,METAR LTBA 161420Z 01014KT CAVOK 13/07 Q1018 RMK RWY23 03013KT,1,0,0,9999,0,0,0,
2026-04-16 13:50:00,METAR LTBA 161350Z 36012KT CAVOK 13/07 Q1018 RMK RWY23 04010KT,1,0,0,9999,0,0,0,
2026-04-16 13:20:00,METAR LTBA 161320Z 02013KT 350V050 CAVOK 14/07 Q1018 RMK RWY23 03014KT,1,0,0,9999,0,0,0,
2026-04-16 12:50:00,METAR LTBA 161250Z 01012KT 340V040 CAVOK 15/08 Q1018 RMK RWY23 02014KT 360V060,1,0,0,9999,0,0,0,
2026-04-16 12:20:00,METAR LTBA 161220Z 02014KT 350V050 CAVOK 15/08 Q1018 RMK RWY23 05014KT 010V070,1,0,0,9999,0,0,0,
2026-04-16 11:50:00,METAR LTBA 161150Z 02012KT 350V050 CAVOK 15/08 Q1018 RMK RWY23 02012KT,1,0,0,9999,0,0,0,
2026-04-16 11:20:00,METAR LTBA 161120Z 02012KT CAVOK 16/08 Q1018 RMK RWY23 05012KT,1,0,0,9999,0,0,0,
2026-04-16 10:50:00,METAR LTBA 161050Z 03011KT 360V060 CAVOK 15/07 Q1018 RMK RWY23 01012KT 350V050,1,0,0,9999,0,0,0,
2026-04-16 10:20:00,METAR LTBA 161020Z 03012KT CAVOK 14/08 Q1018 RMK RWY23 04012KT,1,0,0,9999,0,0,0,
2026-04-16 09:50:00,METAR LTBA 160950Z 04013KT CAVOK 14/08 Q1019 RMK RWY23 03012KT,1,0,0,9999,0,0,0,
2026-04-16 09:20:00,METAR LTBA 160920Z 02013KT 360V060 CAVOK 14/07 Q1019 RMK RWY23 04013KT,1,0,0,9999,0,0,0,
2026-04-16 08:50:00,METAR LTBA 160850Z 01013KT CAVOK 14/07 Q1019 RMK RWY23 02011KT 350V050,1,0,0,9999,0,0,0,
2026-04-16 08:20:00,METAR LTBA 160820Z 01013KT 340V040 9999 SCT015 BKN120 14/08 Q1019 RMK RWY23 03014KT,0,13,0,10000,0,0,0,
2026-04-16 07:50:00,METAR LTBA 160750Z 02013KT 9999 SCT015 BKN120 14/08 Q1019 RMK RWY23 02012KT 350V050,0,13,0,10000,0,0,0,
2026-04-16 07:20:00,METAR LTBA 160720Z 02011KT 9999 SCT015 BKN120 13/07 Q1019 RMK RWY23 36011KT,0,11,0,10000,0,0,0,
2026-04-16 06:50:00,METAR LTBA 160650Z 02011KT 9999 SCT015 BKN120 13/08 Q1019 RMK RWY23 04011KT,0,11,0,10000,0,0,0,
2026-04-16 06:20:00,METAR LTBA 160620Z 03011KT 9999 SCT015 BKN120 12/07 Q1019 RMK RWY23 04009KT,0,11,0,10000,0,0,0,
2026-04-16 05:50:00,METAR LTBA 160550Z 01010KT 9999 SCT015 BKN120 12/07 Q1019 RMK RWY23 04009KT,0,10,0,10000,0,0,0,
2026-04-16 05:20:00,METAR LTBA 160520Z 04010KT 9999 SCT013 BKN120 11/07 Q1019 RMK RWY23 05009KT 010V070,0,10,0,10000,0,0,0,
2026-04-16 04:50:00,METAR LTBA 160450Z 04010KT 9999 SCT013 BKN120 11/07 Q1019 RMK RWY23 05008KT,0,10,0,10000,0,0,0,
2026-04-16 04:20:00,METAR LTBA 160420Z 04012KT 9999 SCT013 BKN120 10/08 Q1018 RMK RWY23 04009KT,0,12,0,10000,0,0,0,
2026-04-16 03:50:00,METAR LTBA 160350Z 04012KT 9999 FEW013 BKN120 10/08 Q1018 RMK RWY23 05011KT,0,12,0,10000,0,0,0,
2026-04-16 03:20:00,METAR LTBA 160320Z 04011KT 9999 FEW013 BKN120 10/08 Q1018 RMK RWY23 04012KT,0,11,0,10000,0,0,0,
2026-04-16 02:50:00,METAR LTBA 160250Z 04013KT 9999 FEW013 BKN120 10/08 Q1018 RMK RWY23 03012KT,0,13,0,10000,0,0,0,
2026-04-16 02:20:00,METAR LTBA 160220Z 03011KT 9999 FEW012 BKN120 10/08 Q1018 RMK RWY23 04011KT,0,11,0,10000,0,0,0,
2026-04-16 01:50:00,METAR LTBA 160150Z 03010KT 9999 FEW012 BKN120 10/08 Q1018 RMK RWY23 03009KT,0,10,0,10000,0,0,0,
2026-04-16 01:20:00,METAR LTBA 160120Z 04010KT CAVOK 10/08 Q1019 RMK RWY23 04009KT,1,0,0,9999,0,0,0,
2026-04-16 00:50:00,METAR LTBA 160050Z 04011KT 360V060 CAVOK 10/08 Q1018 RMK RWY23 04006KT 020V080,1,0,0,9999,0,0,0,
2026-04-16 00:20:00,METAR LTBA 160020Z 02013KT CAVOK 10/08 Q1018 RMK RWY23 02011KT,1,0,0,9999,0,0,0,
2026-04-15 23:50:00,METAR LTBA 152350Z 03015KT CAVOK 10/08 Q1019 RMK RWY23 04011KT,1,0,0,9999,0,0,0,
2026-04-15 23:20:00,METAR LTBA 152320Z 03012KT CAVOK 10/08 Q1019 RMK RWY23 03010KT,1,0,0,9999,0,0,0,
2026-04-15 22:50:00,METAR LTBA 152250Z 03011KT CAVOK 10/07 Q1020 RMK RWY23 03012KT,1,0,0,9999,0,0,0,
2026-04-15 22:20:00,METAR LTBA 152220Z 01011KT CAVOK 10/07 Q1020 RMK RWY23 02011KT,1,0,0,9999,0,0,0,
2026-04-15 21:50:00,METAR LTBA 152150Z 01011KT CAVOK 10/07 Q1020 RMK RWY23 02010KT,1,0,0,9999,0,0,0,
2026-04-15 21:20:00,METAR LTBA 152120Z 02008KT CAVOK 10/07 Q1020 RMK RWY23 03009KT,1,0,0,9999,0,0,0,
2026-04-15 20:50:00,METAR LTBA 152050Z 02010KT CAVOK 10/07 Q1020 RMK RWY23 02008KT,1,0,0,9999,0,0,0,
2026-04-15 20:20:00,METAR LTBA 152020Z 03010KT CAVOK 10/07 Q1020 RMK RWY23 02009KT,1,0,0,9999,0,0,0,
2026-04-15 19:50:00,METAR LTBA 151950Z 02011KT CAVOK 10/07 Q1020 RMK RWY23 03010KT 010V070,1,0,0,9999,0,0,0,
2026-04-15 19:20:00,METAR LTBA 151920Z 03014KT CAVOK 10/07 Q1020 RMK RWY23 03013KT,1,0,0,9999,0,0,0,
2026-04-15 18:50:00,METAR LTBA 151850Z 03014KT CAVOK 11/07 Q1021 RMK RWY23 02012KT,1,0,0,9999,0,0,0,
2026-04-15 18:20:00,METAR LTBA 151820Z 03013KT CAVOK 11/07 Q1021 RMK RWY23 03011KT,1,0,0,9999,0,0,0,
2026-04-15 17:50:00,METAR LTBA 151750Z 03015KT CAVOK 11/07 Q1020 RMK RWY23 03013KT,1,0,0,9999,0,0,0,
2026-04-15 17:20:00,METAR LTBA 151720Z 03017KT CAVOK 11/07 Q1020 RMK RWY23 03015KT,1,0,0,9999,0,0,0,
2026-04-15 16:50:00,METAR LTBA 151650Z 02016KT CAVOK 12/07 Q1020 RMK RWY23 03013KT 360V060,1,0,0,9999,0,0,0,
2026-04-15 16:20:00,METAR LTBA 151620Z 02015KT CAVOK 12/06 Q1020 RMK RWY23 02013KT,1,0,0,9999,0,0,0,
2026-04-15 15:50:00,METAR LTBA 151550Z 02016KT CAVOK 13/06 Q1020 RMK RWY23 02015KT,1,0,0,9999,0,0,0,
2026-04-15 15:20:00,METAR LTBA 151520Z 03001KT CAVOK 14/06 Q1020 RMK RWY23 03016KT,1,0,0,9999,0,0,0,
2026-04-15 14:50:00,METAR LTBA 151450Z 03017KT CAVOK 14/06 Q1020,1,0,0,9999,0,0,0,
2026-04-15 14:20:00,METAR LTBA 151420Z 02016KT CAVOK 14/05 Q1020 RMK RWY23 01014KT,1,0,0,9999,0,0,0,
2026-04-15 13:50:00,METAR LTBA 151350Z 03016KT CAVOK 15/06 Q1020 RMK RWY23 03014KT,1,0,0,9999,0,0,0,
2026-04-15 13:20:00,METAR LTBA 151320Z 01016KT CAVOK 16/07 Q1020 RMK RWY23 02014KT,1,0,0,9999,0,0,0,
2026-04-15 12:50:00,METAR LTBA 151250Z 03013KT CAVOK 17/05 Q1020 RMK RWY23 01013KT 350V050,1,0,0,9999,0,0,0,
2026-04-15 12:20:00,METAR LTBA 151220Z 03013KT CAVOK 18/04 Q1020 RMK RWY23 05013KT,1,0,0,9999,0,0,0,
2026-04-15 11:50:00,METAR LTBA 151150Z 02012KT CAVOK 18/02 Q1020 RMK RWY23 04012KT 010V070,1,0,0,9999,0,0,0,
2026-04-15 11:20:00,METAR LTBA 151120Z 01012KT 340V050 CAVOK 18/04 Q1020 RMK RWY23 02012KT,1,0,0,9999,0,0,0,
2026-04-15 10:50:00,METAR LTBA 151050Z 02011KT 360V070 CAVOK 19/04 Q1021 RMK RWY23 04009KT 360V070,1,0,0,9999,0,0,0,
2026-04-15 10:20:00,METAR LTBA 151020Z 04009KT 350V080 CAVOK 19/04 Q1021 RMK RWY23 06008KT 010V090,1,0,0,9999,0,0,0,
2026-04-15 09:50:00,METAR LTBA 150950Z 03009KT CAVOK 17/04 Q1021 RMK RWY23 01010KT,1,0,0,9999,0,0,0,
2026-04-15 09:20:00,METAR LTBA 150920Z 04011KT CAVOK 17/04 Q1021 RMK RWY23 04009KT,1,0,0,9999,0,0,0,
2026-04-15 08:50:00,METAR LTBA 150850Z 04010KT CAVOK 16/05 Q1021 RMK RWY23 02009KT 350V060,1,0,0,9999,0,0,0,
2026-04-15 08:20:00,METAR LTBA 150820Z 04008KT CAVOK 16/05 Q1021 RMK RWY23 05008KT 330V080,1,0,0,9999,0,0,0,
2026-04-15 07:50:00,METAR LTBA 150750Z 02008KT CAVOK 16/06 Q1021 RMK RWY23 03008KT,1,0,0,9999,0,0,0,
2026-04-15 07:20:00,METAR LTBA 150720Z 03008KT CAVOK 15/06 Q1021 RMK RWY23 03008KT,1,0,0,9999,0,0,0,
2026-04-15 06:50:00,METAR LTBA 150650Z 04008KT CAVOK 14/06 Q1021 RMK RWY23 06007KT,1,0,0,9999,0,0,0,
2026-04-15 06:20:00,METAR LTBA 150620Z 05008KT CAVOK 13/06 Q1021 RMK RWY23 05008KT,1,0,0,9999,0,0,0,
2026-04-15 05:50:00,METAR LTBA 150550Z 05008KT CAVOK 12/06 Q1021 RMK RWY23 05007KT 030V090,1,0,0,9999,0,0,0,
2026-04-15 05:20:00,METAR LTBA 150520Z 05010KT CAVOK 11/06 Q1021 RMK RWY23 06008KT,1,0,0,9999,0,0,0,
2026-04-15 04:50:00,METAR LTBA 150450Z 04006KT CAVOK 11/06 Q1022 RMK RWY23 05004KT,1,0,0,9999,0,0,0,
2026-04-15 04:20:00,METAR LTBA 150420Z 03005KT CAVOK 10/06 Q1022 RMK RWY23 04004KT,1,0,0,9999,0,0,0,
2026-04-15 03:50:00,METAR LTBA 150350Z 05006KT CAVOK 09/06 Q1022 RMK RWY23 05005KT,1,0,0,9999,0,0,0,
2026-04-15 03:20:00,METAR LTBA 150320Z 04003KT CAVOK 09/05 Q1022 RMK RWY23 07003KT,1,0,0,9999,0,0,0,
2026-04-15 02:50:00,METAR LTBA 150250Z 03004KT CAVOK 09/06 Q1022 RMK RWY23 02004KT,1,0,0,9999,0,0,0,
2026-04-15 02:20:00,METAR LTBA 150220Z 02006KT CAVOK 09/06 Q1022 RMK RWY23 01005KT,1,0,0,9999,0,0,0,
2026-04-15 01:50:00,METAR LTBA 150150Z 01004KT CAVOK 10/06 Q1022 RMK RWY23 02004KT,1,0,0,9999,0,0,0,
2026-04-15 01:20:00,METAR LTBA 150120Z 04005KT CAVOK 10/06 Q1022 RMK RWY23 04004KT,1,0,0,9999,0,0,0,
2026-04-15 00:50:00,METAR LTBA 150050Z 04007KT CAVOK 10/06 Q1022 RMK RWY23 05006KT,1,0,0,9999,0,0,0,
2026-04-15 00:20:00,METAR LTBA 150020Z 02006KT CAVOK 10/05 Q1023 RMK RWY23 03005KT,1,0,0,9999,0,0,0,
2026-04-14 23:50:00,METAR LTBA 142350Z 04008KT CAVOK 10/05 Q1022 RMK RWY23 04006KT,1,0,0,9999,0,0,0,
2026-04-14 23:20:00,METAR LTBA 142320Z 03006KT CAVOK 10/05 Q1023 RMK RWY23 03005KT 010V070,1,0,0,9999,0,0,0,
2026-04-14 22:50:00,METAR LTBA 142250Z 02008KT CAVOK 10/05 Q1023 RMK RWY23 02007KT,1,0,0,9999,0,0,0,
2026-04-14 22:20:00,METAR LTBA 142220Z 02008KT CAVOK 10/05 Q1023 RMK RWY23 02007KT,1,0,0,9999,0,0,0,
2026-04-14 21:50:00,METAR LTBA 142150Z 02009KT CAVOK 11/05 Q1023 RMK RWY23 02007KT,1,0,0,9999,0,0,0,
2026-04-14 21:20:00,METAR LTBA 142120Z 04008KT CAVOK 11/04 Q1023 RMK RWY23 04007KT,1,0,0,9999,0,0,0,
2026-04-14 20:50:00,METAR LTBA 142050Z 03010KT CAVOK 11/04 Q1023 RMK RWY23 03008KT 360V060,1,0,0,9999,0,0,0,
2026-04-14 20:20:00,METAR LTBA 142020Z 04008KT CAVOK 11/03 Q1023 RMK RWY23 04007KT,1,0,0,9999,0,0,0,
2026-04-14 19:50:00,METAR LTBA 141950Z 04009KT CAVOK 12/03 Q1023 RMK RWY23 03006KT 010V070,1,0,0,9999,0,0,0,
2026-04-14 19:20:00,METAR LTBA 141920Z 04010KT CAVOK 12/03 Q1023 RMK RWY23 04008KT 010V070,1,0,0,9999,0,0,0,
2026-04-14 18:50:00,METAR LTBA 141850Z 05010KT CAVOK 12/03 Q1022 RMK RWY23 05008KT,1,0,0,9999,0,0,0,
2026-04-14 18:20:00,METAR LTBA 141820Z 04012KT CAVOK 12/03 Q1022 RMK RWY23 04010KT 010V070,1,0,0,9999,0,0,0,
2026-04-14 17:50:00,METAR LTBA 141750Z 03012KT CAVOK 12/02 Q1022 RMK RWY23 03011KT,1,0,0,9999,0,0,0,
2026-04-14 17:20:00,METAR LTBA 141720Z 04011KT CAVOK 12/01 Q1022 RMK RWY23 03010KT,1,0,0,9999,0,0,0,
2026-04-14 16:50:00,METAR LTBA 141650Z 03014KT CAVOK 13/01 Q1022 RMK RWY23 03014KT,1,0,0,9999,0,0,0,
2026-04-14 16:20:00,METAR LTBA 141620Z 02012KT CAVOK 13/03 Q1022 RMK RWY23 02011KT,1,0,0,9999,0,0,0,
2026-04-14 15:50:00,METAR LTBA 141550Z 04012KT CAVOK 14/02 Q1021 RMK RWY23 04012KT,1,0,0,9999,0,0,0,
2026-04-14 15:20:00,METAR LTBA 141520Z 03012KT CAVOK 14/02 Q1021 RMK RWY23 04012KT 010V070,1,0,0,9999,0,0,0,
2026-04-14 14:50:00,METAR LTBA 141450Z 04014KT CAVOK 15/02 Q1022 RMK RWY23 04011KT,1,0,0,9999,0,0,0,
2026-04-14 14:20:00,METAR LTBA 141420Z 03013KT CAVOK 15/02 Q1022 RMK RWY23 03013KT 360V060,1,0,0,9999,0,0,0,
2026-04-14 13:50:00,METAR LTBA 141350Z 03012KT 360V060 CAVOK 16/02 Q1022 RMK RWY23 04012KT,1,0,0,9999,0,0,0,
2026-04-14 13:20:00,METAR LTBA 141320Z 02014KT CAVOK 16/03 Q1021 RMK RWY23 03013KT,1,0,0,9999,0,0,0,
2026-04-14 12:50:00,METAR LTBA 141250Z 03013KT 360V060 CAVOK 17/04 Q1021 RMK RWY23 03013KT 360V070,1,0,0,9999,0,0,0,
2026-04-14 12:20:00,METAR LTBA 141220Z 03012KT CAVOK 18/06 Q1021 RMK RWY23 04011KT 360V080,1,0,0,9999,0,0,0,
2026-04-14 11:50:00,METAR LTBA 141150Z 02012KT CAVOK 18/05 Q1022 RMK RWY23 04010KT 360V070,1,0,0,9999,0,0,0,
2026-04-14 11:20:00,METAR LTBA 141120Z 05013KT 010V070 CAVOK 18/05 Q1022 RMK RWY23 04012KT,1,0,0,9999,0,0,0,
2026-04-14 10:50:00,METAR LTBA 141050Z 04013KT CAVOK 17/04 Q1022 RMK RWY23 03012KT 360V060,1,0,0,9999,0,0,0,
2026-04-14 10:20:00,METAR LTBA 141020Z 09010KT 050V110 CAVOK 18/02 Q1022 RMK RWY23 05010KT 010V090,1,0,0,9999,0,0,0,
2026-04-14 09:50:00,METAR LTBA 140950Z 08009KT CAVOK 18/M02 Q1023 RMK RWY23 09008KT 050V120,1,0,0,9999,0,0,0,
2026-04-14 09:20:00,METAR LTBA 140920Z 08009KT 050V110 CAVOK 17/M02 Q1023 RMK RWY23 08008KT 040V130,1,0,0,9999,0,0,0,
2026-04-14 08:50:00,METAR LTBA 140850Z 08008KT 050V120 CAVOK 17/M01 Q1023 RMK RWY23 07008KT 040V100,1,0,0,9999,0,0,0,
2026-04-14 08:20:00,METAR LTBA 140820Z 08010KT CAVOK 16/M01 Q1023 RMK RWY23 07010KT 040V110,1,0,0,9999,0,0,0,
2026-04-14 07:50:00,METAR LTBA 140750Z 07012KT CAVOK 16/M01 Q1023 RMK RWY23 07010KT 040V100,1,0,0,9999,0,0,0,
2026-04-14 07:20:00,METAR LTBA 140720Z 06013KT CAVOK 15/00 Q1023 RMK RWY23 07012KT,1,0,0,9999,0,0,0,
2026-04-14 06:50:00,METAR LTBA 140650Z 06012KT CAVOK 14/02 Q1023 RMK RWY23 07011KT,1,0,0,9999,0,0,0,
2026-04-14 06:20:00,METAR LTBA 140620Z 06012KT CAVOK 13/03 Q1023 RMK RWY23 07011KT 040V100,1,0,0,9999,0,0,0,
2026-04-14 05:50:00,METAR LTBA 140550Z 06012KT CAVOK 12/02 Q1023 RMK RWY23 06012KT,1,0,0,9999,0,0,0,
2026-04-14 05:20:00,METAR LTBA 140520Z 06011KT CAVOK 11/03 Q1023 RMK RWY23 07010KT,1,0,0,9999,0,0,0,
2026-04-14 04:50:00,METAR LTBA 140450Z 05011KT CAVOK 10/04 Q1023 RMK RWY23 06010KT,1,0,0,9999,0,0,0,
2026-04-14 04:20:00,METAR LTBA 140420Z 04010KT CAVOK 09/03 Q1023 RMK RWY23 05007KT,1,0,0,9999,0,0,0,
2026-04-14 03:50:00,METAR LTBA 140350Z 05009KT CAVOK 08/03 Q1023 RMK RWY23 05010KT,1,0,0,9999,0,0,0,
2026-04-14 03:20:00,METAR LTBA 140320Z 05009KT CAVOK 08/03 Q1023 RMK RWY23 05009KT,1,0,0,9999,0,0,0,
2026-04-14 02:50:00,METAR LTBA 140250Z 04008KT CAVOK 08/03 Q1023 RMK RWY23 05007KT,1,0,0,9999,0,0,0,
2026-04-14 02:20:00,METAR LTBA 140220Z 04008KT CAVOK 09/02 Q1022 RMK RWY23 04007KT,1,0,0,9999,0,0,0,
2026-04-14 01:50:00,METAR LTBA 140150Z 05008KT CAVOK 08/01 Q1022 RMK RWY23 05006KT,1,0,0,9999,0,0,0,
2026-04-14 01:20:00,METAR LTBA 140120Z 05007KT CAVOK 08/01 Q1022 RMK RWY23 04006KT,1,0,0,9999,0,0,0,
2026-04-14 00:50:00,METAR LTBA 140050Z 05008KT CAVOK 08/01 Q1022 RMK RWY23 05005KT,1,0,0,9999,0,0,0,
2026-04-14 00:20:00,METAR LTBA 140020Z 05008KT CAVOK 09/01 Q1022 RMK RWY23 05007KT,1,0,0,9999,0,0,0,
2026-04-13 23:50:00,METAR LTBA 132350Z 04008KT CAVOK 09/01 Q1022 RMK RWY23 04006KT,1,0,0,9999,0,0,0,
2026-04-13 23:20:00,METAR LTBA 132320Z 04007KT CAVOK 09/01 Q1022 RMK RWY23 04006KT,1,0,0,9999,0,0,0,
2026-04-13 22:50:00,METAR LTBA 132250Z 05007KT CAVOK 08/01 Q1022 RMK RWY23 06006KT,1,0,0,9999,0,0,0,
2026-04-13 22:20:00,METAR LTBA 132220Z 05007KT CAVOK 09/02 Q1022 RMK RWY23 05006KT,1,0,0,9999,0,0,0,
2026-04-13 21:50:00,METAR LTBA 132150Z 04005KT CAVOK 09/02 Q1023 RMK RWY23 04006KT,1,0,0,9999,0,0,0,
2026-04-13 21:20:00,METAR LTBA 132120Z 06008KT CAVOK 09/02 Q1022 RMK RWY23 07007KT,1,0,0,9999,0,0,0,
2026-04-13 20:50:00,METAR LTBA 132050Z 06009KT CAVOK 09/02 Q1022 RMK RWY23 07008KT,1,0,0,9999,0,0,0,
2026-04-13 20:20:00,METAR LTBA 132020Z 05010KT CAVOK 09/02 Q1022 RMK RWY23 06008KT,1,0,0,9999,0,0,0,
2026-04-13 19:50:00,METAR LTBA 131950Z 05010KT CAVOK 10/02 Q1022 RMK RWY23 06008KT,1,0,0,9999,0,0,0,
2026-04-13 19:20:00,METAR LTBA 131920Z 06010KT CAVOK 10/02 Q1022 RMK RWY23 06008KT,1,0,0,9999,0,0,0,
2026-04-13 18:50:00,METAR LTBA 131850Z 06011KT CAVOK 10/01 Q1022 RMK RWY23 06008KT,1,0,0,9999,0,0,0,
2026-04-13 18:20:00,METAR LTBA 131820Z 06010KT CAVOK 11/02 Q1022 RMK RWY23 06009KT,1,0,0,9999,0,0,0,
2026-04-13 17:50:00,METAR LTBA 131750Z 05010KT CAVOK 11/03 Q1022 RMK RWY23 05007KT,1,0,0,9999,0,0,0,
2026-04-13 17:20:00,METAR LTBA 131720Z 04011KT CAVOK 11/04 Q1022 RMK RWY23 05008KT,1,0,0,9999,0,0,0,
2026-04-13 16:50:00,METAR LTBA 131650Z 02011KT CAVOK 12/04 Q1021 RMK RWY23 04009KT,1,0,0,9999,0,0,0,
2026-04-13 16:20:00,METAR LTBA 131620Z 03013KT CAVOK 12/03 Q1021 RMK RWY23 05008KT 010V070,1,0,0,9999,0,0,0,
2026-04-13 15:50:00,METAR LTBA 131550Z 04014KT CAVOK 13/03 Q1021 RMK RWY23 03012KT,1,0,0,9999,0,0,0,
2026-04-13 15:20:00,METAR LTBA 131520Z 03010KT CAVOK 14/03 Q1021 RMK RWY23 02011KT 360V060,1,0,0,9999,0,0,0,
2026-04-13 14:50:00,METAR LTBA 131450Z 03008KT 350V060 CAVOK 15/03 Q1021 RMK RWY23 02009KT,1,0,0,9999,0,0,0,
2026-04-13 14:20:00,METAR LTBA 131420Z 04008KT 350V070 CAVOK 15/04 Q1021 RMK RWY23 05008KT 020V080,1,0,0,9999,0,0,0,
2026-04-13 13:50:00,METAR LTBA 131350Z VRB07KT CAVOK 15/04 Q1021 RMK RWY23 05007KT 360V080,1,0,0,9999,0,0,0,
2026-04-13 13:20:00,METAR LTBA 131320Z 03009KT 340V080 CAVOK 16/04 Q1021 RMK RWY23 VRB08KT,1,0,0,9999,0,0,0,
2026-04-13 12:50:00,METAR LTBA 131250Z 08006KT 020V140 CAVOK 16/03 Q1021 RMK RWY23 02007KT 340V050,1,0,0,9999,0,0,0,
2026-04-13 12:20:00,METAR LTBA 131220Z 11008KT 080V140 CAVOK 16/04 Q1021 RMK RWY23 12008KT,1,0,0,9999,0,0,0,
2026-04-13 11:50:00,METAR LTBA 131150Z 12007KT 080V150 CAVOK 15/03 Q1021 RMK RWY23 13008KT,1,0,0,9999,0,0,0,
2026-04-13 11:20:00,METAR LTBA 131120Z 12008KT CAVOK 15/02 Q1022 RMK RWY23 13008KT,1,0,0,9999,0,0,0,
2026-04-13 10:50:00,METAR LTBA 131050Z 13008KT 100V160 CAVOK 15/02 Q1022 RMK RWY23 13008KT 100V160,1,0,0,9999,0,0,0,
2026-04-13 10:20:00,METAR LTBA 131020Z 11008KT 080V140 CAVOK 14/02 Q1022 RMK RWY23 13008KT,1,0,0,9999,0,0,0,
2026-04-13 09:50:00,METAR LTBA 130950Z 10008KT CAVOK 14/01 Q1023 RMK RWY23 13007KT,1,0,0,9999,0,0,0,
2026-04-13 09:20:00,METAR LTBA 130920Z 11008KT 080V140 CAVOK 13/03 Q1023 RMK RWY23 13007KT 100V160,1,0,0,9999,0,0,0,
2026-04-13 08:50:00,METAR LTBA 130850Z 12007KT 070V150 CAVOK 12/03 Q1023 RMK RWY23 13007KT 090V150,1,0,0,9999,0,0,0,
2026-04-13 08:20:00,METAR LTBA 130820Z 14007KT 110V180 CAVOK 11/02 Q1023 RMK RWY23 14007KT 110V170,1,0,0,9999,0,0,0,
2026-04-13 07:50:00,METAR LTBA 130750Z 13007KT 090V170 CAVOK 12/04 Q1023 RMK RWY23 15008KT,1,0,0,9999,0,0,0,
2026-04-13 07:20:00,METAR LTBA 130720Z 12007KT 080V160 CAVOK 11/03 Q1024 RMK RWY23 14008KT 100V160,1,0,0,9999,0,0,0,
2026-04-13 06:50:00,METAR LTBA 130650Z 09009KT CAVOK 11/01 Q1023 RMK RWY23 13008KT,1,0,0,9999,0,0,0,
2026-04-13 06:20:00,METAR LTBA 130620Z 10009KT CAVOK 10/02 Q1023 RMK RWY23 11006KT 060V140,1,0,0,9999,0,0,0,
2026-04-13 05:50:00,METAR LTBA 130550Z 07009KT CAVOK 10/02 Q1023 RMK RWY23 06008KT,1,0,0,9999,0,0,0,
2026-04-13 05:20:00,METAR LTBA 130520Z 07007KT CAVOK 10/03 Q1023 RMK RWY23 07007KT,1,0,0,9999,0,0,0,
2026-04-13 04:50:00,METAR LTBA 130450Z 06006KT CAVOK 09/03 Q1023 RMK RWY23 06006KT,1,0,0,9999,0,0,0,
2026-04-13 04:20:00,METAR LTBA 130420Z 05006KT CAVOK 07/03 Q1023 RMK RWY23 05005KT,1,0,0,9999,0,0,0,
2026-04-13 03:50:00,METAR LTBA 130350Z 04006KT CAVOK 06/03 Q1022 RMK RWY23 05005KT,1,0,0,9999,0,0,0,
2026-04-13 03:20:00,METAR LTBA 130320Z 04006KT CAVOK 06/03 Q1022 RMK RWY23 05007KT,1,0,0,9999,0,0,0,
2026-04-13 02:50:00,METAR LTBA 130250Z 06006KT CAVOK 06/03 Q1022 RMK RWY23 05007KT,1,0,0,9999,0,0,0,
2026-04-13 02:20:00,METAR LTBA 130220Z 04007KT CAVOK 06/03 Q1021 RMK RWY23 05006KT,1,0,0,9999,0,0,0,
2026-04-13 01:50:00,METAR LTBA 130150Z 04007KT CAVOK 07/02 Q1022 RMK RWY23 05006KT,1,0,0,9999,0,0,0,
2026-04-13 01:20:00,METAR LTBA 130120Z 04006KT CAVOK 06/02 Q1021 RMK RWY23 04005KT,1,0,0,9999,0,0,0,
2026-04-13 00:50:00,METAR LTBA 130050Z 04006KT CAVOK 07/02 Q1022 RMK RWY23 03003KT 360V060,1,0,0,9999,0,0,0,
2026-04-13 00:20:00,METAR LTBA 130020Z 04005KT CAVOK 06/02 Q1021 RMK RWY23 02004KT,1,0,0,9999,0,0,0,
2026-04-12 23:50:00,METAR LTBA 122350Z 05007KT CAVOK 07/03 Q1021 RMK RWY23 05006KT,1,0,0,9999,0,0,0,
2026-04-12 23:20:00,METAR LTBA 122320Z 04008KT 9000 NSC 07/03 Q1022 RMK RWY23 04005KT,0,8,0,9000,0,0,0,
2026-04-12 22:50:00,METAR LTBA 122250Z 07006KT CAVOK 07/03 Q1022 RMK RWY23 07006KT,1,0,0,9999,0,0,0,
2026-04-12 22:20:00,METAR LTBA 122220Z 06008KT CAVOK 07/02 Q1022 RMK RWY23 08007KT,1,0,0,9999,0,0,0,
2026-04-12 21:50:00,METAR LTBA 122150Z 06006KT CAVOK 07/02 Q1022 RMK RWY23 07006KT,1,0,0,9999,0,0,0,
2026-04-12 21:20:00,METAR LTBA 122120Z 04008KT CAVOK 08/02 Q1022 RMK RWY23 06007KT,1,0,0,9999,0,0,0,
2026-04-12 20:50:00,METAR LTBA 122050Z 05010KT CAVOK 08/02 Q1022 RMK RWY23 06010KT,1,0,0,9999,0,0,0,
2026-04-12 20:20:00,METAR LTBA 122020Z 06009KT CAVOK 08/01 Q1022 RMK RWY23 07006KT,1,0,0,9999,0,0,0,
2026-04-12 19:50:00,METAR LTBA 121950Z 05009KT CAVOK 08/01 Q1022 RMK RWY23 05007KT,1,0,0,9999,0,0,0,
2026-04-12 19:20:00,METAR LTBA 121920Z 05008KT CAVOK 09/02 Q1022 RMK RWY23 04006KT,1,0,0,9999,0,0,0,
2026-04-12 18:50:00,METAR LTBA 121850Z 06007KT CAVOK 09/01 Q1022 RMK RWY23 05007KT,1,0,0,9999,0,0,0,
2026-04-12 18:20:00,METAR LTBA 121820Z 05008KT CAVOK 09/01 Q1021 RMK RWY23 05006KT,1,0,0,9999,0,0,0,
2026-04-12 17:50:00,METAR LTBA 121750Z 05008KT CAVOK 10/01 Q1021 RMK RWY23 04007KT,1,0,0,9999,0,0,0,
2026-04-12 17:20:00,METAR LTBA 121720Z 04010KT CAVOK 10/01 Q1021 RMK RWY23 05008KT,1,0,0,9999,0,0,0,
2026-04-12 16:50:00,METAR LTBA 121650Z 04010KT CAVOK 11/00 Q1021 RMK RWY23 04009KT,1,0,0,9999,0,0,0,
2026-04-12 16:20:00,METAR LTBA 121620Z 04010KT CAVOK 11/M00 Q1020 RMK RWY23 05010KT,1,0,0,9999,0,0,0,
2026-04-12 15:50:00,METAR LTBA 121550Z 04011KT 9999 FEW035 12/00 Q1021 RMK RWY23 03008KT 360V070,0,11,0,10000,0,0,0,
2026-04-12 14:50:00,METAR LTBA 121450Z VRB04KT 9999 FEW035 14/03 Q1020 RMK RWY23 05007KT 330V100,0,4,0,10000,0,0,0,
2026-04-12 14:20:00,METAR LTBA 121420Z 24006KT 210V270 9999 FEW035 13/03 Q1020 RMK RWY23 24006KT,0,6,0,10000,0,0,0,
2026-04-12 13:50:00,METAR LTBA 121350Z 24005KT 180V270 9999 FEW030 SCT080 13/02 Q1020 RMK RWY23 13004KT 050V200,0,5,0,10000,0,0,0,
2026-04-12 13:20:00,METAR LTBA 121320Z 22006KT 9999 SCT030 BKN080 14/01 Q1020 RMK RWY23 14005KT 110V200,0,6,0,10000,0,0,0,
2026-04-12 12:50:00,METAR LTBA 121250Z 17006KT 120V220 9999 SCT030 BKN080 14/M00 Q1020 RMK RWY23 20004KT 090V250,0,6,0,10000,0,0,0,
2026-04-12 12:20:00,METAR LTBA 121220Z 20004KT 120V270 9999 SCT030 BKN080 14/M01 Q1020 RMK RWY23 VRB02KT,0,4,0,10000,0,0,0,
2026-04-12 11:50:00,METAR LTBA 121150Z 24006KT 200V260 9999 SCT030 BKN080 14/02 Q1020 RMK RWY23 25005KT 200V290,0,6,0,10000,0,0,0,
2026-04-12 11:20:00,METAR LTBA 121120Z 24007KT 200V260 9999 SCT030 BKN080 13/02 Q1020 RMK RWY23 19006KT,0,7,0,10000,0,0,0,
2026-04-12 10:50:00,METAR LTBA 121050Z 22007KT 190V270 9999 SCT030 BKN080 14/02 Q1020 RMK RWY23 21004KT 170V250,0,7,0,10000,0,0,0,
2026-04-12 10:20:00,METAR LTBA 121020Z 22006KT 180V250 9999 SCT030 BKN080 13/01 Q1020 RMK RWY23 21004KT 180V250,0,6,0,10000,0,0,0,
2026-04-12 09:50:00,METAR LTBA 120950Z 21007KT 180V240 9999 SCT030 BKN080 12/M01 Q1020 RMK RWY23 20006KT 140V250,0,7,0,10000,0,0,0,
2026-04-12 09:20:00,METAR LTBA 120920Z 20007KT 160V220 9999 SCT030 BKN080 13/M01 Q1020 RMK RWY23 17006KT 100V220,0,7,0,10000,0,0,0,
2026-04-12 08:50:00,METAR LTBA 120850Z 13006KT 080V170 9999 SCT030 BKN080 13/M01 Q1020 RMK RWY23 15005KT 090V220,0,6,0,10000,0,0,0,
2026-04-12 08:20:00,METAR LTBA 120820Z 17005KT 140V240 9999 SCT030 BKN080 13/M03 Q1021 RMK RWY23 15004KT 070V220,0,5,0,10000,0,0,0,
2026-04-12 07:50:00,METAR LTBA 120750Z 15005KT 110V210 9999 SCT030 BKN100 12/M01 Q1021 RMK RWY23 18004KT 140V230,0,5,0,10000,0,0,0,
2026-04-12 07:20:00,METAR LTBA 120720Z VRB02KT CAVOK 11/M01 Q1021 RMK RWY23 21004KT 170V250,1,0,0,9999,0,0,0,
2026-04-12 06:50:00,METAR LTBA 120650Z 22004KT CAVOK 10/01 Q1021 RMK RWY23 VRB02KT,1,0,0,9999,0,0,0,
2026-04-12 06:20:00,METAR LTBA 120620Z 07003KT 030V110 CAVOK 11/M03 Q1021 RMK RWY23 07003KT 340V100,1,0,0,9999,0,0,0,
2026-04-12 05:50:00,METAR LTBA 120550Z 05005KT CAVOK 10/M02 Q1020 RMK RWY23 04006KT,1,0,0,9999,0,0,0,
2026-04-12 05:20:00,METAR LTBA 120520Z 02006KT CAVOK 10/00 Q1020 RMK RWY23 03004KT,1,0,0,9999,0,0,0,
2026-04-12 04:50:00,METAR LTBA 120450Z 01004KT CAVOK 09/02 Q1020 RMK RWY23 02003KT,1,0,0,9999,0,0,0,
2026-04-12 04:20:00,METAR LTBA 120420Z 34005KT CAVOK 07/02 Q1019 RMK RWY23 33004KT,1,0,0,9999,0,0,0,
2026-04-12 03:50:00,METAR LTBA 120350Z 05003KT CAVOK 07/01 Q1019 RMK RWY23 00000KT,1,0,0,9999,0,0,0,
2026-04-12 03:20:00,METAR LTBA 120320Z VRB02KT CAVOK 08/01 Q1019 RMK RWY23 00000KT,1,0,0,9999,0,0,0,
2026-04-12 02:50:00,METAR LTBA 120250Z 35003KT CAVOK 08/02 Q1019 RMK RWY23 34003KT,1,0,0,9999,0,0,0,
2026-04-12 02:20:00,METAR LTBA 120220Z 00000KT CAVOK 08/02 Q1019 RMK RWY23 00000KT,1,0,0,9999,0,0,0,
2026-04-12 01:50:00,METAR LTBA 120150Z 01002KT CAVOK 08/02 Q1019 RMK RWY23 00000KT,1,0,0,9999,0,0,0,
2026-04-12 01:20:00,METAR LTBA 120120Z 00000KT CAVOK 08/02 Q1019 RMK RWY23 00000KT,1,0,0,9999,0,0,0,
2026-04-12 00:50:00,METAR LTBA 120050Z 36002KT CAVOK 08/02 Q1019 RMK RWY23 05002KT,1,0,0,9999,0,0,0,
2026-04-12 00:20:00,METAR LTBA 120020Z 35004KT 320V040 CAVOK 08/02 Q1019 RMK RWY23 01003KT 340V040,1,0,0,9999,0,0,0,
2026-04-11 23:50:00,METAR LTBA 112350Z 10004KT CAVOK 08/01 Q1019 RMK RWY23 09001KT,1,0,0,9999,0,0,0,
2026-04-11 23:20:00,METAR LTBA 112320Z 03003KT CAVOK 08/00 Q1019 RMK RWY23 07001KT,1,0,0,9999,0,0,0,
2026-04-11 22:50:00,METAR LTBA 112250Z 35003KT 330V040 CAVOK 09/01 Q1019 RMK RWY23 35002KT,1,0,0,9999,0,0,0,
2026-04-11 22:20:00,METAR LTBA 112220Z 04005KT CAVOK 09/01 Q1019 RMK RWY23 03002KT,1,0,0,9999,0,0,0,
2026-04-11 21:50:00,METAR LTBA 112150Z 06005KT CAVOK 08/01 Q1019 RMK RWY23 07004KT,1,0,0,9999,0,0,0,
2026-04-11 21:20:00,METAR LTBA 112120Z 06005KT CAVOK 07/00 Q1019 RMK RWY23 06003KT,1,0,0,9999,0,0,0,
2026-04-11 20:50:00,METAR LTBA 112050Z 07004KT CAVOK 08/00 Q1019 RMK RWY23 08004KT,1,0,0,9999,0,0,0,
2026-04-11 20:20:00,METAR LTBA 112020Z VRB02KT CAVOK 09/01 Q1019 RMK RWY23 08003KT,1,0,0,9999,0,0,0,
2026-04-11 19:50:00,METAR LTBA 111950Z 06005KT CAVOK 08/01 Q1019 RMK RWY23 08002KT,1,0,0,9999,0,0,0,
2026-04-11 19:20:00,METAR LTBA 111920Z 06006KT CAVOK 08/00 Q1019 RMK RWY23 05003KT,1,0,0,9999,0,0,0,
2026-04-11 18:50:00,METAR LTBA 111850Z 05006KT CAVOK 09/M00 Q1019 RMK RWY23 06004KT,1,0,0,9999,0,0,0,
2026-04-11 18:20:00,METAR LTBA 111820Z 06009KT CAVOK 10/00 Q1019 RMK RWY23 07008KT,1,0,0,9999,0,0,0,
2026-04-11 17:50:00,METAR LTBA 111750Z 06008KT CAVOK 10/00 Q1019 RMK RWY23 07008KT,1,0,0,9999,0,0,0,
2026-04-11 17:20:00,METAR LTBA 111720Z 04008KT CAVOK 10/M00 Q1019 RMK RWY23 04006KT,1,0,0,9999,0,0,0,
2026-04-11 16:50:00,METAR LTBA 111650Z 05008KT CAVOK 11/M00 Q1018 RMK RWY23 05006KT,1,0,0,9999,0,0,0,
2026-04-11 16:20:00,METAR LTBA 111620Z 04007KT CAVOK 12/M00 Q1018 RMK RWY23 05006KT,1,0,0,9999,0,0,0,
2026-04-11 15:50:00,METAR LTBA 111550Z 09005KT 040V140 CAVOK 12/01 Q1018 RMK RWY23 05005KT 020V080,1,0,0,9999,0,0,0,
2026-04-11 15:20:00,METAR LTBA 111520Z 08006KT 020V110 CAVOK 12/M00 Q1018 RMK RWY23 06004KT 020V100,1,0,0,9999,0,0,0,
2026-04-11 14:50:00,METAR LTBA 111450Z 07007KT 040V110 CAVOK 13/01 Q1018 RMK RWY23 05007KT,1,0,0,9999,0,0,0,
2026-04-11 14:20:00,METAR LTBA 111420Z 05008KT 9999 FEW040 13/01 Q1018 RMK RWY23 06009KT 020V100,0,8,0,10000,0,0,0,
2026-04-11 13:50:00,METAR LTBA 111350Z 04010KT 360V070 9999 FEW040 13/02 Q1018 RMK RWY23 01009KT,0,10,0,10000,0,0,0,
2026-04-11 13:20:00,METAR LTBA 111320Z 01012KT 340V040 9999 BKN035 12/03 Q1019 RMK RWY23 36011KT,0,12,0,10000,0,0,0,
2026-04-11 12:50:00,METAR LTBA 111250Z 25005KT 220V280 9999 BKN035 11/01 Q1019 RMK RWY23 28004KT 180V340,0,5,0,10000,0,0,0,
2026-04-11 12:20:00,METAR LTBA 111220Z 24007KT 210V270 9999 BKN035 12/04 Q1019 RMK RWY23 27007KT,0,7,0,10000,0,0,0,
2026-04-11 11:50:00,METAR LTBA 111150Z 24007KT 200V260 9999 SCT035 12/04 Q1020 RMK RWY23 23007KT,0,7,0,10000,0,0,0,
2026-04-11 11:20:00,METAR LTBA 111120Z 22006KT 190V250 9999 SCT035 12/02 Q1020 RMK RWY23 23007KT,0,6,0,10000,0,0,0,
2026-04-11 10:50:00,METAR LTBA 111050Z 22006KT 180V260 9999 SCT035 11/03 Q1020 RMK RWY23 22007KT 200V260,0,6,0,10000,0,0,0,
2026-04-11 10:20:00,METAR LTBA 111020Z 21007KT 180V240 9999 SCT032 BKN180 11/04 Q1020 RMK RWY23 17006KT 140V220,0,7,0,10000,0,0,0,
2026-04-11 09:50:00,METAR LTBA 110950Z 18006KT 130V220 9999 SCT032 BKN180 11/04 Q1020 RMK RWY23 17006KT 120V200,0,6,0,10000,0,0,0,
2026-04-11 09:20:00,METAR LTBA 110920Z 15004KT 100V190 9999 SCT032 BKN180 11/04 Q1020 RMK RWY23 17004KT 100V220,0,4,0,10000,0,0,0,
2026-04-11 08:50:00,METAR LTBA 110850Z 15004KT 100V190 9999 SCT032 BKN180 10/04 Q1021 RMK RWY23 16004KT 110V200,0,4,0,10000,0,0,0,
2026-04-11 08:20:00,METAR LTBA 110820Z 14005KT 090V180 9999 FEW040 BKN200 10/04 Q1021 RMK RWY23 16004KT 110V220,0,5,0,10000,0,0,0,
2026-04-11 07:50:00,METAR LTBA 110750Z 15006KT 110V180 9999 FEW040 BKN200 09/04 Q1021 RMK RWY23 14005KT 100V170,0,6,0,10000,0,0,0,
2026-04-11 07:20:00,METAR LTBA 110720Z 10005KT 060V130 CAVOK 09/03 Q1021 RMK RWY23 13005KT 090V170,1,0,0,9999,0,0,0,
2026-04-11 06:50:00,METAR LTBA 110650Z 08006KT 040V100 CAVOK 09/03 Q1021 RMK RWY23 14005KT 100V180,1,0,0,9999,0,0,0,
2026-04-11 06:20:00,METAR LTBA 110620Z 08004KT CAVOK 09/03 Q1020 RMK RWY23 12004KT 080V160,1,0,0,9999,0,0,0,
2026-04-11 05:50:00,METAR LTBA 110550Z 09005KT CAVOK 08/03 Q1020 RMK RWY23 12004KT,1,0,0,9999,0,0,0,
2026-04-11 05:20:00,METAR LTBA 110520Z 07003KT 020V100 CAVOK 09/03 Q1020 RMK RWY23 VRB02KT,1,0,0,9999,0,0,0,
2026-04-11 04:50:00,METAR LTBA 110450Z 07003KT CAVOK 08/05 Q1020 RMK RWY23 VRB01KT,1,0,0,9999,0,0,0,
2026-04-11 04:20:00,METAR LTBA 110420Z 00000KT CAVOK 07/05 Q1020 RMK RWY23 VRB02KT,1,0,0,9999,0,0,0,
2026-04-11 03:50:00,METAR LTBA 110350Z 02002KT CAVOK 04/04 Q1020 RMK RWY23 00000KT,1,0,0,9999,0,0,0,
2026-04-11 03:20:00,METAR LTBA 110320Z 35004KT CAVOK 04/04 Q1020 RMK RWY23 02002KT,1,0,0,9999,0,0,0,
2026-04-11 02:50:00,METAR LTBA 110250Z 36004KT CAVOK 05/04 Q1020 RMK RWY23 00000KT,1,0,0,9999,0,0,0,
2026-04-11 02:20:00,METAR LTBA 110220Z 36001KT CAVOK 05/04 Q1020 RMK RWY23 36002KT,1,0,0,9999,0,0,0,
2026-04-11 01:50:00,METAR LTBA 110150Z 01003KT CAVOK 04/03 Q1020 RMK RWY23 35003KT,1,0,0,9999,0,0,0,
2026-04-11 01:20:00,METAR LTBA 110120Z 35004KT CAVOK 04/03 Q1020 RMK RWY23 36001KT,1,0,0,9999,0,0,0,
2026-04-11 00:50:00,METAR LTBA 110050Z VRB02KT CAVOK 05/04 Q1020 RMK RWY23 06002KT,1,0,0,9999,0,0,0,
2026-04-11 00:20:00,METAR LTBA 110020Z 07004KT CAVOK 04/04 Q1020 RMK RWY23 00000KT,1,0,0,9999,0,0,0,
2026-04-10 23:50:00,METAR LTBA 102350Z 03004KT CAVOK 05/05 Q1020 RMK RWY23 00000KT,1,0,0,9999,0,0,0,
2026-04-10 23:20:00,METAR LTBA 102320Z 05004KT CAVOK 05/04 Q1020 RMK RWY23 00000KT,1,0,0,9999,0,0,0,
2026-04-10 22:50:00,METAR LTBA 102250Z 05005KT CAVOK 05/04 Q1020 RMK RWY23 05003KT,1,0,0,9999,0,0,0,
2026-04-10 22:20:00,METAR LTBA 102220Z 06005KT CAVOK 05/03 Q1020 RMK RWY23 VRB02KT,1,0,0,9999,0,0,0,
2026-04-10 21:50:00,METAR LTBA 102150Z 05004KT CAVOK 06/04 Q1020 RMK RWY23 00000KT,1,0,0,9999,0,0,0,
2026-04-10 21:20:00,METAR LTBA 102120Z 07005KT CAVOK 06/04 Q1020 RMK RWY23 VRB02KT,1,0,0,9999,0,0,0,
2026-04-10 20:50:00,METAR LTBA 102050Z 04005KT CAVOK 05/03 Q1020 RMK RWY23 05003KT,1,0,0,9999,0,0,0,
2026-04-10 20:20:00,METAR LTBA 102020Z 03005KT CAVOK 06/04 Q1020 RMK RWY23 03004KT,1,0,0,9999,0,0,0,
2026-04-10 19:50:00,METAR LTBA 101950Z 06005KT CAVOK 06/03 Q1020 RMK RWY23 05004KT,1,0,0,9999,0,0,0,
2026-04-10 19:20:00,METAR LTBA 101920Z 04006KT CAVOK 06/04 Q1020 RMK RWY23 05006KT,1,0,0,9999,0,0,0,
2026-04-10 18:50:00,METAR LTBA 101850Z 03006KT CAVOK 07/03 Q1020 RMK RWY23 /////KT,1,0,0,9999,0,0,0,
2026-04-10 18:20:00,METAR LTBA 101820Z 03007KT 9999 FEW025 SCT080 07/03 Q1020 RMK RWY23 /////KT,0,7,0,10000,0,0,0,
2026-04-10 17:50:00,METAR LTBA 101750Z 03007KT 9999 FEW025 SCT080 07/03 Q1020 RMK RWY23 /////KT,0,7,0,10000,0,0,0,
2026-04-10 17:20:00,METAR LTBA 101720Z 03008KT 9999 FEW025 SCT080 08/02 Q1019 RMK RWY23 /////KT,0,8,0,10000,0,0,0,
2026-04-10 16:50:00,METAR LTBA 101650Z 01008KT 9999 FEW025 SCT080 08/02 Q1019 RMK RWY23 02007KT,0,8,0,10000,0,0,0,
2026-04-10 16:20:00,METAR LTBA 101620Z 01008KT 9999 SCT025 BKN080 08/02 Q1019 RMK RWY23 35007KT,0,8,0,10000,0,0,0,
2026-04-10 15:50:00,METAR LTBA 101550Z 01008KT 9999 SCT025 BKN080 09/03 Q1019 RMK RWY23 01007KT 350V050,0,8,0,10000,0,0,0,
2026-04-10 15:20:00,METAR LTBA 101520Z 01007KT 9999 SCT025 BKN080 09/03 Q1018 RMK RWY23 01006KT 340V070,0,7,0,10000,0,0,0,
2026-04-10 14:50:00,METAR LTBA 101450Z 36007KT 330V030 9999 SCT025 BKN070 09/03 Q1018 RMK RWY23 02005KT 350V060,0,7,0,10000,0,0,0,
2026-04-10 14:20:00,METAR LTBA 101420Z 01004KT 330V050 9999 BKN023 BKN070 09/04 Q1018 RESHRA RMK RWY23 35004KT 300V060,0,4,0,10000,0,0,0,RA
2026-04-10 13:50:00,METAR LTBA 101350Z 04005KT 360V060 9999 -SHRA BKN023 BKN060 09/04 Q1018 RMK RWY23 03004KT 360V070,0,5,0,10000,0,0,0,RA
2026-04-10 13:20:00,METAR LTBA 101320Z 02006KT 340V060 9999 FEW018TCU BKN025 09/04 Q1018 RESHRA RMK RWY23 02004KT 340V070,0,6,0,10000,0,0,0,RA
2026-04-10 12:50:00,METAR LTBA 101250Z 34005KT 300V360 9999 -SHRA FEW018TCU BKN025 08/05 Q1018 RMK RWY23 07003KT 010V160,0,5,0,10000,0,0,0,RA
2026-04-10 12:20:00,METAR LTBA 101220Z 34006KT 9999 -SHRA FEW018TCU BKN030 08/05 Q1018 RMK RWY23 03004KT 360V060,0,6,0,10000,0,0,0,RA
2026-04-10 11:50:00,METAR LTBA 101150Z 35008KT 7000 -SHRA FEW018CB BKN025 08/04 Q1018 RMK RWY23 02004KT 310V090,0,8,0,7000,0,0,0,RA
2026-04-10 11:20:00,METAR LTBA 101120Z 01007KT 7000 -SHRA FEW018CB BKN025 08/04 Q1018 RMK RWY23 03005KT 010V080,0,7,0,7000,0,0,0,RA
2026-04-10 11:06:00,SPECI LTBA 101106Z 36007KT 320V050 7000 VCTS -SHRA FEW018CB BKN025 07/05 Q1018 RETSRA,0,7,0,7000,1,0,0,"RA,TS,VC"
2026-04-10 10:50:00,METAR LTBA 101050Z 36007KT 320V050 6000 -TSRA FEW018CB BKN023 07/05 Q1018 RMK RWY23 35007G17KT 280V040,0,7,0,6000,1,0,0,RA
2026-04-10 10:20:00,METAR LTBA 101020Z 36009KT 6000 -TSRA FEW018CB BKN025 07/06 Q1018 RETSRA RMK RWY23 35006KT 310V010,0,9,0,6000,1,0,0,RA
2026-04-10 09:50:00,METAR LTBA 100950Z 02009KT 2500 TSRA FEW018CB BKN025 06/05 Q1018 RMK RWY23 02008KT,0,9,0,2500,1,0,0,"RA,TS"
2026-04-10 09:48:00,SPECI LTBA 100948Z 02009KT 4000 TSRA FEW018CB BKN025 06/05 Q1018,0,9,0,4000,1,0,0,"RA,TS"
2026-04-10 09:38:00,SPECI LTBA 100938Z 05012KT 6000 -TSRA FEW018CB BKN025 06/05 Q1017 RETSRA,0,12,0,6000,1,0,0,RA
2026-04-10 09:32:00,SPECI LTBA 100932Z 05012KT 5000 TSRA FEW018CB BKN025 06/05 Q1017,0,12,0,5000,1,0,0,"RA,TS"
2026-04-10 09:20:00,METAR LTBA 100920Z 05012KT 2500 TSRA FEW018CB BKN025 06/05 Q1017 RMK RWY23 03007KT,0,12,0,2500,1,0,0,"RA,TS"
2026-04-10 09:11:00,SPECI LTBA 100911Z 06011KT 2500 TSRA FEW018CB BKN025 06/05 Q1017,0,11,0,2500,1,0,0,"RA,TS"
2026-04-10 08:56:00,SPECI LTBA 100856Z 05010KT 030V090 4000 TSRA FEW018CB BKN025 07/04 Q1017,0,10,0,4000,1,0,0,"RA,TS"
2026-04-10 08:50:00,METAR LTBA 100850Z 05010KT 030V090 6000 SHRA FEW018CB BKN025 07/04 Q1017 RMK RWY23 05007KT 360V090,0,10,0,6000,0,0,0,"RA,SH"
2026-04-10 08:45:00,SPECI LTBA 100845Z 08006KT 030V130 6000 SHRA VCTS FEW020CB BKN035 08/05 Q1017,0,6,0,6000,1,0,0,"RA,SH,TS,VC"
2026-04-10 08:26:00,SPECI LTBA 100826Z 18004KT 130V220 7000 VCTS -SHRA FEW018CB BKN035 09/04 Q1017,0,4,0,7000,1,0,0,"RA,TS,VC"
2026-04-10 08:20:00,METAR LTBA 100820Z 18004KT 130V220 7000 -SHRA FEW018CB BKN035 09/04 Q1017 RMK RWY23 18006KT 120V220,0,4,0,7000,0,0,0,RA
2026-04-10 08:10:00,SPECI LTBA 100810Z 14005KT 100V200 9999 -SHRA FEW020TCU BKN035 10/03 Q1017,0,5,0,10000,0,0,0,RA
2026-04-10 07:50:00,METAR LTBA 100750Z 14005KT 100V200 9999 VCSH FEW020TCU BKN035 10/03 Q1017 RMK RWY23 14006KT 110V170,0,5,0,10000,0,0,0,"SH,VC"
2026-04-10 07:20:00,METAR LTBA 100720Z 14004KT 060V190 9999 VCSH FEW020TCU BKN035 09/03 Q1017 RMK RWY23 13005KT 100V160,0,4,0,10000,0,0,0,"SH,VC"
2026-04-10 06:50:00,METAR LTBA 100650Z VRB03KT 9999 FEW020TCU SCT035 BKN070 10/03 Q1016 RMK RWY23 12005KT,0,3,0,10000,0,0,0,
2026-04-10 06:20:00,METAR LTBA 100620Z 22004KT 140V280 9999 FEW020TCU SCT035 BKN100 10/06 Q1016 RMK RWY23 15005KT 110V210,0,4,0,10000,0,0,0,
2026-04-10 05:50:00,METAR LTBA 100550Z 09003KT 040V150 9999 FEW020TCU SCT035 BKN100 10/02 Q1016 RMK RWY23 VRB02KT,0,3,0,10000,0,0,0,
2026-04-10 05:20:00,METAR LTBA 100520Z VRB02KT 9999 SCT035 BKN100 10/04 Q1016 RMK RWY23 VRB01KT,0,2,0,10000,0,0,0,
2026-04-10 04:50:00,METAR LTBA 100450Z 35004KT 9999 SCT035 BKN100 08/04 Q1016 RMK RWY23 00000KT,0,4,0,10000,0,0,0,
2026-04-10 04:20:00,METAR LTBA 100420Z 33003KT 9999 SCT035 BKN100 07/04 Q1016 RMK RWY23 VRB01KT,0,3,0,10000,0,0,0,
2026-04-10 03:50:00,METAR LTBA 100350Z 34005KT 9999 SCT035 BKN100 06/03 Q1016 RMK RWY23 00000KT,0,5,0,10000,0,0,0,
2026-04-10 03:20:00,METAR LTBA 100320Z 31003KT 240V340 9999 SCT035 BKN100 06/03 Q1016 RMK RWY23 00000KT,0,3,0,10000,0,0,0,
2026-04-10 02:50:00,METAR LTBA 100250Z VRB01KT 9999 SCT035 BKN100 06/03 Q1016 RMK RWY23 00000KT,0,1,0,10000,0,0,0,
2026-04-10 02:20:00,METAR LTBA 100220Z 33004KT 9999 SCT035 BKN100 07/02 Q1015 RMK RWY23 00000KT,0,4,0,10000,0,0,0,
2026-04-10 01:50:00,METAR LTBA 100150Z 33003KT 9999 SCT035 BKN100 07/02 Q1016 RMK RWY23 00000KT,0,3,0,10000,0,0,0,
2026-04-10 01:20:00,METAR LTBA 100120Z VRB01KT 9999 SCT035 BKN100 06/02 Q1016 RMK RWY23 VRB01KT,0,1,0,10000,0,0,0,
2026-04-10 00:50:00,METAR LTBA 100050Z 01004KT 330V070 9999 SCT035 BKN100 08/02 Q1016 RMK RWY23 36004KT 340V050,0,4,0,10000,0,0,0,
2026-04-10 00:20:00,METAR LTBA 100020Z 36005KT 9999 SCT035 BKN100 08/02 Q1016 RMK RWY23 34004KT,0,5,0,10000,0,0,0,
2026-04-09 23:50:00,METAR LTBA 092350Z 35008KT 9999 SCT035 BKN100 08/03 Q1016 RMK RWY23 36007KT,0,8,0,10000,0,0,0,
2026-04-09 23:20:00,METAR LTBA 092320Z 36008KT 9999 SCT035 BKN100 08/04 Q1016 RMK RWY23 34006KT,0,8,0,10000,0,0,0,
2026-04-09 22:50:00,METAR LTBA 092250Z 35007KT 9999 SCT035 BKN100 09/04 Q1016 RMK RWY23 01005KT 330V050,0,7,0,10000,0,0,0,
2026-04-09 22:20:00,METAR LTBA 092220Z 35006KT 9999 SCT035 BKN100 09/04 Q1016 RMK RWY23 02006KT 340V060,0,6,0,10000,0,0,0,
2026-04-09 21:50:00,METAR LTBA 092150Z 34005KT 320V020 9999 SCT035 BKN100 09/04 Q1016 RMK RWY23 35004KT,0,5,0,10000,0,0,0,
2026-04-09 21:20:00,METAR LTBA 092120Z 01006KT 9999 SCT035 BKN100 09/04 Q1016 RMK RWY23 02004KT,0,6,0,10000,0,0,0,
2026-04-09 20:50:00,METAR LTBA 092050Z 36006KT 9999 SCT035 BKN100 09/04 Q1016 RMK RWY23 03006KT,0,6,0,10000,0,0,0,
2026-04-09 20:20:00,METAR LTBA 092020Z 03006KT 360V060 9999 SCT035 BKN100 09/04 Q1015 RMK RWY23 03007KT,0,6,0,10000,0,0,0,
2026-04-09 19:50:00,METAR LTBA 091950Z 05006KT 9999 SCT035 BKN100 08/04 Q1015 RMK RWY23 05006KT,0,6,0,10000,0,0,0,
2026-04-09 19:20:00,METAR LTBA 091920Z 03008KT 9999 SCT035 BKN090 09/04 Q1015 RMK RWY23 04008KT,0,8,0,10000,0,0,0,
2026-04-09 18:50:00,METAR LTBA 091850Z 36008KT 9999 SCT035 BKN090 09/03 Q1015 RMK RWY23 01006KT,0,8,0,10000,0,0,0,
2026-04-09 18:20:00,METAR LTBA 091820Z 01007KT 9999 SCT035 BKN090 10/03 Q1015 RMK RWY23 02006KT 340V040,0,7,0,10000,0,0,0,
2026-04-09 17:50:00,METAR LTBA 091750Z 04008KT 9999 SCT035 BKN100 10/04 Q1015 RMK RWY23 05006KT 020V080,0,8,0,10000,0,0,0,
2026-04-09 17:20:00,METAR LTBA 091720Z 04007KT 360V080 9999 SCT035 BKN090 10/04 Q1015 RESHRA RMK RWY23 08005KT,0,7,0,10000,0,0,0,RA
2026-04-09 16:50:00,METAR LTBA 091650Z 31006KT 9999 -SHRA SCT035 BKN090 09/05 Q1015 RMK RWY23 29006KT,0,6,0,10000,0,0,0,RA
2026-04-09 16:20:00,METAR LTBA 091620Z 29011KT 9999 -SHRA SCT035 BKN090 10/04 Q1015 RMK RWY23 29010KT,0,11,0,10000,0,0,0,RA
2026-04-09 15:50:00,METAR LTBA 091550Z 27011KT 9999 -SHRA SCT035 BKN090 10/05 Q1015 RMK RWY23 26008KT 230V290,0,11,0,10000,0,0,0,RA
2026-04-09 15:39:00,SPECI LTBA 091539Z 24006KT 210V280 9999 -SHRA BKN035 BKN090 10/04 Q1015,0,6,0,10000,0,0,0,RA
2026-04-09 15:20:00,METAR LTBA 091520Z 20005KT 9999 SCT035 BKN100 11/04 Q1015 RMK RWY23 20004KT,0,5,0,10000,0,0,0,
2026-04-09 14:50:00,METAR LTBA 091450Z 20005KT 170V230 9999 SCT035 BKN100 11/03 Q1015 RMK RWY23 22004KT 180V250,0,5,0,10000,0,0,0,
2026-04-09 14:20:00,METAR LTBA 091420Z 18005KT 130V210 9999 SCT035 BKN100 11/03 Q1015 RMK RWY23 19004KT 150V230,0,5,0,10000,0,0,0,
2026-04-09 13:50:00,METAR LTBA 091350Z 18008KT 140V200 9999 SCT035 BKN100 11/03 Q1015 RMK RWY23 19006KT,0,8,0,10000,0,0,0,
2026-04-09 13:20:00,METAR LTBA 091320Z 18008KT 150V210 9999 SCT035 BKN100 12/03 Q1015 RMK RWY23 18007KT,0,8,0,10000,0,0,0,
2026-04-09 12:50:00,METAR LTBA 091250Z 17006KT 120V210 9999 SCT035 BKN090 12/04 Q1015 RMK RWY23 21006KT 160V240,0,6,0,10000,0,0,0,
2026-04-09 12:20:00,METAR LTBA 091220Z VRB05KT 9999 SCT035 BKN090 13/04 Q1015 RMK RWY23 VRB04KT,0,5,0,10000,0,0,0,
2026-04-09 11:50:00,METAR LTBA 091150Z 34014KT 9999 SCT035 BKN090 12/03 Q1015 RMK RWY23 34012KT,0,14,0,10000,0,0,0,
2026-04-09 11:20:00,METAR LTBA 091120Z 03005KT 330V090 9999 SCT030 BKN090 13/02 Q1016 RMK RWY23 33006KT 250V030,0,5,0,10000,0,0,0,
2026-04-09 10:50:00,METAR LTBA 091050Z 03005KT 320V070 9999 SCT030 BKN090 11/03 Q1016 RESHRA RMK RWY23 05005KT 330V100,0,5,0,10000,0,0,0,RA
2026-04-09 10:20:00,METAR LTBA 091020Z 35012KT 9999 -SHRA SCT030 BKN090 11/02 Q1016 RMK RWY23 01010KT,0,12,0,10000,0,0,0,RA
2026-04-09 10:10:00,SPECI LTBA 091010Z 01010KT 9999 -SHRA SCT030 BKN090 11/02 Q1016,0,10,0,10000,0,0,0,RA
2026-04-09 09:50:00,METAR LTBA 090950Z 04008KT 350V080 9999 SCT030 BKN090 11/02 Q1016 RMK RWY23 05008KT 360V090,0,8,0,10000,0,0,0,
2026-04-09 09:20:00,METAR LTBA 090920Z 25004KT 220V280 9999 SCT030 BKN090 11/04 Q1016 RMK RWY23 VRB02KT,0,4,0,10000,0,0,0,
2026-04-09 08:50:00,METAR LTBA 090850Z 24009KT 9999 SCT030 BKN090 10/04 Q1016 RMK RWY23 25010KT,0,9,0,10000,0,0,0,
2026-04-09 08:20:00,METAR LTBA 090820Z 20005KT 160V230 9999 SCT040 BKN120 11/03 Q1015 RMK RWY23 17003KT 140V210,0,5,0,10000,0,0,0,
2026-04-09 07:50:00,METAR LTBA 090750Z 14003KT 090V220 9999 FEW040 BKN120 12/02 Q1015 RMK RWY23 14004KT 110V190,0,3,0,10000,0,0,0,
2026-04-09 07:20:00,METAR LTBA 090720Z 15005KT 120V190 9999 FEW040 BKN120 11/03 Q1015 RMK RWY23 14003KT 080V240,0,5,0,10000,0,0,0,
2026-04-09 06:50:00,METAR LTBA 090650Z 11004KT 060V150 CAVOK 11/02 Q1015 RMK RWY23 14004KT 100V180,1,0,0,9999,0,0,0,
2026-04-09 06:20:00,METAR LTBA 090620Z 13006KT CAVOK 10/02 Q1015 RMK RWY23 17005KT 130V210,1,0,0,9999,0,0,0,
2026-04-09 05:50:00,METAR LTBA 090550Z 08007KT CAVOK 10/00 Q1015 RMK RWY23 11006KT 080V140,1,0,0,9999,0,0,0,
2026-04-09 05:20:00,METAR LTBA 090520Z 07007KT CAVOK 10/01 Q1015 RMK RWY23 09006KT,1,0,0,9999,0,0,0,
2026-04-09 04:50:00,METAR LTBA 090450Z 07005KT 040V100 CAVOK 09/03 Q1015 RMK RWY23 04004KT 010V090,1,0,0,9999,0,0,0,
2026-04-09 04:20:00,METAR LTBA 090420Z 09007KT CAVOK 08/02 Q1015 RMK RWY23 10005KT 060V130,1,0,0,9999,0,0,0,
2026-04-09 03:50:00,METAR LTBA 090350Z 09005KT CAVOK 08/03 Q1015 RMK RWY23 07004KT 020V130,1,0,0,9999,0,0,0,
2026-04-09 03:20:00,METAR LTBA 090320Z 10006KT CAVOK 08/04 Q1015 RMK RWY23 11006KT,1,0,0,9999,0,0,0,
2026-04-09 02:50:00,METAR LTBA 090250Z 12006KT CAVOK 08/04 Q1015 RMK RWY23 12005KT,1,0,0,9999,0,0,0,
2026-04-09 02:20:00,METAR LTBA 090220Z 10006KT CAVOK 08/03 Q1016 RMK RWY23 11005KT,1,0,0,9999,0,0,0,
2026-04-09 01:50:00,METAR LTBA 090150Z 09006KT CAVOK 07/03 Q1016 RMK RWY23 10006KT,1,0,0,9999,0,0,0,
2026-04-09 01:20:00,METAR LTBA 090120Z 10006KT CAVOK 08/04 Q1016 RMK RWY23 10004KT 070V130,1,0,0,9999,0,0,0,
2026-04-09 00:50:00,METAR LTBA 090050Z 09006KT CAVOK 08/04 Q1017 RMK RWY23 09005KT,1,0,0,9999,0,0,0,
2026-04-09 00:20:00,METAR LTBA 090020Z 09006KT CAVOK 08/04 Q1017 RMK RWY23 10004KT 080V140,1,0,0,9999,0,0,0,
2026-04-08 23:50:00,METAR LTBA 082350Z 09005KT CAVOK 08/03 Q1017 RMK RWY23 10003KT 080V150,1,0,0,9999,0,0,0,
2026-04-08 23:20:00,METAR LTBA 082320Z 10006KT CAVOK 08/03 Q1017 RMK RWY23 10004KT 080V150,1,0,0,9999,0,0,0,
2026-04-08 22:50:00,METAR LTBA 082250Z 11005KT CAVOK 08/03 Q1018 RMK RWY23 11003KT 080V210,1,0,0,9999,0,0,0,
2026-04-08 22:20:00,METAR LTBA 082220Z 10006KT CAVOK 09/03 Q1018 RMK RWY23 11005KT 080V150,1,0,0,9999,0,0,0,
2026-04-08 21:50:00,METAR LTBA 082150Z 12007KT CAVOK 09/03 Q1018 RMK RWY23 13007KT,1,0,0,9999,0,0,0,
2026-04-08 21:20:00,METAR LTBA 082120Z 11007KT CAVOK 09/02 Q1018 RMK RWY23 12006KT,1,0,0,9999,0,0,0,
2026-04-08 20:50:00,METAR LTBA 082050Z 09007KT CAVOK 09/02 Q1018 RMK RWY23 10008KT,1,0,0,9999,0,0,0,
2026-04-08 20:20:00,METAR LTBA 082020Z 09008KT CAVOK 09/02 Q1018 RMK RWY23 09007KT,1,0,0,9999,0,0,0,
2026-04-08 19:50:00,METAR LTBA 081950Z 10008KT CAVOK 09/01 Q1019 RMK RWY23 10007KT 070V130,1,0,0,9999,0,0,0,
2026-04-08 19:20:00,METAR LTBA 081920Z 10008KT CAVOK 09/01 Q1019 RMK RWY23 09009KT,1,0,0,9999,0,0,0,
2026-04-08 18:50:00,METAR LTBA 081850Z 11008KT CAVOK 09/00 Q1019 RMK RWY23 11008KT 070V140,1,0,0,9999,0,0,0,
2026-04-08 18:20:00,METAR LTBA 081820Z 10006KT CAVOK 09/01 Q1019 RMK RWY23 10006KT,1,0,0,9999,0,0,0,
2026-04-08 17:50:00,METAR LTBA 081750Z 08009KT CAVOK 09/M00 Q1019 RMK RWY23 09008KT,1,0,0,9999,0,0,0,
2026-04-08 17:20:00,METAR LTBA 081720Z 06009KT CAVOK 09/M00 Q1018 RMK RWY23 07007KT,1,0,0,9999,0,0,0,
2026-04-08 16:50:00,METAR LTBA 081650Z 06011KT CAVOK 10/M01 Q1018 RMK RWY23 07010KT,1,0,0,9999,0,0,0,
2026-04-08 16:20:00,METAR LTBA 081620Z 06011KT CAVOK 10/00 Q1018 RMK RWY23 05010KT,1,0,0,9999,0,0,0,
2026-04-08 15:50:00,METAR LTBA 081550Z 05014KT CAVOK 11/00 Q1018 RMK RWY23 05013KT,1,0,0,9999,0,0,0,
2026-04-08 14:50:00,METAR LTBA 081450Z 01015KT CAVOK 11/00 Q1018 RMK RWY23 01015G25KT,1,0,0,9999,0,0,0,
2026-04-08 14:20:00,METAR LTBA 081420Z 02019KT 9999 FEW040 12/01 Q1017 RMK RWY23 02019KT 350V050,0,19,0,10000,0,0,0,
2026-04-08 13:50:00,METAR LTBA 081350Z 02020KT 9999 FEW040 12/01 Q1017 RMK RWY23 01017KT 340V040,0,20,0,10000,0,0,0,
2026-04-08 13:20:00,METAR LTBA 081320Z 02019KT 340V040 9999 SCT035 12/03 Q1017 RMK RWY23 01016G26KT 330V040,0,19,0,10000,0,0,0,
2026-04-08 12:50:00,METAR LTBA 081250Z 02021KT 9999 SCT035 BKN100 12/02 Q1017 RMK RWY23 01014KT 330V040,0,21,0,10000,0,0,0,
2026-04-08 12:20:00,METAR LTBA 081220Z 02017KT 9999 SCT035 BKN100 12/04 Q1017 RMK RWY23 02016G26KT,0,17,0,10000,0,0,0,
2026-04-08 11:50:00,METAR LTBA 081150Z 01019KT 9999 SCT030 BKN070 12/07 Q1017 RMK RWY23 01016KT 340V060,0,19,0,10000,0,0,0,
2026-04-08 11:20:00,METAR LTBA 081120Z 01015KT 9999 SCT030 BKN070 13/06 Q1016 RMK RWY23 01014KT,0,15,0,10000,0,0,0,
2026-04-08 10:50:00,METAR LTBA 081050Z 36014KT 9999 SCT030 BKN070 14/07 Q1015 RMK RWY23 35014KT,0,14,0,10000,0,0,0,
2026-04-08 10:20:00,METAR LTBA 081020Z 36015KT 9999 SCT030 BKN070 14/06 Q1014 RMK RWY23 36015KT 320V040,0,15,0,10000,0,0,0,
2026-04-08 09:50:00,METAR LTBA 080950Z 36013KT 9999 SCT030 BKN070 14/04 Q1014 RMK RWY23 34011KT 310V010,0,13,0,10000,0,0,0,
2026-04-08 09:20:00,METAR LTBA 080920Z 35011KT 9999 SCT030 BKN070 14/03 Q1013 RMK RWY23 33011KT,0,11,0,10000,0,0,0,
2026-04-08 08:50:00,METAR LTBA 080850Z 26014KT 9999 SCT030 BKN070 14/07 Q1013 RMK RWY23 26014KT,0,14,0,10000,0,0,0,
2026-04-08 08:20:00,METAR LTBA 080820Z 26014KT 9999 SCT030 BKN080 15/10 Q1013 RMK RWY23 26016KT,0,14,0,10000,0,0,0,
2026-04-08 07:50:00,METAR LTBA 080750Z 26015KT 9999 SCT030 BKN080 14/09 Q1012 RMK RWY23 26015KT,0,15,0,10000,0,0,0,
2026-04-08 07:20:00,METAR LTBA 080720Z 25012KT 9999 SCT030 BKN080 13/10 Q1012 RMK RWY23 25012KT,0,12,0,10000,0,0,0,
2026-04-08 06:50:00,METAR LTBA 080650Z 26009KT 9999 SCT030 BKN080 14/11 Q1012 RMK RWY23 26012KT,0,9,0,10000,0,0,0,
2026-04-08 06:20:00,METAR LTBA 080620Z 26008KT 7000 SCT030 BKN080 13/13 Q1012 RMK RWY23 25012KT,0,8,0,7000,0,0,0,
2026-04-08 05:50:00,METAR LTBA 080550Z 27010KT 5000 BR SCT030 BKN080 12/12 Q1012 RMK RWY23 27012KT,0,10,0,5000,0,0,1,BR
2026-04-08 05:20:00,METAR LTBA 080520Z 25010KT 4000 BR SCT030 BKN080 12/12 Q1012 RESHRA RMK RWY23 25012KT,0,10,0,4000,0,0,1,"BR,RA"
2026-04-08 04:50:00,METAR LTBA 080450Z 24006KT 3000 -SHRA BR SCT030 BKN080 12/12 Q1011 RMK RWY23 24006KT,0,6,0,3000,0,0,1,"BR,RA"
2026-04-08 04:37:00,SPECI LTBA 080437Z 27007KT 3000 -SHRA BR SCT030 BKN080 11/11 Q1011,0,7,0,3000,0,0,1,"BR,RA"
2026-04-08 04:20:00,METAR LTBA 080420Z 27007KT 5000 -SHRA BR SCT030 BKN080 11/11 Q1011 RMK RWY23 27004KT,0,7,0,5000,0,0,1,"BR,RA"
2026-04-08 03:59:00,SPECI LTBA 080359Z 27005KT 3000 -SHRA BR FEW020TCU SCT030 BKN080 12/12 Q1011,0,5,0,3000,0,0,1,"BR,RA"
2026-04-08 03:50:00,METAR LTBA 080350Z 27005KT 5000 -SHRA BR FEW020TCU SCT030 BKN080 12/12 Q1011 RESHRA RMK RWY23 28004KT,0,5,0,5000,0,0,1,"BR,RA"
2026-04-08 03:24:00,SPECI LTBA 080324Z 23005KT 5000 SHRA FEW020CB SCT030 BKN080 11/11 Q1011,0,5,0,5000,0,0,0,"RA,SH"
2026-04-08 03:20:00,METAR LTBA 080320Z 23005KT 5000 SHRA FEW020TCU SCT030 BKN080 11/11 Q1011 RMK RWY23 VRB01KT,0,5,0,5000,0,0,0,"RA,SH"
2026-04-08 03:00:00,SPECI LTBA 080300Z 20007KT 5000 SHRA FEW020TCU SCT030 BKN080 12/12 Q1011,0,7,0,5000,0,0,0,"RA,SH"
2026-04-08 02:50:00,METAR LTBA 080250Z 20007KT 6000 -SHRA SCT030 BKN080 12/12 Q1011 RMK RWY23 22006KT,0,7,0,6000,0,0,0,RA
2026-04-08 02:20:00,METAR LTBA 080220Z 11003KT 080V140 9999 -SHRA SCT030 BKN080 12/11 Q1011 RMK RWY23 18003KT 140V220,0,3,0,10000,0,0,0,RA
2026-04-08 01:50:00,METAR LTBA 080150Z 13005KT 090V170 9999 -SHRA SCT030 BKN080 12/11 Q1011 RMK RWY23 14004KT 080V180,0,5,0,10000,0,0,0,RA
2026-04-08 01:20:00,METAR LTBA 080120Z 09004KT 9999 -SHRA SCT030 BKN100 12/10 Q1012 RMK RWY23 12003KT 060V180,0,4,0,10000,0,0,0,RA
2026-04-08 01:01:00,SPECI LTBA 080101Z 00000KT 9999 -SHRA SCT030 BKN100 12/10 Q1012,0,0,0,10000,0,0,0,RA
2026-04-08 00:50:00,METAR LTBA 080050Z 00000KT 9999 SCT030 BKN100 12/10 Q1012 RMK RWY23 VRB01KT,0,0,0,10000,0,0,0,
2026-04-08 00:20:00,METAR LTBA 080020Z 15004KT 9999 SCT030 BKN100 12/10 Q1012 RMK RWY23 17005KT,0,4,0,10000,0,0,0,
2026-04-07 23:50:00,METAR LTBA 072350Z 14002KT 9999 SCT030 BKN100 12/10 Q1012 RMK RWY23 VRB02KT,0,2,0,10000,0,0,0,
2026-04-07 23:20:00,METAR LTBA 072320Z VRB02KT 9999 SCT030 BKN100 13/10 Q1013 RMK RWY23 17002KT,0,2,0,10000,0,0,0,
2026-04-07 22:50:00,METAR LTBA 072250Z 09004KT 9999 SCT030 BKN100 12/10 Q1013 RESHRA RMK RWY23 VRB02KT,0,4,0,10000,0,0,0,RA
2026-04-07 22:20:00,METAR LTBA 072220Z VRB02KT 9999 -SHRA SCT030 BKN100 13/10 Q1013 RMK RWY23 19002KT,0,2,0,10000,0,0,0,RA
2026-04-07 21:50:00,METAR LTBA 072150Z 07004KT 9999 -SHRA SCT030 BKN100 13/08 Q1014 RMK RWY23 08003KT,0,4,0,10000,0,0,0,RA
2026-04-07 21:20:00,METAR LTBA 072120Z 04004KT 9999 -SHRA SCT030 BKN100 13/08 Q1014 RMK RWY23 05004KT 020V080,0,4,0,10000,0,0,0,RA
2026-04-07 20:50:00,METAR LTBA 072050Z 06005KT 9999 SCT030 BKN100 13/07 Q1014 RESHRA RMK RWY23 07004KT,0,5,0,10000,0,0,0,RA
2026-04-07 20:20:00,METAR LTBA 072020Z 08003KT 9999 -SHRA SCT030 BKN100 13/07 Q1014 RMK RWY23 08003KT 040V120,0,3,0,10000,0,0,0,RA
2026-04-07 19:50:00,METAR LTBA 071950Z 07006KT 9999 -SHRA SCT030 BKN100 13/07 Q1015 RMK RWY23 06005KT 030V100,0,6,0,10000,0,0,0,RA
2026-04-07 19:20:00,METAR LTBA 071920Z 09006KT 060V130 9999 -SHRA SCT030 BKN100 14/07 Q1015 RMK RWY23 08005KT 050V120,0,6,0,10000,0,0,0,RA
2026-04-07 18:50:00,METAR LTBA 071850Z 05009KT 9999 SCT030 BKN080 13/08 Q1015 RESHRA RMK RWY23 06008KT,0,9,0,10000,0,0,0,RA
2026-04-07 18:20:00,METAR LTBA 071820Z 05007KT 9999 -SHRA SCT030 BKN080 13/08 Q1015 RMK RWY23 05007KT,0,7,0,10000,0,0,0,RA
2026-04-07 17:50:00,METAR LTBA 071750Z 02007KT 9999 -SHRA SCT030 BKN100 14/08 Q1015 RMK RWY23 03006KT,0,7,0,10000,0,0,0,RA
2026-04-07 17:20:00,METAR LTBA 071720Z 04008KT 010V080 9999 SCT030 BKN100 14/09 Q1015 RMK RWY23 04008KT,0,8,0,10000,0,0,0,
2026-04-07 16:50:00,METAR LTBA 071650Z 23003KT 200V260 9999 SCT030 BKN100 14/09 Q1015 RMK RWY23 25003KT 200V330,0,3,0,10000,0,0,0,
2026-04-07 16:20:00,METAR LTBA 071620Z VRB01KT 9999 BKN030 BKN090 15/09 Q1015 RMK RWY23 VRB02KT,0,1,0,10000,0,0,0,
2026-04-07 15:50:00,METAR LTBA 071550Z 09004KT 9999 SCT028 BKN090 15/10 Q1014 RESHRA RMK RWY23 10004KT 070V130,0,4,0,10000,0,0,0,RA
2026-04-07 15:20:00,METAR LTBA 071520Z 11003KT 070V160 9999 -SHRA SCT028 BKN090 15/08 Q1015 RMK RWY23 14003KT 100V190,0,3,0,10000,0,0,0,RA
2026-04-07 14:50:00,METAR LTBA 071450Z 11004KT 9999 SCT028 BKN090 15/08 Q1015 RMK RWY23 13005KT,0,4,0,10000,0,0,0,
2026-04-07 14:20:00,METAR LTBA 071420Z 13005KT 090V160 9999 SCT028 BKN080 15/08 Q1015 RMK RWY23 13006KT,0,5,0,10000,0,0,0,
2026-04-07 13:50:00,METAR LTBA 071350Z 13006KT CAVOK 15/09 Q1015 RMK RWY23 13007KT 110V170,1,0,0,9999,0,0,0,
2026-04-07 13:20:00,METAR LTBA 071320Z 14007KT CAVOK 15/08 Q1016 RMK RWY23 13007KT 090V180,1,0,0,9999,0,0,0,
2026-04-07 12:50:00,METAR LTBA 071250Z 15006KT 130V190 CAVOK 16/09 Q1017 RMK RWY23 15006KT 120V190,1,0,0,9999,0,0,0,
2026-04-07 12:20:00,METAR LTBA 071220Z 15006KT 130V200 CAVOK 16/09 Q1017 RMK RWY23 14006KT 110V170,1,0,0,9999,0,0,0,
2026-04-07 11:50:00,METAR LTBA 071150Z 15006KT 110V180 CAVOK 16/09 Q1017 RMK RWY23 14007KT,1,0,0,9999,0,0,0,
2026-04-07 11:20:00,METAR LTBA 071120Z VRB03KT CAVOK 18/10 Q1018 RMK RWY23 14009KT,1,0,0,9999,0,0,0,
2026-04-07 10:50:00,METAR LTBA 071050Z 33005KT 270V020 CAVOK 17/09 Q1018 RMK RWY23 29005KT 240V340,1,0,0,9999,0,0,0,
2026-04-07 10:20:00,METAR LTBA 071020Z 35007KT 310V020 CAVOK 16/09 Q1018 RMK RWY23 VRB06KT,1,0,0,9999,0,0,0,
2026-04-07 09:50:00,METAR LTBA 070950Z 36007KT 320V040 9999 FEW025 16/09 Q1019 RMK RWY23 32007KT 280V010,0,7,0,10000,0,0,0,
2026-04-07 09:20:00,METAR LTBA 070920Z 35007KT 310V030 9999 FEW024 SCT100 15/09 Q1019 RMK RWY23 02006KT 330V100,0,7,0,10000,0,0,0,
2026-04-07 08:50:00,METAR LTBA 070850Z 02008KT 350V050 9999 FEW024 SCT100 15/09 Q1019 RMK RWY23 35007KT 320V020,0,8,0,10000,0,0,0,
2026-04-07 08:20:00,METAR LTBA 070820Z 35008KT 320V020 9999 FEW020 BKN100 15/09 Q1019 RMK RWY23 34009KT 300V360,0,8,0,10000,0,0,0,
2026-04-07 07:50:00,METAR LTBA 070750Z 33010KT CAVOK 15/10 Q1019 RMK RWY23 32008KT 290V350,1,0,0,9999,0,0,0,
2026-04-07 07:20:00,METAR LTBA 070720Z 23008KT 210V270 CAVOK 14/10 Q1019 RMK RWY23 24008KT,1,0,0,9999,0,0,0,
2026-04-07 06:50:00,METAR LTBA 070650Z 24007KT CAVOK 14/10 Q1019 RMK RWY23 25009KT,1,0,0,9999,0,0,0,
2026-04-07 06:20:00,METAR LTBA 070620Z 24006KT CAVOK 13/09 Q1018 RMK RWY23 24009KT,1,0,0,9999,0,0,0,
2026-04-07 05:50:00,METAR LTBA 070550Z 25007KT CAVOK 13/09 Q1019 RMK RWY23 26009KT,1,0,0,9999,0,0,0,
2026-04-07 05:20:00,METAR LTBA 070520Z 27011KT 8000 NSC 12/09 Q1019 RMK RWY23 29008KT,0,11,0,8000,0,0,0,
2026-04-07 04:50:00,METAR LTBA 070450Z 25008KT 8000 NSC 12/08 Q1018 RMK RWY23 26009KT,0,8,0,8000,0,0,0,
2026-04-07 04:20:00,METAR LTBA 070420Z 24008KT 8000 NSC 11/08 Q1018 RMK RWY23 25008KT,0,8,0,8000,0,0,0,
2026-04-07 03:50:00,METAR LTBA 070350Z 23007KT 8000 NSC 11/08 Q1018 RMK RWY23 25005KT,0,7,0,8000,0,0,0,
2026-04-07 03:20:00,METAR LTBA 070320Z 24007KT 8000 NSC 11/08 Q1018 RMK RWY23 25007KT,0,7,0,8000,0,0,0,
2026-04-07 02:50:00,METAR LTBA 070250Z 23007KT 8000 NSC 11/08 Q1017 RMK RWY23 24008KT,0,7,0,8000,0,0,0,
2026-04-07 02:20:00,METAR LTBA 070220Z 22007KT 8000 NSC 11/08 Q1017 RMK RWY23 23006KT,0,7,0,8000,0,0,0,
2026-04-07 01:50:00,METAR LTBA 070150Z 22008KT 8000 NSC 11/08 Q1017 RMK RWY23 23007KT,0,8,0,8000,0,0,0,
2026-04-07 01:20:00,METAR LTBA 070120Z 22008KT 8000 NSC 11/09 Q1017 RMK RWY23 23006KT,0,8,0,8000,0,0,0,
2026-04-07 00:50:00,METAR LTBA 070050Z 22006KT 8000 NSC 11/09 Q1018 RMK RWY23 24005KT,0,6,0,8000,0,0,0,
2026-04-07 00:20:00,METAR LTBA 070020Z 23006KT 8000 NSC 11/10 Q1018 RMK RWY23 23005KT,0,6,0,8000,0,0,0,
2026-04-06 23:50:00,METAR LTBA 062350Z 23006KT 8000 NSC 11/10 Q1018 RMK RWY23 24006KT,0,6,0,8000,0,0,0,
2026-04-06 23:20:00,METAR LTBA 062320Z 24005KT 8000 NSC 11/10 Q1018 RMK RWY23 24004KT,0,5,0,8000,0,0,0,
2026-04-06 22:50:00,METAR LTBA 062250Z 24006KT 8000 NSC 11/10 Q1019 RMK RWY23 25004KT,0,6,0,8000,0,0,0,
2026-04-06 22:20:00,METAR LTBA 062220Z 25006KT 8000 NSC 11/09 Q1019 RMK RWY23 25006KT,0,6,0,8000,0,0,0,
2026-04-06 21:50:00,METAR LTBA 062150Z 24006KT 8000 NSC 11/10 Q1019 RMK RWY23 25006KT,0,6,0,8000,0,0,0,
2026-04-06 21:20:00,METAR LTBA 062120Z 21008KT CAVOK 11/09 Q1019 RMK RWY23 23004KT,1,0,0,9999,0,0,0,
2026-04-06 20:50:00,METAR LTBA 062050Z 20003KT 160V240 CAVOK 11/07 Q1019 RMK RWY23 19003KT 130V220,1,0,0,9999,0,0,0,
2026-04-06 20:20:00,METAR LTBA 062020Z VRB02KT CAVOK 11/08 Q1019 RMK RWY23 14003KT 120V180,1,0,0,9999,0,0,0,
2026-04-06 19:50:00,METAR LTBA 061950Z 13004KT CAVOK 13/07 Q1019 RMK RWY23 14004KT,1,0,0,9999,0,0,0,
2026-04-06 19:20:00,METAR LTBA 061920Z 00000KT CAVOK 14/05 Q1019 RMK RWY23 00000KT,1,0,0,9999,0,0,0,
2026-04-06 18:50:00,METAR LTBA 061850Z VRB01KT CAVOK 14/05 Q1019 RMK RWY23 00000KT,1,0,0,9999,0,0,0,
2026-04-06 18:20:00,METAR LTBA 061820Z 30003KT CAVOK 14/05 Q1019 RMK RWY23 00000KT,1,0,0,9999,0,0,0,
2026-04-06 17:50:00,METAR LTBA 061750Z 28004KT CAVOK 14/06 Q1019 RMK RWY23 28002KT,1,0,0,9999,0,0,0,
2026-04-06 17:20:00,METAR LTBA 061720Z 25004KT CAVOK 14/05 Q1019 RMK RWY23 26004KT,1,0,0,9999,0,0,0,
2026-04-06 16:50:00,METAR LTBA 061650Z 27005KT CAVOK 14/05 Q1019 RMK RWY23 28006KT,1,0,0,9999,0,0,0,
2026-04-06 16:20:00,METAR LTBA 061620Z 26006KT CAVOK 15/06 Q1019 RMK RWY23 26004KT,1,0,0,9999,0,0,0,
2026-04-06 15:50:00,METAR LTBA 061550Z 26006KT CAVOK 15/07 Q1019 RMK RWY23 25006KT,1,0,0,9999,0,0,0,
2026-04-06 14:50:00,METAR LTBA 061450Z 25008KT CAVOK 16/05 Q1019 RMK RWY23 25009KT,1,0,0,9999,0,0,0,
2026-04-06 14:20:00,METAR LTBA 061420Z 25009KT CAVOK 16/08 Q1019 RMK RWY23 25010KT,1,0,0,9999,0,0,0,
2026-04-06 13:50:00,METAR LTBA 061350Z 24010KT CAVOK 15/05 Q1020 RMK RWY23 24010KT,1,0,0,9999,0,0,0,
2026-04-06 13:20:00,METAR LTBA 061320Z 25008KT CAVOK 17/06 Q1020 RMK RWY23 25010KT,1,0,0,9999,0,0,0,
2026-04-06 12:50:00,METAR LTBA 061250Z 25010KT CAVOK 16/05 Q1020 RMK RWY23 25010KT,1,0,0,9999,0,0,0,
2026-04-06 12:20:00,METAR LTBA 061220Z 25010KT CAVOK 16/04 Q1020 RMK RWY23 26010KT,1,0,0,9999,0,0,0,
2026-04-06 11:50:00,METAR LTBA 061150Z 25010KT CAVOK 17/06 Q1021 RMK RWY23 25010KT,1,0,0,9999,0,0,0,
2026-04-06 11:20:00,METAR LTBA 061120Z 26010KT CAVOK 16/06 Q1021 RMK RWY23 25011KT,1,0,0,9999,0,0,0,
2026-04-06 10:50:00,METAR LTBA 061050Z 25009KT CAVOK 16/06 Q1022 RMK RWY23 25010KT,1,0,0,9999,0,0,0,
2026-04-06 10:20:00,METAR LTBA 061020Z 24008KT CAVOK 16/06 Q1022 RMK RWY23 25009KT,1,0,0,9999,0,0,0,
2026-04-06 09:50:00,METAR LTBA 060950Z 25008KT CAVOK 15/07 Q1022 RMK RWY23 25010KT,1,0,0,9999,0,0,0,
2026-04-06 09:20:00,METAR LTBA 060920Z 23008KT CAVOK 14/08 Q1022 RMK RWY23 23008KT,1,0,0,9999,0,0,0,
2026-04-06 08:50:00,METAR LTBA 060850Z 22006KT CAVOK 15/06 Q1022 RMK RWY23 21005KT 170V240,1,0,0,9999,0,0,0,
2026-04-06 08:20:00,METAR LTBA 060820Z 21005KT CAVOK 15/03 Q1023 RMK RWY23 23003KT 200V260,1,0,0,9999,0,0,0,
2026-04-06 07:50:00,METAR LTBA 060750Z 23004KT 190V260 CAVOK 15/06 Q1023 RMK RWY23 22003KT 190V250,1,0,0,9999,0,0,0,
2026-04-06 07:20:00,METAR LTBA 060720Z 22006KT 180V240 CAVOK 14/07 Q1023 RMK RWY23 15004KT,1,0,0,9999,0,0,0,
2026-04-06 06:50:00,METAR LTBA 060650Z VRB02KT CAVOK 15/04 Q1023 RMK RWY23 14004KT 100V210,1,0,0,9999,0,0,0,
2026-04-06 06:20:00,METAR LTBA 060620Z 07004KT 040V150 CAVOK 15/03 Q1023 RMK RWY23 08004KT 030V120,1,0,0,9999,0,0,0,
2026-04-06 05:50:00,METAR LTBA 060550Z 05004KT CAVOK 14/04 Q1023 RMK RWY23 04004KT 360V080,1,0,0,9999,0,0,0,
2026-04-06 05:20:00,METAR LTBA 060520Z 01004KT 340V040 CAVOK 13/04 Q1023 RMK RWY23 01004KT,1,0,0,9999,0,0,0,
2026-04-06 04:50:00,METAR LTBA 060450Z 35006KT CAVOK 10/04 Q1023 RMK RWY23 35005KT,1,0,0,9999,0,0,0,
2026-04-06 04:20:00,METAR LTBA 060420Z 01004KT CAVOK 09/03 Q1022 RMK RWY23 36003KT,1,0,0,9999,0,0,0,
2026-04-06 03:50:00,METAR LTBA 060350Z 36004KT CAVOK 08/02 Q1022 RMK RWY23 35005KT,1,0,0,9999,0,0,0,
2026-04-06 03:20:00,METAR LTBA 060320Z 36004KT CAVOK 08/02 Q1022 RMK RWY23 36004KT,1,0,0,9999,0,0,0,
2026-04-06 02:50:00,METAR LTBA 060250Z 36004KT CAVOK 08/02 Q1022 RMK RWY23 35004KT,1,0,0,9999,0,0,0,
2026-04-06 02:20:00,METAR LTBA 060220Z 36005KT CAVOK 08/03 Q1022 RMK RWY23 35003KT 290V010,1,0,0,9999,0,0,0,
2026-04-06 01:50:00,METAR LTBA 060150Z 00000KT CAVOK 08/03 Q1022 RMK RWY23 00000KT,1,0,0,9999,0,0,0,
2026-04-06 01:20:00,METAR LTBA 060120Z VRB01KT CAVOK 09/03 Q1022 RMK RWY23 00000KT,1,0,0,9999,0,0,0,
2026-04-06 00:50:00,METAR LTBA 060050Z 12003KT 050V150 CAVOK 10/03 Q1022 RMK RWY23 00000KT,1,0,0,9999,0,0,0,
2026-04-06 00:20:00,METAR LTBA 060020Z VRB03KT CAVOK 09/03 Q1022 RMK RWY23 35006KT,1,0,0,9999,0,0,0,
2026-04-05 23:50:00,METAR LTBA 052350Z 35007KT CAVOK 10/03 Q1022 RMK RWY23 34006KT,1,0,0,9999,0,0,0,
2026-04-05 23:20:00,METAR LTBA 052320Z 35002KT CAVOK 10/03 Q1022 RMK RWY23 VRB02KT,1,0,0,9999,0,0,0,
2026-04-05 22:50:00,METAR LTBA 052250Z VRB01KT CAVOK 11/03 Q1022 RMK RWY23 VRB01KT,1,0,0,9999,0,0,0,
2026-04-05 22:20:00,METAR LTBA 052220Z 02005KT CAVOK 11/02 Q1022 RMK RWY23 03005KT 360V060,1,0,0,9999,0,0,0,
2026-04-05 21:50:00,METAR LTBA 052150Z 03006KT CAVOK 11/02 Q1022 RMK RWY23 04004KT,1,0,0,9999,0,0,0,
2026-04-05 21:20:00,METAR LTBA 052120Z 02007KT CAVOK 12/02 Q1022 RMK RWY23 03006KT,1,0,0,9999,0,0,0,
2026-04-05 20:50:00,METAR LTBA 052050Z 03008KT CAVOK 12/02 Q1022 RMK RWY23 03006KT,1,0,0,9999,0,0,0,
2026-04-05 20:20:00,METAR LTBA 052020Z 03006KT CAVOK 12/02 Q1022 RMK RWY23 04007KT,1,0,0,9999,0,0,0,
2026-04-05 19:50:00,METAR LTBA 051950Z 03007KT CAVOK 13/02 Q1022 RMK RWY23 05006KT,1,0,0,9999,0,0,0,
2026-04-05 19:20:00,METAR LTBA 051920Z 04007KT CAVOK 13/03 Q1022 RMK RWY23 05006KT,1,0,0,9999,0,0,0,
2026-04-05 18:50:00,METAR LTBA 051850Z 04008KT CAVOK 13/03 Q1022 RMK RWY23 04007KT,1,0,0,9999,0,0,0,
2026-04-05 18:20:00,METAR LTBA 051820Z 04009KT CAVOK 14/03 Q1022 RMK RWY23 04009KT,1,0,0,9999,0,0,0,
2026-04-05 17:50:00,METAR LTBA 051750Z 04008KT CAVOK 14/03 Q1022 RMK RWY23 03009KT,1,0,0,9999,0,0,0,
2026-04-05 17:20:00,METAR LTBA 051720Z 03011KT CAVOK 15/02 Q1022 RMK RWY23 03008KT,1,0,0,9999,0,0,0,
2026-04-05 16:50:00,METAR LTBA 051650Z 02009KT CAVOK 15/03 Q1021 RMK RWY23 02010KT,1,0,0,9999,0,0,0,
2026-04-05 16:20:00,METAR LTBA 051620Z 02006KT CAVOK 16/03 Q1021 RMK RWY23 04007KT,1,0,0,9999,0,0,0,
2026-04-05 15:50:00,METAR LTBA 051550Z 03010KT CAVOK 17/04 Q1021 RMK RWY23 06011KT,1,0,0,9999,0,0,0,
2026-04-05 15:20:00,METAR LTBA 051520Z 01010KT CAVOK 17/05 Q1021 RMK RWY23 04009KT 020V080,1,0,0,9999,0,0,0,
2026-04-05 14:50:00,METAR LTBA 051450Z 04011KT CAVOK 18/05 Q1020,1,0,0,9999,0,0,0,
2026-04-05 12:50:00,METAR LTBA 051250Z 25008KT 200V270 CAVOK 15/10 Q1021 RMK RWY23 25007KT,1,0,0,9999,0,0,0,
2026-04-05 12:20:00,METAR LTBA 051220Z 23007KT CAVOK 17/12 Q1021 RMK RWY23 VRB04KT,1,0,0,9999,0,0,0,
2026-04-05 11:50:00,METAR LTBA 051150Z 24008KT CAVOK 15/10 Q1021 RMK RWY23 06008KT 340V130,1,0,0,9999,0,0,0,
2026-04-05 11:20:00,METAR LTBA 051120Z 23008KT CAVOK 15/11 Q1021 RMK RWY23 21005KT 170V260,1,0,0,9999,0,0,0,
2026-04-05 10:50:00,METAR LTBA 051050Z 24008KT 200V260 CAVOK 14/12 Q1022 RMK RWY23 23009KT,1,0,0,9999,0,0,0,
2026-04-05 10:20:00,METAR LTBA 051020Z 24007KT CAVOK 14/12 Q1022 RMK RWY23 23008KT 180V260,1,0,0,9999,0,0,0,
2026-04-05 09:50:00,METAR LTBA 050950Z 22005KT CAVOK 14/11 Q1022 RMK RWY23 16004KT 110V230,1,0,0,9999,0,0,0,
2026-04-05 09:20:00,METAR LTBA 050920Z 22007KT CAVOK 14/12 Q1022 RMK RWY23 19006KT 140V240,1,0,0,9999,0,0,0,
2026-04-05 08:50:00,METAR LTBA 050850Z 15005KT 120V190 CAVOK 14/10 Q1022 RMK RWY23 16006KT 110V190,1,0,0,9999,0,0,0,
2026-04-05 08:20:00,METAR LTBA 050820Z 14005KT CAVOK 13/11 Q1021 RMK RWY23 15006KT 120V180,1,0,0,9999,0,0,0,
2026-04-05 07:50:00,METAR LTBA 050750Z 16005KT 130V190 CAVOK 13/10 Q1021 RMK RWY23 15003KT 050V200,1,0,0,9999,0,0,0,
2026-04-05 07:20:00,METAR LTBA 050720Z 14004KT 110V210 CAVOK 13/11 Q1021 RMK RWY23 22003KT 160V250,1,0,0,9999,0,0,0,
2026-04-05 06:50:00,METAR LTBA 050650Z 16004KT 120V210 9999 SCT011 12/11 Q1021 RMK RWY23 VRB03KT,0,4,0,10000,0,0,0,
2026-04-05 06:20:00,METAR LTBA 050620Z VRB02KT 7000 BKN011 12/11 Q1021 RMK RWY23 14003KT 060V220,0,2,0,7000,0,0,0,
2026-04-05 05:50:00,METAR LTBA 050550Z 35007KT 8000 BKN011 12/10 Q1020 RMK RWY23 01006KT,0,7,0,8000,0,0,0,
2026-04-05 05:20:00,METAR LTBA 050520Z VRB02KT 6000 BKN006 11/11 Q1020 RMK RWY23 VRB03KT,0,2,0,6000,0,0,0,
2026-04-05 04:50:00,METAR LTBA 050450Z 00000KT 5000 BR BKN009 11/11 Q1020 RMK RWY23 14003KT,0,0,0,5000,0,0,1,BR
2026-04-05 04:20:00,METAR LTBA 050420Z VRB01KT 6000 BKN007 10/10 Q1020 RMK RWY23 VRB01KT,0,1,0,6000,0,0,0,
2026-04-05 03:50:00,METAR LTBA 050350Z 05003KT 7000 BKN007 10/10 Q1019 RMK RWY23 04003KT,0,3,0,7000,0,0,0,
2026-04-05 03:20:00,METAR LTBA 050320Z 01005KT 8000 BKN007 11/11 Q1019 RMK RWY23 05005KT,0,5,0,8000,0,0,0,
2026-04-05 02:50:00,METAR LTBA 050250Z 03008KT 7000 BKN006 11/11 Q1019 RMK RWY23 02005KT 340V040,0,8,0,7000,0,0,0,
2026-04-05 02:20:00,METAR LTBA 050220Z 02007KT 7000 BKN006 11/11 Q1019 RMK RWY23 01007KT,0,7,0,7000,0,0,0,
2026-04-05 01:50:00,METAR LTBA 050150Z 02007KT 8000 BKN006 11/11 Q1018 RMK RWY23 03008KT,0,7,0,8000,0,0,0,
2026-04-05 01:20:00,METAR LTBA 050120Z 01008KT 8000 BKN006 10/10 Q1018 RMK RWY23 01009KT,0,8,0,8000,0,0,0,
2026-04-05 00:50:00,METAR LTBA 050050Z 36007KT 9000 BKN006 10/10 Q1018 RMK RWY23 01008KT,0,7,0,9000,0,0,0,
2026-04-05 00:20:00,METAR LTBA 050020Z 36007KT 9999 BKN006 10/10 Q1018 RMK RWY23 01007KT,0,7,0,10000,0,0,0,
2026-04-04 23:50:00,METAR LTBA 042350Z 01010KT 9999 BKN006 10/10 Q1018 RMK RWY23 36008KT,0,10,0,10000,0,0,0,
2026-04-04 23:20:00,METAR LTBA 042320Z 36009KT 9000 BKN006 10/10 Q1018 RMK RWY23 36007KT,0,9,0,9000,0,0,0,
2026-04-04 22:50:00,METAR LTBA 042250Z 36009KT 9999 BKN006 10/10 Q1018 RMK RWY23 36006KT 330V040,0,9,0,10000,0,0,0,
2026-04-04 22:20:00,METAR LTBA 042220Z 01010KT 9000 BKN005 10/10 Q1017 RMK RWY23 01008KT 330V050,0,10,0,9000,0,0,0,
2026-04-04 21:50:00,METAR LTBA 042150Z 01009KT 8000 BKN005 10/10 Q1017 RMK RWY23 02008KT 350V050,0,9,0,8000,0,0,0,
2026-04-04 21:20:00,METAR LTBA 042120Z 01008KT 9999 BKN005 10/10 Q1017 RMK RWY23 01009KT,0,8,0,10000,0,0,0,
2026-04-04 20:50:00,METAR LTBA 042050Z 01006KT 9999 BKN006 10/10 Q1017 RMK RWY23 35007KT,0,6,0,10000,0,0,0,
2026-04-04 20:20:00,METAR LTBA 042020Z 03009KT 9999 BKN006 10/10 Q1016 RMK RWY23 02009KT,0,9,0,10000,0,0,0,
2026-04-04 19:50:00,METAR LTBA 041950Z 02011KT 9999 BKN006 10/10 Q1016 RMK RWY23 01008KT,0,11,0,10000,0,0,0,
2026-04-04 19:20:00,METAR LTBA 041920Z 03011KT 9999 BKN007 10/10 Q1016 RMK RWY23 02009KT,0,11,0,10000,0,0,0,
2026-04-04 18:50:00,METAR LTBA 041850Z 01009KT 9999 SCT007 10/09 Q1016 RMK RWY23 36010KT,0,9,0,10000,0,0,0,
2026-04-04 18:20:00,METAR LTBA 041820Z 36008KT 9999 SCT035 BKN070 10/09 Q1015 RMK RWY23 36009KT,0,8,0,10000,0,0,0,
2026-04-04 17:50:00,METAR LTBA 041750Z 01010KT 9999 SCT035 BKN070 10/09 Q1015 RMK RWY23 01008KT 340V040,0,10,0,10000,0,0,0,
2026-04-04 17:20:00,METAR LTBA 041720Z 02011KT 9999 SCT035 BKN070 11/09 Q1014 RMK RWY23 36006KT,0,11,0,10000,0,0,0,
2026-04-04 16:50:00,METAR LTBA 041650Z 01009KT 9999 SCT035 BKN070 11/09 Q1014 RMK RWY23 01009KT 340V040,0,9,0,10000,0,0,0,
2026-04-04 16:20:00,METAR LTBA 041620Z 36010KT 9999 SCT035 BKN070 11/10 Q1014 RMK RWY23 36011KT,0,10,0,10000,0,0,0,
2026-04-04 15:50:00,METAR LTBA 041550Z 01012KT 9999 SCT035 BKN070 11/10 Q1014 RMK RWY23 02009KT 350V060,0,12,0,10000,0,0,0,
2026-04-04 15:20:00,METAR LTBA 041520Z 36012KT 9999 SCT035 BKN070 12/09 Q1013 RMK RWY23 36012KT,0,12,0,10000,0,0,0,
2026-04-04 14:50:00,METAR LTBA 041450Z 36012KT 9999 SCT035 BKN070 12/10 Q1013 RMK RWY23 36011KT 340V040,0,12,0,10000,0,0,0,
2026-04-04 14:20:00,METAR LTBA 041420Z 36012KT 9999 SCT035 BKN070 13/10 Q1013 RMK RWY23 02010KT 340V040,0,12,0,10000,0,0,0,
2026-04-04 13:50:00,METAR LTBA 041350Z 02013KT 9999 SCT011 BKN035 14/11 Q1013 RMK RWY23 02012KT,0,13,0,10000,0,0,0,
2026-04-04 13:20:00,METAR LTBA 041320Z 01010KT 340V040 9999 SCT011 BKN035 14/11 Q1013 RMK RWY23 36011KT 330V040,0,10,0,10000,0,0,0,
2026-04-04 12:50:00,METAR LTBA 041250Z 36013KT 9999 SCT008 BKN030 14/12 Q1012 RMK RWY23 01011KT 340V040,0,13,0,10000,0,0,0,
2026-04-04 12:20:00,METAR LTBA 041220Z 35013KT 9999 SCT008 BKN030 13/11 Q1012 RESHRA RMK RWY23 36011KT,0,13,0,10000,0,0,0,RA
2026-04-04 11:50:00,METAR LTBA 041150Z 36010KT 9999 -SHRA SCT008 BKN030 13/13 Q1013 RMK RWY23 01010KT,0,10,0,10000,0,0,0,RA
2026-04-04 11:20:00,METAR LTBA 041120Z 36012KT 9999 -SHRA SCT008 BKN030 12/12 Q1013 RMK RWY23 36011KT,0,12,0,10000,0,0,0,RA
2026-04-04 10:50:00,METAR LTBA 041050Z 35011KT 9999 -SHRA SCT008 BKN030 13/12 Q1013 RMK RWY23 36010KT,0,11,0,10000,0,0,0,RA
2026-04-04 10:20:00,METAR LTBA 041020Z 01011KT 9999 -SHRA SCT008 BKN030 13/12 Q1013 RMK RWY23 36008KT,0,11,0,10000,0,0,0,RA
2026-04-04 09:50:00,METAR LTBA 040950Z 01010KT 9999 -SHRA SCT008 BKN030 12/11 Q1013 RMK RWY23 01008KT 340V040,0,10,0,10000,0,0,0,RA
2026-04-04 09:20:00,METAR LTBA 040920Z 36010KT 9999 -SHRA SCT008 BKN030 12/12 Q1013 RMK RWY23 01009KT,0,10,0,10000,0,0,0,RA
2026-04-04 08:50:00,METAR LTBA 040850Z 36009KT 9999 -SHRA SCT008 BKN030 12/12 Q1012 RMK RWY23 02008KT,0,9,0,10000,0,0,0,RA
2026-04-04 08:20:00,METAR LTBA 040820Z 04008KT 9999 -SHRA SCT008 BKN030 13/12 Q1012 RMK RWY23 03007KT,0,8,0,10000,0,0,0,RA
2026-04-04 07:50:00,METAR LTBA 040750Z 05006KT 020V080 9999 -SHRA SCT035 BKN070 13/13 Q1012 RMK RWY23 02006KT,0,6,0,10000,0,0,0,RA
2026-04-04 07:20:00,METAR LTBA 040720Z 05007KT 9999 -SHRA SCT035 BKN070 13/11 Q1011 RMK RWY23 04007KT,0,7,0,10000,0,0,0,RA
2026-04-04 06:50:00,METAR LTBA 040650Z 04005KT 9999 -SHRA SCT035 BKN070 14/11 Q1011 RMK RWY23 05006KT,0,5,0,10000,0,0,0,RA
2026-04-04 06:20:00,METAR LTBA 040620Z 01004KT 9999 -SHRA SCT035 BKN070 14/11 Q1010 RMK RWY23 01004KT,0,4,0,10000,0,0,0,RA
2026-04-04 05:50:00,METAR LTBA 040550Z 03004KT 9999 -SHRA SCT035 BKN060 14/11 Q1010 RMK RWY23 04004KT 020V090,0,4,0,10000,0,0,0,RA
2026-04-04 05:20:00,METAR LTBA 040520Z 01004KT 9999 SCT035 BKN060 13/11 Q1010 RMK RWY23 VRB02KT,0,4,0,10000,0,0,0,
2026-04-04 04:50:00,METAR LTBA 040450Z 34005KT 9999 SCT035 BKN060 13/11 Q1010 RESHRA RMK RWY23 35002KT,0,5,0,10000,0,0,0,RA
2026-04-04 04:20:00,METAR LTBA 040420Z VRB04KT 9999 -SHRA BKN035 BKN060 13/11 Q1009 RMK RWY23 35004KT,0,4,0,10000,0,0,0,RA
2026-04-04 03:50:00,METAR LTBA 040350Z 34003KT 9999 -SHRA BKN035 BKN060 12/12 Q1009 RMK RWY23 33003KT,0,3,0,10000,0,0,0,RA
2026-04-04 03:20:00,METAR LTBA 040320Z VRB02KT 9999 -SHRA BKN035 BKN060 12/11 Q1009 RMK RWY23 22003KT,0,2,0,10000,0,0,0,RA
2026-04-04 03:02:00,SPECI LTBA 040302Z 19004KT 9999 -SHRA BKN035 BKN070 12/10 Q1009,0,4,0,10000,0,0,0,RA
2026-04-04 02:50:00,METAR LTBA 040250Z 19004KT 9999 BKN035 BKN070 12/10 Q1009 RMK RWY23 VRB01KT,0,4,0,10000,0,0,0,
2026-04-04 02:20:00,METAR LTBA 040220Z 00000KT 9999 SCT032 BKN060 13/10 Q1009 RMK RWY23 32002KT,0,0,0,10000,0,0,0,
2026-04-04 01:50:00,METAR LTBA 040150Z VRB01KT 9999 SCT032 BKN060 13/09 Q1009 RMK RWY23 00000KT,0,1,0,10000,0,0,0,
2026-04-04 01:20:00,METAR LTBA 040120Z 09002KT 9999 SCT032 BKN060 13/10 Q1009 RMK RWY23 14003KT 120V190,0,2,0,10000,0,0,0,
2026-04-04 00:50:00,METAR LTBA 040050Z 05004KT 9999 SCT032 BKN080 12/10 Q1008 RMK RWY23 VRB01KT,0,4,0,10000,0,0,0,
2026-04-04 00:20:00,METAR LTBA 040020Z 06004KT 9999 SCT032 BKN080 12/10 Q1008 RMK RWY23 05003KT,0,4,0,10000,0,0,0,
2026-04-03 23:50:00,METAR LTBA 032350Z 04003KT 9999 SCT035 BKN080 12/10 Q1009 RMK RWY23 10003KT,0,3,0,10000,0,0,0,
2026-04-03 23:20:00,METAR LTBA 032320Z 11004KT 070V130 9999 SCT035 BKN080 12/09 Q1009 RERA RMK RWY23 11004KT,0,4,0,10000,0,0,0,RA
2026-04-03 22:50:00,METAR LTBA 032250Z 15006KT 9999 -RA SCT035 BKN080 12/09 Q1009 RMK RWY23 15006KT,0,6,0,10000,0,0,0,-RA
2026-04-03 22:20:00,METAR LTBA 032220Z VRB02KT 9999 -RA SCT035 BKN080 13/10 Q1008 RMK RWY23 00000KT,0,2,0,10000,0,0,0,-RA
2026-04-03 21:50:00,METAR LTBA 032150Z 03002KT 9999 SCT035 BKN080 13/10 Q1008 RMK RWY23 00000KT,0,2,0,10000,0,0,0,
2026-04-03 21:20:00,METAR LTBA 032120Z VRB01KT 9999 SCT035 BKN080 13/09 Q1008 RMK RWY23 00000KT,0,1,0,10000,0,0,0,
2026-04-03 20:50:00,METAR LTBA 032050Z 10002KT 9999 SCT035 BKN080 13/09 Q1008 RMK RWY23 14002KT,0,2,0,10000,0,0,0,
2026-04-03 20:20:00,METAR LTBA 032020Z VRB01KT 9999 SCT035 BKN080 13/09 Q1008 RMK RWY23 00000KT,0,1,0,10000,0,0,0,
2026-04-03 19:50:00,METAR LTBA 031950Z 00000KT 9999 SCT035 BKN080 13/09 Q1008 RMK RWY23 00000KT,0,0,0,10000,0,0,0,
2026-04-03 19:20:00,METAR LTBA 031920Z VRB02KT 9999 SCT035 BKN080 13/09 Q1008 RMK RWY23 VRB01KT,0,2,0,10000,0,0,0,
2026-04-03 18:50:00,METAR LTBA 031850Z VRB01KT 9999 SCT035 BKN070 13/09 Q1008 RMK RWY23 VRB02KT,0,1,0,10000,0,0,0,
2026-04-03 18:20:00,METAR LTBA 031820Z VRB02KT 9999 SCT035 BKN080 13/09 Q1008 RMK RWY23 28003KT,0,2,0,10000,0,0,0,
2026-04-03 17:50:00,METAR LTBA 031750Z 25006KT 9999 SCT035 BKN080 13/09 Q1007 RMK RWY23 26008KT,0,6,0,10000,0,0,0,
2026-04-03 17:20:00,METAR LTBA 031720Z 26008KT 9999 SCT035 BKN080 13/09 Q1007 RMK RWY23 26008KT,0,8,0,10000,0,0,0,
2026-04-03 16:50:00,METAR LTBA 031650Z 26006KT 230V300 9999 SCT035 BKN080 13/09 Q1007 RMK RWY23 26007KT,0,6,0,10000,0,0,0,
2026-04-03 16:20:00,METAR LTBA 031620Z 27007KT 9999 FEW040 BKN080 13/09 Q1007 RMK RWY23 27007KT,0,7,0,10000,0,0,0,
2026-04-03 15:50:00,METAR LTBA 031550Z 26007KT 9999 FEW040 SCT090 14/09 Q1006 RMK RWY23 26007KT,0,7,0,10000,0,0,0,
2026-04-03 15:20:00,METAR LTBA 031520Z 25008KT 9999 FEW040 15/09 Q1006 RMK RWY23 25009KT,0,8,0,10000,0,0,0,
2026-04-03 14:50:00,METAR LTBA 031450Z 25008KT 9999 FEW040 16/09 Q1006 RMK RWY23 25010KT,0,8,0,10000,0,0,0,
2026-04-03 14:20:00,METAR LTBA 031420Z 23007KT 9999 FEW040 SCT100 17/09 Q1006 RMK RWY23 24008KT,0,7,0,10000,0,0,0,
2026-04-03 13:50:00,METAR LTBA 031350Z 21006KT 9999 FEW040 SCT100 17/08 Q1006 RMK RWY23 21007KT,0,6,0,10000,0,0,0,
2026-04-03 13:20:00,METAR LTBA 031320Z 19008KT 9999 FEW040 SCT100 16/08 Q1006 RMK RWY23 20008KT,0,8,0,10000,0,0,0,
2026-04-03 12:50:00,METAR LTBA 031250Z 17005KT 110V230 9999 FEW040 BKN080 16/09 Q1006 RMK RWY23 17004KT 120V240,0,5,0,10000,0,0,0,
2026-04-03 12:20:00,METAR LTBA 031220Z 15005KT 120V210 9999 SCT040 BKN080 15/09 Q1006 RMK RWY23 VRB05KT,0,5,0,10000,0,0,0,
2026-04-03 11:50:00,METAR LTBA 031150Z 20006KT 160V230 9999 SCT040 BKN070 14/09 Q1006 RMK RWY23 18005KT 130V230,0,6,0,10000,0,0,0,
2026-04-03 11:20:00,METAR LTBA 031120Z 18007KT 8000 SCT040 BKN070 14/08 Q1006 RMK RWY23 19007KT 160V230,0,7,0,8000,0,0,0,
2026-04-03 10:50:00,METAR LTBA 031050Z 16005KT 130V200 9999 BKN035 BKN070 14/09 Q1006 RMK RWY23 16004KT 130V210,0,5,0,10000,0,0,0,
2026-04-03 10:20:00,METAR LTBA 031020Z 17005KT 130V210 9999 BKN035 BKN070 14/09 Q1006 RMK RWY23 18004KT 130V230,0,5,0,10000,0,0,0,
2026-04-03 09:50:00,METAR LTBA 030950Z 17005KT 110V210 9999 BKN035 BKN070 13/09 Q1006 RMK RWY23 VRB04KT,0,5,0,10000,0,0,0,
2026-04-03 09:20:00,METAR LTBA 030920Z 20006KT 9999 BKN035 BKN070 13/09 Q1006 RMK RWY23 20006KT,0,6,0,10000,0,0,0,
2026-04-03 08:50:00,METAR LTBA 030850Z 18007KT 9999 BKN035 BKN070 13/09 Q1006 RESHRA RMK RWY23 19007KT 160V220,0,7,0,10000,0,0,0,RA
2026-04-03 08:20:00,METAR LTBA 030820Z 20006KT 150V220 9999 -SHRA BKN035 BKN070 13/10 Q1006 RMK RWY23 20007KT,0,6,0,10000,0,0,0,RA
2026-04-03 07:50:00,METAR LTBA 030750Z 18006KT 9999 -SHRA BKN035 BKN070 12/10 Q1006 RMK RWY23 20007KT,0,6,0,10000,0,0,0,RA
2026-04-03 07:20:00,METAR LTBA 030720Z 18004KT 140V210 9999 -SHRA BKN035 BKN070 12/10 Q1006 RMK RWY23 VRB05KT,0,4,0,10000,0,0,0,RA
2026-04-03 06:50:00,METAR LTBA 030650Z 16006KT 120V200 9999 -SHRA BKN035 BKN070 12/11 Q1006 RMK RWY23 16007KT,0,6,0,10000,0,0,0,RA
2026-04-03 06:20:00,METAR LTBA 030620Z 15005KT 9999 -SHRA BKN035 BKN070 11/11 Q1006 RMK RWY23 16006KT,0,5,0,10000,0,0,0,RA
2026-04-03 05:50:00,METAR LTBA 030550Z 16006KT 9999 -SHRA SCT035 BKN080 11/10 Q1005 RMK RWY23 16006KT,0,6,0,10000,0,0,0,RA
2026-04-03 05:36:00,SPECI LTBA 030536Z 15005KT 9999 -SHRA SCT035 BKN080 11/10 Q1005,0,5,0,10000,0,0,0,RA
2026-04-03 05:20:00,METAR LTBA 030520Z 14004KT 9999 -SHRA SCT035 BKN080 11/10 Q1005 RMK RWY23 14005KT 110V170,0,4,0,10000,0,0,0,RA
2026-04-03 04:50:00,METAR LTBA 030450Z 11003KT 9999 -SHRA SCT035 BKN080 11/10 Q1005 RMK RWY23 12004KT,0,3,0,10000,0,0,0,RA
2026-04-03 04:20:00,METAR LTBA 030420Z 00000KT 9999 SCT035 BKN080 10/10 Q1004 RMK RWY23 VRB01KT,0,0,0,10000,0,0,0,
2026-04-03 03:50:00,METAR LTBA 030350Z 00000KT 9999 SCT035 BKN080 10/10 Q1004 RMK RWY23 00000KT,0,0,0,10000,0,0,0,
2026-04-03 03:20:00,METAR LTBA 030320Z 09003KT 9999 SCT035 BKN080 10/10 Q1003 RMK RWY23 09004KT,0,3,0,10000,0,0,0,
2026-04-03 02:50:00,METAR LTBA 030250Z 12002KT 9999 SCT035 BKN080 10/10 Q1003 RMK RWY23 VRB02KT,0,2,0,10000,0,0,0,
2026-04-03 02:20:00,METAR LTBA 030220Z VRB02KT 9999 SCT035 BKN080 10/10 Q1003 RMK RWY23 VRB01KT,0,2,0,10000,0,0,0,
2026-04-03 01:50:00,METAR LTBA 030150Z VRB02KT 9999 SCT035 BKN080 10/10 Q1003 RMK RWY23 10004KT 070V130,0,2,0,10000,0,0,0,
2026-04-03 01:20:00,METAR LTBA 030120Z VRB02KT 9999 SCT035 BKN080 10/10 Q1003 RMK RWY23 16003KT 120V210,0,2,0,10000,0,0,0,
2026-04-03 00:50:00,METAR LTBA 030050Z 21005KT 160V230 9999 SCT035 BKN080 10/10 Q1003 RMK RWY23 22006KT,0,5,0,10000,0,0,0,
2026-04-03 00:20:00,METAR LTBA 030020Z 19010KT 9999 SCT035 BKN080 11/09 Q1003 RMK RWY23 20011KT,0,10,0,10000,0,0,0,
2026-04-02 23:50:00,METAR LTBA 022350Z 18012KT 150V210 9999 SCT035 BKN080 12/08 Q1004 RMK RWY23 19014KT,0,12,0,10000,0,0,0,
2026-04-02 23:20:00,METAR LTBA 022320Z 17008KT 9999 SCT035 BKN080 13/09 Q1003 RMK RWY23 18009KT 140V200,0,8,0,10000,0,0,0,
2026-04-02 22:50:00,METAR LTBA 022250Z 18003KT 110V230 9999 SCT035 BKN080 11/11 Q1003 RMK RWY23 19002KT,0,3,0,10000,0,0,0,
2026-04-02 22:20:00,METAR LTBA 022220Z VRB02KT 9999 SCT035 BKN080 11/10 Q1003 RMK RWY23 VRB03KT,0,2,0,10000,0,0,0,
2026-04-02 21:50:00,METAR LTBA 022150Z 12003KT 080V170 9999 SCT040 11/10 Q1003 RMK RWY23 13003KT 060V170,0,3,0,10000,0,0,0,
2026-04-02 21:20:00,METAR LTBA 022120Z 36003KT 290V040 9999 SCT040 11/10 Q1002 RMK RWY23 35004KT 280V030,0,3,0,10000,0,0,0,
2026-04-02 20:50:00,METAR LTBA 022050Z 02004KT 350V050 9999 SCT040 11/10 Q1003 RMK RWY23 02004KT,0,4,0,10000,0,0,0,
2026-04-02 20:20:00,METAR LTBA 022020Z 06004KT 320V080 9999 SCT040 11/08 Q1002 RMK RWY23 VRB03KT,0,4,0,10000,0,0,0,
2026-04-02 19:50:00,METAR LTBA 021950Z 06006KT 030V090 9999 SCT040 11/08 Q1002 RMK RWY23 13004KT 090V170,0,6,0,10000,0,0,0,
2026-04-02 19:20:00,METAR LTBA 021920Z 35003KT 280V020 9999 SCT040 12/08 Q1002 RMK RWY23 32004KT,0,3,0,10000,0,0,0,
2026-04-02 18:50:00,METAR LTBA 021850Z 28006KT 260V330 9999 SCT040 12/08 Q1002 RMK RWY23 34005KT 300V040,0,6,0,10000,0,0,0,
2026-04-02 18:20:00,METAR LTBA 021820Z 25005KT 9999 SCT040 14/07 Q1002 RMK RWY23 27007KT,0,5,0,10000,0,0,0,
2026-04-02 17:50:00,METAR LTBA 021750Z 31005KT 9999 FEW025 SCT100 13/08 Q1001 RMK RWY23 31003KT 270V330,0,5,0,10000,0,0,0,
2026-04-02 17:20:00,METAR LTBA 021720Z 23005KT 9999 FEW025 SCT100 13/07 Q1000 RMK RWY23 25007KT,0,5,0,10000,0,0,0,
2026-04-02 16:50:00,METAR LTBA 021650Z 25007KT 9999 FEW025 SCT100 13/08 Q1000 RMK RWY23 25008KT,0,7,0,10000,0,0,0,
2026-04-02 16:20:00,METAR LTBA 021620Z 23006KT 9999 FEW025 SCT100 14/08 Q1000 RMK RWY23 23008KT,0,6,0,10000,0,0,0,
2026-04-02 15:50:00,METAR LTBA 021550Z 24005KT 9999 FEW025 SCT100 16/09 Q1000 RMK RWY23 25006KT,0,5,0,10000,0,0,0,
2026-04-02 15:20:00,METAR LTBA 021520Z 19005KT 160V230 9999 FEW025 SCT080 16/10 Q1000 RMK RWY23 21005KT,0,5,0,10000,0,0,0,
2026-04-02 14:50:00,METAR LTBA 021450Z 16007KT 130V190 9999 FEW025 SCT080 15/11 Q0999 RMK RWY23 16008KT 130V190,0,7,0,10000,0,0,0,
2026-04-02 14:20:00,METAR LTBA 021420Z 18009KT 9999 FEW025 SCT080 15/11 Q0999 RMK RWY23 19011KT,0,9,0,10000,0,0,0,
2026-04-02 13:50:00,METAR LTBA 021350Z 19007KT 9999 FEW025 SCT080 16/11 Q0999 RMK RWY23 21009KT,0,7,0,10000,0,0,0,
2026-04-02 13:20:00,METAR LTBA 021320Z 16007KT 130V200 9999 FEW025 BKN080 14/11 Q0999 RESHRA RMK RWY23 17006KT 140V210,0,7,0,10000,0,0,0,RA
2026-04-02 12:50:00,METAR LTBA 021250Z 18004KT 140V230 7000 -SHRA SCT022 BKN060 14/10 Q1000 RMK RWY23 20005KT 170V230,0,4,0,7000,0,0,0,RA
2026-04-02 12:20:00,METAR LTBA 021220Z 23004KT 190V260 7000 -SHRA SCT022 BKN060 13/11 Q1000 RMK RWY23 24005KT,0,4,0,7000,0,0,0,RA
2026-04-02 11:50:00,METAR LTBA 021150Z 23006KT 200V260 7000 -SHRA SCT022 BKN070 13/11 Q1000 RMK RWY23 24008KT,0,6,0,7000,0,0,0,RA
2026-04-02 11:20:00,METAR LTBA 021120Z 27006KT 240V310 9999 -SHRA SCT025 BKN060 14/13 Q1000 RMK RWY23 27007KT,0,6,0,10000,0,0,0,RA
2026-04-02 10:50:00,METAR LTBA 021050Z 24009KT 9999 -SHRA SCT025 BKN060 13/11 Q1000 RMK RWY23 26010KT,0,9,0,10000,0,0,0,RA
2026-04-02 10:20:00,METAR LTBA 021020Z 24011KT 9999 -SHRA SCT025 BKN060 14/11 Q0999 RMK RWY23 25013KT,0,11,0,10000,0,0,0,RA
2026-04-02 10:03:00,SPECI LTBA 021003Z 24009KT 6000 -SHRA SCT025 BKN060 15/10 Q0999,0,9,0,6000,0,0,0,RA
2026-04-02 09:50:00,METAR LTBA 020950Z 24009KT 9999 SCT025 BKN060 15/10 Q0999 RMK RWY23 24011KT,0,9,0,10000,0,0,0,
2026-04-02 09:20:00,METAR LTBA 020920Z 26010KT 9999 SCT025 BKN070 18/12 Q0999 RMK RWY23 26011KT,0,10,0,10000,0,0,0,
2026-04-02 08:50:00,METAR LTBA 020850Z 32005KT 9999 SCT025 BKN080 16/12 Q0998 RMK RWY23 33004KT,0,5,0,10000,0,0,0,
2026-04-02 08:20:00,METAR LTBA 020820Z 34007KT 290V360 9999 SCT025 BKN080 16/12 Q0998 RMK RWY23 33007KT,0,7,0,10000,0,0,0,
2026-04-02 07:50:00,METAR LTBA 020750Z 34008KT 9999 SCT025 BKN080 15/12 Q0998 RMK RWY23 33007KT,0,8,0,10000,0,0,0,
2026-04-02 07:20:00,METAR LTBA 020720Z 34007KT 9999 SCT025 BKN080 15/12 Q0997 RERA RMK RWY23 33006KT,0,7,0,10000,0,0,0,RA
2026-04-02 06:50:00,METAR LTBA 020650Z 34007KT 7000 -RA SCT025 BKN080 14/12 Q0997 RMK RWY23 34006KT,0,7,0,7000,0,0,0,-RA
2026-04-02 06:20:00,METAR LTBA 020620Z 35007KT 9999 SCT035 BKN080 14/12 Q0997 RMK RWY23 34006KT,0,7,0,10000,0,0,0,
2026-04-02 05:50:00,METAR LTBA 020550Z 34007KT 9999 SCT035 BKN080 13/12 Q0997 RMK RWY23 34007KT,0,7,0,10000,0,0,0,
2026-04-02 05:20:00,METAR LTBA 020520Z 35007KT 9999 SCT035 BKN080 12/11 Q0997 RMK RWY23 35007KT 320V020,0,7,0,10000,0,0,0,
2026-04-02 04:50:00,METAR LTBA 020450Z 02006KT 350V050 9999 SCT035 BKN080 12/11 Q0997 RMK RWY23 01007KT,0,6,0,10000,0,0,0,
2026-04-02 04:20:00,METAR LTBA 020420Z 02007KT 9999 SCT035 BKN080 11/11 Q0997 RMK RWY23 01007KT,0,7,0,10000,0,0,0,
2026-04-02 03:50:00,METAR LTBA 020350Z 36010KT 9999 SCT035 BKN080 11/11 Q0997 RERA RMK RWY23 35009KT,0,10,0,10000,0,0,0,RA
2026-04-02 03:20:00,METAR LTBA 020320Z 02008KT 8000 -RA SCT035 BKN080 11/10 Q0996 RMK RWY23 02009KT,0,8,0,8000,0,0,0,-RA
2026-04-02 02:50:00,METAR LTBA 020250Z 04011KT 8000 -RA SCT035 BKN080 11/10 Q0996 RMK RWY23 04011KT,0,11,0,8000,0,0,0,-RA
2026-04-02 02:20:00,METAR LTBA 020220Z 04012KT 8000 SCT035 BKN080 11/10 Q0997 RMK RWY23 04010KT,0,12,0,8000,0,0,0,
2026-04-02 01:50:00,METAR LTBA 020150Z 02014KT 8000 -RA SCT035 BKN080 11/10 Q0997 RMK RWY23 03012KT,0,14,0,8000,0,0,0,-RA
2026-04-02 01:20:00,METAR LTBA 020120Z 03015KT 8000 -RA SCT035 BKN080 11/10 Q0998 RMK RWY23 04012KT,0,15,0,8000,0,0,0,-RA
2026-04-02 00:50:00,METAR LTBA 020050Z 04016KT 8000 -RA SCT035 BKN080 11/10 Q0999 RMK RWY23 04012KT,0,16,0,8000,0,0,0,-RA
2026-04-02 00:20:00,METAR LTBA 020020Z 05017KT 8000 -RA SCT035 BKN080 11/10 Q1000 RMK RWY23 06015KT,0,17,0,8000,0,0,0,-RA
2026-04-01 23:50:00,METAR LTBA 012350Z 05021KT 8000 -RA SCT035 BKN080 11/10 Q1000 RMK RWY23 06017G27KT,0,21,0,8000,0,0,0,-RA
2026-04-01 23:20:00,METAR LTBA 012320Z 05024KT 8000 -RA SCT035 BKN080 11/09 Q1001 RMK RWY23 06021G32KT,0,24,0,8000,0,0,0,-RA
2026-04-01 22:50:00,METAR LTBA 012250Z 05023KT 8000 -RA SCT035 BKN080 11/09 Q1001 RMK RWY23 06023G33KT,0,23,0,8000,0,0,0,-RA
2026-04-01 22:20:00,METAR LTBA 012220Z 05025G35KT 8000 -RA SCT035 BKN080 11/09 Q1001 RMK RWY23 05021G31KT,0,25,1,8000,0,0,0,-RA
2026-04-01 21:50:00,METAR LTBA 012150Z 06022KT 6000 -RA SCT035 BKN080 10/10 Q1002 RMK RWY23 05022G32KT,0,22,0,6000,0,0,0,-RA
2026-04-01 21:20:00,METAR LTBA 012120Z 04023KT 8000 -RA SCT035 BKN080 11/09 Q1003 RMK RWY23 05020KT,0,23,0,8000,0,0,0,-RA
2026-04-01 20:50:00,METAR LTBA 012050Z 05023KT 8000 -RA SCT035 BKN080 10/10 Q1003 RMK RWY23 05020G31KT,0,23,0,8000,0,0,0,-RA
2026-04-01 20:20:00,METAR LTBA 012020Z 05018KT 8000 -RA SCT035 BKN080 11/09 Q1004 RMK RWY23 05016G32KT,0,18,0,8000,0,0,0,-RA
2026-04-01 19:50:00,METAR LTBA 011950Z 06015KT 8000 -RA SCT035 BKN080 11/09 Q1005 RMK RWY23 06014KT,0,15,0,8000,0,0,0,-RA
2026-04-01 19:20:00,METAR LTBA 011920Z 06015KT 8000 -RA SCT035 BKN080 11/08 Q1005 RMK RWY23 05015KT,0,15,0,8000,0,0,0,-RA
2026-04-01 18:50:00,METAR LTBA 011850Z 05018KT 8000 -RA SCT035 BKN080 11/08 Q1005 RMK RWY23 06014KT,0,18,0,8000,0,0,0,-RA
2026-04-01 18:20:00,METAR LTBA 011820Z 06018KT 9999 -RA SCT035 BKN080 12/08 Q1006 RMK RWY23 07014KT,0,18,0,10000,0,0,0,-RA
2026-04-01 17:50:00,METAR LTBA 011750Z 06020KT 9999 -SHRA SCT035 BKN080 12/08 Q1006 RMK RWY23 07016KT,0,20,0,10000,0,0,0,RA
2026-04-01 17:20:00,METAR LTBA 011720Z 07017KT 9999 -SHRA SCT035 BKN080 12/08 Q1007 RMK RWY23 08012KT,0,17,0,10000,0,0,0,RA
2026-04-01 16:50:00,METAR LTBA 011650Z 07017KT 040V100 9999 -SHRA SCT035 BKN080 13/08 Q1007 RMK RWY23 07013KT,0,17,0,10000,0,0,0,RA
2026-04-01 16:20:00,METAR LTBA 011620Z 05019KT 9999 -SHRA SCT035 BKN080 12/08 Q1007 RMK RWY23 05016KT,0,19,0,10000,0,0,0,RA
2026-04-01 15:50:00,METAR LTBA 011550Z 04017KT 9999 -SHRA SCT035 BKN080 13/07 Q1007 RMK RWY23 05015KT,0,17,0,10000,0,0,0,RA
2026-04-01 15:20:00,METAR LTBA 011520Z 04018KT 9999 -SHRA SCT035 BKN080 14/07 Q1008 RMK RWY23 04015KT,0,18,0,10000,0,0,0,RA
2026-04-01 15:10:00,SPECI LTBA 011510Z 04018KT 9999 -SHRA SCT035 BKN080 14/07 Q1007,0,18,0,10000,0,0,0,RA
2026-04-01 14:50:00,METAR LTBA 011450Z 04020KT 9999 SCT040 BKN080 14/07 Q1007 RMK RWY23 04016KT 010V070,0,20,0,10000,0,0,0,
2026-04-01 13:50:00,METAR LTBA 011350Z 03019KT CAVOK 15/07 Q1008 RMK RWY23 04017KT,1,0,0,9999,0,0,0,
2026-04-01 13:20:00,METAR LTBA 011320Z 04021KT CAVOK 16/07 Q1008 RMK RWY23 04016KT,1,0,0,9999,0,0,0,
2026-04-01 12:50:00,METAR LTBA 011250Z 04018KT CAVOK 17/07 Q1009 RMK RWY23 04015KT 010V070,1,0,0,9999,0,0,0,
2026-04-01 12:20:00,METAR LTBA 011220Z 04020KT CAVOK 18/07 Q1009 RMK RWY23 04016KT 010V070,1,0,0,9999,0,0,0,
2026-04-01 11:50:00,METAR LTBA 011150Z 04017KT CAVOK 18/07 Q1010 RMK RWY23 04016KT,1,0,0,9999,0,0,0,
2026-04-01 11:20:00,METAR LTBA 011120Z 03018KT CAVOK 18/08 Q1010 RMK RWY23 04015KT,1,0,0,9999,0,0,0,
2026-04-01 10:50:00,METAR LTBA 011050Z 03016KT CAVOK 18/07 Q1010 RMK RWY23 04012KT 010V070,1,0,0,9999,0,0,0,
2026-04-01 10:20:00,METAR LTBA 011020Z 04013KT 9999 FEW040 SCT180 19/08 Q1010 RMK RWY23 03012KT 360V070,0,13,0,10000,0,0,0,
2026-04-01 09:50:00,METAR LTBA 010950Z 03011KT 9999 FEW040 SCT180 19/08 Q1010 RMK RWY23 04010KT 010V070,0,11,0,10000,0,0,0,
2026-04-01 09:20:00,METAR LTBA 010920Z 04010KT 010V070 9999 FEW040 SCT180 18/07 Q1011 RMK RWY23 04009KT 010V070,0,10,0,10000,0,0,0,
2026-04-01 08:50:00,METAR LTBA 010850Z 08009KT 060V120 9999 FEW040 SCT180 19/07 Q1011 RMK RWY23 07010KT 040V100,0,9,0,10000,0,0,0,
2026-04-01 08:20:00,METAR LTBA 010820Z 05009KT 020V080 CAVOK 18/08 Q1011 RMK RWY23 05009KT 020V080,1,0,0,9999,0,0,0,
2026-04-01 07:50:00,METAR LTBA 010750Z 03008KT 360V060 CAVOK 17/08 Q1011 RMK RWY23 04008KT 010V070,1,0,0,9999,0,0,0,
2026-04-01 07:20:00,METAR LTBA 010720Z 07007KT CAVOK 17/08 Q1011 RMK RWY23 08008KT 040V130,1,0,0,9999,0,0,0,
2026-04-01 06:50:00,METAR LTBA 010650Z 08008KT CAVOK 15/08 Q1012 RMK RWY23 09006KT 050V150,1,0,0,9999,0,0,0,
2026-04-01 06:20:00,METAR LTBA 010620Z 07006KT CAVOK 15/09 Q1012 RMK RWY23 10005KT 060V130,1,0,0,9999,0,0,0,
2026-04-01 05:50:00,METAR LTBA 010550Z 08005KT 050V110 CAVOK 14/09 Q1012 RMK RWY23 12004KT 080V150,1,0,0,9999,0,0,0,
2026-04-01 05:20:00,METAR LTBA 010520Z 05003KT 9999 FEW040 SCT100 14/09 Q1012 RMK RWY23 VRB02KT,0,3,0,10000,0,0,0,
2026-04-01 04:50:00,METAR LTBA 010450Z 05004KT 9999 FEW040 SCT100 11/11 Q1012 RMK RWY23 06003KT,0,4,0,10000,0,0,0,
2026-04-01 04:20:00,METAR LTBA 010420Z 05002KT 9999 FEW040 SCT100 10/10 Q1012 RMK RWY23 05003KT 270V080,0,2,0,10000,0,0,0,
2026-04-01 03:50:00,METAR LTBA 010350Z 06003KT 9999 FEW040 SCT100 10/09 Q1012 RMK RWY23 06002KT,0,3,0,10000,0,0,0,
2026-04-01 03:20:00,METAR LTBA 010320Z 06004KT 9999 SCT035 BKN070 10/10 Q1012 RMK RWY23 09003KT,0,4,0,10000,0,0,0,
2026-04-01 02:50:00,METAR LTBA 010250Z 04003KT 9999 SCT035 BKN070 10/09 Q1012 RMK RWY23 VRB01KT,0,3,0,10000,0,0,0,
2026-04-01 02:20:00,METAR LTBA 010220Z VRB01KT 9999 SCT035 BKN070 10/09 Q1012 RMK RWY23 05004KT,0,1,0,10000,0,0,0,
2026-04-01 01:50:00,METAR LTBA 010150Z 03003KT 360V060 9999 SCT035 10/10 Q1012 RMK RWY23 VRB01KT,0,3,0,10000,0,0,0,
2026-04-01 01:20:00,METAR LTBA 010120Z 11004KT 9999 SCT035 10/09 Q1012 RMK RWY23 13004KT,0,4,0,10000,0,0,0,
2026-04-01 00:50:00,METAR LTBA 010050Z 11003KT 9999 SCT035 11/09 Q1012 RMK RWY23 13004KT 120V180,0,3,0,10000,0,0,0,
2026-04-01 00:20:00,METAR LTBA 010020Z 00000KT 9999 SCT035 11/09 Q1012 RMK RWY23 10004KT,0,0,0,10000,0,0,0,
2026-03-31 23:50:00,METAR LTBA 312350Z 25004KT 9999 SCT035 11/09 Q1012 RMK RWY23 26004KT,0,4,0,9999,0,0,0,
2026-03-31 23:20:00,METAR LTBA 312320Z 26003KT 9999 SCT035 12/08 Q1012 RMK RWY23 25005KT,0,3,0,9999,0,0,0,
2026-03-31 22:50:00,METAR LTBA 312250Z 25004KT 9999 SCT035 12/08 Q1011 RMK RWY23 24005KT,0,4,0,9999,0,0,0,
2026-03-31 22:20:00,METAR LTBA 312220Z 27005KT 9999 SCT035 BKN080 12/09 Q1011 RESHRA RMK RWY23 28004KT,0,5,0,9999,0,0,0,RA
2026-03-31 22:00:00,SPECI LTBA 312200Z 28004KT 240V330 9999 SCT035 BKN080 13/09 Q1011 RESHRA,0,4,0,9999,0,0,0,RA
2026-03-31 21:50:00,METAR LTBA 312150Z VRB02KT 9999 -SHRA SCT035 BKN080 12/09 Q1011 RMK RWY23 00000KT,0,2,0,9999,0,0,0,RA
2026-03-31 21:20:00,METAR LTBA 312120Z 18004KT 9999 -SHRA SCT035 BKN080 13/09 Q1011 RMK RWY23 15003KT 110V190,0,4,0,9999,0,0,0,RA
2026-03-31 20:50:00,METAR LTBA 312050Z VRB01KT 9999 -SHRA SCT035 BKN070 12/08 Q1011 RMK RWY23 VRB02KT,0,1,0,9999,0,0,0,RA
2026-03-31 20:20:00,METAR LTBA 312020Z 24005KT 9999 -SHRA SCT035 BKN070 12/07 Q1011 RMK RWY23 23004KT,0,5,0,9999,0,0,0,RA
2026-03-31 19:50:00,METAR LTBA 311950Z 27001KT 9999 FEW035 BKN080 13/07 Q1011 RMK RWY23 24003KT,0,1,0,9999,0,0,0,
2026-03-31 19:20:00,METAR LTBA 311920Z 22001KT 9999 FEW035 BKN070 13/06 Q1010 RMK RWY23 00000KT,0,1,0,9999,0,0,0,
2026-03-31 18:50:00,METAR LTBA 311850Z 00000KT 9999 FEW035 BKN070 14/06 Q1010 RMK RWY23 00000KT,0,0,0,9999,0,0,0,
2026-03-31 18:20:00,METAR LTBA 311820Z 00000KT 9999 SCT035 BKN080 14/05 Q1010 RMK RWY23 00000KT,0,0,0,9999,0,0,0,
2026-03-31 17:50:00,METAR LTBA 311750Z 00000KT 9999 SCT035 BKN080 14/04 Q1010 RMK RWY23 00000KT,0,0,0,9999,0,0,0,
2026-03-31 17:20:00,METAR LTBA 311720Z 12002KT 9999 SCT035 BKN080 15/05 Q1009 RMK RWY23 VRB01KT,0,2,0,9999,0,0,0,
2026-03-31 16:50:00,METAR LTBA 311650Z 00000KT 9999 SCT035 BKN080 14/06 Q1009 RMK RWY23 VRB01KT,0,0,0,9999,0,0,0,
2026-03-31 16:20:00,METAR LTBA 311620Z 12004KT 9999 SCT035 BKN080 15/06 Q1009 RMK RWY23 12003KT 090V150,0,4,0,9999,0,0,0,
2026-03-31 15:50:00,METAR LTBA 311550Z 12005KT 9999 SCT035 BKN080 15/06 Q1009 RMK RWY23 14004KT,0,5,0,9999,0,0,0,
2026-03-31 15:20:00,METAR LTBA 311520Z 12006KT 9999 SCT035 BKN080 14/06 Q1008 RMK RWY23 12005KT,0,6,0,9999,0,0,0,
2026-03-31 14:50:00,METAR LTBA 311450Z 14006KT 9999 SCT035 14/07 Q1008 RMK RWY23 14006KT,0,6,0,9999,0,0,0,
2026-03-31 14:20:00,METAR LTBA 311420Z 14004KT CAVOK 16/07 Q1008 RMK RWY23 13005KT 100V160,1,0,0,9999,0,0,0,
2026-03-31 13:50:00,METAR LTBA 311350Z 23004KT 150V270 CAVOK 18/05 Q1009 RMK RWY23 25006KT 210V280,1,0,0,9999,0,0,0,
2026-03-31 13:20:00,METAR LTBA 311320Z 23005KT 200V260 CAVOK 18/06 Q1008 RMK RWY23 23006KT,1,0,0,9999,0,0,0,
2026-03-31 12:50:00,METAR LTBA 311250Z 27005KT 240V300 9999 FEW040 BKN180 17/07 Q1008 RMK RWY23 26006KT 220V290,0,5,0,9999,0,0,0,
2026-03-31 12:20:00,METAR LTBA 311220Z 24005KT 9999 FEW040 BKN180 17/08 Q1009 RMK RWY23 24005KT 200V270,0,5,0,9999,0,0,0,
2026-03-31 11:50:00,METAR LTBA 311150Z 20006KT 160V230 9999 FEW040 BKN180 15/07 Q1009 RMK RWY23 21007KT 180V240,0,6,0,9999,0,0,0,
2026-03-31 11:20:00,METAR LTBA 311120Z 22006KT 180V250 9999 FEW040 BKN180 15/08 Q1009 RMK RWY23 21007KT,0,6,0,9999,0,0,0,
2026-03-31 10:50:00,METAR LTBA 311050Z 21004KT 170V250 9999 FEW040 BKN180 15/08 Q1009 RMK RWY23 23008KT,0,4,0,9999,0,0,0,
2026-03-31 10:20:00,METAR LTBA 311020Z 21005KT 160V250 9999 FEW040 BKN180 15/08 Q1009 RMK RWY23 22006KT 190V250,0,5,0,9999,0,0,0,
2026-03-31 09:50:00,METAR LTBA 310950Z 23005KT 190V270 9999 FEW035 BKN100 14/08 Q1009 RMK RWY23 23006KT,0,5,0,9999,0,0,0,
2026-03-31 09:20:00,METAR LTBA 310920Z 24005KT 9999 FEW035 BKN100 13/08 Q1009 RMK RWY23 24007KT,0,5,0,9999,0,0,0,
2026-03-31 08:50:00,METAR LTBA 310850Z 23007KT 200V260 9999 SCT035 BKN080 14/09 Q1009 RMK RWY23 24007KT,0,7,0,9999,0,0,0,
2026-03-31 08:20:00,METAR LTBA 310820Z 25004KT 200V290 9999 SCT035 BKN080 13/10 Q1009 RMK RWY23 23006KT,0,4,0,9999,0,0,0,
2026-03-31 07:50:00,METAR LTBA 310750Z 24006KT 9999 SCT035 BKN080 13/10 Q1009 RMK RWY23 23008KT,0,6,0,9999,0,0,0,
2026-03-31 07:20:00,METAR LTBA 310720Z 23006KT 9999 SCT035 BKN080 12/09 Q1009 RMK RWY23 23009KT,0,6,0,9999,0,0,0,
2026-03-31 06:50:00,METAR LTBA 310650Z 23006KT 9999 SCT035 BKN080 12/10 Q1009 RMK RWY23 23007KT,0,6,0,9999,0,0,0,
2026-03-31 06:20:00,METAR LTBA 310620Z 21007KT 9999 SCT035 BKN080 11/09 Q1009 RMK RWY23 22010KT,0,7,0,9999,0,0,0,
2026-03-31 05:50:00,METAR LTBA 310550Z 21006KT 9999 SCT032 BKN090 11/09 Q1009 RMK RWY23 23007KT 210V270,0,6,0,9999,0,0,0,
2026-03-31 05:20:00,METAR LTBA 310520Z 21005KT 190V250 9999 SCT032 BKN090 11/10 Q1009 RMK RWY23 22006KT,0,5,0,9999,0,0,0,
2026-03-31 04:50:00,METAR LTBA 310450Z 24003KT 9999 SCT032 BKN070 11/10 Q1009 RMK RWY23 24004KT,0,3,0,9999,0,0,0,
2026-03-31 04:20:00,METAR LTBA 310420Z 23004KT 190V270 9999 SCT032 BKN070 10/10 Q1008 RMK RWY23 23006KT,0,4,0,9999,0,0,0,
2026-03-31 03:50:00,METAR LTBA 310350Z 24004KT 190V270 9999 SCT032 BKN070 11/09 Q1008 RMK RWY23 23006KT,0,4,0,9999,0,0,0,
2026-03-31 03:20:00,METAR LTBA 310320Z 23005KT 9999 SCT032 BKN070 10/10 Q1008 RMK RWY23 23004KT,0,5,0,9999,0,0,0,
2026-03-31 02:50:00,METAR LTBA 310250Z 23004KT 9999 SCT032 BKN070 10/10 Q1008 RMK RWY23 23004KT,0,4,0,9999,0,0,0,
2026-03-31 02:20:00,METAR LTBA 310220Z 24003KT 9999 SCT032 BKN090 10/09 Q1008 RMK RWY23 24004KT,0,3,0,9999,0,0,0,
2026-03-31 01:50:00,METAR LTBA 310150Z 25003KT 210V270 9999 BKN030 BKN090 10/09 Q1008 RMK RWY23 24004KT,0,3,0,9999,0,0,0,
2026-03-31 01:20:00,METAR LTBA 310120Z 21004KT 9999 BKN030 BKN090 10/09 Q1008 RMK RWY23 23005KT,0,4,0,9999,0,0,0,
2026-03-31 00:50:00,METAR LTBA 310050Z VRB01KT 9999 SCT032 BKN090 10/10 Q1008 RMK RWY23 25003KT,0,1,0,9999,0,0,0,
2026-03-31 00:20:00,METAR LTBA 310020Z 22003KT 190V250 9999 SCT032 BKN090 10/10 Q1008 RMK RWY23 23005KT,0,3,0,9999,0,0,0,
2026-03-30 23:50:00,METAR LTBA 302350Z 20006KT 9999 SCT032 BKN090 10/10 Q1008 RMK RWY23 21008KT,0,6,0,10000,0,0,0,
2026-03-30 23:20:00,METAR LTBA 302320Z 20007KT 9999 SCT032 BKN090 10/10 Q1008 RMK RWY23 21008KT,0,7,0,10000,0,0,0,
2026-03-30 22:50:00,METAR LTBA 302250Z 20007KT 9999 BKN015 BKN030 10/10 Q1008 RMK RWY23 21008KT,0,7,0,10000,0,0,0,
2026-03-30 22:20:00,METAR LTBA 302220Z 19008KT 9999 BKN015 BKN030 10/10 Q1009 RMK RWY23 20008KT,0,8,0,10000,0,0,0,
2026-03-30 21:50:00,METAR LTBA 302150Z 20006KT 170V230 9999 BKN015 BKN030 10/10 Q1009 RMK RWY23 21008KT,0,6,0,10000,0,0,0,
2026-03-30 21:20:00,METAR LTBA 302120Z 20007KT 9999 BKN015 BKN030 10/10 Q1009 RMK RWY23 21008KT,0,7,0,10000,0,0,0,
2026-03-30 20:50:00,METAR LTBA 302050Z 20007KT 9999 BKN015 BKN030 10/10 Q1009 RMK RWY23 21009KT,0,7,0,10000,0,0,0,
2026-03-30 20:20:00,METAR LTBA 302020Z 20008KT 9999 BKN015 BKN030 10/10 Q1008 RMK RWY23 21010KT,0,8,0,10000,0,0,0,
2026-03-30 19:50:00,METAR LTBA 301950Z 20008KT 9999 BKN015 BKN030 10/10 Q1008 RMK RWY23 21008KT,0,8,0,10000,0,0,0,
2026-03-30 19:20:00,METAR LTBA 301920Z 20006KT 9999 BKN015 BKN030 10/10 Q1008 RERA RMK RWY23 22008KT,0,6,0,10000,0,0,0,RA
2026-03-30 18:50:00,METAR LTBA 301850Z 21005KT 9999 -RA BKN011 BKN022 10/10 Q1008 RMK RWY23 22007KT,0,5,0,10000,0,0,0,-RA
2026-03-30 18:20:00,METAR LTBA 301820Z 23005KT 7000 -RA BKN004 BKN022 10/10 Q1008 RMK RWY23 23006KT,0,5,0,7000,0,0,0,-RA
2026-03-30 17:50:00,METAR LTBA 301750Z 25007KT 5000 -RA BR BKN004 BKN022 10/10 Q1008 RMK RWY23 25008KT,0,7,0,5000,0,0,1,"-RA,BR"
2026-03-30 17:20:00,METAR LTBA 301720Z 26007KT 4000 -RA BR BKN004 BKN022 10/10 Q1008 RMK RWY23 26009KT,0,7,0,4000,0,0,1,"-RA,BR"
2026-03-30 16:50:00,METAR LTBA 301650Z 24007KT 3500 -RA BR BKN004 BKN022 10/10 Q1008 RMK RWY23 24010KT,0,7,0,3500,0,0,1,"-RA,BR"
2026-03-30 16:20:00,METAR LTBA 301620Z 25007KT 3500 -RA BR BKN004 BKN022 10/10 Q1008 RMK RWY23 25009KT,0,7,0,3500,0,0,1,"-RA,BR"
2026-03-30 15:50:00,METAR LTBA 301550Z 25007KT 3000 -RA BR BKN004 BKN022 10/10 Q1008 RMK RWY23 24010KT,0,7,0,3000,0,0,1,"-RA,BR"
2026-03-30 15:20:00,METAR LTBA 301520Z 24008KT 3500 -RA BR BKN004 BKN022 10/10 Q1007 RMK RWY23 25009KT,0,8,0,3500,0,0,1,"-RA,BR"
2026-03-30 14:50:00,METAR LTBA 301450Z 25008KT 3000 -RA BR BKN004 BKN022 10/10 Q1007 RMK RWY23 25011KT,0,8,0,3000,0,0,1,"-RA,BR"
2026-03-30 14:20:00,METAR LTBA 301420Z 25009KT 3000 -RA BR BKN004 BKN022 10/10 Q1007 RMK RWY23 26012KT,0,9,0,3000,0,0,1,"-RA,BR"
2026-03-30 13:50:00,METAR LTBA 301350Z 26011KT 3000 -RA BR BKN004 BKN022 10/10 Q1007 RMK RWY23 26011KT,0,11,0,3000,0,0,1,"-RA,BR"
2026-03-30 13:20:00,METAR LTBA 301320Z 26011KT 2800 -RA BR BKN004 BKN022 10/10 Q1007 RMK RWY23 26012KT,0,11,0,2800,0,0,1,"-RA,BR"
2026-03-30 12:50:00,METAR LTBA 301250Z 26012KT 4000 -RA BR BKN006 BKN022 10/10 Q1007 RMK RWY23 26013KT,0,12,0,4000,0,0,1,"-RA,BR"
2026-03-30 12:20:00,METAR LTBA 301220Z 26012KT 3000 -RA BR BKN006 BKN022 10/10 Q1007 RMK RWY23 26013KT,0,12,0,3000,0,0,1,"-RA,BR"
2026-03-30 11:50:00,METAR LTBA 301150Z 26012KT 3000 -RA BR BKN006 BKN022 10/10 Q1007 RMK RWY23 26012KT,0,12,0,3000,0,0,1,"-RA,BR"
2026-03-30 11:20:00,METAR LTBA 301120Z 26011KT 3000 -RA BR BKN006 BKN022 10/10 Q1007 RMK RWY23 26011KT,0,11,0,3000,0,0,1,"-RA,BR"
2026-03-30 10:50:00,METAR LTBA 301050Z 26010KT 3000 -RA BR BKN007 BKN022 10/10 Q1007 RMK RWY23 26008KT,0,10,0,3000,0,0,1,"-RA,BR"
2026-03-30 10:20:00,METAR LTBA 301020Z 26009KT 3000 RA BR BKN007 BKN022 10/10 Q1007 RMK RWY23 26009KT,0,9,0,3000,0,0,1,"BR,RA"
2026-03-30 09:50:00,METAR LTBA 300950Z 26010KT 3000 -RA BR BKN007 BKN022 10/10 Q1007 RMK RWY23 27009KT,0,10,0,3000,0,0,1,"-RA,BR"
2026-03-30 09:20:00,METAR LTBA 300920Z 26011KT 3000 -RA BR BKN007 BKN022 10/10 Q1007 RMK RWY23 26011KT,0,11,0,3000,0,0,1,"-RA,BR"
2026-03-30 08:50:00,METAR LTBA 300850Z 26010KT 3000 -RA BR BKN007 BKN022 10/10 Q1006 RMK RWY23 26011KT,0,10,0,3000,0,0,1,"-RA,BR"
2026-03-30 08:20:00,METAR LTBA 300820Z 26010KT 3000 -RA BR BKN007 BKN022 09/09 Q1006 RMK RWY23 26010KT,0,10,0,3000,0,0,1,"-RA,BR"
2026-03-30 07:50:00,METAR LTBA 300750Z 26012KT 3000 -RA BR BKN007 BKN022 09/09 Q1006 RMK RWY23 26009KT,0,12,0,3000,0,0,1,"-RA,BR"
2026-03-30 07:20:00,METAR LTBA 300720Z 26012KT 3000 -RA BR BKN007 BKN022 09/09 Q1006 RMK RWY23 26010KT,0,12,0,3000,0,0,1,"-RA,BR"
2026-03-30 06:50:00,METAR LTBA 300650Z 26013KT 3100 -RA BR BKN007 BKN030 09/09 Q1005 RMK RWY23 26010KT,0,13,0,3100,0,0,1,"-RA,BR"
2026-03-30 06:20:00,METAR LTBA 300620Z 26012KT 3000 -RA BR BKN007 BKN030 09/09 Q1005 RMK RWY23 26010KT,0,12,0,3000,0,0,1,"-RA,BR"
2026-03-30 05:50:00,METAR LTBA 300550Z 26014KT 6000 -RA BKN007 BKN030 09/09 Q1004 RMK RWY23 26013KT,0,14,0,6000,0,0,0,-RA
2026-03-30 05:20:00,METAR LTBA 300520Z 26016KT 6000 -RA BKN007 BKN030 09/09 Q1004 RMK RWY23 26015KT,0,16,0,6000,0,0,0,-RA
2026-03-30 04:50:00,METAR LTBA 300450Z 26018KT 6000 -RA BKN007 BKN030 08/08 Q1004 RMK RWY23 26016KT,0,18,0,6000,0,0,0,-RA
2026-03-30 04:20:00,METAR LTBA 300420Z 26016KT 8000 -RA BKN008 BKN030 08/08 Q1004 RMK RWY23 26014KT,0,16,0,8000,0,0,0,-RA
2026-03-30 03:50:00,METAR LTBA 300350Z 26016KT 8000 -RA BKN008 BKN030 08/08 Q1004 RMK RWY23 27014KT,0,16,0,8000,0,0,0,-RA
2026-03-30 03:20:00,METAR LTBA 300320Z 27014KT 8000 -RA BKN008 BKN030 08/08 Q1004 RMK RWY23 26011KT,0,14,0,8000,0,0,0,-RA
2026-03-30 02:50:00,METAR LTBA 300250Z 26016KT 8000 -RA BKN008 BKN030 09/09 Q1004 RMK RWY23 27014KT,0,16,0,8000,0,0,0,-RA
2026-03-30 02:20:00,METAR LTBA 300220Z 26019KT 8000 -RA BKN008 BKN030 08/08 Q1003 RMK RWY23 27015KT,0,19,0,8000,0,0,0,-RA
2026-03-30 01:50:00,METAR LTBA 300150Z 27019KT 8000 -RA BKN008 BKN030 09/09 Q1003 RMK RWY23 27016KT,0,19,0,8000,0,0,0,-RA
2026-03-30 01:20:00,METAR LTBA 300120Z 27017KT 8000 -RA BKN008 BKN030 09/09 Q1004 RMK RWY23 27016KT,0,17,0,8000,0,0,0,-RA
2026-03-30 00:50:00,METAR LTBA 300050Z 27015KT 8000 -RA BKN008 BKN030 09/09 Q1004 RMK RWY23 27014KT,0,15,0,8000,0,0,0,-RA
2026-03-30 00:20:00,METAR LTBA 300020Z 27013KT 8000 -RA BKN011 BKN030 09/09 Q1004 RMK RWY23 27013KT,0,13,0,8000,0,0,0,-RA
2026-03-29 23:50:00,METAR LTBA 292350Z 28012KT 8000 -RA BKN011 BKN030 09/09 Q1004 RMK RWY23 27014KT,0,12,0,8000,0,0,0,-RA
2026-03-29 23:20:00,METAR LTBA 292320Z 27014KT 8000 -RA BKN011 BKN030 09/09 Q1004 RMK RWY23 27012KT,0,14,0,8000,0,0,0,-RA
2026-03-29 22:50:00,METAR LTBA 292250Z 27014KT 8000 -RA BKN011 BKN030 09/09 Q1004 RMK RWY23 28014KT,0,14,0,8000,0,0,0,-RA
2026-03-29 22:20:00,METAR LTBA 292220Z 27015KT 8000 -RA BKN011 BKN030 09/09 Q1004 RMK RWY23 27013KT,0,15,0,8000,0,0,0,-RA
2026-03-29 21:50:00,METAR LTBA 292150Z 28015KT 8000 -RA BKN011 BKN030 09/09 Q1004 RMK RWY23 28013KT,0,15,0,8000,0,0,0,-RA
2026-03-29 21:20:00,METAR LTBA 292120Z 29011KT 8000 -RA BKN011 BKN030 09/09 Q1004 RMK RWY23 28016KT,0,11,0,8000,0,0,0,-RA
2026-03-29 20:50:00,METAR LTBA 292050Z 28011KT 8000 -RA BKN011 BKN030 09/09 Q1004 RMK RWY23 28013KT,0,11,0,8000,0,0,0,-RA
2026-03-29 20:20:00,METAR LTBA 292020Z 28010KT 8000 -RA BKN011 BKN030 09/09 Q1004 RMK RWY23 28012KT,0,10,0,8000,0,0,0,-RA
2026-03-29 19:50:00,METAR LTBA 291950Z 27010KT 9999 -RA BKN011 BKN030 09/09 Q1004 RMK RWY23 28013KT,0,10,0,10000,0,0,0,-RA
2026-03-29 19:20:00,METAR LTBA 291920Z 27012KT 9999 -RA BKN011 BKN030 09/09 Q1004 RMK RWY23 27011KT,0,12,0,10000,0,0,0,-RA
2026-03-29 18:50:00,METAR LTBA 291850Z 27011KT 9999 -RA BKN011 BKN030 09/09 Q1004 RMK RWY23 27011KT,0,11,0,10000,0,0,0,-RA
2026-03-29 18:20:00,METAR LTBA 291820Z 27011KT 9999 -RA BKN011 BKN030 09/09 Q1004 RMK RWY23 27009KT,0,11,0,10000,0,0,0,-RA
2026-03-29 17:50:00,METAR LTBA 291750Z 27009KT 9999 -RA BKN011 BKN030 09/09 Q1004 RMK RWY23 28010KT,0,9,0,10000,0,0,0,-RA
2026-03-29 17:20:00,METAR LTBA 291720Z 28009KT 9999 -RA BKN011 BKN030 09/09 Q1003 RMK RWY23 29012KT,0,9,0,10000,0,0,0,-RA
2026-03-29 16:50:00,METAR LTBA 291650Z 29010KT 8000 -RA BKN011 BKN030 10/09 Q1003 RMK RWY23 29012KT,0,10,0,8000,0,0,0,-RA
2026-03-29 16:20:00,METAR LTBA 291620Z 28007KT 7000 -RA BKN011 BKN027 10/10 Q1003 RMK RWY23 29006KT,0,7,0,7000,0,0,0,-RA
2026-03-29 15:20:00,METAR LTBA 291520Z 26006KT 6000 -RA BKN011 BKN025 10/10 Q1002 RMK RWY23 25006KT,0,6,0,6000,0,0,0,-RA
2026-03-29 14:50:00,METAR LTBA 291450Z 23005KT 6000 -RA BKN011 BKN025 10/10 Q1002 RMK RWY23 24006KT,0,5,0,6000,0,0,0,-RA
2026-03-29 14:20:00,METAR LTBA 291420Z 24004KT 6000 -RA BKN011 BKN025 10/10 Q1002 RMK RWY23 25004KT 230V310,0,4,0,6000,0,0,0,-RA
2026-03-29 13:50:00,METAR LTBA 291350Z 25005KT 6000 -RA BKN011 BKN025 10/10 Q1001 RMK RWY23 31005KT 280V340,0,5,0,6000,0,0,0,-RA
2026-03-29 13:20:00,METAR LTBA 291320Z 26008KT 4000 -RA BR BKN007 BKN020 10/10 Q1001 RMK RWY23 26007KT,0,8,0,4000,0,0,1,"-RA,BR"
2026-03-29 12:50:00,METAR LTBA 291250Z 25006KT 5000 -RA BR BKN009 BKN020 10/10 Q1001 RMK RWY23 25007KT,0,6,0,5000,0,0,1,"-RA,BR"
2026-03-29 12:20:00,METAR LTBA 291220Z 26010KT 3000 -RA BR BKN004 BKN020 10/10 Q1001 RMK RWY23 26010KT,0,10,0,3000,0,0,1,"-RA,BR"
2026-03-29 11:50:00,METAR LTBA 291150Z 26012KT 3000 -RA BR BKN004 BKN020 10/10 Q1000 RMK RWY23 26011KT,0,12,0,3000,0,0,1,"-RA,BR"
2026-03-29 11:20:00,METAR LTBA 291120Z 23010KT 3000 -RA BR BKN004 BKN020 09/09 Q1000 RMK RWY23 24013KT,0,10,0,3000,0,0,1,"-RA,BR"
2026-03-29 10:50:00,METAR LTBA 291050Z 24012KT 3000 -RA BR BKN004 BKN020 09/09 Q1000 RMK RWY23 24015KT,0,12,0,3000,0,0,1,"-RA,BR"
2026-03-29 10:20:00,METAR LTBA 291020Z 24012KT 3000 -RA BR BKN004 BKN020 09/09 Q1000 RMK RWY23 25014KT,0,12,0,3000,0,0,1,"-RA,BR"
2026-03-29 09:50:00,METAR LTBA 290950Z 22012KT 2000 -RA BR BKN004 BKN020 09/09 Q1000 RMK RWY23 23014KT,0,12,0,2000,0,0,1,"-RA,BR"
2026-03-29 09:20:00,METAR LTBA 290920Z 23012KT 2500 -RA BR BKN004 BKN020 09/09 Q1000 RMK RWY23 23014KT,0,12,0,2500,0,0,1,"-RA,BR"
2026-03-29 08:50:00,METAR LTBA 290850Z 23012KT 2000 -RA BR BKN002 BKN020 09/09 Q1000 RMK RWY23 24014KT,0,12,0,2000,0,0,1,"-RA,BR"
2026-03-29 08:20:00,METAR LTBA 290820Z 23013KT 2500 -RA BR BKN002 BKN020 09/09 Q0999 RMK RWY23 24015KT,0,13,0,2500,0,0,1,"-RA,BR"
2026-03-29 07:50:00,METAR LTBA 290750Z 24012KT 3000 -RA BR BKN002 BKN020 09/09 Q0999 RMK RWY23 24014KT,0,12,0,3000,0,0,1,"-RA,BR"
2026-03-29 07:20:00,METAR LTBA 290720Z 25010KT 3600 -RA BR BKN002 BKN020 09/09 Q0999 RMK RWY23 25008KT,0,10,0,3600,0,0,1,"-RA,BR"
2026-03-29 06:50:00,METAR LTBA 290650Z 24006KT 210V290 3600 -RA BR BKN005 BKN021 09/09 Q0999 RMK RWY23 26007KT,0,6,0,3600,0,0,1,"-RA,BR"
2026-03-29 06:20:00,METAR LTBA 290620Z 27006KT 4000 -RA BR BKN005 BKN021 09/09 Q0999 RMK RWY23 29007KT,0,6,0,4000,0,0,1,"-RA,BR"
2026-03-29 05:50:00,METAR LTBA 290550Z 29006KT 3300 -RA BR BKN005 BKN021 09/09 Q0999 RESHRA RMK RWY23 29004KT,0,6,0,3300,0,0,1,"-RA,BR,RA"
2026-03-29 05:20:00,METAR LTBA 290520Z 29006KT 3700 -SHRA BR SCT009 BKN025 09/09 Q0999 RMK RWY23 31005KT,0,6,0,3700,0,0,1,"BR,RA"
2026-03-29 04:50:00,METAR LTBA 290450Z 30005KT 280V340 6000 -SHRA SCT009 BKN025 10/10 Q0998 RMK RWY23 30004KT 270V340,0,5,0,6000,0,0,0,RA
2026-03-29 04:20:00,METAR LTBA 290420Z 33004KT 300V020 8000 -SHRA SCT009 BKN025 10/10 Q0998 RMK RWY23 34006KT,0,4,0,8000,0,0,0,RA
2026-03-29 03:50:00,METAR LTBA 290350Z 33004KT 8000 -SHRA SCT009 BKN025 10/10 Q0998 RMK RWY23 30001KT,0,4,0,8000,0,0,0,RA
2026-03-29 03:20:00,METAR LTBA 290320Z VRB02KT 8000 -SHRA SCT009 BKN025 10/10 Q0998 RMK RWY23 VRB02KT,0,2,0,8000,0,0,0,RA
2026-03-29 02:50:00,METAR LTBA 290250Z 34003KT 320V020 8000 -SHRA SCT009 BKN025 10/10 Q0998 RMK RWY23 02004KT,0,3,0,8000,0,0,0,RA
2026-03-29 02:20:00,METAR LTBA 290220Z 05006KT 6000 -SHRA SCT009 BKN025 10/10 Q0998 RMK RWY23 05004KT 010V080,0,6,0,6000,0,0,0,RA
2026-03-29 01:50:00,METAR LTBA 290150Z 02004KT 350V050 6000 -SHRA SCT009 BKN025 10/10 Q0998 RMK RWY23 03006KT,0,4,0,6000,0,0,0,RA
2026-03-29 01:20:00,METAR LTBA 290120Z 04005KT 6000 -SHRA SCT009 BKN025 09/09 Q0998 RMK RWY23 04004KT,0,5,0,6000,0,0,0,RA
2026-03-29 00:50:00,METAR LTBA 290050Z 04003KT 6000 -SHRA SCT009 BKN025 09/09 Q0999 RMK RWY23 04004KT,0,3,0,6000,0,0,0,RA
2026-03-29 00:20:00,METAR LTBA 290020Z 08004KT 6000 -SHRA SCT009 BKN025 10/10 Q0999 RMK RWY23 07004KT,0,4,0,6000,0,0,0,RA
2026-03-28 23:50:00,METAR LTBA 282350Z 07006KT 6000 -SHRA SCT005 BKN025 09/09 Q0999 RMK RWY23 07006KT,0,6,0,6000,0,0,0,RA
2026-03-28 23:20:00,METAR LTBA 282320Z 04006KT 6000 -SHRA SCT005 BKN025 09/09 Q0999 RMK RWY23 04004KT,0,6,0,6000,0,0,0,RA
2026-03-28 22:50:00,METAR LTBA 282250Z 05003KT 6000 -SHRA SCT005 BKN025 10/10 Q1000 RMK RWY23 06005KT,0,3,0,6000,0,0,0,RA
2026-03-28 22:20:00,METAR LTBA 282220Z VRB01KT 6000 -SHRA SCT005 BKN025 10/10 Q1000 RMK RWY23 08004KT 050V120,0,1,0,6000,0,0,0,RA
2026-03-28 21:50:00,METAR LTBA 282150Z 00000KT 6000 -SHRA SCT005 BKN025 10/10 Q1000 RMK RWY23 00000KT,0,0,0,6000,0,0,0,RA
2026-03-28 21:20:00,METAR LTBA 282120Z 23002KT 6000 -SHRA SCT006 BKN025 10/10 Q1001 RMK RWY23 00000KT,0,2,0,6000,0,0,0,RA
2026-03-28 20:50:00,METAR LTBA 282050Z 25005KT 6000 -SHRA SCT009 BKN025 09/09 Q1001 RESHRA RMK RWY23 VRB01KT,0,5,0,6000,0,0,0,RA
2026-03-28 20:20:00,METAR LTBA 282020Z 01004KT 8000 SHRA SCT009 BKN030 10/10 Q1001 RMK RWY23 00000KT,0,4,0,8000,0,0,0,"RA,SH"
2026-03-28 19:50:00,METAR LTBA 281950Z 01002KT 8000 SHRA BKN030 BKN080 10/10 Q1002 RMK RWY23 00000KT,0,2,0,8000,0,0,0,"RA,SH"
2026-03-28 19:20:00,METAR LTBA 281920Z 02002KT 8000 SHRA BKN030 BKN080 10/10 Q1002 RMK RWY23 00000KT,0,2,0,8000,0,0,0,"RA,SH"
2026-03-28 18:50:00,METAR LTBA 281850Z 00000KT 9999 SHRA BKN030 BKN080 10/10 Q1002 RMK RWY23 00000KT,0,0,0,10000,0,0,0,"RA,SH"
2026-03-28 18:20:00,METAR LTBA 281820Z 09003KT 060V120 8000 SHRA BKN030 BKN080 10/10 Q1002 RMK RWY23 VRB03KT,0,3,0,8000,0,0,0,"RA,SH"
2026-03-28 17:50:00,METAR LTBA 281750Z 12006KT 7000 -SHRA BKN030 BKN080 10/10 Q1002 RMK RWY23 13006KT,0,6,0,7000,0,0,0,RA
2026-03-28 17:20:00,METAR LTBA 281720Z 12007KT 7000 -SHRA BKN030 BKN080 10/10 Q1002 RMK RWY23 12007KT,0,7,0,7000,0,0,0,RA
2026-03-28 16:50:00,METAR LTBA 281650Z 11006KT 7000 -SHRA BKN030 BKN080 10/10 Q1002 RMK RWY23 12006KT 090V150,0,6,0,7000,0,0,0,RA
2026-03-28 16:20:00,METAR LTBA 281620Z 10008KT 3500 -SHRA BR BKN030 BKN080 10/10 Q1002 RMK RWY23 12007KT,0,8,0,3500,0,0,1,"BR,RA"
2026-03-28 15:50:00,METAR LTBA 281550Z 10008KT 3000 -SHRA BR BKN030 BKN080 10/10 Q1002 RMK RWY23 12007KT,0,8,0,3000,0,0,1,"BR,RA"
2026-03-28 15:20:00,METAR LTBA 281520Z 10007KT 3000 -SHRA BR BKN032 BKN080 10/10 Q1002 RMK RWY23 11007KT,0,7,0,3000,0,0,1,"BR,RA"
2026-03-28 14:50:00,METAR LTBA 281450Z 12008KT 3000 -SHRA BR BKN032 BKN080 10/10 Q1003 RMK RWY23 12005KT,0,8,0,3000,0,0,1,"BR,RA"
2026-03-28 14:20:00,METAR LTBA 281420Z 12005KT 3800 -SHRA BR BKN032 BKN080 10/10 Q1003 RMK RWY23 11005KT,0,5,0,3800,0,0,1,"BR,RA"
2026-03-28 13:50:00,METAR LTBA 281350Z 11005KT 080V140 6000 -SHRA BKN030 BKN080 11/11 Q1003 RMK RWY23 13006KT,0,5,0,6000,0,0,0,RA
2026-03-28 13:20:00,METAR LTBA 281320Z 10006KT 6000 -SHRA BKN030 BKN080 11/11 Q1003 RMK RWY23 12005KT,0,6,0,6000,0,0,0,RA
2026-03-28 12:50:00,METAR LTBA 281250Z 09004KT 8000 -SHRA BKN032 BKN080 11/11 Q1003 RMK RWY23 12004KT 090V150,0,4,0,8000,0,0,0,RA
2026-03-28 12:20:00,METAR LTBA 281220Z VRB02KT 9999 -SHRA BKN032 BKN080 11/11 Q1003 RMK RWY23 10004KT 070V130,0,2,0,10000,0,0,0,RA
2026-03-28 11:50:00,METAR LTBA 281150Z 08006KT 9999 -SHRA BKN032 BKN080 11/10 Q1003 RMK RWY23 09004KT 070V170,0,6,0,10000,0,0,0,RA
2026-03-28 11:20:00,METAR LTBA 281120Z 10005KT 9999 -SHRA BKN032 BKN080 11/10 Q1004 RMK RWY23 11004KT 070V150,0,5,0,10000,0,0,0,RA
2026-03-28 10:50:00,METAR LTBA 281050Z 10007KT 9999 -SHRA BKN032 BKN080 11/10 Q1004 RMK RWY23 11007KT,0,7,0,10000,0,0,0,RA
2026-03-28 10:20:00,METAR LTBA 281020Z 00000KT 9999 -SHRA BKN032 BKN080 12/10 Q1004 RMK RWY23 00000KT,0,0,0,10000,0,0,0,RA
2026-03-28 09:50:00,METAR LTBA 280950Z 10004KT 9999 -SHRA BKN032 BKN080 11/10 Q1004 RESHRA RMK RWY23 12004KT,0,4,0,10000,0,0,0,RA
2026-03-28 09:25:00,SPECI LTBA 280925Z VRB02KT 9999 -SHRA BKN032 BKN080 10/10 Q1005 RESHRA,0,2,0,10000,0,0,0,RA
2026-03-28 09:20:00,METAR LTBA 280920Z VRB02KT 9999 SHRA BKN032 BKN080 10/10 Q1005 RMK RWY23 VRB02KT,0,2,0,10000,0,0,0,"RA,SH"
2026-03-28 08:50:00,METAR LTBA 280850Z 16005KT 140V200 9999 SHRA BKN032 BKN080 10/10 Q1005 RMK RWY23 20005KT,0,5,0,10000,0,0,0,"RA,SH"
2026-03-28 08:20:00,METAR LTBA 280820Z 11003KT 070V150 9999 SHRA BKN032 BKN080 10/09 Q1005 RMK RWY23 VRB02KT,0,3,0,10000,0,0,0,"RA,SH"
2026-03-28 08:10:00,SPECI LTBA 280810Z 13003KT 100V180 9999 SHRA BKN032 BKN080 10/10 Q1005,0,3,0,10000,0,0,0,"RA,SH"
2026-03-28 07:50:00,METAR LTBA 280750Z 13004KT 100V200 9999 -SHRA BKN032 BKN080 11/09 Q1005 RMK RWY23 VRB02KT,0,4,0,10000,0,0,0,RA
2026-03-28 07:20:00,METAR LTBA 280720Z VRB02KT 9999 -SHRA BKN032 BKN080 11/09 Q1005 RMK RWY23 VRB02KT,0,2,0,10000,0,0,0,RA
2026-03-28 06:50:00,METAR LTBA 280650Z VRB01KT 9999 -SHRA BKN032 BKN080 11/09 Q1005 RMK RWY23 00000KT,0,1,0,10000,0,0,0,RA
2026-03-28 06:20:00,METAR LTBA 280620Z 14004KT 110V180 9999 -SHRA BKN032 BKN080 10/09 Q1005 RMK RWY23 15005KT,0,4,0,10000,0,0,0,RA
2026-03-28 05:50:00,METAR LTBA 280550Z 15006KT 9999 -SHRA BKN032 BKN080 11/09 Q1005 RMK RWY23 16008KT,0,6,0,10000,0,0,0,RA
2026-03-28 05:20:00,METAR LTBA 280520Z 18012KT 9999 -SHRA BKN032 BKN080 11/08 Q1005 RMK RWY23 19013KT,0,12,0,10000,0,0,0,RA
2026-03-28 04:50:00,METAR LTBA 280450Z 17011KT 9999 -SHRA BKN032 BKN090 11/08 Q1005 RMK RWY23 18012KT,0,11,0,10000,0,0,0,RA
2026-03-28 04:32:00,SPECI LTBA 280432Z 17008KT 130V190 9999 -SHRA SCT035 BKN100 11/08 Q1005,0,8,0,10000,0,0,0,RA
2026-03-28 04:20:00,METAR LTBA 280420Z 18010KT 9999 SCT035 BKN090 11/08 Q1005 RMK RWY23 19010KT,0,10,0,10000,0,0,0,
2026-03-28 03:50:00,METAR LTBA 280350Z 19006KT 160V220 9999 SCT035 BKN100 11/08 Q1005 RMK RWY23 20004KT 160V230,0,6,0,10000,0,0,0,
2026-03-28 03:20:00,METAR LTBA 280320Z 19004KT 140V260 9999 BKN035 BKN090 11/08 Q1005 RMK RWY23 VRB02KT,0,4,0,10000,0,0,0,
2026-03-28 02:50:00,METAR LTBA 280250Z 19008KT 160V220 9999 BKN035 BKN090 11/07 Q1005 RMK RWY23 20011KT,0,8,0,10000,0,0,0,
2026-03-28 02:20:00,METAR LTBA 280220Z 18007KT 9999 SCT035 BKN090 11/08 Q1005 RMK RWY23 20009KT,0,7,0,10000,0,0,0,
2026-03-28 01:50:00,METAR LTBA 280150Z 17008KT 9999 SCT035 BKN090 11/08 Q1005 RESHRA RMK RWY23 18009KT,0,8,0,10000,0,0,0,RA
2026-03-28 01:20:00,METAR LTBA 280120Z 18009KT 9999 -SHRA BKN035 BKN070 11/08 Q1005 RMK RWY23 18010KT,0,9,0,10000,0,0,0,RA
2026-03-28 00:50:00,METAR LTBA 280050Z 19010KT 9999 -SHRA BKN035 BKN070 11/08 Q1006 RMK RWY23 19010KT,0,10,0,10000,0,0,0,RA
2026-03-28 00:20:00,METAR LTBA 280020Z 18012KT 9999 -SHRA BKN035 BKN070 11/09 Q1006 RMK RWY23 18012KT,0,12,0,10000,0,0,0,RA
2026-03-27 23:50:00,METAR LTBA 272350Z 18011KT 9000 -SHRA BKN035 BKN070 11/09 Q1006 RMK RWY23 19010KT 150V210,0,11,0,9000,0,0,0,RA
2026-03-27 23:20:00,METAR LTBA 272320Z 17008KT 140V200 9999 BKN035 BKN070 10/10 Q1006 RMK RWY23 18007KT 150V210,0,8,0,10000,0,0,0,
2026-03-27 22:50:00,METAR LTBA 272250Z 21006KT 160V240 8000 -SHRA FEW015 BKN035 BKN070 10/10 Q1007 RMK RWY23 23007KT,0,6,0,8000,0,0,0,RA
2026-03-27 22:20:00,METAR LTBA 272220Z 25005KT 9000 -SHRA BKN035 BKN070 11/11 Q1007 RMK RWY23 25007KT,0,5,0,9000,0,0,0,RA
2026-03-27 21:50:00,METAR LTBA 272150Z 26008KT 9999 -SHRA BKN035 BKN070 11/11 Q1007 RMK RWY23 26010KT,0,8,0,10000,0,0,0,RA
2026-03-27 21:20:00,METAR LTBA 272120Z 23014KT 9000 -SHRA SCT025 BKN070 12/10 Q1007 RMK RWY23 24016KT,0,14,0,9000,0,0,0,RA
2026-03-27 20:50:00,METAR LTBA 272050Z 26008KT 9999 -SHRA SCT030 BKN070 12/10 Q1006 RMK RWY23 26011KT,0,8,0,10000,0,0,0,RA
2026-03-27 20:20:00,METAR LTBA 272020Z 24009G19KT 9999 -SHRA SCT028 BKN090 13/08 Q1006 RMK RWY23 23009KT,0,9,1,10000,0,0,0,RA
2026-03-27 19:50:00,METAR LTBA 271950Z 00000KT 9999 -SHRA SCT028 BKN090 14/07 Q1005 RMK RWY23 07004KT,0,0,0,10000,0,0,0,RA
2026-03-27 19:20:00,METAR LTBA 271920Z 06006KT 9999 SCT035 BKN100 14/07 Q1005 RMK RWY23 VRB02KT,0,6,0,10000,0,0,0,
2026-03-27 18:50:00,METAR LTBA 271850Z 06007KT 9999 SCT035 BKN090 14/07 Q1005 RMK RWY23 06006KT,0,7,0,10000,0,0,0,
2026-03-27 18:20:00,METAR LTBA 271820Z 07005KT 9999 SCT035 BKN090 14/07 Q1004 RMK RWY23 07005KT,0,5,0,10000,0,0,0,
2026-03-27 17:50:00,METAR LTBA 271750Z 09004KT 070V130 9999 SCT035 BKN070 16/06 Q1004 RMK RWY23 07007KT,0,4,0,10000,0,0,0,
2026-03-27 17:20:00,METAR LTBA 271720Z 08005KT 050V110 9999 SCT035 BKN070 15/07 Q1004 RMK RWY23 07004KT 020V100,0,5,0,10000,0,0,0,
2026-03-27 16:50:00,METAR LTBA 271650Z VRB02KT 9999 SCT035 BKN070 16/07 Q1004 RESHRA RMK RWY23 11005KT 070V170,0,2,0,10000,0,0,0,RA
2026-03-27 16:20:00,METAR LTBA 271620Z 20007KT 9999 -SHRA SCT035 BKN070 16/07 Q1004 RMK RWY23 21006KT,0,7,0,10000,0,0,0,RA
2026-03-25 14:50:00,METAR LTBA 251450Z 03014KT 9999 BKN025 11/06 Q1008 RMK RWY23 04012KT,0,14,0,10000,0,0,0,
2026-03-25 14:20:00,METAR LTBA 251420Z 04014KT 9999 BKN030 12/05 Q1008 RMK RWY23 02014KT,0,14,0,10000,0,0,0,
2026-03-25 13:50:00,METAR LTBA 251350Z 02013KT 350V050 9999 FEW040 13/04 Q1008 RMK RWY23 02014KT,0,13,0,10000,0,0,0,
2026-03-25 13:20:00,METAR LTBA 251320Z 02015KT 9999 FEW040 13/04 Q1008 RMK RWY23 04012KT,0,15,0,10000,0,0,0,
2026-03-25 12:50:00,METAR LTBA 251250Z 03016KT 350V060 9999 FEW040 13/04 Q1008 RMK RWY23 01014KT 340V060,0,16,0,10000,0,0,0,
2026-03-25 12:20:00,METAR LTBA 251220Z 01015KT 9999 FEW040 13/03 Q1008 RMK RWY23 02014KT 350V060,0,15,0,10000,0,0,0,
2026-03-25 11:50:00,METAR LTBA 251150Z 02014KT 9999 FEW040 14/03 Q1008 RMK RWY23 02015KT,0,14,0,10000,0,0,0,
2026-03-25 11:20:00,METAR LTBA 251120Z 04019KT 9999 FEW040 14/03 Q1008 RMK RWY23 02015KT 350V050,0,19,0,10000,0,0,0,
2026-03-25 10:50:00,METAR LTBA 251050Z 04018KT 9999 SCT040 14/03 Q1008 RMK RWY23 03017KT,0,18,0,10000,0,0,0,
2026-03-25 10:20:00,METAR LTBA 251020Z 03018KT 9999 FEW040 13/03 Q1009 RMK RWY23 02016KT,0,18,0,10000,0,0,0,
2026-03-25 09:50:00,METAR LTBA 250950Z 04016KT 9999 FEW040 14/04 Q1009 RMK RWY23 03016G27KT 350V060,0,16,0,10000,0,0,0,
2026-03-25 09:20:00,METAR LTBA 250920Z 04015KT 9999 SCT035 14/04 Q1009 RMK RWY23 05014KT,0,15,0,10000,0,0,0,
2026-03-25 08:50:00,METAR LTBA 250850Z 04015KT 9999 SCT035 13/04 Q1009 RMK RWY23 05014KT,0,15,0,10000,0,0,0,
2026-03-25 08:20:00,METAR LTBA 250820Z 03018KT 010V070 9999 SCT035 13/04 Q1009 RMK RWY23 04013KT,0,18,0,10000,0,0,0,
2026-03-25 07:50:00,METAR LTBA 250750Z 02016KT 9999 SCT035 12/04 Q1009 RMK RWY23 03015KT 360V070,0,16,0,10000,0,0,0,
2026-03-25 07:20:00,METAR LTBA 250720Z 03015KT 9999 SCT035 12/04 Q1009 RMK RWY23 03015KT,0,15,0,10000,0,0,0,
2026-03-25 06:50:00,METAR LTBA 250650Z 03013KT 360V060 9999 SCT035 11/06 Q1009 RMK RWY23 02014KT,0,13,0,10000,0,0,0,
2026-03-25 06:20:00,METAR LTBA 250620Z 03015KT 9999 FEW015 BKN030 10/06 Q1009 RMK RWY23 02013KT,0,15,0,10000,0,0,0,
2026-03-25 05:50:00,METAR LTBA 250550Z 02014KT 9999 FEW015 BKN030 09/06 Q1009 RMK RWY23 03014KT,0,14,0,10000,0,0,0,
2026-03-25 05:20:00,METAR LTBA 250520Z 02015KT 9999 SCT015 BKN026 09/06 Q1009 RMK RWY23 03013KT,0,15,0,10000,0,0,0,
2026-03-25 04:50:00,METAR LTBA 250450Z 02016KT 9999 BKN009 BKN022 09/06 Q1009 RMK RWY23 03013KT,0,16,0,10000,0,0,0,
2026-03-25 04:20:00,METAR LTBA 250420Z 02012KT 9999 BKN009 BKN022 09/07 Q1009 RMK RWY23 02013KT,0,12,0,10000,0,0,0,
2026-03-25 03:50:00,METAR LTBA 250350Z 03013KT 9999 BKN009 BKN022 09/07 Q1009 RMK RWY23 02014KT,0,13,0,10000,0,0,0,
2026-03-25 03:20:00,METAR LTBA 250320Z 02013KT 9999 BKN009 BKN022 09/07 Q1009 RMK RWY23 03013KT,0,13,0,10000,0,0,0,
2026-03-25 02:50:00,METAR LTBA 250250Z 03013KT 9999 BKN009 BKN022 09/07 Q1009 RMK RWY23 04011KT,0,13,0,10000,0,0,0,
2026-03-25 02:20:00,METAR LTBA 250220Z 04014KT 9999 BKN009 BKN022 09/07 Q1009 RMK RWY23 04012KT,0,14,0,10000,0,0,0,
2026-03-25 01:50:00,METAR LTBA 250150Z 04014KT 9999 BKN009 BKN022 09/07 Q1009 RMK RWY23 05012KT 020V090,0,14,0,10000,0,0,0,
2026-03-25 01:20:00,METAR LTBA 250120Z 03011KT 350V050 9999 BKN009 BKN022 09/08 Q1009 RMK RWY23 04011KT,0,11,0,10000,0,0,0,
2026-03-25 00:50:00,METAR LTBA 250050Z 04011KT 9999 BKN009 BKN022 09/07 Q1010 RMK RWY23 04011KT 010V070,0,11,0,10000,0,0,0,
2026-03-25 00:20:00,METAR LTBA 250020Z 04013KT 9999 BKN009 BKN022 09/07 Q1010 RMK RWY23 06011KT,0,13,0,10000,0,0,0,
2026-03-24 23:50:00,METAR LTBA 242350Z 04012KT 9999 BKN009 BKN022 09/07 Q1010 RMK RWY23 06013KT,0,12,0,10000,0,0,0,
2026-03-24 23:20:00,METAR LTBA 242320Z 04014KT 9999 BKN009 BKN022 09/07 Q1010 RMK RWY23 05010KT,0,14,0,10000,0,0,0,
2026-03-24 22:50:00,METAR LTBA 242250Z 04013KT 9999 BKN009 BKN022 09/07 Q1010 RMK RWY23 04010KT 020V080,0,13,0,10000,0,0,0,
2026-03-24 22:20:00,METAR LTBA 242220Z 05012KT 9999 BKN009 BKN022 09/07 Q1010 RMK RWY23 05011KT,0,12,0,10000,0,0,0,
2026-03-24 21:50:00,METAR LTBA 242150Z 05014KT 9999 BKN009 BKN022 09/08 Q1010 RMK RWY23 04013KT 020V080,0,14,0,10000,0,0,0,
2026-03-24 21:20:00,METAR LTBA 242120Z 04012KT 9999 BKN009 BKN022 09/08 Q1010 RMK RWY23 05010KT,0,12,0,10000,0,0,0,
2026-03-24 20:50:00,METAR LTBA 242050Z 04014KT 9999 BKN009 BKN022 09/08 Q1011 RMK RWY23 05010KT,0,14,0,10000,0,0,0,
2026-03-24 20:20:00,METAR LTBA 242020Z 04015KT 9000 BKN009 BKN022 09/08 Q1011 RMK RWY23 04010KT,0,15,0,9000,0,0,0,
2026-03-24 19:50:00,METAR LTBA 241950Z 04011KT 9000 BKN009 BKN022 09/08 Q1011 RMK RWY23 04011KT,0,11,0,9000,0,0,0,
2026-03-24 19:20:00,METAR LTBA 241920Z 05013KT 9000 BKN009 BKN022 09/08 Q1011 RMK RWY23 06011KT,0,13,0,9000,0,0,0,
2026-03-24 18:50:00,METAR LTBA 241850Z 04014KT 9999 BKN009 BKN022 09/08 Q1011 RMK RWY23 05012KT,0,14,0,10000,0,0,0,
2026-03-24 18:20:00,METAR LTBA 241820Z 05014KT 9999 BKN009 BKN025 09/08 Q1011 RMK RWY23 05011KT 020V080,0,14,0,10000,0,0,0,
2026-03-24 17:50:00,METAR LTBA 241750Z 04012KT 9999 BKN009 BKN025 09/08 Q1011 RMK RWY23 04013KT,0,12,0,10000,0,0,0,
2026-03-24 17:20:00,METAR LTBA 241720Z 04012KT 9999 BKN011 BKN025 09/08 Q1011 RMK RWY23 04011KT,0,12,0,10000,0,0,0,
2026-03-24 16:50:00,METAR LTBA 241650Z 03012KT 9999 BKN011 BKN025 09/07 Q1011 RMK RWY23 05010KT 010V070,0,12,0,10000,0,0,0,
2026-03-24 16:20:00,METAR LTBA 241620Z 02013KT 9999 BKN013 BKN025 09/07 Q1011 RMK RWY23 03012KT,0,13,0,10000,0,0,0,
2026-03-24 15:50:00,METAR LTBA 241550Z 03013KT 9999 BKN013 BKN025 09/07 Q1011 RMK RWY23 04011KT,0,13,0,10000,0,0,0,
2026-03-24 15:20:00,METAR LTBA 241520Z 03014KT 9999 BKN013 BKN025 09/07 Q1010 RMK RWY23 03012KT,0,14,0,10000,0,0,0,
2026-03-24 14:50:00,METAR LTBA 241450Z 02013KT 9999 BKN013 BKN025 10/07 Q1010 RMK RWY23 03012KT,0,13,0,10000,0,0,0,
2026-03-24 14:20:00,METAR LTBA 241420Z 03012KT 9999 BKN012 BKN025 10/07 Q1010 RMK RWY23 02011KT,0,12,0,10000,0,0,0,
2026-03-24 13:50:00,METAR LTBA 241350Z 03011KT 9999 BKN013 BKN025 10/07 Q1010 RMK RWY23 03011KT 360V070,0,11,0,10000,0,0,0,
2026-03-24 13:20:00,METAR LTBA 241320Z 01012KT 9999 BKN013 BKN025 10/07 Q1010 RMK RWY23 02010KT 350V050,0,12,0,10000,0,0,0,
2026-03-24 12:50:00,METAR LTBA 241250Z 01011KT 9999 BKN017 BKN025 10/07 Q1011 RMK RWY23 02009KT 340V040,0,11,0,10000,0,0,0,
2026-03-24 12:20:00,METAR LTBA 241220Z 36011KT 9999 BKN017 BKN025 11/08 Q1011 RMK RWY23 01010KT 340V040,0,11,0,10000,0,0,0,
2026-03-24 11:50:00,METAR LTBA 241150Z 03010KT 360V060 9999 BKN017 BKN025 11/07 Q1011 RMK RWY23 02010KT,0,10,0,10000,0,0,0,
2026-03-24 11:20:00,METAR LTBA 241120Z 03010KT 9999 BKN017 BKN025 11/07 Q1011 RMK RWY23 02009KT,0,10,0,10000,0,0,0,
2026-03-24 10:50:00,METAR LTBA 241050Z 04011KT 010V070 9999 BKN017 BKN025 12/07 Q1011 RMK RWY23 02010KT 350V050,0,11,0,10000,0,0,0,
2026-03-24 10:20:00,METAR LTBA 241020Z 04010KT 9999 BKN013 BKN023 12/07 Q1011 RMK RWY23 03010KT 360V070,0,10,0,10000,0,0,0,
2026-03-24 09:50:00,METAR LTBA 240950Z 36010KT 9999 BKN013 BKN023 11/08 Q1012 RMK RWY23 01010KT 340V050,0,10,0,10000,0,0,0,
2026-03-24 09:20:00,METAR LTBA 240920Z 04011KT 9999 BKN013 BKN023 10/07 Q1012 RMK RWY23 04009KT 360V070,0,11,0,10000,0,0,0,
2026-03-24 08:50:00,METAR LTBA 240850Z 04010KT 020V080 9999 BKN013 BKN023 10/07 Q1012 RMK RWY23 06009KT 040V100,0,10,0,10000,0,0,0,
2026-03-24 08:20:00,METAR LTBA 240820Z 03010KT 9999 BKN013 BKN023 10/07 Q1012 RMK RWY23 06009KT,0,10,0,10000,0,0,0,
2026-03-24 07:50:00,METAR LTBA 240750Z 01008KT 9000 BKN009 BKN020 09/08 Q1012 RMK RWY23 04007KT,0,8,0,9000,0,0,0,
2026-03-24 07:20:00,METAR LTBA 240720Z 36011KT 9000 BKN009 BKN020 09/07 Q1012 RMK RWY23 01006KT 350V050,0,11,0,9000,0,0,0,
2026-03-24 06:50:00,METAR LTBA 240650Z 02009KT 9000 BKN009 BKN020 10/08 Q1012 RMK RWY23 03008KT,0,9,0,9000,0,0,0,
2026-03-24 06:20:00,METAR LTBA 240620Z 01008KT 9000 BKN009 BKN020 09/08 Q1012 RMK RWY23 02009KT,0,8,0,9000,0,0,0,
2026-03-24 05:50:00,METAR LTBA 240550Z 03011KT 9000 BKN009 BKN020 09/08 Q1012 RMK RWY23 03011KT,0,11,0,9000,0,0,0,
2026-03-24 05:20:00,METAR LTBA 240520Z 01008KT 7000 BKN009 BKN020 09/08 Q1012 RMK RWY23 02009KT,0,8,0,7000,0,0,0,
2026-03-24 04:50:00,METAR LTBA 240450Z 01009KT 9999 BKN011 BKN021 09/08 Q1012 RMK RWY23 02009KT,0,9,0,10000,0,0,0,
2026-03-24 04:20:00,METAR LTBA 240420Z 03010KT 9999 BKN011 BKN021 09/08 Q1011 RMK RWY23 03008KT,0,10,0,10000,0,0,0,
2026-03-24 03:50:00,METAR LTBA 240350Z 02009KT 9999 BKN011 BKN021 09/08 Q1011 RMK RWY23 03009KT,0,9,0,10000,0,0,0,
2026-03-24 03:20:00,METAR LTBA 240320Z 04009KT 9999 BKN009 BKN021 09/08 Q1011 RMK RWY23 03008KT,0,9,0,10000,0,0,0,
2026-03-24 02:50:00,METAR LTBA 240250Z 03009KT 9999 BKN009 BKN021 09/08 Q1011 RMK RWY23 03008KT,0,9,0,10000,0,0,0,
2026-03-24 02:20:00,METAR LTBA 240220Z 04009KT 9999 BKN009 BKN021 09/08 Q1011 RMK RWY23 04006KT,0,9,0,10000,0,0,0,
2026-03-24 01:50:00,METAR LTBA 240150Z 04009KT 9999 BKN009 BKN021 09/08 Q1011 RMK RWY23 05008KT,0,9,0,10000,0,0,0,
2026-03-24 01:20:00,METAR LTBA 240120Z 02006KT 9999 BKN010 BKN024 09/08 Q1012 RMK RWY23 02007KT,0,6,0,10000,0,0,0,
2026-03-24 00:50:00,METAR LTBA 240050Z 01007KT 9999 BKN010 BKN024 09/08 Q1012 RMK RWY23 02007KT,0,7,0,10000,0,0,0,
2026-03-24 00:20:00,METAR LTBA 240020Z 36007KT 9999 BKN010 BKN024 09/08 Q1012 RMK RWY23 02006KT,0,7,0,10000,0,0,0,
2026-03-23 23:50:00,METAR LTBA 232350Z 01005KT 9999 BKN009 BKN024 09/09 Q1012 RMK RWY23 02005KT 350V060,0,5,0,10000,0,0,0,
2026-03-23 23:20:00,METAR LTBA 232320Z 04004KT 9999 BKN009 BKN022 09/09 Q1012 RMK RWY23 05004KT,0,4,0,10000,0,0,0,
2026-03-23 22:50:00,METAR LTBA 232250Z 03006KT 9999 BKN009 BKN020 09/09 Q1012 RMK RWY23 03006KT,0,6,0,10000,0,0,0,
2026-03-23 22:20:00,METAR LTBA 232220Z 02005KT 9999 BKN009 BKN020 09/09 Q1012 RMK RWY23 03003KT 360V060,0,5,0,10000,0,0,0,
2026-03-23 21:50:00,METAR LTBA 232150Z 04007KT 9999 BKN009 BKN020 09/09 Q1013 RMK RWY23 03006KT 010V070,0,7,0,10000,0,0,0,
2026-03-23 21:20:00,METAR LTBA 232120Z 03006KT 9999 BKN009 BKN020 09/09 Q1013 RMK RWY23 04007KT,0,6,0,10000,0,0,0,
2026-03-23 20:50:00,METAR LTBA 232050Z 02008KT 9999 BKN009 BKN020 09/09 Q1013 RMK RWY23 03006KT,0,8,0,10000,0,0,0,
2026-03-23 20:20:00,METAR LTBA 232020Z 03006KT 9999 BKN009 BKN020 09/09 Q1013 RMK RWY23 04006KT,0,6,0,10000,0,0,0,
2026-03-23 19:50:00,METAR LTBA 231950Z 04008KT 9999 BKN009 BKN020 09/09 Q1013 RMK RWY23 04007KT,0,8,0,10000,0,0,0,
2026-03-23 19:20:00,METAR LTBA 231920Z 04007KT 9999 BKN009 BKN020 09/09 Q1013 RMK RWY23 04006KT,0,7,0,10000,0,0,0,
2026-03-23 18:50:00,METAR LTBA 231850Z 01006KT 9999 BKN009 BKN020 09/09 Q1013 RMK RWY23 02006KT,0,6,0,10000,0,0,0,
2026-03-23 18:20:00,METAR LTBA 231820Z 35006KT 9999 BKN009 BKN020 09/09 Q1013 RMK RWY23 01005KT 340V040,0,6,0,10000,0,0,0,
2026-03-23 17:50:00,METAR LTBA 231750Z 35007KT 9999 BKN009 BKN020 09/09 Q1013 RMK RWY23 36006KT,0,7,0,10000,0,0,0,
2026-03-23 17:20:00,METAR LTBA 231720Z 35007KT 9999 BKN008 BKN020 09/09 Q1013 RMK RWY23 36006KT,0,7,0,10000,0,0,0,
2026-03-23 16:50:00,METAR LTBA 231650Z 36008KT 9999 BKN008 BKN020 09/09 Q1013 RMK RWY23 36006KT 340V060,0,8,0,10000,0,0,0,
2026-03-23 16:20:00,METAR LTBA 231620Z 35006KT 8000 BKN008 BKN020 09/09 Q1013 RMK RWY23 36005KT,0,6,0,8000,0,0,0,
2026-03-23 15:50:00,METAR LTBA 231550Z 35008KT 6000 BKN006 BKN020 09/09 Q1012 RMK RWY23 35007KT 320V020,0,8,0,6000,0,0,0,
2026-03-23 15:20:00,METAR LTBA 231520Z 35009KT 9999 BKN008 BKN020 09/09 Q1012 RMK RWY23 35007KT,0,9,0,10000,0,0,0,
2026-03-23 14:50:00,METAR LTBA 231450Z 35009KT 9999 BKN006 BKN020 09/09 Q1012 RMK RWY23 36009KT,0,9,0,10000,0,0,0,
2026-03-23 14:20:00,METAR LTBA 231420Z 35009KT 9000 BKN006 BKN020 09/09 Q1012 RMK RWY23 35007KT 320V020,0,9,0,9000,0,0,0,
2026-03-23 13:50:00,METAR LTBA 231350Z 33011KT 9000 BKN006 BKN020 08/08 Q1012 RMK RWY23 33007KT,0,11,0,9000,0,0,0,
2026-03-23 13:20:00,METAR LTBA 231320Z 34013KT 6000 BKN006 BKN020 08/08 Q1012 RMK RWY23 34010KT,0,13,0,6000,0,0,0,
2026-03-23 12:50:00,METAR LTBA 231250Z 34012KT 7000 BKN007 BKN020 08/08 Q1012 RMK RWY23 33009KT,0,12,0,7000,0,0,0,
2026-03-23 12:20:00,METAR LTBA 231220Z 34014KT 9999 BKN007 BKN022 08/08 Q1013 RMK RWY23 34010KT,0,14,0,10000,0,0,0,
2026-03-23 11:50:00,METAR LTBA 231150Z 34012KT 9999 BKN008 BKN022 08/08 Q1013 RMK RWY23 33010KT,0,12,0,10000,0,0,0,
2026-03-23 11:20:00,METAR LTBA 231120Z 33012KT 9999 BKN008 BKN022 08/08 Q1013 RMK RWY23 34010KT,0,12,0,10000,0,0,0,
2026-03-23 10:50:00,METAR LTBA 231050Z 34014KT 9999 BKN008 BKN022 09/08 Q1013 RMK RWY23 34013KT,0,14,0,10000,0,0,0,
2026-03-23 10:20:00,METAR LTBA 231020Z 34013KT 9999 BKN008 BKN022 09/08 Q1013 RMK RWY23 34010KT,0,13,0,10000,0,0,0,
2026-03-23 09:50:00,METAR LTBA 230950Z 34014KT 9999 BKN008 BKN022 08/08 Q1013 RMK RWY23 35010KT,0,14,0,10000,0,0,0,
2026-03-23 09:20:00,METAR LTBA 230920Z 34014KT 9999 BKN008 BKN022 08/07 Q1013 RMK RWY23 35012KT,0,14,0,10000,0,0,0,
2026-03-23 08:50:00,METAR LTBA 230850Z 35013KT 9999 BKN008 BKN022 08/07 Q1013 RMK RWY23 35010KT,0,13,0,10000,0,0,0,
2026-03-23 08:20:00,METAR LTBA 230820Z 35012KT 9999 BKN008 BKN022 08/08 Q1013 RMK RWY23 34009KT,0,12,0,10000,0,0,0,
2026-03-23 07:50:00,METAR LTBA 230750Z 35008KT 9999 BKN008 BKN022 08/08 Q1013 RMK RWY23 35009KT,0,8,0,10000,0,0,0,
2026-03-23 07:20:00,METAR LTBA 230720Z 35012KT 9999 BKN007 BKN022 08/07 Q1013 RMK RWY23 34010KT,0,12,0,10000,0,0,0,
2026-03-23 06:50:00,METAR LTBA 230650Z 35011KT 9999 BKN007 BKN022 08/08 Q1013 RMK RWY23 34008KT,0,11,0,10000,0,0,0,
2026-03-23 06:20:00,METAR LTBA 230620Z 35011KT 8000 BKN006 BKN022 08/08 Q1013 RMK RWY23 35010KT,0,11,0,8000,0,0,0,
2026-03-23 05:50:00,METAR LTBA 230550Z 35012KT 8000 BKN006 BKN022 08/08 Q1013 RMK RWY23 35011KT,0,12,0,8000,0,0,0,
2026-03-23 05:20:00,METAR LTBA 230520Z 35013KT 8000 BKN006 BKN022 08/08 Q1012 RMK RWY23 35011KT,0,13,0,8000,0,0,0,
2026-03-23 04:50:00,METAR LTBA 230450Z 35013KT 9999 BKN006 BKN022 08/08 Q1013 RMK RWY23 35010KT,0,13,0,10000,0,0,0,
2026-03-23 04:20:00,METAR LTBA 230420Z 35013KT 8000 BKN006 BKN022 08/08 Q1012 RMK RWY23 35010KT,0,13,0,8000,0,0,0,
2026-03-23 03:50:00,METAR LTBA 230350Z 35012KT 8000 BKN009 BKN022 08/07 Q1012 RMK RWY23 35010KT,0,12,0,8000,0,0,0,
2026-03-23 03:20:00,METAR LTBA 230320Z 35012KT 8000 BKN009 BKN022 08/08 Q1012 RMK RWY23 35011KT,0,12,0,8000,0,0,0,
2026-03-23 02:50:00,METAR LTBA 230250Z 35012KT 8000 BKN007 BKN022 08/08 Q1012 RMK RWY23 36012KT 330V030,0,12,0,8000,0,0,0,
2026-03-23 02:20:00,METAR LTBA 230220Z 01013KT 8000 BKN007 BKN022 08/08 Q1012 RMK RWY23 01013KT,0,13,0,8000,0,0,0,
2026-03-23 01:50:00,METAR LTBA 230150Z 01013KT 8000 BKN007 BKN022 08/08 Q1012 RMK RWY23 01012KT,0,13,0,8000,0,0,0,
2026-03-23 01:20:00,METAR LTBA 230120Z 01011KT 7000 BKN007 BKN022 08/08 Q1012 RMK RWY23 01010KT,0,11,0,7000,0,0,0,
2026-03-23 00:50:00,METAR LTBA 230050Z 36011KT 6000 BKN007 BKN022 08/08 Q1012 RMK RWY23 36012KT,0,11,0,6000,0,0,0,
2026-03-23 00:20:00,METAR LTBA 230020Z 36010KT 6000 BKN007 BKN022 08/08 Q1012 RMK RWY23 36010KT,0,10,0,6000,0,0,0,
2026-03-22 23:50:00,METAR LTBA 222350Z 36010KT 8000 BKN007 BKN022 08/08 Q1012 RMK RWY23 36007KT,0,10,0,8000,0,0,0,
2026-03-22 23:20:00,METAR LTBA 222320Z 36009KT 8000 BKN007 BKN022 08/08 Q1012 RMK RWY23 01009KT 330V030,0,9,0,8000,0,0,0,
2026-03-22 22:50:00,METAR LTBA 222250Z 36010KT 8000 BKN007 BKN022 08/08 Q1012 RMK RWY23 01010KT,0,10,0,8000,0,0,0,
2026-03-22 22:20:00,METAR LTBA 222220Z 36008KT 330V040 7000 BKN007 BKN022 08/08 Q1013 RMK RWY23 01009KT,0,8,0,7000,0,0,0,
2026-03-22 21:50:00,METAR LTBA 222150Z 36010KT 8000 BKN007 BKN022 08/08 Q1013 RMK RWY23 01009KT,0,10,0,8000,0,0,0,
2026-03-22 21:20:00,METAR LTBA 222120Z 36009KT 8000 BKN007 BKN022 09/09 Q1013 RMK RWY23 36009KT 340V040,0,9,0,8000,0,0,0,
2026-03-22 20:50:00,METAR LTBA 222050Z 01010KT 9000 BKN007 BKN022 09/09 Q1013 REDZ RMK RWY23 01009KT,0,10,0,9000,0,0,0,DZ
2026-03-22 20:20:00,METAR LTBA 222020Z 01008KT 7000 -DZ BKN007 BKN022 09/09 Q1013 RMK RWY23 36007KT,0,8,0,7000,0,0,0,DZ
2026-03-22 19:50:00,METAR LTBA 221950Z 36007KT 8000 -DZ BKN007 BKN022 09/09 Q1013 RMK RWY23 36008KT,0,7,0,8000,0,0,0,DZ
2026-03-22 19:20:00,METAR LTBA 221920Z 01008KT 8000 -DZ BKN007 BKN022 09/09 Q1013 RMK RWY23 01007KT 340V040,0,8,0,8000,0,0,0,DZ
2026-03-22 18:50:00,METAR LTBA 221850Z 01007KT 330V030 9999 -DZ BKN007 BKN022 09/09 Q1013 RMK RWY23 01007KT 340V040,0,7,0,10000,0,0,0,DZ
2026-03-22 18:20:00,METAR LTBA 221820Z 01007KT 7000 -DZ BKN007 BKN022 09/09 Q1013 RMK RWY23 01008KT,0,7,0,7000,0,0,0,DZ
2026-03-22 17:50:00,METAR LTBA 221750Z 02009KT 7000 -DZ BKN007 BKN022 08/08 Q1013 RMK RWY23 01007KT 340V040,0,9,0,7000,0,0,0,DZ
2026-03-22 17:20:00,METAR LTBA 221720Z 02012KT 7000 -DZ BKN007 BKN022 08/08 Q1013 RMK RWY23 01009KT,0,12,0,7000,0,0,0,DZ
2026-03-22 16:50:00,METAR LTBA 221650Z 01009KT 5000 -DZ BR BKN007 BKN022 08/08 Q1012 RMK RWY23 02008KT 340V040,0,9,0,5000,0,0,1,"BR,DZ"
2026-03-22 16:20:00,METAR LTBA 221620Z 02008KT 4000 -DZ BR BKN007 BKN022 08/08 Q1012 RMK RWY23 02009KT,0,8,0,4000,0,0,1,"BR,DZ"
2026-03-22 15:50:00,METAR LTBA 221550Z 01007KT 5000 BR BKN007 BKN022 09/09 Q1012 RMK RWY23 01008KT 350V050,0,7,0,5000,0,0,1,BR
2026-03-22 15:20:00,METAR LTBA 221520Z 01008KT 5000 BR BKN007 BKN022 09/09 Q1012 REDZ RMK RWY23 02009KT,0,8,0,5000,0,0,1,"BR,DZ"
2026-03-22 14:50:00,METAR LTBA 221450Z 02010KT 5000 -DZ BR BKN007 BKN022 09/09 Q1012 RMK RWY23 02010KT,0,10,0,5000,0,0,1,"BR,DZ"
2026-03-22 14:20:00,METAR LTBA 221420Z 01010KT 4000 -DZ BR BKN007 BKN022 09/09 Q1012 RMK RWY23 01009KT,0,10,0,4000,0,0,1,"BR,DZ"
2026-03-22 13:50:00,METAR LTBA 221350Z 01012KT 4000 -DZ BR BKN007 BKN022 09/08 Q1012 RMK RWY23 02011KT,0,12,0,4000,0,0,1,"BR,DZ"
2026-03-22 13:20:00,METAR LTBA 221320Z 01011KT 340V040 7000 -DZ BKN007 BKN022 09/08 Q1012 RMK RWY23 01010KT,0,11,0,7000,0,0,0,DZ
2026-03-22 12:50:00,METAR LTBA 221250Z 02011KT 350V050 5000 -DZ BR BKN007 BKN022 09/09 Q1012 RMK RWY23 02011KT 350V050,0,11,0,5000,0,0,1,"BR,DZ"
2026-03-22 12:20:00,METAR LTBA 221220Z 02012KT 4000 -DZ BR BKN007 BKN022 09/09 Q1012 RMK RWY23 04012KT,0,12,0,4000,0,0,1,"BR,DZ"
2026-03-22 11:50:00,METAR LTBA 221150Z 02010KT 4000 -DZ BR BKN007 BKN022 09/09 Q1012 RMK RWY23 03010KT,0,10,0,4000,0,0,1,"BR,DZ"
2026-03-22 11:20:00,METAR LTBA 221120Z 03011KT 3000 -DZ BR BKN007 BKN022 09/09 Q1012 RERA RMK RWY23 03010KT,0,11,0,3000,0,0,1,"BR,DZ,RA"
2026-03-22 10:50:00,METAR LTBA 221050Z 02010KT 2000 -RA BR BKN007 BKN022 09/09 Q1012 RMK RWY23 03009KT,0,10,0,2000,0,0,1,"-RA,BR"
2026-03-22 10:38:00,SPECI LTBA 221038Z 03010KT 4000 -RA BR BKN007 BKN022 09/09 Q1012 REDZ,0,10,0,4000,0,0,1,"-RA,BR,DZ"
2026-03-22 10:20:00,METAR LTBA 221020Z 03010KT 4000 -DZ BR BKN007 BKN022 09/09 Q1012 RMK RWY23 04009KT,0,10,0,4000,0,0,1,"BR,DZ"
2026-03-22 09:50:00,METAR LTBA 220950Z 03008KT 5000 -DZ BR BKN007 BKN022 09/09 Q1012 RMK RWY23 03010KT,0,8,0,5000,0,0,1,"BR,DZ"
2026-03-22 09:35:00,SPECI LTBA 220935Z 03009KT 3000 -DZ BR BKN007 BKN022 09/09 Q1012,0,9,0,3000,0,0,1,"BR,DZ"
2026-03-22 09:20:00,METAR LTBA 220920Z 03009KT 7000 -DZ BKN007 BKN022 09/09 Q1012 RMK RWY23 03010KT,0,9,0,7000,0,0,0,DZ
2026-03-22 08:50:00,METAR LTBA 220850Z 03009KT 5000 -DZ BR BKN007 BKN022 09/09 Q1012 RMK RWY23 03009KT,0,9,0,5000,0,0,1,"BR,DZ"
2026-03-22 08:20:00,METAR LTBA 220820Z 02009KT 3000 -DZ BR BKN005 BKN022 09/09 Q1012 RERA RMK RWY23 02009KT 360V060,0,9,0,3000,0,0,1,"BR,DZ,RA"
2026-03-22 07:50:00,METAR LTBA 220750Z 02009KT 3000 -RA BR BKN005 BKN022 09/09 Q1011 RMK RWY23 02008KT 340V050,0,9,0,3000,0,0,1,"-RA,BR"
2026-03-22 07:20:00,METAR LTBA 220720Z 02011KT 2000 -RA BR BKN005 BKN022 09/09 Q1011 RMK RWY23 02011KT,0,11,0,2000,0,0,1,"-RA,BR"
2026-03-22 06:50:00,METAR LTBA 220650Z 02008KT 2000 -RA BR BKN005 BKN022 09/09 Q1011 RMK RWY23 02011KT,0,8,0,2000,0,0,1,"-RA,BR"
2026-03-22 06:20:00,METAR LTBA 220620Z 02010KT 3000 -RA BR BKN005 BKN022 09/09 Q1011 RMK RWY23 03011KT,0,10,0,3000,0,0,1,"-RA,BR"
2026-03-22 05:50:00,METAR LTBA 220550Z 03011KT 2000 BR BKN005 BKN022 09/09 Q1011 RMK RWY23 03010KT,0,11,0,2000,0,0,1,BR
2026-03-22 05:20:00,METAR LTBA 220520Z 02010KT 4000 BR BKN009 BKN022 09/09 Q1011 RMK RWY23 03009KT,0,10,0,4000,0,0,1,BR
2026-03-22 04:50:00,METAR LTBA 220450Z 01007KT 4000 BR BKN009 BKN022 09/09 Q1010 RMK RWY23 02007KT,0,7,0,4000,0,0,1,BR
2026-03-22 04:20:00,METAR LTBA 220420Z 02009KT 340V050 4000 BR BKN009 BKN022 09/09 Q1010 RMK RWY23 02009KT 350V050,0,9,0,4000,0,0,1,BR
2026-03-22 03:50:00,METAR LTBA 220350Z 01008KT 9999 BKN009 BKN022 09/08 Q1010 RMK RWY23 02010KT,0,8,0,10000,0,0,0,
2026-03-22 03:20:00,METAR LTBA 220320Z 02009KT 9999 BKN009 BKN022 09/08 Q1010 RMK RWY23 02010KT,0,9,0,10000,0,0,0,
2026-03-22 02:50:00,METAR LTBA 220250Z 02011KT 9999 BKN009 BKN022 09/08 Q1009 RMK RWY23 02010KT,0,11,0,10000,0,0,0,
2026-03-22 02:20:00,METAR LTBA 220220Z 01010KT 9999 BKN009 BKN022 09/08 Q1009 RMK RWY23 01009KT,0,10,0,10000,0,0,0,
2026-03-22 01:50:00,METAR LTBA 220150Z 01010KT 9999 BKN009 BKN022 09/08 Q1009 RMK RWY23 02010KT,0,10,0,10000,0,0,0,
2026-03-22 01:20:00,METAR LTBA 220120Z 01011KT 9999 BKN009 BKN022 09/08 Q1009 RERA RMK RWY23 01010KT,0,11,0,10000,0,0,0,RA
2026-03-22 00:50:00,METAR LTBA 220050Z 01010KT 9999 -RA BKN009 BKN022 09/08 Q1009 RMK RWY23 01010KT,0,10,0,10000,0,0,0,-RA
2026-03-22 00:20:00,METAR LTBA 220020Z 02010KT 9999 -RA BKN009 BKN022 09/08 Q1009 RMK RWY23 02010KT 350V050,0,10,0,10000,0,0,0,-RA
2026-03-21 23:50:00,METAR LTBA 212350Z 02012KT 9999 -RA BKN009 BKN022 09/08 Q1009 RMK RWY23 03011KT,0,12,0,10000,0,0,0,-RA
2026-03-21 23:20:00,METAR LTBA 212320Z 02010KT 9999 -RA BKN009 BKN022 09/09 Q1009 RMK RWY23 02009KT,0,10,0,10000,0,0,0,-RA
2026-03-21 22:50:00,METAR LTBA 212250Z 01009KT 9999 -RA BKN009 BKN022 09/08 Q1010 RMK RWY23 02009KT,0,9,0,10000,0,0,0,-RA
2026-03-21 22:20:00,METAR LTBA 212220Z 02010KT 9999 -RA BKN009 BKN022 09/08 Q1009 RMK RWY23 02009KT,0,10,0,10000,0,0,0,-RA
2026-03-21 21:50:00,METAR LTBA 212150Z 02009KT 9999 -RA BKN009 BKN022 09/08 Q1009 RMK RWY23 02009KT,0,9,0,10000,0,0,0,-RA
2026-03-21 21:20:00,METAR LTBA 212120Z 02008KT 9999 -RA BKN009 BKN022 09/08 Q1009 RMK RWY23 02008KT,0,8,0,10000,0,0,0,-RA
2026-03-21 20:50:00,METAR LTBA 212050Z 02009KT 350V050 9999 -RA BKN009 BKN022 09/08 Q1009 RMK RWY23 02011KT,0,9,0,10000,0,0,0,-RA
2026-03-21 20:20:00,METAR LTBA 212020Z 03012KT 9999 -RA BKN009 BKN022 09/08 Q1009 RMK RWY23 02009KT,0,12,0,10000,0,0,0,-RA
2026-03-21 19:50:00,METAR LTBA 211950Z 03012KT 9999 -RA BKN009 BKN022 09/08 Q1009 RMK RWY23 02012KT,0,12,0,10000,0,0,0,-RA
2026-03-21 19:20:00,METAR LTBA 211920Z 03013KT 9999 -RA BKN009 BKN022 09/08 Q1009 RMK RWY23 03012KT 010V070,0,13,0,10000,0,0,0,-RA
2026-03-21 18:50:00,METAR LTBA 211850Z 03013KT 9999 -RA BKN009 BKN022 09/08 Q1009 RMK RWY23 03011KT 360V060,0,13,0,10000,0,0,0,-RA
2026-03-21 18:20:00,METAR LTBA 211820Z 03012KT 9999 -RA BKN009 BKN022 09/08 Q1009 RMK RWY23 04011KT,0,12,0,10000,0,0,0,-RA
2026-03-21 17:50:00,METAR LTBA 211750Z 03017KT 4000 -RA BR BKN009 BKN022 09/08 Q1008,0,17,0,4000,0,0,1,"-RA,BR"
2026-03-21 17:20:00,METAR LTBA 211720Z 02016KT 4000 DZ BR BKN009 BKN022 09/08 Q1008 RMK RWY23 03013KT,0,16,0,4000,0,0,1,"BR,DZ"
2026-03-21 16:50:00,METAR LTBA 211650Z 03014KT 4000 -DZ BR BKN009 BKN022 09/08 Q1008 RERA RMK RWY23 03012KT 360V060,0,14,0,4000,0,0,1,"BR,DZ,RA"
2026-03-21 16:20:00,METAR LTBA 211620Z 03010KT 4000 -RA BR BKN009 BKN022 09/08 Q1008 RMK RWY23 03012KT,0,10,0,4000,0,0,1,"-RA,BR"
2026-03-21 15:50:00,METAR LTBA 211550Z 03011KT 3000 -RA BR BKN009 BKN022 09/08 Q1008 RMK RWY23 03012KT,0,11,0,3000,0,0,1,"-RA,BR"
2026-03-21 14:50:00,METAR LTBA 211450Z 03013KT 3000 -RA BR BKN009 BKN022 09/08 Q1007 RMK RWY23 03011KT 360V060,0,13,0,3000,0,0,1,"-RA,BR"
2026-03-21 14:20:00,METAR LTBA 211420Z 01012KT 2500 -RA BR BKN009 BKN022 09/09 Q1007 RMK RWY23 02012KT,0,12,0,2500,0,0,1,"-RA,BR"
2026-03-21 13:50:00,METAR LTBA 211350Z 01013KT 2500 -RA BR BKN009 BKN022 09/08 Q1007 RMK RWY23 02012KT,0,13,0,2500,0,0,1,"-RA,BR"
2026-03-21 13:20:00,METAR LTBA 211320Z 01013KT 2500 -RA BR BKN009 BKN022 09/08 Q1007 RMK RWY23 01012KT,0,13,0,2500,0,0,1,"-RA,BR"
2026-03-21 12:50:00,METAR LTBA 211250Z 01013KT 2500 -RA BR BKN009 BKN022 09/09 Q1007 RMK RWY23 02012KT 340V050,0,13,0,2500,0,0,1,"-RA,BR"
2026-03-21 12:20:00,METAR LTBA 211220Z 01016KT 2500 -RA BR BKN009 BKN022 09/08 Q1007 RMK RWY23 01014KT,0,16,0,2500,0,0,1,"-RA,BR"
2026-03-21 11:50:00,METAR LTBA 211150Z 02015KT 2500 -RA BR BKN009 BKN022 09/08 Q1007 RMK RWY23 02014KT,0,15,0,2500,0,0,1,"-RA,BR"
2026-03-21 11:20:00,METAR LTBA 211120Z 02012KT 2500 -RA BR BKN009 BKN022 09/09 Q1007 RMK RWY23 03015KT,0,12,0,2500,0,0,1,"-RA,BR"
2026-03-21 11:05:00,SPECI LTBA 211105Z 02014KT 2400 -RA BR BKN009 BKN022 09/09 Q1007,0,14,0,2400,0,0,1,"-RA,BR"
2026-03-21 10:50:00,METAR LTBA 211050Z 03016KT 2500 BR BKN009 BKN022 09/08 Q1007 RMK RWY23 03016KT,0,16,0,2500,0,0,1,BR
2026-03-21 10:20:00,METAR LTBA 211020Z 02014KT 2500 BR BKN008 BKN022 09/09 Q1007 RERA RMK RWY23 03014KT,0,14,0,2500,0,0,1,"BR,RA"
2026-03-21 09:50:00,METAR LTBA 210950Z 02015KT 2000 -RA BR BKN008 BKN022 09/09 Q1006 RMK RWY23 02015KT,0,15,0,2000,0,0,1,"-RA,BR"
2026-03-21 09:33:00,SPECI LTBA 210933Z 02016KT 1800 -RA BR BKN009 BKN022 09/09 Q1006,0,16,0,1800,0,0,1,"-RA,BR"
2026-03-21 09:20:00,METAR LTBA 210920Z 02013KT 3000 -RA BR BKN009 BKN022 09/09 Q1006 RMK RWY23 02014KT,0,13,0,3000,0,0,1,"-RA,BR"
2026-03-21 08:50:00,METAR LTBA 210850Z 02013KT 3000 BR BKN009 BKN022 09/09 Q1006 RMK RWY23 02012KT,0,13,0,3000,0,0,1,BR
2026-03-21 08:37:00,SPECI LTBA 210837Z COR 01014KT 340V040 3000 BR BKN009 BKN022 09/08 Q1006,0,14,0,3000,0,0,1,BR
2026-03-21 08:20:00,METAR LTBA 210820Z 01014KT 340V040 9999 BKN009 BKN022 09/08 Q1006 RMK RWY23 02013KT 340V040,0,14,0,10000,0,0,0,
2026-03-21 07:50:00,METAR LTBA 210750Z 01012KT 9999 BKN009 BKN022 09/08 Q1006 RMK RWY23 01010KT,0,12,0,10000,0,0,0,
2026-03-21 07:20:00,METAR LTBA 210720Z 02013KT 9999 BKN010 BKN022 09/08 Q1006 RMK RWY23 02012KT,0,13,0,10000,0,0,0,
2026-03-21 06:50:00,METAR LTBA 210650Z 01013KT 9999 BKN010 BKN022 09/08 Q1006 RMK RWY23 02011KT,0,13,0,10000,0,0,0,
2026-03-21 06:20:00,METAR LTBA 210620Z 01010KT 9999 BKN009 BKN022 09/08 Q1006 RMK RWY23 01009KT 350V050,0,10,0,10000,0,0,0,
2026-03-21 05:50:00,METAR LTBA 210550Z 02012KT 9999 BKN008 BKN022 09/08 Q1006 RMK RWY23 02014KT,0,12,0,10000,0,0,0,
2026-03-21 05:20:00,METAR LTBA 210520Z 02010KT 7000 BKN007 BKN022 08/08 Q1006 RERA RMK RWY23 02010KT,0,10,0,7000,0,0,0,RA
2026-03-21 04:50:00,METAR LTBA 210450Z 02011KT 4000 -RA BR BKN007 BKN022 08/08 Q1005 RMK RWY23 03009KT,0,11,0,4000,0,0,1,"-RA,BR"
2026-03-21 04:20:00,METAR LTBA 210420Z 02010KT 4000 -RA BR BKN007 BKN022 08/08 Q1005 RMK RWY23 02010KT,0,10,0,4000,0,0,1,"-RA,BR"
2026-03-21 03:50:00,METAR LTBA 210350Z 02011KT 6000 -RA BKN007 BKN022 08/08 Q1005 RMK RWY23 02008KT,0,11,0,6000,0,0,0,-RA
2026-03-21 03:20:00,METAR LTBA 210320Z 02007KT 9999 -RA BKN007 BKN022 08/08 Q1005 RMK RWY23 03008KT,0,7,0,10000,0,0,0,-RA
2026-03-21 02:50:00,METAR LTBA 210250Z 02007KT 9999 -RA BKN007 BKN022 08/08 Q1005 RMK RWY23 03005KT,0,7,0,10000,0,0,0,-RA
2026-03-21 02:20:00,METAR LTBA 210220Z 01006KT 350V050 9999 BKN009 BKN022 07/07 Q1005 RMK RWY23 01008KT,0,6,0,10000,0,0,0,
2026-03-21 01:50:00,METAR LTBA 210150Z 36008KT 330V030 9999 BKN009 BKN022 07/07 Q1005 RMK RWY23 01008KT 330V060,0,8,0,10000,0,0,0,
2026-03-21 01:20:00,METAR LTBA 210120Z 35007KT 9999 BKN009 BKN022 07/07 Q1006 RMK RWY23 35006KT 320V030,0,7,0,10000,0,0,0,
2026-03-21 00:50:00,METAR LTBA 210050Z 36008KT 9999 BKN009 BKN022 07/06 Q1006 RERA RMK RWY23 36007KT,0,8,0,10000,0,0,0,RA
2026-03-21 00:20:00,METAR LTBA 210020Z 01008KT 9999 -RA BKN009 BKN022 07/06 Q1006 RMK RWY23 01008KT 340V040,0,8,0,10000,0,0,0,-RA
2026-03-20 23:50:00,METAR LTBA 202350Z 36007KT 9999 -RA BKN011 BKN022 07/06 Q1006 RMK RWY23 36007KT,0,7,0,10000,0,0,0,-RA
2026-03-20 23:20:00,METAR LTBA 202320Z 01006KT 9999 -RA BKN011 BKN022 07/06 Q1007 RMK RWY23 01007KT,0,6,0,10000,0,0,0,-RA
2026-03-20 22:50:00,METAR LTBA 202250Z 02008KT 9999 -RA BKN011 BKN022 07/06 Q1007 RMK RWY23 02007KT 350V050,0,8,0,10000,0,0,0,-RA
2026-03-20 21:50:00,METAR LTBA 202150Z 01010KT 9999 -RA BKN011 BKN022 06/06 Q1007 RMK RWY23 01010KT,0,10,0,10000,0,0,0,-RA
2026-03-20 21:20:00,METAR LTBA 202120Z 01011KT 9999 -RA BKN011 BKN022 06/05 Q1007 RMK RWY23 01009KT 340V040,0,11,0,10000,0,0,0,-RA
2026-03-20 20:50:00,METAR LTBA 202050Z 01011KT 9999 -RA BKN011 BKN022 06/05 Q1008 RMK RWY23 02011KT,0,11,0,10000,0,0,0,-RA
2026-03-20 20:20:00,METAR LTBA 202020Z 02013KT 9999 -RA BKN011 BKN022 06/05 Q1008 RMK RWY23 02012KT 340V040,0,13,0,10000,0,0,0,-RA
2026-03-20 19:50:00,METAR LTBA 201950Z 02013KT 9999 -RA BKN011 BKN022 06/05 Q1008 RMK RWY23 02012KT,0,13,0,10000,0,0,0,-RA
2026-03-20 19:20:00,METAR LTBA 201920Z 01012KT 9999 -RA BKN011 BKN022 06/05 Q1008 RMK RWY23 02012KT,0,12,0,10000,0,0,0,-RA
2026-03-20 18:50:00,METAR LTBA 201850Z 02014KT 9999 -RA BKN011 BKN022 06/05 Q1008 RMK RWY23 02012KT 350V050,0,14,0,10000,0,0,0,-RA
2026-03-20 18:20:00,METAR LTBA 201820Z 01013KT 9999 -RA BKN013 BKN022 06/04 Q1008 RMK RWY23 02012KT 340V040,0,13,0,10000,0,0,0,-RA
2026-03-20 17:50:00,METAR LTBA 201750Z 02014KT 9000 -RA BKN015 BKN025 06/04 Q1008 RMK RWY23 02013KT,0,14,0,9000,0,0,0,-RA
2026-03-20 17:20:00,METAR LTBA 201720Z 02015KT 9000 -RA BKN013 BKN022 06/04 Q1008 RMK RWY23 02013KT,0,15,0,9000,0,0,0,-RA
2026-03-20 16:50:00,METAR LTBA 201650Z 02012KT 6000 -RA BKN013 BKN022 06/05 Q1008 RMK RWY23 02013KT 350V050,0,12,0,6000,0,0,0,-RA
2026-03-20 16:20:00,METAR LTBA 201620Z 02016KT 6000 -RA BKN013 BKN022 06/04 Q1008 RMK RWY23 02014KT 340V050,0,16,0,6000,0,0,0,-RA
2026-03-20 15:50:00,METAR LTBA 201550Z 01014KT 6000 -RA BKN013 BKN022 06/05 Q1008 RMK RWY23 01014KT,0,14,0,6000,0,0,0,-RA
2026-03-20 15:20:00,METAR LTBA 201520Z 02012KT 6000 -RA BKN013 BKN022 06/05 Q1008 RMK RWY23 02015KT,0,12,0,6000,0,0,0,-RA
2026-03-20 14:50:00,METAR LTBA 201450Z 02017KT 6000 -RA BKN013 BKN022 06/05 Q1008 RMK RWY23 02016G26KT,0,17,0,6000,0,0,0,-RA
2026-03-20 14:20:00,METAR LTBA 201420Z 02014KT 6000 -RA BKN013 BKN022 06/05 Q1008 RMK RWY23 03015KT,0,14,0,6000,0,0,0,-RA
2026-03-20 13:50:00,METAR LTBA 201350Z 02016G28KT 7000 -RA BKN017 BKN025 06/05 Q1008 RMK RWY23 02016KT,0,16,1,7000,0,0,0,-RA
2026-03-20 13:20:00,METAR LTBA 201320Z 01015KT 7000 -RA BKN017 BKN025 07/05 Q1008 RMK RWY23 02019G30KT,0,15,0,7000,0,0,0,-RA
2026-03-20 12:50:00,METAR LTBA 201250Z 01017KT 7000 -RA BKN017 BKN025 07/05 Q1008 RMK RWY23 01017G27KT,0,17,0,7000,0,0,0,-RA
2026-03-20 12:20:00,METAR LTBA 201220Z 01018G29KT 7000 -RA BKN017 BKN025 06/04 Q1008 RMK RWY23 01016KT,0,18,1,7000,0,0,0,-RA
2026-03-20 11:50:00,METAR LTBA 201150Z 01019KT 7000 -RA BKN017 BKN025 07/05 Q1007 RMK RWY23 02018KT,0,19,0,7000,0,0,0,-RA
2026-03-20 11:20:00,METAR LTBA 201120Z 01019G30KT 7000 -RA BKN017 BKN025 07/05 Q1007 RMK RWY23 01016G29KT,0,19,1,7000,0,0,0,-RA
2026-03-20 10:50:00,METAR LTBA 201050Z 01016KT 7000 -RA BKN017 BKN025 07/05 Q1008 RMK RWY23 01016KT,0,16,0,7000,0,0,0,-RA
2026-03-20 10:20:00,METAR LTBA 201020Z 02021KT 7000 -RA BKN017 BKN025 07/05 Q1008 RMK RWY23 03020G30KT,0,21,0,7000,0,0,0,-RA
2026-03-20 09:50:00,METAR LTBA 200950Z 02019KT 7000 -RA BKN017 BKN025 07/05 Q1008 RMK RWY23 03018KT 350V050,0,19,0,7000,0,0,0,-RA
2026-03-20 09:20:00,METAR LTBA 200920Z 02018KT 6000 -RA BKN015 BKN022 07/05 Q1008 RMK RWY23 03017G28KT,0,18,0,6000,0,0,0,-RA
2026-03-20 08:50:00,METAR LTBA 200850Z 02017KT 7000 -RA BKN015 BKN022 07/05 Q1007 RMK RWY23 02019G30KT,0,17,0,7000,0,0,0,-RA
2026-03-20 08:20:00,METAR LTBA 200820Z 02017KT 7000 -RA BKN013 BKN022 07/05 Q1008 RMK RWY23 03015KT,0,17,0,7000,0,0,0,-RA
2026-03-20 07:50:00,METAR LTBA 200750Z 03016KT 7000 -RA BKN013 BKN022 07/05 Q1007 RMK RWY23 03017KT,0,16,0,7000,0,0,0,-RA
2026-03-20 07:20:00,METAR LTBA 200720Z 02017KT 6000 -RA BKN013 BKN022 07/06 Q1007 RMK RWY23 03017KT,0,17,0,6000,0,0,0,-RA
2026-03-20 06:50:00,METAR LTBA 200650Z 02015KT 8000 -RA BKN013 BKN022 07/06 Q1007 RERA RMK RWY23 02016G30KT,0,15,0,8000,0,0,0,"-RA,RA"
2026-03-20 06:45:00,SPECI LTBA 200645Z 02016KT 8000 -RA BKN013 BKN022 07/06 Q1007 RERA,0,16,0,8000,0,0,0,"-RA,RA"
2026-03-20 06:20:00,METAR LTBA 200620Z 02018KT 6000 RA BKN011 BKN022 07/06 Q1007 RMK RWY23 02017KT,0,18,0,6000,0,0,0,RA
2026-03-20 05:50:00,METAR LTBA 200550Z 02019KT 6000 RA BKN011 BKN022 07/06 Q1007 RMK RWY23 03017KT,0,19,0,6000,0,0,0,RA
2026-03-20 05:20:00,METAR LTBA 200520Z 02020KT 6000 RA BKN011 BKN022 07/05 Q1007 RMK RWY23 03018KT,0,20,0,6000,0,0,0,RA
2026-03-20 04:50:00,METAR LTBA 200450Z 02018KT 7000 -RA BKN011 BKN022 07/06 Q1007 RMK RWY23 02017KT,0,18,0,7000,0,0,0,-RA
2026-03-20 04:20:00,METAR LTBA 200420Z 02016KT 8000 -RA BKN011 BKN022 07/06 Q1007 RMK RWY23 02015KT,0,16,0,8000,0,0,0,-RA
2026-03-20 03:50:00,METAR LTBA 200350Z 02017KT 8000 -RA BKN011 BKN022 07/06 Q1007 RMK RWY23 03019KT,0,17,0,8000,0,0,0,-RA
2026-03-20 03:20:00,METAR LTBA 200320Z 02014KT 9999 -RA BKN011 BKN022 07/06 Q1007 RMK RWY23 02016KT,0,14,0,10000,0,0,0,-RA
2026-03-20 02:50:00,METAR LTBA 200250Z 02015KT 350V050 9999 -RA BKN014 BKN025 07/06 Q1007 RMK RWY23 03015KT 360V060,0,15,0,10000,0,0,0,-RA
2026-03-20 02:20:00,METAR LTBA 200220Z 02013KT 9999 -RA BKN014 BKN025 07/06 Q1007 RMK RWY23 03015KT,0,13,0,10000,0,0,0,-RA
2026-03-20 01:50:00,METAR LTBA 200150Z 02015KT 9999 -RA BKN014 BKN025 07/06 Q1007 RMK RWY23 03014KT,0,15,0,10000,0,0,0,-RA
2026-03-20 01:20:00,METAR LTBA 200120Z 02012KT 340V050 9999 -RA BKN014 BKN025 07/06 Q1007 RMK RWY23 01010KT,0,12,0,10000,0,0,0,-RA
2026-03-20 00:50:00,METAR LTBA 200050Z 02012KT 9999 -RA SCT015 BKN025 BKN070 07/05 Q1008 RMK RWY23 02011KT,0,12,0,10000,0,0,0,-RA
2026-03-20 00:20:00,METAR LTBA 200020Z 02014KT 9000 -RA SCT015 BKN029 BKN070 06/05 Q1008 RMK RWY23 03015KT,0,14,0,9000,0,0,0,-RA
2026-03-19 23:50:00,METAR LTBA 192350Z 03014KT 9999 -RA SCT015 BKN025 BKN070 06/05 Q1008 RMK RWY23 03013KT 360V060,0,14,0,10000,0,0,0,-RA
2026-03-19 23:20:00,METAR LTBA 192320Z 03017KT 360V060 9000 -RA SCT015 BKN025 BKN070 06/04 Q1009 RMK RWY23 04015KT,0,17,0,9000,0,0,0,-RA
2026-03-19 22:50:00,METAR LTBA 192250Z 03017KT 9999 -RA SCT015 BKN025 BKN070 07/04 Q1009 RMK RWY23 04014KT,0,17,0,10000,0,0,0,-RA
2026-03-19 22:20:00,METAR LTBA 192220Z 03015KT 9999 -RA SCT015 BKN025 BKN070 07/04 Q1009 RMK RWY23 03016KT,0,15,0,10000,0,0,0,-RA
2026-03-19 21:50:00,METAR LTBA 192150Z 03018G28KT 9999 -RA SCT014 BKN024 07/05 Q1009 RMK RWY23 03015KT,0,18,1,10000,0,0,0,-RA
2026-03-19 21:20:00,METAR LTBA 192120Z 02017KT 9999 -RA SCT014 BKN024 07/05 Q1010 RMK RWY23 03014KT 360V060,0,17,0,10000,0,0,0,-RA
2026-03-19 20:50:00,METAR LTBA 192050Z 02015KT 9999 -RA SCT015 BKN029 BKN070 07/05 Q1010 RMK RWY23 03015KT,0,15,0,10000,0,0,0,-RA
2026-03-19 20:20:00,METAR LTBA 192020Z 02015KT 9999 -RA BKN015 BKN025 07/05 Q1010 RMK RWY23 03015KT 360V060,0,15,0,10000,0,0,0,-RA
2026-03-19 19:50:00,METAR LTBA 191950Z 02016KT 8000 -RA BKN015 BKN025 BKN070 07/05 Q1011 RMK RWY23 03016KT,0,16,0,8000,0,0,0,-RA
2026-03-19 19:20:00,METAR LTBA 191920Z 03018KT 7000 -RA BKN015 BKN025 07/05 Q1011 RMK RWY23 03018G28KT,0,18,0,7000,0,0,0,-RA
2026-03-19 18:50:00,METAR LTBA 191850Z 03017KT 7000 -RA SCT015 BKN025 07/05 Q1011 RMK RWY23 03015KT,0,17,0,7000,0,0,0,-RA
2026-03-19 18:20:00,METAR LTBA 191820Z 02015KT 7000 -RA SCT015 BKN025 07/05 Q1011 RMK RWY23 03016KT,0,15,0,7000,0,0,0,-RA
2026-03-19 17:50:00,METAR LTBA 191750Z 03017KT 8000 -RA BKN022 07/05 Q1011 RMK RWY23 04015KT,0,17,0,8000,0,0,0,-RA
2026-03-19 17:20:00,METAR LTBA 191720Z 03016KT 9000 -RA BKN022 07/04 Q1011 RMK RWY23 03012KT,0,16,0,9000,0,0,0,-RA
2026-03-19 16:50:00,METAR LTBA 191650Z 03016KT 8000 -RA BKN025 07/04 Q1011 RMK RWY23 03016KT,0,16,0,8000,0,0,0,-RA
2026-03-19 16:20:00,METAR LTBA 191620Z 03017KT 360V060 9999 -RA BKN025 07/04 Q1011 RMK RWY23 03016KT,0,17,0,10000,0,0,0,-RA
2026-03-19 15:50:00,METAR LTBA 191550Z 03020G31KT 8000 -RA BKN025 07/04 Q1011 RMK RWY23 03016KT,0,20,1,8000,0,0,0,-RA
2026-03-19 15:20:00,METAR LTBA 191520Z 03018KT 9999 -RA BKN025 07/04 Q1011 RMK RWY23 03016KT,0,18,0,10000,0,0,0,-RA
2026-03-19 14:50:00,METAR LTBA 191450Z 03018KT 8000 -RA BKN025 07/04 Q1012 RMK RWY23 03017KT,0,18,0,8000,0,0,0,-RA
2026-03-19 14:20:00,METAR LTBA 191420Z 03019KT 7000 -RA BKN021 08/04 Q1011 RMK RWY23 03017KT,0,19,0,7000,0,0,0,-RA
2026-03-19 13:50:00,METAR LTBA 191350Z 03017G27KT 7000 -RA BKN021 07/04 Q1012 RMK RWY23 04016KT 010V070,0,17,1,7000,0,0,0,-RA
2026-03-19 13:20:00,METAR LTBA 191320Z 03020KT 8000 -RA BKN021 08/04 Q1012 RMK RWY23 03017KT,0,20,0,8000,0,0,0,-RA
2026-03-19 12:50:00,METAR LTBA 191250Z 03020KT 8000 -RA BKN021 08/04 Q1012 RMK RWY23 03018KT,0,20,0,8000,0,0,0,-RA
2026-03-19 12:20:00,METAR LTBA 191220Z 03017KT 8000 -RA BKN021 08/05 Q1012 RMK RWY23 04016KT 360V060,0,17,0,8000,0,0,0,-RA
2026-03-19 11:50:00,METAR LTBA 191150Z 03017KT 7000 -RA BKN021 08/05 Q1012 RMK RWY23 04014KT 010V070,0,17,0,7000,0,0,0,-RA
2026-03-19 11:20:00,METAR LTBA 191120Z 04023KT 9999 -RA BKN026 08/04 Q1012 RMK RWY23 03017KT,0,23,0,10000,0,0,0,-RA
2026-03-19 10:50:00,METAR LTBA 191050Z 04024KT 9999 -RA BKN026 09/03 Q1013 RMK RWY23 03019KT,0,24,0,10000,0,0,0,-RA
2026-03-19 10:32:00,SPECI LTBA 191032Z 04023KT 9999 -RA BKN026 09/03 Q1013,0,23,0,10000,0,0,0,-RA
2026-03-19 10:20:00,METAR LTBA 191020Z 04024KT 9999 BKN026 09/03 Q1013 RMK RWY23 03019KT 010V070,0,24,0,10000,0,0,0,
2026-03-19 09:50:00,METAR LTBA 190950Z 03022KT 9999 BKN024 09/03 Q1013 RMK RWY23 04016KT,0,22,0,10000,0,0,0,
2026-03-19 09:20:00,METAR LTBA 190920Z 03022KT 9999 BKN023 09/03 Q1013 RMK RWY23 03016G26KT 360V070,0,22,0,10000,0,0,0,
2026-03-19 08:50:00,METAR LTBA 190850Z 03021KT 9999 BKN023 09/03 Q1013 RMK RWY23 03017KT 010V070,0,21,0,10000,0,0,0,
2026-03-19 08:20:00,METAR LTBA 190820Z 04022G33KT 9999 BKN023 09/04 Q1014 RMK RWY23 03017KT 010V070,0,22,1,10000,0,0,0,
2026-03-19 07:50:00,METAR LTBA 190750Z 03021KT 9999 BKN022 09/04 Q1013 RMK RWY23 03019G33KT,0,21,0,10000,0,0,0,
2026-03-19 07:20:00,METAR LTBA 190720Z 03020KT 9999 BKN021 09/04 Q1014 RMK RWY23 03018KT,0,20,0,10000,0,0,0,
2026-03-19 06:50:00,METAR LTBA 190650Z 04017KT 9999 BKN020 09/05 Q1014 RMK RWY23 04018KT,0,17,0,10000,0,0,0,
2026-03-19 06:20:00,METAR LTBA 190620Z 05020KT 9999 BKN020 08/05 Q1013 RMK RWY23 05018KT,0,20,0,10000,0,0,0,
2026-03-19 05:50:00,METAR LTBA 190550Z 04018KT 6000 BKN015 BKN021 08/05 Q1013 RMK RWY23 05017G27KT 010V070,0,18,0,6000,0,0,0,
2026-03-19 05:20:00,METAR LTBA 190520Z 05020KT 9999 BKN015 BKN021 08/05 Q1013 RMK RWY23 05017KT,0,20,0,10000,0,0,0,
2026-03-19 04:50:00,METAR LTBA 190450Z 04017KT 9999 BKN015 BKN021 08/05 Q1013 RMK RWY23 05016KT,0,17,0,10000,0,0,0,
2026-03-19 04:20:00,METAR LTBA 190420Z 04019KT 6000 BKN013 BKN021 08/06 Q1013 RERA RMK RWY23 04014KT,0,19,0,6000,0,0,0,RA
2026-03-19 03:50:00,METAR LTBA 190350Z 04019KT 6000 -RA BKN013 BKN021 08/06 Q1013 RMK RWY23 04014KT,0,19,0,6000,0,0,0,-RA
2026-03-19 03:20:00,METAR LTBA 190320Z 04016KT 6000 -RA BKN015 BKN021 08/07 Q1014 RMK RWY23 05014KT,0,16,0,6000,0,0,0,-RA
2026-03-19 02:50:00,METAR LTBA 190250Z 04018KT 6000 -RA BKN015 BKN021 08/06 Q1014 RMK RWY23 05013KT,0,18,0,6000,0,0,0,-RA
2026-03-19 02:20:00,METAR LTBA 190220Z 04018KT 9000 BKN015 BKN021 08/05 Q1014 RMK RWY23 05015KT,0,18,0,9000,0,0,0,
2026-03-19 01:50:00,METAR LTBA 190150Z 05016KT 5000 BR BKN015 BKN021 08/06 Q1014 RERA RMK RWY23 05013KT,0,16,0,5000,0,0,1,"BR,RA"
2026-03-19 01:20:00,METAR LTBA 190120Z 04015KT 6000 -RA BKN013 BKN021 08/06 Q1014 RMK RWY23 04015KT,0,15,0,6000,0,0,0,-RA
2026-03-19 00:50:00,METAR LTBA 190050Z 04016KT 6000 -RA BKN013 BKN021 08/06 Q1014 RMK RWY23 04014KT 010V080,0,16,0,6000,0,0,0,-RA
2026-03-19 00:31:00,SPECI LTBA 190031Z 05015KT 8000 -RA BKN017 BKN021 08/06 Q1015 RMK RWY23 04013KT,0,15,0,8000,0,0,0,-RA
2026-03-19 00:20:00,METAR LTBA 190020Z 04016KT 9999 BKN017 BKN021 08/05 Q1015 RMK RWY23 05014KT,0,16,0,10000,0,0,0,
2026-03-18 23:50:00,METAR LTBA 182350Z 04019KT 9999 BKN017 BKN021 09/05 Q1015 RMK RWY23 05014G24KT,0,19,0,10000,0,0,0,
2026-03-18 23:20:00,METAR LTBA 182320Z 04017G28KT 9999 BKN017 BKN025 09/05 Q1015 RMK RWY23 05016KT,0,17,1,10000,0,0,0,
2026-03-18 22:50:00,METAR LTBA 182250Z 04018G28KT 9999 BKN017 BKN025 09/04 Q1015 RMK RWY23 05019G31KT 010V070,0,18,1,10000,0,0,0,
2026-03-18 22:20:00,METAR LTBA 182220Z 04019KT 9999 BKN017 BKN025 09/05 Q1015 RMK RWY23 04016KT 010V070,0,19,0,10000,0,0,0,
2026-03-18 21:50:00,METAR LTBA 182150Z 04021KT 9999 BKN017 BKN025 09/05 Q1015 RMK RWY23 05015KT,0,21,0,10000,0,0,0,
2026-03-18 21:20:00,METAR LTBA 182120Z 04021KT 9999 BKN017 BKN025 09/05 Q1015 RMK RWY23 04018G28KT 010V070,0,21,0,10000,0,0,0,
2026-03-18 20:50:00,METAR LTBA 182050Z 04022KT 9999 BKN017 BKN025 09/05 Q1015 RMK RWY23 04015G25KT,0,22,0,10000,0,0,0,
2026-03-18 20:20:00,METAR LTBA 182020Z 04020G30KT 9999 BKN017 BKN023 09/05 Q1016 RMK RWY23 04015KT,0,20,1,10000,0,0,0,
2026-03-18 19:50:00,METAR LTBA 181950Z 04020KT 9999 BKN017 BKN025 09/05 Q1016 RMK RWY23 05016G26KT,0,20,0,10000,0,0,0,
2026-03-18 19:20:00,METAR LTBA 181920Z 04021KT 9999 BKN018 BKN025 09/05 Q1016 RMK RWY23 04017G28KT,0,21,0,10000,0,0,0,
2026-03-18 18:50:00,METAR LTBA 181850Z 04020KT 9999 BKN018 BKN025 09/05 Q1016 RMK RWY23 05017KT 010V080,0,20,0,10000,0,0,0,
2026-03-18 18:20:00,METAR LTBA 181820Z 04021KT 9999 SCT018 BKN025 09/05 Q1016 RMK RWY23 05017KT,0,21,0,10000,0,0,0,
2026-03-18 17:50:00,METAR LTBA 181750Z 04021KT 9999 BKN015 BKN023 09/05 Q1016 RMK RWY23 05017KT 020V090,0,21,0,10000,0,0,0,
2026-03-18 17:20:00,METAR LTBA 181720Z 04020KT 9999 BKN015 BKN023 09/05 Q1016 RMK RWY23 05016G26KT,0,20,0,10000,0,0,0,
2026-03-18 16:50:00,METAR LTBA 181650Z 04022KT 9999 BKN015 OVC023 09/05 Q1016 RMK RWY23 05017KT,0,22,0,10000,0,0,0,
2026-03-18 16:20:00,METAR LTBA 181620Z 05018KT 9999 BKN015 OVC023 09/05 Q1016 RMK RWY23 05017KT,0,18,0,10000,0,0,0,
2026-03-18 15:50:00,METAR LTBA 181550Z 04019KT 9999 BKN014 OVC022 09/05 Q1015 RMK RWY23 05018KT,0,19,0,10000,0,0,0,
2026-03-18 15:20:00,METAR LTBA 181520Z 05019KT 9999 BKN014 OVC022 09/06 Q1015 RMK RWY23 05016KT 020V080,0,19,0,10000,0,0,0,
2026-03-18 14:50:00,METAR LTBA 181450Z 04021KT 9999 BKN014 OVC022 09/06 Q1015 RMK RWY23 05016KT,0,21,0,10000,0,0,0,
2026-03-18 14:20:00,METAR LTBA 181420Z 04021KT 9999 BKN014 OVC021 09/06 Q1015 RMK RWY23 05018KT,0,21,0,10000,0,0,0,
2026-03-18 13:50:00,METAR LTBA 181350Z 04021KT 9999 BKN014 OVC021 09/06 Q1015 RMK RWY23 05019G29KT,0,21,0,10000,0,0,0,
2026-03-18 13:20:00,METAR LTBA 181320Z 04022KT 9999 BKN015 OVC021 09/06 Q1015 RMK RWY23 04020KT 010V070,0,22,0,10000,0,0,0,
2026-03-18 12:50:00,METAR LTBA 181250Z 04024KT 9999 BKN013 OVC021 09/05 Q1015 RMK RWY23 05018G31KT,0,24,0,10000,0,0,0,
2026-03-18 12:20:00,METAR LTBA 181220Z 04023KT 9999 BKN013 OVC021 09/06 Q1015 RMK RWY23 04016G26KT,0,23,0,10000,0,0,0,
2026-03-18 11:50:00,METAR LTBA 181150Z 04021KT 9999 BKN015 OVC021 09/06 Q1016 RMK RWY23 03015KT,0,21,0,10000,0,0,0,
2026-03-18 11:20:00,METAR LTBA 181120Z 04018KT 9999 BKN015 OVC021 10/06 Q1016 RMK RWY23 05016KT,0,18,0,10000,0,0,0,
2026-03-18 10:50:00,METAR LTBA 181050Z 04020KT 9999 BKN015 OVC021 10/06 Q1016 RMK RWY23 05016KT,0,20,0,10000,0,0,0,
2026-03-18 10:20:00,METAR LTBA 181020Z 05021KT 9999 BKN015 OVC021 10/05 Q1016 RMK RWY23 05016KT,0,21,0,10000,0,0,0,
2026-03-18 09:50:00,METAR LTBA 180950Z 04018KT 9999 BKN015 OVC021 10/06 Q1016 RMK RWY23 05014G24KT 360V070,0,18,0,10000,0,0,0,
2026-03-18 09:20:00,METAR LTBA 180920Z 04018KT 9999 BKN015 OVC021 09/06 Q1016 RMK RWY23 05016KT,0,18,0,10000,0,0,0,
2026-03-18 08:50:00,METAR LTBA 180850Z 04015KT 9999 BKN015 OVC021 09/06 Q1016 RMK RWY23 06014KT 030V090,0,15,0,10000,0,0,0,
2026-03-18 08:20:00,METAR LTBA 180820Z 05015G26KT 9999 SCT015 BKN021 09/06 Q1016 RMK RWY23 05015KT 020V080,0,15,1,10000,0,0,0,
2026-03-18 07:50:00,METAR LTBA 180750Z 05012KT 9999 SCT015 BKN021 09/06 Q1016 RMK RWY23 06014KT,0,12,0,10000,0,0,0,
2026-03-18 07:20:00,METAR LTBA 180720Z 05005G15KT 9999 SCT015 BKN021 09/06 Q1016 RERA RMK RWY23 05013KT,0,5,1,10000,0,0,0,RA
2026-03-18 06:50:00,METAR LTBA 180650Z 05014KT 9999 -RA SCT015 BKN021 09/06 Q1016 RMK RWY23 05012KT,0,14,0,10000,0,0,0,-RA
2026-03-18 06:20:00,METAR LTBA 180620Z 06015KT 9999 -RA SCT015 BKN021 08/06 Q1016 RMK RWY23 06013KT,0,15,0,10000,0,0,0,-RA
2026-03-18 05:50:00,METAR LTBA 180550Z 06012KT 9999 -RA SCT015 BKN021 09/05 Q1016 RMK RWY23 07010KT 040V100,0,12,0,10000,0,0,0,-RA
2026-03-18 05:20:00,METAR LTBA 180520Z 06013KT 9999 SCT015 BKN021 09/05 Q1016 RMK RWY23 06012KT,0,13,0,10000,0,0,0,
2026-03-18 04:50:00,METAR LTBA 180450Z 05014KT 9999 FEW015 BKN021 09/04 Q1016 RMK RWY23 06011KT,0,14,0,10000,0,0,0,
2026-03-18 04:20:00,METAR LTBA 180420Z 05014KT 9999 FEW015 BKN021 08/04 Q1016 RMK RWY23 06011KT 020V080,0,14,0,10000,0,0,0,
2026-03-18 03:50:00,METAR LTBA 180350Z 06013KT 9999 FEW015 BKN021 08/04 Q1015 RMK RWY23 06014KT,0,13,0,10000,0,0,0,
2026-03-18 03:20:00,METAR LTBA 180320Z 05012KT 9999 FEW015 BKN021 08/04 Q1015 RMK RWY23 06012KT,0,12,0,10000,0,0,0,
2026-03-18 02:50:00,METAR LTBA 180250Z 06015KT 9999 FEW015 BKN021 08/04 Q1015 RMK RWY23 07014KT,0,15,0,10000,0,0,0,
2026-03-18 02:20:00,METAR LTBA 180220Z 07012KT 9999 FEW015 BKN021 09/05 Q1015 RMK RWY23 08012KT,0,12,0,10000,0,0,0,
2026-03-18 01:50:00,METAR LTBA 180150Z 06013KT 9999 FEW015 BKN021 08/05 Q1015 RMK RWY23 06011KT,0,13,0,10000,0,0,0,
2026-03-18 01:20:00,METAR LTBA 180120Z 07015KT 9999 FEW015 BKN021 08/04 Q1015 RMK RWY23 07012KT 050V110,0,15,0,10000,0,0,0,
2026-03-18 00:50:00,METAR LTBA 180050Z 07013KT 9999 FEW015 BKN021 08/04 Q1015 RMK RWY23 07013KT,0,13,0,10000,0,0,0,
2026-03-18 00:20:00,METAR LTBA 180020Z 06015KT 9999 FEW015 BKN021 08/04 Q1016 RMK RWY23 06015KT,0,15,0,10000,0,0,0,
2026-03-17 23:50:00,METAR LTBA 172350Z 07017KT 9999 FEW015 BKN021 08/04 Q1016 RMK RWY23 07015KT,0,17,0,10000,0,0,0,
2026-03-17 23:20:00,METAR LTBA 172320Z 06014KT 9999 FEW015 BKN021 08/04 Q1016 RMK RWY23 07015KT,0,14,0,10000,0,0,0,
2026-03-17 22:50:00,METAR LTBA 172250Z 07013KT 9999 FEW015 BKN021 08/04 Q1016 RMK RWY23 07012KT,0,13,0,10000,0,0,0,
2026-03-17 22:20:00,METAR LTBA 172220Z 06015KT 9999 FEW015 BKN021 08/04 Q1016 RMK RWY23 07013KT,0,15,0,10000,0,0,0,
2026-03-17 21:50:00,METAR LTBA 172150Z 06015KT 9999 FEW015 BKN021 08/04 Q1016 RMK RWY23 07012KT 040V100,0,15,0,10000,0,0,0,
2026-03-17 21:20:00,METAR LTBA 172120Z 07015KT 9999 FEW015 BKN021 08/04 Q1016 RMK RWY23 07010KT,0,15,0,10000,0,0,0,
2026-03-17 20:50:00,METAR LTBA 172050Z 06013KT 9999 FEW015 BKN021 08/04 Q1016 RMK RWY23 07011KT,0,13,0,10000,0,0,0,
2026-03-17 20:20:00,METAR LTBA 172020Z 06016KT 9999 FEW015 BKN021 08/04 Q1016 RMK RWY23 06014KT 030V090,0,16,0,10000,0,0,0,
2026-03-17 19:50:00,METAR LTBA 171950Z 06016KT 9999 FEW015 BKN021 08/04 Q1016 RMK RWY23 06014KT,0,16,0,10000,0,0,0,
2026-03-17 19:20:00,METAR LTBA 171920Z 06015KT 9999 SCT025 08/04 Q1017 RMK RWY23 07013KT,0,15,0,10000,0,0,0,
2026-03-17 18:50:00,METAR LTBA 171850Z 05014KT 9999 FEW040 SCT100 08/04 Q1017 RMK RWY23 06012KT,0,14,0,10000,0,0,0,
2026-03-17 18:20:00,METAR LTBA 171820Z 04016KT 9999 FEW040 SCT100 08/04 Q1016 RMK RWY23 05014KT,0,16,0,10000,0,0,0,
2026-03-17 17:50:00,METAR LTBA 171750Z 05016KT 9999 FEW040 SCT100 08/03 Q1016 RMK RWY23 05013KT,0,16,0,10000,0,0,0,
2026-03-17 17:20:00,METAR LTBA 171720Z 05015KT 9999 FEW040 SCT100 08/03 Q1016 RMK RWY23 05012KT,0,15,0,10000,0,0,0,
2026-03-17 16:50:00,METAR LTBA 171650Z 05016KT 9999 FEW040 SCT100 08/03 Q1016 RMK RWY23 05014KT,0,16,0,10000,0,0,0,
2026-03-17 16:20:00,METAR LTBA 171620Z 04016KT 9999 FEW040 SCT100 09/04 Q1016 RMK RWY23 05014KT 020V080,0,16,0,10000,0,0,0,
2026-03-17 15:50:00,METAR LTBA 171550Z 04018KT 9999 FEW040 SCT100 09/03 Q1016 RMK RWY23 04015KT,0,18,0,10000,0,0,0,
2026-03-17 14:50:00,METAR LTBA 171450Z 04019KT 9999 FEW040 SCT100 10/00 Q1016 RMK RWY23 05018KT,0,19,0,10000,0,0,0,
2026-03-17 14:20:00,METAR LTBA 171420Z 05018KT 9999 FEW040 11/M00 Q1016 RMK RWY23 06017KT,0,18,0,10000,0,0,0,
2026-03-17 13:50:00,METAR LTBA 171350Z 05018KT 9999 FEW040 12/M01 Q1016 RMK RWY23 04016KT,0,18,0,10000,0,0,0,
2026-03-17 13:20:00,METAR LTBA 171320Z 05017KT 9999 FEW040 12/M02 Q1017 RMK RWY23 05016KT,0,17,0,10000,0,0,0,
2026-03-17 12:50:00,METAR LTBA 171250Z 05016KT 9999 FEW040 13/M02 Q1017 RMK RWY23 04015KT,0,16,0,10000,0,0,0,
2026-03-17 12:20:00,METAR LTBA 171220Z 03016KT 9999 FEW040 13/M01 Q1017 RMK RWY23 02016KT,0,16,0,10000,0,0,0,
2026-03-17 11:50:00,METAR LTBA 171150Z 04014KT 010V070 9999 FEW040 SCT100 13/M00 Q1017 RMK RWY23 04013KT,0,14,0,10000,0,0,0,
2026-03-17 11:20:00,METAR LTBA 171120Z 03013KT 360V070 9999 FEW040 BKN100 13/M01 Q1017 RMK RWY23 04013KT 360V070,0,13,0,10000,0,0,0,
2026-03-17 10:50:00,METAR LTBA 171050Z 03014KT 360V070 9999 FEW040 BKN100 12/M00 Q1017 RMK RWY23 03014KT 360V060,0,14,0,10000,0,0,0,
2026-03-17 10:20:00,METAR LTBA 171020Z 06014KT 9999 BKN030 12/01 Q1018 RMK RWY23 05013KT,0,14,0,10000,0,0,0,
2026-03-17 09:50:00,METAR LTBA 170950Z 04015KT 9999 BKN030 12/M01 Q1018 RMK RWY23 05014KT,0,15,0,10000,0,0,0,
2026-03-17 09:20:00,METAR LTBA 170920Z 07011KT 9999 BKN030 11/02 Q1018 RMK RWY23 07011KT,0,11,0,10000,0,0,0,
2026-03-17 08:50:00,METAR LTBA 170850Z 07010KT 030V100 9999 BKN013 10/03 Q1018 RMK RWY23 07011KT 040V100,0,10,0,10000,0,0,0,
2026-03-17 08:20:00,METAR LTBA 170820Z 09010KT 050V120 9999 BKN013 10/04 Q1018 RMK RWY23 08010KT 030V100,0,10,0,10000,0,0,0,
2026-03-17 07:50:00,METAR LTBA 170750Z 06009KT 9999 BKN013 10/04 Q1019 RMK RWY23 08009KT 040V110,0,9,0,10000,0,0,0,
2026-03-17 07:50:00,METAR LTBA 170750Z 06009KT 9999 BKN013 10/04 Q1019,0,9,0,10000,0,0,0,
2026-03-17 07:20:00,METAR LTBA 170720Z 07010KT 9999 BKN013 09/04 Q1019 RMK RWY23 07010KT,0,10,0,10000,0,0,0,
2026-03-17 06:50:00,METAR LTBA 170650Z 05010KT 9999 BKN013 08/04 Q1019 RMK RWY23 05009KT 020V080,0,10,0,10000,0,0,0,
2026-03-17 06:20:00,METAR LTBA 170620Z 05010KT 9999 BKN013 08/05 Q1019 RMK RWY23 05007KT 020V080,0,10,0,10000,0,0,0,
2026-03-17 05:50:00,METAR LTBA 170550Z 05009KT 9999 BKN013 08/05 Q1019 RMK RWY23 05007KT,0,9,0,10000,0,0,0,
2026-03-17 05:20:00,METAR LTBA 170520Z 04009KT 9999 SCT013 07/06 Q1019 RMK RWY23 04008KT,0,9,0,10000,0,0,0,
2026-03-17 04:50:00,METAR LTBA 170450Z 06007KT 9999 SCT013 06/04 Q1018 RMK RWY23 06005KT,0,7,0,10000,0,0,0,
2026-03-17 04:20:00,METAR LTBA 170420Z 05009KT 9999 SCT013 06/04 Q1018 RMK RWY23 06007KT,0,9,0,10000,0,0,0,
2026-03-17 03:50:00,METAR LTBA 170350Z 04009KT 9999 SCT013 07/04 Q1018 RMK RWY23 04008KT,0,9,0,10000,0,0,0,
2026-03-17 03:20:00,METAR LTBA 170320Z 04009KT 9999 SCT013 07/04 Q1018 RMK RWY23 04008KT,0,9,0,10000,0,0,0,
2026-03-17 02:50:00,METAR LTBA 170250Z 04008KT 9999 SCT013 06/05 Q1018 RMK RWY23 05008KT,0,8,0,10000,0,0,0,
2026-03-17 02:20:00,METAR LTBA 170220Z 05008KT 7000 FEW009 06/05 Q1018 RMK RWY23 05008KT,0,8,0,7000,0,0,0,
2026-03-17 01:50:00,METAR LTBA 170150Z 03006KT 7000 FEW009 06/05 Q1018 RMK RWY23 03008KT,0,6,0,7000,0,0,0,
2026-03-17 01:20:00,METAR LTBA 170120Z 03006KT 7000 FEW009 06/05 Q1017 RMK RWY23 04007KT,0,6,0,7000,0,0,0,
2026-03-17 00:50:00,METAR LTBA 170050Z 02005KT 7000 FEW009 06/05 Q1018 RMK RWY23 04005KT,0,5,0,7000,0,0,0,
2026-03-17 00:20:00,METAR LTBA 170020Z 01005KT 7000 NSC 06/05 Q1018 RMK RWY23 02006KT,0,5,0,7000,0,0,0,
2026-03-16 23:50:00,METAR LTBA 162350Z 03007KT 8000 NSC 06/06 Q1018 RMK RWY23 04006KT,0,7,0,8000,0,0,0,
2026-03-16 23:20:00,METAR LTBA 162320Z 04006KT CAVOK 06/05 Q1018 RMK RWY23 04007KT,1,0,0,9999,0,0,0,
2026-03-16 22:50:00,METAR LTBA 162250Z 03006KT CAVOK 06/06 Q1018 RMK RWY23 05005KT,1,0,0,9999,0,0,0,
2026-03-16 22:20:00,METAR LTBA 162220Z 03008KT CAVOK 07/05 Q1018 RMK RWY23 04008KT 010V070,1,0,0,9999,0,0,0,
2026-03-16 21:50:00,METAR LTBA 162150Z 03008KT CAVOK 07/05 Q1018 RMK RWY23 04008KT,1,0,0,9999,0,0,0,
2026-03-16 21:20:00,METAR LTBA 162120Z 04009KT CAVOK 07/05 Q1018 RMK RWY23 05008KT,1,0,0,9999,0,0,0,
2026-03-16 20:50:00,METAR LTBA 162050Z 03010KT CAVOK 07/04 Q1018 RMK RWY23 04008KT,1,0,0,9999,0,0,0,
2026-03-16 20:20:00,METAR LTBA 162020Z 04008KT CAVOK 07/04 Q1018 RMK RWY23 04009KT,1,0,0,9999,0,0,0,
2026-03-16 19:50:00,METAR LTBA 161950Z 04011KT 9999 FEW017 07/04 Q1018 RMK RWY23 05008KT,0,11,0,10000,0,0,0,
2026-03-16 19:20:00,METAR LTBA 161920Z 04008KT 9999 FEW017 07/04 Q1019 RMK RWY23 05009KT,0,8,0,10000,0,0,0,
2026-03-16 18:50:00,METAR LTBA 161850Z 04012KT 9999 FEW017 08/03 Q1018 RMK RWY23 05009KT,0,12,0,10000,0,0,0,
2026-03-16 18:20:00,METAR LTBA 161820Z 03011KT 9999 SCT020 08/04 Q1018 RMK RWY23 05009KT 010V070,0,11,0,10000,0,0,0,
2026-03-16 17:50:00,METAR LTBA 161750Z 04011KT 9999 SCT025 08/04 Q1018 RMK RWY23 04009KT,0,11,0,10000,0,0,0,
2026-03-16 17:20:00,METAR LTBA 161720Z 05012KT 9999 FEW030 08/04 Q1018 RMK RWY23 05009KT,0,12,0,10000,0,0,0,
2026-03-16 16:50:00,METAR LTBA 161650Z 04010KT 9999 FEW035 08/03 Q1017 RMK RWY23 04011KT,0,10,0,10000,0,0,0,
2026-03-16 16:20:00,METAR LTBA 161620Z 03009KT 9999 FEW035 08/03 Q1017 RMK RWY23 03011KT,0,9,0,10000,0,0,0,
2026-03-16 15:50:00,METAR LTBA 161550Z 02011KT 9999 FEW035 09/03 Q1017 RMK RWY23 03011KT,0,11,0,10000,0,0,0,
2026-03-16 15:20:00,METAR LTBA 161520Z 01010KT 9999 FEW035 10/03 Q1017 RMK RWY23 03010KT,0,10,0,10000,0,0,0,
2026-03-16 14:50:00,METAR LTBA 161450Z 01010KT 9999 FEW035 11/03 Q1016 RMK RWY23 01009KT 350V050,0,10,0,10000,0,0,0,
2026-03-16 14:20:00,METAR LTBA 161420Z VRB03KT 9999 FEW033 11/04 Q1016 RMK RWY23 04006KT 360V080,0,3,0,10000,0,0,0,
2026-03-16 13:50:00,METAR LTBA 161350Z 02007KT 340V060 9999 FEW033 12/03 Q1016 RMK RWY23 VRB03KT,0,7,0,10000,0,0,0,
2026-03-16 13:20:00,METAR LTBA 161320Z 02007KT 350V050 9999 SCT033 12/03 Q1016 RMK RWY23 02007KT 330V060,0,7,0,10000,0,0,0,
2026-03-16 12:50:00,METAR LTBA 161250Z 04004KT 010V080 9999 SCT033 12/03 Q1017 RMK RWY23 VRB04KT,0,4,0,10000,0,0,0,
2026-03-16 12:20:00,METAR LTBA 161220Z 36006KT 310V110 9999 SCT033 11/03 Q1016 RMK RWY23 03008KT 350V050,0,6,0,10000,0,0,0,
2026-03-16 11:50:00,METAR LTBA 161150Z 34009KT 310V020 9999 BKN030 11/04 Q1016 RMK RWY23 34008KT 310V050,0,9,0,10000,0,0,0,
2026-03-16 11:20:00,METAR LTBA 161120Z 35009KT 330V030 9999 BKN026 11/03 Q1016 RMK RWY23 36006KT 290V050,0,9,0,10000,0,0,0,
2026-03-16 10:50:00,METAR LTBA 161050Z 34009KT 310V020 9999 BKN026 10/03 Q1017 RMK RWY23 36007KT 310V050,0,9,0,10000,0,0,0,
2026-03-16 10:20:00,METAR LTBA 161020Z 33008KT 9999 BKN026 10/04 Q1017 RMK RWY23 35008KT 310V020,0,8,0,10000,0,0,0,
2026-03-16 09:50:00,METAR LTBA 160950Z 33010KT 9999 BKN026 10/04 Q1017 RMK RWY23 33008KT 290V360,0,10,0,10000,0,0,0,
2026-03-16 09:20:00,METAR LTBA 160920Z 35007KT 9999 BKN026 10/04 Q1017 RMK RWY23 35007KT 320V020,0,7,0,10000,0,0,0,
2026-03-16 08:50:00,METAR LTBA 160850Z 34008KT 9999 BKN026 10/04 Q1017 RMK RWY23 01006KT 350V060,0,8,0,10000,0,0,0,
2026-03-16 08:20:00,METAR LTBA 160820Z 34006KT 9999 BKN026 09/03 Q1016 RMK RWY23 36006KT 310V030,0,6,0,10000,0,0,0,
2026-03-16 07:50:00,METAR LTBA 160750Z 35006KT 9999 BKN026 09/04 Q1016 RMK RWY23 36006KT 320V020,0,6,0,10000,0,0,0,
2026-03-16 07:20:00,METAR LTBA 160720Z 01008KT 330V040 9999 BKN023 09/03 Q1016 RMK RWY23 03007KT 350V070,0,8,0,10000,0,0,0,
2026-03-16 06:50:00,METAR LTBA 160650Z 01007KT 330V040 9999 BKN023 09/03 Q1016 RMK RWY23 02006KT 340V060,0,7,0,10000,0,0,0,
2026-03-16 06:20:00,METAR LTBA 160620Z 35007KT 9999 BKN025 09/03 Q1016 RMK RWY23 01006KT 350V050,0,7,0,10000,0,0,0,
2026-03-16 05:50:00,METAR LTBA 160550Z 33006KT 9999 BKN025 08/05 Q1015 RMK RWY23 36006KT 290V040,0,6,0,10000,0,0,0,
2026-03-16 05:20:00,METAR LTBA 160520Z 33007KT 9999 FEW015 BKN025 08/05 Q1015 RMK RWY23 34005KT,0,7,0,10000,0,0,0,
2026-03-16 04:50:00,METAR LTBA 160450Z 34006KT 9999 FEW015 BKN025 08/06 Q1015 RMK RWY23 34005KT,0,6,0,10000,0,0,0,
2026-03-16 04:20:00,METAR LTBA 160420Z 35011KT 9999 FEW015 BKN033 08/06 Q1014 RMK RWY23 35008KT,0,11,0,10000,0,0,0,
2026-03-16 03:50:00,METAR LTBA 160350Z 35008KT 9999 FEW015 BKN035 08/06 Q1014 RMK RWY23 35009KT,0,8,0,10000,0,0,0,
2026-03-16 03:20:00,METAR LTBA 160320Z 35008KT 9999 SCT015 BKN033 08/06 Q1014 RMK RWY23 35009KT,0,8,0,10000,0,0,0,
2026-03-16 02:50:00,METAR LTBA 160250Z 33009KT 9999 SCT013 BKN033 08/06 Q1014 RMK RWY23 35006KT 330V030,0,9,0,10000,0,0,0,
2026-03-16 02:20:00,METAR LTBA 160220Z 36008KT 9999 SCT013 BKN023 08/06 Q1013 RMK RWY23 35008KT,0,8,0,10000,0,0,0,
2026-03-16 01:50:00,METAR LTBA 160150Z 36008KT 9999 BKN014 BKN022 08/06 Q1013 RMK RWY23 35009KT,0,8,0,10000,0,0,0,
2026-03-16 01:20:00,METAR LTBA 160120Z 35007KT 9999 SCT014 BKN022 09/06 Q1013 RMK RWY23 03005KT 350V080,0,7,0,10000,0,0,0,
2026-03-16 00:50:00,METAR LTBA 160050Z 35009KT 9999 SCT014 BKN022 09/06 Q1013 RMK RWY23 02004KT 350V070,0,9,0,10000,0,0,0,
2026-03-16 00:20:00,METAR LTBA 160020Z 36004KT 330V050 9999 SCT014 BKN024 09/06 Q1013 RMK RWY23 03005KT 350V090,0,4,0,10000,0,0,0,
2026-03-15 23:50:00,METAR LTBA 152350Z 04006KT 9999 SCT017 BKN024 09/05 Q1013 RMK RWY23 05005KT,0,6,0,10000,0,0,0,
2026-03-15 23:20:00,METAR LTBA 152320Z 04006KT 9999 SCT015 BKN024 09/05 Q1013 RMK RWY23 05005KT,0,6,0,10000,0,0,0,
2026-03-15 22:50:00,METAR LTBA 152250Z 04006KT 9999 SCT015 BKN024 09/05 Q1013 RMK RWY23 05005KT,0,6,0,10000,0,0,0,
2026-03-15 22:20:00,METAR LTBA 152220Z 02007KT 9999 SCT015 BKN024 09/05 Q1013 RMK RWY23 05006KT,0,7,0,10000,0,0,0,
2026-03-15 21:50:00,METAR LTBA 152150Z 02008KT 9999 SCT015 BKN024 09/05 Q1013 RMK RWY23 02008KT,0,8,0,10000,0,0,0,
2026-03-15 21:20:00,METAR LTBA 152120Z 04007KT 9999 SCT015 BKN024 09/05 Q1013 RMK RWY23 05007KT,0,7,0,10000,0,0,0,
2026-03-15 20:50:00,METAR LTBA 152050Z 02007KT 340V040 9999 SCT015 BKN029 09/05 Q1013 RMK RWY23 02007KT 360V060,0,7,0,10000,0,0,0,
2026-03-15 20:20:00,METAR LTBA 152020Z 02008KT 9999 SCT015 BKN029 09/05 Q1013 RMK RWY23 02008KT,0,8,0,10000,0,0,0,
2026-03-15 19:50:00,METAR LTBA 151950Z 03006KT 360V060 9999 SCT015 BKN025 09/06 Q1013 RMK RWY23 04007KT 010V070,0,6,0,10000,0,0,0,
2026-03-15 19:20:00,METAR LTBA 151920Z 35006KT 9999 BKN015 BKN025 09/07 Q1012 RMK RWY23 02006KT,0,6,0,10000,0,0,0,
2026-03-15 18:50:00,METAR LTBA 151850Z 01007KT 9999 BKN015 BKN035 09/06 Q1012 RMK RWY23 01008KT,0,7,0,10000,0,0,0,
2026-03-15 18:20:00,METAR LTBA 151820Z 02010KT 9999 BKN014 BKN035 09/06 Q1012 RMK RWY23 01009KT,0,10,0,10000,0,0,0,
2026-03-15 17:50:00,METAR LTBA 151750Z 01008KT 340V040 9999 BKN014 BKN035 09/07 Q1012 RMK RWY23 02007KT,0,8,0,10000,0,0,0,
2026-03-15 17:20:00,METAR LTBA 151720Z 01008KT 9999 BKN015 BKN035 09/07 Q1012 RMK RWY23 01006KT 350V050,0,8,0,10000,0,0,0,
2026-03-15 16:50:00,METAR LTBA 151650Z 36007KT 9999 BKN015 BKN025 09/06 Q1012 RMK RWY23 36008KT,0,7,0,10000,0,0,0,
2026-03-15 16:20:00,METAR LTBA 151620Z 02011KT 9999 SCT015 BKN025 09/06 Q1012 RMK RWY23 02009KT,0,11,0,10000,0,0,0,
2026-03-15 15:50:00,METAR LTBA 151550Z 01009KT 9999 BKN015 BKN025 09/07 Q1011 RMK RWY23 01010KT 340V040,0,9,0,10000,0,0,0,
2026-03-15 15:20:00,METAR LTBA 151520Z 01012KT 9999 SCT015 BKN025 09/06 Q1011 RMK RWY23 01011KT,0,12,0,10000,0,0,0,
2026-03-15 14:50:00,METAR LTBA 151450Z 01011KT 9999 BKN029 09/06 Q1011 RMK RWY23 01011KT 340V050,0,11,0,10000,0,0,0,
2026-03-15 14:20:00,METAR LTBA 151420Z 01011KT 9999 BKN020 10/05 Q1011 RMK RWY23 02012KT 340V050,0,11,0,10000,0,0,0,
2026-03-15 13:50:00,METAR LTBA 151350Z 01011KT 9999 BKN020 10/05 Q1011 RMK RWY23 01012KT 350V060,0,11,0,10000,0,0,0,
2026-03-15 13:20:00,METAR LTBA 151320Z 36010KT 9999 BKN022 10/05 Q1011 RMK RWY23 01013KT,0,10,0,10000,0,0,0,
2026-03-15 12:50:00,METAR LTBA 151250Z 36012KT 9999 BKN026 10/04 Q1010 RMK RWY23 01011KT 340V040,0,12,0,10000,0,0,0,
2026-03-15 12:20:00,METAR LTBA 151220Z 01010KT 9999 BKN026 10/04 Q1010 RMK RWY23 01008KT 350V050,0,10,0,10000,0,0,0,
2026-03-15 11:50:00,METAR LTBA 151150Z 02011KT 9999 BKN026 10/04 Q1010 RMK RWY23 36009KT,0,11,0,10000,0,0,0,
2026-03-15 11:20:00,METAR LTBA 151120Z 01011KT 9999 BKN029 10/04 Q1010 RMK RWY23 03009KT,0,11,0,10000,0,0,0,
2026-03-15 10:50:00,METAR LTBA 151050Z 01012KT 9999 BKN021 09/04 Q1010 RMK RWY23 02010KT 340V040,0,12,0,10000,0,0,0,
2026-03-15 10:20:00,METAR LTBA 151020Z 01009KT 9999 BKN021 09/05 Q1011 RMK RWY23 36009KT,0,9,0,10000,0,0,0,
2026-03-15 09:50:00,METAR LTBA 150950Z 36010KT 9999 BKN022 09/04 Q1010 RMK RWY23 01008KT 340V050,0,10,0,10000,0,0,0,
2026-03-15 09:20:00,METAR LTBA 150920Z 02008KT 350V070 9999 BKN022 09/04 Q1010 RMK RWY23 03008KT 360V060,0,8,0,10000,0,0,0,
2026-03-15 08:50:00,METAR LTBA 150850Z 04009KT 9999 BKN022 09/04 Q1010 RMK RWY23 04007KT 010V080,0,9,0,10000,0,0,0,
2026-03-15 08:20:00,METAR LTBA 150820Z 05008KT 9999 BKN022 09/04 Q1010 RMK RWY23 05007KT 020V080,0,8,0,10000,0,0,0,
