Time_recorded,METAR,is_cavok,wind_speed,is_gust,visibility_meters,has_thunderstorm,has_heavy_rain,has_low_vis_fog,other_phenomenon
2026-05-02 14:53:00,METAR KMTJ 021453Z AUTO 23003KT 10SM CLR 10/M04 A3025 RMK AO2 SLP197 T01001039 51009,0,3.0,0,16090,0,0,0,
2026-05-02 13:53:00,METAR KMTJ 021353Z AUTO 18005KT 10SM CLR 07/M05 A3025 RMK AO2 SLP203 T00671050,0,5.0,0,16090,0,0,0,
2026-05-02 12:53:00,METAR KMTJ 021253Z AUTO 13006KT 10SM CLR 03/M04 A3023 RMK AO2 SLP200 T00281044,0,6.0,0,16090,0,0,0,
2026-05-02 11:53:00,METAR KMTJ 021153Z AUTO 14006KT 10SM CLR 03/M04 A3022 RMK AO2 SLP194 T00281044 10106 20022 51006,0,6.0,0,16090,0,0,0,
2026-05-02 10:53:00,METAR KMTJ 021053Z AUTO 16008KT 10SM CLR 04/M04 A3022 RMK AO2 SLP191 T00391039,0,8.0,0,16090,0,0,0,
2026-05-02 09:53:00,METAR KMTJ 020953Z AUTO 13004KT 10SM CLR 03/M04 A3021 RMK AO2 SLP188 T00331039,0,4.0,0,16090,0,0,0,
2026-05-02 08:53:00,METAR KMTJ 020853Z AUTO 15004KT 10SM CLR 05/M04 A3020 RMK AO2 SLP184 T00501044 51008,0,4.0,0,16090,0,0,0,
2026-05-02 07:53:00,METAR KMTJ 020753Z AUTO 20005KT 10SM CLR 06/M04 A3019 RMK AO2 SLP180 T00611039,0,5.0,0,16090,0,0,0,
2026-05-02 06:53:00,METAR KMTJ 020653Z AUTO 18006KT 10SM CLR 08/M03 A3018 RMK AO2 SLP177 T00781033 401780006,0,6.0,0,16090,0,0,0,
2026-05-02 05:53:00,METAR KMTJ 020553Z AUTO 12010G19KT 10SM CLR 11/M02 A3017 RMK AO2 SLP170 T01111022 10178 20100 51018,0,10.0,1,16090,0,0,0,
2026-05-02 04:53:00,METAR KMTJ 020453Z AUTO 13008KT 10SM CLR 10/M03 A3016 RMK AO2 SLP170 T01001033,0,8.0,0,16090,0,0,0,
2026-05-02 03:53:00,METAR KMTJ 020353Z AUTO 11009KT 10SM FEW120 11/M03 A3013 RMK AO2 SLP164 T01111028,0,9.0,0,16090,0,0,0,
2026-05-02 02:53:00,METAR KMTJ 020253Z AUTO 06004KT 10SM FEW048 BKN090 OVC110 14/M05 A3010 RMK AO2 SLP150 T01441050 51017,0,4.0,0,16090,0,0,0,
2026-05-02 01:53:00,METAR KMTJ 020153Z AUTO 09018G25KT 10SM BKN100 14/M03 A3008 RMK AO2 WSHFT 0132 SLP147 T01391033,0,18.0,1,16090,0,0,0,
2026-05-02 00:53:00,METAR KMTJ 020053Z AUTO 16012G27KT 5SM HZ FEW070 OVC090 16/M07 A3004 RMK AO2 PK WND 18027/0048 WSHFT 0011 SLP137 T01611072,0,12.0,1,8045,0,0,0,
2026-05-02 00:31:00,SPECI KMTJ 020031Z AUTO 05009G22KT 10SM BKN100 OVC110 16/M06 A3005 RMK AO2 WSHFT 0011 T01611061,0,9.0,1,16090,0,0,0,
2026-05-01 23:53:00,METAR KMTJ 012353Z AUTO 31004KT 10SM FEW120 17/M07 A3004 RMK AO2 SLP132 T01721072 10178 20122 56007,0,4.0,0,16090,0,0,0,
2026-05-01 22:53:00,METAR KMTJ 012253Z AUTO 27005KT 10SM CLR 17/M08 A3004 RMK AO2 SLP133 T01721083,0,5.0,0,16090,0,0,0,
2026-05-01 21:53:00,METAR KMTJ 012153Z AUTO 31010G23KT 10SM CLR 18/M07 A3004 RMK AO2 SLP134 T01781072,0,10.0,1,16090,0,0,0,
2026-05-01 20:53:00,METAR KMTJ 012053Z AUTO 31009G19KT 10SM CLR 16/M09 A3006 RMK AO2 SLP140 T01611089 56016,0,9.0,1,16090,0,0,0,
2026-05-01 19:53:00,METAR KMTJ 011953Z AUTO 34009KT 10SM CLR 16/M06 A3007 RMK AO2 SLP145 T01561061,0,9.0,0,16090,0,0,0,
2026-05-01 18:53:00,METAR KMTJ 011853Z AUTO 36006G15KT 10SM CLR 14/M04 A3009 RMK AO2 SLP150 T01391044,0,6.0,1,16090,0,0,0,
2026-05-01 17:53:00,METAR KMTJ 011753Z AUTO 32007KT 10SM CLR 12/M02 A3011 RMK AO2 SLP158 T01221017 10122 20011 58003,0,7.0,0,16090,0,0,0,
2026-05-01 16:53:00,METAR KMTJ 011653Z AUTO 34007KT 10SM CLR 11/M02 A3013 RMK AO2 SLP162 T01061017,0,7.0,0,16090,0,0,0,
2026-05-01 15:53:00,METAR KMTJ 011553Z AUTO 34007KT 10SM CLR 09/M02 A3012 RMK AO2 SLP162 T00891017,0,7.0,0,16090,0,0,0,
2026-05-01 14:53:00,METAR KMTJ 011453Z AUTO 34005KT 10SM CLR 08/M02 A3012 RMK AO2 SLP161 T00781022 51008,0,5.0,0,16090,0,0,0,
2026-05-01 13:53:00,METAR KMTJ 011353Z AUTO 15004KT 10SM CLR 05/M03 A3012 RMK AO2 SLP165 T00501033,0,4.0,0,16090,0,0,0,
2026-05-01 12:53:00,METAR KMTJ 011253Z AUTO 15006KT 10SM CLR 02/M04 A3011 RMK AO2 SLP161 T00171039,0,6.0,0,16090,0,0,0,
2026-05-01 11:53:00,METAR KMTJ 011153Z AUTO 15008KT 10SM CLR 02/M04 A3010 RMK AO2 SLP155 T00171039 10072 20006 51002,0,8.0,0,16090,0,0,0,
2026-05-01 10:53:00,METAR KMTJ 011053Z AUTO 16007KT 10SM CLR 01/M04 A3010 RMK AO2 SLP155 T00111039,0,7.0,0,16090,0,0,0,
2026-05-01 09:53:00,METAR KMTJ 010953Z AUTO 15005KT 10SM CLR 01/M04 A3009 RMK AO2 SLP155 T00111039,0,5.0,0,16090,0,0,0,
2026-05-01 08:53:00,METAR KMTJ 010853Z AUTO 17005KT 10SM CLR 02/M03 A3009 RMK AO2 SLP150 T00221033 50005,0,5.0,0,16090,0,0,0,
2026-05-01 07:53:00,METAR KMTJ 010753Z AUTO 11004KT 10SM CLR 03/M03 A3009 RMK AO2 SLP151 T00331028,0,4.0,0,16090,0,0,0,
2026-05-01 06:53:00,METAR KMTJ 010653Z AUTO 12005KT 10SM CLR 06/M03 A3009 RMK AO2 SLP145 T00611028 401780022,0,5.0,0,16090,0,0,0,
2026-05-01 05:53:00,METAR KMTJ 010553Z AUTO 24004KT 10SM CLR 07/M03 A3007 RMK AO2 SLP140 T00721028 10167 20067 51013,0,4.0,0,16090,0,0,0,
2026-05-01 04:53:00,METAR KMTJ 010453Z AUTO 26004KT 10SM CLR 09/M03 A3006 RMK AO2 SLP137 T00891028,0,4.0,0,16090,0,0,0,
2026-05-01 03:53:00,METAR KMTJ 010353Z AUTO VRB03KT 10SM FEW090 10/M04 A3005 RMK AO2 SLP135 T01001039,0,3.0,0,16090,0,0,0,
2026-05-01 02:53:00,METAR KMTJ 010253Z AUTO 06007KT 10SM BKN080 BKN095 12/M04 A3003 RMK AO2 SLP127 T01171039 53017,0,7.0,0,16090,0,0,0,
2026-05-01 01:53:00,METAR KMTJ 010153Z AUTO 33006KT 10SM FEW100 12/M04 A3000 RMK AO2 SLP119 T01221039,0,6.0,0,16090,0,0,0,
2026-05-01 00:53:00,METAR KMTJ 010053Z AUTO 30019G26KT 10SM FEW090 SCT100 14/M04 A2998 RMK AO2 PK WND 31027/0036 SLP115 T01441044,0,19.0,1,16090,0,0,0,
2026-04-30 23:53:00,METAR KMTJ 302353Z AUTO 27008KT 10SM BKN110 16/M06 A2997 RMK AO2 PK WND 32031/2309 SLP108 T01611061 10178 20133 55006,0,8.0,0,16090,0,0,0,
2026-04-30 22:53:00,METAR KMTJ 302253Z AUTO 32009G19KT 10SM FEW110 16/M11 A2997 RMK AO2 SLP106 T01611106,0,9.0,1,16090,0,0,0,
2026-04-30 21:53:00,METAR KMTJ 302153Z AUTO 21007KT 10SM BKN110 15/M07 A2998 RMK AO2 PK WND 21028/2128 SLP111 T01501067,0,7.0,0,16090,0,0,0,
2026-04-30 20:53:00,METAR KMTJ 302053Z AUTO 36003KT 10SM FEW090 16/M06 A2999 RMK AO2 SLP112 T01611061 56016,0,3.0,0,16090,0,0,0,
2026-04-30 19:53:00,METAR KMTJ 301953Z AUTO VRB04G17KT 10SM CLR 16/M06 A3000 RMK AO2 SLP115 T01561061,0,4.0,1,16090,0,0,0,
2026-04-30 18:53:00,METAR KMTJ 301853Z AUTO 02009KT 10SM CLR 15/M03 A3002 RMK AO2 SLP119 T01501033,0,9.0,0,16090,0,0,0,
2026-04-30 17:53:00,METAR KMTJ 301753Z AUTO 31005KT 10SM CLR 13/M02 A3005 RMK AO2 SLP128 T01331022 10133 20022 58004,0,5.0,0,16090,0,0,0,
2026-04-30 16:53:00,METAR KMTJ 301653Z AUTO 10SM CLR 12/M02 A3006 RMK AO2 SLP129 T01221017,0,,0,16090,0,0,0,
2026-04-30 15:53:00,METAR KMTJ 301553Z AUTO 36006KT 10SM CLR 10/M02 A3006 RMK AO2 SLP131 T01001022,0,6.0,0,16090,0,0,0,
2026-04-30 14:53:00,METAR KMTJ 301453Z AUTO 00000KT 10SM SCT095 08/M03 A3006 RMK AO2 SLP137 T00831028 50002,0,0.0,0,16090,0,0,0,
2026-04-30 13:53:00,METAR KMTJ 301353Z AUTO 15006KT 10SM BKN100 06/M02 A3007 RMK AO2 SLP140 T00611022,0,6.0,0,16090,0,0,0,
2026-04-30 12:53:00,METAR KMTJ 301253Z AUTO 13004KT 10SM CLR 03/M02 A3006 RMK AO2 SLP141 T00281022,0,4.0,0,16090,0,0,0,
2026-04-30 11:53:00,METAR KMTJ 301153Z AUTO 15006KT 10SM CLR 02/M02 A3006 RMK AO2 SLP139 T00221022 10100 20022 50001,0,6.0,0,16090,0,0,0,
2026-04-30 10:53:00,METAR KMTJ 301053Z AUTO 16006KT 10SM CLR 03/M02 A3006 RMK AO2 SLP140 T00331022,0,6.0,0,16090,0,0,0,
2026-04-30 09:53:00,METAR KMTJ 300953Z AUTO 16005KT 10SM CLR 04/M03 A3006 RMK AO2 SLP134 T00441028,0,5.0,0,16090,0,0,0,
2026-04-30 08:53:00,METAR KMTJ 300853Z AUTO 16006KT 10SM CLR 05/M02 A3005 RMK AO2 SLP133 T00501017 58006,0,6.0,0,16090,0,0,0,
2026-04-30 07:53:00,METAR KMTJ 300753Z AUTO 14006KT 10SM CLR 06/M02 A3007 RMK AO2 SLP135 T00611017,0,6.0,0,16090,0,0,0,
2026-04-30 06:53:00,METAR KMTJ 300653Z AUTO 13005KT 10SM CLR 08/M01 A3007 RMK AO2 SLP138 T00781011 401780022,0,5.0,0,16090,0,0,0,
2026-04-30 05:53:00,METAR KMTJ 300553Z AUTO 11005KT 10SM CLR 10/M01 A3007 RMK AO2 SLP137 T01001011 10161 20100 50004,0,5.0,0,16090,0,0,0,
2026-04-30 04:53:00,METAR KMTJ 300453Z AUTO 08005KT 10SM OVC095 12/M01 A3008 RMK AO2 SLP138 T01171011,0,5.0,0,16090,0,0,0,
2026-04-30 03:53:00,METAR KMTJ 300353Z AUTO 15013KT 10SM OVC085 13/M02 A3008 RMK AO2 SLP142 T01281017,0,13.0,0,16090,0,0,0,
2026-04-30 02:53:00,METAR KMTJ 300253Z AUTO 23005KT 10SM BKN100 13/M04 A3006 RMK AO2 SLP138 T01281039 53012,0,5.0,0,16090,0,0,0,
2026-04-30 01:53:00,METAR KMTJ 300153Z AUTO 30011KT 10SM CLR 14/M04 A3004 RMK AO2 SLP131 T01441044,0,11.0,0,16090,0,0,0,
2026-04-30 00:53:00,METAR KMTJ 300053Z AUTO 31011KT 10SM CLR 16/M04 A3002 RMK AO2 SLP125 T01561044,0,11.0,0,16090,0,0,0,
2026-04-29 23:53:00,METAR KMTJ 292353Z AUTO 32017KT 10SM BKN110 16/M05 A3002 RMK AO2 SLP125 T01611050 10178 20128 55007,0,17.0,0,16090,0,0,0,
2026-04-29 22:53:00,METAR KMTJ 292253Z AUTO 30012G22KT 10SM FEW120 16/M05 A3001 RMK AO2 SLP123 T01611050,0,12.0,1,16090,0,0,0,
2026-04-29 21:53:00,METAR KMTJ 292153Z AUTO 32010G21KT 10SM CLR 17/M05 A3002 RMK AO2 SLP123 T01721050,0,10.0,1,16090,0,0,0,
2026-04-29 20:53:00,METAR KMTJ 292053Z AUTO 31012G19KT 10SM CLR 16/M05 A3004 RMK AO2 SLP131 T01611050 56017,0,12.0,1,16090,0,0,0,
2026-04-29 19:53:00,METAR KMTJ 291953Z AUTO 36014G20KT 9SM SCT110 17/M05 A3005 RMK AO2 SLP132 T01671050,0,14.0,1,14481,0,0,0,
2026-04-29 18:53:00,METAR KMTJ 291853Z AUTO 34007KT 300V360 10SM CLR 14/M04 A3008 RMK AO2 SLP145 T01441039,0,7.0,0,16090,0,0,0,
2026-04-29 17:53:00,METAR KMTJ 291753Z AUTO 10SM CLR 13/M03 A3010 RMK AO2 SLP154 T01281028 10133 20022 58007,0,,0,16090,0,0,0,
2026-04-29 16:53:00,METAR KMTJ 291653Z AUTO 32008KT 290V360 10SM CLR 11/M03 A3011 RMK AO2 SLP158 T01111028,0,8.0,0,16090,0,0,0,
2026-04-29 15:53:00,METAR KMTJ 291553Z AUTO 32005KT 10SM SCT100 09/M03 A3012 RMK AO2 SLP162 T00891033,0,5.0,0,16090,0,0,0,
2026-04-29 14:53:00,METAR KMTJ 291453Z AUTO 34003KT 10SM OVC100 07/M04 A3012 RMK AO2 SLP163 T00721044 51006,0,3.0,0,16090,0,0,0,
2026-04-29 13:53:00,METAR KMTJ 291353Z AUTO 16004KT 10SM SCT120 05/M04 A3012 RMK AO2 SLP161 T00501039,0,4.0,0,16090,0,0,0,
2026-04-29 12:53:00,METAR KMTJ 291253Z AUTO 17005KT 10SM BKN120 03/M03 A3011 RMK AO2 SLP159 T00331033,0,5.0,0,16090,0,0,0,
2026-04-29 11:53:00,METAR KMTJ 291153Z AUTO 14005KT 10SM FEW120 02/M03 A3010 RMK AO2 SLP158 T00221033 10061 20022 55002,0,5.0,0,16090,0,0,0,
2026-04-29 10:53:00,METAR KMTJ 291053Z AUTO 17006KT 10SM CLR 03/M04 A3010 RMK AO2 SLP154 T00281039,0,6.0,0,16090,0,0,0,
2026-04-29 09:53:00,METAR KMTJ 290953Z AUTO 15005KT 10SM CLR 03/M04 A3011 RMK AO2 SLP159 T00331039,0,5.0,0,16090,0,0,0,
2026-04-29 08:53:00,METAR KMTJ 290853Z AUTO 14007KT 10SM CLR 04/M03 A3011 RMK AO2 SLP160 T00391033 58005,0,7.0,0,16090,0,0,0,
2026-04-29 07:53:00,METAR KMTJ 290753Z AUTO 14008KT 10SM CLR 04/M03 A3013 RMK AO2 SLP164 T00441033,0,8.0,0,16090,0,0,0,
2026-04-29 06:53:00,METAR KMTJ 290653Z AUTO 13008KT 10SM CLR 05/M03 A3013 RMK AO2 SLP167 T00501033 401610033,0,8.0,0,16090,0,0,0,
2026-04-29 05:53:00,METAR KMTJ 290553Z AUTO 12006KT 10SM CLR 06/M02 A3013 RMK AO2 SLP166 T00611022 10161 20061 50008,0,6.0,0,16090,0,0,0,
2026-04-29 04:53:00,METAR KMTJ 290453Z AUTO 11007KT 10SM CLR 09/M04 A3013 RMK AO2 SLP163 T00891044,0,7.0,0,16090,0,0,0,
2026-04-29 03:53:00,METAR KMTJ 290353Z AUTO 25006KT 10SM CLR 10/M06 A3012 RMK AO2 SLP158 T01001056,0,6.0,0,16090,0,0,0,
2026-04-29 02:53:00,METAR KMTJ 290253Z AUTO 27004KT 10SM CLR 12/M03 A3010 RMK AO2 SLP152 T01171033 53008,0,4.0,0,16090,0,0,0,
2026-04-29 01:53:00,METAR KMTJ 290153Z AUTO 36004KT 10SM CLR 13/M03 A3008 RMK AO2 SLP146 T01331033,0,4.0,0,16090,0,0,0,
2026-04-29 00:53:00,METAR KMTJ 290053Z AUTO 34009KT 10SM SCT100 15/M04 A3007 RMK AO2 SLP144 T01501044,0,9.0,0,16090,0,0,0,
2026-04-28 23:53:00,METAR KMTJ 282353Z AUTO 35003KT 10SM FEW100 15/M04 A3007 RMK AO2 SLP143 T01501039 10161 20117 55006,0,3.0,0,16090,0,0,0,
2026-04-28 22:53:00,METAR KMTJ 282253Z AUTO 03008KT 10SM FEW100 16/M03 A3006 RMK AO2 SLP136 T01561028,0,8.0,0,16090,0,0,0,
2026-04-28 21:53:00,METAR KMTJ 282153Z AUTO 36007KT 10SM BKN100 14/M03 A3008 RMK AO2 SLP142 T01441033,0,7.0,0,16090,0,0,0,
2026-04-28 20:53:00,METAR KMTJ 282053Z AUTO 35011G16KT 10SM FEW070 BKN090 14/M02 A3009 RMK AO2 SLP150 T01391022 56005,0,11.0,1,16090,0,0,0,
2026-04-28 19:53:00,METAR KMTJ 281953Z AUTO 33008KT 10SM BKN095 14/M02 A3009 RMK AO2 SLP146 T01391022,0,8.0,0,16090,0,0,0,
2026-04-28 18:53:00,METAR KMTJ 281853Z AUTO VRB04KT 10SM FEW070 BKN090 13/M02 A3010 RMK AO2 SLP152 T01281017,0,4.0,0,16090,0,0,0,
2026-04-28 17:53:00,METAR KMTJ 281753Z AUTO 00000KT 10SM FEW050 OVC090 12/M02 A3011 RMK AO2 SLP158 T01171017 10133 20033 50004,0,0.0,0,16090,0,0,0,
2026-04-28 16:53:00,METAR KMTJ 281653Z AUTO VRB05KT 10SM FEW065 BKN090 11/M01 A3012 RMK AO2 SLP159 T01111006,0,5.0,0,16090,0,0,0,
2026-04-28 15:53:00,METAR KMTJ 281553Z AUTO 04005KT 10SM FEW065 SCT095 11/01 A3011 RMK AO2 SLP148 T01110006,0,5.0,0,16090,0,0,0,
2026-04-28 14:53:00,METAR KMTJ 281453Z AUTO 11004KT 10SM CLR 08/03 A3010 RMK AO2 SLP149 T00830028 51015,0,4.0,0,16090,0,0,0,
2026-04-28 13:53:00,METAR KMTJ 281353Z AUTO 14009KT 10SM SCT085 06/03 A3009 RMK AO2 SLP151 T00560028,0,9.0,0,16090,0,0,0,
2026-04-28 12:53:00,METAR KMTJ 281253Z AUTO 15008KT 10SM CLR 04/02 A3007 RMK AO2 SLP142 T00390022,0,8.0,0,16090,0,0,0,
2026-04-28 11:53:00,METAR KMTJ 281153Z AUTO 11005KT 10SM CLR 04/02 A3004 RMK AO2 RAB00E24 SLP133 P0002 60002 70002 T00390022 10083 20039 51019,0,5.0,0,16090,0,0,0,RA
2026-04-28 10:53:00,METAR KMTJ 281053Z AUTO 32011KT 10SM FEW030 BKN055 OVC070 07/02 A3004 RMK AO2 SLP127 T00670017,0,11.0,0,16090,0,0,0,
2026-04-28 09:53:00,METAR KMTJ 280953Z AUTO 31006KT 10SM FEW100 07/01 A3001 RMK AO2 SLP113 T00670006,0,6.0,0,16090,0,0,0,
2026-04-28 08:53:00,METAR KMTJ 280853Z AUTO 19003KT 10SM OVC100 06/M01 A2998 RMK AO2 SLP105 T00611006 51011,0,3.0,0,16090,0,0,0,
2026-04-28 07:53:00,METAR KMTJ 280753Z AUTO 04006KT 10SM BKN110 08/M02 A2996 RMK AO2 SLP098 T00781022,0,6.0,0,16090,0,0,0,
2026-04-28 06:53:00,METAR KMTJ 280653Z AUTO 00000KT 10SM BKN110 07/M01 A2996 RMK AO2 SLP108 T00671011 401670028,0,0.0,0,16090,0,0,0,
2026-04-28 05:53:00,METAR KMTJ 280553Z AUTO 14006KT 10SM BKN120 07/M01 A2994 RMK AO2 SLP098 T00671006 10161 20067 51005,0,6.0,0,16090,0,0,0,
2026-04-28 04:53:00,METAR KMTJ 280453Z AUTO 10004KT 10SM CLR 08/M01 A2993 RMK AO2 SLP094 T00831006,0,4.0,0,16090,0,0,0,
2026-04-28 03:53:00,METAR KMTJ 280353Z AUTO 00000KT 10SM OVC100 12/M03 A2993 RMK AO2 SLP089 T01171028,0,0.0,0,16090,0,0,0,
2026-04-28 02:53:00,METAR KMTJ 280253Z AUTO 00000KT 10SM BKN100 OVC120 12/M02 A2992 RMK AO2 SLP089 T01221017 51012,0,0.0,0,16090,0,0,0,
2026-04-28 01:53:00,METAR KMTJ 280153Z AUTO 28005KT 10SM BKN095 BKN120 13/M04 A2991 RMK AO2 PK WND 22027/0107 SLP088 T01331039,0,5.0,0,16090,0,0,0,
2026-04-28 00:53:00,METAR KMTJ 280053Z AUTO 26011G17KT 10SM BKN110 16/M05 A2989 RMK AO2 SLP079 T01561050,0,11.0,1,16090,0,0,0,
2026-04-27 23:53:00,METAR KMTJ 272353Z AUTO 21017G23KT 10SM BKN110 16/M04 A2988 RMK AO2 PK WND 22026/2335 LTG DSNT N SLP075 60000 T01611044 10167 20111 55004,0,17.0,1,16090,0,0,0,DS
2026-04-27 22:53:00,METAR KMTJ 272253Z AUTO 22010G24KT 10SM OVC110 16/M06 A2988 RMK AO2 SLP074 T01561061,0,10.0,1,16090,0,0,0,
2026-04-27 21:53:00,METAR KMTJ 272153Z AUTO 24011G20KT 10SM BKN100 16/M04 A2988 RMK AO2 SLP075 T01611039,0,11.0,1,16090,0,0,0,
2026-04-27 20:53:00,METAR KMTJ 272053Z AUTO 22011G16KT 10SM SCT100 16/M02 A2989 RMK AO2 SLP078 60000 T01611017 58014,0,11.0,1,16090,0,0,0,
2026-04-27 19:53:00,METAR KMTJ 271953Z AUTO 10SM FEW065 SCT090 14/00 A2991 RMK AO2 SLP089 T01390000,0,,0,16090,0,0,0,
2026-04-27 18:53:00,METAR KMTJ 271853Z AUTO VRB03KT 10SM BKN080 OVC090 11/01 A2994 RMK AO2 RAB43E52 SLP101 P0000 T01110006,0,3.0,0,16090,0,0,0,RA
2026-04-27 17:53:00,METAR KMTJ 271753Z AUTO 33005KT 10SM SCT050 OVC085 12/01 A2994 RMK AO2 SLP101 T01170011 10117 20028 55001,0,5.0,0,16090,0,0,0,
2026-04-27 16:53:00,METAR KMTJ 271653Z AUTO 09005KT 10SM FEW047 SCT065 BKN080 11/01 A2994 RMK AO2 SLP101 T01110006,0,5.0,0,16090,0,0,0,
2026-04-27 15:53:00,METAR KMTJ 271553Z AUTO 12003KT 10SM SCT060 BKN090 10/M01 A2994 RMK AO2 SLP106 T01001006,0,3.0,0,16090,0,0,0,
2026-04-27 14:53:00,METAR KMTJ 271453Z AUTO 10004KT 10SM BKN055 08/02 A2994 RMK AO2 SLP109 T00780022 51014,0,4.0,0,16090,0,0,0,
2026-04-27 13:53:00,METAR KMTJ 271353Z AUTO 13004KT 10SM OVC060 06/02 A2994 RMK AO2 SLP107 T00560017,0,4.0,0,16090,0,0,0,
2026-04-27 12:53:00,METAR KMTJ 271253Z AUTO 00000KT 10SM BKN055 OVC110 04/02 A2992 RMK AO2 SLP104 T00390017,0,0.0,0,16090,0,0,0,
2026-04-27 11:53:00,METAR KMTJ 271153Z AUTO 12003KT 10SM FEW055 OVC110 03/02 A2990 RMK AO2 SLP096 70035 T00330017 10056 20033 53007,0,3.0,0,16090,0,0,0,
2026-04-27 10:53:00,METAR KMTJ 271053Z AUTO 30003KT 10SM OVC110 04/02 A2988 RMK AO2 SLP088 T00440017,0,3.0,0,16090,0,0,0,
2026-04-27 09:53:00,METAR KMTJ 270953Z AUTO 16005KT 10SM OVC110 05/02 A2987 RMK AO2 SLP081 T00500022,0,5.0,0,16090,0,0,0,
2026-04-27 08:53:00,METAR KMTJ 270853Z AUTO 16006KT 10SM OVC110 05/02 A2987 RMK AO2 SLP077 T00500022 50000,0,6.0,0,16090,0,0,0,
2026-04-27 07:53:00,METAR KMTJ 270753Z AUTO 15006KT 10SM OVC110 05/03 A2988 RMK AO2 SLP081 T00500028,0,6.0,0,16090,0,0,0,
2026-04-27 06:53:00,METAR KMTJ 270653Z AUTO 08004KT 10SM OVC110 05/03 A2988 RMK AO2 SLP084 T00500033 401170044,0,4.0,0,16090,0,0,0,
2026-04-27 05:53:00,METAR KMTJ 270553Z AUTO 15004KT 10SM OVC110 06/03 A2987 RMK AO2 SLP082 60011 T00560033 10089 20044 51010,0,4.0,0,16090,0,0,0,
2026-04-27 04:53:00,METAR KMTJ 270453Z AUTO 20003KT 10SM OVC110 05/03 A2986 RMK AO2 SLP080 T00500033,0,3.0,0,16090,0,0,0,
2026-04-27 03:53:00,METAR KMTJ 270353Z AUTO 13005KT 10SM CLR 05/03 A2985 RMK AO2 SLP079 T00500033,0,5.0,0,16090,0,0,0,
2026-04-27 02:53:00,METAR KMTJ 270253Z AUTO 12005KT 10SM FEW110 06/04 A2983 RMK AO2 RAE22 SLP071 P0002 60011 T00610039 51026,0,5.0,0,16090,0,0,0,
2026-04-27 01:53:00,METAR KMTJ 270153Z AUTO 10003KT 10SM -RA BKN042 OVC049 07/05 A2981 RMK AO2 SLP060 P0001 T00720050,0,3.0,0,16090,0,0,0,-RA
2026-04-27 00:53:00,METAR KMTJ 270053Z AUTO 18008KT 10SM -RA SCT041 OVC055 07/04 A2979 RMK AO2 LTG DSNT NE RAB02 TSB06E30 SLP055 P0008 T00720039,0,8.0,0,16090,1,0,0,"-RA,DS,TS"
2026-04-27 00:45:00,SPECI KMTJ 270045Z AUTO 12005KT 10SM -RA FEW040 BKN050 OVC070 07/04 A2978 RMK AO2 LTG DSNT NE RAB02 TSB06E30 P0008 T00670039,0,5.0,0,16090,1,0,0,"-RA,DS,TS"
2026-04-27 00:36:00,SPECI KMTJ 270036Z AUTO 00000KT 10SM VCTS -RA FEW021 BKN050 OVC070 07/03 A2977 RMK AO2 LTG DSNT NE RAB02 TSB06E30 P0008 T00720033,0,0.0,0,16090,1,0,0,"-RA,DS,TS,VC"
2026-04-27 00:28:00,SPECI KMTJ 270028Z AUTO 00000KT 10SM -TSRA FEW018 BKN046 OVC065 07/03 A2978 RMK AO2 LTG DSNT N AND NE RAB02 TSB06 P0008 T00720028,0,0.0,0,16090,1,0,0,"DS,RA"
2026-04-27 00:19:00,SPECI KMTJ 270019Z AUTO VRB05KT 2 1/2SM -TSRA FEW020 BKN037 OVC045 07/03 A2978 RMK AO2 LTG DSNT N AND NE RAB02 TSB06 P0008 T00670033,0,5.0,0,4022,1,0,0,"DS,RA"
2026-04-27 00:12:00,SPECI KMTJ 270012Z AUTO 20009KT 3SM TSRA FEW017 BKN037 OVC050 07/04 A2978 RMK AO2 LTG DSNT N AND SW RAB02 TSB06 PRESRR P0004 T00720039,0,9.0,0,4827,1,0,0,"DS,RA,TS"
2026-04-27 00:03:00,SPECI KMTJ 270003Z AUTO 14015G25KT 8SM VCTS -RA FEW029 BKN048 BKN060 08/04 A2976 RMK AO2 LTG DSNT SW RAB02 P0000 T00780039,0,15.0,1,12872,1,0,0,"-RA,DS,TS,VC"
2026-04-26 23:53:00,METAR KMTJ 262353Z AUTO 14018G27KT 10SM FEW027 SCT055 BKN065 09/04 A2974 RMK AO2 PK WND 14027/2349 LTG DSNT SW RAB13E31 SLP028 P0001 60004 T00890039 10117 20083 53003,0,18.0,1,16090,0,0,0,"DS,RA"
2026-04-26 23:03:00,SPECI KMTJ 262303Z AUTO 12012KT 10SM FEW046 BKN090 OVC110 09/04 A2975 RMK AO2 LTG DSNT N-E T00940039,0,12.0,0,16090,0,0,0,DS
2026-04-26 22:53:00,METAR KMTJ 262253Z AUTO 14009KT 10SM VCTS FEW075 BKN110 09/04 A2974 RMK AO2 PK WND 23030/2225 LTG DSNT ALQDS RAB24E41 TSB34E49 SLP028 P0001 T00940044,0,9.0,0,16090,1,0,0,"DS,RA,TS,VC"
2026-04-26 22:40:00,SPECI KMTJ 262240Z AUTO 17012G20KT 10SM -TSRA FEW038 BKN075 OVC120 10/03 A2975 RMK AO2 PK WND 23030/2225 LTG DSNT N AND SE AND SW RAB24 TSB34 P0001 T01000033,0,12.0,1,16090,1,0,0,"DS,RA"
2026-04-26 21:53:00,METAR KMTJ 262153Z AUTO 05004KT 10SM CLR 11/03 A2970 RMK AO2 PK WND 24031/2105 LTG DSNT W RAB06E23 SLP009 P0000 T01060033,0,4.0,0,16090,0,0,0,"DS,RA"
2026-04-26 20:53:00,METAR KMTJ 262053Z AUTO 18010G18KT 10SM FEW050 SCT065 BKN110 11/04 A2973 RMK AO2 LTG DSNT SW-N RAE26 SLP019 P0002 60002 T01110039 55015,0,10.0,1,16090,0,0,0,DS
2026-04-26 20:45:00,SPECI KMTJ 262045Z AUTO 15010KT 10SM FEW060 FEW075 SCT110 11/04 A2972 RMK AO2 LTG DSNT SW AND W RAE26 P0002 T01060044,0,10.0,0,16090,0,0,0,DS
2026-04-26 20:30:00,SPECI KMTJ 262030Z AUTO 16009KT 10SM VCTS FEW055 SCT065 BKN080 10/03 A2972 RMK AO2 LTG DSNT W RAE26 P0002 T01000033,0,9.0,0,16090,1,0,0,"DS,TS,VC"
2026-04-26 19:53:00,METAR KMTJ 261953Z AUTO VRB05KT 10SM -RA FEW048 BKN065 BKN080 11/03 A2973 RMK AO2 LTG DSNT SW RAB53 SLP019 P0000 T01110028,0,5.0,0,16090,0,0,0,"-RA,DS"
2026-04-26 18:53:00,METAR KMTJ 261853Z AUTO 20008G19KT 10SM FEW039 SCT050 BKN090 11/03 A2975 RMK AO2 RAE11 SLP026 P0000 T01060028,0,8.0,1,16090,0,0,0,
2026-04-26 17:53:00,METAR KMTJ 261753Z AUTO 23010G22KT 9SM -RA BKN035 OVC042 08/04 A2978 RMK AO2 LTG DSNT E RAB01E22B27 SLP042 P0003 60020 T00830039 10094 20067 53004,0,10.0,1,14481,0,0,0,"-RA,DS,RA"
2026-04-26 17:49:00,SPECI KMTJ 261749Z AUTO 24016G23KT 9SM -RA BKN035 OVC044 08/03 A2978 RMK AO2 LTG DSNT E RAB01E22B27 P0003,0,16.0,1,14481,0,0,0,"-RA,DS,RA"
2026-04-26 17:26:00,SPECI KMTJ 261726Z AUTO 21006KT 10SM VCTS FEW029 BKN042 OVC070 08/05 A2978 RMK AO2 LTG DSNT SE RAB01E22 P0002 T00830050,0,6.0,0,16090,1,0,0,"DS,RA,TS,VC"
2026-04-26 16:53:00,METAR KMTJ 261653Z AUTO 29006KT 10SM FEW021 BKN032 BKN050 09/04 A2974 RMK AO2 RAE28 SLP025 P0003 T00890044,0,6.0,0,16090,0,0,0,
2026-04-26 16:27:00,SPECI KMTJ 261627Z AUTO 36007KT 10SM -RA FEW018 BKN031 OVC060 07/06 A2975 RMK AO2 P0003 T00720056,0,7.0,0,16090,0,0,0,-RA
2026-04-26 16:04:00,SPECI KMTJ 261604Z AUTO 33008KT 3SM -RA BR FEW009 BKN024 OVC036 07/06 A2977 RMK AO2 P0002 T00670056,0,8.0,0,4827,0,0,1,"-RA,BR"
2026-04-26 16:02:00,SPECI KMTJ 261602Z AUTO 34007KT 2 1/2SM -RA BR FEW009 SCT025 OVC033 07/06 A2977 RMK AO2 P0002 T00670056,0,7.0,0,4022,0,0,1,"-RA,BR"
2026-04-26 15:59:00,SPECI KMTJ 261559Z AUTO 34003KT 1 3/4SM RA BR FEW010 SCT023 OVC035 07/06 A2977 RMK AO2 P0002 T00670061,0,3.0,0,2816,0,0,1,"BR,RA"
2026-04-26 15:53:00,METAR KMTJ 261553Z AUTO 31008G19KT 1 1/2SM +RA BR FEW010 BKN032 OVC048 07/06 A2977 RMK AO2 RAB42 SLP034 P0005 T00670061,0,8.0,1,2414,0,1,1,"+RA,BR"
2026-04-26 15:51:00,SPECI KMTJ 261551Z AUTO 32010G19KT 1 3/4SM RA BR FEW010 BKN032 OVC043 07/06 A2976 RMK AO2 RAB42 P0005,0,10.0,1,2816,0,0,1,"BR,RA"
2026-04-26 14:53:00,METAR KMTJ 261453Z AUTO 36005KT 10SM SCT034 BKN070 OVC085 07/05 A2976 RMK AO2 RAB22E50 SLP025 P0003 60009 T00720050 58007,0,5.0,0,16090,0,0,0,RA
2026-04-26 13:53:00,METAR KMTJ 261353Z AUTO 07004KT 10SM FEW024 BKN043 OVC060 08/04 A2977 RMK AO2 RAB10E35 SLP028 P0001 T00780044,0,4.0,0,16090,0,0,0,RA
2026-04-26 12:53:00,METAR KMTJ 261253Z AUTO 04005KT 10SM BKN070 OVC095 07/04 A2977 RMK AO2 RAE24 SLP025 P0005 T00720044,0,5.0,0,16090,0,0,0,
2026-04-26 11:53:00,METAR KMTJ 261153Z AUTO 21007KT 10SM -RA FEW045 BKN060 OVC075 09/02 A2978 RMK AO2 RAB53 SLP023 P0000 60000 T00940022 10117 20089 55007,0,7.0,0,16090,0,0,0,-RA
2026-04-26 10:53:00,METAR KMTJ 261053Z AUTO 01005KT 10SM OVC060 09/02 A2977 RMK AO2 SLP020 T00940017,0,5.0,0,16090,0,0,0,
2026-04-26 09:53:00,METAR KMTJ 260953Z AUTO 28006KT 10SM FEW055 BKN075 OVC090 10/02 A2978 RMK AO2 PK WND 25026/0920 RAB20E34 SLP024 P0000 T01000017,0,6.0,0,16090,0,0,0,RA
2026-04-26 08:53:00,METAR KMTJ 260853Z AUTO 20007G22KT 10SM FEW060 BKN080 BKN090 11/M01 A2981 RMK AO2 SLP032 T01111011 58004,0,7.0,1,16090,0,0,0,
2026-04-26 07:53:00,METAR KMTJ 260753Z AUTO 17007KT 10SM FEW055 SCT070 OVC095 11/01 A2982 RMK AO2 SLP038 T01110006,0,7.0,0,16090,0,0,0,
2026-04-26 06:53:00,METAR KMTJ 260653Z AUTO 25012G19KT 10SM BKN070 OVC080 11/02 A2982 RMK AO2 SLP035 T01060017 402060094,0,12.0,1,16090,0,0,0,
2026-04-26 05:53:00,METAR KMTJ 260553Z AUTO 00000KT 10SM OVC095 11/01 A2982 RMK AO2 SLP039 T01110011 10200 20111 51017,0,0.0,0,16090,0,0,0,
2026-04-26 04:53:00,METAR KMTJ 260453Z AUTO 20016G26KT 10SM OVC090 12/02 A2982 RMK AO2 PK WND 21036/0424 SLP040 T01170017,0,16.0,1,16090,0,0,0,
2026-04-26 03:53:00,METAR KMTJ 260353Z AUTO 21024G34KT 10SM SCT120 14/M01 A2979 RMK AO2 PK WND 21034/0352 SLP027 T01391011,0,24.0,1,16090,0,0,0,
2026-04-26 02:53:00,METAR KMTJ 260253Z AUTO 19014G19KT 10SM BKN100 17/M07 A2976 RMK AO2 PK WND 22026/0234 SLP013 T01721072 53002,0,14.0,1,16090,0,0,0,
2026-04-26 01:53:00,METAR KMTJ 260153Z AUTO 24006KT 10SM BKN120 17/M09 A2974 RMK AO2 SLP010 T01721089,0,6.0,0,16090,0,0,0,
2026-04-26 00:53:00,METAR KMTJ 260053Z AUTO 24013G21KT 10SM SCT110 19/M09 A2975 RMK AO2 PK WND 23029/0018 SLP013 T01891094,0,13.0,1,16090,0,0,0,
2026-04-25 23:53:00,METAR KMTJ 252353Z AUTO 24019G29KT 10SM FEW110 20/M08 A2976 RMK AO2 PK WND 24029/2352 SLP011 T02001083 10206 20178 56011,0,19.0,1,16090,0,0,0,
2026-04-25 22:53:00,METAR KMTJ 252253Z AUTO 24013G21KT 10SM BKN110 19/M09 A2976 RMK AO2 PK WND 26027/2231 SLP013 T01941094,0,13.0,1,16090,0,0,0,
2026-04-25 21:53:00,METAR KMTJ 252153Z AUTO 26014G24KT 10SM BKN110 19/M10 A2978 RMK AO2 PK WND 23026/2114 SLP019 T01891100,0,14.0,1,16090,0,0,0,
2026-04-25 20:53:00,METAR KMTJ 252053Z AUTO 23011G22KT 10SM FEW120 19/M11 A2980 RMK AO2 PK WND 26026/2026 SLP030 T01891106 56016,0,11.0,1,16090,0,0,0,
2026-04-25 19:53:00,METAR KMTJ 251953Z AUTO 25014G24KT 10SM FEW110 19/M11 A2981 RMK AO2 PK WND 26026/1930 SLP032 T01891111,0,14.0,1,16090,0,0,0,
2026-04-25 18:53:00,METAR KMTJ 251853Z AUTO 24014G23KT 10SM SCT120 19/M11 A2983 RMK AO2 SLP040 T01891111,0,14.0,1,16090,0,0,0,
2026-04-25 17:53:00,METAR KMTJ 251753Z AUTO 27015G28KT 10SM CLR 18/M11 A2985 RMK AO2 PK WND 27028/1748 SLP049 T01781111 10183 20100 58001,0,15.0,1,16090,0,0,0,
2026-04-25 16:53:00,METAR KMTJ 251653Z AUTO 25013G19KT 10SM OVC120 16/M11 A2986 RMK AO2 SLP053 T01611111,0,13.0,1,16090,0,0,0,
2026-04-25 15:53:00,METAR KMTJ 251553Z AUTO 26012KT 10SM CLR 16/M12 A2987 RMK AO2 SLP054 T01611122,0,12.0,0,16090,0,0,0,
2026-04-25 14:53:00,METAR KMTJ 251453Z AUTO 22010G17KT 10SM FEW120 14/M11 A2986 RMK AO2 SLP050 T01441111 53003,0,10.0,1,16090,0,0,0,
2026-04-25 13:53:00,METAR KMTJ 251353Z AUTO 16007KT 10SM FEW120 12/M06 A2985 RMK AO2 SLP050 T01221061,0,7.0,0,16090,0,0,0,
2026-04-25 12:53:00,METAR KMTJ 251253Z AUTO 17007KT 10SM BKN110 11/M08 A2984 RMK AO2 SLP047 T01061083,0,7.0,0,16090,0,0,0,
2026-04-25 11:53:00,METAR KMTJ 251153Z AUTO 19009KT 10SM CLR 12/M09 A2985 RMK AO2 SLP046 T01171094 10133 20094 51010,0,9.0,0,16090,0,0,0,
2026-04-25 10:53:00,METAR KMTJ 251053Z AUTO 21008KT 10SM SCT120 12/M11 A2985 RMK AO2 SLP042 T01221111,0,8.0,0,16090,0,0,0,
2026-04-25 09:53:00,METAR KMTJ 250953Z AUTO 19008KT 10SM CLR 12/M12 A2982 RMK AO2 SLP035 T01171122,0,8.0,0,16090,0,0,0,
2026-04-25 08:53:00,METAR KMTJ 250853Z AUTO 12005KT 10SM CLR 09/M09 A2981 RMK AO2 SLP036 T00941094 51001,0,5.0,0,16090,0,0,0,
2026-04-25 07:53:00,METAR KMTJ 250753Z AUTO 16010KT 10SM CLR 11/M09 A2981 RMK AO2 SLP032 T01061094,0,10.0,0,16090,0,0,0,
2026-04-25 06:53:00,METAR KMTJ 250653Z AUTO 16008KT 10SM CLR 11/M09 A2981 RMK AO2 SLP035 T01061094 402060006,0,8.0,0,16090,0,0,0,
2026-04-25 05:53:00,METAR KMTJ 250553Z AUTO 16010KT 10SM CLR 12/M11 A2981 RMK AO2 SLP037 T01171106 10194 20117 50001,0,10.0,0,16090,0,0,0,
2026-04-25 04:53:00,METAR KMTJ 250453Z AUTO 19004KT 10SM CLR 13/M11 A2982 RMK AO2 SLP040 T01281111,0,4.0,0,16090,0,0,0,
2026-04-25 03:53:00,METAR KMTJ 250353Z AUTO VRB03KT 10SM CLR 13/M13 A2982 RMK AO2 SLP045 T01281128,0,3.0,0,16090,0,0,0,
2026-04-25 02:53:00,METAR KMTJ 250253Z AUTO 22006KT 10SM CLR 16/M14 A2981 RMK AO2 SLP041 T01561139 53007,0,6.0,0,16090,0,0,0,
2026-04-25 01:53:00,METAR KMTJ 250153Z AUTO 22007KT 10SM CLR 17/M14 A2979 RMK AO2 SLP038 T01671144,0,7.0,0,16090,0,0,0,
2026-04-25 00:53:00,METAR KMTJ 250053Z AUTO 24014G21KT 10SM CLR 18/M15 A2979 RMK AO2 PK WND 24030/0038 SLP045 T01831150,0,14.0,1,16090,0,0,0,
2026-04-24 23:53:00,METAR KMTJ 242353Z AUTO 25013G26KT 10SM CLR 18/M17 A2978 RMK AO2 PK WND 24029/2313 SLP041 T01831172 10206 20161 56006,0,13.0,1,16090,0,0,0,
2026-04-24 22:53:00,METAR KMTJ 242253Z AUTO 23013G26KT 10SM CLR 20/M16 A2978 RMK AO2 PK WND 26026/2236 SLP035 T02001161,0,13.0,1,16090,0,0,0,
2026-04-24 21:53:00,METAR KMTJ 242153Z AUTO 24019G26KT 5SM HZ CLR 19/M13 A2979 RMK AO2 PK WND 24027/2118 SLP040 T01941133,0,19.0,1,8045,0,0,0,
2026-04-24 20:53:00,METAR KMTJ 242053Z AUTO 24005KT 10SM CLR 19/M12 A2980 RMK AO2 PK WND 25029/2000 WSHFT 1947 SLP042 T01941117 56029,0,5.0,0,16090,0,0,0,
2026-04-24 20:14:00,SPECI KMTJ 242014Z AUTO 26009G21KT 10SM FEW002 FEW120 21/M13 A2982 RMK AO2 PK WND 25029/2000 WSHFT 1947 T02061128,0,9.0,1,16090,0,0,0,
2026-04-24 20:07:00,SPECI KMTJ 242007Z AUTO 24011G29KT 200V280 9SM FEW120 20/M12 A2982 RMK AO2 PK WND 25029/2000 WSHFT 1947 T02001122,0,11.0,1,14481,0,0,0,
2026-04-24 19:53:00,METAR KMTJ 241953Z AUTO 25011G22KT 10SM SCT120 20/M13 A2983 RMK AO2 SLP049 T02001128,0,11.0,1,16090,0,0,0,
2026-04-24 18:53:00,METAR KMTJ 241853Z AUTO 31009G21KT 10SM CLR 18/M11 A2987 RMK AO2 SLP064 T01831111,0,9.0,1,16090,0,0,0,
2026-04-24 17:53:00,METAR KMTJ 241753Z AUTO VRB04KT 10SM CLR 16/M11 A2990 RMK AO2 SLP081 T01611111 10167 20006 56018,0,4.0,0,16090,0,0,0,
2026-04-24 16:53:00,METAR KMTJ 241653Z AUTO VRB03KT 10SM CLR 14/M09 A2992 RMK AO2 SLP087 T01441094,0,3.0,0,16090,0,0,0,
2026-04-24 15:53:00,METAR KMTJ 241553Z AUTO 24003KT 10SM CLR 12/M09 A2995 RMK AO2 SLP096 T01171089,0,3.0,0,16090,0,0,0,
2026-04-24 14:53:00,METAR KMTJ 241453Z AUTO 00000KT 10SM CLR 08/M09 A2997 RMK AO2 SLP108 T00831094 58000,0,0.0,0,16090,0,0,0,
2026-04-24 13:53:00,METAR KMTJ 241353Z AUTO 14006KT 10SM CLR 06/M09 A2997 RMK AO2 SLP110 T00611094,0,6.0,0,16090,0,0,0,
2026-04-24 12:53:00,METAR KMTJ 241253Z AUTO 18004KT 10SM CLR 01/M09 A2997 RMK AO2 SLP113 T00111089,0,4.0,0,16090,0,0,0,
2026-04-24 11:53:00,METAR KMTJ 241153Z AUTO 15008KT 10SM CLR 02/M10 A2997 RMK AO2 SLP110 7//// T00171100 10050 20017 55004,0,8.0,0,16090,0,0,0,
2026-04-24 10:53:00,METAR KMTJ 241053Z AUTO 13009KT 10SM CLR 03/M10 A2997 RMK AO2 SLP107 T00281100,0,9.0,0,16090,0,0,0,
2026-04-24 09:53:00,METAR KMTJ 240953Z AUTO 13008KT 10SM CLR 03/M10 A2997 RMK AO2 SLP110 T00281100,0,8.0,0,16090,0,0,0,
2026-04-24 08:53:00,METAR KMTJ 240853Z AUTO 13009KT 10SM CLR 03/M11 A2998 RMK AO2 SLP113 T00331106 58002,0,9.0,0,16090,0,0,0,
2026-04-24 07:53:00,METAR KMTJ 240753Z AUTO 12007KT 10SM CLR 04/M11 A2999 RMK AO2 SLP117 T00391106,0,7.0,0,16090,0,0,0,
2026-04-24 06:53:00,METAR KMTJ 240653Z AUTO 12008KT 10SM CLR 04/M11 A3000 RMK AO2 SLP118 T00441106 401610022,0,8.0,0,16090,0,0,0,
2026-04-24 05:53:00,METAR KMTJ 240553Z AUTO 14008KT 10SM CLR 04/M10 A2999 RMK AO2 SLP118 T00441100 10156 20044 50011,0,8.0,0,16090,0,0,0,
2026-04-24 04:53:00,METAR KMTJ 240453Z AUTO 15009KT 10SM CLR 07/M11 A2999 RMK AO2 SLP119 T00671106,0,9.0,0,16090,0,0,0,
2026-04-24 03:53:00,METAR KMTJ 240353Z AUTO 31003KT 10SM CLR 09/M10 A2998 RMK AO2 SLP112 T00891100,0,3.0,0,16090,0,0,0,
2026-04-24 02:53:00,METAR KMTJ 240253Z AUTO 36007KT 10SM CLR 11/M10 A2995 RMK AO2 SLP101 T01061100 53011,0,7.0,0,16090,0,0,0,
2026-04-24 01:53:00,METAR KMTJ 240153Z AUTO 34007KT 10SM CLR 12/M11 A2993 RMK AO2 SLP095 T01221106,0,7.0,0,16090,0,0,0,
2026-04-24 00:53:00,METAR KMTJ 240053Z AUTO 36009KT 10SM CLR 15/M13 A2992 RMK AO2 SLP091 T01501128,0,9.0,0,16090,0,0,0,
2026-04-23 23:53:00,METAR KMTJ 232353Z AUTO 35009KT 10SM SCT110 16/M13 A2991 RMK AO2 SLP091 T01561128 10161 20122 55002,0,9.0,0,16090,0,0,0,
2026-04-23 22:53:00,METAR KMTJ 232253Z AUTO 35013G20KT 10SM SCT110 16/M12 A2990 RMK AO2 SLP086 T01561117,0,13.0,1,16090,0,0,0,
2026-04-23 21:53:00,METAR KMTJ 232153Z AUTO 31012G18KT 10SM CLR 16/M11 A2991 RMK AO2 SLP085 T01611111,0,12.0,1,16090,0,0,0,
2026-04-23 20:53:00,METAR KMTJ 232053Z AUTO 33008G16KT 280V030 9SM CLR 16/M11 A2992 RMK AO2 SLP087 T01561111 56016,0,8.0,1,14481,0,0,0,
2026-04-23 19:53:00,METAR KMTJ 231953Z AUTO 10SM CLR 15/M11 A2993 RMK AO2 SLP087 T01501106,0,,0,16090,0,0,0,
2026-04-23 18:53:00,METAR KMTJ 231853Z AUTO 35010G15KT 10SM CLR 14/M11 A2996 RMK AO2 SLP098 T01391111,0,10.0,1,16090,0,0,0,
2026-04-23 17:53:00,METAR KMTJ 231753Z AUTO 34008KT 320V020 10SM CLR 13/M11 A2998 RMK AO2 SLP103 6//// T01281106 10128 20022 50000,0,8.0,0,16090,0,0,0,
2026-04-23 16:53:00,METAR KMTJ 231653Z AUTO VRB06KT 10SM CLR 11/M11 A2998 RMK AO2 SLP106 T01111106,0,6.0,0,16090,0,0,0,
2026-04-23 15:53:00,METAR KMTJ 231553Z AUTO 32011G19KT 10SM CLR 10/M11 A2998 RMK AO2 SLP102 T01001106,0,11.0,1,16090,0,0,0,
2026-04-23 14:53:00,METAR KMTJ 231453Z AUTO 30009G16KT 10SM CLR 09/M08 A2998 RMK AO2 SLP097 T00941083 53003,0,9.0,1,16090,0,0,0,
2026-04-23 13:53:00,METAR KMTJ 231353Z AUTO 13009KT 10SM SCT100 07/M08 A2995 RMK AO2 SLP091 T00671078,0,9.0,0,16090,0,0,0,
2026-04-23 12:53:00,METAR KMTJ 231253Z AUTO 14008KT 10SM OVC100 03/M07 A2997 RMK AO2 SLP100 T00331072,0,8.0,0,16090,0,0,0,
2026-04-23 11:53:00,METAR KMTJ 231153Z AUTO 14008KT 10SM CLR 02/M07 A2997 RMK AO2 SLP099 T00221072 10100 20022 50006,0,8.0,0,16090,0,0,0,
2026-04-23 10:53:00,METAR KMTJ 231053Z AUTO 14008KT 10SM CLR 03/M08 A2997 RMK AO2 SLP095 T00281078,0,8.0,0,16090,0,0,0,
2026-04-23 09:53:00,METAR KMTJ 230953Z AUTO 16005KT 10SM CLR 03/M08 A2996 RMK AO2 SLP093 T00331078,0,5.0,0,16090,0,0,0,
2026-04-23 08:53:00,METAR KMTJ 230853Z AUTO 17006KT 10SM CLR 05/M07 A2995 RMK AO2 SLP086 T00501072 51016,0,6.0,0,16090,0,0,0,
2026-04-23 07:53:00,METAR KMTJ 230753Z AUTO 33007KT 10SM CLR 08/M08 A2994 RMK AO2 SLP081 T00831083,0,7.0,0,16090,0,0,0,
2026-04-23 06:53:00,METAR KMTJ 230653Z AUTO 34005KT 10SM CLR 08/M07 A2992 RMK AO2 SLP073 T00831072 402280083,0,5.0,0,16090,0,0,0,
2026-04-23 05:53:00,METAR KMTJ 230553Z AUTO 32007KT 10SM CLR 10/M07 A2989 RMK AO2 SLP058 T01001072 10206 20100 51013,0,7.0,0,16090,0,0,0,
2026-04-23 04:53:00,METAR KMTJ 230453Z AUTO 34009KT 10SM CLR 11/M08 A2988 RMK AO2 WSHFT 0429 SLP052 T01111078,0,9.0,0,16090,0,0,0,
2026-04-23 04:49:00,SPECI KMTJ 230449Z AUTO 34009KT 10SM CLR 12/M08 A2987 RMK AO2 WSHFT 0429,0,9.0,0,16090,0,0,0,
2026-04-23 03:53:00,METAR KMTJ 230353Z AUTO 30003KT 10SM CLR 14/M14 A2984 RMK AO2 SLP036 T01391144,0,3.0,0,16090,0,0,0,
2026-04-23 02:53:00,METAR KMTJ 230253Z AUTO 26006KT 10SM CLR 17/M13 A2982 RMK AO2 SLP029 T01671133 55002,0,6.0,0,16090,0,0,0,
2026-04-23 01:53:00,METAR KMTJ 230153Z AUTO 23009G19KT 10SM CLR 19/M14 A2981 RMK AO2 PK WND 23027/0132 SLP024 T01891144,0,9.0,1,16090,0,0,0,
2026-04-23 00:53:00,METAR KMTJ 230053Z AUTO 23009KT 10SM CLR 20/M13 A2982 RMK AO2 PK WND 25032/0002 SLP027 T02001128,0,9.0,0,16090,0,0,0,
2026-04-22 23:53:00,METAR KMTJ 222353Z AUTO 24022G37KT 10SM CLR 21/M13 A2983 RMK AO2 PK WND 27037/2344 SLP028 T02061128 10228 20200 55014,0,22.0,1,16090,0,0,0,
2026-04-22 22:53:00,METAR KMTJ 222253Z AUTO 24019G35KT 9SM CLR 22/M13 A2982 RMK AO2 PK WND 21035/2203 SLP024 T02221133,0,19.0,1,14481,0,0,0,
2026-04-22 21:53:00,METAR KMTJ 222153Z AUTO 22021G32KT 9SM CLR 22/M13 A2985 RMK AO2 PK WND 23036/2133 SLP032 T02221133,0,21.0,1,14481,0,0,0,
2026-04-22 21:08:00,SPECI KMTJ 222108Z AUTO 23016G32KT 5SM HZ FEW001 22/M14 A2987 RMK AO2 PK WND 23032/2102 T02221139,0,16.0,1,8045,0,0,0,
2026-04-22 20:53:00,METAR KMTJ 222053Z AUTO 23019G32KT 6SM HZ CLR 22/M14 A2988 RMK AO2 PK WND 22032/1958 SLP040 T02171144 56019,0,19.0,1,9654,0,0,0,
2026-04-22 20:23:00,SPECI KMTJ 222023Z AUTO 24016G29KT 6SM HZ FEW003 21/M14 A2989 RMK AO2 PK WND 22032/1958 T02111144,0,16.0,1,9654,0,0,0,
2026-04-22 19:53:00,METAR KMTJ 221953Z AUTO 20020G30KT 7SM CLR 21/M16 A2990 RMK AO2 PK WND 20031/1923 SLP051 T02061161,0,20.0,1,11263,0,0,0,
2026-04-22 19:01:00,SPECI KMTJ 221901Z AUTO 22012G20KT 7SM FEW002 21/M16 A2992 RMK AO2 T02111156,0,12.0,1,11263,0,0,0,
2026-04-22 18:53:00,METAR KMTJ 221853Z AUTO 23013G26KT 9SM CLR 21/M16 A2992 RMK AO2 PK WND 18036/1831 SLP064 T02111156,0,13.0,1,14481,0,0,0,
2026-04-22 17:53:00,METAR KMTJ 221753Z AUTO 20017G32KT 10SM CLR 21/M15 A2994 RMK AO2 PK WND 19034/1739 SLP070 T02111150 10217 20150 56015,0,17.0,1,16090,0,0,0,
2026-04-22 17:35:00,SPECI KMTJ 221735Z AUTO 19024G31KT 9SM FEW001 22/M14 A2994 RMK AO2 PK WND 18031/1734 T02171139,0,24.0,1,14481,0,0,0,
2026-04-22 16:53:00,METAR KMTJ 221653Z AUTO 20014G27KT 10SM CLR 21/M12 A2996 RMK AO2 PK WND 18031/1609 SLP078 T02061122,0,14.0,1,16090,0,0,0,
2026-04-22 15:53:00,METAR KMTJ 221553Z AUTO 20017G30KT 10SM CLR 20/M12 A2997 RMK AO2 PK WND 19030/1552 SLP079 T02001117,0,17.0,1,16090,0,0,0,
2026-04-22 14:53:00,METAR KMTJ 221453Z AUTO VRB04KT 10SM CLR 18/M09 A3000 RMK AO2 SLP088 T01781089 58002,0,4.0,0,16090,0,0,0,
2026-04-22 13:53:00,METAR KMTJ 221353Z AUTO 18008G17KT 10SM CLR 16/M07 A3000 RMK AO2 SLP089 T01611067,0,8.0,1,16090,0,0,0,
2026-04-22 12:53:00,METAR KMTJ 221253Z AUTO 18007G17KT 10SM CLR 16/M07 A3001 RMK AO2 PK WND 22027/1156 SLP087 T01561072,0,7.0,1,16090,0,0,0,
2026-04-22 11:53:00,METAR KMTJ 221153Z AUTO 20018G33KT 10SM CLR 16/M08 A3000 RMK AO2 PK WND 21041/1136 SLP083 T01611083 10178 20128 58001,0,18.0,1,16090,0,0,0,
2026-04-22 10:53:00,METAR KMTJ 221053Z AUTO 20014G22KT 10SM CLR 16/M09 A3002 RMK AO2 SLP088 T01561094,0,14.0,1,16090,0,0,0,
2026-04-22 09:53:00,METAR KMTJ 220953Z AUTO 19010G24KT 10SM CLR 16/M09 A3001 RMK AO2 SLP089 T01611094,0,10.0,1,16090,0,0,0,
2026-04-22 08:53:00,METAR KMTJ 220853Z AUTO 17006KT 10SM CLR 17/M08 A3001 RMK AO2 SLP084 T01671078 51007,0,6.0,0,16090,0,0,0,
2026-04-22 07:53:00,METAR KMTJ 220753Z AUTO 18007G18KT 10SM CLR 16/M07 A3001 RMK AO2 SLP084 T01611067,0,7.0,1,16090,0,0,0,
2026-04-22 06:53:00,METAR KMTJ 220653Z AUTO 16009KT 10SM BKN110 13/M02 A2999 RMK AO2 SLP084 T01331022 402440056,0,9.0,0,16090,0,0,0,
2026-04-22 05:53:00,METAR KMTJ 220553Z AUTO 13006KT 10SM SCT120 14/M02 A2998 RMK AO2 SLP078 T01441017 10233 20133 58000,0,6.0,0,16090,0,0,0,
2026-04-22 04:53:00,METAR KMTJ 220453Z AUTO 13009KT 10SM CLR 14/M01 A2998 RMK AO2 SLP083 T01391006,0,9.0,0,16090,0,0,0,
2026-04-22 03:53:00,METAR KMTJ 220353Z AUTO 12008KT 10SM CLR 16/M01 A2999 RMK AO2 SLP091 T01561011,0,8.0,0,16090,0,0,0,
2026-04-22 02:53:00,METAR KMTJ 220253Z AUTO 12005KT 10SM CLR 18/00 A2998 RMK AO2 SLP088 T01780000 55002,0,5.0,0,16090,0,0,0,
2026-04-22 01:53:00,METAR KMTJ 220153Z AUTO 11011KT 10SM CLR 19/01 A2998 RMK AO2 WSHFT 0117 SLP089 T01940011,0,11.0,0,16090,0,0,0,
2026-04-22 01:37:00,SPECI KMTJ 220137Z AUTO 11011KT 10SM FEW120 20/01 A2998 RMK AO2 WSHFT 0117 T02000011,0,11.0,0,16090,0,0,0,
2026-04-22 00:53:00,METAR KMTJ 220053Z AUTO VRB05KT 10SM BKN110 23/M03 A2999 RMK AO2 SLP096 T02281033,0,5.0,0,16090,0,0,0,
2026-04-21 23:53:00,METAR KMTJ 212353Z AUTO 25006KT 10SM FEW120 23/M03 A2999 RMK AO2 SLP096 T02331033 10244 20228 58015,0,6.0,0,16090,0,0,0,
2026-04-21 22:53:00,METAR KMTJ 212253Z AUTO 25007G16KT 10SM FEW120 24/M03 A3001 RMK AO2 SLP097 T02391028,0,7.0,1,16090,0,0,0,
2026-04-21 21:53:00,METAR KMTJ 212153Z AUTO 11009KT 10SM OVC100 23/M01 A3003 RMK AO2 SLP107 T02281011,0,9.0,0,16090,0,0,0,
2026-04-21 20:53:00,METAR KMTJ 212053Z AUTO 10013G18KT 10SM OVC110 23/M01 A3004 RMK AO2 SLP111 T02331011 56019,0,13.0,1,16090,0,0,0,
2026-04-21 19:53:00,METAR KMTJ 211953Z AUTO VRB04KT 10SM BKN110 23/M03 A3005 RMK AO2 SLP110 T02331028,0,4.0,0,16090,0,0,0,
2026-04-21 18:53:00,METAR KMTJ 211853Z AUTO VRB03KT 10SM BKN110 24/M03 A3008 RMK AO2 SLP121 T02391028,0,3.0,0,16090,0,0,0,
2026-04-21 17:53:00,METAR KMTJ 211753Z AUTO 10SM CLR 24/M03 A3011 RMK AO2 SLP128 T02391033 10239 20056 58012,0,,0,16090,0,0,0,
2026-04-21 16:53:00,METAR KMTJ 211653Z AUTO 34006KT 10SM CLR 21/M02 A3013 RMK AO2 SLP139 T02111017,0,6.0,0,16090,0,0,0,
2026-04-21 15:53:00,METAR KMTJ 211553Z AUTO 30008KT 10SM CLR 18/M02 A3014 RMK AO2 SLP146 T01781017,0,8.0,0,16090,0,0,0,
2026-04-21 14:53:00,METAR KMTJ 211453Z AUTO 02005KT 10SM CLR 16/M03 A3015 RMK AO2 SLP147 T01561033 53001,0,5.0,0,16090,0,0,0,
2026-04-21 13:53:00,METAR KMTJ 211353Z AUTO 13005KT 10SM CLR 12/M03 A3015 RMK AO2 SLP148 T01171033,0,5.0,0,16090,0,0,0,
2026-04-21 12:53:00,METAR KMTJ 211253Z AUTO 16007KT 10SM CLR 07/M03 A3015 RMK AO2 SLP151 T00671033,0,7.0,0,16090,0,0,0,
2026-04-21 11:53:00,METAR KMTJ 211153Z AUTO 11005KT 10SM CLR 06/M04 A3015 RMK AO2 SLP152 T00611039 10111 20061 53005,0,5.0,0,16090,0,0,0,
2026-04-21 10:53:00,METAR KMTJ 211053Z AUTO 12006KT 10SM CLR 09/M04 A3014 RMK AO2 SLP142 T00891039,0,6.0,0,16090,0,0,0,
2026-04-21 09:53:00,METAR KMTJ 210953Z AUTO 14007KT 10SM CLR 09/M04 A3013 RMK AO2 SLP137 T00941044,0,7.0,0,16090,0,0,0,
2026-04-21 08:53:00,METAR KMTJ 210853Z AUTO 13007KT 10SM CLR 09/M04 A3013 RMK AO2 SLP139 T00891039 50002,0,7.0,0,16090,0,0,0,
2026-04-21 07:53:00,METAR KMTJ 210753Z AUTO 13011KT 10SM CLR 11/M04 A3013 RMK AO2 SLP138 T01061044,0,11.0,0,16090,0,0,0,
2026-04-21 06:53:00,METAR KMTJ 210653Z AUTO 13009KT 10SM CLR 11/M04 A3013 RMK AO2 SLP140 T01061039 402440033,0,9.0,0,16090,0,0,0,
2026-04-21 05:53:00,METAR KMTJ 210553Z AUTO 15008KT 10SM CLR 11/M04 A3012 RMK AO2 SLP140 T01111039 10239 20111 51013,0,8.0,0,16090,0,0,0,
2026-04-21 04:53:00,METAR KMTJ 210453Z AUTO 13009KT 10SM CLR 12/M04 A3012 RMK AO2 SLP142 T01171039,0,9.0,0,16090,0,0,0,
2026-04-21 03:53:00,METAR KMTJ 210353Z AUTO 15008KT 10SM CLR 14/M04 A3011 RMK AO2 SLP141 T01391044,0,8.0,0,16090,0,0,0,
2026-04-21 02:53:00,METAR KMTJ 210253Z AUTO 00000KT 10SM CLR 17/M05 A3008 RMK AO2 SLP128 T01721050 53004,0,0.0,0,16090,0,0,0,
2026-04-21 01:53:00,METAR KMTJ 210153Z AUTO 32004KT 10SM CLR 20/M06 A3006 RMK AO2 SLP124 T02001061,0,4.0,0,16090,0,0,0,
2026-04-21 00:53:00,METAR KMTJ 210053Z AUTO 33007KT 10SM CLR 23/M07 A3006 RMK AO2 SLP126 T02281072,0,7.0,0,16090,0,0,0,
2026-04-20 23:53:00,METAR KMTJ 202353Z AUTO 32004KT 10SM CLR 24/M08 A3006 RMK AO2 SLP125 T02391078 10244 20206 56013,0,4.0,0,16090,0,0,0,
2026-04-20 22:53:00,METAR KMTJ 202253Z AUTO 34010KT 10SM CLR 24/M07 A3007 RMK AO2 SLP125 T02441072,0,10.0,0,16090,0,0,0,
2026-04-20 21:53:00,METAR KMTJ 202153Z AUTO 31005KT 10SM CLR 24/M08 A3008 RMK AO2 SLP130 T02441078,0,5.0,0,16090,0,0,0,
2026-04-20 20:53:00,METAR KMTJ 202053Z AUTO 02007KT 10SM CLR 24/M07 A3011 RMK AO2 SLP135 T02391072 56022,0,7.0,0,16090,0,0,0,
2026-04-20 19:53:00,METAR KMTJ 201953Z AUTO 10SM CLR 23/M07 A3013 RMK AO2 SLP142 T02331072,0,,0,16090,0,0,0,
2026-04-20 18:53:00,METAR KMTJ 201853Z AUTO 32009KT 10SM CLR 23/M08 A3016 RMK AO2 SLP152 T02281078,0,9.0,0,16090,0,0,0,
2026-04-20 17:53:00,METAR KMTJ 201753Z AUTO 35005KT 10SM CLR 20/M07 A3019 RMK AO2 SLP165 T02001067 10200 20033 58006,0,5.0,0,16090,0,0,0,
2026-04-20 16:53:00,METAR KMTJ 201653Z AUTO 33004KT 10SM CLR 17/M06 A3020 RMK AO2 SLP176 T01671061,0,4.0,0,16090,0,0,0,
2026-04-20 15:53:00,METAR KMTJ 201553Z AUTO 00000KT 10SM CLR 14/M08 A3020 RMK AO2 SLP178 T01391078,0,0.0,0,16090,0,0,0,
2026-04-20 14:53:00,METAR KMTJ 201453Z AUTO 00000KT 10SM CLR 11/M07 A3021 RMK AO2 SLP184 T01111072 50005,0,0.0,0,16090,0,0,0,
2026-04-20 13:53:00,METAR KMTJ 201353Z AUTO 18006KT 10SM CLR 07/M07 A3021 RMK AO2 SLP185 T00721067,0,6.0,0,16090,0,0,0,
2026-04-20 12:53:00,METAR KMTJ 201253Z AUTO 16006KT 10SM CLR 03/M06 A3020 RMK AO2 SLP180 T00331061,0,6.0,0,16090,0,0,0,
2026-04-20 11:53:00,METAR KMTJ 201153Z AUTO 16007KT 10SM CLR 04/M07 A3019 RMK AO2 SLP173 T00391067 10094 20033 51003,0,7.0,0,16090,0,0,0,
2026-04-20 10:53:00,METAR KMTJ 201053Z AUTO 00000KT 10SM CLR 04/M07 A3019 RMK AO2 SLP173 T00441072,0,0.0,0,16090,0,0,0,
2026-04-20 09:53:00,METAR KMTJ 200953Z AUTO 17006KT 10SM CLR 04/M07 A3018 RMK AO2 SLP171 T00441067,0,6.0,0,16090,0,0,0,
2026-04-20 08:53:00,METAR KMTJ 200853Z AUTO 15006KT 10SM CLR 07/M08 A3018 RMK AO2 SLP168 T00671083 55002,0,6.0,0,16090,0,0,0,
2026-04-20 07:53:00,METAR KMTJ 200753Z AUTO 13009KT 10SM CLR 08/M08 A3018 RMK AO2 SLP166 T00781083,0,9.0,0,16090,0,0,0,
2026-04-20 06:53:00,METAR KMTJ 200653Z AUTO 15008KT 10SM CLR 08/M08 A3018 RMK AO2 SLP171 T00781078 402171006,0,8.0,0,16090,0,0,0,
2026-04-20 05:53:00,METAR KMTJ 200553Z AUTO 13010KT 10SM CLR 09/M08 A3018 RMK AO2 SLP174 T00941078 10211 20089 51009,0,10.0,0,16090,0,0,0,
2026-04-20 04:53:00,METAR KMTJ 200453Z AUTO 15009KT 10SM CLR 09/M07 A3019 RMK AO2 SLP179 T00941067,0,9.0,0,16090,0,0,0,
2026-04-20 03:53:00,METAR KMTJ 200353Z AUTO 14010KT 10SM CLR 12/M08 A3018 RMK AO2 SLP176 T01171078,0,10.0,0,16090,0,0,0,
2026-04-20 02:53:00,METAR KMTJ 200253Z AUTO 11003KT 10SM CLR 12/M09 A3015 RMK AO2 SLP174 T01221089 53011,0,3.0,0,16090,0,0,0,
2026-04-20 01:53:00,METAR KMTJ 200153Z AUTO 29007KT 10SM CLR 16/M10 A3013 RMK AO2 SLP165 T01611100,0,7.0,0,16090,0,0,0,
2026-04-20 00:53:00,METAR KMTJ 200053Z AUTO 33008KT 10SM CLR 19/M13 A3012 RMK AO2 SLP160 T01941128,0,8.0,0,16090,0,0,0,
2026-04-19 23:53:00,METAR KMTJ 192353Z AUTO 33010KT 10SM CLR 21/M12 A3012 RMK AO2 SLP154 T02111117 10217 20156 56012,0,10.0,0,16090,0,0,0,
2026-04-19 22:53:00,METAR KMTJ 192253Z AUTO VRB05KT 10SM CLR 21/M14 A3012 RMK AO2 SLP153 T02111144,0,5.0,0,16090,0,0,0,
2026-04-19 21:53:00,METAR KMTJ 192153Z AUTO VRB04KT 10SM CLR 21/M15 A3014 RMK AO2 SLP159 T02061150,0,4.0,0,16090,0,0,0,
2026-04-19 20:53:00,METAR KMTJ 192053Z AUTO 00000KT 10SM CLR 20/M16 A3016 RMK AO2 SLP165 T02001156 56022,0,0.0,0,16090,0,0,0,
2026-04-19 19:53:00,METAR KMTJ 191953Z AUTO 34008G15KT 10SM CLR 19/M15 A3018 RMK AO2 SLP174 T01941150,0,8.0,1,16090,0,0,0,
2026-04-19 18:53:00,METAR KMTJ 191853Z AUTO 33007KT 10SM CLR 18/M13 A3021 RMK AO2 SLP186 T01781133,0,7.0,0,16090,0,0,0,
2026-04-19 17:53:00,METAR KMTJ 191753Z AUTO 34007KT 10SM CLR 15/M08 A3024 RMK AO2 SLP202 T01501083 10156 21006 58007,0,7.0,0,16090,0,0,0,
2026-04-19 16:53:00,METAR KMTJ 191653Z AUTO VRB03KT 10SM CLR 13/M08 A3025 RMK AO2 SLP209 T01281083,0,3.0,0,16090,0,0,0,
2026-04-19 15:53:00,METAR KMTJ 191553Z AUTO 00000KT 10SM CLR 10/M11 A3026 RMK AO2 SLP218 T01001106,0,0.0,0,16090,0,0,0,
2026-04-19 14:53:00,METAR KMTJ 191453Z AUTO 00000KT 10SM CLR 07/M08 A3026 RMK AO2 SLP221 T00671083 50004,0,0.0,0,16090,0,0,0,
2026-04-19 13:53:00,METAR KMTJ 191353Z AUTO 16005KT 10SM CLR 03/M07 A3026 RMK AO2 SLP220 T00331072,0,5.0,0,16090,0,0,0,
2026-04-19 12:53:00,METAR KMTJ 191253Z AUTO 14006KT 10SM CLR 00/M07 A3025 RMK AO2 SLP220 T00001067,0,6.0,0,16090,0,0,0,
2026-04-19 11:53:00,METAR KMTJ 191153Z AUTO 16005KT 10SM CLR 01/M07 A3024 RMK AO2 SLP216 T00061067 10044 20006 57005,0,5.0,0,16090,0,0,0,
2026-04-19 10:53:00,METAR KMTJ 191053Z AUTO 15005KT 10SM CLR 02/M06 A3025 RMK AO2 SLP215 T00221061,0,5.0,0,16090,0,0,0,
2026-04-19 09:53:00,METAR KMTJ 190953Z AUTO 18006KT 10SM CLR 03/M06 A3026 RMK AO2 SLP217 T00281061,0,6.0,0,16090,0,0,0,
2026-04-19 08:53:00,METAR KMTJ 190853Z AUTO 00000KT 10SM CLR 04/M07 A3026 RMK AO2 SLP221 T00391067 58002,0,0.0,0,16090,0,0,0,
2026-04-19 07:53:00,METAR KMTJ 190753Z AUTO 14007KT 10SM CLR 04/M07 A3027 RMK AO2 SLP222 T00391072,0,7.0,0,16090,0,0,0,
2026-04-19 06:53:00,METAR KMTJ 190653Z AUTO 14008KT 10SM CLR 04/M07 A3027 RMK AO2 SLP227 T00391072 401281056,0,8.0,0,16090,0,0,0,
2026-04-19 05:53:00,METAR KMTJ 190553Z AUTO 14007KT 10SM CLR 04/M08 A3027 RMK AO2 SLP229 T00391078 10128 20039 50002,0,7.0,0,16090,0,0,0,
2026-04-19 04:53:00,METAR KMTJ 190453Z AUTO 14008KT 10SM CLR 04/M08 A3028 RMK AO2 SLP234 T00441083,0,8.0,0,16090,0,0,0,
2026-04-19 03:53:00,METAR KMTJ 190353Z AUTO 13005KT 10SM CLR 04/M08 A3028 RMK AO2 SLP239 T00441083,0,5.0,0,16090,0,0,0,
2026-04-19 02:53:00,METAR KMTJ 190253Z AUTO 10005KT 10SM CLR 06/M09 A3026 RMK AO2 SLP236 T00611094 53001,0,5.0,0,16090,0,0,0,
2026-04-19 01:53:00,METAR KMTJ 190153Z AUTO 27003KT 10SM CLR 11/M12 A3025 RMK AO2 SLP227 T01061117,0,3.0,0,16090,0,0,0,
2026-04-19 00:53:00,METAR KMTJ 190053Z AUTO 33005KT 10SM CLR 12/M15 A3025 RMK AO2 SLP229 T01221150,0,5.0,0,16090,0,0,0,
2026-04-18 23:53:00,METAR KMTJ 182353Z AUTO 35006KT 10SM CLR 12/M16 A3026 RMK AO2 SLP232 T01221156 10128 20072 56015,0,6.0,0,16090,0,0,0,
2026-04-18 22:53:00,METAR KMTJ 182253Z AUTO 29007KT 10SM CLR 12/M13 A3027 RMK AO2 SLP233 T01221133,0,7.0,0,16090,0,0,0,
2026-04-18 21:53:00,METAR KMTJ 182153Z AUTO VRB04KT 10SM CLR 12/M12 A3029 RMK AO2 SLP241 T01221117,0,4.0,0,16090,0,0,0,
2026-04-18 20:53:00,METAR KMTJ 182053Z AUTO 00000KT 10SM CLR 11/M12 A3031 RMK AO2 SLP251 T01061117 58012,0,0.0,0,16090,0,0,0,
2026-04-18 19:53:00,METAR KMTJ 181953Z AUTO 10SM CLR 10/M11 A3033 RMK AO2 SLP257 T01001111,0,,0,16090,0,0,0,
2026-04-18 18:53:00,METAR KMTJ 181853Z AUTO VRB03KT 10SM CLR 08/M13 A3034 RMK AO2 SLP263 T00831133,0,3.0,0,16090,0,0,0,
2026-04-18 17:53:00,METAR KMTJ 181753Z AUTO VRB05KT 10SM CLR 07/M14 A3035 RMK AO2 SLP268 T00721144 10072 21056 50004,0,5.0,0,16090,0,0,0,
2026-04-18 16:53:00,METAR KMTJ 181653Z AUTO 00000KT 10SM CLR 05/M12 A3036 RMK AO2 SLP274 T00501117,0,0.0,0,16090,0,0,0,
2026-04-18 15:53:00,METAR KMTJ 181553Z AUTO 00000KT 10SM CLR 03/M10 A3035 RMK AO2 SLP275 T00281100,0,0.0,0,16090,0,0,0,
2026-04-18 14:53:00,METAR KMTJ 181453Z AUTO 00000KT 10SM CLR 01/M10 A3034 RMK AO2 SLP271 T00061100 51015,0,0.0,0,16090,0,0,0,
2026-04-18 13:53:00,METAR KMTJ 181353Z AUTO 14005KT 10SM CLR M02/M09 A3033 RMK AO2 SLP270 T10171089,0,5.0,0,16090,0,0,0,
2026-04-18 12:53:00,METAR KMTJ 181253Z AUTO 16007KT 10SM CLR M05/M09 A3031 RMK AO2 SLP266 T10501089,0,7.0,0,16090,0,0,0,
2026-04-18 11:53:00,METAR KMTJ 181153Z AUTO 15005KT 10SM CLR M05/M08 A3029 RMK AO2 SLP260 70003 T10501083 11011 21050 53014,0,5.0,0,16090,0,0,0,
2026-04-18 10:53:00,METAR KMTJ 181053Z AUTO 17005KT 10SM CLR M04/M08 A3026 RMK AO2 SLP248 T10391078,0,5.0,0,16090,0,0,0,
2026-04-18 09:53:00,METAR KMTJ 180953Z AUTO 14006KT 10SM CLR M04/M08 A3025 RMK AO2 SLP243 T10391078,0,6.0,0,16090,0,0,0,
2026-04-18 08:53:00,METAR KMTJ 180853Z AUTO 15005KT 10SM CLR M03/M08 A3024 RMK AO2 SLP237 T10281078 50005,0,5.0,0,16090,0,0,0,
2026-04-18 07:53:00,METAR KMTJ 180753Z AUTO 23003KT 10SM CLR M03/M07 A3024 RMK AO2 SLP240 T10281072,0,3.0,0,16090,0,0,0,
2026-04-18 06:53:00,METAR KMTJ 180653Z AUTO 12008KT 10SM CLR M02/M08 A3023 RMK AO2 SLP236 T10171078 401331028,0,8.0,0,16090,0,0,0,
2026-04-18 05:53:00,METAR KMTJ 180553Z AUTO 14009KT 10SM CLR M01/M07 A3022 RMK AO2 SLP238 T10111072 10056 21011 51008,0,9.0,0,16090,0,0,0,
2026-04-18 04:53:00,METAR KMTJ 180453Z AUTO 13009KT 10SM CLR M01/M06 A3022 RMK AO2 SLP242 T10111061,0,9.0,0,16090,0,0,0,
2026-04-18 03:53:00,METAR KMTJ 180353Z AUTO 16007KT 10SM CLR 00/M06 A3021 RMK AO2 SLP237 T00001061,0,7.0,0,16090,0,0,0,
2026-04-18 02:53:00,METAR KMTJ 180253Z AUTO 15004KT 10SM CLR 02/M11 A3019 RMK AO2 SLP225 T00221111 53009,0,4.0,0,16090,0,0,0,
2026-04-18 01:53:00,METAR KMTJ 180153Z AUTO 01003KT 10SM CLR 03/M13 A3017 RMK AO2 SLP214 T00331133,0,3.0,0,16090,0,0,0,
2026-04-18 00:53:00,METAR KMTJ 180053Z AUTO 34005KT 10SM CLR 05/M13 A3017 RMK AO2 SLP207 T00501133,0,5.0,0,16090,0,0,0,
2026-04-17 23:53:00,METAR KMTJ 172353Z AUTO 25003KT 10SM CLR 05/M13 A3016 RMK AO2 SLP202 T00501133 10056 21006 55002,0,3.0,0,16090,0,0,0,
2026-04-17 22:53:00,METAR KMTJ 172253Z AUTO 34004KT 10SM CLR 05/M14 A3016 RMK AO2 SLP196 T00501139,0,4.0,0,16090,0,0,0,
2026-04-17 21:53:00,METAR KMTJ 172153Z AUTO 10SM BKN065 05/M13 A3016 RMK AO2 SLP192 T00501133,0,,0,16090,0,0,0,
2026-04-17 20:53:00,METAR KMTJ 172053Z AUTO 27010G17KT 10SM FEW047 FEW055 SCT075 04/M11 A3017 RMK AO2 SLP195 T00441106 51004,0,10.0,1,16090,0,0,0,
2026-04-17 19:53:00,METAR KMTJ 171953Z AUTO 30010G18KT 10SM CLR 04/M07 A3016 RMK AO2 SLP192 T00391072,0,10.0,1,16090,0,0,0,
2026-04-17 18:53:00,METAR KMTJ 171853Z AUTO 29013G24KT 10SM SCT075 02/M07 A3016 RMK AO2 SLP185 T00221067,0,13.0,1,16090,0,0,0,
2026-04-17 17:53:00,METAR KMTJ 171753Z AUTO 29018G25KT 10SM BKN049 OVC060 M01/M06 A3015 RMK AO2 PK WND 31028/1702 SNE20 SLP181 P0000 60003 T10061056 10006 21028 51019,0,18.0,1,16090,0,0,0,
2026-04-17 17:28:00,SPECI KMTJ 171728Z AUTO 30018G27KT 10SM BKN036 OVC046 M02/M06 A3014 RMK AO2 PK WND 31028/1702 SNE20 P0000 T10171061,0,18.0,1,16090,0,0,0,
2026-04-17 17:11:00,SPECI KMTJ 171711Z AUTO 29018G28KT 3SM -SN FEW011 BKN021 OVC033 M02/M05 A3014 RMK AO2 PK WND 31028/1702 P0000 T10221050,0,18.0,1,4827,0,0,0,SN
2026-04-17 17:04:00,SPECI KMTJ 171704Z AUTO 31020G28KT 1 3/4SM -SN FEW009 BKN016 OVC030 M02/M05 A3014 RMK AO2 PK WND 31028/1702 P0000 T10221050,0,20.0,1,2816,0,0,0,SN
2026-04-17 16:58:00,SPECI KMTJ 171658Z AUTO 30016KT 1SM -SN BR FEW009 OVC016 M02/M04 A3013 RMK AO2 P0000 T10221044,0,16.0,0,1609,0,0,1,"BR,SN"
2026-04-17 16:53:00,METAR KMTJ 171653Z AUTO 31015G27KT 3/4SM -SN BR FEW009 OVC014 M03/M04 A3013 RMK AO2 PK WND 31027/1644 SLP175 P0000 T10281039,0,15.0,1,1207,0,0,1,"BR,SN"
2026-04-17 16:09:00,SPECI KMTJ 171609Z AUTO 33014G22KT 1/2SM SN FZFG SCT007 OVC011 M02/M03 A3009 RMK AO2 P0000 T10221033,0,14.0,1,804,0,0,1,"FG,SN"
2026-04-17 16:01:00,SPECI KMTJ 171601Z AUTO 33016G21KT 1/2SM SN FZFG BKN007 OVC011 M02/M03 A3009 RMK AO2 P0000 T10221033,0,16.0,1,804,0,0,1,"FG,SN"
2026-04-17 15:53:00,METAR KMTJ 171553Z AUTO 33011KT 1/2SM SN FZFG VV010 M02/M03 A3008 RMK AO2 SLP157 P0001 T10221033,0,11.0,0,804,0,0,1,"FG,SN"
2026-04-17 15:37:00,SPECI KMTJ 171537Z AUTO 33011KT 1/2SM SN FZFG SCT007 OVC013 M02/M03 A3008 RMK AO2 P0001 T10221028,0,11.0,0,804,0,0,1,"FG,SN"
2026-04-17 15:30:00,SPECI KMTJ 171530Z AUTO 32012KT 1/2SM SN FZFG VV013 M02/M03 A3007 RMK AO2 P0001 T10221033,0,12.0,0,804,0,0,1,"FG,SN"
2026-04-17 15:21:00,SPECI KMTJ 171521Z AUTO 32014KT 1/2SM SN FZFG FEW007 OVC016 M02/M03 A3007 RMK AO2 P0000 T10221033,0,14.0,0,804,0,0,1,"FG,SN"
2026-04-17 15:12:00,SPECI KMTJ 171512Z AUTO 32013KT 1SM -SN BR FEW006 FEW009 OVC016 M02/M03 A3006 RMK AO2 P0000 T10221033,0,13.0,0,1609,0,0,1,"BR,SN"
2026-04-17 14:53:00,METAR KMTJ 171453Z AUTO 32013G21KT 1/2SM SN FZFG FEW006 OVC010 M02/M03 A3006 RMK AO2 SLP149 P0001 60002 T10221033 51031,0,13.0,1,804,0,0,1,"FG,SN"
2026-04-17 13:53:00,METAR KMTJ 171353Z AUTO 31010KT 1/2SM SN FZFG FEW005 OVC009 M02/M02 A3003 RMK AO2 SLP135 P0001 T10171022,0,10.0,0,804,0,0,1,"FG,SN"
2026-04-17 13:50:00,SPECI KMTJ 171350Z AUTO 31009KT 1/2SM SN FZFG SCT005 OVC009 M02/M02 A3002 RMK AO2 P0001,0,9.0,0,804,0,0,1,"FG,SN"
2026-04-17 13:45:00,SPECI KMTJ 171345Z AUTO 31010KT 1/2SM SN FZFG VV006 M02/M02 A3002 RMK AO2 P0001 T10171022,0,10.0,0,804,0,0,1,"FG,SN"
2026-04-17 13:30:00,SPECI KMTJ 171330Z AUTO 31012KT 1/4SM SN FZFG BKN005 OVC010 M02/M02 A3001 RMK AO2 P0000 T10171022,0,12.0,0,402,0,0,1,"FG,SN"
2026-04-17 13:26:00,SPECI KMTJ 171326Z AUTO 32009KT 1/2SM SN FZFG SCT005 OVC008 M01/M02 A3001 RMK AO2 P0000 T10111022,0,9.0,0,804,0,0,1,"FG,SN"
2026-04-17 13:19:00,SPECI KMTJ 171319Z AUTO 32010G14KT 1SM -SN BR BKN008 OVC014 M01/M02 A3001 RMK AO2 P0000 T10111022,0,10.0,1,1609,0,0,1,"BR,SN"
2026-04-17 13:15:00,SPECI KMTJ 171315Z AUTO 29009G14KT 1 3/4SM -SN BR OVC008 M01/M02 A3000 RMK AO2 CIG 005V013 P0000 T10061022,0,9.0,1,2816,0,0,1,"BR,SN"
2026-04-17 12:53:00,METAR KMTJ 171253Z AUTO 34011G20KT 3SM -SN BR FEW009 BKN013 OVC020 M01/M03 A2999 RMK AO2 PK WND 33029/1201 SNB22 SLP117 P0000 T10061028,0,11.0,1,4827,0,0,1,"BR,SN"
2026-04-17 12:51:00,SPECI KMTJ 171251Z AUTO 33012G20KT 2 1/2SM -SN BR BKN013 OVC020 M01/M03 A2999 RMK AO2 PK WND 33029/1201 SNB22 P0000,0,12.0,1,4022,0,0,1,"BR,SN"
2026-04-17 12:37:00,SPECI KMTJ 171237Z AUTO 35009G22KT 4SM -SN BR SCT015 BKN021 OVC110 M01/M03 A2997 RMK AO2 PK WND 33029/1201 SNB22 P0000 T10061028,0,9.0,1,6436,0,0,1,"BR,SN"
2026-04-17 11:53:00,METAR KMTJ 171153Z AUTO 34017G29KT 10SM OVC110 01/M04 A2995 RMK AO2 PK WND 33029/1150 SLP100 T00061039 10144 20006 53026,0,17.0,1,16090,0,0,0,
2026-04-17 10:53:00,METAR KMTJ 171053Z AUTO 33017G27KT 10SM OVC110 02/M06 A2991 RMK AO2 PK WND 31027/1047 SLP084 T00221056,0,17.0,1,16090,0,0,0,
2026-04-17 09:53:00,METAR KMTJ 170953Z AUTO 34011G18KT 10SM OVC100 04/M06 A2989 RMK AO2 SLP069 T00441061,0,11.0,1,16090,0,0,0,
2026-04-17 08:53:00,METAR KMTJ 170853Z AUTO 33012G20KT 10SM CLR 05/M06 A2986 RMK AO2 SLP060 T00501056 53023,0,12.0,1,16090,0,0,0,
2026-04-17 07:53:00,METAR KMTJ 170753Z AUTO 31015G25KT 10SM CLR 07/M06 A2983 RMK AO2 SLP046 T00721061,0,15.0,1,16090,0,0,0,
2026-04-17 06:53:00,METAR KMTJ 170653Z AUTO 09005KT 10SM CLR 12/M11 A2978 RMK AO2 SLP021 T01221111 402110028,0,5.0,0,16090,0,0,0,
2026-04-17 05:53:00,METAR KMTJ 170553Z AUTO 16009G18KT 10SM CLR 14/M13 A2978 RMK AO2 SLP014 T01441128 10183 20144 55004,0,9.0,1,16090,0,0,0,
2026-04-17 04:53:00,METAR KMTJ 170453Z AUTO VRB04G19KT 10SM CLR 16/M14 A2977 RMK AO2 PK WND 15029/0416 SLP012 T01561139,0,4.0,1,16090,0,0,0,
2026-04-17 03:53:00,METAR KMTJ 170353Z AUTO 19006G22KT 10SM CLR 16/M14 A2979 RMK AO2 PK WND 21031/0324 SLP024 T01611144,0,6.0,1,16090,0,0,0,
2026-04-17 02:53:00,METAR KMTJ 170253Z AUTO 24015G26KT 10SM CLR 17/M14 A2979 RMK AO2 PK WND 19028/0216 SLP032 T01671139 51001,0,15.0,1,16090,0,0,0,
2026-04-17 01:53:00,METAR KMTJ 170153Z AUTO 22007G25KT 170V270 10SM CLR 17/M13 A2979 RMK AO2 PK WND 19035/0133 WSHFT 0127 SLP029 T01671128,0,7.0,1,16090,0,0,0,
2026-04-17 01:20:00,SPECI KMTJ 170120Z AUTO 18017G28KT 10SM CLR 18/M13 A2981 RMK AO2 PK WND 17028/0117 WSHFT 0100 T01781133,0,17.0,1,16090,0,0,0,
2026-04-17 00:53:00,METAR KMTJ 170053Z AUTO 17012G26KT 10SM CLR 18/M14 A2980 RMK AO2 PK WND 17029/0024 WSHFT 2347 SLP041 T01831139,0,12.0,1,16090,0,0,0,
2026-04-17 00:07:00,SPECI KMTJ 170007Z AUTO 00000KT 10SM FEW120 19/M12 A2980 RMK AO2 PK WND 16027/2357 WSHFT 2347 T01891122,0,0.0,0,16090,0,0,0,
2026-04-16 23:53:00,METAR KMTJ 162353Z AUTO 13018G30KT 10SM CLR 19/M11 A2979 RMK AO2 PK WND 13030/2353 SLP036 T01891111 10211 20183 56019,0,18.0,1,16090,0,0,0,
2026-04-16 22:53:00,METAR KMTJ 162253Z AUTO 18012G26KT 10SM CLR 19/M11 A2981 RMK AO2 PK WND 20031/2227 SLP044 T01891111,0,12.0,1,16090,0,0,0,
2026-04-16 21:53:00,METAR KMTJ 162153Z AUTO 20020G41KT 10SM CLR 19/M11 A2983 RMK AO2 PK WND 20041/2144 SLP045 T01941111,0,20.0,1,16090,0,0,0,
2026-04-16 21:06:00,SPECI KMTJ 162106Z AUTO 24008G19KT 190V270 10SM FEW003 18/M09 A2986 RMK AO2 T01831094,0,8.0,1,16090,0,0,0,
2026-04-16 20:53:00,METAR KMTJ 162053Z AUTO 19017G30KT 10SM CLR 19/M09 A2986 RMK AO2 PK WND 21032/2004 SLP056 T01891089 55010,0,17.0,1,16090,0,0,0,
2026-04-16 19:53:00,METAR KMTJ 161953Z AUTO 20016G26KT 10SM FEW110 19/M09 A2986 RMK AO2 PK WND 17039/1938 SLP056 T01891089,0,16.0,1,16090,0,0,0,
2026-04-16 18:53:00,METAR KMTJ 161853Z AUTO 23008KT 10SM CLR 19/M08 A2986 RMK AO2 SLP056 T01891083,0,8.0,0,16090,0,0,0,
2026-04-16 17:53:00,METAR KMTJ 161753Z AUTO 25014G22KT 10SM FEW100 19/M08 A2989 RMK AO2 SLP067 T01941083 10200 20033 58021,0,14.0,1,16090,0,0,0,
2026-04-16 16:53:00,METAR KMTJ 161653Z AUTO 23015G23KT 9SM CLR 18/M08 A2992 RMK AO2 PK WND 22026/1619 WSHFT 1610 SLP079 T01831083,0,15.0,1,14481,0,0,0,
2026-04-16 16:30:00,SPECI KMTJ 161630Z AUTO 24013G22KT 10SM CLR 18/M08 A2993 RMK AO2 PK WND 22026/1619 WSHFT 1610 T01781078,0,13.0,1,16090,0,0,0,
2026-04-16 15:53:00,METAR KMTJ 161553Z AUTO 31004KT 9SM CLR 14/M04 A2994 RMK AO2 SLP090 T01441039,0,4.0,0,14481,0,0,0,
2026-04-16 14:53:00,METAR KMTJ 161453Z AUTO 33004KT 10SM FEW003 11/M03 A2996 RMK AO2 SLP103 T01061033 56005,0,4.0,0,16090,0,0,0,
2026-04-16 14:33:00,SPECI KMTJ 161433Z AUTO 30007KT 4SM HZ FEW002 11/M04 A2997 RMK AO2 T01061044,0,7.0,0,6436,0,0,0,
2026-04-16 13:53:00,METAR KMTJ 161353Z AUTO 08006KT 10SM CLR 12/M06 A2997 RMK AO2 SLP097 T01171056,0,6.0,0,16090,0,0,0,
2026-04-16 12:53:00,METAR KMTJ 161253Z AUTO 11006KT 10SM CLR 04/M06 A2997 RMK AO2 SLP108 T00441061,0,6.0,0,16090,0,0,0,
2026-04-16 11:53:00,METAR KMTJ 161153Z AUTO 12009KT 10SM CLR 06/M06 A2998 RMK AO2 SLP107 T00561061 10078 20028 56008,0,9.0,0,16090,0,0,0,
2026-04-16 10:53:00,METAR KMTJ 161053Z AUTO 12005KT 10SM CLR 04/M06 A2999 RMK AO2 SLP115 T00391056,0,5.0,0,16090,0,0,0,
2026-04-16 09:53:00,METAR KMTJ 160953Z AUTO 12008KT 10SM CLR 07/M06 A2999 RMK AO2 SLP109 T00671056,0,8.0,0,16090,0,0,0,
2026-04-16 08:53:00,METAR KMTJ 160853Z AUTO 12008KT 10SM CLR 07/M06 A3001 RMK AO2 SLP117 T00671056 58010,0,8.0,0,16090,0,0,0,
2026-04-16 07:53:00,METAR KMTJ 160753Z AUTO 13010KT 10SM CLR 07/M06 A3003 RMK AO2 SLP125 T00671056,0,10.0,0,16090,0,0,0,
2026-04-16 06:53:00,METAR KMTJ 160653Z AUTO 10009KT 10SM CLR 08/M05 A3004 RMK AO2 SLP127 T00781050 401720022,0,9.0,0,16090,0,0,0,
2026-04-16 05:53:00,METAR KMTJ 160553Z AUTO 13008KT 10SM CLR 07/M06 A3004 RMK AO2 SLP135 T00671056 10167 20067 50008,0,8.0,0,16090,0,0,0,
2026-04-16 04:53:00,METAR KMTJ 160453Z AUTO 14009KT 10SM CLR 08/M06 A3005 RMK AO2 SLP136 T00781056,0,9.0,0,16090,0,0,0,
2026-04-16 03:53:00,METAR KMTJ 160353Z AUTO 13007KT 10SM CLR 08/M05 A3004 RMK AO2 SLP138 T00831050,0,7.0,0,16090,0,0,0,
2026-04-16 02:53:00,METAR KMTJ 160253Z AUTO 15005KT 10SM CLR 11/M05 A3001 RMK AO2 SLP128 T01061050 53000,0,5.0,0,16090,0,0,0,
2026-04-16 01:53:00,METAR KMTJ 160153Z AUTO 24005KT 10SM CLR 14/M06 A3001 RMK AO2 SLP125 T01391061,0,5.0,0,16090,0,0,0,
2026-04-16 00:53:00,METAR KMTJ 160053Z AUTO 25007KT 10SM CLR 16/M06 A3001 RMK AO2 SLP125 T01561061,0,7.0,0,16090,0,0,0,
2026-04-15 23:53:00,METAR KMTJ 152353Z AUTO 24007KT 210V270 10SM SCT085 16/M06 A3001 RMK AO2 SLP124 T01611056 10172 20122 56013,0,7.0,0,16090,0,0,0,
2026-04-15 22:53:00,METAR KMTJ 152253Z AUTO 31004KT 10SM SCT085 16/M05 A3002 RMK AO2 SLP126 T01561050,0,4.0,0,16090,0,0,0,
2026-04-15 21:53:00,METAR KMTJ 152153Z AUTO VRB03KT 10SM SCT080 16/M04 A3004 RMK AO2 SLP131 T01611044,0,3.0,0,16090,0,0,0,
2026-04-15 20:53:00,METAR KMTJ 152053Z AUTO 04007KT 10SM CLR 15/M04 A3006 RMK AO2 SLP140 T01501044 58013,0,7.0,0,16090,0,0,0,
2026-04-15 19:53:00,METAR KMTJ 151953Z AUTO VRB04KT 10SM SCT065 SCT085 14/M04 A3008 RMK AO2 SLP149 T01391039,0,4.0,0,16090,0,0,0,
2026-04-15 18:53:00,METAR KMTJ 151853Z AUTO 31007KT 10SM FEW060 FEW080 14/M04 A3009 RMK AO2 SLP153 T01391044,0,7.0,0,16090,0,0,0,
2026-04-15 17:53:00,METAR KMTJ 151753Z AUTO 33006KT 10SM CLR 12/M04 A3010 RMK AO2 SLP160 T01221039 10128 20022 58001,0,6.0,0,16090,0,0,0,
2026-04-15 16:53:00,METAR KMTJ 151653Z AUTO 00000KT 10SM CLR 11/M01 A3011 RMK AO2 SLP167 T01061011,0,0.0,0,16090,0,0,0,
2026-04-15 15:53:00,METAR KMTJ 151553Z AUTO VRB04KT 10SM CLR 08/02 A3011 RMK AO2 SLP169 T00780017,0,4.0,0,16090,0,0,0,
2026-04-15 14:53:00,METAR KMTJ 151453Z AUTO 35005KT 10SM CLR 06/01 A3011 RMK AO2 SLP172 T00560011 51010,0,5.0,0,16090,0,0,0,
2026-04-15 13:53:00,METAR KMTJ 151353Z AUTO 18006KT 10SM OVC080 04/01 A3010 RMK AO2 SLP171 T00390006,0,6.0,0,16090,0,0,0,
2026-04-15 12:53:00,METAR KMTJ 151253Z AUTO 00000KT 10SM OVC080 02/00 A3008 RMK AO2 SLP168 T00220000,0,0.0,0,16090,0,0,0,
2026-04-15 11:53:00,METAR KMTJ 151153Z AUTO 00000KT 10SM FEW070 SCT085 02/00 A3007 RMK AO2 SLP160 60000 70004 T00220000 10044 20022 58001,0,0.0,0,16090,0,0,0,
2026-04-15 10:53:00,METAR KMTJ 151053Z AUTO 00000KT 10SM BKN075 03/00 A3008 RMK AO2 SLP160 T00280000,0,0.0,0,16090,0,0,0,
2026-04-15 09:53:00,METAR KMTJ 150953Z AUTO 08004KT 10SM SCT049 OVC060 04/01 A3007 RMK AO2 SLP156 T00390006,0,4.0,0,16090,0,0,0,
2026-04-15 08:53:00,METAR KMTJ 150853Z AUTO 17003KT 10SM OVC049 04/00 A3008 RMK AO2 RAB21E33 SLP155 P0000 60000 T00390000 58002,0,3.0,0,16090,0,0,0,RA
2026-04-15 07:53:00,METAR KMTJ 150753Z AUTO 14004KT 10SM BKN065 03/01 A3008 RMK AO2 SLP159 T00330006,0,4.0,0,16090,0,0,0,
2026-04-15 06:53:00,METAR KMTJ 150653Z AUTO 16004KT 10SM BKN090 04/01 A3008 RMK AO2 SLP160 T00390006 401170039,0,4.0,0,16090,0,0,0,
2026-04-15 05:53:00,METAR KMTJ 150553Z AUTO 00000KT 10SM BKN050 OVC070 04/02 A3008 RMK AO2 SLP152 60001 T00440017 10083 20039 51010,0,0.0,0,16090,0,0,0,
2026-04-15 04:53:00,METAR KMTJ 150453Z AUTO 32003KT 10SM FEW050 OVC085 04/02 A3008 RMK AO2 SLP153 T00390017,0,3.0,0,16090,0,0,0,
2026-04-15 03:53:00,METAR KMTJ 150353Z AUTO 00000KT 10SM FEW050 BKN110 05/01 A3007 RMK AO2 SLP151 T00500011,0,0.0,0,16090,0,0,0,
2026-04-15 02:53:00,METAR KMTJ 150253Z AUTO 15007KT 10SM FEW060 OVC075 06/02 A3004 RMK AO2 SLP144 60001 T00560017 51013,0,7.0,0,16090,0,0,0,
2026-04-15 01:53:00,METAR KMTJ 150153Z AUTO 09006KT 10SM FEW060 OVC080 06/02 A3002 RMK AO2 RAE22 SLP140 P0000 T00610017,0,6.0,0,16090,0,0,0,
2026-04-15 00:53:00,METAR KMTJ 150053Z AUTO 32012G18KT 10SM -RA OVC033 07/01 A3003 RMK AO2 RAB17 SLP137 P0001 T00670011,0,12.0,1,16090,0,0,0,-RA
2026-04-14 23:53:00,METAR KMTJ 142353Z AUTO 03009KT 10SM BKN060 OVC070 08/00 A3000 RMK AO2 SLP124 60003 T00830000 10117 20056 53005,0,9.0,0,16090,0,0,0,
2026-04-14 22:53:00,METAR KMTJ 142253Z AUTO 06006KT 10SM FEW060 BKN095 09/01 A2998 RMK AO2 SLP116 T00940011,0,6.0,0,16090,0,0,0,
2026-04-14 21:53:00,METAR KMTJ 142153Z AUTO 21012G21KT 10SM SCT044 BKN065 BKN085 09/01 A3000 RMK AO2 PK WND 24032/2115 LTG DSNT N RAB09E35 SLP122 P0002 T00890006,0,12.0,1,16090,0,0,0,"DS,RA"
2026-04-14 20:53:00,METAR KMTJ 142053Z AUTO 18006KT 10SM FEW080 SCT110 10/M02 A2998 RMK AO2 RAB1958E15 SLP117 P0001 60001 T01001022 50005,0,6.0,0,16090,0,0,0,RA
2026-04-14 19:53:00,METAR KMTJ 141953Z AUTO 25010KT 10SM FEW047 SCT055 BKN070 09/M03 A2999 RMK AO2 RAE01 SLP118 P0000 T00941028,0,10.0,0,16090,0,0,0,
2026-04-14 18:53:00,METAR KMTJ 141853Z AUTO VRB06KT 9SM -RA FEW043 BKN070 OVC095 08/M02 A2998 RMK AO2 PK WND 24036/1809 RAB52 SLP118 P0000 T00781022,0,6.0,0,14481,0,0,0,-RA
2026-04-14 17:53:00,METAR KMTJ 141753Z AUTO 23019G28KT 9SM FEW070 SCT085 SCT100 12/M07 A2997 RMK AO2 PK WND 21030/1710 SLP102 T01171067 10117 20061 52011,0,19.0,1,14481,0,0,0,
2026-04-14 16:53:00,METAR KMTJ 141653Z AUTO 22017G26KT 10SM CLR 11/M07 A2995 RMK AO2 PK WND 22026/1645 SLP093 T01111067,0,17.0,1,16090,0,0,0,
2026-04-14 15:53:00,METAR KMTJ 141553Z AUTO 25010G18KT 10SM FEW120 10/M08 A2994 RMK AO2 SLP094 T01001078,0,10.0,1,16090,0,0,0,
2026-04-14 14:53:00,METAR KMTJ 141453Z AUTO 12013G16KT 10SM BKN110 08/M07 A2993 RMK AO2 SLP088 T00831067 50007,0,13.0,1,16090,0,0,0,
2026-04-14 13:53:00,METAR KMTJ 141353Z AUTO 10006G18KT 10SM BKN100 OVC120 06/M02 A2993 RMK AO2 SLP091 T00611022,0,6.0,1,16090,0,0,0,
2026-04-14 12:53:00,METAR KMTJ 141253Z AUTO 24013G18KT 10SM FEW035 SCT041 BKN120 08/01 A2992 RMK AO2 PRESRR SLP082 T00780011,0,13.0,1,16090,0,0,0,
2026-04-14 11:53:00,METAR KMTJ 141153Z AUTO 19005KT 10SM FEW045 BKN060 OVC080 08/01 A2990 RMK AO2 SLP073 60000 T00780011 10106 20067 53001,0,5.0,0,16090,0,0,0,
2026-04-14 10:53:00,METAR KMTJ 141053Z AUTO 08011KT 10SM BKN085 BKN120 08/01 A2990 RMK AO2 SLP070 T00830006,0,11.0,0,16090,0,0,0,
2026-04-14 09:53:00,METAR KMTJ 140953Z AUTO 11010KT 10SM CLR 08/01 A2990 RMK AO2 SLP069 T00780006,0,10.0,0,16090,0,0,0,
2026-04-14 08:53:00,METAR KMTJ 140853Z AUTO 08007KT 10SM FEW090 07/02 A2990 RMK AO2 RAE14 SLP072 P0000 60000 T00670022 58006,0,7.0,0,16090,0,0,0,
2026-04-14 07:53:00,METAR KMTJ 140753Z AUTO 26015G25KT 9SM -RA FEW026 BKN040 OVC075 08/02 A2994 RMK AO2 RAB44 SLP087 P0000 T00780022,0,15.0,1,14481,0,0,0,-RA
2026-04-14 06:53:00,METAR KMTJ 140653Z AUTO VRB03KT 10SM CLR 09/01 A2991 RMK AO2 LTG DSNT N SLP074 T00890006 401940089,0,3.0,0,16090,0,0,0,DS
2026-04-14 05:53:00,METAR KMTJ 140553Z AUTO 00000KT 10SM SCT070 10/01 A2992 RMK AO2 LTG DSNT W RAB11E43 SLP078 P0000 60000 T01000011 10178 20100 51007,0,0.0,0,16090,0,0,0,"DS,RA"
2026-04-14 04:53:00,METAR KMTJ 140453Z AUTO 26007KT 10SM BKN085 OVC110 12/M01 A2992 RMK AO2 LTG DSNT SW AND W SLP078 T01171011,0,7.0,0,16090,0,0,0,DS
2026-04-14 03:53:00,METAR KMTJ 140353Z AUTO 23010KT 10SM SCT100 12/M02 A2992 RMK AO2 SLP078 T01221017,0,10.0,0,16090,0,0,0,
2026-04-14 02:53:00,METAR KMTJ 140253Z AUTO 20004KT 10SM CLR 13/M04 A2990 RMK AO2 PK WND 23027/0157 SLP071 T01331039 50001,0,4.0,0,16090,0,0,0,
2026-04-14 01:53:00,METAR KMTJ 140153Z AUTO 10SM SCT090 BKN110 15/M04 A2990 RMK AO2 SLP072 T01501044,0,,0,16090,0,0,0,
2026-04-14 00:53:00,METAR KMTJ 140053Z AUTO 24010KT 10SM CLR 17/M07 A2989 RMK AO2 PK WND 26027/0027 SLP068 T01671067,0,10.0,0,16090,0,0,0,
2026-04-13 23:53:00,METAR KMTJ 132353Z AUTO 25015G23KT 10SM CLR 18/M07 A2990 RMK AO2 PK WND 25028/2259 SLP067 T01781072 10194 20161 56012,0,15.0,1,16090,0,0,0,
2026-04-13 22:53:00,METAR KMTJ 132253Z AUTO 23016G25KT 10SM CLR 18/M07 A2991 RMK AO2 PK WND 26032/2159 SLP070 T01831072,0,16.0,1,16090,0,0,0,
2026-04-13 21:53:00,METAR KMTJ 132153Z AUTO 25018G27KT 10SM FEW110 18/M08 A2992 RMK AO2 PK WND 24031/2127 SLP071 T01831083,0,18.0,1,16090,0,0,0,
2026-04-13 20:53:00,METAR KMTJ 132053Z AUTO 26019G29KT 10SM FEW110 18/M09 A2994 RMK AO2 PK WND 23032/2036 SLP077 T01831094 56018,0,19.0,1,16090,0,0,0,
2026-04-13 19:53:00,METAR KMTJ 131953Z AUTO 28017G27KT 10SM BKN110 17/M08 A2995 RMK AO2 PK WND 25027/1944 SLP085 T01721078,0,17.0,1,16090,0,0,0,
2026-04-13 18:53:00,METAR KMTJ 131853Z AUTO 26012G21KT 10SM FEW100 17/M06 A2998 RMK AO2 PK WND 24027/1808 SLP092 T01671056,0,12.0,1,16090,0,0,0,
2026-04-13 17:53:00,METAR KMTJ 131753Z AUTO 24016G26KT 10SM BKN090 17/M07 A3000 RMK AO2 PK WND 22026/1744 SLP100 T01671067 10167 20100 58017,0,16.0,1,16090,0,0,0,
2026-04-13 16:53:00,METAR KMTJ 131653Z AUTO 30012G19KT 10SM BKN080 OVC095 13/M05 A3003 RMK AO2 SLP113 T01331050,0,12.0,1,16090,0,0,0,
2026-04-13 15:53:00,METAR KMTJ 131553Z AUTO 26008KT 10SM FEW070 13/M04 A3005 RMK AO2 SLP122 T01281044,0,8.0,0,16090,0,0,0,
2026-04-13 14:53:00,METAR KMTJ 131453Z AUTO 21006KT 10SM CLR 12/M04 A3006 RMK AO2 SLP126 T01171039 53010,0,6.0,0,16090,0,0,0,
2026-04-13 13:53:00,METAR KMTJ 131353Z AUTO 08007KT 10SM CLR 11/M06 A3005 RMK AO2 SLP122 T01061056,0,7.0,0,16090,0,0,0,
2026-04-13 12:53:00,METAR KMTJ 131253Z AUTO 22015G22KT 10SM CLR 10/M06 A3002 RMK AO2 PK WND 21027/1217 SLP108 T01001056,0,15.0,1,16090,0,0,0,
2026-04-13 11:53:00,METAR KMTJ 131153Z AUTO 20012KT 10SM CLR 10/M06 A3002 RMK AO2 SLP107 T01001061 10139 20100 51010,0,12.0,0,16090,0,0,0,
2026-04-13 10:53:00,METAR KMTJ 131053Z AUTO 19010G15KT 10SM CLR 11/M08 A3002 RMK AO2 SLP107 T01061078,0,10.0,1,16090,0,0,0,
2026-04-13 09:53:00,METAR KMTJ 130953Z AUTO 21012G18KT 10SM CLR 11/M09 A3000 RMK AO2 SLP098 T01111089,0,12.0,1,16090,0,0,0,
2026-04-13 08:53:00,METAR KMTJ 130853Z AUTO 17013G16KT 10SM CLR 12/M09 A2999 RMK AO2 SLP093 T01171094 51014,0,13.0,1,16090,0,0,0,
2026-04-13 07:53:00,METAR KMTJ 130753Z AUTO 00000KT 10SM CLR 11/M09 A2998 RMK AO2 SLP087 T01111094,0,0.0,0,16090,0,0,0,
2026-04-13 06:53:00,METAR KMTJ 130653Z AUTO 13007KT 10SM CLR 13/M10 A2996 RMK AO2 SLP080 T01281100 402110089,0,7.0,0,16090,0,0,0,
2026-04-13 05:53:00,METAR KMTJ 130553Z AUTO 14005KT 10SM CLR 13/M11 A2994 RMK AO2 SLP074 T01281111 10194 20128 51014,0,5.0,0,16090,0,0,0,
2026-04-13 04:53:00,METAR KMTJ 130453Z AUTO 19007KT 10SM CLR 14/M11 A2992 RMK AO2 SLP068 T01391106,0,7.0,0,16090,0,0,0,
2026-04-13 03:53:00,METAR KMTJ 130353Z AUTO 16012KT 10SM CLR 13/M04 A2991 RMK AO2 SLP068 T01331044,0,12.0,0,16090,0,0,0,
2026-04-13 02:53:00,METAR KMTJ 130253Z AUTO 14016G21KT 10SM CLR 14/M06 A2989 RMK AO2 PK WND 17027/0159 SLP061 T01441056 53005,0,16.0,1,16090,0,0,0,
2026-04-13 01:53:00,METAR KMTJ 130153Z AUTO 19017G24KT 10SM CLR 16/M06 A2989 RMK AO2 PK WND 20031/0132 SLP062 T01611061,0,17.0,1,16090,0,0,0,
2026-04-13 00:53:00,METAR KMTJ 130053Z AUTO 22009G19KT 10SM CLR 18/M08 A2987 RMK AO2 PK WND 19033/0003 SLP060 T01831083,0,9.0,1,16090,0,0,0,
2026-04-12 23:53:00,METAR KMTJ 122353Z AUTO 21014G30KT 10SM FEW110 19/M08 A2987 RMK AO2 PK WND 21037/2307 SLP053 T01941078 10211 20189 56009,0,14.0,1,16090,0,0,0,
2026-04-12 22:53:00,METAR KMTJ 122253Z AUTO 24016G30KT 10SM FEW110 19/M08 A2987 RMK AO2 PK WND 21033/2209 SLP053 T01941078,0,16.0,1,16090,0,0,0,
2026-04-12 21:53:00,METAR KMTJ 122153Z AUTO 26015G33KT 10SM FEW120 19/M09 A2990 RMK AO2 PK WND 23033/2144 SLP065 T01941089,0,15.0,1,16090,0,0,0,
2026-04-12 20:53:00,METAR KMTJ 122053Z AUTO 23012G26KT 7SM CLR 19/M10 A2991 RMK AO2 PK WND 18030/2021 SLP068 T01941100 56010,0,12.0,1,11263,0,0,0,
2026-04-12 19:53:00,METAR KMTJ 121953Z AUTO 25012G27KT 230V300 10SM CLR 21/M11 A2991 RMK AO2 PK WND 24027/1922 SLP058 T02061111,0,12.0,1,16090,0,0,0,
2026-04-12 18:53:00,METAR KMTJ 121853Z AUTO 24013G25KT 10SM CLR 20/M11 A2992 RMK AO2 PK WND 23033/1823 SLP070 T02001106,0,13.0,1,16090,0,0,0,
2026-04-12 17:53:00,METAR KMTJ 121753Z AUTO 19011G30KT 10SM CLR 19/M10 A2994 RMK AO2 PK WND 20032/1713 SLP083 T01891100 10189 20094 56009,0,11.0,1,16090,0,0,0,
2026-04-12 16:53:00,METAR KMTJ 121653Z AUTO 21011G23KT 10SM CLR 18/M10 A2995 RMK AO2 PK WND 20027/1608 SLP084 T01831100,0,11.0,1,16090,0,0,0,
2026-04-12 15:53:00,METAR KMTJ 121553Z AUTO 23014KT 10SM CLR 17/M09 A2996 RMK AO2 PK WND 19027/1528 SLP089 T01671089,0,14.0,0,16090,0,0,0,
2026-04-12 14:53:00,METAR KMTJ 121453Z AUTO 21014G22KT 10SM CLR 15/M06 A2997 RMK AO2 PK WND 19026/1416 SLP095 T01501056 50005,0,14.0,1,16090,0,0,0,
2026-04-12 13:53:00,METAR KMTJ 121353Z AUTO 19019G26KT 10SM CLR 13/M05 A2997 RMK AO2 PK WND 20026/1333 SLP092 T01281050,0,19.0,1,16090,0,0,0,
2026-04-12 12:53:00,METAR KMTJ 121253Z AUTO 20003KT 10SM CLR 09/M04 A2997 RMK AO2 SLP093 T00941039,0,3.0,0,16090,0,0,0,
2026-04-12 11:53:00,METAR KMTJ 121153Z AUTO 15007KT 10SM CLR 11/M03 A2995 RMK AO2 SLP084 T01111033 10144 20078 51000,0,7.0,0,16090,0,0,0,
2026-04-12 10:53:00,METAR KMTJ 121053Z AUTO VRB04KT 10SM CLR 11/M04 A2995 RMK AO2 SLP084 T01111039,0,4.0,0,16090,0,0,0,
2026-04-12 09:53:00,METAR KMTJ 120953Z AUTO 11006KT 10SM CLR 09/M04 A2995 RMK AO2 SLP088 T00941039,0,6.0,0,16090,0,0,0,
2026-04-12 08:53:00,METAR KMTJ 120853Z AUTO 10003KT 10SM FEW100 09/M03 A2995 RMK AO2 SLP095 T00941033 58002,0,3.0,0,16090,0,0,0,
2026-04-12 07:53:00,METAR KMTJ 120753Z AUTO 20011G18KT 10SM CLR 14/M04 A2996 RMK AO2 SLP091 T01391039,0,11.0,1,16090,0,0,0,
2026-04-12 06:53:00,METAR KMTJ 120653Z AUTO 19007KT 10SM CLR 09/M03 A2997 RMK AO2 SLP102 T00941028 401890078,0,7.0,0,16090,0,0,0,
2026-04-12 05:53:00,METAR KMTJ 120553Z AUTO 17004KT 10SM CLR 09/M03 A2996 RMK AO2 SLP091 T00891033 10189 20078 50003,0,4.0,0,16090,0,0,0,
2026-04-12 04:53:00,METAR KMTJ 120453Z AUTO 16009KT 10SM CLR 11/M03 A2996 RMK AO2 SLP090 T01061033,0,9.0,0,16090,0,0,0,
2026-04-12 03:53:00,METAR KMTJ 120353Z AUTO 12007KT 10SM CLR 11/M02 A2996 RMK AO2 SLP089 T01061022,0,7.0,0,16090,0,0,0,
2026-04-12 02:53:00,METAR KMTJ 120253Z AUTO 11006KT 10SM CLR 12/M02 A2995 RMK AO2 SLP087 T01171017 53003,0,6.0,0,16090,0,0,0,
2026-04-12 01:53:00,METAR KMTJ 120153Z AUTO 10007KT 10SM CLR 16/M02 A2994 RMK AO2 SLP077 T01561022,0,7.0,0,16090,0,0,0,
2026-04-12 00:53:00,METAR KMTJ 120053Z AUTO 23011G22KT 10SM BKN090 18/M03 A2994 RMK AO2 PK WND 19027/0032 WSHFT 0025 SLP074 T01831028,0,11.0,1,16090,0,0,0,
2026-04-12 00:45:00,SPECI KMTJ 120045Z AUTO 22014G22KT 10SM SCT090 BKN120 18/M03 A2994 RMK AO2 PK WND 19027/0032 WSHFT 0025 T01831028,0,14.0,1,16090,0,0,0,
2026-04-11 23:53:00,METAR KMTJ 112353Z AUTO 28007KT 240V310 10SM CLR 18/M03 A2994 RMK AO2 SLP071 T01831028 10189 20117 56029,0,7.0,0,16090,0,0,0,
2026-04-11 22:53:00,METAR KMTJ 112253Z AUTO 21013G20KT 160V230 10SM FEW095 19/M03 A2995 RMK AO2 PK WND 18031/2155 SLP075 T01891033,0,13.0,1,16090,0,0,0,
2026-04-11 21:53:00,METAR KMTJ 112153Z AUTO 21014G40KT 10SM CLR 18/M02 A2999 RMK AO2 PK WND 17040/2147 WSHFT 2103 SLP094 T01781017,0,14.0,1,16090,0,0,0,
2026-04-11 21:23:00,SPECI KMTJ 112123Z AUTO 20007G18KT 170V240 10SM CLR 16/00 A3001 RMK AO2 WSHFT 2103 T01610000,0,7.0,1,16090,0,0,0,
2026-04-11 20:53:00,METAR KMTJ 112053Z AUTO 11014G22KT 10SM CLR 13/01 A3004 RMK AO2 PK WND 22032/2012 SLP128 T01330006 58004,0,14.0,1,16090,0,0,0,
2026-04-11 19:53:00,METAR KMTJ 111953Z AUTO 22018G31KT 10SM FEW100 SCT120 14/01 A3004 RMK AO2 PK WND 25035/1902 SLP125 T01390011,0,18.0,1,16090,0,0,0,
2026-04-11 18:53:00,METAR KMTJ 111853Z AUTO 24022G33KT 10SM BKN085 OVC110 13/02 A3005 RMK AO2 PK WND 27042/1831 WSHFT 1809 SLP124 T01280022,0,22.0,1,16090,0,0,0,
2026-04-11 18:48:00,SPECI KMTJ 111848Z AUTO 23022G32KT 10SM BKN090 OVC110 13/03 A3005 RMK AO2 PK WND 27042/1831 WSHFT 1809,0,22.0,1,16090,0,0,0,
2026-04-11 18:41:00,SPECI KMTJ 111841Z AUTO 25020G41KT 2 1/2SM HZ OVC085 13/03 A3005 RMK AO2 PK WND 27042/1831 WSHFT 1809 T01280028,0,20.0,1,4022,0,0,0,
2026-04-11 18:29:00,SPECI KMTJ 111829Z AUTO 28022G35KT 10SM OVC085 15/02 A3003 RMK AO2 PK WND 27035/1829 WSHFT 1809 T01500017,0,22.0,1,16090,0,0,0,
2026-04-11 17:53:00,METAR KMTJ 111753Z AUTO 21016G25KT 10SM OVC100 17/M03 A3002 RMK AO2 WSHFT 1659 LTG DSNT N AND NW SLP103 T01721033 10172 20139 56008,0,16.0,1,16090,0,0,0,DS
2026-04-11 17:19:00,SPECI KMTJ 111719Z AUTO 19015G21KT 10SM BKN100 OVC120 17/M03 A3003 RMK AO2 WSHFT 1659 T01721033,0,15.0,1,16090,0,0,0,
2026-04-11 16:53:00,METAR KMTJ 111653Z AUTO 12007KT 10SM BKN100 OVC110 17/00 A3003 RMK AO2 SLP105 T01670000,0,7.0,0,16090,0,0,0,
2026-04-11 15:53:00,METAR KMTJ 111553Z AUTO 11009KT 10SM SCT110 17/01 A3003 RMK AO2 SLP107 T01670006,0,9.0,0,16090,0,0,0,
2026-04-11 14:53:00,METAR KMTJ 111453Z AUTO 10006KT 10SM CLR 14/01 A3005 RMK AO2 WSHFT 1344 SLP116 T01440011 50005,0,6.0,0,16090,0,0,0,
2026-04-11 14:04:00,SPECI KMTJ 111404Z AUTO 11004KT 10SM CLR 14/00 A3006 RMK AO2 WSHFT 1344 T01440000,0,4.0,0,16090,0,0,0,
2026-04-11 13:53:00,METAR KMTJ 111353Z AUTO 14011KT 10SM CLR 14/M01 A3006 RMK AO2 PK WND 21027/1254 SLP116 T01391006,0,11.0,0,16090,0,0,0,
2026-04-11 12:53:00,METAR KMTJ 111253Z AUTO 20016G26KT 10SM CLR 14/M02 A3005 RMK AO2 PK WND 19033/1217 SLP108 T01441017,0,16.0,1,16090,0,0,0,
2026-04-11 11:53:00,METAR KMTJ 111153Z AUTO 19019G28KT 10SM FEW110 15/M03 A3003 RMK AO2 PK WND 20028/1152 SLP098 T01501028 10156 20083 50000,0,19.0,1,16090,0,0,0,
2026-04-11 10:53:00,METAR KMTJ 111053Z AUTO 20015KT 10SM SCT110 15/M02 A3003 RMK AO2 SLP097 T01501022,0,15.0,0,16090,0,0,0,
2026-04-11 09:53:00,METAR KMTJ 110953Z AUTO 15008KT 10SM CLR 12/M02 A3004 RMK AO2 SLP108 T01171017,0,8.0,0,16090,0,0,0,
2026-04-11 08:53:00,METAR KMTJ 110853Z AUTO 13007KT 10SM FEW120 09/M02 A3003 RMK AO2 SLP109 T00891017 58000,0,7.0,0,16090,0,0,0,
2026-04-11 07:53:00,METAR KMTJ 110753Z AUTO 14005KT 10SM CLR 10/M03 A3004 RMK AO2 SLP109 T01001028,0,5.0,0,16090,0,0,0,
2026-04-11 06:53:00,METAR KMTJ 110653Z AUTO 13008KT 10SM CLR 13/M02 A3004 RMK AO2 SLP102 T01331017 402330094,0,8.0,0,16090,0,0,0,
2026-04-11 05:53:00,METAR KMTJ 110553Z AUTO 15010KT 10SM CLR 16/M02 A3004 RMK AO2 SLP101 T01561022 10222 20150 51005,0,10.0,0,16090,0,0,0,
2026-04-11 04:53:00,METAR KMTJ 110453Z AUTO 18010KT 10SM CLR 16/M02 A3004 RMK AO2 SLP104 T01561022,0,10.0,0,16090,0,0,0,
2026-04-11 03:53:00,METAR KMTJ 110353Z AUTO 18012KT 10SM CLR 15/M04 A3004 RMK AO2 SLP111 T01501044,0,12.0,0,16090,0,0,0,
2026-04-11 02:53:00,METAR KMTJ 110253Z AUTO 21005KT 10SM CLR 17/M06 A3002 RMK AO2 SLP102 T01671056 53001,0,5.0,0,16090,0,0,0,
2026-04-11 01:53:00,METAR KMTJ 110153Z AUTO 23004KT 10SM CLR 19/M06 A3001 RMK AO2 SLP098 T01941056,0,4.0,0,16090,0,0,0,
2026-04-11 00:53:00,METAR KMTJ 110053Z AUTO 22010G18KT 10SM CLR 21/M06 A3002 RMK AO2 PK WND 21026/2359 SLP104 T02111061,0,10.0,1,16090,0,0,0,
2026-04-10 23:53:00,METAR KMTJ 102353Z AUTO 22011G21KT 10SM CLR 22/M08 A3002 RMK AO2 PK WND 26027/2302 SLP099 T02221083 10233 20206 55006,0,11.0,1,16090,0,0,0,
2026-04-10 22:53:00,METAR KMTJ 102253Z AUTO 22011KT 10SM CLR 22/M07 A3001 RMK AO2 PK WND 22026/2209 SLP096 T02221067,0,11.0,0,16090,0,0,0,
2026-04-10 21:53:00,METAR KMTJ 102153Z AUTO 25013KT 10SM CLR 22/M06 A3003 RMK AO2 SLP105 T02171061,0,13.0,0,16090,0,0,0,
2026-04-10 20:53:00,METAR KMTJ 102053Z AUTO 24019G29KT 8SM CLR 22/M08 A3004 RMK AO2 PK WND 24031/2002 SLP104 T02221078 56016,0,19.0,1,12872,0,0,0,
2026-04-10 19:53:00,METAR KMTJ 101953Z AUTO 24016G29KT 9SM CLR 22/M09 A3005 RMK AO2 PK WND 25029/1949 SLP110 T02221089,0,16.0,1,14481,0,0,0,
2026-04-10 19:15:00,SPECI KMTJ 101915Z AUTO 23016G28KT 5SM HZ FEW003 22/M10 A3006 RMK AO2 PK WND 26028/1908 T02221100,0,16.0,1,8045,0,0,0,
2026-04-10 18:53:00,METAR KMTJ 101853Z AUTO 24013G26KT 10SM CLR 23/M10 A3007 RMK AO2 PK WND 26026/1848 SLP113 T02281100,0,13.0,1,16090,0,0,0,
2026-04-10 17:53:00,METAR KMTJ 101753Z AUTO 10SM CLR 21/M06 A3009 RMK AO2 SLP124 T02061056 10211 20094 58002,0,,0,16090,0,0,0,
2026-04-10 16:53:00,METAR KMTJ 101653Z AUTO 32007KT 10SM CLR 18/M03 A3011 RMK AO2 SLP131 T01831033,0,7.0,0,16090,0,0,0,
2026-04-10 15:53:00,METAR KMTJ 101553Z AUTO 35008KT 10SM CLR 16/M03 A3010 RMK AO2 SLP132 T01561028,0,8.0,0,16090,0,0,0,
2026-04-10 14:53:00,METAR KMTJ 101453Z AUTO 11006KT 10SM CLR 16/M04 A3010 RMK AO2 SLP126 T01561044 50008,0,6.0,0,16090,0,0,0,
2026-04-10 13:53:00,METAR KMTJ 101353Z AUTO 11008KT 10SM CLR 14/M04 A3010 RMK AO2 SLP129 T01391044,0,8.0,0,16090,0,0,0,
2026-04-10 12:53:00,METAR KMTJ 101253Z AUTO 13006KT 10SM SCT120 10/M05 A3008 RMK AO2 SLP123 T01001050,0,6.0,0,16090,0,0,0,
2026-04-10 11:53:00,METAR KMTJ 101153Z AUTO 16004KT 10SM FEW110 11/M05 A3007 RMK AO2 SLP116 T01061050 10133 20100 53005,0,4.0,0,16090,0,0,0,
2026-04-10 10:53:00,METAR KMTJ 101053Z AUTO 14007KT 10SM CLR 12/M06 A3006 RMK AO2 SLP110 T01171056,0,7.0,0,16090,0,0,0,
2026-04-10 09:53:00,METAR KMTJ 100953Z AUTO 14006KT 10SM SCT120 11/M04 A3006 RMK AO2 SLP111 T01061044,0,6.0,0,16090,0,0,0,
2026-04-10 08:53:00,METAR KMTJ 100853Z AUTO 12008KT 10SM FEW120 12/M06 A3005 RMK AO2 SLP107 T01171056 50000,0,8.0,0,16090,0,0,0,
2026-04-10 07:53:00,METAR KMTJ 100753Z AUTO 15006KT 10SM CLR 11/M04 A3006 RMK AO2 SLP112 T01111044,0,6.0,0,16090,0,0,0,
2026-04-10 06:53:00,METAR KMTJ 100653Z AUTO 12006KT 10SM CLR 12/M06 A3006 RMK AO2 SLP112 T01221061 402500078,0,6.0,0,16090,0,0,0,
2026-04-10 05:53:00,METAR KMTJ 100553Z AUTO 13008KT 10SM CLR 13/M07 A3005 RMK AO2 SLP109 T01331067 10239 20133 50009,0,8.0,0,16090,0,0,0,
2026-04-10 04:53:00,METAR KMTJ 100453Z AUTO 11009KT 10SM CLR 14/M08 A3006 RMK AO2 SLP111 T01441083,0,9.0,0,16090,0,0,0,
2026-04-10 03:53:00,METAR KMTJ 100353Z AUTO 09005KT 10SM CLR 15/M07 A3005 RMK AO2 SLP111 T01501072,0,5.0,0,16090,0,0,0,
2026-04-10 02:53:00,METAR KMTJ 100253Z AUTO 20007KT 10SM CLR 18/M08 A3002 RMK AO2 SLP104 T01831083 53009,0,7.0,0,16090,0,0,0,
2026-04-10 01:53:00,METAR KMTJ 100153Z AUTO 25005KT 10SM CLR 19/M07 A3001 RMK AO2 SLP102 T01941072,0,5.0,0,16090,0,0,0,
2026-04-10 00:53:00,METAR KMTJ 100053Z AUTO 24009KT 10SM CLR 22/M08 A2999 RMK AO2 SLP095 T02221083,0,9.0,0,16090,0,0,0,
2026-04-09 23:53:00,METAR KMTJ 092353Z AUTO 26011KT 10SM CLR 24/M08 A2999 RMK AO2 SLP087 T02391083 10250 20217 56007,0,11.0,0,16090,0,0,0,
2026-04-09 22:53:00,METAR KMTJ 092253Z AUTO 25012G18KT 10SM CLR 24/M07 A3000 RMK AO2 SLP087 T02441072,0,12.0,1,16090,0,0,0,
2026-04-09 21:53:00,METAR KMTJ 092153Z AUTO 27014G26KT 10SM CLR 23/M08 A3000 RMK AO2 PK WND 27026/2147 SLP092 T02331078,0,14.0,1,16090,0,0,0,
2026-04-09 20:53:00,METAR KMTJ 092053Z AUTO 24011G19KT 10SM CLR 25/M08 A3002 RMK AO2 SLP097 T02501083 56014,0,11.0,1,16090,0,0,0,
2026-04-09 19:53:00,METAR KMTJ 091953Z AUTO 28014G21KT 9SM FEW120 24/M08 A3003 RMK AO2 PK WND 28026/1857 SLP099 T02391083,0,14.0,1,14481,0,0,0,
2026-04-09 18:53:00,METAR KMTJ 091853Z AUTO 25013G22KT 10SM CLR 23/M08 A3004 RMK AO2 SLP105 T02331083,0,13.0,1,16090,0,0,0,
2026-04-09 17:53:00,METAR KMTJ 091753Z AUTO 06006KT 10SM CLR 22/M07 A3006 RMK AO2 SLP116 T02171067 10217 20078 58005,0,6.0,0,16090,0,0,0,
2026-04-09 16:53:00,METAR KMTJ 091653Z AUTO 00000KT 10SM CLR 19/M06 A3008 RMK AO2 SLP125 T01941061,0,0.0,0,16090,0,0,0,
2026-04-09 15:53:00,METAR KMTJ 091553Z AUTO 14007KT 10SM CLR 18/M06 A3008 RMK AO2 SLP126 T01781056,0,7.0,0,16090,0,0,0,
2026-04-09 14:53:00,METAR KMTJ 091453Z AUTO 15006KT 10SM CLR 13/M05 A3008 RMK AO2 SLP130 T01331050 51011,0,6.0,0,16090,0,0,0,
2026-04-09 13:53:00,METAR KMTJ 091353Z AUTO 15003KT 10SM CLR 10/M04 A3008 RMK AO2 SLP126 T01001039,0,3.0,0,16090,0,0,0,
2026-04-09 12:53:00,METAR KMTJ 091253Z AUTO 00000KT 10SM FEW110 09/M04 A3006 RMK AO2 SLP117 T00891044,0,0.0,0,16090,0,0,0,
2026-04-09 11:53:00,METAR KMTJ 091153Z AUTO 17007KT 10SM SCT120 12/M05 A3005 RMK AO2 RAE1057 SLP110 P0000 60000 T01171050 10128 20094 51003,0,7.0,0,16090,0,0,0,RA
2026-04-09 10:53:00,METAR KMTJ 091053Z AUTO 15014G18KT 10SM -RA FEW041 SCT120 12/M04 A3004 RMK AO2 RAB47 SLP105 P0000 T01221039,0,14.0,1,16090,0,0,0,-RA
2026-04-09 09:53:00,METAR KMTJ 090953Z AUTO 12008KT 10SM CLR 11/M04 A3004 RMK AO2 SLP106 T01061044,0,8.0,0,16090,0,0,0,
2026-04-09 08:53:00,METAR KMTJ 090853Z AUTO 11007KT 10SM CLR 09/M04 A3003 RMK AO2 SLP107 T00941044 58001,0,7.0,0,16090,0,0,0,
2026-04-09 07:53:00,METAR KMTJ 090753Z AUTO 14006KT 10SM CLR 12/M04 A3004 RMK AO2 SLP107 T01171044,0,6.0,0,16090,0,0,0,
2026-04-09 06:53:00,METAR KMTJ 090653Z AUTO 13008KT 10SM CLR 12/M06 A3004 RMK AO2 SLP106 T01171056 402390044,0,8.0,0,16090,0,0,0,
2026-04-09 05:53:00,METAR KMTJ 090553Z AUTO 13008KT 10SM CLR 11/M04 A3004 RMK AO2 SLP110 T01111044 10217 20106 51006,0,8.0,0,16090,0,0,0,
2026-04-09 04:53:00,METAR KMTJ 090453Z AUTO 12008KT 10SM CLR 12/M06 A3004 RMK AO2 SLP114 T01171061,0,8.0,0,16090,0,0,0,
2026-04-09 03:53:00,METAR KMTJ 090353Z AUTO 10005KT 10SM CLR 12/M06 A3004 RMK AO2 SLP120 T01171056,0,5.0,0,16090,0,0,0,
2026-04-09 02:53:00,METAR KMTJ 090253Z AUTO 12007KT 10SM CLR 15/M07 A3001 RMK AO2 SLP110 T01501067 53008,0,7.0,0,16090,0,0,0,
2026-04-09 01:53:00,METAR KMTJ 090153Z AUTO 13003KT 10SM CLR 20/M08 A2999 RMK AO2 SLP100 T02001078,0,3.0,0,16090,0,0,0,
2026-04-09 00:53:00,METAR KMTJ 090053Z AUTO 07006KT 10SM CLR 22/M08 A2999 RMK AO2 SLP101 T02171083,0,6.0,0,16090,0,0,0,
2026-04-08 23:53:00,METAR KMTJ 082353Z AUTO 04008KT 10SM FEW075 BKN110 21/M08 A2999 RMK AO2 PK WND 30039/2334 SLP100 T02111078 10239 20200 55005,0,8.0,0,16090,0,0,0,
2026-04-08 23:41:00,SPECI KMTJ 082341Z AUTO 34008G39KT 300V020 4SM HZ SQ FEW001 SCT095 BKN120 21/M08 A2999 RMK AO2 PK WND 30039/2334 T02111078,0,8.0,1,6436,0,0,0,SQ
2026-04-08 22:53:00,METAR KMTJ 082253Z AUTO 36008G15KT 10SM CLR 23/M08 A2998 RMK AO2 SLP094 T02331083,0,8.0,1,16090,0,0,0,
2026-04-08 21:53:00,METAR KMTJ 082153Z AUTO 34009KT 10SM SCT120 24/M08 A2999 RMK AO2 SLP093 T02391083,0,9.0,0,16090,0,0,0,
2026-04-08 20:53:00,METAR KMTJ 082053Z AUTO 33008G17KT 10SM CLR 23/M08 A3000 RMK AO2 SLP098 T02281083 56016,0,8.0,1,16090,0,0,0,
2026-04-08 19:53:00,METAR KMTJ 081953Z AUTO 31005KT 10SM CLR 22/M08 A3002 RMK AO2 SLP106 T02171078,0,5.0,0,16090,0,0,0,
2026-04-08 18:53:00,METAR KMTJ 081853Z AUTO 34005KT 10SM CLR 22/M08 A3004 RMK AO2 SLP112 T02171078,0,5.0,0,16090,0,0,0,
2026-04-08 17:53:00,METAR KMTJ 081753Z AUTO VRB06KT 10SM CLR 20/M07 A3006 RMK AO2 SLP117 T02001072 10200 20044 58006,0,6.0,0,16090,0,0,0,
2026-04-08 16:53:00,METAR KMTJ 081653Z AUTO 00000KT 10SM CLR 17/M06 A3008 RMK AO2 SLP128 T01721061,0,0.0,0,16090,0,0,0,
2026-04-08 15:53:00,METAR KMTJ 081553Z AUTO 34003KT 10SM CLR 14/M07 A3008 RMK AO2 SLP133 T01391067,0,3.0,0,16090,0,0,0,
2026-04-08 14:53:00,METAR KMTJ 081453Z AUTO 00000KT 10SM CLR 12/M05 A3008 RMK AO2 SLP133 T01171050 51012,0,0.0,0,16090,0,0,0,
2026-04-08 13:53:00,METAR KMTJ 081353Z AUTO 16004KT 10SM CLR 07/M05 A3007 RMK AO2 SLP133 T00721050,0,4.0,0,16090,0,0,0,
2026-04-08 12:53:00,METAR KMTJ 081253Z AUTO 17004KT 10SM CLR 05/M06 A3005 RMK AO2 SLP125 T00501056,0,4.0,0,16090,0,0,0,
2026-04-08 11:53:00,METAR KMTJ 081153Z AUTO 15008KT 10SM CLR 06/M06 A3004 RMK AO2 SLP117 T00561061 10106 20056 53001,0,8.0,0,16090,0,0,0,
2026-04-08 10:53:00,METAR KMTJ 081053Z AUTO 13009KT 10SM CLR 06/M06 A3004 RMK AO2 SLP116 T00611061,0,9.0,0,16090,0,0,0,
2026-04-08 09:53:00,METAR KMTJ 080953Z AUTO 14009KT 10SM CLR 07/M07 A3003 RMK AO2 SLP113 T00721067,0,9.0,0,16090,0,0,0,
2026-04-08 08:53:00,METAR KMTJ 080853Z AUTO 14008KT 10SM CLR 08/M06 A3003 RMK AO2 SLP115 T00781056 51006,0,8.0,0,16090,0,0,0,
2026-04-08 07:53:00,METAR KMTJ 080753Z AUTO 13008KT 10SM CLR 08/M04 A3003 RMK AO2 SLP113 T00781044,0,8.0,0,16090,0,0,0,
2026-04-08 06:53:00,METAR KMTJ 080653Z AUTO 15007KT 10SM CLR 08/M04 A3003 RMK AO2 SLP113 T00781044 402170061,0,7.0,0,16090,0,0,0,
2026-04-08 05:53:00,METAR KMTJ 080553Z AUTO 13008KT 10SM CLR 11/M04 A3001 RMK AO2 SLP104 T01061039 10217 20106 50004,0,8.0,0,16090,0,0,0,
2026-04-08 04:53:00,METAR KMTJ 080453Z AUTO 13008KT 10SM CLR 11/M03 A3002 RMK AO2 SLP107 T01111028,0,8.0,0,16090,0,0,0,
2026-04-08 03:53:00,METAR KMTJ 080353Z AUTO 14007KT 10SM FEW100 12/M03 A3002 RMK AO2 SLP110 T01221033,0,7.0,0,16090,0,0,0,
2026-04-08 02:53:00,METAR KMTJ 080253Z AUTO 14005KT 10SM CLR 15/M03 A3000 RMK AO2 SLP101 T01501033 53012,0,5.0,0,16090,0,0,0,
2026-04-08 01:53:00,METAR KMTJ 080153Z AUTO 21004KT 10SM CLR 17/M08 A2997 RMK AO2 SLP096 T01721083,0,4.0,0,16090,0,0,0,
2026-04-08 00:53:00,METAR KMTJ 080053Z AUTO 33010KT 10SM CLR 20/M11 A2997 RMK AO2 SLP090 T02001106,0,10.0,0,16090,0,0,0,
2026-04-07 23:53:00,METAR KMTJ 072353Z AUTO 30009KT 10SM CLR 22/M11 A2996 RMK AO2 SLP084 T02171106 10217 20189 55008,0,9.0,0,16090,0,0,0,
2026-04-07 22:53:00,METAR KMTJ 072253Z AUTO 33008G18KT 290V360 10SM SCT100 22/M05 A2996 RMK AO2 SLP086 T02171050,0,8.0,1,16090,0,0,0,
2026-04-07 21:53:00,METAR KMTJ 072153Z AUTO 22012KT 10SM FEW090 22/M03 A2996 RMK AO2 SLP087 T02171033,0,12.0,0,16090,0,0,0,
2026-04-07 20:53:00,METAR KMTJ 072053Z AUTO 25006KT 10SM FEW065 SCT095 20/M04 A2998 RMK AO2 SLP096 T02001039 56021,0,6.0,0,16090,0,0,0,
2026-04-07 19:53:00,METAR KMTJ 071953Z AUTO 25007G15KT 200V280 10SM CLR 21/M03 A3001 RMK AO2 SLP101 T02061028,0,7.0,1,16090,0,0,0,
2026-04-07 18:53:00,METAR KMTJ 071853Z AUTO 10SM CLR 19/M03 A3003 RMK AO2 SLP108 T01941028,0,,0,16090,0,0,0,
2026-04-07 17:53:00,METAR KMTJ 071753Z AUTO 00000KT 10SM CLR 19/M03 A3006 RMK AO2 SLP118 T01891033 10189 20078 58009,0,0.0,0,16090,0,0,0,
2026-04-07 16:53:00,METAR KMTJ 071653Z AUTO 22003KT 10SM CLR 17/M03 A3008 RMK AO2 SLP125 T01721028,0,3.0,0,16090,0,0,0,
2026-04-07 15:53:00,METAR KMTJ 071553Z AUTO 08004KT 10SM OVC100 15/M02 A3009 RMK AO2 SLP131 T01501017,0,4.0,0,16090,0,0,0,
2026-04-07 14:53:00,METAR KMTJ 071453Z AUTO VRB03KT 10SM BKN090 14/M01 A3009 RMK AO2 SLP130 T01391011 53005,0,3.0,0,16090,0,0,0,
2026-04-07 13:53:00,METAR KMTJ 071353Z AUTO 19008KT 10SM BKN100 09/M01 A3009 RMK AO2 SLP136 T00891011,0,8.0,0,16090,0,0,0,
2026-04-07 12:53:00,METAR KMTJ 071253Z AUTO 17008KT 10SM OVC095 09/M02 A3008 RMK AO2 SLP130 T00891017,0,8.0,0,16090,0,0,0,
2026-04-07 11:53:00,METAR KMTJ 071153Z AUTO 00000KT 10SM BKN090 BKN120 08/M02 A3008 RMK AO2 SLP128 T00781022 10117 20061 53003,0,0.0,0,16090,0,0,0,
2026-04-07 10:53:00,METAR KMTJ 071053Z AUTO 13004KT 10SM BKN100 07/M03 A3006 RMK AO2 SLP125 T00671028,0,4.0,0,16090,0,0,0,
2026-04-07 09:53:00,METAR KMTJ 070953Z AUTO 13005KT 10SM OVC100 08/M02 A3006 RMK AO2 SLP124 T00781022,0,5.0,0,16090,0,0,0,
2026-04-07 08:53:00,METAR KMTJ 070853Z AUTO 12004KT 10SM BKN100 09/M02 A3006 RMK AO2 SLP122 T00891022 50000,0,4.0,0,16090,0,0,0,
2026-04-07 07:53:00,METAR KMTJ 070753Z AUTO 15007KT 10SM BKN100 11/M02 A3007 RMK AO2 SLP119 T01061017,0,7.0,0,16090,0,0,0,
2026-04-07 06:53:00,METAR KMTJ 070653Z AUTO 13007KT 10SM CLR 12/M02 A3007 RMK AO2 SLP121 T01171022 402220006,0,7.0,0,16090,0,0,0,
2026-04-07 05:53:00,METAR KMTJ 070553Z AUTO 13009KT 10SM CLR 12/M02 A3006 RMK AO2 SLP122 T01171017 10206 20117 58003,0,9.0,0,16090,0,0,0,
2026-04-07 04:53:00,METAR KMTJ 070453Z AUTO 12009KT 10SM SCT100 13/M02 A3007 RMK AO2 SLP124 T01331017,0,9.0,0,16090,0,0,0,
2026-04-07 03:53:00,METAR KMTJ 070353Z AUTO 15014KT 10SM OVC100 15/M01 A3007 RMK AO2 SLP130 T01501011,0,14.0,0,16090,0,0,0,
2026-04-07 02:53:00,METAR KMTJ 070253Z AUTO 16009KT 10SM BKN110 17/M02 A3007 RMK AO2 SLP133 T01671022 53009,0,9.0,0,16090,0,0,0,
2026-04-07 01:53:00,METAR KMTJ 070153Z AUTO 23006KT 10SM FEW100 18/M04 A3004 RMK AO2 SLP129 T01781044,0,6.0,0,16090,0,0,0,
2026-04-07 00:53:00,METAR KMTJ 070053Z AUTO 23007KT 10SM BKN110 19/M05 A3004 RMK AO2 SLP128 T01941050,0,7.0,0,16090,0,0,0,
2026-04-06 23:53:00,METAR KMTJ 062353Z AUTO 26008KT 10SM FEW110 21/M07 A3004 RMK AO2 SLP128 T02061072 10222 20178 56012,0,8.0,0,16090,0,0,0,
2026-04-06 22:53:00,METAR KMTJ 062253Z AUTO 35006KT 10SM CLR 21/M09 A3005 RMK AO2 SLP128 T02061089,0,6.0,0,16090,0,0,0,
2026-04-06 21:53:00,METAR KMTJ 062153Z AUTO 36008G16KT 10SM CLR 21/M11 A3006 RMK AO2 SLP131 T02111106,0,8.0,1,16090,0,0,0,
2026-04-06 20:53:00,METAR KMTJ 062053Z AUTO 06007G17KT 10SM CLR 21/M11 A3008 RMK AO2 SLP135 T02111111 56030,0,7.0,1,16090,0,0,0,
2026-04-06 19:53:00,METAR KMTJ 061953Z AUTO 10SM CLR 21/M12 A3011 RMK AO2 SLP142 T02111117,0,,0,16090,0,0,0,
2026-04-06 18:53:00,METAR KMTJ 061853Z AUTO VRB04KT 10SM CLR 21/M09 A3015 RMK AO2 SLP155 T02061089,0,4.0,0,16090,0,0,0,
2026-04-06 17:53:00,METAR KMTJ 061753Z AUTO 30005KT 10SM CLR 18/M07 A3019 RMK AO2 SLP172 T01781072 10178 20006 56016,0,5.0,0,16090,0,0,0,
2026-04-06 16:53:00,METAR KMTJ 061653Z AUTO 34007KT 10SM CLR 15/M06 A3021 RMK AO2 SLP186 T01501061,0,7.0,0,16090,0,0,0,
2026-04-06 15:53:00,METAR KMTJ 061553Z AUTO 00000KT 10SM CLR 13/M08 A3022 RMK AO2 SLP191 T01281078,0,0.0,0,16090,0,0,0,
2026-04-06 14:53:00,METAR KMTJ 061453Z AUTO 16005KT 10SM CLR 09/M07 A3025 RMK AO2 SLP205 T00891072 58001,0,5.0,0,16090,0,0,0,
2026-04-06 13:53:00,METAR KMTJ 061353Z AUTO 15006KT 10SM CLR 04/M07 A3026 RMK AO2 SLP210 T00391067,0,6.0,0,16090,0,0,0,
2026-04-06 12:53:00,METAR KMTJ 061253Z AUTO 16007KT 10SM CLR 02/M07 A3025 RMK AO2 SLP207 T00171067,0,7.0,0,16090,0,0,0,
2026-04-06 11:53:00,METAR KMTJ 061153Z AUTO 15007KT 10SM CLR 01/M07 A3025 RMK AO2 SLP203 T00111067 10083 20011 55006,0,7.0,0,16090,0,0,0,
2026-04-06 10:53:00,METAR KMTJ 061053Z AUTO 17007KT 10SM CLR 03/M07 A3024 RMK AO2 SLP197 T00281067,0,7.0,0,16090,0,0,0,
2026-04-06 09:53:00,METAR KMTJ 060953Z AUTO 15005KT 10SM CLR 03/M07 A3026 RMK AO2 SLP204 T00331067,0,5.0,0,16090,0,0,0,
2026-04-06 08:53:00,METAR KMTJ 060853Z AUTO 18006KT 10SM CLR 05/M06 A3027 RMK AO2 SLP207 T00501061 58003,0,6.0,0,16090,0,0,0,
2026-04-06 07:53:00,METAR KMTJ 060753Z AUTO 12008KT 10SM CLR 07/M07 A3028 RMK AO2 SLP207 T00671072,0,8.0,0,16090,0,0,0,
2026-04-06 06:53:00,METAR KMTJ 060653Z AUTO 13010KT 10SM CLR 07/M07 A3028 RMK AO2 SLP211 T00721067 402061017,0,10.0,0,16090,0,0,0,
2026-04-06 05:53:00,METAR KMTJ 060553Z AUTO 13010KT 10SM CLR 08/M07 A3028 RMK AO2 SLP213 T00831067 10200 20078 51008,0,10.0,0,16090,0,0,0,
2026-04-06 04:53:00,METAR KMTJ 060453Z AUTO 14011KT 10SM CLR 08/M07 A3028 RMK AO2 SLP216 T00831067,0,11.0,0,16090,0,0,0,
2026-04-06 03:53:00,METAR KMTJ 060353Z AUTO 13008KT 10SM CLR 09/M07 A3028 RMK AO2 SLP219 T00891072,0,8.0,0,16090,0,0,0,
2026-04-06 02:53:00,METAR KMTJ 060253Z AUTO 13005KT 10SM CLR 11/M08 A3026 RMK AO2 SLP213 T01061078 53008,0,5.0,0,16090,0,0,0,
2026-04-06 01:53:00,METAR KMTJ 060153Z AUTO 29006KT 10SM CLR 15/M08 A3023 RMK AO2 SLP205 T01501078,0,6.0,0,16090,0,0,0,
2026-04-06 00:53:00,METAR KMTJ 060053Z AUTO 34010KT 10SM CLR 18/M10 A3023 RMK AO2 SLP203 T01831100,0,10.0,0,16090,0,0,0,
2026-04-05 23:53:00,METAR KMTJ 052353Z AUTO 33010KT 10SM CLR 20/M12 A3023 RMK AO2 SLP199 T02001117 10206 20133 56017,0,10.0,0,16090,0,0,0,
2026-04-05 22:53:00,METAR KMTJ 052253Z AUTO 01007KT 10SM CLR 21/M11 A3024 RMK AO2 SLP198 T02061111,0,7.0,0,16090,0,0,0,
2026-04-05 21:53:00,METAR KMTJ 052153Z AUTO 01008KT 10SM CLR 19/M11 A3025 RMK AO2 SLP204 T01941106,0,8.0,0,16090,0,0,0,
2026-04-05 20:53:00,METAR KMTJ 052053Z AUTO VRB04KT 10SM CLR 18/M09 A3029 RMK AO2 SLP216 T01831094 56023,0,4.0,0,16090,0,0,0,
2026-04-05 19:53:00,METAR KMTJ 051953Z AUTO 34005KT 10SM CLR 17/M08 A3031 RMK AO2 SLP225 T01721083,0,5.0,0,16090,0,0,0,
2026-04-05 18:53:00,METAR KMTJ 051853Z AUTO 10SM CLR 15/M07 A3034 RMK AO2 SLP238 T01501072,0,,0,16090,0,0,0,
2026-04-05 17:53:00,METAR KMTJ 051753Z AUTO 27004KT 10SM CLR 13/M07 A3037 RMK AO2 SLP249 T01331067 10133 21017 58008,0,4.0,0,16090,0,0,0,
2026-04-05 16:53:00,METAR KMTJ 051653Z AUTO 00000KT 10SM CLR 11/M08 A3038 RMK AO2 SLP258 T01111078,0,0.0,0,16090,0,0,0,
2026-04-05 15:53:00,METAR KMTJ 051553Z AUTO 21003KT 10SM CLR 08/M07 A3039 RMK AO2 SLP262 T00831072,0,3.0,0,16090,0,0,0,
2026-04-05 14:53:00,METAR KMTJ 051453Z AUTO 16004KT 10SM CLR 06/M07 A3040 RMK AO2 SLP266 T00561067 53008,0,4.0,0,16090,0,0,0,
2026-04-05 12:53:00,METAR KMTJ 051253Z AUTO 14006KT 10SM CLR M02/M08 A3037 RMK AO2 SLP261 T10171083,0,6.0,0,16090,0,0,0,
2026-04-05 11:53:00,METAR KMTJ 051153Z AUTO 16005KT 10SM CLR M01/M08 A3037 RMK AO2 SLP259 T10111078 10050 21011 53002,0,5.0,0,16090,0,0,0,
2026-04-05 10:53:00,METAR KMTJ 051053Z AUTO 16007KT 10SM CLR 00/M07 A3037 RMK AO2 SLP257 T00001072,0,7.0,0,16090,0,0,0,
2026-04-05 09:53:00,METAR KMTJ 050953Z AUTO 17006KT 10SM CLR 02/M08 A3037 RMK AO2 SLP252 T00171078,0,6.0,0,16090,0,0,0,
2026-04-05 08:53:00,METAR KMTJ 050853Z AUTO 14008KT 10SM CLR 03/M08 A3036 RMK AO2 SLP251 T00281083 56001,0,8.0,0,16090,0,0,0,
2026-04-05 07:53:00,METAR KMTJ 050753Z AUTO 13009KT 10SM CLR 04/M08 A3036 RMK AO2 SLP252 T00391083,0,9.0,0,16090,0,0,0,
2026-04-05 06:53:00,METAR KMTJ 050653Z AUTO 13009KT 10SM CLR 04/M08 A3036 RMK AO2 SLP251 T00441078 401561033,0,9.0,0,16090,0,0,0,
2026-04-05 05:53:00,METAR KMTJ 050553Z AUTO 13008KT 10SM CLR 05/M08 A3037 RMK AO2 SLP255 T00501078 10150 20050 51012,0,8.0,0,16090,0,0,0,
2026-04-05 04:53:00,METAR KMTJ 050453Z AUTO 14006KT 10SM CLR 05/M08 A3036 RMK AO2 SLP257 T00501078,0,6.0,0,16090,0,0,0,
2026-04-05 03:53:00,METAR KMTJ 050353Z AUTO 14009KT 10SM CLR 07/M08 A3035 RMK AO2 SLP256 T00671083,0,9.0,0,16090,0,0,0,
2026-04-05 02:53:00,METAR KMTJ 050253Z AUTO 00000KT 10SM CLR 10/M11 A3032 RMK AO2 SLP244 T01001106 53007,0,0.0,0,16090,0,0,0,
2026-04-05 01:53:00,METAR KMTJ 050153Z AUTO 30006KT 10SM CLR 12/M11 A3031 RMK AO2 SLP242 T01171111,0,6.0,0,16090,0,0,0,
2026-04-05 00:53:00,METAR KMTJ 050053Z AUTO 33007KT 10SM CLR 14/M10 A3030 RMK AO2 SLP239 T01441100,0,7.0,0,16090,0,0,0,
2026-04-04 23:53:00,METAR KMTJ 042353Z AUTO 01003KT 10SM CLR 15/M09 A3030 RMK AO2 SLP237 T01501094 10156 20100 56015,0,3.0,0,16090,0,0,0,
2026-04-04 22:53:00,METAR KMTJ 042253Z AUTO 00000KT 10SM CLR 14/M11 A3031 RMK AO2 SLP241 T01441106,0,0.0,0,16090,0,0,0,
2026-04-04 21:53:00,METAR KMTJ 042153Z AUTO 34007KT 10SM CLR 14/M10 A3033 RMK AO2 SLP245 T01441100,0,7.0,0,16090,0,0,0,
2026-04-04 20:53:00,METAR KMTJ 042053Z AUTO 31007KT 10SM CLR 14/M10 A3035 RMK AO2 SLP253 T01391100 58017,0,7.0,0,16090,0,0,0,
2026-04-04 19:53:00,METAR KMTJ 041953Z AUTO VRB03KT 10SM CLR 12/M10 A3037 RMK AO2 SLP264 T01221100,0,3.0,0,16090,0,0,0,
2026-04-04 18:53:00,METAR KMTJ 041853Z AUTO VRB06KT 10SM CLR 12/M08 A3039 RMK AO2 SLP270 T01171083,0,6.0,0,16090,0,0,0,
2026-04-04 17:53:00,METAR KMTJ 041753Z AUTO VRB04KT 10SM CLR 10/M08 A3041 RMK AO2 SLP278 T01001083 10100 21033 58007,0,4.0,0,16090,0,0,0,
2026-04-04 16:53:00,METAR KMTJ 041653Z AUTO VRB03KT 10SM CLR 08/M09 A3042 RMK AO2 SLP283 T00781089,0,3.0,0,16090,0,0,0,
2026-04-04 15:53:00,METAR KMTJ 041553Z AUTO 00000KT 10SM CLR 05/M08 A3043 RMK AO2 SLP289 T00501078,0,0.0,0,16090,0,0,0,
2026-04-04 14:53:00,METAR KMTJ 041453Z AUTO 15004KT 10SM CLR 03/M07 A3043 RMK AO2 SLP291 T00281072 51009,0,4.0,0,16090,0,0,0,
2026-04-04 13:53:00,METAR KMTJ 041353Z AUTO 13006KT 10SM CLR M01/M07 A3043 RMK AO2 SLP295 T10061072,0,6.0,0,16090,0,0,0,
2026-04-04 12:53:00,METAR KMTJ 041253Z AUTO 16006KT 10SM CLR M03/M08 A3041 RMK AO2 SLP288 T10331078,0,6.0,0,16090,0,0,0,
2026-04-04 11:53:00,METAR KMTJ 041153Z AUTO 18006KT 10SM CLR M03/M07 A3040 RMK AO2 SLP284 T10281072 10011 21028 53002,0,6.0,0,16090,0,0,0,
2026-04-04 10:53:00,METAR KMTJ 041053Z AUTO 19004KT 10SM CLR M02/M07 A3040 RMK AO2 SLP281 T10221072,0,4.0,0,16090,0,0,0,
2026-04-04 09:53:00,METAR KMTJ 040953Z AUTO 16005KT 10SM CLR M01/M07 A3039 RMK AO2 SLP279 T10111072,0,5.0,0,16090,0,0,0,
2026-04-04 08:53:00,METAR KMTJ 040853Z AUTO 14004KT 10SM CLR M01/M08 A3039 RMK AO2 SLP279 T10111078 51006,0,4.0,0,16090,0,0,0,
2026-04-04 07:53:00,METAR KMTJ 040753Z AUTO 17006KT 10SM CLR M01/M07 A3039 RMK AO2 SLP277 T10061067,0,6.0,0,16090,0,0,0,
2026-04-04 06:53:00,METAR KMTJ 040653Z AUTO 14006KT 10SM CLR 00/M07 A3039 RMK AO2 SLP280 T00001067 401001017,0,6.0,0,16090,0,0,0,
2026-04-04 05:53:00,METAR KMTJ 040553Z AUTO 18007KT 10SM CLR 01/M06 A3037 RMK AO2 SLP272 T00111061 10094 20011 51015,0,7.0,0,16090,0,0,0,
2026-04-04 04:53:00,METAR KMTJ 040453Z AUTO 16007KT 10SM CLR 03/M07 A3036 RMK AO2 SLP268 T00281072,0,7.0,0,16090,0,0,0,
2026-04-04 03:53:00,METAR KMTJ 040353Z AUTO 17006KT 10SM CLR 04/M08 A3035 RMK AO2 SLP264 T00391078,0,6.0,0,16090,0,0,0,
2026-04-04 02:53:00,METAR KMTJ 040253Z AUTO 06006KT 10SM CLR 06/M09 A3032 RMK AO2 SLP254 T00611094 53019,0,6.0,0,16090,0,0,0,
2026-04-04 01:53:00,METAR KMTJ 040153Z AUTO 30005KT 10SM SCT085 07/M11 A3030 RMK AO2 SLP248 T00721106,0,5.0,0,16090,0,0,0,
2026-04-04 00:53:00,METAR KMTJ 040053Z AUTO VRB04KT 10SM CLR 09/M11 A3028 RMK AO2 SLP236 T00941111,0,4.0,0,16090,0,0,0,
2026-04-03 23:53:00,METAR KMTJ 032353Z AUTO 33006KT 10SM CLR 09/M12 A3025 RMK AO2 SLP227 T00941117 10100 20050 53005,0,6.0,0,16090,0,0,0,
2026-04-03 22:53:00,METAR KMTJ 032253Z AUTO 03005KT 10SM CLR 09/M12 A3024 RMK AO2 SLP222 T00941122,0,5.0,0,16090,0,0,0,
2026-04-03 21:53:00,METAR KMTJ 032153Z AUTO 35006KT 10SM CLR 09/M12 A3024 RMK AO2 SLP220 T00891122,0,6.0,0,16090,0,0,0,
2026-04-03 20:53:00,METAR KMTJ 032053Z AUTO 35004KT 10SM CLR 08/M14 A3024 RMK AO2 SLP224 T00831139 53002,0,4.0,0,16090,0,0,0,
2026-04-03 19:53:00,METAR KMTJ 031953Z AUTO 16007KT 10SM CLR 08/M14 A3024 RMK AO2 SLP221 T00781144,0,7.0,0,16090,0,0,0,
2026-04-03 18:53:00,METAR KMTJ 031853Z AUTO VRB03KT 10SM CLR 06/M15 A3023 RMK AO2 SLP220 T00611150,0,3.0,0,16090,0,0,0,
2026-04-03 17:53:00,METAR KMTJ 031753Z AUTO 28010G17KT 10SM CLR 06/M13 A3023 RMK AO2 SLP218 T00611128 10061 21017 52016,0,10.0,1,16090,0,0,0,
2026-04-03 16:53:00,METAR KMTJ 031653Z AUTO 31011G18KT 10SM BKN049 04/M11 A3021 RMK AO2 SLP209 T00441106,0,11.0,1,16090,0,0,0,
2026-04-03 15:53:00,METAR KMTJ 031553Z AUTO 29006KT 10SM FEW045 03/M09 A3019 RMK AO2 SLP190 T00331089,0,6.0,0,16090,0,0,0,
2026-04-03 14:53:00,METAR KMTJ 031453Z AUTO 17004KT 10SM CLR 01/M04 A3018 RMK AO2 SLP185 T00111044 53016,0,4.0,0,16090,0,0,0,
2026-04-03 13:53:00,METAR KMTJ 031353Z AUTO 13004KT 10SM CLR M01/M04 A3015 RMK AO2 SLP180 T10061044,0,4.0,0,16090,0,0,0,
2026-04-03 12:53:00,METAR KMTJ 031253Z AUTO 11007KT 10SM SCT100 M01/M04 A3013 RMK AO2 SLP171 T10111044,0,7.0,0,16090,0,0,0,
2026-04-03 11:53:00,METAR KMTJ 031153Z AUTO 15011KT 10SM OVC100 M01/M04 A3012 RMK AO2 SLP164 60000 T10061039 10033 21006 50002,0,11.0,0,16090,0,0,0,
2026-04-03 09:02:00,SPECI KMTJ 030902Z AUTO 25006KT 7SM -SN OVC026 00/M03 A3011 RMK AO2 P0000 T00001033,0,6.0,0,11263,0,0,0,SN
2026-04-03 08:53:00,METAR KMTJ 030853Z AUTO 27010G23KT 2SM -SN BR OVC024 M01/M03 A3011 RMK AO2 PK WND 27028/0835 SNB0754 SLP161 P0000 60000 T10061028 51023,0,10.0,1,3218,0,0,1,"BR,SN"
2026-04-03 08:50:00,SPECI KMTJ 030850Z AUTO 27012G27KT 2SM -SN BR OVC024 M01/M03 A3011 RMK AO2 PK WND 27028/0835 SNB0754 P0000,0,12.0,1,3218,0,0,1,"BR,SN"
2026-04-03 08:27:00,SPECI KMTJ 030827Z AUTO 28018G26KT 6SM -SN FEW021 BKN026 OVC046 00/M03 A3010 RMK AO2 PK WND 27027/0757 SNB0754 P0000 T00001033,0,18.0,1,9654,0,0,0,SN
2026-04-03 08:12:00,SPECI KMTJ 030812Z AUTO 29015G24KT 2SM -SN BKN022 OVC046 01/M03 A3009 RMK AO2 PK WND 27027/0757 SNB0754 P0000 T00061028,0,15.0,1,3218,0,0,0,SN
2026-04-03 05:53:00,METAR KMTJ 030553Z AUTO 32018G26KT 10SM BKN045 OVC050 03/M01 A2996 RMK AO2 PK WND 30039/0508 RAB04E20 SLP104 P0000 60000 T00331011 10183 20033 53057,0,18.0,1,16090,0,0,0,RA
2026-04-03 04:53:00,METAR KMTJ 030453Z AUTO 32018G31KT 10SM FEW075 BKN095 BKN110 06/M01 A2989 RMK AO2 PK WND 29033/0433 WSHFT 0356 SLP079 T00611006,0,18.0,1,16090,0,0,0,
2026-04-03 04:16:00,SPECI KMTJ 030416Z AUTO 30018G29KT 10SM FEW100 08/01 A2986 RMK AO2 PK WND 32029/0401 WSHFT 0356 PRESRR T00780006,0,18.0,1,16090,0,0,0,
2026-04-03 03:53:00,METAR KMTJ 030353Z AUTO 23008G18KT 10SM CLR 14/M03 A2980 RMK AO2 SLP037 T01441028,0,8.0,1,16090,0,0,0,
2026-04-03 02:53:00,METAR KMTJ 030253Z AUTO 17009G23KT 9SM CLR 16/M03 A2976 RMK AO2 PK WND 17030/0236 SLP020 T01561033 51011,0,9.0,1,14481,0,0,0,
2026-04-03 01:53:00,METAR KMTJ 030153Z AUTO 21006KT 10SM CLR 16/M03 A2976 RMK AO2 SLP032 T01561028,0,6.0,0,16090,0,0,0,
2026-04-03 00:53:00,METAR KMTJ 030053Z AUTO 21011G18KT 10SM FEW100 17/M03 A2974 RMK AO2 PK WND 25027/2355 SLP023 T01721028,0,11.0,1,16090,0,0,0,
2026-04-02 23:53:00,METAR KMTJ 022353Z AUTO 18013G21KT 10SM CLR 18/M02 A2972 RMK AO2 PK WND 19035/2317 SLP008 T01781022 10189 20144 56010,0,13.0,1,16090,0,0,0,
2026-04-02 22:53:00,METAR KMTJ 022253Z AUTO 23016G31KT 10SM FEW080 18/M02 A2972 RMK AO2 PK WND 24032/2241 SLP005 T01831017,0,16.0,1,16090,0,0,0,
2026-04-02 21:53:00,METAR KMTJ 022153Z AUTO 22013G24KT 10SM FEW075 18/M02 A2974 RMK AO2 PK WND 24029/2138 SLP015 T01831022,0,13.0,1,16090,0,0,0,
2026-04-02 20:53:00,METAR KMTJ 022053Z AUTO 23015G26KT 10SM SCT075 18/M02 A2975 RMK AO2 PK WND 24028/2036 SLP027 T01781017 58021,0,15.0,1,16090,0,0,0,
2026-04-02 19:53:00,METAR KMTJ 021953Z AUTO 26004KT 10SM BKN075 OVC090 16/M02 A2979 RMK AO2 SLP042 T01561017,0,4.0,0,16090,0,0,0,
2026-04-02 18:53:00,METAR KMTJ 021853Z AUTO 21013KT 10SM FEW070 17/M01 A2981 RMK AO2 PK WND 21030/1754 SLP048 T01671006,0,13.0,0,16090,0,0,0,
2026-04-02 17:53:00,METAR KMTJ 021753Z AUTO 20019G29KT 10SM CLR 15/M02 A2983 RMK AO2 PK WND 20032/1702 SLP053 T01501017 10150 20033 58010,0,19.0,1,16090,0,0,0,
2026-04-02 16:53:00,METAR KMTJ 021653Z AUTO 22015G27KT 10SM CLR 14/M01 A2984 RMK AO2 PK WND 21029/1641 SLP060 T01391011,0,15.0,1,16090,0,0,0,
2026-04-02 15:53:00,METAR KMTJ 021553Z AUTO 19011G18KT 10SM FEW060 12/00 A2986 RMK AO2 SLP068 T01220000,0,11.0,1,16090,0,0,0,
2026-04-02 14:53:00,METAR KMTJ 021453Z AUTO 17006KT 10SM SCT070 11/01 A2986 RMK AO2 SLP071 T01110011 51000,0,6.0,0,16090,0,0,0,
2026-04-02 13:53:00,METAR KMTJ 021353Z AUTO 11006KT 10SM CLR 04/01 A2986 RMK AO2 SLP085 T00390006,0,6.0,0,16090,0,0,0,
2026-04-02 12:53:00,METAR KMTJ 021253Z AUTO 15003KT 10SM CLR 04/01 A2987 RMK AO2 SLP083 T00440006,0,3.0,0,16090,0,0,0,
2026-04-02 11:53:00,METAR KMTJ 021153Z AUTO 16003KT 10SM CLR 07/01 A2986 RMK AO2 SLP073 70006 T00720006 10089 20044 56004,0,3.0,0,16090,0,0,0,
2026-04-02 10:53:00,METAR KMTJ 021053Z AUTO 18004KT 10SM BKN085 09/01 A2986 RMK AO2 SLP072 T00890011,0,4.0,0,16090,0,0,0,
2026-04-02 09:53:00,METAR KMTJ 020953Z AUTO 00000KT 10SM OVC090 07/03 A2986 RMK AO2 SLP074 T00720028,0,0.0,0,16090,0,0,0,
2026-04-02 08:53:00,METAR KMTJ 020853Z AUTO 00000KT 10SM BKN090 04/03 A2988 RMK AO2 SLP085 T00440028 58004,0,0.0,0,16090,0,0,0,
2026-04-02 07:53:00,METAR KMTJ 020753Z AUTO 11006KT 10SM CLR 06/03 A2989 RMK AO2 SLP086 T00560028,0,6.0,0,16090,0,0,0,
2026-04-02 06:53:00,METAR KMTJ 020653Z AUTO 14006KT 10SM CLR 06/03 A2989 RMK AO2 SLP086 T00560033 401110056,0,6.0,0,16090,0,0,0,
2026-04-02 05:53:00,METAR KMTJ 020553Z AUTO 12006KT 10SM OVC080 07/04 A2989 RMK AO2 SLP084 60004 T00720039 10106 20072 50010,0,6.0,0,16090,0,0,0,
2026-04-02 04:53:00,METAR KMTJ 020453Z AUTO 12007KT 10SM OVC070 07/03 A2990 RMK AO2 SLP085 T00720033,0,7.0,0,16090,0,0,0,
2026-04-02 03:53:00,METAR KMTJ 020353Z AUTO 16009KT 10SM SCT055 OVC070 07/03 A2988 RMK AO2 SLP081 T00720033,0,9.0,0,16090,0,0,0,
2026-04-02 02:53:00,METAR KMTJ 020253Z AUTO 14010KT 10SM BKN050 OVC060 07/04 A2986 RMK AO2 SLP073 60004 T00720039 51021,0,10.0,0,16090,0,0,0,
2026-04-02 01:53:00,METAR KMTJ 020153Z AUTO 12007KT 10SM OVC050 07/05 A2983 RMK AO2 RAE36 SLP065 P0003 T00720050,0,7.0,0,16090,0,0,0,
2026-04-02 00:53:00,METAR KMTJ 020053Z AUTO 23012G20KT 10SM -RA OVC038 08/03 A2982 RMK AO2 RAB09 SLP057 P0001 T00830033,0,12.0,1,16090,0,0,0,-RA
2026-04-01 23:53:00,METAR KMTJ 012353Z AUTO 15007KT 10SM SCT046 BKN070 OVC090 11/03 A2978 RMK AO2 LTG DSNT SW-N SLP041 60000 T01060028 10111 20094 50003,0,7.0,0,16090,0,0,0,DS
2026-04-01 22:53:00,METAR KMTJ 012253Z AUTO 17008KT 10SM FEW065 BKN080 OVC100 09/02 A2979 RMK AO2 RAE07 SLP044 P0000 T00940022,0,8.0,0,16090,0,0,0,
2026-04-01 21:53:00,METAR KMTJ 012153Z AUTO 23006KT 10SM -RA SCT039 BKN046 OVC100 11/02 A2977 RMK AO2 LTG DSNT SW RAB52 SLP036 P0000 T01060022,0,6.0,0,16090,0,0,0,"-RA,DS"
2026-04-01 20:53:00,METAR KMTJ 012053Z AUTO 17005KT 10SM FEW044 OVC060 09/03 A2977 RMK AO2 SLP039 T00940028 58001,0,5.0,0,16090,0,0,0,
2026-04-01 19:53:00,METAR KMTJ 011953Z AUTO 21008G20KT 10SM BKN041 OVC055 10/02 A2978 RMK AO2 SLP041 T01000022,0,8.0,1,16090,0,0,0,
2026-04-01 18:53:00,METAR KMTJ 011853Z AUTO 22009G19KT 10SM OVC070 11/03 A2977 RMK AO2 SLP034 T01060028,0,9.0,1,16090,0,0,0,
2026-04-01 17:53:00,METAR KMTJ 011753Z AUTO 14008KT 10SM BKN095 BKN110 11/04 A2978 RMK AO2 SLP035 60002 T01060044 10106 20083 58017,0,8.0,0,16090,0,0,0,
2026-04-01 16:53:00,METAR KMTJ 011653Z AUTO 17010KT 10SM BKN060 OVC080 10/04 A2980 RMK AO2 RAE43 SLP044 P0000 T01000044,0,10.0,0,16090,0,0,0,
2026-04-01 15:53:00,METAR KMTJ 011553Z AUTO 14009KT 10SM -RA SCT040 BKN049 OVC060 09/04 A2982 RMK AO2 RAB05 SLP051 P0001 T00940044,0,9.0,0,16090,0,0,0,-RA
2026-04-01 14:53:00,METAR KMTJ 011453Z AUTO 09008KT 10SM BKN045 BKN055 OVC080 09/03 A2984 RMK AO2 SLP056 60001 T00940033 58007,0,8.0,0,16090,0,0,0,
2026-04-01 13:53:00,METAR KMTJ 011353Z AUTO 16003KT 10SM BKN090 09/03 A2985 RMK AO2 RAE28 SLP059 P0000 T00890033,0,3.0,0,16090,0,0,0,
2026-04-01 12:53:00,METAR KMTJ 011253Z AUTO 19006G21KT 10SM -RA BKN060 OVC075 09/03 A2987 RMK AO2 SLP061 P0001 T00890028,0,6.0,1,16090,0,0,0,-RA
2026-04-01 11:53:00,METAR KMTJ 011153Z AUTO 22009KT 10SM -RA OVC055 09/04 A2986 RMK AO2 SLP055 P0002 60004 70004 T00940039 10122 20083 56012,0,9.0,0,16090,0,0,0,-RA
2026-04-01 10:53:00,METAR KMTJ 011053Z AUTO 00000KT 10SM -RA OVC050 09/06 A2987 RMK AO2 SLP057 P0002 T00890061,0,0.0,0,16090,0,0,0,-RA
2026-04-01 09:53:00,METAR KMTJ 010953Z AUTO 09005KT 10SM -RA FEW045 OVC060 09/05 A2987 RMK AO2 RAB29 SLP058 P0000 T00940050,0,5.0,0,16090,0,0,0,-RA
2026-04-01 08:53:00,METAR KMTJ 010853Z AUTO 13004KT 10SM FEW049 OVC065 09/06 A2990 RMK AO2 RAE19 SLP070 P0000 60000 T00940056 58017,0,4.0,0,16090,0,0,0,
2026-04-01 07:53:00,METAR KMTJ 010753Z AUTO 22005KT 10SM -RA OVC060 10/05 A2994 RMK AO2 SLP084 P0000 T01000050,0,5.0,0,16090,0,0,0,-RA
2026-04-01 06:53:00,METAR KMTJ 010653Z AUTO 20005KT 10SM -RA BKN060 BKN080 OVC095 12/04 A2995 RMK AO2 RAE04B50 SLP084 P0000 T01170039 401890111,0,5.0,0,16090,0,0,0,"-RA,RA"
2026-04-01 05:53:00,METAR KMTJ 010553Z AUTO 16004KT 10SM -RA OVC075 12/03 A2996 RMK AO2 RAB24 SLP087 P0000 60000 T01170033 10178 20117 58007,0,4.0,0,16090,0,0,0,-RA
2026-04-01 04:53:00,METAR KMTJ 010453Z AUTO 19005KT 10SM BKN110 12/03 A2998 RMK AO2 RAB13E22 SLP094 P0000 T01170033,0,5.0,0,16090,0,0,0,RA
2026-04-01 03:53:00,METAR KMTJ 010353Z AUTO 16011KT 10SM FEW050 SCT075 BKN120 13/03 A3000 RMK AO2 SLP096 T01280028,0,11.0,0,16090,0,0,0,
2026-04-01 02:53:00,METAR KMTJ 010253Z AUTO 16004KT 10SM BKN060 OVC080 12/03 A2999 RMK AO2 RAB0154E22 SLP097 P0000 60000 T01220033 53015,0,4.0,0,16090,0,0,0,RA
2026-04-01 01:53:00,METAR KMTJ 010153Z AUTO 24012G23KT 10SM BKN060 OVC075 14/01 A2997 RMK AO2 PK WND 24027/0127 SLP087 T01440006,0,12.0,1,16090,0,0,0,
2026-04-01 00:53:00,METAR KMTJ 010053Z AUTO 20013G23KT 10SM SCT085 OVC110 17/M02 A2994 RMK AO2 PK WND 21033/0016 SLP077 T01671017,0,13.0,1,16090,0,0,0,
2026-03-31 23:53:00,METAR KMTJ 312353Z AUTO 22014G31KT 10SM BKN100 OVC120 18/M04 A2993 RMK AO2 PK WND 21031/2345 SLP071 60000 T01831044 10189 20156 56012,0,14.0,1,16090,0,0,0,
2026-03-31 22:53:00,METAR KMTJ 312253Z AUTO 24018G28KT 10SM OVC100 18/M04 A2994 RMK AO2 PK WND 22028/2246 SLP075 T01831044,0,18.0,1,16090,0,0,0,
2026-03-31 21:53:00,METAR KMTJ 312153Z AUTO 23009G21KT 10SM OVC100 18/M03 A2995 RMK AO2 PK WND 22030/2054 SLP077 T01831033,0,9.0,1,16090,0,0,0,
2026-03-31 20:53:00,METAR KMTJ 312053Z AUTO 22016G27KT 10SM BKN100 BKN110 18/M03 A2997 RMK AO2 PK WND 22032/2041 WSHFT 2027 SLP082 60000 T01831033 58013,0,16.0,1,16090,0,0,0,
2026-03-31 19:53:00,METAR KMTJ 311953Z AUTO 22007KT 10SM FEW039 SCT080 SCT100 17/00 A3001 RMK AO2 RAB12E46 SLP109 P0000 T01670000,0,7.0,0,16090,0,0,0,RA
2026-03-31 18:53:00,METAR KMTJ 311853Z AUTO 25010G20KT 10SM FEW060 BKN085 OVC110 17/M01 A3001 RMK AO2 PK WND 26031/1837 WSHFT 1828 LTG DSNT N AND SW SLP102 T01671006,0,10.0,1,16090,0,0,0,DS
2026-03-31 18:48:00,SPECI KMTJ 311848Z AUTO 26012G23KT 10SM FEW060 OVC085 16/00 A3002 RMK AO2 PK WND 26031/1837 WSHFT 1828 LTG DSNT N AND SW,0,12.0,1,16090,0,0,0,DS
2026-03-31 18:39:00,SPECI KMTJ 311839Z AUTO 26019G31KT 10SM VCTS OVC090 17/M02 A3002 RMK AO2 PK WND 26031/1837 LTG DSNT SW T01721017,0,19.0,1,16090,1,0,0,"DS,TS,VC"
2026-03-31 17:53:00,METAR KMTJ 311753Z AUTO 18019G26KT 10SM FEW095 18/M02 A3002 RMK AO2 PK WND 20027/1701 SLP099 T01831022 10183 20139 50001,0,19.0,1,16090,0,0,0,
2026-03-31 16:53:00,METAR KMTJ 311653Z AUTO 20014G30KT 10SM FEW090 17/M02 A3004 RMK AO2 PK WND 21030/1645 SLP103 T01721017,0,14.0,1,16090,0,0,0,
2026-03-31 15:53:00,METAR KMTJ 311553Z AUTO 21015G26KT 10SM CLR 18/M04 A3000 RMK AO2 PK WND 21026/1550 SLP090 T01831039,0,15.0,1,16090,0,0,0,
2026-03-31 14:53:00,METAR KMTJ 311453Z AUTO 17013KT 10SM CLR 16/M05 A3001 RMK AO2 SLP096 T01611050 51003,0,13.0,0,16090,0,0,0,
2026-03-31 13:53:00,METAR KMTJ 311353Z AUTO 18012KT 10SM CLR 16/M06 A3001 RMK AO2 SLP092 T01611056,0,12.0,0,16090,0,0,0,
2026-03-31 12:53:00,METAR KMTJ 311253Z AUTO 17008KT 10SM CLR 14/M06 A3001 RMK AO2 SLP090 T01441056,0,8.0,0,16090,0,0,0,
2026-03-31 11:53:00,METAR KMTJ 311153Z AUTO 14003KT 10SM CLR 14/M06 A3000 RMK AO2 SLP086 T01441061 10167 20111 53004,0,3.0,0,16090,0,0,0,
2026-03-31 10:53:00,METAR KMTJ 311053Z AUTO 12006KT 10SM CLR 12/M06 A2998 RMK AO2 SLP081 T01221061,0,6.0,0,16090,0,0,0,
2026-03-31 09:53:00,METAR KMTJ 310953Z AUTO VRB04KT 10SM CLR 14/M08 A2998 RMK AO2 SLP077 T01441078,0,4.0,0,16090,0,0,0,
2026-03-31 08:53:00,METAR KMTJ 310853Z AUTO VRB03KT 10SM CLR 16/M08 A2999 RMK AO2 SLP075 T01611083 58001,0,3.0,0,16090,0,0,0,
2026-03-31 07:53:00,METAR KMTJ 310753Z AUTO 10010KT 10SM CLR 11/M09 A2999 RMK AO2 SLP087 T01111089,0,10.0,0,16090,0,0,0,
2026-03-31 06:53:00,METAR KMTJ 310653Z AUTO 08009KT 10SM CLR 14/M10 A2999 RMK AO2 SLP082 T01391100 402560078,0,9.0,0,16090,0,0,0,
2026-03-31 05:53:00,METAR KMTJ 310553Z AUTO VRB05KT 10SM CLR 15/M11 A2999 RMK AO2 SLP082 T01501106 10228 20144 51001,0,5.0,0,16090,0,0,0,
2026-03-31 04:53:00,METAR KMTJ 310453Z AUTO 22007KT 10SM CLR 18/M11 A2999 RMK AO2 SLP080 T01781111,0,7.0,0,16090,0,0,0,
2026-03-31 03:53:00,METAR KMTJ 310353Z AUTO 21010KT 10SM CLR 18/M12 A2999 RMK AO2 SLP085 T01781117,0,10.0,0,16090,0,0,0,
2026-03-31 02:53:00,METAR KMTJ 310253Z AUTO 19006KT 10SM CLR 18/M12 A2998 RMK AO2 SLP086 T01781122 53006,0,6.0,0,16090,0,0,0,
2026-03-31 01:53:00,METAR KMTJ 310153Z AUTO 22010KT 10SM CLR 20/M12 A2998 RMK AO2 SLP090 T02001117,0,10.0,0,16090,0,0,0,
2026-03-31 00:53:00,METAR KMTJ 310053Z AUTO 22012G21KT 10SM CLR 22/M10 A2997 RMK AO2 SLP086 T02171100,0,12.0,1,16090,0,0,0,
2026-03-30 23:53:00,METAR KMTJ 302353Z AUTO 24016G22KT 10SM CLR 23/M08 A2996 RMK AO2 SLP083 T02281083 10256 20228 55004,0,16.0,1,16090,0,0,0,
2026-03-30 22:53:00,METAR KMTJ 302253Z AUTO 25019G27KT 10SM CLR 24/M07 A2996 RMK AO2 PK WND 25027/2252 SLP074 T02391072,0,19.0,1,16090,0,0,0,
2026-03-30 21:53:00,METAR KMTJ 302153Z AUTO 22012G22KT 10SM FEW120 24/M08 A2997 RMK AO2 PK WND 23026/2059 SLP077 T02441078,0,12.0,1,16090,0,0,0,
2026-03-30 20:53:00,METAR KMTJ 302053Z AUTO 25010G21KT 10SM FEW120 25/M08 A2998 RMK AO2 PK WND 20033/2003 SLP081 T02501078 58024,0,10.0,1,16090,0,0,0,
2026-03-30 19:53:00,METAR KMTJ 301953Z AUTO 22013G24KT 10SM FEW120 24/M08 A3001 RMK AO2 PK WND 25026/1931 SLP094 T02441078,0,13.0,1,16090,0,0,0,
2026-03-30 18:53:00,METAR KMTJ 301853Z AUTO 23016G22KT 10SM CLR 23/M07 A3004 RMK AO2 SLP104 T02331072,0,16.0,1,16090,0,0,0,
2026-03-30 17:53:00,METAR KMTJ 301753Z AUTO 24017G28KT 10SM CLR 23/M07 A3006 RMK AO2 PK WND 24029/1735 SLP111 T02281072 10228 20078 58007,0,17.0,1,16090,0,0,0,
2026-03-30 16:53:00,METAR KMTJ 301653Z AUTO VRB05KT 10SM OVC120 21/M06 A3008 RMK AO2 SLP116 T02061061,0,5.0,0,16090,0,0,0,
2026-03-30 15:53:00,METAR KMTJ 301553Z AUTO 25005KT 10SM OVC120 19/M07 A3009 RMK AO2 SLP119 T01891067,0,5.0,0,16090,0,0,0,
2026-03-30 14:53:00,METAR KMTJ 301453Z AUTO 00000KT 10SM CLR 16/M04 A3009 RMK AO2 SLP123 T01611039 52006,0,0.0,0,16090,0,0,0,
2026-03-30 13:53:00,METAR KMTJ 301353Z AUTO 13006KT 10SM CLR 11/M05 A3008 RMK AO2 SLP125 T01111050,0,6.0,0,16090,0,0,0,
2026-03-30 12:53:00,METAR KMTJ 301253Z AUTO 11004KT 10SM FEW120 09/M07 A3007 RMK AO2 SLP123 T00891067,0,4.0,0,16090,0,0,0,
2026-03-30 11:53:00,METAR KMTJ 301153Z AUTO 09005KT 10SM CLR 09/M07 A3007 RMK AO2 SLP117 T00941067 10144 20094 56003,0,5.0,0,16090,0,0,0,
2026-03-30 10:53:00,METAR KMTJ 301053Z AUTO VRB05KT 10SM CLR 12/M07 A3007 RMK AO2 SLP111 T01221072,0,5.0,0,16090,0,0,0,
2026-03-30 09:53:00,METAR KMTJ 300953Z AUTO 11007KT 10SM CLR 12/M08 A3006 RMK AO2 SLP110 T01171078,0,7.0,0,16090,0,0,0,
2026-03-30 08:53:00,METAR KMTJ 300853Z AUTO 15006KT 10SM CLR 11/M08 A3008 RMK AO2 SLP117 T01111083 50000,0,6.0,0,16090,0,0,0,
2026-03-30 07:53:00,METAR KMTJ 300753Z AUTO 15009KT 10SM CLR 11/M09 A3008 RMK AO2 SLP120 T01111089,0,9.0,0,16090,0,0,0,
2026-03-30 06:53:00,METAR KMTJ 300653Z AUTO 14006KT 10SM CLR 11/M09 A3008 RMK AO2 SLP120 T01111094 402500056,0,6.0,0,16090,0,0,0,
2026-03-30 05:53:00,METAR KMTJ 300553Z AUTO 12007KT 10SM CLR 13/M11 A3008 RMK AO2 SLP117 T01331106 10244 20133 50000,0,7.0,0,16090,0,0,0,
2026-03-30 04:53:00,METAR KMTJ 300453Z AUTO 10007KT 10SM CLR 16/M11 A3008 RMK AO2 SLP119 T01611111,0,7.0,0,16090,0,0,0,
2026-03-30 03:53:00,METAR KMTJ 300353Z AUTO 15006KT 10SM CLR 18/M11 A3008 RMK AO2 SLP120 T01781111,0,6.0,0,16090,0,0,0,
2026-03-30 02:53:00,METAR KMTJ 300253Z AUTO 16007KT 10SM CLR 18/M11 A3008 RMK AO2 SLP123 T01831106 53007,0,7.0,0,16090,0,0,0,
2026-03-30 01:53:00,METAR KMTJ 300153Z AUTO 20005KT 10SM CLR 20/M10 A3006 RMK AO2 SLP123 T02001100,0,5.0,0,16090,0,0,0,
2026-03-30 00:53:00,METAR KMTJ 300053Z AUTO 25008KT 10SM CLR 22/M11 A3006 RMK AO2 SLP122 T02221106,0,8.0,0,16090,0,0,0,
2026-03-29 23:53:00,METAR KMTJ 292353Z AUTO 29010KT 10SM CLR 24/M11 A3005 RMK AO2 SLP116 T02391106 10250 20217 56010,0,10.0,0,16090,0,0,0,
2026-03-29 22:53:00,METAR KMTJ 292253Z AUTO 21005KT 10SM CLR 24/M12 A3006 RMK AO2 SLP119 T02391117,0,5.0,0,16090,0,0,0,
2026-03-29 21:53:00,METAR KMTJ 292153Z AUTO 31006KT 10SM CLR 24/M11 A3007 RMK AO2 SLP118 T02441106,0,6.0,0,16090,0,0,0,
2026-03-29 20:53:00,METAR KMTJ 292053Z AUTO 20008KT 10SM CLR 24/M08 A3009 RMK AO2 SLP121 T02391083 58021,0,8.0,0,16090,0,0,0,
2026-03-29 19:53:00,METAR KMTJ 291953Z AUTO 31004KT 10SM CLR 23/M07 A3012 RMK AO2 SLP129 T02331072,0,4.0,0,16090,0,0,0,
2026-03-29 18:53:00,METAR KMTJ 291853Z AUTO 33007KT 10SM CLR 23/M06 A3014 RMK AO2 SLP134 T02331056,0,7.0,0,16090,0,0,0,
2026-03-29 17:53:00,METAR KMTJ 291753Z AUTO 05005KT 10SM CLR 22/M06 A3016 RMK AO2 SLP149 T02171056 10217 20061 58004,0,5.0,0,16090,0,0,0,
2026-03-29 16:53:00,METAR KMTJ 291653Z AUTO 00000KT 10SM CLR 19/M06 A3018 RMK AO2 SLP158 T01941056,0,0.0,0,16090,0,0,0,
2026-03-29 14:53:00,METAR KMTJ 291453Z AUTO 00000KT 10SM CLR 13/M04 A3018 RMK AO2 SLP160 T01331039 53012,0,0.0,0,16090,0,0,0,
2026-03-29 13:53:00,METAR KMTJ 291353Z AUTO 13006KT 10SM CLR 09/M04 A3016 RMK AO2 SLP157 T00891044,0,6.0,0,16090,0,0,0,
2026-03-29 12:53:00,METAR KMTJ 291253Z AUTO 14007KT 10SM CLR 07/M06 A3014 RMK AO2 SLP151 T00671056,0,7.0,0,16090,0,0,0,
2026-03-29 11:53:00,METAR KMTJ 291153Z AUTO 15010KT 10SM CLR 07/M06 A3014 RMK AO2 SLP148 T00721056 10139 20056 51002,0,10.0,0,16090,0,0,0,
2026-03-29 10:53:00,METAR KMTJ 291053Z AUTO 14007KT 10SM CLR 07/M04 A3013 RMK AO2 SLP147 T00671044,0,7.0,0,16090,0,0,0,
2026-03-29 09:53:00,METAR KMTJ 290953Z AUTO 15004KT 10SM CLR 08/M04 A3014 RMK AO2 SLP143 T00831044,0,4.0,0,16090,0,0,0,
2026-03-29 08:53:00,METAR KMTJ 290853Z AUTO 20006KT 10SM CLR 12/M04 A3013 RMK AO2 SLP136 T01171039 56001,0,6.0,0,16090,0,0,0,
2026-03-29 07:53:00,METAR KMTJ 290753Z AUTO 16005KT 10SM CLR 13/M05 A3013 RMK AO2 SLP134 T01331050,0,5.0,0,16090,0,0,0,
2026-03-29 06:53:00,METAR KMTJ 290653Z AUTO 11006KT 10SM FEW110 14/M05 A3013 RMK AO2 SLP136 T01391050 402440061,0,6.0,0,16090,0,0,0,
2026-03-29 05:53:00,METAR KMTJ 290553Z AUTO 09010KT 10SM CLR 12/M05 A3013 RMK AO2 SLP141 T01221050 10228 20111 50000,0,10.0,0,16090,0,0,0,
2026-03-29 04:53:00,METAR KMTJ 290453Z AUTO 15007KT 10SM CLR 13/M06 A3014 RMK AO2 SLP147 T01281056,0,7.0,0,16090,0,0,0,
2026-03-29 03:53:00,METAR KMTJ 290353Z AUTO 18009KT 10SM CLR 13/M06 A3015 RMK AO2 SLP151 T01331061,0,9.0,0,16090,0,0,0,
2026-03-29 02:53:00,METAR KMTJ 290253Z AUTO 19005KT 10SM CLR 17/M07 A3013 RMK AO2 SLP146 T01721072 53008,0,5.0,0,16090,0,0,0,
2026-03-29 01:53:00,METAR KMTJ 290153Z AUTO 25003KT 10SM CLR 20/M08 A3011 RMK AO2 SLP143 T02001078,0,3.0,0,16090,0,0,0,
2026-03-29 00:53:00,METAR KMTJ 290053Z AUTO 26008G18KT 10SM CLR 22/M08 A3011 RMK AO2 SLP138 T02171078,0,8.0,1,16090,0,0,0,
2026-03-28 23:53:00,METAR KMTJ 282353Z AUTO 22012KT 10SM CLR 23/M07 A3011 RMK AO2 SLP138 T02281067 10244 20200 56016,0,12.0,0,16090,0,0,0,
2026-03-28 22:53:00,METAR KMTJ 282253Z AUTO 25011G21KT 10SM CLR 23/M08 A3012 RMK AO2 SLP138 T02331083,0,11.0,1,16090,0,0,0,
2026-03-28 21:53:00,METAR KMTJ 282153Z AUTO 24012G19KT 10SM CLR 24/M08 A3013 RMK AO2 SLP142 T02391078,0,12.0,1,16090,0,0,0,
2026-03-28 20:53:00,METAR KMTJ 282053Z AUTO 26011G17KT 10SM CLR 23/M05 A3016 RMK AO2 SLP152 T02331050 58018,0,11.0,1,16090,0,0,0,
2026-03-28 19:53:00,METAR KMTJ 281953Z AUTO 28011G17KT 240V320 10SM CLR 23/M06 A3019 RMK AO2 SLP160 T02331056,0,11.0,1,16090,0,0,0,
2026-03-28 18:53:00,METAR KMTJ 281853Z AUTO 10SM CLR 22/M04 A3021 RMK AO2 SLP168 T02171044,0,,0,16090,0,0,0,
2026-03-28 17:53:00,METAR KMTJ 281753Z AUTO 36004KT 10SM CLR 21/M03 A3023 RMK AO2 SLP174 T02061033 10206 20061 58009,0,4.0,0,16090,0,0,0,
2026-03-28 16:53:00,METAR KMTJ 281653Z AUTO 34007KT 10SM CLR 18/M03 A3024 RMK AO2 SLP187 T01831033,0,7.0,0,16090,0,0,0,
2026-03-28 15:53:00,METAR KMTJ 281553Z AUTO 00000KT 10SM CLR 17/M02 A3025 RMK AO2 SLP189 T01671022,0,0.0,0,16090,0,0,0,
2026-03-28 14:53:00,METAR KMTJ 281453Z AUTO 15003KT 10SM CLR 12/M02 A3026 RMK AO2 SLP195 T01221022 52001,0,3.0,0,16090,0,0,0,
2026-03-28 13:53:00,METAR KMTJ 281353Z AUTO 17004KT 10SM CLR 07/M02 A3026 RMK AO2 SLP197 T00721022,0,4.0,0,16090,0,0,0,
2026-03-28 12:53:00,METAR KMTJ 281253Z AUTO 00000KT 10SM CLR 08/M04 A3025 RMK AO2 SLP188 T00831039,0,0.0,0,16090,0,0,0,
2026-03-28 11:53:00,METAR KMTJ 281153Z AUTO 00000KT 10SM CLR 06/M04 A3025 RMK AO2 SLP190 T00611039 10117 20061 55002,0,0.0,0,16090,0,0,0,
2026-03-28 10:53:00,METAR KMTJ 281053Z AUTO 17006KT 10SM CLR 07/M04 A3025 RMK AO2 SLP187 T00721044,0,6.0,0,16090,0,0,0,
2026-03-28 09:53:00,METAR KMTJ 280953Z AUTO 13010KT 10SM CLR 08/M04 A3025 RMK AO2 SLP185 T00831044,0,10.0,0,16090,0,0,0,
2026-03-28 08:53:00,METAR KMTJ 280853Z AUTO 19008KT 10SM CLR 09/M06 A3026 RMK AO2 SLP190 T00891056 58005,0,8.0,0,16090,0,0,0,
2026-03-28 07:53:00,METAR KMTJ 280753Z AUTO 16010KT 10SM CLR 09/M07 A3027 RMK AO2 SLP195 T00941072,0,10.0,0,16090,0,0,0,
2026-03-28 06:53:00,METAR KMTJ 280653Z AUTO 14007KT 10SM CLR 11/M08 A3028 RMK AO2 SLP200 T01061078 402280039,0,7.0,0,16090,0,0,0,
2026-03-28 05:53:00,METAR KMTJ 280553Z AUTO 13010KT 10SM CLR 11/M07 A3028 RMK AO2 SLP201 T01111072 10222 20106 50004,0,10.0,0,16090,0,0,0,
2026-03-28 04:53:00,METAR KMTJ 280453Z AUTO 14010KT 10SM CLR 11/M06 A3028 RMK AO2 SLP206 T01061061,0,10.0,0,16090,0,0,0,
2026-03-28 03:53:00,METAR KMTJ 280353Z AUTO 14011KT 10SM CLR 12/M07 A3028 RMK AO2 SLP208 T01221072,0,11.0,0,16090,0,0,0,
2026-03-28 02:53:00,METAR KMTJ 280253Z AUTO 13008KT 10SM CLR 14/M10 A3026 RMK AO2 SLP203 T01391100 53013,0,8.0,0,16090,0,0,0,
2026-03-28 01:53:00,METAR KMTJ 280153Z AUTO 27007KT 10SM CLR 18/M11 A3023 RMK AO2 SLP192 T01781111,0,7.0,0,16090,0,0,0,
2026-03-28 00:53:00,METAR KMTJ 280053Z AUTO 31012KT 10SM CLR 21/M11 A3022 RMK AO2 SLP184 T02111106,0,12.0,0,16090,0,0,0,
2026-03-27 23:53:00,METAR KMTJ 272353Z AUTO 32012KT 10SM CLR 22/M09 A3021 RMK AO2 SLP179 T02221094 10228 20161 56013,0,12.0,0,16090,0,0,0,
2026-03-27 22:53:00,METAR KMTJ 272253Z AUTO 34012KT 10SM CLR 23/M10 A3022 RMK AO2 SLP177 T02281100,0,12.0,0,16090,0,0,0,
2026-03-27 21:53:00,METAR KMTJ 272153Z AUTO 33012G16KT 10SM CLR 22/M09 A3024 RMK AO2 SLP181 T02221094,0,12.0,1,16090,0,0,0,
2026-03-27 20:53:00,METAR KMTJ 272053Z AUTO 36007KT 330V030 10SM CLR 21/M09 A3026 RMK AO2 SLP188 T02061089 56023,0,7.0,0,16090,0,0,0,
2026-03-27 19:53:00,METAR KMTJ 271953Z AUTO 34007KT 10SM CLR 20/M09 A3029 RMK AO2 SLP192 T02001094,0,7.0,0,16090,0,0,0,
2026-03-27 18:53:00,METAR KMTJ 271853Z AUTO 02006KT 10SM CLR 18/M09 A3031 RMK AO2 SLP204 T01781094,0,6.0,0,16090,0,0,0,
2026-03-27 17:53:00,METAR KMTJ 271753Z AUTO 30005KT 10SM CLR 16/M10 A3034 RMK AO2 SLP213 T01611100 10167 20039 58005,0,5.0,0,16090,0,0,0,
2026-03-27 16:53:00,METAR KMTJ 271653Z AUTO 29003KT 10SM CLR 14/M11 A3036 RMK AO2 SLP222 T01441106,0,3.0,0,16090,0,0,0,
2026-03-25 14:53:00,METAR KMTJ 251453Z AUTO 16003KT 10SM CLR 14/01 A3023 RMK AO2 SLP176 T01440011 51008,0,3.0,0,16090,0,0,0,
2026-03-25 13:53:00,METAR KMTJ 251353Z AUTO 15006KT 10SM CLR 10/01 A3023 RMK AO2 SLP173 T01000006,0,6.0,0,16090,0,0,0,
2026-03-25 12:53:00,METAR KMTJ 251253Z AUTO 17005KT 10SM CLR 09/00 A3021 RMK AO2 SLP167 T00940000,0,5.0,0,16090,0,0,0,
2026-03-25 11:53:00,METAR KMTJ 251153Z AUTO 15006KT 10SM CLR 09/00 A3020 RMK AO2 SLP159 T00940000 10156 20094 53001,0,6.0,0,16090,0,0,0,
2026-03-25 10:53:00,METAR KMTJ 251053Z AUTO 15007KT 10SM CLR 12/M01 A3020 RMK AO2 SLP151 T01221006,0,7.0,0,16090,0,0,0,
2026-03-25 09:53:00,METAR KMTJ 250953Z AUTO 13008KT 10SM CLR 12/00 A3020 RMK AO2 SLP153 T01220000,0,8.0,0,16090,0,0,0,
2026-03-25 08:53:00,METAR KMTJ 250853Z AUTO 14007KT 10SM CLR 12/00 A3020 RMK AO2 SLP155 T01170000 50001,0,7.0,0,16090,0,0,0,
2026-03-25 07:53:00,METAR KMTJ 250753Z AUTO 13007KT 10SM CLR 13/00 A3021 RMK AO2 SLP156 T01330000,0,7.0,0,16090,0,0,0,
2026-03-25 06:53:00,METAR KMTJ 250653Z AUTO 13009KT 10SM CLR 14/01 A3020 RMK AO2 SLP153 T01440006 402720072,0,9.0,0,16090,0,0,0,
2026-03-25 05:53:00,METAR KMTJ 250553Z AUTO 13009KT 10SM CLR 14/01 A3019 RMK AO2 SLP154 T01440006 10267 20133 51012,0,9.0,0,16090,0,0,0,
2026-03-25 04:53:00,METAR KMTJ 250453Z AUTO 14010KT 10SM CLR 16/01 A3018 RMK AO2 SLP153 T01560006,0,10.0,0,16090,0,0,0,
2026-03-25 03:53:00,METAR KMTJ 250353Z AUTO 15008KT 10SM CLR 16/01 A3018 RMK AO2 SLP153 T01560011,0,8.0,0,16090,0,0,0,
2026-03-25 02:53:00,METAR KMTJ 250253Z AUTO 15006KT 10SM CLR 18/01 A3015 RMK AO2 SLP148 T01780006 53014,0,6.0,0,16090,0,0,0,
2026-03-25 01:53:00,METAR KMTJ 250153Z AUTO 00000KT 10SM CLR 23/00 A3013 RMK AO2 SLP139 T02280000,0,0.0,0,16090,0,0,0,
2026-03-25 00:53:00,METAR KMTJ 250053Z AUTO 34005KT 10SM CLR 25/00 A3012 RMK AO2 SLP134 T02500000,0,5.0,0,16090,0,0,0,
2026-03-24 23:53:00,METAR KMTJ 242353Z AUTO 35008KT 10SM CLR 27/M01 A3011 RMK AO2 SLP127 T02671006 10272 20228 56008,0,8.0,0,16090,0,0,0,
2026-03-24 22:53:00,METAR KMTJ 242253Z AUTO 32007G16KT 10SM CLR 27/M01 A3011 RMK AO2 SLP127 T02721006,0,7.0,1,16090,0,0,0,
2026-03-24 21:53:00,METAR KMTJ 242153Z AUTO 10SM CLR 27/M01 A3012 RMK AO2 SLP125 T02671011,0,,0,16090,0,0,0,
2026-03-24 20:53:00,METAR KMTJ 242053Z AUTO 01006KT 10SM CLR 26/M02 A3013 RMK AO2 SLP129 T02561017 58014,0,6.0,0,16090,0,0,0,
2026-03-24 19:53:00,METAR KMTJ 241953Z AUTO 32007KT 280V360 10SM CLR 25/M02 A3015 RMK AO2 SLP135 T02501017,0,7.0,0,16090,0,0,0,
2026-03-24 18:53:00,METAR KMTJ 241853Z AUTO 34009KT 10SM CLR 24/M02 A3017 RMK AO2 SLP139 T02441017,0,9.0,0,16090,0,0,0,
2026-03-24 17:53:00,METAR KMTJ 241753Z AUTO 35005KT 10SM CLR 23/M03 A3018 RMK AO2 SLP147 T02281028 10228 20072 55000,0,5.0,0,16090,0,0,0,
2026-03-24 16:53:00,METAR KMTJ 241653Z AUTO 00000KT 10SM CLR 21/M02 A3018 RMK AO2 SLP148 T02111017,0,0.0,0,16090,0,0,0,
2026-03-24 15:53:00,METAR KMTJ 241553Z AUTO 00000KT 10SM CLR 19/M02 A3018 RMK AO2 SLP151 T01891022,0,0.0,0,16090,0,0,0,
2026-03-24 14:53:00,METAR KMTJ 241453Z AUTO 17004KT 10SM CLR 15/M02 A3018 RMK AO2 SLP157 T01501017 50008,0,4.0,0,16090,0,0,0,
2026-03-24 13:53:00,METAR KMTJ 241353Z AUTO 17005KT 10SM CLR 11/M03 A3018 RMK AO2 SLP161 T01061033,0,5.0,0,16090,0,0,0,
2026-03-24 12:53:00,METAR KMTJ 241253Z AUTO 17008KT 10SM CLR 08/M03 A3017 RMK AO2 SLP158 T00831033,0,8.0,0,16090,0,0,0,
2026-03-24 11:53:00,METAR KMTJ 241153Z AUTO 15005KT 10SM CLR 09/M03 A3015 RMK AO2 SLP149 T00891028 10167 20083 53010,0,5.0,0,16090,0,0,0,
2026-03-24 10:53:00,METAR KMTJ 241053Z AUTO 14005KT 10SM CLR 09/M03 A3014 RMK AO2 SLP141 T00941028,0,5.0,0,16090,0,0,0,
2026-03-24 09:53:00,METAR KMTJ 240953Z AUTO 00000KT 10SM OVC110 13/M03 A3013 RMK AO2 SLP134 T01281028,0,0.0,0,16090,0,0,0,
2026-03-24 08:53:00,METAR KMTJ 240853Z AUTO 00000KT 10SM OVC110 14/M03 A3012 RMK AO2 SLP125 T01441033 53002,0,0.0,0,16090,0,0,0,
2026-03-24 07:53:00,METAR KMTJ 240753Z AUTO 13006KT 10SM BKN120 15/M04 A3011 RMK AO2 SLP124 T01501039,0,6.0,0,16090,0,0,0,
2026-03-24 06:53:00,METAR KMTJ 240653Z AUTO 11006KT 10SM SCT120 16/M04 A3011 RMK AO2 SLP124 T01611044 402500078,0,6.0,0,16090,0,0,0,
2026-03-24 05:53:00,METAR KMTJ 240553Z AUTO 09006KT 10SM FEW120 16/M04 A3011 RMK AO2 SLP133 T01611039 10228 20161 50003,0,6.0,0,16090,0,0,0,
2026-03-24 04:53:00,METAR KMTJ 240453Z AUTO 13006KT 10SM FEW120 18/M04 A3011 RMK AO2 SLP134 T01781044,0,6.0,0,16090,0,0,0,
2026-03-24 03:53:00,METAR KMTJ 240353Z AUTO 14005KT 10SM CLR 16/M01 A3011 RMK AO2 SLP137 T01611011,0,5.0,0,16090,0,0,0,
2026-03-24 02:53:00,METAR KMTJ 240253Z AUTO 20004KT 10SM FEW120 18/M02 A3010 RMK AO2 SLP130 T01831017 53013,0,4.0,0,16090,0,0,0,
2026-03-24 01:53:00,METAR KMTJ 240153Z AUTO 00000KT 10SM CLR 20/M02 A3007 RMK AO2 SLP124 T02001022,0,0.0,0,16090,0,0,0,
2026-03-24 00:53:00,METAR KMTJ 240053Z AUTO 35004KT 10SM CLR 22/M03 A3006 RMK AO2 SLP118 T02171028,0,4.0,0,16090,0,0,0,
2026-03-23 23:53:00,METAR KMTJ 232353Z AUTO 34008KT 10SM FEW120 23/M04 A3005 RMK AO2 SLP113 T02281039 10250 20167 58003,0,8.0,0,16090,0,0,0,
2026-03-23 22:53:00,METAR KMTJ 232253Z AUTO 34009KT 10SM SCT110 23/M04 A3007 RMK AO2 PK WND 29027/2159 SLP117 T02331044,0,9.0,0,16090,0,0,0,
2026-03-23 21:53:00,METAR KMTJ 232153Z AUTO 26013G21KT 10SM BKN120 24/M06 A3007 RMK AO2 SLP117 T02391061,0,13.0,1,16090,0,0,0,
2026-03-23 20:53:00,METAR KMTJ 232053Z AUTO 23011KT 10SM CLR 24/M06 A3007 RMK AO2 SLP111 T02441056 58025,0,11.0,0,16090,0,0,0,
2026-03-23 19:53:00,METAR KMTJ 231953Z AUTO 00000KT 10SM CLR 22/M04 A3010 RMK AO2 SLP125 T02221044,0,0.0,0,16090,0,0,0,
2026-03-23 18:53:00,METAR KMTJ 231853Z AUTO 00000KT 10SM CLR 21/M04 A3013 RMK AO2 SLP136 T02111039,0,0.0,0,16090,0,0,0,
2026-03-23 17:53:00,METAR KMTJ 231753Z AUTO 00000KT 10SM CLR 17/M03 A3015 RMK AO2 SLP150 T01671028 10167 20078 50007,0,0.0,0,16090,0,0,0,
2026-03-23 16:53:00,METAR KMTJ 231653Z AUTO 31003KT 10SM CLR 15/M03 A3016 RMK AO2 SLP157 T01501028,0,3.0,0,16090,0,0,0,
2026-03-23 15:53:00,METAR KMTJ 231553Z AUTO 31005KT 10SM CLR 14/M02 A3014 RMK AO2 SLP151 T01441022,0,5.0,0,16090,0,0,0,
2026-03-23 14:53:00,METAR KMTJ 231453Z AUTO 16003KT 10SM CLR 14/M03 A3013 RMK AO2 SLP145 T01391028 50007,0,3.0,0,16090,0,0,0,
2026-03-23 13:53:00,METAR KMTJ 231353Z AUTO 18004KT 10SM CLR 10/M04 A3013 RMK AO2 SLP147 T01001044,0,4.0,0,16090,0,0,0,
2026-03-23 12:53:00,METAR KMTJ 231253Z AUTO 00000KT 10SM CLR 09/M05 A3011 RMK AO2 SLP135 T00891050,0,0.0,0,16090,0,0,0,
2026-03-23 11:53:00,METAR KMTJ 231153Z AUTO 14008KT 10SM CLR 10/M04 A3010 RMK AO2 SLP126 T01001044 10144 20089 56006,0,8.0,0,16090,0,0,0,
2026-03-23 10:53:00,METAR KMTJ 231053Z AUTO 17007KT 10SM CLR 09/M04 A3011 RMK AO2 SLP130 T00941039,0,7.0,0,16090,0,0,0,
2026-03-23 09:53:00,METAR KMTJ 230953Z AUTO 13005KT 10SM CLR 11/M05 A3011 RMK AO2 SLP129 T01061050,0,5.0,0,16090,0,0,0,
2026-03-23 08:53:00,METAR KMTJ 230853Z AUTO 17003KT 10SM CLR 12/M05 A3012 RMK AO2 SLP131 T01171050 55002,0,3.0,0,16090,0,0,0,
2026-03-23 07:53:00,METAR KMTJ 230753Z AUTO 13011KT 10SM CLR 14/M06 A3012 RMK AO2 SLP128 T01391061,0,11.0,0,16090,0,0,0,
2026-03-23 06:53:00,METAR KMTJ 230653Z AUTO 13012KT 10SM CLR 14/M06 A3012 RMK AO2 SLP129 T01391056 402560094,0,12.0,0,16090,0,0,0,
2026-03-23 05:53:00,METAR KMTJ 230553Z AUTO 12009KT 10SM CLR 14/M06 A3013 RMK AO2 SLP137 T01391056 10250 20133 51007,0,9.0,0,16090,0,0,0,
2026-03-23 04:53:00,METAR KMTJ 230453Z AUTO 13010KT 10SM CLR 14/M05 A3013 RMK AO2 SLP137 T01391050,0,10.0,0,16090,0,0,0,
2026-03-23 03:53:00,METAR KMTJ 230353Z AUTO 14008KT 10SM CLR 14/M06 A3012 RMK AO2 SLP139 T01391056,0,8.0,0,16090,0,0,0,
2026-03-23 02:53:00,METAR KMTJ 230253Z AUTO 15006KT 10SM CLR 16/M08 A3010 RMK AO2 SLP136 T01561078 53010,0,6.0,0,16090,0,0,0,
2026-03-23 01:53:00,METAR KMTJ 230153Z AUTO 00000KT 10SM CLR 18/M09 A3008 RMK AO2 SLP130 T01831089,0,0.0,0,16090,0,0,0,
2026-03-23 00:53:00,METAR KMTJ 230053Z AUTO 30009KT 10SM CLR 23/M09 A3007 RMK AO2 SLP116 T02331094,0,9.0,0,16090,0,0,0,
2026-03-22 23:53:00,METAR KMTJ 222353Z AUTO 32011KT 10SM CLR 25/M10 A3007 RMK AO2 SLP109 T02501100 10256 20206 56009,0,11.0,0,16090,0,0,0,
2026-03-22 22:53:00,METAR KMTJ 222253Z AUTO 01006KT 10SM CLR 25/M09 A3007 RMK AO2 SLP110 T02501094,0,6.0,0,16090,0,0,0,
2026-03-22 21:53:00,METAR KMTJ 222153Z AUTO 34006G15KT 10SM CLR 25/M08 A3008 RMK AO2 SLP112 T02501083,0,6.0,1,16090,0,0,0,
2026-03-22 20:53:00,METAR KMTJ 222053Z AUTO VRB06KT 10SM CLR 24/M09 A3010 RMK AO2 SLP118 T02441094 58015,0,6.0,0,16090,0,0,0,
2026-03-22 19:53:00,METAR KMTJ 221953Z AUTO 32008KT 10SM CLR 24/M07 A3012 RMK AO2 SLP127 T02391072,0,8.0,0,16090,0,0,0,
2026-03-22 18:53:00,METAR KMTJ 221853Z AUTO 00000KT 10SM CLR 23/M07 A3014 RMK AO2 SLP133 T02281072,0,0.0,0,16090,0,0,0,
2026-03-22 17:53:00,METAR KMTJ 221753Z AUTO 32006KT 10SM CLR 21/M07 A3015 RMK AO2 SLP142 T02061067 10211 20094 50006,0,6.0,0,16090,0,0,0,
2026-03-22 16:53:00,METAR KMTJ 221653Z AUTO 33009KT 10SM CLR 20/M07 A3016 RMK AO2 SLP141 T02001067,0,9.0,0,16090,0,0,0,
2026-03-22 15:53:00,METAR KMTJ 221553Z AUTO 04004KT 10SM CLR 18/M06 A3015 RMK AO2 SLP142 T01781061,0,4.0,0,16090,0,0,0,
2026-03-22 14:53:00,METAR KMTJ 221453Z AUTO 17005KT 10SM CLR 14/M04 A3013 RMK AO2 SLP138 T01391039 53025,0,5.0,0,16090,0,0,0,
2026-03-22 13:53:00,METAR KMTJ 221353Z AUTO 00000KT 5SM HZ CLR 11/M05 A3010 RMK AO2 SLP128 T01061050,0,0.0,0,8045,0,0,0,
2026-03-22 12:53:00,METAR KMTJ 221253Z AUTO 14006KT 10SM CLR 11/M05 A3007 RMK AO2 SLP110 T01111050,0,6.0,0,16090,0,0,0,
2026-03-22 11:53:00,METAR KMTJ 221153Z AUTO 14007KT 10SM CLR 13/M06 A3004 RMK AO2 SLP096 T01281056 10178 20117 53002,0,7.0,0,16090,0,0,0,
2026-03-22 10:53:00,METAR KMTJ 221053Z AUTO 14007KT 10SM CLR 12/M06 A3004 RMK AO2 SLP093 T01221056,0,7.0,0,16090,0,0,0,
2026-03-22 09:53:00,METAR KMTJ 220953Z AUTO 13005KT 10SM CLR 13/M07 A3003 RMK AO2 SLP088 T01281067,0,5.0,0,16090,0,0,0,
2026-03-22 08:53:00,METAR KMTJ 220853Z AUTO 15009KT 10SM CLR 15/M07 A3004 RMK AO2 SLP086 T01501072 58002,0,9.0,0,16090,0,0,0,
2026-03-22 07:53:00,METAR KMTJ 220753Z AUTO 17009KT 10SM CLR 15/M07 A3004 RMK AO2 SLP089 T01501072,0,9.0,0,16090,0,0,0,
2026-03-22 06:53:00,METAR KMTJ 220653Z AUTO 08006KT 10SM CLR 16/M08 A3005 RMK AO2 SLP095 T01611078 403000044,0,6.0,0,16090,0,0,0,
2026-03-22 05:53:00,METAR KMTJ 220553Z AUTO 09006KT 10SM CLR 16/M08 A3005 RMK AO2 SLP100 T01611078 10283 20156 58001,0,6.0,0,16090,0,0,0,
2026-03-22 04:53:00,METAR KMTJ 220453Z AUTO 10006KT 10SM CLR 17/M09 A3005 RMK AO2 SLP106 T01721089,0,6.0,0,16090,0,0,0,
2026-03-22 03:53:00,METAR KMTJ 220353Z AUTO 12007KT 10SM CLR 17/M09 A3005 RMK AO2 SLP111 T01721089,0,7.0,0,16090,0,0,0,
2026-03-22 02:53:00,METAR KMTJ 220253Z AUTO 21004KT 10SM CLR 21/M11 A3005 RMK AO2 SLP111 T02061111 53013,0,4.0,0,16090,0,0,0,
2026-03-22 01:53:00,METAR KMTJ 220153Z AUTO 21007KT 10SM CLR 23/M12 A3002 RMK AO2 SLP108 T02331122,0,7.0,0,16090,0,0,0,
2026-03-22 00:53:00,METAR KMTJ 220053Z AUTO 23010G20KT 10SM CLR 27/M14 A3000 RMK AO2 PK WND 24026/2354 SLP097 T02671139,0,10.0,1,16090,0,0,0,
2026-03-21 23:53:00,METAR KMTJ 212353Z AUTO 23017G28KT 10SM CLR 28/M16 A3000 RMK AO2 PK WND 23029/2341 SLP092 T02831156 10300 20222 56010,0,17.0,1,16090,0,0,0,
2026-03-21 22:53:00,METAR KMTJ 212253Z AUTO 23017G28KT 10SM CLR 28/M15 A3001 RMK AO2 PK WND 24030/2209 SLP096 T02831150,0,17.0,1,16090,0,0,0,
2026-03-21 21:53:00,METAR KMTJ 212153Z AUTO 24015G26KT 10SM CLR 30/M14 A3002 RMK AO2 PK WND 25028/2123 SLP097 T03001139,0,15.0,1,16090,0,0,0,
2026-03-21 20:53:00,METAR KMTJ 212053Z AUTO 27017G25KT 10SM CLR 30/M12 A3004 RMK AO2 PK WND 28026/1957 SLP099 T03001122 58021,0,17.0,1,16090,0,0,0,
2026-03-21 19:53:00,METAR KMTJ 211953Z AUTO 27016G22KT 10SM CLR 29/M12 A3008 RMK AO2 WSHFT 1931 SLP109 T02891117,0,16.0,1,16090,0,0,0,
2026-03-21 19:51:00,SPECI KMTJ 211951Z AUTO 27016G22KT 10SM CLR 29/M11 A3008 RMK AO2 WSHFT 1931,0,16.0,1,16090,0,0,0,
2026-03-21 18:53:00,METAR KMTJ 211853Z AUTO 04004KT 10SM CLR 26/M06 A3011 RMK AO2 SLP124 T02561061,0,4.0,0,16090,0,0,0,
2026-03-21 17:53:00,METAR KMTJ 211753Z AUTO 00000KT 9SM CLR 22/M06 A3015 RMK AO2 SLP142 T02221056 10222 20044 58015,0,0.0,0,14481,0,0,0,
2026-03-21 16:53:00,METAR KMTJ 211653Z AUTO 31006KT 10SM CLR 19/M05 A3018 RMK AO2 SLP158 T01941050,0,6.0,0,16090,0,0,0,
2026-03-21 15:53:00,METAR KMTJ 211553Z AUTO 00000KT 10SM CLR 16/M07 A3019 RMK AO2 SLP165 T01611067,0,0.0,0,16090,0,0,0,
2026-03-21 14:53:00,METAR KMTJ 211453Z AUTO 17007KT 10SM CLR 12/M06 A3021 RMK AO2 SLP176 T01221061 56003,0,7.0,0,16090,0,0,0,
2026-03-21 13:53:00,METAR KMTJ 211353Z AUTO 15003KT 10SM CLR 06/M07 A3021 RMK AO2 SLP177 T00561067,0,3.0,0,16090,0,0,0,
2026-03-21 12:53:00,METAR KMTJ 211253Z AUTO 15007KT 10SM CLR 06/M07 A3021 RMK AO2 SLP173 T00561072,0,7.0,0,16090,0,0,0,
2026-03-21 11:53:00,METAR KMTJ 211153Z AUTO 15009KT 10SM CLR 06/M07 A3022 RMK AO2 SLP169 T00611067 10139 20050 56008,0,9.0,0,16090,0,0,0,
2026-03-21 10:53:00,METAR KMTJ 211053Z AUTO 12008KT 10SM CLR 06/M07 A3022 RMK AO2 SLP170 T00561067,0,8.0,0,16090,0,0,0,
2026-03-21 09:53:00,METAR KMTJ 210953Z AUTO 16007KT 10SM CLR 07/M07 A3023 RMK AO2 SLP170 T00671067,0,7.0,0,16090,0,0,0,
2026-03-21 08:53:00,METAR KMTJ 210853Z AUTO 14006KT 10SM CLR 07/M07 A3025 RMK AO2 SLP180 T00721067 56002,0,6.0,0,16090,0,0,0,
2026-03-21 07:53:00,METAR KMTJ 210753Z AUTO 13010KT 10SM CLR 12/M08 A3025 RMK AO2 SLP175 T01221078,0,10.0,0,16090,0,0,0,
2026-03-21 06:53:00,METAR KMTJ 210653Z AUTO 15008KT 10SM CLR 13/M08 A3025 RMK AO2 SLP176 T01281078 402720039,0,8.0,0,16090,0,0,0,
2026-03-21 05:53:00,METAR KMTJ 210553Z AUTO 14011KT 10SM CLR 14/M08 A3025 RMK AO2 SLP178 T01391083 10267 20122 51001,0,11.0,0,16090,0,0,0,
2026-03-21 04:53:00,METAR KMTJ 210453Z AUTO 13013KT 10SM CLR 14/M07 A3025 RMK AO2 SLP183 T01391072,0,13.0,0,16090,0,0,0,
2026-03-21 03:53:00,METAR KMTJ 210353Z AUTO 13010KT 10SM CLR 14/M06 A3025 RMK AO2 SLP188 T01441061,0,10.0,0,16090,0,0,0,
2026-03-21 02:53:00,METAR KMTJ 210253Z AUTO 14008KT 10SM CLR 16/M07 A3025 RMK AO2 SLP194 T01561072 53003,0,8.0,0,16090,0,0,0,
2026-03-21 01:53:00,METAR KMTJ 210153Z AUTO 22004KT 10SM CLR 22/M11 A3024 RMK AO2 SLP188 T02171111,0,4.0,0,16090,0,0,0,
2026-03-21 00:53:00,METAR KMTJ 210053Z AUTO 30005KT 10SM CLR 24/M11 A3023 RMK AO2 SLP181 T02441106,0,5.0,0,16090,0,0,0,
2026-03-20 23:53:00,METAR KMTJ 202353Z AUTO 32009KT 10SM CLR 27/M10 A3024 RMK AO2 SLP178 T02671100 10272 20211 56014,0,9.0,0,16090,0,0,0,
2026-03-20 22:53:00,METAR KMTJ 202253Z AUTO 33008KT 10SM CLR 27/M11 A3025 RMK AO2 SLP177 T02721111,0,8.0,0,16090,0,0,0,
2026-03-20 21:53:00,METAR KMTJ 202153Z AUTO 35005KT 10SM CLR 27/M15 A3026 RMK AO2 SLP179 T02721150,0,5.0,0,16090,0,0,0,
2026-03-20 20:53:00,METAR KMTJ 202053Z AUTO 36008KT 10SM CLR 26/M09 A3028 RMK AO2 SLP189 T02611094 58026,0,8.0,0,16090,0,0,0,
2026-03-20 19:53:00,METAR KMTJ 201953Z AUTO VRB03KT 10SM CLR 24/M06 A3032 RMK AO2 SLP203 T02441061,0,3.0,0,16090,0,0,0,
2026-03-20 18:53:00,METAR KMTJ 201853Z AUTO 35005KT 10SM CLR 22/M04 A3035 RMK AO2 SLP217 T02221044,0,5.0,0,16090,0,0,0,
2026-03-20 17:53:00,METAR KMTJ 201753Z AUTO 33003KT 10SM CLR 21/M05 A3038 RMK AO2 SLP225 T02111050 10211 20039 58008,0,3.0,0,16090,0,0,0,
2026-03-20 16:53:00,METAR KMTJ 201653Z AUTO 00000KT 10SM CLR 18/M05 A3040 RMK AO2 SLP239 T01781050,0,0.0,0,16090,0,0,0,
2026-03-20 15:53:00,METAR KMTJ 201553Z AUTO 00000KT 10SM CLR 15/M05 A3040 RMK AO2 SLP243 T01501050,0,0.0,0,16090,0,0,0,
2026-03-20 14:53:00,METAR KMTJ 201453Z AUTO 15004KT 10SM CLR 10/M04 A3040 RMK AO2 SLP249 T01001039 51006,0,4.0,0,16090,0,0,0,
2026-03-20 13:53:00,METAR KMTJ 201353Z AUTO 16007KT 10SM CLR 05/M04 A3040 RMK AO2 SLP247 T00501044,0,7.0,0,16090,0,0,0,
2026-03-20 12:53:00,METAR KMTJ 201253Z AUTO 18008KT 10SM CLR 05/M05 A3039 RMK AO2 SLP236 T00501050,0,8.0,0,16090,0,0,0,
2026-03-20 11:53:00,METAR KMTJ 201153Z AUTO 15007KT 10SM CLR 06/M05 A3038 RMK AO2 SLP230 T00561050 10122 20056 53001,0,7.0,0,16090,0,0,0,
2026-03-20 10:53:00,METAR KMTJ 201053Z AUTO 16006KT 10SM CLR 07/M05 A3037 RMK AO2 SLP225 T00671050,0,6.0,0,16090,0,0,0,
2026-03-20 09:53:00,METAR KMTJ 200953Z AUTO 14009KT 10SM CLR 09/M06 A3037 RMK AO2 SLP221 T00891056,0,9.0,0,16090,0,0,0,
2026-03-20 08:53:00,METAR KMTJ 200853Z AUTO 14009KT 10SM CLR 09/M06 A3038 RMK AO2 SLP223 T00941056 53004,0,9.0,0,16090,0,0,0,
2026-03-20 07:53:00,METAR KMTJ 200753Z AUTO 13010KT 10SM CLR 10/M06 A3037 RMK AO2 SLP220 T01001056,0,10.0,0,16090,0,0,0,
2026-03-20 06:53:00,METAR KMTJ 200653Z AUTO 14008KT 10SM CLR 11/M05 A3037 RMK AO2 SLP223 T01061050 402720028,0,8.0,0,16090,0,0,0,
2026-03-20 05:53:00,METAR KMTJ 200553Z AUTO 14010KT 10SM CLR 12/M06 A3036 RMK AO2 SLP225 T01171056 10261 20117 51005,0,10.0,0,16090,0,0,0,
2026-03-20 04:53:00,METAR KMTJ 200453Z AUTO 14010KT 10SM CLR 12/M05 A3036 RMK AO2 SLP228 T01221050,0,10.0,0,16090,0,0,0,
2026-03-20 03:53:00,METAR KMTJ 200353Z AUTO 15009KT 10SM CLR 14/M05 A3035 RMK AO2 SLP228 T01391050,0,9.0,0,16090,0,0,0,
2026-03-20 02:53:00,METAR KMTJ 200253Z AUTO 14008KT 10SM CLR 15/M05 A3034 RMK AO2 SLP231 T01501050 53011,0,8.0,0,16090,0,0,0,
2026-03-20 01:53:00,METAR KMTJ 200153Z AUTO 26004KT 10SM CLR 21/M06 A3032 RMK AO2 SLP220 T02061061,0,4.0,0,16090,0,0,0,
2026-03-20 00:53:00,METAR KMTJ 200053Z AUTO 32006KT 10SM CLR 24/M07 A3031 RMK AO2 SLP213 T02441067,0,6.0,0,16090,0,0,0,
2026-03-19 23:53:00,METAR KMTJ 192353Z AUTO 35008KT 10SM CLR 26/M07 A3031 RMK AO2 SLP205 T02611072 10272 20194 56010,0,8.0,0,16090,0,0,0,
2026-03-19 22:53:00,METAR KMTJ 192253Z AUTO 32005KT 10SM CLR 27/M09 A3031 RMK AO2 SLP208 T02671089,0,5.0,0,16090,0,0,0,
2026-03-19 21:53:00,METAR KMTJ 192153Z AUTO 01004KT 10SM CLR 26/M09 A3032 RMK AO2 SLP208 T02611094,0,4.0,0,16090,0,0,0,
2026-03-19 20:53:00,METAR KMTJ 192053Z AUTO 03007KT 350V060 10SM CLR 26/M10 A3034 RMK AO2 SLP214 T02611100 58027,0,7.0,0,16090,0,0,0,
2026-03-19 19:53:00,METAR KMTJ 191953Z AUTO 00000KT 10SM CLR 25/M11 A3038 RMK AO2 SLP226 T02501111,0,0.0,0,16090,0,0,0,
2026-03-19 18:53:00,METAR KMTJ 191853Z AUTO 00000KT 10SM CLR 23/M08 A3042 RMK AO2 SLP243 T02281083,0,0.0,0,16090,0,0,0,
2026-03-19 17:53:00,METAR KMTJ 191753Z AUTO 00000KT 10SM CLR 19/M08 A3044 RMK AO2 SLP255 T01941078 10194 20028 58007,0,0.0,0,16090,0,0,0,
2026-03-19 16:53:00,METAR KMTJ 191653Z AUTO 00000KT 10SM CLR 17/M07 A3045 RMK AO2 SLP264 T01671072,0,0.0,0,16090,0,0,0,
2026-03-19 15:53:00,METAR KMTJ 191553Z AUTO 14005KT 10SM CLR 14/M07 A3046 RMK AO2 SLP267 T01391067,0,5.0,0,16090,0,0,0,
2026-03-19 14:53:00,METAR KMTJ 191453Z AUTO 17007KT 10SM CLR 09/M06 A3046 RMK AO2 SLP275 T00891061 53014,0,7.0,0,16090,0,0,0,
2026-03-19 13:53:00,METAR KMTJ 191353Z AUTO 00000KT 10SM CLR 04/M07 A3044 RMK AO2 SLP269 T00441067,0,0.0,0,16090,0,0,0,
2026-03-19 12:53:00,METAR KMTJ 191253Z AUTO 15005KT 10SM CLR 03/M07 A3042 RMK AO2 SLP254 T00331072,0,5.0,0,16090,0,0,0,
2026-03-19 11:53:00,METAR KMTJ 191153Z AUTO 15008KT 10SM CLR 04/M07 A3041 RMK AO2 SLP248 T00441067 10100 20033 55002,0,8.0,0,16090,0,0,0,
2026-03-19 10:53:00,METAR KMTJ 191053Z AUTO 15007KT 10SM CLR 03/M07 A3041 RMK AO2 SLP246 T00331067,0,7.0,0,16090,0,0,0,
2026-03-19 09:53:00,METAR KMTJ 190953Z AUTO 17007KT 10SM CLR 06/M07 A3041 RMK AO2 SLP245 T00561067,0,7.0,0,16090,0,0,0,
2026-03-19 08:53:00,METAR KMTJ 190853Z AUTO 18008KT 10SM CLR 07/M07 A3042 RMK AO2 SLP246 T00671072 53007,0,8.0,0,16090,0,0,0,
2026-03-19 07:53:00,METAR KMTJ 190753Z AUTO 16008KT 10SM CLR 08/M07 A3040 RMK AO2 SLP241 T00781072,0,8.0,0,16090,0,0,0,
2026-03-19 06:53:00,METAR KMTJ 190653Z AUTO 15011KT 10SM CLR 08/M08 A3040 RMK AO2 SLP244 T00831078 402440006,0,11.0,0,16090,0,0,0,
2026-03-19 05:53:00,METAR KMTJ 190553Z AUTO 15011KT 10SM CLR 09/M08 A3039 RMK AO2 SLP243 T00941083 10233 20094 51016,0,11.0,0,16090,0,0,0,
2026-03-19 04:53:00,METAR KMTJ 190453Z AUTO 15010KT 10SM CLR 09/M07 A3038 RMK AO2 SLP244 T00941072,0,10.0,0,16090,0,0,0,
2026-03-19 03:53:00,METAR KMTJ 190353Z AUTO 14011KT 10SM CLR 12/M07 A3036 RMK AO2 SLP239 T01171072,0,11.0,0,16090,0,0,0,
2026-03-19 02:53:00,METAR KMTJ 190253Z AUTO 16006KT 10SM CLR 13/M07 A3034 RMK AO2 SLP234 T01331072 53009,0,6.0,0,16090,0,0,0,
2026-03-19 01:53:00,METAR KMTJ 190153Z AUTO 00000KT 10SM CLR 17/M09 A3032 RMK AO2 SLP229 T01671089,0,0.0,0,16090,0,0,0,
2026-03-19 00:53:00,METAR KMTJ 190053Z AUTO 35004KT 10SM CLR 22/M10 A3031 RMK AO2 SLP219 T02171100,0,4.0,0,16090,0,0,0,
2026-03-18 23:53:00,METAR KMTJ 182353Z AUTO 35005KT 10SM CLR 23/M12 A3031 RMK AO2 SLP214 T02331117 10244 20167 56007,0,5.0,0,16090,0,0,0,
2026-03-18 22:53:00,METAR KMTJ 182253Z AUTO VRB04KT 10SM CLR 24/M12 A3031 RMK AO2 SLP213 T02391122,0,4.0,0,16090,0,0,0,
2026-03-18 21:53:00,METAR KMTJ 182153Z AUTO VRB04KT 10SM CLR 23/M13 A3031 RMK AO2 SLP215 T02331133,0,4.0,0,16090,0,0,0,
2026-03-18 20:53:00,METAR KMTJ 182053Z AUTO VRB03KT 9SM CLR 23/M13 A3033 RMK AO2 SLP221 T02281133 58014,0,3.0,0,14481,0,0,0,
2026-03-18 19:53:00,METAR KMTJ 181953Z AUTO 00000KT 10SM CLR 22/M12 A3035 RMK AO2 SLP228 T02171122,0,0.0,0,16090,0,0,0,
2026-03-18 18:53:00,METAR KMTJ 181853Z AUTO VRB03KT 10SM CLR 19/M08 A3037 RMK AO2 SLP235 T01941078,0,3.0,0,16090,0,0,0,
2026-03-18 17:53:00,METAR KMTJ 181753Z AUTO VRB04KT 10SM CLR 17/M07 A3038 RMK AO2 SLP242 T01671072 10167 20006 50003,0,4.0,0,16090,0,0,0,
2026-03-18 16:53:00,METAR KMTJ 181653Z AUTO 00000KT 10SM CLR 14/M06 A3038 RMK AO2 SLP246 T01391061,0,0.0,0,16090,0,0,0,
2026-03-18 15:53:00,METAR KMTJ 181553Z AUTO 00000KT 10SM CLR 11/M06 A3038 RMK AO2 SLP250 T01061061,0,0.0,0,16090,0,0,0,
2026-03-18 14:53:00,METAR KMTJ 181453Z AUTO 18005KT 10SM CLR 07/M06 A3037 RMK AO2 SLP248 T00721056 53010,0,5.0,0,16090,0,0,0,
2026-03-18 13:53:00,METAR KMTJ 181353Z AUTO 14006KT 10SM CLR 03/M06 A3036 RMK AO2 SLP248 T00281061,0,6.0,0,16090,0,0,0,
2026-03-18 12:53:00,METAR KMTJ 181253Z AUTO 16007KT 10SM CLR 01/M06 A3034 RMK AO2 SLP236 T00111061,0,7.0,0,16090,0,0,0,
2026-03-18 11:53:00,METAR KMTJ 181153Z AUTO 15007KT 10SM CLR 02/M06 A3033 RMK AO2 SLP230 T00221061 10078 20022 53008,0,7.0,0,16090,0,0,0,
2026-03-18 10:53:00,METAR KMTJ 181053Z AUTO 15005KT 10SM CLR 03/M06 A3031 RMK AO2 SLP220 T00331061,0,5.0,0,16090,0,0,0,
2026-03-18 09:53:00,METAR KMTJ 180953Z AUTO 15007KT 10SM CLR 03/M06 A3029 RMK AO2 SLP214 T00331061,0,7.0,0,16090,0,0,0,
2026-03-18 08:53:00,METAR KMTJ 180853Z AUTO 16007KT 10SM CLR 04/M06 A3030 RMK AO2 SLP220 T00391061 53012,0,7.0,0,16090,0,0,0,
2026-03-18 07:53:00,METAR KMTJ 180753Z AUTO 17006KT 10SM CLR 04/M06 A3028 RMK AO2 SLP215 T00441061,0,6.0,0,16090,0,0,0,
2026-03-18 06:53:00,METAR KMTJ 180653Z AUTO 15007KT 10SM CLR 07/M07 A3027 RMK AO2 SLP209 T00671072 402001006,0,7.0,0,16090,0,0,0,
2026-03-18 05:53:00,METAR KMTJ 180553Z AUTO 14009KT 10SM CLR 08/M07 A3026 RMK AO2 SLP205 T00781072 10194 20061 53010,0,9.0,0,16090,0,0,0,
2026-03-18 04:53:00,METAR KMTJ 180453Z AUTO 14009KT 10SM CLR 09/M07 A3024 RMK AO2 SLP202 T00891072,0,9.0,0,16090,0,0,0,
2026-03-18 03:53:00,METAR KMTJ 180353Z AUTO 15010KT 10SM CLR 09/M06 A3025 RMK AO2 SLP208 T00891061,0,10.0,0,16090,0,0,0,
2026-03-18 02:53:00,METAR KMTJ 180253Z AUTO 12007KT 10SM CLR 11/M07 A3023 RMK AO2 SLP206 T01111067 53014,0,7.0,0,16090,0,0,0,
2026-03-18 01:53:00,METAR KMTJ 180153Z AUTO 06003KT 10SM CLR 13/M07 A3021 RMK AO2 SLP203 T01331072,0,3.0,0,16090,0,0,0,
2026-03-18 00:53:00,METAR KMTJ 180053Z AUTO 30007KT 10SM CLR 18/M08 A3019 RMK AO2 SLP185 T01831078,0,7.0,0,16090,0,0,0,
2026-03-17 23:53:00,METAR KMTJ 172353Z AUTO 33005KT 10SM CLR 19/M09 A3018 RMK AO2 SLP181 T01941089 10200 20133 57001,0,5.0,0,16090,0,0,0,
2026-03-17 22:53:00,METAR KMTJ 172253Z AUTO 30009KT 10SM CLR 19/M09 A3018 RMK AO2 SLP182 T01941089,0,9.0,0,16090,0,0,0,
2026-03-17 21:53:00,METAR KMTJ 172153Z AUTO 31011G16KT 10SM CLR 19/M08 A3018 RMK AO2 SLP180 T01941078,0,11.0,1,16090,0,0,0,
2026-03-17 20:53:00,METAR KMTJ 172053Z AUTO 00000KT 10SM CLR 18/M04 A3018 RMK AO2 SLP184 T01781039 58021,0,0.0,0,16090,0,0,0,
2026-03-17 19:53:00,METAR KMTJ 171953Z AUTO VRB04KT 10SM CLR 17/M03 A3022 RMK AO2 SLP198 T01671033,0,4.0,0,16090,0,0,0,
2026-03-17 18:53:00,METAR KMTJ 171853Z AUTO 00000KT 10SM CLR 16/M03 A3024 RMK AO2 SLP209 T01561028,0,0.0,0,16090,0,0,0,
2026-03-17 17:53:00,METAR KMTJ 171753Z AUTO 00000KT 10SM CLR 14/M04 A3026 RMK AO2 SLP214 T01391039 10139 21006 50000,0,0.0,0,16090,0,0,0,
2026-03-17 16:53:00,METAR KMTJ 171653Z AUTO 00000KT 10SM CLR 11/M04 A3026 RMK AO2 SLP219 T01111044,0,0.0,0,16090,0,0,0,
2026-03-17 15:53:00,METAR KMTJ 171553Z AUTO 00000KT 10SM CLR 08/M04 A3026 RMK AO2 SLP223 T00831039,0,0.0,0,16090,0,0,0,
2026-03-17 14:53:00,METAR KMTJ 171453Z AUTO 16003KT 10SM CLR 04/M03 A3026 RMK AO2 SLP225 T00441033 53012,0,3.0,0,16090,0,0,0,
2026-03-17 13:53:00,METAR KMTJ 171353Z AUTO 16006KT 10SM CLR 00/M05 A3023 RMK AO2 SLP221 T00001050,0,6.0,0,16090,0,0,0,
2026-03-17 12:53:00,METAR KMTJ 171253Z AUTO 15007KT 10SM CLR 00/M06 A3023 RMK AO2 SLP215 T00001056,0,7.0,0,16090,0,0,0,
2026-03-17 11:53:00,METAR KMTJ 171153Z AUTO 14007KT 10SM CLR 00/M05 A3022 RMK AO2 SLP208 T00001050 10028 21006 56001,0,7.0,0,16090,0,0,0,
2026-03-17 10:53:00,METAR KMTJ 171053Z AUTO 17005KT 10SM SCT090 00/M06 A3022 RMK AO2 SLP209 T00001056,0,5.0,0,16090,0,0,0,
2026-03-17 09:53:00,METAR KMTJ 170953Z AUTO 16006KT 10SM CLR 01/M05 A3021 RMK AO2 SLP208 T00061050,0,6.0,0,16090,0,0,0,
2026-03-17 08:53:00,METAR KMTJ 170853Z AUTO 13004KT 10SM CLR 01/M06 A3022 RMK AO2 SLP212 T00111056 55008,0,4.0,0,16090,0,0,0,
2026-03-17 07:53:00,METAR KMTJ 170753Z AUTO 15007KT 10SM CLR 01/M06 A3022 RMK AO2 SLP211 T00111056,0,7.0,0,16090,0,0,0,
2026-03-17 06:53:00,METAR KMTJ 170653Z AUTO 13006KT 10SM CLR 01/M06 A3023 RMK AO2 SLP221 T00111061 401221061,0,6.0,0,16090,0,0,0,
2026-03-17 05:53:00,METAR KMTJ 170553Z AUTO 14006KT 10SM CLR 03/M06 A3025 RMK AO2 SLP225 T00281061 10117 20028 51009,0,6.0,0,16090,0,0,0,
2026-03-17 04:53:00,METAR KMTJ 170453Z AUTO 17004KT 10SM BKN080 04/M06 A3025 RMK AO2 SLP227 T00441056,0,4.0,0,16090,0,0,0,
2026-03-17 03:53:00,METAR KMTJ 170353Z AUTO 13008KT 10SM SCT080 05/M06 A3023 RMK AO2 SLP228 T00501061,0,8.0,0,16090,0,0,0,
2026-03-17 02:53:00,METAR KMTJ 170253Z AUTO 14007KT 10SM CLR 06/M07 A3021 RMK AO2 SLP221 T00611067 53007,0,7.0,0,16090,0,0,0,
2026-03-17 01:53:00,METAR KMTJ 170153Z AUTO 11005KT 10SM CLR 08/M08 A3021 RMK AO2 SLP219 T00831078,0,5.0,0,16090,0,0,0,
2026-03-17 00:53:00,METAR KMTJ 170053Z AUTO 00000KT 10SM CLR 11/M08 A3019 RMK AO2 SLP208 T01111083,0,0.0,0,16090,0,0,0,
2026-03-16 23:53:00,METAR KMTJ 162353Z AUTO 32004KT 10SM CLR 12/M08 A3019 RMK AO2 SLP210 T01171083 10122 20061 58006,0,4.0,0,16090,0,0,0,
2026-03-16 22:53:00,METAR KMTJ 162253Z AUTO 31005KT 10SM CLR 12/M09 A3020 RMK AO2 SLP212 T01171089,0,5.0,0,16090,0,0,0,
2026-03-16 21:53:00,METAR KMTJ 162153Z AUTO 31005KT 10SM CLR 11/M08 A3021 RMK AO2 SLP213 T01111083,0,5.0,0,16090,0,0,0,
2026-03-16 20:53:00,METAR KMTJ 162053Z AUTO 35005KT 10SM CLR 10/M09 A3021 RMK AO2 SLP217 T01001089 58014,0,5.0,0,16090,0,0,0,
2026-03-16 19:53:00,METAR KMTJ 161953Z AUTO 07005KT 10SM CLR 09/M11 A3023 RMK AO2 SLP224 T00941106,0,5.0,0,16090,0,0,0,
2026-03-16 18:53:00,METAR KMTJ 161853Z AUTO VRB03KT 10SM SCT065 08/M12 A3024 RMK AO2 SLP231 T00781122,0,3.0,0,16090,0,0,0,
2026-03-16 17:53:00,METAR KMTJ 161753Z AUTO 29004KT 10SM OVC065 06/M15 A3026 RMK AO2 SLP239 T00611150 10067 21050 50003,0,4.0,0,16090,0,0,0,
2026-03-16 16:53:00,METAR KMTJ 161653Z AUTO 16005KT 10SM OVC070 03/M13 A3026 RMK AO2 SLP246 T00331128,0,5.0,0,16090,0,0,0,
2026-03-16 15:53:00,METAR KMTJ 161553Z AUTO 19004KT 10SM OVC075 01/M11 A3027 RMK AO2 SLP250 T00061106,0,4.0,0,16090,0,0,0,
2026-03-16 14:53:00,METAR KMTJ 161453Z AUTO 18004KT 10SM OVC090 M01/M11 A3025 RMK AO2 SLP243 T10061111 53009,0,4.0,0,16090,0,0,0,
2026-03-16 13:53:00,METAR KMTJ 161353Z AUTO 17005KT 10SM BKN095 M03/M11 A3022 RMK AO2 SLP232 T10331111,0,5.0,0,16090,0,0,0,
2026-03-16 12:53:00,METAR KMTJ 161253Z AUTO 18005KT 10SM FEW085 M04/M12 A3022 RMK AO2 SLP235 T10391117,0,5.0,0,16090,0,0,0,
2026-03-16 11:53:00,METAR KMTJ 161153Z AUTO 15005KT 10SM CLR M06/M12 A3022 RMK AO2 SLP232 T10561117 11017 21061 56004,0,5.0,0,16090,0,0,0,
2026-03-16 10:53:00,METAR KMTJ 161053Z AUTO 13004KT 10SM CLR M05/M12 A3022 RMK AO2 SLP230 T10501122,0,4.0,0,16090,0,0,0,
2026-03-16 09:53:00,METAR KMTJ 160953Z AUTO 16007KT 10SM CLR M04/M12 A3022 RMK AO2 SLP230 T10391122,0,7.0,0,16090,0,0,0,
2026-03-16 08:53:00,METAR KMTJ 160853Z AUTO 16004KT 10SM CLR M03/M13 A3023 RMK AO2 SLP232 T10331128 58003,0,4.0,0,16090,0,0,0,
2026-03-16 07:53:00,METAR KMTJ 160753Z AUTO 00000KT 10SM CLR M03/M14 A3024 RMK AO2 SLP241 T10331144,0,0.0,0,16090,0,0,0,
2026-03-16 06:53:00,METAR KMTJ 160653Z AUTO 15005KT 10SM CLR M03/M14 A3024 RMK AO2 SLP240 T10281139 401281028,0,5.0,0,16090,0,0,0,
2026-03-16 05:53:00,METAR KMTJ 160553Z AUTO 14005KT 10SM CLR M02/M14 A3024 RMK AO2 SLP238 T10171144 10061 21017 52012,0,5.0,0,16090,0,0,0,
2026-03-16 04:53:00,METAR KMTJ 160453Z AUTO 17005KT 10SM CLR M02/M15 A3023 RMK AO2 SLP233 T10171150,0,5.0,0,16090,0,0,0,
2026-03-16 03:53:00,METAR KMTJ 160353Z AUTO 14009KT 10SM CLR 00/M16 A3021 RMK AO2 SLP226 T00001156,0,9.0,0,16090,0,0,0,
2026-03-16 02:53:00,METAR KMTJ 160253Z AUTO 17007KT 10SM CLR 02/M17 A3020 RMK AO2 SLP219 T00171167 53004,0,7.0,0,16090,0,0,0,
2026-03-16 01:53:00,METAR KMTJ 160153Z AUTO 22003KT 10SM CLR 04/M19 A3019 RMK AO2 SLP208 T00391189,0,3.0,0,16090,0,0,0,
2026-03-16 00:53:00,METAR KMTJ 160053Z AUTO 29007KT 10SM CLR 05/M21 A3017 RMK AO2 SLP197 T00501206,0,7.0,0,16090,0,0,0,
2026-03-15 23:53:00,METAR KMTJ 152353Z AUTO 31011KT 10SM CLR 06/M21 A3019 RMK AO2 SLP198 T00611211 10072 20033 58004,0,11.0,0,16090,0,0,0,
2026-03-15 22:53:00,METAR KMTJ 152253Z AUTO 31016G25KT 10SM CLR 07/M21 A3020 RMK AO2 SLP195 T00721211,0,16.0,1,16090,0,0,0,
2026-03-15 21:53:00,METAR KMTJ 152153Z AUTO 30008G16KT 10SM CLR 07/M21 A3019 RMK AO2 SLP191 T00671206,0,8.0,1,16090,0,0,0,
2026-03-15 20:53:00,METAR KMTJ 152053Z AUTO 30010KT 10SM CLR 07/M21 A3020 RMK AO2 PK WND 32027/2047 SLP190 T00671206 58008,0,10.0,0,16090,0,0,0,
2026-03-15 19:53:00,METAR KMTJ 151953Z AUTO 27007G16KT 10SM CLR 04/M22 A3022 RMK AO2 SLP202 T00441222,0,7.0,1,16090,0,0,0,
2026-03-15 18:53:00,METAR KMTJ 151853Z AUTO 32007G17KT 10SM CLR 04/M21 A3022 RMK AO2 SLP209 T00391206,0,7.0,1,16090,0,0,0,
2026-03-15 17:53:00,METAR KMTJ 151753Z AUTO 30011G20KT 10SM CLR 03/M19 A3023 RMK AO2 SLP218 T00331194 10061 20022 50018,0,11.0,1,16090,0,0,0,
2026-03-15 16:53:00,METAR KMTJ 151653Z AUTO 32012G22KT 10SM CLR 03/M19 A3024 RMK AO2 SLP209 T00331194,0,12.0,1,16090,0,0,0,
2026-03-15 15:53:00,METAR KMTJ 151553Z AUTO 31016KT 10SM CLR 03/M18 A3021 RMK AO2 SLP196 T00281178,0,16.0,0,16090,0,0,0,
2026-03-15 14:53:00,METAR KMTJ 151453Z AUTO 33011G22KT 10SM CLR 02/M17 A3017 RMK AO2 PK WND 30030/1355 SLP182 T00221167 51052,0,11.0,1,16090,0,0,0,
2026-03-15 13:53:00,METAR KMTJ 151353Z AUTO 30024G32KT 10SM CLR 03/M22 A3010 RMK AO2 PK WND 32037/1254 SLP154 T00331217,0,24.0,1,16090,0,0,0,
2026-03-15 12:53:00,METAR KMTJ 151253Z AUTO 32023G37KT 10SM OVC080 04/M22 A3006 RMK AO2 PK WND 31039/1236 SLP134 T00441217,0,23.0,1,16090,0,0,0,
2026-03-15 11:53:00,METAR KMTJ 151153Z AUTO 32025G34KT 10SM FEW095 06/M12 A2998 RMK AO2 PK WND 32039/1128 SLP102 T00611117 10128 20061 53041,0,25.0,1,16090,0,0,0,
2026-03-15 10:53:00,METAR KMTJ 151053Z AUTO 32022G33KT 10SM FEW060 BKN095 08/M07 A2992 RMK AO2 PK WND 33034/1040 SLP072 T00831067,0,22.0,1,16090,0,0,0,
2026-03-15 09:53:00,METAR KMTJ 150953Z AUTO 32021G32KT 10SM FEW095 09/M06 A2988 RMK AO2 PK WND 32032/0951 SLP055 T00941061,0,21.0,1,16090,0,0,0,
2026-03-15 08:53:00,METAR KMTJ 150853Z AUTO 29014KT 10SM CLR 12/M07 A2984 RMK AO2 SLP039 T01171067 53002,0,14.0,0,16090,0,0,0,
