Time_recorded,METAR,is_cavok,wind_speed,is_gust,visibility_meters,has_thunderstorm,has_heavy_rain,has_low_vis_fog,other_phenomenon
2026-05-02 15:30:00,METAR KGVT 021530Z AUTO 00000KT 10SM CLR 18/08 A3018 RMK AO2,0,0,0,16090,0,0,0,
2026-05-02 15:10:00,METAR KGVT 021510Z AUTO 00000KT 10SM CLR 18/08 A3018 RMK AO2,0,0,0,16090,0,0,0,
2026-05-02 14:50:00,METAR KGVT 021450Z AUTO 36005KT 10SM CLR 17/09 A3018 RMK AO2,0,5,0,16090,0,0,0,
2026-05-02 14:30:00,METAR KGVT 021430Z AUTO 01005KT 10SM CLR 16/09 A3018 RMK AO2,0,5,0,16090,0,0,0,
2026-05-02 14:10:00,METAR KGVT 021410Z AUTO 36005KT 10SM CLR 15/09 A3017 RMK AO2,0,5,0,16090,0,0,0,
2026-05-02 13:50:00,METAR KGVT 021350Z AUTO 36005KT 10SM CLR 14/09 A3017 RMK AO2,0,5,0,16090,0,0,0,
2026-05-02 13:30:00,METAR KGVT 021330Z AUTO 34005KT 10SM CLR 13/09 A3016 RMK AO2,0,5,0,16090,0,0,0,
2026-05-02 13:10:00,METAR KGVT 021310Z AUTO 35003KT 10SM CLR 13/09 A3015 RMK AO2,0,3,0,16090,0,0,0,
2026-05-02 12:50:00,METAR KGVT 021250Z AUTO 00000KT 10SM CLR 11/10 A3014 RMK AO2,0,0,0,16090,0,0,0,
2026-05-02 12:30:00,METAR KGVT 021230Z AUTO 32004KT 10SM CLR 10/10 A3014 RMK AO2,0,4,0,16090,0,0,0,
2026-05-02 12:10:00,METAR KGVT 021210Z AUTO 30003KT 10SM CLR 09/09 A3013 RMK AO2,0,3,0,16090,0,0,0,
2026-05-02 11:50:00,METAR KGVT 021150Z AUTO 33003KT 10SM CLR 09/09 A3012 RMK AO2,0,3,0,16090,0,0,0,
2026-05-02 11:30:00,METAR KGVT 021130Z AUTO 30004KT 10SM CLR 09/09 A3012 RMK AO2,0,4,0,16090,0,0,0,
2026-05-02 11:10:00,METAR KGVT 021110Z AUTO 29003KT 10SM CLR 09/09 A3011 RMK AO2,0,3,0,16090,0,0,0,
2026-05-02 10:50:00,METAR KGVT 021050Z AUTO 32003KT 10SM CLR 10/09 A3009 RMK AO2,0,3,0,16090,0,0,0,
2026-05-02 10:30:00,METAR KGVT 021030Z AUTO 00000KT 10SM CLR 09/09 A3009 RMK AO2,0,0,0,16090,0,0,0,
2026-05-02 10:10:00,METAR KGVT 021010Z AUTO 28004KT 10SM CLR 09/ A3009 RMK AO2,0,4,0,16090,0,0,0,
2026-05-02 09:50:00,METAR KGVT 020950Z AUTO 00000KT 10SM CLR 10/10 A3009 RMK AO2,0,0,0,16090,0,0,0,
2026-05-02 09:30:00,METAR KGVT 020930Z AUTO 31003KT 10SM CLR 10/10 A3009 RMK AO2,0,3,0,16090,0,0,0,
2026-05-02 09:10:00,METAR KGVT 020910Z AUTO 31003KT 10SM CLR 10/ A3008 RMK AO2,0,3,0,16090,0,0,0,
2026-05-02 08:50:00,METAR KGVT 020850Z AUTO 34003KT 10SM CLR 10/ A3008 RMK AO2,0,3,0,16090,0,0,0,
2026-05-02 08:30:00,METAR KGVT 020830Z AUTO 00000KT 10SM CLR 11/10 A3008 RMK AO2,0,0,0,16090,0,0,0,
2026-05-02 08:10:00,METAR KGVT 020810Z AUTO 30004KT 10SM CLR 11/11 A3008 RMK AO2,0,4,0,16090,0,0,0,
2026-05-02 07:50:00,METAR KGVT 020750Z AUTO 29004KT 10SM CLR 11/11 A3008 RMK AO2,0,4,0,16090,0,0,0,
2026-05-02 07:30:00,METAR KGVT 020730Z AUTO 30004KT 10SM CLR 12/11 A3009 RMK AO2,0,4,0,16090,0,0,0,
2026-05-02 07:10:00,METAR KGVT 020710Z AUTO 29004KT 10SM CLR 12/11 A3009 RMK AO2,0,4,0,16090,0,0,0,
2026-05-02 06:50:00,METAR KGVT 020650Z AUTO 28005KT 10SM CLR 12/12 A3009 RMK AO2,0,5,0,16090,0,0,0,
2026-05-02 06:35:00,METAR KGVT 020635Z AUTO 29004KT 10SM CLR 12/12 A3009 RMK AO2,0,4,0,16090,0,0,0,
2026-05-02 06:10:00,METAR KGVT 020610Z AUTO 29004KT 10SM CLR 13/12 A3009 RMK AO2,0,4,0,16090,0,0,0,
2026-05-02 05:55:00,METAR KGVT 020555Z AUTO 29004KT 10SM CLR 13/12 A3009 RMK AO2,0,4,0,16090,0,0,0,
2026-05-02 05:30:00,METAR KGVT 020530Z AUTO 29004KT 10SM CLR 12/12 A3009 RMK AO2,0,4,0,16090,0,0,0,
2026-05-02 05:15:00,METAR KGVT 020515Z AUTO 00000KT 10SM CLR 13/12 A3009 RMK AO2,0,0,0,16090,0,0,0,
2026-05-02 04:50:00,METAR KGVT 020450Z AUTO 28003KT 10SM CLR 13/13 A3009 RMK AO2,0,3,0,16090,0,0,0,
2026-05-02 04:30:00,METAR KGVT 020430Z AUTO 30003KT 10SM CLR 14/13 A3009 RMK AO2,0,3,0,16090,0,0,0,
2026-05-02 04:10:00,METAR KGVT 020410Z AUTO 29003KT 10SM CLR 14/13 A3009 RMK AO2,0,3,0,16090,0,0,0,
2026-05-02 03:55:00,METAR KGVT 020355Z AUTO 30003KT 10SM CLR 14/13 A3009 RMK AO2,0,3,0,16090,0,0,0,
2026-05-02 03:35:00,METAR KGVT 020335Z AUTO 00000KT 10SM SCT060 SCT070 BKN080 14/14 A3009 RMK AO2,0,0,0,16090,0,0,0,
2026-05-02 03:10:00,METAR KGVT 020310Z AUTO 00000KT 10SM BKN065 OVC080 14/14 A3009 RMK AO2,0,0,0,16090,0,0,0,
2026-05-02 02:55:00,METAR KGVT 020255Z AUTO 00000KT 10SM BKN065 OVC080 15/13 A3008 RMK AO2,0,0,0,16090,0,0,0,
2026-05-02 02:35:00,METAR KGVT 020235Z AUTO 00000KT 10SM BKN065 BKN075 OVC120 14/ A3008 RMK AO2,0,0,0,16090,0,0,0,
2026-05-02 02:15:00,METAR KGVT 020215Z AUTO 00000KT 10SM SCT065 SCT080 BKN120 14/ A3007 RMK AO2,0,0,0,16090,0,0,0,
2026-05-02 01:55:00,METAR KGVT 020155Z AUTO 00000KT 10SM SCT075 SCT090 15/14 A3006 RMK AO2,0,0,0,16090,0,0,0,
2026-05-02 01:35:00,METAR KGVT 020135Z AUTO 17004KT 10SM -RA SCT075 OVC090 15/14 A3005 RMK AO2,0,4,0,16090,0,0,0,-RA
2026-05-02 01:10:00,METAR KGVT 020110Z AUTO 19004KT 10SM SCT060 BKN075 OVC090 15/14 A3004 RMK AO2,0,4,0,16090,0,0,0,
2026-05-02 00:50:00,METAR KGVT 020050Z AUTO 18004KT 10SM BKN060 OVC100 15/14 A3004 RMK AO2,0,4,0,16090,0,0,0,
2026-05-02 00:30:00,METAR KGVT 020030Z AUTO 00000KT 10SM SCT060 OVC100 16/13 A3002 RMK AO2,0,0,0,16090,0,0,0,
2026-05-02 00:15:00,METAR KGVT 020015Z AUTO 00000KT 10SM OVC100 16/12 A3001 RMK AO2,0,0,0,16090,0,0,0,
2026-05-01 23:55:00,METAR KGVT 012355Z AUTO 00000KT 10SM SCT065 OVC100 16/13 A3000 RMK AO2,0,0,0,16090,0,0,0,
2026-05-01 23:35:00,METAR KGVT 012335Z AUTO 00000KT 10SM SCT065 BKN100 OVC110 16/13 A3000 RMK AO2,0,0,0,16090,0,0,0,
2026-05-01 23:15:00,METAR KGVT 012315Z AUTO 00000KT 10SM OVC100 16/11 A2999 RMK AO2,0,0,0,16090,0,0,0,
2026-05-01 22:55:00,METAR KGVT 012255Z AUTO 00000KT 10SM OVC110 16/11 A2999 RMK AO2,0,0,0,16090,0,0,0,
2026-05-01 22:30:00,METAR KGVT 012230Z AUTO 04003KT 10SM OVC110 16/10 A2998 RMK AO2,0,3,0,16090,0,0,0,
2026-05-01 22:15:00,METAR KGVT 012215Z AUTO 03003KT 10SM OVC095 16/10 A2998 RMK AO2,0,3,0,16090,0,0,0,
2026-05-01 21:55:00,METAR KGVT 012155Z AUTO 06005KT 10SM OVC085 16/10 A2998 RMK AO2,0,5,0,16090,0,0,0,
2026-05-01 21:35:00,METAR KGVT 012135Z AUTO 05004KT 10SM OVC085 16/10 A2997 RMK AO2,0,4,0,16090,0,0,0,
2026-05-01 21:15:00,METAR KGVT 012115Z AUTO 06006KT 10SM OVC085 16/09 A2998 RMK AO2,0,6,0,16090,0,0,0,
2026-05-01 20:55:00,METAR KGVT 012055Z AUTO 06007KT 10SM OVC085 16/09 A3000 RMK AO2,0,7,0,16090,0,0,0,
2026-05-01 20:35:00,METAR KGVT 012035Z AUTO 05008KT 10SM OVC085 16/08 A3000 RMK AO2,0,8,0,16090,0,0,0,
2026-05-01 20:15:00,METAR KGVT 012015Z AUTO 04006KT 10SM OVC085 16/08 A3001 RMK AO2,0,6,0,16090,0,0,0,
2026-05-01 19:55:00,METAR KGVT 011955Z AUTO 04009G14KT 10SM OVC085 16/09 A2999 RMK AO2,0,9,1,16090,0,0,0,
2026-05-01 19:35:00,METAR KGVT 011935Z AUTO 05009G16KT 10SM OVC085 16/09 A2999 RMK AO2,0,9,1,16090,0,0,0,
2026-05-01 19:15:00,METAR KGVT 011915Z AUTO 05012G17KT 10SM OVC085 16/08 A2998 RMK AO2,0,12,1,16090,0,0,0,
2026-05-01 18:55:00,METAR KGVT 011855Z AUTO 06012G17KT 10SM SCT060 OVC085 16/08 A2999 RMK AO2,0,12,1,16090,0,0,0,
2026-05-01 18:35:00,METAR KGVT 011835Z AUTO 04012G18KT 10SM OVC060 17/08 A3000 RMK AO2,0,12,1,16090,0,0,0,
2026-05-01 18:15:00,METAR KGVT 011815Z AUTO 05010KT 10SM OVC060 17/09 A3002 RMK AO2,0,10,0,16090,0,0,0,
2026-05-01 17:55:00,METAR KGVT 011755Z AUTO 06011G19KT 10SM BKN060 OVC075 17/09 A3003 RMK AO2,0,11,1,16090,0,0,0,
2026-05-01 17:35:00,METAR KGVT 011735Z AUTO 04009KT 10SM OVC070 16/10 A3004 RMK AO2,0,9,0,16090,0,0,0,
2026-05-01 17:15:00,METAR KGVT 011715Z AUTO 05010KT 10SM OVC070 16/10 A3005 RMK AO2,0,10,0,16090,0,0,0,
2026-05-01 16:55:00,METAR KGVT 011655Z AUTO 05009KT 10SM BKN070 15/11 A3005 RMK AO2,0,9,0,16090,0,0,0,
2026-05-01 16:35:00,METAR KGVT 011635Z AUTO 04009KT 10SM BKN070 15/11 A3005 RMK AO2,0,9,0,16090,0,0,0,
2026-05-01 16:15:00,METAR KGVT 011615Z AUTO 05008KT 10SM SCT070 SCT120 14/11 A3006 RMK AO2,0,8,0,16090,0,0,0,
2026-05-01 15:55:00,METAR KGVT 011555Z AUTO 06004KT 10SM BKN070 BKN120 14/11 A3007 RMK AO2,0,4,0,16090,0,0,0,
2026-05-01 15:35:00,METAR KGVT 011535Z AUTO 05005KT 10SM BKN070 OVC100 14/11 A3007 RMK AO2,0,5,0,16090,0,0,0,
2026-05-01 15:15:00,METAR KGVT 011515Z AUTO 07005KT 10SM SCT100 BKN120 14/11 A3006 RMK AO2,0,5,0,16090,0,0,0,
2026-05-01 14:55:00,METAR KGVT 011455Z AUTO 08004KT 10SM SCT070 SCT120 13/11 A3006 RMK AO2,0,4,0,16090,0,0,0,
2026-05-01 14:35:00,METAR KGVT 011435Z AUTO 06006KT 10SM BKN070 13/10 A3004 RMK AO2,0,6,0,16090,0,0,0,
2026-05-01 14:15:00,METAR KGVT 011415Z AUTO 05008KT 10SM OVC070 13/11 A3004 RMK AO2,0,8,0,16090,0,0,0,
2026-05-01 13:55:00,METAR KGVT 011355Z AUTO 04008KT 10SM OVC070 13/11 A3004 RMK AO2,0,8,0,16090,0,0,0,
2026-05-01 13:35:00,METAR KGVT 011335Z AUTO 02006KT 10SM OVC070 13/11 A3006 RMK AO2,0,6,0,16090,0,0,0,
2026-05-01 13:15:00,METAR KGVT 011315Z AUTO 03004KT 10SM OVC070 13/11 A3006 RMK AO2,0,4,0,16090,0,0,0,
2026-05-01 12:55:00,METAR KGVT 011255Z AUTO 04003KT 10SM OVC060 13/12 A3004 RMK AO2,0,3,0,16090,0,0,0,
2026-05-01 12:35:00,METAR KGVT 011235Z AUTO 02005KT 10SM OVC060 13/12 A3002 RMK AO2,0,5,0,16090,0,0,0,
2026-05-01 12:15:00,METAR KGVT 011215Z AUTO 06006KT 10SM OVC060 13/12 A3000 RMK AO2,0,6,0,16090,0,0,0,
2026-05-01 11:55:00,METAR KGVT 011155Z AUTO 03005KT 10SM OVC060 13/13 A3000 RMK AO2,0,5,0,16090,0,0,0,
2026-05-01 11:35:00,METAR KGVT 011135Z AUTO 03003KT 10SM -RA BKN060 BKN070 OVC100 13/13 A3001 RMK AO2,0,3,0,16090,0,0,0,-RA
2026-05-01 11:15:00,METAR KGVT 011115Z AUTO 03004KT 10SM SCT060 OVC070 13/13 A3000 RMK AO2,0,4,0,16090,0,0,0,
2026-05-01 10:55:00,METAR KGVT 011055Z AUTO 07003KT 10SM BKN070 BKN120 13/13 A3000 RMK AO2,0,3,0,16090,0,0,0,
2026-05-01 10:35:00,METAR KGVT 011035Z AUTO 03004KT 10SM SCT100 BKN120 13/13 A2999 RMK AO2,0,4,0,16090,0,0,0,
2026-05-01 10:15:00,METAR KGVT 011015Z AUTO 05004KT 10SM BKN110 13/13 A2999 RMK AO2,0,4,0,16090,0,0,0,
2026-05-01 09:55:00,METAR KGVT 010955Z AUTO 06005KT 10SM BKN049 14/13 A3000 RMK AO2,0,5,0,16090,0,0,0,
2026-05-01 09:35:00,METAR KGVT 010935Z AUTO 06005KT 10SM OVC049 14/13 A2999 RMK AO2,0,5,0,16090,0,0,0,
2026-05-01 08:55:00,METAR KGVT 010855Z AUTO 05006KT 10SM OVC049 14/13 A2998 RMK AO2,0,6,0,16090,0,0,0,
2026-05-01 08:35:00,METAR KGVT 010835Z AUTO 03005KT 10SM OVC047 14/14 A2998 RMK AO2,0,5,0,16090,0,0,0,
2026-05-01 08:15:00,METAR KGVT 010815Z AUTO 03006KT 10SM OVC047 14/14 A3000 RMK AO2,0,6,0,16090,0,0,0,
2026-05-01 07:55:00,METAR KGVT 010755Z AUTO 01007KT 10SM SCT012 BKN042 OVC048 14/14 A3001 RMK AO2,0,7,0,16090,0,0,0,
2026-05-01 07:35:00,METAR KGVT 010735Z AUTO 01005KT 10SM OVC042 14/14 A3000 RMK AO2,0,5,0,16090,0,0,0,
2026-05-01 07:15:00,METAR KGVT 010715Z AUTO 03004KT 10SM OVC042 14/14 A3000 RMK AO2,0,4,0,16090,0,0,0,
2026-05-01 06:55:00,METAR KGVT 010655Z AUTO 03004KT 10SM -RA OVC042 14/13 A3001 RMK AO2,0,4,0,16090,0,0,0,-RA
2026-05-01 06:35:00,METAR KGVT 010635Z AUTO 36007KT 10SM OVC040 14/14 A3003 RMK AO2,0,7,0,16090,0,0,0,
2026-05-01 06:15:00,METAR KGVT 010615Z AUTO 05003KT 10SM -DZ OVC040 14/13 A3002 RMK AO2,0,3,0,16090,0,0,0,DZ
2026-05-01 05:55:00,METAR KGVT 010555Z AUTO 06003KT 10SM OVC040 14/13 A3002 RMK AO2,0,3,0,16090,0,0,0,
2026-05-01 05:35:00,METAR KGVT 010535Z AUTO 05003KT 10SM OVC040 14/13 A3003 RMK AO2,0,3,0,16090,0,0,0,
2026-05-01 05:15:00,METAR KGVT 010515Z AUTO 05003KT 10SM OVC040 14/13 A3003 RMK AO2,0,3,0,16090,0,0,0,
2026-05-01 04:55:00,METAR KGVT 010455Z AUTO 05005KT 10SM OVC038 14/12 A3002 RMK AO2 P0001,0,5,0,16090,0,0,0,
2026-05-01 04:35:00,METAR KGVT 010435Z AUTO 05006KT 10SM OVC038 14/13 A3001 RMK AO2 P0001,0,6,0,16090,0,0,0,
2026-05-01 04:15:00,METAR KGVT 010415Z AUTO 05007KT 10SM -DZ OVC038 14/13 A3001 RMK AO2 P0001,0,7,0,16090,0,0,0,DZ
2026-05-01 03:55:00,METAR KGVT 010355Z AUTO 05006KT 10SM -RA OVC038 15/13 A3001 RMK AO2,0,6,0,16090,0,0,0,-RA
2026-05-01 03:35:00,METAR KGVT 010335Z AUTO 03004KT 10SM -RA OVC036 15/13 A3002 RMK AO2,0,4,0,16090,0,0,0,-RA
2026-05-01 03:15:00,METAR KGVT 010315Z AUTO 06005KT 10SM OVC036 15/14 A3000 RMK AO2,0,5,0,16090,0,0,0,
2026-05-01 02:55:00,METAR KGVT 010255Z AUTO 05004KT 10SM -RA OVC036 15/14 A3000 RMK AO2,0,4,0,16090,0,0,0,-RA
2026-05-01 02:35:00,METAR KGVT 010235Z AUTO 08005KT 10SM -RA OVC034 15/13 A2999 RMK AO2,0,5,0,16090,0,0,0,-RA
2026-05-01 02:15:00,METAR KGVT 010215Z AUTO 05004KT 10SM -DZ OVC034 15/13 A3000 RMK AO2,0,4,0,16090,0,0,0,DZ
2026-05-01 01:55:00,METAR KGVT 010155Z AUTO 07004KT 10SM -RA OVC034 16/13 A2998 RMK AO2,0,4,0,16090,0,0,0,-RA
2026-05-01 01:35:00,METAR KGVT 010135Z AUTO 08006KT 10SM OVC036 16/13 A2997 RMK AO2,0,6,0,16090,0,0,0,
2026-05-01 01:15:00,METAR KGVT 010115Z AUTO 01006KT 10SM OVC034 16/13 A2997 RMK AO2,0,6,0,16090,0,0,0,
2026-05-01 00:55:00,METAR KGVT 010055Z AUTO 03003KT 10SM OVC034 16/13 A2997 RMK AO2,0,3,0,16090,0,0,0,
2026-05-01 00:35:00,METAR KGVT 010035Z AUTO 05004KT 10SM OVC034 16/13 A2995 RMK AO2,0,4,0,16090,0,0,0,
2026-05-01 00:15:00,METAR KGVT 010015Z AUTO 06005KT 10SM BKN032 OVC041 16/13 A2994 RMK AO2,0,5,0,16090,0,0,0,
2026-04-30 23:55:00,METAR KGVT 302355Z AUTO 05005KT 10SM SCT041 BKN120 16/13 A2993 RMK AO2,0,5,0,16090,0,0,0,
2026-04-30 23:35:00,METAR KGVT 302335Z AUTO 06007KT 10SM SCT043 16/13 A2993 RMK AO2,0,7,0,16090,0,0,0,
2026-04-30 23:15:00,METAR KGVT 302315Z AUTO 05007KT 10SM CLR 17/13 A2993 RMK AO2,0,7,0,16090,0,0,0,
2026-04-30 22:55:00,METAR KGVT 302255Z AUTO 05008KT 10SM SCT046 SCT060 SCT070 17/13 A2993 RMK AO2,0,8,0,16090,0,0,0,
2026-04-30 22:35:00,METAR KGVT 302235Z AUTO 05007KT 10SM BKN044 OVC055 16/12 A2993 RMK AO2,0,7,0,16090,0,0,0,
2026-04-30 22:15:00,METAR KGVT 302215Z AUTO 08007KT 10SM OVC044 16/12 A2995 RMK AO2,0,7,0,16090,0,0,0,
2026-04-30 21:55:00,METAR KGVT 302155Z AUTO 06009KT 10SM OVC044 17/12 A2995 RMK AO2,0,9,0,16090,0,0,0,
2026-04-30 21:35:00,METAR KGVT 302135Z AUTO 06008KT 030V090 10SM SCT029 OVC044 17/13 A2994 RMK AO2,0,8,0,16090,0,0,0,
2026-04-30 21:15:00,METAR KGVT 302115Z AUTO 07011G18KT 10SM BKN046 OVC050 17/12 A2993 RMK AO2,0,11,1,16090,0,0,0,
2026-04-30 20:55:00,METAR KGVT 302055Z AUTO 08010KT 10SM BKN042 OVC050 17/13 A2993 RMK AO2,0,10,0,16090,0,0,0,
2026-04-30 20:35:00,METAR KGVT 302035Z AUTO 05004KT 10SM OVC042 16/13 A2996 RMK AO2,0,4,0,16090,0,0,0,
2026-04-30 20:15:00,METAR KGVT 302015Z AUTO 03004KT 10SM OVC036 16/13 A2996 RMK AO2,0,4,0,16090,0,0,0,
2026-04-30 19:55:00,METAR KGVT 301955Z AUTO 08009KT 10SM OVC036 16/13 A2993 RMK AO2,0,9,0,16090,0,0,0,
2026-04-30 19:35:00,METAR KGVT 301935Z AUTO 07008G17KT 10SM BKN034 BKN120 16/13 A2992 RMK AO2,0,8,1,16090,0,0,0,
2026-04-30 19:15:00,METAR KGVT 301915Z AUTO 07009KT 10SM SCT040 SCT120 16/13 A2992 RMK AO2,0,9,0,16090,0,0,0,
2026-04-30 18:55:00,METAR KGVT 301855Z AUTO 05009KT 10SM BKN038 16/14 A2994 RMK AO2,0,9,0,16090,0,0,0,
2026-04-30 18:35:00,METAR KGVT 301835Z AUTO 07008KT 030V090 10SM OVC036 16/14 A2993 RMK AO2,0,8,0,16090,0,0,0,
2026-04-30 18:15:00,METAR KGVT 301815Z AUTO 05007KT 10SM OVC036 16/14 A2997 RMK AO2,0,7,0,16090,0,0,0,
2026-04-30 17:55:00,METAR KGVT 301755Z AUTO 08007KT 10SM OVC038 16/13 A2999 RMK AO2,0,7,0,16090,0,0,0,
2026-04-30 17:35:00,METAR KGVT 301735Z AUTO 09007KT 10SM SCT021 OVC042 16/13 A3000 RMK AO2 LTG DSNT SE,0,7,0,16090,0,0,0,DS
2026-04-30 17:15:00,METAR KGVT 301715Z AUTO 05007KT 020V080 10SM SCT021 SCT025 OVC046 17/14 A3002 RMK AO2 LTG DSNT SE,0,7,0,16090,0,0,0,DS
2026-04-30 16:55:00,METAR KGVT 301655Z AUTO 05008KT 10SM SCT023 BKN029 OVC046 17/14 A3002 RMK AO2 LTG DSNT SE,0,8,0,16090,0,0,0,DS
2026-04-30 16:35:00,METAR KGVT 301635Z AUTO 05006KT 10SM BKN025 OVC035 17/14 A3003 RMK AO2 LTG DSNT SE,0,6,0,16090,0,0,0,DS
2026-04-30 16:15:00,METAR KGVT 301615Z AUTO 06005KT 10SM SCT023 OVC035 17/14 A3001 RMK AO2,0,5,0,16090,0,0,0,
2026-04-30 15:55:00,METAR KGVT 301555Z AUTO 06007KT 10SM VCTS SCT019 SCT026 OVC033 17/14 A3000 RMK AO2 LTG DSNT S,0,7,0,16090,1,0,0,"DS,TS,VC"
2026-04-30 14:55:00,METAR KGVT 301455Z AUTO 06009KT 10SM BKN017 OVC033 17/15 A2997 RMK AO2 LTG DSNT SW,0,9,0,16090,0,0,0,DS
2026-04-30 14:35:00,METAR KGVT 301435Z AUTO 07009KT 10SM SCT019 OVC033 17/14 A2996 RMK AO2,0,9,0,16090,0,0,0,
2026-04-30 14:15:00,METAR KGVT 301415Z AUTO 07009KT 10SM SCT014 OVC033 16/15 A2995 RMK AO2,0,9,0,16090,0,0,0,
2026-04-30 13:55:00,METAR KGVT 301355Z AUTO 06009KT 10SM BKN014 OVC033 16/15 A2995 RMK AO2,0,9,0,16090,0,0,0,
2026-04-30 13:35:00,METAR KGVT 301335Z AUTO 08008KT 10SM OVC012 16/15 A2996 RMK AO2,0,8,0,16090,0,0,0,
2026-04-30 13:15:00,METAR KGVT 301315Z AUTO 07013G17KT 10SM SCT012 16/15 A2996 RMK AO2,0,13,1,16090,0,0,0,
2026-04-30 12:55:00,METAR KGVT 301255Z AUTO 04010KT 10SM SCT010 BKN017 16/16 A2996 RMK AO2,0,10,0,16090,0,0,0,
2026-04-30 12:35:00,METAR KGVT 301235Z AUTO 06007KT 10SM BKN008 BKN013 BKN019 15/ A2996 RMK AO2,0,7,0,16090,0,0,0,
2026-04-30 12:15:00,METAR KGVT 301215Z AUTO 06006KT 10SM SCT013 15/ A2995 RMK AO2,0,6,0,16090,0,0,0,
2026-04-30 11:55:00,METAR KGVT 301155Z AUTO 06006KT 10SM CLR 14/ A2994 RMK AO2,0,6,0,16090,0,0,0,
2026-04-30 11:35:00,METAR KGVT 301135Z AUTO 06004KT 10SM CLR 14/ A2994 RMK AO2,0,4,0,16090,0,0,0,
2026-04-30 11:15:00,METAR KGVT 301115Z AUTO 06005KT 10SM CLR 15/ A2994 RMK AO2,0,5,0,16090,0,0,0,
2026-04-30 10:55:00,METAR KGVT 301055Z AUTO 06006KT 10SM CLR 15/ A2995 RMK AO2,0,6,0,16090,0,0,0,
2026-04-30 10:35:00,METAR KGVT 301035Z AUTO 06007KT 10SM SCT009 SCT013 SCT070 15/ A2995 RMK AO2,0,7,0,16090,0,0,0,
2026-04-30 10:15:00,METAR KGVT 301015Z AUTO 03007KT 10SM SCT009 SCT013 SCT070 15/ A2995 RMK AO2,0,7,0,16090,0,0,0,
2026-04-30 09:55:00,METAR KGVT 300955Z AUTO 05004KT 10SM CLR 15/ A2995 RMK AO2,0,4,0,16090,0,0,0,
2026-04-30 09:35:00,METAR KGVT 300935Z AUTO 04005KT 10SM SCT014 15/ A2995 RMK AO2,0,5,0,16090,0,0,0,
2026-04-30 09:15:00,METAR KGVT 300915Z AUTO 06005KT 10SM SCT014 15/ A2995 RMK AO2,0,5,0,16090,0,0,0,
2026-04-30 08:55:00,METAR KGVT 300855Z AUTO 07006KT 10SM SCT014 15/ A2994 RMK AO2,0,6,0,16090,0,0,0,
2026-04-30 08:35:00,METAR KGVT 300835Z AUTO 07005KT 10SM CLR 15/16 A2994 RMK AO2,0,5,0,16090,0,0,0,
2026-04-30 08:15:00,METAR KGVT 300815Z AUTO 05007KT 10SM BKN048 16/16 A2995 RMK AO2,0,7,0,16090,0,0,0,
2026-04-30 07:55:00,METAR KGVT 300755Z AUTO 06006KT 10SM BKN048 OVC080 16/16 A2995 RMK AO2,0,6,0,16090,0,0,0,
2026-04-30 07:35:00,METAR KGVT 300735Z AUTO 06007KT 10SM OVC048 16/16 A2995 RMK AO2,0,7,0,16090,0,0,0,
2026-04-30 07:15:00,METAR KGVT 300715Z AUTO 06007KT 10SM SCT016 OVC048 16/16 A2996 RMK AO2,0,7,0,16090,0,0,0,
2026-04-30 06:55:00,METAR KGVT 300655Z AUTO 06008KT 10SM OVC046 16/16 A2996 RMK AO2,0,8,0,16090,0,0,0,
2026-04-30 06:35:00,METAR KGVT 300635Z AUTO 06007KT 10SM OVC046 17/16 A2997 RMK AO2,0,7,0,16090,0,0,0,
2026-04-30 06:15:00,METAR KGVT 300615Z AUTO 06008KT 10SM OVC044 17/16 A2998 RMK AO2,0,8,0,16090,0,0,0,
2026-04-30 05:55:00,METAR KGVT 300555Z AUTO 05004KT 10SM OVC042 17/17 A2998 RMK AO2 LTG DSNT SE,0,4,0,16090,0,0,0,DS
2026-04-30 05:35:00,METAR KGVT 300535Z AUTO 05006KT 10SM OVC040 17/ A2998 RMK AO2,0,6,0,16090,0,0,0,
2026-04-30 05:15:00,METAR KGVT 300515Z AUTO 06004KT 10SM OVC038 17/ A2998 RMK AO2 LTG DSNT SE,0,4,0,16090,0,0,0,DS
2026-04-30 04:55:00,METAR KGVT 300455Z AUTO 06003KT 10SM BKN036 OVC043 17/ A2998 RMK AO2 LTG DSNT E,0,3,0,16090,0,0,0,DS
2026-04-30 04:35:00,METAR KGVT 300435Z AUTO 11003KT 10SM OVC030 17/17 A2998 RMK AO2,0,3,0,16090,0,0,0,
2026-04-30 04:15:00,METAR KGVT 300415Z AUTO 04006KT 10SM SCT017 BKN028 OVC035 17/17 A2998 RMK AO2 LTG DSNT SE,0,6,0,16090,0,0,0,DS
2026-04-30 03:55:00,METAR KGVT 300355Z AUTO 02006KT 7SM SCT018 SCT028 OVC035 17/16 A2997 RMK AO2,0,6,0,11263,0,0,0,
2026-04-30 03:35:00,METAR KGVT 300335Z AUTO 02006KT 10SM SCT029 OVC035 17/16 A2997 RMK AO2,0,6,0,16090,0,0,0,
2026-04-30 03:15:00,METAR KGVT 300315Z AUTO 01006KT 10SM OVC035 17/16 A2998 RMK AO2,0,6,0,16090,0,0,0,
2026-04-30 02:55:00,METAR KGVT 300255Z AUTO 03005KT 10SM BKN024 OVC037 17/16 A2996 RMK AO2,0,5,0,16090,0,0,0,
2026-04-30 02:35:00,METAR KGVT 300235Z AUTO 02006KT 10SM OVC024 17/16 A2996 RMK AO2 LTG DSNT SE,0,6,0,16090,0,0,0,DS
2026-04-30 02:15:00,METAR KGVT 300215Z AUTO 35008KT 10SM BKN024 OVC031 17/17 A2995 RMK AO2,0,8,0,16090,0,0,0,
2026-04-30 01:55:00,METAR KGVT 300155Z AUTO 34006KT 10SM OVC031 17/16 A2994 RMK AO2 LTG DSNT SE,0,6,0,16090,0,0,0,DS
2026-04-30 01:35:00,METAR KGVT 300135Z AUTO 01005KT 10SM BKN033 BKN085 17/16 A2992 RMK AO2 LTG DSNT SE AND S,0,5,0,16090,0,0,0,DS
2026-04-30 01:15:00,METAR KGVT 300115Z AUTO 01004KT 10SM OVC031 17/16 A2993 RMK AO2 LTG DSNT SE AND S,0,4,0,16090,0,0,0,DS
2026-04-30 00:55:00,METAR KGVT 300055Z AUTO 36005KT 10SM OVC029 17/16 A2992 RMK AO2 LTG DSNT S,0,5,0,16090,0,0,0,DS
2026-04-30 00:35:00,METAR KGVT 300035Z AUTO 04005KT 10SM OVC029 17/17 A2991 RMK AO2 LTG DSNT SE,0,5,0,16090,0,0,0,DS
2026-04-30 00:15:00,METAR KGVT 300015Z AUTO 36005KT 10SM SCT029 BKN043 OVC050 17/16 A2992 RMK AO2 LTG DSNT S,0,5,0,16090,0,0,0,DS
2026-04-29 23:55:00,METAR KGVT 292355Z AUTO 05005KT 10SM BKN027 OVC043 17/16 A2991 RMK AO2,0,5,0,16090,0,0,0,
2026-04-29 23:35:00,METAR KGVT 292335Z AUTO 03005KT 10SM OVC027 17/16 A2990 RMK AO2,0,5,0,16090,0,0,0,
2026-04-29 23:15:00,METAR KGVT 292315Z AUTO 02007KT 10SM OVC027 17/16 A2991 RMK AO2,0,7,0,16090,0,0,0,
2026-04-29 22:55:00,METAR KGVT 292255Z AUTO 03006KT 10SM BKN015 OVC022 17/16 A2992 RMK AO2 LTG DSNT N SE AND NW,0,6,0,16090,0,0,0,DS
2026-04-29 22:35:00,METAR KGVT 292235Z AUTO 36008KT 10SM BKN015 OVC020 17/16 A2991 RMK AO2,0,8,0,16090,0,0,0,
2026-04-29 22:15:00,METAR KGVT 292215Z AUTO 02005KT 10SM OVC018 18/16 A2989 RMK AO2 LTG DSNT SE,0,5,0,16090,0,0,0,DS
2026-04-29 21:55:00,METAR KGVT 292155Z AUTO 01012G16KT 10SM SCT016 OVC026 18/16 A2989 RMK AO2,0,12,1,16090,0,0,0,
2026-04-29 21:35:00,METAR KGVT 292135Z AUTO 01009KT 10SM SCT010 SCT016 OVC026 18/17 A2990 RMK AO2 LTG DSNT SE,0,9,0,16090,0,0,0,DS
2026-04-29 21:15:00,METAR KGVT 292115Z AUTO 01008KT 10SM BKN010 OVC026 18/17 A2991 RMK AO2 LTG DSNT E AND SE,0,8,0,16090,0,0,0,DS
2026-04-29 20:55:00,METAR KGVT 292055Z AUTO 01012G15KT 10SM SCT007 SCT010 BKN018 18/18 A2991 RMK AO2 LTG DSNT NE AND S P0012,0,12,1,16090,0,0,0,DS
2026-04-29 20:35:00,METAR KGVT 292035Z AUTO 01011KT 2 1/2SM VCTSBR BKN014 OVC021 18/17 A2993 RMK AO2 LTG DSNT N THRU S P0012,0,11,0,4022,1,0,1,"BR,DS,VC"
2026-04-29 20:15:00,METAR KGVT 292015Z AUTO 00000KT 10SM VCTS BKN014 OVC023 17/16 A2996 RMK AO2 LTG DSNT ALQDS,0,0,0,16090,1,0,0,"DS,TS,VC"
2026-04-29 19:55:00,METAR KGVT 291955Z AUTO 35006KT 10SM VCTS BKN016 OVC025 17/ A2995 RMK AO2 LTG DSNT ALQDS P0028,0,6,0,16090,1,0,0,"DS,TS,VC"
2026-04-29 19:35:00,METAR KGVT 291935Z AUTO 10006KT 2 1/2SM -TSRA BR BKN016 OVC025 16/16 A2992 RMK AO2 VIS 1 1/2V5 LTG DSNT ALQDS P0026,0,6,0,4022,1,0,1,"BR,DS,RA"
2026-04-29 19:15:00,METAR KGVT 291915Z AUTO 36005KT 10SM TS OVC016 16/16 A2995 RMK AO2 LTG DSNT ALQDS,0,5,0,16090,1,0,0,"DS,TS"
2026-04-29 18:55:00,METAR KGVT 291855Z AUTO 01007KT 10SM VCTS OVC014 17/16 A2996 RMK AO2 LTG DSNT SE THRU W,0,7,0,16090,1,0,0,"DS,TS,VC"
2026-04-29 18:35:00,METAR KGVT 291835Z AUTO 36007KT 10SM OVC010 17/16 A2997 RMK AO2 LTG DSNT SW,0,7,0,16090,0,0,0,DS
2026-04-29 18:15:00,METAR KGVT 291815Z AUTO 36007KT 10SM OVC010 17/16 A2997 RMK AO2 LTG DSNT NE,0,7,0,16090,0,0,0,DS
2026-04-29 17:55:00,METAR KGVT 291755Z AUTO 06007KT 10SM OVC010 16/16 A2994 RMK AO2 LTG DSNT E,0,7,0,16090,0,0,0,DS
2026-04-29 17:35:00,METAR KGVT 291735Z AUTO 36006KT 10SM OVC012 16/16 A3000 RMK AO2 LTG DSNT E AND SE,0,6,0,16090,0,0,0,DS
2026-04-29 17:15:00,METAR KGVT 291715Z AUTO 02005KT 10SM OVC010 16/16 A2999 RMK AO2 LTG DSNT NE THRU SE,0,5,0,16090,0,0,0,DS
2026-04-29 16:55:00,METAR KGVT 291655Z AUTO 01009KT 10SM OVC006 16/ A3000 RMK AO2 LTG DSNT NE AND E P0028,0,9,0,16090,0,0,0,DS
2026-04-29 16:35:00,METAR KGVT 291635Z AUTO 01008KT 10SM TS BKN006 BKN012 OVC025 15/ A3000 RMK AO2 LTG DSNT NE THRU SE P0027,0,8,0,16090,1,0,0,"DS,TS"
2026-04-29 16:15:00,METAR KGVT 291615Z AUTO 07010KT 2SM +TSRA BR OVC012 15/15 A2998 RMK AO2 VIS 1V5 LTG DSNT ALQDS P0015,0,10,0,3218,1,0,1,"BR,DS,RA"
2026-04-29 15:55:00,METAR KGVT 291555Z AUTO 36009KT 3 1/2SM -VCTSRA BR OVC012 15/14 A3000 RMK AO2 LTG DSNT ALQDS P0004,0,9,0,5632,1,0,1,"BR,DS,RA"
2026-04-29 15:35:00,METAR KGVT 291535Z AUTO 03006KT 10SM VCTS OVC014 15/14 A2999 RMK AO2 LTG DSNT NW THRU E,0,6,0,16090,1,0,0,"DS,TS,VC"
2026-04-29 15:15:00,METAR KGVT 291515Z AUTO 02008KT 10SM OVC014 16/14 A2999 RMK AO2 LTG DSNT N,0,8,0,16090,0,0,0,DS
2026-04-29 14:55:00,METAR KGVT 291455Z AUTO 05010KT 10SM OVC016 16/14 A2998 RMK AO2,0,10,0,16090,0,0,0,
2026-04-29 14:35:00,METAR KGVT 291435Z AUTO 02010G15KT 10SM OVC018 15/13 A2998 RMK AO2,0,10,1,16090,0,0,0,
2026-04-29 14:15:00,METAR KGVT 291415Z AUTO 02009G15KT 10SM OVC018 15/13 A2998 RMK AO2,0,9,1,16090,0,0,0,
2026-04-29 13:55:00,METAR KGVT 291355Z AUTO 03009G15KT 10SM OVC018 15/13 A2999 RMK AO2,0,9,1,16090,0,0,0,
2026-04-29 13:35:00,METAR KGVT 291335Z AUTO 01011KT 10SM OVC020 15/13 A2999 RMK AO2,0,11,0,16090,0,0,0,
2026-04-29 13:15:00,METAR KGVT 291315Z AUTO 01013G19KT 10SM OVC022 15/13 A2998 RMK AO2,0,13,1,16090,0,0,0,
2026-04-29 12:55:00,METAR KGVT 291255Z AUTO 01013G19KT 10SM OVC022 15/13 A2998 RMK AO2,0,13,1,16090,0,0,0,
2026-04-29 12:35:00,METAR KGVT 291235Z AUTO 02011G19KT 10SM OVC022 15/13 A2996 RMK AO2,0,11,1,16090,0,0,0,
2026-04-29 12:15:00,METAR KGVT 291215Z AUTO 01008G16KT 10SM OVC022 15/13 A2996 RMK AO2,0,8,1,16090,0,0,0,
2026-04-29 11:55:00,METAR KGVT 291155Z AUTO 01012KT 10SM OVC022 16/13 A2996 RMK AO2,0,12,0,16090,0,0,0,
2026-04-29 11:35:00,METAR KGVT 291135Z AUTO 01010KT 10SM OVC022 16/13 A2995 RMK AO2,0,10,0,16090,0,0,0,
2026-04-29 11:15:00,METAR KGVT 291115Z AUTO 35011KT 10SM OVC022 16/13 A2995 RMK AO2,0,11,0,16090,0,0,0,
2026-04-29 10:55:00,METAR KGVT 291055Z AUTO 35011KT 10SM OVC022 16/13 A2994 RMK AO2,0,11,0,16090,0,0,0,
2026-04-29 10:35:00,METAR KGVT 291035Z AUTO 35009KT 10SM OVC022 17/14 A2993 RMK AO2,0,9,0,16090,0,0,0,
2026-04-29 10:15:00,METAR KGVT 291015Z AUTO 01010KT 10SM OVC022 17/14 A2993 RMK AO2,0,10,0,16090,0,0,0,
2026-04-29 09:55:00,METAR KGVT 290955Z AUTO 36010KT 10SM OVC024 17/15 A2993 RMK AO2,0,10,0,16090,0,0,0,
2026-04-29 09:35:00,METAR KGVT 290935Z AUTO 01008KT 10SM OVC022 17/15 A2992 RMK AO2,0,8,0,16090,0,0,0,
2026-04-29 09:15:00,METAR KGVT 290915Z AUTO 36009KT 10SM OVC022 17/15 A2992 RMK AO2,0,9,0,16090,0,0,0,
2026-04-29 08:55:00,METAR KGVT 290855Z AUTO 35006KT 10SM OVC022 18/16 A2991 RMK AO2,0,6,0,16090,0,0,0,
2026-04-29 08:35:00,METAR KGVT 290835Z AUTO 04007KT 10SM OVC022 18/16 A2991 RMK AO2,0,7,0,16090,0,0,0,
2026-04-29 08:15:00,METAR KGVT 290815Z AUTO 03007KT 10SM OVC020 18/16 A2990 RMK AO2,0,7,0,16090,0,0,0,
2026-04-29 07:55:00,METAR KGVT 290755Z AUTO 02006KT 10SM OVC020 18/17 A2990 RMK AO2,0,6,0,16090,0,0,0,
2026-04-29 07:35:00,METAR KGVT 290735Z AUTO 02007KT 10SM OVC020 18/17 A2991 RMK AO2,0,7,0,16090,0,0,0,
2026-04-29 07:15:00,METAR KGVT 290715Z AUTO 01007KT 10SM OVC020 19/17 A2992 RMK AO2,0,7,0,16090,0,0,0,
2026-04-29 06:55:00,METAR KGVT 290655Z AUTO 36009KT 10SM OVC020 19/17 A2992 RMK AO2,0,9,0,16090,0,0,0,
2026-04-29 06:35:00,METAR KGVT 290635Z AUTO 01007KT 10SM OVC018 19/17 A2993 RMK AO2,0,7,0,16090,0,0,0,
2026-04-29 06:15:00,METAR KGVT 290615Z AUTO 36011G17KT 10SM OVC016 20/17 A2992 RMK AO2,0,11,1,16090,0,0,0,
2026-04-29 05:55:00,METAR KGVT 290555Z AUTO 01012KT 10SM OVC014 20/18 A2993 RMK AO2,0,12,0,16090,0,0,0,
2026-04-29 05:35:00,METAR KGVT 290535Z AUTO 01010G17KT 10SM BKN012 OVC017 20/19 A2992 RMK AO2,0,10,1,16090,0,0,0,
2026-04-29 05:15:00,METAR KGVT 290515Z AUTO 36014KT 10SM OVC008 20/20 A2991 RMK AO2,0,14,0,16090,0,0,0,
2026-04-29 04:55:00,METAR KGVT 290455Z AUTO 01017KT 7SM HZ BKN006 BKN030 22/ A2990 RMK AO2,0,17,0,11263,0,0,0,
2026-04-29 04:35:00,METAR KGVT 290435Z AUTO 01003KT 4SM HZ SCT030 22/ A2988 RMK AO2,0,3,0,6436,0,0,0,
2026-04-29 04:15:00,METAR KGVT 290415Z AUTO 00000KT 4SM HZ BKN030 22/ A2989 RMK AO2,0,0,0,6436,0,0,0,
2026-04-29 03:55:00,METAR KGVT 290355Z AUTO 02003KT 5SM HZ BKN032 23/ A2989 RMK AO2,0,3,0,8045,0,0,0,
2026-04-29 03:35:00,METAR KGVT 290335Z AUTO 01005KT 5SM HZ BKN034 23/ A2989 RMK AO2 LTG DSNT SE,0,5,0,8045,0,0,0,DS
2026-04-29 03:15:00,METAR KGVT 290315Z AUTO 36003KT 7SM HZ OVC036 23/ A2989 RMK AO2,0,3,0,11263,0,0,0,
2026-04-29 02:55:00,METAR KGVT 290255Z AUTO 35004KT 7SM HZ SCT020 SCT026 BKN036 23/ A2988 RMK AO2,0,4,0,11263,0,0,0,
2026-04-29 02:35:00,METAR KGVT 290235Z AUTO 02004KT 5SM HZ SCT020 SCT026 23/ A2987 RMK AO2,0,4,0,8045,0,0,0,
2026-04-29 02:15:00,METAR KGVT 290215Z AUTO 01005KT 7SM HZ CLR 23/ A2985 RMK AO2,0,5,0,11263,0,0,0,
2026-04-29 01:55:00,METAR KGVT 290155Z AUTO 01004KT 5SM HZ CLR 23/ A2983 RMK AO2 LTG DSNT SE AND S,0,4,0,8045,0,0,0,DS
2026-04-29 01:35:00,METAR KGVT 290135Z AUTO 35004KT 7SM HZ CLR 23/ A2983 RMK AO2,0,4,0,11263,0,0,0,
2026-04-29 01:15:00,METAR KGVT 290115Z AUTO 14003KT 7SM CLR 24/24 A2981 RMK AO2 LTG DSNT S AND SW,0,3,0,11263,0,0,0,DS
2026-04-29 00:55:00,METAR KGVT 290055Z AUTO 15004KT 7SM CLR 25/24 A2980 RMK AO2,0,4,0,11263,0,0,0,
2026-04-29 00:35:00,METAR KGVT 290035Z AUTO 22004KT 7SM CLR 25/24 A2983 RMK AO2,0,4,0,11263,0,0,0,
2026-04-29 00:15:00,METAR KGVT 290015Z AUTO 19006KT 7SM CLR 25/24 A2981 RMK AO2 LTG DSNT SW,0,6,0,11263,0,0,0,DS
2026-04-28 23:55:00,METAR KGVT 282355Z AUTO 18006G17KT 7SM SCT090 SCT120 25/24 A2981 RMK AO2,0,6,1,11263,0,0,0,
2026-04-28 23:35:00,METAR KGVT 282335Z AUTO 17015G21KT 7SM BR SCT100 BKN120 24/24 A2976 RMK AO2,0,15,1,11263,0,0,1,BR
2026-04-28 23:15:00,METAR KGVT 282315Z AUTO 18011KT 7SM BR SCT075 BKN110 24/24 A2981 RMK AO2,0,11,0,11263,0,0,1,BR
2026-04-28 22:55:00,METAR KGVT 282255Z AUTO 16013KT 7SM BR SCT120 24/24 A2980 RMK AO2 LTG DSNT W,0,13,0,11263,0,0,1,"BR,DS"
2026-04-28 22:35:00,METAR KGVT 282235Z AUTO 17012KT 7SM TSBR SCT060 SCT120 24/24 A2982 RMK AO2 LTG DSNT W,0,12,0,11263,1,0,1,"BR,DS,TS"
2026-04-28 22:15:00,METAR KGVT 282215Z AUTO 20008KT 7SM TS SCT016 BKN060 25/24 A2984 RMK AO2 LTG DSNT NW,0,8,0,11263,1,0,0,"DS,TS"
2026-04-28 21:55:00,METAR KGVT 282155Z AUTO 21007KT 7SM BKN018 OVC060 25/24 A2985 RMK AO2 LTG DSNT NE AND W,0,7,0,11263,0,0,0,DS
2026-04-28 21:35:00,METAR KGVT 282135Z AUTO 20007KT 7SM OVC018 25/24 A2985 RMK AO2 LTG DSNT NE AND W,0,7,0,11263,0,0,0,DS
2026-04-28 21:15:00,METAR KGVT 282115Z AUTO 18012KT 7SM BKN018 BKN060 25/24 A2983 RMK AO2,0,12,0,11263,0,0,0,
2026-04-28 20:55:00,METAR KGVT 282055Z AUTO 18013G17KT 7SM BKN016 25/24 A2984 RMK AO2,0,13,1,11263,0,0,0,
2026-04-28 20:35:00,METAR KGVT 282035Z AUTO 18012KT 7SM BKN014 BKN019 25/24 A2983 RMK AO2 LTG DSNT N,0,12,0,11263,0,0,0,DS
2026-04-28 20:15:00,METAR KGVT 282015Z AUTO 18012KT 10SM OVC012 25/24 A2983 RMK AO2,0,12,0,16090,0,0,0,
2026-04-28 19:55:00,METAR KGVT 281955Z AUTO 18016G21KT 10SM OVC010 26/24 A2982 RMK AO2 LTG DSNT N,0,16,1,16090,0,0,0,DS
2026-04-28 19:35:00,METAR KGVT 281935Z AUTO 18016G24KT 10SM OVC010 26/25 A2985 RMK AO2 LTG DSNT NW,0,16,1,16090,0,0,0,DS
2026-04-28 19:15:00,METAR KGVT 281915Z AUTO 19017KT 10SM OVC010 26/25 A2986 RMK AO2,0,17,0,16090,0,0,0,
2026-04-28 18:55:00,METAR KGVT 281855Z AUTO 18015G20KT 7SM BKN008 OVC021 26/25 A2988 RMK AO2,0,15,1,11263,0,0,0,
2026-04-28 18:35:00,METAR KGVT 281835Z AUTO 17012G18KT 7SM BR SCT006 BKN011 OVC023 26/25 A2988 RMK AO2,0,12,1,11263,0,0,1,BR
2026-04-28 18:15:00,METAR KGVT 281815Z AUTO 18011KT 5SM HZ BKN008 OVC017 25/ A2990 RMK AO2,0,11,0,8045,0,0,0,
2026-04-28 17:55:00,METAR KGVT 281755Z AUTO 18008KT 7SM HZ BKN017 OVC023 25/ A2990 RMK AO2,0,8,0,11263,0,0,0,
2026-04-28 17:35:00,METAR KGVT 281735Z AUTO 15007KT 5SM BR BKN017 OVC022 25/25 A2991 RMK AO2,0,7,0,8045,0,0,1,BR
2026-04-28 17:15:00,METAR KGVT 281715Z AUTO 16007KT 5SM BR BKN023 OVC031 25/25 A2992 RMK AO2,0,7,0,8045,0,0,1,BR
2026-04-28 16:55:00,METAR KGVT 281655Z AUTO 15005KT 10SM BKN022 BKN027 OVC032 25/25 A2993 RMK AO2,0,5,0,16090,0,0,0,
2026-04-28 16:35:00,METAR KGVT 281635Z AUTO 17005KT 10SM SCT018 OVC032 25/24 A2993 RMK AO2 LTG DSNT NE,0,5,0,16090,0,0,0,DS
2026-04-28 16:15:00,METAR KGVT 281615Z AUTO 18007KT 10SM SCT021 OVC030 25/24 A2993 RMK AO2 LTG DSNT N,0,7,0,16090,0,0,0,DS
2026-04-28 15:55:00,METAR KGVT 281555Z AUTO 19006KT 10SM BKN021 OVC026 25/24 A2993 RMK AO2 LTG DSNT N,0,6,0,16090,0,0,0,DS
2026-04-28 15:35:00,METAR KGVT 281535Z AUTO 19006KT 7SM BKN016 OVC023 25/24 A2992 RMK AO2 LTG DSNT N AND NW,0,6,0,11263,0,0,0,DS
2026-04-28 15:15:00,METAR KGVT 281515Z AUTO 20010KT 7SM OVC014 24/24 A2991 RMK AO2 LTG DSNT N,0,10,0,11263,0,0,0,DS
2026-04-28 14:55:00,METAR KGVT 281455Z AUTO 18009KT 7SM BR OVC010 24/24 A2990 RMK AO2 LTG DSNT N AND NW,0,9,0,11263,0,0,1,"BR,DS"
2026-04-28 14:35:00,METAR KGVT 281435Z AUTO 17009KT 7SM OVC010 24/24 A2990 RMK AO2,0,9,0,11263,0,0,0,
2026-04-28 14:15:00,METAR KGVT 281415Z AUTO 18010KT 7SM OVC012 24/24 A2990 RMK AO2,0,10,0,11263,0,0,0,
2026-04-28 13:55:00,METAR KGVT 281355Z AUTO 18008KT 7SM OVC012 24/ A2990 RMK AO2 LTG DSNT NW,0,8,0,11263,0,0,0,DS
2026-04-28 13:35:00,METAR KGVT 281335Z AUTO 16005KT 7SM OVC012 24/ A2990 RMK AO2,0,5,0,11263,0,0,0,
2026-04-28 13:15:00,METAR KGVT 281315Z AUTO 17005KT 7SM BR BKN012 OVC017 24/24 A2990 RMK AO2,0,5,0,11263,0,0,1,BR
2026-04-28 12:55:00,METAR KGVT 281255Z AUTO 18007KT 7SM OVC016 24/24 A2990 RMK AO2,0,7,0,11263,0,0,0,
2026-04-28 12:35:00,METAR KGVT 281235Z AUTO 16007KT 7SM OVC016 24/24 A2988 RMK AO2,0,7,0,11263,0,0,0,
2026-04-28 12:15:00,METAR KGVT 281215Z AUTO 17005KT 7SM BKN016 OVC024 24/24 A2987 RMK AO2,0,5,0,11263,0,0,0,
2026-04-28 11:55:00,METAR KGVT 281155Z AUTO 18007KT 7SM SCT018 OVC027 24/24 A2987 RMK AO2,0,7,0,11263,0,0,0,
2026-04-28 11:35:00,METAR KGVT 281135Z AUTO 17007KT 10SM SCT018 OVC025 24/24 A2986 RMK AO2,0,7,0,16090,0,0,0,
2026-04-28 11:15:00,METAR KGVT 281115Z AUTO 19007KT 10SM SCT017 OVC025 24/24 A2986 RMK AO2,0,7,0,16090,0,0,0,
2026-04-28 10:55:00,METAR KGVT 281055Z AUTO 18007KT 10SM BKN017 OVC022 24/24 A2986 RMK AO2,0,7,0,16090,0,0,0,
2026-04-28 10:35:00,METAR KGVT 281035Z AUTO 19011KT 10SM OVC017 24/24 A2986 RMK AO2,0,11,0,16090,0,0,0,
2026-04-28 10:15:00,METAR KGVT 281015Z AUTO 21011KT 10SM OVC015 24/24 A2986 RMK AO2,0,11,0,16090,0,0,0,
2026-04-28 09:55:00,METAR KGVT 280955Z AUTO 19008KT 10SM OVC015 24/24 A2985 RMK AO2,0,8,0,16090,0,0,0,
2026-04-28 09:35:00,METAR KGVT 280935Z AUTO 20008KT 10SM OVC015 24/24 A2986 RMK AO2,0,8,0,16090,0,0,0,
2026-04-28 09:15:00,METAR KGVT 280915Z AUTO 19007KT 7SM OVC013 24/ A2985 RMK AO2,0,7,0,11263,0,0,0,
2026-04-28 08:55:00,METAR KGVT 280855Z AUTO 19009KT 7SM OVC013 24/ A2985 RMK AO2,0,9,0,11263,0,0,0,
2026-04-28 08:35:00,METAR KGVT 280835Z AUTO 19009KT 7SM OVC013 24/ A2985 RMK AO2,0,9,0,11263,0,0,0,
2026-04-28 08:15:00,METAR KGVT 280815Z AUTO 19007KT 7SM HZ BKN013 24/ A2984 RMK AO2,0,7,0,11263,0,0,0,
2026-04-28 07:55:00,METAR KGVT 280755Z AUTO 17006KT 5SM HZ SCT015 24/ A2983 RMK AO2,0,6,0,8045,0,0,0,
2026-04-28 07:35:00,METAR KGVT 280735Z AUTO 16006KT 7SM HZ CLR 24/ A2984 RMK AO2,0,6,0,11263,0,0,0,
2026-04-28 07:15:00,METAR KGVT 280715Z AUTO 18007KT 7SM HZ CLR 24/ A2985 RMK AO2,0,7,0,11263,0,0,0,
2026-04-28 06:55:00,METAR KGVT 280655Z AUTO 17006KT 5SM HZ CLR 24/ A2985 RMK AO2,0,6,0,8045,0,0,0,
2026-04-28 06:35:00,METAR KGVT 280635Z AUTO 18007KT 5SM HZ CLR 24/ A2987 RMK AO2,0,7,0,8045,0,0,0,
2026-04-28 06:15:00,METAR KGVT 280615Z AUTO 17005KT 5SM HZ CLR 24/ A2987 RMK AO2,0,5,0,8045,0,0,0,
2026-04-28 05:55:00,METAR KGVT 280555Z AUTO 17006KT 5SM HZ CLR 23/ A2987 RMK AO2,0,6,0,8045,0,0,0,
2026-04-28 05:35:00,METAR KGVT 280535Z AUTO 17004KT 5SM HZ CLR 23/ A2987 RMK AO2,0,4,0,8045,0,0,0,
2026-04-28 05:15:00,METAR KGVT 280515Z AUTO 00000KT 5SM HZ CLR 22/ A2987 RMK AO2,0,0,0,8045,0,0,0,
2026-04-28 04:35:00,METAR KGVT 280435Z AUTO 00000KT 7SM CLR 22/22 A2987 RMK AO2,0,0,0,11263,0,0,0,
2026-04-28 04:15:00,METAR KGVT 280415Z AUTO 00000KT 10SM CLR 22/22 A2987 RMK AO2,0,0,0,16090,0,0,0,
2026-04-28 03:55:00,METAR KGVT 280355Z AUTO 00000KT 7SM SCT090 SCT110 22/22 A2987 RMK AO2,0,0,0,11263,0,0,0,
2026-04-28 03:35:00,METAR KGVT 280335Z AUTO 00000KT 7SM CLR 22/22 A2988 RMK AO2,0,0,0,11263,0,0,0,
2026-04-28 03:15:00,METAR KGVT 280315Z AUTO 11006KT 7SM SCT100 22/ A2987 RMK AO2,0,6,0,11263,0,0,0,
2026-04-28 02:55:00,METAR KGVT 280255Z AUTO 12003KT 7SM BR CLR 22/22 A2987 RMK AO2,0,3,0,11263,0,0,1,BR
2026-04-28 02:35:00,METAR KGVT 280235Z AUTO 19005KT 10SM TS CLR 23/22 A2986 RMK AO2 LTG DSNT E,0,5,0,16090,1,0,0,"DS,TS"
2026-04-28 02:15:00,METAR KGVT 280215Z AUTO 18006G20KT 10SM SCT018 SCT023 SCT085 23/22 A2986 RMK AO2 LTG DSNT NE THRU SE,0,6,1,16090,0,0,0,DS
2026-04-28 01:55:00,METAR KGVT 280155Z AUTO 19008KT 7SM -VCTSRA SCT021 BKN029 OVC045 25/24 A2985 RMK AO2 LTG DSNT ALQDS P0001,0,8,0,11263,1,0,0,"DS,RA"
2026-04-28 01:35:00,METAR KGVT 280135Z AUTO 15007KT 7SM -RA BR SCT034 SCT044 BKN050 26/25 A2982 RMK AO2 LTG DSNT ALQDS,0,7,0,11263,0,0,1,"-RA,BR,DS"
2026-04-28 01:15:00,METAR KGVT 280115Z AUTO 17008KT 10SM -TSRA SCT036 SCT045 SCT070 27/24 A2981 RMK AO2 LTG DSNT ALQDS,0,8,0,16090,1,0,0,"DS,RA"
2026-04-28 00:55:00,METAR KGVT 280055Z AUTO 17008KT 7SM VCTS SCT048 SCT055 SCT090 28/24 A2979 RMK AO2 LTG DSNT ALQDS,0,8,0,11263,1,0,0,"DS,TS,VC"
2026-04-28 00:35:00,METAR KGVT 280035Z AUTO 16015G18KT 10SM -TSRA SCT095 28/24 A2976 RMK AO2 LTG DSNT SW THRU NE,0,15,1,16090,1,0,0,"DS,RA"
2026-04-28 00:15:00,METAR KGVT 280015Z AUTO 16010KT 10SM TS SCT095 29/23 A2976 RMK AO2 LTG DSNT SW THRU N,0,10,0,16090,1,0,0,"DS,TS"
2026-04-27 23:55:00,METAR KGVT 272355Z AUTO 15009KT 10SM CLR 29/24 A2977 RMK AO2 LTG DSNT NW,0,9,0,16090,0,0,0,DS
2026-04-27 23:35:00,METAR KGVT 272335Z AUTO 17008KT 10SM CLR 29/24 A2978 RMK AO2,0,8,0,16090,0,0,0,
2026-04-27 23:15:00,METAR KGVT 272315Z AUTO 17011KT 10SM CLR 30/23 A2977 RMK AO2,0,11,0,16090,0,0,0,
2026-04-27 22:55:00,METAR KGVT 272255Z AUTO 17010KT 10SM CLR 30/24 A2976 RMK AO2,0,10,0,16090,0,0,0,
2026-04-27 22:35:00,METAR KGVT 272235Z AUTO 16013KT 10SM CLR 30/23 A2977 RMK AO2,0,13,0,16090,0,0,0,
2026-04-27 22:15:00,METAR KGVT 272215Z AUTO 18011KT 10SM CLR 31/23 A2977 RMK AO2,0,11,0,16090,0,0,0,
2026-04-27 21:55:00,METAR KGVT 272155Z AUTO 19009KT 10SM CLR 31/23 A2977 RMK AO2,0,9,0,16090,0,0,0,
2026-04-27 21:35:00,METAR KGVT 272135Z AUTO 18012KT 10SM SCT039 SCT048 31/23 A2977 RMK AO2,0,12,0,16090,0,0,0,
2026-04-27 21:15:00,METAR KGVT 272115Z AUTO 18012KT 10SM SCT039 SCT046 31/24 A2976 RMK AO2,0,12,0,16090,0,0,0,
2026-04-27 20:55:00,METAR KGVT 272055Z AUTO 19011KT 10SM SCT039 BKN046 31/23 A2977 RMK AO2,0,11,0,16090,0,0,0,
2026-04-27 20:35:00,METAR KGVT 272035Z AUTO 19012KT 10SM BKN039 BKN047 31/23 A2977 RMK AO2,0,12,0,16090,0,0,0,
2026-04-27 20:15:00,METAR KGVT 272015Z AUTO 19011G17KT 10SM SCT039 SCT049 31/23 A2978 RMK AO2,0,11,1,16090,0,0,0,
2026-04-27 19:55:00,METAR KGVT 271955Z AUTO 20008KT 10SM BKN039 BKN046 31/23 A2978 RMK AO2,0,8,0,16090,0,0,0,
2026-04-27 19:35:00,METAR KGVT 271935Z AUTO 20011G16KT 10SM SCT039 SCT044 31/23 A2978 RMK AO2,0,11,1,16090,0,0,0,
2026-04-27 19:15:00,METAR KGVT 271915Z AUTO 20012G18KT 10SM SCT037 31/23 A2978 RMK AO2,0,12,1,16090,0,0,0,
2026-04-27 18:55:00,METAR KGVT 271855Z AUTO 21011G14KT 10SM SCT037 SCT043 31/23 A2978 RMK AO2,0,11,1,16090,0,0,0,
2026-04-27 18:35:00,METAR KGVT 271835Z AUTO 22012G16KT 10SM SCT035 30/23 A2978 RMK AO2,0,12,1,16090,0,0,0,
2026-04-27 18:15:00,METAR KGVT 271815Z AUTO 23009KT 10SM SCT031 SCT038 30/23 A2978 RMK AO2,0,9,0,16090,0,0,0,
2026-04-27 17:55:00,METAR KGVT 271755Z AUTO 22012G19KT 10SM BKN029 29/23 A2978 RMK AO2,0,12,1,16090,0,0,0,
2026-04-27 17:35:00,METAR KGVT 271735Z AUTO 21013G22KT 10SM SCT029 SCT035 SCT041 29/24 A2979 RMK AO2,0,13,1,16090,0,0,0,
2026-04-27 17:15:00,METAR KGVT 271715Z AUTO 20013KT 10SM BKN029 BKN035 29/24 A2980 RMK AO2,0,13,0,16090,0,0,0,
2026-04-27 16:55:00,METAR KGVT 271655Z AUTO 21014G17KT 10SM SCT026 BKN032 BKN041 29/24 A2980 RMK AO2,0,14,1,16090,0,0,0,
2026-04-27 16:35:00,METAR KGVT 271635Z AUTO 21012KT 10SM BKN026 OVC032 28/24 A2980 RMK AO2,0,12,0,16090,0,0,0,
2026-04-27 16:15:00,METAR KGVT 271615Z AUTO 22011KT 10SM OVC026 27/23 A2980 RMK AO2,0,11,0,16090,0,0,0,
2026-04-27 15:55:00,METAR KGVT 271555Z AUTO 22013KT 10SM BKN026 28/23 A2979 RMK AO2,0,13,0,16090,0,0,0,
2026-04-27 15:35:00,METAR KGVT 271535Z AUTO 22016KT 10SM SCT024 27/23 A2978 RMK AO2,0,16,0,16090,0,0,0,
2026-04-27 15:15:00,METAR KGVT 271515Z AUTO 20018G24KT 10SM CLR 27/23 A2978 RMK AO2,0,18,1,16090,0,0,0,
2026-04-27 14:55:00,METAR KGVT 271455Z AUTO 20017G22KT 10SM SCT070 27/23 A2978 RMK AO2,0,17,1,16090,0,0,0,
2026-04-27 14:35:00,METAR KGVT 271435Z AUTO 19016G22KT 10SM SCT070 26/23 A2977 RMK AO2,0,16,1,16090,0,0,0,
2026-04-27 14:15:00,METAR KGVT 271415Z AUTO 19017G21KT 10SM CLR 26/22 A2977 RMK AO2,0,17,1,16090,0,0,0,
2026-04-27 13:55:00,METAR KGVT 271355Z AUTO 19014G22KT 10SM CLR 26/22 A2978 RMK AO2,0,14,1,16090,0,0,0,
2026-04-27 13:35:00,METAR KGVT 271335Z AUTO 20016KT 10SM CLR 25/22 A2978 RMK AO2,0,16,0,16090,0,0,0,
2026-04-27 13:15:00,METAR KGVT 271315Z AUTO 20013G17KT 7SM SCT041 25/22 A2978 RMK AO2,0,13,1,11263,0,0,0,
2026-04-27 12:55:00,METAR KGVT 271255Z AUTO 19013KT 10SM SCT022 SCT027 BKN041 24/22 A2977 RMK AO2,0,13,0,16090,0,0,0,
2026-04-27 12:35:00,METAR KGVT 271235Z AUTO 21012KT 10SM SCT022 OVC027 24/22 A2978 RMK AO2,0,12,0,16090,0,0,0,
2026-04-27 12:15:00,METAR KGVT 271215Z AUTO 21012KT 10SM OVC026 24/22 A2977 RMK AO2,0,12,0,16090,0,0,0,
2026-04-27 11:55:00,METAR KGVT 271155Z AUTO 22014G20KT 10SM BKN021 OVC026 24/22 A2977 RMK AO2,0,14,1,16090,0,0,0,
2026-04-27 11:35:00,METAR KGVT 271135Z AUTO 22012G17KT 10SM OVC022 24/22 A2976 RMK AO2,0,12,1,16090,0,0,0,
2026-04-27 11:15:00,METAR KGVT 271115Z AUTO 20012G19KT 10SM OVC022 24/22 A2973 RMK AO2,0,12,1,16090,0,0,0,
2026-04-27 10:55:00,METAR KGVT 271055Z AUTO 20014G17KT 10SM OVC020 24/22 A2972 RMK AO2,0,14,1,16090,0,0,0,
2026-04-27 10:35:00,METAR KGVT 271035Z AUTO 20015KT 10SM OVC020 24/22 A2971 RMK AO2,0,15,0,16090,0,0,0,
2026-04-27 10:15:00,METAR KGVT 271015Z AUTO 20013KT 10SM OVC020 24/22 A2971 RMK AO2,0,13,0,16090,0,0,0,
2026-04-27 09:55:00,METAR KGVT 270955Z AUTO 20014G20KT 10SM OVC020 24/22 A2971 RMK AO2,0,14,1,16090,0,0,0,
2026-04-27 09:35:00,METAR KGVT 270935Z AUTO 20014KT 10SM OVC020 24/23 A2972 RMK AO2,0,14,0,16090,0,0,0,
2026-04-27 09:15:00,METAR KGVT 270915Z AUTO 20015G21KT 10SM OVC017 24/23 A2972 RMK AO2,0,15,1,16090,0,0,0,
2026-04-27 08:55:00,METAR KGVT 270855Z AUTO 19014KT 10SM BKN017 OVC024 24/23 A2971 RMK AO2,0,14,0,16090,0,0,0,
2026-04-27 08:35:00,METAR KGVT 270835Z AUTO 20014G20KT 10SM OVC017 24/23 A2971 RMK AO2,0,14,1,16090,0,0,0,
2026-04-27 08:15:00,METAR KGVT 270815Z AUTO 20015G20KT 10SM OVC017 24/23 A2971 RMK AO2,0,15,1,16090,0,0,0,
2026-04-27 07:55:00,METAR KGVT 270755Z AUTO 19013KT 10SM OVC017 24/23 A2971 RMK AO2,0,13,0,16090,0,0,0,
2026-04-27 07:35:00,METAR KGVT 270735Z AUTO 20015G21KT 10SM OVC017 24/23 A2971 RMK AO2,0,15,1,16090,0,0,0,
2026-04-27 07:15:00,METAR KGVT 270715Z AUTO 20017G23KT 10SM OVC017 24/23 A2971 RMK AO2,0,17,1,16090,0,0,0,
2026-04-27 06:55:00,METAR KGVT 270655Z AUTO 20014KT 10SM BKN017 24/23 A2971 RMK AO2,0,14,0,16090,0,0,0,
2026-04-27 06:35:00,METAR KGVT 270635Z AUTO 19013G21KT 10SM BKN017 24/23 A2971 RMK AO2,0,13,1,16090,0,0,0,
2026-04-27 06:15:00,METAR KGVT 270615Z AUTO 19012G16KT 10SM BKN017 24/23 A2972 RMK AO2,0,12,1,16090,0,0,0,
2026-04-27 05:55:00,METAR KGVT 270555Z AUTO 18011KT 10SM SCT019 24/23 A2971 RMK AO2,0,11,0,16090,0,0,0,
2026-04-27 05:35:00,METAR KGVT 270535Z AUTO 18013KT 10SM CLR 24/23 A2972 RMK AO2,0,13,0,16090,0,0,0,
2026-04-27 05:15:00,METAR KGVT 270515Z AUTO 17009KT 10SM CLR 24/23 A2972 RMK AO2 LTG DSNT N,0,9,0,16090,0,0,0,DS
2026-04-27 04:35:00,METAR KGVT 270435Z AUTO 17010KT 10SM CLR 24/23 A2972 RMK AO2,0,10,0,16090,0,0,0,
2026-04-27 04:15:00,METAR KGVT 270415Z AUTO 17009KT 10SM CLR 24/23 A2972 RMK AO2,0,9,0,16090,0,0,0,
2026-04-27 03:55:00,METAR KGVT 270355Z AUTO 17010KT 10SM CLR 24/23 A2973 RMK AO2,0,10,0,16090,0,0,0,
2026-04-27 03:35:00,METAR KGVT 270335Z AUTO 17009KT 10SM CLR 24/23 A2974 RMK AO2,0,9,0,16090,0,0,0,
2026-04-27 03:15:00,METAR KGVT 270315Z AUTO 16007KT 10SM CLR 24/23 A2974 RMK AO2,0,7,0,16090,0,0,0,
2026-04-27 02:55:00,METAR KGVT 270255Z AUTO 15006KT 10SM CLR 25/23 A2973 RMK AO2,0,6,0,16090,0,0,0,
2026-04-27 02:35:00,METAR KGVT 270235Z AUTO 16008KT 10SM CLR 25/23 A2973 RMK AO2,0,8,0,16090,0,0,0,
2026-04-27 02:15:00,METAR KGVT 270215Z AUTO 16008KT 10SM CLR 25/23 A2972 RMK AO2,0,8,0,16090,0,0,0,
2026-04-27 01:55:00,METAR KGVT 270155Z AUTO 16009KT 10SM CLR 25/23 A2971 RMK AO2,0,9,0,16090,0,0,0,
2026-04-27 01:35:00,METAR KGVT 270135Z AUTO 16008KT 10SM CLR 25/22 A2971 RMK AO2,0,8,0,16090,0,0,0,
2026-04-27 01:15:00,METAR KGVT 270115Z AUTO 16007KT 10SM CLR 25/22 A2971 RMK AO2,0,7,0,16090,0,0,0,
2026-04-27 00:55:00,METAR KGVT 270055Z AUTO 16008KT 10SM CLR 26/22 A2971 RMK AO2,0,8,0,16090,0,0,0,
2026-04-27 00:35:00,METAR KGVT 270035Z AUTO 17009KT 10SM CLR 27/22 A2971 RMK AO2,0,9,0,16090,0,0,0,
2026-04-27 00:15:00,METAR KGVT 270015Z AUTO 17012KT 10SM CLR 27/22 A2970 RMK AO2,0,12,0,16090,0,0,0,
2026-04-26 23:55:00,METAR KGVT 262355Z AUTO 18010KT 10SM CLR 28/22 A2970 RMK AO2,0,10,0,16090,0,0,0,
2026-04-26 23:35:00,METAR KGVT 262335Z AUTO 18011KT 10SM CLR 28/23 A2970 RMK AO2,0,11,0,16090,0,0,0,
2026-04-26 23:15:00,METAR KGVT 262315Z AUTO 18014G17KT 10SM CLR 28/22 A2970 RMK AO2,0,14,1,16090,0,0,0,
2026-04-26 22:55:00,METAR KGVT 262255Z AUTO 18013G16KT 10SM CLR 29/22 A2970 RMK AO2,0,13,1,16090,0,0,0,
2026-04-26 22:35:00,METAR KGVT 262235Z AUTO 17014KT 10SM SCT035 29/22 A2971 RMK AO2,0,14,0,16090,0,0,0,
2026-04-26 22:15:00,METAR KGVT 262215Z AUTO 18015KT 10SM CLR 29/22 A2971 RMK AO2,0,15,0,16090,0,0,0,
2026-04-26 21:55:00,METAR KGVT 262155Z AUTO 18015KT 10SM SCT050 29/22 A2971 RMK AO2 LTG DSNT N,0,15,0,16090,0,0,0,DS
2026-04-26 21:35:00,METAR KGVT 262135Z AUTO 19011KT 10SM SCT036 BKN048 29/23 A2972 RMK AO2,0,11,0,16090,0,0,0,
2026-04-26 21:15:00,METAR KGVT 262115Z AUTO 19014KT 10SM SCT036 OVC046 28/22 A2973 RMK AO2,0,14,0,16090,0,0,0,
2026-04-26 20:55:00,METAR KGVT 262055Z AUTO 19013KT 10SM SCT036 BKN046 BKN050 29/22 A2973 RMK AO2,0,13,0,16090,0,0,0,
2026-04-26 20:35:00,METAR KGVT 262035Z AUTO 19016KT 10SM SCT032 SCT040 BKN046 29/22 A2974 RMK AO2,0,16,0,16090,0,0,0,
2026-04-26 20:15:00,METAR KGVT 262015Z AUTO 17014KT 10SM SCT034 SCT044 28/22 A2974 RMK AO2,0,14,0,16090,0,0,0,
2026-04-26 19:55:00,METAR KGVT 261955Z AUTO 19016G20KT 10SM SCT031 SCT038 BKN044 28/22 A2975 RMK AO2,0,16,1,16090,0,0,0,
2026-04-26 19:35:00,METAR KGVT 261935Z AUTO 19015KT 10SM BKN031 BKN038 28/23 A2976 RMK AO2,0,15,0,16090,0,0,0,
2026-04-26 19:15:00,METAR KGVT 261915Z AUTO 18016G20KT 10SM BKN029 BKN036 28/22 A2976 RMK AO2,0,16,1,16090,0,0,0,
2026-04-26 18:55:00,METAR KGVT 261855Z AUTO 17016G19KT 10SM BKN027 BKN034 BKN040 27/23 A2977 RMK AO2,0,16,1,16090,0,0,0,
2026-04-26 18:35:00,METAR KGVT 261835Z AUTO 18014KT 10SM BKN027 BKN036 BKN042 28/23 A2977 RMK AO2,0,14,0,16090,0,0,0,
2026-04-26 18:15:00,METAR KGVT 261815Z AUTO 18011G20KT 7SM BKN025 OVC034 27/23 A2978 RMK AO2,0,11,1,11263,0,0,0,
2026-04-26 17:55:00,METAR KGVT 261755Z AUTO 19014G21KT 10SM BKN025 BKN032 27/22 A2979 RMK AO2,0,14,1,16090,0,0,0,
2026-04-26 17:35:00,METAR KGVT 261735Z AUTO 18012KT 10SM SCT023 26/22 A2979 RMK AO2,0,12,0,16090,0,0,0,
2026-04-26 17:15:00,METAR KGVT 261715Z AUTO 17017G21KT 10SM CLR 27/22 A2980 RMK AO2,0,17,1,16090,0,0,0,
2026-04-26 16:55:00,METAR KGVT 261655Z AUTO 17015G18KT 10SM CLR 26/22 A2980 RMK AO2,0,15,1,16090,0,0,0,
2026-04-26 16:35:00,METAR KGVT 261635Z AUTO 18016G20KT 10SM SCT025 26/22 A2979 RMK AO2,0,16,1,16090,0,0,0,
2026-04-26 16:15:00,METAR KGVT 261615Z AUTO 18012G21KT 10SM SCT024 26/22 A2980 RMK AO2,0,12,1,16090,0,0,0,
2026-04-26 15:55:00,METAR KGVT 261555Z AUTO 18017G23KT 10SM SCT020 26/22 A2981 RMK AO2,0,17,1,16090,0,0,0,
2026-04-26 15:35:00,METAR KGVT 261535Z AUTO 19016G21KT 10SM BKN018 26/22 A2981 RMK AO2,0,16,1,16090,0,0,0,
2026-04-26 15:15:00,METAR KGVT 261515Z AUTO 19016KT 10SM BKN016 BKN021 26/23 A2981 RMK AO2,0,16,0,16090,0,0,0,
2026-04-26 14:55:00,METAR KGVT 261455Z AUTO 18014G21KT 7SM BKN008 BKN013 25/23 A2981 RMK AO2,0,14,1,11263,0,0,0,
2026-04-26 14:35:00,METAR KGVT 261435Z AUTO 18014G19KT 5SM BR OVC006 24/24 A2981 RMK AO2,0,14,1,8045,0,0,1,BR
2026-04-26 14:15:00,METAR KGVT 261415Z AUTO 17013KT 7SM BR OVC006 24/24 A2981 RMK AO2,0,13,0,11263,0,0,1,BR
2026-04-26 13:55:00,METAR KGVT 261355Z AUTO 15013KT 5SM HZ BKN004 23/ A2981 RMK AO2,0,13,0,8045,0,0,0,
2026-04-26 13:35:00,METAR KGVT 261335Z AUTO 15009KT 5SM HZ BKN004 23/ A2982 RMK AO2,0,9,0,8045,0,0,0,
2026-04-26 13:15:00,METAR KGVT 261315Z AUTO 15008KT 3 1/2SM BR BKN004 BKN023 OVC032 22/ A2983 RMK AO2,0,8,0,5632,0,0,1,BR
2026-04-26 12:55:00,METAR KGVT 261255Z AUTO 14007KT 3 1/2SM BR OVC004 22/ A2983 RMK AO2 LTG DSNT N,0,7,0,5632,0,0,1,"BR,DS"
2026-04-26 12:35:00,METAR KGVT 261235Z AUTO 10004KT 4SM VCTSHZ BKN006 BKN026 22/ A2983 RMK AO2 LTG DSNT NW THRU NE,0,4,0,6436,1,0,0,"DS,VC"
2026-04-26 12:15:00,METAR KGVT 261215Z AUTO 14004KT 4SM BR SCT030 SCT050 SCT070 22/ A2982 RMK AO2 LTG DSNT N AND NW,0,4,0,6436,0,0,1,"BR,DS"
2026-04-26 11:55:00,METAR KGVT 261155Z AUTO 12006KT 4SM VCTSHZ SCT005 SCT032 OVC060 22/ A2981 RMK AO2 LTG DSNT NW THRU NE,0,6,0,6436,1,0,0,"DS,VC"
2026-04-26 11:35:00,METAR KGVT 261135Z AUTO 07007KT 5SM HZ BKN005 BKN027 OVC037 22/ A2980 RMK AO2 LTG DSNT NW,0,7,0,8045,0,0,0,DS
2026-04-26 11:15:00,METAR KGVT 261115Z AUTO 08007KT 5SM HZ BKN005 OVC024 22/ A2979 RMK AO2 LTG DSNT NW,0,7,0,8045,0,0,0,DS
2026-04-26 10:55:00,METAR KGVT 261055Z AUTO 07006KT 5SM HZ SCT005 BKN024 OVC032 21/ A2978 RMK AO2 LTG DSNT N AND NW,0,6,0,8045,0,0,0,DS
2026-04-26 10:35:00,METAR KGVT 261035Z AUTO 07007KT 5SM HZ SCT027 BKN036 21/ A2979 RMK AO2 LTG DSNT N,0,7,0,8045,0,0,0,DS
2026-04-26 10:15:00,METAR KGVT 261015Z AUTO 04007KT 5SM HZ CLR 21/ A2977 RMK AO2,0,7,0,8045,0,0,0,
2026-04-26 09:55:00,METAR KGVT 260955Z AUTO 03004KT 5SM HZ SCT021 21/ A2976 RMK AO2,0,4,0,8045,0,0,0,
2026-04-26 09:35:00,METAR KGVT 260935Z AUTO 29003KT 7SM HZ BKN021 21/ A2974 RMK AO2,0,3,0,11263,0,0,0,
2026-04-26 09:15:00,METAR KGVT 260915Z AUTO 00000KT 7SM HZ SCT022 21/ A2973 RMK AO2 LTG DSNT N,0,0,0,11263,0,0,0,DS
2026-04-26 08:55:00,METAR KGVT 260855Z AUTO 01004KT 7SM CLR 22/ A2973 RMK AO2 LTG DSNT NW,0,4,0,11263,0,0,0,DS
2026-04-26 08:35:00,METAR KGVT 260835Z AUTO 36007KT 7SM CLR 22/ A2973 RMK AO2,0,7,0,11263,0,0,0,
2026-04-26 08:15:00,METAR KGVT 260815Z AUTO 23005KT 7SM CLR 22/ A2973 RMK AO2 LTG DSNT NW,0,5,0,11263,0,0,0,DS
2026-04-26 07:55:00,METAR KGVT 260755Z AUTO 16005KT 7SM CLR 22/ A2972 RMK AO2 LTG DSNT S,0,5,0,11263,0,0,0,DS
2026-04-26 07:35:00,METAR KGVT 260735Z AUTO 08007KT 10SM VCTS CLR 22/22 A2972 RMK AO2 LTG DSNT S AND SW,0,7,0,16090,1,0,0,"DS,TS,VC"
2026-04-26 07:15:00,METAR KGVT 260715Z AUTO 04008KT 10SM CLR 23/22 A2973 RMK AO2 LTG DSNT SW,0,8,0,16090,0,0,0,DS
2026-04-26 06:55:00,METAR KGVT 260655Z AUTO 07008KT 10SM CLR 25/22 A2972 RMK AO2 LTG DSNT E AND SW,0,8,0,16090,0,0,0,DS
2026-04-26 06:35:00,METAR KGVT 260635Z AUTO 10005KT 10SM CLR 25/22 A2974 RMK AO2 LTG DSNT S AND SW,0,5,0,16090,0,0,0,DS
2026-04-26 06:15:00,METAR KGVT 260615Z AUTO 11003KT 10SM SCT110 25/22 A2973 RMK AO2 LTG DSNT S AND SW,0,3,0,16090,0,0,0,DS
2026-04-26 05:55:00,METAR KGVT 260555Z AUTO 16003KT 10SM SCT110 26/21 A2975 RMK AO2 LTG DSNT NE SE AND SW,0,3,0,16090,0,0,0,DS
2026-04-26 05:35:00,METAR KGVT 260535Z AUTO 17007KT 10SM CLR 25/22 A2973 RMK AO2 LTG DSNT S AND SW,0,7,0,16090,0,0,0,DS
2026-04-26 05:15:00,METAR KGVT 260515Z AUTO 14006KT 10SM CLR 25/22 A2972 RMK AO2 LTG DSNT SW,0,6,0,16090,0,0,0,DS
2026-04-26 04:55:00,METAR KGVT 260455Z AUTO 15008KT 10SM CLR 25/22 A2973 RMK AO2,0,8,0,16090,0,0,0,
2026-04-26 04:35:00,METAR KGVT 260435Z AUTO 18010KT 10SM CLR 26/22 A2974 RMK AO2 LTG DSNT NE AND SW,0,10,0,16090,0,0,0,DS
2026-04-26 04:15:00,METAR KGVT 260415Z AUTO 20012KT 10SM CLR 26/22 A2974 RMK AO2 LTG DSNT N SE AND SW,0,12,0,16090,0,0,0,DS
2026-04-26 03:55:00,METAR KGVT 260355Z AUTO 18011KT 10SM CLR 26/22 A2973 RMK AO2 LTG DSNT N NE AND SW,0,11,0,16090,0,0,0,DS
2026-04-26 03:35:00,METAR KGVT 260335Z AUTO 17010KT 10SM SCT120 26/22 A2972 RMK AO2 LTG DSNT SW,0,10,0,16090,0,0,0,DS
2026-04-26 03:15:00,METAR KGVT 260315Z AUTO 15007KT 10SM CLR 26/22 A2974 RMK AO2 LTG DSNT N AND SW,0,7,0,16090,0,0,0,DS
2026-04-26 02:55:00,METAR KGVT 260255Z AUTO 16012KT 10SM CLR 26/22 A2972 RMK AO2,0,12,0,16090,0,0,0,
2026-04-26 02:35:00,METAR KGVT 260235Z AUTO 13010KT 10SM SCT120 25/22 A2972 RMK AO2 LTG DSNT N AND W,0,10,0,16090,0,0,0,DS
2026-04-26 02:15:00,METAR KGVT 260215Z AUTO 14012KT 10SM SCT060 SCT100 SCT120 25/22 A2971 RMK AO2 LTG DSNT N,0,12,0,16090,0,0,0,DS
2026-04-26 01:55:00,METAR KGVT 260155Z AUTO 15009KT 10SM SCT060 SCT110 25/22 A2971 RMK AO2 LTG DSNT W AND NW,0,9,0,16090,0,0,0,DS
2026-04-26 01:35:00,METAR KGVT 260135Z AUTO 13007KT 10SM SCT120 25/23 A2970 RMK AO2 LTG DSNT SW AND NW,0,7,0,16090,0,0,0,DS
2026-04-26 01:15:00,METAR KGVT 260115Z AUTO 14009KT 10SM CLR 25/23 A2971 RMK AO2 LTG DSNT NW,0,9,0,16090,0,0,0,DS
2026-04-26 00:55:00,METAR KGVT 260055Z AUTO 13006KT 10SM SCT110 25/23 A2970 RMK AO2 LTG DSNT NW,0,6,0,16090,0,0,0,DS
2026-04-26 00:35:00,METAR KGVT 260035Z AUTO 13004KT 10SM SCT041 SCT047 25/23 A2971 RMK AO2 LTG DSNT W AND NW,0,4,0,16090,0,0,0,DS
2026-04-26 00:15:00,METAR KGVT 260015Z AUTO 14006KT 10SM SCT038 25/23 A2971 RMK AO2 LTG DSNT W,0,6,0,16090,0,0,0,DS
2026-04-25 23:55:00,METAR KGVT 252355Z AUTO 15005KT 10SM CLR 25/23 A2970 RMK AO2,0,5,0,16090,0,0,0,
2026-04-25 23:35:00,METAR KGVT 252335Z AUTO 14006KT 10SM SCT043 26/23 A2969 RMK AO2,0,6,0,16090,0,0,0,
2026-04-25 23:15:00,METAR KGVT 252315Z AUTO 16008KT 10SM BKN041 27/23 A2969 RMK AO2,0,8,0,16090,0,0,0,
2026-04-25 22:55:00,METAR KGVT 252255Z AUTO 17009KT 10SM BKN035 BKN043 28/23 A2968 RMK AO2,0,9,0,16090,0,0,0,
2026-04-25 22:35:00,METAR KGVT 252235Z AUTO 18009KT 10SM BKN035 29/22 A2969 RMK AO2,0,9,0,16090,0,0,0,
2026-04-25 22:15:00,METAR KGVT 252215Z AUTO 18012KT 10SM BKN035 29/23 A2970 RMK AO2,0,12,0,16090,0,0,0,
2026-04-25 21:55:00,METAR KGVT 252155Z AUTO 18013G19KT 10SM SCT033 28/22 A2970 RMK AO2,0,13,1,16090,0,0,0,
2026-04-25 21:30:00,METAR KGVT 252130Z AUTO 17013KT 10SM SCT033 29/23 A2970 RMK AO2,0,13,0,16090,0,0,0,
2026-04-25 21:15:00,METAR KGVT 252115Z AUTO 17012G19KT 10SM SCT024 SCT033 28/23 A2970 RMK AO2,0,12,1,16090,0,0,0,
2026-04-25 20:55:00,METAR KGVT 252055Z AUTO 16012KT 10SM BKN024 BKN029 BKN036 28/24 A2971 RMK AO2,0,12,0,16090,0,0,0,
2026-04-25 20:35:00,METAR KGVT 252035Z AUTO 15013KT 10SM BKN026 BKN036 28/24 A2972 RMK AO2,0,13,0,16090,0,0,0,
2026-04-25 20:15:00,METAR KGVT 252015Z AUTO 15012G17KT 10SM BKN028 BKN035 BKN043 29/24 A2972 RMK AO2,0,12,1,16090,0,0,0,
2026-04-25 19:55:00,METAR KGVT 251955Z AUTO 19011G18KT 10SM SCT028 BKN037 BKN043 29/23 A2973 RMK AO2,0,11,1,16090,0,0,0,
2026-04-25 19:35:00,METAR KGVT 251935Z AUTO 20011KT 10SM SCT028 BKN035 29/23 A2973 RMK AO2,0,11,0,16090,0,0,0,
2026-04-25 19:15:00,METAR KGVT 251915Z AUTO 20012KT 10SM BKN026 OVC035 28/23 A2974 RMK AO2,0,12,0,16090,0,0,0,
2026-04-25 18:55:00,METAR KGVT 251855Z AUTO 19013KT 10SM BKN026 OVC034 28/23 A2974 RMK AO2,0,13,0,16090,0,0,0,
2026-04-25 18:35:00,METAR KGVT 251835Z AUTO 20012KT 10SM SCT024 OVC036 28/23 A2974 RMK AO2,0,12,0,16090,0,0,0,
2026-04-25 18:15:00,METAR KGVT 251815Z AUTO 19012KT 10SM BKN026 OVC036 28/23 A2975 RMK AO2,0,12,0,16090,0,0,0,
2026-04-25 17:55:00,METAR KGVT 251755Z AUTO 17012G15KT 10SM SCT024 BKN031 OVC070 28/24 A2976 RMK AO2,0,12,1,16090,0,0,0,
2026-04-25 17:35:00,METAR KGVT 251735Z AUTO 18008KT 10SM BKN024 BKN032 OVC065 28/24 A2977 RMK AO2,0,8,0,16090,0,0,0,
2026-04-25 17:15:00,METAR KGVT 251715Z AUTO 18009KT 10SM SCT020 BKN025 OVC060 27/24 A2977 RMK AO2,0,9,0,16090,0,0,0,
2026-04-25 16:55:00,METAR KGVT 251655Z AUTO 15010KT 10SM BKN019 OVC025 27/24 A2978 RMK AO2 LTG DSNT NW,0,10,0,16090,0,0,0,DS
2026-04-25 16:35:00,METAR KGVT 251635Z AUTO 18007KT 10SM BKN019 OVC025 26/24 A2978 RMK AO2,0,7,0,16090,0,0,0,
2026-04-25 16:15:00,METAR KGVT 251615Z AUTO 18007KT 10SM OVC019 26/24 A2978 RMK AO2,0,7,0,16090,0,0,0,
2026-04-25 15:55:00,METAR KGVT 251555Z AUTO 16008KT 7SM BKN014 OVC019 25/24 A2978 RMK AO2,0,8,0,11263,0,0,0,
2026-04-25 15:35:00,METAR KGVT 251535Z AUTO 14008KT 10SM OVC014 24/23 A2977 RMK AO2,0,8,0,16090,0,0,0,
2026-04-25 15:15:00,METAR KGVT 251515Z AUTO 14007KT 10SM OVC011 24/23 A2978 RMK AO2,0,7,0,16090,0,0,0,
2026-04-25 14:55:00,METAR KGVT 251455Z AUTO 13004KT 10SM OVC011 23/23 A2978 RMK AO2,0,4,0,16090,0,0,0,
2026-04-25 14:35:00,METAR KGVT 251435Z AUTO 10005KT 10SM OVC009 22/21 A2978 RMK AO2,0,5,0,16090,0,0,0,
2026-04-25 14:15:00,METAR KGVT 251415Z AUTO 09003KT 10SM OVC009 21/ A2978 RMK AO2,0,3,0,16090,0,0,0,
2026-04-25 13:55:00,METAR KGVT 251355Z AUTO 10003KT 10SM BKN009 20/ A2978 RMK AO2,0,3,0,16090,0,0,0,
2026-04-25 13:35:00,METAR KGVT 251335Z AUTO 09004KT 10SM SCT009 19/ A2978 RMK AO2,0,4,0,16090,0,0,0,
2026-04-25 13:15:00,METAR KGVT 251315Z AUTO 09003KT 10SM SCT009 18/ A2978 RMK AO2,0,3,0,16090,0,0,0,
2026-04-25 12:55:00,METAR KGVT 251255Z AUTO 08003KT 10SM SCT009 17/ A2978 RMK AO2,0,3,0,16090,0,0,0,
2026-04-25 12:35:00,METAR KGVT 251235Z AUTO 06003KT 10SM BKN009 17/ A2977 RMK AO2,0,3,0,16090,0,0,0,
2026-04-25 12:15:00,METAR KGVT 251215Z AUTO 00000KT 10SM OVC009 17/ A2977 RMK AO2,0,0,0,16090,0,0,0,
2026-04-25 11:55:00,METAR KGVT 251155Z AUTO 08003KT 10SM SCT002 BKN009 OVC012 16/ A2977 RMK AO2,0,3,0,16090,0,0,0,
2026-04-25 11:35:00,METAR KGVT 251135Z AUTO 00000KT 10SM SCT002 SCT008 BKN016 16/ A2977 RMK AO2,0,0,0,16090,0,0,0,
2026-04-25 11:15:00,METAR KGVT 251115Z AUTO 09003KT 10SM OVC016 16/ A2976 RMK AO2,0,3,0,16090,0,0,0,
2026-04-25 10:55:00,METAR KGVT 251055Z AUTO 08003KT 10SM BKN018 16/ A2976 RMK AO2,0,3,0,16090,0,0,0,
2026-04-25 10:35:00,METAR KGVT 251035Z AUTO 07003KT 10SM CLR 16/ A2975 RMK AO2,0,3,0,16090,0,0,0,
2026-04-25 10:15:00,METAR KGVT 251015Z AUTO 08003KT 10SM CLR 16/ A2975 RMK AO2,0,3,0,16090,0,0,0,
2026-04-25 09:55:00,METAR KGVT 250955Z AUTO 08003KT 10SM CLR 16/ A2974 RMK AO2,0,3,0,16090,0,0,0,
2026-04-25 09:35:00,METAR KGVT 250935Z AUTO 07004KT 10SM CLR 16/ A2974 RMK AO2,0,4,0,16090,0,0,0,
2026-04-25 09:15:00,METAR KGVT 250915Z AUTO 08005KT 10SM CLR 17/ A2974 RMK AO2,0,5,0,16090,0,0,0,
2026-04-25 08:55:00,METAR KGVT 250855Z AUTO 05003KT 10SM CLR 17/ A2973 RMK AO2,0,3,0,16090,0,0,0,
2026-04-25 08:35:00,METAR KGVT 250835Z AUTO 00000KT 10SM CLR 17/ A2973 RMK AO2,0,0,0,16090,0,0,0,
2026-04-25 08:15:00,METAR KGVT 250815Z AUTO 00000KT 10SM CLR 17/ A2973 RMK AO2,0,0,0,16090,0,0,0,
2026-04-25 07:55:00,METAR KGVT 250755Z AUTO 00000KT 10SM CLR 17/ A2973 RMK AO2,0,0,0,16090,0,0,0,
2026-04-25 07:35:00,METAR KGVT 250735Z AUTO 04007KT 10SM CLR 17/ A2974 RMK AO2,0,7,0,16090,0,0,0,
2026-04-25 07:15:00,METAR KGVT 250715Z AUTO 28003KT 10SM CLR 18/ A2973 RMK AO2,0,3,0,16090,0,0,0,
2026-04-25 06:55:00,METAR KGVT 250655Z AUTO 00000KT 10SM CLR 18/ A2973 RMK AO2,0,0,0,16090,0,0,0,
2026-04-25 06:35:00,METAR KGVT 250635Z AUTO 20003KT 10SM CLR 17/ A2974 RMK AO2 LTG DSNT SE,0,3,0,16090,0,0,0,DS
2026-04-25 06:15:00,METAR KGVT 250615Z AUTO 00000KT 10SM CLR 18/ A2973 RMK AO2 LTG DSNT SE,0,0,0,16090,0,0,0,DS
2026-04-25 05:55:00,METAR KGVT 250555Z AUTO 13004KT 10SM CLR 18/ A2974 RMK AO2 LTG DSNT E THRU S,0,4,0,16090,0,0,0,DS
2026-04-25 05:35:00,METAR KGVT 250535Z AUTO 11005KT 10SM CLR 18/ A2975 RMK AO2 LTG DSNT SE,0,5,0,16090,0,0,0,DS
2026-04-25 05:15:00,METAR KGVT 250515Z AUTO 12007KT 10SM CLR 18/ A2974 RMK AO2 LTG DSNT E AND S,0,7,0,16090,0,0,0,DS
2026-04-25 04:55:00,METAR KGVT 250455Z AUTO 11011KT 10SM CLR 19/ A2974 RMK AO2 LTG DSNT E THRU S,0,11,0,16090,0,0,0,DS
2026-04-25 04:35:00,METAR KGVT 250435Z AUTO 08006KT 10SM CLR 19/19 A2972 RMK AO2 LTG DSNT E THRU S,0,6,0,16090,0,0,0,DS
2026-04-25 04:15:00,METAR KGVT 250415Z AUTO 07006KT 10SM CLR 19/19 A2972 RMK AO2 LTG DSNT SE AND S,0,6,0,16090,0,0,0,DS
2026-04-25 03:55:00,METAR KGVT 250355Z AUTO 11011KT 10SM TS CLR 19/19 A2974 RMK AO2 LTG DSNT E AND SE,0,11,0,16090,1,0,0,"DS,TS"
2026-04-25 03:35:00,METAR KGVT 250335Z AUTO 08008KT 10SM CLR 20/20 A2972 RMK AO2 LTG DSNT E AND SE,0,8,0,16090,0,0,0,DS
2026-04-25 03:15:00,METAR KGVT 250315Z AUTO 07010KT 10SM SCT070 21/20 A2971 RMK AO2 LTG DSNT E AND SE,0,10,0,16090,0,0,0,DS
2026-04-25 02:55:00,METAR KGVT 250255Z AUTO 04016G22KT 10SM VCTS BKN070 24/22 A2969 RMK AO2 LTG DSNT NE THRU S P0006,0,16,1,16090,1,0,0,"DS,TS,VC"
2026-04-25 02:35:00,METAR KGVT 250235Z AUTO 28008G15KT 10SM TS SCT026 SCT037 BKN070 26/22 A2965 RMK AO2 LTG DSNT ALQDS P0006,0,8,1,16090,1,0,0,"DS,TS"
2026-04-25 02:15:00,METAR KGVT 250215Z AUTO 29015G18KT 7SM SCT036 BKN050 OVC075 25/23 A2964 RMK AO2 LTG DSNT N AND NE P0003,0,15,1,11263,0,0,0,DS
2026-04-25 01:55:00,METAR KGVT 250155Z AUTO 17008KT 10SM SCT050 BKN070 BKN085 25/22 A2963 RMK AO2 LTG DSNT NE,0,8,0,16090,0,0,0,DS
2026-04-25 01:35:00,METAR KGVT 250135Z AUTO 17008KT 10SM SCT080 SCT085 25/22 A2964 RMK AO2 LTG DSNT NE,0,8,0,16090,0,0,0,DS
2026-04-25 01:15:00,METAR KGVT 250115Z AUTO 18007KT 10SM SCT065 SCT075 25/22 A2963 RMK AO2,0,7,0,16090,0,0,0,
2026-04-25 00:55:00,METAR KGVT 250055Z AUTO 16007KT 10SM SCT065 26/22 A2964 RMK AO2,0,7,0,16090,0,0,0,
2026-04-25 00:35:00,METAR KGVT 250035Z AUTO 17009KT 10SM CLR 26/22 A2964 RMK AO2,0,9,0,16090,0,0,0,
2026-04-25 00:15:00,METAR KGVT 250015Z AUTO 18010KT 10SM CLR 27/22 A2963 RMK AO2 LTG DSNT N,0,10,0,16090,0,0,0,DS
2026-04-24 23:55:00,METAR KGVT 242355Z AUTO 17009KT 10SM SCT049 28/22 A2963 RMK AO2 LTG DSNT N,0,9,0,16090,0,0,0,DS
2026-04-24 23:35:00,METAR KGVT 242335Z AUTO 16010KT 10SM SCT046 BKN049 28/22 A2963 RMK AO2,0,10,0,16090,0,0,0,
2026-04-24 23:15:00,METAR KGVT 242315Z AUTO 17011KT 10SM SCT049 28/22 A2963 RMK AO2,0,11,0,16090,0,0,0,
2026-04-24 22:55:00,METAR KGVT 242255Z AUTO 17010KT 10SM SCT042 29/22 A2964 RMK AO2,0,10,0,16090,0,0,0,
2026-04-24 22:35:00,METAR KGVT 242235Z AUTO 17011G15KT 10SM SCT044 SCT050 29/22 A2964 RMK AO2 LTG DSNT N,0,11,1,16090,0,0,0,DS
2026-04-24 22:15:00,METAR KGVT 242215Z AUTO 18010KT 10SM SCT042 SCT050 29/22 A2964 RMK AO2,0,10,0,16090,0,0,0,
2026-04-24 21:55:00,METAR KGVT 242155Z AUTO 20013KT 10SM SCT044 SCT055 30/21 A2964 RMK AO2,0,13,0,16090,0,0,0,
2026-04-24 21:35:00,METAR KGVT 242135Z AUTO 21012KT 10SM SCT042 SCT049 30/20 A2964 RMK AO2,0,12,0,16090,0,0,0,
2026-04-24 21:15:00,METAR KGVT 242115Z AUTO 19009KT 160V220 10SM SCT040 30/21 A2965 RMK AO2,0,9,0,16090,0,0,0,
2026-04-24 20:55:00,METAR KGVT 242055Z AUTO 19013G18KT 10SM SCT042 SCT050 30/21 A2966 RMK AO2,0,13,1,16090,0,0,0,
2026-04-24 20:35:00,METAR KGVT 242035Z AUTO 20013KT 10SM SCT042 SCT048 BKN050 29/21 A2967 RMK AO2,0,13,0,16090,0,0,0,
2026-04-24 20:15:00,METAR KGVT 242015Z AUTO 21014KT 5SM HZ SCT040 SCT048 SCT050 29/20 A2968 RMK AO2,0,14,0,8045,0,0,0,
2026-04-24 19:55:00,METAR KGVT 241955Z AUTO 21012G16KT 10SM SCT038 SCT065 29/21 A2968 RMK AO2,0,12,1,16090,0,0,0,
2026-04-24 19:35:00,METAR KGVT 241935Z AUTO 20010G17KT 10SM SCT038 SCT043 BKN065 28/21 A2969 RMK AO2,0,10,1,16090,0,0,0,
2026-04-24 19:15:00,METAR KGVT 241915Z AUTO 21011G15KT 10SM SCT034 SCT046 29/21 A2970 RMK AO2 LTG DSNT NE,0,11,1,16090,0,0,0,DS
2026-04-24 18:55:00,METAR KGVT 241855Z AUTO 19011KT 10SM SCT032 SCT046 SCT065 28/22 A2970 RMK AO2,0,11,0,16090,0,0,0,
2026-04-24 18:35:00,METAR KGVT 241835Z AUTO 17009KT 10SM SCT028 SCT043 BKN065 28/23 A2971 RMK AO2 LTG DSNT NE,0,9,0,16090,0,0,0,DS
2026-04-24 18:15:00,METAR KGVT 241815Z AUTO 20007KT 10SM SCT028 SCT034 SCT050 28/22 A2972 RMK AO2,0,7,0,16090,0,0,0,
2026-04-24 17:55:00,METAR KGVT 241755Z AUTO 20010KT 10SM SCT026 SCT032 SCT050 27/22 A2972 RMK AO2,0,10,0,16090,0,0,0,
2026-04-24 17:35:00,METAR KGVT 241735Z AUTO 21011KT 10SM BKN026 BKN037 BKN060 27/22 A2973 RMK AO2,0,11,0,16090,0,0,0,
2026-04-24 17:15:00,METAR KGVT 241715Z AUTO 19014KT 10SM BKN026 BKN031 BKN060 27/23 A2974 RMK AO2 LTG DSNT NE,0,14,0,16090,0,0,0,DS
2026-04-24 16:55:00,METAR KGVT 241655Z AUTO 18011KT 10SM SCT027 BKN033 OVC060 26/22 A2974 RMK AO2,0,11,0,16090,0,0,0,
2026-04-24 16:35:00,METAR KGVT 241635Z AUTO 19012KT 10SM BKN025 BKN033 OVC043 26/22 A2974 RMK AO2,0,12,0,16090,0,0,0,
2026-04-24 16:15:00,METAR KGVT 241615Z AUTO 19011KT 10SM BKN023 OVC030 25/22 A2975 RMK AO2,0,11,0,16090,0,0,0,
2026-04-24 15:55:00,METAR KGVT 241555Z AUTO 19011G16KT 10SM SCT019 OVC025 25/22 A2975 RMK AO2,0,11,1,16090,0,0,0,
2026-04-24 15:35:00,METAR KGVT 241535Z AUTO 18010KT 10SM BKN019 OVC025 25/22 A2974 RMK AO2,0,10,0,16090,0,0,0,
2026-04-24 15:15:00,METAR KGVT 241515Z AUTO 18011G19KT 10SM OVC017 24/22 A2974 RMK AO2,0,11,1,16090,0,0,0,
2026-04-24 14:55:00,METAR KGVT 241455Z AUTO 20012G16KT 10SM OVC015 24/22 A2974 RMK AO2,0,12,1,16090,0,0,0,
2026-04-24 14:35:00,METAR KGVT 241435Z AUTO 19008KT 10SM OVC015 23/22 A2974 RMK AO2 LTG DSNT NE,0,8,0,16090,0,0,0,DS
2026-04-24 14:15:00,METAR KGVT 241415Z AUTO 21014KT 10SM OVC015 23/22 A2974 RMK AO2,0,14,0,16090,0,0,0,
2026-04-24 13:55:00,METAR KGVT 241355Z AUTO 18008KT 10SM OVC015 22/21 A2973 RMK AO2,0,8,0,16090,0,0,0,
2026-04-24 13:35:00,METAR KGVT 241335Z AUTO 18010KT 10SM OVC013 22/21 A2973 RMK AO2,0,10,0,16090,0,0,0,
2026-04-24 13:15:00,METAR KGVT 241315Z AUTO 19013KT 10SM OVC013 22/21 A2972 RMK AO2,0,13,0,16090,0,0,0,
2026-04-24 12:55:00,METAR KGVT 241255Z AUTO 18012G17KT 10SM BKN013 22/21 A2971 RMK AO2,0,12,1,16090,0,0,0,
2026-04-24 12:35:00,METAR KGVT 241235Z AUTO 18011KT 10SM SCT015 21/21 A2971 RMK AO2,0,11,0,16090,0,0,0,
2026-04-24 12:15:00,METAR KGVT 241215Z AUTO 19012KT 10SM SCT015 SCT020 21/21 A2970 RMK AO2,0,12,0,16090,0,0,0,
2026-04-24 11:55:00,METAR KGVT 241155Z AUTO 18012KT 10SM SCT015 SCT034 SCT050 21/21 A2970 RMK AO2,0,12,0,16090,0,0,0,
2026-04-24 11:35:00,METAR KGVT 241135Z AUTO 19013KT 10SM SCT015 SCT025 BKN050 21/21 A2970 RMK AO2,0,13,0,16090,0,0,0,
2026-04-24 11:15:00,METAR KGVT 241115Z AUTO 19012KT 10SM BKN015 BKN020 OVC026 21/21 A2971 RMK AO2,0,12,0,16090,0,0,0,
2026-04-24 10:55:00,METAR KGVT 241055Z AUTO 19013KT 10SM BKN018 OVC025 22/20 A2971 RMK AO2,0,13,0,16090,0,0,0,
2026-04-24 10:35:00,METAR KGVT 241035Z AUTO 20012KT 10SM OVC018 22/20 A2971 RMK AO2,0,12,0,16090,0,0,0,
2026-04-24 10:15:00,METAR KGVT 241015Z AUTO 19015G19KT 10SM BKN018 OVC026 22/20 A2971 RMK AO2,0,15,1,16090,0,0,0,
2026-04-24 09:55:00,METAR KGVT 240955Z AUTO 18012KT 10SM BKN018 OVC029 22/20 A2971 RMK AO2,0,12,0,16090,0,0,0,
2026-04-24 09:35:00,METAR KGVT 240935Z AUTO 19014G19KT 10SM BKN018 OVC025 22/20 A2970 RMK AO2,0,14,1,16090,0,0,0,
2026-04-24 09:15:00,METAR KGVT 240915Z AUTO 18014G18KT 10SM BKN020 OVC026 22/20 A2970 RMK AO2,0,14,1,16090,0,0,0,
2026-04-24 08:55:00,METAR KGVT 240855Z AUTO 18015G20KT 10SM OVC020 22/20 A2970 RMK AO2,0,15,1,16090,0,0,0,
2026-04-24 08:35:00,METAR KGVT 240835Z AUTO 18014G20KT 10SM OVC020 22/20 A2970 RMK AO2,0,14,1,16090,0,0,0,
2026-04-24 04:35:00,METAR KGVT 240435Z AUTO 18013G18KT 10SM CLR 23/20 A2973 RMK AO2,0,13,1,16090,0,0,0,
2026-04-24 04:15:00,METAR KGVT 240415Z AUTO 17011KT 10SM CLR 23/20 A2973 RMK AO2,0,11,0,16090,0,0,0,
2026-04-24 03:55:00,METAR KGVT 240355Z AUTO 17010KT 10SM CLR 22/20 A2973 RMK AO2,0,10,0,16090,0,0,0,
2026-04-24 03:35:00,METAR KGVT 240335Z AUTO 16008KT 10SM CLR 22/20 A2973 RMK AO2,0,8,0,16090,0,0,0,
2026-04-24 03:15:00,METAR KGVT 240315Z AUTO 17009KT 10SM CLR 22/20 A2974 RMK AO2,0,9,0,16090,0,0,0,
2026-04-24 02:55:00,METAR KGVT 240255Z AUTO 17009KT 10SM BKN060 22/20 A2974 RMK AO2,0,9,0,16090,0,0,0,
2026-04-24 02:15:00,METAR KGVT 240215Z AUTO 16009KT 10SM BKN060 23/20 A2974 RMK AO2,0,9,0,16090,0,0,0,
2026-04-24 01:55:00,METAR KGVT 240155Z AUTO 16008KT 10SM BKN060 23/20 A2974 RMK AO2,0,8,0,16090,0,0,0,
2026-04-24 01:35:00,METAR KGVT 240135Z AUTO 16009KT 10SM OVC060 23/20 A2973 RMK AO2,0,9,0,16090,0,0,0,
2026-04-24 01:15:00,METAR KGVT 240115Z AUTO 16008KT 10SM OVC050 23/20 A2974 RMK AO2,0,8,0,16090,0,0,0,
2026-04-24 00:55:00,METAR KGVT 240055Z AUTO 16007KT 10SM OVC050 23/20 A2974 RMK AO2,0,7,0,16090,0,0,0,
2026-04-24 00:35:00,METAR KGVT 240035Z AUTO 17009KT 10SM OVC050 24/20 A2974 RMK AO2,0,9,0,16090,0,0,0,
2026-04-24 00:15:00,METAR KGVT 240015Z AUTO 16007KT 10SM BKN050 24/20 A2974 RMK AO2,0,7,0,16090,0,0,0,
2026-04-23 23:55:00,METAR KGVT 232355Z AUTO 17009KT 10SM SCT050 24/20 A2974 RMK AO2,0,9,0,16090,0,0,0,
2026-04-23 23:35:00,METAR KGVT 232335Z AUTO 17011G17KT 10SM CLR 25/20 A2975 RMK AO2,0,11,1,16090,0,0,0,
2026-04-23 23:15:00,METAR KGVT 232315Z AUTO 17012KT 10SM SCT033 SCT040 25/20 A2975 RMK AO2,0,12,0,16090,0,0,0,
2026-04-23 22:55:00,METAR KGVT 232255Z AUTO 15014KT 10SM SCT033 SCT040 26/21 A2975 RMK AO2,0,14,0,16090,0,0,0,
2026-04-23 22:35:00,METAR KGVT 232235Z AUTO 17012KT 10SM SCT033 SCT048 26/21 A2975 RMK AO2,0,12,0,16090,0,0,0,
2026-04-23 22:15:00,METAR KGVT 232215Z AUTO 15014KT 10SM SCT031 SCT050 26/20 A2975 RMK AO2,0,14,0,16090,0,0,0,
2026-04-23 21:55:00,METAR KGVT 232155Z AUTO 15014KT 10SM BKN050 25/21 A2976 RMK AO2,0,14,0,16090,0,0,0,
2026-04-23 21:35:00,METAR KGVT 232135Z AUTO 16014G21KT 10SM SCT034 OVC048 26/21 A2976 RMK AO2,0,14,1,16090,0,0,0,
2026-04-23 21:15:00,METAR KGVT 232115Z AUTO 17013G16KT 10SM OVC048 25/20 A2978 RMK AO2,0,13,1,16090,0,0,0,
2026-04-23 20:55:00,METAR KGVT 232055Z AUTO 19013KT 10SM SCT029 OVC048 26/20 A2979 RMK AO2,0,13,0,16090,0,0,0,
2026-04-23 20:35:00,METAR KGVT 232035Z AUTO 17014G18KT 3SM HZ SCT030 SCT038 OVC046 25/20 A2980 RMK AO2,0,14,1,4827,0,0,0,
2026-04-23 20:15:00,METAR KGVT 232015Z AUTO 18014G19KT 10SM SCT028 BKN039 OVC045 25/20 A2981 RMK AO2,0,14,1,16090,0,0,0,
2026-04-23 19:35:00,METAR KGVT 231935Z AUTO 18011G19KT 10SM SCT028 OVC039 25/20 A2982 RMK AO2,0,11,1,16090,0,0,0,
2026-04-23 19:15:00,METAR KGVT 231915Z AUTO 18011KT 10SM SCT024 OVC037 24/20 A2983 RMK AO2,0,11,0,16090,0,0,0,
2026-04-23 18:55:00,METAR KGVT 231855Z AUTO 18016KT 10SM SCT026 OVC035 24/20 A2983 RMK AO2,0,16,0,16090,0,0,0,
2026-04-23 18:35:00,METAR KGVT 231835Z AUTO 18014KT 10SM SCT026 OVC035 24/20 A2984 RMK AO2,0,14,0,16090,0,0,0,
2026-04-23 18:15:00,METAR KGVT 231815Z AUTO 18011KT 10SM BKN028 OVC033 23/20 A2985 RMK AO2,0,11,0,16090,0,0,0,
2026-04-23 17:55:00,METAR KGVT 231755Z AUTO 19012KT 10SM BKN025 OVC031 23/19 A2986 RMK AO2,0,12,0,16090,0,0,0,
2026-04-23 17:35:00,METAR KGVT 231735Z AUTO 19015G21KT 10SM BKN023 OVC031 23/19 A2987 RMK AO2,0,15,1,16090,0,0,0,
2026-04-23 17:15:00,METAR KGVT 231715Z AUTO 19013G17KT 10SM BKN023 OVC029 22/19 A2988 RMK AO2,0,13,1,16090,0,0,0,
2026-04-23 16:35:00,METAR KGVT 231635Z AUTO 19012KT 10SM OVC027 23/20 A2989 RMK AO2,0,12,0,16090,0,0,0,
2026-04-23 16:15:00,METAR KGVT 231615Z AUTO 18016G20KT 10SM SCT023 OVC029 22/19 A2990 RMK AO2,0,16,1,16090,0,0,0,
2026-04-23 15:55:00,METAR KGVT 231555Z AUTO 18015G21KT 10SM OVC025 22/19 A2990 RMK AO2,0,15,1,16090,0,0,0,
2026-04-23 15:35:00,METAR KGVT 231535Z AUTO 18012KT 10SM SCT022 OVC028 22/19 A2990 RMK AO2,0,12,0,16090,0,0,0,
2026-04-23 15:15:00,METAR KGVT 231515Z AUTO 18016KT 10SM SCT019 OVC024 21/19 A2990 RMK AO2,0,16,0,16090,0,0,0,
2026-04-23 14:55:00,METAR KGVT 231455Z AUTO 20011KT 10SM SCT014 SCT019 OVC026 21/20 A2990 RMK AO2,0,11,0,16090,0,0,0,
2026-04-23 14:35:00,METAR KGVT 231435Z AUTO 19009KT 10SM BKN016 OVC024 21/20 A2991 RMK AO2,0,9,0,16090,0,0,0,
2026-04-23 14:15:00,METAR KGVT 231415Z AUTO 18012KT 10SM BKN018 OVC023 21/20 A2990 RMK AO2,0,12,0,16090,0,0,0,
2026-04-23 13:55:00,METAR KGVT 231355Z AUTO 18011KT 10SM BKN018 OVC023 21/19 A2990 RMK AO2,0,11,0,16090,0,0,0,
2026-04-23 13:35:00,METAR KGVT 231335Z AUTO 17014G18KT 10SM SCT016 OVC023 21/20 A2990 RMK AO2,0,14,1,16090,0,0,0,
2026-04-23 13:15:00,METAR KGVT 231315Z AUTO 17012KT 10SM SCT015 OVC025 21/19 A2990 RMK AO2,0,12,0,16090,0,0,0,
2026-04-23 12:55:00,METAR KGVT 231255Z AUTO 17010KT 10SM SCT017 OVC023 20/20 A2990 RMK AO2,0,10,0,16090,0,0,0,
2026-04-23 12:35:00,METAR KGVT 231235Z AUTO 17010KT 10SM SCT015 OVC023 20/19 A2989 RMK AO2,0,10,0,16090,0,0,0,
2026-04-23 12:15:00,METAR KGVT 231215Z AUTO 17009KT 10SM BKN015 OVC025 20/19 A2989 RMK AO2,0,9,0,16090,0,0,0,
2026-04-23 11:55:00,METAR KGVT 231155Z AUTO 16009KT 10SM BKN015 OVC025 20/19 A2988 RMK AO2,0,9,0,16090,0,0,0,
2026-04-23 11:15:00,METAR KGVT 231115Z AUTO 19012KT 10SM BKN015 OVC021 20/19 A2988 RMK AO2,0,12,0,16090,0,0,0,
2026-04-23 10:55:00,METAR KGVT 231055Z AUTO 17010KT 10SM OVC018 20/19 A2988 RMK AO2,0,10,0,16090,0,0,0,
2026-04-23 10:35:00,METAR KGVT 231035Z AUTO 18010KT 10SM OVC018 20/19 A2988 RMK AO2,0,10,0,16090,0,0,0,
2026-04-23 09:55:00,METAR KGVT 230955Z AUTO 17012KT 10SM OVC018 20/19 A2987 RMK AO2,0,12,0,16090,0,0,0,
2026-04-23 09:35:00,METAR KGVT 230935Z AUTO 17013KT 10SM OVC018 20/19 A2988 RMK AO2,0,13,0,16090,0,0,0,
2026-04-23 09:15:00,METAR KGVT 230915Z AUTO 17012G15KT 10SM BKN014 OVC021 20/19 A2988 RMK AO2,0,12,1,16090,0,0,0,
2026-04-23 08:55:00,METAR KGVT 230855Z AUTO 18012G19KT 10SM OVC014 20/19 A2988 RMK AO2,0,12,1,16090,0,0,0,
2026-04-23 08:35:00,METAR KGVT 230835Z AUTO 17013G16KT 10SM OVC016 20/20 A2988 RMK AO2,0,13,1,16090,0,0,0,
2026-04-23 08:15:00,METAR KGVT 230815Z AUTO 17010KT 10SM OVC016 20/20 A2988 RMK AO2,0,10,0,16090,0,0,0,
2026-04-23 07:55:00,METAR KGVT 230755Z AUTO 17011KT 10SM BKN013 OVC019 20/20 A2988 RMK AO2,0,11,0,16090,0,0,0,
2026-04-23 07:35:00,METAR KGVT 230735Z AUTO 17008KT 10SM OVC011 20/ A2989 RMK AO2,0,8,0,16090,0,0,0,
2026-04-23 07:15:00,METAR KGVT 230715Z AUTO 16010KT 10SM OVC013 20/ A2989 RMK AO2,0,10,0,16090,0,0,0,
2026-04-23 06:55:00,METAR KGVT 230655Z AUTO 16008KT 10SM OVC013 20/20 A2989 RMK AO2,0,8,0,16090,0,0,0,
2026-04-23 06:35:00,METAR KGVT 230635Z AUTO 16010KT 10SM OVC013 20/ A2990 RMK AO2,0,10,0,16090,0,0,0,
2026-04-23 06:15:00,METAR KGVT 230615Z AUTO 16009KT 10SM BKN015 20/ A2991 RMK AO2,0,9,0,16090,0,0,0,
2026-04-23 05:35:00,METAR KGVT 230535Z AUTO 15008KT 10SM CLR 19/19 A2991 RMK AO2,0,8,0,16090,0,0,0,
2026-04-23 05:15:00,METAR KGVT 230515Z AUTO 15010KT 10SM CLR 19/19 A2992 RMK AO2,0,10,0,16090,0,0,0,
2026-04-23 04:55:00,METAR KGVT 230455Z AUTO 15009KT 10SM CLR 19/19 A2992 RMK AO2,0,9,0,16090,0,0,0,
2026-04-23 04:35:00,METAR KGVT 230435Z AUTO 15009KT 10SM CLR 20/19 A2993 RMK AO2,0,9,0,16090,0,0,0,
2026-04-23 04:15:00,METAR KGVT 230415Z AUTO 15010KT 10SM CLR 20/19 A2992 RMK AO2,0,10,0,16090,0,0,0,
2026-04-23 03:55:00,METAR KGVT 230355Z AUTO 14009KT 10SM SCT060 20/20 A2993 RMK AO2,0,9,0,16090,0,0,0,
2026-04-23 03:35:00,METAR KGVT 230335Z AUTO 14010KT 10SM BKN060 21/20 A2993 RMK AO2,0,10,0,16090,0,0,0,
2026-04-23 03:15:00,METAR KGVT 230315Z AUTO 14009KT 10SM BKN060 21/20 A2993 RMK AO2,0,9,0,16090,0,0,0,
2026-04-23 02:55:00,METAR KGVT 230255Z AUTO 13010KT 10SM BKN060 21/20 A2993 RMK AO2,0,10,0,16090,0,0,0,
2026-04-23 02:35:00,METAR KGVT 230235Z AUTO 13011KT 10SM BKN060 21/20 A2993 RMK AO2,0,11,0,16090,0,0,0,
2026-04-23 02:15:00,METAR KGVT 230215Z AUTO 13009KT 10SM OVC050 21/20 A2992 RMK AO2,0,9,0,16090,0,0,0,
2026-04-23 01:55:00,METAR KGVT 230155Z AUTO 13007KT 10SM BKN050 21/20 A2992 RMK AO2,0,7,0,16090,0,0,0,
2026-04-23 01:35:00,METAR KGVT 230135Z AUTO 12008KT 10SM BKN048 BKN055 21/20 A2991 RMK AO2,0,8,0,16090,0,0,0,
2026-04-23 01:15:00,METAR KGVT 230115Z AUTO 12006KT 10SM BKN050 21/21 A2992 RMK AO2,0,6,0,16090,0,0,0,
2026-04-23 00:55:00,METAR KGVT 230055Z AUTO 12007KT 10SM SCT050 21/21 A2992 RMK AO2,0,7,0,16090,0,0,0,
2026-04-23 00:35:00,METAR KGVT 230035Z AUTO 12007KT 10SM CLR 22/21 A2992 RMK AO2,0,7,0,16090,0,0,0,
2026-04-23 00:15:00,METAR KGVT 230015Z AUTO 11007KT 10SM CLR 23/21 A2992 RMK AO2,0,7,0,16090,0,0,0,
2026-04-22 23:55:00,METAR KGVT 222355Z AUTO 12008KT 10SM CLR 23/21 A2992 RMK AO2,0,8,0,16090,0,0,0,
2026-04-22 23:35:00,METAR KGVT 222335Z AUTO 12010KT 10SM SCT024 SCT035 23/21 A2993 RMK AO2,0,10,0,16090,0,0,0,
2026-04-22 23:15:00,METAR KGVT 222315Z AUTO 11007KT 10SM SCT020 SCT027 BKN035 23/21 A2994 RMK AO2,0,7,0,16090,0,0,0,
2026-04-22 22:55:00,METAR KGVT 222255Z AUTO 12010KT 10SM BKN020 BKN027 23/21 A2994 RMK AO2,0,10,0,16090,0,0,0,
2026-04-22 21:55:00,METAR KGVT 222155Z AUTO 16009KT 10SM BKN014 24/21 A2995 RMK AO2,0,9,0,16090,0,0,0,
2026-04-22 21:35:00,METAR KGVT 222135Z AUTO 15012KT 10SM BKN014 23/21 A2996 RMK AO2,0,12,0,16090,0,0,0,
2026-04-22 20:55:00,METAR KGVT 222055Z AUTO 14011KT 10SM SCT010 SCT044 SCT070 22/21 A2998 RMK AO2,0,11,0,16090,0,0,0,
2026-04-22 20:35:00,METAR KGVT 222035Z AUTO 15008KT 10SM SCT010 BKN044 BKN049 22/21 A2999 RMK AO2,0,8,0,16090,0,0,0,
2026-04-22 20:15:00,METAR KGVT 222015Z AUTO 15009KT 10SM BKN008 BKN030 OVC090 22/20 A3001 RMK AO2,0,9,0,16090,0,0,0,
2026-04-22 19:55:00,METAR KGVT 221955Z AUTO 14009KT 10SM OVC008 21/20 A3003 RMK AO2,0,9,0,16090,0,0,0,
2026-04-22 19:35:00,METAR KGVT 221935Z AUTO 12008KT 10SM BKN008 OVC025 20/20 A3004 RMK AO2,0,8,0,16090,0,0,0,
2026-04-22 19:15:00,METAR KGVT 221915Z AUTO 12008KT 10SM TS BKN006 BKN011 OVC023 20/20 A3004 RMK AO2 LTG DSNT E,0,8,0,16090,1,0,0,"DS,TS"
2026-04-22 18:55:00,METAR KGVT 221855Z AUTO 13007KT 10SM BKN006 OVC022 20/20 A3005 RMK AO2,0,7,0,16090,0,0,0,
2026-04-22 18:35:00,METAR KGVT 221835Z AUTO 14008KT 10SM BKN006 BKN011 OVC020 19/ A3005 RMK AO2,0,8,0,16090,0,0,0,
2026-04-22 18:15:00,METAR KGVT 221815Z AUTO 15007KT 10SM BKN006 OVC020 19/ A3005 RMK AO2,0,7,0,16090,0,0,0,
2026-04-22 17:55:00,METAR KGVT 221755Z AUTO 15009KT 10SM BKN004 OVC019 19/ A3006 RMK AO2,0,9,0,16090,0,0,0,
2026-04-22 17:35:00,METAR KGVT 221735Z AUTO 15008KT 10SM VCTS OVC004 19/ A3007 RMK AO2 LTG DSNT SE,0,8,0,16090,1,0,0,"DS,TS,VC"
2026-04-22 17:15:00,METAR KGVT 221715Z AUTO 15009KT 10SM VCTS OVC004 18/ A3008 RMK AO2 LTG DSNT SE,0,9,0,16090,1,0,0,"DS,TS,VC"
2026-04-22 16:55:00,METAR KGVT 221655Z AUTO 15011KT 10SM OVC004 18/ A3008 RMK AO2 LTG DSNT SE,0,11,0,16090,0,0,0,DS
2026-04-22 16:35:00,METAR KGVT 221635Z AUTO 15010KT 10SM OVC004 18/ A3009 RMK AO2 LTG DSNT E AND SE,0,10,0,16090,0,0,0,DS
2026-04-22 16:15:00,METAR KGVT 221615Z AUTO 16008KT 10SM OVC004 17/ A3009 RMK AO2 LTG DSNT E,0,8,0,16090,0,0,0,DS
2026-04-22 15:55:00,METAR KGVT 221555Z AUTO 14009KT 10SM VCTS OVC004 17/ A3009 RMK AO2 LTG DSNT SE P0001,0,9,0,16090,1,0,0,"DS,TS,VC"
2026-04-22 15:15:00,METAR KGVT 221515Z AUTO 14007KT 5SM HZ BKN004 BKN012 OVC019 17/ A3009 RMK AO2 LTG DSNT SE,0,7,0,8045,0,0,0,DS
2026-04-22 14:35:00,METAR KGVT 221435Z AUTO 14008KT 10SM SCT004 SCT008 OVC023 16/ A3009 RMK AO2 LTG DSNT SE AND S P0001,0,8,0,16090,0,0,0,DS
2026-04-22 14:15:00,METAR KGVT 221415Z AUTO 13009KT 10SM TS BKN023 OVC029 16/ A3009 RMK AO2 LTG DSNT NE AND S P0001,0,9,0,16090,1,0,0,"DS,TS"
2026-04-22 13:55:00,METAR KGVT 221355Z AUTO 14009KT 1 1/2SM -TSRA BR SCT006 BKN010 OVC029 16/ A3009 RMK AO2 VIS 1V3 1/2 LTG DSNT NE P0027,0,9,0,2414,1,0,1,"BR,DS,RA"
2026-04-22 13:35:00,METAR KGVT 221335Z AUTO 15008KT 7SM OVC010 16/ A3010 RMK AO2 LTG DSNT NW P0002,0,8,0,11263,0,0,0,DS
2026-04-22 13:15:00,METAR KGVT 221315Z AUTO 13009KT 5SM -TSRA OVC010 16/ A3009 RMK AO2 LTG DSNT W AND NW P0001,0,9,0,8045,1,0,0,"DS,RA"
2026-04-22 12:55:00,METAR KGVT 221255Z AUTO 12006KT 10SM TS OVC012 16/ A3010 RMK AO2 LTG DSNT W AND NW,0,6,0,16090,1,0,0,"DS,TS"
2026-04-22 12:35:00,METAR KGVT 221235Z AUTO 12004KT 4SM HZ OVC012 15/ A3009 RMK AO2,0,4,0,6436,0,0,0,
2026-04-22 12:15:00,METAR KGVT 221215Z AUTO 11005KT 7SM HZ OVC012 15/ A3009 RMK AO2,0,5,0,11263,0,0,0,
2026-04-22 11:55:00,METAR KGVT 221155Z AUTO 12006KT 7SM HZ OVC012 15/ A3009 RMK AO2,0,6,0,11263,0,0,0,
2026-04-22 11:35:00,METAR KGVT 221135Z AUTO 12005KT 5SM -RA OVC014 15/ A3009 RMK AO2,0,5,0,8045,0,0,0,-RA
2026-04-22 11:15:00,METAR KGVT 221115Z AUTO 11006KT 10SM OVC016 15/ A3009 RMK AO2,0,6,0,16090,0,0,0,
2026-04-22 10:55:00,METAR KGVT 221055Z AUTO 10005KT 10SM OVC016 15/ A3009 RMK AO2,0,5,0,16090,0,0,0,
2026-04-22 10:35:00,METAR KGVT 221035Z AUTO 10004KT 10SM OVC018 15/ A3009 RMK AO2,0,4,0,16090,0,0,0,
2026-04-22 10:15:00,METAR KGVT 221015Z AUTO 09004KT 10SM SCT018 OVC029 15/ A3010 RMK AO2,0,4,0,16090,0,0,0,
2026-04-22 09:55:00,METAR KGVT 220955Z AUTO 11005KT 10SM OVC029 15/ A3009 RMK AO2,0,5,0,16090,0,0,0,
2026-04-22 09:15:00,METAR KGVT 220915Z AUTO 12006KT 10SM OVC029 15/ A3009 RMK AO2,0,6,0,16090,0,0,0,
2026-04-22 08:55:00,METAR KGVT 220855Z AUTO 11004KT 10SM OVC029 15/ A3010 RMK AO2,0,4,0,16090,0,0,0,
2026-04-22 08:35:00,METAR KGVT 220835Z AUTO 11005KT 10SM OVC029 14/ A3010 RMK AO2,0,5,0,16090,0,0,0,
2026-04-22 08:15:00,METAR KGVT 220815Z AUTO 12005KT 10SM OVC027 14/ A3010 RMK AO2,0,5,0,16090,0,0,0,
2026-04-22 07:55:00,METAR KGVT 220755Z AUTO 12004KT 10SM OVC031 14/ A3011 RMK AO2,0,4,0,16090,0,0,0,
2026-04-22 07:35:00,METAR KGVT 220735Z AUTO 11006KT 10SM OVC031 14/ A3011 RMK AO2,0,6,0,16090,0,0,0,
2026-04-22 07:15:00,METAR KGVT 220715Z AUTO 10003KT 10SM BKN029 OVC043 14/ A3012 RMK AO2,0,3,0,16090,0,0,0,
2026-04-22 06:55:00,METAR KGVT 220655Z AUTO 08003KT 10SM BKN043 OVC065 14/ A3013 RMK AO2,0,3,0,16090,0,0,0,
2026-04-22 06:35:00,METAR KGVT 220635Z AUTO 09003KT 10SM SCT043 OVC065 14/ A3013 RMK AO2,0,3,0,16090,0,0,0,
2026-04-22 06:15:00,METAR KGVT 220615Z AUTO 00000KT 10SM OVC065 14/ A3013 RMK AO2,0,0,0,16090,0,0,0,
2026-04-22 05:55:00,METAR KGVT 220555Z AUTO 00000KT 10SM OVC065 14/ A3014 RMK AO2,0,0,0,16090,0,0,0,
2026-04-22 05:35:00,METAR KGVT 220535Z AUTO 14004KT 10SM BKN065 13/ A3013 RMK AO2,0,4,0,16090,0,0,0,
2026-04-22 05:15:00,METAR KGVT 220515Z AUTO 11004KT 3 1/2SM BR SCT065 13/ A3013 RMK AO2,0,4,0,5632,0,0,1,BR
2026-04-22 04:55:00,METAR KGVT 220455Z AUTO 10003KT 10SM SCT065 13/ A3014 RMK AO2,0,3,0,16090,0,0,0,
2026-04-22 04:35:00,METAR KGVT 220435Z AUTO 12004KT 10SM SCT032 SCT075 13/ A3014 RMK AO2,0,4,0,16090,0,0,0,
2026-04-22 04:15:00,METAR KGVT 220415Z AUTO 12005KT 10SM BKN036 14/ A3015 RMK AO2,0,5,0,16090,0,0,0,
2026-04-22 03:55:00,METAR KGVT 220355Z AUTO 11003KT 10SM OVC034 14/ A3016 RMK AO2,0,3,0,16090,0,0,0,
2026-04-22 03:35:00,METAR KGVT 220335Z AUTO 10004KT 10SM SCT025 OVC032 14/ A3016 RMK AO2,0,4,0,16090,0,0,0,
2026-04-22 03:15:00,METAR KGVT 220315Z AUTO 10004KT 10SM SCT025 OVC032 14/14 A3017 RMK AO2,0,4,0,16090,0,0,0,
2026-04-22 02:55:00,METAR KGVT 220255Z AUTO 11005KT 10SM SCT018 SCT023 OVC032 14/14 A3017 RMK AO2,0,5,0,16090,0,0,0,
2026-04-22 02:35:00,METAR KGVT 220235Z AUTO 09006KT 10SM BKN018 OVC025 14/14 A3017 RMK AO2,0,6,0,16090,0,0,0,
2026-04-22 02:15:00,METAR KGVT 220215Z AUTO 10006KT 10SM OVC025 14/14 A3016 RMK AO2,0,6,0,16090,0,0,0,
2026-04-22 01:55:00,METAR KGVT 220155Z AUTO 12009KT 10SM OVC025 14/14 A3016 RMK AO2,0,9,0,16090,0,0,0,
2026-04-22 01:15:00,METAR KGVT 220115Z AUTO 13008KT 10SM BKN016 OVC023 15/14 A3015 RMK AO2,0,8,0,16090,0,0,0,
2026-04-22 00:35:00,METAR KGVT 220035Z AUTO 13007KT 10SM SCT016 BKN022 OVC029 15/14 A3016 RMK AO2,0,7,0,16090,0,0,0,
2026-04-22 00:15:00,METAR KGVT 220015Z AUTO 13008KT 10SM SCT014 BKN029 OVC095 15/14 A3016 RMK AO2,0,8,0,16090,0,0,0,
2026-04-21 23:55:00,METAR KGVT 212355Z AUTO 15011KT 10SM BKN014 OVC095 15/14 A3015 RMK AO2,0,11,0,16090,0,0,0,
2026-04-21 23:35:00,METAR KGVT 212335Z AUTO 14010KT 10SM OVC014 15/ A3015 RMK AO2,0,10,0,16090,0,0,0,
2026-04-21 23:15:00,METAR KGVT 212315Z AUTO 14011KT 10SM OVC012 15/15 A3016 RMK AO2,0,11,0,16090,0,0,0,
2026-04-21 22:55:00,METAR KGVT 212255Z AUTO 13008KT 10SM -RA OVC012 15/15 A3017 RMK AO2,0,8,0,16090,0,0,0,-RA
2026-04-21 22:35:00,METAR KGVT 212235Z AUTO 14010KT 10SM OVC012 15/15 A3016 RMK AO2,0,10,0,16090,0,0,0,
2026-04-21 22:15:00,METAR KGVT 212215Z AUTO 14007KT 10SM OVC012 15/15 A3017 RMK AO2,0,7,0,16090,0,0,0,
2026-04-21 21:55:00,METAR KGVT 212155Z AUTO 14008KT 10SM OVC012 15/15 A3017 RMK AO2,0,8,0,16090,0,0,0,
2026-04-21 21:35:00,METAR KGVT 212135Z AUTO 14009KT 10SM OVC012 15/15 A3017 RMK AO2,0,9,0,16090,0,0,0,
2026-04-21 21:15:00,METAR KGVT 212115Z AUTO 14007KT 10SM -RA OVC010 15/15 A3018 RMK AO2,0,7,0,16090,0,0,0,-RA
2026-04-21 20:55:00,METAR KGVT 212055Z AUTO 12007KT 10SM BKN008 OVC014 15/15 A3018 RMK AO2,0,7,0,16090,0,0,0,
2026-04-21 20:35:00,METAR KGVT 212035Z AUTO 13008KT 10SM OVC012 15/15 A3019 RMK AO2,0,8,0,16090,0,0,0,
2026-04-21 20:15:00,METAR KGVT 212015Z AUTO 13008KT 10SM OVC010 14/ A3020 RMK AO2,0,8,0,16090,0,0,0,
2026-04-21 19:55:00,METAR KGVT 211955Z AUTO 15008KT 10SM -DZ OVC010 14/ A3021 RMK AO2 P0004,0,8,0,16090,0,0,0,DZ
2026-04-21 19:35:00,METAR KGVT 211935Z AUTO 14009KT 10SM -DZ SCT008 BKN012 OVC080 14/14 A3021 RMK AO2 P0003,0,9,0,16090,0,0,0,DZ
2026-04-21 19:15:00,METAR KGVT 211915Z AUTO 14012G19KT 10SM -DZ BKN010 BKN021 OVC080 14/14 A3020 RMK AO2 P0001,0,12,1,16090,0,0,0,DZ
2026-04-21 18:55:00,METAR KGVT 211855Z AUTO 14013KT 10SM -DZ BKN010 BKN031 OVC060 15/ A3020 RMK AO2 P0006,0,13,0,16090,0,0,0,DZ
2026-04-21 18:35:00,METAR KGVT 211835Z AUTO 15013KT 7SM -RA BKN008 BKN019 OVC048 14/ A3021 RMK AO2 P0005,0,13,0,11263,0,0,0,-RA
2026-04-21 18:15:00,METAR KGVT 211815Z AUTO 15014G20KT 7SM -RA SCT008 BKN013 OVC019 14/ A3023 RMK AO2 P0002,0,14,1,11263,0,0,0,-RA
2026-04-21 17:55:00,METAR KGVT 211755Z AUTO 15011KT 7SM -RA BKN010 OVC017 15/ A3025 RMK AO2 P0010,0,11,0,11263,0,0,0,-RA
2026-04-21 17:35:00,METAR KGVT 211735Z AUTO 16006KT 3SM -RA BR BKN010 OVC015 15/ A3026 RMK AO2 P0007,0,6,0,4827,0,0,1,"-RA,BR"
2026-04-21 17:15:00,METAR KGVT 211715Z AUTO 16007KT 5SM -RA BR SCT008 OVC015 15/14 A3026 RMK AO2 P0002,0,7,0,8045,0,0,1,"-RA,BR"
2026-04-21 16:55:00,METAR KGVT 211655Z AUTO 14008KT 5SM -RA BR BKN017 BKN022 OVC031 15/14 A3026 RMK AO2 P0003,0,8,0,8045,0,0,1,"-RA,BR"
2026-04-21 16:35:00,METAR KGVT 211635Z AUTO 14010KT 10SM -RA BKN017 SCT024 OVC036 15/15 A3026 RMK AO2 P0001,0,10,0,16090,0,0,0,-RA
2026-04-21 16:15:00,METAR KGVT 211615Z AUTO 14009KT 10SM -RA SCT017 OVC036 15/15 A3026 RMK AO2 P0001,0,9,0,16090,0,0,0,-RA
2026-04-21 15:55:00,METAR KGVT 211555Z AUTO 15007KT 10SM -RA OVC032 15/14 A3026 RMK AO2,0,7,0,16090,0,0,0,-RA
2026-04-21 15:35:00,METAR KGVT 211535Z AUTO 15007KT 10SM OVC032 15/14 A3025 RMK AO2,0,7,0,16090,0,0,0,
2026-04-21 15:15:00,METAR KGVT 211515Z AUTO 16007KT 10SM OVC032 15/13 A3025 RMK AO2,0,7,0,16090,0,0,0,
2026-04-21 14:55:00,METAR KGVT 211455Z AUTO 15009KT 10SM OVC034 14/13 A3024 RMK AO2,0,9,0,16090,0,0,0,
2026-04-21 14:35:00,METAR KGVT 211435Z AUTO 14008KT 10SM -RA OVC032 14/13 A3024 RMK AO2,0,8,0,16090,0,0,0,-RA
2026-04-21 14:15:00,METAR KGVT 211415Z AUTO 13005KT 10SM -DZ BKN032 OVC039 14/13 A3024 RMK AO2,0,5,0,16090,0,0,0,DZ
2026-04-21 13:55:00,METAR KGVT 211355Z AUTO 12006KT 10SM SCT027 BKN039 OVC050 14/13 A3024 RMK AO2,0,6,0,16090,0,0,0,
2026-04-21 13:35:00,METAR KGVT 211335Z AUTO 13006KT 10SM SCT027 OVC035 14/13 A3024 RMK AO2,0,6,0,16090,0,0,0,
2026-04-21 13:15:00,METAR KGVT 211315Z AUTO 11005KT 10SM OVC035 14/13 A3024 RMK AO2,0,5,0,16090,0,0,0,
2026-04-21 12:55:00,METAR KGVT 211255Z AUTO 14004KT 10SM -RA OVC033 14/13 A3024 RMK AO2,0,4,0,16090,0,0,0,-RA
2026-04-21 12:35:00,METAR KGVT 211235Z AUTO 15003KT 10SM -DZ OVC033 14/13 A3023 RMK AO2,0,3,0,16090,0,0,0,DZ
2026-04-21 12:15:00,METAR KGVT 211215Z AUTO 00000KT 10SM SCT030 OVC039 14/13 A3021 RMK AO2,0,0,0,16090,0,0,0,
2026-04-21 11:55:00,METAR KGVT 211155Z AUTO 00000KT 10SM SCT025 SCT030 OVC040 14/13 A3020 RMK AO2,0,0,0,16090,0,0,0,
2026-04-21 11:35:00,METAR KGVT 211135Z AUTO 00000KT 10SM SCT025 OVC038 14/12 A3020 RMK AO2 LTG DSNT W,0,0,0,16090,0,0,0,DS
2026-04-21 11:15:00,METAR KGVT 211115Z AUTO 00000KT 10SM BKN036 OVC043 14/12 A3020 RMK AO2 LTG DSNT SW,0,0,0,16090,0,0,0,DS
2026-04-21 10:55:00,METAR KGVT 211055Z AUTO 11005KT 10SM BKN035 OVC048 14/12 A3020 RMK AO2,0,5,0,16090,0,0,0,
2026-04-21 10:35:00,METAR KGVT 211035Z AUTO 12003KT 10SM BKN048 OVC060 14/13 A3020 RMK AO2 LTG DSNT SW,0,3,0,16090,0,0,0,DS
2026-04-21 10:15:00,METAR KGVT 211015Z AUTO 00000KT 10SM SCT050 BKN055 OVC070 14/12 A3020 RMK AO2,0,0,0,16090,0,0,0,
2026-04-21 09:55:00,METAR KGVT 210955Z AUTO 00000KT 10SM SCT050 BKN055 OVC120 14/12 A3020 RMK AO2,0,0,0,16090,0,0,0,
2026-04-21 09:35:00,METAR KGVT 210935Z AUTO 00000KT 10SM BKN060 BKN080 BKN120 13/12 A3020 RMK AO2,0,0,0,16090,0,0,0,
2026-04-21 09:15:00,METAR KGVT 210915Z AUTO 00000KT 10SM BKN060 BKN070 BKN120 14/12 A3020 RMK AO2,0,0,0,16090,0,0,0,
2026-04-21 08:55:00,METAR KGVT 210855Z AUTO 00000KT 10SM BKN110 14/12 A3020 RMK AO2,0,0,0,16090,0,0,0,
2026-04-21 08:35:00,METAR KGVT 210835Z AUTO 14003KT 10SM SCT080 BKN110 14/12 A3020 RMK AO2 LTG DSNT SW,0,3,0,16090,0,0,0,DS
2026-04-21 08:15:00,METAR KGVT 210815Z AUTO 17004KT 10SM SCT080 BKN120 14/11 A3021 RMK AO2,0,4,0,16090,0,0,0,
2026-04-21 07:55:00,METAR KGVT 210755Z AUTO 18004KT 10SM SCT120 14/11 A3021 RMK AO2,0,4,0,16090,0,0,0,
2026-04-21 07:35:00,METAR KGVT 210735Z AUTO 20004KT 10SM CLR 15/10 A3022 RMK AO2,0,4,0,16090,0,0,0,
2026-04-21 07:15:00,METAR KGVT 210715Z AUTO 21008KT 10SM CLR 15/09 A3023 RMK AO2,0,8,0,16090,0,0,0,
2026-04-21 06:55:00,METAR KGVT 210655Z AUTO 21008KT 10SM CLR 15/09 A3024 RMK AO2,0,8,0,16090,0,0,0,
2026-04-21 06:35:00,METAR KGVT 210635Z AUTO 21008KT 10SM CLR 15/09 A3025 RMK AO2,0,8,0,16090,0,0,0,
2026-04-21 06:15:00,METAR KGVT 210615Z AUTO 21009KT 10SM CLR 15/09 A3025 RMK AO2,0,9,0,16090,0,0,0,
2026-04-21 05:55:00,METAR KGVT 210555Z AUTO 20008KT 10SM CLR 15/09 A3025 RMK AO2,0,8,0,16090,0,0,0,
2026-04-21 05:35:00,METAR KGVT 210535Z AUTO 20008KT 10SM CLR 15/10 A3024 RMK AO2,0,8,0,16090,0,0,0,
2026-04-21 05:15:00,METAR KGVT 210515Z AUTO 20008KT 10SM CLR 15/10 A3024 RMK AO2,0,8,0,16090,0,0,0,
2026-04-21 04:55:00,METAR KGVT 210455Z AUTO 20007KT 10SM CLR 14/10 A3023 RMK AO2,0,7,0,16090,0,0,0,
2026-04-21 04:35:00,METAR KGVT 210435Z AUTO 19006KT 10SM CLR 13/10 A3023 RMK AO2,0,6,0,16090,0,0,0,
2026-04-21 04:15:00,METAR KGVT 210415Z AUTO 18004KT 10SM CLR 13/10 A3023 RMK AO2,0,4,0,16090,0,0,0,
2026-04-21 03:55:00,METAR KGVT 210355Z AUTO 17004KT 10SM CLR 12/10 A3023 RMK AO2,0,4,0,16090,0,0,0,
2026-04-21 03:35:00,METAR KGVT 210335Z AUTO 17004KT 10SM CLR 11/10 A3022 RMK AO2,0,4,0,16090,0,0,0,
2026-04-21 03:15:00,METAR KGVT 210315Z AUTO 17004KT 10SM CLR 13/10 A3022 RMK AO2,0,4,0,16090,0,0,0,
2026-04-21 02:55:00,METAR KGVT 210255Z AUTO 19004KT 10SM CLR 13/09 A3022 RMK AO2,0,4,0,16090,0,0,0,
2026-04-21 02:35:00,METAR KGVT 210235Z AUTO 19006KT 10SM CLR 13/09 A3022 RMK AO2,0,6,0,16090,0,0,0,
2026-04-21 02:15:00,METAR KGVT 210215Z AUTO 19005KT 10SM CLR 14/09 A3021 RMK AO2,0,5,0,16090,0,0,0,
2026-04-21 01:55:00,METAR KGVT 210155Z AUTO 18005KT 10SM CLR 15/09 A3020 RMK AO2,0,5,0,16090,0,0,0,
2026-04-21 01:35:00,METAR KGVT 210135Z AUTO 17004KT 10SM CLR 14/11 A3020 RMK AO2,0,4,0,16090,0,0,0,
2026-04-21 01:15:00,METAR KGVT 210115Z AUTO 15003KT 10SM CLR 15/11 A3019 RMK AO2,0,3,0,16090,0,0,0,
2026-04-21 00:55:00,METAR KGVT 210055Z AUTO 16004KT 10SM CLR 17/10 A3019 RMK AO2,0,4,0,16090,0,0,0,
2026-04-21 00:35:00,METAR KGVT 210035Z AUTO 15005KT 10SM CLR 18/09 A3020 RMK AO2,0,5,0,16090,0,0,0,
2026-04-20 23:55:00,METAR KGVT 202355Z AUTO 15007KT 10SM CLR 20/08 A3020 RMK AO2,0,7,0,16090,0,0,0,
2026-04-20 23:35:00,METAR KGVT 202335Z AUTO 16008KT 10SM CLR 21/07 A3021 RMK AO2,0,8,0,16090,0,0,0,
2026-04-20 23:15:00,METAR KGVT 202315Z AUTO 17010KT 10SM CLR 21/07 A3022 RMK AO2,0,10,0,16090,0,0,0,
2026-04-20 22:55:00,METAR KGVT 202255Z AUTO 17007KT 140V200 10SM CLR 22/08 A3022 RMK AO2,0,7,0,16090,0,0,0,
2026-04-20 22:35:00,METAR KGVT 202235Z AUTO 16008KT 140V200 10SM CLR 22/07 A3022 RMK AO2,0,8,0,16090,0,0,0,
2026-04-20 22:15:00,METAR KGVT 202215Z AUTO 17005KT 10SM CLR 21/07 A3022 RMK AO2,0,5,0,16090,0,0,0,
2026-04-20 21:55:00,METAR KGVT 202155Z AUTO 20007KT 10SM CLR 21/06 A3023 RMK AO2,0,7,0,16090,0,0,0,
2026-04-20 21:35:00,METAR KGVT 202135Z AUTO 16005KT 10SM CLR 20/07 A3022 RMK AO2,0,5,0,16090,0,0,0,
2026-04-20 20:55:00,METAR KGVT 202055Z AUTO 15006KT 10SM CLR 21/06 A3024 RMK AO2,0,6,0,16090,0,0,0,
2026-04-20 20:35:00,METAR KGVT 202035Z AUTO 17010KT 10SM CLR 21/06 A3025 RMK AO2,0,10,0,16090,0,0,0,
2026-04-20 20:15:00,METAR KGVT 202015Z AUTO 18009KT 10SM CLR 21/06 A3025 RMK AO2,0,9,0,16090,0,0,0,
2026-04-20 19:55:00,METAR KGVT 201955Z AUTO 17008KT 10SM CLR 21/06 A3026 RMK AO2,0,8,0,16090,0,0,0,
2026-04-20 19:35:00,METAR KGVT 201935Z AUTO 16008KT 10SM CLR 21/05 A3027 RMK AO2,0,8,0,16090,0,0,0,
2026-04-20 19:15:00,METAR KGVT 201915Z AUTO 16007KT 10SM CLR 20/05 A3028 RMK AO2,0,7,0,16090,0,0,0,
2026-04-20 18:55:00,METAR KGVT 201855Z AUTO 16006KT 10SM CLR 21/05 A3030 RMK AO2,0,6,0,16090,0,0,0,
2026-04-20 18:35:00,METAR KGVT 201835Z AUTO 18008KT 10SM CLR 20/05 A3030 RMK AO2,0,8,0,16090,0,0,0,
2026-04-20 18:15:00,METAR KGVT 201815Z AUTO 17009KT 10SM CLR 20/06 A3031 RMK AO2,0,9,0,16090,0,0,0,
2026-04-20 17:55:00,METAR KGVT 201755Z AUTO 15009KT 10SM CLR 21/06 A3031 RMK AO2,0,9,0,16090,0,0,0,
2026-04-20 17:35:00,METAR KGVT 201735Z AUTO 15010KT 10SM CLR 20/06 A3032 RMK AO2,0,10,0,16090,0,0,0,
2026-04-20 17:15:00,METAR KGVT 201715Z AUTO 16012G15KT 10SM CLR 20/05 A3032 RMK AO2,0,12,1,16090,0,0,0,
2026-04-20 16:55:00,METAR KGVT 201655Z AUTO 16012G15KT 10SM CLR 20/05 A3033 RMK AO2,0,12,1,16090,0,0,0,
2026-04-20 16:35:00,METAR KGVT 201635Z AUTO 15012KT 10SM CLR 19/04 A3032 RMK AO2,0,12,0,16090,0,0,0,
2026-04-20 16:15:00,METAR KGVT 201615Z AUTO 14012G16KT 10SM CLR 19/05 A3032 RMK AO2,0,12,1,16090,0,0,0,
2026-04-20 15:35:00,METAR KGVT 201535Z AUTO 15009KT 10SM CLR 18/08 A3033 RMK AO2,0,9,0,16090,0,0,0,
2026-04-20 15:15:00,METAR KGVT 201515Z AUTO 14009KT 10SM CLR 17/09 A3033 RMK AO2,0,9,0,16090,0,0,0,
2026-04-20 14:55:00,METAR KGVT 201455Z AUTO 15005KT 10SM CLR 15/10 A3033 RMK AO2,0,5,0,16090,0,0,0,
2026-04-20 14:15:00,METAR KGVT 201415Z AUTO 14005KT 10SM CLR 13/10 A3032 RMK AO2,0,5,0,16090,0,0,0,
2026-04-20 13:55:00,METAR KGVT 201355Z AUTO 14005KT 10SM CLR 12/09 A3032 RMK AO2,0,5,0,16090,0,0,0,
2026-04-20 13:35:00,METAR KGVT 201335Z AUTO 14004KT 10SM CLR 12/10 A3032 RMK AO2,0,4,0,16090,0,0,0,
2026-04-20 12:55:00,METAR KGVT 201255Z AUTO 13003KT 10SM CLR 09/09 A3031 RMK AO2,0,3,0,16090,0,0,0,
2026-04-20 12:15:00,METAR KGVT 201215Z AUTO 08003KT 10SM CLR 07/ A3030 RMK AO2,0,3,0,16090,0,0,0,
2026-04-20 11:55:00,METAR KGVT 201155Z AUTO 00000KT 10SM CLR 06/ A3030 RMK AO2,0,0,0,16090,0,0,0,
2026-04-20 11:15:00,METAR KGVT 201115Z AUTO 00000KT 10SM CLR 07/ A3030 RMK AO2,0,0,0,16090,0,0,0,
2026-04-20 10:55:00,METAR KGVT 201055Z AUTO 00000KT 10SM CLR 06/06 A3029 RMK AO2,0,0,0,16090,0,0,0,
2026-04-20 10:35:00,METAR KGVT 201035Z AUTO 00000KT 10SM CLR 07/ A3029 RMK AO2,0,0,0,16090,0,0,0,
2026-04-20 10:15:00,METAR KGVT 201015Z AUTO 00000KT 10SM CLR 07/ A3028 RMK AO2,0,0,0,16090,0,0,0,
2026-04-20 09:55:00,METAR KGVT 200955Z AUTO 00000KT 10SM CLR 06/ A3028 RMK AO2,0,0,0,16090,0,0,0,
2026-04-20 09:35:00,METAR KGVT 200935Z AUTO 00000KT 10SM CLR 07/ A3028 RMK AO2,0,0,0,16090,0,0,0,
2026-04-20 09:15:00,METAR KGVT 200915Z AUTO 00000KT 10SM CLR 07/ A3027 RMK AO2,0,0,0,16090,0,0,0,
2026-04-20 08:55:00,METAR KGVT 200855Z AUTO 00000KT 10SM CLR 07/ A3027 RMK AO2,0,0,0,16090,0,0,0,
2026-04-20 08:35:00,METAR KGVT 200835Z AUTO 00000KT 10SM CLR 07/ A3028 RMK AO2,0,0,0,16090,0,0,0,
2026-04-20 08:15:00,METAR KGVT 200815Z AUTO 00000KT 10SM CLR 07/ A3028 RMK AO2,0,0,0,16090,0,0,0,
2026-04-20 07:55:00,METAR KGVT 200755Z AUTO 00000KT 10SM CLR 07/ A3028 RMK AO2,0,0,0,16090,0,0,0,
2026-04-20 07:35:00,METAR KGVT 200735Z AUTO 00000KT 10SM CLR 07/ A3028 RMK AO2,0,0,0,16090,0,0,0,
2026-04-20 07:15:00,METAR KGVT 200715Z AUTO 00000KT 10SM CLR 08/ A3028 RMK AO2,0,0,0,16090,0,0,0,
2026-04-20 06:55:00,METAR KGVT 200655Z AUTO 00000KT 10SM CLR 07/07 A3028 RMK AO2,0,0,0,16090,0,0,0,
2026-04-20 06:35:00,METAR KGVT 200635Z AUTO 00000KT 10SM CLR 08/08 A3029 RMK AO2,0,0,0,16090,0,0,0,
2026-04-20 06:15:00,METAR KGVT 200615Z AUTO 00000KT 10SM CLR 08/08 A3029 RMK AO2,0,0,0,16090,0,0,0,
2026-04-20 05:55:00,METAR KGVT 200555Z AUTO 00000KT 10SM CLR 09/08 A3028 RMK AO2,0,0,0,16090,0,0,0,
2026-04-20 05:35:00,METAR KGVT 200535Z AUTO 00000KT 10SM CLR 08/ A3028 RMK AO2,0,0,0,16090,0,0,0,
2026-04-20 05:15:00,METAR KGVT 200515Z AUTO 00000KT 10SM CLR 08/08 A3028 RMK AO2,0,0,0,16090,0,0,0,
2026-04-20 04:35:00,METAR KGVT 200435Z AUTO 00000KT 10SM CLR 09/09 A3028 RMK AO2,0,0,0,16090,0,0,0,
2026-04-20 04:15:00,METAR KGVT 200415Z AUTO 00000KT 10SM CLR 09/09 A3028 RMK AO2,0,0,0,16090,0,0,0,
2026-04-20 03:55:00,METAR KGVT 200355Z AUTO 00000KT 10SM CLR 09/09 A3028 RMK AO2,0,0,0,16090,0,0,0,
2026-04-20 03:35:00,METAR KGVT 200335Z AUTO 00000KT 10SM CLR 10/10 A3028 RMK AO2,0,0,0,16090,0,0,0,
2026-04-20 03:15:00,METAR KGVT 200315Z AUTO 00000KT 10SM CLR 10/10 A3028 RMK AO2,0,0,0,16090,0,0,0,
2026-04-20 02:55:00,METAR KGVT 200255Z AUTO 00000KT 10SM CLR 10/09 A3027 RMK AO2,0,0,0,16090,0,0,0,
2026-04-20 02:35:00,METAR KGVT 200235Z AUTO 00000KT 10SM CLR 11/09 A3027 RMK AO2,0,0,0,16090,0,0,0,
2026-04-20 02:15:00,METAR KGVT 200215Z AUTO 00000KT 10SM CLR 11/10 A3026 RMK AO2,0,0,0,16090,0,0,0,
2026-04-20 01:55:00,METAR KGVT 200155Z AUTO 00000KT 10SM CLR 12/10 A3025 RMK AO2,0,0,0,16090,0,0,0,
2026-04-20 01:35:00,METAR KGVT 200135Z AUTO 06003KT 10SM CLR 12/10 A3025 RMK AO2,0,3,0,16090,0,0,0,
2026-04-20 01:15:00,METAR KGVT 200115Z AUTO 07003KT 10SM CLR 13/08 A3025 RMK AO2,0,3,0,16090,0,0,0,
2026-04-20 00:55:00,METAR KGVT 200055Z AUTO 08003KT 10SM CLR 16/07 A3024 RMK AO2,0,3,0,16090,0,0,0,
2026-04-20 00:15:00,METAR KGVT 200015Z AUTO 10004KT 10SM CLR 18/06 A3025 RMK AO2,0,4,0,16090,0,0,0,
2026-04-19 23:55:00,METAR KGVT 192355Z AUTO 10004KT 10SM CLR 19/05 A3025 RMK AO2,0,4,0,16090,0,0,0,
2026-04-19 23:35:00,METAR KGVT 192335Z AUTO 09006KT 10SM CLR 20/02 A3026 RMK AO2,0,6,0,16090,0,0,0,
2026-04-19 23:15:00,METAR KGVT 192315Z AUTO 11006KT 10SM CLR 20/03 A3026 RMK AO2,0,6,0,16090,0,0,0,
2026-04-19 22:55:00,METAR KGVT 192255Z AUTO 13009KT 10SM CLR 21/03 A3027 RMK AO2,0,9,0,16090,0,0,0,
2026-04-19 22:35:00,METAR KGVT 192235Z AUTO 12008KT 10SM CLR 21/03 A3027 RMK AO2 LTG DSNT SW,0,8,0,16090,0,0,0,DS
2026-04-19 22:15:00,METAR KGVT 192215Z AUTO 12008G16KT 10SM CLR 21/03 A3028 RMK AO2,0,8,1,16090,0,0,0,
2026-04-19 21:55:00,METAR KGVT 192155Z AUTO 09005KT 10SM CLR 21/02 A3028 RMK AO2,0,5,0,16090,0,0,0,
2026-04-19 21:35:00,METAR KGVT 192135Z AUTO 05005KT 10SM CLR 21/02 A3029 RMK AO2,0,5,0,16090,0,0,0,
2026-04-19 21:15:00,METAR KGVT 192115Z AUTO 08005KT 10SM CLR 21/03 A3029 RMK AO2,0,5,0,16090,0,0,0,
2026-04-19 20:55:00,METAR KGVT 192055Z AUTO 07011KT 10SM CLR 21/02 A3030 RMK AO2,0,11,0,16090,0,0,0,
2026-04-19 20:35:00,METAR KGVT 192035Z AUTO 06009KT 040V100 10SM CLR 21/01 A3031 RMK AO2,0,9,0,16090,0,0,0,
2026-04-19 20:15:00,METAR KGVT 192015Z AUTO 08004KT 10SM CLR 21/02 A3032 RMK AO2,0,4,0,16090,0,0,0,
2026-04-19 19:55:00,METAR KGVT 191955Z AUTO 08010KT 060V120 10SM CLR 21/03 A3033 RMK AO2,0,10,0,16090,0,0,0,
2026-04-19 19:35:00,METAR KGVT 191935Z AUTO 13008KT 1 1/4SM HZ VV007 20/04 A3034 RMK AO2,0,8,0,2011,0,0,0,
2026-04-19 19:15:00,METAR KGVT 191915Z AUTO 09006KT 10SM CLR 20/03 A3035 RMK AO2,0,6,0,16090,0,0,0,
2026-04-19 18:55:00,METAR KGVT 191855Z AUTO 04006KT 10SM CLR 20/02 A3036 RMK AO2,0,6,0,16090,0,0,0,
2026-04-19 18:35:00,METAR KGVT 191835Z AUTO 12005KT 10SM CLR 20/05 A3036 RMK AO2,0,5,0,16090,0,0,0,
2026-04-19 18:15:00,METAR KGVT 191815Z AUTO 09006KT 10SM CLR 19/04 A3037 RMK AO2,0,6,0,16090,0,0,0,
2026-04-19 17:55:00,METAR KGVT 191755Z AUTO 14005KT 10SM CLR 19/05 A3037 RMK AO2,0,5,0,16090,0,0,0,
2026-04-19 17:35:00,METAR KGVT 191735Z AUTO 10004KT 10SM CLR 19/05 A3038 RMK AO2,0,4,0,16090,0,0,0,
2026-04-19 17:15:00,METAR KGVT 191715Z AUTO 11005KT 10SM CLR 18/04 A3039 RMK AO2,0,5,0,16090,0,0,0,
2026-04-19 16:55:00,METAR KGVT 191655Z AUTO 15003KT 10SM CLR 17/04 A3040 RMK AO2,0,3,0,16090,0,0,0,
2026-04-19 16:35:00,METAR KGVT 191635Z AUTO 12005KT 10SM CLR 17/05 A3040 RMK AO2,0,5,0,16090,0,0,0,
2026-04-19 16:15:00,METAR KGVT 191615Z AUTO 11006KT 10SM CLR 16/04 A3040 RMK AO2,0,6,0,16090,0,0,0,
2026-04-19 15:55:00,METAR KGVT 191555Z AUTO 13007KT 10SM CLR 16/04 A3040 RMK AO2,0,7,0,16090,0,0,0,
2026-04-19 15:35:00,METAR KGVT 191535Z AUTO 09005KT 10SM CLR 16/06 A3039 RMK AO2,0,5,0,16090,0,0,0,
2026-04-19 15:15:00,METAR KGVT 191515Z AUTO 14007KT 10SM CLR 14/06 A3039 RMK AO2,0,7,0,16090,0,0,0,
2026-04-19 14:55:00,METAR KGVT 191455Z AUTO 09004KT 10SM CLR 14/05 A3038 RMK AO2,0,4,0,16090,0,0,0,
2026-04-19 14:35:00,METAR KGVT 191435Z AUTO 09006KT 10SM CLR 13/06 A3038 RMK AO2,0,6,0,16090,0,0,0,
2026-04-19 14:15:00,METAR KGVT 191415Z AUTO 08003KT 10SM CLR 12/06 A3038 RMK AO2,0,3,0,16090,0,0,0,
2026-04-19 13:55:00,METAR KGVT 191355Z AUTO 05004KT 7SM HZ CLR 10/06 A3038 RMK AO2,0,4,0,11263,0,0,0,
2026-04-19 13:35:00,METAR KGVT 191335Z AUTO 04003KT 10SM CLR 09/05 A3037 RMK AO2,0,3,0,16090,0,0,0,
2026-04-19 13:15:00,METAR KGVT 191315Z AUTO 01003KT 10SM CLR 08/06 A3036 RMK AO2,0,3,0,16090,0,0,0,
2026-04-19 12:55:00,METAR KGVT 191255Z AUTO 00000KT 10SM CLR 06/05 A3036 RMK AO2,0,0,0,16090,0,0,0,
2026-04-19 12:35:00,METAR KGVT 191235Z AUTO 00000KT 10SM CLR 04/ A3035 RMK AO2,0,0,0,16090,0,0,0,
2026-04-19 12:15:00,METAR KGVT 191215Z AUTO 00000KT 10SM CLR 03/03 A3035 RMK AO2,0,0,0,16090,0,0,0,
2026-04-19 11:55:00,METAR KGVT 191155Z AUTO 00000KT 10SM CLR 04/04 A3034 RMK AO2,0,0,0,16090,0,0,0,
2026-04-19 11:35:00,METAR KGVT 191135Z AUTO 36004KT 10SM CLR 04/04 A3034 RMK AO2,0,4,0,16090,0,0,0,
2026-04-19 11:15:00,METAR KGVT 191115Z AUTO 35005KT 10SM CLR 04/04 A3033 RMK AO2,0,5,0,16090,0,0,0,
2026-04-19 10:55:00,METAR KGVT 191055Z AUTO 35005KT 10SM CLR 05/04 A3033 RMK AO2,0,5,0,16090,0,0,0,
2026-04-19 10:35:00,METAR KGVT 191035Z AUTO 35004KT 10SM CLR 05/04 A3033 RMK AO2,0,4,0,16090,0,0,0,
2026-04-19 10:15:00,METAR KGVT 191015Z AUTO 35006KT 10SM CLR 05/04 A3033 RMK AO2,0,6,0,16090,0,0,0,
2026-04-19 09:55:00,METAR KGVT 190955Z AUTO 35005KT 10SM CLR 05/04 A3033 RMK AO2,0,5,0,16090,0,0,0,
2026-04-19 09:35:00,METAR KGVT 190935Z AUTO 34005KT 10SM CLR 05/05 A3033 RMK AO2,0,5,0,16090,0,0,0,
2026-04-19 09:15:00,METAR KGVT 190915Z AUTO 35004KT 10SM CLR 04/ A3033 RMK AO2,0,4,0,16090,0,0,0,
2026-04-19 08:55:00,METAR KGVT 190855Z AUTO 34004KT 10SM CLR 04/ A3033 RMK AO2,0,4,0,16090,0,0,0,
2026-04-19 08:35:00,METAR KGVT 190835Z AUTO 00000KT 5SM HZ CLR 04/ A3032 RMK AO2,0,0,0,8045,0,0,0,
2026-04-19 08:15:00,METAR KGVT 190815Z AUTO 00000KT 10SM CLR 04/ A3032 RMK AO2,0,0,0,16090,0,0,0,
2026-04-19 07:55:00,METAR KGVT 190755Z AUTO 00000KT 10SM CLR 05/ A3033 RMK AO2,0,0,0,16090,0,0,0,
2026-04-19 07:35:00,METAR KGVT 190735Z AUTO 00000KT 10SM CLR 04/ A3033 RMK AO2,0,0,0,16090,0,0,0,
2026-04-19 06:15:00,METAR KGVT 190615Z AUTO 00000KT 10SM CLR 06/05 A3032 RMK AO2,0,0,0,16090,0,0,0,
2026-04-19 05:55:00,METAR KGVT 190555Z AUTO 00000KT 10SM CLR 06/05 A3032 RMK AO2,0,0,0,16090,0,0,0,
2026-04-19 05:35:00,METAR KGVT 190535Z AUTO 01004KT 10SM CLR 08/05 A3031 RMK AO2,0,4,0,16090,0,0,0,
2026-04-19 05:15:00,METAR KGVT 190515Z AUTO 02004KT 10SM CLR 07/06 A3031 RMK AO2,0,4,0,16090,0,0,0,
2026-04-19 04:35:00,METAR KGVT 190435Z AUTO 03003KT 10SM CLR 07/07 A3031 RMK AO2,0,3,0,16090,0,0,0,
2026-04-19 04:15:00,METAR KGVT 190415Z AUTO 00000KT 10SM CLR 07/07 A3032 RMK AO2,0,0,0,16090,0,0,0,
2026-04-19 03:55:00,METAR KGVT 190355Z AUTO 35003KT 10SM CLR 08/07 A3031 RMK AO2,0,3,0,16090,0,0,0,
2026-04-19 03:35:00,METAR KGVT 190335Z AUTO 36004KT 10SM CLR 08/07 A3029 RMK AO2,0,4,0,16090,0,0,0,
2026-04-19 03:15:00,METAR KGVT 190315Z AUTO 36004KT 10SM CLR 08/07 A3029 RMK AO2,0,4,0,16090,0,0,0,
2026-04-19 02:55:00,METAR KGVT 190255Z AUTO 35004KT 10SM CLR 08/08 A3027 RMK AO2,0,4,0,16090,0,0,0,
2026-04-19 02:35:00,METAR KGVT 190235Z AUTO 36004KT 10SM CLR 09/07 A3026 RMK AO2,0,4,0,16090,0,0,0,
2026-04-19 02:15:00,METAR KGVT 190215Z AUTO 00000KT 10SM CLR 10/07 A3025 RMK AO2,0,0,0,16090,0,0,0,
2026-04-19 01:55:00,METAR KGVT 190155Z AUTO 01004KT 10SM CLR 11/07 A3025 RMK AO2,0,4,0,16090,0,0,0,
2026-04-19 01:35:00,METAR KGVT 190135Z AUTO 01005KT 10SM CLR 11/07 A3024 RMK AO2,0,5,0,16090,0,0,0,
2026-04-19 01:15:00,METAR KGVT 190115Z AUTO 01004KT 10SM CLR 12/08 A3022 RMK AO2,0,4,0,16090,0,0,0,
2026-04-19 00:55:00,METAR KGVT 190055Z AUTO 36004KT 10SM CLR 12/10 A3022 RMK AO2,0,4,0,16090,0,0,0,
2026-04-19 00:35:00,METAR KGVT 190035Z AUTO 01005KT 7SM HZ CLR 13/10 A3021 RMK AO2 LTG DSNT S,0,5,0,11263,0,0,0,DS
2026-04-19 00:15:00,METAR KGVT 190015Z AUTO 35004KT 10SM CLR 13/09 A3022 RMK AO2,0,4,0,16090,0,0,0,
2026-04-18 23:55:00,METAR KGVT 182355Z AUTO 01004KT 10SM CLR 13/08 A3021 RMK AO2 LTG DSNT SW,0,4,0,16090,0,0,0,DS
2026-04-18 23:35:00,METAR KGVT 182335Z AUTO 00000KT 10SM CLR 14/08 A3019 RMK AO2,0,0,0,16090,0,0,0,
2026-04-18 23:15:00,METAR KGVT 182315Z AUTO 36004KT 10SM SCT120 14/07 A3019 RMK AO2,0,4,0,16090,0,0,0,
2026-04-18 22:55:00,METAR KGVT 182255Z AUTO 02004KT 10SM SCT120 13/08 A3018 RMK AO2,0,4,0,16090,0,0,0,
2026-04-18 22:35:00,METAR KGVT 182235Z AUTO 29005KT 10SM CLR 13/08 A3021 RMK AO2,0,5,0,16090,0,0,0,
2026-04-18 21:55:00,METAR KGVT 182155Z AUTO 00000KT 10SM BKN120 13/08 A3019 RMK AO2,0,0,0,16090,0,0,0,
2026-04-18 21:35:00,METAR KGVT 182135Z AUTO 28006KT 10SM CLR 13/07 A3022 RMK AO2,0,6,0,16090,0,0,0,
2026-04-18 21:15:00,METAR KGVT 182115Z AUTO 32005KT 10SM SCT120 12/07 A3020 RMK AO2,0,5,0,16090,0,0,0,
2026-04-18 20:35:00,METAR KGVT 182035Z AUTO 32007KT 10SM SCT120 12/08 A3020 RMK AO2,0,7,0,16090,0,0,0,
2026-04-18 20:15:00,METAR KGVT 182015Z AUTO 33006KT 10SM SCT110 12/09 A3019 RMK AO2,0,6,0,16090,0,0,0,
2026-04-18 19:55:00,METAR KGVT 181955Z AUTO 35005KT 10SM SCT110 11/09 A3017 RMK AO2,0,5,0,16090,0,0,0,
2026-04-18 19:15:00,METAR KGVT 181915Z AUTO 36010KT 10SM SCT046 SCT065 OVC110 10/09 A3014 RMK AO2,0,10,0,16090,0,0,0,
2026-04-18 18:55:00,METAR KGVT 181855Z AUTO 01007KT 10SM SCT034 SCT045 OVC110 10/08 A3013 RMK AO2 P0004,0,7,0,16090,0,0,0,
2026-04-18 18:35:00,METAR KGVT 181835Z AUTO 01011G14KT 10SM SCT033 BKN046 OVC100 10/09 A3012 RMK AO2 P0003,0,11,1,16090,0,0,0,
2026-04-18 18:15:00,METAR KGVT 181815Z AUTO 36011KT 5SM BR SCT070 SCT085 OVC110 10/09 A3014 RMK AO2 LTG DSNT SW P0002,0,11,0,8045,0,0,1,"BR,DS"
2026-04-18 17:55:00,METAR KGVT 181755Z AUTO 27011G19KT 10SM OVC110 10/09 A3023 RMK AO2 LTG DSNT W P0007,0,11,1,16090,0,0,0,DS
2026-04-18 17:35:00,METAR KGVT 181735Z AUTO 02010G20KT 350V060 10SM SCT035 BKN065 OVC120 09/08 A3007 RMK AO2 P0006,0,10,1,16090,0,0,0,
2026-04-18 17:15:00,METAR KGVT 181715Z AUTO 01017G24KT 3SM BR SCT050 SCT065 OVC100 10/09 A3007 RMK AO2 P0006,0,17,1,4827,0,0,1,BR
2026-04-18 16:55:00,METAR KGVT 181655Z AUTO 31005KT 7SM OVC110 10/09 A3020 RMK AO2 LTG DSNT E P0004,0,5,0,11263,0,0,0,DS
2026-04-18 16:35:00,METAR KGVT 181635Z AUTO 31009KT 10SM SCT031 SCT048 OVC110 10/09 A3019 RMK AO2 LTG DSNT S AND SW P0002,0,9,0,16090,0,0,0,DS
2026-04-18 16:15:00,METAR KGVT 181615Z AUTO 34013KT 10SM SCT029 BKN100 OVC120 10/09 A3012 RMK AO2 LTG DSNT E AND S P0001,0,13,0,16090,0,0,0,DS
2026-04-18 15:55:00,METAR KGVT 181555Z AUTO 01012G18KT 10SM SCT041 SCT065 BKN095 10/09 A3006 RMK AO2 P0014,0,12,1,16090,0,0,0,
2026-04-18 15:15:00,METAR KGVT 181515Z AUTO 01010KT 5SM BR SCT036 BKN095 OVC120 10/10 A3010 RMK AO2 LTG DSNT ALQDS P0004,0,10,0,8045,0,0,1,"BR,DS"
2026-04-18 14:55:00,METAR KGVT 181455Z AUTO 01009KT 5SM BR SCT012 SCT019 OVC036 10/10 A3010 RMK AO2 LTG DSNT N SE AND S P0007,0,9,0,8045,0,0,1,"BR,DS"
2026-04-18 14:35:00,METAR KGVT 181435Z AUTO 34013G25KT 10SM BKN008 OVC015 11/11 A3009 RMK AO2 LTG DSNT S THRU W P0002,0,13,1,16090,0,0,0,DS
2026-04-18 14:15:00,METAR KGVT 181415Z AUTO 36011KT 10SM BKN010 BKN047 OVC070 11/11 A3001 RMK AO2 LTG DSNT SW P0001,0,11,0,16090,0,0,0,DS
2026-04-18 13:55:00,METAR KGVT 181355Z AUTO 02013G24KT 7SM TS SCT012 BKN045 OVC090 11/11 A3000 RMK AO2 LTG DSNT NE AND SW P0004,0,13,1,11263,1,0,0,"DS,TS"
2026-04-18 13:35:00,METAR KGVT 181335Z AUTO 34017G23KT 7SM BKN010 BKN015 BKN120 12/12 A3006 RMK AO2 LTG DSNT SE AND SW P0001,0,17,1,11263,0,0,0,DS
2026-04-18 13:15:00,METAR KGVT 181315Z AUTO 01012G18KT 10SM SCT007 SCT013 SCT120 12/12 A2998 RMK AO2 LTG DSNT SW AND W P0001,0,12,1,16090,0,0,0,DS
2026-04-18 12:55:00,METAR KGVT 181255Z AUTO 36008G20KT 5SM HZ BKN008 BKN018 OVC095 13/ A2998 RMK AO2 P0005,0,8,1,8045,0,0,0,
2026-04-18 12:35:00,METAR KGVT 181235Z AUTO 35012G19KT 7SM TSHZ OVC008 13/ A2999 RMK AO2 LTG DSNT NE AND SW P0001,0,12,1,11263,1,0,0,"DS,TS"
2026-04-18 12:15:00,METAR KGVT 181215Z AUTO 33015KT 10SM OVC006 14/ A2999 RMK AO2 LTG DSNT SW AND W,0,15,0,16090,0,0,0,DS
2026-04-18 11:55:00,METAR KGVT 181155Z AUTO 35011KT 7SM OVC006 15/ A2995 RMK AO2 LTG DSNT E SW AND W P0010,0,11,0,11263,0,0,0,DS
2026-04-18 11:35:00,METAR KGVT 181135Z AUTO 34005KT 10SM SCT006 BKN060 OVC085 15/ A2993 RMK AO2 LTG DSNT ALQDS P0008,0,5,0,16090,0,0,0,DS
2026-04-18 11:15:00,METAR KGVT 181115Z AUTO 07011G17KT 7SM VCTS SCT011 BKN036 OVC065 15/ A2988 RMK AO2 LTG DSNT W THRU NE P0007,0,11,1,11263,1,0,0,"DS,TS,VC"
2026-04-18 10:55:00,METAR KGVT 181055Z AUTO 32018G24KT 7SM BKN009 BKN013 OVC028 16/ A2996 RMK AO2 LTG DSNT N AND NW,0,18,1,11263,0,0,0,DS
2026-04-18 10:35:00,METAR KGVT 181035Z AUTO 02010G14KT 10SM SCT009 BKN028 OVC044 16/ A2990 RMK AO2 LTG DSNT N AND NW,0,10,1,16090,0,0,0,DS
2026-04-18 10:15:00,METAR KGVT 181015Z AUTO 01012G19KT 7SM BKN009 OVC025 16/ A2988 RMK AO2,0,12,1,11263,0,0,0,
2026-04-18 09:55:00,METAR KGVT 180955Z AUTO 01011G19KT 7SM HZ SCT009 BKN019 OVC027 17/ A2987 RMK AO2 LTG DSNT NW P0002,0,11,1,11263,0,0,0,DS
2026-04-18 09:35:00,METAR KGVT 180935Z AUTO 36014G20KT 3 1/2SM BR SCT007 SCT011 OVC017 17/17 A2986 RMK AO2,0,14,1,5632,0,0,1,BR
2026-04-18 09:15:00,METAR KGVT 180915Z AUTO 31011G17KT 10SM OVC017 22/20 A2984 RMK AO2,0,11,1,16090,0,0,0,
2026-04-18 08:55:00,METAR KGVT 180855Z AUTO 30010KT 250V310 10SM OVC017 22/20 A2982 RMK AO2 LTG DSNT NW,0,10,0,16090,0,0,0,DS
2026-04-18 08:35:00,METAR KGVT 180835Z AUTO 20014G20KT 10SM OVC019 22/20 A2977 RMK AO2,0,14,1,16090,0,0,0,
2026-04-18 08:15:00,METAR KGVT 180815Z AUTO 19013G20KT 10SM OVC019 22/20 A2976 RMK AO2,0,13,1,16090,0,0,0,
2026-04-18 07:55:00,METAR KGVT 180755Z AUTO 20014G21KT 10SM OVC019 22/20 A2976 RMK AO2,0,14,1,16090,0,0,0,
2026-04-18 07:35:00,METAR KGVT 180735Z AUTO 19016G20KT 10SM OVC021 23/20 A2977 RMK AO2,0,16,1,16090,0,0,0,
2026-04-18 07:15:00,METAR KGVT 180715Z AUTO 20016KT 10SM OVC021 23/20 A2977 RMK AO2,0,16,0,16090,0,0,0,
2026-04-18 06:55:00,METAR KGVT 180655Z AUTO 19016G20KT 10SM OVC021 23/20 A2978 RMK AO2,0,16,1,16090,0,0,0,
2026-04-18 06:35:00,METAR KGVT 180635Z AUTO 19018G25KT 10SM BKN023 23/20 A2979 RMK AO2,0,18,1,16090,0,0,0,
2026-04-18 06:15:00,METAR KGVT 180615Z AUTO 19013G20KT 10SM OVC023 23/20 A2980 RMK AO2,0,13,1,16090,0,0,0,
2026-04-18 05:55:00,METAR KGVT 180555Z AUTO 20010G19KT 10SM OVC025 23/20 A2982 RMK AO2,0,10,1,16090,0,0,0,
2026-04-18 05:35:00,METAR KGVT 180535Z AUTO 19013KT 10SM BKN025 23/20 A2981 RMK AO2,0,13,0,16090,0,0,0,
2026-04-18 05:15:00,METAR KGVT 180515Z AUTO 19016G20KT 10SM SCT025 24/20 A2981 RMK AO2,0,16,1,16090,0,0,0,
2026-04-18 04:55:00,METAR KGVT 180455Z AUTO 19017G21KT 10SM CLR 24/20 A2980 RMK AO2,0,17,1,16090,0,0,0,
2026-04-18 04:15:00,METAR KGVT 180415Z AUTO 18015G22KT 10SM CLR 24/20 A2980 RMK AO2,0,15,1,16090,0,0,0,
2026-04-18 03:55:00,METAR KGVT 180355Z AUTO 18016G23KT 10SM CLR 24/20 A2980 RMK AO2,0,16,1,16090,0,0,0,
2026-04-18 03:35:00,METAR KGVT 180335Z AUTO 18015KT 10SM CLR 24/20 A2981 RMK AO2,0,15,0,16090,0,0,0,
2026-04-18 03:15:00,METAR KGVT 180315Z AUTO 17011KT 10SM BKN070 25/20 A2980 RMK AO2,0,11,0,16090,0,0,0,
2026-04-18 02:55:00,METAR KGVT 180255Z AUTO 18012KT 10SM BKN070 25/20 A2981 RMK AO2,0,12,0,16090,0,0,0,
2026-04-18 02:35:00,METAR KGVT 180235Z AUTO 17009KT 10SM CLR 24/20 A2980 RMK AO2,0,9,0,16090,0,0,0,
2026-04-18 02:15:00,METAR KGVT 180215Z AUTO 16010KT 10SM CLR 25/19 A2979 RMK AO2,0,10,0,16090,0,0,0,
2026-04-18 01:55:00,METAR KGVT 180155Z AUTO 16011KT 10SM CLR 25/19 A2978 RMK AO2,0,11,0,16090,0,0,0,
2026-04-18 01:35:00,METAR KGVT 180135Z AUTO 16011KT 10SM SCT070 25/19 A2977 RMK AO2,0,11,0,16090,0,0,0,
2026-04-18 01:15:00,METAR KGVT 180115Z AUTO 16008KT 10SM OVC070 25/19 A2978 RMK AO2,0,8,0,16090,0,0,0,
2026-04-18 00:55:00,METAR KGVT 180055Z AUTO 15009KT 10SM OVC070 25/19 A2978 RMK AO2,0,9,0,16090,0,0,0,
2026-04-18 00:35:00,METAR KGVT 180035Z AUTO 16009KT 10SM BKN070 26/19 A2979 RMK AO2,0,9,0,16090,0,0,0,
2026-04-18 00:15:00,METAR KGVT 180015Z AUTO 16008KT 10SM SCT070 26/19 A2979 RMK AO2,0,8,0,16090,0,0,0,
2026-04-17 23:55:00,METAR KGVT 172355Z AUTO 18012KT 10SM SCT070 27/18 A2980 RMK AO2,0,12,0,16090,0,0,0,
2026-04-17 23:35:00,METAR KGVT 172335Z AUTO 19011KT 10SM CLR 27/19 A2979 RMK AO2,0,11,0,16090,0,0,0,
2026-04-17 23:15:00,METAR KGVT 172315Z AUTO 18017KT 10SM CLR 28/18 A2978 RMK AO2,0,17,0,16090,0,0,0,
2026-04-17 22:55:00,METAR KGVT 172255Z AUTO 18017G22KT 10SM CLR 28/18 A2979 RMK AO2,0,17,1,16090,0,0,0,
2026-04-17 22:35:00,METAR KGVT 172235Z AUTO 19020G25KT 10SM SCT044 SCT050 SCT065 28/18 A2979 RMK AO2,0,20,1,16090,0,0,0,
2026-04-17 22:15:00,METAR KGVT 172215Z AUTO 17017G22KT 10SM SCT044 SCT050 28/19 A2980 RMK AO2,0,17,1,16090,0,0,0,
2026-04-17 21:55:00,METAR KGVT 172155Z AUTO 17016G23KT 10SM SCT042 SCT065 28/19 A2981 RMK AO2,0,16,1,16090,0,0,0,
2026-04-17 21:35:00,METAR KGVT 172135Z AUTO 18015KT 10SM BKN060 28/19 A2981 RMK AO2,0,15,0,16090,0,0,0,
2026-04-17 21:15:00,METAR KGVT 172115Z AUTO 18018G23KT 10SM BKN060 27/19 A2982 RMK AO2,0,18,1,16090,0,0,0,
2026-04-17 20:55:00,METAR KGVT 172055Z AUTO 17016G20KT 10SM SCT042 OVC060 27/19 A2983 RMK AO2,0,16,1,16090,0,0,0,
2026-04-17 20:35:00,METAR KGVT 172035Z AUTO 17017G22KT 10SM SCT042 OVC050 27/19 A2985 RMK AO2,0,17,1,16090,0,0,0,
2026-04-17 19:55:00,METAR KGVT 171955Z AUTO 17017G23KT 10SM SCT035 SCT043 OVC050 27/19 A2987 RMK AO2 LTG DSNT N,0,17,1,16090,0,0,0,DS
2026-04-17 19:35:00,METAR KGVT 171935Z AUTO 17013G19KT 10SM SCT035 BKN042 OVC050 26/20 A2987 RMK AO2,0,13,1,16090,0,0,0,
2026-04-17 19:15:00,METAR KGVT 171915Z AUTO 17014G18KT 10SM SCT030 SCT040 OVC050 26/20 A2988 RMK AO2,0,14,1,16090,0,0,0,
2026-04-17 18:55:00,METAR KGVT 171855Z AUTO 16014G19KT 10SM SCT030 BKN041 OVC050 25/19 A2988 RMK AO2,0,14,1,16090,0,0,0,
2026-04-17 18:35:00,METAR KGVT 171835Z AUTO 17014G21KT 10SM SCT030 SCT038 OVC050 25/20 A2989 RMK AO2,0,14,1,16090,0,0,0,
2026-04-17 18:15:00,METAR KGVT 171815Z AUTO 16016KT 10SM BKN030 BKN044 OVC050 25/20 A2990 RMK AO2,0,16,0,16090,0,0,0,
2026-04-17 17:55:00,METAR KGVT 171755Z AUTO 16017G24KT 10SM BKN030 OVC039 25/19 A2991 RMK AO2,0,17,1,16090,0,0,0,
2026-04-17 17:35:00,METAR KGVT 171735Z AUTO 17014KT 10SM SCT030 OVC039 25/19 A2992 RMK AO2,0,14,0,16090,0,0,0,
2026-04-17 17:15:00,METAR KGVT 171715Z AUTO 18015G19KT 10SM BKN031 OVC039 25/19 A2993 RMK AO2,0,15,1,16090,0,0,0,
2026-04-17 16:55:00,METAR KGVT 171655Z AUTO 18017KT 10SM BKN029 BKN037 25/19 A2993 RMK AO2,0,17,0,16090,0,0,0,
2026-04-17 16:35:00,METAR KGVT 171635Z AUTO 19014KT 10SM OVC029 24/19 A2993 RMK AO2,0,14,0,16090,0,0,0,
2026-04-17 16:15:00,METAR KGVT 171615Z AUTO 17015G20KT 10SM OVC027 25/20 A2993 RMK AO2,0,15,1,16090,0,0,0,
2026-04-17 15:35:00,METAR KGVT 171535Z AUTO 18013KT 10SM BKN023 23/20 A2992 RMK AO2,0,13,0,16090,0,0,0,
2026-04-17 15:15:00,METAR KGVT 171515Z AUTO 18013KT 10SM BKN021 BKN026 24/20 A2993 RMK AO2,0,13,0,16090,0,0,0,
2026-04-17 14:55:00,METAR KGVT 171455Z AUTO 18015G18KT 10SM OVC019 23/20 A2993 RMK AO2,0,15,1,16090,0,0,0,
2026-04-17 14:35:00,METAR KGVT 171435Z AUTO 18015G20KT 10SM BKN017 OVC023 23/20 A2993 RMK AO2,0,15,1,16090,0,0,0,
2026-04-17 14:15:00,METAR KGVT 171415Z AUTO 18014KT 10SM BKN017 BKN023 22/20 A2994 RMK AO2,0,14,0,16090,0,0,0,
2026-04-17 13:55:00,METAR KGVT 171355Z AUTO 19012KT 10SM BKN013 BKN019 BKN025 22/20 A2994 RMK AO2,0,12,0,16090,0,0,0,
2026-04-17 13:35:00,METAR KGVT 171335Z AUTO 18012KT 10SM BKN013 BKN024 21/20 A2994 RMK AO2,0,12,0,16090,0,0,0,
2026-04-17 13:15:00,METAR KGVT 171315Z AUTO 17009KT 10SM SCT013 21/20 A2994 RMK AO2,0,9,0,16090,0,0,0,
2026-04-17 12:55:00,METAR KGVT 171255Z AUTO 17008KT 10SM SCT017 SCT023 20/20 A2993 RMK AO2,0,8,0,16090,0,0,0,
2026-04-17 12:35:00,METAR KGVT 171235Z AUTO 17008KT 10SM SCT015 SCT023 19/19 A2993 RMK AO2,0,8,0,16090,0,0,0,
2026-04-17 12:15:00,METAR KGVT 171215Z AUTO 17008KT 10SM BKN015 19/19 A2992 RMK AO2,0,8,0,16090,0,0,0,
2026-04-17 11:55:00,METAR KGVT 171155Z AUTO 17007KT 10SM OVC017 19/19 A2991 RMK AO2,0,7,0,16090,0,0,0,
2026-04-17 11:35:00,METAR KGVT 171135Z AUTO 18008KT 10SM OVC017 19/19 A2991 RMK AO2,0,8,0,16090,0,0,0,
2026-04-17 11:15:00,METAR KGVT 171115Z AUTO 18008KT 10SM OVC017 19/19 A2990 RMK AO2,0,8,0,16090,0,0,0,
2026-04-17 10:55:00,METAR KGVT 171055Z AUTO 19008KT 10SM BKN017 19/19 A2990 RMK AO2,0,8,0,16090,0,0,0,
2026-04-17 10:15:00,METAR KGVT 171015Z AUTO 17008KT 10SM CLR 19/19 A2989 RMK AO2,0,8,0,16090,0,0,0,
2026-04-17 09:55:00,METAR KGVT 170955Z AUTO 17008KT 10SM CLR 20/19 A2989 RMK AO2,0,8,0,16090,0,0,0,
2026-04-17 09:35:00,METAR KGVT 170935Z AUTO 18009G14KT 10SM CLR 20/19 A2989 RMK AO2,0,9,1,16090,0,0,0,
2026-04-17 09:15:00,METAR KGVT 170915Z AUTO 18009KT 10SM CLR 21/19 A2989 RMK AO2,0,9,0,16090,0,0,0,
2026-04-17 08:55:00,METAR KGVT 170855Z AUTO 17010KT 10SM CLR 21/19 A2988 RMK AO2,0,10,0,16090,0,0,0,
2026-04-17 08:35:00,METAR KGVT 170835Z AUTO 18011KT 10SM CLR 21/20 A2989 RMK AO2,0,11,0,16090,0,0,0,
2026-04-17 08:15:00,METAR KGVT 170815Z AUTO 18010KT 10SM CLR 21/20 A2989 RMK AO2,0,10,0,16090,0,0,0,
2026-04-17 07:55:00,METAR KGVT 170755Z AUTO 18011KT 10SM CLR 22/20 A2989 RMK AO2,0,11,0,16090,0,0,0,
2026-04-17 07:35:00,METAR KGVT 170735Z AUTO 18010KT 10SM CLR 22/21 A2989 RMK AO2,0,10,0,16090,0,0,0,
2026-04-17 07:15:00,METAR KGVT 170715Z AUTO 18013KT 10SM CLR 22/21 A2989 RMK AO2,0,13,0,16090,0,0,0,
2026-04-17 06:55:00,METAR KGVT 170655Z AUTO 18014KT 10SM CLR 23/21 A2990 RMK AO2,0,14,0,16090,0,0,0,
2026-04-17 06:35:00,METAR KGVT 170635Z AUTO 18013KT 10SM CLR 23/21 A2990 RMK AO2,0,13,0,16090,0,0,0,
2026-04-17 06:20:00,METAR KGVT 170620Z AUTO 18013G18KT 10SM CLR 23/21 A2990 RMK AO2,0,13,1,16090,0,0,0,
2026-04-17 05:55:00,METAR KGVT 170555Z AUTO 18013KT 10SM CLR 23/21 A2991 RMK AO2,0,13,0,16090,0,0,0,
2026-04-17 05:35:00,METAR KGVT 170535Z AUTO 17011KT 10SM CLR 23/21 A2990 RMK AO2,0,11,0,16090,0,0,0,
2026-04-17 05:15:00,METAR KGVT 170515Z AUTO 16010KT 10SM CLR 22/20 A2989 RMK AO2,0,10,0,16090,0,0,0,
2026-04-17 04:55:00,METAR KGVT 170455Z AUTO 17011KT 10SM CLR 23/20 A2989 RMK AO2,0,11,0,16090,0,0,0,
2026-04-17 04:35:00,METAR KGVT 170435Z AUTO 16012KT 10SM CLR 23/20 A2989 RMK AO2,0,12,0,16090,0,0,0,
2026-04-17 04:15:00,METAR KGVT 170415Z AUTO 16012KT 10SM CLR 23/20 A2990 RMK AO2,0,12,0,16090,0,0,0,
2026-04-17 03:55:00,METAR KGVT 170355Z AUTO 15008KT 10SM CLR 21/20 A2990 RMK AO2,0,8,0,16090,0,0,0,
2026-04-17 03:35:00,METAR KGVT 170335Z AUTO 14006KT 10SM CLR 21/20 A2991 RMK AO2,0,6,0,16090,0,0,0,
2026-04-17 03:15:00,METAR KGVT 170315Z AUTO 13006KT 10SM CLR 21/20 A2991 RMK AO2,0,6,0,16090,0,0,0,
2026-04-17 02:55:00,METAR KGVT 170255Z AUTO 15007KT 10SM CLR 22/21 A2991 RMK AO2,0,7,0,16090,0,0,0,
2026-04-17 02:35:00,METAR KGVT 170235Z AUTO 15006KT 10SM CLR 21/20 A2991 RMK AO2,0,6,0,16090,0,0,0,
2026-04-17 01:55:00,METAR KGVT 170155Z AUTO 14005KT 10SM CLR 21/20 A2990 RMK AO2,0,5,0,16090,0,0,0,
2026-04-17 01:35:00,METAR KGVT 170135Z AUTO 14006KT 5SM BR CLR 22/20 A2990 RMK AO2,0,6,0,8045,0,0,1,BR
2026-04-17 01:15:00,METAR KGVT 170115Z AUTO 16006KT 10SM CLR 23/20 A2990 RMK AO2,0,6,0,16090,0,0,0,
2026-04-17 00:55:00,METAR KGVT 170055Z AUTO 17007KT 10SM CLR 24/20 A2990 RMK AO2,0,7,0,16090,0,0,0,
2026-04-17 00:35:00,METAR KGVT 170035Z AUTO 17007KT 10SM CLR 25/20 A2989 RMK AO2,0,7,0,16090,0,0,0,
2026-04-17 00:15:00,METAR KGVT 170015Z AUTO 18011KT 10SM CLR 26/20 A2990 RMK AO2,0,11,0,16090,0,0,0,
2026-04-16 23:55:00,METAR KGVT 162355Z AUTO 18012KT 10SM CLR 27/20 A2990 RMK AO2,0,12,0,16090,0,0,0,
2026-04-16 23:35:00,METAR KGVT 162335Z AUTO 18012KT 10SM CLR 27/20 A2990 RMK AO2,0,12,0,16090,0,0,0,
2026-04-16 23:15:00,METAR KGVT 162315Z AUTO 18014KT 10SM CLR 27/20 A2990 RMK AO2,0,14,0,16090,0,0,0,
2026-04-16 22:15:00,METAR KGVT 162215Z AUTO 18014KT 10SM SCT045 SCT055 28/20 A2991 RMK AO2,0,14,0,16090,0,0,0,
2026-04-16 21:55:00,METAR KGVT 162155Z AUTO 18013G19KT 10SM SCT048 SCT055 28/20 A2991 RMK AO2,0,13,1,16090,0,0,0,
2026-04-16 21:35:00,METAR KGVT 162135Z AUTO 17015KT 10SM SCT055 29/20 A2992 RMK AO2,0,15,0,16090,0,0,0,
2026-04-16 21:15:00,METAR KGVT 162115Z AUTO 19017KT 10SM SCT045 BKN055 28/21 A2992 RMK AO2,0,17,0,16090,0,0,0,
2026-04-16 20:55:00,METAR KGVT 162055Z AUTO 18014KT 10SM SCT036 SCT045 BKN055 28/21 A2993 RMK AO2,0,14,0,16090,0,0,0,
2026-04-16 20:35:00,METAR KGVT 162035Z AUTO 19014G19KT 10SM BKN036 BKN045 OVC055 28/21 A2993 RMK AO2,0,14,1,16090,0,0,0,
2026-04-16 20:15:00,METAR KGVT 162015Z AUTO 16012G18KT 10SM BKN034 BKN040 OVC047 28/21 A2994 RMK AO2,0,12,1,16090,0,0,0,
2026-04-16 19:55:00,METAR KGVT 161955Z AUTO 18012G18KT 10SM BKN032 BKN040 27/21 A2995 RMK AO2,0,12,1,16090,0,0,0,
2026-04-16 19:35:00,METAR KGVT 161935Z AUTO 17015KT 10SM SCT034 SCT040 28/21 A2995 RMK AO2,0,15,0,16090,0,0,0,
2026-04-16 18:35:00,METAR KGVT 161835Z AUTO 19017G21KT 10SM BKN024 BKN055 26/21 A2998 RMK AO2,0,17,1,16090,0,0,0,
2026-04-16 17:55:00,METAR KGVT 161755Z AUTO 17015G18KT 10SM BKN022 BKN055 26/21 A2999 RMK AO2,0,15,1,16090,0,0,0,
2026-04-16 17:35:00,METAR KGVT 161735Z AUTO 17015KT 10SM BKN022 BKN055 26/21 A3000 RMK AO2,0,15,0,16090,0,0,0,
2026-04-16 17:15:00,METAR KGVT 161715Z AUTO 19014KT 10SM BKN020 BKN025 OVC055 25/21 A3001 RMK AO2,0,14,0,16090,0,0,0,
2026-04-16 16:55:00,METAR KGVT 161655Z AUTO 20014KT 10SM BKN020 OVC055 25/21 A3001 RMK AO2,0,14,0,16090,0,0,0,
2026-04-16 16:15:00,METAR KGVT 161615Z AUTO 20013KT 10SM OVC018 24/21 A3001 RMK AO2,0,13,0,16090,0,0,0,
2026-04-16 15:35:00,METAR KGVT 161535Z AUTO 20013G18KT 10SM OVC016 23/21 A3001 RMK AO2,0,13,1,16090,0,0,0,
2026-04-16 14:55:00,METAR KGVT 161455Z AUTO 20014G20KT 10SM OVC016 23/20 A3001 RMK AO2,0,14,1,16090,0,0,0,
2026-04-16 14:35:00,METAR KGVT 161435Z AUTO 20013KT 10SM OVC014 22/20 A3001 RMK AO2,0,13,0,16090,0,0,0,
2026-04-16 14:15:00,METAR KGVT 161415Z AUTO 20013G21KT 10SM OVC014 22/20 A3001 RMK AO2,0,13,1,16090,0,0,0,
2026-04-16 13:55:00,METAR KGVT 161355Z AUTO 19013KT 10SM OVC014 22/20 A3000 RMK AO2,0,13,0,16090,0,0,0,
2026-04-16 13:35:00,METAR KGVT 161335Z AUTO 19013G18KT 10SM OVC014 21/20 A3000 RMK AO2,0,13,1,16090,0,0,0,
2026-04-16 13:15:00,METAR KGVT 161315Z AUTO 19011KT 10SM OVC014 21/20 A2999 RMK AO2,0,11,0,16090,0,0,0,
2026-04-16 12:55:00,METAR KGVT 161255Z AUTO 19010KT 10SM OVC014 20/20 A2999 RMK AO2,0,10,0,16090,0,0,0,
2026-04-16 12:35:00,METAR KGVT 161235Z AUTO 18010KT 10SM OVC014 20/20 A2998 RMK AO2,0,10,0,16090,0,0,0,
2026-04-16 12:15:00,METAR KGVT 161215Z AUTO 17010KT 10SM OVC014 19/ A2998 RMK AO2,0,10,0,16090,0,0,0,
2026-04-16 11:55:00,METAR KGVT 161155Z AUTO 18010KT 10SM OVC014 19/ A2997 RMK AO2,0,10,0,16090,0,0,0,
2026-04-16 11:35:00,METAR KGVT 161135Z AUTO 18008KT 10SM OVC014 19/ A2996 RMK AO2,0,8,0,16090,0,0,0,
2026-04-16 11:15:00,METAR KGVT 161115Z AUTO 17006KT 10SM SCT014 18/ A2996 RMK AO2,0,6,0,16090,0,0,0,
2026-04-16 10:55:00,METAR KGVT 161055Z AUTO 18006KT 10SM CLR 18/18 A2995 RMK AO2,0,6,0,16090,0,0,0,
2026-04-16 10:35:00,METAR KGVT 161035Z AUTO 17007KT 10SM CLR 19/19 A2995 RMK AO2,0,7,0,16090,0,0,0,
2026-04-16 09:35:00,METAR KGVT 160935Z AUTO 17007KT 10SM CLR 19/19 A2994 RMK AO2,0,7,0,16090,0,0,0,
2026-04-16 09:15:00,METAR KGVT 160915Z AUTO 18006KT 10SM CLR 20/19 A2993 RMK AO2,0,6,0,16090,0,0,0,
2026-04-16 08:55:00,METAR KGVT 160855Z AUTO 18008KT 10SM CLR 20/19 A2993 RMK AO2,0,8,0,16090,0,0,0,
2026-04-16 08:35:00,METAR KGVT 160835Z AUTO 18009KT 10SM CLR 20/19 A2993 RMK AO2,0,9,0,16090,0,0,0,
2026-04-16 08:15:00,METAR KGVT 160815Z AUTO 18009KT 10SM CLR 21/20 A2993 RMK AO2,0,9,0,16090,0,0,0,
2026-04-16 07:55:00,METAR KGVT 160755Z AUTO 17009KT 10SM CLR 21/20 A2993 RMK AO2 LTG DSNT NE,0,9,0,16090,0,0,0,DS
2026-04-16 07:35:00,METAR KGVT 160735Z AUTO 17010KT 10SM CLR 21/20 A2992 RMK AO2,0,10,0,16090,0,0,0,
2026-04-16 07:15:00,METAR KGVT 160715Z AUTO 17009KT 10SM CLR 21/20 A2993 RMK AO2,0,9,0,16090,0,0,0,
2026-04-16 06:55:00,METAR KGVT 160655Z AUTO 18008KT 10SM CLR 21/20 A2994 RMK AO2,0,8,0,16090,0,0,0,
2026-04-16 06:15:00,METAR KGVT 160615Z AUTO 18007KT 10SM CLR 21/21 A2994 RMK AO2,0,7,0,16090,0,0,0,
2026-04-16 05:55:00,METAR KGVT 160555Z AUTO 17008KT 10SM CLR 21/21 A2993 RMK AO2,0,8,0,16090,0,0,0,
2026-04-16 05:35:00,METAR KGVT 160535Z AUTO 17007KT 10SM CLR 21/21 A2993 RMK AO2 LTG DSNT NE,0,7,0,16090,0,0,0,DS
2026-04-16 05:15:00,METAR KGVT 160515Z AUTO 16007KT 10SM CLR 21/ A2992 RMK AO2 LTG DSNT NE,0,7,0,16090,0,0,0,DS
2026-04-16 04:55:00,METAR KGVT 160455Z AUTO 15005KT 10SM CLR 21/ A2993 RMK AO2 LTG DSNT NE,0,5,0,16090,0,0,0,DS
2026-04-16 04:35:00,METAR KGVT 160435Z AUTO 15004KT 10SM SCT090 21/ A2993 RMK AO2 LTG DSNT NE,0,4,0,16090,0,0,0,DS
2026-04-16 04:15:00,METAR KGVT 160415Z AUTO 13007KT 10SM BKN075 OVC085 21/ A2992 RMK AO2 LTG DSNT NE,0,7,0,16090,0,0,0,DS
2026-04-16 03:55:00,METAR KGVT 160355Z AUTO 11005KT 10SM SCT085 OVC090 21/ A2992 RMK AO2 LTG DSNT N AND NE,0,5,0,16090,0,0,0,DS
2026-04-16 03:35:00,METAR KGVT 160335Z AUTO 10004KT 10SM BKN095 21/ A2993 RMK AO2 LTG DSNT N,0,4,0,16090,0,0,0,DS
2026-04-16 03:15:00,METAR KGVT 160315Z AUTO 00000KT 10SM SCT080 OVC095 21/ A2993 RMK AO2 LTG DSNT N,0,0,0,16090,0,0,0,DS
2026-04-16 02:55:00,METAR KGVT 160255Z AUTO 00000KT 10SM BKN070 OVC085 21/ A2992 RMK AO2 LTG DSNT N AND NW,0,0,0,16090,0,0,0,DS
2026-04-16 02:35:00,METAR KGVT 160235Z AUTO 14003KT 10SM OVC070 21/ A2991 RMK AO2 LTG DSNT N AND NW,0,3,0,16090,0,0,0,DS
2026-04-16 02:15:00,METAR KGVT 160215Z AUTO 13003KT 10SM BKN070 BKN095 20/ A2990 RMK AO2 LTG DSNT W THRU N,0,3,0,16090,0,0,0,DS
2026-04-16 01:55:00,METAR KGVT 160155Z AUTO 00000KT 10SM SCT070 SCT090 21/ A2990 RMK AO2 LTG DSNT W THRU N,0,0,0,16090,0,0,0,DS
2026-04-16 01:35:00,METAR KGVT 160135Z AUTO 00000KT 10SM SCT070 BKN100 21/ A2988 RMK AO2 LTG DSNT W AND NW,0,0,0,16090,0,0,0,DS
2026-04-16 01:15:00,METAR KGVT 160115Z AUTO 19004KT 10SM SCT100 21/ A2989 RMK AO2 LTG DSNT NW,0,4,0,16090,0,0,0,DS
2026-04-16 00:55:00,METAR KGVT 160055Z AUTO 17005KT 10SM SCT075 BKN100 BKN120 22/22 A2989 RMK AO2 LTG DSNT W AND NW,0,5,0,16090,0,0,0,DS
2026-04-16 00:15:00,METAR KGVT 160015Z AUTO 17005KT 10SM SCT035 SCT044 BKN070 22/22 A2990 RMK AO2,0,5,0,16090,0,0,0,
2026-04-15 23:35:00,METAR KGVT 152335Z AUTO 18006KT 10SM BKN055 BKN090 23/21 A2991 RMK AO2,0,6,0,16090,0,0,0,
2026-04-15 23:15:00,METAR KGVT 152315Z AUTO 18007KT 10SM CLR 23/21 A2991 RMK AO2,0,7,0,16090,0,0,0,
2026-04-15 22:55:00,METAR KGVT 152255Z AUTO 17009KT 10SM SCT038 SCT050 SCT110 23/21 A2991 RMK AO2 LTG DSNT NW,0,9,0,16090,0,0,0,DS
2026-04-15 22:35:00,METAR KGVT 152235Z AUTO 17009KT 10SM SCT037 SCT050 SCT120 23/21 A2991 RMK AO2,0,9,0,16090,0,0,0,
2026-04-15 22:15:00,METAR KGVT 152215Z AUTO 16007KT 10SM SCT040 SCT046 SCT120 24/21 A2991 RMK AO2,0,7,0,16090,0,0,0,
2026-04-15 21:55:00,METAR KGVT 152155Z AUTO 17008KT 10SM SCT040 BKN046 BKN120 24/21 A2991 RMK AO2,0,8,0,16090,0,0,0,
2026-04-15 21:35:00,METAR KGVT 152135Z AUTO 18009KT 10SM SCT034 SCT060 SCT120 24/20 A2992 RMK AO2,0,9,0,16090,0,0,0,
2026-04-15 21:15:00,METAR KGVT 152115Z AUTO 20012KT 10SM BKN036 BKN042 25/20 A2993 RMK AO2,0,12,0,16090,0,0,0,
2026-04-15 20:55:00,METAR KGVT 152055Z AUTO 20014G17KT 10SM SCT038 SCT048 26/19 A2993 RMK AO2,0,14,1,16090,0,0,0,
2026-04-15 20:15:00,METAR KGVT 152015Z AUTO 20016G23KT 10SM SCT032 26/19 A2994 RMK AO2,0,16,1,16090,0,0,0,
2026-04-15 19:55:00,METAR KGVT 151955Z AUTO 19017G21KT 10SM BKN032 BKN050 26/20 A2994 RMK AO2,0,17,1,16090,0,0,0,
2026-04-15 19:35:00,METAR KGVT 151935Z AUTO 19016KT 10SM SCT034 BKN048 27/20 A2994 RMK AO2,0,16,0,16090,0,0,0,
2026-04-15 19:15:00,METAR KGVT 151915Z AUTO 20014G21KT 10SM SCT030 BKN038 OVC048 26/20 A2994 RMK AO2,0,14,1,16090,0,0,0,
2026-04-15 18:55:00,METAR KGVT 151855Z AUTO 20017G21KT 10SM BKN030 BKN038 BKN047 26/19 A2995 RMK AO2,0,17,1,16090,0,0,0,
2026-04-15 18:35:00,METAR KGVT 151835Z AUTO 18017KT 10SM SCT030 BKN035 BKN045 26/20 A2995 RMK AO2,0,17,0,16090,0,0,0,
2026-04-15 18:15:00,METAR KGVT 151815Z AUTO 21016KT 10SM SCT027 BKN034 BKN040 26/20 A2996 RMK AO2,0,16,0,16090,0,0,0,
2026-04-15 17:55:00,METAR KGVT 151755Z AUTO 20012G18KT 10SM BKN027 BKN034 OVC047 24/20 A2997 RMK AO2,0,12,1,16090,0,0,0,
2026-04-15 17:35:00,METAR KGVT 151735Z AUTO 21018KT 10SM BKN029 OVC045 25/20 A2997 RMK AO2,0,18,0,16090,0,0,0,
2026-04-15 17:15:00,METAR KGVT 151715Z AUTO 19016KT 10SM SCT027 BKN033 OVC045 24/20 A2997 RMK AO2,0,16,0,16090,0,0,0,
2026-04-15 16:55:00,METAR KGVT 151655Z AUTO 19013G18KT 10SM SCT025 BKN035 OVC041 24/19 A2998 RMK AO2,0,13,1,16090,0,0,0,
2026-04-15 16:35:00,METAR KGVT 151635Z AUTO 20012KT 10SM SCT023 BKN029 OVC037 23/20 A2998 RMK AO2,0,12,0,16090,0,0,0,
2026-04-15 16:15:00,METAR KGVT 151615Z AUTO 19016KT 10SM BKN019 BKN029 23/19 A2998 RMK AO2,0,16,0,16090,0,0,0,
2026-04-15 15:55:00,METAR KGVT 151555Z AUTO 18013G17KT 10SM BKN019 BKN041 23/20 A2997 RMK AO2,0,13,1,16090,0,0,0,
2026-04-15 15:35:00,METAR KGVT 151535Z AUTO 18013KT 10SM SCT017 BKN041 BKN050 22/20 A2997 RMK AO2,0,13,0,16090,0,0,0,
2026-04-15 15:15:00,METAR KGVT 151515Z AUTO 18013G17KT 10SM SCT017 BKN046 BKN050 22/20 A2998 RMK AO2,0,13,1,16090,0,0,0,
2026-04-15 14:55:00,METAR KGVT 151455Z AUTO 18010KT 10SM SCT030 BKN037 OVC044 22/20 A2998 RMK AO2,0,10,0,16090,0,0,0,
2026-04-15 14:35:00,METAR KGVT 151435Z AUTO 19011KT 10SM SCT021 BKN031 OVC037 21/20 A2998 RMK AO2 LTG DSNT N,0,11,0,16090,0,0,0,DS
2026-04-15 14:15:00,METAR KGVT 151415Z AUTO 19012KT 10SM OVC021 21/20 A2997 RMK AO2,0,12,0,16090,0,0,0,
2026-04-15 13:55:00,METAR KGVT 151355Z AUTO 19011KT 10SM OVC021 21/20 A2996 RMK AO2,0,11,0,16090,0,0,0,
2026-04-15 13:35:00,METAR KGVT 151335Z AUTO 17010KT 10SM BKN021 21/20 A2995 RMK AO2,0,10,0,16090,0,0,0,
2026-04-15 13:15:00,METAR KGVT 151315Z AUTO 17010KT 10SM OVC021 21/20 A2994 RMK AO2,0,10,0,16090,0,0,0,
2026-04-15 12:55:00,METAR KGVT 151255Z AUTO 19010KT 10SM OVC019 21/20 A2995 RMK AO2 LTG DSNT N,0,10,0,16090,0,0,0,DS
2026-04-15 12:35:00,METAR KGVT 151235Z AUTO 18009KT 10SM BKN017 OVC023 21/20 A2994 RMK AO2,0,9,0,16090,0,0,0,
2026-04-15 12:15:00,METAR KGVT 151215Z AUTO 17009KT 10SM BKN015 OVC022 21/20 A2994 RMK AO2,0,9,0,16090,0,0,0,
2026-04-15 11:55:00,METAR KGVT 151155Z AUTO 17010KT 10SM BKN017 OVC025 21/20 A2993 RMK AO2,0,10,0,16090,0,0,0,
2026-04-15 11:35:00,METAR KGVT 151135Z AUTO 17010KT 10SM SCT016 OVC023 20/20 A2993 RMK AO2,0,10,0,16090,0,0,0,
2026-04-15 11:15:00,METAR KGVT 151115Z AUTO 17008KT 10SM BKN016 OVC023 20/20 A2993 RMK AO2,0,8,0,16090,0,0,0,
2026-04-15 10:55:00,METAR KGVT 151055Z AUTO 17007KT 10SM OVC016 20/20 A2993 RMK AO2,0,7,0,16090,0,0,0,
2026-04-15 09:55:00,METAR KGVT 150955Z AUTO 18008KT 10SM SCT018 21/20 A2993 RMK AO2,0,8,0,16090,0,0,0,
2026-04-15 09:35:00,METAR KGVT 150935Z AUTO 18008KT 10SM SCT015 21/20 A2994 RMK AO2,0,8,0,16090,0,0,0,
2026-04-15 09:15:00,METAR KGVT 150915Z AUTO 17011KT 10SM BKN017 21/20 A2993 RMK AO2,0,11,0,16090,0,0,0,
2026-04-15 08:55:00,METAR KGVT 150855Z AUTO 18011G15KT 10SM OVC015 21/20 A2993 RMK AO2,0,11,1,16090,0,0,0,
2026-04-15 08:35:00,METAR KGVT 150835Z AUTO 17012KT 10SM OVC015 21/20 A2993 RMK AO2 LTG DSNT N,0,12,0,16090,0,0,0,DS
2026-04-15 08:15:00,METAR KGVT 150815Z AUTO 17012G16KT 10SM OVC015 22/20 A2993 RMK AO2,0,12,1,16090,0,0,0,
2026-04-15 07:55:00,METAR KGVT 150755Z AUTO 16012KT 10SM OVC015 22/21 A2992 RMK AO2,0,12,0,16090,0,0,0,
2026-04-15 07:35:00,METAR KGVT 150735Z AUTO 18009KT 10SM OVC017 22/21 A2994 RMK AO2,0,9,0,16090,0,0,0,
2026-04-15 07:15:00,METAR KGVT 150715Z AUTO 15010KT 10SM OVC019 22/21 A2992 RMK AO2,0,10,0,16090,0,0,0,
2026-04-15 06:55:00,METAR KGVT 150655Z AUTO 16011KT 10SM OVC019 21/20 A2994 RMK AO2,0,11,0,16090,0,0,0,
2026-04-15 06:35:00,METAR KGVT 150635Z AUTO 17008KT 10SM BKN019 21/20 A2995 RMK AO2,0,8,0,16090,0,0,0,
2026-04-15 06:15:00,METAR KGVT 150615Z AUTO 16011G16KT 10SM CLR 22/20 A2995 RMK AO2,0,11,1,16090,0,0,0,
2026-04-15 05:35:00,METAR KGVT 150535Z AUTO 16011KT 10SM CLR 22/20 A2995 RMK AO2,0,11,0,16090,0,0,0,
2026-04-15 05:15:00,METAR KGVT 150515Z AUTO 15009KT 10SM CLR 22/20 A2995 RMK AO2,0,9,0,16090,0,0,0,
2026-04-15 04:35:00,METAR KGVT 150435Z AUTO 15010KT 10SM SCT042 22/20 A2996 RMK AO2,0,10,0,16090,0,0,0,
2026-04-15 04:15:00,METAR KGVT 150415Z AUTO 17010KT 10SM CLR 22/20 A2997 RMK AO2 LTG DSNT N,0,10,0,16090,0,0,0,DS
2026-04-15 03:55:00,METAR KGVT 150355Z AUTO 16008KT 10SM CLR 22/20 A2996 RMK AO2,0,8,0,16090,0,0,0,
2026-04-15 03:35:00,METAR KGVT 150335Z AUTO 15009KT 10SM CLR 22/20 A2995 RMK AO2,0,9,0,16090,0,0,0,
2026-04-15 03:15:00,METAR KGVT 150315Z AUTO 15010KT 10SM CLR 23/20 A2995 RMK AO2,0,10,0,16090,0,0,0,
2026-04-15 02:55:00,METAR KGVT 150255Z AUTO 14009KT 10SM SCT060 22/20 A2996 RMK AO2,0,9,0,16090,0,0,0,
2026-04-15 02:35:00,METAR KGVT 150235Z AUTO 14009KT 10SM CLR 22/21 A2995 RMK AO2 LTG DSNT NW,0,9,0,16090,0,0,0,DS
2026-04-15 02:15:00,METAR KGVT 150215Z AUTO 14006KT 10SM SCT060 22/21 A2995 RMK AO2,0,6,0,16090,0,0,0,
2026-04-15 01:55:00,METAR KGVT 150155Z AUTO 13006KT 10SM BKN060 22/21 A2994 RMK AO2,0,6,0,16090,0,0,0,
2026-04-15 01:15:00,METAR KGVT 150115Z AUTO 14007KT 10SM OVC060 23/20 A2993 RMK AO2,0,7,0,16090,0,0,0,
2026-04-15 00:55:00,METAR KGVT 150055Z AUTO 14008KT 10SM OVC060 24/21 A2992 RMK AO2,0,8,0,16090,0,0,0,
2026-04-15 00:35:00,METAR KGVT 150035Z AUTO 15008KT 10SM OVC050 24/21 A2992 RMK AO2,0,8,0,16090,0,0,0,
2026-04-15 00:15:00,METAR KGVT 150015Z AUTO 14008KT 10SM OVC050 24/21 A2993 RMK AO2,0,8,0,16090,0,0,0,
2026-04-14 23:55:00,METAR KGVT 142355Z AUTO 15010KT 10SM OVC050 24/21 A2993 RMK AO2,0,10,0,16090,0,0,0,
2026-04-14 23:35:00,METAR KGVT 142335Z AUTO 14010KT 10SM OVC050 24/21 A2993 RMK AO2,0,10,0,16090,0,0,0,
2026-04-14 23:15:00,METAR KGVT 142315Z AUTO 16008KT 10SM OVC050 24/21 A2994 RMK AO2,0,8,0,16090,0,0,0,
2026-04-14 22:55:00,METAR KGVT 142255Z AUTO 16012KT 10SM OVC050 25/21 A2995 RMK AO2,0,12,0,16090,0,0,0,
2026-04-14 22:35:00,METAR KGVT 142235Z AUTO 16013KT 10SM OVC050 25/20 A2994 RMK AO2,0,13,0,16090,0,0,0,
2026-04-14 22:15:00,METAR KGVT 142215Z AUTO 17012KT 10SM SCT043 OVC049 26/20 A2994 RMK AO2,0,12,0,16090,0,0,0,
2026-04-14 21:55:00,METAR KGVT 142155Z AUTO 18013G19KT 10SM SCT033 SCT041 OVC049 25/20 A2995 RMK AO2,0,13,1,16090,0,0,0,
2026-04-14 21:35:00,METAR KGVT 142135Z AUTO 18019KT 10SM SCT031 SCT035 OVC049 26/20 A2996 RMK AO2,0,19,0,16090,0,0,0,
2026-04-14 21:15:00,METAR KGVT 142115Z AUTO 18016G21KT 10SM BKN031 BKN038 OVC047 26/20 A2997 RMK AO2,0,16,1,16090,0,0,0,
2026-04-14 20:35:00,METAR KGVT 142035Z AUTO 18017KT 10SM SCT027 BKN038 OVC045 25/20 A2998 RMK AO2,0,17,0,16090,0,0,0,
2026-04-14 20:15:00,METAR KGVT 142015Z AUTO 18012G20KT 10SM SCT025 BKN032 OVC038 25/21 A2998 RMK AO2,0,12,1,16090,0,0,0,
2026-04-14 19:55:00,METAR KGVT 141955Z AUTO 18017KT 10SM BKN023 OVC031 25/21 A2999 RMK AO2,0,17,0,16090,0,0,0,
2026-04-14 19:35:00,METAR KGVT 141935Z AUTO 17016KT 10SM SCT020 BKN027 OVC035 25/21 A2999 RMK AO2,0,16,0,16090,0,0,0,
2026-04-14 19:15:00,METAR KGVT 141915Z AUTO 18018KT 10SM BKN021 BKN029 OVC036 25/21 A3000 RMK AO2,0,18,0,16090,0,0,0,
2026-04-14 18:55:00,METAR KGVT 141855Z AUTO 18017G22KT 10SM BKN019 OVC029 24/21 A3001 RMK AO2,0,17,1,16090,0,0,0,
2026-04-14 18:35:00,METAR KGVT 141835Z AUTO 18014G19KT 10SM BKN017 OVC026 24/21 A3002 RMK AO2,0,14,1,16090,0,0,0,
2026-04-14 18:15:00,METAR KGVT 141815Z AUTO 18014KT 10SM BKN017 OVC021 24/22 A3002 RMK AO2,0,14,0,16090,0,0,0,
2026-04-14 17:55:00,METAR KGVT 141755Z AUTO 16014KT 10SM BKN017 OVC027 23/21 A3003 RMK AO2,0,14,0,16090,0,0,0,
2026-04-14 17:35:00,METAR KGVT 141735Z AUTO 17011KT 10SM BKN015 BKN024 OVC032 24/22 A3003 RMK AO2,0,11,0,16090,0,0,0,
2026-04-14 17:15:00,METAR KGVT 141715Z AUTO 17010KT 10SM SCT012 OVC019 22/21 A3005 RMK AO2,0,10,0,16090,0,0,0,
2026-04-14 16:55:00,METAR KGVT 141655Z AUTO 16010KT 10SM BKN011 OVC019 23/22 A3005 RMK AO2,0,10,0,16090,0,0,0,
2026-04-14 16:35:00,METAR KGVT 141635Z AUTO 17010KT 10SM BKN009 OVC014 22/21 A3006 RMK AO2,0,10,0,16090,0,0,0,
2026-04-14 16:15:00,METAR KGVT 141615Z AUTO 17012KT 10SM SCT009 BKN013 OVC017 22/21 A3006 RMK AO2,0,12,0,16090,0,0,0,
2026-04-14 15:55:00,METAR KGVT 141555Z AUTO 17010KT 10SM SCT007 OVC013 22/22 A3006 RMK AO2,0,10,0,16090,0,0,0,
2026-04-14 15:35:00,METAR KGVT 141535Z AUTO 18011KT 10SM OVC015 22/21 A3006 RMK AO2,0,11,0,16090,0,0,0,
2026-04-14 15:15:00,METAR KGVT 141515Z AUTO 18008KT 10SM OVC015 22/21 A3006 RMK AO2,0,8,0,16090,0,0,0,
2026-04-14 14:55:00,METAR KGVT 141455Z AUTO 17010KT 10SM OVC013 21/21 A3005 RMK AO2,0,10,0,16090,0,0,0,
2026-04-14 14:35:00,METAR KGVT 141435Z AUTO 18009KT 10SM OVC015 22/21 A3005 RMK AO2,0,9,0,16090,0,0,0,
2026-04-14 14:10:00,METAR KGVT 141410Z AUTO 17009KT 10SM OVC015 22/20 A3005 RMK AO2,0,9,0,16090,0,0,0,
2026-04-14 13:55:00,METAR KGVT 141355Z AUTO 18007KT 10SM OVC015 22/20 A3005 RMK AO2,0,7,0,16090,0,0,0,
2026-04-14 13:35:00,METAR KGVT 141335Z AUTO 18009KT 10SM OVC015 22/20 A3004 RMK AO2,0,9,0,16090,0,0,0,
2026-04-14 13:15:00,METAR KGVT 141315Z AUTO 18011KT 10SM OVC017 22/20 A3003 RMK AO2,0,11,0,16090,0,0,0,
2026-04-14 12:55:00,METAR KGVT 141255Z AUTO 17009KT 10SM OVC017 22/20 A3002 RMK AO2,0,9,0,16090,0,0,0,
2026-04-14 12:35:00,METAR KGVT 141235Z AUTO 18011KT 10SM BKN019 OVC027 22/20 A3002 RMK AO2,0,11,0,16090,0,0,0,
2026-04-14 12:15:00,METAR KGVT 141215Z AUTO 18010KT 10SM OVC019 22/20 A3001 RMK AO2,0,10,0,16090,0,0,0,
2026-04-14 11:55:00,METAR KGVT 141155Z AUTO 18010KT 10SM OVC019 22/20 A3000 RMK AO2,0,10,0,16090,0,0,0,
2026-04-14 11:35:00,METAR KGVT 141135Z AUTO 19011KT 10SM OVC021 22/20 A3000 RMK AO2,0,11,0,16090,0,0,0,
2026-04-14 11:15:00,METAR KGVT 141115Z AUTO 19013G18KT 10SM OVC021 22/20 A3000 RMK AO2,0,13,1,16090,0,0,0,
2026-04-14 10:55:00,METAR KGVT 141055Z AUTO 19014KT 10SM OVC019 22/20 A3000 RMK AO2,0,14,0,16090,0,0,0,
2026-04-14 10:35:00,METAR KGVT 141035Z AUTO 19012KT 10SM OVC019 22/20 A3000 RMK AO2,0,12,0,16090,0,0,0,
2026-04-14 10:15:00,METAR KGVT 141015Z AUTO 20013KT 10SM BKN019 OVC025 22/20 A3000 RMK AO2,0,13,0,16090,0,0,0,
2026-04-14 09:55:00,METAR KGVT 140955Z AUTO 19015G20KT 10SM OVC019 22/20 A2999 RMK AO2,0,15,1,16090,0,0,0,
2026-04-14 09:35:00,METAR KGVT 140935Z AUTO 19014KT 10SM OVC019 22/20 A2999 RMK AO2,0,14,0,16090,0,0,0,
2026-04-14 09:15:00,METAR KGVT 140915Z AUTO 18016KT 10SM OVC019 22/20 A2999 RMK AO2,0,16,0,16090,0,0,0,
2026-04-14 08:55:00,METAR KGVT 140855Z AUTO 18014G21KT 10SM OVC019 22/20 A2999 RMK AO2,0,14,1,16090,0,0,0,
2026-04-14 08:35:00,METAR KGVT 140835Z AUTO 19016G20KT 10SM BKN017 OVC022 22/21 A2999 RMK AO2,0,16,1,16090,0,0,0,
2026-04-14 08:15:00,METAR KGVT 140815Z AUTO 18013KT 10SM OVC017 22/21 A2999 RMK AO2,0,13,0,16090,0,0,0,
2026-04-14 07:55:00,METAR KGVT 140755Z AUTO 18014G21KT 10SM OVC017 22/21 A3000 RMK AO2,0,14,1,16090,0,0,0,
2026-04-14 07:35:00,METAR KGVT 140735Z AUTO 19012G20KT 10SM OVC017 22/21 A3000 RMK AO2,0,12,1,16090,0,0,0,
2026-04-14 07:15:00,METAR KGVT 140715Z AUTO 18015KT 10SM OVC015 23/21 A3001 RMK AO2,0,15,0,16090,0,0,0,
2026-04-14 06:55:00,METAR KGVT 140655Z AUTO 19015KT 10SM OVC015 23/21 A3001 RMK AO2,0,15,0,16090,0,0,0,
2026-04-14 06:35:00,METAR KGVT 140635Z AUTO 18016G21KT 10SM OVC015 23/21 A3001 RMK AO2,0,16,1,16090,0,0,0,
2026-04-14 06:15:00,METAR KGVT 140615Z AUTO 18016G20KT 10SM OVC015 22/21 A3001 RMK AO2,0,16,1,16090,0,0,0,
2026-04-14 05:55:00,METAR KGVT 140555Z AUTO 18017G21KT 10SM OVC015 22/21 A3001 RMK AO2,0,17,1,16090,0,0,0,
2026-04-14 05:35:00,METAR KGVT 140535Z AUTO 18014KT 10SM OVC015 23/22 A3001 RMK AO2,0,14,0,16090,0,0,0,
2026-04-14 04:55:00,METAR KGVT 140455Z AUTO 17014G20KT 10SM BKN019 BKN025 BKN031 23/22 A3002 RMK AO2,0,14,1,16090,0,0,0,
2026-04-14 04:35:00,METAR KGVT 140435Z AUTO 17010KT 10SM SCT019 BKN030 BKN035 22/22 A3001 RMK AO2,0,10,0,16090,0,0,0,
2026-04-14 04:15:00,METAR KGVT 140415Z AUTO 17012KT 10SM SCT019 SCT033 23/22 A3002 RMK AO2,0,12,0,16090,0,0,0,
2026-04-14 03:55:00,METAR KGVT 140355Z AUTO 16012KT 10SM CLR 23/22 A3002 RMK AO2,0,12,0,16090,0,0,0,
2026-04-14 03:35:00,METAR KGVT 140335Z AUTO 16011KT 10SM CLR 23/22 A3002 RMK AO2,0,11,0,16090,0,0,0,
2026-04-14 03:15:00,METAR KGVT 140315Z AUTO 17009KT 10SM CLR 23/22 A3002 RMK AO2,0,9,0,16090,0,0,0,
2026-04-14 02:55:00,METAR KGVT 140255Z AUTO 15007KT 10SM CLR 23/22 A3001 RMK AO2,0,7,0,16090,0,0,0,
2026-04-14 02:35:00,METAR KGVT 140235Z AUTO 16009KT 10SM CLR 23/22 A3001 RMK AO2,0,9,0,16090,0,0,0,
2026-04-14 02:15:00,METAR KGVT 140215Z AUTO 16010KT 10SM CLR 24/22 A3000 RMK AO2,0,10,0,16090,0,0,0,
2026-04-14 01:55:00,METAR KGVT 140155Z AUTO 16009KT 10SM CLR 23/22 A3000 RMK AO2,0,9,0,16090,0,0,0,
2026-04-14 01:35:00,METAR KGVT 140135Z AUTO 16007KT 10SM CLR 23/22 A2999 RMK AO2,0,7,0,16090,0,0,0,
2026-04-14 01:15:00,METAR KGVT 140115Z AUTO 17008KT 10SM CLR 24/22 A2999 RMK AO2,0,8,0,16090,0,0,0,
2026-04-14 00:55:00,METAR KGVT 140055Z AUTO 18008KT 10SM CLR 24/22 A2998 RMK AO2,0,8,0,16090,0,0,0,
2026-04-14 00:35:00,METAR KGVT 140035Z AUTO 17009KT 10SM CLR 25/22 A2998 RMK AO2,0,9,0,16090,0,0,0,
2026-04-14 00:15:00,METAR KGVT 140015Z AUTO 17009KT 10SM CLR 25/22 A2997 RMK AO2,0,9,0,16090,0,0,0,
2026-04-13 23:55:00,METAR KGVT 132355Z AUTO 17011KT 10SM CLR 25/22 A2997 RMK AO2,0,11,0,16090,0,0,0,
2026-04-13 23:35:00,METAR KGVT 132335Z AUTO 17011KT 10SM CLR 26/22 A2997 RMK AO2,0,11,0,16090,0,0,0,
2026-04-13 23:15:00,METAR KGVT 132315Z AUTO 17012KT 10SM CLR 26/22 A2998 RMK AO2,0,12,0,16090,0,0,0,
2026-04-13 22:55:00,METAR KGVT 132255Z AUTO 17013G18KT 10SM CLR 27/22 A2998 RMK AO2,0,13,1,16090,0,0,0,
2026-04-13 22:35:00,METAR KGVT 132235Z AUTO 18014KT 10SM SCT029 SCT037 SCT055 27/22 A2998 RMK AO2,0,14,0,16090,0,0,0,
2026-04-13 22:15:00,METAR KGVT 132215Z AUTO 18014G21KT 10SM SCT029 BKN037 BKN046 27/22 A2998 RMK AO2,0,14,1,16090,0,0,0,
2026-04-13 21:55:00,METAR KGVT 132155Z AUTO 17013G18KT 10SM SCT029 BKN037 BKN046 27/22 A2998 RMK AO2,0,13,1,16090,0,0,0,
2026-04-13 21:35:00,METAR KGVT 132135Z AUTO 17014KT 10SM SCT029 BKN040 BKN050 27/22 A2998 RMK AO2,0,14,0,16090,0,0,0,
2026-04-13 21:15:00,METAR KGVT 132115Z AUTO 18013KT 10SM BKN029 BKN039 BKN055 27/22 A2999 RMK AO2,0,13,0,16090,0,0,0,
2026-04-13 20:55:00,METAR KGVT 132055Z AUTO 17014KT 10SM BKN029 BKN037 BKN046 28/22 A3001 RMK AO2,0,14,0,16090,0,0,0,
2026-04-13 20:35:00,METAR KGVT 132035Z AUTO 19014KT 10SM SCT027 BKN034 BKN042 28/22 A3002 RMK AO2,0,14,0,16090,0,0,0,
2026-04-13 20:15:00,METAR KGVT 132015Z AUTO 18013G19KT 10SM BKN027 BKN034 BKN060 27/23 A3003 RMK AO2,0,13,1,16090,0,0,0,
2026-04-13 19:55:00,METAR KGVT 131955Z AUTO 18014KT 10SM BKN025 OVC034 27/22 A3003 RMK AO2,0,14,0,16090,0,0,0,
2026-04-13 19:35:00,METAR KGVT 131935Z AUTO 18016KT 10SM BKN025 BKN039 OVC055 26/22 A3004 RMK AO2,0,16,0,16090,0,0,0,
2026-04-13 19:15:00,METAR KGVT 131915Z AUTO 19013G19KT 10SM BKN025 OVC029 27/22 A3005 RMK AO2,0,13,1,16090,0,0,0,
2026-04-13 18:55:00,METAR KGVT 131855Z AUTO 17011KT 10SM BKN021 OVC029 26/22 A3006 RMK AO2,0,11,0,16090,0,0,0,
2026-04-13 18:35:00,METAR KGVT 131835Z AUTO 18012KT 10SM BKN021 BKN029 OVC045 26/22 A3007 RMK AO2,0,12,0,16090,0,0,0,
2026-04-13 18:15:00,METAR KGVT 131815Z AUTO 17012KT 10SM SCT019 BKN023 OVC038 25/22 A3007 RMK AO2,0,12,0,16090,0,0,0,
2026-04-13 17:55:00,METAR KGVT 131755Z AUTO 18012KT 10SM BKN019 BKN024 OVC029 24/22 A3007 RMK AO2,0,12,0,16090,0,0,0,
2026-04-13 17:35:00,METAR KGVT 131735Z AUTO 18013KT 10SM BKN019 OVC026 24/22 A3008 RMK AO2,0,13,0,16090,0,0,0,
2026-04-13 17:15:00,METAR KGVT 131715Z AUTO 19012G19KT 10SM BKN017 OVC024 24/22 A3008 RMK AO2,0,12,1,16090,0,0,0,
2026-04-13 16:55:00,METAR KGVT 131655Z AUTO 19014KT 10SM OVC017 24/22 A3009 RMK AO2,0,14,0,16090,0,0,0,
2026-04-13 16:35:00,METAR KGVT 131635Z AUTO 17014G19KT 10SM SCT015 BKN021 OVC025 23/22 A3009 RMK AO2,0,14,1,16090,0,0,0,
2026-04-13 16:15:00,METAR KGVT 131615Z AUTO 18017KT 10SM BKN015 OVC020 23/22 A3010 RMK AO2,0,17,0,16090,0,0,0,
2026-04-13 15:55:00,METAR KGVT 131555Z AUTO 18015G21KT 10SM OVC013 23/22 A3010 RMK AO2,0,15,1,16090,0,0,0,
2026-04-13 15:35:00,METAR KGVT 131535Z AUTO 19014KT 10SM OVC011 23/21 A3010 RMK AO2,0,14,0,16090,0,0,0,
2026-04-13 15:15:00,METAR KGVT 131515Z AUTO 18013G19KT 10SM OVC011 22/22 A3010 RMK AO2,0,13,1,16090,0,0,0,
2026-04-13 14:55:00,METAR KGVT 131455Z AUTO 18011KT 10SM OVC011 22/21 A3010 RMK AO2,0,11,0,16090,0,0,0,
2026-04-13 14:35:00,METAR KGVT 131435Z AUTO 19012KT 10SM OVC011 21/21 A3010 RMK AO2,0,12,0,16090,0,0,0,
2026-04-13 14:15:00,METAR KGVT 131415Z AUTO 18009KT 10SM OVC011 21/21 A3010 RMK AO2,0,9,0,16090,0,0,0,
2026-04-13 13:55:00,METAR KGVT 131355Z AUTO 18012KT 10SM OVC011 21/21 A3009 RMK AO2,0,12,0,16090,0,0,0,
2026-04-13 13:35:00,METAR KGVT 131335Z AUTO 19012KT 10SM OVC013 21/20 A3010 RMK AO2,0,12,0,16090,0,0,0,
2026-04-13 13:15:00,METAR KGVT 131315Z AUTO 18012KT 10SM OVC013 21/20 A3009 RMK AO2,0,12,0,16090,0,0,0,
2026-04-13 12:55:00,METAR KGVT 131255Z AUTO 19011KT 10SM BKN015 OVC030 20/20 A3008 RMK AO2,0,11,0,16090,0,0,0,
2026-04-13 12:35:00,METAR KGVT 131235Z AUTO 19010KT 10SM SCT015 BKN030 20/20 A3007 RMK AO2,0,10,0,16090,0,0,0,
2026-04-13 12:15:00,METAR KGVT 131215Z AUTO 19012KT 10SM SCT015 SCT034 SCT046 20/19 A3007 RMK AO2,0,12,0,16090,0,0,0,
2026-04-13 11:55:00,METAR KGVT 131155Z AUTO 18012KT 10SM BKN015 SCT026 BKN034 20/20 A3006 RMK AO2,0,12,0,16090,0,0,0,
2026-04-13 11:35:00,METAR KGVT 131135Z AUTO 19014G19KT 10SM OVC015 21/20 A3006 RMK AO2,0,14,1,16090,0,0,0,
2026-04-13 11:15:00,METAR KGVT 131115Z AUTO 19014G19KT 10SM BKN019 OVC024 21/20 A3006 RMK AO2,0,14,1,16090,0,0,0,
2026-04-13 10:55:00,METAR KGVT 131055Z AUTO 19014KT 10SM OVC025 20/20 A3005 RMK AO2,0,14,0,16090,0,0,0,
2026-04-13 10:35:00,METAR KGVT 131035Z AUTO 19012KT 10SM SCT012 OVC025 20/20 A3005 RMK AO2,0,12,0,16090,0,0,0,
2026-04-13 10:15:00,METAR KGVT 131015Z AUTO 20013KT 10SM BKN014 BKN021 BKN025 19/ A3005 RMK AO2 LTG DSNT SE,0,13,0,16090,0,0,0,DS
2026-04-13 09:55:00,METAR KGVT 130955Z AUTO 19010KT 10SM SCT016 SCT023 19/ A3005 RMK AO2 LTG DSNT SE,0,10,0,16090,0,0,0,DS
2026-04-13 09:35:00,METAR KGVT 130935Z AUTO 21010KT 10SM SCT023 SCT048 19/19 A3006 RMK AO2,0,10,0,16090,0,0,0,
2026-04-13 09:15:00,METAR KGVT 130915Z AUTO 21010KT 10SM CLR 19/19 A3005 RMK AO2 LTG DSNT SE,0,10,0,16090,0,0,0,DS
2026-04-13 08:55:00,METAR KGVT 130855Z AUTO 20012KT 10SM SCT012 19/19 A3005 RMK AO2,0,12,0,16090,0,0,0,
2026-04-13 08:35:00,METAR KGVT 130835Z AUTO 19012KT 10SM BKN012 BKN017 20/19 A3005 RMK AO2,0,12,0,16090,0,0,0,
2026-04-13 08:15:00,METAR KGVT 130815Z AUTO 18012G20KT 10SM SCT014 19/19 A3004 RMK AO2,0,12,1,16090,0,0,0,
2026-04-13 07:55:00,METAR KGVT 130755Z AUTO 19015G21KT 10SM BKN014 19/19 A3005 RMK AO2 LTG DSNT S,0,15,1,16090,0,0,0,DS
2026-04-13 07:35:00,METAR KGVT 130735Z AUTO 19012KT 10SM SCT016 20/19 A3006 RMK AO2 LTG DSNT S,0,12,0,16090,0,0,0,DS
2026-04-13 07:15:00,METAR KGVT 130715Z AUTO 20012KT 10SM CLR 20/19 A3006 RMK AO2 LTG DSNT S,0,12,0,16090,0,0,0,DS
2026-04-13 06:55:00,METAR KGVT 130655Z AUTO 19014G20KT 10SM CLR 20/19 A3005 RMK AO2 LTG DSNT S,0,14,1,16090,0,0,0,DS
2026-04-13 06:35:00,METAR KGVT 130635Z AUTO 19018G23KT 10SM CLR 20/19 A3005 RMK AO2 LTG DSNT S,0,18,1,16090,0,0,0,DS
2026-04-13 06:15:00,METAR KGVT 130615Z AUTO 20018G25KT 10SM CLR 20/18 A3006 RMK AO2 LTG DSNT S,0,18,1,16090,0,0,0,DS
2026-04-13 05:55:00,METAR KGVT 130555Z AUTO 21020G24KT 10SM CLR 21/18 A3005 RMK AO2,0,20,1,16090,0,0,0,
2026-04-13 05:35:00,METAR KGVT 130535Z AUTO 20013G21KT 10SM CLR 21/19 A3005 RMK AO2 LTG DSNT S,0,13,1,16090,0,0,0,DS
2026-04-13 05:15:00,METAR KGVT 130515Z AUTO 20014G18KT 10SM CLR 21/19 A3004 RMK AO2,0,14,1,16090,0,0,0,
2026-04-13 04:55:00,METAR KGVT 130455Z AUTO 21011KT 10SM CLR 21/20 A3005 RMK AO2,0,11,0,16090,0,0,0,
2026-04-13 04:35:00,METAR KGVT 130435Z AUTO 20008KT 10SM CLR 21/21 A3004 RMK AO2,0,8,0,16090,0,0,0,
2026-04-13 04:15:00,METAR KGVT 130415Z AUTO 20010KT 10SM SCT014 21/21 A3002 RMK AO2,0,10,0,16090,0,0,0,
2026-04-13 03:55:00,METAR KGVT 130355Z AUTO 20013KT 10SM BKN014 BKN020 21/21 A3003 RMK AO2,0,13,0,16090,0,0,0,
2026-04-13 03:35:00,METAR KGVT 130335Z AUTO 20011KT 10SM OVC016 21/21 A3004 RMK AO2,0,11,0,16090,0,0,0,
2026-04-13 03:15:00,METAR KGVT 130315Z AUTO 19014G18KT 10SM OVC016 22/21 A3004 RMK AO2 LTG DSNT S,0,14,1,16090,0,0,0,DS
2026-04-13 02:55:00,METAR KGVT 130255Z AUTO 19012G19KT 10SM OVC016 22/21 A3003 RMK AO2 LTG DSNT SW,0,12,1,16090,0,0,0,DS
2026-04-13 02:35:00,METAR KGVT 130235Z AUTO 20016G20KT 10SM OVC014 22/21 A3005 RMK AO2 LTG DSNT SW,0,16,1,16090,0,0,0,DS
2026-04-13 02:15:00,METAR KGVT 130215Z AUTO 18013KT 10SM VCTS BKN016 OVC023 22/21 A3002 RMK AO2 LTG DSNT SW,0,13,0,16090,1,0,0,"DS,TS,VC"
2026-04-13 01:55:00,METAR KGVT 130155Z AUTO 20015G20KT 10SM SCT021 BKN027 OVC034 22/21 A3000 RMK AO2 LTG DSNT SW,0,15,1,16090,0,0,0,DS
2026-04-13 01:35:00,METAR KGVT 130135Z AUTO 20007KT 10SM SCT028 BKN035 BKN041 21/21 A2999 RMK AO2 LTG DSNT SW,0,7,0,16090,0,0,0,DS
2026-04-13 01:15:00,METAR KGVT 130115Z AUTO 19010KT 10SM SCT025 SCT035 BKN040 22/21 A3000 RMK AO2,0,10,0,16090,0,0,0,
2026-04-13 00:55:00,METAR KGVT 130055Z AUTO 16012KT 10SM SCT038 SCT044 22/21 A2997 RMK AO2,0,12,0,16090,0,0,0,
2026-04-13 00:35:00,METAR KGVT 130035Z AUTO 17015G19KT 10SM SCT020 SCT030 SCT036 22/22 A3000 RMK AO2,0,15,1,16090,0,0,0,
2026-04-13 00:15:00,METAR KGVT 130015Z AUTO 17011KT 10SM SCT009 BKN014 OVC035 21/21 A2999 RMK AO2,0,11,0,16090,0,0,0,
2026-04-12 23:55:00,METAR KGVT 122355Z AUTO 17008KT 10SM OVC012 21/ A2999 RMK AO2,0,8,0,16090,0,0,0,
2026-04-12 23:35:00,METAR KGVT 122335Z AUTO 17010KT 10SM OVC012 21/ A2999 RMK AO2 LTG DSNT S,0,10,0,16090,0,0,0,DS
2026-04-12 23:15:00,METAR KGVT 122315Z AUTO 16011KT 10SM OVC010 21/ A2999 RMK AO2,0,11,0,16090,0,0,0,
2026-04-12 22:55:00,METAR KGVT 122255Z AUTO 16013KT 10SM OVC009 21/ A2999 RMK AO2 LTG DSNT SW,0,13,0,16090,0,0,0,DS
2026-04-12 22:35:00,METAR KGVT 122235Z AUTO 16015KT 10SM BKN006 OVC011 20/ A3001 RMK AO2,0,15,0,16090,0,0,0,
2026-04-12 22:15:00,METAR KGVT 122215Z AUTO 16010KT 10SM OVC006 20/ A3002 RMK AO2 LTG DSNT SW,0,10,0,16090,0,0,0,DS
2026-04-12 21:55:00,METAR KGVT 122155Z AUTO 16014KT 10SM OVC006 20/ A3003 RMK AO2,0,14,0,16090,0,0,0,
2026-04-12 21:35:00,METAR KGVT 122135Z AUTO 16013KT 10SM OVC006 20/ A3003 RMK AO2 LTG DSNT NE,0,13,0,16090,0,0,0,DS
2026-04-12 21:15:00,METAR KGVT 122115Z AUTO 15013KT 10SM OVC006 20/ A3003 RMK AO2,0,13,0,16090,0,0,0,
2026-04-12 20:55:00,METAR KGVT 122055Z AUTO 16010KT 10SM OVC006 20/ A3004 RMK AO2 LTG DSNT SW,0,10,0,16090,0,0,0,DS
2026-04-12 20:35:00,METAR KGVT 122035Z AUTO 16014KT 10SM OVC008 20/ A3004 RMK AO2 LTG DSNT E,0,14,0,16090,0,0,0,DS
2026-04-12 20:15:00,METAR KGVT 122015Z AUTO 16010KT 10SM OVC010 20/ A3005 RMK AO2,0,10,0,16090,0,0,0,
2026-04-12 19:55:00,METAR KGVT 121955Z AUTO 16009KT 7SM BR BKN010 OVC013 19/20 A3006 RMK AO2 LTG DSNT E P0001,0,9,0,11263,0,0,1,"BR,DS"
2026-04-12 19:35:00,METAR KGVT 121935Z AUTO 18011KT 10SM OVC013 20/20 A3006 RMK AO2 LTG DSNT E,0,11,0,16090,0,0,0,DS
2026-04-12 19:15:00,METAR KGVT 121915Z AUTO 19013KT 10SM OVC013 20/19 A3006 RMK AO2 LTG DSNT E AND SE,0,13,0,16090,0,0,0,DS
2026-04-12 18:55:00,METAR KGVT 121855Z AUTO 20010KT 10SM BKN013 OVC043 21/19 A3006 RMK AO2 LTG DSNT SE,0,10,0,16090,0,0,0,DS
2026-04-12 18:35:00,METAR KGVT 121835Z AUTO 20013KT 10SM BKN011 OVC015 21/20 A3007 RMK AO2 LTG DSNT SE,0,13,0,16090,0,0,0,DS
2026-04-12 18:15:00,METAR KGVT 121815Z AUTO 17012KT 10SM BKN011 OVC049 21/20 A3006 RMK AO2 LTG DSNT SE,0,12,0,16090,0,0,0,DS
2026-04-12 17:55:00,METAR KGVT 121755Z AUTO 19010KT 10SM VCTS BKN013 BKN026 OVC055 19/19 A3008 RMK AO2 LTG DSNT SE AND S,0,10,0,16090,1,0,0,"DS,TS,VC"
2026-04-12 17:35:00,METAR KGVT 121735Z AUTO 17008KT 10SM BKN013 BKN027 OVC075 19/19 A3007 RMK AO2,0,8,0,16090,0,0,0,
2026-04-12 17:15:00,METAR KGVT 121715Z AUTO 19011KT 5SM BR SCT011 BKN060 OVC100 19/19 A3009 RMK AO2 LTG DSNT S THRU NW,0,11,0,8045,0,0,1,"BR,DS"
2026-04-12 16:55:00,METAR KGVT 121655Z AUTO 18012G16KT 10SM SCT009 BKN070 OVC100 20/19 A3008 RMK AO2 P0001,0,12,1,16090,0,0,0,
2026-04-12 16:35:00,METAR KGVT 121635Z AUTO 17014KT 10SM SCT007 SCT080 BKN120 20/ A3009 RMK AO2 LTG DSNT S,0,14,0,16090,0,0,0,DS
2026-04-12 16:15:00,METAR KGVT 121615Z AUTO 17008KT 10SM BKN100 OVC120 19/ A3009 RMK AO2,0,8,0,16090,0,0,0,
2026-04-12 15:55:00,METAR KGVT 121555Z AUTO 18007KT 10SM SCT070 SCT090 SCT120 19/ A3010 RMK AO2 LTG DSNT S,0,7,0,16090,0,0,0,DS
2026-04-12 14:55:00,METAR KGVT 121455Z AUTO 17010KT 10SM SCT013 SCT050 BKN060 19/19 A3006 RMK AO2,0,10,0,16090,0,0,0,
2026-04-12 14:35:00,METAR KGVT 121435Z AUTO 20013KT 10SM BKN013 BKN022 BKN060 20/19 A3008 RMK AO2,0,13,0,16090,0,0,0,
2026-04-12 14:15:00,METAR KGVT 121415Z AUTO 20018KT 10SM OVC013 20/19 A3007 RMK AO2,0,18,0,16090,0,0,0,
2026-04-12 13:55:00,METAR KGVT 121355Z AUTO 18017G23KT 10SM OVC011 20/20 A3006 RMK AO2 P0001,0,17,1,16090,0,0,0,
2026-04-12 13:35:00,METAR KGVT 121335Z AUTO 18014G19KT 10SM OVC011 20/ A3005 RMK AO2 P0001,0,14,1,16090,0,0,0,
2026-04-12 13:15:00,METAR KGVT 121315Z AUTO 18016KT 10SM OVC011 20/ A3004 RMK AO2 P0001,0,16,0,16090,0,0,0,
2026-04-12 12:55:00,METAR KGVT 121255Z AUTO 17012G18KT 10SM BKN011 BKN014 BKN120 20/20 A3004 RMK AO2 P0001,0,12,1,16090,0,0,0,
2026-04-12 12:35:00,METAR KGVT 121235Z AUTO 16015G20KT 10SM SCT014 BKN120 20/20 A3002 RMK AO2 P0001,0,15,1,16090,0,0,0,
2026-04-12 12:15:00,METAR KGVT 121215Z AUTO 18016G21KT 10SM SCT014 SCT035 BKN120 20/20 A3003 RMK AO2 P0001,0,16,1,16090,0,0,0,
2026-04-12 11:55:00,METAR KGVT 121155Z AUTO 17016G22KT 10SM SCT012 SCT055 OVC120 20/20 A3000 RMK AO2,0,16,1,16090,0,0,0,
2026-04-12 11:35:00,METAR KGVT 121135Z AUTO 16019G25KT 10SM BKN012 OVC120 20/20 A2997 RMK AO2,0,19,1,16090,0,0,0,
2026-04-12 11:15:00,METAR KGVT 121115Z AUTO 16019G27KT 10SM OVC014 20/20 A2999 RMK AO2,0,19,1,16090,0,0,0,
2026-04-12 10:55:00,METAR KGVT 121055Z AUTO 16019G25KT 10SM OVC014 20/19 A3001 RMK AO2,0,19,1,16090,0,0,0,
2026-04-12 10:35:00,METAR KGVT 121035Z AUTO 16017KT 10SM OVC016 20/19 A3003 RMK AO2,0,17,0,16090,0,0,0,
2026-04-12 10:15:00,METAR KGVT 121015Z AUTO 17012KT 7SM OVC016 20/19 A3006 RMK AO2,0,12,0,11263,0,0,0,
2026-04-12 09:55:00,METAR KGVT 120955Z AUTO 17012G20KT 10SM OVC016 20/19 A3006 RMK AO2,0,12,1,16090,0,0,0,
2026-04-12 09:35:00,METAR KGVT 120935Z AUTO 16014G21KT 10SM BKN016 OVC033 20/19 A3005 RMK AO2,0,14,1,16090,0,0,0,
2026-04-12 09:15:00,METAR KGVT 120915Z AUTO 17015KT 10SM OVC016 20/19 A3006 RMK AO2,0,15,0,16090,0,0,0,
2026-04-12 08:55:00,METAR KGVT 120855Z AUTO 17013G18KT 10SM OVC016 20/19 A3007 RMK AO2,0,13,1,16090,0,0,0,
2026-04-12 08:35:00,METAR KGVT 120835Z AUTO 17013G19KT 10SM OVC014 20/19 A3007 RMK AO2,0,13,1,16090,0,0,0,
2026-04-12 08:15:00,METAR KGVT 120815Z AUTO 17013KT 10SM OVC016 20/19 A3006 RMK AO2,0,13,0,16090,0,0,0,
2026-04-12 07:55:00,METAR KGVT 120755Z AUTO 16013KT 10SM BKN016 BKN065 BKN120 20/19 A3006 RMK AO2,0,13,0,16090,0,0,0,
2026-04-12 07:35:00,METAR KGVT 120735Z AUTO 17012KT 10SM SCT016 BKN120 20/19 A3007 RMK AO2,0,12,0,16090,0,0,0,
2026-04-12 07:15:00,METAR KGVT 120715Z AUTO 16013G19KT 10SM SCT120 20/19 A3006 RMK AO2,0,13,1,16090,0,0,0,
2026-04-12 06:55:00,METAR KGVT 120655Z AUTO 16011KT 10SM CLR 20/20 A3006 RMK AO2,0,11,0,16090,0,0,0,
2026-04-12 06:35:00,METAR KGVT 120635Z AUTO 16012KT 10SM CLR 20/19 A3007 RMK AO2,0,12,0,16090,0,0,0,
2026-04-12 06:15:00,METAR KGVT 120615Z AUTO 17011KT 10SM SCT070 20/19 A3008 RMK AO2,0,11,0,16090,0,0,0,
2026-04-12 05:55:00,METAR KGVT 120555Z AUTO 16012KT 10SM BKN070 21/19 A3008 RMK AO2,0,12,0,16090,0,0,0,
2026-04-12 05:35:00,METAR KGVT 120535Z AUTO 17011KT 10SM SCT070 SCT080 21/19 A3009 RMK AO2,0,11,0,16090,0,0,0,
2026-04-12 05:15:00,METAR KGVT 120515Z AUTO 16010KT 10SM SCT080 20/19 A3008 RMK AO2,0,10,0,16090,0,0,0,
2026-04-12 04:35:00,METAR KGVT 120435Z AUTO 15008KT 10SM OVC085 20/19 A3009 RMK AO2,0,8,0,16090,0,0,0,
2026-04-12 04:15:00,METAR KGVT 120415Z AUTO 14007KT 10SM BKN085 20/19 A3009 RMK AO2,0,7,0,16090,0,0,0,
2026-04-12 03:55:00,METAR KGVT 120355Z AUTO 13005KT 10SM BKN085 20/20 A3010 RMK AO2,0,5,0,16090,0,0,0,
2026-04-12 03:35:00,METAR KGVT 120335Z AUTO 15005KT 10SM OVC085 20/20 A3010 RMK AO2,0,5,0,16090,0,0,0,
2026-04-12 03:15:00,METAR KGVT 120315Z AUTO 17006KT 10SM OVC075 20/20 A3010 RMK AO2,0,6,0,16090,0,0,0,
2026-04-12 02:55:00,METAR KGVT 120255Z AUTO 17006KT 10SM OVC065 20/20 A3010 RMK AO2,0,6,0,16090,0,0,0,
2026-04-12 02:35:00,METAR KGVT 120235Z AUTO 17006KT 10SM BKN065 OVC085 20/20 A3010 RMK AO2,0,6,0,16090,0,0,0,
2026-04-12 02:15:00,METAR KGVT 120215Z AUTO 17007KT 10SM SCT065 BKN085 OVC120 20/20 A3010 RMK AO2,0,7,0,16090,0,0,0,
2026-04-12 01:55:00,METAR KGVT 120155Z AUTO 14006KT 10SM BKN075 OVC095 20/20 A3009 RMK AO2 P0007,0,6,0,16090,0,0,0,
2026-04-12 01:35:00,METAR KGVT 120135Z AUTO 14011KT 10SM -RA SCT035 SCT050 OVC075 20/20 A3010 RMK AO2 P0005,0,11,0,16090,0,0,0,-RA
2026-04-12 01:15:00,METAR KGVT 120115Z AUTO 18017G25KT 4SM RA SCT033 BKN049 OVC085 22/19 A3011 RMK AO2 P0004,0,17,1,6436,0,0,0,RA
2026-04-12 00:55:00,METAR KGVT 120055Z AUTO 14007KT 10SM SCT055 OVC085 24/18 A3009 RMK AO2,0,7,0,16090,0,0,0,
2026-04-12 00:35:00,METAR KGVT 120035Z AUTO 14006KT 10SM BKN075 OVC090 24/18 A3009 RMK AO2,0,6,0,16090,0,0,0,
2026-04-12 00:15:00,METAR KGVT 120015Z AUTO 14007KT 10SM SCT075 OVC090 24/17 A3008 RMK AO2,0,7,0,16090,0,0,0,
2026-04-11 23:55:00,METAR KGVT 112355Z AUTO 14009KT 10SM BKN090 BKN120 25/17 A3009 RMK AO2,0,9,0,16090,0,0,0,
2026-04-11 23:35:00,METAR KGVT 112335Z AUTO 14009G16KT 10SM SCT090 SCT120 25/17 A3009 RMK AO2,0,9,1,16090,0,0,0,
2026-04-11 23:15:00,METAR KGVT 112315Z AUTO 14010KT 10SM SCT120 25/17 A3009 RMK AO2,0,10,0,16090,0,0,0,
2026-04-11 22:55:00,METAR KGVT 112255Z AUTO 14009KT 10SM SCT045 25/17 A3009 RMK AO2,0,9,0,16090,0,0,0,
2026-04-11 22:35:00,METAR KGVT 112235Z AUTO 14011KT 10SM SCT045 27/17 A3009 RMK AO2,0,11,0,16090,0,0,0,
2026-04-11 22:15:00,METAR KGVT 112215Z AUTO 14012KT 10SM BKN045 BKN060 27/17 A3010 RMK AO2,0,12,0,16090,0,0,0,
2026-04-11 21:55:00,METAR KGVT 112155Z AUTO 16012KT 10SM SCT043 SCT060 27/17 A3010 RMK AO2,0,12,0,16090,0,0,0,
2026-04-11 21:35:00,METAR KGVT 112135Z AUTO 16009KT 10SM SCT041 26/17 A3011 RMK AO2,0,9,0,16090,0,0,0,
2026-04-11 21:15:00,METAR KGVT 112115Z AUTO 15010KT 10SM SCT041 27/18 A3012 RMK AO2,0,10,0,16090,0,0,0,
2026-04-11 20:55:00,METAR KGVT 112055Z AUTO 15014KT 10SM SCT041 SCT065 SCT080 27/18 A3013 RMK AO2,0,14,0,16090,0,0,0,
2026-04-11 20:35:00,METAR KGVT 112035Z AUTO 16014KT 10SM SCT041 SCT065 BKN080 26/17 A3014 RMK AO2,0,14,0,16090,0,0,0,
2026-04-11 20:15:00,METAR KGVT 112015Z AUTO 15011KT 10SM SCT040 SCT065 27/18 A3015 RMK AO2,0,11,0,16090,0,0,0,
2026-04-11 19:55:00,METAR KGVT 111955Z AUTO 17011KT 10SM SCT040 26/17 A3016 RMK AO2,0,11,0,16090,0,0,0,
2026-04-11 19:35:00,METAR KGVT 111935Z AUTO 15012KT 10SM CLR 25/17 A3017 RMK AO2,0,12,0,16090,0,0,0,
2026-04-11 19:15:00,METAR KGVT 111915Z AUTO 16014G17KT 10SM CLR 25/17 A3019 RMK AO2,0,14,1,16090,0,0,0,
2026-04-11 18:55:00,METAR KGVT 111855Z AUTO 16012G19KT 10SM SCT050 25/18 A3019 RMK AO2,0,12,1,16090,0,0,0,
2026-04-11 18:35:00,METAR KGVT 111835Z AUTO 16014G20KT 10SM BKN050 25/18 A3021 RMK AO2,0,14,1,16090,0,0,0,
2026-04-11 18:15:00,METAR KGVT 111815Z AUTO 15012G18KT 10SM SCT024 SCT038 BKN048 25/18 A3022 RMK AO2,0,12,1,16090,0,0,0,
2026-04-11 17:55:00,METAR KGVT 111755Z AUTO 16012G15KT 10SM SCT024 BKN040 BKN048 24/19 A3023 RMK AO2,0,12,1,16090,0,0,0,
2026-04-11 17:35:00,METAR KGVT 111735Z AUTO 15013G16KT 10SM SCT028 BKN042 OVC048 24/19 A3024 RMK AO2,0,13,1,16090,0,0,0,
2026-04-11 17:15:00,METAR KGVT 111715Z AUTO 15011KT 10SM SCT026 BKN031 OVC044 23/19 A3025 RMK AO2,0,11,0,16090,0,0,0,
2026-04-11 16:55:00,METAR KGVT 111655Z AUTO 15010KT 10SM SCT022 BKN031 BKN047 23/19 A3026 RMK AO2,0,10,0,16090,0,0,0,
2026-04-11 16:35:00,METAR KGVT 111635Z AUTO 14011KT 10SM SCT014 OVC031 23/19 A3026 RMK AO2,0,11,0,16090,0,0,0,
2026-04-11 16:15:00,METAR KGVT 111615Z AUTO 15010KT 10SM SCT014 OVC029 22/19 A3027 RMK AO2,0,10,0,16090,0,0,0,
2026-04-11 15:55:00,METAR KGVT 111555Z AUTO 16009KT 10SM SCT014 OVC027 22/20 A3026 RMK AO2,0,9,0,16090,0,0,0,
2026-04-11 15:35:00,METAR KGVT 111535Z AUTO 16010KT 10SM OVC025 21/19 A3026 RMK AO2,0,10,0,16090,0,0,0,
2026-04-11 15:15:00,METAR KGVT 111515Z AUTO 15009KT 10SM OVC025 21/20 A3026 RMK AO2,0,9,0,16090,0,0,0,
2026-04-11 14:55:00,METAR KGVT 111455Z AUTO 14009KT 10SM SCT010 SCT018 OVC025 21/20 A3025 RMK AO2,0,9,0,16090,0,0,0,
2026-04-11 14:35:00,METAR KGVT 111435Z AUTO 15007KT 10SM SCT010 OVC021 20/20 A3025 RMK AO2,0,7,0,16090,0,0,0,
2026-04-11 14:15:00,METAR KGVT 111415Z AUTO 15007KT 10SM OVC019 20/19 A3025 RMK AO2,0,7,0,16090,0,0,0,
2026-04-11 13:55:00,METAR KGVT 111355Z AUTO 17005KT 10SM OVC019 20/19 A3025 RMK AO2,0,5,0,16090,0,0,0,
2026-04-11 13:35:00,METAR KGVT 111335Z AUTO 17006KT 10SM OVC017 19/19 A3024 RMK AO2,0,6,0,16090,0,0,0,
2026-04-11 13:15:00,METAR KGVT 111315Z AUTO 18005KT 10SM OVC013 19/19 A3024 RMK AO2,0,5,0,16090,0,0,0,
2026-04-11 12:55:00,METAR KGVT 111255Z AUTO 18006KT 10SM OVC011 19/ A3023 RMK AO2,0,6,0,16090,0,0,0,
2026-04-11 12:35:00,METAR KGVT 111235Z AUTO 17008KT 10SM OVC011 19/ A3022 RMK AO2,0,8,0,16090,0,0,0,
2026-04-11 12:15:00,METAR KGVT 111215Z AUTO 18010KT 10SM OVC007 18/ A3022 RMK AO2,0,10,0,16090,0,0,0,
2026-04-11 11:55:00,METAR KGVT 111155Z AUTO 18012KT 10SM OVC003 18/ A3021 RMK AO2,0,12,0,16090,0,0,0,
2026-04-11 11:35:00,METAR KGVT 111135Z AUTO 18010KT 7SM OVC003 19/ A3021 RMK AO2,0,10,0,11263,0,0,0,
2026-04-11 11:15:00,METAR KGVT 111115Z AUTO 17008KT 7SM OVC005 18/ A3020 RMK AO2,0,8,0,11263,0,0,0,
2026-04-11 10:55:00,METAR KGVT 111055Z AUTO 17005KT 10SM OVC005 18/ A3020 RMK AO2,0,5,0,16090,0,0,0,
2026-04-11 10:35:00,METAR KGVT 111035Z AUTO 13005KT 7SM HZ SCT007 16/ A3019 RMK AO2,0,5,0,11263,0,0,0,
2026-04-11 10:15:00,METAR KGVT 111015Z AUTO 15004KT 10SM CLR 15/ A3019 RMK AO2,0,4,0,16090,0,0,0,
2026-04-11 09:55:00,METAR KGVT 110955Z AUTO 12003KT 10SM CLR 15/ A3018 RMK AO2,0,3,0,16090,0,0,0,
2026-04-11 09:35:00,METAR KGVT 110935Z AUTO 00000KT 10SM CLR 16/ A3019 RMK AO2,0,0,0,16090,0,0,0,
2026-04-11 09:15:00,METAR KGVT 110915Z AUTO 00000KT 10SM CLR 16/ A3019 RMK AO2,0,0,0,16090,0,0,0,
2026-04-11 08:55:00,METAR KGVT 110855Z AUTO 14004KT 10SM CLR 16/ A3018 RMK AO2,0,4,0,16090,0,0,0,
2026-04-11 08:35:00,METAR KGVT 110835Z AUTO 16003KT 10SM CLR 17/ A3018 RMK AO2,0,3,0,16090,0,0,0,
2026-04-11 08:15:00,METAR KGVT 110815Z AUTO 18003KT 10SM CLR 17/ A3019 RMK AO2,0,3,0,16090,0,0,0,
2026-04-11 07:55:00,METAR KGVT 110755Z AUTO 19005KT 10SM CLR 17/ A3018 RMK AO2,0,5,0,16090,0,0,0,
2026-04-11 07:35:00,METAR KGVT 110735Z AUTO 17006KT 10SM CLR 17/ A3019 RMK AO2,0,6,0,16090,0,0,0,
2026-04-11 07:15:00,METAR KGVT 110715Z AUTO 17006KT 10SM CLR 17/17 A3019 RMK AO2,0,6,0,16090,0,0,0,
2026-04-11 06:55:00,METAR KGVT 110655Z AUTO 17005KT 10SM CLR 18/17 A3020 RMK AO2,0,5,0,16090,0,0,0,
2026-04-11 06:35:00,METAR KGVT 110635Z AUTO 18004KT 10SM CLR 18/17 A3021 RMK AO2,0,4,0,16090,0,0,0,
2026-04-11 06:15:00,METAR KGVT 110615Z AUTO 17005KT 10SM CLR 18/17 A3021 RMK AO2,0,5,0,16090,0,0,0,
2026-04-11 05:55:00,METAR KGVT 110555Z AUTO 15005KT 10SM CLR 18/17 A3020 RMK AO2,0,5,0,16090,0,0,0,
2026-04-11 05:35:00,METAR KGVT 110535Z AUTO 16005KT 10SM CLR 18/17 A3019 RMK AO2,0,5,0,16090,0,0,0,
2026-04-11 05:15:00,METAR KGVT 110515Z AUTO 16006KT 10SM CLR 19/17 A3019 RMK AO2,0,6,0,16090,0,0,0,
2026-04-11 04:55:00,METAR KGVT 110455Z AUTO 16006KT 10SM CLR 19/17 A3020 RMK AO2,0,6,0,16090,0,0,0,
2026-04-11 04:35:00,METAR KGVT 110435Z AUTO 17007KT 10SM CLR 19/17 A3020 RMK AO2,0,7,0,16090,0,0,0,
2026-04-11 04:15:00,METAR KGVT 110415Z AUTO 17008KT 10SM CLR 20/17 A3021 RMK AO2,0,8,0,16090,0,0,0,
2026-04-11 03:55:00,METAR KGVT 110355Z AUTO 17008KT 10SM CLR 20/18 A3022 RMK AO2,0,8,0,16090,0,0,0,
2026-04-11 03:35:00,METAR KGVT 110335Z AUTO 17006KT 10SM SCT065 20/18 A3022 RMK AO2,0,6,0,16090,0,0,0,
2026-04-11 03:15:00,METAR KGVT 110315Z AUTO 17008KT 10SM SCT055 OVC065 21/18 A3021 RMK AO2,0,8,0,16090,0,0,0,
2026-04-11 02:55:00,METAR KGVT 110255Z AUTO 18007G14KT 10SM BKN050 20/17 A3021 RMK AO2,0,7,1,16090,0,0,0,
2026-04-11 02:35:00,METAR KGVT 110235Z AUTO 12005KT 10SM CLR 20/16 A3020 RMK AO2,0,5,0,16090,0,0,0,
2026-04-11 02:15:00,METAR KGVT 110215Z AUTO 11005KT 10SM CLR 21/16 A3019 RMK AO2,0,5,0,16090,0,0,0,
2026-04-11 01:55:00,METAR KGVT 110155Z AUTO 10005KT 10SM CLR 21/16 A3018 RMK AO2,0,5,0,16090,0,0,0,
2026-04-11 01:35:00,METAR KGVT 110135Z AUTO 09004KT 10SM CLR 22/16 A3017 RMK AO2,0,4,0,16090,0,0,0,
2026-04-11 01:15:00,METAR KGVT 110115Z AUTO 10005KT 10SM CLR 22/16 A3016 RMK AO2,0,5,0,16090,0,0,0,
2026-04-11 00:55:00,METAR KGVT 110055Z AUTO 11004KT 10SM CLR 23/16 A3016 RMK AO2,0,4,0,16090,0,0,0,
2026-04-11 00:35:00,METAR KGVT 110035Z AUTO 12005KT 10SM CLR 24/16 A3016 RMK AO2,0,5,0,16090,0,0,0,
2026-04-11 00:15:00,METAR KGVT 110015Z AUTO 11005KT 10SM CLR 25/16 A3015 RMK AO2,0,5,0,16090,0,0,0,
2026-04-10 23:55:00,METAR KGVT 102355Z AUTO 11008KT 10SM CLR 26/16 A3015 RMK AO2,0,8,0,16090,0,0,0,
2026-04-10 23:35:00,METAR KGVT 102335Z AUTO 11005KT 10SM SCT050 26/16 A3015 RMK AO2,0,5,0,16090,0,0,0,
2026-04-10 23:15:00,METAR KGVT 102315Z AUTO 11008KT 10SM SCT049 SCT055 26/16 A3015 RMK AO2,0,8,0,16090,0,0,0,
2026-04-10 22:55:00,METAR KGVT 102255Z AUTO 15006KT 10SM SCT049 27/17 A3015 RMK AO2,0,6,0,16090,0,0,0,
2026-04-10 22:35:00,METAR KGVT 102235Z AUTO 18007KT 10SM CLR 27/16 A3015 RMK AO2,0,7,0,16090,0,0,0,
2026-04-10 22:15:00,METAR KGVT 102215Z AUTO 17009KT 10SM SCT100 27/17 A3015 RMK AO2,0,9,0,16090,0,0,0,
2026-04-10 21:55:00,METAR KGVT 102155Z AUTO 15009KT 10SM CLR 27/16 A3015 RMK AO2,0,9,0,16090,0,0,0,
2026-04-10 21:35:00,METAR KGVT 102135Z AUTO 17009KT 10SM CLR 27/17 A3015 RMK AO2,0,9,0,16090,0,0,0,
2026-04-10 21:15:00,METAR KGVT 102115Z AUTO 18008KT 7SM CLR 27/17 A3015 RMK AO2 LTG DSNT N,0,8,0,11263,0,0,0,DS
2026-04-10 20:55:00,METAR KGVT 102055Z AUTO 18006G14KT 10SM CLR 26/17 A3015 RMK AO2,0,6,1,16090,0,0,0,
2026-04-10 20:35:00,METAR KGVT 102035Z AUTO 16007KT 5SM HZ CLR 26/17 A3016 RMK AO2,0,7,0,8045,0,0,0,
2026-04-10 20:15:00,METAR KGVT 102015Z AUTO 15008KT 10SM SCT095 26/18 A3017 RMK AO2,0,8,0,16090,0,0,0,
2026-04-10 19:55:00,METAR KGVT 101955Z AUTO 14008KT 10SM SCT046 SCT060 26/18 A3018 RMK AO2,0,8,0,16090,0,0,0,
2026-04-10 19:35:00,METAR KGVT 101935Z AUTO 15006KT 10SM SCT034 SCT043 BKN060 25/18 A3019 RMK AO2,0,6,0,16090,0,0,0,
2026-04-10 19:15:00,METAR KGVT 101915Z AUTO 18008KT 5SM HZ SCT032 SCT041 BKN050 25/18 A3019 RMK AO2,0,8,0,8045,0,0,0,
2026-04-10 18:55:00,METAR KGVT 101855Z AUTO 14009KT 10SM SCT030 SCT038 BKN043 25/19 A3020 RMK AO2 LTG DSNT N,0,9,0,16090,0,0,0,DS
2026-04-10 18:35:00,METAR KGVT 101835Z AUTO 16007KT 120V190 10SM SCT030 SCT050 SCT090 25/19 A3021 RMK AO2,0,7,0,16090,0,0,0,
2026-04-10 18:15:00,METAR KGVT 101815Z AUTO 16009KT 10SM SCT030 SCT042 25/19 A3022 RMK AO2 LTG DSNT NW,0,9,0,16090,0,0,0,DS
2026-04-10 17:55:00,METAR KGVT 101755Z AUTO 18008KT 10SM SCT032 SCT044 24/18 A3022 RMK AO2 LTG DSNT S AND NW,0,8,0,16090,0,0,0,DS
2026-04-10 17:35:00,METAR KGVT 101735Z AUTO 15008KT 10SM BKN032 BKN039 BKN090 25/18 A3023 RMK AO2,0,8,0,16090,0,0,0,
2026-04-10 17:15:00,METAR KGVT 101715Z AUTO 16009KT 140V210 10SM BKN028 BKN036 OVC090 24/18 A3023 RMK AO2 LTG DSNT NW,0,9,0,16090,0,0,0,DS
2026-04-10 16:55:00,METAR KGVT 101655Z AUTO 22007KT 10SM SCT024 OVC033 23/17 A3024 RMK AO2 LTG DSNT N,0,7,0,16090,0,0,0,DS
2026-04-10 16:35:00,METAR KGVT 101635Z AUTO 23007KT 10SM BKN024 OVC031 23/18 A3024 RMK AO2,0,7,0,16090,0,0,0,
2026-04-10 16:15:00,METAR KGVT 101615Z AUTO 17010KT 10SM BKN022 BKN030 BKN090 23/19 A3024 RMK AO2,0,10,0,16090,0,0,0,
2026-04-10 15:55:00,METAR KGVT 101555Z AUTO 17010KT 10SM SCT015 BKN020 BKN026 23/19 A3024 RMK AO2,0,10,0,16090,0,0,0,
2026-04-10 15:35:00,METAR KGVT 101535Z AUTO 17008KT 10SM BKN015 BKN019 OVC090 22/19 A3023 RMK AO2,0,8,0,16090,0,0,0,
2026-04-10 15:15:00,METAR KGVT 101515Z AUTO 17011KT 10SM BKN011 BKN085 OVC110 21/19 A3023 RMK AO2,0,11,0,16090,0,0,0,
2026-04-10 14:55:00,METAR KGVT 101455Z AUTO 16012KT 10SM OVC009 21/19 A3023 RMK AO2,0,12,0,16090,0,0,0,
2026-04-10 14:35:00,METAR KGVT 101435Z AUTO 16009KT 10SM OVC009 20/19 A3023 RMK AO2,0,9,0,16090,0,0,0,
2026-04-10 14:15:00,METAR KGVT 101415Z AUTO 15008KT 10SM OVC009 19/19 A3023 RMK AO2,0,8,0,16090,0,0,0,
2026-04-10 13:55:00,METAR KGVT 101355Z AUTO 16008KT 10SM OVC009 19/19 A3022 RMK AO2,0,8,0,16090,0,0,0,
2026-04-10 13:35:00,METAR KGVT 101335Z AUTO 15008KT 10SM BKN009 BKN017 OVC026 19/19 A3022 RMK AO2,0,8,0,16090,0,0,0,
2026-04-10 13:15:00,METAR KGVT 101315Z AUTO 15006KT 10SM BKN017 OVC023 18/ A3021 RMK AO2,0,6,0,16090,0,0,0,
2026-04-10 12:55:00,METAR KGVT 101255Z AUTO 17005KT 10SM BKN017 BKN023 OVC090 18/ A3020 RMK AO2,0,5,0,16090,0,0,0,
2026-04-10 12:35:00,METAR KGVT 101235Z AUTO 17004KT 10SM SCT019 OVC080 17/ A3020 RMK AO2,0,4,0,16090,0,0,0,
2026-04-10 12:15:00,METAR KGVT 101215Z AUTO 17005KT 10SM SCT017 SCT026 OVC080 17/ A3019 RMK AO2,0,5,0,16090,0,0,0,
2026-04-10 11:55:00,METAR KGVT 101155Z AUTO 16006KT 10SM SCT017 SCT026 BKN080 17/ A3019 RMK AO2,0,6,0,16090,0,0,0,
2026-04-10 11:35:00,METAR KGVT 101135Z AUTO 16005KT 10SM CLR 16/ A3018 RMK AO2,0,5,0,16090,0,0,0,
2026-04-10 11:15:00,METAR KGVT 101115Z AUTO 17006KT 10SM CLR 17/17 A3017 RMK AO2,0,6,0,16090,0,0,0,
2026-04-10 10:55:00,METAR KGVT 101055Z AUTO 17006KT 10SM CLR 17/17 A3016 RMK AO2,0,6,0,16090,0,0,0,
2026-04-10 10:35:00,METAR KGVT 101035Z AUTO 17006KT 10SM CLR 17/17 A3016 RMK AO2,0,6,0,16090,0,0,0,
2026-04-10 10:15:00,METAR KGVT 101015Z AUTO 17005KT 10SM CLR 16/16 A3015 RMK AO2,0,5,0,16090,0,0,0,
2026-04-10 09:55:00,METAR KGVT 100955Z AUTO 17004KT 10SM CLR 16/16 A3015 RMK AO2,0,4,0,16090,0,0,0,
2026-04-10 09:35:00,METAR KGVT 100935Z AUTO 16004KT 10SM CLR 16/16 A3015 RMK AO2,0,4,0,16090,0,0,0,
2026-04-10 09:15:00,METAR KGVT 100915Z AUTO 17004KT 10SM CLR 16/16 A3015 RMK AO2,0,4,0,16090,0,0,0,
2026-04-10 08:55:00,METAR KGVT 100855Z AUTO 16005KT 10SM CLR 16/15 A3015 RMK AO2,0,5,0,16090,0,0,0,
2026-04-10 08:35:00,METAR KGVT 100835Z AUTO 16004KT 10SM CLR 16/15 A3015 RMK AO2,0,4,0,16090,0,0,0,
2026-04-10 08:15:00,METAR KGVT 100815Z AUTO 17004KT 10SM CLR 16/15 A3015 RMK AO2,0,4,0,16090,0,0,0,
2026-04-10 07:55:00,METAR KGVT 100755Z AUTO 16005KT 10SM CLR 17/16 A3014 RMK AO2,0,5,0,16090,0,0,0,
2026-04-10 07:35:00,METAR KGVT 100735Z AUTO 17006KT 10SM CLR 18/15 A3014 RMK AO2,0,6,0,16090,0,0,0,
2026-04-10 07:15:00,METAR KGVT 100715Z AUTO 18008KT 10SM SCT085 19/15 A3014 RMK AO2,0,8,0,16090,0,0,0,
2026-04-10 06:55:00,METAR KGVT 100655Z AUTO 17011KT 10SM CLR 19/15 A3013 RMK AO2,0,11,0,16090,0,0,0,
2026-04-10 06:35:00,METAR KGVT 100635Z AUTO 16012KT 10SM SCT090 19/15 A3013 RMK AO2,0,12,0,16090,0,0,0,
2026-04-10 06:15:00,METAR KGVT 100615Z AUTO 16007KT 10SM SCT060 BKN090 18/15 A3013 RMK AO2,0,7,0,16090,0,0,0,
2026-04-10 05:55:00,METAR KGVT 100555Z AUTO 15005KT 10SM SCT060 17/15 A3013 RMK AO2,0,5,0,16090,0,0,0,
2026-04-10 05:35:00,METAR KGVT 100535Z AUTO 14006KT 10SM CLR 17/14 A3013 RMK AO2,0,6,0,16090,0,0,0,
2026-04-10 05:15:00,METAR KGVT 100515Z AUTO 13006KT 10SM CLR 17/14 A3013 RMK AO2,0,6,0,16090,0,0,0,
2026-04-10 04:55:00,METAR KGVT 100455Z AUTO 13006KT 10SM CLR 17/14 A3013 RMK AO2,0,6,0,16090,0,0,0,
2026-04-10 04:35:00,METAR KGVT 100435Z AUTO 14006KT 10SM CLR 17/14 A3013 RMK AO2,0,6,0,16090,0,0,0,
2026-04-10 04:15:00,METAR KGVT 100415Z AUTO 14006KT 10SM CLR 16/14 A3013 RMK AO2,0,6,0,16090,0,0,0,
2026-04-10 03:55:00,METAR KGVT 100355Z AUTO 14005KT 10SM CLR 17/14 A3013 RMK AO2,0,5,0,16090,0,0,0,
2026-04-10 03:35:00,METAR KGVT 100335Z AUTO 12004KT 10SM CLR 17/14 A3013 RMK AO2,0,4,0,16090,0,0,0,
2026-04-10 03:15:00,METAR KGVT 100315Z AUTO 14005KT 10SM CLR 17/14 A3013 RMK AO2,0,5,0,16090,0,0,0,
2026-04-10 02:55:00,METAR KGVT 100255Z AUTO 14004KT 10SM CLR 17/14 A3013 RMK AO2,0,4,0,16090,0,0,0,
2026-04-10 02:35:00,METAR KGVT 100235Z AUTO 14006KT 10SM CLR 18/14 A3013 RMK AO2,0,6,0,16090,0,0,0,
2026-04-10 02:15:00,METAR KGVT 100215Z AUTO 12005KT 10SM CLR 18/14 A3012 RMK AO2,0,5,0,16090,0,0,0,
2026-04-10 01:55:00,METAR KGVT 100155Z AUTO 11004KT 10SM CLR 19/14 A3011 RMK AO2,0,4,0,16090,0,0,0,
2026-04-10 01:35:00,METAR KGVT 100135Z AUTO 11004KT 7SM CLR 19/14 A3011 RMK AO2,0,4,0,11263,0,0,0,
2026-04-10 01:15:00,METAR KGVT 100115Z AUTO 09004KT 10SM CLR 20/14 A3011 RMK AO2,0,4,0,16090,0,0,0,
2026-04-10 00:55:00,METAR KGVT 100055Z AUTO 11005KT 10SM CLR 21/14 A3011 RMK AO2,0,5,0,16090,0,0,0,
2026-04-10 00:35:00,METAR KGVT 100035Z AUTO 12006KT 10SM CLR 22/14 A3010 RMK AO2,0,6,0,16090,0,0,0,
2026-04-10 00:15:00,METAR KGVT 100015Z AUTO 13007KT 10SM CLR 24/13 A3011 RMK AO2,0,7,0,16090,0,0,0,
2026-04-09 23:55:00,METAR KGVT 092355Z AUTO 14009KT 10SM CLR 24/13 A3010 RMK AO2,0,9,0,16090,0,0,0,
2026-04-09 23:35:00,METAR KGVT 092335Z AUTO 14011KT 10SM CLR 25/13 A3010 RMK AO2 LTG DSNT N,0,11,0,16090,0,0,0,DS
2026-04-09 23:15:00,METAR KGVT 092315Z AUTO 14011KT 10SM CLR 25/13 A3010 RMK AO2,0,11,0,16090,0,0,0,
2026-04-09 22:55:00,METAR KGVT 092255Z AUTO 16009KT 10SM CLR 26/12 A3010 RMK AO2,0,9,0,16090,0,0,0,
2026-04-09 22:35:00,METAR KGVT 092235Z AUTO 17010KT 10SM CLR 26/13 A3010 RMK AO2,0,10,0,16090,0,0,0,
2026-04-09 22:15:00,METAR KGVT 092215Z AUTO 14011KT 10SM CLR 26/13 A3010 RMK AO2,0,11,0,16090,0,0,0,
2026-04-09 21:55:00,METAR KGVT 092155Z AUTO 16011KT 10SM CLR 26/13 A3011 RMK AO2,0,11,0,16090,0,0,0,
2026-04-09 21:35:00,METAR KGVT 092135Z AUTO 15011KT 10SM SCT070 26/12 A3012 RMK AO2,0,11,0,16090,0,0,0,
2026-04-09 21:15:00,METAR KGVT 092115Z AUTO 16010KT 10SM SCT070 26/13 A3012 RMK AO2,0,10,0,16090,0,0,0,
2026-04-09 20:55:00,METAR KGVT 092055Z AUTO 17010KT 10SM CLR 25/13 A3013 RMK AO2,0,10,0,16090,0,0,0,
2026-04-09 20:35:00,METAR KGVT 092035Z AUTO 15011G16KT 10SM CLR 26/13 A3013 RMK AO2,0,11,1,16090,0,0,0,
2026-04-09 20:15:00,METAR KGVT 092015Z AUTO 15011KT 10SM CLR 26/13 A3014 RMK AO2,0,11,0,16090,0,0,0,
2026-04-09 19:55:00,METAR KGVT 091955Z AUTO 17009G15KT 10SM CLR 25/13 A3015 RMK AO2,0,9,1,16090,0,0,0,
2026-04-09 19:35:00,METAR KGVT 091935Z AUTO 14011G17KT 10SM CLR 25/14 A3015 RMK AO2,0,11,1,16090,0,0,0,
2026-04-09 19:15:00,METAR KGVT 091915Z AUTO 16010G14KT 10SM CLR 25/14 A3016 RMK AO2,0,10,1,16090,0,0,0,
2026-04-09 18:55:00,METAR KGVT 091855Z AUTO 17012KT 10SM CLR 24/15 A3017 RMK AO2,0,12,0,16090,0,0,0,
2026-04-09 18:35:00,METAR KGVT 091835Z AUTO 17012KT 10SM CLR 24/15 A3018 RMK AO2,0,12,0,16090,0,0,0,
2026-04-09 18:15:00,METAR KGVT 091815Z AUTO 16011KT 10SM CLR 24/15 A3019 RMK AO2,0,11,0,16090,0,0,0,
2026-04-09 17:55:00,METAR KGVT 091755Z AUTO 14013KT 10SM CLR 23/15 A3019 RMK AO2,0,13,0,16090,0,0,0,
2026-04-09 17:35:00,METAR KGVT 091735Z AUTO 15013KT 10SM CLR 23/16 A3020 RMK AO2,0,13,0,16090,0,0,0,
2026-04-09 17:15:00,METAR KGVT 091715Z AUTO 15011KT 10SM CLR 23/17 A3021 RMK AO2,0,11,0,16090,0,0,0,
2026-04-09 16:55:00,METAR KGVT 091655Z AUTO 15011KT 10SM CLR 22/17 A3021 RMK AO2,0,11,0,16090,0,0,0,
2026-04-09 16:35:00,METAR KGVT 091635Z AUTO 15010KT 10SM CLR 22/17 A3021 RMK AO2,0,10,0,16090,0,0,0,
2026-04-09 16:15:00,METAR KGVT 091615Z AUTO 16006KT 10SM SCT019 22/17 A3021 RMK AO2,0,6,0,16090,0,0,0,
2026-04-09 15:55:00,METAR KGVT 091555Z AUTO 17011KT 10SM SCT017 SCT022 21/17 A3021 RMK AO2,0,11,0,16090,0,0,0,
2026-04-09 15:35:00,METAR KGVT 091535Z AUTO 17011KT 10SM BKN015 20/17 A3021 RMK AO2,0,11,0,16090,0,0,0,
2026-04-09 15:15:00,METAR KGVT 091515Z AUTO 18011KT 10SM OVC015 19/17 A3021 RMK AO2,0,11,0,16090,0,0,0,
2026-04-09 14:55:00,METAR KGVT 091455Z AUTO 16012KT 10SM OVC011 19/17 A3021 RMK AO2,0,12,0,16090,0,0,0,
2026-04-09 14:35:00,METAR KGVT 091435Z AUTO 16009KT 10SM BKN008 OVC015 18/18 A3021 RMK AO2,0,9,0,16090,0,0,0,
2026-04-09 14:15:00,METAR KGVT 091415Z AUTO 16010KT 10SM OVC008 18/17 A3021 RMK AO2,0,10,0,16090,0,0,0,
2026-04-09 13:55:00,METAR KGVT 091355Z AUTO 17009KT 10SM OVC006 17/ A3020 RMK AO2,0,9,0,16090,0,0,0,
2026-04-09 13:35:00,METAR KGVT 091335Z AUTO 17009KT 10SM OVC006 17/ A3020 RMK AO2,0,9,0,16090,0,0,0,
2026-04-09 13:15:00,METAR KGVT 091315Z AUTO 16011G14KT 10SM OVC006 17/ A3019 RMK AO2,0,11,1,16090,0,0,0,
2026-04-09 12:55:00,METAR KGVT 091255Z AUTO 15004KT 10SM OVC006 16/ A3018 RMK AO2,0,4,0,16090,0,0,0,
2026-04-09 12:35:00,METAR KGVT 091235Z AUTO 14006KT 10SM SCT008 14/ A3017 RMK AO2,0,6,0,16090,0,0,0,
2026-04-09 12:15:00,METAR KGVT 091215Z AUTO 14006KT 10SM CLR 14/ A3017 RMK AO2,0,6,0,16090,0,0,0,
2026-04-09 11:55:00,METAR KGVT 091155Z AUTO 12004KT 10SM CLR 14/ A3016 RMK AO2,0,4,0,16090,0,0,0,
2026-04-09 11:35:00,METAR KGVT 091135Z AUTO 16005KT 10SM CLR 14/ A3016 RMK AO2,0,5,0,16090,0,0,0,
2026-04-09 11:15:00,METAR KGVT 091115Z AUTO 17005KT 10SM CLR 13/13 A3015 RMK AO2,0,5,0,16090,0,0,0,
2026-04-09 10:55:00,METAR KGVT 091055Z AUTO 16005KT 10SM CLR 14/13 A3014 RMK AO2,0,5,0,16090,0,0,0,
2026-04-09 10:35:00,METAR KGVT 091035Z AUTO 17004KT 10SM CLR 14/13 A3014 RMK AO2,0,4,0,16090,0,0,0,
2026-04-09 10:15:00,METAR KGVT 091015Z AUTO 17004KT 10SM CLR 13/13 A3014 RMK AO2,0,4,0,16090,0,0,0,
2026-04-09 09:55:00,METAR KGVT 090955Z AUTO 17005KT 10SM CLR 14/13 A3013 RMK AO2,0,5,0,16090,0,0,0,
2026-04-09 09:35:00,METAR KGVT 090935Z AUTO 17004KT 10SM CLR 15/13 A3013 RMK AO2,0,4,0,16090,0,0,0,
2026-04-09 09:15:00,METAR KGVT 090915Z AUTO 17006KT 10SM CLR 14/13 A3013 RMK AO2,0,6,0,16090,0,0,0,
2026-04-09 08:55:00,METAR KGVT 090855Z AUTO 17005KT 10SM CLR 13/12 A3013 RMK AO2,0,5,0,16090,0,0,0,
2026-04-09 08:35:00,METAR KGVT 090835Z AUTO 15005KT 10SM CLR 13/12 A3013 RMK AO2,0,5,0,16090,0,0,0,
2026-04-09 08:15:00,METAR KGVT 090815Z AUTO 00000KT 10SM CLR 13/11 A3013 RMK AO2,0,0,0,16090,0,0,0,
2026-04-09 07:55:00,METAR KGVT 090755Z AUTO 00000KT 10SM CLR 14/10 A3013 RMK AO2,0,0,0,16090,0,0,0,
2026-04-09 07:35:00,METAR KGVT 090735Z AUTO 00000KT 10SM CLR 14/10 A3012 RMK AO2,0,0,0,16090,0,0,0,
2026-04-09 07:15:00,METAR KGVT 090715Z AUTO 00000KT 10SM CLR 13/10 A3012 RMK AO2,0,0,0,16090,0,0,0,
2026-04-09 06:55:00,METAR KGVT 090655Z AUTO 00000KT 10SM CLR 12/11 A3012 RMK AO2,0,0,0,16090,0,0,0,
2026-04-09 06:35:00,METAR KGVT 090635Z AUTO 00000KT 10SM CLR 13/11 A3012 RMK AO2,0,0,0,16090,0,0,0,
2026-04-09 06:15:00,METAR KGVT 090615Z AUTO 00000KT 10SM CLR 13/11 A3012 RMK AO2,0,0,0,16090,0,0,0,
2026-04-09 05:55:00,METAR KGVT 090555Z AUTO 00000KT 10SM CLR 13/11 A3011 RMK AO2,0,0,0,16090,0,0,0,
2026-04-09 05:35:00,METAR KGVT 090535Z AUTO 00000KT 10SM CLR 14/12 A3011 RMK AO2,0,0,0,16090,0,0,0,
2026-04-09 05:15:00,METAR KGVT 090515Z AUTO 00000KT 10SM CLR 14/12 A3011 RMK AO2,0,0,0,16090,0,0,0,
2026-04-09 04:55:00,METAR KGVT 090455Z AUTO 00000KT 10SM CLR 15/11 A3011 RMK AO2,0,0,0,16090,0,0,0,
2026-04-09 04:35:00,METAR KGVT 090435Z AUTO 12003KT 10SM CLR 15/10 A3011 RMK AO2,0,3,0,16090,0,0,0,
2026-04-09 04:15:00,METAR KGVT 090415Z AUTO 13003KT 10SM SCT100 14/11 A3010 RMK AO2,0,3,0,16090,0,0,0,
2026-04-09 03:55:00,METAR KGVT 090355Z AUTO 12003KT 10SM BKN100 15/11 A3010 RMK AO2,0,3,0,16090,0,0,0,
2026-04-09 03:35:00,METAR KGVT 090335Z AUTO 00000KT 10SM SCT100 15/13 A3011 RMK AO2,0,0,0,16090,0,0,0,
2026-04-09 03:15:00,METAR KGVT 090315Z AUTO 00000KT 10SM CLR 15/12 A3010 RMK AO2,0,0,0,16090,0,0,0,
2026-04-09 02:55:00,METAR KGVT 090255Z AUTO 00000KT 10SM CLR 16/11 A3009 RMK AO2,0,0,0,16090,0,0,0,
2026-04-09 02:35:00,METAR KGVT 090235Z AUTO 00000KT 10SM CLR 16/12 A3009 RMK AO2,0,0,0,16090,0,0,0,
2026-04-09 02:15:00,METAR KGVT 090215Z AUTO 00000KT 10SM SCT120 16/13 A3008 RMK AO2,0,0,0,16090,0,0,0,
2026-04-09 01:55:00,METAR KGVT 090155Z AUTO 14003KT 10SM BKN120 18/11 A3007 RMK AO2,0,3,0,16090,0,0,0,
2026-04-09 01:35:00,METAR KGVT 090135Z AUTO 19003KT 10SM SCT120 18/11 A3006 RMK AO2,0,3,0,16090,0,0,0,
2026-04-09 01:15:00,METAR KGVT 090115Z AUTO 16005KT 10SM BKN120 19/11 A3006 RMK AO2,0,5,0,16090,0,0,0,
2026-04-09 00:55:00,METAR KGVT 090055Z AUTO 15006KT 10SM BKN120 20/10 A3005 RMK AO2,0,6,0,16090,0,0,0,
2026-04-09 00:35:00,METAR KGVT 090035Z AUTO 16004KT 10SM SCT120 21/11 A3005 RMK AO2,0,4,0,16090,0,0,0,
2026-04-09 00:15:00,METAR KGVT 090015Z AUTO 16005KT 10SM SCT120 22/11 A3005 RMK AO2,0,5,0,16090,0,0,0,
2026-04-08 23:55:00,METAR KGVT 082355Z AUTO 16005KT 10SM SCT120 22/11 A3005 RMK AO2,0,5,0,16090,0,0,0,
2026-04-08 23:35:00,METAR KGVT 082335Z AUTO 15005KT 7SM HZ BKN120 23/10 A3005 RMK AO2,0,5,0,11263,0,0,0,
2026-04-08 23:15:00,METAR KGVT 082315Z AUTO 17007KT 10SM BKN120 23/08 A3005 RMK AO2,0,7,0,16090,0,0,0,
2026-04-08 22:55:00,METAR KGVT 082255Z AUTO 16010KT 10SM CLR 24/09 A3005 RMK AO2,0,10,0,16090,0,0,0,
2026-04-08 22:35:00,METAR KGVT 082235Z AUTO 15010KT 10SM CLR 25/09 A3005 RMK AO2,0,10,0,16090,0,0,0,
2026-04-08 22:15:00,METAR KGVT 082215Z AUTO 14012KT 10SM CLR 24/08 A3005 RMK AO2,0,12,0,16090,0,0,0,
2026-04-08 21:55:00,METAR KGVT 082155Z AUTO 14010KT 10SM CLR 25/08 A3006 RMK AO2,0,10,0,16090,0,0,0,
2026-04-08 21:35:00,METAR KGVT 082135Z AUTO 14012KT 10SM CLR 25/08 A3006 RMK AO2,0,12,0,16090,0,0,0,
2026-04-08 21:15:00,METAR KGVT 082115Z AUTO 14010KT 10SM SCT110 25/08 A3006 RMK AO2,0,10,0,16090,0,0,0,
2026-04-08 20:55:00,METAR KGVT 082055Z AUTO 15013KT 10SM BKN110 25/08 A3007 RMK AO2,0,13,0,16090,0,0,0,
2026-04-08 20:15:00,METAR KGVT 082015Z AUTO 15011KT 10SM OVC110 25/08 A3009 RMK AO2,0,11,0,16090,0,0,0,
2026-04-08 19:55:00,METAR KGVT 081955Z AUTO 16012G19KT 10SM OVC110 24/08 A3009 RMK AO2,0,12,1,16090,0,0,0,
2026-04-08 19:35:00,METAR KGVT 081935Z AUTO 15016KT 10SM OVC120 24/07 A3009 RMK AO2,0,16,0,16090,0,0,0,
2026-04-08 19:15:00,METAR KGVT 081915Z AUTO 15013G21KT 10SM SCT120 24/08 A3010 RMK AO2,0,13,1,16090,0,0,0,
2026-04-08 18:55:00,METAR KGVT 081855Z AUTO 13010KT 10SM CLR 24/08 A3011 RMK AO2,0,10,0,16090,0,0,0,
2026-04-08 18:35:00,METAR KGVT 081835Z AUTO 15015G19KT 10SM CLR 24/08 A3012 RMK AO2,0,15,1,16090,0,0,0,
2026-04-08 18:15:00,METAR KGVT 081815Z AUTO 15010KT 10SM CLR 23/09 A3012 RMK AO2,0,10,0,16090,0,0,0,
2026-04-08 17:55:00,METAR KGVT 081755Z AUTO 16010KT 10SM CLR 23/09 A3013 RMK AO2,0,10,0,16090,0,0,0,
2026-04-08 17:35:00,METAR KGVT 081735Z AUTO 14010KT 10SM CLR 23/08 A3014 RMK AO2,0,10,0,16090,0,0,0,
2026-04-08 17:15:00,METAR KGVT 081715Z AUTO 16009KT 10SM CLR 23/09 A3014 RMK AO2,0,9,0,16090,0,0,0,
2026-04-08 16:55:00,METAR KGVT 081655Z AUTO 16006G14KT 10SM CLR 22/08 A3015 RMK AO2,0,6,1,16090,0,0,0,
2026-04-08 16:35:00,METAR KGVT 081635Z AUTO 15009KT 10SM CLR 22/07 A3015 RMK AO2,0,9,0,16090,0,0,0,
2026-04-08 16:15:00,METAR KGVT 081615Z AUTO 16008KT 10SM CLR 22/07 A3015 RMK AO2,0,8,0,16090,0,0,0,
2026-04-08 15:55:00,METAR KGVT 081555Z AUTO 17009KT 10SM CLR 21/08 A3015 RMK AO2,0,9,0,16090,0,0,0,
2026-04-08 15:35:00,METAR KGVT 081535Z AUTO 17005KT 10SM CLR 20/09 A3015 RMK AO2,0,5,0,16090,0,0,0,
2026-04-08 15:15:00,METAR KGVT 081515Z AUTO 14006KT 10SM CLR 19/10 A3014 RMK AO2,0,6,0,16090,0,0,0,
2026-04-08 14:55:00,METAR KGVT 081455Z AUTO 14006KT 10SM CLR 18/10 A3014 RMK AO2,0,6,0,16090,0,0,0,
2026-04-08 14:35:00,METAR KGVT 081435Z AUTO 14006KT 10SM CLR 17/10 A3014 RMK AO2,0,6,0,16090,0,0,0,
2026-04-08 14:15:00,METAR KGVT 081415Z AUTO 14005KT 10SM CLR 16/11 A3015 RMK AO2,0,5,0,16090,0,0,0,
2026-04-08 13:55:00,METAR KGVT 081355Z AUTO 00000KT 10SM CLR 14/11 A3015 RMK AO2,0,0,0,16090,0,0,0,
2026-04-08 13:35:00,METAR KGVT 081335Z AUTO 00000KT 10SM CLR 14/11 A3015 RMK AO2,0,0,0,16090,0,0,0,
2026-04-08 13:15:00,METAR KGVT 081315Z AUTO 11003KT 10SM CLR 13/10 A3014 RMK AO2,0,3,0,16090,0,0,0,
2026-04-08 12:55:00,METAR KGVT 081255Z AUTO 15003KT 10SM CLR 12/10 A3014 RMK AO2,0,3,0,16090,0,0,0,
2026-04-08 12:35:00,METAR KGVT 081235Z AUTO 14005KT 10SM CLR 12/09 A3013 RMK AO2,0,5,0,16090,0,0,0,
2026-04-08 12:15:00,METAR KGVT 081215Z AUTO 00000KT 10SM CLR 11/09 A3012 RMK AO2,0,0,0,16090,0,0,0,
2026-04-08 11:55:00,METAR KGVT 081155Z AUTO 12003KT 10SM CLR 11/10 A3012 RMK AO2,0,3,0,16090,0,0,0,
2026-04-08 11:35:00,METAR KGVT 081135Z AUTO 00000KT 10SM CLR 11/10 A3012 RMK AO2,0,0,0,16090,0,0,0,
2026-04-08 11:15:00,METAR KGVT 081115Z AUTO 00000KT 10SM CLR 11/09 A3012 RMK AO2,0,0,0,16090,0,0,0,
2026-04-08 10:55:00,METAR KGVT 081055Z AUTO 00000KT 10SM CLR 11/10 A3011 RMK AO2,0,0,0,16090,0,0,0,
2026-04-08 10:35:00,METAR KGVT 081035Z AUTO 00000KT 10SM CLR 10/09 A3011 RMK AO2,0,0,0,16090,0,0,0,
2026-04-08 10:15:00,METAR KGVT 081015Z AUTO 00000KT 10SM CLR 10/09 A3011 RMK AO2,0,0,0,16090,0,0,0,
2026-04-08 09:55:00,METAR KGVT 080955Z AUTO 00000KT 10SM CLR 11/09 A3011 RMK AO2,0,0,0,16090,0,0,0,
2026-04-08 09:35:00,METAR KGVT 080935Z AUTO 00000KT 10SM CLR 11/09 A3011 RMK AO2,0,0,0,16090,0,0,0,
2026-04-08 09:15:00,METAR KGVT 080915Z AUTO 12004KT 10SM CLR 10/09 A3011 RMK AO2,0,4,0,16090,0,0,0,
2026-04-08 08:55:00,METAR KGVT 080855Z AUTO 00000KT 10SM CLR 10/09 A3011 RMK AO2,0,0,0,16090,0,0,0,
2026-04-08 08:35:00,METAR KGVT 080835Z AUTO 00000KT 10SM CLR 12/10 A3011 RMK AO2,0,0,0,16090,0,0,0,
2026-04-08 08:15:00,METAR KGVT 080815Z AUTO 00000KT 10SM CLR 12/10 A3011 RMK AO2,0,0,0,16090,0,0,0,
2026-04-08 07:55:00,METAR KGVT 080755Z AUTO 00000KT 10SM CLR 12/11 A3011 RMK AO2,0,0,0,16090,0,0,0,
2026-04-08 07:35:00,METAR KGVT 080735Z AUTO 00000KT 10SM CLR 12/10 A3011 RMK AO2,0,0,0,16090,0,0,0,
2026-04-08 07:15:00,METAR KGVT 080715Z AUTO 00000KT 10SM CLR 12/10 A3012 RMK AO2,0,0,0,16090,0,0,0,
2026-04-08 06:55:00,METAR KGVT 080655Z AUTO 00000KT 10SM CLR 13/10 A3012 RMK AO2,0,0,0,16090,0,0,0,
2026-04-08 06:35:00,METAR KGVT 080635Z AUTO 00000KT 10SM CLR 12/10 A3012 RMK AO2,0,0,0,16090,0,0,0,
2026-04-08 06:15:00,METAR KGVT 080615Z AUTO 00000KT 10SM CLR 12/11 A3012 RMK AO2,0,0,0,16090,0,0,0,
2026-04-08 05:55:00,METAR KGVT 080555Z AUTO 00000KT 10SM CLR 12/11 A3012 RMK AO2,0,0,0,16090,0,0,0,
2026-04-08 05:35:00,METAR KGVT 080535Z AUTO 00000KT 10SM CLR 13/11 A3012 RMK AO2,0,0,0,16090,0,0,0,
2026-04-08 05:15:00,METAR KGVT 080515Z AUTO 00000KT 10SM CLR 13/11 A3012 RMK AO2,0,0,0,16090,0,0,0,
2026-04-08 04:55:00,METAR KGVT 080455Z AUTO 00000KT 10SM CLR 13/10 A3012 RMK AO2,0,0,0,16090,0,0,0,
2026-04-08 04:35:00,METAR KGVT 080435Z AUTO 00000KT 10SM CLR 14/09 A3012 RMK AO2,0,0,0,16090,0,0,0,
2026-04-08 04:15:00,METAR KGVT 080415Z AUTO 00000KT 10SM CLR 14/09 A3012 RMK AO2,0,0,0,16090,0,0,0,
2026-04-08 03:50:00,METAR KGVT 080350Z AUTO 10004KT 7SM CLR 14/09 A3012 RMK AO2,0,4,0,11263,0,0,0,
2026-04-08 03:35:00,METAR KGVT 080335Z AUTO 10003KT 10SM CLR 14/09 A3012 RMK AO2,0,3,0,16090,0,0,0,
2026-04-08 03:15:00,METAR KGVT 080315Z AUTO 09003KT 10SM CLR 14/10 A3011 RMK AO2,0,3,0,16090,0,0,0,
2026-04-08 02:55:00,METAR KGVT 080255Z AUTO 00000KT 10SM CLR 15/10 A3011 RMK AO2,0,0,0,16090,0,0,0,
2026-04-08 02:35:00,METAR KGVT 080235Z AUTO 00000KT 10SM CLR 15/09 A3011 RMK AO2,0,0,0,16090,0,0,0,
2026-04-08 01:55:00,METAR KGVT 080155Z AUTO 09003KT 10SM CLR 16/09 A3009 RMK AO2,0,3,0,16090,0,0,0,
2026-04-08 01:35:00,METAR KGVT 080135Z AUTO 00000KT 10SM CLR 17/09 A3009 RMK AO2,0,0,0,16090,0,0,0,
2026-04-08 01:15:00,METAR KGVT 080115Z AUTO 07004KT 10SM CLR 19/07 A3008 RMK AO2,0,4,0,16090,0,0,0,
2026-04-08 00:55:00,METAR KGVT 080055Z AUTO 06003KT 10SM CLR 19/07 A3008 RMK AO2,0,3,0,16090,0,0,0,
2026-04-08 00:35:00,METAR KGVT 080035Z AUTO 06004KT 10SM CLR 19/08 A3008 RMK AO2,0,4,0,16090,0,0,0,
2026-04-08 00:15:00,METAR KGVT 080015Z AUTO 12004KT 10SM CLR 19/08 A3008 RMK AO2,0,4,0,16090,0,0,0,
2026-04-07 23:55:00,METAR KGVT 072355Z AUTO 13005KT 10SM CLR 21/07 A3008 RMK AO2,0,5,0,16090,0,0,0,
2026-04-07 23:35:00,METAR KGVT 072335Z AUTO 13007KT 10SM CLR 21/08 A3008 RMK AO2,0,7,0,16090,0,0,0,
2026-04-07 23:15:00,METAR KGVT 072315Z AUTO 12007KT 10SM CLR 22/06 A3008 RMK AO2,0,7,0,16090,0,0,0,
2026-04-07 22:55:00,METAR KGVT 072255Z AUTO 10006KT 10SM CLR 22/05 A3008 RMK AO2,0,6,0,16090,0,0,0,
2026-04-07 22:35:00,METAR KGVT 072235Z AUTO 13009KT 10SM CLR 22/05 A3009 RMK AO2,0,9,0,16090,0,0,0,
2026-04-07 22:15:00,METAR KGVT 072215Z AUTO 12011KT 10SM CLR 22/05 A3009 RMK AO2,0,11,0,16090,0,0,0,
2026-04-07 21:55:00,METAR KGVT 072155Z AUTO 14009KT 10SM CLR 22/06 A3009 RMK AO2,0,9,0,16090,0,0,0,
2026-04-07 21:35:00,METAR KGVT 072135Z AUTO 11008KT 10SM CLR 22/05 A3010 RMK AO2,0,8,0,16090,0,0,0,
2026-04-07 21:15:00,METAR KGVT 072115Z AUTO 11005KT 10SM CLR 22/04 A3010 RMK AO2,0,5,0,16090,0,0,0,
2026-04-07 20:55:00,METAR KGVT 072055Z AUTO 11007KT 10SM CLR 22/05 A3011 RMK AO2,0,7,0,16090,0,0,0,
2026-04-07 20:35:00,METAR KGVT 072035Z AUTO 14005G16KT 10SM CLR 22/03 A3011 RMK AO2,0,5,1,16090,0,0,0,
2026-04-07 20:15:00,METAR KGVT 072015Z AUTO 12009KT 080V160 10SM CLR 22/03 A3012 RMK AO2,0,9,0,16090,0,0,0,
2026-04-07 19:55:00,METAR KGVT 071955Z AUTO 08008KT 10SM CLR 22/05 A3013 RMK AO2,0,8,0,16090,0,0,0,
2026-04-07 19:35:00,METAR KGVT 071935Z AUTO 17005KT 10SM CLR 21/05 A3014 RMK AO2,0,5,0,16090,0,0,0,
2026-04-07 19:15:00,METAR KGVT 071915Z AUTO 18006KT 10SM CLR 20/06 A3016 RMK AO2,0,6,0,16090,0,0,0,
2026-04-07 18:55:00,METAR KGVT 071855Z AUTO 18008KT 10SM CLR 21/05 A3016 RMK AO2,0,8,0,16090,0,0,0,
2026-04-07 18:35:00,METAR KGVT 071835Z AUTO 17010G15KT 10SM CLR 21/06 A3018 RMK AO2,0,10,1,16090,0,0,0,
2026-04-07 18:15:00,METAR KGVT 071815Z AUTO 14009KT 10SM CLR 21/05 A3019 RMK AO2,0,9,0,16090,0,0,0,
2026-04-07 17:55:00,METAR KGVT 071755Z AUTO 14012KT 10SM CLR 20/04 A3019 RMK AO2,0,12,0,16090,0,0,0,
2026-04-07 17:35:00,METAR KGVT 071735Z AUTO 14011G17KT 10SM CLR 20/04 A3020 RMK AO2,0,11,1,16090,0,0,0,
2026-04-07 17:15:00,METAR KGVT 071715Z AUTO 15011KT 10SM CLR 19/05 A3021 RMK AO2,0,11,0,16090,0,0,0,
2026-04-07 16:55:00,METAR KGVT 071655Z AUTO 15007KT 10SM CLR 19/05 A3022 RMK AO2,0,7,0,16090,0,0,0,
2026-04-07 16:35:00,METAR KGVT 071635Z AUTO 17007KT 10SM CLR 19/05 A3023 RMK AO2,0,7,0,16090,0,0,0,
2026-04-07 16:15:00,METAR KGVT 071615Z AUTO 16007KT 10SM CLR 18/05 A3023 RMK AO2,0,7,0,16090,0,0,0,
2026-04-07 15:55:00,METAR KGVT 071555Z AUTO 11007KT 10SM CLR 18/06 A3023 RMK AO2,0,7,0,16090,0,0,0,
2026-04-07 15:35:00,METAR KGVT 071535Z AUTO 13006KT 10SM CLR 17/07 A3023 RMK AO2,0,6,0,16090,0,0,0,
2026-04-07 15:15:00,METAR KGVT 071515Z AUTO 14006KT 10SM CLR 16/07 A3023 RMK AO2,0,6,0,16090,0,0,0,
2026-04-07 14:55:00,METAR KGVT 071455Z AUTO 13004KT 10SM CLR 15/07 A3023 RMK AO2,0,4,0,16090,0,0,0,
2026-04-07 14:35:00,METAR KGVT 071435Z AUTO 00000KT 10SM CLR 14/08 A3023 RMK AO2,0,0,0,16090,0,0,0,
2026-04-07 14:15:00,METAR KGVT 071415Z AUTO 12003KT 10SM CLR 13/07 A3022 RMK AO2,0,3,0,16090,0,0,0,
2026-04-07 13:55:00,METAR KGVT 071355Z AUTO 00000KT 10SM CLR 12/07 A3022 RMK AO2,0,0,0,16090,0,0,0,
2026-04-07 13:35:00,METAR KGVT 071335Z AUTO 00000KT 7SM CLR 11/06 A3022 RMK AO2,0,0,0,11263,0,0,0,
2026-04-07 13:15:00,METAR KGVT 071315Z AUTO 00000KT 10SM CLR 10/08 A3021 RMK AO2,0,0,0,16090,0,0,0,
2026-04-07 12:55:00,METAR KGVT 071255Z AUTO 00000KT 10SM CLR 08/07 A3021 RMK AO2,0,0,0,16090,0,0,0,
2026-04-07 12:35:00,METAR KGVT 071235Z AUTO 00000KT 10SM CLR 06/06 A3020 RMK AO2,0,0,0,16090,0,0,0,
2026-04-07 12:15:00,METAR KGVT 071215Z AUTO 00000KT 10SM CLR 06/06 A3019 RMK AO2,0,0,0,16090,0,0,0,
2026-04-07 11:55:00,METAR KGVT 071155Z AUTO 00000KT 10SM CLR 06/06 A3018 RMK AO2,0,0,0,16090,0,0,0,
2026-04-07 11:35:00,METAR KGVT 071135Z AUTO 00000KT 10SM CLR 06/06 A3018 RMK AO2,0,0,0,16090,0,0,0,
2026-04-07 11:15:00,METAR KGVT 071115Z AUTO 00000KT 10SM CLR 06/06 A3018 RMK AO2,0,0,0,16090,0,0,0,
2026-04-07 10:55:00,METAR KGVT 071055Z AUTO 00000KT 10SM CLR 06/06 A3018 RMK AO2,0,0,0,16090,0,0,0,
2026-04-07 10:35:00,METAR KGVT 071035Z AUTO 00000KT 10SM CLR 07/06 A3018 RMK AO2,0,0,0,16090,0,0,0,
2026-04-07 10:15:00,METAR KGVT 071015Z AUTO 00000KT 10SM CLR 07/07 A3018 RMK AO2,0,0,0,16090,0,0,0,
2026-04-07 09:55:00,METAR KGVT 070955Z AUTO 00000KT 10SM CLR 07/06 A3017 RMK AO2,0,0,0,16090,0,0,0,
2026-04-07 09:35:00,METAR KGVT 070935Z AUTO 00000KT 10SM CLR 07/06 A3017 RMK AO2,0,0,0,16090,0,0,0,
2026-04-07 09:15:00,METAR KGVT 070915Z AUTO 00000KT 10SM CLR 08/06 A3017 RMK AO2,0,0,0,16090,0,0,0,
2026-04-07 08:55:00,METAR KGVT 070855Z AUTO 00000KT 10SM CLR 07/07 A3017 RMK AO2,0,0,0,16090,0,0,0,
2026-04-07 08:35:00,METAR KGVT 070835Z AUTO 00000KT 10SM CLR 08/07 A3017 RMK AO2,0,0,0,16090,0,0,0,
2026-04-07 08:15:00,METAR KGVT 070815Z AUTO 00000KT 10SM CLR 09/06 A3017 RMK AO2,0,0,0,16090,0,0,0,
2026-04-07 07:55:00,METAR KGVT 070755Z AUTO 00000KT 10SM CLR 07/06 A3017 RMK AO2,0,0,0,16090,0,0,0,
2026-04-07 07:35:00,METAR KGVT 070735Z AUTO 00000KT 10SM CLR 07/07 A3018 RMK AO2,0,0,0,16090,0,0,0,
2026-04-07 07:15:00,METAR KGVT 070715Z AUTO 00000KT 10SM CLR 08/08 A3019 RMK AO2,0,0,0,16090,0,0,0,
2026-04-07 06:55:00,METAR KGVT 070655Z AUTO 00000KT 10SM CLR 08/08 A3020 RMK AO2,0,0,0,16090,0,0,0,
2026-04-07 06:35:00,METAR KGVT 070635Z AUTO 00000KT 10SM CLR 08/ A3020 RMK AO2,0,0,0,16090,0,0,0,
2026-04-07 06:15:00,METAR KGVT 070615Z AUTO 00000KT 10SM CLR 08/ A3019 RMK AO2,0,0,0,16090,0,0,0,
2026-04-07 05:55:00,METAR KGVT 070555Z AUTO 00000KT 10SM CLR 09/09 A3020 RMK AO2,0,0,0,16090,0,0,0,
2026-04-07 05:35:00,METAR KGVT 070535Z AUTO 00000KT 10SM CLR 09/09 A3020 RMK AO2,0,0,0,16090,0,0,0,
2026-04-07 05:15:00,METAR KGVT 070515Z AUTO 00000KT 10SM CLR 08/08 A3020 RMK AO2,0,0,0,16090,0,0,0,
2026-04-07 04:55:00,METAR KGVT 070455Z AUTO 00000KT 10SM CLR 09/09 A3020 RMK AO2,0,0,0,16090,0,0,0,
2026-04-07 04:35:00,METAR KGVT 070435Z AUTO 00000KT 10SM CLR 08/08 A3020 RMK AO2,0,0,0,16090,0,0,0,
2026-04-07 04:15:00,METAR KGVT 070415Z AUTO 00000KT 10SM CLR 10/09 A3020 RMK AO2,0,0,0,16090,0,0,0,
2026-04-07 03:55:00,METAR KGVT 070355Z AUTO 00000KT 10SM CLR 10/09 A3020 RMK AO2,0,0,0,16090,0,0,0,
2026-04-07 03:35:00,METAR KGVT 070335Z AUTO 00000KT 10SM CLR 10/09 A3020 RMK AO2,0,0,0,16090,0,0,0,
2026-04-07 03:15:00,METAR KGVT 070315Z AUTO 00000KT 10SM CLR 11/09 A3021 RMK AO2,0,0,0,16090,0,0,0,
2026-04-07 02:55:00,METAR KGVT 070255Z AUTO 00000KT 10SM CLR 11/09 A3021 RMK AO2,0,0,0,16090,0,0,0,
2026-04-07 02:35:00,METAR KGVT 070235Z AUTO 00000KT 10SM CLR 10/08 A3021 RMK AO2,0,0,0,16090,0,0,0,
2026-04-07 02:15:00,METAR KGVT 070215Z AUTO 00000KT 10SM CLR 12/10 A3020 RMK AO2,0,0,0,16090,0,0,0,
2026-04-07 01:55:00,METAR KGVT 070155Z AUTO 00000KT 10SM CLR 13/09 A3020 RMK AO2,0,0,0,16090,0,0,0,
2026-04-07 01:35:00,METAR KGVT 070135Z AUTO 00000KT 10SM CLR 13/09 A3019 RMK AO2,0,0,0,16090,0,0,0,
2026-04-07 01:15:00,METAR KGVT 070115Z AUTO 00000KT 7SM HZ CLR 15/09 A3019 RMK AO2,0,0,0,11263,0,0,0,
2026-04-07 00:55:00,METAR KGVT 070055Z AUTO 00000KT 10SM CLR 17/06 A3018 RMK AO2,0,0,0,16090,0,0,0,
2026-04-07 00:35:00,METAR KGVT 070035Z AUTO 04003KT 10SM CLR 19/05 A3019 RMK AO2,0,3,0,16090,0,0,0,
2026-04-07 00:15:00,METAR KGVT 070015Z AUTO 03003KT 10SM CLR 19/05 A3019 RMK AO2,0,3,0,16090,0,0,0,
2026-04-06 23:55:00,METAR KGVT 062355Z AUTO 05004KT 10SM CLR 20/05 A3019 RMK AO2,0,4,0,16090,0,0,0,
2026-04-06 23:35:00,METAR KGVT 062335Z AUTO 08004KT 10SM CLR 21/05 A3020 RMK AO2,0,4,0,16090,0,0,0,
2026-04-06 23:15:00,METAR KGVT 062315Z AUTO 08007KT 10SM CLR 21/04 A3020 RMK AO2,0,7,0,16090,0,0,0,
2026-04-06 22:55:00,METAR KGVT 062255Z AUTO 03006KT 10SM CLR 21/04 A3020 RMK AO2,0,6,0,16090,0,0,0,
2026-04-06 22:35:00,METAR KGVT 062235Z AUTO 04004KT 10SM CLR 21/04 A3020 RMK AO2,0,4,0,16090,0,0,0,
2026-04-06 22:15:00,METAR KGVT 062215Z AUTO 04005KT 10SM CLR 21/04 A3020 RMK AO2,0,5,0,16090,0,0,0,
2026-04-06 21:55:00,METAR KGVT 062155Z AUTO 06007KT 040V110 10SM CLR 21/04 A3020 RMK AO2,0,7,0,16090,0,0,0,
2026-04-06 21:35:00,METAR KGVT 062135Z AUTO 06007KT 10SM CLR 21/04 A3021 RMK AO2,0,7,0,16090,0,0,0,
2026-04-06 21:15:00,METAR KGVT 062115Z AUTO 11006KT 10SM CLR 21/04 A3021 RMK AO2,0,6,0,16090,0,0,0,
2026-04-06 20:55:00,METAR KGVT 062055Z AUTO 07008KT 040V100 10SM CLR 21/03 A3022 RMK AO2,0,8,0,16090,0,0,0,
2026-04-06 20:35:00,METAR KGVT 062035Z AUTO 10006KT 10SM CLR 21/04 A3023 RMK AO2,0,6,0,16090,0,0,0,
2026-04-06 20:15:00,METAR KGVT 062015Z AUTO 09005KT 10SM CLR 21/03 A3024 RMK AO2,0,5,0,16090,0,0,0,
2026-04-06 19:55:00,METAR KGVT 061955Z AUTO 07004KT 10SM CLR 20/03 A3025 RMK AO2,0,4,0,16090,0,0,0,
2026-04-06 19:35:00,METAR KGVT 061935Z AUTO 10003KT 10SM CLR 20/04 A3026 RMK AO2,0,3,0,16090,0,0,0,
2026-04-06 19:15:00,METAR KGVT 061915Z AUTO 09006KT 10SM CLR 20/04 A3027 RMK AO2,0,6,0,16090,0,0,0,
2026-04-06 18:35:00,METAR KGVT 061835Z AUTO 06005KT 10SM CLR 19/03 A3029 RMK AO2,0,5,0,16090,0,0,0,
2026-04-06 18:15:00,METAR KGVT 061815Z AUTO 14005KT 10SM CLR 19/03 A3030 RMK AO2,0,5,0,16090,0,0,0,
2026-04-06 17:55:00,METAR KGVT 061755Z AUTO 11006KT 10SM CLR 19/03 A3031 RMK AO2,0,6,0,16090,0,0,0,
2026-04-06 17:35:00,METAR KGVT 061735Z AUTO 11009KT 10SM CLR 19/03 A3032 RMK AO2,0,9,0,16090,0,0,0,
2026-04-06 17:15:00,METAR KGVT 061715Z AUTO 12007KT 090V170 10SM CLR 19/05 A3033 RMK AO2,0,7,0,16090,0,0,0,
2026-04-06 16:55:00,METAR KGVT 061655Z AUTO 00000KT 10SM CLR 18/03 A3034 RMK AO2,0,0,0,16090,0,0,0,
2026-04-06 16:35:00,METAR KGVT 061635Z AUTO 13010KT 3 1/2SM HZ CLR 18/04 A3035 RMK AO2,0,10,0,5632,0,0,0,
2026-04-06 16:15:00,METAR KGVT 061615Z AUTO 12008KT 4SM HZ CLR 17/04 A3036 RMK AO2,0,8,0,6436,0,0,0,
2026-04-06 15:55:00,METAR KGVT 061555Z AUTO 10009KT 10SM CLR 17/04 A3036 RMK AO2,0,9,0,16090,0,0,0,
2026-04-06 15:35:00,METAR KGVT 061535Z AUTO 10007KT 10SM CLR 17/05 A3036 RMK AO2,0,7,0,16090,0,0,0,
2026-04-06 14:55:00,METAR KGVT 061455Z AUTO 10007KT 10SM CLR 15/04 A3036 RMK AO2,0,7,0,16090,0,0,0,
2026-04-06 14:35:00,METAR KGVT 061435Z AUTO 09008KT 10SM CLR 15/05 A3036 RMK AO2,0,8,0,16090,0,0,0,
2026-04-06 14:15:00,METAR KGVT 061415Z AUTO 09005KT 10SM CLR 14/05 A3037 RMK AO2,0,5,0,16090,0,0,0,
2026-04-06 13:55:00,METAR KGVT 061355Z AUTO 08005KT 10SM CLR 12/05 A3037 RMK AO2,0,5,0,16090,0,0,0,
2026-04-06 13:35:00,METAR KGVT 061335Z AUTO 08006KT 10SM CLR 12/05 A3036 RMK AO2,0,6,0,16090,0,0,0,
2026-04-06 13:10:00,METAR KGVT 061310Z AUTO 05005KT 10SM CLR 10/05 A3035 RMK AO2,0,5,0,16090,0,0,0,
2026-04-06 12:55:00,METAR KGVT 061255Z AUTO 04003KT 10SM CLR 09/05 A3035 RMK AO2,0,3,0,16090,0,0,0,
2026-04-06 12:35:00,METAR KGVT 061235Z AUTO 02003KT 10SM CLR 08/04 A3035 RMK AO2,0,3,0,16090,0,0,0,
2026-04-06 12:15:00,METAR KGVT 061215Z AUTO 02003KT 10SM CLR 08/04 A3034 RMK AO2,0,3,0,16090,0,0,0,
2026-04-06 11:55:00,METAR KGVT 061155Z AUTO 02004KT 10SM CLR 08/04 A3033 RMK AO2,0,4,0,16090,0,0,0,
2026-04-06 11:35:00,METAR KGVT 061135Z AUTO 04003KT 10SM CLR 09/04 A3033 RMK AO2,0,3,0,16090,0,0,0,
2026-04-06 11:15:00,METAR KGVT 061115Z AUTO 05003KT 10SM CLR 09/04 A3033 RMK AO2,0,3,0,16090,0,0,0,
2026-04-06 10:55:00,METAR KGVT 061055Z AUTO 03003KT 10SM CLR 09/04 A3032 RMK AO2,0,3,0,16090,0,0,0,
2026-04-06 10:35:00,METAR KGVT 061035Z AUTO 03003KT 10SM CLR 09/04 A3032 RMK AO2,0,3,0,16090,0,0,0,
2026-04-06 10:15:00,METAR KGVT 061015Z AUTO 03004KT 10SM CLR 09/04 A3032 RMK AO2,0,4,0,16090,0,0,0,
2026-04-06 09:55:00,METAR KGVT 060955Z AUTO 03004KT 10SM CLR 09/04 A3032 RMK AO2,0,4,0,16090,0,0,0,
2026-04-06 09:30:00,METAR KGVT 060930Z AUTO 02003KT 10SM CLR 10/04 A3032 RMK AO2,0,3,0,16090,0,0,0,
2026-04-06 09:15:00,METAR KGVT 060915Z AUTO 02004KT 10SM CLR 09/05 A3032 RMK AO2,0,4,0,16090,0,0,0,
2026-04-06 08:55:00,METAR KGVT 060855Z AUTO 01004KT 10SM CLR 09/05 A3032 RMK AO2,0,4,0,16090,0,0,0,
2026-04-06 08:35:00,METAR KGVT 060835Z AUTO 01004KT 10SM CLR 09/04 A3032 RMK AO2,0,4,0,16090,0,0,0,
2026-04-06 08:15:00,METAR KGVT 060815Z AUTO 02004KT 10SM CLR 09/04 A3032 RMK AO2,0,4,0,16090,0,0,0,
2026-04-06 07:55:00,METAR KGVT 060755Z AUTO 01003KT 10SM CLR 10/04 A3032 RMK AO2,0,3,0,16090,0,0,0,
2026-04-06 07:35:00,METAR KGVT 060735Z AUTO 36004KT 10SM CLR 10/04 A3032 RMK AO2,0,4,0,16090,0,0,0,
2026-04-06 07:15:00,METAR KGVT 060715Z AUTO 01004KT 10SM CLR 10/04 A3032 RMK AO2,0,4,0,16090,0,0,0,
2026-04-06 06:50:00,METAR KGVT 060650Z AUTO 02004KT 10SM CLR 11/04 A3032 RMK AO2,0,4,0,16090,0,0,0,
2026-04-06 06:35:00,METAR KGVT 060635Z AUTO 01005KT 10SM CLR 12/04 A3032 RMK AO2,0,5,0,16090,0,0,0,
2026-04-06 06:15:00,METAR KGVT 060615Z AUTO 02005KT 10SM CLR 11/04 A3032 RMK AO2,0,5,0,16090,0,0,0,
2026-04-06 05:55:00,METAR KGVT 060555Z AUTO 01005KT 10SM CLR 11/04 A3032 RMK AO2,0,5,0,16090,0,0,0,
2026-04-06 05:35:00,METAR KGVT 060535Z AUTO 01005KT 10SM CLR 11/04 A3031 RMK AO2,0,5,0,16090,0,0,0,
2026-04-06 05:15:00,METAR KGVT 060515Z AUTO 01005KT 10SM CLR 12/04 A3031 RMK AO2,0,5,0,16090,0,0,0,
2026-04-06 04:55:00,METAR KGVT 060455Z AUTO 01004KT 10SM CLR 12/04 A3031 RMK AO2,0,4,0,16090,0,0,0,
2026-04-06 04:35:00,METAR KGVT 060435Z AUTO 01006KT 10SM CLR 12/04 A3030 RMK AO2,0,6,0,16090,0,0,0,
2026-04-06 04:15:00,METAR KGVT 060415Z AUTO 01007KT 10SM CLR 12/04 A3030 RMK AO2,0,7,0,16090,0,0,0,
2026-04-06 03:55:00,METAR KGVT 060355Z AUTO 01007KT 10SM CLR 12/04 A3031 RMK AO2,0,7,0,16090,0,0,0,
2026-04-06 03:35:00,METAR KGVT 060335Z AUTO 36007KT 10SM CLR 13/04 A3032 RMK AO2,0,7,0,16090,0,0,0,
2026-04-06 03:15:00,METAR KGVT 060315Z AUTO 01008KT 10SM CLR 14/04 A3031 RMK AO2,0,8,0,16090,0,0,0,
2026-04-06 02:55:00,METAR KGVT 060255Z AUTO 01007KT 10SM CLR 15/04 A3031 RMK AO2,0,7,0,16090,0,0,0,
2026-04-06 02:35:00,METAR KGVT 060235Z AUTO 36007KT 10SM CLR 14/04 A3031 RMK AO2,0,7,0,16090,0,0,0,
2026-04-06 02:15:00,METAR KGVT 060215Z AUTO 36007KT 10SM CLR 13/05 A3030 RMK AO2,0,7,0,16090,0,0,0,
2026-04-06 01:55:00,METAR KGVT 060155Z AUTO 36006KT 10SM CLR 14/05 A3030 RMK AO2,0,6,0,16090,0,0,0,
2026-04-06 01:35:00,METAR KGVT 060135Z AUTO 35004KT 10SM CLR 14/06 A3030 RMK AO2,0,4,0,16090,0,0,0,
2026-04-06 01:15:00,METAR KGVT 060115Z AUTO 36005KT 10SM CLR 15/05 A3029 RMK AO2,0,5,0,16090,0,0,0,
2026-04-06 00:55:00,METAR KGVT 060055Z AUTO 36006KT 10SM CLR 16/05 A3029 RMK AO2,0,6,0,16090,0,0,0,
2026-04-06 00:35:00,METAR KGVT 060035Z AUTO 01006KT 10SM CLR 17/05 A3029 RMK AO2,0,6,0,16090,0,0,0,
2026-04-06 00:15:00,METAR KGVT 060015Z AUTO 36007KT 10SM CLR 18/05 A3029 RMK AO2,0,7,0,16090,0,0,0,
2026-04-05 23:55:00,METAR KGVT 052355Z AUTO 01006KT 10SM CLR 19/04 A3029 RMK AO2,0,6,0,16090,0,0,0,
2026-04-05 23:35:00,METAR KGVT 052335Z AUTO 01011G17KT 10SM CLR 19/04 A3028 RMK AO2,0,11,1,16090,0,0,0,
2026-04-05 23:15:00,METAR KGVT 052315Z AUTO 02009KT 10SM CLR 19/04 A3028 RMK AO2,0,9,0,16090,0,0,0,
2026-04-05 22:55:00,METAR KGVT 052255Z AUTO 02009G16KT 10SM CLR 20/04 A3027 RMK AO2,0,9,1,16090,0,0,0,
2026-04-05 22:35:00,METAR KGVT 052235Z AUTO 03010G15KT 10SM CLR 20/04 A3028 RMK AO2,0,10,1,16090,0,0,0,
2026-04-05 22:15:00,METAR KGVT 052215Z AUTO 02012G18KT 10SM CLR 20/04 A3028 RMK AO2,0,12,1,16090,0,0,0,
2026-04-05 21:55:00,METAR KGVT 052155Z AUTO 02009G15KT 10SM CLR 20/04 A3028 RMK AO2,0,9,1,16090,0,0,0,
2026-04-05 21:35:00,METAR KGVT 052135Z AUTO 01010G20KT 10SM CLR 20/04 A3030 RMK AO2,0,10,1,16090,0,0,0,
2026-04-05 21:15:00,METAR KGVT 052115Z AUTO 04012G17KT 10SM CLR 20/04 A3030 RMK AO2,0,12,1,16090,0,0,0,
2026-04-05 20:55:00,METAR KGVT 052055Z AUTO 03011G17KT 10SM CLR 20/04 A3031 RMK AO2,0,11,1,16090,0,0,0,
2026-04-05 20:35:00,METAR KGVT 052035Z AUTO 36013KT 10SM CLR 19/05 A3032 RMK AO2,0,13,0,16090,0,0,0,
2026-04-05 20:15:00,METAR KGVT 052015Z AUTO 04009G17KT 10SM CLR 19/04 A3033 RMK AO2,0,9,1,16090,0,0,0,
2026-04-05 19:55:00,METAR KGVT 051955Z AUTO 01015KT 10SM CLR 19/04 A3033 RMK AO2,0,15,0,16090,0,0,0,
2026-04-05 19:35:00,METAR KGVT 051935Z AUTO 01012G20KT 10SM CLR 19/05 A3033 RMK AO2,0,12,1,16090,0,0,0,
2026-04-05 19:15:00,METAR KGVT 051915Z AUTO 03014G19KT 10SM CLR 19/03 A3034 RMK AO2,0,14,1,16090,0,0,0,
2026-04-05 18:55:00,METAR KGVT 051855Z AUTO 02011G20KT 10SM CLR 18/04 A3036 RMK AO2,0,11,1,16090,0,0,0,
2026-04-05 18:35:00,METAR KGVT 051835Z AUTO 05011G21KT 010V070 10SM CLR 18/04 A3036 RMK AO2,0,11,1,16090,0,0,0,
2026-04-05 18:15:00,METAR KGVT 051815Z AUTO 04011KT 10SM CLR 18/04 A3037 RMK AO2,0,11,0,16090,0,0,0,
2026-04-05 17:55:00,METAR KGVT 051755Z AUTO 03010G15KT 10SM CLR 18/03 A3037 RMK AO2,0,10,1,16090,0,0,0,
2026-04-05 17:35:00,METAR KGVT 051735Z AUTO 04010G19KT 10SM CLR 18/03 A3038 RMK AO2,0,10,1,16090,0,0,0,
2026-04-05 17:15:00,METAR KGVT 051715Z AUTO 04014G20KT 10SM CLR 17/02 A3039 RMK AO2,0,14,1,16090,0,0,0,
2026-04-05 16:55:00,METAR KGVT 051655Z AUTO 02011G17KT 10SM CLR 17/02 A3039 RMK AO2,0,11,1,16090,0,0,0,
2026-04-05 16:35:00,METAR KGVT 051635Z AUTO 04009KT 10SM CLR 17/03 A3039 RMK AO2,0,9,0,16090,0,0,0,
2026-04-05 16:15:00,METAR KGVT 051615Z AUTO 05011G17KT 010V070 10SM CLR 17/03 A3040 RMK AO2,0,11,1,16090,0,0,0,
2026-04-05 15:55:00,METAR KGVT 051555Z AUTO 04009G15KT 10SM CLR 16/03 A3040 RMK AO2,0,9,1,16090,0,0,0,
2026-04-05 15:35:00,METAR KGVT 051535Z AUTO 04010KT 10SM CLR 15/03 A3040 RMK AO2,0,10,0,16090,0,0,0,
2026-04-05 15:15:00,METAR KGVT 051515Z AUTO 05010KT 10SM CLR 15/04 A3039 RMK AO2,0,10,0,16090,0,0,0,
2026-04-05 14:55:00,METAR KGVT 051455Z AUTO 05010KT 10SM CLR 14/04 A3038 RMK AO2,0,10,0,16090,0,0,0,
2026-04-05 12:55:00,METAR KGVT 051255Z AUTO 35006KT 10SM CLR 08/06 A3036 RMK AO2,0,6,0,16090,0,0,0,
2026-04-05 12:35:00,METAR KGVT 051235Z AUTO 36005KT 10SM CLR 07/06 A3035 RMK AO2,0,5,0,16090,0,0,0,
2026-04-05 12:15:00,METAR KGVT 051215Z AUTO 00000KT 10SM CLR 08/05 A3034 RMK AO2,0,0,0,16090,0,0,0,
2026-04-05 11:55:00,METAR KGVT 051155Z AUTO 36005KT 10SM CLR 07/06 A3033 RMK AO2,0,5,0,16090,0,0,0,
2026-04-05 11:35:00,METAR KGVT 051135Z AUTO 02004KT 10SM CLR 07/06 A3032 RMK AO2,0,4,0,16090,0,0,0,
2026-04-05 11:15:00,METAR KGVT 051115Z AUTO 01005KT 10SM CLR 08/05 A3032 RMK AO2,0,5,0,16090,0,0,0,
2026-04-05 10:55:00,METAR KGVT 051055Z AUTO 36006KT 10SM CLR 07/05 A3032 RMK AO2,0,6,0,16090,0,0,0,
2026-04-05 10:35:00,METAR KGVT 051035Z AUTO 01005KT 10SM CLR 08/05 A3031 RMK AO2,0,5,0,16090,0,0,0,
2026-04-05 10:15:00,METAR KGVT 051015Z AUTO 02004KT 10SM CLR 09/05 A3031 RMK AO2,0,4,0,16090,0,0,0,
2026-04-05 09:55:00,METAR KGVT 050955Z AUTO 02005KT 10SM CLR 09/05 A3030 RMK AO2,0,5,0,16090,0,0,0,
2026-04-05 09:35:00,METAR KGVT 050935Z AUTO 03004KT 10SM CLR 09/05 A3030 RMK AO2,0,4,0,16090,0,0,0,
2026-04-05 09:15:00,METAR KGVT 050915Z AUTO 02004KT 10SM CLR 09/05 A3030 RMK AO2,0,4,0,16090,0,0,0,
2026-04-05 08:55:00,METAR KGVT 050855Z AUTO 02006KT 10SM CLR 10/05 A3029 RMK AO2,0,6,0,16090,0,0,0,
2026-04-05 08:35:00,METAR KGVT 050835Z AUTO 02005KT 10SM CLR 10/05 A3030 RMK AO2,0,5,0,16090,0,0,0,
2026-04-05 08:15:00,METAR KGVT 050815Z AUTO 02006KT 10SM CLR 10/05 A3028 RMK AO2,0,6,0,16090,0,0,0,
2026-04-05 07:55:00,METAR KGVT 050755Z AUTO 01007KT 10SM CLR 10/05 A3028 RMK AO2,0,7,0,16090,0,0,0,
2026-04-05 07:35:00,METAR KGVT 050735Z AUTO 36009KT 10SM CLR 10/05 A3028 RMK AO2,0,9,0,16090,0,0,0,
2026-04-05 07:15:00,METAR KGVT 050715Z AUTO 36009KT 10SM CLR 10/06 A3028 RMK AO2,0,9,0,16090,0,0,0,
2026-04-05 06:55:00,METAR KGVT 050655Z AUTO 36010KT 10SM CLR 10/06 A3027 RMK AO2,0,10,0,16090,0,0,0,
2026-04-05 06:35:00,METAR KGVT 050635Z AUTO 36008KT 10SM CLR 10/06 A3027 RMK AO2,0,8,0,16090,0,0,0,
2026-04-05 06:15:00,METAR KGVT 050615Z AUTO 35007KT 10SM CLR 10/06 A3027 RMK AO2,0,7,0,16090,0,0,0,
2026-04-05 05:55:00,METAR KGVT 050555Z AUTO 34005KT 10SM CLR 10/06 A3027 RMK AO2,0,5,0,16090,0,0,0,
2026-04-05 05:35:00,METAR KGVT 050535Z AUTO 36007KT 10SM CLR 11/07 A3027 RMK AO2,0,7,0,16090,0,0,0,
2026-04-05 05:15:00,METAR KGVT 050515Z AUTO 36007KT 10SM CLR 10/07 A3027 RMK AO2,0,7,0,16090,0,0,0,
2026-04-05 04:55:00,METAR KGVT 050455Z AUTO 36007KT 10SM CLR 10/08 A3026 RMK AO2,0,7,0,16090,0,0,0,
2026-04-05 04:35:00,METAR KGVT 050435Z AUTO 36006KT 10SM CLR 11/08 A3027 RMK AO2,0,6,0,16090,0,0,0,
2026-04-05 04:15:00,METAR KGVT 050415Z AUTO 35005KT 10SM CLR 12/08 A3027 RMK AO2,0,5,0,16090,0,0,0,
2026-04-05 03:55:00,METAR KGVT 050355Z AUTO 36004KT 10SM CLR 11/08 A3026 RMK AO2,0,4,0,16090,0,0,0,
2026-04-05 03:35:00,METAR KGVT 050335Z AUTO 36005KT 10SM CLR 12/08 A3026 RMK AO2,0,5,0,16090,0,0,0,
2026-04-05 03:15:00,METAR KGVT 050315Z AUTO 36007KT 10SM CLR 12/08 A3025 RMK AO2,0,7,0,16090,0,0,0,
2026-04-05 02:55:00,METAR KGVT 050255Z AUTO 35006KT 10SM CLR 13/08 A3024 RMK AO2,0,6,0,16090,0,0,0,
2026-04-05 02:35:00,METAR KGVT 050235Z AUTO 35007KT 10SM CLR 13/08 A3023 RMK AO2,0,7,0,16090,0,0,0,
2026-04-05 02:15:00,METAR KGVT 050215Z AUTO 35007KT 10SM CLR 13/08 A3021 RMK AO2 LTG DSNT SW,0,7,0,16090,0,0,0,DS
2026-04-05 01:55:00,METAR KGVT 050155Z AUTO 35006KT 10SM CLR 13/09 A3020 RMK AO2,0,6,0,16090,0,0,0,
2026-04-05 01:35:00,METAR KGVT 050135Z AUTO 34006KT 10SM CLR 14/09 A3019 RMK AO2,0,6,0,16090,0,0,0,
2026-04-05 01:15:00,METAR KGVT 050115Z AUTO 34005KT 10SM CLR 15/10 A3018 RMK AO2,0,5,0,16090,0,0,0,
2026-04-05 00:55:00,METAR KGVT 050055Z AUTO 35004KT 10SM CLR 16/10 A3017 RMK AO2,0,4,0,16090,0,0,0,
2026-04-05 00:35:00,METAR KGVT 050035Z AUTO 36006KT 10SM CLR 16/10 A3017 RMK AO2,0,6,0,16090,0,0,0,
2026-04-05 00:15:00,METAR KGVT 050015Z AUTO 01005KT 10SM CLR 18/09 A3017 RMK AO2,0,5,0,16090,0,0,0,
2026-04-04 23:55:00,METAR KGVT 042355Z AUTO 01007KT 10SM CLR 18/08 A3017 RMK AO2,0,7,0,16090,0,0,0,
2026-04-04 23:35:00,METAR KGVT 042335Z AUTO 01010G14KT 10SM CLR 18/08 A3016 RMK AO2,0,10,1,16090,0,0,0,
2026-04-04 23:15:00,METAR KGVT 042315Z AUTO 36012KT 10SM CLR 19/08 A3016 RMK AO2,0,12,0,16090,0,0,0,
2026-04-04 22:55:00,METAR KGVT 042255Z AUTO 36013KT 10SM CLR 19/09 A3015 RMK AO2,0,13,0,16090,0,0,0,
2026-04-04 22:35:00,METAR KGVT 042235Z AUTO 34012G17KT 10SM CLR 19/09 A3014 RMK AO2,0,12,1,16090,0,0,0,
2026-04-04 22:15:00,METAR KGVT 042215Z AUTO 35013KT 10SM CLR 19/11 A3014 RMK AO2,0,13,0,16090,0,0,0,
2026-04-04 21:55:00,METAR KGVT 042155Z AUTO 01011KT 330V030 10SM CLR 19/11 A3015 RMK AO2,0,11,0,16090,0,0,0,
2026-04-04 21:35:00,METAR KGVT 042135Z AUTO 36008KT 10SM CLR 18/12 A3015 RMK AO2,0,8,0,16090,0,0,0,
2026-04-04 21:15:00,METAR KGVT 042115Z AUTO 36013G20KT 10SM CLR 18/11 A3016 RMK AO2 LTG DSNT E,0,13,1,16090,0,0,0,DS
2026-04-04 20:55:00,METAR KGVT 042055Z AUTO 36014G20KT 10SM SCT055 17/11 A3015 RMK AO2 LTG DSNT S,0,14,1,16090,0,0,0,DS
2026-04-04 20:35:00,METAR KGVT 042035Z AUTO 36013KT 10SM OVC055 17/12 A3016 RMK AO2,0,13,0,16090,0,0,0,
2026-04-04 20:15:00,METAR KGVT 042015Z AUTO 01013KT 10SM OVC055 16/12 A3016 RMK AO2,0,13,0,16090,0,0,0,
2026-04-04 19:55:00,METAR KGVT 041955Z AUTO 35016KT 10SM SCT037 OVC055 15/12 A3017 RMK AO2,0,16,0,16090,0,0,0,
2026-04-04 19:35:00,METAR KGVT 041935Z AUTO 35012KT 10SM BKN027 OVC035 15/12 A3017 RMK AO2,0,12,0,16090,0,0,0,
2026-04-04 19:15:00,METAR KGVT 041915Z AUTO 35011KT 10SM OVC025 14/12 A3018 RMK AO2,0,11,0,16090,0,0,0,
2026-04-04 18:55:00,METAR KGVT 041855Z AUTO 36011G16KT 10SM OVC023 13/12 A3017 RMK AO2,0,11,1,16090,0,0,0,
2026-04-04 18:35:00,METAR KGVT 041835Z AUTO 35013G21KT 10SM OVC023 13/12 A3016 RMK AO2 LTG DSNT E,0,13,1,16090,0,0,0,DS
2026-04-04 18:15:00,METAR KGVT 041815Z AUTO 36013G21KT 10SM OVC021 13/13 A3015 RMK AO2,0,13,1,16090,0,0,0,
2026-04-04 17:55:00,METAR KGVT 041755Z AUTO 36015G23KT 10SM OVC019 12/12 A3014 RMK AO2,0,15,1,16090,0,0,0,
2026-04-04 17:35:00,METAR KGVT 041735Z AUTO 35018KT 10SM SCT011 OVC019 12/ A3014 RMK AO2 LTG DSNT SE,0,18,0,16090,0,0,0,DS
2026-04-04 17:15:00,METAR KGVT 041715Z AUTO 35016G24KT 10SM BKN009 OVC017 12/ A3013 RMK AO2 LTG DSNT SE AND S,0,16,1,16090,0,0,0,DS
2026-04-04 16:55:00,METAR KGVT 041655Z AUTO 36016G21KT 10SM OVC009 12/ A3013 RMK AO2 LTG DSNT S P0004,0,16,1,16090,0,0,0,DS
2026-04-04 16:35:00,METAR KGVT 041635Z AUTO 36013G25KT 10SM OVC009 12/ A3011 RMK AO2 LTG DSNT E AND SE P0004,0,13,1,16090,0,0,0,DS
2026-04-04 16:15:00,METAR KGVT 041615Z AUTO 36016G19KT 7SM OVC007 13/ A3011 RMK AO2 LTG DSNT SE AND S P0003,0,16,1,11263,0,0,0,DS
2026-04-04 15:55:00,METAR KGVT 041555Z AUTO 01014G19KT 4SM HZ OVC007 13/ A3008 RMK AO2 LTG DSNT SE P0022,0,14,1,6436,0,0,0,DS
2026-04-04 15:35:00,METAR KGVT 041535Z AUTO 36017G21KT 3SM BR OVC007 14/ A3009 RMK AO2 LTG DSNT NE AND S P0015,0,17,1,4827,0,0,1,"BR,DS"
2026-04-04 15:15:00,METAR KGVT 041515Z AUTO 35011KT 5SM HZ OVC007 14/ A3009 RMK AO2 LTG DSNT NE THRU S P0005,0,11,0,8045,0,0,0,DS
2026-04-04 14:55:00,METAR KGVT 041455Z AUTO 35014G20KT 1 3/4SM VCTSBR OVC005 15/ A3007 RMK AO2 LTG DSNT SE AND S P0042,0,14,1,2816,1,0,1,"BR,DS,VC"
2026-04-04 14:35:00,METAR KGVT 041435Z AUTO 02010G19KT 3 1/2SM BR OVC005 15/ A3004 RMK AO2 LTG DSNT NE AND E P0028,0,10,1,5632,0,0,1,"BR,DS"
2026-04-04 14:15:00,METAR KGVT 041415Z AUTO 36019G22KT 1SM VCTSBR OVC005 16/ A3004 RMK AO2 LTG DSNT NE AND S P0022,0,19,1,1609,1,0,1,"BR,DS,VC"
2026-04-04 13:55:00,METAR KGVT 041355Z AUTO 04007G16KT 1SM VCTSBR OVC005 17/ A3003 RMK AO2 LTG DSNT ALQDS P0123,0,7,1,1609,1,0,1,"BR,DS,VC"
2026-04-04 13:35:00,METAR KGVT 041335Z AUTO 08007KT 3/4SM TSBR OVC005 17/ A3003 RMK AO2 LTG DSNT ALQDS P0085,0,7,0,1207,1,0,1,"BR,DS,TS"
2026-04-04 13:15:00,METAR KGVT 041315Z AUTO 36025G31KT 2SM TSBR BKN009 OVC012 20/ A3002 RMK AO2 LTG DSNT SW THRU N P0019,0,25,1,3218,1,0,1,"BR,DS,TS"
2026-04-04 12:50:00,METAR KGVT 041250Z AUTO 13006KT 2SM TSBR OVC015 21/ A2999 RMK AO2 LTG DSNT SW THRU NE P0016,0,6,0,3218,1,0,1,"BR,DS,TS"
2026-04-04 12:35:00,METAR KGVT 041235Z AUTO 12008KT 7SM TSHZ OVC017 21/ A2998 RMK AO2 LTG DSNT ALQDS P0003,0,8,0,11263,1,0,0,"DS,TS"
2026-04-04 12:15:00,METAR KGVT 041215Z AUTO 11007KT 10SM VCTS OVC020 21/ A2998 RMK AO2 LTG DSNT SW THRU N,0,7,0,16090,1,0,0,"DS,TS,VC"
2026-04-04 11:55:00,METAR KGVT 041155Z AUTO 12006KT 7SM VCTS BKN018 OVC025 21/21 A2998 RMK AO2 LTG DSNT SW THRU N P0004,0,6,0,11263,1,0,0,"DS,TS,VC"
2026-04-04 11:35:00,METAR KGVT 041135Z AUTO 14006KT 5SM VCTSBR BKN020 OVC028 21/21 A2998 RMK AO2 LTG DSNT SW THRU N P0001,0,6,0,8045,1,0,1,"BR,DS,VC"
2026-04-04 11:15:00,METAR KGVT 041115Z AUTO 12005KT 10SM BKN020 OVC026 21/21 A2997 RMK AO2 LTG DSNT SW THRU NW,0,5,0,16090,0,0,0,DS
2026-04-04 10:55:00,METAR KGVT 041055Z AUTO 13007KT 10SM VCTS OVC020 21/21 A2996 RMK AO2 LTG DSNT SW THRU N,0,7,0,16090,1,0,0,"DS,TS,VC"
2026-04-04 10:35:00,METAR KGVT 041035Z AUTO 15007KT 10SM OVC020 21/21 A2996 RMK AO2 LTG DSNT S THRU NW,0,7,0,16090,0,0,0,DS
2026-04-04 10:15:00,METAR KGVT 041015Z AUTO 15010KT 10SM OVC020 22/20 A2994 RMK AO2 LTG DSNT W AND NW,0,10,0,16090,0,0,0,DS
2026-04-04 09:55:00,METAR KGVT 040955Z AUTO 17009KT 10SM BKN018 BKN024 OVC049 22/20 A2995 RMK AO2 LTG DSNT W,0,9,0,16090,0,0,0,DS
2026-04-04 09:35:00,METAR KGVT 040935Z AUTO 16011KT 10SM SCT018 SCT023 BKN047 22/20 A2994 RMK AO2 LTG DSNT NW,0,11,0,16090,0,0,0,DS
2026-04-04 09:15:00,METAR KGVT 040915Z AUTO 17010KT 10SM SCT016 21/20 A2994 RMK AO2 LTG DSNT W,0,10,0,16090,0,0,0,DS
2026-04-04 08:55:00,METAR KGVT 040855Z AUTO 18011KT 10SM SCT016 SCT120 21/20 A2994 RMK AO2 LTG DSNT N,0,11,0,16090,0,0,0,DS
2026-04-04 08:35:00,METAR KGVT 040835Z AUTO 17013KT 10SM BKN016 BKN120 21/20 A2993 RMK AO2 LTG DSNT SW THRU NW,0,13,0,16090,0,0,0,DS
2026-04-04 08:15:00,METAR KGVT 040815Z AUTO 17014G17KT 10SM SCT016 BKN120 22/20 A2994 RMK AO2 LTG DSNT SW THRU N,0,14,1,16090,0,0,0,DS
2026-04-04 07:55:00,METAR KGVT 040755Z AUTO 18013G18KT 10SM SCT016 BKN120 22/21 A2994 RMK AO2 LTG DSNT N AND SW,0,13,1,16090,0,0,0,DS
2026-04-04 07:35:00,METAR KGVT 040735Z AUTO 17013G19KT 10SM SCT016 22/20 A2993 RMK AO2 LTG DSNT SW AND W,0,13,1,16090,0,0,0,DS
2026-04-04 07:15:00,METAR KGVT 040715Z AUTO 18015KT 10SM CLR 22/20 A2994 RMK AO2 LTG DSNT SW AND W,0,15,0,16090,0,0,0,DS
2026-04-04 06:55:00,METAR KGVT 040655Z AUTO 18015G22KT 10SM CLR 22/20 A2994 RMK AO2,0,15,1,16090,0,0,0,
2026-04-04 06:35:00,METAR KGVT 040635Z AUTO 18020G24KT 10SM CLR 22/20 A2994 RMK AO2,0,20,1,16090,0,0,0,
2026-04-04 06:15:00,METAR KGVT 040615Z AUTO 18020G27KT 10SM CLR 22/20 A2994 RMK AO2 LTG DSNT SW,0,20,1,16090,0,0,0,DS
2026-04-04 05:55:00,METAR KGVT 040555Z AUTO 18018G25KT 10SM CLR 22/21 A2994 RMK AO2 LTG DSNT W AND NW,0,18,1,16090,0,0,0,DS
2026-04-04 05:35:00,METAR KGVT 040535Z AUTO 17014KT 10SM CLR 22/21 A2995 RMK AO2 LTG DSNT SW AND NW,0,14,0,16090,0,0,0,DS
2026-04-04 05:15:00,METAR KGVT 040515Z AUTO 18013KT 10SM SCT120 23/21 A2998 RMK AO2,0,13,0,16090,0,0,0,
2026-04-04 04:55:00,METAR KGVT 040455Z AUTO 18012KT 10SM SCT120 23/21 A2999 RMK AO2 LTG DSNT W,0,12,0,16090,0,0,0,DS
2026-04-04 04:35:00,METAR KGVT 040435Z AUTO 17009KT 10SM SCT120 22/21 A2999 RMK AO2 LTG DSNT N,0,9,0,16090,0,0,0,DS
2026-04-04 04:15:00,METAR KGVT 040415Z AUTO 17009KT 10SM SCT060 SCT070 SCT120 23/21 A2999 RMK AO2,0,9,0,16090,0,0,0,
2026-04-04 03:55:00,METAR KGVT 040355Z AUTO 17007KT 10SM BKN060 BKN120 22/21 A2999 RMK AO2 LTG DSNT W,0,7,0,16090,0,0,0,DS
2026-04-04 03:35:00,METAR KGVT 040335Z AUTO 17007KT 10SM SCT045 BKN070 23/21 A2998 RMK AO2 LTG DSNT W,0,7,0,16090,0,0,0,DS
2026-04-04 03:15:00,METAR KGVT 040315Z AUTO 16007KT 10SM SCT045 SCT070 23/21 A2998 RMK AO2 LTG DSNT W,0,7,0,16090,0,0,0,DS
2026-04-04 02:55:00,METAR KGVT 040255Z AUTO 16007KT 10SM CLR 22/21 A2997 RMK AO2 LTG DSNT W,0,7,0,16090,0,0,0,DS
2026-04-04 02:35:00,METAR KGVT 040235Z AUTO 16009KT 10SM CLR 23/20 A2994 RMK AO2 LTG DSNT N,0,9,0,16090,0,0,0,DS
2026-04-04 02:15:00,METAR KGVT 040215Z AUTO 16011KT 10SM CLR 23/20 A2993 RMK AO2,0,11,0,16090,0,0,0,
2026-04-04 01:55:00,METAR KGVT 040155Z AUTO 16009KT 10SM CLR 23/20 A2993 RMK AO2,0,9,0,16090,0,0,0,
2026-04-04 01:35:00,METAR KGVT 040135Z AUTO 15007KT 10SM CLR 23/20 A2993 RMK AO2 LTG DSNT W,0,7,0,16090,0,0,0,DS
2026-04-04 01:15:00,METAR KGVT 040115Z AUTO 17009KT 10SM SCT040 24/20 A2992 RMK AO2,0,9,0,16090,0,0,0,
2026-04-04 00:55:00,METAR KGVT 040055Z AUTO 16011KT 10SM BKN038 BKN044 BKN070 24/20 A2992 RMK AO2,0,11,0,16090,0,0,0,
2026-04-04 00:35:00,METAR KGVT 040035Z AUTO 16012KT 10SM SCT036 SCT070 24/20 A2992 RMK AO2 LTG DSNT SW AND W,0,12,0,16090,0,0,0,DS
2026-04-04 00:15:00,METAR KGVT 040015Z AUTO 16009KT 10SM CLR 25/20 A2991 RMK AO2 LTG DSNT SW,0,9,0,16090,0,0,0,DS
2026-04-03 23:55:00,METAR KGVT 032355Z AUTO 16012KT 10SM SCT080 25/20 A2991 RMK AO2,0,12,0,16090,0,0,0,
2026-04-03 23:35:00,METAR KGVT 032335Z AUTO 16013KT 10SM SCT080 27/20 A2991 RMK AO2,0,13,0,16090,0,0,0,
2026-04-03 23:15:00,METAR KGVT 032315Z AUTO 17014G20KT 10SM CLR 26/20 A2990 RMK AO2,0,14,1,16090,0,0,0,
2026-04-03 22:55:00,METAR KGVT 032255Z AUTO 16017KT 10SM CLR 26/19 A2989 RMK AO2,0,17,0,16090,0,0,0,
2026-04-03 22:35:00,METAR KGVT 032235Z AUTO 16014G22KT 10SM SCT110 27/19 A2989 RMK AO2,0,14,1,16090,0,0,0,
2026-04-03 22:15:00,METAR KGVT 032215Z AUTO 16018KT 10SM BKN110 27/20 A2990 RMK AO2,0,18,0,16090,0,0,0,
2026-04-03 21:55:00,METAR KGVT 032155Z AUTO 16017KT 10SM CLR 27/20 A2990 RMK AO2,0,17,0,16090,0,0,0,
2026-04-03 21:35:00,METAR KGVT 032135Z AUTO 15016G21KT 10SM CLR 26/19 A2991 RMK AO2,0,16,1,16090,0,0,0,
2026-04-03 21:15:00,METAR KGVT 032115Z AUTO 15014KT 10SM SCT039 26/20 A2992 RMK AO2,0,14,0,16090,0,0,0,
2026-04-03 20:55:00,METAR KGVT 032055Z AUTO 17019KT 10SM SCT038 SCT070 27/18 A2993 RMK AO2,0,19,0,16090,0,0,0,
2026-04-03 20:35:00,METAR KGVT 032035Z AUTO 16018KT 10SM SCT038 SCT070 27/19 A2994 RMK AO2,0,18,0,16090,0,0,0,
2026-04-03 20:15:00,METAR KGVT 032015Z AUTO 18017G23KT 10SM SCT070 27/19 A2994 RMK AO2,0,17,1,16090,0,0,0,
2026-04-03 19:55:00,METAR KGVT 031955Z AUTO 18014KT 10SM SCT034 SCT046 OVC070 27/20 A2995 RMK AO2,0,14,0,16090,0,0,0,
2026-04-03 19:35:00,METAR KGVT 031935Z AUTO 18017KT 10SM SCT036 BKN070 26/19 A2995 RMK AO2,0,17,0,16090,0,0,0,
2026-04-03 19:15:00,METAR KGVT 031915Z AUTO 18018G24KT 10SM SCT038 SCT047 BKN060 27/19 A2995 RMK AO2,0,18,1,16090,0,0,0,
2026-04-03 18:55:00,METAR KGVT 031855Z AUTO 20019KT 10SM SCT038 SCT050 OVC060 27/19 A2996 RMK AO2,0,19,0,16090,0,0,0,
2026-04-03 18:35:00,METAR KGVT 031835Z AUTO 18020G25KT 10SM SCT036 BKN060 26/19 A2996 RMK AO2,0,20,1,16090,0,0,0,
2026-04-03 18:15:00,METAR KGVT 031815Z AUTO 18016KT 10SM BKN060 26/20 A2997 RMK AO2,0,16,0,16090,0,0,0,
2026-04-03 17:55:00,METAR KGVT 031755Z AUTO 18017G22KT 10SM SCT031 SCT044 OVC060 26/20 A2997 RMK AO2,0,17,1,16090,0,0,0,
2026-04-03 17:35:00,METAR KGVT 031735Z AUTO 18016G24KT 10SM SCT033 BKN042 OVC050 26/20 A2997 RMK AO2,0,16,1,16090,0,0,0,
2026-04-03 17:15:00,METAR KGVT 031715Z AUTO 18019G27KT 10SM SCT031 SCT043 OVC050 26/20 A2998 RMK AO2,0,19,1,16090,0,0,0,
2026-04-03 16:55:00,METAR KGVT 031655Z AUTO 19021G25KT 10SM SCT027 BKN045 OVC050 26/20 A2998 RMK AO2,0,21,1,16090,0,0,0,
2026-04-03 16:35:00,METAR KGVT 031635Z AUTO 18014G20KT 4SM HZ SCT029 BKN035 OVC050 26/21 A2998 RMK AO2,0,14,1,6436,0,0,0,
2026-04-03 16:15:00,METAR KGVT 031615Z AUTO 18012KT 10SM SCT026 BKN031 OVC037 24/21 A2998 RMK AO2,0,12,0,16090,0,0,0,
2026-04-03 15:55:00,METAR KGVT 031555Z AUTO 19014KT 10SM SCT023 BKN028 OVC034 24/21 A2999 RMK AO2,0,14,0,16090,0,0,0,
2026-04-03 15:35:00,METAR KGVT 031535Z AUTO 18012G20KT 10SM BKN019 BKN026 OVC035 24/21 A2998 RMK AO2,0,12,1,16090,0,0,0,
2026-04-03 15:15:00,METAR KGVT 031515Z AUTO 18013G18KT 10SM OVC019 24/21 A2998 RMK AO2,0,13,1,16090,0,0,0,
2026-04-03 14:55:00,METAR KGVT 031455Z AUTO 18016G21KT 10SM BKN019 OVC027 24/21 A2997 RMK AO2,0,16,1,16090,0,0,0,
2026-04-03 14:35:00,METAR KGVT 031435Z AUTO 18014G22KT 10SM SCT017 BKN022 OVC034 23/21 A2997 RMK AO2,0,14,1,16090,0,0,0,
2026-04-03 14:15:00,METAR KGVT 031415Z AUTO 17012G18KT 10SM OVC017 23/21 A2997 RMK AO2,0,12,1,16090,0,0,0,
2026-04-03 13:55:00,METAR KGVT 031355Z AUTO 17010KT 10SM OVC017 22/21 A2997 RMK AO2,0,10,0,16090,0,0,0,
2026-04-03 13:35:00,METAR KGVT 031335Z AUTO 17014KT 10SM BKN017 BKN031 OVC080 22/21 A2996 RMK AO2,0,14,0,16090,0,0,0,
2026-04-03 13:15:00,METAR KGVT 031315Z AUTO 16012KT 10SM SCT017 BKN043 BKN080 22/21 A2995 RMK AO2,0,12,0,16090,0,0,0,
2026-04-03 12:55:00,METAR KGVT 031255Z AUTO 16013KT 10SM BKN017 OVC042 21/21 A2995 RMK AO2,0,13,0,16090,0,0,0,
2026-04-03 12:35:00,METAR KGVT 031235Z AUTO 16011KT 10SM BKN017 OVC040 21/20 A2994 RMK AO2,0,11,0,16090,0,0,0,
2026-04-03 12:15:00,METAR KGVT 031215Z AUTO 16013G18KT 10SM SCT017 OVC038 21/20 A2994 RMK AO2,0,13,1,16090,0,0,0,
2026-04-03 11:55:00,METAR KGVT 031155Z AUTO 16012KT 10SM SCT017 SCT021 OVC038 21/20 A2993 RMK AO2,0,12,0,16090,0,0,0,
2026-04-03 11:35:00,METAR KGVT 031135Z AUTO 17013KT 10SM BKN017 OVC021 22/20 A2994 RMK AO2,0,13,0,16090,0,0,0,
2026-04-03 11:15:00,METAR KGVT 031115Z AUTO 17011KT 10SM BKN017 BKN023 OVC035 21/20 A2994 RMK AO2,0,11,0,16090,0,0,0,
2026-04-03 08:55:00,METAR KGVT 030855Z AUTO 17011KT 10SM BKN015 BKN023 OVC032 21/21 A2991 RMK AO2,0,11,0,16090,0,0,0,
2026-04-03 06:15:00,METAR KGVT 030615Z AUTO 16011KT 10SM BKN014 20/20 A2992 RMK AO2,0,11,0,16090,0,0,0,
2026-04-03 05:55:00,METAR KGVT 030555Z AUTO 16011KT 10SM SCT017 21/20 A2992 RMK AO2,0,11,0,16090,0,0,0,
2026-04-03 05:35:00,METAR KGVT 030535Z AUTO 16010KT 10SM CLR 21/20 A2990 RMK AO2,0,10,0,16090,0,0,0,
2026-04-03 05:15:00,METAR KGVT 030515Z AUTO 16010KT 10SM CLR 21/20 A2990 RMK AO2,0,10,0,16090,0,0,0,
2026-04-03 04:55:00,METAR KGVT 030455Z AUTO 15010KT 10SM CLR 21/20 A2989 RMK AO2,0,10,0,16090,0,0,0,
2026-04-03 04:35:00,METAR KGVT 030435Z AUTO 15006KT 10SM CLR 21/20 A2989 RMK AO2,0,6,0,16090,0,0,0,
2026-04-03 04:15:00,METAR KGVT 030415Z AUTO 16010KT 10SM CLR 21/20 A2989 RMK AO2,0,10,0,16090,0,0,0,
2026-04-03 03:55:00,METAR KGVT 030355Z AUTO 16009KT 10SM CLR 21/20 A2989 RMK AO2,0,9,0,16090,0,0,0,
2026-04-03 03:35:00,METAR KGVT 030335Z AUTO 16010KT 10SM CLR 22/20 A2988 RMK AO2,0,10,0,16090,0,0,0,
2026-04-03 03:15:00,METAR KGVT 030315Z AUTO 16012KT 10SM CLR 22/20 A2988 RMK AO2,0,12,0,16090,0,0,0,
2026-04-03 02:55:00,METAR KGVT 030255Z AUTO 16009KT 10SM CLR 22/20 A2988 RMK AO2,0,9,0,16090,0,0,0,
2026-04-03 02:35:00,METAR KGVT 030235Z AUTO 16011KT 10SM CLR 22/20 A2987 RMK AO2,0,11,0,16090,0,0,0,
2026-04-03 02:15:00,METAR KGVT 030215Z AUTO 16010KT 10SM CLR 22/20 A2986 RMK AO2,0,10,0,16090,0,0,0,
2026-04-03 01:55:00,METAR KGVT 030155Z AUTO 16010KT 10SM CLR 22/20 A2986 RMK AO2,0,10,0,16090,0,0,0,
2026-04-03 01:35:00,METAR KGVT 030135Z AUTO 16008KT 10SM CLR 22/20 A2985 RMK AO2,0,8,0,16090,0,0,0,
2026-04-03 01:15:00,METAR KGVT 030115Z AUTO 17008KT 10SM CLR 23/20 A2985 RMK AO2,0,8,0,16090,0,0,0,
2026-04-03 00:55:00,METAR KGVT 030055Z AUTO 16009KT 10SM SCT040 23/20 A2984 RMK AO2,0,9,0,16090,0,0,0,
2026-04-03 00:35:00,METAR KGVT 030035Z AUTO 18010KT 10SM SCT040 24/20 A2984 RMK AO2,0,10,0,16090,0,0,0,
2026-04-03 00:15:00,METAR KGVT 030015Z AUTO 18013G19KT 10SM BKN040 24/20 A2984 RMK AO2,0,13,1,16090,0,0,0,
2026-04-02 23:55:00,METAR KGVT 022355Z AUTO 17011KT 10SM SCT040 BKN049 24/20 A2984 RMK AO2,0,11,0,16090,0,0,0,
2026-04-02 23:35:00,METAR KGVT 022335Z AUTO 17013G20KT 10SM SCT032 BKN040 OVC047 25/20 A2984 RMK AO2,0,13,1,16090,0,0,0,
2026-04-02 23:15:00,METAR KGVT 022315Z AUTO 18014G19KT 10SM SCT033 SCT042 BKN060 26/20 A2984 RMK AO2,0,14,1,16090,0,0,0,
2026-04-02 22:55:00,METAR KGVT 022255Z AUTO 18015KT 10SM SCT036 SCT042 BKN050 26/20 A2983 RMK AO2,0,15,0,16090,0,0,0,
2026-04-02 22:35:00,METAR KGVT 022235Z AUTO 20017G22KT 10SM SCT037 OVC047 26/20 A2984 RMK AO2,0,17,1,16090,0,0,0,
2026-04-02 22:15:00,METAR KGVT 022215Z AUTO 18016G20KT 10SM SCT030 BKN045 OVC050 26/20 A2984 RMK AO2,0,16,1,16090,0,0,0,
2026-04-02 21:55:00,METAR KGVT 022155Z AUTO 18013G19KT 10SM SCT029 BKN040 OVC050 27/21 A2984 RMK AO2,0,13,1,16090,0,0,0,
2026-04-02 21:35:00,METAR KGVT 022135Z AUTO 17016KT 10SM SCT031 BKN044 OVC055 26/20 A2984 RMK AO2,0,16,0,16090,0,0,0,
2026-04-02 21:15:00,METAR KGVT 022115Z AUTO 18015G23KT 10SM BKN029 BKN035 OVC050 26/20 A2985 RMK AO2,0,15,1,16090,0,0,0,
2026-04-02 20:55:00,METAR KGVT 022055Z AUTO 17020KT 10SM BKN027 BKN038 OVC046 26/20 A2985 RMK AO2,0,20,0,16090,0,0,0,
2026-04-02 20:35:00,METAR KGVT 022035Z AUTO 19018G21KT 10SM BKN027 BKN036 OVC044 26/20 A2985 RMK AO2,0,18,1,16090,0,0,0,
2026-04-02 20:15:00,METAR KGVT 022015Z AUTO 18017G24KT 10SM BKN027 BKN034 BKN044 26/20 A2986 RMK AO2,0,17,1,16090,0,0,0,
2026-04-02 19:55:00,METAR KGVT 021955Z AUTO 18020G25KT 10SM SCT027 BKN036 OVC046 26/20 A2986 RMK AO2,0,20,1,16090,0,0,0,
2026-04-02 19:35:00,METAR KGVT 021935Z AUTO 18018G26KT 10SM BKN027 OVC037 25/20 A2987 RMK AO2,0,18,1,16090,0,0,0,
2026-04-02 19:15:00,METAR KGVT 021915Z AUTO 19019G29KT 10SM BKN027 BKN035 OVC040 25/20 A2988 RMK AO2,0,19,1,16090,0,0,0,
2026-04-02 18:55:00,METAR KGVT 021855Z AUTO 19020G23KT 10SM BKN027 OVC037 25/20 A2988 RMK AO2,0,20,1,16090,0,0,0,
2026-04-02 18:35:00,METAR KGVT 021835Z AUTO 18021G27KT 10SM BKN027 OVC035 24/20 A2988 RMK AO2,0,21,1,16090,0,0,0,
2026-04-02 18:15:00,METAR KGVT 021815Z AUTO 19023G28KT 10SM BKN025 OVC033 25/20 A2989 RMK AO2,0,23,1,16090,0,0,0,
2026-04-02 17:55:00,METAR KGVT 021755Z AUTO 18018G29KT 10SM BKN023 OVC032 24/20 A2989 RMK AO2,0,18,1,16090,0,0,0,
2026-04-02 17:35:00,METAR KGVT 021735Z AUTO 18021KT 10SM BKN023 BKN030 24/20 A2990 RMK AO2,0,21,0,16090,0,0,0,
2026-04-02 17:15:00,METAR KGVT 021715Z AUTO 19015KT 10SM CLR 24/21 A2990 RMK AO2,0,15,0,16090,0,0,0,
2026-04-02 16:55:00,METAR KGVT 021655Z AUTO 17014KT 10SM CLR 23/20 A2989 RMK AO2,0,14,0,16090,0,0,0,
2026-04-02 16:35:00,METAR KGVT 021635Z AUTO 18011KT 10SM CLR 23/20 A2988 RMK AO2,0,11,0,16090,0,0,0,
2026-04-02 16:15:00,METAR KGVT 021615Z AUTO 18012G17KT 10SM CLR 22/19 A2987 RMK AO2,0,12,1,16090,0,0,0,
2026-04-02 15:55:00,METAR KGVT 021555Z AUTO 18010KT 10SM CLR 22/19 A2986 RMK AO2,0,10,0,16090,0,0,0,
2026-04-02 15:35:00,METAR KGVT 021535Z AUTO 18009KT 10SM CLR 21/19 A2985 RMK AO2,0,9,0,16090,0,0,0,
2026-04-02 15:15:00,METAR KGVT 021515Z AUTO 19008KT 10SM CLR 21/19 A2984 RMK AO2 LTG DSNT E,0,8,0,16090,0,0,0,DS
2026-04-02 14:55:00,METAR KGVT 021455Z AUTO 18008KT 10SM CLR 20/19 A2983 RMK AO2,0,8,0,16090,0,0,0,
2026-04-02 14:35:00,METAR KGVT 021435Z AUTO 18006KT 10SM CLR 20/19 A2983 RMK AO2,0,6,0,16090,0,0,0,
2026-04-02 14:15:00,METAR KGVT 021415Z AUTO 16006KT 10SM CLR 19/19 A2982 RMK AO2,0,6,0,16090,0,0,0,
2026-04-02 13:55:00,METAR KGVT 021355Z AUTO 18005KT 10SM CLR 19/18 A2982 RMK AO2,0,5,0,16090,0,0,0,
2026-04-02 13:35:00,METAR KGVT 021335Z AUTO 20006KT 10SM CLR 19/18 A2983 RMK AO2,0,6,0,16090,0,0,0,
2026-04-02 13:15:00,METAR KGVT 021315Z AUTO 20006KT 10SM SCT120 18/18 A2983 RMK AO2,0,6,0,16090,0,0,0,
2026-04-02 12:55:00,METAR KGVT 021255Z AUTO 15005KT 10SM SCT120 18/ A2981 RMK AO2,0,5,0,16090,0,0,0,
2026-04-02 12:35:00,METAR KGVT 021235Z AUTO 16007KT 10SM SCT120 18/ A2982 RMK AO2,0,7,0,16090,0,0,0,
2026-04-02 12:15:00,METAR KGVT 021215Z AUTO 18009KT 10SM BKN110 18/ A2984 RMK AO2,0,9,0,16090,0,0,0,
2026-04-02 11:55:00,METAR KGVT 021155Z AUTO 20009KT 10SM BKN120 18/ A2985 RMK AO2 P0003,0,9,0,16090,0,0,0,
2026-04-02 11:35:00,METAR KGVT 021135Z AUTO 17013KT 10SM BKN120 17/ A2984 RMK AO2 P0003,0,13,0,16090,0,0,0,
2026-04-02 11:15:00,METAR KGVT 021115Z AUTO 19013KT 7SM VCTS SCT012 SCT044 OVC110 18/ A2986 RMK AO2 LTG DSNT E AND SE P0002,0,13,0,11263,1,0,0,"DS,TS,VC"
2026-04-02 10:55:00,METAR KGVT 021055Z AUTO 22011G16KT 7SM VCTS SCT009 BKN026 OVC110 19/19 A2987 RMK AO2 P0040,0,11,1,11263,1,0,0,"TS,VC"
2026-04-02 10:35:00,METAR KGVT 021035Z AUTO 26009G17KT 1 1/2SM BR SCT003 BKN012 OVC023 20/ A2987 RMK AO2 P0035,0,9,1,2414,0,0,1,BR
2026-04-02 10:15:00,METAR KGVT 021015Z AUTO 20008KT 4SM HZ BKN025 OVC044 20/ A2986 RMK AO2 P0003,0,8,0,6436,0,0,0,
2026-04-02 09:55:00,METAR KGVT 020955Z AUTO 18007KT 10SM BKN046 OVC060 20/20 A2984 RMK AO2,0,7,0,16090,0,0,0,
2026-04-02 09:35:00,METAR KGVT 020935Z AUTO 17009KT 10SM SCT026 BKN048 OVC080 20/20 A2985 RMK AO2,0,9,0,16090,0,0,0,
2026-04-02 09:15:00,METAR KGVT 020915Z AUTO 18007KT 10SM SCT026 BKN048 OVC070 20/20 A2986 RMK AO2,0,7,0,16090,0,0,0,
2026-04-02 08:55:00,METAR KGVT 020855Z AUTO 20010KT 10SM SCT026 BKN032 OVC070 21/20 A2986 RMK AO2 LTG DSNT SW,0,10,0,16090,0,0,0,DS
2026-04-02 08:35:00,METAR KGVT 020835Z AUTO 20011G16KT 10SM BKN028 OVC040 22/19 A2985 RMK AO2 LTG DSNT SW,0,11,1,16090,0,0,0,DS
2026-04-02 08:15:00,METAR KGVT 020815Z AUTO 20011KT 10SM SCT035 OVC043 22/19 A2986 RMK AO2,0,11,0,16090,0,0,0,
2026-04-02 07:55:00,METAR KGVT 020755Z AUTO 20014KT 10SM SCT023 SCT028 OVC041 22/19 A2986 RMK AO2 LTG DSNT SW,0,14,0,16090,0,0,0,DS
2026-04-02 07:35:00,METAR KGVT 020735Z AUTO 21017G24KT 10SM BKN023 OVC030 22/19 A2986 RMK AO2 LTG DSNT W,0,17,1,16090,0,0,0,DS
2026-04-02 07:15:00,METAR KGVT 020715Z AUTO 20019G28KT 10SM BKN023 OVC028 22/19 A2984 RMK AO2 LTG DSNT SW AND W,0,19,1,16090,0,0,0,DS
2026-04-02 06:55:00,METAR KGVT 020655Z AUTO 19018G24KT 10SM BKN021 OVC028 22/19 A2983 RMK AO2 LTG DSNT W,0,18,1,16090,0,0,0,DS
2026-04-02 06:35:00,METAR KGVT 020635Z AUTO 18018G26KT 10SM OVC021 22/19 A2981 RMK AO2,0,18,1,16090,0,0,0,
2026-04-02 06:15:00,METAR KGVT 020615Z AUTO 17018KT 10SM OVC021 22/19 A2979 RMK AO2,0,18,0,16090,0,0,0,
2026-04-02 05:55:00,METAR KGVT 020555Z AUTO 17018G24KT 10SM BKN021 22/19 A2978 RMK AO2,0,18,1,16090,0,0,0,
2026-04-02 05:35:00,METAR KGVT 020535Z AUTO 17018KT 10SM CLR 22/19 A2978 RMK AO2 LTG DSNT W,0,18,0,16090,0,0,0,DS
2026-04-02 05:15:00,METAR KGVT 020515Z AUTO 16018KT 10SM CLR 22/19 A2977 RMK AO2,0,18,0,16090,0,0,0,
2026-04-02 04:55:00,METAR KGVT 020455Z AUTO 16014G21KT 10SM CLR 22/19 A2980 RMK AO2,0,14,1,16090,0,0,0,
2026-04-02 04:35:00,METAR KGVT 020435Z AUTO 16017G20KT 10SM CLR 22/19 A2980 RMK AO2,0,17,1,16090,0,0,0,
2026-04-02 04:15:00,METAR KGVT 020415Z AUTO 16016G21KT 10SM CLR 22/19 A2980 RMK AO2 LTG DSNT NW,0,16,1,16090,0,0,0,DS
2026-04-02 03:55:00,METAR KGVT 020355Z AUTO 16016KT 10SM CLR 22/19 A2981 RMK AO2,0,16,0,16090,0,0,0,
2026-04-02 03:35:00,METAR KGVT 020335Z AUTO 16016KT 10SM CLR 22/19 A2981 RMK AO2,0,16,0,16090,0,0,0,
2026-04-02 03:15:00,METAR KGVT 020315Z AUTO 16015KT 10SM CLR 23/18 A2982 RMK AO2,0,15,0,16090,0,0,0,
2026-04-02 02:55:00,METAR KGVT 020255Z AUTO 16017KT 10SM CLR 23/18 A2981 RMK AO2,0,17,0,16090,0,0,0,
2026-04-02 02:35:00,METAR KGVT 020235Z AUTO 17017G23KT 10SM CLR 24/19 A2982 RMK AO2,0,17,1,16090,0,0,0,
2026-04-02 02:15:00,METAR KGVT 020215Z AUTO 17022G25KT 10SM CLR 24/19 A2980 RMK AO2,0,22,1,16090,0,0,0,
2026-04-02 01:55:00,METAR KGVT 020155Z AUTO 15018G25KT 10SM CLR 24/19 A2975 RMK AO2,0,18,1,16090,0,0,0,
2026-04-02 01:35:00,METAR KGVT 020135Z AUTO 16018G27KT 10SM CLR 25/19 A2976 RMK AO2,0,18,1,16090,0,0,0,
2026-04-02 01:15:00,METAR KGVT 020115Z AUTO 16020G24KT 10SM CLR 25/19 A2977 RMK AO2,0,20,1,16090,0,0,0,
2026-04-02 00:55:00,METAR KGVT 020055Z AUTO 16017G23KT 10SM CLR 26/19 A2977 RMK AO2,0,17,1,16090,0,0,0,
2026-04-02 00:35:00,METAR KGVT 020035Z AUTO 15016G22KT 10SM CLR 26/18 A2977 RMK AO2,0,16,1,16090,0,0,0,
2026-04-02 00:15:00,METAR KGVT 020015Z AUTO 15016KT 10SM CLR 27/18 A2978 RMK AO2,0,16,0,16090,0,0,0,
2026-04-01 23:55:00,METAR KGVT 012355Z AUTO 16015KT 10SM CLR 27/17 A2979 RMK AO2,0,15,0,16090,0,0,0,
2026-04-01 23:35:00,METAR KGVT 012335Z AUTO 14009KT 10SM CLR 28/18 A2980 RMK AO2,0,9,0,16090,0,0,0,
2026-04-01 23:15:00,METAR KGVT 012315Z AUTO 16009KT 10SM CLR 29/18 A2980 RMK AO2,0,9,0,16090,0,0,0,
2026-04-01 22:55:00,METAR KGVT 012255Z AUTO 16010KT 10SM CLR 28/18 A2981 RMK AO2 LTG DSNT NW,0,10,0,16090,0,0,0,DS
2026-04-01 22:35:00,METAR KGVT 012235Z AUTO 16014KT 10SM SCT046 28/18 A2982 RMK AO2,0,14,0,16090,0,0,0,
2026-04-01 22:15:00,METAR KGVT 012215Z AUTO 16016G19KT 10SM SCT046 28/18 A2983 RMK AO2,0,16,1,16090,0,0,0,
2026-04-01 21:55:00,METAR KGVT 012155Z AUTO 17015KT 10SM SCT046 29/18 A2983 RMK AO2,0,15,0,16090,0,0,0,
2026-04-01 21:35:00,METAR KGVT 012135Z AUTO 18018G23KT 10SM SCT042 29/18 A2985 RMK AO2,0,18,1,16090,0,0,0,
2026-04-01 21:15:00,METAR KGVT 012115Z AUTO 18013G20KT 10SM SCT042 28/18 A2986 RMK AO2,0,13,1,16090,0,0,0,
2026-04-01 20:55:00,METAR KGVT 012055Z AUTO 17014G20KT 10SM CLR 28/18 A2987 RMK AO2,0,14,1,16090,0,0,0,
2026-04-01 20:35:00,METAR KGVT 012035Z AUTO 18017G23KT 10SM SCT041 28/18 A2988 RMK AO2,0,17,1,16090,0,0,0,
2026-04-01 20:15:00,METAR KGVT 012015Z AUTO 17020G24KT 10SM SCT039 28/18 A2989 RMK AO2,0,20,1,16090,0,0,0,
2026-04-01 19:55:00,METAR KGVT 011955Z AUTO 16017G21KT 10SM SCT032 SCT038 BKN046 28/19 A2991 RMK AO2,0,17,1,16090,0,0,0,
2026-04-01 19:35:00,METAR KGVT 011935Z AUTO 16016KT 10SM SCT031 BKN043 27/19 A2993 RMK AO2,0,16,0,16090,0,0,0,
2026-04-01 19:15:00,METAR KGVT 011915Z AUTO 16015G21KT 10SM SCT031 OVC042 26/19 A2993 RMK AO2,0,15,1,16090,0,0,0,
2026-04-01 18:55:00,METAR KGVT 011855Z AUTO 17015G22KT 10SM SCT031 OVC038 26/19 A2994 RMK AO2,0,15,1,16090,0,0,0,
2026-04-01 18:35:00,METAR KGVT 011835Z AUTO 18019KT 10SM SCT028 OVC036 26/19 A2994 RMK AO2,0,19,0,16090,0,0,0,
2026-04-01 18:15:00,METAR KGVT 011815Z AUTO 16018KT 10SM BKN028 OVC034 26/19 A2995 RMK AO2,0,18,0,16090,0,0,0,
2026-04-01 17:55:00,METAR KGVT 011755Z AUTO 18016G22KT 10SM BKN026 OVC032 26/19 A2996 RMK AO2,0,16,1,16090,0,0,0,
2026-04-01 17:35:00,METAR KGVT 011735Z AUTO 18015G19KT 10SM BKN023 OVC030 25/20 A2996 RMK AO2,0,15,1,16090,0,0,0,
2026-04-01 17:15:00,METAR KGVT 011715Z AUTO 17012G19KT 10SM BKN023 OVC032 24/20 A2997 RMK AO2,0,12,1,16090,0,0,0,
2026-04-01 16:55:00,METAR KGVT 011655Z AUTO 17013G17KT 10SM SCT020 BKN027 OVC032 24/20 A2998 RMK AO2,0,13,1,16090,0,0,0,
2026-04-01 16:35:00,METAR KGVT 011635Z AUTO 18012KT 10SM BKN020 BKN027 OVC032 23/20 A2999 RMK AO2,0,12,0,16090,0,0,0,
2026-04-01 16:15:00,METAR KGVT 011615Z AUTO 19010KT 10SM BKN020 OVC030 23/20 A2999 RMK AO2,0,10,0,16090,0,0,0,
2026-04-01 15:55:00,METAR KGVT 011555Z AUTO 19010KT 10SM OVC020 22/20 A3000 RMK AO2 LTG DSNT E,0,10,0,16090,0,0,0,DS
2026-04-01 15:35:00,METAR KGVT 011535Z AUTO 19011KT 10SM OVC018 22/20 A2999 RMK AO2,0,11,0,16090,0,0,0,
2026-04-01 15:15:00,METAR KGVT 011515Z AUTO 19013KT 10SM OVC018 22/19 A2998 RMK AO2,0,13,0,16090,0,0,0,
2026-04-01 14:55:00,METAR KGVT 011455Z AUTO 19013KT 10SM OVC018 22/19 A2998 RMK AO2,0,13,0,16090,0,0,0,
2026-04-01 14:35:00,METAR KGVT 011435Z AUTO 18012KT 10SM OVC018 22/19 A2997 RMK AO2,0,12,0,16090,0,0,0,
2026-04-01 13:55:00,METAR KGVT 011355Z AUTO 18014KT 10SM OVC014 21/19 A2997 RMK AO2,0,14,0,16090,0,0,0,
2026-04-01 13:35:00,METAR KGVT 011335Z AUTO 18014G18KT 10SM OVC012 21/19 A2996 RMK AO2,0,14,1,16090,0,0,0,
2026-04-01 13:15:00,METAR KGVT 011315Z AUTO 18012KT 10SM BKN014 BKN019 OVC025 20/19 A2995 RMK AO2,0,12,0,16090,0,0,0,
2026-04-01 12:55:00,METAR KGVT 011255Z AUTO 16015G21KT 10SM SCT014 SCT019 OVC025 20/19 A2993 RMK AO2 LTG DSNT N,0,15,1,16090,0,0,0,DS
2026-04-01 12:35:00,METAR KGVT 011235Z AUTO 17014KT 10SM OVC025 20/19 A2993 RMK AO2,0,14,0,16090,0,0,0,
2026-04-01 12:15:00,METAR KGVT 011215Z AUTO 17013KT 10SM OVC023 20/19 A2994 RMK AO2,0,13,0,16090,0,0,0,
2026-04-01 11:55:00,METAR KGVT 011155Z AUTO 17012KT 10SM OVC021 20/19 A2993 RMK AO2,0,12,0,16090,0,0,0,
2026-04-01 11:35:00,METAR KGVT 011135Z AUTO 17012G17KT 10SM OVC019 20/19 A2994 RMK AO2,0,12,1,16090,0,0,0,
2026-04-01 11:15:00,METAR KGVT 011115Z AUTO 17010KT 10SM OVC017 20/18 A2995 RMK AO2,0,10,0,16090,0,0,0,
2026-04-01 10:55:00,METAR KGVT 011055Z AUTO 19009KT 10SM OVC017 20/18 A2996 RMK AO2,0,9,0,16090,0,0,0,
2026-04-01 10:35:00,METAR KGVT 011035Z AUTO 21010KT 10SM SCT017 BKN080 BKN090 20/19 A2996 RMK AO2,0,10,0,16090,0,0,0,
2026-04-01 10:15:00,METAR KGVT 011015Z AUTO 18012KT 10SM SCT019 SCT090 20/18 A2994 RMK AO2,0,12,0,16090,0,0,0,
2026-04-01 09:55:00,METAR KGVT 010955Z AUTO 18013G16KT 10SM SCT018 20/18 A2994 RMK AO2,0,13,1,16090,0,0,0,
2026-04-01 09:35:00,METAR KGVT 010935Z AUTO 17012KT 10SM SCT018 20/18 A2995 RMK AO2,0,12,0,16090,0,0,0,
2026-04-01 09:15:00,METAR KGVT 010915Z AUTO 18012KT 10SM SCT020 20/18 A2996 RMK AO2,0,12,0,16090,0,0,0,
2026-04-01 08:55:00,METAR KGVT 010855Z AUTO 18012KT 10SM CLR 20/18 A2997 RMK AO2,0,12,0,16090,0,0,0,
2026-04-01 08:35:00,METAR KGVT 010835Z AUTO 18012KT 10SM CLR 21/18 A2997 RMK AO2,0,12,0,16090,0,0,0,
2026-04-01 08:15:00,METAR KGVT 010815Z AUTO 17012KT 10SM SCT080 21/18 A2996 RMK AO2,0,12,0,16090,0,0,0,
2026-04-01 07:55:00,METAR KGVT 010755Z AUTO 17011KT 10SM SCT080 21/18 A2997 RMK AO2,0,11,0,16090,0,0,0,
2026-04-01 07:35:00,METAR KGVT 010735Z AUTO 17010KT 10SM CLR 21/18 A2997 RMK AO2,0,10,0,16090,0,0,0,
2026-04-01 07:15:00,METAR KGVT 010715Z AUTO 17010KT 10SM SCT080 21/18 A2998 RMK AO2,0,10,0,16090,0,0,0,
2026-04-01 06:55:00,METAR KGVT 010655Z AUTO 17010KT 10SM SCT075 22/18 A2998 RMK AO2,0,10,0,16090,0,0,0,
2026-04-01 06:35:00,METAR KGVT 010635Z AUTO 17012KT 10SM SCT075 22/18 A2998 RMK AO2,0,12,0,16090,0,0,0,
2026-04-01 06:15:00,METAR KGVT 010615Z AUTO 17009KT 10SM SCT065 22/18 A2998 RMK AO2,0,9,0,16090,0,0,0,
2026-04-01 05:55:00,METAR KGVT 010555Z AUTO 17009KT 10SM CLR 22/18 A2998 RMK AO2,0,9,0,16090,0,0,0,
2026-04-01 05:35:00,METAR KGVT 010535Z AUTO 17011KT 10SM CLR 23/18 A2997 RMK AO2,0,11,0,16090,0,0,0,
2026-04-01 05:15:00,METAR KGVT 010515Z AUTO 17011KT 10SM CLR 23/18 A2996 RMK AO2,0,11,0,16090,0,0,0,
2026-04-01 04:55:00,METAR KGVT 010455Z AUTO 17010G14KT 10SM CLR 23/18 A2995 RMK AO2,0,10,1,16090,0,0,0,
2026-04-01 04:35:00,METAR KGVT 010435Z AUTO 17010KT 10SM CLR 23/17 A2995 RMK AO2,0,10,0,16090,0,0,0,
2026-04-01 04:15:00,METAR KGVT 010415Z AUTO 17009KT 10SM CLR 23/17 A2995 RMK AO2 LTG DSNT NW,0,9,0,16090,0,0,0,DS
2026-04-01 03:55:00,METAR KGVT 010355Z AUTO 16010KT 10SM CLR 23/17 A2994 RMK AO2,0,10,0,16090,0,0,0,
2026-04-01 03:35:00,METAR KGVT 010335Z AUTO 16009KT 10SM CLR 23/16 A2994 RMK AO2,0,9,0,16090,0,0,0,
2026-04-01 03:15:00,METAR KGVT 010315Z AUTO 17011KT 10SM CLR 24/16 A2993 RMK AO2,0,11,0,16090,0,0,0,
2026-04-01 02:55:00,METAR KGVT 010255Z AUTO 16010KT 10SM CLR 23/15 A2993 RMK AO2,0,10,0,16090,0,0,0,
2026-04-01 02:35:00,METAR KGVT 010235Z AUTO 17010KT 10SM CLR 23/15 A2992 RMK AO2,0,10,0,16090,0,0,0,
2026-04-01 02:15:00,METAR KGVT 010215Z AUTO 16009KT 10SM CLR 23/15 A2991 RMK AO2,0,9,0,16090,0,0,0,
2026-04-01 01:55:00,METAR KGVT 010155Z AUTO 16009KT 10SM CLR 23/15 A2990 RMK AO2,0,9,0,16090,0,0,0,
2026-04-01 01:35:00,METAR KGVT 010135Z AUTO 16008KT 10SM CLR 22/15 A2990 RMK AO2,0,8,0,16090,0,0,0,
2026-04-01 01:15:00,METAR KGVT 010115Z AUTO 16007KT 10SM CLR 23/15 A2989 RMK AO2,0,7,0,16090,0,0,0,
2026-04-01 00:55:00,METAR KGVT 010055Z AUTO 14007KT 10SM CLR 23/14 A2988 RMK AO2,0,7,0,16090,0,0,0,
2026-04-01 00:35:00,METAR KGVT 010035Z AUTO 16008KT 10SM CLR 24/15 A2988 RMK AO2,0,8,0,16090,0,0,0,
2026-04-01 00:15:00,METAR KGVT 010015Z AUTO 16010KT 10SM CLR 26/14 A2988 RMK AO2,0,10,0,16090,0,0,0,
2026-03-31 23:55:00,METAR KGVT 312355Z AUTO 17013KT 10SM CLR 27/14 A2989 RMK AO2,0,13,0,16090,0,0,0,
2026-03-31 23:35:00,METAR KGVT 312335Z AUTO 17017KT 10SM CLR 28/14 A2990 RMK AO2,0,17,0,16090,0,0,0,
2026-03-31 23:15:00,METAR KGVT 312315Z AUTO 17016KT 10SM CLR 28/14 A2990 RMK AO2,0,16,0,16090,0,0,0,
2026-03-31 22:55:00,METAR KGVT 312255Z AUTO 18018KT 10SM CLR 28/14 A2991 RMK AO2,0,18,0,16090,0,0,0,
2026-03-31 22:35:00,METAR KGVT 312235Z AUTO 18017KT 10SM CLR 28/14 A2991 RMK AO2,0,17,0,16090,0,0,0,
2026-03-31 22:15:00,METAR KGVT 312215Z AUTO 18019KT 10SM CLR 28/14 A2992 RMK AO2,0,19,0,16090,0,0,0,
2026-03-31 21:55:00,METAR KGVT 312155Z AUTO 17019G26KT 10SM CLR 29/14 A2992 RMK AO2,0,19,1,16090,0,0,0,
2026-03-31 21:35:00,METAR KGVT 312135Z AUTO 18020G24KT 10SM CLR 29/14 A2993 RMK AO2,0,20,1,16090,0,0,0,
2026-03-31 21:15:00,METAR KGVT 312115Z AUTO 18020G24KT 10SM CLR 28/14 A2994 RMK AO2,0,20,1,16090,0,0,0,
2026-03-31 20:55:00,METAR KGVT 312055Z AUTO 17021G25KT 10SM CLR 28/15 A2995 RMK AO2,0,21,1,16090,0,0,0,
2026-03-31 20:35:00,METAR KGVT 312035Z AUTO 18019G22KT 10SM CLR 28/15 A2995 RMK AO2,0,19,1,16090,0,0,0,
2026-03-31 20:15:00,METAR KGVT 312015Z AUTO 17017G22KT 10SM SCT049 28/15 A2997 RMK AO2,0,17,1,16090,0,0,0,
2026-03-31 19:55:00,METAR KGVT 311955Z AUTO 17014G24KT 10SM SCT047 27/15 A2997 RMK AO2,0,14,1,16090,0,0,0,
2026-03-31 19:35:00,METAR KGVT 311935Z AUTO 18017G25KT 10SM SCT047 28/15 A2999 RMK AO2,0,17,1,16090,0,0,0,
2026-03-31 19:15:00,METAR KGVT 311915Z AUTO 17017G22KT 10SM SCT045 27/15 A3000 RMK AO2,0,17,1,16090,0,0,0,
2026-03-31 18:55:00,METAR KGVT 311855Z AUTO 19017G22KT 10SM SCT043 27/16 A3001 RMK AO2,0,17,1,16090,0,0,0,
2026-03-31 18:35:00,METAR KGVT 311835Z AUTO 18014KT 10SM SCT041 26/16 A3002 RMK AO2,0,14,0,16090,0,0,0,
2026-03-31 18:15:00,METAR KGVT 311815Z AUTO 20017KT 10SM BKN041 26/16 A3002 RMK AO2,0,17,0,16090,0,0,0,
2026-03-31 17:55:00,METAR KGVT 311755Z AUTO 18017G20KT 10SM BKN039 26/16 A3003 RMK AO2,0,17,1,16090,0,0,0,
2026-03-31 17:35:00,METAR KGVT 311735Z AUTO 20013KT 10SM OVC033 24/17 A3003 RMK AO2,0,13,0,16090,0,0,0,
2026-03-31 17:15:00,METAR KGVT 311715Z AUTO 18015KT 10SM OVC031 25/16 A3004 RMK AO2,0,15,0,16090,0,0,0,
2026-03-31 16:55:00,METAR KGVT 311655Z AUTO 20013G20KT 10SM OVC029 24/17 A3004 RMK AO2,0,13,1,16090,0,0,0,
2026-03-31 16:35:00,METAR KGVT 311635Z AUTO 19014G24KT 10SM OVC029 24/17 A3005 RMK AO2,0,14,1,16090,0,0,0,
2026-03-31 16:15:00,METAR KGVT 311615Z AUTO 18018G22KT 10SM OVC029 24/18 A3005 RMK AO2,0,18,1,16090,0,0,0,
2026-03-31 15:55:00,METAR KGVT 311555Z AUTO 19017G21KT 10SM OVC024 23/17 A3005 RMK AO2,0,17,1,16090,0,0,0,
2026-03-31 15:35:00,METAR KGVT 311535Z AUTO 19017G20KT 10SM OVC024 23/18 A3005 RMK AO2,0,17,1,16090,0,0,0,
2026-03-31 15:15:00,METAR KGVT 311515Z AUTO 19019G24KT 10SM BKN022 OVC028 23/17 A3004 RMK AO2,0,19,1,16090,0,0,0,
2026-03-31 14:55:00,METAR KGVT 311455Z AUTO 18018KT 10SM BKN020 OVC026 22/18 A3004 RMK AO2,0,18,0,16090,0,0,0,
2026-03-31 14:35:00,METAR KGVT 311435Z AUTO 18015G22KT 10SM OVC018 21/18 A3005 RMK AO2,0,15,1,16090,0,0,0,
2026-03-31 14:15:00,METAR KGVT 311415Z AUTO 18013KT 10SM BKN020 BKN024 21/18 A3004 RMK AO2,0,13,0,16090,0,0,0,
2026-03-31 13:55:00,METAR KGVT 311355Z AUTO 18015G20KT 10SM CLR 20/18 A3004 RMK AO2,0,15,1,16090,0,0,0,
2026-03-31 13:35:00,METAR KGVT 311335Z AUTO 17013G17KT 10SM SCT030 20/18 A3003 RMK AO2,0,13,1,16090,0,0,0,
2026-03-31 13:15:00,METAR KGVT 311315Z AUTO 18012KT 10SM BKN030 19/18 A3004 RMK AO2,0,12,0,16090,0,0,0,
2026-03-31 12:55:00,METAR KGVT 311255Z AUTO 18010KT 10SM OVC030 19/18 A3004 RMK AO2,0,10,0,16090,0,0,0,
2026-03-31 12:35:00,METAR KGVT 311235Z AUTO 18010KT 10SM SCT023 BKN030 19/18 A3004 RMK AO2,0,10,0,16090,0,0,0,
2026-03-31 12:15:00,METAR KGVT 311215Z AUTO 17012KT 10SM OVC030 19/18 A3003 RMK AO2,0,12,0,16090,0,0,0,
2026-03-31 11:55:00,METAR KGVT 311155Z AUTO 19012KT 10SM OVC030 19/18 A3003 RMK AO2,0,12,0,16090,0,0,0,
2026-03-31 11:35:00,METAR KGVT 311135Z AUTO 19012KT 10SM SCT019 OVC030 19/18 A3003 RMK AO2,0,12,0,16090,0,0,0,
2026-03-31 11:15:00,METAR KGVT 311115Z AUTO 18011KT 10SM BKN019 OVC028 19/18 A3002 RMK AO2,0,11,0,16090,0,0,0,
2026-03-31 10:55:00,METAR KGVT 311055Z AUTO 19012KT 10SM OVC021 19/17 A3002 RMK AO2,0,12,0,16090,0,0,0,
2026-03-31 10:35:00,METAR KGVT 311035Z AUTO 18016G20KT 10SM OVC019 19/17 A3001 RMK AO2,0,16,1,16090,0,0,0,
2026-03-31 10:15:00,METAR KGVT 311015Z AUTO 18017KT 10SM OVC015 19/18 A3000 RMK AO2,0,17,0,16090,0,0,0,
2026-03-31 09:55:00,METAR KGVT 310955Z AUTO 18013KT 10SM OVC015 19/18 A3001 RMK AO2,0,13,0,16090,0,0,0,
2026-03-31 09:35:00,METAR KGVT 310935Z AUTO 18010KT 10SM BKN015 18/18 A3001 RMK AO2,0,10,0,16090,0,0,0,
2026-03-31 09:15:00,METAR KGVT 310915Z AUTO 18010KT 10SM SCT017 18/18 A3001 RMK AO2,0,10,0,16090,0,0,0,
2026-03-31 08:55:00,METAR KGVT 310855Z AUTO 17011KT 10SM CLR 19/17 A3001 RMK AO2,0,11,0,16090,0,0,0,
2026-03-31 08:35:00,METAR KGVT 310835Z AUTO 18011KT 10SM CLR 19/17 A3003 RMK AO2,0,11,0,16090,0,0,0,
2026-03-31 08:15:00,METAR KGVT 310815Z AUTO 18012KT 10SM CLR 19/17 A3003 RMK AO2,0,12,0,16090,0,0,0,
2026-03-31 07:55:00,METAR KGVT 310755Z AUTO 19010KT 10SM CLR 20/17 A3004 RMK AO2,0,10,0,16090,0,0,0,
2026-03-31 07:35:00,METAR KGVT 310735Z AUTO 19013KT 10SM CLR 20/17 A3003 RMK AO2,0,13,0,16090,0,0,0,
2026-03-31 07:15:00,METAR KGVT 310715Z AUTO 18015KT 10SM CLR 20/17 A3004 RMK AO2,0,15,0,16090,0,0,0,
2026-03-31 06:55:00,METAR KGVT 310655Z AUTO 18010KT 10SM CLR 20/16 A3004 RMK AO2,0,10,0,16090,0,0,0,
2026-03-31 06:35:00,METAR KGVT 310635Z AUTO 18013KT 10SM CLR 20/16 A3003 RMK AO2,0,13,0,16090,0,0,0,
2026-03-31 06:15:00,METAR KGVT 310615Z AUTO 18013KT 10SM CLR 20/16 A3003 RMK AO2,0,13,0,16090,0,0,0,
2026-03-31 05:55:00,METAR KGVT 310555Z AUTO 17013KT 10SM CLR 21/16 A3001 RMK AO2,0,13,0,16090,0,0,0,
2026-03-31 05:35:00,METAR KGVT 310535Z AUTO 17014G19KT 10SM CLR 21/16 A3001 RMK AO2,0,14,1,16090,0,0,0,
2026-03-31 05:15:00,METAR KGVT 310515Z AUTO 17011G17KT 10SM CLR 21/15 A3003 RMK AO2,0,11,1,16090,0,0,0,
2026-03-31 04:55:00,METAR KGVT 310455Z AUTO 17010KT 10SM CLR 20/15 A3003 RMK AO2,0,10,0,16090,0,0,0,
2026-03-31 04:35:00,METAR KGVT 310435Z AUTO 17010KT 10SM CLR 21/15 A3003 RMK AO2,0,10,0,16090,0,0,0,
2026-03-31 04:15:00,METAR KGVT 310415Z AUTO 16008KT 10SM CLR 19/16 A3002 RMK AO2,0,8,0,16090,0,0,0,
2026-03-31 03:55:00,METAR KGVT 310355Z AUTO 16009KT 10SM CLR 19/16 A3001 RMK AO2,0,9,0,16090,0,0,0,
2026-03-31 03:35:00,METAR KGVT 310335Z AUTO 16008KT 10SM CLR 20/16 A3001 RMK AO2,0,8,0,16090,0,0,0,
2026-03-31 03:15:00,METAR KGVT 310315Z AUTO 16008KT 10SM CLR 20/15 A3001 RMK AO2,0,8,0,16090,0,0,0,
2026-03-31 02:55:00,METAR KGVT 310255Z AUTO 16010KT 10SM CLR 21/15 A3000 RMK AO2,0,10,0,16090,0,0,0,
2026-03-31 02:35:00,METAR KGVT 310235Z AUTO 16009KT 10SM CLR 21/15 A3000 RMK AO2,0,9,0,16090,0,0,0,
2026-03-31 02:15:00,METAR KGVT 310215Z AUTO 16009KT 10SM CLR 20/16 A2999 RMK AO2,0,9,0,16090,0,0,0,
2026-03-31 01:55:00,METAR KGVT 310155Z AUTO 15008KT 10SM CLR 19/16 A2999 RMK AO2,0,8,0,16090,0,0,0,
2026-03-31 01:30:00,METAR KGVT 310130Z AUTO 14007KT 10SM CLR 19/16 A2999 RMK AO2,0,7,0,16090,0,0,0,
2026-03-31 01:15:00,METAR KGVT 310115Z AUTO 14007KT 10SM CLR 19/16 A2999 RMK AO2,0,7,0,16090,0,0,0,
2026-03-31 00:55:00,METAR KGVT 310055Z AUTO 14006KT 10SM CLR 20/16 A2999 RMK AO2,0,6,0,16090,0,0,0,
2026-03-31 00:35:00,METAR KGVT 310035Z AUTO 16008KT 10SM CLR 22/16 A2999 RMK AO2,0,8,0,16090,0,0,0,
2026-03-31 00:15:00,METAR KGVT 310015Z AUTO 15006KT 10SM CLR 23/16 A2999 RMK AO2,0,6,0,16090,0,0,0,
2026-03-30 23:55:00,METAR KGVT 302355Z AUTO 16010KT 10SM CLR 25/16 A2999 RMK AO2,0,10,0,16090,0,0,0,
2026-03-30 23:35:00,METAR KGVT 302335Z AUTO 15010KT 10SM CLR 25/16 A2999 RMK AO2,0,10,0,16090,0,0,0,
2026-03-30 23:15:00,METAR KGVT 302315Z AUTO 15012KT 10SM CLR 25/16 A2999 RMK AO2,0,12,0,16090,0,0,0,
2026-03-30 22:55:00,METAR KGVT 302255Z AUTO 15012G19KT 10SM CLR 25/16 A3000 RMK AO2,0,12,1,16090,0,0,0,
2026-03-30 22:35:00,METAR KGVT 302235Z AUTO 16014KT 10SM CLR 25/16 A3001 RMK AO2,0,14,0,16090,0,0,0,
2026-03-30 22:15:00,METAR KGVT 302215Z AUTO 16014G17KT 10SM SCT039 26/16 A3001 RMK AO2,0,14,1,16090,0,0,0,
2026-03-30 21:55:00,METAR KGVT 302155Z AUTO 17012KT 10SM SCT037 26/16 A3001 RMK AO2,0,12,0,16090,0,0,0,
2026-03-30 21:35:00,METAR KGVT 302135Z AUTO 16015KT 10SM SCT037 26/16 A3002 RMK AO2,0,15,0,16090,0,0,0,
2026-03-30 21:15:00,METAR KGVT 302115Z AUTO 16015G20KT 10SM SCT035 25/16 A3002 RMK AO2,0,15,1,16090,0,0,0,
2026-03-30 20:50:00,METAR KGVT 302050Z AUTO 16016G20KT 10SM SCT033 24/16 A3003 RMK AO2,0,16,1,16090,0,0,0,
2026-03-30 20:35:00,METAR KGVT 302035Z AUTO 16014KT 10SM BKN033 26/17 A3004 RMK AO2,0,14,0,16090,0,0,0,
2026-03-30 20:15:00,METAR KGVT 302015Z AUTO 18017G22KT 10SM SCT031 25/17 A3005 RMK AO2,0,17,1,16090,0,0,0,
2026-03-30 19:55:00,METAR KGVT 301955Z AUTO 18017G24KT 10SM BKN029 25/16 A3006 RMK AO2,0,17,1,16090,0,0,0,
2026-03-30 19:35:00,METAR KGVT 301935Z AUTO 19016G23KT 10SM OVC027 24/17 A3007 RMK AO2,0,16,1,16090,0,0,0,
2026-03-30 19:15:00,METAR KGVT 301915Z AUTO 18019KT 10SM OVC027 24/17 A3008 RMK AO2,0,19,0,16090,0,0,0,
2026-03-30 18:55:00,METAR KGVT 301855Z AUTO 17018G24KT 10SM OVC027 24/17 A3009 RMK AO2,0,18,1,16090,0,0,0,
2026-03-30 18:35:00,METAR KGVT 301835Z AUTO 18014G21KT 10SM OVC025 24/17 A3010 RMK AO2,0,14,1,16090,0,0,0,
2026-03-30 18:10:00,METAR KGVT 301810Z AUTO 17016G24KT 10SM OVC025 24/17 A3011 RMK AO2,0,16,1,16090,0,0,0,
2026-03-30 17:55:00,METAR KGVT 301755Z AUTO 18017KT 10SM OVC025 23/17 A3011 RMK AO2,0,17,0,16090,0,0,0,
2026-03-30 17:35:00,METAR KGVT 301735Z AUTO 18018G24KT 10SM OVC025 23/17 A3011 RMK AO2,0,18,1,16090,0,0,0,
2026-03-30 17:15:00,METAR KGVT 301715Z AUTO 18017G22KT 10SM OVC027 23/17 A3012 RMK AO2,0,17,1,16090,0,0,0,
2026-03-30 16:55:00,METAR KGVT 301655Z AUTO 20018KT 10SM OVC025 23/17 A3012 RMK AO2,0,18,0,16090,0,0,0,
2026-03-30 16:35:00,METAR KGVT 301635Z AUTO 20015KT 10SM OVC025 24/17 A3013 RMK AO2,0,15,0,16090,0,0,0,
2026-03-30 16:15:00,METAR KGVT 301615Z AUTO 19018G22KT 10SM OVC025 23/17 A3013 RMK AO2,0,18,1,16090,0,0,0,
2026-03-30 15:55:00,METAR KGVT 301555Z AUTO 19014G20KT 10SM OVC023 22/17 A3013 RMK AO2,0,14,1,16090,0,0,0,
2026-03-30 15:35:00,METAR KGVT 301535Z AUTO 20013G19KT 10SM OVC023 22/17 A3013 RMK AO2,0,13,1,16090,0,0,0,
2026-03-30 15:15:00,METAR KGVT 301515Z AUTO 19011G16KT 10SM OVC025 21/17 A3014 RMK AO2,0,11,1,16090,0,0,0,
2026-03-30 14:55:00,METAR KGVT 301455Z AUTO 18011KT 10SM OVC027 21/17 A3013 RMK AO2,0,11,0,16090,0,0,0,
2026-03-30 14:35:00,METAR KGVT 301435Z AUTO 18011KT 10SM OVC027 20/16 A3013 RMK AO2,0,11,0,16090,0,0,0,
2026-03-30 14:15:00,METAR KGVT 301415Z AUTO 19012KT 10SM OVC027 20/16 A3014 RMK AO2,0,12,0,16090,0,0,0,
2026-03-30 13:55:00,METAR KGVT 301355Z AUTO 18011KT 10SM OVC029 20/16 A3014 RMK AO2,0,11,0,16090,0,0,0,
2026-03-30 13:35:00,METAR KGVT 301335Z AUTO 19010KT 10SM OVC027 20/16 A3013 RMK AO2,0,10,0,16090,0,0,0,
2026-03-30 13:15:00,METAR KGVT 301315Z AUTO 19012KT 10SM OVC027 19/16 A3013 RMK AO2,0,12,0,16090,0,0,0,
2026-03-30 12:55:00,METAR KGVT 301255Z AUTO 19011KT 10SM OVC025 19/16 A3013 RMK AO2,0,11,0,16090,0,0,0,
2026-03-30 12:35:00,METAR KGVT 301235Z AUTO 19012KT 10SM OVC023 19/16 A3012 RMK AO2,0,12,0,16090,0,0,0,
2026-03-30 12:15:00,METAR KGVT 301215Z AUTO 20011KT 10SM OVC023 18/16 A3012 RMK AO2,0,11,0,16090,0,0,0,
2026-03-30 11:55:00,METAR KGVT 301155Z AUTO 19012KT 10SM OVC021 18/16 A3011 RMK AO2,0,12,0,16090,0,0,0,
2026-03-30 11:35:00,METAR KGVT 301135Z AUTO 18010KT 10SM OVC019 18/16 A3011 RMK AO2,0,10,0,16090,0,0,0,
2026-03-30 11:15:00,METAR KGVT 301115Z AUTO 18012KT 10SM OVC019 18/16 A3010 RMK AO2,0,12,0,16090,0,0,0,
2026-03-30 10:55:00,METAR KGVT 301055Z AUTO 18012KT 10SM OVC015 18/17 A3010 RMK AO2,0,12,0,16090,0,0,0,
2026-03-30 10:35:00,METAR KGVT 301035Z AUTO 19014G19KT 10SM OVC015 18/17 A3010 RMK AO2,0,14,1,16090,0,0,0,
2026-03-30 10:15:00,METAR KGVT 301015Z AUTO 19014G23KT 10SM OVC015 18/17 A3009 RMK AO2,0,14,1,16090,0,0,0,
2026-03-30 09:55:00,METAR KGVT 300955Z AUTO 18013G16KT 10SM OVC015 18/17 A3009 RMK AO2,0,13,1,16090,0,0,0,
2026-03-30 09:35:00,METAR KGVT 300935Z AUTO 17009KT 10SM SCT017 18/17 A3009 RMK AO2,0,9,0,16090,0,0,0,
2026-03-30 09:15:00,METAR KGVT 300915Z AUTO 17010KT 10SM CLR 18/16 A3008 RMK AO2,0,10,0,16090,0,0,0,
2026-03-30 08:55:00,METAR KGVT 300855Z AUTO 17009KT 10SM CLR 18/16 A3008 RMK AO2,0,9,0,16090,0,0,0,
2026-03-30 08:35:00,METAR KGVT 300835Z AUTO 17010KT 10SM CLR 18/16 A3008 RMK AO2,0,10,0,16090,0,0,0,
2026-03-30 08:15:00,METAR KGVT 300815Z AUTO 17009KT 10SM CLR 18/16 A3008 RMK AO2,0,9,0,16090,0,0,0,
2026-03-30 07:55:00,METAR KGVT 300755Z AUTO 17009KT 10SM CLR 19/16 A3008 RMK AO2,0,9,0,16090,0,0,0,
2026-03-30 07:35:00,METAR KGVT 300735Z AUTO 18011KT 10SM CLR 19/16 A3008 RMK AO2,0,11,0,16090,0,0,0,
2026-03-30 07:15:00,METAR KGVT 300715Z AUTO 18013KT 10SM CLR 19/15 A3008 RMK AO2,0,13,0,16090,0,0,0,
2026-03-30 06:55:00,METAR KGVT 300655Z AUTO 18012KT 10SM CLR 19/15 A3008 RMK AO2,0,12,0,16090,0,0,0,
2026-03-30 06:35:00,METAR KGVT 300635Z AUTO 17011KT 10SM CLR 19/15 A3008 RMK AO2,0,11,0,16090,0,0,0,
2026-03-30 06:15:00,METAR KGVT 300615Z AUTO 16009KT 10SM CLR 18/15 A3008 RMK AO2,0,9,0,16090,0,0,0,
2026-03-30 05:55:00,METAR KGVT 300555Z AUTO 16008KT 10SM CLR 19/14 A3008 RMK AO2,0,8,0,16090,0,0,0,
2026-03-30 05:35:00,METAR KGVT 300535Z AUTO 17008KT 10SM CLR 19/14 A3007 RMK AO2,0,8,0,16090,0,0,0,
2026-03-30 05:15:00,METAR KGVT 300515Z AUTO 18009KT 10SM CLR 19/14 A3008 RMK AO2,0,9,0,16090,0,0,0,
2026-03-30 04:55:00,METAR KGVT 300455Z AUTO 18007KT 10SM CLR 20/14 A3008 RMK AO2,0,7,0,16090,0,0,0,
2026-03-30 04:35:00,METAR KGVT 300435Z AUTO 17010KT 10SM CLR 20/14 A3008 RMK AO2,0,10,0,16090,0,0,0,
2026-03-30 04:15:00,METAR KGVT 300415Z AUTO 17009KT 10SM CLR 20/14 A3008 RMK AO2,0,9,0,16090,0,0,0,
2026-03-30 03:55:00,METAR KGVT 300355Z AUTO 17008KT 10SM CLR 20/14 A3008 RMK AO2,0,8,0,16090,0,0,0,
2026-03-30 03:35:00,METAR KGVT 300335Z AUTO 16008KT 10SM CLR 19/14 A3008 RMK AO2,0,8,0,16090,0,0,0,
2026-03-30 03:10:00,METAR KGVT 300310Z AUTO 16008KT 10SM CLR 19/14 A3008 RMK AO2,0,8,0,16090,0,0,0,
2026-03-30 02:55:00,METAR KGVT 300255Z AUTO 16007KT 10SM CLR 18/15 A3008 RMK AO2,0,7,0,16090,0,0,0,
2026-03-30 02:35:00,METAR KGVT 300235Z AUTO 14007KT 10SM CLR 18/14 A3007 RMK AO2,0,7,0,16090,0,0,0,
2026-03-30 02:15:00,METAR KGVT 300215Z AUTO 16007KT 10SM CLR 19/13 A3006 RMK AO2,0,7,0,16090,0,0,0,
2026-03-30 01:55:00,METAR KGVT 300155Z AUTO 16007KT 10SM CLR 20/13 A3006 RMK AO2,0,7,0,16090,0,0,0,
2026-03-30 01:35:00,METAR KGVT 300135Z AUTO 17009KT 10SM CLR 22/13 A3006 RMK AO2,0,9,0,16090,0,0,0,
2026-03-30 01:15:00,METAR KGVT 300115Z AUTO 17008KT 10SM CLR 22/13 A3005 RMK AO2,0,8,0,16090,0,0,0,
2026-03-30 00:55:00,METAR KGVT 300055Z AUTO 17010KT 10SM CLR 23/13 A3005 RMK AO2,0,10,0,16090,0,0,0,
2026-03-30 00:35:00,METAR KGVT 300035Z AUTO 17010KT 10SM CLR 24/13 A3005 RMK AO2,0,10,0,16090,0,0,0,
2026-03-30 00:15:00,METAR KGVT 300015Z AUTO 17010KT 10SM CLR 25/13 A3005 RMK AO2,0,10,0,16090,0,0,0,
2026-03-29 23:55:00,METAR KGVT 292355Z AUTO 17009KT 10SM CLR 25/13 A3006 RMK AO2,0,9,0,16090,0,0,0,
2026-03-29 23:35:00,METAR KGVT 292335Z AUTO 17016KT 10SM CLR 26/13 A3006 RMK AO2,0,16,0,16090,0,0,0,
2026-03-29 23:15:00,METAR KGVT 292315Z AUTO 18015KT 10SM CLR 26/13 A3006 RMK AO2,0,15,0,16090,0,0,0,
2026-03-29 22:55:00,METAR KGVT 292255Z AUTO 19017G24KT 10SM CLR 27/13 A3007 RMK AO2,0,17,1,16090,0,0,0,
2026-03-29 22:35:00,METAR KGVT 292235Z AUTO 17013KT 10SM CLR 27/13 A3007 RMK AO2,0,13,0,16090,0,0,0,
2026-03-29 22:15:00,METAR KGVT 292215Z AUTO 19014G23KT 10SM CLR 27/13 A3007 RMK AO2,0,14,1,16090,0,0,0,
2026-03-29 21:55:00,METAR KGVT 292155Z AUTO 19014KT 10SM CLR 27/13 A3008 RMK AO2,0,14,0,16090,0,0,0,
2026-03-29 21:35:00,METAR KGVT 292135Z AUTO 18014KT 10SM CLR 27/13 A3008 RMK AO2,0,14,0,16090,0,0,0,
2026-03-29 21:15:00,METAR KGVT 292115Z AUTO 19017G23KT 10SM CLR 27/13 A3009 RMK AO2,0,17,1,16090,0,0,0,
2026-03-29 20:55:00,METAR KGVT 292055Z AUTO 18016G20KT 10SM CLR 27/13 A3010 RMK AO2,0,16,1,16090,0,0,0,
2026-03-29 20:35:00,METAR KGVT 292035Z AUTO 18017G23KT 10SM CLR 27/13 A3010 RMK AO2,0,17,1,16090,0,0,0,
2026-03-29 20:15:00,METAR KGVT 292015Z AUTO 20018KT 10SM CLR 26/13 A3012 RMK AO2,0,18,0,16090,0,0,0,
2026-03-29 19:55:00,METAR KGVT 291955Z AUTO 17016G20KT 10SM CLR 26/12 A3013 RMK AO2,0,16,1,16090,0,0,0,
2026-03-29 19:35:00,METAR KGVT 291935Z AUTO 19014G22KT 10SM CLR 26/12 A3014 RMK AO2,0,14,1,16090,0,0,0,
2026-03-29 19:15:00,METAR KGVT 291915Z AUTO 18014G20KT 10SM CLR 25/12 A3015 RMK AO2,0,14,1,16090,0,0,0,
2026-03-29 18:55:00,METAR KGVT 291855Z AUTO 17014G25KT 10SM CLR 25/12 A3016 RMK AO2,0,14,1,16090,0,0,0,
2026-03-29 18:35:00,METAR KGVT 291835Z AUTO 18016G19KT 10SM CLR 25/12 A3017 RMK AO2,0,16,1,16090,0,0,0,
2026-03-29 18:15:00,METAR KGVT 291815Z AUTO 18015KT 10SM CLR 24/12 A3018 RMK AO2,0,15,0,16090,0,0,0,
2026-03-29 17:55:00,METAR KGVT 291755Z AUTO 19012KT 10SM CLR 24/11 A3019 RMK AO2,0,12,0,16090,0,0,0,
2026-03-29 17:35:00,METAR KGVT 291735Z AUTO 19013KT 10SM CLR 23/11 A3020 RMK AO2,0,13,0,16090,0,0,0,
2026-03-29 17:15:00,METAR KGVT 291715Z AUTO 19014KT 10SM CLR 23/10 A3021 RMK AO2,0,14,0,16090,0,0,0,
2026-03-29 16:55:00,METAR KGVT 291655Z AUTO 18014G18KT 10SM CLR 22/10 A3022 RMK AO2,0,14,1,16090,0,0,0,
2026-03-29 16:35:00,METAR KGVT 291635Z AUTO 18014KT 10SM CLR 21/09 A3023 RMK AO2,0,14,0,16090,0,0,0,
2026-03-29 16:15:00,METAR KGVT 291615Z AUTO 20012KT 10SM CLR 20/09 A3024 RMK AO2,0,12,0,16090,0,0,0,
2026-03-29 15:55:00,METAR KGVT 291555Z AUTO 17014KT 10SM CLR 20/08 A3024 RMK AO2,0,14,0,16090,0,0,0,
2026-03-29 15:35:00,METAR KGVT 291535Z AUTO 18013KT 10SM CLR 19/08 A3025 RMK AO2,0,13,0,16090,0,0,0,
2026-03-29 15:15:00,METAR KGVT 291515Z AUTO 18010KT 10SM CLR 18/07 A3025 RMK AO2,0,10,0,16090,0,0,0,
2026-03-29 14:55:00,METAR KGVT 291455Z AUTO 19015KT 10SM CLR 17/06 A3025 RMK AO2,0,15,0,16090,0,0,0,
2026-03-29 14:35:00,METAR KGVT 291435Z AUTO 17014KT 10SM CLR 17/05 A3025 RMK AO2,0,14,0,16090,0,0,0,
2026-03-29 14:15:00,METAR KGVT 291415Z AUTO 16008KT 10SM SCT110 15/07 A3025 RMK AO2,0,8,0,16090,0,0,0,
2026-03-29 13:55:00,METAR KGVT 291355Z AUTO 14007KT 10SM BKN110 13/06 A3025 RMK AO2,0,7,0,16090,0,0,0,
2026-03-29 13:35:00,METAR KGVT 291335Z AUTO 14007KT 10SM BKN110 12/05 A3025 RMK AO2,0,7,0,16090,0,0,0,
2026-03-29 13:15:00,METAR KGVT 291315Z AUTO 14005KT 10SM OVC110 12/06 A3024 RMK AO2,0,5,0,16090,0,0,0,
2026-03-29 12:55:00,METAR KGVT 291255Z AUTO 13004KT 10SM OVC110 11/06 A3024 RMK AO2,0,4,0,16090,0,0,0,
2026-03-29 12:35:00,METAR KGVT 291235Z AUTO 13004KT 10SM OVC110 10/06 A3023 RMK AO2,0,4,0,16090,0,0,0,
2026-03-29 12:15:00,METAR KGVT 291215Z AUTO 13005KT 10SM OVC110 11/06 A3023 RMK AO2,0,5,0,16090,0,0,0,
2026-03-29 11:55:00,METAR KGVT 291155Z AUTO 13004KT 10SM OVC110 11/06 A3023 RMK AO2,0,4,0,16090,0,0,0,
2026-03-29 11:35:00,METAR KGVT 291135Z AUTO 13004KT 10SM OVC100 11/06 A3023 RMK AO2,0,4,0,16090,0,0,0,
2026-03-29 11:15:00,METAR KGVT 291115Z AUTO 13004KT 10SM OVC100 11/06 A3023 RMK AO2,0,4,0,16090,0,0,0,
2026-03-29 10:55:00,METAR KGVT 291055Z AUTO 12003KT 10SM SCT065 OVC110 10/06 A3023 RMK AO2,0,3,0,16090,0,0,0,
2026-03-29 10:35:00,METAR KGVT 291035Z AUTO 00000KT 10SM BKN065 OVC110 10/07 A3023 RMK AO2,0,0,0,16090,0,0,0,
2026-03-29 10:15:00,METAR KGVT 291015Z AUTO 00000KT 10SM OVC110 10/04 A3023 RMK AO2,0,0,0,16090,0,0,0,
2026-03-29 09:55:00,METAR KGVT 290955Z AUTO 00000KT 10SM BKN110 10/05 A3023 RMK AO2,0,0,0,16090,0,0,0,
2026-03-29 09:35:00,METAR KGVT 290935Z AUTO 16004KT 10SM OVC100 10/04 A3023 RMK AO2,0,4,0,16090,0,0,0,
2026-03-29 09:15:00,METAR KGVT 290915Z AUTO 15005KT 10SM BKN090 10/04 A3023 RMK AO2,0,5,0,16090,0,0,0,
2026-03-29 08:55:00,METAR KGVT 290855Z AUTO 15005KT 10SM BKN090 11/04 A3024 RMK AO2,0,5,0,16090,0,0,0,
2026-03-29 08:35:00,METAR KGVT 290835Z AUTO 15006KT 10SM SCT070 OVC090 11/04 A3024 RMK AO2,0,6,0,16090,0,0,0,
2026-03-29 08:15:00,METAR KGVT 290815Z AUTO 15005KT 10SM SCT070 OVC100 11/04 A3024 RMK AO2,0,5,0,16090,0,0,0,
2026-03-29 07:55:00,METAR KGVT 290755Z AUTO 12005KT 10SM OVC100 11/04 A3025 RMK AO2,0,5,0,16090,0,0,0,
2026-03-29 07:35:00,METAR KGVT 290735Z AUTO 13004KT 10SM OVC110 11/03 A3026 RMK AO2,0,4,0,16090,0,0,0,
2026-03-29 07:15:00,METAR KGVT 290715Z AUTO 14005KT 10SM OVC095 11/03 A3026 RMK AO2,0,5,0,16090,0,0,0,
2026-03-29 06:55:00,METAR KGVT 290655Z AUTO 13005KT 10SM SCT095 10/03 A3026 RMK AO2,0,5,0,16090,0,0,0,
2026-03-29 06:35:00,METAR KGVT 290635Z AUTO 13005KT 10SM CLR 11/03 A3027 RMK AO2,0,5,0,16090,0,0,0,
2026-03-29 06:15:00,METAR KGVT 290615Z AUTO 14006KT 10SM SCT085 11/03 A3027 RMK AO2,0,6,0,16090,0,0,0,
2026-03-29 05:55:00,METAR KGVT 290555Z AUTO 14007KT 10SM SCT034 BKN085 12/03 A3028 RMK AO2,0,7,0,16090,0,0,0,
2026-03-29 05:35:00,METAR KGVT 290535Z AUTO 14007KT 10SM BKN034 12/02 A3029 RMK AO2,0,7,0,16090,0,0,0,
2026-03-29 05:15:00,METAR KGVT 290515Z AUTO 15007KT 10SM BKN034 OVC110 12/02 A3029 RMK AO2,0,7,0,16090,0,0,0,
2026-03-29 04:55:00,METAR KGVT 290455Z AUTO 14009KT 10SM SCT034 SCT090 OVC110 13/02 A3029 RMK AO2,0,9,0,16090,0,0,0,
2026-03-29 04:35:00,METAR KGVT 290435Z AUTO 14008KT 10SM BKN034 BKN090 OVC110 13/02 A3030 RMK AO2,0,8,0,16090,0,0,0,
2026-03-29 04:15:00,METAR KGVT 290415Z AUTO 14006KT 10SM BKN036 OVC110 13/03 A3030 RMK AO2,0,6,0,16090,0,0,0,
2026-03-29 03:55:00,METAR KGVT 290355Z AUTO 15005KT 10SM BKN036 OVC110 13/03 A3031 RMK AO2,0,5,0,16090,0,0,0,
2026-03-29 03:35:00,METAR KGVT 290335Z AUTO 15006KT 10SM OVC036 13/03 A3031 RMK AO2,0,6,0,16090,0,0,0,
2026-03-29 03:15:00,METAR KGVT 290315Z AUTO 15005KT 10SM OVC034 13/03 A3031 RMK AO2,0,5,0,16090,0,0,0,
2026-03-29 02:55:00,METAR KGVT 290255Z AUTO 15004KT 10SM OVC034 13/03 A3031 RMK AO2,0,4,0,16090,0,0,0,
2026-03-29 02:35:00,METAR KGVT 290235Z AUTO 15004KT 10SM OVC034 14/04 A3031 RMK AO2,0,4,0,16090,0,0,0,
2026-03-29 02:15:00,METAR KGVT 290215Z AUTO 15004KT 10SM OVC036 14/04 A3031 RMK AO2,0,4,0,16090,0,0,0,
2026-03-29 01:55:00,METAR KGVT 290155Z AUTO 16003KT 10SM OVC036 14/04 A3032 RMK AO2,0,3,0,16090,0,0,0,
2026-03-29 01:35:00,METAR KGVT 290135Z AUTO 14004KT 10SM OVC038 14/03 A3032 RMK AO2,0,4,0,16090,0,0,0,
2026-03-29 01:15:00,METAR KGVT 290115Z AUTO 14005KT 10SM OVC038 14/03 A3032 RMK AO2,0,5,0,16090,0,0,0,
2026-03-29 00:55:00,METAR KGVT 290055Z AUTO 14005KT 10SM OVC040 14/03 A3033 RMK AO2,0,5,0,16090,0,0,0,
2026-03-29 00:35:00,METAR KGVT 290035Z AUTO 11004KT 10SM OVC038 14/02 A3033 RMK AO2,0,4,0,16090,0,0,0,
2026-03-29 00:15:00,METAR KGVT 290015Z AUTO 12006KT 10SM OVC038 14/02 A3034 RMK AO2,0,6,0,16090,0,0,0,
2026-03-28 23:55:00,METAR KGVT 282355Z AUTO 12005KT 10SM OVC038 15/02 A3034 RMK AO2,0,5,0,16090,0,0,0,
2026-03-28 23:35:00,METAR KGVT 282335Z AUTO 08005KT 10SM OVC042 15/02 A3034 RMK AO2,0,5,0,16090,0,0,0,
2026-03-28 23:15:00,METAR KGVT 282315Z AUTO 10007KT 10SM OVC042 15/02 A3034 RMK AO2,0,7,0,16090,0,0,0,
2026-03-28 22:55:00,METAR KGVT 282255Z AUTO 12006KT 10SM OVC046 15/02 A3034 RMK AO2,0,6,0,16090,0,0,0,
2026-03-28 22:35:00,METAR KGVT 282235Z AUTO 12006KT 10SM SCT039 OVC046 15/02 A3035 RMK AO2,0,6,0,16090,0,0,0,
2026-03-28 22:15:00,METAR KGVT 282215Z AUTO 12007KT 070V130 10SM BKN037 OVC048 15/02 A3035 RMK AO2,0,7,0,16090,0,0,0,
2026-03-28 21:55:00,METAR KGVT 282155Z AUTO 06006KT 10SM BKN037 OVC046 15/02 A3037 RMK AO2,0,6,0,16090,0,0,0,
2026-03-28 21:35:00,METAR KGVT 282135Z AUTO 08006KT 10SM SCT039 OVC050 15/02 A3037 RMK AO2,0,6,0,16090,0,0,0,
2026-03-28 21:15:00,METAR KGVT 282115Z AUTO 11007KT 10SM BKN039 OVC055 15/02 A3038 RMK AO2,0,7,0,16090,0,0,0,
2026-03-28 20:55:00,METAR KGVT 282055Z AUTO 11006KT 10SM OVC039 15/02 A3040 RMK AO2,0,6,0,16090,0,0,0,
2026-03-28 20:35:00,METAR KGVT 282035Z AUTO 10005KT 10SM OVC039 15/02 A3041 RMK AO2,0,5,0,16090,0,0,0,
2026-03-28 20:15:00,METAR KGVT 282015Z AUTO 13008KT 10SM OVC039 15/02 A3042 RMK AO2,0,8,0,16090,0,0,0,
2026-03-28 19:55:00,METAR KGVT 281955Z AUTO 11008KT 10SM OVC039 15/01 A3043 RMK AO2,0,8,0,16090,0,0,0,
2026-03-28 19:35:00,METAR KGVT 281935Z AUTO 09005KT 10SM SCT039 BKN048 OVC060 15/01 A3044 RMK AO2,0,5,0,16090,0,0,0,
2026-03-28 19:15:00,METAR KGVT 281915Z AUTO 07004KT 10SM SCT041 SCT048 OVC060 15/02 A3045 RMK AO2,0,4,0,16090,0,0,0,
2026-03-28 18:55:00,METAR KGVT 281855Z AUTO 08008KT 10SM BKN044 OVC060 15/03 A3046 RMK AO2,0,8,0,16090,0,0,0,
2026-03-28 18:35:00,METAR KGVT 281835Z AUTO 06008KT 10SM OVC046 14/02 A3047 RMK AO2,0,8,0,16090,0,0,0,
2026-03-28 18:15:00,METAR KGVT 281815Z AUTO 07009KT 10SM OVC046 15/03 A3048 RMK AO2,0,9,0,16090,0,0,0,
2026-03-28 17:55:00,METAR KGVT 281755Z AUTO 10006KT 10SM OVC046 14/03 A3049 RMK AO2,0,6,0,16090,0,0,0,
2026-03-28 17:35:00,METAR KGVT 281735Z AUTO 08010KT 10SM OVC046 13/03 A3050 RMK AO2,0,10,0,16090,0,0,0,
2026-03-28 17:15:00,METAR KGVT 281715Z AUTO 08009KT 040V120 10SM OVC046 13/03 A3051 RMK AO2,0,9,0,16090,0,0,0,
2026-03-28 16:55:00,METAR KGVT 281655Z AUTO 07011KT 10SM OVC046 13/02 A3051 RMK AO2,0,11,0,16090,0,0,0,
2026-03-28 16:35:00,METAR KGVT 281635Z AUTO 08009KT 10SM OVC046 12/02 A3052 RMK AO2,0,9,0,16090,0,0,0,
2026-03-28 16:15:00,METAR KGVT 281615Z AUTO 10012G15KT 10SM OVC046 12/02 A3053 RMK AO2,0,12,1,16090,0,0,0,
2026-03-28 15:55:00,METAR KGVT 281555Z AUTO 07012KT 10SM BKN046 OVC050 11/02 A3053 RMK AO2,0,12,0,16090,0,0,0,
2026-03-28 15:35:00,METAR KGVT 281535Z AUTO 09008G17KT 10SM OVC050 11/02 A3053 RMK AO2,0,8,1,16090,0,0,0,
2026-03-28 15:15:00,METAR KGVT 281515Z AUTO 07011G15KT 10SM BKN050 OVC060 11/03 A3053 RMK AO2,0,11,1,16090,0,0,0,
2026-03-28 14:55:00,METAR KGVT 281455Z AUTO 07010KT 10SM SCT050 OVC060 11/04 A3053 RMK AO2,0,10,0,16090,0,0,0,
2026-03-28 14:35:00,METAR KGVT 281435Z AUTO 05009KT 020V080 10SM BKN050 OVC060 11/05 A3053 RMK AO2,0,9,0,16090,0,0,0,
2026-03-28 14:15:00,METAR KGVT 281415Z AUTO 05011G16KT 10SM SCT032 OVC050 11/05 A3053 RMK AO2,0,11,1,16090,0,0,0,
2026-03-28 13:55:00,METAR KGVT 281355Z AUTO 07010KT 10SM SCT032 OVC050 11/05 A3053 RMK AO2,0,10,0,16090,0,0,0,
2026-03-28 13:35:00,METAR KGVT 281335Z AUTO 06010KT 10SM OVC050 11/05 A3052 RMK AO2,0,10,0,16090,0,0,0,
2026-03-28 13:15:00,METAR KGVT 281315Z AUTO 06008KT 10SM SCT033 OVC050 11/05 A3052 RMK AO2,0,8,0,16090,0,0,0,
2026-03-28 12:55:00,METAR KGVT 281255Z AUTO 06009KT 10SM OVC050 11/05 A3051 RMK AO2,0,9,0,16090,0,0,0,
2026-03-28 12:35:00,METAR KGVT 281235Z AUTO 05009KT 10SM OVC050 11/04 A3051 RMK AO2,0,9,0,16090,0,0,0,
2026-03-28 12:15:00,METAR KGVT 281215Z AUTO 05011G15KT 10SM OVC050 11/04 A3050 RMK AO2,0,11,1,16090,0,0,0,
2026-03-28 11:55:00,METAR KGVT 281155Z AUTO 05009KT 10SM OVC050 11/04 A3050 RMK AO2,0,9,0,16090,0,0,0,
2026-03-28 11:35:00,METAR KGVT 281135Z AUTO 05012KT 10SM OVC050 12/05 A3049 RMK AO2,0,12,0,16090,0,0,0,
2026-03-28 11:15:00,METAR KGVT 281115Z AUTO 05010KT 10SM OVC050 12/05 A3049 RMK AO2,0,10,0,16090,0,0,0,
2026-03-28 10:55:00,METAR KGVT 281055Z AUTO 05008KT 10SM OVC050 12/05 A3048 RMK AO2,0,8,0,16090,0,0,0,
2026-03-28 10:35:00,METAR KGVT 281035Z AUTO 05006KT 10SM OVC050 12/05 A3049 RMK AO2,0,6,0,16090,0,0,0,
2026-03-28 10:15:00,METAR KGVT 281015Z AUTO 04010KT 10SM OVC050 12/04 A3048 RMK AO2,0,10,0,16090,0,0,0,
2026-03-28 09:55:00,METAR KGVT 280955Z AUTO 05007KT 10SM OVC050 12/04 A3048 RMK AO2,0,7,0,16090,0,0,0,
2026-03-28 09:35:00,METAR KGVT 280935Z AUTO 03009KT 10SM OVC048 12/03 A3048 RMK AO2,0,9,0,16090,0,0,0,
2026-03-28 09:15:00,METAR KGVT 280915Z AUTO 04009G15KT 10SM OVC046 12/03 A3048 RMK AO2,0,9,1,16090,0,0,0,
2026-03-28 08:55:00,METAR KGVT 280855Z AUTO 05009G15KT 10SM OVC046 13/03 A3048 RMK AO2,0,9,1,16090,0,0,0,
2026-03-28 08:35:00,METAR KGVT 280835Z AUTO 05009KT 10SM OVC046 12/03 A3048 RMK AO2,0,9,0,16090,0,0,0,
2026-03-28 08:15:00,METAR KGVT 280815Z AUTO 04009KT 10SM OVC044 12/03 A3048 RMK AO2,0,9,0,16090,0,0,0,
2026-03-28 07:55:00,METAR KGVT 280755Z AUTO 04008KT 010V070 10SM OVC046 12/03 A3048 RMK AO2,0,8,0,16090,0,0,0,
2026-03-28 07:35:00,METAR KGVT 280735Z AUTO 05010KT 10SM OVC048 12/03 A3048 RMK AO2,0,10,0,16090,0,0,0,
2026-03-28 07:15:00,METAR KGVT 280715Z AUTO 04011KT 10SM OVC046 12/03 A3048 RMK AO2,0,11,0,16090,0,0,0,
2026-03-28 06:55:00,METAR KGVT 280655Z AUTO 05011G18KT 10SM OVC044 13/04 A3047 RMK AO2,0,11,1,16090,0,0,0,
2026-03-28 06:35:00,METAR KGVT 280635Z AUTO 04015KT 10SM OVC044 13/04 A3046 RMK AO2,0,15,0,16090,0,0,0,
2026-03-28 06:15:00,METAR KGVT 280615Z AUTO 04012G17KT 10SM OVC042 13/04 A3047 RMK AO2,0,12,1,16090,0,0,0,
2026-03-28 05:55:00,METAR KGVT 280555Z AUTO 04011G20KT 10SM OVC044 13/04 A3046 RMK AO2,0,11,1,16090,0,0,0,
2026-03-28 05:35:00,METAR KGVT 280535Z AUTO 05014G19KT 10SM OVC046 13/04 A3046 RMK AO2,0,14,1,16090,0,0,0,
2026-03-28 05:15:00,METAR KGVT 280515Z AUTO 03010G17KT 10SM OVC046 13/04 A3047 RMK AO2,0,10,1,16090,0,0,0,
2026-03-28 04:55:00,METAR KGVT 280455Z AUTO 03010G17KT 10SM OVC046 14/05 A3046 RMK AO2,0,10,1,16090,0,0,0,
2026-03-28 04:35:00,METAR KGVT 280435Z AUTO 04013G18KT 10SM OVC048 14/06 A3045 RMK AO2,0,13,1,16090,0,0,0,
2026-03-28 04:15:00,METAR KGVT 280415Z AUTO 03011G17KT 10SM OVC046 13/06 A3046 RMK AO2,0,11,1,16090,0,0,0,
2026-03-28 03:55:00,METAR KGVT 280355Z AUTO 02011G16KT 10SM OVC042 13/07 A3045 RMK AO2,0,11,1,16090,0,0,0,
2026-03-28 03:35:00,METAR KGVT 280335Z AUTO 02010G15KT 10SM OVC040 13/07 A3045 RMK AO2,0,10,1,16090,0,0,0,
2026-03-28 03:15:00,METAR KGVT 280315Z AUTO 02011G15KT 10SM OVC040 13/08 A3044 RMK AO2,0,11,1,16090,0,0,0,
2026-03-28 02:55:00,METAR KGVT 280255Z AUTO 02008G14KT 10SM OVC040 13/10 A3044 RMK AO2,0,8,1,16090,0,0,0,
2026-03-28 02:35:00,METAR KGVT 280235Z AUTO 02006KT 10SM OVC038 13/11 A3042 RMK AO2,0,6,0,16090,0,0,0,
2026-03-28 02:15:00,METAR KGVT 280215Z AUTO 02008KT 10SM SCT011 SCT017 OVC036 13/12 A3042 RMK AO2,0,8,0,16090,0,0,0,
2026-03-28 01:55:00,METAR KGVT 280155Z AUTO 02010KT 10SM BKN011 OVC015 12/12 A3041 RMK AO2,0,10,0,16090,0,0,0,
2026-03-28 01:35:00,METAR KGVT 280135Z AUTO 02009KT 7SM BKN011 OVC014 13/13 A3039 RMK AO2,0,9,0,11263,0,0,0,
2026-03-28 01:15:00,METAR KGVT 280115Z AUTO 03010G15KT 7SM BKN009 OVC015 13/12 A3038 RMK AO2,0,10,1,11263,0,0,0,
2026-03-28 00:55:00,METAR KGVT 280055Z AUTO 02011G18KT 7SM BR OVC009 12/12 A3036 RMK AO2,0,11,1,11263,0,0,1,BR
2026-03-28 00:35:00,METAR KGVT 280035Z AUTO 02011G17KT 4SM BR SCT009 OVC013 13/12 A3035 RMK AO2,0,11,1,6436,0,0,1,BR
2026-03-28 00:15:00,METAR KGVT 280015Z AUTO 02015G20KT 10SM OVC013 14/12 A3034 RMK AO2,0,15,1,16090,0,0,0,
2026-03-27 23:55:00,METAR KGVT 272355Z AUTO 02014G19KT 10SM OVC013 14/12 A3033 RMK AO2,0,14,1,16090,0,0,0,
2026-03-27 23:35:00,METAR KGVT 272335Z AUTO 02015G22KT 10SM OVC013 14/12 A3031 RMK AO2,0,15,1,16090,0,0,0,
2026-03-27 23:15:00,METAR KGVT 272315Z AUTO 02014G22KT 10SM OVC013 14/12 A3030 RMK AO2,0,14,1,16090,0,0,0,
2026-03-27 22:55:00,METAR KGVT 272255Z AUTO 02012G24KT 10SM BKN015 OVC020 14/12 A3029 RMK AO2,0,12,1,16090,0,0,0,
2026-03-27 22:35:00,METAR KGVT 272235Z AUTO 02017G22KT 10SM OVC019 15/12 A3029 RMK AO2,0,17,1,16090,0,0,0,
2026-03-27 22:15:00,METAR KGVT 272215Z AUTO 02015G19KT 10SM OVC021 15/12 A3028 RMK AO2,0,15,1,16090,0,0,0,
2026-03-27 21:55:00,METAR KGVT 272155Z AUTO 02013G19KT 10SM OVC021 16/12 A3026 RMK AO2,0,13,1,16090,0,0,0,
2026-03-27 21:35:00,METAR KGVT 272135Z AUTO 36016G19KT 10SM OVC021 16/12 A3026 RMK AO2,0,16,1,16090,0,0,0,
2026-03-27 21:15:00,METAR KGVT 272115Z AUTO 36014G21KT 10SM OVC021 16/12 A3025 RMK AO2,0,14,1,16090,0,0,0,
2026-03-27 20:55:00,METAR KGVT 272055Z AUTO 36018KT 10SM BKN021 OVC031 16/12 A3025 RMK AO2,0,18,0,16090,0,0,0,
2026-03-27 20:35:00,METAR KGVT 272035Z AUTO 01018G25KT 10SM OVC019 16/13 A3024 RMK AO2,0,18,1,16090,0,0,0,
2026-03-27 20:15:00,METAR KGVT 272015Z AUTO 36015G27KT 10SM OVC019 16/13 A3024 RMK AO2,0,15,1,16090,0,0,0,
2026-03-27 19:55:00,METAR KGVT 271955Z AUTO 36015KT 10SM OVC021 17/13 A3023 RMK AO2 LTG DSNT N,0,15,0,16090,0,0,0,DS
2026-03-27 19:35:00,METAR KGVT 271935Z AUTO 36016G20KT 10SM OVC021 17/13 A3023 RMK AO2,0,16,1,16090,0,0,0,
2026-03-27 19:15:00,METAR KGVT 271915Z AUTO 35013KT 10SM OVC021 17/13 A3023 RMK AO2,0,13,0,16090,0,0,0,
2026-03-27 18:55:00,METAR KGVT 271855Z AUTO 35015G21KT 10SM OVC021 17/13 A3023 RMK AO2,0,15,1,16090,0,0,0,
2026-03-27 18:35:00,METAR KGVT 271835Z AUTO 36016G19KT 10SM OVC021 18/13 A3022 RMK AO2,0,16,1,16090,0,0,0,
2026-03-27 18:15:00,METAR KGVT 271815Z AUTO 35019G24KT 10SM SCT019 BKN030 OVC034 21/17 A3021 RMK AO2,0,19,1,16090,0,0,0,
2026-03-27 17:55:00,METAR KGVT 271755Z AUTO 01006KT 10SM SCT026 OVC035 21/18 A3020 RMK AO2,0,6,0,16090,0,0,0,
2026-03-27 17:35:00,METAR KGVT 271735Z AUTO 02006KT 10SM BKN022 OVC032 21/18 A3020 RMK AO2,0,6,0,16090,0,0,0,
2026-03-27 17:15:00,METAR KGVT 271715Z AUTO 36006KT 10SM OVC022 21/18 A3020 RMK AO2,0,6,0,16090,0,0,0,
2026-03-27 16:55:00,METAR KGVT 271655Z AUTO 01006KT 10SM OVC022 21/18 A3020 RMK AO2,0,6,0,16090,0,0,0,
2026-03-27 16:35:00,METAR KGVT 271635Z AUTO 34005KT 10SM OVC022 21/17 A3019 RMK AO2,0,5,0,16090,0,0,0,
2026-03-27 16:15:00,METAR KGVT 271615Z AUTO 32005KT 10SM OVC022 21/17 A3019 RMK AO2,0,5,0,16090,0,0,0,
2026-03-27 15:55:00,METAR KGVT 271555Z AUTO 31005KT 10SM OVC022 21/17 A3018 RMK AO2,0,5,0,16090,0,0,0,
2026-03-25 14:55:00,METAR KGVT 251455Z AUTO 18012KT 10SM BKN017 22/18 A3009 RMK AO2,0,12,0,16090,0,0,0,
2026-03-25 14:35:00,METAR KGVT 251435Z AUTO 18014KT 10SM BKN015 21/18 A3008 RMK AO2,0,14,0,16090,0,0,0,
2026-03-25 14:15:00,METAR KGVT 251415Z AUTO 19012KT 10SM CLR 20/18 A3009 RMK AO2,0,12,0,16090,0,0,0,
2026-03-25 13:55:00,METAR KGVT 251355Z AUTO 18010KT 10SM SCT014 20/18 A3009 RMK AO2,0,10,0,16090,0,0,0,
2026-03-25 13:35:00,METAR KGVT 251335Z AUTO 18010G14KT 10SM OVC014 19/18 A3008 RMK AO2,0,10,1,16090,0,0,0,
2026-03-25 13:15:00,METAR KGVT 251315Z AUTO 19012G16KT 10SM OVC012 19/18 A3008 RMK AO2,0,12,1,16090,0,0,0,
2026-03-25 12:55:00,METAR KGVT 251255Z AUTO 19009KT 10SM OVC012 18/18 A3008 RMK AO2,0,9,0,16090,0,0,0,
2026-03-25 12:35:00,METAR KGVT 251235Z AUTO 19009KT 10SM OVC010 18/18 A3007 RMK AO2,0,9,0,16090,0,0,0,
2026-03-25 12:15:00,METAR KGVT 251215Z AUTO 19010KT 10SM OVC010 18/17 A3007 RMK AO2,0,10,0,16090,0,0,0,
2026-03-25 11:55:00,METAR KGVT 251155Z AUTO 19009KT 10SM OVC012 17/17 A3006 RMK AO2,0,9,0,16090,0,0,0,
2026-03-25 11:35:00,METAR KGVT 251135Z AUTO 18007KT 10SM SCT012 16/ A3006 RMK AO2,0,7,0,16090,0,0,0,
2026-03-25 11:15:00,METAR KGVT 251115Z AUTO 18007KT 10SM CLR 16/ A3005 RMK AO2,0,7,0,16090,0,0,0,
2026-03-25 10:55:00,METAR KGVT 251055Z AUTO 17005KT 10SM CLR 15/ A3004 RMK AO2,0,5,0,16090,0,0,0,
2026-03-25 10:35:00,METAR KGVT 251035Z AUTO 17005KT 10SM CLR 15/15 A3004 RMK AO2,0,5,0,16090,0,0,0,
2026-03-25 10:15:00,METAR KGVT 251015Z AUTO 16005KT 10SM CLR 15/15 A3004 RMK AO2,0,5,0,16090,0,0,0,
2026-03-25 09:55:00,METAR KGVT 250955Z AUTO 16004KT 10SM CLR 15/15 A3004 RMK AO2,0,4,0,16090,0,0,0,
2026-03-25 09:35:00,METAR KGVT 250935Z AUTO 16004KT 10SM CLR 16/16 A3004 RMK AO2,0,4,0,16090,0,0,0,
2026-03-25 09:15:00,METAR KGVT 250915Z AUTO 16005KT 10SM CLR 16/15 A3004 RMK AO2,0,5,0,16090,0,0,0,
2026-03-25 08:55:00,METAR KGVT 250855Z AUTO 16005KT 10SM CLR 16/15 A3004 RMK AO2,0,5,0,16090,0,0,0,
2026-03-25 08:35:00,METAR KGVT 250835Z AUTO 17005KT 10SM CLR 17/16 A3004 RMK AO2,0,5,0,16090,0,0,0,
2026-03-25 08:15:00,METAR KGVT 250815Z AUTO 17007KT 10SM CLR 18/16 A3004 RMK AO2,0,7,0,16090,0,0,0,
2026-03-25 07:55:00,METAR KGVT 250755Z AUTO 16008KT 10SM CLR 17/16 A3004 RMK AO2,0,8,0,16090,0,0,0,
2026-03-25 07:35:00,METAR KGVT 250735Z AUTO 14007KT 1 1/4SM BR VV007 16/15 A3004 RMK AO2,0,7,0,2011,0,0,1,BR
2026-03-25 07:15:00,METAR KGVT 250715Z AUTO 14006KT 3/4SM BR VV005 16/15 A3004 RMK AO2,0,6,0,1207,0,0,1,BR
2026-03-25 06:55:00,METAR KGVT 250655Z AUTO 13005KT 1/2SM FG VV005 16/15 A3004 RMK AO2,0,5,0,804,0,0,1,FG
2026-03-25 06:35:00,METAR KGVT 250635Z AUTO 12006KT 3/4SM BR VV005 17/15 A3005 RMK AO2,0,6,0,1207,0,0,1,BR
2026-03-25 06:15:00,METAR KGVT 250615Z AUTO 13006KT 1SM BR VV007 17/15 A3005 RMK AO2,0,6,0,1609,0,0,1,BR
2026-03-25 05:55:00,METAR KGVT 250555Z AUTO 13005KT 1SM HZ VV007 17/15 A3005 RMK AO2,0,5,0,1609,0,0,0,
2026-03-25 05:35:00,METAR KGVT 250535Z AUTO 13006KT 1SM BR VV007 17/15 A3005 RMK AO2,0,6,0,1609,0,0,1,BR
2026-03-25 05:15:00,METAR KGVT 250515Z AUTO 13006KT 1SM BR VV007 17/15 A3005 RMK AO2,0,6,0,1609,0,0,1,BR
2026-03-25 04:55:00,METAR KGVT 250455Z AUTO 12005KT 1SM BR VV007 17/15 A3005 RMK AO2,0,5,0,1609,0,0,1,BR
2026-03-25 04:35:00,METAR KGVT 250435Z AUTO 13005KT 1 1/4SM BR VV007 16/15 A3005 RMK AO2,0,5,0,2011,0,0,1,BR
2026-03-25 04:15:00,METAR KGVT 250415Z AUTO 13004KT 1 3/4SM BR VV007 17/15 A3005 RMK AO2,0,4,0,2816,0,0,1,BR
2026-03-25 03:55:00,METAR KGVT 250355Z AUTO 13005KT 1 3/4SM HZ VV007 19/15 A3005 RMK AO2,0,5,0,2816,0,0,0,
2026-03-25 03:35:00,METAR KGVT 250335Z AUTO 12005KT 10SM CLR 18/15 A3005 RMK AO2,0,5,0,16090,0,0,0,
2026-03-25 03:15:00,METAR KGVT 250315Z AUTO 13005KT 10SM CLR 19/15 A3005 RMK AO2,0,5,0,16090,0,0,0,
2026-03-25 02:55:00,METAR KGVT 250255Z AUTO 14006KT 10SM CLR 18/15 A3004 RMK AO2,0,6,0,16090,0,0,0,
2026-03-25 02:35:00,METAR KGVT 250235Z AUTO 13005KT 10SM CLR 17/15 A3004 RMK AO2,0,5,0,16090,0,0,0,
2026-03-25 02:15:00,METAR KGVT 250215Z AUTO 11003KT 10SM CLR 17/15 A3004 RMK AO2,0,3,0,16090,0,0,0,
2026-03-25 01:55:00,METAR KGVT 250155Z AUTO 11004KT 10SM CLR 18/15 A3003 RMK AO2,0,4,0,16090,0,0,0,
2026-03-25 01:35:00,METAR KGVT 250135Z AUTO 14004KT 10SM CLR 18/14 A3003 RMK AO2,0,4,0,16090,0,0,0,
2026-03-25 01:15:00,METAR KGVT 250115Z AUTO 18003KT 10SM CLR 18/14 A3003 RMK AO2,0,3,0,16090,0,0,0,
2026-03-25 00:55:00,METAR KGVT 250055Z AUTO 19004KT 10SM CLR 22/14 A3003 RMK AO2,0,4,0,16090,0,0,0,
2026-03-25 00:35:00,METAR KGVT 250035Z AUTO 19006KT 10SM CLR 23/14 A3002 RMK AO2,0,6,0,16090,0,0,0,
2026-03-25 00:15:00,METAR KGVT 250015Z AUTO 18007KT 10SM CLR 24/13 A3002 RMK AO2,0,7,0,16090,0,0,0,
2026-03-24 23:55:00,METAR KGVT 242355Z AUTO 18010KT 10SM CLR 25/13 A3002 RMK AO2,0,10,0,16090,0,0,0,
2026-03-24 23:35:00,METAR KGVT 242335Z AUTO 18011KT 10SM CLR 26/12 A3001 RMK AO2,0,11,0,16090,0,0,0,
2026-03-24 23:15:00,METAR KGVT 242315Z AUTO 18008KT 10SM CLR 26/12 A3002 RMK AO2,0,8,0,16090,0,0,0,
2026-03-24 22:55:00,METAR KGVT 242255Z AUTO 19010KT 10SM CLR 27/12 A3002 RMK AO2,0,10,0,16090,0,0,0,
2026-03-24 22:35:00,METAR KGVT 242235Z AUTO 18012KT 10SM CLR 27/12 A3002 RMK AO2,0,12,0,16090,0,0,0,
2026-03-24 22:15:00,METAR KGVT 242215Z AUTO 19010KT 10SM CLR 27/13 A3002 RMK AO2,0,10,0,16090,0,0,0,
2026-03-24 21:55:00,METAR KGVT 242155Z AUTO 15009KT 10SM CLR 27/14 A3002 RMK AO2,0,9,0,16090,0,0,0,
2026-03-24 21:35:00,METAR KGVT 242135Z AUTO 17012G17KT 10SM CLR 27/14 A3003 RMK AO2,0,12,1,16090,0,0,0,
2026-03-24 21:15:00,METAR KGVT 242115Z AUTO 17012G17KT 10SM CLR 27/14 A3002 RMK AO2,0,12,1,16090,0,0,0,
2026-03-24 20:55:00,METAR KGVT 242055Z AUTO 19012KT 10SM CLR 27/14 A3003 RMK AO2,0,12,0,16090,0,0,0,
2026-03-24 20:35:00,METAR KGVT 242035Z AUTO 13006KT 10SM CLR 26/14 A3004 RMK AO2,0,6,0,16090,0,0,0,
2026-03-24 20:15:00,METAR KGVT 242015Z AUTO 13009KT 10SM CLR 26/14 A3004 RMK AO2,0,9,0,16090,0,0,0,
2026-03-24 19:55:00,METAR KGVT 241955Z AUTO 16007KT 10SM CLR 26/14 A3005 RMK AO2,0,7,0,16090,0,0,0,
2026-03-24 19:35:00,METAR KGVT 241935Z AUTO 14008KT 10SM CLR 25/14 A3006 RMK AO2,0,8,0,16090,0,0,0,
2026-03-24 19:15:00,METAR KGVT 241915Z AUTO 15010G14KT 10SM CLR 24/14 A3007 RMK AO2,0,10,1,16090,0,0,0,
2026-03-24 18:55:00,METAR KGVT 241855Z AUTO 16006KT 10SM CLR 24/13 A3008 RMK AO2,0,6,0,16090,0,0,0,
2026-03-24 18:35:00,METAR KGVT 241835Z AUTO 19009KT 10SM CLR 23/13 A3010 RMK AO2,0,9,0,16090,0,0,0,
2026-03-24 18:15:00,METAR KGVT 241815Z AUTO 14006KT 10SM CLR 22/12 A3011 RMK AO2,0,6,0,16090,0,0,0,
2026-03-24 17:55:00,METAR KGVT 241755Z AUTO 17009KT 10SM CLR 22/12 A3011 RMK AO2,0,9,0,16090,0,0,0,
2026-03-24 17:35:00,METAR KGVT 241735Z AUTO 18010KT 10SM CLR 21/12 A3012 RMK AO2,0,10,0,16090,0,0,0,
2026-03-24 17:15:00,METAR KGVT 241715Z AUTO 17009KT 10SM CLR 21/11 A3013 RMK AO2,0,9,0,16090,0,0,0,
2026-03-24 16:55:00,METAR KGVT 241655Z AUTO 16010KT 10SM CLR 21/11 A3013 RMK AO2,0,10,0,16090,0,0,0,
2026-03-24 16:35:00,METAR KGVT 241635Z AUTO 15009KT 10SM CLR 19/09 A3013 RMK AO2,0,9,0,16090,0,0,0,
2026-03-24 16:15:00,METAR KGVT 241615Z AUTO 14008KT 10SM SCT100 18/08 A3014 RMK AO2,0,8,0,16090,0,0,0,
2026-03-24 15:55:00,METAR KGVT 241555Z AUTO 14008KT 10SM BKN090 18/08 A3014 RMK AO2,0,8,0,16090,0,0,0,
2026-03-24 15:35:00,METAR KGVT 241535Z AUTO 13010KT 10SM BKN090 18/07 A3014 RMK AO2,0,10,0,16090,0,0,0,
2026-03-24 15:15:00,METAR KGVT 241515Z AUTO 13008KT 10SM SCT090 18/07 A3014 RMK AO2,0,8,0,16090,0,0,0,
2026-03-24 14:55:00,METAR KGVT 241455Z AUTO 13013KT 10SM BKN090 16/05 A3014 RMK AO2,0,13,0,16090,0,0,0,
2026-03-24 14:35:00,METAR KGVT 241435Z AUTO 11009KT 10SM BKN090 15/05 A3014 RMK AO2,0,9,0,16090,0,0,0,
2026-03-24 14:15:00,METAR KGVT 241415Z AUTO 11008KT 10SM OVC090 14/04 A3014 RMK AO2,0,8,0,16090,0,0,0,
2026-03-24 13:55:00,METAR KGVT 241355Z AUTO 11008KT 10SM BKN090 14/04 A3015 RMK AO2,0,8,0,16090,0,0,0,
2026-03-24 13:35:00,METAR KGVT 241335Z AUTO 10007KT 10SM SCT090 14/04 A3014 RMK AO2,0,7,0,16090,0,0,0,
2026-03-24 13:15:00,METAR KGVT 241315Z AUTO 10008KT 10SM SCT090 14/04 A3014 RMK AO2,0,8,0,16090,0,0,0,
2026-03-24 12:55:00,METAR KGVT 241255Z AUTO 10007KT 10SM SCT090 13/04 A3014 RMK AO2,0,7,0,16090,0,0,0,
2026-03-24 12:35:00,METAR KGVT 241235Z AUTO 10008KT 10SM CLR 13/04 A3013 RMK AO2,0,8,0,16090,0,0,0,
2026-03-24 12:15:00,METAR KGVT 241215Z AUTO 11007KT 10SM SCT090 13/03 A3013 RMK AO2,0,7,0,16090,0,0,0,
2026-03-24 05:55:00,METAR KGVT 240555Z AUTO 09006KT 10SM CLR 17/07 A3011 RMK AO2,0,6,0,16090,0,0,0,
2026-03-24 05:35:00,METAR KGVT 240535Z AUTO 09008KT 10SM CLR 18/07 A3011 RMK AO2,0,8,0,16090,0,0,0,
2026-03-24 05:15:00,METAR KGVT 240515Z AUTO 09006KT 10SM SCT060 18/07 A3011 RMK AO2,0,6,0,16090,0,0,0,
2026-03-24 04:55:00,METAR KGVT 240455Z AUTO 09007KT 10SM CLR 19/07 A3011 RMK AO2,0,7,0,16090,0,0,0,
2026-03-24 04:35:00,METAR KGVT 240435Z AUTO 09008G15KT 10SM SCT055 19/07 A3011 RMK AO2,0,8,1,16090,0,0,0,
2026-03-24 04:15:00,METAR KGVT 240415Z AUTO 08008KT 10SM SCT055 19/08 A3012 RMK AO2,0,8,0,16090,0,0,0,
2026-03-24 03:55:00,METAR KGVT 240355Z AUTO 07008KT 10SM CLR 19/09 A3011 RMK AO2,0,8,0,16090,0,0,0,
2026-03-24 03:35:00,METAR KGVT 240335Z AUTO 08006KT 10SM BKN055 20/09 A3010 RMK AO2,0,6,0,16090,0,0,0,
2026-03-24 03:15:00,METAR KGVT 240315Z AUTO 07006KT 10SM BKN055 20/10 A3010 RMK AO2,0,6,0,16090,0,0,0,
2026-03-24 02:55:00,METAR KGVT 240255Z AUTO 07006KT 10SM CLR 20/11 A3009 RMK AO2,0,6,0,16090,0,0,0,
2026-03-24 02:35:00,METAR KGVT 240235Z AUTO 08006KT 10SM CLR 20/13 A3008 RMK AO2,0,6,0,16090,0,0,0,
2026-03-24 02:15:00,METAR KGVT 240215Z AUTO 08004KT 10SM CLR 20/14 A3008 RMK AO2,0,4,0,16090,0,0,0,
2026-03-24 01:55:00,METAR KGVT 240155Z AUTO 07003KT 10SM CLR 21/14 A3008 RMK AO2,0,3,0,16090,0,0,0,
2026-03-24 01:35:00,METAR KGVT 240135Z AUTO 08003KT 10SM CLR 21/15 A3007 RMK AO2,0,3,0,16090,0,0,0,
2026-03-24 01:15:00,METAR KGVT 240115Z AUTO 07005KT 10SM CLR 22/14 A3007 RMK AO2,0,5,0,16090,0,0,0,
2026-03-24 00:55:00,METAR KGVT 240055Z AUTO 08004KT 10SM CLR 22/15 A3007 RMK AO2,0,4,0,16090,0,0,0,
2026-03-24 00:35:00,METAR KGVT 240035Z AUTO 07005KT 10SM CLR 23/15 A3007 RMK AO2,0,5,0,16090,0,0,0,
2026-03-24 00:15:00,METAR KGVT 240015Z AUTO 09005KT 7SM HZ CLR 24/15 A3006 RMK AO2,0,5,0,11263,0,0,0,
2026-03-23 23:55:00,METAR KGVT 232355Z AUTO 10006KT 1 1/2SM HZ SCT048 25/15 A3006 RMK AO2 VIS 1V2 1/2,0,6,0,2414,0,0,0,
2026-03-23 23:35:00,METAR KGVT 232335Z AUTO 12009KT 1 3/4SM HZ BKN048 25/15 A3006 RMK AO2 VIS 3/4V5,0,9,0,2816,0,0,0,
2026-03-23 23:15:00,METAR KGVT 232315Z AUTO 08008KT 7SM HZ BKN048 BKN055 26/15 A3006 RMK AO2,0,8,0,11263,0,0,0,
2026-03-23 22:55:00,METAR KGVT 232255Z AUTO 11005KT 1 3/4SM HZ BKN048 BKN055 26/15 A3005 RMK AO2 VIS 1/2V5,0,5,0,2816,0,0,0,
2026-03-23 22:35:00,METAR KGVT 232235Z AUTO 14009KT 1 1/2SM HZ BKN048 OVC050 26/15 A3005 RMK AO2 VIS 3/4V5,0,9,0,2414,0,0,0,
2026-03-23 22:15:00,METAR KGVT 232215Z AUTO 11009KT 3/4SM HZ OVC050 25/15 A3006 RMK AO2,0,9,0,1207,0,0,0,
2026-03-23 21:55:00,METAR KGVT 232155Z AUTO 07009KT 3SM HZ BKN048 BKN055 26/15 A3006 RMK AO2 VIS 2V5,0,9,0,4827,0,0,0,
2026-03-23 21:35:00,METAR KGVT 232135Z AUTO 09008KT 1 1/4SM HZ BKN048 BKN055 26/15 A3006 RMK AO2 VIS 1/2V5,0,8,0,2011,0,0,0,
2026-03-23 21:15:00,METAR KGVT 232115Z AUTO 10005KT 10SM BKN048 BKN055 25/15 A3007 RMK AO2,0,5,0,16090,0,0,0,
2026-03-23 20:55:00,METAR KGVT 232055Z AUTO 08005KT 10SM BKN048 OVC055 26/15 A3007 RMK AO2,0,5,0,16090,0,0,0,
2026-03-23 20:35:00,METAR KGVT 232035Z AUTO 08007KT 10SM OVC048 26/15 A3008 RMK AO2,0,7,0,16090,0,0,0,
2026-03-23 20:15:00,METAR KGVT 232015Z AUTO 13007KT 10SM BKN048 26/15 A3008 RMK AO2,0,7,0,16090,0,0,0,
2026-03-23 19:55:00,METAR KGVT 231955Z AUTO 13007KT 10SM SCT048 24/13 A3008 RMK AO2,0,7,0,16090,0,0,0,
2026-03-23 19:35:00,METAR KGVT 231935Z AUTO 12009KT 10SM SCT046 25/14 A3009 RMK AO2,0,9,0,16090,0,0,0,
2026-03-23 19:15:00,METAR KGVT 231915Z AUTO 13012G15KT 10SM SCT044 25/14 A3010 RMK AO2,0,12,1,16090,0,0,0,
2026-03-23 18:55:00,METAR KGVT 231855Z AUTO 07009KT 10SM SCT044 24/14 A3010 RMK AO2,0,9,0,16090,0,0,0,
2026-03-23 18:35:00,METAR KGVT 231835Z AUTO 06008KT 10SM CLR 24/13 A3012 RMK AO2,0,8,0,16090,0,0,0,
2026-03-23 18:15:00,METAR KGVT 231815Z AUTO 08013G17KT 020V100 10SM CLR 24/14 A3012 RMK AO2,0,13,1,16090,0,0,0,
2026-03-23 17:55:00,METAR KGVT 231755Z AUTO 05007KT 10SM CLR 23/13 A3013 RMK AO2,0,7,0,16090,0,0,0,
2026-03-23 17:35:00,METAR KGVT 231735Z AUTO 09010KT 030V110 10SM CLR 23/13 A3013 RMK AO2,0,10,0,16090,0,0,0,
2026-03-23 17:15:00,METAR KGVT 231715Z AUTO 10008KT 10SM CLR 22/13 A3013 RMK AO2,0,8,0,16090,0,0,0,
2026-03-23 16:55:00,METAR KGVT 231655Z AUTO 11007KT 10SM CLR 22/13 A3013 RMK AO2,0,7,0,16090,0,0,0,
2026-03-23 16:35:00,METAR KGVT 231635Z AUTO 02006KT 10SM CLR 21/13 A3013 RMK AO2,0,6,0,16090,0,0,0,
2026-03-23 16:15:00,METAR KGVT 231615Z AUTO 08006KT 10SM CLR 21/13 A3013 RMK AO2,0,6,0,16090,0,0,0,
2026-03-23 15:55:00,METAR KGVT 231555Z AUTO 08008KT 10SM CLR 20/12 A3013 RMK AO2,0,8,0,16090,0,0,0,
2026-03-23 15:35:00,METAR KGVT 231535Z AUTO 03008KT 10SM CLR 19/11 A3013 RMK AO2,0,8,0,16090,0,0,0,
2026-03-23 15:15:00,METAR KGVT 231515Z AUTO 02009KT 10SM CLR 19/10 A3012 RMK AO2,0,9,0,16090,0,0,0,
2026-03-23 14:55:00,METAR KGVT 231455Z AUTO 03008G15KT 10SM CLR 18/10 A3012 RMK AO2,0,8,1,16090,0,0,0,
2026-03-23 14:35:00,METAR KGVT 231435Z AUTO 01010G14KT 10SM CLR 18/09 A3011 RMK AO2,0,10,1,16090,0,0,0,
2026-03-23 14:15:00,METAR KGVT 231415Z AUTO 02011G16KT 10SM CLR 17/09 A3010 RMK AO2,0,11,1,16090,0,0,0,
2026-03-23 13:55:00,METAR KGVT 231355Z AUTO 01008KT 10SM CLR 16/09 A3009 RMK AO2,0,8,0,16090,0,0,0,
2026-03-23 13:35:00,METAR KGVT 231335Z AUTO 01009KT 10SM CLR 15/08 A3009 RMK AO2,0,9,0,16090,0,0,0,
2026-03-23 13:15:00,METAR KGVT 231315Z AUTO 02007KT 10SM CLR 15/09 A3008 RMK AO2,0,7,0,16090,0,0,0,
2026-03-23 12:55:00,METAR KGVT 231255Z AUTO 01010KT 10SM CLR 14/09 A3007 RMK AO2,0,10,0,16090,0,0,0,
2026-03-23 12:35:00,METAR KGVT 231235Z AUTO 36008KT 10SM CLR 14/09 A3007 RMK AO2,0,8,0,16090,0,0,0,
2026-03-23 12:15:00,METAR KGVT 231215Z AUTO 36008KT 10SM CLR 14/09 A3006 RMK AO2,0,8,0,16090,0,0,0,
2026-03-23 11:55:00,METAR KGVT 231155Z AUTO 36007G15KT 10SM CLR 15/08 A3005 RMK AO2,0,7,1,16090,0,0,0,
2026-03-23 11:35:00,METAR KGVT 231135Z AUTO 01006KT 10SM CLR 14/09 A3005 RMK AO2,0,6,0,16090,0,0,0,
2026-03-23 11:15:00,METAR KGVT 231115Z AUTO 01006KT 10SM CLR 15/09 A3004 RMK AO2,0,6,0,16090,0,0,0,
2026-03-23 10:55:00,METAR KGVT 231055Z AUTO 01005KT 10SM CLR 15/09 A3004 RMK AO2,0,5,0,16090,0,0,0,
2026-03-23 10:35:00,METAR KGVT 231035Z AUTO 36010KT 10SM CLR 15/09 A3003 RMK AO2,0,10,0,16090,0,0,0,
2026-03-23 10:15:00,METAR KGVT 231015Z AUTO 01006KT 10SM CLR 16/09 A3002 RMK AO2,0,6,0,16090,0,0,0,
2026-03-23 09:55:00,METAR KGVT 230955Z AUTO 01008KT 10SM CLR 16/09 A3002 RMK AO2,0,8,0,16090,0,0,0,
2026-03-23 09:35:00,METAR KGVT 230935Z AUTO 01005KT 10SM CLR 16/09 A3001 RMK AO2,0,5,0,16090,0,0,0,
2026-03-23 09:15:00,METAR KGVT 230915Z AUTO 02007KT 10SM CLR 16/09 A3001 RMK AO2,0,7,0,16090,0,0,0,
2026-03-23 08:55:00,METAR KGVT 230855Z AUTO 36007KT 10SM CLR 16/09 A3001 RMK AO2,0,7,0,16090,0,0,0,
2026-03-23 08:35:00,METAR KGVT 230835Z AUTO 36006KT 10SM CLR 17/09 A3001 RMK AO2,0,6,0,16090,0,0,0,
2026-03-23 08:15:00,METAR KGVT 230815Z AUTO 01005KT 10SM CLR 17/09 A3000 RMK AO2,0,5,0,16090,0,0,0,
2026-03-23 07:55:00,METAR KGVT 230755Z AUTO 01007KT 10SM CLR 18/09 A3000 RMK AO2,0,7,0,16090,0,0,0,
2026-03-23 07:35:00,METAR KGVT 230735Z AUTO 02008KT 10SM CLR 18/09 A2999 RMK AO2,0,8,0,16090,0,0,0,
2026-03-23 07:15:00,METAR KGVT 230715Z AUTO 01008KT 10SM CLR 19/10 A2999 RMK AO2,0,8,0,16090,0,0,0,
2026-03-23 06:55:00,METAR KGVT 230655Z AUTO 02008KT 10SM CLR 20/11 A2998 RMK AO2,0,8,0,16090,0,0,0,
2026-03-23 06:35:00,METAR KGVT 230635Z AUTO 02010KT 10SM CLR 20/11 A2998 RMK AO2,0,10,0,16090,0,0,0,
2026-03-23 06:15:00,METAR KGVT 230615Z AUTO 31007KT 10SM CLR 20/12 A2998 RMK AO2,0,7,0,16090,0,0,0,
2026-03-23 05:55:00,METAR KGVT 230555Z AUTO 34008KT 10SM CLR 21/11 A2997 RMK AO2,0,8,0,16090,0,0,0,
2026-03-23 05:35:00,METAR KGVT 230535Z AUTO 31004KT 10SM CLR 22/13 A2996 RMK AO2,0,4,0,16090,0,0,0,
2026-03-23 05:15:00,METAR KGVT 230515Z AUTO 24005KT 10SM CLR 23/14 A2996 RMK AO2,0,5,0,16090,0,0,0,
2026-03-23 04:55:00,METAR KGVT 230455Z AUTO 22006KT 10SM CLR 23/14 A2995 RMK AO2,0,6,0,16090,0,0,0,
2026-03-23 04:35:00,METAR KGVT 230435Z AUTO 24006KT 10SM CLR 23/14 A2995 RMK AO2,0,6,0,16090,0,0,0,
2026-03-23 04:15:00,METAR KGVT 230415Z AUTO 00000KT 10SM CLR 19/14 A2994 RMK AO2,0,0,0,16090,0,0,0,
2026-03-23 03:55:00,METAR KGVT 230355Z AUTO 00000KT 10SM CLR 22/14 A2994 RMK AO2,0,0,0,16090,0,0,0,
2026-03-23 03:35:00,METAR KGVT 230335Z AUTO 32004KT 10SM CLR 21/14 A2993 RMK AO2,0,4,0,16090,0,0,0,
2026-03-23 03:15:00,METAR KGVT 230315Z AUTO 28005KT 10SM CLR 22/14 A2992 RMK AO2,0,5,0,16090,0,0,0,
2026-03-23 02:55:00,METAR KGVT 230255Z AUTO 18007KT 10SM CLR 23/14 A2989 RMK AO2,0,7,0,16090,0,0,0,
2026-03-23 02:35:00,METAR KGVT 230235Z AUTO 17010KT 10SM CLR 24/14 A2988 RMK AO2,0,10,0,16090,0,0,0,
2026-03-23 02:15:00,METAR KGVT 230215Z AUTO 17009KT 10SM CLR 23/14 A2986 RMK AO2,0,9,0,16090,0,0,0,
2026-03-23 01:55:00,METAR KGVT 230155Z AUTO 17008KT 10SM CLR 23/13 A2986 RMK AO2,0,8,0,16090,0,0,0,
2026-03-23 01:35:00,METAR KGVT 230135Z AUTO 16009KT 10SM CLR 22/13 A2985 RMK AO2,0,9,0,16090,0,0,0,
2026-03-23 01:15:00,METAR KGVT 230115Z AUTO 16008KT 10SM CLR 22/12 A2984 RMK AO2,0,8,0,16090,0,0,0,
2026-03-23 00:55:00,METAR KGVT 230055Z AUTO 18008KT 10SM CLR 24/12 A2984 RMK AO2,0,8,0,16090,0,0,0,
2026-03-23 00:35:00,METAR KGVT 230035Z AUTO 19008KT 10SM CLR 26/12 A2984 RMK AO2,0,8,0,16090,0,0,0,
2026-03-23 00:15:00,METAR KGVT 230015Z AUTO 19010KT 10SM CLR 29/11 A2983 RMK AO2,0,10,0,16090,0,0,0,
2026-03-22 23:55:00,METAR KGVT 222355Z AUTO 20011KT 10SM CLR 29/11 A2983 RMK AO2,0,11,0,16090,0,0,0,
2026-03-22 23:35:00,METAR KGVT 222335Z AUTO 21015KT 10SM CLR 30/10 A2982 RMK AO2,0,15,0,16090,0,0,0,
2026-03-22 23:15:00,METAR KGVT 222315Z AUTO 20016KT 10SM CLR 30/11 A2981 RMK AO2,0,16,0,16090,0,0,0,
2026-03-22 22:55:00,METAR KGVT 222255Z AUTO 20021G26KT 10SM CLR 31/10 A2981 RMK AO2,0,21,1,16090,0,0,0,
2026-03-22 22:35:00,METAR KGVT 222235Z AUTO 20019G25KT 10SM CLR 31/11 A2980 RMK AO2,0,19,1,16090,0,0,0,
2026-03-22 22:15:00,METAR KGVT 222215Z AUTO 21020G27KT 10SM CLR 31/11 A2981 RMK AO2,0,20,1,16090,0,0,0,
2026-03-22 21:55:00,METAR KGVT 222155Z AUTO 20017G22KT 10SM CLR 32/11 A2980 RMK AO2,0,17,1,16090,0,0,0,
2026-03-22 21:35:00,METAR KGVT 222135Z AUTO 20020G27KT 10SM CLR 32/10 A2980 RMK AO2,0,20,1,16090,0,0,0,
2026-03-22 21:15:00,METAR KGVT 222115Z AUTO 20022G27KT 10SM CLR 32/10 A2980 RMK AO2,0,22,1,16090,0,0,0,
2026-03-22 20:55:00,METAR KGVT 222055Z AUTO 20017G29KT 10SM CLR 32/10 A2980 RMK AO2,0,17,1,16090,0,0,0,
2026-03-22 20:35:00,METAR KGVT 222035Z AUTO 21017G25KT 10SM CLR 32/10 A2980 RMK AO2,0,17,1,16090,0,0,0,
2026-03-22 20:15:00,METAR KGVT 222015Z AUTO 19021G27KT 10SM CLR 32/10 A2981 RMK AO2,0,21,1,16090,0,0,0,
2026-03-22 19:55:00,METAR KGVT 221955Z AUTO 21020G24KT 10SM CLR 31/11 A2981 RMK AO2,0,20,1,16090,0,0,0,
2026-03-22 19:35:00,METAR KGVT 221935Z AUTO 21019G29KT 10SM CLR 31/10 A2982 RMK AO2,0,19,1,16090,0,0,0,
2026-03-22 19:15:00,METAR KGVT 221915Z AUTO 19022G25KT 10SM CLR 30/11 A2983 RMK AO2,0,22,1,16090,0,0,0,
2026-03-22 18:55:00,METAR KGVT 221855Z AUTO 20016G24KT 10SM CLR 30/10 A2983 RMK AO2,0,16,1,16090,0,0,0,
2026-03-22 18:35:00,METAR KGVT 221835Z AUTO 20020G25KT 10SM CLR 30/11 A2984 RMK AO2,0,20,1,16090,0,0,0,
2026-03-22 18:15:00,METAR KGVT 221815Z AUTO 20025G28KT 10SM CLR 30/10 A2984 RMK AO2,0,25,1,16090,0,0,0,
2026-03-22 17:55:00,METAR KGVT 221755Z AUTO 19019G27KT 10SM CLR 29/11 A2985 RMK AO2,0,19,1,16090,0,0,0,
2026-03-22 17:35:00,METAR KGVT 221735Z AUTO 20020G29KT 10SM CLR 28/11 A2986 RMK AO2,0,20,1,16090,0,0,0,
2026-03-22 17:15:00,METAR KGVT 221715Z AUTO 19018G26KT 10SM CLR 28/11 A2986 RMK AO2,0,18,1,16090,0,0,0,
2026-03-22 16:55:00,METAR KGVT 221655Z AUTO 20014G22KT 10SM CLR 27/11 A2987 RMK AO2,0,14,1,16090,0,0,0,
2026-03-22 16:35:00,METAR KGVT 221635Z AUTO 21019G24KT 10SM CLR 26/11 A2987 RMK AO2,0,19,1,16090,0,0,0,
2026-03-22 16:15:00,METAR KGVT 221615Z AUTO 21016G24KT 10SM CLR 26/12 A2987 RMK AO2,0,16,1,16090,0,0,0,
2026-03-22 15:55:00,METAR KGVT 221555Z AUTO 21018G22KT 10SM CLR 24/12 A2987 RMK AO2,0,18,1,16090,0,0,0,
2026-03-22 15:35:00,METAR KGVT 221535Z AUTO 19019KT 10SM CLR 24/12 A2987 RMK AO2,0,19,0,16090,0,0,0,
2026-03-22 15:15:00,METAR KGVT 221515Z AUTO 20018KT 10SM CLR 23/12 A2987 RMK AO2,0,18,0,16090,0,0,0,
2026-03-22 14:55:00,METAR KGVT 221455Z AUTO 20018G24KT 10SM CLR 22/12 A2987 RMK AO2,0,18,1,16090,0,0,0,
2026-03-22 14:15:00,METAR KGVT 221415Z AUTO 19017G23KT 10SM CLR 21/12 A2986 RMK AO2,0,17,1,16090,0,0,0,
2026-03-22 13:35:00,METAR KGVT 221335Z AUTO 19012KT 10SM CLR 19/12 A2985 RMK AO2,0,12,0,16090,0,0,0,
2026-03-22 13:15:00,METAR KGVT 221315Z AUTO 19011KT 10SM CLR 18/12 A2985 RMK AO2,0,11,0,16090,0,0,0,
2026-03-22 12:35:00,METAR KGVT 221235Z AUTO 18011KT 10SM CLR 17/11 A2984 RMK AO2,0,11,0,16090,0,0,0,
2026-03-22 12:15:00,METAR KGVT 221215Z AUTO 18011KT 10SM CLR 17/11 A2984 RMK AO2,0,11,0,16090,0,0,0,
2026-03-22 11:55:00,METAR KGVT 221155Z AUTO 18010KT 10SM CLR 17/11 A2984 RMK AO2,0,10,0,16090,0,0,0,
2026-03-22 11:35:00,METAR KGVT 221135Z AUTO 19011KT 10SM CLR 18/10 A2983 RMK AO2,0,11,0,16090,0,0,0,
2026-03-22 11:15:00,METAR KGVT 221115Z AUTO 19011KT 10SM CLR 18/10 A2983 RMK AO2,0,11,0,16090,0,0,0,
2026-03-22 10:55:00,METAR KGVT 221055Z AUTO 19010KT 10SM CLR 18/10 A2983 RMK AO2,0,10,0,16090,0,0,0,
2026-03-22 10:35:00,METAR KGVT 221035Z AUTO 19013KT 10SM CLR 19/10 A2983 RMK AO2,0,13,0,16090,0,0,0,
2026-03-22 10:15:00,METAR KGVT 221015Z AUTO 19012KT 10SM CLR 19/11 A2983 RMK AO2,0,12,0,16090,0,0,0,
2026-03-22 09:55:00,METAR KGVT 220955Z AUTO 20013KT 10SM CLR 20/11 A2983 RMK AO2,0,13,0,16090,0,0,0,
2026-03-22 09:35:00,METAR KGVT 220935Z AUTO 20012KT 10SM CLR 20/11 A2983 RMK AO2,0,12,0,16090,0,0,0,
2026-03-22 09:15:00,METAR KGVT 220915Z AUTO 20013KT 10SM CLR 20/11 A2983 RMK AO2,0,13,0,16090,0,0,0,
2026-03-22 08:55:00,METAR KGVT 220855Z AUTO 20013KT 10SM CLR 20/12 A2983 RMK AO2,0,13,0,16090,0,0,0,
2026-03-22 08:35:00,METAR KGVT 220835Z AUTO 20013G17KT 10SM CLR 21/12 A2984 RMK AO2,0,13,1,16090,0,0,0,
2026-03-22 08:15:00,METAR KGVT 220815Z AUTO 19013KT 10SM CLR 21/13 A2984 RMK AO2,0,13,0,16090,0,0,0,
2026-03-22 07:55:00,METAR KGVT 220755Z AUTO 19012KT 10SM CLR 21/13 A2984 RMK AO2,0,12,0,16090,0,0,0,
2026-03-22 07:35:00,METAR KGVT 220735Z AUTO 19014KT 10SM CLR 21/13 A2985 RMK AO2,0,14,0,16090,0,0,0,
2026-03-22 07:15:00,METAR KGVT 220715Z AUTO 19014KT 10SM CLR 21/14 A2985 RMK AO2,0,14,0,16090,0,0,0,
2026-03-22 06:55:00,METAR KGVT 220655Z AUTO 19012G17KT 10SM CLR 22/14 A2985 RMK AO2,0,12,1,16090,0,0,0,
2026-03-22 06:35:00,METAR KGVT 220635Z AUTO 19011KT 10SM CLR 22/14 A2986 RMK AO2,0,11,0,16090,0,0,0,
2026-03-22 06:15:00,METAR KGVT 220615Z AUTO 19011KT 10SM CLR 21/14 A2986 RMK AO2,0,11,0,16090,0,0,0,
2026-03-22 05:55:00,METAR KGVT 220555Z AUTO 18010KT 10SM CLR 21/14 A2986 RMK AO2,0,10,0,16090,0,0,0,
2026-03-22 05:35:00,METAR KGVT 220535Z AUTO 18011KT 10SM CLR 22/14 A2986 RMK AO2,0,11,0,16090,0,0,0,
2026-03-22 05:15:00,METAR KGVT 220515Z AUTO 18010KT 10SM CLR 22/14 A2986 RMK AO2,0,10,0,16090,0,0,0,
2026-03-22 04:55:00,METAR KGVT 220455Z AUTO 18010KT 10SM CLR 22/14 A2985 RMK AO2,0,10,0,16090,0,0,0,
2026-03-22 04:35:00,METAR KGVT 220435Z AUTO 18011KT 10SM CLR 22/14 A2986 RMK AO2,0,11,0,16090,0,0,0,
2026-03-22 04:15:00,METAR KGVT 220415Z AUTO 18010KT 10SM CLR 22/14 A2986 RMK AO2,0,10,0,16090,0,0,0,
2026-03-22 03:55:00,METAR KGVT 220355Z AUTO 18009KT 10SM CLR 22/14 A2985 RMK AO2,0,9,0,16090,0,0,0,
2026-03-22 03:35:00,METAR KGVT 220335Z AUTO 17010KT 10SM CLR 23/14 A2985 RMK AO2,0,10,0,16090,0,0,0,
2026-03-22 03:15:00,METAR KGVT 220315Z AUTO 17010KT 10SM CLR 24/14 A2985 RMK AO2,0,10,0,16090,0,0,0,
2026-03-22 02:55:00,METAR KGVT 220255Z AUTO 18011KT 10SM CLR 25/14 A2985 RMK AO2,0,11,0,16090,0,0,0,
2026-03-22 02:35:00,METAR KGVT 220235Z AUTO 17012KT 10SM CLR 24/14 A2985 RMK AO2,0,12,0,16090,0,0,0,
2026-03-22 02:15:00,METAR KGVT 220215Z AUTO 17009KT 10SM CLR 23/14 A2985 RMK AO2,0,9,0,16090,0,0,0,
2026-03-22 01:55:00,METAR KGVT 220155Z AUTO 17008KT 10SM CLR 22/14 A2985 RMK AO2,0,8,0,16090,0,0,0,
2026-03-22 01:35:00,METAR KGVT 220135Z AUTO 17007KT 10SM CLR 22/14 A2985 RMK AO2,0,7,0,16090,0,0,0,
2026-03-22 01:15:00,METAR KGVT 220115Z AUTO 17007KT 10SM CLR 23/13 A2985 RMK AO2,0,7,0,16090,0,0,0,
2026-03-22 00:55:00,METAR KGVT 220055Z AUTO 18008KT 10SM CLR 24/14 A2984 RMK AO2,0,8,0,16090,0,0,0,
2026-03-22 00:35:00,METAR KGVT 220035Z AUTO 18010KT 10SM CLR 26/14 A2984 RMK AO2,0,10,0,16090,0,0,0,
2026-03-22 00:15:00,METAR KGVT 220015Z AUTO 18010KT 10SM CLR 28/14 A2984 RMK AO2,0,10,0,16090,0,0,0,
2026-03-21 23:55:00,METAR KGVT 212355Z AUTO 18011KT 10SM CLR 29/15 A2984 RMK AO2,0,11,0,16090,0,0,0,
2026-03-21 23:35:00,METAR KGVT 212335Z AUTO 18012KT 10SM CLR 30/15 A2984 RMK AO2,0,12,0,16090,0,0,0,
2026-03-21 23:15:00,METAR KGVT 212315Z AUTO 20014KT 10SM CLR 30/15 A2984 RMK AO2,0,14,0,16090,0,0,0,
2026-03-21 22:55:00,METAR KGVT 212255Z AUTO 19012KT 10SM CLR 31/16 A2984 RMK AO2,0,12,0,16090,0,0,0,
2026-03-21 22:35:00,METAR KGVT 212235Z AUTO 17013KT 10SM CLR 31/16 A2985 RMK AO2,0,13,0,16090,0,0,0,
2026-03-21 22:15:00,METAR KGVT 212215Z AUTO 18014KT 10SM CLR 31/16 A2985 RMK AO2,0,14,0,16090,0,0,0,
2026-03-21 21:55:00,METAR KGVT 212155Z AUTO 16012G17KT 10SM CLR 31/16 A2986 RMK AO2,0,12,1,16090,0,0,0,
2026-03-21 21:35:00,METAR KGVT 212135Z AUTO 22014KT 10SM CLR 31/15 A2986 RMK AO2,0,14,0,16090,0,0,0,
2026-03-21 21:15:00,METAR KGVT 212115Z AUTO 20012G16KT 10SM CLR 31/16 A2987 RMK AO2,0,12,1,16090,0,0,0,
2026-03-21 20:55:00,METAR KGVT 212055Z AUTO 19012KT 10SM CLR 31/15 A2987 RMK AO2,0,12,0,16090,0,0,0,
2026-03-21 20:35:00,METAR KGVT 212035Z AUTO 18012G17KT 10SM CLR 31/15 A2987 RMK AO2,0,12,1,16090,0,0,0,
2026-03-21 20:15:00,METAR KGVT 212015Z AUTO 21013KT 10SM CLR 30/15 A2988 RMK AO2,0,13,0,16090,0,0,0,
2026-03-21 19:55:00,METAR KGVT 211955Z AUTO 20013G17KT 10SM CLR 30/15 A2989 RMK AO2,0,13,1,16090,0,0,0,
2026-03-21 19:35:00,METAR KGVT 211935Z AUTO 19013KT 10SM CLR 30/15 A2990 RMK AO2,0,13,0,16090,0,0,0,
2026-03-21 19:15:00,METAR KGVT 211915Z AUTO 21012KT 10SM CLR 30/14 A2991 RMK AO2,0,12,0,16090,0,0,0,
2026-03-21 18:55:00,METAR KGVT 211855Z AUTO 22012G17KT 10SM CLR 29/14 A2991 RMK AO2,0,12,1,16090,0,0,0,
2026-03-21 18:35:00,METAR KGVT 211835Z AUTO 19012KT 10SM CLR 29/15 A2992 RMK AO2,0,12,0,16090,0,0,0,
2026-03-21 18:15:00,METAR KGVT 211815Z AUTO 21013G17KT 10SM CLR 28/15 A2993 RMK AO2,0,13,1,16090,0,0,0,
2026-03-21 17:55:00,METAR KGVT 211755Z AUTO 21009KT 10SM CLR 28/15 A2994 RMK AO2,0,9,0,16090,0,0,0,
2026-03-21 17:35:00,METAR KGVT 211735Z AUTO 19012KT 160V230 10SM CLR 27/15 A2994 RMK AO2,0,12,0,16090,0,0,0,
2026-03-21 17:15:00,METAR KGVT 211715Z AUTO 20013KT 10SM CLR 26/15 A2995 RMK AO2,0,13,0,16090,0,0,0,
2026-03-21 16:55:00,METAR KGVT 211655Z AUTO 19014G17KT 10SM CLR 25/15 A2996 RMK AO2,0,14,1,16090,0,0,0,
2026-03-21 16:35:00,METAR KGVT 211635Z AUTO 19011KT 10SM CLR 24/16 A2996 RMK AO2,0,11,0,16090,0,0,0,
2026-03-21 16:15:00,METAR KGVT 211615Z AUTO 20012KT 10SM CLR 24/16 A2997 RMK AO2,0,12,0,16090,0,0,0,
2026-03-21 15:55:00,METAR KGVT 211555Z AUTO 21012KT 10SM CLR 23/16 A2997 RMK AO2,0,12,0,16090,0,0,0,
2026-03-21 15:35:00,METAR KGVT 211535Z AUTO 19016KT 10SM CLR 22/16 A2997 RMK AO2,0,16,0,16090,0,0,0,
2026-03-21 14:55:00,METAR KGVT 211455Z AUTO 21014KT 10SM CLR 21/16 A2997 RMK AO2,0,14,0,16090,0,0,0,
2026-03-21 14:35:00,METAR KGVT 211435Z AUTO 20012KT 10SM CLR 20/16 A2996 RMK AO2,0,12,0,16090,0,0,0,
2026-03-21 14:10:00,METAR KGVT 211410Z AUTO 19011KT 10SM CLR 19/16 A2996 RMK AO2,0,11,0,16090,0,0,0,
2026-03-21 13:55:00,METAR KGVT 211355Z AUTO 19012KT 10SM CLR 18/16 A2996 RMK AO2,0,12,0,16090,0,0,0,
2026-03-21 13:35:00,METAR KGVT 211335Z AUTO 19012KT 10SM CLR 17/16 A2996 RMK AO2,0,12,0,16090,0,0,0,
2026-03-21 13:15:00,METAR KGVT 211315Z AUTO 19009KT 10SM CLR 17/16 A2996 RMK AO2,0,9,0,16090,0,0,0,
2026-03-21 12:55:00,METAR KGVT 211255Z AUTO 19010KT 10SM CLR 16/15 A2995 RMK AO2,0,10,0,16090,0,0,0,
2026-03-21 12:35:00,METAR KGVT 211235Z AUTO 19009KT 10SM CLR 16/15 A2996 RMK AO2,0,9,0,16090,0,0,0,
2026-03-21 12:15:00,METAR KGVT 211215Z AUTO 19009KT 10SM CLR 16/15 A2995 RMK AO2,0,9,0,16090,0,0,0,
2026-03-21 11:55:00,METAR KGVT 211155Z AUTO 19009KT 10SM CLR 16/15 A2996 RMK AO2,0,9,0,16090,0,0,0,
2026-03-21 11:35:00,METAR KGVT 211135Z AUTO 19008KT 10SM CLR 16/15 A2995 RMK AO2,0,8,0,16090,0,0,0,
2026-03-21 11:15:00,METAR KGVT 211115Z AUTO 18008KT 10SM CLR 16/15 A2995 RMK AO2,0,8,0,16090,0,0,0,
2026-03-21 10:55:00,METAR KGVT 211055Z AUTO 18008KT 10SM CLR 16/15 A2995 RMK AO2,0,8,0,16090,0,0,0,
2026-03-21 10:35:00,METAR KGVT 211035Z AUTO 18008KT 10SM CLR 16/15 A2995 RMK AO2,0,8,0,16090,0,0,0,
2026-03-21 10:15:00,METAR KGVT 211015Z AUTO 19008KT 10SM CLR 16/15 A2995 RMK AO2,0,8,0,16090,0,0,0,
2026-03-21 09:55:00,METAR KGVT 210955Z AUTO 18008KT 10SM CLR 17/15 A2995 RMK AO2,0,8,0,16090,0,0,0,
2026-03-21 09:35:00,METAR KGVT 210935Z AUTO 18009KT 10SM CLR 17/15 A2995 RMK AO2,0,9,0,16090,0,0,0,
2026-03-21 09:15:00,METAR KGVT 210915Z AUTO 18009KT 10SM CLR 17/15 A2996 RMK AO2,0,9,0,16090,0,0,0,
2026-03-21 08:55:00,METAR KGVT 210855Z AUTO 18009KT 10SM CLR 18/15 A2996 RMK AO2,0,9,0,16090,0,0,0,
2026-03-21 08:35:00,METAR KGVT 210835Z AUTO 18009KT 10SM CLR 18/15 A2996 RMK AO2,0,9,0,16090,0,0,0,
2026-03-21 08:15:00,METAR KGVT 210815Z AUTO 18009KT 10SM CLR 18/15 A2996 RMK AO2,0,9,0,16090,0,0,0,
2026-03-21 07:55:00,METAR KGVT 210755Z AUTO 18008KT 10SM CLR 18/15 A2997 RMK AO2,0,8,0,16090,0,0,0,
2026-03-21 07:35:00,METAR KGVT 210735Z AUTO 18009KT 10SM CLR 19/15 A2997 RMK AO2,0,9,0,16090,0,0,0,
2026-03-21 07:15:00,METAR KGVT 210715Z AUTO 19010KT 10SM CLR 19/15 A2997 RMK AO2,0,10,0,16090,0,0,0,
2026-03-21 06:55:00,METAR KGVT 210655Z AUTO 18009KT 10SM CLR 19/15 A2997 RMK AO2,0,9,0,16090,0,0,0,
2026-03-21 06:35:00,METAR KGVT 210635Z AUTO 18008KT 10SM CLR 18/15 A2997 RMK AO2,0,8,0,16090,0,0,0,
2026-03-21 06:15:00,METAR KGVT 210615Z AUTO 18008KT 10SM CLR 18/14 A2997 RMK AO2,0,8,0,16090,0,0,0,
2026-03-21 05:55:00,METAR KGVT 210555Z AUTO 17008KT 10SM CLR 19/14 A2997 RMK AO2,0,8,0,16090,0,0,0,
2026-03-21 05:35:00,METAR KGVT 210535Z AUTO 16007KT 10SM CLR 18/14 A2997 RMK AO2,0,7,0,16090,0,0,0,
2026-03-21 05:15:00,METAR KGVT 210515Z AUTO 16006KT 10SM CLR 19/14 A2997 RMK AO2,0,6,0,16090,0,0,0,
2026-03-21 04:55:00,METAR KGVT 210455Z AUTO 17007KT 10SM CLR 19/14 A2997 RMK AO2,0,7,0,16090,0,0,0,
2026-03-21 04:35:00,METAR KGVT 210435Z AUTO 17007KT 10SM CLR 19/14 A2997 RMK AO2,0,7,0,16090,0,0,0,
2026-03-21 04:15:00,METAR KGVT 210415Z AUTO 17008KT 10SM CLR 20/14 A2997 RMK AO2,0,8,0,16090,0,0,0,
2026-03-21 03:55:00,METAR KGVT 210355Z AUTO 16009KT 10SM CLR 20/13 A2997 RMK AO2,0,9,0,16090,0,0,0,
2026-03-21 03:35:00,METAR KGVT 210335Z AUTO 17008KT 10SM CLR 21/13 A2997 RMK AO2,0,8,0,16090,0,0,0,
2026-03-21 03:15:00,METAR KGVT 210315Z AUTO 17009KT 10SM CLR 21/13 A2997 RMK AO2,0,9,0,16090,0,0,0,
2026-03-21 02:55:00,METAR KGVT 210255Z AUTO 17009KT 10SM CLR 22/13 A2996 RMK AO2,0,9,0,16090,0,0,0,
2026-03-21 02:35:00,METAR KGVT 210235Z AUTO 17009KT 10SM CLR 22/13 A2996 RMK AO2,0,9,0,16090,0,0,0,
2026-03-21 02:15:00,METAR KGVT 210215Z AUTO 17008KT 10SM CLR 21/13 A2996 RMK AO2,0,8,0,16090,0,0,0,
2026-03-21 01:55:00,METAR KGVT 210155Z AUTO 18009KT 10SM CLR 21/13 A2996 RMK AO2,0,9,0,16090,0,0,0,
2026-03-21 01:35:00,METAR KGVT 210135Z AUTO 17007KT 10SM CLR 21/12 A2996 RMK AO2,0,7,0,16090,0,0,0,
2026-03-21 01:15:00,METAR KGVT 210115Z AUTO 17007KT 10SM CLR 22/12 A2996 RMK AO2,0,7,0,16090,0,0,0,
2026-03-21 00:55:00,METAR KGVT 210055Z AUTO 17007KT 10SM CLR 23/12 A2995 RMK AO2,0,7,0,16090,0,0,0,
2026-03-21 00:35:00,METAR KGVT 210035Z AUTO 18009KT 10SM CLR 25/12 A2995 RMK AO2,0,9,0,16090,0,0,0,
2026-03-21 00:15:00,METAR KGVT 210015Z AUTO 18009KT 10SM CLR 26/13 A2995 RMK AO2,0,9,0,16090,0,0,0,
2026-03-20 23:55:00,METAR KGVT 202355Z AUTO 19008KT 10SM CLR 28/14 A2995 RMK AO2,0,8,0,16090,0,0,0,
2026-03-20 23:35:00,METAR KGVT 202335Z AUTO 20010KT 10SM CLR 29/13 A2995 RMK AO2,0,10,0,16090,0,0,0,
2026-03-20 23:15:00,METAR KGVT 202315Z AUTO 21012KT 10SM CLR 29/13 A2995 RMK AO2,0,12,0,16090,0,0,0,
2026-03-20 22:55:00,METAR KGVT 202255Z AUTO 21014KT 10SM CLR 30/13 A2995 RMK AO2,0,14,0,16090,0,0,0,
2026-03-20 22:35:00,METAR KGVT 202235Z AUTO 21015KT 10SM CLR 30/13 A2995 RMK AO2,0,15,0,16090,0,0,0,
2026-03-20 22:15:00,METAR KGVT 202215Z AUTO 21013KT 10SM CLR 30/13 A2996 RMK AO2,0,13,0,16090,0,0,0,
2026-03-20 21:55:00,METAR KGVT 202155Z AUTO 21012KT 10SM CLR 30/13 A2996 RMK AO2,0,12,0,16090,0,0,0,
2026-03-20 21:35:00,METAR KGVT 202135Z AUTO 23010G17KT 10SM CLR 30/13 A2996 RMK AO2,0,10,1,16090,0,0,0,
2026-03-20 21:15:00,METAR KGVT 202115Z AUTO 22014KT 10SM CLR 30/13 A2997 RMK AO2,0,14,0,16090,0,0,0,
2026-03-20 20:55:00,METAR KGVT 202055Z AUTO 24010KT 10SM CLR 29/13 A2997 RMK AO2,0,10,0,16090,0,0,0,
2026-03-20 20:35:00,METAR KGVT 202035Z AUTO 20011KT 10SM CLR 29/13 A2997 RMK AO2,0,11,0,16090,0,0,0,
2026-03-20 20:15:00,METAR KGVT 202015Z AUTO 17014KT 10SM CLR 29/14 A2998 RMK AO2,0,14,0,16090,0,0,0,
2026-03-20 19:55:00,METAR KGVT 201955Z AUTO 21011G15KT 10SM CLR 29/13 A2999 RMK AO2,0,11,1,16090,0,0,0,
2026-03-20 19:35:00,METAR KGVT 201935Z AUTO 23011KT 10SM CLR 29/13 A3000 RMK AO2,0,11,0,16090,0,0,0,
2026-03-20 19:15:00,METAR KGVT 201915Z AUTO 20012G17KT 10SM CLR 28/13 A3001 RMK AO2,0,12,1,16090,0,0,0,
2026-03-20 18:55:00,METAR KGVT 201855Z AUTO 21012KT 10SM CLR 28/12 A3002 RMK AO2,0,12,0,16090,0,0,0,
2026-03-20 18:35:00,METAR KGVT 201835Z AUTO 18012KT 10SM CLR 27/13 A3003 RMK AO2,0,12,0,16090,0,0,0,
2026-03-20 18:15:00,METAR KGVT 201815Z AUTO 22010KT 10SM CLR 27/13 A3004 RMK AO2,0,10,0,16090,0,0,0,
2026-03-20 17:55:00,METAR KGVT 201755Z AUTO 20012G19KT 10SM CLR 26/13 A3005 RMK AO2,0,12,1,16090,0,0,0,
2026-03-20 17:35:00,METAR KGVT 201735Z AUTO 21012KT 10SM CLR 25/13 A3005 RMK AO2,0,12,0,16090,0,0,0,
2026-03-20 17:15:00,METAR KGVT 201715Z AUTO 20013KT 10SM CLR 25/13 A3006 RMK AO2,0,13,0,16090,0,0,0,
2026-03-20 16:55:00,METAR KGVT 201655Z AUTO 21010KT 10SM CLR 24/13 A3006 RMK AO2,0,10,0,16090,0,0,0,
2026-03-20 16:35:00,METAR KGVT 201635Z AUTO 19012KT 10SM CLR 24/13 A3006 RMK AO2,0,12,0,16090,0,0,0,
2026-03-20 16:15:00,METAR KGVT 201615Z AUTO 20013KT 10SM CLR 23/12 A3006 RMK AO2,0,13,0,16090,0,0,0,
2026-03-20 15:35:00,METAR KGVT 201535Z AUTO 21012KT 10SM CLR 21/13 A3007 RMK AO2,0,12,0,16090,0,0,0,
2026-03-20 15:15:00,METAR KGVT 201515Z AUTO 19013KT 10SM CLR 20/12 A3007 RMK AO2,0,13,0,16090,0,0,0,
2026-03-20 14:55:00,METAR KGVT 201455Z AUTO 21012KT 10SM CLR 19/12 A3007 RMK AO2,0,12,0,16090,0,0,0,
2026-03-20 14:35:00,METAR KGVT 201435Z AUTO 21014KT 10SM CLR 19/12 A3007 RMK AO2,0,14,0,16090,0,0,0,
2026-03-20 14:15:00,METAR KGVT 201415Z AUTO 20013G18KT 10SM CLR 18/12 A3007 RMK AO2,0,13,1,16090,0,0,0,
2026-03-20 13:55:00,METAR KGVT 201355Z AUTO 20011KT 10SM CLR 17/12 A3007 RMK AO2,0,11,0,16090,0,0,0,
2026-03-20 13:35:00,METAR KGVT 201335Z AUTO 19010KT 10SM CLR 16/12 A3007 RMK AO2,0,10,0,16090,0,0,0,
2026-03-20 13:15:00,METAR KGVT 201315Z AUTO 19009KT 10SM CLR 16/12 A3007 RMK AO2,0,9,0,16090,0,0,0,
2026-03-20 12:35:00,METAR KGVT 201235Z AUTO 19007KT 10SM CLR 15/11 A3006 RMK AO2,0,7,0,16090,0,0,0,
2026-03-20 12:15:00,METAR KGVT 201215Z AUTO 19008KT 10SM CLR 15/11 A3005 RMK AO2,0,8,0,16090,0,0,0,
2026-03-20 11:55:00,METAR KGVT 201155Z AUTO 19007KT 10SM CLR 15/11 A3006 RMK AO2,0,7,0,16090,0,0,0,
2026-03-20 11:35:00,METAR KGVT 201135Z AUTO 19008KT 10SM CLR 15/11 A3005 RMK AO2,0,8,0,16090,0,0,0,
2026-03-20 11:15:00,METAR KGVT 201115Z AUTO 19009KT 10SM CLR 16/12 A3005 RMK AO2,0,9,0,16090,0,0,0,
2026-03-20 10:55:00,METAR KGVT 201055Z AUTO 19009KT 10SM CLR 16/12 A3004 RMK AO2,0,9,0,16090,0,0,0,
2026-03-20 10:35:00,METAR KGVT 201035Z AUTO 20009KT 10SM CLR 16/12 A3004 RMK AO2,0,9,0,16090,0,0,0,
2026-03-20 10:15:00,METAR KGVT 201015Z AUTO 20011KT 10SM CLR 17/12 A3004 RMK AO2,0,11,0,16090,0,0,0,
2026-03-20 09:55:00,METAR KGVT 200955Z AUTO 20012KT 10SM CLR 17/12 A3004 RMK AO2,0,12,0,16090,0,0,0,
2026-03-20 09:35:00,METAR KGVT 200935Z AUTO 19010KT 10SM CLR 17/12 A3004 RMK AO2,0,10,0,16090,0,0,0,
2026-03-20 09:15:00,METAR KGVT 200915Z AUTO 20011KT 10SM CLR 17/12 A3004 RMK AO2,0,11,0,16090,0,0,0,
2026-03-20 08:55:00,METAR KGVT 200855Z AUTO 19011KT 10SM CLR 17/12 A3004 RMK AO2,0,11,0,16090,0,0,0,
2026-03-20 08:35:00,METAR KGVT 200835Z AUTO 19009KT 10SM CLR 16/12 A3005 RMK AO2,0,9,0,16090,0,0,0,
2026-03-20 08:15:00,METAR KGVT 200815Z AUTO 18008KT 10SM CLR 16/12 A3005 RMK AO2,0,8,0,16090,0,0,0,
2026-03-20 07:55:00,METAR KGVT 200755Z AUTO 18008KT 10SM CLR 16/12 A3006 RMK AO2,0,8,0,16090,0,0,0,
2026-03-20 07:35:00,METAR KGVT 200735Z AUTO 18008KT 10SM CLR 16/12 A3005 RMK AO2,0,8,0,16090,0,0,0,
2026-03-20 07:15:00,METAR KGVT 200715Z AUTO 18008KT 10SM CLR 17/12 A3005 RMK AO2,0,8,0,16090,0,0,0,
2026-03-20 06:55:00,METAR KGVT 200655Z AUTO 18008KT 10SM CLR 17/12 A3006 RMK AO2,0,8,0,16090,0,0,0,
2026-03-20 06:35:00,METAR KGVT 200635Z AUTO 17007KT 10SM CLR 16/12 A3006 RMK AO2,0,7,0,16090,0,0,0,
2026-03-20 06:15:00,METAR KGVT 200615Z AUTO 17007KT 10SM CLR 17/12 A3006 RMK AO2,0,7,0,16090,0,0,0,
2026-03-20 05:55:00,METAR KGVT 200555Z AUTO 17009KT 10SM CLR 17/12 A3006 RMK AO2,0,9,0,16090,0,0,0,
2026-03-20 05:35:00,METAR KGVT 200535Z AUTO 17008KT 10SM CLR 18/12 A3006 RMK AO2,0,8,0,16090,0,0,0,
2026-03-20 05:15:00,METAR KGVT 200515Z AUTO 16008KT 10SM CLR 18/12 A3006 RMK AO2,0,8,0,16090,0,0,0,
2026-03-20 04:55:00,METAR KGVT 200455Z AUTO 17008KT 10SM CLR 18/12 A3007 RMK AO2,0,8,0,16090,0,0,0,
2026-03-20 04:35:00,METAR KGVT 200435Z AUTO 17007KT 10SM CLR 18/12 A3007 RMK AO2,0,7,0,16090,0,0,0,
2026-03-20 04:15:00,METAR KGVT 200415Z AUTO 17008KT 10SM CLR 18/12 A3007 RMK AO2,0,8,0,16090,0,0,0,
2026-03-20 03:55:00,METAR KGVT 200355Z AUTO 16007KT 10SM CLR 16/12 A3007 RMK AO2,0,7,0,16090,0,0,0,
2026-03-20 03:35:00,METAR KGVT 200335Z AUTO 16006KT 10SM CLR 16/12 A3007 RMK AO2,0,6,0,16090,0,0,0,
2026-03-20 03:15:00,METAR KGVT 200315Z AUTO 14007KT 10SM CLR 16/12 A3007 RMK AO2,0,7,0,16090,0,0,0,
2026-03-20 02:55:00,METAR KGVT 200255Z AUTO 14005KT 10SM CLR 18/12 A3007 RMK AO2,0,5,0,16090,0,0,0,
2026-03-20 02:35:00,METAR KGVT 200235Z AUTO 15005KT 10SM CLR 18/12 A3006 RMK AO2,0,5,0,16090,0,0,0,
2026-03-20 02:15:00,METAR KGVT 200215Z AUTO 17006KT 10SM CLR 19/12 A3006 RMK AO2,0,6,0,16090,0,0,0,
2026-03-20 01:55:00,METAR KGVT 200155Z AUTO 17005KT 10SM CLR 19/12 A3005 RMK AO2,0,5,0,16090,0,0,0,
2026-03-20 01:35:00,METAR KGVT 200135Z AUTO 16007KT 10SM CLR 19/12 A3004 RMK AO2,0,7,0,16090,0,0,0,
2026-03-20 01:15:00,METAR KGVT 200115Z AUTO 17007KT 10SM CLR 19/12 A3004 RMK AO2,0,7,0,16090,0,0,0,
2026-03-20 00:55:00,METAR KGVT 200055Z AUTO 17007KT 10SM CLR 21/12 A3004 RMK AO2,0,7,0,16090,0,0,0,
2026-03-20 00:35:00,METAR KGVT 200035Z AUTO 17007KT 10SM CLR 23/11 A3004 RMK AO2,0,7,0,16090,0,0,0,
2026-03-20 00:15:00,METAR KGVT 200015Z AUTO 20012KT 10SM CLR 25/11 A3003 RMK AO2,0,12,0,16090,0,0,0,
2026-03-19 23:55:00,METAR KGVT 192355Z AUTO 19010KT 10SM CLR 26/11 A3003 RMK AO2,0,10,0,16090,0,0,0,
2026-03-19 23:35:00,METAR KGVT 192335Z AUTO 19012KT 10SM CLR 27/12 A3002 RMK AO2,0,12,0,16090,0,0,0,
2026-03-19 23:15:00,METAR KGVT 192315Z AUTO 20014G19KT 10SM CLR 27/12 A3003 RMK AO2,0,14,1,16090,0,0,0,
2026-03-19 22:55:00,METAR KGVT 192255Z AUTO 19014KT 10SM CLR 28/12 A3003 RMK AO2,0,14,0,16090,0,0,0,
2026-03-19 22:35:00,METAR KGVT 192235Z AUTO 20017KT 10SM CLR 28/12 A3004 RMK AO2,0,17,0,16090,0,0,0,
2026-03-19 22:15:00,METAR KGVT 192215Z AUTO 19015KT 10SM CLR 28/12 A3004 RMK AO2,0,15,0,16090,0,0,0,
2026-03-19 21:55:00,METAR KGVT 192155Z AUTO 20014KT 10SM CLR 28/12 A3005 RMK AO2,0,14,0,16090,0,0,0,
2026-03-19 21:35:00,METAR KGVT 192135Z AUTO 21016KT 10SM CLR 28/12 A3005 RMK AO2,0,16,0,16090,0,0,0,
2026-03-19 21:15:00,METAR KGVT 192115Z AUTO 21011G19KT 10SM CLR 28/13 A3006 RMK AO2,0,11,1,16090,0,0,0,
2026-03-19 20:55:00,METAR KGVT 192055Z AUTO 19015KT 10SM CLR 28/13 A3006 RMK AO2,0,15,0,16090,0,0,0,
2026-03-19 20:35:00,METAR KGVT 192035Z AUTO 19013G19KT 10SM CLR 27/13 A3007 RMK AO2,0,13,1,16090,0,0,0,
2026-03-19 20:15:00,METAR KGVT 192015Z AUTO 19013KT 10SM CLR 27/13 A3008 RMK AO2,0,13,0,16090,0,0,0,
2026-03-19 19:55:00,METAR KGVT 191955Z AUTO 21011KT 170V230 10SM CLR 27/13 A3009 RMK AO2,0,11,0,16090,0,0,0,
2026-03-19 19:35:00,METAR KGVT 191935Z AUTO 20014G19KT 10SM CLR 26/12 A3010 RMK AO2,0,14,1,16090,0,0,0,
2026-03-19 19:15:00,METAR KGVT 191915Z AUTO 20012KT 10SM CLR 25/12 A3011 RMK AO2,0,12,0,16090,0,0,0,
2026-03-19 18:55:00,METAR KGVT 191855Z AUTO 19014KT 10SM CLR 25/12 A3012 RMK AO2,0,14,0,16090,0,0,0,
2026-03-19 18:35:00,METAR KGVT 191835Z AUTO 19009KT 10SM CLR 24/12 A3013 RMK AO2,0,9,0,16090,0,0,0,
2026-03-19 18:15:00,METAR KGVT 191815Z AUTO 19009KT 10SM CLR 24/12 A3014 RMK AO2,0,9,0,16090,0,0,0,
2026-03-19 17:55:00,METAR KGVT 191755Z AUTO 20013G17KT 10SM CLR 23/12 A3015 RMK AO2,0,13,1,16090,0,0,0,
2026-03-19 17:35:00,METAR KGVT 191735Z AUTO 19010G15KT 10SM CLR 22/12 A3015 RMK AO2,0,10,1,16090,0,0,0,
2026-03-19 17:15:00,METAR KGVT 191715Z AUTO 20012KT 10SM CLR 22/11 A3016 RMK AO2,0,12,0,16090,0,0,0,
2026-03-19 16:55:00,METAR KGVT 191655Z AUTO 21010G15KT 10SM CLR 21/11 A3016 RMK AO2,0,10,1,16090,0,0,0,
2026-03-19 16:35:00,METAR KGVT 191635Z AUTO 22013KT 10SM CLR 21/11 A3017 RMK AO2,0,13,0,16090,0,0,0,
2026-03-19 16:15:00,METAR KGVT 191615Z AUTO 21013KT 10SM CLR 20/11 A3017 RMK AO2,0,13,0,16090,0,0,0,
2026-03-19 15:55:00,METAR KGVT 191555Z AUTO 20012KT 10SM CLR 19/11 A3018 RMK AO2,0,12,0,16090,0,0,0,
2026-03-19 15:35:00,METAR KGVT 191535Z AUTO 20015KT 10SM CLR 18/11 A3018 RMK AO2,0,15,0,16090,0,0,0,
2026-03-19 15:15:00,METAR KGVT 191515Z AUTO 20014KT 10SM CLR 17/10 A3018 RMK AO2,0,14,0,16090,0,0,0,
2026-03-19 14:55:00,METAR KGVT 191455Z AUTO 20014KT 10SM CLR 17/10 A3018 RMK AO2,0,14,0,16090,0,0,0,
2026-03-19 14:35:00,METAR KGVT 191435Z AUTO 21011G20KT 10SM CLR 16/11 A3017 RMK AO2,0,11,1,16090,0,0,0,
2026-03-19 14:15:00,METAR KGVT 191415Z AUTO 21015G18KT 10SM CLR 16/10 A3016 RMK AO2,0,15,1,16090,0,0,0,
2026-03-19 13:55:00,METAR KGVT 191355Z AUTO 20012KT 10SM CLR 15/10 A3015 RMK AO2,0,12,0,16090,0,0,0,
2026-03-19 13:35:00,METAR KGVT 191335Z AUTO 19011KT 10SM CLR 14/10 A3016 RMK AO2,0,11,0,16090,0,0,0,
2026-03-19 13:15:00,METAR KGVT 191315Z AUTO 18011KT 10SM CLR 13/11 A3015 RMK AO2,0,11,0,16090,0,0,0,
2026-03-19 12:55:00,METAR KGVT 191255Z AUTO 18008KT 10SM CLR 12/10 A3015 RMK AO2,0,8,0,16090,0,0,0,
2026-03-19 12:35:00,METAR KGVT 191235Z AUTO 18007KT 10SM CLR 11/10 A3014 RMK AO2,0,7,0,16090,0,0,0,
2026-03-19 12:15:00,METAR KGVT 191215Z AUTO 18007KT 10SM CLR 11/10 A3014 RMK AO2,0,7,0,16090,0,0,0,
2026-03-19 11:55:00,METAR KGVT 191155Z AUTO 19008KT 10SM CLR 11/10 A3013 RMK AO2,0,8,0,16090,0,0,0,
2026-03-19 11:35:00,METAR KGVT 191135Z AUTO 18008KT 10SM CLR 10/09 A3012 RMK AO2,0,8,0,16090,0,0,0,
2026-03-19 11:15:00,METAR KGVT 191115Z AUTO 18007KT 10SM CLR 10/09 A3013 RMK AO2,0,7,0,16090,0,0,0,
2026-03-19 10:55:00,METAR KGVT 191055Z AUTO 18007KT 10SM CLR 10/09 A3012 RMK AO2,0,7,0,16090,0,0,0,
2026-03-19 10:35:00,METAR KGVT 191035Z AUTO 19007KT 10SM CLR 10/09 A3012 RMK AO2,0,7,0,16090,0,0,0,
2026-03-19 10:15:00,METAR KGVT 191015Z AUTO 00000KT 10SM CLR 10/08 A3012 RMK AO2,0,0,0,16090,0,0,0,
2026-03-19 09:55:00,METAR KGVT 190955Z AUTO 00000KT 10SM CLR 09/08 A3013 RMK AO2,0,0,0,16090,0,0,0,
2026-03-19 09:35:00,METAR KGVT 190935Z AUTO 00000KT 10SM CLR 08/08 A3013 RMK AO2,0,0,0,16090,0,0,0,
2026-03-19 09:15:00,METAR KGVT 190915Z AUTO 00000KT 10SM CLR 09/09 A3013 RMK AO2,0,0,0,16090,0,0,0,
2026-03-19 08:55:00,METAR KGVT 190855Z AUTO 00000KT 10SM CLR 08/07 A3014 RMK AO2,0,0,0,16090,0,0,0,
2026-03-19 08:35:00,METAR KGVT 190835Z AUTO 00000KT 10SM CLR 07/07 A3014 RMK AO2,0,0,0,16090,0,0,0,
2026-03-19 08:15:00,METAR KGVT 190815Z AUTO 00000KT 10SM CLR 08/07 A3014 RMK AO2,0,0,0,16090,0,0,0,
2026-03-19 07:55:00,METAR KGVT 190755Z AUTO 00000KT 10SM CLR 08/07 A3014 RMK AO2,0,0,0,16090,0,0,0,
2026-03-19 07:35:00,METAR KGVT 190735Z AUTO 00000KT 10SM CLR 07/06 A3014 RMK AO2,0,0,0,16090,0,0,0,
2026-03-19 07:15:00,METAR KGVT 190715Z AUTO 00000KT 10SM CLR 08/07 A3014 RMK AO2,0,0,0,16090,0,0,0,
2026-03-19 06:55:00,METAR KGVT 190655Z AUTO 00000KT 10SM CLR 08/07 A3014 RMK AO2,0,0,0,16090,0,0,0,
2026-03-19 06:35:00,METAR KGVT 190635Z AUTO 00000KT 10SM CLR 08/07 A3014 RMK AO2,0,0,0,16090,0,0,0,
2026-03-19 06:15:00,METAR KGVT 190615Z AUTO 00000KT 10SM CLR 10/08 A3014 RMK AO2,0,0,0,16090,0,0,0,
2026-03-19 05:55:00,METAR KGVT 190555Z AUTO 00000KT 10SM CLR 09/07 A3014 RMK AO2,0,0,0,16090,0,0,0,
2026-03-19 05:35:00,METAR KGVT 190535Z AUTO 00000KT 10SM CLR 10/08 A3015 RMK AO2,0,0,0,16090,0,0,0,
2026-03-19 05:15:00,METAR KGVT 190515Z AUTO 00000KT 10SM CLR 11/08 A3014 RMK AO2,0,0,0,16090,0,0,0,
2026-03-19 04:55:00,METAR KGVT 190455Z AUTO 00000KT 10SM CLR 10/08 A3014 RMK AO2,0,0,0,16090,0,0,0,
2026-03-19 04:35:00,METAR KGVT 190435Z AUTO 06003KT 10SM CLR 11/08 A3013 RMK AO2,0,3,0,16090,0,0,0,
2026-03-19 04:15:00,METAR KGVT 190415Z AUTO 12003KT 10SM CLR 10/07 A3013 RMK AO2,0,3,0,16090,0,0,0,
2026-03-19 03:55:00,METAR KGVT 190355Z AUTO 15004KT 10SM CLR 10/07 A3012 RMK AO2,0,4,0,16090,0,0,0,
2026-03-19 03:35:00,METAR KGVT 190335Z AUTO 17004KT 10SM CLR 11/07 A3012 RMK AO2,0,4,0,16090,0,0,0,
2026-03-19 03:15:00,METAR KGVT 190315Z AUTO 17005KT 10SM CLR 12/07 A3012 RMK AO2,0,5,0,16090,0,0,0,
2026-03-19 02:55:00,METAR KGVT 190255Z AUTO 17007KT 10SM CLR 13/07 A3011 RMK AO2,0,7,0,16090,0,0,0,
2026-03-19 02:35:00,METAR KGVT 190235Z AUTO 17005KT 10SM CLR 12/07 A3011 RMK AO2,0,5,0,16090,0,0,0,
2026-03-19 02:15:00,METAR KGVT 190215Z AUTO 17005KT 10SM CLR 14/06 A3011 RMK AO2,0,5,0,16090,0,0,0,
2026-03-19 01:55:00,METAR KGVT 190155Z AUTO 18005KT 10SM CLR 14/06 A3010 RMK AO2,0,5,0,16090,0,0,0,
2026-03-19 01:35:00,METAR KGVT 190135Z AUTO 19006KT 10SM CLR 15/06 A3010 RMK AO2,0,6,0,16090,0,0,0,
2026-03-19 01:15:00,METAR KGVT 190115Z AUTO 19006KT 10SM CLR 17/06 A3010 RMK AO2,0,6,0,16090,0,0,0,
2026-03-19 00:55:00,METAR KGVT 190055Z AUTO 19008KT 10SM CLR 17/06 A3009 RMK AO2,0,8,0,16090,0,0,0,
2026-03-19 00:35:00,METAR KGVT 190035Z AUTO 20009KT 10SM CLR 19/06 A3010 RMK AO2,0,9,0,16090,0,0,0,
2026-03-19 00:15:00,METAR KGVT 190015Z AUTO 19010KT 10SM CLR 20/07 A3010 RMK AO2,0,10,0,16090,0,0,0,
2026-03-18 23:55:00,METAR KGVT 182355Z AUTO 20013KT 10SM CLR 21/07 A3010 RMK AO2,0,13,0,16090,0,0,0,
2026-03-18 23:35:00,METAR KGVT 182335Z AUTO 19013KT 10SM CLR 21/06 A3010 RMK AO2,0,13,0,16090,0,0,0,
2026-03-18 23:15:00,METAR KGVT 182315Z AUTO 20012KT 10SM CLR 22/06 A3010 RMK AO2,0,12,0,16090,0,0,0,
2026-03-18 22:55:00,METAR KGVT 182255Z AUTO 22012KT 10SM CLR 22/06 A3011 RMK AO2,0,12,0,16090,0,0,0,
2026-03-18 22:35:00,METAR KGVT 182235Z AUTO 20011KT 10SM CLR 22/07 A3011 RMK AO2,0,11,0,16090,0,0,0,
2026-03-18 22:15:00,METAR KGVT 182215Z AUTO 19014KT 10SM CLR 22/06 A3011 RMK AO2,0,14,0,16090,0,0,0,
2026-03-18 21:55:00,METAR KGVT 182155Z AUTO 19014KT 10SM CLR 22/06 A3012 RMK AO2,0,14,0,16090,0,0,0,
2026-03-18 21:35:00,METAR KGVT 182135Z AUTO 20014G20KT 10SM CLR 22/06 A3011 RMK AO2,0,14,1,16090,0,0,0,
2026-03-18 21:15:00,METAR KGVT 182115Z AUTO 21014G18KT 10SM CLR 22/07 A3012 RMK AO2,0,14,1,16090,0,0,0,
2026-03-18 20:55:00,METAR KGVT 182055Z AUTO 20013G20KT 10SM CLR 22/07 A3012 RMK AO2,0,13,1,16090,0,0,0,
2026-03-18 20:35:00,METAR KGVT 182035Z AUTO 20016G20KT 10SM CLR 22/06 A3013 RMK AO2,0,16,1,16090,0,0,0,
2026-03-18 20:15:00,METAR KGVT 182015Z AUTO 19014G23KT 10SM CLR 22/07 A3014 RMK AO2,0,14,1,16090,0,0,0,
2026-03-18 19:55:00,METAR KGVT 181955Z AUTO 23012KT 10SM CLR 21/06 A3014 RMK AO2,0,12,0,16090,0,0,0,
2026-03-18 19:35:00,METAR KGVT 181935Z AUTO 21012KT 10SM CLR 21/07 A3016 RMK AO2,0,12,0,16090,0,0,0,
2026-03-18 19:15:00,METAR KGVT 181915Z AUTO 20015G18KT 10SM CLR 20/06 A3017 RMK AO2,0,15,1,16090,0,0,0,
2026-03-18 18:55:00,METAR KGVT 181855Z AUTO 22012G19KT 10SM CLR 20/06 A3017 RMK AO2,0,12,1,16090,0,0,0,
2026-03-18 18:35:00,METAR KGVT 181835Z AUTO 19017G22KT 10SM CLR 19/06 A3018 RMK AO2,0,17,1,16090,0,0,0,
2026-03-18 18:15:00,METAR KGVT 181815Z AUTO 20013G19KT 10SM CLR 19/06 A3019 RMK AO2,0,13,1,16090,0,0,0,
2026-03-18 17:55:00,METAR KGVT 181755Z AUTO 22015KT 10SM CLR 18/05 A3020 RMK AO2,0,15,0,16090,0,0,0,
2026-03-18 17:35:00,METAR KGVT 181735Z AUTO 22013G18KT 10SM CLR 18/05 A3021 RMK AO2,0,13,1,16090,0,0,0,
2026-03-18 17:15:00,METAR KGVT 181715Z AUTO 21014G19KT 10SM CLR 17/05 A3021 RMK AO2,0,14,1,16090,0,0,0,
2026-03-18 16:55:00,METAR KGVT 181655Z AUTO 22012G20KT 10SM CLR 16/05 A3022 RMK AO2,0,12,1,16090,0,0,0,
2026-03-18 16:35:00,METAR KGVT 181635Z AUTO 20017KT 10SM CLR 16/05 A3022 RMK AO2,0,17,0,16090,0,0,0,
2026-03-18 16:15:00,METAR KGVT 181615Z AUTO 21016KT 10SM CLR 15/05 A3022 RMK AO2,0,16,0,16090,0,0,0,
2026-03-18 15:55:00,METAR KGVT 181555Z AUTO 21018G25KT 10SM CLR 15/05 A3022 RMK AO2,0,18,1,16090,0,0,0,
2026-03-18 15:35:00,METAR KGVT 181535Z AUTO 20015KT 10SM CLR 14/05 A3021 RMK AO2,0,15,0,16090,0,0,0,
2026-03-18 15:15:00,METAR KGVT 181515Z AUTO 20017G28KT 10SM CLR 13/04 A3021 RMK AO2,0,17,1,16090,0,0,0,
2026-03-18 14:55:00,METAR KGVT 181455Z AUTO 21017G21KT 10SM CLR 12/04 A3022 RMK AO2,0,17,1,16090,0,0,0,
2026-03-18 14:35:00,METAR KGVT 181435Z AUTO 21014KT 10SM CLR 12/04 A3020 RMK AO2,0,14,0,16090,0,0,0,
2026-03-18 14:15:00,METAR KGVT 181415Z AUTO 20014G20KT 10SM CLR 10/03 A3018 RMK AO2,0,14,1,16090,0,0,0,
2026-03-18 13:55:00,METAR KGVT 181355Z AUTO 20014G23KT 10SM CLR 10/03 A3018 RMK AO2,0,14,1,16090,0,0,0,
2026-03-18 13:35:00,METAR KGVT 181335Z AUTO 20013KT 10SM CLR 09/03 A3018 RMK AO2,0,13,0,16090,0,0,0,
2026-03-18 13:15:00,METAR KGVT 181315Z AUTO 20015KT 10SM CLR 09/02 A3017 RMK AO2,0,15,0,16090,0,0,0,
2026-03-18 12:55:00,METAR KGVT 181255Z AUTO 20010KT 10SM CLR 09/02 A3019 RMK AO2,0,10,0,16090,0,0,0,
2026-03-18 12:35:00,METAR KGVT 181235Z AUTO 21014KT 10SM CLR 09/02 A3019 RMK AO2,0,14,0,16090,0,0,0,
2026-03-18 12:15:00,METAR KGVT 181215Z AUTO 19011KT 10SM CLR 09/01 A3018 RMK AO2,0,11,0,16090,0,0,0,
2026-03-18 11:55:00,METAR KGVT 181155Z AUTO 20013KT 10SM CLR 09/01 A3017 RMK AO2,0,13,0,16090,0,0,0,
2026-03-18 11:35:00,METAR KGVT 181135Z AUTO 19014G17KT 10SM CLR 09/01 A3016 RMK AO2,0,14,1,16090,0,0,0,
2026-03-18 11:15:00,METAR KGVT 181115Z AUTO 20012KT 10SM CLR 09/00 A3016 RMK AO2,0,12,0,16090,0,0,0,
2026-03-18 10:55:00,METAR KGVT 181055Z AUTO 20011G15KT 10SM SCT120 09/00 A3016 RMK AO2,0,11,1,16090,0,0,0,
2026-03-18 10:35:00,METAR KGVT 181035Z AUTO 19012KT 10SM SCT120 09/00 A3014 RMK AO2,0,12,0,16090,0,0,0,
2026-03-18 10:15:00,METAR KGVT 181015Z AUTO 20012KT 10SM SCT120 09/M01 A3014 RMK AO2,0,12,0,16090,0,0,0,
2026-03-18 09:55:00,METAR KGVT 180955Z AUTO 20013KT 10SM CLR 10/M02 A3012 RMK AO2,0,13,0,16090,0,0,0,
2026-03-18 09:35:00,METAR KGVT 180935Z AUTO 20011G19KT 10SM CLR 10/M02 A3012 RMK AO2,0,11,1,16090,0,0,0,
2026-03-18 09:15:00,METAR KGVT 180915Z AUTO 20014G17KT 10SM CLR 10/M02 A3012 RMK AO2,0,14,1,16090,0,0,0,
2026-03-18 08:55:00,METAR KGVT 180855Z AUTO 19011G18KT 10SM CLR 10/M02 A3012 RMK AO2,0,11,1,16090,0,0,0,
2026-03-18 08:35:00,METAR KGVT 180835Z AUTO 20012KT 10SM CLR 10/M02 A3012 RMK AO2,0,12,0,16090,0,0,0,
2026-03-18 08:15:00,METAR KGVT 180815Z AUTO 20015KT 10SM CLR 10/M03 A3012 RMK AO2,0,15,0,16090,0,0,0,
2026-03-18 07:55:00,METAR KGVT 180755Z AUTO 20015G18KT 10SM CLR 10/M03 A3012 RMK AO2,0,15,1,16090,0,0,0,
2026-03-18 07:35:00,METAR KGVT 180735Z AUTO 20015KT 10SM CLR 10/M03 A3013 RMK AO2,0,15,0,16090,0,0,0,
2026-03-18 07:15:00,METAR KGVT 180715Z AUTO 20014KT 10SM CLR 10/M03 A3013 RMK AO2,0,14,0,16090,0,0,0,
2026-03-18 06:55:00,METAR KGVT 180655Z AUTO 19008KT 10SM CLR 09/M02 A3014 RMK AO2,0,8,0,16090,0,0,0,
2026-03-18 06:35:00,METAR KGVT 180635Z AUTO 18008KT 10SM CLR 09/M02 A3014 RMK AO2,0,8,0,16090,0,0,0,
2026-03-18 06:15:00,METAR KGVT 180615Z AUTO 17009KT 10SM CLR 09/M03 A3014 RMK AO2,0,9,0,16090,0,0,0,
2026-03-18 05:55:00,METAR KGVT 180555Z AUTO 17009KT 10SM CLR 09/M03 A3014 RMK AO2,0,9,0,16090,0,0,0,
2026-03-18 05:35:00,METAR KGVT 180535Z AUTO 17008KT 10SM CLR 09/M03 A3015 RMK AO2,0,8,0,16090,0,0,0,
2026-03-18 05:15:00,METAR KGVT 180515Z AUTO 18009KT 10SM CLR 10/M03 A3015 RMK AO2,0,9,0,16090,0,0,0,
2026-03-18 04:55:00,METAR KGVT 180455Z AUTO 18010KT 10SM CLR 10/M03 A3015 RMK AO2,0,10,0,16090,0,0,0,
2026-03-18 04:35:00,METAR KGVT 180435Z AUTO 17010KT 10SM CLR 10/M03 A3014 RMK AO2,0,10,0,16090,0,0,0,
2026-03-18 04:15:00,METAR KGVT 180415Z AUTO 18012KT 10SM CLR 11/M03 A3013 RMK AO2,0,12,0,16090,0,0,0,
2026-03-18 03:55:00,METAR KGVT 180355Z AUTO 18012KT 10SM CLR 11/M03 A3013 RMK AO2,0,12,0,16090,0,0,0,
2026-03-18 03:35:00,METAR KGVT 180335Z AUTO 17011KT 10SM CLR 10/M03 A3013 RMK AO2,0,11,0,16090,0,0,0,
2026-03-18 03:15:00,METAR KGVT 180315Z AUTO 17011KT 10SM CLR 11/M04 A3014 RMK AO2,0,11,0,16090,0,0,0,
2026-03-18 02:55:00,METAR KGVT 180255Z AUTO 17010KT 10SM CLR 11/M04 A3014 RMK AO2,0,10,0,16090,0,0,0,
2026-03-18 02:35:00,METAR KGVT 180235Z AUTO 17010KT 10SM CLR 11/M04 A3012 RMK AO2,0,10,0,16090,0,0,0,
2026-03-18 02:15:00,METAR KGVT 180215Z AUTO 17011KT 10SM CLR 11/M04 A3012 RMK AO2,0,11,0,16090,0,0,0,
2026-03-18 01:55:00,METAR KGVT 180155Z AUTO 17009KT 10SM CLR 11/M04 A3012 RMK AO2,0,9,0,16090,0,0,0,
2026-03-18 01:35:00,METAR KGVT 180135Z AUTO 17010KT 10SM CLR 11/M04 A3012 RMK AO2,0,10,0,16090,0,0,0,
2026-03-18 01:15:00,METAR KGVT 180115Z AUTO 17009KT 10SM CLR 11/M04 A3013 RMK AO2,0,9,0,16090,0,0,0,
2026-03-18 00:55:00,METAR KGVT 180055Z AUTO 18009KT 10SM CLR 11/M05 A3013 RMK AO2,0,9,0,16090,0,0,0,
2026-03-18 00:35:00,METAR KGVT 180035Z AUTO 18010KT 10SM CLR 12/M05 A3013 RMK AO2,0,10,0,16090,0,0,0,
2026-03-18 00:15:00,METAR KGVT 180015Z AUTO 19010KT 10SM CLR 14/M07 A3014 RMK AO2,0,10,0,16090,0,0,0,
2026-03-17 23:55:00,METAR KGVT 172355Z AUTO 20015KT 10SM CLR 15/M06 A3014 RMK AO2,0,15,0,16090,0,0,0,
2026-03-17 23:35:00,METAR KGVT 172335Z AUTO 19014G17KT 10SM CLR 15/M07 A3014 RMK AO2,0,14,1,16090,0,0,0,
2026-03-17 23:15:00,METAR KGVT 172315Z AUTO 20018G24KT 10SM CLR 15/M06 A3014 RMK AO2,0,18,1,16090,0,0,0,
2026-03-17 22:55:00,METAR KGVT 172255Z AUTO 19015KT 10SM CLR 15/M06 A3014 RMK AO2,0,15,0,16090,0,0,0,
2026-03-17 22:35:00,METAR KGVT 172235Z AUTO 19014KT 10SM CLR 16/M05 A3014 RMK AO2,0,14,0,16090,0,0,0,
2026-03-17 22:15:00,METAR KGVT 172215Z AUTO 18017KT 10SM CLR 15/M05 A3014 RMK AO2,0,17,0,16090,0,0,0,
2026-03-17 21:55:00,METAR KGVT 172155Z AUTO 18017G24KT 10SM CLR 15/M05 A3014 RMK AO2,0,17,1,16090,0,0,0,
2026-03-17 21:35:00,METAR KGVT 172135Z AUTO 18014G20KT 10SM CLR 15/M05 A3016 RMK AO2,0,14,1,16090,0,0,0,
2026-03-17 21:15:00,METAR KGVT 172115Z AUTO 21016KT 10SM CLR 15/M05 A3017 RMK AO2,0,16,0,16090,0,0,0,
2026-03-17 20:55:00,METAR KGVT 172055Z AUTO 20014G23KT 10SM CLR 15/M06 A3018 RMK AO2,0,14,1,16090,0,0,0,
2026-03-17 20:35:00,METAR KGVT 172035Z AUTO 21015G21KT 10SM CLR 15/M06 A3020 RMK AO2,0,15,1,16090,0,0,0,
2026-03-17 20:15:00,METAR KGVT 172015Z AUTO 19010G19KT 10SM CLR 15/M07 A3020 RMK AO2,0,10,1,16090,0,0,0,
2026-03-17 19:55:00,METAR KGVT 171955Z AUTO 20014G24KT 10SM CLR 15/M06 A3022 RMK AO2,0,14,1,16090,0,0,0,
2026-03-17 19:35:00,METAR KGVT 171935Z AUTO 17013G18KT 10SM CLR 14/M06 A3023 RMK AO2,0,13,1,16090,0,0,0,
2026-03-17 19:10:00,METAR KGVT 171910Z AUTO 20015KT 10SM CLR 13/M06 A3025 RMK AO2,0,15,0,16090,0,0,0,
2026-03-17 18:55:00,METAR KGVT 171855Z AUTO 17014KT 10SM CLR 13/M06 A3026 RMK AO2,0,14,0,16090,0,0,0,
2026-03-17 18:35:00,METAR KGVT 171835Z AUTO 17015G21KT 10SM CLR 13/M07 A3027 RMK AO2,0,15,1,16090,0,0,0,
2026-03-17 18:15:00,METAR KGVT 171815Z AUTO 17013G20KT 10SM CLR 13/M06 A3028 RMK AO2,0,13,1,16090,0,0,0,
2026-03-17 17:55:00,METAR KGVT 171755Z AUTO 18014G19KT 10SM CLR 12/M07 A3030 RMK AO2,0,14,1,16090,0,0,0,
2026-03-17 17:35:00,METAR KGVT 171735Z AUTO 17013G19KT 10SM CLR 11/M06 A3031 RMK AO2,0,13,1,16090,0,0,0,
2026-03-17 17:15:00,METAR KGVT 171715Z AUTO 18012KT 10SM CLR 11/M07 A3032 RMK AO2,0,12,0,16090,0,0,0,
2026-03-17 16:55:00,METAR KGVT 171655Z AUTO 19011KT 10SM CLR 11/M06 A3033 RMK AO2,0,11,0,16090,0,0,0,
2026-03-17 16:35:00,METAR KGVT 171635Z AUTO 17013KT 10SM CLR 10/M08 A3033 RMK AO2,0,13,0,16090,0,0,0,
2026-03-17 16:15:00,METAR KGVT 171615Z AUTO 19012KT 10SM CLR 09/M08 A3034 RMK AO2,0,12,0,16090,0,0,0,
2026-03-17 15:55:00,METAR KGVT 171555Z AUTO 20010KT 10SM CLR 09/M08 A3034 RMK AO2,0,10,0,16090,0,0,0,
2026-03-17 15:35:00,METAR KGVT 171535Z AUTO 18011KT 10SM CLR 08/M08 A3034 RMK AO2,0,11,0,16090,0,0,0,
2026-03-17 14:55:00,METAR KGVT 171455Z AUTO 19012KT 10SM CLR 07/M08 A3035 RMK AO2,0,12,0,16090,0,0,0,
2026-03-17 14:35:00,METAR KGVT 171435Z AUTO 17010KT 10SM CLR 06/M07 A3035 RMK AO2,0,10,0,16090,0,0,0,
2026-03-17 14:15:00,METAR KGVT 171415Z AUTO 15006KT 10SM CLR 04/M03 A3034 RMK AO2,0,6,0,16090,0,0,0,
2026-03-17 13:55:00,METAR KGVT 171355Z AUTO 15005KT 10SM CLR 03/M02 A3033 RMK AO2,0,5,0,16090,0,0,0,
2026-03-17 13:35:00,METAR KGVT 171335Z AUTO 15005KT 10SM CLR 01/M03 A3032 RMK AO2,0,5,0,16090,0,0,0,
2026-03-17 13:15:00,METAR KGVT 171315Z AUTO 14003KT 10SM CLR M01/M04 A3032 RMK AO2,0,3,0,16090,0,0,0,
2026-03-17 12:55:00,METAR KGVT 171255Z AUTO 12003KT 10SM CLR M02/M04 A3031 RMK AO2,0,3,0,16090,0,0,0,
2026-03-17 12:35:00,METAR KGVT 171235Z AUTO 14003KT 10SM CLR M02/M04 A3031 RMK AO2,0,3,0,16090,0,0,0,
2026-03-17 12:15:00,METAR KGVT 171215Z AUTO 00000KT 10SM CLR M02/M04 A3032 RMK AO2,0,0,0,16090,0,0,0,
2026-03-17 11:55:00,METAR KGVT 171155Z AUTO 09003KT 10SM CLR M02/M04 A3031 RMK AO2,0,3,0,16090,0,0,0,
2026-03-17 11:35:00,METAR KGVT 171135Z AUTO 11003KT 10SM CLR M01/M04 A3031 RMK AO2,0,3,0,16090,0,0,0,
2026-03-17 11:15:00,METAR KGVT 171115Z AUTO 10003KT 10SM CLR M01/M04 A3030 RMK AO2,0,3,0,16090,0,0,0,
2026-03-17 10:55:00,METAR KGVT 171055Z AUTO 15003KT 10SM CLR 00/M06 A3030 RMK AO2,0,3,0,16090,0,0,0,
2026-03-17 10:35:00,METAR KGVT 171035Z AUTO 19003KT 10SM CLR 00/M05 A3030 RMK AO2,0,3,0,16090,0,0,0,
2026-03-17 10:15:00,METAR KGVT 171015Z AUTO 21004KT 10SM CLR 01/M07 A3030 RMK AO2,0,4,0,16090,0,0,0,
2026-03-17 09:55:00,METAR KGVT 170955Z AUTO 00000KT 10SM CLR 01/M07 A3030 RMK AO2,0,0,0,16090,0,0,0,
2026-03-17 09:35:00,METAR KGVT 170935Z AUTO 18006KT 10SM CLR M01/M06 A3028 RMK AO2,0,6,0,16090,0,0,0,
2026-03-17 09:15:00,METAR KGVT 170915Z AUTO 20007KT 10SM CLR 00/M05 A3029 RMK AO2,0,7,0,16090,0,0,0,
2026-03-17 08:55:00,METAR KGVT 170855Z AUTO 00000KT 10SM CLR M03/M05 A3031 RMK AO2,0,0,0,16090,0,0,0,
2026-03-17 08:35:00,METAR KGVT 170835Z AUTO 00000KT 10SM CLR M03/M06 A3032 RMK AO2,0,0,0,16090,0,0,0,
2026-03-17 08:15:00,METAR KGVT 170815Z AUTO 00000KT 10SM CLR M03/M05 A3032 RMK AO2,0,0,0,16090,0,0,0,
2026-03-17 07:55:00,METAR KGVT 170755Z AUTO 00000KT 10SM CLR M03/M05 A3032 RMK AO2,0,0,0,16090,0,0,0,
2026-03-17 07:35:00,METAR KGVT 170735Z AUTO 00000KT 10SM CLR M02/M05 A3032 RMK AO2,0,0,0,16090,0,0,0,
2026-03-17 07:15:00,METAR KGVT 170715Z AUTO 00000KT 10SM CLR M03/M06 A3032 RMK AO2,0,0,0,16090,0,0,0,
2026-03-17 06:55:00,METAR KGVT 170655Z AUTO 00000KT 10SM CLR M03/M05 A3031 RMK AO2,0,0,0,16090,0,0,0,
2026-03-17 06:35:00,METAR KGVT 170635Z AUTO 00000KT 10SM CLR M03/M05 A3031 RMK AO2,0,0,0,16090,0,0,0,
2026-03-17 06:15:00,METAR KGVT 170615Z AUTO 00000KT 10SM CLR M02/M07 A3031 RMK AO2,0,0,0,16090,0,0,0,
2026-03-17 05:55:00,METAR KGVT 170555Z AUTO 00000KT 10SM CLR M02/M06 A3032 RMK AO2,0,0,0,16090,0,0,0,
2026-03-17 05:35:00,METAR KGVT 170535Z AUTO 00000KT 10SM CLR M02/M07 A3032 RMK AO2,0,0,0,16090,0,0,0,
2026-03-17 05:15:00,METAR KGVT 170515Z AUTO 00000KT 10SM CLR M02/M06 A3032 RMK AO2,0,0,0,16090,0,0,0,
2026-03-17 04:55:00,METAR KGVT 170455Z AUTO 21003KT 10SM CLR M02/M07 A3033 RMK AO2,0,3,0,16090,0,0,0,
2026-03-17 04:35:00,METAR KGVT 170435Z AUTO 17003KT 10SM CLR M02/M07 A3032 RMK AO2,0,3,0,16090,0,0,0,
2026-03-17 04:15:00,METAR KGVT 170415Z AUTO 00000KT 10SM CLR M02/M07 A3033 RMK AO2,0,0,0,16090,0,0,0,
2026-03-17 03:55:00,METAR KGVT 170355Z AUTO 00000KT 10SM CLR M02/M06 A3033 RMK AO2,0,0,0,16090,0,0,0,
2026-03-17 03:35:00,METAR KGVT 170335Z AUTO 00000KT 10SM CLR M02/M06 A3033 RMK AO2,0,0,0,16090,0,0,0,
2026-03-17 03:15:00,METAR KGVT 170315Z AUTO 00000KT 10SM CLR 00/M07 A3033 RMK AO2,0,0,0,16090,0,0,0,
2026-03-17 02:55:00,METAR KGVT 170255Z AUTO 00000KT 10SM CLR 00/M06 A3032 RMK AO2,0,0,0,16090,0,0,0,
2026-03-17 02:35:00,METAR KGVT 170235Z AUTO 00000KT 10SM CLR 02/M10 A3031 RMK AO2,0,0,0,16090,0,0,0,
2026-03-17 02:15:00,METAR KGVT 170215Z AUTO 33003KT 10SM CLR 02/M08 A3031 RMK AO2,0,3,0,16090,0,0,0,
2026-03-17 01:55:00,METAR KGVT 170155Z AUTO 33004KT 10SM CLR 03/M11 A3030 RMK AO2,0,4,0,16090,0,0,0,
2026-03-17 01:35:00,METAR KGVT 170135Z AUTO 34005KT 10SM CLR 03/M12 A3030 RMK AO2,0,5,0,16090,0,0,0,
2026-03-17 01:15:00,METAR KGVT 170115Z AUTO 34006KT 10SM CLR 04/M12 A3029 RMK AO2,0,6,0,16090,0,0,0,
2026-03-17 00:55:00,METAR KGVT 170055Z AUTO 34007KT 10SM CLR 04/M13 A3029 RMK AO2,0,7,0,16090,0,0,0,
2026-03-17 00:35:00,METAR KGVT 170035Z AUTO 35009KT 10SM CLR 05/M13 A3029 RMK AO2,0,9,0,16090,0,0,0,
2026-03-17 00:15:00,METAR KGVT 170015Z AUTO 35007KT 10SM CLR 05/M13 A3028 RMK AO2,0,7,0,16090,0,0,0,
2026-03-16 23:55:00,METAR KGVT 162355Z AUTO 33011KT 10SM CLR 06/M14 A3028 RMK AO2,0,11,0,16090,0,0,0,
2026-03-16 23:35:00,METAR KGVT 162335Z AUTO 35011KT 10SM CLR 06/M13 A3027 RMK AO2,0,11,0,16090,0,0,0,
2026-03-16 23:15:00,METAR KGVT 162315Z AUTO 35015G18KT 10SM CLR 07/M13 A3027 RMK AO2,0,15,1,16090,0,0,0,
2026-03-16 22:55:00,METAR KGVT 162255Z AUTO 34014G18KT 10SM CLR 07/M13 A3027 RMK AO2,0,14,1,16090,0,0,0,
2026-03-16 22:35:00,METAR KGVT 162235Z AUTO 34014G23KT 10SM CLR 07/M14 A3027 RMK AO2,0,14,1,16090,0,0,0,
2026-03-16 22:15:00,METAR KGVT 162215Z AUTO 35015G21KT 10SM CLR 07/M13 A3028 RMK AO2,0,15,1,16090,0,0,0,
2026-03-16 21:55:00,METAR KGVT 162155Z AUTO 33013G19KT 10SM CLR 08/M12 A3028 RMK AO2,0,13,1,16090,0,0,0,
2026-03-16 21:35:00,METAR KGVT 162135Z AUTO 32016G19KT 10SM CLR 07/M14 A3029 RMK AO2,0,16,1,16090,0,0,0,
2026-03-16 21:15:00,METAR KGVT 162115Z AUTO 32014KT 10SM CLR 07/M14 A3029 RMK AO2,0,14,0,16090,0,0,0,
2026-03-16 20:55:00,METAR KGVT 162055Z AUTO 34013KT 10SM CLR 07/M13 A3030 RMK AO2,0,13,0,16090,0,0,0,
2026-03-16 20:35:00,METAR KGVT 162035Z AUTO 31013G21KT 10SM CLR 07/M14 A3030 RMK AO2,0,13,1,16090,0,0,0,
2026-03-16 20:15:00,METAR KGVT 162015Z AUTO 35012G21KT 10SM CLR 07/M14 A3031 RMK AO2,0,12,1,16090,0,0,0,
2026-03-16 19:55:00,METAR KGVT 161955Z AUTO 32014G21KT 10SM CLR 07/M14 A3032 RMK AO2,0,14,1,16090,0,0,0,
2026-03-16 19:35:00,METAR KGVT 161935Z AUTO 35015G20KT 10SM CLR 06/M15 A3032 RMK AO2,0,15,1,16090,0,0,0,
2026-03-16 19:15:00,METAR KGVT 161915Z AUTO 35013G20KT 10SM CLR 06/M14 A3033 RMK AO2,0,13,1,16090,0,0,0,
2026-03-16 18:55:00,METAR KGVT 161855Z AUTO 35019G22KT 10SM CLR 06/M14 A3034 RMK AO2,0,19,1,16090,0,0,0,
2026-03-16 15:55:00,METAR KGVT 161555Z AUTO 33016G22KT 10SM CLR 04/M11 A3035 RMK AO2,0,16,1,16090,0,0,0,
2026-03-16 15:35:00,METAR KGVT 161535Z AUTO 31015G19KT 10SM CLR 04/M11 A3036 RMK AO2,0,15,1,16090,0,0,0,
2026-03-16 15:15:00,METAR KGVT 161515Z AUTO 34017G22KT 10SM CLR 03/M11 A3035 RMK AO2,0,17,1,16090,0,0,0,
2026-03-16 15:00:00,METAR KGVT 161500Z AUTO 32016G24KT 10SM CLR 03/M11 A3035 RMK AO2,0,16,1,16090,0,0,0,
2026-03-16 11:15:00,METAR KGVT 161115Z AUTO 32011KT 10SM CLR 01/M09 A3030 RMK AO2,0,11,0,16090,0,0,0,
2026-03-16 10:55:00,METAR KGVT 161055Z AUTO 33012KT 10SM CLR 01/M08 A3030 RMK AO2,0,12,0,16090,0,0,0,
2026-03-16 10:35:00,METAR KGVT 161035Z AUTO 32012KT 10SM CLR 01/M08 A3028 RMK AO2,0,12,0,16090,0,0,0,
2026-03-16 10:15:00,METAR KGVT 161015Z AUTO 33015G20KT 10SM CLR 02/M09 A3027 RMK AO2,0,15,1,16090,0,0,0,
2026-03-16 09:55:00,METAR KGVT 160955Z AUTO 33017G21KT 10SM CLR 02/M08 A3027 RMK AO2,0,17,1,16090,0,0,0,
2026-03-16 09:35:00,METAR KGVT 160935Z AUTO 33016G27KT 10SM CLR 02/M08 A3026 RMK AO2,0,16,1,16090,0,0,0,
2026-03-16 09:15:00,METAR KGVT 160915Z AUTO 34018G24KT 10SM CLR 02/M08 A3026 RMK AO2,0,18,1,16090,0,0,0,
2026-03-16 08:55:00,METAR KGVT 160855Z AUTO 35015G25KT 10SM CLR 03/M08 A3025 RMK AO2,0,15,1,16090,0,0,0,
2026-03-16 08:35:00,METAR KGVT 160835Z AUTO 34013KT 10SM CLR 03/M08 A3025 RMK AO2,0,13,0,16090,0,0,0,
2026-03-16 08:15:00,METAR KGVT 160815Z AUTO 36019G25KT 10SM CLR 03/M07 A3024 RMK AO2,0,19,1,16090,0,0,0,
2026-03-16 07:55:00,METAR KGVT 160755Z AUTO 34018G25KT 10SM CLR 03/M08 A3024 RMK AO2,0,18,1,16090,0,0,0,
2026-03-16 07:35:00,METAR KGVT 160735Z AUTO 34021KT 10SM CLR 04/M07 A3024 RMK AO2,0,21,0,16090,0,0,0,
2026-03-16 07:15:00,METAR KGVT 160715Z AUTO 34015G20KT 10SM CLR 04/M07 A3022 RMK AO2,0,15,1,16090,0,0,0,
2026-03-16 06:55:00,METAR KGVT 160655Z AUTO 34021G27KT 10SM CLR 04/M07 A3019 RMK AO2,0,21,1,16090,0,0,0,
2026-03-16 06:35:00,METAR KGVT 160635Z AUTO 35020G26KT 10SM CLR 04/M07 A3018 RMK AO2,0,20,1,16090,0,0,0,
2026-03-16 06:15:00,METAR KGVT 160615Z AUTO 34017G26KT 10SM CLR 04/M07 A3018 RMK AO2,0,17,1,16090,0,0,0,
2026-03-16 05:55:00,METAR KGVT 160555Z AUTO 34020G30KT 10SM CLR 05/M07 A3014 RMK AO2,0,20,1,16090,0,0,0,
2026-03-16 05:35:00,METAR KGVT 160535Z AUTO 33015KT 10SM CLR 05/M06 A3018 RMK AO2,0,15,0,16090,0,0,0,
2026-03-16 05:15:00,METAR KGVT 160515Z AUTO 35017G23KT 10SM CLR 05/M06 A3013 RMK AO2,0,17,1,16090,0,0,0,
2026-03-16 04:55:00,METAR KGVT 160455Z AUTO 35017G29KT 10SM CLR 06/M07 A3013 RMK AO2,0,17,1,16090,0,0,0,
2026-03-16 04:35:00,METAR KGVT 160435Z AUTO 34016G30KT 10SM CLR 06/M06 A3013 RMK AO2,0,16,1,16090,0,0,0,
2026-03-16 04:15:00,METAR KGVT 160415Z AUTO 34021G31KT 10SM CLR 07/M06 A3011 RMK AO2,0,21,1,16090,0,0,0,
2026-03-16 03:55:00,METAR KGVT 160355Z AUTO 34023G34KT 10SM CLR 08/M06 A3009 RMK AO2,0,23,1,16090,0,0,0,
2026-03-16 03:35:00,METAR KGVT 160335Z AUTO 36028G34KT 10SM CLR 08/M05 A3007 RMK AO2,0,28,1,16090,0,0,0,
2026-03-16 03:15:00,METAR KGVT 160315Z AUTO 35015KT 10SM CLR 08/M04 A3006 RMK AO2,0,15,0,16090,0,0,0,
2026-03-16 02:55:00,METAR KGVT 160255Z AUTO 35016G21KT 10SM CLR 08/M04 A3005 RMK AO2 LTG DSNT SE,0,16,1,16090,0,0,0,DS
2026-03-16 02:35:00,METAR KGVT 160235Z AUTO 36015G25KT 10SM CLR 08/M04 A3003 RMK AO2,0,15,1,16090,0,0,0,
2026-03-16 02:15:00,METAR KGVT 160215Z AUTO 35017G25KT 10SM CLR 08/M04 A3002 RMK AO2,0,17,1,16090,0,0,0,
2026-03-16 01:55:00,METAR KGVT 160155Z AUTO 35021G27KT 10SM CLR 09/M04 A3001 RMK AO2,0,21,1,16090,0,0,0,
2026-03-16 01:35:00,METAR KGVT 160135Z AUTO 35020G33KT 10SM CLR 09/M03 A3000 RMK AO2,0,20,1,16090,0,0,0,
2026-03-16 01:15:00,METAR KGVT 160115Z AUTO 35020G34KT 10SM CLR 09/M02 A2998 RMK AO2,0,20,1,16090,0,0,0,
2026-03-16 00:55:00,METAR KGVT 160055Z AUTO 35023G36KT 10SM CLR 10/M02 A2996 RMK AO2,0,23,1,16090,0,0,0,
2026-03-16 00:35:00,METAR KGVT 160035Z AUTO 34024G36KT 10SM CLR 12/M01 A2993 RMK AO2,0,24,1,16090,0,0,0,
2026-03-16 00:15:00,METAR KGVT 160015Z AUTO 34024G31KT 10SM CLR 13/00 A2990 RMK AO2,0,24,1,16090,0,0,0,
2026-03-15 23:55:00,METAR KGVT 152355Z AUTO 34017G29KT 10SM CLR 15/01 A2987 RMK AO2,0,17,1,16090,0,0,0,
2026-03-15 23:35:00,METAR KGVT 152335Z AUTO 34021G31KT 10SM CLR 16/01 A2985 RMK AO2,0,21,1,16090,0,0,0,
2026-03-15 23:15:00,METAR KGVT 152315Z AUTO 33026G33KT 10SM CLR 16/01 A2983 RMK AO2,0,26,1,16090,0,0,0,
2026-03-15 22:55:00,METAR KGVT 152255Z AUTO 33025G36KT 10SM CLR 17/01 A2980 RMK AO2,0,25,1,16090,0,0,0,
2026-03-15 22:35:00,METAR KGVT 152235Z AUTO 33020G31KT 10SM CLR 18/02 A2978 RMK AO2,0,20,1,16090,0,0,0,
2026-03-15 22:15:00,METAR KGVT 152215Z AUTO 33022G33KT 10SM CLR 19/02 A2976 RMK AO2 LTG DSNT E,0,22,1,16090,0,0,0,DS
2026-03-15 21:55:00,METAR KGVT 152155Z AUTO 34028G37KT 10SM CLR 19/02 A2974 RMK AO2 LTG DSNT E AND SE,0,28,1,16090,0,0,0,DS
2026-03-15 21:35:00,METAR KGVT 152135Z AUTO 35031G38KT 10SM CLR 19/02 A2971 RMK AO2 LTG DSNT E AND SE,0,31,1,16090,0,0,0,DS
2026-03-15 21:15:00,METAR KGVT 152115Z AUTO 34018G37KT 10SM CLR 20/03 A2970 RMK AO2 LTG DSNT SE,0,18,1,16090,0,0,0,DS
2026-03-15 20:55:00,METAR KGVT 152055Z AUTO 33025G36KT 10SM CLR 21/03 A2969 RMK AO2,0,25,1,16090,0,0,0,
2026-03-15 20:35:00,METAR KGVT 152035Z AUTO 35024G39KT 10SM CLR 21/03 A2966 RMK AO2,0,24,1,16090,0,0,0,
2026-03-15 20:15:00,METAR KGVT 152015Z AUTO 35027G35KT 10SM SCT070 23/05 A2964 RMK AO2,0,27,1,16090,0,0,0,
2026-03-15 19:55:00,METAR KGVT 151955Z AUTO 34029G36KT 10SM BKN060 BKN070 24/08 A2960 RMK AO2,0,29,1,16090,0,0,0,
2026-03-15 19:35:00,METAR KGVT 151935Z AUTO 27013G18KT 10SM BKN065 BKN070 28/14 A2957 RMK AO2,0,13,1,16090,0,0,0,
2026-03-15 19:15:00,METAR KGVT 151915Z AUTO 25011G19KT 10SM SCT060 BKN065 27/15 A2956 RMK AO2,0,11,1,16090,0,0,0,
2026-03-15 18:55:00,METAR KGVT 151855Z AUTO 26010G20KT 10SM SCT048 BKN060 OVC065 27/16 A2957 RMK AO2,0,10,1,16090,0,0,0,
2026-03-15 18:35:00,METAR KGVT 151835Z AUTO 26015G22KT 10SM SCT044 OVC060 26/16 A2957 RMK AO2,0,15,1,16090,0,0,0,
2026-03-15 18:15:00,METAR KGVT 151815Z AUTO 23015G23KT 10SM BKN042 OVC050 26/16 A2957 RMK AO2,0,15,1,16090,0,0,0,
2026-03-15 17:55:00,METAR KGVT 151755Z AUTO 23013G24KT 10SM BKN038 BKN048 26/17 A2955 RMK AO2,0,13,1,16090,0,0,0,
2026-03-15 17:35:00,METAR KGVT 151735Z AUTO 22020G29KT 10SM BKN035 BKN046 25/17 A2955 RMK AO2,0,20,1,16090,0,0,0,
2026-03-15 17:15:00,METAR KGVT 151715Z AUTO 21020G30KT 10SM BKN033 BKN042 25/17 A2955 RMK AO2,0,20,1,16090,0,0,0,
2026-03-15 16:55:00,METAR KGVT 151655Z AUTO 20018G29KT 10SM BKN029 BKN035 24/17 A2954 RMK AO2,0,18,1,16090,0,0,0,
2026-03-15 16:35:00,METAR KGVT 151635Z AUTO 20019G29KT 10SM BKN029 BKN035 24/17 A2955 RMK AO2,0,19,1,16090,0,0,0,
2026-03-15 16:15:00,METAR KGVT 151615Z AUTO 20020G27KT 10SM BKN026 BKN035 23/17 A2955 RMK AO2,0,20,1,16090,0,0,0,
2026-03-15 15:55:00,METAR KGVT 151555Z AUTO 21022G29KT 10SM OVC024 22/17 A2956 RMK AO2,0,22,1,16090,0,0,0,
2026-03-15 15:35:00,METAR KGVT 151535Z AUTO 20019G30KT 10SM OVC022 21/17 A2955 RMK AO2,0,19,1,16090,0,0,0,
2026-03-15 15:15:00,METAR KGVT 151515Z AUTO 19023G29KT 10SM OVC022 21/17 A2956 RMK AO2,0,23,1,16090,0,0,0,
2026-03-15 14:55:00,METAR KGVT 151455Z AUTO 19021G28KT 10SM OVC022 20/17 A2956 RMK AO2,0,21,1,16090,0,0,0,
2026-03-15 14:35:00,METAR KGVT 151435Z AUTO 19022G28KT 10SM BKN022 20/17 A2956 RMK AO2,0,22,1,16090,0,0,0,
2026-03-15 14:15:00,METAR KGVT 151415Z AUTO 20024G28KT 10SM OVC020 20/17 A2956 RMK AO2,0,24,1,16090,0,0,0,
2026-03-15 13:55:00,METAR KGVT 151355Z AUTO 19019G28KT 10SM OVC020 20/17 A2957 RMK AO2,0,19,1,16090,0,0,0,
2026-03-15 13:35:00,METAR KGVT 151335Z AUTO 19020G24KT 10SM OVC020 20/17 A2956 RMK AO2,0,20,1,16090,0,0,0,
2026-03-15 13:15:00,METAR KGVT 151315Z AUTO 19019G24KT 10SM OVC020 20/17 A2957 RMK AO2,0,19,1,16090,0,0,0,
2026-03-15 12:55:00,METAR KGVT 151255Z AUTO 19019G25KT 10SM OVC020 20/17 A2957 RMK AO2,0,19,1,16090,0,0,0,
2026-03-15 12:35:00,METAR KGVT 151235Z AUTO 18018G26KT 10SM OVC020 19/17 A2957 RMK AO2,0,18,1,16090,0,0,0,
2026-03-15 12:15:00,METAR KGVT 151215Z AUTO 18016G29KT 10SM OVC020 19/17 A2958 RMK AO2,0,16,1,16090,0,0,0,
2026-03-15 11:55:00,METAR KGVT 151155Z AUTO 19017G26KT 10SM OVC020 19/17 A2958 RMK AO2,0,17,1,16090,0,0,0,
2026-03-15 11:35:00,METAR KGVT 151135Z AUTO 18020G28KT 10SM OVC020 19/16 A2959 RMK AO2,0,20,1,16090,0,0,0,
2026-03-15 11:15:00,METAR KGVT 151115Z AUTO 18021G29KT 10SM OVC020 19/16 A2959 RMK AO2,0,21,1,16090,0,0,0,
2026-03-15 10:55:00,METAR KGVT 151055Z AUTO 19020G25KT 10SM OVC020 19/16 A2960 RMK AO2,0,20,1,16090,0,0,0,
2026-03-15 10:35:00,METAR KGVT 151035Z AUTO 18022G29KT 10SM OVC020 19/16 A2960 RMK AO2,0,22,1,16090,0,0,0,
2026-03-15 10:15:00,METAR KGVT 151015Z AUTO 18020G28KT 10SM OVC020 19/16 A2961 RMK AO2,0,20,1,16090,0,0,0,
2026-03-15 09:55:00,METAR KGVT 150955Z AUTO 18019G25KT 10SM OVC020 19/16 A2961 RMK AO2,0,19,1,16090,0,0,0,
2026-03-15 09:35:00,METAR KGVT 150935Z AUTO 18016G25KT 10SM OVC020 19/16 A2962 RMK AO2,0,16,1,16090,0,0,0,
2026-03-15 09:15:00,METAR KGVT 150915Z AUTO 19015G24KT 10SM OVC020 19/16 A2963 RMK AO2,0,15,1,16090,0,0,0,
2026-03-15 08:55:00,METAR KGVT 150855Z AUTO 18021G25KT 10SM OVC020 19/16 A2964 RMK AO2,0,21,1,16090,0,0,0,
2026-03-15 08:35:00,METAR KGVT 150835Z AUTO 19017G21KT 10SM OVC020 19/16 A2965 RMK AO2,0,17,1,16090,0,0,0,
2026-03-15 08:15:00,METAR KGVT 150815Z AUTO 18017G26KT 10SM OVC020 18/16 A2966 RMK AO2,0,17,1,16090,0,0,0,
