Time_recorded,METAR,is_cavok,wind_speed,is_gust,visibility_meters,has_thunderstorm,has_heavy_rain,has_low_vis_fog,other_phenomenon
2026-05-02 14:56:00,METAR KHPN 021456Z 30009KT 10SM SCT025 BKN031 BKN055 11/06 A2988 RMK AO2 SLP119 T01110061 51001,0,9.0,0,16090.0,0,0,0,
2026-05-02 13:56:00,METAR KHPN 021356Z VRB04KT 10SM FEW016 SCT036 BKN042 11/07 A2988 RMK AO2 SLP119 T01110067,0,4.0,0,16090.0,0,0,0,
2026-05-02 13:38:00,SPECI KHPN 021338Z VRB03KT 10SM SCT029 BKN036 BKN055 11/07 A2988 RMK AO2 T01060067,0,3.0,0,16090.0,0,0,0,
2026-05-02 12:56:00,METAR KHPN 021256Z 00000KT 10SM BKN008 BKN034 10/07 A2988 RMK AO2 SLP121 T01000072,0,0.0,0,16090.0,0,0,0,
2026-05-02 12:48:00,SPECI KHPN 021248Z 00000KT 10SM BKN008 BKN034 10/07 A2988 RMK AO2 T01000072,0,0.0,0,16090.0,0,0,0,
2026-05-02 11:56:00,METAR KHPN 021156Z 00000KT 10SM BKN043 09/08 A2988 RMK AO2 RAE51 SLP119 P0000 60003 70003 T00940078 10094 20078 53004,0,0.0,0,16090.0,0,0,0,
2026-05-02 10:56:00,METAR KHPN 021056Z 04003KT 10SM -RA FEW048 SCT080 BKN120 08/07 A2986 RMK AO2 SLP114 P0003 T00830072,0,3.0,0,16090.0,0,0,0,-RA
2026-05-02 09:56:00,METAR KHPN 020956Z 32003KT 10SM -RA BKN032 BKN049 09/07 A2987 RMK AO2 DZE07RAB07 SLP115 P0000 T00890072,0,3.0,0,16090.0,0,0,0,"-RA,DZ"
2026-05-02 08:56:00,METAR KHPN 020856Z 33003KT 10SM -DZ BKN070 OVC100 09/08 A2986 RMK AO2 DZB56 SLP113 P0000 60000 T00890078 55000,0,3.0,0,16090.0,0,0,0,DZ
2026-05-02 07:56:00,METAR KHPN 020756Z 04003KT 10SM BKN060 BKN070 09/08 A2984 RMK AO2 RAB24E39 SLP105 P0000 T00940078,0,3.0,0,16090.0,0,0,0,RA
2026-05-02 06:56:00,METAR KHPN 020656Z 00000KT 10SM BKN075 08/07 A2986 RMK AO2 SLP111 T00830067,0,0.0,0,16090.0,0,0,0,
2026-05-02 05:56:00,METAR KHPN 020556Z 00000KT 10SM SCT075 BKN100 08/07 A2986 RMK AO2 RAB10E53 SLP114 P0000 60000 T00830067 10117 20078 56005,0,0.0,0,16090.0,0,0,0,RA
2026-05-02 04:56:00,METAR KHPN 020456Z 00000KT 10SM BKN110 09/07 A2987 RMK AO2 SLP115 T00890067 401780056,0,0.0,0,16090.0,0,0,0,
2026-05-02 03:56:00,METAR KHPN 020356Z 15005KT 10SM BKN120 08/06 A2987 RMK AO2 SLP117 T00830061,0,5.0,0,16090.0,0,0,0,
2026-05-02 02:56:00,METAR KHPN 020256Z 16003KT 10SM BKN110 08/06 A2988 RMK AO2 SLP120 T00780056 50009,0,3.0,0,16090.0,0,0,0,
2026-05-02 01:56:00,METAR KHPN 020156Z 17004KT 10SM CLR 08/06 A2988 RMK AO2 SLP121 T00780056,0,4.0,0,16090.0,0,0,0,
2026-05-02 00:56:00,METAR KHPN 020056Z 35003KT 10SM SCT070 11/05 A2987 RMK AO2 SLP117 T01110050,0,3.0,0,16090.0,0,0,0,
2026-05-01 23:56:00,METAR KHPN 012356Z 18006KT 10SM BKN070 BKN110 12/04 A2985 RMK AO2 SLP110 T01170044 10178 20117 53012,0,6.0,0,16090.0,0,0,0,
2026-05-01 22:56:00,METAR KHPN 012256Z 19009KT 10SM CLR 12/04 A2983 RMK AO2 SLP104 T01220039,0,9.0,0,16090.0,0,0,0,
2026-05-01 21:56:00,METAR KHPN 012156Z 18012G20KT 10SM SCT070 14/03 A2983 RMK AO2 SLP103 T01390033,0,12.0,1,16090.0,0,0,0,
2026-05-01 20:56:00,METAR KHPN 012056Z 19005KT 10SM SCT070 17/01 A2982 RMK AO2 SLP097 T01670006 56013,0,5.0,0,16090.0,0,0,0,
2026-05-01 19:56:00,METAR KHPN 011956Z 34004KT 10SM FEW075 17/00 A2982 RMK AO2 SLP098 T01670000,0,4.0,0,16090.0,0,0,0,
2026-05-01 18:56:00,METAR KHPN 011856Z 31008KT 10SM FEW050 16/00 A2984 RMK AO2 SLP107 T01610000,0,8.0,0,16090.0,0,0,0,
2026-05-01 17:56:00,METAR KHPN 011756Z 32008G18KT 290V350 10SM FEW050 15/00 A2986 RMK AO2 SLP110 T01500000 10150 20083 58014,0,8.0,1,16090.0,0,0,0,
2026-05-01 16:56:00,METAR KHPN 011656Z 32007KT 10SM CLR 14/M01 A2987 RMK AO2 SLP116 T01441006,0,7.0,0,16090.0,0,0,0,
2026-05-01 15:56:00,METAR KHPN 011556Z 31010G18KT 10SM FEW050 13/M02 A2989 RMK AO2 SLP123 T01331022,0,10.0,1,16090.0,0,0,0,
2026-05-01 14:56:00,METAR KHPN 011456Z 30008G15KT 10SM FEW050 12/M01 A2990 RMK AO2 SLP125 T01171006 58001,0,8.0,1,16090.0,0,0,0,
2026-05-01 13:56:00,METAR KHPN 011356Z 29007KT 10SM FEW050 11/01 A2990 RMK AO2 SLP125 T01110006,0,7.0,0,16090.0,0,0,0,
2026-05-01 12:56:00,METAR KHPN 011256Z 30009KT 10SM CLR 09/00 A2990 RMK AO2 SLP128 T00940000,0,9.0,0,16090.0,0,0,0,
2026-05-01 11:56:00,METAR KHPN 011156Z 30010KT 10SM CLR 08/00 A2990 RMK AO2 SLP127 70001 T00830000 10083 20056 52016,0,10.0,0,16090.0,0,0,0,
2026-05-01 10:56:00,METAR KHPN 011056Z 30009KT 10SM CLR 07/01 A2989 RMK AO2 SLP123 T00720006,0,9.0,0,16090.0,0,0,0,
2026-05-01 09:56:00,METAR KHPN 010956Z 30007KT 10SM FEW090 06/00 A2986 RMK AO2 SLP115 T00610000,0,7.0,0,16090.0,0,0,0,
2026-05-01 08:56:00,METAR KHPN 010856Z AUTO 30010KT 10SM CLR 07/M01 A2985 RMK AO2 SLP111 T00721006 53008,0,10.0,0,16090.0,0,0,0,
2026-05-01 07:56:00,METAR KHPN 010756Z 29004KT 10SM CLR 07/00 A2984 RMK AO2 SLP107 T00670000,0,4.0,0,16090.0,0,0,0,
2026-05-01 06:56:00,METAR KHPN 010656Z 31008KT 10SM CLR 08/M01 A2984 RMK AO2 SLP105 T00781006,0,8.0,0,16090.0,0,0,0,
2026-05-01 05:56:00,METAR KHPN 010556Z 31008KT 10SM SCT100 08/00 A2983 RMK AO2 SLP103 T00830000 10122 20083 53007,0,8.0,0,16090.0,0,0,0,
2026-05-01 04:56:00,METAR KHPN 010456Z 33008KT 10SM SCT090 BKN110 09/02 A2982 RMK AO2 SLP098 T00890017 401440078,0,8.0,0,16090.0,0,0,0,
2026-05-01 03:56:00,METAR KHPN 010356Z 31010KT 10SM SCT110 10/03 A2982 RMK AO2 SLP099 T01000033,0,10.0,0,16090.0,0,0,0,
2026-05-01 02:56:00,METAR KHPN 010256Z 30011KT 10SM BKN100 10/04 A2981 RMK AO2 SLP096 T01000039 51018,0,11.0,0,16090.0,0,0,0,
2026-05-01 01:56:00,METAR KHPN 010156Z 31009KT 10SM FEW070 11/04 A2980 RMK AO2 SLP092 T01060039,0,9.0,0,16090.0,0,0,0,
2026-05-01 00:56:00,METAR KHPN 010056Z 32010KT 10SM FEW070 11/04 A2977 RMK AO2 SLP083 T01110039,0,10.0,0,16090.0,0,0,0,
2026-04-30 23:56:00,METAR KHPN 302356Z 33008KT 10SM SCT070 12/04 A2976 RMK AO2 SLP078 60001 T01220044 10144 20122 51014,0,8.0,0,16090.0,0,0,0,
2026-04-30 22:56:00,METAR KHPN 302256Z 31011G18KT 10SM BKN070 14/06 A2975 RMK AO2 SLP074 T01390056,0,11.0,1,16090.0,0,0,0,
2026-04-30 21:56:00,METAR KHPN 302156Z 30010KT 10SM BKN075 14/07 A2973 RMK AO2 SLP069 T01390072,0,10.0,0,16090.0,0,0,0,
2026-04-30 20:56:00,METAR KHPN 302056Z 31009KT 10SM BKN029 BKN034 14/08 A2971 RMK AO2 DZE14 SLP063 P0000 60001 T01390083 55002,0,9.0,0,16090.0,0,0,0,
2026-04-30 19:56:00,METAR KHPN 301956Z 30005KT 5SM -DZ BKN029 BKN034 13/09 A2970 RMK AO2 DZB32 SLP060 P0001 T01280094,0,5.0,0,8045.0,0,0,0,DZ
2026-04-30 18:56:00,METAR KHPN 301856Z 32003KT 10SM SCT020 BKN029 BKN038 14/09 A2971 RMK AO2 SLP061 T01390089,0,3.0,0,16090.0,0,0,0,
2026-04-30 17:56:00,METAR KHPN 301756Z 31003KT 10SM BKN010 BKN014 12/09 A2972 RMK AO2 SLP066 60000 T01220089 10122 20083 55007,0,3.0,0,16090.0,0,0,0,
2026-04-30 17:05:00,SPECI KHPN 301705Z 31003KT 6SM BR BKN010 BKN014 12/09 A2971 RMK AO2 T01170094,0,3.0,0,9654.0,0,0,1,BR
2026-04-30 16:56:00,METAR KHPN 301656Z 31003KT 2 1/2SM BR BKN010 OVC014 11/09 A2971 RMK AO2 SLP063 T01110094,0,3.0,0,4022.0,0,0,1,BR
2026-04-30 14:56:00,METAR KHPN 301456Z 22003KT 1 1/2SM BR BKN007 OVC010 10/08 A2974 RMK AO2 DZE51 SLP073 P0000 60000 T01000083 56003,0,3.0,0,2414.0,0,0,1,BR
2026-04-30 13:56:00,METAR KHPN 301356Z 00000KT 1SM R16/P6000FT -DZ BR BKN004 OVC007 09/08 A2974 RMK AO2 DZB35 SLP074 P0000 T00890083,0,0.0,0,1609.0,0,0,1,"BR,DZ"
2026-04-30 12:56:00,METAR KHPN 301256Z 00000KT 1 1/2SM BR OVC003 08/08 A2975 RMK AO2 SLP076 T00830078,0,0.0,0,2414.0,0,0,1,BR
2026-04-30 11:56:00,METAR KHPN 301156Z 13003KT 1 1/2SM BR BKN003 OVC007 08/08 A2975 RMK AO2 DZE53 SLP077 P0000 60006 70046 T00830078 10083 20078 53001,0,3.0,0,2414.0,0,0,1,BR
2026-04-30 10:56:00,METAR KHPN 301056Z 14003KT 1 1/2SM -DZ BR BKN003 OVC013 08/08 A2975 RMK AO2 SLP077 P0000 T00780078,0,3.0,0,2414.0,0,0,1,"BR,DZ"
2026-04-30 10:11:00,SPECI KHPN 301011Z 14003KT 1 1/2SM -DZ BR BKN003 OVC013 08/07 A2975 RMK AO2 P0000 T00780072,0,3.0,0,2414.0,0,0,1,"BR,DZ"
2026-04-30 09:56:00,METAR KHPN 300956Z 00000KT 4SM -DZ BR BKN003 OVC024 08/07 A2974 RMK AO2 SLP074 P0000 T00780072,0,0.0,0,6436.0,0,0,1,"BR,DZ"
2026-04-30 08:56:00,METAR KHPN 300856Z 00000KT 8SM -DZ BKN005 BKN013 OVC024 08/07 A2975 RMK AO2 RAE55DZB55 CIG 003V007 SLP076 P0000 60006 T00780072 58010,0,0.0,0,12872.0,0,0,0,"DZ,RA"
2026-04-30 07:56:00,METAR KHPN 300756Z COR 13004KT 3SM -RA BR BKN013 OVC019 08/07 A2976 RMK AO2 SLP078 P0002 T00780072,0,4.0,0,4827.0,0,0,1,"-RA,BR"
2026-04-30 06:56:00,METAR KHPN 300656Z 16003KT 5SM -RA BR BKN005 BKN011 08/07 A2978 RMK AO2 SLP084 P0004 T00780072,0,3.0,0,8045.0,0,0,1,"-RA,BR"
2026-04-30 05:56:00,METAR KHPN 300556Z 13007KT 4SM -RA BR SCT003 BKN044 BKN080 08/07 A2978 RMK AO2 SLP085 P0014 60040 T00780072 10111 20078 56023,0,7.0,0,6436.0,0,0,1,"-RA,BR"
2026-04-30 04:56:00,METAR KHPN 300456Z 11005KT 5SM -RA BR FEW006 SCT028 BKN055 08/07 A2981 RMK AO2 SLP094 P0011 T00780072 401670072,0,5.0,0,8045.0,0,0,1,"-RA,BR"
2026-04-30 04:18:00,SPECI KHPN 300418Z 15003KT 4SM -RA BR FEW006 BKN029 OVC046 08/07 A2982 RMK AO2 P0007 T00830072,0,3.0,0,6436.0,0,0,1,"-RA,BR"
2026-04-30 03:56:00,METAR KHPN 300356Z 11009KT 4SM -RA BR OVC037 08/07 A2981 RMK AO2 PRESFR SLP096 P0009 T00830072,0,9.0,0,6436.0,0,0,1,"-RA,BR"
2026-04-30 02:56:00,METAR KHPN 300256Z 00000KT 4SM -RA BR BKN032 09/07 A2985 RMK AO2 SLP108 P0006 60006 T00890072 55001,0,0.0,0,6436.0,0,0,1,"-RA,BR"
2026-04-30 01:56:00,METAR KHPN 300156Z 15005KT 10SM -RA BKN085 09/07 A2984 RMK AO2 DZE27RAB27 SLP106 P0000 T00940072,0,5.0,0,16090.0,0,0,0,"-RA,DZ"
2026-04-30 00:56:00,METAR KHPN 300056Z 16003KT 10SM -DZ BKN080 11/06 A2985 RMK AO2 SLP110 P0000 T01060061,0,3.0,0,16090.0,0,0,0,DZ
2026-04-29 23:56:00,METAR KHPN 292356Z 18006KT 10SM -DZ BKN090 BKN120 11/06 A2985 RMK AO2 DZB48 SLP109 P0000 60000 T01110061 10161 20111 55012,0,6.0,0,16090.0,0,0,0,DZ
2026-04-29 22:56:00,METAR KHPN 292256Z 14006KT 10SM SCT110 12/06 A2984 RMK AO2 SLP106 T01170056,0,6.0,0,16090.0,0,0,0,
2026-04-29 21:56:00,METAR KHPN 292156Z 15008KT 10SM FEW080 12/06 A2985 RMK AO2 SLP111 T01220061,0,8.0,0,16090.0,0,0,0,
2026-04-29 20:56:00,METAR KHPN 292056Z 16009KT 10SM FEW080 13/06 A2989 RMK AO2 SLP121 T01330061 56017,0,9.0,0,16090.0,0,0,0,
2026-04-29 19:56:00,METAR KHPN 291956Z 16010G16KT 10SM FEW080 14/07 A2990 RMK AO2 SLP126 T01440067,0,10.0,1,16090.0,0,0,0,
2026-04-29 18:56:00,METAR KHPN 291856Z 15010G17KT 10SM FEW080 15/06 A2992 RMK AO2 SLP131 T01500056,0,10.0,1,16090.0,0,0,0,
2026-04-29 17:56:00,METAR KHPN 291756Z 17010G18KT 10SM CLR 15/06 A2994 RMK AO2 SLP138 T01500061 10167 20111 58009,0,10.0,1,16090.0,0,0,0,
2026-04-29 16:56:00,METAR KHPN 291656Z 18008G16KT 10SM CLR 16/06 A2994 RMK AO2 SLP138 T01610056,0,8.0,1,16090.0,0,0,0,
2026-04-29 15:56:00,METAR KHPN 291556Z 14006KT 10SM CLR 15/06 A2997 RMK AO2 SLP147 T01500056,0,6.0,0,16090.0,0,0,0,
2026-04-29 14:56:00,METAR KHPN 291456Z 12008KT 10SM CLR 14/06 A2997 RMK AO2 SLP148 T01440056 56010,0,8.0,0,16090.0,0,0,0,
2026-04-29 13:56:00,METAR KHPN 291356Z VRB03KT 10SM FEW045 14/04 A2997 RMK AO2 SLP149 T01390044,0,3.0,0,16090.0,0,0,0,
2026-04-29 12:56:00,METAR KHPN 291256Z VRB03KT 10SM FEW045 12/05 A2999 RMK AO2 SLP154 T01220050,0,3.0,0,16090.0,0,0,0,
2026-04-29 11:56:00,METAR KHPN 291156Z 12007KT 10SM FEW037 FEW045 11/06 A2999 RMK AO2 SLP157 T01110056 10111 20072 58008,0,7.0,0,16090.0,0,0,0,
2026-04-29 10:56:00,METAR KHPN 291056Z 13003KT 10SM BKN041 BKN090 09/06 A3001 RMK AO2 SLP164 T00940061,0,3.0,0,16090.0,0,0,0,
2026-04-29 09:56:00,METAR KHPN 290956Z 00000KT 10SM BKN048 09/06 A3002 RMK AO2 SLP166 T00890056,0,0.0,0,16090.0,0,0,0,
2026-04-29 08:56:00,METAR KHPN 290856Z 00000KT 10SM BKN050 08/04 A3002 RMK AO2 SLP166 T00830044 56013,0,0.0,0,16090.0,0,0,0,
2026-04-29 07:56:00,METAR KHPN 290756Z 00000KT 10SM BKN060 BKN095 07/04 A3002 RMK AO2 SLP166 T00720044,0,0.0,0,16090.0,0,0,0,
2026-04-29 06:56:00,METAR KHPN 290656Z 08003KT 10SM BKN100 09/04 A3003 RMK AO2 SLP168 T00890044,0,3.0,0,16090.0,0,0,0,
2026-04-29 05:56:00,METAR KHPN 290556Z 11003KT 10SM BKN080 09/04 A3006 RMK AO2 SLP178 T00940044 10139 20089 58001,0,3.0,0,16090.0,0,0,0,
2026-04-29 04:56:00,METAR KHPN 290456Z 13004KT 10SM BKN070 10/04 A3008 RMK AO2 SLP185 T01000039 401780050,0,4.0,0,16090.0,0,0,0,
2026-04-29 03:56:00,METAR KHPN 290356Z 13003KT 10SM BKN080 10/04 A3008 RMK AO2 SLP185 T01000039,0,3.0,0,16090.0,0,0,0,
2026-04-29 02:56:00,METAR KHPN 290256Z 13007KT 10SM BKN085 09/03 A3006 RMK AO2 SLP179 T00940028 53001,0,7.0,0,16090.0,0,0,0,
2026-04-29 01:56:00,METAR KHPN 290156Z 14007KT 10SM FEW080 BKN100 11/04 A3005 RMK AO2 SLP177 T01110044,0,7.0,0,16090.0,0,0,0,
2026-04-29 00:56:00,METAR KHPN 290056Z 17004KT 10SM BKN085 13/03 A3006 RMK AO2 SLP180 T01280028,0,4.0,0,16090.0,0,0,0,
2026-04-28 23:56:00,METAR KHPN 282356Z 18004KT 10SM SCT070 BKN100 14/03 A3006 RMK AO2 SLP179 T01390028 10172 20139 56006,0,4.0,0,16090.0,0,0,0,
2026-04-28 22:56:00,METAR KHPN 282256Z 19005KT 10SM FEW070 BKN100 14/03 A3006 RMK AO2 SLP180 T01440028,0,5.0,0,16090.0,0,0,0,
2026-04-28 21:56:00,METAR KHPN 282156Z 18005KT 10SM FEW090 BKN110 15/03 A3007 RMK AO2 SLP183 T01500028,0,5.0,0,16090.0,0,0,0,
2026-04-28 20:56:00,METAR KHPN 282056Z 18005KT 10SM BKN090 BKN110 16/02 A3007 RMK AO2 SLP185 T01560022 58018,0,5.0,0,16090.0,0,0,0,
2026-04-28 19:56:00,METAR KHPN 281956Z 17005KT 10SM SCT030 BKN070 16/03 A3009 RMK AO2 SLP192 T01610033,0,5.0,0,16090.0,0,0,0,
2026-04-28 18:56:00,METAR KHPN 281856Z 15006KT 10SM CLR 17/03 A3012 RMK AO2 SLP199 T01670033,0,6.0,0,16090.0,0,0,0,
2026-04-28 17:56:00,METAR KHPN 281756Z 17007G15KT 130V190 10SM CLR 17/03 A3013 RMK AO2 SLP203 T01720033 10178 20100 58012,0,7.0,1,16090.0,0,0,0,
2026-04-28 16:56:00,METAR KHPN 281656Z 17008KT 10SM CLR 17/04 A3014 RMK AO2 SLP205 T01720039,0,8.0,0,16090.0,0,0,0,
2026-04-28 15:56:00,METAR KHPN 281556Z 15005KT 10SM CLR 16/04 A3015 RMK AO2 SLP212 T01610039,0,5.0,0,16090.0,0,0,0,
2026-04-28 14:56:00,METAR KHPN 281456Z 15004KT 10SM CLR 16/04 A3016 RMK AO2 SLP214 T01610039 56006,0,4.0,0,16090.0,0,0,0,
2026-04-28 13:56:00,METAR KHPN 281356Z VRB03KT 10SM CLR 15/03 A3017 RMK AO2 SLP215 T01500028,0,3.0,0,16090.0,0,0,0,
2026-04-28 12:56:00,METAR KHPN 281256Z VRB03KT 10SM CLR 13/02 A3017 RMK AO2 SLP215 T01330022,0,3.0,0,16090.0,0,0,0,
2026-04-28 11:56:00,METAR KHPN 281156Z 00000KT 10SM CLR 10/03 A3018 RMK AO2 SLP220 T01000033 10100 20050 53001,0,0.0,0,16090.0,0,0,0,
2026-04-28 10:56:00,METAR KHPN 281056Z 00000KT 10SM CLR 08/04 A3016 RMK AO2 SLP215 T00780044,0,0.0,0,16090.0,0,0,0,
2026-04-28 09:56:00,METAR KHPN 280956Z 30005KT 10SM CLR 06/03 A3017 RMK AO2 SLP217 T00560033,0,5.0,0,16090.0,0,0,0,
2026-04-28 08:56:00,METAR KHPN 280856Z 30005KT 10SM CLR 07/04 A3017 RMK AO2 SLP218 T00670039 56009,0,5.0,0,16090.0,0,0,0,
2026-04-28 07:56:00,METAR KHPN 280756Z 30004KT 10SM CLR 07/04 A3018 RMK AO2 SLP220 T00720039,0,4.0,0,16090.0,0,0,0,
2026-04-28 06:56:00,METAR KHPN 280656Z 30003KT 10SM CLR 07/04 A3018 RMK AO2 SLP220 T00670039,0,3.0,0,16090.0,0,0,0,
2026-04-28 05:56:00,METAR KHPN 280556Z 31005KT 10SM CLR 06/03 A3020 RMK AO2 SLP228 T00610028 10133 20056 56020,0,5.0,0,16090.0,0,0,0,
2026-04-28 04:56:00,METAR KHPN 280456Z 30004KT 10SM CLR 08/04 A3021 RMK AO2 SLP231 T00780044 401890044,0,4.0,0,16090.0,0,0,0,
2026-04-28 03:56:00,METAR KHPN 280356Z 30003KT 10SM CLR 08/03 A3024 RMK AO2 SLP242 T00830028,0,3.0,0,16090.0,0,0,0,
2026-04-28 02:56:00,METAR KHPN 280256Z 00000KT 10SM CLR 09/03 A3026 RMK AO2 SLP247 T00890033 51009,0,0.0,0,16090.0,0,0,0,
2026-04-28 01:56:00,METAR KHPN 280156Z 18003KT 10SM CLR 10/03 A3026 RMK AO2 SLP247 T01000033,0,3.0,0,16090.0,0,0,0,
2026-04-28 00:56:00,METAR KHPN 280056Z 20003KT 10SM CLR 12/03 A3026 RMK AO2 SLP247 T01170033,0,3.0,0,16090.0,0,0,0,
2026-04-27 23:56:00,METAR KHPN 272356Z 17006KT 10SM CLR 13/03 A3023 RMK AO2 SLP239 T01280033 10189 20128 53007,0,6.0,0,16090.0,0,0,0,
2026-04-27 22:56:00,METAR KHPN 272256Z AUTO 16008KT 10SM CLR 16/04 A3021 RMK AO2 SLP231 T01560039,0,8.0,0,16090.0,0,0,0,
2026-04-27 21:56:00,METAR KHPN 272156Z 16007KT 10SM CLR 18/04 A3021 RMK AO2 SLP232 T01780044,0,7.0,0,16090.0,0,0,0,
2026-04-27 20:56:00,METAR KHPN 272056Z 16008KT 10SM FEW040 18/02 A3021 RMK AO2 SLP232 T01830022 55007,0,8.0,0,16090.0,0,0,0,
2026-04-27 19:56:00,METAR KHPN 271956Z 16006KT 10SM FEW040 19/03 A3020 RMK AO2 SLP229 T01890028,0,6.0,0,16090.0,0,0,0,
2026-04-27 18:56:00,METAR KHPN 271856Z 14007KT 10SM FEW040 18/03 A3022 RMK AO2 SLP233 T01830028,0,7.0,0,16090.0,0,0,0,
2026-04-27 17:56:00,METAR KHPN 271756Z 14007KT 100V160 10SM FEW030 18/04 A3023 RMK AO2 SLP239 T01780039 10183 20111 58002,0,7.0,0,16090.0,0,0,0,
2026-04-27 16:56:00,METAR KHPN 271656Z 14010KT 10SM CLR 17/04 A3024 RMK AO2 SLP242 T01670039,0,10.0,0,16090.0,0,0,0,
2026-04-27 15:56:00,METAR KHPN 271556Z 14008KT 10SM CLR 17/04 A3024 RMK AO2 SLP241 T01670044,0,8.0,0,16090.0,0,0,0,
2026-04-27 14:56:00,METAR KHPN 271456Z VRB04KT 10SM CLR 17/04 A3024 RMK AO2 SLP241 T01670044 51011,0,4.0,0,16090.0,0,0,0,
2026-04-27 13:56:00,METAR KHPN 271356Z 04008KT 10SM CLR 16/03 A3023 RMK AO2 SLP238 T01560033,0,8.0,0,16090.0,0,0,0,
2026-04-27 12:56:00,METAR KHPN 271256Z 05006KT 10SM CLR 13/05 A3022 RMK AO2 SLP235 T01330050,0,6.0,0,16090.0,0,0,0,
2026-04-27 11:56:00,METAR KHPN 271156Z 36005KT 10SM CLR 11/05 A3021 RMK AO2 SLP231 T01110050 10111 20044 53005 $,0,5.0,0,16090.0,0,0,0,
2026-04-27 10:56:00,METAR KHPN 271056Z 31005KT 10SM CLR 07/04 A3019 RMK AO2 SLP227 T00670039 $,0,5.0,0,16090.0,0,0,0,
2026-04-27 09:56:00,METAR KHPN 270956Z 31007KT 10SM CLR 06/03 A3018 RMK AO2 SLP224 T00560033 $,0,7.0,0,16090.0,0,0,0,
2026-04-27 08:56:00,METAR KHPN 270856Z 32007KT 10SM CLR 05/03 A3019 RMK AO2 SLP227 T00500033 53005 $,0,7.0,0,16090.0,0,0,0,
2026-04-27 07:56:00,METAR KHPN 270756Z 31006KT 10SM CLR 05/04 A3019 RMK AO2 SLP226 T00500039 $,0,6.0,0,16090.0,0,0,0,
2026-04-27 06:56:00,METAR KHPN 270656Z 32005KT 10SM CLR 05/04 A3017 RMK AO2 SLP222 T00500039 $,0,5.0,0,16090.0,0,0,0,
2026-04-27 05:56:00,METAR KHPN 270556Z 31005KT 10SM CLR 05/04 A3018 RMK AO2 SLP222 T00500039 10106 20044 50001 $,0,5.0,0,16090.0,0,0,0,
2026-04-27 04:56:00,METAR KHPN 270456Z 29006KT 10SM CLR 07/04 A3018 RMK AO2 SLP222 T00670044 401220044 $,0,6.0,0,16090.0,0,0,0,
2026-04-27 03:56:00,METAR KHPN 270356Z 31005KT 10SM CLR 06/04 A3018 RMK AO2 SLP223 T00610044 $,0,5.0,0,16090.0,0,0,0,
2026-04-27 02:56:00,METAR KHPN 270256Z 30004KT 10SM CLR 06/03 A3017 RMK AO2 SLP222 T00560028 50011 $,0,4.0,0,16090.0,0,0,0,
2026-04-27 01:56:00,METAR KHPN 270156Z 00000KT 10SM CLR 07/03 A3018 RMK AO2 SLP223 T00670033 $,0,0.0,0,16090.0,0,0,0,
2026-04-27 00:56:00,METAR KHPN 270056Z 07004KT 10SM CLR 08/03 A3016 RMK AO2 SLP216 T00830028 $,0,4.0,0,16090.0,0,0,0,
2026-04-26 23:56:00,METAR KHPN 262356Z VRB03KT 10SM CLR 09/03 A3014 RMK AO2 SLP210 T00940028 10117 20094 53009 $,0,3.0,0,16090.0,0,0,0,
2026-04-26 22:56:00,METAR KHPN 262256Z 11004KT 10SM CLR 11/03 A3013 RMK AO2 SLP206 T01110028 $,0,4.0,0,16090.0,0,0,0,
2026-04-26 21:56:00,METAR KHPN 262156Z 11007KT 10SM FEW065 11/03 A3012 RMK AO2 SLP204 T01110033 $,0,7.0,0,16090.0,0,0,0,
2026-04-26 20:56:00,METAR KHPN 262056Z 11010KT 10SM FEW065 11/04 A3011 RMK AO2 SLP201 T01110039 53002 $,0,10.0,0,16090.0,0,0,0,
2026-04-26 19:56:00,METAR KHPN 261956Z 10010G24KT 070V140 10SM FEW065 11/04 A3011 RMK AO2 SLP199 T01110039 $,0,10.0,1,16090.0,0,0,0,
2026-04-26 18:56:00,METAR KHPN 261856Z 12009KT 10SM FEW050 11/04 A3011 RMK AO2 SLP200 T01110039 $,0,9.0,0,16090.0,0,0,0,
2026-04-26 17:56:00,METAR KHPN 261756Z 13009KT 10SM BKN065 11/04 A3011 RMK AO2 SLP199 T01110044 10122 20056 50000 $,0,9.0,0,16090.0,0,0,0,
2026-04-26 16:56:00,METAR KHPN 261656Z 11011KT 10SM BKN029 BKN050 11/04 A3011 RMK AO2 SLP200 T01060039 $,0,11.0,0,16090.0,0,0,0,
2026-04-26 15:56:00,METAR KHPN 261556Z 07006KT 10SM BKN024 BKN032 10/04 A3012 RMK AO2 SLP203 T01000044 $,0,6.0,0,16090.0,0,0,0,
2026-04-26 14:56:00,METAR KHPN 261456Z 06008KT 10SM BKN025 OVC045 09/04 A3011 RMK AO2 SLP199 T00890039 51008 $,0,8.0,0,16090.0,0,0,0,
2026-04-26 13:56:00,METAR KHPN 261356Z 03008KT 10SM FEW018 BKN040 08/04 A3010 RMK AO2 SLP197 T00830039 $,0,8.0,0,16090.0,0,0,0,
2026-04-26 12:56:00,METAR KHPN 261256Z 04005KT 10SM SCT040 BKN055 07/04 A3009 RMK AO2 SLP195 T00670039 $,0,5.0,0,16090.0,0,0,0,
2026-04-26 11:56:00,METAR KHPN 261156Z 03005KT 10SM SCT040 OVC055 06/04 A3008 RMK AO2 SLP192 60002 7//// T00560039 10056 20044 53016 $,0,5.0,0,16090.0,0,0,0,
2026-04-26 10:56:00,METAR KHPN 261056Z 05004KT 10SM FEW007 OVC050 05/04 A3005 RMK AO2 SLP182 T00500039 $,0,4.0,0,16090.0,0,0,0,
2026-04-26 09:56:00,METAR KHPN 260956Z 01003KT 10SM FEW007 OVC050 05/04 A3004 RMK AO2 SLP179 T00500039 $,0,3.0,0,16090.0,0,0,0,
2026-04-26 08:56:00,METAR KHPN 260856Z 02003KT 10SM BKN010 OVC049 05/04 A3003 RMK AO2 RAB0758E00 SLP176 P0001 60002 T00500039 56002 $,0,3.0,0,16090.0,0,0,0,RA
2026-04-26 07:56:00,METAR KHPN 260756Z 02004KT 10SM BKN010 04/03 A3004 RMK AO2 SLP177 T00440033 $,0,4.0,0,16090.0,0,0,0,
2026-04-26 06:56:00,METAR KHPN 260656Z 03005KT 4SM BR BKN005 04/04 A3003 RMK AO2 RAE20 SLP176 P0001 T00440039 $,0,5.0,0,6436.0,0,0,1,BR
2026-04-26 05:56:00,METAR KHPN 260556Z 05004KT 3SM -RA BR BKN005 OVC029 04/04 A3004 RMK AO2 SLP178 P0002 6//// T00440039 10044 20039 58009 $,0,4.0,0,4827.0,0,0,1,"-RA,BR"
2026-04-26 04:56:00,METAR KHPN 260456Z 05005KT 5SM -RA BR BKN005 OVC029 04/04 A3005 RMK AO2 SLP183 P0002 T00440039 400780039 $,0,5.0,0,8045.0,0,0,1,"-RA,BR"
2026-04-26 03:56:00,METAR KHPN 260356Z VRB05KT 5SM -RA BR BKN005 OVC029 04/03 A3006 RMK AO2 SLP183 P0005 T00440033 $,0,5.0,0,8045.0,0,0,1,"-RA,BR"
2026-04-26 03:25:00,SPECI KHPN 260325Z 05004KT 2 1/2SM -RA BR FEW004 BKN009 OVC060 04/03 A3006 RMK AO2 P0003 T00390033 $,0,4.0,0,4022.0,0,0,1,"-RA,BR"
2026-04-26 02:56:00,METAR KHPN 260256Z 07004KT 2 1/2SM -RA BR FEW005 BKN041 04/03 A3007 RMK AO2 SLP187 P0011 6//// T00390033 50018 $,0,4.0,0,4022.0,0,0,1,"-RA,BR"
2026-04-26 01:56:00,METAR KHPN 260156Z 05005KT 2 1/2SM -RA BR SCT009 BKN015 OVC022 04/03 A3007 RMK AO2 SLP187 T00440033 PNO $,0,5.0,0,4022.0,0,0,1,"-RA,BR"
2026-04-26 00:56:00,METAR KHPN 260056Z 09003KT 2 1/2SM -RA BR BKN006 BKN015 OVC022 04/03 A3006 RMK AO2 CIG 004V010 SLP185 T00440033 PNO $,0,3.0,0,4022.0,0,0,1,"-RA,BR"
2026-04-26 00:17:00,SPECI KHPN 260017Z 08008KT 2 1/2SM -RA BR BKN006 BKN013 OVC029 04/03 A3003 RMK AO2 T00440033 PNO $,0,8.0,0,4022.0,0,0,1,"-RA,BR"
2026-04-25 23:56:00,METAR KHPN 252356Z 10008KT 1 1/2SM -RA BR BKN005 OVC029 04/03 A3002 RMK AO2 SLP168 6//// T00440033 10056 20044 55001 PNO $,0,8.0,0,2414.0,0,0,1,"-RA,BR"
2026-04-25 22:56:00,METAR KHPN 252256Z 11007KT 2SM -RA BR BKN006 BKN012 OVC045 04/04 A3001 RMK AO2 SLP165 P0011 T00440039 $,0,7.0,0,3218.0,0,0,1,"-RA,BR"
2026-04-25 21:56:00,METAR KHPN 252156Z 11010KT 2SM -RA BR SCT003 BKN006 OVC055 04/04 A3000 RMK AO2 SLP166 T00440039 PNO $,0,10.0,0,3218.0,0,0,1,"-RA,BR"
2026-04-25 20:56:00,METAR KHPN 252056Z 13008KT 2SM -RA BR BKN006 OVC019 05/04 A3002 RMK AO2 CIG 003V009 SLP170 P0016 60024 T00500039 58009,0,8.0,0,3218.0,0,0,1,"-RA,BR"
2026-04-25 20:24:00,SPECI KHPN 252024Z 13006KT 1 1/2SM -RA BR BKN008 OVC015 05/04 A3003 RMK AO2 P0007 T00500039,0,6.0,0,2414.0,0,0,1,"-RA,BR"
2026-04-25 19:56:00,METAR KHPN 251956Z 11007KT 2 1/2SM RA BR SCT008 BKN015 OVC027 05/04 A3003 RMK AO2 DZE02RAB02 SLP174 P0006 T00500039,0,7.0,0,4022.0,0,0,1,"BR,DZ,RA"
2026-04-25 19:20:00,SPECI KHPN 251920Z 16009KT 2 1/2SM -RA BR SCT008 BKN015 OVC045 06/04 A3004 RMK AO2 DZE02RAB02 P0002 T00560039,0,9.0,0,4022.0,0,0,1,"-RA,BR,DZ"
2026-04-25 18:56:00,METAR KHPN 251856Z 12010KT 5SM -DZ BR FEW008 OVC045 06/04 A3004 RMK AO2 SLP177 P0002 T00560039,0,10.0,0,8045.0,0,0,1,"BR,DZ"
2026-04-25 17:56:00,METAR KHPN 251756Z 12009KT 7SM -DZ FEW050 BKN070 OVC085 06/03 A3005 RMK AO2 SLP179 P0004 60006 T00560033 10078 20056 58002,0,9.0,0,11263.0,0,0,0,DZ
2026-04-25 16:56:00,METAR KHPN 251656Z 10006KT 7SM -DZ FEW040 OVC055 06/03 A3006 RMK AO2 SLP184 P0002 T00610028,0,6.0,0,11263.0,0,0,0,DZ
2026-04-25 15:56:00,METAR KHPN 251556Z 10005KT 10SM -DZ FEW040 OVC055 07/04 A3006 RMK AO2 RAE52DZB52 SLP182 P0000 T00720039,0,5.0,0,16090.0,0,0,0,"DZ,RA"
2026-04-25 14:56:00,METAR KHPN 251456Z 10006KT 10SM -RA OVC060 07/03 A3005 RMK AO2 RAB53 SLP180 P0000 60000 T00720028 51010,0,6.0,0,16090.0,0,0,0,-RA
2026-04-25 13:56:00,METAR KHPN 251356Z 10010KT 10SM OVC060 07/01 A3004 RMK AO2 SLP177 T00720011,0,10.0,0,16090.0,0,0,0,
2026-04-25 12:56:00,METAR KHPN 251256Z 11012G26KT 10SM OVC065 07/01 A3004 RMK AO2 PK WND 10026/1255 SLP174 T00720011,0,12.0,1,16090.0,0,0,0,
2026-04-25 11:56:00,METAR KHPN 251156Z 11011G22KT 10SM BKN065 07/02 A3002 RMK AO2 SLP169 60000 T00720022 10078 20067 53009,0,11.0,1,16090.0,0,0,0,
2026-04-25 10:56:00,METAR KHPN 251056Z 10008KT 10SM FEW025 BKN065 07/02 A3000 RMK AO2 SLP162 T00720022,0,8.0,0,16090.0,0,0,0,
2026-04-25 09:56:00,METAR KHPN 250956Z 10009KT 10SM SCT065 BKN110 07/03 A2999 RMK AO2 SLP155 T00670028,0,9.0,0,16090.0,0,0,0,
2026-04-25 08:56:00,METAR KHPN 250856Z 11005KT 10SM SCT100 BKN120 07/03 A2999 RMK AO2 DZE51 SLP158 P0000 60000 T00670033 53010,0,5.0,0,16090.0,0,0,0,
2026-04-25 07:56:00,METAR KHPN 250756Z 10006KT 10SM -DZ SCT110 07/04 A2998 RMK AO2 DZB52 SLP153 P0000 T00670039,0,6.0,0,16090.0,0,0,0,DZ
2026-04-25 06:56:00,METAR KHPN 250656Z 10006KT 10SM BKN016 07/04 A2997 RMK AO2 SLP149 T00720044,0,6.0,0,16090.0,0,0,0,
2026-04-25 05:56:00,METAR KHPN 250556Z 10006KT 10SM BKN014 OVC100 08/05 A2997 RMK AO2 SLP149 T00780050 10106 20078 51012,0,6.0,0,16090.0,0,0,0,
2026-04-25 04:56:00,METAR KHPN 250456Z 10006KT 10SM BKN012 BKN095 08/06 A2996 RMK AO2 SLP146 T00780056 401780078,0,6.0,0,16090.0,0,0,0,
2026-04-25 03:56:00,METAR KHPN 250356Z 11005KT 10SM FEW014 BKN100 08/06 A2994 RMK AO2 SLP140 T00780056,0,5.0,0,16090.0,0,0,0,
2026-04-25 02:56:00,METAR KHPN 250256Z 12006KT 10SM BKN095 08/05 A2993 RMK AO2 SLP137 T00830050 51025,0,6.0,0,16090.0,0,0,0,
2026-04-25 01:56:00,METAR KHPN 250156Z 14007KT 10SM CLR 08/03 A2992 RMK AO2 SLP133 T00830033,0,7.0,0,16090.0,0,0,0,
2026-04-25 00:56:00,METAR KHPN 250056Z 14006KT 10SM BKN110 09/04 A2988 RMK AO2 SLP122 T00890039,0,6.0,0,16090.0,0,0,0,
2026-04-24 23:56:00,METAR KHPN 242356Z 14007KT 10SM FEW100 10/03 A2986 RMK AO2 SLP112 T01000033 10178 20100 53022,0,7.0,0,16090.0,0,0,0,
2026-04-24 22:56:00,METAR KHPN 242256Z 18008KT 10SM CLR 12/04 A2983 RMK AO2 SLP103 T01220039,0,8.0,0,16090.0,0,0,0,
2026-04-24 21:56:00,METAR KHPN 242156Z 10010G15KT 060V150 10SM CLR 17/M08 A2980 RMK AO2 SLP091 T01721078,0,10.0,1,16090.0,0,0,0,
2026-04-24 20:56:00,METAR KHPN 242056Z 01008KT 10SM CLR 17/M10 A2979 RMK AO2 SLP088 T01671100 55002,0,8.0,0,16090.0,0,0,0,
2026-04-24 19:56:00,METAR KHPN 241956Z 02009G15KT 10SM CLR 17/M09 A2978 RMK AO2 SLP084 T01671094,0,9.0,1,16090.0,0,0,0,
2026-04-24 18:56:00,METAR KHPN 241856Z 36012G19KT 10SM CLR 17/M09 A2980 RMK AO2 SLP088 T01671089,0,12.0,1,16090.0,0,0,0,
2026-04-24 17:56:00,METAR KHPN 241756Z 02011G19KT 10SM CLR 16/M06 A2980 RMK AO2 SLP089 T01611061 10167 20089 58007,0,11.0,1,16090.0,0,0,0,
2026-04-24 16:56:00,METAR KHPN 241656Z 31009KT 10SM CLR 16/M03 A2981 RMK AO2 SLP095 T01561028,0,9.0,0,16090.0,0,0,0,
2026-04-24 15:56:00,METAR KHPN 241556Z 34007G16KT 10SM FEW090 15/M02 A2983 RMK AO2 SLP100 T01501022,0,7.0,1,16090.0,0,0,0,
2026-04-24 14:56:00,METAR KHPN 241456Z 01011G17KT 10SM FEW100 15/00 A2982 RMK AO2 SLP096 T01500000 58001,0,11.0,1,16090.0,0,0,0,
2026-04-24 13:56:00,METAR KHPN 241356Z VRB05KT 10SM BKN100 12/03 A2983 RMK AO2 SLP102 T01170028,0,5.0,0,16090.0,0,0,0,
2026-04-24 12:56:00,METAR KHPN 241256Z 08007KT 10SM SCT095 10/03 A2985 RMK AO2 SLP106 T01000033,0,7.0,0,16090.0,0,0,0,
2026-04-24 11:56:00,METAR KHPN 241156Z 08004KT 10SM BKN100 09/03 A2982 RMK AO2 SLP099 60000 T00890033 10133 20083 53012,0,4.0,0,16090.0,0,0,0,
2026-04-24 10:56:00,METAR KHPN 241056Z 11003KT 10SM SCT110 08/04 A2980 RMK AO2 SLP092 T00830039,0,3.0,0,16090.0,0,0,0,
2026-04-24 09:56:00,METAR KHPN 240956Z 09003KT 10SM BKN095 BKN120 09/03 A2979 RMK AO2 SLP087 T00890028,0,3.0,0,16090.0,0,0,0,
2026-04-24 08:56:00,METAR KHPN 240856Z 09003KT 10SM BKN095 10/02 A2979 RMK AO2 DZE54 SLP086 P0000 60000 T01000022 55007,0,3.0,0,16090.0,0,0,0,
2026-04-24 07:56:00,METAR KHPN 240756Z 00000KT 10SM -DZ SCT090 BKN110 12/06 A2979 RMK AO2 RAB18E55DZB55 SLP085 P0000 T01170056,0,0.0,0,16090.0,0,0,0,"DZ,RA"
2026-04-24 06:56:00,METAR KHPN 240656Z 29003KT 10SM BKN075 BKN095 13/03 A2979 RMK AO2 SLP084 T01280028,0,3.0,0,16090.0,0,0,0,
2026-04-24 05:56:00,METAR KHPN 240556Z 00000KT 10SM FEW090 BKN110 13/02 A2981 RMK AO2 SLP092 T01330022 10189 20128 56010,0,0.0,0,16090.0,0,0,0,
2026-04-24 04:56:00,METAR KHPN 240456Z 00000KT 10SM BKN110 13/02 A2982 RMK AO2 SLP095 T01330017 402170033,0,0.0,0,16090.0,0,0,0,
2026-04-24 03:56:00,METAR KHPN 240356Z 00000KT 10SM CLR 15/M01 A2982 RMK AO2 SLP097 T01501006,0,0.0,0,16090.0,0,0,0,
2026-04-24 02:56:00,METAR KHPN 240256Z 03004KT 10SM CLR 16/M02 A2984 RMK AO2 SLP103 T01561017 50007,0,4.0,0,16090.0,0,0,0,
2026-04-24 01:56:00,METAR KHPN 240156Z 31007KT 10SM CLR 16/M02 A2985 RMK AO2 SLP107 T01611017,0,7.0,0,16090.0,0,0,0,
2026-04-24 00:56:00,METAR KHPN 240056Z 32009KT 10SM CLR 18/M02 A2984 RMK AO2 SLP104 T01781022,0,9.0,0,16090.0,0,0,0,
2026-04-23 23:56:00,METAR KHPN 232356Z 30007KT 10SM OVC100 19/M01 A2982 RMK AO2 SLP097 T01891006 10217 20189 53001,0,7.0,0,16090.0,0,0,0,
2026-04-23 22:56:00,METAR KHPN 232256Z 29009KT 10SM BKN110 20/M01 A2981 RMK AO2 SLP095 T02001011,0,9.0,0,16090.0,0,0,0,
2026-04-23 21:56:00,METAR KHPN 232156Z 30010G20KT 10SM CLR 21/M01 A2982 RMK AO2 SLP098 T02061006,0,10.0,1,16090.0,0,0,0,
2026-04-23 20:56:00,METAR KHPN 232056Z 31016G21KT 10SM CLR 21/M01 A2981 RMK AO2 SLP096 T02061006 56022,0,16.0,1,16090.0,0,0,0,
2026-04-23 19:56:00,METAR KHPN 231956Z COR 32012G21KT 10SM CLR 21/00 A2983 RMK AO2 PK WND 30028/1933 SLP101 T02110000,0,12.0,1,16090.0,0,0,0,
2026-04-23 18:56:00,METAR KHPN 231856Z 29015G23KT 10SM FEW030 21/01 A2985 RMK AO2 SLP109 T02110006,0,15.0,1,16090.0,0,0,0,
2026-04-23 17:56:00,METAR KHPN 231756Z 32012G20KT 10SM FEW030 20/04 A2988 RMK AO2 SLP118 T02000039 10200 20083 56021,0,12.0,1,16090.0,0,0,0,
2026-04-23 16:56:00,METAR KHPN 231656Z VRB06KT 10SM FEW030 18/04 A2990 RMK AO2 SLP125 T01830044,0,6.0,0,16090.0,0,0,0,
2026-04-23 15:56:00,METAR KHPN 231556Z 32008KT 10SM FEW030 18/06 A2992 RMK AO2 SLP132 T01780061 $,0,8.0,0,16090.0,0,0,0,
2026-04-23 14:56:00,METAR KHPN 231456Z 30012G16KT 10SM FEW030 17/07 A2994 RMK AO2 SLP140 T01670067 58004 $,0,12.0,1,16090.0,0,0,0,
2026-04-23 13:56:00,METAR KHPN 231356Z 29007KT 10SM CLR 14/08 A2995 RMK AO2 SLP143 T01440083 $,0,7.0,0,16090.0,0,0,0,
2026-04-23 12:56:00,METAR KHPN 231256Z 31005KT 10SM CLR 12/08 A2995 RMK AO2 SLP144 T01170083 $,0,5.0,0,16090.0,0,0,0,
2026-04-23 11:56:00,METAR KHPN 231156Z 29006KT 10SM CLR 08/07 A2995 RMK AO2 SLP146 70005 T00830072 10083 20033 53007 $,0,6.0,0,16090.0,0,0,0,
2026-04-23 10:56:00,METAR KHPN 231056Z 29004KT 8SM CLR 06/05 A2994 RMK AO2 SLP143 T00560050 $,0,4.0,0,12872.0,0,0,0,
2026-04-23 10:03:00,SPECI KHPN 231003Z 30005KT 2SM BCFG CLR 04/04 A2993 RMK AO2 T00390039 $,0,5.0,0,3218.0,0,0,1,"BC,FG"
2026-04-23 09:56:00,METAR KHPN 230956Z 32004KT 1/2SM R16/P6000FT FG BKN009 04/04 A2993 RMK AO2 SLP139 T00390039 $,0,4.0,0,804.0,0,0,1,FG
2026-04-23 08:56:00,METAR KHPN 230856Z 32003KT 1/2SM R16/1200V3500FT FG BKN009 04/04 A2993 RMK AO2 SLP140 T00390039 56005 $,0,3.0,0,804.0,0,0,1,FG
2026-04-23 07:56:00,METAR KHPN 230756Z 30004KT 4SM BCFG CLR 04/04 A2994 RMK AO2 SLP142 T00440039 $,0,4.0,0,6436.0,0,0,1,"BC,FG"
2026-04-23 06:56:00,METAR KHPN 230656Z 00000KT 4SM BCFG CLR 05/05 A2993 RMK AO2 SLP141 T00500050 $,0,0.0,0,6436.0,0,0,1,"BC,FG"
2026-04-23 05:56:00,METAR KHPN 230556Z 00000KT 3SM R16/2400VP6000FT BCFG CLR 06/05 A2995 RMK AO2 RAE0457 SLP144 P0000 60005 T00560050 10083 20056 56019 $,0,0.0,0,4827.0,0,0,1,"BC,FG,RA"
2026-04-23 04:56:00,METAR KHPN 230456Z 00000KT 9SM -RA FEW055 SCT070 BKN090 07/06 A2996 RMK AO2 RAB42 SLP149 P0000 T00720061 401060050 $,0,0.0,0,14481.0,0,0,0,-RA
2026-04-23 03:56:00,METAR KHPN 230356Z 00000KT 10SM BKN065 07/06 A2998 RMK AO2 RAE52 SLP156 P0001 T00670056 $,0,0.0,0,16090.0,0,0,0,
2026-04-23 02:56:00,METAR KHPN 230256Z 35004KT 4SM -RA BR FEW055 BKN070 BKN090 08/06 A3000 RMK AO2 DZB24E43RAB43 SLP163 P0004 60004 T00780056 53005 $,0,4.0,0,6436.0,0,0,1,"-RA,BR,DZ"
2026-04-23 01:56:00,METAR KHPN 230156Z 08005KT 10SM FEW022 BKN075 BKN095 08/05 A2998 RMK AO2 DZB17E26 SLP157 P0000 T00780050 $,0,5.0,0,16090.0,0,0,0,DZ
2026-04-23 00:56:00,METAR KHPN 230056Z 07003KT 10SM BKN100 08/04 A2999 RMK AO2 SLP159 T00780044 $,0,3.0,0,16090.0,0,0,0,
2026-04-22 23:56:00,METAR KHPN 222356Z 10003KT 10SM FEW020 08/04 A2999 RMK AO2 SLP159 T00830044 10106 20083 55004 $,0,3.0,0,16090.0,0,0,0,
2026-04-22 22:56:00,METAR KHPN 222256Z 11007KT 10SM SCT020 09/05 A2998 RMK AO2 SLP154 T00940050 $,0,7.0,0,16090.0,0,0,0,
2026-04-22 21:56:00,METAR KHPN 222156Z 11005KT 10SM BKN021 10/05 A2999 RMK AO2 SLP159 T01000050 $,0,5.0,0,16090.0,0,0,0,
2026-04-22 20:56:00,METAR KHPN 222056Z 12008KT 10SM BKN021 09/05 A3000 RMK AO2 SLP161 T00940050 56021 $,0,8.0,0,16090.0,0,0,0,
2026-04-22 19:56:00,METAR KHPN 221956Z 10008KT 10SM BKN022 11/05 A3001 RMK AO2 SLP166 T01060050 $,0,8.0,0,16090.0,0,0,0,
2026-04-22 18:56:00,METAR KHPN 221856Z 14010KT 10SM BKN022 09/04 A3004 RMK AO2 SLP175 T00940044 $,0,10.0,0,16090.0,0,0,0,
2026-04-22 17:56:00,METAR KHPN 221756Z 15006KT 10SM BKN023 OVC024 09/04 A3006 RMK AO2 SLP184 60000 T00940044 10094 20061 58016 $,0,6.0,0,16090.0,0,0,0,
2026-04-22 16:56:00,METAR KHPN 221656Z 14009KT 10SM BKN023 09/04 A3008 RMK AO2 SLP189 T00890039 $,0,9.0,0,16090.0,0,0,0,
2026-04-22 15:56:00,METAR KHPN 221556Z 16011KT 10SM SCT021 OVC032 08/04 A3010 RMK AO2 DZE21 SLP196 P0000 T00830039 $,0,11.0,0,16090.0,0,0,0,
2026-04-22 14:56:00,METAR KHPN 221456Z 15011KT 10SM -DZ FEW021 OVC032 08/03 A3011 RMK AO2 SLP200 P0000 60000 T00780033 58009 $,0,11.0,0,16090.0,0,0,0,DZ
2026-04-22 13:56:00,METAR KHPN 221356Z 14010KT 10SM -DZ SCT017 OVC033 07/04 A3012 RMK AO2 RAB39E50DZB53 SLP203 P0000 T00720039 $,0,10.0,0,16090.0,0,0,0,"DZ,RA"
2026-04-22 13:41:00,SPECI KHPN 221341Z 14009KT 10SM -RA SCT017 BKN035 OVC090 07/04 A3012 RMK AO2 RAB39 P0000 T00720044 $,0,9.0,0,16090.0,0,0,0,-RA
2026-04-22 12:56:00,METAR KHPN 221256Z 13007KT 10SM BKN015 OVC017 07/05 A3013 RMK AO2 SLP206 T00670050 $,0,7.0,0,16090.0,0,0,0,
2026-04-22 11:56:00,METAR KHPN 221156Z 12009KT 10SM FEW015 BKN070 OVC085 06/04 A3014 RMK AO2 RAE20 SLP209 P0000 60005 70006 T00610044 10061 20050 56008 $,0,9.0,0,16090.0,0,0,0,
2026-04-22 10:56:00,METAR KHPN 221056Z 16008KT 6SM -RA BR FEW016 OVC070 06/04 A3014 RMK AO2 SLP210 P0004 T00560044 $,0,8.0,0,9654.0,0,0,1,"-RA,BR"
2026-04-22 09:56:00,METAR KHPN 220956Z 14007KT 9SM -RA OVC065 06/04 A3014 RMK AO2 RAB39 SLP209 P0001 T00610039 $,0,7.0,0,14481.0,0,0,0,-RA
2026-04-22 08:56:00,METAR KHPN 220856Z COR 16005KT 10SM -DZ FEW030 BKN070 06/04 A3016 RMK AO2 SLP216 P0000 60000 T00610039 $,0,5.0,0,16090.0,0,0,0,DZ
2026-04-22 07:56:00,METAR KHPN 220756Z 16005KT 10SM -DZ SCT070 BKN080 06/03 A3017 RMK AO2 RAE28DZB28 SLP221 P0000 T00560033,0,5.0,0,16090.0,0,0,0,"DZ,RA"
2026-04-22 06:56:00,METAR KHPN 220656Z 15004KT 10SM -RA OVC070 05/03 A3018 RMK AO2 SLP224 P0000 T00500033,0,4.0,0,16090.0,0,0,0,-RA
2026-04-22 05:56:00,METAR KHPN 220556Z 15004KT 10SM -RA BKN070 OVC080 05/03 A3020 RMK AO2 SLP230 P0001 60001 T00500028 10061 20050 58017,0,4.0,0,16090.0,0,0,0,-RA
2026-04-22 04:56:00,METAR KHPN 220456Z 19003KT 8SM -RA BKN043 OVC065 06/02 A3023 RMK AO2 RAB21 SLP241 P0000 T00560017 401001028,0,3.0,0,12872.0,0,0,0,-RA
2026-04-22 03:56:00,METAR KHPN 220356Z 17003KT 10SM OVC070 06/M01 A3026 RMK AO2 DZE52 SLP251 P0000 T00611011,0,3.0,0,16090.0,0,0,0,
2026-04-22 02:56:00,METAR KHPN 220256Z 18006KT 10SM -DZ OVC070 06/M02 A3025 RMK AO2 DZB15 SLP247 P0000 60000 T00561022 51007,0,6.0,0,16090.0,0,0,0,DZ
2026-04-22 01:56:00,METAR KHPN 220156Z 17010G15KT 10SM SCT075 BKN090 06/M04 A3024 RMK AO2 SLP247 T00561044,0,10.0,1,16090.0,0,0,0,
2026-04-22 00:56:00,METAR KHPN 220056Z 16006KT 10SM BKN100 06/M04 A3025 RMK AO2 SLP248 T00561039,0,6.0,0,16090.0,0,0,0,
2026-04-21 23:56:00,METAR KHPN 212356Z 15010KT 10SM BKN110 06/M06 A3023 RMK AO2 SLP241 T00611056 10100 20056 53002,0,10.0,0,16090.0,0,0,0,
2026-04-21 22:56:00,METAR KHPN 212256Z 17009KT 10SM SCT120 07/M07 A3022 RMK AO2 SLP240 T00721067,0,9.0,0,16090.0,0,0,0,
2026-04-21 21:56:00,METAR KHPN 212156Z 14009KT 10SM FEW120 08/M06 A3022 RMK AO2 SLP239 T00831056,0,9.0,0,16090.0,0,0,0,
2026-04-21 20:56:00,METAR KHPN 212056Z 11005KT 10SM FEW050 SCT120 09/M08 A3022 RMK AO2 SLP241 T00891078 56021,0,5.0,0,16090.0,0,0,0,
2026-04-21 19:56:00,METAR KHPN 211956Z 13005G15KT 10SM FEW050 SCT120 09/M09 A3024 RMK AO2 SLP244 T00941094,0,5.0,1,16090.0,0,0,0,
2026-04-21 18:56:00,METAR KHPN 211856Z 17007KT 10SM FEW050 SCT120 09/M09 A3026 RMK AO2 SLP253 T00891089,0,7.0,0,16090.0,0,0,0,
2026-04-21 17:56:00,METAR KHPN 211756Z 15005KT 10SM FEW050 08/M08 A3028 RMK AO2 SLP261 T00831078 10083 20028 58023,0,5.0,0,16090.0,0,0,0,
2026-04-21 16:56:00,METAR KHPN 211656Z VRB05KT 10SM CLR 08/M06 A3031 RMK AO2 SLP269 T00781061,0,5.0,0,16090.0,0,0,0,
2026-04-21 15:56:00,METAR KHPN 211556Z VRB05KT 10SM CLR 07/M08 A3034 RMK AO2 SLP280 T00671078,0,5.0,0,16090.0,0,0,0,
2026-04-21 14:56:00,METAR KHPN 211456Z 14008KT 10SM FEW055 06/M07 A3035 RMK AO2 SLP284 T00611072 58006,0,8.0,0,16090.0,0,0,0,
2026-04-21 13:56:00,METAR KHPN 211356Z 14003KT 10SM FEW050 06/M09 A3037 RMK AO2 SLP289 T00561089,0,3.0,0,16090.0,0,0,0,
2026-04-21 12:56:00,METAR KHPN 211256Z 03005KT 10SM CLR 04/M09 A3038 RMK AO2 SLP293 T00441089,0,5.0,0,16090.0,0,0,0,
2026-04-21 11:56:00,METAR KHPN 211156Z 01009KT 10SM CLR 03/M09 A3037 RMK AO2 SLP291 T00281094 10028 21028 51016,0,9.0,0,16090.0,0,0,0,
2026-04-21 10:56:00,METAR KHPN 211056Z 34008KT 10SM CLR 00/M09 A3036 RMK AO2 SLP289 T00001089,0,8.0,0,16090.0,0,0,0,
2026-04-21 09:56:00,METAR KHPN 210956Z 34008KT 10SM CLR M02/M08 A3034 RMK AO2 SLP281 T10221083,0,8.0,0,16090.0,0,0,0,
2026-04-21 08:56:00,METAR KHPN 210856Z 34006KT 10SM CLR M02/M08 A3032 RMK AO2 SLP276 T10221083 53003,0,6.0,0,16090.0,0,0,0,
2026-04-21 07:56:00,METAR KHPN 210756Z 32006KT 10SM CLR M01/M09 A3032 RMK AO2 SLP274 T10111089,0,6.0,0,16090.0,0,0,0,
2026-04-21 06:56:00,METAR KHPN 210656Z 33006KT 10SM CLR M01/M08 A3031 RMK AO2 SLP271 T10061078,0,6.0,0,16090.0,0,0,0,
2026-04-21 05:56:00,METAR KHPN 210556Z 33005KT 10SM CLR 01/M07 A3032 RMK AO2 SLP272 T00061067 10056 20006 50008,0,5.0,0,16090.0,0,0,0,
2026-04-21 04:56:00,METAR KHPN 210456Z 33006KT 10SM CLR 01/M06 A3032 RMK AO2 SLP273 T00111061 401001006,0,6.0,0,16090.0,0,0,0,
2026-04-21 03:56:00,METAR KHPN 210356Z 33008KT 10SM SCT070 03/M07 A3031 RMK AO2 SLP268 T00281067,0,8.0,0,16090.0,0,0,0,
2026-04-21 02:56:00,METAR KHPN 210256Z 32010KT 10SM BKN070 04/M06 A3030 RMK AO2 SLP264 T00391061 51023,0,10.0,0,16090.0,0,0,0,
2026-04-21 01:56:00,METAR KHPN 210156Z 31008KT 10SM BKN065 04/M06 A3029 RMK AO2 SLP261 T00441056,0,8.0,0,16090.0,0,0,0,
2026-04-21 00:56:00,METAR KHPN 210056Z 35010KT 10SM FEW065 SCT075 05/M07 A3026 RMK AO2 SLP253 T00501067,0,10.0,0,16090.0,0,0,0,
2026-04-20 23:56:00,METAR KHPN 202356Z 31010KT 10SM FEW070 06/M08 A3023 RMK AO2 SLP242 T00561078 10094 20056 53024,0,10.0,0,16090.0,0,0,0,
2026-04-20 22:56:00,METAR KHPN 202256Z 31010KT 10SM FEW075 06/M09 A3020 RMK AO2 SLP232 T00611094,0,10.0,0,16090.0,0,0,0,
2026-04-20 21:56:00,METAR KHPN 202156Z 29016G23KT 10SM SCT070 08/M08 A3018 RMK AO2 SLP226 T00781083,0,16.0,1,16090.0,0,0,0,
2026-04-20 20:56:00,METAR KHPN 202056Z 30015G24KT 10SM BKN065 08/M08 A3016 RMK AO2 PK WND 30026/2008 SLP217 T00781083 53007,0,15.0,1,16090.0,0,0,0,
2026-04-20 19:56:00,METAR KHPN 201956Z 33015G23KT 10SM BKN067 09/M06 A3014 RMK AO2 SLP212 T00891061,0,15.0,1,16090.0,0,0,0,
2026-04-20 18:56:00,METAR KHPN 201856Z 31015G23KT 10SM BKN067 08/M04 A3014 RMK AO2 PK WND 30026/1845 SLP212 T00831044,0,15.0,1,16090.0,0,0,0,
2026-04-20 17:56:00,METAR KHPN 201756Z 30016G25KT 10SM SCT060 BKN075 09/M05 A3013 RMK AO2 SLP210 T00891050 10100 20050 55002,0,16.0,1,16090.0,0,0,0,
2026-04-20 16:56:00,METAR KHPN 201656Z 32012G21KT 10SM BKN055 BKN075 08/M03 A3013 RMK AO2 SLP209 T00831033,0,12.0,1,16090.0,0,0,0,
2026-04-20 15:56:00,METAR KHPN 201556Z 29013KT 10SM BKN043 09/M02 A3014 RMK AO2 SLP209 T00891017,0,13.0,0,16090.0,0,0,0,
2026-04-20 14:56:00,METAR KHPN 201456Z 31008G16KT 10SM FEW031 SCT110 08/M01 A3014 RMK AO2 SLP210 T00781011 53005,0,8.0,1,16090.0,0,0,0,
2026-04-20 13:56:00,METAR KHPN 201356Z 34008KT 10SM BKN060 07/M01 A3013 RMK AO2 SLP209 T00671011,0,8.0,0,16090.0,0,0,0,
2026-04-20 12:56:00,METAR KHPN 201256Z 28008KT 10SM FEW050 SCT070 07/M01 A3013 RMK AO2 SLP207 T00671006,0,8.0,0,16090.0,0,0,0,
2026-04-20 11:56:00,METAR KHPN 201156Z 28004KT 10SM BKN070 BKN090 05/00 A3012 RMK AO2 SLP207 70010 T00500000 10050 21006 53015,0,4.0,0,16090.0,0,0,0,
2026-04-20 10:56:00,METAR KHPN 201056Z 27004KT 10SM BKN100 03/M01 A3011 RMK AO2 SLP201 T00331006,0,4.0,0,16090.0,0,0,0,
2026-04-20 09:56:00,METAR KHPN 200956Z 26003KT 10SM FEW100 02/M02 A3009 RMK AO2 SLP195 T00171017,0,3.0,0,16090.0,0,0,0,
2026-04-20 08:56:00,METAR KHPN 200856Z 00000KT 10SM CLR 00/M02 A3008 RMK AO2 SLP193 T00001017 53004,0,0.0,0,16090.0,0,0,0,
2026-04-20 07:56:00,METAR KHPN 200756Z 00000KT 10SM CLR 01/M02 A3008 RMK AO2 SLP191 T00061022,0,0.0,0,16090.0,0,0,0,
2026-04-20 06:56:00,METAR KHPN 200656Z 00000KT 10SM CLR 01/M01 A3007 RMK AO2 SLP189 T00061011,0,0.0,0,16090.0,0,0,0,
2026-04-20 05:56:00,METAR KHPN 200556Z 00000KT 10SM CLR 02/M02 A3007 RMK AO2 SLP188 T00171017 10067 20017 50003,0,0.0,0,16090.0,0,0,0,
2026-04-20 04:56:00,METAR KHPN 200456Z 00000KT 10SM CLR 03/M02 A3008 RMK AO2 SLP190 T00281017 400940028,0,0.0,0,16090.0,0,0,0,
2026-04-20 03:56:00,METAR KHPN 200356Z 31009KT 10SM CLR 04/M03 A3007 RMK AO2 SLP187 T00441028,0,9.0,0,16090.0,0,0,0,
2026-04-20 02:56:00,METAR KHPN 200256Z 30010KT 10SM CLR 06/M02 A3006 RMK AO2 SLP184 T00561017 51030,0,10.0,0,16090.0,0,0,0,
2026-04-20 01:56:00,METAR KHPN 200156Z 31013G22KT 10SM FEW075 06/M02 A3005 RMK AO2 SLP181 T00611017,0,13.0,1,16090.0,0,0,0,
2026-04-20 00:56:00,METAR KHPN 200056Z 33006KT 10SM BKN045 BKN055 BKN070 06/01 A3002 RMK AO2 SLP171 T00560006,0,6.0,0,16090.0,0,0,0,
2026-04-19 23:56:00,METAR KHPN 192356Z 00000KT 10SM BKN080 BKN095 06/03 A2997 RMK AO2 SLP153 60007 T00560028 10083 20044 51024,0,0.0,0,16090.0,0,0,0,
2026-04-19 22:56:00,METAR KHPN 192256Z 34008KT 10SM FEW021 BKN029 07/01 A2996 RMK AO2 SLP147 T00670011,0,8.0,0,16090.0,0,0,0,
2026-04-19 21:56:00,METAR KHPN 192156Z 34010KT 10SM FEW021 BKN029 07/03 A2993 RMK AO2 SLP137 T00720028,0,10.0,0,16090.0,0,0,0,
2026-04-19 20:56:00,METAR KHPN 192056Z 31010G24KT 10SM SCT016 BKN021 BKN026 07/03 A2990 RMK AO2 RAE19 SLP128 P0000 60007 T00670033 53012,0,10.0,1,16090.0,0,0,0,
2026-04-19 19:56:00,METAR KHPN 191956Z 33011KT 5SM -RA BR FEW012 BKN025 OVC033 04/03 A2987 RMK AO2 SLP119 P0003 T00440028,0,11.0,0,8045.0,0,0,1,"-RA,BR"
2026-04-19 18:56:00,METAR KHPN 191856Z 33011KT 2 1/2SM -RA BR FEW012 BKN033 OVC042 06/04 A2988 RMK AO2 SLP122 P0004 T00560039,0,11.0,0,4022.0,0,0,1,"-RA,BR"
2026-04-19 18:20:00,SPECI KHPN 191820Z 30012KT 2 1/2SM -RA BR OVC013 06/04 A2988 RMK AO2 PRESRR P0002 T00610044,0,12.0,0,4022.0,0,0,1,"-RA,BR"
2026-04-19 17:56:00,METAR KHPN 191756Z 29016G22KT 7SM -RA BKN015 OVC060 07/04 A2986 RMK AO2 PK WND 32028/1713 RAB39 SLP116 P0001 60003 T00670039 10094 20067 53016,0,16.0,1,11263.0,0,0,0,-RA
2026-04-19 16:56:00,METAR KHPN 191656Z 30015G23KT 10SM BKN020 OVC060 08/05 A2984 RMK AO2 SLP106 T00780050,0,15.0,1,16090.0,0,0,0,
2026-04-19 16:02:00,SPECI KHPN 191602Z 31011G20KT 10SM SCT008 BKN015 OVC055 09/07 A2983 RMK AO2 T00890072,0,11.0,1,16090.0,0,0,0,
2026-04-19 15:56:00,METAR KHPN 191556Z 31013G23KT 2 1/2SM BR FEW008 BKN015 OVC044 08/07 A2982 RMK AO2 RAE53 SLP101 P0001 T00830067,0,13.0,1,4022.0,0,0,1,BR
2026-04-19 15:51:00,SPECI KHPN 191551Z 32014G25KT 2 1/2SM -RA BR FEW008 BKN015 OVC044 09/07 A2982 RMK AO2 P0001,0,14.0,1,4022.0,0,0,1,"-RA,BR"
2026-04-19 14:56:00,METAR KHPN 191456Z 30016KT 1 1/4SM R16/5000VP6000FT -RA BR BKN008 OVC013 09/08 A2982 RMK AO2 RAB30 PRESRR SLP100 P0001 60001 T00890083 53021,0,16.0,0,2011.0,0,0,1,"-RA,BR"
2026-04-19 13:56:00,METAR KHPN 191356Z 31006KT 1 1/2SM BR OVC004 09/09 A2977 RMK AO2 DZE51 SLP083 P0000 T00940089,0,6.0,0,2414.0,0,0,1,BR
2026-04-19 12:56:00,METAR KHPN 191256Z 31008KT 1/4SM R16/4500V6000FT +DZ FG VV002 09/09 A2978 RMK AO2 RAB10E20DZB54 SLP086 P0000 T00890089,0,8.0,0,402.0,0,0,1,"DZ,FG,RA"
2026-04-19 11:56:00,METAR KHPN 191156Z 00000KT M1/4SM R16/2200V3000FT FG VV002 08/08 A2976 RMK AO2 SLP079 60000 T00830083 10089 20083 56013,0,0.0,0,402.0,0,0,1,FG
2026-04-19 10:56:00,METAR KHPN 191056Z 09003KT 1/4SM R16/3500V5000FT FG VV002 08/08 A2977 RMK AO2 SLP081 T00830083,0,3.0,0,402.0,0,0,1,FG
2026-04-19 09:56:00,METAR KHPN 190956Z 11006KT 1/4SM R16/3000V5000FT FG VV002 08/08 A2978 RMK AO2 RAB35E43 SLP085 P0000 T00830078,0,6.0,0,402.0,0,0,1,"FG,RA"
2026-04-19 08:56:00,METAR KHPN 190856Z 12008KT 1/2SM R16/2200V4500FT FG VV001 08/08 A2980 RMK AO2 SLP090 60000 T00830078 58030,0,8.0,0,804.0,0,0,1,FG
2026-04-19 07:56:00,METAR KHPN 190756Z 12007KT 1/2SM R16/4500VP6000FT FG VV001 08/08 A2983 RMK AO2 RAB00E12 SLP102 P0000 T00830078,0,7.0,0,804.0,0,0,1,"FG,RA"
2026-04-19 06:56:00,METAR KHPN 190656Z 13008KT 1/2SM R16/2600V5000FT FG VV001 08/08 A2985 RMK AO2 SLP110 T00830083,0,8.0,0,804.0,0,0,1,FG
2026-04-19 06:41:00,SPECI KHPN 190641Z 12006KT 1/2SM R16/2000V3000FT FG VV001 08/08 A2986 RMK AO2 PRESFR T00830083,0,6.0,0,804.0,0,0,1,FG
2026-04-19 06:21:00,SPECI KHPN 190621Z 14003KT 1/4SM R16/1400V2000FT FG VV001 08/08 A2989 RMK AO2 T00830083,0,3.0,0,402.0,0,0,1,FG
2026-04-19 05:56:00,METAR KHPN 190556Z 11007KT 1/4SM R16/1800V3000FT FG VV001 09/08 A2988 RMK AO2 SLP121 T00890083 10122 20083 58017,0,7.0,0,402.0,0,0,1,FG
2026-04-19 05:30:00,SPECI KHPN 190530Z 12008KT 1/4SM R16/2000V4000FT FG VV001 08/08 A2989 RMK AO2 T00830083,0,8.0,0,402.0,0,0,1,FG
2026-04-19 04:56:00,METAR KHPN 190456Z 12010KT 3/4SM R16/4500VP6000FT BR VV001 09/08 A2991 RMK AO2 SLP130 T00890083 401610089,0,10.0,0,1207.0,0,0,1,BR
2026-04-19 03:56:00,METAR KHPN 190356Z 12006KT 2 1/2SM BR VV001 09/09 A2993 RMK AO2 SLP136 T00890089,0,6.0,0,4022.0,0,0,1,BR
2026-04-19 03:35:00,SPECI KHPN 190335Z 14007KT 3SM BR VV002 09/09 A2993 RMK AO2 T00940089,0,7.0,0,4827.0,0,0,1,BR
2026-04-19 02:56:00,METAR KHPN 190256Z 12008KT 8SM OVC003 09/08 A2993 RMK AO2 SLP137 T00940083 58008,0,8.0,0,12872.0,0,0,0,
2026-04-19 01:56:00,METAR KHPN 190156Z 14010KT 10SM OVC005 10/09 A2994 RMK AO2 SLP141 T01000089,0,10.0,0,16090.0,0,0,0,
2026-04-19 01:44:00,SPECI KHPN 190144Z 15008KT 10SM BKN005 10/09 A2996 RMK AO2 T01000089,0,8.0,0,16090.0,0,0,0,
2026-04-19 00:56:00,METAR KHPN 190056Z 15010KT 10SM BKN010 11/09 A2997 RMK AO2 SLP150 T01110094,0,10.0,0,16090.0,0,0,0,
2026-04-18 23:56:00,METAR KHPN 182356Z 14011KT 10SM BKN016 12/09 A2996 RMK AO2 SLP145 T01220094 10161 20122 55010,0,11.0,0,16090.0,0,0,0,
2026-04-18 22:56:00,METAR KHPN 182256Z 11009G19KT 10SM BKN020 14/10 A2995 RMK AO2 SLP143 T01390100,0,9.0,1,16090.0,0,0,0,
2026-04-18 22:16:00,SPECI KHPN 182216Z 11008G18KT 10SM BKN022 15/10 A2996 RMK AO2 T01500100,0,8.0,1,16090.0,0,0,0,
2026-04-18 21:56:00,METAR KHPN 182156Z 09012G17KT 10SM FEW018 16/10 A2997 RMK AO2 SLP147 T01560100,0,12.0,1,16090.0,0,0,0,
2026-04-18 20:56:00,METAR KHPN 182056Z 08007KT 10SM FEW018 16/10 A2999 RMK AO2 SLP155 T01610100 56024,0,7.0,0,16090.0,0,0,0,
2026-04-18 19:56:00,METAR KHPN 181956Z 11011G21KT 10SM SCT018 16/10 A3001 RMK AO2 SLP161 T01560100,0,11.0,1,16090.0,0,0,0,
2026-04-18 18:56:00,METAR KHPN 181856Z 12013KT 10SM BKN013 15/10 A3004 RMK AO2 SLP173 T01500100,0,13.0,0,16090.0,0,0,0,
2026-04-18 17:56:00,METAR KHPN 181756Z 10013G21KT 10SM BKN013 14/09 A3006 RMK AO2 SLP179 T01440094 10150 20128 58006,0,13.0,1,16090.0,0,0,0,
2026-04-18 16:56:00,METAR KHPN 181656Z 13014KT 10SM BKN013 14/10 A3007 RMK AO2 SLP183 T01440100,0,14.0,0,16090.0,0,0,0,
2026-04-18 15:56:00,METAR KHPN 181556Z 11011G19KT 10SM BKN013 13/09 A3008 RMK AO2 SLP187 T01330094,0,11.0,1,16090.0,0,0,0,
2026-04-18 14:56:00,METAR KHPN 181456Z 10010KT 10SM SCT015 14/10 A3008 RMK AO2 SLP185 T01390100 50005,0,10.0,0,16090.0,0,0,0,
2026-04-18 13:56:00,METAR KHPN 181356Z 10011KT 10SM SCT015 14/09 A3008 RMK AO2 SLP185 T01390094,0,11.0,0,16090.0,0,0,0,
2026-04-18 12:56:00,METAR KHPN 181256Z 11012G19KT 10SM CLR 14/09 A3007 RMK AO2 SLP182 T01440094,0,12.0,1,16090.0,0,0,0,
2026-04-18 11:56:00,METAR KHPN 181156Z 07004KT 10SM CLR 14/09 A3006 RMK AO2 SLP179 70005 T01390094 10139 20094 53005,0,4.0,0,16090.0,0,0,0,
2026-04-18 10:56:00,METAR KHPN 181056Z 07003KT 10SM CLR 12/09 A3005 RMK AO2 SLP172 T01170094,0,3.0,0,16090.0,0,0,0,
2026-04-18 09:56:00,METAR KHPN 180956Z 06006KT 10SM CLR 11/11 A3004 RMK AO2 SLP171 T01110106,0,6.0,0,16090.0,0,0,0,
2026-04-18 08:56:00,METAR KHPN 180856Z 00000KT 7SM BCFG CLR 10/10 A3005 RMK AO2 SLP173 T01000100 53002,0,0.0,0,11263.0,0,0,1,"BC,FG"
2026-04-18 07:56:00,METAR KHPN 180756Z 00000KT 8SM CLR 11/11 A3004 RMK AO2 SLP171 T01110106,0,0.0,0,12872.0,0,0,0,
2026-04-18 06:56:00,METAR KHPN 180656Z 00000KT 10SM FEW048 12/11 A3003 RMK AO2 SLP168 T01170111,0,0.0,0,16090.0,0,0,0,
2026-04-18 05:56:00,METAR KHPN 180556Z 05004KT 10SM FEW030 12/11 A3004 RMK AO2 SLP171 T01220111 10167 20122 53010,0,4.0,0,16090.0,0,0,0,
2026-04-18 04:56:00,METAR KHPN 180456Z 09004KT 10SM FEW030 13/12 A3002 RMK AO2 SLP164 T01280117 402500128,0,4.0,0,16090.0,0,0,0,
2026-04-18 03:56:00,METAR KHPN 180356Z 08005KT 10SM CLR 14/12 A3001 RMK AO2 SLP159 T01390122,0,5.0,0,16090.0,0,0,0,
2026-04-18 02:56:00,METAR KHPN 180256Z 09007KT 10SM SCT013 14/13 A3001 RMK AO2 SLP159 T01440128 50016,0,7.0,0,16090.0,0,0,0,
2026-04-18 01:56:00,METAR KHPN 180156Z 08007KT 10SM SCT013 BKN046 16/13 A3001 RMK AO2 SLP160 T01560133,0,7.0,0,16090.0,0,0,0,
2026-04-18 00:56:00,METAR KHPN 180056Z 07008KT 10SM SCT055 16/13 A3000 RMK AO2 SLP155 T01560133,0,8.0,0,16090.0,0,0,0,
2026-04-17 23:56:00,METAR KHPN 172356Z 10009KT 10SM BKN055 17/14 A2996 RMK AO2 PK WND 09026/2333 SLP144 T01670139 10250 20167 53034,0,9.0,0,16090.0,0,0,0,
2026-04-17 22:56:00,METAR KHPN 172256Z VRB05KT 10SM SCT049 23/12 A2991 RMK AO2 SLP125 T02330117,0,5.0,0,16090.0,0,0,0,
2026-04-17 21:56:00,METAR KHPN 172156Z 34009KT 10SM SCT049 24/11 A2989 RMK AO2 SLP115 T02390111,0,9.0,0,16090.0,0,0,0,
2026-04-17 20:56:00,METAR KHPN 172056Z 30011KT 10SM SCT049 24/12 A2986 RMK AO2 SLP108 T02440117 53006,0,11.0,0,16090.0,0,0,0,
2026-04-17 19:56:00,METAR KHPN 171956Z 35011KT 10SM SCT049 SCT060 24/13 A2984 RMK AO2 LTG DSNT SW SLP101 T02440128,0,11.0,0,16090.0,0,0,0,DS
2026-04-17 18:56:00,METAR KHPN 171856Z 33007KT 10SM SCT049 BKN060 24/12 A2985 RMK AO2 LTG DSNT S SLP102 T02390122,0,7.0,0,16090.0,0,0,0,DS
2026-04-17 17:56:00,METAR KHPN 171756Z 34006KT 10SM FEW039 SCT060 BKN070 22/13 A2985 RMK AO2 RAE02 SLP102 P0000 60005 T02220133 10239 20189 58002,0,6.0,0,16090.0,0,0,0,
2026-04-17 16:56:00,METAR KHPN 171656Z 23003KT 10SM -RA FEW040 SCT049 BKN070 20/16 A2985 RMK AO2 RAB35 SLP105 P0005 T02000161,0,3.0,0,16090.0,0,0,0,-RA
2026-04-17 15:56:00,METAR KHPN 171556Z 01008KT 10SM FEW043 SCT050 BKN070 22/14 A2986 RMK AO2 SLP106 T02220139,0,8.0,0,16090.0,0,0,0,
2026-04-17 14:56:00,METAR KHPN 171456Z 36005KT 10SM BKN055 23/14 A2985 RMK AO2 SLP104 T02280139 50007,0,5.0,0,16090.0,0,0,0,
2026-04-17 13:56:00,METAR KHPN 171356Z 29004KT 10SM BKN022 22/15 A2985 RMK AO2 SLP104 T02170150,0,4.0,0,16090.0,0,0,0,
2026-04-17 12:56:00,METAR KHPN 171256Z 29005KT 10SM SCT022 20/15 A2983 RMK AO2 SLP098 T02000150,0,5.0,0,16090.0,0,0,0,
2026-04-17 11:56:00,METAR KHPN 171156Z 35007KT 10SM SCT043 19/16 A2983 RMK AO2 SLP097 60001 70001 T01890161 10200 20167 51025,0,7.0,0,16090.0,0,0,0,
2026-04-17 10:56:00,METAR KHPN 171056Z 27004KT 10SM SCT110 17/16 A2981 RMK AO2 SLP092 T01670156,0,4.0,0,16090.0,0,0,0,
2026-04-17 09:56:00,METAR KHPN 170956Z 00000KT 10SM FEW033 SCT110 18/16 A2978 RMK AO2 RAE52 SLP079 P0001 T01780161,0,0.0,0,16090.0,0,0,0,
2026-04-17 08:56:00,METAR KHPN 170856Z 33004KT 10SM -RA BKN110 19/16 A2976 RMK AO2 DZB17E31RAB31 SLP071 P0000 60000 T01890156 53006,0,4.0,0,16090.0,0,0,0,"-RA,DZ"
2026-04-17 07:56:00,METAR KHPN 170756Z 34003KT 10SM BKN120 19/16 A2973 RMK AO2 SLP060 T01890156,0,3.0,0,16090.0,0,0,0,
2026-04-17 06:56:00,METAR KHPN 170656Z 32006KT 10SM SCT090 19/16 A2974 RMK AO2 SLP066 T01890156,0,6.0,0,16090.0,0,0,0,
2026-04-17 05:56:00,METAR KHPN 170556Z 32015G24KT 10SM SCT090 20/14 A2974 RMK AO2 PK WND 30026/0504 SLP063 T02000144 10222 20172 50005,0,15.0,1,16090.0,0,0,0,
2026-04-17 04:56:00,METAR KHPN 170456Z 31015G24KT 10SM SCT085 BKN110 22/14 A2976 RMK AO2 LTG DSNT NW SLP070 T02220139 402940167,0,15.0,1,16090.0,0,0,0,DS
2026-04-17 03:56:00,METAR KHPN 170356Z 00000KT 10SM CLR 18/13 A2973 RMK AO2 SLP060 T01780128,0,0.0,0,16090.0,0,0,0,
2026-04-17 02:56:00,METAR KHPN 170256Z 14003KT 10SM CLR 19/12 A2972 RMK AO2 SLP059 T01890122 58004,0,3.0,0,16090.0,0,0,0,
2026-04-17 01:56:00,METAR KHPN 170156Z 15005KT 10SM CLR 20/12 A2973 RMK AO2 SLP063 T02000122,0,5.0,0,16090.0,0,0,0,
2026-04-17 00:56:00,METAR KHPN 170056Z 16003KT 10SM CLR 21/12 A2974 RMK AO2 SLP064 T02110117,0,3.0,0,16090.0,0,0,0,
2026-04-16 23:56:00,METAR KHPN 162356Z 16007KT 10SM FEW085 22/12 A2973 RMK AO2 SLP063 T02220122 10294 20217 58009,0,7.0,0,16090.0,0,0,0,
2026-04-16 22:56:00,METAR KHPN 162256Z 14006KT 10SM SCT085 23/14 A2975 RMK AO2 SLP068 T02330139,0,6.0,0,16090.0,0,0,0,
2026-04-16 21:56:00,METAR KHPN 162156Z VRB06KT 10SM SCT090 26/14 A2976 RMK AO2 SLP073 T02560144,0,6.0,0,16090.0,0,0,0,
2026-04-16 20:56:00,METAR KHPN 162056Z 17013G19KT 10SM FEW050 28/16 A2976 RMK AO2 SLP073 T02780156 56022,0,13.0,1,16090.0,0,0,0,
2026-04-16 19:56:00,METAR KHPN 161956Z 17010G18KT 10SM FEW050 29/16 A2978 RMK AO2 SLP077 T02890161,0,10.0,1,16090.0,0,0,0,
2026-04-16 18:56:00,METAR KHPN 161856Z 19009G22KT 160V230 10SM FEW030 SCT050 29/16 A2980 RMK AO2 SLP085 T02890156,0,9.0,1,16090.0,0,0,0,
2026-04-16 17:56:00,METAR KHPN 161756Z 17012G18KT 10SM FEW030 FEW050 29/16 A2983 RMK AO2 SLP094 T02890156 10289 20222 58021,0,12.0,1,16090.0,0,0,0,
2026-04-16 16:56:00,METAR KHPN 161656Z 17008G17KT 130V200 10SM FEW030 FEW050 28/16 A2986 RMK AO2 SLP103 T02780161,0,8.0,1,16090.0,0,0,0,
2026-04-16 15:56:00,METAR KHPN 161556Z 18007KT 10SM FEW030 SCT050 27/16 A2988 RMK AO2 SLP112 T02720156,0,7.0,0,16090.0,0,0,0,
2026-04-16 14:56:00,METAR KHPN 161456Z 20006KT 10SM CLR 27/16 A2989 RMK AO2 SLP115 T02670156 58003,0,6.0,0,16090.0,0,0,0,
2026-04-16 13:56:00,METAR KHPN 161356Z VRB04KT 10SM CLR 27/15 A2990 RMK AO2 SLP118 T02670150,0,4.0,0,16090.0,0,0,0,
2026-04-16 12:56:00,METAR KHPN 161256Z 31006KT 10SM CLR 24/16 A2990 RMK AO2 SLP119 T02440156,0,6.0,0,16090.0,0,0,0,
2026-04-16 11:56:00,METAR KHPN 161156Z 29005KT 10SM CLR 22/15 A2990 RMK AO2 SLP120 T02220150 10233 20167 53007,0,5.0,0,16090.0,0,0,0,
2026-04-16 10:56:00,METAR KHPN 161056Z 28004KT 10SM CLR 18/15 A2990 RMK AO2 SLP118 T01780150,0,4.0,0,16090.0,0,0,0,
2026-04-16 09:56:00,METAR KHPN 160956Z 00000KT 10SM FEW050 18/15 A2988 RMK AO2 SLP114 T01780150,0,0.0,0,16090.0,0,0,0,
2026-04-16 08:56:00,METAR KHPN 160856Z 00000KT 10SM CLR 18/14 A2988 RMK AO2 SLP112 T01830144 53007,0,0.0,0,16090.0,0,0,0,
2026-04-16 07:56:00,METAR KHPN 160756Z 00000KT 10SM CLR 20/15 A2988 RMK AO2 SLP113 T02000150,0,0.0,0,16090.0,0,0,0,
2026-04-16 06:56:00,METAR KHPN 160656Z 31004KT 10SM CLR 21/14 A2986 RMK AO2 PK WND 32030/0559 WSHFT 0545 SLP106 T02060144,0,4.0,0,16090.0,0,0,0,
2026-04-16 05:56:00,METAR KHPN 160556Z 32018G35KT 10SM FEW060 SCT080 BKN095 23/14 A2990 RMK AO2 PK WND 31035/0548 SLP118 T02330144 10250 20200 53007,0,18.0,1,16090.0,0,0,0,
2026-04-16 04:56:00,METAR KHPN 160456Z 15005KT 10SM SCT075 21/15 A2987 RMK AO2 SLP110 T02060150 403060144,0,5.0,0,16090.0,0,0,0,
2026-04-16 03:56:00,METAR KHPN 160356Z 00000KT 10SM SCT075 21/15 A2987 RMK AO2 SLP108 T02110150,0,0.0,0,16090.0,0,0,0,
2026-04-16 02:56:00,METAR KHPN 160256Z 00000KT 10SM FEW075 SCT090 23/15 A2988 RMK AO2 SLP112 T02280150 50010,0,0.0,0,16090.0,0,0,0,
2026-04-16 01:56:00,METAR KHPN 160156Z 18003KT 10SM SCT095 22/16 A2988 RMK AO2 LTG DSNT NE SLP112 T02220156,0,3.0,0,16090.0,0,0,0,DS
2026-04-16 00:56:00,METAR KHPN 160056Z 00000KT 10SM FEW100 24/15 A2987 RMK AO2 SLP108 T02390150,0,0.0,0,16090.0,0,0,0,
2026-04-15 23:56:00,METAR KHPN 152356Z 16003KT 10SM FEW070 SCT090 24/15 A2985 RMK AO2 SLP102 T02390150 10306 20239 51007,0,3.0,0,16090.0,0,0,0,
2026-04-15 22:56:00,METAR KHPN 152256Z 18007KT 10SM SCT070 27/15 A2984 RMK AO2 SLP099 T02670150,0,7.0,0,16090.0,0,0,0,
2026-04-15 21:56:00,METAR KHPN 152156Z 18005KT 10SM SCT070 27/16 A2985 RMK AO2 SLP101 T02670156,0,5.0,0,16090.0,0,0,0,
2026-04-15 20:56:00,METAR KHPN 152056Z VRB05G16KT 10SM SCT070 30/16 A2983 RMK AO2 SLP095 T03000156 58012,0,5.0,1,16090.0,0,0,0,
2026-04-15 19:56:00,METAR KHPN 151956Z 24009G18KT 10SM SCT055 29/16 A2983 RMK AO2 SLP096 T02940156,0,9.0,1,16090.0,0,0,0,
2026-04-15 18:56:00,METAR KHPN 151856Z 22007G17KT 190V250 10SM SCT055 29/16 A2986 RMK AO2 SLP105 T02890161,0,7.0,1,16090.0,0,0,0,
2026-04-15 17:56:00,METAR KHPN 151756Z 21010G16KT 10SM FEW049 28/16 A2986 RMK AO2 SLP106 T02830161 10283 20194 56025,0,10.0,1,16090.0,0,0,0,
2026-04-15 16:56:00,METAR KHPN 151656Z VRB04G17KT 10SM FEW060 27/16 A2988 RMK AO2 SLP112 T02720156,0,4.0,1,16090.0,0,0,0,
2026-04-15 15:56:00,METAR KHPN 151556Z 25009KT 10SM FEW060 27/16 A2991 RMK AO2 SLP121 T02670161,0,9.0,0,16090.0,0,0,0,
2026-04-15 14:56:00,METAR KHPN 151456Z 23007G14KT 10SM SCT060 24/16 A2994 RMK AO2 SLP132 T02440156 58000,0,7.0,1,16090.0,0,0,0,
2026-04-15 13:56:00,METAR KHPN 151356Z 27010G15KT 10SM SCT070 22/15 A2995 RMK AO2 SLP134 T02220150,0,10.0,1,16090.0,0,0,0,
2026-04-15 12:56:00,METAR KHPN 151256Z 27007KT 10SM SCT065 21/15 A2994 RMK AO2 SLP135 T02110150,0,7.0,0,16090.0,0,0,0,
2026-04-15 11:56:00,METAR KHPN 151156Z 25005KT 10SM FEW120 19/15 A2994 RMK AO2 SLP132 70002 T01940150 10200 20144 53017,0,5.0,0,16090.0,0,0,0,
2026-04-15 10:56:00,METAR KHPN 151056Z 00000KT 10SM FEW120 17/14 A2991 RMK AO2 SLP123 T01670144,0,0.0,0,16090.0,0,0,0,
2026-04-15 09:56:00,METAR KHPN 150956Z 26004KT 10SM SCT120 17/14 A2989 RMK AO2 SLP118 T01720144,0,4.0,0,16090.0,0,0,0,
2026-04-15 08:56:00,METAR KHPN 150856Z 00000KT 10SM SCT120 16/14 A2989 RMK AO2 SLP116 T01610144 56003,0,0.0,0,16090.0,0,0,0,
2026-04-15 07:56:00,METAR KHPN 150756Z 31004KT 10SM FEW120 17/14 A2989 RMK AO2 SLP116 T01720144,0,4.0,0,16090.0,0,0,0,
2026-04-15 06:56:00,METAR KHPN 150656Z 29003KT 10SM CLR 18/15 A2989 RMK AO2 SLP116 T01780150,0,3.0,0,16090.0,0,0,0,
2026-04-15 05:56:00,METAR KHPN 150556Z 28004KT 10SM FEW120 19/15 A2990 RMK AO2 SLP118 60002 T01940150 10272 20183 55006,0,4.0,0,16090.0,0,0,0,
2026-04-15 04:56:00,METAR KHPN 150456Z 28007KT 10SM SCT100 19/14 A2989 RMK AO2 SLP118 T01890144 402890111,0,7.0,0,16090.0,0,0,0,
2026-04-15 03:56:00,METAR KHPN 150356Z 31005KT 10SM FEW110 18/15 A2989 RMK AO2 RAE36 SLP116 P0001 T01830150,0,5.0,0,16090.0,0,0,0,
2026-04-15 02:56:00,METAR KHPN 150256Z 28010G20KT 10SM -RA SCT065 BKN080 BKN110 21/14 A2991 RMK AO2 PK WND 34031/0209 RAB36 SLP124 P0001 60001 T02060139 53034,0,10.0,1,16090.0,0,0,0,-RA
2026-04-15 01:56:00,METAR KHPN 150156Z 26008KT 10SM SCT100 26/13 A2986 RMK AO2 LTG DSNT N AND NW SLP106 T02610128,0,8.0,0,16090.0,0,0,0,DS
2026-04-15 00:56:00,METAR KHPN 150056Z 26007KT 10SM FEW075 26/13 A2985 RMK AO2 SLP101 T02610133,0,7.0,0,16090.0,0,0,0,
2026-04-14 23:56:00,METAR KHPN 142356Z VRB05KT 10SM FEW075 27/13 A2981 RMK AO2 SLP090 T02720133 10289 20244 55002,0,5.0,0,16090.0,0,0,0,
2026-04-14 22:56:00,METAR KHPN 142256Z 26014G19KT 10SM SCT100 27/13 A2981 RMK AO2 SLP090 T02720128,0,14.0,1,16090.0,0,0,0,
2026-04-14 21:56:00,METAR KHPN 142156Z VRB05KT 10SM FEW040 26/12 A2981 RMK AO2 SLP091 T02560122,0,5.0,0,16090.0,0,0,0,
2026-04-14 20:56:00,METAR KHPN 142056Z 18008G19KT 10SM FEW040 26/14 A2982 RMK AO2 PK WND 16026/2020 SLP095 T02560139 56030,0,8.0,1,16090.0,0,0,0,
2026-04-14 19:56:00,METAR KHPN 141956Z 18011G21KT 10SM FEW070 27/14 A2985 RMK AO2 SLP103 T02670139,0,11.0,1,16090.0,0,0,0,
2026-04-14 18:56:00,METAR KHPN 141856Z 25010G20KT 10SM SCT067 28/13 A2988 RMK AO2 SLP115 T02780128,0,10.0,1,16090.0,0,0,0,
2026-04-14 17:56:00,METAR KHPN 141756Z 21012G18KT 170V240 10SM SCT060 28/13 A2991 RMK AO2 SLP124 T02780133 10278 20183 57026,0,12.0,1,16090.0,0,0,0,
2026-04-14 16:56:00,METAR KHPN 141656Z 20007G17KT 170V230 10SM FEW060 27/14 A2993 RMK AO2 SLP131 T02720139,0,7.0,1,16090.0,0,0,0,
2026-04-14 15:56:00,METAR KHPN 141556Z VRB06KT 10SM FEW060 26/13 A2997 RMK AO2 SLP143 T02560133,0,6.0,0,16090.0,0,0,0,
2026-04-14 14:56:00,METAR KHPN 141456Z 18007KT 10SM CLR 24/15 A2999 RMK AO2 SLP150 T02440150 58002,0,7.0,0,16090.0,0,0,0,
2026-04-14 13:56:00,METAR KHPN 141356Z 00000KT 10SM FEW060 23/16 A3000 RMK AO2 SLP154 T02280156,0,0.0,0,16090.0,0,0,0,
2026-04-14 12:56:00,METAR KHPN 141256Z VRB04KT 10SM FEW060 21/14 A3001 RMK AO2 SLP157 T02060144,0,4.0,0,16090.0,0,0,0,
2026-04-14 11:56:00,METAR KHPN 141156Z 00000KT 10SM FEW060 19/15 A2999 RMK AO2 SLP154 70002 T01890150 10189 20111 53006,0,0.0,0,16090.0,0,0,0,
2026-04-14 10:56:00,METAR KHPN 141056Z 32005KT 10SM CLR 14/13 A2999 RMK AO2 SLP153 T01440133,0,5.0,0,16090.0,0,0,0,
2026-04-14 09:56:00,METAR KHPN 140956Z 33003KT 10SM CLR 13/13 A2997 RMK AO2 SLP147 T01330128,0,3.0,0,16090.0,0,0,0,
2026-04-14 08:56:00,METAR KHPN 140856Z 29005KT 8SM VCFG FEW100 12/12 A2998 RMK AO2 SLP148 T01220117 55001,0,5.0,0,12872.0,0,0,1,"FG,VC"
2026-04-14 07:56:00,METAR KHPN 140756Z 31004KT 10SM CLR 14/13 A2997 RMK AO2 SLP144 T01440133,0,4.0,0,16090.0,0,0,0,
2026-04-14 06:56:00,METAR KHPN 140656Z 31005KT 10SM VCFG CLR 14/13 A2997 RMK AO2 SLP144 T01390133,0,5.0,0,16090.0,0,0,1,"FG,VC"
2026-04-14 05:56:00,METAR KHPN 140556Z 30003KT 10SM VCFG FEW100 15/14 A2998 RMK AO2 SLP149 60002 T01500139 10222 20144 58002,0,3.0,0,16090.0,0,0,1,"FG,VC"
2026-04-14 04:56:00,METAR KHPN 140456Z 26003KT 10SM BCFG SCT100 16/14 A2999 RMK AO2 SLP151 T01610139 402610067,0,3.0,0,16090.0,0,0,1,"BC,FG"
2026-04-14 03:56:00,METAR KHPN 140356Z 00000KT 10SM BCFG SCT100 16/15 A2998 RMK AO2 RAE52 SLP150 P0000 T01610150,0,0.0,0,16090.0,0,0,1,"BC,FG"
2026-04-14 02:56:00,METAR KHPN 140256Z 24004KT 10SM -RA SCT080 BKN100 18/16 A2999 RMK AO2 DZE16RAB16 SLP152 P0002 60002 T01780156 51019,0,4.0,0,16090.0,0,0,0,"-RA,DZ"
2026-04-14 01:56:00,METAR KHPN 140156Z VRB05KT 10SM -DZ BKN070 BKN090 20/14 A2998 RMK AO2 DZB43 SLP152 P0000 T02000144,0,5.0,0,16090.0,0,0,0,DZ
2026-04-14 00:56:00,METAR KHPN 140056Z 00000KT 10SM FEW120 19/13 A2995 RMK AO2 RAE56 SLP139 P0000 T01940133,0,0.0,0,16090.0,0,0,0,
2026-04-13 23:56:00,METAR KHPN 132356Z 34004KT 10SM -RA SCT065 SCT080 21/14 A2993 RMK AO2 DZB37E41RAB41 SLP133 P0000 60000 T02110144 10261 20206 53011,0,4.0,0,16090.0,0,0,0,"-RA,DZ"
2026-04-13 22:56:00,METAR KHPN 132256Z 25007KT 10SM FEW040 26/11 A2990 RMK AO2 SLP121 T02560111,0,7.0,0,16090.0,0,0,0,
2026-04-13 21:56:00,METAR KHPN 132156Z 26009G16KT 240V300 10SM FEW040 26/12 A2989 RMK AO2 SLP120 T02610117,0,9.0,1,16090.0,0,0,0,
2026-04-13 20:56:00,METAR KHPN 132056Z 24011G23KT 210V270 10SM FEW040 26/12 A2990 RMK AO2 PK WND 26028/2032 SLP121 60000 T02560117 56026,0,11.0,1,16090.0,0,0,0,
2026-04-13 19:56:00,METAR KHPN 131956Z 21007G20KT 190V260 10SM FEW027 SCT100 25/12 A2990 RMK AO2 RAE08 SLP125 P0000 T02500122,0,7.0,1,16090.0,0,0,0,
2026-04-13 18:56:00,METAR KHPN 131856Z 22008KT 10SM -RA FEW027 SCT100 23/14 A2994 RMK AO2 RAB09 SLP136 P0000 T02280139,0,8.0,0,16090.0,0,0,0,-RA
2026-04-13 17:56:00,METAR KHPN 131756Z 26009G15KT 10SM BKN100 22/13 A2997 RMK AO2 SLP148 T02220128 10222 20100 56028,0,9.0,1,16090.0,0,0,0,
2026-04-13 16:56:00,METAR KHPN 131656Z 21010G20KT 10SM SCT014 20/12 A3000 RMK AO2 SLP158 T02000122,0,10.0,1,16090.0,0,0,0,
2026-04-13 15:56:00,METAR KHPN 131556Z 20008G19KT 10SM SCT014 18/12 A3002 RMK AO2 SLP167 T01780117,0,8.0,1,16090.0,0,0,0,
2026-04-13 15:23:00,SPECI KHPN 131523Z 20008KT 10SM SCT014 17/12 A3004 RMK AO2 T01670122,0,8.0,0,16090.0,0,0,0,
2026-04-13 14:56:00,METAR KHPN 131456Z 23008G15KT 10SM OVC011 15/11 A3006 RMK AO2 SLP179 T01500111 58029,0,8.0,1,16090.0,0,0,0,
2026-04-13 13:56:00,METAR KHPN 131356Z 18005KT 8SM OVC010 12/09 A3009 RMK AO2 SLP191 T01220089,0,5.0,0,12872.0,0,0,0,
2026-04-13 12:56:00,METAR KHPN 131256Z 17003KT 10SM OVC010 11/08 A3012 RMK AO2 SLP203 T01060083,0,3.0,0,16090.0,0,0,0,
2026-04-13 11:56:00,METAR KHPN 131156Z 00000KT 10SM OVC012 10/07 A3014 RMK AO2 SLP210 T01000072 10100 20067 56013,0,0.0,0,16090.0,0,0,0,
2026-04-13 10:56:00,METAR KHPN 131056Z 00000KT 10SM OVC015 09/07 A3015 RMK AO2 SLP214 T00890067,0,0.0,0,16090.0,0,0,0,
2026-04-13 09:56:00,METAR KHPN 130956Z 17005KT 10SM BKN020 08/06 A3016 RMK AO2 SLP216 T00830056,0,5.0,0,16090.0,0,0,0,
2026-04-13 08:56:00,METAR KHPN 130856Z 15004KT 10SM BKN025 07/04 A3018 RMK AO2 SLP223 T00720044 56024,0,4.0,0,16090.0,0,0,0,
2026-04-13 07:56:00,METAR KHPN 130756Z 14003KT 10SM FEW028 07/04 A3020 RMK AO2 SLP229 T00720039,0,3.0,0,16090.0,0,0,0,
2026-04-13 06:56:00,METAR KHPN 130656Z 15004KT 10SM SCT120 07/03 A3022 RMK AO2 SLP236 T00720033,0,4.0,0,16090.0,0,0,0,
2026-04-13 05:56:00,METAR KHPN 130556Z 16006KT 10SM SCT120 08/03 A3025 RMK AO2 SLP247 T00780033 10078 20067 58024,0,6.0,0,16090.0,0,0,0,
2026-04-13 04:56:00,METAR KHPN 130456Z VRB03KT 10SM BKN120 08/04 A3029 RMK AO2 SLP258 T00780039 401280017,0,3.0,0,16090.0,0,0,0,
2026-04-13 03:56:00,METAR KHPN 130356Z 17004KT 10SM BKN120 08/03 A3030 RMK AO2 SLP263 T00780033,0,4.0,0,16090.0,0,0,0,
2026-04-13 02:56:00,METAR KHPN 130256Z 15006KT 10SM FEW110 07/04 A3032 RMK AO2 SLP272 T00720039 58013,0,6.0,0,16090.0,0,0,0,
2026-04-13 01:56:00,METAR KHPN 130156Z 15009KT 10SM CLR 07/04 A3034 RMK AO2 SLP278 T00720039,0,9.0,0,16090.0,0,0,0,
2026-04-13 00:56:00,METAR KHPN 130056Z 16007KT 10SM FEW100 07/03 A3036 RMK AO2 SLP286 T00720028,0,7.0,0,16090.0,0,0,0,
2026-04-12 23:56:00,METAR KHPN 122356Z 16007KT 10SM SCT100 07/02 A3036 RMK AO2 SLP286 T00720017 10128 20072 56009,0,7.0,0,16090.0,0,0,0,
2026-04-12 22:56:00,METAR KHPN 122256Z 14010KT 10SM SCT120 08/01 A3037 RMK AO2 SLP291 T00830006,0,10.0,0,16090.0,0,0,0,
2026-04-12 21:56:00,METAR KHPN 122156Z 17010G18KT 10SM SCT120 09/M02 A3038 RMK AO2 SLP292 T00891022,0,10.0,1,16090.0,0,0,0,
2026-04-12 20:56:00,METAR KHPN 122056Z 17011G17KT 10SM CLR 11/M04 A3039 RMK AO2 SLP296 T01061039 56021,0,11.0,1,16090.0,0,0,0,
2026-04-12 19:56:00,METAR KHPN 121956Z 16013G20KT 10SM CLR 11/M02 A3040 RMK AO2 SLP300 T01111022,0,13.0,1,16090.0,0,0,0,
2026-04-12 18:56:00,METAR KHPN 121856Z 16010G19KT 10SM CLR 11/M02 A3043 RMK AO2 SLP307 T01111017,0,10.0,1,16090.0,0,0,0,
2026-04-12 17:56:00,METAR KHPN 121756Z 19009KT 10SM CLR 12/M01 A3045 RMK AO2 SLP316 T01171011 10122 20061 56024,0,9.0,0,16090.0,0,0,0,
2026-04-12 16:56:00,METAR KHPN 121656Z VRB06G17KT 10SM CLR 12/M01 A3048 RMK AO2 SLP322 T01171011,0,6.0,1,16090.0,0,0,0,
2026-04-12 15:56:00,METAR KHPN 121556Z 19009G15KT 10SM CLR 11/M02 A3050 RMK AO2 SLP330 T01061017,0,9.0,1,16090.0,0,0,0,
2026-04-12 14:56:00,METAR KHPN 121456Z 16007KT 10SM CLR 09/M04 A3052 RMK AO2 SLP340 T00941044 50003,0,7.0,0,16090.0,0,0,0,
2026-04-12 13:56:00,METAR KHPN 121356Z 15009G16KT 10SM CLR 09/M05 A3053 RMK AO2 SLP339 T00891050,0,9.0,1,16090.0,0,0,0,
2026-04-12 12:56:00,METAR KHPN 121256Z 12008KT 10SM CLR 07/M05 A3051 RMK AO2 SLP336 T00721050,0,8.0,0,16090.0,0,0,0,
2026-04-12 11:56:00,METAR KHPN 121156Z 04004KT 10SM CLR 06/M04 A3051 RMK AO2 SLP336 T00561039 10061 20017 53018,0,4.0,0,16090.0,0,0,0,
2026-04-12 10:56:00,METAR KHPN 121056Z 33004KT 10SM CLR 02/M04 A3049 RMK AO2 SLP329 T00221039,0,4.0,0,16090.0,0,0,0,
2026-04-12 09:56:00,METAR KHPN 120956Z 33003KT 10SM CLR 02/M04 A3047 RMK AO2 SLP322 T00221039,0,3.0,0,16090.0,0,0,0,
2026-04-12 08:56:00,METAR KHPN 120856Z 33005KT 10SM CLR 03/M04 A3046 RMK AO2 SLP318 T00281039 53018,0,5.0,0,16090.0,0,0,0,
2026-04-12 07:56:00,METAR KHPN 120756Z 32005KT 10SM CLR 03/M04 A3043 RMK AO2 SLP309 T00331039,0,5.0,0,16090.0,0,0,0,
2026-04-12 06:56:00,METAR KHPN 120656Z 01006KT 10SM CLR 05/M04 A3041 RMK AO2 SLP301 T00501044,0,6.0,0,16090.0,0,0,0,
2026-04-12 05:56:00,METAR KHPN 120556Z 01009KT 10SM CLR 06/M04 A3040 RMK AO2 SLP298 T00561039 10122 20056 51009,0,9.0,0,16090.0,0,0,0,
2026-04-12 04:56:00,METAR KHPN 120456Z 02007KT 10SM CLR 07/M04 A3040 RMK AO2 SLP298 T00671039 401610061,0,7.0,0,16090.0,0,0,0,
2026-04-12 03:56:00,METAR KHPN 120356Z 02005KT 10SM CLR 08/M04 A3039 RMK AO2 SLP294 T00781039,0,5.0,0,16090.0,0,0,0,
2026-04-12 02:56:00,METAR KHPN 120256Z 02006KT 10SM CLR 08/M04 A3038 RMK AO2 SLP289 T00831039 51029,0,6.0,0,16090.0,0,0,0,
2026-04-12 01:56:00,METAR KHPN 120156Z 02006KT 10SM CLR 09/M04 A3036 RMK AO2 SLP283 T00941039,0,6.0,0,16090.0,0,0,0,
2026-04-12 00:56:00,METAR KHPN 120056Z 33008KT 10SM CLR 10/M04 A3033 RMK AO2 SLP271 T01001039,0,8.0,0,16090.0,0,0,0,
2026-04-11 23:56:00,METAR KHPN 112356Z 32010KT 10SM CLR 12/M04 A3029 RMK AO2 SLP259 T01221044 10161 20122 53022,0,10.0,0,16090.0,0,0,0,
2026-04-11 22:56:00,METAR KHPN 112256Z 32012KT 10SM CLR 14/M04 A3026 RMK AO2 SLP248 T01391044,0,12.0,0,16090.0,0,0,0,
2026-04-11 21:56:00,METAR KHPN 112156Z 31010G20KT 10SM CLR 14/M04 A3024 RMK AO2 SLP241 T01441039,0,10.0,1,16090.0,0,0,0,
2026-04-11 20:56:00,METAR KHPN 112056Z 29017G23KT 10SM CLR 15/M04 A3022 RMK AO2 SLP236 T01501044 55000,0,17.0,1,16090.0,0,0,0,
2026-04-11 19:56:00,METAR KHPN 111956Z 29015G22KT 10SM CLR 16/M03 A3021 RMK AO2 SLP232 T01561028,0,15.0,1,16090.0,0,0,0,
2026-04-11 18:56:00,METAR KHPN 111856Z 29016G23KT 10SM CLR 16/M01 A3022 RMK AO2 SLP233 T01561011,0,16.0,1,16090.0,0,0,0,
2026-04-11 17:56:00,METAR KHPN 111756Z 29015G20KT 10SM FEW030 14/M01 A3023 RMK AO2 SLP236 T01441011 10144 20106 58002,0,15.0,1,16090.0,0,0,0,
2026-04-11 16:56:00,METAR KHPN 111656Z 33013G21KT 10SM FEW030 14/00 A3023 RMK AO2 PK WND 31026/1558 SLP237 T01440000,0,13.0,1,16090.0,0,0,0,
2026-04-11 15:56:00,METAR KHPN 111556Z 32015G26KT 10SM FEW030 13/M02 A3024 RMK AO2 PK WND 31026/1550 SLP240 T01281017,0,15.0,1,16090.0,0,0,0,
2026-04-11 14:56:00,METAR KHPN 111456Z 32018G27KT 10SM FEW030 12/M01 A3023 RMK AO2 PK WND 32027/1451 SLP239 T01221011 51018,0,18.0,1,16090.0,0,0,0,
2026-04-11 13:56:00,METAR KHPN 111356Z 31016G23KT 10SM FEW030 12/01 A3021 RMK AO2 SLP233 T01170011,0,16.0,1,16090.0,0,0,0,
2026-04-11 12:56:00,METAR KHPN 111256Z 32009G18KT 10SM FEW030 11/03 A3020 RMK AO2 SLP229 T01110028,0,9.0,1,16090.0,0,0,0,
2026-04-11 11:56:00,METAR KHPN 111156Z 32011KT 10SM SCT030 11/04 A3018 RMK AO2 SLP221 60000 T01060039 10117 20078 51033,0,11.0,0,16090.0,0,0,0,
2026-04-11 10:56:00,METAR KHPN 111056Z 31012G23KT 10SM SCT029 11/06 A3015 RMK AO2 SLP212 T01060056,0,12.0,1,16090.0,0,0,0,
2026-04-11 09:56:00,METAR KHPN 110956Z 32014KT 10SM FEW030 12/07 A3011 RMK AO2 SLP196 T01170067,0,14.0,0,16090.0,0,0,0,
2026-04-11 08:56:00,METAR KHPN 110856Z 30006KT 10SM FEW030 08/06 A3008 RMK AO2 SLP186 60000 T00830061 53001,0,6.0,0,16090.0,0,0,0,
2026-04-11 07:56:00,METAR KHPN 110756Z 30003KT 8SM FEW030 08/06 A3006 RMK AO2 SLP181 T00830061,0,3.0,0,12872.0,0,0,0,
2026-04-11 06:56:00,METAR KHPN 110656Z 00000KT 7SM BKN100 09/07 A3006 RMK AO2 DZB08E52 SLP178 P0000 T00940067,0,0.0,0,11263.0,0,0,0,DZ
2026-04-11 05:56:00,METAR KHPN 110556Z 00000KT 6SM BR BKN110 09/07 A3007 RMK AO2 DZE52 SLP184 P0000 60000 T00940067 10100 20083 56025,0,0.0,0,9654.0,0,0,1,BR
2026-04-11 04:56:00,METAR KHPN 110456Z 00000KT 5SM -DZ OVC085 09/06 A3011 RMK AO2 RAB34E49DZB49 SLP197 P0000 T00890056 401670017,0,0.0,0,8045.0,0,0,0,"DZ,RA"
2026-04-11 03:56:00,METAR KHPN 110356Z 15006KT 6SM HZ BKN120 09/06 A3011 RMK AO2 SLP197 T00890056,0,6.0,0,9654.0,0,0,0,
2026-04-11 02:56:00,METAR KHPN 110256Z 33006KT 6SM HZ OVC110 09/05 A3015 RMK AO2 SLP211 T00890050 53007,0,6.0,0,9654.0,0,0,0,
2026-04-11 01:56:00,METAR KHPN 110156Z 18005KT 10SM BKN120 08/05 A3013 RMK AO2 SLP204 T00830050,0,5.0,0,16090.0,0,0,0,
2026-04-11 00:56:00,METAR KHPN 110056Z 17007KT 10SM FEW120 08/04 A3013 RMK AO2 SLP206 T00830039,0,7.0,0,16090.0,0,0,0,
2026-04-10 23:56:00,METAR KHPN 102356Z 18007KT 10SM CLR 09/03 A3013 RMK AO2 SLP207 T00940033 10167 20094 58009,0,7.0,0,16090.0,0,0,0,
2026-04-10 22:56:00,METAR KHPN 102256Z 17008KT 10SM CLR 11/03 A3015 RMK AO2 SLP212 T01060033,0,8.0,0,16090.0,0,0,0,
2026-04-10 21:56:00,METAR KHPN 102156Z 18011G18KT 10SM CLR 13/03 A3015 RMK AO2 SLP214 T01280033,0,11.0,1,16090.0,0,0,0,
2026-04-10 20:56:00,METAR KHPN 102056Z 19008G18KT 10SM CLR 14/04 A3016 RMK AO2 SLP215 T01440044 56027,0,8.0,1,16090.0,0,0,0,
2026-04-10 19:56:00,METAR KHPN 101956Z 17010KT 10SM CLR 16/04 A3018 RMK AO2 SLP221 T01560044,0,10.0,0,16090.0,0,0,0,
2026-04-10 18:56:00,METAR KHPN 101856Z 18008KT 10SM CLR 16/04 A3021 RMK AO2 SLP232 T01610044,0,8.0,0,16090.0,0,0,0,
2026-04-10 17:56:00,METAR KHPN 101756Z 16007KT 10SM CLR 16/04 A3024 RMK AO2 SLP241 T01560044 10156 20050 58028,0,7.0,0,16090.0,0,0,0,
2026-04-10 16:56:00,METAR KHPN 101656Z 16009G14KT 9SM CLR 14/04 A3027 RMK AO2 SLP251 T01440044,0,9.0,1,14481.0,0,0,0,
2026-04-10 15:56:00,METAR KHPN 101556Z 18007KT 9SM CLR 13/04 A3029 RMK AO2 SLP261 T01330044,0,7.0,0,14481.0,0,0,0,
2026-04-10 14:56:00,METAR KHPN 101456Z 22008KT 10SM CLR 11/04 A3032 RMK AO2 SLP270 T01110039 56017,0,8.0,0,16090.0,0,0,0,
2026-04-10 13:56:00,METAR KHPN 101356Z 18005KT 9SM CLR 09/04 A3033 RMK AO2 SLP275 T00940039,0,5.0,0,14481.0,0,0,0,
2026-04-10 12:56:00,METAR KHPN 101256Z VRB05KT 7SM CLR 07/03 A3035 RMK AO2 SLP282 T00670028,0,5.0,0,11263.0,0,0,0,
2026-04-10 11:56:00,METAR KHPN 101156Z 28005KT 5SM BR CLR 05/03 A3037 RMK AO2 SLP289 T00500028 10050 20017 53000,0,5.0,0,8045.0,0,0,1,BR
2026-04-10 10:56:00,METAR KHPN 101056Z 00000KT 6SM BR CLR 02/01 A3036 RMK AO2 SLP287 T00220011,0,0.0,0,9654.0,0,0,1,BR
2026-04-10 09:56:00,METAR KHPN 100956Z 00000KT 8SM CLR 03/02 A3036 RMK AO2 SLP286 T00280017,0,0.0,0,12872.0,0,0,0,
2026-04-10 08:56:00,METAR KHPN 100856Z 00000KT 7SM CLR 02/02 A3037 RMK AO2 SLP288 T00220017 56016,0,0.0,0,11263.0,0,0,0,
2026-04-10 08:23:00,SPECI KHPN 100823Z 00000KT 9SM SCT010 02/02 A3037 RMK AO2 T00220017,0,0.0,0,14481.0,0,0,0,
2026-04-10 07:56:00,METAR KHPN 100756Z 00000KT 10SM BKN011 03/02 A3037 RMK AO2 SLP290 T00330022,0,0.0,0,16090.0,0,0,0,
2026-04-10 06:56:00,METAR KHPN 100656Z 00000KT 10SM BKN011 03/02 A3039 RMK AO2 SLP295 T00330017,0,0.0,0,16090.0,0,0,0,
2026-04-10 05:56:00,METAR KHPN 100556Z 13003KT 10SM BKN012 04/02 A3042 RMK AO2 SLP305 T00390022 10056 20028 58010,0,3.0,0,16090.0,0,0,0,
2026-04-10 04:56:00,METAR KHPN 100456Z 00000KT 10SM BKN012 04/02 A3045 RMK AO2 SLP315 T00440022 401061022,0,0.0,0,16090.0,0,0,0,
2026-04-10 03:56:00,METAR KHPN 100356Z 18003KT 10SM BKN011 04/02 A3045 RMK AO2 SLP315 T00440022,0,3.0,0,16090.0,0,0,0,
2026-04-10 02:56:00,METAR KHPN 100256Z 15010KT 10SM BKN010 04/02 A3045 RMK AO2 SLP315 T00440022 58003,0,10.0,0,16090.0,0,0,0,
2026-04-10 02:14:00,SPECI KHPN 100214Z 16005KT 10SM BKN012 04/02 A3046 RMK AO2 T00390017,0,5.0,0,16090.0,0,0,0,
2026-04-10 01:56:00,METAR KHPN 100156Z 15005KT 10SM FEW010 03/01 A3046 RMK AO2 SLP321 T00280011,0,5.0,0,16090.0,0,0,0,
2026-04-10 00:56:00,METAR KHPN 100056Z 16007KT 10SM CLR 04/01 A3046 RMK AO2 SLP321 T00440011,0,7.0,0,16090.0,0,0,0,
2026-04-09 23:56:00,METAR KHPN 092356Z 16006KT 10SM CLR 06/01 A3046 RMK AO2 SLP319 T00560006 10106 20056 56007,0,6.0,0,16090.0,0,0,0,
2026-04-09 22:56:00,METAR KHPN 092256Z 16010KT 10SM CLR 07/00 A3046 RMK AO2 SLP321 T00720000,0,10.0,0,16090.0,0,0,0,
2026-04-09 21:56:00,METAR KHPN 092156Z 14010KT 10SM CLR 08/M01 A3047 RMK AO2 SLP324 T00831006,0,10.0,0,16090.0,0,0,0,
2026-04-09 20:56:00,METAR KHPN 092056Z 15012G19KT 10SM CLR 09/M01 A3048 RMK AO2 SLP326 T00941006 58020,0,12.0,1,16090.0,0,0,0,
2026-04-09 19:56:00,METAR KHPN 091956Z 18009KT 10SM CLR 09/M01 A3050 RMK AO2 SLP333 T00941006,0,9.0,0,16090.0,0,0,0,
2026-04-09 18:56:00,METAR KHPN 091856Z 15008G14KT 10SM CLR 10/M01 A3052 RMK AO2 SLP340 T01001006,0,8.0,1,16090.0,0,0,0,
2026-04-09 17:56:00,METAR KHPN 091756Z 16009G17KT 10SM CLR 10/00 A3054 RMK AO2 SLP347 T01000000 10100 20017 58014,0,9.0,1,16090.0,0,0,0,
2026-04-09 16:56:00,METAR KHPN 091656Z 19013KT 10SM CLR 09/M01 A3055 RMK AO2 SLP351 T00891011,0,13.0,0,16090.0,0,0,0,
2026-04-09 15:56:00,METAR KHPN 091556Z 16008G18KT 130V200 10SM CLR 08/M01 A3057 RMK AO2 SLP358 T00831011,0,8.0,1,16090.0,0,0,0,
2026-04-09 14:56:00,METAR KHPN 091456Z 14007KT 10SM CLR 07/M01 A3058 RMK AO2 SLP361 T00721011 58008,0,7.0,0,16090.0,0,0,0,
2026-04-09 13:56:00,METAR KHPN 091356Z 16006KT 10SM FEW016 05/M01 A3060 RMK AO2 SLP368 T00501006,0,6.0,0,16090.0,0,0,0,
2026-04-09 13:25:00,SPECI KHPN 091325Z 15007KT 10SM SCT015 04/M01 A3060 RMK AO2 T00441006,0,7.0,0,16090.0,0,0,0,
2026-04-09 12:56:00,METAR KHPN 091256Z 17008KT 10SM BKN015 03/00 A3060 RMK AO2 SLP370 T00330000,0,8.0,0,16090.0,0,0,0,
2026-04-09 12:52:00,SPECI KHPN 091252Z 18008KT 10SM BKN015 03/M01 A3060 RMK AO2,0,8.0,0,16090.0,0,0,0,
2026-04-09 11:56:00,METAR KHPN 091156Z 11003KT 10SM BKN014 02/M02 A3060 RMK AO2 SLP369 T00171017 10017 21022 53008,0,3.0,0,16090.0,0,0,0,
2026-04-09 11:27:00,SPECI KHPN 091127Z 00000KT 10SM BKN014 M01/M02 A3060 RMK AO2 T10061022,0,0.0,0,16090.0,0,0,0,
2026-04-09 10:56:00,METAR KHPN 091056Z 00000KT 9SM CLR M02/M03 A3059 RMK AO2 SLP367 T10171028,0,0.0,0,14481.0,0,0,0,
2026-04-09 09:56:00,METAR KHPN 090956Z 30003KT 10SM CLR M02/M03 A3058 RMK AO2 SLP362 T10171028,0,3.0,0,16090.0,0,0,0,
2026-04-09 08:56:00,METAR KHPN 090856Z 00000KT 10SM CLR M01/M03 A3057 RMK AO2 SLP359 T10111028 55001,0,0.0,0,16090.0,0,0,0,
2026-04-09 07:56:00,METAR KHPN 090756Z 00000KT 10SM CLR M01/M03 A3057 RMK AO2 SLP359 T10111028,0,0.0,0,16090.0,0,0,0,
2026-04-09 06:56:00,METAR KHPN 090656Z 00000KT 10SM CLR M01/M02 A3056 RMK AO2 SLP357 T10061022,0,0.0,0,16090.0,0,0,0,
2026-04-09 05:56:00,METAR KHPN 090556Z 00000KT 10SM CLR M01/M03 A3058 RMK AO2 SLP362 T10061028 10028 21011 58005,0,0.0,0,16090.0,0,0,0,
2026-04-09 04:56:00,METAR KHPN 090456Z 00000KT 10SM CLR 00/M03 A3060 RMK AO2 SLP368 T00001028 400831033,0,0.0,0,16090.0,0,0,0,
2026-04-09 03:56:00,METAR KHPN 090356Z 00000KT 10SM CLR 00/M03 A3060 RMK AO2 SLP369 T00001033,0,0.0,0,16090.0,0,0,0,
2026-04-09 02:56:00,METAR KHPN 090256Z 00000KT 10SM CLR 00/M04 A3059 RMK AO2 SLP367 T00001039 51013,0,0.0,0,16090.0,0,0,0,
2026-04-09 01:56:00,METAR KHPN 090156Z 00000KT 10SM CLR 01/M04 A3058 RMK AO2 SLP365 T00111039,0,0.0,0,16090.0,0,0,0,
2026-04-09 00:56:00,METAR KHPN 090056Z 16004KT 10SM CLR 01/M04 A3057 RMK AO2 SLP362 T00111044,0,4.0,0,16090.0,0,0,0,
2026-04-08 23:56:00,METAR KHPN 082356Z 16004KT 10SM CLR 03/M04 A3056 RMK AO2 SLP355 T00281044 10083 20028 51005,0,4.0,0,16090.0,0,0,0,
2026-04-08 22:56:00,METAR KHPN 082256Z 18009KT 10SM CLR 05/M04 A3056 RMK AO2 SLP355 T00501044,0,9.0,0,16090.0,0,0,0,
2026-04-08 21:56:00,METAR KHPN 082156Z 17012KT 10SM CLR 07/M08 A3055 RMK AO2 SLP353 T00721083,0,12.0,0,16090.0,0,0,0,
2026-04-08 20:56:00,METAR KHPN 082056Z VRB04KT 10SM CLR 08/M10 A3054 RMK AO2 SLP349 T00831100 56010,0,4.0,0,16090.0,0,0,0,
2026-04-08 19:56:00,METAR KHPN 081956Z VRB06G15KT 10SM CLR 08/M09 A3055 RMK AO2 SLP351 T00781089,0,6.0,1,16090.0,0,0,0,
2026-04-08 18:56:00,METAR KHPN 081856Z 16007G15KT 10SM CLR 07/M08 A3056 RMK AO2 SLP356 T00721083,0,7.0,1,16090.0,0,0,0,
2026-04-08 17:56:00,METAR KHPN 081756Z 12004KT 10SM CLR 06/M09 A3057 RMK AO2 SLP359 T00611089 10072 21011 58014,0,4.0,0,16090.0,0,0,0,
2026-04-08 16:56:00,METAR KHPN 081656Z 14008KT 10SM CLR 06/M08 A3058 RMK AO2 SLP364 T00561083,0,8.0,0,16090.0,0,0,0,
2026-04-08 15:56:00,METAR KHPN 081556Z VRB05KT 10SM CLR 06/M11 A3060 RMK AO2 SLP369 T00561111,0,5.0,0,16090.0,0,0,0,
2026-04-08 14:56:00,METAR KHPN 081456Z 04004KT 10SM CLR 04/M12 A3061 RMK AO2 SLP374 T00391117 51005,0,4.0,0,16090.0,0,0,0,
2026-04-08 13:56:00,METAR KHPN 081356Z 03007KT 10SM CLR 02/M11 A3061 RMK AO2 SLP374 T00221111,0,7.0,0,16090.0,0,0,0,
2026-04-08 12:56:00,METAR KHPN 081256Z 03008KT 10SM CLR 00/M10 A3060 RMK AO2 SLP371 T00001100,0,8.0,0,16090.0,0,0,0,
2026-04-08 11:56:00,METAR KHPN 081156Z 01014G22KT 10SM CLR M01/M10 A3060 RMK AO2 SLP369 T10111100 11011 21033 53024,0,14.0,1,16090.0,0,0,0,
2026-04-08 10:56:00,METAR KHPN 081056Z 01010KT 10SM CLR M03/M11 A3056 RMK AO2 SLP356 T10281106,0,10.0,0,16090.0,0,0,0,
2026-04-08 09:56:00,METAR KHPN 080956Z 35012KT 10SM CLR M03/M11 A3054 RMK AO2 SLP350 T10281106,0,12.0,0,16090.0,0,0,0,
2026-04-08 08:56:00,METAR KHPN 080856Z 34008KT 10SM CLR M03/M11 A3052 RMK AO2 SLP343 T10281106 53013,0,8.0,0,16090.0,0,0,0,
2026-04-08 07:56:00,METAR KHPN 080756Z 35008KT 10SM CLR M02/M10 A3051 RMK AO2 SLP337 T10221100,0,8.0,0,16090.0,0,0,0,
2026-04-08 06:56:00,METAR KHPN 080656Z 35011KT 10SM CLR M02/M10 A3049 RMK AO2 SLP330 T10221100,0,11.0,0,16090.0,0,0,0,
2026-04-08 05:56:00,METAR KHPN 080556Z 32011KT 10SM CLR M02/M10 A3049 RMK AO2 SLP329 T10171100 10028 21017 51013,0,11.0,0,16090.0,0,0,0,
2026-04-08 04:56:00,METAR KHPN 080456Z 33009KT 10SM CLR M02/M10 A3048 RMK AO2 SLP329 T10171100 401061017,0,9.0,0,16090.0,0,0,0,
2026-04-08 03:56:00,METAR KHPN 080356Z 33011KT 10SM CLR M01/M09 A3046 RMK AO2 SLP322 T10111094,0,11.0,0,16090.0,0,0,0,
2026-04-08 02:56:00,METAR KHPN 080256Z 32015G23KT 10SM CLR M01/M10 A3045 RMK AO2 PK WND 31028/0245 SLP316 T10061100 51029,0,15.0,1,16090.0,0,0,0,
2026-04-08 01:56:00,METAR KHPN 080156Z 31016G25KT 10SM CLR 01/M10 A3043 RMK AO2 SLP309 T00061100,0,16.0,1,16090.0,0,0,0,
2026-04-08 00:56:00,METAR KHPN 080056Z 31013G26KT 10SM CLR 02/M11 A3041 RMK AO2 PK WND 31027/0037 SLP304 T00171106,0,13.0,1,16090.0,0,0,0,
2026-04-07 23:56:00,METAR KHPN 072356Z 32015KT 10SM CLR 03/M11 A3036 RMK AO2 SLP287 T00281106 10106 20028 53043,0,15.0,0,16090.0,0,0,0,
2026-04-07 22:56:00,METAR KHPN 072256Z 31017G27KT 10SM CLR 04/M11 A3032 RMK AO2 PK WND 30031/2228 SLP273 T00441111,0,17.0,1,16090.0,0,0,0,
2026-04-07 21:56:00,METAR KHPN 072156Z 32019G30KT 10SM CLR 06/M12 A3027 RMK AO2 PK WND 30033/2101 SLP254 T00611122,0,19.0,1,16090.0,0,0,0,
2026-04-07 20:56:00,METAR KHPN 072056Z 31018G32KT 10SM FEW075 07/M12 A3023 RMK AO2 PK WND 32033/2019 SLP242 T00671117 53025,0,18.0,1,16090.0,0,0,0,
2026-04-07 19:56:00,METAR KHPN 071956Z 30019G30KT 10SM FEW075 08/M10 A3021 RMK AO2 PK WND 30034/1932 SLP235 T00781100,0,19.0,1,16090.0,0,0,0,
2026-04-07 18:56:00,METAR KHPN 071856Z 33023G34KT 10SM FEW075 09/M09 A3018 RMK AO2 PK WND 34034/1856 SLP223 T00891094,0,23.0,1,16090.0,0,0,0,
2026-04-07 17:56:00,METAR KHPN 071756Z COR 30022G30KT 10SM SCT065 11/M07 A3016 RMK AO2 PK WND 31032/1735 SLP215 60000 T01061072 10106 20072 53013,0,22.0,1,16090.0,0,0,0,
2026-04-07 16:56:00,METAR KHPN 071656Z 30014G24KT 10SM SCT065 BKN080 10/M07 A3014 RMK AO2 PK WND 31027/1646 SLP208 T01001067,0,14.0,1,16090.0,0,0,0,
2026-04-07 15:56:00,METAR KHPN 071556Z 29017G29KT 10SM SCT048 BKN065 BKN080 08/M03 A3013 RMK AO2 PK WND 30029/1549 DZB13E22 SLP208 P0000 T00831028,0,17.0,1,16090.0,0,0,0,DZ
2026-04-07 14:56:00,METAR KHPN 071456Z 28011G20KT 10SM FEW050 BKN085 09/M03 A3012 RMK AO2 SLP203 T00941028 53007,0,11.0,1,16090.0,0,0,0,
2026-04-07 13:56:00,METAR KHPN 071356Z 27012G24KT 10SM BKN047 09/M03 A3011 RMK AO2 SLP198 T00941028,0,12.0,1,16090.0,0,0,0,
2026-04-07 12:56:00,METAR KHPN 071256Z 29014G26KT 10SM SCT040 08/M02 A3009 RMK AO2 PK WND 30026/1255 SLP193 T00831017,0,14.0,1,16090.0,0,0,0,
2026-04-07 11:56:00,METAR KHPN 071156Z 27011G16KT 10SM SCT095 07/00 A3009 RMK AO2 SLP194 60000 T00720000 10078 20039 53015,0,11.0,1,16090.0,0,0,0,
2026-04-07 10:56:00,METAR KHPN 071056Z 19003KT 10SM BKN090 05/01 A3007 RMK AO2 SLP186 T00500011,0,3.0,0,16090.0,0,0,0,
2026-04-07 09:56:00,METAR KHPN 070956Z 19003KT 10SM BKN085 04/02 A3005 RMK AO2 SLP180 T00440017,0,3.0,0,16090.0,0,0,0,
2026-04-07 08:56:00,METAR KHPN 070856Z 00000KT 10SM FEW065 BKN090 BKN110 05/01 A3005 RMK AO2 RAE17 SLP179 P0000 60000 T00500006 56016,0,0.0,0,16090.0,0,0,0,
2026-04-07 07:56:00,METAR KHPN 070756Z 12004KT 10SM -RA BKN040 BKN060 06/M01 A3006 RMK AO2 RAB48 SLP184 P0000 T00561006,0,4.0,0,16090.0,0,0,0,-RA
2026-04-07 06:56:00,METAR KHPN 070656Z 13003KT 10SM FEW100 06/M02 A3006 RMK AO2 RAE50 SLP182 P0000 T00561022,0,3.0,0,16090.0,0,0,0,
2026-04-07 05:56:00,METAR KHPN 070556Z VRB06KT 10SM -RA BKN044 07/M03 A3010 RMK AO2 RAB19 SLP195 P0000 60000 T00721033 10083 20044 53005,0,6.0,0,16090.0,0,0,0,-RA
2026-04-07 04:56:00,METAR KHPN 070456Z 00000KT 10SM BKN070 BKN085 06/M04 A3007 RMK AO2 SLP187 T00611039 401060028,0,0.0,0,16090.0,0,0,0,
2026-04-07 03:56:00,METAR KHPN 070356Z 14004KT 10SM BKN100 06/M05 A3008 RMK AO2 SLP190 T00611050,0,4.0,0,16090.0,0,0,0,
2026-04-07 02:56:00,METAR KHPN 070256Z 12003KT 10SM FEW065 04/M04 A3008 RMK AO2 SLP191 T00441044 51012,0,3.0,0,16090.0,0,0,0,
2026-04-07 01:56:00,METAR KHPN 070156Z 14004KT 10SM BKN065 06/M06 A3008 RMK AO2 SLP191 T00611056,0,4.0,0,16090.0,0,0,0,
2026-04-07 00:56:00,METAR KHPN 070056Z 02004KT 10SM BKN080 BKN095 08/M07 A3007 RMK AO2 SLP185 T00781067,0,4.0,0,16090.0,0,0,0,
2026-04-06 23:56:00,METAR KHPN 062356Z 32006KT 10SM BKN080 08/M06 A3005 RMK AO2 SLP179 T00831061 10106 20083 53020,0,6.0,0,16090.0,0,0,0,
2026-04-06 22:56:00,METAR KHPN 062256Z 31007KT 10SM BKN075 09/M06 A3002 RMK AO2 SLP171 T00891056,0,7.0,0,16090.0,0,0,0,
2026-04-06 21:56:00,METAR KHPN 062156Z 32012G20KT 10SM SCT080 09/M06 A3000 RMK AO2 SLP164 T00941056,0,12.0,1,16090.0,0,0,0,
2026-04-06 20:56:00,METAR KHPN 062056Z 30011KT 10SM SCT047 11/M05 A2999 RMK AO2 SLP157 T01061050 56008,0,11.0,0,16090.0,0,0,0,
2026-04-06 19:56:00,METAR KHPN 061956Z COR 30016G22KT 10SM SCT047 10/M05 A2999 RMK AO2 PK WND 33026/1932 SLP159 T01001050,0,16.0,1,16090.0,0,0,0,
2026-04-06 18:56:00,METAR KHPN 061856Z 32016G23KT 10SM FEW047 10/M04 A3000 RMK AO2 PK WND 29030/1817 SLP162 T01001044,0,16.0,1,16090.0,0,0,0,
2026-04-06 17:56:00,METAR KHPN 061756Z 29022G30KT 10SM FEW047 09/M04 A3001 RMK AO2 PK WND 29033/1744 SLP166 T00891044 10089 20039 56006,0,22.0,1,16090.0,0,0,0,
2026-04-06 16:56:00,METAR KHPN 061656Z 30022G30KT 10SM SCT047 08/M04 A3002 RMK AO2 PK WND 30030/1656 SLP168 T00831044,0,22.0,1,16090.0,0,0,0,
2026-04-06 15:56:00,METAR KHPN 061556Z 30015G25KT 10SM SCT047 07/M04 A3002 RMK AO2 SLP171 T00721044,0,15.0,1,16090.0,0,0,0,
2026-04-06 14:56:00,METAR KHPN 061456Z 29017G25KT 10SM SCT046 07/M04 A3003 RMK AO2 PK WND 30028/1431 SLP172 T00721044 51013,0,17.0,1,16090.0,0,0,0,
2026-04-06 13:56:00,METAR KHPN 061356Z 30021KT 10SM SCT042 06/M05 A3002 RMK AO2 PK WND 29030/1324 SLP169 T00561050,0,21.0,0,16090.0,0,0,0,
2026-04-06 12:56:00,METAR KHPN 061256Z 30016G27KT 10SM BKN042 04/M05 A3001 RMK AO2 PK WND 29027/1253 SLP165 T00441050,0,16.0,1,16090.0,0,0,0,
2026-04-06 11:56:00,METAR KHPN 061156Z 29018G26KT 10SM SCT043 04/M06 A2999 RMK AO2 PK WND 29026/1155 SLP160 70015 T00441056 10067 20028 51018,0,18.0,1,16090.0,0,0,0,
2026-04-06 10:56:00,METAR KHPN 061056Z 29015KT 10SM BKN045 03/M06 A2998 RMK AO2 PK WND 30029/0957 SLP154 T00331061,0,15.0,0,16090.0,0,0,0,
2026-04-06 09:56:00,METAR KHPN 060956Z 30020G30KT 10SM BKN044 03/M07 A2995 RMK AO2 PK WND 32033/0937 SLP147 T00331067,0,20.0,1,16090.0,0,0,0,
2026-04-06 08:56:00,METAR KHPN 060856Z 30016G29KT 10SM BKN044 04/M04 A2994 RMK AO2 PK WND 30040/0812 SLP141 T00441044 53017,0,16.0,1,16090.0,0,0,0,
2026-04-06 07:56:00,METAR KHPN 060756Z 30018G32KT 10SM BKN050 05/M03 A2992 RMK AO2 PK WND 31038/0709 SLP136 T00501033,0,18.0,1,16090.0,0,0,0,
2026-04-06 06:56:00,METAR KHPN 060656Z 29018G25KT 10SM FEW045 BKN055 07/M02 A2989 RMK AO2 PK WND 30027/0646 SLP124 T00671022,0,18.0,1,16090.0,0,0,0,
2026-04-06 05:56:00,METAR KHPN 060556Z 27010G18KT 10SM SCT055 07/M02 A2989 RMK AO2 SLP124 60000 T00671017 10094 20067 58002,0,10.0,1,16090.0,0,0,0,
2026-04-06 04:56:00,METAR KHPN 060456Z 29012G22KT 10SM BKN055 07/M01 A2990 RMK AO2 PK WND 31028/0422 SLP127 T00721011 401220039,0,12.0,1,16090.0,0,0,0,
2026-04-06 03:56:00,METAR KHPN 060356Z 31013G21KT 10SM BKN060 07/02 A2990 RMK AO2 PK WND 29038/0259 RAE15 SLP128 P0000 T00670017,0,13.0,1,16090.0,0,0,0,
2026-04-06 02:56:00,METAR KHPN 060256Z 31018G29KT 10SM -RA FEW033 SCT043 BKN060 08/03 A2989 RMK AO2 PK WND 31029/0253 RAB56 SLP126 P0000 60000 T00830028 51020,0,18.0,1,16090.0,0,0,0,-RA
2026-04-06 01:56:00,METAR KHPN 060156Z 32013G20KT 10SM BKN055 09/03 A2987 RMK AO2 SLP119 T00890028,0,13.0,1,16090.0,0,0,0,
2026-04-06 00:56:00,METAR KHPN 060056Z 30012G20KT 10SM BKN050 09/03 A2987 RMK AO2 SLP117 T00890033,0,12.0,1,16090.0,0,0,0,
2026-04-05 23:56:00,METAR KHPN 052356Z 31017G24KT 10SM BKN034 BKN044 09/04 A2983 RMK AO2 PK WND 30029/2333 WSHFT 2255 SLP106 60009 T00940039 10122 20094 53031,0,17.0,1,16090.0,0,0,0,
2026-04-05 23:15:00,SPECI KHPN 052315Z 30018G26KT 10SM FEW014 BKN024 BKN028 11/07 A2981 RMK AO2 PK WND 31028/2259 WSHFT 2255 T01060067,0,18.0,1,16090.0,0,0,0,
2026-04-05 22:56:00,METAR KHPN 052256Z 30015G22KT 10SM BKN020 BKN028 12/11 A2980 RMK AO2 PRESRR SLP093 T01220106,0,15.0,1,16090.0,0,0,0,
2026-04-05 21:56:00,METAR KHPN 052156Z VRB05KT 10SM SCT010 12/11 A2976 RMK AO2 SLP080 T01220106,0,5.0,0,16090.0,0,0,0,
2026-04-05 20:56:00,METAR KHPN 052056Z 26006KT 10SM BKN012 BKN019 12/11 A2974 RMK AO2 RAE30 SLP074 P0002 60009 T01170106 55012,0,6.0,0,16090.0,0,0,0,
2026-04-05 20:34:00,SPECI KHPN 052034Z 25013G19KT 7SM BKN012 BKN050 12/11 A2975 RMK AO2 RAE30 P0002 T01170111,0,13.0,1,11263.0,0,0,0,
2026-04-05 19:56:00,METAR KHPN 051956Z 19004KT 1 1/2SM -RA BR SCT004 BKN080 12/11 A2973 RMK AO2 SLP072 P0005 T01170111,0,4.0,0,2414.0,0,0,1,"-RA,BR"
2026-04-05 18:56:00,METAR KHPN 051856Z 18005KT 1 1/4SM -RA BR BKN003 BKN055 OVC070 12/11 A2977 RMK AO2 SLP083 P0002 T01170111,0,5.0,0,2011.0,0,0,1,"-RA,BR"
2026-04-05 17:56:00,METAR KHPN 051756Z 20003KT 2SM -RA BR BKN003 BKN045 OVC070 11/11 A2978 RMK AO2 SLP087 P0002 60006 T01110106 10111 20056 58012,0,3.0,0,3218.0,0,0,1,"-RA,BR"
2026-04-05 17:12:00,SPECI KHPN 051712Z 29003KT 2SM -RA BR FEW010 SCT041 BKN070 10/10 A2979 RMK AO2 P0001 T01000100,0,3.0,0,3218.0,0,0,1,"-RA,BR"
2026-04-05 16:56:00,METAR KHPN 051656Z 29004KT 1 1/2SM -RA BR SCT030 OVC060 10/09 A2979 RMK AO2 DZE12RAB12 SLP092 P0004 T01000094,0,4.0,0,2414.0,0,0,1,"-RA,BR,DZ"
2026-04-05 16:11:00,SPECI KHPN 051611Z 27006KT 1 1/2SM R16/4500VP6000FT -DZ BR BKN002 OVC046 09/08 A2982 RMK AO2 P0000 T00890083,0,6.0,0,2414.0,0,0,1,"BR,DZ"
2026-04-05 15:56:00,METAR KHPN 051556Z 30010KT 1/4SM R16/4000V6000FT +DZ FG VV002 08/08 A2983 RMK AO2 SLP106 P0000 T00830083,0,10.0,0,402.0,0,0,1,"DZ,FG"
2026-04-05 15:54:00,SPECI KHPN 051554Z 30013KT 1/4SM R16/4000V6000FT VV002 08/08 A2983 +DZ FG RMK AO2 P0000 FIBI,0,13.0,0,402.0,0,0,1,"DZ,FG"
2026-04-05 15:18:00,SPECI KHPN 051518Z 00000KT M1/4SM R16/1600V5500FT +DZ FG VV001 09/09 A2981 RMK AO2 P0000 T00940089,0,0.0,0,402.0,0,0,1,"DZ,FG"
2026-04-05 14:56:00,METAR KHPN 051456Z 14003KT M1/4SM R16/1400V1800FT +DZ FG VV001 08/08 A2981 RMK AO2 SLP099 P0000 60000 T00830083 56019,0,3.0,0,402.0,0,0,1,"DZ,FG"
2026-04-05 12:56:00,METAR KHPN 051256Z 12004KT M1/4SM R16/0700V1000FT -DZ FG VV001 07/06 A2984 RMK AO2 SLP109 P0000 T00670061,0,4.0,0,402.0,0,0,1,"DZ,FG"
2026-04-05 11:56:00,METAR KHPN 051156Z 09003KT M1/4SM R16/1000V1400FT -DZ FG VV001 06/06 A2987 RMK AO2 SLP119 P0000 60000 T00560056 10056 20039 58018,0,3.0,0,402.0,0,0,1,"DZ,FG"
2026-04-05 11:24:00,SPECI KHPN 051124Z 08004KT M1/4SM R16/1200V1400FT -DZ FG VV001 06/06 A2989 RMK AO2 P0000 T00560056,0,4.0,0,402.0,0,0,1,"DZ,FG"
2026-04-05 11:14:00,SPECI KHPN 051114Z VRB03KT M1/4SM R16/1200V2600FT -DZ FG VV001 06/05 A2989 RMK AO2 P0000 T00560050,0,3.0,0,402.0,0,0,1,"DZ,FG"
2026-04-05 10:56:00,METAR KHPN 051056Z 00000KT M1/4SM R16/1400V2000FT -DZ FG VV001 06/05 A2990 RMK AO2 SLP128 P0000 T00560050,0,0.0,0,402.0,0,0,1,"DZ,FG"
2026-04-05 10:48:00,SPECI KHPN 051048Z VRB03KT M1/4SM R16/1600V2600FT -DZ FG VV001 06/05 A2990 RMK AO2 P0000 T00560050,0,3.0,0,402.0,0,0,1,"DZ,FG"
2026-04-05 10:36:00,SPECI KHPN 051036Z 10004KT M1/4SM R16/1800V2200FT -DZ FG VV001 05/05 A2991 RMK AO2 P0000 T00500050,0,4.0,0,402.0,0,0,1,"DZ,FG"
2026-04-05 09:56:00,METAR KHPN 050956Z 09006KT M1/4SM R16/2600V3000FT -DZ FG VV002 05/04 A2992 RMK AO2 SLP136 P0000 T00500044,0,6.0,0,402.0,0,0,1,"DZ,FG"
2026-04-05 09:51:00,SPECI KHPN 050951Z 09006KT M1/4SM R16/2600V3000FT -DZ FG VV002 05/05 A2992 RMK AO2 P0000,0,6.0,0,402.0,0,0,1,"DZ,FG"
2026-04-05 08:56:00,METAR KHPN 050856Z 09007KT 1 1/4SM -DZ BR VV002 05/04 A2997 RMK AO2 SLP150 P0000 60000 T00500044 56052,0,7.0,0,2011.0,0,0,1,"BR,DZ"
2026-04-05 07:56:00,METAR KHPN 050756Z 10008KT 1 1/2SM -DZ BR VV002 04/04 A3001 RMK AO2 SLP165 P0000 T00440039,0,8.0,0,2414.0,0,0,1,"BR,DZ"
2026-04-05 06:56:00,METAR KHPN 050656Z 11008G15KT 1 3/4SM -DZ BR VV002 04/04 A3006 RMK AO2 SLP180 P0000 T00440039,0,8.0,1,2816.0,0,0,1,"BR,DZ"
2026-04-05 05:56:00,METAR KHPN 050556Z 10009KT 1 1/2SM -DZ BR OVC003 04/03 A3012 RMK AO2 SLP202 P0000 60000 T00390033 10089 20039 58030,0,9.0,0,2414.0,0,0,1,"BR,DZ"
2026-04-05 04:56:00,METAR KHPN 050456Z 09007G17KT 060V120 2SM -DZ BR OVC003 04/03 A3015 RMK AO2 SLP212 P0000 T00390033 401940039,0,7.0,1,3218.0,0,0,1,"BR,DZ"
2026-04-05 04:22:00,SPECI KHPN 050422Z 11012KT 1 1/2SM -DZ BR OVC004 04/03 A3017 RMK AO2 P0000 T00390033,0,12.0,0,2414.0,0,0,1,"BR,DZ"
2026-04-05 04:07:00,SPECI KHPN 050407Z 10012G21KT 2SM -DZ BR OVC004 04/03 A3018 RMK AO2 P0000 T00390033,0,12.0,1,3218.0,0,0,1,"BR,DZ"
2026-04-05 03:56:00,METAR KHPN 050356Z 09009KT 2SM -DZ BR OVC005 04/03 A3019 RMK AO2 SLP224 P0000 T00390033,0,9.0,0,3218.0,0,0,1,"BR,DZ"
2026-04-05 03:31:00,SPECI KHPN 050331Z 10010G22KT 2 1/2SM -DZ BR OVC007 04/03 A3020 RMK AO2 CIG 005V012 P0000 T00440028,0,10.0,1,4022.0,0,0,1,"BR,DZ"
2026-04-05 03:03:00,SPECI KHPN 050303Z 10011G21KT 7SM -DZ BKN012 05/03 A3021 RMK AO2 P0000 T00500028,0,11.0,1,11263.0,0,0,0,DZ
2026-04-05 02:56:00,METAR KHPN 050256Z 11013G21KT 9SM -DZ SCT012 BKN026 05/02 A3021 RMK AO2 DZB27 SLP232 P0000 60000 T00500022 58006,0,13.0,1,14481.0,0,0,0,DZ
2026-04-05 01:56:00,METAR KHPN 050156Z 09014KT 10SM SCT012 BKN026 06/03 A3023 RMK AO2 SLP239 T00560028,0,14.0,0,16090.0,0,0,0,
2026-04-05 00:56:00,METAR KHPN 050056Z 10012G22KT 10SM BKN032 07/03 A3024 RMK AO2 PK WND 10026/0015 SLP240 T00720028,0,12.0,1,16090.0,0,0,0,
2026-04-04 23:56:00,METAR KHPN 042356Z 10016G25KT 10SM BKN033 09/02 A3023 RMK AO2 DZE52 SLP237 P0000 60000 T00890022 10178 20089 51002,0,16.0,1,16090.0,0,0,0,
2026-04-04 22:56:00,METAR KHPN 042256Z 10013G21KT 10SM -DZ BKN035 09/04 A3023 RMK AO2 DZB32 SLP238 P0000 T00940044,0,13.0,1,16090.0,0,0,0,DZ
2026-04-04 21:56:00,METAR KHPN 042156Z 10013G21KT 10SM BKN037 11/05 A3023 RMK AO2 SLP237 T01060050,0,13.0,1,16090.0,0,0,0,
2026-04-04 20:56:00,METAR KHPN 042056Z 11013G22KT 10SM BKN039 13/06 A3022 RMK AO2 PK WND 12026/2022 SLP235 T01330061 53007,0,13.0,1,16090.0,0,0,0,
2026-04-04 19:56:00,METAR KHPN 041956Z 12014G21KT 10SM BKN042 16/07 A3021 RMK AO2 PK WND 08029/1938 SLP229 T01560072,0,14.0,1,16090.0,0,0,0,
2026-04-04 18:56:00,METAR KHPN 041856Z 11010G20KT 10SM BKN038 18/04 A3021 RMK AO2 SLP227 T01780039,0,10.0,1,16090.0,0,0,0,
2026-04-04 17:56:00,METAR KHPN 041756Z 12012KT 10SM BKN110 17/08 A3020 RMK AO2 SLP227 T01720078 10194 20156 56001,0,12.0,0,16090.0,0,0,0,
2026-04-04 16:56:00,METAR KHPN 041656Z 15010KT 10SM CLR 18/10 A3020 RMK AO2 SLP226 T01830100,0,10.0,0,16090.0,0,0,0,
2026-04-04 15:56:00,METAR KHPN 041556Z 05007KT 10SM SCT110 18/09 A3020 RMK AO2 SLP226 T01830089,0,7.0,0,16090.0,0,0,0,
2026-04-04 14:56:00,METAR KHPN 041456Z 31004KT 10SM FEW021 17/09 A3021 RMK AO2 SLP228 T01670089 51017,0,4.0,0,16090.0,0,0,0,
2026-04-04 13:56:00,METAR KHPN 041356Z 02010KT 10SM SCT021 16/10 A3020 RMK AO2 SLP226 T01610100,0,10.0,0,16090.0,0,0,0,
2026-04-04 12:56:00,METAR KHPN 041256Z 01011G18KT 10SM SCT040 17/12 A3019 RMK AO2 SLP221 T01670117,0,11.0,1,16090.0,0,0,0,
2026-04-04 11:56:00,METAR KHPN 041156Z 33009KT 10SM FEW020 17/13 A3016 RMK AO2 SLP210 T01670133 10167 20106 53020,0,9.0,0,16090.0,0,0,0,
2026-04-04 10:56:00,METAR KHPN 041056Z 29007KT 8SM FEW090 12/12 A3012 RMK AO2 SLP199 T01220117,0,7.0,0,12872.0,0,0,0,
2026-04-04 09:56:00,METAR KHPN 040956Z 28003KT 8SM CLR 12/12 A3010 RMK AO2 SLP191 T01220117,0,3.0,0,12872.0,0,0,0,
2026-04-04 08:56:00,METAR KHPN 040856Z 30007KT 10SM CLR 14/12 A3010 RMK AO2 SLP191 T01390122 53003,0,7.0,0,16090.0,0,0,0,
2026-04-04 07:56:00,METAR KHPN 040756Z 27005KT 10SM FEW090 16/13 A3007 RMK AO2 SLP182 T01610133,0,5.0,0,16090.0,0,0,0,
2026-04-04 06:56:00,METAR KHPN 040656Z 25004KT 10SM SCT075 16/13 A3008 RMK AO2 SLP183 T01610133,0,4.0,0,16090.0,0,0,0,
2026-04-04 05:56:00,METAR KHPN 040556Z 29003KT 10SM BKN110 15/13 A3009 RMK AO2 RAE44 SLP189 P0000 60000 T01500128 10167 20133 58005,0,3.0,0,16090.0,0,0,0,
2026-04-04 04:56:00,METAR KHPN 040456Z 24004KT 10SM -RA FEW065 BKN090 16/13 A3010 RMK AO2 RAB44 SLP191 P0000 T01610128 401720033,0,4.0,0,16090.0,0,0,0,-RA
2026-04-04 03:56:00,METAR KHPN 040356Z 28003KT 10SM BKN090 15/12 A3010 RMK AO2 SLP194 T01500122,0,3.0,0,16090.0,0,0,0,
2026-04-04 02:56:00,METAR KHPN 040256Z 24003KT 10SM SCT090 16/12 A3011 RMK AO2 SLP196 T01560122 50001,0,3.0,0,16090.0,0,0,0,
2026-04-04 01:56:00,METAR KHPN 040156Z 00000KT 10SM FEW110 16/12 A3012 RMK AO2 SLP199 T01610122,0,0.0,0,16090.0,0,0,0,
2026-04-04 00:56:00,METAR KHPN 040056Z 24004KT 10SM FEW110 17/12 A3011 RMK AO2 SLP197 T01670117,0,4.0,0,16090.0,0,0,0,
2026-04-03 23:56:00,METAR KHPN 032356Z 23004KT 10SM FEW110 16/12 A3010 RMK AO2 SLP195 T01610117 10172 20111 58009,0,4.0,0,16090.0,0,0,0,
2026-04-03 22:56:00,METAR KHPN 032256Z 23006KT 10SM CLR 17/11 A3011 RMK AO2 SLP199 T01670111,0,6.0,0,16090.0,0,0,0,
2026-04-03 21:56:00,METAR KHPN 032156Z 22007G16KT 10SM CLR 17/11 A3013 RMK AO2 SLP204 T01670111,0,7.0,1,16090.0,0,0,0,
2026-04-03 20:56:00,METAR KHPN 032056Z 22007G19KT 190V250 10SM CLR 17/11 A3013 RMK AO2 SLP205 T01670106 56021,0,7.0,1,16090.0,0,0,0,
2026-04-03 19:56:00,METAR KHPN 031956Z 22007KT 10SM FEW040 16/10 A3014 RMK AO2 SLP208 T01560100,0,7.0,0,16090.0,0,0,0,
2026-04-03 18:56:00,METAR KHPN 031856Z 23008KT 190V260 10SM SCT015 14/09 A3017 RMK AO2 SLP218 T01390094,0,8.0,0,16090.0,0,0,0,
2026-04-03 17:56:00,METAR KHPN 031756Z VRB05KT 7SM BKN008 OVC015 11/09 A3019 RMK AO2 SLP228 60000 T01110089 10111 20039 58024,0,5.0,0,11263.0,0,0,0,
2026-04-03 16:56:00,METAR KHPN 031656Z 19005KT 5SM BR OVC005 09/08 A3022 RMK AO2 SLP238 T00890078,0,5.0,0,8045.0,0,0,1,BR
2026-04-03 16:36:00,SPECI KHPN 031636Z 20003KT 3SM BR OVC004 09/08 A3023 RMK AO2 T00890078,0,3.0,0,4827.0,0,0,1,BR
2026-04-03 15:56:00,METAR KHPN 031556Z 20005KT 1SM R16/P6000FT BR VV003 07/07 A3025 RMK AO2 DZE51 SLP248 P0000 T00720067,0,5.0,0,1609.0,0,0,1,BR
2026-04-03 14:56:00,METAR KHPN 031456Z 20005KT 1SM R16/P6000FT -DZ BR VV002 07/06 A3026 RMK AO2 SLP253 P0000 60000 T00670061 56018,0,5.0,0,1609.0,0,0,1,"BR,DZ"
2026-04-03 13:56:00,METAR KHPN 031356Z 14004KT 3/4SM R16/5000VP6000FT -DZ BR VV002 06/05 A3028 RMK AO2 SLP259 P0000 T00560050,0,4.0,0,1207.0,0,0,1,"BR,DZ"
2026-04-03 12:56:00,METAR KHPN 031256Z 11003KT 3/4SM R16/5000VP6000FT -DZ BR VV003 04/04 A3030 RMK AO2 SLP265 P0000 T00440039,0,3.0,0,1207.0,0,0,1,"BR,DZ"
2026-04-03 11:56:00,METAR KHPN 031156Z 00000KT 3/4SM R16/4000V4500FT -DZ BR VV003 04/03 A3032 RMK AO2 SLP272 P0000 60000 70001 T00390033 10039 20033 56009,0,0.0,0,1207.0,0,0,1,"BR,DZ"
2026-04-03 08:56:00,METAR KHPN 030856Z 10006KT 1 1/4SM VV002 03/03 A3035 RMK AO2 P0000 SLP282 6000 T00330028 56011,0,6.0,0,2011.0,0,0,0,
2026-04-03 05:56:00,METAR KHPN 030556Z 11008KT 2 1/2SM -DZ BR OVC003 03/02 A3041 RMK AO2 SLP304 P0000 60000 T00330022 10039 20033 56011,0,8.0,0,4022.0,0,0,1,"BR,DZ"
2026-04-03 04:56:00,METAR KHPN 030456Z 09007G16KT 4SM -DZ BR OVC004 03/02 A3042 RMK AO2 SLP306 P0000 T00330022 400830033,0,7.0,1,6436.0,0,0,1,"BR,DZ"
2026-04-03 03:56:00,METAR KHPN 030356Z 10011G16KT 3SM -DZ BR OVC004 03/03 A3043 RMK AO2 SLP309 P0000 T00330028,0,11.0,1,4827.0,0,0,1,"BR,DZ"
2026-04-03 02:56:00,METAR KHPN 030256Z 10012G21KT 2 1/2SM -DZ BR OVC006 03/02 A3045 RMK AO2 SLP316 P0000 60000 T00330022 51003,0,12.0,1,4022.0,0,0,1,"BR,DZ"
2026-04-03 02:33:00,SPECI KHPN 030233Z 10010G20KT 2 1/2SM -DZ BR OVC006 03/02 A3044 RMK AO2 P0000 T00330022,0,10.0,1,4022.0,0,0,1,"BR,DZ"
2026-04-03 01:56:00,METAR KHPN 030156Z 10011G18KT 4SM -DZ BR OVC008 04/02 A3044 RMK AO2 CIG 006V012 SLP315 P0000 T00390022,0,11.0,1,6436.0,0,0,1,"BR,DZ"
2026-04-03 00:56:00,METAR KHPN 030056Z 10008G17KT 4SM -DZ OVC007 04/03 A3045 RMK AO2 CIG 006V011 SLP317 P0000 T00390028,0,8.0,1,6436.0,0,0,0,DZ
2026-04-02 23:56:00,METAR KHPN 022356Z 11008G17KT 9SM -DZ BKN005 04/03 A3044 RMK AO2 SLP313 P0000 60000 T00390028 10056 20039 50000,0,8.0,1,14481.0,0,0,0,DZ
2026-04-02 22:56:00,METAR KHPN 022256Z 10008KT 2SM -DZ BR BKN005 OVC012 04/03 A3044 RMK AO2 DZB30 SLP314 P0000 T00440033,0,8.0,0,3218.0,0,0,1,"BR,DZ"
2026-04-02 21:56:00,METAR KHPN 022156Z 09008G16KT 5SM BR BKN007 OVC012 04/03 A3044 RMK AO2 SLP315 T00440033,0,8.0,1,8045.0,0,0,1,BR
2026-04-02 21:26:00,SPECI KHPN 022126Z 10007KT 2 1/2SM BR OVC004 04/04 A3044 RMK AO2 T00440039,0,7.0,0,4022.0,0,0,1,BR
2026-04-02 20:56:00,METAR KHPN 022056Z 12008KT 1 1/2SM BR OVC003 04/04 A3044 RMK AO2 SLP312 T00440039 56003,0,8.0,0,2414.0,0,0,1,BR
2026-04-02 19:56:00,METAR KHPN 021956Z 11010KT 2 1/2SM BR BKN007 OVC012 05/03 A3044 RMK AO2 SLP313 T00500033,0,10.0,0,4022.0,0,0,1,BR
2026-04-02 18:56:00,METAR KHPN 021856Z 12007KT 2SM BR OVC007 05/04 A3044 RMK AO2 SLP312 T00500039,0,7.0,0,3218.0,0,0,1,BR
2026-04-02 17:56:00,METAR KHPN 021756Z 08007KT 7SM OVC009 06/03 A3044 RMK AO2 SLP314 60001 T00560033 10061 20050 50003,0,7.0,0,11263.0,0,0,0,
2026-04-02 16:56:00,METAR KHPN 021656Z 09008KT 10SM BKN009 OVC011 06/04 A3045 RMK AO2 SLP316 T00610039,0,8.0,0,16090.0,0,0,0,
2026-04-02 15:56:00,METAR KHPN 021556Z 08009G16KT 10SM BKN005 OVC012 06/03 A3043 RMK AO2 DZE52 SLP310 P0000 T00560033,0,9.0,1,16090.0,0,0,0,
2026-04-02 15:10:00,SPECI KHPN 021510Z 06006KT 7SM -DZ BKN005 OVC012 06/04 A3043 RMK AO2 P0000 T00560044,0,6.0,0,11263.0,0,0,0,DZ
2026-04-02 14:56:00,METAR KHPN 021456Z 07009G17KT 2SM -DZ BR BKN005 OVC012 05/04 A3044 RMK AO2 SLP310 P0000 60001 T00500039 51015,0,9.0,1,3218.0,0,0,1,"BR,DZ"
2026-04-02 13:56:00,METAR KHPN 021356Z 10011KT 1 1/4SM -DZ BR OVC007 05/04 A3044 RMK AO2 SLP310 P0000 T00500039,0,11.0,0,2011.0,0,0,1,"BR,DZ"
2026-04-02 12:56:00,METAR KHPN 021256Z 11008G16KT 1 1/4SM -DZ BR BKN006 OVC011 06/04 A3040 RMK AO2 SLP299 P0001 T00560044,0,8.0,1,2011.0,0,0,1,"BR,DZ"
2026-04-02 12:21:00,SPECI KHPN 021221Z 09006KT 1 1/4SM -DZ BR BKN009 OVC014 06/04 A3040 RMK AO2 P0000 T00560044,0,6.0,0,2011.0,0,0,1,"BR,DZ"
2026-04-02 11:56:00,METAR KHPN 021156Z 10008KT 2 1/2SM -DZ BR BKN009 OVC014 06/04 A3039 RMK AO2 SLP294 P0000 60003 70010 T00560044 10078 20056 53023,0,8.0,0,4022.0,0,0,1,"BR,DZ"
2026-04-02 11:14:00,SPECI KHPN 021114Z 09008G18KT 6SM -DZ BR BKN009 BKN014 06/04 A3036 RMK AO2 P0000 T00610044,0,8.0,1,9654.0,0,0,1,"BR,DZ"
2026-04-02 10:56:00,METAR KHPN 021056Z 08008G16KT 8SM -DZ BR SCT009 BKN014 06/05 A3035 RMK AO2 SLP281 P0000 T00610050,0,8.0,1,12872.0,0,0,1,"BR,DZ"
2026-04-02 09:56:00,METAR KHPN 020956Z 07009KT 6SM -DZ BR FEW004 SCT009 BKN014 07/05 A3033 RMK AO2 SLP273 P0001 T00670050,0,9.0,0,9654.0,0,0,1,"BR,DZ"
2026-04-02 08:56:00,METAR KHPN 020856Z 10006KT 4SM -DZ BR BKN004 OVC009 07/06 A3032 RMK AO2 RAB12E25DZB25 CIG 002V007 SLP268 P0002 60002 T00670061 53005,0,6.0,0,6436.0,0,0,1,"BR,DZ,RA"
2026-04-02 07:56:00,METAR KHPN 020756Z 08009KT 10SM BKN012 08/06 A3031 RMK AO2 RAE52 SLP262 P0000 T00780056,0,9.0,0,16090.0,0,0,0,
2026-04-02 06:56:00,METAR KHPN 020656Z COR 08008KT 10SM FEW006 SCT019 BKN024 08/07 A3029 RMK AO2 SLP257 P0000 T00780067,0,8.0,0,16090.0,0,0,0,
2026-04-02 05:56:00,METAR KHPN 020556Z VRB05G19KT 10SM -RA FEW006 BKN019 OVC024 08/07 A3031 RMK AO2 SLP262 P0003 60006 T00780067 10133 20078 51023,0,5.0,1,16090.0,0,0,0,-RA
2026-04-02 04:56:00,METAR KHPN 020456Z COR 10009KT 5SM -RA BR BKN004 08/08 A3028 RMK AO2 SLP253 P0003 T00830078 402390083,0,9.0,0,8045.0,0,0,1,"-RA,BR"
2026-04-02 03:56:00,METAR KHPN 020356Z 09007G17KT 050V130 10SM -RA BKN008 BKN013 OVC018 11/09 A3027 RMK AO2 RAB07 SLP248 P0000 T01060089,0,7.0,1,16090.0,0,0,0,-RA
2026-04-02 03:16:00,SPECI KHPN 020316Z 04007KT 10SM -RA BKN023 BKN041 12/08 A3024 RMK AO2 RAB07 P0000 T01170078,0,7.0,0,16090.0,0,0,0,-RA
2026-04-02 02:56:00,METAR KHPN 020256Z 36007KT 10SM BKN043 12/07 A3024 RMK AO2 SLP238 T01220072 51023,0,7.0,0,16090.0,0,0,0,
2026-04-02 01:56:00,METAR KHPN 020156Z 06005KT 10SM BKN047 12/08 A3023 RMK AO2 SLP235 T01220078,0,5.0,0,16090.0,0,0,0,
2026-04-02 00:56:00,METAR KHPN 020056Z 04008KT 10SM FEW085 12/07 A3019 RMK AO2 SLP223 T01220067,0,8.0,0,16090.0,0,0,0,
2026-04-01 23:56:00,METAR KHPN 012356Z 35008KT 10SM SCT055 BKN095 13/08 A3017 RMK AO2 SLP217 60001 T01330078 10239 20133 51029,0,8.0,0,16090.0,0,0,0,
2026-04-01 22:56:00,METAR KHPN 012256Z 36011G20KT 10SM BKN050 15/09 A3015 RMK AO2 DZE51 SLP210 P0000 T01500094,0,11.0,1,16090.0,0,0,0,
2026-04-01 21:56:00,METAR KHPN 012156Z 35011KT 10SM -DZ BKN080 BKN110 17/12 A3011 RMK AO2 SLP195 P0001 T01720122,0,11.0,0,16090.0,0,0,0,DZ
2026-04-01 20:56:00,METAR KHPN 012056Z 34013KT 10SM -DZ BKN060 BKN070 19/14 A3009 RMK AO2 DZB23E34B52RAB34E52 SLP185 P0000 60000 T01940144 53019,0,13.0,0,16090.0,0,0,0,DZ
2026-04-01 19:56:00,METAR KHPN 011956Z 32008KT 10SM BKN065 BKN080 22/14 A3006 RMK AO2 RAB16E25 SLP175 P0000 T02170144,0,8.0,0,16090.0,0,0,0,RA
2026-04-01 18:56:00,METAR KHPN 011856Z 33012KT 10SM SCT049 BKN060 21/16 A3004 RMK AO2 PK WND 32026/1835 SLP170 T02060156,0,12.0,0,16090.0,0,0,0,
2026-04-01 17:56:00,METAR KHPN 011756Z 32007KT 10SM SCT044 BKN100 24/13 A3003 RMK AO2 SLP165 T02390133 10239 20156 51009,0,7.0,0,16090.0,0,0,0,
2026-04-01 16:56:00,METAR KHPN 011656Z 27006KT 10SM FEW043 BKN100 BKN120 23/13 A3002 RMK AO2 SLP163 T02280128,0,6.0,0,16090.0,0,0,0,
2026-04-01 15:56:00,METAR KHPN 011556Z 28007KT 10SM FEW040 BKN090 23/13 A3001 RMK AO2 SLP160 T02280128,0,7.0,0,16090.0,0,0,0,
2026-04-01 14:56:00,METAR KHPN 011456Z 29006G14KT 10SM FEW040 BKN090 22/13 A3000 RMK AO2 SLP156 T02170128 51014,0,6.0,1,16090.0,0,0,0,
2026-04-01 13:56:00,METAR KHPN 011356Z 27008KT 10SM FEW040 BKN090 21/13 A2999 RMK AO2 SLP152 T02110128,0,8.0,0,16090.0,0,0,0,
2026-04-01 12:56:00,METAR KHPN 011256Z 26003KT 10SM FEW070 BKN090 17/12 A2998 RMK AO2 SLP149 T01720122,0,3.0,0,16090.0,0,0,0,
2026-04-01 11:56:00,METAR KHPN 011156Z 23003KT 10SM FEW070 BKN090 16/11 A2996 RMK AO2 SLP142 T01560111 10172 20128 52024,0,3.0,0,16090.0,0,0,0,
2026-04-01 10:56:00,METAR KHPN 011056Z 13003KT 10SM CLR 14/11 A2993 RMK AO2 SLP133 T01390106,0,3.0,0,16090.0,0,0,0,
2026-04-01 09:56:00,METAR KHPN 010956Z 00000KT 10SM FEW110 13/11 A2991 RMK AO2 SLP127 T01280106,0,0.0,0,16090.0,0,0,0,
2026-04-01 08:56:00,METAR KHPN 010856Z 11004KT 10SM SCT100 14/11 A2989 RMK AO2 SLP117 T01390106 52009,0,4.0,0,16090.0,0,0,0,
2026-04-01 07:56:00,METAR KHPN 010756Z 19003KT 10SM CLR 13/11 A2987 RMK AO2 SLP110 T01330106,0,3.0,0,16090.0,0,0,0,
2026-04-01 06:56:00,METAR KHPN 010656Z VRB03KT 10SM FEW090 17/12 A2988 RMK AO2 SLP114 T01670117,0,3.0,0,16090.0,0,0,0,
2026-04-01 05:56:00,METAR KHPN 010556Z 14003KT 10SM CLR 14/11 A2986 RMK AO2 SLP108 T01440106 10228 20139 58009,0,3.0,0,16090.0,0,0,0,
2026-04-01 04:56:00,METAR KHPN 010456Z 16003KT 10SM CLR 16/11 A2987 RMK AO2 SLP112 T01560111 402560117,0,3.0,0,16090.0,0,0,0,
2026-04-01 03:56:00,METAR KHPN 010356Z 17004KT 10SM CLR 17/11 A2989 RMK AO2 SLP117 T01670111,0,4.0,0,16090.0,0,0,0,
2026-04-01 02:56:00,METAR KHPN 010256Z 17005KT 10SM CLR 17/11 A2989 RMK AO2 SLP117 T01670111 50000,0,5.0,0,16090.0,0,0,0,
2026-04-01 01:56:00,METAR KHPN 010156Z 18006KT 10SM CLR 17/11 A2990 RMK AO2 SLP122 T01670106,0,6.0,0,16090.0,0,0,0,
2026-04-01 00:56:00,METAR KHPN 010056Z 16006KT 10SM CLR 17/11 A2990 RMK AO2 SLP123 T01720106,0,6.0,0,16090.0,0,0,0,
2026-03-31 23:56:00,METAR KHPN 312356Z COR 14008KT 10SM CLR 23/12 A2989 RMK AO2 SLP117 60000 T02280117 10256 20222 51007,0,8.0,0,16090.0,0,0,0,
2026-03-31 22:56:00,METAR KHPN 312256Z 23007G20KT 160V260 10SM FEW060 24/12 A2988 RMK AO2 SLP116 T02390117,0,7.0,1,16090.0,0,0,0,
2026-03-31 21:56:00,METAR KHPN 312156Z 17008KT 10SM CLR 23/12 A2988 RMK AO2 SLP114 T02280117,0,8.0,0,16090.0,0,0,0,
2026-03-31 20:56:00,METAR KHPN 312056Z 22008KT 180V270 10SM FEW060 25/12 A2987 RMK AO2 SLP110 60000 T02500122 56031,0,8.0,0,16090.0,0,0,0,
2026-03-31 19:56:00,METAR KHPN 311956Z 20012G23KT 10SM FEW060 25/12 A2988 RMK AO2 PK WND 22026/1912 SLP113 T02500122,0,12.0,1,16090.0,0,0,0,
2026-03-31 18:56:00,METAR KHPN 311856Z 24010G19KT 10SM FEW065 25/12 A2992 RMK AO2 DZE52 SLP128 P0000 T02500117,0,10.0,1,16090.0,0,0,0,
2026-03-31 17:56:00,METAR KHPN 311756Z 26009G18KT 230V290 10SM -DZ FEW065 BKN090 24/12 A2996 RMK AO2 DZB50 SLP140 P0000 60000 T02440117 10244 20161 58007,0,9.0,1,16090.0,0,0,0,DZ
2026-03-31 16:56:00,METAR KHPN 311656Z 26010G22KT 210V280 10SM SCT110 24/11 A2998 RMK AO2 PK WND 27026/1637 SLP148 T02390111,0,10.0,1,16090.0,0,0,0,
2026-03-31 15:56:00,METAR KHPN 311556Z 24008G20KT 200V280 10SM BKN110 22/11 A2997 RMK AO2 SLP147 T02220111,0,8.0,1,16090.0,0,0,0,
2026-03-31 14:56:00,METAR KHPN 311456Z 25006KT 10SM SCT120 21/11 A2998 RMK AO2 SLP149 T02110106 58012,0,6.0,0,16090.0,0,0,0,
2026-03-31 13:56:00,METAR KHPN 311356Z 23010G20KT 10SM FEW100 19/11 A3000 RMK AO2 SLP154 T01940106,0,10.0,1,16090.0,0,0,0,
2026-03-31 12:56:00,METAR KHPN 311256Z 24007G15KT 220V290 10SM CLR 18/11 A3001 RMK AO2 SLP159 T01780106,0,7.0,1,16090.0,0,0,0,
2026-03-31 11:56:00,METAR KHPN 311156Z VRB03KT 10SM BKN100 16/11 A3001 RMK AO2 SLP162 60003 70004 T01610106 10167 20117 53006,0,3.0,0,16090.0,0,0,0,
2026-03-31 10:56:00,METAR KHPN 311056Z 17004KT 10SM BKN075 BKN090 13/11 A3000 RMK AO2 SLP159 T01330106,0,4.0,0,16090.0,0,0,0,
2026-03-31 09:56:00,METAR KHPN 310956Z 16003KT 10SM BKN055 BKN090 12/11 A3000 RMK AO2 SLP158 T01220106,0,3.0,0,16090.0,0,0,0,
2026-03-31 08:56:00,METAR KHPN 310856Z 00000KT 10SM BKN060 13/11 A3000 RMK AO2 RAE07 SLP156 P0000 60003 T01330106 56013,0,0.0,0,16090.0,0,0,0,
2026-03-31 07:56:00,METAR KHPN 310756Z 25003KT 3SM RA BR SCT050 BKN065 OVC080 16/11 A3001 RMK AO2 LTG DSNT N DZB03E19RAB19 SLP158 P0003 T01560106,0,3.0,0,4827.0,0,0,1,"BR,DS,DZ,RA"
2026-03-31 06:56:00,METAR KHPN 310656Z 23004KT 10SM SCT075 BKN120 17/09 A3002 RMK AO2 SLP163 T01670094,0,4.0,0,16090.0,0,0,0,
2026-03-31 05:56:00,METAR KHPN 310556Z VRB05KT 10SM SCT070 BKN095 BKN120 17/09 A3004 RMK AO2 SLP168 T01670094 10178 20161 58012,0,5.0,0,16090.0,0,0,0,
2026-03-31 04:56:00,METAR KHPN 310456Z 21004KT 10SM SCT075 BKN090 OVC120 16/09 A3006 RMK AO2 SLP177 T01610089 402170044,0,4.0,0,16090.0,0,0,0,
2026-03-31 03:56:00,METAR KHPN 310356Z VRB03KT 10SM BKN080 17/09 A3007 RMK AO2 SLP180 T01670089,0,3.0,0,16090.0,0,0,0,
2026-03-31 02:56:00,METAR KHPN 310256Z VRB05KT 10SM BKN080 BKN110 17/08 A3007 RMK AO2 SLP182 T01670083 50009,0,5.0,0,16090.0,0,0,0,
2026-03-31 01:56:00,METAR KHPN 310156Z 24014G18KT 10SM BKN100 17/08 A3008 RMK AO2 SLP186 T01720083,0,14.0,1,16090.0,0,0,0,
2026-03-31 00:56:00,METAR KHPN 310056Z COR 10SM BKN090 18/08 23007KT A3007 RMK AO2 SLP181 T01780078,0,7.0,0,16090.0,0,0,0,
2026-03-30 23:56:00,METAR KHPN 302356Z 10SM FEW090 SCT110 18/07 A3005 RMK AO2 DZE12 SLP174 P0000 60001 T01830072 10217 20172 53006,0,,0,16090.0,0,0,0,
2026-03-30 22:56:00,METAR KHPN 302256Z 23004KT 10SM -DZ BKN090 BKN110 18/08 A3003 RMK AO2 DZB20E24B52RAB24E52 SLP169 P0001 T01780083,0,4.0,0,16090.0,0,0,0,DZ
2026-03-30 21:56:00,METAR KHPN 302156Z 23005G19KT 10SM BKN085 21/04 A3004 RMK AO2 SLP172 T02060044,0,5.0,1,16090.0,0,0,0,
2026-03-30 20:56:00,METAR KHPN 302056Z 23011G21KT 200V260 10SM CLR 21/04 A3003 RMK AO2 PK WND 22026/2028 SLP168 T02110039 55015,0,11.0,1,16090.0,0,0,0,
2026-03-30 19:56:00,METAR KHPN 301956Z 24011G24KT 210V270 10SM CLR 21/04 A3003 RMK AO2 SLP168 T02110039,0,11.0,1,16090.0,0,0,0,
2026-03-30 18:56:00,METAR KHPN 301856Z 21011G20KT 180V240 10SM CLR 21/04 A3005 RMK AO2 SLP177 T02110044,0,11.0,1,16090.0,0,0,0,
2026-03-30 17:56:00,METAR KHPN 301756Z 20012G22KT 10SM CLR 20/03 A3007 RMK AO2 PRESFR SLP183 T02000033 10200 20083 58026,0,12.0,1,16090.0,0,0,0,
2026-03-30 16:56:00,METAR KHPN 301656Z 23010G17KT 10SM CLR 18/03 A3011 RMK AO2 SLP194 T01830033,0,10.0,1,16090.0,0,0,0,
2026-03-30 15:56:00,METAR KHPN 301556Z VRB06G15KT 10SM CLR 17/03 A3013 RMK AO2 SLP205 T01670028,0,6.0,1,16090.0,0,0,0,
2026-03-30 14:56:00,METAR KHPN 301456Z 24006KT 10SM SCT110 13/04 A3015 RMK AO2 SLP212 T01330039 57017,0,6.0,0,16090.0,0,0,0,
2026-03-30 13:56:00,METAR KHPN 301356Z 25011G18KT 10SM SCT110 12/04 A3017 RMK AO2 SLP220 T01170044,0,11.0,1,16090.0,0,0,0,
2026-03-30 12:56:00,METAR KHPN 301256Z 24007G20KT 10SM BKN080 09/05 A3018 RMK AO2 SLP223 T00940050,0,7.0,1,16090.0,0,0,0,
2026-03-30 11:56:00,METAR KHPN 301156Z 26008KT 10SM BKN090 08/04 A3020 RMK AO2 SLP231 T00830039 10083 20044 56008,0,8.0,0,16090.0,0,0,0,
2026-03-30 10:56:00,METAR KHPN 301056Z 00000KT 10SM BKN095 06/03 A3021 RMK AO2 SLP233 T00560028,0,0.0,0,16090.0,0,0,0,
2026-03-30 09:56:00,METAR KHPN 300956Z 00000KT 10SM SCT100 05/03 A3021 RMK AO2 SLP235 T00500028,0,0.0,0,16090.0,0,0,0,
2026-03-30 08:56:00,METAR KHPN 300856Z 19003KT 10SM FEW100 04/02 A3023 RMK AO2 SLP240 T00440022 56028,0,3.0,0,16090.0,0,0,0,
2026-03-30 07:56:00,METAR KHPN 300756Z 18003KT 10SM CLR 05/02 A3025 RMK AO2 SLP249 T00500017,0,3.0,0,16090.0,0,0,0,
2026-03-30 06:56:00,METAR KHPN 300656Z 17004KT 10SM CLR 06/02 A3028 RMK AO2 SLP258 T00560017,0,4.0,0,16090.0,0,0,0,
2026-03-30 05:56:00,METAR KHPN 300556Z 16004KT 10SM CLR 06/00 A3031 RMK AO2 SLP267 T00560000 10067 20056 58016,0,4.0,0,16090.0,0,0,0,
2026-03-30 04:56:00,METAR KHPN 300456Z 19003KT 10SM CLR 07/M01 A3033 RMK AO2 SLP274 T00671006 401061039,0,3.0,0,16090.0,0,0,0,
2026-03-30 03:56:00,METAR KHPN 300356Z 18006KT 10SM CLR 07/M01 A3035 RMK AO2 SLP281 T00671006,0,6.0,0,16090.0,0,0,0,
2026-03-30 02:56:00,METAR KHPN 300256Z 18005KT 10SM CLR 06/01 A3036 RMK AO2 SLP285 T00560006 58005,0,5.0,0,16090.0,0,0,0,
2026-03-30 01:56:00,METAR KHPN 300156Z 18006KT 10SM CLR 06/01 A3037 RMK AO2 SLP289 T00560006,0,6.0,0,16090.0,0,0,0,
2026-03-30 00:56:00,METAR KHPN 300056Z 18005KT 10SM CLR 06/M01 A3038 RMK AO2 SLP292 T00561006,0,5.0,0,16090.0,0,0,0,
2026-03-29 23:56:00,METAR KHPN 292356Z 18007KT 10SM CLR 06/M01 A3037 RMK AO2 SLP292 T00611011 10106 20061 56005,0,7.0,0,16090.0,0,0,0,
2026-03-29 22:56:00,METAR KHPN 292256Z 17013G19KT 10SM CLR 07/M01 A3038 RMK AO2 SLP294 T00721011,0,13.0,1,16090.0,0,0,0,
2026-03-29 21:56:00,METAR KHPN 292156Z 19013G22KT 10SM CLR 08/M02 A3038 RMK AO2 SLP294 T00831022,0,13.0,1,16090.0,0,0,0,
2026-03-29 20:56:00,METAR KHPN 292056Z 18015G22KT 10SM CLR 09/M04 A3039 RMK AO2 PK WND 18026/2040 SLP296 T00891044 56023,0,15.0,1,16090.0,0,0,0,
2026-03-29 19:56:00,METAR KHPN 291956Z 18013G23KT 10SM CLR 09/M07 A3040 RMK AO2 PK WND 16027/1917 SLP302 T00941072,0,13.0,1,16090.0,0,0,0,
2026-03-29 18:56:00,METAR KHPN 291856Z 18010G22KT 10SM CLR 10/M06 A3042 RMK AO2 SLP305 T01001061,0,10.0,1,16090.0,0,0,0,
2026-03-29 17:56:00,METAR KHPN 291756Z 17014G21KT 10SM CLR 09/M04 A3046 RMK AO2 SLP320 T00941044 10094 21011 57035,0,14.0,1,16090.0,0,0,0,
2026-03-29 16:56:00,METAR KHPN 291656Z 16012G17KT 10SM CLR 08/M04 A3049 RMK AO2 SLP332 T00831044,0,12.0,1,16090.0,0,0,0,
2026-03-29 14:56:00,METAR KHPN 291456Z 17008KT 10SM CLR 06/M06 A3056 RMK AO2 SLP356 T00611056 50001,0,8.0,0,16090.0,0,0,0,
2026-03-29 13:56:00,METAR KHPN 291356Z 18008KT 10SM CLR 04/M08 A3058 RMK AO2 SLP361 T00391083,0,8.0,0,16090.0,0,0,0,
2026-03-29 12:56:00,METAR KHPN 291256Z 18005KT 10SM FEW100 02/M06 A3057 RMK AO2 SLP360 T00171056,0,5.0,0,16090.0,0,0,0,
2026-03-29 11:56:00,METAR KHPN 291156Z 00000KT 10SM SCT110 M01/M07 A3056 RMK AO2 SLP356 T10111067 11011 21039 51012,0,0.0,0,16090.0,0,0,0,
2026-03-29 10:56:00,METAR KHPN 291056Z 00000KT 10SM SCT095 M02/M07 A3055 RMK AO2 SLP355 T10221072,0,0.0,0,16090.0,0,0,0,
2026-03-29 09:56:00,METAR KHPN 290956Z 00000KT 10SM SCT100 M03/M07 A3054 RMK AO2 SLP350 T10281072,0,0.0,0,16090.0,0,0,0,
2026-03-29 08:56:00,METAR KHPN 290856Z 27003KT 10SM FEW100 M02/M09 A3052 RMK AO2 SLP344 T10171094 55000,0,3.0,0,16090.0,0,0,0,
2026-03-29 07:56:00,METAR KHPN 290756Z 00000KT 10SM CLR M03/M09 A3052 RMK AO2 SLP344 T10331089,0,0.0,0,16090.0,0,0,0,
2026-03-29 06:56:00,METAR KHPN 290656Z 00000KT 10SM CLR M03/M10 A3052 RMK AO2 SLP344 T10281100,0,0.0,0,16090.0,0,0,0,
2026-03-29 05:56:00,METAR KHPN 290556Z 00000KT 10SM CLR M03/M10 A3052 RMK AO2 SLP345 T10281100 10022 21033 51014,0,0.0,0,16090.0,0,0,0,
2026-03-29 04:56:00,METAR KHPN 290456Z 00000KT 10SM CLR M02/M11 A3051 RMK AO2 SLP341 T10171106 400501028,0,0.0,0,16090.0,0,0,0,
2026-03-29 03:56:00,METAR KHPN 290356Z 34004KT 10SM CLR M01/M11 A3050 RMK AO2 SLP337 T10061111,0,4.0,0,16090.0,0,0,0,
2026-03-29 02:56:00,METAR KHPN 290256Z 31004KT 10SM CLR 00/M11 A3048 RMK AO2 SLP331 T00001111 51018,0,4.0,0,16090.0,0,0,0,
2026-03-29 01:56:00,METAR KHPN 290156Z 32007KT 10SM CLR 00/M11 A3047 RMK AO2 SLP328 T00001111,0,7.0,0,16090.0,0,0,0,
2026-03-29 00:56:00,METAR KHPN 290056Z 32011KT 10SM CLR 01/M12 A3046 RMK AO2 SLP323 T00111122,0,11.0,0,16090.0,0,0,0,
2026-03-28 23:56:00,METAR KHPN 282356Z 31011KT 10SM CLR 02/M13 A3043 RMK AO2 SLP313 T00221133 10050 20022 53014,0,11.0,0,16090.0,0,0,0,
2026-03-28 22:56:00,METAR KHPN 282256Z 31012G21KT 10SM FEW075 03/M14 A3040 RMK AO2 PK WND 29026/2201 SLP304 T00331139,0,12.0,1,16090.0,0,0,0,
2026-03-28 21:56:00,METAR KHPN 282156Z 32012G20KT 10SM FEW075 04/M14 A3039 RMK AO2 PK WND 30028/2107 SLP300 T00391144,0,12.0,1,16090.0,0,0,0,
2026-03-28 20:56:00,METAR KHPN 282056Z 31016G29KT 10SM SCT080 04/M15 A3039 RMK AO2 PK WND 31029/2000 SLP298 T00441150 55000,0,16.0,1,16090.0,0,0,0,
2026-03-28 19:56:00,METAR KHPN 281956Z 31016G26KT 10SM BKN080 05/M14 A3038 RMK AO2 PK WND 29027/1859 SLP293 T00501139,0,16.0,1,16090.0,0,0,0,
2026-03-28 18:56:00,METAR KHPN 281856Z 31019G29KT 10SM SCT075 BKN090 05/M15 A3038 RMK AO2 PK WND 29029/1848 SLP293 T00501150,0,19.0,1,16090.0,0,0,0,
2026-03-28 17:56:00,METAR KHPN 281756Z 32009G23KT 10SM SCT070 BKN080 04/M14 A3039 RMK AO2 SLP297 T00391139 10039 21022 58010,0,9.0,1,16090.0,0,0,0,
2026-03-28 16:56:00,METAR KHPN 281656Z 30011G17KT 10SM BKN065 03/M14 A3040 RMK AO2 SLP302 T00281144,0,11.0,1,16090.0,0,0,0,
2026-03-28 15:56:00,METAR KHPN 281556Z 33012G19KT 10SM SCT100 02/M14 A3041 RMK AO2 SLP305 T00171139,0,12.0,1,16090.0,0,0,0,
2026-03-28 14:56:00,METAR KHPN 281456Z 33016G27KT 10SM SCT100 01/M14 A3042 RMK AO2 PK WND 34027/1449 SLP307 T00111139 51026,0,16.0,1,16090.0,0,0,0,
2026-03-28 13:56:00,METAR KHPN 281356Z 34014G23KT 10SM FEW070 00/M14 A3039 RMK AO2 SLP298 T00001139,0,14.0,1,16090.0,0,0,0,
2026-03-28 12:56:00,METAR KHPN 281256Z 35013KT 10SM FEW070 M01/M13 A3037 RMK AO2 SLP290 T10111128,0,13.0,0,16090.0,0,0,0,
2026-03-28 11:56:00,METAR KHPN 281156Z 34014KT 10SM FEW070 M02/M12 A3034 RMK AO2 SLP281 T10221117 10017 21028 53037,0,14.0,0,16090.0,0,0,0,
2026-03-28 10:56:00,METAR KHPN 281056Z 33012KT 10SM FEW030 M03/M11 A3030 RMK AO2 SLP268 T10281106,0,12.0,0,16090.0,0,0,0,
2026-03-28 09:56:00,METAR KHPN 280956Z 34011KT 10SM CLR M02/M11 A3026 RMK AO2 SLP253 T10221111,0,11.0,0,16090.0,0,0,0,
2026-03-28 08:56:00,METAR KHPN 280856Z 34010KT 10SM SCT055 M01/M10 A3023 RMK AO2 SLP243 T10111100 53014,0,10.0,0,16090.0,0,0,0,
2026-03-28 07:56:00,METAR KHPN 280756Z 35011KT 10SM OVC055 00/M11 A3020 RMK AO2 SLP234 T00001106,0,11.0,0,16090.0,0,0,0,
2026-03-28 06:56:00,METAR KHPN 280656Z 36009KT 10SM BKN060 01/M10 A3019 RMK AO2 SLP228 T00061100,0,9.0,0,16090.0,0,0,0,
2026-03-28 05:56:00,METAR KHPN 280556Z 36005KT 10SM BKN065 01/M08 A3019 RMK AO2 SLP228 T00111078 10056 20011 51013,0,5.0,0,16090.0,0,0,0,
2026-03-28 04:56:00,METAR KHPN 280456Z 34008KT 10SM BKN060 02/M06 A3018 RMK AO2 SLP223 T00221061 401720011,0,8.0,0,16090.0,0,0,0,
2026-03-28 03:56:00,METAR KHPN 280356Z 30005KT 10SM BKN060 02/M04 A3017 RMK AO2 SLP221 T00221044,0,5.0,0,16090.0,0,0,0,
2026-03-28 02:56:00,METAR KHPN 280256Z 00000KT 10SM CLR 03/M07 A3015 RMK AO2 SLP215 T00281072 51017,0,0.0,0,16090.0,0,0,0,
2026-03-28 01:56:00,METAR KHPN 280156Z 01004KT 10SM CLR 04/M09 A3014 RMK AO2 SLP210 T00391089,0,4.0,0,16090.0,0,0,0,
2026-03-28 00:56:00,METAR KHPN 280056Z 00000KT 10SM CLR 05/M08 A3012 RMK AO2 SLP204 T00501083,0,0.0,0,16090.0,0,0,0,
2026-03-27 23:56:00,METAR KHPN 272356Z 01006KT 10SM BKN120 06/M08 A3010 RMK AO2 SLP195 T00561078 10078 20056 51015,0,6.0,0,16090.0,0,0,0,
2026-03-27 22:56:00,METAR KHPN 272256Z 02006KT 10SM BKN120 06/M08 A3008 RMK AO2 SLP188 T00611078,0,6.0,0,16090.0,0,0,0,
2026-03-27 21:56:00,METAR KHPN 272156Z 35008KT 10SM BKN110 06/M07 A3008 RMK AO2 SLP187 T00611067,0,8.0,0,16090.0,0,0,0,
2026-03-27 20:56:00,METAR KHPN 272056Z 36009KT 10SM BKN120 07/M06 A3005 RMK AO2 SLP179 T00671056 52005,0,9.0,0,16090.0,0,0,0,
2026-03-27 19:56:00,METAR KHPN 271956Z 35011G16KT 10SM BKN120 07/M04 A3005 RMK AO2 SLP178 T00671044,0,11.0,1,16090.0,0,0,0,
2026-03-27 18:56:00,METAR KHPN 271856Z 01009G18KT 340V040 10SM SCT120 07/M04 A3004 RMK AO2 SLP176 T00671044,0,9.0,1,16090.0,0,0,0,
2026-03-27 17:56:00,METAR KHPN 271756Z 02012G21KT 10SM SCT042 08/M03 A3004 RMK AO2 SLP174 T00781033 10122 20078 51021,0,12.0,1,16090.0,0,0,0,
2026-03-27 16:56:00,METAR KHPN 271656Z 35013G20KT 10SM BKN043 09/M02 A3003 RMK AO2 SLP168 T00941017,0,13.0,1,16090.0,0,0,0,
2026-03-25 14:56:00,METAR KHPN 251456Z 14007KT 10SM CLR 06/M03 A3039 RMK AO2 SLP296 T00611033 52005,0,7.0,0,16090.0,0,0,0,
2026-03-25 13:56:00,METAR KHPN 251356Z 09004KT 10SM CLR 06/M06 A3038 RMK AO2 SLP294 T00561056,0,4.0,0,16090.0,0,0,0,
2026-03-25 12:56:00,METAR KHPN 251256Z 34004KT 10SM CLR 04/M06 A3038 RMK AO2 SLP293 T00441056,0,4.0,0,16090.0,0,0,0,
2026-03-25 11:56:00,METAR KHPN 251156Z 00000KT 10SM CLR 02/M03 A3037 RMK AO2 SLP292 T00221033 10028 21006 53012,0,0.0,0,16090.0,0,0,0,
2026-03-25 10:56:00,METAR KHPN 251056Z 31005KT 10SM CLR M01/M04 A3036 RMK AO2 SLP287 T10061044,0,5.0,0,16090.0,0,0,0,
2026-03-25 09:56:00,METAR KHPN 250956Z 28004KT 10SM CLR 02/M05 A3035 RMK AO2 SLP282 T00171050,0,4.0,0,16090.0,0,0,0,
2026-03-25 08:56:00,METAR KHPN 250856Z 30003KT 10SM CLR 02/M05 A3034 RMK AO2 SLP278 T00171050 53005,0,3.0,0,16090.0,0,0,0,
2026-03-25 07:56:00,METAR KHPN 250756Z 26004KT 10SM CLR 03/M04 A3032 RMK AO2 SLP273 T00281044,0,4.0,0,16090.0,0,0,0,
2026-03-25 06:56:00,METAR KHPN 250656Z 00000KT 10SM CLR 02/M04 A3031 RMK AO2 SLP271 T00171039,0,0.0,0,16090.0,0,0,0,
2026-03-25 05:56:00,METAR KHPN 250556Z 00000KT 10SM CLR 02/M03 A3032 RMK AO2 SLP273 T00171033 10039 20017 58002,0,0.0,0,16090.0,0,0,0,
2026-03-25 04:56:00,METAR KHPN 250456Z VRB03KT 10SM SCT120 03/M03 A3033 RMK AO2 SLP275 T00281033 400891033,0,3.0,0,16090.0,0,0,0,
2026-03-25 03:56:00,METAR KHPN 250356Z 19004KT 10SM CLR 03/M03 A3033 RMK AO2 SLP275 T00281033,0,4.0,0,16090.0,0,0,0,
2026-03-25 02:56:00,METAR KHPN 250256Z 19003KT 10SM CLR 03/M03 A3033 RMK AO2 SLP275 T00281033 53004,0,3.0,0,16090.0,0,0,0,
2026-03-25 01:56:00,METAR KHPN 250156Z 19004KT 10SM CLR 03/M04 A3032 RMK AO2 SLP275 T00281044,0,4.0,0,16090.0,0,0,0,
2026-03-25 00:56:00,METAR KHPN 250056Z 19007KT 10SM CLR 03/M07 A3032 RMK AO2 SLP273 T00281067,0,7.0,0,16090.0,0,0,0,
2026-03-24 23:56:00,METAR KHPN 242356Z 18006G14KT 10SM CLR 04/M07 A3032 RMK AO2 SLP272 T00391067 10089 20039 53007,0,6.0,1,16090.0,0,0,0,
2026-03-24 22:56:00,METAR KHPN 242256Z 18011KT 10SM CLR 06/M06 A3030 RMK AO2 SLP269 T00561056,0,11.0,0,16090.0,0,0,0,
2026-03-24 21:56:00,METAR KHPN 242156Z 17008KT 10SM CLR 07/M08 A3029 RMK AO2 SLP263 T00721078,0,8.0,0,16090.0,0,0,0,
2026-03-24 20:56:00,METAR KHPN 242056Z 20004KT 10SM CLR 08/M09 A3030 RMK AO2 SLP265 T00781089 56012,0,4.0,0,16090.0,0,0,0,
2026-03-24 19:56:00,METAR KHPN 241956Z VRB05KT 10SM CLR 08/M10 A3030 RMK AO2 SLP266 T00831100,0,5.0,0,16090.0,0,0,0,
2026-03-24 18:56:00,METAR KHPN 241856Z VRB04KT 10SM CLR 08/M08 A3030 RMK AO2 SLP267 T00781083,0,4.0,0,16090.0,0,0,0,
2026-03-24 17:56:00,METAR KHPN 241756Z 30005KT 10SM CLR 06/M08 A3033 RMK AO2 SLP278 T00611078 10067 20000 58020,0,5.0,0,16090.0,0,0,0,
2026-03-24 16:56:00,METAR KHPN 241656Z 33007KT 10SM CLR 06/M07 A3037 RMK AO2 SLP290 T00611072,0,7.0,0,16090.0,0,0,0,
2026-03-24 15:56:00,METAR KHPN 241556Z 33011G20KT 10SM CLR 04/M08 A3039 RMK AO2 SLP299 T00441078,0,11.0,1,16090.0,0,0,0,
2026-03-24 14:56:00,METAR KHPN 241456Z 01014G20KT 10SM CLR 04/M07 A3039 RMK AO2 SLP298 T00441072 53016,0,14.0,1,16090.0,0,0,0,
2026-03-24 13:56:00,METAR KHPN 241356Z 35013G23KT 10SM FEW030 03/M07 A3037 RMK AO2 SLP291 T00281072,0,13.0,1,16090.0,0,0,0,
2026-03-24 12:56:00,METAR KHPN 241256Z 32009KT 10SM CLR 02/M06 A3035 RMK AO2 SLP286 T00171061,0,9.0,0,16090.0,0,0,0,
2026-03-24 11:56:00,METAR KHPN 241156Z 33007KT 10SM CLR 00/M06 A3034 RMK AO2 SLP283 70003 T00001061 10000 21033 53027,0,7.0,0,16090.0,0,0,0,
2026-03-24 10:56:00,METAR KHPN 241056Z 32005KT 10SM CLR M02/M07 A3031 RMK AO2 SLP273 T10221072,0,5.0,0,16090.0,0,0,0,
2026-03-24 09:56:00,METAR KHPN 240956Z 28004KT 10SM CLR M02/M06 A3029 RMK AO2 SLP265 T10171061,0,4.0,0,16090.0,0,0,0,
2026-03-24 08:56:00,METAR KHPN 240856Z 00000KT 10SM CLR M02/M07 A3026 RMK AO2 SLP256 T10221067 51021,0,0.0,0,16090.0,0,0,0,
2026-03-24 07:56:00,METAR KHPN 240756Z 28004KT 10SM CLR M01/M07 A3024 RMK AO2 SLP248 T10111067,0,4.0,0,16090.0,0,0,0,
2026-03-24 06:56:00,METAR KHPN 240656Z 32007KT 10SM CLR M01/M07 A3023 RMK AO2 SLP244 T10061067,0,7.0,0,16090.0,0,0,0,
2026-03-24 05:56:00,METAR KHPN 240556Z 33014KT 10SM CLR 00/M06 A3020 RMK AO2 SLP234 60000 T00001061 10022 20000 51014,0,14.0,0,16090.0,0,0,0,
2026-03-24 04:56:00,METAR KHPN 240456Z 32012KT 10SM CLR 00/M06 A3020 RMK AO2 SLP233 T00001061 401000000,0,12.0,0,16090.0,0,0,0,
2026-03-24 03:56:00,METAR KHPN 240356Z 32012KT 10SM SCT047 01/M06 A3018 RMK AO2 SLP227 T00061056,0,12.0,0,16090.0,0,0,0,
2026-03-24 02:56:00,METAR KHPN 240256Z 32012G21KT 10SM BKN043 01/M05 A3016 RMK AO2 SLP219 60000 T00111050 51029,0,12.0,1,16090.0,0,0,0,
2026-03-24 01:56:00,METAR KHPN 240156Z 31010KT 10SM SCT047 BKN055 01/M04 A3014 RMK AO2 SLP213 T00111039,0,10.0,0,16090.0,0,0,0,
2026-03-24 00:56:00,METAR KHPN 240056Z 31014G22KT 9SM BKN030 BKN036 02/M02 A3011 RMK AO2 RAE2359DZB2359E24 SLP203 P0000 T00171017,0,14.0,1,14481.0,0,0,0,RA
2026-03-24 00:24:00,SPECI KHPN 240024Z 32012G20KT 6SM BR SCT010 BKN030 BKN036 02/00 A3009 RMK AO2 RAE2359DZB2359E24 P0000 T00220000,0,12.0,1,9654.0,0,0,1,"BR,RA"
2026-03-23 23:56:00,METAR KHPN 232356Z COR 31011KT 2SM -DZ BR SCT009 BKN014 OVC028 02/M01 A3007 RMK AO2 DZE20RAB20 SLP189 P0003 60003 T00171006 10044 20017 53044,0,11.0,0,3218.0,0,0,1,"BR,DZ"
2026-03-23 23:21:00,SPECI KHPN 232321Z 31013KT 1 1/2SM -RA BR SCT009 BKN014 OVC028 02/00 A3004 RMK AO2 DZE20RAB20 P0001 T00170000,0,13.0,0,2414.0,0,0,1,"-RA,BR,DZ"
2026-03-23 22:56:00,METAR KHPN 232256Z 31012KT 10SM -DZ SCT018 BKN037 03/00 A3002 RMK AO2 DZB52 SLP171 P0000 T00330000,0,12.0,0,16090.0,0,0,0,DZ
2026-03-23 21:56:00,METAR KHPN 232156Z 33013KT 10SM FEW018 BKN036 04/M01 A2998 RMK AO2 SLP156 T00391006,0,13.0,0,16090.0,0,0,0,
2026-03-23 20:56:00,METAR KHPN 232056Z 33010KT 10SM SCT018 BKN038 04/01 A2994 RMK AO2 DZE51 SLP143 P0000 60000 T00390006 53026,0,10.0,0,16090.0,0,0,0,
2026-03-23 19:56:00,METAR KHPN 231956Z 32014KT 10SM -DZ SCT014 BKN044 BKN055 04/01 A2990 RMK AO2 SLP131 P0000 T00390006,0,14.0,0,16090.0,0,0,0,DZ
2026-03-23 18:56:00,METAR KHPN 231856Z 34012KT 10SM -DZ BKN008 OVC044 03/01 A2988 RMK AO2 SLP121 P0000 T00330006,0,12.0,0,16090.0,0,0,0,DZ
2026-03-23 17:56:00,METAR KHPN 231756Z 33011KT 10SM -DZ BKN009 OVC012 03/01 A2986 RMK AO2 SLP117 P0000 60000 T00330011 10050 20033 51018,0,11.0,0,16090.0,0,0,0,DZ
2026-03-23 16:56:00,METAR KHPN 231656Z 32010KT 1 1/2SM -DZ BR BKN008 OVC012 03/02 A2986 RMK AO2 SLP116 P0000 T00330017,0,10.0,0,2414.0,0,0,1,"BR,DZ"
2026-03-23 16:41:00,SPECI KHPN 231641Z 33012KT 1 1/2SM -DZ BR BKN006 OVC010 03/02 A2985 RMK AO2 P0000 T00330017,0,12.0,0,2414.0,0,0,1,"BR,DZ"
2026-03-23 15:56:00,METAR KHPN 231556Z 33011KT 2SM -DZ BR BKN006 OVC010 04/02 A2983 RMK AO2 SLP105 P0000 T00440022,0,11.0,0,3218.0,0,0,1,"BR,DZ"
2026-03-23 15:31:00,SPECI KHPN 231531Z 36007KT 1 1/2SM -DZ BR BKN006 OVC010 04/02 A2982 RMK AO2 P0000 T00440022,0,7.0,0,2414.0,0,0,1,"BR,DZ"
2026-03-23 14:56:00,METAR KHPN 231456Z 35007KT 1SM R16/P6000FT -DZ BR BKN007 OVC008 04/02 A2981 RMK AO2 SLP098 P0000 60000 T00440022 53022,0,7.0,0,1609.0,0,0,1,"BR,DZ"
2026-03-23 14:54:00,SPECI KHPN 231454Z 35008KT 1SM R16/P6000FT -DZ BR BKN007 OVC008 04/02 A2981 RMK AO2 P0000,0,8.0,0,1609.0,0,0,1,"BR,DZ"
2026-03-23 14:35:00,SPECI KHPN 231435Z 36005KT 2SM -DZ BR BKN010 OVC021 04/02 A2980 RMK AO2 P0000 T00440022,0,5.0,0,3218.0,0,0,1,"BR,DZ"
2026-03-23 13:56:00,METAR KHPN 231356Z 01008KT 6SM -DZ BR BKN010 OVC021 04/02 A2978 RMK AO2 SLP089 P0000 T00440022,0,8.0,0,9654.0,0,0,1,"BR,DZ"
2026-03-23 12:56:00,METAR KHPN 231256Z 01009KT 2 1/2SM -DZ BR BKN008 OVC021 04/02 A2974 RMK AO2 RAE38DZB38 SLP074 P0000 T00440022,0,9.0,0,4022.0,0,0,1,"BR,DZ,RA"
2026-03-23 12:38:00,SPECI KHPN 231238Z 01010KT 2 1/2SM -DZ BR BKN008 OVC021 05/03 A2974 RMK AO2 RAE38DZB38 P0000 T00500028,0,10.0,0,4022.0,0,0,1,"BR,DZ,RA"
2026-03-23 12:18:00,SPECI KHPN 231218Z COR 36007KT 2 1/2SM -RA BR BKN009 BKN014 OVC022 05/03 A2975 RMK AO2 P0000 T00500028,0,7.0,0,4022.0,0,0,1,"-RA,BR"
2026-03-23 11:56:00,METAR KHPN 231156Z 01008KT 7SM -RA BKN009 BKN014 OVC022 05/03 A2974 RMK AO2 SLP075 P0003 60064 70091 T00500028 10094 20050 53018,0,8.0,0,11263.0,0,0,0,-RA
2026-03-23 10:56:00,METAR KHPN 231056Z 05008KT 3SM -RA BR FEW009 OVC017 06/03 A2971 RMK AO2 SLP065 P0017 T00560033,0,8.0,0,4827.0,0,0,1,"-RA,BR"
2026-03-23 09:56:00,METAR KHPN 230956Z 36007KT 4SM -RA BR SCT008 OVC013 07/06 A2971 RMK AO2 SLP063 P0013 T00720056,0,7.0,0,6436.0,0,0,1,"-RA,BR"
2026-03-23 08:56:00,METAR KHPN 230856Z 01005KT 6SM -RA BR SCT006 BKN011 OVC035 08/07 A2969 RMK AO2 SLP056 P0012 60031 T00780067 58017,0,5.0,0,9654.0,0,0,1,"-RA,BR"
2026-03-23 07:56:00,METAR KHPN 230756Z 34004KT 6SM -RA BR SCT055 BKN075 08/07 A2972 RMK AO2 SLP065 P0016 T00830067,0,4.0,0,9654.0,0,0,1,"-RA,BR"
2026-03-23 06:56:00,METAR KHPN 230656Z 01006KT 10SM -RA FEW010 BKN034 09/07 A2971 RMK AO2 RAB34 SLP064 P0003 T00890067,0,6.0,0,16090.0,0,0,0,-RA
2026-03-23 05:56:00,METAR KHPN 230556Z 33009KT 10SM FEW010 BKN026 09/08 A2974 RMK AO2 SLP073 60027 T00940078 10111 20094 53002,0,9.0,0,16090.0,0,0,0,
2026-03-23 04:56:00,METAR KHPN 230456Z 00000KT 5SM BR SCT005 OVC010 09/08 A2969 RMK AO2 RAE53 SLP058 P0000 T00940083 401280044,0,0.0,0,8045.0,0,0,1,BR
2026-03-23 03:56:00,METAR KHPN 230356Z 16003KT 2 1/2SM -RA BR BKN001 09/08 A2972 RMK AO2 SLP066 P0004 T00940083,0,3.0,0,4022.0,0,0,1,"-RA,BR"
2026-03-23 03:23:00,SPECI KHPN 230323Z 02003KT 2 1/2SM -RA BR SCT001 BKN011 09/08 A2971 RMK AO2 P0002 T00940083,0,3.0,0,4022.0,0,0,1,"-RA,BR"
2026-03-23 03:21:00,SPECI KHPN 230321Z 04004KT 2 1/2SM -RA BR BKN001 BKN046 OVC070 09/08 A2971 RMK AO2 P0002 T00940083,0,4.0,0,4022.0,0,0,1,"-RA,BR"
2026-03-23 02:56:00,METAR KHPN 230256Z 14003KT 2 1/2SM -RA BR SCT003 BKN025 OVC070 09/09 A2973 RMK AO2 SLP072 P0007 60023 T00940089 50007,0,3.0,0,4022.0,0,0,1,"-RA,BR"
2026-03-23 02:54:00,SPECI KHPN 230254Z 00000KT 3SM R16/5000VP6000FT -RA BR SCT003 BKN025 OVC070 09/09 A2974 RMK AO2 P0007,0,0.0,0,4827.0,0,0,1,"-RA,BR"
2026-03-23 02:24:00,SPECI KHPN 230224Z 14006KT 1 1/2SM -RA BR FEW031 SCT070 OVC095 09/08 A2973 RMK AO2 P0001 T00940083,0,6.0,0,2414.0,0,0,1,"-RA,BR"
2026-03-23 01:56:00,METAR KHPN 230156Z 00000KT 4SM -RA BR FEW070 OVC095 10/09 A2976 RMK AO2 SLP080 P0007 T01000089,0,0.0,0,6436.0,0,0,1,"-RA,BR"
2026-03-23 01:45:00,SPECI KHPN 230145Z 16004KT 2 1/2SM -RA BR OVC085 10/08 A2974 RMK AO2 P0007 T01000083,0,4.0,0,4022.0,0,0,1,"-RA,BR"
2026-03-23 00:56:00,METAR KHPN 230056Z 00000KT 5SM -RA BR OVC085 11/09 A2976 RMK AO2 DZE52RAB52 SLP079 P0009 T01110089,0,0.0,0,8045.0,0,0,1,"-RA,BR,DZ"
2026-03-22 23:56:00,METAR KHPN 222356Z 36005KT 9SM -DZ BKN110 10/08 A2971 RMK AO2 PRESRR SLP065 P0000 60000 T01000078 10128 20089 53009,0,5.0,0,14481.0,0,0,0,DZ
2026-03-22 22:56:00,METAR KHPN 222256Z 14008KT 7SM -DZ SCT100 BKN110 11/08 A2968 RMK AO2 RAB40E56DZB56 PRESFR SLP054 P0000 T01110078,0,8.0,0,11263.0,0,0,0,"DZ,RA"
2026-03-22 21:56:00,METAR KHPN 222156Z 10005KT 10SM SCT110 12/07 A2967 RMK AO2 SLP049 T01170072,0,5.0,0,16090.0,0,0,0,
2026-03-22 20:56:00,METAR KHPN 222056Z 10004KT 10SM FEW120 13/08 A2969 RMK AO2 SLP054 T01280078 56027,0,4.0,0,16090.0,0,0,0,
2026-03-22 19:56:00,METAR KHPN 221956Z VRB03KT 10SM BKN120 12/07 A2971 RMK AO2 SLP062 T01170072,0,3.0,0,16090.0,0,0,0,
2026-03-22 18:56:00,METAR KHPN 221856Z 12005KT 7SM SCT007 BKN020 10/07 A2971 RMK AO2 SLP064 T01000072,0,5.0,0,11263.0,0,0,0,
2026-03-22 17:56:00,METAR KHPN 221756Z 00000KT 2SM BR OVC003 09/07 A2977 RMK AO2 DZE52 SLP084 P0000 60000 T00890067 10089 20056 58017,0,0.0,0,3218.0,0,0,1,BR
2026-03-22 16:56:00,METAR KHPN 221656Z 16007KT 3/4SM R16/P6000FT -DZ BR OVC002 08/07 A2978 RMK AO2 SLP087 P0000 T00830067,0,7.0,0,1207.0,0,0,1,"BR,DZ"
2026-03-22 15:56:00,METAR KHPN 221556Z 19008G17KT 1 1/4SM -DZ BR OVC004 08/07 A2981 RMK AO2 DZB41 SLP098 P0000 T00830067,0,8.0,1,2011.0,0,0,1,"BR,DZ"
2026-03-22 15:29:00,SPECI KHPN 221529Z 18008G14KT 1 1/2SM BR OVC004 08/07 A2980 RMK AO2 T00830067,0,8.0,1,2414.0,0,0,1,BR
2026-03-22 14:56:00,METAR KHPN 221456Z 18007G17KT 9SM OVC007 08/06 A2982 RMK AO2 SLP100 T00830061 56022,0,7.0,1,14481.0,0,0,0,
2026-03-22 13:56:00,METAR KHPN 221356Z 17007KT 8SM OVC005 08/06 A2983 RMK AO2 SLP104 T00780056,0,7.0,0,12872.0,0,0,0,
2026-03-22 12:56:00,METAR KHPN 221256Z 18007KT 7SM OVC005 07/04 A2985 RMK AO2 SLP113 T00670044,0,7.0,0,11263.0,0,0,0,
2026-03-22 12:06:00,SPECI KHPN 221206Z 16006KT 7SM BKN009 OVC036 06/04 A2988 RMK AO2 T00610039,0,6.0,0,11263.0,0,0,0,
2026-03-22 11:56:00,METAR KHPN 221156Z COR 15006KT 10SM SCT009 OVC036 06/03 A2988 RMK AO2 SLP123 60000 T00560033 10056 20050 57022,0,6.0,0,16090.0,0,0,0,
2026-03-22 10:56:00,METAR KHPN 221056Z 14005KT 10SM OVC039 06/03 A2991 RMK AO2 SLP130 T00560033,0,5.0,0,16090.0,0,0,0,
2026-03-22 09:56:00,METAR KHPN 220956Z 13005KT 10SM BKN046 06/03 A2992 RMK AO2 RAB01E14 SLP136 P0000 T00560033,0,5.0,0,16090.0,0,0,0,RA
2026-03-22 08:56:00,METAR KHPN 220856Z 12007KT 10SM FEW008 OVC055 06/03 A2995 RMK AO2 RAB01E52 PRESFR SLP145 P0000 60000 T00560033 56007,0,7.0,0,16090.0,0,0,0,RA
2026-03-22 07:56:00,METAR KHPN 220756Z 12008KT 10SM BKN008 06/02 A2995 RMK AO2 SLP144 T00560022,0,8.0,0,16090.0,0,0,0,
2026-03-22 06:56:00,METAR KHPN 220656Z 12006KT 10SM BKN100 06/M02 A2994 RMK AO2 SLP140 T00561017,0,6.0,0,16090.0,0,0,0,
2026-03-22 05:56:00,METAR KHPN 220556Z 00000KT 10SM FEW095 05/M02 A2997 RMK AO2 SLP152 T00501022 10083 20044 53001,0,0.0,0,16090.0,0,0,0,
2026-03-22 04:56:00,METAR KHPN 220456Z COR 05003KT 10SM SCT110 06/M02 A2997 RMK AO2 SLP153 T00611022 401390050,0,3.0,0,16090.0,0,0,0,
2026-03-22 03:56:00,METAR KHPN 220356Z 00000KT 10SM SCT110 05/M02 A2995 RMK AO2 SLP146 T00501022,0,0.0,0,16090.0,0,0,0,
2026-03-22 02:56:00,METAR KHPN 220256Z 06004KT 10SM CLR 07/M02 A2997 RMK AO2 SLP151 T00671022 50004,0,4.0,0,16090.0,0,0,0,
2026-03-22 01:56:00,METAR KHPN 220156Z 03003KT 10SM CLR 07/M02 A2998 RMK AO2 SLP155 T00721022,0,3.0,0,16090.0,0,0,0,
2026-03-22 00:56:00,METAR KHPN 220056Z 02006KT 10SM CLR 07/M02 A2997 RMK AO2 SLP151 T00721017,0,6.0,0,16090.0,0,0,0,
2026-03-21 23:56:00,METAR KHPN 212356Z 04009KT 10SM CLR 08/M02 A2996 RMK AO2 SLP147 T00831017 10139 20083 52020,0,9.0,0,16090.0,0,0,0,
2026-03-21 22:56:00,METAR KHPN 212256Z 06007KT 10SM FEW040 10/M01 A2993 RMK AO2 SLP139 T01001011,0,7.0,0,16090.0,0,0,0,
2026-03-21 21:56:00,METAR KHPN 212156Z 02009KT 10SM CLR 11/M01 A2992 RMK AO2 SLP133 T01061006,0,9.0,0,16090.0,0,0,0,
2026-03-21 20:56:00,METAR KHPN 212056Z 01006KT 10SM CLR 12/00 A2989 RMK AO2 SLP125 T01220000 53004,0,6.0,0,16090.0,0,0,0,
2026-03-21 19:56:00,METAR KHPN 211956Z 34008KT 10SM FEW040 13/01 A2988 RMK AO2 SLP120 T01330011,0,8.0,0,16090.0,0,0,0,
2026-03-21 18:56:00,METAR KHPN 211856Z 32011G17KT 10SM FEW040 13/01 A2987 RMK AO2 SLP118 T01330011,0,11.0,1,16090.0,0,0,0,
2026-03-21 17:56:00,METAR KHPN 211756Z 30009KT 10SM SCT034 12/02 A2988 RMK AO2 SLP121 T01220022 10128 20078 58001,0,9.0,0,16090.0,0,0,0,
2026-03-21 16:56:00,METAR KHPN 211656Z 32011G19KT 10SM BKN028 BKN034 11/03 A2990 RMK AO2 SLP128 T01110028,0,11.0,1,16090.0,0,0,0,
2026-03-21 15:56:00,METAR KHPN 211556Z 34015G20KT 10SM BKN023 09/03 A2990 RMK AO2 SLP127 T00940033,0,15.0,1,16090.0,0,0,0,
2026-03-21 14:56:00,METAR KHPN 211456Z 34013G21KT 10SM BKN016 BKN028 08/04 A2989 RMK AO2 SLP125 T00830039 51029,0,13.0,1,16090.0,0,0,0,
2026-03-21 13:56:00,METAR KHPN 211356Z 34012KT 10SM BKN012 BKN023 08/06 A2987 RMK AO2 SLP117 T00830056,0,12.0,0,16090.0,0,0,0,
2026-03-21 12:56:00,METAR KHPN 211256Z 35008KT 9SM FEW012 BKN025 BKN031 08/07 A2983 RMK AO2 SLP104 T00830067,0,8.0,0,14481.0,0,0,0,
2026-03-21 11:56:00,METAR KHPN 211156Z 33012KT 6SM BR FEW004 BKN018 BKN026 08/07 A2980 RMK AO2 SLP094 70007 T00830067 10089 20050 53020,0,12.0,0,9654.0,0,0,1,BR
2026-03-21 10:56:00,METAR KHPN 211056Z 32007KT 1 1/2SM BR SCT055 07/06 A2977 RMK AO2 SLP083 T00720061,0,7.0,0,2414.0,0,0,1,BR
2026-03-21 09:56:00,METAR KHPN 210956Z 30004KT 3/4SM R16/3500VP6000FT BR VV001 08/08 A2974 RMK AO2 SLP074 T00830078,0,4.0,0,1207.0,0,0,1,BR
2026-03-21 09:28:00,SPECI KHPN 210928Z 31007KT 1/2SM R16/1800V3000FT FG VV001 08/07 A2975 RMK AO2 T00830072,0,7.0,0,804.0,0,0,1,FG
2026-03-21 08:56:00,METAR KHPN 210856Z 31004KT 1/2SM R16/1600FT FG VV001 08/07 A2974 RMK AO2 SLP073 T00830072 53002,0,4.0,0,804.0,0,0,1,FG
2026-03-21 08:45:00,SPECI KHPN 210845Z 29005KT 1/2SM R16/1600V2000FT FG VV001 07/06 A2974 RMK AO2 T00720056,0,5.0,0,804.0,0,0,1,FG
2026-03-21 07:56:00,METAR KHPN 210756Z 00000KT 2SM R16/1800VP6000FT BR BKN003 BKN046 06/05 A2972 RMK AO2 SLP067 T00610050,0,0.0,0,3218.0,0,0,1,BR
2026-03-21 07:12:00,SPECI KHPN 210712Z 34004KT 2 1/2SM BR BKN004 OVC048 07/05 A2972 RMK AO2 T00670050,0,4.0,0,4022.0,0,0,1,BR
2026-03-21 06:56:00,METAR KHPN 210656Z 00000KT 3SM BR BKN004 OVC048 07/06 A2973 RMK AO2 SLP068 T00720056,0,0.0,0,4827.0,0,0,1,BR
2026-03-21 05:56:00,METAR KHPN 210556Z 00000KT 3SM BR SCT007 BKN034 06/04 A2974 RMK AO2 SLP072 60007 T00610044 10078 20056 56013,0,0.0,0,4827.0,0,0,1,BR
2026-03-21 04:56:00,METAR KHPN 210456Z 00000KT 5SM BR FEW025 BKN045 06/05 A2974 RMK AO2 DZE52 SLP073 P0000 T00610050 401171017,0,0.0,0,8045.0,0,0,1,BR
2026-03-21 03:56:00,METAR KHPN 210356Z 00000KT 7SM -DZ SCT019 BKN030 BKN038 06/04 A2976 RMK AO2 RAE10DZB52 SLP079 P0000 T00610044,0,0.0,0,11263.0,0,0,0,"DZ,RA"
2026-03-21 02:56:00,METAR KHPN 210256Z 17004KT 5SM -RA BR SCT023 BKN029 BKN036 06/04 A2977 RMK AO2 SLP086 P0002 60007 T00610044 58007,0,4.0,0,8045.0,0,0,1,"-RA,BR"
2026-03-21 01:56:00,METAR KHPN 210156Z 15006KT 6SM -RA BR FEW050 BKN060 07/04 A2977 RMK AO2 SLP086 P0003 T00670044,0,6.0,0,9654.0,0,0,1,"-RA,BR"
2026-03-21 00:56:00,METAR KHPN 210056Z 00000KT 6SM -RA BKN050 07/04 A2981 RMK AO2 SLP100 P0002 T00670039,0,0.0,0,9654.0,0,0,0,-RA
2026-03-20 23:56:00,METAR KHPN 202356Z 18006KT 10SM -RA BKN065 07/03 A2980 RMK AO2 SLP094 P0000 60000 T00720028 10117 20072 53002,0,6.0,0,16090.0,0,0,0,-RA
2026-03-20 22:56:00,METAR KHPN 202256Z 17007KT 10SM -RA BKN075 BKN085 08/02 A2976 RMK AO2 RAB21 SLP085 P0000 T00780022,0,7.0,0,16090.0,0,0,0,-RA
2026-03-20 21:56:00,METAR KHPN 202156Z 17012G20KT 10SM BKN080 09/02 A2977 RMK AO2 SLP087 T00940017,0,12.0,1,16090.0,0,0,0,
2026-03-20 20:56:00,METAR KHPN 202056Z 16009G15KT 10SM BKN090 11/02 A2979 RMK AO2 SLP093 T01060017 56049,0,9.0,1,16090.0,0,0,0,
2026-03-20 19:56:00,METAR KHPN 201956Z 18010G18KT 10SM CLR 11/02 A2983 RMK AO2 SLP105 T01110017,0,10.0,1,16090.0,0,0,0,
2026-03-20 18:56:00,METAR KHPN 201856Z 17011G20KT 10SM FEW050 11/02 A2988 RMK AO2 SLP123,0,11.0,1,16090.0,0,0,0,
2026-03-20 17:56:00,METAR KHPN 201756Z 17010KT 10SM FEW040 11/02 A2994 RMK AO2 PRESFR SLP142,0,10.0,0,16090.0,0,0,0,
2026-03-20 16:56:00,METAR KHPN 201656Z 16010G17KT 10SM CLR 11/01 A2999 RMK AO2 SLP161 T01000011,0,10.0,1,16090.0,0,0,0,
2026-03-20 15:56:00,METAR KHPN 201556Z 16010KT 10SM CLR 09/01 A3003 RMK AO2 SLP173 T00940006,0,10.0,0,16090.0,0,0,0,
2026-03-20 13:56:00,METAR KHPN 201356Z 18005KT 10SM FEW049 07/M01 A3007 RMK AO2 SLP188 T00671011,0,5.0,0,16090.0,0,0,0,
2026-03-20 12:56:00,METAR KHPN 201256Z 21004KT 10SM FEW049 04/M02 A3008 RMK AO2 SLP194 T00441022,0,4.0,0,16090.0,0,0,0,
2026-03-20 11:56:00,METAR KHPN 201156Z 26003KT 10SM CLR 02/M02 A3010 RMK AO2 SLP201 T00221022 10022 21017 53005,0,3.0,0,16090.0,0,0,0,
2026-03-20 10:56:00,METAR KHPN 201056Z 00000KT 9SM CLR M01/M03 A3010 RMK AO2 SLP200 T10111028,0,0.0,0,14481.0,0,0,0,
2026-03-20 09:56:00,METAR KHPN 200956Z 29003KT 10SM CLR M01/M03 A3008 RMK AO2 SLP195 T10111033,0,3.0,0,16090.0,0,0,0,
2026-03-20 08:56:00,METAR KHPN 200856Z 19003KT 10SM CLR 01/M03 A3009 RMK AO2 SLP195 T00061028 56023,0,3.0,0,16090.0,0,0,0,
2026-03-20 07:56:00,METAR KHPN 200756Z 00000KT 10SM BKN050 00/M03 A3011 RMK AO2 SLP202 T00001033,0,0.0,0,16090.0,0,0,0,
2026-03-20 06:56:00,METAR KHPN 200656Z 00000KT 10SM CLR M01/M04 A3013 RMK AO2 SLP210 T10061039,0,0.0,0,16090.0,0,0,0,
2026-03-20 05:56:00,METAR KHPN 200556Z 00000KT 10SM BKN049 01/M03 A3016 RMK AO2 SLP219 T00061033 10011 21006 58001,0,0.0,0,16090.0,0,0,0,
2026-03-20 04:56:00,METAR KHPN 200456Z 00000KT 10SM SCT045 SCT080 M01/M04 A3016 RMK AO2 SLP220 T10061044 400501028,0,0.0,0,16090.0,0,0,0,
2026-03-20 03:56:00,METAR KHPN 200356Z 00000KT 10SM SCT065 BKN080 00/M04 A3016 RMK AO2 SLP222 T00001044,0,0.0,0,16090.0,0,0,0,
2026-03-20 02:56:00,METAR KHPN 200256Z 14003KT 10SM BKN070 M01/M05 A3016 RMK AO2 SLP221 T10061050 58004,0,3.0,0,16090.0,0,0,0,
2026-03-20 01:56:00,METAR KHPN 200156Z 14004KT 10SM FEW065 00/M06 A3017 RMK AO2 SLP225 T00001056,0,4.0,0,16090.0,0,0,0,
2026-03-20 00:56:00,METAR KHPN 200056Z 16004KT 10SM SCT065 00/M06 A3018 RMK AO2 SLP226 T00001061,0,4.0,0,16090.0,0,0,0,
2026-03-19 23:56:00,METAR KHPN 192356Z 16004KT 10SM FEW040 FEW080 01/M06 A3017 RMK AO2 SLP224 T00111061 10050 20011 53003,0,4.0,0,16090.0,0,0,0,
2026-03-19 22:56:00,METAR KHPN 192256Z 19005KT 10SM CLR 03/M06 A3016 RMK AO2 SLP220 T00331061,0,5.0,0,16090.0,0,0,0,
2026-03-19 21:56:00,METAR KHPN 192156Z 15007KT 10SM FEW050 04/M06 A3015 RMK AO2 SLP218 T00441061,0,7.0,0,16090.0,0,0,0,
2026-03-19 20:56:00,METAR KHPN 192056Z 19004KT 10SM BKN060 04/M06 A3016 RMK AO2 SLP221 T00391061 56023,0,4.0,0,16090.0,0,0,0,
2026-03-19 19:56:00,METAR KHPN 191956Z 17008KT 10SM BKN055 04/M07 A3018 RMK AO2 SLP228 T00391067,0,8.0,0,16090.0,0,0,0,
2026-03-19 18:56:00,METAR KHPN 191856Z 18007KT 10SM BKN055 03/M08 A3021 RMK AO2 SLP237 T00331083,0,7.0,0,16090.0,0,0,0,
2026-03-19 17:56:00,METAR KHPN 191756Z 18005KT 10SM BKN060 03/M08 A3023 RMK AO2 SLP245 T00331078 10039 20000 58018,0,5.0,0,16090.0,0,0,0,
2026-03-19 16:56:00,METAR KHPN 191656Z 17010KT 10SM BKN060 03/M08 A3026 RMK AO2 SLP254 T00281078,0,10.0,0,16090.0,0,0,0,
2026-03-19 15:56:00,METAR KHPN 191556Z 19005KT 10SM BKN050 02/M07 A3027 RMK AO2 SLP260 T00221072,0,5.0,0,16090.0,0,0,0,
2026-03-19 14:56:00,METAR KHPN 191456Z 18007KT 10SM BKN070 02/M07 A3028 RMK AO2 SLP264 T00171067 58001,0,7.0,0,16090.0,0,0,0,
2026-03-19 13:56:00,METAR KHPN 191356Z 18005KT 10SM BKN050 BKN065 01/M06 A3029 RMK AO2 SLP267 T00111061,0,5.0,0,16090.0,0,0,0,
2026-03-19 12:56:00,METAR KHPN 191256Z 20004KT 10SM BKN055 01/M06 A3029 RMK AO2 SLP265 T00061056,0,4.0,0,16090.0,0,0,0,
2026-03-19 11:56:00,METAR KHPN 191156Z 15004KT 10SM BKN060 00/M06 A3029 RMK AO2 SLP265 T00001056 10000 21028 55003,0,4.0,0,16090.0,0,0,0,
2026-03-19 10:56:00,METAR KHPN 191056Z 00000KT 10SM BKN065 M01/M06 A3028 RMK AO2 SLP264 T10111061,0,0.0,0,16090.0,0,0,0,
2026-03-19 09:56:00,METAR KHPN 190956Z 12003KT 10SM BKN070 M02/M07 A3029 RMK AO2 SLP266 T10171067,0,3.0,0,16090.0,0,0,0,
2026-03-19 08:56:00,METAR KHPN 190856Z 10003KT 10SM FEW110 M03/M07 A3030 RMK AO2 SLP268 T10281072 56012,0,3.0,0,16090.0,0,0,0,
2026-03-19 07:56:00,METAR KHPN 190756Z 00000KT 10SM SCT120 M02/M07 A3030 RMK AO2 SLP270 T10171072,0,0.0,0,16090.0,0,0,0,
2026-03-19 06:56:00,METAR KHPN 190656Z 11003KT 10SM BKN120 M02/M08 A3032 RMK AO2 SLP275 T10171078,0,3.0,0,16090.0,0,0,0,
2026-03-19 05:56:00,METAR KHPN 190556Z 00000KT 10SM BKN110 M02/M07 A3033 RMK AO2 SLP280 T10171072 11017 21039 56010,0,0.0,0,16090.0,0,0,0,
2026-03-19 04:56:00,METAR KHPN 190456Z 00000KT 10SM BKN110 M02/M08 A3034 RMK AO2 SLP282 T10221078 400171050,0,0.0,0,16090.0,0,0,0,
2026-03-19 03:56:00,METAR KHPN 190356Z 14004KT 10SM CLR M03/M09 A3034 RMK AO2 SLP285 T10281089,0,4.0,0,16090.0,0,0,0,
2026-03-19 02:56:00,METAR KHPN 190256Z 13003KT 10SM CLR M03/M09 A3036 RMK AO2 SLP291 T10331089 50005,0,3.0,0,16090.0,0,0,0,
2026-03-19 01:56:00,METAR KHPN 190156Z 15004KT 10SM CLR M03/M10 A3037 RMK AO2 SLP293 T10331100,0,4.0,0,16090.0,0,0,0,
2026-03-19 00:56:00,METAR KHPN 190056Z 16005KT 10SM CLR M02/M11 A3036 RMK AO2 SLP292 T10221111,0,5.0,0,16090.0,0,0,0,
2026-03-18 23:56:00,METAR KHPN 182356Z 16007KT 10SM CLR M02/M12 A3035 RMK AO2 SLP286 T10171122 10017 21022 55002,0,7.0,0,16090.0,0,0,0,
2026-03-18 22:56:00,METAR KHPN 182256Z 15008KT 10SM CLR M01/M13 A3034 RMK AO2 SLP284 T10061133,0,8.0,0,16090.0,0,0,0,
2026-03-18 21:56:00,METAR KHPN 182156Z 18009KT 10SM CLR 01/M13 A3035 RMK AO2 SLP287 T00061128,0,9.0,0,16090.0,0,0,0,
2026-03-18 20:56:00,METAR KHPN 182056Z 18008KT 10SM CLR 01/M12 A3035 RMK AO2 SLP287 T00111122 56006,0,8.0,0,16090.0,0,0,0,
2026-03-18 19:56:00,METAR KHPN 181956Z 21010G17KT 10SM CLR 01/M15 A3036 RMK AO2 SLP288 T00111150,0,10.0,1,16090.0,0,0,0,
2026-03-18 18:56:00,METAR KHPN 181856Z 16010G15KT 10SM CLR 01/M12 A3035 RMK AO2 SLP288 T00111117,0,10.0,1,16090.0,0,0,0,
2026-03-18 17:56:00,METAR KHPN 181756Z 30004KT 10SM SCT120 01/M14 A3037 RMK AO2 SLP293 T00061144 10006 21039 53002,0,4.0,0,16090.0,0,0,0,
2026-03-18 16:56:00,METAR KHPN 181656Z 30005KT 10SM SCT110 M01/M14 A3037 RMK AO2 SLP293 T10061139,0,5.0,0,16090.0,0,0,0,
2026-03-18 15:56:00,METAR KHPN 181556Z 34007KT 10SM BKN120 M02/M14 A3036 RMK AO2 SLP289 T10171139,0,7.0,0,16090.0,0,0,0,
2026-03-18 14:56:00,METAR KHPN 181456Z 33010KT 10SM BKN120 M02/M13 A3036 RMK AO2 SLP291 T10221133 58001,0,10.0,0,16090.0,0,0,0,
2026-03-18 13:56:00,METAR KHPN 181356Z 31008KT 10SM CLR M03/M14 A3041 RMK AO2 SLP306 T10281139,0,8.0,0,16090.0,0,0,0,
2026-03-18 12:56:00,METAR KHPN 181256Z 30009KT 10SM CLR M04/M14 A3040 RMK AO2 SLP305 T10391144,0,9.0,0,16090.0,0,0,0,
2026-03-18 11:56:00,METAR KHPN 181156Z 28006KT 10SM CLR M04/M14 A3037 RMK AO2 PRESRR SLP292 T10391139 11022 21050 53042,0,6.0,0,16090.0,0,0,0,
2026-03-18 10:56:00,METAR KHPN 181056Z 30009KT 10SM CLR M04/M14 A3030 RMK AO2 SLP271 T10441139,0,9.0,0,16090.0,0,0,0,
2026-03-18 09:56:00,METAR KHPN 180956Z 31011KT 10SM CLR M04/M14 A3027 RMK AO2 SLP261 T10441139,0,11.0,0,16090.0,0,0,0,
2026-03-18 08:56:00,METAR KHPN 180856Z 29013KT 10SM CLR M04/M14 A3024 RMK AO2 SLP250 T10391144 51018,0,13.0,0,16090.0,0,0,0,
2026-03-18 07:56:00,METAR KHPN 180756Z 28012G19KT 10SM CLR M03/M15 A3023 RMK AO2 SLP243 T10331150,0,12.0,1,16090.0,0,0,0,
2026-03-18 06:56:00,METAR KHPN 180656Z 30015G21KT 10SM CLR M03/M13 A3021 RMK AO2 SLP239 T10281133,0,15.0,1,16090.0,0,0,0,
2026-03-18 05:56:00,METAR KHPN 180556Z 31011KT 10SM CLR M02/M12 A3019 RMK AO2 SLP230 T10221122 10011 21022 51030,0,11.0,0,16090.0,0,0,0,
2026-03-18 04:56:00,METAR KHPN 180456Z 31014G20KT 10SM SCT048 BKN065 M02/M11 A3016 RMK AO2 SLP221 T10171106 401171017,0,14.0,1,16090.0,0,0,0,
2026-03-18 03:56:00,METAR KHPN 180356Z 26005KT 10SM FEW060 M01/M09 A3013 RMK AO2 SLP211 T10111089,0,5.0,0,16090.0,0,0,0,
2026-03-18 02:56:00,METAR KHPN 180256Z 26006KT 10SM FEW060 M01/M09 A3010 RMK AO2 SLP199 T10061094 53036,0,6.0,0,16090.0,0,0,0,
2026-03-18 01:56:00,METAR KHPN 180156Z 27009G18KT 10SM SCT060 BKN075 BKN090 00/M11 A3006 RMK AO2 SLP186 T00001106,0,9.0,1,16090.0,0,0,0,
2026-03-18 00:56:00,METAR KHPN 180056Z 29009KT 10SM BKN085 01/M11 A3003 RMK AO2 SLP175 T00061111,0,9.0,0,16090.0,0,0,0,
2026-03-17 23:56:00,METAR KHPN 172356Z 28010KT 10SM BKN070 01/M12 A2999 RMK AO2 SLP163 T00111117 10050 20011 51040,0,10.0,0,16090.0,0,0,0,
2026-03-17 22:56:00,METAR KHPN 172256Z 30015G22KT 10SM OVC070 01/M11 A2995 RMK AO2 PK WND 30026/2202 SLP151 T00111106,0,15.0,1,16090.0,0,0,0,
2026-03-17 21:56:00,METAR KHPN 172156Z 29016G27KT 10SM BKN060 02/M12 A2991 RMK AO2 PK WND 31029/2114 SLP135 T00221117,0,16.0,1,16090.0,0,0,0,
2026-03-17 20:56:00,METAR KHPN 172056Z 29018G28KT 10SM BKN060 03/M11 A2987 RMK AO2 PK WND 30032/2004 SLP121 T00281106 53019,0,18.0,1,16090.0,0,0,0,
2026-03-17 19:56:00,METAR KHPN 171956Z 28015G24KT 10SM SCT070 04/M12 A2984 RMK AO2 PK WND 30035/1916 SLP111 T00441117,0,15.0,1,16090.0,0,0,0,
2026-03-17 18:56:00,METAR KHPN 171856Z 31021G30KT 10SM SCT065 04/M11 A2982 RMK AO2 PK WND 31030/1856 SLP104 T00441106,0,21.0,1,16090.0,0,0,0,
2026-03-17 17:56:00,METAR KHPN 171756Z 31013G25KT 10SM SCT060 04/M09 A2981 RMK AO2 PK WND 31034/1659 SLP100 T00441094 10044 20011 50001,0,13.0,1,16090.0,0,0,0,
2026-03-17 16:56:00,METAR KHPN 171656Z 28017G29KT 10SM SCT050 03/M09 A2981 RMK AO2 PK WND 32030/1612 SLP099 T00331089,0,17.0,1,16090.0,0,0,0,
2026-03-17 15:56:00,METAR KHPN 171556Z 27015G34KT 10SM SCT048 03/M08 A2981 RMK AO2 PK WND 30034/1547 SLP099 T00331083,0,15.0,1,16090.0,0,0,0,
2026-03-17 14:56:00,METAR KHPN 171456Z 30018G27KT 10SM SCT048 02/M09 A2981 RMK AO2 PK WND 27030/1357 SLP098 T00221089 53039,0,18.0,1,16090.0,0,0,0,
2026-03-17 13:56:00,METAR KHPN 171356Z 28015G27KT 10SM SCT042 02/M09 A2977 RMK AO2 PK WND 29032/1312 SLP085 T00171089,0,15.0,1,16090.0,0,0,0,
2026-03-17 12:56:00,METAR KHPN 171256Z 26017G27KT 10SM SCT042 01/M09 A2973 RMK AO2 PK WND 27029/1225 SLP071 T00111089,0,17.0,1,16090.0,0,0,0,
2026-03-17 11:56:00,METAR KHPN 171156Z 27012G25KT 10SM FEW030 BKN043 01/M07 A2969 RMK AO2 SLP059 60001 70069 T00111072 10067 20006 51047,0,12.0,1,16090.0,0,0,0,
2026-03-17 10:56:00,METAR KHPN 171056Z 28012G27KT 10SM SCT040 01/M08 A2964 RMK AO2 PK WND 27028/0959 SLP043 T00111078,0,12.0,1,16090.0,0,0,0,
2026-03-17 09:56:00,METAR KHPN 170956Z 28018G34KT 10SM FEW040 02/M08 A2960 RMK AO2 PK WND 26034/0951 SLP028 T00171078,0,18.0,1,16090.0,0,0,0,
2026-03-17 08:56:00,METAR KHPN 170856Z 28018G31KT 10SM FEW040 03/M06 A2955 RMK AO2 PK WND 29031/0856 PRESRR SLP010 60001 T00281056 51071,0,18.0,1,16090.0,0,0,0,
2026-03-17 08:34:00,SPECI KHPN 170834Z 28020G31KT 10SM FEW021 SCT029 03/M03 A2952 RMK AO2 PK WND 30031/0827 T00331033,0,20.0,1,16090.0,0,0,0,
2026-03-17 07:56:00,METAR KHPN 170756Z 28014G23KT 10SM BKN021 BKN027 04/M01 A2948 RMK AO2 SLP986 T00441006,0,14.0,1,16090.0,0,0,0,
2026-03-17 06:56:00,METAR KHPN 170656Z 28013G23KT 10SM BKN021 06/02 A2944 RMK AO2 PK WND 26027/0619 RAE32 SLP971 P0001 T00610022,0,13.0,1,16090.0,0,0,0,
2026-03-17 05:56:00,METAR KHPN 170556Z 31014G25KT 6SM -RA BR FEW013 BKN055 07/04 A2934 RMK AO2 PK WND 24039/0509 WSHFT 0459 DZE15RAB15 SLP937 P0001 60007 T00670044 10133 20061 53002,0,14.0,1,9654.0,0,0,1,"-RA,BR,DZ"
2026-03-17 05:19:00,SPECI KHPN 170519Z 28018G38KT 5SM -RA BR BKN005 BKN013 OVC025 09/08 A2931 RMK AO2 PK WND 24039/0509 WSHFT 0459 DZE15RAB15 PRESRR P0000 T00940078,0,18.0,1,8045.0,0,0,1,"-RA,BR,DZ"
2026-03-17 04:56:00,METAR KHPN 170456Z 19024G43KT 4SM -DZ BR OVC003 12/11 A2925 RMK AO2 PK WND 19046/0432 DZE04B37 SLP904 P0002 T01220111 401390056,0,24.0,1,6436.0,0,0,1,"BR,DZ"
2026-03-17 04:37:00,SPECI KHPN 170437Z 19017G46KT 160V230 3SM -DZ BR OVC002 13/12 A2923 RMK AO2 PK WND 19046/0432 DZE04B37 P0000 T01280117,0,17.0,1,4827.0,0,0,1,"BR,DZ"
2026-03-17 04:04:00,SPECI KHPN 170404Z 17018G36KT 1/2SM R16/1600V3000FT FG VV001 12/12 A2925 RMK AO2 PK WND 16031/0403 DZE04 P0000 T01220117,0,18.0,1,804.0,0,0,1,FG
2026-03-17 03:56:00,METAR KHPN 170356Z 17019G36KT 1/4SM R16/1400V1600FT -DZ FG VV001 12/12 A2926 RMK AO2 PK WND 17036/0355 RAB0259E10DZB53 SLP907 P0000 T01220117,0,19.0,1,402.0,0,0,1,"DZ,FG,RA"
2026-03-17 03:34:00,SPECI KHPN 170334Z 17012G22KT 1/4SM R16/1800V2000FT FG VV001 12/12 A2929 RMK AO2 PK WND 17033/0308 RAB0259E10 PRESFR P0000 T01220117,0,12.0,1,402.0,0,0,1,"FG,RA"
2026-03-17 03:22:00,SPECI KHPN 170322Z 17016G31KT 1/2SM R16/1800V2800FT FG VV001 13/12 A2930 RMK AO2 PK WND 17033/0308 RAB0259E10 P0000 T01280117,0,16.0,1,804.0,0,0,1,"FG,RA"
2026-03-17 02:56:00,METAR KHPN 170256Z 17018G25KT 1SM R16/P6000FT BR OVC002 13/13 A2933 RMK AO2 PK WND 18030/0245 DZE52 SLP933 P0001 60004 T01330128 58041,0,18.0,1,1609.0,0,0,1,BR
2026-03-17 01:56:00,METAR KHPN 170156Z 18011G21KT 1/4SM R16/2200V5500FT -DZ FG VV001 13/12 A2937 RMK AO2 PK WND 18029/0103 RAE53DZB53 SLP946 P0000 T01280122,0,11.0,1,402.0,0,0,1,"DZ,FG,RA"
2026-03-17 01:22:00,SPECI KHPN 170122Z 17018G27KT 1/4SM R16/2200V3500FT -RA FG VV001 13/12 A2940 RMK AO2 PK WND 18029/0103 P0000 T01280117,0,18.0,1,402.0,0,0,1,"-RA,FG"
2026-03-17 01:12:00,SPECI KHPN 170112Z 17015G29KT 1/4SM R16/2000V2200FT -RA FG VV001 13/12 A2940 RMK AO2 PK WND 18029/0103 P0000 T01280117,0,15.0,1,402.0,0,0,1,"-RA,FG"
2026-03-17 00:56:00,METAR KHPN 170056Z 16012G24KT 1/4SM R16/3500VP6000FT -RA FG OVC002 12/11 A2942 RMK AO2 SLP962 P0003 T01220111,0,12.0,1,402.0,0,0,1,"-RA,FG"
2026-03-16 23:56:00,METAR KHPN 162356Z 16012G21KT 1 1/2SM -RA BR OVC003 12/11 A2946 RMK AO2 PK WND 16028/2316 SLP975 P0007 60052 T01170106 10139 20117 58031,0,12.0,1,2414.0,0,0,1,"-RA,BR"
2026-03-16 22:56:00,METAR KHPN 162256Z 18009G22KT 1 1/4SM -RA BR OVC003 12/11 A2950 RMK AO2 PK WND 16026/2214 SLP989 P0008 T01220111,0,9.0,1,2011.0,0,0,1,"-RA,BR"
2026-03-16 21:56:00,METAR KHPN 162156Z 16013G25KT 1 1/2SM -RA BR OVC004 12/11 A2952 RMK AO2 PK WND 16031/2131 SLP999 P0035 T01170111,0,13.0,1,2414.0,0,0,1,"-RA,BR"
2026-03-16 21:05:00,SPECI KHPN 162105Z 17011G27KT 1/2SM R16/4000VP6000FT -RA FG VV002 12/12 A2954 RMK AO2 PK WND 17027/2057 P0004 T01220117,0,11.0,1,804.0,0,0,1,"-RA,FG"
2026-03-16 21:00:00,SPECI KHPN 162100Z 17009G28KT 3/4SM R16/2600VP6000FT -RA FG VV002 12/12 A2954 RMK AO2 PK WND 17027/2057 P0003 T01220117,0,9.0,1,1207.0,0,0,1,"-RA,FG"
2026-03-16 20:56:00,METAR KHPN 162056Z 17017G28KT 1/4SM R16/1400V4500FT -RA FG VV001 12/12 A2955 RMK AO2 PK WND 16030/2030 DZB44E55RAB55 SLP008 P0002 60002 T01220117 58027,0,17.0,1,402.0,0,0,1,"-RA,DZ,FG"
2026-03-16 20:52:00,SPECI KHPN 162052Z 17017G26KT 1/4SM R16/1400V3500FT +DZ FG VV001 13/12 A2955 RMK AO2 PK WND 16030/2030 DZB44 P0000,0,17.0,1,402.0,0,0,1,"DZ,FG"
2026-03-16 20:36:00,SPECI KHPN 162036Z 17014G30KT 1/2SM R16/1400V1800FT FG VV002 13/12 A2956 RMK AO2 PK WND 16030/2030 T01280122,0,14.0,1,804.0,0,0,1,FG
2026-03-16 19:56:00,METAR KHPN 161956Z 17019G27KT 1/2SM R16/4500VP6000FT FG VV002 13/12 A2958 RMK AO2 PK WND 18030/1914 SLP018 T01330122,0,19.0,1,804.0,0,0,1,FG
2026-03-16 18:56:00,METAR KHPN 161856Z 16016G27KT 2 1/2SM BR OVC004 13/12 A2961 RMK AO2 PK WND 17027/1849 SLP027 T01330117,0,16.0,1,4022.0,0,0,1,BR
2026-03-16 17:56:00,METAR KHPN 161756Z 16010G23KT 1 1/4SM BR OVC003 13/12 A2963 RMK AO2 PK WND 17026/1745 SLP035 60009 T01330122 10139 20122 56023,0,10.0,1,2011.0,0,0,1,BR
2026-03-16 17:06:00,SPECI KHPN 161706Z 16010G18KT 1 1/4SM BR VV003 13/12 A2965 RMK AO2 T01330122,0,10.0,1,2011.0,0,0,1,BR
2026-03-16 17:03:00,SPECI KHPN 161703Z 16011G18KT 1 1/4SM BR VV003 13/12 A2965 RMK AO2 T01330122,0,11.0,1,2011.0,0,0,1,BR
2026-03-16 16:56:00,METAR KHPN 161656Z COR 17008G20KT 1/4SM R16/P6000FT FG VV003 13/12 A2966 RMK AO2 RAB02E11 SLP044 P0001 T01330122,0,8.0,1,402.0,0,0,1,"FG,RA"
2026-03-16 16:51:00,SPECI KHPN 161651Z AUTO 17010G22KT 2SM R16/2800VP6000FT BR OVC001 13/12 A2966 RMK AO2 RAB02E11 P0001,0,10.0,1,3218.0,0,0,1,"BR,RA"
2026-03-16 16:42:00,SPECI KHPN 161642Z COR 17010G16KT 1/4SM R16/1400V2800FT FG VV001 13/12 A2967 RMK AO2 RAB02E11 T01280122,0,10.0,1,402.0,0,0,1,"FG,RA"
2026-03-16 15:56:00,METAR KHPN 161556Z COR 17010G16KT M1/4SM R16/1200V2000FT FG VV001 12/12 A2970 RMK AO2 RAE23B45E56 SLP059,0,10.0,1,402.0,0,0,1,"FG,RA"
2026-03-16 15:43:00,SPECI KHPN 161543Z COR 18010G18KT M1/4SM R16/1000V1400FT FG VV001 12/12 A2970 RMK AO2 RAE23 T01220117,0,10.0,1,402.0,0,0,1,FG
2026-03-16 15:33:00,SPECI KHPN 161533Z COR 1801021KT M1/4SM R16/1400V2400FT FG VV001 12/12 A2970 RMK AO2 RAE23 T01220117,0,,0,,0,0,1,FG
2026-03-16 15:17:00,SPECI KHPN 161517Z COR 17010G20KT M1/4SM R16/1000V1600FT -RA FG VV001 12/12 A2971 RMK AO2 T01220117,0,10.0,1,402.0,0,0,1,"-RA,FG"
2026-03-16 15:03:00,SPECI KHPN 161503Z COR 16010G19KT M1/4SM R16/1600V4500FT -RA FG VV001 12/12 A2971 RMK AO2 T01220117,0,10.0,1,402.0,0,0,1,"-RA,FG"
2026-03-16 14:56:00,METAR KHPN 161456Z AUTO 17008G16KT 1/4SM R16/1000V2000FT -RA FG VV001 12/12 A2972 RMK AO2 RAB50 SLP066 P0002 60007 T01220117 58015,0,8.0,1,402.0,0,0,1,"-RA,FG"
2026-03-16 14:32:00,SPECI KHPN 161432Z COR 16010G20KT M1/4SM R16/1000V1200FT +DZ FG VV001 12/11 A2972 RMK AO2 T01220111,0,10.0,1,402.0,0,0,1,"DZ,FG"
2026-03-16 14:23:00,METAR KHPN 161423Z COR 16012G20KT M1/4SM R16/1000V1200FT +DZ FG VV001 12/12 A2973 RMK AO2 T01220117,0,12.0,1,402.0,0,0,1,"DZ,FG"
2026-03-16 13:56:00,METAR KHPN 161356Z COR 17009G16KT M1/4SM R16/1000V1400FT +DZ FG VV001 12/12 A2975 RMK AO2 AO2 RAE01DZB13 SLP075 P0000 T01220117,0,9.0,1,402.0,0,0,1,"DZ,FG,RA"
2026-03-16 13:26:00,SPECI KHPN 161326Z COR 16006KT M1/4SM R16/1000V1200FT +DZ FG VV001 12/11 A2976 RMK AO2 RAB34RAE01DZB13 P0000 T01220117,0,6.0,0,402.0,0,0,1,"DZ,FG,RA"
2026-03-16 13:13:00,SPECI KHPN 161313Z COR 16005KT 1/4SM R16/1200V2000FT +DZ FG VV001 12/12 A2976 RMK AO2 RAB34RAE01DZB13 P0000 T01220117,0,5.0,0,402.0,0,0,1,"DZ,FG,RA"
2026-03-16 13:06:00,SPECI KHPN 161306Z COR 16004KT 1/4SM R16/1400V5500FT -RA FG VV001 12/12 A2976 RMK AO2 RAB34 P0000 T01220117,0,4.0,0,402.0,0,0,1,"-RA,FG"
2026-03-16 12:56:00,METAR KHPN 161256Z COR 18007KT 150V220 1/4SM R16/3500VP6000FT -RA FG VV001 12/12 A2976 RMK AO2 RAB34 SLP081 P0005 T01220117,0,7.0,0,402.0,0,0,1,"-RA,FG"
2026-03-16 12:54:00,SPECI KHPN 161254Z COR 18006KT 1/4SM R16/3500VP6000FT -RA FG VV001 12/12 A2976 RMK AO2 RAB34 P0005,0,6.0,0,402.0,0,0,1,"-RA,FG"
2026-03-16 12:41:00,SPECI KHPN 161241Z COR VRB03KT 1/2SM R16/1000V2600FT RA FG VV001 12/12 A2976 RMK AO2 RAB34 P0004 T01220122,0,3.0,0,804.0,0,0,1,"FG,RA"
2026-03-16 11:56:00,METAR KHPN 161156Z COR 16009G17KT M1/4SM R16/1000V1200FT -RA FG VV001 13/12 A2979 RMK AO2 RAB07E22B38E47 SLP090 P0000 60062 70062 T01280122 10128 20061 58032,0,9.0,1,402.0,0,0,1,"-RA,FG,RA"
2026-03-16 11:44:00,SPECI KHPN 161144Z COR 16007KT M1/4SM R16/1000V1400FT -RA FG VV001 13/12 A2980 RMK AO2 RAB07E22B38 P0000 T01280122,0,7.0,0,402.0,0,0,1,"-RA,FG,RA"
2026-03-16 11:31:00,SPECI KHPN 161131Z COR 17009KT M1/4SM R16/1200V2000FT -RA FG VV001 13/12 A2980 RMK AO2 RAB07E22 P0000 T01280117,0,9.0,0,402.0,0,0,1,"-RA,FG,RA"
2026-03-16 11:18:00,SPECI KHPN 161118Z COR 16009KT M1/4SM R16/1200V3500FT -RA FG VV001 12/12 A2981 RMK AO2 RAB07 P0000 T01220117,0,9.0,0,402.0,0,0,1,"-RA,FG"
2026-03-16 10:56:00,METAR KHPN 161056Z COR 16009G16KT M1/4SM R16/1200V1400FT -RA FG VV001 12/12 A2982 RMK AO2 RAE0958 SLP100 P0000 T01220117,0,9.0,1,402.0,0,0,1,"-RA,FG,RA"
2026-03-16 10:23:00,SPECI KHPN 161023Z 13006KT M1/4SM R16/1600V2200FT -RA FG VV001 10/09 A2985 RMK AO2 P0000 T01000089,0,6.0,0,402.0,0,0,1,"-RA,FG"
2026-03-16 10:05:00,SPECI KHPN 161005Z COR 13006KT 1/2SM R16/1600V2200FT -RA FG VV001 10/09 A2985 RMK AO2 P0000 T01000089,0,6.0,0,804.0,0,0,1,"-RA,FG"
2026-03-16 09:56:00,METAR KHPN 160956Z AUTO 11006KT 1/2SM R16/2000VP6000FT -RA FG VV001 09/08 A2986 RMK AO2 SLP115 P0010 T00940083,0,6.0,0,804.0,0,0,1,"-RA,FG"
2026-03-16 09:41:00,SPECI KHPN 160941Z COR 11008KT 2SM RA BR OVC001 09/08 A2987 RMK AO2 P0009 T00890078,0,8.0,0,3218.0,0,0,1,"BR,RA"
2026-03-16 09:38:00,SPECI KHPN 160938Z COR 11009KT 2SM RA BR OVC002 09/08 A2987 RMK AO2 P0000 T00890078,0,9.0,0,3218.0,0,0,1,"BR,RA"
2026-03-16 09:25:00,SPECI KHPN 160925Z COR 11009KT 1 3/4SM RA BR OVC002 09/08 A2988 RMK AO2 P0000 T00890078,0,9.0,0,2816.0,0,0,1,"BR,RA"
2026-03-16 09:07:00,SPECI KHPN 160907Z COR 10011KT 2SM -RA BR OVC002 08/07 A2988 RMK AO2 P0000 T00780067,0,11.0,0,3218.0,0,0,1,"-RA,BR"
2026-03-16 08:56:00,METAR KHPN 160856Z AUTO 10010KT 2SM -RA BR OVC002 08/07 A2988 RMK AO2 SLP123 P0016 60052 T00780067 56058,0,10.0,0,3218.0,0,0,1,"-RA,BR"
2026-03-16 08:49:00,SPECI KHPN 160849Z COR 10010KT 4SM -RA BR OVC002 08/07 A2988 RMK AO2 VIS 1 1/2V5 P0015 T00780067,0,10.0,0,6436.0,0,0,1,"-RA,BR"
2026-03-16 08:37:00,SPECI KHPN 160837Z COR 09011KT 5SM -RA BR OVC003 08/06 A2989 RMK AO2 P0011 T00780061,0,11.0,0,8045.0,0,0,1,"-RA,BR"
2026-03-16 08:20:00,SPECI KHPN 160820Z COR 10011KT 2SM -RA BR OVC003 07/06 A2990 RMK AO2 P0008 T00720061,0,11.0,0,3218.0,0,0,1,"-RA,BR"
2026-03-16 07:56:00,METAR KHPN 160756Z COR 10010KT 1 1/4SM R16/3500VP6000 -RA BR OVC004 07/06 A2992 RMK AO2 SLP137 P0028 T00720061,0,10.0,0,2011.0,0,0,1,"-RA,BR"
2026-03-16 07:41:00,SPECI KHPN 160741Z COR 09009KT 2SM OVC004 07/06 A2993 +RA BR RMK AO2 PRESFR P0017 T00720056,0,9.0,0,3218.0,0,1,1,"+RA,BR"
2026-03-16 07:33:00,SPECI KHPN 160733Z COR 09010KT 1 1/4SM BKN005 OVC008 07/06 A2994 +RA BR RMK AO2 PRESFR P0014 T00670056,0,10.0,0,2011.0,0,1,1,"+RA,BR"
2026-03-16 07:05:00,SPECI KHPN 160705Z AUTO 09009G17KT 2 1/2SM -RA BR BKN004 OVC010 07/05 A2998 RMK AO2 CIG 003V006 P0001 T00670050,0,9.0,1,4022.0,0,0,1,"-RA,BR"
2026-03-16 06:59:00,SPECI KHPN 160659Z AUTO 09009KT 1 3/4SM -RA BR SCT004 BKN010 OVC016 07/05 A2998 RMK AO2 CIG 007V012 P0000 T00670050,0,9.0,0,2816.0,0,0,1,"-RA,BR"
2026-03-16 06:56:00,METAR KHPN 160656Z AUTO 10011KT 2SM -RA BR SCT006 BKN009 OVC014 07/05 A2999 RMK AO2 RAB14 SLP159 P0008 T00670050,0,11.0,0,3218.0,0,0,1,"-RA,BR"
2026-03-16 06:38:00,SPECI KHPN 160638Z AUTO 08008KT 2 1/2SM +RA BR FEW006 OVC012 07/04 A3001 RMK AO2 RAB14 P0005 T00670044,0,8.0,0,4022.0,0,1,1,"+RA,BR"
2026-03-16 06:07:00,SPECI KHPN 160607Z COR 10010KT 5SM OVC014 06/03 A3004 -RA BR RMK A02 RAB07 T00610033,0,10.0,0,8045.0,0,0,1,"-RA,BR"
2026-03-16 05:56:00,METAR KHPN 160556Z AUTO 10009KT 10SM BKN015 OVC031 06/03 A3005 RMK AO2 SLP183 T00610033 10061 20039 58048,0,9.0,0,16090.0,0,0,0,
2026-03-16 04:56:00,METAR KHPN 160456Z COR 09008KT 10SM BKN015 OVC028 06/03 A3012 RMK A02 SLP204 T00560028 400561011,0,8.0,0,16090.0,0,0,0,
2026-03-16 03:56:00,METAR KHPN 160356Z COR 09006KT 10SM FEW021 BKN028 06/02 A3016 RMK A02 SLP218 T00560022,0,6.0,0,16090.0,0,0,0,
2026-03-16 02:56:00,METAR KHPN 160256Z COR 10010G19KT 10SM BKN027 04/01 A3020 RMK A02 SLP231 T00440011 58034,0,10.0,1,16090.0,0,0,0,
2026-03-16 01:56:00,METAR KHPN 160156Z COR 11011KT 10SM BKN025 BKN030 04/01 A3024 RMK A02 SLP245 T00390006,0,11.0,0,16090.0,0,0,0,
2026-03-16 00:56:00,METAR KHPN 160056Z COR 11011G19KT 10SM FEW017 SCT027 BKN032 04/00 A3028 RMK A02 SLP259 T00390000,0,11.0,1,16090.0,0,0,0,
2026-03-16 00:24:00,SPECI KHPN 160024Z AUTO 10009G17KT 10SM BKN018 OVC044 04/M01 A3029 RMK AO2 T00391006,0,9.0,1,16090.0,0,0,0,
2026-03-15 23:56:00,METAR KHPN 152356Z COR 11010KT 10SM BKN044 04/M01 A3030 RMK AO2 SLP267 T00391006 1004 20033 58025,0,10.0,0,16090.0,0,0,0,
2026-03-15 22:56:00,METAR KHPN 152256Z COR 11012G17KT 10SM FEW060 BKN075 04/M01 A3033 RMK AO2 PK WND 09026/2209 SLP277 T00391011,0,12.0,1,16090.0,0,0,0,
2026-03-15 21:56:00,METAR KHPN 152156Z AUTO 10010G17KT 10SM OVC055 04/M02 A3034 RMK AO2 SLP282 T00391017,0,10.0,1,16090.0,0,0,0,
2026-03-15 20:56:00,METAR KHPN 152056Z COR 12010G18KT 10SM BKN055 04/M03 A3037 RMK AO2 SLP292 T00391033 58016,0,10.0,1,16090.0,0,0,0,
2026-03-15 19:56:00,METAR KHPN 151956Z COR 12009KT 10SM BKN050 04/M04 A3038 RMK AO2 SLP295 T00391044,0,9.0,0,16090.0,0,0,0,
2026-03-15 18:56:00,METAR KHPN 151856Z COR 12009KT 10SM BKN055 04/M06 A3041 RMK AO2 SLP305 T00391056,0,9.0,0,16090.0,0,0,0,
2026-03-15 17:56:00,METAR KHPN 151756Z COR 09009KT 10SM BKN065 04/M06 A3042 RMK AO2 SLP308 T00441061,0,9.0,0,16090.0,0,0,0,
2026-03-15 16:56:00,METAR KHPN 151656Z COR 10009KT 10SM BKN065 04/M08 A3044 RMK AO2 SLP314 T00441078,0,9.0,0,16090.0,0,0,0,
2026-03-15 15:56:00,METAR KHPN 151556Z COR 10010KT 10SM BKN060 03/M07 A3046 RMK AO2 SLP320 T00331067,0,10.0,0,16090.0,0,0,0,
2026-03-15 14:56:00,METAR KHPN 151456Z COR 16008KT 10SM BKN065 04/M05 A3046 RMK AO2 SLP321 T00391050 51007,0,8.0,0,16090.0,0,0,0,
2026-03-15 13:56:00,METAR KHPN 151356Z COR 10005KT 10SM FEW085 SCT110 03/M07 A3045 RMK AO2 SLP319 T00281067,0,5.0,0,16090.0,0,0,0,
2026-03-15 12:56:00,METAR KHPN 151256Z COR VRB03KT 10SM FEW085 BKN110 02/M07 A3046 RMK AO2 SLP323 T00171067,0,3.0,0,16090.0,0,0,0,
2026-03-15 11:56:00,METAR KHPN 151156Z COR 04006KT 10SM BKN100 01/M07 A3044 RMK AO2 SLP314 T00061067 10011 21011 51019,0,6.0,0,16090.0,0,0,0,
2026-03-15 10:56:00,METAR KHPN 151056Z COR 06004KT 10SM BKN120 01/M07 A3043 RMK AO2 SLP312 T00061067,0,4.0,0,16090.0,0,0,0,
2026-03-15 09:56:00,METAR KHPN 150956Z COR 04005KT 10SM BKN090 01/M07 A3041 RMK AO2 SLP305 T00061067,0,5.0,0,16090.0,0,0,0,
2026-03-15 08:56:00,METAR KHPN 150856Z COR 02005KT 10SM BKN090 01/M08 A3038 RMK SLP294 T00111078 53007,0,5.0,0,16090.0,0,0,0,
