Time_recorded,METAR,is_cavok,wind_speed,is_gust,visibility_meters,has_thunderstorm,has_heavy_rain,has_low_vis_fog,other_phenomenon
2026-05-02 15:30:00,METAR ZBAD 021530Z 04006MPS CAVOK 13/05 Q1011 NOSIG,1,0,0,9999,0,0,0,
2026-05-02 15:00:00,METAR ZBAD 021500Z 03006MPS CAVOK 13/05 Q1011 BECMG TL1650 30003MPS,1,0,0,9999,0,0,0,
2026-05-02 14:30:00,METAR ZBAD 021430Z 03006MPS CAVOK 13/05 Q1011 NOSIG,1,0,0,9999,0,0,0,
2026-05-02 14:00:00,METAR ZBAD 021400Z 03008MPS CAVOK 14/06 Q1011 BECMG TL1550 03003MPS,1,0,0,9999,0,0,0,
2026-05-02 13:30:00,METAR ZBAD 021330Z 03007MPS CAVOK 13/06 Q1011 NOSIG,1,0,0,9999,0,0,0,
2026-05-02 13:00:00,METAR ZBAD 021300Z 02007MPS CAVOK 13/07 Q1010 NOSIG,1,0,0,9999,0,0,0,
2026-05-02 12:30:00,METAR ZBAD 021230Z 03007MPS CAVOK 13/07 Q1010 NOSIG,1,0,0,9999,0,0,0,
2026-05-02 12:00:00,METAR ZBAD 021200Z 02008MPS CAVOK 13/08 Q1009 NOSIG,1,0,0,9999,0,0,0,
2026-05-02 11:30:00,METAR ZBAD 021130Z 02009MPS 9999 -SHRA NSC 13/08 Q1009 NOSIG,0,9,0,10000,0,0,0,RA
2026-05-02 11:00:00,METAR ZBAD 021100Z 02009MPS 9999 -SHRA NSC 13/08 Q1008 NOSIG,0,9,0,10000,0,0,0,RA
2026-05-02 10:30:00,METAR ZBAD 021030Z 01008MPS 9999 -SHRA NSC 14/09 Q1008 NOSIG,0,8,0,10000,0,0,0,RA
2026-05-02 10:00:00,METAR ZBAD 021000Z 36008MPS 9999 -SHRA NSC 14/09 Q1008 NOSIG,0,8,0,10000,0,0,0,RA
2026-05-02 09:30:00,METAR ZBAD 020930Z 35011MPS 9999 -SHRA NSC 14/07 Q1008 NOSIG,0,11,0,10000,0,0,0,RA
2026-05-02 09:00:00,METAR ZBAD 020900Z 36013MPS 9999 -SHRA FEW033 15/07 Q1007 NOSIG,0,13,0,10000,0,0,0,RA
2026-05-02 08:30:00,METAR ZBAD 020830Z 36015MPS 9999 -SHRA FEW033 16/06 Q1007 NOSIG,0,15,0,10000,0,0,0,RA
2026-05-02 08:00:00,METAR ZBAD 020800Z 35015MPS 9999 -SHRA FEW033 17/06 Q1006 BECMG TL0950 35010MPS,0,15,0,10000,0,0,0,RA
2026-05-02 07:30:00,METAR ZBAD 020730Z 36012G17MPS CAVOK 19/06 Q1006 NOSIG,1,0,0,9999,0,0,0,
2026-05-02 07:00:00,METAR ZBAD 020700Z 01012MPS CAVOK 20/07 Q1006 NOSIG,1,0,0,9999,0,0,0,
2026-05-02 06:30:00,METAR ZBAD 020630Z 36011MPS 9999 FEW040 21/06 Q1006 NOSIG,0,11,0,10000,0,0,0,
2026-05-02 06:00:00,METAR ZBAD 020600Z 36010MPS 9999 FEW040 22/07 Q1006 NOSIG,0,10,0,10000,0,0,0,
2026-05-02 05:48:00,SPECI ZBAD 020548Z 01010MPS 9999 FEW040 23/07 Q1006 NOSIG,0,10,0,10000,0,0,0,
2026-05-02 05:30:00,METAR ZBAD 020530Z 30004G09MPS 260V350 9999 FEW040 24/07 Q1006 NOSIG,0,4,1,10000,0,0,0,
2026-05-02 05:00:00,METAR ZBAD 020500Z 31003MPS 220V010 CAVOK 24/07 Q1006 BECMG TL0650 01005MPS,1,0,0,9999,0,0,0,
2026-05-02 04:30:00,METAR ZBAD 020430Z 23004MPS 180V280 CAVOK 24/08 Q1006 NOSIG,1,0,0,9999,0,0,0,
2026-05-02 04:00:00,METAR ZBAD 020400Z 25004MPS 190V300 CAVOK 23/07 Q1006 BECMG TL0550 35005MPS,1,0,0,9999,0,0,0,
2026-05-02 03:30:00,METAR ZBAD 020330Z VRB03MPS CAVOK 24/06 Q1006 NOSIG,1,0,0,9999,0,0,0,
2026-05-02 03:00:00,METAR ZBAD 020300Z 23005MPS 180V290 CAVOK 23/06 Q1007 BECMG TL0450 35005MPS,1,0,0,9999,0,0,0,
2026-05-02 02:30:00,METAR ZBAD 020230Z VRB03MPS CAVOK 23/07 Q1007 NOSIG,1,0,0,9999,0,0,0,
2026-05-02 02:00:00,METAR ZBAD 020200Z 36002MPS 300V080 CAVOK 21/07 Q1007 NOSIG,1,0,0,9999,0,0,0,
2026-05-02 01:30:00,METAR ZBAD 020130Z 03002MPS 310V100 CAVOK 21/07 Q1007 NOSIG,1,0,0,9999,0,0,0,
2026-05-02 01:00:00,METAR ZBAD 020100Z 35002MPS 310V030 CAVOK 20/07 Q1007 NOSIG,1,0,0,9999,0,0,0,
2026-05-02 00:30:00,METAR ZBAD 020030Z 35003MPS CAVOK 18/06 Q1007 NOSIG,1,0,0,9999,0,0,0,
2026-05-02 00:00:00,METAR ZBAD 020000Z 34003MPS 320V030 CAVOK 19/06 Q1007 NOSIG,1,0,0,9999,0,0,0,
2026-05-01 23:30:00,METAR ZBAD 012330Z 36003MPS CAVOK 17/06 Q1008 NOSIG,1,0,0,9999,0,0,0,
2026-05-01 23:00:00,METAR ZBAD 012300Z 35005MPS CAVOK 16/06 Q1007 NOSIG,1,0,0,9999,0,0,0,
2026-05-01 22:30:00,METAR ZBAD 012230Z 33002MPS 300V360 CAVOK 15/06 Q1008 NOSIG,1,0,0,9999,0,0,0,
2026-05-01 22:00:00,METAR ZBAD 012200Z VRB01MPS CAVOK 12/07 Q1008 NOSIG,1,0,0,9999,0,0,0,
2026-05-01 21:30:00,METAR ZBAD 012130Z VRB01MPS CAVOK 11/06 Q1008 NOSIG,1,0,0,9999,0,0,0,
2026-05-01 21:00:00,METAR ZBAD 012100Z VRB01MPS CAVOK 11/06 Q1008 NOSIG,1,0,0,9999,0,0,0,
2026-05-01 20:30:00,METAR ZBAD 012030Z VRB01MPS CAVOK 12/06 Q1008 NOSIG,1,0,0,9999,0,0,0,
2026-05-01 20:00:00,METAR ZBAD 012000Z VRB01MPS CAVOK 14/05 Q1008 NOSIG,1,0,0,9999,0,0,0,
2026-05-01 19:30:00,METAR ZBAD 011930Z 10002MPS 060V130 CAVOK 15/05 Q1008 NOSIG,1,0,0,9999,0,0,0,
2026-05-01 19:00:00,METAR ZBAD 011900Z 08003MPS 050V110 CAVOK 15/05 Q1008 NOSIG,1,0,0,9999,0,0,0,
2026-05-01 18:30:00,METAR ZBAD 011830Z 06004MPS CAVOK 16/05 Q1008 NOSIG,1,0,0,9999,0,0,0,
2026-05-01 18:00:00,METAR ZBAD 011800Z 05003MPS CAVOK 16/05 Q1008 NOSIG,1,0,0,9999,0,0,0,
2026-05-01 17:30:00,METAR ZBAD 011730Z 04004MPS CAVOK 17/04 Q1009 NOSIG,1,0,0,9999,0,0,0,
2026-05-01 17:00:00,METAR ZBAD 011700Z 02003MPS CAVOK 17/05 Q1009 NOSIG,1,0,0,9999,0,0,0,
2026-05-01 16:30:00,METAR ZBAD 011630Z 06003MPS CAVOK 18/03 Q1009 NOSIG,1,0,0,9999,0,0,0,
2026-05-01 16:00:00,METAR ZBAD 011600Z 05002MPS CAVOK 18/04 Q1009 NOSIG,1,0,0,9999,0,0,0,
2026-05-01 15:30:00,METAR ZBAD 011530Z 06002MPS CAVOK 18/04 Q1009 NOSIG,1,0,0,9999,0,0,0,
2026-05-01 15:00:00,METAR ZBAD 011500Z VRB01MPS CAVOK 18/05 Q1009 NOSIG,1,0,0,9999,0,0,0,
2026-05-01 14:30:00,METAR ZBAD 011430Z 09002MPS CAVOK 17/05 Q1009 NOSIG,1,0,0,9999,0,0,0,
2026-05-01 14:00:00,METAR ZBAD 011400Z 13002MPS CAVOK 17/04 Q1009 NOSIG,1,0,0,9999,0,0,0,
2026-05-01 13:30:00,METAR ZBAD 011330Z 15002MPS CAVOK 17/05 Q1009 NOSIG,1,0,0,9999,0,0,0,
2026-05-01 13:00:00,METAR ZBAD 011300Z 15002MPS CAVOK 18/05 Q1009 NOSIG,1,0,0,9999,0,0,0,
2026-05-01 12:30:00,METAR ZBAD 011230Z 15002MPS CAVOK 18/05 Q1009 NOSIG,1,0,0,9999,0,0,0,
2026-05-01 12:00:00,METAR ZBAD 011200Z 16003MPS CAVOK 19/06 Q1009 NOSIG,1,0,0,9999,0,0,0,
2026-05-01 11:30:00,METAR ZBAD 011130Z 17003MPS CAVOK 18/09 Q1009 NOSIG,1,0,0,9999,0,0,0,
2026-05-01 11:00:00,METAR ZBAD 011100Z 12002MPS CAVOK 20/08 Q1008 NOSIG,1,0,0,9999,0,0,0,
2026-05-01 10:30:00,METAR ZBAD 011030Z 11003MPS CAVOK 21/07 Q1008 NOSIG,1,0,0,9999,0,0,0,
2026-05-01 10:00:00,METAR ZBAD 011000Z 11004MPS CAVOK 22/08 Q1008 NOSIG,1,0,0,9999,0,0,0,
2026-05-01 09:30:00,METAR ZBAD 010930Z 11005MPS CAVOK 22/08 Q1008 NOSIG,1,0,0,9999,0,0,0,
2026-05-01 09:00:00,METAR ZBAD 010900Z 10006MPS CAVOK 23/09 Q1008 NOSIG,1,0,0,9999,0,0,0,
2026-05-01 08:30:00,METAR ZBAD 010830Z 11005MPS CAVOK 23/09 Q1008 NOSIG,1,0,0,9999,0,0,0,
2026-05-01 08:00:00,METAR ZBAD 010800Z 12006MPS CAVOK 24/09 Q1008 NOSIG,1,0,0,9999,0,0,0,
2026-05-01 07:30:00,METAR ZBAD 010730Z 11007MPS CAVOK 25/09 Q1008 NOSIG,1,0,0,9999,0,0,0,
2026-05-01 07:00:00,METAR ZBAD 010700Z 12003MPS 060V160 CAVOK 26/09 Q1008 NOSIG,1,0,0,9999,0,0,0,
2026-05-01 06:30:00,METAR ZBAD 010630Z 12003MPS CAVOK 26/10 Q1009 NOSIG,1,0,0,9999,0,0,0,
2026-05-01 06:00:00,METAR ZBAD 010600Z 10005MPS CAVOK 25/10 Q1009 NOSIG,1,0,0,9999,0,0,0,
2026-05-01 05:30:00,METAR ZBAD 010530Z 10005MPS 070V140 CAVOK 26/11 Q1009 NOSIG,1,0,0,9999,0,0,0,
2026-05-01 05:00:00,METAR ZBAD 010500Z 09005MPS 060V120 CAVOK 26/10 Q1010 NOSIG,1,0,0,9999,0,0,0,
2026-05-01 04:30:00,METAR ZBAD 010430Z 11006MPS 060V130 CAVOK 25/10 Q1010 NOSIG,1,0,0,9999,0,0,0,
2026-05-01 04:00:00,METAR ZBAD 010400Z 07005MPS 030V120 CAVOK 25/10 Q1010 BECMG TL0540 13004MPS,1,0,0,9999,0,0,0,
2026-05-01 03:30:00,METAR ZBAD 010330Z 07004MPS 040V110 CAVOK 25/09 Q1010 NOSIG,1,0,0,9999,0,0,0,
2026-05-01 03:00:00,METAR ZBAD 010300Z 06005MPS 040V110 CAVOK 24/09 Q1011 BECMG TL0440 13004MPS,1,0,0,9999,0,0,0,
2026-05-01 02:30:00,METAR ZBAD 010230Z 06006MPS 030V100 CAVOK 24/09 Q1011 NOSIG,1,0,0,9999,0,0,0,
2026-05-01 02:00:00,METAR ZBAD 010200Z 06005MPS 030V090 CAVOK 22/10 Q1011 NOSIG,1,0,0,9999,0,0,0,
2026-05-01 01:30:00,METAR ZBAD 010130Z 05004MPS 020V080 CAVOK 21/10 Q1011 NOSIG,1,0,0,9999,0,0,0,
2026-05-01 01:00:00,METAR ZBAD 010100Z 04005MPS CAVOK 20/10 Q1011 NOSIG,1,0,0,9999,0,0,0,
2026-05-01 00:30:00,METAR ZBAD 010030Z 05004MPS 020V080 CAVOK 20/09 Q1010 NOSIG,1,0,0,9999,0,0,0,
2026-05-01 00:00:00,METAR ZBAD 010000Z 04004MPS CAVOK 19/09 Q1010 NOSIG,1,0,0,9999,0,0,0,
2026-04-30 23:30:00,METAR ZBAD 302330Z 06003MPS CAVOK 18/09 Q1010 NOSIG,1,0,0,9999,0,0,0,
2026-04-30 23:00:00,METAR ZBAD 302300Z 08002MPS CAVOK 16/09 Q1010 NOSIG,1,0,0,9999,0,0,0,
2026-04-30 22:30:00,METAR ZBAD 302230Z 08002MPS CAVOK 16/09 Q1009 NOSIG,1,0,0,9999,0,0,0,
2026-04-30 22:00:00,METAR ZBAD 302200Z 02003MPS CAVOK 14/10 Q1009 NOSIG,1,0,0,9999,0,0,0,
2026-04-30 21:30:00,METAR ZBAD 302130Z VRB01MPS CAVOK 12/09 Q1009 NOSIG,1,0,0,9999,0,0,0,
2026-04-30 21:00:00,METAR ZBAD 302100Z 00000MPS CAVOK 12/09 Q1009 NOSIG,1,0,0,9999,0,0,0,
2026-04-30 20:30:00,METAR ZBAD 302030Z VRB01MPS CAVOK 12/08 Q1008 NOSIG,1,0,0,9999,0,0,0,
2026-04-30 20:00:00,METAR ZBAD 302000Z VRB01MPS CAVOK 12/08 Q1008 NOSIG,1,0,0,9999,0,0,0,
2026-04-30 19:30:00,METAR ZBAD 301930Z VRB01MPS CAVOK 13/09 Q1008 NOSIG,1,0,0,9999,0,0,0,
2026-04-30 19:00:00,METAR ZBAD 301900Z 16002MPS CAVOK 13/08 Q1009 NOSIG,1,0,0,9999,0,0,0,
2026-04-30 18:30:00,METAR ZBAD 301830Z 16001MPS CAVOK 15/08 Q1009 NOSIG,1,0,0,9999,0,0,0,
2026-04-30 18:00:00,METAR ZBAD 301800Z 20002MPS CAVOK 16/08 Q1008 NOSIG,1,0,0,9999,0,0,0,
2026-04-30 17:30:00,METAR ZBAD 301730Z 21002MPS CAVOK 16/08 Q1009 NOSIG,1,0,0,9999,0,0,0,
2026-04-30 17:00:00,METAR ZBAD 301700Z 20003MPS CAVOK 15/08 Q1009 NOSIG,1,0,0,9999,0,0,0,
2026-04-30 16:30:00,METAR ZBAD 301630Z 19002MPS CAVOK 16/08 Q1009 NOSIG,1,0,0,9999,0,0,0,
2026-04-30 16:00:00,METAR ZBAD 301600Z 19004MPS CAVOK 16/08 Q1009 NOSIG,1,0,0,9999,0,0,0,
2026-04-30 14:30:00,METAR ZBAD 301430Z 20004MPS CAVOK 18/07 Q1009 NOSIG,1,0,0,9999,0,0,0,
2026-04-30 14:00:00,METAR ZBAD 301400Z 21004MPS CAVOK 19/07 Q1009 NOSIG,1,0,0,9999,0,0,0,
2026-04-30 13:30:00,METAR ZBAD 301330Z 20003MPS CAVOK 19/07 Q1009 NOSIG,1,0,0,9999,0,0,0,
2026-04-30 13:00:00,METAR ZBAD 301300Z 20003MPS CAVOK 20/07 Q1009 NOSIG,1,0,0,9999,0,0,0,
2026-04-30 12:30:00,METAR ZBAD 301230Z 21004MPS CAVOK 20/07 Q1009 NOSIG,1,0,0,9999,0,0,0,
2026-04-30 12:00:00,METAR ZBAD 301200Z 21004MPS CAVOK 20/06 Q1009 NOSIG,1,0,0,9999,0,0,0,
2026-04-30 11:30:00,METAR ZBAD 301130Z 20004MPS CAVOK 20/06 Q1009 NOSIG,1,0,0,9999,0,0,0,
2026-04-30 11:00:00,METAR ZBAD 301100Z 21003MPS CAVOK 22/06 Q1008 NOSIG,1,0,0,9999,0,0,0,
2026-04-30 10:30:00,METAR ZBAD 301030Z 21004MPS CAVOK 24/05 Q1008 NOSIG,1,0,0,9999,0,0,0,
2026-04-30 10:00:00,METAR ZBAD 301000Z 22006MPS CAVOK 25/05 Q1008 NOSIG,1,0,0,9999,0,0,0,
2026-04-30 09:30:00,METAR ZBAD 300930Z 20006MPS CAVOK 25/05 Q1008 NOSIG,1,0,0,9999,0,0,0,
2026-04-30 09:00:00,METAR ZBAD 300900Z 21005MPS CAVOK 26/04 Q1008 NOSIG,1,0,0,9999,0,0,0,
2026-04-30 08:30:00,METAR ZBAD 300830Z 22006MPS CAVOK 26/04 Q1008 NOSIG,1,0,0,9999,0,0,0,
2026-04-30 08:00:00,METAR ZBAD 300800Z 23006MPS 190V260 CAVOK 27/05 Q1009 NOSIG,1,0,0,9999,0,0,0,
2026-04-30 07:30:00,METAR ZBAD 300730Z 23006MPS CAVOK 27/04 Q1009 NOSIG,1,0,0,9999,0,0,0,
2026-04-30 07:00:00,METAR ZBAD 300700Z 21006MPS CAVOK 27/04 Q1009 NOSIG,1,0,0,9999,0,0,0,
2026-04-30 06:30:00,METAR ZBAD 300630Z 21006MPS CAVOK 27/02 Q1010 NOSIG,1,0,0,9999,0,0,0,
2026-04-30 06:00:00,METAR ZBAD 300600Z 21006MPS 180V240 CAVOK 26/05 Q1010 NOSIG,1,0,0,9999,0,0,0,
2026-04-30 05:30:00,METAR ZBAD 300530Z 21006MPS 190V250 CAVOK 26/06 Q1011 NOSIG,1,0,0,9999,0,0,0,
2026-04-30 05:00:00,METAR ZBAD 300500Z 23005MPS 200V260 CAVOK 26/05 Q1011 NOSIG,1,0,0,9999,0,0,0,
2026-04-30 04:30:00,METAR ZBAD 300430Z 25005MPS 210V290 CAVOK 26/06 Q1012 NOSIG,1,0,0,9999,0,0,0,
2026-04-30 04:00:00,METAR ZBAD 300400Z 21005MPS CAVOK 25/06 Q1013 NOSIG,1,0,0,9999,0,0,0,
2026-04-30 03:30:00,METAR ZBAD 300330Z 23003MPS 190V270 CAVOK 24/05 Q1013 NOSIG,1,0,0,9999,0,0,0,
2026-04-30 03:00:00,METAR ZBAD 300300Z 21003MPS 150V280 CAVOK 23/05 Q1013 NOSIG,1,0,0,9999,0,0,0,
2026-04-30 02:30:00,METAR ZBAD 300230Z VRB03MPS CAVOK 22/05 Q1014 NOSIG,1,0,0,9999,0,0,0,
2026-04-30 02:00:00,METAR ZBAD 300200Z VRB02MPS CAVOK 21/05 Q1014 NOSIG,1,0,0,9999,0,0,0,
2026-04-30 01:30:00,METAR ZBAD 300130Z 24002MPS 170V300 CAVOK 20/05 Q1014 NOSIG,1,0,0,9999,0,0,0,
2026-04-30 01:00:00,METAR ZBAD 300100Z VRB01MPS CAVOK 19/05 Q1014 NOSIG,1,0,0,9999,0,0,0,
2026-04-30 00:30:00,METAR ZBAD 300030Z 22002MPS 190V260 CAVOK 18/06 Q1014 NOSIG,1,0,0,9999,0,0,0,
2026-04-30 00:00:00,METAR ZBAD 300000Z 22002MPS 180V270 CAVOK 17/06 Q1014 NOSIG,1,0,0,9999,0,0,0,
2026-04-29 23:30:00,METAR ZBAD 292330Z 20002MPS CAVOK 15/06 Q1014 NOSIG,1,0,0,9999,0,0,0,
2026-04-29 23:00:00,METAR ZBAD 292300Z 00000MPS CAVOK 14/05 Q1015 NOSIG,1,0,0,9999,0,0,0,
2026-04-29 22:30:00,METAR ZBAD 292230Z 34001MPS CAVOK 13/06 Q1014 NOSIG,1,0,0,9999,0,0,0,
2026-04-29 22:00:00,METAR ZBAD 292200Z 00000MPS CAVOK 10/05 Q1014 NOSIG,1,0,0,9999,0,0,0,
2026-04-29 21:30:00,METAR ZBAD 292130Z 22001MPS CAVOK 11/04 Q1014 NOSIG,1,0,0,9999,0,0,0,
2026-04-29 21:00:00,METAR ZBAD 292100Z 19001MPS CAVOK 09/04 Q1014 NOSIG,1,0,0,9999,0,0,0,
2026-04-29 20:30:00,METAR ZBAD 292030Z 20001MPS CAVOK 10/04 Q1014 NOSIG,1,0,0,9999,0,0,0,
2026-04-29 20:00:00,METAR ZBAD 292000Z 21002MPS CAVOK 11/04 Q1014 NOSIG,1,0,0,9999,0,0,0,
2026-04-29 19:30:00,METAR ZBAD 291930Z 20003MPS CAVOK 11/04 Q1015 NOSIG,1,0,0,9999,0,0,0,
2026-04-29 19:00:00,METAR ZBAD 291900Z 18003MPS CAVOK 09/03 Q1015 NOSIG,1,0,0,9999,0,0,0,
2026-04-29 18:30:00,METAR ZBAD 291830Z 20003MPS CAVOK 13/04 Q1015 NOSIG,1,0,0,9999,0,0,0,
2026-04-29 18:00:00,METAR ZBAD 291800Z 20004MPS CAVOK 12/04 Q1015 NOSIG,1,0,0,9999,0,0,0,
2026-04-29 17:30:00,METAR ZBAD 291730Z 19004MPS CAVOK 11/03 Q1015 NOSIG,1,0,0,9999,0,0,0,
2026-04-29 17:00:00,METAR ZBAD 291700Z 19003MPS CAVOK 11/03 Q1015 NOSIG,1,0,0,9999,0,0,0,
2026-04-29 16:30:00,METAR ZBAD 291630Z 21002MPS CAVOK 12/02 Q1016 NOSIG,1,0,0,9999,0,0,0,
2026-04-29 16:00:00,METAR ZBAD 291600Z 20003MPS 160V230 CAVOK 14/01 Q1016 NOSIG,1,0,0,9999,0,0,0,
2026-04-29 15:30:00,METAR ZBAD 291530Z 21004MPS CAVOK 15/01 Q1016 NOSIG,1,0,0,9999,0,0,0,
2026-04-29 15:00:00,METAR ZBAD 291500Z 21003MPS CAVOK 15/01 Q1016 NOSIG,1,0,0,9999,0,0,0,
2026-04-29 14:30:00,METAR ZBAD 291430Z 21004MPS 180V240 CAVOK 16/01 Q1016 NOSIG,1,0,0,9999,0,0,0,
2026-04-29 14:00:00,METAR ZBAD 291400Z 21004MPS CAVOK 16/01 Q1016 NOSIG,1,0,0,9999,0,0,0,
2026-04-29 13:30:00,METAR ZBAD 291330Z 20004MPS CAVOK 15/01 Q1016 NOSIG,1,0,0,9999,0,0,0,
2026-04-29 13:00:00,METAR ZBAD 291300Z 21003MPS CAVOK 16/01 Q1016 NOSIG,1,0,0,9999,0,0,0,
2026-04-29 12:30:00,METAR ZBAD 291230Z 20004MPS CAVOK 16/01 Q1016 NOSIG,1,0,0,9999,0,0,0,
2026-04-29 12:00:00,METAR ZBAD 291200Z 21003MPS CAVOK 16/01 Q1016 NOSIG,1,0,0,9999,0,0,0,
2026-04-29 11:30:00,METAR ZBAD 291130Z 21003MPS CAVOK 18/M00 Q1015 NOSIG,1,0,0,9999,0,0,0,
2026-04-29 11:00:00,METAR ZBAD 291100Z 20003MPS CAVOK 18/M00 Q1015 NOSIG,1,0,0,9999,0,0,0,
2026-04-29 10:30:00,METAR ZBAD 291030Z 19003MPS CAVOK 20/M00 Q1015 NOSIG,1,0,0,9999,0,0,0,
2026-04-29 10:00:00,METAR ZBAD 291000Z 20004MPS CAVOK 22/M01 Q1015 NOSIG,1,0,0,9999,0,0,0,
2026-04-29 09:30:00,METAR ZBAD 290930Z 20004MPS CAVOK 22/M02 Q1015 NOSIG,1,0,0,9999,0,0,0,
2026-04-29 09:00:00,METAR ZBAD 290900Z 23004MPS 200V280 CAVOK 23/M03 Q1015 NOSIG,1,0,0,9999,0,0,0,
2026-04-29 08:30:00,METAR ZBAD 290830Z VRB02MPS CAVOK 24/M03 Q1016 NOSIG,1,0,0,9999,0,0,0,
2026-04-29 08:00:00,METAR ZBAD 290800Z 22003MPS 180V320 CAVOK 24/M04 Q1016 NOSIG,1,0,0,9999,0,0,0,
2026-04-29 07:30:00,METAR ZBAD 290730Z 28002MPS 240V340 CAVOK 24/M04 Q1016 NOSIG,1,0,0,9999,0,0,0,
2026-04-29 07:00:00,METAR ZBAD 290700Z 28003MPS 230V330 CAVOK 24/M05 Q1017 NOSIG,1,0,0,9999,0,0,0,
2026-04-29 06:30:00,METAR ZBAD 290630Z VRB03MPS CAVOK 23/M04 Q1017 NOSIG,1,0,0,9999,0,0,0,
2026-04-29 06:00:00,METAR ZBAD 290600Z VRB03MPS CAVOK 23/M04 Q1018 NOSIG,1,0,0,9999,0,0,0,
2026-04-29 05:30:00,METAR ZBAD 290530Z VRB01MPS CAVOK 23/M06 Q1018 NOSIG,1,0,0,9999,0,0,0,
2026-04-29 05:00:00,METAR ZBAD 290500Z VRB02MPS CAVOK 23/M05 Q1019 NOSIG,1,0,0,9999,0,0,0,
2026-04-29 04:30:00,METAR ZBAD 290430Z 07002MPS 020V170 CAVOK 23/M07 Q1019 NOSIG,1,0,0,9999,0,0,0,
2026-04-29 04:00:00,METAR ZBAD 290400Z 03003MPS 300V090 CAVOK 22/M06 Q1020 NOSIG,1,0,0,9999,0,0,0,
2026-04-29 03:30:00,METAR ZBAD 290330Z 36003MPS 330V050 CAVOK 22/M06 Q1020 NOSIG,1,0,0,9999,0,0,0,
2026-04-29 03:00:00,METAR ZBAD 290300Z 35004MPS 330V040 CAVOK 22/M05 Q1021 NOSIG,1,0,0,9999,0,0,0,
2026-04-29 02:30:00,METAR ZBAD 290230Z VRB02G07MPS CAVOK 22/M05 Q1021 NOSIG,1,0,0,9999,0,0,0,
2026-04-29 02:00:00,METAR ZBAD 290200Z VRB02MPS CAVOK 21/M04 Q1022 NOSIG,1,0,0,9999,0,0,0,
2026-04-29 01:30:00,METAR ZBAD 290130Z VRB02MPS CAVOK 20/M03 Q1022 NOSIG,1,0,0,9999,0,0,0,
2026-04-29 01:00:00,METAR ZBAD 290100Z 35002MPS 320V050 CAVOK 20/M03 Q1022 NOSIG,1,0,0,9999,0,0,0,
2026-04-29 00:30:00,METAR ZBAD 290030Z 33002MPS 300V360 CAVOK 19/M01 Q1022 NOSIG,1,0,0,9999,0,0,0,
2026-04-29 00:00:00,METAR ZBAD 290000Z 35002MPS 310V020 CAVOK 18/M02 Q1022 NOSIG,1,0,0,9999,0,0,0,
2026-04-28 23:30:00,METAR ZBAD 282330Z 34002MPS CAVOK 16/M01 Q1022 NOSIG,1,0,0,9999,0,0,0,
2026-04-28 23:00:00,METAR ZBAD 282300Z 33001MPS CAVOK 14/01 Q1022 NOSIG,1,0,0,9999,0,0,0,
2026-04-28 22:30:00,METAR ZBAD 282230Z 28001MPS CAVOK 10/03 Q1022 NOSIG,1,0,0,9999,0,0,0,
2026-04-28 22:00:00,METAR ZBAD 282200Z 28001MPS CAVOK 06/02 Q1021 NOSIG,1,0,0,9999,0,0,0,
2026-04-28 21:30:00,METAR ZBAD 282130Z 28002MPS CAVOK 05/02 Q1021 NOSIG,1,0,0,9999,0,0,0,
2026-04-28 21:00:00,METAR ZBAD 282100Z 27001MPS CAVOK 05/02 Q1021 NOSIG,1,0,0,9999,0,0,0,
2026-04-28 20:30:00,METAR ZBAD 282030Z 26002MPS CAVOK 05/02 Q1021 NOSIG,1,0,0,9999,0,0,0,
2026-04-28 20:00:00,METAR ZBAD 282000Z 26001MPS CAVOK 05/02 Q1021 NOSIG,1,0,0,9999,0,0,0,
2026-04-28 19:30:00,METAR ZBAD 281930Z 26001MPS CAVOK 06/02 Q1021 NOSIG,1,0,0,9999,0,0,0,
2026-04-28 19:00:00,METAR ZBAD 281900Z 29001MPS CAVOK 07/02 Q1021 NOSIG,1,0,0,9999,0,0,0,
2026-04-28 18:30:00,METAR ZBAD 281830Z 28002MPS CAVOK 07/02 Q1021 NOSIG,1,0,0,9999,0,0,0,
2026-04-28 18:00:00,METAR ZBAD 281800Z 28002MPS CAVOK 08/02 Q1021 NOSIG,1,0,0,9999,0,0,0,
2026-04-28 17:30:00,METAR ZBAD 281730Z 27002MPS CAVOK 10/02 Q1022 NOSIG,1,0,0,9999,0,0,0,
2026-04-28 17:00:00,METAR ZBAD 281700Z 29002MPS CAVOK 10/02 Q1022 NOSIG,1,0,0,9999,0,0,0,
2026-04-28 16:30:00,METAR ZBAD 281630Z 30002MPS 260V330 CAVOK 12/01 Q1022 NOSIG,1,0,0,9999,0,0,0,
2026-04-28 16:00:00,METAR ZBAD 281600Z 26003MPS CAVOK 12/01 Q1022 NOSIG,1,0,0,9999,0,0,0,
2026-04-28 15:30:00,METAR ZBAD 281530Z 27002MPS CAVOK 13/01 Q1022 NOSIG,1,0,0,9999,0,0,0,
2026-04-28 15:00:00,METAR ZBAD 281500Z 25002MPS 190V320 CAVOK 14/00 Q1022 NOSIG,1,0,0,9999,0,0,0,
2026-04-28 14:30:00,METAR ZBAD 281430Z 23002MPS 170V280 CAVOK 13/01 Q1022 NOSIG,1,0,0,9999,0,0,0,
2026-04-28 14:00:00,METAR ZBAD 281400Z 24003MPS 200V260 CAVOK 13/00 Q1022 NOSIG,1,0,0,9999,0,0,0,
2026-04-28 13:30:00,METAR ZBAD 281330Z 24003MPS 220V310 CAVOK 13/01 Q1022 NOSIG,1,0,0,9999,0,0,0,
2026-04-28 13:00:00,METAR ZBAD 281300Z 21003MPS CAVOK 12/01 Q1022 NOSIG,1,0,0,9999,0,0,0,
2026-04-28 12:30:00,METAR ZBAD 281230Z 16003MPS CAVOK 12/02 Q1021 NOSIG,1,0,0,9999,0,0,0,
2026-04-28 12:00:00,METAR ZBAD 281200Z 16003MPS 120V200 CAVOK 13/01 Q1021 NOSIG,1,0,0,9999,0,0,0,
2026-04-28 11:30:00,METAR ZBAD 281130Z 21002MPS 170V240 CAVOK 15/M00 Q1020 NOSIG,1,0,0,9999,0,0,0,
2026-04-28 11:00:00,METAR ZBAD 281100Z 26003MPS 230V290 CAVOK 17/M00 Q1020 NOSIG,1,0,0,9999,0,0,0,
2026-04-28 10:30:00,METAR ZBAD 281030Z 01003MPS CAVOK 19/M05 Q1019 NOSIG,1,0,0,9999,0,0,0,
2026-04-28 10:00:00,METAR ZBAD 281000Z 36004MPS CAVOK 20/M05 Q1019 NOSIG,1,0,0,9999,0,0,0,
2026-04-28 09:30:00,METAR ZBAD 280930Z 34005MPS 300V010 CAVOK 21/M04 Q1019 NOSIG,1,0,0,9999,0,0,0,
2026-04-28 09:00:00,METAR ZBAD 280900Z 34005MPS CAVOK 21/M05 Q1019 BECMG TL1040 18004MPS,1,0,0,9999,0,0,0,
2026-04-28 08:30:00,METAR ZBAD 280830Z 33005MPS 9999 FEW020 20/M03 Q1019 NOSIG,0,5,0,10000,0,0,0,
2026-04-28 08:00:00,METAR ZBAD 280800Z 33010MPS 300V360 9999 FEW020 19/M02 Q1020 BECMG TL0910 32004MPS,0,10,0,10000,0,0,0,
2026-04-28 07:45:00,SPECI ZBAD 280745Z 36007MPS 9999 FEW020 20/M04 Q1020 NOSIG,0,7,0,10000,0,0,0,
2026-04-28 07:30:00,METAR ZBAD 280730Z VRB01MPS 9999 FEW020 21/M01 Q1020 NOSIG,0,1,0,10000,0,0,0,
2026-04-28 07:00:00,METAR ZBAD 280700Z VRB02MPS 9999 FEW020 20/M01 Q1020 BECMG TL0740 36006MPS,0,2,0,10000,0,0,0,
2026-04-28 06:30:00,METAR ZBAD 280630Z 15004MPS 9999 FEW020 19/M00 Q1021 NOSIG,0,4,0,10000,0,0,0,
2026-04-28 06:00:00,METAR ZBAD 280600Z 12004MPS 9999 FEW020 19/01 Q1021 BECMG TL0640 03007MPS,0,4,0,10000,0,0,0,
2026-04-28 05:30:00,METAR ZBAD 280530Z VRB03MPS 9999 -SHRA FEW020 16/03 Q1021 WS R01L NOSIG,0,3,0,10000,0,0,0,RA
2026-04-28 05:15:00,SPECI ZBAD 280515Z 36016G23MPS 9999 -SHRA FEW020 17/05 Q1021 NOSIG,0,16,1,10000,0,0,0,RA
2026-04-28 05:10:00,SPECI ZBAD 280510Z 02007G12MPS 340V040 9999 FEW020 20/M01 Q1021 NOSIG,0,7,1,10000,0,0,0,
2026-04-28 05:00:00,METAR ZBAD 280500Z VRB02MPS 9999 FEW020 21/M02 Q1021 NOSIG,0,2,0,10000,0,0,0,
2026-04-28 04:30:00,METAR ZBAD 280430Z 36006MPS 9999 FEW020 20/M03 Q1021 NOSIG,0,6,0,10000,0,0,0,
2026-04-28 04:13:00,SPECI ZBAD 280413Z 03004MPS 350V080 9999 FEW020 20/M02 Q1021 NOSIG,0,4,0,10000,0,0,0,
2026-04-28 04:00:00,METAR ZBAD 280400Z 33005MPS 270V010 9999 FEW020 21/M01 Q1021 NOSIG,0,5,0,10000,0,0,0,
2026-04-28 03:52:00,SPECI ZBAD 280352Z 32005MPS 300V360 9999 FEW020 20/M01 Q1021 NOSIG,0,5,0,10000,0,0,0,
2026-04-28 03:50:00,SPECI ZBAD 280350Z 02004MPS 290V090 9999 FEW020 20/M01 Q1021 NOSIG,0,4,0,10000,0,0,0,
2026-04-28 03:40:00,SPECI ZBAD 280340Z 32005MPS 290V350 9999 FEW020 20/M02 Q1021 NOSIG,0,5,0,10000,0,0,0,
2026-04-28 03:30:00,METAR ZBAD 280330Z 02005MPS 320V070 9999 FEW020 19/M02 Q1021 NOSIG,0,5,0,10000,0,0,0,
2026-04-28 03:00:00,METAR ZBAD 280300Z 34004MPS 290V060 9999 FEW020 20/M02 Q1022 NOSIG,0,4,0,10000,0,0,0,
2026-04-28 02:53:00,SPECI ZBAD 280253Z 34005MPS 310V010 9999 FEW020 19/M01 Q1022 NOSIG,0,5,0,10000,0,0,0,
2026-04-28 02:33:00,SPECI ZBAD 280233Z 04005MPS 9999 FEW020 19/M01 Q1022 NOSIG,0,5,0,10000,0,0,0,
2026-04-28 02:30:00,METAR ZBAD 280230Z 34006MPS 310V010 9999 FEW020 19/M01 Q1022 NOSIG,0,6,0,10000,0,0,0,
2026-04-28 02:00:00,METAR ZBAD 280200Z 34004MPS 290V010 9999 FEW020 18/00 Q1022 NOSIG,0,4,0,10000,0,0,0,
2026-04-28 01:30:00,METAR ZBAD 280130Z 32006MPS 9999 FEW020 18/00 Q1022 NOSIG,0,6,0,10000,0,0,0,
2026-04-28 01:19:00,SPECI ZBAD 280119Z 32006MPS 290V360 CAVOK 17/M00 Q1022 NOSIG,1,0,0,9999,0,0,0,
2026-04-28 01:00:00,METAR ZBAD 280100Z VRB01MPS CAVOK 17/07 Q1022 NOSIG,1,0,0,9999,0,0,0,
2026-04-28 00:30:00,METAR ZBAD 280030Z 05002MPS 010V120 CAVOK 15/07 Q1022 NOSIG,1,0,0,9999,0,0,0,
2026-04-28 00:00:00,METAR ZBAD 280000Z 10002MPS CAVOK 14/07 Q1021 BECMG TL0140 36005MPS,1,0,0,9999,0,0,0,
2026-04-27 23:30:00,METAR ZBAD 272330Z 15002MPS CAVOK 13/08 Q1021 NOSIG,1,0,0,9999,0,0,0,
2026-04-27 23:19:00,SPECI ZBAD 272319Z 10003MPS 070V150 CAVOK 13/08 Q1021 NOSIG,1,0,0,9999,0,0,0,
2026-04-27 23:00:00,METAR ZBAD 272300Z 04005MPS CAVOK 14/07 Q1020 NOSIG,1,0,0,9999,0,0,0,
2026-04-27 22:30:00,METAR ZBAD 272230Z 07003MPS CAVOK 13/07 Q1020 NOSIG,1,0,0,9999,0,0,0,
2026-04-27 22:00:00,METAR ZBAD 272200Z 03004MPS CAVOK 13/07 Q1020 NOSIG,1,0,0,9999,0,0,0,
2026-04-27 21:45:00,SPECI ZBAD 272145Z 02005MPS CAVOK 13/07 Q1019 NOSIG,1,0,0,9999,0,0,0,
2026-04-27 21:30:00,METAR ZBAD 272130Z 08004MPS CAVOK 12/07 Q1019 NOSIG,1,0,0,9999,0,0,0,
2026-04-27 21:00:00,METAR ZBAD 272100Z 09003MPS CAVOK 12/06 Q1019 NOSIG,1,0,0,9999,0,0,0,
2026-04-27 20:30:00,METAR ZBAD 272030Z VRB01MPS CAVOK 13/04 Q1018 NOSIG,1,0,0,9999,0,0,0,
2026-04-27 20:00:00,METAR ZBAD 272000Z 29002MPS 260V320 CAVOK 14/04 Q1019 NOSIG,1,0,0,9999,0,0,0,
2026-04-27 19:30:00,METAR ZBAD 271930Z 28003MPS CAVOK 13/06 Q1019 NOSIG,1,0,0,9999,0,0,0,
2026-04-27 19:00:00,METAR ZBAD 271900Z 28002MPS 240V360 CAVOK 13/06 Q1019 NOSIG,1,0,0,9999,0,0,0,
2026-04-27 18:47:00,SPECI ZBAD 271847Z 29003MPS 220V010 CAVOK 13/07 Q1019 NOSIG,1,0,0,9999,0,0,0,
2026-04-27 18:30:00,METAR ZBAD 271830Z 23006MPS 9999 -SHRA NSC 13/07 Q1019 NOSIG,0,6,0,10000,0,0,0,RA
2026-04-27 18:13:00,SPECI ZBAD 271813Z 24008MPS 9999 -SHRA NSC 13/07 Q1019 NOSIG,0,8,0,10000,0,0,0,RA
2026-04-27 18:09:00,SPECI ZBAD 271809Z 30007MPS 250V330 9999 -SHRA NSC 13/05 Q1019 NOSIG,0,7,0,10000,0,0,0,RA
2026-04-27 18:00:00,METAR ZBAD 271800Z 22006MPS 190V250 CAVOK 13/07 Q1019 NOSIG,1,0,0,9999,0,0,0,
2026-04-27 17:44:00,SPECI ZBAD 271744Z 20005MPS CAVOK 12/07 Q1018 NOSIG,1,0,0,9999,0,0,0,
2026-04-27 17:30:00,METAR ZBAD 271730Z 14004MPS 120V190 CAVOK 12/07 Q1018 NOSIG,1,0,0,9999,0,0,0,
2026-04-27 17:00:00,METAR ZBAD 271700Z 21002MPS CAVOK 12/07 Q1019 NOSIG,1,0,0,9999,0,0,0,
2026-04-27 16:30:00,METAR ZBAD 271630Z 17003MPS 110V200 CAVOK 12/07 Q1018 NOSIG,1,0,0,9999,0,0,0,
2026-04-27 16:00:00,METAR ZBAD 271600Z 17003MPS CAVOK 12/07 Q1018 NOSIG,1,0,0,9999,0,0,0,
2026-04-27 15:30:00,METAR ZBAD 271530Z 15003MPS 090V170 CAVOK 12/07 Q1018 NOSIG,1,0,0,9999,0,0,0,
2026-04-27 15:00:00,METAR ZBAD 271500Z 14002MPS CAVOK 13/07 Q1018 NOSIG,1,0,0,9999,0,0,0,
2026-04-27 14:30:00,METAR ZBAD 271430Z 17004MPS CAVOK 13/07 Q1018 NOSIG,1,0,0,9999,0,0,0,
2026-04-27 14:00:00,METAR ZBAD 271400Z 14005MPS CAVOK 13/07 Q1018 BECMG TL1540 08004MPS,1,0,0,9999,0,0,0,
2026-04-27 13:30:00,METAR ZBAD 271330Z 16006MPS CAVOK 14/05 Q1018 NOSIG,1,0,0,9999,0,0,0,
2026-04-27 13:23:00,SPECI ZBAD 271323Z 17005MPS CAVOK 16/M03 Q1017 NOSIG,1,0,0,9999,0,0,0,
2026-04-27 13:00:00,METAR ZBAD 271300Z 03004MPS CAVOK 18/M05 Q1017 NOSIG,1,0,0,9999,0,0,0,
2026-04-27 12:30:00,METAR ZBAD 271230Z 03006MPS CAVOK 19/M07 Q1016 NOSIG,1,0,0,9999,0,0,0,
2026-04-27 12:00:00,METAR ZBAD 271200Z 02005MPS CAVOK 18/M06 Q1015 NOSIG,1,0,0,9999,0,0,0,
2026-04-27 11:30:00,METAR ZBAD 271130Z 01005MPS CAVOK 19/M05 Q1015 NOSIG,1,0,0,9999,0,0,0,
2026-04-27 11:00:00,METAR ZBAD 271100Z 01006MPS CAVOK 20/M06 Q1014 BECMG TL1240 07004MPS,1,0,0,9999,0,0,0,
2026-04-27 10:30:00,METAR ZBAD 271030Z 01006MPS CAVOK 21/M07 Q1014 NOSIG,1,0,0,9999,0,0,0,
2026-04-27 10:00:00,METAR ZBAD 271000Z 36006MPS CAVOK 22/M07 Q1014 BECMG TL1140 06004MPS,1,0,0,9999,0,0,0,
2026-04-27 09:30:00,METAR ZBAD 270930Z 36007MPS CAVOK 22/M06 Q1013 NOSIG,1,0,0,9999,0,0,0,
2026-04-27 09:00:00,METAR ZBAD 270900Z 33007MPS CAVOK 23/M07 Q1013 BECMG TL0940 04004MPS,1,0,0,9999,0,0,0,
2026-04-27 08:30:00,METAR ZBAD 270830Z 32007G12MPS 280V350 CAVOK 23/M06 Q1013 NOSIG,1,0,0,9999,0,0,0,
2026-04-27 08:00:00,METAR ZBAD 270800Z 34007MPS 310V010 CAVOK 23/M06 Q1013 BECMG TL0940 04004MPS,1,0,0,9999,0,0,0,
2026-04-27 07:30:00,METAR ZBAD 270730Z 32008G13MPS 290V360 CAVOK 24/M05 Q1013 NOSIG,1,0,0,9999,0,0,0,
2026-04-27 07:00:00,METAR ZBAD 270700Z 34010MPS 310V010 CAVOK 23/M04 Q1013 NOSIG,1,0,0,9999,0,0,0,
2026-04-27 06:30:00,METAR ZBAD 270630Z 35008G13MPS 320V020 CAVOK 23/M04 Q1013 NOSIG,1,0,0,9999,0,0,0,
2026-04-27 06:00:00,METAR ZBAD 270600Z 33009G14MPS CAVOK 23/M05 Q1013 NOSIG,1,0,0,9999,0,0,0,
2026-04-27 05:30:00,METAR ZBAD 270530Z 32011G16MPS CAVOK 23/M04 Q1013 NOSIG,1,0,0,9999,0,0,0,
2026-04-27 05:00:00,METAR ZBAD 270500Z 33009G14MPS 290V360 CAVOK 23/M04 Q1013 NOSIG,1,0,0,9999,0,0,0,
2026-04-27 04:30:00,METAR ZBAD 270430Z 34011MPS CAVOK 23/M03 Q1013 NOSIG,1,0,0,9999,0,0,0,
2026-04-27 04:00:00,METAR ZBAD 270400Z 34011MPS CAVOK 23/M03 Q1013 NOSIG,1,0,0,9999,0,0,0,
2026-04-27 03:30:00,METAR ZBAD 270330Z 33012MPS CAVOK 22/M03 Q1013 NOSIG,1,0,0,9999,0,0,0,
2026-04-27 03:00:00,METAR ZBAD 270300Z 34011G16MPS CAVOK 22/M01 Q1013 NOSIG,1,0,0,9999,0,0,0,
2026-04-27 02:30:00,METAR ZBAD 270230Z 35012MPS CAVOK 21/M01 Q1013 NOSIG,1,0,0,9999,0,0,0,
2026-04-27 02:00:00,METAR ZBAD 270200Z 34011MPS 320V020 CAVOK 21/M02 Q1013 NOSIG,1,0,0,9999,0,0,0,
2026-04-27 01:30:00,METAR ZBAD 270130Z 33010MPS 300V360 CAVOK 20/M02 Q1013 NOSIG,1,0,0,9999,0,0,0,
2026-04-27 01:00:00,METAR ZBAD 270100Z 33006MPS 280V360 CAVOK 20/02 Q1013 BECMG TL0240 34011MPS,1,0,0,9999,0,0,0,
2026-04-27 00:33:00,SPECI ZBAD 270033Z 30005MPS CAVOK 19/02 Q1012 NOSIG,1,0,0,9999,0,0,0,
2026-04-27 00:30:00,METAR ZBAD 270030Z 01002MPS 330V060 CAVOK 19/03 Q1012 NOSIG,1,0,0,9999,0,0,0,
2026-04-27 00:00:00,METAR ZBAD 270000Z VRB01MPS CAVOK 17/04 Q1012 BECMG TL0140 34005MPS,1,0,0,9999,0,0,0,
2026-04-26 23:30:00,METAR ZBAD 262330Z VRB01MPS CAVOK 15/04 Q1012 NOSIG,1,0,0,9999,0,0,0,
2026-04-26 23:00:00,METAR ZBAD 262300Z VRB01MPS CAVOK 13/06 Q1012 NOSIG,1,0,0,9999,0,0,0,
2026-04-26 22:30:00,METAR ZBAD 262230Z 22002MPS CAVOK 10/06 Q1011 NOSIG,1,0,0,9999,0,0,0,
2026-04-26 22:00:00,METAR ZBAD 262200Z 26001MPS CAVOK 09/05 Q1011 NOSIG,1,0,0,9999,0,0,0,
2026-04-26 21:30:00,METAR ZBAD 262130Z 36003MPS CAVOK 11/05 Q1011 NOSIG,1,0,0,9999,0,0,0,
2026-04-26 21:00:00,METAR ZBAD 262100Z VRB01MPS CAVOK 11/04 Q1010 NOSIG,1,0,0,9999,0,0,0,
2026-04-26 20:30:00,METAR ZBAD 262030Z VRB01MPS CAVOK 12/04 Q1010 NOSIG,1,0,0,9999,0,0,0,
2026-04-26 20:00:00,METAR ZBAD 262000Z 12003MPS 080V140 CAVOK 12/03 Q1010 NOSIG,1,0,0,9999,0,0,0,
2026-04-26 19:30:00,METAR ZBAD 261930Z 35004MPS CAVOK 12/04 Q1011 NOSIG,1,0,0,9999,0,0,0,
2026-04-26 19:00:00,METAR ZBAD 261900Z VRB01MPS CAVOK 11/04 Q1010 NOSIG,1,0,0,9999,0,0,0,
2026-04-26 18:30:00,METAR ZBAD 261830Z 35002MPS 300V070 CAVOK 09/04 Q1011 NOSIG,1,0,0,9999,0,0,0,
2026-04-26 18:00:00,METAR ZBAD 261800Z 11002MPS 080V140 CAVOK 09/03 Q1010 NOSIG,1,0,0,9999,0,0,0,
2026-04-26 17:30:00,METAR ZBAD 261730Z VRB01MPS CAVOK 10/03 Q1011 NOSIG,1,0,0,9999,0,0,0,
2026-04-26 17:00:00,METAR ZBAD 261700Z VRB01MPS CAVOK 10/03 Q1012 NOSIG,1,0,0,9999,0,0,0,
2026-04-26 16:30:00,METAR ZBAD 261630Z 26002MPS 220V310 CAVOK 11/02 Q1012 NOSIG,1,0,0,9999,0,0,0,
2026-04-26 16:00:00,METAR ZBAD 261600Z 30002MPS 270V330 CAVOK 12/02 Q1013 NOSIG,1,0,0,9999,0,0,0,
2026-04-26 15:30:00,METAR ZBAD 261530Z 23003MPS 210V270 CAVOK 12/01 Q1012 NOSIG,1,0,0,9999,0,0,0,
2026-04-26 15:00:00,METAR ZBAD 261500Z 22003MPS CAVOK 13/01 Q1012 NOSIG,1,0,0,9999,0,0,0,
2026-04-26 14:30:00,METAR ZBAD 261430Z 21004MPS CAVOK 13/01 Q1013 NOSIG,1,0,0,9999,0,0,0,
2026-04-26 14:00:00,METAR ZBAD 261400Z 21003MPS CAVOK 13/01 Q1013 NOSIG,1,0,0,9999,0,0,0,
2026-04-26 13:30:00,METAR ZBAD 261330Z 21003MPS 180V240 CAVOK 14/02 Q1013 NOSIG,1,0,0,9999,0,0,0,
2026-04-26 13:00:00,METAR ZBAD 261300Z 21003MPS CAVOK 14/03 Q1012 NOSIG,1,0,0,9999,0,0,0,
2026-04-26 12:30:00,METAR ZBAD 261230Z 21003MPS CAVOK 14/04 Q1012 NOSIG,1,0,0,9999,0,0,0,
2026-04-26 12:00:00,METAR ZBAD 261200Z 20003MPS CAVOK 15/05 Q1012 NOSIG,1,0,0,9999,0,0,0,
2026-04-26 11:30:00,METAR ZBAD 261130Z 19002MPS CAVOK 15/06 Q1011 NOSIG,1,0,0,9999,0,0,0,
2026-04-26 11:00:00,METAR ZBAD 261100Z 15004MPS CAVOK 18/04 Q1011 NOSIG,1,0,0,9999,0,0,0,
2026-04-26 10:30:00,METAR ZBAD 261030Z 17004MPS CAVOK 19/06 Q1011 NOSIG,1,0,0,9999,0,0,0,
2026-04-26 10:00:00,METAR ZBAD 261000Z 12004MPS CAVOK 20/06 Q1011 NOSIG,1,0,0,9999,0,0,0,
2026-04-26 09:30:00,METAR ZBAD 260930Z 12006MPS CAVOK 20/06 Q1010 NOSIG,1,0,0,9999,0,0,0,
2026-04-26 09:00:00,METAR ZBAD 260900Z 13007MPS CAVOK 20/06 Q1010 BECMG TL1040 19004MPS,1,0,0,9999,0,0,0,
2026-04-26 08:30:00,METAR ZBAD 260830Z 14007MPS CAVOK 21/06 Q1010 NOSIG,1,0,0,9999,0,0,0,
2026-04-26 08:00:00,METAR ZBAD 260800Z 13007MPS CAVOK 22/07 Q1010 NOSIG,1,0,0,9999,0,0,0,
2026-04-26 07:30:00,METAR ZBAD 260730Z 12007MPS CAVOK 21/07 Q1010 NOSIG,1,0,0,9999,0,0,0,
2026-04-26 07:00:00,METAR ZBAD 260700Z 13008MPS CAVOK 22/07 Q1010 NOSIG,1,0,0,9999,0,0,0,
2026-04-26 06:30:00,METAR ZBAD 260630Z 10007MPS CAVOK 21/09 Q1011 NOSIG,1,0,0,9999,0,0,0,
2026-04-26 06:00:00,METAR ZBAD 260600Z 10008MPS 070V130 CAVOK 22/10 Q1011 NOSIG,1,0,0,9999,0,0,0,
2026-04-26 05:30:00,METAR ZBAD 260530Z 10008MPS CAVOK 22/08 Q1011 NOSIG,1,0,0,9999,0,0,0,
2026-04-26 05:00:00,METAR ZBAD 260500Z 09007MPS CAVOK 23/09 Q1011 NOSIG,1,0,0,9999,0,0,0,
2026-04-26 04:30:00,METAR ZBAD 260430Z 05006MPS CAVOK 23/09 Q1011 NOSIG,1,0,0,9999,0,0,0,
2026-04-26 04:00:00,METAR ZBAD 260400Z 05007MPS CAVOK 23/09 Q1011 BECMG TL0540 11004MPS,1,0,0,9999,0,0,0,
2026-04-26 03:30:00,METAR ZBAD 260330Z 04008MPS CAVOK 23/06 Q1011 NOSIG,1,0,0,9999,0,0,0,
2026-04-26 03:00:00,METAR ZBAD 260300Z 03008MPS CAVOK 24/04 Q1011 BECMG TL0440 09006MPS,1,0,0,9999,0,0,0,
2026-04-26 02:30:00,METAR ZBAD 260230Z 03009MPS CAVOK 23/03 Q1011 NOSIG,1,0,0,9999,0,0,0,
2026-04-26 02:00:00,METAR ZBAD 260200Z 02008MPS CAVOK 22/05 Q1011 BECMG TL0340 09006MPS,1,0,0,9999,0,0,0,
2026-04-26 01:30:00,METAR ZBAD 260130Z 02007MPS CAVOK 21/10 Q1010 NOSIG,1,0,0,9999,0,0,0,
2026-04-26 01:00:00,METAR ZBAD 260100Z 02007MPS CAVOK 20/12 Q1010 NOSIG,1,0,0,9999,0,0,0,
2026-04-26 00:30:00,METAR ZBAD 260030Z 03005MPS CAVOK 19/13 Q1010 NOSIG,1,0,0,9999,0,0,0,
2026-04-26 00:00:00,METAR ZBAD 260000Z 02004MPS 9000 NSC 19/13 Q1010 NOSIG,0,4,0,9000,0,0,0,
2026-04-25 23:30:00,METAR ZBAD 252330Z 05002MPS 9000 NSC 18/13 Q1010 NOSIG,0,2,0,9000,0,0,0,
2026-04-25 23:00:00,METAR ZBAD 252300Z 05001MPS 9000 NSC 17/13 Q1010 BECMG TL0040 03006MPS,0,1,0,9000,0,0,0,
2026-04-25 22:30:00,METAR ZBAD 252230Z VRB01MPS 7000 NSC 15/13 Q1009 NOSIG,0,1,0,7000,0,0,0,
2026-04-25 22:00:00,METAR ZBAD 252200Z 09002MPS 7000 NSC 15/12 Q1009 BECMG TL2350 03006MPS,0,2,0,7000,0,0,0,
2026-04-25 21:30:00,METAR ZBAD 252130Z 14001MPS 7000 NSC 14/12 Q1008 NOSIG,0,1,0,7000,0,0,0,
2026-04-25 21:00:00,METAR ZBAD 252100Z VRB01MPS CAVOK 15/12 Q1008 NOSIG,1,0,0,9999,0,0,0,
2026-04-25 20:30:00,METAR ZBAD 252030Z VRB01MPS CAVOK 15/11 Q1008 NOSIG,1,0,0,9999,0,0,0,
2026-04-25 20:00:00,METAR ZBAD 252000Z VRB01MPS CAVOK 16/12 Q1008 NOSIG,1,0,0,9999,0,0,0,
2026-04-25 19:30:00,METAR ZBAD 251930Z 11002MPS CAVOK 16/12 Q1007 NOSIG,1,0,0,9999,0,0,0,
2026-04-25 19:00:00,METAR ZBAD 251900Z VRB01MPS CAVOK 16/12 Q1007 NOSIG,1,0,0,9999,0,0,0,
2026-04-25 18:30:00,METAR ZBAD 251830Z 19002MPS CAVOK 17/12 Q1007 NOSIG,1,0,0,9999,0,0,0,
2026-04-25 18:00:00,METAR ZBAD 251800Z 20003MPS CAVOK 17/13 Q1006 NOSIG,1,0,0,9999,0,0,0,
2026-04-25 17:30:00,METAR ZBAD 251730Z 19004MPS CAVOK 17/13 Q1006 NOSIG,1,0,0,9999,0,0,0,
2026-04-25 17:00:00,METAR ZBAD 251700Z 18005MPS CAVOK 17/13 Q1007 NOSIG,1,0,0,9999,0,0,0,
2026-04-25 16:30:00,METAR ZBAD 251630Z 18004MPS CAVOK 17/13 Q1007 NOSIG,1,0,0,9999,0,0,0,
2026-04-25 16:00:00,METAR ZBAD 251600Z 19003MPS CAVOK 17/12 Q1008 NOSIG,1,0,0,9999,0,0,0,
2026-04-25 15:30:00,METAR ZBAD 251530Z 20003MPS CAVOK 19/13 Q1008 NOSIG,1,0,0,9999,0,0,0,
2026-04-25 15:00:00,METAR ZBAD 251500Z 19004MPS CAVOK 19/13 Q1007 NOSIG,1,0,0,9999,0,0,0,
2026-04-25 14:30:00,METAR ZBAD 251430Z 18004MPS CAVOK 19/13 Q1008 NOSIG,1,0,0,9999,0,0,0,
2026-04-25 14:00:00,METAR ZBAD 251400Z 19005MPS CAVOK 19/13 Q1008 NOSIG,1,0,0,9999,0,0,0,
2026-04-25 13:30:00,METAR ZBAD 251330Z 18005MPS CAVOK 19/13 Q1008 NOSIG,1,0,0,9999,0,0,0,
2026-04-25 13:00:00,METAR ZBAD 251300Z 19004MPS CAVOK 19/12 Q1009 NOSIG,1,0,0,9999,0,0,0,
2026-04-25 12:30:00,METAR ZBAD 251230Z 20003MPS CAVOK 21/12 Q1009 NOSIG,1,0,0,9999,0,0,0,
2026-04-25 12:00:00,METAR ZBAD 251200Z 19005MPS CAVOK 21/11 Q1008 NOSIG,1,0,0,9999,0,0,0,
2026-04-25 11:30:00,METAR ZBAD 251130Z 21006MPS CAVOK 23/10 Q1008 NOSIG,1,0,0,9999,0,0,0,
2026-04-25 11:00:00,METAR ZBAD 251100Z 20008MPS CAVOK 24/11 Q1007 NOSIG,1,0,0,9999,0,0,0,
2026-04-25 10:30:00,METAR ZBAD 251030Z 21007MPS CAVOK 24/12 Q1007 NOSIG,1,0,0,9999,0,0,0,
2026-04-25 10:00:00,METAR ZBAD 251000Z 20005MPS CAVOK 25/12 Q1007 NOSIG,1,0,0,9999,0,0,0,
2026-04-25 09:30:00,METAR ZBAD 250930Z 21006MPS CAVOK 25/13 Q1007 NOSIG,1,0,0,9999,0,0,0,
2026-04-25 09:00:00,METAR ZBAD 250900Z 21006MPS CAVOK 25/13 Q1007 NOSIG,1,0,0,9999,0,0,0,
2026-04-25 08:30:00,METAR ZBAD 250830Z 22007MPS CAVOK 26/12 Q1007 NOSIG,1,0,0,9999,0,0,0,
2026-04-25 08:00:00,METAR ZBAD 250800Z 22007MPS CAVOK 26/12 Q1008 NOSIG,1,0,0,9999,0,0,0,
2026-04-25 07:30:00,METAR ZBAD 250730Z 21008MPS CAVOK 26/12 Q1008 NOSIG,1,0,0,9999,0,0,0,
2026-04-25 07:00:00,METAR ZBAD 250700Z 22008MPS CAVOK 27/12 Q1008 NOSIG,1,0,0,9999,0,0,0,
2026-04-25 06:30:00,METAR ZBAD 250630Z 20008MPS 170V230 CAVOK 27/11 Q1008 NOSIG,1,0,0,9999,0,0,0,
2026-04-25 06:00:00,METAR ZBAD 250600Z 19008MPS CAVOK 27/12 Q1009 NOSIG,1,0,0,9999,0,0,0,
2026-04-25 05:30:00,METAR ZBAD 250530Z 19007MPS CAVOK 27/12 Q1010 NOSIG,1,0,0,9999,0,0,0,
2026-04-25 05:00:00,METAR ZBAD 250500Z 20006MPS CAVOK 26/12 Q1010 NOSIG,1,0,0,9999,0,0,0,
2026-04-25 04:30:00,METAR ZBAD 250430Z 21005MPS CAVOK 25/12 Q1011 NOSIG,1,0,0,9999,0,0,0,
2026-04-25 04:00:00,METAR ZBAD 250400Z 20005MPS 180V240 CAVOK 25/13 Q1011 NOSIG,1,0,0,9999,0,0,0,
2026-04-25 03:30:00,METAR ZBAD 250330Z 21004MPS 160V230 CAVOK 24/13 Q1012 NOSIG,1,0,0,9999,0,0,0,
2026-04-25 03:00:00,METAR ZBAD 250300Z 21004MPS 180V250 CAVOK 23/14 Q1012 NOSIG,1,0,0,9999,0,0,0,
2026-04-25 02:30:00,METAR ZBAD 250230Z 19004MPS 160V220 CAVOK 22/14 Q1013 NOSIG,1,0,0,9999,0,0,0,
2026-04-25 02:00:00,METAR ZBAD 250200Z 22004MPS 190V250 CAVOK 21/13 Q1013 NOSIG,1,0,0,9999,0,0,0,
2026-04-25 01:30:00,METAR ZBAD 250130Z 22004MPS 190V260 CAVOK 21/13 Q1013 NOSIG,1,0,0,9999,0,0,0,
2026-04-25 01:00:00,METAR ZBAD 250100Z 20003MPS CAVOK 20/13 Q1013 NOSIG,1,0,0,9999,0,0,0,
2026-04-25 00:30:00,METAR ZBAD 250030Z 21004MPS CAVOK 19/13 Q1013 NOSIG,1,0,0,9999,0,0,0,
2026-04-25 00:00:00,METAR ZBAD 250000Z 20004MPS CAVOK 18/13 Q1013 NOSIG,1,0,0,9999,0,0,0,
2026-04-24 23:30:00,METAR ZBAD 242330Z 19003MPS CAVOK 17/13 Q1013 NOSIG,1,0,0,9999,0,0,0,
2026-04-24 23:00:00,METAR ZBAD 242300Z 17002MPS 130V220 CAVOK 15/12 Q1013 NOSIG,1,0,0,9999,0,0,0,
2026-04-24 22:30:00,METAR ZBAD 242230Z 16002MPS CAVOK 14/12 Q1012 NOSIG,1,0,0,9999,0,0,0,
2026-04-24 22:00:00,METAR ZBAD 242200Z 18001MPS CAVOK 13/12 Q1012 NOSIG,1,0,0,9999,0,0,0,
2026-04-24 21:30:00,METAR ZBAD 242130Z 19002MPS CAVOK 12/11 Q1012 NOSIG,1,0,0,9999,0,0,0,
2026-04-24 21:00:00,METAR ZBAD 242100Z 18002MPS CAVOK 13/11 Q1012 NOSIG,1,0,0,9999,0,0,0,
2026-04-24 20:30:00,METAR ZBAD 242030Z 20002MPS CAVOK 13/12 Q1012 NOSIG,1,0,0,9999,0,0,0,
2026-04-24 20:00:00,METAR ZBAD 242000Z 18002MPS CAVOK 13/12 Q1012 NOSIG,1,0,0,9999,0,0,0,
2026-04-24 19:30:00,METAR ZBAD 241930Z 20002MPS CAVOK 13/11 Q1012 NOSIG,1,0,0,9999,0,0,0,
2026-04-24 19:00:00,METAR ZBAD 241900Z 22002MPS CAVOK 14/12 Q1012 NOSIG,1,0,0,9999,0,0,0,
2026-04-24 18:30:00,METAR ZBAD 241830Z 19002MPS CAVOK 13/12 Q1012 NOSIG,1,0,0,9999,0,0,0,
2026-04-24 18:00:00,METAR ZBAD 241800Z 00000MPS CAVOK 15/13 Q1012 NOSIG,1,0,0,9999,0,0,0,
2026-04-24 17:30:00,METAR ZBAD 241730Z 22002MPS CAVOK 15/13 Q1012 NOSIG,1,0,0,9999,0,0,0,
2026-04-24 17:00:00,METAR ZBAD 241700Z 22002MPS CAVOK 16/12 Q1012 NOSIG,1,0,0,9999,0,0,0,
2026-04-24 16:30:00,METAR ZBAD 241630Z VRB01MPS CAVOK 19/14 Q1012 NOSIG,1,0,0,9999,0,0,0,
2026-04-24 16:00:00,METAR ZBAD 241600Z VRB01MPS CAVOK 18/14 Q1012 NOSIG,1,0,0,9999,0,0,0,
2026-04-24 15:30:00,METAR ZBAD 241530Z 16001MPS CAVOK 19/14 Q1012 NOSIG,1,0,0,9999,0,0,0,
2026-04-24 15:00:00,METAR ZBAD 241500Z VRB01MPS CAVOK 18/14 Q1012 NOSIG,1,0,0,9999,0,0,0,
2026-04-24 14:30:00,METAR ZBAD 241430Z 18002MPS CAVOK 18/13 Q1012 NOSIG,1,0,0,9999,0,0,0,
2026-04-24 14:00:00,METAR ZBAD 241400Z 20004MPS CAVOK 21/14 Q1011 NOSIG,1,0,0,9999,0,0,0,
2026-04-24 13:30:00,METAR ZBAD 241330Z 21003MPS 180V250 CAVOK 20/14 Q1011 NOSIG,1,0,0,9999,0,0,0,
2026-04-24 13:00:00,METAR ZBAD 241300Z 20002MPS 180V280 CAVOK 20/14 Q1011 NOSIG,1,0,0,9999,0,0,0,
2026-04-24 12:30:00,METAR ZBAD 241230Z 23002MPS 170V270 CAVOK 20/14 Q1011 NOSIG,1,0,0,9999,0,0,0,
2026-04-24 12:00:00,METAR ZBAD 241200Z 22002MPS 180V270 CAVOK 20/14 Q1011 NOSIG,1,0,0,9999,0,0,0,
2026-04-24 11:30:00,METAR ZBAD 241130Z 23001MPS CAVOK 21/14 Q1010 NOSIG,1,0,0,9999,0,0,0,
2026-04-24 11:00:00,METAR ZBAD 241100Z VRB01MPS CAVOK 22/14 Q1010 NOSIG,1,0,0,9999,0,0,0,
2026-04-24 10:30:00,METAR ZBAD 241030Z 35002MPS CAVOK 22/14 Q1010 NOSIG,1,0,0,9999,0,0,0,
2026-04-24 10:00:00,METAR ZBAD 241000Z 32002MPS 280V360 CAVOK 23/14 Q1010 NOSIG,1,0,0,9999,0,0,0,
2026-04-24 09:30:00,METAR ZBAD 240930Z VRB02MPS CAVOK 23/14 Q1009 NOSIG,1,0,0,9999,0,0,0,
2026-04-24 09:00:00,METAR ZBAD 240900Z 19004MPS CAVOK 23/14 Q1008 NOSIG,1,0,0,9999,0,0,0,
2026-04-24 08:30:00,METAR ZBAD 240830Z 23003MPS 200V270 CAVOK 24/13 Q1009 NOSIG,1,0,0,9999,0,0,0,
2026-04-24 08:00:00,METAR ZBAD 240800Z 22005MPS CAVOK 24/12 Q1009 NOSIG,1,0,0,9999,0,0,0,
2026-04-24 07:30:00,METAR ZBAD 240730Z 25003MPS 210V290 CAVOK 24/13 Q1009 NOSIG,1,0,0,9999,0,0,0,
2026-04-24 07:00:00,METAR ZBAD 240700Z 28005MPS 250V310 CAVOK 25/13 Q1009 BECMG TL0850 21004MPS,1,0,0,9999,0,0,0,
2026-04-24 06:51:00,SPECI ZBAD 240651Z 28005MPS 230V310 CAVOK 25/13 Q1009 NOSIG,1,0,0,9999,0,0,0,
2026-04-24 06:30:00,METAR ZBAD 240630Z 21003MPS 180V250 CAVOK 24/13 Q1009 NOSIG,1,0,0,9999,0,0,0,
2026-04-24 06:00:00,METAR ZBAD 240600Z 22003MPS 170V270 CAVOK 25/13 Q1009 NOSIG,1,0,0,9999,0,0,0,
2026-04-24 05:30:00,METAR ZBAD 240530Z 19003MPS 140V230 CAVOK 24/13 Q1009 NOSIG,1,0,0,9999,0,0,0,
2026-04-24 05:00:00,METAR ZBAD 240500Z 22003MPS 160V260 CAVOK 24/13 Q1009 NOSIG,1,0,0,9999,0,0,0,
2026-04-24 04:30:00,METAR ZBAD 240430Z VRB02MPS CAVOK 23/13 Q1009 NOSIG,1,0,0,9999,0,0,0,
2026-04-24 04:00:00,METAR ZBAD 240400Z 21003MPS 160V250 CAVOK 22/13 Q1010 NOSIG,1,0,0,9999,0,0,0,
2026-04-24 03:30:00,METAR ZBAD 240330Z 22003MPS 140V280 CAVOK 22/13 Q1010 NOSIG,1,0,0,9999,0,0,0,
2026-04-24 03:00:00,METAR ZBAD 240300Z 20003MPS 160V240 CAVOK 21/13 Q1010 NOSIG,1,0,0,9999,0,0,0,
2026-04-24 02:30:00,METAR ZBAD 240230Z 19003MPS CAVOK 20/13 Q1010 NOSIG,1,0,0,9999,0,0,0,
2026-04-24 02:00:00,METAR ZBAD 240200Z VRB02MPS CAVOK 19/13 Q1010 NOSIG,1,0,0,9999,0,0,0,
2026-04-24 01:30:00,METAR ZBAD 240130Z 21003MPS 180V250 CAVOK 18/12 Q1010 NOSIG,1,0,0,9999,0,0,0,
2026-04-24 01:00:00,METAR ZBAD 240100Z 22003MPS 180V250 CAVOK 17/12 Q1011 NOSIG,1,0,0,9999,0,0,0,
2026-04-24 00:30:00,METAR ZBAD 240030Z 22003MPS 180V260 7000 NSC 17/12 Q1011 NOSIG,0,3,0,7000,0,0,0,
2026-04-24 00:00:00,METAR ZBAD 240000Z 19002MPS 170V230 7000 NSC 15/11 Q1010 NOSIG,0,2,0,7000,0,0,0,
2026-04-23 23:30:00,METAR ZBAD 232330Z VRB01MPS 7000 NSC 15/11 Q1010 NOSIG,0,1,0,7000,0,0,0,
2026-04-23 23:00:00,METAR ZBAD 232300Z 00000MPS 7000 NSC 14/11 Q1010 NOSIG,0,0,0,7000,0,0,0,
2026-04-23 22:30:00,METAR ZBAD 232230Z VRB01MPS 7000 NSC 13/10 Q1010 NOSIG,0,1,0,7000,0,0,0,
2026-04-23 22:00:00,METAR ZBAD 232200Z VRB01MPS 7000 NSC 13/10 Q1009 NOSIG,0,1,0,7000,0,0,0,
2026-04-23 21:30:00,METAR ZBAD 232130Z 16001MPS 7000 NSC 12/10 Q1009 NOSIG,0,1,0,7000,0,0,0,
2026-04-23 21:00:00,METAR ZBAD 232100Z 19001MPS CAVOK 13/11 Q1009 NOSIG,1,0,0,9999,0,0,0,
2026-04-23 20:30:00,METAR ZBAD 232030Z 19002MPS CAVOK 13/10 Q1009 NOSIG,1,0,0,9999,0,0,0,
2026-04-23 20:00:00,METAR ZBAD 232000Z 18003MPS CAVOK 13/10 Q1009 NOSIG,1,0,0,9999,0,0,0,
2026-04-23 19:30:00,METAR ZBAD 231930Z 19003MPS CAVOK 13/11 Q1009 NOSIG,1,0,0,9999,0,0,0,
2026-04-23 19:00:00,METAR ZBAD 231900Z 19003MPS CAVOK 14/11 Q1009 NOSIG,1,0,0,9999,0,0,0,
2026-04-23 18:30:00,METAR ZBAD 231830Z 20004MPS CAVOK 15/11 Q1009 NOSIG,1,0,0,9999,0,0,0,
2026-04-23 18:00:00,METAR ZBAD 231800Z 19004MPS CAVOK 16/12 Q1009 NOSIG,1,0,0,9999,0,0,0,
2026-04-23 17:30:00,METAR ZBAD 231730Z 20005MPS CAVOK 16/12 Q1009 NOSIG,1,0,0,9999,0,0,0,
2026-04-23 17:00:00,METAR ZBAD 231700Z 20004MPS CAVOK 16/12 Q1009 NOSIG,1,0,0,9999,0,0,0,
2026-04-23 16:30:00,METAR ZBAD 231630Z 20004MPS CAVOK 17/12 Q1010 NOSIG,1,0,0,9999,0,0,0,
2026-04-23 16:00:00,METAR ZBAD 231600Z 20005MPS CAVOK 17/12 Q1010 NOSIG,1,0,0,9999,0,0,0,
2026-04-23 15:30:00,METAR ZBAD 231530Z 20006MPS CAVOK 17/12 Q1010 NOSIG,1,0,0,9999,0,0,0,
2026-04-23 15:00:00,METAR ZBAD 231500Z 20005MPS CAVOK 17/12 Q1010 NOSIG,1,0,0,9999,0,0,0,
2026-04-23 14:30:00,METAR ZBAD 231430Z 20005MPS CAVOK 18/12 Q1010 NOSIG,1,0,0,9999,0,0,0,
2026-04-23 14:00:00,METAR ZBAD 231400Z 20005MPS CAVOK 18/12 Q1010 NOSIG,1,0,0,9999,0,0,0,
2026-04-23 13:30:00,METAR ZBAD 231330Z 19004MPS CAVOK 18/12 Q1010 NOSIG,1,0,0,9999,0,0,0,
2026-04-23 13:00:00,METAR ZBAD 231300Z 20004MPS CAVOK 19/12 Q1010 NOSIG,1,0,0,9999,0,0,0,
2026-04-23 12:30:00,METAR ZBAD 231230Z 20003MPS CAVOK 18/11 Q1010 NOSIG,1,0,0,9999,0,0,0,
2026-04-23 12:00:00,METAR ZBAD 231200Z 20004MPS CAVOK 19/11 Q1010 NOSIG,1,0,0,9999,0,0,0,
2026-04-23 11:30:00,METAR ZBAD 231130Z 20003MPS CAVOK 19/10 Q1009 NOSIG,1,0,0,9999,0,0,0,
2026-04-23 11:00:00,METAR ZBAD 231100Z 20005MPS CAVOK 21/10 Q1009 NOSIG,1,0,0,9999,0,0,0,
2026-04-23 10:30:00,METAR ZBAD 231030Z 21005MPS CAVOK 22/10 Q1009 NOSIG,1,0,0,9999,0,0,0,
2026-04-23 10:00:00,METAR ZBAD 231000Z 21006MPS CAVOK 23/09 Q1009 NOSIG,1,0,0,9999,0,0,0,
2026-04-23 09:30:00,METAR ZBAD 230930Z 21006MPS CAVOK 24/08 Q1009 NOSIG,1,0,0,9999,0,0,0,
2026-04-23 09:00:00,METAR ZBAD 230900Z 21006MPS 180V240 CAVOK 24/08 Q1008 NOSIG,1,0,0,9999,0,0,0,
2026-04-23 08:30:00,METAR ZBAD 230830Z 22007MPS CAVOK 24/07 Q1008 NOSIG,1,0,0,9999,0,0,0,
2026-04-23 08:00:00,METAR ZBAD 230800Z 20007MPS CAVOK 25/07 Q1008 NOSIG,1,0,0,9999,0,0,0,
2026-04-23 07:30:00,METAR ZBAD 230730Z 20006MPS CAVOK 24/07 Q1009 NOSIG,1,0,0,9999,0,0,0,
2026-04-23 07:00:00,METAR ZBAD 230700Z 20006MPS CAVOK 24/07 Q1009 NOSIG,1,0,0,9999,0,0,0,
2026-04-23 06:30:00,METAR ZBAD 230630Z 20006MPS 170V230 CAVOK 24/06 Q1009 NOSIG,1,0,0,9999,0,0,0,
2026-04-23 06:00:00,METAR ZBAD 230600Z 20006MPS 160V220 CAVOK 24/07 Q1010 NOSIG,1,0,0,9999,0,0,0,
2026-04-23 05:30:00,METAR ZBAD 230530Z 21005MPS 170V250 CAVOK 24/06 Q1010 NOSIG,1,0,0,9999,0,0,0,
2026-04-23 05:00:00,METAR ZBAD 230500Z 19006MPS 160V230 CAVOK 24/07 Q1010 NOSIG,1,0,0,9999,0,0,0,
2026-04-23 04:30:00,METAR ZBAD 230430Z 19005MPS 170V240 9999 FEW033 23/09 Q1011 NOSIG,0,5,0,10000,0,0,0,
2026-04-23 04:00:00,METAR ZBAD 230400Z 20005MPS 9999 FEW033 22/10 Q1011 NOSIG,0,5,0,10000,0,0,0,
2026-04-23 03:30:00,METAR ZBAD 230330Z 21004MPS 170V260 9999 FEW033 21/10 Q1011 NOSIG,0,4,0,10000,0,0,0,
2026-04-23 03:00:00,METAR ZBAD 230300Z 25004MPS 200V280 9999 FEW033 20/11 Q1012 NOSIG,0,4,0,10000,0,0,0,
2026-04-23 02:30:00,METAR ZBAD 230230Z 23004MPS 210V270 CAVOK 20/11 Q1012 NOSIG,1,0,0,9999,0,0,0,
2026-04-23 02:00:00,METAR ZBAD 230200Z 23003MPS 150V290 6000 NSC 19/11 Q1013 NOSIG,0,3,0,6000,0,0,0,
2026-04-23 01:30:00,METAR ZBAD 230130Z VRB01MPS 6000 NSC 18/11 Q1013 NOSIG,0,1,0,6000,0,0,0,
2026-04-23 01:00:00,METAR ZBAD 230100Z VRB01MPS 4500 HZ NSC 16/10 Q1013 NOSIG,0,1,0,4500,0,0,0,
2026-04-23 00:30:00,METAR ZBAD 230030Z VRB01MPS 4500 HZ NSC 15/10 Q1013 NOSIG,0,1,0,4500,0,0,0,
2026-04-23 00:00:00,METAR ZBAD 230000Z VRB01MPS 4500 HZ NSC 14/10 Q1013 NOSIG,0,1,0,4500,0,0,0,
2026-04-22 23:30:00,METAR ZBAD 222330Z VRB01MPS 4000 BR NSC 13/10 Q1013 NOSIG,0,1,0,4000,0,0,1,BR
2026-04-22 23:00:00,METAR ZBAD 222300Z 10001MPS 3400 BR NSC 12/09 Q1013 NOSIG,0,1,0,3400,0,0,1,BR
2026-04-22 22:30:00,METAR ZBAD 222230Z 07001MPS 3000 R35R/P2000N R35L/P2000N R01L/1400D R11L/P2000N BR NSC 12/09 Q1013 NOSIG,0,1,0,3000,0,0,1,BR
2026-04-22 22:00:00,METAR ZBAD 222200Z 08001MPS 3800 BR NSC 11/09 Q1013 NOSIG,0,1,0,3800,0,0,1,BR
2026-04-22 21:30:00,METAR ZBAD 222130Z 11001MPS 5000 BR NSC 11/08 Q1012 NOSIG,0,1,0,5000,0,0,1,BR
2026-04-22 21:00:00,METAR ZBAD 222100Z VRB01MPS 6000 NSC 10/08 Q1012 NOSIG,0,1,0,6000,0,0,0,
2026-04-22 20:30:00,METAR ZBAD 222030Z 12002MPS 6000 NSC 10/08 Q1012 NOSIG,0,2,0,6000,0,0,0,
2026-04-22 20:00:00,METAR ZBAD 222000Z 13002MPS 6000 NSC 11/08 Q1012 NOSIG,0,2,0,6000,0,0,0,
2026-04-22 19:30:00,METAR ZBAD 221930Z 17001MPS 7000 NSC 12/09 Q1013 NOSIG,0,1,0,7000,0,0,0,
2026-04-22 19:00:00,METAR ZBAD 221900Z 17002MPS 8000 NSC 12/09 Q1013 NOSIG,0,2,0,8000,0,0,0,
2026-04-22 18:30:00,METAR ZBAD 221830Z 18002MPS CAVOK 12/08 Q1013 NOSIG,1,0,0,9999,0,0,0,
2026-04-22 18:00:00,METAR ZBAD 221800Z 15003MPS CAVOK 13/09 Q1013 NOSIG,1,0,0,9999,0,0,0,
2026-04-22 17:30:00,METAR ZBAD 221730Z 15003MPS CAVOK 13/09 Q1013 NOSIG,1,0,0,9999,0,0,0,
2026-04-22 17:00:00,METAR ZBAD 221700Z 15003MPS CAVOK 13/09 Q1013 NOSIG,1,0,0,9999,0,0,0,
2026-04-22 16:30:00,METAR ZBAD 221630Z 16003MPS CAVOK 13/09 Q1014 NOSIG,1,0,0,9999,0,0,0,
2026-04-22 16:00:00,METAR ZBAD 221600Z 16003MPS CAVOK 13/09 Q1014 NOSIG,1,0,0,9999,0,0,0,
2026-04-22 15:30:00,METAR ZBAD 221530Z 16003MPS CAVOK 14/09 Q1014 NOSIG,1,0,0,9999,0,0,0,
2026-04-22 15:00:00,METAR ZBAD 221500Z 16004MPS CAVOK 14/09 Q1014 NOSIG,1,0,0,9999,0,0,0,
2026-04-22 14:30:00,METAR ZBAD 221430Z 16004MPS CAVOK 15/10 Q1014 NOSIG,1,0,0,9999,0,0,0,
2026-04-22 14:00:00,METAR ZBAD 221400Z 17003MPS CAVOK 14/10 Q1014 NOSIG,1,0,0,9999,0,0,0,
2026-04-22 13:30:00,METAR ZBAD 221330Z 18003MPS CAVOK 14/09 Q1013 NOSIG,1,0,0,9999,0,0,0,
2026-04-22 13:00:00,METAR ZBAD 221300Z 21002MPS CAVOK 15/09 Q1013 NOSIG,1,0,0,9999,0,0,0,
2026-04-22 12:30:00,METAR ZBAD 221230Z 18002MPS CAVOK 15/09 Q1013 NOSIG,1,0,0,9999,0,0,0,
2026-04-22 12:00:00,METAR ZBAD 221200Z 16001MPS CAVOK 16/09 Q1012 NOSIG,1,0,0,9999,0,0,0,
2026-04-22 11:30:00,METAR ZBAD 221130Z 16002MPS CAVOK 18/09 Q1012 NOSIG,1,0,0,9999,0,0,0,
2026-04-22 11:00:00,METAR ZBAD 221100Z 20002MPS CAVOK 18/09 Q1012 NOSIG,1,0,0,9999,0,0,0,
2026-04-22 10:30:00,METAR ZBAD 221030Z 18003MPS CAVOK 19/09 Q1011 NOSIG,1,0,0,9999,0,0,0,
2026-04-22 10:00:00,METAR ZBAD 221000Z 18003MPS CAVOK 20/09 Q1011 NOSIG,1,0,0,9999,0,0,0,
2026-04-22 09:30:00,METAR ZBAD 220930Z 19003MPS CAVOK 21/09 Q1011 NOSIG,1,0,0,9999,0,0,0,
2026-04-22 09:00:00,METAR ZBAD 220900Z 20004MPS CAVOK 21/08 Q1011 NOSIG,1,0,0,9999,0,0,0,
2026-04-22 08:30:00,METAR ZBAD 220830Z 17003MPS 140V200 CAVOK 22/09 Q1011 NOSIG,1,0,0,9999,0,0,0,
2026-04-22 08:00:00,METAR ZBAD 220800Z 18004MPS 150V210 CAVOK 22/08 Q1011 NOSIG,1,0,0,9999,0,0,0,
2026-04-22 07:30:00,METAR ZBAD 220730Z 19003MPS 120V230 CAVOK 22/08 Q1012 NOSIG,1,0,0,9999,0,0,0,
2026-04-22 07:00:00,METAR ZBAD 220700Z 17004MPS 130V190 CAVOK 22/08 Q1012 NOSIG,1,0,0,9999,0,0,0,
2026-04-22 06:30:00,METAR ZBAD 220630Z 13003MPS 080V190 CAVOK 22/08 Q1012 NOSIG,1,0,0,9999,0,0,0,
2026-04-22 06:00:00,METAR ZBAD 220600Z 11003G08MPS 040V150 CAVOK 22/08 Q1013 NOSIG,1,0,0,9999,0,0,0,
2026-04-22 05:30:00,METAR ZBAD 220530Z VRB03MPS CAVOK 22/08 Q1013 NOSIG,1,0,0,9999,0,0,0,
2026-04-22 05:00:00,METAR ZBAD 220500Z 08004MPS 050V120 CAVOK 21/07 Q1013 NOSIG,1,0,0,9999,0,0,0,
2026-04-22 04:30:00,METAR ZBAD 220430Z 07002MPS 360V140 CAVOK 21/07 Q1013 NOSIG,1,0,0,9999,0,0,0,
2026-04-22 04:00:00,METAR ZBAD 220400Z 08003MPS 020V120 CAVOK 19/07 Q1014 NOSIG,1,0,0,9999,0,0,0,
2026-04-22 03:30:00,METAR ZBAD 220330Z 07003MPS 030V110 CAVOK 19/07 Q1014 NOSIG,1,0,0,9999,0,0,0,
2026-04-22 03:00:00,METAR ZBAD 220300Z 08004MPS 050V120 CAVOK 18/07 Q1014 NOSIG,1,0,0,9999,0,0,0,
2026-04-22 02:30:00,METAR ZBAD 220230Z 05002MPS 340V090 CAVOK 17/07 Q1014 NOSIG,1,0,0,9999,0,0,0,
2026-04-22 02:00:00,METAR ZBAD 220200Z 06004MPS CAVOK 17/07 Q1014 NOSIG,1,0,0,9999,0,0,0,
2026-04-22 01:30:00,METAR ZBAD 220130Z 04004MPS 010V070 CAVOK 16/07 Q1013 NOSIG,1,0,0,9999,0,0,0,
2026-04-22 01:00:00,METAR ZBAD 220100Z 05002MPS 010V090 CAVOK 15/06 Q1013 NOSIG,1,0,0,9999,0,0,0,
2026-04-22 00:30:00,METAR ZBAD 220030Z VRB01MPS CAVOK 16/07 Q1013 NOSIG,1,0,0,9999,0,0,0,
2026-04-22 00:00:00,METAR ZBAD 220000Z 19002MPS 150V230 CAVOK 13/07 Q1014 NOSIG,1,0,0,9999,0,0,0,
2026-04-21 23:30:00,METAR ZBAD 212330Z 17002MPS CAVOK 12/07 Q1013 NOSIG,1,0,0,9999,0,0,0,
2026-04-21 23:00:00,METAR ZBAD 212300Z 00000MPS CAVOK 10/07 Q1013 NOSIG,1,0,0,9999,0,0,0,
2026-04-21 22:30:00,METAR ZBAD 212230Z VRB01MPS CAVOK 09/06 Q1012 NOSIG,1,0,0,9999,0,0,0,
2026-04-21 22:00:00,METAR ZBAD 212200Z 14001MPS CAVOK 07/05 Q1012 NOSIG,1,0,0,9999,0,0,0,
2026-04-21 21:30:00,METAR ZBAD 212130Z 13001MPS CAVOK 08/05 Q1012 NOSIG,1,0,0,9999,0,0,0,
2026-04-21 21:00:00,METAR ZBAD 212100Z 12002MPS CAVOK 08/05 Q1012 NOSIG,1,0,0,9999,0,0,0,
2026-04-21 20:30:00,METAR ZBAD 212030Z 14002MPS 110V170 CAVOK 09/05 Q1012 NOSIG,1,0,0,9999,0,0,0,
2026-04-21 20:00:00,METAR ZBAD 212000Z VRB01MPS CAVOK 10/05 Q1012 NOSIG,1,0,0,9999,0,0,0,
2026-04-21 19:30:00,METAR ZBAD 211930Z 21001MPS CAVOK 11/05 Q1011 NOSIG,1,0,0,9999,0,0,0,
2026-04-21 19:00:00,METAR ZBAD 211900Z 21003MPS CAVOK 11/05 Q1011 NOSIG,1,0,0,9999,0,0,0,
2026-04-21 18:30:00,METAR ZBAD 211830Z 20002MPS CAVOK 11/05 Q1011 NOSIG,1,0,0,9999,0,0,0,
2026-04-21 18:00:00,METAR ZBAD 211800Z 20004MPS CAVOK 12/05 Q1011 NOSIG,1,0,0,9999,0,0,0,
2026-04-21 17:30:00,METAR ZBAD 211730Z 20004MPS CAVOK 12/05 Q1011 NOSIG,1,0,0,9999,0,0,0,
2026-04-21 17:00:00,METAR ZBAD 211700Z 21005MPS CAVOK 13/05 Q1011 NOSIG,1,0,0,9999,0,0,0,
2026-04-21 16:30:00,METAR ZBAD 211630Z 21006MPS CAVOK 14/05 Q1011 NOSIG,1,0,0,9999,0,0,0,
2026-04-21 16:00:00,METAR ZBAD 211600Z 22006MPS CAVOK 15/05 Q1011 NOSIG,1,0,0,9999,0,0,0,
2026-04-21 15:30:00,METAR ZBAD 211530Z 22007MPS CAVOK 15/05 Q1011 NOSIG,1,0,0,9999,0,0,0,
2026-04-21 15:00:00,METAR ZBAD 211500Z 21006MPS CAVOK 15/06 Q1011 NOSIG,1,0,0,9999,0,0,0,
2026-04-21 14:30:00,METAR ZBAD 211430Z 21006MPS CAVOK 16/06 Q1011 NOSIG,1,0,0,9999,0,0,0,
2026-04-21 14:00:00,METAR ZBAD 211400Z 22006MPS CAVOK 16/06 Q1011 NOSIG,1,0,0,9999,0,0,0,
2026-04-21 13:30:00,METAR ZBAD 211330Z 22007MPS CAVOK 17/06 Q1011 NOSIG,1,0,0,9999,0,0,0,
2026-04-21 13:00:00,METAR ZBAD 211300Z 22007MPS CAVOK 17/06 Q1011 NOSIG,1,0,0,9999,0,0,0,
2026-04-21 12:30:00,METAR ZBAD 211230Z 22007MPS CAVOK 17/06 Q1011 NOSIG,1,0,0,9999,0,0,0,
2026-04-21 12:00:00,METAR ZBAD 211200Z 22006MPS CAVOK 18/06 Q1011 NOSIG,1,0,0,9999,0,0,0,
2026-04-21 11:30:00,METAR ZBAD 211130Z 21005MPS CAVOK 18/06 Q1011 NOSIG,1,0,0,9999,0,0,0,
2026-04-21 11:00:00,METAR ZBAD 211100Z 22007MPS CAVOK 18/05 Q1010 NOSIG,1,0,0,9999,0,0,0,
2026-04-21 10:30:00,METAR ZBAD 211030Z 21006MPS CAVOK 19/05 Q1010 NOSIG,1,0,0,9999,0,0,0,
2026-04-21 10:00:00,METAR ZBAD 211000Z 22006MPS CAVOK 20/06 Q1010 NOSIG,1,0,0,9999,0,0,0,
2026-04-21 09:30:00,METAR ZBAD 210930Z 22006MPS CAVOK 21/07 Q1010 NOSIG,1,0,0,9999,0,0,0,
2026-04-21 09:00:00,METAR ZBAD 210900Z 22008MPS CAVOK 22/06 Q1010 NOSIG,1,0,0,9999,0,0,0,
2026-04-21 08:30:00,METAR ZBAD 210830Z 21008MPS CAVOK 23/05 Q1010 NOSIG,1,0,0,9999,0,0,0,
2026-04-21 08:00:00,METAR ZBAD 210800Z 20008MPS CAVOK 24/05 Q1010 NOSIG,1,0,0,9999,0,0,0,
2026-04-21 07:30:00,METAR ZBAD 210730Z 22007MPS CAVOK 25/M00 Q1010 NOSIG,1,0,0,9999,0,0,0,
2026-04-21 07:00:00,METAR ZBAD 210700Z 23007MPS CAVOK 25/M01 Q1011 NOSIG,1,0,0,9999,0,0,0,
2026-04-21 06:30:00,METAR ZBAD 210630Z 22006MPS CAVOK 24/01 Q1011 NOSIG,1,0,0,9999,0,0,0,
2026-04-21 06:00:00,METAR ZBAD 210600Z 22006MPS CAVOK 25/03 Q1012 NOSIG,1,0,0,9999,0,0,0,
2026-04-21 05:30:00,METAR ZBAD 210530Z 22006MPS 190V250 CAVOK 25/02 Q1012 NOSIG,1,0,0,9999,0,0,0,
2026-04-21 05:00:00,METAR ZBAD 210500Z 20006MPS CAVOK 24/04 Q1012 NOSIG,1,0,0,9999,0,0,0,
2026-04-21 04:30:00,METAR ZBAD 210430Z 22004MPS 190V260 CAVOK 24/05 Q1013 NOSIG,1,0,0,9999,0,0,0,
2026-04-21 04:00:00,METAR ZBAD 210400Z 20004MPS 170V240 CAVOK 23/05 Q1013 NOSIG,1,0,0,9999,0,0,0,
2026-04-21 03:30:00,METAR ZBAD 210330Z 18003MPS 130V230 CAVOK 22/03 Q1014 NOSIG,1,0,0,9999,0,0,0,
2026-04-21 03:00:00,METAR ZBAD 210300Z 21002MPS 170V260 CAVOK 21/03 Q1014 NOSIG,1,0,0,9999,0,0,0,
2026-04-21 02:30:00,METAR ZBAD 210230Z VRB01MPS CAVOK 20/04 Q1015 NOSIG,1,0,0,9999,0,0,0,
2026-04-21 02:00:00,METAR ZBAD 210200Z VRB01MPS CAVOK 18/05 Q1015 NOSIG,1,0,0,9999,0,0,0,
2026-04-21 01:30:00,METAR ZBAD 210130Z 23002MPS 170V300 CAVOK 17/06 Q1015 NOSIG,1,0,0,9999,0,0,0,
2026-04-21 01:00:00,METAR ZBAD 210100Z 27003MPS 230V310 CAVOK 16/05 Q1015 NOSIG,1,0,0,9999,0,0,0,
2026-04-21 00:30:00,METAR ZBAD 210030Z 24002MPS 210V290 CAVOK 15/06 Q1015 NOSIG,1,0,0,9999,0,0,0,
2026-04-21 00:00:00,METAR ZBAD 210000Z 22003MPS CAVOK 15/06 Q1015 NOSIG,1,0,0,9999,0,0,0,
2026-04-20 23:30:00,METAR ZBAD 202330Z 25002MPS 220V290 CAVOK 13/06 Q1015 NOSIG,1,0,0,9999,0,0,0,
2026-04-20 23:00:00,METAR ZBAD 202300Z 18002MPS CAVOK 12/06 Q1015 NOSIG,1,0,0,9999,0,0,0,
2026-04-20 22:30:00,METAR ZBAD 202230Z VRB01MPS CAVOK 09/06 Q1015 NOSIG,1,0,0,9999,0,0,0,
2026-04-20 22:00:00,METAR ZBAD 202200Z 19002MPS CAVOK 09/05 Q1015 NOSIG,1,0,0,9999,0,0,0,
2026-04-20 21:30:00,METAR ZBAD 202130Z 17002MPS 150V240 CAVOK 09/05 Q1015 NOSIG,1,0,0,9999,0,0,0,
2026-04-20 21:00:00,METAR ZBAD 202100Z 23004MPS CAVOK 11/05 Q1015 NOSIG,1,0,0,9999,0,0,0,
2026-04-20 20:30:00,METAR ZBAD 202030Z 22004MPS CAVOK 11/04 Q1015 NOSIG,1,0,0,9999,0,0,0,
2026-04-20 20:00:00,METAR ZBAD 202000Z 22003MPS CAVOK 11/04 Q1015 NOSIG,1,0,0,9999,0,0,0,
2026-04-20 19:30:00,METAR ZBAD 201930Z 22004MPS CAVOK 12/04 Q1015 NOSIG,1,0,0,9999,0,0,0,
2026-04-20 19:00:00,METAR ZBAD 201900Z 21003MPS CAVOK 12/04 Q1015 NOSIG,1,0,0,9999,0,0,0,
2026-04-20 18:30:00,METAR ZBAD 201830Z 22004MPS CAVOK 12/03 Q1015 NOSIG,1,0,0,9999,0,0,0,
2026-04-20 18:00:00,METAR ZBAD 201800Z 23005MPS CAVOK 13/03 Q1015 NOSIG,1,0,0,9999,0,0,0,
2026-04-20 17:30:00,METAR ZBAD 201730Z 23005MPS CAVOK 13/02 Q1015 NOSIG,1,0,0,9999,0,0,0,
2026-04-20 17:00:00,METAR ZBAD 201700Z 23006MPS CAVOK 14/02 Q1015 NOSIG,1,0,0,9999,0,0,0,
2026-04-20 16:30:00,METAR ZBAD 201630Z 23007MPS CAVOK 14/01 Q1015 NOSIG,1,0,0,9999,0,0,0,
2026-04-20 16:00:00,METAR ZBAD 201600Z 23006MPS CAVOK 14/00 Q1015 NOSIG,1,0,0,9999,0,0,0,
2026-04-20 15:30:00,METAR ZBAD 201530Z 23006MPS CAVOK 15/M00 Q1015 NOSIG,1,0,0,9999,0,0,0,
2026-04-20 15:00:00,METAR ZBAD 201500Z 23006MPS CAVOK 15/M00 Q1015 NOSIG,1,0,0,9999,0,0,0,
2026-04-20 14:30:00,METAR ZBAD 201430Z 23006MPS CAVOK 15/00 Q1015 NOSIG,1,0,0,9999,0,0,0,
2026-04-20 14:00:00,METAR ZBAD 201400Z 23005MPS CAVOK 15/00 Q1015 NOSIG,1,0,0,9999,0,0,0,
2026-04-20 13:30:00,METAR ZBAD 201330Z 22006MPS CAVOK 15/00 Q1015 NOSIG,1,0,0,9999,0,0,0,
2026-04-20 13:00:00,METAR ZBAD 201300Z 22006MPS CAVOK 16/M01 Q1015 NOSIG,1,0,0,9999,0,0,0,
2026-04-20 12:30:00,METAR ZBAD 201230Z 23006MPS CAVOK 16/M02 Q1015 NOSIG,1,0,0,9999,0,0,0,
2026-04-20 12:00:00,METAR ZBAD 201200Z 22005MPS CAVOK 16/M01 Q1014 NOSIG,1,0,0,9999,0,0,0,
2026-04-20 11:30:00,METAR ZBAD 201130Z 21005MPS CAVOK 16/M01 Q1014 NOSIG,1,0,0,9999,0,0,0,
2026-04-20 11:00:00,METAR ZBAD 201100Z 22007MPS CAVOK 18/M03 Q1013 NOSIG,1,0,0,9999,0,0,0,
2026-04-20 10:30:00,METAR ZBAD 201030Z 22008MPS CAVOK 18/M02 Q1013 NOSIG,1,0,0,9999,0,0,0,
2026-04-20 10:00:00,METAR ZBAD 201000Z 22007MPS CAVOK 19/M02 Q1013 NOSIG,1,0,0,9999,0,0,0,
2026-04-20 09:30:00,METAR ZBAD 200930Z 23008MPS CAVOK 20/M03 Q1013 NOSIG,1,0,0,9999,0,0,0,
2026-04-20 09:00:00,METAR ZBAD 200900Z 23008MPS CAVOK 21/M04 Q1013 NOSIG,1,0,0,9999,0,0,0,
2026-04-20 08:30:00,METAR ZBAD 200830Z 23008MPS CAVOK 21/M04 Q1013 NOSIG,1,0,0,9999,0,0,0,
2026-04-20 08:00:00,METAR ZBAD 200800Z 22008MPS CAVOK 21/M05 Q1013 NOSIG,1,0,0,9999,0,0,0,
2026-04-20 07:30:00,METAR ZBAD 200730Z 23007MPS CAVOK 21/M06 Q1014 NOSIG,1,0,0,9999,0,0,0,
2026-04-20 07:00:00,METAR ZBAD 200700Z 23007MPS CAVOK 22/M08 Q1014 NOSIG,1,0,0,9999,0,0,0,
2026-04-20 06:30:00,METAR ZBAD 200630Z 23007MPS 190V260 CAVOK 21/M09 Q1015 NOSIG,1,0,0,9999,0,0,0,
2026-04-20 06:00:00,METAR ZBAD 200600Z 22007MPS CAVOK 21/M07 Q1015 NOSIG,1,0,0,9999,0,0,0,
2026-04-20 05:30:00,METAR ZBAD 200530Z 24006MPS 200V270 CAVOK 20/M09 Q1016 NOSIG,1,0,0,9999,0,0,0,
2026-04-20 05:00:00,METAR ZBAD 200500Z 24005MPS 200V280 CAVOK 20/M07 Q1016 NOSIG,1,0,0,9999,0,0,0,
2026-04-20 04:30:00,METAR ZBAD 200430Z 21005MPS 180V270 CAVOK 19/M06 Q1017 NOSIG,1,0,0,9999,0,0,0,
2026-04-20 04:00:00,METAR ZBAD 200400Z 25004MPS 200V290 CAVOK 18/M06 Q1018 NOSIG,1,0,0,9999,0,0,0,
2026-04-20 03:30:00,METAR ZBAD 200330Z 22006MPS 190V260 CAVOK 17/M07 Q1018 NOSIG,1,0,0,9999,0,0,0,
2026-04-20 03:00:00,METAR ZBAD 200300Z 22006MPS 200V260 CAVOK 18/M07 Q1018 NOSIG,1,0,0,9999,0,0,0,
2026-04-20 02:30:00,METAR ZBAD 200230Z 22005MPS 180V240 CAVOK 16/M07 Q1019 NOSIG,1,0,0,9999,0,0,0,
2026-04-20 02:00:00,METAR ZBAD 200200Z 22005MPS CAVOK 15/M08 Q1019 NOSIG,1,0,0,9999,0,0,0,
2026-04-20 01:30:00,METAR ZBAD 200130Z 24005MPS 210V270 CAVOK 14/M11 Q1019 NOSIG,1,0,0,9999,0,0,0,
2026-04-20 01:00:00,METAR ZBAD 200100Z 23006MPS CAVOK 13/M13 Q1020 NOSIG,1,0,0,9999,0,0,0,
2026-04-20 00:30:00,METAR ZBAD 200030Z 22005MPS CAVOK 12/M11 Q1020 NOSIG,1,0,0,9999,0,0,0,
2026-04-20 00:00:00,METAR ZBAD 200000Z 21003MPS CAVOK 12/M10 Q1020 NOSIG,1,0,0,9999,0,0,0,
2026-04-19 23:30:00,METAR ZBAD 192330Z 22003MPS CAVOK 10/M10 Q1020 NOSIG,1,0,0,9999,0,0,0,
2026-04-19 23:00:00,METAR ZBAD 192300Z 22003MPS CAVOK 08/M09 Q1020 NOSIG,1,0,0,9999,0,0,0,
2026-04-19 22:30:00,METAR ZBAD 192230Z 00000MPS CAVOK 05/M04 Q1020 NOSIG,1,0,0,9999,0,0,0,
2026-04-19 22:00:00,METAR ZBAD 192200Z 32002MPS CAVOK 04/M07 Q1020 NOSIG,1,0,0,9999,0,0,0,
2026-04-19 21:30:00,METAR ZBAD 192130Z 33003MPS CAVOK 07/M14 Q1020 NOSIG,1,0,0,9999,0,0,0,
2026-04-19 21:00:00,METAR ZBAD 192100Z 31003MPS CAVOK 07/M14 Q1020 NOSIG,1,0,0,9999,0,0,0,
2026-04-19 20:30:00,METAR ZBAD 192030Z 02003MPS CAVOK 08/M15 Q1020 NOSIG,1,0,0,9999,0,0,0,
2026-04-19 20:00:00,METAR ZBAD 192000Z 36004MPS CAVOK 08/M15 Q1020 NOSIG,1,0,0,9999,0,0,0,
2026-04-19 19:30:00,METAR ZBAD 191930Z 35006MPS CAVOK 09/M16 Q1020 NOSIG,1,0,0,9999,0,0,0,
2026-04-19 19:00:00,METAR ZBAD 191900Z 35008MPS CAVOK 10/M17 Q1020 NOSIG,1,0,0,9999,0,0,0,
2026-04-19 18:30:00,METAR ZBAD 191830Z 36008MPS CAVOK 10/M17 Q1020 NOSIG,1,0,0,9999,0,0,0,
2026-04-19 18:00:00,METAR ZBAD 191800Z 01006MPS CAVOK 10/M17 Q1020 NOSIG,1,0,0,9999,0,0,0,
2026-04-19 17:30:00,METAR ZBAD 191730Z 01007MPS CAVOK 11/M18 Q1020 NOSIG,1,0,0,9999,0,0,0,
2026-04-19 17:00:00,METAR ZBAD 191700Z 01008MPS CAVOK 11/M17 Q1020 NOSIG,1,0,0,9999,0,0,0,
2026-04-19 16:30:00,METAR ZBAD 191630Z 36009MPS CAVOK 12/M17 Q1020 NOSIG,1,0,0,9999,0,0,0,
2026-04-19 16:00:00,METAR ZBAD 191600Z 36009MPS CAVOK 12/M15 Q1019 NOSIG,1,0,0,9999,0,0,0,
2026-04-19 15:30:00,METAR ZBAD 191530Z 01011G17MPS CAVOK 13/M17 Q1018 NOSIG,1,0,0,9999,0,0,0,
2026-04-19 15:00:00,METAR ZBAD 191500Z 01010G15MPS CAVOK 13/M17 Q1017 NOSIG,1,0,0,9999,0,0,0,
2026-04-19 14:30:00,METAR ZBAD 191430Z 01010MPS CAVOK 14/M14 Q1017 NOSIG,1,0,0,9999,0,0,0,
2026-04-19 14:00:00,METAR ZBAD 191400Z 01010MPS CAVOK 14/M12 Q1016 NOSIG,1,0,0,9999,0,0,0,
2026-04-19 13:30:00,METAR ZBAD 191330Z 01010MPS CAVOK 15/M11 Q1016 NOSIG,1,0,0,9999,0,0,0,
2026-04-19 13:00:00,METAR ZBAD 191300Z 36011MPS CAVOK 15/M11 Q1016 NOSIG,1,0,0,9999,0,0,0,
2026-04-19 12:30:00,METAR ZBAD 191230Z 36011MPS CAVOK 16/M11 Q1015 NOSIG,1,0,0,9999,0,0,0,
2026-04-19 12:00:00,METAR ZBAD 191200Z 36011G16MPS CAVOK 16/M07 Q1014 NOSIG,1,0,0,9999,0,0,0,
2026-04-19 11:30:00,METAR ZBAD 191130Z 36010G15MPS CAVOK 16/M02 Q1013 NOSIG,1,0,0,9999,0,0,0,
2026-04-19 11:00:00,METAR ZBAD 191100Z 01008MPS CAVOK 15/02 Q1012 NOSIG,1,0,0,9999,0,0,0,
2026-04-19 10:30:00,METAR ZBAD 191030Z 01008MPS 9999 -SHRA NSC 15/05 Q1012 NOSIG,0,8,0,10000,0,0,0,RA
2026-04-19 10:00:00,METAR ZBAD 191000Z 36006MPS 9999 -SHRA NSC 15/08 Q1012 NOSIG,0,6,0,10000,0,0,0,RA
2026-04-19 09:30:00,METAR ZBAD 190930Z 36005MPS 9999 -SHRA NSC 14/09 Q1012 NOSIG,0,5,0,10000,0,0,0,RA
2026-04-19 09:00:00,METAR ZBAD 190900Z 01007MPS 9999 -SHRA NSC 14/08 Q1012 NOSIG,0,7,0,10000,0,0,0,RA
2026-04-19 08:30:00,METAR ZBAD 190830Z 36007MPS 9999 -SHRA NSC 14/08 Q1012 NOSIG,0,7,0,10000,0,0,0,RA
2026-04-19 08:00:00,METAR ZBAD 190800Z 35007MPS 9999 -SHRA BKN030 14/09 Q1012 NOSIG,0,7,0,10000,0,0,0,RA
2026-04-19 07:55:00,SPECI ZBAD 190755Z 34007MPS 9999 -SHRA BKN030 15/09 Q1012 NOSIG,0,7,0,10000,0,0,0,RA
2026-04-19 07:30:00,METAR ZBAD 190730Z 35012MPS 9999 -SHRA BKN030 17/05 Q1012 NOSIG,0,12,0,10000,0,0,0,RA
2026-04-19 07:00:00,METAR ZBAD 190700Z 36013MPS 9000 BLSA BKN030 18/05 Q1011 BECMG TL0740 -RA,0,13,0,9000,0,0,0,-RA
2026-04-19 06:30:00,METAR ZBAD 190630Z 36012MPS 7000 BLSA BKN030 21/06 Q1010 NOSIG,0,12,0,7000,0,0,0,
2026-04-19 06:00:00,METAR ZBAD 190600Z 36011MPS 4000 BLSA BKN030 22/06 Q1009 BECMG TL0740 -RA,0,11,0,4000,0,0,0,-RA
2026-04-19 05:47:00,SPECI ZBAD 190547Z 35010MPS 4000 BLSA BKN030 23/06 Q1009 NOSIG,0,10,0,4000,0,0,0,
2026-04-19 05:38:00,SPECI ZBAD 190538Z 02005MPS 340V050 4000 BLSA BKN030 23/13 Q1009 NOSIG,0,5,0,4000,0,0,0,
2026-04-19 05:30:00,METAR ZBAD 190530Z 01004MPS 340V040 9999 BKN030 23/12 Q1009 NOSIG,0,4,0,10000,0,0,0,
2026-04-19 05:00:00,METAR ZBAD 190500Z 03003MPS 350V070 CAVOK 22/13 Q1009 BECMG TL0640 33009MPS,1,0,0,9999,0,0,0,
2026-04-19 04:30:00,METAR ZBAD 190430Z 35003MPS 300V040 CAVOK 23/13 Q1009 NOSIG,1,0,0,9999,0,0,0,
2026-04-19 04:00:00,METAR ZBAD 190400Z 06002MPS 020V100 CAVOK 22/13 Q1008 BECMG TL0540 35005MPS,1,0,0,9999,0,0,0,
2026-04-19 03:30:00,METAR ZBAD 190330Z VRB01MPS CAVOK 23/12 Q1009 NOSIG,1,0,0,9999,0,0,0,
2026-04-19 03:00:00,METAR ZBAD 190300Z 23003MPS 170V330 CAVOK 23/13 Q1009 NOSIG,1,0,0,9999,0,0,0,
2026-04-19 02:30:00,METAR ZBAD 190230Z 22004MPS 200V260 CAVOK 22/12 Q1008 NOSIG,1,0,0,9999,0,0,0,
2026-04-19 02:00:00,METAR ZBAD 190200Z 24005MPS 200V270 CAVOK 21/12 Q1009 NOSIG,1,0,0,9999,0,0,0,
2026-04-19 01:30:00,METAR ZBAD 190130Z 21003MPS CAVOK 21/12 Q1008 NOSIG,1,0,0,9999,0,0,0,
2026-04-19 01:00:00,METAR ZBAD 190100Z 22003MPS CAVOK 19/12 Q1008 NOSIG,1,0,0,9999,0,0,0,
2026-04-19 00:30:00,METAR ZBAD 190030Z 20004MPS 170V230 CAVOK 19/11 Q1008 NOSIG,1,0,0,9999,0,0,0,
2026-04-19 00:00:00,METAR ZBAD 190000Z 20005MPS CAVOK 18/11 Q1008 NOSIG,1,0,0,9999,0,0,0,
2026-04-18 23:30:00,METAR ZBAD 182330Z 20004MPS CAVOK 19/11 Q1008 NOSIG,1,0,0,9999,0,0,0,
2026-04-18 23:00:00,METAR ZBAD 182300Z 20002MPS CAVOK 17/11 Q1008 NOSIG,1,0,0,9999,0,0,0,
2026-04-18 22:30:00,METAR ZBAD 182230Z 20004MPS CAVOK 17/11 Q1008 NOSIG,1,0,0,9999,0,0,0,
2026-04-18 22:00:00,METAR ZBAD 182200Z 17004MPS CAVOK 15/11 Q1007 NOSIG,1,0,0,9999,0,0,0,
2026-04-18 21:30:00,METAR ZBAD 182130Z 18002MPS CAVOK 15/10 Q1007 NOSIG,1,0,0,9999,0,0,0,
2026-04-18 21:00:00,METAR ZBAD 182100Z 18002MPS CAVOK 15/10 Q1008 NOSIG,1,0,0,9999,0,0,0,
2026-04-18 20:30:00,METAR ZBAD 182030Z 19002MPS CAVOK 16/10 Q1008 NOSIG,1,0,0,9999,0,0,0,
2026-04-18 20:00:00,METAR ZBAD 182000Z 18002MPS CAVOK 16/10 Q1008 NOSIG,1,0,0,9999,0,0,0,
2026-04-18 19:30:00,METAR ZBAD 181930Z 18002MPS CAVOK 16/10 Q1008 NOSIG,1,0,0,9999,0,0,0,
2026-04-18 19:00:00,METAR ZBAD 181900Z 21002MPS CAVOK 16/10 Q1008 NOSIG,1,0,0,9999,0,0,0,
2026-04-18 18:30:00,METAR ZBAD 181830Z 22002MPS CAVOK 17/10 Q1008 NOSIG,1,0,0,9999,0,0,0,
2026-04-18 18:00:00,METAR ZBAD 181800Z 17002MPS CAVOK 16/11 Q1008 NOSIG,1,0,0,9999,0,0,0,
2026-04-18 17:30:00,METAR ZBAD 181730Z 17003MPS CAVOK 16/11 Q1008 NOSIG,1,0,0,9999,0,0,0,
2026-04-18 17:00:00,METAR ZBAD 181700Z 16003MPS CAVOK 17/11 Q1009 NOSIG,1,0,0,9999,0,0,0,
2026-04-18 16:30:00,METAR ZBAD 181630Z 19003MPS CAVOK 17/11 Q1009 NOSIG,1,0,0,9999,0,0,0,
2026-04-18 16:00:00,METAR ZBAD 181600Z 19003MPS CAVOK 18/12 Q1009 NOSIG,1,0,0,9999,0,0,0,
2026-04-18 15:00:00,METAR ZBAD 181500Z 21005MPS CAVOK 20/13 Q1009 NOSIG,1,0,0,9999,0,0,0,
2026-04-18 14:30:00,METAR ZBAD 181430Z 20004MPS CAVOK 20/13 Q1009 NOSIG,1,0,0,9999,0,0,0,
2026-04-18 14:00:00,METAR ZBAD 181400Z 19004MPS CAVOK 19/13 Q1010 NOSIG,1,0,0,9999,0,0,0,
2026-04-18 13:30:00,METAR ZBAD 181330Z 17004MPS CAVOK 20/13 Q1010 NOSIG,1,0,0,9999,0,0,0,
2026-04-18 13:00:00,METAR ZBAD 181300Z 19004MPS CAVOK 19/13 Q1010 NOSIG,1,0,0,9999,0,0,0,
2026-04-18 12:30:00,METAR ZBAD 181230Z 23003MPS CAVOK 21/12 Q1010 NOSIG,1,0,0,9999,0,0,0,
2026-04-18 12:00:00,METAR ZBAD 181200Z 19004MPS CAVOK 22/12 Q1009 NOSIG,1,0,0,9999,0,0,0,
2026-04-18 11:30:00,METAR ZBAD 181130Z 19004MPS CAVOK 22/12 Q1008 NOSIG,1,0,0,9999,0,0,0,
2026-04-18 11:00:00,METAR ZBAD 181100Z 20004MPS CAVOK 24/12 Q1008 NOSIG,1,0,0,9999,0,0,0,
2026-04-18 10:30:00,METAR ZBAD 181030Z 20004MPS CAVOK 25/12 Q1008 NOSIG,1,0,0,9999,0,0,0,
2026-04-18 10:00:00,METAR ZBAD 181000Z 20005MPS CAVOK 26/11 Q1008 NOSIG,1,0,0,9999,0,0,0,
2026-04-18 09:30:00,METAR ZBAD 180930Z 20006MPS CAVOK 27/10 Q1008 NOSIG,1,0,0,9999,0,0,0,
2026-04-18 09:00:00,METAR ZBAD 180900Z 20005MPS 170V230 CAVOK 27/13 Q1008 NOSIG,1,0,0,9999,0,0,0,
2026-04-18 08:30:00,METAR ZBAD 180830Z 22005MPS 190V250 CAVOK 27/13 Q1008 NOSIG,1,0,0,9999,0,0,0,
2026-04-18 08:00:00,METAR ZBAD 180800Z 22006MPS CAVOK 27/13 Q1008 NOSIG,1,0,0,9999,0,0,0,
2026-04-18 07:30:00,METAR ZBAD 180730Z 22007MPS CAVOK 27/12 Q1009 NOSIG,1,0,0,9999,0,0,0,
2026-04-18 07:00:00,METAR ZBAD 180700Z 22006MPS 8000 FEW026 27/12 Q1009 NOSIG,0,6,0,8000,0,0,0,
2026-04-18 06:30:00,METAR ZBAD 180630Z 21005MPS 6000 FEW026 26/14 Q1009 NOSIG,0,5,0,6000,0,0,0,
2026-04-18 06:00:00,METAR ZBAD 180600Z 22005MPS 180V260 6000 FEW026 26/14 Q1010 NOSIG,0,5,0,6000,0,0,0,
2026-04-18 05:30:00,METAR ZBAD 180530Z 21005MPS 160V250 4500 HZ FEW026 25/14 Q1010 NOSIG,0,5,0,4500,0,0,0,
2026-04-18 05:00:00,METAR ZBAD 180500Z COR VRB02MPS 3000 HZ FEW020 24/16 Q1010 BECMG TL0650 21005MPS,0,2,0,3000,0,0,0,
2026-04-18 04:30:00,METAR ZBAD 180430Z 12002MPS 040V190 3000 HZ FEW015 23/16 Q1011 NOSIG,0,2,0,3000,0,0,0,
2026-04-18 04:00:00,METAR ZBAD 180400Z VRB01MPS 2000 HZ NSC 21/15 Q1011 BECMG TL0450 3000,0,1,0,2000,0,0,0,
2026-04-18 03:30:00,METAR ZBAD 180330Z VRB01MPS 2000 R35R/1400N R35L/1600N R01L/1400N R11L/1600N HZ NSC 21/15 Q1012 NOSIG,0,1,0,2000,0,0,0,
2026-04-18 03:00:00,METAR ZBAD 180300Z 02002MPS 310V060 1500 R35R/1300N R35L/1400N R01L/2000N R11L/1400N BR NSC 19/15 Q1012 BECMG TL0420 3000,0,2,0,1500,0,0,1,BR
2026-04-18 02:30:00,METAR ZBAD 180230Z 03002MPS 340V080 1500 R35R/1200N R35L/1300N R01L/1700U R11L/1200D BR NSC 19/15 Q1012 NOSIG,0,2,0,1500,0,0,1,BR
2026-04-18 02:00:00,METAR ZBAD 180200Z 04002MPS 350V090 1500 R35R/1100D R35L/1200N R01L/1600U R11L/1200N BR NSC 18/15 Q1013 BECMG TL0350 3000,0,2,0,1500,0,0,1,BR
2026-04-18 01:30:00,METAR ZBAD 180130Z 06002MPS 020V100 1200 R35R/1100D R35L/1200N R01L/1000N R11L/1200N BR NSC 17/14 Q1012 NOSIG,0,2,0,1200,0,0,1,BR
2026-04-18 01:00:00,METAR ZBAD 180100Z 05002MPS 1200 R35R/1000N R35L/1100D R01L/1000N R11L/1100N BR NSC 16/14 Q1012 BECMG TL0220 1500 BR,0,2,0,1200,0,0,1,BR
2026-04-18 00:30:00,METAR ZBAD 180030Z 05002MPS 030V090 0800 R35R/0900N R35L/1000D R01L/0700U R11L/0900N FG NSC 15/14 Q1012 NOSIG,0,2,0,1287200,0,0,1,FG
2026-04-18 00:21:00,SPECI ZBAD 180021Z 05002MPS 0800 R35R/0900U R35L/0900N R01L/0600N R11L/1000D FG NSC 15/14 Q1012 NOSIG,0,2,0,1287200,0,0,1,FG
2026-04-18 00:00:00,METAR ZBAD 180000Z 07003MPS 0800 R35R/0800N R35L/0800N R01L/0350N R11L/0900N FG NSC 14/14 Q1012 BECMG TL0140 1500 BR,0,3,0,1287200,0,0,1,"BR,FG"
2026-04-17 23:41:00,SPECI ZBAD 172341Z 06003MPS 0800 R35R/0800N R35L/0900N R01L/0500D R11L/0800N FG NSC 14/13 Q1012 NOSIG,0,3,0,1287200,0,0,1,FG
2026-04-17 23:30:00,METAR ZBAD 172330Z 06003MPS 1000 R35R/0750D R35L/1000D R01L/0750N R11L/0700N BR BCFG NSC 14/13 Q1012 NOSIG,0,3,0,1000,0,0,1,"BC,BR,FG"
2026-04-17 23:00:00,METAR ZBAD 172300Z 05002MPS 1200 R35R/1200D R35L/1400U R01L/0900D R11L/0650N BR BCFG NSC 14/13 Q1011 BECMG TL0020 1500,0,2,0,1200,0,0,1,"BC,BR,FG"
2026-04-17 22:30:00,METAR ZBAD 172230Z 01002MPS 1200 R35R/1300U R35L/1300D R01L/0900U R11L/1300D BR BCFG NSC 13/12 Q1011 NOSIG,0,2,0,1200,0,0,1,"BC,BR,FG"
2026-04-17 22:00:00,METAR ZBAD 172200Z 35002MPS 1200 R35R/1800D R35L/1600D R01L/1200U R11L/1600D BR BCFG NSC 12/11 Q1011 BECMG TL2320 1500,0,2,0,1200,0,0,1,"BC,BR,FG"
2026-04-17 21:44:00,SPECI ZBAD 172144Z 04002MPS 1500 R35R/1800N R35L/P2000N R01L/0400D R11L/P2000N BR BCFG NSC 12/11 Q1011 NOSIG,0,2,0,1500,0,0,1,"BC,BR,FG"
2026-04-17 21:30:00,METAR ZBAD 172130Z 06001MPS 2000 R35R/P2000N R35L/P2000N R01L/1300U R11L/P2000N BR BCFG NSC 12/11 Q1011 NOSIG,0,1,0,2000,0,0,1,"BC,BR,FG"
2026-04-17 21:00:00,METAR ZBAD 172100Z 03001MPS 2500 R35R/P2000N R35L/P2000N R01L/1400U R11L/P2000N BR BCFG NSC 12/11 Q1011 NOSIG,0,1,0,2500,0,0,1,"BC,BR,FG"
2026-04-17 20:30:00,METAR ZBAD 172030Z 01002MPS 2500 BR BCFG NSC 12/11 Q1011 NOSIG,0,2,0,2500,0,0,1,"BC,BR,FG"
2026-04-17 20:00:00,METAR ZBAD 172000Z 01001MPS 2500 BR BCFG NSC 12/11 Q1011 NOSIG,0,1,0,2500,0,0,1,"BC,BR,FG"
2026-04-17 19:30:00,METAR ZBAD 171930Z 01001MPS 2200 R35R/P2000N R35L/0750D R01L/1000U R11L/P2000N BR BCFG NSC 12/11 Q1011 NOSIG,0,1,0,2200,0,0,1,"BC,BR,FG"
2026-04-17 19:00:00,METAR ZBAD 171900Z 36001MPS 2500 R35R/P2000N R35L/1500D R01L/1200N R11L/P2000N BR BCFG NSC 12/11 Q1011 NOSIG,0,1,0,2500,0,0,1,"BC,BR,FG"
2026-04-17 18:36:00,SPECI ZBAD 171836Z 35001MPS 2500 R35R/P2000N R35L/P2000N R01L/0400D R11L/P2000N BR BCFG NSC 13/12 Q1011 NOSIG,0,1,0,2500,0,0,1,"BC,BR,FG"
2026-04-17 18:30:00,METAR ZBAD 171830Z 35001MPS 2500 R35R/P2000N R35L/P2000N R01L/0900D R11L/P2000N BR BCFG NSC 13/12 Q1011 NOSIG,0,1,0,2500,0,0,1,"BC,BR,FG"
2026-04-17 18:00:00,METAR ZBAD 171800Z VRB01MPS 2500 BR NSC 13/12 Q1011 NOSIG,0,1,0,2500,0,0,1,BR
2026-04-17 17:30:00,METAR ZBAD 171730Z VRB01MPS 3000 BR FEW033 13/12 Q1011 NOSIG,0,1,0,3000,0,0,1,BR
2026-04-17 17:00:00,METAR ZBAD 171700Z VRB01MPS 3000 BR FEW033 14/13 Q1012 NOSIG,0,1,0,3000,0,0,1,BR
2026-04-17 16:30:00,METAR ZBAD 171630Z VRB01MPS 3000 BR FEW033 15/13 Q1011 NOSIG,0,1,0,3000,0,0,1,BR
2026-04-17 16:00:00,METAR ZBAD 171600Z 18002MPS 4000 BR FEW033 16/14 Q1011 NOSIG,0,2,0,4000,0,0,1,BR
2026-04-17 15:30:00,METAR ZBAD 171530Z 17002MPS 4000 BR FEW033 16/14 Q1012 NOSIG,0,2,0,4000,0,0,1,BR
2026-04-17 15:00:00,METAR ZBAD 171500Z 19002MPS 4000 BR FEW033 16/14 Q1012 NOSIG,0,2,0,4000,0,0,1,BR
2026-04-17 14:30:00,METAR ZBAD 171430Z 18002MPS 4000 BR FEW033 16/14 Q1012 NOSIG,0,2,0,4000,0,0,1,BR
2026-04-17 14:00:00,METAR ZBAD 171400Z 15002MPS 4000 BR FEW033 15/14 Q1012 BECMG TL1540 2500,0,2,0,4000,0,0,1,BR
2026-04-17 13:30:00,METAR ZBAD 171330Z 12002MPS 4000 BR SCT033 16/14 Q1012 NOSIG,0,2,0,4000,0,0,1,BR
2026-04-17 13:00:00,METAR ZBAD 171300Z 14001MPS 5000 BR SCT033 16/15 Q1012 NOSIG,0,1,0,5000,0,0,1,BR
2026-04-17 12:30:00,METAR ZBAD 171230Z 15002MPS 5000 BR SCT033 16/14 Q1011 NOSIG,0,2,0,5000,0,0,1,BR
2026-04-17 12:00:00,METAR ZBAD 171200Z VRB01MPS 5000 BR SCT033 17/14 Q1011 NOSIG,0,1,0,5000,0,0,1,BR
2026-04-17 11:30:00,METAR ZBAD 171130Z 14002MPS 5000 BR FEW033 17/15 Q1010 NOSIG,0,2,0,5000,0,0,1,BR
2026-04-17 11:00:00,METAR ZBAD 171100Z VRB01MPS 6000 FEW033 19/14 Q1010 NOSIG,0,1,0,6000,0,0,0,
2026-04-17 10:30:00,METAR ZBAD 171030Z 25001MPS 6000 FEW033 20/14 Q1010 NOSIG,0,1,0,6000,0,0,0,
2026-04-17 10:00:00,METAR ZBAD 171000Z 22002MPS 6000 BKN033 20/14 Q1010 NOSIG,0,2,0,6000,0,0,0,
2026-04-17 09:30:00,METAR ZBAD 170930Z 23003MPS 6000 BKN033 21/14 Q1010 NOSIG,0,3,0,6000,0,0,0,
2026-04-17 09:00:00,METAR ZBAD 170900Z 23003MPS 210V270 6000 BKN033 21/14 Q1010 NOSIG,0,3,0,6000,0,0,0,
2026-04-17 08:30:00,METAR ZBAD 170830Z 22003MPS 190V250 6000 BKN033 21/13 Q1010 NOSIG,0,3,0,6000,0,0,0,
2026-04-17 08:00:00,METAR ZBAD 170800Z 18003MPS 140V210 6000 BKN033 21/13 Q1010 NOSIG,0,3,0,6000,0,0,0,
2026-04-17 07:30:00,METAR ZBAD 170730Z 20003MPS 170V230 6000 BKN033 21/13 Q1010 NOSIG,0,3,0,6000,0,0,0,
2026-04-17 07:00:00,METAR ZBAD 170700Z 20003MPS 120V250 6000 BKN033 21/13 Q1010 NOSIG,0,3,0,6000,0,0,0,
2026-04-17 06:30:00,METAR ZBAD 170630Z 19004MPS 160V220 6000 OVC033 21/13 Q1011 NOSIG,0,4,0,6000,0,0,0,
2026-04-17 06:00:00,METAR ZBAD 170600Z 23003MPS 190V260 6000 SCT015 OVC033 21/12 Q1011 NOSIG,0,3,0,6000,0,0,0,
2026-04-17 05:30:00,METAR ZBAD 170530Z 26002MPS 200V310 6000 SCT015 OVC033 20/13 Q1011 NOSIG,0,2,0,6000,0,0,0,
2026-04-17 05:00:00,METAR ZBAD 170500Z 23002MPS 180V260 6000 SCT015 OVC033 19/12 Q1012 NOSIG,0,2,0,6000,0,0,0,
2026-04-17 04:30:00,METAR ZBAD 170430Z VRB02MPS 6000 SCT015 OVC033 19/13 Q1012 NOSIG,0,2,0,6000,0,0,0,
2026-04-17 04:00:00,METAR ZBAD 170400Z 21003MPS 180V280 6000 SCT015 OVC033 19/13 Q1013 NOSIG,0,3,0,6000,0,0,0,
2026-04-17 03:30:00,METAR ZBAD 170330Z 22002MPS 170V250 6000 SCT015 OVC033 18/13 Q1013 NOSIG,0,2,0,6000,0,0,0,
2026-04-17 03:00:00,METAR ZBAD 170300Z 19003MPS 170V240 6000 SCT015 OVC033 18/13 Q1013 NOSIG,0,3,0,6000,0,0,0,
2026-04-17 02:30:00,METAR ZBAD 170230Z 22003MPS 190V250 5000 BR SCT015 OVC033 17/13 Q1013 NOSIG,0,3,0,5000,0,0,1,BR
2026-04-17 02:00:00,METAR ZBAD 170200Z 21002MPS 190V250 5000 BR OVC033 16/13 Q1013 NOSIG,0,2,0,5000,0,0,1,BR
2026-04-17 01:30:00,METAR ZBAD 170130Z 21002MPS 3000 BR OVC033 16/13 Q1013 NOSIG,0,2,0,3000,0,0,1,BR
2026-04-17 01:00:00,METAR ZBAD 170100Z 21002MPS 180V240 2500 BR OVC026 15/13 Q1013 BECMG TL0240 3000,0,2,0,2500,0,0,1,BR
2026-04-17 00:30:00,METAR ZBAD 170030Z 15001MPS 1500 R35R/1900N R35L/1600D R01L/1400U R11L/1700N BR OVC026 14/13 Q1013 NOSIG,0,1,0,1500,0,0,1,BR
2026-04-17 00:00:00,METAR ZBAD 170000Z VRB01MPS 1500 R35R/1500N R35L/1500U R01L/1300N R11L/1500U -DZ BR OVC020 14/13 Q1013 BECMG TL0140 3000,0,1,0,1500,0,0,1,"BR,DZ"
2026-04-16 23:30:00,METAR ZBAD 162330Z 13001MPS 0800 R35R/1200D R35L/1100U R01L/1000U R11L/1200U -DZ FG OVC010 14/13 Q1013 NOSIG,0,1,0,1287200,0,0,1,"DZ,FG"
2026-04-16 23:12:00,SPECI ZBAD 162312Z 14001MPS 0800 R35R/1000U R35L/1000N R01L/0800U R11L/1100U -DZ FG BKN002 14/13 Q1012 NOSIG,0,1,0,1287200,0,0,1,"DZ,FG"
2026-04-16 23:00:00,METAR ZBAD 162300Z 12001MPS 0600 R35R/0600D R35L/1000N R01L/0400U R11L/1000N -DZ FG BKN002 14/13 Q1012 BECMG TL0040 1000 BR,0,1,0,965400,0,0,1,"BR,DZ,FG"
2026-04-16 22:30:00,METAR ZBAD 162230Z 12001MPS 0600 R35R/0550N R35L/0900U R01L/0300N R11L/0900N -DZ FG BKN002 14/13 Q1012 NOSIG,0,1,0,965400,0,0,1,"DZ,FG"
2026-04-16 22:23:00,SPECI ZBAD 162223Z 12001MPS 0600 R35R/0500D R35L/1000D R01L/0275N R11L/0900N -DZ FG BKN002 14/13 Q1012 NOSIG,0,1,0,965400,0,0,1,"DZ,FG"
2026-04-16 22:21:00,SPECI ZBAD 162221Z 12001MPS 0600 R35R/0650D R35L/1100D R01L/0275N R11L/0900D -DZ FG BKN002 14/13 Q1012 NOSIG,0,1,0,965400,0,0,1,"DZ,FG"
2026-04-16 22:19:00,SPECI ZBAD 162219Z 12001MPS 0600 R35R/0700N R35L/1100D R01L/0300N R11L/1000D -DZ FG BKN002 14/13 Q1012 NOSIG,0,1,0,965400,0,0,1,"DZ,FG"
2026-04-16 22:06:00,SPECI ZBAD 162206Z 14001MPS 1200 R35R/1100D R35L/1300D R01L/0275N R11L/0900U BR BCFG SCT002 14/13 Q1012 NOSIG,0,1,0,1200,0,0,1,"BC,BR,FG"
2026-04-16 22:00:00,METAR ZBAD 162200Z COR 00000MPS 1200 R35R/1300D R35L/1400N R01L/0325N R11L/1000D BR BCFG SCT002 14/13 Q1012 BECMG TL2340 1600,0,0,0,1200,0,0,1,"BC,BR,FG"
2026-04-16 21:34:00,SPECI ZBAD 162134Z VRB01MPS 1200 R35R/1300D R35L/1600D R01L/0500D R11L/0900U BR BCFG SCT002 14/13 Q1012 NOSIG,0,1,0,1200,0,0,1,"BC,BR,FG"
2026-04-16 21:30:00,METAR ZBAD 162130Z VRB01MPS 1200 R35R/1400N R35L/1600U R01L/0700D R11L/0800N BR BCFG SCT002 14/13 Q1012 NOSIG,0,1,0,1200,0,0,1,"BC,BR,FG"
2026-04-16 21:00:00,METAR ZBAD 162100Z 09001MPS 1200 R35R/1700D R35L/1700D R01L/0900D R11L/1400U BR BCFG SCT002 14/13 Q1012 NOSIG,0,1,0,1200,0,0,1,"BC,BR,FG"
2026-04-16 20:30:00,METAR ZBAD 162030Z 12001MPS 1200 R35R/1700N R35L/1700N R01L/0800N R11L/0550U BR BCFG SCT002 14/13 Q1012 NOSIG,0,1,0,1200,0,0,1,"BC,BR,FG"
2026-04-16 20:03:00,SPECI ZBAD 162003Z VRB01MPS 1800 R35R/P2000N R35L/P2000N R01L/1400N R11L/0500D BR BCFG SCT002 14/13 Q1012 NOSIG,0,1,0,1800,0,0,1,"BC,BR,FG"
2026-04-16 20:00:00,METAR ZBAD 162000Z 10001MPS 1800 R35R/P2000N R35L/P2000N R01L/1400N R11L/0600D BR BCFG SCT002 14/13 Q1012 NOSIG,0,1,0,1800,0,0,1,"BC,BR,FG"
2026-04-16 19:30:00,METAR ZBAD 161930Z VRB01MPS 2400 BR SCT002 14/13 Q1012 NOSIG,0,1,0,2400,0,0,1,BR
2026-04-16 19:00:00,METAR ZBAD 161900Z VRB01MPS 3000 BR SCT026 13/12 Q1012 NOSIG,0,1,0,3000,0,0,1,BR
2026-04-16 18:30:00,METAR ZBAD 161830Z 15003MPS 5000 BR FEW030 13/12 Q1012 NOSIG,0,3,0,5000,0,0,1,BR
2026-04-16 18:00:00,METAR ZBAD 161800Z 17002MPS 120V240 5000 BR SCT023 14/13 Q1013 NOSIG,0,2,0,5000,0,0,1,BR
2026-04-16 17:30:00,METAR ZBAD 161730Z 16002MPS 5000 BR SCT023 14/13 Q1013 NOSIG,0,2,0,5000,0,0,1,BR
2026-04-16 17:00:00,METAR ZBAD 161700Z 13003MPS 5000 BR SCT023 14/13 Q1013 NOSIG,0,3,0,5000,0,0,1,BR
2026-04-16 16:30:00,METAR ZBAD 161630Z 14002MPS 5000 BR SCT020 14/13 Q1014 NOSIG,0,2,0,5000,0,0,1,BR
2026-04-16 16:00:00,METAR ZBAD 161600Z 13002MPS 5000 BR SCT020 14/13 Q1014 NOSIG,0,2,0,5000,0,0,1,BR
2026-04-16 15:30:00,METAR ZBAD 161530Z 12002MPS 5000 BR SCT020 13/13 Q1013 NOSIG,0,2,0,5000,0,0,1,BR
2026-04-16 15:00:00,METAR ZBAD 161500Z 11001MPS 6000 SCT020 13/12 Q1013 NOSIG,0,1,0,6000,0,0,0,
2026-04-16 14:30:00,METAR ZBAD 161430Z VRB01MPS 7000 FEW020 13/11 Q1013 NOSIG,0,1,0,7000,0,0,0,
2026-04-16 14:00:00,METAR ZBAD 161400Z 20002MPS 8000 NSC 14/12 Q1013 NOSIG,0,2,0,8000,0,0,0,
2026-04-16 13:30:00,METAR ZBAD 161330Z VRB01MPS 8000 NSC 14/12 Q1013 NOSIG,0,1,0,8000,0,0,0,
2026-04-16 13:00:00,METAR ZBAD 161300Z VRB01MPS 8000 NSC 15/13 Q1013 NOSIG,0,1,0,8000,0,0,0,
2026-04-16 12:30:00,METAR ZBAD 161230Z 13003MPS 8000 -SHRA NSC 14/13 Q1013 NOSIG,0,3,0,8000,0,0,0,RA
2026-04-16 12:00:00,METAR ZBAD 161200Z 29002MPS 230V320 8000 -SHRA OVC040 15/13 Q1013 NOSIG,0,2,0,8000,0,0,0,RA
2026-04-16 11:30:00,METAR ZBAD 161130Z 30002MPS 8000 NSC 15/13 Q1013 NOSIG,0,2,0,8000,0,0,0,
2026-04-16 11:00:00,METAR ZBAD 161100Z 29002MPS 250V310 8000 NSC 15/13 Q1012 NOSIG,0,2,0,8000,0,0,0,
2026-04-16 10:30:00,METAR ZBAD 161030Z 19003MPS 8000 NSC 15/12 Q1012 NOSIG,0,3,0,8000,0,0,0,
2026-04-16 10:00:00,METAR ZBAD 161000Z VRB01MPS 8000 NSC 15/13 Q1012 NOSIG,0,1,0,8000,0,0,0,
2026-04-16 09:30:00,METAR ZBAD 160930Z VRB01MPS 4000 -SHRA BR FEW010 15/13 Q1012 NOSIG,0,1,0,4000,0,0,1,"BR,RA"
2026-04-16 09:00:00,METAR ZBAD 160900Z 27002G07MPS 230V300 3600 -SHRA BR FEW010 15/13 Q1012 BECMG TL1020 2400 RA,0,2,1,3600,0,0,1,"BR,RA"
2026-04-16 08:30:00,METAR ZBAD 160830Z 31004MPS 3300 -SHRA BR FEW010 16/14 Q1012 RESHRA NOSIG,0,4,0,3300,0,0,1,"BR,RA"
2026-04-16 08:00:00,METAR ZBAD 160800Z COR 33006MPS 2000 SHRA BR FEW010 16/15 Q1012 BECMG TL0940 25005MPS -SHRA,0,6,0,2000,0,0,1,"BR,RA,SH"
2026-04-16 07:30:00,METAR ZBAD 160730Z 19001MPS 4000 -SHRA BR FEW010 16/15 Q1011 NOSIG,0,1,0,4000,0,0,1,"BR,RA"
2026-04-16 07:00:00,METAR ZBAD 160700Z 21001MPS 4000 -SHRA BR FEW010 16/14 Q1011 NOSIG,0,1,0,4000,0,0,1,"BR,RA"
2026-04-16 06:30:00,METAR ZBAD 160630Z VRB01MPS 6000 -SHRA FEW020 16/14 Q1011 NOSIG,0,1,0,6000,0,0,0,RA
2026-04-16 06:00:00,METAR ZBAD 160600Z 28002MPS 230V320 7000 -SHRA FEW020 16/14 Q1012 NOSIG,0,2,0,7000,0,0,0,RA
2026-04-16 05:30:00,METAR ZBAD 160530Z 27002MPS 240V300 7000 -SHRA FEW020 15/13 Q1012 NOSIG,0,2,0,7000,0,0,0,RA
2026-04-16 05:00:00,METAR ZBAD 160500Z 25002MPS 5000 -SHRA BR FEW020 15/13 Q1012 NOSIG,0,2,0,5000,0,0,1,"BR,RA"
2026-04-16 04:30:00,METAR ZBAD 160430Z 24002MPS 210V270 5000 -SHRA BR FEW020 15/13 Q1013 NOSIG,0,2,0,5000,0,0,1,"BR,RA"
2026-04-16 04:00:00,METAR ZBAD 160400Z 23003MPS 5000 -SHRA BR FEW020 15/14 Q1013 RETS NOSIG,0,3,0,5000,1,0,1,"BR,RA,TS"
2026-04-16 03:30:00,METAR ZBAD 160330Z 21006MPS 2000 R17L/1700U R17R/P2000N R19R/1300U R11L/1500U -TSRA BR FEW030CB BKN040 16/14 Q1013 RESHRA NOSIG,0,6,0,2000,1,0,1,"BR,RA"
2026-04-16 03:06:00,SPECI ZBAD 160306Z 17006MPS 140V200 3000 TSRA BR FEW030CB BKN040 17/15 Q1013 NOSIG,0,6,0,3000,1,0,1,"BR,RA,TS"
2026-04-16 03:00:00,METAR ZBAD 160300Z 15004MPS 3000 -TSRA BR FEW030CB BKN040 18/14 Q1013 BECMG TL0340 09005MPS 2000 TSRA,0,4,0,3000,1,0,1,"BR,RA,TS"
2026-04-16 02:38:00,SPECI ZBAD 160238Z VRB01MPS 3000 -TSRA HZ FEW040CB BKN040 19/12 Q1013 NOSIG,0,1,0,3000,1,0,0,RA
2026-04-16 02:30:00,METAR ZBAD 160230Z VRB01MPS 3000 -SHRA HZ BKN040 19/12 Q1012 NOSIG,0,1,0,3000,0,0,0,RA
2026-04-16 02:00:00,METAR ZBAD 160200Z VRB01MPS 4000 HZ NSC 19/12 Q1012 NOSIG,0,1,0,4000,0,0,0,
2026-04-16 01:30:00,METAR ZBAD 160130Z VRB01MPS 4000 HZ NSC 19/11 Q1012 NOSIG,0,1,0,4000,0,0,0,
2026-04-16 01:00:00,METAR ZBAD 160100Z 07002MPS 4000 HZ NSC 17/11 Q1012 NOSIG,0,2,0,4000,0,0,0,
2026-04-16 00:30:00,METAR ZBAD 160030Z 07002MPS 040V100 4000 HZ NSC 17/11 Q1012 NOSIG,0,2,0,4000,0,0,0,
2026-04-16 00:00:00,METAR ZBAD 160000Z 01002MPS 350V050 2700 HZ NSC 16/10 Q1012 BECMG TL0040 3000,0,2,0,2700,0,0,0,
2026-04-15 23:30:00,METAR ZBAD 152330Z 04002MPS 2700 BR NSC 15/11 Q1012 NOSIG,0,2,0,2700,0,0,1,BR
2026-04-15 23:00:00,METAR ZBAD 152300Z 01001MPS 2700 BR NSC 15/11 Q1012 BECMG TL0040 3000,0,1,0,2700,0,0,1,BR
2026-04-15 22:30:00,METAR ZBAD 152230Z 04002MPS 3000 BR NSC 15/11 Q1012 NOSIG,0,2,0,3000,0,0,1,BR
2026-04-15 22:00:00,METAR ZBAD 152200Z 05002MPS 3000 BR NSC 15/11 Q1011 BECMG TL2320 2700,0,2,0,3000,0,0,1,BR
2026-04-15 21:30:00,METAR ZBAD 152130Z 10002MPS 5000 BR NSC 14/11 Q1011 NOSIG,0,2,0,5000,0,0,1,BR
2026-04-15 21:00:00,METAR ZBAD 152100Z 10002MPS 5000 BR NSC 14/11 Q1011 NOSIG,0,2,0,5000,0,0,1,BR
2026-04-15 20:30:00,METAR ZBAD 152030Z 09002MPS 5000 BR NSC 14/11 Q1011 NOSIG,0,2,0,5000,0,0,1,BR
2026-04-15 20:00:00,METAR ZBAD 152000Z 11001MPS 5000 BR NSC 13/10 Q1011 NOSIG,0,1,0,5000,0,0,1,BR
2026-04-15 19:30:00,METAR ZBAD 151930Z 11002MPS 5000 BR NSC 14/11 Q1012 NOSIG,0,2,0,5000,0,0,1,BR
2026-04-15 19:00:00,METAR ZBAD 151900Z 10002MPS 5000 BR NSC 14/11 Q1012 NOSIG,0,2,0,5000,0,0,1,BR
2026-04-15 18:30:00,METAR ZBAD 151830Z 10002MPS 5000 BR NSC 14/11 Q1012 NOSIG,0,2,0,5000,0,0,1,BR
2026-04-15 18:00:00,METAR ZBAD 151800Z 12002MPS 5000 BR NSC 14/11 Q1012 NOSIG,0,2,0,5000,0,0,1,BR
2026-04-15 17:30:00,METAR ZBAD 151730Z 14001MPS 5000 BR NSC 14/11 Q1012 NOSIG,0,1,0,5000,0,0,1,BR
2026-04-15 17:00:00,METAR ZBAD 151700Z VRB01MPS 6000 NSC 14/11 Q1012 NOSIG,0,1,0,6000,0,0,0,
2026-04-15 16:30:00,METAR ZBAD 151630Z 18001MPS 6000 NSC 15/11 Q1012 NOSIG,0,1,0,6000,0,0,0,
2026-04-15 16:00:00,METAR ZBAD 151600Z 16001MPS 6000 NSC 16/11 Q1012 NOSIG,0,1,0,6000,0,0,0,
2026-04-15 15:30:00,METAR ZBAD 151530Z 17001MPS 6000 NSC 16/11 Q1012 NOSIG,0,1,0,6000,0,0,0,
2026-04-15 15:00:00,METAR ZBAD 151500Z 16002MPS 6000 NSC 15/11 Q1012 NOSIG,0,2,0,6000,0,0,0,
2026-04-15 14:30:00,METAR ZBAD 151430Z VRB01MPS 7000 NSC 17/11 Q1012 NOSIG,0,1,0,7000,0,0,0,
2026-04-15 14:00:00,METAR ZBAD 151400Z 15002MPS 7000 NSC 18/11 Q1012 NOSIG,0,2,0,7000,0,0,0,
2026-04-15 13:30:00,METAR ZBAD 151330Z 16003MPS 7000 NSC 17/11 Q1012 NOSIG,0,3,0,7000,0,0,0,
2026-04-15 13:00:00,METAR ZBAD 151300Z 14003MPS 7000 NSC 16/12 Q1012 NOSIG,0,3,0,7000,0,0,0,
2026-04-15 12:30:00,METAR ZBAD 151230Z VRB01MPS 8000 NSC 18/12 Q1012 NOSIG,0,1,0,8000,0,0,0,
2026-04-15 12:00:00,METAR ZBAD 151200Z 20001MPS 8000 NSC 19/12 Q1011 NOSIG,0,1,0,8000,0,0,0,
2026-04-15 11:30:00,METAR ZBAD 151130Z 22001MPS 8000 NSC 20/12 Q1011 NOSIG,0,1,0,8000,0,0,0,
2026-04-15 11:00:00,METAR ZBAD 151100Z 24001MPS 8000 NSC 20/11 Q1011 NOSIG,0,1,0,8000,0,0,0,
2026-04-15 10:30:00,METAR ZBAD 151030Z 25002MPS 8000 NSC 22/11 Q1011 NOSIG,0,2,0,8000,0,0,0,
2026-04-15 10:00:00,METAR ZBAD 151000Z 24003MPS 8000 NSC 23/11 Q1011 NOSIG,0,3,0,8000,0,0,0,
2026-04-15 09:30:00,METAR ZBAD 150930Z 20004MPS 8000 NSC 23/11 Q1010 NOSIG,0,4,0,8000,0,0,0,
2026-04-15 09:00:00,METAR ZBAD 150900Z 19006MPS 7000 NSC 24/11 Q1010 NOSIG,0,6,0,7000,0,0,0,
2026-04-15 08:30:00,METAR ZBAD 150830Z 20005MPS 170V230 7000 NSC 24/11 Q1010 NOSIG,0,5,0,7000,0,0,0,
2026-04-15 08:00:00,METAR ZBAD 150800Z 22004MPS 160V290 8000 NSC 24/11 Q1010 NOSIG,0,4,0,8000,0,0,0,
2026-04-15 07:30:00,METAR ZBAD 150730Z 20005MPS 150V240 8000 NSC 24/10 Q1010 NOSIG,0,5,0,8000,0,0,0,
2026-04-15 07:00:00,METAR ZBAD 150700Z 20005MPS 8000 NSC 24/10 Q1011 NOSIG,0,5,0,8000,0,0,0,
2026-04-15 06:30:00,METAR ZBAD 150630Z 20004MPS 160V230 8000 FEW033 24/10 Q1011 NOSIG,0,4,0,8000,0,0,0,
2026-04-15 06:00:00,METAR ZBAD 150600Z 17004MPS 140V210 8000 FEW033 23/09 Q1012 NOSIG,0,4,0,8000,0,0,0,
2026-04-15 05:30:00,METAR ZBAD 150530Z 17003MPS 120V220 8000 FEW033 23/09 Q1012 NOSIG,0,3,0,8000,0,0,0,
2026-04-15 05:00:00,METAR ZBAD 150500Z 20003MPS 160V230 8000 FEW033 21/08 Q1013 NOSIG,0,3,0,8000,0,0,0,
2026-04-15 04:30:00,METAR ZBAD 150430Z VRB02MPS 8000 FEW033 22/07 Q1013 NOSIG,0,2,0,8000,0,0,0,
2026-04-15 04:00:00,METAR ZBAD 150400Z VRB02MPS 8000 FEW033 21/06 Q1014 NOSIG,0,2,0,8000,0,0,0,
2026-04-15 03:30:00,METAR ZBAD 150330Z 13002MPS 070V240 8000 FEW033 19/05 Q1014 NOSIG,0,2,0,8000,0,0,0,
2026-04-15 03:00:00,METAR ZBAD 150300Z 14002MPS 040V200 8000 FEW033 19/05 Q1015 NOSIG,0,2,0,8000,0,0,0,
2026-04-15 02:30:00,METAR ZBAD 150230Z VRB01MPS 8000 FEW033 18/03 Q1015 NOSIG,0,1,0,8000,0,0,0,
2026-04-15 02:00:00,METAR ZBAD 150200Z 06002MPS 360V160 8000 FEW033 17/04 Q1015 NOSIG,0,2,0,8000,0,0,0,
2026-04-15 01:30:00,METAR ZBAD 150130Z VRB01MPS 8000 FEW033 16/04 Q1015 NOSIG,0,1,0,8000,0,0,0,
2026-04-15 01:00:00,METAR ZBAD 150100Z 07002MPS 030V110 8000 FEW033 15/04 Q1015 NOSIG,0,2,0,8000,0,0,0,
2026-04-15 00:30:00,METAR ZBAD 150030Z 08002MPS 040V110 8000 FEW033 14/04 Q1015 NOSIG,0,2,0,8000,0,0,0,
2026-04-15 00:00:00,METAR ZBAD 150000Z 08002MPS 050V120 8000 FEW033 13/04 Q1015 NOSIG,0,2,0,8000,0,0,0,
2026-04-14 23:30:00,METAR ZBAD 142330Z 07002MPS 030V100 7000 FEW033 13/05 Q1015 NOSIG,0,2,0,7000,0,0,0,
2026-04-14 23:00:00,METAR ZBAD 142300Z 04002MPS 7000 FEW033 12/05 Q1014 NOSIG,0,2,0,7000,0,0,0,
2026-04-14 22:30:00,METAR ZBAD 142230Z VRB01MPS 7000 FEW033 11/05 Q1014 NOSIG,0,1,0,7000,0,0,0,
2026-04-14 22:00:00,METAR ZBAD 142200Z 10002MPS 7000 SCT033 11/06 Q1014 NOSIG,0,2,0,7000,0,0,0,
2026-04-14 21:30:00,METAR ZBAD 142130Z 10002MPS 7000 BKN040 11/06 Q1014 NOSIG,0,2,0,7000,0,0,0,
2026-04-14 21:00:00,METAR ZBAD 142100Z 10002MPS 7000 BKN040 11/05 Q1014 NOSIG,0,2,0,7000,0,0,0,
2026-04-14 20:30:00,METAR ZBAD 142030Z 07002MPS 8000 BKN040 12/05 Q1013 NOSIG,0,2,0,8000,0,0,0,
2026-04-14 20:00:00,METAR ZBAD 142000Z 08001MPS 8000 SCT040 11/05 Q1013 NOSIG,0,1,0,8000,0,0,0,
2026-04-14 19:30:00,METAR ZBAD 141930Z 13001MPS 8000 SCT040 10/05 Q1013 NOSIG,0,1,0,8000,0,0,0,
2026-04-14 19:00:00,METAR ZBAD 141900Z VRB01MPS 8000 NSC 10/06 Q1014 NOSIG,0,1,0,8000,0,0,0,
2026-04-14 18:30:00,METAR ZBAD 141830Z 11001MPS CAVOK 10/06 Q1014 NOSIG,1,0,0,9999,0,0,0,
2026-04-14 18:00:00,METAR ZBAD 141800Z 09001MPS CAVOK 08/04 Q1014 NOSIG,1,0,0,9999,0,0,0,
2026-04-14 17:30:00,METAR ZBAD 141730Z 00000MPS CAVOK 09/04 Q1014 NOSIG,1,0,0,9999,0,0,0,
2026-04-14 17:00:00,METAR ZBAD 141700Z VRB01MPS CAVOK 08/04 Q1014 NOSIG,1,0,0,9999,0,0,0,
2026-04-14 16:30:00,METAR ZBAD 141630Z 11001MPS CAVOK 09/04 Q1014 NOSIG,1,0,0,9999,0,0,0,
2026-04-14 16:00:00,METAR ZBAD 141600Z VRB01MPS CAVOK 09/05 Q1014 NOSIG,1,0,0,9999,0,0,0,
2026-04-14 15:30:00,METAR ZBAD 141530Z 17001MPS CAVOK 10/05 Q1014 NOSIG,1,0,0,9999,0,0,0,
2026-04-14 15:00:00,METAR ZBAD 141500Z 18001MPS CAVOK 09/04 Q1014 NOSIG,1,0,0,9999,0,0,0,
2026-04-14 14:30:00,METAR ZBAD 141430Z VRB01MPS CAVOK 09/04 Q1014 NOSIG,1,0,0,9999,0,0,0,
2026-04-14 14:00:00,METAR ZBAD 141400Z VRB01MPS CAVOK 11/04 Q1014 NOSIG,1,0,0,9999,0,0,0,
2026-04-14 13:30:00,METAR ZBAD 141330Z 33002MPS CAVOK 11/05 Q1014 NOSIG,1,0,0,9999,0,0,0,
2026-04-14 13:00:00,METAR ZBAD 141300Z VRB01MPS CAVOK 12/04 Q1014 NOSIG,1,0,0,9999,0,0,0,
2026-04-14 12:30:00,METAR ZBAD 141230Z 30001MPS CAVOK 11/04 Q1013 NOSIG,1,0,0,9999,0,0,0,
2026-04-14 12:00:00,METAR ZBAD 141200Z VRB01MPS CAVOK 14/03 Q1013 NOSIG,1,0,0,9999,0,0,0,
2026-04-14 11:30:00,METAR ZBAD 141130Z 13001MPS CAVOK 14/04 Q1012 NOSIG,1,0,0,9999,0,0,0,
2026-04-14 11:00:00,METAR ZBAD 141100Z VRB01MPS CAVOK 15/03 Q1012 NOSIG,1,0,0,9999,0,0,0,
2026-04-14 10:30:00,METAR ZBAD 141030Z 09002MPS CAVOK 15/03 Q1012 NOSIG,1,0,0,9999,0,0,0,
2026-04-14 10:00:00,METAR ZBAD 141000Z 08003MPS CAVOK 16/02 Q1012 NOSIG,1,0,0,9999,0,0,0,
2026-04-14 09:30:00,METAR ZBAD 140930Z 07004MPS CAVOK 17/02 Q1012 NOSIG,1,0,0,9999,0,0,0,
2026-04-14 09:00:00,METAR ZBAD 140900Z 08005MPS CAVOK 17/03 Q1012 NOSIG,1,0,0,9999,0,0,0,
2026-04-14 08:30:00,METAR ZBAD 140830Z 02009MPS 9999 BKN040 17/02 Q1013 NOSIG,0,9,0,10000,0,0,0,
2026-04-14 08:00:00,METAR ZBAD 140800Z 02007MPS 9999 SCT040 18/05 Q1012 NOSIG,0,7,0,10000,0,0,0,
2026-04-14 07:30:00,METAR ZBAD 140730Z 05003MPS 9999 FEW040 17/05 Q1012 NOSIG,0,3,0,10000,0,0,0,
2026-04-14 07:00:00,METAR ZBAD 140700Z 06003MPS 030V090 CAVOK 17/04 Q1012 NOSIG,1,0,0,9999,0,0,0,
2026-04-14 06:30:00,METAR ZBAD 140630Z 36004MPS 9999 BKN040 17/04 Q1012 NOSIG,0,4,0,10000,0,0,0,
2026-04-14 06:00:00,METAR ZBAD 140600Z 03003MPS 300V070 9999 BKN040 17/04 Q1013 NOSIG,0,3,0,10000,0,0,0,
2026-04-14 05:30:00,METAR ZBAD 140530Z 05002MPS 020V120 9999 BKN040 17/03 Q1013 NOSIG,0,2,0,10000,0,0,0,
2026-04-14 05:00:00,METAR ZBAD 140500Z 05002MPS 010V100 9999 BKN040 16/02 Q1013 NOSIG,0,2,0,10000,0,0,0,
2026-04-14 04:30:00,METAR ZBAD 140430Z 07003MPS 040V120 9999 BKN040 16/03 Q1014 NOSIG,0,3,0,10000,0,0,0,
2026-04-14 04:00:00,METAR ZBAD 140400Z 06003MPS 030V090 9999 BKN040 15/03 Q1014 NOSIG,0,3,0,10000,0,0,0,
2026-04-14 03:30:00,METAR ZBAD 140330Z 05002MPS 010V100 9999 OVC040 15/03 Q1015 NOSIG,0,2,0,10000,0,0,0,
2026-04-14 03:00:00,METAR ZBAD 140300Z 08002MPS 040V110 9999 OVC040 14/03 Q1015 NOSIG,0,2,0,10000,0,0,0,
2026-04-14 02:30:00,METAR ZBAD 140230Z 11002MPS 010V160 9999 OVC040 14/03 Q1015 NOSIG,0,2,0,10000,0,0,0,
2026-04-14 02:00:00,METAR ZBAD 140200Z VRB01MPS 9999 OVC040 13/04 Q1015 NOSIG,0,1,0,10000,0,0,0,
2026-04-14 01:30:00,METAR ZBAD 140130Z 11002MPS 8000 BKN040 13/04 Q1015 NOSIG,0,2,0,8000,0,0,0,
2026-04-14 01:00:00,METAR ZBAD 140100Z 10002MPS 060V120 8000 BKN040 12/04 Q1015 NOSIG,0,2,0,8000,0,0,0,
2026-04-14 00:30:00,METAR ZBAD 140030Z VRB01MPS 8000 BKN040 12/04 Q1015 NOSIG,0,1,0,8000,0,0,0,
2026-04-14 00:00:00,METAR ZBAD 140000Z VRB01MPS 8000 BKN040 12/05 Q1015 NOSIG,0,1,0,8000,0,0,0,
2026-04-13 23:30:00,METAR ZBAD 132330Z VRB01MPS 8000 BKN040 11/05 Q1015 NOSIG,0,1,0,8000,0,0,0,
2026-04-13 23:00:00,METAR ZBAD 132300Z 09001MPS 8000 BKN040 11/05 Q1015 NOSIG,0,1,0,8000,0,0,0,
2026-04-13 22:30:00,METAR ZBAD 132230Z 11002MPS 8000 BKN040 10/06 Q1014 NOSIG,0,2,0,8000,0,0,0,
2026-04-13 22:00:00,METAR ZBAD 132200Z 00000MPS 8000 BKN040 10/06 Q1014 NOSIG,0,0,0,8000,0,0,0,
2026-04-13 21:30:00,METAR ZBAD 132130Z 13001MPS CAVOK 10/05 Q1014 NOSIG,1,0,0,9999,0,0,0,
2026-04-13 21:00:00,METAR ZBAD 132100Z 12002MPS CAVOK 09/05 Q1014 NOSIG,1,0,0,9999,0,0,0,
2026-04-13 20:30:00,METAR ZBAD 132030Z VRB01MPS CAVOK 10/05 Q1014 NOSIG,1,0,0,9999,0,0,0,
2026-04-13 20:00:00,METAR ZBAD 132000Z 15001MPS CAVOK 09/05 Q1015 NOSIG,1,0,0,9999,0,0,0,
2026-04-13 19:30:00,METAR ZBAD 131930Z 18001MPS CAVOK 09/05 Q1015 NOSIG,1,0,0,9999,0,0,0,
2026-04-13 19:00:00,METAR ZBAD 131900Z 14002MPS CAVOK 09/05 Q1015 NOSIG,1,0,0,9999,0,0,0,
2026-04-13 18:30:00,METAR ZBAD 131830Z VRB01MPS CAVOK 09/04 Q1015 NOSIG,1,0,0,9999,0,0,0,
2026-04-13 18:00:00,METAR ZBAD 131800Z 21002MPS CAVOK 09/04 Q1015 NOSIG,1,0,0,9999,0,0,0,
2026-04-13 17:30:00,METAR ZBAD 131730Z 19003MPS 150V230 CAVOK 10/04 Q1015 NOSIG,1,0,0,9999,0,0,0,
2026-04-13 17:00:00,METAR ZBAD 131700Z 20002MPS CAVOK 10/04 Q1015 NOSIG,1,0,0,9999,0,0,0,
2026-04-13 16:30:00,METAR ZBAD 131630Z 19003MPS CAVOK 11/04 Q1015 NOSIG,1,0,0,9999,0,0,0,
2026-04-13 16:00:00,METAR ZBAD 131600Z 19004MPS CAVOK 11/04 Q1015 NOSIG,1,0,0,9999,0,0,0,
2026-04-13 15:30:00,METAR ZBAD 131530Z 19003MPS CAVOK 11/04 Q1016 NOSIG,1,0,0,9999,0,0,0,
2026-04-13 15:00:00,METAR ZBAD 131500Z VRB01MPS CAVOK 12/01 Q1016 NOSIG,1,0,0,9999,0,0,0,
2026-04-13 14:30:00,METAR ZBAD 131430Z 18001MPS CAVOK 13/01 Q1016 NOSIG,1,0,0,9999,0,0,0,
2026-04-13 14:00:00,METAR ZBAD 131400Z VRB01MPS CAVOK 10/03 Q1016 NOSIG,1,0,0,9999,0,0,0,
2026-04-13 13:30:00,METAR ZBAD 131330Z 10001MPS CAVOK 12/02 Q1016 NOSIG,1,0,0,9999,0,0,0,
2026-04-13 13:00:00,METAR ZBAD 131300Z 10001MPS CAVOK 12/02 Q1016 NOSIG,1,0,0,9999,0,0,0,
2026-04-13 12:30:00,METAR ZBAD 131230Z 13001MPS CAVOK 13/01 Q1016 NOSIG,1,0,0,9999,0,0,0,
2026-04-13 12:00:00,METAR ZBAD 131200Z 16001MPS CAVOK 12/01 Q1016 NOSIG,1,0,0,9999,0,0,0,
2026-04-13 11:30:00,METAR ZBAD 131130Z 16001MPS CAVOK 14/01 Q1015 NOSIG,1,0,0,9999,0,0,0,
2026-04-13 11:00:00,METAR ZBAD 131100Z 16001MPS CAVOK 14/M01 Q1015 NOSIG,1,0,0,9999,0,0,0,
2026-04-13 10:30:00,METAR ZBAD 131030Z 16002MPS CAVOK 14/M01 Q1015 NOSIG,1,0,0,9999,0,0,0,
2026-04-13 10:00:00,METAR ZBAD 131000Z 15002MPS CAVOK 16/M02 Q1015 NOSIG,1,0,0,9999,0,0,0,
2026-04-13 09:30:00,METAR ZBAD 130930Z 13003MPS 100V170 CAVOK 17/M02 Q1015 NOSIG,1,0,0,9999,0,0,0,
2026-04-13 09:00:00,METAR ZBAD 130900Z 13002MPS 100V210 CAVOK 17/M02 Q1015 NOSIG,1,0,0,9999,0,0,0,
2026-04-13 08:30:00,METAR ZBAD 130830Z VRB02MPS CAVOK 17/M03 Q1015 NOSIG,1,0,0,9999,0,0,0,
2026-04-13 08:00:00,METAR ZBAD 130800Z 16002MPS 090V210 CAVOK 17/M03 Q1016 NOSIG,1,0,0,9999,0,0,0,
2026-04-13 07:30:00,METAR ZBAD 130730Z 14003MPS 080V180 CAVOK 18/M03 Q1016 NOSIG,1,0,0,9999,0,0,0,
2026-04-13 07:00:00,METAR ZBAD 130700Z 13002MPS 030V180 CAVOK 17/M03 Q1016 NOSIG,1,0,0,9999,0,0,0,
2026-04-13 06:30:00,METAR ZBAD 130630Z 16003MPS 100V200 CAVOK 17/M04 Q1017 NOSIG,1,0,0,9999,0,0,0,
2026-04-13 06:00:00,METAR ZBAD 130600Z 13004MPS 090V160 CAVOK 16/M04 Q1017 NOSIG,1,0,0,9999,0,0,0,
2026-04-13 05:30:00,METAR ZBAD 130530Z 10002MPS 060V140 CAVOK 16/M04 Q1018 NOSIG,1,0,0,9999,0,0,0,
2026-04-13 05:00:00,METAR ZBAD 130500Z 11003MPS 070V150 CAVOK 16/M04 Q1018 NOSIG,1,0,0,9999,0,0,0,
2026-04-13 04:30:00,METAR ZBAD 130430Z 12004MPS CAVOK 16/M04 Q1019 NOSIG,1,0,0,9999,0,0,0,
2026-04-13 04:00:00,METAR ZBAD 130400Z 10004MPS CAVOK 15/M04 Q1019 NOSIG,1,0,0,9999,0,0,0,
2026-04-13 03:30:00,METAR ZBAD 130330Z 10005MPS CAVOK 15/M05 Q1020 NOSIG,1,0,0,9999,0,0,0,
2026-04-13 03:00:00,METAR ZBAD 130300Z 10004MPS CAVOK 15/M04 Q1020 NOSIG,1,0,0,9999,0,0,0,
2026-04-13 02:30:00,METAR ZBAD 130230Z 11006MPS CAVOK 15/M05 Q1020 NOSIG,1,0,0,9999,0,0,0,
2026-04-13 02:00:00,METAR ZBAD 130200Z 10003MPS 070V150 CAVOK 15/M03 Q1020 NOSIG,1,0,0,9999,0,0,0,
2026-04-13 01:30:00,METAR ZBAD 130130Z 12005MPS CAVOK 15/M03 Q1020 NOSIG,1,0,0,9999,0,0,0,
2026-04-13 01:00:00,METAR ZBAD 130100Z 11005MPS CAVOK 15/M03 Q1020 NOSIG,1,0,0,9999,0,0,0,
2026-04-13 00:30:00,METAR ZBAD 130030Z 12005MPS CAVOK 15/M02 Q1020 NOSIG,1,0,0,9999,0,0,0,
2026-04-13 00:00:00,METAR ZBAD 130000Z 11005MPS CAVOK 14/M01 Q1019 NOSIG,1,0,0,9999,0,0,0,
2026-04-12 23:30:00,METAR ZBAD 122330Z 10005MPS CAVOK 14/M01 Q1019 NOSIG,1,0,0,9999,0,0,0,
2026-04-12 23:00:00,METAR ZBAD 122300Z 09003MPS 060V120 CAVOK 14/00 Q1019 NOSIG,1,0,0,9999,0,0,0,
2026-04-12 22:30:00,METAR ZBAD 122230Z 10006MPS CAVOK 14/01 Q1018 NOSIG,1,0,0,9999,0,0,0,
2026-04-12 22:00:00,METAR ZBAD 122200Z 10008MPS CAVOK 14/01 Q1017 NOSIG,1,0,0,9999,0,0,0,
2026-04-12 21:30:00,METAR ZBAD 122130Z 10008MPS 8000 NSC 14/03 Q1017 NOSIG,0,8,0,8000,0,0,0,
2026-04-12 21:00:00,METAR ZBAD 122100Z 10008MPS 8000 NSC 15/05 Q1016 NOSIG,0,8,0,8000,0,0,0,
2026-04-12 20:30:00,METAR ZBAD 122030Z 10009MPS 8000 NSC 15/05 Q1016 NOSIG,0,9,0,8000,0,0,0,
2026-04-12 20:00:00,METAR ZBAD 122000Z 10009G14MPS 6000 NSC 16/09 Q1015 NOSIG,0,9,1,6000,0,0,0,
2026-04-12 19:30:00,METAR ZBAD 121930Z 09009MPS 6000 NSC 17/10 Q1015 NOSIG,0,9,0,6000,0,0,0,
2026-04-12 19:23:00,SPECI ZBAD 121923Z 09008G13MPS 6000 NSC 17/10 Q1015 NOSIG,0,8,1,6000,0,0,0,
2026-04-12 19:00:00,METAR ZBAD 121900Z 10003MPS 6000 NSC 16/10 Q1014 NOSIG,0,3,0,6000,0,0,0,
2026-04-12 18:30:00,METAR ZBAD 121830Z 09003MPS 7000 NSC 16/10 Q1014 NOSIG,0,3,0,7000,0,0,0,
2026-04-12 18:00:00,METAR ZBAD 121800Z 08002MPS 8000 NSC 16/09 Q1014 NOSIG,0,2,0,8000,0,0,0,
2026-04-12 17:30:00,METAR ZBAD 121730Z 12002MPS 8000 NSC 16/09 Q1014 NOSIG,0,2,0,8000,0,0,0,
2026-04-12 17:00:00,METAR ZBAD 121700Z 11002MPS CAVOK 15/08 Q1014 NOSIG,1,0,0,9999,0,0,0,
2026-04-12 16:30:00,METAR ZBAD 121630Z 10002MPS CAVOK 15/08 Q1014 NOSIG,1,0,0,9999,0,0,0,
2026-04-12 16:00:00,METAR ZBAD 121600Z 02001MPS CAVOK 16/09 Q1014 NOSIG,1,0,0,9999,0,0,0,
2026-04-12 15:00:00,METAR ZBAD 121500Z VRB01MPS CAVOK 18/08 Q1013 NOSIG,1,0,0,9999,0,0,0,
2026-04-12 14:30:00,METAR ZBAD 121430Z VRB01MPS CAVOK 17/08 Q1013 NOSIG,1,0,0,9999,0,0,0,
2026-04-12 14:00:00,METAR ZBAD 121400Z VRB01MPS CAVOK 16/08 Q1013 NOSIG,1,0,0,9999,0,0,0,
2026-04-12 13:30:00,METAR ZBAD 121330Z 00000MPS CAVOK 17/07 Q1013 NOSIG,1,0,0,9999,0,0,0,
2026-04-12 13:00:00,METAR ZBAD 121300Z 29001MPS CAVOK 18/07 Q1013 NOSIG,1,0,0,9999,0,0,0,
2026-04-12 12:30:00,METAR ZBAD 121230Z VRB01MPS CAVOK 19/06 Q1012 NOSIG,1,0,0,9999,0,0,0,
2026-04-12 12:00:00,METAR ZBAD 121200Z VRB01MPS CAVOK 22/04 Q1012 NOSIG,1,0,0,9999,0,0,0,
2026-04-12 11:30:00,METAR ZBAD 121130Z 20002MPS 130V230 CAVOK 21/04 Q1011 NOSIG,1,0,0,9999,0,0,0,
2026-04-12 11:00:00,METAR ZBAD 121100Z 19002MPS 160V240 CAVOK 22/03 Q1010 NOSIG,1,0,0,9999,0,0,0,
2026-04-12 10:30:00,METAR ZBAD 121030Z 21002MPS 180V240 CAVOK 23/02 Q1010 NOSIG,1,0,0,9999,0,0,0,
2026-04-12 10:00:00,METAR ZBAD 121000Z VRB01MPS CAVOK 24/03 Q1010 NOSIG,1,0,0,9999,0,0,0,
2026-04-12 09:30:00,METAR ZBAD 120930Z 13002MPS CAVOK 25/02 Q1010 NOSIG,1,0,0,9999,0,0,0,
2026-04-12 09:00:00,METAR ZBAD 120900Z 09002MPS CAVOK 25/02 Q1010 NOSIG,1,0,0,9999,0,0,0,
2026-04-12 08:30:00,METAR ZBAD 120830Z 15002MPS CAVOK 26/03 Q1009 NOSIG,1,0,0,9999,0,0,0,
2026-04-12 08:00:00,METAR ZBAD 120800Z 11003MPS 080V140 CAVOK 26/02 Q1009 NOSIG,1,0,0,9999,0,0,0,
2026-04-12 07:30:00,METAR ZBAD 120730Z 06003MPS 030V110 CAVOK 26/01 Q1009 NOSIG,1,0,0,9999,0,0,0,
2026-04-12 07:00:00,METAR ZBAD 120700Z 07002MPS 010V110 CAVOK 26/03 Q1010 NOSIG,1,0,0,9999,0,0,0,
2026-04-12 06:30:00,METAR ZBAD 120630Z 09003MPS CAVOK 25/04 Q1010 NOSIG,1,0,0,9999,0,0,0,
2026-04-12 06:00:00,METAR ZBAD 120600Z 08002MPS 050V140 CAVOK 24/04 Q1010 NOSIG,1,0,0,9999,0,0,0,
2026-04-12 05:30:00,METAR ZBAD 120530Z 07002MPS 340V140 CAVOK 23/04 Q1010 NOSIG,1,0,0,9999,0,0,0,
2026-04-12 05:00:00,METAR ZBAD 120500Z 09002MPS 030V140 CAVOK 22/04 Q1011 NOSIG,1,0,0,9999,0,0,0,
2026-04-12 04:30:00,METAR ZBAD 120430Z VRB02MPS CAVOK 22/03 Q1011 NOSIG,1,0,0,9999,0,0,0,
2026-04-12 04:00:00,METAR ZBAD 120400Z 08002MPS 030V140 CAVOK 21/03 Q1011 NOSIG,1,0,0,9999,0,0,0,
2026-04-12 03:30:00,METAR ZBAD 120330Z VRB02MPS CAVOK 20/03 Q1011 NOSIG,1,0,0,9999,0,0,0,
2026-04-12 03:00:00,METAR ZBAD 120300Z 05002MPS 020V110 CAVOK 19/02 Q1012 NOSIG,1,0,0,9999,0,0,0,
2026-04-12 02:30:00,METAR ZBAD 120230Z 05002MPS 010V080 CAVOK 17/01 Q1012 NOSIG,1,0,0,9999,0,0,0,
2026-04-12 02:00:00,METAR ZBAD 120200Z 05002MPS 290V100 CAVOK 16/M00 Q1011 NOSIG,1,0,0,9999,0,0,0,
2026-04-12 01:30:00,METAR ZBAD 120130Z 03002MPS 350V070 CAVOK 16/M00 Q1012 NOSIG,1,0,0,9999,0,0,0,
2026-04-12 01:00:00,METAR ZBAD 120100Z 03003MPS 350V070 CAVOK 14/M01 Q1011 NOSIG,1,0,0,9999,0,0,0,
2026-04-12 00:30:00,METAR ZBAD 120030Z 04003MPS 010V070 CAVOK 13/M01 Q1011 NOSIG,1,0,0,9999,0,0,0,
2026-04-12 00:00:00,METAR ZBAD 120000Z 06002MPS 030V090 CAVOK 12/M01 Q1011 NOSIG,1,0,0,9999,0,0,0,
2026-04-11 23:30:00,METAR ZBAD 112330Z 07003MPS CAVOK 11/M01 Q1011 NOSIG,1,0,0,9999,0,0,0,
2026-04-11 23:00:00,METAR ZBAD 112300Z 07003MPS CAVOK 11/M01 Q1010 NOSIG,1,0,0,9999,0,0,0,
2026-04-11 22:30:00,METAR ZBAD 112230Z 05004MPS CAVOK 10/M02 Q1010 NOSIG,1,0,0,9999,0,0,0,
2026-04-11 22:00:00,METAR ZBAD 112200Z 01004MPS CAVOK 09/M00 Q1010 NOSIG,1,0,0,9999,0,0,0,
2026-04-11 21:30:00,METAR ZBAD 112130Z 36003MPS CAVOK 08/02 Q1009 NOSIG,1,0,0,9999,0,0,0,
2026-04-11 21:00:00,METAR ZBAD 112100Z 00000MPS CAVOK 08/02 Q1009 NOSIG,1,0,0,9999,0,0,0,
2026-04-11 20:30:00,METAR ZBAD 112030Z VRB01MPS CAVOK 08/02 Q1009 NOSIG,1,0,0,9999,0,0,0,
2026-04-11 20:00:00,METAR ZBAD 112000Z 34001MPS CAVOK 09/02 Q1009 NOSIG,1,0,0,9999,0,0,0,
2026-04-11 19:30:00,METAR ZBAD 111930Z VRB01MPS CAVOK 08/02 Q1009 NOSIG,1,0,0,9999,0,0,0,
2026-04-11 19:00:00,METAR ZBAD 111900Z VRB01MPS CAVOK 08/02 Q1010 NOSIG,1,0,0,9999,0,0,0,
2026-04-11 18:30:00,METAR ZBAD 111830Z VRB01MPS CAVOK 09/01 Q1010 NOSIG,1,0,0,9999,0,0,0,
2026-04-11 18:00:00,METAR ZBAD 111800Z VRB01MPS CAVOK 10/M00 Q1010 NOSIG,1,0,0,9999,0,0,0,
2026-04-11 17:30:00,METAR ZBAD 111730Z 10001MPS CAVOK 10/M00 Q1010 NOSIG,1,0,0,9999,0,0,0,
2026-04-11 17:00:00,METAR ZBAD 111700Z 11002MPS CAVOK 11/00 Q1010 NOSIG,1,0,0,9999,0,0,0,
2026-04-11 16:30:00,METAR ZBAD 111630Z 11003MPS CAVOK 11/00 Q1011 NOSIG,1,0,0,9999,0,0,0,
2026-04-11 16:00:00,METAR ZBAD 111600Z 10004MPS CAVOK 12/M00 Q1011 NOSIG,1,0,0,9999,0,0,0,
2026-04-11 15:30:00,METAR ZBAD 111530Z 08004MPS CAVOK 13/M02 Q1011 NOSIG,1,0,0,9999,0,0,0,
2026-04-11 15:00:00,METAR ZBAD 111500Z 07003MPS CAVOK 13/M02 Q1011 NOSIG,1,0,0,9999,0,0,0,
2026-04-11 14:30:00,METAR ZBAD 111430Z 07003MPS CAVOK 13/M02 Q1011 NOSIG,1,0,0,9999,0,0,0,
2026-04-11 14:00:00,METAR ZBAD 111400Z 10004MPS CAVOK 13/M02 Q1011 NOSIG,1,0,0,9999,0,0,0,
2026-04-11 13:30:00,METAR ZBAD 111330Z 10004MPS CAVOK 13/M01 Q1011 NOSIG,1,0,0,9999,0,0,0,
2026-04-11 13:00:00,METAR ZBAD 111300Z 10004MPS CAVOK 14/00 Q1011 NOSIG,1,0,0,9999,0,0,0,
2026-04-11 12:30:00,METAR ZBAD 111230Z 10003MPS CAVOK 15/00 Q1011 NOSIG,1,0,0,9999,0,0,0,
2026-04-11 12:00:00,METAR ZBAD 111200Z 10004MPS CAVOK 16/00 Q1010 NOSIG,1,0,0,9999,0,0,0,
2026-04-11 11:30:00,METAR ZBAD 111130Z 12003MPS CAVOK 16/02 Q1010 NOSIG,1,0,0,9999,0,0,0,
2026-04-11 11:00:00,METAR ZBAD 111100Z 11004MPS CAVOK 17/02 Q1009 NOSIG,1,0,0,9999,0,0,0,
2026-04-11 10:30:00,METAR ZBAD 111030Z 12003MPS CAVOK 19/02 Q1009 NOSIG,1,0,0,9999,0,0,0,
2026-04-11 10:00:00,METAR ZBAD 111000Z 12004MPS CAVOK 20/01 Q1009 NOSIG,1,0,0,9999,0,0,0,
2026-04-11 09:30:00,METAR ZBAD 110930Z 12005MPS CAVOK 21/00 Q1009 NOSIG,1,0,0,9999,0,0,0,
2026-04-11 09:00:00,METAR ZBAD 110900Z 15004MPS CAVOK 22/M01 Q1009 NOSIG,1,0,0,9999,0,0,0,
2026-04-11 08:30:00,METAR ZBAD 110830Z 16005MPS 110V190 CAVOK 22/M01 Q1009 NOSIG,1,0,0,9999,0,0,0,
2026-04-11 08:00:00,METAR ZBAD 110800Z 15005MPS 110V190 CAVOK 23/M01 Q1010 NOSIG,1,0,0,9999,0,0,0,
2026-04-11 07:30:00,METAR ZBAD 110730Z 15005MPS CAVOK 22/M03 Q1010 NOSIG,1,0,0,9999,0,0,0,
2026-04-11 07:00:00,METAR ZBAD 110700Z 16004MPS 120V200 CAVOK 22/M02 Q1010 NOSIG,1,0,0,9999,0,0,0,
2026-04-11 06:30:00,METAR ZBAD 110630Z 16005MPS CAVOK 23/M01 Q1011 NOSIG,1,0,0,9999,0,0,0,
2026-04-11 06:00:00,METAR ZBAD 110600Z 18007MPS CAVOK 23/M01 Q1011 NOSIG,1,0,0,9999,0,0,0,
2026-04-11 05:30:00,METAR ZBAD 110530Z 13006MPS CAVOK 23/M01 Q1011 NOSIG,1,0,0,9999,0,0,0,
2026-04-11 05:00:00,METAR ZBAD 110500Z 13005MPS 090V180 CAVOK 22/M01 Q1011 NOSIG,1,0,0,9999,0,0,0,
2026-04-11 04:30:00,METAR ZBAD 110430Z 13005MPS CAVOK 22/01 Q1012 NOSIG,1,0,0,9999,0,0,0,
2026-04-11 04:00:00,METAR ZBAD 110400Z 12005MPS 080V150 CAVOK 22/00 Q1012 NOSIG,1,0,0,9999,0,0,0,
2026-04-11 03:30:00,METAR ZBAD 110330Z 14005MPS 110V170 CAVOK 22/01 Q1013 NOSIG,1,0,0,9999,0,0,0,
2026-04-11 03:00:00,METAR ZBAD 110300Z 11006MPS CAVOK 21/02 Q1013 NOSIG,1,0,0,9999,0,0,0,
2026-04-11 02:30:00,METAR ZBAD 110230Z 13006MPS 090V150 CAVOK 21/03 Q1013 NOSIG,1,0,0,9999,0,0,0,
2026-04-11 02:00:00,METAR ZBAD 110200Z 11006MPS CAVOK 20/05 Q1013 NOSIG,1,0,0,9999,0,0,0,
2026-04-11 01:30:00,METAR ZBAD 110130Z 11005MPS CAVOK 19/07 Q1012 NOSIG,1,0,0,9999,0,0,0,
2026-04-11 01:00:00,METAR ZBAD 110100Z 11006MPS CAVOK 18/07 Q1012 NOSIG,1,0,0,9999,0,0,0,
2026-04-11 00:30:00,METAR ZBAD 110030Z 10005MPS CAVOK 19/06 Q1011 NOSIG,1,0,0,9999,0,0,0,
2026-04-11 00:10:00,SPECI ZBAD 110010Z 08005MPS 040V100 CAVOK 18/06 Q1011 NOSIG,1,0,0,9999,0,0,0,
2026-04-11 00:00:00,METAR ZBAD 110000Z 36002MPS CAVOK 17/07 Q1011 NOSIG,1,0,0,9999,0,0,0,
2026-04-10 23:30:00,METAR ZBAD 102330Z VRB01MPS CAVOK 16/08 Q1010 NOSIG,1,0,0,9999,0,0,0,
2026-04-10 23:00:00,METAR ZBAD 102300Z 16001MPS CAVOK 11/07 Q1010 NOSIG,1,0,0,9999,0,0,0,
2026-04-10 22:30:00,METAR ZBAD 102230Z 10004MPS CAVOK 10/06 Q1010 NOSIG,1,0,0,9999,0,0,0,
2026-04-10 22:00:00,METAR ZBAD 102200Z VRB01MPS CAVOK 08/05 Q1010 NOSIG,1,0,0,9999,0,0,0,
2026-04-10 21:30:00,METAR ZBAD 102130Z VRB01MPS CAVOK 09/05 Q1009 NOSIG,1,0,0,9999,0,0,0,
2026-04-10 21:00:00,METAR ZBAD 102100Z 26002MPS CAVOK 09/05 Q1009 NOSIG,1,0,0,9999,0,0,0,
2026-04-10 20:30:00,METAR ZBAD 102030Z VRB01MPS CAVOK 10/05 Q1009 NOSIG,1,0,0,9999,0,0,0,
2026-04-10 20:00:00,METAR ZBAD 102000Z 20002MPS CAVOK 10/05 Q1008 NOSIG,1,0,0,9999,0,0,0,
2026-04-10 19:30:00,METAR ZBAD 101930Z 18003MPS CAVOK 09/05 Q1008 NOSIG,1,0,0,9999,0,0,0,
2026-04-10 19:00:00,METAR ZBAD 101900Z VRB01MPS CAVOK 11/05 Q1008 NOSIG,1,0,0,9999,0,0,0,
2026-04-10 18:30:00,METAR ZBAD 101830Z 31003MPS CAVOK 11/04 Q1008 NOSIG,1,0,0,9999,0,0,0,
2026-04-10 18:00:00,METAR ZBAD 101800Z 28002MPS CAVOK 12/05 Q1008 NOSIG,1,0,0,9999,0,0,0,
2026-04-10 17:30:00,METAR ZBAD 101730Z 00000MPS CAVOK 12/05 Q1008 NOSIG,1,0,0,9999,0,0,0,
2026-04-10 17:00:00,METAR ZBAD 101700Z VRB01MPS CAVOK 14/06 Q1008 NOSIG,1,0,0,9999,0,0,0,
2026-04-10 16:30:00,METAR ZBAD 101630Z 23002MPS 170V290 CAVOK 18/05 Q1008 NOSIG,1,0,0,9999,0,0,0,
2026-04-10 16:00:00,METAR ZBAD 101600Z 27003MPS 260V320 CAVOK 17/06 Q1008 NOSIG,1,0,0,9999,0,0,0,
2026-04-10 15:30:00,METAR ZBAD 101530Z 26002MPS 230V300 CAVOK 19/05 Q1007 NOSIG,1,0,0,9999,0,0,0,
2026-04-10 15:00:00,METAR ZBAD 101500Z 25004MPS 200V330 CAVOK 19/05 Q1007 NOSIG,1,0,0,9999,0,0,0,
2026-04-10 14:30:00,METAR ZBAD 101430Z 28002MPS 210V020 CAVOK 19/05 Q1006 NOSIG,1,0,0,9999,0,0,0,
2026-04-10 14:00:00,METAR ZBAD 101400Z 24004MPS CAVOK 19/06 Q1006 NOSIG,1,0,0,9999,0,0,0,
2026-04-10 13:30:00,METAR ZBAD 101330Z 25002MPS CAVOK 19/05 Q1006 NOSIG,1,0,0,9999,0,0,0,
2026-04-10 13:00:00,METAR ZBAD 101300Z 24003MPS CAVOK 19/05 Q1005 NOSIG,1,0,0,9999,0,0,0,
2026-04-10 12:30:00,METAR ZBAD 101230Z 24003MPS CAVOK 20/05 Q1005 NOSIG,1,0,0,9999,0,0,0,
2026-04-10 12:00:00,METAR ZBAD 101200Z 23004MPS CAVOK 21/04 Q1005 NOSIG,1,0,0,9999,0,0,0,
2026-04-10 11:30:00,METAR ZBAD 101130Z 22004MPS CAVOK 21/04 Q1004 NOSIG,1,0,0,9999,0,0,0,
2026-04-10 11:00:00,METAR ZBAD 101100Z 21004MPS CAVOK 21/05 Q1003 NOSIG,1,0,0,9999,0,0,0,
2026-04-10 10:30:00,METAR ZBAD 101030Z 22004MPS CAVOK 22/05 Q1003 NOSIG,1,0,0,9999,0,0,0,
2026-04-10 10:00:00,METAR ZBAD 101000Z 22005MPS CAVOK 24/05 Q1002 NOSIG,1,0,0,9999,0,0,0,
2026-04-10 09:30:00,METAR ZBAD 100930Z 21005MPS CAVOK 25/04 Q1002 NOSIG,1,0,0,9999,0,0,0,
2026-04-10 09:00:00,METAR ZBAD 100900Z 22007MPS CAVOK 26/03 Q1002 NOSIG,1,0,0,9999,0,0,0,
2026-04-10 08:30:00,METAR ZBAD 100830Z 22008MPS CAVOK 26/02 Q1002 NOSIG,1,0,0,9999,0,0,0,
2026-04-10 08:00:00,METAR ZBAD 100800Z 21008MPS CAVOK 26/03 Q1002 NOSIG,1,0,0,9999,0,0,0,
2026-04-10 07:30:00,METAR ZBAD 100730Z 22008MPS CAVOK 26/03 Q1002 NOSIG,1,0,0,9999,0,0,0,
2026-04-10 07:00:00,METAR ZBAD 100700Z 23007G12MPS 190V250 CAVOK 27/02 Q1003 NOSIG,1,0,0,9999,0,0,0,
2026-04-10 06:30:00,METAR ZBAD 100630Z 24007MPS CAVOK 26/03 Q1003 NOSIG,1,0,0,9999,0,0,0,
2026-04-10 06:00:00,METAR ZBAD 100600Z 23006MPS 190V260 CAVOK 26/03 Q1004 NOSIG,1,0,0,9999,0,0,0,
2026-04-10 05:30:00,METAR ZBAD 100530Z 23007MPS CAVOK 25/05 Q1004 NOSIG,1,0,0,9999,0,0,0,
2026-04-10 05:00:00,METAR ZBAD 100500Z 23006MPS CAVOK 24/05 Q1004 NOSIG,1,0,0,9999,0,0,0,
2026-04-10 04:30:00,METAR ZBAD 100430Z 24006MPS CAVOK 23/06 Q1004 NOSIG,1,0,0,9999,0,0,0,
2026-04-10 04:00:00,METAR ZBAD 100400Z 23005MPS 200V280 CAVOK 22/08 Q1005 NOSIG,1,0,0,9999,0,0,0,
2026-04-10 03:30:00,METAR ZBAD 100330Z 23004MPS 190V260 CAVOK 20/09 Q1005 NOSIG,1,0,0,9999,0,0,0,
2026-04-10 03:00:00,METAR ZBAD 100300Z 24003MPS 170V290 8000 NSC 19/10 Q1006 NOSIG,0,3,0,8000,0,0,0,
2026-04-10 02:30:00,METAR ZBAD 100230Z 22003MPS 180V290 5000 HZ NSC 17/11 Q1006 NOSIG,0,3,0,5000,0,0,0,
2026-04-10 02:00:00,METAR ZBAD 100200Z 23003MPS 200V260 3200 BR NSC 15/10 Q1006 NOSIG,0,3,0,3200,0,0,1,BR
2026-04-10 01:30:00,METAR ZBAD 100130Z 21002MPS 160V260 2300 BR FEW004 13/11 Q1006 NOSIG,0,2,0,2300,0,0,1,BR
2026-04-10 01:00:00,METAR ZBAD 100100Z 21003MPS 170V260 2300 BR FEW004 12/10 Q1006 BECMG TL0240 3200,0,3,0,2300,0,0,1,BR
2026-04-10 00:30:00,METAR ZBAD 100030Z VRB01MPS 1800 BR FEW004 12/10 Q1005 NOSIG,0,1,0,1800,0,0,1,BR
2026-04-10 00:00:00,METAR ZBAD 100000Z 27002MPS 220V310 1800 BR FEW004 11/10 Q1005 BECMG TL0140 3200,0,2,0,1800,0,0,1,BR
2026-04-09 23:30:00,METAR ZBAD 092330Z 27002MPS 230V290 2000 BR FEW004 11/10 Q1005 NOSIG,0,2,0,2000,0,0,1,BR
2026-04-09 23:00:00,METAR ZBAD 092300Z 24003MPS 2000 BR BCFG FEW004 11/10 Q1005 BECMG TL0040 3200,0,3,0,2000,0,0,1,"BC,BR,FG"
2026-04-09 22:30:00,METAR ZBAD 092230Z 26003MPS 2000 BR BCFG FEW004 11/10 Q1004 NOSIG,0,3,0,2000,0,0,1,"BC,BR,FG"
2026-04-09 22:00:00,METAR ZBAD 092200Z 25003MPS 210V270 2000 BR BCFG FEW004 11/10 Q1004 BECMG TL2350 3200,0,3,0,2000,0,0,1,"BC,BR,FG"
2026-04-09 21:30:00,METAR ZBAD 092130Z 26004MPS 2200 BR BCFG FEW004 11/10 Q1003 NOSIG,0,4,0,2200,0,0,1,"BC,BR,FG"
2026-04-09 21:00:00,METAR ZBAD 092100Z 22002MPS 1800 BR BCFG FEW004 10/10 Q1003 NOSIG,0,2,0,1800,0,0,1,"BC,BR,FG"
2026-04-09 20:30:00,METAR ZBAD 092030Z 21002MPS 1800 BR BCFG FEW004 09/09 Q1003 NOSIG,0,2,0,1800,0,0,1,"BC,BR,FG"
2026-04-09 20:00:00,METAR ZBAD 092000Z 24002MPS 1800 BR BCFG FEW004 10/09 Q1003 NOSIG,0,2,0,1800,0,0,1,"BC,BR,FG"
2026-04-09 19:30:00,METAR ZBAD 091930Z 16002MPS 1800 BR BCFG FEW004 10/09 Q1003 NOSIG,0,2,0,1800,0,0,1,"BC,BR,FG"
2026-04-09 19:12:00,SPECI ZBAD 091912Z 18002MPS 1200 R35R/1600U R35L/1500U R01L/2000U R11L/P2000N BR BCFG FEW004 09/09 Q1003 NOSIG,0,2,0,1200,0,0,1,"BC,BR,FG"
2026-04-09 19:00:00,METAR ZBAD 091900Z 20002MPS 0500 R35R/0400D R35L/0700U R01L/0375N R11L/1100U FG NSC 09/08 Q1003 NOSIG,0,2,0,804500,0,0,1,FG
2026-04-09 18:36:00,SPECI ZBAD 091836Z VRB01MPS 1800 R35R/2000U R35L/0450D R01L/1700U R11L/0275D BR BCFG NSC 09/08 Q1003 NOSIG,0,1,0,1800,0,0,1,"BC,BR,FG"
2026-04-09 18:35:00,SPECI ZBAD 091835Z VRB01MPS 1800 R35R/1900U R35L/1400D R01L/1700U R11L/0325D BR BCFG NSC 09/09 Q1003 NOSIG,0,1,0,1800,0,0,1,"BC,BR,FG"
2026-04-09 18:30:00,METAR ZBAD 091830Z VRB01MPS 1800 R35R/2000D R35L/1300U R01L/1400U R11L/2000U BR BCFG NSC 10/09 Q1003 NOSIG,0,1,0,1800,0,0,1,"BC,BR,FG"
2026-04-09 18:16:00,SPECI ZBAD 091816Z 20002MPS 170V270 2200 R35R/1100U R35L/P2000N R01L/1100U R11L/1400D BR BCFG NSC 10/09 Q1003 NOSIG,0,2,0,2200,0,0,1,"BC,BR,FG"
2026-04-09 18:00:00,METAR ZBAD 091800Z 20002MPS 180V240 2200 R35R/0400U R35L/P2000N R01L/0275D R11L/P2000N BR BCFG NSC 09/09 Q1002 NOSIG,0,2,0,2200,0,0,1,"BC,BR,FG"
2026-04-09 17:41:00,SPECI ZBAD 091741Z 20002MPS 2200 R35R/0450D R35L/1500D R01L/P2000N R11L/P2000N BR NSC 09/09 Q1002 NOSIG,0,2,0,2200,0,0,1,BR
2026-04-09 17:30:00,METAR ZBAD 091730Z 20002MPS 3000 BR NSC 09/09 Q1003 NOSIG,0,2,0,3000,0,0,1,BR
2026-04-09 17:00:00,METAR ZBAD 091700Z 22002MPS 3000 BR BKN020 10/09 Q1003 NOSIG,0,2,0,3000,0,0,1,BR
2026-04-09 16:30:00,METAR ZBAD 091630Z 00000MPS 3000 BR FEW009 OVC030 11/09 Q1003 NOSIG,0,0,0,3000,0,0,1,BR
2026-04-09 16:00:00,METAR ZBAD 091600Z 32002MPS 3000 BR FEW006 OVC030 10/09 Q1003 NOSIG,0,2,0,3000,0,0,1,BR
2026-04-09 15:30:00,METAR ZBAD 091530Z 31002MPS 4000 BR FEW006 OVC030 11/10 Q1003 NOSIG,0,2,0,4000,0,0,1,BR
2026-04-09 15:00:00,METAR ZBAD 091500Z VRB01MPS 4000 BR FEW006 OVC030 10/10 Q1003 NOSIG,0,1,0,4000,0,0,1,BR
2026-04-09 14:30:00,METAR ZBAD 091430Z VRB01MPS 4000 BR FEW006 OVC030 10/09 Q1003 NOSIG,0,1,0,4000,0,0,1,BR
2026-04-09 14:00:00,METAR ZBAD 091400Z VRB01MPS 4000 BR FEW006 OVC030 11/09 Q1003 NOSIG,0,1,0,4000,0,0,1,BR
2026-04-09 13:30:00,METAR ZBAD 091330Z 32002MPS 280V340 4000 BR FEW007 OVC030 11/10 Q1003 NOSIG,0,2,0,4000,0,0,1,BR
2026-04-09 13:00:00,METAR ZBAD 091300Z 06001MPS 6000 FEW006 OVC030 11/09 Q1003 NOSIG,0,1,0,6000,0,0,0,
2026-04-09 12:30:00,METAR ZBAD 091230Z VRB01MPS 6000 FEW006 OVC030 11/09 Q1003 NOSIG,0,1,0,6000,0,0,0,
2026-04-09 12:00:00,METAR ZBAD 091200Z 07005MPS 6000 -RA FEW007 OVC030 11/09 Q1001 NOSIG,0,5,0,6000,0,0,0,-RA
2026-04-09 11:44:00,SPECI ZBAD 091144Z 11006G12MPS 6000 -RA FEW007 OVC030 11/09 Q0999 NOSIG,0,6,1,6000,0,0,0,-RA
2026-04-09 11:30:00,METAR ZBAD 091130Z VRB01MPS 6000 FEW007 OVC030 11/09 Q1002 NOSIG,0,1,0,6000,0,0,0,
2026-04-09 11:00:00,METAR ZBAD 091100Z 09002MPS 060V120 4600 BR FEW007 OVC030 11/09 Q1002 NOSIG,0,2,0,4600,0,0,1,BR
2026-04-09 10:30:00,METAR ZBAD 091030Z 36004MPS 4600 BR FEW007 OVC030 11/09 Q1001 NOSIG,0,4,0,4600,0,0,1,BR
2026-04-09 10:00:00,METAR ZBAD 091000Z 05004MPS 4600 BR FEW007 OVC030 11/09 Q1001 NOSIG,0,4,0,4600,0,0,1,BR
2026-04-09 09:30:00,METAR ZBAD 090930Z 07004MPS 4000 BR FEW007 OVC030 11/09 Q1000 NOSIG,0,4,0,4000,0,0,1,BR
2026-04-09 09:00:00,METAR ZBAD 090900Z 07004MPS 4000 BR FEW007 OVC030 11/09 Q1000 NOSIG,0,4,0,4000,0,0,1,BR
2026-04-09 08:30:00,METAR ZBAD 090830Z 08002MPS 4000 BR FEW007 OVC030 11/09 Q1000 NOSIG,0,2,0,4000,0,0,1,BR
2026-04-09 08:00:00,METAR ZBAD 090800Z 06004MPS 4000 BR FEW007 OVC030 11/09 Q1000 NOSIG,0,4,0,4000,0,0,1,BR
2026-04-09 07:30:00,METAR ZBAD 090730Z 09003MPS 4000 BR FEW007 OVC030 11/09 Q1000 NOSIG,0,3,0,4000,0,0,1,BR
2026-04-09 07:00:00,METAR ZBAD 090700Z 10003MPS 4000 BR FEW007 OVC030 12/09 Q1000 NOSIG,0,3,0,4000,0,0,1,BR
2026-04-09 06:30:00,METAR ZBAD 090630Z 12004MPS 3600 BR FEW009 OVC030 12/09 Q1000 NOSIG,0,4,0,3600,0,0,1,BR
2026-04-09 06:00:00,METAR ZBAD 090600Z 09005MPS 3200 BR FEW009 OVC030 11/09 Q1000 NOSIG,0,5,0,3200,0,0,1,BR
2026-04-09 05:30:00,METAR ZBAD 090530Z 09004MPS 3200 BR FEW009 OVC030 12/10 Q1000 NOSIG,0,4,0,3200,0,0,1,BR
2026-04-09 05:00:00,METAR ZBAD 090500Z 08004MPS 3200 BR FEW009 OVC030 12/09 Q1001 NOSIG,0,4,0,3200,0,0,1,BR
2026-04-09 04:30:00,METAR ZBAD 090430Z 06003MPS 2200 BR FEW006 OVC030 11/10 Q1001 NOSIG,0,3,0,2200,0,0,1,BR
2026-04-09 04:00:00,METAR ZBAD 090400Z 08004MPS 2200 BR FEW006 OVC030 11/10 Q1002 BECMG TL0540 3200,0,4,0,2200,0,0,1,BR
2026-04-09 03:30:00,METAR ZBAD 090330Z 08004MPS 2600 BR FEW005 OVC030 11/09 Q1002 NOSIG,0,4,0,2600,0,0,1,BR
2026-04-09 03:00:00,METAR ZBAD 090300Z 08004MPS 2200 -RA BR FEW005 OVC030 11/10 Q1002 BECMG TL0440 3200 BR,0,4,0,2200,0,0,1,"-RA,BR"
2026-04-09 02:30:00,METAR ZBAD 090230Z 08005MPS 1800 -RA BR FEW004 OVC030 11/10 Q1002 NOSIG,0,5,0,1800,0,0,1,"-RA,BR"
2026-04-09 02:00:00,METAR ZBAD 090200Z 08005MPS 1800 R35R/1600U R35L/1500U R01L/1200N R11L/1600U -RA BR FEW003 OVC030 11/10 Q1003 BECMG TL0340 3200,0,5,0,1800,0,0,1,"-RA,BR"
2026-04-09 01:30:00,METAR ZBAD 090130Z 06004MPS 020V080 1800 R35R/1500D R35L/1600D R01L/1400D R11L/1600D -RA BR FEW003 OVC030 11/10 Q1003 NOSIG,0,4,0,1800,0,0,1,"-RA,BR"
2026-04-09 01:00:00,METAR ZBAD 090100Z VRB01MPS 2700 -RA BR FEW003 OVC030 11/10 Q1003 BECMG TL0240 3200,0,1,0,2700,0,0,1,"-RA,BR"
2026-04-09 00:30:00,METAR ZBAD 090030Z 17001MPS 2700 -RA BR FEW003 OVC030 11/11 Q1003 NOSIG,0,1,0,2700,0,0,1,"-RA,BR"
2026-04-09 00:00:00,METAR ZBAD 090000Z 14003MPS 2000 R35R/1700U R35L/1600U R01L/1500U R11L/1400D -RA BR FEW003 OVC030 11/11 Q1003 NOSIG,0,3,0,2000,0,0,1,"-RA,BR"
2026-04-08 23:30:00,METAR ZBAD 082330Z 13002MPS 2000 R35R/1400U R35L/1200U R01L/0900U R11L/1300U -RA BR FEW003 OVC030 11/11 Q1003 NOSIG,0,2,0,2000,0,0,1,"-RA,BR"
2026-04-08 23:00:00,METAR ZBAD 082300Z 10002MPS 2200 R35R/1700N R35L/1600N R01L/1100D R11L/2000D -RA BR FEW003 OVC030 11/11 Q1003 BECMG TL0040 3200,0,2,0,2200,0,0,1,"-RA,BR"
2026-04-08 22:30:00,METAR ZBAD 082230Z 12003MPS 2700 -RA BR FEW002 OVC030 11/10 Q1002 NOSIG,0,3,0,2700,0,0,1,"-RA,BR"
2026-04-08 22:00:00,METAR ZBAD 082200Z 11003MPS 3500 -RA BR OVC030 11/10 Q1001 BECMG TL2240 2700,0,3,0,3500,0,0,1,"-RA,BR"
2026-04-08 21:30:00,METAR ZBAD 082130Z 10002MPS 4000 -RA BR OVC030 11/10 Q1001 NOSIG,0,2,0,4000,0,0,1,"-RA,BR"
2026-04-08 21:00:00,METAR ZBAD 082100Z 10001MPS 4000 -RA BR BKN030 11/10 Q1002 NOSIG,0,1,0,4000,0,0,1,"-RA,BR"
2026-04-08 20:30:00,METAR ZBAD 082030Z 10001MPS 4000 -RA BR BKN030 11/10 Q1002 NOSIG,0,1,0,4000,0,0,1,"-RA,BR"
2026-04-08 20:00:00,METAR ZBAD 082000Z 10002MPS 4000 -RA BR BKN030 11/10 Q1002 NOSIG,0,2,0,4000,0,0,1,"-RA,BR"
2026-04-08 19:30:00,METAR ZBAD 081930Z 10002MPS 4000 -RA BR BKN030 11/10 Q1002 NOSIG,0,2,0,4000,0,0,1,"-RA,BR"
2026-04-08 19:00:00,METAR ZBAD 081900Z 13001MPS 6000 -RA BKN030 11/M03 Q1003 NOSIG,0,1,0,6000,0,0,0,-RA
2026-04-08 18:30:00,METAR ZBAD 081830Z VRB01MPS 6000 -RA SCT010 BKN040 11/M03 Q1003 NOSIG,0,1,0,6000,0,0,0,-RA
2026-04-08 18:00:00,METAR ZBAD 081800Z VRB01MPS 6000 -RA SCT010 BKN040 11/M03 Q1004 NOSIG,0,1,0,6000,0,0,0,-RA
2026-04-08 17:30:00,METAR ZBAD 081730Z 25001MPS 6000 -RA SCT010 BKN040 11/M02 Q1004 NOSIG,0,1,0,6000,0,0,0,-RA
2026-04-08 17:00:00,METAR ZBAD 081700Z 24002MPS 6000 -RA SCT010 BKN040 12/M02 Q1005 NOSIG,0,2,0,6000,0,0,0,-RA
2026-04-08 16:30:00,METAR ZBAD 081630Z 25003MPS 190V270 6000 -RA SCT010 12/M02 Q1005 NOSIG,0,3,0,6000,0,0,0,-RA
2026-04-08 16:00:00,METAR ZBAD 081600Z 26003MPS 240V310 6000 -RA SCT010 12/M02 Q1005 NOSIG,0,3,0,6000,0,0,0,-RA
2026-04-08 15:30:00,METAR ZBAD 081530Z 27003MPS 6000 -RA SCT010 12/M01 Q1006 NOSIG,0,3,0,6000,0,0,0,-RA
2026-04-08 15:00:00,METAR ZBAD 081500Z 25004MPS 6000 -RA NSC 13/M01 Q1006 NOSIG,0,4,0,6000,0,0,0,-RA
2026-04-08 14:30:00,METAR ZBAD 081430Z 23003MPS 8000 -SHRA NSC 14/M01 Q1006 NOSIG,0,3,0,8000,0,0,0,RA
2026-04-08 14:00:00,METAR ZBAD 081400Z 23002MPS 180V250 8000 -SHRA NSC 14/M00 Q1006 NOSIG,0,2,0,8000,0,0,0,RA
2026-04-08 13:30:00,METAR ZBAD 081330Z VRB01MPS 8000 NSC 15/00 Q1006 NOSIG,0,1,0,8000,0,0,0,
2026-04-08 13:00:00,METAR ZBAD 081300Z 26002MPS 9999 -SHRA NSC 15/00 Q1006 NOSIG,0,2,0,10000,0,0,0,RA
2026-04-08 12:30:00,METAR ZBAD 081230Z VRB01MPS CAVOK 15/01 Q1006 NOSIG,1,0,0,9999,0,0,0,
2026-04-08 12:00:00,METAR ZBAD 081200Z 22001MPS CAVOK 15/01 Q1006 NOSIG,1,0,0,9999,0,0,0,
2026-04-08 11:30:00,METAR ZBAD 081130Z 22001MPS 9999 -SHRA NSC 16/01 Q1006 NOSIG,0,1,0,10000,0,0,0,RA
2026-04-08 11:00:00,METAR ZBAD 081100Z 22001MPS 9999 -SHRA NSC 16/02 Q1006 NOSIG,0,1,0,10000,0,0,0,RA
2026-04-08 10:30:00,METAR ZBAD 081030Z VRB01MPS CAVOK 17/02 Q1006 NOSIG,1,0,0,9999,0,0,0,
2026-04-08 10:00:00,METAR ZBAD 081000Z 22002MPS CAVOK 17/02 Q1006 NOSIG,1,0,0,9999,0,0,0,
2026-04-08 09:30:00,METAR ZBAD 080930Z 22002MPS 170V240 CAVOK 17/03 Q1006 NOSIG,1,0,0,9999,0,0,0,
2026-04-08 09:00:00,METAR ZBAD 080900Z 21003MPS 120V260 CAVOK 18/03 Q1006 NOSIG,1,0,0,9999,0,0,0,
2026-04-08 08:30:00,METAR ZBAD 080830Z 23004MPS CAVOK 18/03 Q1007 NOSIG,1,0,0,9999,0,0,0,
2026-04-08 08:00:00,METAR ZBAD 080800Z 23004MPS CAVOK 18/03 Q1007 NOSIG,1,0,0,9999,0,0,0,
2026-04-08 07:30:00,METAR ZBAD 080730Z 22005MPS CAVOK 19/04 Q1007 NOSIG,1,0,0,9999,0,0,0,
2026-04-08 07:00:00,METAR ZBAD 080700Z 24003MPS 210V280 CAVOK 19/08 Q1007 NOSIG,1,0,0,9999,0,0,0,
2026-04-08 06:30:00,METAR ZBAD 080630Z 22005MPS 180V250 CAVOK 18/07 Q1007 NOSIG,1,0,0,9999,0,0,0,
2026-04-08 06:00:00,METAR ZBAD 080600Z 21005MPS 180V250 CAVOK 20/07 Q1008 NOSIG,1,0,0,9999,0,0,0,
2026-04-08 05:30:00,METAR ZBAD 080530Z 21004MPS 180V240 CAVOK 19/06 Q1008 NOSIG,1,0,0,9999,0,0,0,
2026-04-08 05:00:00,METAR ZBAD 080500Z 21005MPS 180V250 CAVOK 19/05 Q1009 NOSIG,1,0,0,9999,0,0,0,
2026-04-08 04:30:00,METAR ZBAD 080430Z VRB02MPS CAVOK 18/04 Q1009 NOSIG,1,0,0,9999,0,0,0,
2026-04-08 04:00:00,METAR ZBAD 080400Z 23004MPS 180V280 CAVOK 17/02 Q1010 NOSIG,1,0,0,9999,0,0,0,
2026-04-08 03:30:00,METAR ZBAD 080330Z VRB02MPS CAVOK 17/02 Q1011 NOSIG,1,0,0,9999,0,0,0,
2026-04-08 03:00:00,METAR ZBAD 080300Z VRB02MPS CAVOK 15/01 Q1011 BECMG TL0440 20005MPS,1,0,0,9999,0,0,0,
2026-04-08 02:30:00,METAR ZBAD 080230Z 17002MPS 130V230 CAVOK 13/00 Q1012 NOSIG,1,0,0,9999,0,0,0,
2026-04-08 02:00:00,METAR ZBAD 080200Z VRB01MPS CAVOK 12/00 Q1012 NOSIG,1,0,0,9999,0,0,0,
2026-04-08 01:30:00,METAR ZBAD 080130Z VRB01MPS CAVOK 11/M00 Q1013 NOSIG,1,0,0,9999,0,0,0,
2026-04-08 01:00:00,METAR ZBAD 080100Z VRB01MPS CAVOK 10/M01 Q1013 NOSIG,1,0,0,9999,0,0,0,
2026-04-08 00:30:00,METAR ZBAD 080030Z VRB01MPS CAVOK 09/M01 Q1013 NOSIG,1,0,0,9999,0,0,0,
2026-04-08 00:00:00,METAR ZBAD 080000Z VRB01MPS CAVOK 08/M01 Q1013 NOSIG,1,0,0,9999,0,0,0,
2026-04-07 23:30:00,METAR ZBAD 072330Z VRB01MPS CAVOK 07/M01 Q1013 NOSIG,1,0,0,9999,0,0,0,
2026-04-07 23:00:00,METAR ZBAD 072300Z VRB01MPS CAVOK 07/M00 Q1013 NOSIG,1,0,0,9999,0,0,0,
2026-04-07 22:30:00,METAR ZBAD 072230Z 32001MPS CAVOK 04/M01 Q1013 NOSIG,1,0,0,9999,0,0,0,
2026-04-07 22:00:00,METAR ZBAD 072200Z 34001MPS CAVOK 04/M02 Q1013 NOSIG,1,0,0,9999,0,0,0,
2026-04-07 21:30:00,METAR ZBAD 072130Z 00000MPS CAVOK 04/M02 Q1012 NOSIG,1,0,0,9999,0,0,0,
2026-04-07 21:00:00,METAR ZBAD 072100Z 15001MPS CAVOK 05/M02 Q1012 NOSIG,1,0,0,9999,0,0,0,
2026-04-07 20:30:00,METAR ZBAD 072030Z 16001MPS CAVOK 05/M01 Q1013 NOSIG,1,0,0,9999,0,0,0,
2026-04-07 20:00:00,METAR ZBAD 072000Z 19001MPS CAVOK 05/M01 Q1013 NOSIG,1,0,0,9999,0,0,0,
2026-04-07 19:30:00,METAR ZBAD 071930Z 19002MPS CAVOK 05/M01 Q1013 NOSIG,1,0,0,9999,0,0,0,
2026-04-07 19:00:00,METAR ZBAD 071900Z 19002MPS CAVOK 05/M02 Q1013 NOSIG,1,0,0,9999,0,0,0,
2026-04-07 18:30:00,METAR ZBAD 071830Z 18002MPS CAVOK 06/M02 Q1014 NOSIG,1,0,0,9999,0,0,0,
2026-04-07 18:00:00,METAR ZBAD 071800Z 17002MPS CAVOK 05/M02 Q1014 NOSIG,1,0,0,9999,0,0,0,
2026-04-07 17:30:00,METAR ZBAD 071730Z 18002MPS CAVOK 06/M02 Q1015 NOSIG,1,0,0,9999,0,0,0,
2026-04-07 17:00:00,METAR ZBAD 071700Z 17003MPS CAVOK 05/M02 Q1015 NOSIG,1,0,0,9999,0,0,0,
2026-04-07 16:30:00,METAR ZBAD 071630Z 17003MPS CAVOK 06/M02 Q1015 NOSIG,1,0,0,9999,0,0,0,
2026-04-07 16:00:00,METAR ZBAD 071600Z 18005MPS CAVOK 07/M03 Q1015 NOSIG,1,0,0,9999,0,0,0,
2026-04-07 15:30:00,METAR ZBAD 071530Z 18004MPS CAVOK 08/M03 Q1016 NOSIG,1,0,0,9999,0,0,0,
2026-04-07 15:00:00,METAR ZBAD 071500Z 18004MPS CAVOK 08/M03 Q1016 NOSIG,1,0,0,9999,0,0,0,
2026-04-07 14:30:00,METAR ZBAD 071430Z 17004MPS CAVOK 07/M03 Q1016 NOSIG,1,0,0,9999,0,0,0,
2026-04-07 14:00:00,METAR ZBAD 071400Z 16003MPS CAVOK 07/M03 Q1016 NOSIG,1,0,0,9999,0,0,0,
2026-04-07 13:30:00,METAR ZBAD 071330Z 17004MPS CAVOK 08/M03 Q1017 NOSIG,1,0,0,9999,0,0,0,
2026-04-07 13:00:00,METAR ZBAD 071300Z 16004MPS CAVOK 10/M03 Q1016 NOSIG,1,0,0,9999,0,0,0,
2026-04-07 12:30:00,METAR ZBAD 071230Z 18002MPS CAVOK 10/M05 Q1016 NOSIG,1,0,0,9999,0,0,0,
2026-04-07 12:00:00,METAR ZBAD 071200Z 21003MPS CAVOK 11/M05 Q1016 NOSIG,1,0,0,9999,0,0,0,
2026-04-07 11:30:00,METAR ZBAD 071130Z 21002MPS CAVOK 12/M06 Q1016 NOSIG,1,0,0,9999,0,0,0,
2026-04-07 11:00:00,METAR ZBAD 071100Z 23003MPS CAVOK 12/M06 Q1016 NOSIG,1,0,0,9999,0,0,0,
2026-04-07 10:30:00,METAR ZBAD 071030Z 22004MPS CAVOK 13/M07 Q1016 NOSIG,1,0,0,9999,0,0,0,
2026-04-07 10:00:00,METAR ZBAD 071000Z 23005MPS CAVOK 14/M07 Q1016 NOSIG,1,0,0,9999,0,0,0,
2026-04-07 09:30:00,METAR ZBAD 070930Z 22005MPS CAVOK 15/M08 Q1016 NOSIG,1,0,0,9999,0,0,0,
2026-04-07 09:00:00,METAR ZBAD 070900Z 22005MPS 190V250 CAVOK 15/M09 Q1016 NOSIG,1,0,0,9999,0,0,0,
2026-04-07 08:30:00,METAR ZBAD 070830Z 22005MPS 190V250 CAVOK 15/M09 Q1017 NOSIG,1,0,0,9999,0,0,0,
2026-04-07 08:00:00,METAR ZBAD 070800Z 23006MPS 210V270 CAVOK 15/M09 Q1017 NOSIG,1,0,0,9999,0,0,0,
2026-04-07 07:30:00,METAR ZBAD 070730Z 22005MPS 170V260 CAVOK 16/M09 Q1017 NOSIG,1,0,0,9999,0,0,0,
2026-04-07 07:00:00,METAR ZBAD 070700Z 21006MPS CAVOK 15/M10 Q1018 NOSIG,1,0,0,9999,0,0,0,
2026-04-07 06:30:00,METAR ZBAD 070630Z 23004MPS 170V260 CAVOK 15/M09 Q1018 NOSIG,1,0,0,9999,0,0,0,
2026-04-07 06:00:00,METAR ZBAD 070600Z 26004G09MPS 220V290 CAVOK 15/M09 Q1019 NOSIG,1,0,0,9999,0,0,0,
2026-04-07 05:30:00,METAR ZBAD 070530Z 25007MPS 210V290 CAVOK 15/M10 Q1020 NOSIG,1,0,0,9999,0,0,0,
2026-04-07 05:00:00,METAR ZBAD 070500Z 21006MPS 180V250 CAVOK 14/M11 Q1020 NOSIG,1,0,0,9999,0,0,0,
2026-04-07 04:30:00,METAR ZBAD 070430Z 22005MPS 180V280 CAVOK 14/M11 Q1021 NOSIG,1,0,0,9999,0,0,0,
2026-04-07 04:00:00,METAR ZBAD 070400Z VRB03MPS CAVOK 13/M12 Q1021 NOSIG,1,0,0,9999,0,0,0,
2026-04-07 03:30:00,METAR ZBAD 070330Z VRB03MPS CAVOK 13/M12 Q1022 NOSIG,1,0,0,9999,0,0,0,
2026-04-07 03:00:00,METAR ZBAD 070300Z VRB02MPS CAVOK 12/M14 Q1022 BECMG TL0440 20006MPS,1,0,0,9999,0,0,0,
2026-04-07 02:30:00,METAR ZBAD 070230Z VRB02MPS CAVOK 13/M13 Q1023 NOSIG,1,0,0,9999,0,0,0,
2026-04-07 02:00:00,METAR ZBAD 070200Z VRB02MPS CAVOK 11/M13 Q1023 NOSIG,1,0,0,9999,0,0,0,
2026-04-07 01:30:00,METAR ZBAD 070130Z VRB02MPS CAVOK 10/M13 Q1023 NOSIG,1,0,0,9999,0,0,0,
2026-04-07 01:00:00,METAR ZBAD 070100Z 09002MPS 050V150 CAVOK 10/M14 Q1023 NOSIG,1,0,0,9999,0,0,0,
2026-04-07 00:30:00,METAR ZBAD 070030Z 05003MPS CAVOK 09/M14 Q1023 NOSIG,1,0,0,9999,0,0,0,
2026-04-07 00:00:00,METAR ZBAD 070000Z 03004MPS 010V070 CAVOK 09/M13 Q1023 NOSIG,1,0,0,9999,0,0,0,
2026-04-06 23:30:00,METAR ZBAD 062330Z 03005MPS CAVOK 08/M13 Q1023 NOSIG,1,0,0,9999,0,0,0,
2026-04-06 23:00:00,METAR ZBAD 062300Z 02006MPS CAVOK 07/M13 Q1023 NOSIG,1,0,0,9999,0,0,0,
2026-04-06 22:30:00,METAR ZBAD 062230Z 02005MPS CAVOK 06/M13 Q1022 NOSIG,1,0,0,9999,0,0,0,
2026-04-06 22:00:00,METAR ZBAD 062200Z 01003MPS CAVOK 04/M13 Q1022 NOSIG,1,0,0,9999,0,0,0,
2026-04-06 21:30:00,METAR ZBAD 062130Z 02004MPS CAVOK 06/M13 Q1022 NOSIG,1,0,0,9999,0,0,0,
2026-04-06 21:00:00,METAR ZBAD 062100Z 03006MPS CAVOK 07/M14 Q1021 NOSIG,1,0,0,9999,0,0,0,
2026-04-06 20:30:00,METAR ZBAD 062030Z 03006MPS CAVOK 07/M14 Q1021 NOSIG,1,0,0,9999,0,0,0,
2026-04-06 20:00:00,METAR ZBAD 062000Z 04005MPS CAVOK 07/M14 Q1021 NOSIG,1,0,0,9999,0,0,0,
2026-04-06 19:30:00,METAR ZBAD 061930Z 05008MPS CAVOK 08/M15 Q1021 NOSIG,1,0,0,9999,0,0,0,
2026-04-06 19:00:00,METAR ZBAD 061900Z 05006MPS CAVOK 08/M15 Q1021 NOSIG,1,0,0,9999,0,0,0,
2026-04-06 18:30:00,METAR ZBAD 061830Z 05007MPS CAVOK 09/M15 Q1021 NOSIG,1,0,0,9999,0,0,0,
2026-04-06 18:00:00,METAR ZBAD 061800Z 06007MPS CAVOK 09/M14 Q1020 NOSIG,1,0,0,9999,0,0,0,
2026-04-06 17:30:00,METAR ZBAD 061730Z 06007MPS CAVOK 09/M14 Q1020 NOSIG,1,0,0,9999,0,0,0,
2026-04-06 17:00:00,METAR ZBAD 061700Z 06008MPS CAVOK 10/M14 Q1020 NOSIG,1,0,0,9999,0,0,0,
2026-04-06 16:30:00,METAR ZBAD 061630Z 05009MPS CAVOK 10/M14 Q1019 NOSIG,1,0,0,9999,0,0,0,
2026-04-06 16:00:00,METAR ZBAD 061600Z 05010MPS CAVOK 11/M15 Q1019 NOSIG,1,0,0,9999,0,0,0,
2026-04-06 15:30:00,METAR ZBAD 061530Z 05010MPS CAVOK 12/M16 Q1018 NOSIG,1,0,0,9999,0,0,0,
2026-04-06 15:00:00,METAR ZBAD 061500Z 05008MPS CAVOK 13/M16 Q1018 NOSIG,1,0,0,9999,0,0,0,
2026-04-06 14:30:00,METAR ZBAD 061430Z 05009MPS CAVOK 13/M16 Q1017 NOSIG,1,0,0,9999,0,0,0,
2026-04-06 14:00:00,METAR ZBAD 061400Z 05010MPS CAVOK 13/M17 Q1016 NOSIG,1,0,0,9999,0,0,0,
2026-04-06 13:30:00,METAR ZBAD 061330Z 05006MPS CAVOK 15/M14 Q1015 NOSIG,1,0,0,9999,0,0,0,
2026-04-06 13:00:00,METAR ZBAD 061300Z 05006MPS CAVOK 15/M14 Q1014 NOSIG,1,0,0,9999,0,0,0,
2026-04-06 12:30:00,METAR ZBAD 061230Z 05007MPS CAVOK 15/M15 Q1013 NOSIG,1,0,0,9999,0,0,0,
2026-04-06 12:00:00,METAR ZBAD 061200Z 01007MPS CAVOK 16/M10 Q1012 NOSIG,1,0,0,9999,0,0,0,
2026-04-06 11:30:00,METAR ZBAD 061130Z 36006MPS CAVOK 16/M08 Q1012 NOSIG,1,0,0,9999,0,0,0,
2026-04-06 11:00:00,METAR ZBAD 061100Z 36005MPS CAVOK 15/M07 Q1011 NOSIG,1,0,0,9999,0,0,0,
2026-04-06 10:30:00,METAR ZBAD 061030Z 01007MPS CAVOK 16/M08 Q1010 NOSIG,1,0,0,9999,0,0,0,
2026-04-06 10:00:00,METAR ZBAD 061000Z COR 02004MPS 350V060 CAVOK 17/M07 Q1010 BECMG TL1140 03009MPS,1,0,0,9999,0,0,0,
2026-04-06 09:30:00,METAR ZBAD 060930Z 01002MPS 310V050 CAVOK 17/M09 Q1009 NOSIG,1,0,0,9999,0,0,0,
2026-04-06 09:00:00,METAR ZBAD 060900Z 02003MPS 320V060 CAVOK 17/M08 Q1009 BECMG TL1040 36008MPS,1,0,0,9999,0,0,0,
2026-04-06 08:30:00,METAR ZBAD 060830Z 36002MPS 260V060 CAVOK 18/M08 Q1009 NOSIG,1,0,0,9999,0,0,0,
2026-04-06 08:00:00,METAR ZBAD 060800Z VRB02MPS CAVOK 18/M08 Q1009 BECMG TL0920 28005MPS,1,0,0,9999,0,0,0,
2026-04-06 07:30:00,METAR ZBAD 060730Z 28005MPS CAVOK 18/M07 Q1009 NOSIG,1,0,0,9999,0,0,0,
2026-04-06 07:00:00,METAR ZBAD 060700Z 27003MPS 220V320 CAVOK 18/M08 Q1009 NOSIG,1,0,0,9999,0,0,0,
2026-04-06 06:30:00,METAR ZBAD 060630Z 24004G10MPS 170V300 CAVOK 18/M08 Q1010 NOSIG,1,0,0,9999,0,0,0,
2026-04-06 06:00:00,METAR ZBAD 060600Z 23004MPS 200V330 CAVOK 17/M08 Q1010 NOSIG,1,0,0,9999,0,0,0,
2026-04-06 05:30:00,METAR ZBAD 060530Z 23004MPS 180V310 CAVOK 17/M08 Q1010 NOSIG,1,0,0,9999,0,0,0,
2026-04-06 05:00:00,METAR ZBAD 060500Z 23005MPS 190V270 CAVOK 16/M09 Q1011 NOSIG,1,0,0,9999,0,0,0,
2026-04-06 04:30:00,METAR ZBAD 060430Z 24005MPS 200V300 CAVOK 16/M09 Q1011 NOSIG,1,0,0,9999,0,0,0,
2026-04-06 04:10:00,SPECI ZBAD 060410Z 22006MPS 200V260 CAVOK 17/M08 Q1011 NOSIG,1,0,0,9999,0,0,0,
2026-04-06 04:02:00,SPECI ZBAD 060402Z 29006MPS CAVOK 17/M08 Q1012 NOSIG,1,0,0,9999,0,0,0,
2026-04-06 04:00:00,METAR ZBAD 060400Z 23007MPS 190V280 CAVOK 17/M08 Q1012 NOSIG,1,0,0,9999,0,0,0,
2026-04-06 03:30:00,METAR ZBAD 060330Z 24007MPS 210V270 CAVOK 15/M08 Q1012 NOSIG,1,0,0,9999,0,0,0,
2026-04-06 03:00:00,METAR ZBAD 060300Z 24005MPS 200V260 CAVOK 15/M08 Q1013 NOSIG,1,0,0,9999,0,0,0,
2026-04-06 02:30:00,METAR ZBAD 060230Z 25005MPS 180V290 CAVOK 14/M10 Q1013 NOSIG,1,0,0,9999,0,0,0,
2026-04-06 02:00:00,METAR ZBAD 060200Z 26004MPS 220V300 CAVOK 14/M10 Q1013 NOSIG,1,0,0,9999,0,0,0,
2026-04-06 01:30:00,METAR ZBAD 060130Z 22003MPS 170V270 CAVOK 13/M09 Q1013 NOSIG,1,0,0,9999,0,0,0,
2026-04-06 01:00:00,METAR ZBAD 060100Z 14002MPS 090V200 CAVOK 13/M09 Q1014 NOSIG,1,0,0,9999,0,0,0,
2026-04-06 00:30:00,METAR ZBAD 060030Z 14002MPS 080V180 CAVOK 12/M09 Q1014 NOSIG,1,0,0,9999,0,0,0,
2026-04-06 00:00:00,METAR ZBAD 060000Z 17002MPS 140V210 CAVOK 11/M10 Q1014 NOSIG,1,0,0,9999,0,0,0,
2026-04-05 23:30:00,METAR ZBAD 052330Z 22002MPS CAVOK 10/M08 Q1013 NOSIG,1,0,0,9999,0,0,0,
2026-04-05 23:00:00,METAR ZBAD 052300Z 18001MPS CAVOK 07/M08 Q1013 NOSIG,1,0,0,9999,0,0,0,
2026-04-05 22:30:00,METAR ZBAD 052230Z 16002MPS CAVOK 06/M08 Q1013 NOSIG,1,0,0,9999,0,0,0,
2026-04-05 22:00:00,METAR ZBAD 052200Z 15002MPS 120V190 CAVOK 07/M09 Q1013 NOSIG,1,0,0,9999,0,0,0,
2026-04-05 21:30:00,METAR ZBAD 052130Z VRB02MPS CAVOK 08/M10 Q1013 NOSIG,1,0,0,9999,0,0,0,
2026-04-05 21:00:00,METAR ZBAD 052100Z 04004MPS CAVOK 10/M08 Q1013 NOSIG,1,0,0,9999,0,0,0,
2026-04-05 20:30:00,METAR ZBAD 052030Z 08003MPS CAVOK 09/M11 Q1012 NOSIG,1,0,0,9999,0,0,0,
2026-04-05 20:00:00,METAR ZBAD 052000Z 08003MPS CAVOK 09/M11 Q1013 NOSIG,1,0,0,9999,0,0,0,
2026-04-05 19:30:00,METAR ZBAD 051930Z 09003MPS CAVOK 09/M12 Q1013 NOSIG,1,0,0,9999,0,0,0,
2026-04-05 19:00:00,METAR ZBAD 051900Z 06003MPS CAVOK 10/M13 Q1012 NOSIG,1,0,0,9999,0,0,0,
2026-04-05 18:30:00,METAR ZBAD 051830Z 07005MPS CAVOK 10/M14 Q1012 NOSIG,1,0,0,9999,0,0,0,
2026-04-05 18:00:00,METAR ZBAD 051800Z 03008MPS CAVOK 11/M14 Q1012 NOSIG,1,0,0,9999,0,0,0,
2026-04-05 17:30:00,METAR ZBAD 051730Z 03007MPS CAVOK 11/M14 Q1012 NOSIG,1,0,0,9999,0,0,0,
2026-04-05 17:00:00,METAR ZBAD 051700Z 02007MPS CAVOK 11/M14 Q1012 NOSIG,1,0,0,9999,0,0,0,
2026-04-05 16:30:00,METAR ZBAD 051630Z 04007MPS CAVOK 12/M16 Q1011 NOSIG,1,0,0,9999,0,0,0,
2026-04-05 16:00:00,METAR ZBAD 051600Z 04007MPS CAVOK 12/M16 Q1011 NOSIG,1,0,0,9999,0,0,0,
2026-04-05 15:00:00,METAR ZBAD 051500Z 06005MPS CAVOK 12/M16 Q1011 NOSIG,1,0,0,9999,0,0,0,
2026-04-05 13:00:00,METAR ZBAD 051300Z 02006MPS CAVOK 15/M16 Q1010 NOSIG,1,0,0,9999,0,0,0,
2026-04-05 12:30:00,METAR ZBAD 051230Z 04004MPS CAVOK 15/M16 Q1009 NOSIG,1,0,0,9999,0,0,0,
2026-04-05 12:00:00,METAR ZBAD 051200Z 03004MPS 350V050 CAVOK 15/M16 Q1008 NOSIG,1,0,0,9999,0,0,0,
2026-04-05 11:30:00,METAR ZBAD 051130Z 35007MPS CAVOK 15/M15 Q1008 NOSIG,1,0,0,9999,0,0,0,
2026-04-05 11:00:00,METAR ZBAD 051100Z 36010MPS CAVOK 16/M16 Q1007 BECMG TL1240 01005MPS,1,0,0,9999,0,0,0,
2026-04-05 10:30:00,METAR ZBAD 051030Z 36013G18MPS CAVOK 16/M16 Q1005 NOSIG,1,0,0,9999,0,0,0,
2026-04-05 10:00:00,METAR ZBAD 051000Z 35012MPS CAVOK 17/M14 Q1005 NOSIG,1,0,0,9999,0,0,0,
2026-04-05 09:30:00,METAR ZBAD 050930Z 35011G18MPS CAVOK 18/M13 Q1005 NOSIG,1,0,0,9999,0,0,0,
2026-04-05 09:00:00,METAR ZBAD 050900Z 36013MPS CAVOK 18/M13 Q1004 NOSIG,1,0,0,9999,0,0,0,
2026-04-05 08:30:00,METAR ZBAD 050830Z 35013MPS CAVOK 19/M12 Q1004 NOSIG,1,0,0,9999,0,0,0,
2026-04-05 08:00:00,METAR ZBAD 050800Z 36011MPS CAVOK 19/M11 Q1004 NOSIG,1,0,0,9999,0,0,0,
2026-04-05 07:30:00,METAR ZBAD 050730Z 36011G17MPS CAVOK 20/M10 Q1004 NOSIG,1,0,0,9999,0,0,0,
2026-04-05 07:00:00,METAR ZBAD 050700Z 36011MPS CAVOK 20/M10 Q1003 NOSIG,1,0,0,9999,0,0,0,
2026-04-05 06:30:00,METAR ZBAD 050630Z 36012MPS CAVOK 20/M10 Q1003 NOSIG,1,0,0,9999,0,0,0,
2026-04-05 06:00:00,METAR ZBAD 050600Z 36011MPS CAVOK 20/M10 Q1003 NOSIG,1,0,0,9999,0,0,0,
2026-04-05 05:30:00,METAR ZBAD 050530Z 35008G13MPS CAVOK 20/M11 Q1003 NOSIG,1,0,0,9999,0,0,0,
2026-04-05 05:00:00,METAR ZBAD 050500Z 36009MPS 320V040 CAVOK 20/M09 Q1004 NOSIG,1,0,0,9999,0,0,0,
2026-04-05 04:30:00,METAR ZBAD 050430Z 36010G15MPS CAVOK 19/M10 Q1004 NOSIG,1,0,0,9999,0,0,0,
2026-04-05 04:00:00,METAR ZBAD 050400Z 35008MPS CAVOK 19/M09 Q1004 NOSIG,1,0,0,9999,0,0,0,
2026-04-05 03:30:00,METAR ZBAD 050330Z 01010MPS CAVOK 19/M09 Q1004 NOSIG,1,0,0,9999,0,0,0,
2026-04-05 03:00:00,METAR ZBAD 050300Z 36009MPS CAVOK 19/M09 Q1004 NOSIG,1,0,0,9999,0,0,0,
2026-04-05 02:30:00,METAR ZBAD 050230Z 36009MPS CAVOK 19/M10 Q1004 NOSIG,1,0,0,9999,0,0,0,
2026-04-05 02:00:00,METAR ZBAD 050200Z 36011MPS CAVOK 18/M10 Q1004 NOSIG,1,0,0,9999,0,0,0,
2026-04-05 01:30:00,METAR ZBAD 050130Z 33009G14MPS CAVOK 18/M09 Q1004 NOSIG,1,0,0,9999,0,0,0,
2026-04-05 01:00:00,METAR ZBAD 050100Z 33005MPS CAVOK 15/01 Q1004 NOSIG,1,0,0,9999,0,0,0,
2026-04-05 00:30:00,METAR ZBAD 050030Z 21002MPS 180V240 CAVOK 11/04 Q1004 NOSIG,1,0,0,9999,0,0,0,
2026-04-05 00:00:00,METAR ZBAD 050000Z VRB01MPS CAVOK 10/04 Q1003 BECMG TL0140 35006MPS,1,0,0,9999,0,0,0,
2026-04-04 23:30:00,METAR ZBAD 042330Z 09003MPS CAVOK 08/03 Q1003 NOSIG,1,0,0,9999,0,0,0,
2026-04-04 23:00:00,METAR ZBAD 042300Z 12002MPS CAVOK 07/03 Q1002 BECMG TL0040 35005MPS,1,0,0,9999,0,0,0,
2026-04-04 22:30:00,METAR ZBAD 042230Z 06003MPS CAVOK 07/03 Q1002 NOSIG,1,0,0,9999,0,0,0,
2026-04-04 22:00:00,METAR ZBAD 042200Z 05003MPS CAVOK 07/03 Q1002 BECMG TL2340 35005MPS,1,0,0,9999,0,0,0,
2026-04-04 21:30:00,METAR ZBAD 042130Z 03003MPS CAVOK 07/03 Q1002 NOSIG,1,0,0,9999,0,0,0,
2026-04-04 21:00:00,METAR ZBAD 042100Z 02003MPS CAVOK 06/03 Q1001 NOSIG,1,0,0,9999,0,0,0,
2026-04-04 20:30:00,METAR ZBAD 042030Z 36003MPS CAVOK 06/03 Q1001 NOSIG,1,0,0,9999,0,0,0,
2026-04-04 20:00:00,METAR ZBAD 042000Z 35002MPS 330V040 CAVOK 06/03 Q1001 NOSIG,1,0,0,9999,0,0,0,
2026-04-04 19:30:00,METAR ZBAD 041930Z 04003MPS CAVOK 08/03 Q1001 NOSIG,1,0,0,9999,0,0,0,
2026-04-04 19:00:00,METAR ZBAD 041900Z 01003MPS CAVOK 07/03 Q1001 NOSIG,1,0,0,9999,0,0,0,
2026-04-04 18:30:00,METAR ZBAD 041830Z 02003MPS CAVOK 08/04 Q1001 NOSIG,1,0,0,9999,0,0,0,
2026-04-04 18:00:00,METAR ZBAD 041800Z 05003MPS CAVOK 09/04 Q1001 NOSIG,1,0,0,9999,0,0,0,
2026-04-04 17:30:00,METAR ZBAD 041730Z 07003MPS 030V100 CAVOK 09/04 Q1001 NOSIG,1,0,0,9999,0,0,0,
2026-04-04 17:00:00,METAR ZBAD 041700Z 10005MPS CAVOK 09/04 Q1001 NOSIG,1,0,0,9999,0,0,0,
2026-04-04 16:30:00,METAR ZBAD 041630Z 08006MPS CAVOK 11/03 Q1001 NOSIG,1,0,0,9999,0,0,0,
2026-04-04 16:00:00,METAR ZBAD 041600Z 07004MPS CAVOK 12/03 Q1002 NOSIG,1,0,0,9999,0,0,0,
2026-04-04 15:30:00,METAR ZBAD 041530Z VRB01MPS CAVOK 11/02 Q1001 NOSIG,1,0,0,9999,0,0,0,
2026-04-04 15:00:00,METAR ZBAD 041500Z 14004MPS CAVOK 10/02 Q1001 NOSIG,1,0,0,9999,0,0,0,
2026-04-04 14:30:00,METAR ZBAD 041430Z VRB01MPS CAVOK 11/02 Q1002 NOSIG,1,0,0,9999,0,0,0,
2026-04-04 14:00:00,METAR ZBAD 041400Z 16003MPS CAVOK 12/02 Q1000 NOSIG,1,0,0,9999,0,0,0,
2026-04-04 13:30:00,METAR ZBAD 041330Z 16003MPS CAVOK 12/02 Q1001 NOSIG,1,0,0,9999,0,0,0,
2026-04-04 13:00:00,METAR ZBAD 041300Z 16003MPS CAVOK 12/01 Q1001 NOSIG,1,0,0,9999,0,0,0,
2026-04-04 12:30:00,METAR ZBAD 041230Z 15003MPS CAVOK 12/01 Q1000 NOSIG,1,0,0,9999,0,0,0,
2026-04-04 12:00:00,METAR ZBAD 041200Z 16004MPS CAVOK 13/01 Q1000 NOSIG,1,0,0,9999,0,0,0,
2026-04-04 11:30:00,METAR ZBAD 041130Z 17004MPS CAVOK 12/01 Q1000 NOSIG,1,0,0,9999,0,0,0,
2026-04-04 11:00:00,METAR ZBAD 041100Z 19004MPS CAVOK 14/00 Q1000 NOSIG,1,0,0,9999,0,0,0,
2026-04-04 10:30:00,METAR ZBAD 041030Z 21007MPS CAVOK 16/00 Q1000 NOSIG,1,0,0,9999,0,0,0,
2026-04-04 10:00:00,METAR ZBAD 041000Z 20008MPS CAVOK 16/00 Q1000 NOSIG,1,0,0,9999,0,0,0,
2026-04-04 09:30:00,METAR ZBAD 040930Z 20008G13MPS CAVOK 17/00 Q1000 NOSIG,1,0,0,9999,0,0,0,
2026-04-04 09:00:00,METAR ZBAD 040900Z 21009MPS CAVOK 17/M01 Q1001 NOSIG,1,0,0,9999,0,0,0,
2026-04-04 08:30:00,METAR ZBAD 040830Z 20008MPS 180V240 CAVOK 17/M00 Q1001 NOSIG,1,0,0,9999,0,0,0,
2026-04-04 08:00:00,METAR ZBAD 040800Z 20007G13MPS 160V240 CAVOK 17/M01 Q1002 NOSIG,1,0,0,9999,0,0,0,
2026-04-04 07:30:00,METAR ZBAD 040730Z 19008MPS CAVOK 18/M00 Q1002 NOSIG,1,0,0,9999,0,0,0,
2026-04-04 07:00:00,METAR ZBAD 040700Z 21009MPS CAVOK 17/M01 Q1003 NOSIG,1,0,0,9999,0,0,0,
2026-04-04 06:30:00,METAR ZBAD 040630Z 20008MPS 170V240 CAVOK 17/M02 Q1003 NOSIG,1,0,0,9999,0,0,0,
2026-04-04 06:00:00,METAR ZBAD 040600Z 21008MPS 180V240 CAVOK 18/M03 Q1004 NOSIG,1,0,0,9999,0,0,0,
2026-04-04 05:30:00,METAR ZBAD 040530Z 20008MPS CAVOK 17/M02 Q1005 NOSIG,1,0,0,9999,0,0,0,
2026-04-04 05:00:00,METAR ZBAD 040500Z 19008MPS 160V220 CAVOK 16/M02 Q1005 NOSIG,1,0,0,9999,0,0,0,
2026-04-04 04:30:00,METAR ZBAD 040430Z 22008MPS 180V240 CAVOK 16/M01 Q1006 NOSIG,1,0,0,9999,0,0,0,
2026-04-04 04:00:00,METAR ZBAD 040400Z 21007MPS CAVOK 16/00 Q1007 NOSIG,1,0,0,9999,0,0,0,
2026-04-04 03:30:00,METAR ZBAD 040330Z 21007MPS CAVOK 15/00 Q1008 NOSIG,1,0,0,9999,0,0,0,
2026-04-04 03:00:00,METAR ZBAD 040300Z 21007MPS 170V230 7000 NSC 14/01 Q1009 NOSIG,0,7,0,7000,0,0,0,
2026-04-04 02:30:00,METAR ZBAD 040230Z 20007MPS 7000 NSC 13/01 Q1010 NOSIG,0,7,0,7000,0,0,0,
2026-04-04 02:00:00,METAR ZBAD 040200Z 20007MPS 7000 NSC 13/02 Q1010 NOSIG,0,7,0,7000,0,0,0,
2026-04-04 01:30:00,METAR ZBAD 040130Z 20007MPS 7000 NSC 12/01 Q1010 NOSIG,0,7,0,7000,0,0,0,
2026-04-04 01:00:00,METAR ZBAD 040100Z 20006MPS 6000 NSC 11/02 Q1011 NOSIG,0,6,0,6000,0,0,0,
2026-04-04 00:30:00,METAR ZBAD 040030Z 21006MPS 6000 NSC 10/02 Q1011 NOSIG,0,6,0,6000,0,0,0,
2026-04-04 00:00:00,METAR ZBAD 040000Z 21005MPS 6000 NSC 09/03 Q1011 NOSIG,0,5,0,6000,0,0,0,
2026-04-03 23:30:00,METAR ZBAD 032330Z 22004MPS 6000 NSC 08/03 Q1011 NOSIG,0,4,0,6000,0,0,0,
2026-04-03 23:00:00,METAR ZBAD 032300Z 22004MPS 6000 NSC 07/03 Q1011 NOSIG,0,4,0,6000,0,0,0,
2026-04-03 22:30:00,METAR ZBAD 032230Z 22003MPS CAVOK 06/02 Q1011 NOSIG,1,0,0,9999,0,0,0,
2026-04-03 22:00:00,METAR ZBAD 032200Z 21003MPS CAVOK 05/00 Q1011 NOSIG,1,0,0,9999,0,0,0,
2026-04-03 21:30:00,METAR ZBAD 032130Z 21001MPS CAVOK 06/M02 Q1010 NOSIG,1,0,0,9999,0,0,0,
2026-04-03 21:00:00,METAR ZBAD 032100Z 14003MPS CAVOK 06/M05 Q1010 NOSIG,1,0,0,9999,0,0,0,
2026-04-03 20:30:00,METAR ZBAD 032030Z 07002MPS 010V110 CAVOK 06/M06 Q1010 NOSIG,1,0,0,9999,0,0,0,
2026-04-03 20:00:00,METAR ZBAD 032000Z 01002MPS CAVOK 05/M07 Q1010 NOSIG,1,0,0,9999,0,0,0,
2026-04-03 19:30:00,METAR ZBAD 031930Z 09002MPS CAVOK 08/M07 Q1010 NOSIG,1,0,0,9999,0,0,0,
2026-04-03 19:00:00,METAR ZBAD 031900Z 08002MPS CAVOK 10/M07 Q1011 NOSIG,1,0,0,9999,0,0,0,
2026-04-03 18:30:00,METAR ZBAD 031830Z 08003MPS CAVOK 10/M07 Q1011 NOSIG,1,0,0,9999,0,0,0,
2026-04-03 18:00:00,METAR ZBAD 031800Z 09003MPS CAVOK 09/M08 Q1011 NOSIG,1,0,0,9999,0,0,0,
2026-04-03 17:30:00,METAR ZBAD 031730Z 10003MPS CAVOK 10/M08 Q1011 NOSIG,1,0,0,9999,0,0,0,
2026-04-03 17:00:00,METAR ZBAD 031700Z 06004MPS CAVOK 13/M08 Q1011 NOSIG,1,0,0,9999,0,0,0,
2026-04-03 16:30:00,METAR ZBAD 031630Z 05005MPS CAVOK 13/M08 Q1011 NOSIG,1,0,0,9999,0,0,0,
2026-04-03 16:00:00,METAR ZBAD 031600Z 06004MPS CAVOK 13/M09 Q1011 NOSIG,1,0,0,9999,0,0,0,
2026-04-03 15:30:00,METAR ZBAD 031530Z 04005MPS CAVOK 14/M08 Q1010 NOSIG,1,0,0,9999,0,0,0,
2026-04-03 15:00:00,METAR ZBAD 031500Z 04005MPS CAVOK 15/M09 Q1010 NOSIG,1,0,0,9999,0,0,0,
2026-04-03 14:30:00,METAR ZBAD 031430Z 02005MPS CAVOK 14/M09 Q1010 NOSIG,1,0,0,9999,0,0,0,
2026-04-03 14:00:00,METAR ZBAD 031400Z 02007MPS CAVOK 15/M09 Q1010 NOSIG,1,0,0,9999,0,0,0,
2026-04-03 13:30:00,METAR ZBAD 031330Z 02007MPS CAVOK 15/M08 Q1009 NOSIG,1,0,0,9999,0,0,0,
2026-04-03 13:00:00,METAR ZBAD 031300Z 02007MPS CAVOK 16/M08 Q1009 NOSIG,1,0,0,9999,0,0,0,
2026-04-03 12:30:00,METAR ZBAD 031230Z 01006MPS CAVOK 16/M09 Q1008 NOSIG,1,0,0,9999,0,0,0,
2026-04-03 12:00:00,METAR ZBAD 031200Z 01010MPS CAVOK 17/M09 Q1007 NOSIG,1,0,0,9999,0,0,0,
2026-04-03 11:30:00,METAR ZBAD 031130Z 35010MPS CAVOK 18/M08 Q1006 NOSIG,1,0,0,9999,0,0,0,
2026-04-03 11:00:00,METAR ZBAD 031100Z 33008MPS CAVOK 18/M07 Q1005 NOSIG,1,0,0,9999,0,0,0,
2026-04-03 10:30:00,METAR ZBAD 031030Z 32009MPS CAVOK 19/M07 Q1005 NOSIG,1,0,0,9999,0,0,0,
2026-04-03 10:00:00,METAR ZBAD 031000Z 33012MPS CAVOK 20/M07 Q1004 NOSIG,1,0,0,9999,0,0,0,
2026-04-03 09:30:00,METAR ZBAD 030930Z 32012G17MPS CAVOK 21/M07 Q1003 NOSIG,1,0,0,9999,0,0,0,
2026-04-03 09:00:00,METAR ZBAD 030900Z 32012G17MPS CAVOK 22/M07 Q1002 NOSIG,1,0,0,9999,0,0,0,
2026-04-03 08:30:00,METAR ZBAD 030830Z 34010G15MPS CAVOK 22/M08 Q1002 NOSIG,1,0,0,9999,0,0,0,
2026-04-03 08:00:00,METAR ZBAD 030800Z 34012MPS CAVOK 22/M08 Q1001 NOSIG,1,0,0,9999,0,0,0,
2026-04-03 07:30:00,METAR ZBAD 030730Z 34011MPS 9999 FEW033 23/M08 Q1001 NOSIG,0,11,0,10000,0,0,0,
2026-04-03 07:00:00,METAR ZBAD 030700Z 31010MPS CAVOK 24/M05 Q1001 NOSIG,1,0,0,9999,0,0,0,
2026-04-03 06:30:00,METAR ZBAD 030630Z 33010MPS 9999 FEW026 23/M04 Q1000 NOSIG,0,10,0,10000,0,0,0,
2026-04-03 06:00:00,METAR ZBAD 030600Z 33007MPS 7000 -SHRA BKN026 21/07 Q1000 BECMG TL0740 35013G20MPS BLDU,0,7,0,7000,0,0,0,RA
2026-04-03 05:30:00,METAR ZBAD 030530Z 31004MPS 5000 DU FEW026 21/10 Q1000 NOSIG,0,4,0,5000,0,0,0,
2026-04-03 05:00:00,METAR ZBAD 030500Z 26003MPS 210V320 4000 DU NSC 22/11 Q1000 BECMG TL0640 35007MPS,0,3,0,4000,0,0,0,
2026-04-03 04:30:00,METAR ZBAD 030430Z VRB02MPS 4000 DU NSC 20/10 Q1000 NOSIG,0,2,0,4000,0,0,0,
2026-04-03 04:00:00,METAR ZBAD 030400Z 33002MPS 280V360 4000 DU NSC 21/11 Q1000 NOSIG,0,2,0,4000,0,0,0,
2026-04-03 03:47:00,SPECI ZBAD 030347Z 32005MPS 4000 DU NSC 20/11 Q1000 NOSIG,0,5,0,4000,0,0,0,
2026-04-03 03:30:00,METAR ZBAD 030330Z 24004MPS 200V290 4000 DU NSC 19/11 Q0999 NOSIG,0,4,0,4000,0,0,0,
2026-04-03 03:00:00,METAR ZBAD 030300Z 22004MPS 200V260 4000 DU NSC 18/11 Q0999 NOSIG,0,4,0,4000,0,0,0,
2026-04-03 02:30:00,METAR ZBAD 030230Z 21005MPS 180V240 4000 DU NSC 18/10 Q0999 NOSIG,0,5,0,4000,0,0,0,
2026-04-03 02:00:00,METAR ZBAD 030200Z COR 21005MPS 180V250 4000 HZ NSC 16/10 Q1000 BECMG TL0340 27005MPS,0,5,0,4000,0,0,0,
2026-04-03 01:30:00,METAR ZBAD 030130Z 20004MPS 170V230 4000 HZ NSC 15/10 Q1000 NOSIG,0,4,0,4000,0,0,0,
2026-04-03 01:00:00,METAR ZBAD 030100Z 21004MPS 4000 HZ NSC 15/10 Q1000 NOSIG,0,4,0,4000,0,0,0,
2026-04-03 00:30:00,METAR ZBAD 030030Z 22003MPS 190V250 4000 HZ NSC 14/10 Q1000 NOSIG,0,3,0,4000,0,0,0,
2026-04-03 00:00:00,METAR ZBAD 030000Z VRB01MPS 4000 HZ FEW020 13/08 Q1001 NOSIG,0,1,0,4000,0,0,0,
2026-04-02 23:30:00,METAR ZBAD 022330Z 29003MPS 260V320 4000 HZ FEW020 13/09 Q1001 NOSIG,0,3,0,4000,0,0,0,
2026-04-02 23:00:00,METAR ZBAD 022300Z 28004MPS 4000 HZ NSC 13/09 Q1001 BECMG TL0040 20005MPS,0,4,0,4000,0,0,0,
2026-04-02 22:30:00,METAR ZBAD 022230Z 14003MPS 090V200 4000 HZ NSC 12/08 Q1000 NOSIG,0,3,0,4000,0,0,0,
2026-04-02 22:00:00,METAR ZBAD 022200Z 12003MPS 090V150 5000 HZ NSC 12/07 Q1001 NOSIG,0,3,0,5000,0,0,0,
2026-04-02 21:30:00,METAR ZBAD 022130Z VRB01MPS 5000 -SHRA HZ NSC 12/07 Q1002 NOSIG,0,1,0,5000,0,0,0,RA
2026-04-02 21:00:00,METAR ZBAD 022100Z 14001MPS 6000 NSC 12/06 Q1003 NOSIG,0,1,0,6000,0,0,0,
2026-04-02 20:30:00,METAR ZBAD 022030Z VRB01MPS 6000 NSC 13/06 Q1004 NOSIG,0,1,0,6000,0,0,0,
2026-04-02 20:00:00,METAR ZBAD 022000Z 11002MPS 080V140 6000 NSC 13/06 Q1003 NOSIG,0,2,0,6000,0,0,0,
2026-04-02 19:30:00,METAR ZBAD 021930Z 13002MPS 6000 NSC 13/07 Q1004 NOSIG,0,2,0,6000,0,0,0,
2026-04-02 19:00:00,METAR ZBAD 021900Z 17002MPS 6000 NSC 12/06 Q1004 NOSIG,0,2,0,6000,0,0,0,
2026-04-02 18:30:00,METAR ZBAD 021830Z 13002MPS 6000 NSC 13/06 Q1005 NOSIG,0,2,0,6000,0,0,0,
2026-04-02 18:00:00,METAR ZBAD 021800Z 14002MPS 6000 NSC 13/06 Q1005 NOSIG,0,2,0,6000,0,0,0,
2026-04-02 17:30:00,METAR ZBAD 021730Z 13002MPS 6000 NSC 13/06 Q1006 NOSIG,0,2,0,6000,0,0,0,
2026-04-02 17:00:00,METAR ZBAD 021700Z 12002MPS 6000 NSC 13/06 Q1007 NOSIG,0,2,0,6000,0,0,0,
2026-04-02 16:30:00,METAR ZBAD 021630Z 11002MPS 6000 NSC 12/06 Q1007 NOSIG,0,2,0,6000,0,0,0,
2026-04-02 16:00:00,METAR ZBAD 021600Z VRB01MPS 6000 NSC 12/06 Q1008 NOSIG,0,1,0,6000,0,0,0,
2026-04-02 15:30:00,METAR ZBAD 021530Z 15002MPS 6000 NSC 12/06 Q1008 NOSIG,0,2,0,6000,0,0,0,
2026-04-02 15:00:00,METAR ZBAD 021500Z 17002MPS 6000 NSC 12/06 Q1008 NOSIG,0,2,0,6000,0,0,0,
2026-04-02 14:30:00,METAR ZBAD 021430Z 15002MPS 8000 NSC 11/05 Q1008 NOSIG,0,2,0,8000,0,0,0,
2026-04-02 14:00:00,METAR ZBAD 021400Z 13002MPS 8000 NSC 12/05 Q1009 NOSIG,0,2,0,8000,0,0,0,
2026-04-02 13:30:00,METAR ZBAD 021330Z VRB01MPS 8000 NSC 13/05 Q1009 NOSIG,0,1,0,8000,0,0,0,
2026-04-02 13:00:00,METAR ZBAD 021300Z 31002MPS 8000 NSC 14/06 Q1009 NOSIG,0,2,0,8000,0,0,0,
2026-04-02 12:30:00,METAR ZBAD 021230Z 28002MPS 8000 NSC 15/05 Q1009 NOSIG,0,2,0,8000,0,0,0,
2026-04-02 12:00:00,METAR ZBAD 021200Z 27003MPS 250V330 8000 NSC 15/05 Q1009 NOSIG,0,3,0,8000,0,0,0,
2026-04-02 11:30:00,METAR ZBAD 021130Z 23002MPS 110V270 8000 NSC 16/06 Q1008 NOSIG,0,2,0,8000,0,0,0,
2026-04-02 11:00:00,METAR ZBAD 021100Z 22002MPS 190V270 8000 NSC 17/06 Q1008 NOSIG,0,2,0,8000,0,0,0,
2026-04-02 10:30:00,METAR ZBAD 021030Z 21002MPS 8000 NSC 17/06 Q1008 NOSIG,0,2,0,8000,0,0,0,
2026-04-02 10:00:00,METAR ZBAD 021000Z 22002MPS 8000 NSC 18/06 Q1008 NOSIG,0,2,0,8000,0,0,0,
2026-04-02 09:30:00,METAR ZBAD 020930Z 20004MPS 170V240 8000 NSC 19/06 Q1008 NOSIG,0,4,0,8000,0,0,0,
2026-04-02 09:00:00,METAR ZBAD 020900Z 20004MPS 8000 NSC 20/06 Q1008 NOSIG,0,4,0,8000,0,0,0,
2026-04-02 08:30:00,METAR ZBAD 020830Z 17003MPS 150V210 8000 NSC 20/05 Q1008 NOSIG,0,3,0,8000,0,0,0,
2026-04-02 08:00:00,METAR ZBAD 020800Z 19003MPS 8000 NSC 20/05 Q1009 NOSIG,0,3,0,8000,0,0,0,
2026-04-02 07:30:00,METAR ZBAD 020730Z 20004MPS 140V240 CAVOK 19/05 Q1009 NOSIG,1,0,0,9999,0,0,0,
2026-04-02 07:00:00,METAR ZBAD 020700Z 23004MPS 190V280 CAVOK 19/05 Q1010 NOSIG,1,0,0,9999,0,0,0,
2026-04-02 06:30:00,METAR ZBAD 020630Z 23004MPS 190V280 CAVOK 19/05 Q1010 NOSIG,1,0,0,9999,0,0,0,
2026-04-02 06:00:00,METAR ZBAD 020600Z 21005MPS 170V250 CAVOK 19/04 Q1011 NOSIG,1,0,0,9999,0,0,0,
2026-04-02 05:44:00,SPECI ZBAD 020544Z 23005MPS 190V260 CAVOK 19/03 Q1011 NOSIG,1,0,0,9999,0,0,0,
2026-04-02 05:30:00,METAR ZBAD 020530Z 17003MPS 080V230 CAVOK 18/03 Q1011 NOSIG,1,0,0,9999,0,0,0,
2026-04-02 05:00:00,METAR ZBAD 020500Z VRB01MPS CAVOK 17/01 Q1011 NOSIG,1,0,0,9999,0,0,0,
2026-04-02 04:30:00,METAR ZBAD 020430Z VRB02MPS CAVOK 16/00 Q1012 NOSIG,1,0,0,9999,0,0,0,
2026-04-02 04:00:00,METAR ZBAD 020400Z VRB01MPS CAVOK 16/M00 Q1013 NOSIG,1,0,0,9999,0,0,0,
2026-04-02 03:30:00,METAR ZBAD 020330Z VRB01MPS CAVOK 15/M01 Q1013 NOSIG,1,0,0,9999,0,0,0,
2026-04-02 03:00:00,METAR ZBAD 020300Z 04002MPS 330V100 CAVOK 13/M02 Q1014 NOSIG,1,0,0,9999,0,0,0,
2026-04-02 02:30:00,METAR ZBAD 020230Z VRB01MPS CAVOK 13/M02 Q1014 NOSIG,1,0,0,9999,0,0,0,
2026-04-02 02:00:00,METAR ZBAD 020200Z 04002MPS 310V110 CAVOK 12/M02 Q1014 NOSIG,1,0,0,9999,0,0,0,
2026-04-02 01:30:00,METAR ZBAD 020130Z VRB01MPS CAVOK 12/M03 Q1015 NOSIG,1,0,0,9999,0,0,0,
2026-04-02 01:00:00,METAR ZBAD 020100Z 05002MPS 340V100 CAVOK 10/M01 Q1015 NOSIG,1,0,0,9999,0,0,0,
2026-04-02 00:30:00,METAR ZBAD 020030Z VRB01MPS CAVOK 09/M01 Q1015 NOSIG,1,0,0,9999,0,0,0,
2026-04-02 00:00:00,METAR ZBAD 020000Z 11002MPS 080V140 CAVOK 08/M01 Q1015 NOSIG,1,0,0,9999,0,0,0,
2026-04-01 23:30:00,METAR ZBAD 012330Z 10002MPS CAVOK 07/M01 Q1015 NOSIG,1,0,0,9999,0,0,0,
2026-04-01 23:00:00,METAR ZBAD 012300Z VRB01MPS CAVOK 05/M01 Q1015 NOSIG,1,0,0,9999,0,0,0,
2026-04-01 22:30:00,METAR ZBAD 012230Z 12002MPS CAVOK 04/M02 Q1015 NOSIG,1,0,0,9999,0,0,0,
2026-04-01 22:00:00,METAR ZBAD 012200Z 11001MPS CAVOK 04/M02 Q1015 NOSIG,1,0,0,9999,0,0,0,
2026-04-01 21:30:00,METAR ZBAD 012130Z 12002MPS CAVOK 04/M03 Q1015 NOSIG,1,0,0,9999,0,0,0,
2026-04-01 21:00:00,METAR ZBAD 012100Z 15002MPS CAVOK 04/M03 Q1014 NOSIG,1,0,0,9999,0,0,0,
2026-04-01 20:30:00,METAR ZBAD 012030Z VRB01MPS CAVOK 03/M04 Q1014 NOSIG,1,0,0,9999,0,0,0,
2026-04-01 20:00:00,METAR ZBAD 012000Z 14001MPS CAVOK 04/M04 Q1014 NOSIG,1,0,0,9999,0,0,0,
2026-04-01 19:30:00,METAR ZBAD 011930Z 12003MPS CAVOK 04/M04 Q1014 NOSIG,1,0,0,9999,0,0,0,
2026-04-01 19:00:00,METAR ZBAD 011900Z 12003MPS CAVOK 04/M04 Q1015 NOSIG,1,0,0,9999,0,0,0,
2026-04-01 18:30:00,METAR ZBAD 011830Z 12002MPS CAVOK 05/M05 Q1015 NOSIG,1,0,0,9999,0,0,0,
2026-04-01 18:00:00,METAR ZBAD 011800Z 11001MPS CAVOK 05/M05 Q1016 NOSIG,1,0,0,9999,0,0,0,
2026-04-01 17:30:00,METAR ZBAD 011730Z 16002MPS CAVOK 05/M04 Q1015 NOSIG,1,0,0,9999,0,0,0,
2026-04-01 17:00:00,METAR ZBAD 011700Z 15002MPS CAVOK 06/M04 Q1016 NOSIG,1,0,0,9999,0,0,0,
2026-04-01 16:30:00,METAR ZBAD 011630Z 17002MPS 140V200 CAVOK 06/M05 Q1016 NOSIG,1,0,0,9999,0,0,0,
2026-04-01 16:00:00,METAR ZBAD 011600Z 20004MPS CAVOK 08/M06 Q1016 NOSIG,1,0,0,9999,0,0,0,
2026-04-01 15:30:00,METAR ZBAD 011530Z 21002MPS 180V260 CAVOK 08/M05 Q1016 NOSIG,1,0,0,9999,0,0,0,
2026-04-01 15:00:00,METAR ZBAD 011500Z 17002MPS CAVOK 07/M04 Q1016 NOSIG,1,0,0,9999,0,0,0,
2026-04-01 14:00:00,METAR ZBAD 011400Z 20003MPS CAVOK 08/M04 Q1016 NOSIG,1,0,0,9999,0,0,0,
2026-04-01 13:30:00,METAR ZBAD 011330Z 19003MPS CAVOK 08/M04 Q1016 NOSIG,1,0,0,9999,0,0,0,
2026-04-01 13:00:00,METAR ZBAD 011300Z 19003MPS CAVOK 09/M05 Q1016 NOSIG,1,0,0,9999,0,0,0,
2026-04-01 12:30:00,METAR ZBAD 011230Z 18004MPS CAVOK 09/M04 Q1016 NOSIG,1,0,0,9999,0,0,0,
2026-04-01 12:00:00,METAR ZBAD 011200Z 19003MPS CAVOK 10/M04 Q1016 NOSIG,1,0,0,9999,0,0,0,
2026-04-01 11:30:00,METAR ZBAD 011130Z 18004MPS CAVOK 11/M04 Q1015 NOSIG,1,0,0,9999,0,0,0,
2026-04-01 11:00:00,METAR ZBAD 011100Z 17004MPS CAVOK 11/M04 Q1015 NOSIG,1,0,0,9999,0,0,0,
2026-04-01 10:30:00,METAR ZBAD 011030Z 18006MPS CAVOK 12/M03 Q1015 NOSIG,1,0,0,9999,0,0,0,
2026-04-01 10:00:00,METAR ZBAD 011000Z 18007MPS CAVOK 13/M02 Q1015 NOSIG,1,0,0,9999,0,0,0,
2026-04-01 09:30:00,METAR ZBAD 010930Z 18006MPS CAVOK 14/M02 Q1014 NOSIG,1,0,0,9999,0,0,0,
2026-04-01 09:00:00,METAR ZBAD 010900Z 17006MPS CAVOK 15/M01 Q1014 NOSIG,1,0,0,9999,0,0,0,
2026-04-01 08:30:00,METAR ZBAD 010830Z 18007MPS CAVOK 16/M00 Q1014 NOSIG,1,0,0,9999,0,0,0,
2026-04-01 08:00:00,METAR ZBAD 010800Z 16006MPS CAVOK 17/01 Q1014 NOSIG,1,0,0,9999,0,0,0,
2026-04-01 07:30:00,METAR ZBAD 010730Z 17006MPS CAVOK 17/00 Q1014 NOSIG,1,0,0,9999,0,0,0,
2026-04-01 07:00:00,METAR ZBAD 010700Z 17007MPS 150V220 CAVOK 18/01 Q1014 NOSIG,1,0,0,9999,0,0,0,
2026-04-01 06:30:00,METAR ZBAD 010630Z 16006MPS 120V210 CAVOK 18/01 Q1015 NOSIG,1,0,0,9999,0,0,0,
2026-04-01 06:16:00,SPECI ZBAD 010616Z 17005MPS 130V210 CAVOK 18/01 Q1015 NOSIG,1,0,0,9999,0,0,0,
2026-04-01 06:00:00,METAR ZBAD 010600Z 11004MPS 080V250 CAVOK 18/00 Q1015 NOSIG,1,0,0,9999,0,0,0,
2026-04-01 05:30:00,METAR ZBAD 010530Z VRB02MPS CAVOK 18/01 Q1015 NOSIG,1,0,0,9999,0,0,0,
2026-04-01 05:00:00,METAR ZBAD 010500Z 09004MPS 050V170 CAVOK 17/02 Q1016 NOSIG,1,0,0,9999,0,0,0,
2026-04-01 04:30:00,METAR ZBAD 010430Z 10005MPS 060V130 CAVOK 17/03 Q1016 NOSIG,1,0,0,9999,0,0,0,
2026-04-01 04:00:00,METAR ZBAD 010400Z 10005MPS 060V140 CAVOK 17/02 Q1017 BECMG TL0540 17004MPS,1,0,0,9999,0,0,0,
2026-04-01 03:30:00,METAR ZBAD 010330Z 10004MPS 070V140 CAVOK 17/00 Q1017 NOSIG,1,0,0,9999,0,0,0,
2026-04-01 03:00:00,METAR ZBAD 010300Z 06006MPS 040V100 CAVOK 16/M01 Q1017 BECMG TL0440 15004MPS,1,0,0,9999,0,0,0,
2026-04-01 02:30:00,METAR ZBAD 010230Z 06006MPS 030V090 CAVOK 16/M01 Q1017 NOSIG,1,0,0,9999,0,0,0,
2026-04-01 02:00:00,METAR ZBAD 010200Z 05007MPS 020V080 CAVOK 15/M02 Q1017 NOSIG,1,0,0,9999,0,0,0,
2026-04-01 01:30:00,METAR ZBAD 010130Z 03008MPS CAVOK 14/M05 Q1017 NOSIG,1,0,0,9999,0,0,0,
2026-04-01 01:00:00,METAR ZBAD 010100Z 03008MPS CAVOK 14/M05 Q1017 NOSIG,1,0,0,9999,0,0,0,
2026-04-01 00:30:00,METAR ZBAD 010030Z 04008MPS CAVOK 13/M04 Q1017 NOSIG,1,0,0,9999,0,0,0,
2026-04-01 00:00:00,METAR ZBAD 010000Z 04006MPS CAVOK 13/M02 Q1016 NOSIG,1,0,0,9999,0,0,0,
2026-03-31 23:30:00,METAR ZBAD 312330Z 03006MPS CAVOK 12/M02 Q1016 NOSIG,1,0,0,9999,0,0,0,
2026-03-31 23:00:00,METAR ZBAD 312300Z 05004MPS 020V080 CAVOK 11/M01 Q1015 NOSIG,1,0,0,9999,0,0,0,
2026-03-31 22:30:00,METAR ZBAD 312230Z 02007MPS CAVOK 12/M04 Q1015 NOSIG,1,0,0,9999,0,0,0,
2026-03-31 22:00:00,METAR ZBAD 312200Z 03006MPS CAVOK 11/M03 Q1014 NOSIG,1,0,0,9999,0,0,0,
2026-03-31 21:30:00,METAR ZBAD 312130Z 01005MPS CAVOK 10/M02 Q1014 NOSIG,1,0,0,9999,0,0,0,
2026-03-31 21:00:00,METAR ZBAD 312100Z 36004MPS CAVOK 08/M01 Q1014 NOSIG,1,0,0,9999,0,0,0,
2026-03-31 20:30:00,METAR ZBAD 312030Z 36004MPS CAVOK 08/00 Q1013 NOSIG,1,0,0,9999,0,0,0,
2026-03-31 20:00:00,METAR ZBAD 312000Z 35005MPS CAVOK 09/02 Q1013 NOSIG,1,0,0,9999,0,0,0,
2026-03-31 19:30:00,METAR ZBAD 311930Z 35003MPS CAVOK 06/01 Q1013 NOSIG,1,0,0,9999,0,0,0,
2026-03-31 19:00:00,METAR ZBAD 311900Z 28001MPS CAVOK 05/01 Q1013 NOSIG,1,0,0,9999,0,0,0,
2026-03-31 18:30:00,METAR ZBAD 311830Z 31002MPS CAVOK 05/00 Q1013 NOSIG,1,0,0,9999,0,0,0,
2026-03-31 18:00:00,METAR ZBAD 311800Z VRB01MPS CAVOK 06/00 Q1013 NOSIG,1,0,0,9999,0,0,0,
2026-03-31 17:30:00,METAR ZBAD 311730Z VRB01MPS CAVOK 08/01 Q1013 NOSIG,1,0,0,9999,0,0,0,
2026-03-31 17:00:00,METAR ZBAD 311700Z VRB01MPS CAVOK 08/01 Q1013 NOSIG,1,0,0,9999,0,0,0,
2026-03-31 16:30:00,METAR ZBAD 311630Z VRB01MPS CAVOK 09/02 Q1013 NOSIG,1,0,0,9999,0,0,0,
2026-03-31 16:00:00,METAR ZBAD 311600Z 06002MPS CAVOK 11/02 Q1013 NOSIG,1,0,0,9999,0,0,0,
2026-03-31 15:30:00,METAR ZBAD 311530Z 11002MPS CAVOK 10/02 Q1012 NOSIG,1,0,0,9999,0,0,0,
2026-03-31 15:00:00,METAR ZBAD 311500Z 19002MPS 170V250 CAVOK 11/02 Q1012 NOSIG,1,0,0,9999,0,0,0,
2026-03-31 14:30:00,METAR ZBAD 311430Z 19004MPS 180V240 CAVOK 12/02 Q1012 NOSIG,1,0,0,9999,0,0,0,
2026-03-31 14:00:00,METAR ZBAD 311400Z 18001MPS CAVOK 12/02 Q1012 NOSIG,1,0,0,9999,0,0,0,
2026-03-31 13:30:00,METAR ZBAD 311330Z 20003MPS 170V240 CAVOK 13/02 Q1011 NOSIG,1,0,0,9999,0,0,0,
2026-03-31 13:00:00,METAR ZBAD 311300Z 15002MPS CAVOK 11/02 Q1011 NOSIG,1,0,0,9999,0,0,0,
2026-03-31 12:30:00,METAR ZBAD 311230Z 18002MPS CAVOK 13/01 Q1010 NOSIG,1,0,0,9999,0,0,0,
2026-03-31 12:00:00,METAR ZBAD 311200Z 19002MPS CAVOK 13/02 Q1010 NOSIG,1,0,0,9999,0,0,0,
2026-03-31 11:30:00,METAR ZBAD 311130Z 18002MPS CAVOK 14/01 Q1010 NOSIG,1,0,0,9999,0,0,0,
2026-03-31 11:00:00,METAR ZBAD 311100Z 19003MPS CAVOK 13/01 Q1010 NOSIG,1,0,0,9999,0,0,0,
2026-03-31 10:30:00,METAR ZBAD 311030Z 20003MPS CAVOK 15/01 Q1009 NOSIG,1,0,0,9999,0,0,0,
2026-03-31 10:00:00,METAR ZBAD 311000Z 20004MPS CAVOK 17/01 Q1009 NOSIG,1,0,0,9999,0,0,0,
2026-03-31 09:30:00,METAR ZBAD 310930Z 20005MPS CAVOK 17/02 Q1010 NOSIG,1,0,0,9999,0,0,0,
2026-03-31 09:00:00,METAR ZBAD 310900Z 20005MPS CAVOK 18/01 Q1010 NOSIG,1,0,0,9999,0,0,0,
2026-03-31 08:30:00,METAR ZBAD 310830Z 19004MPS CAVOK 18/02 Q1009 NOSIG,1,0,0,9999,0,0,0,
2026-03-31 08:00:00,METAR ZBAD 310800Z 21003MPS 160V250 CAVOK 19/02 Q1010 NOSIG,1,0,0,9999,0,0,0,
2026-03-31 07:30:00,METAR ZBAD 310730Z 18003MPS 120V210 CAVOK 18/02 Q1010 NOSIG,1,0,0,9999,0,0,0,
2026-03-31 07:00:00,METAR ZBAD 310700Z VRB02MPS CAVOK 18/02 Q1010 NOSIG,1,0,0,9999,0,0,0,
2026-03-31 06:30:00,METAR ZBAD 310630Z 21003MPS 170V240 CAVOK 18/03 Q1011 NOSIG,1,0,0,9999,0,0,0,
2026-03-31 06:00:00,METAR ZBAD 310600Z 20004MPS 150V230 CAVOK 17/03 Q1011 NOSIG,1,0,0,9999,0,0,0,
2026-03-31 05:30:00,METAR ZBAD 310530Z 21004MPS 180V270 CAVOK 17/03 Q1012 NOSIG,1,0,0,9999,0,0,0,
2026-03-31 05:00:00,METAR ZBAD 310500Z 21004G09MPS 160V270 CAVOK 17/03 Q1012 NOSIG,1,0,0,9999,0,0,0,
2026-03-31 04:30:00,METAR ZBAD 310430Z 21006MPS 180V240 CAVOK 17/02 Q1013 NOSIG,1,0,0,9999,0,0,0,
2026-03-31 04:00:00,METAR ZBAD 310400Z 22004MPS 190V250 CAVOK 16/03 Q1013 NOSIG,1,0,0,9999,0,0,0,
2026-03-31 03:30:00,METAR ZBAD 310330Z 18003MPS 150V230 CAVOK 15/04 Q1014 NOSIG,1,0,0,9999,0,0,0,
2026-03-31 03:00:00,METAR ZBAD 310300Z 19004MPS 160V220 CAVOK 14/06 Q1014 NOSIG,1,0,0,9999,0,0,0,
2026-03-31 02:30:00,METAR ZBAD 310230Z 19004MPS CAVOK 11/06 Q1014 NOSIG,1,0,0,9999,0,0,0,
2026-03-31 02:00:00,METAR ZBAD 310200Z 17004MPS CAVOK 10/07 Q1014 NOSIG,1,0,0,9999,0,0,0,
2026-03-31 01:30:00,METAR ZBAD 310130Z 16002MPS CAVOK 09/06 Q1014 NOSIG,1,0,0,9999,0,0,0,
2026-03-31 01:00:00,METAR ZBAD 310100Z 15002MPS CAVOK 09/06 Q1015 NOSIG,1,0,0,9999,0,0,0,
2026-03-31 00:30:00,METAR ZBAD 310030Z 15002MPS CAVOK 09/06 Q1015 NOSIG,1,0,0,9999,0,0,0,
2026-03-31 00:00:00,METAR ZBAD 310000Z 15001MPS CAVOK 09/06 Q1015 NOSIG,1,0,0,9999,0,0,0,
2026-03-30 23:30:00,METAR ZBAD 302330Z 21002MPS 150V260 CAVOK 09/05 Q1015 NOSIG,1,0,0,9999,0,0,0,
2026-03-30 23:00:00,METAR ZBAD 302300Z 20002MPS 9999 -RA NSC 08/05 Q1014 NOSIG,0,2,0,10000,0,0,0,-RA
2026-03-30 22:30:00,METAR ZBAD 302230Z 18001MPS 9999 -RA NSC 09/02 Q1014 NOSIG,0,1,0,10000,0,0,0,-RA
2026-03-30 22:00:00,METAR ZBAD 302200Z 19001MPS CAVOK 08/01 Q1014 NOSIG,1,0,0,9999,0,0,0,
2026-03-30 21:30:00,METAR ZBAD 302130Z 18002MPS CAVOK 08/01 Q1013 NOSIG,1,0,0,9999,0,0,0,
2026-03-30 21:00:00,METAR ZBAD 302100Z 19002MPS CAVOK 08/01 Q1014 NOSIG,1,0,0,9999,0,0,0,
2026-03-30 20:30:00,METAR ZBAD 302030Z 20003MPS CAVOK 08/00 Q1014 NOSIG,1,0,0,9999,0,0,0,
2026-03-30 20:00:00,METAR ZBAD 302000Z 21003MPS CAVOK 08/M01 Q1014 NOSIG,1,0,0,9999,0,0,0,
2026-03-30 19:30:00,METAR ZBAD 301930Z 20003MPS CAVOK 09/M01 Q1014 NOSIG,1,0,0,9999,0,0,0,
2026-03-30 19:00:00,METAR ZBAD 301900Z 20004MPS CAVOK 09/M02 Q1014 NOSIG,1,0,0,9999,0,0,0,
2026-03-30 18:30:00,METAR ZBAD 301830Z 20004MPS CAVOK 09/M03 Q1015 NOSIG,1,0,0,9999,0,0,0,
2026-03-30 18:00:00,METAR ZBAD 301800Z 20004MPS CAVOK 09/M03 Q1015 NOSIG,1,0,0,9999,0,0,0,
2026-03-30 17:30:00,METAR ZBAD 301730Z 21004MPS CAVOK 09/M04 Q1015 NOSIG,1,0,0,9999,0,0,0,
2026-03-30 17:00:00,METAR ZBAD 301700Z 20003MPS CAVOK 08/M03 Q1016 NOSIG,1,0,0,9999,0,0,0,
2026-03-30 16:30:00,METAR ZBAD 301630Z 20003MPS CAVOK 07/M04 Q1016 NOSIG,1,0,0,9999,0,0,0,
2026-03-30 16:00:00,METAR ZBAD 301600Z 19003MPS CAVOK 07/M04 Q1016 NOSIG,1,0,0,9999,0,0,0,
2026-03-30 15:30:00,METAR ZBAD 301530Z 19003MPS CAVOK 07/M04 Q1016 NOSIG,1,0,0,9999,0,0,0,
2026-03-30 15:00:00,METAR ZBAD 301500Z 19003MPS CAVOK 07/M03 Q1016 NOSIG,1,0,0,9999,0,0,0,
2026-03-30 14:30:00,METAR ZBAD 301430Z 18004MPS CAVOK 08/M03 Q1017 NOSIG,1,0,0,9999,0,0,0,
2026-03-30 14:00:00,METAR ZBAD 301400Z 18004MPS CAVOK 10/M02 Q1017 NOSIG,1,0,0,9999,0,0,0,
2026-03-30 13:30:00,METAR ZBAD 301330Z 17003MPS CAVOK 10/M01 Q1017 NOSIG,1,0,0,9999,0,0,0,
2026-03-30 13:00:00,METAR ZBAD 301300Z 20002MPS CAVOK 11/M01 Q1016 NOSIG,1,0,0,9999,0,0,0,
2026-03-30 12:30:00,METAR ZBAD 301230Z 25002MPS CAVOK 13/M02 Q1016 NOSIG,1,0,0,9999,0,0,0,
2026-03-30 12:00:00,METAR ZBAD 301200Z 26002MPS CAVOK 13/M01 Q1016 NOSIG,1,0,0,9999,0,0,0,
2026-03-30 11:30:00,METAR ZBAD 301130Z 28003MPS CAVOK 14/M01 Q1016 NOSIG,1,0,0,9999,0,0,0,
2026-03-30 11:00:00,METAR ZBAD 301100Z 27005MPS 240V320 9999 -SHRA NSC 14/M01 Q1016 NOSIG,0,5,0,10000,0,0,0,RA
2026-03-30 10:30:00,METAR ZBAD 301030Z 26004MPS 9999 -SHRA NSC 15/M02 Q1016 NOSIG,0,4,0,10000,0,0,0,RA
2026-03-30 10:00:00,METAR ZBAD 301000Z 25004MPS 230V320 CAVOK 16/M04 Q1016 NOSIG,1,0,0,9999,0,0,0,
2026-03-30 09:30:00,METAR ZBAD 300930Z 25004MPS 220V320 CAVOK 16/M05 Q1016 NOSIG,1,0,0,9999,0,0,0,
2026-03-30 09:00:00,METAR ZBAD 300900Z 24004MPS CAVOK 16/M05 Q1016 NOSIG,1,0,0,9999,0,0,0,
2026-03-30 08:30:00,METAR ZBAD 300830Z 23005MPS 190V250 CAVOK 17/M06 Q1016 NOSIG,1,0,0,9999,0,0,0,
2026-03-30 08:00:00,METAR ZBAD 300800Z 26003MPS 240V320 CAVOK 18/M07 Q1016 NOSIG,1,0,0,9999,0,0,0,
2026-03-30 07:30:00,METAR ZBAD 300730Z 23002MPS 130V280 CAVOK 17/M07 Q1017 NOSIG,1,0,0,9999,0,0,0,
2026-03-30 07:00:00,METAR ZBAD 300700Z VRB02MPS CAVOK 17/M07 Q1017 NOSIG,1,0,0,9999,0,0,0,
2026-03-30 06:30:00,METAR ZBAD 300630Z VRB02MPS CAVOK 18/M07 Q1017 NOSIG,1,0,0,9999,0,0,0,
2026-03-30 06:00:00,METAR ZBAD 300600Z 02003MPS 330V070 CAVOK 18/M08 Q1017 NOSIG,1,0,0,9999,0,0,0,
2026-03-30 05:30:00,METAR ZBAD 300530Z 04002MPS 330V130 CAVOK 17/M07 Q1018 NOSIG,1,0,0,9999,0,0,0,
2026-03-30 05:00:00,METAR ZBAD 300500Z 07002MPS 330V130 CAVOK 17/M08 Q1018 NOSIG,1,0,0,9999,0,0,0,
2026-03-30 04:30:00,METAR ZBAD 300430Z 12003MPS 090V170 CAVOK 17/M08 Q1018 NOSIG,1,0,0,9999,0,0,0,
2026-03-30 04:00:00,METAR ZBAD 300400Z 08004MPS 030V120 CAVOK 17/M07 Q1019 NOSIG,1,0,0,9999,0,0,0,
2026-03-30 03:30:00,METAR ZBAD 300330Z 08005MPS 050V110 CAVOK 17/M08 Q1019 NOSIG,1,0,0,9999,0,0,0,
2026-03-30 03:00:00,METAR ZBAD 300300Z 06004MPS 020V100 CAVOK 16/M06 Q1020 NOSIG,1,0,0,9999,0,0,0,
2026-03-30 02:30:00,METAR ZBAD 300230Z 06004MPS 020V120 CAVOK 15/M05 Q1020 NOSIG,1,0,0,9999,0,0,0,
2026-03-30 02:00:00,METAR ZBAD 300200Z 07005MPS 040V100 CAVOK 14/M05 Q1020 NOSIG,1,0,0,9999,0,0,0,
2026-03-30 01:30:00,METAR ZBAD 300130Z 07005MPS CAVOK 14/M03 Q1020 NOSIG,1,0,0,9999,0,0,0,
2026-03-30 01:00:00,METAR ZBAD 300100Z 05003MPS 020V080 CAVOK 13/01 Q1020 NOSIG,1,0,0,9999,0,0,0,
2026-03-30 00:30:00,METAR ZBAD 300030Z 04005MPS CAVOK 13/01 Q1020 NOSIG,1,0,0,9999,0,0,0,
2026-03-30 00:00:00,METAR ZBAD 300000Z 02004MPS CAVOK 12/03 Q1020 NOSIG,1,0,0,9999,0,0,0,
2026-03-29 23:30:00,METAR ZBAD 292330Z 03004MPS CAVOK 11/03 Q1019 NOSIG,1,0,0,9999,0,0,0,
2026-03-29 23:00:00,METAR ZBAD 292300Z 02003MPS CAVOK 09/04 Q1019 NOSIG,1,0,0,9999,0,0,0,
2026-03-29 22:30:00,METAR ZBAD 292230Z 02003MPS CAVOK 09/04 Q1019 NOSIG,1,0,0,9999,0,0,0,
2026-03-29 22:00:00,METAR ZBAD 292200Z 01002MPS CAVOK 09/04 Q1018 NOSIG,1,0,0,9999,0,0,0,
2026-03-29 21:30:00,METAR ZBAD 292130Z 03003MPS CAVOK 10/04 Q1018 NOSIG,1,0,0,9999,0,0,0,
2026-03-29 21:00:00,METAR ZBAD 292100Z 01004MPS CAVOK 10/04 Q1018 NOSIG,1,0,0,9999,0,0,0,
2026-03-29 20:30:00,METAR ZBAD 292030Z 04004MPS CAVOK 11/03 Q1018 NOSIG,1,0,0,9999,0,0,0,
2026-03-29 20:00:00,METAR ZBAD 292000Z 36003MPS CAVOK 09/04 Q1018 NOSIG,1,0,0,9999,0,0,0,
2026-03-29 19:30:00,METAR ZBAD 291930Z 02004MPS CAVOK 10/03 Q1018 NOSIG,1,0,0,9999,0,0,0,
2026-03-29 19:00:00,METAR ZBAD 291900Z 04003MPS CAVOK 11/04 Q1018 NOSIG,1,0,0,9999,0,0,0,
2026-03-29 18:30:00,METAR ZBAD 291830Z 06004MPS CAVOK 11/05 Q1017 NOSIG,1,0,0,9999,0,0,0,
2026-03-29 18:00:00,METAR ZBAD 291800Z 07004MPS CAVOK 11/06 Q1018 NOSIG,1,0,0,9999,0,0,0,
2026-03-29 17:30:00,METAR ZBAD 291730Z 07004MPS CAVOK 11/06 Q1018 NOSIG,1,0,0,9999,0,0,0,
2026-03-29 15:30:00,METAR ZBAD 291530Z 09004MPS 8000 NSC 12/09 Q1017 NOSIG,0,4,0,8000,0,0,0,
2026-03-29 15:00:00,METAR ZBAD 291500Z 09005MPS 8000 FEW026 12/09 Q1017 NOSIG,0,5,0,8000,0,0,0,
2026-03-29 14:30:00,METAR ZBAD 291430Z 08004MPS 7000 NSC 13/10 Q1016 NOSIG,0,4,0,7000,0,0,0,
2026-03-29 14:00:00,METAR ZBAD 291400Z 09005MPS 7000 NSC 13/10 Q1016 NOSIG,0,5,0,7000,0,0,0,
2026-03-29 13:30:00,METAR ZBAD 291330Z 09007MPS 7000 -SHRA NSC 13/10 Q1016 NOSIG,0,7,0,7000,0,0,0,RA
2026-03-29 13:00:00,METAR ZBAD 291300Z 09008MPS 7000 -SHRA NSC 14/10 Q1015 NOSIG,0,8,0,7000,0,0,0,RA
2026-03-29 12:30:00,METAR ZBAD 291230Z 09007MPS 9999 -SHRA NSC 14/11 Q1014 NOSIG,0,7,0,10000,0,0,0,RA
2026-03-29 12:00:00,METAR ZBAD 291200Z 06008MPS 9999 -SHRA NSC 16/08 Q1013 NOSIG,0,8,0,10000,0,0,0,RA
2026-03-29 11:30:00,METAR ZBAD 291130Z 04008MPS 9999 -SHRA NSC 16/08 Q1013 NOSIG,0,8,0,10000,0,0,0,RA
2026-03-29 11:00:00,METAR ZBAD 291100Z 03007MPS CAVOK 17/09 Q1012 BECMG TL1240 09004MPS,1,0,0,9999,0,0,0,
2026-03-29 10:30:00,METAR ZBAD 291030Z 03009MPS 9999 -SHRA NSC 17/08 Q1011 NOSIG,0,9,0,10000,0,0,0,RA
2026-03-29 10:00:00,METAR ZBAD 291000Z 02009MPS 9999 -SHRA NSC 18/08 Q1010 NOSIG,0,9,0,10000,0,0,0,RA
2026-03-29 09:30:00,METAR ZBAD 290930Z 01010MPS 9999 -SHRA NSC 18/09 Q1010 NOSIG,0,10,0,10000,0,0,0,RA
2026-03-29 09:23:00,SPECI ZBAD 290923Z 01009MPS 9999 -SHRA NSC 19/07 Q1009 NOSIG,0,9,0,10000,0,0,0,RA
2026-03-29 09:00:00,METAR ZBAD 290900Z 07002MPS 050V110 CAVOK 22/05 Q1009 NOSIG,1,0,0,9999,0,0,0,
2026-03-29 08:30:00,METAR ZBAD 290830Z VRB01MPS CAVOK 23/04 Q1008 NOSIG,1,0,0,9999,0,0,0,
2026-03-29 08:00:00,METAR ZBAD 290800Z VRB01MPS CAVOK 23/05 Q1008 BECMG TL0940 04008MPS,1,0,0,9999,0,0,0,
2026-03-29 07:30:00,METAR ZBAD 290730Z VRB01MPS CAVOK 23/05 Q1008 NOSIG,1,0,0,9999,0,0,0,
2026-03-29 07:00:00,METAR ZBAD 290700Z VRB03MPS CAVOK 22/05 Q1009 BECMG TL0840 03005MPS,1,0,0,9999,0,0,0,
2026-03-29 06:30:00,METAR ZBAD 290630Z VRB01MPS CAVOK 23/05 Q1009 NOSIG,1,0,0,9999,0,0,0,
2026-03-29 06:00:00,METAR ZBAD 290600Z 03002MPS 320V100 CAVOK 23/05 Q1009 NOSIG,1,0,0,9999,0,0,0,
2026-03-29 05:30:00,METAR ZBAD 290530Z 04002MPS 360V080 CAVOK 22/06 Q1009 NOSIG,1,0,0,9999,0,0,0,
2026-03-29 05:00:00,METAR ZBAD 290500Z 04003MPS 010V080 CAVOK 21/06 Q1009 NOSIG,1,0,0,9999,0,0,0,
2026-03-29 04:30:00,METAR ZBAD 290430Z VRB02MPS CAVOK 22/06 Q1010 NOSIG,1,0,0,9999,0,0,0,
2026-03-29 04:00:00,METAR ZBAD 290400Z VRB02MPS 8000 NSC 20/06 Q1010 NOSIG,0,2,0,8000,0,0,0,
2026-03-29 03:30:00,METAR ZBAD 290330Z VRB02MPS 7000 NSC 20/06 Q1010 NOSIG,0,2,0,7000,0,0,0,
2026-03-29 03:00:00,METAR ZBAD 290300Z 05002MPS 330V100 6000 NSC 19/06 Q1011 NOSIG,0,2,0,6000,0,0,0,
2026-03-29 02:30:00,METAR ZBAD 290230Z VRB01MPS 5000 HZ NSC 19/06 Q1011 NOSIG,0,1,0,5000,0,0,0,
2026-03-29 02:00:00,METAR ZBAD 290200Z VRB01MPS 5000 HZ NSC 18/06 Q1011 NOSIG,0,1,0,5000,0,0,0,
2026-03-29 01:30:00,METAR ZBAD 290130Z VRB01MPS 5000 HZ NSC 17/05 Q1011 NOSIG,0,1,0,5000,0,0,0,
2026-03-29 01:00:00,METAR ZBAD 290100Z VRB01MPS 5000 HZ NSC 16/06 Q1010 NOSIG,0,1,0,5000,0,0,0,
2026-03-29 00:30:00,METAR ZBAD 290030Z 14002MPS 5000 HZ NSC 15/06 Q1010 NOSIG,0,2,0,5000,0,0,0,
2026-03-29 00:00:00,METAR ZBAD 290000Z 11002MPS 080V140 5000 HZ NSC 14/06 Q1010 NOSIG,0,2,0,5000,0,0,0,
2026-03-28 23:30:00,METAR ZBAD 282330Z VRB01MPS 5000 HZ NSC 12/05 Q1010 NOSIG,0,1,0,5000,0,0,0,
2026-03-28 23:00:00,METAR ZBAD 282300Z VRB01MPS 5000 HZ NSC 10/05 Q1010 NOSIG,0,1,0,5000,0,0,0,
2026-03-28 22:30:00,METAR ZBAD 282230Z VRB01MPS 5000 HZ NSC 09/04 Q1010 NOSIG,0,1,0,5000,0,0,0,
2026-03-28 22:00:00,METAR ZBAD 282200Z 09002MPS 6000 NSC 09/04 Q1009 NOSIG,0,2,0,6000,0,0,0,
2026-03-28 21:30:00,METAR ZBAD 282130Z 00000MPS 7000 NSC 09/03 Q1009 NOSIG,0,0,0,7000,0,0,0,
2026-03-28 21:00:00,METAR ZBAD 282100Z 35002MPS 7000 NSC 09/03 Q1009 NOSIG,0,2,0,7000,0,0,0,
2026-03-28 20:30:00,METAR ZBAD 282030Z VRB01MPS 7000 NSC 08/02 Q1009 NOSIG,0,1,0,7000,0,0,0,
2026-03-28 20:00:00,METAR ZBAD 282000Z 33002MPS 7000 NSC 08/03 Q1009 NOSIG,0,2,0,7000,0,0,0,
2026-03-28 19:30:00,METAR ZBAD 281930Z 03001MPS 8000 NSC 09/03 Q1009 NOSIG,0,1,0,8000,0,0,0,
2026-03-28 19:00:00,METAR ZBAD 281900Z 09001MPS CAVOK 10/03 Q1009 NOSIG,1,0,0,9999,0,0,0,
2026-03-28 18:30:00,METAR ZBAD 281830Z 11002MPS 9999 SCT040 10/04 Q1009 NOSIG,0,2,0,10000,0,0,0,
2026-03-28 18:00:00,METAR ZBAD 281800Z 15002MPS 9999 SCT040 11/03 Q1009 NOSIG,0,2,0,10000,0,0,0,
2026-03-28 17:30:00,METAR ZBAD 281730Z 20001MPS 9999 SCT040 12/03 Q1010 NOSIG,0,1,0,10000,0,0,0,
2026-03-28 17:00:00,METAR ZBAD 281700Z VRB01MPS 9999 SCT040 12/03 Q1010 NOSIG,0,1,0,10000,0,0,0,
2026-03-28 16:30:00,METAR ZBAD 281630Z 16002MPS 9999 SCT040 14/03 Q1010 NOSIG,0,2,0,10000,0,0,0,
2026-03-28 16:00:00,METAR ZBAD 281600Z 18002MPS 9999 SCT040 14/02 Q1011 NOSIG,0,2,0,10000,0,0,0,
2026-03-28 15:30:00,METAR ZBAD 281530Z 16003MPS 9999 SCT040 12/04 Q1011 NOSIG,0,3,0,10000,0,0,0,
2026-03-28 15:00:00,METAR ZBAD 281500Z 18002MPS 9999 SCT040 14/03 Q1011 NOSIG,0,2,0,10000,0,0,0,
2026-03-28 14:30:00,METAR ZBAD 281430Z 17001MPS 9999 SCT040 14/06 Q1011 NOSIG,0,1,0,10000,0,0,0,
2026-03-28 14:00:00,METAR ZBAD 281400Z VRB01MPS 9999 SCT040 15/06 Q1011 NOSIG,0,1,0,10000,0,0,0,
2026-03-28 13:30:00,METAR ZBAD 281330Z VRB01MPS 9999 SCT040 14/06 Q1012 NOSIG,0,1,0,10000,0,0,0,
2026-03-28 13:00:00,METAR ZBAD 281300Z 17002MPS 9999 SCT040 14/05 Q1011 NOSIG,0,2,0,10000,0,0,0,
2026-03-28 12:30:00,METAR ZBAD 281230Z VRB01MPS 9999 SCT040 16/06 Q1011 NOSIG,0,1,0,10000,0,0,0,
2026-03-28 12:00:00,METAR ZBAD 281200Z 30002MPS 9999 SCT040 16/06 Q1011 NOSIG,0,2,0,10000,0,0,0,
2026-03-28 11:30:00,METAR ZBAD 281130Z 30002MPS 270V330 CAVOK 17/05 Q1011 NOSIG,1,0,0,9999,0,0,0,
2026-03-28 11:00:00,METAR ZBAD 281100Z 27001MPS CAVOK 17/06 Q1011 NOSIG,1,0,0,9999,0,0,0,
2026-03-28 10:30:00,METAR ZBAD 281030Z 22002MPS CAVOK 17/05 Q1010 NOSIG,1,0,0,9999,0,0,0,
2026-03-28 10:00:00,METAR ZBAD 281000Z 20003MPS CAVOK 18/05 Q1010 NOSIG,1,0,0,9999,0,0,0,
2026-03-28 09:30:00,METAR ZBAD 280930Z 17002MPS CAVOK 19/05 Q1010 NOSIG,1,0,0,9999,0,0,0,
2026-03-28 09:00:00,METAR ZBAD 280900Z 19003MPS CAVOK 19/05 Q1011 NOSIG,1,0,0,9999,0,0,0,
2026-03-28 08:30:00,METAR ZBAD 280830Z 21003MPS CAVOK 19/04 Q1011 NOSIG,1,0,0,9999,0,0,0,
2026-03-28 08:00:00,METAR ZBAD 280800Z 21003MPS 190V250 CAVOK 20/04 Q1011 NOSIG,1,0,0,9999,0,0,0,
2026-03-28 07:30:00,METAR ZBAD 280730Z 20004MPS CAVOK 20/04 Q1011 NOSIG,1,0,0,9999,0,0,0,
2026-03-28 07:00:00,METAR ZBAD 280700Z 23004MPS CAVOK 20/04 Q1011 NOSIG,1,0,0,9999,0,0,0,
2026-03-28 06:30:00,METAR ZBAD 280630Z 22003MPS 180V260 CAVOK 20/03 Q1012 NOSIG,1,0,0,9999,0,0,0,
2026-03-28 06:00:00,METAR ZBAD 280600Z 18004MPS 120V210 CAVOK 21/04 Q1012 NOSIG,1,0,0,9999,0,0,0,
2026-03-28 05:30:00,METAR ZBAD 280530Z VRB03MPS CAVOK 21/03 Q1013 NOSIG,1,0,0,9999,0,0,0,
2026-03-28 05:00:00,METAR ZBAD 280500Z 16003MPS 120V200 CAVOK 20/03 Q1013 NOSIG,1,0,0,9999,0,0,0,
2026-03-28 04:30:00,METAR ZBAD 280430Z 21004MPS 170V240 CAVOK 20/02 Q1014 NOSIG,1,0,0,9999,0,0,0,
2026-03-28 04:00:00,METAR ZBAD 280400Z 20003MPS 160V240 CAVOK 19/01 Q1014 NOSIG,1,0,0,9999,0,0,0,
2026-03-28 03:30:00,METAR ZBAD 280330Z 13002MPS 060V200 CAVOK 18/01 Q1015 NOSIG,1,0,0,9999,0,0,0,
2026-03-28 03:00:00,METAR ZBAD 280300Z 20002MPS 090V250 CAVOK 18/M00 Q1015 NOSIG,1,0,0,9999,0,0,0,
2026-03-28 02:30:00,METAR ZBAD 280230Z 09002MPS 040V160 CAVOK 16/M01 Q1016 NOSIG,1,0,0,9999,0,0,0,
2026-03-28 02:00:00,METAR ZBAD 280200Z VRB01MPS CAVOK 16/M01 Q1016 NOSIG,1,0,0,9999,0,0,0,
2026-03-28 01:30:00,METAR ZBAD 280130Z VRB01MPS CAVOK 16/M01 Q1016 NOSIG,1,0,0,9999,0,0,0,
2026-03-28 01:00:00,METAR ZBAD 280100Z VRB01MPS CAVOK 14/M00 Q1016 NOSIG,1,0,0,9999,0,0,0,
2026-03-28 00:30:00,METAR ZBAD 280030Z 06002MPS CAVOK 12/00 Q1016 NOSIG,1,0,0,9999,0,0,0,
2026-03-28 00:00:00,METAR ZBAD 280000Z VRB01MPS CAVOK 11/01 Q1016 NOSIG,1,0,0,9999,0,0,0,
2026-03-27 23:30:00,METAR ZBAD 272330Z 00000MPS CAVOK 08/01 Q1016 NOSIG,1,0,0,9999,0,0,0,
2026-03-27 23:00:00,METAR ZBAD 272300Z VRB01MPS CAVOK 06/00 Q1016 NOSIG,1,0,0,9999,0,0,0,
2026-03-27 22:30:00,METAR ZBAD 272230Z 07001MPS CAVOK 05/M01 Q1015 NOSIG,1,0,0,9999,0,0,0,
2026-03-27 22:00:00,METAR ZBAD 272200Z 10001MPS CAVOK 06/M00 Q1015 NOSIG,1,0,0,9999,0,0,0,
2026-03-27 21:30:00,METAR ZBAD 272130Z 00000MPS CAVOK 06/M00 Q1015 NOSIG,1,0,0,9999,0,0,0,
2026-03-27 21:00:00,METAR ZBAD 272100Z 20002MPS CAVOK 06/M00 Q1015 NOSIG,1,0,0,9999,0,0,0,
2026-03-27 20:30:00,METAR ZBAD 272030Z 20003MPS CAVOK 05/M01 Q1015 NOSIG,1,0,0,9999,0,0,0,
2026-03-27 20:00:00,METAR ZBAD 272000Z 20001MPS CAVOK 07/M01 Q1015 NOSIG,1,0,0,9999,0,0,0,
2026-03-27 19:30:00,METAR ZBAD 271930Z 18002MPS CAVOK 07/M00 Q1015 NOSIG,1,0,0,9999,0,0,0,
2026-03-27 19:00:00,METAR ZBAD 271900Z 18002MPS CAVOK 08/M00 Q1015 NOSIG,1,0,0,9999,0,0,0,
2026-03-27 18:30:00,METAR ZBAD 271830Z 16002MPS CAVOK 07/M01 Q1015 NOSIG,1,0,0,9999,0,0,0,
2026-03-27 18:00:00,METAR ZBAD 271800Z 15002MPS CAVOK 08/M01 Q1016 NOSIG,1,0,0,9999,0,0,0,
2026-03-27 17:30:00,METAR ZBAD 271730Z 20003MPS CAVOK 10/M01 Q1016 NOSIG,1,0,0,9999,0,0,0,
2026-03-27 17:00:00,METAR ZBAD 271700Z 21003MPS CAVOK 11/M01 Q1016 NOSIG,1,0,0,9999,0,0,0,
2026-03-27 16:30:00,METAR ZBAD 271630Z 20003MPS 170V250 CAVOK 12/M01 Q1016 NOSIG,1,0,0,9999,0,0,0,
2026-03-27 16:00:00,METAR ZBAD 271600Z 20003MPS 180V240 CAVOK 12/M01 Q1016 NOSIG,1,0,0,9999,0,0,0,
2026-03-25 15:00:00,METAR ZBAD 251500Z VRB01MPS 7000 NSC 15/06 Q1012 NOSIG,0,1,0,7000,0,0,0,
2026-03-25 14:30:00,METAR ZBAD 251430Z VRB01MPS 7000 NSC 16/05 Q1012 NOSIG,0,1,0,7000,0,0,0,
2026-03-25 14:00:00,METAR ZBAD 251400Z VRB01MPS 7000 NSC 16/06 Q1012 NOSIG,0,1,0,7000,0,0,0,
2026-03-25 13:30:00,METAR ZBAD 251330Z 20002MPS 180V240 7000 NSC 16/06 Q1012 NOSIG,0,2,0,7000,0,0,0,
2026-03-25 13:00:00,METAR ZBAD 251300Z 24002MPS 7000 NSC 17/04 Q1011 NOSIG,0,2,0,7000,0,0,0,
2026-03-25 12:30:00,METAR ZBAD 251230Z VRB01MPS 7000 NSC 19/05 Q1011 NOSIG,0,1,0,7000,0,0,0,
2026-03-25 12:00:00,METAR ZBAD 251200Z 23002MPS 210V310 7000 NSC 17/04 Q1011 NOSIG,0,2,0,7000,0,0,0,
2026-03-25 11:30:00,METAR ZBAD 251130Z 18003MPS 7000 NSC 19/04 Q1010 NOSIG,0,3,0,7000,0,0,0,
2026-03-25 11:00:00,METAR ZBAD 251100Z 19004MPS 7000 NSC 20/04 Q1010 NOSIG,0,4,0,7000,0,0,0,
2026-03-25 10:30:00,METAR ZBAD 251030Z 18003MPS 7000 NSC 20/03 Q1010 NOSIG,0,3,0,7000,0,0,0,
2026-03-25 10:00:00,METAR ZBAD 251000Z 17003MPS 7000 NSC 21/04 Q1009 NOSIG,0,3,0,7000,0,0,0,
2026-03-25 09:30:00,METAR ZBAD 250930Z 20003MPS 8000 NSC 23/03 Q1009 NOSIG,0,3,0,8000,0,0,0,
2026-03-25 09:00:00,METAR ZBAD 250900Z 14003MPS 8000 NSC 24/03 Q1009 NOSIG,0,3,0,8000,0,0,0,
2026-03-25 08:30:00,METAR ZBAD 250830Z 20004MPS 160V260 8000 NSC 25/01 Q1009 NOSIG,0,4,0,8000,0,0,0,
2026-03-25 08:00:00,METAR ZBAD 250800Z 19003MPS 140V260 8000 NSC 25/M01 Q1009 NOSIG,0,3,0,8000,0,0,0,
2026-03-25 07:30:00,METAR ZBAD 250730Z 17002MPS 100V230 7000 NSC 26/03 Q1009 NOSIG,0,2,0,7000,0,0,0,
2026-03-25 07:00:00,METAR ZBAD 250700Z 14002MPS 100V210 7000 NSC 25/01 Q1009 NOSIG,0,2,0,7000,0,0,0,
2026-03-25 06:30:00,METAR ZBAD 250630Z 18003MPS 110V230 6000 NSC 25/01 Q1009 NOSIG,0,3,0,6000,0,0,0,
2026-03-25 06:00:00,METAR ZBAD 250600Z 11002MPS 020V170 5000 HZ NSC 24/03 Q1010 NOSIG,0,2,0,5000,0,0,0,
2026-03-25 05:30:00,METAR ZBAD 250530Z 04002MPS 350V080 4500 HZ NSC 23/03 Q1010 NOSIG,0,2,0,4500,0,0,0,
2026-03-25 05:00:00,METAR ZBAD 250500Z VRB02MPS 4500 HZ NSC 23/04 Q1011 NOSIG,0,2,0,4500,0,0,0,
2026-03-25 04:30:00,METAR ZBAD 250430Z 05002MPS 360V100 4000 HZ NSC 22/05 Q1011 NOSIG,0,2,0,4000,0,0,0,
2026-03-25 04:00:00,METAR ZBAD 250400Z 03002MPS 350V100 3000 HZ NSC 20/07 Q1011 NOSIG,0,2,0,3000,0,0,0,
2026-03-25 03:30:00,METAR ZBAD 250330Z 03002MPS 350V080 3000 HZ NSC 19/08 Q1012 NOSIG,0,2,0,3000,0,0,0,
2026-03-25 03:00:00,METAR ZBAD 250300Z VRB01MPS 3000 HZ NSC 18/08 Q1012 NOSIG,0,1,0,3000,0,0,0,
2026-03-25 02:30:00,METAR ZBAD 250230Z 07002MPS 040V110 3000 HZ NSC 17/08 Q1012 NOSIG,0,2,0,3000,0,0,0,
2026-03-25 02:00:00,METAR ZBAD 250200Z 05002MPS 020V080 3000 HZ NSC 16/08 Q1012 NOSIG,0,2,0,3000,0,0,0,
2026-03-25 01:30:00,METAR ZBAD 250130Z 04002MPS 360V100 3000 HZ NSC 14/08 Q1012 NOSIG,0,2,0,3000,0,0,0,
2026-03-25 01:00:00,METAR ZBAD 250100Z 36002MPS 3000 BR NSC 14/09 Q1012 NOSIG,0,2,0,3000,0,0,1,BR
2026-03-25 00:30:00,METAR ZBAD 250030Z 35002MPS 290V020 3000 BR NSC 12/09 Q1012 NOSIG,0,2,0,3000,0,0,1,BR
2026-03-25 00:00:00,METAR ZBAD 250000Z VRB01MPS 2500 BR NSC 11/08 Q1012 BECMG TL0040 3000,0,1,0,2500,0,0,1,BR
2026-03-24 23:30:00,METAR ZBAD 242330Z 18001MPS 2000 R35R/1400N R35L/1300N R01L/1400U R11L/1500N BR BCFG NSC 08/07 Q1011 NOSIG,0,1,0,2000,0,0,1,"BC,BR,FG"
2026-03-24 23:00:00,METAR ZBAD 242300Z 16002MPS 2500 R35R/1600N R35L/1600D R01L/1100D R11L/1500D BR BCFG NSC 07/06 Q1011 BECMG TL0040 3000,0,2,0,2500,0,0,1,"BC,BR,FG"
2026-03-24 22:30:00,METAR ZBAD 242230Z VRB01MPS 2500 R35R/P2000N R35L/P2000N R01L/1300D R11L/P2000N BR BCFG NSC 07/05 Q1011 NOSIG,0,1,0,2500,0,0,1,"BC,BR,FG"
2026-03-24 22:00:00,METAR ZBAD 242200Z VRB01MPS 3000 BR NSC 06/04 Q1010 NOSIG,0,1,0,3000,0,0,1,BR
2026-03-24 21:30:00,METAR ZBAD 242130Z VRB01MPS 5000 BR NSC 07/06 Q1010 NOSIG,0,1,0,5000,0,0,1,BR
2026-03-24 21:00:00,METAR ZBAD 242100Z 17003MPS 5000 BR NSC 07/06 Q1010 NOSIG,0,3,0,5000,0,0,1,BR
2026-03-24 20:30:00,METAR ZBAD 242030Z 19001MPS 5000 BR NSC 07/06 Q1010 NOSIG,0,1,0,5000,0,0,1,BR
2026-03-24 20:00:00,METAR ZBAD 242000Z 17002MPS 5000 BR NSC 08/06 Q1010 NOSIG,0,2,0,5000,0,0,1,BR
2026-03-24 19:30:00,METAR ZBAD 241930Z 18001MPS 5000 BR NSC 10/07 Q1010 NOSIG,0,1,0,5000,0,0,1,BR
2026-03-24 19:00:00,METAR ZBAD 241900Z 19002MPS 5000 BR NSC 10/08 Q1010 NOSIG,0,2,0,5000,0,0,1,BR
2026-03-24 18:30:00,METAR ZBAD 241830Z 18002MPS 5000 BR NSC 11/08 Q1010 NOSIG,0,2,0,5000,0,0,1,BR
2026-03-24 18:00:00,METAR ZBAD 241800Z 19002MPS 5000 BR NSC 10/07 Q1010 NOSIG,0,2,0,5000,0,0,1,BR
2026-03-24 17:30:00,METAR ZBAD 241730Z 19003MPS 5000 BR NSC 10/07 Q1010 NOSIG,0,3,0,5000,0,0,1,BR
2026-03-24 17:00:00,METAR ZBAD 241700Z 19002MPS 5000 HZ NSC 12/07 Q1010 NOSIG,0,2,0,5000,0,0,0,
2026-03-24 16:30:00,METAR ZBAD 241630Z 21003MPS 5000 HZ NSC 12/07 Q1010 NOSIG,0,3,0,5000,0,0,0,
2026-03-24 16:00:00,METAR ZBAD 241600Z 21004MPS 170V240 5000 HZ NSC 13/07 Q1010 NOSIG,0,4,0,5000,0,0,0,
2026-03-24 15:30:00,METAR ZBAD 241530Z 21005MPS 170V230 4000 HZ NSC 14/07 Q1010 NOSIG,0,5,0,4000,0,0,0,
2026-03-24 15:00:00,METAR ZBAD 241500Z 21004MPS 180V250 4000 HZ NSC 14/06 Q1011 NOSIG,0,4,0,4000,0,0,0,
2026-03-24 14:30:00,METAR ZBAD 241430Z 20003MPS 180V250 4000 HZ NSC 15/06 Q1011 NOSIG,0,3,0,4000,0,0,0,
2026-03-24 14:00:00,METAR ZBAD 241400Z 21003MPS 4000 HZ NSC 12/05 Q1011 NOSIG,0,3,0,4000,0,0,0,
2026-03-24 13:30:00,METAR ZBAD 241330Z 20003MPS 4000 HZ NSC 13/06 Q1011 NOSIG,0,3,0,4000,0,0,0,
2026-03-24 13:00:00,METAR ZBAD 241300Z 21002MPS 4000 HZ NSC 11/05 Q1010 NOSIG,0,2,0,4000,0,0,0,
2026-03-24 12:30:00,METAR ZBAD 241230Z 18002MPS 4000 HZ NSC 11/06 Q1010 NOSIG,0,2,0,4000,0,0,0,
2026-03-24 12:00:00,METAR ZBAD 241200Z 20002MPS 4000 HZ NSC 12/06 Q1010 NOSIG,0,2,0,4000,0,0,0,
2026-03-24 11:30:00,METAR ZBAD 241130Z 22001MPS 4000 HZ NSC 13/06 Q1010 NOSIG,0,1,0,4000,0,0,0,
2026-03-24 11:00:00,METAR ZBAD 241100Z 23001MPS 4000 HZ NSC 15/06 Q1010 NOSIG,0,1,0,4000,0,0,0,
2026-03-24 10:30:00,METAR ZBAD 241030Z 22002MPS 4000 HZ NSC 17/07 Q1010 NOSIG,0,2,0,4000,0,0,0,
2026-03-24 10:00:00,METAR ZBAD 241000Z 22003MPS 4000 HZ NSC 18/07 Q1010 NOSIG,0,3,0,4000,0,0,0,
2026-03-24 09:30:00,METAR ZBAD 240930Z 22004MPS 4000 HZ NSC 19/07 Q1010 NOSIG,0,4,0,4000,0,0,0,
2026-03-24 09:00:00,METAR ZBAD 240900Z 22004MPS 4000 HZ NSC 19/07 Q1010 NOSIG,0,4,0,4000,0,0,0,
2026-03-24 08:30:00,METAR ZBAD 240830Z 22004MPS 4000 HZ NSC 19/07 Q1010 NOSIG,0,4,0,4000,0,0,0,
2026-03-24 08:00:00,METAR ZBAD 240800Z 22004MPS 180V250 4000 HZ NSC 19/06 Q1010 NOSIG,0,4,0,4000,0,0,0,
2026-03-24 07:30:00,METAR ZBAD 240730Z 23004MPS 4000 HZ NSC 20/06 Q1010 NOSIG,0,4,0,4000,0,0,0,
2026-03-24 07:00:00,METAR ZBAD 240700Z 20004MPS 160V240 4000 HZ NSC 19/06 Q1011 NOSIG,0,4,0,4000,0,0,0,
2026-03-24 06:30:00,METAR ZBAD 240630Z 18003MPS 130V210 4000 HZ NSC 19/07 Q1011 NOSIG,0,3,0,4000,0,0,0,
2026-03-24 06:00:00,METAR ZBAD 240600Z 19004MPS 4000 HZ NSC 18/06 Q1012 NOSIG,0,4,0,4000,0,0,0,
2026-03-24 05:30:00,METAR ZBAD 240530Z 21003MPS 160V290 4000 HZ NSC 19/06 Q1012 NOSIG,0,3,0,4000,0,0,0,
2026-03-24 05:00:00,METAR ZBAD 240500Z 21002MPS 130V280 4000 HZ NSC 18/06 Q1012 NOSIG,0,2,0,4000,0,0,0,
2026-03-24 04:30:00,METAR ZBAD 240430Z 06002MPS 010V110 4000 HZ NSC 16/05 Q1013 NOSIG,0,2,0,4000,0,0,0,
2026-03-24 04:00:00,METAR ZBAD 240400Z 08002MPS 010V150 4000 HZ NSC 15/05 Q1013 NOSIG,0,2,0,4000,0,0,0,
2026-03-24 03:30:00,METAR ZBAD 240330Z VRB01MPS 4000 HZ NSC 15/05 Q1014 NOSIG,0,1,0,4000,0,0,0,
2026-03-24 03:00:00,METAR ZBAD 240300Z VRB01MPS 4000 HZ NSC 13/04 Q1014 NOSIG,0,1,0,4000,0,0,0,
2026-03-24 02:30:00,METAR ZBAD 240230Z 03002MPS 330V070 4000 HZ NSC 12/04 Q1015 NOSIG,0,2,0,4000,0,0,0,
2026-03-24 02:00:00,METAR ZBAD 240200Z VRB01MPS 4000 HZ NSC 12/04 Q1015 NOSIG,0,1,0,4000,0,0,0,
2026-03-24 01:30:00,METAR ZBAD 240130Z VRB01MPS 4000 HZ NSC 11/03 Q1015 NOSIG,0,1,0,4000,0,0,0,
2026-03-24 01:00:00,METAR ZBAD 240100Z VRB01MPS 4000 HZ NSC 10/03 Q1016 NOSIG,0,1,0,4000,0,0,0,
2026-03-24 00:30:00,METAR ZBAD 240030Z 08002MPS 040V110 4000 HZ NSC 09/03 Q1015 NOSIG,0,2,0,4000,0,0,0,
2026-03-24 00:00:00,METAR ZBAD 240000Z VRB01MPS 4000 HZ NSC 09/02 Q1016 NOSIG,0,1,0,4000,0,0,0,
2026-03-23 23:30:00,METAR ZBAD 232330Z 06001MPS 4000 HZ NSC 07/01 Q1015 NOSIG,0,1,0,4000,0,0,0,
2026-03-23 23:00:00,METAR ZBAD 232300Z 09001MPS 4000 BR NSC 06/02 Q1015 NOSIG,0,1,0,4000,0,0,1,BR
2026-03-23 22:30:00,METAR ZBAD 232230Z 08002MPS 4000 BR NSC 06/02 Q1015 NOSIG,0,2,0,4000,0,0,1,BR
2026-03-23 22:00:00,METAR ZBAD 232200Z 06002MPS 6000 NSC 07/02 Q1016 NOSIG,0,2,0,6000,0,0,0,
2026-03-23 21:30:00,METAR ZBAD 232130Z 06002MPS 6000 NSC 07/02 Q1016 NOSIG,0,2,0,6000,0,0,0,
2026-03-23 21:00:00,METAR ZBAD 232100Z 06002MPS 6000 NSC 07/03 Q1016 NOSIG,0,2,0,6000,0,0,0,
2026-03-23 20:30:00,METAR ZBAD 232030Z 05002MPS 6000 NSC 07/03 Q1016 NOSIG,0,2,0,6000,0,0,0,
2026-03-23 20:00:00,METAR ZBAD 232000Z 07002MPS 6000 NSC 07/03 Q1016 NOSIG,0,2,0,6000,0,0,0,
2026-03-23 19:30:00,METAR ZBAD 231930Z 09002MPS 6000 NSC 07/02 Q1016 NOSIG,0,2,0,6000,0,0,0,
2026-03-23 19:00:00,METAR ZBAD 231900Z 13001MPS 6000 NSC 07/02 Q1016 NOSIG,0,1,0,6000,0,0,0,
2026-03-23 18:30:00,METAR ZBAD 231830Z 17001MPS 6000 NSC 07/02 Q1017 NOSIG,0,1,0,6000,0,0,0,
2026-03-23 18:00:00,METAR ZBAD 231800Z 16002MPS 6000 NSC 07/02 Q1017 NOSIG,0,2,0,6000,0,0,0,
2026-03-23 17:30:00,METAR ZBAD 231730Z 15003MPS 6000 NSC 07/02 Q1018 NOSIG,0,3,0,6000,0,0,0,
2026-03-23 17:00:00,METAR ZBAD 231700Z 16003MPS 6000 NSC 07/01 Q1018 NOSIG,0,3,0,6000,0,0,0,
2026-03-23 16:30:00,METAR ZBAD 231630Z 15003MPS 6000 NSC 07/01 Q1019 NOSIG,0,3,0,6000,0,0,0,
2026-03-23 16:00:00,METAR ZBAD 231600Z 14002MPS CAVOK 09/00 Q1019 NOSIG,1,0,0,9999,0,0,0,
2026-03-23 15:30:00,METAR ZBAD 231530Z 17002MPS CAVOK 09/00 Q1019 NOSIG,1,0,0,9999,0,0,0,
2026-03-23 15:00:00,METAR ZBAD 231500Z 16002MPS CAVOK 08/00 Q1019 NOSIG,1,0,0,9999,0,0,0,
2026-03-23 14:30:00,METAR ZBAD 231430Z 16001MPS CAVOK 10/M00 Q1019 NOSIG,1,0,0,9999,0,0,0,
2026-03-23 14:00:00,METAR ZBAD 231400Z 17003MPS CAVOK 10/M00 Q1019 NOSIG,1,0,0,9999,0,0,0,
2026-03-23 13:30:00,METAR ZBAD 231330Z 17003MPS CAVOK 11/M02 Q1019 NOSIG,1,0,0,9999,0,0,0,
2026-03-23 13:00:00,METAR ZBAD 231300Z 15002MPS CAVOK 11/M03 Q1019 NOSIG,1,0,0,9999,0,0,0,
2026-03-23 12:30:00,METAR ZBAD 231230Z 15003MPS CAVOK 12/M03 Q1019 NOSIG,1,0,0,9999,0,0,0,
2026-03-23 12:00:00,METAR ZBAD 231200Z 14004MPS CAVOK 13/M04 Q1019 NOSIG,1,0,0,9999,0,0,0,
2026-03-23 11:30:00,METAR ZBAD 231130Z 15004MPS CAVOK 13/M04 Q1019 NOSIG,1,0,0,9999,0,0,0,
2026-03-23 11:00:00,METAR ZBAD 231100Z 15004MPS CAVOK 14/M04 Q1019 NOSIG,1,0,0,9999,0,0,0,
2026-03-23 10:30:00,METAR ZBAD 231030Z 14004MPS CAVOK 14/M04 Q1019 NOSIG,1,0,0,9999,0,0,0,
2026-03-23 10:00:00,METAR ZBAD 231000Z 15005MPS CAVOK 15/M05 Q1019 NOSIG,1,0,0,9999,0,0,0,
2026-03-23 09:30:00,METAR ZBAD 230930Z 16004MPS CAVOK 16/M04 Q1019 NOSIG,1,0,0,9999,0,0,0,
2026-03-23 09:00:00,METAR ZBAD 230900Z 16004MPS CAVOK 17/M05 Q1019 NOSIG,1,0,0,9999,0,0,0,
2026-03-23 08:30:00,METAR ZBAD 230830Z 18004MPS 150V210 7000 NSC 17/M05 Q1020 NOSIG,0,4,0,7000,0,0,0,
2026-03-23 08:00:00,METAR ZBAD 230800Z 18004MPS 150V210 7000 NSC 18/M04 Q1020 NOSIG,0,4,0,7000,0,0,0,
2026-03-23 07:30:00,METAR ZBAD 230730Z 19005MPS 130V230 7000 NSC 18/M03 Q1020 NOSIG,0,5,0,7000,0,0,0,
2026-03-23 07:00:00,METAR ZBAD 230700Z 15003MPS 110V200 7000 NSC 18/M04 Q1021 NOSIG,0,3,0,7000,0,0,0,
2026-03-23 06:30:00,METAR ZBAD 230630Z 16005MPS 090V240 7000 NSC 18/M03 Q1021 NOSIG,0,5,0,7000,0,0,0,
2026-03-23 06:00:00,METAR ZBAD 230600Z 17004MPS 140V210 7000 NSC 18/M02 Q1022 NOSIG,0,4,0,7000,0,0,0,
2026-03-23 05:30:00,METAR ZBAD 230530Z 18004MPS 130V220 6000 NSC 17/M03 Q1023 NOSIG,0,4,0,6000,0,0,0,
2026-03-23 05:00:00,METAR ZBAD 230500Z 15004MPS 120V180 6000 NSC 17/M03 Q1023 NOSIG,0,4,0,6000,0,0,0,
2026-03-23 04:30:00,METAR ZBAD 230430Z 18004MPS 160V220 6000 NSC 17/M02 Q1024 NOSIG,0,4,0,6000,0,0,0,
2026-03-23 04:00:00,METAR ZBAD 230400Z VRB02MPS 6000 NSC 17/M01 Q1025 BECMG TL0540 18005MPS,0,2,0,6000,0,0,0,
2026-03-23 03:30:00,METAR ZBAD 230330Z 22003MPS 170V310 6000 NSC 15/01 Q1025 NOSIG,0,3,0,6000,0,0,0,
2026-03-23 03:00:00,METAR ZBAD 230300Z 15003MPS 100V230 6000 NSC 15/00 Q1025 NOSIG,0,3,0,6000,0,0,0,
2026-03-23 02:30:00,METAR ZBAD 230230Z 12003MPS 060V160 4000 HZ NSC 14/01 Q1026 NOSIG,0,3,0,4000,0,0,0,
2026-03-23 02:00:00,METAR ZBAD 230200Z VRB01MPS 4000 HZ NSC 13/02 Q1026 NOSIG,0,1,0,4000,0,0,0,
2026-03-23 01:30:00,METAR ZBAD 230130Z 03002MPS 4000 HZ NSC 12/04 Q1026 NOSIG,0,2,0,4000,0,0,0,
2026-03-23 01:00:00,METAR ZBAD 230100Z 06002MPS 4000 HZ NSC 12/04 Q1026 NOSIG,0,2,0,4000,0,0,0,
2026-03-23 00:30:00,METAR ZBAD 230030Z 04003MPS 4000 HZ NSC 11/05 Q1026 NOSIG,0,3,0,4000,0,0,0,
2026-03-23 00:00:00,METAR ZBAD 230000Z 03004MPS 4000 HZ NSC 11/05 Q1026 NOSIG,0,4,0,4000,0,0,0,
2026-03-22 23:30:00,METAR ZBAD 222330Z 36003MPS 4000 BR NSC 10/06 Q1025 NOSIG,0,3,0,4000,0,0,1,BR
2026-03-22 23:00:00,METAR ZBAD 222300Z 36002MPS 4000 BR NSC 09/06 Q1025 NOSIG,0,2,0,4000,0,0,1,BR
2026-03-22 22:30:00,METAR ZBAD 222230Z 05003MPS 4000 BR NSC 09/05 Q1025 NOSIG,0,3,0,4000,0,0,1,BR
2026-03-22 22:00:00,METAR ZBAD 222200Z 03002MPS 6000 NSC 08/05 Q1025 NOSIG,0,2,0,6000,0,0,0,
2026-03-22 21:30:00,METAR ZBAD 222130Z 01003MPS 6000 NSC 08/05 Q1025 NOSIG,0,3,0,6000,0,0,0,
2026-03-22 21:00:00,METAR ZBAD 222100Z 36003MPS 6000 NSC 09/06 Q1024 NOSIG,0,3,0,6000,0,0,0,
2026-03-22 20:30:00,METAR ZBAD 222030Z 36004MPS 6000 NSC 09/06 Q1024 NOSIG,0,4,0,6000,0,0,0,
2026-03-22 20:00:00,METAR ZBAD 222000Z 36003MPS 6000 NSC 09/06 Q1024 NOSIG,0,3,0,6000,0,0,0,
2026-03-22 19:30:00,METAR ZBAD 221930Z 35003MPS 6000 NSC 09/06 Q1024 NOSIG,0,3,0,6000,0,0,0,
2026-03-22 19:00:00,METAR ZBAD 221900Z 05004MPS 6000 NSC 11/07 Q1024 NOSIG,0,4,0,6000,0,0,0,
2026-03-22 18:30:00,METAR ZBAD 221830Z 07004MPS 6000 NSC 10/06 Q1023 NOSIG,0,4,0,6000,0,0,0,
2026-03-22 18:00:00,METAR ZBAD 221800Z 08004MPS 6000 NSC 11/06 Q1023 NOSIG,0,4,0,6000,0,0,0,
2026-03-22 17:30:00,METAR ZBAD 221730Z 09004MPS 6000 NSC 11/06 Q1023 NOSIG,0,4,0,6000,0,0,0,
2026-03-22 17:00:00,METAR ZBAD 221700Z 10005MPS 6000 NSC 11/06 Q1022 NOSIG,0,5,0,6000,0,0,0,
2026-03-22 16:30:00,METAR ZBAD 221630Z 12005MPS 6000 NSC 12/06 Q1022 NOSIG,0,5,0,6000,0,0,0,
2026-03-22 16:00:00,METAR ZBAD 221600Z 11006MPS 7000 NSC 12/06 Q1022 NOSIG,0,6,0,7000,0,0,0,
2026-03-22 15:30:00,METAR ZBAD 221530Z 10006MPS 8000 NSC 12/05 Q1021 NOSIG,0,6,0,8000,0,0,0,
2026-03-22 15:00:00,METAR ZBAD 221500Z 11003MPS CAVOK 12/02 Q1021 NOSIG,1,0,0,9999,0,0,0,
2026-03-22 14:30:00,METAR ZBAD 221430Z VRB01MPS CAVOK 14/01 Q1021 NOSIG,1,0,0,9999,0,0,0,
2026-03-22 14:00:00,METAR ZBAD 221400Z VRB01MPS CAVOK 14/M01 Q1020 NOSIG,1,0,0,9999,0,0,0,
2026-03-22 13:30:00,METAR ZBAD 221330Z 15002MPS 120V210 CAVOK 13/M04 Q1020 NOSIG,1,0,0,9999,0,0,0,
2026-03-22 13:00:00,METAR ZBAD 221300Z 14002MPS 120V180 CAVOK 12/M07 Q1019 NOSIG,1,0,0,9999,0,0,0,
2026-03-22 12:30:00,METAR ZBAD 221230Z 08002MPS 030V110 CAVOK 14/M07 Q1019 NOSIG,1,0,0,9999,0,0,0,
2026-03-22 11:30:00,METAR ZBAD 221130Z 16001MPS CAVOK 18/M10 Q1018 NOSIG,1,0,0,9999,0,0,0,
2026-03-22 11:00:00,METAR ZBAD 221100Z 13002MPS CAVOK 17/M08 Q1017 NOSIG,1,0,0,9999,0,0,0,
2026-03-22 10:30:00,METAR ZBAD 221030Z 13002MPS CAVOK 18/M08 Q1017 NOSIG,1,0,0,9999,0,0,0,
2026-03-22 10:00:00,METAR ZBAD 221000Z 10002MPS 080V140 CAVOK 19/M10 Q1016 NOSIG,1,0,0,9999,0,0,0,
2026-03-22 09:30:00,METAR ZBAD 220930Z 06003MPS 020V090 CAVOK 21/M11 Q1016 NOSIG,1,0,0,9999,0,0,0,
2026-03-22 08:30:00,METAR ZBAD 220830Z 02002MPS 310V090 CAVOK 22/M12 Q1015 NOSIG,1,0,0,9999,0,0,0,
2026-03-22 08:00:00,METAR ZBAD 220800Z 35002MPS 290V080 CAVOK 23/M13 Q1015 NOSIG,1,0,0,9999,0,0,0,
2026-03-22 07:53:00,SPECI ZBAD 220753Z 35003MPS 300V020 CAVOK 23/M12 Q1015 NOSIG,1,0,0,9999,0,0,0,
2026-03-22 07:30:00,METAR ZBAD 220730Z 05005MPS 020V100 CAVOK 22/M12 Q1015 NOSIG,1,0,0,9999,0,0,0,
2026-03-22 06:30:00,METAR ZBAD 220630Z 01005MPS CAVOK 22/M11 Q1015 NOSIG,1,0,0,9999,0,0,0,
2026-03-22 06:00:00,METAR ZBAD 220600Z 03005G10MPS 340V080 CAVOK 22/M11 Q1015 NOSIG,1,0,0,9999,0,0,0,
2026-03-22 05:30:00,METAR ZBAD 220530Z 03007MPS CAVOK 22/M11 Q1015 NOSIG,1,0,0,9999,0,0,0,
2026-03-22 05:00:00,METAR ZBAD 220500Z 02006MPS 340V050 CAVOK 22/M10 Q1015 NOSIG,1,0,0,9999,0,0,0,
2026-03-22 04:30:00,METAR ZBAD 220430Z 03004MPS 340V080 CAVOK 21/M10 Q1016 NOSIG,1,0,0,9999,0,0,0,
2026-03-22 04:00:00,METAR ZBAD 220400Z 03006MPS CAVOK 21/M09 Q1016 NOSIG,1,0,0,9999,0,0,0,
2026-03-22 03:30:00,METAR ZBAD 220330Z 01006MPS CAVOK 20/M07 Q1016 NOSIG,1,0,0,9999,0,0,0,
2026-03-22 03:00:00,METAR ZBAD 220300Z 01007MPS CAVOK 19/M07 Q1016 NOSIG,1,0,0,9999,0,0,0,
2026-03-22 02:30:00,METAR ZBAD 220230Z 36004MPS 310V040 CAVOK 18/M02 Q1015 NOSIG,1,0,0,9999,0,0,0,
2026-03-22 02:00:00,METAR ZBAD 220200Z 31003MPS 280V050 7000 NSC 17/04 Q1015 BECMG TL0340 36008MPS,0,3,0,7000,0,0,0,
2026-03-22 01:30:00,METAR ZBAD 220130Z 27002MPS 210V310 6000 NSC 15/06 Q1015 NOSIG,0,2,0,6000,0,0,0,
2026-03-22 01:00:00,METAR ZBAD 220100Z 21002MPS 160V250 5000 HZ NSC 13/07 Q1015 BECMG TL0220 36005MPS,0,2,0,5000,0,0,0,
2026-03-22 00:30:00,METAR ZBAD 220030Z VRB01MPS 3500 BR NSC 11/07 Q1014 NOSIG,0,1,0,3500,0,0,1,BR
2026-03-22 00:00:00,METAR ZBAD 220000Z 22002MPS 3200 BR NSC 09/07 Q1014 NOSIG,0,2,0,3200,0,0,1,BR
2026-03-21 23:30:00,METAR ZBAD 212330Z 15002MPS 2800 BR NSC 06/05 Q1014 NOSIG,0,2,0,2800,0,0,1,BR
2026-03-21 23:00:00,METAR ZBAD 212300Z 12003MPS 2800 BR NSC 05/03 Q1014 BECMG TL0040 3200,0,3,0,2800,0,0,1,BR
2026-03-21 22:30:00,METAR ZBAD 212230Z 09002MPS 070V140 4000 BR NSC 06/04 Q1013 NOSIG,0,2,0,4000,0,0,1,BR
2026-03-21 22:00:00,METAR ZBAD 212200Z 19001MPS 6000 NSC 05/03 Q1013 BECMG TL2340 2800,0,1,0,6000,0,0,0,
2026-03-21 21:30:00,METAR ZBAD 212130Z 23002MPS 6000 NSC 05/04 Q1013 NOSIG,0,2,0,6000,0,0,0,
2026-03-21 21:00:00,METAR ZBAD 212100Z 21002MPS 6000 NSC 04/03 Q1013 NOSIG,0,2,0,6000,0,0,0,
2026-03-21 20:30:00,METAR ZBAD 212030Z 20001MPS 6000 NSC 06/03 Q1013 NOSIG,0,1,0,6000,0,0,0,
2026-03-21 19:30:00,METAR ZBAD 211930Z VRB01MPS 7000 NSC 08/04 Q1013 NOSIG,0,1,0,7000,0,0,0,
2026-03-21 19:00:00,METAR ZBAD 211900Z 22002MPS 8000 NSC 08/04 Q1012 NOSIG,0,2,0,8000,0,0,0,
2026-03-21 18:30:00,METAR ZBAD 211830Z 34003MPS 8000 NSC 09/04 Q1012 NOSIG,0,3,0,8000,0,0,0,
2026-03-21 18:00:00,METAR ZBAD 211800Z 30003MPS 8000 NSC 11/05 Q1012 NOSIG,0,3,0,8000,0,0,0,
2026-03-21 17:30:00,METAR ZBAD 211730Z 32005MPS CAVOK 12/06 Q1012 NOSIG,1,0,0,9999,0,0,0,
2026-03-21 17:00:00,METAR ZBAD 211700Z 19005MPS CAVOK 12/06 Q1012 NOSIG,1,0,0,9999,0,0,0,
2026-03-21 16:30:00,METAR ZBAD 211630Z 17006MPS 5000 -SHRA BR SCT033 10/06 Q1012 NOSIG,0,6,0,5000,0,0,1,"BR,RA"
2026-03-21 16:00:00,METAR ZBAD 211600Z 15003MPS 130V280 5000 -SHRA BR SCT033 10/06 Q1013 NOSIG,0,3,0,5000,0,0,1,"BR,RA"
2026-03-21 15:30:00,METAR ZBAD 211530Z 33002MPS 5000 HZ SCT033 11/03 Q1014 NOSIG,0,2,0,5000,0,0,0,
2026-03-21 14:30:00,METAR ZBAD 211430Z 32001MPS 5000 HZ SCT033 11/04 Q1014 NOSIG,0,1,0,5000,0,0,0,
2026-03-21 14:00:00,METAR ZBAD 211400Z 17001MPS 5000 HZ SCT033 10/04 Q1014 NOSIG,0,1,0,5000,0,0,0,
2026-03-21 13:30:00,METAR ZBAD 211330Z 26001MPS 5000 HZ SCT030 11/04 Q1014 NOSIG,0,1,0,5000,0,0,0,
2026-03-21 13:00:00,METAR ZBAD 211300Z 18002MPS 5000 HZ SCT030 10/04 Q1014 NOSIG,0,2,0,5000,0,0,0,
2026-03-21 12:30:00,METAR ZBAD 211230Z 19002MPS 5000 HZ SCT030 10/03 Q1013 NOSIG,0,2,0,5000,0,0,0,
2026-03-21 12:00:00,METAR ZBAD 211200Z 14002MPS 5000 HZ SCT030 11/03 Q1013 NOSIG,0,2,0,5000,0,0,0,
2026-03-21 11:30:00,METAR ZBAD 211130Z 14002MPS 5000 HZ SCT030 12/03 Q1013 NOSIG,0,2,0,5000,0,0,0,
2026-03-21 11:00:00,METAR ZBAD 211100Z 26001MPS 5000 HZ SCT030 12/03 Q1013 NOSIG,0,1,0,5000,0,0,0,
2026-03-21 10:30:00,METAR ZBAD 211030Z 29001MPS 6000 SCT030 13/03 Q1013 NOSIG,0,1,0,6000,0,0,0,
2026-03-21 10:00:00,METAR ZBAD 211000Z 28002MPS 6000 SCT030 14/03 Q1013 NOSIG,0,2,0,6000,0,0,0,
2026-03-21 09:30:00,METAR ZBAD 210930Z 27003MPS 6000 SCT030 15/03 Q1013 NOSIG,0,3,0,6000,0,0,0,
2026-03-21 09:00:00,METAR ZBAD 210900Z 23004MPS 6000 SCT030 15/03 Q1013 NOSIG,0,4,0,6000,0,0,0,
2026-03-21 08:30:00,METAR ZBAD 210830Z 23005MPS 6000 SCT030 15/03 Q1013 NOSIG,0,5,0,6000,0,0,0,
2026-03-21 08:00:00,METAR ZBAD 210800Z 24003MPS 210V270 6000 SCT030 16/04 Q1013 NOSIG,0,3,0,6000,0,0,0,
2026-03-21 07:30:00,METAR ZBAD 210730Z 22003MPS 190V270 6000 SCT030 16/03 Q1014 NOSIG,0,3,0,6000,0,0,0,
2026-03-21 07:00:00,METAR ZBAD 210700Z 22003MPS 170V250 7000 FEW030 15/03 Q1014 NOSIG,0,3,0,7000,0,0,0,
2026-03-21 06:30:00,METAR ZBAD 210630Z 22004MPS 170V250 8000 FEW030 15/02 Q1014 NOSIG,0,4,0,8000,0,0,0,
2026-03-21 06:00:00,METAR ZBAD 210600Z 22003MPS 180V270 8000 FEW030 15/02 Q1015 NOSIG,0,3,0,8000,0,0,0,
2026-03-21 05:30:00,METAR ZBAD 210530Z 16003MPS 120V200 9999 FEW030 15/01 Q1015 NOSIG,0,3,0,10000,0,0,0,
2026-03-21 05:00:00,METAR ZBAD 210500Z 17003MPS 110V250 9999 FEW030 14/M00 Q1016 NOSIG,0,3,0,10000,0,0,0,
2026-03-21 04:30:00,METAR ZBAD 210430Z 14002MPS 070V190 9999 FEW030 13/M01 Q1017 NOSIG,0,2,0,10000,0,0,0,
2026-03-21 04:00:00,METAR ZBAD 210400Z VRB01MPS 9999 FEW030 12/M03 Q1017 NOSIG,0,1,0,10000,0,0,0,
2026-03-21 03:30:00,METAR ZBAD 210330Z 05002MPS 350V150 9999 FEW030 10/M04 Q1018 NOSIG,0,2,0,10000,0,0,0,
2026-03-21 03:00:00,METAR ZBAD 210300Z VRB01MPS 9999 FEW030 10/M04 Q1018 NOSIG,0,1,0,10000,0,0,0,
2026-03-21 02:30:00,METAR ZBAD 210230Z 07002MPS 030V170 CAVOK 08/M05 Q1019 NOSIG,1,0,0,9999,0,0,0,
2026-03-21 02:00:00,METAR ZBAD 210200Z 06002MPS 010V110 CAVOK 08/M05 Q1019 NOSIG,1,0,0,9999,0,0,0,
2026-03-21 01:30:00,METAR ZBAD 210130Z 05002MPS 010V080 CAVOK 06/M05 Q1019 NOSIG,1,0,0,9999,0,0,0,
2026-03-21 01:00:00,METAR ZBAD 210100Z 09002MPS 060V120 CAVOK 06/M05 Q1019 NOSIG,1,0,0,9999,0,0,0,
2026-03-21 00:30:00,METAR ZBAD 210030Z 05002MPS 020V080 CAVOK 05/M05 Q1020 NOSIG,1,0,0,9999,0,0,0,
2026-03-21 00:00:00,METAR ZBAD 210000Z 05002MPS CAVOK 04/M06 Q1020 NOSIG,1,0,0,9999,0,0,0,
2026-03-20 23:30:00,METAR ZBAD 202330Z 36002MPS CAVOK 03/M05 Q1020 NOSIG,1,0,0,9999,0,0,0,
2026-03-20 23:00:00,METAR ZBAD 202300Z 36003MPS CAVOK 02/M06 Q1020 NOSIG,1,0,0,9999,0,0,0,
2026-03-20 22:30:00,METAR ZBAD 202230Z 35002MPS CAVOK 00/M06 Q1020 NOSIG,1,0,0,9999,0,0,0,
2026-03-20 21:30:00,METAR ZBAD 202130Z VRB01MPS CAVOK 01/M06 Q1020 NOSIG,1,0,0,9999,0,0,0,
2026-03-20 21:00:00,METAR ZBAD 202100Z 35001MPS CAVOK 01/M07 Q1020 NOSIG,1,0,0,9999,0,0,0,
2026-03-20 20:30:00,METAR ZBAD 202030Z 10001MPS CAVOK 01/M06 Q1020 NOSIG,1,0,0,9999,0,0,0,
2026-03-20 19:30:00,METAR ZBAD 201930Z VRB01MPS CAVOK 03/M06 Q1020 NOSIG,1,0,0,9999,0,0,0,
2026-03-20 19:00:00,METAR ZBAD 201900Z 11001MPS CAVOK 02/M07 Q1020 NOSIG,1,0,0,9999,0,0,0,
2026-03-20 18:30:00,METAR ZBAD 201830Z 12003MPS CAVOK 02/M07 Q1020 NOSIG,1,0,0,9999,0,0,0,
2026-03-20 18:00:00,METAR ZBAD 201800Z 10003MPS CAVOK 02/M07 Q1021 NOSIG,1,0,0,9999,0,0,0,
2026-03-20 17:30:00,METAR ZBAD 201730Z 10003MPS CAVOK 02/M08 Q1021 NOSIG,1,0,0,9999,0,0,0,
2026-03-20 16:30:00,METAR ZBAD 201630Z 07003MPS CAVOK 05/M09 Q1022 NOSIG,1,0,0,9999,0,0,0,
2026-03-20 16:00:00,METAR ZBAD 201600Z 07003MPS CAVOK 05/M09 Q1022 NOSIG,1,0,0,9999,0,0,0,
2026-03-20 15:30:00,METAR ZBAD 201530Z 10002MPS CAVOK 04/M08 Q1022 NOSIG,1,0,0,9999,0,0,0,
2026-03-20 15:00:00,METAR ZBAD 201500Z 08003MPS CAVOK 05/M08 Q1022 NOSIG,1,0,0,9999,0,0,0,
2026-03-20 14:30:00,METAR ZBAD 201430Z 09003MPS CAVOK 06/M09 Q1022 NOSIG,1,0,0,9999,0,0,0,
2026-03-20 14:00:00,METAR ZBAD 201400Z 08002MPS CAVOK 06/M09 Q1023 NOSIG,1,0,0,9999,0,0,0,
2026-03-20 13:30:00,METAR ZBAD 201330Z 09003MPS CAVOK 07/M08 Q1022 NOSIG,1,0,0,9999,0,0,0,
2026-03-20 12:30:00,METAR ZBAD 201230Z 13003MPS CAVOK 07/M08 Q1022 NOSIG,1,0,0,9999,0,0,0,
2026-03-20 11:30:00,METAR ZBAD 201130Z 13002MPS CAVOK 08/M07 Q1021 NOSIG,1,0,0,9999,0,0,0,
2026-03-20 10:30:00,METAR ZBAD 201030Z 15004MPS CAVOK 10/M07 Q1021 NOSIG,1,0,0,9999,0,0,0,
2026-03-20 10:00:00,METAR ZBAD 201000Z 14005MPS CAVOK 11/M06 Q1020 NOSIG,1,0,0,9999,0,0,0,
2026-03-20 09:30:00,METAR ZBAD 200930Z 14005MPS CAVOK 11/M06 Q1020 NOSIG,1,0,0,9999,0,0,0,
2026-03-20 09:00:00,METAR ZBAD 200900Z 15006MPS CAVOK 12/M06 Q1020 NOSIG,1,0,0,9999,0,0,0,
2026-03-20 08:30:00,METAR ZBAD 200830Z 16005MPS CAVOK 13/M06 Q1020 NOSIG,1,0,0,9999,0,0,0,
2026-03-20 08:00:00,METAR ZBAD 200800Z 17006MPS CAVOK 13/M06 Q1020 NOSIG,1,0,0,9999,0,0,0,
2026-03-20 07:30:00,METAR ZBAD 200730Z 16005MPS 120V190 CAVOK 14/M06 Q1021 NOSIG,1,0,0,9999,0,0,0,
2026-03-20 06:30:00,METAR ZBAD 200630Z 16006MPS 130V190 CAVOK 14/M06 Q1021 NOSIG,1,0,0,9999,0,0,0,
2026-03-20 06:00:00,METAR ZBAD 200600Z 17007MPS CAVOK 15/M07 Q1021 NOSIG,1,0,0,9999,0,0,0,
2026-03-20 05:30:00,METAR ZBAD 200530Z 17006MPS CAVOK 15/M07 Q1021 NOSIG,1,0,0,9999,0,0,0,
2026-03-20 05:00:00,METAR ZBAD 200500Z 16004MPS 070V200 CAVOK 15/M06 Q1022 BECMG TL0640 22005MPS,1,0,0,9999,0,0,0,
2026-03-20 04:53:00,SPECI ZBAD 200453Z 18005MPS CAVOK 15/M06 Q1022 NOSIG,1,0,0,9999,0,0,0,
2026-03-20 04:30:00,METAR ZBAD 200430Z 12003MPS 070V180 CAVOK 14/M06 Q1022 NOSIG,1,0,0,9999,0,0,0,
2026-03-20 04:00:00,METAR ZBAD 200400Z 12004MPS 070V200 CAVOK 14/M06 Q1022 BECMG TL0540 18005MPS,1,0,0,9999,0,0,0,
2026-03-20 03:30:00,METAR ZBAD 200330Z 11005MPS 080V140 CAVOK 13/M05 Q1023 NOSIG,1,0,0,9999,0,0,0,
2026-03-20 03:00:00,METAR ZBAD 200300Z 11005MPS CAVOK 13/M05 Q1023 NOSIG,1,0,0,9999,0,0,0,
2026-03-20 02:30:00,METAR ZBAD 200230Z 10005MPS 060V160 CAVOK 12/M05 Q1023 NOSIG,1,0,0,9999,0,0,0,
2026-03-20 02:00:00,METAR ZBAD 200200Z 11007MPS CAVOK 12/M04 Q1023 NOSIG,1,0,0,9999,0,0,0,
2026-03-20 01:30:00,METAR ZBAD 200130Z 10006MPS CAVOK 11/M02 Q1022 NOSIG,1,0,0,9999,0,0,0,
2026-03-20 01:00:00,METAR ZBAD 200100Z 10006MPS CAVOK 09/M00 Q1022 NOSIG,1,0,0,9999,0,0,0,
2026-03-20 00:30:00,METAR ZBAD 200030Z 06005MPS CAVOK 07/M03 Q1021 NOSIG,1,0,0,9999,0,0,0,
2026-03-20 00:00:00,METAR ZBAD 200000Z 06005MPS CAVOK 07/M04 Q1021 NOSIG,1,0,0,9999,0,0,0,
2026-03-19 23:30:00,METAR ZBAD 192330Z 05004MPS CAVOK 07/M06 Q1020 NOSIG,1,0,0,9999,0,0,0,
2026-03-19 23:00:00,METAR ZBAD 192300Z 10002MPS 050V130 CAVOK 04/M05 Q1020 NOSIG,1,0,0,9999,0,0,0,
2026-03-19 22:30:00,METAR ZBAD 192230Z 01004MPS CAVOK 02/M04 Q1019 NOSIG,1,0,0,9999,0,0,0,
2026-03-19 22:00:00,METAR ZBAD 192200Z 36003MPS CAVOK 02/M05 Q1019 NOSIG,1,0,0,9999,0,0,0,
2026-03-19 21:30:00,METAR ZBAD 192130Z 03002MPS CAVOK 02/M03 Q1019 NOSIG,1,0,0,9999,0,0,0,
2026-03-19 21:00:00,METAR ZBAD 192100Z 01002MPS CAVOK 02/M04 Q1018 NOSIG,1,0,0,9999,0,0,0,
2026-03-19 20:30:00,METAR ZBAD 192030Z VRB01MPS CAVOK M01/M04 Q1018 NOSIG,1,0,0,9999,0,0,0,
2026-03-19 20:00:00,METAR ZBAD 192000Z VRB01MPS CAVOK 01/M05 Q1018 NOSIG,1,0,0,9999,0,0,0,
2026-03-19 19:30:00,METAR ZBAD 191930Z 20001MPS CAVOK 02/M03 Q1018 NOSIG,1,0,0,9999,0,0,0,
2026-03-19 19:00:00,METAR ZBAD 191900Z 31002MPS CAVOK 02/M04 Q1017 NOSIG,1,0,0,9999,0,0,0,
2026-03-19 18:30:00,METAR ZBAD 191830Z 27001MPS CAVOK 04/M03 Q1017 NOSIG,1,0,0,9999,0,0,0,
2026-03-19 18:00:00,METAR ZBAD 191800Z 23001MPS CAVOK 04/M03 Q1017 NOSIG,1,0,0,9999,0,0,0,
2026-03-19 17:30:00,METAR ZBAD 191730Z 22002MPS 170V260 CAVOK 06/M04 Q1017 NOSIG,1,0,0,9999,0,0,0,
2026-03-19 17:00:00,METAR ZBAD 191700Z 25003MPS CAVOK 08/M03 Q1017 NOSIG,1,0,0,9999,0,0,0,
2026-03-19 16:30:00,METAR ZBAD 191630Z 28003MPS CAVOK 08/M02 Q1017 NOSIG,1,0,0,9999,0,0,0,
2026-03-19 16:00:00,METAR ZBAD 191600Z 24004MPS CAVOK 10/M02 Q1017 NOSIG,1,0,0,9999,0,0,0,
2026-03-19 15:30:00,METAR ZBAD 191530Z 23004MPS CAVOK 10/M03 Q1016 NOSIG,1,0,0,9999,0,0,0,
2026-03-19 14:30:00,METAR ZBAD 191430Z 22005MPS CAVOK 11/M03 Q1016 NOSIG,1,0,0,9999,0,0,0,
2026-03-19 14:00:00,METAR ZBAD 191400Z 22006MPS CAVOK 11/M04 Q1016 NOSIG,1,0,0,9999,0,0,0,
2026-03-19 13:30:00,METAR ZBAD 191330Z 22006MPS CAVOK 11/M03 Q1015 NOSIG,1,0,0,9999,0,0,0,
2026-03-19 13:00:00,METAR ZBAD 191300Z 22004MPS CAVOK 09/M05 Q1015 NOSIG,1,0,0,9999,0,0,0,
2026-03-19 12:30:00,METAR ZBAD 191230Z 22004MPS CAVOK 09/M06 Q1015 NOSIG,1,0,0,9999,0,0,0,
2026-03-19 12:00:00,METAR ZBAD 191200Z 21005MPS CAVOK 11/M06 Q1015 NOSIG,1,0,0,9999,0,0,0,
2026-03-19 11:30:00,METAR ZBAD 191130Z 21004MPS CAVOK 11/M07 Q1015 NOSIG,1,0,0,9999,0,0,0,
2026-03-19 11:00:00,METAR ZBAD 191100Z 23005MPS CAVOK 13/M09 Q1014 NOSIG,1,0,0,9999,0,0,0,
2026-03-19 10:30:00,METAR ZBAD 191030Z 21003MPS CAVOK 12/M11 Q1014 NOSIG,1,0,0,9999,0,0,0,
2026-03-19 10:00:00,METAR ZBAD 191000Z 21005MPS CAVOK 15/M12 Q1014 NOSIG,1,0,0,9999,0,0,0,
2026-03-19 09:30:00,METAR ZBAD 190930Z 21005MPS CAVOK 16/M13 Q1014 NOSIG,1,0,0,9999,0,0,0,
2026-03-19 09:00:00,METAR ZBAD 190900Z 23005MPS CAVOK 17/M12 Q1014 NOSIG,1,0,0,9999,0,0,0,
2026-03-19 08:30:00,METAR ZBAD 190830Z 22004MPS CAVOK 16/M10 Q1014 NOSIG,1,0,0,9999,0,0,0,
2026-03-19 08:00:00,METAR ZBAD 190800Z 21006MPS CAVOK 16/M11 Q1014 NOSIG,1,0,0,9999,0,0,0,
2026-03-19 07:30:00,METAR ZBAD 190730Z 21005MPS CAVOK 16/M11 Q1014 NOSIG,1,0,0,9999,0,0,0,
2026-03-19 07:00:00,METAR ZBAD 190700Z 22006MPS 200V270 CAVOK 16/M12 Q1014 NOSIG,1,0,0,9999,0,0,0,
2026-03-19 06:30:00,METAR ZBAD 190630Z 22005MPS CAVOK 17/M15 Q1014 NOSIG,1,0,0,9999,0,0,0,
2026-03-19 06:00:00,METAR ZBAD 190600Z 24004MPS 200V280 CAVOK 17/M13 Q1015 NOSIG,1,0,0,9999,0,0,0,
2026-03-19 05:30:00,METAR ZBAD 190530Z 24004MPS 180V270 CAVOK 16/M11 Q1015 NOSIG,1,0,0,9999,0,0,0,
2026-03-19 05:00:00,METAR ZBAD 190500Z 20004MPS 170V250 CAVOK 15/M08 Q1016 NOSIG,1,0,0,9999,0,0,0,
2026-03-19 04:30:00,METAR ZBAD 190430Z 20005MPS 170V230 CAVOK 15/M09 Q1017 NOSIG,1,0,0,9999,0,0,0,
2026-03-19 04:00:00,METAR ZBAD 190400Z 20004MPS 160V270 CAVOK 14/M10 Q1017 NOSIG,1,0,0,9999,0,0,0,
2026-03-19 03:30:00,METAR ZBAD 190330Z 22003MPS 170V250 CAVOK 13/M08 Q1018 NOSIG,1,0,0,9999,0,0,0,
2026-03-19 03:00:00,METAR ZBAD 190300Z 23003MPS 190V260 CAVOK 12/M08 Q1018 NOSIG,1,0,0,9999,0,0,0,
2026-03-19 02:30:00,METAR ZBAD 190230Z 22002MPS 150V270 CAVOK 10/M08 Q1019 NOSIG,1,0,0,9999,0,0,0,
2026-03-19 02:00:00,METAR ZBAD 190200Z 21003MPS 180V260 CAVOK 09/M06 Q1019 NOSIG,1,0,0,9999,0,0,0,
2026-03-19 01:30:00,METAR ZBAD 190130Z 22002MPS 200V270 CAVOK 08/M06 Q1019 NOSIG,1,0,0,9999,0,0,0,
2026-03-19 01:00:00,METAR ZBAD 190100Z 21004MPS CAVOK 07/M06 Q1019 NOSIG,1,0,0,9999,0,0,0,
2026-03-19 00:30:00,METAR ZBAD 190030Z 21003MPS CAVOK 06/M06 Q1019 NOSIG,1,0,0,9999,0,0,0,
2026-03-19 00:00:00,METAR ZBAD 190000Z 20002MPS CAVOK 04/M06 Q1019 NOSIG,1,0,0,9999,0,0,0,
2026-03-18 23:30:00,METAR ZBAD 182330Z VRB01MPS CAVOK 03/M07 Q1019 NOSIG,1,0,0,9999,0,0,0,
2026-03-18 23:00:00,METAR ZBAD 182300Z 20002MPS CAVOK 00/M08 Q1019 NOSIG,1,0,0,9999,0,0,0,
2026-03-18 22:30:00,METAR ZBAD 182230Z 20004MPS CAVOK M00/M07 Q1018 NOSIG,1,0,0,9999,0,0,0,
2026-03-18 22:00:00,METAR ZBAD 182200Z 20003MPS CAVOK M01/M08 Q1018 NOSIG,1,0,0,9999,0,0,0,
2026-03-18 21:30:00,METAR ZBAD 182130Z 20003MPS CAVOK M01/M09 Q1019 NOSIG,1,0,0,9999,0,0,0,
2026-03-18 20:30:00,METAR ZBAD 182030Z 20003MPS CAVOK 00/M11 Q1019 NOSIG,1,0,0,9999,0,0,0,
2026-03-18 20:00:00,METAR ZBAD 182000Z 20003MPS CAVOK 02/M11 Q1019 NOSIG,1,0,0,9999,0,0,0,
2026-03-18 19:30:00,METAR ZBAD 181930Z 21003MPS CAVOK 01/M11 Q1019 NOSIG,1,0,0,9999,0,0,0,
2026-03-18 19:00:00,METAR ZBAD 181900Z 20004MPS CAVOK 01/M11 Q1019 NOSIG,1,0,0,9999,0,0,0,
2026-03-18 18:30:00,METAR ZBAD 181830Z 20004MPS CAVOK 01/M11 Q1020 NOSIG,1,0,0,9999,0,0,0,
2026-03-18 18:00:00,METAR ZBAD 181800Z 20003MPS CAVOK 02/M12 Q1020 NOSIG,1,0,0,9999,0,0,0,
2026-03-18 17:30:00,METAR ZBAD 181730Z 23005MPS CAVOK 05/M13 Q1020 NOSIG,1,0,0,9999,0,0,0,
2026-03-18 16:30:00,METAR ZBAD 181630Z 23006MPS CAVOK 06/M13 Q1020 NOSIG,1,0,0,9999,0,0,0,
2026-03-18 16:00:00,METAR ZBAD 181600Z 23005MPS CAVOK 05/M12 Q1021 NOSIG,1,0,0,9999,0,0,0,
2026-03-18 15:30:00,METAR ZBAD 181530Z 22005MPS CAVOK 05/M12 Q1021 NOSIG,1,0,0,9999,0,0,0,
2026-03-18 15:00:00,METAR ZBAD 181500Z 22005MPS CAVOK 05/M11 Q1021 NOSIG,1,0,0,9999,0,0,0,
2026-03-18 14:30:00,METAR ZBAD 181430Z 22004MPS CAVOK 04/M12 Q1021 NOSIG,1,0,0,9999,0,0,0,
2026-03-18 14:00:00,METAR ZBAD 181400Z 21004MPS CAVOK 05/M12 Q1021 NOSIG,1,0,0,9999,0,0,0,
2026-03-18 13:30:00,METAR ZBAD 181330Z 21004MPS CAVOK 05/M13 Q1021 NOSIG,1,0,0,9999,0,0,0,
2026-03-18 13:00:00,METAR ZBAD 181300Z 21004MPS CAVOK 06/M13 Q1020 NOSIG,1,0,0,9999,0,0,0,
2026-03-18 12:30:00,METAR ZBAD 181230Z 21004MPS CAVOK 07/M13 Q1020 NOSIG,1,0,0,9999,0,0,0,
2026-03-18 12:00:00,METAR ZBAD 181200Z 22004MPS CAVOK 07/M14 Q1020 NOSIG,1,0,0,9999,0,0,0,
2026-03-18 11:30:00,METAR ZBAD 181130Z 22004MPS CAVOK 07/M15 Q1020 NOSIG,1,0,0,9999,0,0,0,
2026-03-18 10:30:00,METAR ZBAD 181030Z 22003MPS CAVOK 09/M18 Q1020 NOSIG,1,0,0,9999,0,0,0,
2026-03-18 10:00:00,METAR ZBAD 181000Z 22004MPS CAVOK 11/M19 Q1019 NOSIG,1,0,0,9999,0,0,0,
2026-03-18 09:30:00,METAR ZBAD 180930Z 22005MPS 190V260 CAVOK 12/M19 Q1019 NOSIG,1,0,0,9999,0,0,0,
2026-03-18 09:00:00,METAR ZBAD 180900Z 25005MPS CAVOK 12/M20 Q1020 NOSIG,1,0,0,9999,0,0,0,
2026-03-18 08:30:00,METAR ZBAD 180830Z 23005MPS CAVOK 12/M20 Q1020 NOSIG,1,0,0,9999,0,0,0,
2026-03-18 08:00:00,METAR ZBAD 180800Z 25004MPS CAVOK 12/M20 Q1020 NOSIG,1,0,0,9999,0,0,0,
2026-03-18 07:30:00,METAR ZBAD 180730Z 25006MPS CAVOK 12/M20 Q1021 NOSIG,1,0,0,9999,0,0,0,
2026-03-18 07:00:00,METAR ZBAD 180700Z 26005MPS 210V290 CAVOK 12/M20 Q1021 BECMG TL0840 20004MPS,1,0,0,9999,0,0,0,
2026-03-18 06:30:00,METAR ZBAD 180630Z 28006G11MPS CAVOK 13/M21 Q1021 NOSIG,1,0,0,9999,0,0,0,
2026-03-18 06:19:00,SPECI ZBAD 180619Z 21002MPS 120V280 CAVOK 11/M22 Q1021 NOSIG,1,0,0,9999,0,0,0,
2026-03-18 06:00:00,METAR ZBAD 180600Z 28005MPS 240V320 CAVOK 12/M21 Q1022 NOSIG,1,0,0,9999,0,0,0,
2026-03-18 05:30:00,METAR ZBAD 180530Z 27005MPS 210V340 CAVOK 11/M22 Q1022 NOSIG,1,0,0,9999,0,0,0,
2026-03-18 05:08:00,SPECI ZBAD 180508Z 26005MPS CAVOK 12/M25 Q1023 NOSIG,1,0,0,9999,0,0,0,
2026-03-18 05:00:00,METAR ZBAD 180500Z COR 35002MPS 300V080 CAVOK 12/M25 Q1023 BECMG TL0640 27005MPS,1,0,0,9999,0,0,0,
2026-03-18 04:30:00,METAR ZBAD 180430Z VRB02MPS CAVOK 10/M23 Q1024 NOSIG,1,0,0,9999,0,0,0,
2026-03-18 04:00:00,METAR ZBAD 180400Z 27002MPS 180V310 CAVOK 09/M24 Q1024 NOSIG,1,0,0,9999,0,0,0,
2026-03-18 03:51:00,SPECI ZBAD 180351Z 31004MPS 250V010 CAVOK 10/M22 Q1024 NOSIG,1,0,0,9999,0,0,0,
2026-03-18 03:30:00,METAR ZBAD 180330Z 01005MPS 340V060 CAVOK 09/M23 Q1024 NOSIG,1,0,0,9999,0,0,0,
2026-03-18 03:17:00,SPECI ZBAD 180317Z 32004MPS 290V350 CAVOK 09/M23 Q1025 NOSIG,1,0,0,9999,0,0,0,
2026-03-18 03:00:00,METAR ZBAD 180300Z 02006MPS 350V060 CAVOK 08/M23 Q1025 BECMG TL0440 32005MPS,1,0,0,9999,0,0,0,
2026-03-18 02:30:00,METAR ZBAD 180230Z 03006MPS 360V060 CAVOK 07/M22 Q1025 NOSIG,1,0,0,9999,0,0,0,
2026-03-18 02:00:00,METAR ZBAD 180200Z 02007MPS 350V050 CAVOK 07/M21 Q1025 BECMG TL0340 32005MPS,1,0,0,9999,0,0,0,
2026-03-18 01:30:00,METAR ZBAD 180130Z 01010MPS CAVOK 07/M22 Q1025 NOSIG,1,0,0,9999,0,0,0,
2026-03-18 01:00:00,METAR ZBAD 180100Z 02011MPS CAVOK 06/M22 Q1025 BECMG TL0240 36006MPS,1,0,0,9999,0,0,0,
2026-03-18 00:30:00,METAR ZBAD 180030Z 01011G16MPS CAVOK 06/M22 Q1025 NOSIG,1,0,0,9999,0,0,0,
2026-03-18 00:00:00,METAR ZBAD 180000Z 01009MPS CAVOK 06/M20 Q1025 NOSIG,1,0,0,9999,0,0,0,
2026-03-17 23:30:00,METAR ZBAD 172330Z 01009MPS CAVOK 05/M18 Q1024 NOSIG,1,0,0,9999,0,0,0,
2026-03-17 23:00:00,METAR ZBAD 172300Z 01009MPS CAVOK 04/M18 Q1024 NOSIG,1,0,0,9999,0,0,0,
2026-03-17 22:30:00,METAR ZBAD 172230Z 01009G14MPS CAVOK 04/M16 Q1023 NOSIG,1,0,0,9999,0,0,0,
2026-03-17 22:00:00,METAR ZBAD 172200Z 02009G14MPS CAVOK 05/M15 Q1022 NOSIG,1,0,0,9999,0,0,0,
2026-03-17 21:30:00,METAR ZBAD 172130Z 01009MPS CAVOK 05/M15 Q1021 NOSIG,1,0,0,9999,0,0,0,
2026-03-17 21:00:00,METAR ZBAD 172100Z 01010MPS CAVOK 06/M14 Q1021 NOSIG,1,0,0,9999,0,0,0,
2026-03-17 20:30:00,METAR ZBAD 172030Z 01011MPS CAVOK 06/M12 Q1021 NOSIG,1,0,0,9999,0,0,0,
2026-03-17 20:00:00,METAR ZBAD 172000Z 01009MPS CAVOK 07/M09 Q1020 NOSIG,1,0,0,9999,0,0,0,
2026-03-17 19:30:00,METAR ZBAD 171930Z 36010MPS CAVOK 07/M08 Q1019 NOSIG,1,0,0,9999,0,0,0,
2026-03-17 19:00:00,METAR ZBAD 171900Z 01010MPS CAVOK 07/M07 Q1019 NOSIG,1,0,0,9999,0,0,0,
2026-03-17 18:30:00,METAR ZBAD 171830Z 01010MPS CAVOK 08/M05 Q1019 NOSIG,1,0,0,9999,0,0,0,
2026-03-17 18:00:00,METAR ZBAD 171800Z 01014MPS CAVOK 09/M05 Q1019 NOSIG,1,0,0,9999,0,0,0,
2026-03-17 17:30:00,METAR ZBAD 171730Z 01010MPS CAVOK 10/M06 Q1018 NOSIG,1,0,0,9999,0,0,0,
2026-03-17 17:00:00,METAR ZBAD 171700Z 01008MPS CAVOK 10/M02 Q1018 NOSIG,1,0,0,9999,0,0,0,
2026-03-17 16:41:00,SPECI ZBAD 171641Z 01009G14MPS 7000 -SHRA BKN040 10/01 Q1017 NOSIG,0,9,1,7000,0,0,0,RA
2026-03-17 16:30:00,METAR ZBAD 171630Z 36004MPS 4500 -SHRA BR BKN040 09/05 Q1017 NOSIG,0,4,0,4500,0,0,1,"BR,RA"
2026-03-17 16:00:00,METAR ZBAD 171600Z 01004MPS 4500 -SHRA HZ BKN040 10/05 Q1017 NOSIG,0,4,0,4500,0,0,0,RA
2026-03-17 15:30:00,METAR ZBAD 171530Z 01006MPS 4500 -SHRA HZ BKN040 10/04 Q1016 NOSIG,0,6,0,4500,0,0,0,RA
2026-03-17 15:00:00,METAR ZBAD 171500Z 34004MPS 4500 HZ BKN040 11/05 Q1016 NOSIG,0,4,0,4500,0,0,0,
2026-03-17 14:30:00,METAR ZBAD 171430Z VRB01MPS 4500 HZ SCT040 12/05 Q1015 NOSIG,0,1,0,4500,0,0,0,
2026-03-17 14:00:00,METAR ZBAD 171400Z VRB01MPS 4500 HZ SCT040 11/05 Q1016 BECMG TL1540 36005MPS,0,1,0,4500,0,0,0,
2026-03-17 13:30:00,METAR ZBAD 171330Z VRB01MPS 4500 HZ SCT040 11/05 Q1015 NOSIG,0,1,0,4500,0,0,0,
2026-03-17 13:00:00,METAR ZBAD 171300Z VRB01MPS 4500 HZ SCT040 12/05 Q1015 BECMG TL1440 36005MPS,0,1,0,4500,0,0,0,
2026-03-17 12:30:00,METAR ZBAD 171230Z VRB01MPS 4500 HZ SCT040 12/05 Q1015 NOSIG,0,1,0,4500,0,0,0,
2026-03-17 12:00:00,METAR ZBAD 171200Z VRB01MPS 4500 HZ SCT040 13/05 Q1015 NOSIG,0,1,0,4500,0,0,0,
2026-03-17 11:30:00,METAR ZBAD 171130Z 19004MPS 4500 HZ SCT040 13/05 Q1015 NOSIG,0,4,0,4500,0,0,0,
2026-03-17 11:00:00,METAR ZBAD 171100Z 18003MPS 4000 HZ FEW010 SCT040 12/05 Q1015 NOSIG,0,3,0,4000,0,0,0,
2026-03-17 10:30:00,METAR ZBAD 171030Z 19002MPS 4000 HZ FEW010 SCT040 13/05 Q1015 NOSIG,0,2,0,4000,0,0,0,
2026-03-17 10:00:00,METAR ZBAD 171000Z 20002MPS 180V250 4000 HZ FEW010 SCT040 13/05 Q1015 NOSIG,0,2,0,4000,0,0,0,
2026-03-17 09:30:00,METAR ZBAD 170930Z VRB01MPS 4000 HZ FEW010 SCT040 14/05 Q1015 NOSIG,0,1,0,4000,0,0,0,
2026-03-17 09:00:00,METAR ZBAD 170900Z 22002MPS 4000 HZ SCT020 14/05 Q1015 NOSIG,0,2,0,4000,0,0,0,
2026-03-17 08:30:00,METAR ZBAD 170830Z 23004MPS 4000 HZ SCT020 14/05 Q1015 NOSIG,0,4,0,4000,0,0,0,
2026-03-17 08:00:00,METAR ZBAD 170800Z 23004MPS 4000 HZ SCT020 14/05 Q1016 NOSIG,0,4,0,4000,0,0,0,
2026-03-17 07:30:00,METAR ZBAD 170730Z 22004MPS 4000 HZ SCT020 14/05 Q1016 NOSIG,0,4,0,4000,0,0,0,
2026-03-17 07:00:00,METAR ZBAD 170700Z 21002MPS 180V250 3500 HZ SCT020 14/05 Q1016 NOSIG,0,2,0,3500,0,0,0,
2026-03-17 06:30:00,METAR ZBAD 170630Z 21003MPS 3500 HZ SCT020 14/05 Q1017 NOSIG,0,3,0,3500,0,0,0,
2026-03-17 06:00:00,METAR ZBAD 170600Z VRB02MPS 3500 HZ FEW020 14/04 Q1017 NOSIG,0,2,0,3500,0,0,0,
2026-03-17 05:30:00,METAR ZBAD 170530Z VRB03MPS 3500 HZ FEW020 14/05 Q1017 NOSIG,0,3,0,3500,0,0,0,
2026-03-17 05:00:00,METAR ZBAD 170500Z VRB02MPS 3500 HZ FEW020 14/04 Q1018 NOSIG,0,2,0,3500,0,0,0,
2026-03-17 04:30:00,METAR ZBAD 170430Z VRB01MPS 3500 HZ FEW020 12/03 Q1018 NOSIG,0,1,0,3500,0,0,0,
2026-03-17 04:00:00,METAR ZBAD 170400Z 02002MPS 330V050 3500 HZ FEW020 12/03 Q1018 NOSIG,0,2,0,3500,0,0,0,
2026-03-17 03:30:00,METAR ZBAD 170330Z VRB01MPS 3200 HZ NSC 11/03 Q1019 NOSIG,0,1,0,3200,0,0,0,
2026-03-17 03:00:00,METAR ZBAD 170300Z VRB01MPS 3200 HZ NSC 10/03 Q1019 NOSIG,0,1,0,3200,0,0,0,
2026-03-17 02:30:00,METAR ZBAD 170230Z VRB01MPS 3200 HZ NSC 10/03 Q1019 NOSIG,0,1,0,3200,0,0,0,
2026-03-17 02:00:00,METAR ZBAD 170200Z VRB01MPS 3200 HZ NSC 09/03 Q1019 NOSIG,0,1,0,3200,0,0,0,
2026-03-17 01:30:00,METAR ZBAD 170130Z VRB01MPS 2900 HZ NSC 08/02 Q1019 NOSIG,0,1,0,2900,0,0,0,
2026-03-17 01:00:00,METAR ZBAD 170100Z 08002MPS 010V110 2900 BR NSC 07/02 Q1019 BECMG TL0220 3000,0,2,0,2900,0,0,1,BR
2026-03-17 00:30:00,METAR ZBAD 170030Z VRB01MPS 3000 BR NSC 07/02 Q1020 NOSIG,0,1,0,3000,0,0,1,BR
2026-03-17 00:00:00,METAR ZBAD 170000Z 11002MPS 3000 BR NSC 06/02 Q1020 BECMG TL0140 2400,0,2,0,3000,0,0,1,BR
2026-03-16 23:30:00,METAR ZBAD 162330Z 07002MPS 3000 BR NSC 05/02 Q1020 NOSIG,0,2,0,3000,0,0,1,BR
2026-03-16 23:00:00,METAR ZBAD 162300Z 07002MPS 3500 BR NSC 04/02 Q1019 NOSIG,0,2,0,3500,0,0,1,BR
2026-03-16 22:30:00,METAR ZBAD 162230Z 06002MPS 3500 BR NSC 04/01 Q1019 NOSIG,0,2,0,3500,0,0,1,BR
2026-03-16 22:00:00,METAR ZBAD 162200Z 06003MPS 5000 BR NSC 04/01 Q1019 NOSIG,0,3,0,5000,0,0,1,BR
2026-03-16 21:30:00,METAR ZBAD 162130Z 06002MPS 6000 NSC 04/01 Q1019 NOSIG,0,2,0,6000,0,0,0,
2026-03-16 21:00:00,METAR ZBAD 162100Z 10002MPS 6000 NSC 04/00 Q1019 NOSIG,0,2,0,6000,0,0,0,
2026-03-16 20:30:00,METAR ZBAD 162030Z 10001MPS 6000 NSC 04/00 Q1019 NOSIG,0,1,0,6000,0,0,0,
2026-03-16 20:00:00,METAR ZBAD 162000Z 10001MPS 6000 NSC 03/M01 Q1019 NOSIG,0,1,0,6000,0,0,0,
2026-03-16 19:30:00,METAR ZBAD 161930Z 10001MPS 6000 NSC 04/M00 Q1019 NOSIG,0,1,0,6000,0,0,0,
2026-03-16 19:00:00,METAR ZBAD 161900Z 15001MPS 8000 NSC 04/M00 Q1020 NOSIG,0,1,0,8000,0,0,0,
2026-03-16 18:30:00,METAR ZBAD 161830Z 17002MPS 8000 NSC 04/M01 Q1020 NOSIG,0,2,0,8000,0,0,0,
2026-03-16 18:00:00,METAR ZBAD 161800Z 19002MPS 8000 NSC 04/M01 Q1020 NOSIG,0,2,0,8000,0,0,0,
2026-03-16 17:30:00,METAR ZBAD 161730Z 18002MPS 8000 NSC 04/M01 Q1021 NOSIG,0,2,0,8000,0,0,0,
2026-03-16 17:00:00,METAR ZBAD 161700Z 18003MPS 8000 NSC 05/M01 Q1021 NOSIG,0,3,0,8000,0,0,0,
2026-03-16 16:30:00,METAR ZBAD 161630Z 17003MPS CAVOK 05/M01 Q1021 NOSIG,1,0,0,9999,0,0,0,
2026-03-16 16:00:00,METAR ZBAD 161600Z 17003MPS CAVOK 05/M01 Q1021 NOSIG,1,0,0,9999,0,0,0,
2026-03-16 15:30:00,METAR ZBAD 161530Z 16002MPS CAVOK 06/M01 Q1021 NOSIG,1,0,0,9999,0,0,0,
2026-03-16 15:00:00,METAR ZBAD 161500Z 16003MPS CAVOK 05/M01 Q1021 NOSIG,1,0,0,9999,0,0,0,
2026-03-16 14:30:00,METAR ZBAD 161430Z 17003MPS CAVOK 05/M01 Q1021 NOSIG,1,0,0,9999,0,0,0,
2026-03-16 14:00:00,METAR ZBAD 161400Z 18003MPS CAVOK 05/M02 Q1021 NOSIG,1,0,0,9999,0,0,0,
2026-03-16 13:30:00,METAR ZBAD 161330Z 17004MPS CAVOK 06/M02 Q1021 NOSIG,1,0,0,9999,0,0,0,
2026-03-16 13:00:00,METAR ZBAD 161300Z 17003MPS CAVOK 05/M02 Q1021 NOSIG,1,0,0,9999,0,0,0,
2026-03-16 12:30:00,METAR ZBAD 161230Z 16004MPS CAVOK 07/M02 Q1020 NOSIG,1,0,0,9999,0,0,0,
2026-03-16 12:00:00,METAR ZBAD 161200Z 16004MPS CAVOK 08/M02 Q1020 NOSIG,1,0,0,9999,0,0,0,
2026-03-16 11:30:00,METAR ZBAD 161130Z 16005MPS CAVOK 08/M02 Q1020 NOSIG,1,0,0,9999,0,0,0,
2026-03-16 11:00:00,METAR ZBAD 161100Z 16005MPS CAVOK 10/M02 Q1020 NOSIG,1,0,0,9999,0,0,0,
2026-03-16 10:30:00,METAR ZBAD 161030Z 19002MPS CAVOK 11/M08 Q1020 NOSIG,1,0,0,9999,0,0,0,
2026-03-16 10:00:00,METAR ZBAD 161000Z 21003MPS CAVOK 12/M09 Q1020 NOSIG,1,0,0,9999,0,0,0,
2026-03-16 09:30:00,METAR ZBAD 160930Z 21005MPS CAVOK 13/M11 Q1019 NOSIG,1,0,0,9999,0,0,0,
2026-03-16 09:00:00,METAR ZBAD 160900Z 21005MPS 180V240 CAVOK 14/M09 Q1019 BECMG TL1040 14004MPS,1,0,0,9999,0,0,0,
2026-03-16 08:30:00,METAR ZBAD 160830Z 20004MPS 150V230 CAVOK 15/M09 Q1019 NOSIG,1,0,0,9999,0,0,0,
2026-03-16 08:00:00,METAR ZBAD 160800Z 21006MPS CAVOK 15/M09 Q1020 NOSIG,1,0,0,9999,0,0,0,
2026-03-16 07:30:00,METAR ZBAD 160730Z 18005MPS 130V210 CAVOK 15/M09 Q1020 NOSIG,1,0,0,9999,0,0,0,
2026-03-16 07:00:00,METAR ZBAD 160700Z 21005MPS 160V250 CAVOK 15/M09 Q1020 NOSIG,1,0,0,9999,0,0,0,
2026-03-16 06:44:00,SPECI ZBAD 160644Z 20005MPS 160V230 CAVOK 15/M09 Q1021 NOSIG,1,0,0,9999,0,0,0,
2026-03-16 06:34:00,SPECI ZBAD 160634Z 14005MPS CAVOK 15/M08 Q1021 NOSIG,1,0,0,9999,0,0,0,
2026-03-16 06:30:00,METAR ZBAD 160630Z 20004MPS 170V250 CAVOK 15/M08 Q1021 NOSIG,1,0,0,9999,0,0,0,
2026-03-16 06:00:00,METAR ZBAD 160600Z 18005MPS 120V210 CAVOK 14/M08 Q1021 NOSIG,1,0,0,9999,0,0,0,
2026-03-16 05:30:00,METAR ZBAD 160530Z 18005MPS 140V220 CAVOK 14/M08 Q1022 NOSIG,1,0,0,9999,0,0,0,
2026-03-16 05:00:00,METAR ZBAD 160500Z 17005MPS 110V210 CAVOK 14/M07 Q1023 NOSIG,1,0,0,9999,0,0,0,
2026-03-16 04:46:00,SPECI ZBAD 160446Z 21006MPS CAVOK 14/M06 Q1023 NOSIG,1,0,0,9999,0,0,0,
2026-03-16 04:30:00,METAR ZBAD 160430Z 14004MPS 110V170 CAVOK 14/M06 Q1023 NOSIG,1,0,0,9999,0,0,0,
2026-03-16 04:00:00,METAR ZBAD 160400Z 17004MPS 100V240 CAVOK 14/M06 Q1024 NOSIG,1,0,0,9999,0,0,0,
2026-03-16 03:30:00,METAR ZBAD 160330Z VRB02MPS CAVOK 13/M05 Q1025 NOSIG,1,0,0,9999,0,0,0,
2026-03-16 03:00:00,METAR ZBAD 160300Z 23002MPS 170V330 CAVOK 12/M05 Q1025 NOSIG,1,0,0,9999,0,0,0,
2026-03-16 02:30:00,METAR ZBAD 160230Z 24003MPS 210V270 CAVOK 11/M06 Q1026 NOSIG,1,0,0,9999,0,0,0,
2026-03-16 02:00:00,METAR ZBAD 160200Z 23003MPS 180V290 CAVOK 11/M05 Q1026 NOSIG,1,0,0,9999,0,0,0,
2026-03-16 01:30:00,METAR ZBAD 160130Z VRB01MPS CAVOK 10/M03 Q1026 NOSIG,1,0,0,9999,0,0,0,
2026-03-16 01:00:00,METAR ZBAD 160100Z VRB01MPS CAVOK 09/M04 Q1026 NOSIG,1,0,0,9999,0,0,0,
2026-03-16 00:30:00,METAR ZBAD 160030Z 21002MPS CAVOK 07/M03 Q1026 NOSIG,1,0,0,9999,0,0,0,
2026-03-16 00:00:00,METAR ZBAD 160000Z 00000MPS CAVOK 06/M02 Q1026 NOSIG,1,0,0,9999,0,0,0,
2026-03-15 23:30:00,METAR ZBAD 152330Z 22001MPS CAVOK 02/M02 Q1026 NOSIG,1,0,0,9999,0,0,0,
2026-03-15 23:00:00,METAR ZBAD 152300Z 17001MPS CAVOK 01/M04 Q1025 NOSIG,1,0,0,9999,0,0,0,
2026-03-15 22:30:00,METAR ZBAD 152230Z 00000MPS CAVOK 02/M03 Q1025 NOSIG,1,0,0,9999,0,0,0,
2026-03-15 22:00:00,METAR ZBAD 152200Z 19001MPS CAVOK 01/M04 Q1025 NOSIG,1,0,0,9999,0,0,0,
2026-03-15 21:30:00,METAR ZBAD 152130Z VRB01MPS CAVOK 02/M03 Q1025 NOSIG,1,0,0,9999,0,0,0,
2026-03-15 21:00:00,METAR ZBAD 152100Z 13001MPS CAVOK 04/M03 Q1024 NOSIG,1,0,0,9999,0,0,0,
2026-03-15 20:30:00,METAR ZBAD 152030Z 13002MPS CAVOK 04/M03 Q1025 NOSIG,1,0,0,9999,0,0,0,
2026-03-15 20:00:00,METAR ZBAD 152000Z 18002MPS CAVOK 05/M03 Q1025 NOSIG,1,0,0,9999,0,0,0,
2026-03-15 19:30:00,METAR ZBAD 151930Z 16002MPS CAVOK 05/M03 Q1024 NOSIG,1,0,0,9999,0,0,0,
2026-03-15 19:00:00,METAR ZBAD 151900Z 19002MPS CAVOK 04/M03 Q1025 NOSIG,1,0,0,9999,0,0,0,
2026-03-15 18:30:00,METAR ZBAD 151830Z 18003MPS CAVOK 03/M04 Q1025 NOSIG,1,0,0,9999,0,0,0,
2026-03-15 18:00:00,METAR ZBAD 151800Z 19003MPS CAVOK 04/M03 Q1025 NOSIG,1,0,0,9999,0,0,0,
2026-03-15 17:30:00,METAR ZBAD 151730Z 19003MPS CAVOK 04/M04 Q1025 NOSIG,1,0,0,9999,0,0,0,
2026-03-15 17:00:00,METAR ZBAD 151700Z 20003MPS CAVOK 06/M04 Q1026 NOSIG,1,0,0,9999,0,0,0,
2026-03-15 16:30:00,METAR ZBAD 151630Z 20004MPS CAVOK 07/M04 Q1026 NOSIG,1,0,0,9999,0,0,0,
2026-03-15 16:00:00,METAR ZBAD 151600Z 20004MPS CAVOK 06/M03 Q1026 NOSIG,1,0,0,9999,0,0,0,
2026-03-15 15:30:00,METAR ZBAD 151530Z 21004MPS 170V230 CAVOK 08/M03 Q1026 NOSIG,1,0,0,9999,0,0,0,
2026-03-15 15:00:00,METAR ZBAD 151500Z 20004MPS CAVOK 07/M03 Q1026 NOSIG,1,0,0,9999,0,0,0,
2026-03-15 14:30:00,METAR ZBAD 151430Z 20004MPS CAVOK 08/M03 Q1026 NOSIG,1,0,0,9999,0,0,0,
2026-03-15 14:00:00,METAR ZBAD 151400Z 20003MPS CAVOK 08/M03 Q1026 NOSIG,1,0,0,9999,0,0,0,
2026-03-15 13:30:00,METAR ZBAD 151330Z 22003MPS CAVOK 08/M03 Q1026 NOSIG,1,0,0,9999,0,0,0,
2026-03-15 13:00:00,METAR ZBAD 151300Z 22004MPS CAVOK 10/M03 Q1026 NOSIG,1,0,0,9999,0,0,0,
2026-03-15 12:30:00,METAR ZBAD 151230Z 21004MPS 180V240 CAVOK 10/M04 Q1026 NOSIG,1,0,0,9999,0,0,0,
2026-03-15 12:00:00,METAR ZBAD 151200Z 23004MPS CAVOK 10/M04 Q1026 NOSIG,1,0,0,9999,0,0,0,
2026-03-15 11:30:00,METAR ZBAD 151130Z 22003MPS 190V250 CAVOK 11/M04 Q1026 NOSIG,1,0,0,9999,0,0,0,
2026-03-15 11:00:00,METAR ZBAD 151100Z 21004MPS CAVOK 12/M05 Q1026 NOSIG,1,0,0,9999,0,0,0,
2026-03-15 10:30:00,METAR ZBAD 151030Z 21002MPS 160V250 CAVOK 11/M05 Q1026 NOSIG,1,0,0,9999,0,0,0,
2026-03-15 10:00:00,METAR ZBAD 151000Z 22003MPS 200V260 CAVOK 13/M05 Q1026 NOSIG,1,0,0,9999,0,0,0,
2026-03-15 09:30:00,METAR ZBAD 150930Z 23004MPS CAVOK 13/M05 Q1026 NOSIG,1,0,0,9999,0,0,0,
2026-03-15 09:00:00,METAR ZBAD 150900Z 21004MPS 180V240 CAVOK 14/M05 Q1026 NOSIG,1,0,0,9999,0,0,0,
2026-03-15 08:30:00,METAR ZBAD 150830Z 21004MPS 180V250 CAVOK 14/M06 Q1026 NOSIG,1,0,0,9999,0,0,0,
2026-03-15 08:00:00,METAR ZBAD 150800Z 25003MPS 200V280 CAVOK 15/M06 Q1026 NOSIG,1,0,0,9999,0,0,0,
