Time_recorded,METAR,is_cavok,wind_speed,is_gust,visibility_meters,has_thunderstorm,has_heavy_rain,has_low_vis_fog,other_phenomenon
2026-05-02 15:30:00,METAR RJTT 021530Z 21004KT 170V270 CAVOK 18/15 Q1012 NOSIG,1,0,0,9999,0,0,0,
2026-05-02 15:00:00,METAR RJTT 021500Z VRB04KT CAVOK 18/15 Q1012 NOSIG,1,0,0,9999,0,0,0,
2026-05-02 14:30:00,METAR RJTT 021430Z 19003KT 150V310 CAVOK 20/10 Q1012 NOSIG,1,0,0,9999,0,0,0,
2026-05-02 14:00:00,METAR RJTT 021400Z 26003KT 220V320 CAVOK 22/06 Q1012 NOSIG,1,0,0,9999,0,0,0,
2026-05-02 13:30:00,METAR RJTT 021330Z 26003KT CAVOK 22/05 Q1012 NOSIG,1,0,0,9999,0,0,0,
2026-05-02 13:00:00,METAR RJTT 021300Z 28003KT 230V330 CAVOK 23/06 Q1012 NOSIG,1,0,0,9999,0,0,0,
2026-05-02 12:30:00,METAR RJTT 021230Z 24003KT 180V350 CAVOK 20/08 Q1011 NOSIG,1,0,0,9999,0,0,0,
2026-05-02 12:00:00,METAR RJTT 021200Z 00000KT CAVOK 22/10 Q1011 NOSIG,1,0,0,9999,0,0,0,
2026-05-02 11:30:00,METAR RJTT 021130Z 21004KT 190V260 CAVOK 22/08 Q1010 NOSIG,1,0,0,9999,0,0,0,
2026-05-02 11:00:00,METAR RJTT 021100Z 20004KT 150V270 CAVOK 22/05 Q1010 NOSIG,1,0,0,9999,0,0,0,
2026-05-02 10:30:00,METAR RJTT 021030Z 19005KT 150V240 CAVOK 22/06 Q1010 NOSIG,1,0,0,9999,0,0,0,
2026-05-02 10:00:00,METAR RJTT 021000Z 19005KT 130V280 CAVOK 22/07 Q1009 BECMG 04006KT,1,0,0,9999,0,0,0,
2026-05-02 09:30:00,METAR RJTT 020930Z VRB01KT CAVOK 21/10 Q1009 BECMG TL1000 04006KT,1,0,0,9999,0,0,0,
2026-05-02 09:00:00,METAR RJTT 020900Z 19004KT 180V260 CAVOK 23/07 Q1008 BECMG TL0930 36006KT,1,0,0,9999,0,0,0,
2026-05-02 08:30:00,METAR RJTT 020830Z 20004KT CAVOK 25/05 Q1008 BECMG TL0930 36006KT,1,0,0,9999,0,0,0,
2026-05-02 08:00:00,METAR RJTT 020800Z 19007KT 9999 FEW030 BKN/// 24/06 Q1008 BECMG FM0900 04006KT,0,7,0,10000,0,0,0,
2026-05-02 07:30:00,METAR RJTT 020730Z 19008KT 9999 FEW030 BKN/// 24/03 Q1007 BECMG FM0900 04006KT,0,8,0,10000,0,0,0,
2026-05-02 07:00:00,METAR RJTT 020700Z 17009KT 9999 FEW030 BKN/// 25/06 Q1007 NOSIG,0,9,0,10000,0,0,0,
2026-05-02 06:30:00,METAR RJTT 020630Z 19012KT 9999 FEW030 BKN/// 25/05 Q1007 NOSIG,0,12,0,10000,0,0,0,
2026-05-02 06:00:00,METAR RJTT 020600Z 18013KT 9999 FEW030 BKN/// 25/06 Q1006 NOSIG,0,13,0,10000,0,0,0,
2026-05-02 05:30:00,METAR RJTT 020530Z 18013KT 9999 FEW030 BKN/// 25/10 Q1006 NOSIG,0,13,0,10000,0,0,0,
2026-05-02 05:00:00,METAR RJTT 020500Z 18013KT 9999 FEW030 BKN/// 25/10 Q1006 NOSIG,0,13,0,10000,0,0,0,
2026-05-02 04:30:00,METAR RJTT 020430Z 17014KT 9999 FEW030 BKN/// 24/11 Q1006 NOSIG,0,14,0,10000,0,0,0,
2026-05-02 04:00:00,METAR RJTT 020400Z 20014KT 9999 FEW030 26/10 Q1005 NOSIG,0,14,0,10000,0,0,0,
2026-05-02 03:30:00,METAR RJTT 020330Z 18018KT 9999 FEW030 25/12 Q1005 NOSIG,0,18,0,10000,0,0,0,
2026-05-02 03:00:00,METAR RJTT 020300Z 18016KT 9999 FEW030 26/08 Q1004 NOSIG,0,16,0,10000,0,0,0,
2026-05-02 02:30:00,METAR RJTT 020230Z 19012KT 9999 FEW030 25/10 Q1004 NOSIG,0,12,0,10000,0,0,0,
2026-05-02 02:00:00,METAR RJTT 020200Z 19018KT 9999 FEW030 SCT/// 24/11 Q1004 NOSIG,0,18,0,10000,0,0,0,
2026-05-02 01:30:00,METAR RJTT 020130Z 19017KT 160V220 9999 FEW030 BKN/// 25/06 Q1004 NOSIG,0,17,0,10000,0,0,0,
2026-05-02 01:00:00,METAR RJTT 020100Z 18015KT 9999 FEW030 SCT/// 24/06 Q1004 NOSIG,0,15,0,10000,0,0,0,
2026-05-02 00:30:00,METAR RJTT 020030Z 17012KT 120V200 9999 FEW030 22/10 Q1004 NOSIG,0,12,0,10000,0,0,0,
2026-05-02 00:00:00,METAR RJTT 020000Z 19014KT 9999 FEW030 22/10 Q1004 NOSIG,0,14,0,10000,0,0,0,
2026-05-01 23:30:00,METAR RJTT 012330Z 20014KT 9999 FEW030 20/08 Q1003 NOSIG,0,14,0,10000,0,0,0,
2026-05-01 23:00:00,METAR RJTT 012300Z 20013KT 9999 FEW030 21/08 Q1003 NOSIG,0,13,0,10000,0,0,0,
2026-05-01 22:30:00,METAR RJTT 012230Z 27007KT 210V320 9999 FEW030 20/07 Q1002 BECMG 22008KT,0,7,0,10000,0,0,0,
2026-05-01 22:00:00,METAR RJTT 012200Z 34006KT 9999 FEW030 18/09 Q1002 NOSIG,0,6,0,10000,0,0,0,
2026-05-01 21:30:00,METAR RJTT 012130Z 35011KT 9999 FEW030 18/10 Q1001 NOSIG,0,11,0,10000,0,0,0,
2026-05-01 21:00:00,METAR RJTT 012100Z 01007KT 340V040 9999 FEW030 18/08 Q1000 NOSIG,0,7,0,10000,0,0,0,
2026-05-01 20:30:00,METAR RJTT 012030Z VRB02KT 9999 FEW030 17/07 Q1000 BECMG 35006KT,0,2,0,10000,0,0,0,
2026-05-01 20:00:00,METAR RJTT 012000Z 25005KT 9999 FEW030 14/09 Q0999 NOSIG,0,5,0,10000,0,0,0,
2026-05-01 19:30:00,METAR RJTT 011930Z 26006KT 210V280 9999 FEW030 14/09 Q0999 NOSIG,0,6,0,10000,0,0,0,
2026-05-01 19:00:00,METAR RJTT 011900Z 25011KT 9999 FEW030 14/09 Q0998 NOSIG,0,11,0,10000,0,0,0,
2026-05-01 18:30:00,METAR RJTT 011830Z 24012KT CAVOK 14/09 Q0997 BECMG 32012KT,1,0,0,9999,0,0,0,
2026-05-01 18:00:00,METAR RJTT 011800Z 23014KT CAVOK 15/09 Q0996 NOSIG,1,0,0,9999,0,0,0,
2026-05-01 17:30:00,METAR RJTT 011730Z 24015KT CAVOK 15/09 Q0995 NOSIG,1,0,0,9999,0,0,0,
2026-05-01 17:00:00,METAR RJTT 011700Z 24017KT CAVOK 15/09 Q0995 NOSIG,1,0,0,9999,0,0,0,
2026-05-01 16:30:00,METAR RJTT 011630Z 23016KT CAVOK 16/09 Q0995 NOSIG,1,0,0,9999,0,0,0,
2026-05-01 16:00:00,METAR RJTT 011600Z 22013KT 9999 FEW030 BKN/// 16/09 Q0995 NOSIG,0,13,0,10000,0,0,0,
2026-05-01 15:30:00,METAR RJTT 011530Z 22010KT 9999 FEW030 BKN180 BKN/// 16/10 Q0995 NOSIG,0,10,0,10000,0,0,0,
2026-05-01 15:00:00,METAR RJTT 011500Z 20003KT 160V270 9999 FEW030 SCT150 BKN/// 15/10 Q0995 NOSIG,0,3,0,10000,0,0,0,
2026-05-01 14:30:00,METAR RJTT 011430Z 21004KT 150V300 9999 FEW030 SCT150 BKN/// 16/11 Q0995 NOSIG,0,4,0,10000,0,0,0,
2026-05-01 14:00:00,METAR RJTT 011400Z 34008KT 9999 FEW030 BKN150 16/11 Q0995 NOSIG,0,8,0,10000,0,0,0,
2026-05-01 13:30:00,METAR RJTT 011330Z 28009KT 9999 FEW030 BKN150 17/10 Q0995 NOSIG,0,9,0,10000,0,0,0,
2026-05-01 13:00:00,METAR RJTT 011300Z 23008KT 9999 FEW030 SCT/// 17/11 Q0994 BECMG TL1330 33008KT,0,8,0,10000,0,0,0,
2026-05-01 12:30:00,METAR RJTT 011230Z 25007KT 230V310 9999 FEW030 SCT/// 17/11 Q0994 NOSIG,0,7,0,10000,0,0,0,
2026-05-01 12:00:00,METAR RJTT 011200Z 24014KT 9999 FEW030 SCT/// 18/11 Q0994 BECMG 26014KT,0,14,0,10000,0,0,0,
2026-05-01 11:30:00,METAR RJTT 011130Z 22017KT 9999 FEW030 18/11 Q0993 NOSIG,0,17,0,10000,0,0,0,
2026-05-01 11:00:00,METAR RJTT 011100Z 22027G37KT 9999 FEW030 19/10 Q0992 NOSIG,0,27,1,10000,0,0,0,
2026-05-01 10:30:00,METAR RJTT 011030Z 22027G44KT 9999 FEW030 19/08 Q0992 NOSIG,0,27,1,10000,0,0,0,
2026-05-01 10:00:00,METAR RJTT 011000Z 21025G39KT 9999 FEW020 19/10 Q0991 NOSIG,0,25,1,10000,0,0,0,
2026-05-01 09:30:00,METAR RJTT 010930Z 20022KT 9999 FEW020 20/14 Q0992 BECMG 22034KT TEMPO 22034G44KT,0,22,0,10000,0,0,0,
2026-05-01 09:00:00,METAR RJTT 010900Z 20024KT 9999 FEW020 20/15 Q0992 BECMG 22034KT TEMPO 22034G44KT,0,24,0,10000,0,0,0,
2026-05-01 08:30:00,METAR RJTT 010830Z 20024KT 9999 FEW015 21/17 Q0992 BECMG 22034KT TEMPO 22034G44KT,0,24,0,10000,0,0,0,
2026-05-01 08:00:00,METAR RJTT 010800Z 19019KT 9999 FEW015 21/17 Q0993 BECMG 22030KT TEMPO 22030G40KT,0,19,0,10000,0,0,0,
2026-05-01 07:30:00,METAR RJTT 010730Z 19019KT 9999 FEW010 21/17 Q0994 TEMPO 22026G36KT,0,19,0,10000,0,0,0,
2026-05-01 07:00:00,METAR RJTT 010700Z 19019KT 9999 FEW010 21/17 Q0994 TEMPO 22026G36KT,0,19,0,10000,0,0,0,
2026-05-01 06:30:00,METAR RJTT 010630Z 19010KT 9999 FEW010 19/17 Q0995 BECMG 20020KT,0,10,0,10000,0,0,0,
2026-05-01 06:00:00,METAR RJTT 010600Z 18008KT 9999 FEW008 SCT/// 18/17 Q0996 BECMG 20020KT,0,8,0,10000,0,0,0,
2026-05-01 05:30:00,METAR RJTT 010530Z 17005KT 120V230 9999 FEW004 BKN008 17/17 Q0996 BECMG 20018KT FEW015 BKN020,0,5,0,10000,0,0,0,
2026-05-01 05:00:00,METAR RJTT 010500Z 08003KT 050V110 9999 FEW004 BKN007 BKN012 16/15 Q0997 BECMG FEW008 BKN012,0,3,0,10000,0,0,0,
2026-05-01 04:30:00,METAR RJTT 010430Z 06003KT 6000 -SHRA SCT004 BKN006 BKN012 15/15 Q0998 NOSIG,0,3,0,6000,0,0,0,RA
2026-05-01 04:00:00,METAR RJTT 010400Z 04003KT 1500 R16R/1400VP2000U R22/1400VP2000N R16L/1300VP2000U R23/1800U -SHRA BR FEW003 BKN004 BKN010 14/14 Q0999 NOSIG,0,3,0,1500,0,0,1,"BR,RA"
2026-05-01 03:30:00,METAR RJTT 010330Z 11003KT 3500 R16R/1500VP2000N R22/0900VP2000U R34R/P2000N R23/P2000N -SHRA BR FEW003 BKN006 BKN010 14/14 Q1000 NOSIG,0,3,0,3500,0,0,1,"BR,RA"
2026-05-01 03:00:00,METAR RJTT 010300Z 09005KT 3500 R34L/P2000N R22/P2000N R34R/2000N R05/1600VP2000U SHRA BR FEW004 BKN010 BKN035 14/13 Q1000 TEMPO FEW005 BKN008,0,5,0,3500,0,0,1,"BR,RA,SH"
2026-05-01 02:30:00,METAR RJTT 010230Z 36003KT 290V030 2500 R34L/1400VP2000N R22/P2000N R34R/P2000N R05/P2000N SHRA BR FEW006 BKN012 BKN025 14/13 Q1002 TEMPO FEW005 BKN008,0,3,0,2500,0,0,1,"BR,RA,SH"
2026-05-01 02:00:00,METAR RJTT 010200Z 36006KT 8000 -SHRA FEW006 SCT015 BKN035 14/13 Q1002 TEMPO 4000 SHRA BR FEW005 BKN008,0,6,0,8000,0,0,1,"BR,RA,SH"
2026-05-01 01:30:00,METAR RJTT 010130Z 32008KT 7000 -SHRA FEW015 BKN100 13/13 Q1004 TEMPO 4000 SHRA BR FEW005 BKN008,0,8,0,7000,0,0,1,"BR,RA,SH"
2026-05-01 01:00:00,METAR RJTT 010100Z 29013KT 260V320 8000 R34L/P2000N R22/P2000N R34R/P2000N R05/2000N SHRA FEW004 SCT007 BKN012 13/12 Q1005 TEMPO 4000 SHRA BR FEW005 BKN008,0,13,0,8000,0,0,1,"BR,RA,SH"
2026-05-01 00:30:00,METAR RJTT 010030Z 30013KT 2500 R34L/P2000N R22/P2000N R34R/2000D R05/2000N +SHRA BR FEW005 BKN010 12/12 Q1006 TEMPO FEW002 BKN005,0,13,0,2500,0,0,1,"BR,RA"
2026-05-01 00:00:00,METAR RJTT 010000Z 33014KT 3500 R34L/P2000N R22/P2000N R34R/P2000N R05/2000N +SHRA BR FEW003 SCT007 BKN010 12/12 Q1006 TEMPO 2000 +SHRA BR FEW002 BKN005,0,14,0,3500,0,0,1,"BR,RA"
2026-04-30 23:30:00,METAR RJTT 302330Z 31010KT 3500 R34L/P2000N R22/P2000N R34R/P2000N R05/2000N SHRA BR FEW003 BKN004 BKN008 12/11 Q1007 TEMPO 2000 +SHRA BR,0,10,0,3500,0,0,1,"BR,RA,SH"
2026-04-30 23:00:00,METAR RJTT 302300Z 34011KT 4500 SHRA BR FEW004 BKN006 BKN009 12/12 Q1008 TEMPO 2000 +SHRA BR FEW002 BKN005,0,11,0,4500,0,0,1,"BR,RA,SH"
2026-04-30 22:30:00,METAR RJTT 302230Z 32011KT 4500 SHRA BR FEW003 BKN008 12/12 Q1009 TEMPO 3000 SHRA BR FEW002 BKN005,0,11,0,4500,0,0,1,"BR,RA,SH"
2026-04-30 22:00:00,METAR RJTT 302200Z 34009KT 4500 SHRA BR FEW004 BKN006 12/12 Q1009 TEMPO 3000 SHRA BR FEW002 BKN005,0,9,0,4500,0,0,1,"BR,RA,SH"
2026-04-30 21:30:00,METAR RJTT 302130Z 36010KT 3000 SHRA BR FEW003 BKN006 12/12 Q1010 TEMPO FEW002 BKN005,0,10,0,3000,0,0,1,"BR,RA,SH"
2026-04-30 21:00:00,METAR RJTT 302100Z 36011KT 9999 -SHRA FEW004 SCT006 BKN009 12/11 Q1011 TEMPO 4000 SHRA BR,0,11,0,10000,0,0,1,"BR,RA,SH"
2026-04-30 20:30:00,METAR RJTT 302030Z 02012KT 9999 -SHRA FEW005 SCT006 BKN011 12/11 Q1011 TEMPO 4000 SHRA BR FEW005 BKN008,0,12,0,10000,0,0,1,"BR,RA,SH"
2026-04-30 20:00:00,METAR RJTT 302000Z 01011KT 8000 -SHRA FEW005 SCT007 BKN110 12/11 Q1012 TEMPO 4000 SHRA BR FEW005 BKN008,0,11,0,8000,0,0,1,"BR,RA,SH"
2026-04-30 19:30:00,METAR RJTT 301930Z 33010KT 7000 SHRA FEW006 SCT007 BKN014 12/11 Q1014 TEMPO 4000 SHRA BR FEW005 BKN008,0,10,0,7000,0,0,1,"BR,RA,SH"
2026-04-30 19:00:00,METAR RJTT 301900Z 34013KT 7000 SHRA FEW006 BKN007 BKN014 12/11 Q1014 TEMPO 4000 SHRA BR,0,13,0,7000,0,0,1,"BR,RA,SH"
2026-04-30 18:30:00,METAR RJTT 301830Z 33013KT 7000 -SHRA FEW007 BKN014 12/11 Q1015 TEMPO 4000 SHRA BR FEW005 BKN008,0,13,0,7000,0,0,1,"BR,RA,SH"
2026-04-30 18:00:00,METAR RJTT 301800Z 35013KT 8000 -RA FEW005 BKN008 BKN014 12/11 Q1015 TEMPO 4000 SHRA BR,0,13,0,8000,0,0,1,"-RA,BR,RA,SH"
2026-04-30 17:30:00,METAR RJTT 301730Z 35012KT 8000 -RA FEW006 BKN008 BKN015 12/11 Q1015 TEMPO 4000 SHRA BR,0,12,0,8000,0,0,1,"-RA,BR,RA,SH"
2026-04-30 17:00:00,METAR RJTT 301700Z 35012KT 5000 -RA BR FEW006 BKN008 BKN015 12/11 Q1015 TEMPO 4000 SHRA BR,0,12,0,5000,0,0,1,"-RA,BR,RA,SH"
2026-04-30 16:30:00,METAR RJTT 301630Z 35013KT 9999 -RA FEW006 SCT009 BKN015 12/11 Q1016 NOSIG,0,13,0,10000,0,0,0,-RA
2026-04-30 16:00:00,METAR RJTT 301600Z 34010KT 9999 -RA FEW006 SCT009 BKN015 12/11 Q1017 TEMPO FEW005 BKN008,0,10,0,10000,0,0,0,-RA
2026-04-30 15:00:00,METAR RJTT 301500Z 33008KT 9999 -RA FEW006 SCT008 BKN016 12/11 Q1018 TEMPO 4000 -SHRA BR FEW005 BKN008,0,8,0,10000,0,0,1,"-RA,BR,RA"
2026-04-30 14:30:00,METAR RJTT 301430Z 34011KT 8000 -RA FEW006 SCT010 BKN018 12/11 Q1019 TEMPO 4000 -SHRA BR BKN012,0,11,0,8000,0,0,1,"-RA,BR,RA"
2026-04-30 14:00:00,METAR RJTT 301400Z 34010KT 5000 -RA BR FEW010 BKN018 12/11 Q1019 TEMPO 4000 -RA BR,0,10,0,5000,0,0,1,"-RA,BR"
2026-04-30 13:30:00,METAR RJTT 301330Z 31010KT 9999 -RA BKN020 13/10 Q1020 NOSIG,0,10,0,10000,0,0,0,-RA
2026-04-30 13:00:00,METAR RJTT 301300Z 34009KT 9999 -RA BKN023 14/09 Q1020 NOSIG,0,9,0,10000,0,0,0,-RA
2026-04-30 12:30:00,METAR RJTT 301230Z 36011KT 9999 -RA BKN025 14/08 Q1020 NOSIG,0,11,0,10000,0,0,0,-RA
2026-04-30 12:00:00,METAR RJTT 301200Z 36011KT 9999 -RA BKN025 14/09 Q1020 NOSIG,0,11,0,10000,0,0,0,-RA
2026-04-30 11:30:00,METAR RJTT 301130Z 02011KT 9999 -RA BKN025 14/09 Q1020 NOSIG,0,11,0,10000,0,0,0,-RA
2026-04-30 11:00:00,METAR RJTT 301100Z 02012KT 9999 -RA BKN025 15/09 Q1020 NOSIG,0,12,0,10000,0,0,0,-RA
2026-04-30 10:30:00,METAR RJTT 301030Z 01009KT 9999 BKN025 15/09 Q1020 NOSIG,0,9,0,10000,0,0,0,
2026-04-30 10:00:00,METAR RJTT 301000Z 01009KT 9999 BKN025 15/09 Q1020 NOSIG,0,9,0,10000,0,0,0,
2026-04-30 09:30:00,METAR RJTT 300930Z 02007KT 9999 BKN025 15/09 Q1020 NOSIG,0,7,0,10000,0,0,0,
2026-04-30 09:00:00,METAR RJTT 300900Z 04007KT 9999 -RA FEW025 BKN030 15/10 Q1020 NOSIG,0,7,0,10000,0,0,0,-RA
2026-04-30 08:30:00,METAR RJTT 300830Z 03008KT 9999 -RA FEW025 BKN030 15/09 Q1020 NOSIG,0,8,0,10000,0,0,0,-RA
2026-04-30 08:00:00,METAR RJTT 300800Z 04008KT 9999 FEW020 BKN030 15/08 Q1020 NOSIG,0,8,0,10000,0,0,0,
2026-04-30 07:30:00,METAR RJTT 300730Z 05008KT 9999 -RA FEW035 BKN040 16/08 Q1020 NOSIG,0,8,0,10000,0,0,0,-RA
2026-04-30 07:00:00,METAR RJTT 300700Z 04006KT 9999 -RA FEW030 BKN040 16/06 Q1021 NOSIG,0,6,0,10000,0,0,0,-RA
2026-04-30 06:30:00,METAR RJTT 300630Z 05006KT 9999 FEW025 BKN035 16/06 Q1021 NOSIG,0,6,0,10000,0,0,0,
2026-04-30 06:00:00,METAR RJTT 300600Z 03005KT 360V070 9999 FEW025 BKN050 16/06 Q1021 NOSIG,0,5,0,10000,0,0,0,
2026-04-30 05:30:00,METAR RJTT 300530Z 03004KT 360V060 9999 FEW025 BKN050 16/06 Q1021 NOSIG,0,4,0,10000,0,0,0,
2026-04-30 05:00:00,METAR RJTT 300500Z 03004KT 9999 FEW025 BKN050 16/06 Q1021 NOSIG,0,4,0,10000,0,0,0,
2026-04-30 04:30:00,METAR RJTT 300430Z 03004KT 9999 FEW025 BKN045 16/08 Q1022 NOSIG,0,4,0,10000,0,0,0,
2026-04-30 04:00:00,METAR RJTT 300400Z 05005KT 020V080 9999 FEW025 BKN045 15/09 Q1022 NOSIG,0,5,0,10000,0,0,0,
2026-04-30 03:30:00,METAR RJTT 300330Z 04005KT 9999 FEW025 BKN050 15/09 Q1022 NOSIG,0,5,0,10000,0,0,0,
2026-04-30 03:00:00,METAR RJTT 300300Z 05005KT 9999 FEW025 BKN050 15/09 Q1022 NOSIG,0,5,0,10000,0,0,0,
2026-04-30 02:30:00,METAR RJTT 300230Z 03006KT 9999 FEW025 BKN050 15/09 Q1023 NOSIG,0,6,0,10000,0,0,0,
2026-04-30 02:00:00,METAR RJTT 300200Z 05006KT 9999 FEW025 BKN045 15/09 Q1023 NOSIG,0,6,0,10000,0,0,0,
2026-04-30 01:30:00,METAR RJTT 300130Z 04007KT 9999 FEW020 BKN045 15/09 Q1022 NOSIG,0,7,0,10000,0,0,0,
2026-04-30 01:00:00,METAR RJTT 300100Z 05009KT 9999 FEW020 BKN045 15/10 Q1022 NOSIG,0,9,0,10000,0,0,0,
2026-04-30 00:30:00,METAR RJTT 300030Z 04010KT 9999 FEW015 BKN045 15/10 Q1022 NOSIG,0,10,0,10000,0,0,0,
2026-04-30 00:00:00,METAR RJTT 300000Z 05008KT 9999 FEW015 BKN040 15/10 Q1022 NOSIG,0,8,0,10000,0,0,0,
2026-04-29 23:30:00,METAR RJTT 292330Z 04009KT 9999 FEW015 BKN040 14/10 Q1022 NOSIG,0,9,0,10000,0,0,0,
2026-04-29 23:00:00,METAR RJTT 292300Z 04009KT 9999 FEW015 BKN035 14/10 Q1021 NOSIG,0,9,0,10000,0,0,0,
2026-04-29 22:30:00,METAR RJTT 292230Z 04011KT 360V070 9999 FEW015 BKN035 14/11 Q1021 NOSIG,0,11,0,10000,0,0,0,
2026-04-29 22:00:00,METAR RJTT 292200Z 04011KT 9999 FEW015 BKN035 14/11 Q1021 NOSIG,0,11,0,10000,0,0,0,
2026-04-29 21:30:00,METAR RJTT 292130Z 05009KT 9999 FEW015 BKN040 14/11 Q1021 NOSIG,0,9,0,10000,0,0,0,
2026-04-29 21:00:00,METAR RJTT 292100Z 03009KT 9999 FEW015 SCT020 BKN040 14/11 Q1021 NOSIG,0,9,0,10000,0,0,0,
2026-04-29 20:30:00,METAR RJTT 292030Z 03010KT 9999 FEW015 SCT018 BKN040 14/11 Q1020 NOSIG,0,10,0,10000,0,0,0,
2026-04-29 20:00:00,METAR RJTT 292000Z 02010KT 9999 -SHRA FEW015 BKN020 BKN040 14/11 Q1020 NOSIG,0,10,0,10000,0,0,0,RA
2026-04-29 19:30:00,METAR RJTT 291930Z 06012KT 9999 FEW015 BKN020 BKN040 15/11 Q1020 NOSIG,0,12,0,10000,0,0,0,
2026-04-29 19:00:00,METAR RJTT 291900Z 06013KT 9999 -SHRA FEW015 BKN020 BKN030 15/11 Q1020 NOSIG,0,13,0,10000,0,0,0,RA
2026-04-29 18:30:00,METAR RJTT 291830Z 06012KT 9999 FEW015 BKN020 BKN040 15/12 Q1019 NOSIG,0,12,0,10000,0,0,0,
2026-04-29 18:00:00,METAR RJTT 291800Z 07014KT 9999 FEW015 SCT020 BKN040 15/11 Q1019 NOSIG,0,14,0,10000,0,0,0,
2026-04-29 17:30:00,METAR RJTT 291730Z 06015KT 9999 -RA FEW010 BKN050 BKN080 15/12 Q1019 NOSIG,0,15,0,10000,0,0,0,-RA
2026-04-29 17:00:00,METAR RJTT 291700Z 06014KT 9999 -RA FEW015 BKN040 15/12 Q1019 NOSIG,0,14,0,10000,0,0,0,-RA
2026-04-29 16:30:00,METAR RJTT 291630Z 06013KT 9999 -RA FEW015 BKN045 15/12 Q1018 NOSIG,0,13,0,10000,0,0,0,-RA
2026-04-29 16:00:00,METAR RJTT 291600Z 07014KT 9999 FEW015 BKN045 15/12 Q1018 NOSIG,0,14,0,10000,0,0,0,
2026-04-29 15:30:00,METAR RJTT 291530Z 07011KT 9999 FEW015 BKN040 15/12 Q1018 NOSIG,0,11,0,10000,0,0,0,
2026-04-29 15:00:00,METAR RJTT 291500Z 06012KT 9999 FEW015 BKN035 15/12 Q1018 NOSIG,0,12,0,10000,0,0,0,
2026-04-29 14:30:00,METAR RJTT 291430Z 06015KT 9999 FEW015 BKN020 BKN045 15/13 Q1018 NOSIG,0,15,0,10000,0,0,0,
2026-04-29 14:00:00,METAR RJTT 291400Z 07013KT 9999 FEW015 SCT020 BKN045 15/12 Q1018 NOSIG,0,13,0,10000,0,0,0,
2026-04-29 13:30:00,METAR RJTT 291330Z 07014KT 9999 FEW015 BKN045 16/12 Q1017 NOSIG,0,14,0,10000,0,0,0,
2026-04-29 13:00:00,METAR RJTT 291300Z 07015KT 9999 FEW015 BKN040 16/13 Q1017 NOSIG,0,15,0,10000,0,0,0,
2026-04-29 12:30:00,METAR RJTT 291230Z 07014KT 9999 SCT015 BKN020 16/13 Q1017 NOSIG,0,14,0,10000,0,0,0,
2026-04-29 12:00:00,METAR RJTT 291200Z 05015KT 9999 SCT015 BKN020 16/13 Q1017 NOSIG,0,15,0,10000,0,0,0,
2026-04-29 11:30:00,METAR RJTT 291130Z 05012KT 9999 FEW015 BKN020 16/13 Q1016 NOSIG,0,12,0,10000,0,0,0,
2026-04-29 11:00:00,METAR RJTT 291100Z 05014KT 9999 FEW015 BKN020 BKN030 16/13 Q1016 NOSIG,0,14,0,10000,0,0,0,
2026-04-29 10:30:00,METAR RJTT 291030Z 05014KT 9999 FEW015 BKN030 16/13 Q1015 NOSIG,0,14,0,10000,0,0,0,
2026-04-29 10:00:00,METAR RJTT 291000Z 05014KT 9999 FEW015 BKN020 16/13 Q1015 NOSIG,0,14,0,10000,0,0,0,
2026-04-29 09:30:00,METAR RJTT 290930Z 04015KT 9999 FEW015 BKN020 16/14 Q1014 NOSIG,0,15,0,10000,0,0,0,
2026-04-29 09:00:00,METAR RJTT 290900Z 05013KT 9999 FEW015 BKN020 BKN040 17/13 Q1014 NOSIG,0,13,0,10000,0,0,0,
2026-04-29 08:30:00,METAR RJTT 290830Z 04014KT 9999 FEW015 SCT020 BKN030 17/14 Q1013 NOSIG,0,14,0,10000,0,0,0,
2026-04-29 08:00:00,METAR RJTT 290800Z 05015KT 9999 FEW015 SCT025 BKN040 17/14 Q1013 NOSIG,0,15,0,10000,0,0,0,
2026-04-29 07:30:00,METAR RJTT 290730Z 05015KT 9999 FEW015 BKN030 BKN120 17/14 Q1012 NOSIG,0,15,0,10000,0,0,0,
2026-04-29 07:00:00,METAR RJTT 290700Z 05015KT 9999 FEW015 BKN030 17/14 Q1012 NOSIG,0,15,0,10000,0,0,0,
2026-04-29 06:30:00,METAR RJTT 290630Z 04015KT 9999 FEW015 SCT030 BKN120 17/14 Q1011 NOSIG,0,15,0,10000,0,0,0,
2026-04-29 06:00:00,METAR RJTT 290600Z 04013KT 9999 FEW015 SCT035 BKN130 18/14 Q1011 NOSIG,0,13,0,10000,0,0,0,
2026-04-29 05:30:00,METAR RJTT 290530Z 04013KT 9999 FEW015 BKN030 BKN040 18/15 Q1011 NOSIG,0,13,0,10000,0,0,0,
2026-04-29 05:00:00,METAR RJTT 290500Z 04012KT 9999 FEW020 BKN030 19/15 Q1011 NOSIG,0,12,0,10000,0,0,0,
2026-04-29 04:30:00,METAR RJTT 290430Z 04012KT 9999 FEW020 BKN030 19/14 Q1011 NOSIG,0,12,0,10000,0,0,0,
2026-04-29 04:00:00,METAR RJTT 290400Z 04013KT 9999 FEW020 BKN030 19/14 Q1011 NOSIG,0,13,0,10000,0,0,0,
2026-04-29 03:30:00,METAR RJTT 290330Z 05011KT 9999 FEW025 BKN030 BKN140 20/15 Q1011 NOSIG,0,11,0,10000,0,0,0,
2026-04-29 03:00:00,METAR RJTT 290300Z 05011KT 9999 FEW015 BKN028 19/15 Q1011 NOSIG,0,11,0,10000,0,0,0,
2026-04-29 02:30:00,METAR RJTT 290230Z 04013KT 9999 BKN020 19/15 Q1011 NOSIG,0,13,0,10000,0,0,0,
2026-04-29 02:00:00,METAR RJTT 290200Z 05009KT 9999 FEW010 BKN017 BKN110 19/16 Q1011 NOSIG,0,9,0,10000,0,0,0,
2026-04-29 01:30:00,METAR RJTT 290130Z 06010KT 9999 FEW015 BKN020 18/16 Q1011 NOSIG,0,10,0,10000,0,0,0,
2026-04-29 01:00:00,METAR RJTT 290100Z 06010KT 9999 VCSH FEW010 BKN015 18/16 Q1011 NOSIG,0,10,0,10000,0,0,0,"SH,VC"
2026-04-29 00:30:00,METAR RJTT 290030Z 06012KT 9999 VCSH FEW010 BKN014 18/16 Q1011 NOSIG,0,12,0,10000,0,0,0,"SH,VC"
2026-04-29 00:00:00,METAR RJTT 290000Z 05010KT 9999 FEW008 SCT012 BKN100 18/16 Q1011 NOSIG,0,10,0,10000,0,0,0,
2026-04-28 23:30:00,METAR RJTT 282330Z 05009KT 9999 FEW008 BKN012 BKN100 18/16 Q1011 NOSIG,0,9,0,10000,0,0,0,
2026-04-28 23:00:00,METAR RJTT 282300Z 36009KT 9999 FEW008 SCT012 BKN100 18/15 Q1010 NOSIG,0,9,0,10000,0,0,0,
2026-04-28 22:30:00,METAR RJTT 282230Z 36010KT 9999 FEW010 BKN110 18/16 Q1010 NOSIG,0,10,0,10000,0,0,0,
2026-04-28 22:00:00,METAR RJTT 282200Z 34005KT 9999 FEW010 BKN120 18/15 Q1010 NOSIG,0,5,0,10000,0,0,0,
2026-04-28 21:30:00,METAR RJTT 282130Z 30006KT 9999 FEW010 BKN120 18/15 Q1009 NOSIG,0,6,0,10000,0,0,0,
2026-04-28 21:00:00,METAR RJTT 282100Z 29004KT 9999 FEW020 BKN140 18/15 Q1009 NOSIG,0,4,0,10000,0,0,0,
2026-04-28 20:30:00,METAR RJTT 282030Z 28007KT 9999 FEW020 SCT130 BKN150 18/15 Q1009 NOSIG,0,7,0,10000,0,0,0,
2026-04-28 20:00:00,METAR RJTT 282000Z 30005KT 9999 FEW020 BKN130 BKN/// 18/14 Q1008 NOSIG,0,5,0,10000,0,0,0,
2026-04-28 19:30:00,METAR RJTT 281930Z 31006KT 9999 FEW020 BKN130 18/14 Q1008 NOSIG,0,6,0,10000,0,0,0,
2026-04-28 19:00:00,METAR RJTT 281900Z 28008KT 240V310 9999 FEW020 BKN130 19/15 Q1008 NOSIG,0,8,0,10000,0,0,0,
2026-04-28 18:30:00,METAR RJTT 281830Z 24008KT 9999 FEW020 BKN130 20/16 Q1008 BECMG TL2000 28008KT,0,8,0,10000,0,0,0,
2026-04-28 18:00:00,METAR RJTT 281800Z 24013KT 9999 FEW020 BKN130 20/17 Q1008 BECMG 28008KT,0,13,0,10000,0,0,0,
2026-04-28 17:30:00,METAR RJTT 281730Z 24012KT 9999 FEW020 BKN130 20/17 Q1008 BECMG TL1800 28008KT,0,12,0,10000,0,0,0,
2026-04-28 17:00:00,METAR RJTT 281700Z 24012KT 9999 FEW015 SCT140 BKN/// 20/17 Q1008 BECMG TL1800 28008KT,0,12,0,10000,0,0,0,
2026-04-28 16:30:00,METAR RJTT 281630Z 23013KT CAVOK 20/17 Q1008 BECMG 30008KT,1,0,0,9999,0,0,0,
2026-04-28 16:00:00,METAR RJTT 281600Z 22017KT 9999 FEW020 BKN/// 20/17 Q1008 NOSIG,0,17,0,10000,0,0,0,
2026-04-28 15:30:00,METAR RJTT 281530Z 23017KT 9999 FEW020 BKN/// 20/17 Q1008 NOSIG,0,17,0,10000,0,0,0,
2026-04-28 15:00:00,METAR RJTT 281500Z 23017G29KT 9999 FEW020 BKN/// 20/17 Q1008 NOSIG,0,17,1,10000,0,0,0,
2026-04-28 14:30:00,METAR RJTT 281430Z 22017KT 9999 FEW025 BKN/// 21/16 Q1008 NOSIG,0,17,0,10000,0,0,0,
2026-04-28 14:00:00,METAR RJTT 281400Z 22020KT CAVOK 21/16 Q1008 TEMPO 22022G32KT,1,0,0,9999,0,0,0,
2026-04-28 13:30:00,METAR RJTT 281330Z 22021G31KT CAVOK 21/16 Q1008 NOSIG,1,0,0,9999,0,0,0,
2026-04-28 13:00:00,METAR RJTT 281300Z 23021KT CAVOK 21/16 Q1008 TEMPO 22025G35KT,1,0,0,9999,0,0,0,
2026-04-28 12:30:00,METAR RJTT 281230Z 22019KT CAVOK 21/16 Q1008 TEMPO 22025G35KT,1,0,0,9999,0,0,0,
2026-04-28 12:00:00,METAR RJTT 281200Z 23022KT CAVOK 21/15 Q1008 TEMPO 22025G35KT,1,0,0,9999,0,0,0,
2026-04-28 11:30:00,METAR RJTT 281130Z 24021G32KT CAVOK 22/15 Q1008 NOSIG,1,0,0,9999,0,0,0,
2026-04-28 11:00:00,METAR RJTT 281100Z 23021G31KT CAVOK 21/15 Q1008 NOSIG,1,0,0,9999,0,0,0,
2026-04-28 10:30:00,METAR RJTT 281030Z 23022G36KT CAVOK 22/14 Q1007 NOSIG,1,0,0,9999,0,0,0,
2026-04-28 10:00:00,METAR RJTT 281000Z 23022KT 9999 FEW030 SCT160 BKN/// 22/15 Q1007 TEMPO 22022G32KT,0,22,0,10000,0,0,0,
2026-04-28 09:30:00,METAR RJTT 280930Z 22020G30KT 9999 FEW030 BKN/// 22/14 Q1007 NOSIG,0,20,1,10000,0,0,0,
2026-04-28 09:00:00,METAR RJTT 280900Z 22025KT 9999 FEW030 BKN/// 22/13 Q1006 TEMPO 21025G35KT,0,25,0,10000,0,0,0,
2026-04-28 08:30:00,METAR RJTT 280830Z 20020KT 9999 FEW030 BKN/// 22/14 Q1007 TEMPO 21025G35KT,0,20,0,10000,0,0,0,
2026-04-28 08:00:00,METAR RJTT 280800Z 21024G35KT 9999 FEW030 BKN/// 22/14 Q1007 NOSIG,0,24,1,10000,0,0,0,
2026-04-28 07:30:00,METAR RJTT 280730Z 20020KT 9999 FEW030 BKN/// 23/15 Q1007 TEMPO 21025G35KT,0,20,0,10000,0,0,0,
2026-04-28 07:00:00,METAR RJTT 280700Z 20020KT 9999 FEW030 BKN/// 23/15 Q1007 TEMPO 21025G35KT,0,20,0,10000,0,0,0,
2026-04-28 06:30:00,METAR RJTT 280630Z 19020KT 9999 FEW030 BKN/// 22/15 Q1007 TEMPO 21025G35KT,0,20,0,10000,0,0,0,
2026-04-28 06:00:00,METAR RJTT 280600Z 18021KT 9999 FEW030 BKN/// 22/15 Q1008 TEMPO 21025G35KT,0,21,0,10000,0,0,0,
2026-04-28 05:30:00,METAR RJTT 280530Z 19022KT 9999 FEW030 BKN/// 21/16 Q1008 TEMPO FM0600 21025G35KT,0,22,0,10000,0,0,0,
2026-04-28 05:00:00,METAR RJTT 280500Z 19022KT 9999 FEW030 BKN/// 22/16 Q1009 TEMPO FM0600 21025G35KT,0,22,0,10000,0,0,0,
2026-04-28 04:30:00,METAR RJTT 280430Z 18020KT 9999 FEW030 BKN/// 22/15 Q1009 TEMPO FM0600 21025G35KT,0,20,0,10000,0,0,0,
2026-04-28 04:00:00,METAR RJTT 280400Z 18020KT 9999 FEW030 BKN/// 23/16 Q1010 NOSIG,0,20,0,10000,0,0,0,
2026-04-28 03:30:00,METAR RJTT 280330Z 18021KT 9999 FEW030 BKN/// 23/16 Q1010 TEMPO FM0500 20024G34KT,0,21,0,10000,0,0,0,
2026-04-28 03:00:00,METAR RJTT 280300Z 18021KT 9999 FEW030 BKN/// 22/15 Q1010 NOSIG,0,21,0,10000,0,0,0,
2026-04-28 02:30:00,METAR RJTT 280230Z 18019KT 9999 FEW030 BKN/// 22/14 Q1011 NOSIG,0,19,0,10000,0,0,0,
2026-04-28 02:00:00,METAR RJTT 280200Z 18019KT 9999 FEW030 BKN/// 22/13 Q1012 NOSIG,0,19,0,10000,0,0,0,
2026-04-28 01:30:00,METAR RJTT 280130Z 18017KT 9999 FEW030 BKN/// 22/14 Q1012 NOSIG,0,17,0,10000,0,0,0,
2026-04-28 01:00:00,METAR RJTT 280100Z 18017KT 9999 FEW030 BKN/// 21/14 Q1012 NOSIG,0,17,0,10000,0,0,0,
2026-04-28 00:30:00,METAR RJTT 280030Z 18015KT 9999 FEW030 BKN/// 21/14 Q1012 NOSIG,0,15,0,10000,0,0,0,
2026-04-28 00:00:00,METAR RJTT 280000Z 18014KT 9999 FEW030 BKN/// 21/15 Q1012 NOSIG,0,14,0,10000,0,0,0,
2026-04-27 23:30:00,METAR RJTT 272330Z 18013KT 9999 FEW020 BKN/// 20/14 Q1012 NOSIG,0,13,0,10000,0,0,0,
2026-04-27 23:00:00,METAR RJTT 272300Z 18012KT 9999 FEW020 BKN/// 19/15 Q1012 NOSIG,0,12,0,10000,0,0,0,
2026-04-27 22:30:00,METAR RJTT 272230Z 19011KT 9999 FEW030 BKN/// 19/15 Q1013 NOSIG,0,11,0,10000,0,0,0,
2026-04-27 22:00:00,METAR RJTT 272200Z 18010KT 9999 FEW030 BKN/// 18/16 Q1013 NOSIG,0,10,0,10000,0,0,0,
2026-04-27 21:30:00,METAR RJTT 272130Z 18009KT 9999 FEW010 BKN/// 18/15 Q1013 NOSIG,0,9,0,10000,0,0,0,
2026-04-27 21:00:00,METAR RJTT 272100Z 17008KT 9999 FEW010 BKN/// 16/15 Q1012 NOSIG,0,8,0,10000,0,0,0,
2026-04-27 20:30:00,METAR RJTT 272030Z 20005KT 9999 FEW005 BKN/// 14/13 Q1012 BECMG FM2130 TL2200 19015KT,0,5,0,10000,0,0,0,
2026-04-27 20:00:00,METAR RJTT 272000Z 19004KT 150V250 9999 FEW010 BKN/// 14/13 Q1012 NOSIG,0,4,0,10000,0,0,0,
2026-04-27 19:30:00,METAR RJTT 271930Z 26004KT 210V360 9999 FEW008 SCT/// 14/13 Q1012 NOSIG,0,4,0,10000,0,0,0,
2026-04-27 19:00:00,METAR RJTT 271900Z 23006KT 9999 FEW010 BKN/// 14/13 Q1012 BECMG 25005KT,0,6,0,10000,0,0,0,
2026-04-27 18:30:00,METAR RJTT 271830Z 25006KT 9999 FEW030 BKN/// 13/12 Q1012 NOSIG,0,6,0,10000,0,0,0,
2026-04-27 18:00:00,METAR RJTT 271800Z 25005KT 9999 FEW030 BKN/// 13/12 Q1011 NOSIG,0,5,0,10000,0,0,0,
2026-04-27 17:30:00,METAR RJTT 271730Z 27006KT 9999 FEW030 BKN/// 14/13 Q1011 NOSIG,0,6,0,10000,0,0,0,
2026-04-27 17:00:00,METAR RJTT 271700Z 27005KT 9999 FEW030 BKN/// 14/13 Q1010 NOSIG,0,5,0,10000,0,0,0,
2026-04-27 16:30:00,METAR RJTT 271630Z 28004KT 9999 FEW015 BKN/// 14/13 Q1010 NOSIG,0,4,0,10000,0,0,0,
2026-04-27 16:00:00,METAR RJTT 271600Z 26004KT 9999 FEW015 BKN/// 14/13 Q1011 NOSIG,0,4,0,10000,0,0,0,
2026-04-27 15:30:00,METAR RJTT 271530Z 27003KT 220V330 9999 FEW015 BKN/// 15/13 Q1011 NOSIG,0,3,0,10000,0,0,0,
2026-04-27 15:00:00,METAR RJTT 271500Z VRB02KT 9999 FEW015 BKN/// 15/14 Q1011 NOSIG,0,2,0,10000,0,0,0,
2026-04-27 14:30:00,METAR RJTT 271430Z 19006KT 170V280 9999 FEW015 SCT/// 15/13 Q1011 NOSIG,0,6,0,10000,0,0,0,
2026-04-27 14:00:00,METAR RJTT 271400Z 17005KT 9999 FEW030 15/12 Q1011 NOSIG,0,5,0,10000,0,0,0,
2026-04-27 13:30:00,METAR RJTT 271330Z VRB01KT 9999 FEW030 15/13 Q1011 NOSIG,0,1,0,10000,0,0,0,
2026-04-27 13:00:00,METAR RJTT 271300Z VRB01KT 9999 FEW030 15/14 Q1011 NOSIG,0,1,0,10000,0,0,0,
2026-04-27 12:30:00,METAR RJTT 271230Z VRB01KT 9999 FEW030 16/13 Q1011 NOSIG,0,1,0,10000,0,0,0,
2026-04-27 12:00:00,METAR RJTT 271200Z 36004KT 9999 FEW030 16/13 Q1010 NOSIG,0,4,0,10000,0,0,0,
2026-04-27 11:30:00,METAR RJTT 271130Z 02006KT 9999 FEW030 16/13 Q1009 NOSIG,0,6,0,10000,0,0,0,
2026-04-27 11:00:00,METAR RJTT 271100Z 04011KT 9999 FEW030 16/14 Q1009 NOSIG,0,11,0,10000,0,0,0,
2026-04-27 10:30:00,METAR RJTT 271030Z 02010KT 9999 FEW030 SCT120 16/14 Q1009 NOSIG,0,10,0,10000,0,0,0,
2026-04-27 10:00:00,METAR RJTT 271000Z 03010KT 9999 FEW030 BKN120 16/14 Q1008 NOSIG,0,10,0,10000,0,0,0,
2026-04-27 09:30:00,METAR RJTT 270930Z 04012KT 9999 -RA FEW030 BKN090 16/15 Q1008 NOSIG,0,12,0,10000,0,0,0,-RA
2026-04-27 09:00:00,METAR RJTT 270900Z 04012KT 9999 -RA FEW030 BKN080 16/14 Q1007 TEMPO 4000 -SHRA BR,0,12,0,10000,0,0,1,"-RA,BR,RA"
2026-04-27 08:30:00,METAR RJTT 270830Z 02011KT 9999 -RA FEW030 BKN070 16/14 Q1007 TEMPO 4000 SHRA BR,0,11,0,10000,0,0,1,"-RA,BR,RA,SH"
2026-04-27 08:00:00,METAR RJTT 270800Z 01012KT 9999 -RA FEW020 BKN070 17/14 Q1006 TEMPO 4000 SHRA BR,0,12,0,10000,0,0,1,"-RA,BR,RA,SH"
2026-04-27 07:30:00,METAR RJTT 270730Z 35008KT 9000 -SHRA FEW020 BKN060 17/15 Q1006 TEMPO 4000 SHRA BR,0,8,0,9000,0,0,1,"BR,RA,SH"
2026-04-27 07:00:00,METAR RJTT 270700Z 35009KT 5000 SHRA BR FEW020 BKN035 17/14 Q1005 TEMPO 4000 SHRA BR,0,9,0,5000,0,0,1,"BR,RA,SH"
2026-04-27 06:30:00,METAR RJTT 270630Z 01010KT 6000 -SHRA FEW020 BKN030 19/14 Q1005 TEMPO 4000 SHRA BR,0,10,0,6000,0,0,1,"BR,RA,SH"
2026-04-27 06:00:00,METAR RJTT 270600Z 06005KT 010V090 9999 -SHRA FEW020 SCT030 BKN050 20/15 Q1004 BECMG 36010KT,0,5,0,10000,0,0,0,RA
2026-04-27 05:30:00,METAR RJTT 270530Z 08004KT 9999 FEW020 SCT030 BKN050 19/14 Q1004 BECMG 36010KT,0,4,0,10000,0,0,0,
2026-04-27 05:00:00,METAR RJTT 270500Z 36004KT 9999 FEW020 BKN050 19/14 Q1004 NOSIG,0,4,0,10000,0,0,0,
2026-04-27 04:30:00,METAR RJTT 270430Z 34011KT 9999 FEW020 BKN050 20/15 Q1003 NOSIG,0,11,0,10000,0,0,0,
2026-04-27 04:00:00,METAR RJTT 270400Z 34012KT 9999 FEW020 BKN050 19/14 Q1004 NOSIG,0,12,0,10000,0,0,0,
2026-04-27 03:30:00,METAR RJTT 270330Z 35016KT 9999 FEW016 19/15 Q1004 NOSIG,0,16,0,10000,0,0,0,
2026-04-27 03:00:00,METAR RJTT 270300Z 34016KT 9999 FEW010 SCT015 19/15 Q1004 NOSIG,0,16,0,10000,0,0,0,
2026-04-27 02:30:00,METAR RJTT 270230Z 33017KT 9999 FEW010 BKN013 17/14 Q1004 NOSIG,0,17,0,10000,0,0,0,
2026-04-27 02:00:00,METAR RJTT 270200Z 32018KT 9999 FEW010 BKN015 17/14 Q1004 NOSIG,0,18,0,10000,0,0,0,
2026-04-27 01:30:00,METAR RJTT 270130Z 33018KT 9999 FEW010 BKN/// 15/13 Q1003 NOSIG,0,18,0,10000,0,0,0,
2026-04-27 01:00:00,METAR RJTT 270100Z 33022KT 7000 SHRA SCT009 BKN080 14/13 Q1004 BECMG TL0230 -SHRA,0,22,0,7000,0,0,0,"RA,SH"
2026-04-27 00:30:00,METAR RJTT 270030Z 33022KT 4000 R34L/P2000N R22/P2000N R34R/P2000N R05/P2000N SHRA BR FEW004 SCT008 BKN015 14/13 Q1005 TEMPO 2000 SHRA BR FEW004 BKN008,0,22,0,4000,0,0,1,"BR,RA,SH"
2026-04-27 00:00:00,METAR RJTT 270000Z 33023KT 3000 R34L/P2000N R22/P2000N R34R/P2000N R05/2000N SHRA BR FEW004 BKN010 BKN025 14/13 Q1005 TEMPO 1500 +SHRA BR FEW003 BKN005,0,23,0,3000,0,0,1,"BR,RA,SH"
2026-04-26 23:30:00,METAR RJTT 262330Z 34024KT 4000 R34L/P2000N R22/P2000N R34R/P2000N R05/2000D RA BR FEW005 BKN008 BKN025 15/14 Q1005 TEMPO 2000 SHRA BR FEW003 BKN005,0,24,0,4000,0,0,1,"BR,RA,SH"
2026-04-26 23:00:00,METAR RJTT 262300Z 35023KT 4500 RA BR FEW005 BKN025 15/14 Q1005 TEMPO 3000 SHRA BR FEW003 BKN005,0,23,0,4500,0,0,1,"BR,RA,SH"
2026-04-26 22:30:00,METAR RJTT 262230Z 34022KT 4500 RA BR FEW005 BKN018 15/14 Q1006 TEMPO 3000 SHRA BR FEW001 BKN003,0,22,0,4500,0,0,1,"BR,RA,SH"
2026-04-26 22:00:00,METAR RJTT 262200Z 35016KT 4500 RA BR FEW003 BKN007 BKN012 15/15 Q1007 TEMPO 3000 SHRA BR FEW001 BKN003,0,16,0,4500,0,0,1,"BR,RA,SH"
2026-04-26 21:30:00,METAR RJTT 262130Z 36013KT 4500 RA BR FEW003 BKN004 16/15 Q1007 TEMPO 3000 SHRA BR BECMG 34024KT,0,13,0,4500,0,0,1,"BR,RA,SH"
2026-04-26 21:00:00,METAR RJTT 262100Z 36012KT 4000 RA BR FEW002 BKN004 BKN012 16/15 Q1008 TEMPO 3000 SHRA BR BECMG FM2200 34022KT,0,12,0,4000,0,0,1,"BR,RA,SH"
2026-04-26 20:30:00,METAR RJTT 262030Z 02011KT 4000 RA BR FEW003 BKN005 BKN012 16/15 Q1008 TEMPO 3000 SHRA BR,0,11,0,4000,0,0,1,"BR,RA,SH"
2026-04-26 20:00:00,METAR RJTT 262000Z 03011KT 3000 RA BR FEW003 BKN005 BKN012 16/15 Q1009 BECMG FM2100 36022KT,0,11,0,3000,0,0,1,"BR,RA"
2026-04-26 19:30:00,METAR RJTT 261930Z 03010KT 4500 -RA BR FEW004 BKN006 BKN015 16/15 Q1009 TEMPO 3000 SHRA BR FEW003 BKN005 BECMG FM2100 36020KT,0,10,0,4500,0,0,1,"-RA,BR,RA,SH"
2026-04-26 19:00:00,METAR RJTT 261900Z 03010KT 9999 -RA FEW004 BKN006 BKN012 16/16 Q1010 TEMPO 3000 SHRA BR FEW003 BKN005 BECMG FM2000 36020KT,0,10,0,10000,0,0,1,"-RA,BR,RA,SH"
2026-04-26 18:30:00,METAR RJTT 261830Z 03010KT 5000 -RA BR FEW004 SCT007 BKN015 16/15 Q1010 TEMPO 3000 SHRA BR FEW005 BKN008 BECMG 36020KT,0,10,0,5000,0,0,1,"-RA,BR,RA,SH"
2026-04-26 18:00:00,METAR RJTT 261800Z 05010KT 4500 -RA BR FEW004 SCT012 BKN020 16/15 Q1011 TEMPO SHRA BR FEW005 BKN008,0,10,0,4500,0,0,1,"-RA,BR,RA,SH"
2026-04-26 17:30:00,METAR RJTT 261730Z 06007KT 6000 -RA FEW010 BKN015 17/15 Q1011 BECMG 03010KT TEMPO 4000 SHRA BR FEW005 BKN008,0,7,0,6000,0,0,1,"-RA,BR,RA,SH"
2026-04-26 17:00:00,METAR RJTT 261700Z 06007KT 9999 -RA FEW015 BKN030 17/15 Q1011 BECMG 03010KT,0,7,0,10000,0,0,0,-RA
2026-04-26 16:30:00,METAR RJTT 261630Z 05005KT 9999 FEW015 BKN035 18/15 Q1012 NOSIG,0,5,0,10000,0,0,0,
2026-04-26 16:00:00,METAR RJTT 261600Z 06006KT 9999 -SHRA FEW015 SCT035 BKN040 17/15 Q1012 BECMG 05006KT,0,6,0,10000,0,0,0,RA
2026-04-26 15:30:00,METAR RJTT 261530Z 07005KT 9999 FEW020 BKN035 BKN050 17/15 Q1013 BECMG 05005KT,0,5,0,10000,0,0,0,
2026-04-26 15:00:00,METAR RJTT 261500Z 07004KT 9999 FEW020 BKN050 17/15 Q1014 BECMG 05005KT,0,4,0,10000,0,0,0,
2026-04-26 14:30:00,METAR RJTT 261430Z 09003KT 9999 FEW020 BKN050 17/15 Q1014 NOSIG,0,3,0,10000,0,0,0,
2026-04-26 14:00:00,METAR RJTT 261400Z 08003KT 9999 FEW025 BKN040 BKN/// 17/15 Q1015 NOSIG,0,3,0,10000,0,0,0,
2026-04-26 13:30:00,METAR RJTT 261330Z 10003KT 9999 FEW025 SCT050 BKN/// 17/14 Q1015 NOSIG,0,3,0,10000,0,0,0,
2026-04-26 13:00:00,METAR RJTT 261300Z 11003KT 9999 FEW030 BKN/// 17/13 Q1016 NOSIG,0,3,0,10000,0,0,0,
2026-04-26 12:30:00,METAR RJTT 261230Z 11004KT 9999 FEW030 BKN/// 17/14 Q1016 NOSIG,0,4,0,10000,0,0,0,
2026-04-26 12:00:00,METAR RJTT 261200Z 12005KT 9999 FEW020 BKN/// 17/14 Q1016 NOSIG,0,5,0,10000,0,0,0,
2026-04-26 11:30:00,METAR RJTT 261130Z 12003KT 9999 FEW020 BKN/// 17/13 Q1017 NOSIG,0,3,0,10000,0,0,0,
2026-04-26 11:00:00,METAR RJTT 261100Z 14005KT 9999 FEW030 BKN/// 17/13 Q1017 NOSIG,0,5,0,10000,0,0,0,
2026-04-26 10:30:00,METAR RJTT 261030Z 15008KT 120V180 9999 FEW030 BKN/// 18/11 Q1017 NOSIG,0,8,0,10000,0,0,0,
2026-04-26 10:00:00,METAR RJTT 261000Z 16008KT 9999 FEW030 BKN/// 18/12 Q1017 NOSIG,0,8,0,10000,0,0,0,
2026-04-26 09:30:00,METAR RJTT 260930Z 17009KT 9999 FEW030 BKN/// 19/11 Q1017 NOSIG,0,9,0,10000,0,0,0,
2026-04-26 09:00:00,METAR RJTT 260900Z 17009KT 9999 FEW030 BKN/// 19/11 Q1017 NOSIG,0,9,0,10000,0,0,0,
2026-04-26 08:30:00,METAR RJTT 260830Z 19009KT 9999 FEW030 BKN/// 19/11 Q1016 NOSIG,0,9,0,10000,0,0,0,
2026-04-26 08:00:00,METAR RJTT 260800Z 19011KT 9999 FEW030 BKN/// 19/11 Q1016 NOSIG,0,11,0,10000,0,0,0,
2026-04-26 07:30:00,METAR RJTT 260730Z 18010KT 9999 FEW030 BKN/// 20/10 Q1016 NOSIG,0,10,0,10000,0,0,0,
2026-04-26 07:00:00,METAR RJTT 260700Z 18009KT 9999 FEW030 BKN/// 20/10 Q1016 NOSIG,0,9,0,10000,0,0,0,
2026-04-26 06:30:00,METAR RJTT 260630Z 18008KT 9999 FEW030 BKN/// 20/11 Q1016 NOSIG,0,8,0,10000,0,0,0,
2026-04-26 06:00:00,METAR RJTT 260600Z 07004KT 040V100 9999 FEW030 SCT045 BKN/// 20/11 Q1017 BECMG 16010KT,0,4,0,10000,0,0,0,
2026-04-26 05:30:00,METAR RJTT 260530Z 07004KT 9999 FEW030 SCT050 BKN/// 20/10 Q1017 BECMG 16010KT,0,4,0,10000,0,0,0,
2026-04-26 05:00:00,METAR RJTT 260500Z 05003KT 9999 FEW030 BKN/// 20/10 Q1017 BECMG 12005KT,0,3,0,10000,0,0,0,
2026-04-26 04:30:00,METAR RJTT 260430Z 03004KT 9999 FEW030 BKN/// 20/10 Q1018 BECMG 08005KT,0,4,0,10000,0,0,0,
2026-04-26 04:00:00,METAR RJTT 260400Z 03004KT 9999 FEW030 BKN/// 20/10 Q1018 BECMG 08005KT,0,4,0,10000,0,0,0,
2026-04-26 03:30:00,METAR RJTT 260330Z 01005KT 9999 FEW030 BKN/// 20/10 Q1018 BECMG 08005KT,0,5,0,10000,0,0,0,
2026-04-26 03:00:00,METAR RJTT 260300Z 36004KT 9999 FEW030 BKN/// 19/07 Q1019 BECMG 08006KT,0,4,0,10000,0,0,0,
2026-04-26 02:30:00,METAR RJTT 260230Z 03004KT 9999 FEW030 BKN/// 19/08 Q1020 BECMG 08006KT,0,4,0,10000,0,0,0,
2026-04-26 02:00:00,METAR RJTT 260200Z 05004KT 9999 FEW030 BKN/// 18/09 Q1020 BECMG 08006KT,0,4,0,10000,0,0,0,
2026-04-26 01:30:00,METAR RJTT 260130Z 08004KT 9999 FEW030 BKN/// 18/10 Q1021 NOSIG,0,4,0,10000,0,0,0,
2026-04-26 01:00:00,METAR RJTT 260100Z 06005KT 9999 FEW030 BKN/// 17/09 Q1021 BECMG 08006KT,0,5,0,10000,0,0,0,
2026-04-26 00:30:00,METAR RJTT 260030Z 04006KT 9999 FEW030 BKN/// 17/10 Q1022 BECMG 08006KT,0,6,0,10000,0,0,0,
2026-04-26 00:00:00,METAR RJTT 260000Z 04005KT 9999 FEW030 BKN/// 17/10 Q1022 NOSIG,0,5,0,10000,0,0,0,
2026-04-25 23:30:00,METAR RJTT 252330Z 02005KT 9999 FEW030 SCT/// 16/09 Q1022 NOSIG,0,5,0,10000,0,0,0,
2026-04-25 23:00:00,METAR RJTT 252300Z 01005KT 9999 FEW030 SCT/// 16/09 Q1022 NOSIG,0,5,0,10000,0,0,0,
2026-04-25 22:30:00,METAR RJTT 252230Z 36005KT 9999 FEW030 SCT/// 15/09 Q1022 NOSIG,0,5,0,10000,0,0,0,
2026-04-25 22:00:00,METAR RJTT 252200Z 01007KT 9999 FEW030 14/08 Q1022 NOSIG,0,7,0,10000,0,0,0,
2026-04-25 21:30:00,METAR RJTT 252130Z 01007KT 9999 FEW030 14/08 Q1022 NOSIG,0,7,0,10000,0,0,0,
2026-04-25 21:00:00,METAR RJTT 252100Z 01007KT 9999 FEW030 13/09 Q1022 NOSIG,0,7,0,10000,0,0,0,
2026-04-25 20:30:00,METAR RJTT 252030Z 01008KT 9999 FEW030 13/08 Q1022 NOSIG,0,8,0,10000,0,0,0,
2026-04-25 20:00:00,METAR RJTT 252000Z 02009KT 9999 FEW030 13/08 Q1022 NOSIG,0,9,0,10000,0,0,0,
2026-04-25 19:30:00,METAR RJTT 251930Z 02008KT 9999 FEW030 13/09 Q1021 NOSIG,0,8,0,10000,0,0,0,
2026-04-25 19:00:00,METAR RJTT 251900Z 01007KT 9999 FEW030 13/08 Q1022 NOSIG,0,7,0,10000,0,0,0,
2026-04-25 18:30:00,METAR RJTT 251830Z 01007KT 9999 FEW030 13/08 Q1022 NOSIG,0,7,0,10000,0,0,0,
2026-04-25 18:00:00,METAR RJTT 251800Z 01006KT CAVOK 13/08 Q1022 NOSIG,1,0,0,9999,0,0,0,
2026-04-25 17:30:00,METAR RJTT 251730Z 36006KT CAVOK 13/08 Q1022 NOSIG,1,0,0,9999,0,0,0,
2026-04-25 17:00:00,METAR RJTT 251700Z 01006KT CAVOK 14/08 Q1021 NOSIG,1,0,0,9999,0,0,0,
2026-04-25 16:30:00,METAR RJTT 251630Z 05007KT CAVOK 14/08 Q1021 NOSIG,1,0,0,9999,0,0,0,
2026-04-25 16:00:00,METAR RJTT 251600Z 05007KT CAVOK 14/09 Q1022 NOSIG,1,0,0,9999,0,0,0,
2026-04-25 15:30:00,METAR RJTT 251530Z 06007KT 9999 FEW030 14/10 Q1022 NOSIG,0,7,0,10000,0,0,0,
2026-04-25 15:00:00,METAR RJTT 251500Z 07009KT 9999 FEW030 14/09 Q1022 BECMG 02006KT,0,9,0,10000,0,0,0,
2026-04-25 14:30:00,METAR RJTT 251430Z 06009KT CAVOK 15/10 Q1022 NOSIG,1,0,0,9999,0,0,0,
2026-04-25 14:00:00,METAR RJTT 251400Z 06008KT 9999 FEW030 15/09 Q1023 NOSIG,0,8,0,10000,0,0,0,
2026-04-25 13:30:00,METAR RJTT 251330Z 07010KT CAVOK 15/09 Q1022 NOSIG,1,0,0,9999,0,0,0,
2026-04-25 13:00:00,METAR RJTT 251300Z 08012KT CAVOK 15/09 Q1023 NOSIG,1,0,0,9999,0,0,0,
2026-04-25 12:30:00,METAR RJTT 251230Z 08011KT CAVOK 15/09 Q1023 NOSIG,1,0,0,9999,0,0,0,
2026-04-25 12:00:00,METAR RJTT 251200Z 08011KT CAVOK 15/09 Q1023 NOSIG,1,0,0,9999,0,0,0,
2026-04-25 11:30:00,METAR RJTT 251130Z 08012KT CAVOK 15/09 Q1023 NOSIG,1,0,0,9999,0,0,0,
2026-04-25 11:00:00,METAR RJTT 251100Z 08012KT CAVOK 15/10 Q1023 NOSIG,1,0,0,9999,0,0,0,
2026-04-25 10:30:00,METAR RJTT 251030Z 10012KT 9999 FEW030 SCT/// 16/10 Q1022 NOSIG,0,12,0,10000,0,0,0,
2026-04-25 10:00:00,METAR RJTT 251000Z 11011KT 9999 FEW030 BKN/// 16/09 Q1022 NOSIG,0,11,0,10000,0,0,0,
2026-04-25 09:30:00,METAR RJTT 250930Z 11011KT 9999 FEW030 SCT/// 16/09 Q1022 NOSIG,0,11,0,10000,0,0,0,
2026-04-25 09:00:00,METAR RJTT 250900Z 11012KT 9999 FEW030 BKN/// 16/09 Q1022 NOSIG,0,12,0,10000,0,0,0,
2026-04-25 08:30:00,METAR RJTT 250830Z 11011KT 9999 FEW030 SCT/// 17/09 Q1022 NOSIG,0,11,0,10000,0,0,0,
2026-04-25 08:00:00,METAR RJTT 250800Z 10011KT 9999 FEW030 BKN/// 17/10 Q1021 NOSIG,0,11,0,10000,0,0,0,
2026-04-25 07:30:00,METAR RJTT 250730Z 07008KT 9999 FEW030 BKN/// 17/08 Q1021 NOSIG,0,8,0,10000,0,0,0,
2026-04-25 07:00:00,METAR RJTT 250700Z 06007KT 9999 FEW030 BKN/// 17/08 Q1021 NOSIG,0,7,0,10000,0,0,0,
2026-04-25 06:30:00,METAR RJTT 250630Z 05007KT 9999 FEW030 BKN/// 18/09 Q1021 NOSIG,0,7,0,10000,0,0,0,
2026-04-25 06:00:00,METAR RJTT 250600Z 05006KT 9999 FEW030 BKN/// 18/08 Q1021 NOSIG,0,6,0,10000,0,0,0,
2026-04-25 05:30:00,METAR RJTT 250530Z 05006KT 9999 FEW030 BKN/// 18/08 Q1021 NOSIG,0,6,0,10000,0,0,0,
2026-04-25 05:00:00,METAR RJTT 250500Z 06007KT 9999 FEW030 BKN/// 17/08 Q1022 BECMG 10008KT,0,7,0,10000,0,0,0,
2026-04-25 04:30:00,METAR RJTT 250430Z 06007KT 9999 FEW030 BKN/// 17/08 Q1022 BECMG 10008KT,0,7,0,10000,0,0,0,
2026-04-25 04:00:00,METAR RJTT 250400Z 07008KT 9999 FEW030 BKN/// 17/08 Q1022 NOSIG,0,8,0,10000,0,0,0,
2026-04-25 03:30:00,METAR RJTT 250330Z 07008KT 9999 FEW030 BKN/// 18/09 Q1022 NOSIG,0,8,0,10000,0,0,0,
2026-04-25 03:00:00,METAR RJTT 250300Z 06007KT 9999 FEW030 SCT045 BKN/// 17/08 Q1022 BECMG 10008KT,0,7,0,10000,0,0,0,
2026-04-25 02:30:00,METAR RJTT 250230Z 04005KT 9999 FEW030 SCT045 BKN/// 16/08 Q1022 BECMG 08008KT,0,5,0,10000,0,0,0,
2026-04-25 02:00:00,METAR RJTT 250200Z 05004KT 020V080 9999 FEW030 SCT050 BKN/// 16/09 Q1022 BECMG TL0300 08008KT,0,4,0,10000,0,0,0,
2026-04-25 01:30:00,METAR RJTT 250130Z 05006KT 9999 FEW030 BKN/// 16/10 Q1023 BECMG TL0300 08008KT,0,6,0,10000,0,0,0,
2026-04-25 01:00:00,METAR RJTT 250100Z 06009KT 9999 FEW030 BKN/// 15/09 Q1022 BECMG TL0200 08008KT,0,9,0,10000,0,0,0,
2026-04-25 00:30:00,METAR RJTT 250030Z 05010KT 9999 FEW030 BKN/// 15/08 Q1022 BECMG 08008KT,0,10,0,10000,0,0,0,
2026-04-25 00:00:00,METAR RJTT 250000Z 04010KT 9999 FEW030 BKN/// 15/08 Q1022 NOSIG,0,10,0,10000,0,0,0,
2026-04-24 23:30:00,METAR RJTT 242330Z 03011KT 9999 FEW030 BKN/// 15/08 Q1022 NOSIG,0,11,0,10000,0,0,0,
2026-04-24 23:00:00,METAR RJTT 242300Z 03010KT 9999 FEW030 SCT200 BKN/// 14/08 Q1022 NOSIG,0,10,0,10000,0,0,0,
2026-04-24 22:30:00,METAR RJTT 242230Z 03011KT 9999 FEW030 BKN180 BKN/// 13/08 Q1022 NOSIG,0,11,0,10000,0,0,0,
2026-04-24 22:00:00,METAR RJTT 242200Z 04012KT 9999 FEW030 SCT200 BKN/// 13/08 Q1022 NOSIG,0,12,0,10000,0,0,0,
2026-04-24 21:30:00,METAR RJTT 242130Z 04014KT 9999 FEW030 BKN180 BKN/// 13/09 Q1021 NOSIG,0,14,0,10000,0,0,0,
2026-04-24 21:00:00,METAR RJTT 242100Z 03014KT 9999 FEW030 BKN180 13/09 Q1021 NOSIG,0,14,0,10000,0,0,0,
2026-04-24 20:30:00,METAR RJTT 242030Z 02013KT 9999 FEW030 BKN190 13/08 Q1021 NOSIG,0,13,0,10000,0,0,0,
2026-04-24 20:00:00,METAR RJTT 242000Z 03012KT 9999 FEW030 BKN190 13/08 Q1021 NOSIG,0,12,0,10000,0,0,0,
2026-04-24 19:30:00,METAR RJTT 241930Z 02012KT CAVOK 13/09 Q1020 NOSIG,1,0,0,9999,0,0,0,
2026-04-24 19:00:00,METAR RJTT 241900Z 03013KT 9999 FEW050 BKN/// 13/08 Q1020 NOSIG,0,13,0,10000,0,0,0,
2026-04-24 18:30:00,METAR RJTT 241830Z 02012KT 9999 FEW050 SCT/// 13/08 Q1019 NOSIG,0,12,0,10000,0,0,0,
2026-04-24 18:00:00,METAR RJTT 241800Z 02013KT 9999 FEW050 BKN/// 13/09 Q1019 NOSIG,0,13,0,10000,0,0,0,
2026-04-24 17:30:00,METAR RJTT 241730Z 03015KT 9999 SCT060 BKN/// 13/08 Q1018 NOSIG,0,15,0,10000,0,0,0,
2026-04-24 17:00:00,METAR RJTT 241700Z 03013KT 9999 FEW040 BKN060 BKN170 13/08 Q1018 NOSIG,0,13,0,10000,0,0,0,
2026-04-24 16:30:00,METAR RJTT 241630Z 02013KT 9999 FEW040 BKN060 13/08 Q1018 NOSIG,0,13,0,10000,0,0,0,
2026-04-24 16:00:00,METAR RJTT 241600Z 02014KT 9999 FEW040 BKN060 BKN200 14/09 Q1018 NOSIG,0,14,0,10000,0,0,0,
2026-04-24 15:30:00,METAR RJTT 241530Z 02013KT 9999 BKN060 BKN200 14/08 Q1018 NOSIG,0,13,0,10000,0,0,0,
2026-04-24 15:00:00,METAR RJTT 241500Z 01009KT 9999 FEW030 BKN060 BKN200 15/09 Q1019 NOSIG,0,9,0,10000,0,0,0,
2026-04-24 14:30:00,METAR RJTT 241430Z 04010KT 9999 FEW030 SCT060 BKN180 15/08 Q1018 NOSIG,0,10,0,10000,0,0,0,
2026-04-24 14:00:00,METAR RJTT 241400Z 05013KT 9999 FEW030 SCT060 BKN/// 15/09 Q1017 NOSIG,0,13,0,10000,0,0,0,
2026-04-24 13:30:00,METAR RJTT 241330Z 06011KT 9999 FEW030 SCT060 BKN/// 15/09 Q1017 BECMG TL1400 05010KT,0,11,0,10000,0,0,0,
2026-04-24 13:00:00,METAR RJTT 241300Z 04009KT 9999 FEW030 BKN060 BKN160 15/09 Q1018 NOSIG,0,9,0,10000,0,0,0,
2026-04-24 12:30:00,METAR RJTT 241230Z 04008KT 9999 FEW030 BKN060 BKN160 15/09 Q1018 NOSIG,0,8,0,10000,0,0,0,
2026-04-24 12:00:00,METAR RJTT 241200Z 07012KT 9999 FEW030 BKN180 15/10 Q1017 BECMG 05010KT,0,12,0,10000,0,0,0,
2026-04-24 11:30:00,METAR RJTT 241130Z 07012KT 9999 FEW030 SCT050 BKN170 15/10 Q1017 BECMG 05010KT,0,12,0,10000,0,0,0,
2026-04-24 11:00:00,METAR RJTT 241100Z 07009KT 9999 FEW030 BKN170 15/09 Q1017 BECMG 05010KT,0,9,0,10000,0,0,0,
2026-04-24 10:30:00,METAR RJTT 241030Z 07010KT 9999 FEW030 BKN170 15/09 Q1016 BECMG 05010KT,0,10,0,10000,0,0,0,
2026-04-24 10:00:00,METAR RJTT 241000Z 08011KT 9999 FEW030 BKN170 15/10 Q1016 BECMG 05010KT,0,11,0,10000,0,0,0,
2026-04-24 09:30:00,METAR RJTT 240930Z 08012KT 9999 FEW030 BKN170 15/10 Q1015 NOSIG,0,12,0,10000,0,0,0,
2026-04-24 09:00:00,METAR RJTT 240900Z 08012KT 9999 FEW030 BKN160 16/10 Q1014 NOSIG,0,12,0,10000,0,0,0,
2026-04-24 08:30:00,METAR RJTT 240830Z 08011KT 9999 FEW030 BKN160 16/10 Q1014 NOSIG,0,11,0,10000,0,0,0,
2026-04-24 08:00:00,METAR RJTT 240800Z 08014KT 9999 FEW030 BKN160 16/10 Q1014 NOSIG,0,14,0,10000,0,0,0,
2026-04-24 07:30:00,METAR RJTT 240730Z 08013KT CAVOK 16/10 Q1013 NOSIG,1,0,0,9999,0,0,0,
2026-04-24 07:00:00,METAR RJTT 240700Z 09014KT CAVOK 17/11 Q1013 NOSIG,1,0,0,9999,0,0,0,
2026-04-24 06:30:00,METAR RJTT 240630Z 08013KT CAVOK 17/10 Q1012 NOSIG,1,0,0,9999,0,0,0,
2026-04-24 06:00:00,METAR RJTT 240600Z 07012KT 9999 FEW030 BKN140 17/11 Q1012 NOSIG,0,12,0,10000,0,0,0,
2026-04-24 05:30:00,METAR RJTT 240530Z 09011KT 9999 FEW030 BKN140 17/10 Q1012 NOSIG,0,11,0,10000,0,0,0,
2026-04-24 05:00:00,METAR RJTT 240500Z 09012KT 9999 FEW030 BKN140 17/10 Q1012 NOSIG,0,12,0,10000,0,0,0,
2026-04-24 04:30:00,METAR RJTT 240430Z 09011KT 9999 FEW030 BKN150 17/10 Q1012 NOSIG,0,11,0,10000,0,0,0,
2026-04-24 04:00:00,METAR RJTT 240400Z 09010KT 9999 FEW030 BKN150 17/11 Q1011 NOSIG,0,10,0,10000,0,0,0,
2026-04-24 03:30:00,METAR RJTT 240330Z 08010KT 9999 FEW030 BKN140 18/11 Q1011 NOSIG,0,10,0,10000,0,0,0,
2026-04-24 03:00:00,METAR RJTT 240300Z 07010KT 9999 FEW030 BKN140 17/11 Q1012 NOSIG,0,10,0,10000,0,0,0,
2026-04-24 02:30:00,METAR RJTT 240230Z 07011KT 9999 FEW030 BKN140 17/11 Q1012 NOSIG,0,11,0,10000,0,0,0,
2026-04-24 02:00:00,METAR RJTT 240200Z 07010KT 9999 FEW020 BKN140 17/11 Q1012 NOSIG,0,10,0,10000,0,0,0,
2026-04-24 01:30:00,METAR RJTT 240130Z 04011KT 9999 FEW020 BKN140 16/10 Q1012 NOSIG,0,11,0,10000,0,0,0,
2026-04-24 01:00:00,METAR RJTT 240100Z 02010KT 9999 FEW020 BKN150 16/11 Q1012 NOSIG,0,10,0,10000,0,0,0,
2026-04-24 00:30:00,METAR RJTT 240030Z 02014KT 9999 FEW020 BKN150 16/11 Q1012 NOSIG,0,14,0,10000,0,0,0,
2026-04-24 00:00:00,METAR RJTT 240000Z 01013KT 9999 FEW020 BKN160 16/10 Q1011 NOSIG,0,13,0,10000,0,0,0,
2026-04-23 23:30:00,METAR RJTT 232330Z 36009KT 9999 FEW015 BKN110 15/11 Q1011 NOSIG,0,9,0,10000,0,0,0,
2026-04-23 23:00:00,METAR RJTT 232300Z 36013KT 9999 FEW015 SCT110 BKN/// 15/12 Q1011 NOSIG,0,13,0,10000,0,0,0,
2026-04-23 22:30:00,METAR RJTT 232230Z 01013KT 9999 FEW010 SCT120 BKN/// 14/12 Q1011 NOSIG,0,13,0,10000,0,0,0,
2026-04-23 22:00:00,METAR RJTT 232200Z 01013KT 9999 -RA FEW010 SCT030 BKN110 14/12 Q1011 NOSIG,0,13,0,10000,0,0,0,-RA
2026-04-23 21:30:00,METAR RJTT 232130Z 01014KT 9999 -RA FEW010 SCT035 BKN100 14/12 Q1011 NOSIG,0,14,0,10000,0,0,0,-RA
2026-04-23 21:00:00,METAR RJTT 232100Z 01013KT 9999 -RA FEW010 SCT025 BKN040 14/12 Q1010 NOSIG,0,13,0,10000,0,0,0,-RA
2026-04-23 20:30:00,METAR RJTT 232030Z 36014KT 9999 -RA FEW010 BKN025 14/12 Q1010 NOSIG,0,14,0,10000,0,0,0,-RA
2026-04-23 20:00:00,METAR RJTT 232000Z 36015KT 9999 -RA FEW008 SCT013 BKN020 14/12 Q1009 NOSIG,0,15,0,10000,0,0,0,-RA
2026-04-23 19:30:00,METAR RJTT 231930Z 36016KT 9999 -RA FEW008 BKN013 14/12 Q1009 NOSIG,0,16,0,10000,0,0,0,-RA
2026-04-23 19:00:00,METAR RJTT 231900Z 36014KT 9999 -RA FEW008 BKN013 14/12 Q1009 NOSIG,0,14,0,10000,0,0,0,-RA
2026-04-23 18:30:00,METAR RJTT 231830Z 01016KT 9999 FEW008 BKN011 14/12 Q1008 TEMPO FEW005 BKN008,0,16,0,10000,0,0,0,
2026-04-23 18:00:00,METAR RJTT 231800Z 01018KT 9999 -RA FEW008 BKN011 14/12 Q1007 TEMPO FEW005 BKN008,0,18,0,10000,0,0,0,-RA
2026-04-23 17:30:00,METAR RJTT 231730Z 36016KT 9999 -RA FEW008 BKN011 14/12 Q1008 TEMPO FEW005 BKN008,0,16,0,10000,0,0,0,-RA
2026-04-23 17:00:00,METAR RJTT 231700Z 01016KT 9999 -RA FEW008 BKN011 14/12 Q1008 NOSIG,0,16,0,10000,0,0,0,-RA
2026-04-23 16:30:00,METAR RJTT 231630Z 01016KT 9999 -RA FEW008 BKN011 14/12 Q1008 NOSIG,0,16,0,10000,0,0,0,-RA
2026-04-23 16:00:00,METAR RJTT 231600Z 36018KT 9999 -RA FEW008 BKN011 14/13 Q1008 NOSIG,0,18,0,10000,0,0,0,-RA
2026-04-23 15:30:00,METAR RJTT 231530Z 36017KT 9999 -RA FEW008 SCT010 BKN015 14/13 Q1008 TEMPO FEW008 BKN012,0,17,0,10000,0,0,0,-RA
2026-04-23 15:00:00,METAR RJTT 231500Z 02019KT 9999 -RA FEW008 SCT013 BKN035 14/12 Q1009 TEMPO FEW008 BKN012,0,19,0,10000,0,0,0,-RA
2026-04-23 14:30:00,METAR RJTT 231430Z 36018KT 9999 -RA FEW007 SCT010 BKN020 14/13 Q1009 TEMPO FEW008 BKN012,0,18,0,10000,0,0,0,-RA
2026-04-23 14:00:00,METAR RJTT 231400Z 36018KT 8000 RA FEW007 SCT012 BKN060 14/13 Q1009 TEMPO TL1500 4000 RA BR FEW008 BKN012,0,18,0,8000,0,0,1,"BR,RA"
2026-04-23 13:30:00,METAR RJTT 231330Z 35016KT 6000 RA FEW007 SCT012 BKN050 14/13 Q1010 TEMPO 4000 RA BR FEW006 BKN012,0,16,0,6000,0,0,1,"BR,RA"
2026-04-23 13:00:00,METAR RJTT 231300Z 34017KT 7000 RA FEW007 BKN012 BKN025 14/13 Q1010 TEMPO 4000 RA BR,0,17,0,7000,0,0,1,"BR,RA"
2026-04-23 12:30:00,METAR RJTT 231230Z 36017KT 7000 RA FEW007 SCT012 BKN025 14/13 Q1009 TEMPO 4000 RA BR FEW006 BKN012,0,17,0,7000,0,0,1,"BR,RA"
2026-04-23 12:00:00,METAR RJTT 231200Z 35014KT 8000 -RA FEW007 BKN012 BKN018 14/13 Q1009 TEMPO 4000 RA BR,0,14,0,8000,0,0,1,"-RA,BR,RA"
2026-04-23 11:30:00,METAR RJTT 231130Z 36015KT 9000 -RA FEW007 SCT010 BKN020 14/13 Q1009 NOSIG,0,15,0,9000,0,0,0,-RA
2026-04-23 11:00:00,METAR RJTT 231100Z 36015KT 9999 -RA FEW007 SCT010 BKN025 14/13 Q1009 NOSIG,0,15,0,10000,0,0,0,-RA
2026-04-23 10:30:00,METAR RJTT 231030Z 01012KT 9999 -RA FEW007 SCT010 BKN025 14/13 Q1009 TEMPO 4000 RA BR FEW006 BKN008,0,12,0,10000,0,0,1,"-RA,BR,RA"
2026-04-23 10:00:00,METAR RJTT 231000Z 01012KT 7000 RA FEW008 SCT011 BKN030 15/13 Q1009 TEMPO 4000 RA BR FEW006 BKN008,0,12,0,7000,0,0,1,"BR,RA"
2026-04-23 09:30:00,METAR RJTT 230930Z 01009KT 7000 -RA FEW008 BKN020 BKN030 15/13 Q1010 TEMPO 4000 RA BR FEW006 BKN008,0,9,0,7000,0,0,1,"-RA,BR,RA"
2026-04-23 09:00:00,METAR RJTT 230900Z 36010KT 7000 -RA FEW008 SCT010 BKN025 15/13 Q1010 TEMPO 4000 RA BR FEW006 BKN008,0,10,0,7000,0,0,1,"-RA,BR,RA"
2026-04-23 08:30:00,METAR RJTT 230830Z 35007KT 330V030 8000 -RA FEW008 SCT010 BKN030 15/14 Q1009 TEMPO 4000 RA BR FEW006 BKN008,0,7,0,8000,0,0,1,"-RA,BR,RA"
2026-04-23 08:00:00,METAR RJTT 230800Z 08004KT 7000 -RA FEW008 SCT010 BKN025 15/13 Q1009 TEMPO 4000 -RA BR FEW006 BKN008 BECMG 05008KT,0,4,0,7000,0,0,1,"-RA,BR"
2026-04-23 07:30:00,METAR RJTT 230730Z 02007KT 7000 -SHRA FEW008 SCT010 BKN050 16/14 Q1009 NOSIG,0,7,0,7000,0,0,0,RA
2026-04-23 07:00:00,METAR RJTT 230700Z 36009KT 8000 -SHRA FEW008 SCT010 BKN050 16/14 Q1009 NOSIG,0,9,0,8000,0,0,0,RA
2026-04-23 06:30:00,METAR RJTT 230630Z 01005KT 9000 -RA FEW012 SCT030 OVC090 16/14 Q1009 NOSIG,0,5,0,9000,0,0,0,-RA
2026-04-23 06:00:00,METAR RJTT 230600Z 01005KT 9999 -RA FEW020 SCT060 OVC090 16/14 Q1009 NOSIG,0,5,0,10000,0,0,0,-RA
2026-04-23 05:30:00,METAR RJTT 230530Z 01006KT 9999 -RA FEW020 SCT060 OVC090 16/13 Q1009 NOSIG,0,6,0,10000,0,0,0,-RA
2026-04-23 05:00:00,METAR RJTT 230500Z 03006KT 9999 -RA FEW020 SCT025 OVC090 17/14 Q1010 NOSIG,0,6,0,10000,0,0,0,-RA
2026-04-23 04:30:00,METAR RJTT 230430Z 01006KT 9999 -RA FEW020 OVC090 17/14 Q1010 NOSIG,0,6,0,10000,0,0,0,-RA
2026-04-23 04:00:00,METAR RJTT 230400Z 01009KT 9999 -RA FEW030 OVC090 17/14 Q1010 NOSIG,0,9,0,10000,0,0,0,-RA
2026-04-23 03:30:00,METAR RJTT 230330Z 01007KT 9999 -RA FEW030 OVC080 17/14 Q1010 NOSIG,0,7,0,10000,0,0,0,-RA
2026-04-23 03:00:00,METAR RJTT 230300Z 36004KT 9999 -RA FEW030 OVC080 18/13 Q1011 NOSIG,0,4,0,10000,0,0,0,-RA
2026-04-23 02:30:00,METAR RJTT 230230Z 01005KT 9999 -RA FEW030 OVC090 18/11 Q1011 NOSIG,0,5,0,10000,0,0,0,-RA
2026-04-23 02:00:00,METAR RJTT 230200Z 35004KT 9999 -RA FEW025 SCT045 OVC100 18/11 Q1011 NOSIG,0,4,0,10000,0,0,0,-RA
2026-04-23 01:30:00,METAR RJTT 230130Z 34005KT 9999 -RA FEW030 SCT050 OVC100 18/10 Q1011 NOSIG,0,5,0,10000,0,0,0,-RA
2026-04-23 01:00:00,METAR RJTT 230100Z 34007KT 9999 FEW030 SCT045 OVC120 18/09 Q1011 NOSIG,0,7,0,10000,0,0,0,
2026-04-23 00:30:00,METAR RJTT 230030Z 34006KT 9999 FEW030 OVC130 18/09 Q1011 NOSIG,0,6,0,10000,0,0,0,
2026-04-23 00:00:00,METAR RJTT 230000Z 34006KT 9999 FEW030 OVC130 18/09 Q1012 NOSIG,0,6,0,10000,0,0,0,
2026-04-22 23:30:00,METAR RJTT 222330Z 35005KT 9999 FEW030 OVC130 18/09 Q1011 NOSIG,0,5,0,10000,0,0,0,
2026-04-22 23:00:00,METAR RJTT 222300Z 35005KT 9999 FEW060 SCT120 OVC140 18/09 Q1011 NOSIG,0,5,0,10000,0,0,0,
2026-04-22 22:30:00,METAR RJTT 222230Z 01005KT 9999 FEW060 OVC120 17/10 Q1011 NOSIG,0,5,0,10000,0,0,0,
2026-04-22 22:00:00,METAR RJTT 222200Z 01005KT 9999 FEW060 BKN120 17/09 Q1011 NOSIG,0,5,0,10000,0,0,0,
2026-04-22 21:30:00,METAR RJTT 222130Z 01005KT 9999 FEW060 BKN120 17/09 Q1011 NOSIG,0,5,0,10000,0,0,0,
2026-04-22 21:00:00,METAR RJTT 222100Z 03006KT CAVOK 17/09 Q1011 NOSIG,1,0,0,9999,0,0,0,
2026-04-22 20:30:00,METAR RJTT 222030Z 03006KT CAVOK 17/10 Q1011 NOSIG,1,0,0,9999,0,0,0,
2026-04-22 20:00:00,METAR RJTT 222000Z 01006KT CAVOK 17/10 Q1011 NOSIG,1,0,0,9999,0,0,0,
2026-04-22 19:30:00,METAR RJTT 221930Z 01008KT CAVOK 17/11 Q1011 NOSIG,1,0,0,9999,0,0,0,
2026-04-22 19:00:00,METAR RJTT 221900Z 01007KT CAVOK 17/12 Q1011 NOSIG,1,0,0,9999,0,0,0,
2026-04-22 18:30:00,METAR RJTT 221830Z 34006KT CAVOK 17/11 Q1011 NOSIG,1,0,0,9999,0,0,0,
2026-04-22 18:00:00,METAR RJTT 221800Z 34008KT CAVOK 17/11 Q1011 NOSIG,1,0,0,9999,0,0,0,
2026-04-22 17:30:00,METAR RJTT 221730Z 34007KT CAVOK 17/12 Q1011 NOSIG,1,0,0,9999,0,0,0,
2026-04-22 17:00:00,METAR RJTT 221700Z 31007KT CAVOK 18/12 Q1011 NOSIG,1,0,0,9999,0,0,0,
2026-04-22 16:30:00,METAR RJTT 221630Z 30009KT CAVOK 18/12 Q1011 NOSIG,1,0,0,9999,0,0,0,
2026-04-22 16:00:00,METAR RJTT 221600Z 29007KT CAVOK 19/11 Q1011 NOSIG,1,0,0,9999,0,0,0,
2026-04-22 15:30:00,METAR RJTT 221530Z 27008KT CAVOK 19/11 Q1011 NOSIG,1,0,0,9999,0,0,0,
2026-04-22 15:00:00,METAR RJTT 221500Z 24008KT CAVOK 19/11 Q1012 BECMG TL1600 26006KT,1,0,0,9999,0,0,0,
2026-04-22 14:30:00,METAR RJTT 221430Z 22008KT CAVOK 19/12 Q1012 BECMG FM1530 26006KT,1,0,0,9999,0,0,0,
2026-04-22 14:00:00,METAR RJTT 221400Z 21007KT CAVOK 19/13 Q1011 NOSIG,1,0,0,9999,0,0,0,
2026-04-22 13:30:00,METAR RJTT 221330Z 18008KT CAVOK 19/13 Q1011 NOSIG,1,0,0,9999,0,0,0,
2026-04-22 13:00:00,METAR RJTT 221300Z 19011KT CAVOK 19/14 Q1012 NOSIG,1,0,0,9999,0,0,0,
2026-04-22 12:30:00,METAR RJTT 221230Z 19007KT CAVOK 20/13 Q1012 NOSIG,1,0,0,9999,0,0,0,
2026-04-22 12:00:00,METAR RJTT 221200Z 19008KT CAVOK 19/13 Q1012 NOSIG,1,0,0,9999,0,0,0,
2026-04-22 11:30:00,METAR RJTT 221130Z 19012KT CAVOK 20/14 Q1013 NOSIG,1,0,0,9999,0,0,0,
2026-04-22 11:00:00,METAR RJTT 221100Z 20012KT CAVOK 19/13 Q1013 NOSIG,1,0,0,9999,0,0,0,
2026-04-22 10:30:00,METAR RJTT 221030Z 20012KT CAVOK 19/13 Q1012 NOSIG,1,0,0,9999,0,0,0,
2026-04-22 10:00:00,METAR RJTT 221000Z 19012KT CAVOK 20/13 Q1012 NOSIG,1,0,0,9999,0,0,0,
2026-04-22 09:30:00,METAR RJTT 220930Z 18013KT CAVOK 19/13 Q1012 NOSIG,1,0,0,9999,0,0,0,
2026-04-22 09:00:00,METAR RJTT 220900Z 18014KT 9999 FEW030 BKN150 19/13 Q1012 NOSIG,0,14,0,10000,0,0,0,
2026-04-22 08:30:00,METAR RJTT 220830Z 19016KT 9999 FEW020 BKN150 20/13 Q1012 NOSIG,0,16,0,10000,0,0,0,
2026-04-22 08:00:00,METAR RJTT 220800Z 19016KT 9999 FEW020 BKN170 20/13 Q1012 NOSIG,0,16,0,10000,0,0,0,
2026-04-22 07:30:00,METAR RJTT 220730Z 19017KT 9999 FEW030 BKN160 20/12 Q1012 NOSIG,0,17,0,10000,0,0,0,
2026-04-22 07:00:00,METAR RJTT 220700Z 19022KT 9999 FEW030 BKN160 20/13 Q1012 NOSIG,0,22,0,10000,0,0,0,
2026-04-22 06:30:00,METAR RJTT 220630Z 18018KT 9999 FEW030 BKN160 20/12 Q1012 NOSIG,0,18,0,10000,0,0,0,
2026-04-22 06:00:00,METAR RJTT 220600Z 19021KT 9999 FEW030 BKN160 BKN/// 20/11 Q1012 NOSIG,0,21,0,10000,0,0,0,
2026-04-22 05:30:00,METAR RJTT 220530Z 19021KT 9999 FEW030 SCT170 BKN/// 20/11 Q1012 NOSIG,0,21,0,10000,0,0,0,
2026-04-22 05:00:00,METAR RJTT 220500Z 19022KT 9999 FEW030 BKN/// 21/11 Q1013 NOSIG,0,22,0,10000,0,0,0,
2026-04-22 04:30:00,METAR RJTT 220430Z 19021KT 9999 FEW030 BKN/// 21/10 Q1013 NOSIG,0,21,0,10000,0,0,0,
2026-04-22 04:00:00,METAR RJTT 220400Z 19022KT 9999 FEW030 BKN/// 22/10 Q1013 NOSIG,0,22,0,10000,0,0,0,
2026-04-22 03:30:00,METAR RJTT 220330Z 20021KT 9999 FEW030 BKN/// 22/10 Q1014 NOSIG,0,21,0,10000,0,0,0,
2026-04-22 03:00:00,METAR RJTT 220300Z 19017KT 9999 FEW030 BKN/// 22/09 Q1014 NOSIG,0,17,0,10000,0,0,0,
2026-04-22 02:30:00,METAR RJTT 220230Z 20019KT 9999 FEW030 BKN/// 22/09 Q1015 NOSIG,0,19,0,10000,0,0,0,
2026-04-22 02:00:00,METAR RJTT 220200Z 19017KT 9999 FEW030 BKN/// 22/08 Q1015 NOSIG,0,17,0,10000,0,0,0,
2026-04-22 01:30:00,METAR RJTT 220130Z 19015KT 9999 FEW030 BKN/// 22/09 Q1016 NOSIG,0,15,0,10000,0,0,0,
2026-04-22 01:00:00,METAR RJTT 220100Z 19012KT 9999 FEW030 BKN/// 22/10 Q1016 NOSIG,0,12,0,10000,0,0,0,
2026-04-22 00:30:00,METAR RJTT 220030Z 18011KT 140V210 9999 FEW030 BKN/// 21/09 Q1016 NOSIG,0,11,0,10000,0,0,0,
2026-04-22 00:00:00,METAR RJTT 220000Z 19009KT 9999 FEW030 BKN/// 20/08 Q1017 NOSIG,0,9,0,10000,0,0,0,
2026-04-21 23:30:00,METAR RJTT 212330Z 15006KT 110V190 9999 FEW030 BKN/// 19/08 Q1017 NOSIG,0,6,0,10000,0,0,0,
2026-04-21 23:00:00,METAR RJTT 212300Z VRB02KT CAVOK 18/06 Q1017 BECMG TL0000 18008KT,1,0,0,9999,0,0,0,
2026-04-21 22:30:00,METAR RJTT 212230Z VRB02KT CAVOK 18/02 Q1017 BECMG TL0000 18008KT,1,0,0,9999,0,0,0,
2026-04-21 22:00:00,METAR RJTT 212200Z 18003KT 090V250 CAVOK 17/01 Q1017 NOSIG,1,0,0,9999,0,0,0,
2026-04-21 21:30:00,METAR RJTT 212130Z 13002KT CAVOK 17/04 Q1017 NOSIG,1,0,0,9999,0,0,0,
2026-04-21 21:00:00,METAR RJTT 212100Z 16003KT CAVOK 16/04 Q1017 NOSIG,1,0,0,9999,0,0,0,
2026-04-21 20:30:00,METAR RJTT 212030Z 16003KT CAVOK 15/03 Q1016 NOSIG,1,0,0,9999,0,0,0,
2026-04-21 20:00:00,METAR RJTT 212000Z 16003KT CAVOK 15/M02 Q1016 NOSIG,1,0,0,9999,0,0,0,
2026-04-21 19:30:00,METAR RJTT 211930Z 19003KT 150V290 CAVOK 15/M03 Q1016 NOSIG,1,0,0,9999,0,0,0,
2026-04-21 19:00:00,METAR RJTT 211900Z 15002KT CAVOK 15/M02 Q1016 NOSIG,1,0,0,9999,0,0,0,
2026-04-21 18:30:00,METAR RJTT 211830Z 19006KT CAVOK 15/M02 Q1016 NOSIG,1,0,0,9999,0,0,0,
2026-04-21 18:00:00,METAR RJTT 211800Z 19005KT CAVOK 14/02 Q1016 NOSIG,1,0,0,9999,0,0,0,
2026-04-21 17:30:00,METAR RJTT 211730Z 20004KT CAVOK 15/08 Q1016 NOSIG,1,0,0,9999,0,0,0,
2026-04-21 17:00:00,METAR RJTT 211700Z 11003KT 050V150 CAVOK 15/09 Q1016 NOSIG,1,0,0,9999,0,0,0,
2026-04-21 16:30:00,METAR RJTT 211630Z 12004KT 090V150 CAVOK 16/10 Q1016 NOSIG,1,0,0,9999,0,0,0,
2026-04-21 16:00:00,METAR RJTT 211600Z 10005KT CAVOK 16/10 Q1016 NOSIG,1,0,0,9999,0,0,0,
2026-04-21 15:30:00,METAR RJTT 211530Z 09004KT CAVOK 16/10 Q1016 NOSIG,1,0,0,9999,0,0,0,
2026-04-21 15:00:00,METAR RJTT 211500Z 09005KT CAVOK 17/10 Q1016 NOSIG,1,0,0,9999,0,0,0,
2026-04-21 14:30:00,METAR RJTT 211430Z 08010KT CAVOK 17/10 Q1016 BECMG TL1600 05008KT,1,0,0,9999,0,0,0,
2026-04-21 14:00:00,METAR RJTT 211400Z 08012KT CAVOK 17/12 Q1016 BECMG TL1500 03008KT,1,0,0,9999,0,0,0,
2026-04-21 13:30:00,METAR RJTT 211330Z 08010KT CAVOK 17/12 Q1016 BECMG TL1500 03008KT,1,0,0,9999,0,0,0,
2026-04-21 13:00:00,METAR RJTT 211300Z 08009KT CAVOK 17/12 Q1015 BECMG 03008KT,1,0,0,9999,0,0,0,
2026-04-21 12:30:00,METAR RJTT 211230Z 08011KT CAVOK 17/12 Q1015 BECMG TL1400 05010KT,1,0,0,9999,0,0,0,
2026-04-21 12:00:00,METAR RJTT 211200Z 09008KT CAVOK 17/12 Q1014 BECMG TL1300 05010KT,1,0,0,9999,0,0,0,
2026-04-21 11:30:00,METAR RJTT 211130Z 09007KT CAVOK 18/04 Q1014 BECMG TL1300 05010KT,1,0,0,9999,0,0,0,
2026-04-21 11:00:00,METAR RJTT 211100Z 09011KT CAVOK 18/12 Q1013 BECMG 05010KT,1,0,0,9999,0,0,0,
2026-04-21 10:30:00,METAR RJTT 211030Z 09011KT CAVOK 20/11 Q1013 BECMG TL1200 05010KT,1,0,0,9999,0,0,0,
2026-04-21 10:00:00,METAR RJTT 211000Z 35015KT CAVOK 21/03 Q1012 NOSIG,1,0,0,9999,0,0,0,
2026-04-21 09:30:00,METAR RJTT 210930Z 35015KT 9999 FEW030 BKN/// 21/03 Q1011 NOSIG,0,15,0,10000,0,0,0,
2026-04-21 09:00:00,METAR RJTT 210900Z 02011KT 9999 FEW030 BKN/// 22/04 Q1010 NOSIG,0,11,0,10000,0,0,0,
2026-04-21 08:30:00,METAR RJTT 210830Z 35010KT 9999 FEW030 BKN/// 23/M01 Q1009 NOSIG,0,10,0,10000,0,0,0,
2026-04-21 08:00:00,METAR RJTT 210800Z 11004KT 9999 FEW030 BKN/// 21/11 Q1009 BECMG TL0930 02012KT,0,4,0,10000,0,0,0,
2026-04-21 07:30:00,METAR RJTT 210730Z 12006KT 9999 FEW030 BKN/// 21/13 Q1008 NOSIG,0,6,0,10000,0,0,0,
2026-04-21 07:00:00,METAR RJTT 210700Z 12005KT 9999 FEW030 BKN/// 22/08 Q1008 NOSIG,0,5,0,10000,0,0,0,
2026-04-21 06:30:00,METAR RJTT 210630Z 07003KT 040V110 9999 FEW030 BKN/// 23/10 Q1008 NOSIG,0,3,0,10000,0,0,0,
2026-04-21 06:00:00,METAR RJTT 210600Z 36005KT 9999 FEW030 BKN/// 23/07 Q1007 NOSIG,0,5,0,10000,0,0,0,
2026-04-21 05:30:00,METAR RJTT 210530Z 34009KT 9999 FEW030 BKN/// 23/09 Q1007 NOSIG,0,9,0,10000,0,0,0,
2026-04-21 05:00:00,METAR RJTT 210500Z 34012KT 9999 FEW030 BKN/// 23/07 Q1007 NOSIG,0,12,0,10000,0,0,0,
2026-04-21 04:30:00,METAR RJTT 210430Z 34010KT 9999 FEW030 BKN/// 22/08 Q1007 BECMG FM0530 08006KT,0,10,0,10000,0,0,0,
2026-04-21 04:00:00,METAR RJTT 210400Z 35014KT 9999 FEW020 BKN/// 23/09 Q1007 BECMG FM0530 08006KT,0,14,0,10000,0,0,0,
2026-04-21 03:30:00,METAR RJTT 210330Z 35012KT 9999 FEW020 BKN/// 22/11 Q1007 NOSIG,0,12,0,10000,0,0,0,
2026-04-21 03:00:00,METAR RJTT 210300Z 35008KT 9999 FEW020 BKN/// 21/11 Q1007 NOSIG,0,8,0,10000,0,0,0,
2026-04-21 02:30:00,METAR RJTT 210230Z 34013KT 9999 FEW020 BKN/// 21/11 Q1007 NOSIG,0,13,0,10000,0,0,0,
2026-04-21 02:00:00,METAR RJTT 210200Z 34011KT 9999 -SHRA FEW015 BKN040 BKN050 20/11 Q1007 NOSIG,0,11,0,10000,0,0,0,RA
2026-04-21 01:30:00,METAR RJTT 210130Z 33017KT 9999 FEW015 BKN030 19/11 Q1007 NOSIG,0,17,0,10000,0,0,0,
2026-04-21 01:00:00,METAR RJTT 210100Z 31016KT 240V350 9999 -SHRA FEW015 BKN025 19/13 Q1007 NOSIG,0,16,0,10000,0,0,0,RA
2026-04-21 00:30:00,METAR RJTT 210030Z 23015KT 9999 FEW020 BKN025 23/16 Q1006 BECMG TL0130 33012KT TEMPO FEW008 BKN012,0,15,0,10000,0,0,0,
2026-04-21 00:00:00,METAR RJTT 210000Z 20015KT 9999 SCT015 BKN020 BKN/// 21/17 Q1006 NOSIG,0,15,0,10000,0,0,0,
2026-04-20 23:30:00,METAR RJTT 202330Z 19016KT 9999 FEW010 SCT013 BKN/// 21/17 Q1006 NOSIG,0,16,0,10000,0,0,0,
2026-04-20 23:00:00,METAR RJTT 202300Z 19016KT 9999 -SHRA FEW007 BKN012 BKN/// 20/17 Q1006 NOSIG,0,16,0,10000,0,0,0,RA
2026-04-20 22:30:00,METAR RJTT 202230Z 20016KT 9999 -SHRA FEW007 BKN012 19/17 Q1006 NOSIG,0,16,0,10000,0,0,0,RA
2026-04-20 22:00:00,METAR RJTT 202200Z 19016KT 9999 -SHRA FEW010 BKN020 19/17 Q1006 NOSIG,0,16,0,10000,0,0,0,RA
2026-04-20 21:30:00,METAR RJTT 202130Z 18012KT 9999 FEW015 BKN150 19/16 Q1007 NOSIG,0,12,0,10000,0,0,0,
2026-04-20 21:00:00,METAR RJTT 202100Z 19015KT 9999 FEW015 BKN/// 19/16 Q1007 NOSIG,0,15,0,10000,0,0,0,
2026-04-20 20:30:00,METAR RJTT 202030Z 16009KT 9999 FEW013 BKN018 18/16 Q1008 NOSIG,0,9,0,10000,0,0,0,
2026-04-20 20:00:00,METAR RJTT 202000Z 18010KT 9999 FEW015 SCT180 18/16 Q1008 NOSIG,0,10,0,10000,0,0,0,
2026-04-20 19:30:00,METAR RJTT 201930Z 20012KT 9999 FEW018 BKN180 18/15 Q1009 NOSIG,0,12,0,10000,0,0,0,
2026-04-20 19:00:00,METAR RJTT 201900Z 20010KT 9999 FEW010 SCT100 BKN180 18/15 Q1009 NOSIG,0,10,0,10000,0,0,0,
2026-04-20 18:30:00,METAR RJTT 201830Z 19014KT 9999 FEW010 SCT030 BKN200 18/15 Q1009 NOSIG,0,14,0,10000,0,0,0,
2026-04-20 18:00:00,METAR RJTT 201800Z 18011KT 9999 FEW010 17/15 Q1009 NOSIG,0,11,0,10000,0,0,0,
2026-04-20 17:30:00,METAR RJTT 201730Z 19010KT 9999 FEW010 17/16 Q1010 NOSIG,0,10,0,10000,0,0,0,
2026-04-20 17:00:00,METAR RJTT 201700Z 18011KT 9999 FEW008 SCT013 BKN060 17/16 Q1011 NOSIG,0,11,0,10000,0,0,0,
2026-04-20 16:30:00,METAR RJTT 201630Z 19010KT 5000 -SHRA BR FEW007 BKN015 16/15 Q1011 NOSIG,0,10,0,5000,0,0,1,"BR,RA"
2026-04-20 16:00:00,METAR RJTT 201600Z 20011KT 8000 -SHRA FEW010 BKN025 BKN040 16/15 Q1012 NOSIG,0,11,0,8000,0,0,0,RA
2026-04-20 15:30:00,METAR RJTT 201530Z 20016KT 9999 -SHRA FEW015 SCT030 BKN050 18/14 Q1012 NOSIG,0,16,0,10000,0,0,0,RA
2026-04-20 15:00:00,METAR RJTT 201500Z 17010KT 140V200 9999 FEW030 BKN045 18/13 Q1012 NOSIG,0,10,0,10000,0,0,0,
2026-04-20 14:30:00,METAR RJTT 201430Z 15009KT 110V180 9999 FEW025 SCT050 17/13 Q1013 NOSIG,0,9,0,10000,0,0,0,
2026-04-20 14:00:00,METAR RJTT 201400Z 15007KT 110V180 9999 FEW025 16/13 Q1013 NOSIG,0,7,0,10000,0,0,0,
2026-04-20 13:30:00,METAR RJTT 201330Z 13007KT 110V190 9999 FEW025 16/13 Q1013 NOSIG,0,7,0,10000,0,0,0,
2026-04-20 13:00:00,METAR RJTT 201300Z 13006KT 110V170 9999 FEW030 SCT/// 17/13 Q1014 NOSIG,0,6,0,10000,0,0,0,
2026-04-20 12:30:00,METAR RJTT 201230Z 14007KT 9999 FEW030 17/13 Q1014 NOSIG,0,7,0,10000,0,0,0,
2026-04-20 12:00:00,METAR RJTT 201200Z 14007KT 9999 FEW030 17/12 Q1014 NOSIG,0,7,0,10000,0,0,0,
2026-04-20 11:30:00,METAR RJTT 201130Z 14006KT 9999 FEW030 17/12 Q1015 NOSIG,0,6,0,10000,0,0,0,
2026-04-20 11:00:00,METAR RJTT 201100Z 15009KT 9999 SCT050 18/11 Q1015 NOSIG,0,9,0,10000,0,0,0,
2026-04-20 10:30:00,METAR RJTT 201030Z 15012KT 9999 SCT045 18/11 Q1015 NOSIG,0,12,0,10000,0,0,0,
2026-04-20 10:00:00,METAR RJTT 201000Z 15012KT 9999 FEW030 SCT045 18/12 Q1014 NOSIG,0,12,0,10000,0,0,0,
2026-04-20 09:30:00,METAR RJTT 200930Z 14012KT 9999 FEW030 BKN045 19/13 Q1014 NOSIG,0,12,0,10000,0,0,0,
2026-04-20 09:00:00,METAR RJTT 200900Z 17010KT 9999 FEW030 20/12 Q1014 NOSIG,0,10,0,10000,0,0,0,
2026-04-20 08:30:00,METAR RJTT 200830Z 19007KT 9999 FEW030 20/10 Q1014 NOSIG,0,7,0,10000,0,0,0,
2026-04-20 08:00:00,METAR RJTT 200800Z 15006KT 9999 FEW030 21/13 Q1014 NOSIG,0,6,0,10000,0,0,0,
2026-04-20 07:30:00,METAR RJTT 200730Z 17011KT 9999 FEW030 22/11 Q1014 NOSIG,0,11,0,10000,0,0,0,
2026-04-20 07:00:00,METAR RJTT 200700Z 18012KT 9999 FEW030 SCT/// 22/13 Q1013 NOSIG,0,12,0,10000,0,0,0,
2026-04-20 06:30:00,METAR RJTT 200630Z 15012KT 080V210 9999 FEW030 SCT060 22/13 Q1013 NOSIG,0,12,0,10000,0,0,0,
2026-04-20 06:00:00,METAR RJTT 200600Z 09012KT 9999 FEW030 SCT060 21/14 Q1014 NOSIG,0,12,0,10000,0,0,0,
2026-04-20 05:30:00,METAR RJTT 200530Z 07008KT 9999 FEW030 SCT060 22/15 Q1014 BECMG TL0700 16010KT,0,8,0,10000,0,0,0,
2026-04-20 05:00:00,METAR RJTT 200500Z 07008KT 9999 FEW030 22/14 Q1015 BECMG 16010KT,0,8,0,10000,0,0,0,
2026-04-20 04:30:00,METAR RJTT 200430Z 06007KT 9999 FEW030 22/14 Q1015 BECMG 10006KT,0,7,0,10000,0,0,0,
2026-04-20 04:00:00,METAR RJTT 200400Z 06006KT 9999 FEW030 22/14 Q1015 BECMG 10006KT,0,6,0,10000,0,0,0,
2026-04-20 03:30:00,METAR RJTT 200330Z 05006KT 9999 FEW030 SCT/// 22/14 Q1016 BECMG 10006KT,0,6,0,10000,0,0,0,
2026-04-20 03:00:00,METAR RJTT 200300Z 06006KT 9999 FEW030 SCT/// 22/13 Q1016 BECMG 10006KT,0,6,0,10000,0,0,0,
2026-04-20 02:30:00,METAR RJTT 200230Z 04005KT 9999 FEW030 BKN/// 21/13 Q1016 BECMG 08005KT,0,5,0,10000,0,0,0,
2026-04-20 02:00:00,METAR RJTT 200200Z 03004KT 9999 FEW030 BKN/// 21/12 Q1017 BECMG 08005KT,0,4,0,10000,0,0,0,
2026-04-20 01:30:00,METAR RJTT 200130Z 03004KT 9999 FEW030 BKN/// 20/12 Q1017 BECMG 08005KT,0,4,0,10000,0,0,0,
2026-04-20 01:00:00,METAR RJTT 200100Z 04003KT 9999 FEW030 BKN/// 20/13 Q1017 BECMG 08005KT,0,3,0,10000,0,0,0,
2026-04-20 00:30:00,METAR RJTT 200030Z 06003KT 9999 FEW030 SCT/// 19/13 Q1017 BECMG 08005KT,0,3,0,10000,0,0,0,
2026-04-20 00:00:00,METAR RJTT 200000Z 04004KT 9999 FEW030 BKN/// 18/13 Q1017 BECMG 08005KT,0,4,0,10000,0,0,0,
2026-04-19 23:30:00,METAR RJTT 192330Z 04005KT 9999 FEW030 BKN/// 18/13 Q1017 BECMG 08005KT,0,5,0,10000,0,0,0,
2026-04-19 23:00:00,METAR RJTT 192300Z 03006KT 9999 FEW030 BKN/// 18/13 Q1017 BECMG 08005KT,0,6,0,10000,0,0,0,
2026-04-19 22:30:00,METAR RJTT 192230Z 03005KT 9999 FEW030 SCT040 17/12 Q1017 NOSIG,0,5,0,10000,0,0,0,
2026-04-19 22:00:00,METAR RJTT 192200Z 02006KT 9999 FEW030 SCT/// 17/12 Q1017 NOSIG,0,6,0,10000,0,0,0,
2026-04-19 21:30:00,METAR RJTT 192130Z 01006KT 9999 FEW030 SCT040 BKN/// 16/11 Q1017 NOSIG,0,6,0,10000,0,0,0,
2026-04-19 21:00:00,METAR RJTT 192100Z 01005KT 9999 FEW030 BKN/// 16/12 Q1016 NOSIG,0,5,0,10000,0,0,0,
2026-04-19 20:30:00,METAR RJTT 192030Z 04006KT 9999 FEW030 BKN/// 16/12 Q1016 NOSIG,0,6,0,10000,0,0,0,
2026-04-19 20:00:00,METAR RJTT 192000Z 03007KT 9999 FEW020 BKN/// 16/11 Q1016 NOSIG,0,7,0,10000,0,0,0,
2026-04-19 19:30:00,METAR RJTT 191930Z 04006KT 9999 FEW020 BKN/// 16/12 Q1016 NOSIG,0,6,0,10000,0,0,0,
2026-04-19 19:00:00,METAR RJTT 191900Z 06006KT 9999 FEW020 BKN/// 16/13 Q1016 BECMG TL1930 05006KT,0,6,0,10000,0,0,0,
2026-04-19 18:30:00,METAR RJTT 191830Z 05006KT 9999 FEW020 BKN/// 16/12 Q1016 NOSIG,0,6,0,10000,0,0,0,
2026-04-19 18:00:00,METAR RJTT 191800Z 05010KT 9999 FEW020 BKN/// 17/13 Q1016 NOSIG,0,10,0,10000,0,0,0,
2026-04-19 17:30:00,METAR RJTT 191730Z 05008KT 9999 FEW020 BKN/// 17/13 Q1016 NOSIG,0,8,0,10000,0,0,0,
2026-04-19 17:00:00,METAR RJTT 191700Z 05006KT 9999 FEW020 BKN/// 17/13 Q1016 NOSIG,0,6,0,10000,0,0,0,
2026-04-19 16:30:00,METAR RJTT 191630Z 07008KT 9999 FEW020 BKN/// 17/12 Q1016 BECMG 05005KT,0,8,0,10000,0,0,0,
2026-04-19 16:00:00,METAR RJTT 191600Z 07008KT 9999 FEW020 BKN/// 17/13 Q1016 BECMG 05005KT,0,8,0,10000,0,0,0,
2026-04-19 15:30:00,METAR RJTT 191530Z 06007KT 9999 FEW020 BKN/// 17/12 Q1016 BECMG 05005KT,0,7,0,10000,0,0,0,
2026-04-19 15:00:00,METAR RJTT 191500Z 06007KT 9999 FEW020 BKN/// 17/12 Q1017 BECMG 05005KT,0,7,0,10000,0,0,0,
2026-04-19 14:30:00,METAR RJTT 191430Z 06007KT 9999 FEW020 BKN/// 17/13 Q1017 BECMG 05005KT,0,7,0,10000,0,0,0,
2026-04-19 14:00:00,METAR RJTT 191400Z 07007KT 9999 FEW020 BKN/// 17/14 Q1016 BECMG 05005KT,0,7,0,10000,0,0,0,
2026-04-19 13:30:00,METAR RJTT 191330Z 07008KT 9999 FEW020 BKN/// 17/15 Q1016 BECMG 05005KT,0,8,0,10000,0,0,0,
2026-04-19 13:00:00,METAR RJTT 191300Z 06005KT 9999 FEW020 BKN/// 17/15 Q1016 NOSIG,0,5,0,10000,0,0,0,
2026-04-19 12:30:00,METAR RJTT 191230Z 08003KT 9999 FEW030 BKN/// 17/15 Q1016 NOSIG,0,3,0,10000,0,0,0,
2026-04-19 12:00:00,METAR RJTT 191200Z 12003KT 9999 FEW030 BKN/// 17/15 Q1016 NOSIG,0,3,0,10000,0,0,0,
2026-04-19 11:30:00,METAR RJTT 191130Z 11005KT 9999 FEW030 BKN/// 17/14 Q1016 NOSIG,0,5,0,10000,0,0,0,
2026-04-19 11:00:00,METAR RJTT 191100Z 12005KT 9999 FEW030 BKN/// 18/14 Q1016 NOSIG,0,5,0,10000,0,0,0,
2026-04-19 10:30:00,METAR RJTT 191030Z 12007KT 9999 FEW030 BKN/// 18/14 Q1016 NOSIG,0,7,0,10000,0,0,0,
2026-04-19 10:00:00,METAR RJTT 191000Z 11011KT 9999 FEW030 BKN/// 18/13 Q1015 NOSIG,0,11,0,10000,0,0,0,
2026-04-19 09:30:00,METAR RJTT 190930Z 11011KT 9999 FEW020 BKN/// 19/12 Q1014 NOSIG,0,11,0,10000,0,0,0,
2026-04-19 09:00:00,METAR RJTT 190900Z 12011KT 9999 FEW020 BKN/// 19/12 Q1014 NOSIG,0,11,0,10000,0,0,0,
2026-04-19 08:30:00,METAR RJTT 190830Z 13011KT 9999 FEW020 BKN/// 20/12 Q1014 NOSIG,0,11,0,10000,0,0,0,
2026-04-19 08:00:00,METAR RJTT 190800Z 12009KT 9999 FEW020 BKN/// 20/13 Q1014 NOSIG,0,9,0,10000,0,0,0,
2026-04-19 07:30:00,METAR RJTT 190730Z 12010KT 9999 FEW020 BKN/// 20/14 Q1014 NOSIG,0,10,0,10000,0,0,0,
2026-04-19 07:00:00,METAR RJTT 190700Z 11012KT 9999 FEW030 BKN/// 21/13 Q1013 NOSIG,0,12,0,10000,0,0,0,
2026-04-19 06:30:00,METAR RJTT 190630Z 11013KT 9999 FEW030 BKN/// 21/14 Q1013 NOSIG,0,13,0,10000,0,0,0,
2026-04-19 06:00:00,METAR RJTT 190600Z 12011KT 9999 FEW030 BKN/// 22/15 Q1013 NOSIG,0,11,0,10000,0,0,0,
2026-04-19 05:30:00,METAR RJTT 190530Z 12009KT 9999 FEW030 BKN/// 23/15 Q1013 NOSIG,0,9,0,10000,0,0,0,
2026-04-19 05:00:00,METAR RJTT 190500Z 11008KT 9999 FEW030 BKN/// 23/14 Q1013 NOSIG,0,8,0,10000,0,0,0,
2026-04-19 04:30:00,METAR RJTT 190430Z VRB02KT 9999 FEW030 BKN/// 23/14 Q1014 BECMG 13012KT,0,2,0,10000,0,0,0,
2026-04-19 04:00:00,METAR RJTT 190400Z 08003KT 9999 FEW030 SCT/// 23/12 Q1014 NOSIG,0,3,0,10000,0,0,0,
2026-04-19 03:30:00,METAR RJTT 190330Z 07003KT 040V100 9999 FEW030 BKN/// 22/13 Q1014 NOSIG,0,3,0,10000,0,0,0,
2026-04-19 03:00:00,METAR RJTT 190300Z 07003KT 9999 FEW030 BKN/// 21/13 Q1014 NOSIG,0,3,0,10000,0,0,0,
2026-04-19 02:30:00,METAR RJTT 190230Z 08004KT 9999 FEW030 BKN/// 21/13 Q1015 NOSIG,0,4,0,10000,0,0,0,
2026-04-19 02:00:00,METAR RJTT 190200Z 09004KT 9999 FEW030 BKN/// 20/14 Q1015 NOSIG,0,4,0,10000,0,0,0,
2026-04-19 01:30:00,METAR RJTT 190130Z 09004KT 9999 FEW030 BKN/// 19/16 Q1015 NOSIG,0,4,0,10000,0,0,0,
2026-04-19 01:00:00,METAR RJTT 190100Z 09005KT 9999 FEW030 BKN/// 19/15 Q1015 NOSIG,0,5,0,10000,0,0,0,
2026-04-19 00:30:00,METAR RJTT 190030Z 10006KT CAVOK 19/16 Q1015 NOSIG,1,0,0,9999,0,0,0,
2026-04-19 00:00:00,METAR RJTT 190000Z 09004KT CAVOK 18/15 Q1015 NOSIG,1,0,0,9999,0,0,0,
2026-04-18 23:30:00,METAR RJTT 182330Z 09004KT CAVOK 18/15 Q1015 NOSIG,1,0,0,9999,0,0,0,
2026-04-18 23:00:00,METAR RJTT 182300Z 10004KT 9999 FEW015 BKN/// 18/15 Q1015 NOSIG,0,4,0,10000,0,0,0,
2026-04-18 22:30:00,METAR RJTT 182230Z VRB02KT 9999 FEW020 17/15 Q1015 NOSIG,0,2,0,10000,0,0,0,
2026-04-18 22:00:00,METAR RJTT 182200Z 02003KT CAVOK 17/15 Q1015 NOSIG,1,0,0,9999,0,0,0,
2026-04-18 21:30:00,METAR RJTT 182130Z 33002KT CAVOK 17/13 Q1015 NOSIG,1,0,0,9999,0,0,0,
2026-04-18 21:00:00,METAR RJTT 182100Z 36002KT CAVOK 16/12 Q1015 NOSIG,1,0,0,9999,0,0,0,
2026-04-18 20:30:00,METAR RJTT 182030Z 32005KT 9999 FEW030 BKN/// 15/12 Q1015 NOSIG,0,5,0,10000,0,0,0,
2026-04-18 20:00:00,METAR RJTT 182000Z 28003KT 240V310 CAVOK 15/12 Q1015 NOSIG,1,0,0,9999,0,0,0,
2026-04-18 19:30:00,METAR RJTT 181930Z VRB02KT CAVOK 16/12 Q1015 NOSIG,1,0,0,9999,0,0,0,
2026-04-18 19:00:00,METAR RJTT 181900Z VRB02KT CAVOK 16/13 Q1014 NOSIG,1,0,0,9999,0,0,0,
2026-04-18 18:30:00,METAR RJTT 181830Z 18003KT 9999 FEW020 BKN/// 15/14 Q1015 NOSIG,0,3,0,10000,0,0,0,
2026-04-18 18:00:00,METAR RJTT 181800Z VRB02KT CAVOK 15/14 Q1014 NOSIG,1,0,0,9999,0,0,0,
2026-04-18 17:30:00,METAR RJTT 181730Z 14003KT 9999 FEW015 BKN/// 15/14 Q1014 NOSIG,0,3,0,10000,0,0,0,
2026-04-18 17:00:00,METAR RJTT 181700Z VRB02KT 9999 FEW020 BKN/// 16/14 Q1014 NOSIG,0,2,0,10000,0,0,0,
2026-04-18 16:30:00,METAR RJTT 181630Z VRB02KT 9999 FEW030 BKN/// 16/13 Q1015 NOSIG,0,2,0,10000,0,0,0,
2026-04-18 16:00:00,METAR RJTT 181600Z VRB02KT CAVOK 17/13 Q1015 NOSIG,1,0,0,9999,0,0,0,
2026-04-18 15:00:00,METAR RJTT 181500Z 19003KT 160V250 CAVOK 17/14 Q1015 NOSIG,1,0,0,9999,0,0,0,
2026-04-18 14:30:00,METAR RJTT 181430Z 16006KT CAVOK 17/13 Q1015 NOSIG,1,0,0,9999,0,0,0,
2026-04-18 14:00:00,METAR RJTT 181400Z 16006KT 9999 FEW035 BKN/// 16/14 Q1015 NOSIG,0,6,0,10000,0,0,0,
2026-04-18 13:30:00,METAR RJTT 181330Z 17006KT 140V220 9999 FEW030 BKN/// 18/13 Q1015 NOSIG,0,6,0,10000,0,0,0,
2026-04-18 13:00:00,METAR RJTT 181300Z 17006KT 140V200 9999 FEW030 SCT/// 18/12 Q1016 NOSIG,0,6,0,10000,0,0,0,
2026-04-18 12:30:00,METAR RJTT 181230Z 18006KT 140V230 9999 FEW030 18/12 Q1016 NOSIG,0,6,0,10000,0,0,0,
2026-04-18 12:00:00,METAR RJTT 181200Z 18007KT 9999 FEW030 18/13 Q1016 NOSIG,0,7,0,10000,0,0,0,
2026-04-18 11:30:00,METAR RJTT 181130Z 19007KT 9999 FEW030 18/12 Q1016 NOSIG,0,7,0,10000,0,0,0,
2026-04-18 11:00:00,METAR RJTT 181100Z 19007KT 9999 FEW030 18/12 Q1016 NOSIG,0,7,0,10000,0,0,0,
2026-04-18 10:30:00,METAR RJTT 181030Z 20009KT CAVOK 19/13 Q1015 NOSIG,1,0,0,9999,0,0,0,
2026-04-18 10:00:00,METAR RJTT 181000Z 20011KT 9999 FEW040 19/12 Q1014 NOSIG,0,11,0,10000,0,0,0,
2026-04-18 09:30:00,METAR RJTT 180930Z 20011KT 9999 FEW040 20/12 Q1014 NOSIG,0,11,0,10000,0,0,0,
2026-04-18 09:00:00,METAR RJTT 180900Z 20010KT 9999 FEW040 20/10 Q1014 NOSIG,0,10,0,10000,0,0,0,
2026-04-18 08:30:00,METAR RJTT 180830Z 20010KT 9999 FEW040 20/09 Q1013 NOSIG,0,10,0,10000,0,0,0,
2026-04-18 08:00:00,METAR RJTT 180800Z 19011KT 9999 FEW040 BKN150 21/09 Q1013 NOSIG,0,11,0,10000,0,0,0,
2026-04-18 07:30:00,METAR RJTT 180730Z 18013KT 9999 FEW030 21/09 Q1013 NOSIG,0,13,0,10000,0,0,0,
2026-04-18 07:00:00,METAR RJTT 180700Z 18013KT 9999 FEW030 21/10 Q1013 NOSIG,0,13,0,10000,0,0,0,
2026-04-18 06:30:00,METAR RJTT 180630Z 17012KT 9999 FEW030 21/09 Q1014 NOSIG,0,12,0,10000,0,0,0,
2026-04-18 06:00:00,METAR RJTT 180600Z 17012KT 9999 FEW030 SCT/// 21/10 Q1014 NOSIG,0,12,0,10000,0,0,0,
2026-04-18 05:30:00,METAR RJTT 180530Z 16013KT 9999 FEW030 BKN/// 21/10 Q1015 NOSIG,0,13,0,10000,0,0,0,
2026-04-18 05:00:00,METAR RJTT 180500Z 17013KT 9999 FEW030 BKN/// 21/11 Q1015 NOSIG,0,13,0,10000,0,0,0,
2026-04-18 04:30:00,METAR RJTT 180430Z 17013KT 140V200 9999 FEW030 BKN/// 21/12 Q1015 NOSIG,0,13,0,10000,0,0,0,
2026-04-18 04:00:00,METAR RJTT 180400Z 18011KT 9999 FEW030 BKN/// 21/11 Q1016 NOSIG,0,11,0,10000,0,0,0,
2026-04-18 03:30:00,METAR RJTT 180330Z 17008KT 130V220 9999 FEW030 BKN/// 20/12 Q1016 NOSIG,0,8,0,10000,0,0,0,
2026-04-18 03:00:00,METAR RJTT 180300Z 16009KT 120V190 9999 FEW030 BKN/// 20/11 Q1017 NOSIG,0,9,0,10000,0,0,0,
2026-04-18 02:30:00,METAR RJTT 180230Z 17007KT 130V210 9999 FEW020 BKN/// 20/12 Q1017 NOSIG,0,7,0,10000,0,0,0,
2026-04-18 02:00:00,METAR RJTT 180200Z 14007KT 110V200 9999 FEW020 BKN/// 18/13 Q1018 NOSIG,0,7,0,10000,0,0,0,
2026-04-18 01:30:00,METAR RJTT 180130Z 12007KT 9999 FEW030 BKN/// 17/12 Q1018 NOSIG,0,7,0,10000,0,0,0,
2026-04-18 01:00:00,METAR RJTT 180100Z 11005KT 070V150 9999 FEW030 BKN045 BKN/// 17/11 Q1019 NOSIG,0,5,0,10000,0,0,0,
2026-04-18 00:30:00,METAR RJTT 180030Z 10004KT 070V130 9999 FEW030 BKN040 16/11 Q1019 NOSIG,0,4,0,10000,0,0,0,
2026-04-18 00:00:00,METAR RJTT 180000Z 08004KT 9999 FEW030 BKN040 16/10 Q1019 NOSIG,0,4,0,10000,0,0,0,
2026-04-17 23:30:00,METAR RJTT 172330Z 08003KT 9999 FEW030 BKN040 15/10 Q1019 NOSIG,0,3,0,10000,0,0,0,
2026-04-17 23:00:00,METAR RJTT 172300Z 07004KT 050V120 9999 FEW030 BKN040 15/10 Q1019 NOSIG,0,4,0,10000,0,0,0,
2026-04-17 22:30:00,METAR RJTT 172230Z 06004KT 9999 FEW015 BKN040 15/10 Q1019 NOSIG,0,4,0,10000,0,0,0,
2026-04-17 22:00:00,METAR RJTT 172200Z 03004KT 9999 FEW015 BKN035 14/10 Q1019 NOSIG,0,4,0,10000,0,0,0,
2026-04-17 21:30:00,METAR RJTT 172130Z 05005KT 9999 FEW015 BKN035 14/10 Q1019 NOSIG,0,5,0,10000,0,0,0,
2026-04-17 21:00:00,METAR RJTT 172100Z 05005KT 9999 FEW015 BKN035 14/10 Q1018 NOSIG,0,5,0,10000,0,0,0,
2026-04-17 20:30:00,METAR RJTT 172030Z 07004KT 9999 FEW015 BKN035 14/11 Q1018 BECMG 04005KT,0,4,0,10000,0,0,0,
2026-04-17 20:00:00,METAR RJTT 172000Z 03003KT 360V080 9999 FEW020 BKN035 14/11 Q1018 NOSIG,0,3,0,10000,0,0,0,
2026-04-17 19:30:00,METAR RJTT 171930Z 11004KT 9999 FEW020 BKN035 14/11 Q1018 BECMG 02005KT,0,4,0,10000,0,0,0,
2026-04-17 19:00:00,METAR RJTT 171900Z 07002KT 9999 BKN035 BKN/// 14/10 Q1018 NOSIG,0,2,0,10000,0,0,0,
2026-04-17 18:30:00,METAR RJTT 171830Z 05004KT 9999 BKN030 14/11 Q1019 NOSIG,0,4,0,10000,0,0,0,
2026-04-17 18:00:00,METAR RJTT 171800Z 03003KT 9999 FEW020 BKN030 14/10 Q1019 NOSIG,0,3,0,10000,0,0,0,
2026-04-17 17:30:00,METAR RJTT 171730Z VRB02KT 9999 FEW020 BKN030 14/10 Q1019 NOSIG,0,2,0,10000,0,0,0,
2026-04-17 17:00:00,METAR RJTT 171700Z VRB02KT 9999 BKN030 14/10 Q1019 NOSIG,0,2,0,10000,0,0,0,
2026-04-17 16:30:00,METAR RJTT 171630Z VRB02KT 9999 FEW020 BKN030 BKN/// 13/10 Q1020 BECMG 02005KT,0,2,0,10000,0,0,0,
2026-04-17 16:00:00,METAR RJTT 171600Z 14003KT 9999 FEW020 SCT030 BKN/// 13/10 Q1020 NOSIG,0,3,0,10000,0,0,0,
2026-04-17 15:30:00,METAR RJTT 171530Z 15003KT 100V210 9999 FEW020 SCT030 BKN/// 13/10 Q1021 NOSIG,0,3,0,10000,0,0,0,
2026-04-17 15:00:00,METAR RJTT 171500Z 14003KT 9999 FEW020 SCT030 BKN/// 13/09 Q1021 BECMG 02005KT,0,3,0,10000,0,0,0,
2026-04-17 14:30:00,METAR RJTT 171430Z 15004KT 9999 FEW020 SCT030 BKN/// 13/09 Q1021 NOSIG,0,4,0,10000,0,0,0,
2026-04-17 14:00:00,METAR RJTT 171400Z 12002KT 9999 FEW020 SCT030 BKN/// 13/09 Q1021 NOSIG,0,2,0,10000,0,0,0,
2026-04-17 13:30:00,METAR RJTT 171330Z 11003KT 070V140 9999 FEW030 BKN/// 13/09 Q1021 NOSIG,0,3,0,10000,0,0,0,
2026-04-17 13:00:00,METAR RJTT 171300Z VRB02KT 9999 FEW030 BKN/// 13/09 Q1021 BECMG 27005KT,0,2,0,10000,0,0,0,
2026-04-17 12:30:00,METAR RJTT 171230Z 13004KT 9999 FEW030 BKN/// 12/08 Q1022 NOSIG,0,4,0,10000,0,0,0,
2026-04-17 12:00:00,METAR RJTT 171200Z 13006KT CAVOK 13/08 Q1022 NOSIG,1,0,0,9999,0,0,0,
2026-04-17 11:30:00,METAR RJTT 171130Z 14008KT CAVOK 13/08 Q1022 NOSIG,1,0,0,9999,0,0,0,
2026-04-17 11:00:00,METAR RJTT 171100Z 13009KT 9999 FEW030 BKN/// 13/07 Q1022 NOSIG,0,9,0,10000,0,0,0,
2026-04-17 10:30:00,METAR RJTT 171030Z 12011KT 9999 FEW030 BKN/// 14/08 Q1022 NOSIG,0,11,0,10000,0,0,0,
2026-04-17 10:00:00,METAR RJTT 171000Z 12013KT 9999 FEW030 BKN/// 14/08 Q1021 NOSIG,0,13,0,10000,0,0,0,
2026-04-17 09:30:00,METAR RJTT 170930Z 12012KT 9999 FEW030 BKN/// 14/08 Q1021 NOSIG,0,12,0,10000,0,0,0,
2026-04-17 09:00:00,METAR RJTT 170900Z 11012KT 9999 FEW030 BKN/// 15/08 Q1021 NOSIG,0,12,0,10000,0,0,0,
2026-04-17 08:30:00,METAR RJTT 170830Z 12009KT CAVOK 15/09 Q1021 NOSIG,1,0,0,9999,0,0,0,
2026-04-17 08:00:00,METAR RJTT 170800Z 11009KT CAVOK 16/09 Q1021 NOSIG,1,0,0,9999,0,0,0,
2026-04-17 07:30:00,METAR RJTT 170730Z 12011KT CAVOK 17/09 Q1020 NOSIG,1,0,0,9999,0,0,0,
2026-04-17 07:00:00,METAR RJTT 170700Z 06008KT CAVOK 17/08 Q1020 BECMG 11012KT,1,0,0,9999,0,0,0,
2026-04-17 06:30:00,METAR RJTT 170630Z 05006KT CAVOK 17/09 Q1020 BECMG 11008KT,1,0,0,9999,0,0,0,
2026-04-17 06:00:00,METAR RJTT 170600Z 05005KT CAVOK 17/07 Q1021 BECMG 09006KT,1,0,0,9999,0,0,0,
2026-04-17 05:30:00,METAR RJTT 170530Z 06007KT CAVOK 17/08 Q1021 BECMG 09010KT,1,0,0,9999,0,0,0,
2026-04-17 05:00:00,METAR RJTT 170500Z 08010KT CAVOK 17/08 Q1021 NOSIG,1,0,0,9999,0,0,0,
2026-04-17 04:30:00,METAR RJTT 170430Z 09010KT CAVOK 17/09 Q1021 NOSIG,1,0,0,9999,0,0,0,
2026-04-17 04:00:00,METAR RJTT 170400Z 09011KT CAVOK 16/08 Q1022 NOSIG,1,0,0,9999,0,0,0,
2026-04-17 03:30:00,METAR RJTT 170330Z 09010KT CAVOK 16/08 Q1022 NOSIG,1,0,0,9999,0,0,0,
2026-04-17 03:00:00,METAR RJTT 170300Z 08011KT CAVOK 16/07 Q1022 NOSIG,1,0,0,9999,0,0,0,
2026-04-17 02:30:00,METAR RJTT 170230Z 07010KT 9999 FEW030 BKN/// 16/07 Q1023 NOSIG,0,10,0,10000,0,0,0,
2026-04-17 02:00:00,METAR RJTT 170200Z 07011KT 9999 FEW030 BKN/// 16/07 Q1023 NOSIG,0,11,0,10000,0,0,0,
2026-04-17 01:30:00,METAR RJTT 170130Z 06010KT 9999 FEW030 BKN/// 15/07 Q1023 NOSIG,0,10,0,10000,0,0,0,
2026-04-17 01:00:00,METAR RJTT 170100Z 07011KT 9999 FEW030 BKN/// 15/06 Q1023 NOSIG,0,11,0,10000,0,0,0,
2026-04-17 00:30:00,METAR RJTT 170030Z 05010KT 010V070 9999 FEW030 BKN/// 14/04 Q1024 NOSIG,0,10,0,10000,0,0,0,
2026-04-17 00:00:00,METAR RJTT 170000Z 04010KT 9999 FEW030 BKN/// 13/04 Q1024 NOSIG,0,10,0,10000,0,0,0,
2026-04-16 23:30:00,METAR RJTT 162330Z 03010KT 9999 FEW030 SCT/// 13/04 Q1024 NOSIG,0,10,0,10000,0,0,0,
2026-04-16 23:00:00,METAR RJTT 162300Z 04012KT 9999 FEW030 12/05 Q1024 NOSIG,0,12,0,10000,0,0,0,
2026-04-16 22:30:00,METAR RJTT 162230Z 04013KT 9999 FEW030 12/05 Q1024 NOSIG,0,13,0,10000,0,0,0,
2026-04-16 22:00:00,METAR RJTT 162200Z 04012KT 9999 FEW030 12/05 Q1024 NOSIG,0,12,0,10000,0,0,0,
2026-04-16 21:30:00,METAR RJTT 162130Z 04016KT 9999 FEW040 11/05 Q1023 NOSIG,0,16,0,10000,0,0,0,
2026-04-16 21:00:00,METAR RJTT 162100Z 03014KT 9999 FEW030 11/04 Q1023 NOSIG,0,14,0,10000,0,0,0,
2026-04-16 20:30:00,METAR RJTT 162030Z 04018KT 9999 FEW020 11/05 Q1022 NOSIG,0,18,0,10000,0,0,0,
2026-04-16 20:00:00,METAR RJTT 162000Z 05019KT 9999 FEW020 10/05 Q1022 NOSIG,0,19,0,10000,0,0,0,
2026-04-16 19:30:00,METAR RJTT 161930Z 04017KT 9999 FEW020 SCT035 11/06 Q1022 NOSIG,0,17,0,10000,0,0,0,
2026-04-16 19:00:00,METAR RJTT 161900Z 04017KT 9999 FEW020 BKN030 11/06 Q1022 NOSIG,0,17,0,10000,0,0,0,
2026-04-16 18:30:00,METAR RJTT 161830Z 03018KT 9999 FEW020 BKN030 10/06 Q1022 NOSIG,0,18,0,10000,0,0,0,
2026-04-16 18:00:00,METAR RJTT 161800Z 02015KT 9999 FEW020 11/07 Q1022 NOSIG,0,15,0,10000,0,0,0,
2026-04-16 17:30:00,METAR RJTT 161730Z 01013KT 9999 FEW020 BKN040 11/07 Q1022 NOSIG,0,13,0,10000,0,0,0,
2026-04-16 17:00:00,METAR RJTT 161700Z 04018KT 9999 FEW020 11/08 Q1022 NOSIG,0,18,0,10000,0,0,0,
2026-04-16 16:30:00,METAR RJTT 161630Z 04019KT 9999 FEW020 11/08 Q1021 NOSIG,0,19,0,10000,0,0,0,
2026-04-16 16:00:00,METAR RJTT 161600Z 04017KT 9999 FEW020 11/08 Q1021 NOSIG,0,17,0,10000,0,0,0,
2026-04-16 15:00:00,METAR RJTT 161500Z 04017KT 9999 FEW020 11/08 Q1022 NOSIG,0,17,0,10000,0,0,0,
2026-04-16 14:30:00,METAR RJTT 161430Z 03016KT 9999 FEW020 12/08 Q1021 NOSIG,0,16,0,10000,0,0,0,
2026-04-16 14:00:00,METAR RJTT 161400Z 04018KT 9999 FEW020 12/08 Q1021 NOSIG,0,18,0,10000,0,0,0,
2026-04-16 13:30:00,METAR RJTT 161330Z 04018KT 9999 FEW020 SCT040 12/08 Q1021 NOSIG,0,18,0,10000,0,0,0,
2026-04-16 13:00:00,METAR RJTT 161300Z 04017KT 9999 FEW020 BKN040 12/09 Q1021 NOSIG,0,17,0,10000,0,0,0,
2026-04-16 12:30:00,METAR RJTT 161230Z 05018KT 9999 FEW018 12/09 Q1021 NOSIG,0,18,0,10000,0,0,0,
2026-04-16 12:00:00,METAR RJTT 161200Z 04020KT 9999 FEW018 13/09 Q1020 NOSIG,0,20,0,10000,0,0,0,
2026-04-16 11:30:00,METAR RJTT 161130Z 04020KT 9999 FEW020 13/09 Q1020 NOSIG,0,20,0,10000,0,0,0,
2026-04-16 11:00:00,METAR RJTT 161100Z 04019KT 9999 FEW020 13/10 Q1019 NOSIG,0,19,0,10000,0,0,0,
2026-04-16 10:30:00,METAR RJTT 161030Z 05021KT 9999 FEW020 13/10 Q1018 NOSIG,0,21,0,10000,0,0,0,
2026-04-16 10:00:00,METAR RJTT 161000Z 05023KT 9999 FEW030 14/11 Q1017 NOSIG,0,23,0,10000,0,0,0,
2026-04-16 09:30:00,METAR RJTT 160930Z 06020KT 9999 FEW030 14/11 Q1016 BECMG TL1030 05020KT,0,20,0,10000,0,0,0,
2026-04-16 09:00:00,METAR RJTT 160900Z 06025KT 9999 FEW030 15/11 Q1016 BECMG TL1000 05022KT,0,25,0,10000,0,0,0,
2026-04-16 08:30:00,METAR RJTT 160830Z 06022KT 9999 FEW030 16/11 Q1016 BECMG TL0930 05020KT,0,22,0,10000,0,0,0,
2026-04-16 08:00:00,METAR RJTT 160800Z 05023KT 9999 FEW030 16/11 Q1015 NOSIG,0,23,0,10000,0,0,0,
2026-04-16 07:30:00,METAR RJTT 160730Z 06023KT 9999 FEW030 17/12 Q1015 NOSIG,0,23,0,10000,0,0,0,
2026-04-16 07:00:00,METAR RJTT 160700Z 07020KT 9999 FEW025 18/12 Q1014 NOSIG,0,20,0,10000,0,0,0,
2026-04-16 06:00:00,METAR RJTT 160600Z 06020KT 9999 FEW020 SCT070 18/12 Q1013 NOSIG,0,20,0,10000,0,0,0,
2026-04-16 05:30:00,METAR RJTT 160530Z 06020KT 9999 FEW020 BKN070 18/14 Q1013 NOSIG,0,20,0,10000,0,0,0,
2026-04-16 05:00:00,METAR RJTT 160500Z 06018KT 9999 FEW025 SCT060 19/13 Q1012 NOSIG,0,18,0,10000,0,0,0,
2026-04-16 04:30:00,METAR RJTT 160430Z 07020KT 9999 FEW030 19/13 Q1012 NOSIG,0,20,0,10000,0,0,0,
2026-04-16 04:00:00,METAR RJTT 160400Z 06020KT 9999 FEW030 18/14 Q1011 NOSIG,0,20,0,10000,0,0,0,
2026-04-16 03:30:00,METAR RJTT 160330Z 06019KT 9999 FEW030 18/14 Q1012 NOSIG,0,19,0,10000,0,0,0,
2026-04-16 03:00:00,METAR RJTT 160300Z 06020KT 9999 FEW030 18/14 Q1011 NOSIG,0,20,0,10000,0,0,0,
2026-04-16 02:30:00,METAR RJTT 160230Z 04019KT 9999 FEW030 21/11 Q1011 BECMG TL0300 08020KT,0,19,0,10000,0,0,0,
2026-04-16 02:00:00,METAR RJTT 160200Z 03020KT 9999 FEW030 21/13 Q1011 BECMG 08020KT,0,20,0,10000,0,0,0,
2026-04-16 01:30:00,METAR RJTT 160130Z 03019KT 9999 FEW030 20/12 Q1011 BECMG 08020KT,0,19,0,10000,0,0,0,
2026-04-16 01:00:00,METAR RJTT 160100Z 02014KT 9999 FEW030 20/12 Q1011 NOSIG,0,14,0,10000,0,0,0,
2026-04-16 00:30:00,METAR RJTT 160030Z 02016KT 9999 FEW030 19/11 Q1010 NOSIG,0,16,0,10000,0,0,0,
2026-04-16 00:00:00,METAR RJTT 160000Z 01015KT 9999 FEW030 19/12 Q1010 NOSIG,0,15,0,10000,0,0,0,
2026-04-15 23:30:00,METAR RJTT 152330Z 02014KT 9999 FEW020 18/12 Q1010 NOSIG,0,14,0,10000,0,0,0,
2026-04-15 23:00:00,METAR RJTT 152300Z 01019KT 9999 FEW020 SCT120 17/12 Q1010 NOSIG,0,19,0,10000,0,0,0,
2026-04-15 22:30:00,METAR RJTT 152230Z 36014KT 9999 FEW020 SCT070 BKN110 16/12 Q1010 NOSIG,0,14,0,10000,0,0,0,
2026-04-15 22:00:00,METAR RJTT 152200Z 36016KT 9999 FEW020 BKN070 16/13 Q1010 NOSIG,0,16,0,10000,0,0,0,
2026-04-15 21:30:00,METAR RJTT 152130Z 35015KT 9999 -RA FEW020 SCT050 BKN100 15/12 Q1009 NOSIG,0,15,0,10000,0,0,0,-RA
2026-04-15 21:00:00,METAR RJTT 152100Z 36014KT 9999 FEW020 SCT040 BKN100 15/13 Q1009 NOSIG,0,14,0,10000,0,0,0,
2026-04-15 20:30:00,METAR RJTT 152030Z 35013KT 9999 FEW020 BKN040 15/13 Q1008 NOSIG,0,13,0,10000,0,0,0,
2026-04-15 20:00:00,METAR RJTT 152000Z 35016KT 9999 FEW015 BKN040 15/13 Q1008 NOSIG,0,16,0,10000,0,0,0,
2026-04-15 19:30:00,METAR RJTT 151930Z 35018KT 9999 -SHRA FEW010 SCT050 BKN080 15/13 Q1008 NOSIG,0,18,0,10000,0,0,0,RA
2026-04-15 19:00:00,METAR RJTT 151900Z 35018KT 9999 -SHRA FEW008 SCT010 BKN080 15/13 Q1008 NOSIG,0,18,0,10000,0,0,0,RA
2026-04-15 18:30:00,METAR RJTT 151830Z 36016KT 9999 -SHRA FEW008 BKN010 BKN015 15/13 Q1008 BECMG TL2000 FEW007 BKN015,0,16,0,10000,0,0,0,RA
2026-04-15 18:00:00,METAR RJTT 151800Z 36016KT 9999 -SHRA FEW008 BKN010 15/13 Q1008 TEMPO FEW006 BKN008,0,16,0,10000,0,0,0,RA
2026-04-15 17:30:00,METAR RJTT 151730Z 35014KT 9999 -SHRA FEW008 BKN010 15/13 Q1008 TEMPO TL1900 4000 SHRA BR FEW005 BKN008,0,14,0,10000,0,0,1,"BR,RA,SH"
2026-04-15 17:00:00,METAR RJTT 151700Z 36015KT 9999 -SHRA FEW008 BKN010 15/14 Q1008 TEMPO FEW005 BKN008,0,15,0,10000,0,0,0,RA
2026-04-15 16:30:00,METAR RJTT 151630Z 35015KT 9999 FEW008 BKN010 15/14 Q1008 TEMPO FEW005 BKN008,0,15,0,10000,0,0,0,
2026-04-15 16:00:00,METAR RJTT 151600Z 34016KT 9999 -SHRA FEW007 BKN010 BKN025 15/14 Q1008 NOSIG,0,16,0,10000,0,0,0,RA
2026-04-15 15:30:00,METAR RJTT 151530Z 33015KT 9999 -SHRA FEW007 BKN010 BKN025 15/14 Q1009 TEMPO FEW005 BKN008,0,15,0,10000,0,0,0,RA
2026-04-15 15:00:00,METAR RJTT 151500Z 34012KT 9999 -SHRA FEW003 BKN008 BKN020 16/15 Q1009 NOSIG,0,12,0,10000,0,0,0,RA
2026-04-15 14:30:00,METAR RJTT 151430Z 01012KT 8000 -SHRA FEW003 BKN008 BKN070 16/15 Q1010 TEMPO 3000 SHRA BR,0,12,0,8000,0,0,1,"BR,RA,SH"
2026-04-15 14:00:00,METAR RJTT 151400Z 02011KT 7000 -SHRA FEW003 BKN008 BKN030 17/16 Q1010 TEMPO 3000 SHRA BR,0,11,0,7000,0,0,1,"BR,RA,SH"
2026-04-15 13:30:00,METAR RJTT 151330Z 36011KT 4000 SHRA BR FEW003 BKN006 BKN015 17/16 Q1010 TEMPO 3000 SHRA BR,0,11,0,4000,0,0,1,"BR,RA,SH"
2026-04-15 13:00:00,METAR RJTT 151300Z 32004KT 270V020 3500 SHRA BR FEW004 BKN006 BKN015 17/16 Q1010 TEMPO 3000 SHRA BR BECMG 35014KT,0,4,0,3500,0,0,1,"BR,RA,SH"
2026-04-15 12:30:00,METAR RJTT 151230Z 03004KT 7000 -SHRA FEW005 BKN007 BKN035 17/16 Q1010 TEMPO 3000 SHRA BR,0,4,0,7000,0,0,1,"BR,RA,SH"
2026-04-15 12:00:00,METAR RJTT 151200Z 06005KT 7000 -SHRA SCT005 BKN010 BKN020 17/16 Q1010 BECMG 02006KT TEMPO 3000 SHRA BR FEW005 BKN008,0,5,0,7000,0,0,1,"BR,RA,SH"
2026-04-15 11:30:00,METAR RJTT 151130Z 04004KT 5000 -SHRA BR FEW007 SCT010 BKN020 17/16 Q1010 TEMPO 3000 SHRA BR FEW005 BKN008,0,4,0,5000,0,0,1,"BR,RA,SH"
2026-04-15 11:00:00,METAR RJTT 151100Z 01004KT 8000 -RA FEW015 SCT030 BKN040 18/16 Q1010 TEMPO 3000 SHRA BR,0,4,0,8000,0,0,1,"-RA,BR,RA,SH"
2026-04-15 10:30:00,METAR RJTT 151030Z 08004KT 9999 -RA FEW015 BKN040 18/16 Q1009 TEMPO 4000 -RA BR,0,4,0,10000,0,0,1,"-RA,BR"
2026-04-15 10:00:00,METAR RJTT 151000Z 09006KT 9999 -RA FEW020 BKN040 BKN070 18/16 Q1009 TEMPO 4000 -RA BR,0,6,0,10000,0,0,1,"-RA,BR"
2026-04-15 09:30:00,METAR RJTT 150930Z 12004KT 9999 -RA FEW020 BKN050 18/16 Q1009 NOSIG,0,4,0,10000,0,0,0,-RA
2026-04-15 09:00:00,METAR RJTT 150900Z 13006KT 9999 -RA FEW020 BKN050 18/16 Q1009 NOSIG,0,6,0,10000,0,0,0,-RA
2026-04-15 08:30:00,METAR RJTT 150830Z 16011KT 9999 -RA FEW030 BKN060 18/15 Q1009 NOSIG,0,11,0,10000,0,0,0,-RA
2026-04-15 08:00:00,METAR RJTT 150800Z 15016KT 9999 FEW030 SCT060 BKN090 19/15 Q1009 NOSIG,0,16,0,10000,0,0,0,
2026-04-15 07:30:00,METAR RJTT 150730Z 12010KT 9999 FEW030 BKN060 BKN090 20/16 Q1009 NOSIG,0,10,0,10000,0,0,0,
2026-04-15 07:00:00,METAR RJTT 150700Z 09006KT 9999 FEW030 BKN090 21/15 Q1009 NOSIG,0,6,0,10000,0,0,0,
2026-04-15 06:30:00,METAR RJTT 150630Z 05003KT 9999 FEW030 BKN090 BKN/// 21/13 Q1009 NOSIG,0,3,0,10000,0,0,0,
2026-04-15 06:00:00,METAR RJTT 150600Z 02003KT 9999 FEW030 BKN100 BKN/// 22/13 Q1009 NOSIG,0,3,0,10000,0,0,0,
2026-04-15 05:30:00,METAR RJTT 150530Z 02003KT 9999 FEW030 BKN100 BKN/// 21/13 Q1010 NOSIG,0,3,0,10000,0,0,0,
2026-04-15 05:00:00,METAR RJTT 150500Z 01003KT 9999 FEW030 BKN100 BKN/// 21/13 Q1010 NOSIG,0,3,0,10000,0,0,0,
2026-04-15 04:30:00,METAR RJTT 150430Z 01003KT 9999 FEW030 SCT060 BKN100 21/13 Q1011 NOSIG,0,3,0,10000,0,0,0,
2026-04-15 04:00:00,METAR RJTT 150400Z 01003KT 9999 FEW030 SCT100 BKN/// 21/13 Q1011 NOSIG,0,3,0,10000,0,0,0,
2026-04-15 03:30:00,METAR RJTT 150330Z 03003KT 9999 FEW030 BKN120 BKN/// 21/13 Q1012 NOSIG,0,3,0,10000,0,0,0,
2026-04-15 03:00:00,METAR RJTT 150300Z 02003KT 9999 FEW030 BKN100 20/12 Q1012 NOSIG,0,3,0,10000,0,0,0,
2026-04-15 02:30:00,METAR RJTT 150230Z 02004KT 9999 FEW030 BKN100 19/12 Q1013 NOSIG,0,4,0,10000,0,0,0,
2026-04-15 02:00:00,METAR RJTT 150200Z 02004KT 9999 FEW030 BKN100 19/14 Q1013 NOSIG,0,4,0,10000,0,0,0,
2026-04-15 01:30:00,METAR RJTT 150130Z 05004KT 9999 FEW030 BKN100 19/14 Q1014 NOSIG,0,4,0,10000,0,0,0,
2026-04-15 01:00:00,METAR RJTT 150100Z 05004KT 9999 FEW030 BKN100 18/15 Q1014 NOSIG,0,4,0,10000,0,0,0,
2026-04-15 00:30:00,METAR RJTT 150030Z 06006KT 9999 FEW020 BKN100 18/14 Q1014 NOSIG,0,6,0,10000,0,0,0,
2026-04-15 00:00:00,METAR RJTT 150000Z 05004KT 9999 FEW020 BKN110 18/14 Q1014 NOSIG,0,4,0,10000,0,0,0,
2026-04-14 23:30:00,METAR RJTT 142330Z 04004KT 9999 FEW020 BKN120 18/14 Q1014 NOSIG,0,4,0,10000,0,0,0,
2026-04-14 23:00:00,METAR RJTT 142300Z 05003KT 9999 FEW030 BKN120 17/14 Q1015 NOSIG,0,3,0,10000,0,0,0,
2026-04-14 22:30:00,METAR RJTT 142230Z 05005KT 9999 FEW030 BKN120 16/14 Q1015 NOSIG,0,5,0,10000,0,0,0,
2026-04-14 22:00:00,METAR RJTT 142200Z 05006KT 8000 NSC 16/14 Q1014 NOSIG,0,6,0,8000,0,0,0,
2026-04-14 21:30:00,METAR RJTT 142130Z 02004KT 8000 NSC 16/14 Q1015 NOSIG,0,4,0,8000,0,0,0,
2026-04-14 21:00:00,METAR RJTT 142100Z 05005KT 9000 NSC 16/14 Q1014 NOSIG,0,5,0,9000,0,0,0,
2026-04-14 20:30:00,METAR RJTT 142030Z 05006KT 7000 FEW010 BKN130 15/14 Q1014 TEMPO 4000 BR,0,6,0,7000,0,0,1,BR
2026-04-14 20:00:00,METAR RJTT 142000Z 06006KT 6000 BR FEW003 BKN160 15/15 Q1014 TEMPO 4000 BR,0,6,0,6000,0,0,1,BR
2026-04-14 19:30:00,METAR RJTT 141930Z 07006KT 6000 FEW010 BKN160 15/14 Q1014 NOSIG,0,6,0,6000,0,0,0,
2026-04-14 19:00:00,METAR RJTT 141900Z 06006KT 7000 FEW007 BKN190 16/14 Q1014 NOSIG,0,6,0,7000,0,0,0,
2026-04-14 18:30:00,METAR RJTT 141830Z 05006KT 7000 FEW007 BKN190 16/14 Q1015 NOSIG,0,6,0,7000,0,0,0,
2026-04-14 18:00:00,METAR RJTT 141800Z 04006KT 7000 FEW007 BKN050 16/15 Q1015 NOSIG,0,6,0,7000,0,0,0,
2026-04-14 17:30:00,METAR RJTT 141730Z 05006KT 8000 FEW010 BKN050 BKN150 16/15 Q1015 NOSIG,0,6,0,8000,0,0,0,
2026-04-14 17:00:00,METAR RJTT 141700Z 05007KT 8000 FEW010 BKN150 16/15 Q1015 NOSIG,0,7,0,8000,0,0,0,
2026-04-14 16:30:00,METAR RJTT 141630Z 07006KT 9999 FEW010 BKN150 16/15 Q1015 NOSIG,0,6,0,10000,0,0,0,
2026-04-14 16:00:00,METAR RJTT 141600Z 06004KT 9999 FEW010 SCT150 BKN/// 16/15 Q1015 NOSIG,0,4,0,10000,0,0,0,
2026-04-14 15:30:00,METAR RJTT 141530Z 06007KT 9999 FEW010 BKN/// 17/15 Q1015 NOSIG,0,7,0,10000,0,0,0,
2026-04-14 15:00:00,METAR RJTT 141500Z 07006KT 9999 FEW050 BKN/// 17/15 Q1015 NOSIG,0,6,0,10000,0,0,0,
2026-04-14 14:30:00,METAR RJTT 141430Z 07005KT 9999 FEW050 BKN/// 17/15 Q1016 NOSIG,0,5,0,10000,0,0,0,
2026-04-14 14:00:00,METAR RJTT 141400Z 08004KT 9999 FEW050 BKN/// 17/15 Q1016 BECMG 05005KT,0,4,0,10000,0,0,0,
2026-04-14 13:30:00,METAR RJTT 141330Z 06003KT 9999 BKN050 17/15 Q1016 BECMG 05005KT,0,3,0,10000,0,0,0,
2026-04-14 13:00:00,METAR RJTT 141300Z 09004KT 9999 FEW010 BKN050 BKN170 17/15 Q1016 BECMG 05005KT,0,4,0,10000,0,0,0,
2026-04-14 12:30:00,METAR RJTT 141230Z 09007KT 9999 FEW010 BKN170 17/15 Q1016 NOSIG,0,7,0,10000,0,0,0,
2026-04-14 12:00:00,METAR RJTT 141200Z 10007KT 9999 FEW015 BKN050 BKN170 17/15 Q1016 NOSIG,0,7,0,10000,0,0,0,
2026-04-14 11:30:00,METAR RJTT 141130Z 09006KT 9999 FEW015 BKN050 17/16 Q1016 NOSIG,0,6,0,10000,0,0,0,
2026-04-14 11:00:00,METAR RJTT 141100Z 10008KT 9999 FEW015 BKN040 17/15 Q1016 NOSIG,0,8,0,10000,0,0,0,
2026-04-14 10:30:00,METAR RJTT 141030Z 11010KT 9999 FEW020 SCT040 BKN170 18/15 Q1016 NOSIG,0,10,0,10000,0,0,0,
2026-04-14 10:00:00,METAR RJTT 141000Z 12009KT 9999 FEW040 BKN170 18/15 Q1015 NOSIG,0,9,0,10000,0,0,0,
2026-04-14 09:30:00,METAR RJTT 140930Z 13010KT 9999 FEW030 SCT040 BKN170 18/15 Q1015 NOSIG,0,10,0,10000,0,0,0,
2026-04-14 09:00:00,METAR RJTT 140900Z 12011KT 9999 FEW030 BKN040 19/15 Q1015 NOSIG,0,11,0,10000,0,0,0,
2026-04-14 08:30:00,METAR RJTT 140830Z 12012KT 9999 FEW030 BKN040 BKN170 19/15 Q1014 NOSIG,0,12,0,10000,0,0,0,
2026-04-14 08:00:00,METAR RJTT 140800Z 12013KT 9999 FEW030 BKN/// 19/15 Q1014 NOSIG,0,13,0,10000,0,0,0,
2026-04-14 07:30:00,METAR RJTT 140730Z 11012KT 9999 FEW030 BKN/// 20/15 Q1014 NOSIG,0,12,0,10000,0,0,0,
2026-04-14 07:00:00,METAR RJTT 140700Z 09008KT 9999 FEW030 BKN/// 20/16 Q1014 NOSIG,0,8,0,10000,0,0,0,
2026-04-14 06:30:00,METAR RJTT 140630Z 07008KT 9999 FEW030 BKN/// 20/16 Q1014 NOSIG,0,8,0,10000,0,0,0,
2026-04-14 06:00:00,METAR RJTT 140600Z 06007KT 9999 FEW030 BKN/// 20/16 Q1014 BECMG 10006KT,0,7,0,10000,0,0,0,
2026-04-14 05:30:00,METAR RJTT 140530Z 06008KT 9999 FEW030 BKN/// 20/16 Q1014 BECMG 10006KT,0,8,0,10000,0,0,0,
2026-04-14 05:00:00,METAR RJTT 140500Z 05006KT 9999 FEW030 BKN/// 20/15 Q1015 BECMG 10006KT,0,6,0,10000,0,0,0,
2026-04-14 04:30:00,METAR RJTT 140430Z 05006KT 9999 FEW030 BKN/// 21/15 Q1015 BECMG 10006KT,0,6,0,10000,0,0,0,
2026-04-14 04:00:00,METAR RJTT 140400Z 05008KT 9999 FEW030 BKN/// 20/15 Q1015 BECMG 08008KT,0,8,0,10000,0,0,0,
2026-04-14 03:30:00,METAR RJTT 140330Z 05007KT 9999 FEW030 BKN/// 20/14 Q1016 BECMG 08008KT,0,7,0,10000,0,0,0,
2026-04-14 03:00:00,METAR RJTT 140300Z 04006KT 9999 FEW030 BKN/// 20/15 Q1016 BECMG 08008KT,0,6,0,10000,0,0,0,
2026-04-14 02:30:00,METAR RJTT 140230Z 03006KT 9999 FEW030 BKN/// 20/14 Q1016 BECMG 08008KT,0,6,0,10000,0,0,0,
2026-04-14 02:00:00,METAR RJTT 140200Z 05006KT 9999 FEW030 BKN/// 19/14 Q1017 BECMG 08008KT,0,6,0,10000,0,0,0,
2026-04-14 01:30:00,METAR RJTT 140130Z 05007KT 9999 FEW020 BKN/// 19/14 Q1017 NOSIG,0,7,0,10000,0,0,0,
2026-04-14 01:00:00,METAR RJTT 140100Z 04009KT 9999 FEW013 BKN020 18/13 Q1017 NOSIG,0,9,0,10000,0,0,0,
2026-04-14 00:30:00,METAR RJTT 140030Z 06009KT 9999 FEW013 BKN020 18/14 Q1017 NOSIG,0,9,0,10000,0,0,0,
2026-04-14 00:00:00,METAR RJTT 140000Z 04009KT 9999 BKN013 17/14 Q1017 NOSIG,0,9,0,10000,0,0,0,
2026-04-13 23:30:00,METAR RJTT 132330Z 06008KT 9999 FEW008 BKN013 16/15 Q1018 BECMG 05005KT TEMPO FEW004 BKN008,0,8,0,10000,0,0,0,
2026-04-13 23:00:00,METAR RJTT 132300Z 05009KT 9999 FEW007 BKN012 16/15 Q1017 TEMPO FEW004 BKN008,0,9,0,10000,0,0,0,
2026-04-13 22:30:00,METAR RJTT 132230Z 06009KT 8000 FEW005 BKN009 16/15 Q1017 BECMG 04005KT TEMPO 4000 BR,0,9,0,8000,0,0,1,BR
2026-04-13 22:00:00,METAR RJTT 132200Z 06003KT 020V090 8000 FEW010 BKN016 17/15 Q1017 TEMPO 4000 BR FEW008 BKN012,0,3,0,8000,0,0,1,BR
2026-04-13 21:30:00,METAR RJTT 132130Z 03003KT 8000 FEW010 SCT014 BKN025 16/15 Q1016 TEMPO 4000 BR FEW008 BKN012,0,3,0,8000,0,0,1,BR
2026-04-13 21:00:00,METAR RJTT 132100Z 04003KT 8000 FEW008 SCT012 BKN025 16/15 Q1016 TEMPO 4000 BR FEW008 BKN012,0,3,0,8000,0,0,1,BR
2026-04-13 20:30:00,METAR RJTT 132030Z 01003KT 8000 FEW008 SCT012 BKN020 15/15 Q1016 TEMPO 4000 BR FEW008 BKN012,0,3,0,8000,0,0,1,BR
2026-04-13 20:00:00,METAR RJTT 132000Z 34003KT 8000 FEW010 BKN017 BKN/// 16/15 Q1016 TEMPO 4000 BR FEW008 BKN012,0,3,0,8000,0,0,1,BR
2026-04-13 19:30:00,METAR RJTT 131930Z 03003KT 8000 FEW010 BKN018 15/14 Q1015 TEMPO 4000 BR FEW008 BKN012,0,3,0,8000,0,0,1,BR
2026-04-13 19:00:00,METAR RJTT 131900Z 05004KT 8000 FEW015 SCT020 15/14 Q1015 TEMPO 4000 BR FEW008 BKN012,0,4,0,8000,0,0,1,BR
2026-04-13 18:30:00,METAR RJTT 131830Z 01003KT 8000 FEW015 SCT020 15/15 Q1015 TEMPO 4000 BR FEW008 BKN012,0,3,0,8000,0,0,1,BR
2026-04-13 18:00:00,METAR RJTT 131800Z 00000KT 9999 FEW015 BKN/// 15/15 Q1015 BECMG 01005KT,0,0,0,10000,0,0,0,
2026-04-13 17:30:00,METAR RJTT 131730Z 11002KT 9999 FEW015 BKN/// 16/15 Q1015 BECMG 35005KT,0,2,0,10000,0,0,0,
2026-04-13 17:00:00,METAR RJTT 131700Z 16002KT 9999 FEW015 BKN/// 16/15 Q1015 BECMG 35005KT,0,2,0,10000,0,0,0,
2026-04-13 16:30:00,METAR RJTT 131630Z VRB01KT 9999 FEW015 SCT025 16/15 Q1015 BECMG 35005KT,0,1,0,10000,0,0,0,
2026-04-13 16:00:00,METAR RJTT 131600Z VRB02KT 9999 FEW015 17/15 Q1016 NOSIG,0,2,0,10000,0,0,0,
2026-04-13 15:30:00,METAR RJTT 131530Z 13004KT 9999 FEW015 16/15 Q1016 NOSIG,0,4,0,10000,0,0,0,
2026-04-13 15:00:00,METAR RJTT 131500Z 12004KT 9999 FEW015 16/15 Q1016 NOSIG,0,4,0,10000,0,0,0,
2026-04-13 14:30:00,METAR RJTT 131430Z 13005KT 9999 FEW015 BKN/// 17/16 Q1016 NOSIG,0,5,0,10000,0,0,0,
2026-04-13 14:00:00,METAR RJTT 131400Z 13004KT 9999 FEW015 BKN/// 17/15 Q1016 NOSIG,0,4,0,10000,0,0,0,
2026-04-13 13:30:00,METAR RJTT 131330Z 16007KT 110V190 9999 FEW018 BKN/// 16/15 Q1016 NOSIG,0,7,0,10000,0,0,0,
2026-04-13 13:00:00,METAR RJTT 131300Z 15005KT 9999 SCT018 BKN/// 16/15 Q1016 NOSIG,0,5,0,10000,0,0,0,
2026-04-13 12:30:00,METAR RJTT 131230Z 16005KT 9999 FEW018 BKN/// 17/15 Q1016 NOSIG,0,5,0,10000,0,0,0,
2026-04-13 12:00:00,METAR RJTT 131200Z 17005KT 9999 FEW020 BKN/// 17/15 Q1016 NOSIG,0,5,0,10000,0,0,0,
2026-04-13 11:30:00,METAR RJTT 131130Z 19006KT 9999 FEW020 BKN/// 19/15 Q1016 NOSIG,0,6,0,10000,0,0,0,
2026-04-13 11:00:00,METAR RJTT 131100Z 19008KT 9999 FEW025 BKN/// 19/15 Q1016 NOSIG,0,8,0,10000,0,0,0,
2026-04-13 10:30:00,METAR RJTT 131030Z 20009KT 9999 FEW030 BKN190 BKN/// 19/15 Q1015 NOSIG,0,9,0,10000,0,0,0,
2026-04-13 10:00:00,METAR RJTT 131000Z 20010KT CAVOK 20/15 Q1015 NOSIG,1,0,0,9999,0,0,0,
2026-04-13 09:30:00,METAR RJTT 130930Z 19011KT CAVOK 20/14 Q1015 NOSIG,1,0,0,9999,0,0,0,
2026-04-13 09:00:00,METAR RJTT 130900Z 20011KT CAVOK 20/14 Q1014 NOSIG,1,0,0,9999,0,0,0,
2026-04-13 08:30:00,METAR RJTT 130830Z 19013KT 9999 FEW030 BKN150 20/15 Q1014 NOSIG,0,13,0,10000,0,0,0,
2026-04-13 08:00:00,METAR RJTT 130800Z 19012KT 9999 FEW030 BKN180 20/14 Q1014 NOSIG,0,12,0,10000,0,0,0,
2026-04-13 07:30:00,METAR RJTT 130730Z 19015KT 9999 FEW030 BKN170 21/14 Q1014 NOSIG,0,15,0,10000,0,0,0,
2026-04-13 07:00:00,METAR RJTT 130700Z 19014KT 9999 FEW030 BKN170 21/14 Q1014 NOSIG,0,14,0,10000,0,0,0,
2026-04-13 06:30:00,METAR RJTT 130630Z 20012KT 9999 FEW030 BKN/// 22/14 Q1014 NOSIG,0,12,0,10000,0,0,0,
2026-04-13 06:00:00,METAR RJTT 130600Z 19012KT 9999 FEW030 BKN/// 21/15 Q1014 NOSIG,0,12,0,10000,0,0,0,
2026-04-13 05:30:00,METAR RJTT 130530Z 20013KT 140V210 9999 FEW030 BKN/// 22/15 Q1014 NOSIG,0,13,0,10000,0,0,0,
2026-04-13 05:00:00,METAR RJTT 130500Z 20013KT 9999 FEW030 BKN/// 22/15 Q1015 NOSIG,0,13,0,10000,0,0,0,
2026-04-13 04:30:00,METAR RJTT 130430Z 20010KT 9999 FEW030 BKN/// 22/14 Q1015 NOSIG,0,10,0,10000,0,0,0,
2026-04-13 04:00:00,METAR RJTT 130400Z 19009KT 9999 FEW030 BKN/// 22/15 Q1015 NOSIG,0,9,0,10000,0,0,0,
2026-04-13 03:30:00,METAR RJTT 130330Z 19010KT 150V220 9999 FEW030 BKN/// 22/14 Q1015 NOSIG,0,10,0,10000,0,0,0,
2026-04-13 03:00:00,METAR RJTT 130300Z 18008KT 9999 FEW030 BKN/// 23/15 Q1015 NOSIG,0,8,0,10000,0,0,0,
2026-04-13 02:30:00,METAR RJTT 130230Z 17008KT 9999 FEW030 BKN/// 20/15 Q1016 NOSIG,0,8,0,10000,0,0,0,
2026-04-13 02:00:00,METAR RJTT 130200Z 19007KT 9999 FEW020 BKN/// 20/16 Q1016 NOSIG,0,7,0,10000,0,0,0,
2026-04-13 01:30:00,METAR RJTT 130130Z 07004KT 040V110 9999 FEW020 BKN/// 19/15 Q1017 NOSIG,0,4,0,10000,0,0,0,
2026-04-13 01:00:00,METAR RJTT 130100Z 05003KT 9999 FEW020 BKN/// 19/15 Q1016 NOSIG,0,3,0,10000,0,0,0,
2026-04-13 00:30:00,METAR RJTT 130030Z 03004KT 9999 FEW020 BKN/// 18/13 Q1017 BECMG TL0100 08005KT,0,4,0,10000,0,0,0,
2026-04-13 00:00:00,METAR RJTT 130000Z 05004KT 9999 FEW020 BKN/// 18/10 Q1017 BECMG TL0100 08005KT,0,4,0,10000,0,0,0,
2026-04-12 23:30:00,METAR RJTT 122330Z 06004KT 9999 FEW020 BKN/// 17/09 Q1017 NOSIG,0,4,0,10000,0,0,0,
2026-04-12 23:00:00,METAR RJTT 122300Z 04003KT 9999 FEW020 SCT030 BKN/// 17/07 Q1017 NOSIG,0,3,0,10000,0,0,0,
2026-04-12 22:30:00,METAR RJTT 122230Z 01003KT 9999 FEW020 SCT/// 17/07 Q1017 NOSIG,0,3,0,10000,0,0,0,
2026-04-12 22:00:00,METAR RJTT 122200Z 35005KT 9999 FEW015 BKN/// 17/07 Q1017 NOSIG,0,5,0,10000,0,0,0,
2026-04-12 21:30:00,METAR RJTT 122130Z 33005KT 9999 SCT015 16/09 Q1016 NOSIG,0,5,0,10000,0,0,0,
2026-04-12 21:00:00,METAR RJTT 122100Z 30005KT 9999 FEW015 15/09 Q1016 NOSIG,0,5,0,10000,0,0,0,
2026-04-12 20:30:00,METAR RJTT 122030Z 27006KT 230V310 9999 FEW015 SCT/// 15/10 Q1015 NOSIG,0,6,0,10000,0,0,0,
2026-04-12 20:00:00,METAR RJTT 122000Z 20005KT 150V240 9999 FEW015 SCT/// 16/15 Q1015 BECMG TL2030 28004KT,0,5,0,10000,0,0,0,
2026-04-12 19:30:00,METAR RJTT 121930Z 19003KT 140V240 9999 FEW012 SCT/// 15/14 Q1015 BECMG TL2000 28006KT,0,3,0,10000,0,0,0,
2026-04-12 19:00:00,METAR RJTT 121900Z 18006KT 9999 FEW017 SCT/// 16/15 Q1015 BECMG TL2000 28006KT,0,6,0,10000,0,0,0,
2026-04-12 18:30:00,METAR RJTT 121830Z 18007KT 9999 FEW017 SCT/// 15/14 Q1015 BECMG 28006KT,0,7,0,10000,0,0,0,
2026-04-12 18:00:00,METAR RJTT 121800Z 16006KT 9999 FEW017 SCT/// 15/14 Q1015 BECMG 28006KT,0,6,0,10000,0,0,0,
2026-04-12 17:30:00,METAR RJTT 121730Z 17005KT 100V220 9999 FEW020 BKN/// 17/15 Q1015 BECMG 28006KT,0,5,0,10000,0,0,0,
2026-04-12 17:00:00,METAR RJTT 121700Z 18005KT 9999 FEW015 BKN/// 17/15 Q1015 BECMG 28006KT,0,5,0,10000,0,0,0,
2026-04-12 16:30:00,METAR RJTT 121630Z 18006KT 9999 SCT020 17/15 Q1015 NOSIG,0,6,0,10000,0,0,0,
2026-04-12 16:00:00,METAR RJTT 121600Z 18007KT 9999 SCT020 BKN/// 17/15 Q1015 NOSIG,0,7,0,10000,0,0,0,
2026-04-12 15:00:00,METAR RJTT 121500Z 19008KT 9999 BKN020 18/15 Q1015 NOSIG,0,8,0,10000,0,0,0,
2026-04-12 14:30:00,METAR RJTT 121430Z 20009KT 9999 FEW020 BKN/// 18/14 Q1015 NOSIG,0,9,0,10000,0,0,0,
2026-04-12 14:00:00,METAR RJTT 121400Z 20011KT 9999 SCT020 BKN/// 18/14 Q1015 NOSIG,0,11,0,10000,0,0,0,
2026-04-12 13:30:00,METAR RJTT 121330Z 21011KT 9999 FEW020 BKN/// 17/14 Q1015 NOSIG,0,11,0,10000,0,0,0,
2026-04-12 13:00:00,METAR RJTT 121300Z 20011KT 9999 FEW020 BKN/// 18/14 Q1015 NOSIG,0,11,0,10000,0,0,0,
2026-04-12 12:30:00,METAR RJTT 121230Z 20010KT 9999 FEW025 BKN/// 18/14 Q1015 NOSIG,0,10,0,10000,0,0,0,
2026-04-12 12:00:00,METAR RJTT 121200Z 19008KT 9999 SCT025 BKN/// 18/14 Q1015 NOSIG,0,8,0,10000,0,0,0,
2026-04-12 11:30:00,METAR RJTT 121130Z 19010KT 9999 BKN025 18/14 Q1015 NOSIG,0,10,0,10000,0,0,0,
2026-04-12 11:00:00,METAR RJTT 121100Z 19010KT 9999 FEW030 BKN/// 18/13 Q1015 NOSIG,0,10,0,10000,0,0,0,
2026-04-12 10:30:00,METAR RJTT 121030Z 19011KT 9999 FEW030 BKN/// 18/13 Q1014 NOSIG,0,11,0,10000,0,0,0,
2026-04-12 10:00:00,METAR RJTT 121000Z 20011KT 9999 FEW025 BKN030 19/13 Q1014 NOSIG,0,11,0,10000,0,0,0,
2026-04-12 09:30:00,METAR RJTT 120930Z 20011KT 9999 SCT030 BKN040 19/13 Q1014 NOSIG,0,11,0,10000,0,0,0,
2026-04-12 09:00:00,METAR RJTT 120900Z 20013KT 9999 FEW030 BKN/// 19/13 Q1013 NOSIG,0,13,0,10000,0,0,0,
2026-04-12 08:30:00,METAR RJTT 120830Z 20012KT 9999 FEW030 SCT/// 19/13 Q1013 NOSIG,0,12,0,10000,0,0,0,
2026-04-12 08:00:00,METAR RJTT 120800Z 20015KT 9999 FEW030 20/12 Q1013 NOSIG,0,15,0,10000,0,0,0,
2026-04-12 07:30:00,METAR RJTT 120730Z 20015KT 9999 FEW030 20/12 Q1013 NOSIG,0,15,0,10000,0,0,0,
2026-04-12 07:00:00,METAR RJTT 120700Z 20016KT 9999 FEW030 21/10 Q1012 NOSIG,0,16,0,10000,0,0,0,
2026-04-12 06:30:00,METAR RJTT 120630Z 20014KT 9999 FEW030 21/08 Q1012 NOSIG,0,14,0,10000,0,0,0,
2026-04-12 06:00:00,METAR RJTT 120600Z 20014KT 9999 FEW030 22/08 Q1012 NOSIG,0,14,0,10000,0,0,0,
2026-04-12 05:30:00,METAR RJTT 120530Z 19014KT 9999 FEW030 BKN/// 22/07 Q1012 NOSIG,0,14,0,10000,0,0,0,
2026-04-12 05:00:00,METAR RJTT 120500Z 19012KT 9999 FEW030 BKN/// 22/05 Q1012 NOSIG,0,12,0,10000,0,0,0,
2026-04-12 04:30:00,METAR RJTT 120430Z 18008KT 9999 FEW030 BKN/// 22/04 Q1012 NOSIG,0,8,0,10000,0,0,0,
2026-04-12 04:00:00,METAR RJTT 120400Z 18010KT 9999 FEW030 BKN/// 21/03 Q1012 NOSIG,0,10,0,10000,0,0,0,
2026-04-12 03:30:00,METAR RJTT 120330Z 18009KT 130V220 9999 FEW030 BKN/// 20/05 Q1012 NOSIG,0,9,0,10000,0,0,0,
2026-04-12 03:00:00,METAR RJTT 120300Z 17010KT 9999 FEW030 BKN/// 20/03 Q1012 NOSIG,0,10,0,10000,0,0,0,
2026-04-12 02:30:00,METAR RJTT 120230Z 17009KT 140V200 CAVOK 19/08 Q1013 NOSIG,1,0,0,9999,0,0,0,
2026-04-12 02:00:00,METAR RJTT 120200Z 12007KT CAVOK 19/07 Q1013 BECMG 18010KT,1,0,0,9999,0,0,0,
2026-04-12 01:30:00,METAR RJTT 120130Z 10005KT CAVOK 18/06 Q1013 NOSIG,1,0,0,9999,0,0,0,
2026-04-12 01:00:00,METAR RJTT 120100Z 09003KT CAVOK 17/05 Q1013 NOSIG,1,0,0,9999,0,0,0,
2026-04-12 00:30:00,METAR RJTT 120030Z 04004KT 010V090 CAVOK 17/04 Q1013 NOSIG,1,0,0,9999,0,0,0,
2026-04-12 00:00:00,METAR RJTT 120000Z 35005KT CAVOK 17/05 Q1013 NOSIG,1,0,0,9999,0,0,0,
2026-04-11 23:30:00,METAR RJTT 112330Z 36006KT 320V020 CAVOK 16/04 Q1013 NOSIG,1,0,0,9999,0,0,0,
2026-04-11 23:00:00,METAR RJTT 112300Z 01011KT CAVOK 16/04 Q1013 NOSIG,1,0,0,9999,0,0,0,
2026-04-11 22:30:00,METAR RJTT 112230Z 35013KT 9999 FEW030 BKN/// 16/05 Q1013 NOSIG,0,13,0,10000,0,0,0,
2026-04-11 22:00:00,METAR RJTT 112200Z 35015KT 9999 FEW030 BKN/// 16/04 Q1012 NOSIG,0,15,0,10000,0,0,0,
2026-04-11 21:30:00,METAR RJTT 112130Z 36015KT 9999 FEW030 BKN/// 16/03 Q1011 NOSIG,0,15,0,10000,0,0,0,
2026-04-11 21:00:00,METAR RJTT 112100Z 34010KT CAVOK 16/03 Q1011 NOSIG,1,0,0,9999,0,0,0,
2026-04-11 20:30:00,METAR RJTT 112030Z 36009KT CAVOK 16/04 Q1010 NOSIG,1,0,0,9999,0,0,0,
2026-04-11 20:00:00,METAR RJTT 112000Z 34012KT CAVOK 16/03 Q1009 NOSIG,1,0,0,9999,0,0,0,
2026-04-11 19:30:00,METAR RJTT 111930Z 35013KT CAVOK 16/04 Q1009 NOSIG,1,0,0,9999,0,0,0,
2026-04-11 19:00:00,METAR RJTT 111900Z 36011KT CAVOK 16/05 Q1008 NOSIG,1,0,0,9999,0,0,0,
2026-04-11 18:30:00,METAR RJTT 111830Z 36011KT CAVOK 17/04 Q1008 NOSIG,1,0,0,9999,0,0,0,
2026-04-11 18:00:00,METAR RJTT 111800Z 35013KT CAVOK 17/05 Q1008 NOSIG,1,0,0,9999,0,0,0,
2026-04-11 17:30:00,METAR RJTT 111730Z 35012KT CAVOK 17/05 Q1007 NOSIG,1,0,0,9999,0,0,0,
2026-04-11 17:00:00,METAR RJTT 111700Z 01009KT CAVOK 17/05 Q1007 NOSIG,1,0,0,9999,0,0,0,
2026-04-11 16:30:00,METAR RJTT 111630Z 36013KT CAVOK 18/06 Q1007 NOSIG,1,0,0,9999,0,0,0,
2026-04-11 16:00:00,METAR RJTT 111600Z 35017KT CAVOK 18/07 Q1006 NOSIG,1,0,0,9999,0,0,0,
2026-04-11 15:30:00,METAR RJTT 111530Z 36018KT CAVOK 18/09 Q1006 NOSIG,1,0,0,9999,0,0,0,
2026-04-11 15:00:00,METAR RJTT 111500Z 01011KT CAVOK 18/13 Q1005 NOSIG,1,0,0,9999,0,0,0,
2026-04-11 14:30:00,METAR RJTT 111430Z 01012KT CAVOK 18/14 Q1005 NOSIG,1,0,0,9999,0,0,0,
2026-04-11 14:00:00,METAR RJTT 111400Z 36015KT CAVOK 18/15 Q1005 NOSIG,1,0,0,9999,0,0,0,
2026-04-11 13:30:00,METAR RJTT 111330Z 01011KT CAVOK 19/16 Q1004 NOSIG,1,0,0,9999,0,0,0,
2026-04-11 13:00:00,METAR RJTT 111300Z 03009KT 9999 FEW030 SCT/// 19/16 Q1004 NOSIG,0,9,0,10000,0,0,0,
2026-04-11 12:30:00,METAR RJTT 111230Z 02006KT 9999 FEW030 SCT/// 19/17 Q1003 NOSIG,0,6,0,10000,0,0,0,
2026-04-11 12:00:00,METAR RJTT 111200Z 04004KT 9999 FEW030 SCT/// 18/15 Q1003 NOSIG,0,4,0,10000,0,0,0,
2026-04-11 11:30:00,METAR RJTT 111130Z VRB02KT 9999 FEW030 BKN/// 19/13 Q1003 NOSIG,0,2,0,10000,0,0,0,
2026-04-11 11:00:00,METAR RJTT 111100Z 04005KT 010V070 CAVOK 18/15 Q1002 NOSIG,1,0,0,9999,0,0,0,
2026-04-11 10:30:00,METAR RJTT 111030Z 20006KT 160V230 9999 FEW030 20/11 Q1002 BECMG TL1110 03006KT,0,6,0,10000,0,0,0,
2026-04-11 10:00:00,METAR RJTT 111000Z 19006KT 150V240 9999 FEW030 20/11 Q1001 BECMG TL1110 05006KT,0,6,0,10000,0,0,0,
2026-04-11 09:30:00,METAR RJTT 110930Z 18007KT 9999 FEW030 21/12 Q1001 BECMG TL1100 05006KT,0,7,0,10000,0,0,0,
2026-04-11 09:00:00,METAR RJTT 110900Z 17008KT 140V200 9999 FEW030 19/14 Q1000 BECMG FM0940 TL1040 05006KT,0,8,0,10000,0,0,0,
2026-04-11 08:30:00,METAR RJTT 110830Z 13005KT 9999 FEW030 20/16 Q1000 BECMG FM0920 TL1020 05008KT,0,5,0,10000,0,0,0,
2026-04-11 08:00:00,METAR RJTT 110800Z 12006KT 9999 FEW030 20/14 Q1000 BECMG FM0840 TL0940 05008KT,0,6,0,10000,0,0,0,
2026-04-11 07:30:00,METAR RJTT 110730Z 13005KT 090V180 9999 FEW030 21/14 Q1000 NOSIG,0,5,0,10000,0,0,0,
2026-04-11 07:00:00,METAR RJTT 110700Z 19012KT 9999 FEW030 24/10 Q0999 NOSIG,0,12,0,10000,0,0,0,
2026-04-11 06:30:00,METAR RJTT 110630Z 19012KT 9999 FEW030 25/12 Q0999 NOSIG,0,12,0,10000,0,0,0,
2026-04-11 06:00:00,METAR RJTT 110600Z 19014KT 160V230 9999 FEW030 25/12 Q0999 NOSIG,0,14,0,10000,0,0,0,
2026-04-11 05:30:00,METAR RJTT 110530Z 19012KT 9999 FEW030 25/14 Q0999 NOSIG,0,12,0,10000,0,0,0,
2026-04-11 05:00:00,METAR RJTT 110500Z 12004KT 080V200 9999 FEW030 25/16 Q0999 NOSIG,0,4,0,10000,0,0,0,
2026-04-11 04:30:00,METAR RJTT 110430Z 12003KT 060V170 9999 FEW030 24/16 Q0999 NOSIG,0,3,0,10000,0,0,0,
2026-04-11 04:00:00,METAR RJTT 110400Z 14003KT 080V230 9999 FEW030 24/16 Q1000 NOSIG,0,3,0,10000,0,0,0,
2026-04-11 03:30:00,METAR RJTT 110330Z 15004KT 110V190 9999 FEW030 24/16 Q1000 NOSIG,0,4,0,10000,0,0,0,
2026-04-11 03:00:00,METAR RJTT 110300Z 13004KT 060V220 9999 FEW030 23/16 Q1000 NOSIG,0,4,0,10000,0,0,0,
2026-04-11 02:30:00,METAR RJTT 110230Z 12006KT 9999 FEW030 22/18 Q1000 NOSIG,0,6,0,10000,0,0,0,
2026-04-11 02:00:00,METAR RJTT 110200Z 12004KT CAVOK 21/17 Q1000 NOSIG,1,0,0,9999,0,0,0,
2026-04-11 01:30:00,METAR RJTT 110130Z 09004KT CAVOK 21/17 Q1000 NOSIG,1,0,0,9999,0,0,0,
2026-04-11 01:00:00,METAR RJTT 110100Z 09004KT CAVOK 20/17 Q1000 NOSIG,1,0,0,9999,0,0,0,
2026-04-11 00:30:00,METAR RJTT 110030Z 04005KT 9000 NSC 20/17 Q1000 BECMG TL0130 08006KT,0,5,0,9000,0,0,0,
2026-04-11 00:00:00,METAR RJTT 110000Z 06003KT 020V090 9000 NSC 20/16 Q1000 NOSIG,0,3,0,9000,0,0,0,
2026-04-10 23:30:00,METAR RJTT 102330Z 03003KT 360V070 8000 NSC 19/16 Q1000 NOSIG,0,3,0,8000,0,0,0,
2026-04-10 23:00:00,METAR RJTT 102300Z 36005KT 8000 NSC 18/16 Q1000 NOSIG,0,5,0,8000,0,0,0,
2026-04-10 22:30:00,METAR RJTT 102230Z 01005KT 8000 NSC 18/15 Q1000 NOSIG,0,5,0,8000,0,0,0,
2026-04-10 22:00:00,METAR RJTT 102200Z 01005KT 8000 NSC 17/15 Q0999 NOSIG,0,5,0,8000,0,0,0,
2026-04-10 21:30:00,METAR RJTT 102130Z 03006KT 9000 NSC 16/15 Q0999 NOSIG,0,6,0,9000,0,0,0,
2026-04-10 21:00:00,METAR RJTT 102100Z 06004KT 8000 NSC 15/15 Q0998 TEMPO 4000 BR,0,4,0,8000,0,0,1,BR
2026-04-10 20:30:00,METAR RJTT 102030Z VRB02KT 8000 FEW012 16/15 Q0998 TEMPO 4000 BR,0,2,0,8000,0,0,1,BR
2026-04-10 20:00:00,METAR RJTT 102000Z VRB02KT CAVOK 15/15 Q0998 TEMPO 4000 BR,1,0,0,9999,0,0,0,
2026-04-10 19:30:00,METAR RJTT 101930Z 35007KT CAVOK 16/15 Q0998 TEMPO 4000 BR,1,0,0,9999,0,0,0,
2026-04-10 19:00:00,METAR RJTT 101900Z 23008KT 210V280 CAVOK 16/15 Q0998 BECMG 30004KT,1,0,0,9999,0,0,0,
2026-04-10 18:30:00,METAR RJTT 101830Z 23009KT CAVOK 18/16 Q0997 BECMG 26006KT,1,0,0,9999,0,0,0,
2026-04-10 18:00:00,METAR RJTT 101800Z 22010KT 9999 FEW015 18/17 Q0998 BECMG 26006KT,0,10,0,10000,0,0,0,
2026-04-10 17:30:00,METAR RJTT 101730Z 22014KT CAVOK 18/17 Q0998 BECMG 26006KT,1,0,0,9999,0,0,0,
2026-04-10 17:00:00,METAR RJTT 101700Z 20017KT CAVOK 19/17 Q0998 NOSIG,1,0,0,9999,0,0,0,
2026-04-10 16:30:00,METAR RJTT 101630Z 20017KT CAVOK 19/17 Q0997 NOSIG,1,0,0,9999,0,0,0,
2026-04-10 16:00:00,METAR RJTT 101600Z 20020KT CAVOK 19/17 Q0997 NOSIG,1,0,0,9999,0,0,0,
2026-04-10 15:30:00,METAR RJTT 101530Z 21018KT CAVOK 19/17 Q0998 NOSIG,1,0,0,9999,0,0,0,
2026-04-10 15:00:00,METAR RJTT 101500Z 21012KT 9999 FEW030 BKN/// 19/17 Q0998 NOSIG,0,12,0,10000,0,0,0,
2026-04-10 14:30:00,METAR RJTT 101430Z 20016KT CAVOK 20/18 Q0998 NOSIG,1,0,0,9999,0,0,0,
2026-04-10 14:00:00,METAR RJTT 101400Z 21020KT 9999 FEW020 SCT090 20/18 Q0998 NOSIG,0,20,0,10000,0,0,0,
2026-04-10 13:30:00,METAR RJTT 101330Z 21017KT 9999 FEW015 SCT100 BKN/// 20/18 Q0998 NOSIG,0,17,0,10000,0,0,0,
2026-04-10 13:00:00,METAR RJTT 101300Z 22024KT 9999 FEW010 SCT170 BKN/// 20/18 Q0998 NOSIG,0,24,0,10000,0,0,0,
2026-04-10 12:30:00,METAR RJTT 101230Z 21024KT 9999 FEW010 SCT180 BKN/// 20/19 Q0998 NOSIG,0,24,0,10000,0,0,0,
2026-04-10 12:00:00,METAR RJTT 101200Z 21020KT 9999 FEW005 BKN180 20/19 Q0999 NOSIG,0,20,0,10000,0,0,0,
2026-04-10 11:30:00,METAR RJTT 101130Z 22021KT 9999 FEW005 BKN150 20/19 Q0999 NOSIG,0,21,0,10000,0,0,0,
2026-04-10 11:00:00,METAR RJTT 101100Z 20023KT 7000 -SHRA FEW005 BKN130 20/19 Q0998 TEMPO 22022G32KT 4000 -SHRA BR,0,23,0,7000,0,0,1,"BR,RA"
2026-04-10 10:30:00,METAR RJTT 101030Z 19023KT 3000 R16R/P2000N R22/P2000N R16L/P2000N R23/1400VP2000U -SHRA BR FEW004 BKN005 BKN100 20/19 Q0998 TEMPO SHRA BR,0,23,0,3000,0,0,1,"BR,RA,SH"
2026-04-10 10:00:00,METAR RJTT 101000Z 20024KT 3000 R16R/1500VP2000N R22/P2000N R16L/2000N R23/P2000N +SHRA FEW004 BKN006 20/19 Q0999 TEMPO 22025G35KT,0,24,0,3000,0,0,0,RA
2026-04-10 09:30:00,METAR RJTT 100930Z 21017KT 3800 R16R/P2000N R22/P2000N R16L/P2000N R23/P2000N +SHRA BR FEW005 BKN008 20/19 Q0999 TEMPO 22022G32KT 3000 SHRA BR,0,17,0,3800,0,0,1,"BR,RA,SH"
2026-04-10 09:00:00,METAR RJTT 100900Z 21021KT 4000 R16R/P2000N R22/P2000N R16L/P2000N R23/P2000N +SHRA BR FEW005 BKN008 20/19 Q0999 TEMPO 22025G35KT 3000 SHRA BR,0,21,0,4000,0,0,1,"BR,RA,SH"
2026-04-10 08:30:00,METAR RJTT 100830Z 22020KT 9999 R16R/P2000N R22/P2000N R16L/P2000N R23/2000N SHRA FEW005 BKN009 19/19 Q0999 TEMPO 22025G35KT 3000 SHRA BR,0,20,0,10000,0,0,1,"BR,RA,SH"
2026-04-10 08:00:00,METAR RJTT 100800Z 21026G39KT 4000 -SHRA BR FEW005 BKN006 19/18 Q1000 TEMPO 3000 SHRA BR,0,26,1,4000,0,0,1,"BR,RA,SH"
2026-04-10 07:30:00,METAR RJTT 100730Z 21023KT 9999 -SHRA FEW005 BKN009 20/18 Q1000 TEMPO 22025G35KT 3000 SHRA BR,0,23,0,10000,0,0,1,"BR,RA,SH"
2026-04-10 07:00:00,METAR RJTT 100700Z 20021KT 9999 -SHRA FEW005 BKN009 BKN012 19/18 Q0999 TEMPO 20025G35KT 3000 SHRA BR FEW003 BKN005,0,21,0,10000,0,0,1,"BR,RA,SH"
2026-04-10 06:30:00,METAR RJTT 100630Z 19017KT 5000 -SHRA BR FEW003 BKN009 19/18 Q1000 TEMPO 19025G35KT 3000 SHRA BR FEW003 BKN005,0,17,0,5000,0,0,1,"BR,RA,SH"
2026-04-10 06:00:00,METAR RJTT 100600Z 19020KT 3000 -SHRA BR FEW003 BKN006 BKN010 18/17 Q1001 TEMPO FM0700 19025G35KT SHRA BR,0,20,0,3000,0,0,1,"BR,RA,SH"
2026-04-10 05:30:00,METAR RJTT 100530Z 19021KT 3500 -SHRA BR FEW003 BKN010 BKN020 18/17 Q1001 TEMPO 20024G34KT FEW005 BKN008,0,21,0,3500,0,0,1,"BR,RA"
2026-04-10 05:00:00,METAR RJTT 100500Z 20022KT 8000 -SHRA BR FEW007 SCT013 BKN020 19/18 Q1002 TEMPO 20024G34KT 4000 -SHRA BR FEW005 BKN008,0,22,0,8000,0,0,1,"BR,RA"
2026-04-10 04:30:00,METAR RJTT 100430Z 20022KT 9999 -SHRA FEW009 BKN013 BKN040 19/17 Q1003 TEMPO 21024G34KT 4000 -SHRA BR,0,22,0,10000,0,0,1,"BR,RA"
2026-04-10 04:00:00,METAR RJTT 100400Z 20023KT 9999 -SHRA FEW010 SCT015 BKN040 19/17 Q1004 TEMPO 21024G34KT 4000 -RA BR FEW008 BKN012,0,23,0,10000,0,0,1,"-RA,BR,RA"
2026-04-10 03:30:00,METAR RJTT 100330Z 20023G35KT 9999 -RA FEW012 SCT030 BKN120 19/17 Q1004 TEMPO 4000 -RA BR,0,23,1,10000,0,0,1,"-RA,BR"
2026-04-10 03:00:00,METAR RJTT 100300Z 21023KT 9999 -RA SCT012 BKN015 BKN100 18/17 Q1005 TEMPO 21020G30KT 4000 -RA BR FEW006 BKN012,0,23,0,10000,0,0,1,"-RA,BR"
2026-04-10 02:30:00,METAR RJTT 100230Z 21023G33KT 9999 -RA FEW008 BKN012 BKN100 18/17 Q1005 TEMPO 4000 -RA BR FEW006 BKN008,0,23,1,10000,0,0,1,"-RA,BR"
2026-04-10 02:00:00,METAR RJTT 100200Z 20019G29KT 8000 -RA FEW008 BKN012 BKN020 18/17 Q1006 TEMPO 4000 -RA BR FEW006 BKN008,0,19,1,8000,0,0,1,"-RA,BR"
2026-04-10 01:30:00,METAR RJTT 100130Z 20018KT 5000 -RA BR FEW006 BKN012 BKN025 18/17 Q1006 TEMPO 21024G34KT 4000 -RA BR,0,18,0,5000,0,0,1,"-RA,BR"
2026-04-10 01:00:00,METAR RJTT 100100Z 21018G30KT 7000 -RA SCT010 BKN015 18/16 Q1007 TEMPO 4000 -RA BR FEW008 BKN012,0,18,1,7000,0,0,1,"-RA,BR"
2026-04-10 00:30:00,METAR RJTT 100030Z 21023KT 160V230 9999 -RA FEW015 BKN020 BKN030 19/16 Q1007 TEMPO 21024G34KT 4000 -RA BR FEW008 BKN012,0,23,0,10000,0,0,1,"-RA,BR"
2026-04-10 00:00:00,METAR RJTT 100000Z 20016KT 9999 -RA FEW015 BKN020 BKN030 18/16 Q1008 TEMPO 20025G35KT 4000 -RA BR FEW008 BKN012,0,16,0,10000,0,0,1,"-RA,BR"
2026-04-09 23:30:00,METAR RJTT 092330Z 20019KT 6000 -RA FEW015 BKN020 BKN030 18/16 Q1007 TEMPO 20026G36KT 4000 -RA BR FEW008 BKN012,0,19,0,6000,0,0,1,"-RA,BR"
2026-04-09 23:00:00,METAR RJTT 092300Z 20018KT 9999 -RA FEW015 BKN020 BKN040 18/16 Q1008 TEMPO 20024G34KT,0,18,0,10000,0,0,0,-RA
2026-04-09 22:30:00,METAR RJTT 092230Z 20015KT 9999 FEW015 BKN020 18/16 Q1008 TEMPO 20022G32KT,0,15,0,10000,0,0,0,
2026-04-09 22:00:00,METAR RJTT 092200Z 19014KT 9999 -RA FEW015 BKN020 18/16 Q1008 TEMPO 20022G32KT,0,14,0,10000,0,0,0,-RA
2026-04-09 21:30:00,METAR RJTT 092130Z 19017G27KT 9999 -RA FEW015 BKN020 BKN060 18/16 Q1009 NOSIG,0,17,1,10000,0,0,0,-RA
2026-04-09 21:00:00,METAR RJTT 092100Z 20017KT 9999 FEW015 BKN020 BKN060 18/16 Q1009 TEMPO 20022G32KT,0,17,0,10000,0,0,0,
2026-04-09 20:30:00,METAR RJTT 092030Z 19015KT 9999 FEW010 BKN018 BKN060 17/16 Q1008 NOSIG,0,15,0,10000,0,0,0,
2026-04-09 20:00:00,METAR RJTT 092000Z 20014KT 9999 -RA FEW010 BKN018 BKN045 17/16 Q1008 NOSIG,0,14,0,10000,0,0,0,-RA
2026-04-09 19:30:00,METAR RJTT 091930Z 20017KT 9999 -RA FEW008 BKN015 BKN020 17/16 Q1009 NOSIG,0,17,0,10000,0,0,0,-RA
2026-04-09 19:00:00,METAR RJTT 091900Z 19013KT 6000 -RA FEW008 SCT020 BKN035 17/16 Q1009 NOSIG,0,13,0,6000,0,0,0,-RA
2026-04-09 18:30:00,METAR RJTT 091830Z 20014KT 9999 -RA FEW008 SCT020 BKN040 17/15 Q1010 NOSIG,0,14,0,10000,0,0,0,-RA
2026-04-09 18:00:00,METAR RJTT 091800Z 20015KT 8000 -RA FEW008 SCT015 BKN050 16/15 Q1010 NOSIG,0,15,0,8000,0,0,0,-RA
2026-04-09 17:30:00,METAR RJTT 091730Z 20012KT 3500 -RA BR FEW010 SCT020 BKN030 16/15 Q1010 NOSIG,0,12,0,3500,0,0,1,"-RA,BR"
2026-04-09 17:00:00,METAR RJTT 091700Z 20012KT 9999 SCT020 BKN050 17/14 Q1011 NOSIG,0,12,0,10000,0,0,0,
2026-04-09 16:30:00,METAR RJTT 091630Z 20015KT 9999 SCT020 BKN060 17/14 Q1011 NOSIG,0,15,0,10000,0,0,0,
2026-04-09 16:00:00,METAR RJTT 091600Z 20015KT 9999 -RA FEW020 SCT050 BKN150 17/14 Q1012 NOSIG,0,15,0,10000,0,0,0,-RA
2026-04-09 15:30:00,METAR RJTT 091530Z 19015KT 9999 -RA FEW020 SCT025 BKN040 16/14 Q1012 NOSIG,0,15,0,10000,0,0,0,-RA
2026-04-09 15:00:00,METAR RJTT 091500Z 20016KT 9999 -RA FEW020 BKN045 BKN150 17/13 Q1013 NOSIG,0,16,0,10000,0,0,0,-RA
2026-04-09 14:30:00,METAR RJTT 091430Z 19013KT 9999 FEW020 SCT030 BKN050 17/13 Q1014 NOSIG,0,13,0,10000,0,0,0,
2026-04-09 14:00:00,METAR RJTT 091400Z 21018KT 9999 -RA FEW020 BKN040 17/13 Q1014 NOSIG,0,18,0,10000,0,0,0,-RA
2026-04-09 13:30:00,METAR RJTT 091330Z 20013KT 9999 -RA FEW030 BKN050 BKN130 17/13 Q1014 NOSIG,0,13,0,10000,0,0,0,-RA
2026-04-09 13:00:00,METAR RJTT 091300Z 20012KT 9999 FEW030 BKN160 17/13 Q1014 NOSIG,0,12,0,10000,0,0,0,
2026-04-09 12:30:00,METAR RJTT 091230Z 20013KT 9999 FEW030 BKN150 17/13 Q1014 NOSIG,0,13,0,10000,0,0,0,
2026-04-09 12:00:00,METAR RJTT 091200Z 20016KT 9999 FEW030 BKN150 17/12 Q1015 NOSIG,0,16,0,10000,0,0,0,
2026-04-09 11:30:00,METAR RJTT 091130Z 20014KT 9999 FEW030 BKN150 BKN/// 17/12 Q1015 NOSIG,0,14,0,10000,0,0,0,
2026-04-09 11:00:00,METAR RJTT 091100Z 20016KT 9999 FEW030 SCT160 BKN/// 17/12 Q1015 NOSIG,0,16,0,10000,0,0,0,
2026-04-09 10:30:00,METAR RJTT 091030Z 20020KT 9999 FEW030 BKN140 17/11 Q1015 NOSIG,0,20,0,10000,0,0,0,
2026-04-09 10:00:00,METAR RJTT 091000Z 20016KT 9999 FEW030 BKN130 17/11 Q1015 NOSIG,0,16,0,10000,0,0,0,
2026-04-09 09:30:00,METAR RJTT 090930Z 19017KT 9999 FEW030 BKN140 17/11 Q1015 NOSIG,0,17,0,10000,0,0,0,
2026-04-09 09:00:00,METAR RJTT 090900Z 20014KT 9999 FEW030 BKN140 17/10 Q1016 NOSIG,0,14,0,10000,0,0,0,
2026-04-09 08:30:00,METAR RJTT 090830Z 19016KT 9999 FEW030 BKN140 17/11 Q1016 NOSIG,0,16,0,10000,0,0,0,
2026-04-09 08:00:00,METAR RJTT 090800Z 19014KT 9999 FEW030 BKN160 17/12 Q1016 TEMPO TL0830 20022G32KT,0,14,0,10000,0,0,0,
2026-04-09 07:30:00,METAR RJTT 090730Z 19017KT 9999 FEW030 BKN170 17/12 Q1016 TEMPO 20022G32KT,0,17,0,10000,0,0,0,
2026-04-09 07:00:00,METAR RJTT 090700Z 18020KT 9999 FEW030 BKN160 17/12 Q1016 TEMPO 20025G35KT,0,20,0,10000,0,0,0,
2026-04-09 06:30:00,METAR RJTT 090630Z 18018KT 9999 FEW030 BKN180 18/12 Q1016 TEMPO 20025G35KT,0,18,0,10000,0,0,0,
2026-04-09 06:00:00,METAR RJTT 090600Z 18019KT 9999 FEW030 BKN180 18/11 Q1017 TEMPO 20025G35KT,0,19,0,10000,0,0,0,
2026-04-09 05:30:00,METAR RJTT 090530Z 18014KT 9999 FEW030 BKN/// 18/10 Q1017 TEMPO 20022G34KT,0,14,0,10000,0,0,0,
2026-04-09 05:00:00,METAR RJTT 090500Z 18015KT 9999 FEW020 BKN/// 19/10 Q1018 TEMPO 20022G34KT,0,15,0,10000,0,0,0,
2026-04-09 04:30:00,METAR RJTT 090430Z 20019KT 9999 FEW030 SCT040 BKN050 19/10 Q1018 TEMPO 20025G35KT,0,19,0,10000,0,0,0,
2026-04-09 04:00:00,METAR RJTT 090400Z 19017KT 9999 FEW030 BKN040 BKN050 19/09 Q1018 TEMPO 20025G35KT,0,17,0,10000,0,0,0,
2026-04-09 03:30:00,METAR RJTT 090330Z 19015KT 9999 FEW025 BKN040 BKN/// 19/09 Q1018 TEMPO 20024G34KT,0,15,0,10000,0,0,0,
2026-04-09 03:00:00,METAR RJTT 090300Z 18014KT 9999 FEW025 BKN040 BKN/// 19/09 Q1019 TEMPO FM0400 20022G34KT,0,14,0,10000,0,0,0,
2026-04-09 02:30:00,METAR RJTT 090230Z 19015KT 9999 FEW025 BKN040 BKN/// 19/10 Q1019 NOSIG,0,15,0,10000,0,0,0,
2026-04-09 02:00:00,METAR RJTT 090200Z 18014KT 9999 FEW025 SCT040 BKN/// 19/10 Q1020 NOSIG,0,14,0,10000,0,0,0,
2026-04-09 01:30:00,METAR RJTT 090130Z 18012KT 9999 FEW025 BKN045 BKN/// 18/09 Q1021 NOSIG,0,12,0,10000,0,0,0,
2026-04-09 01:00:00,METAR RJTT 090100Z 18012KT 9999 FEW025 SCT045 BKN/// 18/09 Q1021 NOSIG,0,12,0,10000,0,0,0,
2026-04-09 00:30:00,METAR RJTT 090030Z 18011KT 9999 FEW025 BKN045 18/10 Q1021 NOSIG,0,11,0,10000,0,0,0,
2026-04-09 00:00:00,METAR RJTT 090000Z 18010KT 9999 BKN045 17/09 Q1021 NOSIG,0,10,0,10000,0,0,0,
2026-04-08 23:30:00,METAR RJTT 082330Z 18010KT 9999 BKN045 17/09 Q1021 NOSIG,0,10,0,10000,0,0,0,
2026-04-08 23:00:00,METAR RJTT 082300Z 17009KT 9999 FEW040 BKN050 16/10 Q1021 NOSIG,0,9,0,10000,0,0,0,
2026-04-08 22:30:00,METAR RJTT 082230Z 17009KT 9999 SCT050 16/09 Q1021 NOSIG,0,9,0,10000,0,0,0,
2026-04-08 22:00:00,METAR RJTT 082200Z 19007KT 9999 FEW050 15/08 Q1021 NOSIG,0,7,0,10000,0,0,0,
2026-04-08 21:30:00,METAR RJTT 082130Z 19007KT 9999 FEW050 14/08 Q1021 NOSIG,0,7,0,10000,0,0,0,
2026-04-08 21:00:00,METAR RJTT 082100Z 20007KT 170V300 9999 SCT050 12/07 Q1021 NOSIG,0,7,0,10000,0,0,0,
2026-04-08 20:30:00,METAR RJTT 082030Z 20006KT 160V230 9999 FEW030 13/07 Q1021 NOSIG,0,6,0,10000,0,0,0,
2026-04-08 20:00:00,METAR RJTT 082000Z 22006KT 9999 FEW030 12/07 Q1021 NOSIG,0,6,0,10000,0,0,0,
2026-04-08 19:30:00,METAR RJTT 081930Z 22006KT 160V270 9999 FEW030 12/07 Q1021 NOSIG,0,6,0,10000,0,0,0,
2026-04-08 19:00:00,METAR RJTT 081900Z 21006KT 9999 FEW030 12/07 Q1021 NOSIG,0,6,0,10000,0,0,0,
2026-04-08 18:30:00,METAR RJTT 081830Z 21008KT 9999 FEW030 13/07 Q1021 NOSIG,0,8,0,10000,0,0,0,
2026-04-08 18:00:00,METAR RJTT 081800Z 22009KT 9999 FEW030 14/07 Q1021 NOSIG,0,9,0,10000,0,0,0,
2026-04-08 17:30:00,METAR RJTT 081730Z 20011KT 9999 FEW030 13/07 Q1021 NOSIG,0,11,0,10000,0,0,0,
2026-04-08 17:00:00,METAR RJTT 081700Z 20011KT 9999 FEW030 13/07 Q1021 NOSIG,0,11,0,10000,0,0,0,
2026-04-08 16:30:00,METAR RJTT 081630Z 20011KT 9999 FEW030 14/07 Q1020 NOSIG,0,11,0,10000,0,0,0,
2026-04-08 16:00:00,METAR RJTT 081600Z 19012KT 9999 FEW030 14/07 Q1021 NOSIG,0,12,0,10000,0,0,0,
2026-04-08 15:30:00,METAR RJTT 081530Z 19012KT 9999 FEW030 14/06 Q1021 NOSIG,0,12,0,10000,0,0,0,
2026-04-08 15:00:00,METAR RJTT 081500Z 19011KT 9999 FEW030 14/06 Q1021 NOSIG,0,11,0,10000,0,0,0,
2026-04-08 14:30:00,METAR RJTT 081430Z 17012KT CAVOK 14/06 Q1021 NOSIG,1,0,0,9999,0,0,0,
2026-04-08 14:00:00,METAR RJTT 081400Z 17015KT CAVOK 13/06 Q1021 NOSIG,1,0,0,9999,0,0,0,
2026-04-08 13:30:00,METAR RJTT 081330Z 17016KT CAVOK 13/05 Q1021 NOSIG,1,0,0,9999,0,0,0,
2026-04-08 13:00:00,METAR RJTT 081300Z 17016KT CAVOK 13/04 Q1021 NOSIG,1,0,0,9999,0,0,0,
2026-04-08 12:30:00,METAR RJTT 081230Z 16017KT CAVOK 13/04 Q1021 NOSIG,1,0,0,9999,0,0,0,
2026-04-08 12:00:00,METAR RJTT 081200Z 17015KT CAVOK 13/04 Q1021 NOSIG,1,0,0,9999,0,0,0,
2026-04-08 11:30:00,METAR RJTT 081130Z 17015KT CAVOK 13/04 Q1021 NOSIG,1,0,0,9999,0,0,0,
2026-04-08 11:00:00,METAR RJTT 081100Z 18016KT CAVOK 13/04 Q1021 NOSIG,1,0,0,9999,0,0,0,
2026-04-08 10:30:00,METAR RJTT 081030Z 18015KT 9999 FEW030 13/05 Q1020 NOSIG,0,15,0,10000,0,0,0,
2026-04-08 10:00:00,METAR RJTT 081000Z 19017KT 9999 FEW030 14/04 Q1020 NOSIG,0,17,0,10000,0,0,0,
2026-04-08 09:30:00,METAR RJTT 080930Z 20017KT 9999 FEW030 14/04 Q1019 NOSIG,0,17,0,10000,0,0,0,
2026-04-08 09:00:00,METAR RJTT 080900Z 20017KT 9999 FEW030 14/02 Q1019 NOSIG,0,17,0,10000,0,0,0,
2026-04-08 08:30:00,METAR RJTT 080830Z 20017KT 9999 FEW030 15/02 Q1019 NOSIG,0,17,0,10000,0,0,0,
2026-04-08 08:00:00,METAR RJTT 080800Z 20017KT 9999 FEW030 16/02 Q1018 NOSIG,0,17,0,10000,0,0,0,
2026-04-08 07:30:00,METAR RJTT 080730Z 18014KT 110V210 9999 FEW030 17/M04 Q1018 NOSIG,0,14,0,10000,0,0,0,
2026-04-08 07:00:00,METAR RJTT 080700Z 16011KT 9999 FEW030 17/M06 Q1018 NOSIG,0,11,0,10000,0,0,0,
2026-04-08 06:30:00,METAR RJTT 080630Z 14012KT 9999 FEW030 17/00 Q1017 NOSIG,0,12,0,10000,0,0,0,
2026-04-08 06:00:00,METAR RJTT 080600Z 13012KT 9999 FEW030 16/03 Q1017 BECMG 19010KT,0,12,0,10000,0,0,0,
2026-04-08 05:30:00,METAR RJTT 080530Z 11010KT 9999 FEW030 16/03 Q1017 BECMG 17010KT,0,10,0,10000,0,0,0,
2026-04-08 05:00:00,METAR RJTT 080500Z 08008KT 9999 FEW030 17/01 Q1017 NOSIG,0,8,0,10000,0,0,0,
2026-04-08 04:30:00,METAR RJTT 080430Z 04008KT 9999 FEW030 17/M01 Q1017 BECMG TL0530 10008KT,0,8,0,10000,0,0,0,
2026-04-08 04:00:00,METAR RJTT 080400Z 01011KT 9999 FEW030 17/M04 Q1018 BECMG FM0500 10008KT,0,11,0,10000,0,0,0,
2026-04-08 03:30:00,METAR RJTT 080330Z 36012KT 9999 FEW030 17/M03 Q1018 NOSIG,0,12,0,10000,0,0,0,
2026-04-08 03:00:00,METAR RJTT 080300Z 35015KT 9999 FEW030 16/M01 Q1018 NOSIG,0,15,0,10000,0,0,0,
2026-04-08 02:30:00,METAR RJTT 080230Z 35013KT 9999 FEW030 16/M02 Q1018 NOSIG,0,13,0,10000,0,0,0,
2026-04-08 02:00:00,METAR RJTT 080200Z 35013KT 9999 FEW030 15/M03 Q1018 NOSIG,0,13,0,10000,0,0,0,
2026-04-08 01:30:00,METAR RJTT 080130Z 34015KT 9999 FEW030 15/M03 Q1018 NOSIG,0,15,0,10000,0,0,0,
2026-04-08 01:00:00,METAR RJTT 080100Z 34017G27KT 9999 FEW030 14/M01 Q1018 NOSIG,0,17,1,10000,0,0,0,
2026-04-08 00:30:00,METAR RJTT 080030Z 32020KT 9999 FEW030 14/M04 Q1018 NOSIG,0,20,0,10000,0,0,0,
2026-04-08 00:00:00,METAR RJTT 080000Z 32021KT CAVOK 14/M03 Q1018 NOSIG,1,0,0,9999,0,0,0,
2026-04-07 23:30:00,METAR RJTT 072330Z 32021KT CAVOK 13/M04 Q1017 NOSIG,1,0,0,9999,0,0,0,
2026-04-07 23:00:00,METAR RJTT 072300Z 33021KT CAVOK 12/M04 Q1017 NOSIG,1,0,0,9999,0,0,0,
2026-04-07 22:30:00,METAR RJTT 072230Z 32017KT CAVOK 12/M04 Q1017 NOSIG,1,0,0,9999,0,0,0,
2026-04-07 22:00:00,METAR RJTT 072200Z 33016KT CAVOK 11/M05 Q1017 NOSIG,1,0,0,9999,0,0,0,
2026-04-07 21:30:00,METAR RJTT 072130Z 32019KT 9999 FEW030 10/M04 Q1016 TEMPO 34018G28KT,0,19,0,10000,0,0,0,
2026-04-07 21:00:00,METAR RJTT 072100Z 33022KT 9999 FEW030 10/M05 Q1016 TEMPO 34018G28KT,0,22,0,10000,0,0,0,
2026-04-07 20:30:00,METAR RJTT 072030Z 32022KT 9999 FEW030 09/M05 Q1015 NOSIG,0,22,0,10000,0,0,0,
2026-04-07 20:00:00,METAR RJTT 072000Z 33016KT 9999 FEW030 09/M05 Q1014 NOSIG,0,16,0,10000,0,0,0,
2026-04-07 19:30:00,METAR RJTT 071930Z 33017KT 9999 FEW030 09/M05 Q1014 NOSIG,0,17,0,10000,0,0,0,
2026-04-07 19:00:00,METAR RJTT 071900Z 33016KT CAVOK 09/M04 Q1013 NOSIG,1,0,0,9999,0,0,0,
2026-04-07 18:30:00,METAR RJTT 071830Z 33019KT CAVOK 09/M04 Q1013 NOSIG,1,0,0,9999,0,0,0,
2026-04-07 18:00:00,METAR RJTT 071800Z 33018KT CAVOK 09/M04 Q1012 NOSIG,1,0,0,9999,0,0,0,
2026-04-07 17:30:00,METAR RJTT 071730Z 33020KT CAVOK 09/M04 Q1012 NOSIG,1,0,0,9999,0,0,0,
2026-04-07 17:00:00,METAR RJTT 071700Z 34017KT 9999 FEW060 09/M04 Q1011 NOSIG,0,17,0,10000,0,0,0,
2026-04-07 16:30:00,METAR RJTT 071630Z 33020KT 9999 FEW060 09/M04 Q1011 TEMPO TL1800 34020G30KT,0,20,0,10000,0,0,0,
2026-04-07 16:00:00,METAR RJTT 071600Z 33022KT 9999 FEW060 09/M04 Q1010 TEMPO 34025G35KT,0,22,0,10000,0,0,0,
2026-04-07 15:30:00,METAR RJTT 071530Z 34025KT 9999 FEW060 09/M03 Q1010 TEMPO 34030G40KT,0,25,0,10000,0,0,0,
2026-04-07 15:00:00,METAR RJTT 071500Z 33026KT 9999 FEW060 09/M03 Q1009 TEMPO 34030G40KT,0,26,0,10000,0,0,0,
2026-04-07 14:30:00,METAR RJTT 071430Z 33029G41KT 9999 BKN060 10/M03 Q1008 NOSIG,0,29,1,10000,0,0,0,
2026-04-07 14:00:00,METAR RJTT 071400Z 33028G41KT 9999 -RA BKN050 09/M01 Q1007 NOSIG,0,28,1,10000,0,0,0,-RA
2026-04-07 13:30:00,METAR RJTT 071330Z 33030G46KT 9999 SCT050 BKN070 11/M03 Q1006 NOSIG,0,30,1,10000,0,0,0,
2026-04-07 13:00:00,METAR RJTT 071300Z 34031KT 9999 FEW050 SCT070 11/M00 Q1005 TEMPO 35034G44KT,0,31,0,10000,0,0,0,
2026-04-07 12:30:00,METAR RJTT 071230Z 34032G42KT 9999 FEW020 SCT050 11/00 Q1005 NOSIG,0,32,1,10000,0,0,0,
2026-04-07 12:00:00,METAR RJTT 071200Z 35028KT 9999 FEW020 BKN050 12/01 Q1004 TEMPO 35034G44KT,0,28,0,10000,0,0,0,
2026-04-07 11:30:00,METAR RJTT 071130Z 35027KT 9999 FEW020 BKN050 12/02 Q1004 TEMPO 35030G40KT,0,27,0,10000,0,0,0,
2026-04-07 11:00:00,METAR RJTT 071100Z 35026KT 9999 FEW020 BKN045 12/03 Q1003 TEMPO 34030G40KT,0,26,0,10000,0,0,0,
2026-04-07 10:30:00,METAR RJTT 071030Z 35027KT 9999 FEW020 BKN045 12/03 Q1002 TEMPO 35030G40KT,0,27,0,10000,0,0,0,
2026-04-07 10:00:00,METAR RJTT 071000Z 35027KT 9999 FEW020 BKN040 12/03 Q1002 TEMPO 35030G40KT,0,27,0,10000,0,0,0,
2026-04-07 09:30:00,METAR RJTT 070930Z 34027KT 9999 FEW020 BKN040 12/04 Q1001 TEMPO 34030G40KT,0,27,0,10000,0,0,0,
2026-04-07 09:00:00,METAR RJTT 070900Z 33025G36KT 9999 FEW020 BKN040 13/04 Q1001 NOSIG,0,25,1,10000,0,0,0,
2026-04-07 08:30:00,METAR RJTT 070830Z 33024KT 9999 FEW010 BKN035 13/05 Q1000 TEMPO 34030G40KT,0,24,0,10000,0,0,0,
2026-04-07 08:00:00,METAR RJTT 070800Z 31018KT 9999 FEW010 BKN035 16/05 Q0999 TEMPO FM0830 33026G36KT,0,18,0,10000,0,0,0,
2026-04-07 07:30:00,METAR RJTT 070730Z 24012KT 210V280 9999 FEW018 SCT050 BKN/// 19/12 Q0998 BECMG TL0800 34020KT,0,12,0,10000,0,0,0,
2026-04-07 07:00:00,METAR RJTT 070700Z 20016KT 9999 FEW018 BKN200 BKN/// 19/12 Q0997 BECMG FM0730 TL0830 34020KT,0,16,0,10000,0,0,0,
2026-04-07 06:30:00,METAR RJTT 070630Z 21018KT 9999 FEW018 BKN200 BKN/// 18/13 Q0997 BECMG FM0730 34020KT,0,18,0,10000,0,0,0,
2026-04-07 06:00:00,METAR RJTT 070600Z 20018KT 9999 FEW018 BKN170 BKN/// 18/13 Q0997 NOSIG,0,18,0,10000,0,0,0,
2026-04-07 05:30:00,METAR RJTT 070530Z 21020KT 9999 FEW015 BKN120 BKN150 18/13 Q0997 NOSIG,0,20,0,10000,0,0,0,
2026-04-07 05:00:00,METAR RJTT 070500Z 21017KT 9999 FEW015 SCT080 OVC120 17/14 Q0998 NOSIG,0,17,0,10000,0,0,0,
2026-04-07 04:30:00,METAR RJTT 070430Z 21019KT 9999 -RA FEW010 SCT050 OVC100 17/15 Q0998 NOSIG,0,19,0,10000,0,0,0,-RA
2026-04-07 04:00:00,METAR RJTT 070400Z 20021KT 9999 -RA FEW010 OVC100 17/15 Q0999 NOSIG,0,21,0,10000,0,0,0,-RA
2026-04-07 03:30:00,METAR RJTT 070330Z 20018G28KT 9999 -RA FEW010 OVC100 17/16 Q1000 NOSIG,0,18,1,10000,0,0,0,-RA
2026-04-07 03:00:00,METAR RJTT 070300Z 20017KT 9999 -RA FEW015 OVC100 17/15 Q1000 TEMPO FEW008 BKN012,0,17,0,10000,0,0,0,-RA
2026-04-07 02:30:00,METAR RJTT 070230Z 19018KT 9999 -RA FEW015 OVC100 17/15 Q1001 TEMPO FEW008 BKN012,0,18,0,10000,0,0,0,-RA
2026-04-07 02:00:00,METAR RJTT 070200Z 20019KT 9999 -RA FEW015 OVC100 17/15 Q1001 TEMPO FEW008 BKN012,0,19,0,10000,0,0,0,-RA
2026-04-07 01:30:00,METAR RJTT 070130Z 18015KT 9999 -RA FEW010 OVC110 18/15 Q1002 TEMPO FEW008 BKN012,0,15,0,10000,0,0,0,-RA
2026-04-07 01:00:00,METAR RJTT 070100Z 18016KT 9999 -RA FEW007 BKN013 OVC110 18/15 Q1002 NOSIG,0,16,0,10000,0,0,0,-RA
2026-04-07 00:30:00,METAR RJTT 070030Z 18017KT 9999 -RA FEW020 OVC110 18/15 Q1002 NOSIG,0,17,0,10000,0,0,0,-RA
2026-04-07 00:00:00,METAR RJTT 070000Z 19017KT 9999 FEW020 OVC120 18/14 Q1003 NOSIG,0,17,0,10000,0,0,0,
2026-04-06 23:30:00,METAR RJTT 062330Z 20017KT 9999 FEW020 BKN120 18/14 Q1003 NOSIG,0,17,0,10000,0,0,0,
2026-04-06 23:00:00,METAR RJTT 062300Z 19019KT CAVOK 18/14 Q1004 NOSIG,1,0,0,9999,0,0,0,
2026-04-06 22:30:00,METAR RJTT 062230Z 19019KT CAVOK 18/14 Q1004 NOSIG,1,0,0,9999,0,0,0,
2026-04-06 22:00:00,METAR RJTT 062200Z 19012KT CAVOK 18/14 Q1004 NOSIG,1,0,0,9999,0,0,0,
2026-04-06 21:30:00,METAR RJTT 062130Z 20013KT CAVOK 18/14 Q1005 NOSIG,1,0,0,9999,0,0,0,
2026-04-06 21:00:00,METAR RJTT 062100Z 20010KT CAVOK 17/14 Q1005 NOSIG,1,0,0,9999,0,0,0,
2026-04-06 20:30:00,METAR RJTT 062030Z 20016KT 9999 FEW030 BKN/// 17/14 Q1005 NOSIG,0,16,0,10000,0,0,0,
2026-04-06 20:00:00,METAR RJTT 062000Z 20018KT CAVOK 18/14 Q1005 NOSIG,1,0,0,9999,0,0,0,
2026-04-06 19:30:00,METAR RJTT 061930Z 20015KT CAVOK 17/15 Q1006 NOSIG,1,0,0,9999,0,0,0,
2026-04-06 19:00:00,METAR RJTT 061900Z 21014KT CAVOK 17/15 Q1007 NOSIG,1,0,0,9999,0,0,0,
2026-04-06 18:30:00,METAR RJTT 061830Z 21013KT 9999 FEW015 BKN150 BKN/// 17/14 Q1007 NOSIG,0,13,0,10000,0,0,0,
2026-04-06 18:00:00,METAR RJTT 061800Z 20016KT CAVOK 18/12 Q1007 NOSIG,1,0,0,9999,0,0,0,
2026-04-06 17:30:00,METAR RJTT 061730Z 21014KT CAVOK 19/12 Q1008 NOSIG,1,0,0,9999,0,0,0,
2026-04-06 17:00:00,METAR RJTT 061700Z 21016KT CAVOK 18/12 Q1008 NOSIG,1,0,0,9999,0,0,0,
2026-04-06 16:30:00,METAR RJTT 061630Z 20010KT 170V230 CAVOK 19/11 Q1008 NOSIG,1,0,0,9999,0,0,0,
2026-04-06 16:00:00,METAR RJTT 061600Z 20015KT CAVOK 18/11 Q1008 NOSIG,1,0,0,9999,0,0,0,
2026-04-06 15:30:00,METAR RJTT 061530Z 20016KT CAVOK 18/11 Q1009 NOSIG,1,0,0,9999,0,0,0,
2026-04-06 15:00:00,METAR RJTT 061500Z 19014KT CAVOK 18/11 Q1009 NOSIG,1,0,0,9999,0,0,0,
2026-04-06 14:30:00,METAR RJTT 061430Z 19015KT CAVOK 18/12 Q1009 NOSIG,1,0,0,9999,0,0,0,
2026-04-06 14:00:00,METAR RJTT 061400Z 21014KT CAVOK 18/12 Q1009 NOSIG,1,0,0,9999,0,0,0,
2026-04-06 13:30:00,METAR RJTT 061330Z 20013KT CAVOK 18/12 Q1010 NOSIG,1,0,0,9999,0,0,0,
2026-04-06 13:00:00,METAR RJTT 061300Z 19013KT CAVOK 18/11 Q1011 NOSIG,1,0,0,9999,0,0,0,
2026-04-06 12:30:00,METAR RJTT 061230Z 20013KT CAVOK 18/12 Q1010 NOSIG,1,0,0,9999,0,0,0,
2026-04-06 12:00:00,METAR RJTT 061200Z 20013KT CAVOK 18/12 Q1010 NOSIG,1,0,0,9999,0,0,0,
2026-04-06 11:30:00,METAR RJTT 061130Z 19012KT CAVOK 18/12 Q1010 NOSIG,1,0,0,9999,0,0,0,
2026-04-06 11:00:00,METAR RJTT 061100Z 19013KT CAVOK 18/12 Q1011 NOSIG,1,0,0,9999,0,0,0,
2026-04-06 10:30:00,METAR RJTT 061030Z 18009KT CAVOK 18/13 Q1011 NOSIG,1,0,0,9999,0,0,0,
2026-04-06 10:00:00,METAR RJTT 061000Z 20009KT CAVOK 18/14 Q1011 NOSIG,1,0,0,9999,0,0,0,
2026-04-06 09:30:00,METAR RJTT 060930Z 19010KT CAVOK 18/14 Q1011 NOSIG,1,0,0,9999,0,0,0,
2026-04-06 09:00:00,METAR RJTT 060900Z 18014KT 9999 FEW030 BKN/// 18/14 Q1011 NOSIG,0,14,0,10000,0,0,0,
2026-04-06 08:30:00,METAR RJTT 060830Z 19013KT 9999 FEW020 BKN/// 18/14 Q1011 NOSIG,0,13,0,10000,0,0,0,
2026-04-06 08:00:00,METAR RJTT 060800Z 19011KT 9999 FEW020 BKN/// 18/14 Q1011 NOSIG,0,11,0,10000,0,0,0,
2026-04-06 07:30:00,METAR RJTT 060730Z 18010KT 9999 FEW030 BKN/// 19/15 Q1011 NOSIG,0,10,0,10000,0,0,0,
2026-04-06 07:00:00,METAR RJTT 060700Z 19013KT 9999 FEW030 BKN/// 20/14 Q1011 NOSIG,0,13,0,10000,0,0,0,
2026-04-06 06:30:00,METAR RJTT 060630Z 18011KT 9999 FEW030 BKN/// 19/14 Q1010 NOSIG,0,11,0,10000,0,0,0,
2026-04-06 06:00:00,METAR RJTT 060600Z 19013KT 9999 FEW030 BKN/// 21/13 Q1011 NOSIG,0,13,0,10000,0,0,0,
2026-04-06 05:30:00,METAR RJTT 060530Z 18012KT 9999 FEW030 BKN/// 21/14 Q1011 NOSIG,0,12,0,10000,0,0,0,
2026-04-06 05:00:00,METAR RJTT 060500Z 18009KT 9999 FEW030 BKN/// 22/14 Q1011 NOSIG,0,9,0,10000,0,0,0,
2026-04-06 04:30:00,METAR RJTT 060430Z 16010KT 120V190 9999 FEW030 BKN/// 22/14 Q1011 NOSIG,0,10,0,10000,0,0,0,
2026-04-06 04:00:00,METAR RJTT 060400Z 12006KT 9999 FEW030 BKN/// 21/15 Q1012 BECMG TL0450 18012KT,0,6,0,10000,0,0,0,
2026-04-06 03:30:00,METAR RJTT 060330Z 07005KT 9999 FEW030 BKN/// 21/15 Q1012 BECMG 18012KT,0,5,0,10000,0,0,0,
2026-04-06 03:00:00,METAR RJTT 060300Z 07003KT 030V100 9999 FEW030 BKN/// 20/15 Q1012 NOSIG,0,3,0,10000,0,0,0,
2026-04-06 02:30:00,METAR RJTT 060230Z 03003KT 9999 FEW030 BKN/// 19/13 Q1013 BECMG 10005KT,0,3,0,10000,0,0,0,
2026-04-06 02:00:00,METAR RJTT 060200Z 05002KT 9999 FEW030 BKN/// 19/15 Q1013 BECMG 10005KT,0,2,0,10000,0,0,0,
2026-04-06 01:30:00,METAR RJTT 060130Z 07004KT 9999 FEW030 BKN/// 19/15 Q1013 NOSIG,0,4,0,10000,0,0,0,
2026-04-06 01:00:00,METAR RJTT 060100Z 07003KT 9999 FEW030 BKN/// 18/15 Q1013 NOSIG,0,3,0,10000,0,0,0,
2026-04-06 00:30:00,METAR RJTT 060030Z 05003KT 9999 FEW030 BKN/// 18/14 Q1014 BECMG 08005KT,0,3,0,10000,0,0,0,
2026-04-06 00:00:00,METAR RJTT 060000Z 04004KT 9999 FEW030 BKN/// 18/14 Q1014 BECMG 08006KT,0,4,0,10000,0,0,0,
2026-04-05 23:30:00,METAR RJTT 052330Z 03005KT 9999 FEW030 SCT/// 17/14 Q1014 BECMG 08006KT,0,5,0,10000,0,0,0,
2026-04-05 23:00:00,METAR RJTT 052300Z 04005KT 9999 FEW030 17/14 Q1014 BECMG 08006KT,0,5,0,10000,0,0,0,
2026-04-05 22:30:00,METAR RJTT 052230Z 04006KT 9999 FEW030 17/13 Q1014 BECMG 08006KT,0,6,0,10000,0,0,0,
2026-04-05 22:00:00,METAR RJTT 052200Z 03005KT 9999 FEW030 16/12 Q1013 NOSIG,0,5,0,10000,0,0,0,
2026-04-05 21:30:00,METAR RJTT 052130Z 02003KT 9999 BKN040 16/13 Q1013 NOSIG,0,3,0,10000,0,0,0,
2026-04-05 21:00:00,METAR RJTT 052100Z 03005KT 9999 BKN040 16/13 Q1013 NOSIG,0,5,0,10000,0,0,0,
2026-04-05 20:30:00,METAR RJTT 052030Z 01007KT 9999 FEW030 SCT040 16/13 Q1012 NOSIG,0,7,0,10000,0,0,0,
2026-04-05 20:00:00,METAR RJTT 052000Z 34007KT 9999 FEW030 SCT040 BKN060 16/13 Q1012 NOSIG,0,7,0,10000,0,0,0,
2026-04-05 19:30:00,METAR RJTT 051930Z 31006KT 9999 FEW030 SCT040 BKN060 16/13 Q1012 NOSIG,0,6,0,10000,0,0,0,
2026-04-05 19:00:00,METAR RJTT 051900Z 31007KT 9999 FEW030 SCT060 15/13 Q1011 NOSIG,0,7,0,10000,0,0,0,
2026-04-05 18:30:00,METAR RJTT 051830Z 30009KT 9999 SCT030 16/13 Q1011 NOSIG,0,9,0,10000,0,0,0,
2026-04-05 18:00:00,METAR RJTT 051800Z 27009KT 9999 SCT030 16/13 Q1010 NOSIG,0,9,0,10000,0,0,0,
2026-04-05 17:30:00,METAR RJTT 051730Z 26007KT 9999 FEW030 16/13 Q1010 NOSIG,0,7,0,10000,0,0,0,
2026-04-05 17:00:00,METAR RJTT 051700Z 25009KT 9999 FEW030 17/13 Q1009 NOSIG,0,9,0,10000,0,0,0,
2026-04-05 16:30:00,METAR RJTT 051630Z 23010KT CAVOK 17/13 Q1009 BECMG TL1700 27006KT,1,0,0,9999,0,0,0,
2026-04-05 16:00:00,METAR RJTT 051600Z 22010KT 9999 FEW050 BKN/// 18/14 Q1009 BECMG TL1700 26006KT,0,10,0,10000,0,0,0,
2026-04-05 15:00:00,METAR RJTT 051500Z 23010KT CAVOK 17/14 Q1009 BECMG TL1600 26006KT,1,0,0,9999,0,0,0,
2026-04-05 14:30:00,METAR RJTT 051430Z 21013KT CAVOK 17/14 Q1009 BECMG 25006KT,1,0,0,9999,0,0,0,
2026-04-05 13:00:00,METAR RJTT 051300Z 21014KT CAVOK 18/14 Q1008 NOSIG,1,0,0,9999,0,0,0,
2026-04-05 12:30:00,METAR RJTT 051230Z 20015KT CAVOK 18/14 Q1008 NOSIG,1,0,0,9999,0,0,0,
2026-04-05 12:00:00,METAR RJTT 051200Z 18017KT CAVOK 18/14 Q1008 NOSIG,1,0,0,9999,0,0,0,
2026-04-05 11:30:00,METAR RJTT 051130Z 19012KT CAVOK 19/14 Q1008 NOSIG,1,0,0,9999,0,0,0,
2026-04-05 11:00:00,METAR RJTT 051100Z 19014KT CAVOK 20/14 Q1008 NOSIG,1,0,0,9999,0,0,0,
2026-04-05 10:30:00,METAR RJTT 051030Z 20012KT CAVOK 19/14 Q1007 NOSIG,1,0,0,9999,0,0,0,
2026-04-05 10:00:00,METAR RJTT 051000Z 20010KT 9999 FEW020 BKN/// 19/14 Q1007 NOSIG,0,10,0,10000,0,0,0,
2026-04-05 09:30:00,METAR RJTT 050930Z 20012KT 9999 FEW020 BKN/// 19/14 Q1007 NOSIG,0,12,0,10000,0,0,0,
2026-04-05 09:00:00,METAR RJTT 050900Z 19012KT 9999 FEW020 BKN/// 18/14 Q1007 NOSIG,0,12,0,10000,0,0,0,
2026-04-05 08:30:00,METAR RJTT 050830Z 18012KT 9999 FEW020 BKN/// 20/14 Q1006 NOSIG,0,12,0,10000,0,0,0,
2026-04-05 08:00:00,METAR RJTT 050800Z 20012KT 9999 FEW020 BKN/// 19/14 Q1006 NOSIG,0,12,0,10000,0,0,0,
2026-04-05 07:30:00,METAR RJTT 050730Z 20013KT 9999 FEW020 BKN/// 19/14 Q1006 NOSIG,0,13,0,10000,0,0,0,
2026-04-05 07:00:00,METAR RJTT 050700Z 20014KT 9999 FEW020 BKN/// 20/14 Q1006 NOSIG,0,14,0,10000,0,0,0,
2026-04-05 06:30:00,METAR RJTT 050630Z 20018KT 9999 FEW020 BKN/// 20/15 Q1005 NOSIG,0,18,0,10000,0,0,0,
2026-04-05 06:00:00,METAR RJTT 050600Z 20015KT 9999 FEW020 BKN/// 20/15 Q1005 NOSIG,0,15,0,10000,0,0,0,
2026-04-05 05:30:00,METAR RJTT 050530Z 20015KT 9999 FEW020 BKN/// 20/15 Q1006 NOSIG,0,15,0,10000,0,0,0,
2026-04-05 05:00:00,METAR RJTT 050500Z 19014KT 9999 FEW020 BKN/// 21/15 Q1005 NOSIG,0,14,0,10000,0,0,0,
2026-04-05 04:30:00,METAR RJTT 050430Z 18013KT 9999 FEW020 BKN/// 22/15 Q1005 NOSIG,0,13,0,10000,0,0,0,
2026-04-05 04:00:00,METAR RJTT 050400Z 18013KT 9999 FEW020 BKN/// 22/16 Q1005 NOSIG,0,13,0,10000,0,0,0,
2026-04-05 03:30:00,METAR RJTT 050330Z 16014KT 110V190 9999 FEW020 BKN/// 22/16 Q1005 NOSIG,0,14,0,10000,0,0,0,
2026-04-05 03:00:00,METAR RJTT 050300Z 18015KT 9999 FEW020 BKN/// 22/16 Q1005 NOSIG,0,15,0,10000,0,0,0,
2026-04-05 02:30:00,METAR RJTT 050230Z 18013KT 9999 FEW015 BKN/// 23/17 Q1005 NOSIG,0,13,0,10000,0,0,0,
2026-04-05 02:00:00,METAR RJTT 050200Z VRB10KT 9999 FEW015 BKN/// 22/17 Q1005 BECMG 16010KT,0,10,0,10000,0,0,0,
2026-04-05 01:30:00,METAR RJTT 050130Z 18006KT 090V240 9999 FEW010 BKN/// 19/16 Q1005 NOSIG,0,6,0,10000,0,0,0,
2026-04-05 01:00:00,METAR RJTT 050100Z 04006KT 8000 FEW010 BKN/// 19/16 Q1005 BECMG TL0200 16006KT,0,6,0,8000,0,0,0,
2026-04-05 00:30:00,METAR RJTT 050030Z 06004KT 9999 FEW008 SCT011 BKN/// 18/15 Q1005 BECMG 14008KT,0,4,0,10000,0,0,0,
2026-04-05 00:00:00,METAR RJTT 050000Z 05004KT 9999 FEW008 SCT013 BKN/// 17/15 Q1005 BECMG FM0030 16008KT,0,4,0,10000,0,0,0,
2026-04-04 23:30:00,METAR RJTT 042330Z 05003KT 9999 FEW008 SCT010 BKN/// 17/15 Q1005 NOSIG,0,3,0,10000,0,0,0,
2026-04-04 23:00:00,METAR RJTT 042300Z 36005KT 9999 FEW008 SCT010 BKN/// 17/14 Q1005 NOSIG,0,5,0,10000,0,0,0,
2026-04-04 22:30:00,METAR RJTT 042230Z 36006KT 9999 FEW006 BKN010 BKN015 16/14 Q1004 TEMPO FEW005 BKN008,0,6,0,10000,0,0,0,
2026-04-04 22:00:00,METAR RJTT 042200Z 34008KT 9999 FEW006 BKN010 BKN015 16/14 Q1004 TEMPO FEW005 BKN008,0,8,0,10000,0,0,0,
2026-04-04 21:30:00,METAR RJTT 042130Z 27004KT 210V340 8000 FEW006 BKN010 BKN015 16/14 Q1004 TEMPO FEW005 BKN008,0,4,0,8000,0,0,0,
2026-04-04 21:00:00,METAR RJTT 042100Z 22012KT 9999 FEW008 BKN017 BKN/// 18/17 Q1004 TEMPO FEW008 BKN012,0,12,0,10000,0,0,0,
2026-04-04 20:30:00,METAR RJTT 042030Z 24011KT 9999 SCT006 BKN013 BKN/// 18/17 Q1003 TEMPO BKN005 BKN008,0,11,0,10000,0,0,0,
2026-04-04 20:00:00,METAR RJTT 042000Z 22014KT 9999 FEW006 SCT018 BKN/// 19/17 Q1003 NOSIG,0,14,0,10000,0,0,0,
2026-04-04 19:30:00,METAR RJTT 041930Z 21018KT 9999 FEW010 BKN/// 19/17 Q1002 NOSIG,0,18,0,10000,0,0,0,
2026-04-04 19:00:00,METAR RJTT 041900Z 20018KT 9999 FEW010 SCT030 BKN/// 19/17 Q1002 NOSIG,0,18,0,10000,0,0,0,
2026-04-04 18:30:00,METAR RJTT 041830Z 20019KT 9999 FEW010 SCT040 BKN/// 19/18 Q1002 NOSIG,0,19,0,10000,0,0,0,
2026-04-04 18:00:00,METAR RJTT 041800Z 20017KT 9999 FEW008 SCT050 BKN/// 19/18 Q1002 NOSIG,0,17,0,10000,0,0,0,
2026-04-04 17:30:00,METAR RJTT 041730Z 20017KT 9999 FEW006 BKN012 19/18 Q1002 BECMG 20028KT FEW005 SCT008 TEMPO 20028G38KT,0,17,0,10000,0,0,0,
2026-04-04 17:00:00,METAR RJTT 041700Z 21027KT 9999 FEW004 BKN008 19/18 Q1002 TEMPO 22030G40KT,0,27,0,10000,0,0,0,
2026-04-04 16:30:00,METAR RJTT 041630Z 20018KT 3000 R34L/P2000N R22/P2000N R16L/P2000N R23/2000N SHRA BR FEW003 BKN005 18/17 Q1003 BECMG 20028KT TEMPO 20028G38KT,0,18,0,3000,0,0,1,"BR,RA,SH"
2026-04-04 16:00:00,METAR RJTT 041600Z 20022KT 3000 SHRA BR FEW003 BKN006 18/17 Q1003 TEMPO 20028G38KT FEW003 BKN005,0,22,0,3000,0,0,1,"BR,RA,SH"
2026-04-04 15:30:00,METAR RJTT 041530Z 19020KT 3000 -SHRA BR FEW003 BKN006 17/17 Q1004 TEMPO 20028G38KT SHRA BR FEW003 BKN005,0,20,0,3000,0,0,1,"BR,RA,SH"
2026-04-04 15:00:00,METAR RJTT 041500Z 19020KT 4000 -SHRA BR FEW004 BKN008 17/16 Q1004 TEMPO 20028G38KT 3000 SHRA BR,0,20,0,4000,0,0,1,"BR,RA,SH"
2026-04-04 14:30:00,METAR RJTT 041430Z 16016KT 8000 -SHRA FEW006 BKN010 17/16 Q1005 TEMPO 3000 SHRA BR FEW005 BKN008 BECMG FM1500 20028KT,0,16,0,8000,0,0,1,"BR,RA,SH"
2026-04-04 14:00:00,METAR RJTT 041400Z 16014KT 4000 SHRA BR FEW007 SCT015 BKN020 16/16 Q1006 TEMPO 3000 SHRA BR FEW005 BKN008 BECMG FM1500 20026KT,0,14,0,4000,0,0,1,"BR,RA,SH"
2026-04-04 13:30:00,METAR RJTT 041330Z 17015KT 4000 SHRA BR FEW007 BKN015 BKN030 16/15 Q1007 TEMPO 3000 SHRA BR FEW005 BKN008 BECMG 20026KT,0,15,0,4000,0,0,1,"BR,RA,SH"
2026-04-04 13:00:00,METAR RJTT 041300Z 18014KT 5000 SHRA BR FEW007 SCT010 BKN015 16/15 Q1007 TEMPO 3000 SHRA BR FEW005 BKN008 BECMG 20024KT,0,14,0,5000,0,0,1,"BR,RA,SH"
2026-04-04 12:30:00,METAR RJTT 041230Z 19014KT 5000 SHRA BR SCT007 BKN010 16/15 Q1008 TEMPO 3000 SHRA BR FEW005 BKN008,0,14,0,5000,0,0,1,"BR,RA,SH"
2026-04-04 12:00:00,METAR RJTT 041200Z 19015KT 6000 -SHRA FEW008 BKN015 BKN020 16/15 Q1009 TEMPO 3000 SHRA BR FEW005 BKN008,0,15,0,6000,0,0,1,"BR,RA,SH"
2026-04-04 11:30:00,METAR RJTT 041130Z 20020KT 6000 SHRA FEW006 SCT015 BKN070 16/15 Q1009 TEMPO 3000 SHRA BR FEW005 BKN008,0,20,0,6000,0,0,1,"BR,RA,SH"
2026-04-04 11:00:00,METAR RJTT 041100Z 21018KT 8000 SHRA FEW006 BKN015 BKN060 17/16 Q1009 TEMPO 3000 SHRA BR FEW005 BKN008,0,18,0,8000,0,0,1,"BR,RA,SH"
2026-04-04 10:30:00,METAR RJTT 041030Z 18022KT 5000 -SHRA BR FEW010 BKN020 BKN060 16/15 Q1009 TEMPO 4000 -RA BR,0,22,0,5000,0,0,1,"-RA,BR,RA"
2026-04-04 10:00:00,METAR RJTT 041000Z 17023KT 9999 -SHRA FEW025 BKN080 17/14 Q1009 TEMPO 4000 -RA BR,0,23,0,10000,0,0,1,"-RA,BR,RA"
2026-04-04 09:30:00,METAR RJTT 040930Z 17020KT 9999 -RA FEW025 BKN060 17/13 Q1009 TEMPO 4000 -RA BR,0,20,0,10000,0,0,1,"-RA,BR"
2026-04-04 09:00:00,METAR RJTT 040900Z 17020KT 9999 -RA FEW025 BKN060 18/13 Q1009 TEMPO 4000 -RA BR,0,20,0,10000,0,0,1,"-RA,BR"
2026-04-04 08:30:00,METAR RJTT 040830Z 17020KT 9999 -RA FEW020 BKN060 BKN080 18/13 Q1010 TEMPO FM0900 4000 -RA BR,0,20,0,10000,0,0,1,"-RA,BR"
2026-04-04 08:00:00,METAR RJTT 040800Z 18019KT 9999 FEW020 BKN070 BKN190 18/14 Q1010 NOSIG,0,19,0,10000,0,0,0,
2026-04-04 07:30:00,METAR RJTT 040730Z 18022KT 9999 FEW030 SCT070 BKN190 18/13 Q1010 NOSIG,0,22,0,10000,0,0,0,
2026-04-04 07:00:00,METAR RJTT 040700Z 18016KT 9999 FEW020 BKN030 BKN070 16/14 Q1011 TEMPO FM0800 4000 -SHRA BR,0,16,0,10000,0,0,1,"BR,RA"
2026-04-04 06:30:00,METAR RJTT 040630Z 18016KT 9999 -SHRA FEW012 BKN020 BKN040 16/14 Q1012 TEMPO 4000 -SHRA BR,0,16,0,10000,0,0,1,"BR,RA"
2026-04-04 06:00:00,METAR RJTT 040600Z 19022KT 8000 -SHRA FEW015 BKN020 BKN030 16/14 Q1012 TEMPO 4000 -SHRA BR,0,22,0,8000,0,0,1,"BR,RA"
2026-04-04 05:30:00,METAR RJTT 040530Z 20013KT 9999 -SHRA FEW020 BKN030 BKN050 17/14 Q1013 TEMPO 4000 -SHRA BR,0,13,0,10000,0,0,1,"BR,RA"
2026-04-04 05:00:00,METAR RJTT 040500Z 21013KT 180V240 8000 -SHRA FEW015 BKN020 BKN030 15/14 Q1013 TEMPO 4000 -SHRA BR,0,13,0,8000,0,0,1,"BR,RA"
2026-04-04 04:30:00,METAR RJTT 040430Z 21010KT 3000 -SHRA BR FEW010 SCT012 BKN025 14/13 Q1014 NOSIG,0,10,0,3000,0,0,1,"BR,RA"
2026-04-04 04:00:00,METAR RJTT 040400Z 19005G16KT 090V250 3000 R16R/P2000N R22/P2000N R16L/P2000N R23/P2000N SHRA BR FEW008 BKN013 BKN030 14/13 Q1014 BECMG TL0430 8000 NSW BKN020,0,5,1,3000,0,0,1,"BR,RA,SH"
2026-04-04 03:30:00,METAR RJTT 040330Z 15006KT 5000 -SHRA BR FEW010 SCT015 BKN025 14/13 Q1015 BECMG 18016KT,0,6,0,5000,0,0,1,"BR,RA"
2026-04-04 03:00:00,METAR RJTT 040300Z 16005KT 070V190 8000 -SHRA FEW008 BKN012 BKN030 13/13 Q1015 BECMG TL0400 BKN020,0,5,0,8000,0,0,0,RA
2026-04-04 02:30:00,METAR RJTT 040230Z 15004KT 090V220 8000 FEW005 BKN020 BKN060 13/12 Q1016 BECMG 18014KT,0,4,0,8000,0,0,0,
2026-04-04 02:00:00,METAR RJTT 040200Z VRB04KT 4000 R16R/P2000N R22/P2000N R16L/1500VP2000N R23/P2000N SHRA BR FEW003 SCT006 BKN013 13/12 Q1017 BECMG TL0300 18010KT 8000 NSW BKN020,0,4,0,4000,0,0,1,"BR,RA,SH"
2026-04-04 01:30:00,METAR RJTT 040130Z 16006KT 100V220 3000 R16R/2000N R22/P2000N R16L/2000N R23/P2000N SHRA BR FEW008 BKN013 BKN020 13/12 Q1018 BECMG TL0300 4000 -SHRA BR,0,6,0,3000,0,0,1,"BR,RA,SH"
2026-04-04 01:00:00,METAR RJTT 040100Z 16011KT 5000 -SHRA BR FEW010 SCT015 BKN025 14/12 Q1018 TEMPO 4000 -SHRA BR,0,11,0,5000,0,0,1,"BR,RA"
2026-04-04 00:30:00,METAR RJTT 040030Z 17011KT 9999 -SHRA FEW025 SCT030 BKN150 17/09 Q1018 TEMPO FM0100 4000 -SHRA BR,0,11,0,10000,0,0,1,"BR,RA"
2026-04-04 00:00:00,METAR RJTT 040000Z 19011KT 9999 FEW030 BKN045 BKN150 16/09 Q1018 TEMPO FM0100 4000 -SHRA BR,0,11,0,10000,0,0,1,"BR,RA"
2026-04-03 23:30:00,METAR RJTT 032330Z 16010KT 130V190 9999 FEW030 BKN045 BKN160 15/09 Q1018 TEMPO FM0100 4000 -SHRA BR,0,10,0,10000,0,0,1,"BR,RA"
2026-04-03 23:00:00,METAR RJTT 032300Z 17011KT 9999 FEW030 SCT045 BKN160 15/09 Q1018 NOSIG,0,11,0,10000,0,0,0,
2026-04-03 22:30:00,METAR RJTT 032230Z 16010KT 9999 -RA FEW030 BKN045 15/11 Q1018 NOSIG,0,10,0,10000,0,0,0,-RA
2026-04-03 22:00:00,METAR RJTT 032200Z 16008KT 9999 FEW030 BKN040 15/11 Q1018 NOSIG,0,8,0,10000,0,0,0,
2026-04-03 21:30:00,METAR RJTT 032130Z 18009KT 9999 FEW030 BKN040 15/10 Q1018 NOSIG,0,9,0,10000,0,0,0,
2026-04-03 21:00:00,METAR RJTT 032100Z 18008KT 9999 FEW030 BKN040 15/08 Q1017 NOSIG,0,8,0,10000,0,0,0,
2026-04-03 20:30:00,METAR RJTT 032030Z 19008KT 9999 FEW030 BKN170 BKN/// 15/08 Q1017 NOSIG,0,8,0,10000,0,0,0,
2026-04-03 20:00:00,METAR RJTT 032000Z 20010KT 9999 FEW030 BKN/// 15/08 Q1017 NOSIG,0,10,0,10000,0,0,0,
2026-04-03 19:30:00,METAR RJTT 031930Z 19008KT CAVOK 15/08 Q1018 NOSIG,1,0,0,9999,0,0,0,
2026-04-03 19:00:00,METAR RJTT 031900Z 20010KT CAVOK 14/09 Q1018 NOSIG,1,0,0,9999,0,0,0,
2026-04-03 18:30:00,METAR RJTT 031830Z 18009KT CAVOK 14/09 Q1018 NOSIG,1,0,0,9999,0,0,0,
2026-04-03 18:00:00,METAR RJTT 031800Z 17010KT CAVOK 14/10 Q1018 NOSIG,1,0,0,9999,0,0,0,
2026-04-03 17:30:00,METAR RJTT 031730Z 19013KT CAVOK 14/09 Q1018 NOSIG,1,0,0,9999,0,0,0,
2026-04-03 17:00:00,METAR RJTT 031700Z 20013KT CAVOK 14/09 Q1019 NOSIG,1,0,0,9999,0,0,0,
2026-04-03 16:30:00,METAR RJTT 031630Z 19011KT 9999 FEW050 BKN/// 14/10 Q1019 NOSIG,0,11,0,10000,0,0,0,
2026-04-03 16:00:00,METAR RJTT 031600Z 19011KT CAVOK 14/11 Q1019 NOSIG,1,0,0,9999,0,0,0,
2026-04-03 15:30:00,METAR RJTT 031530Z 20012KT CAVOK 14/10 Q1019 NOSIG,1,0,0,9999,0,0,0,
2026-04-03 15:00:00,METAR RJTT 031500Z 19011KT CAVOK 14/10 Q1019 NOSIG,1,0,0,9999,0,0,0,
2026-04-03 14:30:00,METAR RJTT 031430Z 20011KT CAVOK 14/10 Q1020 NOSIG,1,0,0,9999,0,0,0,
2026-04-03 14:00:00,METAR RJTT 031400Z 19010KT CAVOK 14/10 Q1020 NOSIG,1,0,0,9999,0,0,0,
2026-04-03 13:30:00,METAR RJTT 031330Z 18011KT CAVOK 15/11 Q1020 NOSIG,1,0,0,9999,0,0,0,
2026-04-03 13:00:00,METAR RJTT 031300Z 18011KT CAVOK 14/10 Q1020 NOSIG,1,0,0,9999,0,0,0,
2026-04-03 12:30:00,METAR RJTT 031230Z 18010KT CAVOK 15/09 Q1020 NOSIG,1,0,0,9999,0,0,0,
2026-04-03 12:00:00,METAR RJTT 031200Z 20009KT CAVOK 15/09 Q1020 NOSIG,1,0,0,9999,0,0,0,
2026-04-03 11:30:00,METAR RJTT 031130Z 20009KT CAVOK 15/10 Q1020 NOSIG,1,0,0,9999,0,0,0,
2026-04-03 11:00:00,METAR RJTT 031100Z 20010KT CAVOK 16/10 Q1019 NOSIG,1,0,0,9999,0,0,0,
2026-04-03 10:30:00,METAR RJTT 031030Z 19010KT CAVOK 16/09 Q1019 NOSIG,1,0,0,9999,0,0,0,
2026-04-03 10:00:00,METAR RJTT 031000Z 17011KT CAVOK 16/10 Q1018 NOSIG,1,0,0,9999,0,0,0,
2026-04-03 09:30:00,METAR RJTT 030930Z 18010KT 9999 FEW030 BKN/// 17/09 Q1019 NOSIG,0,10,0,10000,0,0,0,
2026-04-03 09:00:00,METAR RJTT 030900Z 20014KT 9999 FEW030 BKN/// 17/08 Q1018 NOSIG,0,14,0,10000,0,0,0,
2026-04-03 08:30:00,METAR RJTT 030830Z 20014KT 9999 FEW030 BKN/// 17/07 Q1018 NOSIG,0,14,0,10000,0,0,0,
2026-04-03 08:00:00,METAR RJTT 030800Z 20016KT 9999 FEW030 BKN/// 17/08 Q1018 NOSIG,0,16,0,10000,0,0,0,
2026-04-03 07:30:00,METAR RJTT 030730Z 19016KT 9999 FEW030 SCT/// 18/08 Q1018 NOSIG,0,16,0,10000,0,0,0,
2026-04-03 07:00:00,METAR RJTT 030700Z 19015KT 9999 FEW030 18/07 Q1017 NOSIG,0,15,0,10000,0,0,0,
2026-04-03 06:30:00,METAR RJTT 030630Z 19017KT 9999 FEW030 SCT/// 18/06 Q1017 NOSIG,0,17,0,10000,0,0,0,
2026-04-03 06:00:00,METAR RJTT 030600Z 19017KT 9999 FEW030 19/06 Q1017 NOSIG,0,17,0,10000,0,0,0,
2026-04-03 05:30:00,METAR RJTT 030530Z 19015KT 9999 FEW030 19/06 Q1017 NOSIG,0,15,0,10000,0,0,0,
2026-04-03 05:00:00,METAR RJTT 030500Z 18015KT 9999 FEW030 19/05 Q1017 NOSIG,0,15,0,10000,0,0,0,
2026-04-03 04:30:00,METAR RJTT 030430Z 18014KT 9999 FEW030 SCT/// 19/05 Q1017 NOSIG,0,14,0,10000,0,0,0,
2026-04-03 04:00:00,METAR RJTT 030400Z 19012KT 9999 FEW030 19/06 Q1017 NOSIG,0,12,0,10000,0,0,0,
2026-04-03 03:30:00,METAR RJTT 030330Z 18011KT 9999 FEW030 19/04 Q1017 NOSIG,0,11,0,10000,0,0,0,
2026-04-03 03:00:00,METAR RJTT 030300Z 18009KT 9999 FEW030 19/05 Q1017 NOSIG,0,9,0,10000,0,0,0,
2026-04-03 02:30:00,METAR RJTT 030230Z 18011KT 9999 FEW030 19/05 Q1017 NOSIG,0,11,0,10000,0,0,0,
2026-04-03 02:00:00,METAR RJTT 030200Z 18010KT 9999 FEW030 18/03 Q1018 NOSIG,0,10,0,10000,0,0,0,
2026-04-03 01:30:00,METAR RJTT 030130Z 18008KT 9999 FEW030 18/05 Q1018 NOSIG,0,8,0,10000,0,0,0,
2026-04-03 01:00:00,METAR RJTT 030100Z 20006KT 160V240 9999 FEW030 16/03 Q1018 NOSIG,0,6,0,10000,0,0,0,
2026-04-03 00:30:00,METAR RJTT 030030Z 28004KT 190V010 9999 FEW030 16/M00 Q1018 BECMG 20006KT,0,4,0,10000,0,0,0,
2026-04-03 00:00:00,METAR RJTT 030000Z VRB01KT 9999 FEW030 15/M01 Q1018 BECMG TL0100 20006KT,0,1,0,10000,0,0,0,
2026-04-02 23:30:00,METAR RJTT 022330Z 30004KT 250V010 9999 FEW030 14/00 Q1017 BECMG 20006KT,0,4,0,10000,0,0,0,
2026-04-02 23:00:00,METAR RJTT 022300Z 26003KT 210V310 9999 FEW030 13/01 Q1017 NOSIG,0,3,0,10000,0,0,0,
2026-04-02 22:30:00,METAR RJTT 022230Z 26006KT 230V300 9999 FEW030 12/01 Q1017 NOSIG,0,6,0,10000,0,0,0,
2026-04-02 22:00:00,METAR RJTT 022200Z 27008KT 250V320 9999 FEW040 11/01 Q1017 NOSIG,0,8,0,10000,0,0,0,
2026-04-02 21:30:00,METAR RJTT 022130Z 28008KT 9999 FEW050 10/01 Q1016 NOSIG,0,8,0,10000,0,0,0,
2026-04-02 21:00:00,METAR RJTT 022100Z 29006KT 9999 FEW050 09/01 Q1016 NOSIG,0,6,0,10000,0,0,0,
2026-04-02 20:30:00,METAR RJTT 022030Z 33011KT 9999 FEW050 09/00 Q1015 NOSIG,0,11,0,10000,0,0,0,
2026-04-02 20:00:00,METAR RJTT 022000Z 31009KT CAVOK 08/01 Q1015 NOSIG,1,0,0,9999,0,0,0,
2026-04-02 19:30:00,METAR RJTT 021930Z 30010KT CAVOK 08/01 Q1015 NOSIG,1,0,0,9999,0,0,0,
2026-04-02 19:00:00,METAR RJTT 021900Z 28010KT CAVOK 09/02 Q1014 NOSIG,1,0,0,9999,0,0,0,
2026-04-02 18:30:00,METAR RJTT 021830Z 29008KT CAVOK 10/01 Q1014 NOSIG,1,0,0,9999,0,0,0,
2026-04-02 18:00:00,METAR RJTT 021800Z 33012KT CAVOK 11/02 Q1014 NOSIG,1,0,0,9999,0,0,0,
2026-04-02 17:30:00,METAR RJTT 021730Z 34014KT CAVOK 11/01 Q1013 NOSIG,1,0,0,9999,0,0,0,
2026-04-02 17:00:00,METAR RJTT 021700Z 35014KT CAVOK 12/02 Q1013 NOSIG,1,0,0,9999,0,0,0,
2026-04-02 16:30:00,METAR RJTT 021630Z 33012KT CAVOK 11/00 Q1013 NOSIG,1,0,0,9999,0,0,0,
2026-04-02 16:00:00,METAR RJTT 021600Z 33014KT CAVOK 11/M01 Q1013 NOSIG,1,0,0,9999,0,0,0,
2026-04-02 15:30:00,METAR RJTT 021530Z 33016KT CAVOK 12/M02 Q1013 NOSIG,1,0,0,9999,0,0,0,
2026-04-02 15:00:00,METAR RJTT 021500Z 32017KT CAVOK 13/M03 Q1012 NOSIG,1,0,0,9999,0,0,0,
2026-04-02 14:30:00,METAR RJTT 021430Z 30017KT CAVOK 13/M03 Q1012 NOSIG,1,0,0,9999,0,0,0,
2026-04-02 14:00:00,METAR RJTT 021400Z 32014KT CAVOK 13/M02 Q1011 NOSIG,1,0,0,9999,0,0,0,
2026-04-02 13:30:00,METAR RJTT 021330Z 32011KT CAVOK 11/M02 Q1011 NOSIG,1,0,0,9999,0,0,0,
2026-04-02 13:00:00,METAR RJTT 021300Z 33013KT CAVOK 12/M01 Q1011 NOSIG,1,0,0,9999,0,0,0,
2026-04-02 12:30:00,METAR RJTT 021230Z 33010KT CAVOK 12/M01 Q1011 NOSIG,1,0,0,9999,0,0,0,
2026-04-02 12:00:00,METAR RJTT 021200Z 34013KT CAVOK 13/M00 Q1011 NOSIG,1,0,0,9999,0,0,0,
2026-04-02 11:30:00,METAR RJTT 021130Z 33015KT 9999 FEW030 12/M01 Q1010 NOSIG,0,15,0,10000,0,0,0,
2026-04-02 11:00:00,METAR RJTT 021100Z 33018KT CAVOK 13/M01 Q1009 NOSIG,1,0,0,9999,0,0,0,
2026-04-02 10:30:00,METAR RJTT 021030Z 33021G33KT CAVOK 13/M02 Q1008 NOSIG,1,0,0,9999,0,0,0,
2026-04-02 10:00:00,METAR RJTT 021000Z 32023G34KT CAVOK 13/M00 Q1007 NOSIG,1,0,0,9999,0,0,0,
2026-04-02 09:30:00,METAR RJTT 020930Z 33024KT 9999 FEW015 14/01 Q1006 TEMPO 34025G35KT,0,24,0,10000,0,0,0,
2026-04-02 09:00:00,METAR RJTT 020900Z 34024KT 9999 FEW015 14/03 Q1005 TEMPO 34025G35KT,0,24,0,10000,0,0,0,
2026-04-02 08:30:00,METAR RJTT 020830Z 35026KT 9999 FEW015 15/03 Q1005 TEMPO 34026G36KT,0,26,0,10000,0,0,0,
2026-04-02 08:00:00,METAR RJTT 020800Z 34022KT 9999 FEW015 16/04 Q1004 TEMPO 34025G35KT,0,22,0,10000,0,0,0,
2026-04-02 07:30:00,METAR RJTT 020730Z VRB05KT 9999 FEW015 16/06 Q1004 BECMG 34020KT TEMPO 34025G35KT,0,5,0,10000,0,0,0,
2026-04-02 07:00:00,METAR RJTT 020700Z 16008KT 140V200 9999 FEW010 14/11 Q1003 BECMG 34020KT TEMPO 34025G35KT,0,8,0,10000,0,0,0,
2026-04-02 06:30:00,METAR RJTT 020630Z 15006KT 120V190 9999 FEW010 14/11 Q1002 BECMG 34020KT TEMPO 34025G35KT,0,6,0,10000,0,0,0,
2026-04-02 06:00:00,METAR RJTT 020600Z 16004KT 120V200 9999 FEW010 13/11 Q1002 BECMG TL0630 34020KT TEMPO FM0630 34025G35KT,0,4,0,10000,0,0,0,
2026-04-02 05:30:00,METAR RJTT 020530Z 12004KT 9999 FEW009 SCT070 BKN090 13/11 Q1002 BECMG 34020KT TEMPO 34025G35KT,0,4,0,10000,0,0,0,
2026-04-02 05:00:00,METAR RJTT 020500Z VRB02KT 9999 -SHRA FEW010 BKN070 12/10 Q1002 BECMG 34020KT TEMPO 34025G35KT,0,2,0,10000,0,0,0,RA
2026-04-02 04:30:00,METAR RJTT 020430Z 11003KT 9999 -SHRA FEW006 SCT010 BKN070 12/10 Q1002 NOSIG,0,3,0,10000,0,0,0,RA
2026-04-02 04:00:00,METAR RJTT 020400Z 10004KT 9999 -SHRA FEW006 BKN009 BKN050 11/10 Q1002 BECMG FEW020 SCT050,0,4,0,10000,0,0,0,RA
2026-04-02 03:30:00,METAR RJTT 020330Z 10005KT 9999 -SHRA FEW008 SCT013 BKN050 11/10 Q1002 NOSIG,0,5,0,10000,0,0,0,RA
2026-04-02 03:00:00,METAR RJTT 020300Z 09006KT 9999 -SHRA FEW008 BKN050 12/11 Q1002 NOSIG,0,6,0,10000,0,0,0,RA
2026-04-02 02:30:00,METAR RJTT 020230Z 06006KT 9999 -SHRA FEW008 SCT011 BKN050 11/10 Q1002 BECMG 08006KT,0,6,0,10000,0,0,0,RA
2026-04-02 02:00:00,METAR RJTT 020200Z 05006KT 9999 -SHRA FEW006 SCT011 BKN040 11/10 Q1002 BECMG 08006KT,0,6,0,10000,0,0,0,RA
2026-04-02 01:30:00,METAR RJTT 020130Z 02010KT 9999 -SHRA FEW007 BKN010 11/10 Q1002 BECMG FEW010 BKN030,0,10,0,10000,0,0,0,RA
2026-04-02 01:00:00,METAR RJTT 020100Z 02009KT 9999 -SHRA FEW007 SCT009 BKN040 11/10 Q1002 NOSIG,0,9,0,10000,0,0,0,RA
2026-04-02 00:30:00,METAR RJTT 020030Z 01011KT 6000 -SHRA FEW004 SCT007 BKN025 10/10 Q1002 NOSIG,0,11,0,6000,0,0,0,RA
2026-04-02 00:00:00,METAR RJTT 020000Z 35012KT 6000 -SHRA FEW004 BKN007 BKN025 10/09 Q1002 BECMG TL0100 FEW005 BKN012,0,12,0,6000,0,0,0,RA
2026-04-01 23:30:00,METAR RJTT 012330Z 32013KT 3000 -SHRA BR FEW004 BKN006 BKN015 10/09 Q1002 BECMG TL0030 8000 -SHRA FEW005 BKN012,0,13,0,3000,0,0,1,"BR,RA"
2026-04-01 23:00:00,METAR RJTT 012300Z 32010KT 4500 -SHRA BR FEW004 BKN006 BKN010 10/09 Q1001 BECMG TL0000 8000 -SHRA FEW005 BKN012,0,10,0,4500,0,0,1,"BR,RA"
2026-04-01 22:30:00,METAR RJTT 012230Z 34009KT 4000 -SHRA BR FEW004 BKN006 BKN010 10/09 Q1000 BECMG TL0000 8000 -SHRA FEW005 BKN012,0,9,0,4000,0,0,1,"BR,RA"
2026-04-01 22:00:00,METAR RJTT 012200Z 35010KT 4500 -SHRA BR FEW005 BKN007 BKN010 10/09 Q1000 NOSIG,0,10,0,4500,0,0,1,"BR,RA"
2026-04-01 21:30:00,METAR RJTT 012130Z 36011KT 9999 -SHRA FEW006 BKN008 10/09 Q1001 NOSIG,0,11,0,10000,0,0,0,RA
2026-04-01 21:00:00,METAR RJTT 012100Z 01010KT 9999 -SHRA FEW006 BKN009 10/09 Q1001 TEMPO 4000 -SHRA BR,0,10,0,10000,0,0,1,"BR,RA"
2026-04-01 20:30:00,METAR RJTT 012030Z 36011KT 9999 -SHRA FEW006 BKN010 10/10 Q1001 TEMPO 4000 -SHRA BR FEW005 BKN008,0,11,0,10000,0,0,1,"BR,RA"
2026-04-01 20:00:00,METAR RJTT 012000Z 36012KT 9999 -SHRA FEW006 BKN010 BKN015 10/09 Q1001 TEMPO 4000 -SHRA BR FEW005 BKN008,0,12,0,10000,0,0,1,"BR,RA"
2026-04-01 19:30:00,METAR RJTT 011930Z 33015KT 5000 -SHRA BR FEW006 BKN010 10/09 Q1002 TEMPO 4000 -SHRA BR FEW005 BKN008,0,15,0,5000,0,0,1,"BR,RA"
2026-04-01 19:00:00,METAR RJTT 011900Z 35018KT 6000 -SHRA FEW006 BKN010 11/10 Q1002 TEMPO 4000 SHRA BR FEW005 BKN008,0,18,0,6000,0,0,1,"BR,RA,SH"
2026-04-01 18:30:00,METAR RJTT 011830Z 35018KT 5000 SHRA BR FEW008 BKN010 11/10 Q1002 TEMPO 4000 SHRA BR FEW005 BKN008,0,18,0,5000,0,0,1,"BR,RA,SH"
2026-04-01 18:00:00,METAR RJTT 011800Z 34018KT 9999 -SHRA FEW006 BKN010 11/10 Q1003 TEMPO 4000 SHRA BR FEW005 BKN008,0,18,0,10000,0,0,1,"BR,RA,SH"
2026-04-01 17:30:00,METAR RJTT 011730Z 32016KT 9999 -SHRA FEW006 BKN008 11/09 Q1004 TEMPO 4000 SHRA BR,0,16,0,10000,0,0,1,"BR,RA,SH"
2026-04-01 17:00:00,METAR RJTT 011700Z 33017KT 7000 SHRA FEW006 BKN008 BKN025 11/10 Q1004 TEMPO 4000 SHRA BR,0,17,0,7000,0,0,1,"BR,RA,SH"
2026-04-01 16:30:00,METAR RJTT 011630Z 32015KT 5000 SHRA BR FEW006 SCT010 BKN020 11/10 Q1005 TEMPO 3000 SHRA BR FEW005 BKN008,0,15,0,5000,0,0,1,"BR,RA,SH"
2026-04-01 16:00:00,METAR RJTT 011600Z 34014KT 310V010 6000 SHRA FEW004 SCT006 BKN010 11/10 Q1006 TEMPO 3000 SHRA BR FEW005 BKN008,0,14,0,6000,0,0,1,"BR,RA,SH"
2026-04-01 15:30:00,METAR RJTT 011530Z 34013KT 4000 +SHRA BR FEW004 SCT006 BKN015 11/11 Q1006 TEMPO 3000 +SHRA BR FEW005 BKN008,0,13,0,4000,0,0,1,"BR,RA"
2026-04-01 15:00:00,METAR RJTT 011500Z 34009KT 310V030 5000 SHRA BR FEW004 SCT006 BKN030 12/11 Q1006 TEMPO 3000 +SHRA BR FEW005 BKN008,0,9,0,5000,0,0,1,"BR,RA,SH"
2026-04-01 14:30:00,METAR RJTT 011430Z 34014KT 5000 SHRA BR FEW004 BKN006 BKN010 12/11 Q1007 TEMPO 3000 SHRA BR,0,14,0,5000,0,0,1,"BR,RA,SH"
2026-04-01 14:00:00,METAR RJTT 011400Z 36015KT 6000 -RA FEW004 BKN006 BKN010 12/11 Q1008 TEMPO 3000 RA BR,0,15,0,6000,0,0,1,"-RA,BR,RA"
2026-04-01 13:30:00,METAR RJTT 011330Z 35013KT 4000 -RA BR FEW004 BKN007 12/11 Q1009 TEMPO 3000 RA BR FEW003 BKN005,0,13,0,4000,0,0,1,"-RA,BR,RA"
2026-04-01 13:00:00,METAR RJTT 011300Z 35012KT 4000 RA BR SCT004 BKN006 12/11 Q1010 TEMPO 3000 RA BR FEW003 BKN005,0,12,0,4000,0,0,1,"BR,RA"
2026-04-01 12:30:00,METAR RJTT 011230Z 36012KT 4000 -RA BR SCT004 BKN006 12/12 Q1010 TEMPO 3000 RA BR,0,12,0,4000,0,0,1,"-RA,BR,RA"
2026-04-01 12:00:00,METAR RJTT 011200Z 36012KT 6000 -RA SCT006 BKN008 12/12 Q1010 TEMPO 4000 -RA BR,0,12,0,6000,0,0,1,"-RA,BR"
2026-04-01 11:30:00,METAR RJTT 011130Z 36011KT 9999 -RA FEW006 SCT010 BKN015 13/12 Q1011 TEMPO FM1200 4000 RA BR FEW005 BKN008,0,11,0,10000,0,0,1,"-RA,BR,RA"
2026-04-01 11:00:00,METAR RJTT 011100Z 02010KT 8000 -RA FEW006 SCT010 BKN025 12/12 Q1011 TEMPO FM1200 4000 RA BR FEW005 BKN008,0,10,0,8000,0,0,1,"-RA,BR,RA"
2026-04-01 10:30:00,METAR RJTT 011030Z 04012KT 5000 -RA BR FEW006 BKN010 12/12 Q1011 TEMPO 4000 -RA BR FEW005 BKN008,0,12,0,5000,0,0,1,"-RA,BR"
2026-04-01 10:00:00,METAR RJTT 011000Z 04011KT 4000 -RA BR FEW004 SCT006 BKN010 12/12 Q1011 TEMPO FEW005 BKN008,0,11,0,4000,0,0,1,"-RA,BR"
2026-04-01 09:30:00,METAR RJTT 010930Z 06012KT 4000 -RA BR FEW004 SCT006 BKN010 13/12 Q1011 TEMPO FEW005 BKN008,0,12,0,4000,0,0,1,"-RA,BR"
2026-04-01 09:00:00,METAR RJTT 010900Z 06014KT 5000 -RA BR FEW008 BKN012 13/12 Q1011 TEMPO 4000 -RA BR FEW005 BKN008,0,14,0,5000,0,0,1,"-RA,BR"
2026-04-01 08:30:00,METAR RJTT 010830Z 05012KT 9999 -RA FEW009 BKN012 13/12 Q1011 TEMPO FEW005 BKN008,0,12,0,10000,0,0,0,-RA
2026-04-01 08:00:00,METAR RJTT 010800Z 06012KT 9999 -RA FEW010 BKN015 BKN020 13/12 Q1011 TEMPO FEW008 BKN012,0,12,0,10000,0,0,0,-RA
2026-04-01 07:30:00,METAR RJTT 010730Z 06017KT 9999 -RA FEW007 SCT015 BKN020 13/12 Q1010 TEMPO FEW008 BKN012,0,17,0,10000,0,0,0,-RA
2026-04-01 07:00:00,METAR RJTT 010700Z 06017KT 8000 -RA FEW007 BKN020 BKN025 13/12 Q1010 TEMPO FEW008 BKN012,0,17,0,8000,0,0,0,-RA
2026-04-01 06:30:00,METAR RJTT 010630Z 07015KT 7000 -RA FEW007 BKN020 13/12 Q1011 TEMPO FM0700 FEW008 BKN012,0,15,0,7000,0,0,0,-RA
2026-04-01 06:00:00,METAR RJTT 010600Z 07012KT 7000 -RA FEW010 BKN025 14/12 Q1011 BECMG 04014KT TEMPO FM0700 FEW008 BKN012,0,12,0,7000,0,0,0,-RA
2026-04-01 05:30:00,METAR RJTT 010530Z 07014KT 9999 -RA FEW010 BKN020 BKN025 14/12 Q1011 BECMG 04016KT TEMPO FM0700 FEW008 BKN012,0,14,0,10000,0,0,0,-RA
2026-04-01 05:00:00,METAR RJTT 010500Z 06015KT 9999 -RA FEW010 BKN020 14/12 Q1011 BECMG 04016KT,0,15,0,10000,0,0,0,-RA
2026-04-01 04:30:00,METAR RJTT 010430Z 05016KT 9999 -RA FEW010 BKN020 14/12 Q1011 NOSIG,0,16,0,10000,0,0,0,-RA
2026-04-01 04:00:00,METAR RJTT 010400Z 05017KT 9999 -RA FEW015 BKN025 15/12 Q1011 NOSIG,0,17,0,10000,0,0,0,-RA
2026-04-01 03:30:00,METAR RJTT 010330Z 05015KT 9999 -RA FEW015 BKN025 15/12 Q1012 NOSIG,0,15,0,10000,0,0,0,-RA
2026-04-01 03:00:00,METAR RJTT 010300Z 04012KT 9999 FEW015 BKN025 16/12 Q1013 NOSIG,0,12,0,10000,0,0,0,
2026-04-01 02:30:00,METAR RJTT 010230Z 04014KT 9999 FEW015 BKN020 16/12 Q1012 NOSIG,0,14,0,10000,0,0,0,
2026-04-01 02:00:00,METAR RJTT 010200Z 05017KT 9999 FEW015 BKN020 BKN030 16/13 Q1012 BECMG 08016KT,0,17,0,10000,0,0,0,
2026-04-01 01:30:00,METAR RJTT 010130Z 05015KT 9999 FEW015 BKN020 16/13 Q1011 BECMG TL0230 08016KT,0,15,0,10000,0,0,0,
2026-04-01 01:00:00,METAR RJTT 010100Z 05013KT 9999 FEW020 BKN030 16/13 Q1011 BECMG TL0230 08016KT,0,13,0,10000,0,0,0,
2026-04-01 00:30:00,METAR RJTT 010030Z 05012KT 9999 FEW020 BKN040 17/14 Q1011 BECMG 08012KT,0,12,0,10000,0,0,0,
2026-04-01 00:00:00,METAR RJTT 010000Z 04007KT 9000 -RA FEW013 BKN040 17/15 Q1011 NOSIG,0,7,0,9000,0,0,0,-RA
2026-03-31 23:30:00,METAR RJTT 312330Z 01007KT 9000 -RA FEW015 BKN035 17/15 Q1011 NOSIG,0,7,0,9000,0,0,0,-RA
2026-03-31 23:00:00,METAR RJTT 312300Z 01006KT 9999 -RA FEW010 SCT013 BKN025 17/15 Q1010 NOSIG,0,6,0,9999,0,0,0,-RA
2026-03-31 22:30:00,METAR RJTT 312230Z 35006KT 9999 FEW008 BKN013 BKN030 17/14 Q1010 BECMG FM0000 FEW010 BKN020,0,6,0,9999,0,0,0,
2026-03-31 22:00:00,METAR RJTT 312200Z 01007KT 9999 SCT018 BKN060 17/15 Q1009 NOSIG,0,7,0,9999,0,0,0,
2026-03-31 21:30:00,METAR RJTT 312130Z 01006KT 9999 FEW020 BKN060 17/14 Q1009 NOSIG,0,6,0,9999,0,0,0,
2026-03-31 21:00:00,METAR RJTT 312100Z 36004KT 9999 FEW020 BKN060 16/15 Q1009 NOSIG,0,4,0,9999,0,0,0,
2026-03-31 20:30:00,METAR RJTT 312030Z 36003KT 9999 FEW020 BKN060 16/15 Q1008 NOSIG,0,3,0,9999,0,0,0,
2026-03-31 20:00:00,METAR RJTT 312000Z 02004KT 9999 FEW020 BKN050 15/15 Q1008 NOSIG,0,4,0,9999,0,0,0,
2026-03-31 19:30:00,METAR RJTT 311930Z 03004KT 9999 FEW020 BKN040 16/15 Q1007 NOSIG,0,4,0,9999,0,0,0,
2026-03-31 19:00:00,METAR RJTT 311900Z 04005KT 9999 FEW015 BKN030 16/15 Q1007 NOSIG,0,5,0,9999,0,0,0,
2026-03-31 18:30:00,METAR RJTT 311830Z 04006KT 9999 FEW015 BKN025 16/15 Q1006 NOSIG,0,6,0,9999,0,0,0,
2026-03-31 18:00:00,METAR RJTT 311800Z 03003KT 340V080 9999 FEW010 15/14 Q1006 NOSIG,0,3,0,9999,0,0,0,
2026-03-31 17:30:00,METAR RJTT 311730Z 12005KT 9999 FEW015 SCT025 16/15 Q1005 BECMG TL1900 04006KT,0,5,0,9999,0,0,0,
2026-03-31 17:00:00,METAR RJTT 311700Z 09004KT 9999 FEW020 BKN025 16/15 Q1004 BECMG 04006KT,0,4,0,9999,0,0,0,
2026-03-31 16:30:00,METAR RJTT 311630Z 08004KT 050V120 9999 FEW020 SCT/// 16/15 Q1004 NOSIG,0,4,0,9999,0,0,0,
2026-03-31 16:00:00,METAR RJTT 311600Z 35004KT 9999 FEW020 SCT/// 16/15 Q1004 NOSIG,0,4,0,9999,0,0,0,
2026-03-31 15:30:00,METAR RJTT 311530Z 36004KT 9999 FEW020 SCT030 17/15 Q1004 NOSIG,0,4,0,9999,0,0,0,
2026-03-31 15:00:00,METAR RJTT 311500Z 34004KT 9999 FEW015 SCT020 BKN030 17/16 Q1003 NOSIG,0,4,0,9999,0,0,0,
2026-03-31 14:30:00,METAR RJTT 311430Z 27005KT 9999 FEW020 18/16 Q1003 NOSIG,0,5,0,9999,0,0,0,
2026-03-31 14:00:00,METAR RJTT 311400Z 22011KT 9999 FEW020 19/17 Q1002 NOSIG,0,11,0,9999,0,0,0,
2026-03-31 13:30:00,METAR RJTT 311330Z 21020G33KT 9999 FEW020 SCT090 20/17 Q1002 NOSIG,0,20,1,9999,0,0,0,
2026-03-31 13:00:00,METAR RJTT 311300Z 20017KT 9999 FEW012 BKN090 19/17 Q1002 TEMPO TL1400 21024G34KT,0,17,0,9999,0,0,0,
2026-03-31 12:30:00,METAR RJTT 311230Z 21020KT 9999 FEW010 SCT030 BKN100 21/18 Q1001 TEMPO TL1400 21026G36KT,0,20,0,9999,0,0,0,
2026-03-31 12:00:00,METAR RJTT 311200Z 20020KT 9999 -SHRA FEW008 SCT012 BKN015 20/18 Q1002 TEMPO 21026G36KT FEW007 BKN012,0,20,0,9999,0,0,0,RA
2026-03-31 11:30:00,METAR RJTT 311130Z 21023KT 9000 -SHRA FEW008 SCT012 BKN030 20/18 Q1001 TEMPO 21026G36KT FEW007 BKN012,0,23,0,9000,0,0,0,RA
2026-03-31 11:00:00,METAR RJTT 311100Z 21024G35KT 9999 -SHRA FEW008 SCT012 BKN030 19/18 Q1001 TEMPO 20033G46KT FEW005 BKN008,0,24,1,9999,0,0,0,RA
2026-03-31 10:30:00,METAR RJTT 311030Z 20026G37KT 9999 -SHRA FEW008 BKN012 BKN040 19/18 Q1001 TEMPO 4000 -SHRA BR FEW005 BKN008,0,26,1,9999,0,0,1,"BR,RA"
2026-03-31 10:00:00,METAR RJTT 311000Z 20028G39KT 9999 -SHRA FEW008 BKN012 BKN015 19/18 Q1000 TEMPO FEW005 BKN008,0,28,1,9999,0,0,0,RA
2026-03-31 09:30:00,METAR RJTT 310930Z 20028G38KT 6000 -SHRA FEW007 BKN010 BKN015 18/18 Q1001 TEMPO 4000 -SHRA BR FEW005 BKN007,0,28,1,6000,0,0,1,"BR,RA"
2026-03-31 09:00:00,METAR RJTT 310900Z 20028G41KT 4500 -SHRA BR FEW007 BKN010 18/17 Q1001 TEMPO FEW005 BKN007,0,28,1,4500,0,0,1,"BR,RA"
2026-03-31 08:30:00,METAR RJTT 310830Z 19026KT 4000 -SHRA BR FEW005 BKN007 BKN010 18/17 Q1001 TEMPO 20034G46KT FEW003 BKN005,0,26,0,4000,0,0,1,"BR,RA"
2026-03-31 08:00:00,METAR RJTT 310800Z 20022KT 2500 R16R/2000N R22/1600VP2000N R16L/1900U R23/P2000N SHRA BR FEW004 BKN006 17/17 Q1002 TEMPO 20030G44KT FEW003 BKN005,0,22,0,2500,0,0,1,"BR,RA,SH"
2026-03-31 07:30:00,METAR RJTT 310730Z 19020KT 3000 SHRA BR FEW004 BKN006 17/17 Q1002 TEMPO 18030G40KT FEW003 BKN005 BECMG 18030KT,0,20,0,3000,0,0,1,"BR,RA,SH"
2026-03-31 07:00:00,METAR RJTT 310700Z 19020KT 3000 SHRA BR FEW004 BKN006 16/16 Q1003 TEMPO 18030G40KT FEW003 BKN005 BECMG 18030KT,0,20,0,3000,0,0,1,"BR,RA,SH"
2026-03-31 06:30:00,METAR RJTT 310630Z 18018KT 3000 R16R/2000N R22/2000N R16L/2000N R23/2000N -SHRA BR FEW003 BKN005 16/16 Q1004 TEMPO 18025G35KT SHRA BR,0,18,0,3000,0,0,1,"BR,RA,SH"
2026-03-31 06:00:00,METAR RJTT 310600Z 18018KT 3000 R16R/2000N R22/2000N R16L/2000N R23/P2000N -SHRA BR FEW003 BKN006 BKN010 16/15 Q1005 TEMPO 18025G35KT SHRA BR FEW003 BKN005,0,18,0,3000,0,0,1,"BR,RA,SH"
2026-03-31 05:30:00,METAR RJTT 310530Z 18016KT 3000 R16R/1900U R22/1800N R16L/1700N R23/2000N -SHRA BR FEW004 BKN005 BKN012 15/14 Q1006 TEMPO 18030G42KT SHRA BR BECMG 18030KT,0,16,0,3000,0,0,1,"BR,RA,SH"
2026-03-31 05:00:00,METAR RJTT 310500Z 18022KT 3500 R16R/2000N R22/2000N R16L/2000N R23/P2000N -SHRA BR FEW004 BKN005 BKN015 15/15 Q1007 TEMPO 18030G42KT 3000 SHRA BR,0,22,0,3500,0,0,1,"BR,RA,SH"
2026-03-31 04:30:00,METAR RJTT 310430Z 18023KT 4000 -SHRA BR FEW003 BKN005 BKN015 15/14 Q1007 TEMPO 18026G38KT 3000 -SHRA BR,0,23,0,4000,0,0,1,"BR,RA"
2026-03-31 04:00:00,METAR RJTT 310400Z 18019KT 5000 -RA BR FEW006 BKN008 BKN020 15/14 Q1008 TEMPO 18026G38KT 4000 -SHRA BR,0,19,0,5000,0,0,1,"-RA,BR,RA"
2026-03-31 03:30:00,METAR RJTT 310330Z 20017KT 6000 -RA FEW008 SCT015 BKN025 15/14 Q1009 NOSIG,0,17,0,6000,0,0,0,-RA
2026-03-31 03:00:00,METAR RJTT 310300Z 20019KT 6000 -RA FEW008 SCT012 BKN030 15/14 Q1010 NOSIG,0,19,0,6000,0,0,0,-RA
2026-03-31 02:30:00,METAR RJTT 310230Z 20020KT 3000 R16R/P2000N R22/P2000N R16L/2000N R23/2000N -SHRA BR FEW004 SCT008 BKN020 16/15 Q1011 BECMG 8000 -SHRA,0,20,0,3000,0,0,1,"BR,RA"
2026-03-31 02:00:00,METAR RJTT 310200Z 19019KT 9999 -SHRA FEW010 BKN020 BKN040 17/14 Q1011 NOSIG,0,19,0,9999,0,0,0,RA
2026-03-31 01:30:00,METAR RJTT 310130Z 19019KT 9999 FEW010 BKN045 BKN060 17/14 Q1012 NOSIG,0,19,0,9999,0,0,0,
2026-03-31 01:00:00,METAR RJTT 310100Z 18018KT 8000 -SHRA FEW008 BKN012 BKN070 16/15 Q1012 BECMG FEW008 BKN020,0,18,0,8000,0,0,0,RA
2026-03-31 00:30:00,METAR RJTT 310030Z 19018KT 8000 -RA FEW008 SCT020 BKN030 16/14 Q1012 NOSIG,0,18,0,8000,0,0,0,-RA
2026-03-31 00:00:00,METAR RJTT 310000Z 18021G31KT 9999 R16R/P2000N R22/P2000N R16L/P2000N R23/P2000N -RA FEW015 SCT030 BKN045 16/14 Q1013 TEMPO 4000 SHRA BR,0,21,1,9999,0,0,1,"-RA,BR,RA,SH"
2026-03-30 23:30:00,METAR RJTT 302330Z 18023KT 9999 -RA FEW015 SCT030 BKN050 16/14 Q1013 NOSIG,0,23,0,10000,0,0,0,-RA
2026-03-30 23:00:00,METAR RJTT 302300Z 19016KT 9999 -RA FEW020 SCT050 BKN080 18/13 Q1014 NOSIG,0,16,0,10000,0,0,0,-RA
2026-03-30 22:30:00,METAR RJTT 302230Z 19016KT 9999 -RA FEW020 BKN060 BKN100 18/13 Q1014 NOSIG,0,16,0,10000,0,0,0,-RA
2026-03-30 22:00:00,METAR RJTT 302200Z 19013KT 9999 FEW020 BKN100 18/13 Q1014 NOSIG,0,13,0,10000,0,0,0,
2026-03-30 21:30:00,METAR RJTT 302130Z 19013KT 9999 FEW030 BKN120 17/14 Q1014 NOSIG,0,13,0,10000,0,0,0,
2026-03-30 21:00:00,METAR RJTT 302100Z 19012KT 9999 FEW020 SCT030 BKN130 17/14 Q1014 NOSIG,0,12,0,10000,0,0,0,
2026-03-30 20:30:00,METAR RJTT 302030Z 18013KT 9999 FEW020 BKN030 BKN140 17/14 Q1014 NOSIG,0,13,0,10000,0,0,0,
2026-03-30 20:00:00,METAR RJTT 302000Z 18010KT 9999 FEW030 SCT070 BKN140 17/14 Q1015 NOSIG,0,10,0,10000,0,0,0,
2026-03-30 19:30:00,METAR RJTT 301930Z 19017KT 9999 FEW030 BKN140 17/13 Q1015 NOSIG,0,17,0,10000,0,0,0,
2026-03-30 19:00:00,METAR RJTT 301900Z 19014KT 9999 FEW030 BKN140 17/13 Q1015 NOSIG,0,14,0,10000,0,0,0,
2026-03-30 18:30:00,METAR RJTT 301830Z 18009KT 9999 FEW030 SCT060 BKN150 17/13 Q1015 NOSIG,0,9,0,10000,0,0,0,
2026-03-30 18:00:00,METAR RJTT 301800Z 19013KT 9999 FEW020 BKN170 17/13 Q1015 NOSIG,0,13,0,10000,0,0,0,
2026-03-30 17:30:00,METAR RJTT 301730Z 19014KT 9999 FEW020 BKN170 17/13 Q1016 NOSIG,0,14,0,10000,0,0,0,
2026-03-30 17:00:00,METAR RJTT 301700Z 19014KT 9999 FEW020 SCT030 BKN/// 17/13 Q1016 NOSIG,0,14,0,10000,0,0,0,
2026-03-30 16:30:00,METAR RJTT 301630Z 20016KT 9999 FEW030 BKN/// 17/14 Q1017 NOSIG,0,16,0,10000,0,0,0,
2026-03-30 16:00:00,METAR RJTT 301600Z 20016KT 9999 FEW030 BKN/// 17/14 Q1017 NOSIG,0,16,0,10000,0,0,0,
2026-03-30 15:30:00,METAR RJTT 301530Z 20015KT 9999 FEW030 BKN/// 17/14 Q1018 NOSIG,0,15,0,10000,0,0,0,
2026-03-30 15:00:00,METAR RJTT 301500Z 20016KT 9999 FEW030 BKN/// 17/14 Q1018 NOSIG,0,16,0,10000,0,0,0,
2026-03-30 14:30:00,METAR RJTT 301430Z 20013KT 9999 FEW030 BKN140 18/14 Q1018 NOSIG,0,13,0,10000,0,0,0,
2026-03-30 14:00:00,METAR RJTT 301400Z 21015KT 9999 FEW030 BKN150 18/14 Q1018 NOSIG,0,15,0,10000,0,0,0,
2026-03-30 13:30:00,METAR RJTT 301330Z 21016KT 9999 FEW030 BKN150 17/14 Q1018 NOSIG,0,16,0,10000,0,0,0,
2026-03-30 13:00:00,METAR RJTT 301300Z 20014KT 9999 FEW030 BKN/// 18/14 Q1018 NOSIG,0,14,0,10000,0,0,0,
2026-03-30 12:30:00,METAR RJTT 301230Z 20016KT 9999 FEW030 BKN/// 18/14 Q1018 NOSIG,0,16,0,10000,0,0,0,
2026-03-30 12:00:00,METAR RJTT 301200Z 21015KT 9999 FEW030 BKN/// 18/14 Q1019 NOSIG,0,15,0,10000,0,0,0,
2026-03-30 11:30:00,METAR RJTT 301130Z 20013KT 9999 FEW030 BKN/// 18/14 Q1018 NOSIG,0,13,0,10000,0,0,0,
2026-03-30 11:00:00,METAR RJTT 301100Z 19015KT 9999 FEW030 BKN/// 17/14 Q1018 NOSIG,0,15,0,10000,0,0,0,
2026-03-30 10:30:00,METAR RJTT 301030Z 18011KT 9999 FEW030 BKN/// 17/14 Q1018 NOSIG,0,11,0,10000,0,0,0,
2026-03-30 10:00:00,METAR RJTT 301000Z 19013KT 9999 FEW030 SCT100 BKN/// 17/14 Q1018 NOSIG,0,13,0,10000,0,0,0,
2026-03-30 09:30:00,METAR RJTT 300930Z 19013KT 9999 FEW030 BKN/// 17/13 Q1018 NOSIG,0,13,0,10000,0,0,0,
2026-03-30 09:00:00,METAR RJTT 300900Z 18014KT 9999 FEW030 BKN/// 16/13 Q1018 NOSIG,0,14,0,10000,0,0,0,
2026-03-30 08:30:00,METAR RJTT 300830Z 19014KT 9999 FEW030 BKN/// 17/13 Q1018 NOSIG,0,14,0,10000,0,0,0,
2026-03-30 08:00:00,METAR RJTT 300800Z 18017KT 9999 FEW030 BKN/// 17/12 Q1018 NOSIG,0,17,0,10000,0,0,0,
2026-03-30 07:30:00,METAR RJTT 300730Z 18017KT 9999 FEW030 BKN/// 18/12 Q1018 NOSIG,0,17,0,10000,0,0,0,
2026-03-30 07:00:00,METAR RJTT 300700Z 19018KT 9999 FEW030 BKN/// 18/12 Q1018 NOSIG,0,18,0,10000,0,0,0,
2026-03-30 06:30:00,METAR RJTT 300630Z 19015KT 9999 FEW030 BKN/// 19/13 Q1018 NOSIG,0,15,0,10000,0,0,0,
2026-03-30 06:00:00,METAR RJTT 300600Z 18014KT 9999 FEW030 BKN/// 19/12 Q1018 NOSIG,0,14,0,10000,0,0,0,
2026-03-30 05:30:00,METAR RJTT 300530Z 19013KT 9999 FEW030 SCT100 BKN/// 20/12 Q1019 NOSIG,0,13,0,10000,0,0,0,
2026-03-30 05:00:00,METAR RJTT 300500Z 19013KT 9999 FEW030 SCT080 20/11 Q1019 NOSIG,0,13,0,10000,0,0,0,
2026-03-30 04:30:00,METAR RJTT 300430Z 19012KT 9999 FEW030 BKN080 19/11 Q1020 NOSIG,0,12,0,10000,0,0,0,
2026-03-30 04:00:00,METAR RJTT 300400Z 18008KT 140V210 9999 FEW030 SCT080 BKN/// 19/11 Q1020 NOSIG,0,8,0,10000,0,0,0,
2026-03-30 03:30:00,METAR RJTT 300330Z 16007KT 120V190 9999 FEW030 SCT080 BKN/// 19/10 Q1020 NOSIG,0,7,0,10000,0,0,0,
2026-03-30 03:00:00,METAR RJTT 300300Z 16007KT 110V200 9000 FEW030 BKN070 BKN/// 16/12 Q1021 NOSIG,0,7,0,9000,0,0,0,
2026-03-30 02:30:00,METAR RJTT 300230Z 12005KT 9999 FEW030 SCT090 BKN/// 16/12 Q1021 BECMG 18010KT,0,5,0,10000,0,0,0,
2026-03-30 02:00:00,METAR RJTT 300200Z 09005KT 9999 FEW030 BKN090 16/11 Q1022 NOSIG,0,5,0,10000,0,0,0,
2026-03-30 01:30:00,METAR RJTT 300130Z 09005KT 9999 FEW030 SCT100 16/11 Q1022 NOSIG,0,5,0,10000,0,0,0,
2026-03-30 01:00:00,METAR RJTT 300100Z 09004KT 9999 FEW015 SCT100 15/11 Q1022 NOSIG,0,4,0,10000,0,0,0,
2026-03-30 00:30:00,METAR RJTT 300030Z 08004KT 9999 BKN015 14/10 Q1022 NOSIG,0,4,0,10000,0,0,0,
2026-03-30 00:00:00,METAR RJTT 300000Z 05006KT 9999 BKN015 15/10 Q1022 BECMG 10004KT,0,6,0,10000,0,0,0,
2026-03-29 23:30:00,METAR RJTT 292330Z 03009KT 9999 BKN016 14/10 Q1022 NOSIG,0,9,0,10000,0,0,0,
2026-03-29 23:00:00,METAR RJTT 292300Z 02008KT 9999 BKN018 14/09 Q1022 NOSIG,0,8,0,10000,0,0,0,
2026-03-29 22:30:00,METAR RJTT 292230Z 03006KT 9999 BKN018 14/09 Q1022 NOSIG,0,6,0,10000,0,0,0,
2026-03-29 22:00:00,METAR RJTT 292200Z 36005KT 9999 BKN018 13/09 Q1022 NOSIG,0,5,0,10000,0,0,0,
2026-03-29 21:30:00,METAR RJTT 292130Z 03007KT 9999 BKN018 13/09 Q1022 NOSIG,0,7,0,10000,0,0,0,
2026-03-29 21:00:00,METAR RJTT 292100Z 03008KT 9999 BKN018 13/08 Q1021 NOSIG,0,8,0,10000,0,0,0,
2026-03-29 20:30:00,METAR RJTT 292030Z 02010KT 9999 FEW018 BKN025 13/08 Q1021 NOSIG,0,10,0,10000,0,0,0,
2026-03-29 20:00:00,METAR RJTT 292000Z 02008KT 9999 FEW020 BKN030 13/09 Q1021 NOSIG,0,8,0,10000,0,0,0,
2026-03-29 19:30:00,METAR RJTT 291930Z 35009KT 9999 BKN020 13/09 Q1021 NOSIG,0,9,0,10000,0,0,0,
2026-03-29 19:00:00,METAR RJTT 291900Z 35009KT 9999 BKN020 13/09 Q1020 NOSIG,0,9,0,10000,0,0,0,
2026-03-29 18:30:00,METAR RJTT 291830Z 36009KT 9999 BKN020 14/09 Q1020 NOSIG,0,9,0,10000,0,0,0,
2026-03-29 18:00:00,METAR RJTT 291800Z 01011KT 9999 BKN020 14/09 Q1020 NOSIG,0,11,0,10000,0,0,0,
2026-03-29 17:30:00,METAR RJTT 291730Z 36012KT 9999 BKN020 14/10 Q1020 NOSIG,0,12,0,10000,0,0,0,
2026-03-29 17:00:00,METAR RJTT 291700Z 36012KT 9999 BKN020 14/10 Q1020 NOSIG,0,12,0,10000,0,0,0,
2026-03-29 16:30:00,METAR RJTT 291630Z 36012KT 9999 BKN020 BKN050 14/10 Q1020 NOSIG,0,12,0,10000,0,0,0,
2026-03-29 16:00:00,METAR RJTT 291600Z 01009KT 9999 BKN020 15/12 Q1020 NOSIG,0,9,0,10000,0,0,0,
2026-03-29 15:30:00,METAR RJTT 291530Z 35009KT 330V040 9999 FEW016 BKN025 15/12 Q1020 NOSIG,0,9,0,10000,0,0,0,
2026-03-29 15:00:00,METAR RJTT 291500Z 05007KT 9999 BKN020 15/12 Q1020 NOSIG,0,7,0,10000,0,0,0,
2026-03-29 14:30:00,METAR RJTT 291430Z 06009KT 9999 FEW020 SCT030 BKN/// 15/13 Q1020 BECMG 35010KT,0,9,0,10000,0,0,0,
2026-03-29 14:00:00,METAR RJTT 291400Z 06009KT 9999 FEW015 SCT025 BKN/// 15/12 Q1019 BECMG 05008KT,0,9,0,10000,0,0,0,
2026-03-29 13:30:00,METAR RJTT 291330Z 07007KT 040V100 9999 BKN020 15/12 Q1020 BECMG 05008KT,0,7,0,10000,0,0,0,
2026-03-29 13:00:00,METAR RJTT 291300Z 07011KT 9999 FEW015 BKN020 15/13 Q1020 BECMG 05008KT,0,11,0,10000,0,0,0,
2026-03-29 12:30:00,METAR RJTT 291230Z 08012KT 9999 FEW015 BKN020 15/13 Q1019 NOSIG,0,12,0,10000,0,0,0,
2026-03-29 12:00:00,METAR RJTT 291200Z 08013KT 9999 BKN020 15/13 Q1019 NOSIG,0,13,0,10000,0,0,0,
2026-03-29 11:30:00,METAR RJTT 291130Z 08012KT 9999 BKN020 15/13 Q1019 NOSIG,0,12,0,10000,0,0,0,
2026-03-29 11:00:00,METAR RJTT 291100Z 09011KT 9999 FEW014 SCT025 BKN/// 15/13 Q1019 NOSIG,0,11,0,10000,0,0,0,
2026-03-29 10:30:00,METAR RJTT 291030Z 10014KT 9999 FEW014 SCT020 BKN/// 15/13 Q1018 NOSIG,0,14,0,10000,0,0,0,
2026-03-29 10:00:00,METAR RJTT 291000Z 10013KT 9999 FEW030 BKN/// 16/14 Q1018 NOSIG,0,13,0,10000,0,0,0,
2026-03-29 09:30:00,METAR RJTT 290930Z 10012KT 9999 FEW045 SCT060 BKN/// 16/14 Q1018 NOSIG,0,12,0,10000,0,0,0,
2026-03-29 09:00:00,METAR RJTT 290900Z 12010KT 9999 FEW030 SCT060 BKN/// 17/13 Q1017 NOSIG,0,10,0,10000,0,0,0,
2026-03-29 08:30:00,METAR RJTT 290830Z 13008KT 9999 FEW030 BKN/// 16/13 Q1017 NOSIG,0,8,0,10000,0,0,0,
2026-03-29 08:00:00,METAR RJTT 290800Z 15011KT 9999 FEW030 BKN/// 17/13 Q1016 NOSIG,0,11,0,10000,0,0,0,
2026-03-29 07:30:00,METAR RJTT 290730Z 17010KT 9999 FEW030 BKN/// 19/11 Q1016 NOSIG,0,10,0,10000,0,0,0,
2026-03-29 07:00:00,METAR RJTT 290700Z 18013KT 9999 FEW030 20/12 Q1015 BECMG TL0800 12012KT,0,13,0,10000,0,0,0,
2026-03-29 06:30:00,METAR RJTT 290630Z 18012KT 9999 FEW030 20/13 Q1015 NOSIG,0,12,0,10000,0,0,0,
2026-03-29 06:00:00,METAR RJTT 290600Z 18013KT 9999 FEW030 SCT/// 21/13 Q1015 NOSIG,0,13,0,10000,0,0,0,
2026-03-29 05:30:00,METAR RJTT 290530Z 16009KT 9999 FEW030 BKN/// 20/12 Q1015 NOSIG,0,9,0,10000,0,0,0,
2026-03-29 05:00:00,METAR RJTT 290500Z 17008KT 9999 FEW020 21/12 Q1015 NOSIG,0,8,0,10000,0,0,0,
2026-03-29 04:30:00,METAR RJTT 290430Z 16008KT 130V200 9999 FEW020 18/13 Q1016 NOSIG,0,8,0,10000,0,0,0,
2026-03-29 04:00:00,METAR RJTT 290400Z 11006KT 070V200 9999 FEW020 18/13 Q1016 BECMG 18010KT,0,6,0,10000,0,0,0,
2026-03-29 03:30:00,METAR RJTT 290330Z 09006KT 9999 FEW020 17/12 Q1016 BECMG 18010KT,0,6,0,10000,0,0,0,
2026-03-29 03:00:00,METAR RJTT 290300Z 11006KT 9999 FEW020 18/13 Q1017 NOSIG,0,6,0,10000,0,0,0,
2026-03-29 02:30:00,METAR RJTT 290230Z 12006KT 9999 FEW020 17/13 Q1017 NOSIG,0,6,0,10000,0,0,0,
2026-03-29 02:00:00,METAR RJTT 290200Z 11005KT 9999 FEW020 17/12 Q1017 NOSIG,0,5,0,10000,0,0,0,
2026-03-29 01:30:00,METAR RJTT 290130Z 09005KT 8000 FEW015 17/13 Q1017 NOSIG,0,5,0,8000,0,0,0,
2026-03-29 01:00:00,METAR RJTT 290100Z 08004KT 8000 FEW015 16/12 Q1018 NOSIG,0,4,0,8000,0,0,0,
2026-03-29 00:30:00,METAR RJTT 290030Z 07003KT 8000 FEW015 15/12 Q1018 NOSIG,0,3,0,8000,0,0,0,
2026-03-29 00:00:00,METAR RJTT 290000Z 03004KT 8000 FEW015 15/11 Q1018 BECMG 10006KT,0,4,0,8000,0,0,0,
2026-03-28 23:30:00,METAR RJTT 282330Z 01004KT 8000 FEW015 15/11 Q1017 NOSIG,0,4,0,8000,0,0,0,
2026-03-28 23:00:00,METAR RJTT 282300Z 35004KT 8000 FEW020 15/12 Q1017 NOSIG,0,4,0,8000,0,0,0,
2026-03-28 22:30:00,METAR RJTT 282230Z 33005KT 7000 FEW015 14/11 Q1017 NOSIG,0,5,0,7000,0,0,0,
2026-03-28 22:00:00,METAR RJTT 282200Z 28005KT 250V320 7000 FEW015 13/10 Q1017 NOSIG,0,5,0,7000,0,0,0,
2026-03-28 21:30:00,METAR RJTT 282130Z 31004KT 6000 FEW015 12/10 Q1016 NOSIG,0,4,0,6000,0,0,0,
2026-03-28 21:00:00,METAR RJTT 282100Z 29005KT 6000 FEW012 11/10 Q1016 TEMPO 4000 BR,0,5,0,6000,0,0,1,BR
2026-03-28 20:30:00,METAR RJTT 282030Z 27005KT 6000 NSC 11/10 Q1016 TEMPO 4000 BR,0,5,0,6000,0,0,1,BR
2026-03-28 20:00:00,METAR RJTT 282000Z 31004KT 9999 FEW015 12/10 Q1015 TEMPO FM2100 4000 BR,0,4,0,10000,0,0,1,BR
2026-03-28 19:30:00,METAR RJTT 281930Z 30006KT 9999 FEW015 11/10 Q1015 TEMPO FM2100 4000 BR,0,6,0,10000,0,0,1,BR
2026-03-28 19:00:00,METAR RJTT 281900Z 29007KT 9999 FEW015 12/10 Q1015 NOSIG,0,7,0,10000,0,0,0,
2026-03-28 18:30:00,METAR RJTT 281830Z 28007KT 9999 FEW015 12/10 Q1015 NOSIG,0,7,0,10000,0,0,0,
2026-03-28 18:00:00,METAR RJTT 281800Z 29006KT 9999 FEW015 12/10 Q1015 NOSIG,0,6,0,10000,0,0,0,
2026-03-28 17:30:00,METAR RJTT 281730Z 24003KT 200V290 9999 FEW015 13/11 Q1015 NOSIG,0,3,0,10000,0,0,0,
2026-03-28 17:00:00,METAR RJTT 281700Z 14003KT 100V180 9999 FEW020 12/12 Q1015 NOSIG,0,3,0,10000,0,0,0,
2026-03-28 16:30:00,METAR RJTT 281630Z 17004KT 150V240 9999 FEW020 13/12 Q1015 NOSIG,0,4,0,10000,0,0,0,
2026-03-28 16:00:00,METAR RJTT 281600Z VRB02KT 9999 FEW020 13/12 Q1015 NOSIG,0,2,0,10000,0,0,0,
2026-03-28 15:30:00,METAR RJTT 281530Z 17003KT 130V250 CAVOK 15/11 Q1015 BECMG 30005KT,1,0,0,9999,0,0,0,
2026-03-28 15:00:00,METAR RJTT 281500Z 20004KT 140V290 CAVOK 15/11 Q1015 NOSIG,1,0,0,9999,0,0,0,
2026-03-28 14:30:00,METAR RJTT 281430Z 19006KT 150V230 CAVOK 15/12 Q1015 NOSIG,1,0,0,9999,0,0,0,
2026-03-28 14:00:00,METAR RJTT 281400Z 18010KT 9999 FEW030 SCT110 15/11 Q1015 NOSIG,0,10,0,10000,0,0,0,
2026-03-28 13:30:00,METAR RJTT 281330Z 17011KT 9999 FEW030 BKN110 15/11 Q1015 NOSIG,0,11,0,10000,0,0,0,
2026-03-28 13:00:00,METAR RJTT 281300Z 16007KT 9999 FEW030 BKN120 14/12 Q1015 NOSIG,0,7,0,10000,0,0,0,
2026-03-28 12:30:00,METAR RJTT 281230Z 15009KT 9999 FEW030 BKN120 14/12 Q1015 NOSIG,0,9,0,10000,0,0,0,
2026-03-28 12:00:00,METAR RJTT 281200Z 17009KT 9999 FEW030 BKN120 15/12 Q1015 NOSIG,0,9,0,10000,0,0,0,
2026-03-28 11:30:00,METAR RJTT 281130Z 18008KT 9999 FEW030 BKN120 16/11 Q1014 NOSIG,0,8,0,10000,0,0,0,
2026-03-28 11:00:00,METAR RJTT 281100Z 18010KT 9999 FEW030 BKN120 15/11 Q1014 NOSIG,0,10,0,10000,0,0,0,
2026-03-28 10:30:00,METAR RJTT 281030Z 19011KT 9999 FEW030 BKN120 15/11 Q1014 NOSIG,0,11,0,10000,0,0,0,
2026-03-28 10:00:00,METAR RJTT 281000Z 19010KT 9999 FEW030 BKN120 16/11 Q1014 NOSIG,0,10,0,10000,0,0,0,
2026-03-28 09:30:00,METAR RJTT 280930Z 19011KT 9999 FEW030 BKN110 16/11 Q1013 NOSIG,0,11,0,10000,0,0,0,
2026-03-28 09:00:00,METAR RJTT 280900Z 19013KT 9999 FEW030 BKN110 16/11 Q1013 NOSIG,0,13,0,10000,0,0,0,
2026-03-28 08:30:00,METAR RJTT 280830Z 19013KT 9999 FEW030 BKN110 16/10 Q1013 NOSIG,0,13,0,10000,0,0,0,
2026-03-28 08:00:00,METAR RJTT 280800Z 19014KT 9999 FEW030 BKN110 16/10 Q1013 NOSIG,0,14,0,10000,0,0,0,
2026-03-28 07:30:00,METAR RJTT 280730Z 19014KT 9999 FEW030 BKN110 BKN/// 17/09 Q1013 NOSIG,0,14,0,10000,0,0,0,
2026-03-28 07:00:00,METAR RJTT 280700Z 19015KT 9999 FEW030 SCT130 BKN/// 17/09 Q1013 NOSIG,0,15,0,10000,0,0,0,
2026-03-28 06:30:00,METAR RJTT 280630Z 19015KT 9999 FEW030 BKN/// 18/08 Q1012 NOSIG,0,15,0,10000,0,0,0,
2026-03-28 06:00:00,METAR RJTT 280600Z 19014KT 9999 FEW030 BKN/// 18/09 Q1012 NOSIG,0,14,0,10000,0,0,0,
2026-03-28 05:30:00,METAR RJTT 280530Z 17012KT 120V230 9999 FEW030 18/09 Q1012 NOSIG,0,12,0,10000,0,0,0,
2026-03-28 05:00:00,METAR RJTT 280500Z 16009KT 130V210 9999 FEW030 18/09 Q1013 NOSIG,0,9,0,10000,0,0,0,
2026-03-28 04:30:00,METAR RJTT 280430Z 18010KT 110V240 9999 FEW030 18/10 Q1013 NOSIG,0,10,0,10000,0,0,0,
2026-03-28 04:00:00,METAR RJTT 280400Z 12006KT 110V170 9999 FEW020 16/11 Q1013 BECMG TL0530 18010KT,0,6,0,10000,0,0,0,
2026-03-28 03:30:00,METAR RJTT 280330Z 12006KT 9999 FEW020 16/10 Q1014 NOSIG,0,6,0,10000,0,0,0,
2026-03-28 03:00:00,METAR RJTT 280300Z 12006KT 9999 FEW020 16/12 Q1014 NOSIG,0,6,0,10000,0,0,0,
2026-03-28 02:30:00,METAR RJTT 280230Z 10006KT 9999 FEW020 15/11 Q1014 NOSIG,0,6,0,10000,0,0,0,
2026-03-28 02:00:00,METAR RJTT 280200Z 09005KT 9999 FEW015 SCT025 14/11 Q1015 NOSIG,0,5,0,10000,0,0,0,
2026-03-28 01:30:00,METAR RJTT 280130Z 08005KT 9999 FEW015 BKN025 14/11 Q1015 NOSIG,0,5,0,10000,0,0,0,
2026-03-28 01:00:00,METAR RJTT 280100Z 09005KT 9999 FEW015 BKN020 15/12 Q1015 NOSIG,0,5,0,10000,0,0,0,
2026-03-28 00:30:00,METAR RJTT 280030Z 08004KT 9999 FEW015 BKN020 14/12 Q1015 NOSIG,0,4,0,10000,0,0,0,
2026-03-28 00:00:00,METAR RJTT 280000Z 06003KT 9999 FEW015 BKN020 14/11 Q1016 NOSIG,0,3,0,10000,0,0,0,
2026-03-27 23:30:00,METAR RJTT 272330Z 06003KT 9999 FEW010 SCT020 13/11 Q1016 NOSIG,0,3,0,10000,0,0,0,
2026-03-27 23:00:00,METAR RJTT 272300Z 05003KT 9999 FEW010 SCT015 BKN025 12/10 Q1016 NOSIG,0,3,0,10000,0,0,0,
2026-03-27 22:30:00,METAR RJTT 272230Z 03004KT 9999 FEW007 SCT010 BKN025 12/10 Q1015 NOSIG,0,4,0,10000,0,0,0,
2026-03-27 22:00:00,METAR RJTT 272200Z 02006KT 9999 FEW007 BKN025 BKN040 11/10 Q1015 NOSIG,0,6,0,10000,0,0,0,
2026-03-27 21:30:00,METAR RJTT 272130Z 02005KT 9999 FEW007 BKN025 11/10 Q1015 NOSIG,0,5,0,10000,0,0,0,
2026-03-27 21:00:00,METAR RJTT 272100Z 01006KT 9999 FEW008 BKN020 11/09 Q1015 NOSIG,0,6,0,10000,0,0,0,
2026-03-27 20:30:00,METAR RJTT 272030Z 02006KT 9999 FEW007 SCT025 BKN045 10/09 Q1015 NOSIG,0,6,0,10000,0,0,0,
2026-03-27 20:00:00,METAR RJTT 272000Z 02007KT 9999 FEW006 SCT030 BKN050 11/09 Q1014 NOSIG,0,7,0,10000,0,0,0,
2026-03-27 19:30:00,METAR RJTT 271930Z 03006KT 9999 -SHRA FEW006 SCT020 BKN030 11/09 Q1014 NOSIG,0,6,0,10000,0,0,0,RA
2026-03-27 19:00:00,METAR RJTT 271900Z 02009KT 9999 -SHRA FEW008 SCT020 BKN030 11/10 Q1014 NOSIG,0,9,0,10000,0,0,0,RA
2026-03-27 18:30:00,METAR RJTT 271830Z 02009KT 9999 -SHRA FEW006 SCT020 BKN028 11/10 Q1014 NOSIG,0,9,0,10000,0,0,0,RA
2026-03-27 18:00:00,METAR RJTT 271800Z 02008KT 6000 -SHRA FEW006 BKN028 11/10 Q1014 NOSIG,0,8,0,6000,0,0,0,RA
2026-03-27 17:30:00,METAR RJTT 271730Z 01007KT 6000 -SHRA FEW006 SCT013 BKN020 11/10 Q1014 NOSIG,0,7,0,6000,0,0,0,RA
2026-03-27 17:00:00,METAR RJTT 271700Z 35007KT 6000 -SHRA FEW007 SCT010 BKN020 12/10 Q1014 NOSIG,0,7,0,6000,0,0,0,RA
2026-03-27 16:30:00,METAR RJTT 271630Z 02005KT 9999 FEW010 BKN035 12/10 Q1014 NOSIG,0,5,0,10000,0,0,0,
2026-03-27 16:00:00,METAR RJTT 271600Z 05007KT 9999 -SHRA FEW015 BKN040 12/10 Q1014 NOSIG,0,7,0,10000,0,0,0,RA
2026-03-25 15:00:00,METAR RJTT 251500Z 09006KT 6000 -RA FEW004 BKN020 12/11 Q1014 TEMPO 4000 -RA BR FEW005 BKN008,0,6,0,6000,0,0,1,"-RA,BR"
2026-03-25 14:30:00,METAR RJTT 251430Z 07008KT 6000 -RA FEW003 SCT005 BKN020 12/11 Q1014 TEMPO 4000 -RA BR FEW003 BKN005,0,8,0,6000,0,0,1,"-RA,BR"
2026-03-25 14:00:00,METAR RJTT 251400Z 08005KT 8000 -RA FEW005 SCT030 BKN050 12/11 Q1015 TEMPO 4000 -RA BR FEW005 BKN008,0,5,0,8000,0,0,1,"-RA,BR"
2026-03-25 13:30:00,METAR RJTT 251330Z 09004KT 9999 -RA FEW005 SCT040 BKN050 12/11 Q1015 TEMPO 4000 -RA BR FEW005 BKN008,0,4,0,10000,0,0,1,"-RA,BR"
2026-03-25 13:00:00,METAR RJTT 251300Z 10005KT 8000 -RA FEW005 BKN040 BKN050 12/11 Q1015 TEMPO 4000 -RA BR FEW005 BKN008,0,5,0,8000,0,0,1,"-RA,BR"
2026-03-25 12:30:00,METAR RJTT 251230Z 11006KT 7000 -RA FEW005 SCT020 BKN040 12/11 Q1016 TEMPO 4000 -RA BR FEW005 BKN008,0,6,0,7000,0,0,1,"-RA,BR"
2026-03-25 12:00:00,METAR RJTT 251200Z 11006KT 6000 -RA FEW004 SCT020 BKN040 12/11 Q1016 TEMPO 4000 -RA BR FEW005 BKN008,0,6,0,6000,0,0,1,"-RA,BR"
2026-03-25 11:30:00,METAR RJTT 251130Z 11006KT 9999 -RA FEW005 BKN050 12/11 Q1016 TEMPO 4000 -RA BR FEW005 BKN008,0,6,0,10000,0,0,1,"-RA,BR"
2026-03-25 11:00:00,METAR RJTT 251100Z 11007KT 9999 -RA FEW005 BKN050 12/11 Q1016 TEMPO 4000 -RA BR FEW005 BKN008,0,7,0,10000,0,0,1,"-RA,BR"
2026-03-25 10:30:00,METAR RJTT 251030Z 10005KT 8000 -RA FEW005 BKN050 12/11 Q1016 TEMPO 4000 -RA BR FEW005 BKN008,0,5,0,8000,0,0,1,"-RA,BR"
2026-03-25 10:00:00,METAR RJTT 251000Z 08007KT 6000 -RA FEW005 BKN040 12/11 Q1016 TEMPO 3000 RA BR FEW005 BKN008,0,7,0,6000,0,0,1,"-RA,BR,RA"
2026-03-25 09:30:00,METAR RJTT 250930Z 07007KT 5000 RA BR FEW005 SCT010 BKN018 12/11 Q1016 TEMPO 3000 RA BR FEW005 BKN008,0,7,0,5000,0,0,1,"BR,RA"
2026-03-25 09:00:00,METAR RJTT 250900Z 06007KT 7000 -RA FEW008 SCT025 BKN030 12/11 Q1016 BECMG 08006KT,0,7,0,7000,0,0,0,-RA
2026-03-25 08:30:00,METAR RJTT 250830Z 06007KT 5000 -RA BR FEW005 SCT008 BKN020 12/11 Q1016 BECMG 08006KT,0,7,0,5000,0,0,1,"-RA,BR"
2026-03-25 08:00:00,METAR RJTT 250800Z 06008KT 6000 -RA FEW005 BKN020 12/11 Q1016 BECMG 08006KT,0,8,0,6000,0,0,0,-RA
2026-03-25 07:30:00,METAR RJTT 250730Z 06007KT 7000 -RA FEW006 BKN020 12/11 Q1016 BECMG 08006KT,0,7,0,7000,0,0,0,-RA
2026-03-25 07:00:00,METAR RJTT 250700Z 06007KT 7000 -RA FEW010 SCT015 BKN025 12/10 Q1016 BECMG 08008KT,0,7,0,7000,0,0,0,-RA
2026-03-25 06:30:00,METAR RJTT 250630Z 05006KT 7000 -RA FEW010 BKN060 12/10 Q1017 BECMG 10004KT,0,6,0,7000,0,0,0,-RA
2026-03-25 06:00:00,METAR RJTT 250600Z 04006KT 7000 -RA FEW010 SCT030 BKN040 11/10 Q1017 BECMG 08004KT,0,6,0,7000,0,0,0,-RA
2026-03-25 05:30:00,METAR RJTT 250530Z 04006KT 8000 -RA FEW010 SCT020 BKN030 11/10 Q1017 BECMG 08004KT,0,6,0,8000,0,0,0,-RA
2026-03-25 05:00:00,METAR RJTT 250500Z 03005KT 7000 -RA FEW010 SCT030 BKN040 11/10 Q1017 BECMG 08004KT,0,5,0,7000,0,0,0,-RA
2026-03-25 04:30:00,METAR RJTT 250430Z 04005KT 8000 -RA FEW010 SCT020 BKN030 11/10 Q1018 BECMG 10004KT,0,5,0,8000,0,0,0,-RA
2026-03-25 04:00:00,METAR RJTT 250400Z 05004KT 8000 -RA FEW010 BKN025 12/09 Q1018 NOSIG,0,4,0,8000,0,0,0,-RA
2026-03-25 03:30:00,METAR RJTT 250330Z 07003KT 9999 -RA FEW010 BKN025 12/09 Q1018 NOSIG,0,3,0,10000,0,0,0,-RA
2026-03-25 03:00:00,METAR RJTT 250300Z 15003KT 070V230 9999 -RA FEW010 BKN028 12/09 Q1019 NOSIG,0,3,0,10000,0,0,0,-RA
2026-03-25 02:30:00,METAR RJTT 250230Z VRB03KT 9999 -RA FEW010 BKN028 13/08 Q1019 NOSIG,0,3,0,10000,0,0,0,-RA
2026-03-25 02:00:00,METAR RJTT 250200Z VRB03KT 9999 -RA FEW020 BKN028 13/07 Q1019 NOSIG,0,3,0,10000,0,0,0,-RA
2026-03-25 01:30:00,METAR RJTT 250130Z 03004KT 9999 -RA BKN033 13/06 Q1019 BECMG 08006KT,0,4,0,10000,0,0,0,-RA
2026-03-25 01:00:00,METAR RJTT 250100Z 04005KT 9999 BKN035 13/06 Q1019 BECMG 08006KT,0,5,0,10000,0,0,0,
2026-03-25 00:30:00,METAR RJTT 250030Z 03005KT 9999 FEW035 BKN040 13/07 Q1019 BECMG 08006KT,0,5,0,10000,0,0,0,
2026-03-25 00:00:00,METAR RJTT 250000Z 04006KT 9999 BKN040 13/06 Q1019 BECMG 08006KT,0,6,0,10000,0,0,0,
2026-03-24 23:30:00,METAR RJTT 242330Z 04005KT 9999 BKN040 13/06 Q1019 NOSIG,0,5,0,10000,0,0,0,
2026-03-24 23:00:00,METAR RJTT 242300Z 04005KT 9999 BKN040 13/05 Q1019 NOSIG,0,5,0,10000,0,0,0,
2026-03-24 22:30:00,METAR RJTT 242230Z 05005KT 9999 BKN040 12/06 Q1019 NOSIG,0,5,0,10000,0,0,0,
2026-03-24 22:00:00,METAR RJTT 242200Z 01004KT 9999 -RA BKN040 12/05 Q1019 NOSIG,0,4,0,10000,0,0,0,-RA
2026-03-24 21:30:00,METAR RJTT 242130Z 01004KT 9999 BKN040 12/05 Q1019 NOSIG,0,4,0,10000,0,0,0,
2026-03-24 21:00:00,METAR RJTT 242100Z 02005KT 9999 -RA BKN040 12/05 Q1019 NOSIG,0,5,0,10000,0,0,0,-RA
2026-03-24 20:30:00,METAR RJTT 242030Z 05006KT 9999 BKN035 12/06 Q1019 NOSIG,0,6,0,10000,0,0,0,
2026-03-24 20:00:00,METAR RJTT 242000Z 04007KT 9999 BKN040 12/06 Q1019 NOSIG,0,7,0,10000,0,0,0,
2026-03-24 19:30:00,METAR RJTT 241930Z 03006KT 9999 BKN045 12/05 Q1019 NOSIG,0,6,0,10000,0,0,0,
2026-03-24 19:00:00,METAR RJTT 241900Z 03004KT 9999 BKN045 12/05 Q1019 NOSIG,0,4,0,10000,0,0,0,
2026-03-24 18:30:00,METAR RJTT 241830Z 05004KT 9999 BKN045 12/06 Q1019 NOSIG,0,4,0,10000,0,0,0,
2026-03-24 18:00:00,METAR RJTT 241800Z 06004KT 9999 BKN045 12/06 Q1020 BECMG 04005KT,0,4,0,10000,0,0,0,
2026-03-24 17:30:00,METAR RJTT 241730Z 06006KT 9999 BKN045 12/06 Q1020 BECMG 04005KT,0,6,0,10000,0,0,0,
2026-03-24 17:00:00,METAR RJTT 241700Z 06005KT 9999 BKN050 12/05 Q1020 BECMG 04005KT,0,5,0,10000,0,0,0,
2026-03-24 16:30:00,METAR RJTT 241630Z 05004KT 9999 BKN050 12/06 Q1020 NOSIG,0,4,0,10000,0,0,0,
2026-03-24 16:00:00,METAR RJTT 241600Z 05005KT 9999 BKN050 12/05 Q1021 NOSIG,0,5,0,10000,0,0,0,
2026-03-24 15:30:00,METAR RJTT 241530Z 06006KT 9999 BKN050 12/05 Q1020 BECMG TL1700 04005KT,0,6,0,10000,0,0,0,
2026-03-24 15:00:00,METAR RJTT 241500Z 07004KT 9999 BKN050 12/05 Q1021 NOSIG,0,4,0,10000,0,0,0,
2026-03-24 14:30:00,METAR RJTT 241430Z 08005KT 9999 BKN050 12/06 Q1021 NOSIG,0,5,0,10000,0,0,0,
2026-03-24 14:00:00,METAR RJTT 241400Z 10005KT 9999 BKN050 12/05 Q1021 NOSIG,0,5,0,10000,0,0,0,
2026-03-24 13:30:00,METAR RJTT 241330Z 13005KT 9999 BKN050 12/05 Q1021 NOSIG,0,5,0,10000,0,0,0,
2026-03-24 13:00:00,METAR RJTT 241300Z 12006KT 9999 BKN050 12/04 Q1021 NOSIG,0,6,0,10000,0,0,0,
2026-03-24 12:30:00,METAR RJTT 241230Z 12008KT 9999 BKN050 12/04 Q1020 NOSIG,0,8,0,10000,0,0,0,
2026-03-24 12:00:00,METAR RJTT 241200Z 13009KT 9999 BKN050 11/04 Q1020 NOSIG,0,9,0,10000,0,0,0,
2026-03-24 11:30:00,METAR RJTT 241130Z 13008KT 9999 FEW050 BKN/// 11/04 Q1020 NOSIG,0,8,0,10000,0,0,0,
2026-03-24 11:00:00,METAR RJTT 241100Z 12010KT CAVOK 12/04 Q1020 NOSIG,1,0,0,9999,0,0,0,
2026-03-24 10:30:00,METAR RJTT 241030Z 13011KT 9999 FEW045 BKN/// 12/04 Q1020 NOSIG,0,11,0,10000,0,0,0,
2026-03-24 10:00:00,METAR RJTT 241000Z 12014KT CAVOK 12/04 Q1019 NOSIG,1,0,0,9999,0,0,0,
2026-03-24 09:30:00,METAR RJTT 240930Z 12012KT 9999 FEW050 BKN/// 12/02 Q1019 NOSIG,0,12,0,10000,0,0,0,
2026-03-24 09:00:00,METAR RJTT 240900Z 12015KT 9999 FEW030 BKN/// 12/03 Q1019 NOSIG,0,15,0,10000,0,0,0,
2026-03-24 08:30:00,METAR RJTT 240830Z 12013KT 9999 FEW030 BKN/// 13/04 Q1018 NOSIG,0,13,0,10000,0,0,0,
2026-03-24 08:00:00,METAR RJTT 240800Z 13013KT 9999 FEW030 BKN/// 13/05 Q1018 NOSIG,0,13,0,10000,0,0,0,
2026-03-24 07:30:00,METAR RJTT 240730Z 12014KT 9999 FEW030 BKN/// 14/05 Q1017 NOSIG,0,14,0,10000,0,0,0,
2026-03-24 07:00:00,METAR RJTT 240700Z 11014KT 9999 FEW030 BKN/// 14/06 Q1017 NOSIG,0,14,0,10000,0,0,0,
2026-03-24 06:30:00,METAR RJTT 240630Z 09007KT 9999 FEW030 BKN/// 15/04 Q1016 NOSIG,0,7,0,10000,0,0,0,
2026-03-24 06:00:00,METAR RJTT 240600Z 07005KT 9999 FEW030 BKN/// 16/03 Q1016 BECMG FM0630 14010KT,0,5,0,10000,0,0,0,
2026-03-24 05:30:00,METAR RJTT 240530Z 07005KT 9999 FEW030 BKN/// 15/01 Q1016 BECMG FM0700 16010KT,0,5,0,10000,0,0,0,
2026-03-24 05:00:00,METAR RJTT 240500Z 09005KT 9999 FEW030 BKN/// 16/04 Q1017 NOSIG,0,5,0,10000,0,0,0,
2026-03-24 04:30:00,METAR RJTT 240430Z 07005KT 9999 FEW030 16/02 Q1017 NOSIG,0,5,0,10000,0,0,0,
2026-03-24 04:00:00,METAR RJTT 240400Z 09005KT 9999 FEW030 15/01 Q1017 NOSIG,0,5,0,10000,0,0,0,
2026-03-24 03:30:00,METAR RJTT 240330Z 09006KT 9999 FEW030 15/01 Q1018 NOSIG,0,6,0,10000,0,0,0,
2026-03-24 03:00:00,METAR RJTT 240300Z 09005KT 9999 FEW030 15/02 Q1018 NOSIG,0,5,0,10000,0,0,0,
2026-03-24 02:30:00,METAR RJTT 240230Z 09005KT 9999 FEW030 15/02 Q1018 NOSIG,0,5,0,10000,0,0,0,
2026-03-24 02:00:00,METAR RJTT 240200Z 04007KT CAVOK 15/00 Q1018 BECMG TL0300 08006KT,1,0,0,9999,0,0,0,
2026-03-24 01:30:00,METAR RJTT 240130Z 01008KT CAVOK 14/00 Q1018 BECMG FM0230 08006KT,1,0,0,9999,0,0,0,
2026-03-24 01:00:00,METAR RJTT 240100Z 36013KT CAVOK 14/M01 Q1018 NOSIG,1,0,0,9999,0,0,0,
2026-03-24 00:30:00,METAR RJTT 240030Z 01017KT CAVOK 13/M01 Q1018 NOSIG,1,0,0,9999,0,0,0,
2026-03-24 00:00:00,METAR RJTT 240000Z 36016KT CAVOK 13/M01 Q1019 NOSIG,1,0,0,9999,0,0,0,
2026-03-23 23:30:00,METAR RJTT 232330Z 35018KT CAVOK 13/00 Q1019 NOSIG,1,0,0,9999,0,0,0,
2026-03-23 23:00:00,METAR RJTT 232300Z 35018KT CAVOK 12/M00 Q1018 NOSIG,1,0,0,9999,0,0,0,
2026-03-23 22:30:00,METAR RJTT 232230Z 35014KT CAVOK 12/01 Q1018 NOSIG,1,0,0,9999,0,0,0,
2026-03-23 22:00:00,METAR RJTT 232200Z 35015KT CAVOK 11/00 Q1018 NOSIG,1,0,0,9999,0,0,0,
2026-03-23 21:30:00,METAR RJTT 232130Z 35015KT CAVOK 11/00 Q1017 NOSIG,1,0,0,9999,0,0,0,
2026-03-23 21:00:00,METAR RJTT 232100Z 35014KT CAVOK 11/M01 Q1017 NOSIG,1,0,0,9999,0,0,0,
2026-03-23 20:30:00,METAR RJTT 232030Z 34013KT CAVOK 11/M00 Q1016 NOSIG,1,0,0,9999,0,0,0,
2026-03-23 20:00:00,METAR RJTT 232000Z 35013KT CAVOK 11/M01 Q1016 NOSIG,1,0,0,9999,0,0,0,
2026-03-23 19:30:00,METAR RJTT 231930Z 34021KT CAVOK 11/00 Q1015 NOSIG,1,0,0,9999,0,0,0,
2026-03-23 19:00:00,METAR RJTT 231900Z 33018KT CAVOK 11/M01 Q1014 NOSIG,1,0,0,9999,0,0,0,
2026-03-23 18:30:00,METAR RJTT 231830Z 33018KT CAVOK 11/M00 Q1014 NOSIG,1,0,0,9999,0,0,0,
2026-03-23 18:00:00,METAR RJTT 231800Z 33017KT CAVOK 11/M00 Q1014 NOSIG,1,0,0,9999,0,0,0,
2026-03-23 17:30:00,METAR RJTT 231730Z 33019KT CAVOK 12/01 Q1014 NOSIG,1,0,0,9999,0,0,0,
2026-03-23 17:00:00,METAR RJTT 231700Z 33018KT CAVOK 12/01 Q1015 NOSIG,1,0,0,9999,0,0,0,
2026-03-23 16:30:00,METAR RJTT 231630Z 34017KT CAVOK 12/02 Q1014 NOSIG,1,0,0,9999,0,0,0,
2026-03-23 16:00:00,METAR RJTT 231600Z 33013KT CAVOK 12/01 Q1014 NOSIG,1,0,0,9999,0,0,0,
2026-03-23 15:30:00,METAR RJTT 231530Z 33015KT CAVOK 13/01 Q1014 NOSIG,1,0,0,9999,0,0,0,
2026-03-23 15:00:00,METAR RJTT 231500Z 34015KT CAVOK 13/01 Q1014 NOSIG,1,0,0,9999,0,0,0,
2026-03-23 14:30:00,METAR RJTT 231430Z 34015KT CAVOK 13/02 Q1014 NOSIG,1,0,0,9999,0,0,0,
2026-03-23 14:00:00,METAR RJTT 231400Z 25007KT CAVOK 12/06 Q1014 BECMG TL1500 34016KT,1,0,0,9999,0,0,0,
2026-03-23 13:30:00,METAR RJTT 231330Z 32004KT 280V020 CAVOK 11/06 Q1013 BECMG 34018KT,1,0,0,9999,0,0,0,
2026-03-23 13:00:00,METAR RJTT 231300Z 30006KT 9999 FEW030 12/07 Q1013 BECMG 34018KT,0,6,0,10000,0,0,0,
2026-03-23 12:30:00,METAR RJTT 231230Z VRB02KT CAVOK 13/06 Q1013 BECMG TL1300 34008KT,1,0,0,9999,0,0,0,
2026-03-23 12:00:00,METAR RJTT 231200Z VRB02KT CAVOK 13/08 Q1013 BECMG TL1230 32005KT,1,0,0,9999,0,0,0,
2026-03-23 11:30:00,METAR RJTT 231130Z 13003KT 9999 FEW030 13/07 Q1013 BECMG TL1200 32005KT,0,3,0,10000,0,0,0,
2026-03-23 11:00:00,METAR RJTT 231100Z VRB01KT 9999 FEW030 13/07 Q1013 BECMG TL1200 30005KT,0,1,0,10000,0,0,0,
2026-03-23 10:30:00,METAR RJTT 231030Z 10002KT 9999 FEW030 14/04 Q1012 BECMG TL1200 30005KT,0,2,0,10000,0,0,0,
2026-03-23 10:00:00,METAR RJTT 231000Z 14002KT 9999 FEW030 14/04 Q1012 BECMG 30005KT,0,2,0,10000,0,0,0,
2026-03-23 09:30:00,METAR RJTT 230930Z 09001KT 9999 FEW030 13/06 Q1012 NOSIG,0,1,0,10000,0,0,0,
2026-03-23 09:00:00,METAR RJTT 230900Z 11002KT 9999 FEW030 13/07 Q1012 NOSIG,0,2,0,10000,0,0,0,
2026-03-23 08:30:00,METAR RJTT 230830Z 13002KT 9999 FEW030 13/07 Q1012 NOSIG,0,2,0,10000,0,0,0,
2026-03-23 08:00:00,METAR RJTT 230800Z 11003KT 9999 FEW030 14/07 Q1011 NOSIG,0,3,0,10000,0,0,0,
2026-03-23 07:30:00,METAR RJTT 230730Z 12005KT 9999 FEW030 14/06 Q1011 NOSIG,0,5,0,10000,0,0,0,
2026-03-23 07:00:00,METAR RJTT 230700Z 12005KT 9999 FEW030 14/07 Q1011 NOSIG,0,5,0,10000,0,0,0,
2026-03-23 06:30:00,METAR RJTT 230630Z 11005KT 9999 FEW030 14/08 Q1011 NOSIG,0,5,0,10000,0,0,0,
2026-03-23 06:00:00,METAR RJTT 230600Z 12006KT 9999 FEW020 SCT100 14/08 Q1012 NOSIG,0,6,0,10000,0,0,0,
2026-03-23 05:30:00,METAR RJTT 230530Z 11005KT 9999 FEW020 BKN100 14/07 Q1012 NOSIG,0,5,0,10000,0,0,0,
2026-03-23 05:00:00,METAR RJTT 230500Z 10004KT 060V130 9999 FEW020 BKN100 15/08 Q1012 NOSIG,0,4,0,10000,0,0,0,
2026-03-23 04:30:00,METAR RJTT 230430Z 10004KT 9999 FEW020 BKN120 14/08 Q1013 NOSIG,0,4,0,10000,0,0,0,
2026-03-23 04:00:00,METAR RJTT 230400Z 05004KT 9999 FEW020 BKN070 14/07 Q1014 BECMG TL0430 08006KT,0,4,0,10000,0,0,0,
2026-03-23 03:30:00,METAR RJTT 230330Z 05003KT 9999 -RA FEW020 BKN060 13/08 Q1014 BECMG TL0430 08006KT,0,3,0,10000,0,0,0,-RA
2026-03-23 03:00:00,METAR RJTT 230300Z 36004KT 340V040 9999 -RA FEW020 BKN050 13/07 Q1014 BECMG TL0430 08006KT,0,4,0,10000,0,0,0,-RA
2026-03-23 02:30:00,METAR RJTT 230230Z 35007KT 9999 -RA FEW020 BKN050 13/08 Q1015 BECMG 08006KT,0,7,0,10000,0,0,0,-RA
2026-03-23 02:00:00,METAR RJTT 230200Z 36007KT 9999 -RA FEW020 BKN050 12/08 Q1015 BECMG 08006KT,0,7,0,10000,0,0,0,-RA
2026-03-23 01:30:00,METAR RJTT 230130Z 36006KT 9999 -RA FEW020 BKN050 13/08 Q1016 NOSIG,0,6,0,10000,0,0,0,-RA
2026-03-23 01:00:00,METAR RJTT 230100Z 31005KT 260V350 9999 -RA FEW015 BKN050 12/07 Q1016 NOSIG,0,5,0,10000,0,0,0,-RA
2026-03-23 00:30:00,METAR RJTT 230030Z 27003KT 190V320 9999 -RA FEW015 BKN050 12/09 Q1017 NOSIG,0,3,0,10000,0,0,0,-RA
2026-03-23 00:00:00,METAR RJTT 230000Z 21005KT 170V250 9999 -RA FEW015 BKN060 12/09 Q1017 NOSIG,0,5,0,10000,0,0,0,-RA
2026-03-22 23:30:00,METAR RJTT 222330Z 22005KT 170V280 9000 -RA BKN060 11/08 Q1017 NOSIG,0,5,0,9000,0,0,0,-RA
2026-03-22 23:00:00,METAR RJTT 222300Z 19007KT 9000 -RA BKN060 11/08 Q1018 NOSIG,0,7,0,9000,0,0,0,-RA
2026-03-22 22:30:00,METAR RJTT 222230Z VRB01KT 9999 -RA BKN060 11/08 Q1018 NOSIG,0,1,0,10000,0,0,0,-RA
2026-03-22 22:00:00,METAR RJTT 222200Z VRB01KT 9999 -RA BKN050 11/07 Q1018 NOSIG,0,1,0,10000,0,0,0,-RA
2026-03-22 21:30:00,METAR RJTT 222130Z 25004KT 220V290 9999 -RA BKN050 11/07 Q1018 NOSIG,0,4,0,10000,0,0,0,-RA
2026-03-22 21:00:00,METAR RJTT 222100Z 33004KT 290V350 9999 -RA FEW020 BKN060 11/06 Q1018 NOSIG,0,4,0,10000,0,0,0,-RA
2026-03-22 20:30:00,METAR RJTT 222030Z 34007KT CAVOK 11/07 Q1018 NOSIG,1,0,0,9999,0,0,0,
2026-03-22 20:00:00,METAR RJTT 222000Z 35009KT CAVOK 11/07 Q1017 NOSIG,1,0,0,9999,0,0,0,
2026-03-22 19:30:00,METAR RJTT 221930Z 36007KT CAVOK 12/07 Q1017 NOSIG,1,0,0,9999,0,0,0,
2026-03-22 19:00:00,METAR RJTT 221900Z 36002KT CAVOK 11/07 Q1017 NOSIG,1,0,0,9999,0,0,0,
2026-03-22 18:30:00,METAR RJTT 221830Z 29003KT CAVOK 12/07 Q1018 NOSIG,1,0,0,9999,0,0,0,
2026-03-22 18:00:00,METAR RJTT 221800Z 30006KT CAVOK 11/06 Q1018 NOSIG,1,0,0,9999,0,0,0,
2026-03-22 17:30:00,METAR RJTT 221730Z 28007KT CAVOK 12/06 Q1018 NOSIG,1,0,0,9999,0,0,0,
2026-03-22 17:00:00,METAR RJTT 221700Z 30006KT CAVOK 11/05 Q1018 NOSIG,1,0,0,9999,0,0,0,
2026-03-22 16:30:00,METAR RJTT 221630Z 27009KT CAVOK 13/04 Q1018 NOSIG,1,0,0,9999,0,0,0,
2026-03-22 16:00:00,METAR RJTT 221600Z 27008KT CAVOK 14/03 Q1019 NOSIG,1,0,0,9999,0,0,0,
2026-03-22 15:30:00,METAR RJTT 221530Z 22006KT CAVOK 14/02 Q1019 BECMG TL1630 26008KT,1,0,0,9999,0,0,0,
2026-03-22 15:00:00,METAR RJTT 221500Z 21008KT CAVOK 14/03 Q1019 NOSIG,1,0,0,9999,0,0,0,
2026-03-22 14:30:00,METAR RJTT 221430Z 18010KT 9999 FEW040 BKN150 14/03 Q1019 NOSIG,0,10,0,10000,0,0,0,
2026-03-22 14:00:00,METAR RJTT 221400Z 22013KT CAVOK 14/03 Q1019 NOSIG,1,0,0,9999,0,0,0,
2026-03-22 13:30:00,METAR RJTT 221330Z 20012KT CAVOK 14/04 Q1019 NOSIG,1,0,0,9999,0,0,0,
2026-03-22 13:00:00,METAR RJTT 221300Z 20012KT CAVOK 14/04 Q1020 NOSIG,1,0,0,9999,0,0,0,
2026-03-22 12:30:00,METAR RJTT 221230Z 19013KT CAVOK 15/04 Q1020 NOSIG,1,0,0,9999,0,0,0,
2026-03-22 12:00:00,METAR RJTT 221200Z 19012KT CAVOK 14/03 Q1020 NOSIG,1,0,0,9999,0,0,0,
2026-03-22 11:30:00,METAR RJTT 221130Z 19010KT CAVOK 15/02 Q1021 NOSIG,1,0,0,9999,0,0,0,
2026-03-22 11:00:00,METAR RJTT 221100Z 19009KT CAVOK 15/03 Q1020 NOSIG,1,0,0,9999,0,0,0,
2026-03-22 10:30:00,METAR RJTT 221030Z 18009KT CAVOK 15/04 Q1020 NOSIG,1,0,0,9999,0,0,0,
2026-03-22 10:00:00,METAR RJTT 221000Z 17010KT CAVOK 14/08 Q1020 NOSIG,1,0,0,9999,0,0,0,
2026-03-22 09:30:00,METAR RJTT 220930Z 16012KT CAVOK 14/07 Q1020 NOSIG,1,0,0,9999,0,0,0,
2026-03-22 09:00:00,METAR RJTT 220900Z 18010KT CAVOK 14/07 Q1020 NOSIG,1,0,0,9999,0,0,0,
2026-03-22 08:30:00,METAR RJTT 220830Z 18013KT CAVOK 14/07 Q1020 NOSIG,1,0,0,9999,0,0,0,
2026-03-22 08:00:00,METAR RJTT 220800Z 19011KT CAVOK 14/06 Q1020 NOSIG,1,0,0,9999,0,0,0,
2026-03-22 07:30:00,METAR RJTT 220730Z 20012KT CAVOK 15/06 Q1020 NOSIG,1,0,0,9999,0,0,0,
2026-03-22 07:00:00,METAR RJTT 220700Z 19011KT 9999 FEW030 BKN/// 14/06 Q1020 NOSIG,0,11,0,10000,0,0,0,
2026-03-22 06:30:00,METAR RJTT 220630Z 18012KT 9999 FEW030 BKN/// 15/04 Q1021 NOSIG,0,12,0,10000,0,0,0,
2026-03-22 06:00:00,METAR RJTT 220600Z 18013KT 9999 FEW030 BKN/// 15/04 Q1021 NOSIG,0,13,0,10000,0,0,0,
2026-03-22 05:30:00,METAR RJTT 220530Z 18010KT 9999 FEW030 BKN/// 15/05 Q1021 NOSIG,0,10,0,10000,0,0,0,
2026-03-22 05:00:00,METAR RJTT 220500Z 18012KT 9999 FEW030 BKN/// 15/05 Q1021 NOSIG,0,12,0,10000,0,0,0,
2026-03-22 04:30:00,METAR RJTT 220430Z 15007KT 130V220 9999 FEW030 BKN/// 14/05 Q1022 NOSIG,0,7,0,10000,0,0,0,
2026-03-22 04:00:00,METAR RJTT 220400Z 11004KT 090V150 9999 FEW030 BKN/// 14/06 Q1022 BECMG 18010KT,0,4,0,10000,0,0,0,
2026-03-22 03:30:00,METAR RJTT 220330Z 09004KT 9999 FEW030 BKN/// 14/05 Q1022 NOSIG,0,4,0,10000,0,0,0,
2026-03-22 03:00:00,METAR RJTT 220300Z 08005KT 9999 FEW030 BKN/// 14/05 Q1023 NOSIG,0,5,0,10000,0,0,0,
2026-03-22 02:30:00,METAR RJTT 220230Z VRB02KT 9999 FEW030 BKN/// 13/03 Q1024 BECMG TL0300 10005KT,0,2,0,10000,0,0,0,
2026-03-22 02:00:00,METAR RJTT 220200Z 06003KT 9999 FEW030 BKN/// 13/02 Q1024 BECMG TL0300 10005KT,0,3,0,10000,0,0,0,
2026-03-22 01:30:00,METAR RJTT 220130Z VRB02KT 9999 FEW030 BKN/// 13/01 Q1024 BECMG TL0300 10005KT,0,2,0,10000,0,0,0,
2026-03-22 01:00:00,METAR RJTT 220100Z 35005KT CAVOK 12/00 Q1024 BECMG 10005KT,1,0,0,9999,0,0,0,
2026-03-22 00:30:00,METAR RJTT 220030Z 34006KT CAVOK 11/M02 Q1025 NOSIG,1,0,0,9999,0,0,0,
2026-03-22 00:00:00,METAR RJTT 220000Z 34006KT 9999 FEW030 11/M01 Q1025 NOSIG,0,6,0,10000,0,0,0,
2026-03-21 23:30:00,METAR RJTT 212330Z 34006KT CAVOK 10/M02 Q1025 NOSIG,1,0,0,9999,0,0,0,
2026-03-21 23:00:00,METAR RJTT 212300Z 34006KT 9999 FEW030 09/M03 Q1025 NOSIG,0,6,0,10000,0,0,0,
2026-03-21 22:30:00,METAR RJTT 212230Z 34008KT 9999 FEW030 08/M03 Q1025 NOSIG,0,8,0,10000,0,0,0,
2026-03-21 22:00:00,METAR RJTT 212200Z 34011KT 9999 FEW030 08/M03 Q1025 NOSIG,0,11,0,10000,0,0,0,
2026-03-21 21:30:00,METAR RJTT 212130Z 34011KT 9999 BKN030 07/M02 Q1025 NOSIG,0,11,0,10000,0,0,0,
2026-03-21 21:00:00,METAR RJTT 212100Z 33008KT 9999 BKN025 07/M02 Q1024 NOSIG,0,8,0,10000,0,0,0,
2026-03-21 20:30:00,METAR RJTT 212030Z 36007KT 9999 BKN025 08/M02 Q1024 NOSIG,0,7,0,10000,0,0,0,
2026-03-21 20:00:00,METAR RJTT 212000Z 01007KT 9999 FEW025 06/M02 Q1023 NOSIG,0,7,0,10000,0,0,0,
2026-03-21 19:30:00,METAR RJTT 211930Z 32006KT 9999 FEW020 08/M01 Q1023 NOSIG,0,6,0,10000,0,0,0,
2026-03-21 19:00:00,METAR RJTT 211900Z 31007KT 9999 FEW020 07/M04 Q1023 NOSIG,0,7,0,10000,0,0,0,
2026-03-21 18:30:00,METAR RJTT 211830Z 32007KT 9999 FEW020 SCT030 07/M05 Q1023 NOSIG,0,7,0,10000,0,0,0,
2026-03-21 18:00:00,METAR RJTT 211800Z 31006KT 9999 FEW020 08/M06 Q1023 NOSIG,0,6,0,10000,0,0,0,
2026-03-21 17:30:00,METAR RJTT 211730Z 31007KT 9999 FEW020 09/M05 Q1023 NOSIG,0,7,0,10000,0,0,0,
2026-03-21 17:00:00,METAR RJTT 211700Z 32006KT 9999 FEW020 SCT035 09/M04 Q1023 NOSIG,0,6,0,10000,0,0,0,
2026-03-21 16:30:00,METAR RJTT 211630Z 30007KT 260V320 9999 FEW020 SCT030 10/M04 Q1023 NOSIG,0,7,0,10000,0,0,0,
2026-03-21 16:00:00,METAR RJTT 211600Z 28004KT 230V010 9999 FEW035 11/02 Q1023 NOSIG,0,4,0,10000,0,0,0,
2026-03-21 15:30:00,METAR RJTT 211530Z VRB02KT 9999 FEW030 10/05 Q1023 BECMG 34008KT,0,2,0,10000,0,0,0,
2026-03-21 15:00:00,METAR RJTT 211500Z 27006KT 240V300 9999 FEW030 12/06 Q1023 NOSIG,0,6,0,10000,0,0,0,
2026-03-21 14:30:00,METAR RJTT 211430Z 27006KT 9999 BKN030 11/05 Q1023 NOSIG,0,6,0,10000,0,0,0,
2026-03-21 14:00:00,METAR RJTT 211400Z 26007KT 9999 FEW030 11/04 Q1023 NOSIG,0,7,0,10000,0,0,0,
2026-03-21 13:30:00,METAR RJTT 211330Z 26007KT CAVOK 12/04 Q1023 NOSIG,1,0,0,9999,0,0,0,
2026-03-21 13:00:00,METAR RJTT 211300Z 22005KT 190V260 CAVOK 12/07 Q1023 BECMG TL1430 30006KT,1,0,0,9999,0,0,0,
2026-03-21 12:30:00,METAR RJTT 211230Z 20010KT 9999 FEW030 13/08 Q1023 BECMG 30006KT,0,10,0,10000,0,0,0,
2026-03-21 12:00:00,METAR RJTT 211200Z 20010KT 9999 FEW030 13/08 Q1023 NOSIG,0,10,0,10000,0,0,0,
2026-03-21 11:30:00,METAR RJTT 211130Z 20010KT 9999 FEW030 13/07 Q1023 NOSIG,0,10,0,10000,0,0,0,
2026-03-21 11:00:00,METAR RJTT 211100Z 19010KT 140V210 9999 FEW030 13/07 Q1023 NOSIG,0,10,0,10000,0,0,0,
2026-03-21 10:30:00,METAR RJTT 211030Z 20010KT 160V220 9999 FEW030 13/07 Q1023 NOSIG,0,10,0,10000,0,0,0,
2026-03-21 10:00:00,METAR RJTT 211000Z 20010KT 9999 FEW030 13/06 Q1022 NOSIG,0,10,0,10000,0,0,0,
2026-03-21 09:30:00,METAR RJTT 210930Z 20011KT 9999 FEW030 13/06 Q1022 NOSIG,0,11,0,10000,0,0,0,
2026-03-21 09:00:00,METAR RJTT 210900Z 19012KT 9999 FEW030 13/05 Q1022 NOSIG,0,12,0,10000,0,0,0,
2026-03-21 08:30:00,METAR RJTT 210830Z 18012KT 9999 FEW030 13/03 Q1022 NOSIG,0,12,0,10000,0,0,0,
2026-03-21 08:00:00,METAR RJTT 210800Z 18009KT 9999 FEW030 14/00 Q1021 NOSIG,0,9,0,10000,0,0,0,
2026-03-21 07:30:00,METAR RJTT 210730Z 16008KT 9999 FEW030 14/M02 Q1021 NOSIG,0,8,0,10000,0,0,0,
2026-03-21 07:00:00,METAR RJTT 210700Z 17008KT 9999 FEW030 15/M01 Q1021 NOSIG,0,8,0,10000,0,0,0,
2026-03-21 06:30:00,METAR RJTT 210630Z 18008KT 9999 FEW030 15/M02 Q1021 NOSIG,0,8,0,10000,0,0,0,
2026-03-21 06:00:00,METAR RJTT 210600Z 16009KT 9999 FEW030 15/M05 Q1021 NOSIG,0,9,0,10000,0,0,0,
2026-03-21 05:30:00,METAR RJTT 210530Z 16008KT 9999 FEW030 14/M03 Q1021 NOSIG,0,8,0,10000,0,0,0,
2026-03-21 05:00:00,METAR RJTT 210500Z 16009KT CAVOK 15/M05 Q1021 NOSIG,1,0,0,9999,0,0,0,
2026-03-21 04:30:00,METAR RJTT 210430Z 18008KT 140V210 CAVOK 14/M04 Q1021 NOSIG,1,0,0,9999,0,0,0,
2026-03-21 04:00:00,METAR RJTT 210400Z 17009KT 140V210 CAVOK 14/M02 Q1021 NOSIG,1,0,0,9999,0,0,0,
2026-03-21 03:30:00,METAR RJTT 210330Z 07004KT CAVOK 13/M04 Q1021 NOSIG,1,0,0,9999,0,0,0,
2026-03-21 03:00:00,METAR RJTT 210300Z 07005KT CAVOK 14/M05 Q1021 NOSIG,1,0,0,9999,0,0,0,
2026-03-21 02:30:00,METAR RJTT 210230Z 36005KT CAVOK 12/M06 Q1021 BECMG 10006KT,1,0,0,9999,0,0,0,
2026-03-21 02:00:00,METAR RJTT 210200Z 35007KT CAVOK 12/M05 Q1021 NOSIG,1,0,0,9999,0,0,0,
2026-03-21 01:30:00,METAR RJTT 210130Z 01006KT 320V060 CAVOK 11/M07 Q1021 NOSIG,1,0,0,9999,0,0,0,
2026-03-21 01:00:00,METAR RJTT 210100Z 36005KT 330V030 CAVOK 11/M05 Q1021 NOSIG,1,0,0,9999,0,0,0,
2026-03-21 00:30:00,METAR RJTT 210030Z 34009KT CAVOK 10/M06 Q1021 NOSIG,1,0,0,9999,0,0,0,
2026-03-21 00:00:00,METAR RJTT 210000Z 35009KT CAVOK 09/M04 Q1021 NOSIG,1,0,0,9999,0,0,0,
2026-03-20 23:30:00,METAR RJTT 202330Z 34014KT CAVOK 09/M05 Q1021 NOSIG,1,0,0,9999,0,0,0,
2026-03-20 23:00:00,METAR RJTT 202300Z 35015KT CAVOK 08/M07 Q1021 NOSIG,1,0,0,9999,0,0,0,
2026-03-20 22:30:00,METAR RJTT 202230Z 34018KT CAVOK 07/M04 Q1020 NOSIG,1,0,0,9999,0,0,0,
2026-03-20 22:00:00,METAR RJTT 202200Z 34020KT CAVOK 06/M06 Q1020 NOSIG,1,0,0,9999,0,0,0,
2026-03-20 21:30:00,METAR RJTT 202130Z 34021KT CAVOK 06/M06 Q1020 NOSIG,1,0,0,9999,0,0,0,
2026-03-20 21:00:00,METAR RJTT 202100Z 34023KT CAVOK 06/M07 Q1019 TEMPO TL2200 35022G32KT,1,0,0,9999,0,0,0,
2026-03-20 20:30:00,METAR RJTT 202030Z 35020KT CAVOK 06/M06 Q1019 TEMPO TL2200 35022G32KT,1,0,0,9999,0,0,0,
2026-03-20 20:00:00,METAR RJTT 202000Z 34020KT CAVOK 06/M06 Q1018 TEMPO 35022G32KT,1,0,0,9999,0,0,0,
2026-03-20 19:30:00,METAR RJTT 201930Z 35021KT CAVOK 07/M05 Q1018 TEMPO 35022G32KT,1,0,0,9999,0,0,0,
2026-03-20 19:00:00,METAR RJTT 201900Z 34021KT CAVOK 07/M04 Q1017 TEMPO 35022G32KT,1,0,0,9999,0,0,0,
2026-03-20 18:30:00,METAR RJTT 201830Z 34022KT CAVOK 08/M04 Q1016 TEMPO 35025G35KT,1,0,0,9999,0,0,0,
2026-03-20 18:00:00,METAR RJTT 201800Z 34020KT CAVOK 09/M01 Q1016 TEMPO 35025G35KT,1,0,0,9999,0,0,0,
2026-03-20 17:30:00,METAR RJTT 201730Z 34019KT CAVOK 09/M00 Q1016 TEMPO 35025G35KT,1,0,0,9999,0,0,0,
2026-03-20 17:00:00,METAR RJTT 201700Z 32013KT CAVOK 09/01 Q1016 BECMG 35025KT TEMPO 35025G35KT,1,0,0,9999,0,0,0,
2026-03-20 16:30:00,METAR RJTT 201630Z 30007KT CAVOK 08/05 Q1015 BECMG 35025KT TEMPO 35025G35KT,1,0,0,9999,0,0,0,
2026-03-20 16:00:00,METAR RJTT 201600Z 31005KT CAVOK 08/05 Q1015 BECMG 35022KT,1,0,0,9999,0,0,0,
2026-03-20 15:30:00,METAR RJTT 201530Z 28004KT CAVOK 08/06 Q1014 BECMG 35016KT,1,0,0,9999,0,0,0,
2026-03-20 15:00:00,METAR RJTT 201500Z 31005KT CAVOK 07/06 Q1014 BECMG 35016KT,1,0,0,9999,0,0,0,
2026-03-20 14:30:00,METAR RJTT 201430Z 31005KT 280V340 9999 FEW015 BKN/// 07/05 Q1014 NOSIG,0,5,0,10000,0,0,0,
2026-03-20 14:00:00,METAR RJTT 201400Z 31003KT 260V330 CAVOK 08/06 Q1014 NOSIG,1,0,0,9999,0,0,0,
2026-03-20 13:30:00,METAR RJTT 201330Z 01003KT 330V050 9999 FEW015 SCT/// 09/06 Q1014 NOSIG,0,3,0,10000,0,0,0,
2026-03-20 13:00:00,METAR RJTT 201300Z 35008KT 9999 FEW020 09/06 Q1014 NOSIG,0,8,0,10000,0,0,0,
2026-03-20 12:30:00,METAR RJTT 201230Z 35011KT 9999 FEW015 BKN025 BKN035 09/06 Q1014 NOSIG,0,11,0,10000,0,0,0,
2026-03-20 12:00:00,METAR RJTT 201200Z 34011KT 9999 FEW015 BKN020 09/06 Q1014 NOSIG,0,11,0,10000,0,0,0,
2026-03-20 11:30:00,METAR RJTT 201130Z 36009KT 9999 BKN020 10/07 Q1014 NOSIG,0,9,0,10000,0,0,0,
2026-03-20 11:00:00,METAR RJTT 201100Z 01009KT 9999 BKN020 10/06 Q1013 NOSIG,0,9,0,10000,0,0,0,
2026-03-20 10:30:00,METAR RJTT 201030Z 01009KT 9999 -RA FEW010 BKN020 10/07 Q1013 NOSIG,0,9,0,10000,0,0,0,-RA
2026-03-20 10:00:00,METAR RJTT 201000Z 36009KT 9999 FEW010 BKN018 10/07 Q1013 NOSIG,0,9,0,10000,0,0,0,
2026-03-20 09:30:00,METAR RJTT 200930Z 36009KT 9999 FEW010 BKN018 10/07 Q1013 NOSIG,0,9,0,10000,0,0,0,
2026-03-20 09:00:00,METAR RJTT 200900Z 01007KT 9999 -RA FEW010 BKN018 10/07 Q1013 NOSIG,0,7,0,10000,0,0,0,-RA
2026-03-20 08:30:00,METAR RJTT 200830Z 02007KT 9999 -RA FEW010 BKN018 10/07 Q1012 NOSIG,0,7,0,10000,0,0,0,-RA
2026-03-20 08:00:00,METAR RJTT 200800Z 04009KT 9999 -RA FEW010 BKN020 10/08 Q1012 BECMG 08008KT,0,9,0,10000,0,0,0,-RA
2026-03-20 07:30:00,METAR RJTT 200730Z 04012KT 9999 FEW010 BKN020 10/07 Q1012 BECMG 08008KT,0,12,0,10000,0,0,0,
2026-03-20 07:00:00,METAR RJTT 200700Z 04010KT 9999 FEW010 BKN020 10/08 Q1012 BECMG 08008KT,0,10,0,10000,0,0,0,
2026-03-20 06:30:00,METAR RJTT 200630Z 04011KT 9999 FEW010 BKN018 10/07 Q1013 BECMG 08008KT,0,11,0,10000,0,0,0,
2026-03-20 06:00:00,METAR RJTT 200600Z 05010KT 9999 FEW010 BKN020 10/08 Q1013 BECMG 08008KT,0,10,0,10000,0,0,0,
2026-03-20 05:30:00,METAR RJTT 200530Z 03011KT 9999 FEW010 BKN020 10/08 Q1013 BECMG 08008KT,0,11,0,10000,0,0,0,
2026-03-20 05:00:00,METAR RJTT 200500Z 03010KT 9999 FEW009 SCT015 BKN020 10/08 Q1013 BECMG 08008KT,0,10,0,10000,0,0,0,
2026-03-20 04:30:00,METAR RJTT 200430Z 02009KT 9999 -RA FEW009 BKN012 BKN015 10/08 Q1013 BECMG 08008KT,0,9,0,10000,0,0,0,-RA
2026-03-20 04:00:00,METAR RJTT 200400Z 05008KT 9999 -RA FEW007 SCT009 BKN012 10/08 Q1014 TEMPO FEW005 BKN008,0,8,0,10000,0,0,0,-RA
2026-03-20 03:30:00,METAR RJTT 200330Z 35006KT 9999 -RA FEW006 BKN009 09/08 Q1014 NOSIG,0,6,0,10000,0,0,0,-RA
2026-03-20 03:00:00,METAR RJTT 200300Z 36008KT 9999 -RA FEW007 BKN010 09/08 Q1014 TEMPO FEW005 BKN008,0,8,0,10000,0,0,0,-RA
2026-03-20 02:30:00,METAR RJTT 200230Z 36008KT 9999 -RA FEW008 BKN012 09/07 Q1015 NOSIG,0,8,0,10000,0,0,0,-RA
2026-03-20 02:00:00,METAR RJTT 200200Z 01009KT 9999 -RA FEW010 BKN015 09/07 Q1015 NOSIG,0,9,0,10000,0,0,0,-RA
2026-03-20 01:30:00,METAR RJTT 200130Z 36008KT 9999 -RA FEW012 BKN017 10/07 Q1015 NOSIG,0,8,0,10000,0,0,0,-RA
2026-03-20 01:00:00,METAR RJTT 200100Z 36009KT 9999 -RA BKN020 09/06 Q1015 NOSIG,0,9,0,10000,0,0,0,-RA
2026-03-20 00:30:00,METAR RJTT 200030Z 36011KT 9999 -RA BKN020 10/06 Q1015 NOSIG,0,11,0,10000,0,0,0,-RA
2026-03-20 00:00:00,METAR RJTT 200000Z 02010KT 9999 FEW020 BKN023 10/06 Q1015 NOSIG,0,10,0,10000,0,0,0,
2026-03-19 23:30:00,METAR RJTT 192330Z 02009KT 9999 FEW020 BKN025 10/06 Q1015 NOSIG,0,9,0,10000,0,0,0,
2026-03-19 23:00:00,METAR RJTT 192300Z 01010KT 9999 FEW020 BKN027 10/06 Q1015 NOSIG,0,10,0,10000,0,0,0,
2026-03-19 22:30:00,METAR RJTT 192230Z 01010KT 9999 -RA FEW020 BKN030 10/06 Q1015 NOSIG,0,10,0,10000,0,0,0,-RA
2026-03-19 22:00:00,METAR RJTT 192200Z 02011KT 9999 -RA FEW015 BKN028 10/06 Q1014 NOSIG,0,11,0,10000,0,0,0,-RA
2026-03-19 21:30:00,METAR RJTT 192130Z 03012KT 9999 BKN028 10/06 Q1014 NOSIG,0,12,0,10000,0,0,0,
2026-03-19 21:00:00,METAR RJTT 192100Z 02011KT 9999 -RA BKN028 10/06 Q1014 NOSIG,0,11,0,10000,0,0,0,-RA
2026-03-19 20:30:00,METAR RJTT 192030Z 02011KT 9999 -RA BKN030 10/06 Q1014 NOSIG,0,11,0,10000,0,0,0,-RA
2026-03-19 20:00:00,METAR RJTT 192000Z 36010KT 9999 -RA BKN030 12/04 Q1013 NOSIG,0,10,0,10000,0,0,0,-RA
2026-03-19 19:30:00,METAR RJTT 191930Z 01012KT 9999 BKN035 12/05 Q1013 NOSIG,0,12,0,10000,0,0,0,
2026-03-19 19:00:00,METAR RJTT 191900Z 01011KT 9999 BKN035 12/05 Q1012 NOSIG,0,11,0,10000,0,0,0,
2026-03-19 18:30:00,METAR RJTT 191830Z 02010KT 9999 BKN035 12/05 Q1012 NOSIG,0,10,0,10000,0,0,0,
2026-03-19 18:00:00,METAR RJTT 191800Z 02012KT 9999 BKN035 12/05 Q1012 NOSIG,0,12,0,10000,0,0,0,
2026-03-19 17:30:00,METAR RJTT 191730Z 01012KT 9999 -RA BKN040 12/07 Q1012 NOSIG,0,12,0,10000,0,0,0,-RA
2026-03-19 17:00:00,METAR RJTT 191700Z 01011KT 9999 BKN040 12/07 Q1012 NOSIG,0,11,0,10000,0,0,0,
2026-03-19 16:30:00,METAR RJTT 191630Z 36011KT 9999 BKN040 12/07 Q1012 NOSIG,0,11,0,10000,0,0,0,
2026-03-19 16:00:00,METAR RJTT 191600Z 36010KT 9999 FEW030 BKN040 12/08 Q1012 NOSIG,0,10,0,10000,0,0,0,
2026-03-19 15:30:00,METAR RJTT 191530Z 01012KT 9999 -RA FEW035 BKN040 13/07 Q1012 NOSIG,0,12,0,10000,0,0,0,-RA
2026-03-19 15:00:00,METAR RJTT 191500Z 01011KT 9999 -RA BKN037 12/08 Q1012 NOSIG,0,11,0,10000,0,0,0,-RA
2026-03-19 14:30:00,METAR RJTT 191430Z 36008KT 9999 -RA FEW015 BKN037 13/08 Q1011 NOSIG,0,8,0,10000,0,0,0,-RA
2026-03-19 14:00:00,METAR RJTT 191400Z 03006KT 9999 FEW020 BKN035 BKN045 14/08 Q1011 NOSIG,0,6,0,10000,0,0,0,
2026-03-19 13:30:00,METAR RJTT 191330Z 06007KT 9999 FEW020 BKN035 BKN045 14/09 Q1011 BECMG 04006KT,0,7,0,10000,0,0,0,
2026-03-19 13:00:00,METAR RJTT 191300Z 07008KT 9999 FEW020 SCT035 BKN045 13/10 Q1011 BECMG 04006KT,0,8,0,10000,0,0,0,
2026-03-19 12:30:00,METAR RJTT 191230Z 08009KT 9999 FEW020 BKN045 14/10 Q1010 BECMG 04006KT,0,9,0,10000,0,0,0,
2026-03-19 12:00:00,METAR RJTT 191200Z 08008KT 9999 FEW020 BKN045 14/10 Q1010 BECMG 04006KT,0,8,0,10000,0,0,0,
2026-03-19 11:30:00,METAR RJTT 191130Z 08007KT 9999 FEW035 BKN050 14/10 Q1010 BECMG 04006KT,0,7,0,10000,0,0,0,
2026-03-19 11:00:00,METAR RJTT 191100Z 07006KT 9999 FEW020 SCT040 BKN080 14/11 Q1010 BECMG 04006KT,0,6,0,10000,0,0,0,
2026-03-19 10:30:00,METAR RJTT 191030Z 08008KT 9999 FEW020 BKN080 14/11 Q1009 BECMG 04006KT,0,8,0,10000,0,0,0,
2026-03-19 10:00:00,METAR RJTT 191000Z 08010KT 9999 FEW020 BKN080 14/11 Q1009 NOSIG,0,10,0,10000,0,0,0,
2026-03-19 09:30:00,METAR RJTT 190930Z 08010KT 9999 FEW030 BKN090 14/12 Q1008 NOSIG,0,10,0,10000,0,0,0,
2026-03-19 09:00:00,METAR RJTT 190900Z 08010KT 9999 FEW030 BKN080 14/12 Q1008 NOSIG,0,10,0,10000,0,0,0,
2026-03-19 08:30:00,METAR RJTT 190830Z 06012KT 9999 FEW030 BKN070 15/12 Q1007 NOSIG,0,12,0,10000,0,0,0,
2026-03-19 08:00:00,METAR RJTT 190800Z 07007KT 9999 FEW030 BKN060 16/08 Q1006 NOSIG,0,7,0,10000,0,0,0,
2026-03-19 07:30:00,METAR RJTT 190730Z 03007KT 350V070 9999 FEW030 BKN060 18/04 Q1006 NOSIG,0,7,0,10000,0,0,0,
2026-03-19 07:00:00,METAR RJTT 190700Z 08005KT 9999 FEW030 BKN060 15/11 Q1006 NOSIG,0,5,0,10000,0,0,0,
2026-03-19 06:30:00,METAR RJTT 190630Z 10003KT 9999 FEW030 BKN060 16/09 Q1005 NOSIG,0,3,0,10000,0,0,0,
2026-03-19 06:00:00,METAR RJTT 190600Z 12003KT 070V150 9999 FEW030 BKN060 15/09 Q1005 NOSIG,0,3,0,10000,0,0,0,
2026-03-19 05:30:00,METAR RJTT 190530Z VRB02KT 9999 FEW030 BKN050 15/10 Q1005 NOSIG,0,2,0,10000,0,0,0,
2026-03-19 05:00:00,METAR RJTT 190500Z 14005KT 9999 FEW030 BKN050 15/09 Q1004 NOSIG,0,5,0,10000,0,0,0,
2026-03-19 04:30:00,METAR RJTT 190430Z 13006KT 9999 FEW020 BKN050 15/10 Q1004 NOSIG,0,6,0,10000,0,0,0,
2026-03-19 04:00:00,METAR RJTT 190400Z 13006KT 9999 FEW020 BKN050 16/11 Q1004 NOSIG,0,6,0,10000,0,0,0,
2026-03-19 03:30:00,METAR RJTT 190330Z 13006KT 9999 FEW020 BKN050 BKN070 15/10 Q1004 NOSIG,0,6,0,10000,0,0,0,
2026-03-19 03:00:00,METAR RJTT 190300Z 10004KT 9999 FEW020 BKN050 BKN070 15/11 Q1005 NOSIG,0,4,0,10000,0,0,0,
2026-03-19 02:30:00,METAR RJTT 190230Z 04003KT 340V090 9999 FEW020 BKN045 16/08 Q1005 BECMG 08006KT,0,3,0,10000,0,0,0,
2026-03-19 02:00:00,METAR RJTT 190200Z 36003KT 9999 FEW020 BKN040 15/08 Q1005 NOSIG,0,3,0,10000,0,0,0,
2026-03-19 01:30:00,METAR RJTT 190130Z 34008KT 9999 FEW020 BKN030 14/09 Q1005 NOSIG,0,8,0,10000,0,0,0,
2026-03-19 01:00:00,METAR RJTT 190100Z 34010KT 9999 -SHRA FEW015 BKN025 14/09 Q1005 NOSIG,0,10,0,10000,0,0,0,RA
2026-03-19 00:30:00,METAR RJTT 190030Z 34013KT 9999 BKN018 13/09 Q1005 NOSIG,0,13,0,10000,0,0,0,
2026-03-19 00:00:00,METAR RJTT 190000Z 34012KT 9999 -SHRA FEW010 BKN020 13/09 Q1005 NOSIG,0,12,0,10000,0,0,0,RA
2026-03-18 23:30:00,METAR RJTT 182330Z 33011KT 9999 -SHRA FEW008 BKN015 13/10 Q1005 TEMPO TL0000 FEW008 BKN012,0,11,0,10000,0,0,0,RA
2026-03-18 23:00:00,METAR RJTT 182300Z 31007KT 9999 FEW008 BKN015 13/11 Q1005 TEMPO TL0000 FEW006 BKN008,0,7,0,10000,0,0,0,
2026-03-18 22:30:00,METAR RJTT 182230Z 32009KT 9999 SCT007 BKN010 14/12 Q1004 TEMPO FEW005 BKN008,0,9,0,10000,0,0,0,
2026-03-18 22:00:00,METAR RJTT 182200Z 31008KT 5000 RA BR FEW005 BKN007 14/14 Q1004 BECMG TL2300 -SHRA,0,8,0,5000,0,0,1,"BR,RA"
2026-03-18 21:30:00,METAR RJTT 182130Z 23009KT 9999 -RA FEW005 BKN007 15/14 Q1004 BECMG TL2200 28010KT,0,9,0,10000,0,0,0,-RA
2026-03-18 21:00:00,METAR RJTT 182100Z 21009G19KT 7000 -RA FEW005 BKN007 15/14 Q1004 BECMG TL2200 28010KT,0,9,1,7000,0,0,0,-RA
2026-03-18 20:30:00,METAR RJTT 182030Z 19011KT 9999 -RA FEW006 BKN010 BKN035 15/14 Q1004 TEMPO FEW005 BKN008,0,11,0,10000,0,0,0,-RA
2026-03-18 20:00:00,METAR RJTT 182000Z 20012KT 9999 -RA FEW005 SCT008 BKN040 15/13 Q1005 TEMPO FEW005 BKN008,0,12,0,10000,0,0,0,-RA
2026-03-18 19:30:00,METAR RJTT 181930Z 20013KT 9999 FEW005 SCT008 BKN050 15/13 Q1005 TEMPO FEW005 BKN008,0,13,0,10000,0,0,0,
2026-03-18 19:00:00,METAR RJTT 181900Z 20011KT 9999 FEW004 BKN008 14/13 Q1006 NOSIG,0,11,0,10000,0,0,0,
2026-03-18 18:30:00,METAR RJTT 181830Z 20014KT 9999 FEW006 BKN010 14/13 Q1006 NOSIG,0,14,0,10000,0,0,0,
2026-03-18 18:00:00,METAR RJTT 181800Z 20014KT 9999 -SHRA FEW009 SCT013 BKN035 14/12 Q1007 NOSIG,0,14,0,10000,0,0,0,RA
2026-03-18 17:30:00,METAR RJTT 181730Z 22015KT 9999 -SHRA FEW013 BKN020 BKN050 14/11 Q1008 NOSIG,0,15,0,10000,0,0,0,RA
2026-03-18 17:00:00,METAR RJTT 181700Z 22016KT 9999 -SHRA FEW015 SCT020 BKN070 14/09 Q1008 NOSIG,0,16,0,10000,0,0,0,RA
2026-03-18 16:30:00,METAR RJTT 181630Z 23016G27KT 200V280 9999 FEW015 BKN020 14/07 Q1009 NOSIG,0,16,1,10000,0,0,0,
2026-03-18 16:00:00,METAR RJTT 181600Z 22009KT 200V280 9999 SCT020 BKN050 15/06 Q1010 NOSIG,0,9,0,10000,0,0,0,
2026-03-18 15:30:00,METAR RJTT 181530Z 21011KT 9999 FEW015 BKN045 15/08 Q1010 NOSIG,0,11,0,10000,0,0,0,
2026-03-18 15:00:00,METAR RJTT 181500Z 19010KT 9999 FEW015 BKN045 15/08 Q1011 NOSIG,0,10,0,10000,0,0,0,
2026-03-18 14:30:00,METAR RJTT 181430Z 17010KT 9999 FEW010 BKN045 15/10 Q1011 NOSIG,0,10,0,10000,0,0,0,
2026-03-18 14:00:00,METAR RJTT 181400Z 20011KT 9999 FEW010 BKN020 BKN050 15/12 Q1012 NOSIG,0,11,0,10000,0,0,0,
2026-03-18 13:30:00,METAR RJTT 181330Z 19010KT 9999 FEW010 BKN020 BKN050 15/12 Q1012 NOSIG,0,10,0,10000,0,0,0,
2026-03-18 13:00:00,METAR RJTT 181300Z 18010KT 9999 FEW010 SCT030 BKN060 15/12 Q1013 NOSIG,0,10,0,10000,0,0,0,
2026-03-18 12:30:00,METAR RJTT 181230Z 19012KT 9999 FEW012 BKN060 15/12 Q1013 NOSIG,0,12,0,10000,0,0,0,
2026-03-18 12:00:00,METAR RJTT 181200Z 19010KT 9999 FEW012 BKN070 15/12 Q1014 NOSIG,0,10,0,10000,0,0,0,
2026-03-18 11:30:00,METAR RJTT 181130Z 17007KT 9999 FEW012 BKN070 14/11 Q1014 NOSIG,0,7,0,10000,0,0,0,
2026-03-18 11:00:00,METAR RJTT 181100Z 17006KT 9999 FEW012 BKN070 14/11 Q1014 NOSIG,0,6,0,10000,0,0,0,
2026-03-18 10:30:00,METAR RJTT 181030Z 16008KT 9999 FEW013 BKN080 14/11 Q1015 NOSIG,0,8,0,10000,0,0,0,
2026-03-18 10:00:00,METAR RJTT 181000Z 16009KT 9999 FEW015 BKN080 14/11 Q1015 NOSIG,0,9,0,10000,0,0,0,
2026-03-18 09:30:00,METAR RJTT 180930Z 17008KT 140V200 9999 FEW020 SCT040 BKN100 14/11 Q1015 NOSIG,0,8,0,10000,0,0,0,
2026-03-18 09:00:00,METAR RJTT 180900Z 18008KT 140V220 9999 FEW020 SCT040 BKN110 15/10 Q1015 NOSIG,0,8,0,10000,0,0,0,
2026-03-18 08:30:00,METAR RJTT 180830Z 19007KT 9999 FEW020 BKN110 15/10 Q1015 NOSIG,0,7,0,10000,0,0,0,
2026-03-18 08:00:00,METAR RJTT 180800Z 18009KT 9999 FEW020 BKN120 16/10 Q1015 NOSIG,0,9,0,10000,0,0,0,
2026-03-18 07:30:00,METAR RJTT 180730Z 18010KT 9999 FEW020 BKN130 16/09 Q1015 NOSIG,0,10,0,10000,0,0,0,
2026-03-18 07:00:00,METAR RJTT 180700Z 18011KT 9999 FEW020 BKN140 17/09 Q1015 NOSIG,0,11,0,10000,0,0,0,
2026-03-18 06:30:00,METAR RJTT 180630Z 18012KT 9999 FEW015 BKN140 16/09 Q1016 NOSIG,0,12,0,10000,0,0,0,
2026-03-18 06:00:00,METAR RJTT 180600Z 17010KT 9999 FEW020 BKN140 BKN/// 15/09 Q1016 NOSIG,0,10,0,10000,0,0,0,
2026-03-18 05:30:00,METAR RJTT 180530Z 15008KT 9999 FEW020 BKN150 15/09 Q1017 NOSIG,0,8,0,10000,0,0,0,
2026-03-18 05:00:00,METAR RJTT 180500Z 16006KT 130V200 9999 FEW020 BKN160 16/08 Q1017 NOSIG,0,6,0,10000,0,0,0,
2026-03-18 04:30:00,METAR RJTT 180430Z 16007KT 9999 FEW020 OVC170 16/08 Q1017 NOSIG,0,7,0,10000,0,0,0,
2026-03-18 04:00:00,METAR RJTT 180400Z 17006KT 130V210 9999 FEW015 OVC170 15/09 Q1018 NOSIG,0,6,0,10000,0,0,0,
2026-03-18 03:30:00,METAR RJTT 180330Z 17005KT 100V210 9999 FEW025 BKN040 BKN070 15/10 Q1019 NOSIG,0,5,0,10000,0,0,0,
2026-03-18 03:00:00,METAR RJTT 180300Z 05003KT 9999 FEW025 BKN045 14/09 Q1019 BECMG 16006KT,0,3,0,10000,0,0,0,
2026-03-18 02:30:00,METAR RJTT 180230Z 03003KT 9999 FEW025 BKN045 13/08 Q1019 BECMG 12006KT,0,3,0,10000,0,0,0,
2026-03-18 02:00:00,METAR RJTT 180200Z 04003KT 9999 FEW025 SCT045 BKN070 14/08 Q1020 BECMG 12006KT,0,3,0,10000,0,0,0,
2026-03-18 01:30:00,METAR RJTT 180130Z 04004KT 9999 FEW025 BKN045 BKN070 13/08 Q1020 NOSIG,0,4,0,10000,0,0,0,
2026-03-18 01:00:00,METAR RJTT 180100Z 03003KT 350V060 9999 FEW025 BKN040 BKN070 13/06 Q1021 NOSIG,0,3,0,10000,0,0,0,
2026-03-18 00:30:00,METAR RJTT 180030Z 02004KT 9999 FEW025 BKN040 BKN070 12/06 Q1021 NOSIG,0,4,0,10000,0,0,0,
2026-03-18 00:00:00,METAR RJTT 180000Z 01005KT 9999 FEW025 BKN040 BKN070 12/06 Q1022 NOSIG,0,5,0,10000,0,0,0,
2026-03-17 23:30:00,METAR RJTT 172330Z 02006KT 9999 FEW020 BKN035 BKN060 11/06 Q1022 NOSIG,0,6,0,10000,0,0,0,
2026-03-17 23:00:00,METAR RJTT 172300Z 36005KT 9999 FEW020 BKN035 10/05 Q1022 NOSIG,0,5,0,10000,0,0,0,
2026-03-17 22:30:00,METAR RJTT 172230Z 01006KT 9999 FEW030 10/05 Q1022 NOSIG,0,6,0,10000,0,0,0,
2026-03-17 22:00:00,METAR RJTT 172200Z 01007KT 9999 FEW020 BKN040 10/06 Q1022 NOSIG,0,7,0,10000,0,0,0,
2026-03-17 21:30:00,METAR RJTT 172130Z 03008KT 9999 FEW015 BKN040 10/07 Q1021 NOSIG,0,8,0,10000,0,0,0,
2026-03-17 21:00:00,METAR RJTT 172100Z 02008KT 9999 FEW015 SCT030 BKN045 10/07 Q1021 NOSIG,0,8,0,10000,0,0,0,
2026-03-17 20:30:00,METAR RJTT 172030Z 01007KT 9999 FEW015 BKN030 11/08 Q1021 NOSIG,0,7,0,10000,0,0,0,
2026-03-17 20:00:00,METAR RJTT 172000Z 01005KT 9999 FEW015 BKN030 11/08 Q1021 NOSIG,0,5,0,10000,0,0,0,
2026-03-17 19:30:00,METAR RJTT 171930Z 03006KT 9999 SCT035 BKN070 10/07 Q1021 NOSIG,0,6,0,10000,0,0,0,
2026-03-17 19:00:00,METAR RJTT 171900Z 02006KT 9999 FEW015 SCT035 BKN070 11/07 Q1021 NOSIG,0,6,0,10000,0,0,0,
2026-03-17 18:30:00,METAR RJTT 171830Z 03007KT 9999 FEW015 SCT035 BKN060 11/07 Q1021 NOSIG,0,7,0,10000,0,0,0,
2026-03-17 18:00:00,METAR RJTT 171800Z 01006KT 9999 FEW015 SCT035 BKN060 11/07 Q1021 NOSIG,0,6,0,10000,0,0,0,
2026-03-17 17:30:00,METAR RJTT 171730Z 03004KT 9999 FEW015 SCT030 BKN050 11/07 Q1020 NOSIG,0,4,0,10000,0,0,0,
2026-03-17 17:00:00,METAR RJTT 171700Z 05006KT 9999 FEW015 BKN030 11/08 Q1020 NOSIG,0,6,0,10000,0,0,0,
2026-03-17 16:30:00,METAR RJTT 171630Z 05005KT 9999 FEW020 BKN030 11/08 Q1021 NOSIG,0,5,0,10000,0,0,0,
2026-03-17 16:00:00,METAR RJTT 171600Z 06005KT 9999 BKN030 11/09 Q1021 BECMG 05006KT,0,5,0,10000,0,0,0,
2026-03-17 15:30:00,METAR RJTT 171530Z 07002KT 9999 BKN030 11/09 Q1021 BECMG TL1600 05006KT,0,2,0,10000,0,0,0,
2026-03-17 15:00:00,METAR RJTT 171500Z 10003KT 9999 FEW030 11/09 Q1021 BECMG TL1600 05006KT,0,3,0,10000,0,0,0,
2026-03-17 14:30:00,METAR RJTT 171430Z 10003KT 9999 FEW030 10/07 Q1021 BECMG 05006KT,0,3,0,10000,0,0,0,
2026-03-17 14:00:00,METAR RJTT 171400Z 13002KT 9999 FEW025 BKN090 11/08 Q1021 NOSIG,0,2,0,10000,0,0,0,
2026-03-17 13:30:00,METAR RJTT 171330Z VRB02KT 9999 FEW025 BKN090 11/07 Q1021 NOSIG,0,2,0,10000,0,0,0,
2026-03-17 13:00:00,METAR RJTT 171300Z 13003KT 9999 FEW025 BKN090 11/08 Q1021 NOSIG,0,3,0,10000,0,0,0,
2026-03-17 12:30:00,METAR RJTT 171230Z 13003KT 120V220 9999 FEW015 SCT030 BKN090 10/08 Q1021 NOSIG,0,3,0,10000,0,0,0,
2026-03-17 12:00:00,METAR RJTT 171200Z 12003KT 9999 FEW015 SCT025 BKN090 11/08 Q1021 NOSIG,0,3,0,10000,0,0,0,
2026-03-17 11:30:00,METAR RJTT 171130Z 16008KT 120V200 9999 SCT025 10/07 Q1021 NOSIG,0,8,0,10000,0,0,0,
2026-03-17 11:00:00,METAR RJTT 171100Z 14005KT 9999 FEW025 SCT090 10/07 Q1021 NOSIG,0,5,0,10000,0,0,0,
2026-03-17 10:30:00,METAR RJTT 171030Z 14007KT 9999 FEW030 SCT090 10/07 Q1020 NOSIG,0,7,0,10000,0,0,0,
2026-03-17 10:00:00,METAR RJTT 171000Z 14008KT 9999 FEW030 10/07 Q1020 NOSIG,0,8,0,10000,0,0,0,
2026-03-17 09:30:00,METAR RJTT 170930Z 15006KT 9999 FEW030 10/06 Q1019 NOSIG,0,6,0,10000,0,0,0,
2026-03-17 09:00:00,METAR RJTT 170900Z 15006KT 130V220 9999 FEW030 10/05 Q1019 NOSIG,0,6,0,10000,0,0,0,
2026-03-17 08:30:00,METAR RJTT 170830Z 17004KT 130V230 9999 FEW030 11/05 Q1019 NOSIG,0,4,0,10000,0,0,0,
2026-03-17 08:00:00,METAR RJTT 170800Z 17005KT 120V220 9999 FEW030 12/05 Q1019 NOSIG,0,5,0,10000,0,0,0,
2026-03-17 07:30:00,METAR RJTT 170730Z 13003KT 9999 FEW030 12/05 Q1019 NOSIG,0,3,0,10000,0,0,0,
2026-03-17 07:00:00,METAR RJTT 170700Z 13004KT 9999 FEW035 13/05 Q1019 NOSIG,0,4,0,10000,0,0,0,
2026-03-17 06:30:00,METAR RJTT 170630Z 12005KT 9999 FEW035 13/04 Q1019 NOSIG,0,5,0,10000,0,0,0,
2026-03-17 06:00:00,METAR RJTT 170600Z 13005KT 100V170 9999 FEW040 13/05 Q1019 NOSIG,0,5,0,10000,0,0,0,
2026-03-17 05:30:00,METAR RJTT 170530Z 12006KT 9999 FEW040 13/05 Q1019 BECMG TL0700 18010KT,0,6,0,10000,0,0,0,
2026-03-17 05:00:00,METAR RJTT 170500Z 12006KT 9999 FEW035 13/05 Q1019 BECMG 18010KT,0,6,0,10000,0,0,0,
2026-03-17 04:30:00,METAR RJTT 170430Z 12005KT 9999 FEW035 SCT060 13/04 Q1019 NOSIG,0,5,0,10000,0,0,0,
2026-03-17 04:00:00,METAR RJTT 170400Z 08003KT 9999 FEW030 BKN050 12/03 Q1020 NOSIG,0,3,0,10000,0,0,0,
2026-03-17 03:30:00,METAR RJTT 170330Z 05003KT 010V080 9999 FEW030 BKN040 11/02 Q1020 BECMG TL0400 08006KT,0,3,0,10000,0,0,0,
2026-03-17 03:00:00,METAR RJTT 170300Z 06003KT 9999 FEW030 BKN040 11/03 Q1020 BECMG TL0400 10006KT,0,3,0,10000,0,0,0,
2026-03-17 02:30:00,METAR RJTT 170230Z 05005KT 9999 BKN040 12/03 Q1020 BECMG TL0400 10006KT,0,5,0,10000,0,0,0,
2026-03-17 02:00:00,METAR RJTT 170200Z 03005KT 9999 FEW030 BKN040 11/02 Q1021 BECMG 10006KT,0,5,0,10000,0,0,0,
2026-03-17 01:30:00,METAR RJTT 170130Z 02006KT 9999 BKN040 11/00 Q1021 NOSIG,0,6,0,10000,0,0,0,
2026-03-17 01:00:00,METAR RJTT 170100Z 01007KT 9999 BKN040 10/M00 Q1021 NOSIG,0,7,0,10000,0,0,0,
2026-03-17 00:30:00,METAR RJTT 170030Z 01008KT 9999 BKN040 10/M01 Q1021 NOSIG,0,8,0,10000,0,0,0,
2026-03-17 00:00:00,METAR RJTT 170000Z 01008KT 9999 BKN040 10/M02 Q1021 NOSIG,0,8,0,10000,0,0,0,
2026-03-16 23:30:00,METAR RJTT 162330Z 36009KT 9999 BKN040 10/M02 Q1022 NOSIG,0,9,0,10000,0,0,0,
2026-03-16 23:00:00,METAR RJTT 162300Z 36010KT 9999 BKN040 10/M01 Q1022 NOSIG,0,10,0,10000,0,0,0,
2026-03-16 22:30:00,METAR RJTT 162230Z 36009KT 9999 BKN040 10/M02 Q1022 NOSIG,0,9,0,10000,0,0,0,
2026-03-16 22:00:00,METAR RJTT 162200Z 36009KT 9999 BKN040 10/M02 Q1022 NOSIG,0,9,0,10000,0,0,0,
2026-03-16 21:30:00,METAR RJTT 162130Z 36007KT 9999 -RA BKN040 10/M02 Q1021 NOSIG,0,7,0,10000,0,0,0,-RA
2026-03-16 21:00:00,METAR RJTT 162100Z 36008KT 9999 -RA BKN040 09/M03 Q1021 NOSIG,0,8,0,10000,0,0,0,-RA
2026-03-16 20:30:00,METAR RJTT 162030Z 02009KT 9999 BKN040 10/M02 Q1021 NOSIG,0,9,0,10000,0,0,0,
2026-03-16 20:00:00,METAR RJTT 162000Z 02008KT 9999 BKN040 10/M02 Q1021 NOSIG,0,8,0,10000,0,0,0,
2026-03-16 19:30:00,METAR RJTT 161930Z 01011KT 9999 BKN038 10/M02 Q1020 NOSIG,0,11,0,10000,0,0,0,
2026-03-16 19:00:00,METAR RJTT 161900Z 02009KT 9999 BKN038 10/M02 Q1020 NOSIG,0,9,0,10000,0,0,0,
2026-03-16 18:30:00,METAR RJTT 161830Z 02010KT 9999 BKN035 10/M02 Q1020 NOSIG,0,10,0,10000,0,0,0,
2026-03-16 18:00:00,METAR RJTT 161800Z 01010KT 9999 BKN035 10/00 Q1020 NOSIG,0,10,0,10000,0,0,0,
2026-03-16 17:30:00,METAR RJTT 161730Z 02011KT 9999 BKN030 10/03 Q1020 NOSIG,0,11,0,10000,0,0,0,
2026-03-16 17:00:00,METAR RJTT 161700Z 05010KT 9999 BKN030 10/04 Q1020 NOSIG,0,10,0,10000,0,0,0,
2026-03-16 16:30:00,METAR RJTT 161630Z 06008KT 9999 BKN040 11/05 Q1020 BECMG 05006KT,0,8,0,10000,0,0,0,
2026-03-16 16:00:00,METAR RJTT 161600Z 07008KT 9999 BKN030 11/06 Q1020 BECMG 05006KT,0,8,0,10000,0,0,0,
2026-03-16 15:30:00,METAR RJTT 161530Z 07008KT 9999 BKN030 11/05 Q1020 BECMG 05006KT,0,8,0,10000,0,0,0,
2026-03-16 15:00:00,METAR RJTT 161500Z 07007KT 9999 BKN030 11/06 Q1020 BECMG 05006KT,0,7,0,10000,0,0,0,
2026-03-16 14:30:00,METAR RJTT 161430Z 07008KT 9999 FEW020 SCT030 BKN/// 10/06 Q1020 BECMG 05006KT,0,8,0,10000,0,0,0,
2026-03-16 14:00:00,METAR RJTT 161400Z 07008KT 9999 SCT030 BKN080 11/07 Q1021 BECMG 05006KT,0,8,0,10000,0,0,0,
2026-03-16 13:30:00,METAR RJTT 161330Z 12005KT 9999 FEW020 BKN035 BKN080 11/06 Q1020 BECMG 05006KT,0,5,0,10000,0,0,0,
2026-03-16 13:00:00,METAR RJTT 161300Z 12008KT 9999 FEW030 BKN080 11/06 Q1020 BECMG 05006KT,0,8,0,10000,0,0,0,
2026-03-16 12:30:00,METAR RJTT 161230Z 12008KT 9999 FEW030 BKN080 11/06 Q1020 NOSIG,0,8,0,10000,0,0,0,
2026-03-16 12:00:00,METAR RJTT 161200Z 13007KT CAVOK 11/06 Q1020 NOSIG,1,0,0,9999,0,0,0,
2026-03-16 11:30:00,METAR RJTT 161130Z 14007KT 9999 FEW030 BKN080 11/06 Q1020 NOSIG,0,7,0,10000,0,0,0,
2026-03-16 11:00:00,METAR RJTT 161100Z 13009KT 9999 FEW030 BKN080 11/06 Q1019 NOSIG,0,9,0,10000,0,0,0,
2026-03-16 10:30:00,METAR RJTT 161030Z 15007KT 9999 FEW040 BKN080 11/05 Q1019 NOSIG,0,7,0,10000,0,0,0,
2026-03-16 10:00:00,METAR RJTT 161000Z 17004KT 9999 FEW030 BKN080 12/04 Q1019 NOSIG,0,4,0,10000,0,0,0,
2026-03-16 09:30:00,METAR RJTT 160930Z 18004KT 150V220 CAVOK 12/02 Q1019 NOSIG,1,0,0,9999,0,0,0,
2026-03-16 09:00:00,METAR RJTT 160900Z 18005KT 140V230 9999 FEW030 BKN080 12/02 Q1018 NOSIG,0,5,0,10000,0,0,0,
2026-03-16 08:30:00,METAR RJTT 160830Z 16005KT 120V220 9999 FEW030 BKN070 12/02 Q1018 NOSIG,0,5,0,10000,0,0,0,
2026-03-16 08:00:00,METAR RJTT 160800Z 16006KT 130V200 9999 FEW030 SCT080 BKN/// 12/02 Q1018 NOSIG,0,6,0,10000,0,0,0,
2026-03-16 07:30:00,METAR RJTT 160730Z 16004KT 120V220 9999 FEW030 SCT045 BKN/// 12/01 Q1018 NOSIG,0,4,0,10000,0,0,0,
2026-03-16 07:00:00,METAR RJTT 160700Z 16006KT 140V200 9999 FEW030 12/03 Q1018 NOSIG,0,6,0,10000,0,0,0,
2026-03-16 06:30:00,METAR RJTT 160630Z 16007KT 9999 FEW030 12/03 Q1018 NOSIG,0,7,0,10000,0,0,0,
2026-03-16 06:00:00,METAR RJTT 160600Z 13007KT 9999 FEW030 12/04 Q1018 NOSIG,0,7,0,10000,0,0,0,
2026-03-16 05:30:00,METAR RJTT 160530Z 12006KT 9999 FEW030 12/03 Q1018 NOSIG,0,6,0,10000,0,0,0,
2026-03-16 05:00:00,METAR RJTT 160500Z 11006KT 9999 FEW030 SCT050 11/03 Q1018 NOSIG,0,6,0,10000,0,0,0,
2026-03-16 04:30:00,METAR RJTT 160430Z 10006KT 9999 FEW030 BKN050 11/04 Q1018 NOSIG,0,6,0,10000,0,0,0,
2026-03-16 04:00:00,METAR RJTT 160400Z 09007KT 9999 FEW030 BKN050 10/04 Q1019 NOSIG,0,7,0,10000,0,0,0,
2026-03-16 03:30:00,METAR RJTT 160330Z 07007KT 9999 FEW030 BKN050 10/05 Q1019 NOSIG,0,7,0,10000,0,0,0,
2026-03-16 03:00:00,METAR RJTT 160300Z 07008KT 9999 FEW030 SCT040 BKN050 10/04 Q1019 NOSIG,0,8,0,10000,0,0,0,
2026-03-16 02:30:00,METAR RJTT 160230Z 06006KT 9999 FEW020 BKN040 09/03 Q1020 BECMG TL0330 08006KT,0,6,0,10000,0,0,0,
2026-03-16 02:00:00,METAR RJTT 160200Z 04006KT 9999 FEW020 BKN038 09/03 Q1020 NOSIG,0,6,0,10000,0,0,0,
2026-03-16 01:30:00,METAR RJTT 160130Z 01007KT 9999 FEW020 SCT035 BKN040 09/03 Q1021 NOSIG,0,7,0,10000,0,0,0,
2026-03-16 01:00:00,METAR RJTT 160100Z 36007KT 9999 FEW020 BKN045 09/03 Q1021 NOSIG,0,7,0,10000,0,0,0,
2026-03-16 00:30:00,METAR RJTT 160030Z 36008KT 9999 FEW020 BKN050 09/04 Q1021 NOSIG,0,8,0,10000,0,0,0,
2026-03-16 00:00:00,METAR RJTT 160000Z 36009KT 9999 -RA FEW020 SCT030 BKN050 09/03 Q1021 NOSIG,0,9,0,10000,0,0,0,-RA
2026-03-15 23:30:00,METAR RJTT 152330Z 35012KT 9999 -SHRA FEW020 BKN030 08/04 Q1021 NOSIG,0,12,0,10000,0,0,0,RA
2026-03-15 23:00:00,METAR RJTT 152300Z 36010KT 9999 -RA FEW020 SCT030 BKN040 08/03 Q1021 NOSIG,0,10,0,10000,0,0,0,-RA
2026-03-15 22:30:00,METAR RJTT 152230Z 36012KT 9999 -RA FEW020 BKN045 08/03 Q1021 NOSIG,0,12,0,10000,0,0,0,-RA
2026-03-15 22:00:00,METAR RJTT 152200Z 01011KT 9999 -SHRA FEW020 BKN035 08/03 Q1020 NOSIG,0,11,0,10000,0,0,0,RA
2026-03-15 21:30:00,METAR RJTT 152130Z 36011KT 9999 -SHRA FEW020 BKN035 08/03 Q1020 NOSIG,0,11,0,10000,0,0,0,RA
2026-03-15 21:00:00,METAR RJTT 152100Z 36012KT 9999 -SHRA FEW020 BKN030 08/04 Q1020 NOSIG,0,12,0,10000,0,0,0,RA
2026-03-15 20:30:00,METAR RJTT 152030Z 36011KT 9999 -SHRA FEW015 BKN030 BKN040 08/04 Q1019 NOSIG,0,11,0,10000,0,0,0,RA
2026-03-15 20:00:00,METAR RJTT 152000Z 01009KT 9999 -SHRA FEW015 BKN025 BKN040 08/05 Q1019 NOSIG,0,9,0,10000,0,0,0,RA
2026-03-15 19:30:00,METAR RJTT 151930Z 01012KT 9999 -SHRA FEW015 BKN025 BKN040 09/06 Q1019 NOSIG,0,12,0,10000,0,0,0,RA
2026-03-15 19:00:00,METAR RJTT 151900Z 04010KT 9999 -SHRA FEW020 BKN030 BKN040 09/06 Q1019 NOSIG,0,10,0,10000,0,0,0,RA
2026-03-15 18:30:00,METAR RJTT 151830Z 06011KT 9999 -SHRA FEW020 BKN030 BKN045 10/06 Q1019 BECMG 03012KT,0,11,0,10000,0,0,0,RA
2026-03-15 18:00:00,METAR RJTT 151800Z 06012KT 9999 -SHRA FEW020 BKN030 BKN045 10/06 Q1018 BECMG 03012KT,0,12,0,10000,0,0,0,RA
2026-03-15 17:30:00,METAR RJTT 151730Z 06011KT 9999 -SHRA FEW020 BKN030 BKN045 10/06 Q1018 BECMG 03012KT,0,11,0,10000,0,0,0,RA
2026-03-15 17:00:00,METAR RJTT 151700Z 06012KT 9999 -RA SCT030 BKN045 10/06 Q1018 BECMG 03012KT,0,12,0,10000,0,0,0,-RA
2026-03-15 16:30:00,METAR RJTT 151630Z 08013KT 9999 -RA FEW030 BKN040 11/06 Q1018 BECMG 03012KT,0,13,0,10000,0,0,0,-RA
2026-03-15 16:00:00,METAR RJTT 151600Z 08010KT 9999 FEW030 BKN040 11/07 Q1018 BECMG 01012KT,0,10,0,10000,0,0,0,
2026-03-15 15:30:00,METAR RJTT 151530Z 09011KT 9999 FEW030 BKN040 11/06 Q1018 BECMG 01012KT,0,11,0,10000,0,0,0,
2026-03-15 15:00:00,METAR RJTT 151500Z 09011KT 9999 FEW030 BKN040 11/06 Q1018 BECMG 02008KT,0,11,0,10000,0,0,0,
2026-03-15 14:30:00,METAR RJTT 151430Z 08011KT 9999 FEW030 SCT040 BKN080 11/06 Q1018 BECMG FM1500 04008KT,0,11,0,10000,0,0,0,
2026-03-15 14:00:00,METAR RJTT 151400Z 08008KT 9999 FEW030 SCT040 BKN080 11/06 Q1018 BECMG FM1500 04008KT,0,8,0,10000,0,0,0,
2026-03-15 13:30:00,METAR RJTT 151330Z 11007KT 9999 FEW030 BKN080 11/06 Q1018 BECMG FM1500 05008KT,0,7,0,10000,0,0,0,
2026-03-15 13:00:00,METAR RJTT 151300Z 12008KT CAVOK 11/05 Q1018 NOSIG,1,0,0,9999,0,0,0,
2026-03-15 12:30:00,METAR RJTT 151230Z 12008KT 9999 FEW030 BKN090 11/05 Q1018 NOSIG,0,8,0,10000,0,0,0,
2026-03-15 12:00:00,METAR RJTT 151200Z 12009KT 9999 FEW030 BKN090 11/05 Q1018 NOSIG,0,9,0,10000,0,0,0,
2026-03-15 11:30:00,METAR RJTT 151130Z 12009KT 9999 FEW030 BKN090 11/05 Q1018 NOSIG,0,9,0,10000,0,0,0,
2026-03-15 11:00:00,METAR RJTT 151100Z 13009KT 9999 FEW030 BKN090 11/05 Q1018 NOSIG,0,9,0,10000,0,0,0,
2026-03-15 10:30:00,METAR RJTT 151030Z 12011KT 9999 FEW030 BKN080 11/05 Q1018 NOSIG,0,11,0,10000,0,0,0,
2026-03-15 10:00:00,METAR RJTT 151000Z 12011KT 9999 FEW030 BKN080 12/05 Q1018 NOSIG,0,11,0,10000,0,0,0,
2026-03-15 09:30:00,METAR RJTT 150930Z 13010KT 9999 FEW030 BKN080 12/05 Q1018 NOSIG,0,10,0,10000,0,0,0,
2026-03-15 09:00:00,METAR RJTT 150900Z 17009KT 9999 FEW030 BKN070 13/02 Q1017 NOSIG,0,9,0,10000,0,0,0,
2026-03-15 08:30:00,METAR RJTT 150830Z 18009KT 150V230 9999 FEW030 BKN080 13/01 Q1017 NOSIG,0,9,0,10000,0,0,0,
