Time_recorded,METAR,is_cavok,wind_speed,is_gust,visibility_meters,has_thunderstorm,has_heavy_rain,has_low_vis_fog,other_phenomenon
2026-05-02 14:54:00,METAR KSLC 021454Z 16008KT 10SM FEW250 14/M03 A3016 RMK AO2 SLP181 T01441028 52005 $,0,8,0,16090,0,0,0,
2026-05-02 13:54:00,METAR KSLC 021354Z 14007KT 10SM FEW250 11/01 A3015 RMK AO2 SLP183 T01110006 $,0,7,0,16090,0,0,0,
2026-05-02 12:54:00,METAR KSLC 021254Z 15006KT 10SM FEW270 07/M01 A3014 RMK AO2 SLP183 T00721006 $,0,6,0,16090,0,0,0,
2026-05-02 11:54:00,METAR KSLC 021154Z 14007KT 10SM CLR 07/M01 A3014 RMK AO2 SLP180 T00721006 10106 20072 52002 $,0,7,0,16090,0,0,0,
2026-05-02 10:54:00,METAR KSLC 021054Z 14004KT 10SM CLR 08/M02 A3014 RMK AO2 SLP178 T00831017 $,0,4,0,16090,0,0,0,
2026-05-02 09:54:00,METAR KSLC 020954Z 15008KT 10SM CLR 08/M01 A3013 RMK AO2 SLP176 T00831011 $,0,8,0,16090,0,0,0,
2026-05-02 08:54:00,METAR KSLC 020854Z 13006KT 10SM CLR 09/M01 A3013 RMK AO2 SLP176 T00891011 51000 $,0,6,0,16090,0,0,0,
2026-05-02 06:54:00,METAR KSLC 020654Z 17006KT 10SM CLR 10/01 A3013 RMK AO2 SLP176 T01000006 402000078 $,0,6,0,16090,0,0,0,
2026-05-02 05:54:00,METAR KSLC 020554Z 16006KT 10SM CLR 11/00 A3013 RMK AO2 SLP176 T01060000 10194 20106 51009 $,0,6,0,16090,0,0,0,
2026-05-02 04:54:00,METAR KSLC 020454Z 12003KT 10SM CLR 13/M01 A3013 RMK AO2 SLP174 T01331011 $,0,3,0,16090,0,0,0,
2026-05-02 03:54:00,METAR KSLC 020354Z 00000KT 10SM CLR 14/M01 A3013 RMK AO2 SLP172 T01441006 $,0,0,0,16090,0,0,0,
2026-05-02 02:54:00,METAR KSLC 020254Z 25006KT 10SM FEW130 15/M01 A3010 RMK AO2 SLP164 T01501011 53006 $,0,6,0,16090,0,0,0,
2026-05-02 01:54:00,METAR KSLC 020154Z 28008KT 10SM CLR 17/M01 A3008 RMK AO2 SLP158 T01671011,0,8,0,16090,0,0,0,
2026-05-02 00:54:00,METAR KSLC 020054Z 30011KT 10SM CLR 18/M03 A3008 RMK AO2 SLP159 T01831033,0,11,0,16090,0,0,0,
2026-05-01 23:54:00,METAR KSLC 012354Z 35011KT 10SM FEW095 19/M03 A3008 RMK AO2 SLP158 T01941028 10200 20161 56012,0,11,0,16090,0,0,0,
2026-05-01 22:54:00,METAR KSLC 012254Z 34011G18KT 10SM FEW095 19/M04 A3009 RMK AO2 SLP160 T01891039,0,11,1,16090,0,0,0,
2026-05-01 21:54:00,METAR KSLC 012154Z 33008KT 10SM FEW095 19/M04 A3011 RMK AO2 SLP164 T01941039,0,8,0,16090,0,0,0,
2026-05-01 20:54:00,METAR KSLC 012054Z 28015G21KT 10SM FEW020 FEW095 19/M04 A3012 RMK AO2 SLP169 FU FEW020 FU DSNT SW-NW T01891039 56009,0,15,1,16090,0,0,0,DS
2026-05-01 19:54:00,METAR KSLC 011954Z VRB06KT 10SM FEW012 FEW090 19/M07 A3012 RMK AO2 SLP168 FU FEW012 FU DSNT W-NW T01891067,0,6,0,16090,0,0,0,DS
2026-05-01 18:54:00,METAR KSLC 011854Z VRB05KT 10SM FEW015 FEW085 17/M08 A3014 RMK AO2 SLP176 FU FEW015 FU DSNT W-NW T01721078,0,5,0,16090,0,0,0,DS
2026-05-01 17:54:00,METAR KSLC 011754Z VRB04KT 10SM FEW014 FEW085 17/M08 A3015 RMK AO2 SLP180 FU FEW014 FU VC NW T01671078 10167 20078 58001,0,4,0,16090,0,0,0,VC
2026-05-01 16:54:00,METAR KSLC 011654Z 34005KT 10SM FEW008 16/M05 A3016 RMK AO2 SLP184 FU FEW008 FU VC NW T01561050,0,5,0,16090,0,0,0,VC
2026-05-01 16:48:00,SPECI KSLC 011648Z 32006KT 10SM FEW008 16/M04 A3016 RMK AO2 FU FEW008 FU VC NW,0,6,0,16090,0,0,0,VC
2026-05-01 15:54:00,METAR KSLC 011554Z 10007KT 10SM FEW013 14/M04 A3015 RMK AO2 SLP183 FU FEW013 FU VC NW T01441044,0,7,0,16090,0,0,0,VC
2026-05-01 14:54:00,METAR KSLC 011454Z 13009KT 10SM CLR 13/M03 A3015 RMK AO2 SLP183 T01331033 51016,0,9,0,16090,0,0,0,
2026-05-01 13:54:00,METAR KSLC 011354Z 15008KT 10SM CLR 11/M03 A3013 RMK AO2 SLP176 T01111028,0,8,0,16090,0,0,0,
2026-05-01 12:54:00,METAR KSLC 011254Z 15009KT 10SM CLR 08/M03 A3011 RMK AO2 SLP172 T00831033,0,9,0,16090,0,0,0,
2026-05-01 11:54:00,METAR KSLC 011154Z 13005KT 10SM CLR 09/M02 A3009 RMK AO2 SLP164 T00891022 10128 20083 53002,0,5,0,16090,0,0,0,
2026-05-01 10:54:00,METAR KSLC 011054Z 13007KT 10SM CLR 09/M02 A3009 RMK AO2 SLP166 T00891022,0,7,0,16090,0,0,0,
2026-05-01 09:54:00,METAR KSLC 010954Z VRB03KT 10SM CLR 11/M02 A3008 RMK AO2 SLP159 T01111022,0,3,0,16090,0,0,0,
2026-05-01 08:54:00,METAR KSLC 010854Z 10007KT 10SM CLR 11/M03 A3009 RMK AO2 SLP160 T01111028 53006,0,7,0,16090,0,0,0,
2026-05-01 07:54:00,METAR KSLC 010754Z 10010KT 10SM CLR 12/M04 A3008 RMK AO2 SLP155 T01221039,0,10,0,16090,0,0,0,
2026-05-01 06:54:00,METAR KSLC 010654Z 09010G15KT 10SM CLR 13/M04 A3007 RMK AO2 SLP153 T01281044 401780050,0,10,1,16090,0,0,0,
2026-05-01 05:54:00,METAR KSLC 010554Z 07007KT 10SM FEW090 13/M04 A3007 RMK AO2 SLP153 T01281044 10178 20117 50008,0,7,0,16090,0,0,0,
2026-05-01 04:54:00,METAR KSLC 010454Z 11007KT 10SM FEW090 13/M05 A3007 RMK AO2 SLP156 T01331050,0,7,0,16090,0,0,0,
2026-05-01 03:54:00,METAR KSLC 010354Z 00000KT 10SM FEW095 FEW160 13/01 A3006 RMK AO2 SLP153 T01330011,0,0,0,16090,0,0,0,
2026-05-01 02:54:00,METAR KSLC 010254Z 28003KT 10SM FEW090 SCT140 13/01 A3004 RMK AO2 SLP150 T01330011 53004,0,3,0,16090,0,0,0,
2026-05-01 01:54:00,METAR KSLC 010154Z 33010KT 10SM FEW016 SCT100 16/M05 A3003 RMK AO2 SLP146 VIRGA DSNT E FU FEW016 FU DSNT S-W T01611050,0,10,0,16090,0,0,0,DS
2026-05-01 00:54:00,METAR KSLC 010054Z 31012G20KT 10SM SCT090 17/M04 A3003 RMK AO2 SLP146 CB DSNT E-SE SH DSNT SE T01671044,0,12,1,16090,0,0,0,"DS,SH"
2026-04-30 23:54:00,METAR KSLC 302354Z 32011KT 10SM FEW100 SCT210 17/M03 A3003 RMK AO2 SLP145 VIRGA DSNT E TCU DSNT NE-SE T01721028 10178 20144 56012,0,11,0,16090,0,0,0,DS
2026-04-30 22:54:00,METAR KSLC 302254Z 30006KT 10SM SCT110 BKN210 17/M02 A3003 RMK AO2 SLP147 VIRGA DSNT NE-SE TCU DSNT NE-SE T01671017,0,6,0,16090,0,0,0,DS
2026-04-30 21:54:00,METAR KSLC 302154Z 33020G28KT 10SM FEW015 SCT070TCU BKN095 16/M01 A3005 RMK AO2 PK WND 33028/2146 SLP156 VIRGA OHD AND DSNT E-S FU FEW015 FU DSNT W-N TCU OHD AND DSNT NE-S T01561011,0,20,1,16090,0,0,0,DS
2026-04-30 20:54:00,METAR KSLC 302054Z 34008G17KT 300V030 10SM FEW015 SCT075TCU BKN100 BKN220 16/M02 A3007 RMK AO2 SLP159 VIRGA FU FEW015 FU VC W-NW TCU NW-N T01611017 56014,0,8,1,16090,0,0,0,VC
2026-04-30 19:54:00,METAR KSLC 301954Z 32009G15KT 10SM FEW070 FEW120 SCT220 18/M02 A3007 RMK AO2 SLP158 VIRGA FU DSNT NW SH DSNT NE AND SE T01781017,0,9,1,16090,0,0,0,"DS,SH"
2026-04-30 18:54:00,METAR KSLC 301854Z 31008KT 10SM FEW012 FEW070 FEW110 SCT220 16/M01 A3009 RMK AO2 SLP165 VIRGA FU FEW012 FU DSNT NW T01561006,0,8,0,16090,0,0,0,DS
2026-04-30 17:54:00,METAR KSLC 301754Z 30006KT 10SM FEW065 FEW110 15/00 A3011 RMK AO2 SLP173 T01500000 10156 20050 56004,0,6,0,16090,0,0,0,
2026-04-30 16:54:00,METAR KSLC 301654Z 30007KT 280V340 10SM FEW065 FEW110 13/01 A3012 RMK AO2 SLP174 T01330011 $,0,7,0,16090,0,0,0,
2026-04-30 14:54:00,METAR KSLC 301454Z 29003KT 10SM FEW070 FEW110 10/03 A3012 RMK AO2 SLP181 T01000028 51006 $,0,3,0,16090,0,0,0,
2026-04-30 13:54:00,METAR KSLC 301354Z 00000KT 10SM FEW110 07/03 A3012 RMK AO2 SLP180 T00720033,0,0,0,16090,0,0,0,
2026-04-30 12:54:00,METAR KSLC 301254Z 21003KT 10SM FEW120 06/03 A3011 RMK AO2 SLP177 T00560028,0,3,0,16090,0,0,0,
2026-04-30 11:54:00,METAR KSLC 301154Z 23003KT 10SM FEW120 06/03 A3010 RMK AO2 SLP173 T00610033 10100 20050 55000,0,3,0,16090,0,0,0,
2026-04-30 10:54:00,METAR KSLC 301054Z 28003KT 10SM CLR 06/04 A3010 RMK AO2 SLP172 T00610039,0,3,0,16090,0,0,0,
2026-04-30 09:54:00,METAR KSLC 300954Z 21003KT 10SM CLR 06/03 A3010 RMK AO2 SLP170 T00610033,0,3,0,16090,0,0,0,
2026-04-30 08:54:00,METAR KSLC 300854Z 21003KT 10SM CLR 07/03 A3010 RMK AO2 SLP170 T00720028 58002,0,3,0,16090,0,0,0,
2026-04-30 07:54:00,METAR KSLC 300754Z 18004KT 10SM CLR 07/01 A3011 RMK AO2 SLP174 T00720011,0,4,0,16090,0,0,0,
2026-04-30 06:54:00,METAR KSLC 300654Z 00000KT 10SM FEW120 09/00 A3011 RMK AO2 SLP171 T00940000 401720039,0,0,0,16090,0,0,0,
2026-04-30 05:54:00,METAR KSLC 300554Z 15004KT 10SM FEW090 FEW110 09/01 A3011 RMK AO2 SLP171 T00940006 10161 20089 50005,0,4,0,16090,0,0,0,
2026-04-30 04:54:00,METAR KSLC 300454Z 21003KT 10SM FEW090 FEW110 11/M01 A3011 RMK AO2 SLP172 T01061006,0,3,0,16090,0,0,0,
2026-04-30 03:54:00,METAR KSLC 300354Z 03004KT 10SM SCT110 10/02 A3011 RMK AO2 SLP173 T01000022,0,4,0,16090,0,0,0,
2026-04-30 02:54:00,METAR KSLC 300254Z 35008KT 10SM FEW110 FEW180 SCT250 11/02 A3009 RMK AO2 SLP169 T01110017 55001,0,8,0,16090,0,0,0,
2026-04-30 01:54:00,METAR KSLC 300154Z 35006KT 10SM FEW070 FEW110 SCT180 BKN230 14/M01 A3009 RMK AO2 SLP168 ACSL DSNT S T01391006,0,6,0,16090,0,0,0,DS
2026-04-30 00:54:00,METAR KSLC 300054Z 02009KT 10SM FEW080 SCT120 SCT180 BKN230 16/M02 A3009 RMK AO2 SLP171 VIRGA T01561017,0,9,0,16090,0,0,0,
2026-04-29 23:54:00,METAR KSLC 292354Z 36013KT 10SM FEW080 FEW120 SCT180 BKN230 16/M02 A3010 RMK AO2 SLP173 VIRGA ACSL DSNT W T01561022 10172 20150 55004,0,13,0,16090,0,0,0,DS
2026-04-29 22:54:00,METAR KSLC 292254Z 02009KT 10SM FEW080 FEW120 BKN230 17/M03 A3009 RMK AO2 SLP169 VIRGA T01671033,0,9,0,16090,0,0,0,
2026-04-29 21:54:00,METAR KSLC 292154Z 31005G14KT 10SM FEW085 FEW120 BKN210 17/M05 A3010 RMK AO2 SLP172 VIRGA T01671050,0,5,1,16090,0,0,0,
2026-04-29 20:54:00,METAR KSLC 292054Z 32005KT 10SM FEW085 SCT120 BKN230 17/M04 A3011 RMK AO2 SLP175 VIRGA T01671044 58009,0,5,0,16090,0,0,0,
2026-04-29 19:54:00,METAR KSLC 291954Z 34004KT 10SM FEW080 SCT110 BKN230 16/M04 A3012 RMK AO2 SLP178 VIRGA T01561044,0,4,0,16090,0,0,0,
2026-04-29 18:54:00,METAR KSLC 291854Z COR 25006KT 10SM FEW080 BKN220 16/M03 A3013 RMK AO2 SLP183 VIRGA T01561033,0,6,0,16090,0,0,0,
2026-04-29 17:54:00,METAR KSLC 291754Z COR 18004KT 10SM FEW080 FEW110 BKN200 15/M04 A3014 RMK AO2 SLP186 VIRGA T01501039 10150 20039 58004,0,4,0,16090,0,0,0,
2026-04-29 16:54:00,METAR KSLC 291654Z 00000KT 10SM FEW080 FEW110 FEW200 13/M03 A3015 RMK AO2 SLP191 T01331033,0,0,0,16090,0,0,0,
2026-04-29 15:54:00,METAR KSLC 291554Z 12006KT 10SM FEW075 FEW100 13/M03 A3015 RMK AO2 SLP192 T01281028,0,6,0,16090,0,0,0,
2026-04-29 14:54:00,METAR KSLC 291454Z 14007KT 10SM FEW095 11/M03 A3015 RMK AO2 SLP191 T01061028 53006,0,7,0,16090,0,0,0,
2026-04-29 13:54:00,METAR KSLC 291354Z 15006KT 10SM FEW090 07/M02 A3014 RMK AO2 SLP189 T00721017,0,6,0,16090,0,0,0,
2026-04-29 12:54:00,METAR KSLC 291254Z 16007KT 10SM FEW095 04/M02 A3014 RMK AO2 SLP189 T00441022,0,7,0,16090,0,0,0,
2026-04-29 11:54:00,METAR KSLC 291154Z 16006KT 10SM FEW090 04/M02 A3013 RMK AO2 SLP191 T00391017 10072 20039 53003,0,6,0,16090,0,0,0,
2026-04-29 10:54:00,METAR KSLC 291054Z 15007KT 10SM FEW150 04/M01 A3013 RMK AO2 SLP189 T00441011,0,7,0,16090,0,0,0,
2026-04-29 09:54:00,METAR KSLC 290954Z 16006KT 10SM CLR 04/M01 A3012 RMK AO2 SLP185 T00441006,0,6,0,16090,0,0,0,
2026-04-29 08:54:00,METAR KSLC 290854Z 16007KT 10SM CLR 05/M03 A3012 RMK AO2 SLP183 T00501028 58007,0,7,0,16090,0,0,0,
2026-04-29 07:54:00,METAR KSLC 290754Z 19004KT 10SM CLR 06/M03 A3013 RMK AO2 SLP186 T00611028,0,4,0,16090,0,0,0,
2026-04-29 06:54:00,METAR KSLC 290654Z 17004KT 10SM CLR 06/M02 A3014 RMK AO2 SLP193 T00611022 401440017,0,4,0,16090,0,0,0,
2026-04-29 05:54:00,METAR KSLC 290554Z 14005KT 10SM CLR 07/M02 A3015 RMK AO2 SLP195 T00671022 10139 20067 51007,0,5,0,16090,0,0,0,
2026-04-29 04:54:00,METAR KSLC 290454Z 19006KT 10SM CLR 08/M02 A3014 RMK AO2 SLP192 T00781017,0,6,0,16090,0,0,0,
2026-04-29 03:54:00,METAR KSLC 290354Z 12006KT 10SM CLR 08/M02 A3014 RMK AO2 SLP192 T00831017,0,6,0,16090,0,0,0,
2026-04-29 02:54:00,METAR KSLC 290254Z 02004KT 10SM FEW090 FEW250 10/M04 A3012 RMK AO2 SLP187 T01001039 55002,0,4,0,16090,0,0,0,
2026-04-29 01:54:00,METAR KSLC 290154Z 36004KT 10SM FEW060 FEW090 FEW250 12/M04 A3011 RMK AO2 SLP183 T01221044,0,4,0,16090,0,0,0,
2026-04-29 00:54:00,METAR KSLC 290054Z 34004KT 10SM FEW050 FEW080 FEW250 14/M06 A3012 RMK AO2 SLP189 ACSL DSNT SE T01391056,0,4,0,16090,0,0,0,DS
2026-04-28 23:54:00,METAR KSLC 282354Z 12004KT 10SM FEW050 FEW070 SCT095 13/M03 A3013 RMK AO2 SLP191 SH DSNT S 60000 T01281028 10144 20111 58005,0,4,0,16090,0,0,0,"DS,SH"
2026-04-28 22:54:00,METAR KSLC 282254Z 29006KT 10SM FEW048 BKN070 BKN090 12/M01 A3014 RMK AO2 RAB33E44 SLP196 VCSH P0000 T01221011,0,6,0,16090,0,0,0,"RA,SH,VC"
2026-04-28 21:54:00,METAR KSLC 282154Z 24009KT 220V290 10SM FEW055 BKN085 BKN110 13/M02 A3015 RMK AO2 SLP199 VCSH T01281022,0,9,0,16090,0,0,0,"SH,VC"
2026-04-28 20:54:00,METAR KSLC 282054Z 30013G20KT 10SM FEW055TCU SCT110 SCT200 14/M01 A3015 RMK AO2 SLP195 VIRGA TCU N AND DSNT NE SH DSNT SW T01441011 55003,0,13,1,16090,0,0,0,"DS,SH"
2026-04-28 19:54:00,METAR KSLC 281954Z 28009KT 10SM FEW055 SCT090 SCT200 13/M02 A3014 RMK AO2 SLP194 VIRGA SH DSNT NE AND SE T01331017,0,9,0,16090,0,0,0,"DS,SH"
2026-04-28 18:54:00,METAR KSLC 281854Z VRB05KT 10SM SCT050TCU SCT060 SCT200 12/M01 A3015 RMK AO2 SLP199 VIRGA TCU N-NE T01171011,0,5,0,16090,0,0,0,
2026-04-28 17:54:00,METAR KSLC 281754Z VRB03KT 10SM SCT050 SCT200 11/01 A3016 RMK AO2 SLP200 T01110006 10111 20017 51004,0,3,0,16090,0,0,0,
2026-04-28 16:54:00,METAR KSLC 281654Z 00000KT 10SM FEW050 FEW100 FEW200 11/02 A3015 RMK AO2 SLP200 T01060017,0,0,0,16090,0,0,0,
2026-04-28 15:54:00,METAR KSLC 281554Z VRB04KT 10SM FEW045 FEW100 08/02 A3015 RMK AO2 SLP202 T00830022,0,4,0,16090,0,0,0,
2026-04-28 14:54:00,METAR KSLC 281454Z 14005KT 10SM FEW065 FEW110 07/02 A3014 RMK AO2 SLP201 T00670017 53023,0,5,0,16090,0,0,0,
2026-04-28 13:54:00,METAR KSLC 281354Z 14006KT 10SM FEW065 FEW110 04/02 A3011 RMK AO2 SLP193 T00440017,0,6,0,16090,0,0,0,
2026-04-28 12:54:00,METAR KSLC 281254Z 12008KT 10SM FEW070 FEW120 02/01 A3009 RMK AO2 SLP189 T00170006,0,8,0,16090,0,0,0,
2026-04-28 11:54:00,METAR KSLC 281154Z 15007KT 10SM FEW070 02/01 A3006 RMK AO2 SLP182 70015 T00220006 10039 20022 53005,0,7,0,16090,0,0,0,
2026-04-28 10:54:00,METAR KSLC 281054Z 13007KT 10SM FEW075 02/01 A3006 RMK AO2 SLP179 T00220006,0,7,0,16090,0,0,0,
2026-04-28 09:54:00,METAR KSLC 280954Z 14007KT 10SM FEW090 02/01 A3005 RMK AO2 SLP173 T00220006,0,7,0,16090,0,0,0,
2026-04-28 08:54:00,METAR KSLC 280854Z 14006KT 10SM SCT095 03/01 A3005 RMK AO2 SLP170 T00280011 50008,0,6,0,16090,0,0,0,
2026-04-28 07:54:00,METAR KSLC 280754Z 16005KT 10SM SCT100 03/01 A3006 RMK AO2 SLP174 T00280011,0,5,0,16090,0,0,0,
2026-04-28 06:54:00,METAR KSLC 280654Z 15004KT 10SM FEW100 BKN180 03/02 A3005 RMK AO2 SLP170 T00330017 400720033,0,4,0,16090,0,0,0,
2026-04-28 05:54:00,METAR KSLC 280554Z 12006KT 10SM FEW110 SCT170 04/02 A3002 RMK AO2 SLP161 T00390022 10061 20039 51020,0,6,0,16090,0,0,0,
2026-04-28 04:54:00,METAR KSLC 280454Z 10006KT 10SM SCT100 05/02 A3001 RMK AO2 SLP158 T00500022,0,6,0,16090,0,0,0,
2026-04-28 03:54:00,METAR KSLC 280354Z 09004KT 10SM FEW100 SCT150 06/03 A2999 RMK AO2 SLP150 T00560028,0,4,0,16090,0,0,0,
2026-04-28 02:54:00,METAR KSLC 280254Z 18007KT 10SM FEW070 FEW100 BKN150 06/03 A2995 RMK AO2 SLP138 T00560028 53002,0,7,0,16090,0,0,0,
2026-04-28 01:54:00,METAR KSLC 280154Z 13011KT 10SM FEW015 SCT070 BKN090 BKN130 06/03 A2993 RMK AO2 SLP128 SH DSNT SE-S T00610033,0,11,0,16090,0,0,0,"DS,SH"
2026-04-28 00:54:00,METAR KSLC 280054Z 17012KT 10SM FEW030 SCT070 BKN090 BKN130 06/03 A2993 RMK AO2 SLP129 SH DSNT NE AND SW T00560033,0,12,0,16090,0,0,0,"DS,SH"
2026-04-27 23:54:00,METAR KSLC 272354Z 15012KT 10SM FEW007 BKN055 BKN090 04/03 A2995 RMK AO2 RAE14 SLP135 VCSH P0000 60007 T00440028 10072 20039 50001,0,12,0,16090,0,0,0,"SH,VC"
2026-04-27 22:54:00,METAR KSLC 272254Z 12015KT 10SM -RA FEW015 BKN031 BKN045 04/03 A2996 RMK AO2 SLP138 VIS LWR NE-SE P0004 T00440028,0,15,0,16090,0,0,0,-RA
2026-04-27 22:40:00,SPECI KSLC 272240Z 12011KT 10SM -RA FEW015 BKN032 BKN045 04/03 A2996 RMK AO2 VIS LWR E-SE P0003 T00440028,0,11,0,16090,0,0,0,-RA
2026-04-27 21:54:00,METAR KSLC 272154Z 04005KT 10SM -RA FEW015 BKN026 BKN035 06/01 A2996 RMK AO2 SLP138 VIS LWR NE-SE-S P0003 T00560011,0,5,0,16090,0,0,0,-RA
2026-04-27 21:32:00,SPECI KSLC 272132Z 32007KT 10SM -RA FEW021 BKN027 BKN038 06/02 A2995 RMK AO2 VIS LWR SE-S P0001 T00610017,0,7,0,16090,0,0,0,-RA
2026-04-27 20:54:00,METAR KSLC 272054Z 28005KT 10SM -RA FEW023 BKN038 BKN047 07/01 A2994 RMK AO2 RAB18 SLP132 P0000 60000 T00670011 53003,0,5,0,16090,0,0,0,-RA
2026-04-27 19:54:00,METAR KSLC 271954Z 26007KT 10SM FEW015 FEW030 BKN050 07/03 A2993 RMK AO2 SLP127 SH DSNT SW AND NW T00670033,0,7,0,16090,0,0,0,"DS,SH"
2026-04-27 18:54:00,METAR KSLC 271854Z 29008KT 10SM FEW016 FEW035 BKN048 BKN200 06/03 A2993 RMK AO2 SLP129 T00610033,0,8,0,16090,0,0,0,
2026-04-27 17:54:00,METAR KSLC 271754Z 01008KT 10SM OVC046 06/03 A2993 RMK AO2 RAE00B08E38 SLP130 VCSH P0000 60008 T00560033 10061 20039 50001,0,8,0,16090,0,0,0,"RA,SH,VC"
2026-04-27 17:03:00,SPECI KSLC 271703Z 36012KT 10SM FEW011 BKN033 OVC044 05/03 A2994 RMK AO2 RAE00 P0000 T00500028,0,12,0,16090,0,0,0,
2026-04-27 16:54:00,METAR KSLC 271654Z 36015KT 10SM -RA SCT010 BKN014 OVC043 04/03 A2994 RMK AO2 SLP131 P0000 T00440028,0,15,0,16090,0,0,0,-RA
2026-04-27 16:52:00,SPECI KSLC 271652Z 36017KT 10SM -RA SCT010 BKN014 OVC044 04/03 A2994 RMK AO2 P0000,0,17,0,16090,0,0,0,-RA
2026-04-27 15:54:00,METAR KSLC 271554Z 35015KT 6SM -RA BR BKN019 OVC035 04/03 A2993 RMK AO2 SLP129 P0006 T00440033,0,15,0,9654,0,0,1,"-RA,BR"
2026-04-27 15:36:00,SPECI KSLC 271536Z 35015G21KT 5SM -RA BR BKN015 OVC021 04/03 A2993 RMK AO2 P0006 T00440028,0,15,1,8045,0,0,1,"-RA,BR"
2026-04-27 15:24:00,SPECI KSLC 271524Z 35015G20KT 4SM RA BR FEW007 BKN013 OVC020 04/03 A2993 RMK AO2 P0004 T00440033,0,15,1,6436,0,0,1,"BR,RA"
2026-04-27 15:05:00,SPECI KSLC 271505Z 33009KT 4SM RA BR OVC010 04/03 A2992 RMK AO2 P0001 T00440033 $,0,9,0,6436,0,0,1,"BR,RA"
2026-04-27 14:54:00,METAR KSLC 271454Z 33012KT 4SM -RA BR BKN009 OVC015 04/03 A2992 RMK AO2 RAB12 SLP126 P0002 60002 T00440028 51015 $,0,12,0,6436,0,0,1,"-RA,BR"
2026-04-27 13:54:00,METAR KSLC 271354Z 35004KT 10SM BKN009 BKN047 OVC070 06/04 A2990 RMK AO2 RAE39 SLP114 VCSH P0000 T00560039 $,0,4,0,16090,0,0,0,"SH,VC"
2026-04-27 13:51:00,SPECI KSLC 271351Z 35003KT 10SM SCT009 BKN046 OVC070 06/04 A2990 RMK AO2 RAE39 CIG 039 NW RNWY VCSH P0000 $,0,3,0,16090,0,0,0,"SH,VC"
2026-04-27 12:54:00,METAR KSLC 271254Z 00000KT 10SM -RA FEW021 SCT050 BKN070 OVC150 06/03 A2987 RMK AO2 RAB39 SLP105 P0000 T00560033 $,0,0,0,16090,0,0,0,-RA
2026-04-27 11:54:00,METAR KSLC 271154Z 16004KT 10SM BKN045 BKN100 BKN160 05/02 A2986 RMK AO2 SLP103 70051 T00500022 10056 20044 53005 $,0,4,0,16090,0,0,0,
2026-04-27 10:54:00,METAR KSLC 271054Z 13006KT 10SM SCT140 BKN160 05/03 A2985 RMK AO2 SLP100 T00500028 $,0,6,0,16090,0,0,0,
2026-04-27 09:54:00,METAR KSLC 270954Z 16004KT 10SM FEW120 SCT160 BKN200 05/03 A2984 RMK AO2 SLP094 T00500028 $,0,4,0,16090,0,0,0,
2026-04-27 08:54:00,METAR KSLC 270854Z 16004KT 10SM FEW140 BKN170 BKN210 05/03 A2984 RMK AO2 SLP095 T00500033 50006 $,0,4,0,16090,0,0,0,
2026-04-27 07:54:00,METAR KSLC 270754Z 18005KT 10SM BKN150 BKN200 05/03 A2985 RMK AO2 SLP094 T00500033 $,0,5,0,16090,0,0,0,
2026-04-27 06:54:00,METAR KSLC 270654Z 13008KT 10SM SCT140 BKN180 05/03 A2984 RMK AO2 SLP090 T00500028 401330044 $,0,8,0,16090,0,0,0,
2026-04-27 05:54:00,METAR KSLC 270554Z 13008KT 10SM FEW070 FEW130 05/03 A2982 RMK AO2 SLP084 60003 T00500033 10078 20050 51010 $,0,8,0,16090,0,0,0,
2026-04-27 04:54:00,METAR KSLC 270454Z 14008KT 10SM FEW100 06/04 A2981 RMK AO2 SLP079 T00610044 $,0,8,0,16090,0,0,0,
2026-04-27 03:54:00,METAR KSLC 270354Z 11005KT 10SM SCT100 SCT150 06/05 A2980 RMK AO2 SLP078 T00610050 $,0,5,0,16090,0,0,0,
2026-04-27 02:54:00,METAR KSLC 270254Z 18006KT 10SM FEW020 BKN090 BKN200 07/04 A2979 RMK AO2 SLP070 60003 T00670044 51016 $,0,6,0,16090,0,0,0,
2026-04-27 01:54:00,METAR KSLC 270154Z 13004KT 10SM FEW012 SCT022 BKN085 BKN220 08/06 A2977 RMK AO2 SLP063 T00780056 $,0,4,0,16090,0,0,0,
2026-04-27 00:54:00,METAR KSLC 270054Z 00000KT 10SM FEW010 BKN024 BKN060 08/05 A2975 RMK AO2 RAE32 SLP059 P0003 T00780050 $,0,0,0,16090,0,0,0,
2026-04-26 23:54:00,METAR KSLC 262354Z 28006KT 9SM -RA SCT010 SCT020 OVC029 07/06 A2973 RMK AO2 SLP051 P0006 60047 T00720056 10111 20072 53027 $,0,6,0,14481,0,0,0,-RA
2026-04-26 23:31:00,SPECI KSLC 262331Z 29008KT 7SM -RA FEW010 BKN016 OVC028 07/06 A2972 RMK AO2 P0006 T00720056 $,0,8,0,11263,0,0,0,-RA
2026-04-26 22:54:00,METAR KSLC 262254Z 28012KT 4SM RA BR BKN010 BKN016 OVC027 07/06 A2970 RMK AO2 SLP039 P0010 T00720061 $,0,12,0,6436,0,0,1,"BR,RA"
2026-04-26 22:28:00,SPECI KSLC 262228Z 27015KT 6SM -RA BR BKN012 BKN019 OVC026 07/06 A2968 RMK AO2 P0004 T00720061 $,0,15,0,9654,0,0,1,"-RA,BR"
2026-04-26 21:54:00,METAR KSLC 262154Z 28017G23KT 5SM RA BR FEW011 BKN028 OVC045 08/06 A2967 RMK AO2 CIG 018 NW RNWY SLP030 P0007 T00780061 $,0,17,1,8045,0,0,1,"BR,RA"
2026-04-26 20:54:00,METAR KSLC 262054Z 29013KT 7SM -RA FEW013 BKN031 OVC038 08/06 A2964 RMK AO2 SLP019 P0023 60024 T00830061 53014 $,0,13,0,11263,0,0,0,-RA
2026-04-26 20:34:00,SPECI KSLC 262034Z COR VRB06KT 6SM +RA BR FEW013 BKN020 OVC033 08/06 A2964 RMK AO2 P0019 T00830061 $,0,6,0,9654,0,1,1,"+RA,BR"
2026-04-26 19:54:00,METAR KSLC 261954Z 16009KT 10SM -RA SCT025 BKN040 OVC050 10/06 A2961 RMK AO2 SLP000 P0001 T01000061,0,9,0,16090,0,0,0,-RA
2026-04-26 18:54:00,METAR KSLC 261854Z 17012G23KT 10SM -RA FEW030 SCT045 OVC060 11/05 A2960 RMK AO2 RAB05 SLP997 P0000 T01060050,0,12,1,16090,0,0,0,-RA
2026-04-26 17:54:00,METAR KSLC 261754Z 17014G19KT 10SM FEW030 SCT050 OVC060 11/04 A2960 RMK AO2 RAB1659E40 SLP996 VCSH P0000 60001 T01060044 10106 20083 53001,0,14,1,16090,0,0,0,"RA,SH,VC"
2026-04-26 16:54:00,METAR KSLC 261654Z 17014KT 10SM FEW025 BKN047 OVC065 10/05 A2959 RMK AO2 RAE52 SLP995 P0000 T01000050 $,0,14,0,16090,0,0,0,
2026-04-26 15:54:00,METAR KSLC 261554Z 16013G20KT 10SM -RA FEW025 BKN040 OVC055 09/04 A2959 RMK AO2 SLP995 P0000 T00940044 $,0,13,1,16090,0,0,0,-RA
2026-04-26 14:54:00,METAR KSLC 261454Z 17012KT 10SM -RA FEW020 BKN048 OVC055 09/04 A2959 RMK AO2 RAB40 SLP994 P0000 60001 T00940044 58003 VISNO NW RNWY $,0,12,0,16090,0,0,0,-RA
2026-04-26 13:54:00,METAR KSLC 261354Z 15011KT 10SM FEW025 BKN048 OVC070 08/06 A2960 RMK AO2 RAE46 SLP996 VCSH P0001 T00830056 VISNO NW RNWY $,0,11,0,16090,0,0,0,"SH,VC"
2026-04-26 12:54:00,METAR KSLC 261254Z 16012KT 10SM -RA FEW023 FEW034 OVC055 08/05 A2960 RMK AO2 PK WND 17026/1234 RAB1155 SLP995 P0000 T00830050 $,0,12,0,16090,0,0,0,"-RA,RA"
2026-04-26 11:54:00,METAR KSLC 261154Z 15012G22KT 10SM FEW045 OVC060 10/06 A2960 RMK AO2 SLP994 60000 T01000056 10133 20094 56014 $,0,12,1,16090,0,0,0,
2026-04-26 10:54:00,METAR KSLC 261054Z 16007KT 10SM SCT046 BKN065 OVC085 10/05 A2962 RMK AO2 SLP999 T01000050 $,0,7,0,16090,0,0,0,
2026-04-26 09:54:00,METAR KSLC 260954Z 12004KT 10SM SCT047 OVC060 10/06 A2963 RMK AO2 RAE47 SLP002 VCSH P0000 T01000056 $,0,4,0,16090,0,0,0,"SH,VC"
2026-04-26 08:54:00,METAR KSLC 260854Z 15015G22KT 10SM -RA BKN050 OVC060 09/06 A2965 RMK AO2 PK WND 16028/0814 RAB36 SLP011 P0000 60000 T00940056 53003 $,0,15,1,16090,0,0,0,-RA
2026-04-26 07:54:00,METAR KSLC 260754Z 16014G20KT 10SM BKN070 OVC090 13/01 A2964 RMK AO2 SLP005 T01330006 $,0,14,1,16090,0,0,0,
2026-04-26 06:54:00,METAR KSLC 260654Z 12005KT 10SM OVC090 12/01 A2964 RMK AO2 SLP008 T01220006 401720017 $,0,5,0,16090,0,0,0,
2026-04-26 05:54:00,METAR KSLC 260554Z 16003KT 10SM OVC110 12/00 A2964 RMK AO2 SLP009 T01220000 10167 20122 58007 $,0,3,0,16090,0,0,0,
2026-04-26 04:54:00,METAR KSLC 260454Z 20003KT 10SM BKN120 BKN170 12/01 A2965 RMK AO2 SLP017 T01220006 $,0,3,0,16090,0,0,0,
2026-04-26 03:54:00,METAR KSLC 260354Z 25004KT 10SM BKN130 BKN180 13/02 A2966 RMK AO2 SLP020 T01280017 $,0,4,0,16090,0,0,0,
2026-04-26 02:54:00,METAR KSLC 260254Z 26006KT 10SM FEW110 SCT180 BKN210 13/01 A2966 RMK AO2 SLP023 T01330011 55011 $,0,6,0,16090,0,0,0,
2026-04-26 01:54:00,METAR KSLC 260154Z 33007KT 10SM SCT110 BKN200 16/M03 A2966 RMK AO2 SLP020 T01561033 $,0,7,0,16090,0,0,0,
2026-04-26 00:54:00,METAR KSLC 260054Z 34005KT 10SM FEW110 BKN180 OVC220 16/M03 A2968 RMK AO2 SLP029 T01611033 $,0,5,0,16090,0,0,0,
2026-04-25 23:54:00,METAR KSLC 252354Z COR VRB/03KT 10SM FEW090 SCT190 BKN220 17/M04 A2970 RMK AO2 SLP036 T01671039 10172 20117 56025 $,0,3,0,16090,0,0,0,
2026-04-25 22:54:00,METAR KSLC 252254Z 35007KT 10SM FEW090 SCT190 BKN230 16/M04 A2972 RMK AO2 SLP045 T01611039 $,0,7,0,16090,0,0,0,
2026-04-25 21:54:00,METAR KSLC 252154Z 33007KT 290V010 10SM FEW100 SCT200 BKN230 16/M04 A2975 RMK AO2 SLP056 VIRGA DSNT S T01611044,0,7,0,16090,0,0,0,DS
2026-04-25 20:54:00,METAR KSLC 252054Z 32010KT 10SM FEW100 SCT200 SCT250 16/M06 A2979 RMK AO2 SLP064 VIRGA T01611056 57023,0,10,0,16090,0,0,0,
2026-04-25 19:54:00,METAR KSLC 251954Z 33005KT 10SM FEW100 SCT190 SCT250 14/M07 A2981 RMK AO2 SLP073 ACSL DSNT SE T01391072,0,5,0,16090,0,0,0,DS
2026-04-25 18:54:00,METAR KSLC 251854Z VRB05KT 10SM FEW090 FEW150 SCT230 13/M07 A2984 RMK AO2 SLP085 ACSL DSNT SE-S T01281067,0,5,0,16090,0,0,0,DS
2026-04-25 17:54:00,METAR KSLC 251754Z VRB06KT 10SM FEW100 SCT220 12/M07 A2986 RMK AO2 SLP095 T01171072 10117 20028 58005,0,6,0,16090,0,0,0,
2026-04-25 16:54:00,METAR KSLC 251654Z 30003KT 10SM FEW110 FEW200 10/M07 A2987 RMK AO2 SLP100 T01001072 $,0,3,0,16090,0,0,0,
2026-04-25 15:54:00,METAR KSLC 251554Z VRB03KT 10SM FEW120 FEW200 09/M07 A2987 RMK AO2 SLP100 T00891072 $,0,3,0,16090,0,0,0,
2026-04-25 14:54:00,METAR KSLC 251454Z VRB03KT 10SM FEW120 FEW200 07/M05 A2988 RMK AO2 SLP102 T00671050 53002 $,0,3,0,16090,0,0,0,
2026-04-25 13:54:00,METAR KSLC 251354Z 13003KT 10SM FEW110 FEW200 05/M05 A2987 RMK AO2 SLP100 T00501050 $,0,3,0,16090,0,0,0,
2026-04-25 12:54:00,METAR KSLC 251254Z 00000KT 10SM FEW110 SCT200 03/M04 A2987 RMK AO2 SLP095 T00331044 $,0,0,0,16090,0,0,0,
2026-04-25 11:54:00,METAR KSLC 251154Z 00000KT 10SM FEW110 03/M04 A2987 RMK AO2 SLP095 T00281044 10061 20017 50001 $,0,0,0,16090,0,0,0,
2026-04-25 10:54:00,METAR KSLC 251054Z 00000KT 10SM CLR 03/M04 A2987 RMK AO2 SLP096 T00281044 $,0,0,0,16090,0,0,0,
2026-04-25 09:54:00,METAR KSLC 250954Z 35005KT 10SM FEW130 03/M06 A2987 RMK AO2 SLP095 T00281056 $,0,5,0,16090,0,0,0,
2026-04-25 08:54:00,METAR KSLC 250854Z 33011KT 10SM FEW130 05/M05 A2987 RMK AO2 SLP091 T00501050 50002 $,0,11,0,16090,0,0,0,
2026-04-25 07:54:00,METAR KSLC 250754Z 33008KT 10SM SCT130 06/M05 A2987 RMK AO2 SLP093 T00561050 $,0,8,0,16090,0,0,0,
2026-04-25 06:54:00,METAR KSLC 250654Z 32008KT 10SM FEW140 06/M06 A2987 RMK AO2 SLP092 T00611056 401720050 $,0,8,0,16090,0,0,0,
2026-04-25 05:54:00,METAR KSLC 250554Z 35008KT 10SM FEW120 06/M06 A2986 RMK AO2 SLP090 T00611061 10172 20061 51017 $,0,8,0,16090,0,0,0,
2026-04-25 04:54:00,METAR KSLC 250454Z 35011KT 10SM CLR 07/M04 A2986 RMK AO2 SLP087 T00671044 $,0,11,0,16090,0,0,0,
2026-04-25 03:54:00,METAR KSLC 250354Z 34010KT 10SM FEW150 08/M04 A2983 RMK AO2 SLP078 T00831044 $,0,10,0,16090,0,0,0,
2026-04-25 02:54:00,METAR KSLC 250254Z 35013KT 10SM FEW110 FEW220 09/M04 A2980 RMK AO2 PK WND 34027/0211 SLP070 T00941039 53019 $,0,13,0,16090,0,0,0,
2026-04-25 01:54:00,METAR KSLC 250154Z 35019G25KT 10SM FEW075 FEW150 SCT230 12/M03 A2977 RMK AO2 PK WND 35026/0139 SLP058 BLDU DSNT W T01221033 $,0,19,1,16090,0,0,0,DS
2026-04-25 00:54:00,METAR KSLC 250054Z 34015G21KT 10SM FEW100 FEW150 SCT210 16/M02 A2975 RMK AO2 SLP051 T01611017 $,0,15,1,16090,0,0,0,
2026-04-24 23:54:00,METAR KSLC 242354Z 32010KT 10SM FEW004 FEW090 SCT140 SCT220 17/M03 A2974 RMK AO2 SLP044 FU FEW004 FU W T01671033 10172 20144 56016 $,0,10,0,16090,0,0,0,
2026-04-24 22:54:00,METAR KSLC 242254Z COR 35009KT 320V020 10SM FEW005 SCT130 SCT220 17/M02 A2974 RMK AO2 FU FEW005 FU W SLP044 T01721017 $,0,9,0,16090,0,0,0,
2026-04-24 21:54:00,METAR KSLC 242154Z 36010G21KT 10SM FEW080 SCT220 17/M01 A2977 RMK AO2 SLP053 T01671011 $,0,10,1,16090,0,0,0,
2026-04-24 20:54:00,METAR KSLC 242054Z 35012G18KT 10SM FEW090 SCT200 17/M01 A2979 RMK AO2 SLP061 T01671011 58018 $,0,12,1,16090,0,0,0,
2026-04-24 19:54:00,METAR KSLC 241954Z 33011G18KT 10SM FEW090 FEW200 16/M01 A2982 RMK AO2 SLP071 T01561011 $,0,11,1,16090,0,0,0,
2026-04-24 18:54:00,METAR KSLC 241854Z 33012G18KT 10SM FEW090 FEW200 16/M02 A2984 RMK AO2 SLP078 T01561017 $,0,12,1,16090,0,0,0,
2026-04-24 17:54:00,METAR KSLC 241754Z 32013G20KT 10SM FEW090 15/M03 A2985 RMK AO2 SLP083 T01501028 10156 20061 53001,0,13,1,16090,0,0,0,
2026-04-24 16:54:00,METAR KSLC 241654Z 32013KT 10SM SCT090 15/M02 A2985 RMK AO2 SLP080 T01501017,0,13,0,16090,0,0,0,
2026-04-24 15:54:00,METAR KSLC 241554Z 15011KT 10SM FEW080 15/M04 A2984 RMK AO2 SLP077 T01501044,0,11,0,16090,0,0,0,
2026-04-24 14:54:00,METAR KSLC 241454Z 13010KT 10SM FEW100 12/M01 A2985 RMK AO2 SLP083 T01171011 58002,0,10,0,16090,0,0,0,
2026-04-24 13:54:00,METAR KSLC 241354Z 14010KT 10SM FEW100 08/M01 A2986 RMK AO2 SLP089 T00831011 VISNO NW RNWY $,0,10,0,16090,0,0,0,
2026-04-24 12:54:00,METAR KSLC 241254Z 13008KT 10SM FEW100 06/M01 A2986 RMK AO2 SLP089 T00611011 $,0,8,0,16090,0,0,0,
2026-04-24 11:54:00,METAR KSLC 241154Z 13008KT 10SM CLR 07/M01 A2986 RMK AO2 SLP088 T00721011 10111 20061 58010 $,0,8,0,16090,0,0,0,
2026-04-24 10:54:00,METAR KSLC 241054Z 14004KT 10SM CLR 07/M02 A2987 RMK AO2 SLP093 T00721017 VISNO NW RNWY $,0,4,0,16090,0,0,0,
2026-04-24 09:54:00,METAR KSLC 240954Z 12006KT 10SM FEW100 08/M03 A2988 RMK AO2 SLP096 T00781028 $,0,6,0,16090,0,0,0,
2026-04-24 08:54:00,METAR KSLC 240854Z 12007KT 10SM FEW100 09/M03 A2989 RMK AO2 SLP098 T00891028 58005 $,0,7,0,16090,0,0,0,
2026-04-24 07:54:00,METAR KSLC 240754Z 11006KT 10SM FEW100 09/M02 A2990 RMK AO2 SLP104 T00891022 $,0,6,0,16090,0,0,0,
2026-04-24 06:54:00,METAR KSLC 240654Z 13006KT 10SM FEW100 09/M03 A2991 RMK AO2 SLP107 T00941028 401500050 $,0,6,0,16090,0,0,0,
2026-04-24 05:54:00,METAR KSLC 240554Z 13007KT 10SM FEW100 SCT160 10/M02 A2991 RMK AO2 SLP110 T01001022 10144 20094 58002 $,0,7,0,16090,0,0,0,
2026-04-24 04:54:00,METAR KSLC 240454Z 13008KT 10SM FEW075 FEW160 11/M02 A2992 RMK AO2 SLP112 T01061017 $,0,8,0,16090,0,0,0,
2026-04-24 03:54:00,METAR KSLC 240354Z 17007KT 10SM FEW080 FEW160 11/M02 A2992 RMK AO2 SLP112 T01111017 $,0,7,0,16090,0,0,0,
2026-04-24 02:54:00,METAR KSLC 240254Z 17006KT 10SM FEW080 12/M02 A2991 RMK AO2 SLP108 T01221022 56015 VISNO NW RNWY $,0,6,0,16090,0,0,0,
2026-04-24 01:54:00,METAR KSLC 240154Z 16010KT 10SM FEW080 13/M03 A2992 RMK AO2 SLP111 T01331028 $,0,10,0,16090,0,0,0,
2026-04-24 00:54:00,METAR KSLC 240054Z 16007KT 130V200 10SM FEW070 14/M03 A2995 RMK AO2 SLP122 T01441028 $,0,7,0,16090,0,0,0,
2026-04-23 23:54:00,METAR KSLC 232354Z 28005KT 10SM FEW070 FEW150 14/M03 A2996 RMK AO2 SLP128 T01441033 10150 20089 56015 $,0,5,0,16090,0,0,0,
2026-04-23 22:54:00,METAR KSLC 232254Z 33008KT 290V010 10SM FEW070 FEW150 14/M03 A2998 RMK AO2 SLP132 T01441028 $,0,8,0,16090,0,0,0,
2026-04-23 21:54:00,METAR KSLC 232154Z 33012G17KT 10SM FEW065 SCT075 14/M03 A3000 RMK AO2 SLP140 T01441028 $,0,12,1,16090,0,0,0,
2026-04-23 20:54:00,METAR KSLC 232054Z 30011G18KT 10SM SCT055 BKN070 14/M03 A3001 RMK AO2 SLP145 T01391028 58010 $,0,11,1,16090,0,0,0,
2026-04-23 19:54:00,METAR KSLC 231954Z 25010G16KT 10SM SCT050 SCT065 12/M02 A3003 RMK AO2 SLP152 T01221022 $,0,10,1,16090,0,0,0,
2026-04-23 18:54:00,METAR KSLC 231854Z 30008KT 10SM SCT050 BKN060 11/M01 A3005 RMK AO2 SLP160 T01061006 $,0,8,0,16090,0,0,0,
2026-04-23 17:54:00,METAR KSLC 231754Z 28011G18KT 10SM BKN041 BKN050 BKN060 09/M01 A3005 RMK AO2 SLP163 SH DSNT NE AND SE 60000 T00891011 10094 20056 51008 $,0,11,1,16090,0,0,0,"DS,SH"
2026-04-23 16:54:00,METAR KSLC 231654Z 26012KT 10SM BKN040 BKN060 08/M01 A3004 RMK AO2 SLP162 SH DSNT NE T00831006 $,0,12,0,16090,0,0,0,"DS,SH"
2026-04-23 15:54:00,METAR KSLC 231554Z 27013G23KT 10SM BKN042 BKN065 08/M01 A3004 RMK AO2 SLP158 SH DSNT NE T00831006 $,0,13,1,16090,0,0,0,"DS,SH"
2026-04-23 14:54:00,METAR KSLC 231454Z 29015G22KT 10SM FEW030 BKN048 BKN060 08/M01 A3002 RMK AO2 PK WND 31027/1402 RAB1358E40 SLP148 VIRGA VCSH P0000 60000 T00831011 53013 $,0,15,1,16090,0,0,0,"RA,SH,VC"
2026-04-23 13:54:00,METAR KSLC 231354Z 31016KT 10SM FEW035 BKN055 BKN070 08/M02 A3000 RMK AO2 SLP141 VIRGA VCSH T00831017 $,0,16,0,16090,0,0,0,"SH,VC"
2026-04-23 12:54:00,METAR KSLC 231254Z 13004KT 10SM FEW050 BKN065 06/02 A2999 RMK AO2 SLP137 VIRGA DSNT N-NE T00610017 $,0,4,0,16090,0,0,0,DS
2026-04-23 11:54:00,METAR KSLC 231154Z 12003KT 10SM BKN070 06/02 A2998 RMK AO2 SLP135 70001 T00560022 10072 20050 53002 $,0,3,0,16090,0,0,0,
2026-04-23 10:54:00,METAR KSLC 231054Z 15004KT 10SM FEW055 SCT080 06/02 A2997 RMK AO2 SLP131 T00560022 $,0,4,0,16090,0,0,0,
2026-04-23 09:54:00,METAR KSLC 230954Z 13006KT 10SM FEW080 SCT100 06/02 A2996 RMK AO2 SLP130 T00560017 $,0,6,0,16090,0,0,0,
2026-04-23 08:54:00,METAR KSLC 230854Z 16004KT 10SM FEW070 BKN080 BKN100 06/02 A2997 RMK AO2 SLP135 T00610022 58006 $,0,4,0,16090,0,0,0,
2026-04-23 07:54:00,METAR KSLC 230754Z 18006KT 10SM FEW060 BKN080 06/02 A2999 RMK AO2 SLP138 T00610022 $,0,6,0,16090,0,0,0,
2026-04-23 06:54:00,METAR KSLC 230654Z 13005KT 10SM FEW065 SCT090 06/02 A2999 RMK AO2 SLP140 T00610022 401890061 $,0,5,0,16090,0,0,0,
2026-04-23 05:54:00,METAR KSLC 230554Z 13006KT 10SM FEW040 BKN075 BKN090 07/02 A2999 RMK AO2 RAE0458 SLP141 P0000 60001 T00670022 10139 20061 50010 $,0,6,0,16090,0,0,0,RA
2026-04-23 04:54:00,METAR KSLC 230454Z 33007KT 10SM -RA SCT038 BKN070 BKN120 07/01 A3000 RMK AO2 PK WND 32026/0414 RAB17 SLP142 CB DSNT SE-S P0001 T00670011 $,0,7,0,16090,0,0,0,"-RA,DS"
2026-04-23 03:54:00,METAR KSLC 230354Z COR 00000KT 10SM SCT085 BKN100 BKN130 08/M03 A2997 RMK AO2 LTG DSNT W RAB00E09 SLP133 CB DSNT SW-N P0000 T00831028 $,0,0,0,16090,0,0,0,"DS,RA"
2026-04-23 02:54:00,METAR KSLC 230254Z 24008G23KT 190V300 10SM FEW070 BKN090 BKN110 11/M04 A2996 RMK AO2 SLP121 CB DSNT W-N T01111044 53005 $,0,8,1,16090,0,0,0,DS
2026-04-23 00:54:00,METAR KSLC 230054Z 35015KT 10SM FEW065 SCT075 BKN180 13/M01 A2994 RMK AO2 SLP112 TCU DSNT E AND W-N SH DSNT SW-NW T01281011 $,0,15,0,16090,0,0,0,"DS,SH"
2026-04-22 23:54:00,METAR KSLC 222354Z 32008KT 10SM FEW110 BKN160 BKN210 13/M02 A2994 RMK AO2 SLP112 SH DSNT SE-S AND W-N 60000 T01281022 10139 20094 56014 $,0,8,0,16090,0,0,0,"DS,SH"
2026-04-22 22:54:00,METAR KSLC 222254Z VRB04KT 10SM FEW050 SCT070 SCT100 BKN180 13/M02 A2994 RMK AO2 SLP114 SH DSNT SE-W T01281017 $,0,4,0,16090,0,0,0,"DS,SH"
2026-04-22 21:54:00,METAR KSLC 222154Z 01009G17KT 10SM FEW049 SCT065 SCT080 BKN170 12/M01 A2996 RMK AO2 SLP119 SH DSNT S-SW AND NW T01221006 $,0,9,1,16090,0,0,0,"DS,SH"
2026-04-22 20:54:00,METAR KSLC 222054Z 02014G19KT 10SM FEW048 FEW065 SCT110 BKN220 11/00 A2999 RMK AO2 PK WND 35028/2015 RAE1959 SLP124 VIRGA SH DSNT SE-SW P0000 60000 T01060000 51006 $,0,14,1,16090,0,0,0,"DS,RA,SH"
2026-04-22 19:54:00,METAR KSLC 221954Z 34014G33KT 10SM -RA FEW039 FEW065 BKN095 BKN220 11/00 A2998 RMK AO2 PK WND 33033/1948 RAB47 SLP120 VIRGA CB DSNT E-SE P0000 T01110000,0,14,1,16090,0,0,0,"-RA,DS"
2026-04-22 18:54:00,METAR KSLC 221854Z 32020G27KT 10SM FEW027 SCT035 BKN065TCU BKN220 12/02 A2997 RMK AO2 PK WND 31027/1854 RAE09B36E54 SLP117 VIRGA CB DSNT SE TCU SW AND NW-NE P0000 T01170022,0,20,1,16090,0,0,0,"DS,RA"
2026-04-22 17:54:00,METAR KSLC 221754Z 30021G31KT 10SM -RA FEW035 SCT060TCU BKN100 BKN220 11/01 A2997 RMK AO2 PK WND 28033/1718 LTG DSNT E RAB46 SLP113 VIRGA CB DSNT NE-SE TCU S-SW P0000 60000 T01110006 10128 20100 53020,0,21,1,16090,0,0,0,"-RA,DS"
2026-04-22 16:54:00,METAR KSLC 221654Z 28022G36KT 10SM FEW045 FEW060 SCT090 BKN200 12/00 A2993 RMK AO2 PK WND 29036/1647 SLP100 VIRGA SH DSNT SW T01220000,0,22,1,16090,0,0,0,"DS,SH"
2026-04-22 15:54:00,METAR KSLC 221554Z 28022G31KT 10SM FEW035 SCT090 BKN110 11/01 A2992 RMK AO2 PK WND 29031/1546 SLP097 VIRGA BLDU DSNT SW AND NW T01060006,0,22,1,16090,0,0,0,DS
2026-04-22 14:54:00,METAR KSLC 221454Z 27019G29KT 10SM FEW070 SCT090 BKN130 12/M03 A2990 RMK AO2 PK WND 26029/1449 SLP088 VIRGA 60000 T01171028 53021,0,19,1,16090,0,0,0,
2026-04-22 13:54:00,METAR KSLC 221354Z 28015G23KT 10SM FEW050 SCT070 BKN090 12/M02 A2988 RMK AO2 SLP075 VIRGA T01171022,0,15,1,16090,0,0,0,
2026-04-22 12:54:00,METAR KSLC 221254Z 19015G27KT 10SM FEW041 BKN085 BKN110 12/M03 A2985 RMK AO2 PK WND 22048/1223 SLP062 VCSH P0000 T01221028,0,15,1,16090,0,0,0,"SH,VC"
2026-04-22 11:54:00,METAR KSLC 221154Z 26010KT 10SM OVC100 13/M02 A2983 RMK AO2 SLP054 T01281022 10211 20117 51030,0,10,0,16090,0,0,0,
2026-04-22 10:54:00,METAR KSLC 221054Z 35010KT 10SM BKN110 OVC130 12/00 A2980 RMK AO2 SLP047 T01220000,0,10,0,16090,0,0,0,
2026-04-22 09:54:00,METAR KSLC 220954Z 27013G21KT 10SM SCT110 13/01 A2978 RMK AO2 PK WND 20028/0905 WSHFT 0920 SLP038 T01280006,0,13,1,16090,0,0,0,
2026-04-22 09:40:00,SPECI KSLC 220940Z 31015G28KT 10SM FEW100 13/01 A2976 RMK AO2 PK WND 20028/0905 WSHFT 0920 T01280006,0,15,1,16090,0,0,0,
2026-04-22 08:54:00,METAR KSLC 220854Z 18012G22KT 10SM FEW100 18/M09 A2973 RMK AO2 PK WND 16029/0813 SLP013 T01781089 51009,0,12,1,16090,0,0,0,
2026-04-22 07:54:00,METAR KSLC 220754Z 16016G24KT 10SM CLR 18/M09 A2972 RMK AO2 PK WND 15027/0730 SLP015 T01831089,0,16,1,16090,0,0,0,
2026-04-22 06:54:00,METAR KSLC 220654Z 15014G22KT 10SM FEW130 19/M08 A2971 RMK AO2 PK WND 16027/0602 SLP007 T01941078 402720128,0,14,1,16090,0,0,0,
2026-04-22 05:54:00,METAR KSLC 220554Z 16019G28KT 10SM FEW130 21/M08 A2970 RMK AO2 PK WND 17031/0516 SLP003 T02111083 10272 20206 51004,0,19,1,16090,0,0,0,
2026-04-22 04:54:00,METAR KSLC 220454Z 16015G23KT 10SM CLR 21/M08 A2969 RMK AO2 SLP000 T02111083,0,15,1,16090,0,0,0,
2026-04-22 03:54:00,METAR KSLC 220354Z 14011KT 10SM FEW120 FEW250 22/M08 A2970 RMK AO2 SLP003 T02171078,0,11,0,16090,0,0,0,
2026-04-22 02:54:00,METAR KSLC 220254Z 13009KT 10SM FEW120 BKN240 22/M08 A2968 RMK AO2 SLP004 T02171078 55012,0,9,0,16090,0,0,0,
2026-04-22 01:54:00,METAR KSLC 220154Z 19010G21KT 10SM FEW120 FEW180 BKN220 24/M09 A2968 RMK AO2 SLP002 T02441089,0,10,1,16090,0,0,0,
2026-04-22 00:54:00,METAR KSLC 220054Z 18014G24KT 10SM FEW120 FEW180 SCT220 26/M08 A2970 RMK AO2 PK WND 21030/0003 SLP009 T02611083,0,14,1,16090,0,0,0,
2026-04-21 23:54:00,METAR KSLC 212354Z 19020G32KT 10SM FEW120 SCT180 BKN250 27/M08 A2972 RMK AO2 PK WND 21035/2342 SLP015 ACSL DSNT N AND S T02721078 10272 20239 58027,0,20,1,16090,0,0,0,DS
2026-04-21 22:54:00,METAR KSLC 212254Z 20016G25KT 10SM FEW110 SCT210 BKN250 26/M06 A2975 RMK AO2 SLP027 ACSL DSNT SE AND SW-W T02611056,0,16,1,16090,0,0,0,DS
2026-04-21 21:54:00,METAR KSLC 212154Z 17016G22KT 10SM FEW100 BKN190 BKN250 27/M03 A2979 RMK AO2 PK WND 17026/2115 SLP039 ACSL DSNT SW AND W T02671033,0,16,1,16090,0,0,0,DS
2026-04-21 20:54:00,METAR KSLC 212054Z 16015G23KT 10SM FEW100 FEW150 BKN250 27/M02 A2981 RMK AO2 PK WND 13028/2037 SLP046 VIRGA ACSL DSNT NE-SE T02721022 58034,0,15,1,16090,0,0,0,DS
2026-04-21 19:54:00,METAR KSLC 211954Z 17013G20KT 10SM FEW100 FEW150 BKN250 25/M02 A2985 RMK AO2 SLP061 ACSL DSNT SE T02501017,0,13,1,16090,0,0,0,DS
2026-04-21 19:02:00,SPECI KSLC 211902Z 17016G24KT 10SM FEW007 FEW095 FEW140 BKN230 24/M02 A2989 RMK AO2 FU FEW007 FU NW ACSL DSNT SE T02441017,0,16,1,16090,0,0,0,DS
2026-04-21 18:54:00,METAR KSLC 211854Z 18018G26KT 10SM FEW095 FEW140 BKN230 24/M02 A2989 RMK AO2 PK WND 18028/1843 SLP076 ACSL DSNT SE T02441022,0,18,1,16090,0,0,0,DS
2026-04-21 18:19:00,SPECI KSLC 211819Z 17016G24KT 10SM FEW004 FEW095 FEW150 BKN230 24/M02 A2991 RMK AO2 FU FEW004 FU NW T02391017,0,16,1,16090,0,0,0,
2026-04-21 17:54:00,METAR KSLC 211754Z 17015KT 10SM FEW090 FEW150 BKN230 23/M02 A2992 RMK AO2 SLP088 ACSL DSNT NE T02331022 10239 20139 56014,0,15,0,16090,0,0,0,DS
2026-04-21 16:54:00,METAR KSLC 211654Z 19015KT 10SM FEW150 BKN230 23/M03 A2994 RMK AO2 SLP092 ACSL DSNT NE AND SE T02281028,0,15,0,16090,0,0,0,DS
2026-04-21 15:54:00,METAR KSLC 211554Z 16011KT 10SM SCT160 BKN250 22/M01 A2995 RMK AO2 SLP096 ACSL DSNT NE-SE T02221006,0,11,0,16090,0,0,0,DS
2026-04-21 14:54:00,METAR KSLC 211454Z 13008KT 10SM FEW160 BKN250 18/01 A2997 RMK AO2 SLP103 T01780006 51006,0,8,0,16090,0,0,0,
2026-04-21 13:54:00,METAR KSLC 211354Z 13009KT 10SM SCT180 BKN250 16/00 A2997 RMK AO2 SLP103 T01560000,0,9,0,16090,0,0,0,
2026-04-21 12:54:00,METAR KSLC 211254Z 13010KT 10SM BKN260 14/M01 A2996 RMK AO2 SLP098 T01391006,0,10,0,16090,0,0,0,
2026-04-21 11:54:00,METAR KSLC 211154Z 13008KT 10SM FEW260 14/M01 A2995 RMK AO2 SLP096 T01441006 10172 20128 52005,0,8,0,16090,0,0,0,
2026-04-21 10:54:00,METAR KSLC 211054Z 12008KT 10SM CLR 14/M01 A2995 RMK AO2 SLP095 T01391006,0,8,0,16090,0,0,0,
2026-04-21 09:54:00,METAR KSLC 210954Z 13006KT 10SM CLR 14/M01 A2994 RMK AO2 SLP093 T01391006,0,6,0,16090,0,0,0,
2026-04-21 08:54:00,METAR KSLC 210854Z 15006KT 10SM FEW120 FEW250 15/M01 A2994 RMK AO2 SLP091 T01501006 50007,0,6,0,16090,0,0,0,
2026-04-21 07:54:00,METAR KSLC 210754Z 12006KT 10SM CLR 16/M01 A2994 RMK AO2 SLP090 T01611011,0,6,0,16090,0,0,0,
2026-04-21 06:54:00,METAR KSLC 210654Z 15006KT 10SM FEW130 16/M01 A2993 RMK AO2 SLP089 T01561006 402780117,0,6,0,16090,0,0,0,
2026-04-21 05:54:00,METAR KSLC 210554Z 15006KT 10SM FEW130 17/M01 A2991 RMK AO2 SLP083 T01671011 10267 20167 51011,0,6,0,16090,0,0,0,
2026-04-21 04:54:00,METAR KSLC 210454Z 13006KT 10SM SCT130 BKN250 18/M01 A2991 RMK AO2 SLP081 T01781011,0,6,0,16090,0,0,0,
2026-04-21 03:54:00,METAR KSLC 210354Z 12007KT 10SM SCT250 18/M01 A2989 RMK AO2 SLP081 T01831006,0,7,0,16090,0,0,0,
2026-04-21 02:54:00,METAR KSLC 210254Z 00000KT 10SM FEW130 FEW250 23/M01 A2988 RMK AO2 SLP071 T02281011 55007,0,0,0,16090,0,0,0,
2026-04-21 01:54:00,METAR KSLC 210154Z 16003KT 10SM FEW140 FEW200 SCT250 24/M03 A2987 RMK AO2 SLP071 VIRGA T02441033,0,3,0,16090,0,0,0,
2026-04-21 00:54:00,METAR KSLC 210054Z 19011G17KT 10SM SCT120 SCT180 BKN250 27/M03 A2988 RMK AO2 SLP076 VIRGA ACSL DSNT W T02671033,0,11,1,16090,0,0,0,DS
2026-04-20 23:54:00,METAR KSLC 202354Z 23005KT 10SM SCT120 BKN250 26/M03 A2990 RMK AO2 SLP083 T02611033 10278 20244 56019,0,5,0,16090,0,0,0,
2026-04-20 22:54:00,METAR KSLC 202254Z COR 33006KT 10SM SCT120 SCT250 27/M03 A2992 RMK AO2 SLP086 T02671033,0,6,0,16090,0,0,0,
2026-04-20 21:54:00,METAR KSLC 202154Z 28007KT 10SM SCT120 BKN230 26/M03 A2994 RMK AO2 SLP092 T02611033,0,7,0,16090,0,0,0,
2026-04-20 20:54:00,METAR KSLC 202054Z VRB04G16KT 10SM FEW120 BKN230 26/M04 A2996 RMK AO2 SLP103 T02561039 56016,0,4,1,16090,0,0,0,
2026-04-20 19:54:00,METAR KSLC 201954Z 20012G18KT 10SM SCT110 BKN230 26/M03 A2998 RMK AO2 PK WND 15027/1926 SLP105 T02561028,0,12,1,16090,0,0,0,
2026-04-20 18:54:00,METAR KSLC 201854Z 17016G22KT 10SM FEW090 FEW120 BKN230 26/M03 A3000 RMK AO2 SLP116 T02561028,0,16,1,16090,0,0,0,
2026-04-20 17:54:00,METAR KSLC 201754Z 16016G24KT 10SM FEW085 FEW120 SCT230 24/M03 A3002 RMK AO2 SLP124 ACSL DSNT SE T02441033 10244 20117 58005,0,16,1,16090,0,0,0,DS
2026-04-20 16:54:00,METAR KSLC 201654Z 16010KT 10SM FEW085 FEW120 FEW220 23/M03 A3003 RMK AO2 SLP128 ACSL DSNT SE T02331033,0,10,0,16090,0,0,0,DS
2026-04-20 15:54:00,METAR KSLC 201554Z 14006KT 10SM SCT110 SCT200 18/M03 A3003 RMK AO2 SLP132 T01831033,0,6,0,16090,0,0,0,
2026-04-20 14:54:00,METAR KSLC 201454Z 12009KT 10SM FEW110 FEW200 17/M05 A3003 RMK AO2 SLP134 T01671050 51008,0,9,0,16090,0,0,0,
2026-04-20 13:54:00,METAR KSLC 201354Z 12008KT 10SM SCT120 SCT190 14/M05 A3003 RMK AO2 SLP134 T01441050,0,8,0,16090,0,0,0,
2026-04-20 12:54:00,METAR KSLC 201254Z 12007KT 10SM SCT120 SCT180 12/M06 A3002 RMK AO2 SLP131 T01221061,0,7,0,16090,0,0,0,
2026-04-20 11:54:00,METAR KSLC 201154Z 12007KT 10SM FEW120 SCT190 12/M06 A3001 RMK AO2 SLP127 T01171061 10150 20117 50000,0,7,0,16090,0,0,0,
2026-04-20 10:54:00,METAR KSLC 201054Z 13013KT 10SM FEW120 FEW190 13/M06 A3001 RMK AO2 SLP120 T01331056,0,13,0,16090,0,0,0,
2026-04-20 09:54:00,METAR KSLC 200954Z 13010KT 10SM SCT200 BKN250 13/M06 A3001 RMK AO2 SLP123 T01331056,0,10,0,16090,0,0,0,
2026-04-20 08:54:00,METAR KSLC 200854Z 14009KT 10SM FEW180 SCT210 BKN250 13/M05 A3001 RMK AO2 SLP123 T01331050 51004,0,9,0,16090,0,0,0,
2026-04-20 07:54:00,METAR KSLC 200754Z 14012KT 10SM FEW220 BKN250 14/M05 A3001 RMK AO2 SLP122 T01441050,0,12,0,16090,0,0,0,
2026-04-20 06:54:00,METAR KSLC 200654Z 12008KT 10SM SCT220 BKN250 12/M02 A3000 RMK AO2 SLP126 T01221022 402390028,0,8,0,16090,0,0,0,
2026-04-20 05:54:00,METAR KSLC 200554Z 14007KT 10SM BKN230 12/M02 A2999 RMK AO2 SLP123 T01221022 10200 20122 52005,0,7,0,16090,0,0,0,
2026-04-20 04:54:00,METAR KSLC 200454Z 15004KT 10SM SCT230 BKN250 13/M01 A2998 RMK AO2 SLP123 T01281011,0,4,0,16090,0,0,0,
2026-04-20 03:54:00,METAR KSLC 200354Z 00000KT 10SM BKN220 BKN250 16/M04 A2999 RMK AO2 SLP122 T01611039,0,0,0,16090,0,0,0,
2026-04-20 02:54:00,METAR KSLC 200254Z 00000KT 10SM SCT220 BKN250 17/M05 A2998 RMK AO2 SLP121 T01671050 53000,0,0,0,16090,0,0,0,
2026-04-20 01:54:00,METAR KSLC 200154Z 28005KT 10SM BKN220 BKN250 17/M04 A2997 RMK AO2 SLP124 T01721039,0,5,0,16090,0,0,0,
2026-04-20 00:54:00,METAR KSLC 200054Z 27007KT 10SM FEW150 SCT210 BKN250 18/M03 A2997 RMK AO2 SLP129 T01831028,0,7,0,16090,0,0,0,
2026-04-19 23:54:00,METAR KSLC 192354Z 28009KT 10SM FEW170 SCT220 BKN250 20/01 A2997 RMK AO2 SLP125 T02000011 10239 20183 56017,0,9,0,16090,0,0,0,
2026-04-19 22:54:00,METAR KSLC 192254Z 34006KT 10SM FEW170 FEW220 BKN250 23/M07 A2998 RMK AO2 SLP125 ACSL DSNT S T02281072,0,6,0,16090,0,0,0,DS
2026-04-19 21:54:00,METAR KSLC 192154Z 33007KT 10SM FEW170 BKN250 23/M07 A3000 RMK AO2 SLP131 ACSL DSNT S AND SW T02331072,0,7,0,16090,0,0,0,DS
2026-04-19 20:54:00,METAR KSLC 192054Z 33006KT 10SM SCT250 22/M09 A3003 RMK AO2 SLP140 T02221094 57021,0,6,0,16090,0,0,0,
2026-04-19 19:54:00,METAR KSLC 191954Z VRB03KT 10SM SCT250 21/M07 A3005 RMK AO2 SLP148 T02061072,0,3,0,16090,0,0,0,
2026-04-19 18:54:00,METAR KSLC 191854Z VRB03KT 10SM FEW250 19/M06 A3008 RMK AO2 SLP159 T01941056,0,3,0,16090,0,0,0,
2026-04-19 17:54:00,METAR KSLC 191754Z 15006KT 10SM FEW250 18/M07 A3010 RMK AO2 SLP167 T01831067 10183 20033 58007,0,6,0,16090,0,0,0,
2026-04-19 16:54:00,METAR KSLC 191654Z 13006KT 10SM SCT250 16/M07 A3011 RMK AO2 SLP173 T01561072,0,6,0,16090,0,0,0,
2026-04-19 15:54:00,METAR KSLC 191554Z 14008KT 10SM FEW250 14/M07 A3012 RMK AO2 SLP176 T01391072,0,8,0,16090,0,0,0,
2026-04-19 14:54:00,METAR KSLC 191454Z 14008KT 10SM FEW250 11/M06 A3013 RMK AO2 SLP181 T01061056 53006,0,8,0,16090,0,0,0,
2026-04-19 13:54:00,METAR KSLC 191354Z 14007KT 10SM FEW250 08/M04 A3012 RMK AO2 SLP179 T00781039,0,7,0,16090,0,0,0,
2026-04-19 12:54:00,METAR KSLC 191254Z 12005KT 10SM FEW260 04/M06 A3011 RMK AO2 SLP182 T00391061,0,5,0,16090,0,0,0,
2026-04-19 11:54:00,METAR KSLC 191154Z 12006KT 10SM CLR 04/M05 A3011 RMK AO2 SLP179 T00441050 10089 20028 56004,0,6,0,16090,0,0,0,
2026-04-19 10:54:00,METAR KSLC 191054Z 14004KT 10SM CLR 03/M03 A3011 RMK AO2 SLP181 T00331033,0,4,0,16090,0,0,0,
2026-04-19 09:54:00,METAR KSLC 190954Z 13005KT 10SM CLR 04/M03 A3011 RMK AO2 SLP182 T00441028,0,5,0,16090,0,0,0,
2026-04-19 08:54:00,METAR KSLC 190854Z 00000KT 10SM CLR 05/M03 A3012 RMK AO2 SLP183 T00501028 50001,0,0,0,16090,0,0,0,
2026-04-19 07:54:00,METAR KSLC 190754Z 12004KT 10SM CLR 07/M03 A3013 RMK AO2 SLP187 T00671033,0,4,0,16090,0,0,0,
2026-04-19 06:54:00,METAR KSLC 190654Z 00000KT 10SM FEW150 07/M03 A3013 RMK AO2 SLP187 T00671033 401500000,0,0,0,16090,0,0,0,
2026-04-19 05:54:00,METAR KSLC 190554Z 11003KT 10SM FEW150 08/M04 A3011 RMK AO2 SLP182 T00781044 10150 20078 58004,0,3,0,16090,0,0,0,
2026-04-19 04:54:00,METAR KSLC 190454Z 00000KT 10SM FEW150 FEW240 09/M01 A3013 RMK AO2 SLP187 T00941011,0,0,0,16090,0,0,0,
2026-04-19 03:54:00,METAR KSLC 190354Z 00000KT 10SM SCT150 SCT240 11/M02 A3014 RMK AO2 SLP191 T01061022,0,0,0,16090,0,0,0,
2026-04-19 02:54:00,METAR KSLC 190254Z 33006KT 10SM FEW160 SCT240 12/M04 A3013 RMK AO2 SLP189 T01171039 55008,0,6,0,16090,0,0,0,
2026-04-19 01:54:00,METAR KSLC 190154Z 31007KT 10SM SCT160 BKN240 13/M07 A3013 RMK AO2 SLP189 T01331072,0,7,0,16090,0,0,0,
2026-04-19 00:54:00,METAR KSLC 190054Z 34009KT 10SM FEW140 SCT170 BKN260 14/M06 A3014 RMK AO2 SLP196 T01391061,0,9,0,16090,0,0,0,
2026-04-18 23:54:00,METAR KSLC 182354Z 35007KT 10SM FEW003 FEW140 SCT170 BKN260 14/M07 A3016 RMK AO2 SLP201 FU FEW003 FU W T01441072 10150 20100 56024,0,7,0,16090,0,0,0,
2026-04-18 22:54:00,METAR KSLC 182254Z VRB04KT 10SM SCT140 SCT170 BKN250 14/M09 A3017 RMK AO2 SLP207 T01441094,0,4,0,16090,0,0,0,
2026-04-18 21:54:00,METAR KSLC 182154Z 16005KT 10SM FEW140 SCT180 BKN250 14/M11 A3021 RMK AO2 SLP219 T01441111,0,5,0,16090,0,0,0,
2026-04-18 20:54:00,METAR KSLC 182054Z 36005KT 10SM FEW150 SCT210 BKN250 14/M10 A3024 RMK AO2 SLP229 T01391100 58017,0,5,0,16090,0,0,0,
2026-04-18 19:54:00,METAR KSLC 181954Z 14006KT 10SM SCT170 BKN200 BKN250 12/M11 A3026 RMK AO2 SLP237 T01221106,0,6,0,16090,0,0,0,
2026-04-18 18:54:00,METAR KSLC 181854Z 00000KT 10SM SCT190 BKN230 11/M11 A3028 RMK AO2 SLP244 T01111111,0,0,0,16090,0,0,0,
2026-04-18 17:54:00,METAR KSLC 181754Z 20005KT 10SM FEW180 SCT210 BKN250 11/M11 A3029 RMK AO2 SLP252 T01061106 10111 20000 58001,0,5,0,16090,0,0,0,
2026-04-18 16:54:00,METAR KSLC 181654Z 16006KT 10SM SCT190 BKN250 09/M11 A3030 RMK AO2 SLP253 T00941106,0,6,0,16090,0,0,0,
2026-04-18 15:54:00,METAR KSLC 181554Z 15006KT 10SM SCT200 BKN260 07/M09 A3030 RMK AO2 SLP258 T00721089,0,6,0,16090,0,0,0,
2026-04-18 14:54:00,METAR KSLC 181454Z 17008KT 10SM FEW200 BKN250 06/M08 A3030 RMK AO2 SLP255 T00561078 53013,0,8,0,16090,0,0,0,
2026-04-18 13:54:00,METAR KSLC 181354Z 15010KT 10SM FEW200 SCT250 03/M07 A3029 RMK AO2 SLP254 T00281067,0,10,0,16090,0,0,0,
2026-04-18 12:54:00,METAR KSLC 181254Z 15009KT 10SM SCT200 01/M09 A3026 RMK AO2 SLP248 T00111089,0,9,0,16090,0,0,0,
2026-04-18 11:54:00,METAR KSLC 181154Z 16007KT 10SM CLR 01/M09 A3025 RMK AO2 SLP243 T00111089 10028 20006 50001,0,7,0,16090,0,0,0,
2026-04-18 10:54:00,METAR KSLC 181054Z 15006KT 10SM CLR 01/M08 A3026 RMK AO2 SLP246 T00061083,0,6,0,16090,0,0,0,
2026-04-18 09:54:00,METAR KSLC 180954Z 14007KT 10SM CLR 01/M08 A3026 RMK AO2 SLP247 T00061083,0,7,0,16090,0,0,0,
2026-04-18 08:54:00,METAR KSLC 180854Z 16006KT 10SM CLR 01/M11 A3025 RMK AO2 SLP246 T00111106 51005,0,6,0,16090,0,0,0,
2026-04-18 07:54:00,METAR KSLC 180754Z 14005KT 10SM CLR 02/M11 A3025 RMK AO2 SLP245 T00171111,0,5,0,16090,0,0,0,
2026-04-18 06:54:00,METAR KSLC 180654Z 13007KT 10SM CLR 03/M11 A3025 RMK AO2 SLP243 T00281106 400831011,0,7,0,16090,0,0,0,
2026-04-18 05:54:00,METAR KSLC 180554Z 16006KT 10SM CLR 02/M10 A3024 RMK AO2 SLP240 T00221100 10083 20022 51011,0,6,0,16090,0,0,0,
2026-04-18 04:54:00,METAR KSLC 180454Z 14005KT 10SM CLR 03/M11 A3023 RMK AO2 SLP241 T00331106,0,5,0,16090,0,0,0,
2026-04-18 03:54:00,METAR KSLC 180354Z 11007KT 10SM CLR 04/M10 A3022 RMK AO2 SLP235 T00391100,0,7,0,16090,0,0,0,
2026-04-18 02:54:00,METAR KSLC 180254Z 04003KT 10SM CLR 06/M13 A3020 RMK AO2 SLP227 T00611133 55002,0,3,0,16090,0,0,0,
2026-04-18 01:54:00,METAR KSLC 180154Z 04006KT 10SM FEW070 07/M12 A3020 RMK AO2 SLP228 T00671122,0,6,0,16090,0,0,0,
2026-04-18 00:54:00,METAR KSLC 180054Z 35007KT 10SM FEW070 08/M13 A3020 RMK AO2 SLP228 T00781128,0,7,0,16090,0,0,0,
2026-04-17 23:54:00,METAR KSLC 172354Z 33010KT 10SM FEW065 08/M12 A3021 RMK AO2 SLP230 T00831122 10083 20033 56015,0,10,0,16090,0,0,0,
2026-04-17 22:54:00,METAR KSLC 172254Z 33009G19KT 10SM FEW065 08/M12 A3021 RMK AO2 SLP232 T00781117,0,9,1,16090,0,0,0,
2026-04-17 21:54:00,METAR KSLC 172154Z 34005G14KT 10SM FEW065 07/M12 A3024 RMK AO2 SLP240 T00721117,0,5,1,16090,0,0,0,
2026-04-17 20:54:00,METAR KSLC 172054Z 01006G15KT 10SM SCT060 07/M12 A3026 RMK AO2 SLP247 VIRGA T00671122 55003,0,6,1,16090,0,0,0,
2026-04-17 19:54:00,METAR KSLC 171954Z 00000KT 10SM FEW050 BKN065 06/M08 A3025 RMK AO2 SLP248 VIRGA SH DSNT NE T00561083,0,0,0,16090,0,0,0,"DS,SH"
2026-04-17 18:54:00,METAR KSLC 171854Z 31006KT 10SM BKN055 BKN070 04/M08 A3027 RMK AO2 SLP254 SH DSNT NE AND S-SW T00441083,0,6,0,16090,0,0,0,"DS,SH"
2026-04-17 17:54:00,METAR KSLC 171754Z VRB05KT 10SM SCT046 BKN060 05/M07 A3027 RMK AO2 SLP253 SH DSNT SW T00501072 10050 21011 51009,0,5,0,16090,0,0,0,"DS,SH"
2026-04-17 16:54:00,METAR KSLC 171654Z 31006KT 10SM SCT044 SCT065 03/M08 A3026 RMK AO2 SLP245 SH DSNT SW T00281078,0,6,0,16090,0,0,0,"DS,SH"
2026-04-17 15:54:00,METAR KSLC 171554Z COR 36006KT 10SM FEW045 FEW060 02/M08 A3025 RMK AO2 SLP248 SH DSNT S-SW T00221078,0,6,0,16090,0,0,0,"DS,SH"
2026-04-17 14:54:00,METAR KSLC 171454Z COR 35006KT 10SM FEW045 FEW065 02/M07 A3024 RMK AO2 SLP238 SH DSNT SW T00171067 53019,0,6,0,16090,0,0,0,"DS,SH"
2026-04-17 13:54:00,METAR KSLC 171354Z 12003KT 10SM FEW030 FEW050 FEW065 00/M05 A3022 RMK AO2 SLP240 TCU DSNT NW SCSL DSNT SE T00001050 $,0,3,0,16090,0,0,0,DS
2026-04-17 12:54:00,METAR KSLC 171254Z 33004KT 10SM FEW045 FEW075 SCT090 M01/M07 A3019 RMK AO2 SLP233 T10061067 $,0,4,0,16090,0,0,0,
2026-04-17 11:54:00,METAR KSLC 171154Z 14005KT 10SM SCT075 BKN090 M01/M04 A3017 RMK AO2 SLP227 70009 T10111044 10017 21011 53016 $,0,5,0,16090,0,0,0,
2026-04-17 10:54:00,METAR KSLC 171054Z 07005KT 10SM FEW043 SCT075 BKN090 M01/M05 A3015 RMK AO2 SLP220 T10061050 $,0,5,0,16090,0,0,0,
2026-04-17 09:54:00,METAR KSLC 170954Z 31005KT 10SM FEW065 SCT080 00/M07 A3013 RMK AO2 SLP216 T00001072 $,0,5,0,16090,0,0,0,
2026-04-17 08:54:00,METAR KSLC 170854Z 33004KT 10SM SCT065 OVC080 01/M07 A3012 RMK AO2 SLP210 T00061067 53006 $,0,4,0,16090,0,0,0,
2026-04-17 07:54:00,METAR KSLC 170754Z 34006KT 10SM OVC048 01/M07 A3012 RMK AO2 SLP210 T00111072 $,0,6,0,16090,0,0,0,
2026-04-17 06:54:00,METAR KSLC 170654Z 35006KT 10SM BKN060 OVC085 01/M07 A3010 RMK AO2 SLP198 T00061067 401671006 $,0,6,0,16090,0,0,0,
2026-04-17 05:54:00,METAR KSLC 170554Z 01010KT 10SM FEW035 BKN060 BKN090 02/M08 A3010 RMK AO2 SNE0456 SLP189 P0000 60000 T00171078 10033 20017 51009 $,0,10,0,16090,0,0,0,SN
2026-04-17 04:54:00,METAR KSLC 170454Z 35003KT 8SM -SN BKN036 BKN055 OVC070 02/M06 A3009 RMK AO2 PK WND 36026/0434 WSHFT 0430 SNB36 SLP185 P0000 T00171061 $,0,3,0,12872,0,0,0,SN
2026-04-17 04:50:00,SPECI KSLC 170450Z VRB03KT 8SM -SN BKN036 BKN055 OVC070 02/M06 A3009 RMK AO2 PK WND 36026/0434 WSHFT 0430 SNB36 P0000 $,0,3,0,12872,0,0,0,SN
2026-04-17 03:54:00,METAR KSLC 170354Z 22006KT 10SM FEW045 BKN065 OVC085 03/M06 A3007 RMK AO2 SNE0256 SLP178 P0000 T00281056 $,0,6,0,16090,0,0,0,SN
2026-04-17 02:54:00,METAR KSLC 170254Z VRB03KT 9SM -SN FEW030 BKN049 BKN075 03/M05 A3005 RMK AO2 SNB46 SLP172 P0000 60000 T00281050 53013 $,0,3,0,14481,0,0,0,SN
2026-04-17 01:54:00,METAR KSLC 170154Z 24005KT 10SM FEW060 SCT070 BKN085 BKN160 03/M04 A3004 RMK AO2 SLP160 VCSH T00331044 $,0,5,0,16090,0,0,0,"SH,VC"
2026-04-17 00:54:00,METAR KSLC 170054Z VRB03KT 10SM FEW070 SCT140 BKN180 03/M02 A3001 RMK AO2 SLP152 T00281017 $,0,3,0,16090,0,0,0,
2026-04-16 23:54:00,METAR KSLC 162354Z VRB03KT 10SM FEW025 SCT110 BKN150 BKN220 03/M01 A3001 RMK AO2 SNE02 SLP148 SH DSNT E-S P0000 60009 T00281011 10078 21006 50008 $,0,3,0,16090,0,0,0,"DS,SH"
2026-04-16 23:06:00,SPECI KSLC 162306Z 06004KT 7SM SCT034 BKN041 BKN075 BKN210 01/M01 A3001 RMK AO2 SNE02 ACSL DSNT W-N SH DSNT NE-SW P0000 T00111011 $,0,4,0,11263,0,0,0,"DS,SH"
2026-04-16 23:02:00,SPECI KSLC 162302Z 08004KT 3SM SCT029 BKN040 BKN080 01/M01 A3001 RMK AO2 SFC VIS 7 SNE02 P0000 T00111006,0,4,0,4827,0,0,0,FC
2026-04-16 22:54:00,METAR KSLC 162254Z COR 04004KT 3SM -SN BR BKN028 BKN035 BKN075 01/M01 A3002 RMK AO2 SFC VIS 4 SLP151 P0001 T00111006,0,4,0,4827,0,0,1,"BR,FC,SN"
2026-04-16 22:24:00,SPECI KSLC 162224Z 36008KT 2SM -SN BR SCT006 BKN022 OVC036 01/00 A3000 RMK AO2 P0001 T00060000,0,8,0,3218,0,0,1,"BR,SN"
2026-04-16 22:17:00,SPECI KSLC 162217Z 36008KT 1SM -SN BR FEW005 BKN016 OVC035 01/00 A3001 RMK AO2 P0001 T00060000 RVRNO,0,8,0,1609,0,0,1,"BR,SN"
2026-04-16 22:11:00,SPECI KSLC 162211Z 36008KT 1SM -SN BR FEW005 BKN014 OVC035 00/00 A3001 RMK AO2 P0001 T00000000 RVRNO,0,8,0,1609,0,0,1,"BR,SN"
2026-04-16 22:01:00,SPECI KSLC 162201Z 01009KT 1/2SM -SN BR FEW005 OVC011 00/00 A3000 RMK AO2 SFC VIS 3/4 P0001 T00000000 RVRNO,0,9,0,804,0,0,1,"BR,FC,SN"
2026-04-16 21:54:00,METAR KSLC 162154Z 01008KT 1/2SM SN VV011 00/M01 A3001 RMK AO2 SLP148 P0002 T00001006 RVRNO,0,8,0,804,0,0,0,SN
2026-04-16 21:43:00,SPECI KSLC 162143Z 03013KT 1/2SM SN VV011 00/M01 A3000 RMK AO2 P0001 T00001006 RVRNO,0,13,0,804,0,0,0,SN
2026-04-16 21:39:00,SPECI KSLC 162139Z 01013KT 1SM SN BKN014 OVC026 01/M01 A3000 RMK AO2 P0001 T00061006 RVRNO,0,13,0,1609,0,0,0,SN
2026-04-16 21:23:00,SPECI KSLC 162123Z 01010KT 1SM -SN FEW024 BKN029 OVC039 01/00 A2998 RMK AO2 SFC VIS 2 P0000 T00110000 $,0,10,0,1609,0,0,0,"FC,SN"
2026-04-16 21:13:00,SPECI KSLC 162113Z 36011KT 2SM -SN BKN041 OVC055 01/M01 A2999 RMK AO2 SFC VIS 4 P0000 T00061006 $,0,11,0,3218,0,0,0,"FC,SN"
2026-04-16 21:08:00,SPECI KSLC 162108Z 01012KT 3SM -SN BKN041 OVC055 01/00 A2999 RMK AO2 SFC VIS 5 P0000 T00060000 $,0,12,0,4827,0,0,0,"FC,SN"
2026-04-16 20:54:00,METAR KSLC 162054Z 01015KT 3SM -SN BR FEW006 BKN020 OVC050 00/M01 A2998 RMK AO2 PK WND 35028/2008 SLP139 P0003 60006 T00001006 53023 $,0,15,0,4827,0,0,1,"BR,SN"
2026-04-16 20:45:00,SPECI KSLC 162045Z 01016KT 2SM -SN BR FEW005 BKN016 OVC050 00/M01 A2998 RMK AO2 PK WND 35028/2008 SFC VIS 3 P0003 T00001006 $,0,16,0,3218,0,0,1,"BR,FC,SN"
2026-04-16 20:36:00,SPECI KSLC 162036Z 36016KT 1/2SM -SN BR VV007 M01/M01 A2998 RMK AO2 PK WND 35028/2008 SFC VIS 1 P0003 T10061006 RVRNO $,0,16,0,804,0,0,1,"BR,FC,SN"
2026-04-16 20:06:00,SPECI KSLC 162006Z COR 35022KT 1/4SM SN FG VV005 00/M01 A2997 RMK AO2 PK WND 34026/2006 SFC VIS 1/2 SNE06 P0001 T00001006 RVRNO $,0,22,0,402,0,0,1,"FC,FG,SN"
2026-04-16 19:54:00,METAR KSLC 161954Z 34020KT 1/2SM -SN BR VV006 00/M01 A2997 RMK AO2 PK WND 34031/1856 SFC VIS 3/4 SLP135 P0003 T00001006 RVRNO,0,20,0,804,0,0,1,"BR,FC,SN"
2026-04-16 19:19:00,SPECI KSLC 161919Z 34022G29KT 3/4SM -SN BR SCT006 BKN010 OVC016 01/00 A2994 RMK AO2 PK WND 34031/1856 TWR VIS 1 PRESRR P0000 T00110000 RVRNO,0,22,1,1207,0,0,1,"BR,SN"
2026-04-16 19:14:00,SPECI KSLC 161914Z 33020G29KT 1SM -SN BR BKN006 BKN011 OVC038 01/01 A2994 RMK AO2 PK WND 34031/1856 SFC VIS 1 1/4 PRESRR P0000 T00110006,0,20,1,1609,0,0,1,"BR,FC,SN"
2026-04-16 19:01:00,SPECI KSLC 161901Z 34023G33KT 1SM -SN BR SCT007 BKN021 OVC041 02/01 A2991 RMK AO2 PK WND 34031/1856 SFC VIS 2 VIS 1 3/4V3 CIG 008 NW RNWY P0000 T00220011,0,23,1,1609,0,0,1,"BR,FC,SN"
2026-04-16 18:54:00,METAR KSLC 161854Z 34027G35KT 1SM -SN BR BKN026 OVC042 02/01 A2990 RMK AO2 PK WND 33038/1837 SFC VIS 1 1/4 SNB33 SLP108 P0000 T00220011,0,27,1,1609,0,0,1,"BR,FC,SN"
2026-04-16 18:48:00,SPECI KSLC 161848Z 34027G34KT 1SM -SN BR BKN024 OVC042 03/01 A2991 RMK AO2 PK WND 33038/1837 SFC VIS 2 SNB33 P0000,0,27,1,1609,0,0,1,"BR,FC,SN"
2026-04-16 18:44:00,SPECI KSLC 161844Z 33028G38KT 2SM -SN BR BKN020 OVC042 03/01 A2990 RMK AO2 PK WND 33038/1837 SFC VIS 3 SNB33 P0000 T00330011,0,28,1,3218,0,0,1,"BR,FC,SN"
2026-04-16 18:33:00,SPECI KSLC 161833Z 33029KT 10SM -SN BKN042 OVC060 05/M01 A2989 RMK AO2 PK WND 33035/1832 SNB33 P0000 T00501011,0,29,0,16090,0,0,0,SN
2026-04-16 17:54:00,METAR KSLC 161754Z 33022G29KT 10SM FEW030 SCT042 BKN080 08/M02 A2986 RMK AO2 PK WND 32029/1754 SLP087 BLDU DSNT SW SH DSNT NW T00781022 10150 20078 53015,0,22,1,16090,0,0,0,"DS,SH"
2026-04-16 16:54:00,METAR KSLC 161654Z 33018KT 10SM FEW040 FEW055 BKN110 09/M01 A2983 RMK AO2 SLP074 T00891006,0,18,0,16090,0,0,0,
2026-04-16 15:54:00,METAR KSLC 161554Z 34018G23KT 10SM FEW045 FEW060 BKN100 08/01 A2982 RMK AO2 SLP073 VIRGA T00830006,0,18,1,16090,0,0,0,
2026-04-16 14:54:00,METAR KSLC 161454Z 32016KT 10SM FEW050 BKN100 BKN150 08/00 A2981 RMK AO2 SLP067 VIRGA T00830000 51025,0,16,0,16090,0,0,0,
2026-04-16 13:54:00,METAR KSLC 161354Z 30010KT 10SM BKN100 BKN150 11/00 A2979 RMK AO2 SLP057 T01060000,0,10,0,16090,0,0,0,
2026-04-16 12:54:00,METAR KSLC 161254Z 01015KT 10SM BKN110 BKN140 11/01 A2977 RMK AO2 PK WND 32026/1232 WSHFT 1219 SLP048 VIRGA DSNT NE-E T01060011,0,15,0,16090,0,0,0,DS
2026-04-16 12:39:00,SPECI KSLC 161239Z 33019G26KT 10SM BKN110 BKN140 12/M01 A2975 RMK AO2 PK WND 32026/1232 WSHFT 1219 VIRGA DSNT NE-E T01171006,0,19,1,16090,0,0,0,DS
2026-04-16 11:54:00,METAR KSLC 161154Z 18014G21KT 10SM SCT110 BKN140 15/M06 A2972 RMK AO2 PK WND 17028/1103 SLP025 T01501061 10172 20150 53000,0,14,1,16090,0,0,0,
2026-04-16 10:54:00,METAR KSLC 161054Z 17019G27KT 10SM OVC110 16/M06 A2972 RMK AO2 PK WND 16032/1018 SLP022 T01611061,0,19,1,16090,0,0,0,
2026-04-16 09:54:00,METAR KSLC 160954Z 17017G27KT 10SM BKN110 17/M06 A2972 RMK AO2 PK WND 17031/0910 SLP024 T01671056,0,17,1,16090,0,0,0,
2026-04-16 08:54:00,METAR KSLC 160854Z 16018G30KT 10SM BKN110 OVC140 17/M05 A2972 RMK AO2 PK WND 16033/0831 LTG DSNT N SLP024 T01671050 58020,0,18,1,16090,0,0,0,DS
2026-04-16 07:54:00,METAR KSLC 160754Z 16016G23KT 10SM FEW080 BKN110 OVC130 17/M04 A2975 RMK AO2 SLP032 T01671044,0,16,1,16090,0,0,0,
2026-04-16 06:54:00,METAR KSLC 160654Z 17014G20KT 10SM FEW080 BKN110 17/M01 A2977 RMK AO2 WSHFT 0614 SLP042 T01671006 402000067,0,14,1,16090,0,0,0,
2026-04-16 06:34:00,SPECI KSLC 160634Z 23006G24KT 10SM SCT060 BKN080 OVC090 17/M01 A2979 RMK AO2 WSHFT 0614 T01671006,0,6,1,16090,0,0,0,
2026-04-16 05:54:00,METAR KSLC 160554Z 21006KT 10SM OVC100 16/01 A2979 RMK AO2 SLP052 T01560006 10200 20156 50002,0,6,0,16090,0,0,0,
2026-04-16 04:54:00,METAR KSLC 160454Z 28007G16KT 10SM FEW070 OVC095 17/01 A2980 RMK AO2 SLP056 VIRGA T01670006,0,7,1,16090,0,0,0,
2026-04-16 03:54:00,METAR KSLC 160354Z 24005KT 10SM FEW090 SCT110 BKN140 16/01 A2979 RMK AO2 SLP053 T01610006,0,5,0,16090,0,0,0,
2026-04-16 02:54:00,METAR KSLC 160254Z 00000KT 10SM FEW095 BKN110 16/00 A2978 RMK AO2 SLP054 VIRGA T01610000 55002,0,0,0,16090,0,0,0,
2026-04-16 01:54:00,METAR KSLC 160154Z 34012KT 10SM FEW090 BKN110 BKN140 17/01 A2977 RMK AO2 SLP053 VIRGA T01670006,0,12,0,16090,0,0,0,
2026-04-16 00:54:00,METAR KSLC 160054Z 34004KT 10SM BKN120 BKN140 BKN220 18/M02 A2977 RMK AO2 SLP054 VIRGA T01831022,0,4,0,16090,0,0,0,
2026-04-15 23:54:00,METAR KSLC 152354Z 17003KT 10SM FEW090 SCT110 BKN150 BKN220 19/M04 A2979 RMK AO2 SLP058 VIRGA T01941044 10194 20161 58024,0,3,0,16090,0,0,0,
2026-04-15 22:54:00,METAR KSLC 152254Z 17007KT 10SM FEW070 BKN100 BKN200 19/M03 A2983 RMK AO2 SLP071 VIRGA ACSL DSNT SW T01891028,0,7,0,16090,0,0,0,DS
2026-04-15 21:54:00,METAR KSLC 152154Z 20020G29KT 10SM FEW070 BKN100 OVC200 18/M02 A2988 RMK AO2 PK WND 24032/2130 SLP092 VIRGA T01781022,0,20,1,16090,0,0,0,
2026-04-15 20:54:00,METAR KSLC 152054Z 16015G22KT 10SM FEW002 BKN100 BKN200 19/M03 A2987 RMK AO2 PK WND 16027/2014 SLP086 VIRGA FU FEW002 FU NW-N T01891028 56023,0,15,1,16090,0,0,0,
2026-04-15 20:28:00,SPECI KSLC 152028Z 16016G24KT 10SM FEW003 SCT100 BKN110 BKN200 19/M03 A2987 RMK AO2 PK WND 16027/2014 VIRGA FU FEW003 FU NW-N T01891028,0,16,1,16090,0,0,0,
2026-04-15 19:54:00,METAR KSLC 151954Z 17017G25KT 10SM FEW090 BKN110 BKN220 18/M02 A2989 RMK AO2 PK WND 16028/1939 SLP092 VIRGA ACSL DSNT NE-SW T01831022 $,0,17,1,16090,0,0,0,DS
2026-04-15 18:54:00,METAR KSLC 151854Z 17017G26KT 10SM FEW006 FEW090 BKN110 BKN250 18/M02 A2991 RMK AO2 PK WND 18028/1810 SLP102 FU FEW006 FU NW ACSL SE AND DSNT ALQDS T01831022 $,0,17,1,16090,0,0,0,DS
2026-04-15 17:54:00,METAR KSLC 151754Z 18020G27KT 10SM FEW005 FEW085 SCT110 BKN250 17/M02 A2995 RMK AO2 PK WND 18031/1730 SLP115 FU FEW005 FU NW ACSL DSNT ALQDS T01671017 10167 20067 56004 $,0,20,1,16090,0,0,0,DS
2026-04-15 17:50:00,SPECI KSLC 151750Z 19018G28KT 10SM FEW005 FEW085 SCT110 BKN250 17/M02 A2995 RMK AO2 PK WND 18031/1730 FU FEW005 FU NW ACSL DSNT ALQDS $,0,18,1,16090,0,0,0,DS
2026-04-15 16:54:00,METAR KSLC 151654Z 19020G30KT 10SM FEW085 SCT140 BKN250 15/M02 A2995 RMK AO2 PK WND 19030/1654 SLP119 ACSL DSNT ALQDS T01501017 $,0,20,1,16090,0,0,0,DS
2026-04-15 15:54:00,METAR KSLC 151554Z 18019G25KT 10SM FEW080 FEW150 SCT250 13/M02 A2996 RMK AO2 SLP121 ACSL DSNT SW-NE T01331017 $,0,19,1,16090,0,0,0,DS
2026-04-15 14:54:00,METAR KSLC 151454Z 14010KT 10SM FEW150 BKN250 12/M01 A2997 RMK AO2 SLP124 ACSL DSNT NE AND NW T01171011 53002 $,0,10,0,16090,0,0,0,DS
2026-04-15 13:54:00,METAR KSLC 151354Z 14008KT 10SM FEW160 SCT250 08/M01 A2996 RMK AO2 SLP125 ACSL DSNT NW-NE T00831011 $,0,8,0,16090,0,0,0,DS
2026-04-15 12:54:00,METAR KSLC 151254Z 13008KT 10SM FEW190 FEW260 07/M01 A2995 RMK AO2 SLP122 ACSL N T00671011 $,0,8,0,16090,0,0,0,
2026-04-15 11:54:00,METAR KSLC 151154Z 14009KT 10SM FEW200 07/M02 A2996 RMK AO2 SLP124 T00671017 10094 20067 58004 $,0,9,0,16090,0,0,0,
2026-04-15 10:54:00,METAR KSLC 151054Z 13009KT 10SM SCT230 07/M01 A2996 RMK AO2 SLP125 T00721011 $,0,9,0,16090,0,0,0,
2026-04-15 09:54:00,METAR KSLC 150954Z 13009KT 10SM FEW260 08/M02 A2997 RMK AO2 SLP128 T00781017 $,0,9,0,16090,0,0,0,
2026-04-15 08:54:00,METAR KSLC 150854Z 14008KT 10SM FEW090 08/M02 A2997 RMK AO2 SLP130 T00781022 58005 $,0,8,0,16090,0,0,0,
2026-04-15 07:54:00,METAR KSLC 150754Z 13009KT 10SM SCT095 08/M03 A2998 RMK AO2 SLP133 T00831028 $,0,9,0,16090,0,0,0,
2026-04-15 06:54:00,METAR KSLC 150654Z 13008KT 10SM BKN095 08/M03 A2998 RMK AO2 SLP133 T00831028 401440033 $,0,8,0,16090,0,0,0,
2026-04-15 05:54:00,METAR KSLC 150554Z 13008KT 10SM FEW090 08/M02 A2999 RMK AO2 SLP138 T00781022 10144 20078 50003 $,0,8,0,16090,0,0,0,
2026-04-15 04:54:00,METAR KSLC 150454Z 14008KT 10SM CLR 08/M02 A2999 RMK AO2 SLP140 T00831022 $,0,8,0,16090,0,0,0,
2026-04-15 03:54:00,METAR KSLC 150354Z 11007KT 10SM CLR 10/M02 A2999 RMK AO2 SLP140 T01001022 $,0,7,0,16090,0,0,0,
2026-04-15 02:54:00,METAR KSLC 150254Z 13003KT 10SM FEW080 12/M03 A2998 RMK AO2 SLP137 T01171028 56004 $,0,3,0,16090,0,0,0,
2026-04-15 01:54:00,METAR KSLC 150154Z 00000KT 10SM FEW060 FEW080 13/M04 A2998 RMK AO2 SLP137 T01281039 $,0,0,0,16090,0,0,0,
2026-04-15 00:54:00,METAR KSLC 150054Z 34004KT 10SM FEW060 FEW080 14/M04 A2999 RMK AO2 SLP138 T01391039 $,0,4,0,16090,0,0,0,
2026-04-14 23:54:00,METAR KSLC 142354Z 33005KT 10SM FEW060 FEW080 14/M04 A3000 RMK AO2 SLP142 T01391039 10144 20111 56007 $,0,5,0,16090,0,0,0,
2026-04-14 22:54:00,METAR KSLC 142254Z VRB05KT 10SM FEW060 FEW080 14/M03 A3000 RMK AO2 SLP141 T01391028 $,0,5,0,16090,0,0,0,
2026-04-14 21:54:00,METAR KSLC 142154Z 30010G14KT 10SM FEW055 FEW070 13/M01 A3001 RMK AO2 SLP146 T01331011 $,0,10,1,16090,0,0,0,
2026-04-14 20:54:00,METAR KSLC 142054Z 27010KT 10SM FEW042 BKN060 12/01 A3002 RMK AO2 SLP150 T01170006 53002 $,0,10,0,16090,0,0,0,
2026-04-14 19:54:00,METAR KSLC 141954Z 27011KT 10SM SCT042 BKN050 BKN200 11/01 A3001 RMK AO2 SLP146 T01110011 $,0,11,0,16090,0,0,0,
2026-04-14 18:54:00,METAR KSLC 141854Z 33008G18KT 10SM SCT049 SCT060 SCT200 12/M02 A3001 RMK AO2 SLP145 T01221017 $,0,8,1,16090,0,0,0,
2026-04-14 17:54:00,METAR KSLC 141754Z 34006G15KT 10SM FEW045 SCT060 SCT200 11/M01 A3001 RMK AO2 SLP144 T01111011 10111 20033 51011 $,0,6,1,16090,0,0,0,
2026-04-14 16:54:00,METAR KSLC 141654Z 33007KT 10SM FEW035 FEW055 FEW200 10/00 A3000 RMK AO2 SLP143 T01000000 $,0,7,0,16090,0,0,0,
2026-04-14 15:54:00,METAR KSLC 141554Z VRB04KT 10SM FEW030 FEW060 FEW200 08/01 A2999 RMK AO2 SLP141 SCSL DSNT E-SE T00780011 $,0,4,0,16090,0,0,0,DS
2026-04-14 14:54:00,METAR KSLC 141454Z 35009KT 10SM FEW045 FEW065 SCT200 06/01 A2998 RMK AO2 SLP135 SCSL DSNT NE AND SE T00610011 51015 $,0,9,0,16090,0,0,0,DS
2026-04-14 13:54:00,METAR KSLC 141354Z 34006KT 10SM FEW040 SCT060 SCT200 04/01 A2996 RMK AO2 SLP131 T00440011 $,0,6,0,16090,0,0,0,
2026-04-14 12:54:00,METAR KSLC 141254Z 33009KT 10SM FEW041 FEW060 SCT210 05/01 A2994 RMK AO2 SLP123 T00500006 $,0,9,0,16090,0,0,0,
2026-04-14 11:54:00,METAR KSLC 141154Z 34007KT 10SM FEW210 SCT240 04/01 A2992 RMK AO2 SLP117 T00390011 10089 20039 53004 $,0,7,0,16090,0,0,0,
2026-04-14 10:54:00,METAR KSLC 141054Z 35007KT 10SM BKN230 05/02 A2991 RMK AO2 SLP109 T00500017 $,0,7,0,16090,0,0,0,
2026-04-14 09:54:00,METAR KSLC 140954Z 35006KT 10SM FEW080 SCT260 04/01 A2991 RMK AO2 SLP112 T00440011 $,0,6,0,16090,0,0,0,
2026-04-14 08:54:00,METAR KSLC 140854Z 32004KT 10SM FEW080 FEW250 06/02 A2991 RMK AO2 SLP110 T00560017 58002 $,0,4,0,16090,0,0,0,
2026-04-14 07:54:00,METAR KSLC 140754Z 32008KT 10SM FEW250 07/02 A2991 RMK AO2 SLP108 T00720022 $,0,8,0,16090,0,0,0,
2026-04-14 06:54:00,METAR KSLC 140654Z 36004KT 10SM FEW210 SCT240 07/02 A2992 RMK AO2 SLP114 T00670017 401500028 $,0,4,0,16090,0,0,0,
2026-04-14 05:54:00,METAR KSLC 140554Z 10005KT 10SM FEW200 SCT230 08/M02 A2992 RMK AO2 SLP111 T00831022 10139 20078 50000 $,0,5,0,16090,0,0,0,
2026-04-14 04:54:00,METAR KSLC 140454Z 12006KT 10SM FEW150 SCT220 08/00 A2992 RMK AO2 SLP116 T00830000 $,0,6,0,16090,0,0,0,
2026-04-14 03:54:00,METAR KSLC 140354Z 00000KT 10SM SCT150 SCT220 10/M02 A2993 RMK AO2 SLP117 T01001017 $,0,0,0,16090,0,0,0,
2026-04-14 02:54:00,METAR KSLC 140254Z 35003KT 10SM FEW100 BKN160 BKN220 11/M01 A2991 RMK AO2 SLP114 T01111011 55004 $,0,3,0,16090,0,0,0,
2026-04-14 01:54:00,METAR KSLC 140154Z 35006KT 10SM FEW060 FEW100 BKN160 BKN230 12/M02 A2991 RMK AO2 SLP114 T01221017 $,0,6,0,16090,0,0,0,
2026-04-14 00:54:00,METAR KSLC 140054Z 02010KT 10SM FEW060 FEW100 BKN180 BKN230 13/M02 A2992 RMK AO2 SLP117 SH DSNT S T01281022 $,0,10,0,16090,0,0,0,"DS,SH"
2026-04-13 23:54:00,METAR KSLC 132354Z 35005G16KT 10SM FEW070 SCT100 SCT150 BKN230 14/M03 A2993 RMK AO2 SLP118 T01391033 10150 20111 56011 $,0,5,1,16090,0,0,0,
2026-04-13 22:54:00,METAR KSLC 132254Z 34012G19KT 10SM FEW060 SCT100 BKN250 14/M01 A2993 RMK AO2 SLP119 VIRGA T01441006 $,0,12,1,16090,0,0,0,
2026-04-13 21:54:00,METAR KSLC 132154Z 33010G16KT 10SM FEW050 SCT095 BKN250 13/01 A2994 RMK AO2 SLP123 VIRGA T01330006 $,0,10,1,16090,0,0,0,
2026-04-13 20:54:00,METAR KSLC 132054Z VRB05KT 10SM SCT065 SCT100 SCT250 13/01 A2996 RMK AO2 SLP132 VIRGA T01330011 58014 $,0,5,0,16090,0,0,0,
2026-04-13 19:54:00,METAR KSLC 131954Z 31008KT 10SM FEW065 SCT100 SCT250 13/03 A2998 RMK AO2 SLP136 VIRGA TCU DSNT NW T01330028 $,0,8,0,16090,0,0,0,DS
2026-04-13 18:54:00,METAR KSLC 131854Z 30006KT 10SM FEW048 SCT060TCU BKN100 BKN250 12/03 A3000 RMK AO2 SLP145 CB DSNT NW TCU NE AND DSNT SW T01170033 $,0,6,0,16090,0,0,0,DS
2026-04-13 17:54:00,METAR KSLC 131754Z 20003KT 10SM FEW035 FEW043 FEW060 SCT250 11/02 A3001 RMK AO2 SLP148 TCU DSNT NW T01110017 10111 20028 56001 $,0,3,0,16090,0,0,0,DS
2026-04-13 16:54:00,METAR KSLC 131654Z VRB04KT 10SM FEW030 FEW055 SCT250 10/02 A3001 RMK AO2 SLP149 TCU DSNT NW T01000017 $,0,4,0,16090,0,0,0,DS
2026-04-13 15:54:00,METAR KSLC 131554Z 14005KT 10SM FEW030 FEW055 SCT250 08/01 A3001 RMK AO2 SLP147 T00830006 $,0,5,0,16090,0,0,0,
2026-04-13 14:54:00,METAR KSLC 131454Z 14006KT 10SM FEW025 FEW050 SCT250 06/01 A3001 RMK AO2 SLP149 T00610011 53005 $,0,6,0,16090,0,0,0,
2026-04-13 13:54:00,METAR KSLC 131354Z 17005KT 10SM FEW030 FEW050 FEW250 04/01 A3000 RMK AO2 SLP144 T00440011 $,0,5,0,16090,0,0,0,
2026-04-13 12:54:00,METAR KSLC 131254Z 11006KT 10SM FEW035 FEW260 03/02 A3000 RMK AO2 SLP143 T00330017 $,0,6,0,16090,0,0,0,
2026-04-13 11:54:00,METAR KSLC 131154Z 13007KT 10SM FEW031 03/02 A3000 RMK AO2 SLP142 60013 70024 T00330022 10039 20028 53007 $,0,7,0,16090,0,0,0,
2026-04-13 10:54:00,METAR KSLC 131054Z 14003KT 10SM CLR 03/02 A2999 RMK AO2 SLP136 T00330022 $,0,3,0,16090,0,0,0,
2026-04-13 09:54:00,METAR KSLC 130954Z 20004KT 10SM FEW010 FEW080 03/02 A2998 RMK AO2 SLP131 T00330017 $,0,4,0,16090,0,0,0,
2026-04-13 08:54:00,METAR KSLC 130854Z 14009KT 10SM SCT065 OVC080 03/02 A2997 RMK AO2 SLP129 60013 T00330022 51011 $,0,9,0,16090,0,0,0,
2026-04-13 07:54:00,METAR KSLC 130754Z 10005KT 10SM BKN036 OVC065 03/02 A2997 RMK AO2 RAE49 SLP128 P0006 T00280017 $,0,5,0,16090,0,0,0,
2026-04-13 06:54:00,METAR KSLC 130654Z 32011KT 10SM -RA SCT013 OVC021 04/02 A2996 RMK AO2 CIG 011 NW RNWY SLP123 P0007 T00390022 402060039 $,0,11,0,16090,0,0,0,-RA
2026-04-13 06:36:00,SPECI KSLC 130636Z 35007KT 5SM RA BR FEW006 BKN011 OVC018 04/03 A2994 RMK AO2 P0006 T00390033 $,0,7,0,8045,0,0,1,"BR,RA"
2026-04-13 05:54:00,METAR KSLC 130554Z 35013KT 10SM -RA BKN010 OVC017 06/04 A2994 RMK AO2 PK WND 26028/0457 WSHFT 0501 SLP112 P0010 60011 T00560039 10144 20050 50031 $,0,13,0,16090,0,0,0,-RA
2026-04-13 05:33:00,SPECI KSLC 130533Z 32010KT 10SM -RA FEW008 BKN029 OVC090 06/04 A2993 RMK AO2 PK WND 26028/0457 WSHFT 0501 P0010 T00560044 $,0,10,0,16090,0,0,0,-RA
2026-04-13 05:21:00,SPECI KSLC 130521Z 01013KT 5SM RA BR FEW021 BKN027 06/04 A2990 RMK AO2 PK WND 26028/0457 WSHFT 0501 PRESFR P0009 T00560039 $,0,13,0,8045,0,0,1,"BR,RA"
2026-04-13 04:54:00,METAR KSLC 130454Z 27020G31KT 4SM RA BR SCT020 OVC028 07/04 A2994 RMK AO2 PK WND 27031/0454 RAB06 PRESRR SLP114 P0001 T00670039 $,0,20,1,6436,0,0,1,"BR,RA"
2026-04-13 03:54:00,METAR KSLC 130354Z 29013KT 10SM BKN046 BKN065 OVC100 09/02 A2988 RMK AO2 PK WND 29027/0304 RAB0258E35 SLP093 P0000 T00890017 $,0,13,0,16090,0,0,0,RA
2026-04-13 02:54:00,METAR KSLC 130254Z 28012G16KT 10SM FEW017 BKN046 OVC065 11/00 A2983 RMK AO2 SLP073 VCSH T01110000 51028 $,0,12,1,16090,0,0,0,"SH,VC"
2026-04-13 01:54:00,METAR KSLC 130154Z 33014KT 10SM FEW065 BKN080 BKN100 12/M01 A2980 RMK AO2 PK WND 33026/0056 SLP062 VCSH SH DSNT N-NE AND SW-W T01171006 $,0,14,0,16090,0,0,0,"DS,SH,VC"
2026-04-13 00:54:00,METAR KSLC 130054Z 34015G29KT 10SM FEW080 BKN120 BKN140 BKN200 13/00 A2978 RMK AO2 PK WND 34031/0003 SLP057 SH DSNT SW-NW-N T01280000 $,0,15,1,16090,0,0,0,"DS,SH"
2026-04-12 23:54:00,METAR KSLC 122354Z 36012KT 10SM FEW080 BKN120 BKN150 BKN200 14/M01 A2974 RMK AO2 SLP041 SH DSNT SW-NW-N 60000 T01391006 10206 20139 53013 $,0,12,0,16090,0,0,0,"DS,SH"
2026-04-12 22:54:00,METAR KSLC 122254Z 34010G26KT 10SM FEW090 SCT110 BKN140 BKN200 16/M03 A2969 RMK AO2 PK WND 25044/2211 WSHFT 2216 SLP024 VIRGA VCSH T01611028 $,0,10,1,16090,0,0,0,"SH,VC"
2026-04-12 22:36:00,SPECI KSLC 122236Z 30014G23KT 10SM FEW090 SCT110 BKN140 BKN200 16/M04 A2969 RMK AO2 PK WND 25044/2211 WSHFT 2216 VCSH T01611039 $,0,14,1,16090,0,0,0,"SH,VC"
2026-04-12 21:54:00,METAR KSLC 122154Z 26023G41KT 10SM FEW090 BKN120TCU BKN150 BKN180 17/M07 A2968 RMK AO2 PK WND 25047/2120 RAE17 SLP021 TCU SW-NW-N VCSH P0000 T01721067 $,0,23,1,16090,0,0,0,"SH,VC"
2026-04-12 18:54:00,METAR KSLC 121854Z 19025G38KT 10SM SCT090 BKN130 BKN200 18/M06 A2970 RMK AO2 PK WND 19038/1853 RAB24E25 SLP025 OCNL LTGIC DSNT NW VIRGA CB DSNT SW-NW BLDU DSNT W P0000 T01831056 $,0,25,1,16090,0,0,0,"DS,RA"
2026-04-12 17:54:00,METAR KSLC 121754Z 17022G32KT 10SM SCT095 BKN150 19/M04 A2974 RMK AO2 PK WND 15035/1711 SLP035 TCU DSNT SW-NW 60000 T01891039 10189 20117 58001 $,0,22,1,16090,0,0,0,DS
2026-04-12 16:54:00,METAR KSLC 121654Z 17022G30KT 10SM FEW080 BKN140 BKN170 17/M03 A2974 RMK AO2 PK WND 18035/1605 RAB08E13 SLP040 VIRGA P0000 T01721033 $,0,22,1,16090,0,0,0,RA
2026-04-12 15:54:00,METAR KSLC 121554Z 17026G34KT 10SM FEW080 BKN150 BKN200 16/M03 A2974 RMK AO2 PK WND 16035/1531 SLP037 VIRGA T01611033 $,0,26,1,16090,0,0,0,
2026-04-12 14:54:00,METAR KSLC 121454Z 16009G23KT 10SM FEW080 BKN150 15/M04 A2974 RMK AO2 PK WND 17032/1420 SLP039 VIRGA T01501039 53005 $,0,9,1,16090,0,0,0,
2026-04-12 13:54:00,METAR KSLC 121354Z 16018G24KT 10SM FEW080 BKN150 BKN180 14/M04 A2973 RMK AO2 SLP035 T01441039 $,0,18,1,16090,0,0,0,
2026-04-12 12:54:00,METAR KSLC 121254Z 12010KT 10SM FEW080 BKN170 BKN210 12/M02 A2972 RMK AO2 SLP032 T01221017 $,0,10,0,16090,0,0,0,
2026-04-12 11:54:00,METAR KSLC 121154Z 15011KT 10SM BKN180 12/M02 A2972 RMK AO2 SLP031 70001 T01221017 10128 20089 56010 $,0,11,0,16090,0,0,0,
2026-04-12 10:54:00,METAR KSLC 121054Z 18007KT 10SM BKN180 11/00 A2973 RMK AO2 SLP036 T01060000 $,0,7,0,16090,0,0,0,
2026-04-12 09:54:00,METAR KSLC 120954Z 14008KT 10SM FEW250 09/00 A2974 RMK AO2 SLP045 T00940000 $,0,8,0,16090,0,0,0,
2026-04-12 08:54:00,METAR KSLC 120854Z 15009KT 10SM FEW130 SCT250 11/01 A2976 RMK AO2 SLP049 T01060006 58013 $,0,9,0,16090,0,0,0,
2026-04-12 07:54:00,METAR KSLC 120754Z 13007KT 10SM FEW120 BKN250 09/02 A2978 RMK AO2 SLP049 T00940017 $,0,7,0,16090,0,0,0,
2026-04-12 06:54:00,METAR KSLC 120654Z 14009KT 10SM FEW130 BKN250 11/03 A2979 RMK AO2 SLP054 T01060028 402170106 $,0,9,0,16090,0,0,0,
2026-04-12 05:54:00,METAR KSLC 120554Z 14008KT 10SM SCT120 BKN250 11/02 A2980 RMK AO2 SLP060 T01110017 10172 20106 58006 $,0,8,0,16090,0,0,0,
2026-04-12 04:54:00,METAR KSLC 120454Z 17006KT 10SM SCT120 BKN250 11/03 A2982 RMK AO2 SLP065 T01110028 $,0,6,0,16090,0,0,0,
2026-04-12 03:54:00,METAR KSLC 120354Z 12005KT 10SM FEW120 SCT250 13/02 A2982 RMK AO2 SLP065 T01280017 $,0,5,0,16090,0,0,0,
2026-04-12 02:54:00,METAR KSLC 120254Z 35007KT 10SM BKN110 BKN210 13/02 A2982 RMK AO2 SLP063 T01330022 53004 $,0,7,0,16090,0,0,0,
2026-04-12 01:54:00,METAR KSLC 120154Z 34006KT 10SM FEW120 SCT200 BKN240 14/02 A2981 RMK AO2 SLP061 T01440017 $,0,6,0,16090,0,0,0,
2026-04-12 00:54:00,METAR KSLC 120054Z 01010KT 10SM FEW090 BKN120 BKN220 16/01 A2980 RMK AO2 SLP058 T01610011 $,0,10,0,16090,0,0,0,
2026-04-11 23:54:00,METAR KSLC 112354Z COR 35010KT 10SM SCT120 BKN160 17/02 A2981 RMK AO2 RAB2255E05 VCSH SLP058 P0000 60000 T01720017 10217 20133 55004 $,0,10,0,16090,0,0,0,"RA,SH,VC"
2026-04-11 22:54:00,METAR KSLC 112254Z 34012G16KT 10SM FEW090 SCT140 SCT170 17/02 A2980 RMK AO2 RAE08 SLP056 SH DSNT E-S P0000 T01670022 $,0,12,1,16090,0,0,0,"DS,SH"
2026-04-11 21:54:00,METAR KSLC 112154Z 02006KT 10SM -RA FEW085 BKN110 BKN160 14/03 A2983 RMK AO2 PK WND 03031/2103 WSHFT 2041 LTG DSNT E TSE06 SLP066 CB DSNT NE-E AND S P0000 T01390033 $,0,6,0,16090,1,0,0,"-RA,DS"
2026-04-11 21:51:00,SPECI KSLC 112151Z 02007G18KT 10SM -RA FEW085 BKN110 BKN160 14/03 A2982 RMK AO2 PK WND 03031/2103 WSHFT 2041 LTG DSNT E TSE06 CB DSNT NE-E AND S P0000 $,0,7,1,16090,1,0,0,"-RA,DS"
2026-04-11 21:36:00,SPECI KSLC 112136Z 03012G17KT 10SM VCTS -RA FEW065 BKN110 BKN140 13/03 A2984 RMK AO2 PK WND 03031/2103 WSHFT 2041 LTG DSNT E TSE06 CB DSNT NE-E TCU DSNT S-W P0000 T01330028,0,12,1,16090,1,0,0,"-RA,DS,TS,VC"
2026-04-11 21:24:00,SPECI KSLC 112124Z 30012G20KT 10SM -RA FEW090 BKN110 BKN140 13/02 A2986 RMK AO2 PK WND 03031/2103 WSHFT 2041 LTG DSNT NE AND E TSE06 PRESRR CB DSNT NE-E AND SW P0000 T01330017,0,12,1,16090,1,0,0,"-RA,DS"
2026-04-11 21:12:00,SPECI KSLC 112112Z COR 35015G31KT 10SM VCTS -RA FEW080 BKN110CB BKN150 14/03 A2984 RMK AO2 PK WND 03031/2103 WSHFT 2041 TSE06 OCNL LTGIC W AND DSNT NE-E CB W MOV N AND DSNT ALQDS P0000 T01390028,0,15,1,16090,1,0,0,"-RA,DS,TS,VC"
2026-04-11 21:01:00,SPECI KSLC 112101Z 03022G28KT 10SM -TSRA BKN100CB BKN150 13/04 A2982 RMK AO2 PK WND 04028/2100 WSHFT 2041 LTG DSNT NE AND W OCNL LTGIC OHD AND DSNT NE AND W CB OHD MOV N AND DSNT ALQDS BLDU DSNT W P0000 T01330039,0,22,1,16090,1,0,0,"DS,RA"
2026-04-11 20:54:00,METAR KSLC 112054Z 02020G27KT 10SM -TSRA BKN100CB BKN150 13/04 A2984 RMK AO2 PK WND 31042/2028 WSHFT 1948 RAB26 TSB51 SLP069 OCNL LTGIC DSNT NE CB OHD MOV N AND DSNT ALQDS BLDU DSNT W P0000 60000 T01330044 53010,0,20,1,16090,1,0,0,"DS,RA"
2026-04-11 20:08:00,SPECI KSLC 112008Z 28013G26KT 10SM SCT090 BKN110 BKN150 17/02 A2976 RMK AO2 PK WND 29026/2008 WSHFT 1948 CB DSNT ALQDS BLDU DSNT W VCSH T01720017,0,13,1,16090,0,0,0,"DS,SH,VC"
2026-04-11 19:54:00,METAR KSLC 111954Z 22019G27KT 10SM SCT090 BKN150 BKN250 21/M05 A2975 RMK AO2 PK WND 20037/1936 RAB1855E05B30E51 SLP028 CB DSNT ALQDS BLDU DSNT W VCSH P0000 T02111050,0,19,1,16090,0,0,0,"DS,RA,SH,VC"
2026-04-11 18:54:00,METAR KSLC 111854Z 18017KT 10SM FEW050 SCT090CB BKN200 19/01 A2977 RMK AO2 PK WND 16031/1831 LTG DSNT NW RAE1757B29E51 TSB29E51 SLP042 CB E-SE MOV NE AND DSNT SW-NW P0000 T01890006,0,17,0,16090,1,0,0,"DS,RA,TS"
2026-04-11 18:29:00,SPECI KSLC 111829Z 17017G26KT 10SM -TSRA FEW050 BKN090CB BKN150 16/01 A2980 RMK AO2 PK WND 17026/1812 RAE1757B29 TSB29 OCNL LTGIC S AND DSNT S TS S MOV N P0000 T01610011,0,17,1,16090,1,0,0,"DS,RA,TS"
2026-04-11 17:54:00,METAR KSLC 111754Z 17010KT 9SM -RA FEW039 SCT060 BKN080CB BKN150 16/04 A2980 RMK AO2 LTG DSNT NE RAB24 SLP054 CB N-S MOV N AND DSNT ALQDS TCU DSNT W P0001 60001 T01610039 10189 20133 58006,0,10,0,14481,0,0,0,"-RA,DS"
2026-04-11 16:54:00,METAR KSLC 111654Z 19009KT 10SM FEW065 BKN090CB BKN150 BKN200 17/02 A2982 RMK AO2 PK WND 20031/1555 RAB1558E14B33E40 SLP057 OCNL LTGIC DSNT N CB N AND S MOV N VCSH P0000 T01720022,0,9,0,16090,0,0,0,"DS,RA,SH,VC"
2026-04-11 15:54:00,METAR KSLC 111554Z 18017G25KT 10SM FEW005 FEW038 BKN090CB BKN230 17/01 A2983 RMK AO2 SLP059 OCNL LTGIC DSNT SW FU FEW005 FU N CB DSNT SW AND S MOV N VCSH T01720006,0,17,1,16090,0,0,0,"DS,SH,VC"
2026-04-11 14:54:00,METAR KSLC 111454Z 18012KT 10SM SCT110 BKN240 18/01 A2982 RMK AO2 SLP054 VIRGA T01780006 53002,0,12,0,16090,0,0,0,
2026-04-11 13:54:00,METAR KSLC 111354Z 15007KT 10SM SCT110 SCT150 BKN260 15/01 A2982 RMK AO2 SLP056 VIRGA ACSL DSNT W SH DSNT SW T01500011,0,7,0,16090,0,0,0,"DS,SH"
2026-04-11 12:54:00,METAR KSLC 111254Z 13004KT 10SM SCT120 BKN260 14/01 A2981 RMK AO2 SLP053 T01390006,0,4,0,16090,0,0,0,
2026-04-11 11:54:00,METAR KSLC 111154Z 17005KT 10SM SCT110 14/01 A2982 RMK AO2 SLP050 T01440011 10189 20139 55000,0,5,0,16090,0,0,0,
2026-04-11 10:54:00,METAR KSLC 111054Z 21005KT 10SM FEW110 15/01 A2982 RMK AO2 SLP049 T01500006,0,5,0,16090,0,0,0,
2026-04-11 09:54:00,METAR KSLC 110954Z 17011KT 10SM SCT110 17/M01 A2981 RMK AO2 SLP049 T01721006,0,11,0,16090,0,0,0,
2026-04-11 08:54:00,METAR KSLC 110854Z 17012KT 10SM BKN110 18/M01 A2982 RMK AO2 SLP047 T01781011 50007,0,12,0,16090,0,0,0,
2026-04-11 07:54:00,METAR KSLC 110754Z 17012KT 10SM SCT120 BKN260 18/M02 A2982 RMK AO2 SLP048 T01831017,0,12,0,16090,0,0,0,
2026-04-11 06:54:00,METAR KSLC 110654Z 16009KT 10SM SCT120 BKN250 17/01 A2981 RMK AO2 SLP047 T01670006 402610133,0,9,0,16090,0,0,0,
2026-04-11 05:54:00,METAR KSLC 110554Z 15012KT 10SM FEW120 SCT230 17/00 A2979 RMK AO2 SLP043 T01720000 10250 20172 51006,0,12,0,16090,0,0,0,
2026-04-11 04:54:00,METAR KSLC 110454Z 19012KT 10SM FEW130 FEW230 19/M01 A2979 RMK AO2 SLP042 T01891006,0,12,0,16090,0,0,0,
2026-04-11 03:54:00,METAR KSLC 110354Z 18010KT 10SM FEW120 SCT230 19/M01 A2978 RMK AO2 SLP042 T01941011,0,10,0,16090,0,0,0,
2026-04-11 02:54:00,METAR KSLC 110254Z 18012G25KT 10SM FEW120 SCT170 SCT240 21/M01 A2977 RMK AO2 PK WND 16029/0229 SLP036 T02111011 55001,0,12,1,16090,0,0,0,
2026-04-11 01:54:00,METAR KSLC 110154Z 15012KT 10SM FEW095 SCT140 SCT180 BKN260 22/M02 A2976 RMK AO2 PK WND 17028/0110 SLP034 VIRGA DSNT S TCU DSNT S T02221022,0,12,0,16090,0,0,0,DS
2026-04-11 00:54:00,METAR KSLC 110054Z 20015G23KT 10SM FEW090 SCT160 BKN220 BKN260 24/M05 A2976 RMK AO2 PK WND 22029/0009 SLP032 VIRGA OHD AND DSNT E-SE AND W TCU DSNT E AND W T02391050,0,15,1,16090,0,0,0,DS
2026-04-10 23:54:00,METAR KSLC 102354Z 19015G25KT 10SM FEW100 SCT140 BKN230 BKN260 25/M04 A2977 RMK AO2 PK WND 18031/2340 SLP034 VIRGA DSNT NE AND S BLDU DSNT SW T02501039 10261 20217 56019,0,15,1,16090,0,0,0,DS
2026-04-10 22:54:00,METAR KSLC 102254Z 18021G30KT 10SM FEW110 BKN150TCU BKN250 26/M03 A2978 RMK AO2 PK WND 18030/2249 SLP038 VIRGA DSNT N AND SE-SW TCU OHD ACSL DSNT E AND SW-W T02561033,0,21,1,16090,0,0,0,DS
2026-04-10 21:54:00,METAR KSLC 102154Z 20014G22KT 10SM FEW100 SCT150TCU BKN220 24/M03 A2981 RMK AO2 SLP049 TCU OHD ACSL DSNT ALQDS T02391028,0,14,1,16090,0,0,0,DS
2026-04-10 20:54:00,METAR KSLC 102054Z 15015G20KT 10SM FEW100 SCT150 BKN170 BKN210 24/M02 A2984 RMK AO2 SLP059 ACSL DSNT ALQDS BLDU DSNT W T02391022 58018,0,15,1,16090,0,0,0,DS
2026-04-10 19:54:00,METAR KSLC 101954Z 16014KT 10SM FEW100 BKN140 BKN200 24/00 A2986 RMK AO2 SLP067 ACSL DSNT SE-SW T02440000,0,14,0,16090,0,0,0,DS
2026-04-10 18:54:00,METAR KSLC 101854Z 19010G19KT 10SM FEW010 FEW100 BKN180 BKN230 23/M01 A2988 RMK AO2 SLP076 VIRGA FU FEW010 FU DSNT N T02331006,0,10,1,16090,0,0,0,DS
2026-04-10 17:54:00,METAR KSLC 101754Z 19013G22KT 10SM SCT110 BKN160 BKN200 22/M03 A2990 RMK AO2 SLP082 T02171028 10217 20150 58004,0,13,1,16090,0,0,0,
2026-04-10 16:54:00,METAR KSLC 101654Z 14008KT 10SM FEW110 BKN150 BKN180 20/02 A2990 RMK AO2 SLP085 VIRGA T02000022,0,8,0,16090,0,0,0,
2026-04-10 15:54:00,METAR KSLC 101554Z 16009KT 10SM FEW120 BKN150 BKN190 18/02 A2991 RMK AO2 SLP089 VIRGA T01780017,0,9,0,16090,0,0,0,
2026-04-10 14:54:00,METAR KSLC 101454Z 14012KT 10SM SCT120 BKN170 BKN210 17/02 A2991 RMK AO2 SLP087 VIRGA T01720017 53004,0,12,0,16090,0,0,0,
2026-04-10 13:54:00,METAR KSLC 101354Z 14015G20KT 10SM SCT120 BKN200 BKN250 16/01 A2991 RMK AO2 SLP087 VIRGA ACC DSNT N T01560011,0,15,1,16090,0,0,0,DS
2026-04-10 12:54:00,METAR KSLC 101254Z 14010KT 10SM BKN130 OVC210 16/01 A2990 RMK AO2 SLP083 VIRGA DSNT N T01560011,0,10,0,16090,0,0,0,DS
2026-04-10 11:54:00,METAR KSLC 101154Z COR 17010KT 10SM BKN130 BKN220 16/01 A2990 RMK AO2 SLP080 T01560006 10161 20133 58001,0,10,0,16090,0,0,0,
2026-04-10 10:54:00,METAR KSLC 101054Z 17007KT 10SM BKN130 14/02 A2991 RMK AO2 SLP085 T01390017,0,7,0,16090,0,0,0,
2026-04-10 09:54:00,METAR KSLC 100954Z 17009KT 10SM BKN160 14/01 A2991 RMK AO2 SLP085 T01440006,0,9,0,16090,0,0,0,
2026-04-10 08:54:00,METAR KSLC 100854Z 16008KT 10SM BKN160 15/01 A2990 RMK AO2 SLP081 T01500011 58006,0,8,0,16090,0,0,0,
2026-04-10 07:54:00,METAR KSLC 100754Z 00000KT 10SM BKN140 14/03 A2991 RMK AO2 SLP087 T01440028,0,0,0,16090,0,0,0,
2026-04-10 06:54:00,METAR KSLC 100654Z 13004KT 10SM BKN160 14/03 A2992 RMK AO2 SLP091 T01440033 402390094,0,4,0,16090,0,0,0,
2026-04-10 05:54:00,METAR KSLC 100554Z 23005KT 10SM FEW180 BKN230 15/04 A2992 RMK AO2 SLP092 T01500039 10228 20139 51005,0,5,0,16090,0,0,0,
2026-04-10 04:54:00,METAR KSLC 100454Z 24003KT 10SM FEW140 SCT230 16/07 A2991 RMK AO2 SLP092 T01560067,0,3,0,16090,0,0,0,
2026-04-10 03:54:00,METAR KSLC 100354Z 00000KT 10SM FEW085 FEW150 SCT240 17/06 A2992 RMK AO2 SLP095 T01720061,0,0,0,16090,0,0,0,
2026-04-10 02:54:00,METAR KSLC 100254Z 01005KT 10SM FEW085 SCT140 BKN210 BKN250 19/04 A2990 RMK AO2 SLP088 T01940039 55007,0,5,0,16090,0,0,0,
2026-04-10 01:54:00,METAR KSLC 100154Z 34009KT 10SM FEW080 SCT150 BKN200 BKN250 19/04 A2990 RMK AO2 SLP089 VIRGA DSNT SE ACC SW T01940039,0,9,0,16090,0,0,0,DS
2026-04-10 00:54:00,METAR KSLC 100054Z 35006KT 10SM FEW080 SCT140 BKN200 BKN250 22/00 A2991 RMK AO2 SLP091 VIRGA DSNT SE AND SW T02170000,0,6,0,16090,0,0,0,DS
2026-04-09 23:54:00,METAR KSLC 092354Z 34008KT 10SM FEW080 SCT150 BKN250 23/00 A2993 RMK AO2 SLP097 VIRGA DSNT SE-SW T02280000 10239 20194 56012,0,8,0,16090,0,0,0,DS
2026-04-09 22:54:00,METAR KSLC 092254Z 35008KT 10SM FEW080 SCT150 BKN250 23/00 A2993 RMK AO2 SLP096 VIRGA DSNT SE AND S ACC S T02330000,0,8,0,16090,0,0,0,DS
2026-04-09 21:54:00,METAR KSLC 092154Z VRB03KT 10SM FEW080 FEW110 BKN250 23/M02 A2995 RMK AO2 SLP099 VIRGA DSNT S T02331022,0,3,0,16090,0,0,0,DS
2026-04-09 20:54:00,METAR KSLC 092054Z COR 32007KT 10SM FEW090 SCT120 SCT250 23/M01 A2996 RMK AO2 SLP108 VIRGA ACSL DSNT NE T02331006 58019 $,0,7,0,16090,0,0,0,DS
2026-04-09 19:54:00,METAR KSLC 091954Z 06003KT 10SM FEW085 SCT120 SCT250 22/00 A2999 RMK AO2 SLP113 VIRGA T02170000 $,0,3,0,16090,0,0,0,
2026-04-09 18:54:00,METAR KSLC 091854Z 03004KT 10SM FEW085 SCT110 SCT250 21/00 A3001 RMK AO2 SLP125 VIRGA T02060000 $,0,4,0,16090,0,0,0,
2026-04-09 17:54:00,METAR KSLC 091754Z 35004KT 10SM FEW085 SCT100 20/02 A3003 RMK AO2 SLP132 VIRGA T02000022 10200 20094 58001 $,0,4,0,16090,0,0,0,
2026-04-09 16:54:00,METAR KSLC 091654Z 08004KT 10SM FEW085 BKN110 17/04 A3003 RMK AO2 SLP135 VIRGA T01720039 $,0,4,0,16090,0,0,0,
2026-04-09 15:54:00,METAR KSLC 091554Z 32008KT 10SM FEW080 BKN110 BKN200 15/03 A3004 RMK AO2 SLP140 VIRGA T01500028 $,0,8,0,16090,0,0,0,
2026-04-09 14:54:00,METAR KSLC 091454Z 30006KT 10SM FEW080 BKN110 BKN200 14/01 A3003 RMK AO2 SLP135 VIRGA T01390011 53022 $,0,6,0,16090,0,0,0,
2026-04-09 13:54:00,METAR KSLC 091354Z 04010KT 10SM FEW070 SCT090 BKN110 BKN200 12/03 A3000 RMK AO2 SLP125 VIRGA SH DSNT SE T01170028 $,0,10,0,16090,0,0,0,"DS,SH"
2026-04-09 12:54:00,METAR KSLC 091254Z 25003KT 10SM SCT110 BKN140 11/03 A2996 RMK AO2 SLP112 VIRGA DSNT E-SW T01110028 $,0,3,0,16090,0,0,0,DS
2026-04-09 11:54:00,METAR KSLC 091154Z 01007KT 10SM BKN110 BKN180 11/04 A2996 RMK AO2 SLP110 T01060044 10144 20106 55001 $,0,7,0,16090,0,0,0,
2026-04-09 10:54:00,METAR KSLC 091054Z 11005KT 10SM FEW100 BKN180 13/01 A2994 RMK AO2 SLP102 T01280011 $,0,5,0,16090,0,0,0,
2026-04-09 09:54:00,METAR KSLC 090954Z 00000KT 10SM SCT110 BKN140 13/02 A2996 RMK AO2 SLP107 T01330017 $,0,0,0,16090,0,0,0,
2026-04-09 08:54:00,METAR KSLC 090854Z 36004KT 10SM SCT110 BKN140 BKN190 12/02 A2996 RMK AO2 PRESRR SLP109 T01220017 51003 $,0,4,0,16090,0,0,0,
2026-04-09 07:54:00,METAR KSLC 090754Z 12004KT 10SM FEW110 BKN140 14/M02 A2995 RMK AO2 SLP103 T01441017 $,0,4,0,16090,0,0,0,
2026-04-09 06:54:00,METAR KSLC 090654Z 13008KT 10SM SCT120 13/M01 A2997 RMK AO2 SLP112 T01331006 402170089 $,0,8,0,16090,0,0,0,
2026-04-09 05:54:00,METAR KSLC 090554Z 13006KT 10SM FEW120 13/M01 A2995 RMK AO2 SLP107 T01331006 10211 20133 53005 $,0,6,0,16090,0,0,0,
2026-04-09 04:54:00,METAR KSLC 090454Z 15006KT 10SM FEW120 14/00 A2994 RMK AO2 SLP102 T01390000 $,0,6,0,16090,0,0,0,
2026-04-09 03:54:00,METAR KSLC 090354Z 17005KT 10SM FEW120 FEW250 15/00 A2994 RMK AO2 SLP103 T01500000 $,0,5,0,16090,0,0,0,
2026-04-09 02:54:00,METAR KSLC 090254Z 20003KT 10SM FEW120 SCT250 18/M02 A2993 RMK AO2 SLP101 T01831017 55008 $,0,3,0,16090,0,0,0,
2026-04-09 01:54:00,METAR KSLC 090154Z 34003KT 10SM FEW120 FEW200 SCT250 19/00 A2993 RMK AO2 SLP104 T01890000 $,0,3,0,16090,0,0,0,
2026-04-09 00:54:00,METAR KSLC 090054Z 01007KT 10SM FEW090 FEW120 FEW200 BKN250 21/M02 A2995 RMK AO2 SLP108 T02061022 $,0,7,0,16090,0,0,0,
2026-04-08 23:54:00,METAR KSLC 082354Z 01005KT 10SM FEW090 FEW120 BKN250 21/M02 A2996 RMK AO2 SLP112 ACSL DSNT W T02111022 10217 20183 56015 $,0,5,0,16090,0,0,0,DS
2026-04-08 22:54:00,METAR KSLC 082254Z VRB04KT 10SM FEW090 FEW120 BKN250 21/M03 A2997 RMK AO2 SLP114 T02111028 $,0,4,0,16090,0,0,0,
2026-04-08 21:54:00,METAR KSLC 082154Z 36011G19KT 10SM FEW080 FEW120 BKN250 21/M02 A2999 RMK AO2 SLP122 ACSL DSNT N T02111017 $,0,11,1,16090,0,0,0,DS
2026-04-08 20:54:00,METAR KSLC 082054Z 32011KT 10SM FEW080 FEW120 BKN250 21/M02 A3001 RMK AO2 SLP126 ACSL DSNT SE AND W T02111022 56011 $,0,11,0,16090,0,0,0,DS
2026-04-08 19:54:00,METAR KSLC 081954Z 33009G15KT 10SM FEW075 FEW100 BKN250 21/M02 A3001 RMK AO2 SLP128 T02111017 $,0,9,1,16090,0,0,0,
2026-04-08 18:54:00,METAR KSLC 081854Z 28007KT 10SM FEW075 FEW100 BKN250 19/M02 A3003 RMK AO2 SLP136 T01941017 $,0,7,0,16090,0,0,0,
2026-04-08 17:54:00,METAR KSLC 081754Z 34006KT 10SM FEW075 SCT095 BKN250 18/01 A3005 RMK AO2 SLP140 ACSL DSNT SE T01830006 10189 20089 51008 $,0,6,0,16090,0,0,0,DS
2026-04-08 16:54:00,METAR KSLC 081654Z 00000KT 10SM FEW090 FEW130 BKN250 18/01 A3005 RMK AO2 SLP137 ACSL DSNT E AND SE T01830011 $,0,0,0,16090,0,0,0,DS
2026-04-08 15:54:00,METAR KSLC 081554Z VRB03KT 10SM FEW090 FEW130 SCT250 17/01 A3003 RMK AO2 SLP133 T01670011 $,0,3,0,16090,0,0,0,
2026-04-08 14:54:00,METAR KSLC 081454Z 14005KT 10SM FEW120 SCT250 14/02 A3002 RMK AO2 SLP128 T01390017 53013 $,0,5,0,16090,0,0,0,
2026-04-08 13:54:00,METAR KSLC 081354Z 14004KT 10SM FEW120 SCT250 11/01 A3000 RMK AO2 SLP126 T01110011 $,0,4,0,16090,0,0,0,
2026-04-08 12:54:00,METAR KSLC 081254Z 15006KT 8SM FEW090 SCT250 09/01 A2998 RMK AO2 SLP119 T00890011 $,0,6,0,12872,0,0,0,
2026-04-08 11:54:00,METAR KSLC 081154Z 14006KT 10SM CLR 09/01 A2998 RMK AO2 SLP114 T00940006 10139 20089 53007 $,0,6,0,16090,0,0,0,
2026-04-08 10:54:00,METAR KSLC 081054Z 13004KT 10SM FEW090 11/00 A2997 RMK AO2 SLP110 T01060000 $,0,4,0,16090,0,0,0,
2026-04-08 09:54:00,METAR KSLC 080954Z 21004KT 10SM CLR 10/01 A2996 RMK AO2 SLP109 T01000006 $,0,4,0,16090,0,0,0,
2026-04-08 08:54:00,METAR KSLC 080854Z 13003KT 10SM CLR 12/M01 A2995 RMK AO2 SLP104 T01221011 53006 $,0,3,0,16090,0,0,0,
2026-04-08 07:54:00,METAR KSLC 080754Z 14005KT 10SM FEW230 12/M02 A2994 RMK AO2 SLP101 T01221022 $,0,5,0,16090,0,0,0,
2026-04-08 06:54:00,METAR KSLC 080654Z 14005KT 10SM FEW240 13/M02 A2994 RMK AO2 SLP098 T01281017 402390083 $,0,5,0,16090,0,0,0,
2026-04-08 05:54:00,METAR KSLC 080554Z 14005KT 10SM FEW190 14/M02 A2993 RMK AO2 SLP097 T01391022 10233 20139 51008 $,0,5,0,16090,0,0,0,
2026-04-08 04:54:00,METAR KSLC 080454Z 12004KT 10SM FEW120 BKN250 16/M02 A2992 RMK AO2 SLP095 T01561022 $,0,4,0,16090,0,0,0,
2026-04-08 03:54:00,METAR KSLC 080354Z 20004KT 10SM FEW120 BKN250 16/M01 A2992 RMK AO2 SLP096 T01611011 $,0,4,0,16090,0,0,0,
2026-04-08 02:54:00,METAR KSLC 080254Z 00000KT 10SM FEW120 BKN250 20/M05 A2990 RMK AO2 SLP089 T02001050 55005 $,0,0,0,16090,0,0,0,
2026-04-08 01:54:00,METAR KSLC 080154Z 00000KT 10SM FEW090 FEW150 BKN250 21/M05 A2990 RMK AO2 SLP090 SH DSNT NE T02111050 $,0,0,0,16090,0,0,0,"DS,SH"
2026-04-08 00:54:00,METAR KSLC 080054Z 26005KT 10SM FEW100 BKN250 23/M06 A2991 RMK AO2 SLP094 VIRGA T02281061 $,0,5,0,16090,0,0,0,
2026-04-07 23:54:00,METAR KSLC 072354Z VRB06KT 10SM FEW100 FEW140 BKN250 23/M07 A2992 RMK AO2 SLP097 VIRGA T02331067 10239 20206 56014 $,0,6,0,16090,0,0,0,
2026-04-07 22:54:00,METAR KSLC 072254Z 29012G19KT 10SM FEW100 BKN250 23/M06 A2993 RMK AO2 SLP100 VIRGA T02331056 $,0,12,1,16090,0,0,0,
2026-04-07 21:54:00,METAR KSLC 072154Z 30011G22KT 10SM FEW100 FEW150 BKN250 23/M04 A2995 RMK AO2 SLP106 VIRGA ACSL DSNT N AND W T02331044 $,0,11,1,16090,0,0,0,DS
2026-04-07 20:54:00,METAR KSLC 072054Z 32010KT 10SM FEW095 FEW150 BKN230 23/M05 A2997 RMK AO2 SLP112 VIRGA T02331050 56016 $,0,10,0,16090,0,0,0,
2026-04-07 19:54:00,METAR KSLC 071954Z 29007KT 10SM FEW095 FEW150 SCT230 23/M04 A2998 RMK AO2 SLP115 T02281044 $,0,7,0,16090,0,0,0,
2026-04-07 18:54:00,METAR KSLC 071854Z VRB04KT 10SM FEW095 FEW150 SCT230 22/M04 A3000 RMK AO2 SLP120 ACSL DSNT NE T02221039 $,0,4,0,16090,0,0,0,DS
2026-04-07 17:54:00,METAR KSLC 071754Z 17006KT 10SM FEW095 FEW150 FEW230 21/M02 A3002 RMK AO2 SLP129 ACSL DSNT NW T02061022 10206 20083 58002 $,0,6,0,16090,0,0,0,DS
2026-04-07 16:54:00,METAR KSLC 071654Z 16008KT 10SM FEW090 FEW200 18/M01 A3002 RMK AO2 SLP133 T01831006 $,0,8,0,16090,0,0,0,
2026-04-07 15:54:00,METAR KSLC 071554Z 14010KT 10SM FEW200 16/00 A3003 RMK AO2 SLP135 T01610000 $,0,10,0,16090,0,0,0,
2026-04-07 14:54:00,METAR KSLC 071454Z 14007KT 10SM CLR 13/01 A3002 RMK AO2 SLP136 T01280006 53005 $,0,7,0,16090,0,0,0,
2026-04-07 13:54:00,METAR KSLC 071354Z 14008KT 9SM CLR 10/M01 A3001 RMK AO2 SLP136 T01001006 $,0,8,0,14481,0,0,0,
2026-04-07 12:54:00,METAR KSLC 071254Z 15007KT 10SM FEW150 08/M03 A3001 RMK AO2 SLP134 T00831028 $,0,7,0,16090,0,0,0,
2026-04-07 11:54:00,METAR KSLC 071154Z 14006KT 10SM CLR 09/M03 A3001 RMK AO2 SLP128 T00891028 10133 20083 53001 $,0,6,0,16090,0,0,0,
2026-04-07 10:54:00,METAR KSLC 071054Z 12008KT 10SM CLR 08/M01 A3000 RMK AO2 SLP128 T00831006 $,0,8,0,16090,0,0,0,
2026-04-07 09:54:00,METAR KSLC 070954Z 14007KT 10SM FEW170 08/00 A3000 RMK AO2 SLP128 T00830000 $,0,7,0,16090,0,0,0,
2026-04-07 08:54:00,METAR KSLC 070854Z 16008KT 10SM FEW170 09/00 A3000 RMK AO2 SLP128 T00890000 50002 $,0,8,0,16090,0,0,0,
2026-04-07 07:54:00,METAR KSLC 070754Z 22003KT 10SM FEW170 11/M01 A3001 RMK AO2 SLP128 T01111006 $,0,3,0,16090,0,0,0,
2026-04-07 06:54:00,METAR KSLC 070654Z 00000KT 10SM FEW200 12/M03 A3000 RMK AO2 SLP126 T01221033 402280061 $,0,0,0,16090,0,0,0,
2026-04-07 05:54:00,METAR KSLC 070554Z 15004KT 10SM FEW240 13/M01 A2999 RMK AO2 SLP124 T01281006 10217 20122 51009 $,0,4,0,16090,0,0,0,
2026-04-07 04:54:00,METAR KSLC 070454Z 24003KT 10SM FEW190 BKN240 14/01 A2999 RMK AO2 SLP124 T01390011 $,0,3,0,16090,0,0,0,
2026-04-07 03:54:00,METAR KSLC 070354Z 00000KT 10SM FEW150 FEW190 BKN240 16/01 A2999 RMK AO2 SLP124 T01560011 $,0,0,0,16090,0,0,0,
2026-04-07 02:54:00,METAR KSLC 070254Z 26005KT 10SM FEW150 BKN190 BKN250 17/01 A2997 RMK AO2 SLP118 T01670006 55006 $,0,5,0,16090,0,0,0,
2026-04-07 01:54:00,METAR KSLC 070154Z 35004KT 10SM FEW150 BKN190 BKN250 16/03 A2996 RMK AO2 SLP121 ACSL DSNT NE-E T01610033 $,0,4,0,16090,0,0,0,DS
2026-04-07 00:54:00,METAR KSLC 070054Z 32008KT 10SM FEW100 FEW150 BKN190 BKN250 19/M02 A2997 RMK AO2 SLP123 VIRGA ACSL DSNT NE AND NW T01941017 $,0,8,0,16090,0,0,0,DS
2026-04-06 23:54:00,METAR KSLC 062354Z 36009KT 10SM FEW100 FEW180 SCT220 BKN250 22/M04 A2998 RMK AO2 SLP123 VIRGA T02171039 10228 20183 56013 $,0,9,0,16090,0,0,0,
2026-04-06 22:54:00,METAR KSLC 062254Z 34012KT 10SM FEW100 FEW150 SCT220 BKN250 22/M02 A2999 RMK AO2 SLP127 VIRGA T02171017 $,0,12,0,16090,0,0,0,
2026-04-06 21:54:00,METAR KSLC 062154Z 36010KT 10SM FEW100 FEW150 BKN220 22/M03 A3001 RMK AO2 SLP132 VIRGA T02171028 $,0,10,0,16090,0,0,0,
2026-04-06 20:54:00,METAR KSLC 062054Z 34010KT 10SM FEW095 FEW140 BKN220 21/03 A3003 RMK AO2 SLP138 T02110033 56021 $,0,10,0,16090,0,0,0,
2026-04-06 19:54:00,METAR KSLC 061954Z 31008KT 10SM FEW095 SCT150 BKN230 21/03 A3004 RMK AO2 SLP141 VIRGA T02060028 $,0,8,0,16090,0,0,0,
2026-04-06 18:54:00,METAR KSLC 061854Z VRB03KT 10SM FEW095 SCT150 BKN230 19/M01 A3007 RMK AO2 SLP155 VIRGA T01941011 $,0,3,0,16090,0,0,0,
2026-04-06 17:54:00,METAR KSLC 061754Z 00000KT 10SM FEW150 SCT230 18/M02 A3010 RMK AO2 SLP163 T01831022 10183 20061 58008 $,0,0,0,16090,0,0,0,
2026-04-06 16:54:00,METAR KSLC 061654Z 00000KT 10SM FEW160 SCT230 16/01 A3011 RMK AO2 SLP167 T01610006 $,0,0,0,16090,0,0,0,
2026-04-06 15:54:00,METAR KSLC 061554Z 00000KT 10SM FEW200 13/01 A3012 RMK AO2 SLP171 T01330006 $,0,0,0,16090,0,0,0,
2026-04-06 14:54:00,METAR KSLC 061454Z 12004KT 10SM FEW200 11/01 A3013 RMK AO2 SLP178 T01110011 53001 $,0,4,0,16090,0,0,0,
2026-04-06 13:54:00,METAR KSLC 061354Z 13007KT 10SM FEW170 FEW250 09/01 A3012 RMK AO2 SLP175 T00890006 $,0,7,0,16090,0,0,0,
2026-04-06 12:54:00,METAR KSLC 061254Z 12007KT 10SM FEW250 07/00 A3012 RMK AO2 SLP175 T00670000 $,0,7,0,16090,0,0,0,
2026-04-06 11:54:00,METAR KSLC 061154Z 12006KT 10SM CLR 07/00 A3012 RMK AO2 SLP176 T00670000 10100 20061 55008 $,0,6,0,16090,0,0,0,
2026-04-06 10:54:00,METAR KSLC 061054Z 13006KT 10SM FEW250 07/01 A3012 RMK AO2 SLP175 T00670011 $,0,6,0,16090,0,0,0,
2026-04-06 09:54:00,METAR KSLC 060954Z 16007KT 10SM FEW260 07/01 A3013 RMK AO2 SLP179 T00720011 $,0,7,0,16090,0,0,0,
2026-04-06 08:54:00,METAR KSLC 060854Z 14006KT 10SM FEW260 07/01 A3015 RMK AO2 SLP185 T00720011 58004 $,0,6,0,16090,0,0,0,
2026-04-06 07:54:00,METAR KSLC 060754Z 15005KT 10SM FEW260 09/M01 A3016 RMK AO2 SLP188 T00891006 $,0,5,0,16090,0,0,0,
2026-04-06 06:54:00,METAR KSLC 060654Z 13006KT 10SM FEW260 09/01 A3016 RMK AO2 SLP188 T00890011 401940028 $,0,6,0,16090,0,0,0,
2026-04-06 05:54:00,METAR KSLC 060554Z 15005KT 10SM SCT260 10/01 A3016 RMK AO2 SLP190 T01000011 10183 20100 58002 $,0,5,0,16090,0,0,0,
2026-04-06 04:54:00,METAR KSLC 060454Z 15007KT 10SM SCT250 11/02 A3017 RMK AO2 SLP193 T01110017 $,0,7,0,16090,0,0,0,
2026-04-06 03:54:00,METAR KSLC 060354Z 11004KT 10SM BKN250 14/02 A3018 RMK AO2 SLP195 T01440022 $,0,4,0,16090,0,0,0,
2026-04-06 02:54:00,METAR KSLC 060254Z 02005KT 10SM BKN250 13/04 A3017 RMK AO2 SLP197 T01280039 55002 $,0,5,0,16090,0,0,0,
2026-04-06 01:54:00,METAR KSLC 060154Z 32008KT 10SM BKN250 16/04 A3016 RMK AO2 SLP193 T01560039 $,0,8,0,16090,0,0,0,
2026-04-06 00:54:00,METAR KSLC 060054Z 28010KT 10SM FEW220 BKN250 17/01 A3017 RMK AO2 SLP196 T01720011 $,0,10,0,16090,0,0,0,
2026-04-05 23:54:00,METAR KSLC 052354Z 29010KT 10SM BKN250 18/03 A3018 RMK AO2 SLP199 T01830028 10194 20139 56022 $,0,10,0,16090,0,0,0,
2026-04-05 22:54:00,METAR KSLC 052254Z 34009KT 10SM BKN250 19/M01 A3019 RMK AO2 SLP202 T01891011 $,0,9,0,16090,0,0,0,
2026-04-05 21:54:00,METAR KSLC 052154Z 35007KT 10SM BKN250 18/M01 A3022 RMK AO2 SLP212 T01831006 $,0,7,0,16090,0,0,0,
2026-04-05 20:54:00,METAR KSLC 052054Z 35005KT 10SM SCT200 18/M01 A3025 RMK AO2 SLP220 T01781006 58020 $,0,5,0,16090,0,0,0,
2026-04-05 19:54:00,METAR KSLC 051954Z VRB05KT 10SM SCT200 17/M01 A3027 RMK AO2 SLP233 T01671006 $,0,5,0,16090,0,0,0,
2026-04-05 18:54:00,METAR KSLC 051854Z 32006KT 10SM SCT200 16/00 A3030 RMK AO2 SLP241 T01560000 $,0,6,0,16090,0,0,0,
2026-04-05 17:54:00,METAR KSLC 051754Z 32004KT 10SM SCT200 14/01 A3031 RMK AO2 SLP247 T01440006 10144 20028 57006 $,0,4,0,16090,0,0,0,
2026-04-05 16:54:00,METAR KSLC 051654Z VRB03KT 10SM FEW200 13/M01 A3032 RMK AO2 SLP249 T01281011 $,0,3,0,16090,0,0,0,
2026-04-05 15:54:00,METAR KSLC 051554Z 11003KT 10SM SCT200 11/M02 A3033 RMK AO2 SLP254 T01111017 $,0,3,0,16090,0,0,0,
2026-04-05 14:54:00,METAR KSLC 051454Z 12003KT 10SM FEW200 08/01 A3034 RMK AO2 SLP257 T00830006 53006 $,0,3,0,16090,0,0,0,
2026-04-05 12:54:00,METAR KSLC 051254Z 12004KT 10SM CLR 03/M01 A3032 RMK AO2 SLP254 T00331006 $,0,4,0,16090,0,0,0,
2026-04-05 11:54:00,METAR KSLC 051154Z 15004KT 10SM CLR 03/00 A3032 RMK AO2 SLP254 T00330000 10078 20033 56006 $,0,4,0,16090,0,0,0,
2026-04-05 10:54:00,METAR KSLC 051054Z 15005KT 10SM CLR 05/01 A3032 RMK AO2 SLP253 T00500006 $,0,5,0,16090,0,0,0,
2026-04-05 09:54:00,METAR KSLC 050954Z 14005KT 10SM CLR 05/01 A3033 RMK AO2 SLP257 T00500006 $,0,5,0,16090,0,0,0,
2026-04-05 08:54:00,METAR KSLC 050854Z 23003KT 10SM CLR 07/01 A3034 RMK AO2 SLP256 T00670006 58001 $,0,3,0,16090,0,0,0,
2026-04-05 07:54:00,METAR KSLC 050754Z 14005KT 10SM CLR 06/01 A3034 RMK AO2 SLP261 T00560006 $,0,5,0,16090,0,0,0,
2026-04-05 06:54:00,METAR KSLC 050654Z 12004KT 10SM CLR 07/01 A3034 RMK AO2 SLP259 T00670011 401440006 $,0,4,0,16090,0,0,0,
2026-04-05 05:54:00,METAR KSLC 050554Z 17004KT 10SM CLR 07/01 A3034 RMK AO2 SLP260 T00720011 10139 20072 50002 $,0,4,0,16090,0,0,0,
2026-04-05 04:54:00,METAR KSLC 050454Z 21003KT 10SM CLR 09/01 A3035 RMK AO2 SLP263 T00890011 $,0,3,0,16090,0,0,0,
2026-04-05 03:54:00,METAR KSLC 050354Z 25004KT 10SM CLR 09/02 A3034 RMK AO2 SLP264 T00940022 $,0,4,0,16090,0,0,0,
2026-04-05 02:54:00,METAR KSLC 050254Z 33007KT 10SM CLR 11/01 A3033 RMK AO2 SLP261 T01110011 53001 $,0,7,0,16090,0,0,0,
2026-04-05 01:54:00,METAR KSLC 050154Z 32007KT 10SM FEW210 12/00 A3032 RMK AO2 SLP261 T01220000 $,0,7,0,16090,0,0,0,
2026-04-05 00:54:00,METAR KSLC 050054Z 33008KT 10SM CLR 13/00 A3033 RMK AO2 SLP262 T01330000 $,0,8,0,16090,0,0,0,
2026-04-04 23:54:00,METAR KSLC 042354Z 35009G15KT 10SM CLR 14/01 A3033 RMK AO2 SLP262 T01390006 10144 20111 56016 $,0,9,1,16090,0,0,0,
2026-04-04 22:54:00,METAR KSLC 042254Z 35008KT 10SM FEW055 14/01 A3035 RMK AO2 SLP267 T01390011 $,0,8,0,16090,0,0,0,
2026-04-04 21:54:00,METAR KSLC 042154Z 35009KT 10SM FEW055 14/00 A3036 RMK AO2 SLP270 T01390000 $,0,9,0,16090,0,0,0,
2026-04-04 20:54:00,METAR KSLC 042054Z 34008KT 10SM FEW050 14/M01 A3039 RMK AO2 SLP279 T01391011 56014 $,0,8,0,16090,0,0,0,
2026-04-04 19:54:00,METAR KSLC 041954Z 36008KT 10SM FEW050 13/M02 A3040 RMK AO2 SLP286 T01281017 $,0,8,0,16090,0,0,0,
2026-04-04 18:54:00,METAR KSLC 041854Z 36009KT 10SM FEW050 12/M01 A3042 RMK AO2 SLP291 T01221006 $,0,9,0,16090,0,0,0,
2026-04-04 17:54:00,METAR KSLC 041754Z 35006KT 10SM FEW050 11/M02 A3043 RMK AO2 SLP299 T01111022 10111 20006 56003 $,0,6,0,16090,0,0,0,
2026-04-04 16:54:00,METAR KSLC 041654Z 00000KT 10SM CLR 09/M03 A3044 RMK AO2 SLP301 T00941033 $,0,0,0,16090,0,0,0,
2026-04-04 15:54:00,METAR KSLC 041554Z 16007KT 10SM CLR 08/M02 A3044 RMK AO2 SLP301 T00781022 $,0,7,0,16090,0,0,0,
2026-04-04 14:54:00,METAR KSLC 041454Z 16007KT 10SM CLR 05/M02 A3044 RMK AO2 SLP306 T00501022 51008 $,0,7,0,16090,0,0,0,
2026-04-04 13:54:00,METAR KSLC 041354Z 13006KT 10SM CLR 02/M03 A3044 RMK AO2 SLP310 T00171028 $,0,6,0,16090,0,0,0,
2026-04-04 12:54:00,METAR KSLC 041254Z 13006KT 10SM CLR 01/M03 A3043 RMK AO2 SLP302 T00111033 $,0,6,0,16090,0,0,0,
2026-04-04 11:54:00,METAR KSLC 041154Z 15005KT 10SM CLR 02/M03 A3042 RMK AO2 SLP299 T00171028 10033 20011 58000 $,0,5,0,16090,0,0,0,
2026-04-04 10:54:00,METAR KSLC 041054Z 15003KT 10SM CLR 02/M03 A3042 RMK AO2 SLP301 T00171028 $,0,3,0,16090,0,0,0,
2026-04-04 09:54:00,METAR KSLC 040954Z 14005KT 10SM CLR 02/M03 A3042 RMK AO2 SLP302 T00221028 $,0,5,0,16090,0,0,0,
2026-04-04 08:54:00,METAR KSLC 040854Z 14005KT 10SM CLR 02/M02 A3042 RMK AO2 SLP302 T00221022 51003 $,0,5,0,16090,0,0,0,
2026-04-04 07:54:00,METAR KSLC 040754Z 14006KT 10SM CLR 03/M02 A3042 RMK AO2 SLP299 T00281022 $,0,6,0,16090,0,0,0,
2026-04-04 06:54:00,METAR KSLC 040654Z 12004KT 10SM CLR 03/M03 A3042 RMK AO2 SLP302 T00281028 400940011 $,0,4,0,16090,0,0,0,
2026-04-04 05:54:00,METAR KSLC 040554Z 16005KT 10SM CLR 03/M02 A3041 RMK AO2 SLP299 T00331017 10089 20033 50005 $,0,5,0,16090,0,0,0,
2026-04-04 04:54:00,METAR KSLC 040454Z 13005KT 10SM CLR 04/M02 A3042 RMK AO2 SLP301 T00391017 $,0,5,0,16090,0,0,0,
2026-04-04 03:54:00,METAR KSLC 040354Z 00000KT 10SM FEW100 06/M03 A3042 RMK AO2 SLP299 T00611028 $,0,0,0,16090,0,0,0,
2026-04-04 02:54:00,METAR KSLC 040254Z 27005KT 10SM FEW080 07/M02 A3039 RMK AO2 SLP290 T00671022 53010 $,0,5,0,16090,0,0,0,
2026-04-04 01:54:00,METAR KSLC 040154Z 28006KT 10SM FEW070 07/M03 A3037 RMK AO2 SLP284 T00721033 $,0,6,0,16090,0,0,0,
2026-04-04 00:54:00,METAR KSLC 040054Z 30006KT 10SM FEW060 08/M03 A3036 RMK AO2 SLP280 T00831028 $,0,6,0,16090,0,0,0,
2026-04-03 23:54:00,METAR KSLC 032354Z 29006KT 10SM FEW050 09/M04 A3036 RMK AO2 SLP278 T00891039 10094 20050 56005 $,0,6,0,16090,0,0,0,
2026-04-03 22:54:00,METAR KSLC 032254Z 32005KT 10SM FEW050 09/M03 A3036 RMK AO2 SLP278 T00891028 $,0,5,0,16090,0,0,0,
2026-04-03 21:54:00,METAR KSLC 032154Z VRB03KT 10SM SCT046 BKN055 07/M04 A3037 RMK AO2 SLP284 T00721039 $,0,3,0,16090,0,0,0,
2026-04-03 20:54:00,METAR KSLC 032054Z 30005KT 10SM BKN050 BKN060 07/M04 A3037 RMK AO2 SLP284 T00671039 50001 $,0,5,0,16090,0,0,0,
2026-04-03 19:54:00,METAR KSLC 031954Z 31010KT 10SM BKN045 BKN060 07/M03 A3037 RMK AO2 SLP285 T00671033 $,0,10,0,16090,0,0,0,
2026-04-03 18:54:00,METAR KSLC 031854Z 28007KT 10SM BKN047 BKN060 06/M03 A3037 RMK AO2 SLP287 T00611033 $,0,7,0,16090,0,0,0,
2026-04-03 17:54:00,METAR KSLC 031754Z 29011G18KT 10SM BKN042 BKN065 06/M03 A3037 RMK AO2 SLP284 T00561033 10067 20011 51020 $,0,11,1,16090,0,0,0,
2026-04-03 16:54:00,METAR KSLC 031654Z 28008KT 10SM BKN041 BKN049 04/M04 A3035 RMK AO2 SLP277 T00441039 $,0,8,0,16090,0,0,0,
2026-04-03 15:54:00,METAR KSLC 031554Z 27009KT 10SM BKN038 BKN046 04/M04 A3033 RMK AO2 SLP272 T00391044 $,0,9,0,16090,0,0,0,
2026-04-03 14:54:00,METAR KSLC 031454Z 27007KT 10SM SCT045 BKN055 04/M04 A3030 RMK AO2 SLP261 T00391044 51021 $,0,7,0,16090,0,0,0,
2026-04-03 13:54:00,METAR KSLC 031354Z 28005KT 10SM FEW045 BKN060 03/M04 A3028 RMK AO2 SLP256 T00281044 $,0,5,0,16090,0,0,0,
2026-04-03 12:54:00,METAR KSLC 031254Z 29006KT 10SM BKN055 02/M04 A3026 RMK AO2 SLP247 T00221039 $,0,6,0,16090,0,0,0,
2026-04-03 11:54:00,METAR KSLC 031154Z 27005KT 10SM FEW060 01/M04 A3023 RMK AO2 SLP239 70028 T00111044 10033 20011 53014 $,0,5,0,16090,0,0,0,
2026-04-03 08:54:00,METAR KSLC 030854Z 30012KT 10SM FEW060 03/M06 A3018 RMK AO2 SLP225 T00281056 51020 $,0,12,0,16090,0,0,0,
2026-04-03 05:54:00,METAR KSLC 030554Z 33010KT 10SM FEW065 SCT085 SCT100 03/M05 A3012 RMK AO2 SLP201 T00331050 10067 20033 51027 $,0,10,0,16090,0,0,0,
2026-04-03 04:54:00,METAR KSLC 030454Z 31011KT 10SM FEW075 BKN100 04/M06 A3009 RMK AO2 SLP190 T00391061 $,0,11,0,16090,0,0,0,
2026-04-03 03:54:00,METAR KSLC 030354Z 27011KT 10SM SCT055 SCT070 BKN095 04/M04 A3006 RMK AO2 SLP175 T00391044 $,0,11,0,16090,0,0,0,
2026-04-03 02:54:00,METAR KSLC 030254Z 31012KT 10SM FEW075 SCT130 SCT210 04/M06 A3002 RMK AO2 SLP153 CB DSNT NE AND SW T00441061 51022 $,0,12,0,16090,0,0,0,DS
2026-04-03 01:54:00,METAR KSLC 030154Z 31010KT 10SM FEW050 SCT085 BKN180 05/M06 A3000 RMK AO2 SLP143 SH DSNT N AND SW T00501061 $,0,10,0,16090,0,0,0,"DS,SH"
2026-04-03 00:54:00,METAR KSLC 030054Z COR 32015G20KT 10SM FEW048 SCT100 BKN200 07/M06 A2998 RMK AO2 SLP138 T00671056 $,0,15,1,16090,0,0,0,
2026-04-02 23:54:00,METAR KSLC 022354Z 03015G24KT 10SM FEW036 SCT055 BKN075 BKN210 05/M01 A2995 RMK AO2 PK WND 01026/2332 RAE2259B19E35 SLP128 CB DSNT NE-S ACSL DSNT W SH E-SW P0000 60013 T00501011 10061 20006 53010 $,0,15,1,16090,0,0,0,"DS,RA,SH"
2026-04-02 22:54:00,METAR KSLC 022254Z 35018G25KT 320V020 10SM -RA SCT047 BKN065 BKN075 05/M01 A2992 RMK AO2 RAB45 SLP121 CB DSNT NW-NE AND S P0000 T00501011 $,0,18,1,16090,0,0,0,"-RA,DS"
2026-04-02 21:54:00,METAR KSLC 022154Z 16005KT 10SM SCT037 BKN045 BKN100 04/M01 A2990 RMK AO2 SLP114 SH DSNT N AND S T00391011 $,0,5,0,16090,0,0,0,"DS,SH"
2026-04-02 20:54:00,METAR KSLC 022054Z 11009KT 10SM FEW010 SCT045 BKN060 03/01 A2992 RMK AO2 SNE17 SLP123 VCSH P0004 60013 T00280006 50020 $,0,9,0,16090,0,0,0,"SH,VC"
2026-04-02 20:35:00,SPECI KSLC 022035Z 04007KT 10SM FEW010 BKN038 BKN047 02/01 A2993 RMK AO2 SNE17 VCSH P0004 T00220006 $,0,7,0,16090,0,0,0,"SH,VC"
2026-04-02 20:18:00,SPECI KSLC 022018Z 02010KT 8SM FEW005 BKN020 BKN044 01/00 A2992 RMK AO2 SNE17 VCSH P0004 T00110000 $,0,10,0,12872,0,0,0,"SH,VC"
2026-04-02 20:09:00,SPECI KSLC 022009Z 36009KT 6SM R16L/5500VP6000FT -SN BR FEW006 OVC012 01/00 A2993 RMK AO2 P0004 T00060000 $,0,9,0,9654,0,0,1,"BR,SN"
2026-04-02 20:06:00,SPECI KSLC 022006Z 35009KT 2SM R16L/5500VP6000FT -SN BR OVC007 01/00 A2993 RMK AO2 SFC VIS 4 P0004 T00060000 $,0,9,0,3218,0,0,1,"BR,FC,SN"
2026-04-02 19:54:00,METAR KSLC 021954Z 33017KT 1 1/2SM R16L/3000VP6000FT -SN BR OVC007 01/00 A2993 RMK AO2 TWR VIS 2 RAE44SNB35 SLP128 P0006 T00060000 $,0,17,0,2414,0,0,1,"BR,RA,SN"
2026-04-02 19:46:00,SPECI KSLC 021946Z 31014KT 1SM R16L/3000VP6000FT -SN BR BKN006 BKN011 OVC016 02/01 A2992 RMK AO2 TWR VIS 2 RAE44SNB35 PRESRR P0003 T00170011 $,0,14,0,1609,0,0,1,"BR,RA,SN"
2026-04-02 19:38:00,SPECI KSLC 021938Z 29011KT 2SM -RASN BR BKN008 BKN013 OVC030 03/02 A2991 RMK AO2 SFC VIS 3 SNB35 P0002 T00280017 $,0,11,0,3218,0,0,1,"-RA,BR,FC,SN"
2026-04-02 19:36:00,SPECI KSLC 021936Z 28009KT 3SM -RASN SCT008 BKN013 OVC031 03/02 A2990 RMK AO2 SFC VIS 9 SNB35 P0002 T00280017 $,0,9,0,4827,0,0,0,"-RA,FC,SN"
2026-04-02 19:12:00,SPECI KSLC 021912Z 31007KT 3SM -RA FEW007 SCT011 OVC020 03/01 A2988 RMK AO2 SFC VIS 9 CIG 014 NW RNWY P0002 T00280011 $,0,7,0,4827,0,0,0,"-RA,FC"
2026-04-02 19:07:00,SPECI KSLC 021907Z 34007KT 3SM -RA BR BKN009 OVC017 03/01 A2987 RMK AO2 SFC VIS 6 P0002 T00280011 $,0,7,0,4827,0,0,1,"-RA,BR,FC"
2026-04-02 19:05:00,SPECI KSLC 021905Z 34007KT 3SM -RA BR FEW007 SCT011 OVC017 03/01 A2987 RMK AO2 SFC VIS 6 P0001 T00280011 $,0,7,0,4827,0,0,1,"-RA,BR,FC"
2026-04-02 18:54:00,METAR KSLC 021854Z 33006KT 3SM -RA BR FEW011 OVC018 03/01 A2988 RMK AO2 SFC VIS 6 RAB08SNE08 SLP110 P0003 T00280011 $,0,6,0,4827,0,0,1,"-RA,BR,FC,RA"
2026-04-02 18:09:00,SPECI KSLC 021809Z 02011KT 3SM -RA FEW016 BKN028 OVC038 03/01 A2985 RMK AO2 SFC VIS 9 RAB08SNE08 P0001 T00280011 $,0,11,0,4827,0,0,0,"-RA,FC,RA"
2026-04-02 17:54:00,METAR KSLC 021754Z 02011KT 3SM -SN BR FEW006 BKN017 OVC033 02/02 A2985 RMK AO2 PK WND 34030/1707 SFC VIS 4 RAE14SNE1659B14GSB1659E14 SLP101 P0008 60015 T00220017 10117 20017 51062 $,0,11,0,4827,0,0,1,"BR,FC,RA,SN"
2026-04-02 17:51:00,SPECI KSLC 021751Z 01013KT 3SM -SN BR FEW006 BKN016 OVC034 02/01 A2984 RMK AO2 PK WND 34030/1707 SFC VIS 4 RAE14SNE1659B14GSB1659E14 P0008 $,0,13,0,4827,0,0,1,"BR,FC,RA,SN"
2026-04-02 17:40:00,SPECI KSLC 021740Z 01016KT 2SM -SN BR SCT007 OVC011 02/01 A2984 RMK AO2 PK WND 34030/1707 SFC VIS 3 RAE14SNE1659B14GSB1659E14 CB DSNT SE P0007 T00170006 $,0,16,0,3218,0,0,1,"BR,DS,FC,RA,SN"
2026-04-02 17:26:00,SPECI KSLC 021726Z 35019KT 1 1/2SM -SN BR OVC009 02/01 A2983 RMK AO2 PK WND 34030/1707 SFC VIS 3 LTG DSNT SE RAE14SNE1659B14GSB1659E14 CB DSNT SE P0004 T00220011 $,0,19,0,2414,0,0,1,"BR,DS,FC,RA,SN"
2026-04-02 17:21:00,SPECI KSLC 021721Z 34022G28KT 2SM -SN BR OVC010 02/01 A2982 RMK AO2 PK WND 34030/1707 SFC VIS 4 LTG DSNT SE RAE14SNE1659B14GSB1659E14 CB DSNT SE P0003 T00220011 $,0,22,1,3218,0,0,1,"BR,DS,FC,RA,SN"
2026-04-02 17:18:00,SPECI KSLC 021718Z 35017G29KT 3SM -SN BR OVC010 02/01 A2983 RMK AO2 PK WND 34030/1707 SFC VIS 5 LTG DSNT SE RAE14SNE1659B14GSB1659E14 CB DSNT SE P0002 T00220011 $,0,17,1,4827,0,0,1,"BR,DS,FC,RA,SN"
2026-04-02 17:00:00,SPECI KSLC 021700Z 34022G30KT 8SM GSRA BKN008 OVC016 03/02 A2980 RMK AO2 PK WND 34028/1659 LTG DSNT S SNE1659GSB1659 CB DSNT S P0000 T00280017 $,0,22,1,12872,1,0,0,"DS,GS,RA,SN"
2026-04-02 16:45:00,SPECI KSLC 021645Z 35023G33KT 6SM -RASN BR FEW009 BKN017CB OVC032 03/02 A2977 RMK AO2 PK WND 35035/1635 LTG DSNT SW SNB44 PRESRR CB NE MOV NE AND DSNT SW P0003 T00330022 $,0,23,1,9654,0,0,1,"-RA,BR,DS,SN"
2026-04-02 16:39:00,SPECI KSLC 021639Z 34024G35KT 10SM -RA FEW009 BKN017CB OVC032 04/02 A2976 RMK AO2 PK WND 35035/1635 LTG DSNT SW PRESRR CB NE MOV NE AND DSNT SW P0003 T00390022 $,0,24,1,16090,0,0,0,"-RA,DS"
2026-04-02 16:01:00,SPECI KSLC 021601Z COR 32014G23KT 3SM -RA SCT018 BKN027 OVC035 07/05 A2972 RMK AO2 SFC VIS 7 LTG DSNT N-SE CB DSNT N-NE AND SE AND SW P0001 T00720050 $,0,14,1,4827,0,0,0,"-RA,DS,FC"
2026-04-02 15:54:00,METAR KSLC 021554Z 32013G19KT 3SM -RA BR FEW017 BKN030 OVC037 07/05 A2971 RMK AO2 WSHFT 1508 SFC VIS 6 LTG DSNT N RAB33 SLP045 CB DSNT W-NE P0004 T00720050 $,0,13,1,4827,0,0,1,"-RA,BR,DS,FC"
2026-04-02 15:28:00,SPECI KSLC 021528Z 33014KT 10SM FEW030 BKN065 OVC085 08/04 A2969 RMK AO2 WSHFT 1508 LTG DSNT N AND NW PRESRR CB DSNT W-NW VCSH T00780044 $,0,14,0,16090,0,0,0,"DS,SH,VC"
2026-04-02 14:54:00,METAR KSLC 021454Z 00000KT 10SM FEW035 SCT060 BKN080 BKN230 12/02 A2964 RMK AO2 PK WND 19032/1356 RAB35E44 SLP013 VIRGA CB DSNT W SH DSNT NE AND SE P0000 60000 T01170017 53005 $,0,0,0,16090,0,0,0,"DS,RA,SH"
2026-04-02 13:54:00,METAR KSLC 021354Z 17020G31KT 10SM FEW060 SCT100 BKN230 12/02 A2962 RMK AO2 PK WND 15031/1351 LTG DSNT N AND NW SLP006 VIRGA CB DSNT NW-NE SH DSNT SE T01170022 $,0,20,1,16090,0,0,0,"DS,SH"
2026-04-02 12:54:00,METAR KSLC 021254Z 18016G29KT 10SM FEW065 SCT080 BKN120 11/03 A2962 RMK AO2 PK WND 16029/1251 LTG DSNT NE SLP004 TS DSNT N AND NE T01110028 $,0,16,1,16090,1,0,0,"DS,TS"
2026-04-02 11:54:00,METAR KSLC 021154Z 18016G24KT 10SM FEW065 BKN080 BKN120 11/04 A2963 RMK AO2 LTG DSNT N AND NW SLP005 TS DSNT N AND NW 60008 70041 T01110039 10111 20089 56019 $,0,16,1,16090,1,0,0,"DS,TS"
2026-04-02 10:54:00,METAR KSLC 021054Z 12007KT 10SM FEW065 BKN085 BKN120 09/06 A2963 RMK AO2 SLP009 T00890061 $,0,7,0,16090,0,0,0,
2026-04-02 09:54:00,METAR KSLC 020954Z 16011G16KT 10SM FEW015 BKN046 BKN100 09/06 A2966 RMK AO2 RAB03E42 SLP021 P0001 T00940056 $,0,11,1,16090,0,0,0,RA
2026-04-02 08:54:00,METAR KSLC 020854Z 12011G21KT 10SM BKN095 BKN120 BKN140 09/06 A2969 RMK AO2 RAE17 SLP032 P0003 60007 T00940061 58010 $,0,11,1,16090,0,0,0,
2026-04-02 07:54:00,METAR KSLC 020754Z 29008KT 10SM RA FEW030 BKN047 OVC060 10/07 A2973 RMK AO2 SLP048 P0001 T01000067 $,0,8,0,16090,0,0,0,RA
2026-04-02 06:54:00,METAR KSLC 020654Z 29007KT 10SM -RA BKN055 BKN075 OVC100 09/07 A2972 RMK AO2 RAB07 SLP046 P0003 T00940072 401390078 $,0,7,0,16090,0,0,0,-RA
2026-04-02 05:54:00,METAR KSLC 020554Z 17007KT 10SM FEW070 BKN100 09/07 A2972 RMK AO2 SLP048 60011 T00890067 10128 20078 58002 $,0,7,0,16090,0,0,0,
2026-04-02 04:54:00,METAR KSLC 020454Z 13008KT 10SM FEW040 FEW070 BKN095 08/07 A2975 RMK AO2 RAE09 SLP057 P0004 T00830067 $,0,8,0,16090,0,0,0,
2026-04-02 03:54:00,METAR KSLC 020354Z VRB04KT 4SM RA BR FEW024 OVC038 08/07 A2978 RMK AO2 PK WND 19033/0327 WSHFT 0329 RAB24 TSB39E54 SLP067 P0007 T00830067 $,0,4,0,6436,1,0,1,"BR,RA,TS"
2026-04-02 03:43:00,SPECI KSLC 020343Z COR 27020G32KT 3SM TSRA BR FEW022 BKN043 OVC060 10/07 A2979 RMK AO2 PK WND 19033/0327 WSHFT 0329 OCNL LTGCG SW TS SW MOV E RAB24 TSB39 PRESRR P0001 T01000067 $,0,20,1,4827,1,0,1,"BR,RA,TS"
2026-04-02 02:54:00,METAR KSLC 020254Z 17013G21KT 10SM FEW060 SCT090 BKN110 BKN140 11/05 A2973 RMK AO2 SLP049 OCNL LTG DSNT W CB DSNT W 60000 T01060050 58003 $,0,13,1,16090,0,0,0,DS
2026-04-02 01:54:00,METAR KSLC 020154Z 14009KT 10SM FEW040 FEW060 SCT120 BKN170 11/05 A2974 RMK AO2 RAB30E45 SLP053 SH DSNT E P0000 T01060050 $,0,9,0,16090,0,0,0,"DS,RA,SH"
2026-04-02 00:54:00,METAR KSLC 020054Z 18012KT 10SM FEW035 SCT070 BKN120 BKN190 12/05 A2974 RMK AO2 SLP049 CB DSNT W-NW SH DSNT W-NW T01170050 $,0,12,0,16090,0,0,0,"DS,SH"
2026-04-01 23:54:00,METAR KSLC 012354Z 17009KT 10SM FEW036 FEW070 BKN210 BKN250 12/05 A2974 RMK AO2 SLP048 SH DSNT W-NW 60000 T01220050 10139 20089 58013 $,0,9,0,16090,0,0,0,"DS,SH"
2026-04-01 22:54:00,METAR KSLC 012254Z 12006KT 10SM FEW032 FEW065 BKN250 13/06 A2976 RMK AO2 SLP052 T01280056 $,0,6,0,16090,0,0,0,
2026-04-01 21:54:00,METAR KSLC 012154Z 09004KT 10SM SCT023 SCT039 BKN065 BKN250 12/07 A2977 RMK AO2 RAB09E20 SLP059 SH DSNT S P0000 T01170067 $,0,4,0,16090,0,0,0,"DS,RA,SH"
2026-04-01 20:54:00,METAR KSLC 012054Z 13004KT 10SM SCT022 BKN032 BKN045 BKN200 10/07 A2979 RMK AO2 RAB12E45 SLP066 P0000 60000 T01000067 51001 $,0,4,0,16090,0,0,0,RA
2026-04-01 20:44:00,SPECI KSLC 012044Z 12004KT 10SM -RA SCT022 BKN032 BKN045 BKN200 09/07 A2978 RMK AO2 RAB12 P0000 T00940067 $,0,4,0,16090,0,0,0,-RA
2026-04-01 19:54:00,METAR KSLC 011954Z 10007KT 10SM FEW015 BKN020 BKN030 09/06 A2978 RMK AO2 RAE03B38E53 SLP064 P0000 T00940061 $,0,7,0,16090,0,0,0,RA
2026-04-01 18:54:00,METAR KSLC 011854Z COR 14004KT 10SM -RA FEW015 OVC027 09/06 A2979 RMK AO2 RAE24B35 SLP066 P0000 T00940061 $,0,4,0,16090,0,0,0,"-RA,RA"
2026-04-01 18:25:00,SPECI KSLC 011825Z 23004KT 10SM SCT016 BKN021 OVC047 09/06 A2979 RMK AO2 RAE24 P0000 T00940061 $,0,4,0,16090,0,0,0,
2026-04-01 17:54:00,METAR KSLC 011754Z 22003KT 10SM -RA SCT014 OVC050 09/06 A2978 RMK AO2 SLP064 P0001 60022 T00890056 10094 20083 53012 $,0,3,0,16090,0,0,0,-RA
2026-04-01 16:54:00,METAR KSLC 011654Z 26003KT 8SM -RA BKN043 OVC055 08/06 A2977 RMK AO2 SLP058 CB DSNT NW P0005 T00830056 $,0,3,0,12872,0,0,0,"-RA,DS"
2026-04-01 15:54:00,METAR KSLC 011554Z 28005KT 6SM -RA BR FEW008 BKN042 OVC050 08/06 A2975 RMK AO2 SLP051 P0005 T00830061 $,0,5,0,9654,0,0,1,"-RA,BR"
2026-04-01 15:40:00,SPECI KSLC 011540Z 30006KT 9SM -RA FEW008 BKN035 OVC042 08/07 A2975 RMK AO2 P0004 T00830067 $,0,6,0,14481,0,0,0,-RA
2026-04-01 14:54:00,METAR KSLC 011454Z 21004KT 5SM -RA BR FEW015 SCT032 OVC042 08/06 A2974 RMK AO2 SLP046 CB DSNT NW P0006 60011 T00830061 53007 $,0,4,0,8045,0,0,1,"-RA,BR,DS"
2026-04-01 13:54:00,METAR KSLC 011354Z 19007KT 5SM -RA BR BKN024 OVC031 08/06 A2973 RMK AO2 SLP040 P0004 T00830061 $,0,7,0,8045,0,0,1,"-RA,BR"
2026-04-01 13:14:00,SPECI KSLC 011314Z 18009G17KT 10SM -RA BKN024 OVC038 09/07 A2972 RMK AO2 P0001 T00890067 $,0,9,1,16090,0,0,0,-RA
2026-04-01 12:54:00,METAR KSLC 011254Z 18010KT 10SM -RA FEW015 BKN032 OVC042 09/07 A2972 RMK AO2 SLP034 P0001 T00890067 $,0,10,0,16090,0,0,0,-RA
2026-04-01 12:21:00,SPECI KSLC 011221Z 15007KT 10SM -RA SCT017 OVC040 09/07 A2972 RMK AO2 CIG 018 NW RNWY P0000 T00940072 $,0,7,0,16090,0,0,0,-RA
2026-04-01 11:54:00,METAR KSLC 011154Z 14008KT 10SM -RA SCT018 BKN025 OVC038 10/08 A2972 RMK AO2 SLP031 P0002 60010 70012 T01000078 10117 20094 56006 $,0,8,0,16090,0,0,0,-RA
2026-04-01 10:54:00,METAR KSLC 011054Z 17006KT 7SM -RA FEW015 OVC041 10/08 A2972 RMK AO2 SLP033 P0002 T01000078 $,0,6,0,11263,0,0,0,-RA
2026-04-01 09:54:00,METAR KSLC 010954Z 15007KT 10SM -RA BKN055 OVC080 11/07 A2974 RMK AO2 RAB42 SLP039 P0000 T01060072 $,0,7,0,16090,0,0,0,-RA
2026-04-01 08:54:00,METAR KSLC 010854Z 13006KT 10SM OVC095 10/07 A2976 RMK AO2 SLP044 60006 T01000072 58010 $,0,6,0,16090,0,0,0,
2026-04-01 07:54:00,METAR KSLC 010754Z 11009KT 10SM OVC095 10/08 A2977 RMK AO2 RAE21 SLP049 P0006 T01000078,0,9,0,16090,0,0,0,
2026-04-01 07:12:00,SPECI KSLC 010712Z 01006KT 9SM -RA FEW011 BKN041 OVC080 09/08 A2980 RMK AO2 P0006 T00940078,0,6,0,14481,0,0,0,-RA
2026-04-01 05:54:00,METAR KSLC 010554Z 13008KT 10SM -RA OVC065 11/07 A2979 RMK AO2 RAE11B53 SLP057 P0001 60002 T01110067 10183 20106 58003,0,8,0,16090,0,0,0,"-RA,RA"
2026-04-01 04:54:00,METAR KSLC 010454Z 02010KT 6SM RA BR OVC047 11/08 A2982 RMK AO2 RAB32 CIG 039 NW RNWY SLP070 P0001 T01110078,0,10,0,9654,0,0,1,"BR,RA"
2026-04-01 03:54:00,METAR KSLC 010354Z 32010G19KT 10SM SCT048 BKN060 OVC095 14/06 A2983 RMK AO2 SLP069 VCSH T01390056,0,10,1,16090,0,0,0,"SH,VC"
2026-04-01 02:54:00,METAR KSLC 010254Z 34013KT 10SM SCT060 OVC075 15/04 A2980 RMK AO2 WSHFT 0217 SLP061 VCSH T01500044 53012,0,13,0,16090,0,0,0,"SH,VC"
2026-04-01 02:37:00,SPECI KSLC 010237Z 29012G20KT 10SM SCT060 OVC075 16/03 A2979 RMK AO2 WSHFT 0217 VCSH T01560033,0,12,1,16090,0,0,0,"SH,VC"
2026-04-01 01:54:00,METAR KSLC 010154Z 25012G18KT 10SM BKN060 BKN075 OVC100 17/02 A2977 RMK AO2 PK WND 30026/0121 SLP049 VCSH T01670022,0,12,1,16090,0,0,0,"SH,VC"
2026-04-01 00:54:00,METAR KSLC 010054Z 28004KT 10SM FEW080 BKN100 OVC130 18/02 A2975 RMK AO2 SLP043 VCSH T01780017,0,4,0,16090,0,0,0,"SH,VC"
2026-03-31 23:54:00,METAR KSLC 312354Z 12008KT 10SM FEW080 SCT110 BKN170 OVC220 18/02 A2976 RMK AO2 SLP044 SH DSNT W-NW 60000 T01830017 10200 20161 58020,0,8,0,16090,0,0,0,"DS,SH"
2026-03-31 22:54:00,METAR KSLC 312254Z 00000KT 10SM FEW060 SCT080 BKN100 OVC200 18/02 A2979 RMK AO2 SLP055 SH DSNT NE AND S T01780017,0,0,0,16090,0,0,0,"DS,SH"
2026-03-31 21:54:00,METAR KSLC 312154Z 15009KT 10SM FEW040 SCT065 BKN080 OVC210 18/02 A2981 RMK AO2 RAB10E25 SLP063 VCSH P0000 T01830022,0,9,0,16090,0,0,0,"RA,SH,VC"
2026-03-31 20:54:00,METAR KSLC 312054Z 00000KT 10SM FEW085 SCT110 BKN230 19/01 A2983 RMK AO2 SLP064 VIRGA T01890006 58029,0,0,0,16090,0,0,0,
2026-03-31 19:54:00,METAR KSLC 311954Z 17004KT 10SM FEW080 SCT110 BKN230 20/01 A2987 RMK AO2 SLP075 T02000011,0,4,0,16090,0,0,0,
2026-03-31 18:54:00,METAR KSLC 311854Z 17006KT 10SM FEW075 SCT110 BKN220 18/03 A2989 RMK AO2 SLP083 T01780028,0,6,0,16090,0,0,0,
2026-03-31 17:54:00,METAR KSLC 311754Z 18003KT 10SM FEW065 BKN085 BKN110 16/04 A2992 RMK AO2 SLP098 SH DSNT SE T01610039 10161 20106 51004,0,3,0,16090,0,0,0,"DS,SH"
2026-03-31 16:54:00,METAR KSLC 311654Z 27004KT 10SM FEW070 BKN085 OVC110 15/04 A2992 RMK AO2 SLP098 VIRGA SH DSNT SE T01500039,0,4,0,16090,0,0,0,"DS,SH"
2026-03-31 15:54:00,METAR KSLC 311554Z 22003KT 10SM FEW075 BKN095 OVC120 14/02 A2992 RMK AO2 SLP098 VIRGA SH DSNT SE T01390022,0,3,0,16090,0,0,0,"DS,SH"
2026-03-31 14:54:00,METAR KSLC 311454Z 32008KT 10SM BKN090 OVC110 13/03 A2991 RMK AO2 SLP095 VIRGA T01280033 51012,0,8,0,16090,0,0,0,
2026-03-31 13:54:00,METAR KSLC 311354Z 35005KT 10SM BKN100 OVC120 11/03 A2990 RMK AO2 SLP093 VIRGA T01110028,0,5,0,16090,0,0,0,
2026-03-31 12:54:00,METAR KSLC 311254Z 34004KT 10SM SCT100 BKN130 OVC160 11/03 A2989 RMK AO2 SLP086 T01110028,0,4,0,16090,0,0,0,
2026-03-31 11:54:00,METAR KSLC 311154Z 00000KT 10SM BKN110 OVC130 12/02 A2987 RMK AO2 SLP078 T01170017 10172 20100 55004,0,0,0,16090,0,0,0,
2026-03-31 10:54:00,METAR KSLC 311054Z 21004KT 10SM FEW110 BKN140 OVC200 11/03 A2987 RMK AO2 SLP078 T01110028,0,4,0,16090,0,0,0,
2026-03-31 09:54:00,METAR KSLC 310954Z 32005KT 10SM FEW130 BKN160 BKN220 11/03 A2988 RMK AO2 SLP081 T01110033,0,5,0,16090,0,0,0,
2026-03-31 08:54:00,METAR KSLC 310854Z 33005KT 10SM FEW110 SCT140 BKN170 13/02 A2988 RMK AO2 SLP080 T01280022 58003,0,5,0,16090,0,0,0,
2026-03-31 07:54:00,METAR KSLC 310754Z 01007KT 10SM FEW090 BKN110 OVC140 14/04 A2990 RMK AO2 SLP082 T01390039,0,7,0,16090,0,0,0,
2026-03-31 06:54:00,METAR KSLC 310654Z 25004KT 10SM OVC110 16/M01 A2990 RMK AO2 SLP081 T01611011 402390111,0,4,0,16090,0,0,0,
2026-03-31 05:54:00,METAR KSLC 310554Z 08004KT 10SM BKN110 16/M01 A2989 RMK AO2 SLP080 T01561011 10217 20156 53002,0,4,0,16090,0,0,0,
2026-03-31 04:54:00,METAR KSLC 310454Z 22005KT 10SM FEW110 BKN140 BKN170 BKN200 17/M01 A2989 RMK AO2 SLP081 T01671011,0,5,0,16090,0,0,0,
2026-03-31 03:54:00,METAR KSLC 310354Z 00000KT 10SM BKN120 BKN150 BKN200 17/M02 A2988 RMK AO2 SLP080 T01721022,0,0,0,16090,0,0,0,
2026-03-31 02:54:00,METAR KSLC 310254Z 00000KT 10SM SCT120 BKN190 BKN250 18/M02 A2989 RMK AO2 SLP082 T01781017 55002,0,0,0,16090,0,0,0,
2026-03-31 01:54:00,METAR KSLC 310154Z 35006KT 10SM SCT110 BKN210 BKN250 18/M03 A2988 RMK AO2 SLP083 VIRGA T01781033,0,6,0,16090,0,0,0,
2026-03-31 00:54:00,METAR KSLC 310054Z 35008KT 10SM FEW090 FEW120 BKN230 21/M02 A2988 RMK AO2 SLP082 VIRGA T02061017,0,8,0,16090,0,0,0,
2026-03-30 23:54:00,METAR KSLC 302354Z 36010KT 10SM FEW090 FEW120 BKN220 BKN250 22/M03 A2989 RMK AO2 SLP084 VIRGA T02171028 10239 20211 56012,0,10,0,16090,0,0,0,
2026-03-30 22:54:00,METAR KSLC 302254Z 01012KT 10SM FEW090 FEW130 SCT210 BKN250 22/M02 A2990 RMK AO2 SLP087 ACSL DSNT S AND SW T02221017,0,12,0,16090,0,0,0,DS
2026-03-30 20:54:00,METAR KSLC 302054Z 35011G16KT 10SM FEW090 FEW130 BKN230 23/M01 A2993 RMK AO2 SLP093 ACSL DSNT NE T02281011 58010,0,11,1,16090,0,0,0,DS
2026-03-30 19:54:00,METAR KSLC 301954Z 36009KT 10SM FEW090 FEW120 FEW160 BKN230 22/M02 A2995 RMK AO2 SLP102 ACSL DSNT NE T02221017,0,9,0,16090,0,0,0,DS
2026-03-30 18:54:00,METAR KSLC 301854Z 36010G18KT 10SM FEW090 FEW120 SCT160 BKN230 22/M01 A2997 RMK AO2 SLP106 ACC S-SW ACSL DSNT NE T02221011,0,10,1,16090,0,0,0,DS
2026-03-30 17:54:00,METAR KSLC 301754Z 34007KT 300V360 10SM FEW095 FEW160 BKN230 22/M03 A2997 RMK AO2 SLP109 ACC DSNT NW ACSL DSNT SE T02171033 10217 20111 50001,0,7,0,16090,0,0,0,DS
2026-03-30 16:54:00,METAR KSLC 301654Z 00000KT 10SM FEW110 SCT140 BKN250 20/M04 A2998 RMK AO2 SLP110 VIRGA ACC DSNT NW T02001044,0,0,0,16090,0,0,0,DS
2026-03-30 15:54:00,METAR KSLC 301554Z 00000KT 10SM SCT140 SCT250 18/M03 A2997 RMK AO2 SLP108 VIRGA T01831028,0,0,0,16090,0,0,0,
2026-03-30 14:54:00,METAR KSLC 301454Z 14007KT 9SM FEW120 SCT150 16/M01 A2997 RMK AO2 SLP111 VIRGA T01611011 53010,0,7,0,14481,0,0,0,
2026-03-30 13:54:00,METAR KSLC 301354Z 00000KT 10SM SCT150 SCT250 13/M01 A2995 RMK AO2 SLP108 VIRGA T01331011,0,0,0,16090,0,0,0,
2026-03-30 12:54:00,METAR KSLC 301254Z 16005KT 10SM SCT150 BKN180 BKN250 13/M02 A2994 RMK AO2 SLP098 T01281022,0,5,0,16090,0,0,0,
2026-03-30 11:54:00,METAR KSLC 301154Z 16007KT 10SM SCT140 BKN170 13/M01 A2993 RMK AO2 SLP094 T01281006 10161 20128 58003 $,0,7,0,16090,0,0,0,
2026-03-30 10:54:00,METAR KSLC 301054Z 22004KT 10SM FEW120 SCT140 BKN170 BKN250 13/M01 A2994 RMK AO2 SLP095 T01331006 $,0,4,0,16090,0,0,0,
2026-03-30 09:54:00,METAR KSLC 300954Z 10004KT 10SM FEW090 SCT110 BKN140 15/M03 A2994 RMK AO2 SLP094 VIRGA T01501028 $,0,4,0,16090,0,0,0,
2026-03-30 08:54:00,METAR KSLC 300854Z 15005KT 10SM SCT120 BKN140 BKN160 16/M03 A2994 RMK AO2 SLP093 T01611028 52002 $,0,5,0,16090,0,0,0,
2026-03-30 07:54:00,METAR KSLC 300754Z 16004KT 10SM BKN130 BKN160 14/M01 A2994 RMK AO2 SLP098 T01391011 $,0,4,0,16090,0,0,0,
2026-03-30 06:54:00,METAR KSLC 300654Z 15006KT 10SM BKN140 BKN170 14/M02 A2993 RMK AO2 SLP097 T01391017 402440056 $,0,6,0,16090,0,0,0,
2026-03-30 05:54:00,METAR KSLC 300554Z 15007KT 10SM FEW130 SCT180 14/M02 A2993 RMK AO2 SLP100 T01391022 10239 20139 50000 $,0,7,0,16090,0,0,0,
2026-03-30 04:54:00,METAR KSLC 300454Z 18003KT 10SM FEW140 SCT250 16/M03 A2993 RMK AO2 SLP099 T01611028 $,0,3,0,16090,0,0,0,
2026-03-30 03:54:00,METAR KSLC 300354Z 18003KT 10SM FEW140 SCT190 SCT250 18/M03 A2994 RMK AO2 SLP103 T01781033 $,0,3,0,16090,0,0,0,
2026-03-30 02:54:00,METAR KSLC 300254Z 34004KT 10SM SCT190 BKN250 17/M02 A2993 RMK AO2 SLP104 T01721017 56010 $,0,4,0,16090,0,0,0,
2026-03-30 01:54:00,METAR KSLC 300154Z 35009KT 10SM FEW150 SCT250 18/M02 A2994 RMK AO2 SLP112 T01831017 $,0,9,0,16090,0,0,0,
2026-03-30 00:54:00,METAR KSLC 300054Z 01009KT 10SM FEW100 FEW150 FEW250 22/M05 A2995 RMK AO2 SLP114 T02221050 $,0,9,0,16090,0,0,0,
2026-03-29 23:54:00,METAR KSLC 292354Z 34010KT 10SM FEW110 FEW150 SCT250 23/M04 A2997 RMK AO2 SLP114 ACSL DSNT NE T02331044 10244 20194 56018 $,0,10,0,16090,0,0,0,DS
2026-03-29 22:54:00,METAR KSLC 292254Z 02008G20KT 10SM FEW110 FEW150 SCT250 24/M04 A2999 RMK AO2 SLP116 ACSL DSNT N T02391039 $,0,8,1,16090,0,0,0,DS
2026-03-29 21:54:00,METAR KSLC 292154Z 33007G16KT 10SM FEW110 FEW150 SCT250 23/M06 A3000 RMK AO2 SLP124 ACSL DSNT N AND SW T02331061 $,0,7,1,16090,0,0,0,DS
2026-03-29 20:54:00,METAR KSLC 292054Z 30009KT 10SM FEW120 SCT200 24/M06 A3003 RMK AO2 SLP130 T02391056 56021 $,0,9,0,16090,0,0,0,
2026-03-29 19:54:00,METAR KSLC 291954Z VRB04KT 10SM FEW080 SCT200 23/01 A3005 RMK AO2 SLP142 T02280011 $,0,4,0,16090,0,0,0,
2026-03-29 18:54:00,METAR KSLC 291854Z 36003KT 10SM FEW150 SCT200 22/M01 A3007 RMK AO2 SLP143 T02171006 $,0,3,0,16090,0,0,0,
2026-03-29 17:54:00,METAR KSLC 291754Z 00000KT 10SM SCT150 SCT200 19/02 A3010 RMK AO2 SLP157 T01940017 10194 20056 51006 $,0,0,0,16090,0,0,0,
2026-03-29 16:54:00,METAR KSLC 291654Z 31003KT 10SM SCT200 17/03 A3010 RMK AO2 SLP158 T01720028 $,0,3,0,16090,0,0,0,
2026-03-29 14:54:00,METAR KSLC 291454Z 00000KT 10SM FEW120 SCT200 SCT250 12/02 A3008 RMK AO2 SLP157 T01220017 51010 $,0,0,0,16090,0,0,0,
2026-03-29 13:54:00,METAR KSLC 291354Z 18003KT 10SM FEW120 FEW250 07/03 A3007 RMK AO2 SLP156 T00720028 $,0,3,0,16090,0,0,0,
2026-03-29 12:54:00,METAR KSLC 291254Z 02005KT 10SM FEW260 06/02 A3006 RMK AO2 SLP154 T00560017 $,0,5,0,16090,0,0,0,
2026-03-29 11:54:00,METAR KSLC 291154Z 00000KT 10SM CLR 08/01 A3004 RMK AO2 SLP142 T00830011 10144 20083 53009 $,0,0,0,16090,0,0,0,
2026-03-29 10:54:00,METAR KSLC 291054Z 33003KT 10SM SCT250 10/00 A3003 RMK AO2 SLP132 T01000000 $,0,3,0,16090,0,0,0,
2026-03-29 09:54:00,METAR KSLC 290954Z 14007KT 10SM BKN250 10/01 A3002 RMK AO2 SLP130 T01000006 $,0,7,0,16090,0,0,0,
2026-03-29 08:54:00,METAR KSLC 290854Z 00000KT 10SM SCT170 11/01 A3001 RMK AO2 SLP127 T01110011 51007 $,0,0,0,16090,0,0,0,
2026-03-29 07:54:00,METAR KSLC 290754Z 20005KT 10SM CLR 09/02 A3001 RMK AO2 SLP127 T00940022 $,0,5,0,16090,0,0,0,
2026-03-29 06:54:00,METAR KSLC 290654Z 03004KT 10SM CLR 13/00 A3000 RMK AO2 SLP122 T01330000 402390067 $,0,4,0,16090,0,0,0,
2026-03-29 05:54:00,METAR KSLC 290554Z 14009KT 10SM BKN250 14/M01 A2999 RMK AO2 SLP121 T01391006 10211 20133 50001 $,0,9,0,16090,0,0,0,
2026-03-29 04:54:00,METAR KSLC 290454Z 14006KT 10SM FEW100 SCT240 14/00 A3000 RMK AO2 SLP128 T01440000 $,0,6,0,16090,0,0,0,
2026-03-29 03:54:00,METAR KSLC 290354Z 11007KT 10SM FEW100 FEW160 SCT240 15/M01 A3000 RMK AO2 SLP129 T01501006 $,0,7,0,16090,0,0,0,
2026-03-29 02:54:00,METAR KSLC 290254Z 17006KT 10SM FEW100 SCT150 SCT240 16/M02 A2999 RMK AO2 SLP128 T01561022 51003 $,0,6,0,16090,0,0,0,
2026-03-29 01:54:00,METAR KSLC 290154Z COR 22003KT 10SM FEW090 SCT130 BKN250 18/M03 A2998 RMK AO2 SLP124 VIRGA DSNT E-S T01831033 $,0,3,0,16090,0,0,0,DS
2026-03-29 00:54:00,METAR KSLC 290054Z 27009KT 10SM FEW090 SCT130 BKN240 19/M02 A2999 RMK AO2 SLP127 VIRGA DSNT E-SW T01891017 $,0,9,0,16090,0,0,0,DS
2026-03-28 23:54:00,METAR KSLC 282354Z 33011KT 10SM FEW090 SCT140 BKN240 21/M02 A2997 RMK AO2 SLP120 ACSL DSNT W VIRGA DSNT SE-SW T02111017 10239 20172 56010 $,0,11,0,16090,0,0,0,DS
2026-03-28 22:54:00,METAR KSLC 282254Z 32010KT 10SM FEW090 SCT150 BKN230 23/M01 A2997 RMK AO2 SLP118 T02331006 $,0,10,0,16090,0,0,0,
2026-03-28 21:54:00,METAR KSLC 282154Z 34011KT 10SM FEW090 SCT140 BKN240 23/01 A2998 RMK AO2 SLP119 T02280006 $,0,11,0,16090,0,0,0,
2026-03-28 20:54:00,METAR KSLC 282054Z 35011KT 10SM FEW090 SCT150 BKN250 22/02 A3001 RMK AO2 SLP128 T02220022 56023 $,0,11,0,16090,0,0,0,
2026-03-28 19:54:00,METAR KSLC 281954Z 00000KT 10SM FEW090 FEW150 BKN250 21/M01 A3003 RMK AO2 SLP134 T02111006 $,0,0,0,16090,0,0,0,
2026-03-28 18:54:00,METAR KSLC 281854Z 00000KT 10SM FEW010 FEW150 SCT230 19/M01 A3005 RMK AO2 SLP146 FU FEW010 FU NW-NE T01941011 $,0,0,0,16090,0,0,0,
2026-03-28 17:54:00,METAR KSLC 281754Z 00000KT 10SM FEW010 FEW150 SCT200 17/M03 A3009 RMK AO2 SLP159 FU FEW010 FU NW T01671028 10167 20072 58004 $,0,0,0,16090,0,0,0,
2026-03-28 16:54:00,METAR KSLC 281654Z 00000KT 10SM FEW010 SCT140 BKN200 14/M01 A3010 RMK AO2 SLP166 FU FEW010 FU NW T01441006 $,0,0,0,16090,0,0,0,
2026-03-28 15:54:00,METAR KSLC 281554Z 00000KT 10SM SCT140 BKN200 BKN250 12/00 A3010 RMK AO2 SLP170 VIRGA T01220000 $,0,0,0,16090,0,0,0,
2026-03-28 14:54:00,METAR KSLC 281454Z 15005KT 10SM SCT150 BKN200 BKN240 10/00 A3010 RMK AO2 SLP171 VIRGA T01000000 51005 $,0,5,0,16090,0,0,0,
2026-03-28 13:54:00,METAR KSLC 281354Z 14005KT 10SM SCT150 BKN230 08/01 A3010 RMK AO2 SLP171 T00780006 $,0,5,0,16090,0,0,0,
2026-03-28 12:54:00,METAR KSLC 281254Z 00000KT 10SM SCT140 BKN260 08/00 A3009 RMK AO2 SLP166 T00780000 $,0,0,0,16090,0,0,0,
2026-03-28 11:54:00,METAR KSLC 281154Z 00000KT 10SM BKN250 08/01 A3008 RMK AO2 SLP165 T00780006 10117 20067 56008 $,0,0,0,16090,0,0,0,
2026-03-28 10:54:00,METAR KSLC 281054Z 15004KT 10SM SCT250 07/00 A3009 RMK AO2 SLP165 T00670000 $,0,4,0,16090,0,0,0,
2026-03-28 09:54:00,METAR KSLC 280954Z 00000KT 10SM BKN250 08/M01 A3010 RMK AO2 SLP167 T00831011 $,0,0,0,16090,0,0,0,
2026-03-28 08:54:00,METAR KSLC 280854Z 00000KT 10SM SCT240 08/M02 A3011 RMK AO2 SLP171 T00831017 58013 $,0,0,0,16090,0,0,0,
2026-03-28 07:54:00,METAR KSLC 280754Z 00000KT 10SM BKN250 10/M01 A3012 RMK AO2 SLP176 T01001006 $,0,0,0,16090,0,0,0,
2026-03-28 06:54:00,METAR KSLC 280654Z 00000KT 10SM BKN250 11/01 A3014 RMK AO2 SLP183 T01060006 401830028 $,0,0,0,16090,0,0,0,
2026-03-28 05:54:00,METAR KSLC 280554Z 00000KT 10SM BKN240 11/01 A3015 RMK AO2 SLP189 T01110011 10156 20111 58003 $,0,0,0,16090,0,0,0,
2026-03-28 04:54:00,METAR KSLC 280454Z 00000KT 10SM SCT150 BKN230 12/01 A3016 RMK AO2 SLP193 T01220006 $,0,0,0,16090,0,0,0,
2026-03-28 03:54:00,METAR KSLC 280354Z 27003KT 10SM SCT150 BKN230 12/01 A3017 RMK AO2 SLP197 T01220006 $,0,3,0,16090,0,0,0,
2026-03-28 02:54:00,METAR KSLC 280254Z 29004KT 10SM BKN160 BKN230 13/M01 A3016 RMK AO2 SLP197 T01331006 55007 $,0,4,0,16090,0,0,0,
2026-03-28 01:54:00,METAR KSLC 280154Z 27004KT 10SM BKN150 OVC230 14/M02 A3016 RMK AO2 SLP199 T01391022 $,0,4,0,16090,0,0,0,
2026-03-28 00:54:00,METAR KSLC 280054Z 29008KT 10SM BKN160 OVC230 15/M04 A3017 RMK AO2 SLP201 T01501044 $,0,8,0,16090,0,0,0,
2026-03-27 23:54:00,METAR KSLC 272354Z 28008KT 10SM BKN150 OVC240 16/M03 A3019 RMK AO2 SLP207 T01561028 10183 20117 56022 $,0,8,0,16090,0,0,0,
2026-03-27 22:54:00,METAR KSLC 272254Z 30008KT 10SM FEW140 SCT210 BKN240 18/M04 A3020 RMK AO2 SLP209 T01781039 $,0,8,0,16090,0,0,0,
2026-03-27 21:54:00,METAR KSLC 272154Z 32006KT 10SM FEW150 SCT220 BKN250 17/M05 A3023 RMK AO2 SLP216 T01721050 $,0,6,0,16090,0,0,0,
2026-03-27 20:54:00,METAR KSLC 272054Z VRB04KT 10SM FEW170 SCT220 BKN250 17/M06 A3026 RMK AO2 SLP227 T01671056 58027 $,0,4,0,16090,0,0,0,
2026-03-27 19:54:00,METAR KSLC 271954Z VRB03KT 10SM BKN230 15/M05 A3030 RMK AO2 SLP240 T01501050 $,0,3,0,16090,0,0,0,
2026-03-27 18:54:00,METAR KSLC 271854Z 31004KT 10SM FEW012 BKN230 14/M04 A3032 RMK AO2 SLP249 FU FEW012 FU DSNT NW T01441044 $,0,4,0,16090,0,0,0,DS
2026-03-27 17:54:00,METAR KSLC 271754Z 34005KT 10SM BKN230 12/M04 A3035 RMK AO2 SLP265 T01171044 10122 20028 56004 $,0,5,0,16090,0,0,0,
2026-03-27 16:54:00,METAR KSLC 271654Z 34005KT 10SM BKN250 10/M02 A3036 RMK AO2 SLP269 T01001022 $,0,5,0,16090,0,0,0,
2026-03-25 14:54:00,METAR KSLC 251454Z 15007KT 10SM FEW140 FEW250 18/05 A3006 RMK AO2 SLP136 T01780050 53003,0,7,0,16090,0,0,0,
2026-03-25 13:54:00,METAR KSLC 251354Z 14010KT 10SM FEW140 FEW250 15/04 A3005 RMK AO2 SLP134 T01500044,0,10,0,16090,0,0,0,
2026-03-25 12:54:00,METAR KSLC 251254Z 12010KT 10SM CLR 14/03 A3005 RMK AO2 SLP131 T01390033,0,10,0,16090,0,0,0,
2026-03-25 11:54:00,METAR KSLC 251154Z 12010KT 10SM CLR 14/04 A3005 RMK AO2 SLP130 T01440039 10178 20128 53002,0,10,0,16090,0,0,0,
2026-03-25 10:54:00,METAR KSLC 251054Z 14008KT 10SM CLR 13/04 A3004 RMK AO2 SLP129 T01330039,0,8,0,16090,0,0,0,
2026-03-25 09:54:00,METAR KSLC 250954Z 15005KT 10SM CLR 14/04 A3005 RMK AO2 SLP129 T01440044,0,5,0,16090,0,0,0,
2026-03-25 08:54:00,METAR KSLC 250854Z 14003KT 10SM CLR 15/04 A3004 RMK AO2 SLP129 T01500044 53006,0,3,0,16090,0,0,0,
2026-03-25 07:54:00,METAR KSLC 250754Z 24006KT 10SM CLR 16/04 A3004 RMK AO2 SLP124 T01610044,0,6,0,16090,0,0,0,
2026-03-25 06:54:00,METAR KSLC 250654Z 13010KT 10SM FEW260 17/04 A3003 RMK AO2 SLP122 T01720044 402720106,0,10,0,16090,0,0,0,
2026-03-25 05:54:00,METAR KSLC 250554Z 12009KT 10SM BKN260 18/04 A3002 RMK AO2 SLP121 T01830044 10272 20183 53003,0,9,0,16090,0,0,0,
2026-03-25 04:54:00,METAR KSLC 250454Z 14008KT 10SM BKN250 19/04 A3002 RMK AO2 SLP120 T01940044,0,8,0,16090,0,0,0,
2026-03-25 03:54:00,METAR KSLC 250354Z 15010KT 10SM BKN250 20/04 A3002 RMK AO2 SLP123 T02000044,0,10,0,16090,0,0,0,
2026-03-25 02:54:00,METAR KSLC 250254Z 11005KT 10SM FEW250 22/04 A3001 RMK AO2 SLP124 T02170044 55001,0,5,0,16090,0,0,0,
2026-03-25 01:54:00,METAR KSLC 250154Z 00000KT 10SM FEW090 FEW250 24/04 A3001 RMK AO2 SLP123 T02390044,0,0,0,16090,0,0,0,
2026-03-25 00:54:00,METAR KSLC 250054Z 34005KT 10SM FEW100 FEW250 27/04 A3001 RMK AO2 SLP118 T02670039,0,5,0,16090,0,0,0,
2026-03-24 23:54:00,METAR KSLC 242354Z 33008KT 10SM FEW100 FEW250 27/04 A3002 RMK AO2 SLP121 T02720044 10272 20222 58014,0,8,0,16090,0,0,0,
2026-03-24 22:54:00,METAR KSLC 242254Z 36007KT 10SM FEW100 FEW250 27/05 A3004 RMK AO2 SLP130 T02670050,0,7,0,16090,0,0,0,
2026-03-24 21:54:00,METAR KSLC 242154Z 34008G16KT 10SM FEW100 FEW250 26/04 A3006 RMK AO2 SLP137 T02610039,0,8,1,16090,0,0,0,
2026-03-24 20:54:00,METAR KSLC 242054Z 35004KT 10SM FEW100 FEW150 SCT250 26/03 A3006 RMK AO2 SLP140 ACSL DSNT NE T02560033 56008,0,4,0,16090,0,0,0,DS
2026-03-24 19:54:00,METAR KSLC 241954Z VRB04KT 10SM FEW100 FEW150 SCT250 26/01 A3007 RMK AO2 SLP140 ACSL DSNT NE T02560011,0,4,0,16090,0,0,0,DS
2026-03-24 18:54:00,METAR KSLC 241854Z 26004KT 10SM FEW095 FEW150 BKN250 24/02 A3007 RMK AO2 SLP144 ACSL DSNT NE T02440017,0,4,0,16090,0,0,0,DS
2026-03-24 17:54:00,METAR KSLC 241754Z 00000KT 10SM FEW150 BKN250 22/02 A3009 RMK AO2 SLP151 T02220022 10228 20111 51004,0,0,0,16090,0,0,0,
2026-03-24 16:54:00,METAR KSLC 241654Z 00000KT 10SM FEW150 BKN250 20/03 A3008 RMK AO2 SLP150 T02000028,0,0,0,16090,0,0,0,
2026-03-24 15:54:00,METAR KSLC 241554Z 14003KT 10SM FEW150 BKN250 17/02 A3008 RMK AO2 SLP153 T01720022,0,3,0,16090,0,0,0,
2026-03-24 14:54:00,METAR KSLC 241454Z 13007KT 10SM FEW140 BKN250 14/03 A3007 RMK AO2 SLP151 T01390028 51010,0,7,0,16090,0,0,0,
2026-03-24 13:54:00,METAR KSLC 241354Z 11007KT 10SM FEW140 BKN250 12/03 A3007 RMK AO2 SLP152 T01170028,0,7,0,16090,0,0,0,
2026-03-24 12:54:00,METAR KSLC 241254Z 12008KT 10SM FEW190 SCT250 12/02 A3005 RMK AO2 SLP141 T01170022 $,0,8,0,16090,0,0,0,
2026-03-24 11:54:00,METAR KSLC 241154Z 15011KT 10SM FEW095 FEW250 12/02 A3004 RMK AO2 SLP137 T01170022 10133 20106 58001,0,11,0,16090,0,0,0,
2026-03-24 10:54:00,METAR KSLC 241054Z 15006KT 10SM FEW240 12/03 A3005 RMK AO2 SLP139 T01170028,0,6,0,16090,0,0,0,
2026-03-24 09:54:00,METAR KSLC 240954Z 13008KT 10SM FEW170 FEW250 12/01 A3005 RMK AO2 SLP141 T01170011,0,8,0,16090,0,0,0,
2026-03-24 08:54:00,METAR KSLC 240854Z 13007KT 10SM CLR 11/02 A3004 RMK AO2 SLP143 T01110017 51006,0,7,0,16090,0,0,0,
2026-03-24 07:54:00,METAR KSLC 240754Z 15006KT 10SM CLR 12/02 A3004 RMK AO2 SLP140 T01170017,0,6,0,16090,0,0,0,
2026-03-24 06:54:00,METAR KSLC 240654Z 15006KT 10SM CLR 12/02 A3003 RMK AO2 SLP140 T01220017 402170100,0,6,0,16090,0,0,0,
2026-03-24 05:54:00,METAR KSLC 240554Z 15005KT 10SM CLR 13/M01 A3002 RMK AO2 SLP137 T01331006 10211 20133 50005,0,5,0,16090,0,0,0,
2026-03-24 04:54:00,METAR KSLC 240454Z 14006KT 10SM FEW250 14/00 A3003 RMK AO2 SLP138 T01440000,0,6,0,16090,0,0,0,
2026-03-24 03:54:00,METAR KSLC 240354Z 14004KT 10SM BKN250 15/02 A3001 RMK AO2 SLP133 T01500022,0,4,0,16090,0,0,0,
2026-03-24 02:54:00,METAR KSLC 240254Z 22003KT 10SM SCT250 17/03 A3001 RMK AO2 SLP130 T01670033 53002,0,3,0,16090,0,0,0,
2026-03-24 01:54:00,METAR KSLC 240154Z COR 33006KT 10SM BKN250 18/02 A3001 RMK AO2 SLP129 T01780017,0,6,0,16090,0,0,0,
2026-03-24 00:54:00,METAR KSLC 240054Z 34007KT 10SM FEW100 BKN250 20/02 A3000 RMK AO2 SLP125 ACSL DSNT NE AND E T02000022,0,7,0,16090,0,0,0,DS
2026-03-23 23:54:00,METAR KSLC 232354Z 35005KT 10SM FEW100 BKN250 21/01 A3000 RMK AO2 SLP124 ACSL DSNT NE-SE T02110011 10217 20156 56009,0,5,0,16090,0,0,0,DS
2026-03-23 22:54:00,METAR KSLC 232254Z 34005KT 10SM BKN100 BKN220 21/02 A3001 RMK AO2 SLP127 T02110022,0,5,0,16090,0,0,0,
2026-03-23 21:54:00,METAR KSLC 232154Z 32007KT 10SM FEW010 BKN100 BKN220 21/04 A3002 RMK AO2 SLP131 FU FEW010 FU NW-N T02060039,0,7,0,16090,0,0,0,
2026-03-23 20:54:00,METAR KSLC 232054Z 34006KT 10SM FEW007 BKN100 BKN220 19/03 A3003 RMK AO2 SLP136 FU FEW007 FU NW-N T01890028 58012,0,6,0,16090,0,0,0,
2026-03-23 19:54:00,METAR KSLC 231954Z VRB03KT 10SM FEW008 SCT110 BKN220 18/03 A3007 RMK AO2 SLP148 FU FEW008 FU VC NW-NE T01830033,0,3,0,16090,0,0,0,VC
2026-03-23 18:54:00,METAR KSLC 231854Z 33004KT 10SM FEW009 SCT120 BKN200 16/03 A3008 RMK AO2 SLP155 FU FEW009 FU NW T01610033,0,4,0,16090,0,0,0,
2026-03-23 17:54:00,METAR KSLC 231754Z 00000KT 10SM FEW008 FEW016 SCT110 BKN200 16/01 A3007 RMK AO2 SLP152 FU FEW008 AND FEW016 FU DSNT NW T01560011 10156 20100 50003,0,0,0,16090,0,0,0,DS
2026-03-23 16:54:00,METAR KSLC 231654Z 00000KT 10SM FEW008 SCT110 OVC200 15/01 A3008 RMK AO2 SLP156 VIRGA FU FEW008 FU DSNT NW T01500011,0,0,0,16090,0,0,0,DS
2026-03-23 16:47:00,SPECI KSLC 231647Z 00000KT 10SM FEW008 SCT110 OVC200 14/02 A3008 RMK AO2 VIRGA FU FEW008 FU DSNT NW T01440017,0,0,0,16090,0,0,0,DS
2026-03-23 15:54:00,METAR KSLC 231554Z 00000KT 10SM SCT120 OVC180 14/02 A3006 RMK AO2 SLP154 VIRGA T01390017,0,0,0,16090,0,0,0,
2026-03-23 14:54:00,METAR KSLC 231454Z 18004KT 10SM BKN130 BKN170 13/02 A3006 RMK AO2 SLP151 T01330017 51009,0,4,0,16090,0,0,0,
2026-03-23 13:54:00,METAR KSLC 231354Z 14003KT 10SM BKN140 BKN170 12/02 A3005 RMK AO2 SLP148 T01170017 $,0,3,0,16090,0,0,0,
2026-03-23 12:54:00,METAR KSLC 231254Z 00000KT 10SM BKN140 OVC160 11/03 A3004 RMK AO2 SLP144 T01110033 $,0,0,0,16090,0,0,0,
2026-03-23 11:54:00,METAR KSLC 231154Z 00000KT 10SM BKN140 OVC180 11/02 A3003 RMK AO2 SLP139 T01110017 10133 20100 56002 $,0,0,0,16090,0,0,0,
2026-03-23 10:54:00,METAR KSLC 231054Z 35004KT 10SM OVC160 11/01 A3003 RMK AO2 SLP139 T01110006 $,0,4,0,16090,0,0,0,
2026-03-23 09:54:00,METAR KSLC 230954Z 00000KT 10SM BKN150 OVC170 12/01 A3002 RMK AO2 SLP131 T01170006 $,0,0,0,16090,0,0,0,
2026-03-23 08:54:00,METAR KSLC 230854Z 13003KT 10SM FEW130 BKN170 12/M02 A3004 RMK AO2 SLP138 T01171017 58014 $,0,3,0,16090,0,0,0,
2026-03-23 07:54:00,METAR KSLC 230754Z 14003KT 10SM FEW130 BKN170 BKN200 12/M02 A3006 RMK AO2 SLP146 T01221017 $,0,3,0,16090,0,0,0,
2026-03-23 06:54:00,METAR KSLC 230654Z 24003KT 10SM FEW130 FEW170 BKN200 13/M01 A3007 RMK AO2 SLP150 T01281011 401940106 $,0,3,0,16090,0,0,0,
2026-03-23 05:54:00,METAR KSLC 230554Z 02005KT 10SM FEW130 SCT180 BKN210 14/M03 A3008 RMK AO2 SLP154 T01391033 10178 20128 55005 $,0,5,0,16090,0,0,0,
2026-03-23 04:54:00,METAR KSLC 230454Z 00000KT 10SM BKN170 BKN200 14/M03 A3008 RMK AO2 SLP157 T01391028 $,0,0,0,16090,0,0,0,
2026-03-23 03:54:00,METAR KSLC 230354Z 00000KT 10SM BKN170 BKN200 13/M02 A3009 RMK AO2 SLP162 T01281017 $,0,0,0,16090,0,0,0,
2026-03-23 02:54:00,METAR KSLC 230254Z 00000KT 10SM FEW170 BKN200 14/M01 A3010 RMK AO2 SLP164 T01441006 56001 $,0,0,0,16090,0,0,0,
2026-03-23 01:54:00,METAR KSLC 230154Z 29007KT 10SM FEW150 BKN170 BKN220 16/M01 A3010 RMK AO2 SLP164 T01561006 $,0,7,0,16090,0,0,0,
2026-03-23 00:54:00,METAR KSLC 230054Z 32007KT 10SM FEW120 BKN160 BKN220 17/M01 A3009 RMK AO2 SLP159 VIRGA T01721011 $,0,7,0,16090,0,0,0,
2026-03-22 23:54:00,METAR KSLC 222354Z 34010KT 10SM BKN170 BKN220 18/01 A3010 RMK AO2 SLP162 T01780006 10194 20167 56015 $,0,10,0,16090,0,0,0,
2026-03-22 22:54:00,METAR KSLC 222254Z 29011KT 10SM SCT180 BKN210 18/M02 A3012 RMK AO2 SLP166 T01831017 $,0,11,0,16090,0,0,0,
2026-03-22 21:54:00,METAR KSLC 222154Z 29011KT 10SM FEW100 BKN210 19/M02 A3013 RMK AO2 SLP167 T01891017 $,0,11,0,16090,0,0,0,
2026-03-22 20:54:00,METAR KSLC 222054Z 31006KT 10SM FEW130 BKN240 19/M03 A3015 RMK AO2 SLP179 T01891033 58016 $,0,6,0,16090,0,0,0,
2026-03-22 19:54:00,METAR KSLC 221954Z 33008KT 10SM FEW130 BKN240 18/M03 A3019 RMK AO2 SLP193 T01831033 $,0,8,0,16090,0,0,0,
2026-03-22 18:54:00,METAR KSLC 221854Z 33007KT 10SM FEW150 FEW250 18/M01 A3019 RMK AO2 SLP190 T01781006 $,0,7,0,16090,0,0,0,
2026-03-22 17:54:00,METAR KSLC 221754Z 34007KT 10SM FEW150 SCT250 17/03 A3020 RMK AO2 SLP193 T01670028 10167 20106 51008 $,0,7,0,16090,0,0,0,
2026-03-22 16:54:00,METAR KSLC 221654Z 34008KT 10SM FEW250 15/04 A3020 RMK AO2 SLP192 T01500039 $,0,8,0,16090,0,0,0,
2026-03-22 15:54:00,METAR KSLC 221554Z 31011KT 10SM FEW150 FEW250 14/03 A3019 RMK AO2 SLP188 T01440028 $,0,11,0,16090,0,0,0,
2026-03-22 14:54:00,METAR KSLC 221454Z 31007KT 10SM FEW150 SCT250 13/05 A3017 RMK AO2 SLP181 T01280050 51020 $,0,7,0,16090,0,0,0,
2026-03-22 13:54:00,METAR KSLC 221354Z 29004KT 10SM FEW150 BKN250 12/04 A3015 RMK AO2 SLP179 T01170044 $,0,4,0,16090,0,0,0,
2026-03-22 12:54:00,METAR KSLC 221254Z 31005KT 10SM SCT250 12/04 A3013 RMK AO2 SLP165 T01220039 $,0,5,0,16090,0,0,0,
2026-03-22 11:54:00,METAR KSLC 221154Z 29006KT 10SM FEW130 SCT250 12/04 A3011 RMK AO2 SLP155 T01220044 10167 20106 53015 $,0,6,0,16090,0,0,0,
2026-03-22 10:54:00,METAR KSLC 221054Z 28006KT 10SM FEW130 SCT240 13/04 A3009 RMK AO2 SLP144 T01280044 $,0,6,0,16090,0,0,0,
2026-03-22 09:54:00,METAR KSLC 220954Z 29010KT 10SM SCT240 14/04 A3007 RMK AO2 SLP136 T01390039 $,0,10,0,16090,0,0,0,
2026-03-22 08:54:00,METAR KSLC 220854Z 35005KT 10SM BKN200 11/04 A3006 RMK AO2 SLP135 T01110044 51024 $,0,5,0,16090,0,0,0,
2026-03-22 07:54:00,METAR KSLC 220754Z 06004KT 10SM SCT210 13/05 A3003 RMK AO2 SLP123 T01280050 $,0,4,0,16090,0,0,0,
2026-03-22 06:54:00,METAR KSLC 220654Z 33008KT 10SM BKN260 15/05 A3001 RMK AO2 SLP118 T01500050 402890094 $,0,8,0,16090,0,0,0,
2026-03-22 05:54:00,METAR KSLC 220554Z 31006KT 10SM BKN250 17/06 A2998 RMK AO2 SLP106 T01670061 10256 20161 51012 $,0,6,0,16090,0,0,0,
2026-03-22 04:54:00,METAR KSLC 220454Z 23004KT 10SM FEW120 SCT180 BKN250 18/02 A2996 RMK AO2 SLP103 T01780022 $,0,4,0,16090,0,0,0,
2026-03-22 03:54:00,METAR KSLC 220354Z 23004KT 10SM SCT180 BKN250 19/01 A2995 RMK AO2 SLP100 T01890006 $,0,4,0,16090,0,0,0,
2026-03-22 02:54:00,METAR KSLC 220254Z 33005KT 10SM SCT180 BKN250 22/M02 A2993 RMK AO2 SLP098 T02171022 53004 $,0,5,0,16090,0,0,0,
2026-03-22 01:54:00,METAR KSLC 220154Z 36009KT 10SM FEW120 BKN190 BKN250 19/05 A2992 RMK AO2 SLP102 T01890050 $,0,9,0,16090,0,0,0,
2026-03-22 00:54:00,METAR KSLC 220054Z 35010KT 10SM FEW110 SCT170 BKN230 23/02 A2991 RMK AO2 SLP091 T02330022 $,0,10,0,16090,0,0,0,
2026-03-21 23:54:00,METAR KSLC 212354Z 36012KT 10SM FEW110 BKN180 BKN250 26/01 A2992 RMK AO2 SLP089 T02560006 10289 20239 56006 $,0,12,0,16090,0,0,0,
2026-03-21 22:54:00,METAR KSLC 212254Z COR 35014KT 10SM FEW120 SCT190 BKN250 27/01 A2992 RMK AO2 SLP086 T02720006 $,0,14,0,16090,0,0,0,
2026-03-21 21:54:00,METAR KSLC 212154Z 33008KT 10SM FEW012 SCT190 BKN250 28/M03 A2992 RMK AO2 SLP088 FU FEW012 FU N T02781033 $,0,8,0,16090,0,0,0,
2026-03-21 20:54:00,METAR KSLC 212054Z 35004KT 10SM FEW010 SCT200 BKN250 28/M02 A2994 RMK AO2 SLP093 FU FEW010 FU N T02781017 58017 $,0,4,0,16090,0,0,0,
2026-03-21 19:54:00,METAR KSLC 211954Z 33008KT 10SM FEW150 BKN250 27/00 A2996 RMK AO2 SLP100 T02720000 $,0,8,0,16090,0,0,0,
2026-03-21 18:54:00,METAR KSLC 211854Z 33003KT 10SM BKN250 25/M02 A2998 RMK AO2 SLP107 T02501017 $,0,3,0,16090,0,0,0,
2026-03-21 17:54:00,METAR KSLC 211754Z 00000KT 10SM SCT250 23/M02 A3000 RMK AO2 SLP115 T02331022 10233 20094 58000 $,0,0,0,16090,0,0,0,
2026-03-21 16:54:00,METAR KSLC 211654Z 18005KT 10SM SCT250 21/M01 A3001 RMK AO2 SLP120 T02111006 $,0,5,0,16090,0,0,0,
2026-03-21 15:54:00,METAR KSLC 211554Z 16004KT 10SM SCT250 19/02 A3000 RMK AO2 SLP119 T01890017 $,0,4,0,16090,0,0,0,
2026-03-21 14:54:00,METAR KSLC 211454Z 00000KT 10SM SCT250 13/03 A3000 RMK AO2 SLP125 T01280033 51004 $,0,0,0,16090,0,0,0,
2026-03-21 13:54:00,METAR KSLC 211354Z 00000KT 10SM FEW250 10/02 A3000 RMK AO2 SLP124 T01000022 $,0,0,0,16090,0,0,0,
2026-03-21 12:54:00,METAR KSLC 211254Z 00000KT 10SM CLR 11/01 A2999 RMK AO2 SLP116 T01060011 $,0,0,0,16090,0,0,0,
2026-03-21 11:54:00,METAR KSLC 211154Z 13003KT 10SM CLR 13/M01 A2998 RMK AO2 SLP109 T01331006 10150 20111 56010 $,0,3,0,16090,0,0,0,
2026-03-21 10:54:00,METAR KSLC 211054Z 13005KT 10SM CLR 13/00 A2999 RMK AO2 SLP110 T01330000 $,0,5,0,16090,0,0,0,
2026-03-21 09:54:00,METAR KSLC 210954Z 12006KT 10SM CLR 12/01 A3001 RMK AO2 SLP119 T01220011 $,0,6,0,16090,0,0,0,
2026-03-21 08:54:00,METAR KSLC 210854Z 16004KT 10SM CLR 13/02 A3002 RMK AO2 SLP123 T01330017 56009 $,0,4,0,16090,0,0,0,
2026-03-21 07:54:00,METAR KSLC 210754Z 00000KT 10SM CLR 14/03 A3003 RMK AO2 SLP126 T01390028 $,0,0,0,16090,0,0,0,
2026-03-21 06:54:00,METAR KSLC 210654Z 13006KT 10SM CLR 14/02 A3004 RMK AO2 SLP131 T01440022 402670094 $,0,6,0,16090,0,0,0,
2026-03-21 05:54:00,METAR KSLC 210554Z 15005KT 10SM CLR 15/02 A3005 RMK AO2 SLP136 T01500022 10261 20150 56012,0,5,0,16090,0,0,0,
2026-03-21 04:54:00,METAR KSLC 210454Z 14007KT 10SM CLR 17/03 A3006 RMK AO2 SLP139 T01670028,0,7,0,16090,0,0,0,
2026-03-21 03:54:00,METAR KSLC 210354Z 17004KT 10SM CLR 18/02 A3008 RMK AO2 SLP148 T01780022,0,4,0,16090,0,0,0,
2026-03-21 02:54:00,METAR KSLC 210254Z 00000KT 10SM CLR 18/03 A3009 RMK AO2 SLP155 T01830028 56008,0,0,0,16090,0,0,0,
2026-03-21 02:10:00,SPECI KSLC 210210Z COR 26004KT 10SM CLR 21/03 A3009 RMK AO2 T02060028,0,4,0,16090,0,0,0,
2026-03-21 01:54:00,METAR KSLC 210154Z 26004KT 10SM FEW160 21/03 A3009 RMK AO2 SLP158 T02110033,0,4,0,16090,0,0,0,
2026-03-21 00:54:00,METAR KSLC 210054Z 29006KT 10SM CLR 24/03 A3010 RMK AO2 SLP156 T02440033,0,6,0,16090,0,0,0,
2026-03-20 23:54:00,METAR KSLC 202354Z COR 30006KT 10SM CLR 26/03 A3012 RMK AO2 SLP159 T02610028 10267 20211 56025,0,6,0,16090,0,0,0,
2026-03-20 23:21:00,SPECI KSLC 202321Z COR 32007KT 10SM CLR 27/02 A3013 RMK AO2 T02670017,0,7,0,16090,0,0,0,
2026-03-20 22:54:00,METAR KSLC 202254Z 34009KT 10SM CLR 27/02 A3014 RMK AO2 SLP166 T02670017,0,9,0,16090,0,0,0,
2026-03-20 21:54:00,METAR KSLC 202154Z 01007KT 10SM CLR 27/02 A3017 RMK AO2 SLP175 T02670022,0,7,0,16090,0,0,0,
2026-03-20 20:54:00,METAR KSLC 202054Z 33007KT 10SM CLR 25/03 A3020 RMK AO2 SLP187 T02500033 58023,0,7,0,16090,0,0,0,
2026-03-20 19:54:00,METAR KSLC 201954Z VRB04KT 10SM CLR 24/01 A3023 RMK AO2 SLP198 T02440006,0,4,0,16090,0,0,0,
2026-03-20 18:54:00,METAR KSLC 201854Z 00000KT 10SM CLR 23/M02 A3026 RMK AO2 SLP208 T02281017,0,0,0,16090,0,0,0,
2026-03-20 17:54:00,METAR KSLC 201754Z 00000KT 10SM FEW200 21/M02 A3028 RMK AO2 SLP215 T02111022 10211 20100 58002,0,0,0,16090,0,0,0,
2026-03-20 16:54:00,METAR KSLC 201654Z 00000KT 10SM CLR 19/M01 A3029 RMK AO2 SLP220 T01941011,0,0,0,16090,0,0,0,
2026-03-20 15:54:00,METAR KSLC 201554Z 00000KT 10SM CLR 17/M01 A3029 RMK AO2 SLP223 T01671011,0,0,0,16090,0,0,0,
2026-03-20 14:54:00,METAR KSLC 201454Z 15005KT 10SM CLR 14/M01 A3028 RMK AO2 SLP222 T01391006 51008,0,5,0,16090,0,0,0,
2026-03-20 13:54:00,METAR KSLC 201354Z 13006KT 10SM CLR 10/M01 A3028 RMK AO2 SLP221 T01001011,0,6,0,16090,0,0,0,
2026-03-20 12:54:00,METAR KSLC 201254Z 15006KT 10SM CLR 10/M01 A3027 RMK AO2 SLP216 T01001011,0,6,0,16090,0,0,0,
2026-03-20 11:54:00,METAR KSLC 201154Z 12007KT 10SM CLR 11/M02 A3026 RMK AO2 SLP208 T01061017 10150 20094 55003 $,0,7,0,16090,0,0,0,
2026-03-20 10:54:00,METAR KSLC 201054Z 16003KT 10SM CLR 12/M01 A3025 RMK AO2 SLP204 T01171011 $,0,3,0,16090,0,0,0,
2026-03-20 09:54:00,METAR KSLC 200954Z 13004KT 10SM CLR 12/M02 A3026 RMK AO2 SLP206 T01171017 $,0,4,0,16090,0,0,0,
2026-03-20 08:54:00,METAR KSLC 200854Z 14007KT 10SM CLR 13/M01 A3027 RMK AO2 SLP209 T01281011 51004 $,0,7,0,16090,0,0,0,
2026-03-20 07:54:00,METAR KSLC 200754Z 13006KT 10SM CLR 13/M01 A3027 RMK AO2 SLP209 T01331011,0,6,0,16090,0,0,0,
2026-03-20 06:54:00,METAR KSLC 200654Z 14007KT 10SM CLR 14/M02 A3027 RMK AO2 SLP206 T01441017 402720094,0,7,0,16090,0,0,0,
2026-03-20 05:54:00,METAR KSLC 200554Z 15008KT 10SM CLR 15/M02 A3025 RMK AO2 SLP204 T01501022 10261 20150 50002,0,8,0,16090,0,0,0,
2026-03-20 04:54:00,METAR KSLC 200454Z 16007KT 10SM CLR 16/M03 A3026 RMK AO2 SLP206 T01611028,0,7,0,16090,0,0,0,
2026-03-20 03:54:00,METAR KSLC 200354Z 14007KT 10SM CLR 17/M03 A3025 RMK AO2 SLP209 T01721028,0,7,0,16090,0,0,0,
2026-03-20 02:54:00,METAR KSLC 200254Z 35003KT 10SM CLR 19/M02 A3025 RMK AO2 SLP209 T01941017 53001,0,3,0,16090,0,0,0,
2026-03-20 01:54:00,METAR KSLC 200154Z 00000KT 10SM CLR 22/M01 A3024 RMK AO2 SLP208 T02171011,0,0,0,16090,0,0,0,
2026-03-20 00:54:00,METAR KSLC 200054Z 35006KT 10SM CLR 23/03 A3024 RMK AO2 SLP205 T02330033,0,6,0,16090,0,0,0,
2026-03-19 23:54:00,METAR KSLC 192354Z 35010KT 10SM CLR 26/M02 A3024 RMK AO2 SLP203 T02611017 10272 20233 56013,0,10,0,16090,0,0,0,
2026-03-19 22:54:00,METAR KSLC 192254Z 36009KT 10SM CLR 27/M01 A3025 RMK AO2 SLP206 T02671006,0,9,0,16090,0,0,0,
2026-03-19 21:54:00,METAR KSLC 192154Z 33008KT 10SM CLR 27/M01 A3027 RMK AO2 SLP210 T02671006,0,8,0,16090,0,0,0,
2026-03-19 20:54:00,METAR KSLC 192054Z 35007KT 10SM CLR 26/M03 A3029 RMK AO2 SLP217 T02561033 58008,0,7,0,16090,0,0,0,
2026-03-19 19:54:00,METAR KSLC 191954Z 34009KT 10SM CLR 26/03 A3031 RMK AO2 SLP222 T02560033,0,9,0,16090,0,0,0,
2026-03-19 18:54:00,METAR KSLC 191854Z VRB04KT 10SM CLR 26/01 A3031 RMK AO2 SLP220 T02610006,0,4,0,16090,0,0,0,
2026-03-19 17:54:00,METAR KSLC 191754Z 16004KT 10SM CLR 23/M03 A3031 RMK AO2 SLP224 T02331028 10233 20100 51002,0,4,0,16090,0,0,0,
2026-03-19 16:54:00,METAR KSLC 191654Z 14010KT 10SM CLR 21/M02 A3031 RMK AO2 SLP226 T02111017 $,0,10,0,16090,0,0,0,
2026-03-19 15:54:00,METAR KSLC 191554Z 14008KT 10SM CLR 17/M02 A3032 RMK AO2 SLP231 T01721017 $,0,8,0,16090,0,0,0,
2026-03-19 14:54:00,METAR KSLC 191454Z 16006KT 10SM CLR 14/M02 A3030 RMK AO2 SLP230 T01391017 51014 $,0,6,0,16090,0,0,0,
2026-03-19 13:54:00,METAR KSLC 191354Z 14006KT 10SM CLR 10/M02 A3029 RMK AO2 SLP230 T01001017 $,0,6,0,16090,0,0,0,
2026-03-19 12:54:00,METAR KSLC 191254Z 00000KT 10SM CLR 11/M01 A3028 RMK AO2 SLP222 T01061011 $,0,0,0,16090,0,0,0,
2026-03-19 11:54:00,METAR KSLC 191154Z 12008KT 10SM CLR 10/M02 A3026 RMK AO2 SLP210 T01001017 10150 20094 53001 $,0,8,0,16090,0,0,0,
2026-03-19 10:54:00,METAR KSLC 191054Z 12007KT 10SM CLR 10/M01 A3025 RMK AO2 SLP204 T01001011 $,0,7,0,16090,0,0,0,
2026-03-19 09:54:00,METAR KSLC 190954Z 15006KT 10SM CLR 11/M01 A3025 RMK AO2 SLP204 T01061011 $,0,6,0,16090,0,0,0,
2026-03-19 08:54:00,METAR KSLC 190854Z 06006KT 10SM CLR 12/M01 A3026 RMK AO2 SLP207 T01171011 53004 $,0,6,0,16090,0,0,0,
2026-03-19 07:54:00,METAR KSLC 190754Z 15008KT 10SM CLR 13/M01 A3024 RMK AO2 SLP202 T01281006 $,0,8,0,16090,0,0,0,
2026-03-19 06:54:00,METAR KSLC 190654Z 15007KT 10SM CLR 14/M01 A3024 RMK AO2 SLP201 T01391006 402610083 $,0,7,0,16090,0,0,0,
2026-03-19 05:54:00,METAR KSLC 190554Z 15008KT 10SM CLR 15/M01 A3024 RMK AO2 SLP203 T01501011 10256 20144 51008 $,0,8,0,16090,0,0,0,
2026-03-19 04:54:00,METAR KSLC 190454Z 14007KT 10SM CLR 16/M02 A3024 RMK AO2 SLP202 T01561017 $,0,7,0,16090,0,0,0,
2026-03-19 03:54:00,METAR KSLC 190354Z 15007KT 10SM CLR 17/00 A3023 RMK AO2 SLP200 T01720000 $,0,7,0,16090,0,0,0,
2026-03-19 02:54:00,METAR KSLC 190254Z 18005KT 10SM CLR 18/02 A3022 RMK AO2 SLP200 T01830017 53003 $,0,5,0,16090,0,0,0,
2026-03-19 01:54:00,METAR KSLC 190154Z 36006KT 10SM FEW250 18/03 A3020 RMK AO2 SLP200 T01830028 $,0,6,0,16090,0,0,0,
2026-03-19 00:54:00,METAR KSLC 190054Z 36008KT 10SM FEW250 23/03 A3021 RMK AO2 SLP196 T02280028 $,0,8,0,16090,0,0,0,
2026-03-18 23:54:00,METAR KSLC 182354Z 35009KT 10SM FEW250 26/01 A3021 RMK AO2 SLP191 T02560006 10261 20211 56011 $,0,9,0,16090,0,0,0,
2026-03-18 22:54:00,METAR KSLC 182254Z 36009KT 10SM FEW250 26/M02 A3021 RMK AO2 SLP194 T02611022 $,0,9,0,16090,0,0,0,
2026-03-18 21:54:00,METAR KSLC 182154Z VRB04KT 10SM FEW250 26/M03 A3023 RMK AO2 SLP199 T02611028 $,0,4,0,16090,0,0,0,
2026-03-18 20:54:00,METAR KSLC 182054Z VRB03KT 10SM CLR 25/M03 A3024 RMK AO2 SLP205 T02501028 58010 $,0,3,0,16090,0,0,0,
2026-03-18 19:54:00,METAR KSLC 181954Z VRB03KT 10SM CLR 25/M04 A3027 RMK AO2 SLP211 T02501044 $,0,3,0,16090,0,0,0,
2026-03-18 18:54:00,METAR KSLC 181854Z 14005KT 10SM FEW015 24/M03 A3027 RMK AO2 SLP214 FU FEW015 FU DSNT NE T02391028 $,0,5,0,16090,0,0,0,DS
2026-03-18 17:54:00,METAR KSLC 181754Z 15006KT 10SM CLR 22/M02 A3028 RMK AO2 SLP217 T02171017 10217 20083 51006 $,0,6,0,16090,0,0,0,
2026-03-18 16:54:00,METAR KSLC 181654Z 15008KT 10SM CLR 19/M02 A3027 RMK AO2 SLP217 T01941017 $,0,8,0,16090,0,0,0,
2026-03-18 15:54:00,METAR KSLC 181554Z 13009KT 10SM CLR 17/M02 A3027 RMK AO2 SLP218 T01671017 $,0,9,0,16090,0,0,0,
2026-03-18 14:54:00,METAR KSLC 181454Z 13009KT 10SM CLR 13/M02 A3025 RMK AO2 SLP217 T01331017 53011 $,0,9,0,16090,0,0,0,
2026-03-18 13:54:00,METAR KSLC 181354Z 13009KT 10SM FEW250 10/M02 A3024 RMK AO2 SLP211 T01001022 $,0,9,0,16090,0,0,0,
2026-03-18 12:54:00,METAR KSLC 181254Z 12007KT 10SM FEW260 09/M02 A3023 RMK AO2 SLP207 T00941017 $,0,7,0,16090,0,0,0,
2026-03-18 11:54:00,METAR KSLC 181154Z 14006KT 10SM CLR 09/M02 A3022 RMK AO2 SLP201 T00941022 10128 20089 53004 $,0,6,0,16090,0,0,0,
2026-03-18 10:54:00,METAR KSLC 181054Z 12005KT 10SM CLR 09/M02 A3021 RMK AO2 SLP199 T00941022 $,0,5,0,16090,0,0,0,
2026-03-18 09:54:00,METAR KSLC 180954Z 12007KT 10SM CLR 09/M02 A3021 RMK AO2 SLP199 T00941017 $,0,7,0,16090,0,0,0,
2026-03-18 08:54:00,METAR KSLC 180854Z 15007KT 10SM CLR 11/M02 A3021 RMK AO2 SLP196 T01061017 51001 $,0,7,0,16090,0,0,0,
2026-03-18 07:54:00,METAR KSLC 180754Z 15007KT 10SM CLR 11/M02 A3020 RMK AO2 SLP195 T01111017 $,0,7,0,16090,0,0,0,
2026-03-18 06:54:00,METAR KSLC 180654Z 14009KT 10SM FEW260 12/M02 A3020 RMK AO2 SLP196 T01221017 402170050 $,0,9,0,16090,0,0,0,
2026-03-18 05:54:00,METAR KSLC 180554Z 13007KT 10SM BKN250 13/M02 A3020 RMK AO2 SLP195 T01281017 10211 20128 53008 $,0,7,0,16090,0,0,0,
2026-03-18 04:54:00,METAR KSLC 180454Z 12008KT 10SM BKN250 13/M02 A3018 RMK AO2 SLP191 T01331017 $,0,8,0,16090,0,0,0,
2026-03-18 03:54:00,METAR KSLC 180354Z 16008KT 10SM BKN240 14/M01 A3017 RMK AO2 SLP189 T01441006 $,0,8,0,16090,0,0,0,
2026-03-18 02:54:00,METAR KSLC 180254Z 16006KT 10SM BKN240 16/M01 A3017 RMK AO2 SLP193 T01561011 55002 $,0,6,0,16090,0,0,0,
2026-03-18 01:54:00,METAR KSLC 180154Z 12004KT 10SM FEW200 BKN240 19/M03 A3017 RMK AO2 SLP192 ACSL DSNT E T01891028 $,0,4,0,16090,0,0,0,DS
2026-03-18 00:54:00,METAR KSLC 180054Z 07005KT 10SM FEW120 FEW200 BKN240 20/M03 A3017 RMK AO2 SLP193 ACSL DSNT NE-E T02001028 $,0,5,0,16090,0,0,0,DS
2026-03-17 23:54:00,METAR KSLC 172354Z 00000KT 10SM FEW120 FEW180 BKN250 21/M02 A3018 RMK AO2 SLP194 ACSL DSNT N AND NE-E T02111017 10217 20178 58012 $,0,0,0,16090,0,0,0,DS
2026-03-17 22:54:00,METAR KSLC 172254Z 32006KT 10SM FEW120 FEW180 BKN250 22/M01 A3020 RMK AO2 SLP198 ACSL DSNT N AND E T02171006 $,0,6,0,16090,0,0,0,DS
2026-03-17 21:54:00,METAR KSLC 172154Z 32009KT 10SM FEW120 FEW180 BKN250 21/M01 A3020 RMK AO2 SLP202 ACSL DSNT N AND NE T02111006 $,0,9,0,16090,0,0,0,DS
2026-03-17 20:54:00,METAR KSLC 172054Z 27008KT 10SM FEW200 SCT250 21/00 A3022 RMK AO2 SLP206 T02110000 58009 $,0,8,0,16090,0,0,0,
2026-03-17 19:54:00,METAR KSLC 171954Z 29008KT 10SM FEW200 SCT250 21/00 A3024 RMK AO2 SLP213 T02110000 $,0,8,0,16090,0,0,0,
2026-03-17 18:54:00,METAR KSLC 171854Z 01004KT 10SM FEW090 FEW250 19/00 A3024 RMK AO2 SLP212 T01940000 $,0,4,0,16090,0,0,0,
2026-03-17 17:54:00,METAR KSLC 171754Z 00000KT 10SM FEW250 18/01 A3025 RMK AO2 SLP217 T01780011 10178 20050 50001 $,0,0,0,16090,0,0,0,
2026-03-17 16:54:00,METAR KSLC 171654Z 17008KT 10SM FEW250 16/01 A3026 RMK AO2 SLP223 T01560011 $,0,8,0,16090,0,0,0,
2026-03-17 15:54:00,METAR KSLC 171554Z 14010KT 10SM FEW250 13/01 A3026 RMK AO2 SLP224 T01280006 $,0,10,0,16090,0,0,0,
2026-03-17 14:54:00,METAR KSLC 171454Z 15009KT 10SM FEW250 09/00 A3025 RMK AO2 SLP225 T00940000 53005 $,0,9,0,16090,0,0,0,
2026-03-17 13:54:00,METAR KSLC 171354Z 13010KT 10SM FEW250 07/M01 A3024 RMK AO2 SLP224 T00671006 $,0,10,0,16090,0,0,0,
2026-03-17 12:54:00,METAR KSLC 171254Z 13009KT 10SM FEW250 06/M01 A3024 RMK AO2 SLP222 T00561006 $,0,9,0,16090,0,0,0,
2026-03-17 11:54:00,METAR KSLC 171154Z 14007KT 10SM CLR 06/M01 A3023 RMK AO2 SLP220 T00561006 10100 20056 58001 $,0,7,0,16090,0,0,0,
2026-03-17 10:54:00,METAR KSLC 171054Z 14008KT 10SM CLR 06/00 A3023 RMK AO2 SLP221 T00610000 $,0,8,0,16090,0,0,0,
2026-03-17 09:54:00,METAR KSLC 170954Z 14005KT 10SM CLR 06/00 A3024 RMK AO2 SLP225 T00560000 $,0,5,0,16090,0,0,0,
2026-03-17 08:54:00,METAR KSLC 170854Z 15007KT 10SM CLR 07/01 A3023 RMK AO2 SLP223 T00670006 55001 $,0,7,0,16090,0,0,0,
2026-03-17 07:54:00,METAR KSLC 170754Z 15007KT 10SM FEW140 07/01 A3023 RMK AO2 SLP223 T00720006 $,0,7,0,16090,0,0,0,
2026-03-17 06:54:00,METAR KSLC 170654Z 13005KT 10SM FEW140 FEW230 08/01 A3024 RMK AO2 SLP225 T00830006 401440028 $,0,5,0,16090,0,0,0,
2026-03-17 05:54:00,METAR KSLC 170554Z 15004KT 10SM FEW140 SCT220 09/01 A3024 RMK AO2 SLP225 T00940011 10144 20089 51007 $,0,4,0,16090,0,0,0,
2026-03-17 04:54:00,METAR KSLC 170454Z 00000KT 10SM BKN140 BKN180 11/01 A3024 RMK AO2 SLP222 T01110006 $,0,0,0,16090,0,0,0,
2026-03-17 03:54:00,METAR KSLC 170354Z 22004KT 10SM FEW070 BKN110 BKN230 12/01 A3023 RMK AO2 SLP221 T01220006 $,0,4,0,16090,0,0,0,
2026-03-17 02:54:00,METAR KSLC 170254Z 10006KT 10SM SCT070 SCT090 BKN250 12/01 A3021 RMK AO2 SLP218 T01170006 56008 $,0,6,0,16090,0,0,0,
2026-03-17 01:54:00,METAR KSLC 170154Z 13003KT 10SM SCT065 BKN085 BKN250 13/01 A3022 RMK AO2 SLP221 ACSL DSNT NE AND SE AND SW-W T01280006 $,0,3,0,16090,0,0,0,DS
2026-03-17 00:54:00,METAR KSLC 170054Z 10004KT 10SM FEW060 FEW100 BKN250 14/00 A3023 RMK AO2 SLP221 ACSL DSNT E-SE AND W T01390000 $,0,4,0,16090,0,0,0,DS
2026-03-16 23:54:00,METAR KSLC 162354Z 16003KT 10SM FEW060 SCT100 SCT250 14/M02 A3024 RMK AO2 SLP225 ACSL DSNT NE AND SE AND SW T01391017 10144 20089 58013 $,0,3,0,16090,0,0,0,DS
2026-03-16 22:54:00,METAR KSLC 162254Z 05005KT 10SM SCT060 BKN100 BKN250 14/M03 A3026 RMK AO2 SLP233 ACSL DSNT N AND SW T01391028 $,0,5,0,16090,0,0,0,DS
2026-03-16 20:54:00,METAR KSLC 162054Z VRB04KT 10SM FEW045 BKN060 BKN080 12/M08 A3028 RMK AO2 SLP244 T01221078 58005 $,0,4,0,16090,0,0,0,
2026-03-16 19:54:00,METAR KSLC 161954Z 00000KT 10SM BKN060 11/M10 A3030 RMK AO2 SLP253 T01111100 $,0,0,0,16090,0,0,0,
2026-03-16 18:54:00,METAR KSLC 161854Z 13004KT 10SM BKN060 10/M11 A3030 RMK AO2 SLP255 T01001106 $,0,4,0,16090,0,0,0,
2026-03-16 17:54:00,METAR KSLC 161754Z 15006KT 10SM BKN060 09/M10 A3030 RMK AO2 SLP256 T00891100 10089 20044 50002 $,0,6,0,16090,0,0,0,
2026-03-16 16:54:00,METAR KSLC 161654Z 16005KT 10SM BKN060 BKN200 08/M11 A3030 RMK AO2 SLP257 T00831106 $,0,5,0,16090,0,0,0,
2026-03-16 15:54:00,METAR KSLC 161554Z 16005KT 10SM BKN060 BKN200 07/M11 A3030 RMK AO2 SLP259 T00671106 $,0,5,0,16090,0,0,0,
2026-03-16 14:54:00,METAR KSLC 161454Z 11004KT 10SM BKN060 BKN200 06/M10 A3029 RMK AO2 SLP256 T00561100 53003 $,0,4,0,16090,0,0,0,
2026-03-16 13:54:00,METAR KSLC 161354Z 18004KT 10SM BKN060 OVC080 05/M10 A3029 RMK AO2 SLP253 T00501100 $,0,4,0,16090,0,0,0,
2026-03-16 12:54:00,METAR KSLC 161254Z 00000KT 10SM OVC065 04/M12 A3029 RMK AO2 SLP255 T00441122 $,0,0,0,16090,0,0,0,
2026-03-16 11:54:00,METAR KSLC 161154Z 12003KT 10SM OVC070 04/M12 A3028 RMK AO2 SLP253 T00441122 10044 20028 55005 $,0,3,0,16090,0,0,0,
2026-03-16 10:54:00,METAR KSLC 161054Z 12007KT 10SM OVC070 04/M11 A3027 RMK AO2 SLP247 T00391111 $,0,7,0,16090,0,0,0,
2026-03-16 09:54:00,METAR KSLC 160954Z 00000KT 10SM OVC070 04/M11 A3027 RMK AO2 SLP249 T00391106 $,0,0,0,16090,0,0,0,
2026-03-16 08:54:00,METAR KSLC 160854Z 18004KT 10SM OVC060 03/M10 A3030 RMK AO2 SLP261 T00331100 58010 $,0,4,0,16090,0,0,0,
2026-03-16 07:54:00,METAR KSLC 160754Z 14003KT 10SM OVC070 03/M10 A3032 RMK AO2 SLP267 T00331100 $,0,3,0,16090,0,0,0,
2026-03-16 06:54:00,METAR KSLC 160654Z 00000KT 10SM SCT085 BKN110 03/M11 A3033 RMK AO2 SLP273 T00281111 400611028 $,0,0,0,16090,0,0,0,
2026-03-16 05:54:00,METAR KSLC 160554Z 00000KT 10SM FEW090 BKN260 03/M13 A3034 RMK AO2 SLP275 T00331128 10056 20028 50006 $,0,0,0,16090,0,0,0,
2026-03-16 04:54:00,METAR KSLC 160454Z 00000KT 10SM FEW180 SCT250 03/M13 A3035 RMK AO2 SLP280 T00331128 $,0,0,0,16090,0,0,0,
2026-03-16 03:54:00,METAR KSLC 160354Z 22004KT 10SM FEW210 FEW250 03/M12 A3033 RMK AO2 SLP270 T00331122 $,0,4,0,16090,0,0,0,
2026-03-16 02:54:00,METAR KSLC 160254Z 10005KT 10SM SCT210 SCT250 04/M14 A3031 RMK AO2 SLP263 T00391139 55004 $,0,5,0,16090,0,0,0,
2026-03-16 01:54:00,METAR KSLC 160154Z 08005KT 10SM FEW200 BKN250 05/M14 A3031 RMK AO2 SLP275 T00501144,0,5,0,16090,0,0,0,
2026-03-16 00:54:00,METAR KSLC 160054Z 19003KT 10SM FEW220 BKN250 05/M15 A3032 RMK AO2 SLP276 T00501150,0,3,0,16090,0,0,0,
2026-03-15 23:54:00,METAR KSLC 152354Z 28005KT 10SM BKN250 06/M15 A3033 RMK AO2 SLP268 T00561150 10061 20039 58008,0,5,0,16090,0,0,0,
2026-03-15 22:54:00,METAR KSLC 152254Z 27010KT 10SM BKN250 06/M16 A3034 RMK AO2 SLP278 T00561156,0,10,0,16090,0,0,0,
2026-03-15 21:54:00,METAR KSLC 152154Z 32009G15KT 10SM BKN250 06/M14 A3035 RMK AO2 SLP281 T00561144,0,9,1,16090,0,0,0,
2026-03-15 20:54:00,METAR KSLC 152054Z 30009KT 10SM FEW010 BKN250 06/M13 A3036 RMK AO2 SLP282 FU FEW010 FU N T00561133 58004,0,9,0,16090,0,0,0,
2026-03-15 19:54:00,METAR KSLC 151954Z 29006G14KT 10SM BKN270 05/M14 A3038 RMK AO2 SLP288 T00501139,0,6,1,16090,0,0,0,
2026-03-15 18:54:00,METAR KSLC 151854Z COR 35008KT 10SM FEW220 SCT270 04/M16 A3038 RMK AO2 SLP287 T00441156,0,8,0,16090,0,0,0,
2026-03-15 17:54:00,METAR KSLC 151754Z 27008KT 10SM FEW200 SCT270 04/M15 A3037 RMK AO2 SLP282 T00391150 10039 21028 51012,0,8,0,16090,0,0,0,
2026-03-15 16:54:00,METAR KSLC 151654Z 33007KT 10SM FEW200 SCT270 03/M13 A3037 RMK AO2 SLP281 T00281128,0,7,0,16090,0,0,0,
2026-03-15 15:54:00,METAR KSLC 151554Z 34005KT 10SM FEW150 BKN260 01/M11 A3036 RMK AO2 SLP279 T00111106,0,5,0,16090,0,0,0,
2026-03-15 14:54:00,METAR KSLC 151454Z 34005KT 10SM FEW150 SCT260 00/M09 A3033 RMK AO2 SLP265 T00001094 53022,0,5,0,16090,0,0,0,
2026-03-15 13:54:00,METAR KSLC 151354Z 34006KT 10SM FEW150 SCT260 M03/M08 A3030 RMK AO2 SLP257 ACSL DSNT N AND S T10281078,0,6,0,16090,0,0,0,DS
2026-03-15 12:54:00,METAR KSLC 151254Z 35007KT 10SM FEW160 M02/M09 A3028 RMK AO2 SLP249 T10171089,0,7,0,16090,0,0,0,
2026-03-15 11:54:00,METAR KSLC 151154Z 35008KT 10SM CLR M01/M08 A3026 RMK AO2 SLP238 T10111078 10072 21017 51023,0,8,0,16090,0,0,0,
2026-03-15 10:54:00,METAR KSLC 151054Z 35009KT 10SM CLR 01/M08 A3023 RMK AO2 SLP226 T00061083,0,9,0,16090,0,0,0,
2026-03-15 09:54:00,METAR KSLC 150954Z 32013KT 10SM CLR 02/M11 A3021 RMK AO2 SLP216 T00171106,0,13,0,16090,0,0,0,
2026-03-15 08:54:00,METAR KSLC 150854Z 34011KT 10SM CLR 02/M12 A3018 RMK AO2 SLP206 T00221122 51037,0,11,0,16090,0,0,0,
