Time_recorded,METAR,is_cavok,wind_speed,is_gust,visibility_meters,has_thunderstorm,has_heavy_rain,has_low_vis_fog,other_phenomenon
2026-05-02 14:53:00,METAR KASE 021453Z 04003KT 10SM CLR 06/M07 A3029 RMK AO2 SLP203 T00561072 51007,0,3.0,0,16090,0,0,0,
2026-05-02 13:53:00,METAR KASE 021353Z 00000KT 10SM CLR 02/M07 A3028 RMK AO2 SLP201 T00171067,0,0.0,0,16090,0,0,0,
2026-05-02 12:53:00,METAR KASE 021253Z VRB03KT 10SM CLR M01/M07 A3027 RMK AO2 SLP201 T10061067,0,3.0,0,16090,0,0,0,
2026-05-02 11:53:00,METAR KASE 021153Z AUTO 21006KT 10SM CLR M02/M07 A3026 RMK AO2 SLP201 70001 T10221067 10011 21028 53004,0,6.0,0,16090,0,0,0,
2026-05-02 10:53:00,METAR KASE 021053Z AUTO 21005KT 10SM CLR M01/M07 A3026 RMK AO2 SLP197 T10061067,0,5.0,0,16090,0,0,0,
2026-05-02 09:53:00,METAR KASE 020953Z AUTO 21004KT 10SM CLR 00/M06 A3025 RMK AO2 SLP193 T00001061,0,4.0,0,16090,0,0,0,
2026-05-02 08:53:00,METAR KASE 020853Z AUTO 21005KT 10SM CLR M01/M06 A3025 RMK AO2 SLP189 T10111056 51004,0,5.0,0,16090,0,0,0,
2026-05-02 07:53:00,METAR KASE 020753Z AUTO 00000KT 10SM CLR M02/M05 A3025 RMK AO2 SLP196 T10171050,0,0.0,0,16090,0,0,0,
2026-05-02 06:53:00,METAR KASE 020653Z AUTO 21007KT 10SM CLR M01/M05 A3024 RMK AO2 SLP190 T10061050 401111011,0,7.0,0,16090,0,0,0,
2026-05-02 05:53:00,METAR KASE 020553Z AUTO 19004KT 10SM CLR 01/M04 A3023 RMK AO2 SLP187 60000 T00061044 10100 20000 51017,0,4.0,0,16090,0,0,0,
2026-05-02 04:53:00,METAR KASE 020453Z AUTO 21007KT 10SM CLR 01/M04 A3023 RMK AO2 SLP191 T00061039,0,7.0,0,16090,0,0,0,
2026-05-02 03:53:00,METAR KASE 020353Z AUTO 21007KT 10SM CLR 02/M04 A3020 RMK AO2 SLP183 T00221039,0,7.0,0,16090,0,0,0,
2026-05-02 02:53:00,METAR KASE 020253Z AUTO 20008KT 10SM CLR 04/M03 A3017 RMK AO2 SLP172 60000 T00391033 53015,0,8.0,0,16090,0,0,0,
2026-05-02 01:53:00,METAR KASE 020153Z 15007KT 10SM CLR 08/M05 A3014 RMK AO2 SLP158 T00781050,0,7.0,0,16090,0,0,0,
2026-05-02 00:53:00,METAR KASE 020053Z 15004KT 10SM CLR 09/M05 A3012 RMK AO2 RAB14E28 SLP143 P0000 T00941050,0,4.0,0,16090,0,0,0,RA
2026-05-01 23:53:00,METAR KASE 012353Z 26007KT 10SM BKN095 09/M03 A3012 RMK AO2 RAB10E29 SLP143 P0001 60001 T00941033 10111 20078 53004,0,7.0,0,16090,0,0,0,RA
2026-05-01 22:53:00,METAR KASE 012253Z 25004KT 10SM SCT075 BKN100 09/M03 A3011 RMK AO2 RAE09 SLP140 P0000 T00891028,0,4.0,0,16090,0,0,0,
2026-05-01 21:53:00,METAR KASE 012153Z 14009KT 10SM -RA BKN060 OVC080 09/M02 A3010 RMK AO2 RAB27 SLP140 P0000 T00891022,0,9.0,0,16090,0,0,0,-RA
2026-05-01 20:53:00,METAR KASE 012053Z 19007KT 10SM FEW050 SCT075 11/M06 A3011 RMK AO2 SLP134 T01061056 56009,0,7.0,0,16090,0,0,0,
2026-05-01 19:53:00,METAR KASE 011953Z 33009G20KT 10SM SCT060 OVC095 09/M04 A3011 RMK AO2 SLP142 T00891044,0,9.0,1,16090,0,0,0,
2026-05-01 18:53:00,METAR KASE 011853Z 01009G14KT 10SM BKN050 BKN060 OVC095 09/M03 A3012 RMK AO2 SLP144 T00941033,0,9.0,1,16090,0,0,0,
2026-05-01 17:53:00,METAR KASE 011753Z VRB04KT 10SM FEW060 08/M04 A3014 RMK AO2 SLP153 T00781044 10078 21006 58004,0,4.0,0,16090,0,0,0,
2026-05-01 16:53:00,METAR KASE 011653Z 35005KT 10SM FEW026 SCT070 06/M02 A3015 RMK AO2 SLP165 T00561022,0,5.0,0,16090,0,0,0,
2026-05-01 16:01:00,SPECI KASE 011601Z 04005KT 10SM SCT021 04/M02 A3015 RMK AO2 T00391017,0,5.0,0,16090,0,0,0,
2026-05-01 15:53:00,METAR KASE 011553Z 36007KT 10SM BKN021 04/M02 A3015 RMK AO2 SLP168 T00391017,0,7.0,0,16090,0,0,0,
2026-05-01 15:28:00,SPECI KASE 011528Z 01004KT 10SM BKN019 03/M02 A3015 RMK AO2 T00281022,0,4.0,0,16090,0,0,0,
2026-05-01 14:53:00,METAR KASE 011453Z 04003KT 10SM SCT021 02/M03 A3015 RMK AO2 SLP169 T00221033 51007,0,3.0,0,16090,0,0,0,
2026-05-01 13:53:00,METAR KASE 011353Z 12005KT 10SM OVC020 00/M03 A3015 RMK AO2 SLP176 T00001033,0,5.0,0,16090,0,0,0,
2026-05-01 12:53:00,METAR KASE 011253Z AUTO 14005KT 10SM OVC017 00/M03 A3014 RMK AO2 SLP170 T00001028,0,5.0,0,16090,0,0,0,
2026-05-01 12:40:00,SPECI KASE 011240Z AUTO 17004KT 10SM OVC015 00/M02 A3014 RMK AO2 T00001022,0,4.0,0,16090,0,0,0,
2026-05-01 11:53:00,METAR KASE 011153Z AUTO 21004KT 10SM OVC013 00/M02 A3013 RMK AO2 SLP164 70005 T00001022 10011 21011 53001,0,4.0,0,16090,0,0,0,
2026-05-01 10:53:00,METAR KASE 011053Z AUTO 00000KT 10SM OVC011 01/00 A3013 RMK AO2 CIG 006V012 SLP160 T00060000,0,0.0,0,16090,0,0,0,
2026-05-01 10:10:00,SPECI KASE 011010Z AUTO 00000KT 10SM FEW008 OVC012 00/M01 A3012 RMK AO2 T00001011,0,0.0,0,16090,0,0,0,
2026-05-01 09:53:00,METAR KASE 010953Z AUTO 21003KT 10SM OVC011 00/M01 A3012 RMK AO2 SLP147 T00001011,0,3.0,0,16090,0,0,0,
2026-05-01 09:21:00,SPECI KASE 010921Z AUTO 00000KT 10SM OVC006 00/M01 A3012 RMK AO2 CIG 004V009 T00001006,0,0.0,0,16090,0,0,0,
2026-05-01 08:53:00,METAR KASE 010853Z AUTO 00000KT 10SM OVC003 00/M01 A3012 RMK AO2 SLP152 T00001006 58001,0,0.0,0,16090,0,0,0,
2026-05-01 07:53:00,METAR KASE 010753Z AUTO 00000KT 10SM BKN004 BKN060 M01/M01 A3012 RMK AO2 SLP152 T10061011,0,0.0,0,16090,0,0,0,
2026-05-01 07:22:00,SPECI KASE 010722Z AUTO 00000KT 10SM SCT005 BKN065 00/M01 A3013 RMK AO2 T00001006,0,0.0,0,16090,0,0,0,
2026-05-01 06:53:00,METAR KASE 010653Z AUTO 00000KT 10SM OVC005 00/M01 A3013 RMK AO2 SLP151 T00001006 400941033,0,0.0,0,16090,0,0,0,
2026-05-01 06:14:00,SPECI KASE 010614Z AUTO 00000KT 10SM BKN005 OVC060 01/00 A3013 RMK AO2 T00110000,0,0.0,0,16090,0,0,0,
2026-05-01 06:06:00,SPECI KASE 010606Z AUTO 00000KT 10SM SCT005 OVC060 01/00 A3013 RMK AO2 T00060000,0,0.0,0,16090,0,0,0,
2026-05-01 05:53:00,METAR KASE 010553Z AUTO 00000KT 10SM OVC060 01/00 A3013 RMK AO2 UPB0459E09 SLP147 P0000 60005 T00060000 10044 20006 58002,0,0.0,0,16090,0,0,0,UP
2026-05-01 04:53:00,METAR KASE 010453Z AUTO 12003KT 10SM SCT028 OVC055 01/00 A3013 RMK AO2 SNE43 SLP149 P0002 T00110000,0,3.0,0,16090,0,0,0,
2026-05-01 04:30:00,SPECI KASE 010430Z AUTO 00000KT 3SM -SN BR FEW009 OVC017 01/00 A3014 RMK AO2 P0002 T00060000,0,0.0,0,4827,0,0,1,"BR,SN"
2026-05-01 04:24:00,SPECI KASE 010424Z AUTO 00000KT 2 1/2SM -SN BR FEW008 OVC014 01/00 A3014 RMK AO2 P0002 T00060000,0,0.0,0,4022,0,0,1,"BR,SN"
2026-05-01 04:14:00,SPECI KASE 010414Z AUTO 00000KT 1 3/4SM -SN BR BKN010 OVC017 01/00 A3014 RMK AO2 P0002 T00060000,0,0.0,0,2816,0,0,1,"BR,SN"
2026-05-01 04:05:00,SPECI KASE 010405Z AUTO 00000KT 1 3/4SM -SN BR BKN008 OVC013 01/00 A3014 RMK AO2 P0001 T00060000,0,0.0,0,2816,0,0,1,"BR,SN"
2026-05-01 03:53:00,METAR KASE 010353Z AUTO 00000KT 3SM -SN BR BKN009 BKN015 OVC022 01/00 A3014 RMK AO2 RAE01UPB29E31SNB01E29B31 SLP160 P0003 T00110000,0,0.0,0,4827,0,0,1,"BR,RA,SN"
2026-05-01 03:49:00,SPECI KASE 010349Z AUTO 00000KT 3SM -SN BR SCT009 BKN015 OVC022 01/00 A3014 RMK AO2 RAE01UPB29E31SNB01E29B31 P0003,0,0.0,0,4827,0,0,1,"BR,RA,SN"
2026-05-01 03:41:00,SPECI KASE 010341Z AUTO 00000KT 2 1/2SM -SN BR SCT007 BKN015 OVC033 01/00 A3013 RMK AO2 RAE01UPB29E31SNB01E29B31 P0003 T00110000,0,0.0,0,4022,0,0,1,"BR,RA,SN"
2026-05-01 03:30:00,SPECI KASE 010330Z AUTO 32004KT 8SM UP BKN021 OVC033 02/00 A3013 RMK AO2 RAE01UPB29SNB01E29 P0002 T00170000,0,4.0,0,12872,0,0,0,"RA,UP"
2026-05-01 03:01:00,SPECI KASE 010301Z AUTO 29006KT 4SM -SN SCT020 BKN026 OVC037 02/M01 A3012 RMK AO2 RAE01SNB01 P0002 T00221006,0,6.0,0,6436,0,0,0,"RA,SN"
2026-05-01 02:53:00,METAR KASE 010253Z AUTO 32008KT 10SM -RA FEW020 SCT026 OVC039 03/00 A3011 RMK AO2 RAB49 SLP155 P0000 60000 T00280000 53010,0,8.0,0,16090,0,0,0,-RA
2026-05-01 01:53:00,METAR KASE 010153Z AUTO 00000KT 10SM SCT045 03/M01 A3009 RMK AO2 SLP152 T00281011,0,0.0,0,16090,0,0,0,
2026-05-01 00:53:00,METAR KASE 010053Z AUTO 09004KT 10SM SCT034 BKN060 BKN075 04/M01 A3008 RMK AO2 WSHFT 0007 RAB10E31SNB15E26B31E41 SLP152 P0000 T00391011,0,4.0,0,16090,0,0,0,RA
2026-05-01 00:48:00,SPECI KASE 010048Z AUTO 00000KT 10SM BKN034 OVC060 04/M02 A3007 RMK AO2 WSHFT 0007 RAB10E31SNB15E26B31E41 P0000,0,0.0,0,16090,0,0,0,RA
2026-05-01 00:37:00,SPECI KASE 010037Z AUTO 21005KT 10SM -SN BKN024 BKN033 03/00 A3007 RMK AO2 WSHFT 0007 RAB10E31SNB15E26B31 P0000 T00330000,0,5.0,0,16090,0,0,0,"RA,SN"
2026-05-01 00:27:00,SPECI KASE 010027Z AUTO 22010KT 9SM -RA BKN030 BKN037 OVC050 03/01 A3008 RMK AO2 WSHFT 0007 RAB10SNB15E26 P0000 T00330006,0,10.0,0,14481,0,0,0,"-RA,RA"
2026-04-30 23:53:00,METAR KASE 302353Z AUTO 32008KT 10SM FEW065 BKN080 04/M01 A3007 RMK AO2 RAE2254 SLP155 P0000 60000 T00441011 10094 20039 53010,0,8.0,0,16090,0,0,0,RA
2026-04-30 22:53:00,METAR KASE 302253Z AUTO 25007KT 10SM -RA OVC065 04/M01 A3006 RMK AO2 RAB39 SLP145 P0000 T00441006,0,7.0,0,16090,0,0,0,-RA
2026-04-30 21:53:00,METAR KASE 302153Z AUTO 24006KT 10SM SCT060 BKN080 OVC090 08/M06 A3002 RMK AO2 SLP119 T00831056,0,6.0,0,16090,0,0,0,
2026-04-30 20:53:00,METAR KASE 302053Z 23010G20KT 10SM SCT065 SCT080 OVC095 08/M05 A3003 RMK AO2 SLP122 T00781050 57006,0,10.0,1,16090,0,0,0,
2026-04-30 19:53:00,METAR KASE 301953Z 10SM SCT070 SCT110 08/M06 A3004 RMK AO2 SLP122 T00831056,0,,0,16090,0,0,0,
2026-04-30 18:53:00,METAR KASE 301853Z 02009KT 10SM FEW050 SCT065 09/M05 A3005 RMK AO2 SLP120 T00891050,0,9.0,0,16090,0,0,0,
2026-04-30 17:53:00,METAR KASE 301753Z 22012G18KT 10SM FEW075 09/M05 A3006 RMK AO2 SLP123 T00891050 10094 21033 56012,0,12.0,1,16090,0,0,0,
2026-04-30 16:53:00,METAR KASE 301653Z 05007KT 10SM BKN080 08/M04 A3006 RMK AO2 SLP126 T00831039,0,7.0,0,16090,0,0,0,
2026-04-30 15:53:00,METAR KASE 301553Z 16006KT 10SM CLR 06/M04 A3008 RMK AO2 SLP135 T00561039,0,6.0,0,16090,0,0,0,
2026-04-30 14:53:00,METAR KASE 301453Z 16004KT 10SM BKN090 BKN110 02/M03 A3010 RMK AO2 SLP157 T00221028 50002,0,4.0,0,16090,0,0,0,
2026-04-30 13:53:00,METAR KASE 301353Z 01004KT 10SM FEW060 BKN080 OVC095 00/M02 A3011 RMK AO2 SLP161 T00001022,0,4.0,0,16090,0,0,0,
2026-04-30 12:53:00,METAR KASE 301253Z 21003KT 10SM BKN080 M02/M04 A3009 RMK AO2 SLP158 T10171039,0,3.0,0,16090,0,0,0,
2026-04-30 11:53:00,METAR KASE 301153Z AUTO 00000KT 10SM CLR M03/M05 A3009 RMK AO2 SLP154 70003 T10331050 10006 21033 57003,0,0.0,0,16090,0,0,0,
2026-04-30 10:53:00,METAR KASE 301053Z AUTO 14004KT 10SM CLR M02/M04 A3009 RMK AO2 SLP152 T10221039,0,4.0,0,16090,0,0,0,
2026-04-30 09:53:00,METAR KASE 300953Z AUTO 16005KT 10SM CLR M02/M04 A3010 RMK AO2 SLP150 T10221039,0,5.0,0,16090,0,0,0,
2026-04-30 08:53:00,METAR KASE 300853Z AUTO 00000KT 10SM CLR M02/M03 A3010 RMK AO2 SLP155 T10171033 58009,0,0.0,0,16090,0,0,0,
2026-04-30 07:53:00,METAR KASE 300753Z AUTO 18004KT 10SM CLR M01/M02 A3012 RMK AO2 SLP157 T10061022,0,4.0,0,16090,0,0,0,
2026-04-30 06:53:00,METAR KASE 300653Z AUTO 18005KT 10SM BKN050 OVC120 00/M01 A3014 RMK AO2 SLP160 T00001011 401001017,0,5.0,0,16090,0,0,0,
2026-04-30 05:53:00,METAR KASE 300553Z AUTO VRB03KT 10SM FEW055 00/M02 A3014 RMK AO2 SLP149 60001 T00001017 10067 21006 51001,0,3.0,0,16090,0,0,0,
2026-04-30 04:53:00,METAR KASE 300453Z AUTO 00000KT 10SM FEW095 FEW120 01/M01 A3014 RMK AO2 SLP153 T00061006,0,0.0,0,16090,0,0,0,
2026-04-30 03:53:00,METAR KASE 300353Z AUTO 22003KT 10SM OVC110 02/01 A3015 RMK AO2 SLP158 T00220006,0,3.0,0,16090,0,0,0,
2026-04-30 02:53:00,METAR KASE 300253Z AUTO 00000KT 10SM BKN110 01/M01 A3013 RMK AO2 SLP162 60001 T00111006 55000,0,0.0,0,16090,0,0,0,
2026-04-30 01:53:00,METAR KASE 300153Z AUTO 19005KT 10SM FEW120 03/01 A3012 RMK AO2 RAE0054 SLP163 P0000 T00330011,0,5.0,0,16090,0,0,0,RA
2026-04-30 00:53:00,METAR KASE 300053Z AUTO 33005KT 10SM -RA FEW020 SCT026 BKN070 03/01 A3014 RMK AO2 RAB02 SLP174 P0001 T00330011,0,5.0,0,16090,0,0,0,-RA
2026-04-30 00:51:00,SPECI KASE 300051Z AUTO 35006KT 10SM -RA FEW020 SCT026 BKN070 03/01 A3014 RMK AO2 RAB02 P0001,0,6.0,0,16090,0,0,0,-RA
2026-04-30 00:20:00,SPECI KASE 300020Z AUTO 27006G16KT 7SM -RA BKN022 OVC050 04/00 A3013 RMK AO2 RAB02 P0001 T00440000,0,6.0,1,11263,0,0,0,-RA
2026-04-29 23:53:00,METAR KASE 292353Z AUTO 35005KT 10SM BKN060 OVC075 07/M01 A3011 RMK AO2 RAE2256 SLP152 P0000 60002 T00671006 10100 20033 55003,0,5.0,0,16090,0,0,0,RA
2026-04-29 22:53:00,METAR KASE 292253Z AUTO 14014G19KT 10SM -RA SCT037 BKN047 OVC060 07/M01 A3009 RMK AO2 RAB45 SLP145 P0000 T00671011,0,14.0,1,16090,0,0,0,-RA
2026-04-29 21:53:00,METAR KASE 292153Z AUTO 34013G20KT 10SM FEW055 BKN070 BKN085 08/M01 A3009 RMK AO2 LTG DSNT N RAE2059 SLP143 P0000 T00781011,0,13.0,1,16090,0,0,0,"DS,RA"
2026-04-29 20:53:00,METAR KASE 292053Z 17009KT 9SM -RA FEW023 BKN046 OVC060 06/01 A3012 RMK AO2 PK WND 24026/2039 RAB26 SLP160 P0000 60002 T00560011 51005,0,9.0,0,14481,0,0,0,-RA
2026-04-29 19:53:00,METAR KASE 291953Z 18007KT 10SM FEW110 06/M01 A3010 RMK AO2 PK WND 29027/1857 RAE07SNB07E32 SLP150 P0001 T00611006,0,7.0,0,16090,0,0,0,RA
2026-04-29 19:38:00,SPECI KASE 291938Z VRB04KT 10SM SCT016 BKN110 05/M01 A3012 RMK AO2 PK WND 29027/1857 RAE07SNB07E32 P0001 T00501006,0,4.0,0,16090,0,0,0,RA
2026-04-29 19:28:00,SPECI KASE 291928Z 12008KT 6SM -SN FEW005 BKN016 OVC110 04/00 A3012 RMK AO2 PK WND 29027/1857 RAE07SNB07 P0001 T00390000,0,8.0,0,9654,0,0,0,"RA,SN"
2026-04-29 19:05:00,SPECI KASE 291905Z 27009G27KT 4SM -RA BKN022 BKN048 OVC070 04/M02 A3016 RMK AO2 PK WND 29027/1857 PRESRR P0000 T00391017,0,9.0,1,6436,0,0,0,-RA
2026-04-29 18:53:00,METAR KASE 291853Z 27012G24KT 9SM -RA SCT041 BKN048 OVC070 07/M03 A3014 RMK AO2 RAB35 PRESRR SLP159 P0001 T00671028,0,12.0,1,14481,0,0,0,-RA
2026-04-29 17:53:00,METAR KASE 291753Z 34009G15KT 10SM SCT090 BKN110 09/M03 A3010 RMK AO2 SLP135 T00941033 10100 21017 56010,0,9.0,1,16090,0,0,0,
2026-04-29 16:53:00,METAR KASE 291653Z 33006KT 10SM OVC095 08/M04 A3011 RMK AO2 SLP143 T00831044,0,6.0,0,16090,0,0,0,
2026-04-29 15:53:00,METAR KASE 291553Z 28003KT 10SM CLR 06/M03 A3012 RMK AO2 SLP149 T00611028,0,3.0,0,16090,0,0,0,
2026-04-29 14:53:00,METAR KASE 291453Z 34003KT 10SM OVC100 04/M03 A3014 RMK AO2 SLP163 T00391028 58001,0,3.0,0,16090,0,0,0,
2026-04-29 13:53:00,METAR KASE 291353Z 00000KT 10SM BKN095 01/M03 A3014 RMK AO2 SLP166 T00111033,0,0.0,0,16090,0,0,0,
2026-04-29 12:53:00,METAR KASE 291253Z 19004KT 10SM FEW090 M01/M03 A3014 RMK AO2 SLP167 T10111033,0,4.0,0,16090,0,0,0,
2026-04-29 11:53:00,METAR KASE 291153Z AUTO 18005KT 10SM CLR M01/M03 A3014 RMK AO2 SLP161 70014 T10111033 10000 21017 58004,0,5.0,0,16090,0,0,0,
2026-04-29 10:53:00,METAR KASE 291053Z AUTO 21005KT 10SM SCT075 M01/M03 A3014 RMK AO2 SLP166 T10111033,0,5.0,0,16090,0,0,0,
2026-04-29 09:53:00,METAR KASE 290953Z AUTO 23005KT 10SM OVC070 M01/M03 A3015 RMK AO2 SLP174 T10111033,0,5.0,0,16090,0,0,0,
2026-04-29 08:53:00,METAR KASE 290853Z AUTO 21004KT 10SM CLR M01/M03 A3015 RMK AO2 SLP174 T10111033 58008,0,4.0,0,16090,0,0,0,
2026-04-29 07:53:00,METAR KASE 290753Z AUTO 19004KT 10SM SCT070 M01/M03 A3017 RMK AO2 SLP183 T10111028,0,4.0,0,16090,0,0,0,
2026-04-29 06:53:00,METAR KASE 290653Z AUTO 20005KT 10SM FEW070 FEW090 M01/M02 A3018 RMK AO2 SLP183 T10061022 400781011,0,5.0,0,16090,0,0,0,
2026-04-29 05:53:00,METAR KASE 290553Z AUTO 16004KT 10SM FEW085 00/M02 A3019 RMK AO2 SLP188 T00001022 10072 21006 51006,0,4.0,0,16090,0,0,0,
2026-04-29 04:53:00,METAR KASE 290453Z AUTO 20003KT 10SM FEW075 00/M02 A3018 RMK AO2 SLP188 T00001017,0,3.0,0,16090,0,0,0,
2026-04-29 03:53:00,METAR KASE 290353Z AUTO 22006KT 10SM BKN080 01/M02 A3018 RMK AO2 SLP191 T00111017,0,6.0,0,16090,0,0,0,
2026-04-29 02:53:00,METAR KASE 290253Z AUTO 17003KT 10SM FEW075 02/M01 A3016 RMK AO2 SLP183 T00171011 53010,0,3.0,0,16090,0,0,0,
2026-04-29 01:53:00,METAR KASE 290153Z VRB03KT 10SM CLR 04/M01 A3014 RMK AO2 SLP168 T00441006,0,3.0,0,16090,0,0,0,
2026-04-29 00:53:00,METAR KASE 290053Z AUTO 32005KT 10SM SCT070 06/M01 A3013 RMK AO2 SLP161 T00561006,0,5.0,0,16090,0,0,0,
2026-04-28 23:53:00,METAR KASE 282353Z AUTO 35006KT 10SM FEW034 FEW050 BKN070 07/00 A3013 RMK AO2 RAE2258 SLP152 P0000 60001 T00720000 10078 20028 55002,0,6.0,0,16090,0,0,0,RA
2026-04-28 22:53:00,METAR KASE 282253Z AUTO 02003KT 10SM -RA SCT024 BKN070 OVC090 07/M01 A3012 RMK AO2 RAB43 SLP148 P0000 T00671006,0,3.0,0,16090,0,0,0,-RA
2026-04-28 21:53:00,METAR KASE 282153Z AUTO 36006KT 10SM BKN036 06/00 A3012 RMK AO2 RAB2054E15 SLP155 P0000 T00560000,0,6.0,0,16090,0,0,0,RA
2026-04-28 20:53:00,METAR KASE 282053Z 01008KT 10SM FEW023 BKN036 OVC047 05/01 A3013 RMK AO2 RAB14E41 SLP162 P0000 60001 T00500006 53003,0,8.0,0,16090,0,0,0,RA
2026-04-28 20:34:00,SPECI KASE 282034Z 01006KT 10SM -RA FEW025 BKN030 OVC045 05/01 A3013 RMK AO2 RAB14 P0000 T00500006,0,6.0,0,16090,0,0,0,-RA
2026-04-28 20:05:00,SPECI KASE 282005Z 35007KT 10SM FEW018 BKN029 BKN044 05/01 A3012 RMK AO2 T00500011,0,7.0,0,16090,0,0,0,
2026-04-28 19:53:00,METAR KASE 281953Z 10SM SCT020 SCT026 BKN033 04/01 A3012 RMK AO2 RAE04B23E39SNB04E23 SLP161 P0001 T00440006,0,,0,16090,0,0,0,RA
2026-04-28 19:50:00,SPECI KASE 281950Z 00000KT 10SM FEW015 SCT020 BKN028 05/01 A3012 RMK AO2 RAE04B23E39SNB04E23 P0001,0,0.0,0,16090,0,0,0,RA
2026-04-28 19:03:00,SPECI KASE 281903Z 35005KT 6SM -RA BKN017 BKN030 OVC060 03/M01 A3012 RMK AO2 P0000 T00331006,0,5.0,0,9654,0,0,0,-RA
2026-04-28 18:53:00,METAR KASE 281853Z 00000KT 10SM -RA BKN030 BKN050 OVC060 04/M01 A3012 RMK AO2 RAB10E24B52SNB24E26 SLP153 P0000 T00441006,0,0.0,0,16090,0,0,0,"-RA,RA"
2026-04-28 18:25:00,SPECI KASE 281825Z VRB04KT 10SM -SN SCT018 BKN030 OVC036 04/00 A3012 RMK AO2 RAB10E24SNB24 P0000 T00390000,0,4.0,0,16090,0,0,0,"RA,SN"
2026-04-28 18:12:00,SPECI KASE 281812Z 36006KT 9SM -RA BKN016 BKN026 OVC030 04/01 A3013 RMK AO2 RAB10 P0000 T00390006,0,6.0,0,14481,0,0,0,-RA
2026-04-28 18:10:00,SPECI KASE 281810Z 01004KT 9SM -RA SCT016 OVC030 04/00 A3012 RMK AO2 RAB10 P0000 T00390000,0,4.0,0,14481,0,0,0,-RA
2026-04-28 17:53:00,METAR KASE 281753Z VRB03KT 9SM BKN016 BKN026 OVC055 03/M01 A3012 RMK AO2 SNE52 SLP155 P0000 60013 T00331006 10033 21011 51007,0,3.0,0,14481,0,0,0,
2026-04-28 16:53:00,METAR KASE 281653Z 01006KT 8SM -SN SCT015 BKN022 OVC037 03/00 A3012 RMK AO2 SLP152 P0001 T00280000,0,6.0,0,12872,0,0,0,SN
2026-04-28 16:28:00,SPECI KASE 281628Z 33004KT 3SM -SN BKN020 BKN027 OVC035 02/M01 A3012 RMK AO2 P0001 T00171011,0,4.0,0,4827,0,0,0,SN
2026-04-28 16:17:00,SPECI KASE 281617Z 00000KT 1SM -SN BR BKN018 OVC023 01/M01 A3012 RMK AO2 P0001 T00111006,0,0.0,0,1609,0,0,1,"BR,SN"
2026-04-28 16:10:00,SPECI KASE 281610Z 00000KT 2SM -SN BR OVC021 01/M01 A3011 RMK AO2 P0000 T00061011,0,0.0,0,3218,0,0,1,"BR,SN"
2026-04-28 15:57:00,SPECI KASE 281557Z 00000KT 3SM -SN BR OVC023 01/M01 A3011 RMK AO2 P0000 T00061006,0,0.0,0,4827,0,0,1,"BR,SN"
2026-04-28 15:53:00,METAR KASE 281553Z 00000KT 1 3/4SM -SN BR BKN022 OVC026 01/M01 A3012 RMK AO2 SLP156 P0000 T00061006,0,0.0,0,2816,0,0,1,"BR,SN"
2026-04-28 15:17:00,SPECI KASE 281517Z 03003KT 1 3/4SM -SN BR BKN020 BKN027 OVC032 01/M01 A3011 RMK AO2 P0000 T00061006,0,3.0,0,2816,0,0,1,"BR,SN"
2026-04-28 14:53:00,METAR KASE 281453Z 00000KT 10SM -SN BKN017 OVC023 00/00 A3010 RMK AO2 SNB49 SLP150 P0000 60012 T00000000 53014,0,0.0,0,16090,0,0,0,SN
2026-04-28 13:53:00,METAR KASE 281353Z 00000KT 10SM BKN020 OVC026 00/00 A3008 RMK AO2 SNE31 SLP140 P0000 T00000000,0,0.0,0,16090,0,0,0,
2026-04-28 13:21:00,SPECI KASE 281321Z 26003KT 3SM -SN BR FEW006 BKN025 OVC060 M01/M02 A3006 RMK AO2 P0000 T10111017,0,3.0,0,4827,0,0,1,"BR,SN"
2026-04-28 13:10:00,SPECI KASE 281310Z 00000KT 2SM -SN BR FEW006 OVC018 M01/M01 A3006 RMK AO2 P0000 T10061011,0,0.0,0,3218,0,0,1,"BR,SN"
2026-04-28 13:04:00,SPECI KASE 281304Z 00000KT 1SM -SN BR FEW006 OVC012 M01/M01 A3005 RMK AO2 P0000 T10061011,0,0.0,0,1609,0,0,1,"BR,SN"
2026-04-28 12:53:00,METAR KASE 281253Z 33004KT 1/2SM SN FZFG VV005 M01/M01 A3005 RMK AO2 SLP123 P0012 T10061011,0,4.0,0,804,0,0,1,"FG,SN"
2026-04-28 12:49:00,SPECI KASE 281249Z 35004KT 1/2SM SN FZFG VV005 M01/M01 A3005 RMK AO2 P0012,0,4.0,0,804,0,0,1,"FG,SN"
2026-04-28 12:24:00,SPECI KASE 281224Z 01007KT 1/4SM +SN FZFG BKN003 OVC009 M01/M01 A3005 RMK AO2 P0005 T10061006,0,7.0,0,402,0,0,1,"FG,SN"
2026-04-28 12:19:00,SPECI KASE 281219Z 01006KT 1/2SM SN FZFG BKN005 OVC009 M01/M01 A3005 RMK AO2 P0004 T10061006,0,6.0,0,804,0,0,1,"FG,SN"
2026-04-28 12:12:00,SPECI KASE 281212Z 36003KT 3/4SM -SN BR BKN004 OVC009 M01/M01 A3004 RMK AO2 P0002 T10061011,0,3.0,0,1207,0,0,1,"BR,SN"
2026-04-28 12:05:00,SPECI KASE 281205Z 36003KT 1 1/2SM -SN BR OVC009 00/M01 A3004 RMK AO2 CIG 003V011 P0001 T00001011,0,3.0,0,2414,0,0,1,"BR,SN"
2026-04-28 11:53:00,METAR KASE 281153Z 35005KT 5SM -SN BR OVC009 00/M01 A3003 RMK AO2 SLP111 P0000 60003 70003 T00001011 10033 21006 51014,0,5.0,0,8045,0,0,1,"BR,SN"
2026-04-28 11:38:00,SPECI KASE 281138Z 35005KT 3SM -SN BR OVC008 00/M02 A3003 RMK AO2 CIG 007V012 P0000 T00001017,0,5.0,0,4827,0,0,1,"BR,SN"
2026-04-28 11:23:00,SPECI KASE 281123Z 36006KT 3SM -SN BR BKN010 OVC013 00/M01 A3003 RMK AO2 P0000 T00001011,0,6.0,0,4827,0,0,1,"BR,SN"
2026-04-28 11:09:00,SPECI KASE 281109Z VRB04G15KT 2SM -SN BR FEW005 OVC012 00/M01 A3002 RMK AO2 P0000 T00001011,0,4.0,1,3218,0,0,1,"BR,SN"
2026-04-28 11:01:00,SPECI KASE 281101Z 36009G18KT 1 3/4SM -SN BR FEW005 OVC010 00/M01 A3002 RMK AO2 P0000 T00001011,0,9.0,1,2816,0,0,1,"BR,SN"
2026-04-28 10:53:00,METAR KASE 281053Z 33012G22KT 2SM -SN BR FEW005 OVC010 01/M01 A3002 RMK AO2 SNE22B46 SLP104 P0000 T00061006,0,12.0,1,3218,0,0,1,"BR,SN"
2026-04-28 10:30:00,SPECI KASE 281030Z 30003KT 10SM SCT002 BKN011 OVC017 01/00 A3000 RMK AO2 SNE22 P0000 T00060000,0,3.0,0,16090,0,0,0,
2026-04-28 10:13:00,SPECI KASE 281013Z 21003KT 8SM -SN SCT002 BKN008 OVC075 01/00 A2999 RMK AO2 P0000 T00060000,0,3.0,0,12872,0,0,0,SN
2026-04-28 09:53:00,METAR KASE 280953Z 00000KT 4SM -SN BR FEW005 OVC013 01/00 A3000 RMK AO2 LTG DSNT W SNB18 SLP096 P0003 T00060000,0,0.0,0,6436,0,0,1,"BR,DS,SN"
2026-04-28 09:48:00,SPECI KASE 280948Z 00000KT 3SM -SN BR FEW005 SCT010 OVC013 01/00 A3000 RMK AO2 LTG DSNT W SNB18 P0003,0,0.0,0,4827,0,0,1,"BR,DS,SN"
2026-04-28 09:35:00,SPECI KASE 280935Z 00000KT 1SM -SN BR FEW005 OVC013 01/M01 A2999 RMK AO2 SNB18 P0002 T00061006,0,0.0,0,1609,0,0,1,"BR,SN"
2026-04-28 09:25:00,SPECI KASE 280925Z VRB04KT 1 1/2SM -SN BR FEW012 OVC023 01/M01 A2999 RMK AO2 SNB18 P0000 T00111006,0,4.0,0,2414,0,0,1,"BR,SN"
2026-04-28 09:20:00,SPECI KASE 280920Z 32003KT 2 1/2SM -SN BR FEW020 BKN028 OVC070 01/M01 A3000 RMK AO2 SNB18 P0000 T00111011,0,3.0,0,4022,0,0,1,"BR,SN"
2026-04-28 08:53:00,METAR KASE 280853Z 00000KT 10SM BKN075 OVC095 01/M02 A2998 RMK AO2 SLP096 T00061017 55002,0,0.0,0,16090,0,0,0,
2026-04-28 07:53:00,METAR KASE 280753Z 00000KT 10SM BKN080 M01/M03 A2996 RMK AO2 SLP091 T10061028,0,0.0,0,16090,0,0,0,
2026-04-28 06:53:00,METAR KASE 280653Z 10SM FEW090 02/M02 A2997 RMK AO2 SLP091 T00171017 401111011,0,,0,16090,0,0,0,
2026-04-28 05:53:00,METAR KASE 280553Z 00000KT 10SM SCT050 BKN070 OVC080 03/M01 A2999 RMK AO2 SLP096 60000 T00331006 10100 20028 50005,0,0.0,0,16090,0,0,0,
2026-04-28 04:53:00,METAR KASE 280453Z 36005KT 10SM FEW046 BKN075 04/M01 A2999 RMK AO2 SLP100 T00391011,0,5.0,0,16090,0,0,0,
2026-04-28 03:53:00,METAR KASE 280353Z 15005KT 10SM FEW050 BKN075 BKN090 05/M02 A2999 RMK AO2 SLP098 T00501017,0,5.0,0,16090,0,0,0,
2026-04-28 02:53:00,METAR KASE 280253Z 18007KT 10SM SCT039 BKN065 OVC075 06/M03 A2997 RMK AO2 RAB37E49 SLP096 P0000 60000 T00561028 53016,0,7.0,0,16090,0,0,0,RA
2026-04-28 01:53:00,METAR KASE 280153Z 18003KT 10SM SCT047 BKN060 OVC075 06/M02 A2994 RMK AO2 RAB35E52 SLP090 P0000 T00611022,0,3.0,0,16090,0,0,0,RA
2026-04-28 00:53:00,METAR KASE 280053Z 19012G18KT 10SM OVC080 09/M07 A2991 RMK AO2 SLP071 T00941067,0,12.0,1,16090,0,0,0,
2026-04-27 23:53:00,METAR KASE 272353Z 16013G22KT 10SM SCT080 09/M04 A2991 RMK AO2 SLP067 60000 T00941039 10111 20067 55002,0,13.0,1,16090,0,0,0,
2026-04-27 22:53:00,METAR KASE 272253Z 19008G17KT 150V210 10SM BKN075 OVC090 10/M06 A2989 RMK AO2 SLP062 T01001061,0,8.0,1,16090,0,0,0,
2026-04-27 21:53:00,METAR KASE 272153Z VRB05G24KT 10SM SCT070 BKN080 10/M06 A2991 RMK AO2 SLP068 T01001061,0,5.0,1,16090,0,0,0,
2026-04-27 20:53:00,METAR KASE 272053Z VRB03KT 10SM FEW060 BKN075 BKN085 08/M06 A2992 RMK AO2 RAB23E43 SLP077 P0000 60000 T00831056 56006,0,3.0,0,16090,0,0,0,RA
2026-04-27 19:53:00,METAR KASE 271953Z 22004KT 10SM OVC070 09/M05 A2992 RMK AO2 SLP073 T00891050,0,4.0,0,16090,0,0,0,
2026-04-27 18:53:00,METAR KASE 271853Z 00000KT 10SM FEW048 BKN070 BKN080 08/M04 A2993 RMK AO2 SLP081 T00781039,0,0.0,0,16090,0,0,0,
2026-04-27 17:53:00,METAR KASE 271753Z 35006KT 10SM FEW037 FEW045 OVC060 07/M01 A2994 RMK AO2 SLP089 60000 T00671006 10067 21011 50000,0,6.0,0,16090,0,0,0,
2026-04-27 16:53:00,METAR KASE 271653Z 01004KT 10SM FEW012 BKN060 04/01 A2995 RMK AO2 SLP099 T00440011,0,4.0,0,16090,0,0,0,
2026-04-27 15:53:00,METAR KASE 271553Z 02004KT 10SM SCT009 03/01 A2994 RMK AO2 SLP099 T00330006,0,4.0,0,16090,0,0,0,
2026-04-27 14:53:00,METAR KASE 271453Z 00000KT 10SM FEW009 FEW039 OVC070 02/00 A2994 RMK AO2 SNB19E39 SLP103 P0000 60000 T00170000 51009,0,0.0,0,16090,0,0,0,SN
2026-04-27 13:53:00,METAR KASE 271353Z AUTO 00000KT 10SM FEW013 SCT024 OVC070 00/M01 A2993 RMK AO2 SNB23E40 SLP107 P0000 T00001006,0,0.0,0,16090,0,0,0,SN
2026-04-27 13:51:00,SPECI KASE 271351Z AUTO 00000KT 10SM FEW013 SCT024 OVC070 00/M01 A2993 RMK AO2 SNB23E40 P0000,0,0.0,0,16090,0,0,0,SN
2026-04-27 13:41:00,SPECI KASE 271341Z AUTO 00000KT 9SM FEW013 BKN023 OVC060 00/M01 A2992 RMK AO2 SNB23E40 P0000 T00001006,0,0.0,0,14481,0,0,0,SN
2026-04-27 12:53:00,METAR KASE 271253Z AUTO 00000KT 10SM OVC070 M01/M02 A2990 RMK AO2 SLP098 T10061017,0,0.0,0,16090,0,0,0,
2026-04-27 11:53:00,METAR KASE 271153Z AUTO 17004KT 10SM BKN065 OVC080 00/M01 A2988 RMK AO2 SLP078 60001 70068 T00001011 10000 21011 51007,0,4.0,0,16090,0,0,0,
2026-04-27 10:53:00,METAR KASE 271053Z AUTO 20005KT 10SM SCT065 OVC085 M01/M01 A2987 RMK AO2 SLP079 T10061011,0,5.0,0,16090,0,0,0,
2026-04-27 09:53:00,METAR KASE 270953Z AUTO 22005KT 10SM BKN060 OVC090 00/M01 A2986 RMK AO2 SLP066 T00001011,0,5.0,0,16090,0,0,0,
2026-04-27 09:10:00,SPECI KASE 270910Z AUTO 21003KT 10SM SCT003 OVC090 M01/M01 A2986 RMK AO2 T10061011,0,3.0,0,16090,0,0,0,
2026-04-27 08:53:00,METAR KASE 270853Z AUTO 00000KT 10SM BKN004 OVC085 M01/M01 A2985 RMK AO2 CIG 002V006 SLP066 60001 T10061011 56005,0,0.0,0,16090,0,0,0,
2026-04-27 08:48:00,SPECI KASE 270848Z AUTO 21003KT 10SM SCT003 OVC080 M01/M01 A2985 RMK AO2,0,3.0,0,16090,0,0,0,
2026-04-27 08:35:00,SPECI KASE 270835Z AUTO 00000KT 10SM BKN003 OVC075 00/M01 A2986 RMK AO2 CIG 001V006 T00001006,0,0.0,0,16090,0,0,0,
2026-04-27 08:00:00,SPECI KASE 270800Z AUTO 18005KT 10SM SCT003 OVC085 00/M01 A2986 RMK AO2 T00001006,0,5.0,0,16090,0,0,0,
2026-04-27 07:53:00,METAR KASE 270753Z AUTO 19004KT 10SM SCT003 BKN024 OVC085 M01/M01 A2986 RMK AO2 SNE43 SLP069 P0001 T10061006,0,4.0,0,16090,0,0,0,
2026-04-27 07:32:00,SPECI KASE 270732Z AUTO 00000KT 5SM -SN BR FEW003 BKN024 OVC038 00/00 A2986 RMK AO2 P0001 T00000000,0,0.0,0,8045,0,0,1,"BR,SN"
2026-04-27 07:27:00,SPECI KASE 270727Z AUTO 00000KT 4SM -SN BR BKN022 OVC038 00/00 A2986 RMK AO2 P0001 T00000000,0,0.0,0,6436,0,0,1,"BR,SN"
2026-04-27 07:16:00,SPECI KASE 270716Z AUTO 00000KT 2SM -SN BR FEW002 BKN016 OVC038 00/00 A2987 RMK AO2 P0001 T00000000,0,0.0,0,3218,0,0,1,"BR,SN"
2026-04-27 07:02:00,SPECI KASE 270702Z AUTO 00000KT 1 1/4SM -SN BR OVC018 00/00 A2987 RMK AO2 P0001 T00000000,0,0.0,0,2011,0,0,1,"BR,SN"
2026-04-27 06:53:00,METAR KASE 270653Z AUTO 00000KT 1 3/4SM -SN BR OVC026 00/00 A2987 RMK AO2 SNE31B33 SLP073 P0000 T00000000 400721011,0,0.0,0,2816,0,0,1,"BR,SN"
2026-04-27 06:32:00,SPECI KASE 270632Z AUTO 00000KT 7SM BKN044 OVC055 00/00 A2987 RMK AO2 SNE31 P0000 T00000000,0,0.0,0,11263,0,0,0,
2026-04-27 06:15:00,SPECI KASE 270615Z AUTO 00000KT 2 1/2SM -SN BR OVC036 00/00 A2986 RMK AO2 P0000 T00000000,0,0.0,0,4022,0,0,1,"BR,SN"
2026-04-27 06:09:00,SPECI KASE 270609Z AUTO 00000KT 3SM -SN BR OVC028 00/00 A2986 RMK AO2 P0000 T00000000,0,0.0,0,4827,0,0,1,"BR,SN"
2026-04-27 05:53:00,METAR KASE 270553Z AUTO 32003KT 4SM -SN BR FEW010 OVC035 00/M01 A2986 RMK AO2 SNB37 SLP074 P0000 60033 T00001006 10006 21011 51007,0,3.0,0,6436,0,0,1,"BR,SN"
2026-04-27 04:53:00,METAR KASE 270453Z AUTO 22005KT 10SM FEW003 SCT080 BKN100 00/M01 A2985 RMK AO2 SLP065 T00001006,0,5.0,0,16090,0,0,0,
2026-04-27 03:53:00,METAR KASE 270353Z AUTO 25007KT 10SM FEW003 FEW065 M01/M01 A2985 RMK AO2 SNE16 SLP064 P0000 T10061011,0,7.0,0,16090,0,0,0,
2026-04-27 03:12:00,SPECI KASE 270312Z AUTO 00000KT 8SM -SN FEW003 BKN032 OVC065 00/00 A2983 RMK AO2 P0000 T00000000,0,0.0,0,12872,0,0,0,SN
2026-04-27 02:59:00,SPECI KASE 270259Z AUTO 00000KT 3SM -SN BR FEW003 OVC016 01/00 A2983 RMK AO2 P0000 T00060000,0,0.0,0,4827,0,0,1,"BR,SN"
2026-04-27 02:53:00,METAR KASE 270253Z AUTO 00000KT 1 3/4SM -SN BR SCT003 OVC010 00/00 A2983 RMK AO2 SLP062 P0012 60033 T00000000 51012,0,0.0,0,2816,0,0,1,"BR,SN"
2026-04-27 02:31:00,SPECI KASE 270231Z AUTO 17005KT 1SM -SN BR VV005 00/00 A2983 RMK AO2 P0010 T00000000,0,5.0,0,1609,0,0,1,"BR,SN"
2026-04-27 02:18:00,SPECI KASE 270218Z AUTO 13004KT 1/2SM SN FG VV004 00/00 A2983 RMK AO2 P0007 T00000000,0,4.0,0,804,0,0,1,"FG,SN"
2026-04-27 02:10:00,SPECI KASE 270210Z AUTO 07004KT 3/4SM -SN BR VV005 00/00 A2982 RMK AO2 P0003 T00000000,0,4.0,0,1207,0,0,1,"BR,SN"
2026-04-27 02:04:00,SPECI KASE 270204Z AUTO 00000KT 2SM -SN BR OVC006 00/00 A2983 RMK AO2 PRESRR P0001 T00000000,0,0.0,0,3218,0,0,1,"BR,SN"
2026-04-27 02:01:00,SPECI KASE 270201Z AUTO 34003KT 4SM -SN BR SCT006 OVC012 00/00 A2983 RMK AO2 PRESRR P0000 T00000000,0,3.0,0,6436,0,0,1,"BR,SN"
2026-04-27 01:53:00,METAR KASE 270153Z AUTO 00000KT 2SM -SN BR FEW006 OVC014 00/00 A2981 RMK AO2 SLP052 P0003 T00000000,0,0.0,0,3218,0,0,1,"BR,SN"
2026-04-27 01:38:00,SPECI KASE 270138Z AUTO 00000KT 2SM -SN BR FEW002 SCT012 OVC019 00/00 A2980 RMK AO2 P0003 T00000000,0,0.0,0,3218,0,0,1,"BR,SN"
2026-04-27 01:27:00,SPECI KASE 270127Z AUTO 34003KT 1SM -SN BR SCT002 OVC010 00/00 A2979 RMK AO2 P0002 T00000000,0,3.0,0,1609,0,0,1,"BR,SN"
2026-04-27 01:14:00,SPECI KASE 270114Z AUTO 33004KT 1 1/4SM -SN BR SCT003 OVC006 00/00 A2979 RMK AO2 P0002 T00000000,0,4.0,0,2011,0,0,1,"BR,SN"
2026-04-27 01:07:00,SPECI KASE 270107Z 34004KT 3/4SM -SN BR VV003 00/00 A2979 RMK AO2 P0002 T00000000,0,4.0,0,1207,0,0,1,"BR,SN"
2026-04-27 00:53:00,METAR KASE 270053Z 33004KT 1/4SM +SN FG VV003 00/00 A2979 RMK AO2 RAB03E14SNB14 SLP045 P0018 T00000000,0,4.0,0,402,0,0,1,"FG,RA,SN"
2026-04-27 00:47:00,SPECI KASE 270047Z 35004KT 1/4SM +SN FG VV005 00/00 A2978 RMK AO2 RAB03E14SNB14 P0015,0,4.0,0,402,0,0,1,"FG,RA,SN"
2026-04-27 00:43:00,SPECI KASE 270043Z 04003KT 1/2SM SN FG OVC006 01/00 A2978 RMK AO2 RAB03E14SNB14 P0013 T00060000,0,3.0,0,804,0,0,1,"FG,RA,SN"
2026-04-27 00:34:00,SPECI KASE 270034Z 00000KT 3/4SM -SN BR SCT006 OVC011 01/00 A2978 RMK AO2 RAB03E14SNB14 P0009 T00110000,0,0.0,0,1207,0,0,1,"BR,RA,SN"
2026-04-27 00:23:00,SPECI KASE 270023Z 18005KT 1 3/4SM -SN BR FEW008 OVC019 02/00 A2978 RMK AO2 RAB03E14SNB14 P0005 T00170000,0,5.0,0,2816,0,0,1,"BR,RA,SN"
2026-04-27 00:19:00,SPECI KASE 270019Z 18007KT 3SM -SN BR FEW008 OVC021 03/01 A2978 RMK AO2 RAB03E14SNB14 P0003 T00280006,0,7.0,0,4827,0,0,1,"BR,RA,SN"
2026-04-27 00:14:00,SPECI KASE 270014Z VRB04KT 6SM -SN BKN025 BKN065 OVC080 03/01 A2978 RMK AO2 RAB03E14SNB14 P0002 T00330006,0,4.0,0,9654,0,0,0,"RA,SN"
2026-04-26 23:53:00,METAR KASE 262353Z 23006KT 10SM SCT055 BKN075 03/01 A2975 RMK AO2 RAE30 SLP023 P0004 60019 T00330011 10061 20017 53004,0,6.0,0,16090,0,0,0,
2026-04-26 23:39:00,SPECI KASE 262339Z 04004KT 10SM SCT012 SCT055 BKN065 03/02 A2974 RMK AO2 RAE30 P0004 T00330017,0,4.0,0,16090,0,0,0,
2026-04-26 23:31:00,SPECI KASE 262331Z 01005KT 10SM FEW009 BKN021 OVC080 03/01 A2975 RMK AO2 RAE30 P0004 T00330011,0,5.0,0,16090,0,0,0,
2026-04-26 23:09:00,SPECI KASE 262309Z 03007KT 3SM RA BR FEW009 BKN013 OVC024 02/01 A2975 RMK AO2 P0004 T00220011,0,7.0,0,4827,0,0,1,"BR,RA"
2026-04-26 22:53:00,METAR KASE 262253Z 04004KT 10SM -RA FEW009 BKN017 OVC023 03/02 A2975 RMK AO2 RAB04 SLP022 P0003 T00280017,0,4.0,0,16090,0,0,0,-RA
2026-04-26 22:46:00,SPECI KASE 262246Z 32003KT 10SM -RA SCT010 BKN017 OVC023 03/01 A2976 RMK AO2 RAB04 P0003 T00280011,0,3.0,0,16090,0,0,0,-RA
2026-04-26 22:36:00,SPECI KASE 262236Z 02004KT 10SM -RA BKN010 BKN014 OVC019 03/02 A2975 RMK AO2 RAB04 P0003 T00280017,0,4.0,0,16090,0,0,0,-RA
2026-04-26 22:23:00,SPECI KASE 262223Z 02007KT 7SM -RA SCT012 OVC018 03/02 A2974 RMK AO2 RAB04 P0002 T00330017,0,7.0,0,11263,0,0,0,-RA
2026-04-26 22:14:00,SPECI KASE 262214Z 01007KT 8SM RA FEW012 BKN024 OVC043 04/02 A2973 RMK AO2 RAB04 P0001 T00440022,0,7.0,0,12872,0,0,0,RA
2026-04-26 21:53:00,METAR KASE 262153Z 35007KT 10SM FEW037 BKN046 OVC055 06/01 A2973 RMK AO2 RAE28 SLP001 P0000 T00560011,0,7.0,0,16090,0,0,0,
2026-04-26 20:53:00,METAR KASE 262053Z 31003KT 10SM -RA BKN049 OVC060 05/02 A2974 RMK AO2 SLP008 P0001 60012 T00500022 57002,0,3.0,0,16090,0,0,0,-RA
2026-04-26 20:30:00,SPECI KASE 262030Z 01006KT 7SM -RA FEW013 BKN032 OVC049 04/02 A2974 RMK AO2 P0001 T00440022,0,6.0,0,11263,0,0,0,-RA
2026-04-26 20:12:00,SPECI KASE 262012Z 34006KT 10SM -RA SCT015 BKN019 OVC027 04/02 A2974 RMK AO2 P0000 T00440022,0,6.0,0,16090,0,0,0,-RA
2026-04-26 20:03:00,SPECI KASE 262003Z 02005KT 10SM -RA SCT013 BKN026 OVC037 05/02 A2974 RMK AO2 P0000 T00500022,0,5.0,0,16090,0,0,0,-RA
2026-04-26 19:53:00,METAR KASE 261953Z 33006KT 9SM -RA SCT012 BKN019 OVC027 04/02 A2975 RMK AO2 RAB1856 SLP006 P0007 T00440022,0,6.0,0,14481,0,0,0,"-RA,RA"
2026-04-26 19:36:00,SPECI KASE 261936Z 05004KT 9SM -RA FEW011 BKN018 OVC028 04/02 A2974 RMK AO2 RAB1856 P0006 T00390022,0,4.0,0,14481,0,0,0,"-RA,RA"
2026-04-26 19:24:00,SPECI KASE 261924Z VRB03KT 9SM -RA OVC014 04/02 A2974 RMK AO2 RAB1856 P0005 T00390017,0,3.0,0,14481,0,0,0,"-RA,RA"
2026-04-26 19:15:00,SPECI KASE 261915Z 03005KT 8SM -RA FEW011 BKN016 OVC035 04/02 A2974 RMK AO2 LTG DSNT SE RAB1856 P0004 T00390017,0,5.0,0,12872,0,0,0,"-RA,DS,RA"
2026-04-26 19:03:00,SPECI KASE 261903Z 36005KT 2 1/2SM RA BKN016 BKN033 OVC060 04/01 A2974 RMK AO2 LTG DSNT S RAB1856 P0003 T00390011,0,5.0,0,4022,0,0,0,"DS,RA"
2026-04-26 18:53:00,METAR KASE 261853Z 29010KT 10SM FEW012 BKN048 OVC075 04/02 A2974 RMK AO2 RAE04B16E22SNB04E16 PRESRR SLP012 P0004 T00440022,0,10.0,0,16090,0,0,0,RA
2026-04-26 18:26:00,SPECI KASE 261826Z 02008KT 10SM SCT009 SCT015 BKN070 04/03 A2972 RMK AO2 RAE04B16E22SNB04E16 P0004 T00440028,0,8.0,0,16090,0,0,0,RA
2026-04-26 18:20:00,SPECI KASE 261820Z 03008G15KT 9SM -RA BKN009 BKN015 BKN065 04/02 A2973 RMK AO2 RAE04B16SNB04E16 PRESFR P0004 T00390022,0,8.0,1,14481,0,0,0,"-RA,RA"
2026-04-26 18:13:00,SPECI KASE 261813Z 04008KT 2 1/2SM -SN BR FEW007 OVC013 03/02 A2974 RMK AO2 RAE04SNB04 P0004 T00330022,0,8.0,0,4022,0,0,1,"BR,RA,SN"
2026-04-26 18:02:00,SPECI KASE 261802Z 01014G18KT 1 1/4SM RA BR FEW007 OVC011 02/02 A2976 RMK AO2 P0004 T00220017,0,14.0,1,2011,0,0,1,"BR,RA"
2026-04-26 17:53:00,METAR KASE 261753Z 01008G19KT 2 1/2SM RA BR FEW010 BKN014 OVC021 02/01 A2975 RMK AO2 SLP018 P0005 60015 T00220006 10050 20022 55004,0,8.0,1,4022,0,0,1,"BR,RA"
2026-04-26 17:27:00,SPECI KASE 261727Z 35006KT 10SM -RA FEW010 BKN017 OVC046 04/02 A2975 RMK AO2 P0001 T00440022,0,6.0,0,16090,0,0,0,-RA
2026-04-26 17:14:00,SPECI KASE 261714Z 33008KT 10SM -RA FEW006 BKN011 OVC033 04/03 A2975 RMK AO2 P0001 T00440033,0,8.0,0,16090,0,0,0,-RA
2026-04-26 17:03:00,SPECI KASE 261703Z 00000KT 10SM -RA BKN026 BKN035 OVC045 04/02 A2974 RMK AO2 P0001 T00390017,0,0.0,0,16090,0,0,0,-RA
2026-04-26 16:53:00,METAR KASE 261653Z 00000KT 9SM -RA BKN022 OVC035 04/02 A2975 RMK AO2 RAB1555 SLP013 P0004 T00390017,0,0.0,0,14481,0,0,0,"-RA,RA"
2026-04-26 16:23:00,SPECI KASE 261623Z 12005KT 9SM -RA SCT013 OVC021 04/02 A2976 RMK AO2 RAB1555 P0001 T00440022,0,5.0,0,14481,0,0,0,"-RA,RA"
2026-04-26 16:07:00,SPECI KASE 261607Z 22003KT 10SM -RA FEW011 BKN027 OVC050 04/02 A2975 RMK AO2 RAB1555 P0000 T00440022,0,3.0,0,16090,0,0,0,"-RA,RA"
2026-04-26 15:53:00,METAR KASE 261553Z 20004KT 10SM SCT010 BKN045 OVC060 04/02 A2975 RMK AO2 RAE38 SLP004 P0000 T00440022,0,4.0,0,16090,0,0,0,
2026-04-26 15:28:00,SPECI KASE 261528Z 00000KT 10SM -RA SCT008 BKN040 OVC065 04/02 A2974 RMK AO2 P0000 T00390022,0,0.0,0,16090,0,0,0,-RA
2026-04-26 15:14:00,SPECI KASE 261514Z 34005KT 10SM -RA BKN006 BKN028 OVC035 03/02 A2975 RMK AO2 P0000 T00330022,0,5.0,0,16090,0,0,0,-RA
2026-04-26 15:02:00,SPECI KASE 261502Z 10SM -RA SCT006 BKN024 OVC032 04/02 A2975 RMK AO2 P0000 T00390022,0,,0,16090,0,0,0,-RA
2026-04-26 14:53:00,METAR KASE 261453Z 34003KT 4SM -RA BR FEW006 BKN022 OVC034 03/02 A2976 RMK AO2 SLP009 P0005 60006 T00330017 51001,0,3.0,0,6436,0,0,1,"-RA,BR"
2026-04-26 14:44:00,SPECI KASE 261444Z 00000KT 6SM -RA BR FEW014 BKN024 OVC041 03/02 A2977 RMK AO2 P0003 T00330017,0,0.0,0,9654,0,0,1,"-RA,BR"
2026-04-26 14:33:00,SPECI KASE 261433Z 17006KT 10SM -RA FEW014 BKN030 OVC050 03/02 A2978 RMK AO2 P0002 T00330017,0,6.0,0,16090,0,0,0,-RA
2026-04-26 14:04:00,SPECI KASE 261404Z 11004KT 5SM RA BR OVC019 03/02 A2978 RMK AO2 P0001 T00330022,0,4.0,0,8045,0,0,1,"BR,RA"
2026-04-26 13:53:00,METAR KASE 261353Z 12004KT 7SM -RA OVC027 04/02 A2978 RMK AO2 RAB29 SLP014 P0001 T00390022,0,4.0,0,11263,0,0,0,-RA
2026-04-26 12:53:00,METAR KASE 261253Z 00000KT 10SM OVC060 03/02 A2976 RMK AO2 SLP002 T00280017,0,0.0,0,16090,0,0,0,
2026-04-26 11:53:00,METAR KASE 261153Z AUTO 35003KT 10SM OVC060 03/02 A2977 RMK AO2 RAB15E40 SLP000 P0000 60000 T00330017 10072 20028 58008,0,3.0,0,16090,0,0,0,RA
2026-04-26 10:53:00,METAR KASE 261053Z AUTO 32004KT 10SM FEW018 BKN049 OVC065 03/01 A2979 RMK AO2 RAE52 SLP008 P0000 T00330011,0,4.0,0,16090,0,0,0,
2026-04-26 09:53:00,METAR KASE 260953Z AUTO 00000KT 10SM -RA FEW023 OVC039 05/00 A2981 RMK AO2 RAB44 SLP010 P0000 T00500000,0,0.0,0,16090,0,0,0,-RA
2026-04-26 08:53:00,METAR KASE 260853Z AUTO 35003KT 10SM BKN042 OVC048 05/M05 A2980 RMK AO2 SLP008 T00501050 58007,0,3.0,0,16090,0,0,0,
2026-04-26 07:53:00,METAR KASE 260753Z AUTO 14005KT 10SM SCT060 OVC075 07/M03 A2981 RMK AO2 SLP008 T00671033,0,5.0,0,16090,0,0,0,
2026-04-26 06:53:00,METAR KASE 260653Z AUTO 20003KT 10SM OVC085 04/M04 A2983 RMK AO2 SLP013 T00441044 401501006,0,3.0,0,16090,0,0,0,
2026-04-26 05:53:00,METAR KASE 260553Z AUTO 19004KT 10SM OVC080 05/M05 A2983 RMK AO2 SLP017 T00501050 10133 20039 58005,0,4.0,0,16090,0,0,0,
2026-04-26 04:53:00,METAR KASE 260453Z AUTO 16006KT 10SM CLR 04/M06 A2985 RMK AO2 SLP030 T00441056,0,6.0,0,16090,0,0,0,
2026-04-26 03:53:00,METAR KASE 260353Z AUTO 13004KT 10SM CLR 07/M06 A2985 RMK AO2 SLP025 T00721056,0,4.0,0,16090,0,0,0,
2026-04-26 02:53:00,METAR KASE 260253Z AUTO 25009KT 10SM FEW120 08/M07 A2985 RMK AO2 SLP024 T00831067 51008,0,9.0,0,16090,0,0,0,
2026-04-26 01:53:00,METAR KASE 260153Z AUTO 20006KT 10SM CLR 09/M07 A2984 RMK AO2 SLP034 T00891072,0,6.0,0,16090,0,0,0,
2026-04-26 00:53:00,METAR KASE 260053Z 21009KT 10SM OVC100 12/M09 A2984 RMK AO2 SLP032 T01171089,0,9.0,0,16090,0,0,0,
2026-04-25 23:53:00,METAR KASE 252353Z 16006KT 10SM BKN100 13/M10 A2982 RMK AO2 WSHFT 2311 SLP024 T01331100 10150 20122 55003,0,6.0,0,16090,0,0,0,
2026-04-25 23:31:00,SPECI KASE 252331Z 23008G19KT 180V260 10SM BKN100 BKN120 13/M09 A2982 RMK AO2 WSHFT 2311 T01281094,0,8.0,1,16090,0,0,0,
2026-04-25 22:53:00,METAR KASE 252253Z 22008G15KT 190V260 10SM BKN100 13/M11 A2982 RMK AO2 SLP016 T01331106,0,8.0,1,16090,0,0,0,
2026-04-25 21:53:00,METAR KASE 252153Z VRB06G22KT 10SM BKN110 13/M12 A2983 RMK AO2 PK WND 26027/2110 SLP018 T01281117,0,6.0,1,16090,0,0,0,
2026-04-25 20:53:00,METAR KASE 252053Z 16010G16KT 120V190 10SM OVC100 13/M11 A2984 RMK AO2 SLP018 T01281111 56009,0,10.0,1,16090,0,0,0,
2026-04-25 19:53:00,METAR KASE 251953Z VRB06G20KT 10SM SCT100 12/M12 A2985 RMK AO2 PK WND 23030/1940 SLP020 T01221122,0,6.0,1,16090,0,0,0,
2026-04-25 18:53:00,METAR KASE 251853Z 24009G15KT 220V300 10SM FEW100 14/M11 A2985 RMK AO2 PK WND 20036/1805 SLP013 T01441106,0,9.0,1,16090,0,0,0,
2026-04-25 17:53:00,METAR KASE 251753Z 23005KT 10SM SCT095 12/M11 A2987 RMK AO2 PK WND 26029/1703 SLP027 T01221111 10128 21006 55004,0,5.0,0,16090,0,0,0,
2026-04-25 16:56:00,SPECI KASE 251656Z 23005KT 10SM SCT090 11/M12 A2987 RMK AO2 T01061117,0,5.0,0,16090,0,0,0,
2026-04-25 16:53:00,METAR KASE 251653Z 10SM SCT095 11/M12 A2987 RMK AO2 SLP030 T01061117,0,,0,16090,0,0,0,
2026-04-25 15:53:00,METAR KASE 251553Z 10SM SCT100 10/M11 A2987 RMK AO2 SLP032 T01001111,0,,0,16090,0,0,0,
2026-04-25 14:53:00,METAR KASE 251453Z VRB06KT 10SM FEW100 09/M10 A2989 RMK AO2 SLP042 T00941100 50004,0,6.0,0,16090,0,0,0,
2026-04-25 13:53:00,METAR KASE 251353Z 00000KT 10SM CLR 04/M09 A2989 RMK AO2 SLP044 T00441089,0,0.0,0,16090,0,0,0,
2026-04-25 12:53:00,METAR KASE 251253Z 18006KT 10SM CLR 01/M09 A2988 RMK AO2 SLP047 T00111094,0,6.0,0,16090,0,0,0,
2026-04-25 11:53:00,METAR KASE 251153Z AUTO 18004KT 10SM FEW085 01/M10 A2987 RMK AO2 SLP041 T00111100 10078 20006 51010,0,4.0,0,16090,0,0,0,
2026-04-25 10:53:00,METAR KASE 251053Z AUTO 10SM FEW085 03/M11 A2986 RMK AO2 SLP030 T00331106,0,,0,16090,0,0,0,
2026-04-25 09:53:00,METAR KASE 250953Z AUTO 22004KT 10SM SCT095 03/M10 A2984 RMK AO2 SLP022 T00331100,0,4.0,0,16090,0,0,0,
2026-04-25 08:53:00,METAR KASE 250853Z AUTO 20004KT 10SM FEW100 04/M11 A2983 RMK AO2 SLP015 T00441111 58003,0,4.0,0,16090,0,0,0,
2026-04-25 07:53:00,METAR KASE 250753Z AUTO 13006KT 10SM CLR 06/M12 A2984 RMK AO2 SLP015 T00611117,0,6.0,0,16090,0,0,0,
2026-04-25 06:53:00,METAR KASE 250653Z AUTO 10SM CLR 07/M13 A2985 RMK AO2 SLP016 T00671128 401441056,0,,0,16090,0,0,0,
2026-04-25 05:53:00,METAR KASE 250553Z AUTO 16007KT 10SM FEW120 07/M12 A2984 RMK AO2 SLP015 T00671122 10128 20056 50000,0,7.0,0,16090,0,0,0,
2026-04-25 04:53:00,METAR KASE 250453Z AUTO 19005KT 10SM CLR 07/M12 A2986 RMK AO2 SLP031 T00671122,0,5.0,0,16090,0,0,0,
2026-04-25 03:53:00,METAR KASE 250353Z AUTO 14006KT 10SM BKN110 08/M12 A2986 RMK AO2 SLP034 T00781117,0,6.0,0,16090,0,0,0,
2026-04-25 02:53:00,METAR KASE 250253Z AUTO 24004KT 10SM SCT110 06/M12 A2984 RMK AO2 SLP041 T00611122 53008,0,4.0,0,16090,0,0,0,
2026-04-25 01:53:00,METAR KASE 250153Z AUTO 20006G16KT 10SM CLR 11/M15 A2983 RMK AO2 SLP032 T01061150,0,6.0,1,16090,0,0,0,
2026-04-25 00:53:00,METAR KASE 250053Z 25004KT 10SM CLR 12/M14 A2982 RMK AO2 SLP039 T01171144,0,4.0,0,16090,0,0,0,
2026-04-24 23:53:00,METAR KASE 242353Z AUTO 21009G20KT 10SM CLR 13/M14 A2982 RMK AO2 SLP037 T01281139 10144 20117 56010,0,9.0,1,16090,0,0,0,
2026-04-24 22:53:00,METAR KASE 242253Z AUTO 23012G21KT 10SM CLR 14/M17 A2982 RMK AO2 SLP037 T01391167,0,12.0,1,16090,0,0,0,
2026-04-24 21:53:00,METAR KASE 242153Z AUTO 20009G21KT 10SM CLR 14/M19 A2984 RMK AO2 PK WND 21027/2055 SLP037 T01391189,0,9.0,1,16090,0,0,0,
2026-04-24 20:53:00,METAR KASE 242053Z 23013G28KT 10SM CLR 14/M23 A2986 RMK AO2 PK WND 21028/2049 SLP041 T01391233 56014,0,13.0,1,16090,0,0,0,
2026-04-24 19:53:00,METAR KASE 241953Z 25012G23KT 10SM CLR 14/M23 A2987 RMK AO2 PK WND 22031/1932 SLP049 T01391228,0,12.0,1,16090,0,0,0,
2026-04-24 18:53:00,METAR KASE 241853Z VRB05G21KT 10SM CLR 13/M23 A2988 RMK AO2 SLP054 T01281228,0,5.0,1,16090,0,0,0,
2026-04-24 17:53:00,METAR KASE 241753Z 28011G16KT 10SM CLR 13/M20 A2991 RMK AO2 SLP059 T01281200 10128 21050 56019,0,11.0,1,16090,0,0,0,
2026-04-24 16:53:00,METAR KASE 241653Z 36006KT 10SM CLR 10/M15 A2992 RMK AO2 SLP073 T01001150,0,6.0,0,16090,0,0,0,
2026-04-24 15:53:00,METAR KASE 241553Z 35006KT 10SM CLR 08/M14 A2995 RMK AO2 SLP085 T00781139,0,6.0,0,16090,0,0,0,
2026-04-24 14:53:00,METAR KASE 241453Z 00000KT 10SM CLR 04/M11 A2997 RMK AO2 SLP101 T00441106 58004,0,0.0,0,16090,0,0,0,
2026-04-24 13:53:00,METAR KASE 241353Z 00000KT 10SM CLR 02/M11 A2999 RMK AO2 SLP116 T00171111,0,0.0,0,16090,0,0,0,
2026-04-24 12:53:00,METAR KASE 241253Z 20005KT 10SM CLR M03/M11 A2999 RMK AO2 SLP115 T10331111,0,5.0,0,16090,0,0,0,
2026-04-24 11:53:00,METAR KASE 241153Z AUTO 21008KT 10SM CLR M04/M11 A2999 RMK AO2 SLP115 T10441111 11011 21056 55000,0,8.0,0,16090,0,0,0,
2026-04-24 10:53:00,METAR KASE 241053Z AUTO 18005KT 10SM CLR M04/M11 A2999 RMK AO2 SLP108 T10391106,0,5.0,0,16090,0,0,0,
2026-04-24 09:53:00,METAR KASE 240953Z AUTO 00000KT 10SM CLR M03/M10 A2998 RMK AO2 SLP110 T10331100,0,0.0,0,16090,0,0,0,
2026-04-24 08:53:00,METAR KASE 240853Z AUTO 19004KT 10SM CLR M02/M10 A2999 RMK AO2 SLP107 T10221100 58003,0,4.0,0,16090,0,0,0,
2026-04-24 07:53:00,METAR KASE 240753Z AUTO 19004KT 10SM CLR M03/M09 A3000 RMK AO2 SLP116 T10331094,0,4.0,0,16090,0,0,0,
2026-04-24 06:53:00,METAR KASE 240653Z AUTO 20005KT 10SM CLR M02/M09 A3000 RMK AO2 SLP113 T10171094 401061033,0,5.0,0,16090,0,0,0,
2026-04-24 05:53:00,METAR KASE 240553Z AUTO 19005KT 10SM CLR M01/M09 A3000 RMK AO2 SLP111 T10111094 10089 21011 50005,0,5.0,0,16090,0,0,0,
2026-04-24 04:53:00,METAR KASE 240453Z AUTO 21006KT 10SM CLR M01/M09 A3000 RMK AO2 SLP108 T10061089,0,6.0,0,16090,0,0,0,
2026-04-24 03:53:00,METAR KASE 240353Z AUTO 20006KT 10SM CLR 01/M09 A3000 RMK AO2 SLP111 T00111089,0,6.0,0,16090,0,0,0,
2026-04-24 02:53:00,METAR KASE 240253Z AUTO 20006KT 10SM FEW085 02/M09 A2998 RMK AO2 SLP104 T00221094 53014,0,6.0,0,16090,0,0,0,
2026-04-24 01:53:00,METAR KASE 240153Z AUTO 26003KT 10SM CLR 03/M09 A2995 RMK AO2 SLP098 T00281094,0,3.0,0,16090,0,0,0,
2026-04-24 00:53:00,METAR KASE 240053Z 35009G22KT 10SM OVC090 08/M10 A2995 RMK AO2 SLP083 T00781100,0,9.0,1,16090,0,0,0,
2026-04-23 23:53:00,METAR KASE 232353Z 34012G21KT 10SM OVC100 09/M11 A2993 RMK AO2 SLP079 T00891106 10106 20072 53002,0,12.0,1,16090,0,0,0,
2026-04-23 22:53:00,METAR KASE 232253Z 34012G19KT 10SM OVC090 11/M12 A2991 RMK AO2 SLP060 T01061122,0,12.0,1,16090,0,0,0,
2026-04-23 21:53:00,METAR KASE 232153Z 35003KT 10SM OVC090 09/M13 A2991 RMK AO2 SLP070 T00891128,0,3.0,0,16090,0,0,0,
2026-04-23 20:53:00,METAR KASE 232053Z 27009KT 10SM BKN100 09/M11 A2992 RMK AO2 SLP069 T00891106 56003,0,9.0,0,16090,0,0,0,
2026-04-23 19:53:00,METAR KASE 231953Z 23009G15KT 10SM FEW055 SCT070 BKN090 08/M11 A2993 RMK AO2 SLP069 T00831106,0,9.0,1,16090,0,0,0,
2026-04-23 18:53:00,METAR KASE 231853Z 10SM BKN100 08/M13 A2992 RMK AO2 SLP062 T00831133,0,,0,16090,0,0,0,
2026-04-23 17:53:00,METAR KASE 231753Z 34007G17KT 10SM BKN085 BKN100 08/M13 A2993 RMK AO2 SLP064 T00781128 10089 20000 56004,0,7.0,1,16090,0,0,0,
2026-04-23 16:53:00,METAR KASE 231653Z 32014G26KT 10SM SCT080 08/M13 A2994 RMK AO2 PK WND 33026/1652 SLP061 T00781128,0,14.0,1,16090,0,0,0,
2026-04-23 15:53:00,METAR KASE 231553Z 10SM FEW070 06/M11 A2993 RMK AO2 SLP051 T00561111,0,,0,16090,0,0,0,
2026-04-23 14:53:00,METAR KASE 231453Z 33008G18KT 10SM BKN070 BKN085 04/M12 A2995 RMK AO2 SLP059 T00391117 55001,0,8.0,1,16090,0,0,0,
2026-04-23 13:53:00,METAR KASE 231353Z 13013G22KT 10SM BKN100 03/M09 A2993 RMK AO2 SLP058 T00281089,0,13.0,1,16090,0,0,0,
2026-04-23 12:53:00,METAR KASE 231253Z 18007KT 10SM FEW050 BKN085 OVC110 02/M09 A2995 RMK AO2 SLP066 T00171089,0,7.0,0,16090,0,0,0,
2026-04-23 11:53:00,METAR KASE 231153Z AUTO 00000KT 10SM BKN060 OVC070 00/M09 A2995 RMK AO2 SLP066 T00001094 10067 21006 53001,0,0.0,0,16090,0,0,0,
2026-04-23 10:53:00,METAR KASE 231053Z AUTO 18004KT 10SM FEW060 OVC080 01/M10 A2995 RMK AO2 SLP059 T00111100,0,4.0,0,16090,0,0,0,
2026-04-23 09:53:00,METAR KASE 230953Z AUTO 21004KT 10SM OVC070 01/M11 A2995 RMK AO2 SLP056 T00111106,0,4.0,0,16090,0,0,0,
2026-04-23 08:53:00,METAR KASE 230853Z AUTO 00000KT 10SM FEW080 02/M11 A2995 RMK AO2 SLP055 T00171111 51012,0,0.0,0,16090,0,0,0,
2026-04-23 07:53:00,METAR KASE 230753Z AUTO 34005KT 10SM BKN095 03/M11 A2994 RMK AO2 SLP048 T00331111,0,5.0,0,16090,0,0,0,
2026-04-23 06:53:00,METAR KASE 230653Z AUTO 33010KT 10SM OVC100 05/M09 A2994 RMK AO2 SLP043 T00501094 401830039,0,10.0,0,16090,0,0,0,
2026-04-23 05:53:00,METAR KASE 230553Z AUTO 01009G17KT 10SM FEW035 BKN110 07/M09 A2990 RMK AO2 PK WND 32026/0501 SLP030 T00671094 10144 20067 53015,0,9.0,1,16090,0,0,0,
2026-04-23 04:53:00,METAR KASE 230453Z AUTO 34013G21KT 10SM FEW100 BKN120 08/M10 A2988 RMK AO2 PK WND 34026/0441 SLP015 T00831100,0,13.0,1,16090,0,0,0,
2026-04-23 03:53:00,METAR KASE 230353Z AUTO 21011G18KT 10SM FEW120 13/M15 A2985 RMK AO2 SLP998 T01281150,0,11.0,1,16090,0,0,0,
2026-04-23 02:53:00,METAR KASE 230253Z AUTO 23010G23KT 10SM CLR 13/M14 A2985 RMK AO2 PK WND 19036/0215 SLP999 T01331144 58005,0,10.0,1,16090,0,0,0,
2026-04-23 01:53:00,METAR KASE 230153Z 24011G30KT 190V270 10SM FEW110 13/M13 A2986 RMK AO2 PK WND 23030/0148 SLP014 T01331133,0,11.0,1,16090,0,0,0,
2026-04-23 00:53:00,METAR KASE 230053Z 23016G30KT 10SM CLR 14/M13 A2987 RMK AO2 PK WND 23030/0051 SLP018 T01391133,0,16.0,1,16090,0,0,0,
2026-04-22 23:53:00,METAR KASE 222353Z 22011G23KT 10SM CLR 15/M13 A2987 RMK AO2 PK WND 23033/2322 SLP009 T01501133 10183 20150 56003,0,11.0,1,16090,0,0,0,
2026-04-22 22:53:00,METAR KASE 222253Z 24010G23KT 10SM CLR 17/M14 A2987 RMK AO2 PK WND 25026/2228 SLP008 T01671139,0,10.0,1,16090,0,0,0,
2026-04-22 21:53:00,METAR KASE 222153Z 27013G19KT 10SM CLR 17/M15 A2987 RMK AO2 PK WND 23030/2104 WSHFT 2125 SLP018 T01721150,0,13.0,1,16090,0,0,0,
2026-04-22 21:45:00,SPECI KASE 222145Z 27013G19KT 10SM CLR 17/M14 A2987 RMK AO2 PK WND 23030/2104 WSHFT 2125 T01671144,0,13.0,1,16090,0,0,0,
2026-04-22 20:56:00,SPECI KASE 222056Z 27013G19KT 10SM CLR 17/M16 A2989 RMK AO2 T01721156,0,13.0,1,16090,0,0,0,
2026-04-22 20:53:00,METAR KASE 222053Z 10SM CLR 17/M16 A2988 RMK AO2 SLP019 T01721156 56017,0,,0,16090,0,0,0,
2026-04-22 19:53:00,METAR KASE 221953Z 23015G34KT 10SM CLR 18/M16 A2989 RMK AO2 PK WND 23034/1944 SLP010 T01781156,0,15.0,1,16090,0,0,0,
2026-04-22 18:53:00,METAR KASE 221853Z 22007G18KT 10SM CLR 17/M14 A2992 RMK AO2 PK WND 18027/1831 SLP028 T01721139,0,7.0,1,16090,0,0,0,
2026-04-22 17:53:00,METAR KASE 221753Z 19006G26KT 10SM CLR 16/M15 A2994 RMK AO2 PK WND 17035/1715 SLP038 T01561150 10172 20061 58022,0,6.0,1,16090,0,0,0,
2026-04-22 16:53:00,METAR KASE 221653Z 20014G22KT 10SM CLR 16/M13 A2998 RMK AO2 PK WND 17031/1617 SLP044 T01611128,0,14.0,1,16090,0,0,0,
2026-04-22 15:53:00,METAR KASE 221553Z 16013G18KT 10SM CLR 15/M13 A2999 RMK AO2 PK WND 16029/1553 SLP050 T01501133,0,13.0,1,16090,0,0,0,
2026-04-22 14:53:00,METAR KASE 221453Z 22003G15KT 10SM CLR 13/M11 A3002 RMK AO2 SLP061 T01331111 58002,0,3.0,1,16090,0,0,0,
2026-04-22 14:14:00,SPECI KASE 221414Z 17015G18KT 10SM CLR 13/M12 A3004 RMK AO2 T01281117,0,15.0,1,16090,0,0,0,
2026-04-22 13:53:00,METAR KASE 221353Z 00000KT 10SM CLR 09/M06 A3003 RMK AO2 SLP070 T00891056,0,0.0,0,16090,0,0,0,
2026-04-22 12:53:00,METAR KASE 221253Z 35007KT 330V050 10SM CLR 08/M06 A3003 RMK AO2 SLP067 T00781061,0,7.0,0,16090,0,0,0,
2026-04-22 11:53:00,METAR KASE 221153Z AUTO 15009G15KT 10SM SCT100 11/M08 A3003 RMK AO2 SLP056 7//// T01061078 10117 20039 55001,0,9.0,1,16090,0,0,0,
2026-04-22 10:53:00,METAR KASE 221053Z AUTO 13007G17KT 10SM SCT100 09/M05 A3002 RMK AO2 SLP055 T00891050,0,7.0,1,16090,0,0,0,
2026-04-22 09:53:00,METAR KASE 220953Z AUTO 19005KT 10SM CLR 05/M03 A3003 RMK AO2 SLP063 T00501028,0,5.0,0,16090,0,0,0,
2026-04-22 08:53:00,METAR KASE 220853Z AUTO 21003KT 10SM FEW100 06/M02 A3003 RMK AO2 SLP065 T00611022 58005,0,3.0,0,16090,0,0,0,
2026-04-22 07:53:00,METAR KASE 220753Z AUTO 18008KT 10SM BKN095 09/M02 A3005 RMK AO2 SLP058 T00941022,0,8.0,0,16090,0,0,0,
2026-04-22 06:53:00,METAR KASE 220653Z AUTO 21006KT 10SM SCT095 08/M02 A3006 RMK AO2 SLP073 T00781017 402170006,0,6.0,0,16090,0,0,0,
2026-04-22 05:53:00,METAR KASE 220553Z AUTO 19007KT 150V210 10SM CLR 08/M01 A3006 RMK AO2 SLP070 T00831011 10194 20083 58014,0,7.0,0,16090,0,0,0,
2026-04-22 04:53:00,METAR KASE 220453Z AUTO 15008KT 10SM CLR 11/M01 A3008 RMK AO2 SLP075 T01061011,0,8.0,0,16090,0,0,0,
2026-04-22 03:53:00,METAR KASE 220353Z AUTO 15009KT 10SM CLR 12/00 A3010 RMK AO2 SLP089 T01170000,0,9.0,0,16090,0,0,0,
2026-04-22 02:53:00,METAR KASE 220253Z AUTO 10011G17KT 10SM FEW120 13/00 A3011 RMK AO2 SLP097 T01330000 51010,0,11.0,1,16090,0,0,0,
2026-04-22 01:53:00,METAR KASE 220153Z AUTO 18010G27KT 10SM FEW065 BKN095 OVC110 15/M02 A3010 RMK AO2 PK WND 17034/0113 SLP101 T01501017,0,10.0,1,16090,0,0,0,
2026-04-22 00:53:00,METAR KASE 220053Z 18007KT 10SM BKN100 18/M03 A3008 RMK AO2 SLP099 T01781033,0,7.0,0,16090,0,0,0,
2026-04-21 23:53:00,METAR KASE 212353Z 21005KT 10SM CLR 19/M05 A3008 RMK AO2 SLP093 T01891050 10217 20183 55009,0,5.0,0,16090,0,0,0,
2026-04-21 22:53:00,METAR KASE 212253Z 25013G20KT 10SM FEW110 20/M07 A3007 RMK AO2 SLP085 T02001067,0,13.0,1,16090,0,0,0,
2026-04-21 21:53:00,METAR KASE 212153Z 24012G21KT 200V270 10SM FEW090 BKN110 22/M06 A3009 RMK AO2 SLP082 T02171056,0,12.0,1,16090,0,0,0,
2026-04-21 20:53:00,METAR KASE 212053Z 23010G19KT 210V270 10SM BKN110 21/M07 A3011 RMK AO2 SLP096 T02061067 56021,0,10.0,1,16090,0,0,0,
2026-04-21 19:53:00,METAR KASE 211953Z 30005G18KT 10SM BKN110 21/M06 A3014 RMK AO2 SLP102 T02111061,0,5.0,1,16090,0,0,0,
2026-04-21 19:29:00,SPECI KASE 211929Z 30005G18KT 10SM BKN110 20/M08 A3014 RMK AO2 T02001078,0,5.0,1,16090,0,0,0,
2026-04-21 19:28:00,SPECI KASE 211928Z VRB05G18KT 10SM BKN110 20/M08 A3015 RMK AO2 T02001078,0,5.0,1,16090,0,0,0,
2026-04-21 18:53:00,METAR KASE 211853Z 02003KT 10SM SCT110 18/M08 A3016 RMK AO2 SLP117 T01831078,0,3.0,0,16090,0,0,0,
2026-04-21 17:53:00,METAR KASE 211753Z 30005G14KT 10SM CLR 19/M07 A3019 RMK AO2 SLP124 6//// T01891067 10194 20006 56010,0,5.0,1,16090,0,0,0,
2026-04-21 16:53:00,METAR KASE 211653Z 01009KT 10SM CLR 18/M06 A3020 RMK AO2 SLP129 T01781056,0,9.0,0,16090,0,0,0,
2026-04-21 15:53:00,METAR KASE 211553Z 36006KT 10SM CLR 15/M04 A3021 RMK AO2 SLP134 T01501044,0,6.0,0,16090,0,0,0,
2026-04-21 14:53:00,METAR KASE 211453Z 26003KT 10SM CLR 11/M05 A3022 RMK AO2 SLP149 T01111050 58003,0,3.0,0,16090,0,0,0,
2026-04-21 13:53:00,METAR KASE 211353Z 00000KT 10SM CLR 07/M05 A3024 RMK AO2 SLP154 T00721050,0,0.0,0,16090,0,0,0,
2026-04-21 12:53:00,METAR KASE 211253Z 00000KT 10SM CLR 02/M06 A3024 RMK AO2 SLP165 T00171056,0,0.0,0,16090,0,0,0,
2026-04-21 11:53:00,METAR KASE 211153Z AUTO 00000KT 10SM CLR 02/M06 A3023 RMK AO2 SLP156 T00171061 10067 20006 53003,0,0.0,0,16090,0,0,0,
2026-04-21 10:53:00,METAR KASE 211053Z AUTO 21005KT 10SM CLR 03/M06 A3022 RMK AO2 SLP145 T00331061,0,5.0,0,16090,0,0,0,
2026-04-21 09:53:00,METAR KASE 210953Z AUTO 21007KT 10SM CLR 04/M06 A3022 RMK AO2 SLP137 T00441061,0,7.0,0,16090,0,0,0,
2026-04-21 08:53:00,METAR KASE 210853Z AUTO 21007KT 10SM CLR 04/M06 A3022 RMK AO2 SLP140 T00391061 58000,0,7.0,0,16090,0,0,0,
2026-04-21 07:53:00,METAR KASE 210753Z AUTO 21008KT 10SM CLR 04/M06 A3022 RMK AO2 SLP142 T00391061,0,8.0,0,16090,0,0,0,
2026-04-21 06:53:00,METAR KASE 210653Z AUTO 21007KT 10SM CLR 05/M06 A3023 RMK AO2 SLP144 T00501061 401941011,0,7.0,0,16090,0,0,0,
2026-04-21 05:53:00,METAR KASE 210553Z AUTO 21008KT 10SM CLR 06/M06 A3022 RMK AO2 SLP144 T00561061 10172 20056 50009,0,8.0,0,16090,0,0,0,
2026-04-21 04:53:00,METAR KASE 210453Z AUTO 20007KT 10SM CLR 07/M07 A3022 RMK AO2 SLP146 T00671067,0,7.0,0,16090,0,0,0,
2026-04-21 03:53:00,METAR KASE 210353Z AUTO 20009KT 10SM CLR 08/M07 A3022 RMK AO2 SLP151 T00781067,0,9.0,0,16090,0,0,0,
2026-04-21 02:53:00,METAR KASE 210253Z AUTO 20008KT 10SM CLR 09/M06 A3019 RMK AO2 SLP149 T00891061 53009,0,8.0,0,16090,0,0,0,
2026-04-21 01:53:00,METAR KASE 210153Z AUTO 12004KT 10SM FEW120 13/M07 A3016 RMK AO2 SLP140 T01281067,0,4.0,0,16090,0,0,0,
2026-04-21 00:53:00,METAR KASE 210053Z 30007KT 10SM FEW120 15/M09 A3015 RMK AO2 SLP137 T01501089,0,7.0,0,16090,0,0,0,
2026-04-20 23:53:00,METAR KASE 202353Z 00000KT 10SM SCT120 17/M11 A3015 RMK AO2 SLP131 T01721111 10194 20167 56009,0,0.0,0,16090,0,0,0,
2026-04-20 22:53:00,METAR KASE 202253Z 34007G14KT 10SM CLR 19/M12 A3016 RMK AO2 SLP122 T01891117,0,7.0,1,16090,0,0,0,
2026-04-20 21:53:00,METAR KASE 202153Z 35011G16KT 10SM CLR 19/M11 A3017 RMK AO2 SLP126 T01941111,0,11.0,1,16090,0,0,0,
2026-04-20 20:53:00,METAR KASE 202053Z 35010G17KT 10SM CLR 19/M12 A3019 RMK AO2 SLP139 T01891117 56017,0,10.0,1,16090,0,0,0,
2026-04-20 19:53:00,METAR KASE 201953Z COR 01011G18KT 10SM CLR 19/M12 A3020 RMK AO2 SLP139 T01891117,0,11.0,1,16090,0,0,0,
2026-04-20 18:53:00,METAR KASE 201853Z 02013G21KT 10SM CLR 18/M14 A3022 RMK AO2 SLP149 T01781139,0,13.0,1,16090,0,0,0,
2026-04-20 17:53:00,METAR KASE 201753Z 05009G17KT 020V080 10SM CLR 17/M10 A3025 RMK AO2 SLP155 T01671100 10167 21011 58007,0,9.0,1,16090,0,0,0,
2026-04-20 16:53:00,METAR KASE 201653Z 36006KT 10SM CLR 14/M10 A3027 RMK AO2 SLP167 T01441100,0,6.0,0,16090,0,0,0,
2026-04-20 15:53:00,METAR KASE 201553Z 00000KT 10SM CLR 11/M12 A3026 RMK AO2 SLP173 T01111122,0,0.0,0,16090,0,0,0,
2026-04-20 14:53:00,METAR KASE 201453Z 00000KT 10SM CLR 06/M10 A3027 RMK AO2 SLP191 T00611100 50006,0,0.0,0,16090,0,0,0,
2026-04-20 13:53:00,METAR KASE 201353Z 20003KT 10SM CLR 02/M09 A3028 RMK AO2 SLP189 T00221089,0,3.0,0,16090,0,0,0,
2026-04-20 12:53:00,METAR KASE 201253Z 00000KT 10SM CLR 01/M11 A3026 RMK AO2 SLP182 T00061111,0,0.0,0,16090,0,0,0,
2026-04-20 11:53:00,METAR KASE 201153Z AUTO 00000KT 10SM CLR 00/M10 A3025 RMK AO2 SLP172 T00001100 10039 21011 50002,0,0.0,0,16090,0,0,0,
2026-04-20 10:53:00,METAR KASE 201053Z AUTO 21006KT 10SM CLR 02/M12 A3025 RMK AO2 SLP164 T00171117,0,6.0,0,16090,0,0,0,
2026-04-20 09:53:00,METAR KASE 200953Z AUTO 00000KT 10SM CLR 01/M10 A3025 RMK AO2 SLP165 T00111100,0,0.0,0,16090,0,0,0,
2026-04-20 08:53:00,METAR KASE 200853Z AUTO 21007KT 10SM CLR 00/M10 A3024 RMK AO2 SLP167 T00001100 58003,0,7.0,0,16090,0,0,0,
2026-04-20 07:53:00,METAR KASE 200753Z AUTO 20005KT 10SM CLR 01/M10 A3025 RMK AO2 SLP171 T00111100,0,5.0,0,16090,0,0,0,
2026-04-20 06:53:00,METAR KASE 200653Z AUTO 20006KT 10SM CLR 02/M10 A3026 RMK AO2 SLP172 T00221100 401721050,0,6.0,0,16090,0,0,0,
2026-04-20 05:53:00,METAR KASE 200553Z AUTO 20005KT 10SM CLR 04/M11 A3025 RMK AO2 SLP167 T00441106 10161 20033 50004,0,5.0,0,16090,0,0,0,
2026-04-20 04:53:00,METAR KASE 200453Z AUTO 22008KT 10SM CLR 04/M10 A3026 RMK AO2 SLP175 T00441100,0,8.0,0,16090,0,0,0,
2026-04-20 03:53:00,METAR KASE 200353Z AUTO 21011KT 10SM CLR 05/M09 A3026 RMK AO2 SLP185 T00501094,0,11.0,0,16090,0,0,0,
2026-04-20 02:53:00,METAR KASE 200253Z AUTO 20007KT 10SM CLR 06/M09 A3024 RMK AO2 SLP188 T00561094 53016,0,7.0,0,16090,0,0,0,
2026-04-20 01:53:00,METAR KASE 200153Z AUTO 25006KT 10SM CLR 11/M13 A3020 RMK AO2 SLP171 T01061133,0,6.0,0,16090,0,0,0,
2026-04-20 00:53:00,METAR KASE 200053Z 33007KT 10SM CLR 13/M14 A3018 RMK AO2 SLP165 T01331139,0,7.0,0,16090,0,0,0,
2026-04-19 23:53:00,METAR KASE 192353Z 33008KT 10SM CLR 16/M13 A3018 RMK AO2 SLP157 T01561128 10172 20133 55008,0,8.0,0,16090,0,0,0,
2026-04-19 22:53:00,METAR KASE 192253Z 35008G18KT 10SM CLR 17/M13 A3018 RMK AO2 SLP156 T01671128,0,8.0,1,16090,0,0,0,
2026-04-19 21:53:00,METAR KASE 192153Z 34011KT 10SM CLR 16/M13 A3019 RMK AO2 SLP153 T01611133,0,11.0,0,16090,0,0,0,
2026-04-19 21:12:00,SPECI KASE 192112Z 33008G14KT 10SM CLR 16/M13 A3020 RMK AO2 T01561133,0,8.0,1,16090,0,0,0,
2026-04-19 20:53:00,METAR KASE 192053Z 21003KT 10SM CLR 16/M15 A3021 RMK AO2 SLP164 T01611150 56012,0,3.0,0,16090,0,0,0,
2026-04-19 19:53:00,METAR KASE 191953Z 01008G17KT 10SM CLR 15/M14 A3022 RMK AO2 WSHFT 1909 SLP171 T01501144,0,8.0,1,16090,0,0,0,
2026-04-19 19:29:00,SPECI KASE 191929Z 01008G17KT 10SM CLR 15/M15 A3023 RMK AO2 WSHFT 1909 T01501150,0,8.0,1,16090,0,0,0,
2026-04-19 18:56:00,SPECI KASE 191856Z 36010G17KT 10SM CLR 14/M17 A3024 RMK AO2 T01441167,0,10.0,1,16090,0,0,0,
2026-04-19 18:53:00,METAR KASE 191853Z 10SM CLR 14/M17 A3024 RMK AO2 SLP173 T01441167,0,,0,16090,0,0,0,
2026-04-19 17:53:00,METAR KASE 191753Z COR 35009G15KT 10SM CLR 13/M17 A3026 RMK AO2 SLP183 T01331167 10133 21050 58010,0,9.0,1,16090,0,0,0,
2026-04-19 16:53:00,METAR KASE 191653Z 36006KT 10SM CLR 11/M16 A3027 RMK AO2 SLP192 T01061161,0,6.0,0,16090,0,0,0,
2026-04-19 15:53:00,METAR KASE 191553Z 34004KT 10SM CLR 07/M16 A3028 RMK AO2 SLP206 T00721156,0,4.0,0,16090,0,0,0,
2026-04-19 14:53:00,METAR KASE 191453Z 00000KT 10SM CLR 03/M14 A3029 RMK AO2 SLP214 T00331144 50003,0,0.0,0,16090,0,0,0,
2026-04-19 13:53:00,METAR KASE 191353Z 00000KT 10SM CLR M01/M11 A3030 RMK AO2 SLP221 T10061111,0,0.0,0,16090,0,0,0,
2026-04-19 12:53:00,METAR KASE 191253Z AUTO 18005KT 10SM CLR M04/M12 A3028 RMK AO2 SLP223 T10391117,0,5.0,0,16090,0,0,0,
2026-04-19 11:53:00,METAR KASE 191153Z AUTO 20004KT 10SM CLR M04/M11 A3028 RMK AO2 SLP218 T10391111 11006 21050 58002,0,4.0,0,16090,0,0,0,
2026-04-19 10:53:00,METAR KASE 191053Z AUTO 19005KT 10SM CLR M05/M10 A3028 RMK AO2 SLP220 T10501100,0,5.0,0,16090,0,0,0,
2026-04-19 09:53:00,METAR KASE 190953Z AUTO 16004KT 10SM CLR M02/M10 A3028 RMK AO2 SLP213 T10171100,0,4.0,0,16090,0,0,0,
2026-04-19 08:53:00,METAR KASE 190853Z AUTO 20003KT 10SM CLR M03/M09 A3029 RMK AO2 SLP217 T10281089 58002,0,3.0,0,16090,0,0,0,
2026-04-19 07:53:00,METAR KASE 190753Z AUTO 00000KT 10SM CLR M03/M10 A3029 RMK AO2 SLP226 T10331100,0,0.0,0,16090,0,0,0,
2026-04-19 06:53:00,METAR KASE 190653Z AUTO 21005KT 10SM CLR M02/M09 A3029 RMK AO2 SLP227 T10171089 400941078,0,5.0,0,16090,0,0,0,
2026-04-19 05:53:00,METAR KASE 190553Z AUTO 21003KT 10SM CLR M02/M09 A3029 RMK AO2 SLP234 T10171089 10083 21017 58001,0,3.0,0,16090,0,0,0,
2026-04-19 04:53:00,METAR KASE 190453Z AUTO 20005KT 10SM CLR 00/M09 A3030 RMK AO2 SLP238 T00001094,0,5.0,0,16090,0,0,0,
2026-04-19 03:53:00,METAR KASE 190353Z AUTO 21006KT 10SM CLR 01/M08 A3031 RMK AO2 SLP243 T00061083,0,6.0,0,16090,0,0,0,
2026-04-19 02:53:00,METAR KASE 190253Z AUTO 20008KT 10SM CLR 03/M08 A3030 RMK AO2 SLP238 T00281083 53008,0,8.0,0,16090,0,0,0,
2026-04-19 01:53:00,METAR KASE 190153Z AUTO 00000KT 10SM CLR 06/M12 A3029 RMK AO2 SLP234 T00561117,0,0.0,0,16090,0,0,0,
2026-04-19 00:53:00,METAR KASE 190053Z 31004KT 10SM CLR 07/M16 A3028 RMK AO2 SLP227 T00721161,0,4.0,0,16090,0,0,0,
2026-04-18 23:53:00,METAR KASE 182353Z 34006KT 10SM CLR 08/M18 A3027 RMK AO2 SLP221 T00831183 10094 20028 55004,0,6.0,0,16090,0,0,0,
2026-04-18 22:53:00,METAR KASE 182253Z 34009KT 10SM CLR 09/M18 A3026 RMK AO2 SLP219 T00891183,0,9.0,0,16090,0,0,0,
2026-04-18 21:57:00,SPECI KASE 182157Z 35008G18KT 10SM CLR 09/M18 A3027 RMK AO2 T00891183,0,8.0,1,16090,0,0,0,
2026-04-18 21:53:00,METAR KASE 182153Z 33008KT 10SM CLR 08/M18 A3028 RMK AO2 SLP223 T00831183,0,8.0,0,16090,0,0,0,
2026-04-18 20:53:00,METAR KASE 182053Z 29007G19KT 260V340 10SM CLR 08/M16 A3028 RMK AO2 SLP226 T00781161 56011,0,7.0,1,16090,0,0,0,
2026-04-18 19:53:00,METAR KASE 181953Z 06006KT 10SM CLR 07/M15 A3030 RMK AO2 SLP238 T00671150,0,6.0,0,16090,0,0,0,
2026-04-18 18:53:00,METAR KASE 181853Z VRB03KT 10SM CLR 04/M16 A3031 RMK AO2 SLP250 T00441156,0,3.0,0,16090,0,0,0,
2026-04-18 17:53:00,METAR KASE 181753Z 00000KT 10SM CLR 03/M17 A3032 RMK AO2 SLP255 60000 T00281167 10033 21061 51001,0,0.0,0,16090,0,0,0,
2026-04-18 16:53:00,METAR KASE 181653Z VRB03KT 10SM CLR 01/M18 A3032 RMK AO2 SLP270 T00061183,0,3.0,0,16090,0,0,0,
2026-04-18 15:53:00,METAR KASE 181553Z 00000KT 10SM CLR M01/M16 A3032 RMK AO2 SLP269 T10111156,0,0.0,0,16090,0,0,0,
2026-04-18 14:53:00,METAR KASE 181453Z 10003KT 10SM CLR M03/M11 A3032 RMK AO2 SLP273 60000 T10281106 51018,0,3.0,0,16090,0,0,0,
2026-04-18 13:53:00,METAR KASE 181353Z 36004KT 10SM FEW024 M06/M08 A3030 RMK AO2 SLP268 T10561083,0,4.0,0,16090,0,0,0,
2026-04-18 13:19:00,SPECI KASE 181319Z 00000KT 10SM SCT024 M06/M08 A3029 RMK AO2 T10611078,0,0.0,0,16090,0,0,0,
2026-04-18 12:53:00,METAR KASE 181253Z COR 00000KT 10SM BKN030 M06/M08 A3028 RMK AO2 SNE08 SLP260 P0000 T10611078,0,0.0,0,16090,0,0,0,
2026-04-18 11:53:00,METAR KASE 181153Z AUTO 00000KT 9SM -SN BKN022 OVC029 M07/M08 A3025 RMK AO2 SNE00B29 SLP248 P0000 60000 70005 T10671083 11050 21078 53013,0,0.0,0,14481,0,0,0,SN
2026-04-18 11:01:00,SPECI KASE 181101Z AUTO 00000KT 8SM BKN027 OVC032 M06/M09 A3023 RMK AO2 SNE00 P0000 T10611089,0,0.0,0,12872,0,0,0,
2026-04-18 10:53:00,METAR KASE 181053Z AUTO 00000KT 6SM -SN BR SCT027 OVC032 M07/M09 A3023 RMK AO2 SNB05 SLP237 P0000 T10671089,0,0.0,0,9654,0,0,1,"BR,SN"
2026-04-18 09:53:00,METAR KASE 180953Z AUTO 24003KT 10SM FEW029 BKN049 OVC070 M06/M09 A3021 RMK AO2 SNB0856E30 SLP236 P0000 T10611094,0,3.0,0,16090,0,0,0,SN
2026-04-18 08:53:00,METAR KASE 180853Z AUTO 20003KT 10SM OVC046 M06/M11 A3020 RMK AO2 SNE0757 SLP234 P0000 60000 T10611111 51010,0,3.0,0,16090,0,0,0,SN
2026-04-18 07:53:00,METAR KASE 180753Z AUTO 20003KT 9SM -SN FEW022 OVC039 M07/M11 A3020 RMK AO2 SNB40 SLP237 P0000 T10671111,0,3.0,0,14481,0,0,0,SN
2026-04-18 06:53:00,METAR KASE 180653Z AUTO 00000KT 10SM BKN065 M07/M12 A3017 RMK AO2 SLP234 T10721117 401001072,0,0.0,0,16090,0,0,0,
2026-04-18 05:53:00,METAR KASE 180553Z AUTO 17005KT 10SM SCT070 OVC080 M06/M12 A3016 RMK AO2 SLP228 T10561122 11006 21072 50004,0,5.0,0,16090,0,0,0,
2026-04-18 04:53:00,METAR KASE 180453Z AUTO 21009KT 10SM SCT080 M07/M12 A3016 RMK AO2 SLP232 T10721122,0,9.0,0,16090,0,0,0,
2026-04-18 03:53:00,METAR KASE 180353Z AUTO 20006KT 10SM CLR M06/M12 A3016 RMK AO2 SLP227 T10611117,0,6.0,0,16090,0,0,0,
2026-04-18 02:53:00,METAR KASE 180253Z AUTO 21005KT 10SM CLR M05/M12 A3015 RMK AO2 SLP218 T10501117 53013,0,5.0,0,16090,0,0,0,
2026-04-18 01:53:00,METAR KASE 180153Z 00000KT 10SM FEW060 M03/M13 A3013 RMK AO2 SLP204 T10281128,0,0.0,0,16090,0,0,0,
2026-04-18 00:53:00,METAR KASE 180053Z 00000KT 10SM SCT065 M02/M14 A3011 RMK AO2 SLP190 T10171139,0,0.0,0,16090,0,0,0,
2026-04-17 23:53:00,METAR KASE 172353Z 32007KT 10SM BKN065 M01/M12 A3010 RMK AO2 SLP176 60000 T10111122 10000 21061 55002,0,7.0,0,16090,0,0,0,
2026-04-17 22:53:00,METAR KASE 172253Z 35006KT 10SM BKN049 BKN060 OVC075 M01/M12 A3009 RMK AO2 SLP169 T10061117,0,6.0,0,16090,0,0,0,
2026-04-17 21:53:00,METAR KASE 172153Z COR 33012G19KT 10SM FEW049 BKN060 BKN070 M02/M12 A3009 RMK AO2 SLP165 T10171122,0,12.0,1,16090,0,0,0,
2026-04-17 20:53:00,METAR KASE 172053Z 33013G18KT 10SM BKN037 BKN070 M03/M11 A3010 RMK AO2 UPE14 SLP163 P0000 60000 T10281111 51011,0,13.0,1,16090,0,0,0,
2026-04-17 19:53:00,METAR KASE 171953Z COR 32010G21KT 10SM UP FEW029 BKN045 BKN050 M03/M10 A3010 RMK AO2 UPB1858SNE1858 SLP147 P0000 T10331100,0,10.0,1,16090,0,0,0,UP
2026-04-17 19:08:00,SPECI KASE 171908Z 34011G18KT 6SM UP FEW019 BKN038 OVC060 M04/M09 A3009 RMK AO2 UPB1858SNE1858 P0000 T10391089,0,11.0,1,9654,0,0,0,UP
2026-04-17 18:57:00,SPECI KASE 171857Z COR 34010KT 5SM -SN FEW017 BKN024 OVC029 M05/M09 A3009 RMK AO2 P0000 T10501089,0,10.0,0,8045,0,0,0,SN
2026-04-17 18:53:00,METAR KASE 171853Z 34014G19KT 3SM -SN VV010 M05/M09 A3008 RMK AO2 SLP156 P0000 T10501089,0,14.0,1,4827,0,0,0,SN
2026-04-17 18:45:00,SPECI KASE 171845Z 34009G19KT 3SM -SN VV010 M05/M08 A3008 RMK AO2 P0000 T10501083,0,9.0,1,4827,0,0,0,SN
2026-04-17 18:36:00,SPECI KASE 171836Z 35009G19KT 1 1/2SM -SN VV009 M05/M08 A3008 RMK AO2 P0000 T10501083,0,9.0,1,2414,0,0,0,SN
2026-04-17 18:15:00,SPECI KASE 171815Z 33011G19KT 1SM -SN BKN011 OVC017 M06/M08 A3008 RMK AO2 P0000 T10561083,0,11.0,1,1609,0,0,0,SN
2026-04-17 18:00:00,SPECI KASE 171800Z 35012G19KT 1/2SM -SN FZFG VV008 M06/M08 A3007 RMK AO2 P0000 T10611083,0,12.0,1,804,0,0,1,"FG,SN"
2026-04-17 17:53:00,METAR KASE 171753Z 36012G19KT 1SM -SN BR VV008 M06/M08 A3006 RMK AO2 SLP145 P0001 60005 T10611078 11011 21061 53033,0,12.0,1,1609,0,0,1,"BR,SN"
2026-04-17 17:34:00,SPECI KASE 171734Z 35010KT 1SM -SN BR VV008 M06/M08 A3004 RMK AO2 P0000 T10611078,0,10.0,0,1609,0,0,1,"BR,SN"
2026-04-17 17:19:00,SPECI KASE 171719Z 35009G17KT 1SM -SN BR VV010 M06/M08 A3003 RMK AO2 P0000 T10561078,0,9.0,1,1609,0,0,1,"BR,SN"
2026-04-17 17:00:00,SPECI KASE 171700Z 36009G19KT 1SM -SN BR VV009 M06/M08 A3001 RMK AO2 P0000 T10561078,0,9.0,1,1609,0,0,1,"BR,SN"
2026-04-17 16:53:00,METAR KASE 171653Z 35009KT 1SM -SN BR VV009 M06/M08 A3000 RMK AO2 SLP117 P0000 T10561078,0,9.0,0,1609,0,0,1,"BR,SN"
2026-04-17 16:22:00,SPECI KASE 171622Z 34009KT 1SM -SN BR VV011 M06/M08 A2998 RMK AO2 P0000 T10561078,0,9.0,0,1609,0,0,1,"BR,SN"
2026-04-17 15:53:00,METAR KASE 171553Z 35008KT 1/2SM SN FZFG VV009 M06/M07 A2997 RMK AO2 SLP108 P0002 T10561072,0,8.0,0,804,0,0,1,"FG,SN"
2026-04-17 15:33:00,SPECI KASE 171533Z 34007KT 1/2SM SN FZFG VV011 M06/M07 A2996 RMK AO2 P0002 T10561072,0,7.0,0,804,0,0,1,"FG,SN"
2026-04-17 14:53:00,METAR KASE 171453Z 01004KT 1/2SM SN FZFG VV006 M06/M07 A2994 RMK AO2 SLP091 P0002 60002 T10561067 51021,0,4.0,0,804,0,0,1,"FG,SN"
2026-04-17 14:43:00,SPECI KASE 171443Z 36005KT 1SM -SN BR VV009 M06/M07 A2994 RMK AO2 P0001 T10561067,0,5.0,0,1609,0,0,1,"BR,SN"
2026-04-17 14:00:00,SPECI KASE 171400Z 35009G16KT 3/4SM -SN BR VV012 M05/M07 A2992 RMK AO2 P0000 T10501067,0,9.0,1,1207,0,0,1,"BR,SN"
2026-04-17 13:53:00,METAR KASE 171353Z 35007KT 1SM -SN BR VV012 M06/M07 A2991 RMK AO2 SLP077 P0000 T10561067,0,7.0,0,1609,0,0,1,"BR,SN"
2026-04-17 13:44:00,SPECI KASE 171344Z 35008G17KT 1SM -SN BR BKN013 OVC021 M05/M07 A2991 RMK AO2 P0000 T10501072,0,8.0,1,1609,0,0,1,"BR,SN"
2026-04-17 13:10:00,SPECI KASE 171310Z 35011KT 2SM -SN BR BKN016 OVC023 M04/M07 A2988 RMK AO2 P0000 T10441067,0,11.0,0,3218,0,0,1,"BR,SN"
2026-04-17 12:53:00,METAR KASE 171253Z AUTO 35011KT 1 1/4SM -SN BR OVC022 M04/M06 A2986 RMK AO2 SNB11 SLP052 P0000 T10391056 $,0,11.0,0,2011,0,0,1,"BR,SN"
2026-04-17 12:37:00,SPECI KASE 171237Z AUTO 36010KT 2 1/2SM -SN BR FEW020 OVC029 M03/M05 A2986 RMK AO2 SNB11 P0000 T10331050 $,0,10.0,0,4022,0,0,1,"BR,SN"
2026-04-17 11:53:00,METAR KASE 171153Z AUTO 35006KT 10SM OVC034 M01/M07 A2984 RMK AO2 SLP031 7//// T10111067 10100 21011 51019 $,0,6.0,0,16090,0,0,0,
2026-04-17 10:53:00,METAR KASE 171053Z AUTO 35008KT 10SM BKN080 OVC110 M01/M07 A2981 RMK AO2 SLP018 T10061072 $,0,8.0,0,16090,0,0,0,
2026-04-17 09:53:00,METAR KASE 170953Z AUTO 36011G20KT 10SM OVC095 01/M07 A2980 RMK AO2 SLP010 T00111072 $,0,11.0,1,16090,0,0,0,
2026-04-17 08:53:00,METAR KASE 170853Z AUTO 03011G19KT 10SM FEW075 BKN095 05/M09 A2977 RMK AO2 PK WND 24027/0815 SLP993 T00501089 56006 $,0,11.0,1,16090,0,0,0,
2026-04-17 07:53:00,METAR KASE 170753Z AUTO VRB04KT 10SM OVC090 09/M12 A2978 RMK AO2 SLP982 T00941117 $,0,4.0,0,16090,0,0,0,
2026-04-17 06:53:00,METAR KASE 170653Z AUTO 00000KT 10SM BKN100 07/M12 A2978 RMK AO2 SLP993 T00671122 401671017 $,0,0.0,0,16090,0,0,0,
2026-04-17 05:53:00,METAR KASE 170553Z AUTO 19004KT 10SM CLR 09/M14 A2980 RMK AO2 SLP995 6//// T00941144 10156 20094 $,0,4.0,0,16090,0,0,0,
2026-04-17 04:53:00,METAR KASE 170453Z AUTO 20013G30KT 10SM 11/M16 A2982 RMK AO2 PK WND 20030/0448 SLP002 T01061156 $,0,13.0,1,16090,0,0,0,
2026-04-17 01:53:00,METAR KASE 170153Z AUTO 00000KT 10SM CLR 12/M14 A2980 RMK AO2 SLP008 T01171144,0,0.0,0,16090,0,0,0,
2026-04-17 01:10:00,SPECI KASE 170110Z VRB06G17KT 10SM CLR 12/M14 A2980 RMK AO2 T01221139,0,6.0,1,16090,0,0,0,
2026-04-17 00:53:00,METAR KASE 170053Z 10SM CLR 12/M13 A2979 RMK AO2 PK WND 23033/0018 SLP022 T01221133,0,,0,16090,0,0,0,
2026-04-16 23:53:00,METAR KASE 162353Z 20013G28KT 170V240 10SM CLR 13/M12 A2979 RMK AO2 PK WND 19039/2314 SLP013 T01331122 10167 20122 58015,0,13.0,1,16090,0,0,0,
2026-04-16 22:53:00,METAR KASE 162253Z 18013G30KT 10SM CLR 14/M13 A2982 RMK AO2 PK WND 17030/2248 SLP019 T01391128,0,13.0,1,16090,0,0,0,
2026-04-16 21:53:00,METAR KASE 162153Z 25010G21KT 220V300 10SM CLR 16/M08 A2984 RMK AO2 PK WND 23028/2111 SLP023 T01561083,0,10.0,1,16090,0,0,0,
2026-04-16 20:53:00,METAR KASE 162053Z 22008G21KT 170V260 10SM BKN100 17/M08 A2985 RMK AO2 PK WND 27029/2031 SLP029 T01671078 56020,0,8.0,1,16090,0,0,0,
2026-04-16 20:34:00,SPECI KASE 162034Z 24013G27KT 10SM BKN100 17/M08 A2985 RMK AO2 PK WND 27029/2031 T01671078,0,13.0,1,16090,0,0,0,
2026-04-16 19:53:00,METAR KASE 161953Z COR VRB06KT 10SM SCT100 14/M09 A2986 RMK AO2 SLP033 T01441089,0,6.0,0,16090,0,0,0,
2026-04-16 19:04:00,SPECI KASE 161904Z 24010G16KT 10SM BKN100 14/M08 A2988 RMK AO2 T01391083,0,10.0,1,16090,0,0,0,
2026-04-16 18:53:00,METAR KASE 161853Z 21004KT 10SM BKN100 13/M09 A2988 RMK AO2 SLP052 T01331094,0,4.0,0,16090,0,0,0,
2026-04-16 17:53:00,METAR KASE 161753Z 16006G17KT 10SM SCT100 13/M09 A2992 RMK AO2 SLP059 T01331094 10139 21011 58016,0,6.0,1,16090,0,0,0,
2026-04-16 16:53:00,METAR KASE 161653Z 16009G20KT 10SM FEW100 12/M09 A2995 RMK AO2 PK WND 19028/1628 SLP075 T01221094,0,9.0,1,16090,0,0,0,
2026-04-16 15:53:00,METAR KASE 161553Z 17013G22KT 10SM CLR 12/M09 A2996 RMK AO2 PK WND 17028/1514 SLP070 T01171094,0,13.0,1,16090,0,0,0,
2026-04-16 14:59:00,SPECI KASE 161459Z 18009G15KT 10SM CLR 10/M07 A2998 RMK AO2 T01001072,0,9.0,1,16090,0,0,0,
2026-04-16 14:53:00,METAR KASE 161453Z 00000KT 10SM CLR 08/M07 A2998 RMK AO2 SLP089 T00831067 58005,0,0.0,0,16090,0,0,0,
2026-04-16 13:53:00,METAR KASE 161353Z 17003KT 10SM CLR 04/M06 A3000 RMK AO2 SLP099 T00441061,0,3.0,0,16090,0,0,0,
2026-04-16 12:53:00,METAR KASE 161253Z 20005KT 10SM CLR M01/M07 A2999 RMK AO2 SLP105 T10111067,0,5.0,0,16090,0,0,0,
2026-04-16 11:53:00,METAR KASE 161153Z AUTO 21008KT 10SM CLR 01/M07 A3000 RMK AO2 SLP093 T00111067 10022 21017 58011,0,8.0,0,16090,0,0,0,
2026-04-16 10:53:00,METAR KASE 161053Z AUTO 21009KT 10SM FEW080 01/M06 A3001 RMK AO2 SLP100 T00111061,0,9.0,0,16090,0,0,0,
2026-04-16 09:53:00,METAR KASE 160953Z AUTO 19007KT 10SM BKN075 01/M06 A3003 RMK AO2 SLP106 T00111061,0,7.0,0,16090,0,0,0,
2026-04-16 08:53:00,METAR KASE 160853Z AUTO 00000KT 10SM CLR M02/M07 A3004 RMK AO2 SLP121 T10171067 57008,0,0.0,0,16090,0,0,0,
2026-04-16 07:53:00,METAR KASE 160753Z AUTO 20006KT 10SM CLR 01/M06 A3004 RMK AO2 SLP116 T00061061,0,6.0,0,16090,0,0,0,
2026-04-16 06:53:00,METAR KASE 160653Z AUTO 00000KT 10SM CLR M01/M06 A3006 RMK AO2 SLP133 T10111061 401171011,0,0.0,0,16090,0,0,0,
2026-04-16 05:53:00,METAR KASE 160553Z AUTO 19006KT 10SM CLR 01/M06 A3007 RMK AO2 SLP131 T00061056 10111 21006 50006,0,6.0,0,16090,0,0,0,
2026-04-16 04:53:00,METAR KASE 160453Z AUTO 20004KT 10SM CLR M01/M06 A3007 RMK AO2 SLP140 T10061056,0,4.0,0,16090,0,0,0,
2026-04-16 03:53:00,METAR KASE 160353Z AUTO 21006KT 10SM CLR 03/M06 A3006 RMK AO2 SLP127 T00331056,0,6.0,0,16090,0,0,0,
2026-04-16 02:53:00,METAR KASE 160253Z AUTO 20006KT 10SM CLR 03/M05 A3004 RMK AO2 SLP130 T00281050 52006,0,6.0,0,16090,0,0,0,
2026-04-16 01:53:00,METAR KASE 160153Z AUTO 23005KT 10SM CLR 05/M06 A3003 RMK AO2 SLP125 T00501056,0,5.0,0,16090,0,0,0,
2026-04-16 00:53:00,METAR KASE 160053Z 24004KT 10SM BKN070 09/M06 A3004 RMK AO2 SLP116 T00891061,0,4.0,0,16090,0,0,0,
2026-04-15 23:53:00,METAR KASE 152353Z 34010G14KT 10SM FEW070 11/M06 A3002 RMK AO2 SLP101 T01111061 10117 20067 56007,0,10.0,1,16090,0,0,0,
2026-04-15 22:53:00,METAR KASE 152253Z 25004G12KT 10SM OVC075 10/M07 A3003 RMK AO2 SLP109 T01001067,0,4.0,1,16090,0,0,0,
2026-04-15 21:53:00,METAR KASE 152153Z COR 31010G18KT 10SM BKN070 10/M07 A3003 RMK AO2 SLP111 T01001067,0,10.0,1,16090,0,0,0,
2026-04-15 20:53:00,METAR KASE 152053Z 35011G18KT 10SM SCT065 09/M06 A3005 RMK AO2 SLP120 T00941061 58010,0,11.0,1,16090,0,0,0,
2026-04-15 19:53:00,METAR KASE 151953Z 33009G19KT 10SM BKN060 09/M06 A3006 RMK AO2 SLP126 T00891056,0,9.0,1,16090,0,0,0,
2026-04-15 18:53:00,METAR KASE 151853Z 35013G22KT 10SM FEW048 BKN065 BKN075 08/M05 A3007 RMK AO2 SLP134 T00781050,0,13.0,1,16090,0,0,0,
2026-04-15 18:03:00,SPECI KASE 151803Z 34010G18KT 10SM BKN043 BKN060 07/M03 A3008 RMK AO2 T00671033,0,10.0,1,16090,0,0,0,
2026-04-15 17:53:00,METAR KASE 151753Z 34005KT 10SM BKN041 BKN048 BKN060 07/M04 A3008 RMK AO2 SLP140 60000 T00671039 10072 20000 58002,0,5.0,0,16090,0,0,0,
2026-04-15 16:53:00,METAR KASE 151653Z 25003KT 10SM BKN047 OVC060 06/M05 A3009 RMK AO2 SLP143 T00561050,0,3.0,0,16090,0,0,0,
2026-04-15 15:53:00,METAR KASE 151553Z 04005KT 10SM FEW060 05/M03 A3009 RMK AO2 SLP142 T00501033,0,5.0,0,16090,0,0,0,
2026-04-15 14:53:00,METAR KASE 151453Z 13005KT 10SM OVC070 02/M01 A3009 RMK AO2 SLP154 60000 T00221006 51011,0,5.0,0,16090,0,0,0,
2026-04-15 13:53:00,METAR KASE 151353Z 00000KT 10SM BKN065 01/M01 A3009 RMK AO2 SNE16 SLP157 P0000 T00061006,0,0.0,0,16090,0,0,0,
2026-04-15 12:53:00,METAR KASE 151253Z 33003KT 6SM -SN BR OVC045 00/M01 A3007 RMK AO2 SNB08 SLP150 P0000 T00001006,0,3.0,0,9654,0,0,1,"BR,SN"
2026-04-15 11:53:00,METAR KASE 151153Z AUTO 00000KT 10SM BKN048 OVC065 01/M01 A3005 RMK AO2 SLP133 60000 70002 T00061011 10006 21006 57001,0,0.0,0,16090,0,0,0,
2026-04-15 10:53:00,METAR KASE 151053Z AUTO 00000KT 10SM OVC041 00/M01 A3005 RMK AO2 SLP134 T00001006,0,0.0,0,16090,0,0,0,
2026-04-15 09:53:00,METAR KASE 150953Z AUTO 00000KT 10SM OVC037 00/M01 A3005 RMK AO2 SLP134 T00001011,0,0.0,0,16090,0,0,0,
2026-04-15 08:53:00,METAR KASE 150853Z AUTO 21004KT 10SM FEW004 BKN039 M01/M01 A3006 RMK AO2 SNE0759 SLP131 P0000 60000 T10061011 58000,0,4.0,0,16090,0,0,0,SN
2026-04-15 08:50:00,SPECI KASE 150850Z AUTO 22004KT 10SM FEW004 SCT035 BKN041 M01/M01 A3006 RMK AO2 SNE0759 P0000,0,4.0,0,16090,0,0,0,SN
2026-04-15 08:14:00,SPECI KASE 150814Z AUTO 00000KT 10SM SCT018 SCT035 OVC055 00/M01 A3006 RMK AO2 SNE0759 P0000 T00001006,0,0.0,0,16090,0,0,0,SN
2026-04-15 07:53:00,METAR KASE 150753Z AUTO 01003KT 8SM -SN FEW004 BKN018 OVC055 00/M01 A3006 RMK AO2 SLP130 P0000 T00001006,0,3.0,0,12872,0,0,0,SN
2026-04-15 07:31:00,SPECI KASE 150731Z AUTO 00000KT 7SM -SN FEW004 BKN022 OVC036 00/M01 A3006 RMK AO2 P0000 T00001006,0,0.0,0,11263,0,0,0,SN
2026-04-15 06:53:00,METAR KASE 150653Z AUTO 01003KT 4SM -SN BR FEW008 FEW027 OVC036 00/M01 A3006 RMK AO2 SNB05 SLP132 P0000 T00001006 400890000,0,3.0,0,6436,0,0,1,"BR,SN"
2026-04-15 06:48:00,SPECI KASE 150648Z AUTO 01003KT 5SM -SN BR FEW008 SCT027 OVC036 00/M01 A3006 RMK AO2 SNB05 P0000,0,3.0,0,8045,0,0,1,"BR,SN"
2026-04-15 05:53:00,METAR KASE 150553Z AUTO 00000KT 10SM SCT028 BKN039 OVC060 00/M01 A3006 RMK AO2 SNB0454E19 SLP135 P0000 60000 T00001006 10039 20000 51008,0,0.0,0,16090,0,0,0,SN
2026-04-15 05:25:00,SPECI KASE 150525Z AUTO 34003KT 10SM SCT015 BKN029 BKN095 00/M01 A3005 RMK AO2 SNB0454E19 P0000 T00001011,0,3.0,0,16090,0,0,0,SN
2026-04-15 04:53:00,METAR KASE 150453Z AUTO 00000KT 7SM BKN023 OVC029 01/M01 A3005 RMK AO2 SLP140 T00061011,0,0.0,0,11263,0,0,0,
2026-04-15 04:08:00,SPECI KASE 150408Z AUTO 00000KT 10SM BKN023 OVC046 01/M01 A3005 RMK AO2 T00111011,0,0.0,0,16090,0,0,0,
2026-04-15 03:53:00,METAR KASE 150353Z AUTO 00000KT 10SM FEW024 OVC048 01/M02 A3005 RMK AO2 SLP133 T00111017,0,0.0,0,16090,0,0,0,
2026-04-15 02:53:00,METAR KASE 150253Z AUTO 00000KT 10SM SCT060 OVC080 01/M02 A3003 RMK AO2 SLP128 T00111017 51016,0,0.0,0,16090,0,0,0,
2026-04-15 01:53:00,METAR KASE 150153Z AUTO 35004KT 10SM FEW018 BKN032 BKN060 01/M02 A3001 RMK AO2 SLP127 T00111017,0,4.0,0,16090,0,0,0,
2026-04-15 01:41:00,SPECI KASE 150141Z AUTO 36007KT 10SM SCT020 SCT027 OVC032 01/M02 A3001 RMK AO2 T00111017,0,7.0,0,16090,0,0,0,
2026-04-15 01:16:00,SPECI KASE 150116Z 34007KT 10SM BKN021 BKN027 OVC090 02/M02 A3000 RMK AO2 T00221022,0,7.0,0,16090,0,0,0,
2026-04-15 00:53:00,METAR KASE 150053Z 35006KT 10SM SCT055 OVC095 02/M02 A2999 RMK AO2 SLP117 T00221022,0,6.0,0,16090,0,0,0,
2026-04-14 23:53:00,METAR KASE 142353Z 34015G27KT 10SM BKN075 04/M03 A2997 RMK AO2 PK WND 32027/2348 SLP100 T00441028 10089 20044 53011,0,15.0,1,16090,0,0,0,
2026-04-14 22:53:00,METAR KASE 142253Z 01009G17KT 10SM SCT048 BKN060 05/M04 A2994 RMK AO2 SLP091 T00501039,0,9.0,1,16090,0,0,0,
2026-04-14 21:53:00,METAR KASE 142153Z 01009KT 10SM FEW046 BKN065 BKN085 06/M04 A2995 RMK AO2 SLP089 T00561039,0,9.0,0,16090,0,0,0,
2026-04-14 20:53:00,METAR KASE 142053Z 27010G19KT 10SM BKN080 BKN095 07/M08 A2993 RMK AO2 SLP076 T00671083 53007,0,10.0,1,16090,0,0,0,
2026-04-14 19:53:00,METAR KASE 141953Z COR 12006G15KT 10SM BKN065 BKN075 08/M07 A2991 RMK AO2 SLP067 T00781067,0,6.0,1,16090,0,0,0,
2026-04-14 18:53:00,METAR KASE 141853Z 35010KT 10SM FEW045 BKN055 OVC090 06/M04 A2991 RMK AO2 SLP063 T00611039,0,10.0,0,16090,0,0,0,
2026-04-14 17:53:00,METAR KASE 141753Z VRB06KT 10SM BKN055 06/M02 A2990 RMK AO2 SLP062 60002 T00561022 10056 20017 50003,0,6.0,0,16090,0,0,0,
2026-04-14 16:53:00,METAR KASE 141653Z 01005KT 10SM SCT014 BKN050 OVC070 02/01 A2994 RMK AO2 RAB1559E10B26E27UPB24E26SNB10E24 SLP086 P0001 T00220006,0,5.0,0,16090,0,0,0,RA
2026-04-14 15:53:00,METAR KASE 141553Z 01006KT 3SM BR SCT014 BKN050 OVC070 04/02 A2991 RMK AO2 SLP065 T00390022,0,6.0,0,4827,0,0,1,BR
2026-04-14 14:53:00,METAR KASE 141453Z 00000KT 10SM SCT004 BKN060 03/01 A2989 RMK AO2 SLP065 60001 T00280006 58010,0,0.0,0,16090,0,0,0,
2026-04-14 13:53:00,METAR KASE 141353Z 15003KT 10SM SCT004 BKN030 02/01 A2990 RMK AO2 SLP068 T00220006,0,3.0,0,16090,0,0,0,
2026-04-14 13:21:00,SPECI KASE 141321Z 00000KT 10SM SCT004 BKN030 02/01 A2991 RMK AO2 T00170006,0,0.0,0,16090,0,0,0,
2026-04-14 12:53:00,METAR KASE 141253Z 00000KT 10SM BKN004 BKN021 OVC049 02/01 A2992 RMK AO2 RAE47 SLP069 P0001 T00170006,0,0.0,0,16090,0,0,0,
2026-04-14 12:44:00,SPECI KASE 141244Z 00000KT 10SM -RA SCT004 BKN021 OVC047 02/01 A2992 RMK AO2 P0001 T00170006,0,0.0,0,16090,0,0,0,-RA
2026-04-14 12:35:00,SPECI KASE 141235Z 24003KT 10SM -RA BKN003 BKN022 OVC034 02/01 A2992 RMK AO2 P0001 T00170006,0,3.0,0,16090,0,0,0,-RA
2026-04-14 12:28:00,SPECI KASE 141228Z AUTO 26004KT 10SM -RA FEW003 BKN020 OVC027 02/01 A2992 RMK AO2 P0001 T00170006,0,4.0,0,16090,0,0,0,-RA
2026-04-14 12:18:00,SPECI KASE 141218Z AUTO 00000KT 10SM -RA FEW003 SCT020 OVC025 02/01 A2992 RMK AO2 P0001 T00170006,0,0.0,0,16090,0,0,0,-RA
2026-04-14 12:14:00,SPECI KASE 141214Z AUTO 00000KT 10SM -RA OVC023 02/01 A2992 RMK AO2 P0001 T00170006,0,0.0,0,16090,0,0,0,-RA
2026-04-14 12:02:00,SPECI KASE 141202Z AUTO 00000KT 10SM -RA FEW009 SCT020 OVC028 02/01 A2993 RMK AO2 P0001 T00170006,0,0.0,0,16090,0,0,0,-RA
2026-04-14 11:53:00,METAR KASE 141153Z AUTO 00000KT 10SM -RA FEW009 OVC030 02/01 A2993 RMK AO2 RAB22 SLP062 P0000 60005 70005 T00170006 10061 20017 53002,0,0.0,0,16090,0,0,0,-RA
2026-04-14 11:30:00,SPECI KASE 141130Z AUTO 03003KT 10SM -RA FEW009 OVC040 02/01 A2993 RMK AO2 RAB22 P0000 T00170011,0,3.0,0,16090,0,0,0,-RA
2026-04-14 11:03:00,SPECI KASE 141103Z AUTO 00000KT 10SM FEW010 SCT022 OVC055 02/01 A2992 RMK AO2 T00170006,0,0.0,0,16090,0,0,0,
2026-04-14 10:53:00,METAR KASE 141053Z AUTO VRB05KT 10SM SCT010 BKN024 OVC070 02/01 A2992 RMK AO2 RAB14E53 SLP064 P0001 T00170006,0,5.0,0,16090,0,0,0,RA
2026-04-14 10:43:00,SPECI KASE 141043Z AUTO 00000KT 10SM -RA BKN010 OVC020 02/01 A2993 RMK AO2 RAB14 P0001 T00170006,0,0.0,0,16090,0,0,0,-RA
2026-04-14 10:11:00,SPECI KASE 141011Z AUTO VRB04KT 10SM FEW008 BKN021 OVC075 03/01 A2994 RMK AO2 T00280006,0,4.0,0,16090,0,0,0,
2026-04-14 10:02:00,SPECI KASE 141002Z AUTO 10SM FEW009 SCT012 OVC075 03/01 A2992 RMK AO2 PRESRR T00280011,0,,0,16090,0,0,0,
2026-04-14 09:53:00,METAR KASE 140953Z AUTO 29003KT 10SM BKN075 02/01 A2991 RMK AO2 RAE09 SLP054 P0000 T00220011,0,3.0,0,16090,0,0,0,
2026-04-14 09:19:00,SPECI KASE 140919Z AUTO 21005KT 10SM SCT023 SCT085 BKN100 02/01 A2991 RMK AO2 RAE09 P0000 T00220011,0,5.0,0,16090,0,0,0,
2026-04-14 09:03:00,SPECI KASE 140903Z AUTO 20007KT 10SM -RA BKN029 BKN045 02/01 A2992 RMK AO2 P0000 T00220011,0,7.0,0,16090,0,0,0,-RA
2026-04-14 08:53:00,METAR KASE 140853Z AUTO 14004KT 10SM -RA BKN033 BKN045 OVC055 03/01 A2992 RMK AO2 RAE01B50 SLP052 P0000 60004 T00280011 58009,0,4.0,0,16090,0,0,0,"-RA,RA"
2026-04-14 07:53:00,METAR KASE 140753Z AUTO 00000KT 10SM -RA SCT012 BKN032 OVC070 02/01 A2996 RMK AO2 RAB0659 SLP068 P0004 T00220011,0,0.0,0,16090,0,0,0,"-RA,RA"
2026-04-14 07:51:00,SPECI KASE 140751Z AUTO 00000KT 10SM -RA SCT012 BKN030 OVC060 03/01 A2996 RMK AO2 RAB0659 P0004,0,0.0,0,16090,0,0,0,"-RA,RA"
2026-04-14 07:15:00,SPECI KASE 140715Z AUTO 24005KT 8SM -RA BKN022 OVC036 03/01 A2997 RMK AO2 RAB0659 P0001 T00330006,0,5.0,0,12872,0,0,0,"-RA,RA"
2026-04-14 06:53:00,METAR KASE 140653Z AUTO 19004KT 10SM FEW038 OVC046 04/00 A2996 RMK AO2 RAB20E41 SLP065 P0000 T00440000 401440028,0,4.0,0,16090,0,0,0,RA
2026-04-14 05:53:00,METAR KASE 140553Z AUTO 20003KT 10SM BKN070 OVC080 05/M03 A2995 RMK AO2 SLP064 T00501028 10122 20039 58003,0,3.0,0,16090,0,0,0,
2026-04-14 04:53:00,METAR KASE 140453Z AUTO 36003KT 10SM OVC065 06/M03 A2997 RMK AO2 SLP072 T00561028,0,3.0,0,16090,0,0,0,
2026-04-14 03:53:00,METAR KASE 140353Z AUTO VRB03KT 10SM SCT070 OVC095 07/M06 A2998 RMK AO2 SLP075 T00671061,0,3.0,0,16090,0,0,0,
2026-04-14 02:53:00,METAR KASE 140253Z AUTO 18005KT 10SM SCT110 06/M06 A2996 RMK AO2 SLP078 T00561061 51005,0,5.0,0,16090,0,0,0,
2026-04-14 01:53:00,METAR KASE 140153Z AUTO 22005KT 10SM CLR 06/M06 A2996 RMK AO2 SLP075 T00611061,0,5.0,0,16090,0,0,0,
2026-04-14 00:53:00,METAR KASE 140053Z 21006KT 10SM FEW085 09/M07 A2996 RMK AO2 SLP067 T00941067,0,6.0,0,16090,0,0,0,
2026-04-13 23:53:00,METAR KASE 132353Z 26011G18KT 10SM SCT090 12/M09 A2995 RMK AO2 SLP055 T01221089 10144 20106 56006,0,11.0,1,16090,0,0,0,
2026-04-13 22:53:00,METAR KASE 132253Z 23007KT 200V270 10SM FEW049 SCT070 OVC095 12/M08 A2995 RMK AO2 SLP061 T01171078,0,7.0,0,16090,0,0,0,
2026-04-13 21:53:00,METAR KASE 132153Z 22010G21KT 10SM FEW090 12/M09 A2996 RMK AO2 SLP055 T01221089,0,10.0,1,16090,0,0,0,
2026-04-13 20:53:00,METAR KASE 132053Z 19011G16KT 10SM FEW090 13/M10 A2997 RMK AO2 PK WND 17027/2031 SLP054 T01331100 56014,0,11.0,1,16090,0,0,0,
2026-04-13 19:55:00,SPECI KASE 131955Z 19011G16KT 10SM SCT090 13/M10 A2999 RMK AO2 T01331100,0,11.0,1,16090,0,0,0,
2026-04-13 19:53:00,METAR KASE 131953Z 10SM SCT090 13/M10 A2999 RMK AO2 SLP059 T01281100,0,,0,16090,0,0,0,
2026-04-13 18:53:00,METAR KASE 131853Z 21008KT 170V270 10SM CLR 12/M11 A3000 RMK AO2 SLP067 T01171106,0,8.0,0,16090,0,0,0,
2026-04-13 17:53:00,METAR KASE 131753Z 19007G22KT 150V260 10SM CLR 11/M12 A3002 RMK AO2 SLP077 T01111117 10111 20056 58006,0,7.0,1,16090,0,0,0,
2026-04-13 16:53:00,METAR KASE 131653Z 36005G14KT 10SM CLR 09/M13 A3003 RMK AO2 PK WND 26027/1610 SLP085 T00941128,0,5.0,1,16090,0,0,0,
2026-04-13 15:53:00,METAR KASE 131553Z 25008G23KT 10SM FEW090 09/M13 A3004 RMK AO2 SLP091 T00891128,0,8.0,1,16090,0,0,0,
2026-04-13 15:29:00,SPECI KASE 131529Z 27007G19KT 10SM FEW090 08/M12 A3004 RMK AO2 T00781122,0,7.0,1,16090,0,0,0,
2026-04-13 14:53:00,METAR KASE 131453Z 24008G19KT 200V290 10SM CLR 08/M12 A3004 RMK AO2 SLP099 T00781117 51009,0,8.0,1,16090,0,0,0,
2026-04-13 13:53:00,METAR KASE 131353Z 23010G19KT 10SM CLR 07/M12 A3004 RMK AO2 PK WND 22026/1316 SLP097 T00721117,0,10.0,1,16090,0,0,0,
2026-04-13 12:53:00,METAR KASE 131253Z 23012G23KT 210V270 10SM SCT085 07/M12 A3002 RMK AO2 PK WND 24028/1222 SLP082 T00671122,0,12.0,1,16090,0,0,0,
2026-04-13 11:53:00,METAR KASE 131153Z AUTO 20007KT 190V070 10SM BKN090 BKN100 06/M11 A3001 RMK AO2 SLP073 T00611106 10106 20028 51014,0,7.0,0,16090,0,0,0,
2026-04-13 10:53:00,METAR KASE 131053Z AUTO 21006KT 10SM CLR 05/M11 A3000 RMK AO2 SLP067 T00501106,0,6.0,0,16090,0,0,0,
2026-04-13 09:53:00,METAR KASE 130953Z AUTO VRB06KT 10SM CLR 08/M12 A2997 RMK AO2 SLP052 T00781122,0,6.0,0,16090,0,0,0,
2026-04-13 08:53:00,METAR KASE 130853Z AUTO 17009G17KT 140V210 10SM CLR 08/M12 A2996 RMK AO2 SLP044 T00831117 51001,0,9.0,1,16090,0,0,0,
2026-04-13 07:53:00,METAR KASE 130753Z AUTO VRB05G26KT 10SM CLR 09/M12 A2996 RMK AO2 PK WND 24026/0751 SLP044 T00941122,0,5.0,1,16090,0,0,0,
2026-04-13 06:53:00,METAR KASE 130653Z AUTO 00000KT 10SM FEW095 09/M11 A2996 RMK AO2 SLP048 T00891111 401610017,0,0.0,0,16090,0,0,0,
2026-04-13 05:53:00,METAR KASE 130553Z AUTO VRB03KT 10SM BKN100 08/M06 A2995 RMK AO2 SLP048 T00831061 10133 20050 58004,0,3.0,0,16090,0,0,0,
2026-04-13 04:53:00,METAR KASE 130453Z AUTO 12009KT 10SM SCT090 BKN100 09/M06 A2996 RMK AO2 PK WND 18026/0423 SLP051 T00941056,0,9.0,0,16090,0,0,0,
2026-04-13 03:53:00,METAR KASE 130353Z AUTO 16007KT 10SM FEW055 BKN090 OVC110 08/M04 A2997 RMK AO2 SLP061 T00831044,0,7.0,0,16090,0,0,0,
2026-04-13 02:53:00,METAR KASE 130253Z AUTO 22005KT 10SM SCT100 SCT120 07/M04 A2997 RMK AO2 SLP067 T00721039 51014,0,5.0,0,16090,0,0,0,
2026-04-13 01:53:00,METAR KASE 130153Z AUTO 01011G19KT 10SM CLR 08/M03 A2995 RMK AO2 SLP073 T00781033,0,11.0,1,16090,0,0,0,
2026-04-13 00:53:00,METAR KASE 130053Z 18010G30KT 10SM SCT100 SCT120 12/M08 A2995 RMK AO2 PK WND 17030/0044 SLP064 T01221083,0,10.0,1,16090,0,0,0,
2026-04-12 23:53:00,METAR KASE 122353Z 25013G31KT 10SM BKN100 14/M09 A2992 RMK AO2 PK WND 22031/2350 SLP049 T01391089 10161 20133 55001,0,13.0,1,16090,0,0,0,
2026-04-12 22:53:00,METAR KASE 122253Z 25007G18KT 210V300 10SM FEW110 16/M12 A2990 RMK AO2 PK WND 26027/2217 SLP034 T01561117,0,7.0,1,16090,0,0,0,
2026-04-12 21:53:00,METAR KASE 122153Z 19005G12KT 10SM SCT110 16/M12 A2992 RMK AO2 PK WND 26032/2100 SLP042 T01561122,0,5.0,1,16090,0,0,0,
2026-04-12 20:53:00,METAR KASE 122053Z 25010G17KT 10SM FEW110 16/M12 A2993 RMK AO2 SLP043 T01561117 56013,0,10.0,1,16090,0,0,0,
2026-04-12 19:53:00,METAR KASE 121953Z 26011G23KT 220V280 10SM FEW100 14/M11 A2994 RMK AO2 SLP047 T01441106,0,11.0,1,16090,0,0,0,
2026-04-12 18:53:00,METAR KASE 121853Z 22011G17KT 10SM CLR 14/M11 A2995 RMK AO2 SLP058 T01391111,0,11.0,1,16090,0,0,0,
2026-04-12 17:53:00,METAR KASE 121753Z 17013G18KT 10SM CLR 14/M13 A2997 RMK AO2 SLP064 T01391133 10139 20028 58004,0,13.0,1,16090,0,0,0,
2026-04-12 17:19:00,SPECI KASE 121719Z 17013G18KT 10SM CLR 13/M12 A2999 RMK AO2 T01281122,0,13.0,1,16090,0,0,0,
2026-04-12 17:02:00,SPECI KASE 121702Z 28010G17KT 10SM CLR 12/M13 A2999 RMK AO2 T01221133,0,10.0,1,16090,0,0,0,
2026-04-12 16:53:00,METAR KASE 121653Z 18005G14KT 10SM CLR 12/M12 A3000 RMK AO2 SLP078 T01171122,0,5.0,1,16090,0,0,0,
2026-04-12 15:53:00,METAR KASE 121553Z 18015G24KT 10SM CLR 11/M11 A3000 RMK AO2 PK WND 16026/1536 SLP072 T01111111,0,15.0,1,16090,0,0,0,
2026-04-12 14:53:00,METAR KASE 121453Z VRB03G15KT 10SM CLR 11/M08 A2999 RMK AO2 SLP072 T01061083 50003,0,3.0,1,16090,0,0,0,
2026-04-12 13:53:00,METAR KASE 121353Z 13007KT 10SM CLR 05/M03 A2999 RMK AO2 SLP073 T00501033,0,7.0,0,16090,0,0,0,
2026-04-12 12:53:00,METAR KASE 121253Z VRB03KT 10SM SCT080 03/M04 A2998 RMK AO2 SLP076 T00331039,0,3.0,0,16090,0,0,0,
2026-04-12 11:53:00,METAR KASE 121153Z AUTO 20004KT 10SM OVC080 04/M03 A2997 RMK AO2 SLP068 70001 T00391033 10056 20017 56002,0,4.0,0,16090,0,0,0,
2026-04-12 10:53:00,METAR KASE 121053Z AUTO 18004KT 10SM BKN085 04/M04 A2997 RMK AO2 SLP070 T00391044,0,4.0,0,16090,0,0,0,
2026-04-12 09:53:00,METAR KASE 120953Z AUTO 00000KT 10SM BKN090 04/M04 A2997 RMK AO2 SLP074 T00391039,0,0.0,0,16090,0,0,0,
2026-04-12 08:53:00,METAR KASE 120853Z AUTO 00000KT 10SM OVC090 04/M03 A2998 RMK AO2 SLP073 T00441028 58007,0,0.0,0,16090,0,0,0,
2026-04-12 07:53:00,METAR KASE 120753Z AUTO 00000KT 10SM OVC090 05/M02 A2999 RMK AO2 SLP065 T00501022,0,0.0,0,16090,0,0,0,
2026-04-12 06:53:00,METAR KASE 120653Z AUTO 21005KT 10SM OVC090 04/M01 A3000 RMK AO2 SLP075 T00391011 401610028,0,5.0,0,16090,0,0,0,
2026-04-12 05:53:00,METAR KASE 120553Z AUTO 00000KT 10SM OVC090 05/M01 A3001 RMK AO2 SLP079 60001 T00501006 10139 20039 56010,0,0.0,0,16090,0,0,0,
2026-04-12 04:53:00,METAR KASE 120453Z AUTO 20007KT 10SM SCT090 05/M01 A3001 RMK AO2 SLP081 T00501006,0,7.0,0,16090,0,0,0,
2026-04-12 03:53:00,METAR KASE 120353Z AUTO 17007G16KT 10SM FEW080 07/00 A3001 RMK AO2 SLP076 T00720000,0,7.0,1,16090,0,0,0,
2026-04-12 02:53:00,METAR KASE 120253Z AUTO 13010KT 10SM BKN075 BKN100 07/02 A3004 RMK AO2 PK WND 22037/0219 RAB17E38 SLP093 P0001 60001 T00720017 53017,0,10.0,0,16090,0,0,0,RA
2026-04-12 01:53:00,METAR KASE 120153Z AUTO 00000KT 10SM OVC090 12/M08 A2998 RMK AO2 SLP063 T01221083,0,0.0,0,16090,0,0,0,
2026-04-12 00:53:00,METAR KASE 120053Z COR 04005G12KT 10SM SCT100 12/M09 A2999 RMK AO2 SLP065 T01221089,0,5.0,1,16090,0,0,0,
2026-04-11 23:53:00,METAR KASE 112353Z 24007G15KT 10SM FEW080 13/M08 A2998 RMK AO2 SLP058 60000 T01331083 10161 20111 58007,0,7.0,1,16090,0,0,0,
2026-04-11 22:53:00,METAR KASE 112253Z 14011G26KT 10SM SCT110 13/M04 A2998 RMK AO2 PK WND 14029/2213 SLP064 T01281039,0,11.0,1,16090,0,0,0,
2026-04-11 21:53:00,METAR KASE 112153Z 36008G14KT 10SM BKN037 12/01 A3002 RMK AO2 PK WND 36026/2120 SLP084 T01170006,0,8.0,1,16090,0,0,0,
2026-04-11 20:53:00,METAR KASE 112053Z 35010G18KT 10SM BKN065 12/M01 A3001 RMK AO2 PK WND 22029/2012 SLP073 60000 T01221011 55014,0,10.0,1,16090,0,0,0,
2026-04-11 19:53:00,METAR KASE 111953Z 17008G23KT 10SM SCT075 16/M04 A2999 RMK AO2 PK WND 22026/1904 SLP054 T01561039,0,8.0,1,16090,0,0,0,
2026-04-11 18:53:00,METAR KASE 111853Z 20006G18KT 10SM FEW065 15/M02 A3001 RMK AO2 WSHFT 1810 RAE1754 SLP057 P0000 T01501022,0,6.0,1,16090,0,0,0,RA
2026-04-11 18:30:00,SPECI KASE 111830Z 12013G23KT 10SM FEW042 FEW070 14/M01 A3003 RMK AO2 WSHFT 1810 RAE1754 P0000 T01441006,0,13.0,1,16090,0,0,0,RA
2026-04-11 18:23:00,SPECI KASE 111823Z 12013G23KT 10SM FEW036 14/M01 A3003 RMK AO2 WSHFT 1803 RAE1754 P0000 T01441006,0,13.0,1,16090,0,0,0,RA
2026-04-11 17:53:00,METAR KASE 111753Z 24010G26KT 10SM -RA FEW031 BKN080 12/M01 A3006 RMK AO2 PK WND 18035/1718 WSHFT 1732 RAB44 SLP091 P0000 60000 T01221006 10144 20072 56008,0,10.0,1,16090,0,0,0,-RA
2026-04-11 16:53:00,METAR KASE 111653Z 13008G17KT 10SM OVC075 13/M03 A3007 RMK AO2 SLP094 T01281033,0,8.0,1,16090,0,0,0,
2026-04-11 16:37:00,SPECI KASE 111637Z 18015G19KT 10SM OVC075 13/M04 A3008 RMK AO2 T01281039,0,15.0,1,16090,0,0,0,
2026-04-11 15:53:00,METAR KASE 111553Z 13008KT 10SM BKN080 BKN090 12/M03 A3009 RMK AO2 SLP098 T01221028,0,8.0,0,16090,0,0,0,
2026-04-11 14:53:00,METAR KASE 111453Z COR 13007G17KT 10SM SCT065 11/M01 A3010 RMK AO2 SLP104 T01061006 58003,0,7.0,1,16090,0,0,0,
2026-04-11 13:53:00,METAR KASE 111353Z 17010KT 10SM FEW040 BKN065 08/01 A3014 RMK AO2 SLP127 T00780006,0,10.0,0,16090,0,0,0,
2026-04-11 13:32:00,SPECI KASE 111332Z 18015G21KT 10SM BKN065 BKN090 09/M01 A3013 RMK AO2 T00891006,0,15.0,1,16090,0,0,0,
2026-04-11 12:54:00,SPECI KASE 111254Z 20010KT 10SM BKN065 BKN090 07/01 A3012 RMK AO2 T00720006,0,10.0,0,16090,0,0,0,
2026-04-11 12:53:00,METAR KASE 111253Z 20009KT 10SM BKN065 OVC095 07/01 A3012 RMK AO2 SLP111 T00720006,0,9.0,0,16090,0,0,0,
2026-04-11 11:53:00,METAR KASE 111153Z AUTO 13014G24KT 10SM OVC070 08/00 A3012 RMK AO2 SLP106 T00830000 10100 20056 53004,0,14.0,1,16090,0,0,0,
2026-04-11 10:53:00,METAR KASE 111053Z AUTO 15011KT 10SM OVC080 07/M02 A3009 RMK AO2 SLP097 T00671022,0,11.0,0,16090,0,0,0,
2026-04-11 09:53:00,METAR KASE 110953Z AUTO 14006KT 10SM BKN100 06/M02 A3009 RMK AO2 SLP092 T00611022,0,6.0,0,16090,0,0,0,
2026-04-11 08:53:00,METAR KASE 110853Z AUTO 15006KT 10SM BKN095 07/M03 A3010 RMK AO2 SLP092 T00721028 50000,0,6.0,0,16090,0,0,0,
2026-04-11 07:53:00,METAR KASE 110753Z AUTO 16009KT 10SM CLR 09/M04 A3011 RMK AO2 SLP088 T00891039,0,9.0,0,16090,0,0,0,
2026-04-11 06:53:00,METAR KASE 110653Z AUTO 15014KT 10SM CLR 10/M05 A3011 RMK AO2 SLP088 T01001050 401890022,0,14.0,0,16090,0,0,0,
2026-04-11 05:53:00,METAR KASE 110553Z AUTO 20004KT 10SM CLR 08/M04 A3010 RMK AO2 SLP092 T00781044 10139 20067 58002,0,4.0,0,16090,0,0,0,
2026-04-11 04:53:00,METAR KASE 110453Z AUTO 21006KT 10SM CLR 07/M03 A3012 RMK AO2 SLP103 T00671033,0,6.0,0,16090,0,0,0,
2026-04-11 03:53:00,METAR KASE 110353Z AUTO 21006KT 10SM CLR 09/M03 A3011 RMK AO2 SLP104 T00891033,0,6.0,0,16090,0,0,0,
2026-04-11 02:53:00,METAR KASE 110253Z AUTO 21006KT 10SM CLR 10/M02 A3011 RMK AO2 SLP108 T01001022 55002,0,6.0,0,16090,0,0,0,
2026-04-11 01:53:00,METAR KASE 110153Z AUTO 23005KT 10SM CLR 10/M01 A3010 RMK AO2 SLP111 T01001011,0,5.0,0,16090,0,0,0,
2026-04-11 00:53:00,METAR KASE 110053Z 15006KT 10SM CLR 14/M03 A3011 RMK AO2 SLP113 T01391028,0,6.0,0,16090,0,0,0,
2026-04-10 23:53:00,METAR KASE 102353Z 13014G21KT 10SM CLR 13/M02 A3011 RMK AO2 PK WND 12033/2256 SLP114 T01331022 10189 20128 53003,0,14.0,1,16090,0,0,0,
2026-04-10 22:53:00,METAR KASE 102253Z 14013G27KT 10SM SCT095 15/M03 A3011 RMK AO2 PK WND 17029/2222 SLP108 T01501033,0,13.0,1,16090,0,0,0,
2026-04-10 21:53:00,METAR KASE 102153Z 16018G24KT 10SM CLR 17/M04 A3010 RMK AO2 PK WND 22043/2101 SLP101 T01721044,0,18.0,1,16090,0,0,0,
2026-04-10 20:53:00,METAR KASE 102053Z COR 15020G27KT 10SM SCT110 18/M07 A3011 RMK AO2 PK WND 19029/2040 SLP101 T01781067 56013,0,20.0,1,16090,0,0,0,
2026-04-10 19:53:00,METAR KASE 101953Z 17014G21KT 10SM SCT100 19/M07 A3012 RMK AO2 PK WND 17026/1916 SLP099 T01891072,0,14.0,1,16090,0,0,0,
2026-04-10 18:53:00,METAR KASE 101853Z 24010G16KT 10SM CLR 18/M06 A3014 RMK AO2 SLP106 T01781061,0,10.0,1,16090,0,0,0,
2026-04-10 17:53:00,METAR KASE 101753Z 21010KT 10SM CLR 18/M06 A3015 RMK AO2 SLP108 T01781056 10178 20039 56005,0,10.0,0,16090,0,0,0,
2026-04-10 16:53:00,METAR KASE 101653Z 17012G23KT 10SM FEW100 17/M07 A3015 RMK AO2 SLP109 T01671072,0,12.0,1,16090,0,0,0,
2026-04-10 16:31:00,SPECI KASE 101631Z 17013G19KT 10SM FEW100 17/M07 A3015 RMK AO2 T01671072,0,13.0,1,16090,0,0,0,
2026-04-10 15:53:00,METAR KASE 101553Z 36006KT 10SM CLR 13/M03 A3015 RMK AO2 SLP116 T01331033,0,6.0,0,16090,0,0,0,
2026-04-10 14:53:00,METAR KASE 101453Z 36004KT 10SM CLR 10/M03 A3017 RMK AO2 SLP127 T01001028 52003,0,4.0,0,16090,0,0,0,
2026-04-10 13:53:00,METAR KASE 101353Z 19003KT 10SM CLR 09/M06 A3017 RMK AO2 SLP125 T00891056,0,3.0,0,16090,0,0,0,
2026-04-10 12:53:00,METAR KASE 101253Z 21009KT 10SM FEW110 04/M05 A3016 RMK AO2 SLP127 T00441050,0,9.0,0,16090,0,0,0,
2026-04-10 11:53:00,METAR KASE 101153Z AUTO 21008KT 10SM CLR 06/M06 A3016 RMK AO2 SLP121 T00561056 10072 20022 55000,0,8.0,0,16090,0,0,0,
2026-04-10 10:53:00,METAR KASE 101053Z AUTO 22008KT 10SM CLR 04/M04 A3015 RMK AO2 SLP126 T00441044,0,8.0,0,16090,0,0,0,
2026-04-10 09:53:00,METAR KASE 100953Z AUTO 20006KT 10SM CLR 03/M04 A3015 RMK AO2 SLP123 T00331039,0,6.0,0,16090,0,0,0,
2026-04-10 08:53:00,METAR KASE 100853Z AUTO 15003KT 10SM CLR 04/M04 A3016 RMK AO2 SLP131 T00391039 56001,0,3.0,0,16090,0,0,0,
2026-04-10 07:53:00,METAR KASE 100753Z AUTO VRB03KT 10SM SCT100 06/M04 A3016 RMK AO2 SLP125 T00561039,0,3.0,0,16090,0,0,0,
2026-04-10 06:53:00,METAR KASE 100653Z AUTO 21007KT 10SM CLR 07/M04 A3016 RMK AO2 SLP131 T00671044 401780033,0,7.0,0,16090,0,0,0,
2026-04-10 05:53:00,METAR KASE 100553Z AUTO 20008KT 10SM SCT110 07/M04 A3017 RMK AO2 SLP124 60000 T00721044 10167 20067 51009,0,8.0,0,16090,0,0,0,
2026-04-10 04:53:00,METAR KASE 100453Z AUTO 20007KT 10SM OVC120 09/M04 A3016 RMK AO2 SLP121 T00891044,0,7.0,0,16090,0,0,0,
2026-04-10 03:53:00,METAR KASE 100353Z AUTO 17007KT 10SM SCT110 10/M04 A3015 RMK AO2 SLP113 T01001044,0,7.0,0,16090,0,0,0,
2026-04-10 02:53:00,METAR KASE 100253Z AUTO 15008KT 10SM BKN100 11/M04 A3013 RMK AO2 SLP113 60000 T01111039 53006,0,8.0,0,16090,0,0,0,
2026-04-10 01:53:00,METAR KASE 100153Z AUTO 29004KT 10SM FEW044 FEW070 BKN100 13/M04 A3012 RMK AO2 PK WND 25043/0122 WSHFT 0117 RAB24E39 SLP111 P0000 T01281044,0,4.0,0,16090,0,0,0,RA
2026-04-10 01:37:00,SPECI KASE 100137Z VRB06G25KT 10SM -RA FEW047 SCT075 OVC100 13/M06 A3013 RMK AO2 PK WND 25043/0122 WSHFT 0117 RAB24 P0000 T01331056,0,6.0,1,16090,0,0,0,-RA
2026-04-10 00:53:00,METAR KASE 100053Z VRB04KT 10SM BKN100 15/M07 A3010 RMK AO2 SLP105 T01501072,0,4.0,0,16090,0,0,0,
2026-04-09 23:53:00,METAR KASE 092353Z 19007G19KT 10SM CLR 17/M06 A3011 RMK AO2 PK WND 28029/2258 SLP105 60000 T01671056 10178 20111 56003,0,7.0,1,16090,0,0,0,
2026-04-09 22:53:00,METAR KASE 092253Z VRB04G24KT 10SM CLR 16/M06 A3012 RMK AO2 PK WND 27029/2227 SLP108 T01561061,0,4.0,1,16090,0,0,0,
2026-04-09 21:53:00,METAR KASE 092153Z 24011G21KT 200V270 10SM CLR 17/M06 A3011 RMK AO2 PK WND 27026/2137 SLP098 T01721056,0,11.0,1,16090,0,0,0,
2026-04-09 20:53:00,METAR KASE 092053Z 27007G19KT 10SM BKN095 OVC110 15/M05 A3012 RMK AO2 SLP109 60000 T01501050 58003,0,7.0,1,16090,0,0,0,
2026-04-09 19:53:00,METAR KASE 091953Z 03003KT 10SM FEW090 15/M03 A3012 RMK AO2 SLP109 T01501033,0,3.0,0,16090,0,0,0,
2026-04-09 19:28:00,SPECI KASE 091928Z VRB03KT 10SM SCT100 14/M02 A3014 RMK AO2 T01391022,0,3.0,0,16090,0,0,0,
2026-04-09 18:53:00,METAR KASE 091853Z 13006G12KT 10SM FEW040 SCT075 BKN110 12/M01 A3015 RMK AO2 PK WND 18031/1822 RAB17E51 SLP134 P0000 T01221006,0,6.0,1,16090,0,0,0,RA
2026-04-09 18:20:00,SPECI KASE 091820Z 22011G19KT 160V240 10SM -RA BKN085 OVC110 13/M04 A3015 RMK AO2 RAB17 P0000 T01331039,0,11.0,1,16090,0,0,0,-RA
2026-04-09 17:53:00,METAR KASE 091753Z 01005KT 10SM BKN110 15/M06 A3013 RMK AO2 SLP114 T01501056 10156 20033 58003,0,5.0,0,16090,0,0,0,
2026-04-09 16:53:00,METAR KASE 091653Z COR 36010KT 10SM BKN095 BKN120 13/M06 A3015 RMK AO2 SLP123 T01331056,0,10.0,0,16090,0,0,0,
2026-04-09 16:17:00,SPECI KASE 091617Z 36010G15KT 10SM BKN100 15/M06 A3014 RMK AO2 T01501056,0,10.0,1,16090,0,0,0,
2026-04-09 15:53:00,METAR KASE 091553Z VRB04KT 10SM CLR 14/M05 A3014 RMK AO2 SLP116 T01391050,0,4.0,0,16090,0,0,0,
2026-04-09 14:53:00,METAR KASE 091453Z 13007KT 10SM CLR 10/M04 A3014 RMK AO2 SLP125 T01001044 50002,0,7.0,0,16090,0,0,0,
2026-04-09 13:53:00,METAR KASE 091353Z 19006KT 10SM SCT090 07/M04 A3015 RMK AO2 SLP127 T00671039,0,6.0,0,16090,0,0,0,
2026-04-09 12:53:00,METAR KASE 091253Z AUTO 21007KT 10SM SCT060 BKN090 OVC110 05/M04 A3015 RMK AO2 SLP122 T00501044,0,7.0,0,16090,0,0,0,
2026-04-09 11:53:00,METAR KASE 091153Z AUTO 21007KT 10SM BKN110 04/M04 A3013 RMK AO2 SLP118 T00391044 10100 20039 51006,0,7.0,0,16090,0,0,0,
2026-04-09 10:53:00,METAR KASE 091053Z AUTO 22007KT 10SM BKN095 07/M04 A3012 RMK AO2 SLP103 T00671044,0,7.0,0,16090,0,0,0,
2026-04-09 09:53:00,METAR KASE 090953Z AUTO 00000KT 10SM SCT090 06/M05 A3012 RMK AO2 SLP103 T00611050,0,0.0,0,16090,0,0,0,
2026-04-09 08:53:00,METAR KASE 090853Z AUTO 00000KT 10SM BKN100 OVC120 06/M06 A3011 RMK AO2 SLP101 T00611056 58002,0,0.0,0,16090,0,0,0,
2026-04-09 07:53:00,METAR KASE 090753Z AUTO VRB05KT 10SM BKN110 06/M06 A3012 RMK AO2 SLP109 T00611061,0,5.0,0,16090,0,0,0,
2026-04-09 06:53:00,METAR KASE 090653Z AUTO 21007KT 10SM OVC120 04/M06 A3012 RMK AO2 SLP114 T00441056 401781017,0,7.0,0,16090,0,0,0,
2026-04-09 05:53:00,METAR KASE 090553Z AUTO 19006KT 10SM SCT120 06/M06 A3012 RMK AO2 SLP110 T00561056 10167 20050 50003,0,6.0,0,16090,0,0,0,
2026-04-09 04:53:00,METAR KASE 090453Z AUTO 21009KT 10SM SCT120 06/M05 A3012 RMK AO2 SLP113 T00611050,0,9.0,0,16090,0,0,0,
2026-04-09 03:53:00,METAR KASE 090353Z AUTO 20007KT 10SM FEW110 07/M05 A3012 RMK AO2 SLP117 T00671050,0,7.0,0,16090,0,0,0,
2026-04-09 02:53:00,METAR KASE 090253Z AUTO 19007KT 10SM CLR 08/M05 A3011 RMK AO2 SLP121 T00831050 53015,0,7.0,0,16090,0,0,0,
2026-04-09 01:53:00,METAR KASE 090153Z AUTO 23006KT 10SM FEW110 12/M06 A3008 RMK AO2 SLP110 T01171061,0,6.0,0,16090,0,0,0,
2026-04-09 00:53:00,METAR KASE 090053Z 35010KT 10SM SCT120 15/M08 A3006 RMK AO2 SLP107 T01501078,0,10.0,0,16090,0,0,0,
2026-04-08 23:53:00,METAR KASE 082353Z 35007G12KT 10SM CLR 16/M11 A3005 RMK AO2 PK WND 34026/2320 SLP101 T01611111 10178 20144 56003,0,7.0,1,16090,0,0,0,
2026-04-08 22:53:00,METAR KASE 082253Z 28012G21KT 230V300 10SM FEW110 17/M11 A3005 RMK AO2 SLP095 T01721111,0,12.0,1,16090,0,0,0,
2026-04-08 21:53:00,METAR KASE 082153Z 25009G20KT 190V270 10SM BKN110 18/M09 A3006 RMK AO2 SLP093 T01781089,0,9.0,1,16090,0,0,0,
2026-04-08 20:53:00,METAR KASE 082053Z 29008G23KT 230V350 10SM CLR 17/M09 A3006 RMK AO2 SLP095 T01671089 55005,0,8.0,1,16090,0,0,0,
2026-04-08 19:53:00,METAR KASE 081953Z 36016G23KT 10SM BKN100 16/M08 A3006 RMK AO2 SLP095 T01561078,0,16.0,1,16090,0,0,0,
2026-04-08 18:53:00,METAR KASE 081853Z 36013G26KT 10SM FEW100 15/M08 A3007 RMK AO2 PK WND 02026/1827 SLP097 T01501078,0,13.0,1,16090,0,0,0,
2026-04-08 17:53:00,METAR KASE 081753Z 36014G21KT 10SM CLR 16/M07 A3008 RMK AO2 SLP098 T01561072 10156 21017 58011,0,14.0,1,16090,0,0,0,
2026-04-08 16:53:00,METAR KASE 081653Z 36011KT 10SM CLR 14/M07 A3010 RMK AO2 SLP107 T01391072,0,11.0,0,16090,0,0,0,
2026-04-08 15:53:00,METAR KASE 081553Z 02008KT 10SM CLR 12/M07 A3010 RMK AO2 SLP110 T01221067,0,8.0,0,16090,0,0,0,
2026-04-08 14:53:00,METAR KASE 081453Z 14003KT 10SM CLR 07/M06 A3012 RMK AO2 SLP135 T00671056 50007,0,3.0,0,16090,0,0,0,
2026-04-08 13:53:00,METAR KASE 081353Z 16003KT 10SM CLR 03/M05 A3012 RMK AO2 SLP136 T00331050,0,3.0,0,16090,0,0,0,
2026-04-08 12:53:00,METAR KASE 081253Z 19004KT 10SM CLR M01/M06 A3010 RMK AO2 SLP130 T10061061,0,4.0,0,16090,0,0,0,
2026-04-08 11:53:00,METAR KASE 081153Z AUTO 20006KT 10SM CLR M01/M06 A3009 RMK AO2 SLP122 T10061061 10050 21006 53004,0,6.0,0,16090,0,0,0,
2026-04-08 10:53:00,METAR KASE 081053Z AUTO 20006KT 10SM CLR 01/M06 A3008 RMK AO2 SLP123 T00061056,0,6.0,0,16090,0,0,0,
2026-04-08 09:53:00,METAR KASE 080953Z AUTO 20004KT 10SM CLR 01/M06 A3008 RMK AO2 SLP121 T00061056,0,4.0,0,16090,0,0,0,
2026-04-08 08:53:00,METAR KASE 080853Z AUTO 20007KT 10SM CLR 02/M06 A3007 RMK AO2 SLP120 T00171056 58002,0,7.0,0,16090,0,0,0,
2026-04-08 07:53:00,METAR KASE 080753Z AUTO 19005KT 10SM FEW090 03/M05 A3007 RMK AO2 SLP114 T00331050,0,5.0,0,16090,0,0,0,
2026-04-08 06:53:00,METAR KASE 080653Z AUTO 19005KT 10SM OVC110 04/M04 A3008 RMK AO2 SLP117 T00391044 401440006,0,5.0,0,16090,0,0,0,
2026-04-08 05:53:00,METAR KASE 080553Z AUTO 19004KT 10SM OVC095 04/M04 A3008 RMK AO2 SLP103 T00441044 10139 20033 51007,0,4.0,0,16090,0,0,0,
2026-04-08 04:53:00,METAR KASE 080453Z AUTO 21008KT 10SM OVC100 04/M04 A3008 RMK AO2 SLP104 T00441044,0,8.0,0,16090,0,0,0,
2026-04-08 03:53:00,METAR KASE 080353Z AUTO 19005KT 10SM BKN100 07/M05 A3007 RMK AO2 SLP104 T00671050,0,5.0,0,16090,0,0,0,
2026-04-08 02:53:00,METAR KASE 080253Z AUTO 20005KT 10SM CLR 06/M04 A3005 RMK AO2 SLP112 T00561044 53009,0,5.0,0,16090,0,0,0,
2026-04-08 01:53:00,METAR KASE 080153Z AUTO 20004KT 10SM BKN120 08/M05 A3003 RMK AO2 SLP104 T00831050,0,4.0,0,16090,0,0,0,
2026-04-08 00:53:00,METAR KASE 080053Z 32006KT 10SM FEW090 SCT120 13/M07 A3002 RMK AO2 SLP094 T01281072,0,6.0,0,16090,0,0,0,
2026-04-07 23:53:00,METAR KASE 072353Z 11006KT 10SM FEW085 13/M03 A3002 RMK AO2 SLP090 60000 T01331028 10144 20094 56016,0,6.0,0,16090,0,0,0,
2026-04-07 22:53:00,METAR KASE 072253Z 15010KT 10SM FEW090 SCT110 12/M02 A3003 RMK AO2 PK WND 13026/2155 SLP100 T01171022,0,10.0,0,16090,0,0,0,
2026-04-07 21:53:00,METAR KASE 072153Z 15019G27KT 10SM BKN090 11/M02 A3005 RMK AO2 PK WND 15027/2153 SLP108 T01111022,0,19.0,1,16090,0,0,0,
2026-04-07 20:53:00,METAR KASE 072053Z 17010KT 10SM BKN060 OVC075 11/M02 A3008 RMK AO2 WSHFT 1951 SLP118 60000 T01061022 58001,0,10.0,0,16090,0,0,0,
2026-04-07 20:11:00,SPECI KASE 072011Z 13015G23KT 10SM SCT080 BKN100 11/M02 A3007 RMK AO2 WSHFT 1951 T01061017,0,15.0,1,16090,0,0,0,
2026-04-07 19:53:00,METAR KASE 071953Z 20012G18KT 10SM FEW080 BKN100 11/M02 A3008 RMK AO2 RAE15 SLP116 P0000 T01111022,0,12.0,1,16090,0,0,0,
2026-04-07 18:53:00,METAR KASE 071853Z 33011G23KT 10SM -RA FEW027 BKN070 OVC095 11/M06 A3009 RMK AO2 PK WND 32032/1846 RAB32 SLP122 P0000 T01061061,0,11.0,1,16090,0,0,0,-RA
2026-04-07 18:12:00,SPECI KASE 071812Z 35009G18KT 330V050 10SM SCT075 BKN100 13/M06 A3008 RMK AO2 T01281056,0,9.0,1,16090,0,0,0,
2026-04-07 17:53:00,METAR KASE 071753Z VRB05KT 10SM BKN080 BKN095 14/M05 A3008 RMK AO2 SLP107 T01391050 10139 20006 58013,0,5.0,0,16090,0,0,0,
2026-04-07 16:53:00,METAR KASE 071653Z 04006KT 10SM SCT090 13/M05 A3011 RMK AO2 SLP111 T01331050,0,6.0,0,16090,0,0,0,
2026-04-07 15:53:00,METAR KASE 071553Z 00000KT 10SM BKN090 11/M06 A3012 RMK AO2 SLP115 T01061061,0,0.0,0,16090,0,0,0,
2026-04-07 14:53:00,METAR KASE 071453Z 21005KT 10SM BKN075 BKN090 06/M05 A3013 RMK AO2 SLP130 T00611050 50002,0,5.0,0,16090,0,0,0,
2026-04-07 13:53:00,METAR KASE 071353Z 21005KT 10SM SCT090 03/M05 A3013 RMK AO2 SLP140 T00331050,0,5.0,0,16090,0,0,0,
2026-04-07 12:53:00,METAR KASE 071253Z 19004KT 10SM BKN090 BKN100 01/M05 A3013 RMK AO2 SLP134 T00111050,0,4.0,0,16090,0,0,0,
2026-04-07 11:53:00,METAR KASE 071153Z 19005KT 10SM CLR 02/M05 A3012 RMK AO2 SLP121 T00221050 10044 20011 53002,0,5.0,0,16090,0,0,0,
2026-04-07 10:53:00,METAR KASE 071053Z 19004KT 10SM SCT120 02/M06 A3012 RMK AO2 SLP119 T00171056,0,4.0,0,16090,0,0,0,
2026-04-07 09:53:00,METAR KASE 070953Z 20005KT 10SM FEW090 02/M06 A3011 RMK AO2 SLP118 T00221061,0,5.0,0,16090,0,0,0,
2026-04-07 08:53:00,METAR KASE 070853Z 21006KT 10SM SCT100 02/M07 A3012 RMK AO2 SLP116 T00221067 58001,0,6.0,0,16090,0,0,0,
2026-04-07 07:53:00,METAR KASE 070753Z 21005KT 10SM BKN100 03/M07 A3013 RMK AO2 SLP120 T00281067,0,5.0,0,16090,0,0,0,
2026-04-07 06:53:00,METAR KASE 070653Z 21006KT 10SM CLR 02/M06 A3013 RMK AO2 SLP123 T00221061 401721028,0,6.0,0,16090,0,0,0,
2026-04-07 05:53:00,METAR KASE 070553Z 21009KT 10SM CLR 04/M06 A3012 RMK AO2 SLP117 T00391061 10156 20039 50001,0,9.0,0,16090,0,0,0,
2026-04-07 04:53:00,METAR KASE 070453Z 21009KT 10SM CLR 06/M06 A3013 RMK AO2 SLP119 T00561061,0,9.0,0,16090,0,0,0,
2026-04-07 03:53:00,METAR KASE 070353Z 21007KT 10SM BKN100 08/M06 A3013 RMK AO2 SLP126 T00781061,0,7.0,0,16090,0,0,0,
2026-04-07 02:53:00,METAR KASE 070253Z 15007KT 10SM SCT110 09/M07 A3012 RMK AO2 SLP125 T00941067 53005,0,7.0,0,16090,0,0,0,
2026-04-07 01:53:00,METAR KASE 070153Z 20006KT 10SM FEW120 09/M06 A3010 RMK AO2 SLP139 T00891056,0,6.0,0,16090,0,0,0,
2026-04-07 00:53:00,METAR KASE 070053Z 22005KT 10SM BKN110 13/M09 A3010 RMK AO2 SLP128 T01331089,0,5.0,0,16090,0,0,0,
2026-04-06 23:53:00,METAR KASE 062353Z 34007G19KT 10SM BKN120 15/M12 A3010 RMK AO2 SLP129 T01501122 10172 20144 56012,0,7.0,1,16090,0,0,0,
2026-04-06 22:53:00,METAR KASE 062253Z 27005G14KT 10SM FEW110 16/M12 A3011 RMK AO2 SLP125 T01561117,0,5.0,1,16090,0,0,0,
2026-04-06 21:53:00,METAR KASE 062153Z 24008G18KT 10SM BKN110 16/M10 A3013 RMK AO2 SLP124 T01561100,0,8.0,1,16090,0,0,0,
2026-04-06 20:53:00,METAR KASE 062053Z 21008G19KT 10SM BKN110 16/M11 A3015 RMK AO2 SLP132 T01611111 56022,0,8.0,1,16090,0,0,0,
2026-04-06 19:53:00,METAR KASE 061953Z 21013G24KT 10SM CLR 16/M11 A3017 RMK AO2 SLP136 T01611111,0,13.0,1,16090,0,0,0,
2026-04-06 18:53:00,METAR KASE 061853Z 22012G20KT 10SM CLR 16/M11 A3020 RMK AO2 SLP146 T01561106,0,12.0,1,16090,0,0,0,
2026-04-06 17:53:00,METAR KASE 061753Z 27008G21KT 10SM CLR 15/M11 A3023 RMK AO2 SLP157 T01501111 10150 21028 58019,0,8.0,1,16090,0,0,0,
2026-04-06 16:53:00,METAR KASE 061653Z 36007KT 10SM CLR 13/M09 A3025 RMK AO2 SLP173 T01281094,0,7.0,0,16090,0,0,0,
2026-04-06 15:53:00,METAR KASE 061553Z VRB03KT 10SM CLR 09/M08 A3028 RMK AO2 SLP193 T00891083,0,3.0,0,16090,0,0,0,
2026-04-06 14:53:00,METAR KASE 061453Z 36003KT 10SM CLR 06/M10 A3030 RMK AO2 SLP202 T00561100 56002,0,3.0,0,16090,0,0,0,
2026-04-06 13:53:00,METAR KASE 061353Z 33003KT 10SM CLR 00/M08 A3030 RMK AO2 SLP208 T00001083,0,3.0,0,16090,0,0,0,
2026-04-06 12:53:00,METAR KASE 061253Z 20006KT 10SM CLR M02/M09 A3030 RMK AO2 SLP207 T10171089,0,6.0,0,16090,0,0,0,
2026-04-06 11:53:00,METAR KASE 061153Z AUTO 19006KT 10SM CLR M03/M08 A3030 RMK AO2 SLP202 T10281083 10022 21028 55005,0,6.0,0,16090,0,0,0,
2026-04-06 10:53:00,METAR KASE 061053Z AUTO 20005KT 10SM CLR M01/M08 A3030 RMK AO2 SLP195 T10111078,0,5.0,0,16090,0,0,0,
2026-04-06 09:53:00,METAR KASE 060953Z AUTO 19004KT 10SM CLR 01/M08 A3031 RMK AO2 SLP195 T00061083,0,4.0,0,16090,0,0,0,
2026-04-06 08:53:00,METAR KASE 060853Z AUTO 20005KT 10SM CLR 01/M08 A3032 RMK AO2 SLP199 T00061083 58004,0,5.0,0,16090,0,0,0,
2026-04-06 07:53:00,METAR KASE 060753Z AUTO 21008KT 10SM CLR 01/M08 A3033 RMK AO2 SLP207 T00111083,0,8.0,0,16090,0,0,0,
2026-04-06 06:53:00,METAR KASE 060653Z AUTO 20006KT 10SM CLR 02/M08 A3034 RMK AO2 SLP209 T00171078 401561056,0,6.0,0,16090,0,0,0,
2026-04-06 05:53:00,METAR KASE 060553Z AUTO 21007KT 10SM CLR 02/M08 A3034 RMK AO2 SLP214 T00221078 10150 20017 50002,0,7.0,0,16090,0,0,0,
2026-04-06 04:53:00,METAR KASE 060453Z AUTO 21008KT 10SM CLR 02/M08 A3034 RMK AO2 SLP221 T00221078,0,8.0,0,16090,0,0,0,
2026-04-06 03:53:00,METAR KASE 060353Z AUTO 21010KT 10SM CLR 03/M08 A3034 RMK AO2 SLP229 T00331078,0,10.0,0,16090,0,0,0,
2026-04-06 02:53:00,METAR KASE 060253Z AUTO 20009KT 10SM CLR 06/M08 A3033 RMK AO2 SLP225 T00561083 53013,0,9.0,0,16090,0,0,0,
2026-04-06 01:53:00,METAR KASE 060153Z AUTO 21006KT 10SM CLR 10/M11 A3030 RMK AO2 SLP211 T01001106,0,6.0,0,16090,0,0,0,
2026-04-06 00:53:00,METAR KASE 060053Z 33005KT 10SM CLR 11/M07 A3029 RMK AO2 SLP215 T01111067,0,5.0,0,16090,0,0,0,
2026-04-05 23:53:00,METAR KASE 052353Z 33010G15KT 10SM CLR 15/M12 A3029 RMK AO2 SLP198 T01501122 10156 20100 55007,0,10.0,1,16090,0,0,0,
2026-04-05 22:53:00,METAR KASE 052253Z 01009G17KT 10SM CLR 16/M10 A3029 RMK AO2 SLP191 T01561100,0,9.0,1,16090,0,0,0,
2026-04-05 21:53:00,METAR KASE 052153Z 34009G16KT 10SM CLR 15/M08 A3029 RMK AO2 SLP194 T01501083,0,9.0,1,16090,0,0,0,
2026-04-05 20:53:00,METAR KASE 052053Z 36009G17KT 330V030 10SM CLR 14/M09 A3031 RMK AO2 SLP204 T01441094 56020,0,9.0,1,16090,0,0,0,
2026-04-05 19:53:00,METAR KASE 051953Z COR 35009KT 10SM CLR 13/M11 A3034 RMK AO2 SLP209 T01331111,0,9.0,0,16090,0,0,0,
2026-04-05 18:53:00,METAR KASE 051853Z 01006KT 10SM CLR 12/M11 A3036 RMK AO2 SLP220 T01221106,0,6.0,0,16090,0,0,0,
2026-04-05 17:53:00,METAR KASE 051753Z VRB05KT 10SM CLR 10/M08 A3039 RMK AO2 SLP237 T01001078 10100 21056 58013,0,5.0,0,16090,0,0,0,
2026-04-05 16:53:00,METAR KASE 051653Z 03005KT 10SM CLR 07/M07 A3041 RMK AO2 SLP254 T00721072,0,5.0,0,16090,0,0,0,
2026-04-05 15:53:00,METAR KASE 051553Z 04003KT 10SM CLR 04/M10 A3042 RMK AO2 SLP263 T00441100,0,3.0,0,16090,0,0,0,
2026-04-05 14:53:00,METAR KASE 051453Z 00000KT 10SM CLR 02/M09 A3043 RMK AO2 SLP272 T00171089 50004,0,0.0,0,16090,0,0,0,
2026-04-05 12:53:00,METAR KASE 051253Z 20005KT 10SM CLR M06/M08 A3043 RMK AO2 SLP278 T10561083,0,5.0,0,16090,0,0,0,
2026-04-05 11:53:00,METAR KASE 051153Z AUTO 00000KT 10SM CLR M04/M08 A3041 RMK AO2 SLP263 T10441078 10006 21050 53001,0,0.0,0,16090,0,0,0,
2026-04-05 10:53:00,METAR KASE 051053Z AUTO 20004KT 10SM CLR M03/M07 A3040 RMK AO2 SLP252 T10281072,0,4.0,0,16090,0,0,0,
2026-04-05 09:53:00,METAR KASE 050953Z AUTO 21006KT 10SM CLR M02/M07 A3040 RMK AO2 SLP252 T10171072,0,6.0,0,16090,0,0,0,
2026-04-05 08:53:00,METAR KASE 050853Z AUTO 22008KT 10SM CLR M02/M07 A3041 RMK AO2 SLP258 T10221067 50001,0,8.0,0,16090,0,0,0,
2026-04-05 07:53:00,METAR KASE 050753Z AUTO 21007KT 10SM CLR M01/M07 A3042 RMK AO2 SLP258 T10061067,0,7.0,0,16090,0,0,0,
2026-04-05 06:53:00,METAR KASE 050653Z AUTO 21005KT 10SM CLR M01/M06 A3041 RMK AO2 SLP263 T10061061 401001067,0,5.0,0,16090,0,0,0,
2026-04-05 05:53:00,METAR KASE 050553Z AUTO 22007KT 10SM CLR 00/M06 A3041 RMK AO2 SLP265 T00001056 10094 21006 50006,0,7.0,0,16090,0,0,0,
2026-04-05 04:53:00,METAR KASE 050453Z AUTO 22008KT 10SM CLR 00/M06 A3041 RMK AO2 SLP266 T00001056,0,8.0,0,16090,0,0,0,
2026-04-05 03:53:00,METAR KASE 050353Z AUTO 21007KT 10SM CLR 01/M05 A3041 RMK AO2 SLP273 T00061050,0,7.0,0,16090,0,0,0,
2026-04-05 02:53:00,METAR KASE 050253Z AUTO 20007KT 10SM CLR 02/M04 A3039 RMK AO2 SLP268 T00221044 53015,0,7.0,0,16090,0,0,0,
2026-04-05 01:53:00,METAR KASE 050153Z AUTO 26007KT 10SM CLR 06/M08 A3036 RMK AO2 SLP258 T00561078,0,7.0,0,16090,0,0,0,
2026-04-05 00:53:00,METAR KASE 050053Z 33005KT 10SM CLR 07/M07 A3034 RMK AO2 SLP251 T00721067,0,5.0,0,16090,0,0,0,
2026-04-04 23:53:00,METAR KASE 042353Z 35008KT 10SM CLR 09/M07 A3034 RMK AO2 SLP241 T00941072 10100 20050 56005,0,8.0,0,16090,0,0,0,
2026-04-04 22:53:00,METAR KASE 042253Z 33009G16KT 10SM CLR 10/M06 A3034 RMK AO2 SLP238 T01001061,0,9.0,1,16090,0,0,0,
2026-04-04 22:23:00,SPECI KASE 042223Z 33006KT 10SM CLR 09/M06 A3034 RMK AO2 T00941061,0,6.0,0,16090,0,0,0,
2026-04-04 22:19:00,SPECI KASE 042219Z 33006G16KT 10SM CLR 10/M06 A3034 RMK AO2 T01001056,0,6.0,1,16090,0,0,0,
2026-04-04 21:53:00,METAR KASE 042153Z VRB06KT 10SM CLR 09/M05 A3034 RMK AO2 SLP242 T00941050,0,6.0,0,16090,0,0,0,
2026-04-04 20:53:00,METAR KASE 042053Z 05006KT 10SM CLR 08/M06 A3036 RMK AO2 SLP252 T00831061 58012,0,6.0,0,16090,0,0,0,
2026-04-04 19:53:00,METAR KASE 041953Z 36007KT 10SM CLR 08/M07 A3038 RMK AO2 SLP259 T00781067,0,7.0,0,16090,0,0,0,
2026-04-04 18:53:00,METAR KASE 041853Z 06008KT 10SM CLR 06/M08 A3039 RMK AO2 SLP263 T00611078,0,8.0,0,16090,0,0,0,
2026-04-04 17:53:00,METAR KASE 041753Z 34006KT 10SM CLR 04/M08 A3040 RMK AO2 SLP274 T00441083 10050 21067 56007,0,6.0,0,16090,0,0,0,
2026-04-04 16:53:00,METAR KASE 041653Z VRB04KT 10SM CLR 04/M08 A3041 RMK AO2 SLP278 T00391083,0,4.0,0,16090,0,0,0,
2026-04-04 15:53:00,METAR KASE 041553Z 16004KT 10SM CLR 02/M08 A3041 RMK AO2 SLP283 T00171083,0,4.0,0,16090,0,0,0,
2026-04-04 14:53:00,METAR KASE 041453Z 14005KT 10SM CLR M01/M09 A3042 RMK AO2 SLP294 T10111089 50003,0,5.0,0,16090,0,0,0,
2026-04-04 13:53:00,METAR KASE 041353Z 16006KT 10SM CLR M04/M10 A3043 RMK AO2 SLP300 T10441100,0,6.0,0,16090,0,0,0,
2026-04-04 12:53:00,METAR KASE 041253Z 22007KT 10SM FEW050 M07/M10 A3042 RMK AO2 SLP305 T10671100,0,7.0,0,16090,0,0,0,
2026-04-04 11:53:00,METAR KASE 041153Z AUTO 21006KT 10SM CLR M07/M10 A3041 RMK AO2 SLP299 T10671100 11044 21067 53004,0,6.0,0,16090,0,0,0,
2026-04-04 10:53:00,METAR KASE 041053Z AUTO 21005KT 10SM CLR M06/M09 A3040 RMK AO2 SLP295 T10611094,0,5.0,0,16090,0,0,0,
2026-04-04 09:53:00,METAR KASE 040953Z AUTO VRB04KT 10SM CLR M06/M09 A3040 RMK AO2 SLP291 T10611094,0,4.0,0,16090,0,0,0,
2026-04-04 08:53:00,METAR KASE 040853Z AUTO 22009KT 10SM CLR M06/M09 A3040 RMK AO2 SLP293 T10611094 50003,0,9.0,0,16090,0,0,0,
2026-04-04 07:53:00,METAR KASE 040753Z AUTO 22004KT 10SM CLR M06/M09 A3040 RMK AO2 SLP291 T10561089,0,4.0,0,16090,0,0,0,
2026-04-04 06:53:00,METAR KASE 040653Z AUTO 20004KT 10SM BKN050 M04/M09 A3040 RMK AO2 SLP291 T10441089 400171083,0,4.0,0,16090,0,0,0,
2026-04-04 05:53:00,METAR KASE 040553Z AUTO 20005KT 10SM CLR M04/M09 A3039 RMK AO2 SLP294 T10441089 10006 21050 51015,0,5.0,0,16090,0,0,0,
2026-04-04 04:53:00,METAR KASE 040453Z AUTO 22006KT 10SM CLR M04/M08 A3037 RMK AO2 SLP288 T10391083,0,6.0,0,16090,0,0,0,
2026-04-04 03:53:00,METAR KASE 040353Z AUTO 18006KT 10SM CLR M03/M07 A3036 RMK AO2 SLP283 T10281072,0,6.0,0,16090,0,0,0,
2026-04-04 02:53:00,METAR KASE 040253Z AUTO 21003KT 10SM CLR M03/M07 A3033 RMK AO2 SLP274 T10281067 51016,0,3.0,0,16090,0,0,0,
2026-04-04 01:53:00,METAR KASE 040153Z AUTO 00000KT 10SM BKN060 00/M08 A3031 RMK AO2 SLP266 T00001078,0,0.0,0,16090,0,0,0,
2026-04-04 00:53:00,METAR KASE 040053Z 34004KT 10SM OVC060 00/M08 A3030 RMK AO2 SLP267 T00001083,0,4.0,0,16090,0,0,0,
2026-04-03 23:53:00,METAR KASE 032353Z 01008KT 10SM OVC060 01/M08 A3028 RMK AO2 SLP249 T00061083 10017 21022 53015,0,8.0,0,16090,0,0,0,
2026-04-03 22:53:00,METAR KASE 032253Z 01008KT 10SM OVC065 01/M08 A3025 RMK AO2 SLP240 T00061078,0,8.0,0,16090,0,0,0,
2026-04-03 21:53:00,METAR KASE 032153Z 34010KT 10SM BKN047 01/M08 A3023 RMK AO2 SLP224 T00111078,0,10.0,0,16090,0,0,0,
2026-04-03 20:53:00,METAR KASE 032053Z COR 01010KT 10SM FEW046 OVC065 01/M08 A3022 RMK AO2 SLP222 T00061083 53011,0,10.0,0,16090,0,0,0,
2026-04-03 19:53:00,METAR KASE 031953Z COR 34010KT 10SM BKN040 01/M08 A3020 RMK AO2 SLP211 T00061078 $,0,10.0,0,16090,0,0,0,
2026-04-03 18:53:00,METAR KASE 031853Z 36010G18KT 10SM FEW034 SCT060 M01/M08 A3019 RMK AO2 SLP212 T10061083 $,0,10.0,1,16090,0,0,0,
2026-04-03 17:53:00,METAR KASE 031753Z COR 01009KT 10SM FEW032 M02/M09 A3018 RMK AO2 SLP211 T10221094 11022 21083 51014 $,0,9.0,0,16090,0,0,0,
2026-04-03 16:53:00,METAR KASE 031653Z 01007KT 10SM FEW026 M03/M08 A3016 RMK AO2 SLP202 T10281078 $,0,7.0,0,16090,0,0,0,
2026-04-03 15:53:00,METAR KASE 031553Z 33008KT 10SM FEW022 SCT028 SCT036 M04/M07 A3014 RMK AO2 SLP192 T10441072 $,0,8.0,0,16090,0,0,0,
2026-04-03 14:53:00,METAR KASE 031453Z VRB03KT 10SM CLR M04/M06 A3013 RMK AO2 SLP165 T10441056 51018 $,0,3.0,0,16090,0,0,0,
2026-04-03 13:53:00,METAR KASE 031353Z 00000KT 10SM SCT028 BKN039 M07/M07 A3011 RMK AO2 SLP161 T10721072,0,0.0,0,16090,0,0,0,
2026-04-03 12:53:00,METAR KASE 031253Z 34003KT 10SM CLR M08/M08 A3008 RMK AO2 SLP152 T10781078,0,3.0,0,16090,0,0,0,
2026-04-03 11:53:00,METAR KASE 031153Z AUTO 00000KT 8SM SCT047 OVC080 M06/M06 A3006 RMK AO2 SNE50 SLP133 P0000 60010 70017 T10611061 11022 21061 50010,0,0.0,0,12872,0,0,0,
2026-04-03 11:41:00,SPECI KASE 031141Z AUTO 19005KT 3SM -SN BR BKN037 OVC070 M06/M06 A3005 RMK AO2 P0000 T10561061,0,5.0,0,4827,0,0,1,"BR,SN"
2026-04-03 11:32:00,SPECI KASE 031132Z AUTO 23003KT 2 1/2SM -SN BR FEW016 OVC031 M06/M06 A3006 RMK AO2 P0000 T10611061,0,3.0,0,4022,0,0,1,"BR,SN"
2026-04-03 08:53:00,METAR KASE 030853Z AUTO 36009KT 1SM -SN BR VV008 M04/M05 A3002 RMK AO2 SLP116 P0002 60008 T10441050 53014,0,9.0,0,1609,0,0,1,"BR,SN"
2026-04-03 08:46:00,SPECI KASE 030846Z AUTO 35010KT 1SM -SN BR VV008 M04/M04 A3002 RMK AO2 P0002 T10441044,0,10.0,0,1609,0,0,1,"BR,SN"
2026-04-03 08:29:00,SPECI KASE 030829Z AUTO 01011KT 3/4SM -SN BR VV007 M04/M04 A3001 RMK AO2 P0002 T10391044,0,11.0,0,1207,0,0,1,"BR,SN"
2026-04-03 08:16:00,SPECI KASE 030816Z AUTO 36010KT 1 1/4SM -SN BR BKN008 OVC014 M04/M04 A3001 RMK AO2 P0002 T10391044,0,10.0,0,2011,0,0,1,"BR,SN"
2026-04-03 08:07:00,SPECI KASE 030807Z AUTO 36011G17KT 3/4SM -SN BR VV007 M03/M04 A3001 RMK AO2 P0002 T10331039,0,11.0,1,1207,0,0,1,"BR,SN"
2026-04-03 06:27:00,SPECI KASE 030627Z AUTO 35009G22KT 1 1/4SM -SN BR OVC008 M03/M04 A2998 RMK AO2 P0001 T10281039,0,9.0,1,2011,0,0,1,"BR,SN"
2026-04-03 05:53:00,METAR KASE 030553Z AUTO 35010G21KT 1/2SM SN FZFG VV005 M02/M03 A2997 RMK AO2 PRESRR SLP098 P0003 60006 T10221033 10122 21022 53031,0,10.0,1,804,0,0,1,"FG,SN"
2026-04-03 05:23:00,SPECI KASE 030523Z AUTO 36011G24KT 3/4SM -SN BR VV005 M02/M03 A2992 RMK AO2 P0002 T10171028,0,11.0,1,1207,0,0,1,"BR,SN"
2026-04-03 04:53:00,METAR KASE 030453Z AUTO 36010G17KT 1/2SM SN FZFG VV004 M01/M01 A2990 RMK AO2 LTG DSNT SW SLP075 P0003 T10061011,0,10.0,1,804,0,0,1,"DS,FG,SN"
2026-04-03 04:50:00,SPECI KASE 030450Z AUTO 36008G18KT 1/2SM SN FZFG VV004 M01/M01 A2990 RMK AO2 LTG DSNT SW P0003,0,8.0,1,804,0,0,1,"DS,FG,SN"
2026-04-03 04:28:00,SPECI KASE 030428Z AUTO 01008G22KT 3/4SM -SN BR BKN008 OVC013 00/M01 A2988 RMK AO2 P0000 T00001011,0,8.0,1,1207,0,0,1,"BR,SN"
2026-04-03 04:23:00,SPECI KASE 030423Z AUTO 36010G19KT 1SM -SN BR BKN011 OVC016 00/M01 A2987 RMK AO2 P0000 T00001006,0,10.0,1,1609,0,0,1,"BR,SN"
2026-04-03 04:15:00,SPECI KASE 030415Z AUTO 01009G20KT 2SM -SN BR FEW008 BKN011 OVC025 01/M01 A2987 RMK AO2 P0000 T00061006,0,9.0,1,3218,0,0,1,"BR,SN"
2026-04-03 04:08:00,SPECI KASE 030408Z AUTO 36012G20KT 3SM -SN BR BKN011 OVC025 01/M01 A2986 RMK AO2 P0000 T00111006,0,12.0,1,4827,0,0,1,"BR,SN"
2026-04-03 03:53:00,METAR KASE 030353Z AUTO 35010G29KT 6SM -SN BR SCT010 BKN025 OVC050 02/M01 A2986 RMK AO2 PK WND 32029/0322 RAB17E45SNB45 SLP063 P0000 T00171006,0,10.0,1,9654,0,0,1,"BR,RA,SN"
2026-04-03 02:53:00,METAR KASE 030253Z AUTO 19009G15KT 10SM BKN055 OVC070 09/M03 A2977 RMK AO2 RAB01E11 SLP012 P0000 60000 T00891028 53010,0,9.0,1,16090,0,0,0,RA
2026-04-03 01:53:00,METAR KASE 030153Z AUTO 24005G18KT 10SM FEW055 BKN075 OVC090 11/M06 A2974 RMK AO2 SLP996 T01061056,0,5.0,1,16090,0,0,0,
2026-04-03 00:53:00,METAR KASE 030053Z 18006G17KT 10SM SCT090 11/M06 A2974 RMK AO2 SLP997 T01111056,0,6.0,1,16090,0,0,0,
2026-04-02 23:53:00,METAR KASE 022353Z 23010G18KT 10SM CLR 12/M07 A2974 RMK AO2 SLP992 T01221067 10139 20089 56005,0,10.0,1,16090,0,0,0,
2026-04-02 22:53:00,METAR KASE 022253Z 26010G20KT 10SM SCT095 13/M07 A2974 RMK AO2 SLP991 T01281072,0,10.0,1,16090,0,0,0,
2026-04-02 21:53:00,METAR KASE 022153Z 18007G21KT 140V210 10SM SCT085 13/M04 A2974 RMK AO2 SLP991 T01331044,0,7.0,1,16090,0,0,0,
2026-04-02 20:53:00,METAR KASE 022053Z COR 14006G20KT 10SM BKN075 BKN090 12/M04 A2975 RMK AO2 SLP999 T01221039 58013,0,6.0,1,16090,0,0,0,
2026-04-02 19:53:00,METAR KASE 021953Z 14012G21KT 10SM FEW080 11/M04 A2977 RMK AO2 PK WND 18026/1854 SLP009 T01111044,0,12.0,1,16090,0,0,0,
2026-04-02 18:53:00,METAR KASE 021853Z 18021G28KT 10SM FEW085 11/M04 A2978 RMK AO2 PK WND 19030/1834 SLP013 T01111039,0,21.0,1,16090,0,0,0,
2026-04-02 18:08:00,SPECI KASE 021808Z COR 16011G19KT 10SM BKN042 11/M03 A2979 RMK AO2 T01061033,0,11.0,1,16090,0,0,0,
2026-04-02 17:53:00,METAR KASE 021753Z VRB04KT 10SM BKN042 09/M02 A2980 RMK AO2 SLP022 60001 T00941022 10094 20017 58016,0,4.0,0,16090,0,0,0,
2026-04-02 16:53:00,METAR KASE 021653Z COR 35006KT 10SM BKN042 07/01 A2983 RMK AO2 SLP039 T00720006,0,6.0,0,16090,0,0,0,
2026-04-02 15:53:00,METAR KASE 021553Z 36004KT 10SM FEW009 SCT070 04/02 A2985 RMK AO2 SLP057 T00390017,0,4.0,0,16090,0,0,0,
2026-04-02 15:00:00,SPECI KASE 021500Z 00000KT 10SM FEW009 SCT070 03/01 A2985 RMK AO2 T00330011,0,0.0,0,16090,0,0,0,
2026-04-02 14:53:00,METAR KASE 021453Z 25003KT 10SM SCT070 03/01 A2986 RMK AO2 SLP064 60001 T00280011 54000,0,3.0,0,16090,0,0,0,
2026-04-02 13:53:00,METAR KASE 021353Z 00000KT 10SM BKN032 BKN060 02/01 A2986 RMK AO2 SLP071 T00220006,0,0.0,0,16090,0,0,0,
2026-04-02 12:53:00,METAR KASE 021253Z 15008KT 10SM BKN028 OVC036 02/01 A2986 RMK AO2 RAE46 SLP056 P0001 T00220006,0,8.0,0,16090,0,0,0,
2026-04-02 12:36:00,SPECI KASE 021236Z AUTO 17007KT 10SM -RA SCT025 OVC037 02/01 A2986 RMK AO2 P0001 T00170006,0,7.0,0,16090,0,0,0,-RA
2026-04-02 12:08:00,SPECI KASE 021208Z AUTO 14003KT 10SM -RA BKN021 OVC034 02/01 A2986 RMK AO2 P0001 T00220011,0,3.0,0,16090,0,0,0,-RA
2026-04-02 12:00:00,SPECI KASE 021200Z AUTO 12005KT 10SM -RA BKN025 OVC034 02/01 A2986 RMK AO2 P0000 T00220011,0,5.0,0,16090,0,0,0,-RA
2026-04-02 11:53:00,METAR KASE 021153Z AUTO 12003KT 10SM -RA BKN031 OVC042 02/01 A2986 RMK AO2 RAB53 SLP057 P0000 60001 70028 T00220006 10028 20017 55001,0,3.0,0,16090,0,0,0,-RA
2026-04-02 10:53:00,METAR KASE 021053Z AUTO 22004KT 10SM FEW050 SCT065 OVC085 02/01 A2985 RMK AO2 SLP054 T00220011,0,4.0,0,16090,0,0,0,
2026-04-02 09:53:00,METAR KASE 020953Z AUTO 18003KT 10SM FEW010 BKN065 OVC080 02/01 A2986 RMK AO2 RAB06E44 SLP053 P0000 T00220011,0,3.0,0,16090,0,0,0,RA
2026-04-02 09:51:00,SPECI KASE 020951Z AUTO 00000KT 10SM FEW010 BKN065 OVC080 02/01 A2986 RMK AO2 RAB06E44 P0000,0,0.0,0,16090,0,0,0,RA
2026-04-02 09:39:00,SPECI KASE 020939Z AUTO 15003KT 10SM -RA FEW006 SCT012 OVC027 02/01 A2987 RMK AO2 RAB06 P0000 T00170011,0,3.0,0,16090,0,0,0,-RA
2026-04-02 08:53:00,METAR KASE 020853Z AUTO 00000KT 10SM FEW005 OVC075 02/01 A2987 RMK AO2 RAB02E34 SLP057 P0001 60001 T00170011 57003,0,0.0,0,16090,0,0,0,RA
2026-04-02 08:50:00,SPECI KASE 020850Z AUTO 24003KT 10SM FEW007 FEW015 OVC080 02/01 A2987 RMK AO2 RAB02E34 P0001,0,3.0,0,16090,0,0,0,RA
2026-04-02 08:41:00,SPECI KASE 020841Z AUTO 00000KT 10SM SCT006 BKN026 OVC080 02/01 A2987 RMK AO2 RAB02E34 P0001 T00170006,0,0.0,0,16090,0,0,0,RA
2026-04-02 08:33:00,SPECI KASE 020833Z AUTO 00000KT 10SM -RA FEW006 BKN016 OVC080 02/01 A2987 RMK AO2 RAB02 P0001 T00170011,0,0.0,0,16090,0,0,0,-RA
2026-04-02 08:11:00,SPECI KASE 020811Z AUTO 00000KT 10SM -RA BKN026 OVC032 02/01 A2988 RMK AO2 RAB02 P0000 T00220011,0,0.0,0,16090,0,0,0,-RA
2026-04-02 08:04:00,SPECI KASE 020804Z AUTO 00000KT 9SM -RA BKN021 BKN027 OVC050 02/01 A2988 RMK AO2 RAB02 P0000 T00220011,0,0.0,0,14481,0,0,0,-RA
2026-04-02 07:53:00,METAR KASE 020753Z AUTO 23005KT 10SM SCT027 SCT034 OVC060 02/01 A2988 RMK AO2 SLP060 T00220011,0,5.0,0,16090,0,0,0,
2026-04-02 07:33:00,SPECI KASE 020733Z AUTO 16003KT 10SM SCT025 OVC065 02/01 A2987 RMK AO2 T00220011,0,3.0,0,16090,0,0,0,
2026-04-02 07:21:00,SPECI KASE 020721Z AUTO 15003KT 10SM BKN025 OVC070 02/01 A2988 RMK AO2 T00220011,0,3.0,0,16090,0,0,0,
2026-04-02 06:53:00,METAR KASE 020653Z AUTO 23003KT 10SM BKN022 BKN028 OVC070 02/01 A2988 RMK AO2 RAB03E14 SLP061 P0000 T00220011 400670006,0,3.0,0,16090,0,0,0,RA
2026-04-02 05:53:00,METAR KASE 020553Z AUTO 00000KT 10SM OVC016 02/01 A2989 RMK AO2 SLP064 60006 T00220011 10050 20006 51018,0,0.0,0,16090,0,0,0,
2026-04-02 04:53:00,METAR KASE 020453Z AUTO 36003KT 10SM FEW005 OVC012 02/01 A2988 RMK AO2 SLP063 T00220011,0,3.0,0,16090,0,0,0,
2026-04-02 04:36:00,SPECI KASE 020436Z AUTO 33003KT 10SM FEW004 OVC014 02/02 A2987 RMK AO2 T00220017,0,3.0,0,16090,0,0,0,
2026-04-02 03:53:00,METAR KASE 020353Z AUTO 13003KT 10SM FEW008 OVC016 02/01 A2984 RMK AO2 RAB03E13 SLP055 P0000 T00220011,0,3.0,0,16090,0,0,0,RA
2026-04-02 03:46:00,SPECI KASE 020346Z AUTO 13003KT 10SM FEW008 OVC016 02/01 A2984 RMK AO2 RAB03E13 P0000 T00220011,0,3.0,0,16090,0,0,0,RA
2026-04-02 03:31:00,SPECI KASE 020331Z AUTO 12003KT 10SM FEW008 BKN012 OVC016 02/01 A2984 RMK AO2 RAB03E13 P0000 T00220011,0,3.0,0,16090,0,0,0,RA
2026-04-02 02:53:00,METAR KASE 020253Z AUTO 00000KT 10SM OVC016 02/01 A2982 RMK AO2 RAB0156E13 SLP047 P0000 60006 T00220011 53019,0,0.0,0,16090,0,0,0,RA
2026-04-02 02:45:00,SPECI KASE 020245Z AUTO 00000KT 10SM OVC016 02/01 A2981 RMK AO2 RAB0156E13 P0000 T00220011,0,0.0,0,16090,0,0,0,RA
2026-04-02 02:00:00,SPECI KASE 020200Z AUTO 26004KT 10SM -RA OVC010 01/01 A2979 RMK AO2 RAB0156 P0000 T00110006,0,4.0,0,16090,0,0,0,"-RA,RA"
2026-04-02 01:53:00,METAR KASE 020153Z AUTO 33005KT 1/2SM FG SCT005 OVC010 01/01 A2980 RMK AO2 RAB03E20UPB50E52SNB20E50 SLP042 P0006 T00110006,0,5.0,0,804,0,0,1,"FG,RA"
2026-04-02 01:33:00,SPECI KASE 020133Z 01008KT 1/2SM SN FG SCT005 OVC010 01/00 A2980 RMK AO2 RAB03E20SNB20 P0005 T00060000,0,8.0,0,804,0,0,1,"FG,RA,SN"
2026-04-02 01:11:00,SPECI KASE 020111Z 34013G22KT 3SM RA BR SCT010 OVC026 04/02 A2978 RMK AO2 RAB03 P0002 T00390017,0,13.0,1,4827,0,0,1,"BR,RA"
2026-04-02 00:53:00,METAR KASE 020053Z 32004KT 10SM SCT017 OVC039 05/01 A2977 RMK AO2 SLP021 T00500011,0,4.0,0,16090,0,0,0,
2026-04-02 00:03:00,SPECI KASE 020003Z 34006KT 10SM SCT017 OVC039 05/02 A2975 RMK AO2 T00500017,0,6.0,0,16090,0,0,0,
2026-04-01 23:53:00,METAR KASE 012353Z 35007KT 10SM FEW040 BKN080 BKN090 05/02 A2975 RMK AO2 RAE06 SLP014 P0000 60003 T00500017 10067 20044 53007,0,7.0,0,16090,0,0,0,
2026-04-01 22:53:00,METAR KASE 012253Z 35013G21KT 10SM -RA SCT019 BKN038 OVC047 05/03 A2974 RMK AO2 RAB29 SLP010 P0000 T00500028,0,13.0,1,16090,0,0,0,-RA
2026-04-01 22:20:00,SPECI KASE 012220Z 36007KT 10SM SCT019 BKN027 OVC033 07/03 A2972 RMK AO2 T00670028,0,7.0,0,16090,0,0,0,
2026-04-01 22:00:00,SPECI KASE 012200Z 00000KT 10SM SCT018 BKN031 OVC043 07/03 A2972 RMK AO2 T00670028,0,0.0,0,16090,0,0,0,
2026-04-01 21:53:00,METAR KASE 012153Z 00000KT 10SM BKN020 OVC043 06/03 A2972 RMK AO2 RAE47 SLP996 P0000 T00610028,0,0.0,0,16090,0,0,0,
2026-04-01 20:53:00,METAR KASE 012053Z VRB03KT 6SM -RA BKN020 OVC050 07/03 A2972 RMK AO2 SLP999 P0001 60003 T00670028 56016,0,3.0,0,9654,0,0,0,-RA
2026-04-01 19:53:00,METAR KASE 011953Z 33004KT 6SM -RA BKN020 OVC050 06/03 A2974 RMK AO2 SLP004 P0001 T00610033,0,4.0,0,9654,0,0,0,-RA
2026-04-01 18:53:00,METAR KASE 011853Z VRB03KT 6SM -RA FEW018 OVC032 06/03 A2976 RMK AO2 SLP006 P0001 T00610033,0,3.0,0,9654,0,0,0,-RA
2026-04-01 17:53:00,METAR KASE 011753Z 17007KT 6SM -RA SCT022 OVC032 06/02 A2978 RMK AO2 RAB20 SLP017 P0001 60018 T00610022 10067 20039 56012,0,7.0,0,9654,0,0,0,-RA
2026-04-01 16:53:00,METAR KASE 011653Z 00000KT 6SM HZ FEW002 OVC035 06/03 A2980 RMK AO2 RAE23 SLP021 P0000 T00560028,0,0.0,0,9654,0,0,0,
2026-04-01 15:53:00,METAR KASE 011553Z 14006KT 6SM -RA BR SCT010 OVC020 04/03 A2981 RMK AO2 SLP028 P0004 T00390028,0,6.0,0,9654,0,0,1,"-RA,BR"
2026-04-01 14:57:00,SPECI KASE 011457Z 13005KT 6SM -RA BR SCT010 OVC020 04/03 A2983 RMK AO2 P0001 T00390028,0,5.0,0,9654,0,0,1,"-RA,BR"
2026-04-01 14:53:00,METAR KASE 011453Z 13006KT 6SM -RA BR SCT015 OVC032 04/03 A2983 RMK AO2 SLP033 P0004 60013 T00390028 56005,0,6.0,0,9654,0,0,1,"-RA,BR"
2026-04-01 13:53:00,METAR KASE 011353Z 15004KT 6SM -RA BR OVC032 04/02 A2983 RMK AO2 SLP033 P0003 T00390022,0,4.0,0,9654,0,0,1,"-RA,BR"
2026-04-01 12:53:00,METAR KASE 011253Z 11004KT 6SM -RA BR OVC028 04/03 A2983 RMK AO2 SLP032 P0006 T00390028,0,4.0,0,9654,0,0,1,"-RA,BR"
2026-04-01 12:10:00,SPECI KASE 011210Z AUTO 00000KT 10SM -RA OVC028 04/03 A2985 RMK AO2 P0001 T00390028,0,0.0,0,16090,0,0,0,-RA
2026-04-01 11:53:00,METAR KASE 011153Z AUTO 15003KT 10SM -RA OVC030 04/03 A2985 RMK AO2 SLP034 P0003 60013 70014 T00390028 10056 20039 58009,0,3.0,0,16090,0,0,0,-RA
2026-04-01 10:53:00,METAR KASE 011053Z AUTO 14005KT 10SM -RA OVC033 04/03 A2986 RMK AO2 SLP035 P0002 T00390028,0,5.0,0,16090,0,0,0,-RA
2026-04-01 09:53:00,METAR KASE 010953Z AUTO 15003KT 10SM -RA OVC032 04/03 A2988 RMK AO2 SLP046 P0004 T00440028,0,3.0,0,16090,0,0,0,-RA
2026-04-01 09:51:00,SPECI KASE 010951Z AUTO 14004KT 10SM -RA OVC032 04/03 A2988 RMK AO2 P0004,0,4.0,0,16090,0,0,0,-RA
2026-04-01 09:30:00,SPECI KASE 010930Z AUTO 13003KT 9SM -RA OVC028 04/03 A2990 RMK AO2 P0003 T00440033,0,3.0,0,14481,0,0,0,-RA
2026-04-01 08:53:00,METAR KASE 010853Z AUTO 16005KT 10SM -RA OVC032 04/03 A2992 RMK AO2 SLP062 P0002 60004 T00440033 58014,0,5.0,0,16090,0,0,0,-RA
2026-04-01 07:53:00,METAR KASE 010753Z AUTO 15004KT 10SM -RA OVC042 05/03 A2994 RMK AO2 SLP053 P0002 T00500033,0,4.0,0,16090,0,0,0,-RA
2026-04-01 06:53:00,METAR KASE 010653Z AUTO 15004KT 10SM -RA OVC041 06/03 A2996 RMK AO2 SLP063 P0000 T00560033 401500028,0,4.0,0,16090,0,0,0,-RA
2026-04-01 05:53:00,METAR KASE 010553Z AUTO 19004KT 10SM -RA OVC040 06/03 A2997 RMK AO2 SLP060 P0001 60001 T00560028 10100 20056 58004,0,4.0,0,16090,0,0,0,-RA
2026-04-01 04:53:00,METAR KASE 010453Z AUTO 19008KT 10SM -RA OVC040 07/02 A2998 RMK AO2 RAB43 SLP064 P0000 T00670022,0,8.0,0,16090,0,0,0,-RA
2026-04-01 03:53:00,METAR KASE 010353Z AUTO 00000KT 10SM FEW065 SCT090 08/00 A2999 RMK AO2 SLP067 T00780000,0,0.0,0,16090,0,0,0,
2026-04-01 02:53:00,METAR KASE 010253Z AUTO VRB04G17KT 10SM FEW075 BKN110 08/00 A2999 RMK AO2 SLP072 T00830000 55002,0,4.0,1,16090,0,0,0,
2026-04-01 01:53:00,METAR KASE 010153Z 11004KT 10SM FEW070 08/01 A2998 RMK AO2 SLP082 T00780011,0,4.0,0,16090,0,0,0,
2026-04-01 00:53:00,METAR KASE 010053Z 18014KT 10SM FEW045 FEW055 BKN070 09/01 A2999 RMK AO2 SLP088 T00890006,0,14.0,0,16090,0,0,0,
2026-03-31 23:53:00,METAR KASE 312353Z 19006KT 10SM FEW043 BKN060 OVC075 10/01 A3000 RMK AO2 RAB06E35 SLP085 P0000 60000 T01000006 10150 20083 56017,0,6.0,0,16090,0,0,0,RA
2026-03-31 22:53:00,METAR KASE 312253Z 17011KT 10SM BKN070 11/M01 A3000 RMK AO2 SLP085 T01111006,0,11.0,0,16090,0,0,0,
2026-03-31 21:53:00,METAR KASE 312153Z 16013G18KT 10SM BKN075 OVC090 09/02 A3003 RMK AO2 RAE31 SLP101 P0000 T00940022,0,13.0,1,16090,0,0,0,
2026-03-31 20:53:00,METAR KASE 312053Z 20008KT 10SM -RA BKN034 BKN045 OVC055 08/03 A3006 RMK AO2 PK WND 32027/2019 RAB07 SLP110 P0000 60000 T00830028 55000,0,8.0,0,16090,0,0,0,-RA
2026-03-31 19:53:00,METAR KASE 311953Z COR 16011G14KT 10SM FEW090 SCT110 13/M02 A3003 RMK AO2 PK WND 20032/1854 LTG DSNT SW SLP079 T01331022,0,11.0,1,16090,0,0,0,DS
2026-03-31 18:53:00,METAR KASE 311853Z 18022G32KT 10SM FEW070 OVC090 12/M03 A3006 RMK AO2 PK WND 17034/1841 SLP096 T01171033,0,22.0,1,16090,0,0,0,
2026-03-31 17:53:00,METAR KASE 311753Z COR 23012G19KT 10SM SCT090 BKN100 14/M06 A3006 RMK AO2 PK WND 19027/1732 SLP086 T01391056 10144 20028 55003,0,12.0,1,16090,0,0,0,
2026-03-31 16:53:00,METAR KASE 311653Z 24009KT 10SM CLR 13/M08 A3005 RMK AO2 SLP085 T01331083,0,9.0,0,16090,0,0,0,
2026-03-31 15:53:00,METAR KASE 311553Z 17011G19KT 10SM CLR 12/M08 A3007 RMK AO2 SLP097 T01221083,0,11.0,1,16090,0,0,0,
2026-03-31 14:53:00,METAR KASE 311453Z 17004KT 10SM CLR 09/M06 A3007 RMK AO2 SLP105 T00891056 50004,0,4.0,0,16090,0,0,0,
2026-03-31 13:53:00,METAR KASE 311353Z 21007KT 10SM CLR 06/M07 A3007 RMK AO2 SLP100 T00611067,0,7.0,0,16090,0,0,0,
2026-03-31 12:53:00,METAR KASE 311253Z 17003KT 10SM CLR 04/M07 A3006 RMK AO2 SLP090 T00391067,0,3.0,0,16090,0,0,0,
2026-03-31 11:53:00,METAR KASE 311153Z AUTO 21004KT 10SM CLR 04/M08 A3005 RMK AO2 SLP086 T00391078 10083 20028 55001,0,4.0,0,16090,0,0,0,
2026-03-31 10:53:00,METAR KASE 311053Z AUTO 21006KT 10SM CLR 03/M08 A3004 RMK AO2 SLP082 T00331083,0,6.0,0,16090,0,0,0,
2026-03-31 09:53:00,METAR KASE 310953Z AUTO 20004KT 10SM CLR 03/M08 A3003 RMK AO2 SLP078 T00331083,0,4.0,0,16090,0,0,0,
2026-03-31 08:53:00,METAR KASE 310853Z AUTO 19005KT 10SM CLR 04/M08 A3006 RMK AO2 SLP082 T00441083 56002,0,5.0,0,16090,0,0,0,
2026-03-31 07:53:00,METAR KASE 310753Z AUTO 22007KT 10SM CLR 06/M09 A3006 RMK AO2 SLP079 T00611089,0,7.0,0,16090,0,0,0,
2026-03-31 06:53:00,METAR KASE 310653Z AUTO 19005KT 10SM CLR 07/M08 A3006 RMK AO2 SLP081 T00721083 401940022,0,5.0,0,16090,0,0,0,
2026-03-31 05:53:00,METAR KASE 310553Z AUTO 18008KT 10SM OVC120 08/M08 A3006 RMK AO2 SLP079 T00781078 10172 20061 50004,0,8.0,0,16090,0,0,0,
2026-03-31 04:53:00,METAR KASE 310453Z AUTO 21004KT 10SM BKN120 08/M08 A3007 RMK AO2 SLP084 T00781083,0,4.0,0,16090,0,0,0,
2026-03-31 03:53:00,METAR KASE 310353Z AUTO 21006KT 10SM CLR 06/M08 A3006 RMK AO2 SLP093 T00611083,0,6.0,0,16090,0,0,0,
2026-03-31 02:53:00,METAR KASE 310253Z AUTO 19006KT 10SM CLR 07/M08 A3005 RMK AO2 SLP095 T00721083 53009,0,6.0,0,16090,0,0,0,
2026-03-31 01:53:00,METAR KASE 310153Z AUTO 22003KT 10SM BKN110 13/M10 A3004 RMK AO2 SLP087 T01281100,0,3.0,0,16090,0,0,0,
2026-03-31 00:53:00,METAR KASE 310053Z 00000KT 10SM BKN110 17/M11 A3002 RMK AO2 SLP075 T01671111,0,0.0,0,16090,0,0,0,
2026-03-30 23:53:00,METAR KASE 302353Z 26009G20KT 10SM FEW120 17/M11 A3002 RMK AO2 SLP071 T01721106 10194 20161 56008,0,9.0,1,16090,0,0,0,
2026-03-30 22:53:00,METAR KASE 302253Z 25005G15KT 10SM BKN110 18/M09 A3002 RMK AO2 SLP072 T01781089,0,5.0,1,16090,0,0,0,
2026-03-30 21:53:00,METAR KASE 302153Z 20004G17KT 10SM BKN110 19/M08 A3003 RMK AO2 SLP067 T01891083,0,4.0,1,16090,0,0,0,
2026-03-30 20:53:00,METAR KASE 302053Z 20013G26KT 10SM BKN110 18/M08 A3005 RMK AO2 PK WND 20026/2046 SLP075 T01831083 58016,0,13.0,1,16090,0,0,0,
2026-03-30 19:53:00,METAR KASE 301953Z 18011G24KT 10SM SCT100 18/M08 A3008 RMK AO2 PK WND 21026/1854 SLP084 T01831078,0,11.0,1,16090,0,0,0,
2026-03-30 18:53:00,METAR KASE 301853Z 21012G21KT 10SM BKN100 17/M09 A3009 RMK AO2 PK WND 22027/1809 SLP094 T01671094,0,12.0,1,16090,0,0,0,
2026-03-30 17:53:00,METAR KASE 301753Z 20010G17KT 10SM CLR 17/M09 A3011 RMK AO2 SLP096 T01721089 10172 20022 56007,0,10.0,1,16090,0,0,0,
2026-03-30 17:19:00,SPECI KASE 301719Z 27012G19KT 240V300 10SM CLR 17/M10 A3011 RMK AO2 T01671100,0,12.0,1,16090,0,0,0,
2026-03-30 16:53:00,METAR KASE 301653Z VRB06KT 10SM CLR 16/M08 A3011 RMK AO2 SLP099 T01611083,0,6.0,0,16090,0,0,0,
2026-03-30 15:53:00,METAR KASE 301553Z 00000KT 10SM CLR 13/M07 A3011 RMK AO2 SLP105 T01331072,0,0.0,0,16090,0,0,0,
2026-03-30 14:53:00,METAR KASE 301453Z 00000KT 10SM CLR 10/M08 A3013 RMK AO2 SLP114 T01001078 50001,0,0.0,0,16090,0,0,0,
2026-03-30 13:53:00,METAR KASE 301353Z VRB04KT 10SM CLR 06/M08 A3014 RMK AO2 SLP131 T00561078,0,4.0,0,16090,0,0,0,
2026-03-30 12:53:00,METAR KASE 301253Z 20007KT 10SM CLR 04/M08 A3013 RMK AO2 SLP115 T00441083,0,7.0,0,16090,0,0,0,
2026-03-30 11:53:00,METAR KASE 301153Z 20005KT 10SM CLR 04/M08 A3013 RMK AO2 SLP110 T00441078 10072 20033 55005,0,5.0,0,16090,0,0,0,
2026-03-30 10:53:00,METAR KASE 301053Z 20006KT 10SM CLR 04/M07 A3013 RMK AO2 SLP110 T00441072,0,6.0,0,16090,0,0,0,
2026-03-30 09:53:00,METAR KASE 300953Z 21008KT 10SM CLR 07/M07 A3013 RMK AO2 SLP105 T00671067,0,8.0,0,16090,0,0,0,
2026-03-30 08:53:00,METAR KASE 300853Z 21004KT 10SM CLR 06/M06 A3015 RMK AO2 SLP111 T00611056 56005,0,4.0,0,16090,0,0,0,
2026-03-30 07:53:00,METAR KASE 300753Z 20006KT 10SM CLR 06/M06 A3015 RMK AO2 SLP116 T00611056,0,6.0,0,16090,0,0,0,
2026-03-30 06:53:00,METAR KASE 300653Z 21008KT 10SM CLR 06/M06 A3015 RMK AO2 SLP115 T00611056 401890011,0,8.0,0,16090,0,0,0,
2026-03-30 05:53:00,METAR KASE 300553Z 21007KT 10SM CLR 07/M06 A3016 RMK AO2 SLP120 T00671056 10172 20061 58001,0,7.0,0,16090,0,0,0,
2026-03-30 04:53:00,METAR KASE 300453Z 17007KT 10SM CLR 08/M05 A3017 RMK AO2 SLP121 T00831050,0,7.0,0,16090,0,0,0,
2026-03-30 03:53:00,METAR KASE 300353Z 21009KT 10SM FEW120 09/M05 A3018 RMK AO2 SLP129 T00891050,0,9.0,0,16090,0,0,0,
2026-03-30 02:53:00,METAR KASE 300253Z 20006KT 10SM FEW110 11/M04 A3017 RMK AO2 SLP134 T01061044 53005,0,6.0,0,16090,0,0,0,
2026-03-30 01:53:00,METAR KASE 300153Z 20004KT 10SM CLR 11/M04 A3015 RMK AO2 SLP140 T01111044,0,4.0,0,16090,0,0,0,
2026-03-30 00:53:00,METAR KASE 300053Z 29006KT 10SM CLR 16/M07 A3015 RMK AO2 SLP133 T01561067,0,6.0,0,16090,0,0,0,
2026-03-29 23:53:00,METAR KASE 292353Z 24007KT 10SM CLR 17/M07 A3015 RMK AO2 SLP120 T01721072 10189 20161 55007,0,7.0,0,16090,0,0,0,
2026-03-29 22:53:00,METAR KASE 292253Z 21007KT 10SM FEW120 17/M07 A3015 RMK AO2 SLP117 T01721072,0,7.0,0,16090,0,0,0,
2026-03-29 21:53:00,METAR KASE 292153Z 26009G13KT 10SM FEW120 17/M07 A3016 RMK AO2 SLP119 T01721072,0,9.0,1,16090,0,0,0,
2026-03-29 20:53:00,METAR KASE 292053Z 28004G12KT 10SM SCT100 18/M07 A3018 RMK AO2 SLP124 T01781072 57013,0,4.0,1,16090,0,0,0,
2026-03-29 20:41:00,SPECI KASE 292041Z 25009G16KT 10SM BKN100 BKN120 18/M06 A3018 RMK AO2 T01831061,0,9.0,1,16090,0,0,0,
2026-03-29 19:53:00,METAR KASE 291953Z 16003KT 10SM SCT100 17/M07 A3020 RMK AO2 SLP128 T01721072,0,3.0,0,16090,0,0,0,
2026-03-29 18:53:00,METAR KASE 291853Z 01010G15KT 10SM SCT095 17/M06 A3020 RMK AO2 SLP134 T01671061,0,10.0,1,16090,0,0,0,
2026-03-29 17:53:00,METAR KASE 291753Z 01012G18KT 10SM CLR 17/M06 A3023 RMK AO2 SLP141 T01671061 10172 20011 58001,0,12.0,1,16090,0,0,0,
2026-03-29 17:13:00,SPECI KASE 291713Z 01011G19KT 10SM CLR 17/M06 A3023 RMK AO2 T01671056,0,11.0,1,16090,0,0,0,
2026-03-29 16:53:00,METAR KASE 291653Z 35004KT 10SM CLR 16/M06 A3023 RMK AO2 SLP140 T01611061,0,4.0,0,16090,0,0,0,
2026-03-29 15:53:00,METAR KASE 291553Z 00000KT 10SM CLR 13/M05 A3023 RMK AO2 SLP149 T01281050,0,0.0,0,16090,0,0,0,
2026-03-29 14:53:00,METAR KASE 291453Z 00000KT 10SM CLR 08/M05 A3023 RMK AO2 SLP155 T00831050 51006,0,0.0,0,16090,0,0,0,
2026-03-29 13:53:00,METAR KASE 291353Z 19005KT 10SM CLR 03/M05 A3023 RMK AO2 SLP168 T00281050,0,5.0,0,16090,0,0,0,
2026-03-29 12:53:00,METAR KASE 291253Z 20006KT 10SM CLR 01/M06 A3021 RMK AO2 SLP153 T00111056,0,6.0,0,16090,0,0,0,
2026-03-29 11:53:00,METAR KASE 291153Z AUTO 21005KT 10SM CLR 04/M06 A3020 RMK AO2 SLP138 T00391061 10078 20022 55004,0,5.0,0,16090,0,0,0,
2026-03-29 10:53:00,METAR KASE 291053Z AUTO 19008KT 10SM CLR 05/M06 A3019 RMK AO2 SLP131 T00501056,0,8.0,0,16090,0,0,0,
2026-03-29 09:53:00,METAR KASE 290953Z AUTO 20008KT 10SM BKN110 06/M06 A3020 RMK AO2 SLP131 T00561056,0,8.0,0,16090,0,0,0,
2026-03-29 08:53:00,METAR KASE 290853Z AUTO 18006KT 10SM SCT100 06/M06 A3022 RMK AO2 SLP134 T00561061 51001,0,6.0,0,16090,0,0,0,
2026-03-29 07:53:00,METAR KASE 290753Z AUTO 21007KT 10SM BKN100 07/M06 A3022 RMK AO2 SLP131 T00671061,0,7.0,0,16090,0,0,0,
2026-03-29 06:53:00,METAR KASE 290653Z AUTO 17006KT 10SM CLR 06/M07 A3022 RMK AO2 SLP134 T00611067 402001006,0,6.0,0,16090,0,0,0,
2026-03-29 05:53:00,METAR KASE 290553Z AUTO 22007KT 10SM CLR 06/M07 A3022 RMK AO2 SLP136 T00611067 10178 20061 51008,0,7.0,0,16090,0,0,0,
2026-03-29 04:53:00,METAR KASE 290453Z AUTO 21008KT 10SM CLR 08/M07 A3021 RMK AO2 SLP133 T00781067,0,8.0,0,16090,0,0,0,
2026-03-29 03:53:00,METAR KASE 290353Z AUTO VRB05KT 10SM CLR 08/M07 A3021 RMK AO2 SLP142 T00831067,0,5.0,0,16090,0,0,0,
2026-03-29 02:53:00,METAR KASE 290253Z AUTO 18007KT 10SM CLR 11/M07 A3019 RMK AO2 SLP141 T01061072 53007,0,7.0,0,16090,0,0,0,
2026-03-29 01:53:00,METAR KASE 290153Z AUTO 23007KT 10SM CLR 12/M07 A3017 RMK AO2 SLP149 T01171072,0,7.0,0,16090,0,0,0,
2026-03-29 00:53:00,METAR KASE 290053Z 25007G16KT 10SM CLR 16/M08 A3016 RMK AO2 SLP138 T01611078,0,7.0,1,16090,0,0,0,
2026-03-28 23:56:00,SPECI KASE 282356Z 25007G16KT 10SM CLR 18/M08 A3016 RMK AO2 T01781078,0,7.0,1,16090,0,0,0,
2026-03-28 23:53:00,METAR KASE 282353Z 10SM CLR 18/M08 A3017 RMK AO2 SLP128 T01781078 10200 20178 56008,0,,0,16090,0,0,0,
2026-03-28 22:53:00,METAR KASE 282253Z 21010G15KT 10SM CLR 18/M11 A3017 RMK AO2 PK WND 21027/2215 SLP130 T01831106,0,10.0,1,16090,0,0,0,
2026-03-28 21:53:00,METAR KASE 282153Z 21011G26KT 10SM CLR 19/M12 A3018 RMK AO2 PK WND 23026/2136 SLP133 T01891117,0,11.0,1,16090,0,0,0,
2026-03-28 20:53:00,METAR KASE 282053Z VRB05G17KT 10SM CLR 19/M11 A3020 RMK AO2 PK WND 22028/2029 SLP133 T01941111 58009,0,5.0,1,16090,0,0,0,
2026-03-28 19:53:00,METAR KASE 281953Z 28007G17KT 250V330 10SM FEW110 20/M09 A3022 RMK AO2 SLP139 T02001094,0,7.0,1,16090,0,0,0,
2026-03-28 18:53:00,METAR KASE 281853Z 21009G22KT 10SM CLR 19/M06 A3023 RMK AO2 WSHFT 1825 SLP135 T01941056,0,9.0,1,16090,0,0,0,
2026-03-28 18:45:00,SPECI KASE 281845Z 24010G17KT 10SM FEW100 19/M06 A3023 RMK AO2 WSHFT 1825 T01941061,0,10.0,1,16090,0,0,0,
2026-03-28 18:31:00,SPECI KASE 281831Z 24010G17KT 10SM SCT100 20/M05 A3022 RMK AO2 T02001050,0,10.0,1,16090,0,0,0,
2026-03-28 18:17:00,SPECI KASE 281817Z 30006KT 10SM FEW100 19/M05 A3022 RMK AO2 T01891050,0,6.0,0,16090,0,0,0,
2026-03-28 17:53:00,METAR KASE 281753Z 36005KT 10SM CLR 18/M06 A3023 RMK AO2 SLP138 T01831056 10189 21006 58020,0,5.0,0,16090,0,0,0,
2026-03-28 16:53:00,METAR KASE 281653Z 01006KT 10SM CLR 16/M05 A3026 RMK AO2 SLP152 T01611050,0,6.0,0,16090,0,0,0,
2026-03-28 15:53:00,METAR KASE 281553Z 00000KT 10SM CLR 12/M05 A3028 RMK AO2 SLP169 T01221050,0,0.0,0,16090,0,0,0,
2026-03-28 14:53:00,METAR KASE 281453Z 13003KT 10SM CLR 08/M06 A3030 RMK AO2 SLP183 T00831061 58000,0,3.0,0,16090,0,0,0,
2026-03-28 13:53:00,METAR KASE 281353Z 13004KT 10SM CLR 02/M06 A3030 RMK AO2 SLP195 T00171061,0,4.0,0,16090,0,0,0,
2026-03-28 12:53:00,METAR KASE 281253Z 21003KT 10SM CLR 00/M07 A3029 RMK AO2 SLP185 T00001067,0,3.0,0,16090,0,0,0,
2026-03-28 11:53:00,METAR KASE 281153Z AUTO 20008KT 10SM CLR 02/M07 A3030 RMK AO2 SLP176 T00171072 10061 20006 56005,0,8.0,0,16090,0,0,0,
2026-03-28 10:53:00,METAR KASE 281053Z AUTO VRB03KT 10SM CLR 02/M07 A3030 RMK AO2 SLP175 T00171072,0,3.0,0,16090,0,0,0,
2026-03-28 09:53:00,METAR KASE 280953Z AUTO 00000KT 10SM CLR 01/M07 A3030 RMK AO2 SLP176 T00111072,0,0.0,0,16090,0,0,0,
2026-03-28 08:53:00,METAR KASE 280853Z AUTO 21005KT 10SM CLR 02/M07 A3031 RMK AO2 SLP179 T00221072 58011,0,5.0,0,16090,0,0,0,
2026-03-28 07:53:00,METAR KASE 280753Z AUTO 22009KT 10SM CLR 03/M07 A3033 RMK AO2 SLP186 T00331072,0,9.0,0,16090,0,0,0,
2026-03-28 06:53:00,METAR KASE 280653Z AUTO 22009KT 10SM CLR 06/M08 A3035 RMK AO2 SLP189 T00561078 402001006,0,9.0,0,16090,0,0,0,
2026-03-28 05:53:00,METAR KASE 280553Z AUTO 22008KT 10SM CLR 06/M08 A3036 RMK AO2 SLP197 T00561078 10183 20056 50005,0,8.0,0,16090,0,0,0,
2026-03-28 04:53:00,METAR KASE 280453Z AUTO 21010KT 10SM CLR 07/M08 A3037 RMK AO2 SLP207 T00671078,0,10.0,0,16090,0,0,0,
2026-03-28 03:53:00,METAR KASE 280353Z AUTO 20008KT 10SM CLR 08/M08 A3036 RMK AO2 SLP208 T00781083,0,8.0,0,16090,0,0,0,
2026-03-28 02:53:00,METAR KASE 280253Z AUTO 21008KT 10SM CLR 09/M08 A3034 RMK AO2 SLP203 T00891083 53016,0,8.0,0,16090,0,0,0,
2026-03-28 01:53:00,METAR KASE 280153Z 02003KT 10SM CLR 13/M13 A3030 RMK AO2 SLP194 T01281133,0,3.0,0,16090,0,0,0,
2026-03-28 00:53:00,METAR KASE 280053Z 34010KT 10SM CLR 17/M13 A3029 RMK AO2 SLP182 T01671128,0,10.0,0,16090,0,0,0,
2026-03-27 23:53:00,METAR KASE 272353Z 35013G19KT 10SM CLR 18/M12 A3028 RMK AO2 SLP169 T01831117 10200 20139 55003,0,13.0,1,16090,0,0,0,
2026-03-27 22:53:00,METAR KASE 272253Z 34009G19KT 10SM CLR 19/M09 A3028 RMK AO2 PK WND 25027/2157 SLP166 T01891094,0,9.0,1,16090,0,0,0,
2026-03-27 21:53:00,METAR KASE 272153Z 24011G23KT 10SM CLR 19/M13 A3029 RMK AO2 SLP167 T01941128,0,11.0,1,16090,0,0,0,
2026-03-27 20:53:00,METAR KASE 272053Z 33007G16KT 10SM CLR 19/M08 A3029 RMK AO2 SLP161 T01891083 56020,0,7.0,1,16090,0,0,0,
2026-03-27 20:32:00,SPECI KASE 272032Z 33007G16KT 10SM CLR 18/M08 A3030 RMK AO2 T01831078,0,7.0,1,16090,0,0,0,
2026-03-27 19:53:00,METAR KASE 271953Z 01005KT 10SM CLR 18/M08 A3031 RMK AO2 SLP170 T01781078,0,5.0,0,16090,0,0,0,
2026-03-27 18:53:00,METAR KASE 271853Z VRB06KT 10SM CLR 16/M06 A3033 RMK AO2 SLP178 T01611061,0,6.0,0,16090,0,0,0,
2026-03-27 17:53:00,METAR KASE 271753Z 32006KT 10SM CLR 14/M05 A3036 RMK AO2 SLP193 T01391050 10144 21006 58013,0,6.0,0,16090,0,0,0,
2026-03-27 16:53:00,METAR KASE 271653Z VRB04KT 10SM CLR 11/M04 A3039 RMK AO2 SLP203 T01111044,0,4.0,0,16090,0,0,0,
2026-03-27 15:53:00,METAR KASE 271553Z VRB04KT 10SM CLR 09/M04 A3040 RMK AO2 SLP207 T00891039,0,4.0,0,16090,0,0,0,
2026-03-25 14:53:00,METAR KASE 251453Z 13005KT 10SM CLR 11/M02 A3032 RMK AO2 SLP176 T01111017 50003,0,5.0,0,16090,0,0,0,
2026-03-25 13:53:00,METAR KASE 251353Z 20007KT 10SM CLR 04/M02 A3033 RMK AO2 SLP192 T00441017,0,7.0,0,16090,0,0,0,
2026-03-25 12:53:00,METAR KASE 251253Z 20007KT 10SM CLR 05/M02 A3032 RMK AO2 SLP174 T00501017,0,7.0,0,16090,0,0,0,
2026-03-25 11:53:00,METAR KASE 251153Z AUTO 20005KT 10SM CLR 04/M02 A3031 RMK AO2 SLP166 T00391017 10094 20039 53002,0,5.0,0,16090,0,0,0,
2026-03-25 10:53:00,METAR KASE 251053Z AUTO 19008KT 10SM CLR 04/M01 A3030 RMK AO2 SLP160 T00441011,0,8.0,0,16090,0,0,0,
2026-03-25 09:53:00,METAR KASE 250953Z AUTO 20006KT 10SM CLR 06/M01 A3030 RMK AO2 SLP152 T00611011,0,6.0,0,16090,0,0,0,
2026-03-25 08:53:00,METAR KASE 250853Z AUTO 19008KT 10SM CLR 07/M01 A3030 RMK AO2 SLP154 T00671011 50001,0,8.0,0,16090,0,0,0,
2026-03-25 07:53:00,METAR KASE 250753Z AUTO 20006KT 10SM FEW090 06/M01 A3031 RMK AO2 SLP159 T00611011,0,6.0,0,16090,0,0,0,
2026-03-25 06:53:00,METAR KASE 250653Z AUTO 20007KT 10SM BKN085 08/M01 A3031 RMK AO2 SLP158 T00781006 402280017,0,7.0,0,16090,0,0,0,
2026-03-25 05:53:00,METAR KASE 250553Z AUTO 21008KT 10SM OVC090 09/M01 A3030 RMK AO2 SLP152 T00941006 10217 20083 51012,0,8.0,0,16090,0,0,0,
2026-03-25 04:53:00,METAR KASE 250453Z AUTO 20008KT 10SM CLR 08/M01 A3028 RMK AO2 SLP154 T00831011,0,8.0,0,16090,0,0,0,
2026-03-25 03:53:00,METAR KASE 250353Z AUTO 21009KT 10SM CLR 10/M01 A3028 RMK AO2 SLP160 T01001006,0,9.0,0,16090,0,0,0,
2026-03-25 02:53:00,METAR KASE 250253Z AUTO 20008KT 10SM CLR 12/M01 A3025 RMK AO2 SLP157 T01171006 53020,0,8.0,0,16090,0,0,0,
2026-03-25 01:53:00,METAR KASE 250153Z AUTO 21006KT 10SM CLR 14/M01 A3022 RMK AO2 SLP155 T01391011,0,6.0,0,16090,0,0,0,
2026-03-25 00:53:00,METAR KASE 250053Z 34005KT 10SM CLR 18/M02 A3020 RMK AO2 SLP135 T01831017,0,5.0,0,16090,0,0,0,
2026-03-24 23:53:00,METAR KASE 242353Z 35009G18KT 10SM CLR 22/M02 A3018 RMK AO2 SLP122 T02171017 10228 20189 58001,0,9.0,1,16090,0,0,0,
2026-03-24 22:53:00,METAR KASE 242253Z 34012G22KT 10SM CLR 22/M02 A3019 RMK AO2 SLP118 T02221017,0,12.0,1,16090,0,0,0,
2026-03-24 21:53:00,METAR KASE 242153Z 36017G28KT 10SM CLR 22/M02 A3019 RMK AO2 PK WND 34028/2144 SLP115 T02221017,0,17.0,1,16090,0,0,0,
2026-03-24 20:53:00,METAR KASE 242053Z 01015G22KT 10SM CLR 22/M01 A3019 RMK AO2 SLP115 T02221011 58014,0,15.0,1,16090,0,0,0,
2026-03-24 19:53:00,METAR KASE 241953Z 36010G20KT 10SM CLR 21/M01 A3021 RMK AO2 SLP125 T02111011,0,10.0,1,16090,0,0,0,
2026-03-24 18:53:00,METAR KASE 241853Z 36013G19KT 10SM CLR 20/M02 A3022 RMK AO2 SLP131 T02001022,0,13.0,1,16090,0,0,0,
2026-03-24 17:53:00,METAR KASE 241753Z 36013G20KT 10SM CLR 19/M02 A3024 RMK AO2 SLP137 T01891022 10194 20017 58003,0,13.0,1,16090,0,0,0,
2026-03-24 16:53:00,METAR KASE 241653Z 01008KT 10SM CLR 18/M03 A3025 RMK AO2 SLP147 T01781028,0,8.0,0,16090,0,0,0,
2026-03-24 15:53:00,METAR KASE 241553Z 00000KT 10SM BKN075 13/M02 A3026 RMK AO2 SLP162 T01281022,0,0.0,0,16090,0,0,0,
2026-03-24 14:53:00,METAR KASE 241453Z 19003KT 10SM CLR 09/M02 A3025 RMK AO2 SLP165 T00891017 50003,0,3.0,0,16090,0,0,0,
2026-03-24 13:53:00,METAR KASE 241353Z 19004KT 10SM CLR 03/M02 A3026 RMK AO2 SLP185 T00331017,0,4.0,0,16090,0,0,0,
2026-03-24 12:53:00,METAR KASE 241253Z 19007KT 10SM CLR 03/M02 A3024 RMK AO2 SLP181 T00281022,0,7.0,0,16090,0,0,0,
2026-03-24 11:53:00,METAR KASE 241153Z AUTO 18006KT 10SM CLR 03/M02 A3023 RMK AO2 SLP174 T00281017 10072 20022 53006,0,6.0,0,16090,0,0,0,
2026-03-24 10:53:00,METAR KASE 241053Z AUTO 16005KT 10SM BKN095 04/00 A3022 RMK AO2 SLP151 T00440000,0,5.0,0,16090,0,0,0,
2026-03-24 09:53:00,METAR KASE 240953Z AUTO 20005KT 10SM OVC095 06/01 A3022 RMK AO2 SLP149 T00560011,0,5.0,0,16090,0,0,0,
2026-03-24 08:53:00,METAR KASE 240853Z AUTO 18003KT 10SM OVC095 06/02 A3021 RMK AO2 SLP143 T00560017 55001,0,3.0,0,16090,0,0,0,
2026-03-24 07:53:00,METAR KASE 240753Z AUTO 00000KT 10SM OVC090 06/02 A3020 RMK AO2 SLP135 T00560022,0,0.0,0,16090,0,0,0,
2026-03-24 06:53:00,METAR KASE 240653Z AUTO 23004KT 10SM OVC095 06/02 A3021 RMK AO2 SLP138 T00610017 401720044,0,4.0,0,16090,0,0,0,
2026-03-24 05:53:00,METAR KASE 240553Z AUTO 18003KT 10SM OVC090 07/02 A3022 RMK AO2 SLP139 60000 T00720022 10106 20061 56003,0,3.0,0,16090,0,0,0,
2026-03-24 04:53:00,METAR KASE 240453Z AUTO 00000KT 10SM OVC095 07/03 A3022 RMK AO2 SLP147 T00670028,0,0.0,0,16090,0,0,0,
2026-03-24 03:53:00,METAR KASE 240353Z AUTO 19004KT 10SM OVC095 07/03 A3022 RMK AO2 SLP152 T00720028,0,4.0,0,16090,0,0,0,
2026-03-24 02:53:00,METAR KASE 240253Z AUTO 20003KT 10SM OVC100 08/03 A3023 RMK AO2 SLP159 60000 T00830028 58004,0,3.0,0,16090,0,0,0,
2026-03-24 01:53:00,METAR KASE 240153Z AUTO 14007G17KT 10SM OVC090 09/03 A3023 RMK AO2 RAE02 SLP164 P0000 T00890028,0,7.0,1,16090,0,0,0,
2026-03-24 00:53:00,METAR KASE 240053Z AUTO 15006KT 10SM -RA SCT035 OVC045 09/04 A3025 RMK AO2 RAB2355 SLP173 P0000 T00890044,0,6.0,0,16090,0,0,0,"-RA,RA"
2026-03-23 23:53:00,METAR KASE 232353Z 24008KT 10SM BKN055 OVC070 11/02 A3024 RMK AO2 SLP167 T01060017 10172 20106 53016,0,8.0,0,16090,0,0,0,
2026-03-23 22:53:00,METAR KASE 232253Z 23010G20KT 10SM OVC070 14/M01 A3022 RMK AO2 SLP148 T01391011,0,10.0,1,16090,0,0,0,
2026-03-23 21:53:00,METAR KASE 232153Z 23005G20KT 10SM OVC052 14/M03 A3020 RMK AO2 SLP136 T01441028,0,5.0,1,16090,0,0,0,
2026-03-23 20:53:00,METAR KASE 232053Z COR 35004G20KT 10SM BKN080 OVC100 15/M04 A3019 RMK AO2 SLP133 T01501039 55003,0,4.0,1,16090,0,0,0,
2026-03-23 19:53:00,METAR KASE 231953Z 27010G21KT 10SM OVC095 17/M06 A3019 RMK AO2 SLP127 T01671061,0,10.0,1,16090,0,0,0,
2026-03-23 18:53:00,METAR KASE 231853Z 34011G26KT 10SM OVC095 17/M06 A3019 RMK AO2 PK WND 36027/1841 SLP127 T01671061,0,11.0,1,16090,0,0,0,
2026-03-23 17:53:00,METAR KASE 231753Z 02008G18KT 10SM BKN100 16/M06 A3020 RMK AO2 SLP131 T01561061 10167 20050 50003,0,8.0,1,16090,0,0,0,
2026-03-23 16:53:00,METAR KASE 231653Z 33007KT 10SM BKN100 14/M05 A3021 RMK AO2 SLP138 T01391050,0,7.0,0,16090,0,0,0,
2026-03-23 15:53:00,METAR KASE 231553Z 00000KT 10SM BKN110 11/M06 A3019 RMK AO2 SLP138 T01111056,0,0.0,0,16090,0,0,0,
2026-03-23 14:53:00,METAR KASE 231453Z 14003KT 10SM BKN085 09/M04 A3019 RMK AO2 SLP140 T00891044 51005,0,3.0,0,16090,0,0,0,
2026-03-23 13:53:00,METAR KASE 231353Z 00000KT 10SM OVC110 07/M04 A3018 RMK AO2 SLP135 T00671039,0,0.0,0,16090,0,0,0,
2026-03-23 12:53:00,METAR KASE 231253Z 00000KT 10SM FEW120 06/M05 A3018 RMK AO2 SLP128 T00611050,0,0.0,0,16090,0,0,0,
2026-03-23 11:53:00,METAR KASE 231153Z AUTO 20005KT 10SM CLR 06/M05 A3017 RMK AO2 SLP115 T00611050 10083 20044 56008,0,5.0,0,16090,0,0,0,
2026-03-23 10:53:00,METAR KASE 231053Z AUTO 20005KT 10SM CLR 06/M05 A3017 RMK AO2 SLP118 T00561050,0,5.0,0,16090,0,0,0,
2026-03-23 09:53:00,METAR KASE 230953Z AUTO VRB03KT 10SM SCT120 06/M05 A3019 RMK AO2 SLP119 T00611050,0,3.0,0,16090,0,0,0,
2026-03-23 08:53:00,METAR KASE 230853Z AUTO 21008KT 10SM SCT110 06/M05 A3020 RMK AO2 SLP127 T00561050 58005,0,8.0,0,16090,0,0,0,
2026-03-23 07:53:00,METAR KASE 230753Z AUTO 19005KT 10SM CLR 06/M05 A3021 RMK AO2 SLP129 T00611050,0,5.0,0,16090,0,0,0,
2026-03-23 06:53:00,METAR KASE 230653Z AUTO 20005KT 10SM CLR 07/M05 A3021 RMK AO2 SLP135 T00671050 402060028,0,5.0,0,16090,0,0,0,
2026-03-23 05:53:00,METAR KASE 230553Z AUTO 21007KT 10SM CLR 08/M06 A3022 RMK AO2 SLP136 T00781056 10189 20072 50003,0,7.0,0,16090,0,0,0,
2026-03-23 04:53:00,METAR KASE 230453Z AUTO 21006KT 10SM CLR 08/M06 A3022 RMK AO2 SLP136 T00831056,0,6.0,0,16090,0,0,0,
2026-03-23 03:53:00,METAR KASE 230353Z AUTO 22010KT 10SM CLR 08/M06 A3021 RMK AO2 SLP141 T00831061,0,10.0,0,16090,0,0,0,
2026-03-23 02:53:00,METAR KASE 230253Z AUTO 20009KT 10SM CLR 09/M06 A3021 RMK AO2 SLP147 T00941061 53014,0,9.0,0,16090,0,0,0,
2026-03-23 01:53:00,METAR KASE 230153Z 17007KT 10SM CLR 13/M08 A3019 RMK AO2 SLP143 T01331083,0,7.0,0,16090,0,0,0,
2026-03-23 00:53:00,METAR KASE 230053Z 29006KT 10SM CLR 16/M11 A3016 RMK AO2 SLP124 T01611111,0,6.0,0,16090,0,0,0,
2026-03-22 23:53:00,METAR KASE 222353Z 32008KT 10SM CLR 19/M12 A3016 RMK AO2 SLP111 T01891117 10206 20167 56004,0,8.0,0,16090,0,0,0,
2026-03-22 22:53:00,METAR KASE 222253Z 36010G17KT 10SM CLR 19/M13 A3017 RMK AO2 SLP110 T01941133,0,10.0,1,16090,0,0,0,
2026-03-22 21:53:00,METAR KASE 222153Z 35013G20KT 10SM FEW110 21/M09 A3016 RMK AO2 SLP104 T02061094,0,13.0,1,16090,0,0,0,
2026-03-22 20:53:00,METAR KASE 222053Z 36009G20KT 310V030 10SM CLR 20/M09 A3018 RMK AO2 SLP114 T02001094 58013,0,9.0,1,16090,0,0,0,
2026-03-22 19:53:00,METAR KASE 221953Z 31010G20KT 10SM CLR 19/M08 A3020 RMK AO2 SLP118 T01941078,0,10.0,1,16090,0,0,0,
2026-03-22 18:53:00,METAR KASE 221853Z 03007G15KT 360V060 10SM CLR 18/M07 A3021 RMK AO2 SLP130 T01781067,0,7.0,1,16090,0,0,0,
2026-03-22 18:03:00,SPECI KASE 221803Z 34007G18KT 10SM CLR 18/M07 A3022 RMK AO2 T01781067,0,7.0,1,16090,0,0,0,
2026-03-22 17:53:00,METAR KASE 221753Z 31010KT 10SM CLR 17/M07 A3022 RMK AO2 SLP134 T01671072 10167 20028 58000,0,10.0,0,16090,0,0,0,
2026-03-22 17:33:00,SPECI KASE 221733Z 35008G16KT 10SM CLR 17/M07 A3023 RMK AO2 T01671072,0,8.0,1,16090,0,0,0,
2026-03-22 16:53:00,METAR KASE 221653Z 05007KT 10SM CLR 17/M07 A3023 RMK AO2 SLP133 T01671072,0,7.0,0,16090,0,0,0,
2026-03-22 15:53:00,METAR KASE 221553Z 35004KT 10SM CLR 14/M06 A3023 RMK AO2 SLP140 T01391061,0,4.0,0,16090,0,0,0,
2026-03-22 14:53:00,METAR KASE 221453Z 00000KT 10SM CLR 09/M05 A3022 RMK AO2 SLP144 T00941050 51021,0,0.0,0,16090,0,0,0,
2026-03-22 13:53:00,METAR KASE 221353Z 19004KT 10SM CLR 04/M05 A3021 RMK AO2 SLP149 T00391050,0,4.0,0,16090,0,0,0,
2026-03-22 12:53:00,METAR KASE 221253Z 20006KT 10SM CLR 05/M06 A3017 RMK AO2 SLP121 T00501056,0,6.0,0,16090,0,0,0,
2026-03-22 11:53:00,METAR KASE 221153Z AUTO 19007KT 10SM CLR 06/M04 A3014 RMK AO2 SLP101 T00611044 10100 20061 53001,0,7.0,0,16090,0,0,0,
2026-03-22 10:53:00,METAR KASE 221053Z AUTO 21007KT 10SM CLR 07/M06 A3014 RMK AO2 SLP096 T00671056,0,7.0,0,16090,0,0,0,
2026-03-22 09:53:00,METAR KASE 220953Z AUTO 20010KT 10SM CLR 08/M07 A3013 RMK AO2 SLP088 T00781067,0,10.0,0,16090,0,0,0,
2026-03-22 08:53:00,METAR KASE 220853Z AUTO 18006KT 10SM CLR 06/M06 A3014 RMK AO2 SLP094 T00611056 55000,0,6.0,0,16090,0,0,0,
2026-03-22 07:53:00,METAR KASE 220753Z AUTO 20005KT 10SM CLR 08/M07 A3014 RMK AO2 SLP086 T00831067,0,5.0,0,16090,0,0,0,
2026-03-22 06:53:00,METAR KASE 220653Z AUTO 22008KT 10SM CLR 07/M06 A3014 RMK AO2 SLP094 T00721056 402390011,0,8.0,0,16090,0,0,0,
2026-03-22 05:53:00,METAR KASE 220553Z AUTO 20005KT 10SM CLR 09/M06 A3014 RMK AO2 SLP094 T00891061 10222 20089 50001,0,5.0,0,16090,0,0,0,
2026-03-22 04:53:00,METAR KASE 220453Z AUTO 18006KT 10SM CLR 10/M07 A3015 RMK AO2 SLP098 T01001067,0,6.0,0,16090,0,0,0,
2026-03-22 03:53:00,METAR KASE 220353Z AUTO 20009KT 10SM CLR 11/M07 A3015 RMK AO2 SLP107 T01061067,0,9.0,0,16090,0,0,0,
2026-03-22 02:53:00,METAR KASE 220253Z AUTO 18006KT 10SM CLR 12/M08 A3014 RMK AO2 SLP110 T01221078 53011,0,6.0,0,16090,0,0,0,
2026-03-22 01:53:00,METAR KASE 220153Z AUTO 00000KT 10SM CLR 14/M10 A3011 RMK AO2 SLP116 T01441100,0,0.0,0,16090,0,0,0,
2026-03-22 00:53:00,METAR KASE 220053Z 21003KT 10SM CLR 18/M11 A3009 RMK AO2 SLP098 T01781106,0,3.0,0,16090,0,0,0,
2026-03-22 00:25:00,SPECI KASE 220025Z 00000KT 10SM CLR 21/M12 A3009 RMK AO2 T02111122,0,0.0,0,16090,0,0,0,
2026-03-21 23:53:00,METAR KASE 212353Z 25014G23KT 10SM CLR 22/M13 A3010 RMK AO2 SLP090 T02171133 10239 20217 56015,0,14.0,1,16090,0,0,0,
2026-03-21 22:53:00,METAR KASE 212253Z 23009G20KT 10SM CLR 22/M15 A3012 RMK AO2 SLP093 T02221150,0,9.0,1,16090,0,0,0,
2026-03-21 21:53:00,METAR KASE 212153Z 27009G20KT 10SM CLR 23/M16 A3013 RMK AO2 SLP092 T02331156,0,9.0,1,16090,0,0,0,
2026-03-21 20:53:00,METAR KASE 212053Z 21005G25KT 10SM CLR 23/M15 A3015 RMK AO2 PK WND 23028/2037 SLP102 T02331150 58017,0,5.0,1,16090,0,0,0,
2026-03-21 19:53:00,METAR KASE 211953Z 22007G20KT 10SM CLR 24/M12 A3018 RMK AO2 SLP101 T02391122,0,7.0,1,16090,0,0,0,
2026-03-21 18:53:00,METAR KASE 211853Z 27007G18KT 240V310 10SM CLR 23/M12 A3020 RMK AO2 SLP113 T02281117,0,7.0,1,16090,0,0,0,
2026-03-21 17:53:00,METAR KASE 211753Z COR 29014G18KT 10SM CLR 21/M10 A3022 RMK AO2 SLP125 T02111100 10217 20011 58020,0,14.0,1,16090,0,0,0,
2026-03-21 16:53:00,METAR KASE 211653Z 33004KT 10SM CLR 19/M08 A3024 RMK AO2 SLP141 T01891078,0,4.0,0,16090,0,0,0,
2026-03-21 15:53:00,METAR KASE 211553Z 00000KT 10SM CLR 14/M09 A3027 RMK AO2 SLP156 T01441089,0,0.0,0,16090,0,0,0,
2026-03-21 14:53:00,METAR KASE 211453Z 16005KT 10SM CLR 11/M09 A3029 RMK AO2 SLP172 T01061094 58005,0,5.0,0,16090,0,0,0,
2026-03-21 13:53:00,METAR KASE 211353Z 19005KT 10SM CLR 03/M08 A3030 RMK AO2 SLP192 T00281083,0,5.0,0,16090,0,0,0,
2026-03-21 12:53:00,METAR KASE 211253Z 20006KT 10SM CLR 03/M09 A3031 RMK AO2 SLP174 T00331089,0,6.0,0,16090,0,0,0,
2026-03-21 11:53:00,METAR KASE 211153Z AUTO 21007KT 10SM CLR 03/M08 A3030 RMK AO2 SLP164 T00331083 10078 20022 56010,0,7.0,0,16090,0,0,0,
2026-03-21 10:53:00,METAR KASE 211053Z AUTO 21009KT 10SM CLR 04/M09 A3031 RMK AO2 SLP163 T00391089,0,9.0,0,16090,0,0,0,
2026-03-21 09:53:00,METAR KASE 210953Z AUTO 19006KT 10SM CLR 05/M08 A3032 RMK AO2 SLP164 T00501083,0,6.0,0,16090,0,0,0,
2026-03-21 08:53:00,METAR KASE 210853Z AUTO 20008KT 10SM CLR 04/M08 A3034 RMK AO2 SLP174 T00441078 56006,0,8.0,0,16090,0,0,0,
2026-03-21 07:53:00,METAR KASE 210753Z AUTO 21007KT 10SM CLR 08/M09 A3035 RMK AO2 SLP168 T00781089,0,7.0,0,16090,0,0,0,
2026-03-21 06:53:00,METAR KASE 210653Z AUTO 21008KT 10SM CLR 07/M08 A3036 RMK AO2 SLP174 T00721083 402330000,0,8.0,0,16090,0,0,0,
2026-03-21 05:53:00,METAR KASE 210553Z AUTO 21011KT 10SM CLR 07/M07 A3037 RMK AO2 SLP186 T00671072 10222 20061 50003,0,11.0,0,16090,0,0,0,
2026-03-21 04:53:00,METAR KASE 210453Z AUTO 20008KT 10SM CLR 07/M06 A3037 RMK AO2 SLP194 T00671061,0,8.0,0,16090,0,0,0,
2026-03-21 03:53:00,METAR KASE 210353Z AUTO 22008KT 10SM CLR 08/M06 A3037 RMK AO2 SLP198 T00831061,0,8.0,0,16090,0,0,0,
2026-03-21 02:53:00,METAR KASE 210253Z AUTO 21009KT 10SM CLR 09/M06 A3036 RMK AO2 SLP204 T00891061 53009,0,9.0,0,16090,0,0,0,
2026-03-21 01:53:00,METAR KASE 210153Z AUTO 21010KT 10SM CLR 12/M07 A3035 RMK AO2 SLP212 T01221067,0,10.0,0,16090,0,0,0,
2026-03-21 00:53:00,METAR KASE 210053Z 31008KT 10SM CLR 18/M12 A3033 RMK AO2 SLP187 T01831122,0,8.0,0,16090,0,0,0,
2026-03-20 23:53:00,METAR KASE 202353Z 33007KT 10SM CLR 22/M12 A3033 RMK AO2 SLP171 T02221117 10233 20194 56012,0,7.0,0,16090,0,0,0,
2026-03-20 23:42:00,SPECI KASE 202342Z 35007KT 10SM CLR 22/M12 A3033 RMK AO2 T02221122,0,7.0,0,16090,0,0,0,
2026-03-20 22:53:00,METAR KASE 202253Z COR 33004G14KT 10SM CLR 23/M12 A3034 RMK AO2 SLP173 T02281117,0,4.0,1,16090,0,0,0,
2026-03-20 21:53:00,METAR KASE 202153Z 02007G13KT 10SM CLR 23/M11 A3036 RMK AO2 SLP183 T02281106,0,7.0,1,16090,0,0,0,
2026-03-20 20:53:00,METAR KASE 202053Z COR 33009G16KT 10SM CLR 22/M11 A3037 RMK AO2 SLP183 T02221106 58020,0,9.0,1,16090,0,0,0,
2026-03-20 19:53:00,METAR KASE 201953Z 36012G20KT 10SM CLR 22/M16 A3040 RMK AO2 SLP194 T02221161,0,12.0,1,16090,0,0,0,
2026-03-20 18:53:00,METAR KASE 201853Z 02007KT 10SM CLR 21/M13 A3043 RMK AO2 SLP208 T02111133,0,7.0,0,16090,0,0,0,
2026-03-20 17:53:00,METAR KASE 201753Z 34005KT 10SM CLR 19/M09 A3045 RMK AO2 SLP216 T01891094 10189 20000 58012,0,5.0,0,16090,0,0,0,
2026-03-20 16:53:00,METAR KASE 201653Z VRB03KT 10SM CLR 16/M07 A3047 RMK AO2 SLP226 T01611072,0,3.0,0,16090,0,0,0,
2026-03-20 15:53:00,METAR KASE 201553Z VRB03KT 10SM CLR 13/M06 A3048 RMK AO2 SLP241 T01281061,0,3.0,0,16090,0,0,0,
2026-03-20 14:53:00,METAR KASE 201453Z 00000KT 10SM CLR 08/M06 A3049 RMK AO2 SLP250 T00831061 50002,0,0.0,0,16090,0,0,0,
2026-03-20 13:53:00,METAR KASE 201353Z 20003KT 10SM CLR 01/M06 A3049 RMK AO2 SLP261 T00111061,0,3.0,0,16090,0,0,0,
2026-03-20 12:53:00,METAR KASE 201253Z 19007KT 10SM CLR 02/M06 A3048 RMK AO2 SLP242 T00171061,0,7.0,0,16090,0,0,0,
2026-03-20 11:53:00,METAR KASE 201153Z AUTO 21008KT 10SM CLR 03/M07 A3047 RMK AO2 SLP228 T00281067 10061 20011 55001,0,8.0,0,16090,0,0,0,
2026-03-20 10:53:00,METAR KASE 201053Z AUTO 22007KT 10SM CLR 02/M07 A3047 RMK AO2 SLP225 T00221067,0,7.0,0,16090,0,0,0,
2026-03-20 09:53:00,METAR KASE 200953Z AUTO 20007KT 10SM CLR 02/M06 A3047 RMK AO2 SLP229 T00171061,0,7.0,0,16090,0,0,0,
2026-03-20 08:53:00,METAR KASE 200853Z AUTO 21006KT 10SM CLR 04/M06 A3048 RMK AO2 SLP226 T00391061 53000,0,6.0,0,16090,0,0,0,
2026-03-20 07:53:00,METAR KASE 200753Z AUTO 21007KT 10SM CLR 04/M06 A3048 RMK AO2 SLP226 T00441061,0,7.0,0,16090,0,0,0,
2026-03-20 06:53:00,METAR KASE 200653Z AUTO 21009KT 10SM CLR 03/M06 A3048 RMK AO2 SLP232 T00331056 402221017,0,9.0,0,16090,0,0,0,
2026-03-20 05:53:00,METAR KASE 200553Z AUTO 21008KT 10SM CLR 06/M06 A3048 RMK AO2 SLP229 T00561061 10211 20044 51007,0,8.0,0,16090,0,0,0,
2026-03-20 04:53:00,METAR KASE 200453Z AUTO 20006KT 10SM CLR 07/M07 A3048 RMK AO2 SLP232 T00721067,0,6.0,0,16090,0,0,0,
2026-03-20 03:53:00,METAR KASE 200353Z AUTO 20008KT 10SM CLR 07/M06 A3047 RMK AO2 SLP242 T00721061,0,8.0,0,16090,0,0,0,
2026-03-20 02:53:00,METAR KASE 200253Z AUTO 22008KT 10SM CLR 09/M07 A3045 RMK AO2 SLP241 T00891067 53016,0,8.0,0,16090,0,0,0,
2026-03-20 01:53:00,METAR KASE 200153Z AUTO 20009KT 10SM CLR 13/M07 A3044 RMK AO2 SLP242 T01281072,0,9.0,0,16090,0,0,0,
2026-03-20 00:53:00,METAR KASE 200053Z 32004KT 10SM CLR 18/M11 A3040 RMK AO2 SLP220 T01831111,0,4.0,0,16090,0,0,0,
2026-03-19 23:53:00,METAR KASE 192353Z 34008G19KT 10SM CLR 21/M11 A3040 RMK AO2 SLP205 T02111106 10222 20189 56007,0,8.0,1,16090,0,0,0,
2026-03-19 22:53:00,METAR KASE 192253Z 36013G22KT 10SM CLR 22/M09 A3040 RMK AO2 SLP203 T02221094,0,13.0,1,16090,0,0,0,
2026-03-19 22:21:00,SPECI KASE 192221Z 36011G21KT 10SM CLR 22/M09 A3040 RMK AO2 T02221089,0,11.0,1,16090,0,0,0,
2026-03-19 21:53:00,METAR KASE 192153Z 00000KT 10SM CLR 21/M09 A3041 RMK AO2 SLP211 T02111094,0,0.0,0,16090,0,0,0,
2026-03-19 20:53:00,METAR KASE 192053Z 34010G17KT 10SM CLR 22/M09 A3042 RMK AO2 SLP207 T02171089 58019,0,10.0,1,16090,0,0,0,
2026-03-19 19:53:00,METAR KASE 191953Z 35012G20KT 10SM CLR 21/M09 A3046 RMK AO2 SLP222 T02061094,0,12.0,1,16090,0,0,0,
2026-03-19 18:53:00,METAR KASE 191853Z 34012G19KT 10SM CLR 20/M12 A3048 RMK AO2 SLP230 T02001117,0,12.0,1,16090,0,0,0,
2026-03-19 18:08:00,SPECI KASE 191808Z 02011G16KT 10SM CLR 19/M10 A3049 RMK AO2 T01941100,0,11.0,1,16090,0,0,0,
2026-03-19 17:53:00,METAR KASE 191753Z 03007KT 350V060 10SM CLR 19/M11 A3049 RMK AO2 SLP235 T01891111 10189 21017 58012,0,7.0,0,16090,0,0,0,
2026-03-19 16:53:00,METAR KASE 191653Z 04003KT 10SM CLR 16/M08 A3051 RMK AO2 SLP246 T01561078,0,3.0,0,16090,0,0,0,
2026-03-19 15:53:00,METAR KASE 191553Z 00000KT 10SM CLR 11/M08 A3052 RMK AO2 SLP263 T01111078,0,0.0,0,16090,0,0,0,
2026-03-19 14:53:00,METAR KASE 191453Z 16005KT 10SM CLR 08/M08 A3053 RMK AO2 SLP272 T00781078 51008,0,5.0,0,16090,0,0,0,
2026-03-19 13:53:00,METAR KASE 191353Z 21009KT 10SM CLR 02/M08 A3053 RMK AO2 SLP282 T00171078,0,9.0,0,16090,0,0,0,
2026-03-19 12:53:00,METAR KASE 191253Z 21007KT 10SM CLR M01/M08 A3051 RMK AO2 SLP273 T10061078,0,7.0,0,16090,0,0,0,
2026-03-19 11:53:00,METAR KASE 191153Z AUTO 20005KT 10SM CLR 01/M08 A3050 RMK AO2 SLP245 T00111078 10039 21006 53004,0,5.0,0,16090,0,0,0,
2026-03-19 10:53:00,METAR KASE 191053Z AUTO 20005KT 10SM CLR 01/M08 A3048 RMK AO2 SLP240 T00061078,0,5.0,0,16090,0,0,0,
2026-03-19 09:53:00,METAR KASE 190953Z AUTO 20007KT 10SM CLR M01/M07 A3048 RMK AO2 SLP242 T10061072,0,7.0,0,16090,0,0,0,
2026-03-19 08:53:00,METAR KASE 190853Z AUTO 20005KT 10SM CLR 02/M08 A3048 RMK AO2 SLP237 T00221078 51001,0,5.0,0,16090,0,0,0,
2026-03-19 07:53:00,METAR KASE 190753Z AUTO 21007KT 10SM CLR 03/M08 A3048 RMK AO2 SLP238 T00281078,0,7.0,0,16090,0,0,0,
2026-03-19 06:53:00,METAR KASE 190653Z AUTO 20007KT 10SM CLR 03/M07 A3049 RMK AO2 SLP243 T00281072 402061017,0,7.0,0,16090,0,0,0,
2026-03-19 05:53:00,METAR KASE 190553Z AUTO 20006KT 10SM CLR 04/M08 A3048 RMK AO2 SLP241 T00391078 10194 20039 51015,0,6.0,0,16090,0,0,0,
2026-03-19 04:53:00,METAR KASE 190453Z AUTO 20008KT 10SM CLR 05/M07 A3047 RMK AO2 SLP239 T00501072,0,8.0,0,16090,0,0,0,
2026-03-19 03:53:00,METAR KASE 190353Z AUTO 21010KT 10SM CLR 06/M07 A3045 RMK AO2 SLP244 T00611072,0,10.0,0,16090,0,0,0,
2026-03-19 02:53:00,METAR KASE 190253Z AUTO 21007KT 10SM CLR 08/M07 A3043 RMK AO2 SLP242 T00781072 53017,0,7.0,0,16090,0,0,0,
2026-03-19 01:53:00,METAR KASE 190153Z AUTO 19007KT 10SM CLR 11/M08 A3040 RMK AO2 SLP241 T01061083,0,7.0,0,16090,0,0,0,
2026-03-19 00:53:00,METAR KASE 190053Z 00000KT 10SM CLR 14/M10 A3037 RMK AO2 SLP220 T01391100,0,0.0,0,16090,0,0,0,
2026-03-18 23:53:00,METAR KASE 182353Z 34006KT 10SM CLR 19/M13 A3037 RMK AO2 SLP206 T01941128 10206 20156 56000,0,6.0,0,16090,0,0,0,
2026-03-18 22:53:00,METAR KASE 182253Z 36009KT 10SM CLR 21/M12 A3037 RMK AO2 SLP199 T02061117,0,9.0,0,16090,0,0,0,
2026-03-18 21:53:00,METAR KASE 182153Z 02008G21KT 350V070 10SM CLR 20/M12 A3037 RMK AO2 SLP199 T02001117,0,8.0,1,16090,0,0,0,
2026-03-18 20:53:00,METAR KASE 182053Z COR 36008G20KT 340V050 10SM CLR 19/M12 A3037 RMK AO2 SLP203 T01941122 58015,0,8.0,1,16090,0,0,0,
2026-03-18 19:53:00,METAR KASE 181953Z 36007KT 310V030 10SM CLR 18/M12 A3039 RMK AO2 SLP215 T01781122,0,7.0,0,16090,0,0,0,
2026-03-18 18:53:00,METAR KASE 181853Z 36009G18KT 10SM CLR 17/M11 A3041 RMK AO2 SLP221 T01671106,0,9.0,1,16090,0,0,0,
2026-03-18 17:53:00,METAR KASE 181753Z 34011G21KT 10SM CLR 16/M10 A3042 RMK AO2 SLP226 T01611100 10161 21017 55002,0,11.0,1,16090,0,0,0,
2026-03-18 17:05:00,SPECI KASE 181705Z 03011G18KT 10SM CLR 15/M10 A3042 RMK AO2 T01501100,0,11.0,1,16090,0,0,0,
2026-03-18 16:53:00,METAR KASE 181653Z 02007G14KT 10SM CLR 14/M10 A3042 RMK AO2 SLP227 T01441100,0,7.0,1,16090,0,0,0,
2026-03-18 15:53:00,METAR KASE 181553Z 16003KT 10SM CLR 09/M10 A3042 RMK AO2 SLP239 T00891100,0,3.0,0,16090,0,0,0,
2026-03-18 14:53:00,METAR KASE 181453Z 13003KT 10SM CLR 05/M09 A3042 RMK AO2 SLP252 T00501089 53008,0,3.0,0,16090,0,0,0,
2026-03-18 13:53:00,METAR KASE 181353Z 21008KT 10SM CLR M01/M08 A3041 RMK AO2 SLP254 T10061083,0,8.0,0,16090,0,0,0,
2026-03-18 12:53:00,METAR KASE 181253Z 16006KT 10SM CLR M01/M08 A3040 RMK AO2 SLP241 T10061083,0,6.0,0,16090,0,0,0,
2026-03-18 11:53:00,METAR KASE 181153Z AUTO 17005KT 10SM CLR M02/M07 A3039 RMK AO2 SLP234 T10171072 10022 21017 53009,0,5.0,0,16090,0,0,0,
2026-03-18 10:53:00,METAR KASE 181053Z AUTO 15006KT 10SM CLR M01/M07 A3038 RMK AO2 SLP225 T10111067,0,6.0,0,16090,0,0,0,
2026-03-18 09:53:00,METAR KASE 180953Z AUTO 17006KT 10SM CLR M01/M07 A3037 RMK AO2 SLP218 T10061067,0,6.0,0,16090,0,0,0,
2026-03-18 08:53:00,METAR KASE 180853Z AUTO 19005KT 10SM CLR M01/M07 A3036 RMK AO2 SLP219 T10061067 53010,0,5.0,0,16090,0,0,0,
2026-03-18 07:53:00,METAR KASE 180753Z AUTO 19007KT 10SM CLR 00/M06 A3034 RMK AO2 SLP211 T00001061,0,7.0,0,16090,0,0,0,
2026-03-18 06:53:00,METAR KASE 180653Z AUTO 20005KT 10SM CLR 01/M06 A3033 RMK AO2 SLP206 T00061061 401561011,0,5.0,0,16090,0,0,0,
2026-03-18 05:53:00,METAR KASE 180553Z AUTO 20006KT 10SM CLR 01/M06 A3032 RMK AO2 SLP209 T00111061 10139 20006 53015,0,6.0,0,16090,0,0,0,
2026-03-18 04:53:00,METAR KASE 180453Z AUTO VRB05KT 10SM CLR 02/M06 A3029 RMK AO2 SLP202 T00171061,0,5.0,0,16090,0,0,0,
2026-03-18 03:53:00,METAR KASE 180353Z AUTO 20006KT 10SM CLR 04/M06 A3029 RMK AO2 SLP196 T00441056,0,6.0,0,16090,0,0,0,
2026-03-18 02:53:00,METAR KASE 180253Z AUTO 20006KT 10SM CLR 05/M06 A3027 RMK AO2 SLP199 T00501056 53018,0,6.0,0,16090,0,0,0,
2026-03-18 01:53:00,METAR KASE 180153Z AUTO 23003KT 10SM CLR 08/M07 A3024 RMK AO2 SLP193 T00831072,0,3.0,0,16090,0,0,0,
2026-03-18 00:53:00,METAR KASE 180053Z 33004KT 10SM CLR 11/M06 A3021 RMK AO2 SLP169 T01111061,0,4.0,0,16090,0,0,0,
2026-03-17 23:53:00,METAR KASE 172353Z 34013G20KT 10SM CLR 14/M07 A3021 RMK AO2 SLP156 T01391067 10156 20111 50001,0,13.0,1,16090,0,0,0,
2026-03-17 22:53:00,METAR KASE 172253Z 32011G23KT 10SM FEW085 14/M06 A3021 RMK AO2 SLP155 T01441061,0,11.0,1,16090,0,0,0,
2026-03-17 21:53:00,METAR KASE 172153Z 33012G22KT 10SM BKN085 14/M07 A3020 RMK AO2 SLP152 T01441072,0,12.0,1,16090,0,0,0,
2026-03-17 20:53:00,METAR KASE 172053Z 02013G19KT 10SM FEW085 14/M08 A3020 RMK AO2 PK WND 35026/1959 SLP154 T01391078 56015,0,13.0,1,16090,0,0,0,
2026-03-17 19:53:00,METAR KASE 171953Z 33011G28KT 10SM CLR 13/M08 A3022 RMK AO2 PK WND 32035/1858 SLP165 T01331078,0,11.0,1,16090,0,0,0,
2026-03-17 18:53:00,METAR KASE 171853Z 34017G29KT 310V010 10SM CLR 13/M08 A3023 RMK AO2 PK WND 32029/1853 SLP164 T01331083,0,17.0,1,16090,0,0,0,
2026-03-17 17:53:00,METAR KASE 171753Z 34006G18KT 10SM CLR 11/M07 A3026 RMK AO2 SLP181 T01111067 10117 21011 58003,0,6.0,1,16090,0,0,0,
2026-03-17 16:53:00,METAR KASE 171653Z 01008KT 10SM FEW080 09/M04 A3026 RMK AO2 SLP186 T00941044,0,8.0,0,16090,0,0,0,
2026-03-17 15:53:00,METAR KASE 171553Z 32004KT 10SM CLR 07/M05 A3027 RMK AO2 SLP198 T00721050,0,4.0,0,16090,0,0,0,
2026-03-17 14:53:00,METAR KASE 171453Z 00000KT 10SM CLR 03/M04 A3026 RMK AO2 SLP209 T00331044 51011,0,0.0,0,16090,0,0,0,
2026-03-17 13:53:00,METAR KASE 171353Z 22006KT 10SM CLR M01/M06 A3024 RMK AO2 SLP212 T10111056,0,6.0,0,16090,0,0,0,
2026-03-17 12:53:00,METAR KASE 171253Z 00000KT 10SM OVC060 01/M05 A3025 RMK AO2 SLP206 T00061050,0,0.0,0,16090,0,0,0,
2026-03-17 11:53:00,METAR KASE 171153Z AUTO 19004KT 10SM BKN060 01/M05 A3022 RMK AO2 SLP194 T00111050 10028 20011 55002,0,4.0,0,16090,0,0,0,
2026-03-17 10:53:00,METAR KASE 171053Z AUTO 15005KT 10SM SCT050 OVC065 02/M05 A3022 RMK AO2 SLP190 T00171050,0,5.0,0,16090,0,0,0,
2026-03-17 09:53:00,METAR KASE 170953Z AUTO 18004KT 10SM OVC055 02/M06 A3022 RMK AO2 SLP194 T00171056,0,4.0,0,16090,0,0,0,
2026-03-17 08:53:00,METAR KASE 170853Z AUTO 00000KT 10SM SCT055 OVC070 02/M06 A3023 RMK AO2 SLP201 T00171061 55001,0,0.0,0,16090,0,0,0,
2026-03-17 07:53:00,METAR KASE 170753Z AUTO 00000KT 10SM OVC055 01/M04 A3023 RMK AO2 SLP203 T00111044,0,0.0,0,16090,0,0,0,
2026-03-17 06:53:00,METAR KASE 170653Z AUTO 13004KT 10SM OVC055 02/M05 A3022 RMK AO2 SLP202 T00221050 400441106,0,4.0,0,16090,0,0,0,
2026-03-17 05:53:00,METAR KASE 170553Z AUTO 18004KT 10SM OVC055 02/M06 A3023 RMK AO2 SLP209 T00221061 10044 20011 50000,0,4.0,0,16090,0,0,0,
2026-03-17 04:53:00,METAR KASE 170453Z AUTO 00000KT 10SM OVC055 02/M06 A3024 RMK AO2 SLP219 T00221056,0,0.0,0,16090,0,0,0,
2026-03-17 03:53:00,METAR KASE 170353Z AUTO 00000KT 10SM OVC055 01/M06 A3024 RMK AO2 SLP227 T00111061,0,0.0,0,16090,0,0,0,
2026-03-17 02:53:00,METAR KASE 170253Z AUTO 20004KT 10SM OVC060 02/M07 A3023 RMK AO2 SLP226 T00171067 53007,0,4.0,0,16090,0,0,0,
2026-03-17 01:53:00,METAR KASE 170153Z AUTO 22003KT 10SM OVC060 03/M08 A3022 RMK AO2 SLP218 T00281078,0,3.0,0,16090,0,0,0,
2026-03-17 00:53:00,METAR KASE 170053Z 19004KT 10SM OVC060 04/M08 A3022 RMK AO2 SLP221 T00391083,0,4.0,0,16090,0,0,0,
2026-03-16 23:53:00,METAR KASE 162353Z 00000KT 10SM OVC055 04/M09 A3021 RMK AO2 SLP224 T00391089 10044 21006 58002,0,0.0,0,16090,0,0,0,
2026-03-16 22:53:00,METAR KASE 162253Z 02008KT 10SM OVC055 04/M09 A3021 RMK AO2 SLP222 T00441089,0,8.0,0,16090,0,0,0,
2026-03-16 21:53:00,METAR KASE 162153Z 01008KT 10SM OVC048 04/M09 A3021 RMK AO2 SLP226 T00391094,0,8.0,0,16090,0,0,0,
2026-03-16 20:53:00,METAR KASE 162053Z 01007KT 10SM OVC047 03/M10 A3021 RMK AO2 SLP227 T00281100 58003,0,7.0,0,16090,0,0,0,
2026-03-16 19:53:00,METAR KASE 161953Z 36008KT 10SM OVC046 02/M11 A3022 RMK AO2 SLP231 T00221106,0,8.0,0,16090,0,0,0,
2026-03-16 18:53:00,METAR KASE 161853Z 34005KT 10SM OVC042 01/M12 A3022 RMK AO2 SLP234 T00111117,0,5.0,0,16090,0,0,0,
2026-03-16 17:53:00,METAR KASE 161753Z 00000KT 10SM OVC047 M01/M12 A3022 RMK AO2 SLP234 T10061117 11006 21094 58001,0,0.0,0,16090,0,0,0,
2026-03-16 16:53:00,METAR KASE 161653Z 00000KT 10SM OVC045 M02/M14 A3023 RMK AO2 SLP240 T10221139,0,0.0,0,16090,0,0,0,
2026-03-16 15:53:00,METAR KASE 161553Z 35004KT 10SM OVC042 M04/M16 A3023 RMK AO2 SLP253 T10441161,0,4.0,0,16090,0,0,0,
2026-03-16 14:53:00,METAR KASE 161453Z 00000KT 10SM OVC037 M05/M15 A3022 RMK AO2 SLP246 T10501150 53003,0,0.0,0,16090,0,0,0,
2026-03-16 13:53:00,METAR KASE 161353Z 25004KT 10SM OVC052 M06/M17 A3020 RMK AO2 SLP232 T10561167,0,4.0,0,16090,0,0,0,
2026-03-16 12:53:00,METAR KASE 161253Z 19004KT 10SM OVC055 M07/M16 A3019 RMK AO2 SLP235 T10721156,0,4.0,0,16090,0,0,0,
2026-03-16 11:53:00,METAR KASE 161153Z 00000KT 10SM BKN075 M09/M16 A3021 RMK AO2 SLP242 T10941156 11067 21106 55005,0,0.0,0,16090,0,0,0,
2026-03-16 10:53:00,METAR KASE 161053Z 20006KT 10SM CLR M09/M16 A3020 RMK AO2 SLP238 T10941161,0,6.0,0,16090,0,0,0,
2026-03-16 09:53:00,METAR KASE 160953Z 22005KT 10SM CLR M09/M16 A3021 RMK AO2 SLP242 T10941161,0,5.0,0,16090,0,0,0,
2026-03-16 08:53:00,METAR KASE 160853Z 21005KT 10SM CLR M09/M16 A3023 RMK AO2 SLP248 T10891156 57002,0,5.0,0,16090,0,0,0,
2026-03-16 07:53:00,METAR KASE 160753Z 22007KT 10SM CLR M08/M17 A3024 RMK AO2 SLP247 T10781167,0,7.0,0,16090,0,0,0,
2026-03-16 06:53:00,METAR KASE 160653Z 21006KT 10SM CLR M08/M17 A3023 RMK AO2 SLP248 T10831167 400671083,0,6.0,0,16090,0,0,0,
2026-03-16 05:53:00,METAR KASE 160553Z 19006KT 10SM CLR M07/M17 A3024 RMK AO2 SLP251 T10671172 11011 21078 51021,0,6.0,0,16090,0,0,0,
2026-03-16 04:53:00,METAR KASE 160453Z 19005KT 10SM CLR M06/M18 A3022 RMK AO2 SLP244 T10611178,0,5.0,0,16090,0,0,0,
2026-03-16 03:53:00,METAR KASE 160353Z 20003KT 10SM CLR M07/M17 A3019 RMK AO2 SLP242 T10721167,0,3.0,0,16090,0,0,0,
2026-03-16 02:53:00,METAR KASE 160253Z 00000KT 10SM CLR M06/M18 A3016 RMK AO2 SLP224 T10561183 53009,0,0.0,0,16090,0,0,0,
2026-03-16 01:53:00,METAR KASE 160153Z 30008KT 10SM CLR M03/M21 A3015 RMK AO2 SLP215 T10331206,0,8.0,0,16090,0,0,0,
2026-03-16 00:53:00,METAR KASE 160053Z 34011KT 10SM CLR M03/M21 A3013 RMK AO2 SLP200 T10281211,0,11.0,0,16090,0,0,0,
2026-03-15 23:53:00,METAR KASE 152353Z 33012G21KT 10SM CLR M01/M22 A3013 RMK AO2 PK WND 34027/2312 SLP189 T10111222 11006 21033 50003,0,12.0,1,16090,0,0,0,
2026-03-15 22:53:00,METAR KASE 152253Z 35018G26KT 10SM CLR M01/M23 A3014 RMK AO2 PK WND 35029/2241 SLP182 T10111228,0,18.0,1,16090,0,0,0,
2026-03-15 21:53:00,METAR KASE 152153Z 33017G29KT 300V360 10SM CLR M01/M21 A3013 RMK AO2 PK WND 32034/2100 SLP178 T10111206,0,17.0,1,16090,0,0,0,
2026-03-15 20:53:00,METAR KASE 152053Z 33014G29KT 290V350 10SM CLR M01/M20 A3012 RMK AO2 PK WND 33031/2008 SLP167 T10111200 58004,0,14.0,1,16090,0,0,0,
2026-03-15 19:53:00,METAR KASE 151953Z 34018G30KT 10SM CLR M02/M20 A3013 RMK AO2 PK WND 35037/1935 SLP169 T10171200,0,18.0,1,16090,0,0,0,
2026-03-15 18:53:00,METAR KASE 151853Z 33016G30KT 300V360 10SM CLR M02/M21 A3013 RMK AO2 PK WND 33032/1843 SLP166 T10221206,0,16.0,1,16090,0,0,0,
2026-03-15 17:53:00,METAR KASE 151753Z 33014G27KT 10SM FEW060 M03/M19 A3013 RMK AO2 PK WND 34032/1700 SLP166 T10331189 11022 21056 50013,0,14.0,1,16090,0,0,0,
2026-03-15 16:53:00,METAR KASE 151653Z COR 30015G27KT 10SM CLR M04/M19 A3014 RMK AO2 PK WND 35028/1628 SLP172 T10441194,0,15.0,1,16090,0,0,0,
2026-03-15 15:53:00,METAR KASE 151553Z 33012G22KT 10SM CLR M05/M17 A3011 RMK AO2 PK WND 33028/1523 SLP162 T10501172,0,12.0,1,16090,0,0,0,
2026-03-15 14:53:00,METAR KASE 151453Z 35012G20KT 10SM SCT049 M05/M16 A3008 RMK AO2 SLP152 T10501156 51045,0,12.0,1,16090,0,0,0,
2026-03-15 13:53:00,METAR KASE 151353Z 34009G24KT 10SM CLR M06/M16 A3004 RMK AO2 PK WND 34032/1254 SLP134 T10561161,0,9.0,1,16090,0,0,0,
2026-03-15 12:53:00,METAR KASE 151253Z 33019G36KT 10SM CLR M04/M15 A2999 RMK AO2 PK WND 35043/1229 SLP104 T10391150,0,19.0,1,16090,0,0,0,
2026-03-15 11:53:00,METAR KASE 151153Z AUTO 34019G33KT 10SM FEW060 SCT070 M02/M10 A2992 RMK AO2 PK WND 34040/1140 UPE1054 SLP072 P0000 60001 70001 T10221100 10078 21022 53037,0,19.0,1,16090,0,0,0,UP
2026-03-15 10:53:00,METAR KASE 151053Z AUTO 33021G32KT 10SM UP FEW038 SCT049 BKN060 01/M07 A2985 RMK AO2 PK WND 01032/1044 UPB32E35B46SNE32 SLP036 P0001 T00111072,0,21.0,1,16090,0,0,0,UP
2026-03-15 10:39:00,SPECI KASE 151039Z AUTO 34019G30KT 10SM SCT032 BKN042 OVC070 01/M07 A2985 RMK AO2 PK WND 34032/1025 UPB32E35SNE32 P0001 T00111067,0,19.0,1,16090,0,0,0,UP
2026-03-15 10:26:00,SPECI KASE 151026Z AUTO 33016G32KT 6SM -SN BKN024 BKN042 OVC050 01/M05 A2984 RMK AO2 PK WND 34032/1025 P0001 T00111050,0,16.0,1,9654,0,0,0,SN
2026-03-15 10:12:00,SPECI KASE 151012Z AUTO 32011G26KT 230V010 2SM -SN BKN024 OVC031 01/M03 A2983 RMK AO2 PK WND 31026/1010 P0001 T00111028,0,11.0,1,3218,0,0,0,SN
2026-03-15 10:04:00,SPECI KASE 151004Z AUTO 30011G24KT 260V330 1 3/4SM -SN OVC022 01/M03 A2982 RMK AO2 P0000 T00061033,0,11.0,1,2816,0,0,0,SN
2026-03-15 09:53:00,METAR KASE 150953Z AUTO 33014G28KT 8SM -SN FEW021 OVC029 01/M03 A2982 RMK AO2 PK WND 33052/0855 SNB0856 SLP019 P0000 T00111033,0,14.0,1,12872,0,0,0,SN
2026-03-15 09:14:00,SPECI KASE 150914Z AUTO 35023G32KT 5SM -SN BKN025 BKN037 OVC075 02/M03 A2980 RMK AO2 PK WND 33052/0855 SNB0856 P0000 T00171028,0,23.0,1,8045,0,0,0,SN
2026-03-15 09:09:00,SPECI KASE 150909Z AUTO 34019G32KT 2SM -SN BKN021 BKN035 OVC090 01/M02 A2980 RMK AO2 PK WND 33052/0855 SNB0856 P0000 T00111022,0,19.0,1,3218,0,0,0,SN
2026-03-15 09:02:00,SPECI KASE 150902Z AUTO 33019G52KT 1 3/4SM -SN SCT020 BKN037 OVC090 01/M02 A2981 RMK AO2 PK WND 33052/0855 SNB0856 PRESRR P0000 T00111022,0,19.0,1,2816,0,0,0,SN
2026-03-15 08:53:00,METAR KASE 150853Z AUTO 34019G31KT 10SM SCT036 BKN075 OVC090 03/M05 A2978 RMK AO2 PK WND 36034/0816 RAB12E32SNB32E44 SLP001 P0000 60000 T00331050 53003,0,19.0,1,16090,0,0,0,RA
