Time_recorded,METAR,is_cavok,wind_speed,is_gust,visibility_meters,has_thunderstorm,has_heavy_rain,has_low_vis_fog,other_phenomenon
2026-05-02 15:30:00,METAR LEZL 021530Z 27008KT 240V300 9999 FEW044 23/15 Q1015 NOSIG,0,8,0,10000,0,0,0,
2026-05-02 15:00:00,METAR LEZL 021500Z 31009KT 280V350 9999 FEW035 SCT048 23/15 Q1016 NOSIG,0,9,0,10000,0,0,0,
2026-05-02 14:30:00,METAR LEZL 021430Z 36008KT 320V030 9999 FEW049 23/15 Q1016 NOSIG,0,8,0,10000,0,0,0,
2026-05-02 14:00:00,METAR LEZL 021400Z 36008KT 320V030 9999 FEW048 24/15 Q1016 NOSIG,0,8,0,10000,0,0,0,
2026-05-02 13:30:00,METAR LEZL 021330Z 28003KT 210V010 9999 FEW044 24/14 Q1016 NOSIG,0,3,0,10000,0,0,0,
2026-05-02 13:00:00,METAR LEZL 021300Z 32003KT 9999 SCT044 25/14 Q1017 NOSIG,0,3,0,10000,0,0,0,
2026-05-02 12:30:00,METAR LEZL 021230Z 25005KT 210V310 9999 BKN042 24/14 Q1017 NOSIG,0,5,0,10000,0,0,0,
2026-05-02 12:00:00,METAR LEZL 021200Z 03002KT 9999 SCT041 24/14 Q1017 NOSIG,0,2,0,10000,0,0,0,
2026-05-02 11:30:00,METAR LEZL 021130Z 07002KT 9999 SCT040 24/13 Q1017 NOSIG,0,2,0,10000,0,0,0,
2026-05-02 11:00:00,METAR LEZL 021100Z 31001KT 9999 BKN038 24/14 Q1018 NOSIG,0,1,0,10000,0,0,0,
2026-05-02 10:30:00,METAR LEZL 021030Z VRB02KT 9999 FEW038 22/13 Q1018 NOSIG,0,2,0,10000,0,0,0,
2026-05-02 10:00:00,METAR LEZL 021000Z 33003KT 280V010 9999 FEW036 22/13 Q1018 NOSIG,0,3,0,10000,0,0,0,
2026-05-02 09:30:00,METAR LEZL 020930Z 33003KT 280V060 9999 SCT038 21/13 Q1018 NOSIG,0,3,0,10000,0,0,0,
2026-05-02 09:00:00,METAR LEZL 020900Z VRB02KT 9999 BKN038 20/13 Q1018 NOSIG,0,2,0,10000,0,0,0,
2026-05-02 08:30:00,METAR LEZL 020830Z 35002KT 9999 BKN040 20/13 Q1018 NOSIG,0,2,0,10000,0,0,0,
2026-05-02 08:00:00,METAR LEZL 020800Z 34003KT 290V030 9999 BKN040 19/13 Q1018 NOSIG,0,3,0,10000,0,0,0,
2026-05-02 07:30:00,METAR LEZL 020730Z VRB01KT 9999 FEW040 18/13 Q1018 NOSIG,0,1,0,10000,0,0,0,
2026-05-02 07:00:00,METAR LEZL 020700Z 00000KT 9999 FEW040 17/14 Q1018 NOSIG,0,0,0,10000,0,0,0,
2026-05-02 06:30:00,METAR LEZL 020630Z 00000KT 9999 FEW040 17/14 Q1018 NOSIG,0,0,0,10000,0,0,0,
2026-05-02 06:00:00,METAR LEZL 020600Z VRB01KT 9999 FEW015 16/14 Q1017 NOSIG,0,1,0,10000,0,0,0,
2026-05-02 05:30:00,METAR LEZL 020530Z VRB02KT CAVOK 16/14 Q1017 NOSIG,1,0,0,9999,0,0,0,
2026-05-02 05:00:00,METAR LEZL 020500Z VRB02KT CAVOK 17/13 Q1017 NOSIG,1,0,0,9999,0,0,0,
2026-05-02 04:30:00,METAR LEZL 020430Z VRB01KT CAVOK 17/13 Q1017 NOSIG,1,0,0,9999,0,0,0,
2026-05-02 04:00:00,METAR LEZL 020400Z VRB02KT CAVOK 17/13 Q1017 NOSIG,1,0,0,9999,0,0,0,
2026-05-02 03:30:00,METAR LEZL 020330Z 00000KT CAVOK 17/14 Q1018 NOSIG,1,0,0,9999,0,0,0,
2026-05-02 03:00:00,METAR LEZL 020300Z AUTO 14002KT CAVOK 17/14 Q1018,1,0,0,9999,0,0,0,
2026-05-02 02:30:00,METAR LEZL 020230Z AUTO 14002KT CAVOK 17/14 Q1018,1,0,0,9999,0,0,0,
2026-05-02 02:00:00,METAR LEZL 020200Z AUTO 14003KT CAVOK 17/13 Q1018,1,0,0,9999,0,0,0,
2026-05-02 01:30:00,METAR LEZL 020130Z AUTO 13003KT CAVOK 17/14 Q1018,1,0,0,9999,0,0,0,
2026-05-02 01:00:00,METAR LEZL 020100Z AUTO VRB02KT CAVOK 17/13 Q1019,1,0,0,9999,0,0,0,
2026-05-02 00:30:00,METAR LEZL 020030Z AUTO 00000KT CAVOK 18/13 Q1019,1,0,0,9999,0,0,0,
2026-05-02 00:00:00,METAR LEZL 020000Z AUTO VRB02KT CAVOK 18/13 Q1019,1,0,0,9999,0,0,0,
2026-05-01 23:30:00,METAR LEZL 012330Z AUTO 21004KT CAVOK 18/13 Q1019,1,0,0,9999,0,0,0,
2026-05-01 23:00:00,METAR LEZL 012300Z 20005KT 170V230 CAVOK 19/12 Q1019 NOSIG,1,0,0,9999,0,0,0,
2026-05-01 22:30:00,METAR LEZL 012230Z 21006KT CAVOK 19/12 Q1019 NOSIG,1,0,0,9999,0,0,0,
2026-05-01 22:00:00,METAR LEZL 012200Z 21005KT CAVOK 20/12 Q1019 NOSIG,1,0,0,9999,0,0,0,
2026-05-01 21:30:00,METAR LEZL 012130Z 21005KT CAVOK 20/11 Q1019 NOSIG,1,0,0,9999,0,0,0,
2026-05-01 21:00:00,METAR LEZL 012100Z 21005KT CAVOK 21/11 Q1019 NOSIG,1,0,0,9999,0,0,0,
2026-05-01 20:30:00,METAR LEZL 012030Z 21005KT CAVOK 21/10 Q1018 NOSIG,1,0,0,9999,0,0,0,
2026-05-01 20:00:00,METAR LEZL 012000Z 24006KT CAVOK 22/10 Q1018 NOSIG,1,0,0,9999,0,0,0,
2026-05-01 19:30:00,METAR LEZL 011930Z 24005KT 200V280 CAVOK 22/11 Q1018 NOSIG,1,0,0,9999,0,0,0,
2026-05-01 19:00:00,METAR LEZL 011900Z 22007KT CAVOK 23/11 Q1017 NOSIG,1,0,0,9999,0,0,0,
2026-05-01 18:30:00,METAR LEZL 011830Z 22008KT CAVOK 24/11 Q1017 NOSIG,1,0,0,9999,0,0,0,
2026-05-01 18:00:00,METAR LEZL 011800Z 23007KT 170V270 CAVOK 24/11 Q1017 NOSIG,1,0,0,9999,0,0,0,
2026-05-01 17:30:00,METAR LEZL 011730Z 24009KT 200V270 CAVOK 25/10 Q1017 NOSIG,1,0,0,9999,0,0,0,
2026-05-01 17:00:00,METAR LEZL 011700Z 23008KT 200V270 CAVOK 26/11 Q1017 NOSIG,1,0,0,9999,0,0,0,
2026-05-01 16:30:00,METAR LEZL 011630Z 23008KT 190V260 CAVOK 26/12 Q1017 NOSIG,1,0,0,9999,0,0,0,
2026-05-01 16:00:00,METAR LEZL 011600Z 23010KT 190V290 CAVOK 27/12 Q1017 NOSIG,1,0,0,9999,0,0,0,
2026-05-01 15:30:00,METAR LEZL 011530Z 24009KT 180V260 CAVOK 27/12 Q1017 NOSIG,1,0,0,9999,0,0,0,
2026-05-01 15:00:00,METAR LEZL 011500Z 25007KT CAVOK 27/10 Q1017 NOSIG,1,0,0,9999,0,0,0,
2026-05-01 14:30:00,METAR LEZL 011430Z 23007KT 160V280 CAVOK 26/09 Q1017 NOSIG,1,0,0,9999,0,0,0,
2026-05-01 14:00:00,METAR LEZL 011400Z 22008KT 170V270 CAVOK 26/10 Q1018 NOSIG,1,0,0,9999,0,0,0,
2026-05-01 13:30:00,METAR LEZL 011330Z 17006KT 100V240 CAVOK 26/09 Q1018 NOSIG,1,0,0,9999,0,0,0,
2026-05-01 13:00:00,METAR LEZL 011300Z 14004KT 080V220 CAVOK 26/11 Q1018 NOSIG,1,0,0,9999,0,0,0,
2026-05-01 12:30:00,METAR LEZL 011230Z VRB04KT CAVOK 24/11 Q1018 NOSIG,1,0,0,9999,0,0,0,
2026-05-01 12:00:00,METAR LEZL 011200Z 22004KT 170V330 CAVOK 24/12 Q1019 NOSIG,1,0,0,9999,0,0,0,
2026-05-01 11:30:00,METAR LEZL 011130Z 25003KT 9999 FEW040 24/12 Q1019 NOSIG,0,3,0,10000,0,0,0,
2026-05-01 11:00:00,METAR LEZL 011100Z 33002KT 9999 FEW030 23/13 Q1019 NOSIG,0,2,0,10000,0,0,0,
2026-05-01 10:30:00,METAR LEZL 011030Z 25003KT 9999 FEW030 22/13 Q1019 NOSIG,0,3,0,10000,0,0,0,
2026-05-01 10:00:00,METAR LEZL 011000Z 36001KT 9999 FEW025 21/13 Q1019 NOSIG,0,1,0,10000,0,0,0,
2026-05-01 09:30:00,METAR LEZL 010930Z 29002KT 9999 FEW025 20/14 Q1019 NOSIG,0,2,0,10000,0,0,0,
2026-05-01 09:00:00,METAR LEZL 010900Z 33002KT 9999 FEW020 19/14 Q1019 NOSIG,0,2,0,10000,0,0,0,
2026-05-01 08:30:00,METAR LEZL 010830Z 25001KT 9999 FEW015 18/14 Q1019 NOSIG,0,1,0,10000,0,0,0,
2026-05-01 08:00:00,METAR LEZL 010800Z VRB01KT 9999 FEW015 18/13 Q1019 NOSIG,0,1,0,10000,0,0,0,
2026-05-01 07:30:00,METAR LEZL 010730Z 08003KT 040V120 9999 FEW012 17/13 Q1019 NOSIG,0,3,0,10000,0,0,0,
2026-05-01 07:00:00,METAR LEZL 010700Z 06003KT 340V110 9999 FEW012 16/13 Q1019 NOSIG,0,3,0,10000,0,0,0,
2026-05-01 06:30:00,METAR LEZL 010630Z 09002KT 9999 FEW011 13/12 Q1019 NOSIG,0,2,0,10000,0,0,0,
2026-05-01 06:00:00,METAR LEZL 010600Z VRB01KT 9999 FEW011 13/12 Q1018 NOSIG,0,1,0,10000,0,0,0,
2026-05-01 05:30:00,METAR LEZL 010530Z VRB01KT CAVOK 13/12 Q1018 NOSIG,1,0,0,9999,0,0,0,
2026-05-01 05:00:00,METAR LEZL 010500Z 00000KT CAVOK 13/12 Q1018 NOSIG,1,0,0,9999,0,0,0,
2026-05-01 04:30:00,METAR LEZL 010430Z 10001KT CAVOK 13/11 Q1018 NOSIG,1,0,0,9999,0,0,0,
2026-05-01 04:00:00,METAR LEZL 010400Z VRB01KT CAVOK 13/12 Q1018 NOSIG,1,0,0,9999,0,0,0,
2026-05-01 03:30:00,METAR LEZL 010330Z VRB01KT CAVOK 13/12 Q1018 NOSIG,1,0,0,9999,0,0,0,
2026-05-01 03:00:00,METAR LEZL 010300Z AUTO 17003KT 7000 NCD 13/12 Q1018,0,3,0,7000,0,0,0,
2026-05-01 02:30:00,METAR LEZL 010230Z AUTO VRB02KT 9000 NCD 14/12 Q1017,0,2,0,9000,0,0,0,
2026-05-01 02:00:00,METAR LEZL 010200Z AUTO 19005KT CAVOK 14/12 Q1018,1,0,0,9999,0,0,0,
2026-05-01 01:30:00,METAR LEZL 010130Z AUTO 19006KT CAVOK 15/13 Q1018,1,0,0,9999,0,0,0,
2026-05-01 01:00:00,METAR LEZL 010100Z AUTO 18005KT 150V210 CAVOK 15/13 Q1018,1,0,0,9999,0,0,0,
2026-05-01 00:30:00,METAR LEZL 010030Z AUTO 17004KT CAVOK 14/12 Q1018,1,0,0,9999,0,0,0,
2026-05-01 00:00:00,METAR LEZL 010000Z AUTO 17006KT CAVOK 14/12 Q1018,1,0,0,9999,0,0,0,
2026-04-30 23:30:00,METAR LEZL 302330Z AUTO 17005KT CAVOK 14/12 Q1018,1,0,0,9999,0,0,0,
2026-04-30 23:00:00,METAR LEZL 302300Z 19004KT CAVOK 15/11 Q1018 NOSIG,1,0,0,9999,0,0,0,
2026-04-30 22:30:00,METAR LEZL 302230Z 28004KT CAVOK 17/11 Q1018 NOSIG,1,0,0,9999,0,0,0,
2026-04-30 22:00:00,METAR LEZL 302200Z 28002KT CAVOK 18/11 Q1017 NOSIG,1,0,0,9999,0,0,0,
2026-04-30 21:30:00,METAR LEZL 302130Z 27007KT CAVOK 18/11 Q1017 NOSIG,1,0,0,9999,0,0,0,
2026-04-30 21:00:00,METAR LEZL 302100Z 26004KT 210V300 CAVOK 18/11 Q1017 NOSIG,1,0,0,9999,0,0,0,
2026-04-30 20:30:00,METAR LEZL 302030Z 24008KT CAVOK 20/11 Q1016 NOSIG,1,0,0,9999,0,0,0,
2026-04-30 20:00:00,METAR LEZL 302000Z 24008KT CAVOK 21/11 Q1016 NOSIG,1,0,0,9999,0,0,0,
2026-04-30 19:30:00,METAR LEZL 301930Z 25009KT CAVOK 21/11 Q1015 NOSIG,1,0,0,9999,0,0,0,
2026-04-30 19:00:00,METAR LEZL 301900Z 22011KT CAVOK 23/11 Q1015 NOSIG,1,0,0,9999,0,0,0,
2026-04-30 18:30:00,METAR LEZL 301830Z 18004KT 150V210 CAVOK 24/10 Q1015 NOSIG,1,0,0,9999,0,0,0,
2026-04-30 18:00:00,METAR LEZL 301800Z 26003KT CAVOK 25/11 Q1015 NOSIG,1,0,0,9999,0,0,0,
2026-04-30 17:30:00,METAR LEZL 301730Z 20005KT 160V260 CAVOK 25/10 Q1015 NOSIG,1,0,0,9999,0,0,0,
2026-04-30 17:00:00,METAR LEZL 301700Z 19003KT 120V290 CAVOK 25/10 Q1015 NOSIG,1,0,0,9999,0,0,0,
2026-04-30 16:30:00,METAR LEZL 301630Z 28005KT 210V320 CAVOK 25/10 Q1015 NOSIG,1,0,0,9999,0,0,0,
2026-04-30 16:00:00,METAR LEZL 301600Z 25004KT CAVOK 25/09 Q1015 NOSIG,1,0,0,9999,0,0,0,
2026-04-30 15:00:00,METAR LEZL 301500Z 30004KT CAVOK 24/10 Q1015 NOSIG,1,0,0,9999,0,0,0,
2026-04-30 14:30:00,METAR LEZL 301430Z 29003KT CAVOK 24/10 Q1015 NOSIG,1,0,0,9999,0,0,0,
2026-04-30 14:00:00,METAR LEZL 301400Z 28006KT 230V340 CAVOK 23/10 Q1016 NOSIG,1,0,0,9999,0,0,0,
2026-04-30 13:30:00,METAR LEZL 301330Z 26005KT CAVOK 24/11 Q1016 NOSIG,1,0,0,9999,0,0,0,
2026-04-30 13:00:00,METAR LEZL 301300Z 21003KT 9999 FEW045 23/10 Q1016 NOSIG,0,3,0,10000,0,0,0,
2026-04-30 12:30:00,METAR LEZL 301230Z 30004KT 9999 FEW045 23/11 Q1016 NOSIG,0,4,0,10000,0,0,0,
2026-04-30 12:00:00,METAR LEZL 301200Z 36003KT 9999 FEW044 22/10 Q1016 NOSIG,0,3,0,10000,0,0,0,
2026-04-30 11:30:00,METAR LEZL 301130Z 33004KT 9999 SCT040 21/11 Q1016 NOSIG,0,4,0,10000,0,0,0,
2026-04-30 11:00:00,METAR LEZL 301100Z VRB03KT 9999 SCT038 21/11 Q1016 NOSIG,0,3,0,10000,0,0,0,
2026-04-30 10:30:00,METAR LEZL 301030Z 36003KT 9999 BKN033 20/12 Q1016 NOSIG,0,3,0,10000,0,0,0,
2026-04-30 10:00:00,METAR LEZL 301000Z 04003KT 340V140 9999 SCT030 SCT040 19/12 Q1017 NOSIG,0,3,0,10000,0,0,0,
2026-04-30 09:30:00,METAR LEZL 300930Z VRB02KT 9999 FEW022 SCT030 18/12 Q1017 NOSIG,0,2,0,10000,0,0,0,
2026-04-30 09:00:00,METAR LEZL 300900Z 07003KT 010V130 9999 SCT020 SCT030 19/13 Q1017 NOSIG,0,3,0,10000,0,0,0,
2026-04-30 08:30:00,METAR LEZL 300830Z 09002KT 9999 FEW045 19/14 Q1017 NOSIG,0,2,0,10000,0,0,0,
2026-04-30 08:00:00,METAR LEZL 300800Z VRB02KT 9999 FEW035 17/13 Q1016 NOSIG,0,2,0,10000,0,0,0,
2026-04-30 07:30:00,METAR LEZL 300730Z 07003KT 020V120 CAVOK 16/14 Q1016 NOSIG,1,0,0,9999,0,0,0,
2026-04-30 07:00:00,METAR LEZL 300700Z 07003KT 030V100 CAVOK 15/13 Q1016 NOSIG,1,0,0,9999,0,0,0,
2026-04-30 06:30:00,METAR LEZL 300630Z 09004KT 070V130 CAVOK 14/13 Q1016 NOSIG,1,0,0,9999,0,0,0,
2026-04-30 06:00:00,METAR LEZL 300600Z VRB02KT CAVOK 12/11 Q1016 NOSIG,1,0,0,9999,0,0,0,
2026-04-30 05:30:00,METAR LEZL 300530Z VRB01KT 9000 FEW046 12/11 Q1016 NOSIG,0,1,0,9000,0,0,0,
2026-04-30 05:00:00,METAR LEZL 300500Z VRB02KT 8000 FEW046 12/11 Q1016 NOSIG,0,2,0,8000,0,0,0,
2026-04-30 04:30:00,METAR LEZL 300430Z VRB01KT 9000 FEW046 12/11 Q1015 NOSIG,0,1,0,9000,0,0,0,
2026-04-30 04:00:00,METAR LEZL 300400Z 14002KT 9000 NSC 12/11 Q1015 NOSIG,0,2,0,9000,0,0,0,
2026-04-30 03:30:00,METAR LEZL 300330Z 00000KT CAVOK 13/11 Q1015 NOSIG,1,0,0,9999,0,0,0,
2026-04-30 03:00:00,METAR LEZL 300300Z AUTO 32002KT 9000 NCD 13/12 Q1015,0,2,0,9000,0,0,0,
2026-04-30 02:30:00,METAR LEZL 300230Z AUTO 16004KT 9000 NCD 13/12 Q1015,0,4,0,9000,0,0,0,
2026-04-30 02:00:00,METAR LEZL 300200Z AUTO 17004KT 9000 FEW034 13/12 Q1015,0,4,0,9000,0,0,0,
2026-04-30 01:30:00,METAR LEZL 300130Z AUTO 17004KT 9000 FEW033 13/12 Q1015,0,4,0,9000,0,0,0,
2026-04-30 01:00:00,METAR LEZL 300100Z AUTO 18005KT 9000 OVC032 14/13 Q1015,0,5,0,9000,0,0,0,
2026-04-30 00:30:00,METAR LEZL 300030Z AUTO 17004KT 9000 FEW033 13/12 Q1015,0,4,0,9000,0,0,0,
2026-04-30 00:00:00,METAR LEZL 300000Z AUTO 18004KT 9000 NCD 14/12 Q1015,0,4,0,9000,0,0,0,
2026-04-29 23:30:00,METAR LEZL 292330Z AUTO 21003KT 150V250 CAVOK 14/11 Q1015,1,0,0,9999,0,0,0,
2026-04-29 23:00:00,METAR LEZL 292300Z 20003KT CAVOK 15/12 Q1015 NOSIG,1,0,0,9999,0,0,0,
2026-04-29 22:30:00,METAR LEZL 292230Z 21003KT 180V240 CAVOK 16/12 Q1015 NOSIG,1,0,0,9999,0,0,0,
2026-04-29 22:00:00,METAR LEZL 292200Z 21005KT 180V250 CAVOK 16/12 Q1015 NOSIG,1,0,0,9999,0,0,0,
2026-04-29 21:30:00,METAR LEZL 292130Z 22006KT CAVOK 16/12 Q1014 NOSIG,1,0,0,9999,0,0,0,
2026-04-29 21:00:00,METAR LEZL 292100Z 24007KT 210V280 9999 FEW045 17/12 Q1014 NOSIG,0,7,0,10000,0,0,0,
2026-04-29 20:30:00,METAR LEZL 292030Z 23006KT 200V270 9999 FEW045 17/12 Q1013 NOSIG,0,6,0,10000,0,0,0,
2026-04-29 20:00:00,METAR LEZL 292000Z 23008KT 200V260 9999 FEW045 18/12 Q1013 NOSIG,0,8,0,10000,0,0,0,
2026-04-29 19:30:00,METAR LEZL 291930Z 23009KT 9999 FEW045 18/12 Q1012 NOSIG,0,9,0,10000,0,0,0,
2026-04-29 19:00:00,METAR LEZL 291900Z 22008KT 190V250 9999 FEW045 19/12 Q1011 NOSIG,0,8,0,10000,0,0,0,
2026-04-29 18:30:00,METAR LEZL 291830Z 22010KT 190V250 9999 FEW040 20/13 Q1011 NOSIG,0,10,0,10000,0,0,0,
2026-04-29 18:00:00,METAR LEZL 291800Z 22011KT 9999 FEW040 20/13 Q1011 NOSIG,0,11,0,10000,0,0,0,
2026-04-29 17:30:00,METAR LEZL 291730Z 22010KT 190V260 9999 FEW035 19/13 Q1011 NOSIG,0,10,0,10000,0,0,0,
2026-04-29 17:00:00,METAR LEZL 291700Z 22011KT 180V250 9999 FEW030 20/14 Q1011 NOSIG,0,11,0,10000,0,0,0,
2026-04-29 16:30:00,METAR LEZL 291630Z 22011KT 9999 FEW035 20/14 Q1010 NOSIG,0,11,0,10000,0,0,0,
2026-04-29 16:00:00,METAR LEZL 291600Z 21010KT 160V250 9999 FEW030 21/15 Q1010 NOSIG,0,10,0,10000,0,0,0,
2026-04-29 15:30:00,METAR LEZL 291530Z 22011KT 180V270 9999 FEW025 21/15 Q1010 NOSIG,0,11,0,10000,0,0,0,
2026-04-29 15:00:00,METAR LEZL 291500Z 22010KT 170V250 9999 FEW027 20/15 Q1010 NOSIG,0,10,0,10000,0,0,0,
2026-04-29 14:30:00,METAR LEZL 291430Z 22012KT 190V250 9999 FEW027 BKN041 19/16 Q1011 NOSIG,0,12,0,10000,0,0,0,
2026-04-29 14:00:00,METAR LEZL 291400Z 22011KT 9999 FEW027 SCT041 21/15 Q1010 NOSIG,0,11,0,10000,0,0,0,
2026-04-29 13:30:00,METAR LEZL 291330Z 22011KT 190V260 9999 FEW015 BKN030 20/15 Q1010 NOSIG,0,11,0,10000,0,0,0,
2026-04-29 13:00:00,METAR LEZL 291300Z 21009KT 160V250 9999 FEW015 BKN030 20/17 Q1010 NOSIG,0,9,0,10000,0,0,0,
2026-04-29 12:30:00,METAR LEZL 291230Z 22009KT 9999 SCT027 BKN034 BKN046 19/16 Q1011 NOSIG,0,9,0,10000,0,0,0,
2026-04-29 12:00:00,METAR LEZL 291200Z 22007KT 180V250 9000 SCT010 SCT025 BKN030 18/17 Q1011 NOSIG,0,7,0,9000,0,0,0,
2026-04-29 11:30:00,METAR LEZL 291130Z 22009KT 9000 BKN010 BKN015 BKN025 18/17 Q1011 NOSIG,0,9,0,9000,0,0,0,
2026-04-29 11:00:00,METAR LEZL 291100Z 23008KT 190V280 9000 BKN010 BKN015 BKN025 18/17 Q1011 NOSIG,0,8,0,9000,0,0,0,
2026-04-29 10:40:00,SPECI LEZL 291040Z 22009KT 200V260 6000 -DZ SCT010 BKN015 BKN030 18/17 Q1011 NOSIG,0,9,0,6000,0,0,0,DZ
2026-04-29 10:30:00,METAR LEZL 291030Z 21009KT 170V260 4500 -DZ BKN010 BKN015 BKN020 17/16 Q1011 NOSIG,0,9,0,4500,0,0,0,DZ
2026-04-29 10:07:00,SPECI LEZL 291007Z 21007KT 140V240 4000 -RA BKN010 BKN015 BKN030 18/17 Q1010 NOSIG,0,7,0,4000,0,0,0,-RA
2026-04-29 10:00:00,METAR LEZL 291000Z 22009KT 7000 BKN010 BKN015 BKN030 18/17 Q1010 NOSIG,0,9,0,7000,0,0,0,
2026-04-29 09:30:00,METAR LEZL 290930Z 21008KT 140V260 7000 SCT011 SCT023 BKN029 18/17 Q1010 NOSIG,0,8,0,7000,0,0,0,
2026-04-29 09:00:00,METAR LEZL 290900Z 20007KT 150V240 7000 SCT010 BKN018 OVC023 18/17 Q1010 NOSIG,0,7,0,7000,0,0,0,
2026-04-29 08:30:00,METAR LEZL 290830Z 19009KT 150V240 8000 SCT010 BKN015 OVC020 18/17 Q1010 NOSIG,0,9,0,8000,0,0,0,
2026-04-29 08:00:00,METAR LEZL 290800Z 19007KT 160V240 6000 SCT010 BKN015 OVC020 18/17 Q1010 NOSIG,0,7,0,6000,0,0,0,
2026-04-29 07:40:00,SPECI LEZL 290740Z 18007KT 150V210 4000 -RA BKN005 BKN010 OVC045 17/17 Q1010 NOSIG,0,7,0,4000,0,0,0,-RA
2026-04-29 07:30:00,METAR LEZL 290730Z 19005KT 150V230 7000 -RA BKN010 BKN020 OVC045 17/17 Q1010 NOSIG,0,5,0,7000,0,0,0,-RA
2026-04-29 07:17:00,SPECI LEZL 290717Z 19004KT 150V240 8000 BKN010 BKN020 OVC045 18/17 Q1010 NOSIG,0,4,0,8000,0,0,0,
2026-04-29 07:00:00,METAR LEZL 290700Z 19004KT 150V240 9000 FEW010 OVC020 17/17 Q1010 NOSIG,0,4,0,9000,0,0,0,
2026-04-29 06:30:00,METAR LEZL 290630Z 23006KT 200V270 5000 -RA BKN005 OVC020 17/17 Q1009 NOSIG,0,6,0,5000,0,0,0,-RA
2026-04-29 06:00:00,METAR LEZL 290600Z 22006KT 170V240 5000 -DZ BKN005 OVC015 17/17 Q1009 REDZ NOSIG,0,6,0,5000,0,0,0,DZ
2026-04-29 05:40:00,SPECI LEZL 290540Z 20005KT 150V240 3500 +DZ OVC005 17/17 Q1009 NOSIG,0,5,0,3500,0,0,0,DZ
2026-04-29 05:30:00,METAR LEZL 290530Z 19005KT 140V240 4500 DZ OVC005 17/17 Q1009 NOSIG,0,5,0,4500,0,0,0,DZ
2026-04-29 05:00:00,METAR LEZL 290500Z 18007KT 140V210 4500 DZ BKN010 17/16 Q1009 NOSIG,0,7,0,4500,0,0,0,DZ
2026-04-29 04:30:00,METAR LEZL 290430Z 18009KT 150V220 9000 BKN015 18/16 Q1009 NOSIG,0,9,0,9000,0,0,0,
2026-04-29 04:00:00,METAR LEZL 290400Z 18007KT 140V210 9999 SCT015 OVC040 18/16 Q1009 NOSIG,0,7,0,10000,0,0,0,
2026-04-29 03:30:00,METAR LEZL 290330Z 18008KT 9999 OVC040 18/16 Q1009 NOSIG,0,8,0,10000,0,0,0,
2026-04-29 03:00:00,METAR LEZL 290300Z AUTO 18006KT 150V210 7000 SCT035 OVC042 18/16 Q1009,0,6,0,7000,0,0,0,
2026-04-29 02:30:00,METAR LEZL 290230Z AUTO 17006KT 140V210 9000 OVC032 18/17 Q1009,0,6,0,9000,0,0,0,
2026-04-29 02:00:00,METAR LEZL 290200Z AUTO 21004KT 160V250 7000 SCT013 BKN020 OVC031 18/17 Q1009,0,4,0,7000,0,0,0,
2026-04-29 01:30:00,METAR LEZL 290130Z AUTO 19005KT 140V220 8000 SCT018 OVC025 18/16 Q1009,0,5,0,8000,0,0,0,
2026-04-29 01:00:00,METAR LEZL 290100Z AUTO 21007KT 160V270 9000 BKN019 OVC026 19/16 Q1009,0,7,0,9000,0,0,0,
2026-04-29 00:30:00,METAR LEZL 290030Z AUTO 22005KT 180V260 9999 BKN021 BKN027 OVC043 19/16 Q1010,0,5,0,10000,0,0,0,
2026-04-29 00:00:00,METAR LEZL 290000Z AUTO 22003KT 190V250 9000 BKN024 BKN041 19/16 Q1010,0,3,0,9000,0,0,0,
2026-04-28 23:30:00,METAR LEZL 282330Z AUTO 21003KT 170V250 9000 BKN024 19/16 Q1010,0,3,0,9000,0,0,0,
2026-04-28 23:00:00,METAR LEZL 282300Z VRB02KT 9999 FEW020 18/16 Q1010 NOSIG,0,2,0,10000,0,0,0,
2026-04-28 22:30:00,METAR LEZL 282230Z VRB02KT 9999 FEW020 19/16 Q1010 NOSIG,0,2,0,10000,0,0,0,
2026-04-28 22:00:00,METAR LEZL 282200Z 24003KT 190V280 9999 FEW020 19/16 Q1010 NOSIG,0,3,0,10000,0,0,0,
2026-04-28 21:30:00,METAR LEZL 282130Z 24006KT 220V290 9999 FEW040 20/16 Q1010 NOSIG,0,6,0,10000,0,0,0,
2026-04-28 21:00:00,METAR LEZL 282100Z 24006KT 220V280 9999 FEW030 BKN040 20/16 Q1010 NOSIG,0,6,0,10000,0,0,0,
2026-04-28 20:30:00,METAR LEZL 282030Z 26006KT 220V290 9999 FEW020 SCT030 20/16 Q1010 NOSIG,0,6,0,10000,0,0,0,
2026-04-28 20:00:00,METAR LEZL 282000Z 26007KT 9999 FEW020 SCT040 20/16 Q1009 NOSIG,0,7,0,10000,0,0,0,
2026-04-28 19:30:00,METAR LEZL 281930Z 24007KT 210V280 9999 BKN020 20/16 Q1009 NOSIG,0,7,0,10000,0,0,0,
2026-04-28 19:00:00,METAR LEZL 281900Z 25009KT 210V280 9999 SCT020 20/16 Q1009 NOSIG,0,9,0,10000,0,0,0,
2026-04-28 18:30:00,METAR LEZL 281830Z 25010KT 9999 BKN025 BKN035 21/16 Q1009 NOSIG,0,10,0,10000,0,0,0,
2026-04-28 18:00:00,METAR LEZL 281800Z 25010KT 210V280 9999 BKN025 BKN035 21/16 Q1009 NOSIG,0,10,0,10000,0,0,0,
2026-04-28 17:30:00,METAR LEZL 281730Z 26012KT 230V290 9999 SCT025 BKN035 22/16 Q1009 NOSIG,0,12,0,10000,0,0,0,
2026-04-28 17:00:00,METAR LEZL 281700Z 24012KT 210V270 9999 SCT030 BKN035 23/16 Q1008 NOSIG,0,12,0,10000,0,0,0,
2026-04-28 16:30:00,METAR LEZL 281630Z 24012KT 200V260 9999 FEW030 BKN040 23/17 Q1008 NOSIG,0,12,0,10000,0,0,0,
2026-04-28 16:00:00,METAR LEZL 281600Z 25011KT 190V280 9999 FEW025 BKN040 23/17 Q1008 NOSIG,0,11,0,10000,0,0,0,
2026-04-28 15:30:00,METAR LEZL 281530Z 26011KT 230V290 9999 BKN045 23/17 Q1009 NOSIG,0,11,0,10000,0,0,0,
2026-04-28 15:00:00,METAR LEZL 281500Z 26013KT 9999 BKN045 24/17 Q1009 NOSIG,0,13,0,10000,0,0,0,
2026-04-28 14:30:00,METAR LEZL 281430Z 22012KT 170V250 9999 SCT040 BKN049 25/15 Q1009 NOSIG,0,12,0,10000,0,0,0,
2026-04-28 14:00:00,METAR LEZL 281400Z 22012KT 170V250 9999 SCT045 26/15 Q1009 NOSIG,0,12,0,10000,0,0,0,
2026-04-28 13:30:00,METAR LEZL 281330Z 21009KT 160V250 9999 BKN045 27/15 Q1009 NOSIG,0,9,0,10000,0,0,0,
2026-04-28 13:00:00,METAR LEZL 281300Z 22008KT 170V270 9999 BKN049 26/15 Q1009 NOSIG,0,8,0,10000,0,0,0,
2026-04-28 12:30:00,METAR LEZL 281230Z 22007KT 140V270 9999 BKN049 26/15 Q1009 NOSIG,0,7,0,10000,0,0,0,
2026-04-28 12:00:00,METAR LEZL 281200Z 18008KT 110V230 9999 SCT049 27/14 Q1010 NOSIG,0,8,0,10000,0,0,0,
2026-04-28 11:30:00,METAR LEZL 281130Z 18009KT 130V230 9999 FEW049 26/14 Q1010 NOSIG,0,9,0,10000,0,0,0,
2026-04-28 11:00:00,METAR LEZL 281100Z 17009KT 110V230 CAVOK 26/14 Q1010 NOSIG,1,0,0,9999,0,0,0,
2026-04-28 10:30:00,METAR LEZL 281030Z 12002KT CAVOK 26/14 Q1010 NOSIG,1,0,0,9999,0,0,0,
2026-04-28 10:00:00,METAR LEZL 281000Z 05003KT 340V120 CAVOK 25/14 Q1010 NOSIG,1,0,0,9999,0,0,0,
2026-04-28 09:30:00,METAR LEZL 280930Z 03006KT 350V080 CAVOK 23/15 Q1010 NOSIG,1,0,0,9999,0,0,0,
2026-04-28 09:00:00,METAR LEZL 280900Z 03007KT CAVOK 22/15 Q1010 NOSIG,1,0,0,9999,0,0,0,
2026-04-28 08:30:00,METAR LEZL 280830Z 07006KT 030V100 CAVOK 21/14 Q1010 NOSIG,1,0,0,9999,0,0,0,
2026-04-28 08:00:00,METAR LEZL 280800Z 07009KT CAVOK 20/14 Q1010 NOSIG,1,0,0,9999,0,0,0,
2026-04-28 07:30:00,METAR LEZL 280730Z 05006KT CAVOK 19/15 Q1010 NOSIG,1,0,0,9999,0,0,0,
2026-04-28 07:00:00,METAR LEZL 280700Z 03004KT 330V060 CAVOK 17/15 Q1010 NOSIG,1,0,0,9999,0,0,0,
2026-04-28 06:30:00,METAR LEZL 280630Z 01004KT 330V070 CAVOK 17/14 Q1010 NOSIG,1,0,0,9999,0,0,0,
2026-04-28 06:00:00,METAR LEZL 280600Z VRB01KT CAVOK 16/14 Q1010 NOSIG,1,0,0,9999,0,0,0,
2026-04-28 05:30:00,METAR LEZL 280530Z 01004KT 320V050 CAVOK 17/14 Q1009 NOSIG,1,0,0,9999,0,0,0,
2026-04-28 05:00:00,METAR LEZL 280500Z 06003KT 010V090 CAVOK 17/14 Q1010 NOSIG,1,0,0,9999,0,0,0,
2026-04-28 04:30:00,METAR LEZL 280430Z 03005KT CAVOK 17/14 Q1009 NOSIG,1,0,0,9999,0,0,0,
2026-04-28 04:00:00,METAR LEZL 280400Z 36003KT CAVOK 17/14 Q1010 NOSIG,1,0,0,9999,0,0,0,
2026-04-28 03:30:00,METAR LEZL 280330Z 14003KT CAVOK 17/14 Q1010 NOSIG,1,0,0,9999,0,0,0,
2026-04-28 03:00:00,METAR LEZL 280300Z AUTO 22005KT CAVOK 18/14 Q1010,1,0,0,9999,0,0,0,
2026-04-28 02:30:00,METAR LEZL 280230Z AUTO 21003KT 170V230 9000 NSC 16/14 Q1010,0,3,0,9000,0,0,0,
2026-04-28 02:00:00,METAR LEZL 280200Z AUTO 00000KT CAVOK 17/14 Q1010,1,0,0,9999,0,0,0,
2026-04-28 01:30:00,METAR LEZL 280130Z AUTO VRB02KT CAVOK 17/14 Q1010,1,0,0,9999,0,0,0,
2026-04-28 01:00:00,METAR LEZL 280100Z AUTO 14003KT CAVOK 17/14 Q1010,1,0,0,9999,0,0,0,
2026-04-28 00:30:00,METAR LEZL 280030Z AUTO VRB02KT CAVOK 18/14 Q1010,1,0,0,9999,0,0,0,
2026-04-28 00:00:00,METAR LEZL 280000Z AUTO 19005KT 150V210 CAVOK 19/15 Q1011,1,0,0,9999,0,0,0,
2026-04-27 23:30:00,METAR LEZL 272330Z AUTO 12004KT CAVOK 18/15 Q1011,1,0,0,9999,0,0,0,
2026-04-27 23:00:00,METAR LEZL 272300Z 11004KT 080V160 CAVOK 18/15 Q1011 NOSIG,1,0,0,9999,0,0,0,
2026-04-27 22:30:00,METAR LEZL 272230Z VRB01KT CAVOK 21/14 Q1010 NOSIG,1,0,0,9999,0,0,0,
2026-04-27 22:00:00,METAR LEZL 272200Z 26003KT 220V280 CAVOK 21/14 Q1010 NOSIG,1,0,0,9999,0,0,0,
2026-04-27 21:30:00,METAR LEZL 272130Z 19005KT 140V220 CAVOK 22/14 Q1010 NOSIG,1,0,0,9999,0,0,0,
2026-04-27 21:00:00,METAR LEZL 272100Z 18006KT CAVOK 23/14 Q1010 NOSIG,1,0,0,9999,0,0,0,
2026-04-27 20:30:00,METAR LEZL 272030Z 19004KT 160V230 CAVOK 23/14 Q1010 NOSIG,1,0,0,9999,0,0,0,
2026-04-27 20:00:00,METAR LEZL 272000Z 18008KT 150V230 CAVOK 25/14 Q1009 NOSIG,1,0,0,9999,0,0,0,
2026-04-27 19:30:00,METAR LEZL 271930Z 10006KT 070V130 CAVOK 23/14 Q1009 NOSIG,1,0,0,9999,0,0,0,
2026-04-27 19:00:00,METAR LEZL 271900Z 09005KT CAVOK 25/14 Q1009 NOSIG,1,0,0,9999,0,0,0,
2026-04-27 18:30:00,METAR LEZL 271830Z 07005KT CAVOK 26/14 Q1009 NOSIG,1,0,0,9999,0,0,0,
2026-04-27 18:00:00,METAR LEZL 271800Z 10008KT CAVOK 27/14 Q1009 NOSIG,1,0,0,9999,0,0,0,
2026-04-27 17:30:00,METAR LEZL 271730Z 10008KT 080V140 CAVOK 27/13 Q1009 NOSIG,1,0,0,9999,0,0,0,
2026-04-27 17:00:00,METAR LEZL 271700Z 10007KT 030V150 CAVOK 28/13 Q1009 NOSIG,1,0,0,9999,0,0,0,
2026-04-27 16:30:00,METAR LEZL 271630Z 09006KT 060V120 CAVOK 28/13 Q1009 NOSIG,1,0,0,9999,0,0,0,
2026-04-27 16:00:00,METAR LEZL 271600Z 09007KT 050V140 CAVOK 29/13 Q1009 NOSIG,1,0,0,9999,0,0,0,
2026-04-27 15:30:00,METAR LEZL 271530Z 09008KT 050V150 CAVOK 29/13 Q1010 NOSIG,1,0,0,9999,0,0,0,
2026-04-27 15:00:00,METAR LEZL 271500Z 10009KT 050V150 CAVOK 29/13 Q1010 NOSIG,1,0,0,9999,0,0,0,
2026-04-27 14:30:00,METAR LEZL 271430Z 10008KT 040V180 CAVOK 28/13 Q1011 NOSIG,1,0,0,9999,0,0,0,
2026-04-27 14:00:00,METAR LEZL 271400Z 07010KT 040V100 CAVOK 29/13 Q1011 NOSIG,1,0,0,9999,0,0,0,
2026-04-27 13:30:00,METAR LEZL 271330Z 08010KT 040V150 CAVOK 28/13 Q1011 NOSIG,1,0,0,9999,0,0,0,
2026-04-27 13:00:00,METAR LEZL 271300Z 09011KT 050V130 CAVOK 28/14 Q1012 NOSIG,1,0,0,9999,0,0,0,
2026-04-27 12:30:00,METAR LEZL 271230Z 10015KT 070V150 CAVOK 27/13 Q1012 NOSIG,1,0,0,9999,0,0,0,
2026-04-27 12:00:00,METAR LEZL 271200Z 09013KT 060V140 CAVOK 27/13 Q1012 NOSIG,1,0,0,9999,0,0,0,
2026-04-27 11:30:00,METAR LEZL 271130Z 09015KT 050V140 CAVOK 26/13 Q1013 NOSIG,1,0,0,9999,0,0,0,
2026-04-27 11:00:00,METAR LEZL 271100Z 09015KT 060V120 CAVOK 26/13 Q1013 NOSIG,1,0,0,9999,0,0,0,
2026-04-27 10:30:00,METAR LEZL 271030Z 08013G24KT 050V130 CAVOK 25/13 Q1013 NOSIG,1,0,0,9999,0,0,0,
2026-04-27 10:00:00,METAR LEZL 271000Z 08013KT 050V110 CAVOK 25/14 Q1014 NOSIG,1,0,0,9999,0,0,0,
2026-04-27 09:30:00,METAR LEZL 270930Z 08013KT 060V140 CAVOK 24/14 Q1014 NOSIG,1,0,0,9999,0,0,0,
2026-04-27 09:00:00,METAR LEZL 270900Z 07012KT CAVOK 23/14 Q1014 NOSIG,1,0,0,9999,0,0,0,
2026-04-27 08:30:00,METAR LEZL 270830Z 05010KT 030V100 CAVOK 21/14 Q1014 NOSIG,1,0,0,9999,0,0,0,
2026-04-27 08:00:00,METAR LEZL 270800Z 05010KT CAVOK 20/13 Q1014 NOSIG,1,0,0,9999,0,0,0,
2026-04-27 07:30:00,METAR LEZL 270730Z 05009KT CAVOK 19/13 Q1014 NOSIG,1,0,0,9999,0,0,0,
2026-04-27 07:00:00,METAR LEZL 270700Z 04007KT CAVOK 18/13 Q1014 NOSIG,1,0,0,9999,0,0,0,
2026-04-27 06:30:00,METAR LEZL 270630Z 05011KT CAVOK 17/13 Q1014 NOSIG,1,0,0,9999,0,0,0,
2026-04-27 06:00:00,METAR LEZL 270600Z 05009KT CAVOK 17/13 Q1013 NOSIG,1,0,0,9999,0,0,0,
2026-04-27 05:30:00,METAR LEZL 270530Z 05008KT CAVOK 16/13 Q1013 NOSIG,1,0,0,9999,0,0,0,
2026-04-27 05:00:00,METAR LEZL 270500Z 05007KT CAVOK 16/13 Q1013 NOSIG,1,0,0,9999,0,0,0,
2026-04-27 04:30:00,METAR LEZL 270430Z 06007KT CAVOK 16/13 Q1013 NOSIG,1,0,0,9999,0,0,0,
2026-04-27 04:00:00,METAR LEZL 270400Z 06005KT CAVOK 16/12 Q1014 NOSIG,1,0,0,9999,0,0,0,
2026-04-27 03:30:00,METAR LEZL 270330Z 07007KT CAVOK 17/12 Q1014 NOSIG,1,0,0,9999,0,0,0,
2026-04-27 03:00:00,METAR LEZL 270300Z AUTO 06008KT CAVOK 17/12 Q1014,1,0,0,9999,0,0,0,
2026-04-27 02:30:00,METAR LEZL 270230Z AUTO 07008KT CAVOK 17/11 Q1014,1,0,0,9999,0,0,0,
2026-04-27 02:00:00,METAR LEZL 270200Z AUTO 07005KT CAVOK 16/12 Q1014,1,0,0,9999,0,0,0,
2026-04-27 01:30:00,METAR LEZL 270130Z AUTO 08005KT CAVOK 17/13 Q1015,1,0,0,9999,0,0,0,
2026-04-27 01:00:00,METAR LEZL 270100Z AUTO 09004KT CAVOK 17/13 Q1015,1,0,0,9999,0,0,0,
2026-04-27 00:30:00,METAR LEZL 270030Z AUTO 08004KT CAVOK 18/13 Q1015,1,0,0,9999,0,0,0,
2026-04-27 00:00:00,METAR LEZL 270000Z AUTO 14003KT CAVOK 18/13 Q1015,1,0,0,9999,0,0,0,
2026-04-26 23:30:00,METAR LEZL 262330Z AUTO 18004KT 140V210 9000 NSC 19/13 Q1015,0,4,0,9000,0,0,0,
2026-04-26 23:00:00,METAR LEZL 262300Z 17003KT CAVOK 19/13 Q1015 NOSIG,1,0,0,9999,0,0,0,
2026-04-26 22:30:00,METAR LEZL 262230Z 14004KT CAVOK 19/12 Q1015 NOSIG,1,0,0,9999,0,0,0,
2026-04-26 22:00:00,METAR LEZL 262200Z 13007KT CAVOK 20/12 Q1015 NOSIG,1,0,0,9999,0,0,0,
2026-04-26 21:30:00,METAR LEZL 262130Z 12007KT CAVOK 21/12 Q1015 NOSIG,1,0,0,9999,0,0,0,
2026-04-26 21:00:00,METAR LEZL 262100Z 12006KT CAVOK 21/13 Q1015 NOSIG,1,0,0,9999,0,0,0,
2026-04-26 20:30:00,METAR LEZL 262030Z 13005KT CAVOK 22/12 Q1014 NOSIG,1,0,0,9999,0,0,0,
2026-04-26 20:00:00,METAR LEZL 262000Z 09006KT CAVOK 23/13 Q1014 NOSIG,1,0,0,9999,0,0,0,
2026-04-26 19:30:00,METAR LEZL 261930Z 09006KT CAVOK 23/13 Q1014 NOSIG,1,0,0,9999,0,0,0,
2026-04-26 19:00:00,METAR LEZL 261900Z 10006KT CAVOK 24/13 Q1013 NOSIG,1,0,0,9999,0,0,0,
2026-04-26 18:30:00,METAR LEZL 261830Z 10006KT 070V140 CAVOK 26/13 Q1013 NOSIG,1,0,0,9999,0,0,0,
2026-04-26 18:00:00,METAR LEZL 261800Z 11008KT 070V160 CAVOK 27/13 Q1013 NOSIG,1,0,0,9999,0,0,0,
2026-04-26 17:30:00,METAR LEZL 261730Z 11008KT 070V150 CAVOK 27/12 Q1013 NOSIG,1,0,0,9999,0,0,0,
2026-04-26 17:00:00,METAR LEZL 261700Z 09008KT 050V150 CAVOK 27/12 Q1013 NOSIG,1,0,0,9999,0,0,0,
2026-04-26 16:30:00,METAR LEZL 261630Z 09009KT 050V150 CAVOK 28/13 Q1013 NOSIG,1,0,0,9999,0,0,0,
2026-04-26 16:00:00,METAR LEZL 261600Z 10011KT 060V140 CAVOK 28/13 Q1013 WS ALL RWY NOSIG,1,0,0,9999,0,0,0,
2026-04-26 15:30:00,METAR LEZL 261530Z 09009KT 060V140 CAVOK 28/12 Q1013 WS ALL RWY NOSIG,1,0,0,9999,0,0,0,
2026-04-26 15:00:00,METAR LEZL 261500Z 08011KT 050V160 CAVOK 27/13 Q1014 WS ALL RWY NOSIG,1,0,0,9999,0,0,0,
2026-04-26 14:30:00,METAR LEZL 261430Z 11013KT 080V140 CAVOK 27/12 Q1014 WS ALL RWY NOSIG,1,0,0,9999,0,0,0,
2026-04-26 14:00:00,METAR LEZL 261400Z 10009KT 070V150 CAVOK 27/12 Q1014 NOSIG,1,0,0,9999,0,0,0,
2026-04-26 13:30:00,METAR LEZL 261330Z 08011KT 030V150 CAVOK 27/12 Q1015 NOSIG,1,0,0,9999,0,0,0,
2026-04-26 13:00:00,METAR LEZL 261300Z 09011KT 060V130 9999 FEW045 27/14 Q1015 NOSIG,0,11,0,10000,0,0,0,
2026-04-26 12:30:00,METAR LEZL 261230Z 09009KT 030V150 9999 FEW042 26/14 Q1015 NOSIG,0,9,0,10000,0,0,0,
2026-04-26 12:00:00,METAR LEZL 261200Z 08010KT 050V130 9999 FEW040 25/14 Q1015 NOSIG,0,10,0,10000,0,0,0,
2026-04-26 11:30:00,METAR LEZL 261130Z 09010KT 030V140 9999 FEW039 25/14 Q1016 NOSIG,0,10,0,10000,0,0,0,
2026-04-26 11:00:00,METAR LEZL 261100Z 08011KT 040V120 9999 FEW035 24/14 Q1016 NOSIG,0,11,0,10000,0,0,0,
2026-04-26 10:30:00,METAR LEZL 261030Z 07010KT 030V110 9999 FEW035 23/14 Q1016 NOSIG,0,10,0,10000,0,0,0,
2026-04-26 10:00:00,METAR LEZL 261000Z 07008KT 030V110 9999 FEW035 24/14 Q1016 NOSIG,0,8,0,10000,0,0,0,
2026-04-26 09:30:00,METAR LEZL 260930Z 06007KT 020V100 CAVOK 22/14 Q1016 NOSIG,1,0,0,9999,0,0,0,
2026-04-26 09:00:00,METAR LEZL 260900Z 05006KT 020V080 9999 FEW040 21/15 Q1016 NOSIG,0,6,0,10000,0,0,0,
2026-04-26 08:30:00,METAR LEZL 260830Z 04006KT 350V090 9999 FEW035 21/16 Q1017 NOSIG,0,6,0,10000,0,0,0,
2026-04-26 08:00:00,METAR LEZL 260800Z 02005KT 340V070 9999 BKN035 19/16 Q1016 NOSIG,0,5,0,10000,0,0,0,
2026-04-26 07:30:00,METAR LEZL 260730Z 03005KT 9000 BKN025 18/17 Q1016 NOSIG,0,5,0,9000,0,0,0,
2026-04-26 07:00:00,METAR LEZL 260700Z 04004KT 9000 BKN025 17/16 Q1016 NOSIG,0,4,0,9000,0,0,0,
2026-04-26 06:30:00,METAR LEZL 260630Z 36002KT 9000 FEW025 BKN040 17/16 Q1016 NOSIG,0,2,0,9000,0,0,0,
2026-04-26 06:00:00,METAR LEZL 260600Z 09002KT 9000 SCT025 BKN040 16/16 Q1016 NOSIG,0,2,0,9000,0,0,0,
2026-04-26 05:30:00,METAR LEZL 260530Z 10003KT 8000 BKN025 16/16 Q1016 NOSIG,0,3,0,8000,0,0,0,
2026-04-26 05:00:00,METAR LEZL 260500Z 10001KT CAVOK 16/15 Q1015 NOSIG,1,0,0,9999,0,0,0,
2026-04-26 04:30:00,METAR LEZL 260430Z 15002KT CAVOK 16/15 Q1015 NOSIG,1,0,0,9999,0,0,0,
2026-04-26 04:00:00,METAR LEZL 260400Z 14003KT CAVOK 16/16 Q1015 NOSIG,1,0,0,9999,0,0,0,
2026-04-26 03:30:00,METAR LEZL 260330Z 14002KT CAVOK 16/16 Q1015 NOSIG,1,0,0,9999,0,0,0,
2026-04-26 03:00:00,METAR LEZL 260300Z AUTO VRB01KT 8000 NSC 16/16 Q1015,0,1,0,8000,0,0,0,
2026-04-26 02:30:00,METAR LEZL 260230Z AUTO 16002KT 8000 NSC 16/15 Q1015,0,2,0,8000,0,0,0,
2026-04-26 02:00:00,METAR LEZL 260200Z AUTO 14003KT 9000 NSC 16/15 Q1015,0,3,0,9000,0,0,0,
2026-04-26 01:30:00,METAR LEZL 260130Z AUTO 14002KT CAVOK 16/15 Q1015,1,0,0,9999,0,0,0,
2026-04-26 01:00:00,METAR LEZL 260100Z AUTO 14003KT 9000 NSC 17/15 Q1015,0,3,0,9000,0,0,0,
2026-04-26 00:30:00,METAR LEZL 260030Z AUTO 14003KT CAVOK 16/15 Q1016,1,0,0,9999,0,0,0,
2026-04-26 00:00:00,METAR LEZL 260000Z AUTO 00000KT CAVOK 17/15 Q1016,1,0,0,9999,0,0,0,
2026-04-25 23:30:00,METAR LEZL 252330Z AUTO 00000KT 9000 NCD 17/15 Q1016,0,0,0,9000,0,0,0,
2026-04-25 23:00:00,METAR LEZL 252300Z 26003KT 210V300 CAVOK 18/15 Q1016 NOSIG,1,0,0,9999,0,0,0,
2026-04-25 22:30:00,METAR LEZL 252230Z 34003KT CAVOK 18/16 Q1016 NOSIG,1,0,0,9999,0,0,0,
2026-04-25 22:00:00,METAR LEZL 252200Z VRB01KT CAVOK 19/15 Q1016 NOSIG,1,0,0,9999,0,0,0,
2026-04-25 21:30:00,METAR LEZL 252130Z 25004KT CAVOK 19/15 Q1016 NOSIG,1,0,0,9999,0,0,0,
2026-04-25 21:00:00,METAR LEZL 252100Z 25003KT 220V280 CAVOK 19/15 Q1016 NOSIG,1,0,0,9999,0,0,0,
2026-04-25 20:30:00,METAR LEZL 252030Z 24006KT 9999 FEW049 20/15 Q1015 NOSIG,0,6,0,10000,0,0,0,
2026-04-25 20:00:00,METAR LEZL 252000Z 24006KT 9999 FEW049 20/16 Q1015 NOSIG,0,6,0,10000,0,0,0,
2026-04-25 19:30:00,METAR LEZL 251930Z 22008KT 9999 FEW049 21/16 Q1015 NOSIG,0,8,0,10000,0,0,0,
2026-04-25 19:00:00,METAR LEZL 251900Z 22006KT 9999 FEW040 22/16 Q1014 NOSIG,0,6,0,10000,0,0,0,
2026-04-25 18:30:00,METAR LEZL 251830Z 19004KT 150V250 9999 FEW045 23/16 Q1014 NOSIG,0,4,0,10000,0,0,0,
2026-04-25 18:00:00,METAR LEZL 251800Z 20005KT 150V250 9999 FEW045 23/16 Q1014 NOSIG,0,5,0,10000,0,0,0,
2026-04-25 17:30:00,METAR LEZL 251730Z 22006KT 180V250 9999 SCT045 24/16 Q1014 NOSIG,0,6,0,10000,0,0,0,
2026-04-25 17:00:00,METAR LEZL 251700Z 22008KT 9999 SCT045 24/16 Q1014 NOSIG,0,8,0,10000,0,0,0,
2026-04-25 16:30:00,METAR LEZL 251630Z 16006KT 090V200 9999 SCT045 24/15 Q1014 NOSIG,0,6,0,10000,0,0,0,
2026-04-25 16:00:00,METAR LEZL 251600Z 21002KT 9999 SCT049 25/14 Q1014 NOSIG,0,2,0,10000,0,0,0,
2026-04-25 15:30:00,METAR LEZL 251530Z 17002KT 9999 FEW040 25/13 Q1014 NOSIG,0,2,0,10000,0,0,0,
2026-04-25 15:00:00,METAR LEZL 251500Z 01002KT 9999 FEW030 25/15 Q1014 NOSIG,0,2,0,10000,0,0,0,
2026-04-25 14:30:00,METAR LEZL 251430Z 05002KT 9999 FEW040 24/15 Q1014 NOSIG,0,2,0,10000,0,0,0,
2026-04-25 14:00:00,METAR LEZL 251400Z VRB02KT 9999 FEW040 23/15 Q1015 NOSIG,0,2,0,10000,0,0,0,
2026-04-25 13:30:00,METAR LEZL 251330Z 11007KT 060V170 9999 FEW030 23/15 Q1015 NOSIG,0,7,0,10000,0,0,0,
2026-04-25 13:00:00,METAR LEZL 251300Z 07003KT 020V120 9999 FEW030 23/16 Q1015 NOSIG,0,3,0,10000,0,0,0,
2026-04-25 12:30:00,METAR LEZL 251230Z 06004KT 320V100 9999 SCT040 23/15 Q1015 NOSIG,0,4,0,10000,0,0,0,
2026-04-25 12:00:00,METAR LEZL 251200Z 05002KT 9999 FEW030 BKN048 22/16 Q1015 NOSIG,0,2,0,10000,0,0,0,
2026-04-25 11:30:00,METAR LEZL 251130Z 36005KT 250V050 9999 FEW020 BKN030 21/16 Q1016 NOSIG,0,5,0,10000,0,0,0,
2026-04-25 11:00:00,METAR LEZL 251100Z 28002KT 9999 FEW025 BKN035 22/16 Q1016 NOSIG,0,2,0,10000,0,0,0,
2026-04-25 10:30:00,METAR LEZL 251030Z 25001KT 9999 FEW020 BKN025 21/16 Q1016 NOSIG,0,1,0,10000,0,0,0,
2026-04-25 10:00:00,METAR LEZL 251000Z 19001KT 9999 BKN020 21/16 Q1016 NOSIG,0,1,0,10000,0,0,0,
2026-04-25 09:30:00,METAR LEZL 250930Z 20003KT 9999 SCT015 BKN020 20/16 Q1016 NOSIG,0,3,0,10000,0,0,0,
2026-04-25 09:00:00,METAR LEZL 250900Z 19003KT 120V260 9999 SCT015 19/16 Q1016 NOSIG,0,3,0,10000,0,0,0,
2026-04-25 08:30:00,METAR LEZL 250830Z 19001KT 9999 SCT010 19/16 Q1016 NOSIG,0,1,0,10000,0,0,0,
2026-04-25 08:00:00,METAR LEZL 250800Z VRB02KT 9999 SCT010 18/16 Q1016 NOSIG,0,2,0,10000,0,0,0,
2026-04-25 07:30:00,METAR LEZL 250730Z VRB02KT 9999 -RA FEW010 18/17 Q1016 NOSIG,0,2,0,10000,0,0,0,-RA
2026-04-25 07:00:00,METAR LEZL 250700Z 00000KT 9000 -RA FEW008 SCT049 17/16 Q1016 NOSIG,0,0,0,9000,0,0,0,-RA
2026-04-25 06:30:00,METAR LEZL 250630Z 00000KT 8000 FEW005 SCT049 17/16 Q1016 NOSIG,0,0,0,8000,0,0,0,
2026-04-25 06:00:00,METAR LEZL 250600Z VRB01KT 6000 -RA FEW020 SCT049 17/16 Q1016 RERA NOSIG,0,1,0,6000,0,0,0,"-RA,RA"
2026-04-25 05:38:00,SPECI LEZL 250538Z 30005KT 280V340 5000 RA FEW020 SCT049 17/16 Q1016 NOSIG,0,5,0,5000,0,0,0,RA
2026-04-25 05:30:00,METAR LEZL 250530Z VRB02KT 7000 -RA FEW020 SCT045 17/16 Q1016 NOSIG,0,2,0,7000,0,0,0,-RA
2026-04-25 05:00:00,METAR LEZL 250500Z 09001KT 9999 FEW020 SCT049 17/17 Q1016 NOSIG,0,1,0,10000,0,0,0,
2026-04-25 04:30:00,METAR LEZL 250430Z 19002KT 9999 FEW015 17/16 Q1016 NOSIG,0,2,0,10000,0,0,0,
2026-04-25 04:00:00,METAR LEZL 250400Z 15003KT 120V190 9999 FEW015 17/16 Q1016 NOSIG,0,3,0,10000,0,0,0,
2026-04-25 03:30:00,METAR LEZL 250330Z 14003KT 9999 -RA FEW015 17/16 Q1016 NOSIG,0,3,0,10000,0,0,0,-RA
2026-04-25 03:00:00,METAR LEZL 250300Z AUTO 11002KT 9999 -RA FEW015 17/16 Q1016,0,2,0,10000,0,0,0,-RA
2026-04-25 02:30:00,METAR LEZL 250230Z AUTO VRB02KT 9000 -RA SCT016 BKN044 17/16 Q1016,0,2,0,9000,0,0,0,-RA
2026-04-25 02:00:00,METAR LEZL 250200Z AUTO VRB02KT 9999 -RA BKN040 18/16 Q1017,0,2,0,10000,0,0,0,-RA
2026-04-25 01:30:00,METAR LEZL 250130Z AUTO 00000KT 9999 -RA SCT038 BKN044 17/16 Q1017,0,0,0,10000,0,0,0,-RA
2026-04-25 01:00:00,METAR LEZL 250100Z AUTO 00000KT 9999 -RA SCT035 BKN043 18/16 Q1017,0,0,0,10000,0,0,0,-RA
2026-04-25 00:30:00,METAR LEZL 250030Z AUTO 28003KT 9999 -RA NSC 18/16 Q1018,0,3,0,10000,0,0,0,-RA
2026-04-25 00:00:00,METAR LEZL 250000Z AUTO 30005KT 9999 -RA FEW022 SCT040 18/16 Q1018,0,5,0,10000,0,0,0,-RA
2026-04-24 23:30:00,METAR LEZL 242330Z AUTO 33003KT 280V030 9999 -RA FEW020 BKN037 19/16 Q1018,0,3,0,10000,0,0,0,-RA
2026-04-24 23:00:00,METAR LEZL 242300Z 26004KT 9999 FEW020 19/15 Q1018 NOSIG,0,4,0,10000,0,0,0,
2026-04-24 22:30:00,METAR LEZL 242230Z 26006KT 9999 -DZ FEW020 19/15 Q1018 NOSIG,0,6,0,10000,0,0,0,DZ
2026-04-24 22:00:00,METAR LEZL 242200Z 24005KT 9999 FEW040 19/15 Q1018 NOSIG,0,5,0,10000,0,0,0,
2026-04-24 21:30:00,METAR LEZL 242130Z 23006KT 200V260 9999 FEW040 19/15 Q1018 NOSIG,0,6,0,10000,0,0,0,
2026-04-24 21:00:00,METAR LEZL 242100Z 23006KT 200V270 CAVOK 20/15 Q1018 NOSIG,1,0,0,9999,0,0,0,
2026-04-24 20:30:00,METAR LEZL 242030Z 24008KT 210V270 CAVOK 20/15 Q1017 NOSIG,1,0,0,9999,0,0,0,
2026-04-24 20:00:00,METAR LEZL 242000Z 24007KT CAVOK 20/15 Q1017 NOSIG,1,0,0,9999,0,0,0,
2026-04-24 19:30:00,METAR LEZL 241930Z 23010KT CAVOK 21/15 Q1016 NOSIG,1,0,0,9999,0,0,0,
2026-04-24 19:00:00,METAR LEZL 241900Z 24009KT 9999 FEW040 22/15 Q1016 NOSIG,0,9,0,10000,0,0,0,
2026-04-24 18:30:00,METAR LEZL 241830Z 22007KT CAVOK 24/12 Q1015 NOSIG,1,0,0,9999,0,0,0,
2026-04-24 18:00:00,METAR LEZL 241800Z 21005KT 160V260 9999 FEW048 24/12 Q1015 NOSIG,0,5,0,10000,0,0,0,
2026-04-24 17:30:00,METAR LEZL 241730Z 26002KT 9999 FEW048 24/12 Q1015 NOSIG,0,2,0,10000,0,0,0,
2026-04-24 17:00:00,METAR LEZL 241700Z 20004KT 080V250 9999 FEW048 24/12 Q1015 NOSIG,0,4,0,10000,0,0,0,
2026-04-24 16:30:00,METAR LEZL 241630Z 16001KT 9999 FEW048 25/13 Q1015 NOSIG,0,1,0,10000,0,0,0,
2026-04-24 16:00:00,METAR LEZL 241600Z 35002KT 9999 FEW048 25/13 Q1015 NOSIG,0,2,0,10000,0,0,0,
2026-04-24 15:30:00,METAR LEZL 241530Z 31002KT 9999 FEW048 25/13 Q1015 NOSIG,0,2,0,10000,0,0,0,
2026-04-24 15:00:00,METAR LEZL 241500Z 15003KT 100V220 9999 SCT048 24/13 Q1016 NOSIG,0,3,0,10000,0,0,0,
2026-04-24 14:30:00,METAR LEZL 241430Z 02003KT 320V110 9999 SCT048 24/12 Q1016 NOSIG,0,3,0,10000,0,0,0,
2026-04-24 14:00:00,METAR LEZL 241400Z 34002KT 9999 SCT045 23/12 Q1016 NOSIG,0,2,0,10000,0,0,0,
2026-04-24 13:30:00,METAR LEZL 241330Z 04003KT 9999 FEW040 24/13 Q1016 NOSIG,0,3,0,10000,0,0,0,
2026-04-24 13:00:00,METAR LEZL 241300Z 08002KT 9999 FEW040 24/12 Q1016 NOSIG,0,2,0,10000,0,0,0,
2026-04-24 12:30:00,METAR LEZL 241230Z 06003KT 9999 FEW040 23/13 Q1017 NOSIG,0,3,0,10000,0,0,0,
2026-04-24 12:00:00,METAR LEZL 241200Z 17003KT 9999 FEW040 22/13 Q1017 NOSIG,0,3,0,10000,0,0,0,
2026-04-24 11:30:00,METAR LEZL 241130Z VRB02KT 9999 FEW035 23/13 Q1017 NOSIG,0,2,0,10000,0,0,0,
2026-04-24 11:00:00,METAR LEZL 241100Z 10004KT 9999 FEW030 22/13 Q1017 NOSIG,0,4,0,10000,0,0,0,
2026-04-24 10:30:00,METAR LEZL 241030Z 07003KT 9999 FEW030 21/13 Q1017 NOSIG,0,3,0,10000,0,0,0,
2026-04-24 10:00:00,METAR LEZL 241000Z VRB04KT CAVOK 20/13 Q1018 NOSIG,1,0,0,9999,0,0,0,
2026-04-24 09:30:00,METAR LEZL 240930Z 07003KT 010V140 CAVOK 21/13 Q1017 NOSIG,1,0,0,9999,0,0,0,
2026-04-24 09:00:00,METAR LEZL 240900Z 06003KT 360V120 CAVOK 19/13 Q1017 NOSIG,1,0,0,9999,0,0,0,
2026-04-24 08:30:00,METAR LEZL 240830Z 08004KT 040V120 CAVOK 19/13 Q1017 NOSIG,1,0,0,9999,0,0,0,
2026-04-24 08:00:00,METAR LEZL 240800Z 08003KT CAVOK 18/13 Q1017 NOSIG,1,0,0,9999,0,0,0,
2026-04-24 07:30:00,METAR LEZL 240730Z VRB02KT CAVOK 17/14 Q1017 NOSIG,1,0,0,9999,0,0,0,
2026-04-24 07:00:00,METAR LEZL 240700Z VRB02KT CAVOK 17/13 Q1017 NOSIG,1,0,0,9999,0,0,0,
2026-04-24 06:30:00,METAR LEZL 240630Z 11003KT CAVOK 16/13 Q1016 NOSIG,1,0,0,9999,0,0,0,
2026-04-24 06:00:00,METAR LEZL 240600Z 12003KT 9999 FEW028 15/13 Q1016 NOSIG,0,3,0,10000,0,0,0,
2026-04-24 05:30:00,METAR LEZL 240530Z 11003KT 080V150 9999 FEW028 15/13 Q1016 NOSIG,0,3,0,10000,0,0,0,
2026-04-24 05:00:00,METAR LEZL 240500Z 11005KT 9999 FEW028 15/13 Q1015 NOSIG,0,5,0,10000,0,0,0,
2026-04-24 04:30:00,METAR LEZL 240430Z 13005KT 9999 FEW028 15/13 Q1015 NOSIG,0,5,0,10000,0,0,0,
2026-04-24 04:00:00,METAR LEZL 240400Z VRB02KT 9999 FEW028 16/13 Q1015 NOSIG,0,2,0,10000,0,0,0,
2026-04-24 03:30:00,METAR LEZL 240330Z 21003KT 180V240 9999 FEW028 17/13 Q1015 NOSIG,0,3,0,10000,0,0,0,
2026-04-24 03:00:00,METAR LEZL 240300Z AUTO 21003KT 180V240 CAVOK 17/13 Q1015,1,0,0,9999,0,0,0,
2026-04-24 02:30:00,METAR LEZL 240230Z AUTO 20003KT 9000 NSC 16/13 Q1015,0,3,0,9000,0,0,0,
2026-04-24 02:00:00,METAR LEZL 240200Z AUTO 22004KT 9000 NSC 16/13 Q1015,0,4,0,9000,0,0,0,
2026-04-24 01:30:00,METAR LEZL 240130Z AUTO 24006KT CAVOK 17/13 Q1015,1,0,0,9999,0,0,0,
2026-04-24 01:00:00,METAR LEZL 240100Z AUTO 22005KT CAVOK 17/13 Q1015,1,0,0,9999,0,0,0,
2026-04-24 00:30:00,METAR LEZL 240030Z AUTO 23007KT CAVOK 17/13 Q1016,1,0,0,9999,0,0,0,
2026-04-24 00:00:00,METAR LEZL 240000Z 22007KT CAVOK 18/13 Q1016 NOSIG,1,0,0,9999,0,0,0,
2026-04-23 23:30:00,METAR LEZL 232330Z 22006KT 190V250 CAVOK 18/13 Q1015 NOSIG,1,0,0,9999,0,0,0,
2026-04-23 23:00:00,METAR LEZL 232300Z 22006KT 190V250 CAVOK 18/12 Q1015 NOSIG,1,0,0,9999,0,0,0,
2026-04-23 22:30:00,METAR LEZL 232230Z 21006KT CAVOK 18/12 Q1015 NOSIG,1,0,0,9999,0,0,0,
2026-04-23 22:00:00,METAR LEZL 232200Z 21006KT CAVOK 18/12 Q1015 NOSIG,1,0,0,9999,0,0,0,
2026-04-23 21:30:00,METAR LEZL 232130Z 21008KT CAVOK 18/12 Q1015 NOSIG,1,0,0,9999,0,0,0,
2026-04-23 21:00:00,METAR LEZL 232100Z 22008KT CAVOK 19/12 Q1015 NOSIG,1,0,0,9999,0,0,0,
2026-04-23 20:30:00,METAR LEZL 232030Z 21008KT CAVOK 19/11 Q1014 NOSIG,1,0,0,9999,0,0,0,
2026-04-23 20:00:00,METAR LEZL 232000Z 21006KT 170V230 CAVOK 20/12 Q1014 NOSIG,1,0,0,9999,0,0,0,
2026-04-23 19:30:00,METAR LEZL 231930Z 23007KT CAVOK 21/10 Q1014 NOSIG,1,0,0,9999,0,0,0,
2026-04-23 19:00:00,METAR LEZL 231900Z 24009KT 210V270 CAVOK 22/10 Q1013 NOSIG,1,0,0,9999,0,0,0,
2026-04-23 18:30:00,METAR LEZL 231830Z 24007KT 200V280 CAVOK 22/10 Q1013 NOSIG,1,0,0,9999,0,0,0,
2026-04-23 18:00:00,METAR LEZL 231800Z 23010KT 200V260 CAVOK 22/12 Q1013 NOSIG,1,0,0,9999,0,0,0,
2026-04-23 17:30:00,METAR LEZL 231730Z 22011KT 190V250 CAVOK 23/12 Q1013 NOSIG,1,0,0,9999,0,0,0,
2026-04-23 17:00:00,METAR LEZL 231700Z 22011KT 190V280 CAVOK 23/12 Q1012 NOSIG,1,0,0,9999,0,0,0,
2026-04-23 16:30:00,METAR LEZL 231630Z 23011KT 200V270 CAVOK 24/12 Q1012 NOSIG,1,0,0,9999,0,0,0,
2026-04-23 16:00:00,METAR LEZL 231600Z 23013KT 200V260 CAVOK 24/12 Q1012 NOSIG,1,0,0,9999,0,0,0,
2026-04-23 15:30:00,METAR LEZL 231530Z 23013KT 190V260 CAVOK 25/12 Q1012 NOSIG,1,0,0,9999,0,0,0,
2026-04-23 15:00:00,METAR LEZL 231500Z 22012KT 190V270 CAVOK 25/13 Q1012 NOSIG,1,0,0,9999,0,0,0,
2026-04-23 14:30:00,METAR LEZL 231430Z 23008KT 170V290 CAVOK 26/13 Q1012 NOSIG,1,0,0,9999,0,0,0,
2026-04-23 14:00:00,METAR LEZL 231400Z 24011KT 200V270 CAVOK 26/12 Q1012 NOSIG,1,0,0,9999,0,0,0,
2026-04-23 13:30:00,METAR LEZL 231330Z 22008KT 170V270 CAVOK 26/13 Q1013 NOSIG,1,0,0,9999,0,0,0,
2026-04-23 13:00:00,METAR LEZL 231300Z 23007KT 150V290 CAVOK 26/13 Q1013 NOSIG,1,0,0,9999,0,0,0,
2026-04-23 12:30:00,METAR LEZL 231230Z 23006KT 160V310 CAVOK 25/13 Q1013 NOSIG,1,0,0,9999,0,0,0,
2026-04-23 12:00:00,METAR LEZL 231200Z 23004KT 180V290 CAVOK 24/12 Q1013 NOSIG,1,0,0,9999,0,0,0,
2026-04-23 11:30:00,METAR LEZL 231130Z 22006KT 170V260 CAVOK 24/13 Q1013 NOSIG,1,0,0,9999,0,0,0,
2026-04-23 11:00:00,METAR LEZL 231100Z 23004KT 170V310 CAVOK 23/13 Q1013 NOSIG,1,0,0,9999,0,0,0,
2026-04-23 10:30:00,METAR LEZL 231030Z 23004KT 150V280 CAVOK 22/13 Q1014 NOSIG,1,0,0,9999,0,0,0,
2026-04-23 10:00:00,METAR LEZL 231000Z 21002KT CAVOK 21/13 Q1014 NOSIG,1,0,0,9999,0,0,0,
2026-04-23 09:30:00,METAR LEZL 230930Z 23003KT CAVOK 20/13 Q1014 NOSIG,1,0,0,9999,0,0,0,
2026-04-23 09:00:00,METAR LEZL 230900Z 22003KT CAVOK 20/13 Q1014 NOSIG,1,0,0,9999,0,0,0,
2026-04-23 08:30:00,METAR LEZL 230830Z VRB02KT CAVOK 19/13 Q1014 NOSIG,1,0,0,9999,0,0,0,
2026-04-23 08:00:00,METAR LEZL 230800Z 16001KT CAVOK 17/13 Q1013 NOSIG,1,0,0,9999,0,0,0,
2026-04-23 07:30:00,METAR LEZL 230730Z VRB02KT CAVOK 16/13 Q1013 NOSIG,1,0,0,9999,0,0,0,
2026-04-23 07:00:00,METAR LEZL 230700Z VRB01KT CAVOK 16/13 Q1013 NOSIG,1,0,0,9999,0,0,0,
2026-04-23 06:30:00,METAR LEZL 230630Z 00000KT CAVOK 15/13 Q1013 NOSIG,1,0,0,9999,0,0,0,
2026-04-23 06:00:00,METAR LEZL 230600Z 00000KT CAVOK 14/12 Q1013 NOSIG,1,0,0,9999,0,0,0,
2026-04-23 05:30:00,METAR LEZL 230530Z VRB01KT CAVOK 13/12 Q1012 NOSIG,1,0,0,9999,0,0,0,
2026-04-23 05:00:00,METAR LEZL 230500Z 15001KT CAVOK 14/12 Q1012 NOSIG,1,0,0,9999,0,0,0,
2026-04-23 04:30:00,METAR LEZL 230430Z 17004KT 150V210 CAVOK 14/12 Q1012 NOSIG,1,0,0,9999,0,0,0,
2026-04-23 04:00:00,METAR LEZL 230400Z 16004KT CAVOK 14/11 Q1012 NOSIG,1,0,0,9999,0,0,0,
2026-04-23 03:30:00,METAR LEZL 230330Z 17004KT CAVOK 14/11 Q1012 NOSIG,1,0,0,9999,0,0,0,
2026-04-23 03:00:00,METAR LEZL 230300Z AUTO 16003KT 140V200 CAVOK 14/11 Q1012,1,0,0,9999,0,0,0,
2026-04-23 02:30:00,METAR LEZL 230230Z AUTO 20005KT 160V240 CAVOK 16/11 Q1012,1,0,0,9999,0,0,0,
2026-04-23 02:00:00,METAR LEZL 230200Z AUTO 21006KT 180V240 9000 NCD 16/11 Q1012,0,6,0,9000,0,0,0,
2026-04-23 01:30:00,METAR LEZL 230130Z AUTO 20007KT CAVOK 16/10 Q1012,1,0,0,9999,0,0,0,
2026-04-23 01:00:00,METAR LEZL 230100Z AUTO 21007KT CAVOK 17/10 Q1012,1,0,0,9999,0,0,0,
2026-04-23 00:30:00,METAR LEZL 230030Z AUTO 19003KT 150V230 9000 NCD 17/11 Q1012,0,3,0,9000,0,0,0,
2026-04-23 00:00:00,METAR LEZL 230000Z 20005KT 160V220 CAVOK 18/11 Q1012 NOSIG,1,0,0,9999,0,0,0,
2026-04-22 23:30:00,METAR LEZL 222330Z 21003KT 170V250 CAVOK 18/11 Q1012 NOSIG,1,0,0,9999,0,0,0,
2026-04-22 23:00:00,METAR LEZL 222300Z VRB01KT CAVOK 18/11 Q1012 NOSIG,1,0,0,9999,0,0,0,
2026-04-22 22:30:00,METAR LEZL 222230Z 27005KT CAVOK 19/11 Q1012 NOSIG,1,0,0,9999,0,0,0,
2026-04-22 22:00:00,METAR LEZL 222200Z 28007KT CAVOK 20/11 Q1012 NOSIG,1,0,0,9999,0,0,0,
2026-04-22 21:30:00,METAR LEZL 222130Z 28006KT 250V310 CAVOK 20/11 Q1012 NOSIG,1,0,0,9999,0,0,0,
2026-04-22 21:00:00,METAR LEZL 222100Z 29006KT 250V320 CAVOK 21/11 Q1012 NOSIG,1,0,0,9999,0,0,0,
2026-04-22 20:30:00,METAR LEZL 222030Z 29007KT 260V320 CAVOK 22/12 Q1012 NOSIG,1,0,0,9999,0,0,0,
2026-04-22 20:00:00,METAR LEZL 222000Z 30009KT CAVOK 23/12 Q1011 NOSIG,1,0,0,9999,0,0,0,
2026-04-22 19:30:00,METAR LEZL 221930Z 35003KT CAVOK 24/13 Q1011 NOSIG,1,0,0,9999,0,0,0,
2026-04-22 19:00:00,METAR LEZL 221900Z 36002KT CAVOK 25/12 Q1011 NOSIG,1,0,0,9999,0,0,0,
2026-04-22 18:30:00,METAR LEZL 221830Z VRB01KT CAVOK 26/12 Q1011 NOSIG,1,0,0,9999,0,0,0,
2026-04-22 18:00:00,METAR LEZL 221800Z 00000KT CAVOK 27/12 Q1011 NOSIG,1,0,0,9999,0,0,0,
2026-04-22 17:30:00,METAR LEZL 221730Z 24004KT 210V310 CAVOK 27/12 Q1011 NOSIG,1,0,0,9999,0,0,0,
2026-04-22 17:00:00,METAR LEZL 221700Z 28004KT 200V350 CAVOK 27/11 Q1011 NOSIG,1,0,0,9999,0,0,0,
2026-04-22 16:30:00,METAR LEZL 221630Z 25002KT CAVOK 27/11 Q1011 NOSIG,1,0,0,9999,0,0,0,
2026-04-22 16:00:00,METAR LEZL 221600Z 28003KT CAVOK 27/11 Q1011 NOSIG,1,0,0,9999,0,0,0,
2026-04-22 15:30:00,METAR LEZL 221530Z 23003KT CAVOK 27/11 Q1012 NOSIG,1,0,0,9999,0,0,0,
2026-04-22 15:00:00,METAR LEZL 221500Z 23002KT CAVOK 27/12 Q1012 NOSIG,1,0,0,9999,0,0,0,
2026-04-22 14:30:00,METAR LEZL 221430Z 01005KT 300V060 CAVOK 26/12 Q1012 NOSIG,1,0,0,9999,0,0,0,
2026-04-22 14:00:00,METAR LEZL 221400Z 31002KT CAVOK 26/11 Q1013 NOSIG,1,0,0,9999,0,0,0,
2026-04-22 13:30:00,METAR LEZL 221330Z 26003KT 9999 FEW048 26/12 Q1013 NOSIG,0,3,0,10000,0,0,0,
2026-04-22 13:00:00,METAR LEZL 221300Z 24005KT 170V300 9999 FEW047 24/12 Q1013 NOSIG,0,5,0,10000,0,0,0,
2026-04-22 12:30:00,METAR LEZL 221230Z 14002KT 9999 SCT047 24/12 Q1013 NOSIG,0,2,0,10000,0,0,0,
2026-04-22 12:00:00,METAR LEZL 221200Z 19003KT 9999 SCT045 24/13 Q1014 NOSIG,0,3,0,10000,0,0,0,
2026-04-22 11:30:00,METAR LEZL 221130Z 16002KT 9999 FEW040 24/13 Q1014 NOSIG,0,2,0,10000,0,0,0,
2026-04-22 11:00:00,METAR LEZL 221100Z 00000KT 9999 SCT042 22/14 Q1014 NOSIG,0,0,0,10000,0,0,0,
2026-04-22 10:30:00,METAR LEZL 221030Z 10002KT 9999 SCT040 SCT046 21/13 Q1014 NOSIG,0,2,0,10000,0,0,0,
2026-04-22 10:00:00,METAR LEZL 221000Z 13003KT 080V200 9999 SCT036 SCT046 21/13 Q1015 NOSIG,0,3,0,10000,0,0,0,
2026-04-22 09:30:00,METAR LEZL 220930Z VRB04KT 9000 SCT032 SCT044 22/14 Q1014 NOSIG,0,4,0,9000,0,0,0,
2026-04-22 09:00:00,METAR LEZL 220900Z 07003KT 9000 FEW028 SCT036 BKN046 21/14 Q1015 NOSIG,0,3,0,9000,0,0,0,
2026-04-22 08:30:00,METAR LEZL 220830Z 11002KT 9000 FEW018 SCT024 20/15 Q1014 NOSIG,0,2,0,9000,0,0,0,
2026-04-22 08:00:00,METAR LEZL 220800Z 11003KT 060V190 9000 SCT014 19/15 Q1014 NOSIG,0,3,0,9000,0,0,0,
2026-04-22 07:30:00,METAR LEZL 220730Z 12003KT 080V160 8000 FEW010 18/16 Q1014 NOSIG,0,3,0,8000,0,0,0,
2026-04-22 07:00:00,METAR LEZL 220700Z 11003KT 080V150 8000 FEW008 17/16 Q1014 NOSIG,0,3,0,8000,0,0,0,
2026-04-22 06:30:00,METAR LEZL 220630Z 14003KT 7000 FEW008 15/15 Q1014 NOSIG,0,3,0,7000,0,0,0,
2026-04-22 06:00:00,METAR LEZL 220600Z 15003KT 6000 FEW045 14/14 Q1013 NOSIG,0,3,0,6000,0,0,0,
2026-04-22 05:30:00,METAR LEZL 220530Z VRB02KT 7000 FEW010 SCT045 16/15 Q1013 NOSIG,0,2,0,7000,0,0,0,
2026-04-22 05:00:00,METAR LEZL 220500Z 20003KT 160V240 9999 SCT010 SCT032 16/15 Q1013 NOSIG,0,3,0,10000,0,0,0,
2026-04-22 04:30:00,METAR LEZL 220430Z 18003KT 9999 BKN012 16/15 Q1013 NOSIG,0,3,0,10000,0,0,0,
2026-04-22 04:11:00,SPECI LEZL 220411Z 18003KT 150V230 9999 BKN010 17/15 Q1013 NOSIG,0,3,0,10000,0,0,0,
2026-04-22 04:00:00,METAR LEZL 220400Z 20003KT 160V240 9999 SCT010 SCT015 17/16 Q1012 NOSIG,0,3,0,10000,0,0,0,
2026-04-22 03:30:00,METAR LEZL 220330Z 23004KT 200V270 9999 FEW012 SCT037 17/15 Q1012 NOSIG,0,4,0,10000,0,0,0,
2026-04-22 03:00:00,METAR LEZL 220300Z AUTO 21004KT 170V240 8000 SCT036 BKN042 17/16 Q1012,0,4,0,8000,0,0,0,
2026-04-22 02:30:00,METAR LEZL 220230Z AUTO 23004KT 8000 FEW026 BKN036 18/15 Q1012,0,4,0,8000,0,0,0,
2026-04-22 02:00:00,METAR LEZL 220200Z AUTO 24005KT 200V260 8000 SCT016 BKN034 17/15 Q1012,0,5,0,8000,0,0,0,
2026-04-22 01:30:00,METAR LEZL 220130Z AUTO 24006KT 8000 SCT016 BKN037 18/15 Q1012,0,6,0,8000,0,0,0,
2026-04-22 01:00:00,METAR LEZL 220100Z AUTO 24009KT 8000 SCT015 SCT024 BKN033 18/15 Q1012,0,9,0,8000,0,0,0,
2026-04-22 00:30:00,METAR LEZL 220030Z AUTO 25008KT 220V280 7000 SCT014 BKN020 BKN030 18/15 Q1012,0,8,0,7000,0,0,0,
2026-04-22 00:00:00,METAR LEZL 220000Z AUTO 23005KT 200V260 7000 BKN014 BKN022 OVC030 18/16 Q1012,0,5,0,7000,0,0,0,
2026-04-21 23:30:00,METAR LEZL 212330Z AUTO 22007KT 8000 SCT016 BKN024 18/15 Q1012,0,7,0,8000,0,0,0,
2026-04-21 23:00:00,METAR LEZL 212300Z 23008KT 190V250 9000 SCT015 SCT021 18/15 Q1012 NOSIG,0,8,0,9000,0,0,0,
2026-04-21 22:36:00,SPECI LEZL 212236Z 23009KT 200V270 9000 BKN014 18/15 Q1011 NOSIG,0,9,0,9000,0,0,0,
2026-04-21 22:30:00,METAR LEZL 212230Z 23009KT 9999 SCT014 18/15 Q1011 NOSIG,0,9,0,10000,0,0,0,
2026-04-21 22:00:00,METAR LEZL 212200Z 22008KT 180V260 CAVOK 18/15 Q1011 NOSIG,1,0,0,9999,0,0,0,
2026-04-21 21:30:00,METAR LEZL 212130Z 23009KT CAVOK 18/15 Q1011 NOSIG,1,0,0,9999,0,0,0,
2026-04-21 21:00:00,METAR LEZL 212100Z 23010KT 190V250 9999 FEW020 18/15 Q1011 NOSIG,0,10,0,10000,0,0,0,
2026-04-21 20:30:00,METAR LEZL 212030Z 22015KT 9999 BKN020 19/15 Q1010 NOSIG,0,15,0,10000,0,0,0,
2026-04-21 20:00:00,METAR LEZL 212000Z 22013KT 9999 BKN019 19/15 Q1010 NOSIG,0,13,0,10000,0,0,0,
2026-04-21 19:30:00,METAR LEZL 211930Z 22017KT 190V250 9999 SCT017 19/16 Q1009 NOSIG,0,17,0,10000,0,0,0,
2026-04-21 19:00:00,METAR LEZL 211900Z 21015KT 180V240 9999 FEW016 20/16 Q1009 NOSIG,0,15,0,10000,0,0,0,
2026-04-21 18:30:00,METAR LEZL 211830Z 22020KT 190V250 CAVOK 22/16 Q1008 NOSIG,1,0,0,9999,0,0,0,
2026-04-21 18:00:00,METAR LEZL 211800Z 22016KT 180V250 CAVOK 25/13 Q1007 NOSIG,1,0,0,9999,0,0,0,
2026-04-21 17:30:00,METAR LEZL 211730Z 22021KT 190V250 CAVOK 25/11 Q1007 NOSIG,1,0,0,9999,0,0,0,
2026-04-21 17:00:00,METAR LEZL 211700Z 19010KT 150V260 CAVOK 28/09 Q1006 NOSIG,1,0,0,9999,0,0,0,
2026-04-21 16:30:00,METAR LEZL 211630Z 17011KT 140V200 CAVOK 28/10 Q1006 NOSIG,1,0,0,9999,0,0,0,
2026-04-21 16:00:00,METAR LEZL 211600Z 21008KT 150V260 CAVOK 28/10 Q1006 NOSIG,1,0,0,9999,0,0,0,
2026-04-21 15:30:00,METAR LEZL 211530Z 13006KT 080V170 CAVOK 28/12 Q1005 NOSIG,1,0,0,9999,0,0,0,
2026-04-21 15:00:00,METAR LEZL 211500Z 15005KT 080V210 CAVOK 27/11 Q1006 NOSIG,1,0,0,9999,0,0,0,
2026-04-21 14:30:00,METAR LEZL 211430Z 13007KT 100V160 CAVOK 27/11 Q1006 NOSIG,1,0,0,9999,0,0,0,
2026-04-21 14:00:00,METAR LEZL 211400Z 22005KT 140V260 CAVOK 28/10 Q1006 NOSIG,1,0,0,9999,0,0,0,
2026-04-21 13:30:00,METAR LEZL 211330Z 10011KT 070V140 CAVOK 27/12 Q1005 NOSIG,1,0,0,9999,0,0,0,
2026-04-21 13:00:00,METAR LEZL 211300Z 09007KT 060V120 CAVOK 25/13 Q1006 NOSIG,1,0,0,9999,0,0,0,
2026-04-21 12:30:00,METAR LEZL 211230Z 03011KT 340V050 9999 -RA NSC 25/11 Q1006 NOSIG,0,11,0,10000,0,0,0,-RA
2026-04-21 12:00:00,METAR LEZL 211200Z 29011KT 260V320 CAVOK 25/10 Q1007 NOSIG,1,0,0,9999,0,0,0,
2026-04-21 11:30:00,METAR LEZL 211130Z 03011KT 350V070 CAVOK 25/11 Q1005 NOSIG,1,0,0,9999,0,0,0,
2026-04-21 11:00:00,METAR LEZL 211100Z 29018KT CAVOK 24/10 Q1007 NOSIG,1,0,0,9999,0,0,0,
2026-04-21 10:30:00,METAR LEZL 211030Z 06007KT 030V100 CAVOK 27/07 Q1005 NOSIG,1,0,0,9999,0,0,0,
2026-04-21 10:00:00,METAR LEZL 211000Z 05007KT 020V080 CAVOK 27/08 Q1005 NOSIG,1,0,0,9999,0,0,0,
2026-04-21 09:30:00,METAR LEZL 210930Z 06005KT 020V110 CAVOK 25/08 Q1005 NOSIG,1,0,0,9999,0,0,0,
2026-04-21 09:00:00,METAR LEZL 210900Z 07004KT 030V100 CAVOK 23/08 Q1005 NOSIG,1,0,0,9999,0,0,0,
2026-04-21 08:30:00,METAR LEZL 210830Z 04006KT CAVOK 21/09 Q1006 NOSIG,1,0,0,9999,0,0,0,
2026-04-21 08:00:00,METAR LEZL 210800Z 06004KT 010V100 CAVOK 21/08 Q1006 NOSIG,1,0,0,9999,0,0,0,
2026-04-21 07:30:00,METAR LEZL 210730Z 07011KT CAVOK 19/08 Q1006 NOSIG,1,0,0,9999,0,0,0,
2026-04-21 07:00:00,METAR LEZL 210700Z 05007KT CAVOK 18/08 Q1007 NOSIG,1,0,0,9999,0,0,0,
2026-04-21 06:30:00,METAR LEZL 210630Z 04003KT CAVOK 18/08 Q1007 NOSIG,1,0,0,9999,0,0,0,
2026-04-21 06:00:00,METAR LEZL 210600Z 04003KT 010V070 CAVOK 16/08 Q1007 NOSIG,1,0,0,9999,0,0,0,
2026-04-21 05:30:00,METAR LEZL 210530Z 04005KT CAVOK 17/08 Q1007 NOSIG,1,0,0,9999,0,0,0,
2026-04-21 05:00:00,METAR LEZL 210500Z 05006KT CAVOK 17/08 Q1007 NOSIG,1,0,0,9999,0,0,0,
2026-04-21 04:30:00,METAR LEZL 210430Z 11004KT 080V140 CAVOK 16/08 Q1007 NOSIG,1,0,0,9999,0,0,0,
2026-04-21 04:00:00,METAR LEZL 210400Z 05006KT CAVOK 16/08 Q1007 NOSIG,1,0,0,9999,0,0,0,
2026-04-21 03:30:00,METAR LEZL 210330Z 03005KT CAVOK 16/11 Q1008 NOSIG,1,0,0,9999,0,0,0,
2026-04-21 03:00:00,METAR LEZL 210300Z AUTO 36004KT CAVOK 17/10 Q1008,1,0,0,9999,0,0,0,
2026-04-21 02:30:00,METAR LEZL 210230Z AUTO 36003KT 9000 NCD 16/11 Q1008,0,3,0,9000,0,0,0,
2026-04-21 02:00:00,METAR LEZL 210200Z AUTO 36004KT 320V020 9000 NCD 17/12 Q1008,0,4,0,9000,0,0,0,
2026-04-21 01:30:00,METAR LEZL 210130Z AUTO 32003KT 9000 NCD 17/12 Q1008,0,3,0,9000,0,0,0,
2026-04-21 01:00:00,METAR LEZL 210100Z AUTO 09002KT CAVOK 17/12 Q1008,1,0,0,9999,0,0,0,
2026-04-21 00:30:00,METAR LEZL 210030Z AUTO 13003KT CAVOK 17/12 Q1008,1,0,0,9999,0,0,0,
2026-04-21 00:00:00,METAR LEZL 210000Z AUTO 12004KT CAVOK 17/12 Q1009,1,0,0,9999,0,0,0,
2026-04-20 23:30:00,METAR LEZL 202330Z AUTO 12003KT CAVOK 17/12 Q1009,1,0,0,9999,0,0,0,
2026-04-20 23:00:00,METAR LEZL 202300Z 14004KT CAVOK 18/12 Q1009 NOSIG,1,0,0,9999,0,0,0,
2026-04-20 22:30:00,METAR LEZL 202230Z 15003KT CAVOK 18/12 Q1009 NOSIG,1,0,0,9999,0,0,0,
2026-04-20 22:00:00,METAR LEZL 202200Z 16003KT 140V200 CAVOK 19/12 Q1009 NOSIG,1,0,0,9999,0,0,0,
2026-04-20 21:30:00,METAR LEZL 202130Z VRB02KT CAVOK 20/11 Q1009 NOSIG,1,0,0,9999,0,0,0,
2026-04-20 21:00:00,METAR LEZL 202100Z 00000KT CAVOK 22/11 Q1009 NOSIG,1,0,0,9999,0,0,0,
2026-04-20 20:30:00,METAR LEZL 202030Z 23004KT CAVOK 24/09 Q1009 NOSIG,1,0,0,9999,0,0,0,
2026-04-20 20:00:00,METAR LEZL 202000Z 23003KT CAVOK 26/09 Q1009 NOSIG,1,0,0,9999,0,0,0,
2026-04-20 19:30:00,METAR LEZL 201930Z 24005KT CAVOK 25/10 Q1008 NOSIG,1,0,0,9999,0,0,0,
2026-04-20 19:00:00,METAR LEZL 201900Z 24004KT 220V280 CAVOK 26/09 Q1008 NOSIG,1,0,0,9999,0,0,0,
2026-04-20 18:30:00,METAR LEZL 201830Z 24006KT CAVOK 28/09 Q1008 NOSIG,1,0,0,9999,0,0,0,
2026-04-20 18:00:00,METAR LEZL 201800Z 25006KT 210V280 CAVOK 29/09 Q1008 NOSIG,1,0,0,9999,0,0,0,
2026-04-20 17:30:00,METAR LEZL 201730Z VRB01KT CAVOK 31/07 Q1008 NOSIG,1,0,0,9999,0,0,0,
2026-04-20 17:00:00,METAR LEZL 201700Z 23005KT 190V270 CAVOK 31/07 Q1008 NOSIG,1,0,0,9999,0,0,0,
2026-04-20 16:30:00,METAR LEZL 201630Z 23005KT 170V290 CAVOK 31/07 Q1008 NOSIG,1,0,0,9999,0,0,0,
2026-04-20 16:00:00,METAR LEZL 201600Z 21005KT 150V270 CAVOK 31/06 Q1008 NOSIG,1,0,0,9999,0,0,0,
2026-04-20 15:30:00,METAR LEZL 201530Z 20005KT 110V230 CAVOK 31/05 Q1009 NOSIG,1,0,0,9999,0,0,0,
2026-04-20 15:00:00,METAR LEZL 201500Z 25003KT CAVOK 31/06 Q1009 NOSIG,1,0,0,9999,0,0,0,
2026-04-20 14:30:00,METAR LEZL 201430Z 23005KT 160V320 CAVOK 31/07 Q1009 NOSIG,1,0,0,9999,0,0,0,
2026-04-20 14:00:00,METAR LEZL 201400Z 23006KT 170V270 CAVOK 31/07 Q1010 NOSIG,1,0,0,9999,0,0,0,
2026-04-20 13:30:00,METAR LEZL 201330Z 17004KT CAVOK 31/10 Q1010 NOSIG,1,0,0,9999,0,0,0,
2026-04-20 13:00:00,METAR LEZL 201300Z 21005KT CAVOK 30/09 Q1010 NOSIG,1,0,0,9999,0,0,0,
2026-04-20 12:30:00,METAR LEZL 201230Z 10005KT 020V170 CAVOK 30/08 Q1011 NOSIG,1,0,0,9999,0,0,0,
2026-04-20 12:00:00,METAR LEZL 201200Z VRB06KT CAVOK 29/09 Q1011 NOSIG,1,0,0,9999,0,0,0,
2026-04-20 11:30:00,METAR LEZL 201130Z 12006KT 060V170 CAVOK 28/09 Q1011 NOSIG,1,0,0,9999,0,0,0,
2026-04-20 11:00:00,METAR LEZL 201100Z 09009KT 060V140 CAVOK 28/08 Q1012 NOSIG,1,0,0,9999,0,0,0,
2026-04-20 10:30:00,METAR LEZL 201030Z 11006KT 060V160 CAVOK 27/09 Q1012 NOSIG,1,0,0,9999,0,0,0,
2026-04-20 10:00:00,METAR LEZL 201000Z 08004KT 040V160 CAVOK 26/09 Q1013 NOSIG,1,0,0,9999,0,0,0,
2026-04-20 09:30:00,METAR LEZL 200930Z 10006KT 050V170 CAVOK 24/08 Q1013 NOSIG,1,0,0,9999,0,0,0,
2026-04-20 09:00:00,METAR LEZL 200900Z 06004KT 020V130 CAVOK 23/08 Q1013 NOSIG,1,0,0,9999,0,0,0,
2026-04-20 08:30:00,METAR LEZL 200830Z 05006KT CAVOK 21/09 Q1013 NOSIG,1,0,0,9999,0,0,0,
2026-04-20 08:00:00,METAR LEZL 200800Z 04006KT 010V070 CAVOK 19/09 Q1013 NOSIG,1,0,0,9999,0,0,0,
2026-04-20 07:30:00,METAR LEZL 200730Z 03006KT CAVOK 17/10 Q1013 NOSIG,1,0,0,9999,0,0,0,
2026-04-20 07:00:00,METAR LEZL 200700Z 04004KT CAVOK 15/10 Q1013 NOSIG,1,0,0,9999,0,0,0,
2026-04-20 06:30:00,METAR LEZL 200630Z 03004KT CAVOK 14/10 Q1013 NOSIG,1,0,0,9999,0,0,0,
2026-04-20 06:00:00,METAR LEZL 200600Z 03004KT CAVOK 14/10 Q1013 NOSIG,1,0,0,9999,0,0,0,
2026-04-20 05:30:00,METAR LEZL 200530Z VRB02KT CAVOK 14/10 Q1013 NOSIG,1,0,0,9999,0,0,0,
2026-04-20 05:00:00,METAR LEZL 200500Z 03003KT CAVOK 14/10 Q1013 NOSIG,1,0,0,9999,0,0,0,
2026-04-20 04:30:00,METAR LEZL 200430Z 03003KT 360V060 CAVOK 14/10 Q1013 NOSIG,1,0,0,9999,0,0,0,
2026-04-20 04:00:00,METAR LEZL 200400Z 03004KT CAVOK 14/10 Q1013 NOSIG,1,0,0,9999,0,0,0,
2026-04-20 03:30:00,METAR LEZL 200330Z VRB02KT CAVOK 13/11 Q1014 NOSIG,1,0,0,9999,0,0,0,
2026-04-20 03:00:00,METAR LEZL 200300Z AUTO 00000KT CAVOK 15/11 Q1014,1,0,0,9999,0,0,0,
2026-04-20 02:30:00,METAR LEZL 200230Z AUTO 02002KT CAVOK 15/11 Q1014,1,0,0,9999,0,0,0,
2026-04-20 02:00:00,METAR LEZL 200200Z AUTO VRB01KT CAVOK 15/11 Q1014,1,0,0,9999,0,0,0,
2026-04-20 01:30:00,METAR LEZL 200130Z AUTO VRB01KT CAVOK 15/11 Q1014,1,0,0,9999,0,0,0,
2026-04-20 01:00:00,METAR LEZL 200100Z AUTO 11003KT CAVOK 15/11 Q1014,1,0,0,9999,0,0,0,
2026-04-20 00:30:00,METAR LEZL 200030Z AUTO 08003KT CAVOK 15/11 Q1014,1,0,0,9999,0,0,0,
2026-04-20 00:00:00,METAR LEZL 200000Z AUTO 11002KT CAVOK 16/11 Q1015,1,0,0,9999,0,0,0,
2026-04-19 23:30:00,METAR LEZL 192330Z AUTO 00000KT CAVOK 17/11 Q1015,1,0,0,9999,0,0,0,
2026-04-19 23:00:00,METAR LEZL 192300Z 00000KT CAVOK 19/10 Q1015 NOSIG,1,0,0,9999,0,0,0,
2026-04-19 22:30:00,METAR LEZL 192230Z 27004KT CAVOK 20/10 Q1015 NOSIG,1,0,0,9999,0,0,0,
2026-04-19 22:00:00,METAR LEZL 192200Z 28008KT CAVOK 22/10 Q1015 NOSIG,1,0,0,9999,0,0,0,
2026-04-19 21:30:00,METAR LEZL 192130Z 27006KT CAVOK 20/10 Q1015 NOSIG,1,0,0,9999,0,0,0,
2026-04-19 21:00:00,METAR LEZL 192100Z 28004KT CAVOK 23/09 Q1015 NOSIG,1,0,0,9999,0,0,0,
2026-04-19 20:30:00,METAR LEZL 192030Z 23006KT CAVOK 24/09 Q1014 NOSIG,1,0,0,9999,0,0,0,
2026-04-19 20:00:00,METAR LEZL 192000Z 23006KT CAVOK 25/08 Q1014 NOSIG,1,0,0,9999,0,0,0,
2026-04-19 19:30:00,METAR LEZL 191930Z 24008KT CAVOK 26/07 Q1014 NOSIG,1,0,0,9999,0,0,0,
2026-04-19 19:00:00,METAR LEZL 191900Z 24009KT CAVOK 26/09 Q1013 NOSIG,1,0,0,9999,0,0,0,
2026-04-19 18:30:00,METAR LEZL 191830Z 25008KT 220V280 CAVOK 28/09 Q1013 NOSIG,1,0,0,9999,0,0,0,
2026-04-19 18:00:00,METAR LEZL 191800Z 25008KT 210V290 CAVOK 29/08 Q1013 NOSIG,1,0,0,9999,0,0,0,
2026-04-19 17:30:00,METAR LEZL 191730Z 25007KT 210V290 CAVOK 30/07 Q1013 NOSIG,1,0,0,9999,0,0,0,
2026-04-19 17:00:00,METAR LEZL 191700Z 26007KT 230V290 CAVOK 30/07 Q1013 NOSIG,1,0,0,9999,0,0,0,
2026-04-19 16:30:00,METAR LEZL 191630Z 20006KT 150V260 CAVOK 31/06 Q1013 NOSIG,1,0,0,9999,0,0,0,
2026-04-19 16:00:00,METAR LEZL 191600Z 26006KT 220V320 CAVOK 31/07 Q1013 NOSIG,1,0,0,9999,0,0,0,
2026-04-19 15:30:00,METAR LEZL 191530Z 27005KT 210V010 CAVOK 31/07 Q1013 NOSIG,1,0,0,9999,0,0,0,
2026-04-19 15:00:00,METAR LEZL 191500Z 23004KT CAVOK 31/07 Q1014 NOSIG,1,0,0,9999,0,0,0,
2026-04-19 14:30:00,METAR LEZL 191430Z 21002KT CAVOK 30/06 Q1014 NOSIG,1,0,0,9999,0,0,0,
2026-04-19 14:00:00,METAR LEZL 191400Z 25005KT 160V330 CAVOK 30/06 Q1014 NOSIG,1,0,0,9999,0,0,0,
2026-04-19 13:30:00,METAR LEZL 191330Z 18004KT CAVOK 30/06 Q1015 NOSIG,1,0,0,9999,0,0,0,
2026-04-19 13:00:00,METAR LEZL 191300Z 17003KT CAVOK 30/08 Q1015 NOSIG,1,0,0,9999,0,0,0,
2026-04-19 12:30:00,METAR LEZL 191230Z 23005KT 190V270 CAVOK 29/07 Q1015 NOSIG,1,0,0,9999,0,0,0,
2026-04-19 12:00:00,METAR LEZL 191200Z 32004KT CAVOK 29/07 Q1015 NOSIG,1,0,0,9999,0,0,0,
2026-04-19 11:30:00,METAR LEZL 191130Z 01003KT CAVOK 28/08 Q1016 NOSIG,1,0,0,9999,0,0,0,
2026-04-19 11:00:00,METAR LEZL 191100Z 05003KT 300V110 CAVOK 28/08 Q1016 NOSIG,1,0,0,9999,0,0,0,
2026-04-19 10:30:00,METAR LEZL 191030Z 06003KT CAVOK 27/09 Q1016 NOSIG,1,0,0,9999,0,0,0,
2026-04-19 10:00:00,METAR LEZL 191000Z 05004KT 010V120 CAVOK 25/08 Q1016 NOSIG,1,0,0,9999,0,0,0,
2026-04-19 09:30:00,METAR LEZL 190930Z 05005KT 010V090 CAVOK 24/09 Q1016 NOSIG,1,0,0,9999,0,0,0,
2026-04-19 09:00:00,METAR LEZL 190900Z 04005KT 010V100 CAVOK 23/08 Q1016 NOSIG,1,0,0,9999,0,0,0,
2026-04-19 08:30:00,METAR LEZL 190830Z 06007KT CAVOK 21/08 Q1016 NOSIG,1,0,0,9999,0,0,0,
2026-04-19 08:00:00,METAR LEZL 190800Z 05006KT CAVOK 20/08 Q1016 NOSIG,1,0,0,9999,0,0,0,
2026-04-19 07:30:00,METAR LEZL 190730Z 04006KT CAVOK 18/08 Q1016 NOSIG,1,0,0,9999,0,0,0,
2026-04-19 07:00:00,METAR LEZL 190700Z VRB03KT CAVOK 16/08 Q1016 NOSIG,1,0,0,9999,0,0,0,
2026-04-19 06:30:00,METAR LEZL 190630Z 03003KT CAVOK 14/08 Q1016 NOSIG,1,0,0,9999,0,0,0,
2026-04-19 06:00:00,METAR LEZL 190600Z 03004KT CAVOK 13/08 Q1016 NOSIG,1,0,0,9999,0,0,0,
2026-04-19 05:30:00,METAR LEZL 190530Z 02001KT CAVOK 13/09 Q1015 NOSIG,1,0,0,9999,0,0,0,
2026-04-19 05:00:00,METAR LEZL 190500Z 04003KT 340V110 CAVOK 14/09 Q1015 NOSIG,1,0,0,9999,0,0,0,
2026-04-19 04:30:00,METAR LEZL 190430Z 04007KT CAVOK 14/09 Q1015 NOSIG,1,0,0,9999,0,0,0,
2026-04-19 04:00:00,METAR LEZL 190400Z 04008KT CAVOK 15/09 Q1015 NOSIG,1,0,0,9999,0,0,0,
2026-04-19 03:30:00,METAR LEZL 190330Z 04005KT CAVOK 15/10 Q1015 NOSIG,1,0,0,9999,0,0,0,
2026-04-19 03:00:00,METAR LEZL 190300Z 02005KT CAVOK 15/11 Q1015 NOSIG,1,0,0,9999,0,0,0,
2026-04-19 02:30:00,METAR LEZL 190230Z 02004KT CAVOK 14/12 Q1015 NOSIG,1,0,0,9999,0,0,0,
2026-04-19 02:00:00,METAR LEZL 190200Z VRB01KT CAVOK 15/12 Q1016 NOSIG,1,0,0,9999,0,0,0,
2026-04-19 01:30:00,METAR LEZL 190130Z 00000KT CAVOK 16/13 Q1016 NOSIG,1,0,0,9999,0,0,0,
2026-04-19 01:00:00,METAR LEZL 190100Z 00000KT CAVOK 16/13 Q1016 NOSIG,1,0,0,9999,0,0,0,
2026-04-19 00:30:00,METAR LEZL 190030Z VRB01KT CAVOK 16/13 Q1016 NOSIG,1,0,0,9999,0,0,0,
2026-04-19 00:00:00,METAR LEZL 190000Z 14003KT CAVOK 16/13 Q1016 NOSIG,1,0,0,9999,0,0,0,
2026-04-18 23:30:00,METAR LEZL 182330Z 14002KT CAVOK 17/13 Q1016 NOSIG,1,0,0,9999,0,0,0,
2026-04-18 23:00:00,METAR LEZL 182300Z 15003KT CAVOK 17/13 Q1016 NOSIG,1,0,0,9999,0,0,0,
2026-04-18 22:30:00,METAR LEZL 182230Z 13002KT CAVOK 18/13 Q1016 NOSIG,1,0,0,9999,0,0,0,
2026-04-18 22:00:00,METAR LEZL 182200Z 26004KT CAVOK 21/12 Q1016 NOSIG,1,0,0,9999,0,0,0,
2026-04-18 21:30:00,METAR LEZL 182130Z 27005KT CAVOK 22/12 Q1016 NOSIG,1,0,0,9999,0,0,0,
2026-04-18 21:00:00,METAR LEZL 182100Z 27006KT CAVOK 22/12 Q1016 NOSIG,1,0,0,9999,0,0,0,
2026-04-18 20:30:00,METAR LEZL 182030Z 27006KT CAVOK 22/12 Q1016 NOSIG,1,0,0,9999,0,0,0,
2026-04-18 20:00:00,METAR LEZL 182000Z 27007KT CAVOK 23/12 Q1015 NOSIG,1,0,0,9999,0,0,0,
2026-04-18 19:30:00,METAR LEZL 181930Z 26007KT CAVOK 26/10 Q1015 NOSIG,1,0,0,9999,0,0,0,
2026-04-18 19:00:00,METAR LEZL 181900Z 27008KT CAVOK 26/10 Q1015 NOSIG,1,0,0,9999,0,0,0,
2026-04-18 18:30:00,METAR LEZL 181830Z 24010KT CAVOK 28/09 Q1015 NOSIG,1,0,0,9999,0,0,0,
2026-04-18 18:00:00,METAR LEZL 181800Z 25009KT 210V280 CAVOK 29/09 Q1015 NOSIG,1,0,0,9999,0,0,0,
2026-04-18 17:30:00,METAR LEZL 181730Z 25008KT 210V290 CAVOK 30/10 Q1015 NOSIG,1,0,0,9999,0,0,0,
2026-04-18 17:00:00,METAR LEZL 181700Z 24012KT CAVOK 31/10 Q1014 NOSIG,1,0,0,9999,0,0,0,
2026-04-18 16:30:00,METAR LEZL 181630Z 23005KT 190V260 CAVOK 31/08 Q1014 NOSIG,1,0,0,9999,0,0,0,
2026-04-18 16:00:00,METAR LEZL 181600Z 25004KT 170V310 CAVOK 31/07 Q1015 NOSIG,1,0,0,9999,0,0,0,
2026-04-18 15:00:00,METAR LEZL 181500Z 29004G14KT CAVOK 32/07 Q1015 NOSIG,1,0,0,9999,0,0,0,
2026-04-18 14:30:00,METAR LEZL 181430Z 19004KT CAVOK 31/06 Q1015 NOSIG,1,0,0,9999,0,0,0,
2026-04-18 14:00:00,METAR LEZL 181400Z 17004KT 110V230 CAVOK 31/07 Q1016 NOSIG,1,0,0,9999,0,0,0,
2026-04-18 13:30:00,METAR LEZL 181330Z 20006KT 130V260 CAVOK 31/05 Q1016 NOSIG,1,0,0,9999,0,0,0,
2026-04-18 13:00:00,METAR LEZL 181300Z 26001KT CAVOK 30/05 Q1016 NOSIG,1,0,0,9999,0,0,0,
2026-04-18 12:30:00,METAR LEZL 181230Z 01003KT CAVOK 30/04 Q1016 NOSIG,1,0,0,9999,0,0,0,
2026-04-18 12:00:00,METAR LEZL 181200Z 05004KT 320V120 CAVOK 29/05 Q1017 NOSIG,1,0,0,9999,0,0,0,
2026-04-18 11:30:00,METAR LEZL 181130Z 06004KT CAVOK 29/03 Q1017 NOSIG,1,0,0,9999,0,0,0,
2026-04-18 11:00:00,METAR LEZL 181100Z 04002KT CAVOK 28/08 Q1017 NOSIG,1,0,0,9999,0,0,0,
2026-04-18 10:30:00,METAR LEZL 181030Z 04005KT 350V080 CAVOK 27/08 Q1017 NOSIG,1,0,0,9999,0,0,0,
2026-04-18 10:00:00,METAR LEZL 181000Z 04004KT 330V140 CAVOK 26/08 Q1017 NOSIG,1,0,0,9999,0,0,0,
2026-04-18 09:30:00,METAR LEZL 180930Z 05004KT 010V090 CAVOK 24/08 Q1017 NOSIG,1,0,0,9999,0,0,0,
2026-04-18 09:00:00,METAR LEZL 180900Z 04004KT 010V070 CAVOK 22/08 Q1017 NOSIG,1,0,0,9999,0,0,0,
2026-04-18 08:30:00,METAR LEZL 180830Z 05005KT 020V080 CAVOK 21/09 Q1017 NOSIG,1,0,0,9999,0,0,0,
2026-04-18 08:00:00,METAR LEZL 180800Z 04004KT CAVOK 19/09 Q1017 NOSIG,1,0,0,9999,0,0,0,
2026-04-18 07:30:00,METAR LEZL 180730Z 05006KT CAVOK 18/10 Q1017 NOSIG,1,0,0,9999,0,0,0,
2026-04-18 07:00:00,METAR LEZL 180700Z VRB02KT CAVOK 15/10 Q1017 NOSIG,1,0,0,9999,0,0,0,
2026-04-18 06:30:00,METAR LEZL 180630Z VRB02KT CAVOK 14/09 Q1017 NOSIG,1,0,0,9999,0,0,0,
2026-04-18 06:00:00,METAR LEZL 180600Z 01003KT 350V050 CAVOK 13/09 Q1017 NOSIG,1,0,0,9999,0,0,0,
2026-04-18 05:30:00,METAR LEZL 180530Z 03004KT 320V060 CAVOK 14/10 Q1016 NOSIG,1,0,0,9999,0,0,0,
2026-04-18 05:00:00,METAR LEZL 180500Z 34003KT 280V020 CAVOK 14/10 Q1016 NOSIG,1,0,0,9999,0,0,0,
2026-04-18 04:30:00,METAR LEZL 180430Z 33003KT 290V360 CAVOK 14/10 Q1016 NOSIG,1,0,0,9999,0,0,0,
2026-04-18 04:00:00,METAR LEZL 180400Z 34003KT 300V010 CAVOK 14/09 Q1016 NOSIG,1,0,0,9999,0,0,0,
2026-04-18 03:30:00,METAR LEZL 180330Z 04004KT CAVOK 15/09 Q1016 NOSIG,1,0,0,9999,0,0,0,
2026-04-18 03:00:00,METAR LEZL 180300Z AUTO VRB02KT CAVOK 15/10 Q1016,1,0,0,9999,0,0,0,
2026-04-18 02:30:00,METAR LEZL 180230Z AUTO 00000KT 9000 NCD 16/12 Q1016,0,0,0,9000,0,0,0,
2026-04-18 02:00:00,METAR LEZL 180200Z AUTO VRB01KT CAVOK 16/12 Q1016,1,0,0,9999,0,0,0,
2026-04-18 01:30:00,METAR LEZL 180130Z AUTO VRB02KT CAVOK 16/12 Q1017,1,0,0,9999,0,0,0,
2026-04-18 01:00:00,METAR LEZL 180100Z AUTO 36004KT 9000 NCD 16/13 Q1017,0,4,0,9000,0,0,0,
2026-04-18 00:30:00,METAR LEZL 180030Z AUTO 13004KT CAVOK 16/12 Q1017,1,0,0,9999,0,0,0,
2026-04-18 00:00:00,METAR LEZL 180000Z AUTO 11003KT 090V150 9000 NCD 17/13 Q1017,0,3,0,9000,0,0,0,
2026-04-17 23:30:00,METAR LEZL 172330Z AUTO 13004KT 9000 NCD 17/13 Q1017,0,4,0,9000,0,0,0,
2026-04-17 23:00:00,METAR LEZL 172300Z 11004KT CAVOK 18/13 Q1017 NOSIG,1,0,0,9999,0,0,0,
2026-04-17 22:30:00,METAR LEZL 172230Z 11004KT CAVOK 18/13 Q1017 NOSIG,1,0,0,9999,0,0,0,
2026-04-17 22:00:00,METAR LEZL 172200Z 00000KT CAVOK 20/12 Q1017 NOSIG,1,0,0,9999,0,0,0,
2026-04-17 21:30:00,METAR LEZL 172130Z VRB02KT CAVOK 21/12 Q1017 NOSIG,1,0,0,9999,0,0,0,
2026-04-17 21:00:00,METAR LEZL 172100Z VRB01KT CAVOK 22/12 Q1017 NOSIG,1,0,0,9999,0,0,0,
2026-04-17 20:30:00,METAR LEZL 172030Z 26003KT 230V320 CAVOK 24/10 Q1016 NOSIG,1,0,0,9999,0,0,0,
2026-04-17 20:00:00,METAR LEZL 172000Z 26006KT CAVOK 25/10 Q1016 NOSIG,1,0,0,9999,0,0,0,
2026-04-17 19:30:00,METAR LEZL 171930Z 24010KT CAVOK 26/10 Q1015 NOSIG,1,0,0,9999,0,0,0,
2026-04-17 19:00:00,METAR LEZL 171900Z 23010KT CAVOK 27/12 Q1015 NOSIG,1,0,0,9999,0,0,0,
2026-04-17 18:30:00,METAR LEZL 171830Z 23003KT 200V260 CAVOK 28/10 Q1015 NOSIG,1,0,0,9999,0,0,0,
2026-04-17 18:00:00,METAR LEZL 171800Z 24004KT CAVOK 30/09 Q1015 NOSIG,1,0,0,9999,0,0,0,
2026-04-17 17:30:00,METAR LEZL 171730Z 25002KT CAVOK 31/11 Q1015 NOSIG,1,0,0,9999,0,0,0,
2026-04-17 17:00:00,METAR LEZL 171700Z 22006KT 190V250 CAVOK 31/09 Q1015 NOSIG,1,0,0,9999,0,0,0,
2026-04-17 16:30:00,METAR LEZL 171630Z 26004KT 210V360 CAVOK 31/07 Q1015 NOSIG,1,0,0,9999,0,0,0,
2026-04-17 16:00:00,METAR LEZL 171600Z 36002KT CAVOK 32/08 Q1015 NOSIG,1,0,0,9999,0,0,0,
2026-04-17 15:30:00,METAR LEZL 171530Z 27003KT CAVOK 31/08 Q1015 NOSIG,1,0,0,9999,0,0,0,
2026-04-17 15:00:00,METAR LEZL 171500Z 23004KT CAVOK 31/09 Q1015 NOSIG,1,0,0,9999,0,0,0,
2026-04-17 14:30:00,METAR LEZL 171430Z 14003KT 080V240 CAVOK 31/10 Q1015 NOSIG,1,0,0,9999,0,0,0,
2026-04-17 14:00:00,METAR LEZL 171400Z 09003KT CAVOK 31/10 Q1015 NOSIG,1,0,0,9999,0,0,0,
2026-04-17 13:30:00,METAR LEZL 171330Z 05004KT CAVOK 30/09 Q1016 NOSIG,1,0,0,9999,0,0,0,
2026-04-17 13:00:00,METAR LEZL 171300Z 07004KT 340V150 CAVOK 30/12 Q1016 NOSIG,1,0,0,9999,0,0,0,
2026-04-17 12:30:00,METAR LEZL 171230Z 09003KT CAVOK 29/11 Q1016 NOSIG,1,0,0,9999,0,0,0,
2026-04-17 12:00:00,METAR LEZL 171200Z 09003KT CAVOK 29/10 Q1017 NOSIG,1,0,0,9999,0,0,0,
2026-04-17 11:30:00,METAR LEZL 171130Z 09005KT 030V190 CAVOK 28/10 Q1017 NOSIG,1,0,0,9999,0,0,0,
2026-04-17 11:00:00,METAR LEZL 171100Z 07006KT 030V120 CAVOK 28/10 Q1018 NOSIG,1,0,0,9999,0,0,0,
2026-04-17 10:30:00,METAR LEZL 171030Z 06007KT 030V120 CAVOK 27/12 Q1018 NOSIG,1,0,0,9999,0,0,0,
2026-04-17 10:00:00,METAR LEZL 171000Z 06006KT 020V100 CAVOK 26/12 Q1018 NOSIG,1,0,0,9999,0,0,0,
2026-04-17 09:30:00,METAR LEZL 170930Z 04007KT 010V080 CAVOK 24/12 Q1018 NOSIG,1,0,0,9999,0,0,0,
2026-04-17 09:00:00,METAR LEZL 170900Z 04005KT 010V080 CAVOK 23/12 Q1018 NOSIG,1,0,0,9999,0,0,0,
2026-04-17 08:30:00,METAR LEZL 170830Z 04006KT CAVOK 21/11 Q1018 NOSIG,1,0,0,9999,0,0,0,
2026-04-17 08:00:00,METAR LEZL 170800Z 05007KT CAVOK 20/11 Q1018 NOSIG,1,0,0,9999,0,0,0,
2026-04-17 07:30:00,METAR LEZL 170730Z 04007KT CAVOK 18/11 Q1018 NOSIG,1,0,0,9999,0,0,0,
2026-04-17 07:00:00,METAR LEZL 170700Z 04004KT 010V070 CAVOK 16/12 Q1018 NOSIG,1,0,0,9999,0,0,0,
2026-04-17 06:30:00,METAR LEZL 170630Z 04003KT CAVOK 15/11 Q1018 NOSIG,1,0,0,9999,0,0,0,
2026-04-17 06:00:00,METAR LEZL 170600Z 04001KT CAVOK 14/11 Q1017 NOSIG,1,0,0,9999,0,0,0,
2026-04-17 05:30:00,METAR LEZL 170530Z 03003KT CAVOK 14/11 Q1017 NOSIG,1,0,0,9999,0,0,0,
2026-04-17 05:00:00,METAR LEZL 170500Z 03004KT CAVOK 14/11 Q1017 NOSIG,1,0,0,9999,0,0,0,
2026-04-17 04:30:00,METAR LEZL 170430Z 01004KT CAVOK 14/12 Q1017 NOSIG,1,0,0,9999,0,0,0,
2026-04-17 04:00:00,METAR LEZL 170400Z 02002KT CAVOK 14/12 Q1017 NOSIG,1,0,0,9999,0,0,0,
2026-04-17 03:30:00,METAR LEZL 170330Z 03003KT CAVOK 15/12 Q1017 NOSIG,1,0,0,9999,0,0,0,
2026-04-17 03:00:00,METAR LEZL 170300Z AUTO 03002KT CAVOK 15/12 Q1017,1,0,0,9999,0,0,0,
2026-04-17 02:30:00,METAR LEZL 170230Z AUTO 03001KT CAVOK 16/13 Q1017,1,0,0,9999,0,0,0,
2026-04-17 02:00:00,METAR LEZL 170200Z AUTO 14001KT 9000 NCD 16/13 Q1017,0,1,0,9000,0,0,0,
2026-04-17 01:30:00,METAR LEZL 170130Z AUTO 11002KT CAVOK 16/13 Q1017,1,0,0,9999,0,0,0,
2026-04-17 01:00:00,METAR LEZL 170100Z AUTO VRB02KT 9000 NCD 16/13 Q1018,0,2,0,9000,0,0,0,
2026-04-17 00:30:00,METAR LEZL 170030Z 02001KT CAVOK 18/13 Q1018 NOSIG,1,0,0,9999,0,0,0,
2026-04-17 00:00:00,METAR LEZL 170000Z 00000KT CAVOK 18/13 Q1018 NOSIG,1,0,0,9999,0,0,0,
2026-04-16 23:30:00,METAR LEZL 162330Z 19001KT CAVOK 18/13 Q1018 NOSIG,1,0,0,9999,0,0,0,
2026-04-16 23:00:00,METAR LEZL 162300Z VRB02KT CAVOK 19/13 Q1018 NOSIG,1,0,0,9999,0,0,0,
2026-04-16 22:30:00,METAR LEZL 162230Z 20003KT 170V230 CAVOK 19/12 Q1018 NOSIG,1,0,0,9999,0,0,0,
2026-04-16 22:00:00,METAR LEZL 162200Z 20004KT 160V240 CAVOK 21/12 Q1018 NOSIG,1,0,0,9999,0,0,0,
2026-04-16 21:30:00,METAR LEZL 162130Z 23006KT CAVOK 24/11 Q1018 NOSIG,1,0,0,9999,0,0,0,
2026-04-16 21:00:00,METAR LEZL 162100Z 22007KT CAVOK 24/12 Q1018 NOSIG,1,0,0,9999,0,0,0,
2026-04-16 20:30:00,METAR LEZL 162030Z 00000KT CAVOK 21/14 Q1017 NOSIG,1,0,0,9999,0,0,0,
2026-04-16 20:00:00,METAR LEZL 162000Z VRB01KT CAVOK 24/13 Q1017 NOSIG,1,0,0,9999,0,0,0,
2026-04-16 19:30:00,METAR LEZL 161930Z 36004KT 330V040 CAVOK 25/11 Q1017 NOSIG,1,0,0,9999,0,0,0,
2026-04-16 19:00:00,METAR LEZL 161900Z 34004KT 290V360 CAVOK 27/10 Q1016 NOSIG,1,0,0,9999,0,0,0,
2026-04-16 18:30:00,METAR LEZL 161830Z VRB02KT CAVOK 28/10 Q1017 NOSIG,1,0,0,9999,0,0,0,
2026-04-16 18:00:00,METAR LEZL 161800Z 35004KT 300V030 CAVOK 29/10 Q1017 NOSIG,1,0,0,9999,0,0,0,
2026-04-16 17:30:00,METAR LEZL 161730Z 01001KT CAVOK 30/09 Q1016 NOSIG,1,0,0,9999,0,0,0,
2026-04-16 17:00:00,METAR LEZL 161700Z 18001KT CAVOK 30/08 Q1016 NOSIG,1,0,0,9999,0,0,0,
2026-04-16 16:30:00,METAR LEZL 161630Z 22001KT CAVOK 30/08 Q1016 NOSIG,1,0,0,9999,0,0,0,
2026-04-16 16:00:00,METAR LEZL 161600Z 21003KT CAVOK 30/08 Q1017 NOSIG,1,0,0,9999,0,0,0,
2026-04-16 15:30:00,METAR LEZL 161530Z 27003KT 200V340 CAVOK 30/08 Q1017 NOSIG,1,0,0,9999,0,0,0,
2026-04-16 15:00:00,METAR LEZL 161500Z VRB03KT CAVOK 30/07 Q1017 NOSIG,1,0,0,9999,0,0,0,
2026-04-16 14:30:00,METAR LEZL 161430Z 08005KT 010V160 CAVOK 30/08 Q1017 NOSIG,1,0,0,9999,0,0,0,
2026-04-16 14:00:00,METAR LEZL 161400Z 25003KT CAVOK 30/10 Q1018 NOSIG,1,0,0,9999,0,0,0,
2026-04-16 13:30:00,METAR LEZL 161330Z 30001KT CAVOK 30/10 Q1018 NOSIG,1,0,0,9999,0,0,0,
2026-04-16 13:00:00,METAR LEZL 161300Z 32002KT CAVOK 29/10 Q1018 NOSIG,1,0,0,9999,0,0,0,
2026-04-16 12:30:00,METAR LEZL 161230Z 28002KT CAVOK 29/11 Q1019 NOSIG,1,0,0,9999,0,0,0,
2026-04-16 12:00:00,METAR LEZL 161200Z 09004KT 360V160 CAVOK 28/11 Q1019 NOSIG,1,0,0,9999,0,0,0,
2026-04-16 11:30:00,METAR LEZL 161130Z 07005KT 020V110 CAVOK 27/13 Q1019 NOSIG,1,0,0,9999,0,0,0,
2026-04-16 11:00:00,METAR LEZL 161100Z 08006KT 030V130 CAVOK 27/12 Q1020 NOSIG,1,0,0,9999,0,0,0,
2026-04-16 10:30:00,METAR LEZL 161030Z 08005KT 040V130 CAVOK 26/12 Q1020 NOSIG,1,0,0,9999,0,0,0,
2026-04-16 10:00:00,METAR LEZL 161000Z 07006KT 020V100 CAVOK 25/12 Q1020 NOSIG,1,0,0,9999,0,0,0,
2026-04-16 09:30:00,METAR LEZL 160930Z 06007KT 020V100 CAVOK 24/12 Q1020 NOSIG,1,0,0,9999,0,0,0,
2026-04-16 09:00:00,METAR LEZL 160900Z 05006KT 020V100 CAVOK 23/12 Q1020 NOSIG,1,0,0,9999,0,0,0,
2026-04-16 08:30:00,METAR LEZL 160830Z 03006KT 010V140 CAVOK 21/12 Q1020 NOSIG,1,0,0,9999,0,0,0,
2026-04-16 08:00:00,METAR LEZL 160800Z 05006KT 020V080 CAVOK 19/12 Q1020 NOSIG,1,0,0,9999,0,0,0,
2026-04-16 07:30:00,METAR LEZL 160730Z 04004KT CAVOK 17/12 Q1020 NOSIG,1,0,0,9999,0,0,0,
2026-04-16 07:00:00,METAR LEZL 160700Z 04003KT 010V070 CAVOK 16/12 Q1020 NOSIG,1,0,0,9999,0,0,0,
2026-04-16 06:30:00,METAR LEZL 160630Z 04005KT CAVOK 14/12 Q1020 NOSIG,1,0,0,9999,0,0,0,
2026-04-16 06:00:00,METAR LEZL 160600Z 05005KT CAVOK 13/11 Q1020 NOSIG,1,0,0,9999,0,0,0,
2026-04-16 05:30:00,METAR LEZL 160530Z 03004KT CAVOK 14/10 Q1019 NOSIG,1,0,0,9999,0,0,0,
2026-04-16 05:00:00,METAR LEZL 160500Z 04005KT CAVOK 14/10 Q1019 NOSIG,1,0,0,9999,0,0,0,
2026-04-16 04:30:00,METAR LEZL 160430Z VRB02KT CAVOK 14/10 Q1019 NOSIG,1,0,0,9999,0,0,0,
2026-04-16 04:00:00,METAR LEZL 160400Z VRB02KT CAVOK 14/10 Q1020 NOSIG,1,0,0,9999,0,0,0,
2026-04-16 03:30:00,METAR LEZL 160330Z 07004KT 040V100 CAVOK 14/10 Q1019 NOSIG,1,0,0,9999,0,0,0,
2026-04-16 03:00:00,METAR LEZL 160300Z AUTO 06004KT CAVOK 14/11 Q1019,1,0,0,9999,0,0,0,
2026-04-16 02:30:00,METAR LEZL 160230Z AUTO VRB02KT CAVOK 16/11 Q1020,1,0,0,9999,0,0,0,
2026-04-16 02:00:00,METAR LEZL 160200Z AUTO 14003KT 100V160 CAVOK 15/11 Q1020,1,0,0,9999,0,0,0,
2026-04-16 01:30:00,METAR LEZL 160130Z AUTO 15003KT 120V180 CAVOK 15/12 Q1020,1,0,0,9999,0,0,0,
2026-04-16 01:00:00,METAR LEZL 160100Z AUTO 00000KT CAVOK 14/12 Q1020,1,0,0,9999,0,0,0,
2026-04-16 00:30:00,METAR LEZL 160030Z AUTO VRB01KT CAVOK 15/12 Q1020,1,0,0,9999,0,0,0,
2026-04-16 00:00:00,METAR LEZL 160000Z AUTO VRB01KT 9000 NCD 15/12 Q1020,0,1,0,9000,0,0,0,
2026-04-15 23:30:00,METAR LEZL 152330Z AUTO VRB02KT CAVOK 16/12 Q1020,1,0,0,9999,0,0,0,
2026-04-15 23:00:00,METAR LEZL 152300Z 00000KT CAVOK 18/11 Q1020 NOSIG,1,0,0,9999,0,0,0,
2026-04-15 22:30:00,METAR LEZL 152230Z 28004KT 260V320 CAVOK 19/12 Q1020 NOSIG,1,0,0,9999,0,0,0,
2026-04-15 22:00:00,METAR LEZL 152200Z 31004KT 280V360 CAVOK 20/12 Q1020 NOSIG,1,0,0,9999,0,0,0,
2026-04-15 21:30:00,METAR LEZL 152130Z 31004KT 290V350 CAVOK 21/12 Q1020 NOSIG,1,0,0,9999,0,0,0,
2026-04-15 21:00:00,METAR LEZL 152100Z 32004KT CAVOK 21/13 Q1020 NOSIG,1,0,0,9999,0,0,0,
2026-04-15 20:30:00,METAR LEZL 152030Z 28007KT CAVOK 23/12 Q1020 NOSIG,1,0,0,9999,0,0,0,
2026-04-15 20:00:00,METAR LEZL 152000Z 27008KT CAVOK 23/13 Q1019 NOSIG,1,0,0,9999,0,0,0,
2026-04-15 19:30:00,METAR LEZL 151930Z VRB02KT CAVOK 23/12 Q1019 NOSIG,1,0,0,9999,0,0,0,
2026-04-15 19:00:00,METAR LEZL 151900Z 15002KT CAVOK 24/12 Q1019 NOSIG,1,0,0,9999,0,0,0,
2026-04-15 18:30:00,METAR LEZL 151830Z 16002KT CAVOK 26/10 Q1019 NOSIG,1,0,0,9999,0,0,0,
2026-04-15 18:00:00,METAR LEZL 151800Z VRB02KT CAVOK 27/11 Q1019 NOSIG,1,0,0,9999,0,0,0,
2026-04-15 17:30:00,METAR LEZL 151730Z 01001KT CAVOK 28/10 Q1019 NOSIG,1,0,0,9999,0,0,0,
2026-04-15 17:00:00,METAR LEZL 151700Z 30002KT CAVOK 28/09 Q1019 NOSIG,1,0,0,9999,0,0,0,
2026-04-15 16:30:00,METAR LEZL 151630Z 05002KT CAVOK 28/09 Q1019 NOSIG,1,0,0,9999,0,0,0,
2026-04-15 16:00:00,METAR LEZL 151600Z 14002KT CAVOK 28/10 Q1019 NOSIG,1,0,0,9999,0,0,0,
2026-04-15 15:30:00,METAR LEZL 151530Z 11003KT CAVOK 27/08 Q1019 NOSIG,1,0,0,9999,0,0,0,
2026-04-15 15:00:00,METAR LEZL 151500Z 31002KT CAVOK 27/08 Q1020 NOSIG,1,0,0,9999,0,0,0,
2026-04-15 14:30:00,METAR LEZL 151430Z 31003KT CAVOK 27/09 Q1020 NOSIG,1,0,0,9999,0,0,0,
2026-04-15 14:00:00,METAR LEZL 151400Z 08001KT CAVOK 26/09 Q1020 NOSIG,1,0,0,9999,0,0,0,
2026-04-15 13:30:00,METAR LEZL 151330Z 01004KT CAVOK 26/10 Q1021 NOSIG,1,0,0,9999,0,0,0,
2026-04-15 13:00:00,METAR LEZL 151300Z 11002KT CAVOK 26/09 Q1021 NOSIG,1,0,0,9999,0,0,0,
2026-04-15 12:30:00,METAR LEZL 151230Z 04004KT CAVOK 25/09 Q1021 NOSIG,1,0,0,9999,0,0,0,
2026-04-15 12:00:00,METAR LEZL 151200Z 06002KT CAVOK 25/10 Q1021 NOSIG,1,0,0,9999,0,0,0,
2026-04-15 11:30:00,METAR LEZL 151130Z 05005KT 350V100 CAVOK 24/12 Q1022 NOSIG,1,0,0,9999,0,0,0,
2026-04-15 11:00:00,METAR LEZL 151100Z 07005KT 010V110 CAVOK 24/11 Q1022 NOSIG,1,0,0,9999,0,0,0,
2026-04-15 10:30:00,METAR LEZL 151030Z 05005KT 020V090 CAVOK 23/11 Q1022 NOSIG,1,0,0,9999,0,0,0,
2026-04-15 10:00:00,METAR LEZL 151000Z 07004KT 030V130 CAVOK 22/12 Q1022 NOSIG,1,0,0,9999,0,0,0,
2026-04-15 09:30:00,METAR LEZL 150930Z 06004KT 350V110 CAVOK 21/11 Q1022 NOSIG,1,0,0,9999,0,0,0,
2026-04-15 09:00:00,METAR LEZL 150900Z 05004KT 020V090 CAVOK 20/11 Q1022 NOSIG,1,0,0,9999,0,0,0,
2026-04-15 08:30:00,METAR LEZL 150830Z 04005KT 010V070 CAVOK 20/12 Q1022 NOSIG,1,0,0,9999,0,0,0,
2026-04-15 08:00:00,METAR LEZL 150800Z 04003KT 010V090 CAVOK 18/13 Q1022 NOSIG,1,0,0,9999,0,0,0,
2026-04-15 07:30:00,METAR LEZL 150730Z VRB02KT CAVOK 16/12 Q1022 NOSIG,1,0,0,9999,0,0,0,
2026-04-15 07:00:00,METAR LEZL 150700Z 00000KT CAVOK 14/13 Q1022 NOSIG,1,0,0,9999,0,0,0,
2026-04-15 06:30:00,METAR LEZL 150630Z 16001KT CAVOK 12/11 Q1022 NOSIG,1,0,0,9999,0,0,0,
2026-04-15 06:00:00,METAR LEZL 150600Z VRB02KT CAVOK 11/10 Q1021 NOSIG,1,0,0,9999,0,0,0,
2026-04-15 05:30:00,METAR LEZL 150530Z VRB02KT CAVOK 13/11 Q1021 NOSIG,1,0,0,9999,0,0,0,
2026-04-15 05:00:00,METAR LEZL 150500Z 08004KT 030V120 CAVOK 13/11 Q1020 NOSIG,1,0,0,9999,0,0,0,
2026-04-15 04:30:00,METAR LEZL 150430Z 08004KT CAVOK 12/11 Q1020 NOSIG,1,0,0,9999,0,0,0,
2026-04-15 04:00:00,METAR LEZL 150400Z 00000KT CAVOK 12/11 Q1021 NOSIG,1,0,0,9999,0,0,0,
2026-04-15 03:30:00,METAR LEZL 150330Z 00000KT CAVOK 12/11 Q1021 NOSIG,1,0,0,9999,0,0,0,
2026-04-15 03:00:00,METAR LEZL 150300Z AUTO 00000KT 9000 NCD 13/11 Q1021,0,0,0,9000,0,0,0,
2026-04-15 02:30:00,METAR LEZL 150230Z AUTO 24001KT 9000 NCD 13/12 Q1021,0,1,0,9000,0,0,0,
2026-04-15 02:00:00,METAR LEZL 150200Z AUTO 14003KT 110V170 8000 NCD 12/11 Q1021,0,3,0,8000,0,0,0,
2026-04-15 01:30:00,METAR LEZL 150130Z AUTO 14004KT 9000 NCD 12/11 Q1021,0,4,0,9000,0,0,0,
2026-04-15 01:00:00,METAR LEZL 150100Z AUTO 15004KT CAVOK 13/11 Q1021,1,0,0,9999,0,0,0,
2026-04-15 00:30:00,METAR LEZL 150030Z AUTO 17003KT CAVOK 13/12 Q1021,1,0,0,9999,0,0,0,
2026-04-15 00:00:00,METAR LEZL 150000Z AUTO 14001KT CAVOK 14/12 Q1021,1,0,0,9999,0,0,0,
2026-04-14 23:30:00,METAR LEZL 142330Z AUTO 14001KT 9000 NCD 14/12 Q1021,0,1,0,9000,0,0,0,
2026-04-14 23:00:00,METAR LEZL 142300Z VRB01KT CAVOK 15/12 Q1021 NOSIG,1,0,0,9999,0,0,0,
2026-04-14 22:30:00,METAR LEZL 142230Z VRB02KT CAVOK 17/13 Q1021 NOSIG,1,0,0,9999,0,0,0,
2026-04-14 22:00:00,METAR LEZL 142200Z 21003KT CAVOK 17/13 Q1022 NOSIG,1,0,0,9999,0,0,0,
2026-04-14 21:30:00,METAR LEZL 142130Z VRB01KT CAVOK 18/13 Q1021 NOSIG,1,0,0,9999,0,0,0,
2026-04-14 21:00:00,METAR LEZL 142100Z 26003KT CAVOK 19/13 Q1021 NOSIG,1,0,0,9999,0,0,0,
2026-04-14 20:30:00,METAR LEZL 142030Z 28006KT CAVOK 19/13 Q1021 NOSIG,1,0,0,9999,0,0,0,
2026-04-14 20:00:00,METAR LEZL 142000Z 27007KT CAVOK 20/13 Q1021 NOSIG,1,0,0,9999,0,0,0,
2026-04-14 19:30:00,METAR LEZL 141930Z 28008KT CAVOK 21/13 Q1020 NOSIG,1,0,0,9999,0,0,0,
2026-04-14 19:00:00,METAR LEZL 141900Z 28007KT 250V320 CAVOK 22/11 Q1020 NOSIG,1,0,0,9999,0,0,0,
2026-04-14 18:30:00,METAR LEZL 141830Z 29005KT 250V320 CAVOK 23/10 Q1020 NOSIG,1,0,0,9999,0,0,0,
2026-04-14 18:00:00,METAR LEZL 141800Z 30008KT 260V340 CAVOK 23/10 Q1019 NOSIG,1,0,0,9999,0,0,0,
2026-04-14 17:30:00,METAR LEZL 141730Z 28005KT 250V330 CAVOK 24/10 Q1019 NOSIG,1,0,0,9999,0,0,0,
2026-04-14 17:00:00,METAR LEZL 141700Z 31008KT 280V350 CAVOK 25/10 Q1019 NOSIG,1,0,0,9999,0,0,0,
2026-04-14 16:30:00,METAR LEZL 141630Z 28008KT 230V330 9999 FEW049 24/10 Q1019 NOSIG,0,8,0,10000,0,0,0,
2026-04-14 16:00:00,METAR LEZL 141600Z 27008KT 240V330 9999 SCT049 24/11 Q1019 NOSIG,0,8,0,10000,0,0,0,
2026-04-14 15:30:00,METAR LEZL 141530Z 30007KT 9999 SCT049 24/10 Q1020 NOSIG,0,7,0,10000,0,0,0,
2026-04-14 15:00:00,METAR LEZL 141500Z 28010KT 9999 SCT049 24/10 Q1020 NOSIG,0,10,0,10000,0,0,0,
2026-04-14 14:30:00,METAR LEZL 141430Z 35004KT 9999 SCT049 23/10 Q1020 NOSIG,0,4,0,10000,0,0,0,
2026-04-14 14:00:00,METAR LEZL 141400Z VRB05KT 9999 SCT047 23/08 Q1020 NOSIG,0,5,0,10000,0,0,0,
2026-04-14 13:30:00,METAR LEZL 141330Z 04009KT 010V080 9999 SCT047 24/09 Q1021 NOSIG,0,9,0,10000,0,0,0,
2026-04-14 13:00:00,METAR LEZL 141300Z 02007KT 340V090 9999 FEW047 22/10 Q1021 NOSIG,0,7,0,10000,0,0,0,
2026-04-14 12:30:00,METAR LEZL 141230Z 03005KT 330V090 9999 FEW045 22/11 Q1021 NOSIG,0,5,0,10000,0,0,0,
2026-04-14 12:00:00,METAR LEZL 141200Z 04007KT 9999 FEW040 21/10 Q1022 NOSIG,0,7,0,10000,0,0,0,
2026-04-14 11:30:00,METAR LEZL 141130Z 02005KT 280V080 9999 FEW040 20/10 Q1022 NOSIG,0,5,0,10000,0,0,0,
2026-04-14 11:00:00,METAR LEZL 141100Z 02005KT 300V100 9999 FEW040 19/10 Q1023 NOSIG,0,5,0,10000,0,0,0,
2026-04-14 10:30:00,METAR LEZL 141030Z COR 03005KT 300V110 9999 FEW040 19/10 Q1023 NOSIG,0,5,0,10000,0,0,0,
2026-04-14 10:00:00,METAR LEZL 141000Z 02007KT 340V070 CAVOK 18/11 Q1023 NOSIG,1,0,0,9999,0,0,0,
2026-04-14 09:30:00,METAR LEZL 140930Z 03009KT 350V070 CAVOK 17/10 Q1023 NOSIG,1,0,0,9999,0,0,0,
2026-04-14 09:00:00,METAR LEZL 140900Z 02011KT 340V070 CAVOK 17/10 Q1023 NOSIG,1,0,0,9999,0,0,0,
2026-04-14 08:30:00,METAR LEZL 140830Z 01013KT 340V040 CAVOK 16/10 Q1023 NOSIG,1,0,0,9999,0,0,0,
2026-04-14 08:00:00,METAR LEZL 140800Z 02010KT CAVOK 15/10 Q1023 NOSIG,1,0,0,9999,0,0,0,
2026-04-14 07:30:00,METAR LEZL 140730Z 02007KT 330V050 CAVOK 14/09 Q1023 NOSIG,1,0,0,9999,0,0,0,
2026-04-14 07:00:00,METAR LEZL 140700Z VRB01KT CAVOK 12/10 Q1023 NOSIG,1,0,0,9999,0,0,0,
2026-04-14 06:30:00,METAR LEZL 140630Z VRB02KT CAVOK 10/09 Q1023 NOSIG,1,0,0,9999,0,0,0,
2026-04-14 06:00:00,METAR LEZL 140600Z 11002KT CAVOK 09/08 Q1022 NOSIG,1,0,0,9999,0,0,0,
2026-04-14 05:30:00,METAR LEZL 140530Z 12003KT CAVOK 09/08 Q1022 NOSIG,1,0,0,9999,0,0,0,
2026-04-14 05:00:00,METAR LEZL 140500Z 00000KT CAVOK 10/08 Q1022 NOSIG,1,0,0,9999,0,0,0,
2026-04-14 04:30:00,METAR LEZL 140430Z 12002KT CAVOK 10/08 Q1022 NOSIG,1,0,0,9999,0,0,0,
2026-04-14 04:00:00,METAR LEZL 140400Z 00000KT CAVOK 11/08 Q1022 NOSIG,1,0,0,9999,0,0,0,
2026-04-14 03:30:00,METAR LEZL 140330Z 00000KT CAVOK 10/08 Q1022 NOSIG,1,0,0,9999,0,0,0,
2026-04-14 03:00:00,METAR LEZL 140300Z AUTO 29003KT 9000 NCD 10/08 Q1022,0,3,0,9000,0,0,0,
2026-04-14 02:30:00,METAR LEZL 140230Z AUTO 28004KT CAVOK 11/08 Q1022,1,0,0,9999,0,0,0,
2026-04-14 02:00:00,METAR LEZL 140200Z AUTO 28003KT CAVOK 11/08 Q1022,1,0,0,9999,0,0,0,
2026-04-14 01:30:00,METAR LEZL 140130Z AUTO 31002KT CAVOK 12/08 Q1022,1,0,0,9999,0,0,0,
2026-04-14 01:00:00,METAR LEZL 140100Z AUTO 28002KT CAVOK 11/08 Q1022,1,0,0,9999,0,0,0,
2026-04-14 00:30:00,METAR LEZL 140030Z AUTO 32005KT CAVOK 12/08 Q1022,1,0,0,9999,0,0,0,
2026-04-14 00:00:00,METAR LEZL 140000Z AUTO 32005KT CAVOK 12/08 Q1022,1,0,0,9999,0,0,0,
2026-04-13 23:30:00,METAR LEZL 132330Z AUTO 32005KT CAVOK 12/08 Q1022,1,0,0,9999,0,0,0,
2026-04-13 23:00:00,METAR LEZL 132300Z 31006KT CAVOK 13/08 Q1022 NOSIG,1,0,0,9999,0,0,0,
2026-04-13 22:30:00,METAR LEZL 132230Z 31004KT 270V340 CAVOK 14/08 Q1022 NOSIG,1,0,0,9999,0,0,0,
2026-04-13 22:00:00,METAR LEZL 132200Z 30007KT CAVOK 14/08 Q1022 NOSIG,1,0,0,9999,0,0,0,
2026-04-13 21:30:00,METAR LEZL 132130Z 29009KT CAVOK 15/08 Q1022 NOSIG,1,0,0,9999,0,0,0,
2026-04-13 21:00:00,METAR LEZL 132100Z 28008KT CAVOK 16/08 Q1021 NOSIG,1,0,0,9999,0,0,0,
2026-04-13 20:30:00,METAR LEZL 132030Z 29007KT CAVOK 16/08 Q1021 NOSIG,1,0,0,9999,0,0,0,
2026-04-13 20:00:00,METAR LEZL 132000Z 30007KT CAVOK 17/08 Q1020 NOSIG,1,0,0,9999,0,0,0,
2026-04-13 19:30:00,METAR LEZL 131930Z 30008KT CAVOK 17/07 Q1020 NOSIG,1,0,0,9999,0,0,0,
2026-04-13 19:00:00,METAR LEZL 131900Z 31009KT CAVOK 18/07 Q1020 NOSIG,1,0,0,9999,0,0,0,
2026-04-13 18:30:00,METAR LEZL 131830Z 31011KT CAVOK 18/07 Q1019 NOSIG,1,0,0,9999,0,0,0,
2026-04-13 18:00:00,METAR LEZL 131800Z 31009KT 270V340 CAVOK 19/07 Q1019 NOSIG,1,0,0,9999,0,0,0,
2026-04-13 17:30:00,METAR LEZL 131730Z 33011KT 290V360 CAVOK 19/06 Q1019 NOSIG,1,0,0,9999,0,0,0,
2026-04-13 17:00:00,METAR LEZL 131700Z 31012KT CAVOK 20/06 Q1019 NOSIG,1,0,0,9999,0,0,0,
2026-04-13 16:30:00,METAR LEZL 131630Z 31013KT CAVOK 19/06 Q1019 NOSIG,1,0,0,9999,0,0,0,
2026-04-13 16:00:00,METAR LEZL 131600Z 31015KT 280V350 CAVOK 20/05 Q1019 NOSIG,1,0,0,9999,0,0,0,
2026-04-13 15:30:00,METAR LEZL 131530Z 32015KT 280V350 CAVOK 20/06 Q1019 NOSIG,1,0,0,9999,0,0,0,
2026-04-13 15:00:00,METAR LEZL 131500Z 31015KT 280V340 CAVOK 20/06 Q1019 NOSIG,1,0,0,9999,0,0,0,
2026-04-13 14:30:00,METAR LEZL 131430Z 33013KT 290V360 CAVOK 20/05 Q1019 NOSIG,1,0,0,9999,0,0,0,
2026-04-13 14:00:00,METAR LEZL 131400Z 32012G27KT 280V010 CAVOK 20/05 Q1019 NOSIG,1,0,0,9999,0,0,0,
2026-04-13 13:30:00,METAR LEZL 131330Z 30013KT 260V340 CAVOK 20/05 Q1019 NOSIG,1,0,0,9999,0,0,0,
2026-04-13 13:00:00,METAR LEZL 131300Z 34012KT 300V020 CAVOK 20/04 Q1019 NOSIG,1,0,0,9999,0,0,0,
2026-04-13 12:30:00,METAR LEZL 131230Z 34016G26KT 320V030 CAVOK 19/02 Q1019 NOSIG,1,0,0,9999,0,0,0,
2026-04-13 12:00:00,METAR LEZL 131200Z 34012KT 300V020 CAVOK 19/04 Q1019 NOSIG,1,0,0,9999,0,0,0,
2026-04-13 11:30:00,METAR LEZL 131130Z 32016KT 290V360 CAVOK 19/03 Q1019 NOSIG,1,0,0,9999,0,0,0,
2026-04-13 11:00:00,METAR LEZL 131100Z 34015KT CAVOK 18/03 Q1020 NOSIG,1,0,0,9999,0,0,0,
2026-04-13 10:30:00,METAR LEZL 131030Z 34016KT 300V010 CAVOK 18/03 Q1020 NOSIG,1,0,0,9999,0,0,0,
2026-04-13 10:00:00,METAR LEZL 131000Z 34015KT CAVOK 17/03 Q1019 NOSIG,1,0,0,9999,0,0,0,
2026-04-13 09:30:00,METAR LEZL 130930Z 35012KT 320V020 CAVOK 16/03 Q1020 NOSIG,1,0,0,9999,0,0,0,
2026-04-13 09:00:00,METAR LEZL 130900Z 33010KT 290V010 CAVOK 15/04 Q1020 NOSIG,1,0,0,9999,0,0,0,
2026-04-13 08:30:00,METAR LEZL 130830Z 34008KT 290V020 CAVOK 14/04 Q1020 NOSIG,1,0,0,9999,0,0,0,
2026-04-13 08:00:00,METAR LEZL 130800Z 34005KT 270V020 CAVOK 13/05 Q1020 NOSIG,1,0,0,9999,0,0,0,
2026-04-13 07:30:00,METAR LEZL 130730Z 34004KT 290V010 CAVOK 12/04 Q1020 NOSIG,1,0,0,9999,0,0,0,
2026-04-13 07:00:00,METAR LEZL 130700Z 30008KT CAVOK 11/05 Q1019 NOSIG,1,0,0,9999,0,0,0,
2026-04-13 06:30:00,METAR LEZL 130630Z 30007KT CAVOK 10/04 Q1019 NOSIG,1,0,0,9999,0,0,0,
2026-04-13 06:00:00,METAR LEZL 130600Z 30006KT CAVOK 09/04 Q1019 NOSIG,1,0,0,9999,0,0,0,
2026-04-13 05:30:00,METAR LEZL 130530Z 30008KT CAVOK 09/04 Q1018 NOSIG,1,0,0,9999,0,0,0,
2026-04-13 05:00:00,METAR LEZL 130500Z 29008KT CAVOK 10/04 Q1018 NOSIG,1,0,0,9999,0,0,0,
2026-04-13 04:30:00,METAR LEZL 130430Z 29011KT CAVOK 10/04 Q1018 NOSIG,1,0,0,9999,0,0,0,
2026-04-13 04:00:00,METAR LEZL 130400Z 30009KT CAVOK 10/04 Q1018 NOSIG,1,0,0,9999,0,0,0,
2026-04-13 03:30:00,METAR LEZL 130330Z 32010KT CAVOK 11/04 Q1017 NOSIG,1,0,0,9999,0,0,0,
2026-04-13 03:00:00,METAR LEZL 130300Z AUTO 30012KT CAVOK 11/04 Q1017,1,0,0,9999,0,0,0,
2026-04-13 02:30:00,METAR LEZL 130230Z AUTO 30009KT CAVOK 11/04 Q1017,1,0,0,9999,0,0,0,
2026-04-13 02:00:00,METAR LEZL 130200Z AUTO 30009KT CAVOK 12/04 Q1017,1,0,0,9999,0,0,0,
2026-04-13 01:30:00,METAR LEZL 130130Z AUTO 29008KT 260V320 CAVOK 12/04 Q1017,1,0,0,9999,0,0,0,
2026-04-13 01:00:00,METAR LEZL 130100Z AUTO 30008KT 9000 NCD 13/04 Q1018,0,8,0,9000,0,0,0,
2026-04-13 00:30:00,METAR LEZL 130030Z 30008KT 270V330 CAVOK 13/04 Q1017 NOSIG,1,0,0,9999,0,0,0,
2026-04-13 00:00:00,METAR LEZL 130000Z 31004KT 250V350 CAVOK 13/05 Q1017 NOSIG,1,0,0,9999,0,0,0,
2026-04-12 23:30:00,METAR LEZL 122330Z 32006KT 290V040 CAVOK 13/04 Q1017 NOSIG,1,0,0,9999,0,0,0,
2026-04-12 23:00:00,METAR LEZL 122300Z 30010KT CAVOK 14/04 Q1017 NOSIG,1,0,0,9999,0,0,0,
2026-04-12 22:30:00,METAR LEZL 122230Z 30012KT CAVOK 15/04 Q1017 NOSIG,1,0,0,9999,0,0,0,
2026-04-12 22:00:00,METAR LEZL 122200Z 30009KT CAVOK 15/05 Q1016 NOSIG,1,0,0,9999,0,0,0,
2026-04-12 21:30:00,METAR LEZL 122130Z 30010KT 260V320 CAVOK 15/05 Q1016 NOSIG,1,0,0,9999,0,0,0,
2026-04-12 21:00:00,METAR LEZL 122100Z 29009KT 260V320 CAVOK 16/05 Q1016 NOSIG,1,0,0,9999,0,0,0,
2026-04-12 20:30:00,METAR LEZL 122030Z 31013KT CAVOK 17/04 Q1015 NOSIG,1,0,0,9999,0,0,0,
2026-04-12 20:00:00,METAR LEZL 122000Z 30012KT CAVOK 17/05 Q1015 NOSIG,1,0,0,9999,0,0,0,
2026-04-12 19:30:00,METAR LEZL 121930Z 31014KT CAVOK 18/05 Q1014 NOSIG,1,0,0,9999,0,0,0,
2026-04-12 19:00:00,METAR LEZL 121900Z 30012KT CAVOK 19/05 Q1013 NOSIG,1,0,0,9999,0,0,0,
2026-04-12 18:30:00,METAR LEZL 121830Z 31013KT CAVOK 20/03 Q1013 NOSIG,1,0,0,9999,0,0,0,
2026-04-12 18:00:00,METAR LEZL 121800Z 31015KT 280V340 CAVOK 21/03 Q1012 NOSIG,1,0,0,9999,0,0,0,
2026-04-12 17:30:00,METAR LEZL 121730Z 31016KT CAVOK 22/02 Q1012 NOSIG,1,0,0,9999,0,0,0,
2026-04-12 17:00:00,METAR LEZL 121700Z 31016KT 280V340 CAVOK 22/03 Q1012 NOSIG,1,0,0,9999,0,0,0,
2026-04-12 16:30:00,METAR LEZL 121630Z 31016KT CAVOK 23/05 Q1012 NOSIG,1,0,0,9999,0,0,0,
2026-04-12 16:00:00,METAR LEZL 121600Z 30018KT 270V330 CAVOK 22/06 Q1012 NOSIG,1,0,0,9999,0,0,0,
2026-04-12 15:00:00,METAR LEZL 121500Z 29014KT 250V350 9999 FEW049 23/09 Q1011 NOSIG,0,14,0,10000,0,0,0,
2026-04-12 14:30:00,METAR LEZL 121430Z 29013KT 240V320 9999 FEW049 23/09 Q1012 NOSIG,0,13,0,10000,0,0,0,
2026-04-12 14:00:00,METAR LEZL 121400Z 30012KT 280V340 9999 FEW049 22/09 Q1012 NOSIG,0,12,0,10000,0,0,0,
2026-04-12 13:30:00,METAR LEZL 121330Z 31014KT 260V340 9999 SCT049 22/10 Q1012 NOSIG,0,14,0,10000,0,0,0,
2026-04-12 13:00:00,METAR LEZL 121300Z 28011KT 230V320 9999 FEW045 21/10 Q1012 NOSIG,0,11,0,10000,0,0,0,
2026-04-12 12:30:00,METAR LEZL 121230Z 29008KT 240V330 9999 FEW040 21/10 Q1012 NOSIG,0,8,0,10000,0,0,0,
2026-04-12 12:00:00,METAR LEZL 121200Z 25007KT 200V310 9999 FEW040 20/11 Q1012 NOSIG,0,7,0,10000,0,0,0,
2026-04-12 11:30:00,METAR LEZL 121130Z 27007KT 220V320 CAVOK 19/10 Q1013 NOSIG,1,0,0,9999,0,0,0,
2026-04-12 11:00:00,METAR LEZL 121100Z 28006KT 230V340 CAVOK 18/09 Q1013 NOSIG,1,0,0,9999,0,0,0,
2026-04-12 10:30:00,METAR LEZL 121030Z 31007KT 260V360 CAVOK 18/09 Q1013 NOSIG,1,0,0,9999,0,0,0,
2026-04-12 10:00:00,METAR LEZL 121000Z 29009KT 260V340 CAVOK 17/09 Q1013 NOSIG,1,0,0,9999,0,0,0,
2026-04-12 09:30:00,METAR LEZL 120930Z 30008KT 270V330 CAVOK 16/08 Q1013 NOSIG,1,0,0,9999,0,0,0,
2026-04-12 09:00:00,METAR LEZL 120900Z 29010KT 250V320 CAVOK 15/08 Q1013 NOSIG,1,0,0,9999,0,0,0,
2026-04-12 08:30:00,METAR LEZL 120830Z 28007KT 250V330 CAVOK 15/10 Q1013 NOSIG,1,0,0,9999,0,0,0,
2026-04-12 08:00:00,METAR LEZL 120800Z 30009KT 270V330 CAVOK 14/09 Q1013 NOSIG,1,0,0,9999,0,0,0,
2026-04-12 07:30:00,METAR LEZL 120730Z 31006KT 270V340 CAVOK 13/08 Q1012 NOSIG,1,0,0,9999,0,0,0,
2026-04-12 07:00:00,METAR LEZL 120700Z 32005KT 290V350 CAVOK 12/08 Q1012 NOSIG,1,0,0,9999,0,0,0,
2026-04-12 06:30:00,METAR LEZL 120630Z 33004KT 300V360 CAVOK 12/08 Q1012 NOSIG,1,0,0,9999,0,0,0,
2026-04-12 06:00:00,METAR LEZL 120600Z 32005KT 280V340 CAVOK 11/08 Q1011 NOSIG,1,0,0,9999,0,0,0,
2026-04-12 05:30:00,METAR LEZL 120530Z 32009KT CAVOK 12/09 Q1011 NOSIG,1,0,0,9999,0,0,0,
2026-04-12 05:00:00,METAR LEZL 120500Z 31005KT 280V340 CAVOK 12/10 Q1011 NOSIG,1,0,0,9999,0,0,0,
2026-04-12 04:30:00,METAR LEZL 120430Z 30005KT CAVOK 13/10 Q1011 NOSIG,1,0,0,9999,0,0,0,
2026-04-12 04:00:00,METAR LEZL 120400Z 29005KT CAVOK 13/11 Q1010 NOSIG,1,0,0,9999,0,0,0,
2026-04-12 03:30:00,METAR LEZL 120330Z VRB02KT CAVOK 13/11 Q1010 NOSIG,1,0,0,9999,0,0,0,
2026-04-12 03:00:00,METAR LEZL 120300Z AUTO 30003KT 250V340 9000 NCD 14/11 Q1010,0,3,0,9000,0,0,0,
2026-04-12 02:30:00,METAR LEZL 120230Z AUTO VRB02KT CAVOK 14/11 Q1010,1,0,0,9999,0,0,0,
2026-04-12 02:00:00,METAR LEZL 120200Z AUTO VRB02KT CAVOK 14/12 Q1010,1,0,0,9999,0,0,0,
2026-04-12 01:30:00,METAR LEZL 120130Z AUTO 30004KT CAVOK 15/12 Q1010,1,0,0,9999,0,0,0,
2026-04-12 01:00:00,METAR LEZL 120100Z AUTO VRB02KT 6000 NCD 15/14 Q1010,0,2,0,6000,0,0,0,
2026-04-12 00:30:00,METAR LEZL 120030Z AUTO VRB02KT 7000 NCD 15/14 Q1010,0,2,0,7000,0,0,0,
2026-04-12 00:00:00,METAR LEZL 120000Z AUTO 21003KT 160V250 8000 NCD 16/15 Q1010,0,3,0,8000,0,0,0,
2026-04-11 23:30:00,METAR LEZL 112330Z 21007KT CAVOK 16/15 Q1010 NOSIG,1,0,0,9999,0,0,0,
2026-04-11 23:00:00,METAR LEZL 112300Z 20006KT 170V230 CAVOK 16/15 Q1010 NOSIG,1,0,0,9999,0,0,0,
2026-04-11 22:30:00,METAR LEZL 112230Z 21009KT 170V240 CAVOK 16/15 Q1010 NOSIG,1,0,0,9999,0,0,0,
2026-04-11 22:00:00,METAR LEZL 112200Z 20008KT 160V230 CAVOK 17/15 Q1010 NOSIG,1,0,0,9999,0,0,0,
2026-04-11 21:30:00,METAR LEZL 112130Z 20007KT 170V240 9999 FEW009 17/16 Q1011 NOSIG,0,7,0,10000,0,0,0,
2026-04-11 21:00:00,METAR LEZL 112100Z 21008KT 180V240 CAVOK 17/16 Q1011 NOSIG,1,0,0,9999,0,0,0,
2026-04-11 20:30:00,METAR LEZL 112030Z 19006KT 150V240 9999 FEW025 17/16 Q1010 NOSIG,0,6,0,10000,0,0,0,
2026-04-11 20:00:00,METAR LEZL 112000Z 20007KT 170V230 9999 FEW010 17/16 Q1010 NOSIG,0,7,0,10000,0,0,0,
2026-04-11 19:30:00,METAR LEZL 111930Z 21010KT 170V240 9999 FEW012 18/16 Q1010 NOSIG,0,10,0,10000,0,0,0,
2026-04-11 19:00:00,METAR LEZL 111900Z 21008KT 170V240 CAVOK 18/16 Q1009 NOSIG,1,0,0,9999,0,0,0,
2026-04-11 18:30:00,METAR LEZL 111830Z 23006KT 150V290 9999 FEW020 19/17 Q1009 RETSRA NOSIG,0,6,0,10000,1,0,0,RA
2026-04-11 18:09:00,SPECI LEZL 111809Z 22012KT 190V250 7000 TSRA FEW020 SCT032CB 20/16 Q1009 NOSIG,0,12,0,7000,1,0,0,"RA,TS"
2026-04-11 18:00:00,METAR LEZL 111800Z 23009KT 200V260 9999 TS FEW020 SCT030CB 20/16 Q1009 NOSIG,0,9,0,10000,1,0,0,TS
2026-04-11 17:30:00,METAR LEZL 111730Z 22012KT 9999 FEW049CB 21/16 Q1009 NOSIG,0,12,0,10000,0,0,0,
2026-04-11 17:00:00,METAR LEZL 111700Z 22012KT CAVOK 21/16 Q1009 NOSIG,1,0,0,9999,0,0,0,
2026-04-11 16:30:00,METAR LEZL 111630Z 22010KT CAVOK 22/17 Q1009 NOSIG,1,0,0,9999,0,0,0,
2026-04-11 16:00:00,METAR LEZL 111600Z 21009KT 160V240 CAVOK 21/16 Q1009 NOSIG,1,0,0,9999,0,0,0,
2026-04-11 15:30:00,METAR LEZL 111530Z 22010KT 190V250 CAVOK 22/16 Q1009 NOSIG,1,0,0,9999,0,0,0,
2026-04-11 15:00:00,METAR LEZL 111500Z 21009KT 170V240 CAVOK 22/16 Q1010 NOSIG,1,0,0,9999,0,0,0,
2026-04-11 14:30:00,METAR LEZL 111430Z 22006KT 150V260 CAVOK 22/16 Q1010 NOSIG,1,0,0,9999,0,0,0,
2026-04-11 14:00:00,METAR LEZL 111400Z 20004KT 110V260 9999 FEW028 21/15 Q1010 NOSIG,0,4,0,10000,0,0,0,
2026-04-11 13:30:00,METAR LEZL 111330Z 21004KT 130V280 9999 FEW026 21/15 Q1011 NOSIG,0,4,0,10000,0,0,0,
2026-04-11 13:00:00,METAR LEZL 111300Z VRB03KT 9999 SCT024 21/16 Q1011 NOSIG,0,3,0,10000,0,0,0,
2026-04-11 12:30:00,METAR LEZL 111230Z 25004KT 210V320 9000 SCT020 SCT024 20/16 Q1011 NOSIG,0,4,0,9000,0,0,0,
2026-04-11 12:00:00,METAR LEZL 111200Z 24005KT 170V280 9000 SCT017 BKN024 19/15 Q1012 NOSIG,0,5,0,9000,0,0,0,
2026-04-11 11:30:00,METAR LEZL 111130Z 20003KT 140V250 9000 BKN017 19/16 Q1012 NOSIG,0,3,0,9000,0,0,0,
2026-04-11 11:00:00,METAR LEZL 111100Z 18004KT 110V230 9000 BKN016 18/15 Q1012 NOSIG,0,4,0,9000,0,0,0,
2026-04-11 10:30:00,METAR LEZL 111030Z 17004KT 140V210 8000 SCT012 BKN018 18/16 Q1012 NOSIG,0,4,0,8000,0,0,0,
2026-04-11 10:00:00,METAR LEZL 111000Z 17005KT 110V200 8000 SCT010 BKN017 17/16 Q1012 NOSIG,0,5,0,8000,0,0,0,
2026-04-11 09:30:00,METAR LEZL 110930Z 17003KT 120V210 8000 SCT008 BKN016 17/16 Q1012 NOSIG,0,3,0,8000,0,0,0,
2026-04-11 09:21:00,SPECI LEZL 110921Z VRB01KT 8000 SCT008 BKN016 17/16 Q1012 NOSIG,0,1,0,8000,0,0,0,
2026-04-11 09:00:00,METAR LEZL 110900Z VRB01KT 8000 OVC009 17/16 Q1012 NOSIG,0,1,0,8000,0,0,0,
2026-04-11 08:30:00,METAR LEZL 110830Z 33003KT 290V020 7000 OVC008 16/15 Q1012 NOSIG,0,3,0,7000,0,0,0,
2026-04-11 08:00:00,METAR LEZL 110800Z VRB01KT 7000 SCT006 OVC009 16/15 Q1012 NOSIG,0,1,0,7000,0,0,0,
2026-04-11 07:42:00,SPECI LEZL 110742Z 26003KT 230V300 7000 FEW006 BKN009 16/16 Q1012 NOSIG,0,3,0,7000,0,0,0,
2026-04-11 07:30:00,METAR LEZL 110730Z VRB02KT 6000 BKN004 16/16 Q1012 NOSIG,0,2,0,6000,0,0,0,
2026-04-11 07:00:00,METAR LEZL 110700Z 23005KT 180V280 7000 OVC004 16/15 Q1012 NOSIG,0,5,0,7000,0,0,0,
2026-04-11 06:48:00,SPECI LEZL 110648Z 23005KT 190V260 6000 OVC004 16/15 Q1012 NOSIG,0,5,0,6000,0,0,0,
2026-04-11 06:30:00,METAR LEZL 110630Z 22007KT 200V260 6000 BKN006 16/15 Q1012 NOSIG,0,7,0,6000,0,0,0,
2026-04-11 06:00:00,METAR LEZL 110600Z 19005KT 150V220 6000 BKN005 16/15 Q1012 NOSIG,0,5,0,6000,0,0,0,
2026-04-11 05:50:00,SPECI LEZL 110550Z 18005KT 150V220 6000 BKN005 16/15 Q1012 NOSIG,0,5,0,6000,0,0,0,
2026-04-11 05:30:00,METAR LEZL 110530Z 20004KT 160V240 9999 FEW007 15/15 Q1011 NOSIG,0,4,0,10000,0,0,0,
2026-04-11 05:00:00,METAR LEZL 110500Z 21006KT 170V240 9999 BKN007 16/15 Q1011 NOSIG,0,6,0,10000,0,0,0,
2026-04-11 04:56:00,SPECI LEZL 110456Z 21005KT 170V250 9999 BKN007 16/15 Q1011 NOSIG,0,5,0,10000,0,0,0,
2026-04-11 04:30:00,METAR LEZL 110430Z 20006KT 160V240 9999 FEW006 15/15 Q1011 NOSIG,0,6,0,10000,0,0,0,
2026-04-11 04:00:00,METAR LEZL 110400Z 23006KT 190V250 9999 -RA FEW010 16/15 Q1010 NOSIG,0,6,0,10000,0,0,0,-RA
2026-04-11 03:30:00,METAR LEZL 110330Z 22011KT 9999 -RA SCT008 16/15 Q1011 NOSIG,0,11,0,10000,0,0,0,-RA
2026-04-11 03:00:00,METAR LEZL 110300Z AUTO 10007KT 060V150 9000 -RA NSC 16/16 Q1012,0,7,0,9000,0,0,0,-RA
2026-04-11 02:30:00,METAR LEZL 110230Z AUTO 16007KT 100V200 9000 -RA FEW006 16/16 Q1013,0,7,0,9000,0,0,0,-RA
2026-04-11 02:00:00,METAR LEZL 110200Z AUTO 04004KT 350V060 9999 -RA NSC 16/16 Q1013,0,4,0,10000,0,0,0,-RA
2026-04-11 01:30:00,METAR LEZL 110130Z AUTO VRB02KT 9000 -RA NSC 16/16 Q1013,0,2,0,9000,0,0,0,-RA
2026-04-11 01:00:00,METAR LEZL 110100Z AUTO 24005KT 190V270 9999 -RA NSC 17/16 Q1013,0,5,0,10000,0,0,0,-RA
2026-04-11 00:30:00,METAR LEZL 110030Z AUTO 16007KT 120V190 CAVOK 17/16 Q1013,1,0,0,9999,0,0,0,
2026-04-11 00:00:00,METAR LEZL 110000Z AUTO 16007KT 130V190 9999 -RA NSC 16/15 Q1013,0,7,0,10000,0,0,0,-RA
2026-04-10 23:30:00,METAR LEZL 102330Z AUTO 16006KT 130V200 9000 VCTS -SHRA //////CB 17/15 Q1012,0,6,0,9000,1,0,0,"RA,TS,VC"
2026-04-10 23:00:00,METAR LEZL 102300Z 17004KT 140V240 9999 -SHRA FEW050CB 17/15 Q1012 RESHRA NOSIG,0,4,0,10000,0,0,0,RA
2026-04-10 22:38:00,SPECI LEZL 102238Z 29004KT 260V050 9999 SHRA FEW050CB 18/15 Q1012 NOSIG,0,4,0,10000,0,0,0,"RA,SH"
2026-04-10 22:30:00,METAR LEZL 102230Z 28005KT 240V340 9999 FEW050CB 18/15 Q1012 NOSIG,0,5,0,10000,0,0,0,
2026-04-10 22:00:00,METAR LEZL 102200Z 21006KT 140V260 9999 FEW050CB 18/15 Q1012 RESHRA NOSIG,0,6,0,10000,0,0,0,RA
2026-04-10 21:41:00,SPECI LEZL 102141Z 21010KT 160V240 9999 -SHRA FEW045 FEW050CB 18/15 Q1012 RESHRA NOSIG,0,10,0,10000,0,0,0,RA
2026-04-10 21:30:00,METAR LEZL 102130Z 18007KT 130V240 9999 +SHRA FEW050CB 19/16 Q1012 RETS NOSIG,0,7,0,10000,1,0,0,"RA,TS"
2026-04-10 21:16:00,SPECI LEZL 102116Z 25011KT 9999 TSRA SCT050CB 19/16 Q1011 NOSIG,0,11,0,10000,1,0,0,"RA,TS"
2026-04-10 21:00:00,METAR LEZL 102100Z 20003KT 9999 -TSRA SCT050CB 20/16 Q1012 NOSIG,0,3,0,10000,1,0,0,RA
2026-04-10 20:46:00,SPECI LEZL 102046Z 25006KT 160V300 9999 TS SCT050CB 20/16 Q1012 NOSIG,0,6,0,10000,1,0,0,TS
2026-04-10 20:30:00,METAR LEZL 102030Z 27003KT 200V320 9999 -SHRA SCT050CB 20/16 Q1012 NOSIG,0,3,0,10000,0,0,0,RA
2026-04-10 20:00:00,METAR LEZL 102000Z 09009KT 060V160 9999 VCTS FEW050CB 20/16 Q1012 WS ALL RWY NOSIG,0,9,0,10000,1,0,0,"TS,VC"
2026-04-10 19:50:00,SPECI LEZL 101950Z 26010KT 200V290 9999 -TSRA FEW050CB 21/16 Q1010 WS ALL RWY NOSIG,0,10,0,10000,1,0,0,RA
2026-04-10 19:30:00,METAR LEZL 101930Z 22008KT 160V250 CAVOK 21/14 Q1011 NOSIG,1,0,0,9999,0,0,0,
2026-04-10 19:00:00,METAR LEZL 101900Z 26007KT CAVOK 22/13 Q1010 NOSIG,1,0,0,9999,0,0,0,
2026-04-10 18:30:00,METAR LEZL 101830Z 25006KT 210V280 CAVOK 22/14 Q1011 NOSIG,1,0,0,9999,0,0,0,
2026-04-10 18:00:00,METAR LEZL 101800Z 23007KT CAVOK 23/12 Q1011 NOSIG,1,0,0,9999,0,0,0,
2026-04-10 17:30:00,METAR LEZL 101730Z 24010KT CAVOK 23/12 Q1011 NOSIG,1,0,0,9999,0,0,0,
2026-04-10 17:00:00,METAR LEZL 101700Z 24009KT CAVOK 23/14 Q1010 NOSIG,1,0,0,9999,0,0,0,
2026-04-10 16:30:00,METAR LEZL 101630Z 24007KT 210V290 CAVOK 23/14 Q1010 NOSIG,1,0,0,9999,0,0,0,
2026-04-10 16:00:00,METAR LEZL 101600Z 22012KT CAVOK 23/14 Q1011 NOSIG,1,0,0,9999,0,0,0,
2026-04-10 15:30:00,METAR LEZL 101530Z 22013KT CAVOK 24/15 Q1010 NOSIG,1,0,0,9999,0,0,0,
2026-04-10 15:00:00,METAR LEZL 101500Z 23005KT 160V280 CAVOK 25/14 Q1010 NOSIG,1,0,0,9999,0,0,0,
2026-04-10 14:30:00,METAR LEZL 101430Z 00000KT CAVOK 25/14 Q1010 NOSIG,1,0,0,9999,0,0,0,
2026-04-10 14:00:00,METAR LEZL 101400Z VRB02KT CAVOK 24/13 Q1011 NOSIG,1,0,0,9999,0,0,0,
2026-04-10 13:30:00,METAR LEZL 101330Z VRB02KT CAVOK 24/13 Q1011 NOSIG,1,0,0,9999,0,0,0,
2026-04-10 13:00:00,METAR LEZL 101300Z 07004KT 030V150 CAVOK 24/15 Q1011 NOSIG,1,0,0,9999,0,0,0,
2026-04-10 12:30:00,METAR LEZL 101230Z 03007KT 360V070 CAVOK 24/15 Q1011 NOSIG,1,0,0,9999,0,0,0,
2026-04-10 12:00:00,METAR LEZL 101200Z 02004KT CAVOK 23/14 Q1012 NOSIG,1,0,0,9999,0,0,0,
2026-04-10 11:30:00,METAR LEZL 101130Z 03006KT 330V080 9999 FEW025 22/15 Q1012 NOSIG,0,6,0,10000,0,0,0,
2026-04-10 11:00:00,METAR LEZL 101100Z 07003KT 350V140 9999 FEW025 21/14 Q1013 NOSIG,0,3,0,10000,0,0,0,
2026-04-10 10:30:00,METAR LEZL 101030Z 05005KT 340V100 9999 FEW020 20/15 Q1013 NOSIG,0,5,0,10000,0,0,0,
2026-04-10 10:00:00,METAR LEZL 101000Z 04003KT 330V120 9999 FEW018 19/14 Q1013 NOSIG,0,3,0,10000,0,0,0,
2026-04-10 09:30:00,METAR LEZL 100930Z 33002KT 9999 FEW018 18/14 Q1013 NOSIG,0,2,0,10000,0,0,0,
2026-04-10 09:00:00,METAR LEZL 100900Z 34002KT CAVOK 17/13 Q1014 NOSIG,1,0,0,9999,0,0,0,
2026-04-10 08:30:00,METAR LEZL 100830Z VRB02KT CAVOK 16/14 Q1014 NOSIG,1,0,0,9999,0,0,0,
2026-04-10 08:00:00,METAR LEZL 100800Z VRB02KT CAVOK 16/14 Q1014 NOSIG,1,0,0,9999,0,0,0,
2026-04-10 07:30:00,METAR LEZL 100730Z VRB02KT 9000 NSC 15/13 Q1014 NOSIG,0,2,0,9000,0,0,0,
2026-04-10 07:00:00,METAR LEZL 100700Z VRB02KT 9000 NSC 14/13 Q1013 NOSIG,0,2,0,9000,0,0,0,
2026-04-10 06:30:00,METAR LEZL 100630Z 04003KT 9000 NSC 13/13 Q1013 NOSIG,0,3,0,9000,0,0,0,
2026-04-10 06:00:00,METAR LEZL 100600Z VRB02KT 9000 NSC 12/12 Q1013 NOSIG,0,2,0,9000,0,0,0,
2026-04-10 05:30:00,METAR LEZL 100530Z 25001KT CAVOK 13/12 Q1013 NOSIG,1,0,0,9999,0,0,0,
2026-04-10 05:00:00,METAR LEZL 100500Z 00000KT CAVOK 13/12 Q1013 NOSIG,1,0,0,9999,0,0,0,
2026-04-10 04:30:00,METAR LEZL 100430Z VRB01KT CAVOK 12/11 Q1013 NOSIG,1,0,0,9999,0,0,0,
2026-04-10 04:00:00,METAR LEZL 100400Z 00000KT CAVOK 13/12 Q1013 NOSIG,1,0,0,9999,0,0,0,
2026-04-10 03:30:00,METAR LEZL 100330Z 16003KT 140V220 CAVOK 13/12 Q1013 NOSIG,1,0,0,9999,0,0,0,
2026-04-10 03:00:00,METAR LEZL 100300Z AUTO 15004KT 7000 NCD 13/12 Q1013,0,4,0,7000,0,0,0,
2026-04-10 02:30:00,METAR LEZL 100230Z AUTO 16004KT 8000 NCD 14/13 Q1013,0,4,0,8000,0,0,0,
2026-04-10 02:00:00,METAR LEZL 100200Z AUTO 16004KT 120V190 8000 NCD 14/13 Q1013,0,4,0,8000,0,0,0,
2026-04-10 01:30:00,METAR LEZL 100130Z AUTO 17005KT 9000 NCD 14/13 Q1014,0,5,0,9000,0,0,0,
2026-04-10 01:00:00,METAR LEZL 100100Z AUTO 18006KT 8000 NCD 15/13 Q1014,0,6,0,8000,0,0,0,
2026-04-10 00:30:00,METAR LEZL 100030Z 16004KT CAVOK 15/13 Q1014 NOSIG,1,0,0,9999,0,0,0,
2026-04-10 00:00:00,METAR LEZL 100000Z VRB01KT CAVOK 15/13 Q1014 NOSIG,1,0,0,9999,0,0,0,
2026-04-09 23:30:00,METAR LEZL 092330Z 22004KT 160V250 CAVOK 17/12 Q1014 NOSIG,1,0,0,9999,0,0,0,
2026-04-09 23:00:00,METAR LEZL 092300Z 27003KT 230V310 CAVOK 17/13 Q1014 NOSIG,1,0,0,9999,0,0,0,
2026-04-09 22:30:00,METAR LEZL 092230Z 22005KT CAVOK 17/12 Q1014 NOSIG,1,0,0,9999,0,0,0,
2026-04-09 22:00:00,METAR LEZL 092200Z 22003KT 190V250 CAVOK 17/12 Q1014 NOSIG,1,0,0,9999,0,0,0,
2026-04-09 21:30:00,METAR LEZL 092130Z 26008KT CAVOK 18/12 Q1014 NOSIG,1,0,0,9999,0,0,0,
2026-04-09 21:00:00,METAR LEZL 092100Z 27008KT CAVOK 18/12 Q1013 NOSIG,1,0,0,9999,0,0,0,
2026-04-09 20:30:00,METAR LEZL 092030Z 27007KT CAVOK 19/13 Q1013 NOSIG,1,0,0,9999,0,0,0,
2026-04-09 20:00:00,METAR LEZL 092000Z 24009KT 210V270 CAVOK 19/13 Q1013 NOSIG,1,0,0,9999,0,0,0,
2026-04-09 19:30:00,METAR LEZL 091930Z 25012KT CAVOK 20/13 Q1012 NOSIG,1,0,0,9999,0,0,0,
2026-04-09 19:00:00,METAR LEZL 091900Z 22012KT CAVOK 20/14 Q1011 NOSIG,1,0,0,9999,0,0,0,
2026-04-09 18:30:00,METAR LEZL 091830Z 22006KT CAVOK 22/14 Q1011 NOSIG,1,0,0,9999,0,0,0,
2026-04-09 18:00:00,METAR LEZL 091800Z 26006KT CAVOK 23/13 Q1011 NOSIG,1,0,0,9999,0,0,0,
2026-04-09 17:30:00,METAR LEZL 091730Z 26005KT 230V300 CAVOK 24/14 Q1011 NOSIG,1,0,0,9999,0,0,0,
2026-04-09 17:00:00,METAR LEZL 091700Z 27005KT 220V330 CAVOK 24/13 Q1011 NOSIG,1,0,0,9999,0,0,0,
2026-04-09 16:30:00,METAR LEZL 091630Z 30005KT 260V350 CAVOK 24/12 Q1011 NOSIG,1,0,0,9999,0,0,0,
2026-04-09 16:00:00,METAR LEZL 091600Z 31005KT 250V010 CAVOK 24/12 Q1011 NOSIG,1,0,0,9999,0,0,0,
2026-04-09 15:30:00,METAR LEZL 091530Z 33006KT 290V040 CAVOK 24/13 Q1011 NOSIG,1,0,0,9999,0,0,0,
2026-04-09 15:00:00,METAR LEZL 091500Z 30004KT CAVOK 24/12 Q1012 NOSIG,1,0,0,9999,0,0,0,
2026-04-09 14:30:00,METAR LEZL 091430Z 02005KT CAVOK 24/13 Q1012 NOSIG,1,0,0,9999,0,0,0,
2026-04-09 14:00:00,METAR LEZL 091400Z 36003KT 260V070 CAVOK 23/12 Q1012 NOSIG,1,0,0,9999,0,0,0,
2026-04-09 13:30:00,METAR LEZL 091330Z 08004KT 360V170 CAVOK 22/12 Q1013 NOSIG,1,0,0,9999,0,0,0,
2026-04-09 13:00:00,METAR LEZL 091300Z 07005KT 020V150 CAVOK 22/12 Q1013 NOSIG,1,0,0,9999,0,0,0,
2026-04-09 12:30:00,METAR LEZL 091230Z 05007KT 020V080 CAVOK 21/12 Q1013 NOSIG,1,0,0,9999,0,0,0,
2026-04-09 12:00:00,METAR LEZL 091200Z 07009KT CAVOK 20/12 Q1013 NOSIG,1,0,0,9999,0,0,0,
2026-04-09 11:30:00,METAR LEZL 091130Z 05009KT 020V080 CAVOK 20/12 Q1014 NOSIG,1,0,0,9999,0,0,0,
2026-04-09 11:00:00,METAR LEZL 091100Z 06010KT CAVOK 19/12 Q1014 NOSIG,1,0,0,9999,0,0,0,
2026-04-09 10:30:00,METAR LEZL 091030Z 06012KT CAVOK 18/12 Q1014 NOSIG,1,0,0,9999,0,0,0,
2026-04-09 10:00:00,METAR LEZL 091000Z 05010KT CAVOK 18/12 Q1014 NOSIG,1,0,0,9999,0,0,0,
2026-04-09 09:30:00,METAR LEZL 090930Z 05007KT CAVOK 17/12 Q1014 NOSIG,1,0,0,9999,0,0,0,
2026-04-09 09:00:00,METAR LEZL 090900Z 05006KT 010V080 CAVOK 16/13 Q1015 NOSIG,1,0,0,9999,0,0,0,
2026-04-09 08:30:00,METAR LEZL 090830Z 04008KT 010V070 CAVOK 16/13 Q1015 NOSIG,1,0,0,9999,0,0,0,
2026-04-09 08:00:00,METAR LEZL 090800Z 03006KT 360V060 CAVOK 15/12 Q1015 NOSIG,1,0,0,9999,0,0,0,
2026-04-09 07:30:00,METAR LEZL 090730Z 03007KT CAVOK 14/13 Q1015 NOSIG,1,0,0,9999,0,0,0,
2026-04-09 07:00:00,METAR LEZL 090700Z 05004KT 020V080 CAVOK 13/12 Q1015 NOSIG,1,0,0,9999,0,0,0,
2026-04-09 06:30:00,METAR LEZL 090630Z 06002KT CAVOK 12/12 Q1015 NOSIG,1,0,0,9999,0,0,0,
2026-04-09 06:00:00,METAR LEZL 090600Z 01004KT CAVOK 13/12 Q1015 NOSIG,1,0,0,9999,0,0,0,
2026-04-09 05:30:00,METAR LEZL 090530Z 03005KT 360V060 CAVOK 12/12 Q1015 NOSIG,1,0,0,9999,0,0,0,
2026-04-09 05:00:00,METAR LEZL 090500Z 05004KT CAVOK 13/12 Q1015 NOSIG,1,0,0,9999,0,0,0,
2026-04-09 04:30:00,METAR LEZL 090430Z 07005KT 030V090 CAVOK 13/13 Q1016 NOSIG,1,0,0,9999,0,0,0,
2026-04-09 04:00:00,METAR LEZL 090400Z 33004KT 290V010 CAVOK 13/13 Q1015 NOSIG,1,0,0,9999,0,0,0,
2026-04-09 03:30:00,METAR LEZL 090330Z 03006KT 350V050 CAVOK 13/13 Q1016 NOSIG,1,0,0,9999,0,0,0,
2026-04-09 03:00:00,METAR LEZL 090300Z AUTO 03006KT 9999 -RA NSC 13/13 Q1017,0,6,0,10000,0,0,0,-RA
2026-04-09 02:30:00,METAR LEZL 090230Z AUTO 03005KT 9999 -RA NSC 14/13 Q1017,0,5,0,10000,0,0,0,-RA
2026-04-09 02:00:00,METAR LEZL 090200Z AUTO 02004KT 350V050 9000 -RA NSC 13/13 Q1018 RERA,0,4,0,9000,0,0,0,"-RA,RA"
2026-04-09 01:30:00,METAR LEZL 090130Z AUTO 04007KT 8000 RA NSC 13/13 Q1018,0,7,0,8000,0,0,0,RA
2026-04-09 01:00:00,METAR LEZL 090100Z AUTO 07006KT 9999 RA NSC 13/13 Q1018,0,6,0,10000,0,0,0,RA
2026-04-09 00:30:00,METAR LEZL 090030Z AUTO 07008KT 9999 -RA NSC 13/13 Q1018,0,8,0,10000,0,0,0,-RA
2026-04-09 00:00:00,METAR LEZL 090000Z AUTO 06005KT 030V100 9999 -RA NSC 13/13 Q1019,0,5,0,10000,0,0,0,-RA
2026-04-08 23:30:00,METAR LEZL 082330Z AUTO 06008KT 9999 -RA NSC 14/12 Q1019,0,8,0,10000,0,0,0,-RA
2026-04-08 23:00:00,METAR LEZL 082300Z 05006KT 020V080 CAVOK 14/12 Q1019 NOSIG,1,0,0,9999,0,0,0,
2026-04-08 22:30:00,METAR LEZL 082230Z 04004KT 340V130 CAVOK 14/12 Q1019 BECMG 4000 RA BKN049,1,0,0,9999,0,0,0,
2026-04-08 22:00:00,METAR LEZL 082200Z 05005KT 330V110 CAVOK 14/11 Q1019 NOSIG,1,0,0,9999,0,0,0,
2026-04-08 21:30:00,METAR LEZL 082130Z 05005KT 010V080 CAVOK 14/11 Q1019 NOSIG,1,0,0,9999,0,0,0,
2026-04-08 21:00:00,METAR LEZL 082100Z 07007KT 050V110 CAVOK 14/10 Q1019 NOSIG,1,0,0,9999,0,0,0,
2026-04-08 20:30:00,METAR LEZL 082030Z 08006KT 050V120 CAVOK 14/10 Q1019 NOSIG,1,0,0,9999,0,0,0,
2026-04-08 20:00:00,METAR LEZL 082000Z 09006KT CAVOK 14/11 Q1018 NOSIG,1,0,0,9999,0,0,0,
2026-04-08 19:30:00,METAR LEZL 081930Z 11009KT 080V150 CAVOK 14/11 Q1018 NOSIG,1,0,0,9999,0,0,0,
2026-04-08 19:00:00,METAR LEZL 081900Z 08007KT CAVOK 16/10 Q1018 NOSIG,1,0,0,9999,0,0,0,
2026-04-08 18:30:00,METAR LEZL 081830Z 08007KT CAVOK 17/10 Q1018 NOSIG,1,0,0,9999,0,0,0,
2026-04-08 18:00:00,METAR LEZL 081800Z 07010KT CAVOK 17/09 Q1018 NOSIG,1,0,0,9999,0,0,0,
2026-04-08 17:30:00,METAR LEZL 081730Z 08006KT 050V110 9999 FEW048 18/09 Q1018 NOSIG,0,6,0,10000,0,0,0,
2026-04-08 17:00:00,METAR LEZL 081700Z 07007KT 9999 FEW048 18/09 Q1018 NOSIG,0,7,0,10000,0,0,0,
2026-04-08 16:30:00,METAR LEZL 081630Z 10007KT 060V140 9999 FEW048 18/09 Q1018 NOSIG,0,7,0,10000,0,0,0,
2026-04-08 16:00:00,METAR LEZL 081600Z 08006KT 050V140 9999 FEW048 18/09 Q1018 NOSIG,0,6,0,10000,0,0,0,
2026-04-08 15:30:00,METAR LEZL 081530Z 06006KT 030V110 9999 FEW048 17/09 Q1018 NOSIG,0,6,0,10000,0,0,0,
2026-04-08 15:00:00,METAR LEZL 081500Z 07007KT 9999 FEW048 17/09 Q1018 NOSIG,0,7,0,10000,0,0,0,
2026-04-08 14:30:00,METAR LEZL 081430Z 06005KT 020V110 9999 FEW048 17/10 Q1018 NOSIG,0,5,0,10000,0,0,0,
2026-04-08 14:00:00,METAR LEZL 081400Z 06007KT 030V100 9999 FEW031 SCT048 17/10 Q1019 NOSIG,0,7,0,10000,0,0,0,
2026-04-08 13:30:00,METAR LEZL 081330Z 08007KT 050V140 9999 FEW031 SCT048 16/09 Q1019 NOSIG,0,7,0,10000,0,0,0,
2026-04-08 13:00:00,METAR LEZL 081300Z 08005KT 030V130 9999 FEW049 17/09 Q1019 NOSIG,0,5,0,10000,0,0,0,
2026-04-08 12:30:00,METAR LEZL 081230Z 08006KT 9999 FEW035 SCT049 16/09 Q1019 NOSIG,0,6,0,10000,0,0,0,
2026-04-08 12:00:00,METAR LEZL 081200Z 04003KT 350V130 9999 FEW035 SCT047 16/09 Q1019 NOSIG,0,3,0,10000,0,0,0,
2026-04-08 11:30:00,METAR LEZL 081130Z 09005KT 050V140 9999 FEW021 SCT035 15/10 Q1019 NOSIG,0,5,0,10000,0,0,0,
2026-04-08 11:00:00,METAR LEZL 081100Z 10004KT 040V170 9999 FEW021 15/10 Q1019 NOSIG,0,4,0,10000,0,0,0,
2026-04-08 10:30:00,METAR LEZL 081030Z 08003KT 010V140 9999 FEW019 15/11 Q1019 NOSIG,0,3,0,10000,0,0,0,
2026-04-08 10:00:00,METAR LEZL 081000Z 06001KT 9999 FEW018 14/10 Q1019 NOSIG,0,1,0,10000,0,0,0,
2026-04-08 09:30:00,METAR LEZL 080930Z 00000KT 9999 SCT016 13/10 Q1019 NOSIG,0,0,0,10000,0,0,0,
2026-04-08 09:00:00,METAR LEZL 080900Z VRB02KT 9999 FEW014 13/11 Q1018 NOSIG,0,2,0,10000,0,0,0,
2026-04-08 08:30:00,METAR LEZL 080830Z 00000KT 9999 SCT014 13/11 Q1018 NOSIG,0,0,0,10000,0,0,0,
2026-04-08 08:00:00,METAR LEZL 080800Z 15003KT 100V180 9999 SCT015 13/11 Q1018 NOSIG,0,3,0,10000,0,0,0,
2026-04-08 07:30:00,METAR LEZL 080730Z 14002KT 9999 FEW015 12/11 Q1018 NOSIG,0,2,0,10000,0,0,0,
2026-04-08 07:00:00,METAR LEZL 080700Z VRB02KT 9999 FEW015 12/11 Q1018 NOSIG,0,2,0,10000,0,0,0,
2026-04-08 06:30:00,METAR LEZL 080630Z 16003KT 140V200 9999 FEW015 12/11 Q1018 NOSIG,0,3,0,10000,0,0,0,
2026-04-08 06:00:00,METAR LEZL 080600Z VRB02KT 9999 FEW010 12/11 Q1017 NOSIG,0,2,0,10000,0,0,0,
2026-04-08 05:30:00,METAR LEZL 080530Z VRB01KT 9999 FEW010 12/11 Q1017 NOSIG,0,1,0,10000,0,0,0,
2026-04-08 05:00:00,METAR LEZL 080500Z 18004KT 150V210 9999 FEW010 SCT049 12/11 Q1017 NOSIG,0,4,0,10000,0,0,0,
2026-04-08 04:30:00,METAR LEZL 080430Z 17004KT 9999 FEW010 SCT049 12/11 Q1017 NOSIG,0,4,0,10000,0,0,0,
2026-04-08 04:00:00,METAR LEZL 080400Z 18004KT 150V210 9999 -RA SCT007 BKN049 12/11 Q1017 NOSIG,0,4,0,10000,0,0,0,-RA
2026-04-08 03:30:00,METAR LEZL 080330Z 18004KT 150V210 9999 FEW010 BKN049 12/11 Q1017 NOSIG,0,4,0,10000,0,0,0,
2026-04-08 03:00:00,METAR LEZL 080300Z AUTO 19004KT 9999 SCT008 BKN046 12/11 Q1017,0,4,0,10000,0,0,0,
2026-04-08 02:30:00,METAR LEZL 080230Z AUTO 18006KT 9999 FEW007 BKN045 12/11 Q1017,0,6,0,10000,0,0,0,
2026-04-08 02:00:00,METAR LEZL 080200Z AUTO 18005KT 140V220 9999 -RA FEW007 BKN047 12/11 Q1017,0,5,0,10000,0,0,0,-RA
2026-04-08 01:30:00,METAR LEZL 080130Z AUTO 22008KT 9999 -RA FEW009 BKN044 12/11 Q1018,0,8,0,10000,0,0,0,-RA
2026-04-08 01:00:00,METAR LEZL 080100Z AUTO 22005KT 9999 SCT010 OVC043 12/11 Q1017,0,5,0,10000,0,0,0,
2026-04-08 00:30:00,METAR LEZL 080030Z AUTO 18005KT 150V210 9999 -RA OVC042 12/11 Q1018,0,5,0,10000,0,0,0,-RA
2026-04-08 00:00:00,METAR LEZL 080000Z AUTO 15005KT 130V190 9999 OVC041 12/11 Q1018,0,5,0,10000,0,0,0,
2026-04-07 23:30:00,METAR LEZL 072330Z AUTO 04001KT 9999 -RA OVC040 13/11 Q1017,0,1,0,10000,0,0,0,-RA
2026-04-07 23:00:00,METAR LEZL 072300Z VRB01KT 9999 -RA FEW020 BKN035 12/11 Q1017 RERA NOSIG,0,1,0,10000,0,0,0,"-RA,RA"
2026-04-07 22:30:00,METAR LEZL 072230Z 27004KT 230V300 8000 RA FEW020 BKN035 13/10 Q1017 NOSIG,0,4,0,8000,0,0,0,RA
2026-04-07 22:00:00,METAR LEZL 072200Z 28012KT 9999 FEW015 BKN025 13/10 Q1017 NOSIG,0,12,0,10000,0,0,0,
2026-04-07 21:30:00,METAR LEZL 072130Z 27011KT 240V300 9999 FEW015 BKN025 14/12 Q1017 NOSIG,0,11,0,10000,0,0,0,
2026-04-07 21:00:00,METAR LEZL 072100Z 27010KT 9999 SCT020 SCT030 14/12 Q1016 NOSIG,0,10,0,10000,0,0,0,
2026-04-07 20:30:00,METAR LEZL 072030Z 24010KT 210V290 9999 SCT012 SCT025 16/13 Q1016 NOSIG,0,10,0,10000,0,0,0,
2026-04-07 20:00:00,METAR LEZL 072000Z 18011KT 150V220 9999 SCT015 SCT030 17/15 Q1015 NOSIG,0,11,0,10000,0,0,0,
2026-04-07 19:30:00,METAR LEZL 071930Z 18011KT 150V220 9999 SCT015 SCT030 17/15 Q1016 NOSIG,0,11,0,10000,0,0,0,
2026-04-07 19:00:00,METAR LEZL 071900Z 18008KT 140V240 9999 BKN012 17/16 Q1015 NOSIG,0,8,0,10000,0,0,0,
2026-04-07 18:30:00,METAR LEZL 071830Z 21007KT 150V240 9999 BKN015 17/16 Q1015 NOSIG,0,7,0,10000,0,0,0,
2026-04-07 18:00:00,METAR LEZL 071800Z 21006KT 170V250 9999 FEW015 17/16 Q1015 NOSIG,0,6,0,10000,0,0,0,
2026-04-07 17:30:00,METAR LEZL 071730Z 22010KT 190V250 9999 -RA FEW015 SCT030 17/15 Q1015 RERA NOSIG,0,10,0,10000,0,0,0,"-RA,RA"
2026-04-07 17:17:00,SPECI LEZL 071717Z 21008KT 9999 -RA FEW015 SCT030 17/16 Q1016 RERA NOSIG,0,8,0,10000,0,0,0,"-RA,RA"
2026-04-07 17:00:00,METAR LEZL 071700Z 22009KT 190V250 7000 RA FEW030 BKN049 17/16 Q1016 NOSIG,0,9,0,7000,0,0,0,RA
2026-04-07 16:30:00,METAR LEZL 071630Z 23012KT 200V260 8000 RA FEW030 BKN040 17/15 Q1016 NOSIG,0,12,0,8000,0,0,0,RA
2026-04-07 16:00:00,METAR LEZL 071600Z 22015KT 8000 -SHRA FEW030TCU BKN035 19/15 Q1016 NOSIG,0,15,0,8000,0,0,0,RA
2026-04-07 15:30:00,METAR LEZL 071530Z 21013KT 190V250 9999 FEW025 SCT035 20/14 Q1016 NOSIG,0,13,0,10000,0,0,0,
2026-04-07 15:00:00,METAR LEZL 071500Z 22013KT 190V250 9999 -RA FEW025 SCT035 21/15 Q1016 NOSIG,0,13,0,10000,0,0,0,-RA
2026-04-07 14:30:00,METAR LEZL 071430Z 22018KT 190V260 9999 FEW025 BKN035 20/13 Q1016 NOSIG,0,18,0,10000,0,0,0,
2026-04-07 14:00:00,METAR LEZL 071400Z 22014KT 190V250 9999 FEW025 SCT040 20/15 Q1016 NOSIG,0,14,0,10000,0,0,0,
2026-04-07 13:30:00,METAR LEZL 071330Z 22017KT 190V250 9999 -SHRA FEW025TCU BKN040 21/15 Q1016 NOSIG,0,17,0,10000,0,0,0,RA
2026-04-07 13:00:00,METAR LEZL 071300Z 22018G29KT 190V250 9999 BKN040 20/14 Q1017 NOSIG,0,18,1,10000,0,0,0,
2026-04-07 12:30:00,METAR LEZL 071230Z 22018KT 9999 BKN035 21/14 Q1017 NOSIG,0,18,0,10000,0,0,0,
2026-04-07 12:00:00,METAR LEZL 071200Z 21015G27KT 170V250 9999 BKN030 20/14 Q1017 NOSIG,0,15,1,10000,0,0,0,
2026-04-07 11:30:00,METAR LEZL 071130Z 21017KT 170V250 9999 SCT030 21/14 Q1017 NOSIG,0,17,0,10000,0,0,0,
2026-04-07 11:00:00,METAR LEZL 071100Z 21015G26KT 150V250 9999 FEW030 21/14 Q1017 NOSIG,0,15,1,10000,0,0,0,
2026-04-07 10:30:00,METAR LEZL 071030Z 22012KT 190V250 9999 FEW030 20/13 Q1017 NOSIG,0,12,0,10000,0,0,0,
2026-04-07 10:00:00,METAR LEZL 071000Z 22009KT 160V260 9999 FEW030 20/12 Q1017 NOSIG,0,9,0,10000,0,0,0,
2026-04-07 09:30:00,METAR LEZL 070930Z 26004KT 200V330 9999 -RA FEW035 19/12 Q1017 NOSIG,0,4,0,10000,0,0,0,-RA
2026-04-07 09:00:00,METAR LEZL 070900Z 31005KT 270V340 9999 FEW040 20/11 Q1016 NOSIG,0,5,0,10000,0,0,0,
2026-04-07 08:30:00,METAR LEZL 070830Z 29009KT 260V320 CAVOK 20/10 Q1016 NOSIG,1,0,0,9999,0,0,0,
2026-04-07 08:00:00,METAR LEZL 070800Z 27010KT 230V300 CAVOK 20/09 Q1016 NOSIG,1,0,0,9999,0,0,0,
2026-04-07 07:30:00,METAR LEZL 070730Z 11008KT 080V140 CAVOK 19/10 Q1014 NOSIG,1,0,0,9999,0,0,0,
2026-04-07 07:00:00,METAR LEZL 070700Z 11006KT 080V150 CAVOK 18/11 Q1014 NOSIG,1,0,0,9999,0,0,0,
2026-04-07 06:30:00,METAR LEZL 070630Z 12003KT 080V190 CAVOK 16/12 Q1015 NOSIG,1,0,0,9999,0,0,0,
2026-04-07 06:00:00,METAR LEZL 070600Z VRB02KT CAVOK 16/11 Q1015 NOSIG,1,0,0,9999,0,0,0,
2026-04-07 05:30:00,METAR LEZL 070530Z VRB02KT CAVOK 18/09 Q1015 NOSIG,1,0,0,9999,0,0,0,
2026-04-07 05:00:00,METAR LEZL 070500Z 04005KT CAVOK 18/09 Q1014 NOSIG,1,0,0,9999,0,0,0,
2026-04-07 04:30:00,METAR LEZL 070430Z 02003KT CAVOK 17/10 Q1014 NOSIG,1,0,0,9999,0,0,0,
2026-04-07 04:00:00,METAR LEZL 070400Z 02003KT CAVOK 18/09 Q1014 NOSIG,1,0,0,9999,0,0,0,
2026-04-07 03:30:00,METAR LEZL 070330Z 04003KT 350V060 CAVOK 18/09 Q1014 NOSIG,1,0,0,9999,0,0,0,
2026-04-07 03:00:00,METAR LEZL 070300Z AUTO 03006KT CAVOK 18/09 Q1014,1,0,0,9999,0,0,0,
2026-04-07 02:30:00,METAR LEZL 070230Z AUTO VRB02KT CAVOK 19/08 Q1014,1,0,0,9999,0,0,0,
2026-04-07 02:00:00,METAR LEZL 070200Z AUTO 07004KT CAVOK 20/08 Q1015,1,0,0,9999,0,0,0,
2026-04-07 01:30:00,METAR LEZL 070130Z AUTO 03004KT 320V070 CAVOK 20/09 Q1015,1,0,0,9999,0,0,0,
2026-04-07 01:00:00,METAR LEZL 070100Z AUTO 05006KT 020V080 CAVOK 20/10 Q1015,1,0,0,9999,0,0,0,
2026-04-07 00:30:00,METAR LEZL 070030Z AUTO 07008KT 040V100 CAVOK 20/10 Q1016,1,0,0,9999,0,0,0,
2026-04-07 00:00:00,METAR LEZL 070000Z AUTO 09010KT CAVOK 20/11 Q1016,1,0,0,9999,0,0,0,
2026-04-06 23:30:00,METAR LEZL 062330Z AUTO 06005KT 350V120 CAVOK 20/10 Q1017,1,0,0,9999,0,0,0,
2026-04-06 23:00:00,METAR LEZL 062300Z 09004KT 050V160 CAVOK 20/11 Q1017 NOSIG,1,0,0,9999,0,0,0,
2026-04-06 22:30:00,METAR LEZL 062230Z 12003KT CAVOK 20/11 Q1017 NOSIG,1,0,0,9999,0,0,0,
2026-04-06 22:00:00,METAR LEZL 062200Z 10009KT CAVOK 19/12 Q1017 NOSIG,1,0,0,9999,0,0,0,
2026-04-06 21:30:00,METAR LEZL 062130Z 10010KT CAVOK 19/13 Q1018 NOSIG,1,0,0,9999,0,0,0,
2026-04-06 21:00:00,METAR LEZL 062100Z 05007KT CAVOK 19/12 Q1018 NOSIG,1,0,0,9999,0,0,0,
2026-04-06 20:30:00,METAR LEZL 062030Z VRB02KT CAVOK 20/11 Q1019 NOSIG,1,0,0,9999,0,0,0,
2026-04-06 20:00:00,METAR LEZL 062000Z 26006KT 210V290 CAVOK 20/11 Q1020 NOSIG,1,0,0,9999,0,0,0,
2026-04-06 19:30:00,METAR LEZL 061930Z 26010KT CAVOK 21/11 Q1019 NOSIG,1,0,0,9999,0,0,0,
2026-04-06 19:00:00,METAR LEZL 061900Z 27013KT CAVOK 21/11 Q1019 NOSIG,1,0,0,9999,0,0,0,
2026-04-06 18:30:00,METAR LEZL 061830Z 26016KT CAVOK 22/10 Q1019 NOSIG,1,0,0,9999,0,0,0,
2026-04-06 18:00:00,METAR LEZL 061800Z 26016KT CAVOK 23/10 Q1018 NOSIG,1,0,0,9999,0,0,0,
2026-04-06 17:30:00,METAR LEZL 061730Z 25015KT 230V290 CAVOK 24/08 Q1018 NOSIG,1,0,0,9999,0,0,0,
2026-04-06 17:00:00,METAR LEZL 061700Z 26011G22KT 230V290 CAVOK 25/08 Q1017 NOSIG,1,0,0,9999,0,0,0,
2026-04-06 16:30:00,METAR LEZL 061630Z 26010KT 230V290 CAVOK 27/07 Q1017 NOSIG,1,0,0,9999,0,0,0,
2026-04-06 16:00:00,METAR LEZL 061600Z 25007KT 200V290 CAVOK 28/06 Q1016 NOSIG,1,0,0,9999,0,0,0,
2026-04-06 15:30:00,METAR LEZL 061530Z 27007KT 210V320 CAVOK 29/07 Q1016 NOSIG,1,0,0,9999,0,0,0,
2026-04-06 15:00:00,METAR LEZL 061500Z 22011KT 150V260 CAVOK 29/06 Q1016 NOSIG,1,0,0,9999,0,0,0,
2026-04-06 14:30:00,METAR LEZL 061430Z 18008KT 120V240 CAVOK 29/05 Q1016 NOSIG,1,0,0,9999,0,0,0,
2026-04-06 14:00:00,METAR LEZL 061400Z 14002KT CAVOK 29/05 Q1017 NOSIG,1,0,0,9999,0,0,0,
2026-04-06 13:30:00,METAR LEZL 061330Z 25002KT CAVOK 29/04 Q1017 NOSIG,1,0,0,9999,0,0,0,
2026-04-06 13:00:00,METAR LEZL 061300Z 21002KT CAVOK 28/05 Q1017 NOSIG,1,0,0,9999,0,0,0,
2026-04-06 12:30:00,METAR LEZL 061230Z 24002KT CAVOK 27/07 Q1018 NOSIG,1,0,0,9999,0,0,0,
2026-04-06 12:00:00,METAR LEZL 061200Z 32003KT CAVOK 27/06 Q1018 NOSIG,1,0,0,9999,0,0,0,
2026-04-06 11:30:00,METAR LEZL 061130Z 32004G15KT CAVOK 26/06 Q1019 NOSIG,1,0,0,9999,0,0,0,
2026-04-06 11:00:00,METAR LEZL 061100Z 31003KT 210V020 CAVOK 25/07 Q1019 NOSIG,1,0,0,9999,0,0,0,
2026-04-06 10:30:00,METAR LEZL 061030Z 05004KT 010V120 CAVOK 25/07 Q1018 NOSIG,1,0,0,9999,0,0,0,
2026-04-06 10:00:00,METAR LEZL 061000Z 05007KT 010V100 CAVOK 24/07 Q1019 NOSIG,1,0,0,9999,0,0,0,
2026-04-06 09:30:00,METAR LEZL 060930Z 06005KT 030V110 CAVOK 22/07 Q1019 NOSIG,1,0,0,9999,0,0,0,
2026-04-06 09:00:00,METAR LEZL 060900Z 06007KT CAVOK 21/07 Q1019 NOSIG,1,0,0,9999,0,0,0,
2026-04-06 08:30:00,METAR LEZL 060830Z 06006KT CAVOK 19/07 Q1019 NOSIG,1,0,0,9999,0,0,0,
2026-04-06 08:00:00,METAR LEZL 060800Z 04003KT 020V080 CAVOK 18/06 Q1019 NOSIG,1,0,0,9999,0,0,0,
2026-04-06 07:30:00,METAR LEZL 060730Z 07004KT 030V090 CAVOK 16/06 Q1019 NOSIG,1,0,0,9999,0,0,0,
2026-04-06 07:00:00,METAR LEZL 060700Z 08003KT CAVOK 15/06 Q1019 NOSIG,1,0,0,9999,0,0,0,
2026-04-06 06:30:00,METAR LEZL 060630Z 04003KT CAVOK 12/05 Q1019 NOSIG,1,0,0,9999,0,0,0,
2026-04-06 06:00:00,METAR LEZL 060600Z 05005KT CAVOK 12/05 Q1019 NOSIG,1,0,0,9999,0,0,0,
2026-04-06 05:30:00,METAR LEZL 060530Z 05003KT CAVOK 12/04 Q1019 NOSIG,1,0,0,9999,0,0,0,
2026-04-06 05:00:00,METAR LEZL 060500Z 05003KT CAVOK 12/05 Q1019 NOSIG,1,0,0,9999,0,0,0,
2026-04-06 04:30:00,METAR LEZL 060430Z 05003KT CAVOK 12/04 Q1019 NOSIG,1,0,0,9999,0,0,0,
2026-04-06 04:00:00,METAR LEZL 060400Z VRB02KT CAVOK 12/04 Q1019 NOSIG,1,0,0,9999,0,0,0,
2026-04-06 03:30:00,METAR LEZL 060330Z VRB02KT CAVOK 11/05 Q1019 NOSIG,1,0,0,9999,0,0,0,
2026-04-06 03:00:00,METAR LEZL 060300Z AUTO VRB02KT CAVOK 13/04 Q1019,1,0,0,9999,0,0,0,
2026-04-06 02:30:00,METAR LEZL 060230Z AUTO 04001KT CAVOK 13/04 Q1019,1,0,0,9999,0,0,0,
2026-04-06 02:00:00,METAR LEZL 060200Z AUTO 05006KT CAVOK 14/04 Q1019,1,0,0,9999,0,0,0,
2026-04-06 01:30:00,METAR LEZL 060130Z AUTO 04003KT CAVOK 13/04 Q1019,1,0,0,9999,0,0,0,
2026-04-06 01:00:00,METAR LEZL 060100Z AUTO 04003KT 320V080 CAVOK 14/04 Q1020,1,0,0,9999,0,0,0,
2026-04-06 00:30:00,METAR LEZL 060030Z AUTO 05005KT CAVOK 14/04 Q1020,1,0,0,9999,0,0,0,
2026-04-06 00:00:00,METAR LEZL 060000Z AUTO 05002KT CAVOK 14/05 Q1020,1,0,0,9999,0,0,0,
2026-04-05 23:30:00,METAR LEZL 052330Z AUTO 08005KT CAVOK 14/06 Q1020,1,0,0,9999,0,0,0,
2026-04-05 23:00:00,METAR LEZL 052300Z 06003KT 350V100 CAVOK 16/06 Q1020 NOSIG,1,0,0,9999,0,0,0,
2026-04-05 22:30:00,METAR LEZL 052230Z 08003KT CAVOK 16/08 Q1020 NOSIG,1,0,0,9999,0,0,0,
2026-04-05 22:00:00,METAR LEZL 052200Z VRB02KT CAVOK 17/08 Q1020 NOSIG,1,0,0,9999,0,0,0,
2026-04-05 21:30:00,METAR LEZL 052130Z 00000KT CAVOK 19/07 Q1020 NOSIG,1,0,0,9999,0,0,0,
2026-04-05 21:00:00,METAR LEZL 052100Z 14004KT CAVOK 17/08 Q1020 NOSIG,1,0,0,9999,0,0,0,
2026-04-05 20:30:00,METAR LEZL 052030Z 20005KT 170V230 CAVOK 22/05 Q1020 NOSIG,1,0,0,9999,0,0,0,
2026-04-05 20:00:00,METAR LEZL 052000Z 18005KT CAVOK 21/06 Q1019 NOSIG,1,0,0,9999,0,0,0,
2026-04-05 19:30:00,METAR LEZL 051930Z 16005KT CAVOK 23/06 Q1019 NOSIG,1,0,0,9999,0,0,0,
2026-04-05 19:00:00,METAR LEZL 051900Z 22003KT 100V250 CAVOK 24/06 Q1018 NOSIG,1,0,0,9999,0,0,0,
2026-04-05 18:30:00,METAR LEZL 051830Z 23006KT CAVOK 26/05 Q1018 NOSIG,1,0,0,9999,0,0,0,
2026-04-05 18:00:00,METAR LEZL 051800Z 24005KT 180V310 CAVOK 28/03 Q1018 NOSIG,1,0,0,9999,0,0,0,
2026-04-05 17:30:00,METAR LEZL 051730Z 27004KT CAVOK 29/04 Q1018 NOSIG,1,0,0,9999,0,0,0,
2026-04-05 17:00:00,METAR LEZL 051700Z 02007KT 350V050 CAVOK 29/03 Q1018 NOSIG,1,0,0,9999,0,0,0,
2026-04-05 16:30:00,METAR LEZL 051630Z 02006KT 330V070 CAVOK 30/04 Q1018 NOSIG,1,0,0,9999,0,0,0,
2026-04-05 16:00:00,METAR LEZL 051600Z 02005KT 330V080 CAVOK 30/04 Q1018 NOSIG,1,0,0,9999,0,0,0,
2026-04-05 15:30:00,METAR LEZL 051530Z VRB03KT CAVOK 30/03 Q1018 NOSIG,1,0,0,9999,0,0,0,
2026-04-05 15:00:00,METAR LEZL 051500Z 07003KT 010V160 CAVOK 29/02 Q1019 NOSIG,1,0,0,9999,0,0,0,
2026-04-05 13:00:00,METAR LEZL 051300Z 07006KT 360V130 CAVOK 29/04 Q1020 NOSIG,1,0,0,9999,0,0,0,
2026-04-05 12:30:00,METAR LEZL 051230Z VRB07KT CAVOK 27/01 Q1020 NOSIG,1,0,0,9999,0,0,0,
2026-04-05 12:00:00,METAR LEZL 051200Z 09005KT 040V200 CAVOK 27/02 Q1021 NOSIG,1,0,0,9999,0,0,0,
2026-04-05 11:30:00,METAR LEZL 051130Z 08009KT 030V150 CAVOK 27/M00 Q1021 NOSIG,1,0,0,9999,0,0,0,
2026-04-05 11:00:00,METAR LEZL 051100Z 11006KT 050V190 CAVOK 26/01 Q1021 NOSIG,1,0,0,9999,0,0,0,
2026-04-05 10:30:00,METAR LEZL 051030Z 09009KT 060V140 CAVOK 25/03 Q1022 NOSIG,1,0,0,9999,0,0,0,
2026-04-05 10:00:00,METAR LEZL 051000Z 08010KT 050V110 CAVOK 24/03 Q1022 NOSIG,1,0,0,9999,0,0,0,
2026-04-05 09:30:00,METAR LEZL 050930Z 08011KT CAVOK 22/03 Q1022 NOSIG,1,0,0,9999,0,0,0,
2026-04-05 09:00:00,METAR LEZL 050900Z 06008KT CAVOK 21/03 Q1022 NOSIG,1,0,0,9999,0,0,0,
2026-04-05 08:30:00,METAR LEZL 050830Z 06007KT CAVOK 21/03 Q1021 NOSIG,1,0,0,9999,0,0,0,
2026-04-05 08:00:00,METAR LEZL 050800Z 04005KT CAVOK 19/03 Q1021 NOSIG,1,0,0,9999,0,0,0,
2026-04-05 07:30:00,METAR LEZL 050730Z 04005KT CAVOK 16/03 Q1021 NOSIG,1,0,0,9999,0,0,0,
2026-04-05 07:00:00,METAR LEZL 050700Z 06008KT CAVOK 15/02 Q1021 NOSIG,1,0,0,9999,0,0,0,
2026-04-05 06:30:00,METAR LEZL 050630Z 05010KT CAVOK 14/02 Q1021 NOSIG,1,0,0,9999,0,0,0,
2026-04-05 06:00:00,METAR LEZL 050600Z 04007KT CAVOK 12/02 Q1021 NOSIG,1,0,0,9999,0,0,0,
2026-04-05 05:30:00,METAR LEZL 050530Z 05010KT CAVOK 13/01 Q1021 NOSIG,1,0,0,9999,0,0,0,
2026-04-05 05:00:00,METAR LEZL 050500Z 03008KT CAVOK 11/01 Q1020 NOSIG,1,0,0,9999,0,0,0,
2026-04-05 04:30:00,METAR LEZL 050430Z 03004KT CAVOK 11/01 Q1021 NOSIG,1,0,0,9999,0,0,0,
2026-04-05 04:00:00,METAR LEZL 050400Z 04004KT CAVOK 12/01 Q1021 NOSIG,1,0,0,9999,0,0,0,
2026-04-05 03:30:00,METAR LEZL 050330Z 03006KT CAVOK 12/01 Q1021 NOSIG,1,0,0,9999,0,0,0,
2026-04-05 03:00:00,METAR LEZL 050300Z AUTO 03008KT CAVOK 12/01 Q1021,1,0,0,9999,0,0,0,
2026-04-05 02:30:00,METAR LEZL 050230Z AUTO 02007KT CAVOK 13/01 Q1021,1,0,0,9999,0,0,0,
2026-04-05 02:00:00,METAR LEZL 050200Z AUTO 04006KT CAVOK 13/01 Q1021,1,0,0,9999,0,0,0,
2026-04-05 01:30:00,METAR LEZL 050130Z AUTO 03005KT CAVOK 12/02 Q1021,1,0,0,9999,0,0,0,
2026-04-05 01:00:00,METAR LEZL 050100Z AUTO 03007KT CAVOK 13/02 Q1021,1,0,0,9999,0,0,0,
2026-04-05 00:30:00,METAR LEZL 050030Z AUTO 04008KT CAVOK 13/02 Q1022,1,0,0,9999,0,0,0,
2026-04-05 00:00:00,METAR LEZL 050000Z AUTO 02005KT 350V050 9000 NCD 13/04 Q1022,0,5,0,9000,0,0,0,
2026-04-04 23:30:00,METAR LEZL 042330Z AUTO 02004KT CAVOK 13/05 Q1022,1,0,0,9999,0,0,0,
2026-04-04 23:00:00,METAR LEZL 042300Z VRB02KT CAVOK 14/05 Q1022 NOSIG,1,0,0,9999,0,0,0,
2026-04-04 22:30:00,METAR LEZL 042230Z VRB01KT CAVOK 14/04 Q1022 NOSIG,1,0,0,9999,0,0,0,
2026-04-04 22:00:00,METAR LEZL 042200Z 11004KT CAVOK 15/05 Q1022 NOSIG,1,0,0,9999,0,0,0,
2026-04-04 21:30:00,METAR LEZL 042130Z 13005KT CAVOK 16/05 Q1021 NOSIG,1,0,0,9999,0,0,0,
2026-04-04 21:00:00,METAR LEZL 042100Z 10004KT 030V150 CAVOK 16/06 Q1021 NOSIG,1,0,0,9999,0,0,0,
2026-04-04 20:30:00,METAR LEZL 042030Z 12005KT CAVOK 17/05 Q1021 NOSIG,1,0,0,9999,0,0,0,
2026-04-04 20:00:00,METAR LEZL 042000Z 09003KT CAVOK 19/05 Q1021 NOSIG,1,0,0,9999,0,0,0,
2026-04-04 19:30:00,METAR LEZL 041930Z 07008KT CAVOK 22/04 Q1020 NOSIG,1,0,0,9999,0,0,0,
2026-04-04 19:00:00,METAR LEZL 041900Z 07007KT CAVOK 23/03 Q1020 NOSIG,1,0,0,9999,0,0,0,
2026-04-04 18:30:00,METAR LEZL 041830Z 08008KT CAVOK 25/02 Q1020 NOSIG,1,0,0,9999,0,0,0,
2026-04-04 18:00:00,METAR LEZL 041800Z 07009KT CAVOK 26/01 Q1020 NOSIG,1,0,0,9999,0,0,0,
2026-04-04 17:30:00,METAR LEZL 041730Z 08009KT 050V110 CAVOK 27/02 Q1019 NOSIG,1,0,0,9999,0,0,0,
2026-04-04 17:00:00,METAR LEZL 041700Z 07009KT 020V100 CAVOK 28/01 Q1019 NOSIG,1,0,0,9999,0,0,0,
2026-04-04 16:30:00,METAR LEZL 041630Z 06008KT 020V110 CAVOK 28/00 Q1019 NOSIG,1,0,0,9999,0,0,0,
2026-04-04 16:00:00,METAR LEZL 041600Z 07006KT 010V140 CAVOK 28/00 Q1019 NOSIG,1,0,0,9999,0,0,0,
2026-04-04 15:30:00,METAR LEZL 041530Z 09007KT 050V150 CAVOK 28/00 Q1020 NOSIG,1,0,0,9999,0,0,0,
2026-04-04 15:00:00,METAR LEZL 041500Z 07007KT 020V120 CAVOK 28/00 Q1020 NOSIG,1,0,0,9999,0,0,0,
2026-04-04 14:30:00,METAR LEZL 041430Z 08006KT 030V170 CAVOK 28/01 Q1020 NOSIG,1,0,0,9999,0,0,0,
2026-04-04 14:00:00,METAR LEZL 041400Z 05007KT 010V100 CAVOK 28/01 Q1021 NOSIG,1,0,0,9999,0,0,0,
2026-04-04 13:30:00,METAR LEZL 041330Z 11007KT 050V190 CAVOK 28/00 Q1021 NOSIG,1,0,0,9999,0,0,0,
2026-04-04 13:00:00,METAR LEZL 041300Z 12007KT 070V170 CAVOK 27/03 Q1021 NOSIG,1,0,0,9999,0,0,0,
2026-04-04 12:30:00,METAR LEZL 041230Z 10005KT 030V160 CAVOK 26/04 Q1022 NOSIG,1,0,0,9999,0,0,0,
2026-04-04 12:00:00,METAR LEZL 041200Z 07004KT 300V110 CAVOK 25/04 Q1022 NOSIG,1,0,0,9999,0,0,0,
2026-04-04 11:30:00,METAR LEZL 041130Z 06006KT 030V120 CAVOK 25/04 Q1023 NOSIG,1,0,0,9999,0,0,0,
2026-04-04 11:00:00,METAR LEZL 041100Z 07006KT 030V120 CAVOK 24/05 Q1023 NOSIG,1,0,0,9999,0,0,0,
2026-04-04 10:30:00,METAR LEZL 041030Z 08005KT 030V140 CAVOK 23/05 Q1023 NOSIG,1,0,0,9999,0,0,0,
2026-04-04 10:00:00,METAR LEZL 041000Z 05007KT 350V110 CAVOK 22/06 Q1023 NOSIG,1,0,0,9999,0,0,0,
2026-04-04 09:30:00,METAR LEZL 040930Z 08007KT 040V120 CAVOK 21/06 Q1023 NOSIG,1,0,0,9999,0,0,0,
2026-04-04 09:00:00,METAR LEZL 040900Z 07008KT 030V110 CAVOK 20/06 Q1023 NOSIG,1,0,0,9999,0,0,0,
2026-04-04 08:30:00,METAR LEZL 040830Z 06006KT CAVOK 18/06 Q1023 NOSIG,1,0,0,9999,0,0,0,
2026-04-04 08:00:00,METAR LEZL 040800Z 04005KT 020V080 CAVOK 16/06 Q1023 NOSIG,1,0,0,9999,0,0,0,
2026-04-04 07:30:00,METAR LEZL 040730Z VRB02KT CAVOK 13/06 Q1023 NOSIG,1,0,0,9999,0,0,0,
2026-04-04 07:00:00,METAR LEZL 040700Z 04006KT CAVOK 11/06 Q1023 NOSIG,1,0,0,9999,0,0,0,
2026-04-04 06:30:00,METAR LEZL 040630Z 01005KT CAVOK 10/05 Q1022 NOSIG,1,0,0,9999,0,0,0,
2026-04-04 06:00:00,METAR LEZL 040600Z 36001KT CAVOK 10/05 Q1022 NOSIG,1,0,0,9999,0,0,0,
2026-04-04 05:30:00,METAR LEZL 040530Z 36001KT CAVOK 09/07 Q1022 NOSIG,1,0,0,9999,0,0,0,
2026-04-04 05:00:00,METAR LEZL 040500Z VRB02KT CAVOK 09/07 Q1022 NOSIG,1,0,0,9999,0,0,0,
2026-04-04 04:30:00,METAR LEZL 040430Z 06003KT 030V150 CAVOK 09/06 Q1022 NOSIG,1,0,0,9999,0,0,0,
2026-04-04 04:00:00,METAR LEZL 040400Z VRB02KT CAVOK 10/06 Q1022 NOSIG,1,0,0,9999,0,0,0,
2026-04-04 03:30:00,METAR LEZL 040330Z 04003KT CAVOK 10/06 Q1021 NOSIG,1,0,0,9999,0,0,0,
2026-04-04 03:00:00,METAR LEZL 040300Z AUTO 00000KT CAVOK 11/07 Q1022,1,0,0,9999,0,0,0,
2026-04-04 02:30:00,METAR LEZL 040230Z AUTO VRB01KT CAVOK 11/06 Q1022,1,0,0,9999,0,0,0,
2026-04-04 02:00:00,METAR LEZL 040200Z AUTO 10004KT 9000 NCD 11/06 Q1022,0,4,0,9000,0,0,0,
2026-04-04 01:30:00,METAR LEZL 040130Z AUTO VRB02KT CAVOK 12/06 Q1022,1,0,0,9999,0,0,0,
2026-04-04 01:00:00,METAR LEZL 040100Z AUTO 11003KT 080V150 9000 NCD 12/06 Q1022,0,3,0,9000,0,0,0,
2026-04-04 00:30:00,METAR LEZL 040030Z AUTO 14003KT 090V170 CAVOK 12/06 Q1022,1,0,0,9999,0,0,0,
2026-04-04 00:00:00,METAR LEZL 040000Z AUTO 15004KT CAVOK 12/06 Q1023,1,0,0,9999,0,0,0,
2026-04-03 23:30:00,METAR LEZL 032330Z 12003KT 040V170 CAVOK 12/06 Q1022 NOSIG,1,0,0,9999,0,0,0,
2026-04-03 23:00:00,METAR LEZL 032300Z 34001KT CAVOK 15/06 Q1022 NOSIG,1,0,0,9999,0,0,0,
2026-04-03 22:30:00,METAR LEZL 032230Z 02002KT CAVOK 16/05 Q1022 NOSIG,1,0,0,9999,0,0,0,
2026-04-03 22:00:00,METAR LEZL 032200Z VRB02KT CAVOK 16/06 Q1022 NOSIG,1,0,0,9999,0,0,0,
2026-04-03 21:30:00,METAR LEZL 032130Z 10003KT 070V140 CAVOK 16/06 Q1022 NOSIG,1,0,0,9999,0,0,0,
2026-04-03 21:00:00,METAR LEZL 032100Z 09004KT CAVOK 15/07 Q1022 NOSIG,1,0,0,9999,0,0,0,
2026-04-03 20:30:00,METAR LEZL 032030Z 08004KT 010V100 CAVOK 17/08 Q1021 NOSIG,1,0,0,9999,0,0,0,
2026-04-03 20:00:00,METAR LEZL 032000Z 10003KT CAVOK 18/08 Q1021 NOSIG,1,0,0,9999,0,0,0,
2026-04-03 19:30:00,METAR LEZL 031930Z 10002KT CAVOK 19/10 Q1020 NOSIG,1,0,0,9999,0,0,0,
2026-04-03 19:00:00,METAR LEZL 031900Z 09003KT CAVOK 22/07 Q1020 NOSIG,1,0,0,9999,0,0,0,
2026-04-03 18:30:00,METAR LEZL 031830Z 11003KT CAVOK 24/06 Q1020 NOSIG,1,0,0,9999,0,0,0,
2026-04-03 18:00:00,METAR LEZL 031800Z VRB02KT CAVOK 26/01 Q1020 NOSIG,1,0,0,9999,0,0,0,
2026-04-03 17:30:00,METAR LEZL 031730Z 05005KT 020V080 CAVOK 26/02 Q1019 NOSIG,1,0,0,9999,0,0,0,
2026-04-03 17:00:00,METAR LEZL 031700Z 05007KT 020V080 CAVOK 27/02 Q1019 NOSIG,1,0,0,9999,0,0,0,
2026-04-03 16:30:00,METAR LEZL 031630Z 05005KT 340V100 CAVOK 26/01 Q1019 NOSIG,1,0,0,9999,0,0,0,
2026-04-03 16:00:00,METAR LEZL 031600Z 06005KT 020V100 CAVOK 26/01 Q1020 NOSIG,1,0,0,9999,0,0,0,
2026-04-03 15:30:00,METAR LEZL 031530Z 03004KT 330V100 CAVOK 26/01 Q1020 NOSIG,1,0,0,9999,0,0,0,
2026-04-03 15:00:00,METAR LEZL 031500Z 04005KT 330V120 CAVOK 26/M00 Q1020 NOSIG,1,0,0,9999,0,0,0,
2026-04-03 14:30:00,METAR LEZL 031430Z 05006KT 350V110 CAVOK 25/M02 Q1020 NOSIG,1,0,0,9999,0,0,0,
2026-04-03 14:00:00,METAR LEZL 031400Z 06008KT 010V100 CAVOK 26/M03 Q1020 NOSIG,1,0,0,9999,0,0,0,
2026-04-03 13:30:00,METAR LEZL 031330Z 07011KT 040V100 CAVOK 25/M05 Q1021 NOSIG,1,0,0,9999,0,0,0,
2026-04-03 13:00:00,METAR LEZL 031300Z 06009KT 030V110 CAVOK 25/M01 Q1021 NOSIG,1,0,0,9999,0,0,0,
2026-04-03 12:30:00,METAR LEZL 031230Z 07010KT 040V110 CAVOK 24/M01 Q1021 NOSIG,1,0,0,9999,0,0,0,
2026-04-03 12:00:00,METAR LEZL 031200Z 05010KT 020V100 CAVOK 24/01 Q1022 NOSIG,1,0,0,9999,0,0,0,
2026-04-03 11:30:00,METAR LEZL 031130Z 06010KT 010V080 CAVOK 23/02 Q1022 NOSIG,1,0,0,9999,0,0,0,
2026-04-03 11:00:00,METAR LEZL 031100Z 05012KT CAVOK 22/03 Q1022 NOSIG,1,0,0,9999,0,0,0,
2026-04-03 10:30:00,METAR LEZL 031030Z 04009KT 020V090 CAVOK 22/04 Q1022 NOSIG,1,0,0,9999,0,0,0,
2026-04-03 10:00:00,METAR LEZL 031000Z 06011KT CAVOK 21/04 Q1022 NOSIG,1,0,0,9999,0,0,0,
2026-04-03 09:30:00,METAR LEZL 030930Z 05010KT CAVOK 20/04 Q1022 NOSIG,1,0,0,9999,0,0,0,
2026-04-03 09:00:00,METAR LEZL 030900Z 05009KT CAVOK 19/05 Q1022 NOSIG,1,0,0,9999,0,0,0,
2026-04-03 08:30:00,METAR LEZL 030830Z 04008KT CAVOK 17/05 Q1022 NOSIG,1,0,0,9999,0,0,0,
2026-04-03 08:00:00,METAR LEZL 030800Z 04006KT CAVOK 16/06 Q1021 NOSIG,1,0,0,9999,0,0,0,
2026-04-03 07:30:00,METAR LEZL 030730Z 03005KT CAVOK 12/06 Q1021 NOSIG,1,0,0,9999,0,0,0,
2026-04-03 07:00:00,METAR LEZL 030700Z 03006KT CAVOK 12/06 Q1021 NOSIG,1,0,0,9999,0,0,0,
2026-04-03 06:30:00,METAR LEZL 030630Z 04005KT CAVOK 10/05 Q1021 WS R09 NOSIG,1,0,0,9999,0,0,0,
2026-04-03 06:00:00,METAR LEZL 030600Z 05007KT CAVOK 13/04 Q1020 WS R09 NOSIG,1,0,0,9999,0,0,0,
2026-04-03 05:30:00,METAR LEZL 030530Z 08006KT CAVOK 12/05 Q1020 WS R09 NOSIG,1,0,0,9999,0,0,0,
2026-04-03 05:00:00,METAR LEZL 030500Z 05005KT CAVOK 11/05 Q1020 WS R09 NOSIG,1,0,0,9999,0,0,0,
2026-04-03 04:30:00,METAR LEZL 030430Z 05008KT CAVOK 12/05 Q1020 NOSIG,1,0,0,9999,0,0,0,
2026-04-03 04:00:00,METAR LEZL 030400Z 04006KT CAVOK 10/05 Q1020 NOSIG,1,0,0,9999,0,0,0,
2026-04-03 03:30:00,METAR LEZL 030330Z 03004KT CAVOK 10/06 Q1019 NOSIG,1,0,0,9999,0,0,0,
2026-04-03 03:00:00,METAR LEZL 030300Z AUTO 01002KT CAVOK 11/06 Q1020,1,0,0,9999,0,0,0,
2026-04-03 02:30:00,METAR LEZL 030230Z AUTO 31001KT 8000 NCD 11/06 Q1019,0,1,0,8000,0,0,0,
2026-04-03 02:00:00,METAR LEZL 030200Z AUTO 00000KT CAVOK 11/06 Q1020,1,0,0,9999,0,0,0,
2026-04-03 01:30:00,METAR LEZL 030130Z AUTO 12003KT CAVOK 10/07 Q1020,1,0,0,9999,0,0,0,
2026-04-03 01:00:00,METAR LEZL 030100Z AUTO 10003KT 9000 NCD 10/07 Q1019,0,3,0,9000,0,0,0,
2026-04-03 00:30:00,METAR LEZL 030030Z AUTO 00000KT CAVOK 11/07 Q1019,1,0,0,9999,0,0,0,
2026-04-03 00:00:00,METAR LEZL 030000Z AUTO 15002KT 9000 NCD 11/07 Q1019,0,2,0,9000,0,0,0,
2026-04-02 23:30:00,METAR LEZL 022330Z AUTO 29001KT CAVOK 12/07 Q1019,1,0,0,9999,0,0,0,
2026-04-02 23:00:00,METAR LEZL 022300Z 00000KT CAVOK 13/07 Q1019 NOSIG,1,0,0,9999,0,0,0,
2026-04-02 22:30:00,METAR LEZL 022230Z VRB01KT CAVOK 15/08 Q1019 NOSIG,1,0,0,9999,0,0,0,
2026-04-02 22:00:00,METAR LEZL 022200Z VRB01KT CAVOK 16/07 Q1018 NOSIG,1,0,0,9999,0,0,0,
2026-04-02 21:30:00,METAR LEZL 022130Z 15003KT 050V190 CAVOK 15/07 Q1018 NOSIG,1,0,0,9999,0,0,0,
2026-04-02 21:00:00,METAR LEZL 022100Z VRB01KT CAVOK 18/08 Q1018 NOSIG,1,0,0,9999,0,0,0,
2026-04-02 20:30:00,METAR LEZL 022030Z 01001KT CAVOK 19/08 Q1018 NOSIG,1,0,0,9999,0,0,0,
2026-04-02 20:00:00,METAR LEZL 022000Z 20003KT CAVOK 20/08 Q1018 NOSIG,1,0,0,9999,0,0,0,
2026-04-02 19:30:00,METAR LEZL 021930Z 01004KT 340V040 CAVOK 21/03 Q1017 NOSIG,1,0,0,9999,0,0,0,
2026-04-02 19:00:00,METAR LEZL 021900Z 01007KT 330V030 CAVOK 23/02 Q1017 NOSIG,1,0,0,9999,0,0,0,
2026-04-02 18:30:00,METAR LEZL 021830Z 36006KT 310V040 CAVOK 25/04 Q1017 NOSIG,1,0,0,9999,0,0,0,
2026-04-02 18:00:00,METAR LEZL 021800Z 01005KT CAVOK 26/01 Q1016 NOSIG,1,0,0,9999,0,0,0,
2026-04-02 17:30:00,METAR LEZL 021730Z 35009G20KT 290V070 CAVOK 27/04 Q1016 NOSIG,1,0,0,9999,0,0,0,
2026-04-02 17:00:00,METAR LEZL 021700Z 27007KT 230V320 CAVOK 27/03 Q1016 NOSIG,1,0,0,9999,0,0,0,
2026-04-02 16:30:00,METAR LEZL 021630Z 23002KT CAVOK 27/05 Q1016 NOSIG,1,0,0,9999,0,0,0,
2026-04-02 16:00:00,METAR LEZL 021600Z 26006KT 220V300 CAVOK 26/04 Q1016 NOSIG,1,0,0,9999,0,0,0,
2026-04-02 15:30:00,METAR LEZL 021530Z 20001KT CAVOK 26/05 Q1016 NOSIG,1,0,0,9999,0,0,0,
2026-04-02 15:00:00,METAR LEZL 021500Z 17004KT 090V230 CAVOK 25/05 Q1017 NOSIG,1,0,0,9999,0,0,0,
2026-04-02 14:30:00,METAR LEZL 021430Z 22004KT 170V260 CAVOK 25/07 Q1017 NOSIG,1,0,0,9999,0,0,0,
2026-04-02 14:00:00,METAR LEZL 021400Z VRB02KT CAVOK 25/06 Q1018 NOSIG,1,0,0,9999,0,0,0,
2026-04-02 13:30:00,METAR LEZL 021330Z 06001KT CAVOK 25/06 Q1018 NOSIG,1,0,0,9999,0,0,0,
2026-04-02 13:00:00,METAR LEZL 021300Z 11004KT 060V190 CAVOK 24/06 Q1018 NOSIG,1,0,0,9999,0,0,0,
2026-04-02 12:30:00,METAR LEZL 021230Z 05005KT CAVOK 23/05 Q1019 NOSIG,1,0,0,9999,0,0,0,
2026-04-02 12:00:00,METAR LEZL 021200Z 08007KT 040V130 CAVOK 23/04 Q1019 NOSIG,1,0,0,9999,0,0,0,
2026-04-02 11:30:00,METAR LEZL 021130Z 06007KT 020V110 CAVOK 23/05 Q1019 NOSIG,1,0,0,9999,0,0,0,
2026-04-02 11:00:00,METAR LEZL 021100Z 08007KT 050V130 CAVOK 22/05 Q1020 NOSIG,1,0,0,9999,0,0,0,
2026-04-02 10:30:00,METAR LEZL 021030Z 07007KT 030V140 CAVOK 21/04 Q1020 NOSIG,1,0,0,9999,0,0,0,
2026-04-02 10:00:00,METAR LEZL 021000Z 07009KT 050V110 CAVOK 20/05 Q1020 NOSIG,1,0,0,9999,0,0,0,
2026-04-02 09:30:00,METAR LEZL 020930Z 06007KT 020V110 CAVOK 20/05 Q1020 NOSIG,1,0,0,9999,0,0,0,
2026-04-02 09:00:00,METAR LEZL 020900Z 05008KT CAVOK 18/06 Q1020 NOSIG,1,0,0,9999,0,0,0,
2026-04-02 08:30:00,METAR LEZL 020830Z 04007KT CAVOK 17/06 Q1019 NOSIG,1,0,0,9999,0,0,0,
2026-04-02 08:00:00,METAR LEZL 020800Z 04004KT 010V070 CAVOK 15/07 Q1019 NOSIG,1,0,0,9999,0,0,0,
2026-04-02 07:30:00,METAR LEZL 020730Z 05006KT CAVOK 14/08 Q1019 NOSIG,1,0,0,9999,0,0,0,
2026-04-02 07:00:00,METAR LEZL 020700Z 04004KT CAVOK 11/07 Q1019 NOSIG,1,0,0,9999,0,0,0,
2026-04-02 06:30:00,METAR LEZL 020630Z VRB02KT CAVOK 10/06 Q1019 NOSIG,1,0,0,9999,0,0,0,
2026-04-02 06:00:00,METAR LEZL 020600Z 31003KT 280V350 CAVOK 10/06 Q1019 NOSIG,1,0,0,9999,0,0,0,
2026-04-02 05:30:00,METAR LEZL 020530Z 00000KT CAVOK 10/06 Q1018 NOSIG,1,0,0,9999,0,0,0,
2026-04-02 05:00:00,METAR LEZL 020500Z 04005KT CAVOK 11/07 Q1018 NOSIG,1,0,0,9999,0,0,0,
2026-04-02 04:30:00,METAR LEZL 020430Z VRB01KT CAVOK 11/07 Q1018 NOSIG,1,0,0,9999,0,0,0,
2026-04-02 04:00:00,METAR LEZL 020400Z VRB02KT CAVOK 12/07 Q1018 NOSIG,1,0,0,9999,0,0,0,
2026-04-02 03:30:00,METAR LEZL 020330Z VRB01KT CAVOK 12/07 Q1018 NOSIG,1,0,0,9999,0,0,0,
2026-04-02 03:00:00,METAR LEZL 020300Z AUTO 00000KT CAVOK 12/07 Q1018,1,0,0,9999,0,0,0,
2026-04-02 02:30:00,METAR LEZL 020230Z AUTO VRB01KT CAVOK 12/07 Q1018,1,0,0,9999,0,0,0,
2026-04-02 02:00:00,METAR LEZL 020200Z AUTO 04001KT CAVOK 11/08 Q1019,1,0,0,9999,0,0,0,
2026-04-02 01:30:00,METAR LEZL 020130Z AUTO VRB01KT 9000 NCD 11/07 Q1019,0,1,0,9000,0,0,0,
2026-04-02 01:00:00,METAR LEZL 020100Z AUTO VRB02KT CAVOK 12/08 Q1019,1,0,0,9999,0,0,0,
2026-04-02 00:30:00,METAR LEZL 020030Z 13004KT CAVOK 11/08 Q1019 NOSIG,1,0,0,9999,0,0,0,
2026-04-02 00:00:00,METAR LEZL 020000Z VRB01KT CAVOK 12/08 Q1019 NOSIG,1,0,0,9999,0,0,0,
2026-04-01 23:30:00,METAR LEZL 012330Z VRB02KT CAVOK 12/07 Q1019 NOSIG,1,0,0,9999,0,0,0,
2026-04-01 23:00:00,METAR LEZL 012300Z 25002KT CAVOK 13/08 Q1019 NOSIG,1,0,0,9999,0,0,0,
2026-04-01 22:30:00,METAR LEZL 012230Z 00000KT CAVOK 13/08 Q1019 NOSIG,1,0,0,9999,0,0,0,
2026-04-01 22:00:00,METAR LEZL 012200Z VRB02KT CAVOK 14/09 Q1019 NOSIG,1,0,0,9999,0,0,0,
2026-04-01 21:30:00,METAR LEZL 012130Z 00000KT CAVOK 14/09 Q1019 NOSIG,1,0,0,9999,0,0,0,
2026-04-01 21:00:00,METAR LEZL 012100Z VRB01KT CAVOK 18/07 Q1019 NOSIG,1,0,0,9999,0,0,0,
2026-04-01 20:30:00,METAR LEZL 012030Z 03002KT CAVOK 17/08 Q1019 NOSIG,1,0,0,9999,0,0,0,
2026-04-01 20:00:00,METAR LEZL 012000Z 01005KT CAVOK 19/07 Q1019 NOSIG,1,0,0,9999,0,0,0,
2026-04-01 19:30:00,METAR LEZL 011930Z 01003KT 330V040 CAVOK 20/07 Q1018 NOSIG,1,0,0,9999,0,0,0,
2026-04-01 19:00:00,METAR LEZL 011900Z 36004KT 340V050 CAVOK 21/06 Q1018 NOSIG,1,0,0,9999,0,0,0,
2026-04-01 18:30:00,METAR LEZL 011830Z 35005KT CAVOK 23/07 Q1018 NOSIG,1,0,0,9999,0,0,0,
2026-04-01 18:00:00,METAR LEZL 011800Z 36004KT CAVOK 25/05 Q1018 NOSIG,1,0,0,9999,0,0,0,
2026-04-01 17:30:00,METAR LEZL 011730Z 06003KT 010V130 CAVOK 25/05 Q1018 NOSIG,1,0,0,9999,0,0,0,
2026-04-01 17:00:00,METAR LEZL 011700Z 11002KT CAVOK 25/06 Q1018 NOSIG,1,0,0,9999,0,0,0,
2026-04-01 16:30:00,METAR LEZL 011630Z 07007KT 010V110 CAVOK 25/05 Q1018 NOSIG,1,0,0,9999,0,0,0,
2026-04-01 16:00:00,METAR LEZL 011600Z 06004KT CAVOK 25/05 Q1018 NOSIG,1,0,0,9999,0,0,0,
2026-04-01 15:30:00,METAR LEZL 011530Z 08004KT 020V160 CAVOK 24/05 Q1018 NOSIG,1,0,0,9999,0,0,0,
2026-04-01 15:00:00,METAR LEZL 011500Z 07010KT 030V130 CAVOK 24/04 Q1018 NOSIG,1,0,0,9999,0,0,0,
2026-04-01 14:00:00,METAR LEZL 011400Z 05008KT 010V100 CAVOK 24/05 Q1019 NOSIG,1,0,0,9999,0,0,0,
2026-04-01 13:30:00,METAR LEZL 011330Z 08011KT 020V110 CAVOK 23/05 Q1020 NOSIG,1,0,0,9999,0,0,0,
2026-04-01 13:00:00,METAR LEZL 011300Z 04009KT 010V070 CAVOK 23/05 Q1020 NOSIG,1,0,0,9999,0,0,0,
2026-04-01 12:30:00,METAR LEZL 011230Z 07010KT 030V100 CAVOK 22/05 Q1020 NOSIG,1,0,0,9999,0,0,0,
2026-04-01 12:00:00,METAR LEZL 011200Z 06012KT 030V100 CAVOK 22/05 Q1021 NOSIG,1,0,0,9999,0,0,0,
2026-04-01 11:30:00,METAR LEZL 011130Z 06010KT 020V110 CAVOK 21/05 Q1021 NOSIG,1,0,0,9999,0,0,0,
2026-04-01 11:00:00,METAR LEZL 011100Z 06011KT 020V100 CAVOK 20/04 Q1021 NOSIG,1,0,0,9999,0,0,0,
2026-04-01 10:30:00,METAR LEZL 011030Z 06012G22KT 020V100 CAVOK 19/04 Q1021 NOSIG,1,0,0,9999,0,0,0,
2026-04-01 10:00:00,METAR LEZL 011000Z 06013KT 030V100 CAVOK 19/04 Q1021 NOSIG,1,0,0,9999,0,0,0,
2026-04-01 09:30:00,METAR LEZL 010930Z 07012KT CAVOK 18/04 Q1021 NOSIG,1,0,0,9999,0,0,0,
2026-04-01 09:00:00,METAR LEZL 010900Z 06017KT 030V090 CAVOK 18/03 Q1021 NOSIG,1,0,0,9999,0,0,0,
2026-04-01 08:30:00,METAR LEZL 010830Z 06018KT 030V090 CAVOK 17/03 Q1021 NOSIG,1,0,0,9999,0,0,0,
2026-04-01 08:00:00,METAR LEZL 010800Z 05010KT 020V080 CAVOK 16/04 Q1021 NOSIG,1,0,0,9999,0,0,0,
2026-04-01 07:30:00,METAR LEZL 010730Z 00000KT CAVOK 15/04 Q1021 NOSIG,1,0,0,9999,0,0,0,
2026-04-01 07:00:00,METAR LEZL 010700Z 05005KT CAVOK 13/04 Q1021 NOSIG,1,0,0,9999,0,0,0,
2026-04-01 06:30:00,METAR LEZL 010630Z 02004KT CAVOK 12/04 Q1021 NOSIG,1,0,0,9999,0,0,0,
2026-04-01 06:00:00,METAR LEZL 010600Z 03006KT CAVOK 12/04 Q1020 NOSIG,1,0,0,9999,0,0,0,
2026-04-01 05:30:00,METAR LEZL 010530Z 03007KT CAVOK 13/04 Q1020 NOSIG,1,0,0,9999,0,0,0,
2026-04-01 05:00:00,METAR LEZL 010500Z 04007KT CAVOK 14/04 Q1020 NOSIG,1,0,0,9999,0,0,0,
2026-04-01 04:30:00,METAR LEZL 010430Z 06005KT CAVOK 14/04 Q1020 NOSIG,1,0,0,9999,0,0,0,
2026-04-01 04:00:00,METAR LEZL 010400Z 07004KT 040V110 CAVOK 14/05 Q1020 NOSIG,1,0,0,9999,0,0,0,
2026-04-01 03:30:00,METAR LEZL 010330Z VRB01KT CAVOK 14/06 Q1020 NOSIG,1,0,0,9999,0,0,0,
2026-04-01 03:00:00,METAR LEZL 010300Z AUTO 12004KT 070V160 CAVOK 14/06 Q1020,1,0,0,9999,0,0,0,
2026-04-01 02:30:00,METAR LEZL 010230Z AUTO 10006KT 050V140 CAVOK 16/06 Q1020,1,0,0,9999,0,0,0,
2026-04-01 02:00:00,METAR LEZL 010200Z AUTO 06010KT CAVOK 17/06 Q1020,1,0,0,9999,0,0,0,
2026-04-01 01:30:00,METAR LEZL 010130Z AUTO 04008KT CAVOK 16/06 Q1020,1,0,0,9999,0,0,0,
2026-04-01 01:00:00,METAR LEZL 010100Z AUTO 04004KT 9000 NCD 16/06 Q1020,0,4,0,9000,0,0,0,
2026-04-01 00:30:00,METAR LEZL 010030Z AUTO 02006KT CAVOK 15/07 Q1020,1,0,0,9999,0,0,0,
2026-04-01 00:00:00,METAR LEZL 010000Z AUTO VRB02KT CAVOK 15/07 Q1020,1,0,0,9999,0,0,0,
2026-03-31 23:30:00,METAR LEZL 312330Z AUTO 04003KT CAVOK 15/08 Q1020,1,0,0,9999,0,0,0,
2026-03-31 23:00:00,METAR LEZL 312300Z 10004KT 070V140 CAVOK 15/08 Q1020 NOSIG,1,0,0,9999,0,0,0,
2026-03-31 22:30:00,METAR LEZL 312230Z 03004KT 360V090 CAVOK 16/08 Q1019 NOSIG,1,0,0,9999,0,0,0,
2026-03-31 22:00:00,METAR LEZL 312200Z 04002KT CAVOK 19/07 Q1019 NOSIG,1,0,0,9999,0,0,0,
2026-03-31 21:30:00,METAR LEZL 312130Z 36003KT 290V030 CAVOK 20/07 Q1019 NOSIG,1,0,0,9999,0,0,0,
2026-03-31 21:00:00,METAR LEZL 312100Z 29003KT 260V320 CAVOK 19/08 Q1019 NOSIG,1,0,0,9999,0,0,0,
2026-03-31 20:30:00,METAR LEZL 312030Z 07002KT CAVOK 19/09 Q1019 NOSIG,1,0,0,9999,0,0,0,
2026-03-31 20:00:00,METAR LEZL 312000Z 34006KT CAVOK 22/07 Q1019 NOSIG,1,0,0,9999,0,0,0,
2026-03-31 19:30:00,METAR LEZL 311930Z 35006KT CAVOK 23/07 Q1019 NOSIG,1,0,0,9999,0,0,0,
2026-03-31 19:00:00,METAR LEZL 311900Z 34007KT 300V360 CAVOK 24/07 Q1019 NOSIG,1,0,0,9999,0,0,0,
2026-03-31 18:30:00,METAR LEZL 311830Z 35007KT CAVOK 25/08 Q1019 NOSIG,1,0,0,9999,0,0,0,
2026-03-31 18:00:00,METAR LEZL 311800Z 36008KT 330V030 CAVOK 26/06 Q1019 NOSIG,1,0,0,9999,0,0,0,
2026-03-31 17:30:00,METAR LEZL 311730Z 01008KT 330V030 CAVOK 27/06 Q1019 NOSIG,1,0,0,9999,0,0,0,
2026-03-31 17:00:00,METAR LEZL 311700Z 02009KT 350V070 CAVOK 27/06 Q1019 NOSIG,1,0,0,9999,0,0,0,
2026-03-31 16:30:00,METAR LEZL 311630Z 03011KT 350V060 CAVOK 28/07 Q1019 NOSIG,1,0,0,9999,0,0,0,
2026-03-31 16:00:00,METAR LEZL 311600Z 04010KT 010V070 CAVOK 28/06 Q1019 NOSIG,1,0,0,9999,0,0,0,
2026-03-31 15:30:00,METAR LEZL 311530Z 01012KT 330V060 CAVOK 28/06 Q1019 NOSIG,1,0,0,9999,0,0,0,
2026-03-31 15:00:00,METAR LEZL 311500Z 03010KT 340V070 CAVOK 28/06 Q1020 NOSIG,1,0,0,9999,0,0,0,
2026-03-31 14:30:00,METAR LEZL 311430Z 08009G21KT 050V120 CAVOK 27/08 Q1020 NOSIG,1,0,0,9999,0,0,0,
2026-03-31 14:00:00,METAR LEZL 311400Z 05006KT 020V100 CAVOK 27/07 Q1020 NOSIG,1,0,0,9999,0,0,0,
2026-03-31 13:30:00,METAR LEZL 311330Z 05008KT 360V140 CAVOK 26/08 Q1021 NOSIG,1,0,0,9999,0,0,0,
2026-03-31 13:00:00,METAR LEZL 311300Z 05005KT 320V100 CAVOK 25/09 Q1022 NOSIG,1,0,0,9999,0,0,0,
2026-03-31 12:30:00,METAR LEZL 311230Z 05006KT 350V130 CAVOK 25/09 Q1022 NOSIG,1,0,0,9999,0,0,0,
2026-03-31 12:00:00,METAR LEZL 311200Z 06006KT 020V150 CAVOK 23/07 Q1023 NOSIG,1,0,0,9999,0,0,0,
2026-03-31 11:30:00,METAR LEZL 311130Z 06008KT 010V100 CAVOK 23/08 Q1023 NOSIG,1,0,0,9999,0,0,0,
2026-03-31 11:00:00,METAR LEZL 311100Z 07008KT 040V110 CAVOK 22/08 Q1023 NOSIG,1,0,0,9999,0,0,0,
2026-03-31 10:30:00,METAR LEZL 311030Z 07008KT 030V100 CAVOK 21/07 Q1024 NOSIG,1,0,0,9999,0,0,0,
2026-03-31 10:00:00,METAR LEZL 311000Z 03005KT 350V070 CAVOK 20/07 Q1024 NOSIG,1,0,0,9999,0,0,0,
2026-03-31 09:30:00,METAR LEZL 310930Z 05007KT 020V090 CAVOK 20/07 Q1024 NOSIG,1,0,0,9999,0,0,0,
2026-03-31 09:00:00,METAR LEZL 310900Z 05005KT 020V090 CAVOK 19/08 Q1024 NOSIG,1,0,0,9999,0,0,0,
2026-03-31 08:30:00,METAR LEZL 310830Z VRB02KT CAVOK 16/08 Q1024 NOSIG,1,0,0,9999,0,0,0,
2026-03-31 08:00:00,METAR LEZL 310800Z VRB02KT CAVOK 15/07 Q1024 NOSIG,1,0,0,9999,0,0,0,
2026-03-31 07:30:00,METAR LEZL 310730Z 02003KT 300V080 CAVOK 13/07 Q1024 NOSIG,1,0,0,9999,0,0,0,
2026-03-31 07:00:00,METAR LEZL 310700Z 12005KT 080V150 CAVOK 10/06 Q1024 NOSIG,1,0,0,9999,0,0,0,
2026-03-31 06:30:00,METAR LEZL 310630Z VRB02KT CAVOK 09/05 Q1024 NOSIG,1,0,0,9999,0,0,0,
2026-03-31 06:00:00,METAR LEZL 310600Z 04002KT CAVOK 08/06 Q1024 NOSIG,1,0,0,9999,0,0,0,
2026-03-31 05:30:00,METAR LEZL 310530Z 04003KT 020V140 CAVOK 08/06 Q1024 NOSIG,1,0,0,9999,0,0,0,
2026-03-31 05:00:00,METAR LEZL 310500Z 00000KT CAVOK 08/05 Q1024 NOSIG,1,0,0,9999,0,0,0,
2026-03-31 04:30:00,METAR LEZL 310430Z 10004KT CAVOK 08/06 Q1024 NOSIG,1,0,0,9999,0,0,0,
2026-03-31 04:00:00,METAR LEZL 310400Z 13003KT 100V160 CAVOK 08/06 Q1024 NOSIG,1,0,0,9999,0,0,0,
2026-03-31 03:30:00,METAR LEZL 310330Z 15002KT CAVOK 08/06 Q1024 NOSIG,1,0,0,9999,0,0,0,
2026-03-31 03:00:00,METAR LEZL 310300Z AUTO 14003KT 9000 NCD 08/05 Q1024,0,3,0,9000,0,0,0,
2026-03-31 02:30:00,METAR LEZL 310230Z AUTO VRB02KT 9000 NCD 09/05 Q1024,0,2,0,9000,0,0,0,
2026-03-31 02:00:00,METAR LEZL 310200Z AUTO 16004KT 9000 NCD 09/05 Q1025,0,4,0,9000,0,0,0,
2026-03-31 01:30:00,METAR LEZL 310130Z AUTO 14004KT 9000 NCD 09/05 Q1025,0,4,0,9000,0,0,0,
2026-03-31 01:00:00,METAR LEZL 310100Z AUTO VRB02KT CAVOK 09/05 Q1025,1,0,0,9999,0,0,0,
2026-03-31 00:30:00,METAR LEZL 310030Z AUTO VRB02KT 9000 NCD 10/06 Q1025,0,2,0,9000,0,0,0,
2026-03-31 00:00:00,METAR LEZL 310000Z AUTO 00000KT CAVOK 10/06 Q1025,1,0,0,9999,0,0,0,
2026-03-30 23:30:00,METAR LEZL 302330Z AUTO VRB02KT CAVOK 11/06 Q1026,1,0,0,9999,0,0,0,
2026-03-30 23:00:00,METAR LEZL 302300Z 11003KT CAVOK 10/07 Q1026 NOSIG,1,0,0,9999,0,0,0,
2026-03-30 22:30:00,METAR LEZL 302230Z 00000KT CAVOK 13/05 Q1025 NOSIG,1,0,0,9999,0,0,0,
2026-03-30 22:00:00,METAR LEZL 302200Z 30003KT 260V340 CAVOK 14/05 Q1026 NOSIG,1,0,0,9999,0,0,0,
2026-03-30 21:30:00,METAR LEZL 302130Z 00000KT CAVOK 12/06 Q1026 NOSIG,1,0,0,9999,0,0,0,
2026-03-30 21:00:00,METAR LEZL 302100Z 00000KT CAVOK 13/04 Q1025 NOSIG,1,0,0,9999,0,0,0,
2026-03-30 20:30:00,METAR LEZL 302030Z 00000KT CAVOK 14/07 Q1025 NOSIG,1,0,0,9999,0,0,0,
2026-03-30 20:00:00,METAR LEZL 302000Z 00000KT CAVOK 15/06 Q1025 NOSIG,1,0,0,9999,0,0,0,
2026-03-30 19:30:00,METAR LEZL 301930Z 11003KT CAVOK 15/06 Q1025 NOSIG,1,0,0,9999,0,0,0,
2026-03-30 19:00:00,METAR LEZL 301900Z 11003KT CAVOK 17/05 Q1024 NOSIG,1,0,0,9999,0,0,0,
2026-03-30 18:30:00,METAR LEZL 301830Z 09005KT CAVOK 18/04 Q1024 NOSIG,1,0,0,9999,0,0,0,
2026-03-30 18:00:00,METAR LEZL 301800Z 09005KT CAVOK 20/02 Q1024 NOSIG,1,0,0,9999,0,0,0,
2026-03-30 17:30:00,METAR LEZL 301730Z 04003G13KT 340V110 CAVOK 21/02 Q1024 NOSIG,1,0,0,9999,0,0,0,
2026-03-30 17:00:00,METAR LEZL 301700Z 05004KT 330V110 CAVOK 21/M00 Q1024 NOSIG,1,0,0,9999,0,0,0,
2026-03-30 16:30:00,METAR LEZL 301630Z 03004KT 340V080 CAVOK 21/M00 Q1025 NOSIG,1,0,0,9999,0,0,0,
2026-03-30 16:00:00,METAR LEZL 301600Z 04004KT 330V120 CAVOK 21/M02 Q1025 NOSIG,1,0,0,9999,0,0,0,
2026-03-30 15:30:00,METAR LEZL 301530Z 06006KT CAVOK 20/M02 Q1025 NOSIG,1,0,0,9999,0,0,0,
2026-03-30 15:00:00,METAR LEZL 301500Z 05006KT 360V110 CAVOK 20/M03 Q1026 NOSIG,1,0,0,9999,0,0,0,
2026-03-30 14:30:00,METAR LEZL 301430Z 07008KT 020V150 CAVOK 19/M04 Q1026 NOSIG,1,0,0,9999,0,0,0,
2026-03-30 14:00:00,METAR LEZL 301400Z 08011KT 050V130 CAVOK 20/M02 Q1027 NOSIG,1,0,0,9999,0,0,0,
2026-03-30 13:30:00,METAR LEZL 301330Z 07011KT CAVOK 19/M03 Q1027 NOSIG,1,0,0,9999,0,0,0,
2026-03-30 13:00:00,METAR LEZL 301300Z 08011KT CAVOK 18/M03 Q1027 NOSIG,1,0,0,9999,0,0,0,
2026-03-30 12:30:00,METAR LEZL 301230Z 07010KT 020V100 CAVOK 17/M03 Q1028 NOSIG,1,0,0,9999,0,0,0,
2026-03-30 12:00:00,METAR LEZL 301200Z 08011KT 060V130 CAVOK 17/M02 Q1028 NOSIG,1,0,0,9999,0,0,0,
2026-03-30 11:30:00,METAR LEZL 301130Z 05011KT 030V100 CAVOK 17/M02 Q1029 NOSIG,1,0,0,9999,0,0,0,
2026-03-30 11:00:00,METAR LEZL 301100Z 07010KT 040V120 CAVOK 16/M02 Q1029 NOSIG,1,0,0,9999,0,0,0,
2026-03-30 10:30:00,METAR LEZL 301030Z 07010KT 020V120 CAVOK 15/M01 Q1029 NOSIG,1,0,0,9999,0,0,0,
2026-03-30 10:00:00,METAR LEZL 301000Z 06010KT 030V090 CAVOK 15/M02 Q1029 NOSIG,1,0,0,9999,0,0,0,
2026-03-30 09:30:00,METAR LEZL 300930Z 06012KT CAVOK 14/M02 Q1030 NOSIG,1,0,0,9999,0,0,0,
2026-03-30 09:00:00,METAR LEZL 300900Z 06009KT CAVOK 13/M02 Q1030 NOSIG,1,0,0,9999,0,0,0,
2026-03-30 08:30:00,METAR LEZL 300830Z 05008KT 030V100 CAVOK 12/M01 Q1030 NOSIG,1,0,0,9999,0,0,0,
2026-03-30 08:00:00,METAR LEZL 300800Z 06008KT 030V090 CAVOK 11/M01 Q1029 NOSIG,1,0,0,9999,0,0,0,
2026-03-30 07:30:00,METAR LEZL 300730Z 06008KT CAVOK 10/M01 Q1029 NOSIG,1,0,0,9999,0,0,0,
2026-03-30 07:00:00,METAR LEZL 300700Z 08006KT CAVOK 08/M01 Q1028 NOSIG,1,0,0,9999,0,0,0,
2026-03-30 06:30:00,METAR LEZL 300630Z 04006KT CAVOK 06/M01 Q1028 NOSIG,1,0,0,9999,0,0,0,
2026-03-30 06:00:00,METAR LEZL 300600Z 06007KT CAVOK 08/M01 Q1028 NOSIG,1,0,0,9999,0,0,0,
2026-03-30 05:30:00,METAR LEZL 300530Z 06007KT CAVOK 08/M01 Q1028 NOSIG,1,0,0,9999,0,0,0,
2026-03-30 05:00:00,METAR LEZL 300500Z 06004KT CAVOK 06/00 Q1028 NOSIG,1,0,0,9999,0,0,0,
2026-03-30 04:30:00,METAR LEZL 300430Z 04006KT CAVOK 07/M01 Q1028 NOSIG,1,0,0,9999,0,0,0,
2026-03-30 04:00:00,METAR LEZL 300400Z 03005KT CAVOK 07/M00 Q1027 NOSIG,1,0,0,9999,0,0,0,
2026-03-30 03:30:00,METAR LEZL 300330Z 03004KT CAVOK 07/M00 Q1027 NOSIG,1,0,0,9999,0,0,0,
2026-03-30 03:00:00,METAR LEZL 300300Z AUTO 05004KT 9000 NCD 08/M00 Q1027,0,4,0,9000,0,0,0,
2026-03-30 02:30:00,METAR LEZL 300230Z AUTO 02008KT CAVOK 09/M01 Q1027,1,0,0,9999,0,0,0,
2026-03-30 02:00:00,METAR LEZL 300200Z AUTO 07004KT CAVOK 10/M02 Q1027,1,0,0,9999,0,0,0,
2026-03-30 01:30:00,METAR LEZL 300130Z AUTO 08008KT CAVOK 11/M03 Q1027,1,0,0,9999,0,0,0,
2026-03-30 01:00:00,METAR LEZL 300100Z AUTO 07007KT CAVOK 12/M03 Q1027,1,0,0,9999,0,0,0,
2026-03-30 00:30:00,METAR LEZL 300030Z AUTO 08010KT 9000 NCD 13/M03 Q1027,0,10,0,9000,0,0,0,
2026-03-30 00:00:00,METAR LEZL 300000Z AUTO 07011KT CAVOK 13/M03 Q1027,1,0,0,9999,0,0,0,
2026-03-29 23:30:00,METAR LEZL 292330Z AUTO 07008KT 9000 NCD 13/M01 Q1027,0,8,0,9000,0,0,0,
2026-03-29 23:00:00,METAR LEZL 292300Z 06007KT CAVOK 13/00 Q1027 NOSIG,1,0,0,9999,0,0,0,
2026-03-29 22:30:00,METAR LEZL 292230Z 07007KT 040V110 CAVOK 12/01 Q1026 NOSIG,1,0,0,9999,0,0,0,
2026-03-29 22:00:00,METAR LEZL 292200Z 03004KT CAVOK 13/00 Q1026 NOSIG,1,0,0,9999,0,0,0,
2026-03-29 21:30:00,METAR LEZL 292130Z 02005KT CAVOK 13/01 Q1025 NOSIG,1,0,0,9999,0,0,0,
2026-03-29 21:00:00,METAR LEZL 292100Z 02007KT CAVOK 14/00 Q1025 NOSIG,1,0,0,9999,0,0,0,
2026-03-29 20:30:00,METAR LEZL 292030Z 02008KT CAVOK 15/M00 Q1025 NOSIG,1,0,0,9999,0,0,0,
2026-03-29 20:00:00,METAR LEZL 292000Z 03007KT CAVOK 14/01 Q1024 NOSIG,1,0,0,9999,0,0,0,
2026-03-29 19:30:00,METAR LEZL 291930Z 03007KT CAVOK 16/M01 Q1024 NOSIG,1,0,0,9999,0,0,0,
2026-03-29 19:00:00,METAR LEZL 291900Z 03011KT CAVOK 17/M02 Q1024 NOSIG,1,0,0,9999,0,0,0,
2026-03-29 18:30:00,METAR LEZL 291830Z 02014KT CAVOK 18/M01 Q1024 NOSIG,1,0,0,9999,0,0,0,
2026-03-29 18:00:00,METAR LEZL 291800Z 03014KT CAVOK 19/M01 Q1023 NOSIG,1,0,0,9999,0,0,0,
2026-03-29 17:30:00,METAR LEZL 291730Z 03015KT 350V070 CAVOK 19/M01 Q1023 NOSIG,1,0,0,9999,0,0,0,
2026-03-29 17:00:00,METAR LEZL 291700Z 02019KT CAVOK 20/M02 Q1022 NOSIG,1,0,0,9999,0,0,0,
2026-03-29 16:30:00,METAR LEZL 291630Z 02018G28KT 350V050 CAVOK 21/M02 Q1022 NOSIG,1,0,0,9999,0,0,0,
2026-03-29 16:00:00,METAR LEZL 291600Z 04016KT 010V080 CAVOK 21/00 Q1023 NOSIG,1,0,0,9999,0,0,0,
2026-03-29 15:30:00,METAR LEZL 291530Z 05013KT 020V080 CAVOK 21/00 Q1023 NOSIG,1,0,0,9999,0,0,0,
2026-03-29 15:00:00,METAR LEZL 291500Z 06014KT CAVOK 21/00 Q1023 NOSIG,1,0,0,9999,0,0,0,
2026-03-29 14:30:00,METAR LEZL 291430Z 04013KT 010V080 CAVOK 21/M00 Q1023 NOSIG,1,0,0,9999,0,0,0,
2026-03-29 14:00:00,METAR LEZL 291400Z 05013KT 020V090 CAVOK 21/M01 Q1023 NOSIG,1,0,0,9999,0,0,0,
2026-03-29 13:30:00,METAR LEZL 291330Z 06014KT 020V090 CAVOK 21/00 Q1023 NOSIG,1,0,0,9999,0,0,0,
2026-03-29 13:00:00,METAR LEZL 291300Z 05015KT 020V080 CAVOK 20/M00 Q1024 NOSIG,1,0,0,9999,0,0,0,
2026-03-29 12:30:00,METAR LEZL 291230Z 05016KT 020V080 CAVOK 20/M00 Q1024 NOSIG,1,0,0,9999,0,0,0,
2026-03-29 12:00:00,METAR LEZL 291200Z 05015KT 010V080 CAVOK 20/00 Q1025 NOSIG,1,0,0,9999,0,0,0,
2026-03-29 11:30:00,METAR LEZL 291130Z 04012KT 360V090 CAVOK 19/M00 Q1025 NOSIG,1,0,0,9999,0,0,0,
2026-03-29 11:00:00,METAR LEZL 291100Z 06013KT 030V100 CAVOK 18/00 Q1026 NOSIG,1,0,0,9999,0,0,0,
2026-03-29 10:30:00,METAR LEZL 291030Z 07013KT 030V100 CAVOK 18/00 Q1026 NOSIG,1,0,0,9999,0,0,0,
2026-03-29 10:00:00,METAR LEZL 291000Z 06011KT 030V110 CAVOK 17/02 Q1026 NOSIG,1,0,0,9999,0,0,0,
2026-03-29 09:30:00,METAR LEZL 290930Z 06013KT 030V100 CAVOK 16/02 Q1026 NOSIG,1,0,0,9999,0,0,0,
2026-03-29 09:00:00,METAR LEZL 290900Z 07012KT 040V100 CAVOK 15/03 Q1026 NOSIG,1,0,0,9999,0,0,0,
2026-03-29 08:30:00,METAR LEZL 290830Z 06013KT CAVOK 15/04 Q1026 NOSIG,1,0,0,9999,0,0,0,
2026-03-29 08:00:00,METAR LEZL 290800Z 07013KT CAVOK 14/04 Q1026 NOSIG,1,0,0,9999,0,0,0,
2026-03-29 07:30:00,METAR LEZL 290730Z 07010KT CAVOK 14/04 Q1025 NOSIG,1,0,0,9999,0,0,0,
2026-03-29 07:00:00,METAR LEZL 290700Z 08008KT CAVOK 12/04 Q1025 NOSIG,1,0,0,9999,0,0,0,
2026-03-29 06:30:00,METAR LEZL 290630Z 06005KT 020V090 CAVOK 12/04 Q1024 NOSIG,1,0,0,9999,0,0,0,
2026-03-29 06:00:00,METAR LEZL 290600Z 04009KT CAVOK 12/04 Q1024 NOSIG,1,0,0,9999,0,0,0,
2026-03-29 05:30:00,METAR LEZL 290530Z 04005KT CAVOK 11/04 Q1024 NOSIG,1,0,0,9999,0,0,0,
2026-03-29 05:00:00,METAR LEZL 290500Z 02004KT 360V100 CAVOK 11/04 Q1024 NOSIG,1,0,0,9999,0,0,0,
2026-03-29 04:30:00,METAR LEZL 290430Z VRB02KT CAVOK 12/04 Q1023 NOSIG,1,0,0,9999,0,0,0,
2026-03-29 04:00:00,METAR LEZL 290400Z 35004KT 320V050 CAVOK 13/04 Q1023 NOSIG,1,0,0,9999,0,0,0,
2026-03-29 03:30:00,METAR LEZL 290330Z 01005KT 340V050 CAVOK 13/04 Q1023 NOSIG,1,0,0,9999,0,0,0,
2026-03-29 03:00:00,METAR LEZL 290300Z AUTO 02005KT 350V050 9000 NCD 13/05 Q1023,0,5,0,9000,0,0,0,
2026-03-29 02:30:00,METAR LEZL 290230Z AUTO 03008KT CAVOK 13/05 Q1023,1,0,0,9999,0,0,0,
2026-03-29 02:00:00,METAR LEZL 290200Z AUTO 04010KT CAVOK 14/05 Q1023,1,0,0,9999,0,0,0,
2026-03-29 01:30:00,METAR LEZL 290130Z AUTO 04008KT CAVOK 15/05 Q1023,1,0,0,9999,0,0,0,
2026-03-29 01:00:00,METAR LEZL 290100Z AUTO 03006KT 8000 NCD 13/05 Q1023,0,6,0,8000,0,0,0,
2026-03-29 00:30:00,METAR LEZL 290030Z AUTO 03008KT 9000 NCD 14/06 Q1023,0,8,0,9000,0,0,0,
2026-03-29 00:00:00,METAR LEZL 290000Z 05007KT CAVOK 15/05 Q1022 NOSIG,1,0,0,9999,0,0,0,
2026-03-28 23:30:00,METAR LEZL 282330Z 05006KT CAVOK 14/06 Q1022 NOSIG,1,0,0,9999,0,0,0,
2026-03-28 23:00:00,METAR LEZL 282300Z 05007KT CAVOK 15/05 Q1022 NOSIG,1,0,0,9999,0,0,0,
2026-03-28 22:30:00,METAR LEZL 282230Z 04007KT CAVOK 16/05 Q1022 NOSIG,1,0,0,9999,0,0,0,
2026-03-28 22:00:00,METAR LEZL 282200Z 04008KT CAVOK 17/05 Q1021 NOSIG,1,0,0,9999,0,0,0,
2026-03-28 21:30:00,METAR LEZL 282130Z 05007KT CAVOK 16/06 Q1021 NOSIG,1,0,0,9999,0,0,0,
2026-03-28 21:00:00,METAR LEZL 282100Z 03007KT CAVOK 16/06 Q1021 NOSIG,1,0,0,9999,0,0,0,
2026-03-28 20:30:00,METAR LEZL 282030Z 04004KT CAVOK 17/07 Q1021 NOSIG,1,0,0,9999,0,0,0,
2026-03-28 20:00:00,METAR LEZL 282000Z 02004KT CAVOK 18/07 Q1020 NOSIG,1,0,0,9999,0,0,0,
2026-03-28 19:30:00,METAR LEZL 281930Z 02003KT CAVOK 20/06 Q1020 NOSIG,1,0,0,9999,0,0,0,
2026-03-28 19:00:00,METAR LEZL 281900Z 03005KT CAVOK 20/08 Q1019 NOSIG,1,0,0,9999,0,0,0,
2026-03-28 18:30:00,METAR LEZL 281830Z 06003KT CAVOK 21/10 Q1019 NOSIG,1,0,0,9999,0,0,0,
2026-03-28 18:00:00,METAR LEZL 281800Z 08004KT CAVOK 22/09 Q1019 NOSIG,1,0,0,9999,0,0,0,
2026-03-28 17:30:00,METAR LEZL 281730Z 08003KT 030V130 CAVOK 23/09 Q1018 NOSIG,1,0,0,9999,0,0,0,
2026-03-28 17:00:00,METAR LEZL 281700Z 04005KT 350V100 CAVOK 24/08 Q1018 NOSIG,1,0,0,9999,0,0,0,
2026-03-28 16:30:00,METAR LEZL 281630Z 31001KT CAVOK 24/08 Q1018 NOSIG,1,0,0,9999,0,0,0,
2026-03-28 16:00:00,METAR LEZL 281600Z 03003KT CAVOK 24/08 Q1018 NOSIG,1,0,0,9999,0,0,0,
2026-03-28 15:30:00,METAR LEZL 281530Z 05004KT 320V100 CAVOK 23/08 Q1018 NOSIG,1,0,0,9999,0,0,0,
2026-03-28 15:00:00,METAR LEZL 281500Z 02004KT 280V080 CAVOK 23/06 Q1018 NOSIG,1,0,0,9999,0,0,0,
2026-03-28 14:30:00,METAR LEZL 281430Z 06005KT 010V100 CAVOK 23/06 Q1019 NOSIG,1,0,0,9999,0,0,0,
2026-03-28 14:00:00,METAR LEZL 281400Z VRB06KT CAVOK 22/05 Q1019 NOSIG,1,0,0,9999,0,0,0,
2026-03-28 13:30:00,METAR LEZL 281330Z 07004KT CAVOK 22/06 Q1019 NOSIG,1,0,0,9999,0,0,0,
2026-03-28 13:00:00,METAR LEZL 281300Z 12004KT CAVOK 22/08 Q1019 NOSIG,1,0,0,9999,0,0,0,
2026-03-28 12:30:00,METAR LEZL 281230Z 13001KT CAVOK 21/08 Q1020 NOSIG,1,0,0,9999,0,0,0,
2026-03-28 12:00:00,METAR LEZL 281200Z 09002KT CAVOK 21/09 Q1020 NOSIG,1,0,0,9999,0,0,0,
2026-03-28 11:30:00,METAR LEZL 281130Z 12002KT CAVOK 20/09 Q1020 NOSIG,1,0,0,9999,0,0,0,
2026-03-28 11:00:00,METAR LEZL 281100Z 26001KT CAVOK 19/11 Q1020 NOSIG,1,0,0,9999,0,0,0,
2026-03-28 10:30:00,METAR LEZL 281030Z 36002KT CAVOK 18/10 Q1020 NOSIG,1,0,0,9999,0,0,0,
2026-03-28 10:00:00,METAR LEZL 281000Z 07002KT CAVOK 17/10 Q1021 NOSIG,1,0,0,9999,0,0,0,
2026-03-28 09:30:00,METAR LEZL 280930Z 05002KT CAVOK 16/11 Q1020 NOSIG,1,0,0,9999,0,0,0,
2026-03-28 09:00:00,METAR LEZL 280900Z VRB01KT CAVOK 15/11 Q1020 NOSIG,1,0,0,9999,0,0,0,
2026-03-28 08:30:00,METAR LEZL 280830Z 05002KT CAVOK 14/10 Q1020 NOSIG,1,0,0,9999,0,0,0,
2026-03-28 08:00:00,METAR LEZL 280800Z 04004KT 320V070 CAVOK 12/10 Q1020 NOSIG,1,0,0,9999,0,0,0,
2026-03-28 07:30:00,METAR LEZL 280730Z 02003KT 320V060 CAVOK 10/09 Q1020 NOSIG,1,0,0,9999,0,0,0,
2026-03-28 07:00:00,METAR LEZL 280700Z 00000KT CAVOK 10/08 Q1019 NOSIG,1,0,0,9999,0,0,0,
2026-03-28 06:30:00,METAR LEZL 280630Z 02002KT CAVOK 09/08 Q1019 NOSIG,1,0,0,9999,0,0,0,
2026-03-28 06:00:00,METAR LEZL 280600Z VRB02KT CAVOK 09/08 Q1019 NOSIG,1,0,0,9999,0,0,0,
2026-03-28 05:30:00,METAR LEZL 280530Z VRB02KT CAVOK 09/08 Q1018 NOSIG,1,0,0,9999,0,0,0,
2026-03-28 05:00:00,METAR LEZL 280500Z 10003KT CAVOK 09/08 Q1018 NOSIG,1,0,0,9999,0,0,0,
2026-03-28 04:30:00,METAR LEZL 280430Z 09002KT CAVOK 09/08 Q1018 NOSIG,1,0,0,9999,0,0,0,
2026-03-28 04:00:00,METAR LEZL 280400Z AUTO 08003KT 8000 NCD 09/08 Q1018,0,3,0,8000,0,0,0,
2026-03-28 03:30:00,METAR LEZL 280330Z AUTO 07002KT 8000 NCD 10/09 Q1018,0,2,0,8000,0,0,0,
2026-03-28 03:00:00,METAR LEZL 280300Z AUTO 04002KT 9000 NCD 10/09 Q1018,0,2,0,9000,0,0,0,
2026-03-28 02:30:00,METAR LEZL 280230Z AUTO VRB01KT 9000 NCD 11/09 Q1017,0,1,0,9000,0,0,0,
2026-03-28 02:00:00,METAR LEZL 280200Z AUTO 22004KT 9000 NCD 13/09 Q1017,0,4,0,9000,0,0,0,
2026-03-28 01:30:00,METAR LEZL 280130Z AUTO 20003KT 9000 NCD 13/10 Q1017,0,3,0,9000,0,0,0,
2026-03-28 01:00:00,METAR LEZL 280100Z AUTO 21004KT 160V240 CAVOK 13/10 Q1017,1,0,0,9999,0,0,0,
2026-03-28 00:30:00,METAR LEZL 280030Z AUTO 22006KT 190V250 CAVOK 14/10 Q1017,1,0,0,9999,0,0,0,
2026-03-28 00:00:00,METAR LEZL 280000Z 22007KT CAVOK 14/10 Q1017 NOSIG,1,0,0,9999,0,0,0,
2026-03-27 23:30:00,METAR LEZL 272330Z 21007KT CAVOK 14/11 Q1017 NOSIG,1,0,0,9999,0,0,0,
2026-03-27 23:00:00,METAR LEZL 272300Z 23009KT CAVOK 15/10 Q1017 NOSIG,1,0,0,9999,0,0,0,
2026-03-27 22:30:00,METAR LEZL 272230Z 13003KT CAVOK 12/09 Q1016 NOSIG,1,0,0,9999,0,0,0,
2026-03-27 22:00:00,METAR LEZL 272200Z 00000KT CAVOK 14/08 Q1016 NOSIG,1,0,0,9999,0,0,0,
2026-03-27 21:30:00,METAR LEZL 272130Z 13003KT CAVOK 13/09 Q1016 NOSIG,1,0,0,9999,0,0,0,
2026-03-27 21:00:00,METAR LEZL 272100Z VRB01KT CAVOK 13/09 Q1015 NOSIG,1,0,0,9999,0,0,0,
2026-03-27 20:30:00,METAR LEZL 272030Z VRB02KT CAVOK 16/09 Q1015 NOSIG,1,0,0,9999,0,0,0,
2026-03-27 20:00:00,METAR LEZL 272000Z 02003KT 350V110 CAVOK 16/09 Q1014 NOSIG,1,0,0,9999,0,0,0,
2026-03-27 19:30:00,METAR LEZL 271930Z 04001KT CAVOK 18/08 Q1014 NOSIG,1,0,0,9999,0,0,0,
2026-03-27 19:00:00,METAR LEZL 271900Z 08005KT CAVOK 18/08 Q1014 NOSIG,1,0,0,9999,0,0,0,
2026-03-27 18:30:00,METAR LEZL 271830Z 12005KT 070V130 CAVOK 20/08 Q1013 NOSIG,1,0,0,9999,0,0,0,
2026-03-27 18:00:00,METAR LEZL 271800Z 13004KT CAVOK 21/07 Q1013 NOSIG,1,0,0,9999,0,0,0,
2026-03-27 17:30:00,METAR LEZL 271730Z 08003KT 040V150 CAVOK 22/07 Q1013 NOSIG,1,0,0,9999,0,0,0,
2026-03-27 17:00:00,METAR LEZL 271700Z 07004KT 020V130 CAVOK 23/06 Q1013 NOSIG,1,0,0,9999,0,0,0,
2026-03-27 16:30:00,METAR LEZL 271630Z 03004KT 310V100 CAVOK 23/06 Q1013 NOSIG,1,0,0,9999,0,0,0,
2026-03-27 16:00:00,METAR LEZL 271600Z 05005KT 010V160 CAVOK 23/06 Q1013 NOSIG,1,0,0,9999,0,0,0,
2026-03-25 15:00:00,METAR LEZL 251500Z 08007KT 050V110 CAVOK 23/09 Q1016 NOSIG,1,0,0,9999,0,0,0,
2026-03-25 14:30:00,METAR LEZL 251430Z 09007KT 040V130 CAVOK 23/09 Q1017 NOSIG,1,0,0,9999,0,0,0,
2026-03-25 14:00:00,METAR LEZL 251400Z 09006KT 050V120 CAVOK 22/11 Q1017 NOSIG,1,0,0,9999,0,0,0,
2026-03-25 13:30:00,METAR LEZL 251330Z 06006KT 020V140 CAVOK 22/11 Q1018 NOSIG,1,0,0,9999,0,0,0,
2026-03-25 13:00:00,METAR LEZL 251300Z 04007KT 020V080 CAVOK 22/11 Q1018 NOSIG,1,0,0,9999,0,0,0,
2026-03-25 12:30:00,METAR LEZL 251230Z 06007KT 030V100 CAVOK 21/11 Q1018 NOSIG,1,0,0,9999,0,0,0,
2026-03-25 12:00:00,METAR LEZL 251200Z 06008KT CAVOK 20/11 Q1019 NOSIG,1,0,0,9999,0,0,0,
2026-03-25 11:30:00,METAR LEZL 251130Z 06008KT 020V080 CAVOK 20/11 Q1019 NOSIG,1,0,0,9999,0,0,0,
2026-03-25 11:00:00,METAR LEZL 251100Z 05007KT 010V080 CAVOK 20/12 Q1019 NOSIG,1,0,0,9999,0,0,0,
2026-03-25 10:30:00,METAR LEZL 251030Z 06009KT 030V110 CAVOK 19/11 Q1020 NOSIG,1,0,0,9999,0,0,0,
2026-03-25 10:00:00,METAR LEZL 251000Z 05009KT 020V080 CAVOK 19/10 Q1020 NOSIG,1,0,0,9999,0,0,0,
2026-03-25 09:30:00,METAR LEZL 250930Z 06007KT 020V100 CAVOK 18/10 Q1020 NOSIG,1,0,0,9999,0,0,0,
2026-03-25 09:00:00,METAR LEZL 250900Z 05007KT 020V080 CAVOK 16/09 Q1020 NOSIG,1,0,0,9999,0,0,0,
2026-03-25 08:30:00,METAR LEZL 250830Z 06007KT CAVOK 15/10 Q1020 NOSIG,1,0,0,9999,0,0,0,
2026-03-25 08:00:00,METAR LEZL 250800Z 05008KT CAVOK 14/10 Q1021 NOSIG,1,0,0,9999,0,0,0,
2026-03-25 07:30:00,METAR LEZL 250730Z 03006KT 350V060 CAVOK 13/10 Q1020 NOSIG,1,0,0,9999,0,0,0,
2026-03-25 07:00:00,METAR LEZL 250700Z 36001KT CAVOK 11/09 Q1020 NOSIG,1,0,0,9999,0,0,0,
2026-03-25 06:30:00,METAR LEZL 250630Z 01005KT CAVOK 10/09 Q1020 NOSIG,1,0,0,9999,0,0,0,
2026-03-25 06:00:00,METAR LEZL 250600Z 04004KT CAVOK 10/09 Q1020 NOSIG,1,0,0,9999,0,0,0,
2026-03-25 05:30:00,METAR LEZL 250530Z 04005KT CAVOK 11/09 Q1020 NOSIG,1,0,0,9999,0,0,0,
2026-03-25 05:00:00,METAR LEZL 250500Z 04007KT CAVOK 11/09 Q1020 NOSIG,1,0,0,9999,0,0,0,
2026-03-25 04:30:00,METAR LEZL 250430Z 05007KT CAVOK 11/09 Q1020 NOSIG,1,0,0,9999,0,0,0,
2026-03-25 04:00:00,METAR LEZL 250400Z AUTO 03007KT 9000 NCD 11/09 Q1020,0,7,0,9000,0,0,0,
2026-03-25 03:30:00,METAR LEZL 250330Z AUTO 04007KT CAVOK 11/09 Q1020,1,0,0,9999,0,0,0,
2026-03-25 03:00:00,METAR LEZL 250300Z AUTO 04007KT 9000 NCD 11/09 Q1020,0,7,0,9000,0,0,0,
2026-03-25 02:30:00,METAR LEZL 250230Z AUTO 04004KT 9000 NCD 11/09 Q1021,0,4,0,9000,0,0,0,
2026-03-25 02:00:00,METAR LEZL 250200Z AUTO 04004KT 9000 NCD 11/09 Q1021,0,4,0,9000,0,0,0,
2026-03-25 01:30:00,METAR LEZL 250130Z AUTO 04005KT 9000 NCD 11/09 Q1021,0,5,0,9000,0,0,0,
2026-03-25 01:00:00,METAR LEZL 250100Z AUTO 05004KT CAVOK 12/09 Q1021,1,0,0,9999,0,0,0,
2026-03-25 00:30:00,METAR LEZL 250030Z AUTO 06003KT CAVOK 11/09 Q1022,1,0,0,9999,0,0,0,
2026-03-25 00:00:00,METAR LEZL 250000Z 06003KT CAVOK 12/09 Q1022 NOSIG,1,0,0,9999,0,0,0,
2026-03-24 23:30:00,METAR LEZL 242330Z 05005KT CAVOK 12/09 Q1022 NOSIG,1,0,0,9999,0,0,0,
2026-03-24 23:00:00,METAR LEZL 242300Z 02005KT CAVOK 12/09 Q1022 NOSIG,1,0,0,9999,0,0,0,
2026-03-24 22:30:00,METAR LEZL 242230Z 03003KT CAVOK 14/09 Q1021 NOSIG,1,0,0,9999,0,0,0,
2026-03-24 22:00:00,METAR LEZL 242200Z VRB02KT CAVOK 14/09 Q1021 NOSIG,1,0,0,9999,0,0,0,
2026-03-24 21:30:00,METAR LEZL 242130Z 12005KT CAVOK 13/09 Q1021 NOSIG,1,0,0,9999,0,0,0,
2026-03-24 21:00:00,METAR LEZL 242100Z 12007KT CAVOK 15/09 Q1021 NOSIG,1,0,0,9999,0,0,0,
2026-03-24 20:30:00,METAR LEZL 242030Z 12006KT CAVOK 15/09 Q1020 NOSIG,1,0,0,9999,0,0,0,
2026-03-24 20:00:00,METAR LEZL 242000Z 09005KT CAVOK 16/09 Q1020 NOSIG,1,0,0,9999,0,0,0,
2026-03-24 19:30:00,METAR LEZL 241930Z 08006KT CAVOK 17/09 Q1020 NOSIG,1,0,0,9999,0,0,0,
2026-03-24 19:00:00,METAR LEZL 241900Z 08006KT CAVOK 18/09 Q1019 NOSIG,1,0,0,9999,0,0,0,
2026-03-24 18:30:00,METAR LEZL 241830Z 08005KT CAVOK 19/09 Q1019 NOSIG,1,0,0,9999,0,0,0,
2026-03-24 18:00:00,METAR LEZL 241800Z 08008KT CAVOK 20/09 Q1019 NOSIG,1,0,0,9999,0,0,0,
2026-03-24 17:30:00,METAR LEZL 241730Z 08009KT 050V110 CAVOK 21/08 Q1019 NOSIG,1,0,0,9999,0,0,0,
2026-03-24 17:00:00,METAR LEZL 241700Z 09010KT 060V120 CAVOK 22/08 Q1019 NOSIG,1,0,0,9999,0,0,0,
2026-03-24 16:30:00,METAR LEZL 241630Z 09013KT 060V120 CAVOK 22/08 Q1019 NOSIG,1,0,0,9999,0,0,0,
2026-03-24 16:00:00,METAR LEZL 241600Z 08014KT CAVOK 22/08 Q1019 NOSIG,1,0,0,9999,0,0,0,
2026-03-24 15:30:00,METAR LEZL 241530Z 08013KT 040V110 CAVOK 22/08 Q1019 NOSIG,1,0,0,9999,0,0,0,
2026-03-24 15:00:00,METAR LEZL 241500Z 08012KT 050V110 CAVOK 23/09 Q1019 NOSIG,1,0,0,9999,0,0,0,
2026-03-24 14:30:00,METAR LEZL 241430Z 07011KT 030V110 CAVOK 23/09 Q1019 NOSIG,1,0,0,9999,0,0,0,
2026-03-24 14:00:00,METAR LEZL 241400Z 07013KT 050V110 CAVOK 23/09 Q1019 NOSIG,1,0,0,9999,0,0,0,
2026-03-24 13:30:00,METAR LEZL 241330Z 07013KT 020V110 CAVOK 22/09 Q1019 NOSIG,1,0,0,9999,0,0,0,
2026-03-24 13:00:00,METAR LEZL 241300Z 08010KT 030V120 CAVOK 22/10 Q1020 NOSIG,1,0,0,9999,0,0,0,
2026-03-24 12:30:00,METAR LEZL 241230Z 13009KT CAVOK 22/11 Q1020 NOSIG,1,0,0,9999,0,0,0,
2026-03-24 12:00:00,METAR LEZL 241200Z 08010KT 040V120 CAVOK 21/11 Q1020 NOSIG,1,0,0,9999,0,0,0,
2026-03-24 11:30:00,METAR LEZL 241130Z 10008KT 060V160 CAVOK 21/10 Q1020 NOSIG,1,0,0,9999,0,0,0,
2026-03-24 11:00:00,METAR LEZL 241100Z 11008KT 060V150 CAVOK 20/10 Q1020 NOSIG,1,0,0,9999,0,0,0,
2026-03-24 10:30:00,METAR LEZL 241030Z 11008KT 070V150 CAVOK 20/10 Q1020 NOSIG,1,0,0,9999,0,0,0,
2026-03-24 10:00:00,METAR LEZL 241000Z 09008KT 050V130 CAVOK 19/11 Q1020 NOSIG,1,0,0,9999,0,0,0,
2026-03-24 09:30:00,METAR LEZL 240930Z 08010KT CAVOK 18/11 Q1020 NOSIG,1,0,0,9999,0,0,0,
2026-03-24 09:00:00,METAR LEZL 240900Z 08009KT 060V120 CAVOK 17/10 Q1020 NOSIG,1,0,0,9999,0,0,0,
2026-03-24 08:30:00,METAR LEZL 240830Z 08009KT CAVOK 17/11 Q1020 NOSIG,1,0,0,9999,0,0,0,
2026-03-24 08:00:00,METAR LEZL 240800Z 07007KT CAVOK 16/11 Q1019 NOSIG,1,0,0,9999,0,0,0,
2026-03-24 07:30:00,METAR LEZL 240730Z 06004KT 030V100 CAVOK 14/12 Q1019 NOSIG,1,0,0,9999,0,0,0,
2026-03-24 07:00:00,METAR LEZL 240700Z 05004KT CAVOK 11/10 Q1019 NOSIG,1,0,0,9999,0,0,0,
2026-03-24 06:30:00,METAR LEZL 240630Z 04005KT CAVOK 10/10 Q1019 NOSIG,1,0,0,9999,0,0,0,
2026-03-24 06:00:00,METAR LEZL 240600Z 04005KT CAVOK 11/10 Q1019 NOSIG,1,0,0,9999,0,0,0,
2026-03-24 05:30:00,METAR LEZL 240530Z 05005KT CAVOK 11/10 Q1019 NOSIG,1,0,0,9999,0,0,0,
2026-03-24 05:00:00,METAR LEZL 240500Z 04006KT CAVOK 11/10 Q1018 NOSIG,1,0,0,9999,0,0,0,
2026-03-24 04:30:00,METAR LEZL 240430Z 03006KT CAVOK 11/10 Q1018 NOSIG,1,0,0,9999,0,0,0,
2026-03-24 04:00:00,METAR LEZL 240400Z AUTO 03006KT CAVOK 11/11 Q1018,1,0,0,9999,0,0,0,
2026-03-24 03:30:00,METAR LEZL 240330Z AUTO 03003KT 9000 NCD 12/11 Q1018,0,3,0,9000,0,0,0,
2026-03-24 03:00:00,METAR LEZL 240300Z AUTO 02004KT 9000 NCD 12/11 Q1018,0,4,0,9000,0,0,0,
2026-03-24 02:30:00,METAR LEZL 240230Z AUTO VRB02KT 8000 NCD 13/11 Q1018,0,2,0,8000,0,0,0,
2026-03-24 02:00:00,METAR LEZL 240200Z AUTO 09002KT 9000 NCD 13/12 Q1018,0,2,0,9000,0,0,0,
2026-03-24 01:30:00,METAR LEZL 240130Z AUTO 08003KT 9000 NCD 13/12 Q1018,0,3,0,9000,0,0,0,
2026-03-24 01:00:00,METAR LEZL 240100Z 06002KT CAVOK 13/12 Q1018 NOSIG,1,0,0,9999,0,0,0,
2026-03-24 00:30:00,METAR LEZL 240030Z VRB01KT CAVOK 14/12 Q1017 NOSIG,1,0,0,9999,0,0,0,
2026-03-24 00:00:00,METAR LEZL 240000Z VRB02KT CAVOK 15/13 Q1017 NOSIG,1,0,0,9999,0,0,0,
2026-03-23 23:30:00,METAR LEZL 232330Z 18003KT 140V210 CAVOK 15/13 Q1017 NOSIG,1,0,0,9999,0,0,0,
2026-03-23 23:00:00,METAR LEZL 232300Z 20004KT 160V250 CAVOK 16/13 Q1017 NOSIG,1,0,0,9999,0,0,0,
2026-03-23 22:30:00,METAR LEZL 232230Z 21005KT 170V250 CAVOK 17/13 Q1016 NOSIG,1,0,0,9999,0,0,0,
2026-03-23 22:00:00,METAR LEZL 232200Z 20005KT 140V250 CAVOK 18/14 Q1016 NOSIG,1,0,0,9999,0,0,0,
2026-03-23 21:30:00,METAR LEZL 232130Z 20006KT 150V240 CAVOK 18/14 Q1016 NOSIG,1,0,0,9999,0,0,0,
2026-03-23 21:00:00,METAR LEZL 232100Z 18008KT 150V210 CAVOK 18/14 Q1015 NOSIG,1,0,0,9999,0,0,0,
2026-03-23 20:30:00,METAR LEZL 232030Z 19006KT 160V230 CAVOK 18/13 Q1015 NOSIG,1,0,0,9999,0,0,0,
2026-03-23 20:00:00,METAR LEZL 232000Z 17006KT CAVOK 17/12 Q1014 NOSIG,1,0,0,9999,0,0,0,
2026-03-23 19:30:00,METAR LEZL 231930Z 13003KT CAVOK 17/11 Q1014 NOSIG,1,0,0,9999,0,0,0,
2026-03-23 19:00:00,METAR LEZL 231900Z 13003KT CAVOK 19/10 Q1013 NOSIG,1,0,0,9999,0,0,0,
2026-03-23 18:30:00,METAR LEZL 231830Z 09004KT 060V120 CAVOK 22/09 Q1013 NOSIG,1,0,0,9999,0,0,0,
2026-03-23 18:00:00,METAR LEZL 231800Z 08005KT CAVOK 23/08 Q1013 NOSIG,1,0,0,9999,0,0,0,
2026-03-23 17:30:00,METAR LEZL 231730Z 09006KT CAVOK 24/08 Q1012 NOSIG,1,0,0,9999,0,0,0,
2026-03-23 17:00:00,METAR LEZL 231700Z 09007KT 050V120 CAVOK 24/08 Q1012 NOSIG,1,0,0,9999,0,0,0,
2026-03-23 16:30:00,METAR LEZL 231630Z 06005KT 360V100 CAVOK 25/07 Q1012 NOSIG,1,0,0,9999,0,0,0,
2026-03-23 16:00:00,METAR LEZL 231600Z 10004KT 060V150 CAVOK 24/08 Q1012 NOSIG,1,0,0,9999,0,0,0,
2026-03-23 15:30:00,METAR LEZL 231530Z 10005KT 070V170 9999 FEW049 24/07 Q1012 NOSIG,0,5,0,10000,0,0,0,
2026-03-23 15:00:00,METAR LEZL 231500Z 07006KT 020V110 9999 FEW049 24/08 Q1012 NOSIG,0,6,0,10000,0,0,0,
2026-03-23 14:30:00,METAR LEZL 231430Z 07005KT 030V100 CAVOK 24/08 Q1012 NOSIG,1,0,0,9999,0,0,0,
2026-03-23 14:00:00,METAR LEZL 231400Z 05006KT 010V100 CAVOK 24/09 Q1012 NOSIG,1,0,0,9999,0,0,0,
2026-03-23 13:30:00,METAR LEZL 231330Z 03004KT 290V080 CAVOK 23/11 Q1012 NOSIG,1,0,0,9999,0,0,0,
2026-03-23 13:00:00,METAR LEZL 231300Z 06005KT 010V090 CAVOK 22/10 Q1012 NOSIG,1,0,0,9999,0,0,0,
2026-03-23 12:30:00,METAR LEZL 231230Z 06004KT 020V100 CAVOK 22/10 Q1013 NOSIG,1,0,0,9999,0,0,0,
2026-03-23 12:00:00,METAR LEZL 231200Z 04006KT 010V070 CAVOK 21/11 Q1013 NOSIG,1,0,0,9999,0,0,0,
2026-03-23 11:30:00,METAR LEZL 231130Z 05006KT 340V110 CAVOK 20/10 Q1013 NOSIG,1,0,0,9999,0,0,0,
2026-03-23 11:00:00,METAR LEZL 231100Z 07004KT 350V120 CAVOK 20/12 Q1013 NOSIG,1,0,0,9999,0,0,0,
2026-03-23 10:30:00,METAR LEZL 231030Z 04005KT 010V090 CAVOK 19/12 Q1013 NOSIG,1,0,0,9999,0,0,0,
2026-03-23 10:00:00,METAR LEZL 231000Z 05004KT 360V100 CAVOK 18/12 Q1013 NOSIG,1,0,0,9999,0,0,0,
2026-03-23 09:30:00,METAR LEZL 230930Z 04004KT 340V110 CAVOK 17/12 Q1013 NOSIG,1,0,0,9999,0,0,0,
2026-03-23 09:00:00,METAR LEZL 230900Z 03005KT 320V060 CAVOK 15/12 Q1013 NOSIG,1,0,0,9999,0,0,0,
2026-03-23 08:30:00,METAR LEZL 230830Z VRB02KT CAVOK 14/12 Q1013 NOSIG,1,0,0,9999,0,0,0,
2026-03-23 08:00:00,METAR LEZL 230800Z 04003KT 010V080 CAVOK 13/12 Q1013 NOSIG,1,0,0,9999,0,0,0,
2026-03-23 07:30:00,METAR LEZL 230730Z 04004KT 020V080 9000 NSC 12/11 Q1012 NOSIG,0,4,0,9000,0,0,0,
2026-03-23 07:00:00,METAR LEZL 230700Z 04004KT 9000 NSC 11/11 Q1012 NOSIG,0,4,0,9000,0,0,0,
2026-03-23 06:30:00,METAR LEZL 230630Z VRB01KT 7000 NSC 11/10 Q1012 NOSIG,0,1,0,7000,0,0,0,
2026-03-23 06:00:00,METAR LEZL 230600Z VRB01KT 7000 NSC 11/11 Q1012 NOSIG,0,1,0,7000,0,0,0,
2026-03-23 05:30:00,METAR LEZL 230530Z 04003KT 7000 NSC 11/10 Q1012 NOSIG,0,3,0,7000,0,0,0,
2026-03-23 05:00:00,METAR LEZL 230500Z 12002KT 7000 NSC 10/10 Q1011 NOSIG,0,2,0,7000,0,0,0,
2026-03-23 04:30:00,METAR LEZL 230430Z 09003KT CAVOK 11/10 Q1011 NOSIG,1,0,0,9999,0,0,0,
2026-03-23 04:00:00,METAR LEZL 230400Z AUTO 10002KT 9000 NCD 11/10 Q1011,0,2,0,9000,0,0,0,
2026-03-23 03:30:00,METAR LEZL 230330Z AUTO VRB02KT 9000 NCD 11/11 Q1011,0,2,0,9000,0,0,0,
2026-03-23 03:00:00,METAR LEZL 230300Z AUTO 04003KT 9000 NCD 12/11 Q1011,0,3,0,9000,0,0,0,
2026-03-23 02:30:00,METAR LEZL 230230Z AUTO 10003KT 070V140 6000 NCD 12/11 Q1011,0,3,0,6000,0,0,0,
2026-03-23 02:00:00,METAR LEZL 230200Z AUTO 10005KT 7000 NCD 12/11 Q1011,0,5,0,7000,0,0,0,
2026-03-23 01:30:00,METAR LEZL 230130Z AUTO VRB02KT 8000 NCD 12/12 Q1011,0,2,0,8000,0,0,0,
2026-03-23 01:00:00,METAR LEZL 230100Z AUTO 00000KT 9000 NCD 13/12 Q1011,0,0,0,9000,0,0,0,
2026-03-23 00:30:00,METAR LEZL 230030Z AUTO 08001KT 9000 NCD 13/12 Q1011,0,1,0,9000,0,0,0,
2026-03-23 00:00:00,METAR LEZL 230000Z VRB01KT CAVOK 14/13 Q1011 NOSIG,1,0,0,9999,0,0,0,
2026-03-22 23:30:00,METAR LEZL 222330Z 17005KT CAVOK 14/13 Q1011 NOSIG,1,0,0,9999,0,0,0,
2026-03-22 23:00:00,METAR LEZL 222300Z 10003KT 070V150 CAVOK 14/13 Q1011 NOSIG,1,0,0,9999,0,0,0,
2026-03-22 22:30:00,METAR LEZL 222230Z 10003KT CAVOK 14/12 Q1011 NOSIG,1,0,0,9999,0,0,0,
2026-03-22 22:00:00,METAR LEZL 222200Z 00000KT CAVOK 15/12 Q1011 NOSIG,1,0,0,9999,0,0,0,
2026-03-22 21:30:00,METAR LEZL 222130Z VRB01KT CAVOK 16/12 Q1011 NOSIG,1,0,0,9999,0,0,0,
2026-03-22 21:00:00,METAR LEZL 222100Z 07003KT 030V100 CAVOK 18/12 Q1011 NOSIG,1,0,0,9999,0,0,0,
2026-03-22 20:30:00,METAR LEZL 222030Z 05005KT 330V080 CAVOK 18/12 Q1011 NOSIG,1,0,0,9999,0,0,0,
2026-03-22 20:00:00,METAR LEZL 222000Z VRB01KT CAVOK 17/12 Q1010 NOSIG,1,0,0,9999,0,0,0,
2026-03-22 19:30:00,METAR LEZL 221930Z 21003KT CAVOK 18/12 Q1010 NOSIG,1,0,0,9999,0,0,0,
2026-03-22 19:00:00,METAR LEZL 221900Z 18004KT CAVOK 19/12 Q1009 NOSIG,1,0,0,9999,0,0,0,
2026-03-22 18:30:00,METAR LEZL 221830Z 19003KT 160V230 CAVOK 20/12 Q1009 NOSIG,1,0,0,9999,0,0,0,
2026-03-22 18:00:00,METAR LEZL 221800Z VRB02KT CAVOK 21/11 Q1009 NOSIG,1,0,0,9999,0,0,0,
2026-03-22 17:30:00,METAR LEZL 221730Z VRB02KT CAVOK 21/11 Q1009 NOSIG,1,0,0,9999,0,0,0,
2026-03-22 17:00:00,METAR LEZL 221700Z 11002KT CAVOK 22/12 Q1009 NOSIG,1,0,0,9999,0,0,0,
2026-03-22 16:30:00,METAR LEZL 221630Z 22003KT 160V290 CAVOK 22/10 Q1009 NOSIG,1,0,0,9999,0,0,0,
2026-03-22 16:00:00,METAR LEZL 221600Z 24003KT CAVOK 22/11 Q1009 NOSIG,1,0,0,9999,0,0,0,
2026-03-22 15:30:00,METAR LEZL 221530Z 23005KT 200V280 CAVOK 22/10 Q1009 NOSIG,1,0,0,9999,0,0,0,
2026-03-22 15:00:00,METAR LEZL 221500Z VRB02KT 9999 FEW048 22/10 Q1009 NOSIG,0,2,0,10000,0,0,0,
2026-03-22 14:30:00,METAR LEZL 221430Z 10001KT 9999 FEW048 22/12 Q1010 NOSIG,0,1,0,10000,0,0,0,
2026-03-22 14:00:00,METAR LEZL 221400Z 09002KT 9999 FEW046 21/12 Q1010 NOSIG,0,2,0,10000,0,0,0,
2026-03-22 13:30:00,METAR LEZL 221330Z VRB02KT 9999 SCT046 21/11 Q1010 NOSIG,0,2,0,10000,0,0,0,
2026-03-22 12:30:00,METAR LEZL 221230Z 07004KT 340V150 9999 FEW042 21/11 Q1011 NOSIG,0,4,0,10000,0,0,0,
2026-03-22 12:00:00,METAR LEZL 221200Z 10005KT 030V180 9999 FEW042 20/11 Q1011 NOSIG,0,5,0,10000,0,0,0,
2026-03-22 11:30:00,METAR LEZL 221130Z 08004KT 030V180 CAVOK 20/11 Q1011 NOSIG,1,0,0,9999,0,0,0,
2026-03-22 10:30:00,METAR LEZL 221030Z 08004KT 030V140 CAVOK 19/11 Q1011 NOSIG,1,0,0,9999,0,0,0,
2026-03-22 10:00:00,METAR LEZL 221000Z 08005KT 020V140 CAVOK 18/11 Q1011 NOSIG,1,0,0,9999,0,0,0,
2026-03-22 09:30:00,METAR LEZL 220930Z 09005KT 050V120 CAVOK 17/11 Q1011 NOSIG,1,0,0,9999,0,0,0,
2026-03-22 08:30:00,METAR LEZL 220830Z 04005KT CAVOK 16/12 Q1011 NOSIG,1,0,0,9999,0,0,0,
2026-03-22 08:00:00,METAR LEZL 220800Z 06004KT 030V090 CAVOK 15/12 Q1010 NOSIG,1,0,0,9999,0,0,0,
2026-03-22 07:30:00,METAR LEZL 220730Z 04005KT 010V070 CAVOK 13/12 Q1010 NOSIG,1,0,0,9999,0,0,0,
2026-03-22 07:00:00,METAR LEZL 220700Z 02005KT CAVOK 13/11 Q1010 NOSIG,1,0,0,9999,0,0,0,
2026-03-22 06:30:00,METAR LEZL 220630Z 04005KT CAVOK 13/11 Q1010 NOSIG,1,0,0,9999,0,0,0,
2026-03-22 06:00:00,METAR LEZL 220600Z 03005KT CAVOK 13/12 Q1010 NOSIG,1,0,0,9999,0,0,0,
2026-03-22 05:30:00,METAR LEZL 220530Z 01003KT CAVOK 13/12 Q1010 NOSIG,1,0,0,9999,0,0,0,
2026-03-22 05:00:00,METAR LEZL 220500Z 01003KT CAVOK 13/12 Q1010 NOSIG,1,0,0,9999,0,0,0,
2026-03-22 04:30:00,METAR LEZL 220430Z VRB02KT CAVOK 14/12 Q1010 NOSIG,1,0,0,9999,0,0,0,
2026-03-22 03:30:00,METAR LEZL 220330Z AUTO 04004KT 9000 FEW022 SCT045 14/12 Q1010,0,4,0,9000,0,0,0,
2026-03-22 03:00:00,METAR LEZL 220300Z AUTO 03004KT CAVOK 15/12 Q1010,1,0,0,9999,0,0,0,
2026-03-22 02:30:00,METAR LEZL 220230Z AUTO VRB02KT 9999 FEW043 15/13 Q1010,0,2,0,10000,0,0,0,
2026-03-22 02:00:00,METAR LEZL 220200Z AUTO 07003KT 9000 SCT042 15/13 Q1010,0,3,0,9000,0,0,0,
2026-03-22 01:30:00,METAR LEZL 220130Z AUTO VRB01KT 8000 FEW027 BKN043 OVC049 15/13 Q1010,0,1,0,8000,0,0,0,
2026-03-22 01:00:00,METAR LEZL 220100Z AUTO 09001KT 9000 FEW026 OVC042 15/14 Q1010,0,1,0,9000,0,0,0,
2026-03-22 00:30:00,METAR LEZL 220030Z AUTO VRB01KT 9000 BKN026 OVC042 16/13 Q1010,0,1,0,9000,0,0,0,
2026-03-22 00:00:00,METAR LEZL 220000Z 35003KT 310V030 9999 BKN040 OVC049 16/13 Q1010 NOSIG,0,3,0,10000,0,0,0,
2026-03-21 23:30:00,METAR LEZL 212330Z VRB02KT 9999 BKN040 16/13 Q1010 NOSIG,0,2,0,10000,0,0,0,
2026-03-21 23:00:00,METAR LEZL 212300Z VRB02KT 9000 SCT030 16/13 Q1010 NOSIG,0,2,0,9000,0,0,0,
2026-03-21 22:30:00,METAR LEZL 212230Z 23004KT 9999 SCT030 SCT045 16/13 Q1010 NOSIG,0,4,0,10000,0,0,0,
2026-03-21 21:30:00,METAR LEZL 212130Z 22006KT 9999 BKN045 17/13 Q1010 NOSIG,0,6,0,10000,0,0,0,
2026-03-21 21:00:00,METAR LEZL 212100Z 20005KT 170V240 9999 BKN045 17/13 Q1010 NOSIG,0,5,0,10000,0,0,0,
2026-03-21 20:30:00,METAR LEZL 212030Z 11005KT 9999 SCT047 16/13 Q1009 NOSIG,0,5,0,10000,0,0,0,
2026-03-21 19:30:00,METAR LEZL 211930Z 13005KT CAVOK 16/13 Q1008 NOSIG,1,0,0,9999,0,0,0,
2026-03-21 19:00:00,METAR LEZL 211900Z 13005KT CAVOK 17/13 Q1008 NOSIG,1,0,0,9999,0,0,0,
2026-03-21 18:30:00,METAR LEZL 211830Z 11007KT 070V140 CAVOK 18/13 Q1008 NOSIG,1,0,0,9999,0,0,0,
2026-03-21 18:00:00,METAR LEZL 211800Z 06004KT CAVOK 20/12 Q1007 NOSIG,1,0,0,9999,0,0,0,
2026-03-21 17:30:00,METAR LEZL 211730Z 05005KT 9999 FEW045 20/12 Q1008 NOSIG,0,5,0,10000,0,0,0,
2026-03-21 17:00:00,METAR LEZL 211700Z 08006KT 9999 FEW045 20/12 Q1008 NOSIG,0,6,0,10000,0,0,0,
2026-03-21 16:30:00,METAR LEZL 211630Z 05004KT 020V080 9999 FEW045 21/12 Q1008 NOSIG,0,4,0,10000,0,0,0,
2026-03-21 16:00:00,METAR LEZL 211600Z 05004KT 350V110 9999 SCT045 21/12 Q1008 NOSIG,0,4,0,10000,0,0,0,
2026-03-21 15:30:00,METAR LEZL 211530Z 36003KT 9999 SCT045 22/11 Q1008 NOSIG,0,3,0,10000,0,0,0,
2026-03-21 15:00:00,METAR LEZL 211500Z 05004KT 360V110 9999 SCT040 21/13 Q1008 NOSIG,0,4,0,10000,0,0,0,
2026-03-21 14:30:00,METAR LEZL 211430Z 04005KT 340V080 9999 FEW040 21/12 Q1008 NOSIG,0,5,0,10000,0,0,0,
2026-03-21 14:00:00,METAR LEZL 211400Z 02006KT 340V070 9999 FEW040 21/13 Q1008 NOSIG,0,6,0,10000,0,0,0,
2026-03-21 13:30:00,METAR LEZL 211330Z 07004KT 9999 FEW035 20/12 Q1009 NOSIG,0,4,0,10000,0,0,0,
2026-03-21 13:00:00,METAR LEZL 211300Z 04002KT 9999 FEW030 20/13 Q1009 NOSIG,0,2,0,10000,0,0,0,
2026-03-21 12:30:00,METAR LEZL 211230Z 01001KT 9999 FEW030 20/12 Q1009 NOSIG,0,1,0,10000,0,0,0,
2026-03-21 12:00:00,METAR LEZL 211200Z 03005KT 330V070 9999 FEW030 19/13 Q1010 NOSIG,0,5,0,10000,0,0,0,
2026-03-21 11:30:00,METAR LEZL 211130Z 35001KT CAVOK 18/12 Q1010 NOSIG,1,0,0,9999,0,0,0,
2026-03-21 11:00:00,METAR LEZL 211100Z 05003KT 350V130 CAVOK 18/11 Q1010 NOSIG,1,0,0,9999,0,0,0,
2026-03-21 10:30:00,METAR LEZL 211030Z 05006KT 020V090 CAVOK 16/12 Q1010 NOSIG,1,0,0,9999,0,0,0,
2026-03-21 10:00:00,METAR LEZL 211000Z 05006KT 020V140 CAVOK 16/12 Q1010 NOSIG,1,0,0,9999,0,0,0,
2026-03-21 09:30:00,METAR LEZL 210930Z 05007KT 9999 BKN049 15/12 Q1010 NOSIG,0,7,0,10000,0,0,0,
2026-03-21 09:00:00,METAR LEZL 210900Z 05006KT 010V100 9999 BKN045 15/13 Q1010 NOSIG,0,6,0,10000,0,0,0,
2026-03-21 08:30:00,METAR LEZL 210830Z 05008KT 9999 BKN045 14/12 Q1010 NOSIG,0,8,0,10000,0,0,0,
2026-03-21 08:00:00,METAR LEZL 210800Z 06007KT 9999 BKN045 14/12 Q1010 NOSIG,0,7,0,10000,0,0,0,
2026-03-21 07:30:00,METAR LEZL 210730Z 06007KT 9999 BKN045 14/12 Q1009 NOSIG,0,7,0,10000,0,0,0,
2026-03-21 07:00:00,METAR LEZL 210700Z 05005KT 9999 SCT042 13/12 Q1009 NOSIG,0,5,0,10000,0,0,0,
2026-03-21 06:30:00,METAR LEZL 210630Z 05006KT 9999 BKN042 13/12 Q1009 NOSIG,0,6,0,10000,0,0,0,
2026-03-21 06:00:00,METAR LEZL 210600Z 04006KT 9999 BKN045 13/12 Q1009 NOSIG,0,6,0,10000,0,0,0,
2026-03-21 05:30:00,METAR LEZL 210530Z 05006KT 9999 OVC045 13/12 Q1009 NOSIG,0,6,0,10000,0,0,0,
2026-03-21 05:00:00,METAR LEZL 210500Z 06005KT 020V080 9999 BKN045 13/13 Q1009 NOSIG,0,5,0,10000,0,0,0,
2026-03-21 04:30:00,METAR LEZL 210430Z 05005KT 9999 BKN045 13/13 Q1009 NOSIG,0,5,0,10000,0,0,0,
2026-03-21 04:00:00,METAR LEZL 210400Z AUTO 07004KT 040V100 9000 OVC046 13/13 Q1009,0,4,0,9000,0,0,0,
2026-03-21 03:30:00,METAR LEZL 210330Z AUTO 07005KT 9000 OVC048 13/13 Q1009,0,5,0,9000,0,0,0,
2026-03-21 03:00:00,METAR LEZL 210300Z AUTO 06005KT 9000 BKN048 13/12 Q1009,0,5,0,9000,0,0,0,
2026-03-21 02:30:00,METAR LEZL 210230Z AUTO 05006KT 8000 OVC046 13/13 Q1009,0,6,0,8000,0,0,0,
2026-03-21 02:00:00,METAR LEZL 210200Z AUTO 03005KT 9000 -RA OVC045 13/12 Q1009 RERA,0,5,0,9000,0,0,0,"-RA,RA"
2026-03-21 01:30:00,METAR LEZL 210130Z AUTO VRB01KT 6000 RA SCT047 13/12 Q1009,0,1,0,6000,0,0,0,RA
2026-03-21 01:00:00,METAR LEZL 210100Z AUTO 07005KT CAVOK 14/12 Q1009,1,0,0,9999,0,0,0,
2026-03-21 00:30:00,METAR LEZL 210030Z AUTO 05004KT CAVOK 14/12 Q1009,1,0,0,9999,0,0,0,
2026-03-21 00:00:00,METAR LEZL 210000Z 05007KT CAVOK 13/12 Q1009 NOSIG,1,0,0,9999,0,0,0,
2026-03-20 23:30:00,METAR LEZL 202330Z 04007KT CAVOK 14/12 Q1009 NOSIG,1,0,0,9999,0,0,0,
2026-03-20 23:00:00,METAR LEZL 202300Z 02005KT CAVOK 14/13 Q1009 NOSIG,1,0,0,9999,0,0,0,
2026-03-20 22:30:00,METAR LEZL 202230Z 03005KT CAVOK 14/13 Q1009 NOSIG,1,0,0,9999,0,0,0,
2026-03-20 21:30:00,METAR LEZL 202130Z 06004KT 9999 SCT049 15/13 Q1009 NOSIG,0,4,0,10000,0,0,0,
2026-03-20 21:00:00,METAR LEZL 202100Z 07005KT 9999 -RA NSC 15/13 Q1009 NOSIG,0,5,0,10000,0,0,0,-RA
2026-03-20 20:30:00,METAR LEZL 202030Z 04004KT 9999 -RA NSC 15/14 Q1009 NOSIG,0,4,0,10000,0,0,0,-RA
2026-03-20 20:00:00,METAR LEZL 202000Z VRB02KT 9999 -RA NSC 15/13 Q1008 NOSIG,0,2,0,10000,0,0,0,-RA
2026-03-20 19:30:00,METAR LEZL 201930Z 19005KT 150V220 9999 -RA FEW033 16/12 Q1008 NOSIG,0,5,0,10000,0,0,0,-RA
2026-03-20 19:00:00,METAR LEZL 201900Z 17005KT 140V220 9999 BKN028 17/12 Q1008 NOSIG,0,5,0,10000,0,0,0,
2026-03-20 18:30:00,METAR LEZL 201830Z 11009KT 080V140 9999 SCT029 SCT041 18/12 Q1007 NOSIG,0,9,0,10000,0,0,0,
2026-03-20 18:00:00,METAR LEZL 201800Z 10006KT 9999 SCT040 18/13 Q1007 NOSIG,0,6,0,10000,0,0,0,
2026-03-20 17:30:00,METAR LEZL 201730Z 09008KT 9999 BKN045 18/12 Q1007 NOSIG,0,8,0,10000,0,0,0,
2026-03-20 17:00:00,METAR LEZL 201700Z 09009KT 9999 BKN045 19/12 Q1006 NOSIG,0,9,0,10000,0,0,0,
2026-03-20 16:30:00,METAR LEZL 201630Z 08010KT 9999 BKN039 19/13 Q1006 NOSIG,0,10,0,10000,0,0,0,
2026-03-20 16:00:00,METAR LEZL 201600Z 08009KT 9999 SCT040 20/13 Q1006 NOSIG,0,9,0,10000,0,0,0,
2026-03-20 15:30:00,METAR LEZL 201530Z 08008KT 050V140 9999 BKN040 20/12 Q1006 NOSIG,0,8,0,10000,0,0,0,
2026-03-20 15:00:00,METAR LEZL 201500Z 05010KT 020V110 9999 SCT035 20/13 Q1006 NOSIG,0,10,0,10000,0,0,0,
2026-03-20 14:30:00,METAR LEZL 201430Z 07010KT 030V090 9999 SCT035 20/12 Q1006 NOSIG,0,10,0,10000,0,0,0,
2026-03-20 14:00:00,METAR LEZL 201400Z 07010KT 040V110 9999 FEW040 20/12 Q1007 NOSIG,0,10,0,10000,0,0,0,
2026-03-20 13:30:00,METAR LEZL 201330Z 09008KT 060V140 9999 SCT037 19/12 Q1007 NOSIG,0,8,0,10000,0,0,0,
2026-03-20 12:30:00,METAR LEZL 201230Z 09010KT 060V130 9999 FEW034 19/12 Q1008 NOSIG,0,10,0,10000,0,0,0,
2026-03-20 11:30:00,METAR LEZL 201130Z 13005KT 080V170 9999 FEW030 18/13 Q1009 NOSIG,0,5,0,10000,0,0,0,
2026-03-20 10:30:00,METAR LEZL 201030Z 12013KT 080V140 9999 -RA FEW030 16/13 Q1009 NOSIG,0,13,0,10000,0,0,0,-RA
2026-03-20 10:00:00,METAR LEZL 201000Z 10013KT 070V140 9999 -RA NSC 15/13 Q1009 NOSIG,0,13,0,10000,0,0,0,-RA
2026-03-20 09:30:00,METAR LEZL 200930Z 10011KT 070V130 CAVOK 15/13 Q1009 NOSIG,1,0,0,9999,0,0,0,
2026-03-20 09:00:00,METAR LEZL 200900Z 09011KT CAVOK 14/13 Q1009 NOSIG,1,0,0,9999,0,0,0,
2026-03-20 08:30:00,METAR LEZL 200830Z 09009KT 060V120 9000 -RA NSC 14/13 Q1009 NOSIG,0,9,0,9000,0,0,0,-RA
2026-03-20 08:00:00,METAR LEZL 200800Z 08009KT 9000 -RA NSC 14/13 Q1009 NOSIG,0,9,0,9000,0,0,0,-RA
2026-03-20 07:30:00,METAR LEZL 200730Z 09008KT 9000 -RA FEW049 14/13 Q1010 TEMPO RA,0,8,0,9000,0,0,0,"-RA,RA"
2026-03-20 06:30:00,METAR LEZL 200630Z 09007KT 8000 -RA FEW049 14/13 Q1009 TEMPO RA,0,7,0,8000,0,0,0,"-RA,RA"
2026-03-20 06:00:00,METAR LEZL 200600Z 09008KT CAVOK 14/13 Q1009 NOSIG,1,0,0,9999,0,0,0,
2026-03-20 05:30:00,METAR LEZL 200530Z 09006KT CAVOK 14/13 Q1009 NOSIG,1,0,0,9999,0,0,0,
2026-03-20 05:00:00,METAR LEZL 200500Z 10006KT 9000 FEW049 14/13 Q1009 NOSIG,0,6,0,9000,0,0,0,
2026-03-20 04:30:00,METAR LEZL 200430Z 10005KT 080V140 9000 FEW049 14/13 Q1009 NOSIG,0,5,0,9000,0,0,0,
2026-03-20 04:00:00,METAR LEZL 200400Z AUTO 11005KT 9999 -RA NSC 13/13 Q1009,0,5,0,10000,0,0,0,-RA
2026-03-20 03:30:00,METAR LEZL 200330Z AUTO 14003KT 120V200 9999 -RA FEW009 14/13 Q1009 RERA,0,3,0,10000,0,0,0,"-RA,RA"
2026-03-20 03:00:00,METAR LEZL 200300Z AUTO 22004KT 170V280 9000 RA BKN009 14/13 Q1010,0,4,0,9000,0,0,0,RA
2026-03-20 02:30:00,METAR LEZL 200230Z AUTO 25005KT 210V290 7000 RA SCT008 BKN047 14/13 Q1010,0,5,0,7000,0,0,0,RA
2026-03-20 02:00:00,METAR LEZL 200200Z AUTO 26005KT 3800 RA FEW010 14/13 Q1010,0,5,0,3800,0,0,0,RA
2026-03-20 01:30:00,METAR LEZL 200130Z AUTO 27007KT 240V300 7000 RA NSC 14/13 Q1010,0,7,0,7000,0,0,0,RA
2026-03-20 01:00:00,METAR LEZL 200100Z 28006KT CAVOK 15/13 Q1010 NOSIG,1,0,0,9999,0,0,0,
2026-03-20 00:30:00,METAR LEZL 200030Z 26008KT CAVOK 15/12 Q1010 NOSIG,1,0,0,9999,0,0,0,
2026-03-20 00:00:00,METAR LEZL 200000Z 26012KT CAVOK 16/12 Q1010 NOSIG,1,0,0,9999,0,0,0,
2026-03-19 23:30:00,METAR LEZL 192330Z 28016KT CAVOK 16/12 Q1009 NOSIG,1,0,0,9999,0,0,0,
2026-03-19 23:00:00,METAR LEZL 192300Z 27011KT CAVOK 17/12 Q1009 NOSIG,1,0,0,9999,0,0,0,
2026-03-19 22:30:00,METAR LEZL 192230Z 27009KT CAVOK 17/12 Q1008 NOSIG,1,0,0,9999,0,0,0,
2026-03-19 22:00:00,METAR LEZL 192200Z 28007KT CAVOK 17/12 Q1007 NOSIG,1,0,0,9999,0,0,0,
2026-03-19 21:30:00,METAR LEZL 192130Z 27007KT CAVOK 17/12 Q1007 NOSIG,1,0,0,9999,0,0,0,
2026-03-19 21:00:00,METAR LEZL 192100Z 28003KT 240V310 CAVOK 18/12 Q1007 NOSIG,1,0,0,9999,0,0,0,
2026-03-19 20:30:00,METAR LEZL 192030Z 24005KT 190V280 CAVOK 18/12 Q1007 NOSIG,1,0,0,9999,0,0,0,
2026-03-19 20:00:00,METAR LEZL 192000Z 27005KT CAVOK 18/12 Q1006 NOSIG,1,0,0,9999,0,0,0,
2026-03-19 19:30:00,METAR LEZL 191930Z 27010KT CAVOK 18/12 Q1006 NOSIG,1,0,0,9999,0,0,0,
2026-03-19 19:00:00,METAR LEZL 191900Z 25007KT CAVOK 19/12 Q1006 NOSIG,1,0,0,9999,0,0,0,
2026-03-19 18:30:00,METAR LEZL 191830Z 13007KT CAVOK 20/10 Q1005 NOSIG,1,0,0,9999,0,0,0,
2026-03-19 18:00:00,METAR LEZL 191800Z 11007KT 080V140 CAVOK 20/10 Q1005 NOSIG,1,0,0,9999,0,0,0,
2026-03-19 17:30:00,METAR LEZL 191730Z 10008KT CAVOK 21/10 Q1005 NOSIG,1,0,0,9999,0,0,0,
2026-03-19 17:00:00,METAR LEZL 191700Z 11009KT 070V150 CAVOK 22/09 Q1005 NOSIG,1,0,0,9999,0,0,0,
2026-03-19 16:30:00,METAR LEZL 191630Z 12009KT CAVOK 22/10 Q1005 NOSIG,1,0,0,9999,0,0,0,
2026-03-19 16:00:00,METAR LEZL 191600Z 11011KT 080V140 CAVOK 22/09 Q1005 NOSIG,1,0,0,9999,0,0,0,
2026-03-19 15:30:00,METAR LEZL 191530Z 13013KT CAVOK 23/09 Q1005 NOSIG,1,0,0,9999,0,0,0,
2026-03-19 15:00:00,METAR LEZL 191500Z 13014KT 090V160 CAVOK 23/10 Q1005 NOSIG,1,0,0,9999,0,0,0,
2026-03-19 14:30:00,METAR LEZL 191430Z 09001KT CAVOK 24/10 Q1005 NOSIG,1,0,0,9999,0,0,0,
2026-03-19 14:00:00,METAR LEZL 191400Z 10001KT CAVOK 24/10 Q1005 NOSIG,1,0,0,9999,0,0,0,
2026-03-19 13:30:00,METAR LEZL 191330Z 32001KT CAVOK 24/10 Q1006 NOSIG,1,0,0,9999,0,0,0,
2026-03-19 13:00:00,METAR LEZL 191300Z 14003KT 070V240 CAVOK 23/09 Q1006 NOSIG,1,0,0,9999,0,0,0,
2026-03-19 12:30:00,METAR LEZL 191230Z 34003KT 260V070 CAVOK 22/09 Q1007 NOSIG,1,0,0,9999,0,0,0,
2026-03-19 12:00:00,METAR LEZL 191200Z 29002KT CAVOK 21/09 Q1007 NOSIG,1,0,0,9999,0,0,0,
2026-03-19 11:30:00,METAR LEZL 191130Z 23002KT CAVOK 21/09 Q1008 NOSIG,1,0,0,9999,0,0,0,
2026-03-19 11:00:00,METAR LEZL 191100Z 18001KT CAVOK 21/10 Q1008 NOSIG,1,0,0,9999,0,0,0,
2026-03-19 10:30:00,METAR LEZL 191030Z 21004KT 120V270 CAVOK 20/09 Q1008 NOSIG,1,0,0,9999,0,0,0,
2026-03-19 10:00:00,METAR LEZL 191000Z 24003KT CAVOK 19/10 Q1008 NOSIG,1,0,0,9999,0,0,0,
2026-03-19 09:30:00,METAR LEZL 190930Z VRB02KT CAVOK 19/10 Q1008 NOSIG,1,0,0,9999,0,0,0,
2026-03-19 09:00:00,METAR LEZL 190900Z VRB01KT CAVOK 18/10 Q1008 NOSIG,1,0,0,9999,0,0,0,
2026-03-19 08:30:00,METAR LEZL 190830Z 02003KT 340V070 CAVOK 17/09 Q1007 NOSIG,1,0,0,9999,0,0,0,
2026-03-19 08:00:00,METAR LEZL 190800Z VRB02KT CAVOK 16/09 Q1007 NOSIG,1,0,0,9999,0,0,0,
2026-03-19 07:30:00,METAR LEZL 190730Z VRB02KT CAVOK 14/10 Q1006 NOSIG,1,0,0,9999,0,0,0,
2026-03-19 07:00:00,METAR LEZL 190700Z 02006KT CAVOK 13/10 Q1005 NOSIG,1,0,0,9999,0,0,0,
2026-03-19 06:30:00,METAR LEZL 190630Z 01007KT CAVOK 14/09 Q1005 NOSIG,1,0,0,9999,0,0,0,
2026-03-19 06:00:00,METAR LEZL 190600Z 04009KT 360V070 CAVOK 14/09 Q1005 NOSIG,1,0,0,9999,0,0,0,
2026-03-19 05:30:00,METAR LEZL 190530Z 05010KT CAVOK 14/09 Q1004 NOSIG,1,0,0,9999,0,0,0,
2026-03-19 05:00:00,METAR LEZL 190500Z 08013KT CAVOK 16/07 Q1004 NOSIG,1,0,0,9999,0,0,0,
2026-03-19 04:30:00,METAR LEZL 190430Z 06006KT 020V100 9000 NSC 15/08 Q1004 NOSIG,0,6,0,9000,0,0,0,
2026-03-19 04:00:00,METAR LEZL 190400Z AUTO 04006KT 010V090 7000 NCD 12/08 Q1004,0,6,0,7000,0,0,0,
2026-03-19 03:30:00,METAR LEZL 190330Z AUTO 06007KT 030V110 CAVOK 15/08 Q1004,1,0,0,9999,0,0,0,
2026-03-19 03:00:00,METAR LEZL 190300Z AUTO 04006KT CAVOK 13/10 Q1004,1,0,0,9999,0,0,0,
2026-03-19 02:30:00,METAR LEZL 190230Z AUTO 07007KT CAVOK 15/10 Q1004,1,0,0,9999,0,0,0,
2026-03-19 02:00:00,METAR LEZL 190200Z AUTO 08009KT 9000 NCD 15/10 Q1005,0,9,0,9000,0,0,0,
2026-03-19 01:30:00,METAR LEZL 190130Z AUTO 09005KT CAVOK 15/11 Q1005,1,0,0,9999,0,0,0,
2026-03-19 01:00:00,METAR LEZL 190100Z AUTO 05004KT 9000 NCD 13/10 Q1004,0,4,0,9000,0,0,0,
2026-03-19 00:30:00,METAR LEZL 190030Z AUTO 05005KT CAVOK 13/11 Q1005,1,0,0,9999,0,0,0,
2026-03-19 00:00:00,METAR LEZL 190000Z 05006KT CAVOK 13/11 Q1005 NOSIG,1,0,0,9999,0,0,0,
2026-03-18 23:30:00,METAR LEZL 182330Z 05006KT CAVOK 14/11 Q1006 NOSIG,1,0,0,9999,0,0,0,
2026-03-18 23:00:00,METAR LEZL 182300Z 05007KT CAVOK 15/11 Q1005 NOSIG,1,0,0,9999,0,0,0,
2026-03-18 22:30:00,METAR LEZL 182230Z 00000KT CAVOK 15/11 Q1006 NOSIG,1,0,0,9999,0,0,0,
2026-03-18 22:00:00,METAR LEZL 182200Z 07005KT CAVOK 14/11 Q1006 NOSIG,1,0,0,9999,0,0,0,
2026-03-18 21:30:00,METAR LEZL 182130Z 08003KT CAVOK 14/11 Q1006 NOSIG,1,0,0,9999,0,0,0,
2026-03-18 21:00:00,METAR LEZL 182100Z 08003KT 040V100 CAVOK 15/11 Q1006 NOSIG,1,0,0,9999,0,0,0,
2026-03-18 20:30:00,METAR LEZL 182030Z VRB01KT CAVOK 15/11 Q1006 NOSIG,1,0,0,9999,0,0,0,
2026-03-18 20:00:00,METAR LEZL 182000Z VRB02KT CAVOK 16/10 Q1005 NOSIG,1,0,0,9999,0,0,0,
2026-03-18 19:30:00,METAR LEZL 181930Z 32005KT 290V360 CAVOK 18/10 Q1005 NOSIG,1,0,0,9999,0,0,0,
2026-03-18 19:00:00,METAR LEZL 181900Z 32006KT CAVOK 18/10 Q1005 NOSIG,1,0,0,9999,0,0,0,
2026-03-18 18:30:00,METAR LEZL 181830Z 26003KT CAVOK 18/11 Q1005 NOSIG,1,0,0,9999,0,0,0,
2026-03-18 18:00:00,METAR LEZL 181800Z 25006KT CAVOK 19/11 Q1005 NOSIG,1,0,0,9999,0,0,0,
2026-03-18 17:30:00,METAR LEZL 181730Z 24005KT 190V290 9999 FEW045 21/10 Q1005 NOSIG,0,5,0,10000,0,0,0,
2026-03-18 17:00:00,METAR LEZL 181700Z 24007KT 210V270 9999 FEW045 21/11 Q1005 NOSIG,0,7,0,10000,0,0,0,
2026-03-18 16:30:00,METAR LEZL 181630Z 24008KT 190V270 9999 FEW045 21/12 Q1005 NOSIG,0,8,0,10000,0,0,0,
2026-03-18 16:00:00,METAR LEZL 181600Z 23011KT 190V260 9999 FEW045 21/11 Q1005 NOSIG,0,11,0,10000,0,0,0,
2026-03-18 15:30:00,METAR LEZL 181530Z 23013KT 210V270 9999 FEW045 22/11 Q1005 NOSIG,0,13,0,10000,0,0,0,
2026-03-18 15:00:00,METAR LEZL 181500Z 24012KT 200V270 9999 FEW045 22/12 Q1005 NOSIG,0,12,0,10000,0,0,0,
2026-03-18 14:30:00,METAR LEZL 181430Z 23012KT 200V260 9999 SCT045 21/12 Q1006 NOSIG,0,12,0,10000,0,0,0,
2026-03-18 14:00:00,METAR LEZL 181400Z 22011KT 190V260 9999 SCT045 22/11 Q1006 NOSIG,0,11,0,10000,0,0,0,
2026-03-18 13:30:00,METAR LEZL 181330Z 22012KT 200V260 9999 SCT045 21/12 Q1006 NOSIG,0,12,0,10000,0,0,0,
2026-03-18 13:00:00,METAR LEZL 181300Z 21008KT 150V250 9999 BKN045 22/12 Q1006 NOSIG,0,8,0,10000,0,0,0,
2026-03-18 12:30:00,METAR LEZL 181230Z 22009KT 160V250 9999 BKN045 20/10 Q1007 NOSIG,0,9,0,10000,0,0,0,
2026-03-18 12:00:00,METAR LEZL 181200Z 23008KT 180V260 9999 SCT045 21/10 Q1007 NOSIG,0,8,0,10000,0,0,0,
2026-03-18 11:30:00,METAR LEZL 181130Z 20008KT 150V250 CAVOK 20/08 Q1007 NOSIG,1,0,0,9999,0,0,0,
2026-03-18 11:00:00,METAR LEZL 181100Z 21007KT 120V280 CAVOK 20/08 Q1007 NOSIG,1,0,0,9999,0,0,0,
2026-03-18 10:30:00,METAR LEZL 181030Z 18004KT 140V290 CAVOK 20/08 Q1008 NOSIG,1,0,0,9999,0,0,0,
2026-03-18 10:00:00,METAR LEZL 181000Z 14005KT 080V180 CAVOK 19/06 Q1008 NOSIG,1,0,0,9999,0,0,0,
2026-03-18 09:30:00,METAR LEZL 180930Z 16005KT 110V200 9999 FEW049 18/08 Q1008 NOSIG,0,5,0,10000,0,0,0,
2026-03-18 09:00:00,METAR LEZL 180900Z 11007KT 060V140 9999 FEW049 18/07 Q1008 NOSIG,0,7,0,10000,0,0,0,
2026-03-18 08:30:00,METAR LEZL 180830Z VRB02KT CAVOK 17/08 Q1008 NOSIG,1,0,0,9999,0,0,0,
2026-03-18 08:00:00,METAR LEZL 180800Z 08004KT 010V140 CAVOK 16/10 Q1007 NOSIG,1,0,0,9999,0,0,0,
2026-03-18 07:30:00,METAR LEZL 180730Z 07003KT 050V110 CAVOK 14/12 Q1008 NOSIG,1,0,0,9999,0,0,0,
2026-03-18 07:00:00,METAR LEZL 180700Z VRB01KT CAVOK 14/11 Q1007 NOSIG,1,0,0,9999,0,0,0,
2026-03-18 06:30:00,METAR LEZL 180630Z 15004KT 090V190 CAVOK 14/11 Q1008 NOSIG,1,0,0,9999,0,0,0,
2026-03-18 06:00:00,METAR LEZL 180600Z 14004KT 060V230 CAVOK 15/11 Q1007 NOSIG,1,0,0,9999,0,0,0,
2026-03-18 05:30:00,METAR LEZL 180530Z 08009KT 9999 -RA NSC 14/12 Q1007 NOSIG,0,9,0,10000,0,0,0,-RA
2026-03-18 05:00:00,METAR LEZL 180500Z 10008KT 070V150 CAVOK 14/11 Q1006 NOSIG,1,0,0,9999,0,0,0,
2026-03-18 04:30:00,METAR LEZL 180430Z 14005KT CAVOK 14/12 Q1008 NOSIG,1,0,0,9999,0,0,0,
2026-03-18 04:00:00,METAR LEZL 180400Z AUTO 16005KT 8000 NSC 14/12 Q1008,0,5,0,8000,0,0,0,
2026-03-18 03:30:00,METAR LEZL 180330Z AUTO 17003KT 150V210 9000 NSC 14/11 Q1008,0,3,0,9000,0,0,0,
2026-03-18 03:00:00,METAR LEZL 180300Z AUTO 24001KT 9000 NSC 14/11 Q1009,0,1,0,9000,0,0,0,
2026-03-18 02:30:00,METAR LEZL 180230Z AUTO 23002KT CAVOK 15/11 Q1009,1,0,0,9999,0,0,0,
2026-03-18 02:00:00,METAR LEZL 180200Z AUTO 19004KT 140V250 CAVOK 15/11 Q1010,1,0,0,9999,0,0,0,
2026-03-18 01:30:00,METAR LEZL 180130Z AUTO 27005KT CAVOK 14/10 Q1010,1,0,0,9999,0,0,0,
2026-03-18 01:00:00,METAR LEZL 180100Z AUTO 26004KT CAVOK 15/09 Q1010,1,0,0,9999,0,0,0,
2026-03-18 00:30:00,METAR LEZL 180030Z AUTO 28004KT CAVOK 15/09 Q1010,1,0,0,9999,0,0,0,
2026-03-18 00:00:00,METAR LEZL 180000Z 29006KT CAVOK 16/09 Q1010 NOSIG,1,0,0,9999,0,0,0,
2026-03-17 23:30:00,METAR LEZL 172330Z 29009KT 260V320 CAVOK 16/09 Q1009 NOSIG,1,0,0,9999,0,0,0,
2026-03-17 23:00:00,METAR LEZL 172300Z 28013KT CAVOK 16/09 Q1009 NOSIG,1,0,0,9999,0,0,0,
2026-03-17 22:30:00,METAR LEZL 172230Z 28009KT CAVOK 17/09 Q1009 NOSIG,1,0,0,9999,0,0,0,
2026-03-17 22:00:00,METAR LEZL 172200Z 28008KT CAVOK 17/09 Q1009 NOSIG,1,0,0,9999,0,0,0,
2026-03-17 21:30:00,METAR LEZL 172130Z 26008KT CAVOK 17/08 Q1009 NOSIG,1,0,0,9999,0,0,0,
2026-03-17 21:00:00,METAR LEZL 172100Z 31007KT CAVOK 17/06 Q1009 NOSIG,1,0,0,9999,0,0,0,
2026-03-17 20:30:00,METAR LEZL 172030Z 29008KT 260V320 CAVOK 18/05 Q1009 NOSIG,1,0,0,9999,0,0,0,
2026-03-17 20:00:00,METAR LEZL 172000Z 26005KT CAVOK 19/05 Q1009 NOSIG,1,0,0,9999,0,0,0,
2026-03-17 19:30:00,METAR LEZL 171930Z 23008KT CAVOK 21/04 Q1008 NOSIG,1,0,0,9999,0,0,0,
2026-03-17 19:00:00,METAR LEZL 171900Z 23008KT CAVOK 21/03 Q1008 NOSIG,1,0,0,9999,0,0,0,
2026-03-17 18:30:00,METAR LEZL 171830Z 23006KT CAVOK 22/02 Q1008 NOSIG,1,0,0,9999,0,0,0,
2026-03-17 18:00:00,METAR LEZL 171800Z 24004KT CAVOK 23/03 Q1008 NOSIG,1,0,0,9999,0,0,0,
2026-03-17 17:30:00,METAR LEZL 171730Z 26004KT 220V300 CAVOK 25/02 Q1008 NOSIG,1,0,0,9999,0,0,0,
2026-03-17 17:00:00,METAR LEZL 171700Z 22004KT CAVOK 25/03 Q1008 NOSIG,1,0,0,9999,0,0,0,
2026-03-17 16:30:00,METAR LEZL 171630Z 24004KT 210V280 CAVOK 25/04 Q1008 NOSIG,1,0,0,9999,0,0,0,
2026-03-17 16:00:00,METAR LEZL 171600Z 28004KT 220V350 CAVOK 26/01 Q1008 NOSIG,1,0,0,9999,0,0,0,
2026-03-17 15:30:00,METAR LEZL 171530Z 28003KT 220V350 CAVOK 26/01 Q1009 NOSIG,1,0,0,9999,0,0,0,
2026-03-17 15:00:00,METAR LEZL 171500Z 26001KT CAVOK 26/03 Q1009 NOSIG,1,0,0,9999,0,0,0,
2026-03-17 14:30:00,METAR LEZL 171430Z 18002KT CAVOK 26/M00 Q1009 NOSIG,1,0,0,9999,0,0,0,
2026-03-17 14:00:00,METAR LEZL 171400Z 07004KT 030V120 CAVOK 25/03 Q1010 NOSIG,1,0,0,9999,0,0,0,
2026-03-17 13:30:00,METAR LEZL 171330Z 07004KT 020V120 CAVOK 25/02 Q1011 NOSIG,1,0,0,9999,0,0,0,
2026-03-17 13:00:00,METAR LEZL 171300Z 10003KT CAVOK 24/M01 Q1011 NOSIG,1,0,0,9999,0,0,0,
2026-03-17 12:30:00,METAR LEZL 171230Z 09001KT CAVOK 24/02 Q1012 NOSIG,1,0,0,9999,0,0,0,
2026-03-17 12:00:00,METAR LEZL 171200Z VRB02KT CAVOK 23/00 Q1012 NOSIG,1,0,0,9999,0,0,0,
2026-03-17 11:30:00,METAR LEZL 171130Z 11004KT 040V160 CAVOK 22/00 Q1013 NOSIG,1,0,0,9999,0,0,0,
2026-03-17 11:00:00,METAR LEZL 171100Z 11005KT 070V170 CAVOK 21/00 Q1013 NOSIG,1,0,0,9999,0,0,0,
2026-03-17 10:30:00,METAR LEZL 171030Z 11005KT 050V150 CAVOK 21/02 Q1014 NOSIG,1,0,0,9999,0,0,0,
2026-03-17 10:00:00,METAR LEZL 171000Z 06006KT 030V090 CAVOK 19/04 Q1014 NOSIG,1,0,0,9999,0,0,0,
2026-03-17 09:30:00,METAR LEZL 170930Z 06005KT 020V110 CAVOK 18/06 Q1014 NOSIG,1,0,0,9999,0,0,0,
2026-03-17 09:00:00,METAR LEZL 170900Z 07005KT 030V100 CAVOK 17/04 Q1014 NOSIG,1,0,0,9999,0,0,0,
2026-03-17 08:30:00,METAR LEZL 170830Z 07005KT 030V110 CAVOK 15/04 Q1014 NOSIG,1,0,0,9999,0,0,0,
2026-03-17 08:00:00,METAR LEZL 170800Z 06006KT CAVOK 13/05 Q1014 NOSIG,1,0,0,9999,0,0,0,
2026-03-17 07:30:00,METAR LEZL 170730Z 06010KT CAVOK 12/05 Q1013 NOSIG,1,0,0,9999,0,0,0,
2026-03-17 07:00:00,METAR LEZL 170700Z 05009KT CAVOK 11/05 Q1013 NOSIG,1,0,0,9999,0,0,0,
2026-03-17 06:30:00,METAR LEZL 170630Z 05008KT CAVOK 10/05 Q1013 NOSIG,1,0,0,9999,0,0,0,
2026-03-17 06:00:00,METAR LEZL 170600Z 06010KT CAVOK 12/04 Q1013 NOSIG,1,0,0,9999,0,0,0,
2026-03-17 05:30:00,METAR LEZL 170530Z 06010KT CAVOK 12/05 Q1013 NOSIG,1,0,0,9999,0,0,0,
2026-03-17 05:00:00,METAR LEZL 170500Z 06009KT CAVOK 11/05 Q1013 NOSIG,1,0,0,9999,0,0,0,
2026-03-17 04:30:00,METAR LEZL 170430Z 06009KT CAVOK 11/05 Q1013 NOSIG,1,0,0,9999,0,0,0,
2026-03-17 04:00:00,METAR LEZL 170400Z AUTO 06010KT CAVOK 11/06 Q1014,1,0,0,9999,0,0,0,
2026-03-17 03:30:00,METAR LEZL 170330Z AUTO 05010KT CAVOK 11/05 Q1014,1,0,0,9999,0,0,0,
2026-03-17 03:00:00,METAR LEZL 170300Z AUTO 06009KT CAVOK 13/05 Q1014,1,0,0,9999,0,0,0,
2026-03-17 02:30:00,METAR LEZL 170230Z AUTO 06009KT 8000 NCD 13/05 Q1015,0,9,0,8000,0,0,0,
2026-03-17 02:00:00,METAR LEZL 170200Z AUTO 06008KT CAVOK 13/05 Q1015,1,0,0,9999,0,0,0,
2026-03-17 01:30:00,METAR LEZL 170130Z AUTO 06009KT 9000 NCD 13/06 Q1015,0,9,0,9000,0,0,0,
2026-03-17 01:00:00,METAR LEZL 170100Z AUTO 04008KT CAVOK 11/06 Q1015,1,0,0,9999,0,0,0,
2026-03-17 00:30:00,METAR LEZL 170030Z AUTO 04008KT CAVOK 12/06 Q1016,1,0,0,9999,0,0,0,
2026-03-17 00:00:00,METAR LEZL 170000Z 03006KT CAVOK 11/06 Q1016 NOSIG,1,0,0,9999,0,0,0,
2026-03-16 23:30:00,METAR LEZL 162330Z 01004KT 340V040 CAVOK 11/06 Q1017 NOSIG,1,0,0,9999,0,0,0,
2026-03-16 23:00:00,METAR LEZL 162300Z 04006KT CAVOK 12/06 Q1017 NOSIG,1,0,0,9999,0,0,0,
2026-03-16 22:30:00,METAR LEZL 162230Z 05005KT CAVOK 13/06 Q1017 NOSIG,1,0,0,9999,0,0,0,
2026-03-16 22:00:00,METAR LEZL 162200Z 09006KT CAVOK 14/05 Q1018 NOSIG,1,0,0,9999,0,0,0,
2026-03-16 21:30:00,METAR LEZL 162130Z 11007KT 080V140 CAVOK 14/06 Q1018 NOSIG,1,0,0,9999,0,0,0,
2026-03-16 21:00:00,METAR LEZL 162100Z 11009KT CAVOK 15/05 Q1018 NOSIG,1,0,0,9999,0,0,0,
2026-03-16 20:30:00,METAR LEZL 162030Z 09006KT CAVOK 15/06 Q1018 NOSIG,1,0,0,9999,0,0,0,
2026-03-16 20:00:00,METAR LEZL 162000Z 09007KT CAVOK 16/07 Q1017 NOSIG,1,0,0,9999,0,0,0,
2026-03-16 19:30:00,METAR LEZL 161930Z 09007KT CAVOK 17/07 Q1017 NOSIG,1,0,0,9999,0,0,0,
2026-03-16 19:00:00,METAR LEZL 161900Z 09006KT CAVOK 18/08 Q1017 NOSIG,1,0,0,9999,0,0,0,
2026-03-16 18:30:00,METAR LEZL 161830Z 09007KT CAVOK 19/08 Q1017 NOSIG,1,0,0,9999,0,0,0,
2026-03-16 18:00:00,METAR LEZL 161800Z 09009KT CAVOK 21/09 Q1017 NOSIG,1,0,0,9999,0,0,0,
2026-03-16 17:30:00,METAR LEZL 161730Z 09010KT CAVOK 22/08 Q1017 NOSIG,1,0,0,9999,0,0,0,
2026-03-16 17:00:00,METAR LEZL 161700Z 07010KT CAVOK 23/07 Q1017 NOSIG,1,0,0,9999,0,0,0,
2026-03-16 16:30:00,METAR LEZL 161630Z 08011KT CAVOK 23/07 Q1017 NOSIG,1,0,0,9999,0,0,0,
2026-03-16 16:00:00,METAR LEZL 161600Z 07010KT 040V100 CAVOK 23/07 Q1017 NOSIG,1,0,0,9999,0,0,0,
2026-03-16 15:30:00,METAR LEZL 161530Z 06010KT 040V100 CAVOK 23/06 Q1018 NOSIG,1,0,0,9999,0,0,0,
2026-03-16 15:00:00,METAR LEZL 161500Z 06010KT 030V090 CAVOK 23/07 Q1018 NOSIG,1,0,0,9999,0,0,0,
2026-03-16 14:30:00,METAR LEZL 161430Z 07011KT 050V110 CAVOK 22/06 Q1018 NOSIG,1,0,0,9999,0,0,0,
2026-03-16 14:00:00,METAR LEZL 161400Z 07012KT 030V100 CAVOK 22/05 Q1018 NOSIG,1,0,0,9999,0,0,0,
2026-03-16 13:30:00,METAR LEZL 161330Z 06013KT 020V080 CAVOK 22/06 Q1019 NOSIG,1,0,0,9999,0,0,0,
2026-03-16 13:00:00,METAR LEZL 161300Z 06014KT 030V090 CAVOK 21/05 Q1019 NOSIG,1,0,0,9999,0,0,0,
2026-03-16 12:30:00,METAR LEZL 161230Z 05014KT CAVOK 20/04 Q1020 NOSIG,1,0,0,9999,0,0,0,
2026-03-16 12:00:00,METAR LEZL 161200Z 06016KT CAVOK 19/04 Q1020 NOSIG,1,0,0,9999,0,0,0,
2026-03-16 11:30:00,METAR LEZL 161130Z 06017KT 030V100 CAVOK 19/04 Q1020 NOSIG,1,0,0,9999,0,0,0,
2026-03-16 11:00:00,METAR LEZL 161100Z 06014KT 030V090 CAVOK 18/04 Q1021 NOSIG,1,0,0,9999,0,0,0,
2026-03-16 10:30:00,METAR LEZL 161030Z 07017KT CAVOK 17/04 Q1021 NOSIG,1,0,0,9999,0,0,0,
2026-03-16 10:00:00,METAR LEZL 161000Z 06013KT CAVOK 17/05 Q1021 NOSIG,1,0,0,9999,0,0,0,
2026-03-16 09:30:00,METAR LEZL 160930Z 06012KT CAVOK 16/06 Q1021 NOSIG,1,0,0,9999,0,0,0,
2026-03-16 09:00:00,METAR LEZL 160900Z 07011KT 030V100 CAVOK 16/06 Q1021 NOSIG,1,0,0,9999,0,0,0,
2026-03-16 08:30:00,METAR LEZL 160830Z 06009KT 040V100 CAVOK 15/06 Q1020 NOSIG,1,0,0,9999,0,0,0,
2026-03-16 08:00:00,METAR LEZL 160800Z 06010KT CAVOK 13/06 Q1020 NOSIG,1,0,0,9999,0,0,0,
2026-03-16 07:30:00,METAR LEZL 160730Z 06010KT CAVOK 13/06 Q1020 NOSIG,1,0,0,9999,0,0,0,
2026-03-16 07:00:00,METAR LEZL 160700Z 06006KT 020V090 CAVOK 11/07 Q1020 NOSIG,1,0,0,9999,0,0,0,
2026-03-16 06:30:00,METAR LEZL 160630Z 03005KT CAVOK 10/08 Q1020 NOSIG,1,0,0,9999,0,0,0,
2026-03-16 06:00:00,METAR LEZL 160600Z 03007KT CAVOK 10/08 Q1019 NOSIG,1,0,0,9999,0,0,0,
2026-03-16 05:30:00,METAR LEZL 160530Z 04006KT CAVOK 10/09 Q1019 NOSIG,1,0,0,9999,0,0,0,
2026-03-16 05:00:00,METAR LEZL 160500Z 04003KT CAVOK 10/08 Q1019 NOSIG,1,0,0,9999,0,0,0,
2026-03-16 04:30:00,METAR LEZL 160430Z VRB02KT CAVOK 10/08 Q1018 NOSIG,1,0,0,9999,0,0,0,
2026-03-16 04:00:00,METAR LEZL 160400Z AUTO VRB02KT CAVOK 11/09 Q1018,1,0,0,9999,0,0,0,
2026-03-16 03:30:00,METAR LEZL 160330Z AUTO 03003KT 360V060 CAVOK 11/09 Q1018,1,0,0,9999,0,0,0,
2026-03-16 03:00:00,METAR LEZL 160300Z AUTO 07003KT 040V120 9000 NCD 11/09 Q1018,0,3,0,9000,0,0,0,
2026-03-16 02:30:00,METAR LEZL 160230Z AUTO 03005KT CAVOK 11/09 Q1018,1,0,0,9999,0,0,0,
2026-03-16 02:00:00,METAR LEZL 160200Z AUTO 05005KT CAVOK 12/09 Q1018,1,0,0,9999,0,0,0,
2026-03-16 01:30:00,METAR LEZL 160130Z AUTO 05003KT CAVOK 12/09 Q1018,1,0,0,9999,0,0,0,
2026-03-16 01:00:00,METAR LEZL 160100Z AUTO 07004KT 030V100 CAVOK 12/10 Q1019,1,0,0,9999,0,0,0,
2026-03-16 00:30:00,METAR LEZL 160030Z AUTO 11004KT 9000 NCD 11/09 Q1019,0,4,0,9000,0,0,0,
2026-03-16 00:00:00,METAR LEZL 160000Z 07004KT CAVOK 13/09 Q1019 NOSIG,1,0,0,9999,0,0,0,
2026-03-15 23:30:00,METAR LEZL 152330Z 04004KT CAVOK 15/09 Q1018 NOSIG,1,0,0,9999,0,0,0,
2026-03-15 23:00:00,METAR LEZL 152300Z VRB02KT CAVOK 13/10 Q1018 NOSIG,1,0,0,9999,0,0,0,
2026-03-15 22:30:00,METAR LEZL 152230Z VRB01KT CAVOK 13/10 Q1018 NOSIG,1,0,0,9999,0,0,0,
2026-03-15 22:00:00,METAR LEZL 152200Z VRB01KT CAVOK 15/09 Q1018 NOSIG,1,0,0,9999,0,0,0,
2026-03-15 21:30:00,METAR LEZL 152130Z 05004KT CAVOK 16/10 Q1018 NOSIG,1,0,0,9999,0,0,0,
2026-03-15 21:00:00,METAR LEZL 152100Z 03006KT CAVOK 16/10 Q1017 NOSIG,1,0,0,9999,0,0,0,
2026-03-15 20:30:00,METAR LEZL 152030Z 02005KT CAVOK 16/11 Q1017 NOSIG,1,0,0,9999,0,0,0,
2026-03-15 20:00:00,METAR LEZL 152000Z 02005KT CAVOK 18/11 Q1017 NOSIG,1,0,0,9999,0,0,0,
2026-03-15 19:30:00,METAR LEZL 151930Z 35005KT CAVOK 19/10 Q1016 NOSIG,1,0,0,9999,0,0,0,
2026-03-15 19:00:00,METAR LEZL 151900Z 20001KT CAVOK 19/11 Q1016 NOSIG,1,0,0,9999,0,0,0,
2026-03-15 18:30:00,METAR LEZL 151830Z 14003KT CAVOK 20/11 Q1016 NOSIG,1,0,0,9999,0,0,0,
2026-03-15 18:00:00,METAR LEZL 151800Z VRB02KT CAVOK 21/11 Q1015 NOSIG,1,0,0,9999,0,0,0,
2026-03-15 17:30:00,METAR LEZL 151730Z VRB02KT CAVOK 21/11 Q1015 NOSIG,1,0,0,9999,0,0,0,
2026-03-15 17:00:00,METAR LEZL 151700Z VRB01KT CAVOK 22/10 Q1015 NOSIG,1,0,0,9999,0,0,0,
2026-03-15 16:30:00,METAR LEZL 151630Z VRB02KT CAVOK 22/10 Q1015 NOSIG,1,0,0,9999,0,0,0,
2026-03-15 16:00:00,METAR LEZL 151600Z 08003KT CAVOK 21/10 Q1015 NOSIG,1,0,0,9999,0,0,0,
2026-03-15 15:30:00,METAR LEZL 151530Z 02002KT 9999 FEW048 22/11 Q1015 NOSIG,0,2,0,10000,0,0,0,
2026-03-15 15:00:00,METAR LEZL 151500Z 08003KT 010V160 9999 FEW048 21/10 Q1015 NOSIG,0,3,0,10000,0,0,0,
2026-03-15 14:30:00,METAR LEZL 151430Z 24002KT 9999 FEW047 21/10 Q1015 NOSIG,0,2,0,10000,0,0,0,
2026-03-15 14:00:00,METAR LEZL 151400Z 02004KT 300V080 9999 SCT045 20/10 Q1015 NOSIG,0,4,0,10000,0,0,0,
2026-03-15 13:30:00,METAR LEZL 151330Z 08004KT 350V150 9999 SCT045 20/10 Q1015 NOSIG,0,4,0,10000,0,0,0,
2026-03-15 13:00:00,METAR LEZL 151300Z 07003KT 9999 BKN040 20/09 Q1016 NOSIG,0,3,0,10000,0,0,0,
2026-03-15 12:30:00,METAR LEZL 151230Z VRB03KT 9999 BKN040 20/09 Q1016 NOSIG,0,3,0,10000,0,0,0,
2026-03-15 12:00:00,METAR LEZL 151200Z 16002KT 9999 SCT035 20/09 Q1016 NOSIG,0,2,0,10000,0,0,0,
2026-03-15 11:30:00,METAR LEZL 151130Z 27003KT 9999 BKN035 19/10 Q1016 NOSIG,0,3,0,10000,0,0,0,
2026-03-15 11:00:00,METAR LEZL 151100Z VRB03KT 9999 SCT035 18/10 Q1016 NOSIG,0,3,0,10000,0,0,0,
2026-03-15 10:30:00,METAR LEZL 151030Z 35004KT 250V060 9999 SCT030 17/10 Q1016 NOSIG,0,4,0,10000,0,0,0,
2026-03-15 10:00:00,METAR LEZL 151000Z 30004KT 9999 FEW025 17/10 Q1016 NOSIG,0,4,0,10000,0,0,0,
2026-03-15 09:30:00,METAR LEZL 150930Z 35005KT 9999 FEW035 17/10 Q1016 NOSIG,0,5,0,10000,0,0,0,
2026-03-15 09:00:00,METAR LEZL 150900Z 32006KT 280V360 9999 FEW032 16/10 Q1016 NOSIG,0,6,0,10000,0,0,0,
2026-03-15 08:30:00,METAR LEZL 150830Z 30005KT 270V010 9999 SCT032 16/11 Q1015 NOSIG,0,5,0,10000,0,0,0,
2026-03-15 08:00:00,METAR LEZL 150800Z 34003KT 290V020 9999 BKN034 15/11 Q1015 NOSIG,0,3,0,10000,0,0,0,
