Time_recorded,METAR,is_cavok,wind_speed,is_gust,visibility_meters,has_thunderstorm,has_heavy_rain,has_low_vis_fog,other_phenomenon
2026-05-02 14:54:00,METAR KPNE 021454Z 33008KT 10SM FEW027 BKN080 13/05 A2993 RMK AO2 SLP133 T01280050 51003,0,8.0,0,16090,0,0,0,
2026-05-02 13:54:00,METAR KPNE 021354Z 32009KT 10SM BKN085 12/06 A2992 RMK AO2 SLP132 T01220056,0,9.0,0,16090,0,0,0,
2026-05-02 13:08:00,SPECI KPNE 021308Z 33007KT 10SM SCT023 BKN045 12/07 A2993 RMK AO2 T01220067 ,0,7.0,0,16090,0,0,0,
2026-05-02 12:54:00,METAR KPNE 021254Z 32008KT 10SM BKN023 BKN028 BKN080 12/07 A2993 RMK AO2 SLP133 T01220067,0,8.0,0,16090,0,0,0,
2026-05-02 12:20:00,SPECI KPNE 021220Z 31007KT 10SM BKN022 BKN080 12/07 A2992 RMK AO2 T01220072 ,0,7.0,0,16090,0,0,0,
2026-05-02 11:54:00,METAR KPNE 021154Z 29006KT 10SM BKN080 BKN100 12/07 A2992 RMK AO2 SLP130 T01220067 10128 20094 51010,0,6.0,0,16090,0,0,0,
2026-05-02 10:54:00,METAR KPNE 021054Z 28005KT 10SM BKN031 11/07 A2991 RMK AO2 SLP128 T01060067,0,5.0,0,16090,0,0,0,
2026-05-02 09:54:00,METAR KPNE 020954Z 29003KT 10SM FEW080 10/06 A2990 RMK AO2 SLP123 T01000061,0,3.0,0,16090,0,0,0,
2026-05-02 08:54:00,METAR KPNE 020854Z AUTO 03003KT 10SM BKN075 OVC090 11/06 A2988 RMK AO2 SLP119 T01110061 58005 TSNO,0,3.0,0,16090,1,0,0,TS
2026-05-02 07:54:00,METAR KPNE 020754Z AUTO 28005KT 10SM OVC047 12/07 A2989 RMK AO2 SLP122 T01220067 TSNO,0,5.0,0,16090,1,0,0,TS
2026-05-02 06:54:00,METAR KPNE 020654Z 22004KT 10SM BKN070 12/08 A2990 RMK AO2 SLP124 T01170078,0,4.0,0,16090,0,0,0,
2026-05-02 05:54:00,METAR KPNE 020554Z 22004KT 10SM SCT080 BKN095 12/07 A2990 RMK AO2 SLP124 T01220072 10161 20122 58001,0,4.0,0,16090,0,0,0,
2026-05-02 04:54:00,METAR KPNE 020454Z 20004KT 10SM FEW070 BKN095 BKN110 12/06 A2991 RMK AO2 SLP126 T01220056 401890067,0,4.0,0,16090,0,0,0,
2026-05-02 03:54:00,METAR KPNE 020354Z 00000KT 10SM SCT120 13/06 A2990 RMK AO2 SLP125 T01280056,0,0.0,0,16090,0,0,0,
2026-05-02 02:54:00,METAR KPNE 020254Z 10SM BKN110 13/04 A2990 RMK AO2 SLP125 T01330044 50010,0,,0,16090,0,0,0,
2026-05-02 01:54:00,METAR KPNE 020154Z VRB04KT 10SM FEW120 14/03 A2991 RMK AO2 SLP126 T01390028,0,4.0,0,16090,0,0,0,
2026-05-02 00:54:00,METAR KPNE 020054Z 20004KT 10SM CLR 15/02 A2989 RMK AO2 SLP121 T01500017,0,4.0,0,16090,0,0,0,
2026-05-01 23:54:00,METAR KPNE 012354Z VRB04KT 10SM CLR 16/02 A2987 RMK AO2 SLP115 T01610022 10189 20161 53002,0,4.0,0,16090,0,0,0,
2026-05-01 22:54:00,METAR KPNE 012254Z 23007G16KT 10SM CLR 17/02 A2986 RMK AO2 SLP110 T01720017,0,7.0,1,16090,0,0,0,
2026-05-01 21:54:00,METAR KPNE 012154Z 21011G17KT 10SM CLR 18/01 A2986 RMK AO2 SLP111 T01780011,0,11.0,1,16090,0,0,0,
2026-05-01 20:54:00,METAR KPNE 012054Z 22010G17KT 10SM CLR 18/02 A2986 RMK AO2 SLP112 T01830017 56013,0,10.0,1,16090,0,0,0,
2026-05-01 19:54:00,METAR KPNE 011954Z 20008G15KT 150V230 10SM CLR 18/01 A2987 RMK AO2 SLP113 T01780011,0,8.0,1,16090,0,0,0,
2026-05-01 18:54:00,METAR KPNE 011854Z 22005KT 10SM CLR 18/01 A2989 RMK AO2 SLP122 T01780011,0,5.0,0,16090,0,0,0,
2026-05-01 17:54:00,METAR KPNE 011754Z 34006KT 10SM CLR 17/02 A2990 RMK AO2 SLP125 T01720017 10172 20100 57020,0,6.0,0,16090,0,0,0,
2026-05-01 16:54:00,METAR KPNE 011654Z 00000KT 10SM CLR 17/03 A2992 RMK AO2 SLP131 T01670028,0,0.0,0,16090,0,0,0,
2026-05-01 15:54:00,METAR KPNE 011554Z 00000KT 10SM CLR 15/02 A2995 RMK AO2 SLP140 T01500022,0,0.0,0,16090,0,0,0,
2026-05-01 14:54:00,METAR KPNE 011454Z VRB04G16KT 10SM FEW044 14/03 A2996 RMK AO2 SLP146 T01390028 58002,0,4.0,1,16090,0,0,0,
2026-05-01 13:54:00,METAR KPNE 011354Z 34007KT 10SM FEW038 13/04 A2997 RMK AO2 SLP147 T01280039,0,7.0,0,16090,0,0,0,
2026-05-01 12:54:00,METAR KPNE 011254Z 32008KT 280V340 10SM CLR 12/04 A2997 RMK AO2 SLP147 T01170039,0,8.0,0,16090,0,0,0,
2026-05-01 11:54:00,METAR KPNE 011154Z 32007KT 10SM CLR 10/04 A2997 RMK AO2 SLP147 T01000044 10106 20067 51012,0,7.0,0,16090,0,0,0,
2026-05-01 10:54:00,METAR KPNE 011054Z 30007KT 10SM CLR 08/04 A2996 RMK AO2 SLP145 T00780039,0,7.0,0,16090,0,0,0,
2026-05-01 09:54:00,METAR KPNE 010954Z 30006KT 10SM CLR 07/03 A2995 RMK AO2 SLP140 T00720033,0,6.0,0,16090,0,0,0,
2026-05-01 08:54:00,METAR KPNE 010854Z 30007KT 10SM CLR 08/04 A2993 RMK AO2 SLP135 T00780044 53009,0,7.0,0,16090,0,0,0,
2026-05-01 07:54:00,METAR KPNE 010754Z 31006KT 10SM CLR 09/05 A2992 RMK AO2 SLP131 T00890050,0,6.0,0,16090,0,0,0,
2026-05-01 06:54:00,METAR KPNE 010654Z 31007KT 10SM CLR 09/06 A2991 RMK AO2 SLP128 T00940056,0,7.0,0,16090,0,0,0,
2026-05-01 05:54:00,METAR KPNE 010554Z 31007KT 10SM BKN060 11/05 A2990 RMK AO2 SLP126 T01060050 10139 20106 53008,0,7.0,0,16090,0,0,0,
2026-05-01 04:54:00,METAR KPNE 010454Z 32010KT 10SM BKN065 11/06 A2989 RMK AO2 SLP122 T01110056 401830094,0,10.0,0,16090,0,0,0,
2026-05-01 03:54:00,METAR KPNE 010354Z 31007KT 10SM OVC050 12/07 A2989 RMK AO2 SLP119 T01170072,0,7.0,0,16090,0,0,0,
2026-05-01 02:54:00,METAR KPNE 010254Z 30007G15KT 10SM CLR 11/07 A2988 RMK AO2 SLP118 T01110072 51022,0,7.0,1,16090,0,0,0,
2026-05-01 01:54:00,METAR KPNE 010154Z 30010G15KT 10SM BKN050 12/08 A2988 RMK AO2 SLP118 T01220078,0,10.0,1,16090,0,0,0,
2026-05-01 00:54:00,METAR KPNE 010054Z 30005KT 10SM FEW075 SCT110 12/08 A2984 RMK AO2 SLP105 T01220083,0,5.0,0,16090,0,0,0,
2026-04-30 23:54:00,METAR KPNE 302354Z 28009KT 10SM BKN060 OVC075 14/07 A2982 RMK AO2 PK WND 31026/2320 RAB23E32 SLP096 P0000 60000 T01390072 10183 20139 53020,0,9.0,0,16090,0,0,0,RA
2026-04-30 22:54:00,METAR KPNE 302254Z 33006KT 10SM SCT060 BKN100 17/07 A2978 RMK AO2 SLP083 T01670072,0,6.0,0,16090,0,0,0,
2026-04-30 21:54:00,METAR KPNE 302154Z 33006KT 10SM FEW055 FEW090 18/06 A2977 RMK AO2 SLP081 T01780061,0,6.0,0,16090,0,0,0,
2026-04-30 20:54:00,METAR KPNE 302054Z 30009KT 10SM BKN080 18/07 A2976 RMK AO2 SLP076 T01780072 55001,0,9.0,0,16090,0,0,0,
2026-04-30 19:54:00,METAR KPNE 301954Z 33010KT 10SM BKN070 18/09 A2975 RMK AO2 SLP072 T01830089,0,10.0,0,16090,0,0,0,
2026-04-30 18:54:00,METAR KPNE 301854Z 30011KT 10SM BKN070 17/08 A2976 RMK AO2 SLP075 T01670083,0,11.0,0,16090,0,0,0,
2026-04-30 17:54:00,METAR KPNE 301754Z 30011KT 10SM FEW030 SCT043 OVC055 18/09 A2976 RMK AO2 SLP077 T01780094 10178 20106 56011,0,11.0,0,16090,0,0,0,
2026-04-30 16:54:00,METAR KPNE 301654Z 31009KT 10SM FEW022 OVC033 14/09 A2977 RMK AO2 SLP080 T01440089,0,9.0,0,16090,0,0,0,
2026-04-30 16:32:00,SPECI KPNE 301632Z 33009KT 10SM SCT019 OVC032 15/09 A2977 RMK AO2 T01500094 ,0,9.0,0,16090,0,0,0,
2026-04-30 15:06:00,SPECI KPNE 301506Z 28005KT 10SM OVC016 13/10 A2979 RMK AO2 T01330100 ,0,5.0,0,16090,0,0,0,
2026-04-30 14:54:00,METAR KPNE 301454Z 29007KT 10SM OVC014 13/09 A2979 RMK AO2 SLP088 T01280094 53006,0,7.0,0,16090,0,0,0,
2026-04-30 14:30:00,SPECI KPNE 301430Z VRB03KT 10SM OVC011 12/10 A2979 RMK AO2 T01220100 ,0,3.0,0,16090,0,0,0,
2026-04-30 13:54:00,METAR KPNE 301354Z 29004KT 9SM OVC008 12/09 A2977 RMK AO2 SLP081 T01170094,0,4.0,0,14481,0,0,0,
2026-04-30 12:54:00,METAR KPNE 301254Z 30004KT 7SM OVC007 11/09 A2977 RMK AO2 SLP081 T01110094,0,4.0,0,11263,0,0,0,
2026-04-30 11:54:00,METAR KPNE 301154Z 00000KT 9SM OVC007 11/09 A2977 RMK AO2 SLP081 70034 T01060089 10106 20094 50005 $,0,0.0,0,14481,0,0,0,
2026-04-30 11:15:00,SPECI KPNE 301115Z 00000KT 10SM BKN008 OVC012 11/09 A2977 RMK AO2 T01060089 $ ,0,0.0,0,16090,0,0,0,
2026-04-30 10:54:00,METAR KPNE 301054Z 00000KT 10SM OVC013 10/08 A2977 RMK AO2 SLP082 T01000083 $,0,0.0,0,16090,0,0,0,
2026-04-30 10:38:00,SPECI KPNE 301038Z 00000KT 10SM OVC014 10/08 A2977 RMK AO2 T01000083 $ ,0,0.0,0,16090,0,0,0,
2026-04-30 10:26:00,SPECI KPNE 301026Z 00000KT 10SM FEW007 OVC015 10/08 A2977 RMK AO2 T01000083 $ ,0,0.0,0,16090,0,0,0,
2026-04-30 10:22:00,SPECI KPNE 301022Z 00000KT 10SM FEW007 OVC015 10/08 A2977 RMK AO2 T01000083 $ ,0,0.0,0,16090,0,0,0,
2026-04-30 09:54:00,METAR KPNE 300954Z 00000KT 10SM BKN007 OVC019 09/08 A2977 RMK AO2 SLP080 T00940083 $,0,0.0,0,16090,0,0,0,
2026-04-30 08:54:00,METAR KPNE 300854Z 11004KT 10SM BKN007 OVC020 09/08 A2976 RMK AO2 CIG 004V011 SLP076 T00940083 56014 $,0,4.0,0,16090,0,0,0,
2026-04-30 07:54:00,METAR KPNE 300754Z 11004KT 10SM BKN006 BKN024 OVC036 09/08 A2977 RMK AO2 SLP079 T00940083 $,0,4.0,0,16090,0,0,0,
2026-04-30 06:54:00,METAR KPNE 300654Z 10004KT 10SM SCT005 OVC026 09/08 A2978 RMK AO2 SLP084 T00940083 $,0,4.0,0,16090,0,0,0,
2026-04-30 06:43:00,SPECI KPNE 300643Z 10004KT 10SM FEW009 OVC026 09/08 A2978 RMK AO2 T00940083 $ ,0,4.0,0,16090,0,0,0,
2026-04-30 05:54:00,METAR KPNE 300554Z 12003KT 10SM OVC025 09/08 A2980 RMK AO2 RAE22 SLP089 P0004 60024 T00940083 10122 20094 58011 $,0,3.0,0,16090,0,0,0,
2026-04-30 05:18:00,SPECI KPNE 300518Z 11005KT 8SM -RA FEW013 OVC027 09/08 A2980 RMK AO2 P0004 T00940083 $ ,0,5.0,0,12872,0,0,0,-RA
2026-04-30 04:54:00,METAR KPNE 300454Z 00000KT 5SM -RA BR SCT013 SCT024 BKN032 09/08 A2982 RMK AO2 RAE03B17 SLP098 P0007 T00940083 401940094 $,0,0.0,0,8045,0,0,1,"-RA,BR,RA"
2026-04-30 04:20:00,SPECI KPNE 300420Z 00000KT 8SM -RA SCT013 OVC031 10/08 A2982 RMK AO2 RAE03B17 P0000 T01000083 $ ,0,0.0,0,12872,0,0,0,"-RA,RA"
2026-04-30 04:03:00,SPECI KPNE 300403Z VRB04KT 10SM SCT011 BKN015 OVC039 10/08 A2982 RMK AO2 RAE03 P0000 T01000083 $ ,0,4.0,0,16090,0,0,0,
2026-04-30 03:54:00,METAR KPNE 300354Z 13006KT 9SM -RA SCT011 OVC036 10/08 A2982 RMK AO2 SLP096 P0007 T01000083 $,0,6.0,0,14481,0,0,0,-RA
2026-04-30 03:33:00,SPECI KPNE 300333Z 15004KT 4SM RA BR SCT009 BKN032 OVC075 10/08 A2982 RMK AO2 P0005 T01000083 $ ,0,4.0,0,6436,0,0,1,"BR,RA"
2026-04-30 02:54:00,METAR KPNE 300254Z 00000KT 10SM -RA OVC034 10/09 A2983 RMK AO2 RAE20B43 SLP101 P0001 60006 T01000089 58006 $,0,0.0,0,16090,0,0,0,"-RA,RA"
2026-04-30 01:54:00,METAR KPNE 300154Z 15004KT 8SM -RA BKN031 OVC080 10/08 A2985 RMK AO2 SLP108 P0004 T01000083 $,0,4.0,0,12872,0,0,0,-RA
2026-04-30 00:54:00,METAR KPNE 300054Z 16003KT 5SM -RA FEW040 BKN065 OVC080 11/08 A2984 RMK AO2 RAB19 SLP106 P0001 T01110078 $,0,3.0,0,8045,0,0,0,-RA
2026-04-30 00:19:00,SPECI KPNE 300019Z 16003KT 10SM -RA BKN042 BKN075 OVC090 12/08 A2985 RMK AO2 RAB19 P0000 T01170078 $ ,0,3.0,0,16090,0,0,0,-RA
2026-04-30 00:11:00,SPECI KPNE 300011Z 16004KT 10SM 12/07 A2985 RMK AO2 T01170072 $ ,0,4.0,0,16090,0,0,0,
2026-04-29 23:54:00,METAR KPNE 292354Z 15004KT 10SM 12/08 A2985 RMK AO2 SLP106 P0009 60010 T01170083 10194 20117 $,0,4.0,0,16090,0,0,0,
2026-04-29 22:54:00,METAR KPNE 292254Z 13012KT 10SM -RA BKN075 OVC090 14/06 A2984 RMK AO2 RAB45 SLP104 P0001 T01390061,0,12.0,0,16090,0,0,0,-RA
2026-04-29 21:54:00,METAR KPNE 292154Z 14010KT 10SM FEW075 16/06 A2985 RMK AO2 SLP108 T01560061,0,10.0,0,16090,0,0,0,
2026-04-29 20:54:00,METAR KPNE 292054Z 15007KT 10SM OVC036 17/05 A2985 RMK AO2 SLP109 T01670050 56025,0,7.0,0,16090,0,0,0,
2026-04-29 19:54:00,METAR KPNE 291954Z 15007KT 130V200 10SM OVC075 17/06 A2987 RMK AO2 SLP116 T01720056,0,7.0,0,16090,0,0,0,
2026-04-29 18:54:00,METAR KPNE 291854Z 14008KT 10SM FEW043 FEW090 19/07 A2989 RMK AO2 SLP122 T01890067,0,8.0,0,16090,0,0,0,
2026-04-29 17:54:00,METAR KPNE 291754Z 20007KT 10SM BKN041 18/05 A2993 RMK AO2 SLP134 T01830050 10194 20122 58019,0,7.0,0,16090,0,0,0,
2026-04-29 16:54:00,METAR KPNE 291654Z VRB04KT 10SM BKN065 18/06 A2995 RMK AO2 SLP140 T01830056,0,4.0,0,16090,0,0,0,
2026-04-29 15:54:00,METAR KPNE 291554Z 16007KT 120V210 10SM CLR 17/04 A2997 RMK AO2 SLP149 T01720044,0,7.0,0,16090,0,0,0,
2026-04-29 14:54:00,METAR KPNE 291454Z VRB04KT 10SM SCT038 BKN070 16/04 A2999 RMK AO2 SLP153 T01610039 58008,0,4.0,0,16090,0,0,0,
2026-04-29 13:54:00,METAR KPNE 291354Z 16004KT 10SM OVC038 14/04 A3000 RMK AO2 SLP158 T01440039,0,4.0,0,16090,0,0,0,
2026-04-29 12:54:00,METAR KPNE 291254Z VRB04KT 10SM OVC036 14/04 A3000 RMK AO2 SLP158 T01390044,0,4.0,0,16090,0,0,0,
2026-04-29 11:54:00,METAR KPNE 291154Z 16003KT 10SM OVC036 12/04 A3001 RMK AO2 SLP161 T01220044 10122 20117 56004,0,3.0,0,16090,0,0,0,
2026-04-29 10:54:00,METAR KPNE 291054Z 13003KT 10SM OVC035 12/05 A3001 RMK AO2 SLP162 T01170050,0,3.0,0,16090,0,0,0,
2026-04-29 09:54:00,METAR KPNE 290954Z 13003KT 10SM OVC035 12/04 A3002 RMK AO2 SLP164 T01170044,0,3.0,0,16090,0,0,0,
2026-04-29 08:54:00,METAR KPNE 290854Z AUTO 00000KT 10SM OVC038 12/03 A3002 RMK AO2 SLP165 T01170033 56015 TSNO,0,0.0,0,16090,1,0,0,TS
2026-04-29 07:54:00,METAR KPNE 290754Z AUTO 16003KT 10SM OVC039 12/03 A3003 RMK AO2 SLP167 T01220033 TSNO,0,3.0,0,16090,1,0,0,TS
2026-04-29 06:54:00,METAR KPNE 290654Z AUTO 00000KT 10SM OVC043 12/03 A3005 RMK AO2 SLP176 T01220033 TSNO,0,0.0,0,16090,1,0,0,TS
2026-04-29 05:54:00,METAR KPNE 290554Z AUTO 14003KT 10SM OVC042 12/03 A3007 RMK AO2 SLP181 T01220033 10156 20122 58003 TSNO,0,3.0,0,16090,1,0,0,TS
2026-04-29 04:54:00,METAR KPNE 290454Z AUTO 12005KT 10SM OVC042 13/04 A3007 RMK AO2 SLP181 T01280039 401780050 TSNO,0,5.0,0,16090,1,0,0,TS
2026-04-29 03:54:00,METAR KPNE 290354Z AUTO 15004KT 10SM OVC046 13/04 A3008 RMK AO2 SLP187 T01330039 TSNO,0,4.0,0,16090,1,0,0,TS
2026-04-29 02:54:00,METAR KPNE 290254Z AUTO 14005KT 10SM OVC048 13/04 A3007 RMK AO2 SLP183 T01330044 55002 TSNO,0,5.0,0,16090,1,0,0,TS
2026-04-29 01:54:00,METAR KPNE 290154Z 14005KT 10SM OVC047 13/04 A3006 RMK AO2 SLP178 T01330044,0,5.0,0,16090,0,0,0,
2026-04-29 00:54:00,METAR KPNE 290054Z 14006KT 10SM OVC050 14/05 A3009 RMK AO2 SLP187 T01440050,0,6.0,0,16090,0,0,0,
2026-04-28 23:54:00,METAR KPNE 282354Z AUTO 00000KT 10SM OVC060 16/05 A3008 RMK AO2 SLP185 T01560050 10178 20156 58001 TSNO,0,0.0,0,16090,1,0,0,TS
2026-04-28 22:54:00,METAR KPNE 282254Z AUTO 00000KT 10SM OVC060 16/05 A3008 RMK AO2 SLP186 T01610050 TSNO,0,0.0,0,16090,1,0,0,TS
2026-04-28 21:54:00,METAR KPNE 282154Z 22003KT 10SM OVC060 17/04 A3009 RMK AO2 SLP187 T01670039,0,3.0,0,16090,0,0,0,
2026-04-28 20:54:00,METAR KPNE 282054Z 00000KT 10SM OVC060 17/03 A3008 RMK AO2 SLP186 T01670033 56022,0,0.0,0,16090,0,0,0,
2026-04-28 19:54:00,METAR KPNE 281954Z 23005KT 10SM OVC055 17/02 A3010 RMK AO2 SLP192 T01670022,0,5.0,0,16090,0,0,0,
2026-04-28 18:54:00,METAR KPNE 281854Z 21006KT 10SM BKN075 BKN120 17/02 A3012 RMK AO2 SLP200 T01720022,0,6.0,0,16090,0,0,0,
2026-04-28 17:54:00,METAR KPNE 281754Z 22005KT 10SM CLR 18/03 A3015 RMK AO2 SLP209 T01780028 10178 20111 56016,0,5.0,0,16090,0,0,0,
2026-04-28 16:54:00,METAR KPNE 281654Z 21007KT 10SM CLR 17/02 A3016 RMK AO2 SLP213 T01670022,0,7.0,0,16090,0,0,0,
2026-04-28 15:54:00,METAR KPNE 281554Z 22006KT 10SM CLR 16/03 A3018 RMK AO2 SLP219 T01610028,0,6.0,0,16090,0,0,0,
2026-04-28 14:54:00,METAR KPNE 281454Z 21009KT 10SM CLR 16/02 A3020 RMK AO2 SLP225 T01560022 55002,0,9.0,0,16090,0,0,0,
2026-04-28 13:54:00,METAR KPNE 281354Z 22009KT 10SM CLR 16/02 A3019 RMK AO2 SLP223 T01610017,0,9.0,0,16090,0,0,0,
2026-04-28 12:54:00,METAR KPNE 281254Z 25006KT 10SM CLR 14/03 A3020 RMK AO2 SLP225 T01390028,0,6.0,0,16090,0,0,0,
2026-04-28 11:54:00,METAR KPNE 281154Z 26006KT 10SM CLR 11/05 A3020 RMK AO2 SLP226 T01110050 10111 20050 55003,0,6.0,0,16090,0,0,0,
2026-04-28 10:54:00,METAR KPNE 281054Z 00000KT 10SM CLR 07/03 A3020 RMK AO2 SLP225 T00670028,0,0.0,0,16090,0,0,0,
2026-04-28 09:54:00,METAR KPNE 280954Z 00000KT 10SM CLR 06/02 A3020 RMK AO2 SLP225 T00560017,0,0.0,0,16090,0,0,0,
2026-04-28 08:54:00,METAR KPNE 280854Z AUTO 00000KT 10SM CLR 07/03 A3021 RMK AO2 SLP230 T00670028 56009 TSNO,0,0.0,0,16090,1,0,0,TS
2026-04-28 07:54:00,METAR KPNE 280754Z AUTO 27003KT 10SM CLR 07/03 A3021 RMK AO2 SLP231 T00670033 TSNO,0,3.0,0,16090,1,0,0,TS
2026-04-28 06:54:00,METAR KPNE 280654Z AUTO 00000KT 10SM CLR 07/03 A3021 RMK AO2 SLP230 T00720028 TSNO,0,0.0,0,16090,1,0,0,TS
2026-04-28 05:54:00,METAR KPNE 280554Z AUTO 22003KT 10SM CLR 08/03 A3024 RMK AO2 SLP239 T00830033 10167 20078 58013 TSNO,0,3.0,0,16090,1,0,0,TS
2026-04-28 04:54:00,METAR KPNE 280454Z AUTO 00000KT 10SM CLR 08/03 A3026 RMK AO2 SLP245 T00830028 402220044 TSNO,0,0.0,0,16090,1,0,0,TS
2026-04-28 03:54:00,METAR KPNE 280354Z AUTO 00000KT 10SM CLR 11/03 A3027 RMK AO2 SLP248 T01060028 TSNO,0,0.0,0,16090,1,0,0,TS
2026-04-28 02:54:00,METAR KPNE 280254Z AUTO 17003KT 10SM CLR 12/03 A3028 RMK AO2 SLP252 T01220028 50011 TSNO,0,3.0,0,16090,1,0,0,TS
2026-04-28 01:54:00,METAR KPNE 280154Z VRB04KT 10SM CLR 13/03 A3029 RMK AO2 SLP255 T01330033,0,4.0,0,16090,0,0,0,
2026-04-28 00:54:00,METAR KPNE 280054Z 15005KT 10SM CLR 15/03 A3027 RMK AO2 SLP249 T01500033,0,5.0,0,16090,0,0,0,
2026-04-27 23:54:00,METAR KPNE 272354Z AUTO 14008KT 10SM CLR 17/04 A3025 RMK AO2 SLP242 T01670039 10222 20167 53007 TSNO,0,8.0,0,16090,1,0,0,TS
2026-04-27 22:54:00,METAR KPNE 272254Z AUTO 14010KT 10SM CLR 19/04 A3022 RMK AO2 SLP231 T01940039 TSNO,0,10.0,0,16090,1,0,0,TS
2026-04-27 21:54:00,METAR KPNE 272154Z AUTO 10006KT 10SM CLR 21/04 A3022 RMK AO2 SLP232 T02110039 TSNO,0,6.0,0,16090,1,0,0,TS
2026-04-27 20:54:00,METAR KPNE 272054Z AUTO 07008KT 10SM CLR 21/04 A3023 RMK AO2 SLP235 T02110044 55006 TSNO,0,8.0,0,16090,1,0,0,TS
2026-04-27 19:54:00,METAR KPNE 271954Z AUTO 07006KT 10SM CLR 21/04 A3022 RMK AO2 SLP233 T02110044 TSNO,0,6.0,0,16090,1,0,0,TS
2026-04-27 18:54:00,METAR KPNE 271854Z 10011KT 050V130 10SM CLR 21/06 A3022 RMK AO2 SLP232 T02060056,0,11.0,0,16090,0,0,0,
2026-04-27 17:54:00,METAR KPNE 271754Z 07009KT 10SM CLR 20/06 A3024 RMK AO2 SLP241 T02000056 10206 20106 56008,0,9.0,0,16090,0,0,0,
2026-04-27 16:54:00,METAR KPNE 271654Z 10004KT 10SM CLR 19/06 A3025 RMK AO2 SLP243 T01940061,0,4.0,0,16090,0,0,0,
2026-04-27 15:54:00,METAR KPNE 271554Z VRB03KT 10SM CLR 18/06 A3026 RMK AO2 SLP246 T01830056,0,3.0,0,16090,0,0,0,
2026-04-27 14:54:00,METAR KPNE 271454Z 00000KT 10SM CLR 17/07 A3027 RMK AO2 SLP249 T01670067 51010,0,0.0,0,16090,0,0,0,
2026-04-27 13:54:00,METAR KPNE 271354Z VRB03KT 10SM CLR 16/07 A3027 RMK AO2 SLP248 T01610072,0,3.0,0,16090,0,0,0,
2026-04-27 12:54:00,METAR KPNE 271254Z VRB04KT 10SM CLR 13/06 A3025 RMK AO2 SLP243 T01330061,0,4.0,0,16090,0,0,0,
2026-04-27 11:54:00,METAR KPNE 271154Z 31004KT 10SM CLR 11/06 A3024 RMK AO2 SLP239 T01060061 10106 20044 53007,0,4.0,0,16090,0,0,0,
2026-04-27 10:54:00,METAR KPNE 271054Z 34004KT 10SM CLR 07/05 A3023 RMK AO2 SLP235 T00720050,0,4.0,0,16090,0,0,0,
2026-04-27 09:54:00,METAR KPNE 270954Z 33004KT 10SM CLR 07/04 A3021 RMK AO2 SLP231 T00670039,0,4.0,0,16090,0,0,0,
2026-04-27 08:54:00,METAR KPNE 270854Z AUTO 31003KT 10SM CLR 07/04 A3022 RMK AO2 SLP232 T00670039 53002 TSNO,0,3.0,0,16090,1,0,0,TS
2026-04-27 07:54:00,METAR KPNE 270754Z AUTO 31003KT 10SM CLR 07/04 A3022 RMK AO2 SLP231 T00670039 TSNO,0,3.0,0,16090,1,0,0,TS
2026-04-27 06:54:00,METAR KPNE 270654Z 31004KT 10SM CLR 06/04 A3020 RMK AO2 SLP227 T00610039,0,4.0,0,16090,0,0,0,
2026-04-27 05:54:00,METAR KPNE 270554Z 32004KT 10SM CLR 05/03 A3021 RMK AO2 SLP231 T00500028 10122 20044 58002,0,4.0,0,16090,0,0,0,
2026-04-27 04:54:00,METAR KPNE 270454Z 00000KT 10SM CLR 06/04 A3022 RMK AO2 SLP234 T00560039 401560044,0,0.0,0,16090,0,0,0,
2026-04-27 03:54:00,METAR KPNE 270354Z 00000KT 10SM CLR 06/04 A3022 RMK AO2 SLP234 T00610039,0,0.0,0,16090,0,0,0,
2026-04-27 02:54:00,METAR KPNE 270254Z 00000KT 10SM CLR 08/04 A3022 RMK AO2 SLP233 T00780044 51019,0,0.0,0,16090,0,0,0,
2026-04-27 01:54:00,METAR KPNE 270154Z 13004KT 10SM CLR 09/05 A3021 RMK AO2 SLP232 T00940050,0,4.0,0,16090,0,0,0,
2026-04-27 00:54:00,METAR KPNE 270054Z 12007KT 10SM CLR 11/06 A3020 RMK AO2 SLP226 T01060056,0,7.0,0,16090,0,0,0,
2026-04-26 23:54:00,METAR KPNE 262354Z 11008KT 10SM CLR 13/04 A3016 RMK AO2 SLP212 T01280044 10156 20122 53016,0,8.0,0,16090,0,0,0,
2026-04-26 22:54:00,METAR KPNE 262254Z 09008KT 10SM CLR 14/04 A3014 RMK AO2 SLP206 T01390044,0,8.0,0,16090,0,0,0,
2026-04-26 21:54:00,METAR KPNE 262154Z VRB06KT 10SM FEW042 16/05 A3013 RMK AO2 SLP201 T01560050,0,6.0,0,16090,0,0,0,
2026-04-26 20:54:00,METAR KPNE 262054Z 02006KT 10SM BKN040 15/05 A3011 RMK AO2 SLP196 T01500050 56004,0,6.0,0,16090,0,0,0,
2026-04-26 19:54:00,METAR KPNE 261954Z VRB06KT 10SM SCT038 16/06 A3011 RMK AO2 SLP196 T01560061,0,6.0,0,16090,0,0,0,
2026-04-26 18:54:00,METAR KPNE 261854Z 06011KT 10SM OVC035 14/06 A3012 RMK AO2 SLP200 T01390056,0,11.0,0,16090,0,0,0,
2026-04-26 18:39:00,SPECI KPNE 261839Z 05008KT 10SM OVC033 13/05 A3012 RMK AO2 T01330050 ,0,8.0,0,16090,0,0,0,
2026-04-26 18:11:00,SPECI KPNE 261811Z 06008KT 10SM OVC031 13/05 A3013 RMK AO2 T01280050 ,0,8.0,0,16090,0,0,0,
2026-04-26 17:54:00,METAR KPNE 261754Z 06009G18KT 10SM OVC029 12/05 A3013 RMK AO2 SLP202 T01220050 10122 20072 50002,0,9.0,1,16090,0,0,0,
2026-04-26 16:54:00,METAR KPNE 261654Z 04010KT 10SM OVC020 11/06 A3013 RMK AO2 SLP204 T01060056,0,10.0,0,16090,0,0,0,
2026-04-26 15:54:00,METAR KPNE 261554Z 03013KT 10SM OVC017 09/05 A3013 RMK AO2 SLP205 T00890050,0,13.0,0,16090,0,0,0,
2026-04-26 15:16:00,SPECI KPNE 261516Z 04011KT 10SM BKN016 OVC022 09/06 A3013 RMK AO2 T00890056 ,0,11.0,0,16090,0,0,0,
2026-04-26 14:54:00,METAR KPNE 261454Z 02012KT 10SM BKN014 OVC021 08/06 A3012 RMK AO2 SLP200 T00830056 51013,0,12.0,0,16090,0,0,0,
2026-04-26 14:37:00,SPECI KPNE 261437Z 02013KT 5SM BR BKN013 OVC019 08/06 A3012 RMK AO2 T00780056 ,0,13.0,0,8045,0,0,1,BR
2026-04-26 14:10:00,SPECI KPNE 261410Z 04009KT 8SM FEW007 OVC017 08/06 A3011 RMK AO2 T00780056 ,0,9.0,0,12872,0,0,0,
2026-04-26 14:06:00,SPECI KPNE 261406Z 03010KT 5SM BR BKN010 OVC017 07/06 A3011 RMK AO2 T00720061 ,0,10.0,0,8045,0,0,1,BR
2026-04-26 13:54:00,METAR KPNE 261354Z 04011KT 2 1/2SM BR BKN010 OVC015 07/06 A3011 RMK AO2 CIG 007V011 SLP197 T00720056,0,11.0,0,4022,0,0,1,BR
2026-04-26 12:54:00,METAR KPNE 261254Z 02011KT 10SM OVC013 07/06 A3010 RMK AO2 SLP192 T00720056,0,11.0,0,16090,0,0,0,
2026-04-26 12:42:00,SPECI KPNE 261242Z 03009KT 10SM BKN014 OVC020 07/05 A3010 RMK AO2 T00720050 ,0,9.0,0,16090,0,0,0,
2026-04-26 12:24:00,SPECI KPNE 261224Z 04011KT 10SM BKN016 BKN023 OVC030 08/05 A3009 RMK AO2 T00780050 ,0,11.0,0,16090,0,0,0,
2026-04-26 11:54:00,METAR KPNE 261154Z 04011KT 10SM BKN016 OVC023 07/05 A3008 RMK AO2 SLP187 70054 T00720050 10072 20061 53020,0,11.0,0,16090,0,0,0,
2026-04-26 11:24:00,SPECI KPNE 261124Z 05012KT 10SM BKN015 BKN021 OVC032 07/05 A3007 RMK AO2 T00670050 ,0,12.0,0,16090,0,0,0,
2026-04-26 11:01:00,SPECI KPNE 261101Z 04011KT 10SM BKN010 OVC016 07/05 A3006 RMK AO2 CIG 006V013 T00670050 ,0,11.0,0,16090,0,0,0,
2026-04-26 10:54:00,METAR KPNE 261054Z 04011KT 10SM BKN008 OVC012 07/05 A3006 RMK AO2 CIG 006V011 SLP178 T00670050,0,11.0,0,16090,0,0,0,
2026-04-26 10:30:00,SPECI KPNE 261030Z 05007KT 6SM BR OVC008 07/06 A3005 RMK AO2 CIG 006V012 T00670056 ,0,7.0,0,9654,0,0,1,BR
2026-04-26 09:54:00,METAR KPNE 260954Z AUTO 05010KT 10SM OVC011 07/05 A3004 RMK AO2 SLP172 T00670050 TSNO,0,10.0,0,16090,1,0,0,TS
2026-04-26 08:54:00,METAR KPNE 260854Z AUTO 05009KT 10SM OVC009 07/06 A3002 RMK AO2 CIG 006V013 SLP167 T00670056 53002 TSNO,0,9.0,0,16090,1,0,0,TS
2026-04-26 07:54:00,METAR KPNE 260754Z AUTO 05010KT 6SM BR BKN008 OVC013 07/06 A3001 RMK AO2 CIG 006V009 SLP164 T00670056 TSNO,0,10.0,0,9654,1,0,1,"BR,TS"
2026-04-26 07:51:00,SPECI KPNE 260751Z AUTO 04009KT 6SM BR BKN008 OVC013 07/06 A3001 RMK AO2 CIG 006V011 TSNO ,0,9.0,0,9654,1,0,1,"BR,TS"
2026-04-26 06:54:00,METAR KPNE 260654Z AUTO 05010KT 9SM OVC012 07/05 A3002 RMK AO2 SLP165 T00670050 TSNO,0,10.0,0,14481,1,0,0,TS
2026-04-26 06:23:00,SPECI KPNE 260623Z AUTO 05012KT 9SM BKN011 OVC015 07/05 A3002 RMK AO2 CIG 007V013 T00670050 TSNO ,0,12.0,0,14481,1,0,0,TS
2026-04-26 05:54:00,METAR KPNE 260554Z AUTO 05013G19KT 6SM BR OVC009 07/05 A3002 RMK AO2 RAE48 SLP167 P0003 60029 T00670050 10072 20061 58005 TSNO,0,13.0,1,9654,1,0,1,"BR,TS"
2026-04-26 05:26:00,SPECI KPNE 260526Z AUTO 05010KT 4SM -RA BR BKN007 BKN018 OVC041 07/06 A3002 RMK AO2 P0002 T00670056 TSNO ,0,10.0,0,6436,1,0,1,"-RA,BR,TS"
2026-04-26 05:19:00,SPECI KPNE 260519Z AUTO 05010KT 4SM -RA BR SCT008 BKN012 OVC018 07/06 A3002 RMK AO2 P0002 T00670056 TSNO ,0,10.0,0,6436,1,0,1,"-RA,BR,TS"
2026-04-26 04:54:00,METAR KPNE 260454Z AUTO 05011KT 4SM -RA BR SCT008 BKN023 OVC029 06/06 A3003 RMK AO2 SLP170 P0002 T00610056 401110061 TSNO,0,11.0,0,6436,1,0,1,"-RA,BR,TS"
2026-04-26 04:23:00,SPECI KPNE 260423Z AUTO 04009KT 5SM -RA BR BKN008 BKN012 OVC017 06/06 A3003 RMK AO2 P0001 T00610056 TSNO ,0,9.0,0,8045,1,0,1,"-RA,BR,TS"
2026-04-26 04:10:00,SPECI KPNE 260410Z AUTO 05011KT 4SM -RA BR SCT008 OVC014 07/06 A3003 RMK AO2 P0001 T00670056 TSNO ,0,11.0,0,6436,1,0,1,"-RA,BR,TS"
2026-04-26 03:54:00,METAR KPNE 260354Z AUTO 06010KT 4SM -RA BR BKN006 BKN012 OVC020 07/06 A3003 RMK AO2 SLP169 P0004 T00670056 TSNO,0,10.0,0,6436,1,0,1,"-RA,BR,TS"
2026-04-26 03:02:00,SPECI KPNE 260302Z AUTO 05010KT 8SM -RA BKN009 OVC013 07/06 A3004 RMK AO2 P0000 T00670056 TSNO ,0,10.0,0,12872,1,0,0,"-RA,TS"
2026-04-26 02:54:00,METAR KPNE 260254Z 05008KT 8SM -RA SCT007 BKN011 OVC029 07/06 A3004 RMK AO2 SLP172 P0003 60020 T00670056 50014,0,8.0,0,12872,0,0,0,-RA
2026-04-26 02:40:00,SPECI KPNE 260240Z 06009KT 7SM -RA FEW007 BKN010 OVC029 07/06 A3003 RMK AO2 P0002 T00670056 ,0,9.0,0,11263,0,0,0,-RA
2026-04-26 02:34:00,SPECI KPNE 260234Z 06009KT 9SM -RA SCT010 BKN018 OVC027 07/06 A3003 RMK AO2 P0002 T00670056 ,0,9.0,0,14481,0,0,0,-RA
2026-04-26 01:54:00,METAR KPNE 260154Z 05010KT 5SM -RA BR BKN007 OVC012 07/06 A3004 RMK AO2 SLP172 P0007 T00670056,0,10.0,0,8045,0,0,1,"-RA,BR"
2026-04-26 01:07:00,SPECI KPNE 260107Z 05008KT 6SM -RA BR BKN007 OVC016 07/06 A3002 RMK AO2 P0002 T00670061 ,0,8.0,0,9654,0,0,1,"-RA,BR"
2026-04-26 00:54:00,METAR KPNE 260054Z 06006KT 4SM RA BR SCT007 OVC014 07/06 A3003 RMK AO2 SLP168 P0010 T00670061,0,6.0,0,6436,0,0,1,"BR,RA"
2026-04-26 00:46:00,SPECI KPNE 260046Z 05006KT 5SM -RA BR SCT009 OVC016 07/06 A3002 RMK AO2 P0008 T00720056 ,0,6.0,0,8045,0,0,1,"-RA,BR"
2026-04-26 00:36:00,SPECI KPNE 260036Z 06008KT 4SM -RA BR SCT007 OVC014 07/06 A3002 RMK AO2 P0006 T00720056 ,0,8.0,0,6436,0,0,1,"-RA,BR"
2026-04-26 00:26:00,SPECI KPNE 260026Z 07010KT 3SM RA BR BKN008 OVC013 07/06 A3001 RMK AO2 P0002 T00720056 ,0,10.0,0,4827,0,0,1,"BR,RA"
2026-04-25 23:54:00,METAR KPNE 252354Z 08010KT 7SM -RA BKN010 OVC016 07/06 A2999 RMK AO2 CIG 007V012 SLP157 P0003 60021 T00720056 10100 20072 53002,0,10.0,0,11263,0,0,0,-RA
2026-04-25 22:54:00,METAR KPNE 252254Z 11011KT 5SM -RA BR SCT007 BKN012 OVC033 07/06 A2998 RMK AO2 SLP152 P0004 T00720061,0,11.0,0,8045,0,0,1,"-RA,BR"
2026-04-25 22:01:00,SPECI KPNE 252201Z 09011KT 5SM -RA BR FEW009 BKN013 OVC030 08/06 A2998 RMK AO2 P0000 T00780061 ,0,11.0,0,8045,0,0,1,"-RA,BR"
2026-04-25 21:54:00,METAR KPNE 252154Z 08009KT 6SM -RA BR SCT010 BKN015 OVC030 08/06 A2999 RMK AO2 SLP155 P0007 T00780061,0,9.0,0,9654,0,0,1,"-RA,BR"
2026-04-25 21:51:00,SPECI KPNE 252151Z 09010KT 6SM -RA BR FEW008 BKN013 OVC030 08/06 A2999 RMK AO2 P0006 ,0,10.0,0,9654,0,0,1,"-RA,BR"
2026-04-25 21:24:00,SPECI KPNE 252124Z 10007KT 5SM -RA BR OVC012 08/06 A2999 RMK AO2 P0005 T00780061 ,0,7.0,0,8045,0,0,1,"-RA,BR"
2026-04-25 21:17:00,SPECI KPNE 252117Z 09010KT 4SM -RA BR SCT010 OVC016 08/06 A2999 RMK AO2 P0004 T00780061 ,0,10.0,0,6436,0,0,1,"-RA,BR"
2026-04-25 21:10:00,SPECI KPNE 252110Z 09011G16KT 2SM RA BR BKN011 OVC018 08/06 A2998 RMK AO2 P0003 T00780061 ,0,11.0,1,3218,0,0,1,"BR,RA"
2026-04-25 20:54:00,METAR KPNE 252054Z 11012KT 10SM -RA OVC013 08/06 A2999 RMK AO2 SLP155 P0002 60007 T00780061 58006,0,12.0,0,16090,0,0,0,-RA
2026-04-25 20:37:00,SPECI KPNE 252037Z 09012KT 5SM -RA BR OVC013 08/06 A2998 RMK AO2 P0002 T00830061 ,0,12.0,0,8045,0,0,1,"-RA,BR"
2026-04-25 20:17:00,SPECI KPNE 252017Z 09013G18KT 8SM -RA BKN016 BKN027 OVC036 08/06 A2998 RMK AO2 P0002 T00830061 ,0,13.0,1,12872,0,0,0,-RA
2026-04-25 19:54:00,METAR KPNE 251954Z 09016G22KT 5SM -RA FEW017 FEW022 OVC036 08/06 A2998 RMK AO2 RAB21 SLP152 P0005 T00830056,0,16.0,1,8045,0,0,0,-RA
2026-04-25 19:41:00,SPECI KPNE 251941Z 10013G21KT 5SM -RA BR SCT024 OVC038 08/06 A2998 RMK AO2 RAB21 P0004 T00830061 ,0,13.0,1,8045,0,0,1,"-RA,BR"
2026-04-25 19:26:00,SPECI KPNE 251926Z 09017G20KT 6SM -RA BKN024 OVC038 08/05 A2999 RMK AO2 RAB21 PRESFR P0001 T00830050 ,0,17.0,1,9654,0,0,0,-RA
2026-04-25 19:05:00,SPECI KPNE 251905Z 12012KT 8SM SCT026 OVC038 09/04 A3002 RMK AO2 T00940044 ,0,12.0,0,12872,0,0,0,
2026-04-25 18:54:00,METAR KPNE 251854Z 10012KT 10SM BKN026 OVC036 09/04 A3002 RMK AO2 SLP164 T00940039,0,12.0,0,16090,0,0,0,
2026-04-25 18:34:00,SPECI KPNE 251834Z 10009KT 10SM BKN027 OVC043 10/04 A3003 RMK AO2 T01000044 ,0,9.0,0,16090,0,0,0,
2026-04-25 17:54:00,METAR KPNE 251754Z 12015KT 10SM FEW025 OVC042 10/04 A3001 RMK AO2 SLP160 60004 T01000039 10111 20100 58005,0,15.0,0,16090,0,0,0,
2026-04-25 16:54:00,METAR KPNE 251654Z 11014G23KT 10SM OVC046 10/04 A3001 RMK AO2 PK WND 10026/1639 SLP162 T01000039,0,14.0,1,16090,0,0,0,
2026-04-25 15:54:00,METAR KPNE 251554Z 11013G23KT 10SM OVC045 10/05 A3002 RMK AO2 SLP166 T01000050,0,13.0,1,16090,0,0,0,
2026-04-25 14:54:00,METAR KPNE 251454Z 11014G21KT 10SM OVC047 10/06 A3002 RMK AO2 RAE07 SLP165 P0000 60004 T01000056 53011,0,14.0,1,16090,0,0,0,
2026-04-25 13:54:00,METAR KPNE 251354Z 11011KT 10SM -RA SCT055 OVC085 10/06 A3000 RMK AO2 RAB02E32B54 SLP159 P0004 T01000056,0,11.0,0,16090,0,0,0,"-RA,RA"
2026-04-25 12:54:00,METAR KPNE 251254Z 11011G19KT 10SM BKN048 OVC060 11/05 A3000 RMK AO2 SLP158 T01060050,0,11.0,1,16090,0,0,0,
2026-04-25 11:54:00,METAR KPNE 251154Z 11015G18KT 10SM FEW020 SCT070 SCT085 11/06 A2999 RMK AO2 SLP154 60000 T01060061 10111 20094 53017,0,15.0,1,16090,0,0,0,
2026-04-25 10:54:00,METAR KPNE 251054Z 10010KT 10SM OVC060 10/06 A2997 RMK AO2 SLP149 T01000061,0,10.0,0,16090,0,0,0,
2026-04-25 09:54:00,METAR KPNE 250954Z 10011KT 10SM CLR 09/07 A2995 RMK AO2 SLP141 T00940067,0,11.0,0,16090,0,0,0,
2026-04-25 08:54:00,METAR KPNE 250854Z AUTO 09008KT 10SM SCT100 BKN110 10/07 A2994 RMK AO2 RAB0758E16 SLP137 P0000 60000 T01000067 53001 TSNO,0,8.0,0,16090,1,0,0,"RA,TS"
2026-04-25 07:54:00,METAR KPNE 250754Z AUTO 09010KT 10SM BKN049 BKN060 OVC080 10/06 A2993 RMK AO2 RAB41E53 SLP135 P0000 T01000061 TSNO,0,10.0,0,16090,1,0,0,"RA,TS"
2026-04-25 06:54:00,METAR KPNE 250654Z AUTO 08006KT 10SM FEW047 BKN095 10/04 A2993 RMK AO2 SLP136 T01000044 TSNO,0,6.0,0,16090,1,0,0,TS
2026-04-25 05:54:00,METAR KPNE 250554Z AUTO 10006KT 10SM SCT100 10/04 A2993 RMK AO2 SLP135 T01000039 10150 20100 51008 TSNO,0,6.0,0,16090,1,0,0,TS
2026-04-25 04:54:00,METAR KPNE 250454Z AUTO 10007KT 10SM FEW080 10/04 A2993 RMK AO2 SLP134 T01000044 402440100 TSNO,0,7.0,0,16090,1,0,0,TS
2026-04-25 03:54:00,METAR KPNE 250354Z AUTO 12005KT 10SM FEW080 11/06 A2992 RMK AO2 SLP132 T01060056 TSNO,0,5.0,0,16090,1,0,0,TS
2026-04-25 02:54:00,METAR KPNE 250254Z AUTO 12007KT 10SM FEW100 12/06 A2991 RMK AO2 SLP127 T01170056 51023 TSNO,0,7.0,0,16090,1,0,0,TS
2026-04-25 01:54:00,METAR KPNE 250154Z 13009KT 10SM BKN080 13/04 A2990 RMK AO2 SLP125 T01280044,0,9.0,0,16090,0,0,0,
2026-04-25 00:54:00,METAR KPNE 250054Z 13006KT 10SM FEW085 13/03 A2987 RMK AO2 SLP112 T01330033,0,6.0,0,16090,0,0,0,
2026-04-24 23:54:00,METAR KPNE 242354Z 13009KT 10SM SCT080 SCT095 15/04 A2984 RMK AO2 SLP104 T01500039 10244 20150 53021,0,9.0,0,16090,0,0,0,
2026-04-24 22:54:00,METAR KPNE 242254Z 16009G17KT 10SM OVC080 18/03 A2981 RMK AO2 SLP093 T01780028,0,9.0,1,16090,0,0,0,
2026-04-24 21:54:00,METAR KPNE 242154Z 13010KT 10SM BKN080 20/05 A2979 RMK AO2 SLP086 T02000050,0,10.0,0,16090,0,0,0,
2026-04-24 20:54:00,METAR KPNE 242054Z 13006KT 10SM OVC080 21/07 A2978 RMK AO2 SLP082 T02110072 55007,0,6.0,0,16090,0,0,0,
2026-04-24 19:54:00,METAR KPNE 241954Z 23006KT 10SM FEW075 24/04 A2977 RMK AO2 SLP080 T02390039,0,6.0,0,16090,0,0,0,
2026-04-24 19:00:00,SPECI KPNE 241900Z VRB04KT 10SM FEW080 23/03 A2978 RMK AO2 T02280033 ,0,4.0,0,16090,0,0,0,
2026-04-24 18:54:00,METAR KPNE 241854Z 01007KT 10SM FEW080 23/04 A2978 RMK AO2 SLP085 T02330039,0,7.0,0,16090,0,0,0,
2026-04-24 17:54:00,METAR KPNE 241754Z 33007KT 10SM CLR 23/04 A2980 RMK AO2 SLP089 T02330039 10233 20156 56014,0,7.0,0,16090,0,0,0,
2026-04-24 16:54:00,METAR KPNE 241654Z 00000KT 10SM CLR 22/02 A2980 RMK AO2 SLP091 T02220022,0,0.0,0,16090,0,0,0,
2026-04-24 15:54:00,METAR KPNE 241554Z 35008KT 10SM CLR 21/02 A2982 RMK AO2 SLP098 T02110022,0,8.0,0,16090,0,0,0,
2026-04-24 14:54:00,METAR KPNE 241454Z 06005KT 10SM FEW090 21/02 A2984 RMK AO2 SLP103 T02060022 50001,0,5.0,0,16090,0,0,0,
2026-04-24 13:54:00,METAR KPNE 241354Z 04006KT 10SM CLR 19/02 A2984 RMK AO2 SLP105 T01940022,0,6.0,0,16090,0,0,0,
2026-04-24 12:54:00,METAR KPNE 241254Z 01008KT 10SM CLR 18/02 A2984 RMK AO2 SLP103 T01830017,0,8.0,0,16090,0,0,0,
2026-04-24 11:54:00,METAR KPNE 241154Z 34005KT 10SM CLR 16/04 A2983 RMK AO2 SLP102 T01560039 10156 20106 53009,0,5.0,0,16090,0,0,0,
2026-04-24 10:54:00,METAR KPNE 241054Z 34006KT 10SM CLR 11/03 A2983 RMK AO2 SLP099 T01110033,0,6.0,0,16090,0,0,0,
2026-04-24 09:54:00,METAR KPNE 240954Z 34003KT 10SM CLR 12/01 A2981 RMK AO2 SLP094 T01170011,0,3.0,0,16090,0,0,0,
2026-04-24 08:54:00,METAR KPNE 240854Z AUTO 35004KT 10SM CLR 11/03 A2981 RMK AO2 SLP093 T01110028 55010 TSNO,0,4.0,0,16090,1,0,0,TS
2026-04-24 07:54:00,METAR KPNE 240754Z AUTO 01004KT 10SM CLR 13/02 A2980 RMK AO2 SLP092 T01280022 TSNO,0,4.0,0,16090,1,0,0,TS
2026-04-24 06:54:00,METAR KPNE 240654Z AUTO 04004KT 10SM CLR 12/05 A2981 RMK AO2 SLP094 T01170050 TSNO,0,4.0,0,16090,1,0,0,TS
2026-04-24 05:54:00,METAR KPNE 240554Z 33003KT 10SM CLR 12/06 A2984 RMK AO2 SLP103 T01220061 10233 20122 58009,0,3.0,0,16090,0,0,0,
2026-04-24 04:54:00,METAR KPNE 240454Z 00000KT 10SM CLR 13/05 A2985 RMK AO2 SLP107 T01330050 402610067,0,0.0,0,16090,0,0,0,
2026-04-24 03:54:00,METAR KPNE 240354Z 00000KT 10SM CLR 16/05 A2987 RMK AO2 SLP113 T01560050,0,0.0,0,16090,0,0,0,
2026-04-24 02:54:00,METAR KPNE 240254Z 18004KT 10SM CLR 18/04 A2986 RMK AO2 SLP112 T01830039 51010,0,4.0,0,16090,0,0,0,
2026-04-24 01:54:00,METAR KPNE 240154Z 03004KT 10SM CLR 17/05 A2986 RMK AO2 SLP110 T01720050,0,4.0,0,16090,0,0,0,
2026-04-24 00:54:00,METAR KPNE 240054Z 36003KT 10SM CLR 19/05 A2985 RMK AO2 SLP106 T01940050,0,3.0,0,16090,0,0,0,
2026-04-23 23:54:00,METAR KPNE 232354Z 33003KT 10SM CLR 23/03 A2983 RMK AO2 SLP102 T02330033 10261 20233 55005,0,3.0,0,16090,0,0,0,
2026-04-23 22:54:00,METAR KPNE 232254Z 30007KT 10SM CLR 24/04 A2983 RMK AO2 SLP100 T02440039,0,7.0,0,16090,0,0,0,
2026-04-23 21:54:00,METAR KPNE 232154Z 32005KT 10SM CLR 26/06 A2984 RMK AO2 SLP103 T02560056,0,5.0,0,16090,0,0,0,
2026-04-23 20:54:00,METAR KPNE 232054Z 30009G16KT 260V340 10SM CLR 26/07 A2985 RMK AO2 SLP107 T02560067 58023,0,9.0,1,16090,0,0,0,
2026-04-23 19:54:00,METAR KPNE 231954Z VRB06G15KT 10SM CLR 25/06 A2988 RMK AO2 SLP116 T02500056,0,6.0,1,16090,0,0,0,
2026-04-23 18:54:00,METAR KPNE 231854Z 32009KT 10SM CLR 25/06 A2990 RMK AO2 SLP124 T02500061,0,9.0,0,16090,0,0,0,
2026-04-23 17:54:00,METAR KPNE 231754Z 32011KT 10SM CLR 24/06 A2992 RMK AO2 SLP131 T02390056 10244 20111 56020,0,11.0,0,16090,0,0,0,
2026-04-23 16:54:00,METAR KPNE 231654Z 10SM CLR 23/06 A2993 RMK AO2 SLP136 T02330061,0,,0,16090,0,0,0,
2026-04-23 15:54:00,METAR KPNE 231554Z 10SM CLR 22/06 A2996 RMK AO2 SLP145 T02220056,0,,0,16090,0,0,0,
2026-04-23 14:54:00,METAR KPNE 231454Z 02004KT 10SM CLR 21/06 A2998 RMK AO2 SLP151 T02110061 58005,0,4.0,0,16090,0,0,0,
2026-04-23 13:54:00,METAR KPNE 231354Z 33005KT 10SM CLR 18/09 A3000 RMK AO2 SLP157 T01830089,0,5.0,0,16090,0,0,0,
2026-04-23 12:54:00,METAR KPNE 231254Z 26003KT 10SM CLR 15/09 A3000 RMK AO2 SLP158 T01500089,0,3.0,0,16090,0,0,0,
2026-04-23 11:54:00,METAR KPNE 231154Z 27003KT 7SM CLR 11/07 A2999 RMK AO2 SLP156 70009 T01110072 10111 20067 53003,0,3.0,0,11263,0,0,0,
2026-04-23 10:54:00,METAR KPNE 231054Z 00000KT 7SM CLR 08/07 A2998 RMK AO2 SLP150 T00780067,0,0.0,0,11263,0,0,0,
2026-04-23 09:54:00,METAR KPNE 230954Z 36003KT 9SM CLR 07/05 A2997 RMK AO2 SLP149 T00720050,0,3.0,0,14481,0,0,0,
2026-04-23 08:54:00,METAR KPNE 230854Z AUTO 34004KT 10SM CLR 07/06 A2998 RMK AO2 SLP153 T00720061 53001 TSNO,0,4.0,0,16090,1,0,0,TS
2026-04-23 07:54:00,METAR KPNE 230754Z AUTO 00000KT 10SM CLR 08/06 A2997 RMK AO2 SLP147 T00780061 TSNO,0,0.0,0,16090,1,0,0,TS
2026-04-23 06:54:00,METAR KPNE 230654Z AUTO 05004KT 10SM CLR 08/06 A2996 RMK AO2 SLP146 T00830061 TSNO,0,4.0,0,16090,1,0,0,TS
2026-04-23 05:54:00,METAR KPNE 230554Z 05006KT 10SM CLR 09/06 A2998 RMK AO2 SLP153 T00890061 10150 20089 50002,0,6.0,0,16090,0,0,0,
2026-04-23 04:54:00,METAR KPNE 230454Z 05006KT 10SM CLR 10/07 A2999 RMK AO2 SLP156 T01000072 401720078,0,6.0,0,16090,0,0,0,
2026-04-23 03:54:00,METAR KPNE 230354Z 06007KT 10SM SCT110 12/09 A3000 RMK AO2 SLP157 T01170089,0,7.0,0,16090,0,0,0,
2026-04-23 02:54:00,METAR KPNE 230254Z 06005KT 10SM BKN095 BKN120 13/09 A2998 RMK AO2 SLP151 T01280089 51003,0,5.0,0,16090,0,0,0,
2026-04-23 01:54:00,METAR KPNE 230154Z 10007KT 10SM FEW110 13/09 A2998 RMK AO2 SLP151 T01280089,0,7.0,0,16090,0,0,0,
2026-04-23 00:54:00,METAR KPNE 230054Z 12004KT 10SM FEW110 14/10 A2997 RMK AO2 SLP148 T01390100,0,4.0,0,16090,0,0,0,
2026-04-22 23:54:00,METAR KPNE 222354Z 12004KT 10SM CLR 15/10 A2997 RMK AO2 SLP147 T01500100 10172 20139 55004,0,4.0,0,16090,0,0,0,
2026-04-22 22:54:00,METAR KPNE 222254Z 10003KT 10SM CLR 17/09 A2996 RMK AO2 SLP145 T01670094,0,3.0,0,16090,0,0,0,
2026-04-22 21:54:00,METAR KPNE 222154Z 13003KT 10SM CLR 17/09 A2997 RMK AO2 SLP149 T01670094,0,3.0,0,16090,0,0,0,
2026-04-22 20:54:00,METAR KPNE 222054Z 00000KT 10SM FEW080 16/09 A2998 RMK AO2 SLP152 T01610094 56019,0,0.0,0,16090,0,0,0,
2026-04-22 19:54:00,METAR KPNE 221954Z 14003KT 10SM FEW080 16/09 A2999 RMK AO2 SLP154 T01560094,0,3.0,0,16090,0,0,0,
2026-04-22 19:26:00,SPECI KPNE 221926Z VRB05KT 10SM SCT020 16/10 A2999 RMK AO2 T01560100 ,0,5.0,0,16090,0,0,0,
2026-04-22 18:54:00,METAR KPNE 221854Z 10SM BKN020 15/10 A3001 RMK AO2 SLP162 T01500100,0,,0,16090,0,0,0,
2026-04-22 17:54:00,METAR KPNE 221754Z VRB03KT 10SM BKN017 13/10 A3004 RMK AO2 SLP170 60009 T01330100 10139 20100 58013,0,3.0,0,16090,0,0,0,
2026-04-22 17:38:00,SPECI KPNE 221738Z VRB03KT 10SM BKN017 BKN075 14/10 A3004 RMK AO2 T01390100 ,0,3.0,0,16090,0,0,0,
2026-04-22 17:31:00,SPECI KPNE 221731Z VRB04KT 10SM SCT017 BKN075 13/10 A3004 RMK AO2 T01330100 ,0,4.0,0,16090,0,0,0,
2026-04-22 16:54:00,METAR KPNE 221654Z VRB03KT 10SM FEW010 BKN075 13/11 A3005 RMK AO2 RAE29 SLP175 P0001 T01330106,0,3.0,0,16090,0,0,0,
2026-04-22 16:11:00,SPECI KPNE 221611Z 00000KT 9SM -RA BKN036 BKN049 OVC070 12/09 A3007 RMK AO2 P0001 T01170089 ,0,0.0,0,14481,0,0,0,-RA
2026-04-22 16:04:00,SPECI KPNE 221604Z 00000KT 7SM -RA BKN029 BKN038 OVC070 12/09 A3007 RMK AO2 P0000 T01170094 ,0,0.0,0,11263,0,0,0,-RA
2026-04-22 15:54:00,METAR KPNE 221554Z 11006KT 8SM -RA BKN033 BKN048 OVC070 12/09 A3006 RMK AO2 SLP179 P0003 T01170089,0,6.0,0,12872,0,0,0,-RA
2026-04-22 14:54:00,METAR KPNE 221454Z 00000KT 7SM -RA OVC070 11/08 A3007 RMK AO2 RAB00 SLP183 P0005 60005 T01110078 57018,0,0.0,0,11263,0,0,0,-RA
2026-04-22 13:54:00,METAR KPNE 221354Z 17004KT 10SM FEW055 12/06 A3009 RMK AO2 SLP190 T01170056,0,4.0,0,16090,0,0,0,
2026-04-22 13:02:00,SPECI KPNE 221302Z 10SM FEW001 FEW090 SCT110 11/06 A3010 RMK AO2 T01110056 ,0,,0,16090,0,0,0,
2026-04-22 12:54:00,METAR KPNE 221254Z VRB06KT 10SM FEW090 BKN110 12/06 A3011 RMK AO2 SLP195 T01170061,0,6.0,0,16090,0,0,0,
2026-04-22 11:54:00,METAR KPNE 221154Z VRB04KT 10SM FEW110 10/05 A3013 RMK AO2 SLP201 60002 70002 T01000050 10100 20078 55004,0,4.0,0,16090,0,0,0,
2026-04-22 10:54:00,METAR KPNE 221054Z VRB04KT 10SM FEW070 BKN100 OVC120 09/05 A3011 RMK AO2 SLP195 T00890050,0,4.0,0,16090,0,0,0,
2026-04-22 09:54:00,METAR KPNE 220954Z 16008KT 10SM OVC100 08/04 A3011 RMK AO2 RAE01 SLP195 P0000 T00830044,0,8.0,0,16090,0,0,0,
2026-04-22 08:54:00,METAR KPNE 220854Z AUTO 14007KT 10SM -RA BKN080 OVC095 08/04 A3014 RMK AO2 RAB26 SLP205 P0001 60002 T00780044 58024 TSNO,0,7.0,0,16090,1,0,0,"-RA,TS"
2026-04-22 07:54:00,METAR KPNE 220754Z AUTO 13005KT 10SM BKN090 OVC110 08/03 A3018 RMK AO2 RAB42E52 SLP221 P0001 T00830033 TSNO,0,5.0,0,16090,1,0,0,"RA,TS"
2026-04-22 06:54:00,METAR KPNE 220654Z AUTO 13007KT 10SM BKN095 OVC110 08/02 A3018 RMK AO2 SLP218 T00830022 TSNO,0,7.0,0,16090,1,0,0,TS
2026-04-22 05:54:00,METAR KPNE 220554Z AUTO 13006KT 10SM OVC110 08/02 A3021 RMK AO2 SLP229 T00830017 10122 20083 58017 TSNO,0,6.0,0,16090,1,0,0,TS
2026-04-22 04:54:00,METAR KPNE 220454Z AUTO 16004KT 10SM CLR 08/01 A3023 RMK AO2 SLP238 T00830011 401391006 TSNO,0,4.0,0,16090,1,0,0,TS
2026-04-22 03:54:00,METAR KPNE 220354Z AUTO VRB04KT 10SM CLR 09/01 A3024 RMK AO2 SLP241 T00890006 TSNO,0,4.0,0,16090,1,0,0,TS
2026-04-22 02:54:00,METAR KPNE 220254Z AUTO 18005KT 10SM CLR 09/M01 A3026 RMK AO2 SLP247 T00941006 51010 TSNO,0,5.0,0,16090,1,0,0,TS
2026-04-22 01:54:00,METAR KPNE 220154Z 14006KT 10SM CLR 09/M01 A3025 RMK AO2 SLP245 T00891006,0,6.0,0,16090,0,0,0,
2026-04-22 00:54:00,METAR KPNE 220054Z 00000KT 10SM FEW075 OVC110 12/M04 A3024 RMK AO2 SLP242 T01221044,0,0.0,0,16090,0,0,0,
2026-04-21 23:54:00,METAR KPNE 212354Z VRB03KT 10SM BKN110 12/M06 A3023 RMK AO2 SLP237 T01221056 10139 20111 55005,0,3.0,0,16090,0,0,0,
2026-04-21 22:54:00,METAR KPNE 212254Z 10SM BKN085 12/M06 A3023 RMK AO2 SLP237 T01221061,0,,0,16090,0,0,0,
2026-04-21 21:54:00,METAR KPNE 212154Z 25008KT 10SM CLR 13/M07 A3023 RMK AO2 SLP237 T01331067,0,8.0,0,16090,0,0,0,
2026-04-21 20:54:00,METAR KPNE 212054Z 24006KT 10SM CLR 13/M08 A3024 RMK AO2 SLP242 T01331078 56026,0,6.0,0,16090,0,0,0,
2026-04-21 19:54:00,METAR KPNE 211954Z VRB05KT 10SM CLR 13/M08 A3026 RMK AO2 SLP247 T01281078,0,5.0,0,16090,0,0,0,
2026-04-21 18:54:00,METAR KPNE 211854Z VRB05KT 10SM CLR 13/M08 A3030 RMK AO2 SLP260 T01281078,0,5.0,0,16090,0,0,0,
2026-04-21 17:54:00,METAR KPNE 211754Z 22004KT 10SM CLR 11/M08 A3032 RMK AO2 SLP268 T01111083 10122 20039 58030,0,4.0,0,16090,0,0,0,
2026-04-21 16:54:00,METAR KPNE 211654Z 10SM CLR 10/M07 A3036 RMK AO2 SLP281 T01001072,0,,0,16090,0,0,0,
2026-04-21 15:54:00,METAR KPNE 211554Z 29008KT 10SM CLR 09/M07 A3039 RMK AO2 SLP290 T00941067,0,8.0,0,16090,0,0,0,
2026-04-21 14:54:00,METAR KPNE 211454Z VRB03KT 10SM CLR 08/M08 A3041 RMK AO2 SLP299 T00781078 58008,0,3.0,0,16090,0,0,0,
2026-04-21 13:54:00,METAR KPNE 211354Z VRB03KT 10SM CLR 07/M09 A3043 RMK AO2 SLP305 T00721089,0,3.0,0,16090,0,0,0,
2026-04-21 12:54:00,METAR KPNE 211254Z 03009KT 10SM CLR 06/M10 A3045 RMK AO2 SLP311 T00561100,0,9.0,0,16090,0,0,0,
2026-04-21 11:54:00,METAR KPNE 211154Z 02006KT 10SM CLR 04/M06 A3043 RMK AO2 SLP307 70002 T00391061 10044 21006 51019,0,6.0,0,16090,0,0,0,
2026-04-21 10:54:00,METAR KPNE 211054Z 00000KT 10SM CLR 00/M06 A3042 RMK AO2 SLP303 T00001056,0,0.0,0,16090,0,0,0,
2026-04-21 09:54:00,METAR KPNE 210954Z 00000KT 10SM CLR M01/M06 A3039 RMK AO2 SLP292 T10061056,0,0.0,0,16090,0,0,0,
2026-04-21 08:54:00,METAR KPNE 210854Z AUTO 34004KT 10SM CLR 00/M06 A3038 RMK AO2 SLP288 T00001056 53004 TSNO,0,4.0,0,16090,1,0,0,TS
2026-04-21 07:54:00,METAR KPNE 210754Z AUTO 33004KT 10SM CLR 01/M06 A3038 RMK AO2 SLP287 T00111061 TSNO,0,4.0,0,16090,1,0,0,TS
2026-04-21 06:54:00,METAR KPNE 210654Z AUTO 35005KT 10SM CLR M01/M06 A3037 RMK AO2 SLP284 T10061061 TSNO,0,5.0,0,16090,1,0,0,TS
2026-04-21 05:54:00,METAR KPNE 210554Z AUTO 35006KT 10SM CLR 00/M07 A3037 RMK AO2 SLP284 T00001067 10078 20000 50008 TSNO,0,6.0,0,16090,1,0,0,TS
2026-04-21 04:54:00,METAR KPNE 210454Z AUTO 35005KT 10SM CLR 01/M07 A3037 RMK AO2 SLP285 T00111067 401280011 TSNO,0,5.0,0,16090,1,0,0,TS
2026-04-21 03:54:00,METAR KPNE 210354Z AUTO 01004KT 10SM CLR 03/M08 A3036 RMK AO2 SLP282 T00331078 TSNO,0,4.0,0,16090,1,0,0,TS
2026-04-21 02:54:00,METAR KPNE 210254Z AUTO 36006KT 10SM CLR 04/M08 A3034 RMK AO2 SLP276 T00441083 51023 TSNO,0,6.0,0,16090,1,0,0,TS
2026-04-21 01:54:00,METAR KPNE 210154Z 35004KT 10SM CLR 04/M08 A3033 RMK AO2 SLP273 T00441083,0,4.0,0,16090,0,0,0,
2026-04-21 00:54:00,METAR KPNE 210054Z 36009KT 10SM CLR 07/M09 A3031 RMK AO2 SLP265 T00671089,0,9.0,0,16090,0,0,0,
2026-04-20 23:54:00,METAR KPNE 202354Z 34010KT 10SM CLR 08/M07 A3028 RMK AO2 SLP253 60000 T00781072 10128 20078 53028,0,10.0,0,16090,0,0,0,
2026-04-20 23:09:00,SPECI KPNE 202309Z 34012KT 10SM CLR 09/M07 A3025 RMK AO2 T00891072 ,0,12.0,0,16090,0,0,0,
2026-04-20 22:54:00,METAR KPNE 202254Z 33012G20KT 10SM CLR 09/M07 A3024 RMK AO2 SLP242 T00891072,0,12.0,1,16090,0,0,0,
2026-04-20 21:54:00,METAR KPNE 202154Z 36013G21KT 10SM BKN075 BKN090 10/M06 A3022 RMK AO2 SLP233 T01001056,0,13.0,1,16090,0,0,0,
2026-04-20 20:54:00,METAR KPNE 202054Z 34008G24KT 10SM FEW065 11/M03 A3019 RMK AO2 PK WND 33028/2034 SLP225 60000 T01061033 53002,0,8.0,1,16090,0,0,0,
2026-04-20 19:54:00,METAR KPNE 201954Z 31013G24KT 10SM FEW075 12/M04 A3017 RMK AO2 PK WND 33026/1938 RAE1855 SLP217 P0000 T01171039,0,13.0,1,16090,0,0,0,RA
2026-04-20 18:54:00,METAR KPNE 201854Z 34008KT 10SM -RA BKN065 BKN080 12/M01 A3017 RMK AO2 RAB46 SLP218 P0000 T01171006,0,8.0,0,16090,0,0,0,-RA
2026-04-20 17:54:00,METAR KPNE 201754Z 34013G21KT 10SM SCT050 BKN060 OVC075 10/M01 A3019 RMK AO2 RAB17E27 SLP222 P0000 60002 T01001006 10117 20056 55004,0,13.0,1,16090,0,0,0,RA
2026-04-20 16:54:00,METAR KPNE 201654Z 33005KT 10SM SCT050 BKN075 11/M01 A3018 RMK AO2 RAB01E13 SLP220 P0002 T01061006,0,5.0,0,16090,0,0,0,RA
2026-04-20 15:54:00,METAR KPNE 201554Z VRB06KT 10SM BKN046 BKN090 10/00 A3019 RMK AO2 SLP224 T01000000,0,6.0,0,16090,0,0,0,
2026-04-20 14:54:00,METAR KPNE 201454Z 34009G18KT 300V010 10SM BKN039 09/01 A3020 RMK AO2 SLP226 T00940006 51009,0,9.0,1,16090,0,0,0,
2026-04-20 13:54:00,METAR KPNE 201354Z 33007KT 10SM FEW044 BKN080 09/03 A3019 RMK AO2 SLP223 T00940028,0,7.0,0,16090,0,0,0,
2026-04-20 12:54:00,METAR KPNE 201254Z 30005KT 10SM FEW044 OVC060 07/02 A3019 RMK AO2 SLP223 T00720017,0,5.0,0,16090,0,0,0,
2026-04-20 11:54:00,METAR KPNE 201154Z 34003KT 10SM OVC070 06/02 A3017 RMK AO2 SLP217 70013 T00560017 10056 20011 53015 $,0,3.0,0,16090,0,0,0,
2026-04-20 10:54:00,METAR KPNE 201054Z 00000KT 10SM CLR 02/01 A3015 RMK AO2 SLP211 T00220006 $,0,0.0,0,16090,0,0,0,
2026-04-20 09:54:00,METAR KPNE 200954Z 00000KT 10SM CLR 03/02 A3013 RMK AO2 SLP203 T00280017 $,0,0.0,0,16090,0,0,0,
2026-04-20 08:54:00,METAR KPNE 200854Z AUTO 00000KT 10SM SCT065 03/02 A3013 RMK AO2 SLP202 T00330022 55002 TSNO $,0,0.0,0,16090,1,0,0,TS
2026-04-20 07:54:00,METAR KPNE 200754Z AUTO 00000KT 10SM BKN070 04/02 A3012 RMK AO2 SLP200 T00440017 TSNO $,0,0.0,0,16090,1,0,0,TS
2026-04-20 06:54:00,METAR KPNE 200654Z AUTO 12007KT 10SM CLR 03/02 A3012 RMK AO2 SLP199 T00330017 TSNO $,0,7.0,0,16090,1,0,0,TS
2026-04-20 05:54:00,METAR KPNE 200554Z AUTO 00000KT 10SM CLR 03/02 A3013 RMK AO2 SLP204 60002 T00330017 10094 20022 50005 TSNO $,0,0.0,0,16090,1,0,0,TS
2026-04-20 04:54:00,METAR KPNE 200454Z AUTO 00000KT 10SM CLR 03/01 A3014 RMK AO2 SLP205 T00280011 401220022 TSNO $,0,0.0,0,16090,1,0,0,TS
2026-04-20 03:54:00,METAR KPNE 200354Z AUTO 00000KT 10SM CLR 04/03 A3013 RMK AO2 SLP203 T00440028 TSNO $,0,0.0,0,16090,1,0,0,TS
2026-04-20 02:54:00,METAR KPNE 200254Z AUTO 00000KT 10SM CLR 05/03 A3012 RMK AO2 SLP199 60002 T00500028 51023 TSNO $,0,0.0,0,16090,1,0,0,TS
2026-04-20 01:54:00,METAR KPNE 200154Z 00000KT 10SM CLR 06/02 A3011 RMK AO2 SLP196 T00560022 $,0,0.0,0,16090,0,0,0,
2026-04-20 00:54:00,METAR KPNE 200054Z 00000KT 10SM CLR 08/02 A3008 RMK AO2 SLP185 P0002 T00780022 $,0,0.0,0,16090,0,0,0,
2026-04-19 23:54:00,METAR KPNE 192354Z 30005KT 10SM FEW050 BKN060 OVC075 09/03 A3005 RMK AO2 RAB25E35 SLP175 P0002 60005 T00940028 10117 20083 53033 $,0,5.0,0,16090,0,0,0,RA
2026-04-19 23:34:00,SPECI KPNE 192334Z 29011G23KT 10SM -RA BKN049 OVC070 09/03 A3004 RMK AO2 RAB25 P0000 T00940033 $ ,0,11.0,1,16090,0,0,0,-RA
2026-04-19 22:54:00,METAR KPNE 192254Z 01009KT 10SM FEW050 BKN070 BKN090 10/03 A3001 RMK AO2 SLP162 T01000028 $,0,9.0,0,16090,0,0,0,
2026-04-19 22:31:00,SPECI KPNE 192231Z 01008KT 10SM FEW050 SCT065 BKN080 10/03 A3000 RMK AO2 T01000033 $ ,0,8.0,0,16090,0,0,0,
2026-04-19 21:54:00,METAR KPNE 192154Z 33005KT 10SM FEW039 BKN050 OVC095 11/03 A2998 RMK AO2 SLP151 T01110033 $,0,5.0,0,16090,0,0,0,
2026-04-19 21:09:00,SPECI KPNE 192109Z 29006KT 10SM FEW037 SCT047 BKN075 11/03 A2995 RMK AO2 T01110028 $ ,0,6.0,0,16090,0,0,0,
2026-04-19 20:54:00,METAR KPNE 192054Z 32011G20KT 10SM FEW038 12/03 A2995 RMK AO2 SLP142 60003 T01170033 58003 $,0,11.0,1,16090,0,0,0,
2026-04-19 20:12:00,SPECI KPNE 192012Z 33013G17KT 10SM FEW022 FEW029 SCT035 11/04 A2996 RMK AO2 T01060044 $ ,0,13.0,1,16090,0,0,0,
2026-04-19 19:54:00,METAR KPNE 191954Z 34008G16KT 10SM SCT021 SCT029 11/10 A2995 RMK AO2 RAE04 SLP142 P0000 T01060100 $,0,8.0,1,16090,0,0,0,
2026-04-19 18:54:00,METAR KPNE 191854Z 35009KT 10SM -RA FEW018 BKN033 OVC060 08/06 A2996 RMK AO2 RAE16B37 SLP147 P0003 T00830061 $,0,9.0,0,16090,0,0,0,"-RA,RA"
2026-04-19 18:07:00,SPECI KPNE 191807Z 32007G18KT 7SM -RA SCT017 BKN038 OVC048 08/06 A2995 RMK AO2 P0002 T00830056 $ ,0,7.0,1,11263,0,0,0,-RA
2026-04-19 17:54:00,METAR KPNE 191754Z 34013G20KT 5SM -RA SCT018 BKN023 OVC034 08/06 A2996 RMK AO2 RAE11B29 SLP146 P0000 60006 T00830056 10122 20083 53010 $,0,13.0,1,8045,0,0,0,"-RA,RA"
2026-04-19 16:54:00,METAR KPNE 191654Z 31010G18KT 10SM -RA OVC065 09/06 A2994 RMK AO2 PK WND 31028/1558 RAB06E19B53 SLP137 P0006 T00890056 $,0,10.0,1,16090,0,0,0,"-RA,RA"
2026-04-19 15:54:00,METAR KPNE 191554Z 31018G29KT 10SM OVC060 11/04 A2993 RMK AO2 PK WND 33033/1539 SLP134 T01060039 $,0,18.0,1,16090,0,0,0,
2026-04-19 14:54:00,METAR KPNE 191454Z 32012G22KT 10SM FEW020 SCT040 OVC049 11/08 A2993 RMK AO2 PK WND 33028/1426 PRESRR SLP134 T01060078 53037 $,0,12.0,1,16090,0,0,0,
2026-04-19 14:03:00,SPECI KPNE 191403Z 32016G27KT 10SM FEW017 OVC030 12/08 A2989 RMK AO2 PK WND 35027/1401 PRESRR T01170078 $ ,0,16.0,1,16090,0,0,0,
2026-04-19 13:54:00,METAR KPNE 191354Z 32017G31KT 10SM FEW017 BKN024 OVC030 12/08 A2987 RMK AO2 PK WND 33031/1352 SLP114 T01170078 $,0,17.0,1,16090,0,0,0,
2026-04-19 13:16:00,SPECI KPNE 191316Z 31020G31KT 10SM SCT009 OVC018 12/08 A2984 RMK AO2 PK WND 32031/1316 T01220083 $ ,0,20.0,1,16090,0,0,0,
2026-04-19 12:54:00,METAR KPNE 191254Z 30008KT 10SM OVC008 12/10 A2983 RMK AO2 CIG 006V012 SLP102 T01170100 $,0,8.0,0,16090,0,0,0,
2026-04-19 11:54:00,METAR KPNE 191154Z 33007KT 9SM OVC006 11/09 A2982 RMK AO2 SLP097 T01110094 10111 20106 53008 $,0,7.0,0,14481,0,0,0,
2026-04-19 11:15:00,SPECI KPNE 191115Z 00000KT 10SM OVC005 11/09 A2980 RMK AO2 T01110094 $ ,0,0.0,0,16090,0,0,0,
2026-04-19 10:54:00,METAR KPNE 191054Z 05003KT 9SM OVC004 11/09 A2978 RMK AO2 SLP085 T01060094 $,0,3.0,0,14481,0,0,0,
2026-04-19 09:54:00,METAR KPNE 190954Z AUTO 11003KT 10SM OVC004 11/09 A2978 RMK AO2 SLP085 T01060094 TSNO $,0,3.0,0,16090,1,0,0,TS
2026-04-19 08:54:00,METAR KPNE 190854Z AUTO 12005KT 10SM OVC004 11/09 A2980 RMK AO2 SLP089 T01060094 56018 TSNO $,0,5.0,0,16090,1,0,0,TS
2026-04-19 07:54:00,METAR KPNE 190754Z AUTO 09008KT 9SM OVC004 11/10 A2982 RMK AO2 CIG 003V007 SLP096 T01060100 TSNO $,0,8.0,0,14481,1,0,0,TS
2026-04-19 07:49:00,SPECI KPNE 190749Z AUTO 10008KT 10SM OVC004 11/10 A2982 RMK AO2 CIG 003V007 TSNO $ ,0,8.0,0,16090,1,0,0,TS
2026-04-19 07:39:00,SPECI KPNE 190739Z AUTO 09007KT 10SM OVC005 11/10 A2983 RMK AO2 CIG 003V009 T01060100 TSNO $ ,0,7.0,0,16090,1,0,0,TS
2026-04-19 06:54:00,METAR KPNE 190654Z AUTO 08007KT 4SM BR OVC003 11/10 A2985 RMK AO2 PRESFR SLP107 T01060100 TSNO $,0,7.0,0,6436,1,0,1,"BR,TS"
2026-04-19 05:54:00,METAR KPNE 190554Z AUTO 03006KT 5SM BR OVC004 11/10 A2989 RMK AO2 SLP122 T01060100 10128 20100 58011 TSNO $,0,6.0,0,8045,1,0,1,"BR,TS"
2026-04-19 04:54:00,METAR KPNE 190454Z AUTO 35004KT 5SM BR OVC003 11/10 A2993 RMK AO2 PRESRR SLP135 T01060100 402280100 TSNO $,0,4.0,0,8045,1,0,1,"BR,TS"
2026-04-19 03:54:00,METAR KPNE 190354Z AUTO 12007KT 5SM BR OVC003 11/09 A2991 RMK AO2 SLP127 T01060094 TSNO $,0,7.0,0,8045,1,0,1,"BR,TS"
2026-04-19 03:33:00,SPECI KPNE 190333Z AUTO 11009KT 3SM BR OVC004 11/09 A2991 RMK AO2 T01060094 TSNO $ ,0,9.0,0,4827,1,0,1,"BR,TS"
2026-04-19 02:54:00,METAR KPNE 190254Z 09007KT 10SM OVC005 11/09 A2993 RMK AO2 SLP133 T01060094 58010 $,0,7.0,0,16090,0,0,0,
2026-04-19 01:54:00,METAR KPNE 190154Z 12009KT 10SM OVC009 11/09 A2994 RMK AO2 CIG 006V010 SLP139 T01110089 $,0,9.0,0,16090,0,0,0,
2026-04-19 00:54:00,METAR KPNE 190054Z 11012KT 10SM OVC011 12/09 A2996 RMK AO2 SLP143 T01170089 $,0,12.0,0,16090,0,0,0,
2026-04-19 00:14:00,SPECI KPNE 190014Z 11011KT 10SM BKN013 13/09 A2996 RMK AO2 T01280089 $ ,0,11.0,0,16090,0,0,0,
2026-04-18 23:54:00,METAR KPNE 182354Z 11008KT 10SM CLR 13/09 A2996 RMK AO2 SLP145 T01280089 10228 20128 55000 $,0,8.0,0,16090,0,0,0,
2026-04-18 22:54:00,METAR KPNE 182254Z 10012KT 10SM CLR 16/10 A2995 RMK AO2 SLP141 T01560100 $,0,12.0,0,16090,0,0,0,
2026-04-18 21:54:00,METAR KPNE 182154Z 10013KT 7SM CLR 17/11 A2995 RMK AO2 SLP141 T01720106 $,0,13.0,0,11263,0,0,0,
2026-04-18 20:54:00,METAR KPNE 182054Z 10013KT 10SM CLR 20/11 A2996 RMK AO2 SLP145 T02000111 56019 $,0,13.0,0,16090,0,0,0,
2026-04-18 19:54:00,METAR KPNE 181954Z 10013KT 10SM CLR 21/11 A2998 RMK AO2 SLP150 T02110111 $,0,13.0,0,16090,0,0,0,
2026-04-18 18:54:00,METAR KPNE 181854Z 10011KT 10SM CLR 22/12 A3000 RMK AO2 SLP157 T02220117 $,0,11.0,0,16090,0,0,0,
2026-04-18 17:54:00,METAR KPNE 181754Z 15007G15KT 10SM CLR 22/12 A3002 RMK AO2 SLP164 T02220117 10222 20139 58016 $,0,7.0,1,16090,0,0,0,
2026-04-18 16:54:00,METAR KPNE 181654Z 15008G17KT 110V170 10SM CLR 22/12 A3003 RMK AO2 SLP170 T02170122 $,0,8.0,1,16090,0,0,0,
2026-04-18 15:54:00,METAR KPNE 181554Z 09010KT 070V130 10SM CLR 21/12 A3005 RMK AO2 SLP174 T02060122 $,0,10.0,0,16090,0,0,0,
2026-04-18 14:54:00,METAR KPNE 181454Z 11010KT 10SM CLR 19/12 A3006 RMK AO2 SLP179 T01890117 55005 $,0,10.0,0,16090,0,0,0,
2026-04-18 13:54:00,METAR KPNE 181354Z 08008KT 10SM CLR 17/11 A3006 RMK AO2 SLP179 T01720111 $,0,8.0,0,16090,0,0,0,
2026-04-18 12:54:00,METAR KPNE 181254Z VRB06KT 10SM CLR 16/11 A3007 RMK AO2 SLP181 T01560111 $,0,6.0,0,16090,0,0,0,
2026-04-18 12:25:00,SPECI KPNE 181225Z 11010KT 10SM SCT012 15/11 A3006 RMK AO2 T01500111 $ ,0,10.0,0,16090,0,0,0,
2026-04-18 12:10:00,SPECI KPNE 181210Z 09009KT 10SM BKN011 14/11 A3007 RMK AO2 T01440111 $ ,0,9.0,0,16090,0,0,0,
2026-04-18 11:54:00,METAR KPNE 181154Z 09006KT 10SM BKN006 OVC012 13/12 A3008 RMK AO2 CIG 005V009 SLP185 T01330117 10150 20133 53012 $,0,6.0,0,16090,0,0,0,
2026-04-18 10:54:00,METAR KPNE 181054Z 10007KT 8SM OVC006 13/12 A3005 RMK AO2 SLP176 T01330122 $,0,7.0,0,12872,0,0,0,
2026-04-18 10:02:00,SPECI KPNE 181002Z 06009KT 10SM OVC009 14/12 A3004 RMK AO2 T01440122 $ ,0,9.0,0,16090,0,0,0,
2026-04-18 09:54:00,METAR KPNE 180954Z 09009KT 10SM OVC010 14/12 A3004 RMK AO2 SLP170 T01440122 $,0,9.0,0,16090,0,0,0,
2026-04-18 09:06:00,SPECI KPNE 180906Z AUTO 08008KT 10SM OVC010 15/13 A3003 RMK AO2 T01500128 TSNO $ ,0,8.0,0,16090,1,0,0,TS
2026-04-18 08:54:00,METAR KPNE 180854Z AUTO 09005KT 10SM OVC009 15/13 A3004 RMK AO2 SLP172 T01500128 53000 TSNO $,0,5.0,0,16090,1,0,0,TS
2026-04-18 07:54:00,METAR KPNE 180754Z AUTO 10007KT 10SM OVC007 15/13 A3004 RMK AO2 SLP172 T01500128 TSNO $,0,7.0,0,16090,1,0,0,TS
2026-04-18 06:54:00,METAR KPNE 180654Z AUTO 09007KT 10SM OVC008 15/13 A3003 RMK AO2 SLP169 T01500128 TSNO $,0,7.0,0,16090,1,0,0,TS
2026-04-18 06:26:00,SPECI KPNE 180626Z AUTO 09007KT 10SM OVC009 15/13 A3004 RMK AO2 T01500128 TSNO $ ,0,7.0,0,16090,1,0,0,TS
2026-04-18 05:54:00,METAR KPNE 180554Z AUTO 10010KT 10SM BKN012 15/13 A3004 RMK AO2 SLP172 T01500128 10239 20150 53024 TSNO $,0,10.0,0,16090,1,0,0,TS
2026-04-18 04:54:00,METAR KPNE 180454Z AUTO 10010KT 10SM CLR 17/13 A3002 RMK AO2 SLP166 T01720133 402780172 TSNO $,0,10.0,0,16090,1,0,0,TS
2026-04-18 03:54:00,METAR KPNE 180354Z AUTO 08012KT 10SM CLR 20/14 A2998 RMK AO2 SLP149 T02000139 TSNO,0,12.0,0,16090,1,0,0,TS
2026-04-18 02:54:00,METAR KPNE 180254Z AUTO 06004KT 10SM CLR 21/13 A2997 RMK AO2 SLP147 T02060133 50011 TSNO,0,4.0,0,16090,1,0,0,TS
2026-04-18 01:54:00,METAR KPNE 180154Z 04004KT 10SM FEW085 21/13 A2997 RMK AO2 SLP147 T02060133,0,4.0,0,16090,0,0,0,
2026-04-18 00:54:00,METAR KPNE 180054Z 03005KT 10SM BKN080 OVC110 23/13 A2996 RMK AO2 SLP145 T02330128,0,5.0,0,16090,0,0,0,
2026-04-17 23:54:00,METAR KPNE 172354Z 03009KT 10SM OVC100 24/13 A2994 RMK AO2 SLP136 T02390133 10278 20239 53023,0,9.0,0,16090,0,0,0,
2026-04-17 22:54:00,METAR KPNE 172254Z 32008KT 10SM BKN120 26/13 A2991 RMK AO2 SLP126 T02610128,0,8.0,0,16090,0,0,0,
2026-04-17 22:29:00,SPECI KPNE 172229Z 33011KT 10SM SCT120 26/13 A2990 RMK AO2 T02610128 ,0,11.0,0,16090,0,0,0,
2026-04-17 21:54:00,METAR KPNE 172154Z 33010KT 10SM SCT110 27/13 A2989 RMK AO2 SLP120 T02670128,0,10.0,0,16090,0,0,0,
2026-04-17 20:54:00,METAR KPNE 172054Z 32010KT 10SM SCT070 BKN110 27/11 A2987 RMK AO2 SLP113 T02670111 55004,0,10.0,0,16090,0,0,0,
2026-04-17 19:54:00,METAR KPNE 171954Z 33012KT 10SM SCT070 BKN100 27/12 A2986 RMK AO2 SLP110 T02670122,0,12.0,0,16090,0,0,0,
2026-04-17 18:54:00,METAR KPNE 171854Z 27008KT 10SM CLR 27/12 A2987 RMK AO2 SLP113 T02670122,0,8.0,0,16090,0,0,0,
2026-04-17 17:54:00,METAR KPNE 171754Z 28010G18KT 10SM FEW060 BKN090 24/13 A2988 RMK AO2 SLP116 T02440133 10267 20211 57005,0,10.0,1,16090,0,0,0,
2026-04-17 16:54:00,METAR KPNE 171654Z 30008G18KT 10SM FEW065 26/13 A2988 RMK AO2 SLP116 T02610128,0,8.0,1,16090,0,0,0,
2026-04-17 15:54:00,METAR KPNE 171554Z 29007G15KT 10SM FEW049 SCT060 26/13 A2990 RMK AO2 SLP122 T02560133,0,7.0,1,16090,0,0,0,
2026-04-17 14:54:00,METAR KPNE 171454Z 35007KT 10SM CLR 24/14 A2989 RMK AO2 SLP121 T02440139 51006,0,7.0,0,16090,0,0,0,
2026-04-17 13:54:00,METAR KPNE 171354Z 36008KT 10SM CLR 23/14 A2989 RMK AO2 SLP119 T02330144,0,8.0,0,16090,0,0,0,
2026-04-17 12:54:00,METAR KPNE 171254Z 33008KT 10SM CLR 22/14 A2988 RMK AO2 SLP117 T02220144,0,8.0,0,16090,0,0,0,
2026-04-17 11:54:00,METAR KPNE 171154Z 32007KT 10SM CLR 21/14 A2988 RMK AO2 SLP115 T02110139 10244 20200 53025,0,7.0,0,16090,0,0,0,
2026-04-17 10:54:00,METAR KPNE 171054Z 32006KT 10SM SCT110 21/14 A2985 RMK AO2 SLP106 T02060139,0,6.0,0,16090,0,0,0,
2026-04-17 09:54:00,METAR KPNE 170954Z 33006KT 10SM OVC110 21/14 A2982 RMK AO2 SLP096 T02110139,0,6.0,0,16090,0,0,0,
2026-04-17 09:26:00,SPECI KPNE 170926Z AUTO 30009KT 10SM FEW110 21/14 A2981 RMK AO2 T02110144 TSNO ,0,9.0,0,16090,1,0,0,TS
2026-04-17 08:54:00,METAR KPNE 170854Z 29008KT 10SM FEW120 22/14 A2980 RMK AO2 SLP089 T02170144 53006,0,8.0,0,16090,0,0,0,
2026-04-17 07:54:00,METAR KPNE 170754Z 28011KT 10SM OVC110 23/14 A2978 RMK AO2 SLP084 T02280139,0,11.0,0,16090,0,0,0,
2026-04-17 06:54:00,METAR KPNE 170654Z 31005KT 10SM CLR 23/13 A2977 RMK AO2 SLP078 T02330133,0,5.0,0,16090,0,0,0,
2026-04-17 05:54:00,METAR KPNE 170554Z 33009KT 10SM CLR 24/13 A2978 RMK AO2 PK WND 32026/0513 SLP083 T02440133 10294 20244 53012,0,9.0,0,16090,0,0,0,
2026-04-17 04:54:00,METAR KPNE 170454Z 29014G23KT 10SM FEW060 BKN100 26/14 A2978 RMK AO2 SLP084 T02610139 403220178,0,14.0,1,16090,0,0,0,
2026-04-17 03:54:00,METAR KPNE 170354Z 21007KT 10SM BKN110 26/14 A2974 RMK AO2 SLP070 T02610139,0,7.0,0,16090,0,0,0,
2026-04-17 02:54:00,METAR KPNE 170254Z 21007KT 10SM CLR 26/14 A2975 RMK AO2 SLP071 T02610139 50000,0,7.0,0,16090,0,0,0,
2026-04-17 01:54:00,METAR KPNE 170154Z 21005KT 10SM CLR 27/14 A2976 RMK AO2 SLP077 T02670139,0,5.0,0,16090,0,0,0,
2026-04-17 00:54:00,METAR KPNE 170054Z 21007KT 10SM CLR 28/13 A2976 RMK AO2 SLP077 T02830128,0,7.0,0,16090,0,0,0,
2026-04-16 23:54:00,METAR KPNE 162354Z 21009KT 10SM CLR 29/13 A2975 RMK AO2 SLP071 T02940128 10322 20294 56006,0,9.0,0,16090,0,0,0,
2026-04-16 22:54:00,METAR KPNE 162254Z 21009KT 10SM CLR 31/13 A2975 RMK AO2 SLP071 T03110133,0,9.0,0,16090,0,0,0,
2026-04-16 21:54:00,METAR KPNE 162154Z 22008G21KT 10SM CLR 32/14 A2976 RMK AO2 SLP075 T03170139,0,8.0,1,16090,0,0,0,
2026-04-16 20:54:00,METAR KPNE 162054Z 21012G18KT 10SM CLR 32/13 A2976 RMK AO2 SLP077 T03220133 56030,0,12.0,1,16090,0,0,0,
2026-04-16 19:54:00,METAR KPNE 161954Z 23013G18KT 10SM CLR 32/14 A2979 RMK AO2 SLP086 T03170144,0,13.0,1,16090,0,0,0,
2026-04-16 18:54:00,METAR KPNE 161854Z 21009G17KT 10SM CLR 32/14 A2982 RMK AO2 SLP096 T03220144,0,9.0,1,16090,0,0,0,
2026-04-16 17:54:00,METAR KPNE 161754Z 19006G14KT 10SM CLR 31/14 A2985 RMK AO2 SLP107 T03110144 10311 20211 58024,0,6.0,1,16090,0,0,0,
2026-04-16 16:54:00,METAR KPNE 161654Z VRB06G15KT 10SM CLR 31/15 A2988 RMK AO2 SLP116 T03110150,0,6.0,1,16090,0,0,0,
2026-04-16 15:54:00,METAR KPNE 161554Z VRB05KT 10SM CLR 30/16 A2990 RMK AO2 SLP125 T03000161,0,5.0,0,16090,0,0,0,
2026-04-16 14:54:00,METAR KPNE 161454Z 00000KT 10SM CLR 28/17 A2992 RMK AO2 SLP132 T02830172 58004,0,0.0,0,16090,0,0,0,
2026-04-16 13:54:00,METAR KPNE 161354Z 00000KT 10SM CLR 26/17 A2993 RMK AO2 SLP133 T02610167,0,0.0,0,16090,0,0,0,
2026-04-16 12:54:00,METAR KPNE 161254Z 00000KT 10SM CLR 24/17 A2994 RMK AO2 SLP136 T02440167,0,0.0,0,16090,0,0,0,
2026-04-16 11:54:00,METAR KPNE 161154Z 00000KT 10SM CLR 21/17 A2994 RMK AO2 SLP136 T02110172 10244 20178 51017,0,0.0,0,16090,0,0,0,
2026-04-16 10:54:00,METAR KPNE 161054Z 00000KT 10SM CLR 18/15 A2992 RMK AO2 SLP132 T01830150,0,0.0,0,16090,0,0,0,
2026-04-16 09:54:00,METAR KPNE 160954Z 00000KT 10SM CLR 19/15 A2991 RMK AO2 SLP127 T01890150,0,0.0,0,16090,0,0,0,
2026-04-16 08:54:00,METAR KPNE 160854Z AUTO 00000KT 10SM CLR 19/15 A2989 RMK AO2 SLP119 T01890150 53002 TSNO,0,0.0,0,16090,1,0,0,TS
2026-04-16 07:54:00,METAR KPNE 160754Z AUTO 22003KT 10SM CLR 22/15 A2989 RMK AO2 SLP121 T02170150 TSNO,0,3.0,0,16090,1,0,0,TS
2026-04-16 06:54:00,METAR KPNE 160654Z 25006KT 10SM CLR 23/16 A2988 RMK AO2 SLP115 T02280156,0,6.0,0,16090,0,0,0,
2026-04-16 05:54:00,METAR KPNE 160554Z 22007KT 10SM CLR 24/15 A2988 RMK AO2 SLP117 T02390150 10294 20239 58008,0,7.0,0,16090,0,0,0,
2026-04-16 04:54:00,METAR KPNE 160454Z 21005KT 10SM CLR 24/15 A2990 RMK AO2 SLP124 T02440150 403170156,0,5.0,0,16090,0,0,0,
2026-04-16 03:54:00,METAR KPNE 160354Z 21007KT 10SM CLR 26/15 A2990 RMK AO2 SLP124 T02610150,0,7.0,0,16090,0,0,0,
2026-04-16 02:54:00,METAR KPNE 160254Z 22010KT 10SM CLR 27/15 A2990 RMK AO2 SLP125 T02670150 50009,0,10.0,0,16090,0,0,0,
2026-04-16 01:54:00,METAR KPNE 160154Z 21009KT 10SM CLR 27/14 A2991 RMK AO2 SLP127 T02720144,0,9.0,0,16090,0,0,0,
2026-04-16 00:54:00,METAR KPNE 160054Z 21007KT 10SM CLR 28/14 A2990 RMK AO2 SLP123 T02830139,0,7.0,0,16090,0,0,0,
2026-04-15 23:54:00,METAR KPNE 152354Z 22008KT 10SM CLR 29/14 A2988 RMK AO2 SLP116 T02890139 10317 20289 51003,0,8.0,0,16090,0,0,0,
2026-04-15 22:54:00,METAR KPNE 152254Z 23011G22KT 10SM CLR 30/14 A2988 RMK AO2 SLP116 T03000144,0,11.0,1,16090,0,0,0,
2026-04-15 21:54:00,METAR KPNE 152154Z 24012G20KT 10SM CLR 31/16 A2988 RMK AO2 SLP116 T03060156,0,12.0,1,16090,0,0,0,
2026-04-15 20:54:00,METAR KPNE 152054Z 25014G20KT 10SM FEW070 31/16 A2987 RMK AO2 PK WND 22028/2029 SLP113 T03110161 55010,0,14.0,1,16090,0,0,0,
2026-04-15 19:54:00,METAR KPNE 151954Z 24010G18KT 10SM FEW065 32/17 A2987 RMK AO2 SLP112 T03170167,0,10.0,1,16090,0,0,0,
2026-04-15 18:54:00,METAR KPNE 151854Z 24013G22KT 10SM CLR 31/16 A2988 RMK AO2 SLP117 T03110161,0,13.0,1,16090,0,0,0,
2026-04-15 18:04:00,SPECI KPNE 151804Z 20011G18KT 160V220 10SM CLR 31/16 A2990 RMK AO2 T03060161 ,0,11.0,1,16090,0,0,0,
2026-04-15 17:54:00,METAR KPNE 151754Z 26014G21KT 10SM CLR 31/16 A2990 RMK AO2 SLP123 T03060161 10306 20200 56025,0,14.0,1,16090,0,0,0,
2026-04-15 16:54:00,METAR KPNE 151654Z 10SM CLR 29/16 A2992 RMK AO2 SLP129 T02940161,0,,0,16090,0,0,0,
2026-04-15 15:54:00,METAR KPNE 151554Z 23010KT 10SM CLR 28/17 A2995 RMK AO2 SLP139 T02780167,0,10.0,0,16090,0,0,0,
2026-04-15 14:54:00,METAR KPNE 151454Z 21007KT 10SM CLR 26/16 A2998 RMK AO2 SLP149 T02610161 50001,0,7.0,0,16090,0,0,0,
2026-04-15 13:54:00,METAR KPNE 151354Z 24007KT 10SM CLR 24/16 A2999 RMK AO2 SLP153 T02390161,0,7.0,0,16090,0,0,0,
2026-04-15 12:54:00,METAR KPNE 151254Z 21005KT 10SM CLR 22/17 A2999 RMK AO2 SLP155 T02170172,0,5.0,0,16090,0,0,0,
2026-04-15 11:54:00,METAR KPNE 151154Z 00000KT 10SM CLR 20/17 A2997 RMK AO2 SLP148 70009 T02000172 10200 20156 53010,0,0.0,0,16090,0,0,0,
2026-04-15 10:54:00,METAR KPNE 151054Z 00000KT 10SM CLR 17/16 A2996 RMK AO2 SLP142 T01670156,0,0.0,0,16090,0,0,0,
2026-04-15 09:54:00,METAR KPNE 150954Z 00000KT 10SM CLR 17/16 A2995 RMK AO2 SLP139 T01670156,0,0.0,0,16090,0,0,0,
2026-04-15 08:54:00,METAR KPNE 150854Z AUTO 00000KT 10SM CLR 18/16 A2994 RMK AO2 SLP138 T01830156 53003 TSNO,0,0.0,0,16090,1,0,0,TS
2026-04-15 07:54:00,METAR KPNE 150754Z AUTO 22003KT 10SM CLR 18/16 A2993 RMK AO2 SLP134 T01830156 TSNO,0,3.0,0,16090,1,0,0,TS
2026-04-15 06:54:00,METAR KPNE 150654Z AUTO 22003KT 10SM CLR 19/16 A2992 RMK AO2 SLP131 T01940156 TSNO,0,3.0,0,16090,1,0,0,TS
2026-04-15 05:54:00,METAR KPNE 150554Z AUTO 26006KT 10SM FEW120 20/16 A2994 RMK AO2 SLP135 60009 T02000161 10278 20200 51001 TSNO,0,6.0,0,16090,1,0,0,TS
2026-04-15 04:54:00,METAR KPNE 150454Z AUTO 26005KT 10SM FEW100 SCT120 21/17 A2993 RMK AO2 RAE30 SLP135 P0007 T02060167 403000167 TSNO,0,5.0,0,16090,1,0,0,TS
2026-04-15 03:54:00,METAR KPNE 150354Z AUTO 25012G23KT 10SM -RA OVC110 22/16 A2995 RMK AO2 PK WND 27031/0323 RAB43 SLP139 P0002 T02220161 TSNO,0,12.0,1,16090,1,0,0,"-RA,TS"
2026-04-15 02:54:00,METAR KPNE 150254Z AUTO 28008KT 10SM CLR 25/13 A2993 RMK AO2 SLP134 T02500128 51018 TSNO,0,8.0,0,16090,1,0,0,TS
2026-04-15 01:54:00,METAR KPNE 150154Z AUTO 25009KT 10SM CLR 26/13 A2991 RMK AO2 SLP128 T02560128 TSNO,0,9.0,0,16090,1,0,0,TS
2026-04-15 00:54:00,METAR KPNE 150054Z 22008KT 10SM CLR 27/12 A2990 RMK AO2 SLP123 T02720122,0,8.0,0,16090,0,0,0,
2026-04-14 23:54:00,METAR KPNE 142354Z 22011KT 10SM CLR 28/12 A2988 RMK AO2 SLP116 T02780122 10300 20278 53001,0,11.0,0,16090,0,0,0,
2026-04-14 22:54:00,METAR KPNE 142254Z 22009KT 10SM CLR 29/13 A2987 RMK AO2 SLP114 T02890128,0,9.0,0,16090,0,0,0,
2026-04-14 21:54:00,METAR KPNE 142154Z 24015G22KT 10SM CLR 29/13 A2987 RMK AO2 SLP113 T02940128,0,15.0,1,16090,0,0,0,
2026-04-14 20:54:00,METAR KPNE 142054Z 21010KT 10SM FEW070 30/13 A2988 RMK AO2 SLP115 T03000128 58026,0,10.0,0,16090,0,0,0,
2026-04-14 19:54:00,METAR KPNE 141954Z 22011KT 10SM CLR 29/13 A2991 RMK AO2 SLP127 T02940133,0,11.0,0,16090,0,0,0,
2026-04-14 18:54:00,METAR KPNE 141854Z 23011G17KT 10SM CLR 29/13 A2993 RMK AO2 SLP134 T02890133,0,11.0,1,16090,0,0,0,
2026-04-14 17:54:00,METAR KPNE 141754Z 21014G23KT 10SM CLR 28/12 A2995 RMK AO2 SLP141 T02830122 10294 20200 56024,0,14.0,1,16090,0,0,0,
2026-04-14 16:54:00,METAR KPNE 141654Z 26012G17KT 10SM CLR 29/13 A2997 RMK AO2 SLP148 T02940133,0,12.0,1,16090,0,0,0,
2026-04-14 15:54:00,METAR KPNE 141554Z 25009KT 10SM CLR 28/13 A3000 RMK AO2 SLP157 T02830133,0,9.0,0,16090,0,0,0,
2026-04-14 14:54:00,METAR KPNE 141454Z 26005KT 10SM CLR 27/13 A3002 RMK AO2 SLP165 T02670128 58008,0,5.0,0,16090,0,0,0,
2026-04-14 13:54:00,METAR KPNE 141354Z 25006KT 10SM CLR 26/14 A3004 RMK AO2 SLP169 T02610144,0,6.0,0,16090,0,0,0,
2026-04-14 12:54:00,METAR KPNE 141254Z 26005KT 10SM CLR 23/13 A3004 RMK AO2 SLP171 T02280133,0,5.0,0,16090,0,0,0,
2026-04-14 11:54:00,METAR KPNE 141154Z 25007KT 10SM CLR 20/12 A3005 RMK AO2 SLP174 T02000122 10211 20167 53014,0,7.0,0,16090,0,0,0,
2026-04-14 10:54:00,METAR KPNE 141054Z 23005KT 10SM CLR 18/12 A3003 RMK AO2 SLP168 T01780117,0,5.0,0,16090,0,0,0,
2026-04-14 09:54:00,METAR KPNE 140954Z 25005KT 10SM CLR 17/11 A3001 RMK AO2 SLP163 T01670111,0,5.0,0,16090,0,0,0,
2026-04-14 08:54:00,METAR KPNE 140854Z 24007KT 10SM CLR 18/12 A3001 RMK AO2 SLP160 T01830117 55002,0,7.0,0,16090,0,0,0,
2026-04-14 07:54:00,METAR KPNE 140754Z 21003KT 10SM CLR 19/11 A3000 RMK AO2 SLP158 T01940111,0,3.0,0,16090,0,0,0,
2026-04-14 06:54:00,METAR KPNE 140654Z 23006KT 10SM OVC110 20/12 A3001 RMK AO2 SLP160 T02000117,0,6.0,0,16090,0,0,0,
2026-04-14 05:54:00,METAR KPNE 140554Z 22005KT 10SM FEW120 21/12 A3001 RMK AO2 SLP162 T02110117 10250 20211 58006,0,5.0,0,16090,0,0,0,
2026-04-14 04:54:00,METAR KPNE 140454Z 20003KT 10SM OVC100 23/12 A3003 RMK AO2 SLP166 T02280117 402670089,0,3.0,0,16090,0,0,0,
2026-04-14 03:54:00,METAR KPNE 140354Z 27007KT 10SM FEW075 BKN100 22/12 A3004 RMK AO2 SLP172 T02220117,0,7.0,0,16090,0,0,0,
2026-04-14 02:54:00,METAR KPNE 140254Z 24004KT 10SM SCT075 BKN095 BKN120 23/12 A3003 RMK AO2 SLP169 T02280122 53016,0,4.0,0,16090,0,0,0,
2026-04-14 01:54:00,METAR KPNE 140154Z 21009KT 10SM FEW080 SCT120 23/11 A3001 RMK AO2 SLP160 T02330111,0,9.0,0,16090,0,0,0,
2026-04-14 00:54:00,METAR KPNE 140054Z 21008KT 10SM CLR 24/11 A3000 RMK AO2 SLP159 T02390111,0,8.0,0,16090,0,0,0,
2026-04-13 23:54:00,METAR KPNE 132354Z 23011G17KT 10SM CLR 24/11 A2998 RMK AO2 SLP153 T02440111 10267 20239 55002,0,11.0,1,16090,0,0,0,
2026-04-13 22:54:00,METAR KPNE 132254Z 23011G22KT 10SM CLR 26/11 A2998 RMK AO2 PK WND 22027/2208 SLP152 T02560111,0,11.0,1,16090,0,0,0,
2026-04-13 21:54:00,METAR KPNE 132154Z 23015G24KT 10SM CLR 26/12 A2998 RMK AO2 PK WND 21029/2112 SLP152 T02610117,0,15.0,1,16090,0,0,0,
2026-04-13 20:54:00,METAR KPNE 132054Z 23016G26KT 10SM CLR 26/12 A2999 RMK AO2 PK WND 21028/2015 SLP155 T02560122 56016,0,16.0,1,16090,0,0,0,
2026-04-13 19:54:00,METAR KPNE 131954Z 23014G22KT 10SM CLR 26/13 A3000 RMK AO2 SLP160 T02560133,0,14.0,1,16090,0,0,0,
2026-04-13 18:54:00,METAR KPNE 131854Z 22010G20KT 10SM OVC100 24/14 A3002 RMK AO2 PK WND 21026/1830 SLP166 T02390139,0,10.0,1,16090,0,0,0,
2026-04-13 17:54:00,METAR KPNE 131754Z 23011G19KT 10SM OVC100 24/14 A3004 RMK AO2 PK WND 23030/1655 SLP171 T02390139 10244 20133 56021,0,11.0,1,16090,0,0,0,
2026-04-13 16:54:00,METAR KPNE 131654Z 23017G26KT 10SM CLR 24/14 A3005 RMK AO2 PK WND 23026/1654 SLP176 T02440144,0,17.0,1,16090,0,0,0,
2026-04-13 15:54:00,METAR KPNE 131554Z 22011G20KT 10SM CLR 23/15 A3007 RMK AO2 PK WND 23027/1533 SLP183 T02280150,0,11.0,1,16090,0,0,0,
2026-04-13 14:54:00,METAR KPNE 131454Z 21016G24KT 10SM CLR 21/15 A3010 RMK AO2 SLP192 T02060150 56026,0,16.0,1,16090,0,0,0,
2026-04-13 13:54:00,METAR KPNE 131354Z 22013G20KT 10SM FEW016 19/15 A3012 RMK AO2 SLP200 T01940150,0,13.0,1,16090,0,0,0,
2026-04-13 12:54:00,METAR KPNE 131254Z 21008KT 10SM FEW016 SCT110 17/13 A3015 RMK AO2 SLP208 T01670128,0,8.0,0,16090,0,0,0,
2026-04-13 12:32:00,SPECI KPNE 131232Z 20005KT 10SM SCT016 BKN110 15/12 A3016 RMK AO2 T01500117 ,0,5.0,0,16090,0,0,0,
2026-04-13 11:54:00,METAR KPNE 131154Z 00000KT 10SM OVC016 13/09 A3018 RMK AO2 SLP218 T01330094 10133 20089 55006,0,0.0,0,16090,0,0,0,
2026-04-13 10:54:00,METAR KPNE 131054Z 00000KT 10SM OVC016 11/08 A3017 RMK AO2 SLP217 T01110078,0,0.0,0,16090,0,0,0,
2026-04-13 09:54:00,METAR KPNE 130954Z AUTO 00000KT 10SM BKN019 10/07 A3017 RMK AO2 SLP217 T01000067 TSNO,0,0.0,0,16090,1,0,0,TS
2026-04-13 08:54:00,METAR KPNE 130854Z AUTO 00000KT 10SM OVC019 10/06 A3019 RMK AO2 SLP224 T01000061 56025 TSNO,0,0.0,0,16090,1,0,0,TS
2026-04-13 08:15:00,SPECI KPNE 130815Z AUTO 00000KT 10SM BKN023 10/06 A3020 RMK AO2 T01000056 TSNO ,0,0.0,0,16090,1,0,0,TS
2026-04-13 07:54:00,METAR KPNE 130754Z AUTO 00000KT 10SM CLR 09/06 A3021 RMK AO2 SLP229 T00940056 TSNO,0,0.0,0,16090,1,0,0,TS
2026-04-13 06:54:00,METAR KPNE 130654Z AUTO 00000KT 10SM CLR 09/05 A3024 RMK AO2 SLP240 T00940050 TSNO,0,0.0,0,16090,1,0,0,TS
2026-04-13 05:54:00,METAR KPNE 130554Z AUTO 13003KT 10SM CLR 09/04 A3027 RMK AO2 SLP249 T00940044 10139 20094 58022 TSNO,0,3.0,0,16090,1,0,0,TS
2026-04-13 04:54:00,METAR KPNE 130454Z AUTO 00000KT 10SM CLR 10/04 A3030 RMK AO2 SLP258 T01000044 402000050 TSNO,0,0.0,0,16090,1,0,0,TS
2026-04-13 03:54:00,METAR KPNE 130354Z AUTO 18004KT 10SM CLR 11/03 A3032 RMK AO2 SLP266 T01060033 TSNO,0,4.0,0,16090,1,0,0,TS
2026-04-13 02:54:00,METAR KPNE 130254Z AUTO 16003KT 10SM CLR 11/03 A3033 RMK AO2 SLP271 T01110028 58007 TSNO,0,3.0,0,16090,1,0,0,TS
2026-04-13 01:54:00,METAR KPNE 130154Z VRB03KT 10SM CLR 12/02 A3035 RMK AO2 SLP277 T01170022,0,3.0,0,16090,0,0,0,
2026-04-13 00:54:00,METAR KPNE 130054Z VRB05KT 10SM CLR 13/02 A3036 RMK AO2 SLP279 T01280017,0,5.0,0,16090,0,0,0,
2026-04-12 23:54:00,METAR KPNE 122354Z VRB06KT 10SM CLR 14/01 A3035 RMK AO2 SLP278 T01390006 10200 20139 55001,0,6.0,0,16090,0,0,0,
2026-04-12 22:54:00,METAR KPNE 122254Z 17007KT 10SM CLR 16/01 A3034 RMK AO2 SLP275 T01610011,0,7.0,0,16090,0,0,0,
2026-04-12 21:54:00,METAR KPNE 122154Z 18008G15KT 10SM CLR 18/01 A3035 RMK AO2 SLP275 T01830011,0,8.0,1,16090,0,0,0,
2026-04-12 20:54:00,METAR KPNE 122054Z 19007G15KT 10SM CLR 19/01 A3036 RMK AO2 SLP279 T01890011 56032,0,7.0,1,16090,0,0,0,
2026-04-12 19:54:00,METAR KPNE 121954Z 10SM CLR 19/01 A3038 RMK AO2 SLP287 T01890011,0,,0,16090,0,0,0,
2026-04-12 18:54:00,METAR KPNE 121854Z 20008KT 150V230 10SM CLR 18/02 A3041 RMK AO2 SLP296 T01830017,0,8.0,0,16090,0,0,0,
2026-04-12 17:54:00,METAR KPNE 121754Z 15007G16KT 10SM CLR 17/02 A3045 RMK AO2 SLP311 T01720017 10172 20083 56027,0,7.0,1,16090,0,0,0,
2026-04-12 16:54:00,METAR KPNE 121654Z 10SM CLR 16/01 A3048 RMK AO2 SLP320 T01560006,0,,0,16090,0,0,0,
2026-04-12 15:54:00,METAR KPNE 121554Z 10007KT 10SM CLR 14/01 A3050 RMK AO2 SLP328 T01390006,0,7.0,0,16090,0,0,0,
2026-04-12 14:54:00,METAR KPNE 121454Z 12004KT 10SM CLR 12/M01 A3053 RMK AO2 SLP339 T01221011 50002,0,4.0,0,16090,0,0,0,
2026-04-12 13:54:00,METAR KPNE 121354Z VRB05KT 10SM CLR 11/M01 A3054 RMK AO2 SLP341 T01111011,0,5.0,0,16090,0,0,0,
2026-04-12 12:54:00,METAR KPNE 121254Z 08008KT 10SM CLR 10/M02 A3053 RMK AO2 SLP339 T01001017,0,8.0,0,16090,0,0,0,
2026-04-12 11:54:00,METAR KPNE 121154Z 09008KT 10SM CLR 08/M01 A3053 RMK AO2 SLP337 T00831011 10089 20050 51020,0,8.0,0,16090,0,0,0,
2026-04-12 10:54:00,METAR KPNE 121054Z 00000KT 10SM CLR 06/M03 A3052 RMK AO2 SLP334 T00561028,0,0.0,0,16090,0,0,0,
2026-04-12 09:54:00,METAR KPNE 120954Z 10003KT 10SM CLR 06/M03 A3049 RMK AO2 SLP326 T00611028,0,3.0,0,16090,0,0,0,
2026-04-12 08:54:00,METAR KPNE 120854Z AUTO 02006KT 10SM CLR 06/M02 A3047 RMK AO2 SLP317 T00611022 53012 TSNO,0,6.0,0,16090,1,0,0,TS
2026-04-12 07:54:00,METAR KPNE 120754Z AUTO 01004KT 10SM CLR 07/M02 A3046 RMK AO2 SLP315 T00671022 TSNO,0,4.0,0,16090,1,0,0,TS
2026-04-12 06:54:00,METAR KPNE 120654Z AUTO 02003KT 10SM CLR 08/M02 A3044 RMK AO2 SLP307 T00781022 TSNO,0,3.0,0,16090,1,0,0,TS
2026-04-12 05:54:00,METAR KPNE 120554Z AUTO 03007KT 10SM CLR 08/M02 A3043 RMK AO2 SLP305 T00831017 10144 20078 51020 TSNO,0,7.0,0,16090,1,0,0,TS
2026-04-12 04:54:00,METAR KPNE 120454Z AUTO 04007KT 10SM CLR 08/M02 A3041 RMK AO2 SLP299 T00831017 401890083 TSNO,0,7.0,0,16090,1,0,0,TS
2026-04-12 03:54:00,METAR KPNE 120354Z AUTO 04006KT 10SM CLR 09/M02 A3040 RMK AO2 SLP295 T00941017 TSNO,0,6.0,0,16090,1,0,0,TS
2026-04-12 02:54:00,METAR KPNE 120254Z 00000KT 10SM CLR 10/M01 A3038 RMK AO2 SLP286 T01001011 51021,0,0.0,0,16090,0,0,0,
2026-04-12 01:54:00,METAR KPNE 120154Z 00000KT 10SM CLR 12/M02 A3036 RMK AO2 SLP282 T01221022,0,0.0,0,16090,0,0,0,
2026-04-12 00:54:00,METAR KPNE 120054Z 05004KT 10SM CLR 13/M02 A3034 RMK AO2 SLP275 T01331017,0,4.0,0,16090,0,0,0,
2026-04-11 23:54:00,METAR KPNE 112354Z 04003KT 10SM CLR 14/M01 A3031 RMK AO2 SLP264 T01441011 10189 20139 51013,0,3.0,0,16090,0,0,0,
2026-04-11 22:54:00,METAR KPNE 112254Z 35010KT 10SM CLR 17/M01 A3030 RMK AO2 SLP260 T01721011,0,10.0,0,16090,0,0,0,
2026-04-11 21:54:00,METAR KPNE 112154Z 32011KT 10SM CLR 18/M02 A3029 RMK AO2 SLP257 T01781022,0,11.0,0,16090,0,0,0,
2026-04-11 20:54:00,METAR KPNE 112054Z 33007G19KT 10SM CLR 18/M01 A3028 RMK AO2 SLP252 T01781011 55003,0,7.0,1,16090,0,0,0,
2026-04-11 19:54:00,METAR KPNE 111954Z 02013KT 10SM CLR 18/M01 A3027 RMK AO2 SLP249 T01781011,0,13.0,0,16090,0,0,0,
2026-04-11 18:54:00,METAR KPNE 111854Z 33012G21KT 10SM CLR 18/01 A3027 RMK AO2 SLP249 T01830011,0,12.0,1,16090,0,0,0,
2026-04-11 17:54:00,METAR KPNE 111754Z 32011G20KT 10SM CLR 17/02 A3029 RMK AO2 SLP255 T01720022 10172 20117 58004,0,11.0,1,16090,0,0,0,
2026-04-11 16:54:00,METAR KPNE 111654Z 34015G23KT 10SM CLR 16/02 A3029 RMK AO2 SLP257 T01610022,0,15.0,1,16090,0,0,0,
2026-04-11 15:54:00,METAR KPNE 111554Z 34013G20KT 10SM CLR 15/02 A3030 RMK AO2 SLP260 T01500022,0,13.0,1,16090,0,0,0,
2026-04-11 14:54:00,METAR KPNE 111454Z 35014G23KT 10SM CLR 14/03 A3030 RMK AO2 SLP259 T01390028 51016,0,14.0,1,16090,0,0,0,
2026-04-11 13:54:00,METAR KPNE 111354Z 34015G24KT 10SM CLR 13/03 A3029 RMK AO2 PK WND 01027/1310 SLP256 T01330033,0,15.0,1,16090,0,0,0,
2026-04-11 12:54:00,METAR KPNE 111254Z 34012KT 10SM FEW030 12/05 A3027 RMK AO2 SLP250 T01220050,0,12.0,0,16090,0,0,0,
2026-04-11 11:54:00,METAR KPNE 111154Z 34010G22KT 10SM SCT041 12/04 A3025 RMK AO2 PK WND 33026/1115 SLP242 T01170044 10133 20100 53040,0,10.0,1,16090,0,0,0,
2026-04-11 10:54:00,METAR KPNE 111054Z 33010KT 10SM CLR 12/06 A3021 RMK AO2 SLP229 T01220061,0,10.0,0,16090,0,0,0,
2026-04-11 09:54:00,METAR KPNE 110954Z 33007KT 10SM SCT040 12/08 A3015 RMK AO2 SLP209 T01220083,0,7.0,0,16090,0,0,0,
2026-04-11 08:54:00,METAR KPNE 110854Z 27004KT 10SM CLR 12/08 A3013 RMK AO2 SLP202 T01170078 53000,0,4.0,0,16090,0,0,0,
2026-04-11 07:54:00,METAR KPNE 110754Z 23004KT 10SM SCT110 13/08 A3012 RMK AO2 SLP200 T01280078,0,4.0,0,16090,0,0,0,
2026-04-11 06:54:00,METAR KPNE 110654Z 22003KT 10SM CLR 13/08 A3012 RMK AO2 SLP200 T01280078,0,3.0,0,16090,0,0,0,
2026-04-11 05:54:00,METAR KPNE 110554Z 17003KT 10SM BKN110 13/07 A3013 RMK AO2 SLP202 T01330072 10189 20128 58008,0,3.0,0,16090,0,0,0,
2026-04-11 04:54:00,METAR KPNE 110454Z 00000KT 10SM FEW120 13/07 A3016 RMK AO2 SLP212 T01330072 402170044,0,0.0,0,16090,0,0,0,
2026-04-11 03:54:00,METAR KPNE 110354Z 29007KT 10SM FEW120 13/07 A3018 RMK AO2 SLP220 T01330067,0,7.0,0,16090,0,0,0,
2026-04-11 02:54:00,METAR KPNE 110254Z 20007KT 10SM CLR 14/06 A3015 RMK AO2 SLP210 T01390061 50002,0,7.0,0,16090,0,0,0,
2026-04-11 01:54:00,METAR KPNE 110154Z 20006KT 10SM CLR 15/05 A3017 RMK AO2 SLP215 T01500050,0,6.0,0,16090,0,0,0,
2026-04-11 00:54:00,METAR KPNE 110054Z 20007G17KT 160V220 10SM CLR 17/05 A3016 RMK AO2 SLP212 T01670050,0,7.0,1,16090,0,0,0,
2026-04-10 23:54:00,METAR KPNE 102354Z 21008G16KT 10SM CLR 19/06 A3015 RMK AO2 SLP208 T01890061 10217 20183 56008,0,8.0,1,16090,0,0,0,
2026-04-10 22:54:00,METAR KPNE 102254Z 21011G19KT 10SM CLR 20/06 A3015 RMK AO2 SLP209 T02000061,0,11.0,1,16090,0,0,0,
2026-04-10 21:54:00,METAR KPNE 102154Z 19009G17KT 10SM CLR 21/07 A3016 RMK AO2 SLP211 T02110067,0,9.0,1,16090,0,0,0,
2026-04-10 20:54:00,METAR KPNE 102054Z 21009KT 10SM CLR 22/06 A3017 RMK AO2 SLP216 T02170056 56036,0,9.0,0,16090,0,0,0,
2026-04-10 19:54:00,METAR KPNE 101954Z 21011KT 10SM CLR 21/04 A3020 RMK AO2 SLP225 T02060044,0,11.0,0,16090,0,0,0,
2026-04-10 18:54:00,METAR KPNE 101854Z 22009G17KT 10SM CLR 19/04 A3023 RMK AO2 SLP237 T01940044,0,9.0,1,16090,0,0,0,
2026-04-10 17:54:00,METAR KPNE 101754Z 10SM CLR 18/06 A3028 RMK AO2 SLP252 T01830056 10183 20067 58029,0,,0,16090,0,0,0,
2026-04-10 16:54:00,METAR KPNE 101654Z 21009KT 10SM CLR 17/06 A3031 RMK AO2 SLP263 T01670061,0,9.0,0,16090,0,0,0,
2026-04-10 15:54:00,METAR KPNE 101554Z 22008KT 10SM CLR 14/04 A3034 RMK AO2 SLP274 T01440044,0,8.0,0,16090,0,0,0,
2026-04-10 14:54:00,METAR KPNE 101454Z 21006KT 10SM CLR 12/05 A3037 RMK AO2 SLP283 T01220050 56018,0,6.0,0,16090,0,0,0,
2026-04-10 13:54:00,METAR KPNE 101354Z 21005KT 10SM CLR 10/05 A3038 RMK AO2 SLP289 T01000050,0,5.0,0,16090,0,0,0,
2026-04-10 12:54:00,METAR KPNE 101254Z VRB03KT 9SM SCT011 08/05 A3040 RMK AO2 SLP295 T00830050,0,3.0,0,14481,0,0,0,
2026-04-10 12:18:00,SPECI KPNE 101218Z 21003KT 8SM OVC010 07/04 A3042 RMK AO2 T00720044 ,0,3.0,0,12872,0,0,0,
2026-04-10 11:54:00,METAR KPNE 101154Z VRB03KT 7SM OVC009 07/04 A3042 RMK AO2 SLP301 T00670044 10067 20050 53002,0,3.0,0,11263,0,0,0,
2026-04-10 10:54:00,METAR KPNE 101054Z 00000KT 6SM BR OVC007 06/04 A3041 RMK AO2 SLP296 T00610044,0,0.0,0,9654,0,0,1,BR
2026-04-10 09:54:00,METAR KPNE 100954Z AUTO 19004KT 8SM OVC008 06/04 A3040 RMK AO2 SLP294 T00610039 TSNO,0,4.0,0,12872,1,0,0,TS
2026-04-10 09:36:00,SPECI KPNE 100936Z AUTO 26003KT 9SM OVC009 06/04 A3040 RMK AO2 T00610039 TSNO ,0,3.0,0,14481,1,0,0,TS
2026-04-10 08:54:00,METAR KPNE 100854Z 00000KT 10SM OVC009 06/03 A3041 RMK AO2 SLP298 T00560033 56010,0,0.0,0,16090,0,0,0,
2026-04-10 07:54:00,METAR KPNE 100754Z 18003KT 10SM OVC009 06/03 A3042 RMK AO2 SLP299 T00560033,0,3.0,0,16090,0,0,0,
2026-04-10 07:01:00,SPECI KPNE 100701Z 00000KT 10SM OVC009 06/03 A3043 RMK AO2 T00560033 ,0,0.0,0,16090,0,0,0,
2026-04-10 06:54:00,METAR KPNE 100654Z 00000KT 10SM OVC010 06/04 A3043 RMK AO2 SLP304 T00560039,0,0.0,0,16090,0,0,0,
2026-04-10 06:24:00,SPECI KPNE 100624Z 00000KT 10SM BKN011 05/03 A3043 RMK AO2 T00500033 ,0,0.0,0,16090,0,0,0,
2026-04-10 05:54:00,METAR KPNE 100554Z 00000KT 10SM CLR 05/03 A3044 RMK AO2 SLP310 T00500033 10111 20044 58010,0,0.0,0,16090,0,0,0,
2026-04-10 04:54:00,METAR KPNE 100454Z 16003KT 10SM CLR 06/03 A3046 RMK AO2 SLP316 T00560033 401611011,0,3.0,0,16090,0,0,0,
2026-04-10 03:54:00,METAR KPNE 100354Z VRB03KT 10SM CLR 06/03 A3047 RMK AO2 SLP319 T00560028,0,3.0,0,16090,0,0,0,
2026-04-10 02:54:00,METAR KPNE 100254Z 15006KT 10SM CLR 06/03 A3047 RMK AO2 SLP319 T00610033 50005,0,6.0,0,16090,0,0,0,
2026-04-10 01:54:00,METAR KPNE 100154Z 16004KT 10SM CLR 07/03 A3049 RMK AO2 SLP324 T00720028,0,4.0,0,16090,0,0,0,
2026-04-10 00:54:00,METAR KPNE 100054Z 14008G15KT 10SM CLR 09/02 A3047 RMK AO2 SLP319 T00890022,0,8.0,1,16090,0,0,0,
2026-04-09 23:54:00,METAR KPNE 092354Z 14009G15KT 10SM CLR 11/02 A3046 RMK AO2 SLP315 T01110017 10161 20111 55000,0,9.0,1,16090,0,0,0,
2026-04-09 22:54:00,METAR KPNE 092254Z 15010G14KT 10SM CLR 14/01 A3045 RMK AO2 SLP312 T01390011,0,10.0,1,16090,0,0,0,
2026-04-09 21:54:00,METAR KPNE 092154Z VRB05KT 10SM CLR 16/00 A3046 RMK AO2 SLP313 T01560000,0,5.0,0,16090,0,0,0,
2026-04-09 20:54:00,METAR KPNE 092054Z 21010KT 10SM CLR 16/00 A3046 RMK AO2 SLP315 T01610000 56026,0,10.0,0,16090,0,0,0,
2026-04-09 19:54:00,METAR KPNE 091954Z AUTO 21007KT 10SM CLR 16/M01 A3048 RMK AO2 SLP323 T01561011 TSNO,0,7.0,0,16090,1,0,0,TS
2026-04-09 18:54:00,METAR KPNE 091854Z AUTO VRB06G16KT 10SM CLR 14/M02 A3051 RMK AO2 SLP332 T01441017 TSNO,0,6.0,1,16090,1,0,0,TS
2026-04-09 17:54:00,METAR KPNE 091754Z AUTO 10SM CLR 13/M01 A3054 RMK AO2 SLP342 T01331006 10133 20022 58026 TSNO,0,,0,16090,1,0,0,TS
2026-04-09 16:54:00,METAR KPNE 091654Z AUTO 10SM CLR 12/00 A3057 RMK AO2 SLP351 T01170000 TSNO,0,,0,16090,1,0,0,TS
2026-04-09 15:54:00,METAR KPNE 091554Z AUTO VRB05KT 10SM CLR 10/01 A3060 RMK AO2 SLP362 T01000011 TSNO,0,5.0,0,16090,1,0,0,TS
2026-04-09 14:54:00,METAR KPNE 091454Z AUTO 10SM CLR 08/01 A3061 RMK AO2 SLP367 T00830011 58007 TSNO,0,,0,16090,1,0,0,TS
2026-04-09 13:54:00,METAR KPNE 091354Z AUTO 10SM CLR 06/01 A3063 RMK AO2 SLP371 T00610006 TSNO,0,,0,16090,1,0,0,TS
2026-04-09 13:43:00,SPECI KPNE 091343Z AUTO 15004KT 10SM SCT018 06/01 A3063 RMK AO2 T00560006 TSNO ,0,4.0,0,16090,1,0,0,TS
2026-04-09 12:54:00,METAR KPNE 091254Z AUTO VRB05KT 10SM OVC017 04/01 A3064 RMK AO2 SLP375 T00440006 TSNO,0,5.0,0,16090,1,0,0,TS
2026-04-09 11:54:00,METAR KPNE 091154Z AUTO 10SM OVC017 02/00 A3064 RMK AO2 SLP375 T00220000 10022 21011 53014 TSNO,0,,0,16090,1,0,0,TS
2026-04-09 11:07:00,SPECI KPNE 091107Z AUTO 00000KT 10SM BKN017 00/M02 A3062 RMK AO2 T00001022 TSNO ,0,0.0,0,16090,1,0,0,TS
2026-04-09 10:54:00,METAR KPNE 091054Z AUTO 00000KT 10SM FEW016 M01/M03 A3062 RMK AO2 SLP369 T10111028 TSNO,0,0.0,0,16090,1,0,0,TS
2026-04-09 09:54:00,METAR KPNE 090954Z AUTO 06003KT 10SM CLR M01/M03 A3060 RMK AO2 SLP364 T10111028 TSNO,0,3.0,0,16090,1,0,0,TS
2026-04-09 08:54:00,METAR KPNE 090854Z AUTO 00000KT 10SM CLR M01/M03 A3060 RMK AO2 SLP361 T10061028 56006 TSNO,0,0.0,0,16090,1,0,0,TS
2026-04-09 07:54:00,METAR KPNE 090754Z AUTO 00000KT 10SM CLR 00/M03 A3060 RMK AO2 SLP361 T00001028 TSNO,0,0.0,0,16090,1,0,0,TS
2026-04-09 06:54:00,METAR KPNE 090654Z AUTO 00000KT 10SM CLR 01/M02 A3060 RMK AO2 SLP361 T00111017 TSNO,0,0.0,0,16090,1,0,0,TS
2026-04-09 05:54:00,METAR KPNE 090554Z AUTO 00000KT 10SM CLR 02/M02 A3061 RMK AO2 SLP367 T00171017 10072 20017 58005 TSNO,0,0.0,0,16090,1,0,0,TS
2026-04-09 04:54:00,METAR KPNE 090454Z AUTO 00000KT 10SM CLR 02/M02 A3063 RMK AO2 SLP373 T00221017 401171022 TSNO,0,0.0,0,16090,1,0,0,TS
2026-04-09 03:54:00,METAR KPNE 090354Z AUTO 19003KT 10SM CLR 03/M02 A3064 RMK AO2 SLP375 T00331022 TSNO,0,3.0,0,16090,1,0,0,TS
2026-04-09 02:54:00,METAR KPNE 090254Z AUTO 17004KT 10SM CLR 03/M04 A3063 RMK AO2 SLP372 T00331039 51017 TSNO,0,4.0,0,16090,1,0,0,TS
2026-04-09 01:54:00,METAR KPNE 090154Z 15006KT 10SM CLR 04/M06 A3063 RMK AO2 SLP372 T00441061,0,6.0,0,16090,0,0,0,
2026-04-09 00:54:00,METAR KPNE 090054Z 13009KT 10SM CLR 06/M05 A3061 RMK AO2 SLP365 T00561050,0,9.0,0,16090,0,0,0,
2026-04-08 23:54:00,METAR KPNE 082354Z 12012KT 10SM CLR 07/M04 A3058 RMK AO2 SLP355 T00721039 10117 20072 53003,0,12.0,0,16090,0,0,0,
2026-04-08 22:54:00,METAR KPNE 082254Z 12013KT 10SM CLR 09/M04 A3057 RMK AO2 SLP352 T00941044,0,13.0,0,16090,0,0,0,
2026-04-08 21:54:00,METAR KPNE 082154Z 10SM CLR 11/M09 A3057 RMK AO2 SLP351 T01111089,0,,0,16090,0,0,0,
2026-04-08 20:54:00,METAR KPNE 082054Z 10SM CLR 11/M09 A3057 RMK AO2 SLP352 T01061089 56013,0,,0,16090,0,0,0,
2026-04-08 19:54:00,METAR KPNE 081954Z 10SM CLR 11/M09 A3058 RMK AO2 SLP355 T01061089,0,,0,16090,0,0,0,
2026-04-08 18:54:00,METAR KPNE 081854Z 02004KT 10SM CLR 11/M08 A3059 RMK AO2 SLP359 T01061078,0,4.0,0,16090,0,0,0,
2026-04-08 17:54:00,METAR KPNE 081754Z 21003KT 10SM CLR 08/M09 A3061 RMK AO2 SLP365 T00781089 10089 20006 58016,0,3.0,0,16090,0,0,0,
2026-04-08 16:54:00,METAR KPNE 081654Z 10SM CLR 08/M07 A3063 RMK AO2 SLP372 T00781072,0,,0,16090,0,0,0,
2026-04-08 15:54:00,METAR KPNE 081554Z VRB04KT 10SM CLR 07/M08 A3065 RMK AO2 SLP378 T00671083,0,4.0,0,16090,0,0,0,
2026-04-08 14:54:00,METAR KPNE 081454Z 10SM CLR 05/M09 A3065 RMK AO2 SLP381 T00501094 51013,0,,0,16090,0,0,0,
2026-04-08 13:54:00,METAR KPNE 081354Z 05009KT 10SM CLR 03/M10 A3064 RMK AO2 SLP378 T00331100,0,9.0,0,16090,0,0,0,
2026-04-08 12:54:00,METAR KPNE 081254Z 06011KT 10SM CLR 02/M10 A3063 RMK AO2 SLP374 T00171100,0,11.0,0,16090,0,0,0,
2026-04-08 11:54:00,METAR KPNE 081154Z 03010KT 10SM CLR 01/M10 A3062 RMK AO2 SLP368 T00061100 10006 21022 53020,0,10.0,0,16090,0,0,0,
2026-04-08 10:54:00,METAR KPNE 081054Z 03006KT 10SM CLR M02/M09 A3059 RMK AO2 SLP361 T10171089,0,6.0,0,16090,0,0,0,
2026-04-08 09:54:00,METAR KPNE 080954Z 04005KT 10SM CLR M02/M09 A3057 RMK AO2 SLP352 T10221089,0,5.0,0,16090,0,0,0,
2026-04-08 08:54:00,METAR KPNE 080854Z 02008KT 10SM CLR M01/M09 A3056 RMK AO2 SLP348 T10111089 53006,0,8.0,0,16090,0,0,0,
2026-04-08 07:54:00,METAR KPNE 080754Z 01007KT 10SM CLR M01/M09 A3054 RMK AO2 SLP342 T10061089,0,7.0,0,16090,0,0,0,
2026-04-08 06:54:00,METAR KPNE 080654Z 01006KT 10SM CLR M01/M09 A3053 RMK AO2 SLP340 T10061089,0,6.0,0,16090,0,0,0,
2026-04-08 05:54:00,METAR KPNE 080554Z 01006KT 10SM CLR 01/M09 A3054 RMK AO2 SLP342 T00061089 10072 20006 51014,0,6.0,0,16090,0,0,0,
2026-04-08 04:54:00,METAR KPNE 080454Z 02008KT 10SM CLR 01/M09 A3053 RMK AO2 SLP338 T00111089 401280011,0,8.0,0,16090,0,0,0,
2026-04-08 03:54:00,METAR KPNE 080354Z 02006KT 10SM CLR 03/M10 A3052 RMK AO2 SLP336 T00281100,0,6.0,0,16090,0,0,0,
2026-04-08 02:54:00,METAR KPNE 080254Z 35008KT 10SM CLR 03/M10 A3050 RMK AO2 SLP328 T00331100 51033,0,8.0,0,16090,0,0,0,
2026-04-08 01:54:00,METAR KPNE 080154Z 01010KT 10SM CLR 04/M10 A3047 RMK AO2 SLP319 T00441100,0,10.0,0,16090,0,0,0,
2026-04-08 00:54:00,METAR KPNE 080054Z 36011KT 10SM CLR 06/M09 A3044 RMK AO2 SLP307 T00561094,0,11.0,0,16090,0,0,0,
2026-04-07 23:54:00,METAR KPNE 072354Z 35009KT 10SM CLR 07/M10 A3040 RMK AO2 WSHFT 2302 SLP295 T00721100 10128 20072 51039,0,9.0,0,16090,0,0,0,
2026-04-07 23:22:00,SPECI KPNE 072322Z 35011G20KT 10SM CLR 08/M11 A3038 RMK AO2 WSHFT 2302 T00831106 ,0,11.0,1,16090,0,0,0,
2026-04-07 22:54:00,METAR KPNE 072254Z 30011G16KT 10SM CLR 09/M11 A3037 RMK AO2 SLP283 T00891106,0,11.0,1,16090,0,0,0,
2026-04-07 21:54:00,METAR KPNE 072154Z 33015G22KT 10SM CLR 11/M11 A3032 RMK AO2 PK WND 30028/2057 SLP268 T01061106,0,15.0,1,16090,0,0,0,
2026-04-07 20:54:00,METAR KPNE 072054Z 31019G29KT 10SM CLR 11/M11 A3028 RMK AO2 PK WND 32030/2000 SLP255 T01111106 53014,0,19.0,1,16090,0,0,0,
2026-04-07 19:54:00,METAR KPNE 071954Z 32015G28KT 10SM CLR 12/M11 A3027 RMK AO2 PK WND 32033/1928 SLP250 T01171106,0,15.0,1,16090,0,0,0,
2026-04-07 18:54:00,METAR KPNE 071854Z 31016G26KT 10SM CLR 12/M07 A3025 RMK AO2 PK WND 29029/1756 SLP242 T01221067,0,16.0,1,16090,0,0,0,
2026-04-07 17:54:00,METAR KPNE 071754Z 32015G26KT 10SM CLR 12/M07 A3024 RMK AO2 PK WND 33030/1737 SLP240 T01221072 10128 20094 51012,0,15.0,1,16090,0,0,0,
2026-04-07 16:54:00,METAR KPNE 071654Z 28016G26KT 10SM FEW070 12/M04 A3023 RMK AO2 PK WND 27026/1642 SLP237 T01221039,0,16.0,1,16090,0,0,0,
2026-04-07 15:54:00,METAR KPNE 071554Z 29010G19KT 10SM SCT065 12/M04 A3022 RMK AO2 PK WND 29029/1531 SLP234 T01171039,0,10.0,1,16090,0,0,0,
2026-04-07 14:54:00,METAR KPNE 071454Z 31014G25KT 10SM FEW060 12/M03 A3021 RMK AO2 SLP228 T01171028 53014,0,14.0,1,16090,0,0,0,
2026-04-07 13:54:00,METAR KPNE 071354Z 27015G25KT 10SM BKN055 12/M02 A3019 RMK AO2 PK WND 28028/1343 SLP223 T01171022,0,15.0,1,16090,0,0,0,
2026-04-07 12:54:00,METAR KPNE 071254Z 29014G21KT 10SM CLR 10/M01 A3018 RMK AO2 PK WND 31026/1212 SLP219 T01001011,0,14.0,1,16090,0,0,0,
2026-04-07 11:54:00,METAR KPNE 071154Z 27008G15KT 10SM CLR 09/M01 A3017 RMK AO2 SLP215 T00941006 10100 20072 53021,0,8.0,1,16090,0,0,0,
2026-04-07 10:54:00,METAR KPNE 071054Z 25005KT 10SM OVC065 09/01 A3014 RMK AO2 SLP207 T00890011,0,5.0,0,16090,0,0,0,
2026-04-07 09:54:00,METAR KPNE 070954Z AUTO 30006KT 10SM BKN060 OVC090 09/01 A3012 RMK AO2 SLP198 T00890006 TSNO,0,6.0,0,16090,1,0,0,TS
2026-04-07 08:54:00,METAR KPNE 070854Z AUTO 29005KT 10SM BKN060 OVC085 08/01 A3011 RMK AO2 SLP194 T00830011 53003 TSNO,0,5.0,0,16090,1,0,0,TS
2026-04-07 07:54:00,METAR KPNE 070754Z AUTO 31003KT 10SM SCT065 BKN085 OVC110 08/01 A3009 RMK AO2 SLP190 T00830011 TSNO,0,3.0,0,16090,1,0,0,TS
2026-04-07 06:54:00,METAR KPNE 070654Z AUTO 00000KT 10SM BKN065 OVC080 09/02 A3010 RMK AO2 SLP191 T00940017 TSNO,0,0.0,0,16090,1,0,0,TS
2026-04-07 05:54:00,METAR KPNE 070554Z AUTO 00000KT 10SM FEW070 BKN085 OVC110 09/01 A3010 RMK AO2 SLP192 T00940006 10117 20078 58001 TSNO,0,0.0,0,16090,1,0,0,TS
2026-04-07 04:54:00,METAR KPNE 070454Z AUTO 34003KT 10SM OVC070 09/02 A3011 RMK AO2 SLP195 T00890017 401440050 TSNO,0,3.0,0,16090,1,0,0,TS
2026-04-07 03:54:00,METAR KPNE 070354Z AUTO 13003KT 10SM FEW075 OVC100 09/01 A3010 RMK AO2 SLP191 T00890006 TSNO,0,3.0,0,16090,1,0,0,TS
2026-04-07 02:54:00,METAR KPNE 070254Z 00000KT 10SM BKN110 10/M01 A3010 RMK AO2 SLP193 T01001011 51010,0,0.0,0,16090,0,0,0,
2026-04-07 01:54:00,METAR KPNE 070154Z 00000KT 10SM BKN100 10/M02 A3010 RMK AO2 SLP193 T01001017,0,0.0,0,16090,0,0,0,
2026-04-07 00:54:00,METAR KPNE 070054Z 00000KT 10SM SCT090 OVC110 11/M01 A3009 RMK AO2 SLP191 T01061011,0,0.0,0,16090,0,0,0,
2026-04-06 23:54:00,METAR KPNE 062354Z 30004KT 10SM SCT095 11/M03 A3007 RMK AO2 SLP184 T01111028 10144 20111 51014,0,4.0,0,16090,0,0,0,
2026-04-06 22:54:00,METAR KPNE 062254Z 27010KT 10SM SCT080 12/M02 A3007 RMK AO2 SLP181 T01221022,0,10.0,0,16090,0,0,0,
2026-04-06 21:54:00,METAR KPNE 062154Z 26012KT 10SM SCT080 OVC095 13/M02 A3005 RMK AO2 SLP177 T01281022,0,12.0,0,16090,0,0,0,
2026-04-06 20:54:00,METAR KPNE 062054Z 27011G17KT 10SM FEW075 BKN095 13/M03 A3003 RMK AO2 SLP169 T01331033 56012,0,11.0,1,16090,0,0,0,
2026-04-06 19:54:00,METAR KPNE 061954Z 26015G24KT 10SM FEW080 14/M03 A3004 RMK AO2 PK WND 30027/1857 SLP170 T01441028,0,15.0,1,16090,0,0,0,
2026-04-06 18:54:00,METAR KPNE 061854Z 30016G23KT 10SM FEW070 14/M04 A3005 RMK AO2 SLP176 T01391039,0,16.0,1,16090,0,0,0,
2026-04-06 17:54:00,METAR KPNE 061754Z 30013G19KT 10SM CLR 13/M03 A3007 RMK AO2 SLP180 T01281033 10128 20067 58014,0,13.0,1,16090,0,0,0,
2026-04-06 16:54:00,METAR KPNE 061654Z 30012G23KT 10SM CLR 12/M03 A3009 RMK AO2 SLP187 T01221033,0,12.0,1,16090,0,0,0,
2026-04-06 15:54:00,METAR KPNE 061554Z 34009G21KT 10SM CLR 12/M03 A3009 RMK AO2 PK WND 34026/1458 WSHFT 1517 SLP190 T01171033,0,9.0,1,16090,0,0,0,
2026-04-06 15:45:00,SPECI KPNE 061545Z 31012G21KT 270V350 10SM CLR 12/M03 A3010 RMK AO2 PK WND 34026/1458 WSHFT 1517 T01171028 ,0,12.0,1,16090,0,0,0,
2026-04-06 15:37:00,SPECI KPNE 061537Z 28015G22KT 10SM CLR 11/M03 A3010 RMK AO2 PK WND 34026/1458 WSHFT 1517 T01061028 ,0,15.0,1,16090,0,0,0,
2026-04-06 14:54:00,METAR KPNE 061454Z 31014G20KT 10SM CLR 10/M03 A3011 RMK AO2 SLP194 T01001033 53007,0,14.0,1,16090,0,0,0,
2026-04-06 13:54:00,METAR KPNE 061354Z 32010KT 10SM CLR 09/M03 A3009 RMK AO2 SLP189 T00941033,0,10.0,0,16090,0,0,0,
2026-04-06 12:54:00,METAR KPNE 061254Z 31010G22KT 10SM CLR 08/M04 A3009 RMK AO2 SLP188 T00781039,0,10.0,1,16090,0,0,0,
2026-04-06 11:54:00,METAR KPNE 061154Z 28006KT 10SM CLR 07/M03 A3009 RMK AO2 SLP189 70022 T00671033 10094 20050 53021,0,6.0,0,16090,0,0,0,
2026-04-06 10:54:00,METAR KPNE 061054Z 29007KT 10SM CLR 06/M04 A3006 RMK AO2 SLP180 T00561039,0,7.0,0,16090,0,0,0,
2026-04-06 09:54:00,METAR KPNE 060954Z AUTO 31008G16KT 10SM CLR 06/M04 A3004 RMK AO2 SLP172 T00561044 TSNO,0,8.0,1,16090,1,0,0,TS
2026-04-06 08:54:00,METAR KPNE 060854Z AUTO 30010G19KT 10SM SCT048 07/M04 A3002 RMK AO2 PK WND 30028/0819 SLP166 T00671039 53012 TSNO,0,10.0,1,16090,1,0,0,TS
2026-04-06 07:54:00,METAR KPNE 060754Z AUTO 32017G27KT 10SM BKN050 09/M02 A3001 RMK AO2 PK WND 31027/0750 SLP160 T00891022 TSNO,0,17.0,1,16090,1,0,0,TS
2026-04-06 06:54:00,METAR KPNE 060654Z AUTO 29015G24KT 10SM OVC055 09/M02 A2999 RMK AO2 SLP155 T00941017 TSNO,0,15.0,1,16090,1,0,0,TS
2026-04-06 05:54:00,METAR KPNE 060554Z AUTO 29011G18KT 10SM BKN060 09/M02 A2999 RMK AO2 SLP154 T00941022 10122 20094 51004 TSNO,0,11.0,1,16090,1,0,0,TS
2026-04-06 04:54:00,METAR KPNE 060454Z AUTO 30019KT 10SM BKN055 10/M02 A2999 RMK AO2 SLP153 T01001017 402170078 TSNO,0,19.0,0,16090,1,0,0,TS
2026-04-06 03:54:00,METAR KPNE 060354Z AUTO 31011G21KT 10SM OVC055 11/01 A2998 RMK AO2 SLP152 T01060006 TSNO,0,11.0,1,16090,1,0,0,TS
2026-04-06 02:54:00,METAR KPNE 060254Z 29010G17KT 10SM OVC055 11/01 A2998 RMK AO2 SLP150 T01060006 51022,0,10.0,1,16090,0,0,0,
2026-04-06 01:54:00,METAR KPNE 060154Z 30012G22KT 10SM CLR 11/01 A2997 RMK AO2 SLP147 T01110006,0,12.0,1,16090,0,0,0,
2026-04-06 00:54:00,METAR KPNE 060054Z 29009G18KT 10SM SCT055 12/04 A2994 RMK AO2 SLP138 T01220039,0,9.0,1,16090,0,0,0,
2026-04-05 23:54:00,METAR KPNE 052354Z 27005KT 10SM BKN050 12/04 A2991 RMK AO2 SLP128 60010 T01220044 10156 20122 53020,0,5.0,0,16090,0,0,0,
2026-04-05 22:54:00,METAR KPNE 052254Z 30009G16KT 10SM FEW038 13/07 A2988 RMK AO2 SLP118 T01330072,0,9.0,1,16090,0,0,0,
2026-04-05 21:54:00,METAR KPNE 052154Z 28016G21KT 10SM FEW023 BKN043 14/08 A2985 RMK AO2 SLP108 T01390078,0,16.0,1,16090,0,0,0,
2026-04-05 21:50:00,SPECI KPNE 052150Z 29014G22KT 10SM SCT022 BKN045 13/08 A2985 RMK AO2 ,0,14.0,1,16090,0,0,0,
2026-04-05 21:27:00,SPECI KPNE 052127Z 31015G23KT 10SM FEW015 BKN021 BKN031 14/11 A2984 RMK AO2 T01390111 ,0,15.0,1,16090,0,0,0,
2026-04-05 20:54:00,METAR KPNE 052054Z 28007KT 10SM FEW028 BKN037 14/13 A2982 RMK AO2 RAE18 SLP099 P0002 60010 T01440128 55004,0,7.0,0,16090,0,0,0,
2026-04-05 20:21:00,SPECI KPNE 052021Z 10SM SCT011 SCT016 OVC023 14/14 A2981 RMK AO2 RAE18 P0002 T01390139 ,0,,0,16090,0,0,0,
2026-04-05 20:13:00,SPECI KPNE 052013Z 31007KT 10SM -RA FEW009 BKN014 OVC023 14/14 A2981 RMK AO2 P0002 T01390139 ,0,7.0,0,16090,0,0,0,-RA
2026-04-05 20:06:00,SPECI KPNE 052006Z 32008KT 9SM -RA BKN011 BKN016 OVC033 14/14 A2981 RMK AO2 P0002 T01440139 ,0,8.0,0,14481,0,0,0,-RA
2026-04-05 19:58:00,SPECI KPNE 051958Z 33008KT 6SM -RA BR BKN009 BKN016 OVC090 14/14 A2979 RMK AO2 CIG 008V012 P0001 T01440144 ,0,8.0,0,9654,0,0,1,"-RA,BR"
2026-04-05 19:54:00,METAR KPNE 051954Z 33006KT 6SM -RA BR SCT011 BKN033 OVC090 15/15 A2979 RMK AO2 PRESFR SLP088 P0002 T01500150,0,6.0,0,9654,0,0,1,"-RA,BR"
2026-04-05 18:54:00,METAR KPNE 051854Z 30008KT 7SM -RA SCT017 SCT075 OVC090 16/14 A2983 RMK AO2 SLP100 P0006 T01560139,0,8.0,0,11263,0,0,0,-RA
2026-04-05 17:54:00,METAR KPNE 051754Z 23005KT 6SM -RA BR OVC080 16/14 A2984 RMK AO2 RAB1657 SLP102 P0008 60012 T01610144 10217 20089 50009,0,5.0,0,9654,0,0,1,"-RA,BR,RA"
2026-04-05 16:54:00,METAR KPNE 051654Z 23006KT 10SM OVC060 15/13 A2985 RMK AO2 RAE41 SLP106 P0004 T01500133,0,6.0,0,16090,0,0,0,
2026-04-05 16:01:00,SPECI KPNE 051601Z 31003KT 5SM -RA BR SCT020 BKN046 OVC060 14/12 A2985 RMK AO2 P0003 T01390122 ,0,3.0,0,8045,0,0,1,"-RA,BR"
2026-04-05 15:54:00,METAR KPNE 051554Z 33010KT 3SM +RA BR FEW018 BKN028 OVC044 14/12 A2985 RMK AO2 PK WND 30039/1535 WSHFT 1526 RAB51 SLP106 P0000 T01390122,0,10.0,0,4827,0,1,1,"+RA,BR"
2026-04-05 15:46:00,SPECI KPNE 051546Z 30010G32KT 10SM FEW011 BKN028 OVC037 14/11 A2988 RMK AO2 PK WND 30039/1535 WSHFT 1526 PRESRR T01440111 ,0,10.0,1,16090,0,0,0,
2026-04-05 15:29:00,SPECI KPNE 051529Z 24013G19KT 10SM BKN028 BKN075 BKN095 22/16 A2982 RMK AO2 T02170161 ,0,13.0,1,16090,0,0,0,
2026-04-05 14:54:00,METAR KPNE 051454Z 22010KT 10SM FEW120 21/15 A2981 RMK AO2 SLP093 T02110150 56025,0,10.0,0,16090,0,0,0,
2026-04-05 13:09:00,SPECI KPNE 051309Z 00000KT 3SM BR OVC002 11/11 A2985 RMK AO2 T01110106 ,0,0.0,0,4827,0,0,1,BR
2026-04-05 12:54:00,METAR KPNE 051254Z 00000KT 2SM BR OVC002 10/10 A2986 RMK AO2 SLP109 T01000100,0,0.0,0,3218,0,0,1,BR
2026-04-05 12:36:00,SPECI KPNE 051236Z 14003KT 1 1/4SM BR OVC002 10/09 A2987 RMK AO2 T01000094 ,0,3.0,0,2011,0,0,1,BR
2026-04-05 12:12:00,SPECI KPNE 051212Z 00000KT 1/2SM FG VV002 09/09 A2988 RMK AO2 T00940089 RVRNO ,0,0.0,0,804,0,0,1,FG
2026-04-05 11:54:00,METAR KPNE 051154Z 06004KT 1/4SM FG VV002 09/09 A2988 RMK AO2 SLP118 T00890089 10089 20078 58020 RVRNO,0,4.0,0,402,0,0,1,FG
2026-04-05 10:54:00,METAR KPNE 051054Z 04004KT 1/4SM FG VV002 08/08 A2991 RMK AO2 SLP128 T00830083 RVRNO,0,4.0,0,402,0,0,1,FG
2026-04-05 09:54:00,METAR KPNE 050954Z 05004KT 1/2SM FG VV002 08/08 A2992 RMK AO2 SLP130 T00830078 RVRNO,0,4.0,0,804,0,0,1,FG
2026-04-05 08:54:00,METAR KPNE 050854Z AUTO 07005KT 3/4SM BR VV002 08/08 A2994 RMK AO2 SLP138 T00830078 56043 TSNO RVRNO,0,5.0,0,1207,1,0,1,"BR,TS"
2026-04-05 08:44:00,SPECI KPNE 050844Z AUTO 08007KT 3/4SM BR VV002 08/08 A2995 RMK AO2 T00830078 TSNO RVRNO ,0,7.0,0,1207,1,0,1,"BR,TS"
2026-04-05 08:11:00,SPECI KPNE 050811Z AUTO 07006KT 1 1/4SM BR OVC001 08/08 A2997 RMK AO2 T00830078 TSNO ,0,6.0,0,2011,1,0,1,"BR,TS"
2026-04-05 07:54:00,METAR KPNE 050754Z AUTO 08008KT 1 1/2SM BR OVC002 08/08 A2998 RMK AO2 SLP152 T00830078 TSNO,0,8.0,0,2414,1,0,1,"BR,TS"
2026-04-05 07:46:00,SPECI KPNE 050746Z AUTO 08006KT 1 3/4SM BR OVC002 08/08 A2999 RMK AO2 T00830078 TSNO ,0,6.0,0,2816,1,0,1,"BR,TS"
2026-04-05 07:17:00,SPECI KPNE 050717Z AUTO 08007KT 2 1/2SM BR OVC002 08/07 A3000 RMK AO2 T00780072 TSNO ,0,7.0,0,4022,1,0,1,"BR,TS"
2026-04-05 07:08:00,SPECI KPNE 050708Z AUTO 07008KT 3SM BR OVC002 08/07 A3001 RMK AO2 T00830072 TSNO ,0,8.0,0,4827,1,0,1,"BR,TS"
2026-04-05 06:54:00,METAR KPNE 050654Z AUTO 06009KT 2 1/2SM BR OVC002 08/07 A3002 RMK AO2 SLP166 T00780072 TSNO,0,9.0,0,4022,1,0,1,"BR,TS"
2026-04-05 06:33:00,SPECI KPNE 050633Z AUTO 07011KT 2 1/2SM BR OVC002 08/07 A3004 RMK AO2 T00780072 TSNO ,0,11.0,0,4022,1,0,1,"BR,TS"
2026-04-05 05:54:00,METAR KPNE 050554Z AUTO 08009KT 3SM BR OVC003 08/07 A3007 RMK AO2 SLP181 T00780072 10111 20078 58031 TSNO,0,9.0,0,4827,1,0,1,"BR,TS"
2026-04-05 04:54:00,METAR KPNE 050454Z AUTO 08009KT 3SM BR OVC003 08/07 A3011 RMK AO2 SLP194 T00780072 402720078 TSNO,0,9.0,0,4827,1,0,1,"BR,TS"
2026-04-05 04:18:00,SPECI KPNE 050418Z AUTO 09010G18KT 3SM BR OVC003 08/07 A3013 RMK AO2 T00780072 TSNO ,0,10.0,1,4827,1,0,1,"BR,TS"
2026-04-05 04:06:00,SPECI KPNE 050406Z AUTO 08013KT 2 1/2SM BR OVC004 08/07 A3013 RMK AO2 T00780072 TSNO ,0,13.0,0,4022,1,0,1,"BR,TS"
2026-04-05 03:54:00,METAR KPNE 050354Z AUTO 08012KT 3SM BR OVC004 08/07 A3014 RMK AO2 SLP205 T00780072 TSNO,0,12.0,0,4827,1,0,1,"BR,TS"
2026-04-05 03:11:00,SPECI KPNE 050311Z AUTO 08012KT 3SM BR OVC004 08/07 A3016 RMK AO2 T00830072 TSNO ,0,12.0,0,4827,1,0,1,"BR,TS"
2026-04-05 02:54:00,METAR KPNE 050254Z 09012KT 3SM BR OVC005 08/07 A3016 RMK AO2 SLP213 T00780072 58004,0,12.0,0,4827,0,0,1,BR
2026-04-05 01:54:00,METAR KPNE 050154Z 09014G25KT 3SM BR OVC006 08/07 A3018 RMK AO2 SLP218 T00830072,0,14.0,1,4827,0,0,1,BR
2026-04-05 00:54:00,METAR KPNE 050054Z 10014KT 6SM BR OVC009 09/07 A3019 RMK AO2 SLP221 T00940072,0,14.0,0,9654,0,0,1,BR
2026-04-04 23:54:00,METAR KPNE 042354Z 09017G25KT 10SM OVC013 11/07 A3017 RMK AO2 SLP217 60000 T01110072 10272 20111 53003,0,17.0,1,16090,0,0,0,
2026-04-04 23:08:00,SPECI KPNE 042308Z 09016G23KT 10SM OVC018 13/08 A3017 RMK AO2 T01330083 ,0,16.0,1,16090,0,0,0,
2026-04-04 22:54:00,METAR KPNE 042254Z 10015G25KT 10SM BKN018 14/08 A3016 RMK AO2 PK WND 12029/2233 SLP213 T01390083,0,15.0,1,16090,0,0,0,
2026-04-04 22:51:00,SPECI KPNE 042251Z 10016G25KT 10SM BKN018 14/08 A3016 RMK AO2 PK WND 12029/2233 ,0,16.0,1,16090,0,0,0,
2026-04-04 21:54:00,METAR KPNE 042154Z 10017G27KT 10SM CLR 17/09 A3016 RMK AO2 PK WND 10027/2139 SLP214 T01670094,0,17.0,1,16090,0,0,0,
2026-04-04 20:54:00,METAR KPNE 042054Z 11020G26KT 10SM CLR 19/11 A3015 RMK AO2 PK WND 10031/2024 SLP209 60000 T01940106 53003,0,20.0,1,16090,0,0,0,
2026-04-04 19:54:00,METAR KPNE 041954Z 09018G23KT 10SM FEW050 SCT065 BKN110 23/14 A3015 RMK AO2 RAB22E33 SLP208 P0000 T02280144,0,18.0,1,16090,0,0,0,RA
2026-04-04 18:54:00,METAR KPNE 041854Z 10015KT 10SM BKN044 OVC075 25/16 A3013 RMK AO2 SLP203 T02500161,0,15.0,0,16090,0,0,0,
2026-04-04 17:54:00,METAR KPNE 041754Z 11007KT 10SM FEW100 26/17 A3014 RMK AO2 SLP207 T02610167 10261 20167 58013,0,7.0,0,16090,0,0,0,
2026-04-04 16:54:00,METAR KPNE 041654Z 09009KT 10SM SCT085 26/17 A3016 RMK AO2 SLP214 T02610167,0,9.0,0,16090,0,0,0,
2026-04-04 15:54:00,METAR KPNE 041554Z 11008KT 070V140 10SM CLR 24/16 A3017 RMK AO2 SLP217 T02390156,0,8.0,0,16090,0,0,0,
2026-04-04 14:54:00,METAR KPNE 041454Z 10005KT 10SM CLR 23/16 A3018 RMK AO2 SLP219 T02330156 50004,0,5.0,0,16090,0,0,0,
2026-04-04 13:54:00,METAR KPNE 041354Z 00000KT 10SM CLR 22/16 A3018 RMK AO2 SLP220 T02220156,0,0.0,0,16090,0,0,0,
2026-04-04 12:54:00,METAR KPNE 041254Z 00000KT 10SM CLR 21/15 A3017 RMK AO2 SLP217 T02060150,0,0.0,0,16090,0,0,0,
2026-04-04 11:54:00,METAR KPNE 041154Z 33004KT 10SM CLR 17/14 A3017 RMK AO2 SLP215 T01670144 10167 20117 53012,0,4.0,0,16090,0,0,0,
2026-04-04 11:03:00,SPECI KPNE 041103Z 27003KT 8SM CLR 12/12 A3016 RMK AO2 T01170117 ,0,3.0,0,12872,0,0,0,
2026-04-04 10:54:00,METAR KPNE 041054Z 4SM BR CLR 13/12 A3016 RMK AO2 SLP211 T01280122,0,,0,6436,0,0,1,BR
2026-04-04 10:43:00,SPECI KPNE 041043Z 1 1/2SM BR CLR 12/11 A3016 RMK AO2 T01170111 ,0,,0,2414,0,0,1,BR
2026-04-04 10:40:00,SPECI KPNE 041040Z 3SM BR CLR 12/12 A3015 RMK AO2 T01220117 ,0,,0,4827,0,0,1,BR
2026-04-04 10:31:00,SPECI KPNE 041031Z 00000KT 1 3/4SM BR CLR 13/12 A3015 RMK AO2 T01280122 ,0,0.0,0,2816,0,0,1,BR
2026-04-04 10:28:00,SPECI KPNE 041028Z 00000KT 3SM BR CLR 13/12 A3015 RMK AO2 T01330122 ,0,0.0,0,4827,0,0,1,BR
2026-04-04 10:02:00,SPECI KPNE 041002Z 00000KT 1 3/4SM BR CLR 12/12 A3014 RMK AO2 VIS 3/4V5 T01220117 ,0,0.0,0,2816,0,0,1,BR
2026-04-04 09:54:00,METAR KPNE 040954Z 00000KT 5SM BR CLR 13/12 A3014 RMK AO2 SLP205 T01280122,0,0.0,0,8045,0,0,1,BR
2026-04-04 09:45:00,SPECI KPNE 040945Z 00000KT 2 1/2SM BR CLR 13/13 A3014 RMK AO2 T01330128 ,0,0.0,0,4022,0,0,1,BR
2026-04-04 08:54:00,METAR KPNE 040854Z AUTO 00000KT 10SM CLR 15/14 A3013 RMK AO2 SLP203 T01500139 53001 TSNO,0,0.0,0,16090,1,0,0,TS
2026-04-04 07:54:00,METAR KPNE 040754Z AUTO 25005KT 10SM CLR 16/14 A3013 RMK AO2 SLP202 T01560139 TSNO,0,5.0,0,16090,1,0,0,TS
2026-04-04 06:54:00,METAR KPNE 040654Z 24004KT 10SM CLR 16/14 A3013 RMK AO2 SLP201 T01560139,0,4.0,0,16090,0,0,0,
2026-04-04 05:54:00,METAR KPNE 040554Z 30003KT 10SM CLR 15/14 A3013 RMK AO2 SLP203 T01500139 10189 20150 57002,0,3.0,0,16090,0,0,0,
2026-04-04 04:54:00,METAR KPNE 040454Z 22004KT 10SM CLR 17/14 A3013 RMK AO2 SLP203 T01720144 402060056,0,4.0,0,16090,0,0,0,
2026-04-04 03:54:00,METAR KPNE 040354Z 21005KT 10SM CLR 18/15 A3013 RMK AO2 SLP203 T01830150,0,5.0,0,16090,0,0,0,
2026-04-04 02:54:00,METAR KPNE 040254Z 00000KT 10SM CLR 18/15 A3014 RMK AO2 SLP205 T01780150 58001,0,0.0,0,16090,0,0,0,
2026-04-04 01:54:00,METAR KPNE 040154Z 00000KT 9SM CLR 16/14 A3014 RMK AO2 SLP207 T01560139,0,0.0,0,14481,0,0,0,
2026-04-04 00:54:00,METAR KPNE 040054Z 00000KT 10SM CLR 17/14 A3014 RMK AO2 SLP206 T01670144,0,0.0,0,16090,0,0,0,
2026-04-03 23:54:00,METAR KPNE 032354Z 22003KT 10SM FEW110 19/15 A3014 RMK AO2 SLP205 T01890150 10206 20139 56012,0,3.0,0,16090,0,0,0,
2026-04-03 22:54:00,METAR KPNE 032254Z 22005KT 10SM CLR 20/14 A3015 RMK AO2 SLP209 T02000144,0,5.0,0,16090,0,0,0,
2026-04-03 21:54:00,METAR KPNE 032154Z 21007KT 10SM CLR 21/14 A3016 RMK AO2 SLP211 T02060144,0,7.0,0,16090,0,0,0,
2026-04-03 20:54:00,METAR KPNE 032054Z 21007KT 10SM CLR 19/14 A3017 RMK AO2 SLP217 T01940139 56024,0,7.0,0,16090,0,0,0,
2026-04-03 20:07:00,SPECI KPNE 032007Z 22010KT 10SM SCT011 17/13 A3019 RMK AO2 T01720133 ,0,10.0,0,16090,0,0,0,
2026-04-03 19:54:00,METAR KPNE 031954Z 22010G20KT 9SM BKN011 17/13 A3020 RMK AO2 SLP225 T01670133,0,10.0,1,14481,0,0,0,
2026-04-03 18:54:00,METAR KPNE 031854Z 24010G19KT 10SM OVC010 16/13 A3022 RMK AO2 SLP234 T01560128,0,10.0,1,16090,0,0,0,
2026-04-03 17:54:00,METAR KPNE 031754Z 24010KT 9SM OVC010 14/11 A3025 RMK AO2 SLP242 T01390111 10139 20067 58022,0,10.0,0,14481,0,0,0,
2026-04-03 17:47:00,SPECI KPNE 031747Z 25008KT 9SM OVC010 14/12 A3025 RMK AO2 T01390117 ,0,8.0,0,14481,0,0,0,
2026-04-03 16:54:00,METAR KPNE 031654Z 22005KT 8SM OVC008 12/10 A3027 RMK AO2 SLP249 T01220100,0,5.0,0,12872,0,0,0,
2026-04-03 16:08:00,SPECI KPNE 031608Z 23006KT 7SM OVC005 11/10 A3029 RMK AO2 T01110100 ,0,6.0,0,11263,0,0,0,
2026-04-03 15:54:00,METAR KPNE 031554Z 24006KT 7SM OVC004 10/09 A3030 RMK AO2 SLP259 T01000089,0,6.0,0,11263,0,0,0,
2026-04-03 14:54:00,METAR KPNE 031454Z 22003KT 5SM BR OVC003 09/08 A3031 RMK AO2 SLP265 T00890083 58004,0,3.0,0,8045,0,0,1,BR
2026-04-03 14:38:00,SPECI KPNE 031438Z 4SM BR OVC003 08/08 A3031 RMK AO2 T00830078 ,0,,0,6436,0,0,1,BR
2026-04-03 13:54:00,METAR KPNE 031354Z 12003KT 2SM BR OVC003 08/07 A3032 RMK AO2 SLP268 T00780072,0,3.0,0,3218,0,0,1,BR
2026-04-03 13:50:00,SPECI KPNE 031350Z 00000KT 1 3/4SM BR OVC003 08/07 A3032 RMK AO2 ,0,0.0,0,2816,0,0,1,BR
2026-04-03 12:54:00,METAR KPNE 031254Z 13004KT 2SM BR OVC003 07/07 A3032 RMK AO2 SLP269 T00670067,0,4.0,0,3218,0,0,1,BR
2026-04-03 11:54:00,METAR KPNE 031154Z 10003KT 1 1/2SM BR OVC003 07/07 A3034 RMK AO2 SLP275 70001 T00670067 10067 20056 56004,0,3.0,0,2414,0,0,1,BR
2026-04-03 11:07:00,SPECI KPNE 031107Z 09006KT 1SM BR OVC003 06/06 A3034 RMK AO2 T00610061 RVRNO ,0,6.0,0,1609,0,0,1,BR
2026-04-03 10:54:00,METAR KPNE 031054Z 08003KT 2 1/2SM BR OVC003 06/06 A3034 RMK AO2 SLP275 T00610061,0,3.0,0,4022,0,0,1,BR
2026-04-03 10:46:00,SPECI KPNE 031046Z 06005KT 2SM BR OVC003 06/06 A3034 RMK AO2 T00610061 ,0,5.0,0,3218,0,0,1,BR
2026-04-03 10:39:00,SPECI KPNE 031039Z 06004KT 3SM BR OVC003 06/06 A3034 RMK AO2 T00610061 ,0,4.0,0,4827,0,0,1,BR
2026-04-03 09:54:00,METAR KPNE 030954Z 07006KT 2 1/2SM BR OVC004 06/06 A3034 RMK AO2 SLP275 T00610056,0,6.0,0,4022,0,0,1,BR
2026-04-03 08:54:00,METAR KPNE 030854Z AUTO 05007KT 2 1/2SM BR OVC004 06/06 A3035 RMK AO2 SLP278 T00610061 56019 TSNO,0,7.0,0,4022,1,0,1,"BR,TS"
2026-04-03 08:43:00,SPECI KPNE 030843Z AUTO 06005KT 2 1/2SM BR OVC004 06/06 A3035 RMK AO2 T00610061 TSNO ,0,5.0,0,4022,1,0,1,"BR,TS"
2026-04-03 08:36:00,SPECI KPNE 030836Z AUTO 06005KT 2 1/2SM BR OVC005 06/06 A3036 RMK AO2 T00610061 TSNO ,0,5.0,0,4022,1,0,1,"BR,TS"
2026-04-03 08:14:00,SPECI KPNE 030814Z AUTO 08006KT 3SM BR OVC005 06/06 A3036 RMK AO2 T00610061 TSNO ,0,6.0,0,4827,1,0,1,"BR,TS"
2026-04-03 07:54:00,METAR KPNE 030754Z AUTO 07008KT 2 1/2SM BR OVC004 06/06 A3036 RMK AO2 SLP280 T00610056 TSNO,0,8.0,0,4022,1,0,1,"BR,TS"
2026-04-03 07:01:00,SPECI KPNE 030701Z AUTO 07006KT 2SM BR OVC004 06/05 A3039 RMK AO2 T00610050 TSNO ,0,6.0,0,3218,1,0,1,"BR,TS"
2026-04-03 06:54:00,METAR KPNE 030654Z AUTO 09007KT 3SM BR OVC004 06/05 A3039 RMK AO2 SLP290 T00610050 TSNO,0,7.0,0,4827,1,0,1,"BR,TS"
2026-04-03 06:13:00,SPECI KPNE 030613Z AUTO 08010KT 3SM BR OVC004 06/05 A3040 RMK AO2 T00610050 TSNO ,0,10.0,0,4827,1,0,1,"BR,TS"
2026-04-03 05:54:00,METAR KPNE 030554Z AUTO 09009KT 3SM BR OVC005 06/05 A3041 RMK AO2 SLP297 T00560050 10061 20056 56005 TSNO,0,9.0,0,4827,1,0,1,"BR,TS"
2026-04-03 04:54:00,METAR KPNE 030454Z AUTO 08009KT 3SM BR OVC005 06/04 A3042 RMK AO2 SLP300 T00560044 401390056 TSNO,0,9.0,0,4827,1,0,1,"BR,TS"
2026-04-03 04:21:00,SPECI KPNE 030421Z AUTO 09009KT 2 1/2SM BR OVC005 06/05 A3042 RMK AO2 CIG 004V008 T00560050 TSNO ,0,9.0,0,4022,1,0,1,"BR,TS"
2026-04-03 03:54:00,METAR KPNE 030354Z AUTO 08009KT 3SM BR OVC006 06/05 A3042 RMK AO2 SLP303 T00560050 TSNO,0,9.0,0,4827,1,0,1,"BR,TS"
2026-04-03 02:54:00,METAR KPNE 030254Z AUTO 08011G20KT 4SM BR OVC007 06/04 A3042 RMK AO2 CIG 005V011 SLP303 T00560044 50001 TSNO,0,11.0,1,6436,1,0,1,"BR,TS"
2026-04-03 01:54:00,METAR KPNE 030154Z 09011KT 4SM BR OVC007 06/05 A3043 RMK AO2 CIG 005V009 SLP306 T00560050,0,11.0,0,6436,0,0,1,BR
2026-04-03 00:54:00,METAR KPNE 030054Z 08011KT 5SM BR OVC007 06/04 A3044 RMK AO2 CIG 005V008 SLP308 T00560044,0,11.0,0,8045,0,0,1,BR
2026-04-02 23:54:00,METAR KPNE 022354Z 08011G18KT 4SM BR BKN007 OVC014 06/05 A3042 RMK AO2 SLP302 T00610050 10083 20061 58001,0,11.0,1,6436,0,0,1,BR
2026-04-02 23:43:00,SPECI KPNE 022343Z 09010KT 4SM BR BKN008 OVC012 06/05 A3043 RMK AO2 T00610050 ,0,10.0,0,6436,0,0,1,BR
2026-04-02 23:05:00,SPECI KPNE 022305Z 09012KT 4SM BR SCT008 OVC011 06/05 A3043 RMK AO2 T00610050 ,0,12.0,0,6436,0,0,1,BR
2026-04-02 22:54:00,METAR KPNE 022254Z 09013KT 4SM BR BKN008 OVC013 06/05 A3043 RMK AO2 CIG 005V011 SLP306 T00610050,0,13.0,0,6436,0,0,1,BR
2026-04-02 22:45:00,SPECI KPNE 022245Z 09013KT 4SM BR OVC007 06/05 A3043 RMK AO2 CIG 005V012 T00610050 ,0,13.0,0,6436,0,0,1,BR
2026-04-02 22:38:00,SPECI KPNE 022238Z 08011KT 2 1/2SM BR OVC007 06/05 A3043 RMK AO2 CIG 005V012 T00610050 ,0,11.0,0,4022,0,0,1,BR
2026-04-02 21:54:00,METAR KPNE 022154Z 10012KT 7SM BKN009 OVC015 07/05 A3043 RMK AO2 SLP303 T00670050,0,12.0,0,11263,0,0,0,
2026-04-02 21:44:00,SPECI KPNE 022144Z 10013KT 4SM BR BKN009 OVC014 07/05 A3043 RMK AO2 T00670050 ,0,13.0,0,6436,0,0,1,BR
2026-04-02 20:54:00,METAR KPNE 022054Z 10012G21KT 10SM OVC011 07/05 A3042 RMK AO2 SLP303 T00720050 55004,0,12.0,1,16090,0,0,0,
2026-04-02 19:54:00,METAR KPNE 021954Z 09012KT 10SM OVC010 07/05 A3042 RMK AO2 SLP303 T00720050,0,12.0,0,16090,0,0,0,
2026-04-02 18:54:00,METAR KPNE 021854Z 08011KT 10SM OVC011 08/05 A3043 RMK AO2 SLP304 T00780050,0,11.0,0,16090,0,0,0,
2026-04-02 17:54:00,METAR KPNE 021754Z 07014KT 10SM OVC011 08/05 A3044 RMK AO2 SLP306 60001 T00780050 10083 20072 51005,0,14.0,0,16090,0,0,0,
2026-04-02 17:16:00,SPECI KPNE 021716Z 09011KT 10SM OVC010 08/05 A3044 RMK AO2 T00780050 ,0,11.0,0,16090,0,0,0,
2026-04-02 16:54:00,METAR KPNE 021654Z 10012KT 9SM OVC009 08/06 A3044 RMK AO2 SLP306 T00780056,0,12.0,0,14481,0,0,0,
2026-04-02 16:14:00,SPECI KPNE 021614Z 10017KT 8SM OVC010 08/06 A3042 RMK AO2 T00780056 ,0,17.0,0,12872,0,0,0,
2026-04-02 15:54:00,METAR KPNE 021554Z 07012G20KT 10SM OVC009 08/06 A3043 RMK AO2 SLP304 T00780056,0,12.0,1,16090,0,0,0,
2026-04-02 14:54:00,METAR KPNE 021454Z 07014KT 10SM OVC009 08/06 A3042 RMK AO2 SLP301 60001 T00780056 51017,0,14.0,0,16090,0,0,0,
2026-04-02 13:54:00,METAR KPNE 021354Z 08011G20KT 10SM OVC009 07/06 A3041 RMK AO2 PK WND 08028/1319 RAB00E20 SLP297 P0001 T00720056,0,11.0,1,16090,0,0,0,RA
2026-04-02 13:20:00,SPECI KPNE 021320Z 08019G28KT 10SM OVC010 07/05 A3039 RMK AO2 PK WND 08028/1319 RAB00E20 P0001 T00720050 ,0,19.0,1,16090,0,0,0,RA
2026-04-02 12:54:00,METAR KPNE 021254Z 07013KT 10SM OVC009 08/06 A3039 RMK AO2 SLP289 T00780056,0,13.0,0,16090,0,0,0,
2026-04-02 11:54:00,METAR KPNE 021154Z 09015G22KT 10SM OVC009 08/06 A3037 RMK AO2 PK WND 08029/1100 SLP284 60019 70027 T00830061 10122 20083 53030,0,15.0,1,16090,0,0,0,
2026-04-02 10:54:00,METAR KPNE 021054Z AUTO 08012G23KT 10SM OVC011 09/07 A3033 RMK AO2 SLP271 T00890067 TSNO,0,12.0,1,16090,1,0,0,TS
2026-04-02 09:54:00,METAR KPNE 020954Z AUTO 08019G28KT 10SM OVC012 09/07 A3030 RMK AO2 PK WND 08028/0954 SLP260 T00890067 TSNO,0,19.0,1,16090,1,0,0,TS
2026-04-02 08:54:00,METAR KPNE 020854Z AUTO 08015G24KT 10SM OVC011 09/07 A3028 RMK AO2 PK WND 08029/0806 SLP254 60019 T00940072 53008 TSNO,0,15.0,1,16090,1,0,0,TS
2026-04-02 07:54:00,METAR KPNE 020754Z AUTO 08014G24KT 10SM OVC011 10/08 A3028 RMK AO2 PK WND 07027/0657 RAE18 SLP253 P0006 T01000078 TSNO,0,14.0,1,16090,1,0,0,TS
2026-04-02 07:45:00,SPECI KPNE 020745Z AUTO 08011G19KT 10SM OVC009 10/08 A3028 RMK AO2 PK WND 07027/0657 RAE18 CIG 007V014 P0006 T01000083 TSNO ,0,11.0,1,16090,1,0,0,TS
2026-04-02 07:01:00,SPECI KPNE 020701Z AUTO 08018G27KT 4SM RA BR OVC010 10/09 A3026 RMK AO2 PK WND 07027/0657 P0002 T01000089 TSNO ,0,18.0,1,6436,1,0,1,"BR,RA,TS"
2026-04-02 06:54:00,METAR KPNE 020654Z AUTO 08017G25KT 6SM -RA BR BKN009 OVC015 11/09 A3025 RMK AO2 PK WND 09033/0627 RAB19 SLP244 P0013 T01060089 TSNO,0,17.0,1,9654,1,0,1,"-RA,BR,TS"
2026-04-02 06:44:00,SPECI KPNE 020644Z AUTO 08019G25KT 5SM RA BR BKN009 OVC015 11/09 A3024 RMK AO2 PK WND 09033/0627 RAB19 P0010 T01060094 TSNO ,0,19.0,1,8045,1,0,1,"BR,RA,TS"
2026-04-02 05:54:00,METAR KPNE 020554Z AUTO 07016G26KT 10SM OVC012 12/10 A3026 RMK AO2 PK WND 08026/0552 RAE09 SLP246 P0001 60008 T01220100 10228 20122 53019 TSNO,0,16.0,1,16090,1,0,0,TS
2026-04-02 05:24:00,SPECI KPNE 020524Z AUTO 08016G24KT 10SM OVC013 13/11 A3025 RMK AO2 PK WND 09026/0514 RAE09 P0001 T01330111 TSNO ,0,16.0,1,16090,1,0,0,TS
2026-04-02 04:54:00,METAR KPNE 020454Z AUTO 08013KT 8SM -RA BKN017 OVC022 14/11 A3023 RMK AO2 RAB50 SLP237 P0000 T01390111 402780139 TSNO,0,13.0,0,12872,1,0,0,"-RA,TS"
2026-04-02 04:24:00,SPECI KPNE 020424Z AUTO 07014G22KT 10SM SCT014 BKN019 OVC030 14/12 A3022 RMK AO2 T01440122 TSNO ,0,14.0,1,16090,1,0,0,TS
2026-04-02 04:04:00,SPECI KPNE 020404Z AUTO 07013KT 10SM BKN014 OVC028 16/13 A3020 RMK AO2 T01560133 TSNO ,0,13.0,0,16090,1,0,0,TS
2026-04-02 03:54:00,METAR KPNE 020354Z AUTO 07013KT 10SM OVC016 16/13 A3021 RMK AO2 RAE32 SLP229 P0003 T01560133 TSNO,0,13.0,0,16090,1,0,0,TS
2026-04-02 03:26:00,SPECI KPNE 020326Z AUTO 07013KT 10SM -RA BKN020 BKN029 OVC110 16/14 A3018 RMK AO2 P0003 T01610139 TSNO ,0,13.0,0,16090,1,0,0,"-RA,TS"
2026-04-02 03:14:00,SPECI KPNE 020314Z AUTO 08014KT 9SM -RA FEW027 BKN033 OVC110 16/14 A3017 RMK AO2 PRESFR P0002 T01610144 TSNO ,0,14.0,0,14481,1,0,0,"-RA,TS"
2026-04-02 02:54:00,METAR KPNE 020254Z AUTO 06011KT 8SM -RA BKN027 OVC033 17/14 A3020 RMK AO2 RAB14 SLP227 P0004 60004 T01720144 51037 TSNO,0,11.0,0,12872,1,0,0,"-RA,TS"
2026-04-02 02:22:00,SPECI KPNE 020222Z 00000KT 8SM -RA BKN029 OVC065 18/13 A3020 RMK AO2 RAB14 P0001 T01780133 ,0,0.0,0,12872,0,0,0,-RA
2026-04-02 01:54:00,METAR KPNE 020154Z 03010KT 10SM FEW045 BKN080 BKN100 18/13 A3017 RMK AO2 RAB34E48 SLP217 P0000 T01830133,0,10.0,0,16090,0,0,0,RA
2026-04-02 00:54:00,METAR KPNE 020054Z 04011KT 10SM OVC100 20/12 A3014 RMK AO2 SLP207 T02000122,0,11.0,0,16090,0,0,0,
2026-04-01 23:54:00,METAR KPNE 012354Z 03013KT 10SM CLR 23/13 A3009 RMK AO2 SLP190 T02280133 10278 20228 53015,0,13.0,0,16090,0,0,0,
2026-04-01 22:54:00,METAR KPNE 012254Z 03008KT 10SM CLR 25/12 A3006 RMK AO2 SLP178 T02500122,0,8.0,0,16090,0,0,0,
2026-04-01 21:54:00,METAR KPNE 012154Z 33006KT 10SM BKN070 OVC080 27/12 A3006 RMK AO2 SLP178 T02720122,0,6.0,0,16090,0,0,0,
2026-04-01 20:54:00,METAR KPNE 012054Z 10SM CLR 27/12 A3005 RMK AO2 SLP175 T02720122 56003,0,,0,16090,0,0,0,
2026-04-01 19:54:00,METAR KPNE 011954Z 29008KT 10SM CLR 27/12 A3005 RMK AO2 SLP176 T02720122,0,8.0,0,16090,0,0,0,
2026-04-01 18:54:00,METAR KPNE 011854Z 32008KT 10SM CLR 28/13 A3005 RMK AO2 SLP175 T02780128,0,8.0,0,16090,0,0,0,
2026-04-01 17:54:00,METAR KPNE 011754Z 28010KT 10SM BKN060 27/13 A3006 RMK AO2 SLP178 T02670133 10267 20211 50001,0,10.0,0,16090,0,0,0,
2026-04-01 16:54:00,METAR KPNE 011654Z 29009G17KT 240V320 10SM CLR 26/13 A3007 RMK AO2 SLP180 T02610133,0,9.0,1,16090,0,0,0,
2026-04-01 15:54:00,METAR KPNE 011554Z 27014KT 10SM CLR 25/14 A3007 RMK AO2 SLP181 T02500139,0,14.0,0,16090,0,0,0,
2026-04-01 15:37:00,SPECI KPNE 011537Z 27009G16KT 10SM CLR 24/13 A3007 RMK AO2 T02390133 ,0,9.0,1,16090,0,0,0,
2026-04-01 14:54:00,METAR KPNE 011454Z 22007KT 10SM FEW037 BKN100 BKN120 23/14 A3006 RMK AO2 SLP177 T02280139 51012,0,7.0,0,16090,0,0,0,
2026-04-01 13:54:00,METAR KPNE 011354Z 22005KT 10SM CLR 23/14 A3005 RMK AO2 SLP173 T02330139,0,5.0,0,16090,0,0,0,
2026-04-01 12:54:00,METAR KPNE 011254Z 23009KT 10SM CLR 22/13 A3004 RMK AO2 SLP171 T02220133,0,9.0,0,16090,0,0,0,
2026-04-01 11:54:00,METAR KPNE 011154Z 00000KT 10SM CLR 21/13 A3002 RMK AO2 SLP165 T02060128 10217 20189 53025,0,0.0,0,16090,0,0,0,
2026-04-01 10:54:00,METAR KPNE 011054Z 24007KT 10SM CLR 20/13 A2999 RMK AO2 SLP153 T02000128,0,7.0,0,16090,0,0,0,
2026-04-01 09:54:00,METAR KPNE 010954Z 23008KT 10SM CLR 21/13 A2996 RMK AO2 SLP145 T02060128,0,8.0,0,16090,0,0,0,
2026-04-01 08:54:00,METAR KPNE 010854Z AUTO 22007KT 10SM CLR 21/13 A2995 RMK AO2 SLP140 T02060128 53008 TSNO,0,7.0,0,16090,1,0,0,TS
2026-04-01 07:54:00,METAR KPNE 010754Z AUTO 23009KT 10SM FEW110 21/13 A2994 RMK AO2 SLP136 T02110128 TSNO,0,9.0,0,16090,1,0,0,TS
2026-04-01 06:54:00,METAR KPNE 010654Z AUTO 23011G23KT 10SM CLR 22/13 A2993 RMK AO2 SLP133 T02170128 TSNO,0,11.0,1,16090,1,0,0,TS
2026-04-01 05:54:00,METAR KPNE 010554Z AUTO 22015G24KT 10SM CLR 22/13 A2993 RMK AO2 PK WND 21026/0516 SLP132 T02170128 10250 20217 56004 TSNO,0,15.0,1,16090,1,0,0,TS
2026-04-01 04:54:00,METAR KPNE 010454Z AUTO 22014G25KT 10SM CLR 22/13 A2993 RMK AO2 SLP134 T02220128 402670172 TSNO,0,14.0,1,16090,1,0,0,TS
2026-04-01 03:54:00,METAR KPNE 010354Z AUTO 21009KT 10SM CLR 22/13 A2993 RMK AO2 SLP133 T02170128 TSNO,0,9.0,0,16090,1,0,0,TS
2026-04-01 02:54:00,METAR KPNE 010254Z AUTO 21011KT 10SM CLR 22/13 A2994 RMK AO2 SLP136 T02220128 58002 TSNO,0,11.0,0,16090,1,0,0,TS
2026-04-01 01:54:00,METAR KPNE 010154Z 21010KT 10SM CLR 23/13 A2994 RMK AO2 SLP138 T02330128,0,10.0,0,16090,0,0,0,
2026-04-01 00:54:00,METAR KPNE 010054Z 20008KT 10SM CLR 24/13 A2994 RMK AO2 SLP139 T02390128,0,8.0,0,16090,0,0,0,
2026-03-31 23:54:00,METAR KPNE 312354Z 21011KT 10SM CLR 25/12 A2994 RMK AO2 SLP139 T02500122 10267 20250 56003,0,11.0,0,16090,0,0,0,
2026-03-31 22:54:00,METAR KPNE 312254Z 22013G17KT 10SM CLR 26/12 A2994 RMK AO2 SLP139 T02560122,0,13.0,1,16090,0,0,0,
2026-03-31 21:54:00,METAR KPNE 312154Z 21015G25KT 10SM CLR 27/12 A2993 RMK AO2 SLP134 T02670122,0,15.0,1,16090,0,0,0,
2026-03-31 20:54:00,METAR KPNE 312054Z 22014G24KT 10SM CLR 26/12 A2995 RMK AO2 PK WND 22026/2044 SLP141 T02610122 56025,0,14.0,1,16090,0,0,0,
2026-03-31 19:54:00,METAR KPNE 311954Z 22014G23KT 10SM CLR 26/12 A2997 RMK AO2 SLP147 T02610122,0,14.0,1,16090,0,0,0,
2026-03-31 18:54:00,METAR KPNE 311854Z 21011G19KT 10SM CLR 26/12 A3001 RMK AO2 SLP159 T02560122,0,11.0,1,16090,0,0,0,
2026-03-31 17:54:00,METAR KPNE 311754Z 22011KT 10SM FEW055 26/12 A3003 RMK AO2 SLP167 T02610122 10261 20178 58008,0,11.0,0,16090,0,0,0,
2026-03-31 16:54:00,METAR KPNE 311654Z 10SM CLR 25/12 A3005 RMK AO2 SLP174 T02500117,0,,0,16090,0,0,0,
2026-03-31 15:54:00,METAR KPNE 311554Z 23014G22KT 10SM CLR 24/11 A3005 RMK AO2 SLP176 T02390111,0,14.0,1,16090,0,0,0,
2026-03-31 14:54:00,METAR KPNE 311454Z 22015G23KT 10SM CLR 22/11 A3005 RMK AO2 SLP176 T02220106 58011,0,15.0,1,16090,0,0,0,
2026-03-31 13:54:00,METAR KPNE 311354Z 22013G21KT 10SM CLR 21/11 A3007 RMK AO2 SLP181 T02060106,0,13.0,1,16090,0,0,0,
2026-03-31 12:54:00,METAR KPNE 311254Z 22009KT 10SM CLR 19/11 A3008 RMK AO2 SLP186 T01890106,0,9.0,0,16090,0,0,0,
2026-03-31 11:54:00,METAR KPNE 311154Z 23012G20KT 10SM BKN095 18/10 A3009 RMK AO2 SLP188 T01780100 10183 20172 51012,0,12.0,1,16090,0,0,0,
2026-03-31 10:54:00,METAR KPNE 311054Z 22009KT 10SM OVC100 17/10 A3008 RMK AO2 SLP187 T01720100,0,9.0,0,16090,0,0,0,
2026-03-31 09:54:00,METAR KPNE 310954Z AUTO 22012KT 10SM BKN085 OVC100 18/10 A3007 RMK AO2 SLP181 T01780100 TSNO,0,12.0,0,16090,1,0,0,TS
2026-03-31 08:54:00,METAR KPNE 310854Z AUTO 22009KT 10SM SCT100 18/11 A3005 RMK AO2 SLP175 T01780106 56013 TSNO,0,9.0,0,16090,1,0,0,TS
2026-03-31 07:54:00,METAR KPNE 310754Z AUTO 22009KT 10SM SCT085 18/11 A3006 RMK AO2 SLP179 T01780106 TSNO,0,9.0,0,16090,1,0,0,TS
2026-03-31 06:54:00,METAR KPNE 310654Z AUTO 22009KT 10SM SCT075 SCT100 BKN110 18/11 A3008 RMK AO2 SLP185 T01830106 TSNO,0,9.0,0,16090,1,0,0,TS
2026-03-31 05:54:00,METAR KPNE 310554Z AUTO 22009KT 10SM SCT080 SCT090 18/11 A3009 RMK AO2 SLP189 T01830106 10189 20183 58010 TSNO,0,9.0,0,16090,1,0,0,TS
2026-03-31 04:54:00,METAR KPNE 310454Z AUTO 22009KT 10SM FEW100 18/11 A3010 RMK AO2 SLP192 T01830106 402110089 TSNO,0,9.0,0,16090,1,0,0,TS
2026-03-31 03:54:00,METAR KPNE 310354Z AUTO 22010KT 10SM FEW120 18/11 A3011 RMK AO2 SLP196 T01830106 TSNO,0,10.0,0,16090,1,0,0,TS
2026-03-31 02:54:00,METAR KPNE 310254Z AUTO 21008KT 10SM BKN120 18/10 A3012 RMK AO2 SLP199 T01830100 50003 TSNO,0,8.0,0,16090,1,0,0,TS
2026-03-31 01:54:00,METAR KPNE 310154Z 22010KT 10SM OVC120 19/09 A3012 RMK AO2 SLP200 T01890094,0,10.0,0,16090,0,0,0,
2026-03-31 00:54:00,METAR KPNE 310054Z 21007KT 10SM SCT110 18/09 A3012 RMK AO2 SLP199 T01830094,0,7.0,0,16090,0,0,0,
2026-03-30 23:54:00,METAR KPNE 302354Z 22010G19KT 10SM SCT100 19/09 A3011 RMK AO2 SLP195 T01890094 10211 20189 58002,0,10.0,1,16090,0,0,0,
2026-03-30 22:54:00,METAR KPNE 302254Z 22012KT 10SM BKN095 19/09 A3011 RMK AO2 SLP196 T01940094,0,12.0,0,16090,0,0,0,
2026-03-30 21:54:00,METAR KPNE 302154Z 23012G20KT 10SM OVC080 19/09 A3012 RMK AO2 PK WND 21026/2103 SLP198 T01940089,0,12.0,1,16090,0,0,0,
2026-03-30 20:54:00,METAR KPNE 302054Z 23014G23KT 10SM BKN090 20/08 A3012 RMK AO2 PK WND 23031/2001 SLP198 T02000083 55018,0,14.0,1,16090,0,0,0,
2026-03-30 19:54:00,METAR KPNE 301954Z 23015G29KT 10SM FEW075 BKN095 21/08 A3012 RMK AO2 PK WND 21031/1903 SLP197 T02060078,0,15.0,1,16090,0,0,0,
2026-03-30 18:54:00,METAR KPNE 301854Z 22015G27KT 10SM SCT090 20/08 A3015 RMK AO2 PK WND 22030/1838 SLP209 T02000078,0,15.0,1,16090,0,0,0,
2026-03-30 17:54:00,METAR KPNE 301754Z 23017G31KT 10SM FEW095 21/06 A3017 RMK AO2 PK WND 23031/1749 SLP215 T02060061 10211 20111 58020,0,17.0,1,16090,0,0,0,
2026-03-30 16:54:00,METAR KPNE 301654Z 23014G24KT 10SM OVC085 19/06 A3019 RMK AO2 SLP222 T01890056,0,14.0,1,16090,0,0,0,
2026-03-30 15:54:00,METAR KPNE 301554Z 21012G21KT 10SM SCT075 BKN090 18/06 A3021 RMK AO2 SLP229 T01830061,0,12.0,1,16090,0,0,0,
2026-03-30 14:54:00,METAR KPNE 301454Z 23015G22KT 10SM SCT100 17/06 A3023 RMK AO2 PK WND 23027/1407 SLP236 T01720061 58010,0,15.0,1,16090,0,0,0,
2026-03-30 13:54:00,METAR KPNE 301354Z 22015G25KT 10SM CLR 16/07 A3024 RMK AO2 SLP241 T01560067,0,15.0,1,16090,0,0,0,
2026-03-30 12:54:00,METAR KPNE 301254Z 23014G22KT 10SM CLR 13/07 A3025 RMK AO2 SLP244 T01280067,0,14.0,1,16090,0,0,0,
2026-03-30 11:54:00,METAR KPNE 301154Z 21009KT 10SM CLR 11/07 A3026 RMK AO2 SLP245 T01110067 10111 20089 56005,0,9.0,0,16090,0,0,0,
2026-03-30 10:54:00,METAR KPNE 301054Z 21006KT 10SM CLR 10/06 A3026 RMK AO2 SLP247 T01000061,0,6.0,0,16090,0,0,0,
2026-03-30 09:54:00,METAR KPNE 300954Z 21009KT 10SM CLR 10/06 A3026 RMK AO2 SLP247 T01000056,0,9.0,0,16090,0,0,0,
2026-03-30 08:54:00,METAR KPNE 300854Z AUTO 21007KT 170V230 10SM CLR 09/05 A3027 RMK AO2 SLP251 T00940050 56026 TSNO,0,7.0,0,16090,1,0,0,TS
2026-03-30 07:54:00,METAR KPNE 300754Z AUTO VRB04KT 10SM CLR 09/04 A3029 RMK AO2 SLP257 T00890039 TSNO,0,4.0,0,16090,1,0,0,TS
2026-03-30 06:54:00,METAR KPNE 300654Z AUTO 21006KT 10SM CLR 09/03 A3032 RMK AO2 SLP267 T00940028 TSNO,0,6.0,0,16090,1,0,0,TS
2026-03-30 05:54:00,METAR KPNE 300554Z AUTO 20005KT 10SM CLR 09/02 A3035 RMK AO2 SLP277 T00940017 10117 20089 56016 TSNO,0,5.0,0,16090,1,0,0,TS
2026-03-30 04:54:00,METAR KPNE 300454Z AUTO VRB05KT 10SM CLR 09/01 A3037 RMK AO2 SLP283 T00940006 401441028 TSNO,0,5.0,0,16090,1,0,0,TS
2026-03-30 03:54:00,METAR KPNE 300354Z AUTO VRB04KT 10SM FEW120 09/M01 A3038 RMK AO2 SLP289 T00891006 TSNO,0,4.0,0,16090,1,0,0,TS
2026-03-30 02:54:00,METAR KPNE 300254Z VRB03KT 10SM BKN110 09/M01 A3040 RMK AO2 SLP294 T00891006 58001,0,3.0,0,16090,0,0,0,
2026-03-30 01:54:00,METAR KPNE 300154Z VRB05KT 10SM FEW120 10/M01 A3041 RMK AO2 SLP299 T01001006,0,5.0,0,16090,0,0,0,
2026-03-30 00:54:00,METAR KPNE 300054Z 17006KT 10SM CLR 11/M02 A3042 RMK AO2 SLP300 T01061017,0,6.0,0,16090,0,0,0,
2026-03-29 23:54:00,METAR KPNE 292354Z VRB05KT 10SM CLR 12/M03 A3040 RMK AO2 SLP296 T01171033 10144 20117 56003,0,5.0,0,16090,0,0,0,
2026-03-29 22:54:00,METAR KPNE 292254Z 21008G16KT 10SM CLR 13/M04 A3041 RMK AO2 SLP297 T01281039,0,8.0,1,16090,0,0,0,
2026-03-29 21:54:00,METAR KPNE 292154Z 21008G19KT 10SM CLR 14/M05 A3040 RMK AO2 SLP296 T01391050,0,8.0,1,16090,0,0,0,
2026-03-29 20:54:00,METAR KPNE 292054Z 24013G24KT 10SM CLR 14/M05 A3041 RMK AO2 SLP299 T01441050 56031,0,13.0,1,16090,0,0,0,
2026-03-29 19:54:00,METAR KPNE 291954Z 20012G26KT 10SM CLR 14/M05 A3043 RMK AO2 PK WND 23029/1926 SLP306 T01391050,0,12.0,1,16090,0,0,0,
2026-03-29 18:54:00,METAR KPNE 291854Z 21014G25KT 10SM CLR 13/M05 A3046 RMK AO2 PK WND 20027/1844 SLP315 T01331050,0,14.0,1,16090,0,0,0,
2026-03-29 17:54:00,METAR KPNE 291754Z VRB05G15KT 10SM FEW120 12/M06 A3051 RMK AO2 SLP330 T01171061 10128 20000 58032,0,5.0,1,16090,0,0,0,
2026-03-29 16:54:00,METAR KPNE 291654Z 22014G20KT 10SM CLR 12/M07 A3054 RMK AO2 SLP344 T01171067,0,14.0,1,16090,0,0,0,
2026-03-29 14:54:00,METAR KPNE 291454Z 21007KT 10SM CLR 09/M08 A3060 RMK AO2 SLP363 T00891083 58003,0,7.0,0,16090,0,0,0,
2026-03-29 13:54:00,METAR KPNE 291354Z 20006KT 10SM CLR 07/M08 A3061 RMK AO2 SLP366 T00671078,0,6.0,0,16090,0,0,0,
2026-03-29 12:54:00,METAR KPNE 291254Z 14004KT 10SM CLR 03/M06 A3060 RMK AO2 SLP364 T00331061,0,4.0,0,16090,0,0,0,
2026-03-29 11:54:00,METAR KPNE 291154Z 26003KT 10SM CLR 00/M06 A3061 RMK AO2 SLP366 T00001056 10006 21028 51017,0,3.0,0,16090,0,0,0,
2026-03-29 10:54:00,METAR KPNE 291054Z 00000KT 10SM CLR M02/M07 A3060 RMK AO2 SLP362 T10221072,0,0.0,0,16090,0,0,0,
2026-03-29 09:54:00,METAR KPNE 290954Z 00000KT 10SM CLR M02/M07 A3058 RMK AO2 SLP355 T10221067,0,0.0,0,16090,0,0,0,
2026-03-29 08:54:00,METAR KPNE 290854Z AUTO 00000KT 10SM CLR M01/M08 A3056 RMK AO2 SLP348 T10111078 57002 TSNO,0,0.0,0,16090,1,0,0,TS
2026-03-29 07:54:00,METAR KPNE 290754Z AUTO 00000KT 10SM CLR M01/M09 A3056 RMK AO2 SLP348 T10061089 TSNO,0,0.0,0,16090,1,0,0,TS
2026-03-29 06:54:00,METAR KPNE 290654Z AUTO 00000KT 10SM CLR 00/M09 A3057 RMK AO2 SLP351 T00001094 TSNO,0,0.0,0,16090,1,0,0,TS
2026-03-29 05:54:00,METAR KPNE 290554Z AUTO 00000KT 10SM CLR 01/M09 A3056 RMK AO2 SLP350 T00061089 10061 20000 51012 TSNO,0,0.0,0,16090,1,0,0,TS
2026-03-29 04:54:00,METAR KPNE 290454Z AUTO 34004KT 10SM CLR 02/M09 A3056 RMK AO2 SLP348 T00171094 400831006 TSNO,0,4.0,0,16090,1,0,0,TS
2026-03-29 03:54:00,METAR KPNE 290354Z AUTO 00000KT 10SM CLR 02/M09 A3054 RMK AO2 SLP342 T00221094 TSNO,0,0.0,0,16090,1,0,0,TS
2026-03-29 02:54:00,METAR KPNE 290254Z 27004KT 10SM CLR 03/M10 A3053 RMK AO2 SLP338 T00331100 51019,0,4.0,0,16090,0,0,0,
2026-03-29 01:54:00,METAR KPNE 290154Z 25004KT 10SM CLR 04/M11 A3052 RMK AO2 SLP337 T00441111,0,4.0,0,16090,0,0,0,
2026-03-29 00:54:00,METAR KPNE 290054Z 25003KT 10SM CLR 04/M11 A3050 RMK AO2 SLP329 T00441111,0,3.0,0,16090,0,0,0,
2026-03-28 23:54:00,METAR KPNE 282354Z 30005KT 10SM CLR 06/M12 A3047 RMK AO2 SLP319 T00561122 10083 20056 53006,0,5.0,0,16090,0,0,0,
2026-03-28 22:54:00,METAR KPNE 282254Z 29005KT 10SM CLR 07/M12 A3045 RMK AO2 SLP312 T00671122,0,5.0,0,16090,0,0,0,
2026-03-28 21:54:00,METAR KPNE 282154Z 30010G22KT 10SM CLR 07/M12 A3045 RMK AO2 SLP311 T00721122,0,10.0,1,16090,0,0,0,
2026-03-28 20:54:00,METAR KPNE 282054Z 32014G22KT 10SM CLR 08/M12 A3045 RMK AO2 SLP312 T00781122 56008,0,14.0,1,16090,0,0,0,
2026-03-28 19:54:00,METAR KPNE 281954Z AUTO 32016G26KT 10SM CLR 08/M12 A3045 RMK AO2 PK WND 34026/1947 SLP313 T00781122 TSNO,0,16.0,1,16090,1,0,0,TS
2026-03-28 18:54:00,METAR KPNE 281854Z 33013G23KT 10SM FEW080 08/M12 A3046 RMK AO2 PK WND 31026/1836 SLP314 T00781117,0,13.0,1,16090,0,0,0,
2026-03-28 17:54:00,METAR KPNE 281754Z 34012G19KT 10SM FEW080 07/M12 A3047 RMK AO2 PK WND 34026/1743 SLP320 T00671117 10067 20000 58012,0,12.0,1,16090,0,0,0,
2026-03-28 16:54:00,METAR KPNE 281654Z 36014G22KT 10SM CLR 06/M12 A3048 RMK AO2 SLP323 T00561117,0,14.0,1,16090,0,0,0,
2026-03-28 15:54:00,METAR KPNE 281554Z 33016G24KT 10SM CLR 04/M12 A3050 RMK AO2 SLP329 T00391122,0,16.0,1,16090,0,0,0,
2026-03-28 14:54:00,METAR KPNE 281454Z 34015G23KT 10SM CLR 03/M12 A3051 RMK AO2 PK WND 33028/1421 SLP332 T00281122 51029,0,15.0,1,16090,0,0,0,
2026-03-28 13:54:00,METAR KPNE 281354Z 32018G26KT 10SM CLR 03/M12 A3048 RMK AO2 PK WND 36028/1332 SLP324 T00281122,0,18.0,1,16090,0,0,0,
2026-03-28 12:54:00,METAR KPNE 281254Z 34013KT 10SM CLR 01/M14 A3046 RMK AO2 SLP315 T00111139,0,13.0,0,16090,0,0,0,
2026-03-28 11:54:00,METAR KPNE 281154Z 33012KT 10SM CLR 00/M13 A3042 RMK AO2 SLP303 70001 T00001133 10022 21006 53038,0,12.0,0,16090,0,0,0,
2026-03-28 10:54:00,METAR KPNE 281054Z 34015G23KT 10SM CLR M01/M14 A3038 RMK AO2 SLP287 T10061139,0,15.0,1,16090,0,0,0,
2026-03-28 09:54:00,METAR KPNE 280954Z AUTO 34012KT 10SM CLR 01/M12 A3035 RMK AO2 SLP277 T00061117 TSNO,0,12.0,0,16090,1,0,0,TS
2026-03-28 08:54:00,METAR KPNE 280854Z AUTO 34012KT 10SM BKN070 02/M11 A3031 RMK AO2 SLP264 T00171111 53030 TSNO,0,12.0,0,16090,1,0,0,TS
2026-03-28 07:54:00,METAR KPNE 280754Z AUTO 35012KT 10SM OVC065 02/M07 A3026 RMK AO2 SLP246 T00221072 TSNO,0,12.0,0,16090,1,0,0,TS
2026-03-28 06:54:00,METAR KPNE 280654Z AUTO 34007KT 10SM SCT070 02/M07 A3024 RMK AO2 SLP240 T00171067 TSNO,0,7.0,0,16090,1,0,0,TS
2026-03-28 05:54:00,METAR KPNE 280554Z AUTO 33005KT 10SM CLR 02/M07 A3022 RMK AO2 SLP235 T00171067 10072 20011 50006 TSNO,0,5.0,0,16090,1,0,0,TS
2026-03-28 04:54:00,METAR KPNE 280454Z AUTO 36007KT 10SM CLR 04/M07 A3023 RMK AO2 SLP236 T00391067 402000033 TSNO,0,7.0,0,16090,1,0,0,TS
2026-03-28 03:54:00,METAR KPNE 280354Z AUTO 34010KT 10SM OVC055 05/M06 A3022 RMK AO2 SLP234 T00501056 TSNO,0,10.0,0,16090,1,0,0,TS
2026-03-28 02:54:00,METAR KPNE 280254Z AUTO 31004KT 10SM OVC050 06/M04 A3020 RMK AO2 SLP229 T00561044 51023 TSNO,0,4.0,0,16090,1,0,0,TS
2026-03-28 01:54:00,METAR KPNE 280154Z 32004KT 10SM BKN050 06/M06 A3018 RMK AO2 SLP222 T00561056,0,4.0,0,16090,0,0,0,
2026-03-28 00:54:00,METAR KPNE 280054Z 33006KT 10SM CLR 06/M05 A3017 RMK AO2 SLP217 T00561050,0,6.0,0,16090,0,0,0,
2026-03-27 23:54:00,METAR KPNE 272354Z 35010KT 10SM BKN120 07/M06 A3014 RMK AO2 SLP204 T00721056 10111 20072 51018,0,10.0,0,16090,0,0,0,
2026-03-27 22:54:00,METAR KPNE 272254Z 35012KT 10SM OVC100 08/M04 A3012 RMK AO2 SLP198 T00781044,0,12.0,0,16090,0,0,0,
2026-03-27 21:54:00,METAR KPNE 272154Z 34012KT 10SM OVC095 08/M03 A3010 RMK AO2 PRESRR SLP194 T00831033,0,12.0,0,16090,0,0,0,
2026-03-27 20:54:00,METAR KPNE 272054Z 34011KT 10SM OVC095 09/M02 A3008 RMK AO2 SLP187 T00941022 53005,0,11.0,0,16090,0,0,0,
2026-03-27 19:54:00,METAR KPNE 271954Z 33010KT 10SM OVC090 10/M02 A3007 RMK AO2 SLP182 T01001017,0,10.0,0,16090,0,0,0,
2026-03-27 18:54:00,METAR KPNE 271854Z 34012G16KT 10SM SCT100 11/M01 A3006 RMK AO2 SLP178 T01111011,0,12.0,1,16090,0,0,0,
2026-03-27 17:54:00,METAR KPNE 271754Z 34012KT 10SM OVC100 11/00 A3007 RMK AO2 SLP182 60001 T01060000 10139 20100 51021,0,12.0,0,16090,0,0,0,
2026-03-27 16:54:00,METAR KPNE 271654Z 36011G20KT 10SM BKN110 11/01 A3005 RMK AO2 PK WND 36026/1625 SLP174 T01060011,0,11.0,1,16090,0,0,0,
2026-03-25 15:13:00,SPECI KPNE 251513Z 10SM OVC095 09/01 A3042 RMK AO2 T00890011 ,0,,0,16090,0,0,0,
2026-03-25 14:54:00,METAR KPNE 251454Z VRB05KT 10SM OVC095 08/01 A3042 RMK AO2 SLP303 T00830011 55000,0,5.0,0,16090,0,0,0,
2026-03-25 13:54:00,METAR KPNE 251354Z VRB04KT 10SM CLR 07/01 A3042 RMK AO2 SLP301 T00720011,0,4.0,0,16090,0,0,0,
2026-03-25 12:54:00,METAR KPNE 251254Z 14003KT 10SM CLR 05/01 A3042 RMK AO2 SLP300 T00500006,0,3.0,0,16090,0,0,0,
2026-03-25 11:54:00,METAR KPNE 251154Z 00000KT 10SM CLR 01/M02 A3043 RMK AO2 SLP303 T00111017 10044 20006 51014,0,0.0,0,16090,0,0,0,
2026-03-25 10:54:00,METAR KPNE 251054Z 05003KT 10SM CLR 01/M02 A3041 RMK AO2 SLP298 T00111017,0,3.0,0,16090,0,0,0,
2026-03-25 09:54:00,METAR KPNE 250954Z AUTO 00000KT 10SM CLR 02/M02 A3040 RMK AO2 SLP295 T00171022 TSNO,0,0.0,0,16090,1,0,0,TS
2026-03-25 08:54:00,METAR KPNE 250854Z AUTO 00000KT 10SM CLR 03/M02 A3038 RMK AO2 SLP289 T00281017 55001 TSNO,0,0.0,0,16090,1,0,0,TS
2026-03-25 07:54:00,METAR KPNE 250754Z 24003KT 10SM BKN100 04/M01 A3038 RMK AO2 SLP288 T00391011,0,3.0,0,16090,0,0,0,
2026-03-25 06:54:00,METAR KPNE 250654Z 21005KT 10SM CLR 04/M02 A3037 RMK AO2 SLP286 T00391017,0,5.0,0,16090,0,0,0,
2026-03-25 05:54:00,METAR KPNE 250554Z 21005KT 10SM BKN110 04/M02 A3039 RMK AO2 SLP290 T00441017 10083 20044 50000,0,5.0,0,16090,0,0,0,
2026-03-25 03:54:00,METAR KPNE 250354Z 22007KT 10SM CLR 05/M02 A3040 RMK AO2 SLP295 T00501022,0,7.0,0,16090,0,0,0,
2026-03-25 02:54:00,METAR KPNE 250254Z 21007KT 10SM CLR 06/M03 A3038 RMK AO2 SLP289 T00561028 51008,0,7.0,0,16090,0,0,0,
2026-03-25 01:54:00,METAR KPNE 250154Z 23008KT 10SM CLR 07/M04 A3038 RMK AO2 SLP288 T00721044,0,8.0,0,16090,0,0,0,
2026-03-25 00:54:00,METAR KPNE 250054Z 22006KT 10SM CLR 08/M06 A3037 RMK AO2 SLP284 T00781061,0,6.0,0,16090,0,0,0,
2026-03-24 23:54:00,METAR KPNE 242354Z 22011KT 10SM CLR 08/M06 A3036 RMK AO2 SLP281 T00831056 10100 20078 53003,0,11.0,0,16090,0,0,0,
2026-03-24 23:21:00,SPECI KPNE 242321Z 23008KT 10SM CLR 08/M06 A3036 RMK AO2 T00831056 ,0,8.0,0,16090,0,0,0,
2026-03-24 22:54:00,METAR KPNE 242254Z 24007KT 10SM CLR 08/M07 A3036 RMK AO2 SLP281 T00831067,0,7.0,0,16090,0,0,0,
2026-03-24 21:54:00,METAR KPNE 242154Z 25005KT 10SM CLR 09/M08 A3035 RMK AO2 SLP278 T00941078,0,5.0,0,16090,0,0,0,
2026-03-24 20:54:00,METAR KPNE 242054Z 25008KT 10SM CLR 10/M07 A3035 RMK AO2 SLP278 T01001067 56018,0,8.0,0,16090,0,0,0,
2026-03-24 19:54:00,METAR KPNE 241954Z 20007KT 10SM CLR 09/M07 A3036 RMK AO2 SLP280 T00941067,0,7.0,0,16090,0,0,0,
2026-03-24 18:54:00,METAR KPNE 241854Z 18006KT 10SM CLR 08/M08 A3038 RMK AO2 SLP287 T00831078,0,6.0,0,16090,0,0,0,
2026-03-24 17:54:00,METAR KPNE 241754Z VRB03KT 10SM CLR 08/M07 A3040 RMK AO2 SLP296 T00781072 10083 20011 58020,0,3.0,0,16090,0,0,0,
2026-03-24 16:54:00,METAR KPNE 241654Z 31008KT 280V360 10SM CLR 08/M07 A3043 RMK AO2 SLP303 T00781067,0,8.0,0,16090,0,0,0,
2026-03-24 14:54:00,METAR KPNE 241454Z 01014KT 10SM CLR 06/M07 A3046 RMK AO2 SLP316 T00561072 53014,0,14.0,0,16090,0,0,0,
2026-03-24 13:54:00,METAR KPNE 241354Z 01015G23KT 10SM CLR 04/M07 A3045 RMK AO2 SLP313 T00441072,0,15.0,1,16090,0,0,0,
2026-03-24 12:54:00,METAR KPNE 241254Z 35010KT 10SM CLR 03/M06 A3043 RMK AO2 SLP304 T00331056,0,10.0,0,16090,0,0,0,
2026-03-24 11:54:00,METAR KPNE 241154Z 34008KT 10SM CLR 01/M05 A3042 RMK AO2 SLP301 70002 T00111050 10017 21017 53024,0,8.0,0,16090,0,0,0,
2026-03-24 10:54:00,METAR KPNE 241054Z 33005KT 10SM CLR M01/M06 A3040 RMK AO2 SLP293 T10061056,0,5.0,0,16090,0,0,0,
2026-03-24 09:54:00,METAR KPNE 240954Z 33005KT 10SM CLR M01/M06 A3037 RMK AO2 SLP285 T10111061,0,5.0,0,16090,0,0,0,
2026-03-24 08:54:00,METAR KPNE 240854Z AUTO 33004KT 10SM CLR M01/M06 A3035 RMK AO2 SLP277 T10061061 53013 TSNO,0,4.0,0,16090,1,0,0,TS
2026-03-24 07:54:00,METAR KPNE 240754Z AUTO 30003KT 10SM CLR 01/M06 A3033 RMK AO2 SLP273 T00061061 TSNO,0,3.0,0,16090,1,0,0,TS
2026-03-24 06:54:00,METAR KPNE 240654Z AUTO 33006KT 10SM CLR 01/M06 A3032 RMK AO2 SLP268 T00061061 TSNO,0,6.0,0,16090,1,0,0,TS
2026-03-24 05:54:00,METAR KPNE 240554Z AUTO 34006KT 10SM CLR 02/M06 A3031 RMK AO2 SLP265 T00171061 10044 20017 51026 TSNO,0,6.0,0,16090,1,0,0,TS
2026-03-24 04:54:00,METAR KPNE 240454Z AUTO 32007KT 10SM CLR 02/M06 A3029 RMK AO2 SLP257 T00221061 401330022 TSNO,0,7.0,0,16090,1,0,0,TS
2026-03-24 03:54:00,METAR KPNE 240354Z AUTO 33012KT 10SM CLR 03/M06 A3026 RMK AO2 SLP246 T00281061 TSNO,0,12.0,0,16090,1,0,0,TS
2026-03-24 02:54:00,METAR KPNE 240254Z AUTO 35011G19KT 10SM CLR 03/M06 A3023 RMK AO2 PK WND 33027/0209 SLP238 T00281056 51027 TSNO,0,11.0,1,16090,1,0,0,TS
2026-03-24 01:54:00,METAR KPNE 240154Z 33016G25KT 10SM FEW044 03/M05 A3022 RMK AO2 PK WND 35026/0120 SLP233 T00331050,0,16.0,1,16090,0,0,0,
2026-03-24 00:54:00,METAR KPNE 240054Z 33016G28KT 10SM OVC041 04/M04 A3020 RMK AO2 PK WND 32028/0001 SLP227 T00391044,0,16.0,1,16090,0,0,0,
2026-03-23 23:54:00,METAR KPNE 232354Z 32016G25KT 10SM OVC038 04/M03 A3015 RMK AO2 PK WND 34031/2258 SLP212 60000 T00441033 10078 20044 51046,0,16.0,1,16090,0,0,0,
2026-03-23 22:54:00,METAR KPNE 232254Z 33016G29KT 10SM OVC038 04/M03 A3012 RMK AO2 PK WND 33035/2244 SLP199 T00441033,0,16.0,1,16090,0,0,0,
2026-03-23 21:54:00,METAR KPNE 232154Z 32018G25KT 10SM OVC030 05/M01 A3007 RMK AO2 PK WND 33027/2127 SLP182 T00501011,0,18.0,1,16090,0,0,0,
2026-03-23 20:54:00,METAR KPNE 232054Z 33014KT 10SM OVC026 06/02 A3002 RMK AO2 SLP165 60000 T00610022 53028,0,14.0,0,16090,0,0,0,
2026-03-23 19:54:00,METAR KPNE 231954Z 33013KT 10SM BKN024 OVC037 07/06 A2997 RMK AO2 SLP150 T00670061,0,13.0,0,16090,0,0,0,
2026-03-23 19:22:00,SPECI KPNE 231922Z 32012G23KT 10SM FEW008 SCT023 OVC035 06/06 A2995 RMK AO2 T00610061 ,0,12.0,1,16090,0,0,0,
2026-03-23 19:11:00,SPECI KPNE 231911Z 32015G24KT 4SM BR SCT008 BKN023 OVC033 06/06 A2995 RMK AO2 T00610061 ,0,15.0,1,6436,0,0,1,BR
2026-03-23 19:07:00,SPECI KPNE 231907Z 32016G24KT 2 1/2SM BR BKN008 BKN013 OVC022 06/06 A2995 RMK AO2 T00610061 ,0,16.0,1,4022,0,0,1,BR
2026-03-23 18:54:00,METAR KPNE 231854Z 33013G20KT 3SM BR BKN008 BKN013 OVC021 07/07 A2994 RMK AO2 RAB19E41 SLP137 P0000 T00670067,0,13.0,1,4827,0,0,1,"BR,RA"
2026-03-23 18:36:00,SPECI KPNE 231836Z 32012G19KT 2 1/2SM -RA BR BKN009 OVC014 07/07 A2992 RMK AO2 RAB19 CIG 006V011 P0000 T00720072 ,0,12.0,1,4022,0,0,1,"-RA,BR"
2026-03-23 18:29:00,SPECI KPNE 231829Z 33010KT 3SM -RA BR BKN009 OVC014 07/07 A2992 RMK AO2 RAB19 CIG 006V011 P0000 T00720072 ,0,10.0,0,4827,0,0,1,"-RA,BR"
2026-03-23 18:25:00,SPECI KPNE 231825Z 34009KT 2 1/2SM -RA BR OVC012 07/07 A2992 RMK AO2 RAB19 P0000 T00720072 ,0,9.0,0,4022,0,0,1,"-RA,BR"
2026-03-23 17:54:00,METAR KPNE 231754Z 01006KT 10SM OVC013 07/07 A2991 RMK AO2 SLP129 60002 T00720072 10106 20067 53024,0,6.0,0,16090,0,0,0,
2026-03-23 17:40:00,SPECI KPNE 231740Z 01009KT 10SM FEW009 BKN013 OVC034 07/07 A2991 RMK AO2 T00720072 ,0,9.0,0,16090,0,0,0,
2026-03-23 17:29:00,SPECI KPNE 231729Z 36010KT 10SM FEW010 BKN015 OVC035 07/07 A2990 RMK AO2 T00720072 ,0,10.0,0,16090,0,0,0,
2026-03-23 17:16:00,SPECI KPNE 231716Z 01011KT 10SM SCT009 BKN013 OVC035 07/07 A2990 RMK AO2 T00720072 ,0,11.0,0,16090,0,0,0,
2026-03-23 16:54:00,METAR KPNE 231654Z 01014G18KT 4SM BR SCT009 BKN016 OVC025 07/07 A2989 RMK AO2 RAB22E36 SLP120 P0001 T00720072,0,14.0,1,6436,0,0,1,"BR,RA"
2026-03-23 16:34:00,SPECI KPNE 231634Z 35012KT 3SM -RA BR SCT009 OVC016 07/07 A2989 RMK AO2 RAB22 P0001 T00670067 ,0,12.0,0,4827,0,0,1,"-RA,BR"
2026-03-23 16:27:00,SPECI KPNE 231627Z 35012G19KT 2 1/2SM -RA BR SCT009 BKN014 OVC022 07/07 A2989 RMK AO2 RAB22 P0000 T00720072 ,0,12.0,1,4022,0,0,1,"-RA,BR"
2026-03-23 16:01:00,SPECI KPNE 231601Z 03009KT 3SM BR BKN009 OVC014 08/08 A2987 RMK AO2 CIG 006V012 T00780078 ,0,9.0,0,4827,0,0,1,BR
2026-03-23 15:54:00,METAR KPNE 231554Z 05010KT 3SM BR SCT006 OVC011 07/07 A2986 RMK AO2 SLP111 T00720072,0,10.0,0,4827,0,0,1,BR
2026-03-23 15:48:00,SPECI KPNE 231548Z 04012KT 3SM BR SCT006 OVC010 07/07 A2986 RMK AO2 ,0,12.0,0,4827,0,0,1,BR
2026-03-23 15:21:00,SPECI KPNE 231521Z 03008KT 2 1/2SM BR OVC008 08/08 A2985 RMK AO2 CIG 005V011 T00780078 ,0,8.0,0,4022,0,0,1,BR
2026-03-23 15:14:00,SPECI KPNE 231514Z 36010KT 4SM BR OVC010 08/08 A2985 RMK AO2 T00780078 ,0,10.0,0,6436,0,0,1,BR
2026-03-23 14:54:00,METAR KPNE 231454Z 02011KT 3SM BR BKN007 OVC013 08/08 A2984 RMK AO2 SLP104 60001 T00780078 51031,0,11.0,0,4827,0,0,1,BR
2026-03-23 14:51:00,SPECI KPNE 231451Z 02010KT 3SM BR BKN007 OVC013 08/08 A2984 RMK AO2 ,0,10.0,0,4827,0,0,1,BR
2026-03-23 13:54:00,METAR KPNE 231354Z 03009KT 2 1/2SM BR OVC009 09/09 A2979 RMK AO2 CIG 006V012 SLP087 T00890089,0,9.0,0,4022,0,0,1,BR
2026-03-23 13:10:00,SPECI KPNE 231310Z 02010KT 6SM BR BKN007 OVC011 10/10 A2976 RMK AO2 CIG 007V010 T01000100 ,0,10.0,0,9654,0,0,1,BR
2026-03-23 12:54:00,METAR KPNE 231254Z 06009KT 10SM OVC011 10/10 A2975 RMK AO2 RAE13 SLP072 P0001 T01000100,0,9.0,0,16090,0,0,0,
2026-03-23 12:28:00,SPECI KPNE 231228Z 04008KT 10SM BKN010 OVC014 11/11 A2973 RMK AO2 RAE13 CIG 007V012 P0001 T01060106 $ ,0,8.0,0,16090,0,0,0,
2026-03-23 11:54:00,METAR KPNE 231154Z 04010KT 5SM -RA BR BKN009 OVC025 11/11 A2971 RMK AO2 SLP061 P0007 60012 70012 T01060106 10133 20106 53001 $,0,10.0,0,8045,0,0,1,"-RA,BR"
2026-03-23 11:49:00,SPECI KPNE 231149Z 04008KT 5SM -RA BR BKN009 BKN025 OVC065 11/11 A2972 RMK AO2 P0007 $ ,0,8.0,0,8045,0,0,1,"-RA,BR"
2026-03-23 11:41:00,SPECI KPNE 231141Z 06008KT 2 1/2SM -RA BR BKN008 BKN025 OVC060 11/11 A2971 RMK AO2 P0007 T01060106 $ ,0,8.0,0,4022,0,0,1,"-RA,BR"
2026-03-23 11:32:00,SPECI KPNE 231132Z 04006KT 4SM RA BR BKN008 BKN028 11/11 A2973 RMK AO2 P0003 T01060106 $ ,0,6.0,0,6436,0,0,1,"BR,RA"
2026-03-23 11:12:00,SPECI KPNE 231112Z AUTO 10003KT 7SM -RA FEW008 SCT033 OVC090 11/11 A2972 RMK AO2 PRESRR P0001 T01060106 TSNO $ ,0,3.0,0,11263,1,0,0,"-RA,TS"
2026-03-23 10:54:00,METAR KPNE 231054Z AUTO 05009KT 6SM -RA BR FEW055 OVC085 11/11 A2968 RMK AO2 PRESFR SLP048 P0003 T01060106 TSNO $,0,9.0,0,9654,1,0,1,"-RA,BR,TS"
2026-03-23 09:54:00,METAR KPNE 230954Z AUTO 08007KT 9SM -RA OVC070 12/09 A2971 RMK AO2 RAE20B29 SLP060 P0001 T01170094 TSNO $,0,7.0,0,14481,1,0,0,"-RA,RA,TS"
2026-03-23 09:40:00,SPECI KPNE 230940Z AUTO 10007KT 7SM -RA SCT008 OVC065 12/11 A2970 RMK AO2 RAE20B29 P0000 T01170106 TSNO $ ,0,7.0,0,11263,1,0,0,"-RA,RA,TS"
2026-03-23 09:24:00,SPECI KPNE 230924Z AUTO 08010KT 7SM OVC008 12/11 A2969 RMK AO2 RAE20 CIG 007V012 P0000 T01220106 TSNO $ ,0,10.0,0,11263,1,0,0,TS
2026-03-23 08:54:00,METAR KPNE 230854Z AUTO 03006KT 8SM -RA OVC010 13/11 A2973 RMK AO2 RAB48 SLP068 P0001 60001 T01280111 53009 TSNO $,0,6.0,0,12872,1,0,0,"-RA,TS"
2026-03-23 08:46:00,SPECI KPNE 230846Z AUTO 04005KT 9SM OVC010 13/11 A2973 RMK AO2 T01280106 TSNO $ ,0,5.0,0,14481,1,0,0,TS
2026-03-23 07:54:00,METAR KPNE 230754Z AUTO 03010KT 7SM OVC009 13/11 A2971 RMK AO2 CIG 009V014 PRESRR SLP059 T01280106 TSNO $,0,10.0,0,11263,1,0,0,TS
2026-03-23 07:30:00,SPECI KPNE 230730Z AUTO 05010KT 8SM BKN012 OVC021 13/11 A2968 RMK AO2 T01330106 TSNO $ ,0,10.0,0,12872,1,0,0,TS
2026-03-23 06:54:00,METAR KPNE 230654Z AUTO 03011KT 8SM OVC020 13/11 A2971 RMK AO2 SLP059 T01330106 TSNO $,0,11.0,0,12872,1,0,0,TS
2026-03-23 06:29:00,SPECI KPNE 230629Z AUTO 02011KT 8SM BKN023 13/11 A2971 RMK AO2 T01330106 TSNO $ ,0,11.0,0,12872,1,0,0,TS
2026-03-23 05:54:00,METAR KPNE 230554Z AUTO 02012KT 8SM FEW015 BKN110 13/10 A2971 RMK AO2 SLP059 60000 T01280100 10206 20128 55007 TSNO $,0,12.0,0,12872,1,0,0,TS
2026-03-23 04:54:00,METAR KPNE 230454Z AUTO 08008KT 9SM CLR 13/09 A2966 RMK AO2 PRESFR SLP043 T01280094 402330067 TSNO $,0,8.0,0,14481,1,0,0,TS
2026-03-23 03:54:00,METAR KPNE 230354Z AUTO 10012KT 10SM SCT110 14/11 A2967 RMK AO2 PRESFR SLP047 T01440106 TSNO $,0,12.0,0,16090,1,0,0,TS
2026-03-23 02:54:00,METAR KPNE 230254Z 05008KT 10SM BKN110 16/10 A2973 RMK AO2 SLP067 60000 T01610100 51025 $,0,8.0,0,16090,0,0,0,
2026-03-23 01:54:00,METAR KPNE 230154Z 08008KT 10SM FEW085 BKN110 18/12 A2969 RMK AO2 RAB00E14 SLP054 P0000 T01830117 $,0,8.0,0,16090,0,0,0,RA
2026-03-23 00:54:00,METAR KPNE 230054Z 35010KT 10SM BKN110 21/12 A2973 RMK AO2 PRESRR SLP066 T02060117 $,0,10.0,0,16090,0,0,0,
2026-03-23 00:11:00,SPECI KPNE 230011Z 05005KT 10SM CLR 19/11 A2966 RMK AO2 T01890111 $ ,0,5.0,0,16090,0,0,0,
2026-03-22 23:54:00,METAR KPNE 222354Z 00000KT 10SM CLR 19/11 A2966 RMK AO2 SLP041 T01890111 10233 20167 53002 $,0,0.0,0,16090,0,0,0,
2026-03-22 22:54:00,METAR KPNE 222254Z 00000KT 10SM CLR 23/11 A2962 RMK AO2 SLP030 T02280111 $,0,0.0,0,16090,0,0,0,
2026-03-22 21:54:00,METAR KPNE 222154Z 20007KT 10SM CLR 23/12 A2963 RMK AO2 SLP032 T02280117 $,0,7.0,0,16090,0,0,0,
2026-03-22 20:54:00,METAR KPNE 222054Z 22013G22KT 10SM CLR 23/11 A2965 RMK AO2 SLP039 T02280106 56038 $,0,13.0,1,16090,0,0,0,
2026-03-22 19:54:00,METAR KPNE 221954Z 21008KT 10SM CLR 21/11 A2969 RMK AO2 SLP053 T02060111 $,0,8.0,0,16090,0,0,0,
2026-03-22 17:54:00,METAR KPNE 221754Z VRB06KT 10SM CLR 17/11 A2976 RMK AO2 SLP077 T01670106 10172 20078 58018 $,0,6.0,0,16090,0,0,0,
2026-03-22 17:20:00,SPECI KPNE 221720Z 23008KT 10SM CLR 16/11 A2978 RMK AO2 T01610106 $ ,0,8.0,0,16090,0,0,0,
2026-03-22 17:01:00,SPECI KPNE 221701Z 22010G19KT 10SM SCT016 16/10 A2978 RMK AO2 T01560100 $ ,0,10.0,1,16090,0,0,0,
2026-03-22 16:54:00,METAR KPNE 221654Z 22013G19KT 10SM BKN016 16/11 A2978 RMK AO2 SLP084 T01560106 $,0,13.0,1,16090,0,0,0,
2026-03-22 16:45:00,SPECI KPNE 221645Z 21011G17KT 10SM BKN015 15/11 A2978 RMK AO2 T01500106 $ ,0,11.0,1,16090,0,0,0,
2026-03-22 15:54:00,METAR KPNE 221554Z 22009G18KT 10SM OVC013 14/10 A2982 RMK AO2 SLP096 T01390100 $,0,9.0,1,16090,0,0,0,
2026-03-22 15:49:00,SPECI KPNE 221549Z 21011G18KT 10SM OVC014 14/10 A2982 RMK AO2 $ ,0,11.0,1,16090,0,0,0,
2026-03-22 15:36:00,SPECI KPNE 221536Z 21010KT 10SM OVC015 13/09 A2982 RMK AO2 T01330094 $ ,0,10.0,0,16090,0,0,0,
2026-03-22 15:04:00,SPECI KPNE 221504Z 21009G17KT 10SM OVC014 13/09 A2983 RMK AO2 T01280089 $ ,0,9.0,1,16090,0,0,0,
2026-03-22 14:54:00,METAR KPNE 221454Z 22009KT 10SM OVC015 13/09 A2983 RMK AO2 SLP102 T01280089 58023 $,0,9.0,0,16090,0,0,0,
2026-03-22 14:34:00,SPECI KPNE 221434Z 20007KT 160V220 10SM OVC015 13/08 A2984 RMK AO2 T01280083 $ ,0,7.0,0,16090,0,0,0,
2026-03-22 13:54:00,METAR KPNE 221354Z 21006KT 10SM OVC013 11/07 A2986 RMK AO2 SLP110 T01060072 $,0,6.0,0,16090,0,0,0,
2026-03-22 13:26:00,SPECI KPNE 221326Z VRB04KT 10SM BKN010 10/07 A2987 RMK AO2 T01000067 $ ,0,4.0,0,16090,0,0,0,
2026-03-22 12:54:00,METAR KPNE 221254Z 17005KT 10SM BKN009 09/07 A2988 RMK AO2 SLP119 T00940067 $,0,5.0,0,16090,0,0,0,
2026-03-22 11:54:00,METAR KPNE 221154Z 14004KT 10SM OVC009 08/06 A2990 RMK AO2 SLP125 T00780056 10083 20067 56016 $,0,4.0,0,16090,0,0,0,
2026-03-22 11:42:00,SPECI KPNE 221142Z 13004KT 10SM BKN009 07/05 A2991 RMK AO2 T00720050 $ ,0,4.0,0,16090,0,0,0,
2026-03-22 11:08:00,SPECI KPNE 221108Z 13004KT 10SM BKN010 OVC036 08/05 A2992 RMK AO2 T00780050 $ ,0,4.0,0,16090,0,0,0,
2026-03-22 10:54:00,METAR KPNE 221054Z AUTO 14004KT 10SM FEW010 OVC035 08/05 A2992 RMK AO2 SLP131 T00780050 TSNO $,0,4.0,0,16090,1,0,0,TS
2026-03-22 09:54:00,METAR KPNE 220954Z AUTO 11005KT 10SM BKN032 OVC046 08/04 A2993 RMK AO2 SLP134 T00780044 TSNO $,0,5.0,0,16090,1,0,0,TS
2026-03-22 08:54:00,METAR KPNE 220854Z AUTO 05004KT 10SM OVC032 08/04 A2995 RMK AO2 SLP141 T00780044 58010 TSNO $,0,4.0,0,16090,1,0,0,TS
2026-03-22 08:47:00,SPECI KPNE 220847Z AUTO 05003KT 10SM BKN029 OVC036 08/04 A2995 RMK AO2 T00780044 TSNO $ ,0,3.0,0,16090,1,0,0,TS
2026-03-22 07:54:00,METAR KPNE 220754Z AUTO 18006KT 10SM OVC038 08/04 A2993 RMK AO2 PRESFR SLP134 T00780044 TSNO $,0,6.0,0,16090,1,0,0,TS
2026-03-22 06:54:00,METAR KPNE 220654Z AUTO 03003KT 10SM BKN048 07/04 A3000 RMK AO2 SLP158 T00670039 TSNO $,0,3.0,0,16090,1,0,0,TS
2026-03-22 05:54:00,METAR KPNE 220554Z AUTO 17003KT 10SM CLR 07/03 A2998 RMK AO2 SLP151 T00720033 10122 20072 55003 TSNO $,0,3.0,0,16090,1,0,0,TS
2026-03-22 04:54:00,METAR KPNE 220454Z AUTO 16003KT 10SM CLR 08/03 A2997 RMK AO2 SLP149 T00780033 401610067 TSNO $,0,3.0,0,16090,1,0,0,TS
2026-03-22 03:54:00,METAR KPNE 220354Z AUTO 15006KT 10SM FEW120 09/04 A2997 RMK AO2 SLP149 T00940039 TSNO $,0,6.0,0,16090,1,0,0,TS
2026-03-22 02:54:00,METAR KPNE 220254Z 13008KT 10SM FEW110 10/02 A2999 RMK AO2 SLP154 T01000017 53006 $,0,8.0,0,16090,0,0,0,
2026-03-22 01:54:00,METAR KPNE 220154Z 00000KT 10SM CLR 11/02 A2997 RMK AO2 SLP148 T01110017 $,0,0.0,0,16090,0,0,0,
2026-03-22 00:54:00,METAR KPNE 220054Z 03004KT 10SM CLR 12/01 A2997 RMK AO2 SLP148 T01170011 $,0,4.0,0,16090,0,0,0,
2026-03-21 23:54:00,METAR KPNE 212354Z 33006KT 10SM CLR 12/01 A2997 RMK AO2 SLP147 T01220006 10161 20122 52015 $,0,6.0,0,16090,0,0,0,
2026-03-21 22:54:00,METAR KPNE 212254Z 33006KT 10SM CLR 12/02 A2996 RMK AO2 SLP144 T01220017 $,0,6.0,0,16090,0,0,0,
2026-03-21 21:54:00,METAR KPNE 212154Z 36008KT 10SM CLR 13/02 A2993 RMK AO2 SLP136 T01330017 $,0,8.0,0,16090,0,0,0,
2026-03-21 20:54:00,METAR KPNE 212054Z 34008KT 10SM CLR 15/02 A2993 RMK AO2 SLP133 T01500017 55005 $,0,8.0,0,16090,0,0,0,
2026-03-21 19:54:00,METAR KPNE 211954Z 10SM CLR 16/02 A2992 RMK AO2 SLP131 T01560022 $,0,,0,16090,0,0,0,
2026-03-21 18:54:00,METAR KPNE 211854Z 32010G15KT 10SM CLR 15/03 A2993 RMK AO2 SLP134 T01500028 $,0,10.0,1,16090,0,0,0,
2026-03-21 18:12:00,SPECI KPNE 211812Z 31008KT 10SM CLR 15/03 A2994 RMK AO2 T01500033 $ ,0,8.0,0,16090,0,0,0,
2026-03-21 18:00:00,SPECI KPNE 211800Z 34011G19KT 1 3/4SM HZ CLR 14/03 A2994 RMK AO2 T01440033 $ ,0,11.0,1,2816,0,0,0,
2026-03-21 17:54:00,METAR KPNE 211754Z 33010G19KT 10SM CLR 15/03 A2994 RMK AO2 SLP138 T01500033 10150 20100 51010 $,0,10.0,1,16090,0,0,0,
2026-03-21 16:54:00,METAR KPNE 211654Z 33012KT 10SM CLR 15/04 A2994 RMK AO2 SLP136 T01500044 $,0,12.0,0,16090,0,0,0,
2026-03-21 15:54:00,METAR KPNE 211554Z 33013KT 10SM FEW026 14/06 A2993 RMK AO2 SLP134 T01440061 $,0,13.0,0,16090,0,0,0,
2026-03-21 14:54:00,METAR KPNE 211454Z 35014G19KT 10SM BKN024 14/08 A2991 RMK AO2 SLP128 T01440078 52029 $,0,14.0,1,16090,0,0,0,
2026-03-21 13:54:00,METAR KPNE 211354Z 36010G19KT 10SM OVC017 14/09 A2988 RMK AO2 SLP119 T01390089 $,0,10.0,1,16090,0,0,0,
2026-03-21 13:33:00,SPECI KPNE 211333Z 35012KT 10SM BKN016 13/09 A2988 RMK AO2 T01280094 $ ,0,12.0,0,16090,0,0,0,
2026-03-21 13:26:00,SPECI KPNE 211326Z 36014KT 10SM BKN014 12/09 A2987 RMK AO2 T01220094 $ ,0,14.0,0,16090,0,0,0,
2026-03-21 12:54:00,METAR KPNE 211254Z 34009KT 7SM CLR 12/11 A2985 RMK AO2 SLP108 T01220106 $,0,9.0,0,11263,0,0,0,
2026-03-21 11:54:00,METAR KPNE 211154Z 33005KT 4SM BR OVC050 10/10 A2983 RMK AO2 SLP099 70010 T01000100 10106 20067 51022 $,0,5.0,0,6436,0,0,1,BR
2026-03-21 11:46:00,SPECI KPNE 211146Z 31004KT 3SM BR OVC050 10/09 A2982 RMK AO2 T01000089 $ ,0,4.0,0,4827,0,0,1,BR
2026-03-21 11:08:00,SPECI KPNE 211108Z 00000KT 1 1/4SM BR OVC048 08/08 A2981 RMK AO2 T00780078 $ ,0,0.0,0,2011,0,0,1,BR
2026-03-21 10:54:00,METAR KPNE 211054Z 00000KT 3/4SM BR FEW003 BKN048 08/08 A2981 RMK AO2 SLP092 T00780078 RVRNO $,0,0.0,0,1207,0,0,1,BR
2026-03-21 10:45:00,SPECI KPNE 211045Z 00000KT 1/2SM FG FEW003 SCT050 08/08 A2980 RMK AO2 T00780078 RVRNO $ ,0,0.0,0,804,0,0,1,FG
2026-03-21 10:34:00,SPECI KPNE 211034Z 00000KT 1/4SM FG VV003 08/08 A2979 RMK AO2 T00780078 RVRNO $ ,0,0.0,0,402,0,0,1,FG
2026-03-21 10:27:00,SPECI KPNE 211027Z 00000KT 1/4SM FG FEW050 08/07 A2978 RMK AO2 T00780072 RVRNO $ ,0,0.0,0,402,0,0,1,FG
2026-03-21 10:03:00,SPECI KPNE 211003Z 00000KT 3/4SM BR BKN050 OVC070 08/08 A2978 RMK AO2 T00780078 RVRNO $ ,0,0.0,0,1207,0,0,1,BR
2026-03-21 09:54:00,METAR KPNE 210954Z 00000KT 1/4SM FG SCT050 BKN070 08/08 A2979 RMK AO2 SLP086 T00830083 RVRNO $,0,0.0,0,402,0,0,1,FG
2026-03-21 09:44:00,SPECI KPNE 210944Z 00000KT 1/4SM FG SCT002 BKN070 08/08 A2978 RMK AO2 T00780078 RVRNO $ ,0,0.0,0,402,0,0,1,FG
2026-03-21 09:08:00,SPECI KPNE 210908Z AUTO 00000KT 1/4SM FG VV003 09/08 A2976 RMK AO2 T00890083 TSNO RVRNO $ ,0,0.0,0,402,1,0,1,"FG,TS"
2026-03-21 08:54:00,METAR KPNE 210854Z AUTO 00000KT 1/4SM FG FEW004 SCT085 09/09 A2976 RMK AO2 SLP077 T00890089 55001 TSNO RVRNO $,0,0.0,0,402,1,0,1,"FG,TS"
2026-03-21 08:51:00,SPECI KPNE 210851Z AUTO 00000KT 1/4SM FG FEW004 SCT085 09/08 A2976 RMK AO2 TSNO RVRNO $ ,0,0.0,0,402,1,0,1,"FG,TS"
2026-03-21 08:38:00,SPECI KPNE 210838Z AUTO 00000KT 1/2SM FG BKN085 09/09 A2976 RMK AO2 T00890089 TSNO RVRNO $ ,0,0.0,0,804,1,0,1,"FG,TS"
2026-03-21 08:25:00,SPECI KPNE 210825Z AUTO 00000KT 1/4SM FG OVC085 09/08 A2976 RMK AO2 T00890083 TSNO RVRNO $ ,0,0.0,0,402,1,0,1,"FG,TS"
2026-03-21 08:08:00,SPECI KPNE 210808Z AUTO 03003KT 1/2SM FG OVC090 09/08 A2976 RMK AO2 T00890083 TSNO RVRNO $ ,0,3.0,0,804,1,0,1,"FG,TS"
2026-03-21 07:54:00,METAR KPNE 210754Z 00000KT 1 1/4SM BR BKN090 09/09 A2976 RMK AO2 SLP077 T00940094 $,0,0.0,0,2011,0,0,1,BR
2026-03-21 07:50:00,SPECI KPNE 210750Z 00000KT 1 1/4SM BR BKN090 09/09 A2976 RMK AO2 $ ,0,0.0,0,2011,0,0,1,BR
2026-03-21 07:35:00,SPECI KPNE 210735Z 00000KT 2SM BR SCT095 10/10 A2976 RMK AO2 T01000100 $ ,0,0.0,0,3218,0,0,1,BR
2026-03-21 06:54:00,METAR KPNE 210654Z 00000KT 4SM HZ BKN048 BKN065 OVC095 11/ A2977 RMK AO2 SLP079 T0106 $,0,0.0,0,6436,0,0,0,
2026-03-21 05:54:00,METAR KPNE 210554Z 00000KT 7SM BKN048 BKN070 OVC085 11/11 A2978 RMK AO2 SLP083 60010 T01060106 10150 20106 56009 $,0,0.0,0,11263,0,0,0,
2026-03-21 04:54:00,METAR KPNE 210454Z 00000KT 8SM SCT050 OVC060 11/11 A2978 RMK AO2 SLP085 T01060106 401890028 $,0,0.0,0,12872,0,0,0,
2026-03-21 03:54:00,METAR KPNE 210354Z 22005KT 10SM OVC060 12/12 A2979 RMK AO2 SLP087 T01170117 $,0,5.0,0,16090,0,0,0,
2026-03-21 02:54:00,METAR KPNE 210254Z 20003KT 10SM OVC065 11/11 A2981 RMK AO2 RAE46 SLP092 P0002 60010 T01110111 58004,0,3.0,0,16090,0,0,0,
2026-03-21 01:54:00,METAR KPNE 210154Z 20007KT 6SM -RA BR BKN050 OVC065 11/10 A2982 RMK AO2 SLP099 P0007 T01110100,0,7.0,0,9654,0,0,1,"-RA,BR"
2026-03-21 00:54:00,METAR KPNE 210054Z 21007KT 9SM -RA SCT042 OVC065 13/08 A2983 RMK AO2 RAB11 SLP102 P0001 T01330078,0,7.0,0,14481,0,0,0,-RA
2026-03-20 23:54:00,METAR KPNE 202354Z 21007KT 10SM OVC065 15/05 A2982 RMK AO2 SLP098 T01500050 10189 20150 53003,0,7.0,0,16090,0,0,0,
2026-03-20 22:54:00,METAR KPNE 202254Z 21011G20KT 10SM OVC075 17/04 A2981 RMK AO2 SLP093 T01670039,0,11.0,1,16090,0,0,0,
2026-03-20 21:54:00,METAR KPNE 202154Z 21010G27KT 10SM FEW050 BKN080 OVC095 18/04 A2980 RMK AO2 PK WND 19028/2128 SLP089 T01780039,0,10.0,1,16090,0,0,0,
2026-03-20 20:54:00,METAR KPNE 202054Z 20012G25KT 10SM CLR 19/03 A2981 RMK AO2 PK WND 21026/2018 SLP094 T01890033 56047,0,12.0,1,16090,0,0,0,
2026-03-20 19:54:00,METAR KPNE 201954Z 20014G22KT 10SM FEW100 19/03 A2984 RMK AO2 PK WND 24028/1916 PRESFR SLP105 T01890033,0,14.0,1,16090,0,0,0,
2026-03-20 18:54:00,METAR KPNE 201854Z 22016G26KT 10SM BKN100 18/03 A2990 RMK AO2 PK WND 22027/1803 SLP125 T01780028,0,16.0,1,16090,0,0,0,
2026-03-20 17:54:00,METAR KPNE 201754Z 22012G21KT 10SM CLR 18/03 A2995 RMK AO2 SLP141 T01780028 10178 20039 58045,0,12.0,1,16090,0,0,0,
2026-03-20 16:54:00,METAR KPNE 201654Z 21007G16KT 10SM CLR 16/03 A3000 RMK AO2 SLP159 T01610028,0,7.0,1,16090,0,0,0,
2026-03-20 15:54:00,METAR KPNE 201554Z 21008KT 10SM CLR 13/02 A3005 RMK AO2 SLP174 T01330022,0,8.0,0,16090,0,0,0,
2026-03-20 14:54:00,METAR KPNE 201454Z 20007KT 160V230 10SM CLR 10/02 A3008 RMK AO2 SLP187 T01000017 58022,0,7.0,0,16090,0,0,0,
2026-03-20 13:54:00,METAR KPNE 201354Z 22008KT 10SM CLR 08/01 A3011 RMK AO2 SLP196 T00780011,0,8.0,0,16090,0,0,0,
2026-03-20 12:54:00,METAR KPNE 201254Z 23007KT 10SM CLR 06/01 A3013 RMK AO2 SLP204 T00610006,0,7.0,0,16090,0,0,0,
2026-03-20 11:54:00,METAR KPNE 201154Z 21004KT 10SM CLR 04/00 A3015 RMK AO2 SLP210 T00390000 10050 20028 53007,0,4.0,0,16090,0,0,0,
2026-03-20 10:54:00,METAR KPNE 201054Z 00000KT 10SM CLR 03/M01 A3014 RMK AO2 SLP207 T00331006,0,0.0,0,16090,0,0,0,
2026-03-20 09:54:00,METAR KPNE 200954Z 21004KT 10SM CLR 03/M01 A3013 RMK AO2 SLP204 T00281011,0,4.0,0,16090,0,0,0,
2026-03-20 08:54:00,METAR KPNE 200854Z AUTO 19003KT 10SM CLR 03/M01 A3013 RMK AO2 SLP202 T00281011 58022 TSNO,0,3.0,0,16090,1,0,0,TS
2026-03-20 07:54:00,METAR KPNE 200754Z AUTO 21004KT 10SM CLR 03/M01 A3015 RMK AO2 SLP210 T00281011 TSNO,0,4.0,0,16090,1,0,0,TS
2026-03-20 06:54:00,METAR KPNE 200654Z AUTO 21004KT 10SM FEW055 04/M02 A3018 RMK AO2 SLP220 T00391017 TSNO,0,4.0,0,16090,1,0,0,TS
2026-03-20 05:54:00,METAR KPNE 200554Z AUTO 22004KT 10SM CLR 04/M02 A3019 RMK AO2 SLP225 T00441022 10078 20044 58004 TSNO,0,4.0,0,16090,1,0,0,TS
2026-03-20 04:54:00,METAR KPNE 200454Z AUTO 00000KT 10SM FEW065 BKN085 06/M03 A3020 RMK AO2 SLP228 T00561033 400940000 TSNO,0,0.0,0,16090,1,0,0,TS
2026-03-20 03:54:00,METAR KPNE 200354Z AUTO 21009KT 10SM BKN060 OVC075 06/M04 A3021 RMK AO2 SLP229 T00611044 TSNO,0,9.0,0,16090,1,0,0,TS
2026-03-20 02:54:00,METAR KPNE 200254Z AUTO 21005KT 10SM SCT060 OVC080 07/M02 A3021 RMK AO2 SLP229 T00671017 53006 TSNO,0,5.0,0,16090,1,0,0,TS
2026-03-20 01:54:00,METAR KPNE 200154Z VRB03KT 10SM OVC095 07/M02 A3020 RMK AO2 SLP226 T00721017,0,3.0,0,16090,0,0,0,
2026-03-20 00:54:00,METAR KPNE 200054Z 18003KT 10SM OVC070 08/M02 A3019 RMK AO2 SLP224 T00781017,0,3.0,0,16090,0,0,0,
2026-03-19 23:54:00,METAR KPNE 192354Z 22003KT 10SM FEW075 08/M02 A3019 RMK AO2 SLP223 T00781022 10094 20061 53000,0,3.0,0,16090,0,0,0,
2026-03-19 22:54:00,METAR KPNE 192254Z 21007KT 10SM FEW075 08/M03 A3018 RMK AO2 SLP221 T00831028,0,7.0,0,16090,0,0,0,
2026-03-19 21:54:00,METAR KPNE 192154Z 20005KT 10SM CLR 09/M03 A3018 RMK AO2 SLP221 T00891033,0,5.0,0,16090,0,0,0,
2026-03-19 20:54:00,METAR KPNE 192054Z 22004KT 10SM CLR 09/M03 A3019 RMK AO2 SLP223 T00891033 56026,0,4.0,0,16090,0,0,0,
2026-03-19 19:54:00,METAR KPNE 191954Z 22012G17KT 10SM CLR 08/M03 A3021 RMK AO2 SLP230 T00831033,0,12.0,1,16090,0,0,0,
2026-03-19 18:54:00,METAR KPNE 191854Z 21005KT 10SM OVC060 07/M03 A3024 RMK AO2 SLP240 T00721028,0,5.0,0,16090,0,0,0,
2026-03-19 17:54:00,METAR KPNE 191754Z 25006KT 10SM OVC055 07/M03 A3027 RMK AO2 SLP249 T00671033 10067 20011 58017,0,6.0,0,16090,0,0,0,
2026-03-19 17:19:00,SPECI KPNE 191719Z 24009KT 10SM OVC060 06/M04 A3028 RMK AO2 T00611039 ,0,9.0,0,16090,0,0,0,
2026-03-19 16:54:00,METAR KPNE 191654Z 10SM OVC060 06/M04 A3029 RMK AO2 SLP256 T00561039 $,0,,0,16090,0,0,0,
2026-03-19 15:54:00,METAR KPNE 191554Z 20007KT 10SM OVC070 05/M05 A3031 RMK AO2 SLP263 T00501050 $,0,7.0,0,16090,0,0,0,
2026-03-19 14:54:00,METAR KPNE 191454Z 18006KT 10SM OVC070 04/M06 A3032 RMK AO2 SLP266 T00391056 50000,0,6.0,0,16090,0,0,0,
2026-03-19 13:54:00,METAR KPNE 191354Z 16003KT 10SM OVC070 03/M06 A3033 RMK AO2 SLP270 T00281056,0,3.0,0,16090,0,0,0,
2026-03-19 12:54:00,METAR KPNE 191254Z 19005KT 10SM OVC070 02/M05 A3032 RMK AO2 SLP267 T00171050,0,5.0,0,16090,0,0,0,
2026-03-19 11:54:00,METAR KPNE 191154Z 15004KT 10SM FEW055 BKN080 OVC100 01/M05 A3032 RMK AO2 SLP266 T00111050 10011 20000 55001,0,4.0,0,16090,0,0,0,
2026-03-19 10:54:00,METAR KPNE 191054Z 16003KT 10SM OVC060 01/M06 A3031 RMK AO2 SLP265 T00111056,0,3.0,0,16090,0,0,0,
2026-03-19 09:54:00,METAR KPNE 190954Z 00000KT 10SM FEW070 OVC090 01/M06 A3031 RMK AO2 SLP266 T00061061,0,0.0,0,16090,0,0,0,
2026-03-19 08:54:00,METAR KPNE 190854Z 18004KT 10SM OVC095 01/M06 A3032 RMK AO2 SLP267 T00061061 56017,0,4.0,0,16090,0,0,0,
2026-03-19 07:54:00,METAR KPNE 190754Z VRB03KT 10SM BKN090 BKN120 01/M07 A3033 RMK AO2 SLP270 T00061067,0,3.0,0,16090,0,0,0,
2026-03-19 06:54:00,METAR KPNE 190654Z 17004KT 10SM BKN080 OVC110 01/M07 A3034 RMK AO2 SLP275 T00061067,0,4.0,0,16090,0,0,0,
2026-03-19 05:54:00,METAR KPNE 190554Z 18004KT 10SM OVC090 00/M07 A3037 RMK AO2 SLP284 T00001072 10017 20000 56006,0,4.0,0,16090,0,0,0,
2026-03-19 04:54:00,METAR KPNE 190454Z VRB03KT 10SM OVC100 00/M08 A3037 RMK AO2 SLP285 T00001078 400391039,0,3.0,0,16090,0,0,0,
2026-03-19 03:54:00,METAR KPNE 190354Z 15006KT 10SM FEW120 00/M09 A3037 RMK AO2 SLP284 T00001089,0,6.0,0,16090,0,0,0,
2026-03-19 02:54:00,METAR KPNE 190254Z 00000KT 10SM BKN120 01/M10 A3038 RMK AO2 SLP289 T00061100 50006,0,0.0,0,16090,0,0,0,
2026-03-19 01:54:00,METAR KPNE 190154Z 18003KT 10SM CLR 01/M10 A3039 RMK AO2 SLP290 T00061100,0,3.0,0,16090,0,0,0,
2026-03-19 00:54:00,METAR KPNE 190054Z 00000KT 10SM CLR 01/M11 A3038 RMK AO2 SLP288 T00111106,0,0.0,0,16090,0,0,0,
2026-03-18 23:54:00,METAR KPNE 182354Z 21004KT 10SM CLR 02/M10 A3037 RMK AO2 SLP284 T00171100 10039 20006 56003,0,4.0,0,16090,0,0,0,
2026-03-18 22:54:00,METAR KPNE 182254Z 23007KT 10SM CLR 02/M10 A3037 RMK AO2 SLP284 T00221100,0,7.0,0,16090,0,0,0,
2026-03-18 21:54:00,METAR KPNE 182154Z 23008KT 10SM CLR 03/M11 A3037 RMK AO2 SLP283 T00331106,0,8.0,0,16090,0,0,0,
2026-03-18 20:54:00,METAR KPNE 182054Z 21007KT 10SM CLR 04/M12 A3038 RMK AO2 SLP287 T00391117 56020,0,7.0,0,16090,0,0,0,
2026-03-18 19:54:00,METAR KPNE 181954Z 23010KT 10SM CLR 03/M12 A3039 RMK AO2 SLP291 T00331122,0,10.0,0,16090,0,0,0,
2026-03-18 18:54:00,METAR KPNE 181854Z 24006KT 10SM CLR 02/M13 A3041 RMK AO2 SLP298 T00171128,0,6.0,0,16090,0,0,0,
2026-03-18 17:54:00,METAR KPNE 181754Z VRB06KT 10SM CLR 01/M13 A3044 RMK AO2 SLP307 T00111128 10017 21033 50008,0,6.0,0,16090,0,0,0,
2026-03-18 17:32:00,SPECI KPNE 181732Z 00000KT 10SM CLR 01/M13 A3045 RMK AO2 T00111128 ,0,0.0,0,16090,0,0,0,
2026-03-18 17:29:00,SPECI KPNE 181729Z 10SM CLR 01/M13 A3045 RMK AO2 T00111128 ,0,,0,16090,0,0,0,
2026-03-18 16:54:00,METAR KPNE 181654Z 00000KT 10SM CLR 00/M12 A3045 RMK AO2 SLP313 T00001122,0,0.0,0,16090,0,0,0,
2026-03-18 15:54:00,METAR KPNE 181554Z 00000KT 10SM CLR M01/M13 A3044 RMK AO2 SLP308 T10061128,0,0.0,0,16090,0,0,0,
2026-03-18 14:54:00,METAR KPNE 181454Z 02009KT 10SM CLR M01/M13 A3041 RMK AO2 SLP299 T10061128 56014,0,9.0,0,16090,0,0,0,
2026-03-18 13:54:00,METAR KPNE 181354Z 02010KT 10SM CLR M02/M13 A3041 RMK AO2 SLP299 T10171128,0,10.0,0,16090,0,0,0,
2026-03-18 12:54:00,METAR KPNE 181254Z 35011KT 10SM CLR M03/M13 A3043 RMK AO2 SLP306 T10281128,0,11.0,0,16090,0,0,0,
2026-03-18 11:54:00,METAR KPNE 181154Z 32005KT 10SM CLR M03/M12 A3045 RMK AO2 SLP312 T10331122 11017 21039 51042,0,5.0,0,16090,0,0,0,
2026-03-18 10:54:00,METAR KPNE 181054Z 30006KT 10SM CLR M04/M12 A3041 RMK AO2 SLP299 T10391117,0,6.0,0,16090,0,0,0,
2026-03-18 09:54:00,METAR KPNE 180954Z AUTO 28006KT 10SM CLR M03/M11 A3037 RMK AO2 PRESRR SLP285 T10331111 PWINO FZRANO TSNO,0,6.0,0,16090,1,0,0,TS
2026-03-18 08:54:00,METAR KPNE 180854Z AUTO 30006KT 10SM CLR M03/M11 A3033 RMK AO2 SLP270 T10331111 53017 PWINO FZRANO TSNO,0,6.0,0,16090,1,0,0,TS
2026-03-18 07:54:00,METAR KPNE 180754Z AUTO 29005KT 10SM CLR M03/M11 A3030 RMK AO2 SLP260 T10281111 PWINO FZRANO TSNO,0,5.0,0,16090,1,0,0,TS
2026-03-18 06:54:00,METAR KPNE 180654Z 31007KT 10SM CLR M02/M12 A3029 RMK AO2 SLP258 T10221117,0,7.0,0,16090,0,0,0,
2026-03-18 05:54:00,METAR KPNE 180554Z 29010KT 10SM CLR M02/M12 A3028 RMK AO2 SLP253 T10171117 10017 21017 51022,0,10.0,0,16090,0,0,0,
2026-03-18 04:54:00,METAR KPNE 180454Z 30010KT 10SM CLR M01/M11 A3026 RMK AO2 SLP246 T10111111 400561011,0,10.0,0,16090,0,0,0,
2026-03-18 03:54:00,METAR KPNE 180354Z 29011KT 10SM CLR M01/M11 A3023 RMK AO2 SLP237 T10061111,0,11.0,0,16090,0,0,0,
2026-03-18 02:54:00,METAR KPNE 180254Z 29013G20KT 10SM CLR 00/M10 A3021 RMK AO2 SLP230 T00001100 51042,0,13.0,1,16090,0,0,0,
2026-03-18 01:54:00,METAR KPNE 180154Z 31012G20KT 10SM FEW070 01/M09 A3017 RMK AO2 SLP217 T00061094,0,12.0,1,16090,0,0,0,
2026-03-18 00:54:00,METAR KPNE 180054Z 30010G18KT 10SM CLR 01/M11 A3014 RMK AO2 SLP205 T00061106,0,10.0,1,16090,0,0,0,
2026-03-17 23:54:00,METAR KPNE 172354Z 30012G20KT 10SM FEW050 FEW065 SCT090 02/M11 A3009 RMK AO2 SLP188 T00171106 10056 20017 51038,0,12.0,1,16090,0,0,0,
2026-03-17 22:54:00,METAR KPNE 172254Z 28013G19KT 10SM FEW055 BKN080 02/M10 A3005 RMK AO2 SLP178 T00221100,0,13.0,1,16090,0,0,0,
2026-03-17 22:30:00,SPECI KPNE 172230Z 28011G20KT 10SM OVC080 03/M09 A3004 RMK AO2 T00281094 ,0,11.0,1,16090,0,0,0,
2026-03-17 21:54:00,METAR KPNE 172154Z 30013G22KT 10SM OVC065 03/M09 A3001 RMK AO2 SLP162 T00281089,0,13.0,1,16090,0,0,0,
2026-03-17 20:54:00,METAR KPNE 172054Z 28016G27KT 10SM OVC070 03/M11 A2997 RMK AO2 PK WND 29029/2009 SLP150 T00331106 53010,0,16.0,1,16090,0,0,0,
2026-03-17 19:54:00,METAR KPNE 171954Z 28017G26KT 10SM OVC065 04/M09 A2995 RMK AO2 PK WND 28026/1954 SLP143 T00391094,0,17.0,1,16090,0,0,0,
2026-03-17 18:54:00,METAR KPNE 171854Z 29017G24KT 10SM SCT060 06/M08 A2993 RMK AO2 PK WND 29026/1841 SLP136 T00561083,0,17.0,1,16090,0,0,0,
2026-03-17 17:54:00,METAR KPNE 171754Z 29014G23KT 10SM SCT060 04/M08 A2994 RMK AO2 PK WND 26029/1723 SLP140 T00441083 10050 20006 55006,0,14.0,1,16090,0,0,0,
2026-03-17 16:54:00,METAR KPNE 171654Z 28015G30KT 10SM CLR 04/M09 A2994 RMK AO2 PK WND 28030/1559 SLP138 T00391089,0,15.0,1,16090,0,0,0,
2026-03-17 15:54:00,METAR KPNE 171554Z 28016G31KT 10SM CLR 03/M09 A2995 RMK AO2 PK WND 32031/1549 SLP142 T00281094,0,16.0,1,16090,0,0,0,
2026-03-17 14:54:00,METAR KPNE 171454Z 29019G30KT 10SM FEW047 02/M09 A2996 RMK AO2 PK WND 29030/1453 SLP145 T00221094 53041,0,19.0,1,16090,0,0,0,
2026-03-17 13:54:00,METAR KPNE 171354Z 27019G27KT 10SM FEW048 02/M08 A2992 RMK AO2 PK WND 30027/1350 SLP132 T00171083,0,19.0,1,16090,0,0,0,
2026-03-17 12:54:00,METAR KPNE 171254Z 28013G25KT 10SM FEW043 01/M08 A2988 RMK AO2 PK WND 29028/1229 SLP118 T00111083,0,13.0,1,16090,0,0,0,
2026-03-17 11:54:00,METAR KPNE 171154Z 28017G28KT 10SM CLR 01/M09 A2984 RMK AO2 PK WND 26030/1101 SLP105 T00061089 10039 20006 53048,0,17.0,1,16090,0,0,0,
2026-03-17 10:54:00,METAR KPNE 171054Z 27020G29KT 10SM CLR 01/M09 A2979 RMK AO2 PK WND 28029/1049 SLP087 T00111089,0,20.0,1,16090,0,0,0,
2026-03-17 09:54:00,METAR KPNE 170954Z 27019G29KT 10SM FEW050 02/M07 A2974 RMK AO2 PK WND 29031/0941 SLP069 T00171072,0,19.0,1,16090,0,0,0,
2026-03-17 08:54:00,METAR KPNE 170854Z AUTO 27020G26KT 10SM BKN046 02/M06 A2970 RMK AO2 PK WND 27033/0758 SLP056 T00221056 51040 PWINO FZRANO TSNO,0,20.0,1,16090,1,0,0,TS
2026-03-17 07:54:00,METAR KPNE 170754Z AUTO 29021G36KT 10SM BKN048 03/M05 A2965 RMK AO2 PK WND 28036/0751 SLP041 T00281050 PWINO TSNO,0,21.0,1,16090,1,0,0,TS
2026-03-17 06:54:00,METAR KPNE 170654Z AUTO 27018G25KT 10SM CLR 03/M02 A2963 RMK AO2 PK WND 28032/0626 SLP034 T00281017 PWINO TSNO,0,18.0,1,16090,1,0,0,TS
2026-03-17 06:12:00,SPECI KPNE 170612Z AUTO 28015G26KT 10SM SCT022 03/M01 A2959 RMK AO2 PK WND 28026/0606 T00331006 PWINO TSNO ,0,15.0,1,16090,1,0,0,TS
2026-03-17 05:54:00,METAR KPNE 170554Z AUTO 27013G27KT 10SM BKN023 OVC075 04/01 A2958 RMK AO2 PK WND 28030/0504 SLP015 T00390006 10178 20039 51107 PWINO TSNO,0,13.0,1,16090,1,0,0,TS
2026-03-17 05:24:00,SPECI KPNE 170524Z AUTO 27016G23KT 10SM SCT017 BKN021 OVC065 04/02 A2955 RMK AO2 PK WND 28030/0504 T00440022 PWINO TSNO ,0,16.0,1,16090,1,0,0,TS
2026-03-17 04:54:00,METAR KPNE 170454Z AUTO 28015G29KT 7SM FEW020 BKN050 OVC070 04/02 A2949 RMK AO2 PK WND 28040/0406 SLP985 T00440022 402060044 PWINO TSNO,0,15.0,1,11263,1,0,0,TS
2026-03-17 03:54:00,METAR KPNE 170354Z AUTO 29023G47KT 4SM HZ SCT028 OVC039 06/03 A2940 RMK AO2 PK WND 26050/0320 WSHFT 0316 SLP957 T00610033 PWINO TSNO,0,23.0,1,6436,1,0,0,TS
2026-03-17 03:36:00,SPECI KPNE 170336Z AUTO 29029G45KT 3SM BR SCT013 OVC020 07/05 A2938 RMK AO2 PK WND 26050/0320 WSHFT 0316 T00720050 PWINO TSNO ,0,29.0,1,4827,1,0,1,"BR,TS"
2026-03-17 03:31:00,SPECI KPNE 170331Z AUTO 28026G49KT 1 1/4SM BR OVC016 07/06 A2936 RMK AO2 PK WND 26050/0320 WSHFT 0316 T00720056 PWINO TSNO ,0,26.0,1,2011,1,0,1,"BR,TS"
2026-03-17 03:29:00,SPECI KPNE 170329Z AUTO 28031G50KT 1SM BR OVC014 08/06 A2936 RMK AO2 PK WND 26050/0320 WSHFT 0309 PRESRR T00780061 PWINO TSNO RVRNO ,0,31.0,1,1609,1,0,1,"BR,TS"
2026-03-17 03:22:00,SPECI KPNE 170322Z AUTO 28029G50KT 2 1/2SM BR SQ OVC014 13/12 A2933 RMK AO2 PK WND 26050/0320 PRESRR T01330117 PWINO TSNO ,0,29.0,1,4022,1,0,1,"BR,SQ,TS"
2026-03-17 03:14:00,SPECI KPNE 170314Z AUTO 19013G30KT 150V230 9SM OVC013 18/16 A2925 RMK AO2 PK WND 18033/0301 T01780156 PWINO TSNO ,0,13.0,1,14481,1,0,0,TS
2026-03-17 02:54:00,METAR KPNE 170254Z AUTO 19008G27KT 10SM OVC015 18/16 A2926 RMK AO2 PK WND 18027/0208 SLP908 T01780156 58043 PWINO TSNO,0,8.0,1,16090,1,0,0,TS
2026-03-17 02:37:00,SPECI KPNE 170237Z 18009G20KT 160V220 10SM BKN015 OVC023 17/15 A2927 RMK AO2 PK WND 18027/0208 T01720150 ,0,9.0,1,16090,0,0,0,
2026-03-17 02:14:00,SPECI KPNE 170214Z 18008G27KT 150V210 10SM OVC014 17/15 A2930 RMK AO2 PK WND 18027/0208 PRESFR T01720150 ,0,8.0,1,16090,0,0,0,
2026-03-17 01:54:00,METAR KPNE 170154Z 17007G20KT 120V200 10SM BKN015 OVC080 17/15 A2934 RMK AO2 SLP933 T01720150,0,7.0,1,16090,0,0,0,
2026-03-17 01:41:00,SPECI KPNE 170141Z 17012G21KT 10SM SCT014 BKN075 OVC090 17/15 A2934 RMK AO2 T01720150 ,0,12.0,1,16090,0,0,0,
2026-03-17 00:54:00,METAR KPNE 170054Z VRB06G17KT 10SM OVC012 17/16 A2935 RMK AO2 SLP940 T01720156,0,6.0,1,16090,0,0,0,
2026-03-17 00:29:00,SPECI KPNE 170029Z VRB06G17KT 10SM BKN012 BKN100 17/15 A2937 RMK AO2 T01670150 ,0,6.0,1,16090,0,0,0,
2026-03-17 00:14:00,SPECI KPNE 170014Z 15008KT 10SM SCT012 SCT100 17/15 A2936 RMK AO2 T01670150 ,0,8.0,0,16090,0,0,0,
2026-03-16 23:54:00,METAR KPNE 162354Z 16008KT 10SM BKN013 BKN085 17/15 A2939 RMK AO2 SLP951 T01670150 10200 20167 58031,0,8.0,0,16090,0,0,0,
2026-03-16 23:31:00,SPECI KPNE 162331Z VRB05KT 10SM SCT011 BKN090 BKN110 17/16 A2940 RMK AO2 T01670156 ,0,5.0,0,16090,0,0,0,
2026-03-16 22:54:00,METAR KPNE 162254Z 19010G19KT 8SM OVC011 17/16 A2945 RMK AO2 CIG 008V014 SLP971 T01720156,0,10.0,1,12872,0,0,0,
2026-03-16 22:39:00,SPECI KPNE 162239Z 18012G24KT 150V220 5SM BR OVC011 17/16 A2946 RMK AO2 T01720156 ,0,12.0,1,8045,0,0,1,BR
2026-03-16 22:32:00,SPECI KPNE 162232Z 19009G18KT 150V220 2 1/2SM BR OVC011 17/16 A2947 RMK AO2 T01670156 ,0,9.0,1,4022,0,0,1,BR
2026-03-16 22:19:00,SPECI KPNE 162219Z 19008G23KT 150V240 1 3/4SM BR OVC012 17/16 A2946 RMK AO2 T01720156 ,0,8.0,1,2816,0,0,1,BR
2026-03-16 21:54:00,METAR KPNE 162154Z 18008G19KT 150V220 10SM OVC013 18/16 A2947 RMK AO2 SLP978 T01780156,0,8.0,1,16090,0,0,0,
2026-03-16 20:54:00,METAR KPNE 162054Z VRB06G18KT 10SM BKN014 OVC019 18/16 A2948 RMK AO2 SLP982 T01830161 56035,0,6.0,1,16090,0,0,0,
2026-03-16 20:39:00,SPECI KPNE 162039Z 18008G19KT 9SM BKN014 BKN021 OVC090 18/17 A2950 RMK AO2 T01830167 ,0,8.0,1,14481,0,0,0,
2026-03-16 20:22:00,SPECI KPNE 162022Z 18009G18KT 150V220 9SM BKN015 OVC100 19/17 A2950 RMK AO2 T01890167 ,0,9.0,1,14481,0,0,0,
2026-03-16 19:54:00,METAR KPNE 161954Z 18010G22KT 150V230 9SM SCT019 BKN031 OVC100 19/16 A2951 RMK AO2 SLP991 T01890161,0,10.0,1,14481,0,0,0,
2026-03-16 18:54:00,METAR KPNE 161854Z 17011G20KT 9SM FEW022 BKN075 OVC110 19/16 A2955 RMK AO2 SLP006 T01890156,0,11.0,1,14481,0,0,0,
2026-03-16 17:54:00,METAR KPNE 161754Z 18010G25KT 10SM FEW024 SCT048 BKN060 20/16 A2958 RMK AO2 SLP017 T02000156 10206 20156 58033,0,10.0,1,16090,0,0,0,
2026-03-16 17:16:00,SPECI KPNE 161716Z 19010G21KT 10SM SCT024 SCT033 BKN075 20/16 A2962 RMK AO2 T02000156 ,0,10.0,1,16090,0,0,0,
2026-03-16 16:54:00,METAR KPNE 161654Z 18006G20KT 10SM SCT019 BKN024 OVC033 19/16 A2963 RMK AO2 SLP033 T01940156,0,6.0,1,16090,0,0,0,
2026-03-16 16:33:00,SPECI KPNE 161633Z 19007G16KT 10SM BKN015 OVC023 19/16 A2963 RMK AO2 T01940161 ,0,7.0,1,16090,0,0,0,
2026-03-16 15:54:00,METAR KPNE 161554Z 19010G20KT 140V220 10SM OVC011 18/16 A2965 RMK AO2 SLP040 T01830161,0,10.0,1,16090,0,0,0,
2026-03-16 14:54:00,METAR KPNE 161454Z 19008G20KT 10SM OVC011 18/16 A2968 RMK AO2 SLP049 T01830161 56013,0,8.0,1,16090,0,0,0,
2026-03-16 13:54:00,METAR KPNE 161354Z 18007G15KT 150V210 10SM OVC010 18/17 A2969 RMK AO2 SLP053 T01780167,0,7.0,1,16090,0,0,0,
2026-03-16 13:50:00,SPECI KPNE 161350Z 19009KT 150V210 10SM OVC010 18/16 A2969 RMK AO2 ,0,9.0,0,16090,0,0,0,
2026-03-16 12:54:00,METAR KPNE 161254Z VRB06KT 10SM OVC007 17/16 A2972 RMK AO2 CIG 004V010 SLP063 T01720161,0,6.0,0,16090,0,0,0,
2026-03-16 11:54:00,METAR KPNE 161154Z 14006KT 8SM OVC005 16/15 A2973 RMK AO2 CIG 004V009 SLP066 T01560150 10156 20111 57035,0,6.0,0,12872,0,0,0,
2026-03-16 11:06:00,SPECI KPNE 161106Z 16004KT 10SM OVC005 16/15 A2975 RMK AO2 CIG 003V008 T01560150 ,0,4.0,0,16090,0,0,0,
2026-03-16 10:54:00,METAR KPNE 161054Z VRB05KT 9SM OVC004 16/15 A2976 RMK AO2 CIG 003V008 SLP077 T01560150,0,5.0,0,14481,0,0,0,
2026-03-16 10:14:00,SPECI KPNE 161014Z 16004KT 6SM BR OVC004 15/14 A2978 RMK AO2 T01500144 ,0,4.0,0,9654,0,0,1,BR
2026-03-16 09:54:00,METAR KPNE 160954Z VRB04KT 10SM OVC005 15/14 A2980 RMK AO2 SLP090 T01500144,0,4.0,0,16090,0,0,0,
2026-03-16 09:01:00,SPECI KPNE 160901Z AUTO 17005KT 9SM OVC005 14/14 A2983 RMK AO2 T01440144 PWINO TSNO ,0,5.0,0,14481,1,0,0,TS
2026-03-16 08:54:00,METAR KPNE 160854Z AUTO VRB06KT 8SM OVC004 14/14 A2983 RMK AO2 SLP101 T01440144 56043 PWINO TSNO,0,6.0,0,12872,1,0,0,TS
2026-03-16 08:07:00,SPECI KPNE 160807Z AUTO 15005KT 10SM OVC004 13/13 A2985 RMK AO2 T01330133 PWINO TSNO ,0,5.0,0,16090,1,0,0,TS
2026-03-16 07:54:00,METAR KPNE 160754Z AUTO 15007KT 9SM OVC005 13/13 A2986 RMK AO2 SLP110 T01280128 PWINO TSNO,0,7.0,0,14481,1,0,0,TS
2026-03-16 06:54:00,METAR KPNE 160654Z AUTO 14011G16KT 4SM BR OVC006 12/12 A2990 RMK AO2 CIG 005V010 SLP124 T01220117 PWINO TSNO,0,11.0,1,6436,1,0,1,"BR,TS"
2026-03-16 06:39:00,SPECI KPNE 160639Z AUTO 14009G17KT 4SM BR OVC006 12/12 A2992 RMK AO2 CIG 004V010 T01220117 PWINO TSNO ,0,9.0,1,6436,1,0,1,"BR,TS"
2026-03-16 06:27:00,SPECI KPNE 160627Z AUTO 12010KT 2SM BR OVC006 12/11 A2992 RMK AO2 T01170111 PWINO TSNO ,0,10.0,0,3218,1,0,1,"BR,TS"
2026-03-16 06:08:00,SPECI KPNE 160608Z AUTO 12008KT 4SM BR OVC007 12/11 A2995 RMK AO2 CIG 005V011 T01170106 PWINO TSNO ,0,8.0,0,6436,1,0,1,"BR,TS"
2026-03-16 06:01:00,SPECI KPNE 160601Z AUTO 13007KT 2 1/2SM BR OVC009 11/11 A2995 RMK AO2 CIG 006V013 T01110106 PWINO TSNO ,0,7.0,0,4022,1,0,1,"BR,TS"
2026-03-16 05:54:00,METAR KPNE 160554Z AUTO 12011KT 2 1/2SM BR OVC010 11/11 A2996 RMK AO2 CIG 006V012 PRESFR SLP145 T01110106 10117 20078 58061 PWINO TSNO,0,11.0,0,4022,1,0,1,"BR,TS"
2026-03-16 05:44:00,SPECI KPNE 160544Z AUTO 11009KT 5SM BR OVC013 12/10 A2997 RMK AO2 PRESFR T01170100 PWINO TSNO ,0,9.0,0,8045,1,0,1,"BR,TS"
2026-03-16 04:54:00,METAR KPNE 160454Z AUTO 12009KT 10SM OVC025 11/09 A3002 RMK AO2 SLP166 T01110089 401110022 PWINO TSNO,0,9.0,0,16090,1,0,0,TS
2026-03-16 04:39:00,SPECI KPNE 160439Z AUTO 10007KT 9SM BKN026 OVC044 11/07 A3004 RMK AO2 T01060072 PWINO TSNO ,0,7.0,0,14481,1,0,0,TS
2026-03-16 03:54:00,METAR KPNE 160354Z AUTO 08007KT 10SM SCT033 OVC045 09/06 A3009 RMK AO2 SLP189 T00940061 PWINO TSNO,0,7.0,0,16090,1,0,0,TS
2026-03-16 02:54:00,METAR KPNE 160254Z 09007KT 10SM OVC033 09/05 A3014 RMK AO2 SLP206 T00890050 58035,0,7.0,0,16090,0,0,0,
2026-03-16 02:16:00,SPECI KPNE 160216Z 09009KT 10SM OVC032 09/05 A3016 RMK AO2 T00890050 ,0,9.0,0,16090,0,0,0,
2026-03-16 02:05:00,SPECI KPNE 160205Z 09008KT 10SM BKN029 OVC034 08/05 A3017 RMK AO2 T00830050 ,0,8.0,0,16090,0,0,0,
2026-03-16 01:54:00,METAR KPNE 160154Z 10008KT 10SM SCT029 OVC034 08/05 A3018 RMK AO2 SLP222 T00830050,0,8.0,0,16090,0,0,0,
2026-03-16 00:54:00,METAR KPNE 160054Z 09010KT 10SM OVC035 08/04 A3021 RMK AO2 SLP231 T00830039,0,10.0,0,16090,0,0,0,
2026-03-15 23:54:00,METAR KPNE 152354Z 10011KT 10SM OVC036 08/03 A3024 RMK AO2 SLP241 T00830028 10089 20078 58025,0,11.0,0,16090,0,0,0,
2026-03-15 22:54:00,METAR KPNE 152254Z 10011KT 10SM OVC035 08/02 A3027 RMK AO2 SLP251 T00830022,0,11.0,0,16090,0,0,0,
2026-03-15 21:54:00,METAR KPNE 152154Z 10010KT 10SM OVC043 08/02 A3029 RMK AO2 SLP258 T00780017,0,10.0,0,16090,0,0,0,
2026-03-15 20:54:00,METAR KPNE 152054Z 11010G19KT 10SM OVC050 08/02 A3032 RMK AO2 SLP266 T00830017 56027,0,10.0,1,16090,0,0,0,
2026-03-15 20:08:00,SPECI KPNE 152008Z 12014G21KT 10SM OVC050 08/01 A3033 RMK AO2 T00830006 ,0,14.0,1,16090,0,0,0,
2026-03-15 19:54:00,METAR KPNE 151954Z 10015KT 10SM OVC050 09/01 A3033 RMK AO2 SLP272 T00890006,0,15.0,0,16090,0,0,0,
2026-03-15 18:54:00,METAR KPNE 151854Z 12013G20KT 10SM OVC050 09/M01 A3036 RMK AO2 SLP282 T00891006,0,13.0,1,16090,0,0,0,
2026-03-15 17:54:00,METAR KPNE 151754Z 12015G22KT 10SM OVC050 08/M03 A3040 RMK AO2 SLP293 T00781028 10083 20033 58020,0,15.0,1,16090,0,0,0,
2026-03-15 16:54:00,METAR KPNE 151654Z 12013KT 10SM OVC055 07/M03 A3042 RMK AO2 SLP303 T00721028,0,13.0,0,16090,0,0,0,
2026-03-15 15:54:00,METAR KPNE 151554Z 11014KT 10SM BKN055 07/M05 A3044 RMK AO2 SLP309 T00721050,0,14.0,0,16090,0,0,0,
2026-03-15 14:54:00,METAR KPNE 151454Z 12011KT 10SM OVC060 07/M06 A3045 RMK AO2 SLP313 T00721056 50004,0,11.0,0,16090,0,0,0,
2026-03-15 13:54:00,METAR KPNE 151354Z 09011KT 10SM OVC060 06/M06 A3046 RMK AO2 SLP315 T00561056,0,11.0,0,16090,0,0,0,
2026-03-15 12:54:00,METAR KPNE 151254Z 10010KT 10SM FEW060 04/M05 A3045 RMK AO2 SLP310 T00441050,0,10.0,0,16090,0,0,0,
2026-03-15 11:54:00,METAR KPNE 151154Z 09008KT 10SM CLR 03/M04 A3044 RMK AO2 SLP309 T00331044 10056 20022 50014,0,8.0,0,16090,0,0,0,
2026-03-15 10:54:00,METAR KPNE 151054Z 10007KT 10SM CLR 03/M06 A3044 RMK AO2 SLP309 T00281056,0,7.0,0,16090,0,0,0,
2026-03-15 09:54:00,METAR KPNE 150954Z 08008KT 10SM CLR 04/M06 A3042 RMK AO2 SLP301 T00391061,0,8.0,0,16090,0,0,0,
2026-03-15 08:54:00,METAR KPNE 150854Z AUTO 09006KT 10SM CLR 04/M06 A3040 RMK AO2 SLP295 T00391056 53004 PWINO TSNO,0,6.0,0,16090,1,0,0,TS
