Time_recorded,METAR,is_cavok,wind_speed,is_gust,visibility_meters,has_thunderstorm,has_heavy_rain,has_low_vis_fog,other_phenomenon
2026-05-02 15:35:00,METAR KVNC 021535Z AUTO 20012KT 10SM FEW210 28/25 A2988 RMK AO2 T02850246 $,0,12.0,0,16090.0,0,0,0,
2026-05-02 15:15:00,METAR KVNC 021515Z AUTO 20012KT 10SM CLR 28/24 A2988 RMK AO2 T02800245 $,0,12.0,0,16090.0,0,0,0,
2026-05-02 14:55:00,METAR KVNC 021455Z AUTO 20013KT 10SM BKN200 28/24 A2987 RMK AO2 T02790244 53015 $,0,13.0,0,16090.0,0,0,0,
2026-05-02 14:35:00,METAR KVNC 021435Z AUTO 20012KT 10SM OVC200 28/24 A2986 RMK AO2 T02790242 $,0,12.0,0,16090.0,0,0,0,
2026-05-02 14:15:00,METAR KVNC 021415Z AUTO 20014KT 10SM SCT200 28/24 A2986 RMK AO2 T02780240 $,0,14.0,0,16090.0,0,0,0,
2026-05-02 13:55:00,METAR KVNC 021355Z AUTO 19013G19KT 10SM CLR 27/24 A2985 RMK AO2 T02740238 $,0,13.0,1,16090.0,0,0,0,
2026-05-02 13:35:00,METAR KVNC 021335Z AUTO 19011KT 10SM CLR 27/24 A2985 RMK AO2 T02720239 $,0,11.0,0,16090.0,0,0,0,
2026-05-02 13:15:00,METAR KVNC 021315Z AUTO 19011KT 10SM CLR 27/24 A2985 RMK AO2 T02680242 $,0,11.0,0,16090.0,0,0,0,
2026-05-02 12:55:00,METAR KVNC 021255Z AUTO 19011KT 10SM CLR 26/24 A2984 RMK AO2 T02640243 $,0,11.0,0,16090.0,0,0,0,
2026-05-02 12:35:00,METAR KVNC 021235Z AUTO 19012KT 10SM CLR 26/24 A2984 RMK AO2 T02610242 $,0,12.0,0,16090.0,0,0,0,
2026-05-02 12:15:00,METAR KVNC 021215Z AUTO 19011KT 10SM CLR 26/24 A2984 RMK AO2 T02570240 $,0,11.0,0,16090.0,0,0,0,
2026-05-02 11:55:00,METAR KVNC 021155Z AUTO 18010KT 10SM CLR 25/24 A2983 RMK AO2 T02520236 10252 20223 56005 $,0,10.0,0,16090.0,0,0,0,
2026-05-02 11:35:00,METAR KVNC 021135Z AUTO 18008KT 10SM CLR 25/24 A2983 RMK AO2 T02490235 $,0,8.0,0,16090.0,0,0,0,
2026-05-02 11:15:00,METAR KVNC 021115Z AUTO 18009KT 10SM CLR 25/23 A2983 RMK AO2 T02460232 $,0,9.0,0,16090.0,0,0,0,
2026-05-02 10:55:00,METAR KVNC 021055Z AUTO 17008KT 10SM CLR 24/23 A2983 RMK AO2 T02420227 $,0,8.0,0,16090.0,0,0,0,
2026-05-02 10:35:00,METAR KVNC 021035Z AUTO 17008KT 10SM CLR 24/23 A2983 RMK AO2 T02420227 $,0,8.0,0,16090.0,0,0,0,
2026-05-02 10:15:00,METAR KVNC 021015Z AUTO 17008KT 10SM CLR 24/22 A2983 RMK AO2 T02400222 $,0,8.0,0,16090.0,0,0,0,
2026-05-02 09:55:00,METAR KVNC 020955Z AUTO 17006KT 10SM CLR 24/22 A2984 RMK AO2 T02390218 $,0,6.0,0,16090.0,0,0,0,
2026-05-02 09:35:00,METAR KVNC 020935Z AUTO 17006KT 10SM CLR 24/22 A2984 RMK AO2 T02390216 $,0,6.0,0,16090.0,0,0,0,
2026-05-02 09:15:00,METAR KVNC 020915Z AUTO 17005KT 10SM CLR 24/21 A2984 RMK AO2 T02370208 $,0,5.0,0,16090.0,0,0,0,
2026-05-02 08:55:00,METAR KVNC 020855Z AUTO 17004KT 10SM CLR 23/20 A2984 RMK AO2 T02260197 57006 $,0,4.0,0,16090.0,0,0,0,
2026-05-02 08:35:00,METAR KVNC 020835Z AUTO 18004KT 10SM CLR 23/20 A2984 RMK AO2 T02260202 $,0,4.0,0,16090.0,0,0,0,
2026-05-02 08:15:00,METAR KVNC 020815Z AUTO 18004KT 10SM CLR 23/21 A2984 RMK AO2 T02340206 $,0,4.0,0,16090.0,0,0,0,
2026-05-02 07:55:00,METAR KVNC 020755Z AUTO 22003KT 10SM SCT210 24/20 A2985 RMK AO2 T02390203 $,0,3.0,0,16090.0,0,0,0,
2026-05-02 07:35:00,METAR KVNC 020735Z AUTO 21004KT 10SM FEW210 24/20 A2985 RMK AO2 T02390204 $,0,4.0,0,16090.0,0,0,0,
2026-05-02 07:15:00,METAR KVNC 020715Z AUTO 20004KT 10SM CLR 24/21 A2985 RMK AO2 T02410207 $,0,4.0,0,16090.0,0,0,0,
2026-05-02 06:55:00,METAR KVNC 020655Z AUTO 20004KT 10SM CLR 24/20 A2985 RMK AO2 T02420202 $,0,4.0,0,16090.0,0,0,0,
2026-05-02 06:35:00,METAR KVNC 020635Z AUTO 20004KT 10SM CLR 24/20 A2985 RMK AO2 T02430201 $,0,4.0,0,16090.0,0,0,0,
2026-05-02 06:15:00,METAR KVNC 020615Z AUTO 20006KT 10SM CLR 24/20 A2986 RMK AO2 T02430203 $,0,6.0,0,16090.0,0,0,0,
2026-05-02 05:55:00,METAR KVNC 020555Z AUTO 19003KT 10SM CLR 24/21 A2986 RMK AO2 T02410208 10253 20236 58009 $,0,3.0,0,16090.0,0,0,0,
2026-05-02 05:35:00,METAR KVNC 020535Z AUTO 19003KT 10SM CLR 24/21 A2986 RMK AO2 T02420210 $,0,3.0,0,16090.0,0,0,0,
2026-05-02 05:15:00,METAR KVNC 020515Z AUTO 20005KT 10SM CLR 25/21 A2987 RMK AO2 T02450215 $,0,5.0,0,16090.0,0,0,0,
2026-05-02 04:55:00,METAR KVNC 020455Z AUTO 21006KT 10SM CLR 24/21 A2988 RMK AO2 T02430209 402850229 $,0,6.0,0,16090.0,0,0,0,
2026-05-02 04:35:00,METAR KVNC 020435Z AUTO 21005KT 10SM CLR 24/21 A2988 RMK AO2 T02380213 $,0,5.0,0,16090.0,0,0,0,
2026-05-02 04:15:00,METAR KVNC 020415Z AUTO 23005KT 10SM CLR 24/21 A2988 RMK AO2 T02370214 $,0,5.0,0,16090.0,0,0,0,
2026-05-02 03:55:00,METAR KVNC 020355Z AUTO 23005KT 10SM CLR 24/21 A2988 RMK AO2 T02370209 $,0,5.0,0,16090.0,0,0,0,
2026-05-02 03:35:00,METAR KVNC 020335Z AUTO 22005KT 10SM CLR 24/21 A2988 RMK AO2 T02410210 $,0,5.0,0,16090.0,0,0,0,
2026-05-02 03:15:00,METAR KVNC 020315Z AUTO 21005KT 10SM CLR 24/21 A2988 RMK AO2 T02380207 $,0,5.0,0,16090.0,0,0,0,
2026-05-02 02:55:00,METAR KVNC 020255Z AUTO 22004KT 10SM CLR 24/21 A2989 RMK AO2 T02410208 51012 $,0,4.0,0,16090.0,0,0,0,
2026-05-02 02:35:00,METAR KVNC 020235Z AUTO 21004KT 10SM CLR 24/21 A2988 RMK AO2 T02390208 $,0,4.0,0,16090.0,0,0,0,
2026-05-02 02:15:00,METAR KVNC 020215Z AUTO 22004KT 10SM CLR 24/21 A2988 RMK AO2 T02400207 $,0,4.0,0,16090.0,0,0,0,
2026-05-02 01:55:00,METAR KVNC 020155Z AUTO 21004KT 10SM CLR 25/21 A2988 RMK AO2 T02460208 $,0,4.0,0,16090.0,0,0,0,
2026-05-02 01:35:00,METAR KVNC 020135Z AUTO 22005KT 10SM CLR 24/21 A2987 RMK AO2 T02430208 $,0,5.0,0,16090.0,0,0,0,
2026-05-02 01:15:00,METAR KVNC 020115Z AUTO 23004KT 10SM CLR 25/21 A2987 RMK AO2 T02450209 $,0,4.0,0,16090.0,0,0,0,
2026-05-02 00:55:00,METAR KVNC 020055Z AUTO 21005KT 10SM CLR 25/21 A2986 RMK AO2 T02490210 $,0,5.0,0,16090.0,0,0,0,
2026-05-02 00:35:00,METAR KVNC 020035Z AUTO 21006KT 10SM CLR 25/21 A2986 RMK AO2 T02490210 $,0,6.0,0,16090.0,0,0,0,
2026-05-02 00:15:00,METAR KVNC 020015Z AUTO 22006KT 10SM CLR 25/21 A2985 RMK AO2 T02500210 $,0,6.0,0,16090.0,0,0,0,
2026-05-01 23:55:00,METAR KVNC 012355Z AUTO 23006KT 10SM CLR 25/21 A2985 RMK AO2 T02530213 10285 20253 55000 $,0,6.0,0,16090.0,0,0,0,
2026-05-01 23:35:00,METAR KVNC 012335Z AUTO 22006KT 10SM CLR 26/21 A2984 RMK AO2 T02560214 $,0,6.0,0,16090.0,0,0,0,
2026-05-01 23:15:00,METAR KVNC 012315Z AUTO 22008KT 10SM CLR 26/22 A2984 RMK AO2 T02600216 $,0,8.0,0,16090.0,0,0,0,
2026-05-01 22:55:00,METAR KVNC 012255Z AUTO 21007KT 10SM CLR 26/22 A2984 RMK AO2 T02640215 $,0,7.0,0,16090.0,0,0,0,
2026-05-01 22:35:00,METAR KVNC 012235Z AUTO 21008KT 10SM CLR 26/22 A2983 RMK AO2 T02640216 $,0,8.0,0,16090.0,0,0,0,
2026-05-01 22:15:00,METAR KVNC 012215Z AUTO 22007KT 10SM CLR 27/22 A2983 RMK AO2 T02650218 $,0,7.0,0,16090.0,0,0,0,
2026-05-01 21:55:00,METAR KVNC 012155Z AUTO 23007KT 10SM CLR 27/22 A2983 RMK AO2 T02670216 $,0,7.0,0,16090.0,0,0,0,
2026-05-01 21:35:00,METAR KVNC 012135Z AUTO 22007KT 10SM CLR 27/21 A2984 RMK AO2 T02700209 $,0,7.0,0,16090.0,0,0,0,
2026-05-01 21:15:00,METAR KVNC 012115Z AUTO 21008KT 10SM CLR 27/21 A2984 RMK AO2 T02740211 $,0,8.0,0,16090.0,0,0,0,
2026-05-01 20:55:00,METAR KVNC 012055Z AUTO 22009KT 10SM CLR 27/21 A2985 RMK AO2 T02740207 58022 $,0,9.0,0,16090.0,0,0,0,
2026-05-01 20:35:00,METAR KVNC 012035Z AUTO 24009KT 10SM CLR 27/20 A2985 RMK AO2 T02730201 $,0,9.0,0,16090.0,0,0,0,
2026-05-01 20:15:00,METAR KVNC 012015Z AUTO 24009KT 10SM CLR 28/22 A2986 RMK AO2 T02780216 $,0,9.0,0,16090.0,0,0,0,
2026-05-01 19:55:00,METAR KVNC 011955Z AUTO 23009KT 10SM CLR 28/22 A2988 RMK AO2 T02800216 $,0,9.0,0,16090.0,0,0,0,
2026-05-01 19:35:00,METAR KVNC 011935Z AUTO 23009KT 10SM CLR 28/22 A2989 RMK AO2 T02800219 $,0,9.0,0,16090.0,0,0,0,
2026-05-01 19:15:00,METAR KVNC 011915Z AUTO 24008KT 10SM FEW180 28/22 A2990 RMK AO2 T02770221 $,0,8.0,0,16090.0,0,0,0,
2026-05-01 18:55:00,METAR KVNC 011855Z AUTO 23009KT 10SM FEW180 27/22 A2990 RMK AO2 T02750220 $,0,9.0,0,16090.0,0,0,0,
2026-05-01 18:35:00,METAR KVNC 011835Z AUTO 24008KT 10SM FEW190 SCT350 28/22 A2990 RMK AO2 T02770222 $,0,8.0,0,16090.0,0,0,0,
2026-05-01 17:55:00,METAR KVNC 011755Z AUTO 24008KT 10SM FEW190 SCT380 28/22 A2992 RMK AO2 RAE1658 P0000 60000 T02800223 10281 20246 58005 $,0,8.0,0,16090.0,0,0,0,RA
2026-05-01 17:35:00,METAR KVNC 011735Z AUTO 25008KT 10SM SCT180 BKN380 28/22 A2992 RMK AO2 RAE1658 P0000 T02750223 $,0,8.0,0,16090.0,0,0,0,RA
2026-05-01 16:55:00,METAR KVNC 011655Z AUTO 25008KT 8SM -RA SCT180 27/22 A2993 RMK AO2 RAE1615B1649 P0000 T02700222 $,0,8.0,0,12872.0,0,0,0,"-RA,RA"
2026-05-01 16:35:00,METAR KVNC 011635Z AUTO 26007KT 9SM CLR 28/22 A2992 RMK AO2 RAE1615 P0000 T02770224 $,0,7.0,0,14481.0,0,0,0,RA
2026-05-01 16:15:00,METAR KVNC 011615Z AUTO 25007KT 8SM CLR 27/22 A2993 RMK AO2 RAE1615 P0000 T02710222 $,0,7.0,0,12872.0,0,0,0,RA
2026-05-01 15:55:00,METAR KVNC 011555Z AUTO 27007KT 7SM -RA CLR 27/22 A2994 RMK AO2 RAE1518B1534 P0000 T02720220 $,0,7.0,0,11263.0,0,0,0,"-RA,RA"
2026-05-01 15:35:00,METAR KVNC 011535Z AUTO 26008KT 7SM CLR 27/22 A2993 RMK AO2 RAE1518B1534E1535 P0000 T02680219 $,0,8.0,0,11263.0,0,0,0,RA
2026-05-01 15:15:00,METAR KVNC 011515Z AUTO 24007KT 7SM -RA CLR 27/22 A2993 RMK AO2 P0000 T02670220 $,0,7.0,0,11263.0,0,0,0,-RA
2026-05-01 14:55:00,METAR KVNC 011455Z AUTO 24007KT 230V290 7SM -RA FEW240 27/22 A2993 RMK AO2 P0000 60000 T02750223 51011 $,0,7.0,0,11263.0,0,0,0,-RA
2026-05-01 14:35:00,METAR KVNC 011435Z AUTO 26005KT 7SM -RA BKN240 26/22 A2993 RMK AO2 P0000 T02630220 $,0,5.0,0,11263.0,0,0,0,-RA
2026-05-01 14:15:00,METAR KVNC 011415Z AUTO 25006KT 7SM -RA BKN240 26/22 A2993 RMK AO2 P0000 T02640219 $,0,6.0,0,11263.0,0,0,0,-RA
2026-05-01 13:55:00,METAR KVNC 011355Z AUTO 25005KT 7SM -RA BKN230 26/22 A2992 RMK AO2 P0000 T02600220 $,0,5.0,0,11263.0,0,0,0,-RA
2026-05-01 13:35:00,METAR KVNC 011335Z AUTO 26005KT 8SM SCT230 26/22 A2992 RMK AO2 RAE1330 P0000 T02640221 $,0,5.0,0,12872.0,0,0,0,RA
2026-05-01 13:15:00,METAR KVNC 011315Z AUTO 26005KT 7SM -RA CLR 26/22 A2992 RMK AO2 P0000 T02600220 $,0,5.0,0,11263.0,0,0,0,-RA
2026-05-01 12:55:00,METAR KVNC 011255Z AUTO 25006KT 7SM -RA FEW230 25/22 A2991 RMK AO2 RAE1204B1231 P0000 T02540219 $,0,6.0,0,11263.0,0,0,0,"-RA,RA"
2026-05-01 12:35:00,METAR KVNC 011235Z AUTO 25006KT 7SM -RA FEW230 25/22 A2991 RMK AO2 RAE1204B1231 P0000 T02520218 $,0,6.0,0,11263.0,0,0,0,"-RA,RA"
2026-05-01 12:15:00,METAR KVNC 011215Z AUTO 26005KT 7SM CLR 25/22 A2990 RMK AO2 RAE1204 P0000 T02490219 $,0,5.0,0,11263.0,0,0,0,RA
2026-05-01 11:55:00,METAR KVNC 011155Z AUTO 27006KT 7SM -RA CLR 24/22 A2990 RMK AO2 RAE1119B1139 P0000 60000 70001 T02440217 10244 20229 53010 $,0,6.0,0,11263.0,0,0,0,"-RA,RA"
2026-05-01 11:35:00,METAR KVNC 011135Z AUTO 28004KT 8SM CLR 24/22 A2990 RMK AO2 RAE1119 P0000 T02380216 $,0,4.0,0,12872.0,0,0,0,RA
2026-05-01 11:15:00,METAR KVNC 011115Z AUTO 26004KT 7SM -RA CLR 23/21 A2989 RMK AO2 P0000 T02320212 $,0,4.0,0,11263.0,0,0,0,-RA
2026-05-01 10:55:00,METAR KVNC 011055Z AUTO 26004KT 8SM -RA CLR 23/21 A2988 RMK AO2 RAB0951 P0000 T02290211 $,0,4.0,0,12872.0,0,0,0,"-RA,RA"
2026-05-01 10:35:00,METAR KVNC 011035Z AUTO 26004KT 9SM CLR 23/21 A2987 RMK AO2 RAB0951E1023 P0000 T02290210 $,0,4.0,0,14481.0,0,0,0,RA
2026-05-01 10:15:00,METAR KVNC 011015Z AUTO 29005KT 9SM -RA CLR 23/21 A2988 RMK AO2 RAB0951 P0000 T02320211 $,0,5.0,0,14481.0,0,0,0,"-RA,RA"
2026-05-01 09:55:00,METAR KVNC 010955Z AUTO 29005KT 9SM CLR 23/21 A2988 RMK AO2 RAE0900 P0000 T02310212 $,0,5.0,0,14481.0,0,0,0,RA
2026-05-01 09:35:00,METAR KVNC 010935Z AUTO 29005KT 10SM CLR 23/22 A2987 RMK AO2 RAE0900 P0000 T02330215 $,0,5.0,0,16090.0,0,0,0,RA
2026-05-01 09:15:00,METAR KVNC 010915Z AUTO 30005KT 10SM FEW012 23/22 A2987 RMK AO2 RAE0900 P0000 T02340217 $,0,5.0,0,16090.0,0,0,0,RA
2026-05-01 08:55:00,METAR KVNC 010855Z AUTO 27004KT 8SM -RA FEW012 23/22 A2987 RMK AO2 RAB0850 P0000 60000 T02330217 55007 $,0,4.0,0,12872.0,0,0,0,"-RA,RA"
2026-05-01 08:35:00,METAR KVNC 010835Z AUTO 27004KT 8SM FEW012 23/22 A2986 RMK AO2 T02340218 $,0,4.0,0,12872.0,0,0,0,
2026-05-01 08:15:00,METAR KVNC 010815Z AUTO 27006KT 8SM CLR 23/22 A2987 RMK AO2 T02350218 $,0,6.0,0,12872.0,0,0,0,
2026-05-01 07:55:00,METAR KVNC 010755Z AUTO 28005KT 8SM CLR 24/22 A2987 RMK AO2 RAE0736 P0000 T02350218 $,0,5.0,0,12872.0,0,0,0,RA
2026-05-01 07:35:00,METAR KVNC 010735Z AUTO 29008KT 8SM -RA FEW012 24/22 A2987 RMK AO2 P0000 T02380219 $,0,8.0,0,12872.0,0,0,0,-RA
2026-05-01 07:15:00,METAR KVNC 010715Z AUTO 27007KT 8SM -RA CLR 24/22 A2987 RMK AO2 P0000 T02370222 $,0,7.0,0,12872.0,0,0,0,-RA
2026-05-01 06:55:00,METAR KVNC 010655Z AUTO 26007KT 9SM -RA CLR 24/22 A2987 RMK AO2 P0000 T02380221 $,0,7.0,0,14481.0,0,0,0,-RA
2026-05-01 06:35:00,METAR KVNC 010635Z AUTO 27006KT 8SM -RA CLR 24/22 A2988 RMK AO2 P0000 T02370220 $,0,6.0,0,12872.0,0,0,0,-RA
2026-05-01 06:15:00,METAR KVNC 010615Z AUTO 27006KT 8SM -RA CLR 24/22 A2988 RMK AO2 P0000 T02390220 $,0,6.0,0,12872.0,0,0,0,-RA
2026-05-01 05:55:00,METAR KVNC 010555Z AUTO 28006KT 8SM -RA CLR 24/22 A2989 RMK AO2 RAB0514 P0000 60000 T02390222 10247 20239 58004 $,0,6.0,0,12872.0,0,0,0,"-RA,RA"
2026-05-01 05:35:00,METAR KVNC 010535Z AUTO 27007KT 9SM CLR 24/22 A2989 RMK AO2 RAB0514E0531 P0000 T02410221 $,0,7.0,0,14481.0,0,0,0,RA
2026-05-01 05:15:00,METAR KVNC 010515Z AUTO 27008KT 9SM -RA CLR 24/22 A2990 RMK AO2 RAB0514 P0000 T02420219 $,0,8.0,0,14481.0,0,0,0,"-RA,RA"
2026-05-01 04:55:00,METAR KVNC 010455Z AUTO 26006KT 9SM CLR 24/22 A2990 RMK AO2 RAE0427 P0000 T02410217 402780210 $,0,6.0,0,14481.0,0,0,0,RA
2026-05-01 04:35:00,METAR KVNC 010435Z AUTO 26006KT 9SM CLR 24/22 A2990 RMK AO2 RAE0427 P0000 T02410218 $,0,6.0,0,14481.0,0,0,0,RA
2026-05-01 04:15:00,METAR KVNC 010415Z AUTO 26006KT 9SM -RA CLR 24/22 A2990 RMK AO2 P0000 T02410217 $,0,6.0,0,14481.0,0,0,0,-RA
2026-05-01 03:55:00,METAR KVNC 010355Z AUTO 26006KT 8SM -RA CLR 24/22 A2991 RMK AO2 P0000 T02410218 $,0,6.0,0,12872.0,0,0,0,-RA
2026-05-01 03:35:00,METAR KVNC 010335Z AUTO 26003KT 9SM -RA CLR 24/22 A2990 RMK AO2 P0000 T02400221 $,0,3.0,0,14481.0,0,0,0,-RA
2026-05-01 03:15:00,METAR KVNC 010315Z AUTO 25006KT 9SM CLR 24/22 A2990 RMK AO2 RAE0308 P0000 T02410219 $,0,6.0,0,14481.0,0,0,0,RA
2026-05-01 02:55:00,METAR KVNC 010255Z AUTO 24004KT 9SM -RA CLR 24/22 A2990 RMK AO2 RAB0154E0200B0250 P0000 60000 T02410221 50009 $,0,4.0,0,14481.0,0,0,0,"-RA,RA"
2026-05-01 02:35:00,METAR KVNC 010235Z AUTO 25004KT 10SM CLR 24/22 A2990 RMK AO2 RAB0154E0200 P0000 T02410222 $,0,4.0,0,16090.0,0,0,0,RA
2026-05-01 02:15:00,METAR KVNC 010215Z AUTO 00000KT 10SM FEW170 24/22 A2990 RMK AO2 RAB0154E0200 P0000 T02420222 $,0,0.0,0,16090.0,0,0,0,RA
2026-05-01 01:55:00,METAR KVNC 010155Z AUTO 25004KT 10SM CLR 24/22 A2990 RMK AO2 RAE0104 P0000 T02430223 $,0,4.0,0,16090.0,0,0,0,RA
2026-05-01 01:35:00,METAR KVNC 010135Z AUTO 24004KT 10SM CLR 24/22 A2990 RMK AO2 RAE0104 P0000 T02430224 $,0,4.0,0,16090.0,0,0,0,RA
2026-05-01 01:15:00,METAR KVNC 010115Z AUTO 25004KT 9SM CLR 24/22 A2990 RMK AO2 RAE0104 P0000 T02440223 $,0,4.0,0,14481.0,0,0,0,RA
2026-05-01 00:55:00,METAR KVNC 010055Z AUTO 00000KT 10SM -RA SCT170 25/22 A2989 RMK AO2 RAE0027B0043 P0000 T02460224 $,0,0.0,0,16090.0,0,0,0,"-RA,RA"
2026-05-01 00:35:00,METAR KVNC 010035Z AUTO 24003KT 10SM OVC170 25/22 A2988 RMK AO2 RAE0027 P0000 T02460225 $,0,3.0,0,16090.0,0,0,0,RA
2026-05-01 00:15:00,METAR KVNC 010015Z AUTO 23004KT 9SM -RA BKN170 25/22 A2988 RMK AO2 P0000 T02460224 $,0,4.0,0,14481.0,0,0,0,-RA
2026-04-30 23:55:00,METAR KVNC 302355Z AUTO 23004KT 8SM -RA CLR 25/22 A2987 RMK AO2 RAB2348 P0000 60000 T02480225 10278 20248 53002 $,0,4.0,0,12872.0,0,0,0,"-RA,RA"
2026-04-30 23:35:00,METAR KVNC 302335Z AUTO 23006KT 9SM FEW011 25/23 A2987 RMK AO2 T02500225 $,0,6.0,0,14481.0,0,0,0,
2026-04-30 23:15:00,METAR KVNC 302315Z AUTO 22007KT 10SM FEW011 26/23 A2986 RMK AO2 T02550226 $,0,7.0,0,16090.0,0,0,0,
2026-04-30 22:55:00,METAR KVNC 302255Z AUTO 24006KT 10SM SCT012 26/22 A2986 RMK AO2 T02590225 $,0,6.0,0,16090.0,0,0,0,
2026-04-30 22:35:00,METAR KVNC 302235Z AUTO 23006KT 10SM SCT012 26/23 A2987 RMK AO2 T02580226 $,0,6.0,0,16090.0,0,0,0,
2026-04-30 22:15:00,METAR KVNC 302215Z AUTO 24007KT 10SM SCT012 SCT018 26/23 A2987 RMK AO2 T02590225 $,0,7.0,0,16090.0,0,0,0,
2026-04-30 21:55:00,METAR KVNC 302155Z AUTO 24007KT 10SM SCT012 BKN018 26/23 A2987 RMK AO2 T02620225 $,0,7.0,0,16090.0,0,0,0,
2026-04-30 21:35:00,METAR KVNC 302135Z AUTO 24008KT 10SM SCT012 SCT020 27/23 A2987 RMK AO2 T02680226 $,0,8.0,0,16090.0,0,0,0,
2026-04-30 21:15:00,METAR KVNC 302115Z AUTO 23009KT 10SM BKN012 27/22 A2988 RMK AO2 CIG 010V015 T02670225 $,0,9.0,0,16090.0,0,0,0,
2026-04-30 20:55:00,METAR KVNC 302055Z AUTO 22009KT 10SM SCT010 27/23 A2987 RMK AO2 T02690228 58015 $,0,9.0,0,16090.0,0,0,0,
2026-04-30 20:35:00,METAR KVNC 302035Z AUTO 22010KT 10SM SCT010 27/23 A2987 RMK AO2 T02720229 $,0,10.0,0,16090.0,0,0,0,
2026-04-30 20:15:00,METAR KVNC 302015Z AUTO 22011KT 10SM SCT010 27/23 A2987 RMK AO2 T02730229 $,0,11.0,0,16090.0,0,0,0,
2026-04-30 19:55:00,METAR KVNC 301955Z AUTO 23009KT 10SM FEW009 28/23 A2988 RMK AO2 T02750229 $,0,9.0,0,16090.0,0,0,0,
2026-04-30 19:35:00,METAR KVNC 301935Z AUTO 23009KT 10SM FEW009 27/23 A2989 RMK AO2 T02740228 $,0,9.0,0,16090.0,0,0,0,
2026-04-30 19:15:00,METAR KVNC 301915Z AUTO 23010KT 10SM SCT009 27/23 A2989 RMK AO2 T02730229 $,0,10.0,0,16090.0,0,0,0,
2026-04-30 18:55:00,METAR KVNC 301855Z AUTO 22009KT 10SM FEW009 27/23 A2990 RMK AO2 T02730228 $,0,9.0,0,16090.0,0,0,0,
2026-04-30 18:35:00,METAR KVNC 301835Z AUTO 22008KT 10SM FEW009 27/23 A2990 RMK AO2 T02740228 $,0,8.0,0,16090.0,0,0,0,
2026-04-30 18:15:00,METAR KVNC 301815Z AUTO 22009KT 10SM FEW009 27/23 A2990 RMK AO2 T02730228 $,0,9.0,0,16090.0,0,0,0,
2026-04-30 17:55:00,METAR KVNC 301755Z AUTO 23009KT 10SM FEW320 27/23 A2991 RMK AO2 60001 T02730229 10276 20241 58003 $,0,9.0,0,16090.0,0,0,0,
2026-04-30 17:35:00,METAR KVNC 301735Z AUTO 23007KT 10SM FEW009 27/23 A2991 RMK AO2 T02700230 $,0,7.0,0,16090.0,0,0,0,
2026-04-30 17:15:00,METAR KVNC 301715Z AUTO 21010KT 10SM FEW380 27/23 A2991 RMK AO2 T02700229 $,0,10.0,0,16090.0,0,0,0,
2026-04-30 16:55:00,METAR KVNC 301655Z AUTO 22009KT 10SM FEW280 27/23 A2992 RMK AO2 T02650228 $,0,9.0,0,16090.0,0,0,0,
2026-04-30 16:35:00,METAR KVNC 301635Z AUTO 22009KT 9SM FEW007 SCT280 SCT360 27/23 A2993 RMK AO2 T02650229 $,0,9.0,0,14481.0,0,0,0,
2026-04-30 16:15:00,METAR KVNC 301615Z AUTO 20010KT 10SM BKN007 BKN280 26/23 A2992 RMK AO2 T02590229 $,0,10.0,0,16090.0,0,0,0,
2026-04-30 14:55:00,METAR KVNC 301455Z AUTO 21009KT 10SM BKN007 BKN013 26/23 A2992 RMK AO2 RAE1354B1412E1419 P0000 60001 T02580230 51007 $,0,9.0,0,16090.0,0,0,0,RA
2026-04-30 14:35:00,METAR KVNC 301435Z AUTO 19007KT 10SM SCT008 BKN014 25/23 A2992 RMK AO2 RAE1354B1412E1419 CIG 012V016 P0000 T02540229 $,0,7.0,0,16090.0,0,0,0,RA
2026-04-30 14:15:00,METAR KVNC 301415Z AUTO 22006KT 9SM -RA BKN009 BKN013 OVC200 25/23 A2993 RMK AO2 RAE1354B1412 P0000 T02500227 $,0,6.0,0,14481.0,0,0,0,"-RA,RA"
2026-04-30 13:55:00,METAR KVNC 301355Z AUTO 20006KT 8SM -RA SCT008 BKN013 OVC200 25/23 A2992 RMK AO2 RAB1257 P0001 T02510226 $,0,6.0,0,12872.0,0,0,0,"-RA,RA"
2026-04-30 13:35:00,METAR KVNC 301335Z AUTO 23006KT 9SM BKN010 OVC014 26/23 A2993 RMK AO2 RAB1257E1324 CIG 007V013 P0000 T02580228 $,0,6.0,0,14481.0,0,0,0,RA
2026-04-30 13:15:00,METAR KVNC 301315Z AUTO 24005KT 7SM -RA BKN007 OVC012 25/23 A2993 RMK AO2 RAB1257 P0000 T02490230 $,0,5.0,0,11263.0,0,0,0,"-RA,RA"
2026-04-30 12:55:00,METAR KVNC 301255Z AUTO 21005KT 9SM BKN008 BKN180 OVC210 24/23 A2992 RMK AO2 RAB1156E1238 P0000 T02410227 $,0,5.0,0,14481.0,0,0,0,RA
2026-04-30 12:35:00,METAR KVNC 301235Z AUTO 20005KT 8SM -RA FEW009 OVC210 24/23 A2991 RMK AO2 RAB1156 P0000 T02430227 $,0,5.0,0,12872.0,0,0,0,"-RA,RA"
2026-04-30 12:15:00,METAR KVNC 301215Z AUTO 24004KT 7SM -RA FEW010 SCT200 BKN230 24/22 A2991 RMK AO2 RAB1156 P0000 T02420224 $,0,4.0,0,11263.0,0,0,0,"-RA,RA"
2026-04-30 11:55:00,METAR KVNC 301155Z AUTO 22003KT 9SM SCT010 24/23 A2990 RMK AO2 RAE1105B1127E1139 P0000 60000 T02430227 10243 20210 53004 $,0,3.0,0,14481.0,0,0,0,RA
2026-04-30 11:35:00,METAR KVNC 301135Z AUTO 00000KT 8SM -RA BKN010 23/22 A2989 RMK AO2 RAE1105B1127 CIG 009V011 BKN V SCT P0000 T02300221 $,0,0.0,0,12872.0,0,0,0,"-RA,RA"
2026-04-30 11:15:00,METAR KVNC 301115Z AUTO 17003KT 8SM FEW011 21/21 A2989 RMK AO2 RAE1105 P0000 T02140209 $,0,3.0,0,12872.0,0,0,0,RA
2026-04-30 10:55:00,METAR KVNC 301055Z AUTO 25003KT 8SM -RA CLR 23/22 A2990 RMK AO2 RAE1015B1038 P0000 T02270215 $,0,3.0,0,12872.0,0,0,0,"-RA,RA"
2026-04-30 10:35:00,METAR KVNC 301035Z AUTO 24003KT 9SM CLR 23/22 A2990 RMK AO2 RAE1015 P0000 T02270216 $,0,3.0,0,14481.0,0,0,0,RA
2026-04-30 10:15:00,METAR KVNC 301015Z AUTO 24003KT 9SM SCT240 23/22 A2989 RMK AO2 RAE1015 P0000 T02320217 $,0,3.0,0,14481.0,0,0,0,RA
2026-04-30 09:55:00,METAR KVNC 300955Z AUTO 26003KT 9SM -RA BKN230 23/22 A2989 RMK AO2 RAB0914 P0000 T02300217 $,0,3.0,0,14481.0,0,0,0,"-RA,RA"
2026-04-30 09:35:00,METAR KVNC 300935Z AUTO 28004KT 9SM -RA BKN220 BKN250 23/22 A2988 RMK AO2 RAB0914 P0000 T02290217 $,0,4.0,0,14481.0,0,0,0,"-RA,RA"
2026-04-30 09:15:00,METAR KVNC 300915Z AUTO 26003KT 9SM -RA SCT210 BKN240 23/22 A2988 RMK AO2 RAB0914 P0000 T02300216 $,0,3.0,0,14481.0,0,0,0,"-RA,RA"
2026-04-30 08:55:00,METAR KVNC 300855Z AUTO 29003KT 10SM FEW011 SCT240 23/22 A2989 RMK AO2 RAB0815E0849 P0000 60000 T02320217 56011 $,0,3.0,0,16090.0,0,0,0,RA
2026-04-30 08:35:00,METAR KVNC 300835Z AUTO 28003KT 8SM -RA SCT011 23/22 A2989 RMK AO2 RAB0815 P0000 T02320217 $,0,3.0,0,12872.0,0,0,0,"-RA,RA"
2026-04-30 08:15:00,METAR KVNC 300815Z AUTO 29003KT 10SM -RA BKN011 24/22 A2990 RMK AO2 RAB0815 CIG 010V015 P0000 T02360219 $,0,3.0,0,16090.0,0,0,0,"-RA,RA"
2026-04-30 07:55:00,METAR KVNC 300755Z AUTO 33004KT 10SM BKN012 24/22 A2990 RMK AO2 RAB0705E0717 CIG 011V015 P0000 T02390220 $,0,4.0,0,16090.0,0,0,0,RA
2026-04-30 07:35:00,METAR KVNC 300735Z AUTO 00000KT 10SM SCT011 24/22 A2991 RMK AO2 RAB0705E0717 P0000 T02380220 $,0,0.0,0,16090.0,0,0,0,RA
2026-04-30 07:15:00,METAR KVNC 300715Z AUTO 33003KT 10SM -RA FEW012 24/22 A2990 RMK AO2 RAB0705 P0000 T02380219 $,0,3.0,0,16090.0,0,0,0,"-RA,RA"
2026-04-30 06:55:00,METAR KVNC 300655Z AUTO 33004KT 10SM CLR 24/22 A2990 RMK AO2 T02390221 $,0,4.0,0,16090.0,0,0,0,
2026-04-30 06:35:00,METAR KVNC 300635Z AUTO 32007KT 10SM CLR 24/22 A2990 RMK AO2 T02400221 $,0,7.0,0,16090.0,0,0,0,
2026-04-30 06:15:00,METAR KVNC 300615Z AUTO 32008KT 10SM CLR 24/22 A2991 RMK AO2 T02390220 $,0,8.0,0,16090.0,0,0,0,
2026-04-30 05:55:00,METAR KVNC 300555Z AUTO 32008KT 10SM CLR 24/22 A2992 RMK AO2 RAE0519 P0000 60000 T02400221 10247 20238 58004 $,0,8.0,0,16090.0,0,0,0,RA
2026-04-30 05:35:00,METAR KVNC 300535Z AUTO 31007KT 10SM CLR 24/22 A2993 RMK AO2 RAE0519 P0000 T02400221 $,0,7.0,0,16090.0,0,0,0,RA
2026-04-30 05:15:00,METAR KVNC 300515Z AUTO 31008KT 10SM -RA CLR 24/22 A2993 RMK AO2 P0000 T02390218 $,0,8.0,0,16090.0,0,0,0,-RA
2026-04-30 04:55:00,METAR KVNC 300455Z AUTO 31005KT 10SM -RA CLR 24/22 A2994 RMK AO2 RAB0425 P0000 T02390221 402890188 $,0,5.0,0,16090.0,0,0,0,"-RA,RA"
2026-04-30 04:35:00,METAR KVNC 300435Z AUTO 30007KT 9SM -RA CLR 24/22 A2994 RMK AO2 RAB0425 P0000 T02390223 $,0,7.0,0,14481.0,0,0,0,"-RA,RA"
2026-04-30 04:15:00,METAR KVNC 300415Z AUTO 30008KT 9SM CLR 24/22 A2994 RMK AO2 T02410224 $,0,8.0,0,14481.0,0,0,0,
2026-04-30 03:55:00,METAR KVNC 300355Z AUTO 30008KT 9SM CLR 24/22 A2994 RMK AO2 T02390223 $,0,8.0,0,14481.0,0,0,0,
2026-04-30 03:35:00,METAR KVNC 300335Z AUTO 29008KT 9SM CLR 24/22 A2994 RMK AO2 T02400223 $,0,8.0,0,14481.0,0,0,0,
2026-04-30 03:15:00,METAR KVNC 300315Z AUTO 29009KT 8SM CLR 24/22 A2994 RMK AO2 T02400223 $,0,9.0,0,12872.0,0,0,0,
2026-04-30 02:55:00,METAR KVNC 300255Z AUTO 30007KT 9SM CLR 24/22 A2993 RMK AO2 RAE0246 P0000 60000 T02400221 51012 $,0,7.0,0,14481.0,0,0,0,RA
2026-04-30 02:35:00,METAR KVNC 300235Z AUTO 29007KT 9SM -RA CLR 24/22 A2994 RMK AO2 P0000 T02410223 $,0,7.0,0,14481.0,0,0,0,-RA
2026-04-30 02:15:00,METAR KVNC 300215Z AUTO 30009KT 8SM -RA CLR 24/22 A2993 RMK AO2 P0000 T02430223 $,0,9.0,0,12872.0,0,0,0,-RA
2026-04-30 01:55:00,METAR KVNC 300155Z AUTO 29009KT 8SM -RA CLR 24/22 A2993 RMK AO2 P0000 T02430223 $,0,9.0,0,12872.0,0,0,0,-RA
2026-04-30 01:35:00,METAR KVNC 300135Z AUTO 29009KT 8SM -RA CLR 24/22 A2993 RMK AO2 P0000 T02430223 $,0,9.0,0,12872.0,0,0,0,-RA
2026-04-30 01:15:00,METAR KVNC 300115Z AUTO 29009KT 8SM -RA CLR 24/23 A2992 RMK AO2 P0000 T02440226 $,0,9.0,0,12872.0,0,0,0,-RA
2026-04-30 00:55:00,METAR KVNC 300055Z AUTO 28010KT 8SM -RA CLR 24/23 A2991 RMK AO2 P0000 T02430227 $,0,10.0,0,12872.0,0,0,0,-RA
2026-04-30 00:35:00,METAR KVNC 300035Z AUTO 27008KT 8SM -RA CLR 24/23 A2991 RMK AO2 P0000 T02440226 $,0,8.0,0,12872.0,0,0,0,-RA
2026-04-30 00:15:00,METAR KVNC 300015Z AUTO 27007KT 7SM -RA CLR 24/23 A2990 RMK AO2 P0000 T02450227 $,0,7.0,0,11263.0,0,0,0,-RA
2026-04-29 23:55:00,METAR KVNC 292355Z AUTO 26007KT 7SM -RA CLR 25/23 A2990 RMK AO2 RAB2321 P0000 60000 T02480227 10284 20248 56010 $,0,7.0,0,11263.0,0,0,0,"-RA,RA"
2026-04-29 23:35:00,METAR KVNC 292335Z AUTO 28009KT 7SM -RA CLR 25/23 A2990 RMK AO2 RAB2321 P0000 T02500227 $,0,9.0,0,11263.0,0,0,0,"-RA,RA"
2026-04-29 23:15:00,METAR KVNC 292315Z AUTO 27008KT 7SM CLR 25/23 A2990 RMK AO2 T02540228 $,0,8.0,0,11263.0,0,0,0,
2026-04-29 22:55:00,METAR KVNC 292255Z AUTO 26008KT 7SM CLR 26/23 A2990 RMK AO2 RAE2152 P0000 T02580228 $,0,8.0,0,11263.0,0,0,0,RA
2026-04-29 22:35:00,METAR KVNC 292235Z AUTO 26010KT 7SM CLR 26/23 A2990 RMK AO2 RAE2152 P0000 T02580226 $,0,10.0,0,11263.0,0,0,0,RA
2026-04-29 22:15:00,METAR KVNC 292215Z AUTO 27010KT 7SM CLR 26/23 A2991 RMK AO2 RAE2152 P0000 T02620225 $,0,10.0,0,11263.0,0,0,0,RA
2026-04-29 21:55:00,METAR KVNC 292155Z AUTO 26010KT 7SM -RA CLR 27/22 A2991 RMK AO2 P0000 T02660223 $,0,10.0,0,11263.0,0,0,0,-RA
2026-04-29 21:35:00,METAR KVNC 292135Z AUTO 25009KT 7SM -RA CLR 27/22 A2991 RMK AO2 P0000 T02680224 $,0,9.0,0,11263.0,0,0,0,-RA
2026-04-29 21:15:00,METAR KVNC 292115Z AUTO 25011KT 7SM -RA CLR 27/22 A2992 RMK AO2 P0000 T02680222 $,0,11.0,0,11263.0,0,0,0,-RA
2026-04-29 20:55:00,METAR KVNC 292055Z AUTO 24011KT 7SM -RA CLR 27/22 A2993 RMK AO2 P0000 60000 T02680221 57027 $,0,11.0,0,11263.0,0,0,0,-RA
2026-04-29 20:35:00,METAR KVNC 292035Z AUTO 25010KT 7SM -RA CLR 27/22 A2993 RMK AO2 P0000 T02700219 $,0,10.0,0,11263.0,0,0,0,-RA
2026-04-29 20:15:00,METAR KVNC 292015Z AUTO 24011KT 7SM -RA CLR 27/22 A2994 RMK AO2 P0000 T02730219 $,0,11.0,0,11263.0,0,0,0,-RA
2026-04-29 19:55:00,METAR KVNC 291955Z AUTO 25010KT 7SM -RA CLR 28/22 A2995 RMK AO2 P0000 T02790217 $,0,10.0,0,11263.0,0,0,0,-RA
2026-04-29 19:35:00,METAR KVNC 291935Z AUTO 23009KT 7SM -RA CLR 28/22 A2996 RMK AO2 P0000 T02760217 $,0,9.0,0,11263.0,0,0,0,-RA
2026-04-29 19:15:00,METAR KVNC 291915Z AUTO 23010KT 7SM -RA CLR 28/22 A2997 RMK AO2 P0000 T02780216 $,0,10.0,0,11263.0,0,0,0,-RA
2026-04-29 18:55:00,METAR KVNC 291855Z AUTO 23010KT 8SM -RA CLR 28/21 A2998 RMK AO2 P0000 T02760210 $,0,10.0,0,12872.0,0,0,0,-RA
2026-04-29 18:35:00,METAR KVNC 291835Z AUTO 21012KT 8SM -RA CLR 28/22 A2998 RMK AO2 P0000 T02770215 $,0,12.0,0,12872.0,0,0,0,-RA
2026-04-29 18:15:00,METAR KVNC 291815Z AUTO 22011KT 8SM -RA CLR 28/21 A2999 RMK AO2 P0000 T02790211 $,0,11.0,0,12872.0,0,0,0,-RA
2026-04-29 17:55:00,METAR KVNC 291755Z AUTO 23010KT 7SM -RA FEW360 28/21 A3001 RMK AO2 P0000 60000 T02780210 10289 20208 58015 $,0,10.0,0,11263.0,0,0,0,-RA
2026-04-29 17:35:00,METAR KVNC 291735Z AUTO 23010KT 7SM -RA CLR 29/20 A3001 RMK AO2 P0000 T02850202 $,0,10.0,0,11263.0,0,0,0,-RA
2026-04-29 17:15:00,METAR KVNC 291715Z AUTO 22010KT 8SM CLR 28/20 A3001 RMK AO2 RAE1714 P0000 T02810196 $,0,10.0,0,12872.0,0,0,0,RA
2026-04-29 16:55:00,METAR KVNC 291655Z AUTO 23009KT 8SM -RA CLR 28/18 A3003 RMK AO2 RAB1609 P0000 T02840183 $,0,9.0,0,12872.0,0,0,0,"-RA,RA"
2026-04-29 16:35:00,METAR KVNC 291635Z AUTO 22008KT 7SM -RA CLR 29/18 A3004 RMK AO2 RAB1609 P0000 T02870181 $,0,8.0,0,11263.0,0,0,0,"-RA,RA"
2026-04-29 16:15:00,METAR KVNC 291615Z AUTO 23007KT 7SM -RA CLR 28/20 A3005 RMK AO2 RAB1609 P0000 T02810200 $,0,7.0,0,11263.0,0,0,0,"-RA,RA"
2026-04-29 15:55:00,METAR KVNC 291555Z AUTO 21009KT 10SM CLR 27/19 A3005 RMK AO2 RAB1529E1539 P0000 T02730186 $,0,9.0,0,16090.0,0,0,0,RA
2026-04-29 15:35:00,METAR KVNC 291535Z AUTO 20007KT 9SM -RA CLR 28/18 A3005 RMK AO2 RAB1529 P0000 T02760184 $,0,7.0,0,14481.0,0,0,0,"-RA,RA"
2026-04-29 15:15:00,METAR KVNC 291515Z AUTO 21008KT 10SM CLR 27/20 A3005 RMK AO2 T02690196 $,0,8.0,0,16090.0,0,0,0,
2026-04-29 14:55:00,METAR KVNC 291455Z AUTO 22006KT 9SM CLR 27/19 A3005 RMK AO2 60000 T02690193 51014 $,0,6.0,0,14481.0,0,0,0,
2026-04-29 14:35:00,METAR KVNC 291435Z AUTO 20005KT 10SM CLR 27/19 A3005 RMK AO2 T02680192 $,0,5.0,0,16090.0,0,0,0,
2026-04-29 14:15:00,METAR KVNC 291415Z AUTO 22004KT 10SM CLR 26/20 A3005 RMK AO2 T02630203 $,0,4.0,0,16090.0,0,0,0,
2026-04-29 13:55:00,METAR KVNC 291355Z AUTO 09004KT 10SM CLR 25/21 A3004 RMK AO2 RAB1328E1343 P0000 T02530206 $,0,4.0,0,16090.0,0,0,0,RA
2026-04-29 13:35:00,METAR KVNC 291335Z AUTO VRB04KT 8SM -RA CLR 25/20 A3003 RMK AO2 RAB1328 P0000 T02490205 $,0,4.0,0,12872.0,0,0,0,"-RA,RA"
2026-04-29 13:15:00,METAR KVNC 291315Z AUTO VRB03KT 10SM CLR 24/20 A3003 RMK AO2 T02410203 $,0,3.0,0,16090.0,0,0,0,
2026-04-29 12:55:00,METAR KVNC 291255Z AUTO 09004KT 9SM CLR 23/20 A3003 RMK AO2 RAE1218 P0000 T02320201 $,0,4.0,0,14481.0,0,0,0,RA
2026-04-29 12:35:00,METAR KVNC 291235Z AUTO 07004KT 10SM CLR 23/20 A3003 RMK AO2 RAE1218 P0000 T02260199 $,0,4.0,0,16090.0,0,0,0,RA
2026-04-29 12:15:00,METAR KVNC 291215Z AUTO 09003KT 9SM -RA CLR 22/20 A3002 RMK AO2 P0000 T02170196 $,0,3.0,0,14481.0,0,0,0,-RA
2026-04-29 11:55:00,METAR KVNC 291155Z AUTO 08003KT 8SM -RA CLR 20/19 A3001 RMK AO2 RAB1109 P0000 60000 T02040191 10224 20188 53013 $,0,3.0,0,12872.0,0,0,0,"-RA,RA"
2026-04-29 11:35:00,METAR KVNC 291135Z AUTO 05005KT 7SM -RA CLR 20/19 A3000 RMK AO2 RAB1109 P0000 T01980188 $,0,5.0,0,11263.0,0,0,0,"-RA,RA"
2026-04-29 11:15:00,METAR KVNC 291115Z AUTO 07004KT 7SM -RA CLR 19/19 A2999 RMK AO2 RAB1109 P0000 T01950185 $,0,4.0,0,11263.0,0,0,0,"-RA,RA"
2026-04-29 10:55:00,METAR KVNC 291055Z AUTO 09004KT 8SM CLR 19/18 A2999 RMK AO2 T01890181 $,0,4.0,0,12872.0,0,0,0,
2026-04-29 10:35:00,METAR KVNC 291035Z AUTO 09004KT 9SM CLR 19/18 A2999 RMK AO2 T01910182 $,0,4.0,0,14481.0,0,0,0,
2026-04-29 10:15:00,METAR KVNC 291015Z AUTO 06005KT 10SM CLR 19/18 A3000 RMK AO2 T01940185 $,0,5.0,0,16090.0,0,0,0,
2026-04-29 09:55:00,METAR KVNC 290955Z AUTO 09004KT 10SM CLR 19/18 A2998 RMK AO2 T01940184 $,0,4.0,0,16090.0,0,0,0,
2026-04-29 09:35:00,METAR KVNC 290935Z AUTO 03003KT 10SM CLR 20/19 A2998 RMK AO2 T02000186 $,0,3.0,0,16090.0,0,0,0,
2026-04-29 09:15:00,METAR KVNC 290915Z AUTO 06003KT 10SM CLR 20/18 A2998 RMK AO2 T01980183 $,0,3.0,0,16090.0,0,0,0,
2026-04-29 08:55:00,METAR KVNC 290855Z AUTO 11003KT 10SM CLR 20/19 A2997 RMK AO2 60000 T02030187 55011 $,0,3.0,0,16090.0,0,0,0,
2026-04-29 08:35:00,METAR KVNC 290835Z AUTO 09003KT 10SM CLR 20/19 A2998 RMK AO2 T02040187 $,0,3.0,0,16090.0,0,0,0,
2026-04-29 08:15:00,METAR KVNC 290815Z AUTO 10004KT 10SM CLR 21/19 A2998 RMK AO2 T02090188 $,0,4.0,0,16090.0,0,0,0,
2026-04-29 07:55:00,METAR KVNC 290755Z AUTO 11004KT 10SM CLR 21/19 A2997 RMK AO2 T02100187 $,0,4.0,0,16090.0,0,0,0,
2026-04-29 07:35:00,METAR KVNC 290735Z AUTO 13005KT 10SM CLR 21/18 A2997 RMK AO2 T02070185 $,0,5.0,0,16090.0,0,0,0,
2026-04-29 07:15:00,METAR KVNC 290715Z AUTO 13003KT 10SM CLR 21/18 A2998 RMK AO2 T02110184 $,0,3.0,0,16090.0,0,0,0,
2026-04-29 06:55:00,METAR KVNC 290655Z AUTO 13004KT 10SM CLR 21/19 A2998 RMK AO2 RAE0609 P0000 T02150186 $,0,4.0,0,16090.0,0,0,0,RA
2026-04-29 06:35:00,METAR KVNC 290635Z AUTO 13005KT 10SM CLR 22/18 A2999 RMK AO2 RAE0609 P0000 T02150184 $,0,5.0,0,16090.0,0,0,0,RA
2026-04-29 06:15:00,METAR KVNC 290615Z AUTO 12005KT 10SM CLR 22/18 A3000 RMK AO2 RAE0609 P0000 T02220184 $,0,5.0,0,16090.0,0,0,0,RA
2026-04-29 05:55:00,METAR KVNC 290555Z AUTO 11005KT 9SM -RA CLR 23/18 A3000 RMK AO2 P0000 60000 T02260183 10261 20226 58017 $,0,5.0,0,14481.0,0,0,0,-RA
2026-04-29 05:35:00,METAR KVNC 290535Z AUTO 12006KT 9SM -RA CLR 23/18 A3001 RMK AO2 P0000 T02280182 $,0,6.0,0,14481.0,0,0,0,-RA
2026-04-29 05:15:00,METAR KVNC 290515Z AUTO 11007KT 9SM -RA CLR 23/18 A3001 RMK AO2 P0000 T02290183 $,0,7.0,0,14481.0,0,0,0,-RA
2026-04-29 04:55:00,METAR KVNC 290455Z AUTO 10006KT 9SM -RA CLR 23/18 A3003 RMK AO2 P0000 T02310184 402940190 $,0,6.0,0,14481.0,0,0,0,-RA
2026-04-29 04:35:00,METAR KVNC 290435Z AUTO 10005KT 9SM -RA CLR 23/18 A3004 RMK AO2 P0000 T02310183 $,0,5.0,0,14481.0,0,0,0,-RA
2026-04-29 04:15:00,METAR KVNC 290415Z AUTO 10005KT 9SM -RA CLR 24/18 A3005 RMK AO2 P0000 T02360183 $,0,5.0,0,14481.0,0,0,0,-RA
2026-04-29 03:55:00,METAR KVNC 290355Z AUTO 09006KT 9SM -RA CLR 24/18 A3005 RMK AO2 P0000 T02400183 $,0,6.0,0,14481.0,0,0,0,-RA
2026-04-29 03:35:00,METAR KVNC 290335Z AUTO 09006KT 9SM -RA CLR 24/18 A3006 RMK AO2 P0000 T02420183 $,0,6.0,0,14481.0,0,0,0,-RA
2026-04-29 02:55:00,METAR KVNC 290255Z AUTO 09009KT 9SM -RA CLR 25/18 A3005 RMK AO2 RAB0152 P0000 60000 T02540184 51012 $,0,9.0,0,14481.0,0,0,0,"-RA,RA"
2026-04-29 02:35:00,METAR KVNC 290235Z AUTO 09011KT 9SM -RA FEW045 26/18 A3005 RMK AO2 RAB0152 P0000 T02570184 $,0,11.0,0,14481.0,0,0,0,"-RA,RA"
2026-04-29 02:15:00,METAR KVNC 290215Z AUTO 09010KT 9SM -RA BKN045 BKN055 26/18 A3005 RMK AO2 RAB0152 P0000 T02600184 $,0,10.0,0,14481.0,0,0,0,"-RA,RA"
2026-04-29 01:55:00,METAR KVNC 290155Z AUTO VRB03KT 10SM BKN047 BKN055 25/19 A3005 RMK AO2 T02550194 $,0,3.0,0,16090.0,0,0,0,
2026-04-29 01:35:00,METAR KVNC 290135Z AUTO 34004KT 10SM BKN050 25/20 A3004 RMK AO2 T02550198 $,0,4.0,0,16090.0,0,0,0,
2026-04-29 01:15:00,METAR KVNC 290115Z AUTO 33006KT 10SM SCT060 BKN075 25/19 A3003 RMK AO2 T02550194 $,0,6.0,0,16090.0,0,0,0,
2026-04-29 00:55:00,METAR KVNC 290055Z AUTO 32008KT 10SM BKN060 BKN080 26/19 A3003 RMK AO2 T02550193 $,0,8.0,0,16090.0,0,0,0,
2026-04-29 00:35:00,METAR KVNC 290035Z AUTO 32007KT 10SM BKN060 BKN080 26/19 A3003 RMK AO2 T02550191 $,0,7.0,0,16090.0,0,0,0,
2026-04-29 00:15:00,METAR KVNC 290015Z AUTO 31010KT 10SM SCT065 BKN080 25/19 A3002 RMK AO2 T02530191 $,0,10.0,0,16090.0,0,0,0,
2026-04-28 23:55:00,METAR KVNC 282355Z AUTO 32010KT 10SM BKN070 25/19 A3002 RMK AO2 60000 T02540192 10283 20254 56006 $,0,10.0,0,16090.0,0,0,0,
2026-04-28 23:35:00,METAR KVNC 282335Z AUTO 32010KT 10SM SCT075 26/19 A3002 RMK AO2 T02550191 $,0,10.0,0,16090.0,0,0,0,
2026-04-28 23:15:00,METAR KVNC 282315Z AUTO 32013KT 10SM CLR 26/20 A3002 RMK AO2 T02560195 $,0,13.0,0,16090.0,0,0,0,
2026-04-28 22:55:00,METAR KVNC 282255Z AUTO 32014KT 10SM FEW080 26/20 A3002 RMK AO2 T02610199 $,0,14.0,0,16090.0,0,0,0,
2026-04-28 22:35:00,METAR KVNC 282235Z AUTO 31014KT 10SM CLR 26/20 A3002 RMK AO2 T02600199 $,0,14.0,0,16090.0,0,0,0,
2026-04-28 22:15:00,METAR KVNC 282215Z AUTO 31013KT 10SM CLR 27/20 A3001 RMK AO2 T02660199 $,0,13.0,0,16090.0,0,0,0,
2026-04-28 21:55:00,METAR KVNC 282155Z AUTO 31012KT 9SM CLR 26/21 A3001 RMK AO2 T02630206 $,0,12.0,0,14481.0,0,0,0,
2026-04-28 21:35:00,METAR KVNC 282135Z AUTO 31013KT 10SM CLR 27/21 A3002 RMK AO2 T02680210 $,0,13.0,0,16090.0,0,0,0,
2026-04-28 21:15:00,METAR KVNC 282115Z AUTO 30014KT 10SM CLR 27/20 A3003 RMK AO2 T02740199 $,0,14.0,0,16090.0,0,0,0,
2026-04-28 20:55:00,METAR KVNC 282055Z AUTO 30011KT 9SM CLR 28/21 A3004 RMK AO2 RAE2011 P0000 60000 T02750205 58014 $,0,11.0,0,14481.0,0,0,0,RA
2026-04-28 20:35:00,METAR KVNC 282035Z AUTO 30012KT 10SM CLR 27/21 A3004 RMK AO2 RAE2011 P0000 T02750211 $,0,12.0,0,16090.0,0,0,0,RA
2026-04-28 20:15:00,METAR KVNC 282015Z AUTO 30014KT 9SM CLR 28/21 A3005 RMK AO2 RAE2011 P0000 T02750209 $,0,14.0,0,14481.0,0,0,0,RA
2026-04-28 19:55:00,METAR KVNC 281955Z AUTO 29012KT 8SM -RA FEW370 28/21 A3005 RMK AO2 P0000 T02760206 $,0,12.0,0,12872.0,0,0,0,-RA
2026-04-28 19:35:00,METAR KVNC 281935Z AUTO 29012KT 9SM -RA CLR 27/21 A3006 RMK AO2 P0000 T02740207 $,0,12.0,0,14481.0,0,0,0,-RA
2026-04-28 19:15:00,METAR KVNC 281915Z AUTO 28012KT 7SM -RA CLR 27/21 A3007 RMK AO2 P0000 T02730208 $,0,12.0,0,11263.0,0,0,0,-RA
2026-04-28 18:55:00,METAR KVNC 281855Z AUTO 27011KT 7SM -RA FEW350 28/21 A3007 RMK AO2 P0000 T02770207 $,0,11.0,0,11263.0,0,0,0,-RA
2026-04-28 18:35:00,METAR KVNC 281835Z AUTO 27009KT 8SM -RA CLR 27/21 A3007 RMK AO2 P0000 T02730207 $,0,9.0,0,12872.0,0,0,0,-RA
2026-04-28 18:15:00,METAR KVNC 281815Z AUTO 25009KT 7SM -RA CLR 28/20 A3007 RMK AO2 P0000 T02800205 $,0,9.0,0,11263.0,0,0,0,-RA
2026-04-28 17:55:00,METAR KVNC 281755Z AUTO 25010KT 7SM -RA FEW360 28/20 A3008 RMK AO2 P0000 60000 T02800204 10294 20202 58009 $,0,10.0,0,11263.0,0,0,0,-RA
2026-04-28 17:35:00,METAR KVNC 281735Z AUTO 25009KT 7SM -RA FEW360 28/20 A3008 RMK AO2 P0000 T02790197 $,0,9.0,0,11263.0,0,0,0,-RA
2026-04-28 17:15:00,METAR KVNC 281715Z AUTO 23010KT 8SM -RA CLR 28/19 A3008 RMK AO2 P0000 T02820194 $,0,10.0,0,12872.0,0,0,0,-RA
2026-04-28 16:55:00,METAR KVNC 281655Z AUTO 24008KT 9SM -RA FEW050 28/19 A3009 RMK AO2 P0000 T02850188 $,0,8.0,0,14481.0,0,0,0,-RA
2026-04-28 16:35:00,METAR KVNC 281635Z AUTO 29009KT 250V330 8SM -RA FEW049 29/18 A3010 RMK AO2 P0000 T02930185 $,0,9.0,0,12872.0,0,0,0,-RA
2026-04-28 16:15:00,METAR KVNC 281615Z AUTO 12005KT 9SM CLR 29/18 A3010 RMK AO2 RAE1610 P0000 T02870176 $,0,5.0,0,14481.0,0,0,0,RA
2026-04-28 15:55:00,METAR KVNC 281555Z AUTO 05005KT 9SM -RA CLR 28/18 A3011 RMK AO2 P0000 T02780177 $,0,5.0,0,14481.0,0,0,0,-RA
2026-04-28 15:35:00,METAR KVNC 281535Z AUTO 00000KT 8SM -RA CLR 28/17 A3011 RMK AO2 P0000 T02760174 $,0,0.0,0,12872.0,0,0,0,-RA
2026-04-28 15:15:00,METAR KVNC 281515Z AUTO VRB03KT 8SM -RA CLR 27/19 A3010 RMK AO2 P0000 T02670187 $,0,3.0,0,12872.0,0,0,0,-RA
2026-04-28 14:55:00,METAR KVNC 281455Z AUTO 07008KT 7SM -RA CLR 26/19 A3010 RMK AO2 P0000 60000 T02640187 51007 $,0,8.0,0,11263.0,0,0,0,-RA
2026-04-28 14:35:00,METAR KVNC 281435Z AUTO 06004KT 8SM -RA CLR 26/19 A3011 RMK AO2 P0000 T02620193 $,0,4.0,0,12872.0,0,0,0,-RA
2026-04-28 14:15:00,METAR KVNC 281415Z AUTO 06008KT 7SM -RA CLR 25/19 A3010 RMK AO2 P0000 T02530191 $,0,8.0,0,11263.0,0,0,0,-RA
2026-04-28 13:55:00,METAR KVNC 281355Z AUTO 09008KT 7SM -RA CLR 25/19 A3010 RMK AO2 P0000 T02470191 $,0,8.0,0,11263.0,0,0,0,-RA
2026-04-28 13:35:00,METAR KVNC 281335Z AUTO 08008KT 7SM -RA CLR 24/19 A3010 RMK AO2 P0000 T02390191 $,0,8.0,0,11263.0,0,0,0,-RA
2026-04-28 13:15:00,METAR KVNC 281315Z AUTO 07008KT 7SM -RA CLR 23/19 A3010 RMK AO2 P0000 T02280194 $,0,8.0,0,11263.0,0,0,0,-RA
2026-04-28 12:55:00,METAR KVNC 281255Z AUTO 06009KT 7SM -RA CLR 22/19 A3010 RMK AO2 P0000 T02200194 $,0,9.0,0,11263.0,0,0,0,-RA
2026-04-28 12:35:00,METAR KVNC 281235Z AUTO 06010KT 7SM -RA CLR 21/19 A3009 RMK AO2 P0000 T02140192 $,0,10.0,0,11263.0,0,0,0,-RA
2026-04-28 12:15:00,METAR KVNC 281215Z AUTO 07008KT 7SM -RA CLR 21/19 A3008 RMK AO2 P0000 T02070192 $,0,8.0,0,11263.0,0,0,0,-RA
2026-04-28 11:55:00,METAR KVNC 281155Z AUTO 06008KT 6SM -RA BR CLR 20/19 A3008 RMK AO2 P0000 60000 T01980188 10212 20190 53017 $,0,8.0,0,9654.0,0,0,1,"-RA,BR"
2026-04-28 11:35:00,METAR KVNC 281135Z AUTO 06008KT 6SM -RA BR CLR 19/19 A3008 RMK AO2 P0000 T01950187 $,0,8.0,0,9654.0,0,0,1,"-RA,BR"
2026-04-28 11:15:00,METAR KVNC 281115Z AUTO 05008KT 6SM -RA BR CLR 19/18 A3007 RMK AO2 P0000 T01910185 $,0,8.0,0,9654.0,0,0,1,"-RA,BR"
2026-04-28 10:55:00,METAR KVNC 281055Z AUTO 06007KT 7SM -RA CLR 19/18 A3006 RMK AO2 P0000 T01910185 $,0,7.0,0,11263.0,0,0,0,-RA
2026-04-28 10:35:00,METAR KVNC 281035Z AUTO 05008KT 8SM -RA CLR 19/19 A3006 RMK AO2 P0000 T01920185 $,0,8.0,0,12872.0,0,0,0,-RA
2026-04-28 10:15:00,METAR KVNC 281015Z AUTO 06008KT 8SM -RA CLR 19/18 A3005 RMK AO2 P0000 T01930184 $,0,8.0,0,12872.0,0,0,0,-RA
2026-04-28 09:55:00,METAR KVNC 280955Z AUTO 05009KT 8SM -RA CLR 19/19 A3005 RMK AO2 P0000 T01940186 $,0,9.0,0,12872.0,0,0,0,-RA
2026-04-28 09:35:00,METAR KVNC 280935Z AUTO 05008KT 8SM -RA CLR 19/19 A3004 RMK AO2 P0000 T01950186 $,0,8.0,0,12872.0,0,0,0,-RA
2026-04-28 09:15:00,METAR KVNC 280915Z AUTO 06007KT 8SM SCT060 20/19 A3004 RMK AO2 RAE0908 P0000 T01960186 $,0,7.0,0,12872.0,0,0,0,RA
2026-04-28 08:55:00,METAR KVNC 280855Z AUTO 06009KT 8SM -RA BKN060 20/19 A3003 RMK AO2 RAE0821B0847 P0000 60000 T01990187 56009 $,0,9.0,0,12872.0,0,0,0,"-RA,RA"
2026-04-28 08:35:00,METAR KVNC 280835Z AUTO 06009KT 8SM FEW060 20/19 A3003 RMK AO2 RAE0821 P0000 T01980186 $,0,9.0,0,12872.0,0,0,0,RA
2026-04-28 08:15:00,METAR KVNC 280815Z AUTO 06010KT 8SM -RA CLR 20/19 A3003 RMK AO2 P0000 T02000186 $,0,10.0,0,12872.0,0,0,0,-RA
2026-04-28 07:55:00,METAR KVNC 280755Z AUTO 05008KT 8SM -RA CLR 20/19 A3004 RMK AO2 P0000 T02010186 $,0,8.0,0,12872.0,0,0,0,-RA
2026-04-28 07:35:00,METAR KVNC 280735Z AUTO 06009KT 8SM -RA CLR 20/19 A3004 RMK AO2 P0000 T02010186 $,0,9.0,0,12872.0,0,0,0,-RA
2026-04-28 07:15:00,METAR KVNC 280715Z AUTO 05010KT 9SM -RA CLR 20/19 A3004 RMK AO2 P0000 T02030186 $,0,10.0,0,14481.0,0,0,0,-RA
2026-04-28 06:55:00,METAR KVNC 280655Z AUTO 07009KT 9SM -RA CLR 21/19 A3005 RMK AO2 P0000 T02060186 $,0,9.0,0,14481.0,0,0,0,-RA
2026-04-28 06:35:00,METAR KVNC 280635Z AUTO 08006KT 8SM -RA CLR 21/19 A3005 RMK AO2 P0000 T02070187 $,0,6.0,0,12872.0,0,0,0,-RA
2026-04-28 06:15:00,METAR KVNC 280615Z AUTO 07006KT 8SM -RA CLR 21/19 A3006 RMK AO2 P0000 T02100187 $,0,6.0,0,12872.0,0,0,0,-RA
2026-04-28 05:55:00,METAR KVNC 280555Z AUTO 08007KT 9SM -RA CLR 21/19 A3006 RMK AO2 P0000 60000 T02130187 10255 20213 50000 $,0,7.0,0,14481.0,0,0,0,-RA
2026-04-28 05:35:00,METAR KVNC 280535Z AUTO 06009KT 9SM -RA CLR 22/19 A3006 RMK AO2 P0000 T02150188 $,0,9.0,0,14481.0,0,0,0,-RA
2026-04-28 05:15:00,METAR KVNC 280515Z AUTO 07007KT 8SM CLR 22/19 A3007 RMK AO2 RAE0513 P0000 T02160187 $,0,7.0,0,12872.0,0,0,0,RA
2026-04-28 04:55:00,METAR KVNC 280455Z AUTO 06008KT 8SM -RA CLR 22/19 A3007 RMK AO2 P0000 T02180188 403060197 $,0,8.0,0,12872.0,0,0,0,-RA
2026-04-28 04:35:00,METAR KVNC 280435Z AUTO 06009KT 9SM -RA CLR 22/19 A3007 RMK AO2 P0000 T02210188 $,0,9.0,0,14481.0,0,0,0,-RA
2026-04-28 04:15:00,METAR KVNC 280415Z AUTO 07007KT 9SM -RA CLR 22/19 A3007 RMK AO2 P0000 T02230189 $,0,7.0,0,14481.0,0,0,0,-RA
2026-04-28 03:55:00,METAR KVNC 280355Z AUTO 07010KT 9SM -RA CLR 23/19 A3007 RMK AO2 P0000 T02280189 $,0,10.0,0,14481.0,0,0,0,-RA
2026-04-28 03:35:00,METAR KVNC 280335Z AUTO 07010KT 9SM -RA CLR 23/19 A3006 RMK AO2 P0000 T02310188 $,0,10.0,0,14481.0,0,0,0,-RA
2026-04-28 03:15:00,METAR KVNC 280315Z AUTO 07008KT 8SM -RA CLR 23/19 A3006 RMK AO2 P0000 T02320189 $,0,8.0,0,12872.0,0,0,0,-RA
2026-04-28 02:55:00,METAR KVNC 280255Z AUTO 07009KT 10SM -RA CLR 24/19 A3006 RMK AO2 P0000 60000 T02350190 51026 $,0,9.0,0,16090.0,0,0,0,-RA
2026-04-28 02:35:00,METAR KVNC 280235Z AUTO 08008KT 8SM -RA SCT060 24/19 A3006 RMK AO2 P0000 T02390190 $,0,8.0,0,12872.0,0,0,0,-RA
2026-04-28 02:15:00,METAR KVNC 280215Z AUTO 07009KT 9SM -RA BKN060 24/19 A3005 RMK AO2 P0000 T02400191 $,0,9.0,0,14481.0,0,0,0,-RA
2026-04-28 01:55:00,METAR KVNC 280155Z AUTO 08006KT 9SM -RA FEW055 24/20 A3004 RMK AO2 RAB0115 P0000 T02400196 $,0,6.0,0,14481.0,0,0,0,"-RA,RA"
2026-04-28 01:35:00,METAR KVNC 280135Z AUTO 07007KT 9SM -RA SCT055 24/20 A3003 RMK AO2 RAB0115 P0000 T02440198 $,0,7.0,0,14481.0,0,0,0,"-RA,RA"
2026-04-28 01:15:00,METAR KVNC 280115Z AUTO 07008KT 9SM -RA FEW055 BKN075 25/20 A3003 RMK AO2 RAB0115 P0000 T02490198 $,0,8.0,0,14481.0,0,0,0,"-RA,RA"
2026-04-28 00:55:00,METAR KVNC 280055Z AUTO 09005KT 10SM SCT055 OVC070 25/21 A3001 RMK AO2 RAB0020E0034 P0000 T02490211 $,0,5.0,0,16090.0,0,0,0,RA
2026-04-28 00:35:00,METAR KVNC 280035Z AUTO 09005KT 10SM BKN055 BKN085 25/22 A3001 RMK AO2 RAB0020E0034 P0000 T02520220 $,0,5.0,0,16090.0,0,0,0,RA
2026-04-28 00:15:00,METAR KVNC 280015Z AUTO 08004KT 8SM SCT060 BKN080 25/22 A3000 RMK AO2 T02540221 $,0,4.0,0,12872.0,0,0,0,
2026-04-27 23:55:00,METAR KVNC 272355Z AUTO 00000KT 9SM BKN049 OVC065 25/21 A2998 RMK AO2 RAB2256E2336 P0000 60000 T02540215 10291 20250 53008 $,0,0.0,0,14481.0,0,0,0,RA
2026-04-27 23:35:00,METAR KVNC 272335Z AUTO 00000KT 8SM -RA BKN045 OVC055 25/22 A2998 RMK AO2 RAB2256 P0000 T02500224 $,0,0.0,0,12872.0,0,0,0,"-RA,RA"
2026-04-27 23:15:00,METAR KVNC 272315Z AUTO 07004KT 3SM -RA SCT043 BKN060 BKN075 26/22 A2998 RMK AO2 VIS 1 1/4V5 RAB2256 P0000 T02570220 $,0,4.0,0,4827.0,0,0,0,"-RA,RA"
2026-04-27 22:55:00,METAR KVNC 272255Z AUTO 33010KT 10SM SCT065 26/22 A2997 RMK AO2 T02620221 $,0,10.0,0,16090.0,0,0,0,
2026-04-27 22:35:00,METAR KVNC 272235Z AUTO 32010KT 10SM SCT065 SCT085 26/22 A2996 RMK AO2 T02620223 $,0,10.0,0,16090.0,0,0,0,
2026-04-27 22:15:00,METAR KVNC 272215Z AUTO 31012KT 9SM BKN070 BKN080 OVC110 27/22 A2997 RMK AO2 T02650224 $,0,12.0,0,14481.0,0,0,0,
2026-04-27 21:55:00,METAR KVNC 272155Z AUTO 30013KT 9SM BKN060 26/23 A2996 RMK AO2 T02640228 $,0,13.0,0,14481.0,0,0,0,
2026-04-27 21:35:00,METAR KVNC 272135Z AUTO 30012KT 10SM BKN065 27/22 A2996 RMK AO2 T02710224 $,0,12.0,0,16090.0,0,0,0,
2026-04-27 21:15:00,METAR KVNC 272115Z AUTO 28010KT 10SM BKN065 OVC080 27/22 A2996 RMK AO2 T02690222 $,0,10.0,0,16090.0,0,0,0,
2026-04-27 20:55:00,METAR KVNC 272055Z AUTO 27010KT 10SM FEW060 SCT080 BKN100 27/22 A2996 RMK AO2 T02680221 55006 $,0,10.0,0,16090.0,0,0,0,
2026-04-27 20:35:00,METAR KVNC 272035Z AUTO 28011KT 10SM FEW060 SCT080 BKN100 27/22 A2996 RMK AO2 T02710221 $,0,11.0,0,16090.0,0,0,0,
2026-04-27 20:15:00,METAR KVNC 272015Z AUTO 27010KT 9SM SCT060 SCT070 BKN085 27/22 A2996 RMK AO2 T02730222 $,0,10.0,0,14481.0,0,0,0,
2026-04-27 19:55:00,METAR KVNC 271955Z AUTO 29012KT 10SM SCT060 28/22 A2996 RMK AO2 T02840223 $,0,12.0,0,16090.0,0,0,0,
2026-04-27 19:35:00,METAR KVNC 271935Z AUTO 29012KT 10SM SCT055 SCT065 SCT110 28/22 A2996 RMK AO2 T02820224 $,0,12.0,0,16090.0,0,0,0,
2026-04-27 19:15:00,METAR KVNC 271915Z AUTO 30010KT 8SM SCT060 SCT085 BKN100 27/23 A2997 RMK AO2 T02690228 $,0,10.0,0,12872.0,0,0,0,
2026-04-27 18:55:00,METAR KVNC 271855Z AUTO 27012KT 9SM BKN055 BKN065 28/23 A2997 RMK AO2 T02750226 $,0,12.0,0,14481.0,0,0,0,
2026-04-27 18:35:00,METAR KVNC 271835Z AUTO 27012KT 9SM SCT055 BKN070 27/23 A2997 RMK AO2 T02730228 $,0,12.0,0,14481.0,0,0,0,
2026-04-27 18:15:00,METAR KVNC 271815Z AUTO 27012KT 10SM FEW050 SCT080 28/23 A2997 RMK AO2 T02830232 $,0,12.0,0,16090.0,0,0,0,
2026-04-27 17:55:00,METAR KVNC 271755Z AUTO 28010KT 10SM FEW050 SCT075 SCT090 28/23 A2998 RMK AO2 T02800226 10306 20230 58008 $,0,10.0,0,16090.0,0,0,0,
2026-04-27 17:35:00,METAR KVNC 271735Z AUTO 28009KT 10SM SCT045 SCT080 BKN090 28/23 A2998 RMK AO2 T02810229 PWINO $,0,9.0,0,16090.0,0,0,0,
2026-04-27 17:15:00,METAR KVNC 271715Z AUTO 9SM 31/21 A2999 RMK AO2 T03060206 $,0,,0,14481.0,0,0,0,
2026-04-27 16:55:00,METAR KVNC 271655Z AUTO 07008KT 10SM 30/19 A2999 RMK AO2 T03050194 $,0,8.0,0,16090.0,0,0,0,
2026-04-27 16:35:00,METAR KVNC 271635Z AUTO 01007KT 10SM 29/20 A2999 RMK AO2 T02880198 $,0,7.0,0,16090.0,0,0,0,
2026-04-27 16:15:00,METAR KVNC 271615Z AUTO 07007KT 10SM FEW036 29/20 A3000 RMK AO2 T02880197 $,0,7.0,0,16090.0,0,0,0,
2026-04-27 15:55:00,METAR KVNC 271555Z AUTO 05008KT 10SM FEW029 29/20 A3000 RMK AO2 T02910203 $,0,8.0,0,16090.0,0,0,0,
2026-04-27 15:35:00,METAR KVNC 271535Z AUTO 07008KT 10SM SCT027 28/20 A3000 RMK AO2 T02850203 $,0,8.0,0,16090.0,0,0,0,
2026-04-27 15:15:00,METAR KVNC 271515Z AUTO 04006KT 10SM BKN026 28/21 A3000 RMK AO2 T02780206 $,0,6.0,0,16090.0,0,0,0,
2026-04-27 14:55:00,METAR KVNC 271455Z AUTO 05007KT 10SM FEW025 28/21 A3000 RMK AO2 T02790206 53013 $,0,7.0,0,16090.0,0,0,0,
2026-04-27 14:35:00,METAR KVNC 271435Z AUTO 03007KT 350V060 10SM FEW025 28/21 A3000 RMK AO2 T02780207 $,0,7.0,0,16090.0,0,0,0,
2026-04-27 14:15:00,METAR KVNC 271415Z AUTO 03007KT 10SM CLR 27/20 A2999 RMK AO2 T02720205 $,0,7.0,0,16090.0,0,0,0,
2026-04-27 13:55:00,METAR KVNC 271355Z AUTO 03007KT 10SM FEW019 26/21 A2998 RMK AO2 T02630207 $,0,7.0,0,16090.0,0,0,0,
2026-04-27 13:35:00,METAR KVNC 271335Z AUTO 02008KT 10SM SCT019 26/21 A2998 RMK AO2 T02630207 $,0,8.0,0,16090.0,0,0,0,
2026-04-27 13:15:00,METAR KVNC 271315Z AUTO 01006KT 10SM CLR 25/21 A2997 RMK AO2 T02530208 $,0,6.0,0,16090.0,0,0,0,
2026-04-27 12:55:00,METAR KVNC 271255Z AUTO 34005KT 9SM CLR 25/21 A2997 RMK AO2 T02490212 $,0,5.0,0,14481.0,0,0,0,
2026-04-27 12:35:00,METAR KVNC 271235Z AUTO 33006KT 9SM CLR 25/21 A2997 RMK AO2 T02460211 $,0,6.0,0,14481.0,0,0,0,
2026-04-27 12:15:00,METAR KVNC 271215Z AUTO 00000KT 9SM CLR 24/21 A2996 RMK AO2 T02370213 $,0,0.0,0,14481.0,0,0,0,
2026-04-27 11:55:00,METAR KVNC 271155Z AUTO 05003KT 10SM CLR 23/21 A2996 RMK AO2 T02250210 10234 20197 53017 $,0,3.0,0,16090.0,0,0,0,
2026-04-27 11:35:00,METAR KVNC 271135Z AUTO 07003KT 10SM CLR 21/20 A2995 RMK AO2 T02140204 $,0,3.0,0,16090.0,0,0,0,
2026-04-27 11:15:00,METAR KVNC 271115Z AUTO 00000KT 9SM CLR 22/20 A2995 RMK AO2 T02170205 $,0,0.0,0,14481.0,0,0,0,
2026-04-27 10:55:00,METAR KVNC 271055Z AUTO 00000KT 9SM FEW009 SCT013 SCT018 SCT023 22/21 A2994 RMK AO2 FEW V SCT T02210207 $,0,0.0,0,14481.0,0,0,0,
2026-04-27 10:35:00,METAR KVNC 271035Z AUTO 00000KT 10SM SCT012 BKN019 23/21 A2994 RMK AO2 CIG 018V024 T02280211 $,0,0.0,0,16090.0,0,0,0,
2026-04-27 10:15:00,METAR KVNC 271015Z AUTO 33005KT 10SM BKN011 BKN017 23/21 A2994 RMK AO2 CIG 011V015 T02330215 $,0,5.0,0,16090.0,0,0,0,
2026-04-27 09:55:00,METAR KVNC 270955Z AUTO 31008KT 10SM SCT012 BKN025 23/22 A2992 RMK AO2 CIG 022V027 T02330215 $,0,8.0,0,16090.0,0,0,0,
2026-04-27 09:35:00,METAR KVNC 270935Z AUTO 32008KT 10SM FEW011 23/21 A2992 RMK AO2 T02320213 $,0,8.0,0,16090.0,0,0,0,
2026-04-27 09:15:00,METAR KVNC 270915Z AUTO 32008KT 10SM FEW012 23/21 A2992 RMK AO2 T02310212 $,0,8.0,0,16090.0,0,0,0,
2026-04-27 08:55:00,METAR KVNC 270855Z AUTO 31008KT 10SM FEW013 23/21 A2991 RMK AO2 T02310212 55000 $,0,8.0,0,16090.0,0,0,0,
2026-04-27 08:35:00,METAR KVNC 270835Z AUTO 32006KT 10SM FEW013 23/21 A2991 RMK AO2 T02310210 $,0,6.0,0,16090.0,0,0,0,
2026-04-27 08:15:00,METAR KVNC 270815Z AUTO 31006KT 10SM FEW012 23/21 A2991 RMK AO2 T02290211 $,0,6.0,0,16090.0,0,0,0,
2026-04-27 07:55:00,METAR KVNC 270755Z AUTO 31007KT 10SM FEW012 SCT021 23/21 A2990 RMK AO2 FEW V SCT T02290210 $,0,7.0,0,16090.0,0,0,0,
2026-04-27 07:35:00,METAR KVNC 270735Z AUTO 31006KT 10SM FEW012 SCT022 22/21 A2990 RMK AO2 FEW V SCT T02240208 $,0,6.0,0,16090.0,0,0,0,
2026-04-27 07:15:00,METAR KVNC 270715Z AUTO 00000KT 10SM CLR 20/19 A2990 RMK AO2 T01970187 $,0,0.0,0,16090.0,0,0,0,
2026-04-27 06:55:00,METAR KVNC 270655Z AUTO 00000KT 10SM CLR 21/19 A2990 RMK AO2 T02090193 $,0,0.0,0,16090.0,0,0,0,
2026-04-27 06:35:00,METAR KVNC 270635Z AUTO 00000KT 10SM CLR 20/19 A2990 RMK AO2 T02050190 $,0,0.0,0,16090.0,0,0,0,
2026-04-27 06:15:00,METAR KVNC 270615Z AUTO 00000KT 10SM CLR 21/20 A2991 RMK AO2 T02140196 $,0,0.0,0,16090.0,0,0,0,
2026-04-27 05:55:00,METAR KVNC 270555Z AUTO 00000KT 10SM CLR 22/20 A2991 RMK AO2 T02170198 10238 20207 50002 $,0,0.0,0,16090.0,0,0,0,
2026-04-27 05:35:00,METAR KVNC 270535Z AUTO 33003KT 10SM CLR 22/20 A2992 RMK AO2 T02160199 $,0,3.0,0,16090.0,0,0,0,
2026-04-27 05:15:00,METAR KVNC 270515Z AUTO 03003KT 10SM CLR 21/20 A2993 RMK AO2 T02090195 $,0,3.0,0,16090.0,0,0,0,
2026-04-27 04:55:00,METAR KVNC 270455Z AUTO 05003KT 10SM CLR 21/19 A2993 RMK AO2 T02080193 402770201 $,0,3.0,0,16090.0,0,0,0,
2026-04-27 04:35:00,METAR KVNC 270435Z AUTO 06003KT 10SM CLR 22/20 A2992 RMK AO2 T02190197 $,0,3.0,0,16090.0,0,0,0,
2026-04-27 04:15:00,METAR KVNC 270415Z AUTO 00000KT 10SM CLR 23/20 A2992 RMK AO2 T02290200 $,0,0.0,0,16090.0,0,0,0,
2026-04-27 03:55:00,METAR KVNC 270355Z AUTO 33005KT 10SM CLR 23/20 A2992 RMK AO2 T02300200 $,0,5.0,0,16090.0,0,0,0,
2026-04-27 03:35:00,METAR KVNC 270335Z AUTO 30006KT 10SM CLR 23/20 A2991 RMK AO2 T02260202 $,0,6.0,0,16090.0,0,0,0,
2026-04-27 03:15:00,METAR KVNC 270315Z AUTO 30007KT 10SM CLR 23/20 A2991 RMK AO2 T02270201 $,0,7.0,0,16090.0,0,0,0,
2026-04-27 02:55:00,METAR KVNC 270255Z AUTO 30006KT 10SM CLR 23/20 A2991 RMK AO2 T02290200 52011 $,0,6.0,0,16090.0,0,0,0,
2026-04-27 02:35:00,METAR KVNC 270235Z AUTO 31006KT 10SM CLR 23/20 A2991 RMK AO2 T02300199 $,0,6.0,0,16090.0,0,0,0,
2026-04-27 02:15:00,METAR KVNC 270215Z AUTO 30007KT 10SM CLR 23/20 A2990 RMK AO2 T02300201 $,0,7.0,0,16090.0,0,0,0,
2026-04-27 01:55:00,METAR KVNC 270155Z AUTO 32007KT 10SM CLR 23/20 A2990 RMK AO2 T02330201 $,0,7.0,0,16090.0,0,0,0,
2026-04-27 01:35:00,METAR KVNC 270135Z AUTO 31007KT 10SM CLR 23/20 A2989 RMK AO2 T02330201 $,0,7.0,0,16090.0,0,0,0,
2026-04-27 01:15:00,METAR KVNC 270115Z AUTO 32006KT 10SM CLR 23/20 A2989 RMK AO2 T02330199 $,0,6.0,0,16090.0,0,0,0,
2026-04-27 00:55:00,METAR KVNC 270055Z AUTO 32008KT 10SM CLR 23/20 A2989 RMK AO2 T02350202 $,0,8.0,0,16090.0,0,0,0,
2026-04-27 00:35:00,METAR KVNC 270035Z AUTO 31007KT 10SM CLR 24/20 A2989 RMK AO2 T02350202 $,0,7.0,0,16090.0,0,0,0,
2026-04-27 00:15:00,METAR KVNC 270015Z AUTO 31008KT 9SM CLR 24/20 A2988 RMK AO2 T02360203 $,0,8.0,0,14481.0,0,0,0,
2026-04-26 23:55:00,METAR KVNC 262355Z AUTO 31009KT 9SM CLR 24/20 A2987 RMK AO2 T02400198 10271 20240 54000 $,0,9.0,0,14481.0,0,0,0,
2026-04-26 23:35:00,METAR KVNC 262335Z AUTO 31007KT 9SM CLR 24/20 A2987 RMK AO2 T02420199 $,0,7.0,0,14481.0,0,0,0,
2026-04-26 23:15:00,METAR KVNC 262315Z AUTO 31009KT 9SM CLR 25/19 A2987 RMK AO2 T02480195 $,0,9.0,0,14481.0,0,0,0,
2026-04-26 22:55:00,METAR KVNC 262255Z AUTO 32010KT 10SM CLR 25/20 A2987 RMK AO2 T02530204 $,0,10.0,0,16090.0,0,0,0,
2026-04-26 22:35:00,METAR KVNC 262235Z AUTO 32012KT 9SM CLR 25/21 A2987 RMK AO2 T02510206 $,0,12.0,0,14481.0,0,0,0,
2026-04-26 22:15:00,METAR KVNC 262215Z AUTO 32011KT 10SM CLR 25/21 A2988 RMK AO2 T02540211 $,0,11.0,0,16090.0,0,0,0,
2026-04-26 21:55:00,METAR KVNC 262155Z AUTO 31013KT 10SM CLR 26/21 A2987 RMK AO2 T02580213 $,0,13.0,0,16090.0,0,0,0,
2026-04-26 21:35:00,METAR KVNC 262135Z AUTO 31010KT 10SM FEW014 26/22 A2987 RMK AO2 T02600216 $,0,10.0,0,16090.0,0,0,0,
2026-04-26 21:15:00,METAR KVNC 262115Z AUTO 32011KT 10SM FEW014 26/22 A2987 RMK AO2 T02640220 $,0,11.0,0,16090.0,0,0,0,
2026-04-26 20:55:00,METAR KVNC 262055Z AUTO 27007KT 9SM CLR 27/23 A2987 RMK AO2 T02660226 56011 $,0,7.0,0,14481.0,0,0,0,
2026-04-26 20:35:00,METAR KVNC 262035Z AUTO 27009KT 9SM CLR 27/23 A2987 RMK AO2 T02650226 $,0,9.0,0,14481.0,0,0,0,
2026-04-26 20:15:00,METAR KVNC 262015Z AUTO 27008KT 10SM CLR 27/23 A2988 RMK AO2 T02650228 $,0,8.0,0,16090.0,0,0,0,
2026-04-26 19:55:00,METAR KVNC 261955Z AUTO 27010KT 9SM CLR 27/23 A2988 RMK AO2 T02680228 $,0,10.0,0,14481.0,0,0,0,
2026-04-26 19:35:00,METAR KVNC 261935Z AUTO 25010KT 9SM FEW008 26/23 A2989 RMK AO2 T02630227 $,0,10.0,0,14481.0,0,0,0,
2026-04-26 19:15:00,METAR KVNC 261915Z AUTO 23010KT 10SM SCT008 27/23 A2989 RMK AO2 T02700228 $,0,10.0,0,16090.0,0,0,0,
2026-04-26 18:55:00,METAR KVNC 261855Z AUTO 23009KT 10SM FEW009 27/23 A2989 RMK AO2 T02660226 $,0,9.0,0,16090.0,0,0,0,
2026-04-26 18:35:00,METAR KVNC 261835Z AUTO 22009KT 10SM FEW008 27/23 A2990 RMK AO2 T02690227 $,0,9.0,0,16090.0,0,0,0,
2026-04-26 18:15:00,METAR KVNC 261815Z AUTO 22009KT 10SM FEW009 SCT380 27/23 A2991 RMK AO2 T02670225 $,0,9.0,0,16090.0,0,0,0,
2026-04-26 17:55:00,METAR KVNC 261755Z AUTO 22008KT 10SM FEW200 27/22 A2991 RMK AO2 T02660221 10277 20235 58004 $,0,8.0,0,16090.0,0,0,0,
2026-04-26 17:35:00,METAR KVNC 261735Z AUTO 22008KT 10SM FEW280 SCT360 27/22 A2991 RMK AO2 T02700222 $,0,8.0,0,16090.0,0,0,0,
2026-04-26 17:15:00,METAR KVNC 261715Z AUTO 22010KT 10SM FEW280 SCT370 27/22 A2991 RMK AO2 T02680216 $,0,10.0,0,16090.0,0,0,0,
2026-04-26 16:55:00,METAR KVNC 261655Z AUTO 21010KT 10SM CLR 27/21 A2992 RMK AO2 T02660214 $,0,10.0,0,16090.0,0,0,0,
2026-04-26 16:35:00,METAR KVNC 261635Z AUTO 20009KT 10SM CLR 26/21 A2992 RMK AO2 T02640208 $,0,9.0,0,16090.0,0,0,0,
2026-04-26 16:15:00,METAR KVNC 261615Z AUTO 20008KT 9SM CLR 26/20 A2992 RMK AO2 T02610199 $,0,8.0,0,14481.0,0,0,0,
2026-04-26 15:55:00,METAR KVNC 261555Z AUTO 20007KT 9SM CLR 26/21 A2992 RMK AO2 T02620209 $,0,7.0,0,14481.0,0,0,0,
2026-04-26 15:35:00,METAR KVNC 261535Z AUTO 21006KT 9SM CLR 26/20 A2992 RMK AO2 T02600202 $,0,6.0,0,14481.0,0,0,0,
2026-04-26 15:15:00,METAR KVNC 261515Z AUTO 21006KT 10SM CLR 26/21 A2992 RMK AO2 T02620209 $,0,6.0,0,16090.0,0,0,0,
2026-04-26 14:55:00,METAR KVNC 261455Z AUTO 21005KT 10SM CLR 25/21 A2992 RMK AO2 T02550209 51010 $,0,5.0,0,16090.0,0,0,0,
2026-04-26 14:35:00,METAR KVNC 261435Z AUTO 21005KT 9SM CLR 25/21 A2992 RMK AO2 T02540208 $,0,5.0,0,14481.0,0,0,0,
2026-04-26 14:15:00,METAR KVNC 261415Z AUTO 20006KT 9SM CLR 25/21 A2991 RMK AO2 T02500211 $,0,6.0,0,14481.0,0,0,0,
2026-04-26 13:55:00,METAR KVNC 261355Z AUTO 20006KT 9SM CLR 25/21 A2991 RMK AO2 T02490214 $,0,6.0,0,14481.0,0,0,0,
2026-04-26 13:35:00,METAR KVNC 261335Z AUTO 21004KT 10SM CLR 24/21 A2991 RMK AO2 T02430212 $,0,4.0,0,16090.0,0,0,0,
2026-04-26 13:15:00,METAR KVNC 261315Z AUTO 21004KT 10SM CLR 25/21 A2990 RMK AO2 T02450212 $,0,4.0,0,16090.0,0,0,0,
2026-04-26 12:55:00,METAR KVNC 261255Z AUTO 20006KT 10SM CLR 24/22 A2990 RMK AO2 T02430218 $,0,6.0,0,16090.0,0,0,0,
2026-04-26 12:35:00,METAR KVNC 261235Z AUTO 20006KT 10SM CLR 24/22 A2990 RMK AO2 T02400217 $,0,6.0,0,16090.0,0,0,0,
2026-04-26 12:15:00,METAR KVNC 261215Z AUTO 22005KT 7SM CLR 24/22 A2990 RMK AO2 T02390218 $,0,5.0,0,11263.0,0,0,0,
2026-04-26 11:55:00,METAR KVNC 261155Z AUTO 00000KT 10SM CLR 23/22 A2989 RMK AO2 T02260215 10226 20201 53015 $,0,0.0,0,16090.0,0,0,0,
2026-04-26 11:35:00,METAR KVNC 261135Z AUTO 00000KT 9SM CLR 21/21 A2989 RMK AO2 T02130209 $,0,0.0,0,14481.0,0,0,0,
2026-04-26 11:15:00,METAR KVNC 261115Z AUTO 00000KT 8SM CLR 20/20 A2988 RMK AO2 T02030198 $,0,0.0,0,12872.0,0,0,0,
2026-04-26 10:55:00,METAR KVNC 261055Z AUTO 00000KT 10SM CLR 21/20 A2987 RMK AO2 T02060201 $,0,0.0,0,16090.0,0,0,0,
2026-04-26 10:35:00,METAR KVNC 261035Z AUTO 00000KT 10SM CLR 21/21 A2987 RMK AO2 T02080205 $,0,0.0,0,16090.0,0,0,0,
2026-04-26 10:15:00,METAR KVNC 261015Z AUTO 18003KT 10SM CLR 21/20 A2986 RMK AO2 T02110205 $,0,3.0,0,16090.0,0,0,0,
2026-04-26 09:55:00,METAR KVNC 260955Z AUTO 17003KT 9SM CLR 21/20 A2985 RMK AO2 T02060203 $,0,3.0,0,14481.0,0,0,0,
2026-04-26 09:35:00,METAR KVNC 260935Z AUTO 00000KT 8SM CLR 20/20 A2985 RMK AO2 T02020199 $,0,0.0,0,12872.0,0,0,0,
2026-04-26 09:15:00,METAR KVNC 260915Z AUTO 16003KT 10SM CLR 21/20 A2985 RMK AO2 T02080203 $,0,3.0,0,16090.0,0,0,0,
2026-04-26 08:55:00,METAR KVNC 260855Z AUTO 13003KT 10SM FEW017 21/20 A2984 RMK AO2 T02080202 56004 $,0,3.0,0,16090.0,0,0,0,
2026-04-26 08:35:00,METAR KVNC 260835Z AUTO 00000KT 10SM SCT013 21/20 A2985 RMK AO2 T02090203 $,0,0.0,0,16090.0,0,0,0,
2026-04-26 08:15:00,METAR KVNC 260815Z AUTO 00000KT 10SM BKN013 21/20 A2985 RMK AO2 CIG 012V016 T02080201 $,0,0.0,0,16090.0,0,0,0,
2026-04-26 07:55:00,METAR KVNC 260755Z AUTO 00000KT 10SM CLR 20/19 A2984 RMK AO2 T02010193 $,0,0.0,0,16090.0,0,0,0,
2026-04-26 07:35:00,METAR KVNC 260735Z AUTO 00000KT 10SM CLR 20/20 A2984 RMK AO2 T02030196 $,0,0.0,0,16090.0,0,0,0,
2026-04-26 07:15:00,METAR KVNC 260715Z AUTO 12004KT 9SM CLR 20/20 A2984 RMK AO2 T02050199 $,0,4.0,0,14481.0,0,0,0,
2026-04-26 06:55:00,METAR KVNC 260655Z AUTO 00000KT 10SM CLR 21/20 A2984 RMK AO2 T02050197 $,0,0.0,0,16090.0,0,0,0,
2026-04-26 06:35:00,METAR KVNC 260635Z AUTO 00000KT 10SM CLR 21/20 A2985 RMK AO2 T02100199 $,0,0.0,0,16090.0,0,0,0,
2026-04-26 06:15:00,METAR KVNC 260615Z AUTO 00000KT 10SM CLR 21/20 A2985 RMK AO2 T02110204 $,0,0.0,0,16090.0,0,0,0,
2026-04-26 05:55:00,METAR KVNC 260555Z AUTO 00000KT 10SM CLR 21/20 A2986 RMK AO2 T02060196 10237 20205 58007 $,0,0.0,0,16090.0,0,0,0,
2026-04-26 05:35:00,METAR KVNC 260535Z AUTO 00000KT 10SM CLR 22/20 A2986 RMK AO2 T02190205 $,0,0.0,0,16090.0,0,0,0,
2026-04-26 05:15:00,METAR KVNC 260515Z AUTO 00000KT 10SM CLR 21/20 A2987 RMK AO2 T02130203 $,0,0.0,0,16090.0,0,0,0,
2026-04-26 04:55:00,METAR KVNC 260455Z AUTO 00000KT 10SM CLR 21/20 A2987 RMK AO2 T02110202 402720181 $,0,0.0,0,16090.0,0,0,0,
2026-04-26 04:35:00,METAR KVNC 260435Z AUTO 13003KT 10SM CLR 21/20 A2987 RMK AO2 T02130202 $,0,3.0,0,16090.0,0,0,0,
2026-04-26 04:15:00,METAR KVNC 260415Z AUTO 00000KT 10SM FEW190 21/20 A2987 RMK AO2 T02110202 $,0,0.0,0,16090.0,0,0,0,
2026-04-26 03:55:00,METAR KVNC 260355Z AUTO 00000KT 10SM CLR 22/21 A2987 RMK AO2 T02200206 $,0,0.0,0,16090.0,0,0,0,
2026-04-26 03:35:00,METAR KVNC 260335Z AUTO 00000KT 10SM FEW210 22/21 A2988 RMK AO2 T02220209 $,0,0.0,0,16090.0,0,0,0,
2026-04-26 03:15:00,METAR KVNC 260315Z AUTO 13003KT 10SM SCT210 22/21 A2988 RMK AO2 T02210207 $,0,3.0,0,16090.0,0,0,0,
2026-04-26 02:55:00,METAR KVNC 260255Z AUTO 00000KT 10SM FEW210 23/21 A2988 RMK AO2 T02250210 51022 $,0,0.0,0,16090.0,0,0,0,
2026-04-26 02:35:00,METAR KVNC 260235Z AUTO 00000KT 10SM FEW210 22/21 A2987 RMK AO2 T02210208 $,0,0.0,0,16090.0,0,0,0,
2026-04-26 02:15:00,METAR KVNC 260215Z AUTO 00000KT 10SM CLR 23/21 A2987 RMK AO2 T02300212 $,0,0.0,0,16090.0,0,0,0,
2026-04-26 01:55:00,METAR KVNC 260155Z AUTO 00000KT 10SM CLR 23/21 A2986 RMK AO2 T02350214 $,0,0.0,0,16090.0,0,0,0,
2026-04-26 01:35:00,METAR KVNC 260135Z AUTO 00000KT 10SM FEW190 24/21 A2986 RMK AO2 T02360212 $,0,0.0,0,16090.0,0,0,0,
2026-04-26 01:15:00,METAR KVNC 260115Z AUTO 00000KT 10SM SCT190 24/21 A2986 RMK AO2 T02350214 $,0,0.0,0,16090.0,0,0,0,
2026-04-26 00:35:00,METAR KVNC 260035Z AUTO 32005KT 10SM FEW180 24/21 A2985 RMK AO2 T02350214 $,0,5.0,0,16090.0,0,0,0,
2026-04-26 00:15:00,METAR KVNC 260015Z AUTO 30004KT 10SM SCT180 24/21 A2983 RMK AO2 T02360213 $,0,4.0,0,16090.0,0,0,0,
2026-04-25 23:55:00,METAR KVNC 252355Z AUTO 28004KT 9SM FEW180 24/20 A2982 RMK AO2 RAB2331E2340 P0000 60000 T02380204 10272 20236 58013 $,0,4.0,0,14481.0,0,0,0,RA
2026-04-25 23:35:00,METAR KVNC 252335Z AUTO 14003KT 8SM -RA FEW160 24/21 A2978 RMK AO2 RAB2331 P0000 T02370208 $,0,3.0,0,12872.0,0,0,0,"-RA,RA"
2026-04-25 23:15:00,METAR KVNC 252315Z AUTO 00000KT 10SM CLR 24/21 A2981 RMK AO2 T02380213 $,0,0.0,0,16090.0,0,0,0,
2026-04-25 22:55:00,METAR KVNC 252255Z AUTO 28007KT 10SM CLR 25/22 A2983 RMK AO2 T02460216 $,0,7.0,0,16090.0,0,0,0,
2026-04-25 22:35:00,METAR KVNC 252235Z AUTO 29007KT 10SM CLR 25/22 A2983 RMK AO2 T02480216 $,0,7.0,0,16090.0,0,0,0,
2026-04-25 22:15:00,METAR KVNC 252215Z AUTO 29008KT 10SM CLR 25/22 A2984 RMK AO2 T02480216 $,0,8.0,0,16090.0,0,0,0,
2026-04-25 21:55:00,METAR KVNC 252155Z AUTO 28010KT 10SM CLR 25/22 A2985 RMK AO2 T02530218 $,0,10.0,0,16090.0,0,0,0,
2026-04-25 21:35:00,METAR KVNC 252135Z AUTO 28011KT 10SM CLR 26/22 A2985 RMK AO2 T02570218 $,0,11.0,0,16090.0,0,0,0,
2026-04-25 21:15:00,METAR KVNC 252115Z AUTO 28011KT 10SM CLR 26/22 A2985 RMK AO2 T02570218 $,0,11.0,0,16090.0,0,0,0,
2026-04-25 20:55:00,METAR KVNC 252055Z AUTO 26009KT 10SM CLR 26/22 A2985 RMK AO2 T02590217 58013 $,0,9.0,0,16090.0,0,0,0,
2026-04-25 20:35:00,METAR KVNC 252035Z AUTO 27010KT 10SM CLR 26/22 A2986 RMK AO2 T02630216 $,0,10.0,0,16090.0,0,0,0,
2026-04-25 20:15:00,METAR KVNC 252015Z AUTO 25010KT 10SM CLR 26/22 A2986 RMK AO2 T02630216 $,0,10.0,0,16090.0,0,0,0,
2026-04-25 19:55:00,METAR KVNC 251955Z AUTO 25011KT 10SM CLR 26/21 A2988 RMK AO2 T02630214 $,0,11.0,0,16090.0,0,0,0,
2026-04-25 19:35:00,METAR KVNC 251935Z AUTO 24009KT 9SM CLR 27/22 A2988 RMK AO2 T02650216 $,0,9.0,0,14481.0,0,0,0,
2026-04-25 19:15:00,METAR KVNC 251915Z AUTO 24009KT 10SM CLR 27/21 A2989 RMK AO2 T02670214 $,0,9.0,0,16090.0,0,0,0,
2026-04-25 18:55:00,METAR KVNC 251855Z AUTO 22010KT 10SM FEW330 26/21 A2989 RMK AO2 T02640211 $,0,10.0,0,16090.0,0,0,0,
2026-04-25 18:35:00,METAR KVNC 251835Z AUTO 22011KT 10SM FEW330 26/21 A2989 RMK AO2 LTG DSNT NE T02640212 $,0,11.0,0,16090.0,0,0,0,DS
2026-04-25 18:15:00,METAR KVNC 251815Z AUTO 21012KT 10SM FEW260 SCT360 26/21 A2989 RMK AO2 LTG DSNT NW AND NE T02640212 $,0,12.0,0,16090.0,0,0,0,DS
2026-04-25 17:55:00,METAR KVNC 251755Z AUTO 22012KT 10SM FEW250 27/21 A2989 RMK AO2 T02650212 10271 20214 53001 $,0,12.0,0,16090.0,0,0,0,
2026-04-25 17:35:00,METAR KVNC 251735Z AUTO 22012KT 10SM FEW320 27/21 A2989 RMK AO2 T02680211 $,0,12.0,0,16090.0,0,0,0,
2026-04-25 17:15:00,METAR KVNC 251715Z AUTO 21013KT 10SM FEW320 SCT370 27/21 A2989 RMK AO2 T02680210 $,0,13.0,0,16090.0,0,0,0,
2026-04-25 16:55:00,METAR KVNC 251655Z AUTO 21012KT 10SM CLR 27/21 A2989 RMK AO2 T02650211 $,0,12.0,0,16090.0,0,0,0,
2026-04-25 16:35:00,METAR KVNC 251635Z AUTO 20012KT 10SM CLR 26/21 A2989 RMK AO2 T02610210 $,0,12.0,0,16090.0,0,0,0,
2026-04-25 16:15:00,METAR KVNC 251615Z AUTO 20012KT 10SM CLR 26/21 A2988 RMK AO2 T02630207 $,0,12.0,0,16090.0,0,0,0,
2026-04-25 15:55:00,METAR KVNC 251555Z AUTO 20012KT 10SM CLR 26/21 A2989 RMK AO2 T02620208 $,0,12.0,0,16090.0,0,0,0,
2026-04-25 15:35:00,METAR KVNC 251535Z AUTO 19012KT 10SM CLR 26/21 A2989 RMK AO2 T02610206 $,0,12.0,0,16090.0,0,0,0,
2026-04-25 15:15:00,METAR KVNC 251515Z AUTO 17010KT 10SM CLR 26/21 A2989 RMK AO2 T02570207 $,0,10.0,0,16090.0,0,0,0,
2026-04-25 14:55:00,METAR KVNC 251455Z AUTO 18009KT 10SM CLR 26/20 A2989 RMK AO2 T02620203 52005 $,0,9.0,0,16090.0,0,0,0,
2026-04-25 14:35:00,METAR KVNC 251435Z AUTO 19010KT 10SM CLR 25/20 A2988 RMK AO2 T02550199 $,0,10.0,0,16090.0,0,0,0,
2026-04-25 14:15:00,METAR KVNC 251415Z AUTO 18009KT 8SM CLR 25/21 A2988 RMK AO2 T02530206 $,0,9.0,0,12872.0,0,0,0,
2026-04-25 13:55:00,METAR KVNC 251355Z AUTO 19008KT 9SM CLR 25/20 A2988 RMK AO2 T02490202 $,0,8.0,0,14481.0,0,0,0,
2026-04-25 13:35:00,METAR KVNC 251335Z AUTO 17007KT 9SM CLR 25/20 A2988 RMK AO2 T02520200 $,0,7.0,0,14481.0,0,0,0,
2026-04-25 13:15:00,METAR KVNC 251315Z AUTO 16006KT 9SM CLR 25/20 A2988 RMK AO2 T02470199 $,0,6.0,0,14481.0,0,0,0,
2026-04-25 12:55:00,METAR KVNC 251255Z AUTO 15007KT 9SM CLR 24/20 A2988 RMK AO2 T02360202 $,0,7.0,0,14481.0,0,0,0,
2026-04-25 12:35:00,METAR KVNC 251235Z AUTO 14006KT 10SM CLR 23/20 A2988 RMK AO2 T02300202 $,0,6.0,0,16090.0,0,0,0,
2026-04-25 12:15:00,METAR KVNC 251215Z AUTO 12004KT 9SM CLR 22/20 A2988 RMK AO2 T02220199 $,0,4.0,0,14481.0,0,0,0,
2026-04-25 11:55:00,METAR KVNC 251155Z AUTO 12003KT 9SM CLR 21/19 A2987 RMK AO2 T02080195 10208 20181 53007 $,0,3.0,0,14481.0,0,0,0,
2026-04-25 11:35:00,METAR KVNC 251135Z AUTO 12003KT 9SM CLR 20/19 A2987 RMK AO2 T01990189 $,0,3.0,0,14481.0,0,0,0,
2026-04-25 11:15:00,METAR KVNC 251115Z AUTO 14004KT 10SM CLR 19/18 A2986 RMK AO2 T01910181 $,0,4.0,0,16090.0,0,0,0,
2026-04-25 10:55:00,METAR KVNC 251055Z AUTO 14005KT 10SM CLR 19/18 A2986 RMK AO2 T01900177 $,0,5.0,0,16090.0,0,0,0,
2026-04-25 10:35:00,METAR KVNC 251035Z AUTO 14004KT 10SM CLR 19/18 A2985 RMK AO2 T01880176 $,0,4.0,0,16090.0,0,0,0,
2026-04-25 10:15:00,METAR KVNC 251015Z AUTO 14004KT 10SM CLR 19/17 A2985 RMK AO2 T01870171 $,0,4.0,0,16090.0,0,0,0,
2026-04-25 09:55:00,METAR KVNC 250955Z AUTO 11003KT 10SM CLR 18/16 A2985 RMK AO2 T01850164 $,0,3.0,0,16090.0,0,0,0,
2026-04-25 09:35:00,METAR KVNC 250935Z AUTO 09003KT 10SM CLR 18/16 A2985 RMK AO2 T01840161 $,0,3.0,0,16090.0,0,0,0,
2026-04-25 09:15:00,METAR KVNC 250915Z AUTO 10003KT 10SM CLR 18/16 A2985 RMK AO2 T01820161 $,0,3.0,0,16090.0,0,0,0,
2026-04-25 08:55:00,METAR KVNC 250855Z AUTO 09004KT 10SM FEW270 19/16 A2985 RMK AO2 T01930157 55007 $,0,4.0,0,16090.0,0,0,0,
2026-04-25 08:35:00,METAR KVNC 250835Z AUTO 00000KT 10SM CLR 19/15 A2986 RMK AO2 T01920153 $,0,0.0,0,16090.0,0,0,0,
2026-04-25 08:15:00,METAR KVNC 250815Z AUTO 15003KT 10SM CLR 19/16 A2985 RMK AO2 T01890158 $,0,3.0,0,16090.0,0,0,0,
2026-04-25 07:55:00,METAR KVNC 250755Z AUTO 04003KT 10SM CLR 19/16 A2985 RMK AO2 T01900157 $,0,3.0,0,16090.0,0,0,0,
2026-04-25 07:35:00,METAR KVNC 250735Z AUTO 00000KT 10SM CLR 20/15 A2985 RMK AO2 T02000153 $,0,0.0,0,16090.0,0,0,0,
2026-04-25 07:15:00,METAR KVNC 250715Z AUTO 00000KT 10SM CLR 19/15 A2985 RMK AO2 T01910155 $,0,0.0,0,16090.0,0,0,0,
2026-04-25 06:55:00,METAR KVNC 250655Z AUTO 00000KT 10SM CLR 20/16 A2986 RMK AO2 T02040157 $,0,0.0,0,16090.0,0,0,0,
2026-04-25 06:35:00,METAR KVNC 250635Z AUTO 00000KT 10SM CLR 20/16 A2986 RMK AO2 T02020157 $,0,0.0,0,16090.0,0,0,0,
2026-04-25 06:15:00,METAR KVNC 250615Z AUTO 00000KT 10SM CLR 20/16 A2987 RMK AO2 T02020158 $,0,0.0,0,16090.0,0,0,0,
2026-04-25 05:55:00,METAR KVNC 250555Z AUTO 15003KT 10SM SCT048 21/16 A2987 RMK AO2 T02070161 10235 20200 58006 $,0,3.0,0,16090.0,0,0,0,
2026-04-25 05:35:00,METAR KVNC 250535Z AUTO 00000KT 10SM BKN048 20/16 A2988 RMK AO2 T02000161 $,0,0.0,0,16090.0,0,0,0,
2026-04-25 05:15:00,METAR KVNC 250515Z AUTO 00000KT 10SM CLR 20/16 A2989 RMK AO2 T02050157 $,0,0.0,0,16090.0,0,0,0,
2026-04-25 04:55:00,METAR KVNC 250455Z AUTO 00000KT 9SM CLR 21/16 A2990 RMK AO2 T02110159 402750195 $,0,0.0,0,14481.0,0,0,0,
2026-04-25 04:35:00,METAR KVNC 250435Z AUTO 00000KT 10SM FEW080 21/16 A2990 RMK AO2 T02100159 $,0,0.0,0,16090.0,0,0,0,
2026-04-25 04:15:00,METAR KVNC 250415Z AUTO 00000KT 10SM BKN060 BKN080 22/16 A2990 RMK AO2 T02160161 $,0,0.0,0,16090.0,0,0,0,
2026-04-25 03:55:00,METAR KVNC 250355Z AUTO 10008KT 10SM BKN060 OVC075 22/17 A2992 RMK AO2 T02180166 $,0,8.0,0,16090.0,0,0,0,
2026-04-25 03:35:00,METAR KVNC 250335Z AUTO 04004KT 10SM BKN065 22/17 A2990 RMK AO2 T02160165 $,0,4.0,0,16090.0,0,0,0,
2026-04-25 03:15:00,METAR KVNC 250315Z AUTO 02004KT 10SM CLR 22/16 A2990 RMK AO2 T02160163 $,0,4.0,0,16090.0,0,0,0,
2026-04-25 02:55:00,METAR KVNC 250255Z AUTO 00000KT 10SM CLR 22/16 A2989 RMK AO2 T02220161 52011 $,0,0.0,0,16090.0,0,0,0,
2026-04-25 02:35:00,METAR KVNC 250235Z AUTO 01004KT 10SM CLR 22/16 A2989 RMK AO2 T02220158 $,0,4.0,0,16090.0,0,0,0,
2026-04-25 02:15:00,METAR KVNC 250215Z AUTO 36004KT 10SM CLR 22/16 A2988 RMK AO2 T02230156 $,0,4.0,0,16090.0,0,0,0,
2026-04-25 01:55:00,METAR KVNC 250155Z AUTO 01003KT 10SM CLR 23/15 A2988 RMK AO2 T02260153 $,0,3.0,0,16090.0,0,0,0,
2026-04-25 01:35:00,METAR KVNC 250135Z AUTO VRB03KT 10SM CLR 23/15 A2988 RMK AO2 T02320154 $,0,3.0,0,16090.0,0,0,0,
2026-04-25 01:15:00,METAR KVNC 250115Z AUTO VRB04KT 10SM CLR 23/16 A2987 RMK AO2 T02330160 $,0,4.0,0,16090.0,0,0,0,
2026-04-25 00:55:00,METAR KVNC 250055Z AUTO 33004KT 10SM CLR 23/17 A2987 RMK AO2 T02330166 $,0,4.0,0,16090.0,0,0,0,
2026-04-25 00:35:00,METAR KVNC 250035Z AUTO 00000KT 9SM CLR 23/16 A2987 RMK AO2 T02340162 $,0,0.0,0,14481.0,0,0,0,
2026-04-25 00:15:00,METAR KVNC 250015Z AUTO 32004KT 10SM CLR 23/16 A2986 RMK AO2 T02350158 $,0,4.0,0,16090.0,0,0,0,
2026-04-24 23:55:00,METAR KVNC 242355Z AUTO 32004KT 10SM CLR 24/15 A2986 RMK AO2 T02390148 10268 20239 56004 $,0,4.0,0,16090.0,0,0,0,
2026-04-24 23:35:00,METAR KVNC 242335Z AUTO 31006KT 10SM CLR 24/14 A2986 RMK AO2 T02420141 $,0,6.0,0,16090.0,0,0,0,
2026-04-24 23:15:00,METAR KVNC 242315Z AUTO 29006KT 10SM CLR 25/16 A2987 RMK AO2 T02460157 $,0,6.0,0,16090.0,0,0,0,
2026-04-24 22:55:00,METAR KVNC 242255Z AUTO 28007KT 10SM CLR 25/15 A2986 RMK AO2 T02470146 $,0,7.0,0,16090.0,0,0,0,
2026-04-24 22:35:00,METAR KVNC 242235Z AUTO 29007KT 10SM CLR 25/15 A2986 RMK AO2 T02470154 $,0,7.0,0,16090.0,0,0,0,
2026-04-24 22:15:00,METAR KVNC 242215Z AUTO 27008KT 10SM CLR 25/16 A2987 RMK AO2 T02480158 $,0,8.0,0,16090.0,0,0,0,
2026-04-24 21:55:00,METAR KVNC 242155Z AUTO 27007KT 10SM CLR 25/16 A2987 RMK AO2 T02510160 $,0,7.0,0,16090.0,0,0,0,
2026-04-24 21:35:00,METAR KVNC 242135Z AUTO 27008KT 10SM CLR 25/16 A2987 RMK AO2 T02540162 $,0,8.0,0,16090.0,0,0,0,
2026-04-24 21:15:00,METAR KVNC 242115Z AUTO 26009KT 10SM CLR 26/16 A2987 RMK AO2 T02560160 $,0,9.0,0,16090.0,0,0,0,
2026-04-24 20:55:00,METAR KVNC 242055Z AUTO 24008KT 10SM CLR 26/16 A2987 RMK AO2 T02560159 56015 $,0,8.0,0,16090.0,0,0,0,
2026-04-24 20:35:00,METAR KVNC 242035Z AUTO 25008KT 10SM CLR 26/16 A2987 RMK AO2 T02590162 $,0,8.0,0,16090.0,0,0,0,
2026-04-24 20:15:00,METAR KVNC 242015Z AUTO 23008KT 10SM CLR 26/16 A2988 RMK AO2 T02600164 $,0,8.0,0,16090.0,0,0,0,
2026-04-24 19:55:00,METAR KVNC 241955Z AUTO 23008KT 10SM FEW360 26/17 A2988 RMK AO2 T02590168 $,0,8.0,0,16090.0,0,0,0,
2026-04-24 19:35:00,METAR KVNC 241935Z AUTO 22010KT 10SM CLR 26/16 A2988 RMK AO2 T02610165 $,0,10.0,0,16090.0,0,0,0,
2026-04-24 19:15:00,METAR KVNC 241915Z AUTO 23010KT 10SM CLR 26/16 A2989 RMK AO2 T02630160 $,0,10.0,0,16090.0,0,0,0,
2026-04-24 18:55:00,METAR KVNC 241855Z AUTO 23012KT 10SM FEW370 27/17 A2990 RMK AO2 T02680170 $,0,12.0,0,16090.0,0,0,0,
2026-04-24 18:35:00,METAR KVNC 241835Z AUTO 21012KT 10SM FEW370 27/16 A2991 RMK AO2 T02670165 $,0,12.0,0,16090.0,0,0,0,
2026-04-24 18:15:00,METAR KVNC 241815Z AUTO 22013KT 10SM FEW370 26/17 A2991 RMK AO2 T02600172 $,0,13.0,0,16090.0,0,0,0,
2026-04-24 17:55:00,METAR KVNC 241755Z AUTO 21012KT 10SM FEW320 26/16 A2992 RMK AO2 T02640159 10275 20195 58017 $,0,12.0,0,16090.0,0,0,0,
2026-04-24 17:35:00,METAR KVNC 241735Z AUTO 21010KT 10SM FEW330 26/17 A2992 RMK AO2 T02650167 $,0,10.0,0,16090.0,0,0,0,
2026-04-24 17:15:00,METAR KVNC 241715Z AUTO 19012KT 10SM FEW330 27/16 A2992 RMK AO2 T02660162 $,0,12.0,0,16090.0,0,0,0,
2026-04-24 16:55:00,METAR KVNC 241655Z AUTO 19010KT 10SM FEW320 26/16 A2993 RMK AO2 T02640156 $,0,10.0,0,16090.0,0,0,0,
2026-04-24 16:35:00,METAR KVNC 241635Z AUTO 20010KT 10SM CLR 26/16 A2994 RMK AO2 T02600161 $,0,10.0,0,16090.0,0,0,0,
2026-04-24 16:15:00,METAR KVNC 241615Z AUTO 21007KT 10SM CLR 25/16 A2995 RMK AO2 T02540163 $,0,7.0,0,16090.0,0,0,0,
2026-04-24 15:55:00,METAR KVNC 241555Z AUTO VRB04KT 10SM CLR 27/13 A2996 RMK AO2 T02700130 $,0,4.0,0,16090.0,0,0,0,
2026-04-24 15:35:00,METAR KVNC 241535Z AUTO 10007KT 10SM CLR 27/13 A2996 RMK AO2 T02710130 $,0,7.0,0,16090.0,0,0,0,
2026-04-24 15:15:00,METAR KVNC 241515Z AUTO 13008KT 080V160 10SM CLR 26/13 A2996 RMK AO2 T02640135 $,0,8.0,0,16090.0,0,0,0,
2026-04-24 14:55:00,METAR KVNC 241455Z AUTO 15008KT 10SM CLR 26/14 A2997 RMK AO2 T02590144 51005 $,0,8.0,0,16090.0,0,0,0,
2026-04-24 14:35:00,METAR KVNC 241435Z AUTO 12009KT 10SM CLR 25/14 A2997 RMK AO2 T02530144 $,0,9.0,0,16090.0,0,0,0,
2026-04-24 14:15:00,METAR KVNC 241415Z AUTO 11008KT 10SM CLR 25/15 A2997 RMK AO2 T02460151 $,0,8.0,0,16090.0,0,0,0,
2026-04-24 13:55:00,METAR KVNC 241355Z AUTO 10006KT 10SM SCT120 24/16 A2997 RMK AO2 T02350156 $,0,6.0,0,16090.0,0,0,0,
2026-04-24 13:35:00,METAR KVNC 241335Z AUTO 11006KT 10SM BKN120 23/16 A2996 RMK AO2 T02330156 $,0,6.0,0,16090.0,0,0,0,
2026-04-24 13:15:00,METAR KVNC 241315Z AUTO 11005KT 10SM CLR 23/16 A2996 RMK AO2 T02260160 $,0,5.0,0,16090.0,0,0,0,
2026-04-24 12:55:00,METAR KVNC 241255Z AUTO 08007KT 10SM CLR 21/16 A2996 RMK AO2 LTG DSNT SW T02150161 $,0,7.0,0,16090.0,0,0,0,DS
2026-04-24 12:35:00,METAR KVNC 241235Z AUTO 08005KT 10SM FEW120 21/16 A2996 RMK AO2 T02080163 $,0,5.0,0,16090.0,0,0,0,
2026-04-24 12:15:00,METAR KVNC 241215Z AUTO 08006KT 10SM SCT120 20/16 A2996 RMK AO2 T02010162 $,0,6.0,0,16090.0,0,0,0,
2026-04-24 11:55:00,METAR KVNC 241155Z AUTO 06006KT 10SM BKN110 20/16 A2995 RMK AO2 T01950162 10207 20195 53007 $,0,6.0,0,16090.0,0,0,0,
2026-04-24 11:35:00,METAR KVNC 241135Z AUTO 06005KT 10SM OVC110 20/16 A2995 RMK AO2 T01960163 $,0,5.0,0,16090.0,0,0,0,
2026-04-24 11:15:00,METAR KVNC 241115Z AUTO 07004KT 10SM OVC110 20/17 A2994 RMK AO2 T01960166 $,0,4.0,0,16090.0,0,0,0,
2026-04-24 10:55:00,METAR KVNC 241055Z AUTO 08005KT 10SM OVC110 20/17 A2993 RMK AO2 T01990167 $,0,5.0,0,16090.0,0,0,0,
2026-04-24 10:35:00,METAR KVNC 241035Z AUTO 08004KT 10SM OVC110 20/17 A2993 RMK AO2 T01970168 $,0,4.0,0,16090.0,0,0,0,
2026-04-24 10:15:00,METAR KVNC 241015Z AUTO 10003KT 10SM OVC110 20/17 A2993 RMK AO2 T01980167 $,0,3.0,0,16090.0,0,0,0,
2026-04-24 09:55:00,METAR KVNC 240955Z AUTO 09004KT 10SM OVC110 20/17 A2992 RMK AO2 T01990167 $,0,4.0,0,16090.0,0,0,0,
2026-04-24 09:35:00,METAR KVNC 240935Z AUTO 08004KT 10SM OVC110 20/17 A2992 RMK AO2 T01990167 $,0,4.0,0,16090.0,0,0,0,
2026-04-24 09:15:00,METAR KVNC 240915Z AUTO 09004KT 10SM OVC110 20/17 A2992 RMK AO2 T01990168 $,0,4.0,0,16090.0,0,0,0,
2026-04-24 08:55:00,METAR KVNC 240855Z AUTO 07005KT 10SM OVC100 20/17 A2993 RMK AO2 T01990168 56016 $,0,5.0,0,16090.0,0,0,0,
2026-04-24 08:35:00,METAR KVNC 240835Z AUTO 08004KT 10SM OVC100 20/17 A2993 RMK AO2 T01990169 $,0,4.0,0,16090.0,0,0,0,
2026-04-24 08:15:00,METAR KVNC 240815Z AUTO 07004KT 10SM FEW070 OVC110 20/17 A2993 RMK AO2 T01980170 $,0,4.0,0,16090.0,0,0,0,
2026-04-24 07:55:00,METAR KVNC 240755Z AUTO 08005KT 10SM SCT070 OVC110 20/17 A2993 RMK AO2 T01960171 $,0,5.0,0,16090.0,0,0,0,
2026-04-24 07:35:00,METAR KVNC 240735Z AUTO 07005KT 10SM BKN110 OVC140 20/17 A2994 RMK AO2 T01960172 $,0,5.0,0,16090.0,0,0,0,
2026-04-24 07:15:00,METAR KVNC 240715Z AUTO 05005KT 10SM OVC140 20/17 A2994 RMK AO2 T01990170 $,0,5.0,0,16090.0,0,0,0,
2026-04-24 06:55:00,METAR KVNC 240655Z AUTO 08005KT 10SM OVC130 20/17 A2995 RMK AO2 T02040172 $,0,5.0,0,16090.0,0,0,0,
2026-04-24 06:35:00,METAR KVNC 240635Z AUTO 09005KT 10SM FEW041 OVC130 20/17 A2995 RMK AO2 T02050173 $,0,5.0,0,16090.0,0,0,0,
2026-04-24 06:15:00,METAR KVNC 240615Z AUTO 09004KT 10SM SCT040 OVC120 21/17 A2997 RMK AO2 T02070175 $,0,4.0,0,16090.0,0,0,0,
2026-04-24 05:55:00,METAR KVNC 240555Z AUTO 08005KT 10SM OVC130 20/17 A2998 RMK AO2 T02040173 10234 20203 58009 $,0,5.0,0,16090.0,0,0,0,
2026-04-24 05:35:00,METAR KVNC 240535Z AUTO 10005KT 10SM FEW038 BKN130 20/17 A2998 RMK AO2 T02040173 $,0,5.0,0,16090.0,0,0,0,
2026-04-24 05:15:00,METAR KVNC 240515Z AUTO 11004KT 10SM SCT065 20/17 A2999 RMK AO2 T02040172 $,0,4.0,0,16090.0,0,0,0,
2026-04-24 04:55:00,METAR KVNC 240455Z AUTO 12004KT 10SM SCT065 BKN240 21/17 A2999 RMK AO2 T02060172 402750165 $,0,4.0,0,16090.0,0,0,0,
2026-04-24 04:35:00,METAR KVNC 240435Z AUTO 12005KT 10SM SCT039 BKN065 OVC240 21/17 A2999 RMK AO2 T02070174 $,0,5.0,0,16090.0,0,0,0,
2026-04-24 04:15:00,METAR KVNC 240415Z AUTO 13006KT 10SM OVC038 21/17 A3000 RMK AO2 T02100174 $,0,6.0,0,16090.0,0,0,0,
2026-04-24 03:55:00,METAR KVNC 240355Z AUTO 12007KT 10SM BKN035 OVC050 21/18 A3000 RMK AO2 T02110176 $,0,7.0,0,16090.0,0,0,0,
2026-04-24 03:35:00,METAR KVNC 240335Z AUTO 13006KT 10SM SCT035 BKN055 21/18 A3000 RMK AO2 T02110179 $,0,6.0,0,16090.0,0,0,0,
2026-04-24 03:15:00,METAR KVNC 240315Z AUTO 14007KT 10SM FEW032 OVC046 21/18 A3000 RMK AO2 T02120180 $,0,7.0,0,16090.0,0,0,0,
2026-04-24 02:55:00,METAR KVNC 240255Z AUTO 13006KT 10SM BKN046 OVC130 21/18 A3000 RMK AO2 T02110181 53012 $,0,6.0,0,16090.0,0,0,0,
2026-04-24 02:35:00,METAR KVNC 240235Z AUTO 14009KT 10SM BKN120 21/18 A3000 RMK AO2 T02120182 $,0,9.0,0,16090.0,0,0,0,
2026-04-24 02:15:00,METAR KVNC 240215Z AUTO 13009KT 10SM FEW042 SCT130 21/18 A3000 RMK AO2 T02130181 $,0,9.0,0,16090.0,0,0,0,
2026-04-24 01:55:00,METAR KVNC 240155Z AUTO 12006KT 10SM SCT034 BKN041 BKN065 BKN130 22/18 A3000 RMK AO2 T02190178 $,0,6.0,0,16090.0,0,0,0,
2026-04-24 01:35:00,METAR KVNC 240135Z AUTO 13004KT 10SM BKN033 BKN075 OVC130 23/18 A2999 RMK AO2 T02260175 $,0,4.0,0,16090.0,0,0,0,
2026-04-24 01:15:00,METAR KVNC 240115Z AUTO 15005KT 10SM BKN034 OVC075 23/17 A2998 RMK AO2 T02310169 $,0,5.0,0,16090.0,0,0,0,
2026-04-24 00:55:00,METAR KVNC 240055Z AUTO 00000KT 10SM BKN036 OVC150 23/17 A2997 RMK AO2 T02320165 $,0,0.0,0,16090.0,0,0,0,
2026-04-24 00:35:00,METAR KVNC 240035Z AUTO 36004KT 10SM FEW130 OVC150 23/17 A2997 RMK AO2 T02320168 $,0,4.0,0,16090.0,0,0,0,
2026-04-24 00:15:00,METAR KVNC 240015Z AUTO 36003KT 10SM FEW050 SCT130 OVC150 23/17 A2997 RMK AO2 T02320173 $,0,3.0,0,16090.0,0,0,0,
2026-04-23 23:55:00,METAR KVNC 232355Z AUTO 34003KT 10SM OVC140 23/18 A2997 RMK AO2 T02310176 10259 20231 55001 $,0,3.0,0,16090.0,0,0,0,
2026-04-23 23:35:00,METAR KVNC 232335Z AUTO 31004KT 10SM BKN140 23/18 A2997 RMK AO2 T02320179 $,0,4.0,0,16090.0,0,0,0,
2026-04-23 23:15:00,METAR KVNC 232315Z AUTO 30006KT 10SM BKN140 BKN160 23/18 A2996 RMK AO2 T02340177 $,0,6.0,0,16090.0,0,0,0,
2026-04-23 22:55:00,METAR KVNC 232255Z AUTO 31006KT 9SM SCT150 BKN170 23/18 A2995 RMK AO2 T02340178 $,0,6.0,0,14481.0,0,0,0,
2026-04-23 22:35:00,METAR KVNC 232235Z AUTO 29007KT 10SM FEW150 SCT170 24/18 A2996 RMK AO2 T02360178 $,0,7.0,0,16090.0,0,0,0,
2026-04-23 22:15:00,METAR KVNC 232215Z AUTO 29005KT 10SM BKN150 24/18 A2996 RMK AO2 T02370176 $,0,5.0,0,16090.0,0,0,0,
2026-04-23 21:55:00,METAR KVNC 232155Z AUTO 28006KT 10SM SCT170 24/18 A2996 RMK AO2 T02380179 $,0,6.0,0,16090.0,0,0,0,
2026-04-23 21:35:00,METAR KVNC 232135Z AUTO 27007KT 10SM FEW170 24/17 A2997 RMK AO2 T02390172 $,0,7.0,0,16090.0,0,0,0,
2026-04-23 21:15:00,METAR KVNC 232115Z AUTO 27007KT 10SM FEW320 24/18 A2997 RMK AO2 T02430175 $,0,7.0,0,16090.0,0,0,0,
2026-04-23 20:55:00,METAR KVNC 232055Z AUTO 28009KT 10SM FEW065 24/18 A2997 RMK AO2 T02430175 56019 $,0,9.0,0,16090.0,0,0,0,
2026-04-23 20:35:00,METAR KVNC 232035Z AUTO 28008KT 10SM FEW160 25/18 A2997 RMK AO2 T02470178 $,0,8.0,0,16090.0,0,0,0,
2026-04-23 19:55:00,METAR KVNC 231955Z AUTO 24009KT 10SM FEW075 SCT160 SCT350 25/18 A2999 RMK AO2 T02500177 $,0,9.0,0,16090.0,0,0,0,
2026-04-23 19:35:00,METAR KVNC 231935Z AUTO 24008KT 10SM FEW150 25/18 A2999 RMK AO2 T02510182 $,0,8.0,0,16090.0,0,0,0,
2026-04-23 19:15:00,METAR KVNC 231915Z AUTO 25007KT 10SM FEW060 SCT070 BKN150 BKN310 25/18 A3000 RMK AO2 T02530177 $,0,7.0,0,16090.0,0,0,0,
2026-04-23 18:55:00,METAR KVNC 231855Z AUTO 23009KT 10SM BKN060 BKN150 BKN350 25/18 A3000 RMK AO2 T02510175 $,0,9.0,0,16090.0,0,0,0,
2026-04-23 18:35:00,METAR KVNC 231835Z AUTO 23010KT 10SM BKN060 BKN070 26/18 A3000 RMK AO2 T02550176 $,0,10.0,0,16090.0,0,0,0,
2026-04-23 18:15:00,METAR KVNC 231815Z AUTO 20011KT 10SM BKN060 BKN330 26/17 A3001 RMK AO2 T02560166 $,0,11.0,0,16090.0,0,0,0,
2026-04-23 17:55:00,METAR KVNC 231755Z AUTO 20009KT 10SM BKN055 25/17 A3003 RMK AO2 T02480167 10275 20175 58016 $,0,9.0,0,16090.0,0,0,0,
2026-04-23 16:55:00,METAR KVNC 231655Z AUTO 00000KT 10SM SCT055 SCT320 26/13 A3005 RMK AO2 T02610133 $,0,0.0,0,16090.0,0,0,0,
2026-04-23 16:35:00,METAR KVNC 231635Z AUTO 08009KT 10SM FEW055 27/13 A3006 RMK AO2 T02710131 $,0,9.0,0,16090.0,0,0,0,
2026-04-23 16:15:00,METAR KVNC 231615Z AUTO 15010G14KT 10SM FEW320 27/13 A3006 RMK AO2 T02700133 $,0,10.0,1,16090.0,0,0,0,
2026-04-23 15:55:00,METAR KVNC 231555Z AUTO 10006KT 10SM FEW043 SCT140 26/14 A3007 RMK AO2 T02610141 $,0,6.0,0,16090.0,0,0,0,
2026-04-23 15:35:00,METAR KVNC 231535Z AUTO 14010KT 10SM BKN140 26/15 A3007 RMK AO2 T02620147 $,0,10.0,0,16090.0,0,0,0,
2026-04-23 15:15:00,METAR KVNC 231515Z AUTO 12008KT 10SM CLR 26/15 A3008 RMK AO2 T02570147 $,0,8.0,0,16090.0,0,0,0,
2026-04-23 14:55:00,METAR KVNC 231455Z AUTO 11009KT 10SM SCT150 25/16 A3008 RMK AO2 LTG DSNT SW T02490156 52002 $,0,9.0,0,16090.0,0,0,0,DS
2026-04-23 14:35:00,METAR KVNC 231435Z AUTO 10008KT 10SM OVC150 25/16 A3008 RMK AO2 T02480157 $,0,8.0,0,16090.0,0,0,0,
2026-04-23 14:15:00,METAR KVNC 231415Z AUTO 12009KT 10SM BKN150 24/16 A3008 RMK AO2 LTG DSNT SW AND W T02400159 $,0,9.0,0,16090.0,0,0,0,DS
2026-04-23 13:55:00,METAR KVNC 231355Z AUTO 11008KT 10SM BKN150 23/16 A3008 RMK AO2 LTG DSNT SW AND W T02300158 $,0,8.0,0,16090.0,0,0,0,DS
2026-04-23 13:35:00,METAR KVNC 231335Z AUTO 09009G15KT 10SM SCT140 22/16 A3007 RMK AO2 T02210156 $,0,9.0,1,16090.0,0,0,0,
2026-04-23 13:15:00,METAR KVNC 231315Z AUTO 09008KT 10SM CLR 21/15 A3007 RMK AO2 T02070153 $,0,8.0,0,16090.0,0,0,0,
2026-04-23 12:55:00,METAR KVNC 231255Z AUTO 08009KT 10SM FEW140 20/15 A3007 RMK AO2 T01950150 $,0,9.0,0,16090.0,0,0,0,
2026-04-23 12:35:00,METAR KVNC 231235Z AUTO 09007KT 10SM FEW140 19/15 A3007 RMK AO2 LTG DSNT E AND W T01880147 $,0,7.0,0,16090.0,0,0,0,DS
2026-04-23 12:15:00,METAR KVNC 231215Z AUTO 08007KT 10SM CLR 18/15 A3007 RMK AO2 T01850146 $,0,7.0,0,16090.0,0,0,0,
2026-04-23 11:55:00,METAR KVNC 231155Z AUTO 08007KT 10SM CLR 17/14 A3007 RMK AO2 T01700142 10182 20165 53005 $,0,7.0,0,16090.0,0,0,0,
2026-04-23 11:35:00,METAR KVNC 231135Z AUTO 07009KT 10SM CLR 17/14 A3007 RMK AO2 T01690142 $,0,9.0,0,16090.0,0,0,0,
2026-04-23 11:15:00,METAR KVNC 231115Z AUTO 07007KT 10SM FEW190 17/14 A3006 RMK AO2 T01680141 $,0,7.0,0,16090.0,0,0,0,
2026-04-23 10:55:00,METAR KVNC 231055Z AUTO 07007KT 10SM BKN190 17/14 A3005 RMK AO2 T01680140 $,0,7.0,0,16090.0,0,0,0,
2026-04-23 10:35:00,METAR KVNC 231035Z AUTO 08006KT 10SM OVC180 17/14 A3005 RMK AO2 T01690140 $,0,6.0,0,16090.0,0,0,0,
2026-04-23 10:15:00,METAR KVNC 231015Z AUTO 08006KT 10SM BKN180 17/14 A3005 RMK AO2 T01660139 $,0,6.0,0,16090.0,0,0,0,
2026-04-23 09:55:00,METAR KVNC 230955Z AUTO 08006KT 10SM FEW180 17/14 A3005 RMK AO2 T01690140 $,0,6.0,0,16090.0,0,0,0,
2026-04-23 09:35:00,METAR KVNC 230935Z AUTO 09007KT 10SM FEW180 17/14 A3005 RMK AO2 T01680139 $,0,7.0,0,16090.0,0,0,0,
2026-04-23 09:15:00,METAR KVNC 230915Z AUTO 08006KT 10SM CLR 17/14 A3005 RMK AO2 T01650138 $,0,6.0,0,16090.0,0,0,0,
2026-04-23 08:55:00,METAR KVNC 230855Z AUTO 07007KT 10SM CLR 16/14 A3005 RMK AO2 T01650138 56010 $,0,7.0,0,16090.0,0,0,0,
2026-04-23 08:35:00,METAR KVNC 230835Z AUTO 07008KT 10SM CLR 17/14 A3006 RMK AO2 T01660137 $,0,8.0,0,16090.0,0,0,0,
2026-04-23 08:15:00,METAR KVNC 230815Z AUTO 07008KT 10SM CLR 17/14 A3005 RMK AO2 T01680136 $,0,8.0,0,16090.0,0,0,0,
2026-04-23 07:55:00,METAR KVNC 230755Z AUTO 06006KT 10SM CLR 17/14 A3006 RMK AO2 T01700137 $,0,6.0,0,16090.0,0,0,0,
2026-04-23 07:35:00,METAR KVNC 230735Z AUTO 06006KT 10SM CLR 17/14 A3006 RMK AO2 LTG DSNT SW T01710136 $,0,6.0,0,16090.0,0,0,0,DS
2026-04-23 07:15:00,METAR KVNC 230715Z AUTO 06005KT 10SM CLR 17/14 A3007 RMK AO2 T01750136 $,0,5.0,0,16090.0,0,0,0,
2026-04-23 06:55:00,METAR KVNC 230655Z AUTO 08005KT 10SM CLR 18/14 A3007 RMK AO2 T01790135 $,0,5.0,0,16090.0,0,0,0,
2026-04-23 06:35:00,METAR KVNC 230635Z AUTO 09006KT 10SM CLR 18/13 A3007 RMK AO2 T01790134 $,0,6.0,0,16090.0,0,0,0,
2026-04-23 06:15:00,METAR KVNC 230615Z AUTO 08006KT 10SM CLR 18/13 A3008 RMK AO2 T01780131 $,0,6.0,0,16090.0,0,0,0,
2026-04-23 05:55:00,METAR KVNC 230555Z AUTO 08006KT 10SM CLR 18/13 A3008 RMK AO2 T01830132 10232 20182 58006 $,0,6.0,0,16090.0,0,0,0,
2026-04-23 05:35:00,METAR KVNC 230535Z AUTO 08006KT 10SM CLR 19/13 A3009 RMK AO2 T01860131 $,0,6.0,0,16090.0,0,0,0,
2026-04-23 05:15:00,METAR KVNC 230515Z AUTO 10005KT 10SM FEW190 19/13 A3010 RMK AO2 T01890129 $,0,5.0,0,16090.0,0,0,0,
2026-04-23 04:55:00,METAR KVNC 230455Z AUTO 09007KT 10SM BKN190 19/13 A3010 RMK AO2 T01950128 402830145 $,0,7.0,0,16090.0,0,0,0,
2026-04-23 04:35:00,METAR KVNC 230435Z AUTO 09007KT 10SM BKN190 20/13 A3010 RMK AO2 T01950127 $,0,7.0,0,16090.0,0,0,0,
2026-04-23 04:15:00,METAR KVNC 230415Z AUTO 08007KT 10SM BKN190 20/12 A3011 RMK AO2 T01980124 $,0,7.0,0,16090.0,0,0,0,
2026-04-23 03:55:00,METAR KVNC 230355Z AUTO 07007KT 10SM BKN065 BKN190 20/12 A3010 RMK AO2 T02040123 $,0,7.0,0,16090.0,0,0,0,
2026-04-23 03:35:00,METAR KVNC 230335Z AUTO 08008KT 10SM SCT065 BKN190 21/12 A3010 RMK AO2 T02090123 $,0,8.0,0,16090.0,0,0,0,
2026-04-23 03:15:00,METAR KVNC 230315Z AUTO 09008KT 10SM SCT065 BKN190 21/12 A3011 RMK AO2 T02110120 $,0,8.0,0,16090.0,0,0,0,
2026-04-23 02:55:00,METAR KVNC 230255Z AUTO 08009KT 10SM BKN065 21/12 A3010 RMK AO2 T02150118 51013 $,0,9.0,0,16090.0,0,0,0,
2026-04-23 02:35:00,METAR KVNC 230235Z AUTO 07008KT 10SM OVC070 22/12 A3010 RMK AO2 T02210115 $,0,8.0,0,16090.0,0,0,0,
2026-04-23 02:15:00,METAR KVNC 230215Z AUTO 06004KT 10SM BKN065 22/13 A3010 RMK AO2 T02190134 $,0,4.0,0,16090.0,0,0,0,
2026-04-23 01:55:00,METAR KVNC 230155Z AUTO 00000KT 10SM SCT070 21/15 A3010 RMK AO2 T02140146 $,0,0.0,0,16090.0,0,0,0,
2026-04-23 01:35:00,METAR KVNC 230135Z AUTO 00000KT 10SM BKN070 22/15 A3009 RMK AO2 T02150145 $,0,0.0,0,16090.0,0,0,0,
2026-04-23 01:15:00,METAR KVNC 230115Z AUTO 01006KT 10SM SCT070 22/15 A3008 RMK AO2 LTG DSNT SW T02160147 $,0,6.0,0,16090.0,0,0,0,DS
2026-04-23 00:55:00,METAR KVNC 230055Z AUTO 34005KT 10SM CLR 23/15 A3008 RMK AO2 T02260150 $,0,5.0,0,16090.0,0,0,0,
2026-04-23 00:35:00,METAR KVNC 230035Z AUTO 34006KT 10SM CLR 23/15 A3008 RMK AO2 T02290145 $,0,6.0,0,16090.0,0,0,0,
2026-04-23 00:15:00,METAR KVNC 230015Z AUTO 33007KT 10SM CLR 23/14 A3007 RMK AO2 T02310143 $,0,7.0,0,16090.0,0,0,0,
2026-04-22 23:55:00,METAR KVNC 222355Z AUTO 33008KT 10SM CLR 23/15 A3006 RMK AO2 T02330146 10283 20233 57008 $,0,8.0,0,16090.0,0,0,0,
2026-04-22 23:35:00,METAR KVNC 222335Z AUTO 34007KT 10SM CLR 24/14 A3007 RMK AO2 T02350137 $,0,7.0,0,16090.0,0,0,0,
2026-04-22 23:15:00,METAR KVNC 222315Z AUTO 33007KT 10SM CLR 24/13 A3007 RMK AO2 T02390134 $,0,7.0,0,16090.0,0,0,0,
2026-04-22 22:55:00,METAR KVNC 222255Z AUTO 33008KT 10SM CLR 24/15 A3007 RMK AO2 T02400150 $,0,8.0,0,16090.0,0,0,0,
2026-04-22 22:35:00,METAR KVNC 222235Z AUTO 31010KT 10SM CLR 24/15 A3008 RMK AO2 T02430150 $,0,10.0,0,16090.0,0,0,0,
2026-04-22 22:15:00,METAR KVNC 222215Z AUTO 31011KT 10SM CLR 24/16 A3008 RMK AO2 T02430155 $,0,11.0,0,16090.0,0,0,0,
2026-04-22 21:55:00,METAR KVNC 222155Z AUTO 30011KT 10SM FEW080 25/14 A3008 RMK AO2 T02510144 $,0,11.0,0,16090.0,0,0,0,
2026-04-22 21:35:00,METAR KVNC 222135Z AUTO 30009KT 10SM SCT080 25/15 A3008 RMK AO2 T02490151 $,0,9.0,0,16090.0,0,0,0,
2026-04-22 21:15:00,METAR KVNC 222115Z AUTO 29012KT 10SM BKN075 25/15 A3008 RMK AO2 T02540154 $,0,12.0,0,16090.0,0,0,0,
2026-04-22 20:55:00,METAR KVNC 222055Z AUTO 29009KT 10SM BKN075 25/16 A3009 RMK AO2 T02480155 58015 $,0,9.0,0,16090.0,0,0,0,
2026-04-22 20:35:00,METAR KVNC 222035Z AUTO 26010KT 10SM SCT070 SCT085 27/16 A3009 RMK AO2 T02670162 $,0,10.0,0,16090.0,0,0,0,
2026-04-22 20:15:00,METAR KVNC 222015Z AUTO 10007KT 10SM SCT070 BKN080 28/11 A3009 RMK AO2 T02790108 $,0,7.0,0,16090.0,0,0,0,
2026-04-22 19:55:00,METAR KVNC 221955Z AUTO 12008KT 10SM SCT075 28/10 A3010 RMK AO2 T02790103 $,0,8.0,0,16090.0,0,0,0,
2026-04-22 19:35:00,METAR KVNC 221935Z AUTO 09007KT 10SM BKN075 27/11 A3010 RMK AO2 T02730106 $,0,7.0,0,16090.0,0,0,0,
2026-04-22 19:15:00,METAR KVNC 221915Z AUTO 14006G14KT 10SM BKN070 27/11 A3012 RMK AO2 T02720109 $,0,6.0,1,16090.0,0,0,0,
2026-04-22 18:55:00,METAR KVNC 221855Z AUTO 07011G14KT 10SM BKN070 27/11 A3013 RMK AO2 T02720110 $,0,11.0,1,16090.0,0,0,0,
2026-04-22 18:35:00,METAR KVNC 221835Z AUTO 11008KT 070V150 10SM OVC065 27/11 A3013 RMK AO2 T02670111 $,0,8.0,0,16090.0,0,0,0,
2026-04-22 18:15:00,METAR KVNC 221815Z AUTO 10009KT 10SM BKN065 BKN140 BKN180 27/11 A3014 RMK AO2 T02670111 $,0,9.0,0,16090.0,0,0,0,
2026-04-22 17:55:00,METAR KVNC 221755Z AUTO 11009G18KT 080V160 10SM SCT065 BKN190 BKN290 27/11 A3013 RMK AO2 T02690107 10278 20167 58024 $,0,9.0,1,16090.0,0,0,0,
2026-04-22 17:35:00,METAR KVNC 221735Z AUTO 11011G17KT 10SM SCT065 SCT190 27/11 A3014 RMK AO2 T02680110 $,0,11.0,1,16090.0,0,0,0,
2026-04-22 17:15:00,METAR KVNC 221715Z AUTO 13012G17KT 090V150 10SM FEW350 28/11 A3014 RMK AO2 T02760106 $,0,12.0,1,16090.0,0,0,0,
2026-04-22 16:55:00,METAR KVNC 221655Z AUTO 15013KT 10SM FEW060 27/10 A3016 RMK AO2 T02710104 $,0,13.0,0,16090.0,0,0,0,
2026-04-22 16:35:00,METAR KVNC 221635Z AUTO 12012G17KT 10SM SCT060 27/11 A3017 RMK AO2 T02690106 $,0,12.0,1,16090.0,0,0,0,
2026-04-22 16:15:00,METAR KVNC 221615Z AUTO 11011KT 10SM SCT055 26/12 A3018 RMK AO2 T02580116 $,0,11.0,0,16090.0,0,0,0,
2026-04-22 15:55:00,METAR KVNC 221555Z AUTO 12010KT 10SM CLR 26/11 A3019 RMK AO2 T02580114 $,0,10.0,0,16090.0,0,0,0,
2026-04-22 15:35:00,METAR KVNC 221535Z AUTO 13012G17KT 10SM CLR 25/10 A3019 RMK AO2 T02550103 $,0,12.0,1,16090.0,0,0,0,
2026-04-22 15:15:00,METAR KVNC 221515Z AUTO 12012G17KT 10SM CLR 25/11 A3020 RMK AO2 T02520114 $,0,12.0,1,16090.0,0,0,0,
2026-04-22 14:55:00,METAR KVNC 221455Z AUTO 12013KT 10SM CLR 25/11 A3020 RMK AO2 T02470110 50000 $,0,13.0,0,16090.0,0,0,0,
2026-04-22 14:35:00,METAR KVNC 221435Z AUTO 11009KT 10SM CLR 24/11 A3020 RMK AO2 T02410110 $,0,9.0,0,16090.0,0,0,0,
2026-04-22 14:15:00,METAR KVNC 221415Z AUTO 09011KT 10SM CLR 23/12 A3020 RMK AO2 T02340118 $,0,11.0,0,16090.0,0,0,0,
2026-04-22 13:55:00,METAR KVNC 221355Z AUTO 09006KT 10SM CLR 22/12 A3020 RMK AO2 T02180124 $,0,6.0,0,16090.0,0,0,0,
2026-04-22 13:35:00,METAR KVNC 221335Z AUTO 10006KT 10SM CLR 22/13 A3020 RMK AO2 T02210127 $,0,6.0,0,16090.0,0,0,0,
2026-04-22 13:15:00,METAR KVNC 221315Z AUTO 09006KT 10SM CLR 21/12 A3020 RMK AO2 T02070122 $,0,6.0,0,16090.0,0,0,0,
2026-04-22 12:55:00,METAR KVNC 221255Z AUTO 08006KT 10SM CLR 19/12 A3021 RMK AO2 T01930119 $,0,6.0,0,16090.0,0,0,0,
2026-04-22 12:35:00,METAR KVNC 221235Z AUTO 06006KT 10SM CLR 18/12 A3021 RMK AO2 T01840119 $,0,6.0,0,16090.0,0,0,0,
2026-04-22 12:15:00,METAR KVNC 221215Z AUTO 06006KT 10SM CLR 17/12 A3021 RMK AO2 T01720118 $,0,6.0,0,16090.0,0,0,0,
2026-04-22 11:55:00,METAR KVNC 221155Z AUTO 05007KT 10SM CLR 16/12 A3020 RMK AO2 T01620115 10165 20145 53013 $,0,7.0,0,16090.0,0,0,0,
2026-04-22 11:35:00,METAR KVNC 221135Z AUTO 06006KT 10SM CLR 16/11 A3020 RMK AO2 T01570114 $,0,6.0,0,16090.0,0,0,0,
2026-04-22 11:15:00,METAR KVNC 221115Z AUTO 05006KT 10SM CLR 15/11 A3019 RMK AO2 T01480112 $,0,6.0,0,16090.0,0,0,0,
2026-04-22 10:55:00,METAR KVNC 221055Z AUTO 06006KT 10SM CLR 15/11 A3018 RMK AO2 T01460110 $,0,6.0,0,16090.0,0,0,0,
2026-04-22 10:35:00,METAR KVNC 221035Z AUTO 06006KT 10SM CLR 15/11 A3018 RMK AO2 T01470110 $,0,6.0,0,16090.0,0,0,0,
2026-04-22 10:15:00,METAR KVNC 221015Z AUTO 05005KT 10SM CLR 15/11 A3018 RMK AO2 T01460108 $,0,5.0,0,16090.0,0,0,0,
2026-04-22 09:55:00,METAR KVNC 220955Z AUTO 05006KT 10SM CLR 15/11 A3017 RMK AO2 T01490108 $,0,6.0,0,16090.0,0,0,0,
2026-04-22 09:35:00,METAR KVNC 220935Z AUTO 06005KT 10SM CLR 15/11 A3017 RMK AO2 T01490109 $,0,5.0,0,16090.0,0,0,0,
2026-04-22 09:15:00,METAR KVNC 220915Z AUTO 06005KT 10SM FEW048 15/11 A3017 RMK AO2 T01520110 $,0,5.0,0,16090.0,0,0,0,
2026-04-22 08:55:00,METAR KVNC 220855Z AUTO 06005KT 10SM FEW048 15/11 A3016 RMK AO2 T01530110 56013 $,0,5.0,0,16090.0,0,0,0,
2026-04-22 08:35:00,METAR KVNC 220835Z AUTO 06006KT 10SM CLR 15/11 A3016 RMK AO2 T01520109 $,0,6.0,0,16090.0,0,0,0,
2026-04-22 08:15:00,METAR KVNC 220815Z AUTO 06006KT 10SM CLR 15/11 A3016 RMK AO2 T01510109 $,0,6.0,0,16090.0,0,0,0,
2026-04-22 07:55:00,METAR KVNC 220755Z AUTO 06006KT 10SM CLR 15/11 A3017 RMK AO2 T01520109 $,0,6.0,0,16090.0,0,0,0,
2026-04-22 07:35:00,METAR KVNC 220735Z AUTO 06005KT 10SM CLR 15/11 A3017 RMK AO2 T01530109 $,0,5.0,0,16090.0,0,0,0,
2026-04-22 07:15:00,METAR KVNC 220715Z AUTO 04004KT 10SM CLR 16/11 A3018 RMK AO2 T01570108 $,0,4.0,0,16090.0,0,0,0,
2026-04-22 06:55:00,METAR KVNC 220655Z AUTO 06005KT 10SM CLR 16/11 A3018 RMK AO2 T01630110 $,0,5.0,0,16090.0,0,0,0,
2026-04-22 06:35:00,METAR KVNC 220635Z AUTO 07006KT 10SM CLR 16/11 A3018 RMK AO2 T01650110 $,0,6.0,0,16090.0,0,0,0,
2026-04-22 06:15:00,METAR KVNC 220615Z AUTO 08005KT 10SM CLR 16/11 A3019 RMK AO2 T01620109 $,0,5.0,0,16090.0,0,0,0,
2026-04-22 05:55:00,METAR KVNC 220555Z AUTO 07006KT 10SM CLR 16/11 A3020 RMK AO2 T01640109 10239 20164 58008 $,0,6.0,0,16090.0,0,0,0,
2026-04-22 05:35:00,METAR KVNC 220535Z AUTO 06006KT 10SM CLR 17/11 A3021 RMK AO2 T01650109 $,0,6.0,0,16090.0,0,0,0,
2026-04-22 05:15:00,METAR KVNC 220515Z AUTO 06005KT 10SM CLR 17/11 A3022 RMK AO2 T01680108 $,0,5.0,0,16090.0,0,0,0,
2026-04-22 04:55:00,METAR KVNC 220455Z AUTO 06005KT 10SM CLR 17/11 A3023 RMK AO2 T01710107 402900162 $,0,5.0,0,16090.0,0,0,0,
2026-04-22 04:35:00,METAR KVNC 220435Z AUTO 04004KT 10SM CLR 17/11 A3023 RMK AO2 T01740105 $,0,4.0,0,16090.0,0,0,0,
2026-04-22 04:15:00,METAR KVNC 220415Z AUTO 06005KT 10SM CLR 18/11 A3023 RMK AO2 T01770105 $,0,5.0,0,16090.0,0,0,0,
2026-04-22 03:55:00,METAR KVNC 220355Z AUTO 06006KT 10SM CLR 19/10 A3023 RMK AO2 T01850105 $,0,6.0,0,16090.0,0,0,0,
2026-04-22 03:35:00,METAR KVNC 220335Z AUTO 07007KT 10SM CLR 19/11 A3022 RMK AO2 T01930105 $,0,7.0,0,16090.0,0,0,0,
2026-04-22 03:15:00,METAR KVNC 220315Z AUTO 08008KT 10SM CLR 20/10 A3022 RMK AO2 T01970104 $,0,8.0,0,16090.0,0,0,0,
2026-04-22 02:55:00,METAR KVNC 220255Z AUTO 08010KT 10SM CLR 20/10 A3023 RMK AO2 T02030103 51019 $,0,10.0,0,16090.0,0,0,0,
2026-04-22 02:35:00,METAR KVNC 220235Z AUTO 07009KT 10SM CLR 21/10 A3022 RMK AO2 T02060102 $,0,9.0,0,16090.0,0,0,0,
2026-04-22 02:15:00,METAR KVNC 220215Z AUTO 08009KT 10SM CLR 21/10 A3022 RMK AO2 T02090101 $,0,9.0,0,16090.0,0,0,0,
2026-04-22 01:55:00,METAR KVNC 220155Z AUTO 09010KT 10SM CLR 21/10 A3021 RMK AO2 T02140098 $,0,10.0,0,16090.0,0,0,0,
2026-04-22 01:35:00,METAR KVNC 220135Z AUTO 09012KT 10SM CLR 22/10 A3021 RMK AO2 T02170095 $,0,12.0,0,16090.0,0,0,0,
2026-04-22 01:15:00,METAR KVNC 220115Z AUTO 07009KT 10SM CLR 22/09 A3020 RMK AO2 T02210094 $,0,9.0,0,16090.0,0,0,0,
2026-04-22 00:55:00,METAR KVNC 220055Z AUTO 08011KT 10SM CLR 23/09 A3019 RMK AO2 T02250091 $,0,11.0,0,16090.0,0,0,0,
2026-04-22 00:35:00,METAR KVNC 220035Z AUTO 07011KT 10SM CLR 23/09 A3018 RMK AO2 T02290090 $,0,11.0,0,16090.0,0,0,0,
2026-04-22 00:15:00,METAR KVNC 220015Z AUTO 07013KT 10SM CLR 23/09 A3018 RMK AO2 T02340087 $,0,13.0,0,16090.0,0,0,0,
2026-04-21 23:55:00,METAR KVNC 212355Z AUTO 08013G20KT 10SM CLR 24/08 A3017 RMK AO2 T02420082 10290 20242 53009 $,0,13.0,1,16090.0,0,0,0,
2026-04-21 23:35:00,METAR KVNC 212335Z AUTO 08013KT 10SM CLR 25/08 A3017 RMK AO2 T02470082 $,0,13.0,0,16090.0,0,0,0,
2026-04-21 23:15:00,METAR KVNC 212315Z AUTO 09012G18KT 10SM CLR 25/08 A3016 RMK AO2 T02540084 $,0,12.0,1,16090.0,0,0,0,
2026-04-21 22:55:00,METAR KVNC 212255Z AUTO 09014G19KT 10SM CLR 26/08 A3015 RMK AO2 T02620081 $,0,14.0,1,16090.0,0,0,0,
2026-04-21 22:35:00,METAR KVNC 212235Z AUTO 09013KT 10SM CLR 26/08 A3015 RMK AO2 T02640079 $,0,13.0,0,16090.0,0,0,0,
2026-04-21 22:15:00,METAR KVNC 212215Z AUTO 07015KT 10SM CLR 27/08 A3015 RMK AO2 T02710085 $,0,15.0,0,16090.0,0,0,0,
2026-04-21 21:55:00,METAR KVNC 212155Z AUTO 06015G20KT 10SM CLR 27/08 A3014 RMK AO2 T02740081 $,0,15.0,1,16090.0,0,0,0,
2026-04-21 21:35:00,METAR KVNC 212135Z AUTO 07015G23KT 10SM CLR 28/09 A3014 RMK AO2 T02780085 $,0,15.0,1,16090.0,0,0,0,
2026-04-21 21:15:00,METAR KVNC 212115Z AUTO 07013G23KT 10SM CLR 28/08 A3014 RMK AO2 T02780083 $,0,13.0,1,16090.0,0,0,0,
2026-04-21 20:55:00,METAR KVNC 212055Z AUTO 07015G24KT 10SM CLR 28/09 A3014 RMK AO2 T02810090 56015 $,0,15.0,1,16090.0,0,0,0,
2026-04-21 20:35:00,METAR KVNC 212035Z AUTO 08015KT 10SM CLR 28/09 A3014 RMK AO2 T02830095 $,0,15.0,0,16090.0,0,0,0,
2026-04-21 20:15:00,METAR KVNC 212015Z AUTO 07018G22KT 10SM FEW350 28/08 A3015 RMK AO2 T02840084 $,0,18.0,1,16090.0,0,0,0,
2026-04-21 19:55:00,METAR KVNC 211955Z AUTO 09011G22KT 10SM CLR 28/09 A3015 RMK AO2 PK WND 08026/1914 T02850090 $,0,11.0,1,16090.0,0,0,0,
2026-04-21 19:35:00,METAR KVNC 211935Z AUTO 07011G20KT 10SM CLR 28/09 A3016 RMK AO2 PK WND 08026/1914 T02840090 $,0,11.0,1,16090.0,0,0,0,
2026-04-21 19:15:00,METAR KVNC 211915Z AUTO 07018G26KT 10SM CLR 28/09 A3016 RMK AO2 PK WND 08026/1914 T02850093 $,0,18.0,1,16090.0,0,0,0,
2026-04-21 18:55:00,METAR KVNC 211855Z AUTO 07019G24KT 10SM FEW360 29/09 A3018 RMK AO2 T02870086 $,0,19.0,1,16090.0,0,0,0,
2026-04-21 18:35:00,METAR KVNC 211835Z AUTO 10014KT 10SM FEW360 28/10 A3017 RMK AO2 T02830096 $,0,14.0,0,16090.0,0,0,0,
2026-04-21 18:15:00,METAR KVNC 211815Z AUTO 09013G21KT 10SM FEW330 28/09 A3018 RMK AO2 T02790088 $,0,13.0,1,16090.0,0,0,0,
2026-04-21 17:55:00,METAR KVNC 211755Z AUTO 07020G25KT 10SM FEW380 28/10 A3019 RMK AO2 T02840104 10284 20179 58015 $,0,20.0,1,16090.0,0,0,0,
2026-04-21 17:35:00,METAR KVNC 211735Z AUTO 08017KT 10SM FEW280 28/10 A3019 RMK AO2 T02810103 $,0,17.0,0,16090.0,0,0,0,
2026-04-21 17:15:00,METAR KVNC 211715Z AUTO 07016G23KT 10SM CLR 28/10 A3020 RMK AO2 T02770100 $,0,16.0,1,16090.0,0,0,0,
2026-04-21 16:55:00,METAR KVNC 211655Z AUTO 07017G23KT 10SM FEW370 28/11 A3021 RMK AO2 PK WND 07026/1558 T02760113 $,0,17.0,1,16090.0,0,0,0,
2026-04-21 16:35:00,METAR KVNC 211635Z AUTO 09013KT 10SM FEW370 27/11 A3021 RMK AO2 PK WND 07026/1558 T02740111 $,0,13.0,0,16090.0,0,0,0,
2026-04-21 16:15:00,METAR KVNC 211615Z AUTO 09014KT 10SM FEW055 27/11 A3022 RMK AO2 PK WND 07026/1558 T02670112 $,0,14.0,0,16090.0,0,0,0,
2026-04-21 15:55:00,METAR KVNC 211555Z AUTO 06017G25KT 10SM FEW049 26/12 A3023 RMK AO2 T02630115 $,0,17.0,1,16090.0,0,0,0,
2026-04-21 15:35:00,METAR KVNC 211535Z AUTO 07016G21KT 060V130 10SM FEW048 25/12 A3023 RMK AO2 T02550124 $,0,16.0,1,16090.0,0,0,0,
2026-04-21 15:15:00,METAR KVNC 211515Z AUTO 08018G22KT 10SM CLR 26/12 A3023 RMK AO2 T02550124 $,0,18.0,1,16090.0,0,0,0,
2026-04-21 14:55:00,METAR KVNC 211455Z AUTO 07015G24KT 10SM FEW044 25/13 A3023 RMK AO2 T02490131 51007 $,0,15.0,1,16090.0,0,0,0,
2026-04-21 14:35:00,METAR KVNC 211435Z AUTO 07014G22KT 10SM FEW042 24/13 A3023 RMK AO2 T02430130 $,0,14.0,1,16090.0,0,0,0,
2026-04-21 14:15:00,METAR KVNC 211415Z AUTO 08016G20KT 10SM FEW041 24/13 A3023 RMK AO2 T02370134 $,0,16.0,1,16090.0,0,0,0,
2026-04-21 13:55:00,METAR KVNC 211355Z AUTO 08011KT 10SM CLR 23/14 A3023 RMK AO2 T02300135 $,0,11.0,0,16090.0,0,0,0,
2026-04-21 13:35:00,METAR KVNC 211335Z AUTO 05009KT 10SM CLR 22/13 A3022 RMK AO2 T02200135 $,0,9.0,0,16090.0,0,0,0,
2026-04-21 13:15:00,METAR KVNC 211315Z AUTO 05013KT 10SM CLR 21/13 A3022 RMK AO2 T02140131 $,0,13.0,0,16090.0,0,0,0,
2026-04-21 12:55:00,METAR KVNC 211255Z AUTO 04011KT 10SM CLR 21/13 A3022 RMK AO2 T02060128 $,0,11.0,0,16090.0,0,0,0,
2026-04-21 12:35:00,METAR KVNC 211235Z AUTO 05012KT 10SM CLR 20/13 A3022 RMK AO2 T01960126 $,0,12.0,0,16090.0,0,0,0,
2026-04-21 12:15:00,METAR KVNC 211215Z AUTO 04011KT 10SM CLR 19/13 A3022 RMK AO2 T01860125 $,0,11.0,0,16090.0,0,0,0,
2026-04-21 11:55:00,METAR KVNC 211155Z AUTO 03009KT 10SM CLR 17/12 A3021 RMK AO2 T01730124 10188 20162 53013 $,0,9.0,0,16090.0,0,0,0,
2026-04-21 11:35:00,METAR KVNC 211135Z AUTO 04008KT 10SM CLR 17/12 A3020 RMK AO2 T01680123 $,0,8.0,0,16090.0,0,0,0,
2026-04-21 11:15:00,METAR KVNC 211115Z AUTO 03009KT 10SM CLR 16/12 A3019 RMK AO2 T01640121 $,0,9.0,0,16090.0,0,0,0,
2026-04-21 10:55:00,METAR KVNC 211055Z AUTO 04009KT 10SM FEW043 16/12 A3018 RMK AO2 T01630121 $,0,9.0,0,16090.0,0,0,0,
2026-04-21 10:35:00,METAR KVNC 211035Z AUTO 03009KT 10SM FEW043 16/12 A3018 RMK AO2 T01620120 $,0,9.0,0,16090.0,0,0,0,
2026-04-21 10:15:00,METAR KVNC 211015Z AUTO 03009KT 10SM CLR 16/12 A3018 RMK AO2 T01640121 $,0,9.0,0,16090.0,0,0,0,
2026-04-21 09:55:00,METAR KVNC 210955Z AUTO 03009KT 10SM CLR 16/12 A3018 RMK AO2 T01640121 $,0,9.0,0,16090.0,0,0,0,
2026-04-21 09:35:00,METAR KVNC 210935Z AUTO 03009KT 10SM CLR 16/12 A3017 RMK AO2 T01640122 $,0,9.0,0,16090.0,0,0,0,
2026-04-21 09:15:00,METAR KVNC 210915Z AUTO 03009KT 10SM CLR 17/12 A3017 RMK AO2 T01650123 $,0,9.0,0,16090.0,0,0,0,
2026-04-21 08:55:00,METAR KVNC 210855Z AUTO 03008KT 10SM CLR 17/12 A3017 RMK AO2 T01680124 53001 $,0,8.0,0,16090.0,0,0,0,
2026-04-21 08:35:00,METAR KVNC 210835Z AUTO 03009KT 10SM CLR 17/13 A3017 RMK AO2 T01690126 $,0,9.0,0,16090.0,0,0,0,
2026-04-21 08:15:00,METAR KVNC 210815Z AUTO 03009KT 10SM CLR 17/13 A3017 RMK AO2 T01720128 $,0,9.0,0,16090.0,0,0,0,
2026-04-21 07:55:00,METAR KVNC 210755Z AUTO 03010KT 10SM CLR 17/13 A3017 RMK AO2 T01750132 $,0,10.0,0,16090.0,0,0,0,
2026-04-21 07:35:00,METAR KVNC 210735Z AUTO 03009KT 10SM CLR 18/13 A3017 RMK AO2 T01770132 $,0,9.0,0,16090.0,0,0,0,
2026-04-21 07:15:00,METAR KVNC 210715Z AUTO 04011KT 10SM FEW250 18/13 A3016 RMK AO2 T01780134 $,0,11.0,0,16090.0,0,0,0,
2026-04-21 06:55:00,METAR KVNC 210655Z AUTO 03009KT 10SM SCT250 18/14 A3016 RMK AO2 T01810136 $,0,9.0,0,16090.0,0,0,0,
2026-04-21 06:35:00,METAR KVNC 210635Z AUTO 03009KT 10SM FEW240 18/14 A3016 RMK AO2 T01830137 $,0,9.0,0,16090.0,0,0,0,
2026-04-21 06:15:00,METAR KVNC 210615Z AUTO 04010KT 10SM FEW250 19/14 A3016 RMK AO2 T01850139 $,0,10.0,0,16090.0,0,0,0,
2026-04-21 05:55:00,METAR KVNC 210555Z AUTO 03009KT 10SM FEW250 19/14 A3017 RMK AO2 T01910139 10249 20191 51006 $,0,9.0,0,16090.0,0,0,0,
2026-04-21 05:35:00,METAR KVNC 210535Z AUTO 04010KT 10SM CLR 19/14 A3017 RMK AO2 T01920139 $,0,10.0,0,16090.0,0,0,0,
2026-04-21 05:15:00,METAR KVNC 210515Z AUTO 04011KT 10SM CLR 20/14 A3017 RMK AO2 T01950137 $,0,11.0,0,16090.0,0,0,0,
2026-04-21 04:55:00,METAR KVNC 210455Z AUTO 04013KT 10SM CLR 20/14 A3017 RMK AO2 T01990136 403090184 $,0,13.0,0,16090.0,0,0,0,
2026-04-21 04:35:00,METAR KVNC 210435Z AUTO 04011KT 10SM CLR 20/13 A3017 RMK AO2 T02000135 $,0,11.0,0,16090.0,0,0,0,
2026-04-21 04:15:00,METAR KVNC 210415Z AUTO 04012KT 10SM CLR 20/13 A3017 RMK AO2 T02020134 $,0,12.0,0,16090.0,0,0,0,
2026-04-21 03:55:00,METAR KVNC 210355Z AUTO 04011KT 10SM CLR 20/13 A3016 RMK AO2 T02050134 $,0,11.0,0,16090.0,0,0,0,
2026-04-21 03:35:00,METAR KVNC 210335Z AUTO 04013KT 10SM CLR 21/13 A3016 RMK AO2 T02080134 $,0,13.0,0,16090.0,0,0,0,
2026-04-21 03:15:00,METAR KVNC 210315Z AUTO 05014KT 10SM CLR 21/13 A3016 RMK AO2 T02100133 $,0,14.0,0,16090.0,0,0,0,
2026-04-21 02:55:00,METAR KVNC 210255Z AUTO 05014KT 10SM CLR 21/14 A3015 RMK AO2 T02140136 51024 $,0,14.0,0,16090.0,0,0,0,
2026-04-21 02:35:00,METAR KVNC 210235Z AUTO 05016KT 10SM CLR 22/14 A3015 RMK AO2 T02160138 $,0,16.0,0,16090.0,0,0,0,
2026-04-21 02:15:00,METAR KVNC 210215Z AUTO 05017KT 10SM CLR 22/14 A3015 RMK AO2 T02190140 $,0,17.0,0,16090.0,0,0,0,
2026-04-21 01:55:00,METAR KVNC 210155Z AUTO 05017G24KT 10SM CLR 22/14 A3014 RMK AO2 T02240143 $,0,17.0,1,16090.0,0,0,0,
2026-04-21 01:35:00,METAR KVNC 210135Z AUTO 05017G24KT 10SM CLR 23/15 A3013 RMK AO2 T02290147 $,0,17.0,1,16090.0,0,0,0,
2026-04-21 01:15:00,METAR KVNC 210115Z AUTO 06015KT 10SM CLR 23/15 A3012 RMK AO2 T02340155 $,0,15.0,0,16090.0,0,0,0,
2026-04-21 00:55:00,METAR KVNC 210055Z AUTO 06012KT 10SM CLR 24/16 A3011 RMK AO2 T02390159 $,0,12.0,0,16090.0,0,0,0,
2026-04-21 00:35:00,METAR KVNC 210035Z AUTO 06012KT 10SM CLR 24/16 A3010 RMK AO2 T02420157 $,0,12.0,0,16090.0,0,0,0,
2026-04-21 00:15:00,METAR KVNC 210015Z AUTO 06013KT 10SM CLR 25/16 A3009 RMK AO2 T02460160 $,0,13.0,0,16090.0,0,0,0,
2026-04-20 23:55:00,METAR KVNC 202355Z AUTO 06013KT 10SM CLR 25/16 A3008 RMK AO2 T02520161 10309 20252 53013 $,0,13.0,0,16090.0,0,0,0,
2026-04-20 23:35:00,METAR KVNC 202335Z AUTO 06016KT 10SM CLR 26/16 A3008 RMK AO2 T02570161 $,0,16.0,0,16090.0,0,0,0,
2026-04-20 23:15:00,METAR KVNC 202315Z AUTO 06018KT 9SM CLR 26/16 A3007 RMK AO2 T02650162 $,0,18.0,0,14481.0,0,0,0,
2026-04-20 22:55:00,METAR KVNC 202255Z AUTO 04014G18KT 9SM CLR 27/16 A3006 RMK AO2 T02700163 $,0,14.0,1,14481.0,0,0,0,
2026-04-20 22:35:00,METAR KVNC 202235Z AUTO 05014KT 9SM CLR 27/16 A3006 RMK AO2 T02680164 $,0,14.0,0,14481.0,0,0,0,
2026-04-20 22:15:00,METAR KVNC 202215Z AUTO 04014KT 9SM CLR 27/16 A3006 RMK AO2 T02740165 $,0,14.0,0,14481.0,0,0,0,
2026-04-20 21:55:00,METAR KVNC 202155Z AUTO 05017KT 10SM FEW050 SCT065 29/17 A3005 RMK AO2 T02860166 $,0,17.0,0,16090.0,0,0,0,
2026-04-20 21:35:00,METAR KVNC 202135Z AUTO 02017KT 10SM SCT065 29/17 A3004 RMK AO2 T02880169 $,0,17.0,0,16090.0,0,0,0,
2026-04-20 21:15:00,METAR KVNC 202115Z AUTO 04019KT 10SM CLR 29/17 A3004 RMK AO2 T02930169 $,0,19.0,0,16090.0,0,0,0,
2026-04-20 20:55:00,METAR KVNC 202055Z AUTO 03013KT 10SM 30/17 A3004 RMK AO2 T02960173 56014 $,0,13.0,0,16090.0,0,0,0,
2026-04-20 20:35:00,METAR KVNC 202035Z AUTO 06020KT 10SM 30/17 A3005 RMK AO2 T02970173 $,0,20.0,0,16090.0,0,0,0,
2026-04-20 19:55:00,METAR KVNC 201955Z AUTO 04017G20KT 10SM 29/18 A3005 RMK AO2 T02930180 $,0,17.0,1,16090.0,0,0,0,
2026-04-20 19:35:00,METAR KVNC 201935Z AUTO 05013KT 9SM 29/18 A3006 RMK AO2 T02930176 $,0,13.0,0,14481.0,0,0,0,
2026-04-20 19:15:00,METAR KVNC 201915Z AUTO 03012KT 350V070 10SM 30/18 A3006 RMK AO2 T02990179 $,0,12.0,0,16090.0,0,0,0,
2026-04-20 18:55:00,METAR KVNC 201855Z AUTO 03014KT 10SM FEW050 SCT100 30/18 A3007 RMK AO2 T02990182 $,0,14.0,0,16090.0,0,0,0,
2026-04-20 18:35:00,METAR KVNC 201835Z AUTO 03017KT 10SM FEW043 SCT050 SCT080 SCT280 30/18 A3007 RMK AO2 T03020183 $,0,17.0,0,16090.0,0,0,0,
2026-04-20 18:15:00,METAR KVNC 201815Z AUTO 01012G17KT 10SM SCT042 BKN290 BKN370 29/18 A3008 RMK AO2 T02900181 $,0,12.0,1,16090.0,0,0,0,
2026-04-20 17:55:00,METAR KVNC 201755Z AUTO 04014KT 10SM FEW043 SCT065 SCT300 BKN340 BKN360 28/18 A3008 RMK AO2 T02830182 10301 20195 58002 $,0,14.0,0,16090.0,0,0,0,
2026-04-20 17:35:00,METAR KVNC 201735Z AUTO 04014G18KT 10SM FEW043 SCT300 SCT330 BKN370 30/18 A3008 RMK AO2 T02980184 $,0,14.0,1,16090.0,0,0,0,
2026-04-20 17:15:00,METAR KVNC 201715Z AUTO 04012KT 10SM FEW037 SCT050 SCT095 28/19 A3008 RMK AO2 T02850187 $,0,12.0,0,16090.0,0,0,0,
2026-04-20 16:55:00,METAR KVNC 201655Z AUTO 04014KT 10SM FEW038 29/19 A3009 RMK AO2 T02900188 $,0,14.0,0,16090.0,0,0,0,
2026-04-20 16:35:00,METAR KVNC 201635Z AUTO 06015KT 10SM SCT037 SCT050 29/19 A3009 RMK AO2 T02900186 $,0,15.0,0,16090.0,0,0,0,
2026-04-20 16:15:00,METAR KVNC 201615Z AUTO 06012KT 10SM FEW035 28/18 A3009 RMK AO2 T02760185 $,0,12.0,0,16090.0,0,0,0,
2026-04-20 15:55:00,METAR KVNC 201555Z AUTO 04014KT 10SM CLR 28/18 A3009 RMK AO2 T02780185 $,0,14.0,0,16090.0,0,0,0,
2026-04-20 15:35:00,METAR KVNC 201535Z AUTO 07012G18KT 10SM CLR 28/19 A3009 RMK AO2 T02800187 $,0,12.0,1,16090.0,0,0,0,
2026-04-20 15:15:00,METAR KVNC 201515Z AUTO 07015KT 10SM CLR 27/18 A3009 RMK AO2 T02700183 $,0,15.0,0,16090.0,0,0,0,
2026-04-20 14:55:00,METAR KVNC 201455Z AUTO 05014KT 10SM CLR 26/18 A3009 RMK AO2 T02650182 52009 $,0,14.0,0,16090.0,0,0,0,
2026-04-20 14:35:00,METAR KVNC 201435Z AUTO 06017G22KT 10SM CLR 26/18 A3009 RMK AO2 T02560178 $,0,17.0,1,16090.0,0,0,0,
2026-04-20 14:15:00,METAR KVNC 201415Z AUTO 05018KT 9SM CLR 25/18 A3008 RMK AO2 T02510177 $,0,18.0,0,14481.0,0,0,0,
2026-04-20 13:55:00,METAR KVNC 201355Z AUTO 05018KT 9SM CLR 24/17 A3008 RMK AO2 T02410174 $,0,18.0,0,14481.0,0,0,0,
2026-04-20 13:35:00,METAR KVNC 201335Z AUTO 05017G23KT 9SM CLR 24/17 A3008 RMK AO2 T02380173 $,0,17.0,1,14481.0,0,0,0,
2026-04-20 13:15:00,METAR KVNC 201315Z AUTO 05017KT 9SM CLR 23/17 A3008 RMK AO2 T02270168 $,0,17.0,0,14481.0,0,0,0,
2026-04-20 12:55:00,METAR KVNC 201255Z AUTO 04016KT 9SM CLR 21/16 A3007 RMK AO2 T02140162 $,0,16.0,0,14481.0,0,0,0,
2026-04-20 12:35:00,METAR KVNC 201235Z AUTO 03015KT 10SM CLR 20/16 A3007 RMK AO2 T02050158 $,0,15.0,0,16090.0,0,0,0,
2026-04-20 12:15:00,METAR KVNC 201215Z AUTO 04012KT 10SM CLR 20/16 A3007 RMK AO2 T01990155 $,0,12.0,0,16090.0,0,0,0,
2026-04-20 11:55:00,METAR KVNC 201155Z AUTO 03011KT 9SM CLR 20/16 A3006 RMK AO2 T01950156 10217 20184 53014 $,0,11.0,0,14481.0,0,0,0,
2026-04-20 11:35:00,METAR KVNC 201135Z AUTO 03013KT 9SM CLR 19/15 A3006 RMK AO2 T01900153 $,0,13.0,0,14481.0,0,0,0,
2026-04-20 11:15:00,METAR KVNC 201115Z AUTO 03011KT 10SM CLR 19/15 A3005 RMK AO2 T01860152 $,0,11.0,0,16090.0,0,0,0,
2026-04-20 10:55:00,METAR KVNC 201055Z AUTO 02009KT 10SM CLR 19/15 A3004 RMK AO2 T01850148 $,0,9.0,0,16090.0,0,0,0,
2026-04-20 10:35:00,METAR KVNC 201035Z AUTO 03010KT 10SM CLR 19/15 A3003 RMK AO2 T01860148 $,0,10.0,0,16090.0,0,0,0,
2026-04-20 10:15:00,METAR KVNC 201015Z AUTO 03011KT 10SM CLR 19/15 A3003 RMK AO2 T01870150 $,0,11.0,0,16090.0,0,0,0,
2026-04-20 09:55:00,METAR KVNC 200955Z AUTO 03009KT 10SM CLR 19/15 A3003 RMK AO2 T01880151 $,0,9.0,0,16090.0,0,0,0,
2026-04-20 09:35:00,METAR KVNC 200935Z AUTO 03010KT 10SM CLR 19/15 A3002 RMK AO2 T01890152 $,0,10.0,0,16090.0,0,0,0,
2026-04-20 09:15:00,METAR KVNC 200915Z AUTO 03010KT 10SM CLR 19/15 A3002 RMK AO2 T01920153 $,0,10.0,0,16090.0,0,0,0,
2026-04-20 08:55:00,METAR KVNC 200855Z AUTO 03010KT 10SM CLR 19/16 A3002 RMK AO2 T01920161 55003 $,0,10.0,0,16090.0,0,0,0,
2026-04-20 08:35:00,METAR KVNC 200835Z AUTO 02009KT 10SM CLR 19/17 A3002 RMK AO2 T01940166 $,0,9.0,0,16090.0,0,0,0,
2026-04-20 08:15:00,METAR KVNC 200815Z AUTO 02008KT 10SM CLR 20/17 A3002 RMK AO2 T01960169 $,0,8.0,0,16090.0,0,0,0,
2026-04-20 07:55:00,METAR KVNC 200755Z AUTO 04009KT 10SM CLR 20/17 A3002 RMK AO2 T02000170 $,0,9.0,0,16090.0,0,0,0,
2026-04-20 07:35:00,METAR KVNC 200735Z AUTO 03009KT 10SM CLR 20/17 A3002 RMK AO2 T02050172 $,0,9.0,0,16090.0,0,0,0,
2026-04-20 07:15:00,METAR KVNC 200715Z AUTO 02008KT 10SM CLR 21/18 A3002 RMK AO2 T02070180 $,0,8.0,0,16090.0,0,0,0,
2026-04-20 06:55:00,METAR KVNC 200655Z AUTO 01006KT 10SM CLR 21/19 A3003 RMK AO2 T02130188 $,0,6.0,0,16090.0,0,0,0,
2026-04-20 06:35:00,METAR KVNC 200635Z AUTO 35003KT 10SM CLR 21/19 A3003 RMK AO2 T02150190 $,0,3.0,0,16090.0,0,0,0,
2026-04-20 06:15:00,METAR KVNC 200615Z AUTO 34004KT 10SM FEW240 22/19 A3003 RMK AO2 T02160190 $,0,4.0,0,16090.0,0,0,0,
2026-04-20 05:55:00,METAR KVNC 200555Z AUTO 00000KT 10SM SCT220 SCT240 22/19 A3003 RMK AO2 T02150190 10232 20210 50000 $,0,0.0,0,16090.0,0,0,0,
2026-04-20 05:35:00,METAR KVNC 200535Z AUTO 02003KT 10SM FEW210 21/19 A3004 RMK AO2 T02110189 $,0,3.0,0,16090.0,0,0,0,
2026-04-20 05:15:00,METAR KVNC 200515Z AUTO 35004KT 10SM CLR 22/19 A3004 RMK AO2 T02190192 $,0,4.0,0,16090.0,0,0,0,
2026-04-20 04:55:00,METAR KVNC 200455Z AUTO 33004KT 10SM FEW220 22/19 A3004 RMK AO2 T02220192 402740203 $,0,4.0,0,16090.0,0,0,0,
2026-04-20 04:35:00,METAR KVNC 200435Z AUTO 33005KT 10SM SCT220 22/19 A3004 RMK AO2 T02240192 $,0,5.0,0,16090.0,0,0,0,
2026-04-20 04:15:00,METAR KVNC 200415Z AUTO 36005KT 10SM SCT230 BKN250 22/19 A3004 RMK AO2 T02240192 $,0,5.0,0,16090.0,0,0,0,
2026-04-20 03:55:00,METAR KVNC 200355Z AUTO 35005KT 10SM SCT250 23/19 A3004 RMK AO2 T02270193 $,0,5.0,0,16090.0,0,0,0,
2026-04-20 03:35:00,METAR KVNC 200335Z AUTO 34006KT 10SM SCT250 23/19 A3004 RMK AO2 T02270190 $,0,6.0,0,16090.0,0,0,0,
2026-04-20 03:15:00,METAR KVNC 200315Z AUTO 36004KT 10SM OVC250 22/19 A3004 RMK AO2 T02210191 $,0,4.0,0,16090.0,0,0,0,
2026-04-20 02:55:00,METAR KVNC 200255Z AUTO 01004KT 10SM FEW021 BKN250 22/19 A3003 RMK AO2 T02220191 53014 $,0,4.0,0,16090.0,0,0,0,
2026-04-20 02:35:00,METAR KVNC 200235Z AUTO 35005KT 10SM FEW019 BKN260 23/19 A3003 RMK AO2 T02300192 $,0,5.0,0,16090.0,0,0,0,
2026-04-20 02:15:00,METAR KVNC 200215Z AUTO 34008KT 10SM SCT019 23/19 A3003 RMK AO2 T02310192 $,0,8.0,0,16090.0,0,0,0,
2026-04-20 01:55:00,METAR KVNC 200155Z AUTO 33010KT 10SM SCT018 BKN025 23/19 A3002 RMK AO2 T02290193 $,0,10.0,0,16090.0,0,0,0,
2026-04-20 01:35:00,METAR KVNC 200135Z AUTO 32010KT 10SM SCT017 23/19 A3001 RMK AO2 T02290194 $,0,10.0,0,16090.0,0,0,0,
2026-04-20 01:15:00,METAR KVNC 200115Z AUTO 32008KT 10SM CLR 23/19 A3001 RMK AO2 T02290187 $,0,8.0,0,16090.0,0,0,0,
2026-04-20 00:55:00,METAR KVNC 200055Z AUTO 32011KT 10SM CLR 23/18 A3000 RMK AO2 T02310183 $,0,11.0,0,16090.0,0,0,0,
2026-04-20 00:35:00,METAR KVNC 200035Z AUTO 32012KT 10SM CLR 23/18 A2999 RMK AO2 T02310181 $,0,12.0,0,16090.0,0,0,0,
2026-04-20 00:15:00,METAR KVNC 200015Z AUTO 32010KT 10SM CLR 23/19 A2999 RMK AO2 T02310187 $,0,10.0,0,16090.0,0,0,0,
2026-04-19 23:55:00,METAR KVNC 192355Z AUTO 31009KT 9SM CLR 23/19 A2999 RMK AO2 T02320191 10267 20232 55001 $,0,9.0,0,14481.0,0,0,0,
2026-04-19 23:35:00,METAR KVNC 192335Z AUTO 31011KT 10SM CLR 23/19 A2998 RMK AO2 T02330189 $,0,11.0,0,16090.0,0,0,0,
2026-04-19 23:15:00,METAR KVNC 192315Z AUTO 30011KT 10SM CLR 24/19 A2999 RMK AO2 T02380187 $,0,11.0,0,16090.0,0,0,0,
2026-04-19 22:55:00,METAR KVNC 192255Z AUTO 30011KT 9SM CLR 24/18 A2999 RMK AO2 T02410183 $,0,11.0,0,14481.0,0,0,0,
2026-04-19 22:35:00,METAR KVNC 192235Z AUTO 30010KT 9SM CLR 24/19 A2998 RMK AO2 T02420186 $,0,10.0,0,14481.0,0,0,0,
2026-04-19 22:15:00,METAR KVNC 192215Z AUTO 31011KT 10SM CLR 24/19 A2999 RMK AO2 T02410186 $,0,11.0,0,16090.0,0,0,0,
2026-04-19 21:55:00,METAR KVNC 192155Z AUTO 31011KT 9SM FEW280 24/19 A2999 RMK AO2 T02430188 $,0,11.0,0,14481.0,0,0,0,
2026-04-19 21:35:00,METAR KVNC 192135Z AUTO 30012KT 10SM FEW280 SCT370 25/17 A2999 RMK AO2 T02530172 $,0,12.0,0,16090.0,0,0,0,
2026-04-19 21:15:00,METAR KVNC 192115Z AUTO 30012KT 10SM FEW300 26/17 A2999 RMK AO2 T02580166 $,0,12.0,0,16090.0,0,0,0,
2026-04-19 20:55:00,METAR KVNC 192055Z AUTO 31011KT 10SM FEW280 26/17 A2999 RMK AO2 T02550174 58017 $,0,11.0,0,16090.0,0,0,0,
2026-04-19 20:35:00,METAR KVNC 192035Z AUTO 32012KT 10SM FEW300 26/17 A3000 RMK AO2 T02580174 $,0,12.0,0,16090.0,0,0,0,
2026-04-19 20:15:00,METAR KVNC 192015Z AUTO 31012KT 10SM FEW330 26/18 A3001 RMK AO2 T02550178 $,0,12.0,0,16090.0,0,0,0,
2026-04-19 19:55:00,METAR KVNC 191955Z AUTO 31015KT 10SM FEW370 26/18 A3002 RMK AO2 T02560180 $,0,15.0,0,16090.0,0,0,0,
2026-04-19 19:35:00,METAR KVNC 191935Z AUTO 32016KT 10SM FEW360 26/18 A3002 RMK AO2 T02590182 $,0,16.0,0,16090.0,0,0,0,
2026-04-19 19:15:00,METAR KVNC 191915Z AUTO 31015KT 10SM FEW280 SCT360 27/18 A3002 RMK AO2 T02670185 $,0,15.0,0,16090.0,0,0,0,
2026-04-19 18:55:00,METAR KVNC 191855Z AUTO 31014KT 10SM FEW310 26/18 A3002 RMK AO2 T02560183 $,0,14.0,0,16090.0,0,0,0,
2026-04-19 18:35:00,METAR KVNC 191835Z AUTO 32017KT 10SM FEW310 26/19 A3003 RMK AO2 T02640190 $,0,17.0,0,16090.0,0,0,0,
2026-04-19 18:15:00,METAR KVNC 191815Z AUTO 32016KT 10SM FEW270 26/19 A3004 RMK AO2 T02590193 $,0,16.0,0,16090.0,0,0,0,
2026-04-19 17:55:00,METAR KVNC 191755Z AUTO 31013KT 10SM CLR 27/19 A3004 RMK AO2 T02670195 10274 20222 50000 $,0,13.0,0,16090.0,0,0,0,
2026-04-19 17:35:00,METAR KVNC 191735Z AUTO 33014KT 10SM FEW320 27/19 A3004 RMK AO2 T02660190 $,0,14.0,0,16090.0,0,0,0,
2026-04-19 17:15:00,METAR KVNC 191715Z AUTO 31015KT 10SM FEW220 27/19 A3005 RMK AO2 T02660193 $,0,15.0,0,16090.0,0,0,0,
2026-04-19 16:55:00,METAR KVNC 191655Z AUTO 31015KT 10SM CLR 27/19 A3005 RMK AO2 T02710188 $,0,15.0,0,16090.0,0,0,0,
2026-04-19 16:35:00,METAR KVNC 191635Z AUTO 31016KT 10SM CLR 27/18 A3005 RMK AO2 T02690183 $,0,16.0,0,16090.0,0,0,0,
2026-04-19 16:15:00,METAR KVNC 191615Z AUTO 31015KT 10SM CLR 26/21 A3005 RMK AO2 T02640209 $,0,15.0,0,16090.0,0,0,0,
2026-04-19 15:55:00,METAR KVNC 191555Z AUTO 31014KT 10SM CLR 26/21 A3005 RMK AO2 T02620208 $,0,14.0,0,16090.0,0,0,0,
2026-04-19 15:35:00,METAR KVNC 191535Z AUTO 31016KT 10SM CLR 27/20 A3005 RMK AO2 T02670202 $,0,16.0,0,16090.0,0,0,0,
2026-04-19 15:15:00,METAR KVNC 191515Z AUTO 30011KT 10SM CLR 27/20 A3005 RMK AO2 T02680197 $,0,11.0,0,16090.0,0,0,0,
2026-04-19 14:55:00,METAR KVNC 191455Z AUTO 32011KT 10SM CLR 26/20 A3004 RMK AO2 T02630196 53009 $,0,11.0,0,16090.0,0,0,0,
2026-04-19 14:35:00,METAR KVNC 191435Z AUTO 30011KT 10SM CLR 26/20 A3004 RMK AO2 T02620198 $,0,11.0,0,16090.0,0,0,0,
2026-04-19 14:15:00,METAR KVNC 191415Z AUTO 31009KT 10SM CLR 26/20 A3004 RMK AO2 T02570200 $,0,9.0,0,16090.0,0,0,0,
2026-04-19 13:55:00,METAR KVNC 191355Z AUTO 31008KT 10SM CLR 26/20 A3003 RMK AO2 T02580195 $,0,8.0,0,16090.0,0,0,0,
2026-04-19 13:35:00,METAR KVNC 191335Z AUTO VRB06KT 10SM CLR 25/19 A3003 RMK AO2 T02520190 $,0,6.0,0,16090.0,0,0,0,
2026-04-19 13:15:00,METAR KVNC 191315Z AUTO VRB05KT 10SM FEW050 25/19 A3003 RMK AO2 T02460195 $,0,5.0,0,16090.0,0,0,0,
2026-04-19 12:55:00,METAR KVNC 191255Z AUTO 35005KT 9SM CLR 23/19 A3003 RMK AO2 T02340190 $,0,5.0,0,14481.0,0,0,0,
2026-04-19 12:35:00,METAR KVNC 191235Z AUTO 03004KT 9SM CLR 22/19 A3002 RMK AO2 T02220188 $,0,4.0,0,14481.0,0,0,0,
2026-04-19 12:15:00,METAR KVNC 191215Z AUTO 01005KT 9SM CLR 22/19 A3002 RMK AO2 T02250187 $,0,5.0,0,14481.0,0,0,0,
2026-04-19 11:55:00,METAR KVNC 191155Z AUTO 01007KT 10SM CLR 22/18 A3002 RMK AO2 T02210184 10222 20203 53015 $,0,7.0,0,16090.0,0,0,0,
2026-04-19 11:35:00,METAR KVNC 191135Z AUTO VRB06KT 10SM CLR 22/19 A3001 RMK AO2 T02150185 $,0,6.0,0,16090.0,0,0,0,
2026-04-19 11:15:00,METAR KVNC 191115Z AUTO 01004KT 10SM CLR 21/18 A3000 RMK AO2 T02080184 $,0,4.0,0,16090.0,0,0,0,
2026-04-19 10:55:00,METAR KVNC 191055Z AUTO VRB03KT 10SM FEW075 21/18 A3000 RMK AO2 T02060183 $,0,3.0,0,16090.0,0,0,0,
2026-04-19 10:35:00,METAR KVNC 191035Z AUTO 00000KT 10SM BKN075 21/18 A2999 RMK AO2 T02100184 $,0,0.0,0,16090.0,0,0,0,
2026-04-19 10:15:00,METAR KVNC 191015Z AUTO 00000KT 10SM SCT075 21/18 A3000 RMK AO2 T02130185 $,0,0.0,0,16090.0,0,0,0,
2026-04-19 09:55:00,METAR KVNC 190955Z AUTO 01004KT 10SM CLR 21/19 A2998 RMK AO2 T02150186 $,0,4.0,0,16090.0,0,0,0,
2026-04-19 09:35:00,METAR KVNC 190935Z AUTO 35004KT 10SM CLR 22/19 A2998 RMK AO2 T02200186 $,0,4.0,0,16090.0,0,0,0,
2026-04-19 09:15:00,METAR KVNC 190915Z AUTO 01003KT 10SM CLR 21/19 A2997 RMK AO2 T02130186 $,0,3.0,0,16090.0,0,0,0,
2026-04-19 08:55:00,METAR KVNC 190855Z AUTO 01004KT 10SM CLR 21/19 A2997 RMK AO2 T02110187 56012 $,0,4.0,0,16090.0,0,0,0,
2026-04-19 08:35:00,METAR KVNC 190835Z AUTO 04003KT 10SM CLR 21/19 A2997 RMK AO2 T02110188 $,0,3.0,0,16090.0,0,0,0,
2026-04-19 08:15:00,METAR KVNC 190815Z AUTO 03004KT 10SM CLR 21/19 A2998 RMK AO2 T02130188 $,0,4.0,0,16090.0,0,0,0,
2026-04-19 07:55:00,METAR KVNC 190755Z AUTO 03004KT 10SM CLR 21/19 A2997 RMK AO2 T02130188 $,0,4.0,0,16090.0,0,0,0,
2026-04-19 07:35:00,METAR KVNC 190735Z AUTO 04005KT 10SM FEW070 21/19 A2998 RMK AO2 T02150189 $,0,5.0,0,16090.0,0,0,0,
2026-04-19 07:15:00,METAR KVNC 190715Z AUTO 03006KT 10SM SCT065 22/19 A2998 RMK AO2 T02180192 $,0,6.0,0,16090.0,0,0,0,
2026-04-19 06:55:00,METAR KVNC 190655Z AUTO 02006KT 10SM SCT065 22/19 A2999 RMK AO2 T02210195 $,0,6.0,0,16090.0,0,0,0,
2026-04-19 06:35:00,METAR KVNC 190635Z AUTO 02006KT 10SM FEW065 22/20 A3000 RMK AO2 T02210196 $,0,6.0,0,16090.0,0,0,0,
2026-04-19 06:15:00,METAR KVNC 190615Z AUTO 02006KT 10SM CLR 22/20 A3000 RMK AO2 T02200197 $,0,6.0,0,16090.0,0,0,0,
2026-04-19 05:55:00,METAR KVNC 190555Z AUTO 02005KT 10SM CLR 22/20 A3001 RMK AO2 T02210198 10241 20221 50001 $,0,5.0,0,16090.0,0,0,0,
2026-04-19 05:35:00,METAR KVNC 190535Z AUTO 02004KT 10SM CLR 22/20 A3001 RMK AO2 T02220198 $,0,4.0,0,16090.0,0,0,0,
2026-04-19 05:15:00,METAR KVNC 190515Z AUTO 04005KT 10SM CLR 22/20 A3001 RMK AO2 T02240200 $,0,5.0,0,16090.0,0,0,0,
2026-04-19 04:55:00,METAR KVNC 190455Z AUTO 04004KT 10SM BKN060 23/20 A3002 RMK AO2 T02280203 402830191 $,0,4.0,0,16090.0,0,0,0,
2026-04-19 04:35:00,METAR KVNC 190435Z AUTO 05005KT 10SM BKN060 23/21 A3002 RMK AO2 T02310205 $,0,5.0,0,16090.0,0,0,0,
2026-04-19 04:15:00,METAR KVNC 190415Z AUTO 04003KT 10SM CLR 23/21 A3002 RMK AO2 T02320205 $,0,3.0,0,16090.0,0,0,0,
2026-04-19 03:55:00,METAR KVNC 190355Z AUTO 01005KT 10SM FEW065 24/21 A3001 RMK AO2 T02360206 $,0,5.0,0,16090.0,0,0,0,
2026-04-19 03:35:00,METAR KVNC 190335Z AUTO 36004KT 10SM CLR 24/21 A3001 RMK AO2 T02370207 $,0,4.0,0,16090.0,0,0,0,
2026-04-19 03:15:00,METAR KVNC 190315Z AUTO 36005KT 10SM CLR 24/21 A3001 RMK AO2 T02390206 $,0,5.0,0,16090.0,0,0,0,
2026-04-19 02:55:00,METAR KVNC 190255Z AUTO VRB05KT 10SM CLR 24/21 A3000 RMK AO2 T02370208 53012 $,0,5.0,0,16090.0,0,0,0,
2026-04-19 02:35:00,METAR KVNC 190235Z AUTO 36006KT 10SM FEW070 24/21 A3000 RMK AO2 T02390210 $,0,6.0,0,16090.0,0,0,0,
2026-04-19 02:15:00,METAR KVNC 190215Z AUTO 34005KT 10SM FEW070 24/21 A3000 RMK AO2 T02410212 $,0,5.0,0,16090.0,0,0,0,
2026-04-19 01:55:00,METAR KVNC 190155Z AUTO 33007KT 10SM CLR 24/21 A2999 RMK AO2 T02410214 $,0,7.0,0,16090.0,0,0,0,
2026-04-19 01:35:00,METAR KVNC 190135Z AUTO 33007KT 10SM CLR 24/21 A2999 RMK AO2 T02410214 $,0,7.0,0,16090.0,0,0,0,
2026-04-19 01:15:00,METAR KVNC 190115Z AUTO 32010KT 10SM CLR 24/22 A2998 RMK AO2 T02400216 $,0,10.0,0,16090.0,0,0,0,
2026-04-19 00:55:00,METAR KVNC 190055Z AUTO 32008KT 10SM CLR 24/22 A2998 RMK AO2 T02400215 $,0,8.0,0,16090.0,0,0,0,
2026-04-19 00:35:00,METAR KVNC 190035Z AUTO 33009KT 10SM CLR 24/22 A2997 RMK AO2 T02400217 $,0,9.0,0,16090.0,0,0,0,
2026-04-19 00:15:00,METAR KVNC 190015Z AUTO 33009KT 10SM CLR 24/22 A2997 RMK AO2 T02400217 $,0,9.0,0,16090.0,0,0,0,
2026-04-18 23:55:00,METAR KVNC 182355Z AUTO 31010KT 9SM CLR 24/22 A2997 RMK AO2 T02410217 10276 20241 54000 $,0,10.0,0,14481.0,0,0,0,
2026-04-18 23:35:00,METAR KVNC 182335Z AUTO 31009KT 10SM CLR 24/22 A2997 RMK AO2 T02430218 $,0,9.0,0,16090.0,0,0,0,
2026-04-18 23:15:00,METAR KVNC 182315Z AUTO 31008KT 9SM CLR 24/22 A2997 RMK AO2 T02450218 $,0,8.0,0,14481.0,0,0,0,
2026-04-18 22:55:00,METAR KVNC 182255Z AUTO 30009KT 9SM CLR 25/22 A2997 RMK AO2 T02500219 $,0,9.0,0,14481.0,0,0,0,
2026-04-18 22:35:00,METAR KVNC 182235Z AUTO 30007KT 9SM CLR 25/22 A2996 RMK AO2 T02500217 $,0,7.0,0,14481.0,0,0,0,
2026-04-18 22:15:00,METAR KVNC 182215Z AUTO 29009KT 9SM CLR 26/22 A2997 RMK AO2 T02560217 $,0,9.0,0,14481.0,0,0,0,
2026-04-18 21:55:00,METAR KVNC 182155Z AUTO 28009KT 10SM CLR 26/22 A2997 RMK AO2 T02570218 $,0,9.0,0,16090.0,0,0,0,
2026-04-18 21:35:00,METAR KVNC 182135Z AUTO 27010KT 10SM CLR 26/22 A2996 RMK AO2 T02580218 $,0,10.0,0,16090.0,0,0,0,
2026-04-18 21:15:00,METAR KVNC 182115Z AUTO 26009KT 10SM CLR 26/22 A2996 RMK AO2 T02630221 $,0,9.0,0,16090.0,0,0,0,
2026-04-18 20:55:00,METAR KVNC 182055Z AUTO 27009KT 10SM CLR 27/22 A2997 RMK AO2 T02680221 57016 $,0,9.0,0,16090.0,0,0,0,
2026-04-18 20:35:00,METAR KVNC 182035Z AUTO 26009KT 10SM CLR 26/22 A2997 RMK AO2 T02610219 $,0,9.0,0,16090.0,0,0,0,
2026-04-18 20:15:00,METAR KVNC 182015Z AUTO 26009KT 9SM FEW380 27/22 A2998 RMK AO2 T02650221 $,0,9.0,0,14481.0,0,0,0,
2026-04-18 19:55:00,METAR KVNC 181955Z AUTO 24009KT 9SM CLR 27/22 A2999 RMK AO2 T02660223 $,0,9.0,0,14481.0,0,0,0,
2026-04-18 19:35:00,METAR KVNC 181935Z AUTO 24009KT 10SM CLR 27/22 A2999 RMK AO2 T02660222 $,0,9.0,0,16090.0,0,0,0,
2026-04-18 19:15:00,METAR KVNC 181915Z AUTO 24010KT 10SM CLR 27/22 A3000 RMK AO2 T02690223 $,0,10.0,0,16090.0,0,0,0,
2026-04-18 18:55:00,METAR KVNC 181855Z AUTO 23011KT 9SM FEW350 27/22 A3000 RMK AO2 T02680223 $,0,11.0,0,14481.0,0,0,0,
2026-04-18 18:35:00,METAR KVNC 181835Z AUTO 22012KT 10SM FEW320 27/22 A3000 RMK AO2 T02670223 $,0,12.0,0,16090.0,0,0,0,
2026-04-18 18:15:00,METAR KVNC 181815Z AUTO 22011KT 10SM FEW320 28/22 A3000 RMK AO2 T02750223 $,0,11.0,0,16090.0,0,0,0,
2026-04-18 17:55:00,METAR KVNC 181755Z AUTO 22011KT 10SM FEW340 27/22 A3002 RMK AO2 T02700222 10283 20218 58004 $,0,11.0,0,16090.0,0,0,0,
2026-04-18 17:15:00,METAR KVNC 181715Z AUTO 21011KT 10SM FEW370 27/22 A3002 RMK AO2 T02750217 $,0,11.0,0,16090.0,0,0,0,
2026-04-18 16:55:00,METAR KVNC 181655Z AUTO 21010KT 10SM CLR 27/22 A3002 RMK AO2 T02700219 $,0,10.0,0,16090.0,0,0,0,
2026-04-18 16:35:00,METAR KVNC 181635Z AUTO 20010KT 10SM CLR 27/21 A3002 RMK AO2 T02700214 $,0,10.0,0,16090.0,0,0,0,
2026-04-18 16:15:00,METAR KVNC 181615Z AUTO 20009KT 10SM FEW035 27/21 A3003 RMK AO2 T02730210 $,0,9.0,0,16090.0,0,0,0,
2026-04-18 15:55:00,METAR KVNC 181555Z AUTO 21009KT 10SM BKN035 BKN060 26/22 A3003 RMK AO2 T02640219 $,0,9.0,0,16090.0,0,0,0,
2026-04-18 15:15:00,METAR KVNC 181515Z AUTO 16008KT 10SM BKN031 BKN060 28/20 A3002 RMK AO2 T02830200 $,0,8.0,0,16090.0,0,0,0,
2026-04-18 14:55:00,METAR KVNC 181455Z AUTO 14006KT 10SM SCT028 SCT037 BKN060 28/20 A3003 RMK AO2 T02750200 52007 $,0,6.0,0,16090.0,0,0,0,
2026-04-18 14:35:00,METAR KVNC 181435Z AUTO 14009KT 10SM SCT027 27/20 A3002 RMK AO2 T02740199 $,0,9.0,0,16090.0,0,0,0,
2026-04-18 14:15:00,METAR KVNC 181415Z AUTO 11008KT 10SM FEW022 27/21 A3002 RMK AO2 T02680205 $,0,8.0,0,16090.0,0,0,0,
2026-04-18 13:55:00,METAR KVNC 181355Z AUTO 14007KT 10SM FEW019 26/21 A3002 RMK AO2 T02610210 $,0,7.0,0,16090.0,0,0,0,
2026-04-18 13:35:00,METAR KVNC 181335Z AUTO 13006KT 10SM CLR 25/21 A3002 RMK AO2 T02530211 $,0,6.0,0,16090.0,0,0,0,
2026-04-18 13:15:00,METAR KVNC 181315Z AUTO 10006KT 10SM FEW065 25/21 A3002 RMK AO2 T02480210 $,0,6.0,0,16090.0,0,0,0,
2026-04-18 12:55:00,METAR KVNC 181255Z AUTO 10006KT 10SM CLR 23/21 A3001 RMK AO2 T02330210 $,0,6.0,0,16090.0,0,0,0,
2026-04-18 12:35:00,METAR KVNC 181235Z AUTO 09005KT 10SM CLR 23/21 A3001 RMK AO2 T02290209 $,0,5.0,0,16090.0,0,0,0,
2026-04-18 12:15:00,METAR KVNC 181215Z AUTO 10006KT 9SM CLR 22/21 A3001 RMK AO2 T02250208 $,0,6.0,0,14481.0,0,0,0,
2026-04-18 11:55:00,METAR KVNC 181155Z AUTO 09005KT 9SM CLR 21/20 A3001 RMK AO2 T02100201 10210 20191 53015 $,0,5.0,0,14481.0,0,0,0,
2026-04-18 11:35:00,METAR KVNC 181135Z AUTO 09005KT 9SM CLR 20/20 A3000 RMK AO2 T02030196 $,0,5.0,0,14481.0,0,0,0,
2026-04-18 11:15:00,METAR KVNC 181115Z AUTO 09005KT 8SM CLR 20/19 A2999 RMK AO2 T01980191 $,0,5.0,0,12872.0,0,0,0,
2026-04-18 10:55:00,METAR KVNC 181055Z AUTO 07005KT 10SM CLR 19/19 A2999 RMK AO2 T01940187 $,0,5.0,0,16090.0,0,0,0,
2026-04-18 10:35:00,METAR KVNC 181035Z AUTO 06003KT 10SM CLR 19/18 A2999 RMK AO2 T01910185 $,0,3.0,0,16090.0,0,0,0,
2026-04-18 10:15:00,METAR KVNC 181015Z AUTO 06004KT 10SM CLR 19/18 A2998 RMK AO2 T01910183 $,0,4.0,0,16090.0,0,0,0,
2026-04-18 09:55:00,METAR KVNC 180955Z AUTO 06006KT 10SM CLR 19/18 A2997 RMK AO2 T01930184 $,0,6.0,0,16090.0,0,0,0,
2026-04-18 09:35:00,METAR KVNC 180935Z AUTO 05005KT 10SM CLR 19/18 A2997 RMK AO2 T01920182 $,0,5.0,0,16090.0,0,0,0,
2026-04-18 09:15:00,METAR KVNC 180915Z AUTO 05005KT 10SM CLR 19/18 A2997 RMK AO2 T01920180 $,0,5.0,0,16090.0,0,0,0,
2026-04-18 08:55:00,METAR KVNC 180855Z AUTO 06005KT 10SM CLR 19/18 A2996 RMK AO2 T01940179 55010 $,0,5.0,0,16090.0,0,0,0,
2026-04-18 08:35:00,METAR KVNC 180835Z AUTO 06005KT 10SM CLR 19/18 A2997 RMK AO2 T01940177 $,0,5.0,0,16090.0,0,0,0,
2026-04-18 08:15:00,METAR KVNC 180815Z AUTO 06004KT 10SM CLR 19/17 A2996 RMK AO2 T01940172 $,0,4.0,0,16090.0,0,0,0,
2026-04-18 07:55:00,METAR KVNC 180755Z AUTO 07004KT 10SM CLR 20/17 A2996 RMK AO2 T01980169 $,0,4.0,0,16090.0,0,0,0,
2026-04-18 07:35:00,METAR KVNC 180735Z AUTO 07004KT 10SM CLR 20/17 A2996 RMK AO2 T01990166 $,0,4.0,0,16090.0,0,0,0,
2026-04-18 07:15:00,METAR KVNC 180715Z AUTO 06004KT 10SM CLR 20/16 A2997 RMK AO2 T01990163 $,0,4.0,0,16090.0,0,0,0,
2026-04-18 06:55:00,METAR KVNC 180655Z AUTO 05004KT 10SM CLR 20/16 A2997 RMK AO2 T01990163 $,0,4.0,0,16090.0,0,0,0,
2026-04-18 06:35:00,METAR KVNC 180635Z AUTO 06004KT 10SM CLR 20/16 A2997 RMK AO2 T02000163 $,0,4.0,0,16090.0,0,0,0,
2026-04-18 06:15:00,METAR KVNC 180615Z AUTO 06005KT 10SM CLR 20/16 A2998 RMK AO2 T02040164 $,0,5.0,0,16090.0,0,0,0,
2026-04-18 05:55:00,METAR KVNC 180555Z AUTO 05005KT 10SM CLR 20/16 A2999 RMK AO2 T01990162 10244 20198 58010 $,0,5.0,0,16090.0,0,0,0,
2026-04-18 05:35:00,METAR KVNC 180535Z AUTO 05004KT 10SM CLR 20/16 A3000 RMK AO2 T02010161 $,0,4.0,0,16090.0,0,0,0,
2026-04-18 05:15:00,METAR KVNC 180515Z AUTO 04004KT 10SM CLR 20/16 A3000 RMK AO2 T02030160 $,0,4.0,0,16090.0,0,0,0,
2026-04-18 04:55:00,METAR KVNC 180455Z AUTO 04004KT 10SM CLR 21/16 A3000 RMK AO2 T02070160 402820170 $,0,4.0,0,16090.0,0,0,0,
2026-04-18 04:35:00,METAR KVNC 180435Z AUTO 04005KT 10SM CLR 20/16 A3001 RMK AO2 T02040159 $,0,5.0,0,16090.0,0,0,0,
2026-04-18 04:15:00,METAR KVNC 180415Z AUTO 05005KT 10SM CLR 21/16 A3001 RMK AO2 T02080158 $,0,5.0,0,16090.0,0,0,0,
2026-04-18 03:55:00,METAR KVNC 180355Z AUTO 06003KT 10SM CLR 21/16 A3002 RMK AO2 T02150160 $,0,3.0,0,16090.0,0,0,0,
2026-04-18 03:35:00,METAR KVNC 180335Z AUTO 05004KT 10SM CLR 22/16 A3002 RMK AO2 T02160159 $,0,4.0,0,16090.0,0,0,0,
2026-04-18 03:15:00,METAR KVNC 180315Z AUTO 07005KT 10SM CLR 22/16 A3002 RMK AO2 T02180161 $,0,5.0,0,16090.0,0,0,0,
2026-04-18 02:55:00,METAR KVNC 180255Z AUTO 06003KT 10SM CLR 22/16 A3002 RMK AO2 T02240163 53013 $,0,3.0,0,16090.0,0,0,0,
2026-04-18 02:35:00,METAR KVNC 180235Z AUTO 04003KT 10SM CLR 22/16 A3003 RMK AO2 T02220162 $,0,3.0,0,16090.0,0,0,0,
2026-04-18 02:15:00,METAR KVNC 180215Z AUTO 02005KT 10SM CLR 23/16 A3002 RMK AO2 T02270162 $,0,5.0,0,16090.0,0,0,0,
2026-04-18 01:55:00,METAR KVNC 180155Z AUTO 35003KT 10SM CLR 24/17 A3001 RMK AO2 T02390167 $,0,3.0,0,16090.0,0,0,0,
2026-04-18 01:35:00,METAR KVNC 180135Z AUTO 34004KT 10SM CLR 24/17 A3001 RMK AO2 T02400171 $,0,4.0,0,16090.0,0,0,0,
2026-04-18 01:15:00,METAR KVNC 180115Z AUTO 34005KT 10SM CLR 24/17 A3000 RMK AO2 T02400168 $,0,5.0,0,16090.0,0,0,0,
2026-04-18 00:55:00,METAR KVNC 180055Z AUTO 30003KT 10SM CLR 24/17 A2998 RMK AO2 T02380165 $,0,3.0,0,16090.0,0,0,0,
2026-04-18 00:35:00,METAR KVNC 180035Z AUTO 31003KT 10SM CLR 24/16 A2998 RMK AO2 T02390165 $,0,3.0,0,16090.0,0,0,0,
2026-04-18 00:15:00,METAR KVNC 180015Z AUTO 32006KT 10SM CLR 24/17 A2998 RMK AO2 T02420168 $,0,6.0,0,16090.0,0,0,0,
2026-04-17 23:55:00,METAR KVNC 172355Z AUTO 31007KT 10SM CLR 24/17 A2998 RMK AO2 T02440169 10276 20244 56008 $,0,7.0,0,16090.0,0,0,0,
2026-04-17 23:35:00,METAR KVNC 172335Z AUTO 30007KT 10SM CLR 25/17 A2998 RMK AO2 T02470169 $,0,7.0,0,16090.0,0,0,0,
2026-04-17 23:15:00,METAR KVNC 172315Z AUTO 31007KT 10SM CLR 25/17 A2998 RMK AO2 T02490172 $,0,7.0,0,16090.0,0,0,0,
2026-04-17 22:55:00,METAR KVNC 172255Z AUTO 31010KT 10SM CLR 25/18 A2999 RMK AO2 T02520176 $,0,10.0,0,16090.0,0,0,0,
2026-04-17 22:35:00,METAR KVNC 172235Z AUTO 30010KT 10SM CLR 26/17 A2998 RMK AO2 T02570175 $,0,10.0,0,16090.0,0,0,0,
2026-04-17 22:15:00,METAR KVNC 172215Z AUTO 31010KT 10SM CLR 26/18 A2999 RMK AO2 T02580178 $,0,10.0,0,16090.0,0,0,0,
2026-04-17 21:55:00,METAR KVNC 172155Z AUTO 30011KT 9SM CLR 26/19 A2999 RMK AO2 T02590186 $,0,11.0,0,14481.0,0,0,0,
2026-04-17 21:35:00,METAR KVNC 172135Z AUTO 30011KT 9SM CLR 26/19 A3000 RMK AO2 T02590191 $,0,11.0,0,14481.0,0,0,0,
2026-04-17 21:15:00,METAR KVNC 172115Z AUTO 29011KT 9SM CLR 27/18 A3000 RMK AO2 T02650183 $,0,11.0,0,14481.0,0,0,0,
2026-04-17 20:55:00,METAR KVNC 172055Z AUTO 30012KT 9SM CLR 27/18 A3001 RMK AO2 T02670180 56017 $,0,12.0,0,14481.0,0,0,0,
2026-04-17 20:35:00,METAR KVNC 172035Z AUTO 29010KT 10SM CLR 27/18 A3001 RMK AO2 T02700180 $,0,10.0,0,16090.0,0,0,0,
2026-04-17 20:15:00,METAR KVNC 172015Z AUTO 28010KT 10SM CLR 27/18 A3001 RMK AO2 T02690175 $,0,10.0,0,16090.0,0,0,0,
2026-04-17 19:55:00,METAR KVNC 171955Z AUTO 29010KT 9SM CLR 27/18 A3002 RMK AO2 T02680177 $,0,10.0,0,14481.0,0,0,0,
2026-04-17 19:35:00,METAR KVNC 171935Z AUTO 29011KT 9SM CLR 27/18 A3002 RMK AO2 T02680176 $,0,11.0,0,14481.0,0,0,0,
2026-04-17 19:15:00,METAR KVNC 171915Z AUTO 27010KT 10SM FEW340 27/18 A3003 RMK AO2 T02700177 $,0,10.0,0,16090.0,0,0,0,
2026-04-17 18:55:00,METAR KVNC 171855Z AUTO 28010KT 10SM FEW320 27/18 A3003 RMK AO2 T02680179 $,0,10.0,0,16090.0,0,0,0,
2026-04-17 18:35:00,METAR KVNC 171835Z AUTO 27011KT 10SM FEW330 27/18 A3004 RMK AO2 T02670183 $,0,11.0,0,16090.0,0,0,0,
2026-04-17 18:15:00,METAR KVNC 171815Z AUTO 27011KT 10SM CLR 27/19 A3005 RMK AO2 T02680190 $,0,11.0,0,16090.0,0,0,0,
2026-04-17 17:55:00,METAR KVNC 171755Z AUTO 25009KT 10SM FEW330 27/19 A3006 RMK AO2 T02680189 10282 20181 57013 $,0,9.0,0,16090.0,0,0,0,
2026-04-17 17:35:00,METAR KVNC 171735Z AUTO 27009KT 10SM FEW350 28/18 A3006 RMK AO2 T02780177 $,0,9.0,0,16090.0,0,0,0,
2026-04-17 17:15:00,METAR KVNC 171715Z AUTO 27010KT 10SM FEW360 28/16 A3006 RMK AO2 T02800161 $,0,10.0,0,16090.0,0,0,0,
2026-04-17 16:55:00,METAR KVNC 171655Z AUTO 27009KT 10SM CLR 28/16 A3006 RMK AO2 T02790158 $,0,9.0,0,16090.0,0,0,0,
2026-04-17 16:35:00,METAR KVNC 171635Z AUTO 27008KT 10SM CLR 28/16 A3007 RMK AO2 T02820164 $,0,8.0,0,16090.0,0,0,0,
2026-04-17 16:15:00,METAR KVNC 171615Z AUTO VRB06KT 10SM CLR 28/16 A3008 RMK AO2 T02800158 $,0,6.0,0,16090.0,0,0,0,
2026-04-17 15:55:00,METAR KVNC 171555Z AUTO 29007KT 10SM CLR 27/16 A3009 RMK AO2 T02750156 $,0,7.0,0,16090.0,0,0,0,
2026-04-17 15:35:00,METAR KVNC 171535Z AUTO 00000KT 10SM CLR 27/13 A3009 RMK AO2 T02680134 $,0,0.0,0,16090.0,0,0,0,
2026-04-17 15:15:00,METAR KVNC 171515Z AUTO 04007KT 10SM CLR 27/15 A3009 RMK AO2 T02680147 $,0,7.0,0,16090.0,0,0,0,
2026-04-17 14:55:00,METAR KVNC 171455Z AUTO 02008KT 10SM CLR 27/14 A3010 RMK AO2 T02680142 51010 $,0,8.0,0,16090.0,0,0,0,
2026-04-17 14:35:00,METAR KVNC 171435Z AUTO 07006KT 10SM CLR 26/14 A3009 RMK AO2 T02650142 $,0,6.0,0,16090.0,0,0,0,
2026-04-17 14:15:00,METAR KVNC 171415Z AUTO 02004KT 10SM CLR 26/16 A3008 RMK AO2 T02610162 $,0,4.0,0,16090.0,0,0,0,
2026-04-17 13:55:00,METAR KVNC 171355Z AUTO 00000KT 9SM CLR 24/18 A3008 RMK AO2 T02440184 $,0,0.0,0,14481.0,0,0,0,
2026-04-17 13:35:00,METAR KVNC 171335Z AUTO 04003KT 9SM CLR 24/19 A3008 RMK AO2 T02390190 $,0,3.0,0,14481.0,0,0,0,
2026-04-17 13:15:00,METAR KVNC 171315Z AUTO 00000KT 10SM CLR 23/19 A3009 RMK AO2 T02340188 $,0,0.0,0,16090.0,0,0,0,
2026-04-17 12:55:00,METAR KVNC 171255Z AUTO 00000KT 10SM BKN050 22/19 A3008 RMK AO2 T02220188 $,0,0.0,0,16090.0,0,0,0,
2026-04-17 12:35:00,METAR KVNC 171235Z AUTO 03003KT 9SM BKN050 21/19 A3008 RMK AO2 T02130186 $,0,3.0,0,14481.0,0,0,0,
2026-04-17 12:15:00,METAR KVNC 171215Z AUTO 05004KT 9SM SCT050 19/17 A3007 RMK AO2 T01900173 $,0,4.0,0,14481.0,0,0,0,
2026-04-17 11:55:00,METAR KVNC 171155Z AUTO 05004KT 9SM CLR 18/16 A3007 RMK AO2 T01760165 10194 20170 53017 $,0,4.0,0,14481.0,0,0,0,
2026-04-17 11:35:00,METAR KVNC 171135Z AUTO 06004KT 9SM CLR 17/16 A3006 RMK AO2 T01730163 $,0,4.0,0,14481.0,0,0,0,
2026-04-17 11:15:00,METAR KVNC 171115Z AUTO 06006KT 9SM CLR 17/16 A3005 RMK AO2 T01720162 $,0,6.0,0,14481.0,0,0,0,
2026-04-17 10:55:00,METAR KVNC 171055Z AUTO 06005KT 10SM CLR 17/16 A3005 RMK AO2 T01700159 $,0,5.0,0,16090.0,0,0,0,
2026-04-17 10:35:00,METAR KVNC 171035Z AUTO 06005KT 10SM CLR 17/16 A3004 RMK AO2 T01730160 $,0,5.0,0,16090.0,0,0,0,
2026-04-17 10:15:00,METAR KVNC 171015Z AUTO 06004KT 10SM CLR 18/16 A3004 RMK AO2 T01760164 $,0,4.0,0,16090.0,0,0,0,
2026-04-17 09:55:00,METAR KVNC 170955Z AUTO 06003KT 10SM CLR 18/16 A3003 RMK AO2 T01770164 $,0,3.0,0,16090.0,0,0,0,
2026-04-17 09:35:00,METAR KVNC 170935Z AUTO 07004KT 10SM CLR 18/17 A3003 RMK AO2 T01790166 $,0,4.0,0,16090.0,0,0,0,
2026-04-17 09:15:00,METAR KVNC 170915Z AUTO 08004KT 10SM CLR 18/17 A3002 RMK AO2 T01800166 $,0,4.0,0,16090.0,0,0,0,
2026-04-17 08:55:00,METAR KVNC 170855Z AUTO 09004KT 10SM CLR 18/17 A3002 RMK AO2 T01840168 55012 $,0,4.0,0,16090.0,0,0,0,
2026-04-17 08:35:00,METAR KVNC 170835Z AUTO 10004KT 10SM CLR 19/17 A3001 RMK AO2 T01850168 $,0,4.0,0,16090.0,0,0,0,
2026-04-17 08:15:00,METAR KVNC 170815Z AUTO 10004KT 10SM CLR 19/17 A3001 RMK AO2 T01890169 $,0,4.0,0,16090.0,0,0,0,
2026-04-17 07:55:00,METAR KVNC 170755Z AUTO 10004KT 10SM CLR 19/16 A3001 RMK AO2 T01850165 $,0,4.0,0,16090.0,0,0,0,
2026-04-17 07:35:00,METAR KVNC 170735Z AUTO 10004KT 10SM CLR 18/16 A3001 RMK AO2 T01850164 $,0,4.0,0,16090.0,0,0,0,
2026-04-17 07:15:00,METAR KVNC 170715Z AUTO 11004KT 10SM CLR 18/16 A3002 RMK AO2 T01840162 $,0,4.0,0,16090.0,0,0,0,
2026-04-17 06:55:00,METAR KVNC 170655Z AUTO 09005KT 10SM CLR 19/16 A3003 RMK AO2 T01880162 $,0,5.0,0,16090.0,0,0,0,
2026-04-17 06:35:00,METAR KVNC 170635Z AUTO 09006KT 10SM CLR 19/16 A3004 RMK AO2 T01900163 $,0,6.0,0,16090.0,0,0,0,
2026-04-17 06:15:00,METAR KVNC 170615Z AUTO 09005KT 10SM CLR 19/16 A3004 RMK AO2 T01900163 $,0,5.0,0,16090.0,0,0,0,
2026-04-17 05:55:00,METAR KVNC 170555Z AUTO 07005KT 10SM CLR 19/16 A3005 RMK AO2 T01930165 10230 20191 58004 $,0,5.0,0,16090.0,0,0,0,
2026-04-17 05:35:00,METAR KVNC 170535Z AUTO 08005KT 10SM CLR 19/17 A3006 RMK AO2 T01940167 $,0,5.0,0,16090.0,0,0,0,
2026-04-17 05:15:00,METAR KVNC 170515Z AUTO 04005KT 10SM CLR 19/17 A3006 RMK AO2 T01930167 $,0,5.0,0,16090.0,0,0,0,
2026-04-17 04:55:00,METAR KVNC 170455Z AUTO 03005KT 10SM CLR 19/16 A3006 RMK AO2 T01920164 402660151 $,0,5.0,0,16090.0,0,0,0,
2026-04-17 04:35:00,METAR KVNC 170435Z AUTO 04004KT 10SM CLR 19/16 A3006 RMK AO2 T01920162 $,0,4.0,0,16090.0,0,0,0,
2026-04-17 04:15:00,METAR KVNC 170415Z AUTO 03004KT 10SM CLR 20/16 A3006 RMK AO2 T01950163 $,0,4.0,0,16090.0,0,0,0,
2026-04-17 03:55:00,METAR KVNC 170355Z AUTO 04004KT 10SM CLR 20/17 A3006 RMK AO2 T02020165 $,0,4.0,0,16090.0,0,0,0,
2026-04-17 03:35:00,METAR KVNC 170335Z AUTO 03004KT 10SM CLR 20/17 A3007 RMK AO2 T02040166 $,0,4.0,0,16090.0,0,0,0,
2026-04-17 03:15:00,METAR KVNC 170315Z AUTO 05004KT 10SM CLR 20/17 A3006 RMK AO2 T02040166 $,0,4.0,0,16090.0,0,0,0,
2026-04-17 02:55:00,METAR KVNC 170255Z AUTO 02004KT 10SM CLR 22/17 A3006 RMK AO2 T02160168 53006 $,0,4.0,0,16090.0,0,0,0,
2026-04-17 02:35:00,METAR KVNC 170235Z AUTO 02005KT 10SM CLR 22/17 A3007 RMK AO2 T02200169 $,0,5.0,0,16090.0,0,0,0,
2026-04-17 02:15:00,METAR KVNC 170215Z AUTO VRB06KT 10SM CLR 23/17 A3006 RMK AO2 T02260173 $,0,6.0,0,16090.0,0,0,0,
2026-04-17 01:55:00,METAR KVNC 170155Z AUTO 33007KT 10SM CLR 23/17 A3005 RMK AO2 T02280172 $,0,7.0,0,16090.0,0,0,0,
2026-04-17 01:35:00,METAR KVNC 170135Z AUTO 32008KT 10SM CLR 23/17 A3005 RMK AO2 T02280171 $,0,8.0,0,16090.0,0,0,0,
2026-04-17 01:15:00,METAR KVNC 170115Z AUTO 33008KT 10SM CLR 23/17 A3004 RMK AO2 T02280170 $,0,8.0,0,16090.0,0,0,0,
2026-04-17 00:55:00,METAR KVNC 170055Z AUTO 33008KT 10SM CLR 23/17 A3004 RMK AO2 T02270169 $,0,8.0,0,16090.0,0,0,0,
2026-04-17 00:35:00,METAR KVNC 170035Z AUTO 32008KT 10SM CLR 23/17 A3004 RMK AO2 T02270167 $,0,8.0,0,16090.0,0,0,0,
2026-04-17 00:15:00,METAR KVNC 170015Z AUTO 32008KT 10SM CLR 23/17 A3004 RMK AO2 T02280166 $,0,8.0,0,16090.0,0,0,0,
2026-04-16 23:55:00,METAR KVNC 162355Z AUTO 31009KT 10SM CLR 23/16 A3004 RMK AO2 T02310159 10266 20231 58001 $,0,9.0,0,16090.0,0,0,0,
2026-04-16 23:35:00,METAR KVNC 162335Z AUTO 32008KT 10SM CLR 23/16 A3005 RMK AO2 T02330157 $,0,8.0,0,16090.0,0,0,0,
2026-04-16 23:15:00,METAR KVNC 162315Z AUTO 31009KT 10SM CLR 24/15 A3004 RMK AO2 T02370152 $,0,9.0,0,16090.0,0,0,0,
2026-04-16 22:55:00,METAR KVNC 162255Z AUTO 31012KT 10SM CLR 24/15 A3005 RMK AO2 T02390151 $,0,12.0,0,16090.0,0,0,0,
2026-04-16 22:35:00,METAR KVNC 162235Z AUTO 31011KT 10SM CLR 24/16 A3005 RMK AO2 T02440158 $,0,11.0,0,16090.0,0,0,0,
2026-04-16 22:15:00,METAR KVNC 162215Z AUTO 31011KT 10SM CLR 25/16 A3005 RMK AO2 T02480156 $,0,11.0,0,16090.0,0,0,0,
2026-04-16 21:55:00,METAR KVNC 162155Z AUTO 30013KT 10SM CLR 25/15 A3005 RMK AO2 T02510151 $,0,13.0,0,16090.0,0,0,0,
2026-04-16 21:35:00,METAR KVNC 162135Z AUTO 30013KT 9SM CLR 25/15 A3005 RMK AO2 T02510154 $,0,13.0,0,14481.0,0,0,0,
2026-04-16 21:15:00,METAR KVNC 162115Z AUTO 28012KT 9SM CLR 25/15 A3005 RMK AO2 T02530150 $,0,12.0,0,14481.0,0,0,0,
2026-04-16 20:55:00,METAR KVNC 162055Z AUTO 30012KT 10SM CLR 26/14 A3005 RMK AO2 T02560143 58023 $,0,12.0,0,16090.0,0,0,0,
2026-04-16 20:35:00,METAR KVNC 162035Z AUTO 30012KT 10SM CLR 26/14 A3005 RMK AO2 T02580144 $,0,12.0,0,16090.0,0,0,0,
2026-04-16 20:15:00,METAR KVNC 162015Z AUTO 30013KT 10SM CLR 26/14 A3007 RMK AO2 T02580144 $,0,13.0,0,16090.0,0,0,0,
2026-04-16 19:55:00,METAR KVNC 161955Z AUTO 29011KT 10SM CLR 26/16 A3008 RMK AO2 T02630157 $,0,11.0,0,16090.0,0,0,0,
2026-04-16 19:35:00,METAR KVNC 161935Z AUTO 30012KT 10SM CLR 26/16 A3008 RMK AO2 T02620158 $,0,12.0,0,16090.0,0,0,0,
2026-04-16 19:15:00,METAR KVNC 161915Z AUTO 29010KT 10SM FEW340 26/16 A3009 RMK AO2 T02620158 $,0,10.0,0,16090.0,0,0,0,
2026-04-16 18:55:00,METAR KVNC 161855Z AUTO 28010KT 10SM FEW330 26/16 A3009 RMK AO2 T02590156 $,0,10.0,0,16090.0,0,0,0,
2026-04-16 18:35:00,METAR KVNC 161835Z AUTO 28011KT 10SM FEW350 26/16 A3010 RMK AO2 T02600156 $,0,11.0,0,16090.0,0,0,0,
2026-04-16 18:15:00,METAR KVNC 161815Z AUTO 30010KT 10SM FEW350 26/16 A3011 RMK AO2 T02610156 $,0,10.0,0,16090.0,0,0,0,
2026-04-16 17:55:00,METAR KVNC 161755Z AUTO 26009KT 10SM CLR 26/16 A3012 RMK AO2 T02560156 10260 20171 58013 $,0,9.0,0,16090.0,0,0,0,
2026-04-16 17:35:00,METAR KVNC 161735Z AUTO 28009KT 10SM CLR 25/15 A3012 RMK AO2 T02530154 $,0,9.0,0,16090.0,0,0,0,
2026-04-16 17:15:00,METAR KVNC 161715Z AUTO 28008KT 10SM FEW350 26/15 A3013 RMK AO2 T02580152 $,0,8.0,0,16090.0,0,0,0,
2026-04-16 16:55:00,METAR KVNC 161655Z AUTO 26008KT 10SM CLR 25/15 A3013 RMK AO2 T02540149 $,0,8.0,0,16090.0,0,0,0,
2026-04-16 16:35:00,METAR KVNC 161635Z AUTO 26009KT 10SM CLR 26/15 A3013 RMK AO2 T02580154 $,0,9.0,0,16090.0,0,0,0,
2026-04-16 16:15:00,METAR KVNC 161615Z AUTO 28006KT 10SM CLR 26/15 A3014 RMK AO2 T02560148 $,0,6.0,0,16090.0,0,0,0,
2026-04-16 15:55:00,METAR KVNC 161555Z AUTO 27003KT 10SM CLR 25/15 A3015 RMK AO2 T02550149 $,0,3.0,0,16090.0,0,0,0,
2026-04-16 15:35:00,METAR KVNC 161535Z AUTO 00000KT 10SM CLR 25/15 A3015 RMK AO2 T02530147 $,0,0.0,0,16090.0,0,0,0,
2026-04-16 14:55:00,METAR KVNC 161455Z AUTO 28004KT 10SM CLR 25/15 A3015 RMK AO2 T02470147 52014 $,0,4.0,0,16090.0,0,0,0,
2026-04-16 14:35:00,METAR KVNC 161435Z AUTO 00000KT 10SM CLR 24/14 A3015 RMK AO2 T02430141 $,0,0.0,0,16090.0,0,0,0,
2026-04-16 14:15:00,METAR KVNC 161415Z AUTO VRB03KT 10SM CLR 24/15 A3015 RMK AO2 T02400147 $,0,3.0,0,16090.0,0,0,0,
2026-04-16 13:55:00,METAR KVNC 161355Z AUTO VRB03KT 10SM CLR 23/15 A3014 RMK AO2 T02310148 $,0,3.0,0,16090.0,0,0,0,
2026-04-16 13:35:00,METAR KVNC 161335Z AUTO 08005KT 9SM CLR 22/15 A3014 RMK AO2 T02250153 $,0,5.0,0,14481.0,0,0,0,
2026-04-16 13:15:00,METAR KVNC 161315Z AUTO 07004KT 10SM CLR 21/15 A3013 RMK AO2 T02120152 $,0,4.0,0,16090.0,0,0,0,
2026-04-16 12:55:00,METAR KVNC 161255Z AUTO 06005KT 10SM CLR 19/15 A3013 RMK AO2 T01940152 $,0,5.0,0,16090.0,0,0,0,
2026-04-16 12:35:00,METAR KVNC 161235Z AUTO 06006KT 10SM CLR 19/15 A3013 RMK AO2 T01870153 $,0,6.0,0,16090.0,0,0,0,
2026-04-16 12:15:00,METAR KVNC 161215Z AUTO 07005KT 9SM CLR 18/15 A3012 RMK AO2 T01780150 $,0,5.0,0,14481.0,0,0,0,
2026-04-16 11:55:00,METAR KVNC 161155Z AUTO 07005KT 9SM CLR 17/15 A3011 RMK AO2 T01670149 10185 20151 53008 $,0,5.0,0,14481.0,0,0,0,
2026-04-16 11:35:00,METAR KVNC 161135Z AUTO 07006KT 9SM CLR 16/14 A3011 RMK AO2 T01590145 $,0,6.0,0,14481.0,0,0,0,
2026-04-16 11:15:00,METAR KVNC 161115Z AUTO 07005KT 10SM CLR 16/14 A3011 RMK AO2 T01580144 $,0,5.0,0,16090.0,0,0,0,
2026-04-16 10:55:00,METAR KVNC 161055Z AUTO 06006KT 10SM CLR 15/14 A3011 RMK AO2 T01520139 $,0,6.0,0,16090.0,0,0,0,
2026-04-16 10:35:00,METAR KVNC 161035Z AUTO 04004KT 10SM CLR 16/14 A3011 RMK AO2 T01590143 $,0,4.0,0,16090.0,0,0,0,
2026-04-16 10:15:00,METAR KVNC 161015Z AUTO 03004KT 10SM CLR 16/14 A3010 RMK AO2 T01560141 $,0,4.0,0,16090.0,0,0,0,
2026-04-16 09:55:00,METAR KVNC 160955Z AUTO 06005KT 10SM CLR 16/15 A3009 RMK AO2 T01590145 $,0,5.0,0,16090.0,0,0,0,
2026-04-16 09:35:00,METAR KVNC 160935Z AUTO 06004KT 10SM CLR 16/15 A3009 RMK AO2 T01610146 $,0,4.0,0,16090.0,0,0,0,
2026-04-16 09:15:00,METAR KVNC 160915Z AUTO 07004KT 10SM CLR 16/15 A3008 RMK AO2 T01620145 $,0,4.0,0,16090.0,0,0,0,
2026-04-16 08:55:00,METAR KVNC 160855Z AUTO 07003KT 10SM CLR 17/15 A3009 RMK AO2 T01690149 57011 $,0,3.0,0,16090.0,0,0,0,
2026-04-16 08:35:00,METAR KVNC 160835Z AUTO 07003KT 10SM CLR 17/15 A3009 RMK AO2 T01700148 $,0,3.0,0,16090.0,0,0,0,
2026-04-16 08:15:00,METAR KVNC 160815Z AUTO 09003KT 10SM CLR 17/15 A3010 RMK AO2 T01730151 $,0,3.0,0,16090.0,0,0,0,
2026-04-16 07:55:00,METAR KVNC 160755Z AUTO 08004KT 10SM CLR 17/15 A3010 RMK AO2 T01720149 $,0,4.0,0,16090.0,0,0,0,
2026-04-16 07:35:00,METAR KVNC 160735Z AUTO 07004KT 10SM CLR 17/15 A3010 RMK AO2 T01750149 $,0,4.0,0,16090.0,0,0,0,
2026-04-16 07:15:00,METAR KVNC 160715Z AUTO 08004KT 10SM CLR 17/15 A3011 RMK AO2 T01730149 $,0,4.0,0,16090.0,0,0,0,
2026-04-16 06:55:00,METAR KVNC 160655Z AUTO 07005KT 10SM CLR 18/15 A3011 RMK AO2 T01790150 $,0,5.0,0,16090.0,0,0,0,
2026-04-16 06:35:00,METAR KVNC 160635Z AUTO 07004KT 10SM CLR 18/15 A3011 RMK AO2 T01790148 $,0,4.0,0,16090.0,0,0,0,
2026-04-16 06:15:00,METAR KVNC 160615Z AUTO 08004KT 10SM CLR 19/15 A3012 RMK AO2 T01850150 $,0,4.0,0,16090.0,0,0,0,
2026-04-16 05:55:00,METAR KVNC 160555Z AUTO 07004KT 10SM CLR 19/15 A3012 RMK AO2 T01870150 10229 20187 50001 $,0,4.0,0,16090.0,0,0,0,
2026-04-16 05:35:00,METAR KVNC 160535Z AUTO 07004KT 10SM CLR 19/15 A3012 RMK AO2 T01890150 $,0,4.0,0,16090.0,0,0,0,
2026-04-16 05:15:00,METAR KVNC 160515Z AUTO 07006KT 10SM CLR 19/15 A3012 RMK AO2 T01900153 $,0,6.0,0,16090.0,0,0,0,
2026-04-16 04:55:00,METAR KVNC 160455Z AUTO 05007KT 10SM CLR 19/15 A3013 RMK AO2 T01920154 402710158 $,0,7.0,0,16090.0,0,0,0,
2026-04-16 04:35:00,METAR KVNC 160435Z AUTO 05005KT 10SM CLR 19/15 A3013 RMK AO2 T01900154 $,0,5.0,0,16090.0,0,0,0,
2026-04-16 04:15:00,METAR KVNC 160415Z AUTO 04006KT 10SM CLR 20/15 A3013 RMK AO2 T01950153 $,0,6.0,0,16090.0,0,0,0,
2026-04-16 03:55:00,METAR KVNC 160355Z AUTO 03007KT 10SM CLR 20/15 A3013 RMK AO2 T02000152 $,0,7.0,0,16090.0,0,0,0,
2026-04-16 03:35:00,METAR KVNC 160335Z AUTO 04006KT 10SM CLR 20/15 A3013 RMK AO2 T02020150 $,0,6.0,0,16090.0,0,0,0,
2026-04-16 03:15:00,METAR KVNC 160315Z AUTO 02006KT 10SM CLR 20/15 A3012 RMK AO2 T02030147 $,0,6.0,0,16090.0,0,0,0,
2026-04-16 02:55:00,METAR KVNC 160255Z AUTO 02006KT 10SM CLR 21/14 A3012 RMK AO2 T02100142 53015 $,0,6.0,0,16090.0,0,0,0,
2026-04-16 02:35:00,METAR KVNC 160235Z AUTO 01004KT 10SM CLR 21/14 A3011 RMK AO2 T02130144 $,0,4.0,0,16090.0,0,0,0,
2026-04-16 02:15:00,METAR KVNC 160215Z AUTO 03003KT 10SM CLR 22/15 A3011 RMK AO2 T02210147 $,0,3.0,0,16090.0,0,0,0,
2026-04-16 01:55:00,METAR KVNC 160155Z AUTO 33006KT 10SM CLR 23/14 A3011 RMK AO2 T02250144 $,0,6.0,0,16090.0,0,0,0,
2026-04-16 01:35:00,METAR KVNC 160135Z AUTO 33005KT 10SM CLR 23/14 A3010 RMK AO2 T02260143 $,0,5.0,0,16090.0,0,0,0,
2026-04-16 01:15:00,METAR KVNC 160115Z AUTO 32005KT 10SM CLR 23/14 A3009 RMK AO2 T02260142 $,0,5.0,0,16090.0,0,0,0,
2026-04-16 00:55:00,METAR KVNC 160055Z AUTO 32005KT 10SM CLR 23/14 A3008 RMK AO2 T02260140 $,0,5.0,0,16090.0,0,0,0,
2026-04-16 00:35:00,METAR KVNC 160035Z AUTO 33004KT 10SM CLR 23/14 A3008 RMK AO2 T02270141 $,0,4.0,0,16090.0,0,0,0,
2026-04-16 00:15:00,METAR KVNC 160015Z AUTO 32005KT 10SM CLR 23/14 A3008 RMK AO2 T02280145 $,0,5.0,0,16090.0,0,0,0,
2026-04-15 23:55:00,METAR KVNC 152355Z AUTO 32006KT 10SM CLR 23/14 A3008 RMK AO2 T02300143 10268 20230 58002 $,0,6.0,0,16090.0,0,0,0,
2026-04-15 23:35:00,METAR KVNC 152335Z AUTO 32007KT 10SM CLR 23/14 A3008 RMK AO2 T02310143 $,0,7.0,0,16090.0,0,0,0,
2026-04-15 23:15:00,METAR KVNC 152315Z AUTO 31008KT 10SM CLR 24/14 A3008 RMK AO2 T02360145 $,0,8.0,0,16090.0,0,0,0,
2026-04-15 22:55:00,METAR KVNC 152255Z AUTO 31008KT 10SM CLR 24/14 A3008 RMK AO2 T02410142 $,0,8.0,0,16090.0,0,0,0,
2026-04-15 22:35:00,METAR KVNC 152235Z AUTO 31009KT 10SM CLR 24/14 A3008 RMK AO2 T02430143 $,0,9.0,0,16090.0,0,0,0,
2026-04-15 22:15:00,METAR KVNC 152215Z AUTO 29009KT 10SM CLR 24/14 A3008 RMK AO2 T02450141 $,0,9.0,0,16090.0,0,0,0,
2026-04-15 21:55:00,METAR KVNC 152155Z AUTO 28008KT 10SM CLR 25/14 A3008 RMK AO2 T02490143 $,0,8.0,0,16090.0,0,0,0,
2026-04-15 21:35:00,METAR KVNC 152135Z AUTO 29010KT 10SM CLR 25/14 A3008 RMK AO2 T02520143 $,0,10.0,0,16090.0,0,0,0,
2026-04-15 21:15:00,METAR KVNC 152115Z AUTO 28009KT 10SM CLR 25/14 A3008 RMK AO2 T02470143 $,0,9.0,0,16090.0,0,0,0,
2026-04-15 20:55:00,METAR KVNC 152055Z AUTO 28007KT 10SM CLR 25/14 A3008 RMK AO2 T02490144 58016 $,0,7.0,0,16090.0,0,0,0,
2026-04-15 20:35:00,METAR KVNC 152035Z AUTO 28008KT 10SM CLR 26/14 A3009 RMK AO2 T02550144 $,0,8.0,0,16090.0,0,0,0,
2026-04-15 20:15:00,METAR KVNC 152015Z AUTO 28008KT 10SM CLR 25/14 A3009 RMK AO2 T02540145 $,0,8.0,0,16090.0,0,0,0,
2026-04-15 19:55:00,METAR KVNC 151955Z AUTO 25007KT 10SM CLR 25/15 A3010 RMK AO2 T02530146 $,0,7.0,0,16090.0,0,0,0,
2026-04-15 19:35:00,METAR KVNC 151935Z AUTO 28009KT 10SM CLR 25/16 A3011 RMK AO2 T02500158 $,0,9.0,0,16090.0,0,0,0,
2026-04-15 19:15:00,METAR KVNC 151915Z AUTO 28011KT 10SM FEW370 25/15 A3012 RMK AO2 T02540154 $,0,11.0,0,16090.0,0,0,0,
2026-04-15 18:55:00,METAR KVNC 151855Z AUTO 27011KT 10SM FEW350 25/17 A3013 RMK AO2 T02530170 $,0,11.0,0,16090.0,0,0,0,
2026-04-15 18:35:00,METAR KVNC 151835Z AUTO 25010KT 10SM FEW340 27/18 A3013 RMK AO2 T02680177 $,0,10.0,0,16090.0,0,0,0,
2026-04-15 18:15:00,METAR KVNC 151815Z AUTO 22011KT 10SM CLR 26/16 A3012 RMK AO2 T02630156 $,0,11.0,0,16090.0,0,0,0,
2026-04-15 17:55:00,METAR KVNC 151755Z AUTO 22010KT 10SM FEW055 26/16 A3013 RMK AO2 60000 T02620157 10271 20175 56014 $,0,10.0,0,16090.0,0,0,0,
2026-04-15 17:35:00,METAR KVNC 151735Z AUTO 20008KT 170V250 10SM FEW360 26/16 A3013 RMK AO2 T02600158 $,0,8.0,0,16090.0,0,0,0,
2026-04-15 17:15:00,METAR KVNC 151715Z AUTO 03006KT 10SM FEW050 27/13 A3013 RMK AO2 T02690131 $,0,6.0,0,16090.0,0,0,0,
2026-04-15 16:55:00,METAR KVNC 151655Z AUTO 16011KT 10SM FEW050 26/14 A3014 RMK AO2 T02630137 $,0,11.0,0,16090.0,0,0,0,
2026-04-15 16:35:00,METAR KVNC 151635Z AUTO 09008KT 060V130 10SM FEW360 27/14 A3015 RMK AO2 T02650136 $,0,8.0,0,16090.0,0,0,0,
2026-04-15 16:15:00,METAR KVNC 151615Z AUTO VRB04KT 10SM FEW370 26/13 A3016 RMK AO2 T02580133 $,0,4.0,0,16090.0,0,0,0,
2026-04-15 15:55:00,METAR KVNC 151555Z AUTO 11006KT 10SM CLR 25/13 A3015 RMK AO2 T02540133 $,0,6.0,0,16090.0,0,0,0,
2026-04-15 15:35:00,METAR KVNC 151535Z AUTO 09012KT 10SM CLR 25/13 A3016 RMK AO2 T02540131 $,0,12.0,0,16090.0,0,0,0,
2026-04-15 15:15:00,METAR KVNC 151515Z AUTO 16007KT 10SM FEW043 25/13 A3016 RMK AO2 T02490127 $,0,7.0,0,16090.0,0,0,0,
2026-04-15 14:55:00,METAR KVNC 151455Z AUTO 13005KT 10SM CLR 25/14 A3017 RMK AO2 RAE1416 P0000 60000 T02460135 51010 $,0,5.0,0,16090.0,0,0,0,RA
2026-04-15 14:35:00,METAR KVNC 151435Z AUTO 09006KT 10SM CLR 24/14 A3017 RMK AO2 RAE1416 P0000 T02390144 $,0,6.0,0,16090.0,0,0,0,RA
2026-04-15 14:15:00,METAR KVNC 151415Z AUTO 10005KT 10SM -RA CLR 23/15 A3017 RMK AO2 P0000 T02340148 $,0,5.0,0,16090.0,0,0,0,-RA
2026-04-15 13:55:00,METAR KVNC 151355Z AUTO 11006KT 9SM -RA CLR 23/15 A3017 RMK AO2 P0000 T02260154 $,0,6.0,0,14481.0,0,0,0,-RA
2026-04-15 13:35:00,METAR KVNC 151335Z AUTO 08008KT 10SM CLR 22/15 A3016 RMK AO2 RAE1332 P0000 T02190153 $,0,8.0,0,16090.0,0,0,0,RA
2026-04-15 13:15:00,METAR KVNC 151315Z AUTO 08007KT 8SM -RA CLR 21/15 A3016 RMK AO2 P0000 T02110153 $,0,7.0,0,12872.0,0,0,0,-RA
2026-04-15 12:55:00,METAR KVNC 151255Z AUTO 07006KT 9SM -RA CLR 20/16 A3015 RMK AO2 P0000 T01990157 $,0,6.0,0,14481.0,0,0,0,-RA
2026-04-15 12:35:00,METAR KVNC 151235Z AUTO 07006KT 7SM -RA CLR 19/16 A3015 RMK AO2 P0000 T01900160 $,0,6.0,0,11263.0,0,0,0,-RA
2026-04-15 12:15:00,METAR KVNC 151215Z AUTO 07007KT 8SM -RA CLR 18/16 A3015 RMK AO2 P0000 T01810162 $,0,7.0,0,12872.0,0,0,0,-RA
2026-04-15 11:55:00,METAR KVNC 151155Z AUTO 05006KT 7SM -RA CLR 17/16 A3014 RMK AO2 P0000 60000 T01710160 10200 20158 53015 $,0,6.0,0,11263.0,0,0,0,-RA
2026-04-15 11:35:00,METAR KVNC 151135Z AUTO 05006KT 7SM -RA CLR 17/16 A3013 RMK AO2 P0000 T01650156 $,0,6.0,0,11263.0,0,0,0,-RA
2026-04-15 11:15:00,METAR KVNC 151115Z AUTO 05005KT 7SM -RA CLR 16/15 A3012 RMK AO2 P0000 T01600152 $,0,5.0,0,11263.0,0,0,0,-RA
2026-04-15 10:55:00,METAR KVNC 151055Z AUTO 07004KT 9SM -RA CLR 16/15 A3012 RMK AO2 RAB1029 P0000 T01630153 $,0,4.0,0,14481.0,0,0,0,"-RA,RA"
2026-04-15 10:35:00,METAR KVNC 151035Z AUTO 06005KT 8SM -RA CLR 16/15 A3011 RMK AO2 RAB1029 P0000 T01630154 $,0,5.0,0,12872.0,0,0,0,"-RA,RA"
2026-04-15 10:15:00,METAR KVNC 151015Z AUTO 08004KT 10SM CLR 16/15 A3011 RMK AO2 T01650153 $,0,4.0,0,16090.0,0,0,0,
2026-04-15 09:55:00,METAR KVNC 150955Z AUTO 07003KT 10SM CLR 17/15 A3011 RMK AO2 RAB0907E0930 P0000 T01680155 $,0,3.0,0,16090.0,0,0,0,RA
2026-04-15 09:35:00,METAR KVNC 150935Z AUTO 06004KT 9SM CLR 17/16 A3010 RMK AO2 RAB0907E0930 P0000 T01700155 $,0,4.0,0,14481.0,0,0,0,RA
2026-04-15 09:15:00,METAR KVNC 150915Z AUTO 04004KT 9SM -RA CLR 17/15 A3010 RMK AO2 RAB0907 P0000 T01690155 $,0,4.0,0,14481.0,0,0,0,"-RA,RA"
2026-04-15 08:55:00,METAR KVNC 150855Z AUTO 00000KT 10SM CLR 17/16 A3010 RMK AO2 RAB0839E0848 P0000 60000 T01750156 56011 $,0,0.0,0,16090.0,0,0,0,RA
2026-04-15 08:35:00,METAR KVNC 150835Z AUTO 05003KT 10SM CLR 18/16 A3010 RMK AO2 T01760156 $,0,3.0,0,16090.0,0,0,0,
2026-04-15 08:15:00,METAR KVNC 150815Z AUTO 04003KT 10SM CLR 18/16 A3010 RMK AO2 T01790157 $,0,3.0,0,16090.0,0,0,0,
2026-04-15 07:55:00,METAR KVNC 150755Z AUTO 00000KT 10SM CLR 18/16 A3011 RMK AO2 T01840158 $,0,0.0,0,16090.0,0,0,0,
2026-04-15 07:35:00,METAR KVNC 150735Z AUTO 00000KT 10SM CLR 18/16 A3011 RMK AO2 T01850158 $,0,0.0,0,16090.0,0,0,0,
2026-04-15 07:15:00,METAR KVNC 150715Z AUTO 07003KT 10SM CLR 19/16 A3011 RMK AO2 T01890160 $,0,3.0,0,16090.0,0,0,0,
2026-04-15 06:55:00,METAR KVNC 150655Z AUTO 07004KT 10SM CLR 19/16 A3011 RMK AO2 T01920159 $,0,4.0,0,16090.0,0,0,0,
2026-04-15 06:35:00,METAR KVNC 150635Z AUTO 08004KT 10SM CLR 20/16 A3011 RMK AO2 T01960160 $,0,4.0,0,16090.0,0,0,0,
2026-04-15 06:15:00,METAR KVNC 150615Z AUTO 10005KT 10SM CLR 20/16 A3012 RMK AO2 T02000161 $,0,5.0,0,16090.0,0,0,0,
2026-04-15 05:55:00,METAR KVNC 150555Z AUTO 09006KT 10SM CLR 20/16 A3013 RMK AO2 RAB0521E0534 P0000 60000 T02020160 10237 20202 58005 $,0,6.0,0,16090.0,0,0,0,RA
2026-04-15 05:35:00,METAR KVNC 150535Z AUTO 08006KT 10SM CLR 20/16 A3013 RMK AO2 RAB0521E0534 P0000 T02050162 $,0,6.0,0,16090.0,0,0,0,RA
2026-04-15 05:15:00,METAR KVNC 150515Z AUTO 07007KT 9SM FEW060 21/16 A3013 RMK AO2 T02090162 $,0,7.0,0,14481.0,0,0,0,
2026-04-15 04:55:00,METAR KVNC 150455Z AUTO 08007KT 10SM SCT060 21/16 A3014 RMK AO2 T02140162 402850168 $,0,7.0,0,16090.0,0,0,0,
2026-04-15 04:35:00,METAR KVNC 150435Z AUTO 09006KT 10SM BKN060 22/16 A3014 RMK AO2 T02160164 $,0,6.0,0,16090.0,0,0,0,
2026-04-15 04:15:00,METAR KVNC 150415Z AUTO 09006KT 10SM CLR 22/16 A3014 RMK AO2 T02180163 $,0,6.0,0,16090.0,0,0,0,
2026-04-15 03:55:00,METAR KVNC 150355Z AUTO 10005KT 10SM SCT060 22/16 A3014 RMK AO2 RAE0325 P0000 T02220164 $,0,5.0,0,16090.0,0,0,0,RA
2026-04-15 03:35:00,METAR KVNC 150335Z AUTO 09007KT 10SM FEW060 22/16 A3014 RMK AO2 RAE0325 P0000 T02220164 $,0,7.0,0,16090.0,0,0,0,RA
2026-04-15 03:15:00,METAR KVNC 150315Z AUTO 09007KT 10SM CLR 23/17 A3015 RMK AO2 RAE0311 P0000 T02260167 $,0,7.0,0,16090.0,0,0,0,RA
2026-04-15 02:55:00,METAR KVNC 150255Z AUTO 09008KT 9SM -RA CLR 23/17 A3014 RMK AO2 P0000 60000 T02310168 52014 $,0,8.0,0,14481.0,0,0,0,-RA
2026-04-15 02:35:00,METAR KVNC 150235Z AUTO 07006KT 8SM -RA CLR 23/17 A3014 RMK AO2 P0000 T02250175 $,0,6.0,0,12872.0,0,0,0,-RA
2026-04-15 02:15:00,METAR KVNC 150215Z AUTO 03005KT 9SM -RA CLR 22/18 A3013 RMK AO2 P0000 T02250176 $,0,5.0,0,14481.0,0,0,0,-RA
2026-04-15 01:55:00,METAR KVNC 150155Z AUTO VRB05KT 9SM -RA SCT065 23/18 A3013 RMK AO2 RAB0105 P0000 T02320176 $,0,5.0,0,14481.0,0,0,0,"-RA,RA"
2026-04-15 01:35:00,METAR KVNC 150135Z AUTO 03003KT 9SM BKN060 23/18 A3013 RMK AO2 RAB0105E0130 P0000 T02320176 $,0,3.0,0,14481.0,0,0,0,RA
2026-04-15 01:15:00,METAR KVNC 150115Z AUTO VRB06KT 9SM -RA BKN065 24/17 A3012 RMK AO2 RAB0105 P0000 T02350173 $,0,6.0,0,14481.0,0,0,0,"-RA,RA"
2026-04-15 00:55:00,METAR KVNC 150055Z AUTO VRB06KT 10SM BKN065 24/17 A3012 RMK AO2 T02370172 $,0,6.0,0,16090.0,0,0,0,
2026-04-15 00:35:00,METAR KVNC 150035Z AUTO 34006KT 10SM SCT070 24/17 A3011 RMK AO2 T02360172 $,0,6.0,0,16090.0,0,0,0,
2026-04-15 00:15:00,METAR KVNC 150015Z AUTO 33008KT 10SM SCT070 24/18 A3011 RMK AO2 T02360176 $,0,8.0,0,16090.0,0,0,0,
2026-04-14 23:55:00,METAR KVNC 142355Z AUTO 32011KT 9SM CLR 24/18 A3010 RMK AO2 T02360183 10271 20236 56002 $,0,11.0,0,14481.0,0,0,0,
2026-04-14 23:35:00,METAR KVNC 142335Z AUTO 33009KT 10SM CLR 24/17 A3010 RMK AO2 T02400172 $,0,9.0,0,16090.0,0,0,0,
2026-04-14 23:15:00,METAR KVNC 142315Z AUTO 32011KT 10SM CLR 24/16 A3010 RMK AO2 T02440161 $,0,11.0,0,16090.0,0,0,0,
2026-04-14 22:55:00,METAR KVNC 142255Z AUTO 32010KT 10SM CLR 24/17 A3010 RMK AO2 T02440165 $,0,10.0,0,16090.0,0,0,0,
2026-04-14 22:35:00,METAR KVNC 142235Z AUTO 32010KT 10SM FEW070 24/17 A3010 RMK AO2 T02450172 $,0,10.0,0,16090.0,0,0,0,
2026-04-14 22:15:00,METAR KVNC 142215Z AUTO 33010KT 10SM FEW070 25/17 A3010 RMK AO2 T02480172 $,0,10.0,0,16090.0,0,0,0,
2026-04-14 21:55:00,METAR KVNC 142155Z AUTO 31009KT 10SM SCT070 25/18 A3010 RMK AO2 T02480178 $,0,9.0,0,16090.0,0,0,0,
2026-04-14 21:35:00,METAR KVNC 142135Z AUTO 31010KT 10SM FEW070 26/17 A3010 RMK AO2 T02560168 $,0,10.0,0,16090.0,0,0,0,
2026-04-14 21:15:00,METAR KVNC 142115Z AUTO 31009KT 10SM FEW070 26/18 A3010 RMK AO2 T02560176 $,0,9.0,0,16090.0,0,0,0,
2026-04-14 20:55:00,METAR KVNC 142055Z AUTO 30011KT 10SM BKN070 26/17 A3011 RMK AO2 T02560169 56020 $,0,11.0,0,16090.0,0,0,0,
2026-04-14 20:35:00,METAR KVNC 142035Z AUTO 31012KT 10SM CLR 26/17 A3011 RMK AO2 T02630169 $,0,12.0,0,16090.0,0,0,0,
2026-04-14 20:15:00,METAR KVNC 142015Z AUTO 30009KT 10SM CLR 27/15 A3011 RMK AO2 T02670155 $,0,9.0,0,16090.0,0,0,0,
2026-04-14 19:55:00,METAR KVNC 141955Z AUTO 30009KT 10SM SCT065 26/16 A3012 RMK AO2 T02630160 $,0,9.0,0,16090.0,0,0,0,
2026-04-14 19:35:00,METAR KVNC 141935Z AUTO 29009KT 10SM FEW065 26/16 A3012 RMK AO2 T02630164 $,0,9.0,0,16090.0,0,0,0,
2026-04-14 19:15:00,METAR KVNC 141915Z AUTO 26008KT 10SM FEW065 26/17 A3013 RMK AO2 T02640168 $,0,8.0,0,16090.0,0,0,0,
2026-04-14 18:55:00,METAR KVNC 141855Z AUTO 27008KT 10SM BKN060 BKN370 27/18 A3014 RMK AO2 T02670184 $,0,8.0,0,16090.0,0,0,0,
2026-04-14 18:35:00,METAR KVNC 141835Z AUTO 23009KT 10SM BKN060 BKN340 BKN370 26/15 A3015 RMK AO2 T02630153 $,0,9.0,0,16090.0,0,0,0,
2026-04-14 18:15:00,METAR KVNC 141815Z AUTO 22010KT 10SM FEW340 26/17 A3016 RMK AO2 T02650166 $,0,10.0,0,16090.0,0,0,0,
2026-04-14 17:55:00,METAR KVNC 141755Z AUTO 22011KT 10SM CLR 27/16 A3017 RMK AO2 60000 T02690156 10285 20183 58015 $,0,11.0,0,16090.0,0,0,0,
2026-04-14 17:35:00,METAR KVNC 141735Z AUTO VRB03KT 10SM CLR 27/17 A3017 RMK AO2 T02700166 $,0,3.0,0,16090.0,0,0,0,
2026-04-14 17:15:00,METAR KVNC 141715Z AUTO 09009KT 10SM CLR 28/12 A3018 RMK AO2 T02810119 $,0,9.0,0,16090.0,0,0,0,
2026-04-14 16:55:00,METAR KVNC 141655Z AUTO 08007KT 030V130 10SM FEW380 27/12 A3018 RMK AO2 T02720120 $,0,7.0,0,16090.0,0,0,0,
2026-04-14 16:35:00,METAR KVNC 141635Z AUTO VRB05KT 10SM FEW380 27/12 A3019 RMK AO2 T02700121 $,0,5.0,0,16090.0,0,0,0,
2026-04-14 16:15:00,METAR KVNC 141615Z AUTO 13006KT 10SM CLR 27/13 A3020 RMK AO2 T02710131 $,0,6.0,0,16090.0,0,0,0,
2026-04-14 15:55:00,METAR KVNC 141555Z AUTO 08005G16KT 020V110 10SM CLR 27/13 A3021 RMK AO2 T02690131 $,0,5.0,1,16090.0,0,0,0,
2026-04-14 15:15:00,METAR KVNC 141515Z AUTO 12010KT 10SM CLR 26/13 A3021 RMK AO2 T02650132 $,0,10.0,0,16090.0,0,0,0,
2026-04-14 14:55:00,METAR KVNC 141455Z AUTO 11008KT 10SM CLR 25/14 A3021 RMK AO2 RAB1354E1435 P0000 60000 T02550139 51009 $,0,8.0,0,16090.0,0,0,0,RA
2026-04-14 14:35:00,METAR KVNC 141435Z AUTO 10008KT 10SM CLR 25/14 A3021 RMK AO2 RAB1354E1435 P0000 T02550142 $,0,8.0,0,16090.0,0,0,0,RA
2026-04-14 14:15:00,METAR KVNC 141415Z AUTO 07011KT 8SM -RA CLR 25/15 A3021 RMK AO2 RAB1354 P0000 T02470150 $,0,11.0,0,12872.0,0,0,0,"-RA,RA"
2026-04-14 13:55:00,METAR KVNC 141355Z AUTO 10007KT 070V130 10SM CLR 24/16 A3020 RMK AO2 RAB1341E1342 P0000 T02400163 $,0,7.0,0,16090.0,0,0,0,RA
2026-04-14 13:35:00,METAR KVNC 141335Z AUTO 10006KT 9SM CLR 23/17 A3020 RMK AO2 T02350168 $,0,6.0,0,14481.0,0,0,0,
2026-04-14 13:15:00,METAR KVNC 141315Z AUTO 09005KT 10SM CLR 22/17 A3020 RMK AO2 T02230167 $,0,5.0,0,16090.0,0,0,0,
2026-04-14 12:55:00,METAR KVNC 141255Z AUTO 08007KT 10SM CLR 21/16 A3020 RMK AO2 T02090161 $,0,7.0,0,16090.0,0,0,0,
2026-04-14 12:35:00,METAR KVNC 141235Z AUTO 09007KT 9SM CLR 20/16 A3019 RMK AO2 T02010159 $,0,7.0,0,14481.0,0,0,0,
2026-04-14 12:15:00,METAR KVNC 141215Z AUTO 09005KT 10SM CLR 19/16 A3019 RMK AO2 T01910156 $,0,5.0,0,16090.0,0,0,0,
2026-04-14 11:55:00,METAR KVNC 141155Z AUTO 09005KT 10SM CLR 18/15 A3018 RMK AO2 T01770155 10196 20168 53007 $,0,5.0,0,16090.0,0,0,0,
2026-04-14 11:35:00,METAR KVNC 141135Z AUTO 08003KT 10SM CLR 17/15 A3018 RMK AO2 T01690151 $,0,3.0,0,16090.0,0,0,0,
2026-04-14 11:15:00,METAR KVNC 141115Z AUTO 08005KT 9SM CLR 17/15 A3018 RMK AO2 T01690150 $,0,5.0,0,14481.0,0,0,0,
2026-04-14 10:55:00,METAR KVNC 141055Z AUTO 06006KT 10SM CLR 17/15 A3017 RMK AO2 T01710151 $,0,6.0,0,16090.0,0,0,0,
2026-04-14 10:35:00,METAR KVNC 141035Z AUTO 06006KT 10SM CLR 17/15 A3017 RMK AO2 T01710150 $,0,6.0,0,16090.0,0,0,0,
2026-04-14 10:15:00,METAR KVNC 141015Z AUTO 06005KT 10SM CLR 17/15 A3017 RMK AO2 T01730151 $,0,5.0,0,16090.0,0,0,0,
2026-04-14 09:55:00,METAR KVNC 140955Z AUTO 05006KT 10SM CLR 17/15 A3017 RMK AO2 T01720149 $,0,6.0,0,16090.0,0,0,0,
2026-04-14 09:35:00,METAR KVNC 140935Z AUTO 07006KT 10SM CLR 18/15 A3017 RMK AO2 T01770150 $,0,6.0,0,16090.0,0,0,0,
2026-04-14 09:15:00,METAR KVNC 140915Z AUTO 08006KT 10SM CLR 18/15 A3016 RMK AO2 T01780150 $,0,6.0,0,16090.0,0,0,0,
2026-04-14 08:55:00,METAR KVNC 140855Z AUTO 06006KT 10SM CLR 18/15 A3016 RMK AO2 T01770150 56008 $,0,6.0,0,16090.0,0,0,0,
2026-04-14 08:35:00,METAR KVNC 140835Z AUTO 05006KT 10SM CLR 18/15 A3017 RMK AO2 T01780150 $,0,6.0,0,16090.0,0,0,0,
2026-04-14 08:15:00,METAR KVNC 140815Z AUTO 06007KT 10SM CLR 18/15 A3016 RMK AO2 T01810150 $,0,7.0,0,16090.0,0,0,0,
2026-04-14 07:55:00,METAR KVNC 140755Z AUTO 05006KT 10SM CLR 18/15 A3017 RMK AO2 T01800151 $,0,6.0,0,16090.0,0,0,0,
2026-04-14 07:35:00,METAR KVNC 140735Z AUTO 05006KT 10SM CLR 18/15 A3017 RMK AO2 T01810152 $,0,6.0,0,16090.0,0,0,0,
2026-04-14 07:15:00,METAR KVNC 140715Z AUTO 05006KT 10SM CLR 18/15 A3018 RMK AO2 T01820152 $,0,6.0,0,16090.0,0,0,0,
2026-04-14 06:55:00,METAR KVNC 140655Z AUTO 06005KT 10SM CLR 18/15 A3018 RMK AO2 T01840153 $,0,5.0,0,16090.0,0,0,0,
2026-04-14 06:35:00,METAR KVNC 140635Z AUTO 06005KT 10SM CLR 18/15 A3018 RMK AO2 T01850153 $,0,5.0,0,16090.0,0,0,0,
2026-04-14 06:15:00,METAR KVNC 140615Z AUTO 06005KT 10SM CLR 19/15 A3018 RMK AO2 T01890154 $,0,5.0,0,16090.0,0,0,0,
2026-04-14 05:55:00,METAR KVNC 140555Z AUTO 07007KT 10SM CLR 20/15 A3019 RMK AO2 T01980155 10235 20197 58002 $,0,7.0,0,16090.0,0,0,0,
2026-04-14 05:35:00,METAR KVNC 140535Z AUTO 08006KT 10SM CLR 20/15 A3019 RMK AO2 T01990155 $,0,6.0,0,16090.0,0,0,0,
2026-04-14 05:15:00,METAR KVNC 140515Z AUTO 08008KT 10SM CLR 20/15 A3019 RMK AO2 T02020155 $,0,8.0,0,16090.0,0,0,0,
2026-04-14 04:55:00,METAR KVNC 140455Z AUTO 09008KT 10SM CLR 20/16 A3020 RMK AO2 T02030156 402890155 $,0,8.0,0,16090.0,0,0,0,
2026-04-14 04:35:00,METAR KVNC 140435Z AUTO 09007KT 10SM CLR 21/16 A3020 RMK AO2 T02060156 $,0,7.0,0,16090.0,0,0,0,
2026-04-14 04:15:00,METAR KVNC 140415Z AUTO 08010KT 10SM CLR 21/15 A3020 RMK AO2 T02080155 $,0,10.0,0,16090.0,0,0,0,
2026-04-14 03:55:00,METAR KVNC 140355Z AUTO 08008KT 10SM CLR 21/15 A3020 RMK AO2 T02130154 $,0,8.0,0,16090.0,0,0,0,
2026-04-14 03:35:00,METAR KVNC 140335Z AUTO 08011KT 10SM CLR 22/15 A3020 RMK AO2 T02160154 $,0,11.0,0,16090.0,0,0,0,
2026-04-14 03:15:00,METAR KVNC 140315Z AUTO 08011KT 10SM CLR 22/15 A3019 RMK AO2 T02190152 $,0,11.0,0,16090.0,0,0,0,
2026-04-14 02:55:00,METAR KVNC 140255Z AUTO 09011KT 10SM CLR 22/15 A3019 RMK AO2 T02230146 51015 $,0,11.0,0,16090.0,0,0,0,
2026-04-14 02:35:00,METAR KVNC 140235Z AUTO 09008KT 10SM CLR 22/15 A3019 RMK AO2 T02240148 $,0,8.0,0,16090.0,0,0,0,
2026-04-14 02:15:00,METAR KVNC 140215Z AUTO 09009KT 10SM CLR 23/14 A3019 RMK AO2 T02280144 $,0,9.0,0,16090.0,0,0,0,
2026-04-14 01:55:00,METAR KVNC 140155Z AUTO 09008KT 10SM CLR 23/14 A3018 RMK AO2 T02300141 $,0,8.0,0,16090.0,0,0,0,
2026-04-14 01:35:00,METAR KVNC 140135Z AUTO 10006KT 10SM CLR 23/14 A3018 RMK AO2 T02320142 $,0,6.0,0,16090.0,0,0,0,
2026-04-14 01:15:00,METAR KVNC 140115Z AUTO 10006KT 10SM CLR 23/16 A3018 RMK AO2 T02320155 $,0,6.0,0,16090.0,0,0,0,
2026-04-14 00:55:00,METAR KVNC 140055Z AUTO 12003KT 10SM CLR 22/19 A3017 RMK AO2 T02190190 $,0,3.0,0,16090.0,0,0,0,
2026-04-14 00:35:00,METAR KVNC 140035Z AUTO 00000KT 10SM FEW060 23/19 A3016 RMK AO2 T02250194 $,0,0.0,0,16090.0,0,0,0,
2026-04-14 00:15:00,METAR KVNC 140015Z AUTO 30004KT 9SM SCT060 23/20 A3016 RMK AO2 T02260200 $,0,4.0,0,14481.0,0,0,0,
2026-04-13 23:55:00,METAR KVNC 132355Z AUTO 30006KT 8SM BKN060 23/20 A3015 RMK AO2 T02300198 10289 20230 56008 $,0,6.0,0,12872.0,0,0,0,
2026-04-13 23:35:00,METAR KVNC 132335Z AUTO 31008KT 9SM SCT065 23/19 A3015 RMK AO2 T02300195 $,0,8.0,0,14481.0,0,0,0,
2026-04-13 23:15:00,METAR KVNC 132315Z AUTO 31007KT 9SM SCT065 23/20 A3015 RMK AO2 T02320197 $,0,7.0,0,14481.0,0,0,0,
2026-04-13 22:55:00,METAR KVNC 132255Z AUTO 31009KT 9SM FEW065 23/18 A3015 RMK AO2 T02340184 $,0,9.0,0,14481.0,0,0,0,
2026-04-13 22:35:00,METAR KVNC 132235Z AUTO 31009KT 10SM CLR 24/18 A3015 RMK AO2 T02370181 $,0,9.0,0,16090.0,0,0,0,
2026-04-13 22:15:00,METAR KVNC 132215Z AUTO 31008KT 10SM CLR 24/17 A3016 RMK AO2 T02430173 $,0,8.0,0,16090.0,0,0,0,
2026-04-13 21:55:00,METAR KVNC 132155Z AUTO 30009KT 9SM CLR 24/17 A3016 RMK AO2 T02410165 $,0,9.0,0,14481.0,0,0,0,
2026-04-13 21:35:00,METAR KVNC 132135Z AUTO 29011KT 10SM CLR 24/17 A3016 RMK AO2 T02430171 $,0,11.0,0,16090.0,0,0,0,
2026-04-13 21:15:00,METAR KVNC 132115Z AUTO 30011KT 10SM FEW065 24/17 A3016 RMK AO2 T02430171 $,0,11.0,0,16090.0,0,0,0,
2026-04-13 20:55:00,METAR KVNC 132055Z AUTO 30010KT 10SM SCT065 25/18 A3017 RMK AO2 T02460181 56021 $,0,10.0,0,16090.0,0,0,0,
2026-04-13 20:35:00,METAR KVNC 132035Z AUTO 31012KT 10SM SCT065 SCT350 25/17 A3017 RMK AO2 T02490172 $,0,12.0,0,16090.0,0,0,0,
2026-04-13 20:15:00,METAR KVNC 132015Z AUTO 30012KT 10SM SCT065 SCT310 BKN350 25/18 A3018 RMK AO2 T02500178 $,0,12.0,0,16090.0,0,0,0,
2026-04-13 19:55:00,METAR KVNC 131955Z AUTO 29011KT 10SM FEW065 SCT330 SCT380 25/18 A3019 RMK AO2 T02520176 $,0,11.0,0,16090.0,0,0,0,
2026-04-13 19:35:00,METAR KVNC 131935Z AUTO 28012KT 10SM CLR 25/17 A3020 RMK AO2 T02540173 $,0,12.0,0,16090.0,0,0,0,
2026-04-13 19:15:00,METAR KVNC 131915Z AUTO 29011KT 10SM SCT060 25/18 A3020 RMK AO2 T02550177 $,0,11.0,0,16090.0,0,0,0,
2026-04-13 18:55:00,METAR KVNC 131855Z AUTO 36008KT 300V030 10SM FEW060 28/14 A3021 RMK AO2 T02830136 $,0,8.0,0,16090.0,0,0,0,
2026-04-13 18:35:00,METAR KVNC 131835Z AUTO 10006KT 10SM FEW340 28/14 A3021 RMK AO2 T02820138 $,0,6.0,0,16090.0,0,0,0,
2026-04-13 18:15:00,METAR KVNC 131815Z AUTO 09008KT 10SM FEW055 28/14 A3022 RMK AO2 T02830143 $,0,8.0,0,16090.0,0,0,0,
2026-04-13 17:55:00,METAR KVNC 131755Z AUTO 12008KT 10SM FEW055 28/14 A3024 RMK AO2 T02800144 10282 20171 58017 $,0,8.0,0,16090.0,0,0,0,
2026-04-13 17:35:00,METAR KVNC 131735Z AUTO 07010G14KT 050V110 10SM FEW380 28/14 A3024 RMK AO2 T02820143 $,0,10.0,1,16090.0,0,0,0,
2026-04-13 17:15:00,METAR KVNC 131715Z AUTO 09009G15KT 060V150 10SM CLR 27/14 A3024 RMK AO2 T02740143 $,0,9.0,1,16090.0,0,0,0,
2026-04-13 16:55:00,METAR KVNC 131655Z AUTO 08010KT 10SM CLR 27/14 A3026 RMK AO2 T02690143 $,0,10.0,0,16090.0,0,0,0,
2026-04-13 16:35:00,METAR KVNC 131635Z AUTO 13010KT 10SM CLR 27/14 A3026 RMK AO2 T02660140 $,0,10.0,0,16090.0,0,0,0,
2026-04-13 16:15:00,METAR KVNC 131615Z AUTO 12007KT 080V140 10SM CLR 26/14 A3027 RMK AO2 T02620143 $,0,7.0,0,16090.0,0,0,0,
2026-04-13 15:55:00,METAR KVNC 131555Z AUTO 10012G19KT 10SM CLR 26/14 A3028 RMK AO2 T02600142 $,0,12.0,1,16090.0,0,0,0,
2026-04-13 15:35:00,METAR KVNC 131535Z AUTO 12008KT 10SM FEW041 25/15 A3028 RMK AO2 T02520146 $,0,8.0,0,16090.0,0,0,0,
2026-04-13 15:15:00,METAR KVNC 131515Z AUTO 15010G20KT 10SM FEW041 25/15 A3029 RMK AO2 T02450146 $,0,10.0,1,16090.0,0,0,0,
2026-04-13 14:55:00,METAR KVNC 131455Z AUTO 11006KT 10SM CLR 25/15 A3029 RMK AO2 T02460145 51009 $,0,6.0,0,16090.0,0,0,0,
2026-04-13 14:35:00,METAR KVNC 131435Z AUTO 10009KT 10SM CLR 24/14 A3029 RMK AO2 T02430144 $,0,9.0,0,16090.0,0,0,0,
2026-04-13 14:15:00,METAR KVNC 131415Z AUTO 09008KT 10SM CLR 24/15 A3029 RMK AO2 T02390145 $,0,8.0,0,16090.0,0,0,0,
2026-04-13 13:55:00,METAR KVNC 131355Z AUTO 10007KT 10SM CLR 23/15 A3028 RMK AO2 T02300149 $,0,7.0,0,16090.0,0,0,0,
2026-04-13 13:35:00,METAR KVNC 131335Z AUTO 09006KT 10SM CLR 22/15 A3028 RMK AO2 T02210154 $,0,6.0,0,16090.0,0,0,0,
2026-04-13 13:15:00,METAR KVNC 131315Z AUTO 09006KT 10SM CLR 21/15 A3027 RMK AO2 T02100154 $,0,6.0,0,16090.0,0,0,0,
2026-04-13 12:55:00,METAR KVNC 131255Z AUTO 09007KT 10SM CLR 20/15 A3027 RMK AO2 T01990154 $,0,7.0,0,16090.0,0,0,0,
2026-04-13 12:35:00,METAR KVNC 131235Z AUTO 09005KT 9SM CLR 19/15 A3027 RMK AO2 T01880152 $,0,5.0,0,14481.0,0,0,0,
2026-04-13 12:15:00,METAR KVNC 131215Z AUTO 10007KT 9SM CLR 18/15 A3027 RMK AO2 T01810150 $,0,7.0,0,14481.0,0,0,0,
2026-04-13 11:55:00,METAR KVNC 131155Z AUTO 07005KT 10SM CLR 17/15 A3026 RMK AO2 T01670148 10189 20155 53011 $,0,5.0,0,16090.0,0,0,0,
2026-04-13 11:35:00,METAR KVNC 131135Z AUTO 07005KT 9SM CLR 16/14 A3026 RMK AO2 T01610145 $,0,5.0,0,14481.0,0,0,0,
2026-04-13 11:15:00,METAR KVNC 131115Z AUTO 07005KT 10SM CLR 16/14 A3025 RMK AO2 T01580143 $,0,5.0,0,16090.0,0,0,0,
2026-04-13 10:55:00,METAR KVNC 131055Z AUTO 07006KT 10SM CLR 16/14 A3024 RMK AO2 T01630144 $,0,6.0,0,16090.0,0,0,0,
2026-04-13 10:35:00,METAR KVNC 131035Z AUTO 08006KT 10SM CLR 16/14 A3024 RMK AO2 T01640145 $,0,6.0,0,16090.0,0,0,0,
2026-04-13 10:15:00,METAR KVNC 131015Z AUTO 07007KT 10SM CLR 17/15 A3024 RMK AO2 T01660145 $,0,7.0,0,16090.0,0,0,0,
2026-04-13 09:55:00,METAR KVNC 130955Z AUTO 07006KT 9SM CLR 17/15 A3023 RMK AO2 T01660146 $,0,6.0,0,14481.0,0,0,0,
2026-04-13 09:35:00,METAR KVNC 130935Z AUTO 07008KT 10SM CLR 17/15 A3023 RMK AO2 T01680148 $,0,8.0,0,16090.0,0,0,0,
2026-04-13 09:15:00,METAR KVNC 130915Z AUTO 07007KT 9SM CLR 17/15 A3023 RMK AO2 T01670148 $,0,7.0,0,14481.0,0,0,0,
2026-04-13 08:55:00,METAR KVNC 130855Z AUTO 07007KT 10SM CLR 17/15 A3023 RMK AO2 T01690149 55006 $,0,7.0,0,16090.0,0,0,0,
2026-04-13 08:35:00,METAR KVNC 130835Z AUTO 07007KT 10SM CLR 17/15 A3023 RMK AO2 T01700149 $,0,7.0,0,16090.0,0,0,0,
2026-04-13 08:15:00,METAR KVNC 130815Z AUTO 06007KT 10SM CLR 17/15 A3023 RMK AO2 T01720149 $,0,7.0,0,16090.0,0,0,0,
2026-04-13 07:55:00,METAR KVNC 130755Z AUTO 06007KT 10SM CLR 17/15 A3022 RMK AO2 T01740151 $,0,7.0,0,16090.0,0,0,0,
2026-04-13 07:35:00,METAR KVNC 130735Z AUTO 07007KT 10SM CLR 18/15 A3023 RMK AO2 T01750151 $,0,7.0,0,16090.0,0,0,0,
2026-04-13 07:15:00,METAR KVNC 130715Z AUTO 06008KT 9SM CLR 18/15 A3023 RMK AO2 T01790152 $,0,8.0,0,14481.0,0,0,0,
2026-04-13 06:55:00,METAR KVNC 130655Z AUTO 06009KT 10SM CLR 18/15 A3023 RMK AO2 T01830153 $,0,9.0,0,16090.0,0,0,0,
2026-04-13 06:35:00,METAR KVNC 130635Z AUTO 07008KT 10SM CLR 18/15 A3023 RMK AO2 T01850153 $,0,8.0,0,16090.0,0,0,0,
2026-04-13 06:15:00,METAR KVNC 130615Z AUTO 07007KT 10SM CLR 19/15 A3024 RMK AO2 T01870155 $,0,7.0,0,16090.0,0,0,0,
2026-04-13 05:55:00,METAR KVNC 130555Z AUTO 07008KT 10SM CLR 19/16 A3024 RMK AO2 T01900156 10257 20190 58005 $,0,8.0,0,16090.0,0,0,0,
2026-04-13 05:35:00,METAR KVNC 130535Z AUTO 07007KT 10SM CLR 19/16 A3025 RMK AO2 T01910156 $,0,7.0,0,16090.0,0,0,0,
2026-04-13 05:15:00,METAR KVNC 130515Z AUTO 07008KT 10SM CLR 19/16 A3025 RMK AO2 T01950156 $,0,8.0,0,16090.0,0,0,0,
2026-04-13 04:55:00,METAR KVNC 130455Z AUTO 07008KT 10SM CLR 20/16 A3026 RMK AO2 T02000156 402960167 $,0,8.0,0,16090.0,0,0,0,
2026-04-13 04:35:00,METAR KVNC 130435Z AUTO 07008KT 10SM CLR 20/15 A3026 RMK AO2 T02010154 $,0,8.0,0,16090.0,0,0,0,
2026-04-13 04:15:00,METAR KVNC 130415Z AUTO 07009KT 10SM CLR 21/15 A3026 RMK AO2 T02060154 $,0,9.0,0,16090.0,0,0,0,
2026-04-13 03:55:00,METAR KVNC 130355Z AUTO 07009KT 10SM CLR 21/15 A3026 RMK AO2 T02120152 $,0,9.0,0,16090.0,0,0,0,
2026-04-13 03:35:00,METAR KVNC 130335Z AUTO 07010KT 10SM CLR 21/15 A3026 RMK AO2 T02140151 $,0,10.0,0,16090.0,0,0,0,
2026-04-13 03:15:00,METAR KVNC 130315Z AUTO 08008KT 10SM CLR 22/15 A3026 RMK AO2 T02170148 $,0,8.0,0,16090.0,0,0,0,
2026-04-13 02:55:00,METAR KVNC 130255Z AUTO 08008KT 10SM CLR 22/15 A3026 RMK AO2 T02220145 53018 $,0,8.0,0,16090.0,0,0,0,
2026-04-13 02:35:00,METAR KVNC 130235Z AUTO 08007KT 10SM CLR 22/14 A3025 RMK AO2 T02230143 $,0,7.0,0,16090.0,0,0,0,
2026-04-13 02:15:00,METAR KVNC 130215Z AUTO 09008KT 10SM FEW055 23/14 A3025 RMK AO2 T02280143 $,0,8.0,0,16090.0,0,0,0,
2026-04-13 01:55:00,METAR KVNC 130155Z AUTO 08007KT 10SM BKN055 23/14 A3024 RMK AO2 T02330143 $,0,7.0,0,16090.0,0,0,0,
2026-04-13 01:35:00,METAR KVNC 130135Z AUTO 08007KT 10SM OVC055 24/14 A3023 RMK AO2 T02370142 $,0,7.0,0,16090.0,0,0,0,
2026-04-13 01:15:00,METAR KVNC 130115Z AUTO 07006KT 10SM BKN055 24/14 A3023 RMK AO2 T02410137 $,0,6.0,0,16090.0,0,0,0,
2026-04-13 00:55:00,METAR KVNC 130055Z AUTO 08008KT 10SM BKN060 25/13 A3022 RMK AO2 T02480132 $,0,8.0,0,16090.0,0,0,0,
2026-04-13 00:35:00,METAR KVNC 130035Z AUTO 08009KT 10SM BKN060 25/13 A3021 RMK AO2 T02500132 $,0,9.0,0,16090.0,0,0,0,
2026-04-13 00:15:00,METAR KVNC 130015Z AUTO 06010KT 10SM OVC060 25/13 A3021 RMK AO2 T02530134 $,0,10.0,0,16090.0,0,0,0,
2026-04-12 23:55:00,METAR KVNC 122355Z AUTO 06010KT 10SM OVC060 26/13 A3020 RMK AO2 T02590131 10296 20254 53010 $,0,10.0,0,16090.0,0,0,0,
2026-04-12 23:35:00,METAR KVNC 122335Z AUTO 07012KT 10SM BKN065 26/13 A3020 RMK AO2 T02640129 $,0,12.0,0,16090.0,0,0,0,
2026-04-12 23:15:00,METAR KVNC 122315Z AUTO 07011KT 10SM FEW065 27/12 A3019 RMK AO2 T02690123 $,0,11.0,0,16090.0,0,0,0,
2026-04-12 22:55:00,METAR KVNC 122255Z AUTO 09009KT 10SM SCT070 27/12 A3019 RMK AO2 T02750124 $,0,9.0,0,16090.0,0,0,0,
2026-04-12 22:35:00,METAR KVNC 122235Z AUTO 10008G14KT 10SM FEW070 28/12 A3018 RMK AO2 T02750120 $,0,8.0,1,16090.0,0,0,0,
2026-04-12 22:15:00,METAR KVNC 122215Z AUTO 08007KT 060V160 9SM SCT070 28/13 A3018 RMK AO2 T02830128 $,0,7.0,0,14481.0,0,0,0,
2026-04-12 21:55:00,METAR KVNC 122155Z AUTO 12007G17KT 10SM SCT070 29/12 A3018 RMK AO2 T02860118 $,0,7.0,1,16090.0,0,0,0,
2026-04-12 21:35:00,METAR KVNC 122135Z AUTO 09009KT 10SM FEW070 28/11 A3018 RMK AO2 T02820113 $,0,9.0,0,16090.0,0,0,0,
2026-04-12 21:15:00,METAR KVNC 122115Z AUTO 07011KT 10SM FEW070 29/12 A3018 RMK AO2 T02910119 $,0,11.0,0,16090.0,0,0,0,
2026-04-12 20:55:00,METAR KVNC 122055Z AUTO 05012KT 10SM FEW070 29/12 A3018 RMK AO2 T02950123 56022 $,0,12.0,0,16090.0,0,0,0,
2026-04-12 20:35:00,METAR KVNC 122035Z AUTO 08013KT 10SM CLR 29/13 A3018 RMK AO2 T02950126 $,0,13.0,0,16090.0,0,0,0,
2026-04-12 20:15:00,METAR KVNC 122015Z AUTO 07014G19KT 10SM CLR 29/12 A3018 RMK AO2 T02930123 $,0,14.0,1,16090.0,0,0,0,
2026-04-12 19:55:00,METAR KVNC 121955Z AUTO 07016G21KT 10SM CLR 29/13 A3019 RMK AO2 T02930126 $,0,16.0,1,16090.0,0,0,0,
2026-04-12 19:35:00,METAR KVNC 121935Z AUTO 09008KT 10SM CLR 29/13 A3019 RMK AO2 T02880130 $,0,8.0,0,16090.0,0,0,0,
2026-04-12 19:15:00,METAR KVNC 121915Z AUTO 09012G18KT 10SM CLR 29/13 A3020 RMK AO2 T02910132 $,0,12.0,1,16090.0,0,0,0,
2026-04-12 18:55:00,METAR KVNC 121855Z AUTO 06009G14KT 10SM CLR 29/13 A3021 RMK AO2 T02870134 $,0,9.0,1,16090.0,0,0,0,
2026-04-12 18:35:00,METAR KVNC 121835Z AUTO 10008KT 10SM CLR 29/13 A3022 RMK AO2 T02860133 $,0,8.0,0,16090.0,0,0,0,
2026-04-12 18:15:00,METAR KVNC 121815Z AUTO 09008KT 060V130 10SM CLR 28/13 A3023 RMK AO2 T02790135 $,0,8.0,0,16090.0,0,0,0,
2026-04-12 17:55:00,METAR KVNC 121755Z AUTO 09013KT 10SM FEW360 28/13 A3024 RMK AO2 T02820134 10282 20182 58013 $,0,13.0,0,16090.0,0,0,0,
2026-04-12 17:35:00,METAR KVNC 121735Z AUTO 09010G23KT 10SM CLR 28/13 A3025 RMK AO2 T02780128 $,0,10.0,1,16090.0,0,0,0,
2026-04-12 17:15:00,METAR KVNC 121715Z AUTO 09009G20KT 060V130 10SM CLR 27/13 A3025 RMK AO2 T02690129 $,0,9.0,1,16090.0,0,0,0,
2026-04-12 16:55:00,METAR KVNC 121655Z AUTO 07014G19KT 040V110 10SM CLR 28/13 A3026 RMK AO2 T02750134 $,0,14.0,1,16090.0,0,0,0,
2026-04-12 16:35:00,METAR KVNC 121635Z AUTO 08013G18KT 10SM CLR 27/14 A3026 RMK AO2 T02710136 $,0,13.0,1,16090.0,0,0,0,
2026-04-12 16:15:00,METAR KVNC 121615Z AUTO 09010G20KT 10SM FEW044 26/14 A3027 RMK AO2 T02620138 $,0,10.0,1,16090.0,0,0,0,
2026-04-12 15:55:00,METAR KVNC 121555Z AUTO 06011KT 10SM SCT042 26/15 A3028 RMK AO2 T02590151 $,0,11.0,0,16090.0,0,0,0,
2026-04-12 14:55:00,METAR KVNC 121455Z AUTO 10007KT 10SM BKN039 24/15 A3028 RMK AO2 T02380149 51017 $,0,7.0,0,16090.0,0,0,0,
2026-04-12 14:35:00,METAR KVNC 121435Z AUTO 09011KT 10SM FEW039 24/15 A3027 RMK AO2 T02440148 $,0,11.0,0,16090.0,0,0,0,
2026-04-12 14:15:00,METAR KVNC 121415Z AUTO 07011KT 10SM CLR 24/15 A3027 RMK AO2 T02390153 $,0,11.0,0,16090.0,0,0,0,
2026-04-12 13:55:00,METAR KVNC 121355Z AUTO 06009KT 9SM CLR 23/16 A3027 RMK AO2 T02270160 $,0,9.0,0,14481.0,0,0,0,
2026-04-12 13:35:00,METAR KVNC 121335Z AUTO 07009KT 10SM CLR 22/16 A3027 RMK AO2 T02200159 $,0,9.0,0,16090.0,0,0,0,
2026-04-12 13:15:00,METAR KVNC 121315Z AUTO 06009KT 10SM CLR 21/16 A3026 RMK AO2 T02150156 $,0,9.0,0,16090.0,0,0,0,
2026-04-12 12:55:00,METAR KVNC 121255Z AUTO 06009KT 10SM CLR 20/16 A3025 RMK AO2 T02040159 $,0,9.0,0,16090.0,0,0,0,
2026-04-12 12:35:00,METAR KVNC 121235Z AUTO 05008KT 9SM CLR 20/16 A3025 RMK AO2 T01960157 $,0,8.0,0,14481.0,0,0,0,
2026-04-12 12:15:00,METAR KVNC 121215Z AUTO 06008KT 10SM CLR 19/16 A3025 RMK AO2 T01870157 $,0,8.0,0,16090.0,0,0,0,
2026-04-12 11:55:00,METAR KVNC 121155Z AUTO 05006KT 9SM CLR 18/15 A3023 RMK AO2 T01790154 10186 20167 53015 $,0,6.0,0,14481.0,0,0,0,
2026-04-12 11:35:00,METAR KVNC 121135Z AUTO 05007KT 9SM CLR 17/15 A3023 RMK AO2 T01730154 $,0,7.0,0,14481.0,0,0,0,
2026-04-12 11:15:00,METAR KVNC 121115Z AUTO 04007KT 10SM CLR 17/15 A3022 RMK AO2 T01700154 $,0,7.0,0,16090.0,0,0,0,
2026-04-12 10:55:00,METAR KVNC 121055Z AUTO 05007KT 10SM CLR 17/16 A3021 RMK AO2 T01700156 $,0,7.0,0,16090.0,0,0,0,
2026-04-12 10:35:00,METAR KVNC 121035Z AUTO 05006KT 10SM CLR 17/15 A3021 RMK AO2 T01670154 $,0,6.0,0,16090.0,0,0,0,
2026-04-12 10:15:00,METAR KVNC 121015Z AUTO 05006KT 10SM CLR 17/16 A3021 RMK AO2 T01710156 $,0,6.0,0,16090.0,0,0,0,
2026-04-12 09:55:00,METAR KVNC 120955Z AUTO 06007KT 10SM CLR 17/16 A3020 RMK AO2 T01730156 $,0,7.0,0,16090.0,0,0,0,
2026-04-12 09:35:00,METAR KVNC 120935Z AUTO 06006KT 10SM CLR 17/16 A3019 RMK AO2 T01720157 $,0,6.0,0,16090.0,0,0,0,
2026-04-12 09:15:00,METAR KVNC 120915Z AUTO 05006KT 10SM CLR 17/16 A3019 RMK AO2 T01740158 $,0,6.0,0,16090.0,0,0,0,
2026-04-12 08:55:00,METAR KVNC 120855Z AUTO 06005KT 10SM CLR 18/16 A3018 RMK AO2 T01760159 56010 $,0,5.0,0,16090.0,0,0,0,
2026-04-12 08:35:00,METAR KVNC 120835Z AUTO 06006KT 10SM CLR 18/16 A3018 RMK AO2 T01770160 $,0,6.0,0,16090.0,0,0,0,
2026-04-12 08:15:00,METAR KVNC 120815Z AUTO 06006KT 10SM CLR 18/16 A3018 RMK AO2 T01780160 $,0,6.0,0,16090.0,0,0,0,
2026-04-12 07:55:00,METAR KVNC 120755Z AUTO 06007KT 10SM CLR 18/16 A3019 RMK AO2 T01800160 $,0,7.0,0,16090.0,0,0,0,
2026-04-12 07:35:00,METAR KVNC 120735Z AUTO 06007KT 10SM CLR 18/16 A3020 RMK AO2 T01800161 $,0,7.0,0,16090.0,0,0,0,
2026-04-12 07:15:00,METAR KVNC 120715Z AUTO 06006KT 10SM CLR 18/16 A3020 RMK AO2 T01790160 $,0,6.0,0,16090.0,0,0,0,
2026-04-12 06:55:00,METAR KVNC 120655Z AUTO 07006KT 10SM CLR 18/16 A3021 RMK AO2 T01820161 $,0,6.0,0,16090.0,0,0,0,
2026-04-12 06:35:00,METAR KVNC 120635Z AUTO 07006KT 10SM CLR 18/16 A3021 RMK AO2 T01830162 $,0,6.0,0,16090.0,0,0,0,
2026-04-12 06:15:00,METAR KVNC 120615Z AUTO 08005KT 10SM CLR 18/16 A3021 RMK AO2 T01840162 $,0,5.0,0,16090.0,0,0,0,
2026-04-12 05:55:00,METAR KVNC 120555Z AUTO 06006KT 10SM CLR 19/16 A3021 RMK AO2 T01860162 10250 20186 58005 $,0,6.0,0,16090.0,0,0,0,
2026-04-12 05:35:00,METAR KVNC 120535Z AUTO 06006KT 10SM CLR 19/16 A3022 RMK AO2 T01900163 $,0,6.0,0,16090.0,0,0,0,
2026-04-12 05:15:00,METAR KVNC 120515Z AUTO 06006KT 10SM CLR 19/16 A3022 RMK AO2 T01950163 $,0,6.0,0,16090.0,0,0,0,
2026-04-12 04:55:00,METAR KVNC 120455Z AUTO 06007KT 10SM CLR 20/16 A3022 RMK AO2 T01990163 402880170 $,0,7.0,0,16090.0,0,0,0,
2026-04-12 04:35:00,METAR KVNC 120435Z AUTO 07008KT 10SM CLR 20/16 A3022 RMK AO2 T02020164 $,0,8.0,0,16090.0,0,0,0,
2026-04-12 04:15:00,METAR KVNC 120415Z AUTO 07010KT 10SM CLR 20/16 A3022 RMK AO2 T02050164 $,0,10.0,0,16090.0,0,0,0,
2026-04-12 03:55:00,METAR KVNC 120355Z AUTO 06010KT 10SM CLR 21/16 A3023 RMK AO2 T02090165 $,0,10.0,0,16090.0,0,0,0,
2026-04-12 03:35:00,METAR KVNC 120335Z AUTO 07010KT 10SM CLR 21/16 A3022 RMK AO2 T02090165 $,0,10.0,0,16090.0,0,0,0,
2026-04-12 03:15:00,METAR KVNC 120315Z AUTO 07010KT 10SM CLR 21/16 A3023 RMK AO2 T02130164 $,0,10.0,0,16090.0,0,0,0,
2026-04-12 02:55:00,METAR KVNC 120255Z AUTO 06010KT 10SM CLR 22/16 A3023 RMK AO2 T02170163 52019 $,0,10.0,0,16090.0,0,0,0,
2026-04-12 02:35:00,METAR KVNC 120235Z AUTO 07010KT 10SM CLR 22/16 A3023 RMK AO2 T02200163 $,0,10.0,0,16090.0,0,0,0,
2026-04-12 02:15:00,METAR KVNC 120215Z AUTO 07010KT 10SM CLR 22/16 A3022 RMK AO2 T02240162 $,0,10.0,0,16090.0,0,0,0,
2026-04-12 01:55:00,METAR KVNC 120155Z AUTO 07009KT 10SM CLR 23/16 A3021 RMK AO2 T02300159 $,0,9.0,0,16090.0,0,0,0,
2026-04-12 01:35:00,METAR KVNC 120135Z AUTO 08010KT 10SM CLR 23/16 A3021 RMK AO2 T02340158 $,0,10.0,0,16090.0,0,0,0,
2026-04-12 01:15:00,METAR KVNC 120115Z AUTO 08008KT 10SM CLR 24/15 A3020 RMK AO2 T02370154 $,0,8.0,0,16090.0,0,0,0,
2026-04-12 00:55:00,METAR KVNC 120055Z AUTO 07010KT 10SM CLR 24/15 A3019 RMK AO2 T02410147 $,0,10.0,0,16090.0,0,0,0,
2026-04-12 00:35:00,METAR KVNC 120035Z AUTO 07006KT 10SM FEW060 24/14 A3018 RMK AO2 T02420139 $,0,6.0,0,16090.0,0,0,0,
2026-04-12 00:15:00,METAR KVNC 120015Z AUTO 06008KT 9SM SCT060 25/13 A3017 RMK AO2 T02470134 $,0,8.0,0,14481.0,0,0,0,
2026-04-11 23:55:00,METAR KVNC 112355Z AUTO 05008KT 10SM SCT065 25/13 A3017 RMK AO2 T02520130 10288 20252 53009 $,0,8.0,0,16090.0,0,0,0,
2026-04-11 23:35:00,METAR KVNC 112335Z AUTO 04009KT 9SM SCT070 26/13 A3017 RMK AO2 T02570126 $,0,9.0,0,14481.0,0,0,0,
2026-04-11 23:15:00,METAR KVNC 112315Z AUTO 05010KT 3SM HZ BKN070 27/12 A3016 RMK AO2 T02650123 $,0,10.0,0,4827.0,0,0,0,
2026-04-11 22:55:00,METAR KVNC 112255Z AUTO 06011KT 10SM CLR 27/11 A3016 RMK AO2 T02730115 $,0,11.0,0,16090.0,0,0,0,
2026-04-11 22:35:00,METAR KVNC 112235Z AUTO 06008KT 10SM CLR 27/11 A3015 RMK AO2 T02740114 $,0,8.0,0,16090.0,0,0,0,
2026-04-11 22:15:00,METAR KVNC 112215Z AUTO 08010KT 10SM CLR 28/12 A3015 RMK AO2 T02770120 $,0,10.0,0,16090.0,0,0,0,
2026-04-11 21:55:00,METAR KVNC 112155Z AUTO 08011KT 10SM SCT070 27/12 A3014 RMK AO2 T02700117 $,0,11.0,0,16090.0,0,0,0,
2026-04-11 21:35:00,METAR KVNC 112135Z AUTO 08010G16KT 10SM SCT070 28/12 A3014 RMK AO2 T02780121 $,0,10.0,1,16090.0,0,0,0,
2026-04-11 21:15:00,METAR KVNC 112115Z AUTO 09009G18KT 10SM BKN070 28/12 A3014 RMK AO2 T02810120 $,0,9.0,1,16090.0,0,0,0,
2026-04-11 20:55:00,METAR KVNC 112055Z AUTO 04013KT 10SM SCT070 29/12 A3015 RMK AO2 T02850123 $,0,13.0,0,16090.0,0,0,0,
2026-04-11 20:35:00,METAR KVNC 112035Z AUTO 07012G18KT 10SM SCT070 28/12 A3015 RMK AO2 T02780116 $,0,12.0,1,16090.0,0,0,0,
2026-04-11 20:15:00,METAR KVNC 112015Z AUTO 10007KT 10SM SCT070 28/12 A3015 RMK AO2 T02770120 $,0,7.0,0,16090.0,0,0,0,
2026-04-11 19:55:00,METAR KVNC 111955Z AUTO 09007KT 050V120 10SM FEW065 28/12 RMK AO2 T02840122 $,0,7.0,0,16090.0,0,0,0,
2026-04-11 19:35:00,METAR KVNC 111935Z AUTO VRB06KT 10SM SCT065 28/12 A3016 RMK AO2 T02810123 $,0,6.0,0,16090.0,0,0,0,
2026-04-11 19:15:00,METAR KVNC 111915Z AUTO 08008KT 10SM FEW065 28/12 A3017 RMK AO2 T02770122 $,0,8.0,0,16090.0,0,0,0,
2026-04-11 18:55:00,METAR KVNC 111855Z AUTO 06010G15KT 030V090 10SM CLR 28/12 A3018 RMK AO2 T02750123 $,0,10.0,1,16090.0,0,0,0,
2026-04-11 18:35:00,METAR KVNC 111835Z AUTO 07013KT 10SM CLR 28/12 A3018 RMK AO2 T02770123 $,0,13.0,0,16090.0,0,0,0,
2026-04-11 18:15:00,METAR KVNC 111815Z AUTO 04009G18KT 10SM CLR 27/12 A3019 RMK AO2 T02730117 $,0,9.0,1,16090.0,0,0,0,
2026-04-11 17:55:00,METAR KVNC 111755Z AUTO 07010KT 10SM FEW360 27/12 A3020 RMK AO2 T02700122 10272 20178 58012 $,0,10.0,0,16090.0,0,0,0,
2026-04-11 17:35:00,METAR KVNC 111735Z AUTO 08011G17KT 10SM FEW060 27/12 A3020 RMK AO2 T02700123 $,0,11.0,1,16090.0,0,0,0,
2026-04-11 17:15:00,METAR KVNC 111715Z AUTO 09009KT 10SM FEW050 27/13 A3021 RMK AO2 T02660128 $,0,9.0,0,16090.0,0,0,0,
2026-04-11 16:55:00,METAR KVNC 111655Z AUTO 06011KT 10SM FEW050 26/13 A3022 RMK AO2 T02600128 $,0,11.0,0,16090.0,0,0,0,
2026-04-11 16:35:00,METAR KVNC 111635Z AUTO 07013KT 10SM FEW050 26/13 A3022 RMK AO2 T02570127 $,0,13.0,0,16090.0,0,0,0,
2026-04-11 16:15:00,METAR KVNC 111615Z AUTO 06012KT 10SM SCT049 26/12 A3023 RMK AO2 T02550123 $,0,12.0,0,16090.0,0,0,0,
2026-04-11 15:55:00,METAR KVNC 111555Z AUTO 04013G18KT 10SM CLR 26/13 A3023 RMK AO2 T02570134 $,0,13.0,1,16090.0,0,0,0,
2026-04-11 15:35:00,METAR KVNC 111535Z AUTO 04011KT 10SM CLR 25/13 A3023 RMK AO2 T02510132 $,0,11.0,0,16090.0,0,0,0,
2026-04-11 15:15:00,METAR KVNC 111515Z AUTO 06013KT 10SM CLR 25/14 A3023 RMK AO2 T02520136 $,0,13.0,0,16090.0,0,0,0,
2026-04-11 14:55:00,METAR KVNC 111455Z AUTO 08012KT 10SM CLR 25/13 A3023 RMK AO2 T02470135 51007 $,0,12.0,0,16090.0,0,0,0,
2026-04-11 14:35:00,METAR KVNC 111435Z AUTO 07011KT 10SM CLR 24/14 A3023 RMK AO2 T02390138 $,0,11.0,0,16090.0,0,0,0,
2026-04-11 14:15:00,METAR KVNC 111415Z AUTO 05011KT 10SM CLR 23/14 A3023 RMK AO2 T02320139 $,0,11.0,0,16090.0,0,0,0,
2026-04-11 13:55:00,METAR KVNC 111355Z AUTO 07008KT 10SM CLR 22/14 A3023 RMK AO2 T02230145 $,0,8.0,0,16090.0,0,0,0,
2026-04-11 13:35:00,METAR KVNC 111335Z AUTO 06010KT 10SM CLR 22/15 A3023 RMK AO2 T02170147 $,0,10.0,0,16090.0,0,0,0,
2026-04-11 13:15:00,METAR KVNC 111315Z AUTO 07010KT 10SM CLR 21/15 A3023 RMK AO2 T02080146 $,0,10.0,0,16090.0,0,0,0,
2026-04-11 12:55:00,METAR KVNC 111255Z AUTO 06009KT 10SM CLR 20/15 A3022 RMK AO2 T01990150 $,0,9.0,0,16090.0,0,0,0,
2026-04-11 12:15:00,METAR KVNC 111215Z AUTO 05008KT 9SM CLR 18/15 A3022 RMK AO2 T01840155 $,0,8.0,0,14481.0,0,0,0,
2026-04-11 11:55:00,METAR KVNC 111155Z AUTO 05008KT 9SM CLR 17/16 A3021 RMK AO2 T01740156 10185 20170 53014 $,0,8.0,0,14481.0,0,0,0,
2026-04-11 11:35:00,METAR KVNC 111135Z AUTO 05009KT 10SM CLR 17/16 A3021 RMK AO2 T01730156 $,0,9.0,0,16090.0,0,0,0,
2026-04-11 11:15:00,METAR KVNC 111115Z AUTO 04006KT 10SM CLR 17/16 A3020 RMK AO2 T01700156 $,0,6.0,0,16090.0,0,0,0,
2026-04-11 10:55:00,METAR KVNC 111055Z AUTO 04008KT 10SM CLR 17/16 A3020 RMK AO2 T01720157 $,0,8.0,0,16090.0,0,0,0,
2026-04-11 10:35:00,METAR KVNC 111035Z AUTO 04009KT 10SM CLR 17/16 A3019 RMK AO2 T01720158 $,0,9.0,0,16090.0,0,0,0,
2026-04-11 10:15:00,METAR KVNC 111015Z AUTO 04009KT 10SM CLR 17/16 A3019 RMK AO2 T01740159 $,0,9.0,0,16090.0,0,0,0,
2026-04-11 09:55:00,METAR KVNC 110955Z AUTO 04008KT 10SM CLR 17/16 A3018 RMK AO2 T01750159 $,0,8.0,0,16090.0,0,0,0,
2026-04-11 09:35:00,METAR KVNC 110935Z AUTO 03007KT 10SM CLR 18/16 A3018 RMK AO2 T01750159 $,0,7.0,0,16090.0,0,0,0,
2026-04-11 09:15:00,METAR KVNC 110915Z AUTO 04007KT 10SM CLR 18/16 A3018 RMK AO2 T01760161 $,0,7.0,0,16090.0,0,0,0,
2026-04-11 08:55:00,METAR KVNC 110855Z AUTO 05007KT 10SM CLR 18/16 A3017 RMK AO2 T01770163 57004 $,0,7.0,0,16090.0,0,0,0,
2026-04-11 08:35:00,METAR KVNC 110835Z AUTO 05007KT 10SM CLR 18/16 A3017 RMK AO2 T01770163 $,0,7.0,0,16090.0,0,0,0,
2026-04-11 08:15:00,METAR KVNC 110815Z AUTO 05007KT 10SM CLR 18/16 A3017 RMK AO2 T01780163 $,0,7.0,0,16090.0,0,0,0,
2026-04-11 07:55:00,METAR KVNC 110755Z AUTO 05006KT 10SM CLR 18/16 A3017 RMK AO2 T01780162 $,0,6.0,0,16090.0,0,0,0,
2026-04-11 07:35:00,METAR KVNC 110735Z AUTO 05006KT 10SM CLR 18/16 A3018 RMK AO2 T01780163 $,0,6.0,0,16090.0,0,0,0,
2026-04-11 07:15:00,METAR KVNC 110715Z AUTO 05005KT 10SM CLR 18/16 A3018 RMK AO2 T01770163 $,0,5.0,0,16090.0,0,0,0,
2026-04-11 06:55:00,METAR KVNC 110655Z AUTO 04006KT 10SM CLR 18/16 A3018 RMK AO2 T01800165 $,0,6.0,0,16090.0,0,0,0,
2026-04-11 06:35:00,METAR KVNC 110635Z AUTO 03006KT 10SM CLR 18/17 A3018 RMK AO2 T01810165 $,0,6.0,0,16090.0,0,0,0,
2026-04-11 06:15:00,METAR KVNC 110615Z AUTO 04005KT 10SM CLR 18/17 A3018 RMK AO2 T01840167 $,0,5.0,0,16090.0,0,0,0,
2026-04-11 05:55:00,METAR KVNC 110555Z AUTO 05006KT 10SM CLR 19/17 A3018 RMK AO2 T01860166 10254 20186 56006 $,0,6.0,0,16090.0,0,0,0,
2026-04-11 05:35:00,METAR KVNC 110535Z AUTO 05006KT 10SM CLR 19/17 A3018 RMK AO2 T01890167 $,0,6.0,0,16090.0,0,0,0,
2026-04-11 05:15:00,METAR KVNC 110515Z AUTO 05007KT 10SM CLR 19/17 A3018 RMK AO2 T01930167 $,0,7.0,0,16090.0,0,0,0,
2026-04-11 04:55:00,METAR KVNC 110455Z AUTO 06009KT 10SM CLR 20/17 A3018 RMK AO2 T01980166 402960180 $,0,9.0,0,16090.0,0,0,0,
2026-04-11 04:35:00,METAR KVNC 110435Z AUTO 07009KT 10SM CLR 20/17 A3018 RMK AO2 T02000166 $,0,9.0,0,16090.0,0,0,0,
2026-04-11 04:15:00,METAR KVNC 110415Z AUTO 06011KT 10SM CLR 20/17 A3019 RMK AO2 T02030167 $,0,11.0,0,16090.0,0,0,0,
2026-04-11 03:55:00,METAR KVNC 110355Z AUTO 07010KT 10SM CLR 21/17 A3019 RMK AO2 T02050167 $,0,10.0,0,16090.0,0,0,0,
2026-04-11 03:35:00,METAR KVNC 110335Z AUTO 07010KT 10SM CLR 21/17 A3020 RMK AO2 T02090167 $,0,10.0,0,16090.0,0,0,0,
2026-04-11 03:15:00,METAR KVNC 110315Z AUTO 07010KT 10SM CLR 21/17 A3020 RMK AO2 T02120167 $,0,10.0,0,16090.0,0,0,0,
2026-04-11 02:55:00,METAR KVNC 110255Z AUTO 07012KT 10SM CLR 22/16 A3020 RMK AO2 T02170164 51022 $,0,12.0,0,16090.0,0,0,0,
2026-04-11 02:35:00,METAR KVNC 110235Z AUTO 07012KT 10SM CLR 22/16 A3020 RMK AO2 T02200163 $,0,12.0,0,16090.0,0,0,0,
2026-04-11 02:15:00,METAR KVNC 110215Z AUTO 09010KT 10SM CLR 22/16 A3019 RMK AO2 T02230163 $,0,10.0,0,16090.0,0,0,0,
2026-04-11 01:55:00,METAR KVNC 110155Z AUTO 08011KT 10SM CLR 23/16 A3019 RMK AO2 T02290161 $,0,11.0,0,16090.0,0,0,0,
2026-04-11 01:35:00,METAR KVNC 110135Z AUTO 07011KT 10SM CLR 23/16 A3018 RMK AO2 T02310158 $,0,11.0,0,16090.0,0,0,0,
2026-04-11 01:15:00,METAR KVNC 110115Z AUTO 08011KT 10SM CLR 24/16 A3017 RMK AO2 T02370156 $,0,11.0,0,16090.0,0,0,0,
2026-04-11 00:55:00,METAR KVNC 110055Z AUTO 08007KT 10SM CLR 24/15 A3016 RMK AO2 T02400154 $,0,7.0,0,16090.0,0,0,0,
2026-04-11 00:35:00,METAR KVNC 110035Z AUTO 07011KT 10SM CLR 24/15 A3015 RMK AO2 T02450154 $,0,11.0,0,16090.0,0,0,0,
2026-04-11 00:15:00,METAR KVNC 110015Z AUTO 08011KT 10SM CLR 25/15 A3015 RMK AO2 T02510148 $,0,11.0,0,16090.0,0,0,0,
2026-04-10 23:55:00,METAR KVNC 102355Z AUTO 08012KT 10SM CLR 26/15 A3014 RMK AO2 T02570145 10296 20257 53006 $,0,12.0,0,16090.0,0,0,0,
2026-04-10 23:35:00,METAR KVNC 102335Z AUTO 07015KT 10SM CLR 26/14 A3013 RMK AO2 T02630141 $,0,15.0,0,16090.0,0,0,0,
2026-04-10 23:15:00,METAR KVNC 102315Z AUTO 06009KT 10SM CLR 27/14 A3013 RMK AO2 T02690139 $,0,9.0,0,16090.0,0,0,0,
2026-04-10 22:55:00,METAR KVNC 102255Z AUTO 06011KT 10SM FEW060 27/14 A3013 RMK AO2 T02710138 $,0,11.0,0,16090.0,0,0,0,
2026-04-10 22:35:00,METAR KVNC 102235Z AUTO 07012KT 10SM SCT060 BKN080 28/14 A3013 RMK AO2 T02760144 $,0,12.0,0,16090.0,0,0,0,
2026-04-10 22:15:00,METAR KVNC 102215Z AUTO 05011KT 10SM FEW060 28/14 A3012 RMK AO2 T02750142 $,0,11.0,0,16090.0,0,0,0,
2026-04-10 21:55:00,METAR KVNC 102155Z AUTO 06010KT 10SM FEW060 28/15 A3012 RMK AO2 T02810147 $,0,10.0,0,16090.0,0,0,0,
2026-04-10 21:35:00,METAR KVNC 102135Z AUTO 06010KT 10SM FEW065 SCT095 28/15 A3012 RMK AO2 T02820151 $,0,10.0,0,16090.0,0,0,0,
2026-04-10 21:15:00,METAR KVNC 102115Z AUTO 06011KT 10SM SCT060 BKN090 27/15 A3012 RMK AO2 T02730146 $,0,11.0,0,16090.0,0,0,0,
2026-04-10 20:55:00,METAR KVNC 102055Z AUTO 08011KT 10SM SCT060 29/16 A3012 RMK AO2 T02870155 57017 $,0,11.0,0,16090.0,0,0,0,
2026-04-10 20:35:00,METAR KVNC 102035Z AUTO 04009G18KT 10SM FEW060 28/14 A3012 RMK AO2 T02780139 $,0,9.0,1,16090.0,0,0,0,
2026-04-10 20:15:00,METAR KVNC 102015Z AUTO 04010KT 10SM FEW060 SCT080 28/14 A3013 RMK AO2 T02850143 $,0,10.0,0,16090.0,0,0,0,
2026-04-10 19:55:00,METAR KVNC 101955Z AUTO 04009KT 10SM FEW055 SCT080 28/14 A3013 RMK AO2 T02770135 $,0,9.0,0,16090.0,0,0,0,
2026-04-10 19:35:00,METAR KVNC 101935Z AUTO 08010KT 040V120 10SM FEW075 SCT360 29/15 A3014 RMK AO2 T02910154 $,0,10.0,0,16090.0,0,0,0,
2026-04-10 19:15:00,METAR KVNC 101915Z AUTO 05010KT 10SM FEW050 BKN070 28/16 A3015 RMK AO2 T02830156 $,0,10.0,0,16090.0,0,0,0,
2026-04-10 18:55:00,METAR KVNC 101855Z AUTO 09009KT 10SM OVC070 28/15 A3016 RMK AO2 T02760155 $,0,9.0,0,16090.0,0,0,0,
2026-04-10 18:35:00,METAR KVNC 101835Z AUTO 04009KT 10SM FEW046 OVC060 28/16 A3016 RMK AO2 T02780159 $,0,9.0,0,16090.0,0,0,0,
2026-04-10 18:15:00,METAR KVNC 101815Z AUTO VRB06KT 10SM FEW046 BKN060 28/16 A3016 RMK AO2 T02790165 $,0,6.0,0,16090.0,0,0,0,
2026-04-10 17:55:00,METAR KVNC 101755Z AUTO 07013KT 10SM SCT050 BKN060 28/16 A3017 RMK AO2 T02780160 10279 20193 58007 $,0,13.0,0,16090.0,0,0,0,
2026-04-10 17:35:00,METAR KVNC 101735Z AUTO 06007G17KT 10SM SCT047 BKN060 28/16 A3017 RMK AO2 T02780160 $,0,7.0,1,16090.0,0,0,0,
2026-04-10 17:15:00,METAR KVNC 101715Z AUTO 09012G16KT 10SM BKN049 27/16 A3018 RMK AO2 T02750161 $,0,12.0,1,16090.0,0,0,0,
2026-04-10 16:55:00,METAR KVNC 101655Z AUTO 05012KT 10SM BKN045 BKN055 27/16 A3019 RMK AO2 T02700162 $,0,12.0,0,16090.0,0,0,0,
2026-04-10 16:35:00,METAR KVNC 101635Z AUTO 08009KT 10SM SCT041 SCT050 27/16 A3019 RMK AO2 T02660164 $,0,9.0,0,16090.0,0,0,0,
2026-04-10 16:15:00,METAR KVNC 101615Z AUTO 09010KT 10SM BKN040 27/16 A3020 RMK AO2 T02660162 $,0,10.0,0,16090.0,0,0,0,
2026-04-10 15:55:00,METAR KVNC 101555Z AUTO 05013G18KT 10SM FEW038 26/16 A3020 RMK AO2 T02620162 $,0,13.0,1,16090.0,0,0,0,
2026-04-10 15:35:00,METAR KVNC 101535Z AUTO 07015KT 10SM FEW034 26/16 A3020 RMK AO2 T02590158 $,0,15.0,0,16090.0,0,0,0,
2026-04-10 15:15:00,METAR KVNC 101515Z AUTO 07012KT 10SM FEW032 25/17 A3019 RMK AO2 T02540168 $,0,12.0,0,16090.0,0,0,0,
2026-04-10 14:55:00,METAR KVNC 101455Z AUTO 07015G18KT 10SM FEW030 25/17 A3019 RMK AO2 T02510168 53010 $,0,15.0,1,16090.0,0,0,0,
2026-04-10 14:35:00,METAR KVNC 101435Z AUTO 08015G20KT 10SM CLR 24/17 A3018 RMK AO2 T02440167 $,0,15.0,1,16090.0,0,0,0,
2026-04-10 14:15:00,METAR KVNC 101415Z AUTO 06013G20KT 10SM CLR 24/17 A3018 RMK AO2 T02400170 $,0,13.0,1,16090.0,0,0,0,
2026-04-10 13:55:00,METAR KVNC 101355Z AUTO 06012G17KT 10SM CLR 24/17 A3018 RMK AO2 T02360169 $,0,12.0,1,16090.0,0,0,0,
2026-04-10 13:35:00,METAR KVNC 101335Z AUTO 05012KT 10SM CLR 23/17 A3017 RMK AO2 T02300168 $,0,12.0,0,16090.0,0,0,0,
2026-04-10 13:15:00,METAR KVNC 101315Z AUTO 05013KT 10SM CLR 22/17 A3017 RMK AO2 T02190166 $,0,13.0,0,16090.0,0,0,0,
2026-04-10 12:55:00,METAR KVNC 101255Z AUTO 06014KT 10SM CLR 21/16 A3017 RMK AO2 T02100162 $,0,14.0,0,16090.0,0,0,0,
2026-04-10 12:35:00,METAR KVNC 101235Z AUTO 05014KT 10SM SCT090 21/16 A3017 RMK AO2 T02060160 $,0,14.0,0,16090.0,0,0,0,
2026-04-10 12:15:00,METAR KVNC 101215Z AUTO 05011KT 10SM OVC090 20/16 A3016 RMK AO2 T01990159 $,0,11.0,0,16090.0,0,0,0,
2026-04-10 11:55:00,METAR KVNC 101155Z AUTO 05011KT 10SM OVC090 19/16 A3016 RMK AO2 T01890156 10194 20180 53012 $,0,11.0,0,16090.0,0,0,0,
2026-04-10 11:35:00,METAR KVNC 101135Z AUTO 05011KT 10SM OVC090 19/16 A3016 RMK AO2 T01860156 $,0,11.0,0,16090.0,0,0,0,
2026-04-10 11:15:00,METAR KVNC 101115Z AUTO 05010KT 10SM SCT090 18/15 A3015 RMK AO2 T01820155 $,0,10.0,0,16090.0,0,0,0,
2026-04-10 10:55:00,METAR KVNC 101055Z AUTO 04010KT 10SM CLR 18/15 A3015 RMK AO2 T01810153 $,0,10.0,0,16090.0,0,0,0,
2026-04-10 10:35:00,METAR KVNC 101035Z AUTO 04010KT 10SM CLR 18/15 A3014 RMK AO2 T01810154 $,0,10.0,0,16090.0,0,0,0,
2026-04-10 10:15:00,METAR KVNC 101015Z AUTO 04009KT 10SM CLR 18/16 A3014 RMK AO2 T01800155 $,0,9.0,0,16090.0,0,0,0,
2026-04-10 09:55:00,METAR KVNC 100955Z AUTO 04009KT 10SM CLR 18/16 A3013 RMK AO2 T01800157 $,0,9.0,0,16090.0,0,0,0,
2026-04-10 09:35:00,METAR KVNC 100935Z AUTO 04009KT 10SM CLR 18/16 A3013 RMK AO2 T01800158 $,0,9.0,0,16090.0,0,0,0,
2026-04-10 09:15:00,METAR KVNC 100915Z AUTO 04010KT 10SM CLR 18/16 A3013 RMK AO2 T01810159 $,0,10.0,0,16090.0,0,0,0,
2026-04-10 08:55:00,METAR KVNC 100855Z AUTO 05009KT 10SM CLR 18/16 A3012 RMK AO2 T01810161 55008 $,0,9.0,0,16090.0,0,0,0,
2026-04-10 08:35:00,METAR KVNC 100835Z AUTO 04008KT 10SM CLR 18/16 A3013 RMK AO2 T01810163 $,0,8.0,0,16090.0,0,0,0,
2026-04-10 08:15:00,METAR KVNC 100815Z AUTO 04010KT 10SM CLR 18/16 A3012 RMK AO2 T01830163 $,0,10.0,0,16090.0,0,0,0,
2026-04-10 07:55:00,METAR KVNC 100755Z AUTO 05009KT 10SM CLR 18/16 A3012 RMK AO2 T01840165 $,0,9.0,0,16090.0,0,0,0,
2026-04-10 07:35:00,METAR KVNC 100735Z AUTO 05009KT 10SM CLR 19/17 A3013 RMK AO2 T01860166 $,0,9.0,0,16090.0,0,0,0,
2026-04-10 07:15:00,METAR KVNC 100715Z AUTO 05009KT 10SM FEW060 19/17 A3013 RMK AO2 T01880167 $,0,9.0,0,16090.0,0,0,0,
2026-04-10 06:55:00,METAR KVNC 100655Z AUTO 05007KT 10SM CLR 19/17 A3014 RMK AO2 T01890169 $,0,7.0,0,16090.0,0,0,0,
2026-04-10 06:35:00,METAR KVNC 100635Z AUTO 04008KT 10SM CLR 19/17 A3014 RMK AO2 T01910169 $,0,8.0,0,16090.0,0,0,0,
2026-04-10 06:15:00,METAR KVNC 100615Z AUTO 05008KT 9SM CLR 19/17 A3014 RMK AO2 T01920171 $,0,8.0,0,14481.0,0,0,0,
2026-04-10 05:55:00,METAR KVNC 100555Z AUTO 05008KT 10SM CLR 19/17 A3015 RMK AO2 T01940173 10226 20194 58004 $,0,8.0,0,16090.0,0,0,0,
2026-04-10 05:35:00,METAR KVNC 100535Z AUTO 05008KT 9SM CLR 20/17 A3015 RMK AO2 T01970174 $,0,8.0,0,14481.0,0,0,0,
2026-04-10 05:15:00,METAR KVNC 100515Z AUTO 05009KT 10SM FEW044 20/18 A3016 RMK AO2 T01990175 $,0,9.0,0,16090.0,0,0,0,
2026-04-10 04:55:00,METAR KVNC 100455Z AUTO 05008KT 9SM BKN040 OVC049 20/18 A3016 RMK AO2 T02020177 402860194 $,0,8.0,0,14481.0,0,0,0,
2026-04-10 04:35:00,METAR KVNC 100435Z AUTO 05010KT 10SM BKN042 BKN050 20/18 A3016 RMK AO2 T02020176 $,0,10.0,0,16090.0,0,0,0,
2026-04-10 04:15:00,METAR KVNC 100415Z AUTO 06011KT 10SM SCT044 BKN060 20/18 A3016 RMK AO2 T02040177 $,0,11.0,0,16090.0,0,0,0,
2026-04-10 03:55:00,METAR KVNC 100355Z AUTO 06013KT 10SM BKN055 20/18 A3016 RMK AO2 T02050177 $,0,13.0,0,16090.0,0,0,0,
2026-04-10 03:35:00,METAR KVNC 100335Z AUTO 07012KT 10SM SCT047 BKN060 20/18 A3015 RMK AO2 T02050177 $,0,12.0,0,16090.0,0,0,0,
2026-04-10 03:15:00,METAR KVNC 100315Z AUTO 07012KT 10SM SCT045 21/18 A3016 RMK AO2 T02050177 $,0,12.0,0,16090.0,0,0,0,
2026-04-10 02:55:00,METAR KVNC 100255Z AUTO 07013KT 10SM SCT018 SCT044 21/18 A3016 RMK AO2 T02050176 51017 $,0,13.0,0,16090.0,0,0,0,
2026-04-10 02:35:00,METAR KVNC 100235Z AUTO 06011KT 10SM SCT019 21/18 A3016 RMK AO2 T02070175 $,0,11.0,0,16090.0,0,0,0,
2026-04-10 02:15:00,METAR KVNC 100215Z AUTO 06015G22KT 10SM SCT046 21/17 A3015 RMK AO2 T02090174 $,0,15.0,1,16090.0,0,0,0,
2026-04-10 01:55:00,METAR KVNC 100155Z AUTO 07015KT 10SM FEW019 SCT035 SCT043 21/17 A3015 RMK AO2 PK WND 06026/0137 T02100172 $,0,15.0,0,16090.0,0,0,0,
2026-04-10 01:35:00,METAR KVNC 100135Z AUTO 06017G24KT 10SM FEW019 SCT060 21/17 A3014 RMK AO2 T02120173 $,0,17.0,1,16090.0,0,0,0,
2026-04-10 01:15:00,METAR KVNC 100115Z AUTO 06018G24KT 10SM BKN055 21/17 A3014 RMK AO2 T02150173 $,0,18.0,1,16090.0,0,0,0,
2026-04-10 00:55:00,METAR KVNC 100055Z AUTO 07016KT 10SM FEW027 OVC050 22/17 A3013 RMK AO2 PK WND 06028/0016 T02170175 $,0,16.0,0,16090.0,0,0,0,
2026-04-10 00:35:00,METAR KVNC 100035Z AUTO 06019G26KT 10SM FEW027 BKN032 OVC049 22/17 A3013 RMK AO2 PK WND 06028/0016 T02200175 $,0,19.0,1,16090.0,0,0,0,
2026-04-10 00:15:00,METAR KVNC 100015Z AUTO 05020G24KT 10SM BKN030 22/18 A3012 RMK AO2 PK WND 05026/2357 T02240176 $,0,20.0,1,16090.0,0,0,0,
2026-04-09 23:55:00,METAR KVNC 092355Z AUTO 05016KT 10SM FEW028 SCT039 23/18 A3011 RMK AO2 PK WND 05028/2336 T02270178 10286 20227 53017 $,0,16.0,0,16090.0,0,0,0,
2026-04-09 23:35:00,METAR KVNC 092335Z AUTO 05022G26KT 10SM SCT028 BKN039 23/18 A3011 RMK AO2 PK WND 05028/2300 T02340177 $,0,22.0,1,16090.0,0,0,0,
2026-04-09 23:15:00,METAR KVNC 092315Z AUTO 05018G26KT 10SM FEW028 24/18 A3010 RMK AO2 PK WND 05028/2300 T02370180 $,0,18.0,1,16090.0,0,0,0,
2026-04-09 22:55:00,METAR KVNC 092255Z AUTO 05022KT 10SM CLR 24/18 A3009 RMK AO2 PK WND 05028/2234 T02440177 $,0,22.0,0,16090.0,0,0,0,
2026-04-09 22:35:00,METAR KVNC 092235Z AUTO 05023G28KT 10SM CLR 25/18 A3008 RMK AO2 PK WND 05028/2234 T02470179 $,0,23.0,1,16090.0,0,0,0,
2026-04-09 22:15:00,METAR KVNC 092215Z AUTO 06021G28KT 10SM CLR 25/18 A3007 RMK AO2 PK WND 05028/2210 T02540178 $,0,21.0,1,16090.0,0,0,0,
2026-04-09 21:55:00,METAR KVNC 092155Z AUTO 05023G26KT 10SM FEW032 26/17 A3008 RMK AO2 PK WND 05027/2150 T02610174 $,0,23.0,1,16090.0,0,0,0,
2026-04-09 21:35:00,METAR KVNC 092135Z AUTO 06019KT 10SM FEW037 27/18 A3007 RMK AO2 PK WND 05027/2120 T02690178 $,0,19.0,0,16090.0,0,0,0,
2026-04-09 21:15:00,METAR KVNC 092115Z AUTO 05022G27KT 10SM SCT038 SCT050 27/18 A3007 RMK AO2 PK WND 06027/2113 T02730178 $,0,22.0,1,16090.0,0,0,0,
2026-04-09 20:55:00,METAR KVNC 092055Z AUTO 05018G24KT 10SM FEW036 SCT050 28/18 A3006 RMK AO2 PK WND 05026/1954 T02770180 56009 $,0,18.0,1,16090.0,0,0,0,
2026-04-09 20:15:00,METAR KVNC 092015Z AUTO 05015G23KT 10SM FEW036 SCT060 BKN100 26/18 A3007 RMK AO2 PK WND 05026/1954 T02640181 $,0,15.0,1,16090.0,0,0,0,
2026-04-09 19:55:00,METAR KVNC 091955Z AUTO 05019G25KT 10SM SCT037 BKN048 BKN060 27/18 A3007 RMK AO2 T02740180 $,0,19.0,1,16090.0,0,0,0,
2026-04-09 19:35:00,METAR KVNC 091935Z AUTO 04017G23KT 10SM SCT038 SCT050 SCT060 28/18 A3007 RMK AO2 T02800179 $,0,17.0,1,16090.0,0,0,0,
2026-04-09 19:15:00,METAR KVNC 091915Z AUTO 06015KT 10SM FEW039 SCT050 28/18 A3007 RMK AO2 T02820183 $,0,15.0,0,16090.0,0,0,0,
2026-04-09 18:55:00,METAR KVNC 091855Z AUTO 05017G21KT 10SM SCT037 BKN047 28/18 A3007 RMK AO2 T02830182 $,0,17.0,1,16090.0,0,0,0,
2026-04-09 18:35:00,METAR KVNC 091835Z AUTO 06018G22KT 10SM FEW038 SCT047 28/18 A3008 RMK AO2 T02770182 $,0,18.0,1,16090.0,0,0,0,
2026-04-09 18:15:00,METAR KVNC 091815Z AUTO 04015G21KT 10SM FEW034 SCT049 28/18 A3008 RMK AO2 T02780183 $,0,15.0,1,16090.0,0,0,0,
2026-04-09 17:55:00,METAR KVNC 091755Z AUTO 06015G22KT 10SM SCT034 OVC048 27/18 A3009 RMK AO2 T02720183 10278 20198 58009 $,0,15.0,1,16090.0,0,0,0,
2026-04-09 17:35:00,METAR KVNC 091735Z AUTO 04018G22KT 10SM BKN036 BKN047 27/18 A3010 RMK AO2 T02700182 $,0,18.0,1,16090.0,0,0,0,
2026-04-09 17:15:00,METAR KVNC 091715Z AUTO 06017G22KT 10SM BKN037 BKN047 28/18 A3009 RMK AO2 T02760183 $,0,17.0,1,16090.0,0,0,0,
2026-04-09 16:55:00,METAR KVNC 091655Z AUTO 06014KT 10SM BKN033 BKN040 26/18 A3009 RMK AO2 PK WND 07026/1602 T02590180 $,0,14.0,0,16090.0,0,0,0,
2026-04-09 16:35:00,METAR KVNC 091635Z AUTO 05017KT 10SM SCT029 27/18 A3010 RMK AO2 PK WND 07026/1602 T02690182 $,0,17.0,0,16090.0,0,0,0,
2026-04-09 16:15:00,METAR KVNC 091615Z AUTO 04016KT 10SM BKN030 BKN035 26/18 A3010 RMK AO2 PK WND 07026/1602 T02620184 $,0,16.0,0,16090.0,0,0,0,
2026-04-09 15:55:00,METAR KVNC 091555Z AUTO 06020G23KT 10SM BKN028 26/18 A3011 RMK AO2 CIG 025V032 T02570180 $,0,20.0,1,16090.0,0,0,0,
2026-04-09 15:35:00,METAR KVNC 091535Z AUTO 06017G23KT 10SM BKN026 BKN032 25/18 A3012 RMK AO2 CIG 025V030 T02530183 $,0,17.0,1,16090.0,0,0,0,
2026-04-09 15:15:00,METAR KVNC 091515Z AUTO 05018G24KT 10SM BKN024 25/18 A3012 RMK AO2 CIG 022V029 T02510182 $,0,18.0,1,16090.0,0,0,0,
2026-04-09 14:55:00,METAR KVNC 091455Z AUTO 06018G25KT 10SM BKN022 OVC027 24/18 A3011 RMK AO2 CIG 020V026 T02390181 51008 $,0,18.0,1,16090.0,0,0,0,
2026-04-09 14:35:00,METAR KVNC 091435Z AUTO 05017KT 10SM BKN020 BKN080 25/19 A3011 RMK AO2 CIG 019V024 T02490185 $,0,17.0,0,16090.0,0,0,0,
2026-04-09 14:15:00,METAR KVNC 091415Z AUTO 07016G22KT 10SM SCT018 BKN075 24/18 A3011 RMK AO2 T02390184 $,0,16.0,1,16090.0,0,0,0,
2026-04-09 13:55:00,METAR KVNC 091355Z AUTO 07017G26KT 10SM SCT018 SCT075 23/18 A3011 RMK AO2 PK WND 07026/1340 T02320181 $,0,17.0,1,16090.0,0,0,0,
2026-04-09 13:35:00,METAR KVNC 091335Z AUTO 06018KT 10SM BKN016 23/18 A3010 RMK AO2 T02280182 $,0,18.0,0,16090.0,0,0,0,
2026-04-09 13:15:00,METAR KVNC 091315Z AUTO 05014KT 10SM BKN014 22/18 A3010 RMK AO2 CIG 013V017 T02190181 $,0,14.0,0,16090.0,0,0,0,
2026-04-09 12:55:00,METAR KVNC 091255Z AUTO 05018G26KT 10SM OVC012 21/18 A3010 RMK AO2 PK WND 05026/1243 T02080180 $,0,18.0,1,16090.0,0,0,0,
2026-04-09 12:35:00,METAR KVNC 091235Z AUTO 05017G23KT 10SM BKN012 21/18 A3010 RMK AO2 T02050180 $,0,17.0,1,16090.0,0,0,0,
2026-04-09 12:15:00,METAR KVNC 091215Z AUTO 05015KT 10SM FEW011 SCT110 20/18 A3009 RMK AO2 T02020180 $,0,15.0,0,16090.0,0,0,0,
2026-04-09 11:55:00,METAR KVNC 091155Z AUTO 05012KT 10SM BKN010 OVC110 20/18 A3009 RMK AO2 CIG 009V012 BKN V SCT T01960179 10197 20194 53015 $,0,12.0,0,16090.0,0,0,0,
2026-04-09 11:35:00,METAR KVNC 091135Z AUTO 05014KT 10SM OVC010 19/18 A3009 RMK AO2 CIG 009V011 T01940179 $,0,14.0,0,16090.0,0,0,0,
2026-04-09 11:15:00,METAR KVNC 091115Z AUTO 05014G20KT 10SM OVC011 20/18 A3008 RMK AO2 T01950177 $,0,14.0,1,16090.0,0,0,0,
2026-04-09 10:55:00,METAR KVNC 091055Z AUTO 05016KT 10SM OVC011 20/18 A3007 RMK AO2 T01950177 $,0,16.0,0,16090.0,0,0,0,
2026-04-09 10:35:00,METAR KVNC 091035Z AUTO 04013KT 10SM OVC010 19/18 A3007 RMK AO2 CIG 009V011 T01940177 $,0,13.0,0,16090.0,0,0,0,
2026-04-09 10:15:00,METAR KVNC 091015Z AUTO 04012KT 10SM OVC010 19/18 A3006 RMK AO2 CIG 009V011 T01940177 $,0,12.0,0,16090.0,0,0,0,
2026-04-09 09:55:00,METAR KVNC 090955Z AUTO 04011KT 10SM BKN011 19/18 A3006 RMK AO2 T01940177 $,0,11.0,0,16090.0,0,0,0,
2026-04-09 09:35:00,METAR KVNC 090935Z AUTO 04012KT 10SM BKN011 BKN019 19/18 A3005 RMK AO2 BKN011 V SCT T01940178 $,0,12.0,0,16090.0,0,0,0,
2026-04-09 09:15:00,METAR KVNC 090915Z AUTO 05011KT 10SM BKN012 OVC018 20/18 A3005 RMK AO2 CIG 010V016 T01950178 $,0,11.0,0,16090.0,0,0,0,
2026-04-09 08:55:00,METAR KVNC 090855Z AUTO 04012KT 10SM BKN015 OVC020 20/18 A3005 RMK AO2 CIG 011V019 T01970180 55006 $,0,12.0,0,16090.0,0,0,0,
2026-04-09 08:35:00,METAR KVNC 090835Z AUTO 04012KT 10SM SCT010 BKN019 OVC110 20/18 A3005 RMK AO2 T01960180 $,0,12.0,0,16090.0,0,0,0,
2026-04-09 08:15:00,METAR KVNC 090815Z AUTO 04010KT 10SM BKN010 BKN015 OVC028 20/18 A3005 RMK AO2 CIG 010V013 T01970181 $,0,10.0,0,16090.0,0,0,0,
2026-04-09 07:55:00,METAR KVNC 090755Z AUTO 04011KT 10SM SCT010 BKN016 BKN027 BKN120 20/18 A3004 RMK AO2 CIG 014V018 T01960181 $,0,11.0,0,16090.0,0,0,0,
2026-04-09 07:35:00,METAR KVNC 090735Z AUTO 05012KT 10SM BKN010 BKN026 BKN120 20/18 A3004 RMK AO2 CIG 009V013 BKN010 V SCT T01950182 $,0,12.0,0,16090.0,0,0,0,
2026-04-09 07:15:00,METAR KVNC 090715Z AUTO 04011KT 10SM BKN010 OVC120 20/18 A3005 RMK AO2 CIG 009V013 T01950180 $,0,11.0,0,16090.0,0,0,0,
2026-04-09 06:55:00,METAR KVNC 090655Z AUTO 05011KT 10SM SCT011 BKN110 20/18 A3005 RMK AO2 T01950180 $,0,11.0,0,16090.0,0,0,0,
2026-04-09 06:35:00,METAR KVNC 090635Z AUTO 05012KT 10SM SCT011 SCT085 BKN110 BKN180 20/18 A3005 RMK AO2 T01960179 $,0,12.0,0,16090.0,0,0,0,
2026-04-09 06:15:00,METAR KVNC 090615Z AUTO 05014KT 10SM FEW011 SCT090 BKN190 20/18 A3005 RMK AO2 T01960179 $,0,14.0,0,16090.0,0,0,0,
2026-04-09 05:55:00,METAR KVNC 090555Z AUTO 05013KT 10SM FEW011 SCT190 20/18 A3006 RMK AO2 T01970180 10218 20197 58003 $,0,13.0,0,16090.0,0,0,0,
2026-04-09 05:35:00,METAR KVNC 090535Z AUTO 05013KT 10SM OVC190 20/18 A3006 RMK AO2 T01980179 $,0,13.0,0,16090.0,0,0,0,
2026-04-09 05:15:00,METAR KVNC 090515Z AUTO 05014KT 10SM BKN190 20/18 A3007 RMK AO2 T01980179 $,0,14.0,0,16090.0,0,0,0,
2026-04-09 04:55:00,METAR KVNC 090455Z AUTO 05013KT 10SM SCT013 SCT100 20/18 A3008 RMK AO2 T01980178 402880186 $,0,13.0,0,16090.0,0,0,0,
2026-04-09 04:35:00,METAR KVNC 090435Z AUTO 05011KT 10SM FEW013 20/18 A3008 RMK AO2 T01980178 $,0,11.0,0,16090.0,0,0,0,
2026-04-09 04:15:00,METAR KVNC 090415Z AUTO 05014KT 10SM FEW013 20/18 A3008 RMK AO2 T01990179 $,0,14.0,0,16090.0,0,0,0,
2026-04-09 03:55:00,METAR KVNC 090355Z AUTO 06017KT 10SM BKN014 BKN120 20/18 A3008 RMK AO2 CIG 013V017 T02010177 $,0,17.0,0,16090.0,0,0,0,
2026-04-09 03:35:00,METAR KVNC 090335Z AUTO 06014G20KT 10SM BKN015 OVC110 20/18 A3008 RMK AO2 CIG 014V018 T02030177 $,0,14.0,1,16090.0,0,0,0,
2026-04-09 03:15:00,METAR KVNC 090315Z AUTO 06017KT 10SM FEW017 OVC110 21/18 A3008 RMK AO2 T02050175 $,0,17.0,0,16090.0,0,0,0,
2026-04-09 02:55:00,METAR KVNC 090255Z AUTO 06018G25KT 10SM BKN017 BKN042 OVC110 21/17 A3007 RMK AO2 PK WND 07027/0228 T02070175 51021 $,0,18.0,1,16090.0,0,0,0,
2026-04-09 02:35:00,METAR KVNC 090235Z AUTO 06015G27KT 10SM SCT017 BKN032 OVC039 21/18 A3007 RMK AO2 PK WND 07027/0228 T02070176 $,0,15.0,1,16090.0,0,0,0,
2026-04-09 02:15:00,METAR KVNC 090215Z AUTO 06017G22KT 10SM FEW017 BKN034 21/18 A3006 RMK AO2 T02080177 $,0,17.0,1,16090.0,0,0,0,
2026-04-09 01:55:00,METAR KVNC 090155Z AUTO 06016G26KT 10SM BKN015 21/18 A3006 RMK AO2 PK WND 06026/0139 CIG 013V019 T02050177 $,0,16.0,1,16090.0,0,0,0,
2026-04-09 01:35:00,METAR KVNC 090135Z AUTO 05020G25KT 10SM OVC015 21/18 A3005 RMK AO2 T02080180 $,0,20.0,1,16090.0,0,0,0,
2026-04-09 01:15:00,METAR KVNC 090115Z AUTO 06014KT 10SM FEW006 BKN015 OVC024 21/18 A3004 RMK AO2 T02050182 $,0,14.0,0,16090.0,0,0,0,
2026-04-09 00:55:00,METAR KVNC 090055Z AUTO 05013KT 10SM BKN025 21/18 A3003 RMK AO2 CIG 022V028 BKN V OVC T02140177 $,0,13.0,0,16090.0,0,0,0,VC
2026-04-09 00:35:00,METAR KVNC 090035Z AUTO 06018G23KT 10SM BKN025 21/18 A3003 RMK AO2 BKN V SCT T02130177 $,0,18.0,1,16090.0,0,0,0,
2026-04-09 00:15:00,METAR KVNC 090015Z AUTO 06015KT 10SM FEW025 SCT070 21/18 A3002 RMK AO2 T02150178 $,0,15.0,0,16090.0,0,0,0,
2026-04-08 23:55:00,METAR KVNC 082355Z AUTO 06019G25KT 10SM OVC025 22/18 A3001 RMK AO2 PK WND 07028/2259 CIG 022V029 OVC V BKN 60000 T02200177 10288 20220 51013 $,0,19.0,1,16090.0,0,0,0,VC
2026-04-08 23:35:00,METAR KVNC 082335Z AUTO 06019G24KT 9SM BKN022 OVC027 22/18 A3001 RMK AO2 PK WND 07028/2259 CIG 021V027 OVC V BKN T02240177 $,0,19.0,1,14481.0,0,0,0,VC
2026-04-08 23:15:00,METAR KVNC 082315Z AUTO 06018G24KT 10SM BKN023 23/18 A3000 RMK AO2 PK WND 07028/2259 CIG 021V027 T02260177 $,0,18.0,1,16090.0,0,0,0,
2026-04-08 22:55:00,METAR KVNC 082255Z AUTO 06023G28KT 9SM SCT023 23/18 A3000 RMK AO2 PK WND 05032/2205 SCT V BKN T02300178 $,0,23.0,1,14481.0,0,0,0,
2026-04-08 22:35:00,METAR KVNC 082235Z AUTO 06022G27KT 10SM BKN024 24/18 A3000 RMK AO2 PK WND 05032/2205 CIG 023V028 T02380180 $,0,22.0,1,16090.0,0,0,0,
2026-04-08 22:15:00,METAR KVNC 082215Z AUTO 05021G32KT 10SM FEW025 BKN055 24/18 A2999 RMK AO2 PK WND 05032/2205 T02410178 $,0,21.0,1,16090.0,0,0,0,
2026-04-08 21:55:00,METAR KVNC 082155Z AUTO 06023G33KT 10SM FEW033 SCT055 BKN075 24/18 A2999 RMK AO2 PK WND 05033/2141 RAB2111E2122 P0000 T02440180 $,0,23.0,1,16090.0,0,0,0,RA
2026-04-08 21:35:00,METAR KVNC 082135Z AUTO 05018G28KT 10SM SCT031 SCT040 SCT060 BKN075 24/19 A2998 RMK AO2 PK WND 05031/2109 RAB2111E2122 P0000 T02370189 $,0,18.0,1,16090.0,0,0,0,RA
2026-04-08 21:15:00,METAR KVNC 082115Z AUTO 05021G31KT 8SM -RA BKN031 BKN040 OVC110 24/19 A2999 RMK AO2 PK WND 05031/2109 RAB2111 P0000 T02390194 $,0,21.0,1,12872.0,0,0,0,"-RA,RA"
2026-04-08 20:55:00,METAR KVNC 082055Z AUTO 06019G23KT 10SM FEW039 SCT060 OVC110 27/19 A2997 RMK AO2 T02710188 55008 $,0,19.0,1,16090.0,0,0,0,
2026-04-08 20:35:00,METAR KVNC 082035Z AUTO 04020KT 10SM SCT038 BKN047 BKN060 26/19 A2997 RMK AO2 T02650186 $,0,20.0,0,16090.0,0,0,0,
2026-04-08 20:15:00,METAR KVNC 082015Z AUTO 04019G23KT 10SM SCT041 BKN050 28/18 A2997 RMK AO2 T02750182 $,0,19.0,1,16090.0,0,0,0,
2026-04-08 19:55:00,METAR KVNC 081955Z AUTO 06017KT 10SM SCT120 28/18 A2997 RMK AO2 T02790179 $,0,17.0,0,16090.0,0,0,0,
2026-04-08 19:35:00,METAR KVNC 081935Z AUTO 05017KT 10SM FEW048 BKN120 29/18 A2997 RMK AO2 T02850185 $,0,17.0,0,16090.0,0,0,0,
2026-04-08 19:15:00,METAR KVNC 081915Z AUTO 06013G21KT 10SM FEW038 BKN110 28/18 A2997 RMK AO2 T02770180 $,0,13.0,1,16090.0,0,0,0,
2026-04-08 18:55:00,METAR KVNC 081855Z AUTO 03015KT 10SM FEW038 SCT049 BKN120 27/18 A2998 RMK AO2 T02720184 $,0,15.0,0,16090.0,0,0,0,
2026-04-08 18:35:00,METAR KVNC 081835Z AUTO 06018KT 10SM SCT037 BKN047 BKN110 OVC370 28/17 A2998 RMK AO2 T02830171 $,0,18.0,0,16090.0,0,0,0,
2026-04-08 18:15:00,METAR KVNC 081815Z AUTO 05019G23KT 10SM SCT038 BKN110 28/18 A2999 RMK AO2 T02770182 $,0,19.0,1,16090.0,0,0,0,
2026-04-08 17:55:00,METAR KVNC 081755Z AUTO 05016KT 10SM FEW037 SCT055 OVC120 27/18 A3000 RMK AO2 PK WND 05026/1732 T02650181 10280 20196 58004 $,0,16.0,0,16090.0,0,0,0,
2026-04-08 17:35:00,METAR KVNC 081735Z AUTO 06021G26KT 10SM SCT038 BKN130 27/18 A3000 RMK AO2 PK WND 05026/1732 T02720181 $,0,21.0,1,16090.0,0,0,0,
2026-04-08 17:15:00,METAR KVNC 081715Z AUTO 07018G24KT 10SM FEW037 SCT049 BKN130 27/18 A3000 RMK AO2 T02710178 $,0,18.0,1,16090.0,0,0,0,
2026-04-08 16:55:00,METAR KVNC 081655Z AUTO 07017KT 10SM FEW033 SCT042 BKN050 26/18 A3001 RMK AO2 T02600179 $,0,17.0,0,16090.0,0,0,0,
2026-04-08 16:35:00,METAR KVNC 081635Z AUTO 07017KT 10SM BKN036 BKN290 27/18 A3000 RMK AO2 T02680179 $,0,17.0,0,16090.0,0,0,0,
2026-04-08 16:15:00,METAR KVNC 081615Z AUTO 05018KT 10SM BKN033 26/18 A3001 RMK AO2 T02590180 $,0,18.0,0,16090.0,0,0,0,
2026-04-08 15:55:00,METAR KVNC 081555Z AUTO 07020G24KT 10SM SCT032 BKN040 26/18 A3001 RMK AO2 PK WND 06026/1514 T02580178 $,0,20.0,1,16090.0,0,0,0,
2026-04-08 15:35:00,METAR KVNC 081535Z AUTO 06018KT 10SM BKN029 BKN037 25/18 A3001 RMK AO2 PK WND 06026/1514 CIG 025V033 T02510182 $,0,18.0,0,16090.0,0,0,0,
2026-04-08 15:15:00,METAR KVNC 081515Z AUTO 06022G26KT 10SM SCT024 BKN031 25/18 A3001 RMK AO2 PK WND 06026/1514 T02500180 $,0,22.0,1,16090.0,0,0,0,
2026-04-08 14:55:00,METAR KVNC 081455Z AUTO 06016G24KT 10SM BKN022 24/18 A3001 RMK AO2 PK WND 07026/1415 CIG 020V027 T02430182 51007 $,0,16.0,1,16090.0,0,0,0,
2026-04-08 14:35:00,METAR KVNC 081435Z AUTO 05018G23KT 10SM BKN020 24/18 A3001 RMK AO2 PK WND 07026/1415 CIG 018V025 T02380182 $,0,18.0,1,16090.0,0,0,0,
2026-04-08 14:15:00,METAR KVNC 081415Z AUTO 07019G25KT 10SM SCT020 23/18 A3000 RMK AO2 T02340181 $,0,19.0,1,16090.0,0,0,0,
2026-04-08 13:55:00,METAR KVNC 081355Z AUTO 06018KT 9SM FEW019 23/18 A3000 RMK AO2 T02290179 $,0,18.0,0,14481.0,0,0,0,
2026-04-08 13:35:00,METAR KVNC 081335Z AUTO 05017G21KT 9SM FEW035 22/18 A3000 RMK AO2 T02220177 $,0,17.0,1,14481.0,0,0,0,
2026-04-08 13:15:00,METAR KVNC 081315Z AUTO 05016G21KT 9SM FEW016 22/18 A3000 RMK AO2 T02180177 $,0,16.0,1,14481.0,0,0,0,
2026-04-08 12:55:00,METAR KVNC 081255Z AUTO 05016KT 9SM FEW016 21/18 A3000 RMK AO2 T02100175 $,0,16.0,0,14481.0,0,0,0,
2026-04-08 12:35:00,METAR KVNC 081235Z AUTO 05015KT 9SM FEW085 21/17 A2999 RMK AO2 T02060174 $,0,15.0,0,14481.0,0,0,0,
2026-04-08 12:15:00,METAR KVNC 081215Z AUTO 05016KT 9SM SCT085 20/17 A2999 RMK AO2 T01970171 $,0,16.0,0,14481.0,0,0,0,
2026-04-08 11:55:00,METAR KVNC 081155Z AUTO 05013KT 10SM BKN065 OVC085 20/17 A2999 RMK AO2 70166 T01950171 10195 20186 52017 $,0,13.0,0,16090.0,0,0,0,
2026-04-08 11:35:00,METAR KVNC 081135Z AUTO 05014KT 9SM BKN065 BKN085 19/17 A2998 RMK AO2 T01930171 $,0,14.0,0,14481.0,0,0,0,
2026-04-08 11:15:00,METAR KVNC 081115Z AUTO 05013KT 9SM FEW032 SCT085 19/17 A2997 RMK AO2 T01900170 $,0,13.0,0,14481.0,0,0,0,
2026-04-08 10:55:00,METAR KVNC 081055Z AUTO 04013KT 10SM SCT032 BKN080 19/17 A2997 RMK AO2 T01900168 $,0,13.0,0,16090.0,0,0,0,
2026-04-08 10:35:00,METAR KVNC 081035Z AUTO 05014KT 10SM SCT032 BKN085 19/17 A2997 RMK AO2 T01890168 $,0,14.0,0,16090.0,0,0,0,
2026-04-08 10:15:00,METAR KVNC 081015Z AUTO 05011KT 10SM BKN030 19/17 A2996 RMK AO2 T01880166 $,0,11.0,0,16090.0,0,0,0,
2026-04-08 09:55:00,METAR KVNC 080955Z AUTO 04011KT 10SM SCT017 BKN028 19/17 A2995 RMK AO2 T01890166 $,0,11.0,0,16090.0,0,0,0,
2026-04-08 09:35:00,METAR KVNC 080935Z AUTO 04013KT 10SM OVC017 19/17 A2995 RMK AO2 T01900165 $,0,13.0,0,16090.0,0,0,0,
2026-04-08 09:15:00,METAR KVNC 080915Z AUTO 05012KT 10SM BKN017 19/16 A2995 RMK AO2 T01870165 $,0,12.0,0,16090.0,0,0,0,
2026-04-08 08:55:00,METAR KVNC 080855Z AUTO 05011KT 10SM CLR 19/16 A2994 RMK AO2 T01870164 55006 $,0,11.0,0,16090.0,0,0,0,
2026-04-08 08:35:00,METAR KVNC 080835Z AUTO 05012KT 10SM CLR 19/16 A2994 RMK AO2 T01880164 $,0,12.0,0,16090.0,0,0,0,
2026-04-08 08:15:00,METAR KVNC 080815Z AUTO 05013G20KT 10SM CLR 19/16 A2993 RMK AO2 T01870162 $,0,13.0,1,16090.0,0,0,0,
2026-04-08 07:55:00,METAR KVNC 080755Z AUTO 05012KT 10SM CLR 19/16 A2993 RMK AO2 T01870160 $,0,12.0,0,16090.0,0,0,0,
2026-04-08 07:35:00,METAR KVNC 080735Z AUTO 06013KT 10SM CLR 19/16 A2993 RMK AO2 T01870159 $,0,13.0,0,16090.0,0,0,0,
2026-04-08 07:15:00,METAR KVNC 080715Z AUTO 05011KT 10SM FEW190 19/16 A2993 RMK AO2 T01870159 $,0,11.0,0,16090.0,0,0,0,
2026-04-08 06:55:00,METAR KVNC 080655Z AUTO 05013KT 10SM CLR 19/16 A2993 RMK AO2 T01880158 $,0,13.0,0,16090.0,0,0,0,
2026-04-08 06:35:00,METAR KVNC 080635Z AUTO 05013KT 10SM CLR 19/16 A2994 RMK AO2 T01880159 $,0,13.0,0,16090.0,0,0,0,
2026-04-08 06:15:00,METAR KVNC 080615Z AUTO 05013KT 10SM CLR 19/16 A2995 RMK AO2 T01870158 $,0,13.0,0,16090.0,0,0,0,
2026-04-08 05:55:00,METAR KVNC 080555Z AUTO 06011KT 10SM SCT190 19/16 A2995 RMK AO2 T01890158 10205 20188 58006 $,0,11.0,0,16090.0,0,0,0,
2026-04-08 05:35:00,METAR KVNC 080535Z AUTO 06011KT 10SM BKN190 19/16 A2996 RMK AO2 T01900158 $,0,11.0,0,16090.0,0,0,0,
2026-04-08 05:15:00,METAR KVNC 080515Z AUTO 06013KT 10SM SCT190 19/16 A2996 RMK AO2 T01900157 $,0,13.0,0,16090.0,0,0,0,
2026-04-08 04:55:00,METAR KVNC 080455Z AUTO 05014KT 10SM CLR 19/16 A2996 RMK AO2 T01910157 402510190 $,0,14.0,0,16090.0,0,0,0,
2026-04-08 04:35:00,METAR KVNC 080435Z AUTO 05015KT 10SM CLR 19/16 A2997 RMK AO2 T01900157 $,0,15.0,0,16090.0,0,0,0,
2026-04-08 04:15:00,METAR KVNC 080415Z AUTO 06013KT 10SM FEW190 19/16 A2997 RMK AO2 T01920156 $,0,13.0,0,16090.0,0,0,0,
2026-04-08 03:55:00,METAR KVNC 080355Z AUTO 06014KT 10SM SCT190 19/16 A2997 RMK AO2 T01920157 $,0,14.0,0,16090.0,0,0,0,
2026-04-08 03:35:00,METAR KVNC 080335Z AUTO 06015KT 10SM FEW190 19/16 A2997 RMK AO2 T01930157 $,0,15.0,0,16090.0,0,0,0,
2026-04-08 03:15:00,METAR KVNC 080315Z AUTO 06015KT 10SM FEW190 19/16 A2997 RMK AO2 T01920157 $,0,15.0,0,16090.0,0,0,0,
2026-04-08 02:55:00,METAR KVNC 080255Z AUTO 05015G22KT 10SM CLR 19/16 A2997 RMK AO2 T01910158 53020 $,0,15.0,1,16090.0,0,0,0,
2026-04-08 02:35:00,METAR KVNC 080235Z AUTO 05018G24KT 10SM CLR 19/16 A2997 RMK AO2 T01920157 $,0,18.0,1,16090.0,0,0,0,
2026-04-08 02:15:00,METAR KVNC 080215Z AUTO 05017G25KT 10SM FEW023 19/16 A2996 RMK AO2 T01940157 $,0,17.0,1,16090.0,0,0,0,
2026-04-08 01:55:00,METAR KVNC 080155Z AUTO 05015G27KT 10SM BKN023 BKN050 20/16 A2995 RMK AO2 PK WND 05029/0118 T01970156 $,0,15.0,1,16090.0,0,0,0,
2026-04-08 01:35:00,METAR KVNC 080135Z AUTO 05016G28KT 10SM SCT049 20/16 A2995 RMK AO2 PK WND 05029/0118 T01970157 $,0,16.0,1,16090.0,0,0,0,
2026-04-08 01:15:00,METAR KVNC 080115Z AUTO 05016G24KT 10SM BKN047 20/16 A2994 RMK AO2 PK WND 03027/0058 T01970158 $,0,16.0,1,16090.0,0,0,0,
2026-04-08 00:55:00,METAR KVNC 080055Z AUTO 04019G26KT 10SM SCT020 OVC043 20/16 A2993 RMK AO2 PK WND 04032/0010 T01990162 $,0,19.0,1,16090.0,0,0,0,
2026-04-08 00:35:00,METAR KVNC 080035Z AUTO 05020G28KT 10SM BKN019 OVC041 20/16 A2992 RMK AO2 PK WND 04032/0010 CIG 017V024 T01990163 $,0,20.0,1,16090.0,0,0,0,
2026-04-08 00:15:00,METAR KVNC 080015Z AUTO 05021G32KT 10SM OVC021 20/16 A2991 RMK AO2 PK WND 04032/0010 CIG 019V025 OVC V BKN T02020162 $,0,21.0,1,16090.0,0,0,0,VC
2026-04-07 23:55:00,METAR KVNC 072355Z AUTO 04021KT 10SM BKN021 OVC034 21/17 A2991 RMK AO2 PK WND 05033/2331 CIG 018V024 T02080166 10251 20208 53011 $,0,21.0,0,16090.0,0,0,0,
2026-04-07 23:35:00,METAR KVNC 072335Z AUTO 05023G33KT 10SM BKN022 OVC033 21/17 A2991 RMK AO2 PK WND 05033/2331 CIG 018V024 T02090165 $,0,23.0,1,16090.0,0,0,0,
2026-04-07 23:15:00,METAR KVNC 072315Z AUTO 04020G27KT 10SM BKN020 BKN027 OVC033 21/17 A2991 RMK AO2 PK WND 04027/2313 CIG 014V024 BKN027 V OVC T02120168 $,0,20.0,1,16090.0,0,0,0,VC
2026-04-07 22:55:00,METAR KVNC 072255Z AUTO 05019G27KT 10SM BKN020 OVC026 21/17 A2990 RMK AO2 PK WND 03027/2245 CIG 014V023 T02140171 $,0,19.0,1,16090.0,0,0,0,
2026-04-07 22:35:00,METAR KVNC 072235Z AUTO 04018G24KT 10SM BKN020 OVC029 22/17 A2990 RMK AO2 CIG 019V026 T02160172 $,0,18.0,1,16090.0,0,0,0,
2026-04-07 22:15:00,METAR KVNC 072215Z AUTO 04018G22KT 10SM SCT023 OVC032 22/18 A2989 RMK AO2 T02240176 $,0,18.0,1,16090.0,0,0,0,
2026-04-07 21:55:00,METAR KVNC 072155Z AUTO 04012G23KT 10SM OVC032 23/18 A2988 RMK AO2 T02320179 $,0,12.0,1,16090.0,0,0,0,
2026-04-07 21:35:00,METAR KVNC 072135Z AUTO 04015G25KT 10SM BKN031 BKN075 24/17 A2988 RMK AO2 T02390173 $,0,15.0,1,16090.0,0,0,0,
2026-04-07 21:15:00,METAR KVNC 072115Z AUTO 05016G23KT 10SM FEW026 SCT033 BKN075 25/18 A2987 RMK AO2 T02480177 $,0,16.0,1,16090.0,0,0,0,
2026-04-07 20:55:00,METAR KVNC 072055Z AUTO 04018G25KT 10SM SCT025 BKN030 BKN036 OVC070 24/18 A2988 RMK AO2 SCT V BKN T02400178 56011 $,0,18.0,1,16090.0,0,0,0,
2026-04-07 20:35:00,METAR KVNC 072035Z AUTO 03017G24KT 10SM BKN025 BKN070 25/18 A2988 RMK AO2 CIG 022V028 BKN025 V SCT T02460183 $,0,17.0,1,16090.0,0,0,0,
2026-04-07 20:15:00,METAR KVNC 072015Z AUTO 04015G23KT 10SM SCT021 SCT029 BKN036 25/19 A2988 RMK AO2 SCT029 V BKN T02480186 $,0,15.0,1,16090.0,0,0,0,
2026-04-07 19:55:00,METAR KVNC 071955Z AUTO 03018G22KT 10SM SCT021 BKN027 OVC036 24/19 A2989 RMK AO2 T02400186 $,0,18.0,1,16090.0,0,0,0,
2026-04-07 19:35:00,METAR KVNC 071935Z AUTO 04015KT 10SM OVC023 25/19 A2989 RMK AO2 CIG 020V029 T02460188 $,0,15.0,0,16090.0,0,0,0,
2026-04-07 19:15:00,METAR KVNC 071915Z AUTO 04017G22KT 10SM BKN020 BKN026 OVC033 24/18 A2989 RMK AO2 CIG 019V023 T02400185 $,0,17.0,1,16090.0,0,0,0,
2026-04-07 18:55:00,METAR KVNC 071855Z AUTO 06020KT 10SM BKN020 BKN027 OVC070 24/18 A2990 RMK AO2 T02450183 $,0,20.0,0,16090.0,0,0,0,
2026-04-07 18:35:00,METAR KVNC 071835Z AUTO 05014KT 10SM BKN021 BKN027 24/19 A2990 RMK AO2 CIG 018V024 T02410186 $,0,14.0,0,16090.0,0,0,0,
2026-04-07 18:15:00,METAR KVNC 071815Z AUTO 06017G24KT 10SM BKN018 BKN130 25/19 A2990 RMK AO2 CIG 015V022 T02490189 $,0,17.0,1,16090.0,0,0,0,
2026-04-07 17:55:00,METAR KVNC 071755Z AUTO 04016G22KT 10SM BKN016 OVC070 23/19 A2991 RMK AO2 CIG 015V019 60166 T02300188 10231 20191 58003 $,0,16.0,1,16090.0,0,0,0,
2026-04-07 17:35:00,METAR KVNC 071735Z AUTO 05016KT 10SM OVC015 22/19 A2992 RMK AO2 CIG 015V020 T02240186 $,0,16.0,0,16090.0,0,0,0,
2026-04-07 17:15:00,METAR KVNC 071715Z AUTO 05014KT 10SM BKN015 OVC070 22/19 A2992 RMK AO2 LTG DSNT E AND SW CIG 014V019 T02250187 $,0,14.0,0,16090.0,0,0,0,DS
2026-04-07 16:55:00,METAR KVNC 071655Z AUTO 04014G22KT 10SM BKN014 OVC075 22/19 A2992 RMK AO2 CIG 013V019 BKN V OVC T02230187 $,0,14.0,1,16090.0,0,0,0,VC
2026-04-07 16:35:00,METAR KVNC 071635Z AUTO 04016G20KT 10SM OVC014 22/19 A2992 RMK AO2 LTG DSNT E CIG 013V018 OVC V BKN T02220189 $,0,16.0,1,16090.0,0,0,0,"DS,VC"
2026-04-07 16:15:00,METAR KVNC 071615Z AUTO 04015KT 10SM OVC015 22/19 A2992 RMK AO2 CIG 010V020 OVC V BKN T02170191 $,0,15.0,0,16090.0,0,0,0,VC
2026-04-07 15:55:00,METAR KVNC 071555Z AUTO 02014KT 9SM OVC009 22/20 A2993 RMK AO2 RAE1513 CIG 008V011 OVC V BKN P0001 T02170196 $,0,14.0,0,14481.0,0,0,0,"RA,VC"
2026-04-07 15:35:00,METAR KVNC 071535Z AUTO 04014KT 8SM BKN008 BKN012 OVC100 21/20 A2993 RMK AO2 RAE1513 P0000 T02090196 $,0,14.0,0,12872.0,0,0,0,RA
2026-04-07 15:15:00,METAR KVNC 071515Z AUTO 04015KT 7SM SCT008 BKN060 20/20 A2993 RMK AO2 RAE1513 P0000 T02050196 $,0,15.0,0,11263.0,0,0,0,RA
2026-04-07 14:55:00,METAR KVNC 071455Z AUTO 05014KT 4SM -RA BR OVC065 19/19 A2992 RMK AO2 LTG DSNT SE AND S P0083 60165 T01950188 52013 $,0,14.0,0,6436.0,0,0,1,"-RA,BR,DS"
2026-04-07 14:35:00,METAR KVNC 071435Z AUTO 05014KT 1 1/4SM +RA BR OVC034 19/19 A2993 RMK AO2 VIS 3/4V2 1/2 LTG DSNT SE AND S P0078 T01920187 $,0,14.0,0,2011.0,0,1,1,"+RA,BR,DS"
2026-04-07 14:15:00,METAR KVNC 071415Z AUTO 02009KT 3/4SM +RA BR VCTS OVC027 19/19 A2993 RMK AO2 P0032 T01920187 $,0,9.0,0,1207.0,1,1,1,"+RA,BR,TS,VC"
2026-04-07 13:55:00,METAR KVNC 071355Z AUTO 01012KT 1 1/2SM +RA BR OVC030 19/19 A2991 RMK AO2 TSB1309E1327 P0078 T01940189 $,0,12.0,0,2414.0,1,1,1,"+RA,BR,TS"
2026-04-07 13:35:00,METAR KVNC 071335Z AUTO 02010KT 3/4SM +RA BR VCTS VV016 19/19 A2991 RMK AO2 TSB1309E1327 P0067 T01940191 $,0,10.0,0,1207.0,1,1,1,"+RA,BR,TS,VC"
2026-04-07 13:15:00,METAR KVNC 071315Z AUTO 02015KT 1 3/4SM +TSRA BR FEW007 OVC014 20/19 A2990 RMK AO2 TSB1309 P0032 T01960190 $,0,15.0,0,2816.0,1,0,1,"BR,RA,TS"
2026-04-07 12:55:00,METAR KVNC 071255Z AUTO 03011KT 3SM +RA BR VCTS OVC007 20/19 A2990 RMK AO2 RAB1204 P0004 T02000192 $,0,11.0,0,4827.0,1,1,1,"+RA,BR,RA,TS,VC"
2026-04-07 12:35:00,METAR KVNC 071235Z AUTO 04014KT 9SM OVC008 20/19 A2989 RMK AO2 LTG DSNT SE RAB1204E1233 CIG 007V011 P0000 T02030194 $,0,14.0,0,14481.0,0,0,0,"DS,RA"
2026-04-07 12:15:00,METAR KVNC 071215Z AUTO 06011KT 6SM -RA BR OVC007 21/20 A2988 RMK AO2 LTG DSNT NE AND E RAB1204 CIG 006V011 P0000 T02080198 $,0,11.0,0,9654.0,0,0,1,"-RA,BR,DS,RA"
2026-04-07 11:55:00,METAR KVNC 071155Z AUTO 07010KT 8SM OVC006 21/20 A2988 RMK AO2 CIG 006V008 T02070196 10207 20204 53001 $,0,10.0,0,12872.0,0,0,0,
2026-04-07 11:35:00,METAR KVNC 071135Z AUTO 07010KT 9SM OVC006 21/19 A2987 RMK AO2 LTG DSNT E AND SE AND W T02070194 $,0,10.0,0,14481.0,0,0,0,DS
2026-04-07 11:15:00,METAR KVNC 071115Z AUTO 07012KT 10SM OVC007 21/19 A2987 RMK AO2 LTG DSNT E AND SW CIG 006V008 T02070193 $,0,12.0,0,16090.0,0,0,0,DS
2026-04-07 10:55:00,METAR KVNC 071055Z AUTO 06012KT 10SM OVC008 21/19 A2987 RMK AO2 T02060191 $,0,12.0,0,16090.0,0,0,0,
2026-04-07 10:35:00,METAR KVNC 071035Z AUTO 06015KT 10SM OVC008 21/19 A2987 RMK AO2 CIG 007V009 T02060191 $,0,15.0,0,16090.0,0,0,0,
2026-04-07 10:15:00,METAR KVNC 071015Z AUTO 06012KT 10SM OVC007 21/19 A2987 RMK AO2 T02050192 $,0,12.0,0,16090.0,0,0,0,
2026-04-07 09:55:00,METAR KVNC 070955Z AUTO 06013KT 10SM OVC008 21/19 A2987 RMK AO2 CIG 007V010 T02050190 $,0,13.0,0,16090.0,0,0,0,
2026-04-07 09:35:00,METAR KVNC 070935Z AUTO 07013KT 10SM OVC008 21/19 A2987 RMK AO2 LTG DSNT SE CIG 007V010 T02050191 $,0,13.0,0,16090.0,0,0,0,DS
2026-04-07 09:15:00,METAR KVNC 070915Z AUTO 06012KT 10SM OVC008 21/19 A2988 RMK AO2 LTG DSNT W CIG 007V010 T02050192 $,0,12.0,0,16090.0,0,0,0,DS
2026-04-07 08:55:00,METAR KVNC 070855Z AUTO 06011KT 10SM BKN007 OVC023 21/19 A2988 RMK AO2 BKN V OVC T02050192 56014 $,0,11.0,0,16090.0,0,0,0,VC
2026-04-07 08:35:00,METAR KVNC 070835Z AUTO 06010KT 10SM BKN007 OVC025 20/19 A2987 RMK AO2 T02040192 $,0,10.0,0,16090.0,0,0,0,
2026-04-07 08:15:00,METAR KVNC 070815Z AUTO 06010KT 10SM BKN007 BKN025 20/19 A2988 RMK AO2 LTG DSNT SE AND W T02040192 $,0,10.0,0,16090.0,0,0,0,DS
2026-04-07 07:55:00,METAR KVNC 070755Z AUTO 06009KT 10SM FEW027 SCT039 20/19 A2988 RMK AO2 T02040192 $,0,9.0,0,16090.0,0,0,0,
2026-04-07 07:15:00,METAR KVNC 070715Z AUTO 05011KT 10SM SCT008 BKN055 BKN080 20/19 A2990 RMK AO2 T02040193 $,0,11.0,0,16090.0,0,0,0,
2026-04-07 06:55:00,METAR KVNC 070655Z AUTO 06010KT 10SM FEW008 SCT055 OVC080 21/19 A2990 RMK AO2 T02060192 $,0,10.0,0,16090.0,0,0,0,
2026-04-07 06:35:00,METAR KVNC 070635Z AUTO 06011KT 10SM FEW055 BKN080 21/19 A2991 RMK AO2 T02060191 $,0,11.0,0,16090.0,0,0,0,
2026-04-07 06:15:00,METAR KVNC 070615Z AUTO 05010KT 10SM CLR 21/19 A2992 RMK AO2 T02060194 $,0,10.0,0,16090.0,0,0,0,
2026-04-07 05:55:00,METAR KVNC 070555Z AUTO 05011KT 10SM CLR 21/19 A2992 RMK AO2 T02070192 10252 20207 56011 $,0,11.0,0,16090.0,0,0,0,
2026-04-07 05:35:00,METAR KVNC 070535Z AUTO 05013KT 10SM FEW008 21/19 A2992 RMK AO2 T02080191 $,0,13.0,0,16090.0,0,0,0,
2026-04-07 05:15:00,METAR KVNC 070515Z AUTO 05012KT 10SM SCT008 21/20 A2993 RMK AO2 T02090196 $,0,12.0,0,16090.0,0,0,0,
2026-04-07 04:55:00,METAR KVNC 070455Z AUTO 05013KT 10SM BKN007 BKN220 21/20 A2993 RMK AO2 T02110197 402680198 $,0,13.0,0,16090.0,0,0,0,
2026-04-07 04:35:00,METAR KVNC 070435Z AUTO 05014KT 10SM BKN007 BKN220 21/20 A2993 RMK AO2 T02110199 $,0,14.0,0,16090.0,0,0,0,
2026-04-07 04:15:00,METAR KVNC 070415Z AUTO 05011KT 10SM SCT008 SCT080 21/20 A2995 RMK AO2 T02120200 $,0,11.0,0,16090.0,0,0,0,
2026-04-07 03:55:00,METAR KVNC 070355Z AUTO 06011KT 10SM FEW008 21/20 A2994 RMK AO2 T02140200 $,0,11.0,0,16090.0,0,0,0,
2026-04-07 03:35:00,METAR KVNC 070335Z AUTO 06012KT 10SM BKN008 BKN013 21/20 A2994 RMK AO2 LTG DSNT NE AND SW T02140200 $,0,12.0,0,16090.0,0,0,0,DS
2026-04-07 03:15:00,METAR KVNC 070315Z AUTO 06013KT 10SM SCT007 BKN013 OVC070 21/20 A2995 RMK AO2 SCT V BKN T02140200 $,0,13.0,0,16090.0,0,0,0,
2026-04-07 02:55:00,METAR KVNC 070255Z AUTO 06013KT 10SM SCT070 BKN250 22/19 A2995 RMK AO2 T02160195 51016 $,0,13.0,0,16090.0,0,0,0,
2026-04-07 02:35:00,METAR KVNC 070235Z AUTO 07013KT 10SM SCT260 22/19 A2995 RMK AO2 T02190194 $,0,13.0,0,16090.0,0,0,0,
2026-04-07 02:15:00,METAR KVNC 070215Z AUTO 06015KT 10SM FEW014 SCT250 22/20 A2995 RMK AO2 T02220200 $,0,15.0,0,16090.0,0,0,0,
2026-04-07 01:55:00,METAR KVNC 070155Z AUTO 06012KT 10SM SCT260 23/20 A2995 RMK AO2 T02260198 $,0,12.0,0,16090.0,0,0,0,
2026-04-07 01:35:00,METAR KVNC 070135Z AUTO 05014KT 10SM FEW015 SCT260 23/20 A2994 RMK AO2 T02300196 $,0,14.0,0,16090.0,0,0,0,
2026-04-07 01:15:00,METAR KVNC 070115Z AUTO 03011KT 10SM FEW015 BKN065 BKN110 BKN270 24/20 A2993 RMK AO2 T02350200 $,0,11.0,0,16090.0,0,0,0,
2026-04-07 00:55:00,METAR KVNC 070055Z AUTO 34005KT 10SM SCT065 SCT110 25/18 A2992 RMK AO2 T02510184 $,0,5.0,0,16090.0,0,0,0,
2026-04-07 00:35:00,METAR KVNC 070035Z AUTO 34007KT 10SM SCT065 SCT100 25/19 A2991 RMK AO2 T02490192 $,0,7.0,0,16090.0,0,0,0,
2026-04-07 00:15:00,METAR KVNC 070015Z AUTO 33007KT 10SM BKN100 25/20 A2991 RMK AO2 T02460197 $,0,7.0,0,16090.0,0,0,0,
2026-04-06 23:55:00,METAR KVNC 062355Z AUTO 33011KT 10SM BKN100 25/19 A2991 RMK AO2 T02470192 10268 20245 53001 $,0,11.0,0,16090.0,0,0,0,
2026-04-06 23:35:00,METAR KVNC 062335Z AUTO 32009KT 10SM SCT100 25/19 A2990 RMK AO2 T02460194 $,0,9.0,0,16090.0,0,0,0,
2026-04-06 23:15:00,METAR KVNC 062315Z AUTO 32013KT 9SM CLR 25/21 A2990 RMK AO2 LTG DSNT NE T02480208 $,0,13.0,0,14481.0,0,0,0,DS
2026-04-06 22:55:00,METAR KVNC 062255Z AUTO 32012KT 10SM CLR 25/21 A2989 RMK AO2 LTG DSNT N AND NE AND W T02510212 $,0,12.0,0,16090.0,0,0,0,DS
2026-04-06 22:35:00,METAR KVNC 062235Z AUTO 32012KT 10SM FEW290 25/21 A2990 RMK AO2 LTG DSNT NE AND SE T02510214 $,0,12.0,0,16090.0,0,0,0,DS
2026-04-06 22:15:00,METAR KVNC 062215Z AUTO 32011G16KT 10SM FEW290 27/20 A2989 RMK AO2 LTG DSNT NE T02680198 $,0,11.0,1,16090.0,0,0,0,DS
2026-04-06 21:55:00,METAR KVNC 062155Z AUTO 31010KT 10SM CLR 26/21 A2989 RMK AO2 LTG DSNT NE AND SE AND W T02600214 $,0,10.0,0,16090.0,0,0,0,DS
2026-04-06 21:35:00,METAR KVNC 062135Z AUTO 32011KT 10SM CLR 26/21 A2989 RMK AO2 T02560213 $,0,11.0,0,16090.0,0,0,0,
2026-04-06 21:15:00,METAR KVNC 062115Z AUTO 32011KT 10SM FEW075 25/22 A2990 RMK AO2 T02540218 $,0,11.0,0,16090.0,0,0,0,
2026-04-06 20:55:00,METAR KVNC 062055Z AUTO 32012KT 10SM CLR 26/21 A2990 RMK AO2 LTG DSNT NE T02600210 56024 $,0,12.0,0,16090.0,0,0,0,DS
2026-04-06 20:35:00,METAR KVNC 062035Z AUTO 31010KT 10SM CLR 26/21 A2990 RMK AO2 LTG DSNT N AND NE T02610205 $,0,10.0,0,16090.0,0,0,0,DS
2026-04-06 20:15:00,METAR KVNC 062015Z AUTO 29009KT 10SM FEW290 27/21 A2991 RMK AO2 LTG DSNT NE T02650211 $,0,9.0,0,16090.0,0,0,0,DS
2026-04-06 19:55:00,METAR KVNC 061955Z AUTO 29008KT 10SM FEW280 26/21 A2993 RMK AO2 LTG DSNT NE T02590209 $,0,8.0,0,16090.0,0,0,0,DS
2026-04-06 19:35:00,METAR KVNC 061935Z AUTO 28009KT 10SM FEW280 25/21 A2993 RMK AO2 LTG DSNT NE AND W T02530209 $,0,9.0,0,16090.0,0,0,0,DS
2026-04-06 19:15:00,METAR KVNC 061915Z AUTO 27009KT 10SM FEW280 SCT330 26/21 A2994 RMK AO2 T02570211 $,0,9.0,0,16090.0,0,0,0,
2026-04-06 18:55:00,METAR KVNC 061855Z AUTO 25007KT 10SM FEW310 26/21 A2995 RMK AO2 T02580207 $,0,7.0,0,16090.0,0,0,0,
2026-04-06 18:35:00,METAR KVNC 061835Z AUTO 25008KT 10SM FEW320 26/21 A2996 RMK AO2 T02630207 $,0,8.0,0,16090.0,0,0,0,
2026-04-06 18:15:00,METAR KVNC 061815Z AUTO 26008KT 10SM FEW320 27/21 A2996 RMK AO2 T02650210 $,0,8.0,0,16090.0,0,0,0,
2026-04-06 17:55:00,METAR KVNC 061755Z AUTO 26008KT 10SM FEW340 26/21 A2997 RMK AO2 T02620210 10265 20206 58012 $,0,8.0,0,16090.0,0,0,0,
2026-04-06 17:35:00,METAR KVNC 061735Z AUTO 26007KT 10SM FEW360 26/21 A2998 RMK AO2 T02580209 $,0,7.0,0,16090.0,0,0,0,
2026-04-06 17:15:00,METAR KVNC 061715Z AUTO 25007KT 10SM FEW280 26/21 A2999 RMK AO2 T02600212 $,0,7.0,0,16090.0,0,0,0,
2026-04-06 16:55:00,METAR KVNC 061655Z AUTO 27009KT 10SM FEW310 SCT360 26/21 A3000 RMK AO2 T02580211 $,0,9.0,0,16090.0,0,0,0,
2026-04-06 16:35:00,METAR KVNC 061635Z AUTO 24007KT 10SM FEW330 26/21 A3000 RMK AO2 T02610212 $,0,7.0,0,16090.0,0,0,0,
2026-04-06 16:15:00,METAR KVNC 061615Z AUTO 25007KT 10SM FEW330 26/21 A3000 RMK AO2 T02610212 $,0,7.0,0,16090.0,0,0,0,
2026-04-06 15:55:00,METAR KVNC 061555Z AUTO 25006KT 10SM CLR 26/21 A3001 RMK AO2 T02580212 $,0,6.0,0,16090.0,0,0,0,
2026-04-06 15:35:00,METAR KVNC 061535Z AUTO 25006KT 10SM SCT045 26/21 A3001 RMK AO2 T02570212 $,0,6.0,0,16090.0,0,0,0,
2026-04-06 14:55:00,METAR KVNC 061455Z AUTO 23005KT 10SM SCT020 25/21 A3001 RMK AO2 T02550211 53005 $,0,5.0,0,16090.0,0,0,0,
2026-04-06 14:35:00,METAR KVNC 061435Z AUTO 22006KT 10SM SCT019 26/21 A3000 RMK AO2 T02580212 $,0,6.0,0,16090.0,0,0,0,
2026-04-06 14:15:00,METAR KVNC 061415Z AUTO 17004KT 10SM CLR 25/21 A3000 RMK AO2 T02530207 $,0,4.0,0,16090.0,0,0,0,
2026-04-06 13:55:00,METAR KVNC 061355Z AUTO 00000KT 9SM CLR 24/21 A3000 RMK AO2 T02410209 $,0,0.0,0,14481.0,0,0,0,
2026-04-06 13:35:00,METAR KVNC 061335Z AUTO VRB03KT 9SM CLR 24/21 A3000 RMK AO2 T02390209 $,0,3.0,0,14481.0,0,0,0,
2026-04-06 13:15:00,METAR KVNC 061315Z AUTO 00000KT 9SM CLR 23/21 A3000 RMK AO2 T02310206 $,0,0.0,0,14481.0,0,0,0,
2026-04-06 12:55:00,METAR KVNC 061255Z AUTO 07003KT 9SM CLR 22/21 A3000 RMK AO2 T02250206 $,0,3.0,0,14481.0,0,0,0,
2026-04-06 12:35:00,METAR KVNC 061235Z AUTO 00000KT 10SM CLR 22/21 A3000 RMK AO2 T02180205 $,0,0.0,0,16090.0,0,0,0,
2026-04-06 12:15:00,METAR KVNC 061215Z AUTO 00000KT 9SM CLR 21/20 A3000 RMK AO2 T02100203 $,0,0.0,0,14481.0,0,0,0,
2026-04-06 11:55:00,METAR KVNC 061155Z AUTO 00000KT 8SM CLR 20/20 A3000 RMK AO2 T02030198 10217 20198 53003 $,0,0.0,0,12872.0,0,0,0,
2026-04-06 11:35:00,METAR KVNC 061135Z AUTO 00000KT 9SM FEW060 20/20 A3000 RMK AO2 T02030198 $,0,0.0,0,14481.0,0,0,0,
2026-04-06 11:15:00,METAR KVNC 061115Z AUTO 00000KT 9SM BKN060 20/20 A3000 RMK AO2 T02040199 $,0,0.0,0,14481.0,0,0,0,
2026-04-06 10:55:00,METAR KVNC 061055Z AUTO 07004KT 10SM FEW060 20/20 A2999 RMK AO2 T02020197 $,0,4.0,0,16090.0,0,0,0,
2026-04-06 10:35:00,METAR KVNC 061035Z AUTO 05003KT 10SM FEW080 20/20 A2999 RMK AO2 T02020195 $,0,3.0,0,16090.0,0,0,0,
2026-04-06 10:15:00,METAR KVNC 061015Z AUTO 06003KT 10SM SCT080 20/20 A2999 RMK AO2 T02040197 $,0,3.0,0,16090.0,0,0,0,
2026-04-06 09:55:00,METAR KVNC 060955Z AUTO 04004KT 10SM SCT075 21/20 A2998 RMK AO2 T02060197 $,0,4.0,0,16090.0,0,0,0,
2026-04-06 09:35:00,METAR KVNC 060935Z AUTO 04005KT 10SM OVC075 21/20 A2998 RMK AO2 T02080200 $,0,5.0,0,16090.0,0,0,0,
2026-04-06 09:15:00,METAR KVNC 060915Z AUTO 04003KT 10SM OVC075 21/20 A2998 RMK AO2 T02090199 $,0,3.0,0,16090.0,0,0,0,
2026-04-06 08:55:00,METAR KVNC 060855Z AUTO 00000KT 10SM BKN075 21/20 A2999 RMK AO2 T02070198 56017 $,0,0.0,0,16090.0,0,0,0,
2026-04-06 08:35:00,METAR KVNC 060835Z AUTO 08003KT 10SM SCT075 20/19 A2999 RMK AO2 T02020193 $,0,3.0,0,16090.0,0,0,0,
2026-04-06 08:15:00,METAR KVNC 060815Z AUTO 10003KT 10SM CLR 20/19 A2999 RMK AO2 T02030194 $,0,3.0,0,16090.0,0,0,0,
2026-04-06 07:55:00,METAR KVNC 060755Z AUTO 00000KT 10SM CLR 20/19 A3000 RMK AO2 T02020190 $,0,0.0,0,16090.0,0,0,0,
2026-04-06 07:35:00,METAR KVNC 060735Z AUTO 00000KT 10SM CLR 20/19 A3000 RMK AO2 T01990186 $,0,0.0,0,16090.0,0,0,0,
2026-04-06 07:15:00,METAR KVNC 060715Z AUTO 00000KT 10SM CLR 22/20 A3000 RMK AO2 T02160195 $,0,0.0,0,16090.0,0,0,0,
2026-04-06 06:55:00,METAR KVNC 060655Z AUTO 00000KT 10SM CLR 21/20 A3001 RMK AO2 T02140198 $,0,0.0,0,16090.0,0,0,0,
2026-04-06 06:35:00,METAR KVNC 060635Z AUTO 00000KT 10SM CLR 21/20 A3002 RMK AO2 T02120197 $,0,0.0,0,16090.0,0,0,0,
2026-04-06 06:15:00,METAR KVNC 060615Z AUTO 00000KT 10SM CLR 21/20 A3003 RMK AO2 T02130197 $,0,0.0,0,16090.0,0,0,0,
2026-04-06 05:55:00,METAR KVNC 060555Z AUTO 13003KT 10SM FEW060 21/20 A3004 RMK AO2 T02130196 10251 20213 58010 $,0,3.0,0,16090.0,0,0,0,
2026-04-06 05:35:00,METAR KVNC 060535Z AUTO 00000KT 10SM BKN060 21/20 A3004 RMK AO2 T02140197 $,0,0.0,0,16090.0,0,0,0,
2026-04-06 05:15:00,METAR KVNC 060515Z AUTO 01004KT 10SM OVC060 22/20 A3005 RMK AO2 T02210198 $,0,4.0,0,16090.0,0,0,0,
2026-04-06 04:55:00,METAR KVNC 060455Z AUTO 00000KT 10SM OVC055 22/20 A3005 RMK AO2 T02200197 402810192 $,0,0.0,0,16090.0,0,0,0,
2026-04-06 04:35:00,METAR KVNC 060435Z AUTO 04003KT 10SM BKN055 22/20 A3005 RMK AO2 T02180197 $,0,3.0,0,16090.0,0,0,0,
2026-04-06 04:15:00,METAR KVNC 060415Z AUTO 05004KT 10SM FEW055 22/20 A3006 RMK AO2 T02200198 $,0,4.0,0,16090.0,0,0,0,
2026-04-06 03:55:00,METAR KVNC 060355Z AUTO 01004KT 10SM CLR 23/20 A3006 RMK AO2 T02300196 $,0,4.0,0,16090.0,0,0,0,
2026-04-06 03:35:00,METAR KVNC 060335Z AUTO 34003KT 10SM CLR 24/20 A3006 RMK AO2 T02390195 $,0,3.0,0,16090.0,0,0,0,
2026-04-06 03:15:00,METAR KVNC 060315Z AUTO 34005KT 10SM FEW048 24/19 A3006 RMK AO2 T02410194 $,0,5.0,0,16090.0,0,0,0,
2026-04-06 02:55:00,METAR KVNC 060255Z AUTO VRB05KT 10SM FEW049 24/20 A3007 RMK AO2 T02420197 51013 $,0,5.0,0,16090.0,0,0,0,
2026-04-06 02:35:00,METAR KVNC 060235Z AUTO 34004KT 10SM FEW049 24/20 A3007 RMK AO2 T02410196 $,0,4.0,0,16090.0,0,0,0,
2026-04-06 02:15:00,METAR KVNC 060215Z AUTO 34004KT 10SM SCT049 BKN060 24/20 A3006 RMK AO2 LTG DSNT NE T02430196 $,0,4.0,0,16090.0,0,0,0,DS
2026-04-06 01:55:00,METAR KVNC 060155Z AUTO 33006KT 10SM SCT055 BKN070 24/20 A3006 RMK AO2 T02420201 $,0,6.0,0,16090.0,0,0,0,
2026-04-06 01:35:00,METAR KVNC 060135Z AUTO 32006KT 10SM BKN050 BKN065 24/20 A3006 RMK AO2 T02440200 $,0,6.0,0,16090.0,0,0,0,
2026-04-06 01:15:00,METAR KVNC 060115Z AUTO 29004KT 10SM OVC050 24/20 A3005 RMK AO2 T02420202 $,0,4.0,0,16090.0,0,0,0,
2026-04-06 00:55:00,METAR KVNC 060055Z AUTO 22003KT 10SM OVC047 24/20 A3005 RMK AO2 LTG DSNT NE T02440199 $,0,3.0,0,16090.0,0,0,0,DS
2026-04-06 00:35:00,METAR KVNC 060035Z AUTO 11003KT 10SM OVC045 24/20 A3004 RMK AO2 T02430198 $,0,3.0,0,16090.0,0,0,0,
2026-04-06 00:15:00,METAR KVNC 060015Z AUTO 00000KT 10SM BKN044 OVC050 25/19 A3003 RMK AO2 T02490192 $,0,0.0,0,16090.0,0,0,0,
2026-04-05 23:55:00,METAR KVNC 052355Z AUTO 33005KT 8SM BKN050 24/21 A3003 RMK AO2 LTG DSNT NE T02420209 10275 20242 53009 $,0,5.0,0,12872.0,0,0,0,DS
2026-04-05 23:35:00,METAR KVNC 052335Z AUTO 32006KT 8SM FEW049 BKN060 24/21 A3002 RMK AO2 T02430209 $,0,6.0,0,12872.0,0,0,0,
2026-04-05 23:15:00,METAR KVNC 052315Z AUTO 32008KT 8SM BKN060 25/21 A3001 RMK AO2 LTG DSNT NE AND E T02470210 $,0,8.0,0,12872.0,0,0,0,DS
2026-04-05 22:55:00,METAR KVNC 052255Z AUTO 32010KT 8SM SCT055 25/21 A3001 RMK AO2 LTG DSNT NE AND E T02500212 $,0,10.0,0,12872.0,0,0,0,DS
2026-04-05 22:35:00,METAR KVNC 052235Z AUTO 31009KT 9SM FEW055 26/21 A3001 RMK AO2 LTG DSNT NE AND SE T02560215 $,0,9.0,0,14481.0,0,0,0,DS
2026-04-05 22:15:00,METAR KVNC 052215Z AUTO 31010KT 9SM CLR 26/22 A3000 RMK AO2 LTG DSNT E AND SE T02560216 $,0,10.0,0,14481.0,0,0,0,DS
2026-04-05 21:55:00,METAR KVNC 052155Z AUTO 30007KT 8SM CLR 26/22 A3000 RMK AO2 T02610218 $,0,7.0,0,12872.0,0,0,0,
2026-04-05 21:35:00,METAR KVNC 052135Z AUTO 30010KT 8SM CLR 26/22 A3000 RMK AO2 T02610216 $,0,10.0,0,12872.0,0,0,0,
2026-04-05 21:15:00,METAR KVNC 052115Z AUTO 28009KT 8SM CLR 26/22 A3000 RMK AO2 T02600217 $,0,9.0,0,12872.0,0,0,0,
2026-04-05 20:55:00,METAR KVNC 052055Z AUTO 28008KT 8SM CLR 27/22 A3000 RMK AO2 T02690218 56021 $,0,8.0,0,12872.0,0,0,0,
2026-04-05 20:35:00,METAR KVNC 052035Z AUTO 28009KT 8SM CLR 27/22 A3001 RMK AO2 T02710217 $,0,9.0,0,12872.0,0,0,0,
2026-04-05 20:15:00,METAR KVNC 052015Z AUTO 27009KT 9SM CLR 27/22 A3001 RMK AO2 T02680219 $,0,9.0,0,14481.0,0,0,0,
2026-04-05 19:55:00,METAR KVNC 051955Z AUTO 26010KT 9SM CLR 27/22 A3002 RMK AO2 T02660215 $,0,10.0,0,14481.0,0,0,0,
2026-04-05 19:35:00,METAR KVNC 051935Z AUTO 27009KT 9SM CLR 27/22 A3003 RMK AO2 T02680218 $,0,9.0,0,14481.0,0,0,0,
2026-04-05 19:15:00,METAR KVNC 051915Z AUTO 26008KT 9SM CLR 26/21 A3003 RMK AO2 T02640213 $,0,8.0,0,14481.0,0,0,0,
2026-04-05 18:55:00,METAR KVNC 051855Z AUTO 26008KT 9SM CLR 27/21 A3004 RMK AO2 T02680211 $,0,8.0,0,14481.0,0,0,0,
2026-04-05 18:35:00,METAR KVNC 051835Z AUTO 24008KT 10SM CLR 27/21 A3005 RMK AO2 T02710212 $,0,8.0,0,16090.0,0,0,0,
2026-04-05 18:15:00,METAR KVNC 051815Z AUTO 24008KT 10SM CLR 27/21 A3005 RMK AO2 T02710211 $,0,8.0,0,16090.0,0,0,0,
2026-04-05 17:55:00,METAR KVNC 051755Z AUTO 25008KT 10SM CLR 27/21 A3006 RMK AO2 T02690215 10281 20200 58018 $,0,8.0,0,16090.0,0,0,0,
2026-04-05 17:35:00,METAR KVNC 051735Z AUTO 23008KT 9SM FEW041 SCT300 27/21 A3007 RMK AO2 T02730212 $,0,8.0,0,14481.0,0,0,0,
2026-04-05 17:15:00,METAR KVNC 051715Z AUTO 21009KT 10SM SCT040 BKN049 27/21 A3008 RMK AO2 T02690210 $,0,9.0,0,16090.0,0,0,0,
2026-04-05 16:55:00,METAR KVNC 051655Z AUTO 21008KT 9SM SCT035 BKN047 27/21 A3009 RMK AO2 T02700209 $,0,8.0,0,14481.0,0,0,0,
2026-04-05 16:35:00,METAR KVNC 051635Z AUTO 21008KT 9SM BKN033 BKN049 27/20 A3009 RMK AO2 T02700204 $,0,8.0,0,14481.0,0,0,0,
2026-04-05 16:15:00,METAR KVNC 051615Z AUTO 19009KT 10SM SCT034 BKN047 27/20 A3010 RMK AO2 T02720197 $,0,9.0,0,16090.0,0,0,0,
2026-04-05 15:55:00,METAR KVNC 051555Z AUTO 15009KT 10SM SCT032 28/19 A3010 RMK AO2 T02810194 $,0,9.0,0,16090.0,0,0,0,
2026-04-05 15:35:00,METAR KVNC 051535Z AUTO 11006KT 9SM BKN029 BKN034 27/20 A3011 RMK AO2 BKN029 V SCT T02650195 $,0,6.0,0,14481.0,0,0,0,
2026-04-05 15:15:00,METAR KVNC 051515Z AUTO 16008KT 9SM SCT026 SCT034 27/20 A3011 RMK AO2 T02730198 $,0,8.0,0,14481.0,0,0,0,
2026-04-05 14:55:00,METAR KVNC 051455Z AUTO 11007KT 9SM FEW021 SCT027 27/20 A3012 RMK AO2 FEW V SCT T02660203 51004 $,0,7.0,0,14481.0,0,0,0,
2026-04-05 14:35:00,METAR KVNC 051435Z AUTO 11007KT 9SM FEW018 26/20 A3012 RMK AO2 T02600203 $,0,7.0,0,14481.0,0,0,0,
2026-04-05 12:55:00,METAR KVNC 051255Z AUTO 09006KT 8SM CLR 22/20 A3011 RMK AO2 T02190204 $,0,6.0,0,12872.0,0,0,0,
2026-04-05 12:35:00,METAR KVNC 051235Z AUTO 08007KT 8SM CLR 21/20 A3011 RMK AO2 T02120200 $,0,7.0,0,12872.0,0,0,0,
2026-04-05 12:15:00,METAR KVNC 051215Z AUTO 07007KT 8SM CLR 20/20 A3011 RMK AO2 T02050196 $,0,7.0,0,12872.0,0,0,0,
2026-04-05 11:55:00,METAR KVNC 051155Z AUTO 06006KT 7SM CLR 20/19 A3011 RMK AO2 T01970192 10211 20192 52009 $,0,6.0,0,11263.0,0,0,0,
2026-04-05 11:35:00,METAR KVNC 051135Z AUTO 07007KT 7SM CLR 19/19 A3011 RMK AO2 T01950190 $,0,7.0,0,11263.0,0,0,0,
2026-04-05 11:15:00,METAR KVNC 051115Z AUTO 07006KT 7SM CLR 19/19 A3010 RMK AO2 T01920187 $,0,6.0,0,11263.0,0,0,0,
2026-04-05 10:55:00,METAR KVNC 051055Z AUTO 06006KT 9SM CLR 19/19 A3010 RMK AO2 T01930188 $,0,6.0,0,14481.0,0,0,0,
2026-04-05 10:35:00,METAR KVNC 051035Z AUTO 06007KT 9SM CLR 19/19 A3010 RMK AO2 T01940189 $,0,7.0,0,14481.0,0,0,0,
2026-04-05 10:15:00,METAR KVNC 051015Z AUTO 06006KT 9SM CLR 19/19 A3009 RMK AO2 T01940189 $,0,6.0,0,14481.0,0,0,0,
2026-04-05 09:55:00,METAR KVNC 050955Z AUTO 07006KT 9SM CLR 20/19 A3009 RMK AO2 T01960189 $,0,6.0,0,14481.0,0,0,0,
2026-04-05 09:35:00,METAR KVNC 050935Z AUTO 07006KT 9SM CLR 20/19 A3008 RMK AO2 T01950188 $,0,6.0,0,14481.0,0,0,0,
2026-04-05 09:15:00,METAR KVNC 050915Z AUTO 08006KT 9SM CLR 20/19 A3008 RMK AO2 T01960188 $,0,6.0,0,14481.0,0,0,0,
2026-04-05 08:55:00,METAR KVNC 050855Z AUTO 07007KT 9SM CLR 20/19 A3008 RMK AO2 T01970189 56014 $,0,7.0,0,14481.0,0,0,0,
2026-04-05 08:35:00,METAR KVNC 050835Z AUTO 07005KT 10SM CLR 20/19 A3008 RMK AO2 T01970187 $,0,5.0,0,16090.0,0,0,0,
2026-04-05 08:15:00,METAR KVNC 050815Z AUTO 07006KT 10SM CLR 20/19 A3008 RMK AO2 T01970186 $,0,6.0,0,16090.0,0,0,0,
2026-04-05 07:55:00,METAR KVNC 050755Z AUTO 07006KT 10SM CLR 20/19 A3008 RMK AO2 T02000186 $,0,6.0,0,16090.0,0,0,0,
2026-04-05 07:35:00,METAR KVNC 050735Z AUTO 07006KT 10SM CLR 20/18 A3009 RMK AO2 T02000185 $,0,6.0,0,16090.0,0,0,0,
2026-04-05 07:15:00,METAR KVNC 050715Z AUTO 07006KT 10SM CLR 20/19 A3009 RMK AO2 T02020186 $,0,6.0,0,16090.0,0,0,0,
2026-04-05 06:55:00,METAR KVNC 050655Z AUTO 07005KT 10SM CLR 20/19 A3010 RMK AO2 T02040186 $,0,5.0,0,16090.0,0,0,0,
2026-04-05 06:35:00,METAR KVNC 050635Z AUTO 07005KT 10SM CLR 21/19 A3010 RMK AO2 T02060186 $,0,5.0,0,16090.0,0,0,0,
2026-04-05 06:15:00,METAR KVNC 050615Z AUTO 08004KT 10SM CLR 21/19 A3011 RMK AO2 T02090187 $,0,4.0,0,16090.0,0,0,0,
2026-04-05 05:55:00,METAR KVNC 050555Z AUTO 09006KT 10SM CLR 21/19 A3012 RMK AO2 T02120187 10250 20212 58004 $,0,6.0,0,16090.0,0,0,0,
2026-04-05 05:35:00,METAR KVNC 050535Z AUTO 08006KT 10SM CLR 21/19 A3013 RMK AO2 T02140187 $,0,6.0,0,16090.0,0,0,0,
2026-04-05 05:15:00,METAR KVNC 050515Z AUTO 08005KT 10SM CLR 22/19 A3013 RMK AO2 T02160187 $,0,5.0,0,16090.0,0,0,0,
2026-04-05 04:55:00,METAR KVNC 050455Z AUTO 09005KT 10SM CLR 22/19 A3013 RMK AO2 T02180186 402970187 $,0,5.0,0,16090.0,0,0,0,
2026-04-05 04:35:00,METAR KVNC 050435Z AUTO 09006KT 10SM CLR 22/19 A3013 RMK AO2 T02220186 $,0,6.0,0,16090.0,0,0,0,
2026-04-05 04:15:00,METAR KVNC 050415Z AUTO 09006KT 10SM CLR 23/19 A3014 RMK AO2 T02270185 $,0,6.0,0,16090.0,0,0,0,
2026-04-05 03:55:00,METAR KVNC 050355Z AUTO 09007KT 10SM CLR 23/18 A3014 RMK AO2 T02300179 $,0,7.0,0,16090.0,0,0,0,
2026-04-05 03:35:00,METAR KVNC 050335Z AUTO 09005KT 10SM CLR 23/17 A3014 RMK AO2 T02300174 $,0,5.0,0,16090.0,0,0,0,
2026-04-05 03:15:00,METAR KVNC 050315Z AUTO 09006KT 10SM CLR 23/17 A3014 RMK AO2 T02320171 $,0,6.0,0,16090.0,0,0,0,
2026-04-05 02:55:00,METAR KVNC 050255Z AUTO 09004KT 10SM CLR 23/16 A3013 RMK AO2 T02300164 53015 $,0,4.0,0,16090.0,0,0,0,
2026-04-05 02:35:00,METAR KVNC 050235Z AUTO 00000KT 10SM FEW060 23/17 A3013 RMK AO2 T02270165 $,0,0.0,0,16090.0,0,0,0,
2026-04-05 02:15:00,METAR KVNC 050215Z AUTO 00000KT 10SM FEW060 22/17 A3012 RMK AO2 T02240171 $,0,0.0,0,16090.0,0,0,0,
2026-04-05 01:55:00,METAR KVNC 050155Z AUTO 00000KT 10SM CLR 22/18 A3012 RMK AO2 T02250175 $,0,0.0,0,16090.0,0,0,0,
2026-04-05 01:35:00,METAR KVNC 050135Z AUTO 00000KT 10SM CLR 24/18 A3011 RMK AO2 T02380184 $,0,0.0,0,16090.0,0,0,0,
2026-04-05 01:15:00,METAR KVNC 050115Z AUTO 00000KT 10SM CLR 22/18 A3011 RMK AO2 T02250176 $,0,0.0,0,16090.0,0,0,0,
2026-04-05 00:55:00,METAR KVNC 050055Z AUTO 32003KT 10SM CLR 24/17 A3010 RMK AO2 T02410169 $,0,3.0,0,16090.0,0,0,0,
2026-04-05 00:35:00,METAR KVNC 050035Z AUTO 00000KT 10SM CLR 24/16 A3009 RMK AO2 T02450165 $,0,0.0,0,16090.0,0,0,0,
2026-04-05 00:15:00,METAR KVNC 050015Z AUTO 34005KT 10SM FEW060 25/16 A3009 RMK AO2 T02480155 $,0,5.0,0,16090.0,0,0,0,
2026-04-04 23:55:00,METAR KVNC 042355Z AUTO 32006KT 10SM OVC055 25/16 A3009 RMK AO2 T02510159 10292 20248 53001 $,0,6.0,0,16090.0,0,0,0,
2026-04-04 23:35:00,METAR KVNC 042335Z AUTO 33006KT 10SM BKN055 OVC070 25/16 A3008 RMK AO2 T02540165 $,0,6.0,0,16090.0,0,0,0,
2026-04-04 23:15:00,METAR KVNC 042315Z AUTO 32004KT 10SM BKN055 25/16 A3008 RMK AO2 T02530160 $,0,4.0,0,16090.0,0,0,0,
2026-04-04 22:55:00,METAR KVNC 042255Z AUTO 32007KT 10SM BKN065 26/16 A3008 RMK AO2 T02550160 $,0,7.0,0,16090.0,0,0,0,
2026-04-04 22:35:00,METAR KVNC 042235Z AUTO 32007KT 10SM BKN060 26/16 A3008 RMK AO2 T02560163 $,0,7.0,0,16090.0,0,0,0,
2026-04-04 22:15:00,METAR KVNC 042215Z AUTO 32010KT 10SM SCT055 SCT070 25/18 A3008 RMK AO2 T02480180 $,0,10.0,0,16090.0,0,0,0,
2026-04-04 21:55:00,METAR KVNC 042155Z AUTO 32011KT 10SM BKN055 25/18 A3008 RMK AO2 T02480185 $,0,11.0,0,16090.0,0,0,0,
2026-04-04 21:35:00,METAR KVNC 042135Z AUTO 32010KT 10SM SCT055 26/19 A3008 RMK AO2 T02570191 $,0,10.0,0,16090.0,0,0,0,
2026-04-04 21:15:00,METAR KVNC 042115Z AUTO 30008KT 10SM BKN060 BKN075 25/18 A3008 RMK AO2 T02530180 $,0,8.0,0,16090.0,0,0,0,
2026-04-04 20:55:00,METAR KVNC 042055Z AUTO 30008KT 10SM FEW060 27/19 A3008 RMK AO2 T02720185 58020 $,0,8.0,0,16090.0,0,0,0,
2026-04-04 20:35:00,METAR KVNC 042035Z AUTO 32010KT 10SM SCT060 25/19 A3009 RMK AO2 T02540189 $,0,10.0,0,16090.0,0,0,0,
2026-04-04 20:15:00,METAR KVNC 042015Z AUTO 32012KT 10SM FEW060 26/19 A3010 RMK AO2 T02620192 $,0,12.0,0,16090.0,0,0,0,
2026-04-04 19:55:00,METAR KVNC 041955Z AUTO 30009KT 10SM CLR 27/20 A3010 RMK AO2 T02680199 $,0,9.0,0,16090.0,0,0,0,
2026-04-04 19:35:00,METAR KVNC 041935Z AUTO 30010KT 10SM FEW050 SCT080 26/20 A3011 RMK AO2 T02630204 $,0,10.0,0,16090.0,0,0,0,
2026-04-04 19:15:00,METAR KVNC 041915Z AUTO 27010KT 10SM FEW049 SCT060 BKN080 27/20 A3012 RMK AO2 T02680205 $,0,10.0,0,16090.0,0,0,0,
2026-04-04 18:55:00,METAR KVNC 041855Z AUTO 28008KT 10SM FEW060 SCT075 27/21 A3013 RMK AO2 T02740205 $,0,8.0,0,16090.0,0,0,0,
2026-04-04 18:35:00,METAR KVNC 041835Z AUTO 23008KT 10SM FEW050 26/20 A3013 RMK AO2 T02630200 $,0,8.0,0,16090.0,0,0,0,
2026-04-04 18:15:00,METAR KVNC 041815Z AUTO 23010KT 10SM BKN050 BKN060 27/19 A3014 RMK AO2 T02660193 $,0,10.0,0,16090.0,0,0,0,
2026-04-04 17:55:00,METAR KVNC 041755Z AUTO VRB06KT 10SM FEW048 29/17 A3014 RMK AO2 T02940172 10297 20191 58013 $,0,6.0,0,16090.0,0,0,0,
2026-04-04 17:35:00,METAR KVNC 041735Z AUTO 12008KT 10SM SCT049 29/17 A3015 RMK AO2 T02900172 $,0,8.0,0,16090.0,0,0,0,
2026-04-04 17:15:00,METAR KVNC 041715Z AUTO 09007KT 060V120 10SM SCT048 28/17 A3016 RMK AO2 T02850166 $,0,7.0,0,16090.0,0,0,0,
2026-04-04 16:55:00,METAR KVNC 041655Z AUTO 13008KT 10SM FEW048 29/16 A3016 RMK AO2 T02870159 $,0,8.0,0,16090.0,0,0,0,
2026-04-04 16:35:00,METAR KVNC 041635Z AUTO 09008KT 10SM FEW380 28/16 A3017 RMK AO2 T02830158 $,0,8.0,0,16090.0,0,0,0,
2026-04-04 16:15:00,METAR KVNC 041615Z AUTO 09008KT 070V140 10SM CLR 28/16 A3017 RMK AO2 T02850157 $,0,8.0,0,16090.0,0,0,0,
2026-04-04 15:55:00,METAR KVNC 041555Z AUTO 09009KT 10SM CLR 28/15 A3018 RMK AO2 T02770153 $,0,9.0,0,16090.0,0,0,0,
2026-04-04 15:35:00,METAR KVNC 041535Z AUTO 10009KT 10SM CLR 27/16 A3018 RMK AO2 T02700159 $,0,9.0,0,16090.0,0,0,0,
2026-04-04 15:15:00,METAR KVNC 041515Z AUTO 11009KT 10SM CLR 26/17 A3018 RMK AO2 T02650172 $,0,9.0,0,16090.0,0,0,0,
2026-04-04 14:55:00,METAR KVNC 041455Z AUTO 11009KT 10SM CLR 26/18 A3018 RMK AO2 T02560178 51006 $,0,9.0,0,16090.0,0,0,0,
2026-04-04 14:35:00,METAR KVNC 041435Z AUTO 09010KT 10SM CLR 25/18 A3018 RMK AO2 T02500181 $,0,10.0,0,16090.0,0,0,0,
2026-04-04 14:15:00,METAR KVNC 041415Z AUTO 10008KT 10SM CLR 24/19 A3018 RMK AO2 T02430188 $,0,8.0,0,16090.0,0,0,0,
2026-04-04 13:55:00,METAR KVNC 041355Z AUTO 10009KT 10SM CLR 23/19 A3018 RMK AO2 T02300193 $,0,9.0,0,16090.0,0,0,0,
2026-04-04 13:35:00,METAR KVNC 041335Z AUTO 08009KT 9SM CLR 22/19 A3018 RMK AO2 T02240194 $,0,9.0,0,14481.0,0,0,0,
2026-04-04 13:15:00,METAR KVNC 041315Z AUTO 07007KT 9SM CLR 21/19 A3018 RMK AO2 T02130194 $,0,7.0,0,14481.0,0,0,0,
2026-04-04 12:55:00,METAR KVNC 041255Z AUTO 07009KT 9SM CLR 20/19 A3018 RMK AO2 T02000191 $,0,9.0,0,14481.0,0,0,0,
2026-04-04 12:35:00,METAR KVNC 041235Z AUTO 07008KT 8SM CLR 19/19 A3018 RMK AO2 T01940188 $,0,8.0,0,12872.0,0,0,0,
2026-04-04 12:15:00,METAR KVNC 041215Z AUTO 08008KT 8SM CLR 19/19 A3017 RMK AO2 T01910186 $,0,8.0,0,12872.0,0,0,0,
2026-04-04 11:55:00,METAR KVNC 041155Z AUTO 06007KT 7SM CLR 19/19 A3016 RMK AO2 T01890186 10220 20187 53011 $,0,7.0,0,11263.0,0,0,0,
2026-04-04 11:35:00,METAR KVNC 041135Z AUTO 06007KT 7SM CLR 19/18 A3016 RMK AO2 T01880185 $,0,7.0,0,11263.0,0,0,0,
2026-04-04 11:15:00,METAR KVNC 041115Z AUTO 07006KT 7SM CLR 19/18 A3016 RMK AO2 T01870183 $,0,6.0,0,11263.0,0,0,0,
2026-04-04 10:55:00,METAR KVNC 041055Z AUTO 06005KT 9SM CLR 19/18 A3015 RMK AO2 T01890184 $,0,5.0,0,14481.0,0,0,0,
2026-04-04 10:35:00,METAR KVNC 041035Z AUTO 07006KT 9SM CLR 19/19 A3014 RMK AO2 T01900185 $,0,6.0,0,14481.0,0,0,0,
2026-04-04 10:15:00,METAR KVNC 041015Z AUTO 06006KT 9SM CLR 19/19 A3014 RMK AO2 T01910187 $,0,6.0,0,14481.0,0,0,0,
2026-04-04 09:55:00,METAR KVNC 040955Z AUTO 07007KT 9SM CLR 19/19 A3014 RMK AO2 T01940188 $,0,7.0,0,14481.0,0,0,0,
2026-04-04 09:35:00,METAR KVNC 040935Z AUTO 07006KT 9SM CLR 19/19 A3014 RMK AO2 T01940189 $,0,6.0,0,14481.0,0,0,0,
2026-04-04 09:15:00,METAR KVNC 040915Z AUTO 07006KT 9SM CLR 19/19 A3014 RMK AO2 T01950188 $,0,6.0,0,14481.0,0,0,0,
2026-04-04 08:55:00,METAR KVNC 040855Z AUTO 07005KT 10SM CLR 20/19 A3013 RMK AO2 T01970188 56016 $,0,5.0,0,16090.0,0,0,0,
2026-04-04 08:35:00,METAR KVNC 040835Z AUTO 07006KT 10SM CLR 20/19 A3013 RMK AO2 T01990189 $,0,6.0,0,16090.0,0,0,0,
2026-04-04 08:15:00,METAR KVNC 040815Z AUTO 08005KT 10SM CLR 20/19 A3013 RMK AO2 T02010190 $,0,5.0,0,16090.0,0,0,0,
2026-04-04 07:55:00,METAR KVNC 040755Z AUTO 09005KT 10SM CLR 20/19 A3013 RMK AO2 T02030190 $,0,5.0,0,16090.0,0,0,0,
2026-04-04 07:35:00,METAR KVNC 040735Z AUTO 09005KT 10SM CLR 20/19 A3013 RMK AO2 T02040189 $,0,5.0,0,16090.0,0,0,0,
2026-04-04 07:15:00,METAR KVNC 040715Z AUTO 09005KT 10SM CLR 21/19 A3014 RMK AO2 T02070190 $,0,5.0,0,16090.0,0,0,0,
2026-04-04 06:55:00,METAR KVNC 040655Z AUTO 08005KT 10SM CLR 21/19 A3016 RMK AO2 T02110191 $,0,5.0,0,16090.0,0,0,0,
2026-04-04 06:35:00,METAR KVNC 040635Z AUTO 09005KT 10SM CLR 22/19 A3017 RMK AO2 T02150193 $,0,5.0,0,16090.0,0,0,0,
2026-04-04 06:15:00,METAR KVNC 040615Z AUTO 09005KT 10SM CLR 22/19 A3017 RMK AO2 T02170192 $,0,5.0,0,16090.0,0,0,0,
2026-04-04 05:55:00,METAR KVNC 040555Z AUTO 11005KT 10SM CLR 22/19 A3018 RMK AO2 T02220192 10254 20222 58002 $,0,5.0,0,16090.0,0,0,0,
2026-04-04 05:35:00,METAR KVNC 040535Z AUTO 11005KT 10SM CLR 22/19 A3018 RMK AO2 T02230191 $,0,5.0,0,16090.0,0,0,0,
2026-04-04 05:15:00,METAR KVNC 040515Z AUTO 11004KT 10SM CLR 23/19 A3019 RMK AO2 T02250191 $,0,4.0,0,16090.0,0,0,0,
2026-04-04 04:55:00,METAR KVNC 040455Z AUTO 11005KT 10SM CLR 23/19 A3019 RMK AO2 T02290191 403120207 $,0,5.0,0,16090.0,0,0,0,
2026-04-04 04:35:00,METAR KVNC 040435Z AUTO 10005KT 10SM CLR 23/19 A3020 RMK AO2 T02300190 $,0,5.0,0,16090.0,0,0,0,
2026-04-04 04:15:00,METAR KVNC 040415Z AUTO 11005KT 10SM CLR 23/19 A3020 RMK AO2 T02320188 $,0,5.0,0,16090.0,0,0,0,
2026-04-04 03:55:00,METAR KVNC 040355Z AUTO 11005KT 10SM CLR 24/19 A3020 RMK AO2 T02370188 $,0,5.0,0,16090.0,0,0,0,
2026-04-04 03:35:00,METAR KVNC 040335Z AUTO 11006KT 10SM CLR 24/19 A3019 RMK AO2 T02390187 $,0,6.0,0,16090.0,0,0,0,
2026-04-04 03:15:00,METAR KVNC 040315Z AUTO 11007KT 10SM CLR 24/19 A3019 RMK AO2 T02430186 $,0,7.0,0,16090.0,0,0,0,
2026-04-04 02:55:00,METAR KVNC 040255Z AUTO 10005KT 10SM CLR 24/19 A3018 RMK AO2 T02440186 53023 $,0,5.0,0,16090.0,0,0,0,
2026-04-04 02:35:00,METAR KVNC 040235Z AUTO 10005KT 10SM CLR 25/19 A3018 RMK AO2 T02460186 $,0,5.0,0,16090.0,0,0,0,
2026-04-04 02:15:00,METAR KVNC 040215Z AUTO 10007KT 10SM FEW046 25/19 A3017 RMK AO2 T02510187 $,0,7.0,0,16090.0,0,0,0,
2026-04-04 01:55:00,METAR KVNC 040155Z AUTO 09006KT 10SM SCT047 SCT060 25/19 A3016 RMK AO2 T02540187 $,0,6.0,0,16090.0,0,0,0,
2026-04-04 01:35:00,METAR KVNC 040135Z AUTO 11004KT 10SM BKN049 BKN060 25/19 A3016 RMK AO2 T02520193 $,0,4.0,0,16090.0,0,0,0,
2026-04-04 01:15:00,METAR KVNC 040115Z AUTO 00000KT 10SM SCT047 OVC060 25/20 A3015 RMK AO2 T02520202 $,0,0.0,0,16090.0,0,0,0,
2026-04-04 00:55:00,METAR KVNC 040055Z AUTO 14004KT 10SM BKN047 BKN060 25/20 A3014 RMK AO2 T02530198 $,0,4.0,0,16090.0,0,0,0,
2026-04-04 00:35:00,METAR KVNC 040035Z AUTO 13005KT 10SM BKN047 OVC065 25/20 A3013 RMK AO2 T02530199 $,0,5.0,0,16090.0,0,0,0,
2026-04-04 00:15:00,METAR KVNC 040015Z AUTO 18007KT 10SM BKN049 OVC060 25/20 A3012 RMK AO2 T02490205 $,0,7.0,0,16090.0,0,0,0,
2026-04-03 23:55:00,METAR KVNC 032355Z AUTO 18005KT 10SM BKN060 25/20 A3012 RMK AO2 T02530196 10312 20252 53001 $,0,5.0,0,16090.0,0,0,0,
2026-04-03 23:35:00,METAR KVNC 032335Z AUTO 18008G16KT 10SM SCT055 25/19 A3012 RMK AO2 T02540194 $,0,8.0,1,16090.0,0,0,0,
2026-04-03 23:15:00,METAR KVNC 032315Z AUTO 12008G16KT 10SM CLR 29/18 A3011 RMK AO2 T02860183 $,0,8.0,1,16090.0,0,0,0,
2026-04-03 22:55:00,METAR KVNC 032255Z AUTO 00000KT 10SM CLR 26/21 A3010 RMK AO2 LTG DSNT SE AND S T02630207 $,0,0.0,0,16090.0,0,0,0,DS
2026-04-03 22:35:00,METAR KVNC 032235Z AUTO 26003KT 10SM CLR 27/20 A3010 RMK AO2 T02660205 $,0,3.0,0,16090.0,0,0,0,
2026-04-03 22:15:00,METAR KVNC 032215Z AUTO 13005KT 10SM CLR 28/19 A3010 RMK AO2 T02800187 $,0,5.0,0,16090.0,0,0,0,
2026-04-03 21:55:00,METAR KVNC 032155Z AUTO 14013KT 10SM SCT060 28/18 A3011 RMK AO2 T02840182 $,0,13.0,0,16090.0,0,0,0,
2026-04-03 21:35:00,METAR KVNC 032135Z AUTO 30007KT 10SM FEW065 27/20 A3010 RMK AO2 LTG DSNT SE AND S T02690201 $,0,7.0,0,16090.0,0,0,0,DS
2026-04-03 21:15:00,METAR KVNC 032115Z AUTO 28011KT 10SM FEW060 26/20 A3010 RMK AO2 T02640204 $,0,11.0,0,16090.0,0,0,0,
2026-04-03 20:55:00,METAR KVNC 032055Z AUTO VRB04KT 10SM FEW060 28/19 A3011 RMK AO2 T02810195 58018 $,0,4.0,0,16090.0,0,0,0,
2026-04-03 20:35:00,METAR KVNC 032035Z AUTO 07008G15KT 10SM FEW060 SCT080 31/17 A3012 RMK AO2 T03080168 $,0,8.0,1,16090.0,0,0,0,
2026-04-03 20:15:00,METAR KVNC 032015Z AUTO 10008KT 10SM SCT065 31/17 A3012 RMK AO2 T03060167 $,0,8.0,0,16090.0,0,0,0,
2026-04-03 19:55:00,METAR KVNC 031955Z AUTO 09009KT 10SM SCT065 BKN080 30/16 A3013 RMK AO2 T03040165 $,0,9.0,0,16090.0,0,0,0,
2026-04-03 19:35:00,METAR KVNC 031935Z AUTO 11010KT 10SM FEW075 31/17 A3013 RMK AO2 T03060170 $,0,10.0,0,16090.0,0,0,0,
2026-04-03 19:15:00,METAR KVNC 031915Z AUTO 10008KT 10SM FEW060 31/17 A3014 RMK AO2 T03060168 $,0,8.0,0,16090.0,0,0,0,
2026-04-03 18:55:00,METAR KVNC 031855Z AUTO 09006KT 10SM BKN055 29/17 A3015 RMK AO2 T02940167 $,0,6.0,0,16090.0,0,0,0,
2026-04-03 18:35:00,METAR KVNC 031835Z AUTO 10009KT 10SM BKN055 29/17 A3016 RMK AO2 T02910169 $,0,9.0,0,16090.0,0,0,0,
2026-04-03 18:15:00,METAR KVNC 031815Z AUTO 12009G17KT 10SM SCT050 30/18 A3016 RMK AO2 T03030176 $,0,9.0,1,16090.0,0,0,0,
2026-04-03 17:55:00,METAR KVNC 031755Z AUTO 11010KT 10SM FEW048 29/18 A3017 RMK AO2 T02910175 10302 20209 58011 $,0,10.0,0,16090.0,0,0,0,
2026-04-03 17:35:00,METAR KVNC 031735Z AUTO 11011G17KT 10SM SCT048 29/18 A3017 RMK AO2 T02910178 $,0,11.0,1,16090.0,0,0,0,
2026-04-03 17:15:00,METAR KVNC 031715Z AUTO 11011G17KT 10SM FEW043 29/18 A3017 RMK AO2 T02950179 $,0,11.0,1,16090.0,0,0,0,
2026-04-03 16:55:00,METAR KVNC 031655Z AUTO 11009KT 10SM SCT040 29/19 A3019 RMK AO2 T02860191 $,0,9.0,0,16090.0,0,0,0,
2026-04-03 16:35:00,METAR KVNC 031635Z AUTO 10010KT 10SM SCT035 29/19 A3019 RMK AO2 T02860188 $,0,10.0,0,16090.0,0,0,0,
2026-04-03 16:15:00,METAR KVNC 031615Z AUTO 10008KT 10SM SCT036 28/19 A3020 RMK AO2 T02770192 $,0,8.0,0,16090.0,0,0,0,
2026-04-03 15:55:00,METAR KVNC 031555Z AUTO 08013G17KT 10SM SCT029 28/20 A3021 RMK AO2 T02800197 $,0,13.0,1,16090.0,0,0,0,
2026-04-03 15:35:00,METAR KVNC 031535Z AUTO 09011KT 10SM BKN028 BKN035 27/20 A3021 RMK AO2 T02690199 $,0,11.0,0,16090.0,0,0,0,
2026-04-03 15:15:00,METAR KVNC 031515Z AUTO 11011KT 10SM FEW027 27/20 A3021 RMK AO2 T02700199 $,0,11.0,0,16090.0,0,0,0,
2026-04-03 14:55:00,METAR KVNC 031455Z AUTO 10010KT 10SM BKN025 26/20 A3020 RMK AO2 T02640201 51015 $,0,10.0,0,16090.0,0,0,0,
2026-04-03 14:35:00,METAR KVNC 031435Z AUTO 11010KT 10SM SCT021 26/20 A3019 RMK AO2 SCT V BKN T02590205 $,0,10.0,0,16090.0,0,0,0,
2026-04-03 14:15:00,METAR KVNC 031415Z AUTO 12012KT 10SM SCT019 25/21 A3019 RMK AO2 T02540207 $,0,12.0,0,16090.0,0,0,0,
2026-04-03 13:55:00,METAR KVNC 031355Z AUTO 11010KT 9SM FEW016 25/21 A3018 RMK AO2 T02460210 $,0,10.0,0,14481.0,0,0,0,
2026-04-03 13:35:00,METAR KVNC 031335Z AUTO 10012KT 10SM CLR 24/21 A3018 RMK AO2 T02390211 $,0,12.0,0,16090.0,0,0,0,
2026-04-03 13:15:00,METAR KVNC 031315Z AUTO 09009KT 10SM CLR 23/21 A3018 RMK AO2 T02320213 $,0,9.0,0,16090.0,0,0,0,
2026-04-03 12:55:00,METAR KVNC 031255Z AUTO 09010KT 10SM CLR 22/21 A3017 RMK AO2 T02230209 $,0,10.0,0,16090.0,0,0,0,
2026-04-03 12:35:00,METAR KVNC 031235Z AUTO 09007KT 10SM CLR 22/21 A3017 RMK AO2 T02180208 $,0,7.0,0,16090.0,0,0,0,
2026-04-03 12:15:00,METAR KVNC 031215Z AUTO 07007KT 10SM CLR 21/20 A3016 RMK AO2 T02110205 $,0,7.0,0,16090.0,0,0,0,
2026-04-03 11:55:00,METAR KVNC 031155Z AUTO 06007KT 9SM CLR 21/20 A3015 RMK AO2 60014 70016 T02080204 10215 20207 53017 $,0,7.0,0,14481.0,0,0,0,
2026-04-03 11:35:00,METAR KVNC 031135Z AUTO 06006KT 8SM CLR 21/20 A3014 RMK AO2 T02070203 $,0,6.0,0,12872.0,0,0,0,
2026-04-03 11:15:00,METAR KVNC 031115Z AUTO 07005KT 9SM CLR 21/20 A3013 RMK AO2 T02070203 $,0,5.0,0,14481.0,0,0,0,
2026-04-03 08:55:00,METAR KVNC 030855Z AUTO 09009KT 10SM OVC095 21/21 A3010 RMK AO2 60014 T02140208 58013 $,0,9.0,0,16090.0,0,0,0,
2026-04-03 08:35:00,METAR KVNC 030835Z AUTO 07008KT 10SM OVC095 21/21 A3011 RMK AO2 T02130208 $,0,8.0,0,16090.0,0,0,0,
2026-04-03 08:15:00,METAR KVNC 030815Z AUTO 08008KT 9SM OVC090 21/21 A3011 RMK AO2 T02120207 $,0,8.0,0,14481.0,0,0,0,
2026-04-03 06:15:00,METAR KVNC 030615Z AUTO 06008KT 10SM BKN044 21/20 A3014 RMK AO2 T02100201 $,0,8.0,0,16090.0,0,0,0,
2026-04-03 05:55:00,METAR KVNC 030555Z AUTO 05007KT 10SM FEW016 21/20 A3014 RMK AO2 60002 T02090201 10241 20209 55003 $,0,7.0,0,16090.0,0,0,0,
2026-04-03 05:35:00,METAR KVNC 030535Z AUTO 06008KT 10SM SCT020 21/20 A3014 RMK AO2 T02110201 $,0,8.0,0,16090.0,0,0,0,
2026-04-03 05:15:00,METAR KVNC 030515Z AUTO 05007KT 10SM SCT021 21/20 A3014 RMK AO2 T02110201 $,0,7.0,0,16090.0,0,0,0,
2026-04-03 04:55:00,METAR KVNC 030455Z AUTO 04005KT 10SM CLR 21/20 A3014 RMK AO2 T02110200 402980180 $,0,5.0,0,16090.0,0,0,0,
2026-04-03 04:35:00,METAR KVNC 030435Z AUTO 05007KT 10SM CLR 21/20 A3014 RMK AO2 T02140200 $,0,7.0,0,16090.0,0,0,0,
2026-04-03 04:15:00,METAR KVNC 030415Z AUTO 08007KT 10SM CLR 22/20 A3014 RMK AO2 T02160201 $,0,7.0,0,16090.0,0,0,0,
2026-04-03 03:55:00,METAR KVNC 030355Z AUTO 09006KT 9SM BKN026 22/20 A3015 RMK AO2 RAE0313 BKN V SCT P0002 T02190202 $,0,6.0,0,14481.0,0,0,0,RA
2026-04-03 03:35:00,METAR KVNC 030335Z AUTO 11005KT 9SM BKN025 BKN080 22/20 A3015 RMK AO2 RAE0313 CIG 023V028 P0002 T02190201 $,0,5.0,0,14481.0,0,0,0,RA
2026-04-03 03:15:00,METAR KVNC 030315Z AUTO 10005KT 9SM FEW008 BKN024 BKN033 OVC055 22/20 A3015 RMK AO2 LTG DSNT S RAE0313 P0002 T02180200 $,0,5.0,0,14481.0,0,0,0,"DS,RA"
2026-04-03 02:55:00,METAR KVNC 030255Z AUTO 10008KT 9SM -RA VCTS FEW040 BKN055 OVC075 22/20 A3015 RMK AO2 RAB0250 P0000 60000 T02250197 53018 $,0,8.0,0,14481.0,1,0,0,"-RA,RA,TS,VC"
2026-04-03 02:35:00,METAR KVNC 030235Z AUTO 10008KT 10SM VCTS FEW039 BKN055 BKN070 22/19 A3014 RMK AO2 T02230194 $,0,8.0,0,16090.0,1,0,0,"TS,VC"
2026-04-03 02:15:00,METAR KVNC 030215Z AUTO 09007KT 10SM FEW030 SCT065 22/19 A3014 RMK AO2 T02230194 $,0,7.0,0,16090.0,0,0,0,
2026-04-03 01:55:00,METAR KVNC 030155Z AUTO 09008KT 10SM SCT038 SCT046 22/19 A3014 RMK AO2 LTG DSNT SE T02230192 $,0,8.0,0,16090.0,0,0,0,DS
2026-04-03 01:35:00,METAR KVNC 030135Z AUTO 09007KT 9SM BKN040 OVC140 23/20 A3013 RMK AO2 T02270196 $,0,7.0,0,14481.0,0,0,0,
2026-04-03 01:15:00,METAR KVNC 030115Z AUTO 09009KT 10SM FEW038 OVC140 23/20 A3013 RMK AO2 LTG DSNT NE AND SE AND SW T02320199 $,0,9.0,0,16090.0,0,0,0,DS
2026-04-03 00:55:00,METAR KVNC 030055Z AUTO 11004KT 10SM FEW140 23/19 A3011 RMK AO2 LTG DSNT NE T02340191 $,0,4.0,0,16090.0,0,0,0,DS
2026-04-03 00:35:00,METAR KVNC 030035Z AUTO 16005KT 10SM FEW150 24/19 A3010 RMK AO2 T02350192 $,0,5.0,0,16090.0,0,0,0,
2026-04-03 00:15:00,METAR KVNC 030015Z AUTO 00000KT 9SM FEW150 24/19 A3010 RMK AO2 LTG DSNT N - E T02410192 $,0,0.0,0,14481.0,0,0,0,DS
2026-04-02 23:55:00,METAR KVNC 022355Z AUTO 16006KT 9SM VCTS FEW046 24/20 A3010 RMK AO2 TSE2304 T02400196 10296 20235 51012 $,0,6.0,0,14481.0,1,0,0,"TS,VC"
2026-04-02 23:35:00,METAR KVNC 022335Z AUTO 12006KT 9SM VCTS SCT046 BKN160 24/19 A3010 RMK AO2 TSE2304 T02360194 $,0,6.0,0,14481.0,1,0,0,"TS,VC"
2026-04-02 23:15:00,METAR KVNC 022315Z AUTO 10004KT 9SM VCTS SCT060 BKN160 25/18 A3011 RMK AO2 TSE2304 T02470182 $,0,4.0,0,14481.0,1,0,0,"TS,VC"
2026-04-02 22:55:00,METAR KVNC 022255Z AUTO 14007KT 9SM TS FEW070 SCT160 25/20 A3010 RMK AO2 WSHFT 2217 TSB2249 T02550197 $,0,7.0,0,14481.0,1,0,0,TS
2026-04-02 22:35:00,METAR KVNC 022235Z AUTO VRB04KT 9SM VCTS SCT047 BKN160 25/19 A3009 RMK AO2 WSHFT 2217 T02500192 $,0,4.0,0,14481.0,1,0,0,"TS,VC"
2026-04-02 22:15:00,METAR KVNC 022215Z AUTO 06012KT 9SM OVC047 25/19 A3009 RMK AO2 LTG DSNT N - SE AND W T02490194 $,0,12.0,0,14481.0,0,0,0,DS
2026-04-02 21:55:00,METAR KVNC 022155Z AUTO 01010KT 350V150 9SM BKN050 26/18 A3008 RMK AO2 T02600185 $,0,10.0,0,14481.0,0,0,0,
2026-04-02 21:35:00,METAR KVNC 022135Z AUTO 31010KT 10SM SCT060 26/19 A3007 RMK AO2 LTG DSNT N - SE T02630189 $,0,10.0,0,16090.0,0,0,0,DS
2026-04-02 21:15:00,METAR KVNC 022115Z AUTO 31011KT 10SM VCTS CLR 26/20 A3005 RMK AO2 T02560204 $,0,11.0,0,16090.0,1,0,0,"TS,VC"
2026-04-02 20:55:00,METAR KVNC 022055Z AUTO 31010KT 8SM CLR 26/20 A3006 RMK AO2 LTG DSNT NE AND SE T02620203 56018 $,0,10.0,0,12872.0,0,0,0,DS
2026-04-02 20:35:00,METAR KVNC 022035Z AUTO 30010KT 9SM CLR 26/21 A3007 RMK AO2 LTG DSNT SE T02620206 $,0,10.0,0,14481.0,0,0,0,DS
2026-04-02 20:15:00,METAR KVNC 022015Z AUTO 30010KT 10SM CLR 26/20 A3008 RMK AO2 LTG DSNT NE AND E T02650200 $,0,10.0,0,16090.0,0,0,0,DS
2026-04-02 19:55:00,METAR KVNC 021955Z AUTO 28010KT 9SM FEW060 27/20 A3008 RMK AO2 T02680202 $,0,10.0,0,14481.0,0,0,0,
2026-04-02 19:35:00,METAR KVNC 021935Z AUTO 29010KT 9SM FEW070 27/20 A3008 RMK AO2 T02690204 $,0,10.0,0,14481.0,0,0,0,
2026-04-02 19:15:00,METAR KVNC 021915Z AUTO 27009KT 8SM SCT070 27/20 A3009 RMK AO2 T02660203 $,0,9.0,0,12872.0,0,0,0,
2026-04-02 18:55:00,METAR KVNC 021855Z AUTO 26009KT 10SM SCT050 26/20 A3010 RMK AO2 LTG DSNT NE AND E T02640204 $,0,9.0,0,16090.0,0,0,0,DS
2026-04-02 18:35:00,METAR KVNC 021835Z AUTO 25009KT 10SM BKN050 BKN070 27/21 A3010 RMK AO2 LTG DSNT E T02730206 $,0,9.0,0,16090.0,0,0,0,DS
2026-04-02 18:15:00,METAR KVNC 021815Z AUTO 10008KT 10SM SCT050 BKN070 29/17 A3011 RMK AO2 T02920175 $,0,8.0,0,16090.0,0,0,0,
2026-04-02 17:55:00,METAR KVNC 021755Z AUTO 10008KT 10SM FEW048 29/18 A3012 RMK AO2 T02910178 10296 20186 58013 $,0,8.0,0,16090.0,0,0,0,
2026-04-02 17:35:00,METAR KVNC 021735Z AUTO 10009KT 10SM FEW044 29/18 A3012 RMK AO2 T02930179 $,0,9.0,0,16090.0,0,0,0,
2026-04-02 17:15:00,METAR KVNC 021715Z AUTO 11011G15KT 10SM SCT042 29/18 A3013 RMK AO2 T02910182 $,0,11.0,1,16090.0,0,0,0,
2026-04-02 16:55:00,METAR KVNC 021655Z AUTO 09010KT 10SM SCT042 BKN055 BKN330 28/18 A3014 RMK AO2 T02840181 $,0,10.0,0,16090.0,0,0,0,
2026-04-02 16:35:00,METAR KVNC 021635Z AUTO 14010KT 10SM SCT042 BKN055 28/18 A3014 RMK AO2 T02810182 $,0,10.0,0,16090.0,0,0,0,
2026-04-02 16:15:00,METAR KVNC 021615Z AUTO 10010KT 10SM SCT039 28/18 A3015 RMK AO2 T02750180 $,0,10.0,0,16090.0,0,0,0,
2026-04-02 15:55:00,METAR KVNC 021555Z AUTO 08011KT 10SM 27/18 A3016 RMK AO2 T02740181 $,0,11.0,0,16090.0,0,0,0,
2026-04-02 15:35:00,METAR KVNC 021535Z AUTO 07008G15KT 10SM 27/18 A3016 RMK AO2 T02690185 $,0,8.0,1,16090.0,0,0,0,
2026-04-02 15:15:00,METAR KVNC 021515Z AUTO 09011KT 10SM 27/18 A3016 RMK AO2 T02670185 $,0,11.0,0,16090.0,0,0,0,
2026-04-02 14:55:00,METAR KVNC 021455Z AUTO 09008KT 10SM 26/19 A3015 RMK AO2 T02630187 51013 $,0,8.0,0,16090.0,0,0,0,
2026-04-02 14:35:00,METAR KVNC 021435Z AUTO A3015 RMK AO2 $,0,,0,,0,0,0,
2026-04-02 14:15:00,METAR KVNC 021415Z AUTO 9SM CLR 25/19 RMK AO2 T02470186 $,0,,0,14481.0,0,0,0,
2026-04-02 13:55:00,METAR KVNC 021355Z AUTO 07010KT 10SM CLR 23/18 A3014 RMK AO2 T02330182 $,0,10.0,0,16090.0,0,0,0,
2026-04-02 13:35:00,METAR KVNC 021335Z AUTO 08008KT 9SM CLR 23/18 A3014 RMK AO2 T02280180 $,0,8.0,0,14481.0,0,0,0,
2026-04-02 13:15:00,METAR KVNC 021315Z AUTO 07008KT 9SM CLR 22/18 A3014 RMK AO2 T02170177 $,0,8.0,0,14481.0,0,0,0,
2026-04-02 12:55:00,METAR KVNC 021255Z AUTO 06008KT 9SM CLR 20/17 A3013 RMK AO2 T02040174 $,0,8.0,0,14481.0,0,0,0,
2026-04-02 12:35:00,METAR KVNC 021235Z AUTO 07008KT 9SM CLR 20/17 A3013 RMK AO2 T01980172 $,0,8.0,0,14481.0,0,0,0,
2026-04-02 12:15:00,METAR KVNC 021215Z AUTO 07007KT 9SM CLR 19/17 A3012 RMK AO2 T01900170 $,0,7.0,0,14481.0,0,0,0,
2026-04-02 11:55:00,METAR KVNC 021155Z AUTO 06006KT 8SM CLR 18/17 A3012 RMK AO2 T01820168 10203 20180 53011 $,0,6.0,0,12872.0,0,0,0,
2026-04-02 11:35:00,METAR KVNC 021135Z AUTO 07006KT 9SM CLR 18/17 A3011 RMK AO2 T01820168 $,0,6.0,0,14481.0,0,0,0,
2026-04-02 11:15:00,METAR KVNC 021115Z AUTO 07006KT 9SM CLR 18/17 A3010 RMK AO2 T01800168 $,0,6.0,0,14481.0,0,0,0,
2026-04-02 10:55:00,METAR KVNC 021055Z AUTO 08006KT 10SM CLR 18/17 A3009 RMK AO2 T01810168 $,0,6.0,0,16090.0,0,0,0,
2026-04-02 10:35:00,METAR KVNC 021035Z AUTO 08006KT 10SM CLR 18/17 A3009 RMK AO2 T01820168 $,0,6.0,0,16090.0,0,0,0,
2026-04-02 10:15:00,METAR KVNC 021015Z AUTO 07006KT 10SM CLR 18/17 A3008 RMK AO2 T01840169 $,0,6.0,0,16090.0,0,0,0,
2026-04-02 09:55:00,METAR KVNC 020955Z AUTO 07005KT 10SM CLR 18/17 A3008 RMK AO2 T01840169 $,0,5.0,0,16090.0,0,0,0,
2026-04-02 09:35:00,METAR KVNC 020935Z AUTO 07006KT 10SM CLR 19/17 A3008 RMK AO2 T01860169 $,0,6.0,0,16090.0,0,0,0,
2026-04-02 09:15:00,METAR KVNC 020915Z AUTO 08005KT 10SM CLR 19/17 A3008 RMK AO2 T01870171 $,0,5.0,0,16090.0,0,0,0,
2026-04-02 08:55:00,METAR KVNC 020855Z AUTO 08005KT 10SM CLR 19/17 A3008 RMK AO2 T01900171 58017 $,0,5.0,0,16090.0,0,0,0,
2026-04-02 08:35:00,METAR KVNC 020835Z AUTO 08006KT 10SM CLR 19/17 A3008 RMK AO2 T01900172 $,0,6.0,0,16090.0,0,0,0,
2026-04-02 08:15:00,METAR KVNC 020815Z AUTO 08005KT 10SM CLR 19/17 A3009 RMK AO2 T01920172 $,0,5.0,0,16090.0,0,0,0,
2026-04-02 07:55:00,METAR KVNC 020755Z AUTO 08006KT 10SM CLR 20/17 A3010 RMK AO2 T01950173 $,0,6.0,0,16090.0,0,0,0,
2026-04-02 07:35:00,METAR KVNC 020735Z AUTO 08007KT 10SM CLR 20/17 A3011 RMK AO2 T01950173 $,0,7.0,0,16090.0,0,0,0,
2026-04-02 07:15:00,METAR KVNC 020715Z AUTO 09007KT 10SM CLR 20/17 A3011 RMK AO2 T01970174 $,0,7.0,0,16090.0,0,0,0,
2026-04-02 06:55:00,METAR KVNC 020655Z AUTO 09007KT 10SM CLR 20/17 A3012 RMK AO2 T01980174 $,0,7.0,0,16090.0,0,0,0,
2026-04-02 06:35:00,METAR KVNC 020635Z AUTO 08007KT 10SM SCT100 20/17 A3012 RMK AO2 T02000174 $,0,7.0,0,16090.0,0,0,0,
2026-04-02 06:15:00,METAR KVNC 020615Z AUTO 09006KT 10SM OVC100 20/18 A3013 RMK AO2 T02020176 $,0,6.0,0,16090.0,0,0,0,
2026-04-02 05:55:00,METAR KVNC 020555Z AUTO 08006KT 10SM BKN100 20/18 A3013 RMK AO2 T02030175 10250 20203 50000 $,0,6.0,0,16090.0,0,0,0,
2026-04-02 05:35:00,METAR KVNC 020535Z AUTO 09006KT 10SM CLR 20/17 A3014 RMK AO2 T02030175 $,0,6.0,0,16090.0,0,0,0,
2026-04-02 05:15:00,METAR KVNC 020515Z AUTO 07006KT 10SM CLR 21/17 A3014 RMK AO2 T02060175 $,0,6.0,0,16090.0,0,0,0,
2026-04-02 04:55:00,METAR KVNC 020455Z AUTO 08007KT 10SM CLR 21/18 A3014 RMK AO2 T02100175 402860171 $,0,7.0,0,16090.0,0,0,0,
2026-04-02 04:35:00,METAR KVNC 020435Z AUTO 08006KT 10SM CLR 21/18 A3014 RMK AO2 T02080175 $,0,6.0,0,16090.0,0,0,0,
2026-04-02 04:15:00,METAR KVNC 020415Z AUTO 08006KT 10SM CLR 21/17 A3014 RMK AO2 T02120175 $,0,6.0,0,16090.0,0,0,0,
2026-04-02 03:55:00,METAR KVNC 020355Z AUTO 09008KT 10SM CLR 22/18 A3014 RMK AO2 T02160176 $,0,8.0,0,16090.0,0,0,0,
2026-04-02 03:35:00,METAR KVNC 020335Z AUTO 09007KT 10SM CLR 22/18 A3014 RMK AO2 T02170176 $,0,7.0,0,16090.0,0,0,0,
2026-04-02 03:15:00,METAR KVNC 020315Z AUTO 09007KT 10SM CLR 22/18 A3014 RMK AO2 T02210176 $,0,7.0,0,16090.0,0,0,0,
2026-04-02 02:55:00,METAR KVNC 020255Z AUTO 10007KT 10SM CLR 23/18 A3013 RMK AO2 T02260175 53015 $,0,7.0,0,16090.0,0,0,0,
2026-04-02 02:35:00,METAR KVNC 020235Z AUTO 10008KT 10SM CLR 23/17 A3013 RMK AO2 T02270174 $,0,8.0,0,16090.0,0,0,0,
2026-04-02 02:15:00,METAR KVNC 020215Z AUTO 10008KT 10SM CLR 23/17 A3013 RMK AO2 T02280173 $,0,8.0,0,16090.0,0,0,0,
2026-04-02 01:55:00,METAR KVNC 020155Z AUTO 09010KT 10SM CLR 23/17 A3012 RMK AO2 T02330171 $,0,10.0,0,16090.0,0,0,0,
2026-04-02 01:35:00,METAR KVNC 020135Z AUTO 09009KT 10SM CLR 24/17 A3012 RMK AO2 T02360167 $,0,9.0,0,16090.0,0,0,0,
2026-04-02 01:15:00,METAR KVNC 020115Z AUTO 10011KT 10SM CLR 24/17 A3011 RMK AO2 T02400170 $,0,11.0,0,16090.0,0,0,0,
2026-04-02 00:55:00,METAR KVNC 020055Z AUTO 09007KT 10SM CLR 24/17 A3010 RMK AO2 T02420172 $,0,7.0,0,16090.0,0,0,0,
2026-04-02 00:35:00,METAR KVNC 020035Z AUTO 09006KT 7SM CLR 24/17 A3010 RMK AO2 T02410172 $,0,6.0,0,11263.0,0,0,0,
2026-04-02 00:15:00,METAR KVNC 020015Z AUTO 10008KT 8SM SCT040 SCT055 25/17 A3009 RMK AO2 T02470172 $,0,8.0,0,12872.0,0,0,0,
2026-04-01 23:55:00,METAR KVNC 012355Z AUTO 08008KT 9SM BKN041 BKN049 24/18 A3009 RMK AO2 T02430181 10266 20236 55003 $,0,8.0,0,14481.0,0,0,0,
2026-04-01 23:35:00,METAR KVNC 012335Z AUTO 32006KT 10SM BKN042 24/19 A3009 RMK AO2 T02360190 $,0,6.0,0,16090.0,0,0,0,
2026-04-01 23:15:00,METAR KVNC 012315Z AUTO 32010KT 10SM FEW045 24/18 A3009 RMK AO2 T02380182 $,0,10.0,0,16090.0,0,0,0,
2026-04-01 22:55:00,METAR KVNC 012255Z AUTO VRB05KT 10SM FEW090 25/17 A3009 RMK AO2 T02500174 $,0,5.0,0,16090.0,0,0,0,
2026-04-01 22:35:00,METAR KVNC 012235Z AUTO 33005KT 10SM FEW070 25/18 A3009 RMK AO2 T02480178 $,0,5.0,0,16090.0,0,0,0,
2026-04-01 22:15:00,METAR KVNC 012215Z AUTO 31008KT 10SM CLR 24/19 A3008 RMK AO2 T02440190 $,0,8.0,0,16090.0,0,0,0,
2026-04-01 21:55:00,METAR KVNC 012155Z AUTO 30008KT 10SM CLR 24/20 A3008 RMK AO2 T02440198 $,0,8.0,0,16090.0,0,0,0,
2026-04-01 21:35:00,METAR KVNC 012135Z AUTO 29009KT 10SM FEW065 SCT085 24/20 A3008 RMK AO2 T02440200 $,0,9.0,0,16090.0,0,0,0,
2026-04-01 21:15:00,METAR KVNC 012115Z AUTO 31010KT 10SM SCT065 BKN085 24/20 A3010 RMK AO2 T02420200 $,0,10.0,0,16090.0,0,0,0,
2026-04-01 20:55:00,METAR KVNC 012055Z AUTO 29009KT 10SM SCT070 25/19 A3010 RMK AO2 T02540193 58025 $,0,9.0,0,16090.0,0,0,0,
2026-04-01 20:35:00,METAR KVNC 012035Z AUTO 29010KT 10SM SCT070 BKN085 25/20 A3010 RMK AO2 T02490196 $,0,10.0,0,16090.0,0,0,0,
2026-04-01 20:15:00,METAR KVNC 012015Z AUTO 29011KT 10SM FEW080 25/20 A3011 RMK AO2 T02550195 $,0,11.0,0,16090.0,0,0,0,
2026-04-01 19:55:00,METAR KVNC 011955Z AUTO 29010KT 10SM SCT080 25/20 A3012 RMK AO2 T02550204 $,0,10.0,0,16090.0,0,0,0,
2026-04-01 19:35:00,METAR KVNC 011935Z AUTO 26008KT 10SM SCT080 26/19 A3013 RMK AO2 T02640190 $,0,8.0,0,16090.0,0,0,0,
2026-04-01 19:15:00,METAR KVNC 011915Z AUTO 29008KT 10SM SCT065 BKN080 25/20 A3014 RMK AO2 T02520198 $,0,8.0,0,16090.0,0,0,0,
2026-04-01 18:55:00,METAR KVNC 011855Z AUTO 29007KT 10SM SCT060 BKN075 26/20 A3015 RMK AO2 T02560198 $,0,7.0,0,16090.0,0,0,0,
2026-04-01 18:35:00,METAR KVNC 011835Z AUTO 28008KT 10SM FEW065 SCT080 SCT090 26/19 A3016 RMK AO2 T02610194 $,0,8.0,0,16090.0,0,0,0,
2026-04-01 18:15:00,METAR KVNC 011815Z AUTO 24012KT 10SM SCT065 SCT080 25/19 A3016 RMK AO2 T02520193 $,0,12.0,0,16090.0,0,0,0,
2026-04-01 17:55:00,METAR KVNC 011755Z AUTO 12004KT 10SM SCT060 28/14 A3017 RMK AO2 T02790142 10286 20182 58010 $,0,4.0,0,16090.0,0,0,0,
2026-04-01 17:35:00,METAR KVNC 011735Z AUTO 08005KT 10SM FEW055 28/15 A3018 RMK AO2 T02790147 $,0,5.0,0,16090.0,0,0,0,
2026-04-01 17:15:00,METAR KVNC 011715Z AUTO 06008KT 10SM SCT055 28/15 A3018 RMK AO2 T02760154 $,0,8.0,0,16090.0,0,0,0,
2026-04-01 16:55:00,METAR KVNC 011655Z AUTO 09007KT 10SM BKN047 BKN055 BKN330 27/15 A3019 RMK AO2 T02700152 $,0,7.0,0,16090.0,0,0,0,
2026-04-01 16:35:00,METAR KVNC 011635Z AUTO 11008KT 10SM BKN044 BKN330 28/16 A3019 RMK AO2 T02780162 $,0,8.0,0,16090.0,0,0,0,
2026-04-01 16:15:00,METAR KVNC 011615Z AUTO 10005G16KT 10SM SCT040 27/17 A3019 RMK AO2 T02680168 $,0,5.0,1,16090.0,0,0,0,
2026-04-01 15:55:00,METAR KVNC 011555Z AUTO 08007KT 10SM FEW037 27/17 A3020 RMK AO2 T02660169 $,0,7.0,0,16090.0,0,0,0,
2026-04-01 15:35:00,METAR KVNC 011535Z AUTO 11008KT 10SM FEW035 27/17 A3020 RMK AO2 T02670172 $,0,8.0,0,16090.0,0,0,0,
2026-04-01 15:15:00,METAR KVNC 011515Z AUTO 12010KT 10SM CLR 26/17 A3020 RMK AO2 T02600173 $,0,10.0,0,16090.0,0,0,0,
2026-04-01 14:55:00,METAR KVNC 011455Z AUTO 10010KT 10SM CLR 26/18 A3020 RMK AO2 T02590179 51014 $,0,10.0,0,16090.0,0,0,0,
2026-04-01 14:35:00,METAR KVNC 011435Z AUTO 11010G16KT 10SM CLR 25/18 A3020 RMK AO2 T02530179 $,0,10.0,1,16090.0,0,0,0,
2026-04-01 13:55:00,METAR KVNC 011355Z AUTO 10007KT 10SM CLR 23/18 A3019 RMK AO2 T02330181 $,0,7.0,0,16090.0,0,0,0,
2026-04-01 13:35:00,METAR KVNC 011335Z AUTO 10009KT 10SM CLR 23/18 A3019 RMK AO2 T02250182 $,0,9.0,0,16090.0,0,0,0,
2026-04-01 13:15:00,METAR KVNC 011315Z AUTO 09008KT 10SM CLR 21/18 A3019 RMK AO2 T02140179 $,0,8.0,0,16090.0,0,0,0,
2026-04-01 12:55:00,METAR KVNC 011255Z AUTO 09008KT 10SM CLR 21/18 A3018 RMK AO2 T02050177 $,0,8.0,0,16090.0,0,0,0,
2026-04-01 12:35:00,METAR KVNC 011235Z AUTO 09008KT 10SM CLR 20/17 A3018 RMK AO2 T01990174 $,0,8.0,0,16090.0,0,0,0,
2026-04-01 12:15:00,METAR KVNC 011215Z AUTO 07008KT 10SM CLR 19/17 A3017 RMK AO2 T01900170 $,0,8.0,0,16090.0,0,0,0,
2026-04-01 11:55:00,METAR KVNC 011155Z AUTO 07006KT 10SM CLR 18/16 A3016 RMK AO2 T01770164 10191 20171 53014 $,0,6.0,0,16090.0,0,0,0,
2026-04-01 11:35:00,METAR KVNC 011135Z AUTO 07007KT 10SM CLR 17/16 A3015 RMK AO2 T01730161 $,0,7.0,0,16090.0,0,0,0,
2026-04-01 11:15:00,METAR KVNC 011115Z AUTO 07007KT 10SM CLR 17/16 A3014 RMK AO2 T01720161 $,0,7.0,0,16090.0,0,0,0,
2026-04-01 10:55:00,METAR KVNC 011055Z AUTO 07007KT 10SM CLR 17/16 A3013 RMK AO2 T01730160 $,0,7.0,0,16090.0,0,0,0,
2026-04-01 10:35:00,METAR KVNC 011035Z AUTO 07006KT 10SM CLR 17/16 A3013 RMK AO2 T01740161 $,0,6.0,0,16090.0,0,0,0,
2026-04-01 10:15:00,METAR KVNC 011015Z AUTO 08006KT 10SM CLR 18/16 A3013 RMK AO2 T01760161 $,0,6.0,0,16090.0,0,0,0,
2026-04-01 09:55:00,METAR KVNC 010955Z AUTO 07007KT 10SM CLR 18/16 A3012 RMK AO2 T01750160 $,0,7.0,0,16090.0,0,0,0,
2026-04-01 09:35:00,METAR KVNC 010935Z AUTO 07008KT 10SM CLR 17/16 A3011 RMK AO2 T01740160 $,0,8.0,0,16090.0,0,0,0,
2026-04-01 09:15:00,METAR KVNC 010915Z AUTO 07008KT 10SM CLR 17/16 A3011 RMK AO2 T01740159 $,0,8.0,0,16090.0,0,0,0,
2026-04-01 08:55:00,METAR KVNC 010855Z AUTO 06007KT 10SM CLR 17/16 A3012 RMK AO2 T01740159 56018 $,0,7.0,0,16090.0,0,0,0,
2026-04-01 08:35:00,METAR KVNC 010835Z AUTO 07007KT 10SM CLR 17/16 A3013 RMK AO2 T01750160 $,0,7.0,0,16090.0,0,0,0,
2026-04-01 08:15:00,METAR KVNC 010815Z AUTO 07006KT 10SM CLR 17/16 A3013 RMK AO2 T01750158 $,0,6.0,0,16090.0,0,0,0,
2026-04-01 07:55:00,METAR KVNC 010755Z AUTO 07006KT 10SM CLR 18/16 A3013 RMK AO2 T01780160 $,0,6.0,0,16090.0,0,0,0,
2026-04-01 07:35:00,METAR KVNC 010735Z AUTO 06006KT 10SM CLR 18/16 A3014 RMK AO2 T01800159 $,0,6.0,0,16090.0,0,0,0,
2026-04-01 07:15:00,METAR KVNC 010715Z AUTO 07006KT 10SM CLR 18/16 A3014 RMK AO2 T01810159 $,0,6.0,0,16090.0,0,0,0,
2026-04-01 06:55:00,METAR KVNC 010655Z AUTO 08006KT 10SM CLR 18/16 A3015 RMK AO2 T01840159 $,0,6.0,0,16090.0,0,0,0,
2026-04-01 06:35:00,METAR KVNC 010635Z AUTO 07006KT 10SM CLR 19/16 A3016 RMK AO2 T01870159 $,0,6.0,0,16090.0,0,0,0,
2026-04-01 06:15:00,METAR KVNC 010615Z AUTO 07006KT 10SM CLR 19/16 A3017 RMK AO2 T01890158 $,0,6.0,0,16090.0,0,0,0,
2026-04-01 05:55:00,METAR KVNC 010555Z AUTO 08006KT 10SM CLR 19/16 A3017 RMK AO2 T01930157 10261 20193 58003 $,0,6.0,0,16090.0,0,0,0,
2026-04-01 05:15:00,METAR KVNC 010515Z AUTO 08007KT 10SM CLR 20/16 A3017 RMK AO2 T01970157 $,0,7.0,0,16090.0,0,0,0,
2026-04-01 04:55:00,METAR KVNC 010455Z AUTO 09006KT 10SM CLR 20/16 A3018 RMK AO2 T02010156 403000187 $,0,6.0,0,16090.0,0,0,0,
2026-04-01 04:35:00,METAR KVNC 010435Z AUTO 08006KT 10SM CLR 21/16 A3018 RMK AO2 T02050157 $,0,6.0,0,16090.0,0,0,0,
2026-04-01 04:15:00,METAR KVNC 010415Z AUTO 09007KT 10SM CLR 21/16 A3018 RMK AO2 T02100156 $,0,7.0,0,16090.0,0,0,0,
2026-04-01 03:55:00,METAR KVNC 010355Z AUTO 09008KT 10SM CLR 21/16 A3018 RMK AO2 T02140156 $,0,8.0,0,16090.0,0,0,0,
2026-04-01 03:35:00,METAR KVNC 010335Z AUTO 09007KT 10SM CLR 22/16 A3019 RMK AO2 T02180156 $,0,7.0,0,16090.0,0,0,0,
2026-04-01 03:15:00,METAR KVNC 010315Z AUTO 09009KT 10SM CLR 22/16 A3018 RMK AO2 T02220157 $,0,9.0,0,16090.0,0,0,0,
2026-04-01 02:55:00,METAR KVNC 010255Z AUTO 09008KT 10SM CLR 23/15 A3018 RMK AO2 T02270153 51014 $,0,8.0,0,16090.0,0,0,0,
2026-04-01 02:35:00,METAR KVNC 010235Z AUTO 09008KT 10SM CLR 23/15 A3018 RMK AO2 T02300153 $,0,8.0,0,16090.0,0,0,0,
2026-04-01 02:15:00,METAR KVNC 010215Z AUTO 09006KT 10SM CLR 23/15 A3018 RMK AO2 T02320151 $,0,6.0,0,16090.0,0,0,0,
2026-04-01 01:55:00,METAR KVNC 010155Z AUTO 09007KT 10SM CLR 24/15 A3017 RMK AO2 T02390146 $,0,7.0,0,16090.0,0,0,0,
2026-04-01 01:35:00,METAR KVNC 010135Z AUTO 09007KT 10SM CLR 24/14 A3016 RMK AO2 T02410143 $,0,7.0,0,16090.0,0,0,0,
2026-04-01 01:15:00,METAR KVNC 010115Z AUTO 09007KT 10SM CLR 25/14 A3016 RMK AO2 T02470142 $,0,7.0,0,16090.0,0,0,0,
2026-04-01 00:55:00,METAR KVNC 010055Z AUTO 09008KT 10SM CLR 25/14 A3016 RMK AO2 T02530143 $,0,8.0,0,16090.0,0,0,0,
2026-04-01 00:35:00,METAR KVNC 010035Z AUTO 09011KT 10SM SCT060 26/14 A3015 RMK AO2 T02580144 $,0,11.0,0,16090.0,0,0,0,
2026-04-01 00:15:00,METAR KVNC 010015Z AUTO 00000KT 10SM OVC060 25/18 A3015 RMK AO2 T02510181 $,0,0.0,0,16090.0,0,0,0,
2026-03-31 23:55:00,METAR KVNC 312355Z AUTO 33006KT 10SM BKN060 25/18 A3014 RMK AO2 T02480183 10300 20248 53001 $,0,6.0,0,16090.0,0,0,0,
2026-03-31 23:35:00,METAR KVNC 312335Z AUTO 32007KT 10SM BKN065 25/18 A3014 RMK AO2 T02490183 $,0,7.0,0,16090.0,0,0,0,
2026-03-31 23:15:00,METAR KVNC 312315Z AUTO 33007KT 10SM BKN070 25/18 A3013 RMK AO2 T02520184 $,0,7.0,0,16090.0,0,0,0,
2026-03-31 22:55:00,METAR KVNC 312255Z AUTO 31008KT 10SM SCT065 BKN080 25/18 A3013 RMK AO2 T02530184 $,0,8.0,0,16090.0,0,0,0,
2026-03-31 22:35:00,METAR KVNC 312235Z AUTO 32009KT 10SM FEW060 SCT080 26/19 A3013 RMK AO2 T02560188 $,0,9.0,0,16090.0,0,0,0,
2026-03-31 22:15:00,METAR KVNC 312215Z AUTO 32007KT 10SM FEW060 SCT085 26/19 A3012 RMK AO2 T02560190 $,0,7.0,0,16090.0,0,0,0,
2026-03-31 21:55:00,METAR KVNC 312155Z AUTO 32009KT 10SM FEW065 SCT090 26/19 A3013 RMK AO2 T02550194 $,0,9.0,0,16090.0,0,0,0,
2026-03-31 21:35:00,METAR KVNC 312135Z AUTO 32010KT 10SM FEW070 SCT090 26/19 A3013 RMK AO2 T02620191 $,0,10.0,0,16090.0,0,0,0,
2026-03-31 21:15:00,METAR KVNC 312115Z AUTO 31009KT 10SM FEW065 26/20 A3013 RMK AO2 T02600199 $,0,9.0,0,16090.0,0,0,0,
2026-03-31 20:55:00,METAR KVNC 312055Z AUTO 29008KT 10SM FEW060 SCT085 25/20 A3014 RMK AO2 T02500198 57023 $,0,8.0,0,16090.0,0,0,0,
2026-03-31 20:35:00,METAR KVNC 312035Z AUTO 31009KT 10SM BKN060 BKN075 27/20 A3014 RMK AO2 T02660201 $,0,9.0,0,16090.0,0,0,0,
2026-03-31 20:15:00,METAR KVNC 312015Z AUTO 27008KT 10SM BKN060 BKN070 26/20 A3015 RMK AO2 T02550198 $,0,8.0,0,16090.0,0,0,0,
2026-03-31 19:55:00,METAR KVNC 311955Z AUTO 30008KT 10SM SCT055 26/20 A3016 RMK AO2 T02640198 $,0,8.0,0,16090.0,0,0,0,
2026-03-31 19:35:00,METAR KVNC 311935Z AUTO 25007KT 10SM SCT060 SCT080 27/20 A3016 RMK AO2 T02680196 $,0,7.0,0,16090.0,0,0,0,
2026-03-31 19:15:00,METAR KVNC 311915Z AUTO 24005KT 10SM SCT055 BKN075 26/20 A3017 RMK AO2 T02560195 $,0,5.0,0,16090.0,0,0,0,
2026-03-31 18:55:00,METAR KVNC 311855Z AUTO 05011G14KT 10SM SCT055 29/16 A3018 RMK AO2 T02950163 $,0,11.0,1,16090.0,0,0,0,
2026-03-31 18:35:00,METAR KVNC 311835Z AUTO 08010G16KT 10SM FEW055 30/16 A3019 RMK AO2 T02970161 $,0,10.0,1,16090.0,0,0,0,
2026-03-31 18:15:00,METAR KVNC 311815Z AUTO 07007KT 10SM SCT050 29/17 A3020 RMK AO2 T02900167 $,0,7.0,0,16090.0,0,0,0,
2026-03-31 17:55:00,METAR KVNC 311755Z AUTO 09007KT 10SM SCT045 BKN060 BKN350 28/17 A3021 RMK AO2 T02820172 10288 20190 58013 $,0,7.0,0,16090.0,0,0,0,
2026-03-31 17:35:00,METAR KVNC 311735Z AUTO 10009KT 10SM SCT044 BKN060 28/18 A3021 RMK AO2 T02800175 $,0,9.0,0,16090.0,0,0,0,
2026-03-31 17:15:00,METAR KVNC 311715Z AUTO 07008KT 10SM SCT042 BKN060 27/17 A3022 RMK AO2 T02740173 $,0,8.0,0,16090.0,0,0,0,
2026-03-31 16:55:00,METAR KVNC 311655Z AUTO 08011KT 10SM BKN039 27/18 A3023 RMK AO2 T02740180 $,0,11.0,0,16090.0,0,0,0,
2026-03-31 16:35:00,METAR KVNC 311635Z AUTO 08011KT 10SM FEW035 27/18 A3024 RMK AO2 T02740180 $,0,11.0,0,16090.0,0,0,0,
2026-03-31 16:15:00,METAR KVNC 311615Z AUTO 08011KT 10SM SCT034 27/18 A3024 RMK AO2 T02680184 $,0,11.0,0,16090.0,0,0,0,
2026-03-31 15:55:00,METAR KVNC 311555Z AUTO 08011KT 10SM SCT031 27/19 A3025 RMK AO2 T02670187 $,0,11.0,0,16090.0,0,0,0,
2026-03-31 15:35:00,METAR KVNC 311535Z AUTO 12007KT 10SM SCT030 27/19 A3025 RMK AO2 T02650186 $,0,7.0,0,16090.0,0,0,0,
2026-03-31 15:15:00,METAR KVNC 311515Z AUTO 10011KT 10SM SCT028 26/19 A3025 RMK AO2 T02620188 $,0,11.0,0,16090.0,0,0,0,
2026-03-31 14:55:00,METAR KVNC 311455Z AUTO 11009KT 10SM FEW026 26/19 A3024 RMK AO2 T02560191 51003 $,0,9.0,0,16090.0,0,0,0,
2026-03-31 14:35:00,METAR KVNC 311435Z AUTO 11010KT 10SM FEW024 25/19 A3024 RMK AO2 T02520193 $,0,10.0,0,16090.0,0,0,0,
2026-03-31 14:15:00,METAR KVNC 311415Z AUTO 10010KT 10SM CLR 25/20 A3024 RMK AO2 T02480196 $,0,10.0,0,16090.0,0,0,0,
2026-03-31 13:55:00,METAR KVNC 311355Z AUTO 09012KT 10SM CLR 24/19 A3024 RMK AO2 T02390194 $,0,12.0,0,16090.0,0,0,0,
2026-03-31 13:35:00,METAR KVNC 311335Z AUTO 10008KT 10SM CLR 23/19 A3024 RMK AO2 T02310193 $,0,8.0,0,16090.0,0,0,0,
2026-03-31 13:15:00,METAR KVNC 311315Z AUTO 10009KT 10SM CLR 22/19 A3025 RMK AO2 T02210193 $,0,9.0,0,16090.0,0,0,0,
2026-03-31 12:55:00,METAR KVNC 311255Z AUTO 08007KT 9SM CLR 21/19 A3025 RMK AO2 T02070189 $,0,7.0,0,14481.0,0,0,0,
2026-03-31 12:35:00,METAR KVNC 311235Z AUTO 08007KT 10SM CLR 20/19 A3024 RMK AO2 T02010187 $,0,7.0,0,16090.0,0,0,0,
2026-03-31 12:15:00,METAR KVNC 311215Z AUTO 07006KT 9SM CLR 19/18 A3024 RMK AO2 T01940184 $,0,6.0,0,14481.0,0,0,0,
2026-03-31 11:55:00,METAR KVNC 311155Z AUTO 07006KT 9SM CLR 19/18 A3024 RMK AO2 70011 T01880181 10206 20187 53013 $,0,6.0,0,14481.0,0,0,0,
2026-03-31 11:35:00,METAR KVNC 311135Z AUTO 07007KT 10SM CLR 19/18 A3023 RMK AO2 T01880181 $,0,7.0,0,16090.0,0,0,0,
2026-03-31 11:15:00,METAR KVNC 311115Z AUTO 08007KT 9SM CLR 19/18 A3022 RMK AO2 T01890181 $,0,7.0,0,14481.0,0,0,0,
2026-03-31 10:55:00,METAR KVNC 311055Z AUTO 08007KT 10SM CLR 19/18 A3022 RMK AO2 T01900182 $,0,7.0,0,16090.0,0,0,0,
2026-03-31 10:35:00,METAR KVNC 311035Z AUTO 07008KT 10SM CLR 19/18 A3021 RMK AO2 T01900182 $,0,8.0,0,16090.0,0,0,0,
2026-03-31 10:15:00,METAR KVNC 311015Z AUTO 07008KT 10SM CLR 19/18 A3021 RMK AO2 T01900182 $,0,8.0,0,16090.0,0,0,0,
2026-03-31 09:55:00,METAR KVNC 310955Z AUTO 07007KT 10SM CLR 19/18 A3020 RMK AO2 T01900182 $,0,7.0,0,16090.0,0,0,0,
2026-03-31 09:35:00,METAR KVNC 310935Z AUTO 07006KT 10SM CLR 19/18 A3020 RMK AO2 T01900182 $,0,6.0,0,16090.0,0,0,0,
2026-03-31 09:15:00,METAR KVNC 310915Z AUTO 07007KT 10SM CLR 19/18 A3020 RMK AO2 T01910183 $,0,7.0,0,16090.0,0,0,0,
2026-03-31 08:55:00,METAR KVNC 310855Z AUTO 06006KT 10SM CLR 19/18 A3020 RMK AO2 T01920184 55006 $,0,6.0,0,16090.0,0,0,0,
2026-03-31 08:35:00,METAR KVNC 310835Z AUTO 07005KT 10SM CLR 19/18 A3019 RMK AO2 T01940184 $,0,5.0,0,16090.0,0,0,0,
2026-03-31 08:15:00,METAR KVNC 310815Z AUTO 07006KT 10SM CLR 20/19 A3019 RMK AO2 T01980186 $,0,6.0,0,16090.0,0,0,0,
2026-03-31 07:55:00,METAR KVNC 310755Z AUTO 08006KT 10SM CLR 20/19 A3019 RMK AO2 T02000187 $,0,6.0,0,16090.0,0,0,0,
2026-03-31 07:35:00,METAR KVNC 310735Z AUTO 09006KT 10SM CLR 20/19 A3019 RMK AO2 T02010187 $,0,6.0,0,16090.0,0,0,0,
2026-03-31 07:15:00,METAR KVNC 310715Z AUTO 08008KT 9SM CLR 20/19 A3020 RMK AO2 T02040189 $,0,8.0,0,14481.0,0,0,0,
2026-03-31 06:55:00,METAR KVNC 310655Z AUTO 09007KT 10SM CLR 20/19 A3020 RMK AO2 T02040187 $,0,7.0,0,16090.0,0,0,0,
2026-03-31 06:35:00,METAR KVNC 310635Z AUTO 09007KT 9SM CLR 21/19 A3021 RMK AO2 T02050188 $,0,7.0,0,14481.0,0,0,0,
2026-03-31 06:15:00,METAR KVNC 310615Z AUTO 08008KT 9SM CLR 21/19 A3021 RMK AO2 T02050188 $,0,8.0,0,14481.0,0,0,0,
2026-03-31 05:55:00,METAR KVNC 310555Z AUTO 06008KT 9SM CLR 21/19 A3021 RMK AO2 T02070188 10238 20207 58008 $,0,8.0,0,14481.0,0,0,0,
2026-03-31 05:35:00,METAR KVNC 310535Z AUTO 08008KT 10SM CLR 21/19 A3022 RMK AO2 T02090188 $,0,8.0,0,16090.0,0,0,0,
2026-03-31 05:15:00,METAR KVNC 310515Z AUTO 09008KT 9SM CLR 21/19 A3022 RMK AO2 T02100189 $,0,8.0,0,14481.0,0,0,0,
2026-03-31 04:55:00,METAR KVNC 310455Z AUTO 08007KT 10SM CLR 21/19 A3023 RMK AO2 T02090188 402970189 $,0,7.0,0,16090.0,0,0,0,
2026-03-31 04:35:00,METAR KVNC 310435Z AUTO 08008KT 10SM CLR 21/19 A3023 RMK AO2 T02100188 $,0,8.0,0,16090.0,0,0,0,
2026-03-31 04:15:00,METAR KVNC 310415Z AUTO 07008KT 10SM FEW150 21/19 A3023 RMK AO2 T02120189 $,0,8.0,0,16090.0,0,0,0,
2026-03-31 03:55:00,METAR KVNC 310355Z AUTO 06007KT 10SM OVC140 22/19 A3023 RMK AO2 T02170191 $,0,7.0,0,16090.0,0,0,0,
2026-03-31 03:35:00,METAR KVNC 310335Z AUTO 07007KT 10SM OVC130 22/19 A3024 RMK AO2 T02200191 $,0,7.0,0,16090.0,0,0,0,
2026-03-31 03:15:00,METAR KVNC 310315Z AUTO 07008KT 10SM OVC130 22/19 A3024 RMK AO2 T02230193 $,0,8.0,0,16090.0,0,0,0,
2026-03-31 02:55:00,METAR KVNC 310255Z AUTO 08007KT 10SM OVC130 23/19 A3024 RMK AO2 T02250190 51014 $,0,7.0,0,16090.0,0,0,0,
2026-03-31 02:35:00,METAR KVNC 310235Z AUTO 08008KT 10SM OVC130 23/19 A3023 RMK AO2 T02260191 $,0,8.0,0,16090.0,0,0,0,
2026-03-31 02:15:00,METAR KVNC 310215Z AUTO 08006KT 10SM OVC130 23/19 A3023 RMK AO2 T02270194 $,0,6.0,0,16090.0,0,0,0,
2026-03-31 01:55:00,METAR KVNC 310155Z AUTO 15003KT 10SM FEW095 BKN130 22/20 A3023 RMK AO2 T02210199 $,0,3.0,0,16090.0,0,0,0,
2026-03-31 01:35:00,METAR KVNC 310135Z AUTO 09003KT 10SM FEW095 SCT130 22/20 A3023 RMK AO2 T02220198 $,0,3.0,0,16090.0,0,0,0,
2026-03-31 01:15:00,METAR KVNC 310115Z AUTO 12003KT 10SM FEW040 SCT140 23/20 A3023 RMK AO2 T02260197 $,0,3.0,0,16090.0,0,0,0,
2026-03-31 00:55:00,METAR KVNC 310055Z AUTO 00000KT 10SM FEW039 BKN055 BKN070 OVC140 23/19 A3023 RMK AO2 T02320186 $,0,0.0,0,16090.0,0,0,0,
2026-03-31 00:35:00,METAR KVNC 310035Z AUTO 11003KT 10SM BKN060 BKN130 23/19 A3022 RMK AO2 T02340185 $,0,3.0,0,16090.0,0,0,0,
2026-03-31 00:15:00,METAR KVNC 310015Z AUTO 12006KT 10SM SCT050 SCT065 BKN130 23/19 A3021 RMK AO2 T02340186 $,0,6.0,0,16090.0,0,0,0,
2026-03-30 23:55:00,METAR KVNC 302355Z AUTO 09007KT 9SM SCT140 24/19 A3020 RMK AO2 P0001 60011 T02390187 10297 20227 53009 $,0,7.0,0,14481.0,0,0,0,
2026-03-30 23:35:00,METAR KVNC 302335Z AUTO 07014G18KT 9SM FEW110 OVC140 24/19 A3019 RMK AO2 P0001 T02420186 $,0,14.0,1,14481.0,0,0,0,
2026-03-30 23:15:00,METAR KVNC 302315Z AUTO 08010KT 9SM FEW070 SCT110 BKN140 24/19 A3019 RMK AO2 P0001 T02420193 $,0,10.0,0,14481.0,0,0,0,
2026-03-30 22:55:00,METAR KVNC 302255Z AUTO 07011KT 9SM SCT070 BKN090 24/20 A3018 RMK AO2 WSHFT 2151 RAB2153E2239 P0010 T02440204 $,0,11.0,0,14481.0,0,0,0,RA
2026-03-30 22:35:00,METAR KVNC 302235Z AUTO 08006KT 6SM -RA FEW045 OVC085 24/20 A3018 RMK AO2 WSHFT 2151 RAB2153 P0010 T02360203 $,0,6.0,0,9654.0,0,0,0,"-RA,RA"
2026-03-30 22:15:00,METAR KVNC 302215Z AUTO 14008KT 5SM -RA SCT044 OVC055 23/20 A3018 RMK AO2 WSHFT 2151 RAB2153 P0010 T02280197 $,0,8.0,0,8045.0,0,0,0,"-RA,RA"
2026-03-30 21:55:00,METAR KVNC 302155Z AUTO 09014KT 9SM BKN042 28/18 A3018 RMK AO2 WSHFT 2055 T02780180 $,0,14.0,0,14481.0,0,0,0,
2026-03-30 21:35:00,METAR KVNC 302135Z AUTO 12008KT 9SM FEW055 29/18 A3017 RMK AO2 WSHFT 2055 T02910182 $,0,8.0,0,14481.0,0,0,0,
2026-03-30 21:15:00,METAR KVNC 302115Z AUTO 10007KT 9SM FEW080 SCT100 28/18 A3017 RMK AO2 WSHFT 2055 T02800178 $,0,7.0,0,14481.0,0,0,0,
2026-03-30 20:55:00,METAR KVNC 302055Z AUTO 11011KT 9SM SCT048 SCT080 29/19 A3017 RMK AO2 T02910186 56024 $,0,11.0,0,14481.0,0,0,0,
2026-03-30 20:35:00,METAR KVNC 302035Z AUTO 11009KT 10SM SCT047 30/18 A3017 RMK AO2 T02950175 $,0,9.0,0,16090.0,0,0,0,
2026-03-30 20:15:00,METAR KVNC 302015Z AUTO 09009KT 10SM FEW046 29/18 A3018 RMK AO2 T02880178 $,0,9.0,0,16090.0,0,0,0,
2026-03-30 19:55:00,METAR KVNC 301955Z AUTO 08010KT 10SM FEW045 SCT100 29/17 A3019 RMK AO2 T02850170 $,0,10.0,0,16090.0,0,0,0,
2026-03-30 19:35:00,METAR KVNC 301935Z AUTO 12012KT 9SM FEW045 SCT080 BKN100 28/18 A3020 RMK AO2 T02830176 $,0,12.0,0,14481.0,0,0,0,
2026-03-30 19:15:00,METAR KVNC 301915Z AUTO 10012KT 10SM FEW070 SCT080 SCT100 29/18 A3020 RMK AO2 T02870178 $,0,12.0,0,16090.0,0,0,0,
2026-03-30 18:55:00,METAR KVNC 301855Z AUTO 10009KT 10SM FEW070 29/18 A3021 RMK AO2 T02870178 $,0,9.0,0,16090.0,0,0,0,
2026-03-30 18:35:00,METAR KVNC 301835Z AUTO 11010KT 10SM FEW041 SCT060 BKN080 28/18 A3023 RMK AO2 T02820178 $,0,10.0,0,16090.0,0,0,0,
2026-03-30 18:15:00,METAR KVNC 301815Z AUTO 10010KT 10SM BKN060 BKN075 29/18 A3023 RMK AO2 T02890181 $,0,10.0,0,16090.0,0,0,0,
2026-03-30 17:55:00,METAR KVNC 301755Z AUTO 12011KT 10SM FEW044 BKN060 OVC070 28/18 A3024 RMK AO2 T02800180 10280 20191 58010 $,0,11.0,0,16090.0,0,0,0,
2026-03-30 17:35:00,METAR KVNC 301735Z AUTO 10012KT 10SM FEW039 OVC055 27/18 A3025 RMK AO2 T02750179 $,0,12.0,0,16090.0,0,0,0,
2026-03-30 17:15:00,METAR KVNC 301715Z AUTO 09012KT 10SM SCT039 OVC050 27/18 A3025 RMK AO2 T02730182 $,0,12.0,0,16090.0,0,0,0,
2026-03-30 16:55:00,METAR KVNC 301655Z AUTO 12010KT 10SM BKN039 OVC046 27/18 A3025 RMK AO2 T02690183 $,0,10.0,0,16090.0,0,0,0,
2026-03-30 16:35:00,METAR KVNC 301635Z AUTO 09010KT 10SM SCT036 OVC045 27/18 A3026 RMK AO2 T02710181 $,0,10.0,0,16090.0,0,0,0,
2026-03-30 16:15:00,METAR KVNC 301615Z AUTO 11011KT 10SM BKN036 BKN046 27/18 A3026 RMK AO2 T02720183 $,0,11.0,0,16090.0,0,0,0,
2026-03-30 15:55:00,METAR KVNC 301555Z AUTO 08013G19KT 10SM BKN033 27/18 A3026 RMK AO2 T02660185 $,0,13.0,1,16090.0,0,0,0,
2026-03-30 15:35:00,METAR KVNC 301535Z AUTO 09012KT 10SM FEW033 26/18 A3027 RMK AO2 T02610185 $,0,12.0,0,16090.0,0,0,0,
2026-03-30 15:15:00,METAR KVNC 301515Z AUTO 11011KT 10SM SCT027 SCT034 26/19 A3027 RMK AO2 T02630188 $,0,11.0,0,16090.0,0,0,0,
2026-03-30 14:55:00,METAR KVNC 301455Z AUTO 08014KT 10SM SCT026 25/19 A3027 RMK AO2 T02520186 51011 $,0,14.0,0,16090.0,0,0,0,
2026-03-30 14:35:00,METAR KVNC 301435Z AUTO 10010KT 10SM FEW025 25/19 A3027 RMK AO2 T02520188 $,0,10.0,0,16090.0,0,0,0,
2026-03-30 14:15:00,METAR KVNC 301415Z AUTO 11009G17KT 10SM FEW024 24/19 A3026 RMK AO2 T02440188 $,0,9.0,1,16090.0,0,0,0,
2026-03-30 13:55:00,METAR KVNC 301355Z AUTO 09011KT 10SM CLR 23/19 A3026 RMK AO2 T02330187 $,0,11.0,0,16090.0,0,0,0,
2026-03-30 13:35:00,METAR KVNC 301335Z AUTO 09010KT 9SM CLR 23/19 A3026 RMK AO2 T02260186 $,0,10.0,0,14481.0,0,0,0,
2026-03-30 13:15:00,METAR KVNC 301315Z AUTO 09009KT 9SM CLR 22/18 A3026 RMK AO2 T02170185 $,0,9.0,0,14481.0,0,0,0,
2026-03-30 12:55:00,METAR KVNC 301255Z AUTO 08007KT 10SM FEW017 21/18 A3025 RMK AO2 T02060182 $,0,7.0,0,16090.0,0,0,0,
2026-03-30 12:35:00,METAR KVNC 301235Z AUTO 08008KT 9SM SCT022 20/18 A3024 RMK AO2 T02010180 $,0,8.0,0,14481.0,0,0,0,
2026-03-30 12:15:00,METAR KVNC 301215Z AUTO 06008KT 9SM BKN020 19/18 A3024 RMK AO2 CIG 020V024 T01930178 $,0,8.0,0,14481.0,0,0,0,
2026-03-30 11:55:00,METAR KVNC 301155Z AUTO 07005KT 9SM CLR 19/18 A3024 RMK AO2 70010 T01890176 10201 20189 53008 $,0,5.0,0,14481.0,0,0,0,
2026-03-30 11:35:00,METAR KVNC 301135Z AUTO 08007KT 9SM CLR 19/18 A3023 RMK AO2 T01890176 $,0,7.0,0,14481.0,0,0,0,
2026-03-30 11:15:00,METAR KVNC 301115Z AUTO 06008KT 10SM CLR 19/18 A3022 RMK AO2 T01890175 $,0,8.0,0,16090.0,0,0,0,
2026-03-30 10:55:00,METAR KVNC 301055Z AUTO 06009KT 10SM CLR 19/18 A3022 RMK AO2 T01900176 $,0,9.0,0,16090.0,0,0,0,
2026-03-30 10:35:00,METAR KVNC 301035Z AUTO 06008KT 10SM SCT055 19/18 A3022 RMK AO2 T01920176 $,0,8.0,0,16090.0,0,0,0,
2026-03-30 10:15:00,METAR KVNC 301015Z AUTO 06008KT 10SM OVC055 19/18 A3022 RMK AO2 T01950177 $,0,8.0,0,16090.0,0,0,0,
2026-03-30 09:55:00,METAR KVNC 300955Z AUTO 05008KT 10SM OVC055 19/18 A3021 RMK AO2 T01940177 $,0,8.0,0,16090.0,0,0,0,
2026-03-30 09:35:00,METAR KVNC 300935Z AUTO 05007KT 10SM OVC055 19/18 A3021 RMK AO2 T01940177 $,0,7.0,0,16090.0,0,0,0,
2026-03-30 09:15:00,METAR KVNC 300915Z AUTO 05007KT 10SM OVC055 19/18 A3022 RMK AO2 T01940177 $,0,7.0,0,16090.0,0,0,0,
2026-03-30 08:55:00,METAR KVNC 300855Z AUTO 05007KT 10SM OVC055 19/18 A3021 RMK AO2 T01940177 57008 $,0,7.0,0,16090.0,0,0,0,
2026-03-30 08:35:00,METAR KVNC 300835Z AUTO 05006KT 10SM OVC055 19/18 A3022 RMK AO2 T01930177 $,0,6.0,0,16090.0,0,0,0,
2026-03-30 08:15:00,METAR KVNC 300815Z AUTO 05005KT 10SM FEW042 OVC050 20/18 A3021 RMK AO2 T01970178 $,0,5.0,0,16090.0,0,0,0,
2026-03-30 07:55:00,METAR KVNC 300755Z AUTO 05006KT 10SM BKN046 OVC060 20/18 A3022 RMK AO2 T01990179 $,0,6.0,0,16090.0,0,0,0,
2026-03-30 07:35:00,METAR KVNC 300735Z AUTO 06007KT 10SM SCT036 OVC049 20/18 A3022 RMK AO2 T02000179 $,0,7.0,0,16090.0,0,0,0,
2026-03-30 07:15:00,METAR KVNC 300715Z AUTO 07009KT 10SM SCT035 BKN046 OVC060 20/18 A3023 RMK AO2 T02010178 $,0,9.0,0,16090.0,0,0,0,
2026-03-30 06:55:00,METAR KVNC 300655Z AUTO 07008KT 10SM OVC055 20/18 A3023 RMK AO2 T02000177 $,0,8.0,0,16090.0,0,0,0,
2026-03-30 06:35:00,METAR KVNC 300635Z AUTO 07009KT 10SM BKN060 20/18 A3023 RMK AO2 T01990178 $,0,9.0,0,16090.0,0,0,0,
2026-03-30 06:15:00,METAR KVNC 300615Z AUTO 07007KT 10SM BKN060 20/18 A3024 RMK AO2 T01980178 $,0,7.0,0,16090.0,0,0,0,
2026-03-30 05:55:00,METAR KVNC 300555Z AUTO 05006KT 10SM FEW060 20/18 A3024 RMK AO2 T02000177 10238 20200 58008 $,0,6.0,0,16090.0,0,0,0,
2026-03-30 05:35:00,METAR KVNC 300535Z AUTO 06007KT 10SM CLR 20/18 A3024 RMK AO2 T02040177 $,0,7.0,0,16090.0,0,0,0,
2026-03-30 05:15:00,METAR KVNC 300515Z AUTO 07009KT 10SM CLR 21/18 A3025 RMK AO2 T02080178 $,0,9.0,0,16090.0,0,0,0,
2026-03-30 04:55:00,METAR KVNC 300455Z AUTO 08008KT 10SM CLR 21/18 A3025 RMK AO2 T02090178 402700201 $,0,8.0,0,16090.0,0,0,0,
2026-03-30 04:35:00,METAR KVNC 300435Z AUTO 08008KT 10SM FEW070 21/18 A3026 RMK AO2 T02120179 $,0,8.0,0,16090.0,0,0,0,
2026-03-30 04:15:00,METAR KVNC 300415Z AUTO 08008KT 10SM BKN070 21/18 A3026 RMK AO2 T02130180 $,0,8.0,0,16090.0,0,0,0,
2026-03-30 03:55:00,METAR KVNC 300355Z AUTO 08009KT 10SM SCT065 21/18 A3026 RMK AO2 T02140180 $,0,9.0,0,16090.0,0,0,0,
2026-03-30 03:35:00,METAR KVNC 300335Z AUTO 08008KT 10SM BKN065 22/18 A3026 RMK AO2 T02160180 $,0,8.0,0,16090.0,0,0,0,
2026-03-30 03:15:00,METAR KVNC 300315Z AUTO 08009KT 10SM BKN070 22/18 A3026 RMK AO2 T02180181 $,0,9.0,0,16090.0,0,0,0,
2026-03-30 02:55:00,METAR KVNC 300255Z AUTO 09009KT 10SM OVC070 22/18 A3026 RMK AO2 T02210179 51015 $,0,9.0,0,16090.0,0,0,0,
2026-03-30 02:35:00,METAR KVNC 300235Z AUTO 09011KT 10SM OVC070 22/18 A3026 RMK AO2 T02200178 $,0,11.0,0,16090.0,0,0,0,
2026-03-30 02:15:00,METAR KVNC 300215Z AUTO 09009KT 9SM FEW026 OVC070 22/18 A3026 RMK AO2 T02230180 $,0,9.0,0,14481.0,0,0,0,
2026-03-30 01:55:00,METAR KVNC 300155Z AUTO 09010KT 10SM FEW025 SCT032 OVC070 23/18 A3026 RMK AO2 T02250181 $,0,10.0,0,16090.0,0,0,0,
2026-03-30 01:35:00,METAR KVNC 300135Z AUTO 09011KT 10SM SCT026 BKN036 BKN045 OVC080 23/18 A3025 RMK AO2 T02280181 $,0,11.0,0,16090.0,0,0,0,
2026-03-30 01:15:00,METAR KVNC 300115Z AUTO 09008KT 10SM FEW030 SCT038 BKN047 OVC080 23/18 A3024 RMK AO2 T02330175 $,0,8.0,0,16090.0,0,0,0,
2026-03-30 00:55:00,METAR KVNC 300055Z AUTO 09007KT 10SM SCT028 BKN035 OVC046 23/18 A3023 RMK AO2 T02350178 $,0,7.0,0,16090.0,0,0,0,
2026-03-30 00:35:00,METAR KVNC 300035Z AUTO 10005KT 10SM BKN036 OVC047 24/18 A3023 RMK AO2 T02360179 $,0,5.0,0,16090.0,0,0,0,
2026-03-30 00:15:00,METAR KVNC 300015Z AUTO 09008KT 10SM BKN038 OVC048 24/19 A3022 RMK AO2 T02360187 $,0,8.0,0,16090.0,0,0,0,
2026-03-29 23:55:00,METAR KVNC 292355Z AUTO 10007KT 9SM BKN042 BKN095 24/19 A3022 RMK AO2 60010 T02380187 10261 20208 53004 $,0,7.0,0,14481.0,0,0,0,
2026-03-29 23:35:00,METAR KVNC 292335Z AUTO 11006KT 9SM SCT042 BKN095 BKN130 24/18 A3021 RMK AO2 T02430181 $,0,6.0,0,14481.0,0,0,0,
2026-03-29 23:15:00,METAR KVNC 292315Z AUTO 08010KT 9SM FEW044 OVC130 25/18 A3021 RMK AO2 T02470177 $,0,10.0,0,14481.0,0,0,0,
2026-03-29 22:55:00,METAR KVNC 292255Z AUTO 07009KT 9SM BKN047 BKN055 BKN070 OVC120 25/18 A3021 RMK AO2 T02490177 $,0,9.0,0,14481.0,0,0,0,
2026-03-29 22:35:00,METAR KVNC 292235Z AUTO 07011KT 9SM OVC049 25/18 A3021 RMK AO2 T02510178 $,0,11.0,0,14481.0,0,0,0,
2026-03-29 22:15:00,METAR KVNC 292215Z AUTO 07011KT 10SM SCT047 OVC100 25/18 A3020 RMK AO2 T02540181 $,0,11.0,0,16090.0,0,0,0,
2026-03-29 21:55:00,METAR KVNC 292155Z AUTO 08009KT 10SM OVC100 25/18 A3020 RMK AO2 T02550185 $,0,9.0,0,16090.0,0,0,0,
2026-03-29 21:35:00,METAR KVNC 292135Z AUTO 08007KT 9SM OVC095 26/19 A3020 RMK AO2 T02560186 $,0,7.0,0,14481.0,0,0,0,
2026-03-29 21:15:00,METAR KVNC 292115Z AUTO 09008KT 9SM SCT085 BKN110 26/19 A3020 RMK AO2 T02570186 $,0,8.0,0,14481.0,0,0,0,
2026-03-29 20:55:00,METAR KVNC 292055Z AUTO 10008KT 9SM FEW080 BKN100 25/20 A3021 RMK AO2 RAB2001E2005 P0000 60010 T02530198 58014 $,0,8.0,0,14481.0,0,0,0,RA
2026-03-29 20:35:00,METAR KVNC 292035Z AUTO 09007KT 10SM FEW070 BKN100 25/20 A3021 RMK AO2 RAB2001E2005 P0000 T02460200 $,0,7.0,0,16090.0,0,0,0,RA
2026-03-29 20:15:00,METAR KVNC 292015Z AUTO 06007KT 10SM FEW050 BKN070 BKN090 OVC110 24/20 A3021 RMK AO2 RAB2001E2005 P0000 T02380201 $,0,7.0,0,16090.0,0,0,0,RA
2026-03-29 19:55:00,METAR KVNC 291955Z AUTO 09009KT 10SM FEW043 BKN060 OVC100 23/21 A3023 RMK AO2 RAE1923 P0002 T02330206 $,0,9.0,0,16090.0,0,0,0,RA
2026-03-29 19:35:00,METAR KVNC 291935Z AUTO 11006KT 10SM FEW043 SCT050 BKN085 OVC100 23/21 A3023 RMK AO2 RAE1923 P0002 T02280209 $,0,6.0,0,16090.0,0,0,0,RA
2026-03-29 19:15:00,METAR KVNC 291915Z AUTO 12003KT 7SM -RA BKN065 OVC085 22/20 A3023 RMK AO2 P0002 T02180202 $,0,3.0,0,11263.0,0,0,0,-RA
2026-03-29 18:55:00,METAR KVNC 291855Z AUTO 11007KT 1 3/4SM RA BR SCT037 OVC049 21/19 A3024 RMK AO2 RAB1751E1812B1835 P0008 T02080195 $,0,7.0,0,2816.0,0,0,1,"BR,RA"
2026-03-29 18:35:00,METAR KVNC 291835Z AUTO 12016G23KT 9SM -RA BKN036 BKN047 BKN095 24/19 A3023 RMK AO2 RAB1751E1812B1835 P0000 T02450194 $,0,16.0,1,14481.0,0,0,0,"-RA,RA"
2026-03-29 18:15:00,METAR KVNC 291815Z AUTO 09008KT 10SM FEW037 BKN070 OVC095 25/21 A3023 RMK AO2 RAB1751E1812 P0000 T02530209 $,0,8.0,0,16090.0,0,0,0,RA
2026-03-29 17:55:00,METAR KVNC 291755Z AUTO 11009KT 9SM FEW036 SCT055 BKN070 BKN100 26/19 A3025 RMK AO2 60000 T02550190 10270 20202 58012 $,0,9.0,0,14481.0,0,0,0,
2026-03-29 17:35:00,METAR KVNC 291735Z AUTO 09012G17KT 10SM FEW095 SCT110 SCT280 27/18 A3025 RMK AO2 T02690184 $,0,12.0,1,16090.0,0,0,0,
2026-03-29 17:15:00,METAR KVNC 291715Z AUTO 09013G19KT 10SM FEW028 SCT040 BKN120 26/19 A3026 RMK AO2 T02580185 $,0,13.0,1,16090.0,0,0,0,
2026-03-29 16:55:00,METAR KVNC 291655Z AUTO 08013KT 10SM BKN028 BKN085 26/19 A3026 RMK AO2 CIG 026V032 T02580187 $,0,13.0,0,16090.0,0,0,0,
2026-03-29 16:35:00,METAR KVNC 291635Z AUTO 07015KT 10SM SCT026 OVC085 26/19 A3027 RMK AO2 T02570186 $,0,15.0,0,16090.0,0,0,0,
2026-03-29 16:15:00,METAR KVNC 291615Z AUTO 07012KT 10SM FEW022 OVC085 25/19 A3027 RMK AO2 T02510191 $,0,12.0,0,16090.0,0,0,0,
2026-03-29 15:35:00,METAR KVNC 291535Z AUTO 07017KT 10SM FEW020 OVC080 24/19 A3028 RMK AO2 T02390190 $,0,17.0,0,16090.0,0,0,0,
2026-03-29 14:55:00,METAR KVNC 291455Z AUTO 07014KT 10SM FEW013 OVC075 22/19 A3028 RMK AO2 60000 T02240192 51019 $,0,14.0,0,16090.0,0,0,0,
2026-03-29 14:35:00,METAR KVNC 291435Z AUTO 07014KT 10SM BKN070 OVC085 22/19 A3028 RMK AO2 T02200191 $,0,14.0,0,16090.0,0,0,0,
2026-03-29 14:15:00,METAR KVNC 291415Z AUTO 08015G20KT 10SM OVC065 22/19 A3028 RMK AO2 T02170191 $,0,15.0,1,16090.0,0,0,0,
2026-03-29 13:55:00,METAR KVNC 291355Z AUTO 07015KT 10SM OVC065 21/19 A3027 RMK AO2 RAB1338E1348 P0000 T02090188 $,0,15.0,0,16090.0,0,0,0,RA
2026-03-29 13:35:00,METAR KVNC 291335Z AUTO 07012KT 10SM FEW043 OVC070 21/19 A3026 RMK AO2 T02080189 $,0,12.0,0,16090.0,0,0,0,
2026-03-29 13:15:00,METAR KVNC 291315Z AUTO 07018G25KT 10SM SCT014 BKN070 OVC085 20/19 A3025 RMK AO2 T02040189 $,0,18.0,1,16090.0,0,0,0,
2026-03-29 12:55:00,METAR KVNC 291255Z AUTO 07016KT 10SM FEW009 SCT017 OVC080 20/19 A3024 RMK AO2 FEW V SCT T02040189 $,0,16.0,0,16090.0,0,0,0,
2026-03-29 12:35:00,METAR KVNC 291235Z AUTO 07012KT 10SM SCT009 BKN027 OVC090 20/19 A3024 RMK AO2 T02020190 $,0,12.0,0,16090.0,0,0,0,
2026-03-29 12:15:00,METAR KVNC 291215Z AUTO 07012KT 10SM SCT040 OVC095 20/19 A3024 RMK AO2 T02030189 $,0,12.0,0,16090.0,0,0,0,
2026-03-29 11:55:00,METAR KVNC 291155Z AUTO 07016G21KT 10SM SCT013 OVC100 21/19 A3023 RMK AO2 T02060187 10220 20201 53018 $,0,16.0,1,16090.0,0,0,0,
2026-03-29 11:35:00,METAR KVNC 291135Z AUTO 07013KT 10SM OVC013 21/19 A3022 RMK AO2 CIG 012V017 T02080187 $,0,13.0,0,16090.0,0,0,0,
2026-03-29 11:15:00,METAR KVNC 291115Z AUTO 08013KT 10SM OVC014 21/19 A3021 RMK AO2 CIG 013V018 T02080185 $,0,13.0,0,16090.0,0,0,0,
2026-03-29 10:55:00,METAR KVNC 291055Z AUTO 07013KT 10SM SCT016 BKN120 21/18 A3020 RMK AO2 T02050183 $,0,13.0,0,16090.0,0,0,0,
2026-03-29 10:35:00,METAR KVNC 291035Z AUTO 07012KT 10SM CLR 20/18 A3020 RMK AO2 T02030182 $,0,12.0,0,16090.0,0,0,0,
2026-03-29 10:15:00,METAR KVNC 291015Z AUTO 06010KT 10SM CLR 20/18 A3019 RMK AO2 T02010182 $,0,10.0,0,16090.0,0,0,0,
2026-03-29 09:55:00,METAR KVNC 290955Z AUTO 06009KT 10SM CLR 20/18 A3018 RMK AO2 T02020182 $,0,9.0,0,16090.0,0,0,0,
2026-03-29 09:35:00,METAR KVNC 290935Z AUTO 06009KT 10SM CLR 20/18 A3018 RMK AO2 T02030182 $,0,9.0,0,16090.0,0,0,0,
2026-03-29 09:15:00,METAR KVNC 290915Z AUTO 07010KT 10SM CLR 20/18 A3018 RMK AO2 T02050182 $,0,10.0,0,16090.0,0,0,0,
2026-03-29 08:55:00,METAR KVNC 290855Z AUTO 06012KT 10SM SCT019 21/18 A3017 RMK AO2 T02070182 55005 $,0,12.0,0,16090.0,0,0,0,
2026-03-29 08:35:00,METAR KVNC 290835Z AUTO 06013KT 10SM SCT019 21/18 A3017 RMK AO2 T02080182 $,0,13.0,0,16090.0,0,0,0,
2026-03-29 08:15:00,METAR KVNC 290815Z AUTO 06012KT 10SM SCT019 21/18 A3017 RMK AO2 T02090182 $,0,12.0,0,16090.0,0,0,0,
2026-03-29 07:55:00,METAR KVNC 290755Z AUTO 06013KT 10SM CLR 21/18 A3017 RMK AO2 T02100182 $,0,13.0,0,16090.0,0,0,0,
2026-03-29 07:35:00,METAR KVNC 290735Z AUTO 06014KT 10SM CLR 21/18 A3017 RMK AO2 T02100181 $,0,14.0,0,16090.0,0,0,0,
2026-03-29 07:15:00,METAR KVNC 290715Z AUTO 06014KT 10SM CLR 21/18 A3017 RMK AO2 T02120182 $,0,14.0,0,16090.0,0,0,0,
2026-03-29 06:55:00,METAR KVNC 290655Z AUTO 05013KT 10SM CLR 21/18 A3018 RMK AO2 T02130183 $,0,13.0,0,16090.0,0,0,0,
2026-03-29 06:35:00,METAR KVNC 290635Z AUTO 06012KT 10SM FEW080 22/18 A3018 RMK AO2 T02150183 $,0,12.0,0,16090.0,0,0,0,
2026-03-29 06:15:00,METAR KVNC 290615Z AUTO 06014KT 10SM OVC080 22/19 A3018 RMK AO2 T02180185 $,0,14.0,0,16090.0,0,0,0,
2026-03-29 05:55:00,METAR KVNC 290555Z AUTO 06013KT 10SM OVC080 22/19 A3019 RMK AO2 T02210187 10253 20219 50004 $,0,13.0,0,16090.0,0,0,0,
2026-03-29 05:35:00,METAR KVNC 290535Z AUTO 06013KT 10SM OVC080 22/19 A3019 RMK AO2 T02220188 $,0,13.0,0,16090.0,0,0,0,
2026-03-29 05:15:00,METAR KVNC 290515Z AUTO 06013KT 10SM FEW035 OVC080 22/19 A3019 RMK AO2 T02220188 $,0,13.0,0,16090.0,0,0,0,
2026-03-29 04:55:00,METAR KVNC 290455Z AUTO 07016KT 10SM FEW080 22/19 A3019 RMK AO2 T02220188 402690186 $,0,16.0,0,16090.0,0,0,0,
2026-03-29 04:35:00,METAR KVNC 290435Z AUTO 06016G21KT 10SM FEW032 22/19 A3019 RMK AO2 T02230189 $,0,16.0,1,16090.0,0,0,0,
2026-03-29 04:15:00,METAR KVNC 290415Z AUTO 06015KT 10SM FEW033 BKN080 22/19 A3019 RMK AO2 T02240189 $,0,15.0,0,16090.0,0,0,0,
2026-03-29 03:55:00,METAR KVNC 290355Z AUTO 05013KT 10SM FEW065 BKN080 23/19 A3019 RMK AO2 T02270189 $,0,13.0,0,16090.0,0,0,0,
2026-03-29 03:35:00,METAR KVNC 290335Z AUTO 05013KT 10SM SCT029 SCT037 SCT065 23/19 A3019 RMK AO2 T02290189 $,0,13.0,0,16090.0,0,0,0,
2026-03-29 03:15:00,METAR KVNC 290315Z AUTO 05013KT 10SM SCT030 BKN080 24/18 A3018 RMK AO2 T02370183 $,0,13.0,0,16090.0,0,0,0,
2026-03-29 02:55:00,METAR KVNC 290255Z AUTO 07013KT 10SM FEW040 SCT080 24/18 A3018 RMK AO2 T02420179 52026 $,0,13.0,0,16090.0,0,0,0,
2026-03-29 02:35:00,METAR KVNC 290235Z AUTO 08011KT 10SM FEW050 SCT080 24/18 A3017 RMK AO2 T02430178 $,0,11.0,0,16090.0,0,0,0,
2026-03-29 02:15:00,METAR KVNC 290215Z AUTO 09012KT 10SM FEW050 24/18 A3017 RMK AO2 T02440179 $,0,12.0,0,16090.0,0,0,0,
2026-03-29 01:55:00,METAR KVNC 290155Z AUTO 09009KT 10SM FEW070 25/18 A3015 RMK AO2 T02470178 $,0,9.0,0,16090.0,0,0,0,
2026-03-29 01:35:00,METAR KVNC 290135Z AUTO 09010KT 10SM FEW049 BKN070 25/18 A3014 RMK AO2 T02510176 $,0,10.0,0,16090.0,0,0,0,
2026-03-29 01:15:00,METAR KVNC 290115Z AUTO 09010G20KT 10SM BKN048 OVC060 25/18 A3013 RMK AO2 T02510179 $,0,10.0,1,16090.0,0,0,0,
2026-03-29 00:55:00,METAR KVNC 290055Z AUTO 07009KT 10SM FEW055 25/19 A3012 RMK AO2 T02500187 $,0,9.0,0,16090.0,0,0,0,
2026-03-29 00:35:00,METAR KVNC 290035Z AUTO 35008KT 340V080 10SM FEW080 23/20 A3011 RMK AO2 T02340200 $,0,8.0,0,16090.0,0,0,0,
2026-03-29 00:15:00,METAR KVNC 290015Z AUTO 34007KT 9SM SCT080 22/20 A3011 RMK AO2 T02240202 $,0,7.0,0,14481.0,0,0,0,
2026-03-28 23:55:00,METAR KVNC 282355Z AUTO 32013KT 7SM SCT085 22/20 A3010 RMK AO2 T02200201 10256 20218 53008 $,0,13.0,0,11263.0,0,0,0,
2026-03-28 23:35:00,METAR KVNC 282335Z AUTO 32015G22KT 8SM CLR 22/20 A3009 RMK AO2 T02190202 $,0,15.0,1,12872.0,0,0,0,
2026-03-28 23:15:00,METAR KVNC 282315Z AUTO 32017KT 8SM CLR 22/20 A3009 RMK AO2 T02230200 $,0,17.0,0,12872.0,0,0,0,
2026-03-28 22:55:00,METAR KVNC 282255Z AUTO 32014KT 9SM CLR 23/19 A3008 RMK AO2 T02330192 $,0,14.0,0,14481.0,0,0,0,
2026-03-28 22:35:00,METAR KVNC 282235Z AUTO 32016KT 9SM CLR 23/19 A3008 RMK AO2 T02330192 $,0,16.0,0,14481.0,0,0,0,
2026-03-28 22:15:00,METAR KVNC 282215Z AUTO 32010KT 9SM CLR 23/20 A3008 RMK AO2 T02330198 $,0,10.0,0,14481.0,0,0,0,
2026-03-28 21:55:00,METAR KVNC 282155Z AUTO 31013KT 9SM CLR 24/20 A3008 RMK AO2 T02360201 $,0,13.0,0,14481.0,0,0,0,
2026-03-28 21:35:00,METAR KVNC 282135Z AUTO 31015KT 9SM CLR 24/20 A3008 RMK AO2 T02370202 $,0,15.0,0,14481.0,0,0,0,
2026-03-28 21:15:00,METAR KVNC 282115Z AUTO 32012KT 9SM CLR 24/20 A3007 RMK AO2 T02420202 $,0,12.0,0,14481.0,0,0,0,
2026-03-28 20:55:00,METAR KVNC 282055Z AUTO 32013KT 9SM CLR 25/19 A3008 RMK AO2 T02540194 56022 $,0,13.0,0,14481.0,0,0,0,
2026-03-28 20:35:00,METAR KVNC 282035Z AUTO 32013KT 9SM CLR 25/20 A3008 RMK AO2 T02510196 $,0,13.0,0,14481.0,0,0,0,
2026-03-28 20:15:00,METAR KVNC 282015Z AUTO 32015KT 9SM CLR 25/20 A3009 RMK AO2 T02490197 $,0,15.0,0,14481.0,0,0,0,
2026-03-28 19:55:00,METAR KVNC 281955Z AUTO 32011KT 9SM CLR 25/20 A3010 RMK AO2 T02460204 $,0,11.0,0,14481.0,0,0,0,
2026-03-28 19:35:00,METAR KVNC 281935Z AUTO 31014KT 10SM CLR 24/20 A3010 RMK AO2 T02430202 $,0,14.0,0,16090.0,0,0,0,
2026-03-28 19:15:00,METAR KVNC 281915Z AUTO 31011KT 10SM CLR 24/20 A3011 RMK AO2 T02440205 $,0,11.0,0,16090.0,0,0,0,
2026-03-28 18:55:00,METAR KVNC 281855Z AUTO 31012KT 10SM CLR 25/20 A3012 RMK AO2 T02480204 $,0,12.0,0,16090.0,0,0,0,
2026-03-28 18:35:00,METAR KVNC 281835Z AUTO 31011KT 10SM CLR 24/20 A3013 RMK AO2 T02410204 $,0,11.0,0,16090.0,0,0,0,
2026-03-28 18:15:00,METAR KVNC 281815Z AUTO 31013KT 10SM CLR 24/20 A3013 RMK AO2 T02430203 $,0,13.0,0,16090.0,0,0,0,
2026-03-28 17:55:00,METAR KVNC 281755Z AUTO 30011KT 10SM CLR 25/20 A3014 RMK AO2 T02490202 10269 20196 58009 $,0,11.0,0,16090.0,0,0,0,
2026-03-28 17:35:00,METAR KVNC 281735Z AUTO 31011KT 10SM CLR 24/20 A3014 RMK AO2 T02450203 $,0,11.0,0,16090.0,0,0,0,
2026-03-28 17:15:00,METAR KVNC 281715Z AUTO 31011KT 10SM CLR 25/20 A3015 RMK AO2 T02510201 $,0,11.0,0,16090.0,0,0,0,
2026-03-28 16:55:00,METAR KVNC 281655Z AUTO 30011KT 10SM CLR 25/20 A3016 RMK AO2 T02480199 $,0,11.0,0,16090.0,0,0,0,
2026-03-28 16:35:00,METAR KVNC 281635Z AUTO 30011KT 10SM CLR 26/20 A3016 RMK AO2 T02560196 $,0,11.0,0,16090.0,0,0,0,
2026-03-28 16:15:00,METAR KVNC 281615Z AUTO 30010KT 10SM CLR 25/20 A3016 RMK AO2 T02540198 $,0,10.0,0,16090.0,0,0,0,
2026-03-28 15:55:00,METAR KVNC 281555Z AUTO 30009KT 10SM CLR 26/18 A3016 RMK AO2 T02620181 $,0,9.0,0,16090.0,0,0,0,
2026-03-28 15:35:00,METAR KVNC 281535Z AUTO 30008KT 10SM CLR 25/19 A3017 RMK AO2 T02550193 $,0,8.0,0,16090.0,0,0,0,
2026-03-28 15:15:00,METAR KVNC 281515Z AUTO 33006KT 10SM CLR 27/16 A3017 RMK AO2 T02670157 $,0,6.0,0,16090.0,0,0,0,
2026-03-28 14:55:00,METAR KVNC 281455Z AUTO VRB06KT 10SM CLR 26/16 A3017 RMK AO2 T02600163 51012 $,0,6.0,0,16090.0,0,0,0,
2026-03-28 14:35:00,METAR KVNC 281435Z AUTO 36007KT 350V060 10SM CLR 25/16 A3017 RMK AO2 T02490164 $,0,7.0,0,16090.0,0,0,0,
2026-03-28 14:15:00,METAR KVNC 281415Z AUTO 02010KT 10SM CLR 25/16 A3016 RMK AO2 T02470161 $,0,10.0,0,16090.0,0,0,0,
2026-03-28 13:55:00,METAR KVNC 281355Z AUTO 35006KT 10SM CLR 24/17 A3016 RMK AO2 T02370170 $,0,6.0,0,16090.0,0,0,0,
2026-03-28 13:35:00,METAR KVNC 281335Z AUTO VRB05KT 10SM CLR 23/17 A3016 RMK AO2 T02290174 $,0,5.0,0,16090.0,0,0,0,
2026-03-28 13:15:00,METAR KVNC 281315Z AUTO 36007KT 190V020 10SM CLR 22/18 A3016 RMK AO2 T02200180 $,0,7.0,0,16090.0,0,0,0,
2026-03-28 12:55:00,METAR KVNC 281255Z AUTO 01006KT 10SM CLR 21/19 A3015 RMK AO2 T02080187 $,0,6.0,0,16090.0,0,0,0,
2026-03-28 12:35:00,METAR KVNC 281235Z AUTO 36007KT 9SM CLR 20/19 A3014 RMK AO2 T02030186 $,0,7.0,0,14481.0,0,0,0,
2026-03-28 12:15:00,METAR KVNC 281215Z AUTO 36008KT 9SM FEW060 20/18 A3014 RMK AO2 T01970184 $,0,8.0,0,14481.0,0,0,0,
2026-03-28 11:55:00,METAR KVNC 281155Z AUTO 01005KT 9SM FEW060 19/18 A3013 RMK AO2 T01950182 10205 20186 53012 $,0,5.0,0,14481.0,0,0,0,
2026-03-28 11:35:00,METAR KVNC 281135Z AUTO 01004KT 9SM FEW060 19/18 A3013 RMK AO2 T01940182 $,0,4.0,0,14481.0,0,0,0,
2026-03-28 11:15:00,METAR KVNC 281115Z AUTO 01007KT 10SM CLR 20/18 A3012 RMK AO2 T01970183 $,0,7.0,0,16090.0,0,0,0,
2026-03-28 10:55:00,METAR KVNC 281055Z AUTO 35009KT 10SM BKN012 20/19 A3012 RMK AO2 CIG 008V014 BKN V SCT T02040188 $,0,9.0,0,16090.0,0,0,0,
2026-03-28 10:35:00,METAR KVNC 281035Z AUTO 33005KT 10SM SCT012 21/19 A3011 RMK AO2 T02050190 $,0,5.0,0,16090.0,0,0,0,
2026-03-28 10:15:00,METAR KVNC 281015Z AUTO 32006KT 10SM FEW006 20/19 A3011 RMK AO2 T02020190 $,0,6.0,0,16090.0,0,0,0,
2026-03-28 09:55:00,METAR KVNC 280955Z AUTO 31010KT 10SM CLR 20/19 A3010 RMK AO2 T02040192 $,0,10.0,0,16090.0,0,0,0,
2026-03-28 09:35:00,METAR KVNC 280935Z AUTO 31006KT 10SM CLR 20/19 A3010 RMK AO2 T02030191 $,0,6.0,0,16090.0,0,0,0,
2026-03-28 09:15:00,METAR KVNC 280915Z AUTO 30005KT 10SM CLR 20/19 A3010 RMK AO2 T02020189 $,0,5.0,0,16090.0,0,0,0,
2026-03-28 08:55:00,METAR KVNC 280855Z AUTO 29006KT 10SM CLR 20/19 A3010 RMK AO2 T02030191 56008 $,0,6.0,0,16090.0,0,0,0,
2026-03-28 08:35:00,METAR KVNC 280835Z AUTO 28007KT 10SM CLR 20/19 A3009 RMK AO2 T02020190 $,0,7.0,0,16090.0,0,0,0,
2026-03-28 08:15:00,METAR KVNC 280815Z AUTO 28005KT 10SM CLR 20/19 A3010 RMK AO2 T01990186 $,0,5.0,0,16090.0,0,0,0,
2026-03-28 07:55:00,METAR KVNC 280755Z AUTO 23004KT 10SM CLR 20/19 A3010 RMK AO2 T02010187 $,0,4.0,0,16090.0,0,0,0,
2026-03-28 07:35:00,METAR KVNC 280735Z AUTO 27003KT 10SM CLR 20/18 A3010 RMK AO2 T01990185 $,0,3.0,0,16090.0,0,0,0,
2026-03-28 07:15:00,METAR KVNC 280715Z AUTO 23003KT 10SM CLR 20/19 A3010 RMK AO2 T02000186 $,0,3.0,0,16090.0,0,0,0,
2026-03-28 06:55:00,METAR KVNC 280655Z AUTO 18003KT 10SM CLR 20/18 A3011 RMK AO2 T01980182 $,0,3.0,0,16090.0,0,0,0,
2026-03-28 06:35:00,METAR KVNC 280635Z AUTO 27005KT 10SM CLR 20/18 A3010 RMK AO2 T01950184 $,0,5.0,0,16090.0,0,0,0,
2026-03-28 06:15:00,METAR KVNC 280615Z AUTO 00000KT 10SM CLR 20/18 A3011 RMK AO2 T01950182 $,0,0.0,0,16090.0,0,0,0,
2026-03-28 05:55:00,METAR KVNC 280555Z AUTO 22003KT 10SM CLR 20/18 A3012 RMK AO2 T01970183 10214 20189 50003 $,0,3.0,0,16090.0,0,0,0,
2026-03-28 05:35:00,METAR KVNC 280535Z AUTO 00000KT 10SM CLR 19/18 A3012 RMK AO2 T01930178 $,0,0.0,0,16090.0,0,0,0,
2026-03-28 05:15:00,METAR KVNC 280515Z AUTO 00000KT 10SM CLR 20/18 A3012 RMK AO2 T02030184 $,0,0.0,0,16090.0,0,0,0,
2026-03-28 04:55:00,METAR KVNC 280455Z AUTO 00000KT 10SM CLR 20/18 A3013 RMK AO2 T01980182 402640171 $,0,0.0,0,16090.0,0,0,0,
2026-03-28 04:35:00,METAR KVNC 280435Z AUTO 00000KT 10SM FEW065 20/18 A3013 RMK AO2 T01980183 $,0,0.0,0,16090.0,0,0,0,
2026-03-28 04:15:00,METAR KVNC 280415Z AUTO 14003KT 10SM BKN065 20/18 A3013 RMK AO2 T02010184 $,0,3.0,0,16090.0,0,0,0,
2026-03-28 03:55:00,METAR KVNC 280355Z AUTO 11003KT 10SM SCT070 BKN085 20/19 A3013 RMK AO2 T02030187 $,0,3.0,0,16090.0,0,0,0,
2026-03-28 03:35:00,METAR KVNC 280335Z AUTO 08003KT 10SM BKN070 BKN085 21/19 A3013 RMK AO2 T02060189 $,0,3.0,0,16090.0,0,0,0,
2026-03-28 03:15:00,METAR KVNC 280315Z AUTO 34003KT 10SM SCT070 21/19 A3012 RMK AO2 T02130189 $,0,3.0,0,16090.0,0,0,0,
2026-03-28 02:55:00,METAR KVNC 280255Z AUTO 34003KT 10SM CLR 21/19 A3011 RMK AO2 T02130191 51017 $,0,3.0,0,16090.0,0,0,0,
2026-03-28 02:35:00,METAR KVNC 280235Z AUTO VRB04KT 10SM CLR 21/19 A3011 RMK AO2 T02130192 $,0,4.0,0,16090.0,0,0,0,
2026-03-28 02:15:00,METAR KVNC 280215Z AUTO 34006KT 10SM CLR 21/19 A3011 RMK AO2 T02120194 $,0,6.0,0,16090.0,0,0,0,
2026-03-28 01:55:00,METAR KVNC 280155Z AUTO 33005KT 10SM CLR 21/19 A3010 RMK AO2 T02110194 $,0,5.0,0,16090.0,0,0,0,
2026-03-28 01:35:00,METAR KVNC 280135Z AUTO 33006KT 10SM CLR 21/19 A3009 RMK AO2 T02100195 $,0,6.0,0,16090.0,0,0,0,
2026-03-28 01:15:00,METAR KVNC 280115Z AUTO 32009KT 9SM CLR 21/19 A3009 RMK AO2 T02080195 $,0,9.0,0,14481.0,0,0,0,
2026-03-28 00:55:00,METAR KVNC 280055Z AUTO 32010KT 8SM CLR 20/19 A3008 RMK AO2 T02040194 $,0,10.0,0,12872.0,0,0,0,
2026-03-28 00:35:00,METAR KVNC 280035Z AUTO 33010KT 8SM FEW005 20/19 A3007 RMK AO2 T02040193 $,0,10.0,0,12872.0,0,0,0,
2026-03-28 00:15:00,METAR KVNC 280015Z AUTO 32013KT 8SM SCT005 21/19 A3006 RMK AO2 T02060194 $,0,13.0,0,12872.0,0,0,0,
2026-03-27 23:55:00,METAR KVNC 272355Z AUTO 31010KT 7SM FEW005 21/20 A3006 RMK AO2 T02090198 10257 20209 53004 $,0,10.0,0,11263.0,0,0,0,
2026-03-27 23:35:00,METAR KVNC 272335Z AUTO 32012KT 8SM CLR 21/20 A3006 RMK AO2 T02130199 $,0,12.0,0,12872.0,0,0,0,
2026-03-27 23:15:00,METAR KVNC 272315Z AUTO 31012KT 8SM CLR 22/20 A3006 RMK AO2 T02180202 $,0,12.0,0,12872.0,0,0,0,
2026-03-27 22:55:00,METAR KVNC 272255Z AUTO 31013KT 10SM CLR 23/20 A3005 RMK AO2 T02280202 $,0,13.0,0,16090.0,0,0,0,
2026-03-27 22:35:00,METAR KVNC 272235Z AUTO 31011KT 10SM CLR 23/20 A3005 RMK AO2 T02330200 $,0,11.0,0,16090.0,0,0,0,
2026-03-27 22:15:00,METAR KVNC 272215Z AUTO 30009KT 9SM CLR 24/20 A3005 RMK AO2 T02370199 $,0,9.0,0,14481.0,0,0,0,
2026-03-27 21:55:00,METAR KVNC 272155Z AUTO 30012KT 10SM CLR 24/20 A3005 RMK AO2 T02400201 $,0,12.0,0,16090.0,0,0,0,
2026-03-27 21:35:00,METAR KVNC 272135Z AUTO 29009KT 9SM CLR 24/20 A3005 RMK AO2 T02430203 $,0,9.0,0,14481.0,0,0,0,
2026-03-27 21:15:00,METAR KVNC 272115Z AUTO 28010KT 10SM CLR 24/20 A3005 RMK AO2 T02420204 $,0,10.0,0,16090.0,0,0,0,
2026-03-27 20:55:00,METAR KVNC 272055Z AUTO 28011KT 10SM CLR 25/21 A3005 RMK AO2 T02470206 56021 $,0,11.0,0,16090.0,0,0,0,
2026-03-27 20:35:00,METAR KVNC 272035Z AUTO 28011KT 10SM CLR 25/21 A3006 RMK AO2 T02470205 $,0,11.0,0,16090.0,0,0,0,
2026-03-27 20:15:00,METAR KVNC 272015Z AUTO 27010KT 10SM CLR 25/21 A3006 RMK AO2 T02500208 $,0,10.0,0,16090.0,0,0,0,
2026-03-27 19:55:00,METAR KVNC 271955Z AUTO 27010KT 10SM CLR 25/21 A3007 RMK AO2 T02480207 $,0,10.0,0,16090.0,0,0,0,
2026-03-27 19:35:00,METAR KVNC 271935Z AUTO 26009KT 10SM CLR 25/21 A3007 RMK AO2 T02530208 $,0,9.0,0,16090.0,0,0,0,
2026-03-27 19:15:00,METAR KVNC 271915Z AUTO 27009KT 10SM CLR 25/21 A3008 RMK AO2 T02500206 $,0,9.0,0,16090.0,0,0,0,
2026-03-27 18:55:00,METAR KVNC 271855Z AUTO 26008KT 10SM CLR 25/20 A3009 RMK AO2 T02500204 $,0,8.0,0,16090.0,0,0,0,
2026-03-27 18:35:00,METAR KVNC 271835Z AUTO 28010KT 10SM CLR 25/20 A3009 RMK AO2 T02510203 $,0,10.0,0,16090.0,0,0,0,
2026-03-27 18:15:00,METAR KVNC 271815Z AUTO 25008KT 10SM CLR 26/20 A3010 RMK AO2 T02560199 $,0,8.0,0,16090.0,0,0,0,
2026-03-27 17:55:00,METAR KVNC 271755Z AUTO 23008KT 10SM CLR 25/20 A3011 RMK AO2 T02550196 10264 20182 58008 $,0,8.0,0,16090.0,0,0,0,
2026-03-27 17:35:00,METAR KVNC 271735Z AUTO 25008KT 10SM CLR 26/20 A3012 RMK AO2 T02580200 $,0,8.0,0,16090.0,0,0,0,
2026-03-27 17:15:00,METAR KVNC 271715Z AUTO 24008KT 10SM CLR 26/20 A3013 RMK AO2 T02580197 $,0,8.0,0,16090.0,0,0,0,
2026-03-27 16:55:00,METAR KVNC 271655Z AUTO 23007KT 10SM CLR 26/19 A3013 RMK AO2 T02570193 $,0,7.0,0,16090.0,0,0,0,
2026-03-27 16:35:00,METAR KVNC 271635Z AUTO 24007KT 10SM CLR 26/19 A3013 RMK AO2 T02600192 $,0,7.0,0,16090.0,0,0,0,
2026-03-27 16:15:00,METAR KVNC 271615Z AUTO 25006KT 10SM CLR 26/19 A3013 RMK AO2 T02570191 $,0,6.0,0,16090.0,0,0,0,
2026-03-25 14:55:00,METAR KVNC 251455Z AUTO 05007KT 020V080 10SM BKN013 BKN019 24/20 A3013 RMK AO2 CIG 012V018 BKN019 V OVC T02380196 51013 $,0,7.0,0,16090.0,0,0,0,VC
2026-03-25 14:35:00,METAR KVNC 251435Z AUTO 04007KT 10SM OVC012 23/20 A3013 RMK AO2 CIG 011V017 T02330196 $,0,7.0,0,16090.0,0,0,0,
2026-03-25 14:15:00,METAR KVNC 251415Z AUTO 07008KT 10SM OVC010 22/19 A3012 RMK AO2 CIG 009V013 T02230193 $,0,8.0,0,16090.0,0,0,0,
2026-03-25 13:55:00,METAR KVNC 251355Z AUTO 06007KT 10SM OVC009 22/19 A3012 RMK AO2 T02170192 $,0,7.0,0,16090.0,0,0,0,
2026-03-25 13:35:00,METAR KVNC 251335Z AUTO 05007KT 10SM OVC009 22/19 A3012 RMK AO2 CIG 009V012 T02170191 $,0,7.0,0,16090.0,0,0,0,
2026-03-25 13:15:00,METAR KVNC 251315Z AUTO 06007KT 10SM OVC011 21/19 A3012 RMK AO2 CIG 010V015 T02120189 $,0,7.0,0,16090.0,0,0,0,
2026-03-25 12:55:00,METAR KVNC 251255Z AUTO 03005KT 10SM OVC012 20/19 A3011 RMK AO2 T02030187 $,0,5.0,0,16090.0,0,0,0,
2026-03-25 12:35:00,METAR KVNC 251235Z AUTO 04007KT 10SM OVC012 20/19 A3010 RMK AO2 T02010187 $,0,7.0,0,16090.0,0,0,0,
2026-03-25 12:15:00,METAR KVNC 251215Z AUTO 05005KT 10SM OVC011 20/18 A3010 RMK AO2 CIG 008V013 T01970184 $,0,5.0,0,16090.0,0,0,0,
2026-03-25 11:55:00,METAR KVNC 251155Z AUTO 03005KT 9SM OVC010 19/18 A3009 RMK AO2 CIG 008V013 T01950183 10204 20191 53012 $,0,5.0,0,14481.0,0,0,0,
2026-03-25 11:35:00,METAR KVNC 251135Z AUTO 04004KT 10SM OVC012 19/18 A3009 RMK AO2 CIG 010V015 T01940184 $,0,4.0,0,16090.0,0,0,0,
2026-03-25 11:15:00,METAR KVNC 251115Z AUTO 04004KT 10SM FEW008 BKN013 19/18 A3009 RMK AO2 T01910181 $,0,4.0,0,16090.0,0,0,0,
2026-03-25 10:55:00,METAR KVNC 251055Z AUTO 05007KT 10SM BKN009 20/18 A3008 RMK AO2 BKN V OVC T01970184 $,0,7.0,0,16090.0,0,0,0,VC
2026-03-25 10:35:00,METAR KVNC 251035Z AUTO 04007KT 10SM OVC009 20/19 A3008 RMK AO2 LTG DSNT NE T02000186 $,0,7.0,0,16090.0,0,0,0,DS
2026-03-25 10:15:00,METAR KVNC 251015Z AUTO 04007KT 10SM BKN009 20/19 A3007 RMK AO2 CIG 009V012 T02010188 $,0,7.0,0,16090.0,0,0,0,
2026-03-25 09:55:00,METAR KVNC 250955Z AUTO 05006KT 10SM BKN009 20/19 A3006 RMK AO2 CIG 008V010 T02000186 $,0,6.0,0,16090.0,0,0,0,
2026-03-25 09:35:00,METAR KVNC 250935Z AUTO 04008KT 10SM OVC008 20/19 A3005 RMK AO2 CIG 007V009 T02010188 $,0,8.0,0,16090.0,0,0,0,
2026-03-25 09:15:00,METAR KVNC 250915Z AUTO 04007KT 10SM OVC010 20/19 A3005 RMK AO2 CIG 007V012 T01970186 $,0,7.0,0,16090.0,0,0,0,
2026-03-25 08:55:00,METAR KVNC 250855Z AUTO 04006KT 8SM SCT011 19/18 A3005 RMK AO2 T01930183 56010 $,0,6.0,0,12872.0,0,0,0,
2026-03-25 08:35:00,METAR KVNC 250835Z AUTO 05006KT 7SM FEW270 19/18 A3005 RMK AO2 T01920181 $,0,6.0,0,11263.0,0,0,0,
2026-03-25 08:15:00,METAR KVNC 250815Z AUTO 04005KT 8SM FEW270 19/18 A3005 RMK AO2 T01930180 $,0,5.0,0,12872.0,0,0,0,
2026-03-25 07:55:00,METAR KVNC 250755Z AUTO 04008KT 8SM CLR 19/18 A3006 RMK AO2 T01940181 $,0,8.0,0,12872.0,0,0,0,
2026-03-25 07:35:00,METAR KVNC 250735Z AUTO 03008KT 8SM CLR 20/18 A3006 RMK AO2 T01950182 $,0,8.0,0,12872.0,0,0,0,
2026-03-25 07:15:00,METAR KVNC 250715Z AUTO 04006KT 8SM CLR 20/18 A3007 RMK AO2 T01960181 $,0,6.0,0,12872.0,0,0,0,
2026-03-25 06:55:00,METAR KVNC 250655Z AUTO 03007KT 8SM SCT032 20/18 A3008 RMK AO2 T01980181 $,0,7.0,0,12872.0,0,0,0,
2026-03-25 06:35:00,METAR KVNC 250635Z AUTO 04007KT 9SM BKN031 20/18 A3008 RMK AO2 T01990182 $,0,7.0,0,14481.0,0,0,0,
2026-03-25 06:15:00,METAR KVNC 250615Z AUTO 04007KT 9SM OVC029 20/18 A3008 RMK AO2 CIG 026V032 T02020183 $,0,7.0,0,14481.0,0,0,0,
2026-03-25 05:55:00,METAR KVNC 250555Z AUTO 03007KT 9SM OVC026 21/19 A3008 RMK AO2 T02060185 10212 20206 58005 $,0,7.0,0,14481.0,0,0,0,
2026-03-25 05:35:00,METAR KVNC 250535Z AUTO 04008KT 10SM OVC027 21/19 A3009 RMK AO2 T02080186 $,0,8.0,0,16090.0,0,0,0,
2026-03-25 05:15:00,METAR KVNC 250515Z AUTO VRB06KT 10SM OVC027 21/19 A3009 RMK AO2 LTG DSNT NE T02100187 $,0,6.0,0,16090.0,0,0,0,DS
2026-03-25 04:55:00,METAR KVNC 250455Z AUTO VRB06KT 9SM OVC027 21/19 A3009 RMK AO2 T02110189 402400141 $,0,6.0,0,14481.0,0,0,0,
2026-03-25 04:35:00,METAR KVNC 250435Z AUTO VRB04KT 10SM OVC028 21/19 A3009 RMK AO2 T02120189 $,0,4.0,0,16090.0,0,0,0,
2026-03-25 04:15:00,METAR KVNC 250415Z AUTO 33004KT 10SM OVC030 21/19 A3009 RMK AO2 LTG DSNT NE T02110190 $,0,4.0,0,16090.0,0,0,0,DS
2026-03-25 03:55:00,METAR KVNC 250355Z AUTO 33005KT 10SM BKN031 OVC048 21/19 A3010 RMK AO2 T02110190 $,0,5.0,0,16090.0,0,0,0,
2026-03-25 03:35:00,METAR KVNC 250335Z AUTO 32005KT 10SM BKN033 BKN048 21/19 A3010 RMK AO2 T02100189 $,0,5.0,0,16090.0,0,0,0,
2026-03-25 03:15:00,METAR KVNC 250315Z AUTO 33005KT 10SM FEW033 21/19 A3010 RMK AO2 T02070188 $,0,5.0,0,16090.0,0,0,0,
2026-03-25 02:55:00,METAR KVNC 250255Z AUTO 33004KT 10SM FEW060 21/19 A3010 RMK AO2 T02090188 51011 $,0,4.0,0,16090.0,0,0,0,
2026-03-25 02:35:00,METAR KVNC 250235Z AUTO 33007KT 10SM SCT047 BKN060 21/19 A3010 RMK AO2 LTG DSNT NE AND E T02100191 $,0,7.0,0,16090.0,0,0,0,DS
2026-03-25 02:15:00,METAR KVNC 250215Z AUTO 32006KT 10SM SCT046 21/19 A3010 RMK AO2 LTG DSNT NE AND E T02100189 $,0,6.0,0,16090.0,0,0,0,DS
2026-03-25 01:55:00,METAR KVNC 250155Z AUTO 33007KT 9SM SCT260 21/19 A3009 RMK AO2 T02090187 $,0,7.0,0,14481.0,0,0,0,
2026-03-25 01:35:00,METAR KVNC 250135Z AUTO 33008KT 9SM SCT065 BKN260 21/18 A3009 RMK AO2 T02090185 $,0,8.0,0,14481.0,0,0,0,
2026-03-25 01:15:00,METAR KVNC 250115Z AUTO 32007KT 9SM FEW065 21/18 A3009 RMK AO2 T02100182 $,0,7.0,0,14481.0,0,0,0,
2026-03-25 00:55:00,METAR KVNC 250055Z AUTO 32007KT 9SM CLR 21/18 A3008 RMK AO2 T02090179 $,0,7.0,0,14481.0,0,0,0,
2026-03-25 00:35:00,METAR KVNC 250035Z AUTO 30008KT 10SM CLR 21/18 A3008 RMK AO2 T02090181 $,0,8.0,0,16090.0,0,0,0,
2026-03-25 00:15:00,METAR KVNC 250015Z AUTO 30008KT 10SM CLR 21/18 A3007 RMK AO2 T02090179 $,0,8.0,0,16090.0,0,0,0,
2026-03-24 23:55:00,METAR KVNC 242355Z AUTO 29008KT 8SM FEW250 21/18 A3007 RMK AO2 T02100178 10240 20210 53006 $,0,8.0,0,12872.0,0,0,0,
2026-03-24 23:35:00,METAR KVNC 242335Z AUTO 28007KT 8SM CLR 21/18 A3006 RMK AO2 T02110179 $,0,7.0,0,12872.0,0,0,0,
2026-03-24 23:15:00,METAR KVNC 242315Z AUTO 27009KT 8SM FEW250 21/18 A3005 RMK AO2 T02140178 $,0,9.0,0,12872.0,0,0,0,
2026-03-24 22:55:00,METAR KVNC 242255Z AUTO 26007KT 8SM FEW250 22/18 A3005 RMK AO2 T02170181 $,0,7.0,0,12872.0,0,0,0,
2026-03-24 22:35:00,METAR KVNC 242235Z AUTO 26009KT 9SM FEW250 22/18 A3005 RMK AO2 T02230181 $,0,9.0,0,14481.0,0,0,0,
2026-03-24 22:15:00,METAR KVNC 242215Z AUTO 25009KT 9SM CLR 22/18 A3005 RMK AO2 T02240181 $,0,9.0,0,14481.0,0,0,0,
2026-03-24 21:55:00,METAR KVNC 242155Z AUTO 26010KT 8SM CLR 22/18 A3005 RMK AO2 T02220182 $,0,10.0,0,12872.0,0,0,0,
2026-03-24 21:35:00,METAR KVNC 242135Z AUTO 26009KT 8SM CLR 23/18 A3005 RMK AO2 T02300183 $,0,9.0,0,12872.0,0,0,0,
2026-03-24 21:15:00,METAR KVNC 242115Z AUTO 27010KT 9SM CLR 23/18 A3005 RMK AO2 T02300182 $,0,10.0,0,14481.0,0,0,0,
2026-03-24 20:55:00,METAR KVNC 242055Z AUTO 28010KT 8SM CLR 23/18 A3005 RMK AO2 T02310183 56015 $,0,10.0,0,12872.0,0,0,0,
2026-03-24 20:35:00,METAR KVNC 242035Z AUTO 28011KT 8SM CLR 23/18 A3005 RMK AO2 T02320182 $,0,11.0,0,12872.0,0,0,0,
2026-03-24 20:15:00,METAR KVNC 242015Z AUTO 28011KT 8SM CLR 24/18 A3006 RMK AO2 T02370181 $,0,11.0,0,12872.0,0,0,0,
2026-03-24 19:55:00,METAR KVNC 241955Z AUTO 28011KT 9SM CLR 24/18 A3006 RMK AO2 T02360181 $,0,11.0,0,14481.0,0,0,0,
2026-03-24 19:35:00,METAR KVNC 241935Z AUTO 27011KT 8SM CLR 23/18 A3006 RMK AO2 T02320179 $,0,11.0,0,12872.0,0,0,0,
2026-03-24 19:15:00,METAR KVNC 241915Z AUTO 27011KT 9SM CLR 24/18 A3006 RMK AO2 T02370179 $,0,11.0,0,14481.0,0,0,0,
2026-03-24 18:55:00,METAR KVNC 241855Z AUTO 28010KT 9SM CLR 24/18 A3008 RMK AO2 T02360179 $,0,10.0,0,14481.0,0,0,0,
2026-03-24 18:35:00,METAR KVNC 241835Z AUTO 27011KT 9SM CLR 23/18 A3008 RMK AO2 T02350181 $,0,11.0,0,14481.0,0,0,0,
2026-03-24 18:15:00,METAR KVNC 241815Z AUTO 26012KT 10SM CLR 24/18 A3009 RMK AO2 T02370178 $,0,12.0,0,16090.0,0,0,0,
2026-03-24 17:55:00,METAR KVNC 241755Z AUTO 27010KT 10SM CLR 23/18 A3009 RMK AO2 T02320177 10237 20150 58006 $,0,10.0,0,16090.0,0,0,0,
2026-03-24 17:35:00,METAR KVNC 241735Z AUTO 27010KT 10SM CLR 23/18 A3010 RMK AO2 T02350178 $,0,10.0,0,16090.0,0,0,0,
2026-03-24 17:15:00,METAR KVNC 241715Z AUTO 25008KT 9SM FEW380 23/18 A3010 RMK AO2 T02340178 $,0,8.0,0,14481.0,0,0,0,
2026-03-24 16:55:00,METAR KVNC 241655Z AUTO 25008KT 9SM CLR 23/18 A3011 RMK AO2 T02330178 $,0,8.0,0,14481.0,0,0,0,
2026-03-24 16:35:00,METAR KVNC 241635Z AUTO 26008KT 9SM FEW350 23/18 A3011 RMK AO2 T02300177 $,0,8.0,0,14481.0,0,0,0,
2026-03-24 16:15:00,METAR KVNC 241615Z AUTO 27007KT 9SM CLR 23/17 A3011 RMK AO2 T02280174 $,0,7.0,0,14481.0,0,0,0,
2026-03-24 15:55:00,METAR KVNC 241555Z AUTO 26007KT 9SM CLR 23/17 A3011 RMK AO2 T02290174 $,0,7.0,0,14481.0,0,0,0,
2026-03-24 15:35:00,METAR KVNC 241535Z AUTO 26006KT 10SM CLR 23/18 A3011 RMK AO2 T02270177 $,0,6.0,0,16090.0,0,0,0,
2026-03-24 15:15:00,METAR KVNC 241515Z AUTO 27007KT 9SM CLR 23/17 A3011 RMK AO2 T02280175 $,0,7.0,0,14481.0,0,0,0,
2026-03-24 14:55:00,METAR KVNC 241455Z AUTO VRB04KT 10SM CLR 23/17 A3011 RMK AO2 T02250173 51014 $,0,4.0,0,16090.0,0,0,0,
2026-03-24 14:35:00,METAR KVNC 241435Z AUTO 00000KT 9SM CLR 22/18 A3011 RMK AO2 T02250176 $,0,0.0,0,14481.0,0,0,0,
2026-03-24 14:15:00,METAR KVNC 241415Z AUTO VRB03KT 9SM CLR 22/18 A3011 RMK AO2 T02200176 $,0,3.0,0,14481.0,0,0,0,
2026-03-24 13:55:00,METAR KVNC 241355Z AUTO VRB03KT 8SM CLR 22/18 A3010 RMK AO2 T02160176 $,0,3.0,0,12872.0,0,0,0,
2026-03-24 13:35:00,METAR KVNC 241335Z AUTO 26004KT 8SM CLR 21/18 A3010 RMK AO2 T02140176 $,0,4.0,0,12872.0,0,0,0,
2026-03-24 13:15:00,METAR KVNC 241315Z AUTO 27005KT 9SM CLR 21/18 A3010 RMK AO2 T02120175 $,0,5.0,0,14481.0,0,0,0,
2026-03-24 12:55:00,METAR KVNC 241255Z AUTO 28005KT 8SM CLR 21/18 A3009 RMK AO2 T02070176 $,0,5.0,0,12872.0,0,0,0,
2026-03-24 12:35:00,METAR KVNC 241235Z AUTO 29005KT 8SM CLR 19/17 A3008 RMK AO2 T01920172 $,0,5.0,0,12872.0,0,0,0,
2026-03-24 12:15:00,METAR KVNC 241215Z AUTO 00000KT 8SM CLR 16/15 A3008 RMK AO2 T01600155 $,0,0.0,0,12872.0,0,0,0,
2026-03-24 11:55:00,METAR KVNC 241155Z AUTO 00000KT 8SM CLR 15/15 A3007 RMK AO2 T01540147 10196 20141 53008 $,0,0.0,0,12872.0,0,0,0,
2026-03-24 11:35:00,METAR KVNC 241135Z AUTO 00000KT 8SM CLR 15/15 A3006 RMK AO2 T01500147 $,0,0.0,0,12872.0,0,0,0,
2026-03-24 11:15:00,METAR KVNC 241115Z AUTO 00000KT 10SM CLR 16/15 A3006 RMK AO2 T01620147 $,0,0.0,0,16090.0,0,0,0,
2026-03-24 10:55:00,METAR KVNC 241055Z AUTO 33005KT 10SM CLR 16/15 A3006 RMK AO2 T01640151 $,0,5.0,0,16090.0,0,0,0,
2026-03-24 10:35:00,METAR KVNC 241035Z AUTO 33003KT 9SM CLR 17/16 A3006 RMK AO2 T01680156 $,0,3.0,0,14481.0,0,0,0,
2026-03-24 10:15:00,METAR KVNC 241015Z AUTO 00000KT 10SM CLR 17/16 A3005 RMK AO2 T01670155 $,0,0.0,0,16090.0,0,0,0,
2026-03-24 09:55:00,METAR KVNC 240955Z AUTO 34003KT 10SM CLR 19/16 A3005 RMK AO2 T01870160 $,0,3.0,0,16090.0,0,0,0,
2026-03-24 09:35:00,METAR KVNC 240935Z AUTO 32005KT 10SM CLR 19/16 A3005 RMK AO2 T01950163 $,0,5.0,0,16090.0,0,0,0,
2026-03-24 09:15:00,METAR KVNC 240915Z AUTO 32005KT 10SM CLR 19/16 A3004 RMK AO2 T01950163 $,0,5.0,0,16090.0,0,0,0,
2026-03-24 08:55:00,METAR KVNC 240855Z AUTO 31006KT 10SM CLR 19/16 A3005 RMK AO2 T01950163 56011 $,0,6.0,0,16090.0,0,0,0,
2026-03-24 08:35:00,METAR KVNC 240835Z AUTO 31007KT 10SM CLR 20/16 A3005 RMK AO2 T01960163 $,0,7.0,0,16090.0,0,0,0,
2026-03-24 08:15:00,METAR KVNC 240815Z AUTO 30006KT 10SM CLR 19/16 A3005 RMK AO2 T01910163 $,0,6.0,0,16090.0,0,0,0,
2026-03-24 07:55:00,METAR KVNC 240755Z AUTO 31006KT 10SM CLR 19/16 A3005 RMK AO2 T01920162 $,0,6.0,0,16090.0,0,0,0,
2026-03-24 07:35:00,METAR KVNC 240735Z AUTO 30005KT 10SM CLR 19/16 A3005 RMK AO2 T01910162 $,0,5.0,0,16090.0,0,0,0,
2026-03-24 07:15:00,METAR KVNC 240715Z AUTO 30007KT 10SM CLR 19/16 A3005 RMK AO2 T01880161 $,0,7.0,0,16090.0,0,0,0,
2026-03-24 06:55:00,METAR KVNC 240655Z AUTO 29007KT 10SM CLR 19/16 A3006 RMK AO2 T01890163 $,0,7.0,0,16090.0,0,0,0,
2026-03-24 06:35:00,METAR KVNC 240635Z AUTO 29007KT 10SM CLR 19/16 A3007 RMK AO2 T01900163 $,0,7.0,0,16090.0,0,0,0,
2026-03-24 06:15:00,METAR KVNC 240615Z AUTO 28007KT 10SM CLR 19/16 A3007 RMK AO2 T01910164 $,0,7.0,0,16090.0,0,0,0,
2026-03-24 05:55:00,METAR KVNC 240555Z AUTO 29007KT 10SM CLR 19/16 A3008 RMK AO2 T01900162 10202 20186 58004 $,0,7.0,0,16090.0,0,0,0,
2026-03-24 05:35:00,METAR KVNC 240535Z AUTO 28007KT 10SM CLR 19/16 A3008 RMK AO2 T01900163 $,0,7.0,0,16090.0,0,0,0,
2026-03-24 05:15:00,METAR KVNC 240515Z AUTO 27006KT 10SM CLR 19/16 A3008 RMK AO2 T01900164 $,0,6.0,0,16090.0,0,0,0,
2026-03-24 04:55:00,METAR KVNC 240455Z AUTO 26006KT 10SM CLR 19/16 A3009 RMK AO2 T01900162 402370130 $,0,6.0,0,16090.0,0,0,0,
2026-03-24 04:35:00,METAR KVNC 240435Z AUTO 26006KT 10SM CLR 19/16 A3009 RMK AO2 T01900162 $,0,6.0,0,16090.0,0,0,0,
2026-03-24 04:15:00,METAR KVNC 240415Z AUTO 25006KT 10SM CLR 19/16 A3008 RMK AO2 T01910162 $,0,6.0,0,16090.0,0,0,0,
2026-03-24 03:55:00,METAR KVNC 240355Z AUTO 26005KT 10SM CLR 19/16 A3008 RMK AO2 T01890162 $,0,5.0,0,16090.0,0,0,0,
2026-03-24 03:35:00,METAR KVNC 240335Z AUTO 27005KT 10SM CLR 19/16 A3008 RMK AO2 T01880161 $,0,5.0,0,16090.0,0,0,0,
2026-03-24 03:15:00,METAR KVNC 240315Z AUTO 27006KT 10SM CLR 19/16 A3008 RMK AO2 T01870158 $,0,6.0,0,16090.0,0,0,0,
2026-03-24 02:55:00,METAR KVNC 240255Z AUTO 27004KT 10SM CLR 19/16 A3009 RMK AO2 T01910159 50001 $,0,4.0,0,16090.0,0,0,0,
2026-03-24 02:35:00,METAR KVNC 240235Z AUTO 29005KT 10SM CLR 19/16 A3009 RMK AO2 T01900157 $,0,5.0,0,16090.0,0,0,0,
2026-03-24 02:15:00,METAR KVNC 240215Z AUTO 27005KT 10SM CLR 19/16 A3010 RMK AO2 T01910159 $,0,5.0,0,16090.0,0,0,0,
2026-03-24 01:55:00,METAR KVNC 240155Z AUTO 26005KT 10SM CLR 19/16 A3009 RMK AO2 T01940160 $,0,5.0,0,16090.0,0,0,0,
2026-03-24 01:35:00,METAR KVNC 240135Z AUTO 27006KT 10SM CLR 19/16 A3009 RMK AO2 T01940160 $,0,6.0,0,16090.0,0,0,0,
2026-03-24 01:15:00,METAR KVNC 240115Z AUTO 28005KT 10SM CLR 19/16 A3009 RMK AO2 T01930161 $,0,5.0,0,16090.0,0,0,0,
2026-03-24 00:55:00,METAR KVNC 240055Z AUTO 27006KT 10SM CLR 20/16 A3009 RMK AO2 T01950163 $,0,6.0,0,16090.0,0,0,0,
2026-03-24 00:35:00,METAR KVNC 240035Z AUTO 28006KT 10SM CLR 20/16 A3009 RMK AO2 T01970163 $,0,6.0,0,16090.0,0,0,0,
2026-03-24 00:15:00,METAR KVNC 240015Z AUTO 29005KT 10SM CLR 20/16 A3009 RMK AO2 T02000164 $,0,5.0,0,16090.0,0,0,0,
2026-03-23 23:55:00,METAR KVNC 232355Z AUTO 29006KT 10SM CLR 20/16 A3009 RMK AO2 T02040160 10237 20204 53005 $,0,6.0,0,16090.0,0,0,0,
2026-03-23 23:35:00,METAR KVNC 232335Z AUTO 29007KT 10SM CLR 21/16 A3008 RMK AO2 T02070160 $,0,7.0,0,16090.0,0,0,0,
2026-03-23 23:15:00,METAR KVNC 232315Z AUTO 28007KT 10SM CLR 21/16 A3008 RMK AO2 T02120163 $,0,7.0,0,16090.0,0,0,0,
2026-03-23 22:55:00,METAR KVNC 232255Z AUTO 28008KT 10SM CLR 22/16 A3008 RMK AO2 T02170161 $,0,8.0,0,16090.0,0,0,0,
2026-03-23 22:35:00,METAR KVNC 232235Z AUTO 28009KT 9SM CLR 22/16 A3008 RMK AO2 T02200162 $,0,9.0,0,14481.0,0,0,0,
2026-03-23 22:15:00,METAR KVNC 232215Z AUTO 28010KT 10SM CLR 22/16 A3008 RMK AO2 T02220160 $,0,10.0,0,16090.0,0,0,0,
2026-03-23 21:55:00,METAR KVNC 232155Z AUTO 28009KT 9SM CLR 23/16 A3007 RMK AO2 T02280159 $,0,9.0,0,14481.0,0,0,0,
2026-03-23 21:35:00,METAR KVNC 232135Z AUTO 27010KT 10SM CLR 23/16 A3007 RMK AO2 T02280158 $,0,10.0,0,16090.0,0,0,0,
2026-03-23 21:15:00,METAR KVNC 232115Z AUTO 28010KT 9SM CLR 23/15 A3007 RMK AO2 T02290155 $,0,10.0,0,14481.0,0,0,0,
2026-03-23 20:55:00,METAR KVNC 232055Z AUTO 29011KT 9SM CLR 23/16 A3007 RMK AO2 T02330155 56014 $,0,11.0,0,14481.0,0,0,0,
2026-03-23 20:35:00,METAR KVNC 232035Z AUTO 29011KT 9SM CLR 23/16 A3007 RMK AO2 T02330155 $,0,11.0,0,14481.0,0,0,0,
2026-03-23 20:15:00,METAR KVNC 232015Z AUTO 28010KT 10SM CLR 23/16 A3007 RMK AO2 T02300157 $,0,10.0,0,16090.0,0,0,0,
2026-03-23 19:55:00,METAR KVNC 231955Z AUTO 28010KT 10SM CLR 23/16 A3007 RMK AO2 T02330156 $,0,10.0,0,16090.0,0,0,0,
2026-03-23 19:35:00,METAR KVNC 231935Z AUTO 28011KT 10SM CLR 23/16 A3008 RMK AO2 T02340157 $,0,11.0,0,16090.0,0,0,0,
2026-03-23 19:15:00,METAR KVNC 231915Z AUTO 29010KT 10SM CLR 23/16 A3008 RMK AO2 T02340157 $,0,10.0,0,16090.0,0,0,0,
2026-03-23 18:55:00,METAR KVNC 231855Z AUTO 28010KT 10SM CLR 24/16 A3010 RMK AO2 T02360162 $,0,10.0,0,16090.0,0,0,0,
2026-03-23 18:35:00,METAR KVNC 231835Z AUTO 27009KT 10SM CLR 23/16 A3010 RMK AO2 T02300160 $,0,9.0,0,16090.0,0,0,0,
2026-03-23 18:15:00,METAR KVNC 231815Z AUTO 28009KT 10SM CLR 23/16 A3011 RMK AO2 T02270160 $,0,9.0,0,16090.0,0,0,0,
2026-03-23 17:55:00,METAR KVNC 231755Z AUTO 27007KT 10SM CLR 23/16 A3011 RMK AO2 T02320159 10234 20141 58012 $,0,7.0,0,16090.0,0,0,0,
2026-03-23 17:35:00,METAR KVNC 231735Z AUTO 28008KT 10SM CLR 23/16 A3012 RMK AO2 T02300158 $,0,8.0,0,16090.0,0,0,0,
2026-03-23 17:15:00,METAR KVNC 231715Z AUTO 27007KT 10SM CLR 23/16 A3013 RMK AO2 T02280158 $,0,7.0,0,16090.0,0,0,0,
2026-03-23 16:55:00,METAR KVNC 231655Z AUTO 28007KT 10SM FEW370 23/16 A3013 RMK AO2 T02260159 $,0,7.0,0,16090.0,0,0,0,
2026-03-23 16:35:00,METAR KVNC 231635Z AUTO 27006KT 10SM CLR 23/16 A3013 RMK AO2 T02280163 $,0,6.0,0,16090.0,0,0,0,
2026-03-23 16:15:00,METAR KVNC 231615Z AUTO 27007KT 10SM CLR 22/16 A3014 RMK AO2 T02220164 $,0,7.0,0,16090.0,0,0,0,
2026-03-23 15:55:00,METAR KVNC 231555Z AUTO 26005KT 10SM CLR 22/17 A3014 RMK AO2 T02210167 $,0,5.0,0,16090.0,0,0,0,
2026-03-23 15:35:00,METAR KVNC 231535Z AUTO 26006KT 10SM CLR 22/17 A3015 RMK AO2 T02180167 $,0,6.0,0,16090.0,0,0,0,
2026-03-23 15:15:00,METAR KVNC 231515Z AUTO 28005KT 10SM CLR 22/17 A3015 RMK AO2 T02190168 $,0,5.0,0,16090.0,0,0,0,
2026-03-23 14:55:00,METAR KVNC 231455Z AUTO 27005KT 10SM CLR 22/17 A3015 RMK AO2 T02160168 53019 $,0,5.0,0,16090.0,0,0,0,
2026-03-23 14:35:00,METAR KVNC 231435Z AUTO 27005KT 10SM CLR 21/17 A3014 RMK AO2 T02140168 $,0,5.0,0,16090.0,0,0,0,
2026-03-23 14:15:00,METAR KVNC 231415Z AUTO 29006KT 9SM CLR 21/17 A3014 RMK AO2 T02130167 $,0,6.0,0,14481.0,0,0,0,
2026-03-23 13:55:00,METAR KVNC 231355Z AUTO 29006KT 9SM CLR 21/17 A3013 RMK AO2 T02100166 $,0,6.0,0,14481.0,0,0,0,
2026-03-23 13:35:00,METAR KVNC 231335Z AUTO 32004KT 9SM CLR 21/17 A3013 RMK AO2 T02060165 $,0,4.0,0,14481.0,0,0,0,
2026-03-23 13:15:00,METAR KVNC 231315Z AUTO 00000KT 10SM CLR 20/17 A3012 RMK AO2 T01960165 $,0,0.0,0,16090.0,0,0,0,
2026-03-23 12:55:00,METAR KVNC 231255Z AUTO 00000KT 9SM CLR 18/16 A3011 RMK AO2 T01750162 $,0,0.0,0,14481.0,0,0,0,
2026-03-23 12:35:00,METAR KVNC 231235Z AUTO 00000KT 9SM CLR 16/15 A3011 RMK AO2 T01620153 $,0,0.0,0,14481.0,0,0,0,
2026-03-23 12:15:00,METAR KVNC 231215Z AUTO 00000KT 9SM CLR 15/14 A3010 RMK AO2 T01500143 $,0,0.0,0,14481.0,0,0,0,
2026-03-23 11:55:00,METAR KVNC 231155Z AUTO 06003KT 7SM CLR 13/13 A3009 RMK AO2 T01320127 10156 20130 53008 $,0,3.0,0,11263.0,0,0,0,
2026-03-23 11:35:00,METAR KVNC 231135Z AUTO 06003KT 8SM CLR 14/13 A3009 RMK AO2 T01350129 $,0,3.0,0,12872.0,0,0,0,
2026-03-23 11:15:00,METAR KVNC 231115Z AUTO 05003KT 8SM CLR 14/13 A3008 RMK AO2 T01360130 $,0,3.0,0,12872.0,0,0,0,
2026-03-23 10:55:00,METAR KVNC 231055Z AUTO 05003KT 6SM BR CLR 13/13 A3007 RMK AO2 T01310126 $,0,3.0,0,9654.0,0,0,1,BR
2026-03-23 10:35:00,METAR KVNC 231035Z AUTO 00000KT 8SM CLR 14/13 A3007 RMK AO2 T01380133 $,0,0.0,0,12872.0,0,0,0,
2026-03-23 10:15:00,METAR KVNC 231015Z AUTO 00000KT 6SM BR CLR 14/13 A3007 RMK AO2 T01370133 $,0,0.0,0,9654.0,0,0,1,BR
2026-03-23 09:55:00,METAR KVNC 230955Z AUTO 00000KT 5SM BR CLR 14/13 A3007 RMK AO2 T01360134 $,0,0.0,0,8045.0,0,0,1,BR
2026-03-23 09:35:00,METAR KVNC 230935Z AUTO 00000KT 4SM BR CLR 14/13 A3007 RMK AO2 T01350134 $,0,0.0,0,6436.0,0,0,1,BR
2026-03-23 09:15:00,METAR KVNC 230915Z AUTO 00000KT 7SM CLR 14/14 A3007 RMK AO2 T01410139 $,0,0.0,0,11263.0,0,0,0,
2026-03-23 08:55:00,METAR KVNC 230855Z AUTO 00000KT 9SM CLR 14/14 A3007 RMK AO2 T01390136 56007 $,0,0.0,0,14481.0,0,0,0,
2026-03-23 08:35:00,METAR KVNC 230835Z AUTO 00000KT 10SM CLR 14/14 A3007 RMK AO2 T01420137 $,0,0.0,0,16090.0,0,0,0,
2026-03-23 08:15:00,METAR KVNC 230815Z AUTO 08003KT 10SM CLR 14/14 A3008 RMK AO2 T01420135 $,0,3.0,0,16090.0,0,0,0,
2026-03-23 07:55:00,METAR KVNC 230755Z AUTO 06003KT 10SM CLR 14/13 A3008 RMK AO2 T01400131 $,0,3.0,0,16090.0,0,0,0,
2026-03-23 07:35:00,METAR KVNC 230735Z AUTO 00000KT 10SM CLR 14/14 A3008 RMK AO2 T01440137 $,0,0.0,0,16090.0,0,0,0,
2026-03-23 07:15:00,METAR KVNC 230715Z AUTO 00000KT 10SM CLR 14/14 A3008 RMK AO2 T01430139 $,0,0.0,0,16090.0,0,0,0,
2026-03-23 06:55:00,METAR KVNC 230655Z AUTO 00000KT 10SM CLR 15/14 A3008 RMK AO2 T01490140 $,0,0.0,0,16090.0,0,0,0,
2026-03-23 06:35:00,METAR KVNC 230635Z AUTO 00000KT 9SM CLR 14/13 A3009 RMK AO2 T01440133 $,0,0.0,0,14481.0,0,0,0,
2026-03-23 06:15:00,METAR KVNC 230615Z AUTO 00000KT 9SM CLR 15/14 A3009 RMK AO2 T01490142 $,0,0.0,0,14481.0,0,0,0,
2026-03-23 05:55:00,METAR KVNC 230555Z AUTO 00000KT 10SM CLR 15/14 A3009 RMK AO2 T01520140 10201 20152 58003 $,0,0.0,0,16090.0,0,0,0,
2026-03-23 05:35:00,METAR KVNC 230535Z AUTO 00000KT 10SM CLR 16/14 A3009 RMK AO2 T01570144 $,0,0.0,0,16090.0,0,0,0,
2026-03-23 05:15:00,METAR KVNC 230515Z AUTO 00000KT 10SM CLR 16/14 A3010 RMK AO2 T01570142 $,0,0.0,0,16090.0,0,0,0,
2026-03-23 04:55:00,METAR KVNC 230455Z AUTO 00000KT 10SM CLR 16/14 A3010 RMK AO2 T01600139 402330118 $,0,0.0,0,16090.0,0,0,0,
2026-03-23 04:35:00,METAR KVNC 230435Z AUTO 32003KT 10SM CLR 19/15 A3010 RMK AO2 T01930154 $,0,3.0,0,16090.0,0,0,0,
2026-03-23 04:15:00,METAR KVNC 230415Z AUTO 31004KT 10SM CLR 19/15 A3010 RMK AO2 T01910154 $,0,4.0,0,16090.0,0,0,0,
2026-03-23 03:55:00,METAR KVNC 230355Z AUTO 31004KT 10SM CLR 19/15 A3010 RMK AO2 T01900151 $,0,4.0,0,16090.0,0,0,0,
2026-03-23 03:35:00,METAR KVNC 230335Z AUTO 32005KT 10SM CLR 19/15 A3011 RMK AO2 T01950149 $,0,5.0,0,16090.0,0,0,0,
2026-03-23 03:15:00,METAR KVNC 230315Z AUTO 31006KT 10SM CLR 20/14 A3010 RMK AO2 T01980144 $,0,6.0,0,16090.0,0,0,0,
2026-03-23 02:55:00,METAR KVNC 230255Z AUTO 31006KT 10SM CLR 20/14 A3010 RMK AO2 T01960144 52007 $,0,6.0,0,16090.0,0,0,0,
2026-03-23 02:35:00,METAR KVNC 230235Z AUTO 31005KT 10SM CLR 20/14 A3010 RMK AO2 T01980144 $,0,5.0,0,16090.0,0,0,0,
2026-03-23 02:15:00,METAR KVNC 230215Z AUTO 31006KT 10SM CLR 20/14 A3010 RMK AO2 T01990141 $,0,6.0,0,16090.0,0,0,0,
2026-03-23 01:55:00,METAR KVNC 230155Z AUTO 32005KT 10SM CLR 20/15 A3009 RMK AO2 T01990145 $,0,5.0,0,16090.0,0,0,0,
2026-03-23 01:35:00,METAR KVNC 230135Z AUTO 32005KT 10SM CLR 20/15 A3009 RMK AO2 T01980149 $,0,5.0,0,16090.0,0,0,0,
2026-03-23 01:15:00,METAR KVNC 230115Z AUTO 31004KT 10SM CLR 20/15 A3008 RMK AO2 T01960146 $,0,4.0,0,16090.0,0,0,0,
2026-03-23 00:55:00,METAR KVNC 230055Z AUTO 31004KT 10SM CLR 20/14 A3008 RMK AO2 T01960140 $,0,4.0,0,16090.0,0,0,0,
2026-03-23 00:35:00,METAR KVNC 230035Z AUTO 31004KT 10SM CLR 20/13 A3008 RMK AO2 T01970135 $,0,4.0,0,16090.0,0,0,0,
2026-03-23 00:15:00,METAR KVNC 230015Z AUTO 31005KT 10SM CLR 20/14 A3008 RMK AO2 T02010135 $,0,5.0,0,16090.0,0,0,0,
2026-03-22 23:55:00,METAR KVNC 222355Z AUTO 31005KT 10SM CLR 20/13 A3008 RMK AO2 T02000127 10232 20200 56002 $,0,5.0,0,16090.0,0,0,0,
2026-03-22 23:35:00,METAR KVNC 222335Z AUTO 31005KT 9SM CLR 20/13 A3008 RMK AO2 T02050126 $,0,5.0,0,14481.0,0,0,0,
2026-03-22 23:15:00,METAR KVNC 222315Z AUTO 31006KT 10SM CLR 21/13 A3008 RMK AO2 T02100128 $,0,6.0,0,16090.0,0,0,0,
2026-03-22 22:55:00,METAR KVNC 222255Z AUTO 30010KT 10SM CLR 21/13 A3008 RMK AO2 T02150129 $,0,10.0,0,16090.0,0,0,0,
2026-03-22 22:35:00,METAR KVNC 222235Z AUTO 31009KT 10SM CLR 22/13 A3008 RMK AO2 T02170127 $,0,9.0,0,16090.0,0,0,0,
2026-03-22 22:15:00,METAR KVNC 222215Z AUTO 30008KT 9SM CLR 22/13 A3008 RMK AO2 T02210128 $,0,8.0,0,14481.0,0,0,0,
2026-03-22 21:55:00,METAR KVNC 222155Z AUTO 30009KT 10SM CLR 22/13 A3008 RMK AO2 T02210134 $,0,9.0,0,16090.0,0,0,0,
2026-03-22 21:35:00,METAR KVNC 222135Z AUTO 29008KT 10SM CLR 23/14 A3008 RMK AO2 T02270136 $,0,8.0,0,16090.0,0,0,0,
2026-03-22 21:15:00,METAR KVNC 222115Z AUTO 30010KT 10SM CLR 22/13 A3008 RMK AO2 T02230135 $,0,10.0,0,16090.0,0,0,0,
2026-03-22 20:55:00,METAR KVNC 222055Z AUTO 30010KT 9SM CLR 23/14 A3008 RMK AO2 T02260140 56014 $,0,10.0,0,14481.0,0,0,0,
2026-03-22 20:35:00,METAR KVNC 222035Z AUTO 30009KT 9SM CLR 23/15 A3009 RMK AO2 T02320145 $,0,9.0,0,14481.0,0,0,0,
2026-03-22 20:15:00,METAR KVNC 222015Z AUTO 28010KT 9SM CLR 23/15 A3009 RMK AO2 T02260147 $,0,10.0,0,14481.0,0,0,0,
2026-03-22 19:55:00,METAR KVNC 221955Z AUTO 28010KT 9SM CLR 23/15 A3009 RMK AO2 T02260154 $,0,10.0,0,14481.0,0,0,0,
2026-03-22 19:35:00,METAR KVNC 221935Z AUTO 28010KT 9SM CLR 23/15 A3010 RMK AO2 T02290152 $,0,10.0,0,14481.0,0,0,0,
2026-03-22 19:15:00,METAR KVNC 221915Z AUTO 27010KT 10SM CLR 23/15 A3010 RMK AO2 T02270153 $,0,10.0,0,16090.0,0,0,0,
2026-03-22 18:55:00,METAR KVNC 221855Z AUTO 29010KT 10SM CLR 23/15 A3011 RMK AO2 T02290153 $,0,10.0,0,16090.0,0,0,0,
2026-03-22 18:35:00,METAR KVNC 221835Z AUTO 28010KT 10SM CLR 23/15 A3011 RMK AO2 T02280154 $,0,10.0,0,16090.0,0,0,0,
2026-03-22 18:15:00,METAR KVNC 221815Z AUTO 27010KT 10SM CLR 23/15 A3012 RMK AO2 T02280154 $,0,10.0,0,16090.0,0,0,0,
2026-03-22 17:55:00,METAR KVNC 221755Z AUTO 28009KT 10SM CLR 22/15 A3012 RMK AO2 T02220149 10231 20136 58004 $,0,9.0,0,16090.0,0,0,0,
2026-03-22 17:35:00,METAR KVNC 221735Z AUTO 28010KT 10SM FEW370 23/15 A3013 RMK AO2 T02280149 $,0,10.0,0,16090.0,0,0,0,
2026-03-22 17:15:00,METAR KVNC 221715Z AUTO 29010KT 10SM CLR 22/15 A3013 RMK AO2 T02240147 $,0,10.0,0,16090.0,0,0,0,
2026-03-22 16:55:00,METAR KVNC 221655Z AUTO 27009KT 10SM CLR 22/15 A3014 RMK AO2 T02220147 $,0,9.0,0,16090.0,0,0,0,
2026-03-22 16:35:00,METAR KVNC 221635Z AUTO 25009KT 10SM CLR 22/15 A3014 RMK AO2 T02240146 $,0,9.0,0,16090.0,0,0,0,
2026-03-22 16:15:00,METAR KVNC 221615Z AUTO 25007KT 10SM CLR 22/15 A3014 RMK AO2 T02200145 $,0,7.0,0,16090.0,0,0,0,
2026-03-22 15:55:00,METAR KVNC 221555Z AUTO 25007KT 10SM CLR 22/14 A3014 RMK AO2 T02180144 $,0,7.0,0,16090.0,0,0,0,
2026-03-22 15:35:00,METAR KVNC 221535Z AUTO 23008KT 10SM CLR 22/15 A3014 RMK AO2 T02200149 $,0,8.0,0,16090.0,0,0,0,
2026-03-22 15:15:00,METAR KVNC 221515Z AUTO 21007KT 10SM CLR 21/15 A3014 RMK AO2 T02090149 $,0,7.0,0,16090.0,0,0,0,
2026-03-22 14:55:00,METAR KVNC 221455Z AUTO 00000KT 10SM CLR 22/12 A3014 RMK AO2 T02250117 51013 $,0,0.0,0,16090.0,0,0,0,
2026-03-22 14:15:00,METAR KVNC 221415Z AUTO 06005KT 10SM CLR 22/12 A3013 RMK AO2 T02160120 $,0,5.0,0,16090.0,0,0,0,
2026-03-22 13:55:00,METAR KVNC 221355Z AUTO VRB04KT 9SM CLR 21/12 A3013 RMK AO2 T02060122 $,0,4.0,0,14481.0,0,0,0,
2026-03-22 13:35:00,METAR KVNC 221335Z AUTO 35005KT 9SM CLR 20/14 A3013 RMK AO2 T01990137 $,0,5.0,0,14481.0,0,0,0,
2026-03-22 13:15:00,METAR KVNC 221315Z AUTO 01004KT 9SM CLR 19/14 A3012 RMK AO2 T01860143 $,0,4.0,0,14481.0,0,0,0,
2026-03-22 12:35:00,METAR KVNC 221235Z AUTO 00000KT 9SM CLR 16/14 A3011 RMK AO2 T01610138 $,0,0.0,0,14481.0,0,0,0,
2026-03-22 12:15:00,METAR KVNC 221215Z AUTO 01004KT 8SM CLR 15/13 A3011 RMK AO2 T01480132 $,0,4.0,0,12872.0,0,0,0,
2026-03-22 11:55:00,METAR KVNC 221155Z AUTO 02003KT 8SM CLR 13/12 A3010 RMK AO2 T01310117 10151 20118 53014 $,0,3.0,0,12872.0,0,0,0,
2026-03-22 11:35:00,METAR KVNC 221135Z AUTO 02003KT 8SM CLR 13/11 A3009 RMK AO2 T01270115 $,0,3.0,0,12872.0,0,0,0,
2026-03-22 11:15:00,METAR KVNC 221115Z AUTO 36004KT 10SM CLR 13/12 A3009 RMK AO2 T01280117 $,0,4.0,0,16090.0,0,0,0,
2026-03-22 10:55:00,METAR KVNC 221055Z AUTO 00000KT 10SM CLR 13/12 A3008 RMK AO2 T01260117 $,0,0.0,0,16090.0,0,0,0,
2026-03-22 10:35:00,METAR KVNC 221035Z AUTO 00000KT 10SM CLR 13/11 A3008 RMK AO2 T01260112 $,0,0.0,0,16090.0,0,0,0,
2026-03-22 10:15:00,METAR KVNC 221015Z AUTO 03003KT 9SM CLR 12/11 A3008 RMK AO2 T01220115 $,0,3.0,0,14481.0,0,0,0,
2026-03-22 09:55:00,METAR KVNC 220955Z AUTO 01003KT 10SM CLR 13/12 A3007 RMK AO2 T01330120 $,0,3.0,0,16090.0,0,0,0,
2026-03-22 09:35:00,METAR KVNC 220935Z AUTO 00000KT 10SM CLR 13/12 A3006 RMK AO2 T01340121 $,0,0.0,0,16090.0,0,0,0,
2026-03-22 09:15:00,METAR KVNC 220915Z AUTO 00000KT 10SM CLR 12/11 A3006 RMK AO2 T01240115 $,0,0.0,0,16090.0,0,0,0,
2026-03-22 08:55:00,METAR KVNC 220855Z AUTO 00000KT 10SM CLR 13/12 A3006 RMK AO2 T01270117 55006 $,0,0.0,0,16090.0,0,0,0,
2026-03-22 08:35:00,METAR KVNC 220835Z AUTO 00000KT 10SM CLR 13/12 A3005 RMK AO2 T01260119 $,0,0.0,0,16090.0,0,0,0,
2026-03-22 08:15:00,METAR KVNC 220815Z AUTO 00000KT 9SM CLR 12/12 A3006 RMK AO2 T01200115 $,0,0.0,0,14481.0,0,0,0,
2026-03-22 07:55:00,METAR KVNC 220755Z AUTO 00000KT 9SM CLR 12/11 A3005 RMK AO2 T01200114 $,0,0.0,0,14481.0,0,0,0,
2026-03-22 07:35:00,METAR KVNC 220735Z AUTO 00000KT 10SM CLR 13/12 A3006 RMK AO2 T01280117 $,0,0.0,0,16090.0,0,0,0,
2026-03-22 07:15:00,METAR KVNC 220715Z AUTO 00000KT 9SM CLR 13/12 A3006 RMK AO2 T01270119 $,0,0.0,0,14481.0,0,0,0,
2026-03-22 06:55:00,METAR KVNC 220655Z AUTO 00000KT 10SM CLR 13/12 A3007 RMK AO2 T01330116 $,0,0.0,0,16090.0,0,0,0,
2026-03-22 06:35:00,METAR KVNC 220635Z AUTO 06004KT 10SM CLR 13/12 A3007 RMK AO2 T01300120 $,0,4.0,0,16090.0,0,0,0,
2026-03-22 06:15:00,METAR KVNC 220615Z AUTO 00000KT 10SM CLR 15/13 A3007 RMK AO2 T01470128 $,0,0.0,0,16090.0,0,0,0,
2026-03-22 05:55:00,METAR KVNC 220555Z AUTO 01003KT 10SM CLR 14/12 A3008 RMK AO2 T01440124 10200 20141 58005 $,0,3.0,0,16090.0,0,0,0,
2026-03-22 05:35:00,METAR KVNC 220535Z AUTO 00000KT 10SM CLR 16/13 A3008 RMK AO2 T01570132 $,0,0.0,0,16090.0,0,0,0,
2026-03-22 05:15:00,METAR KVNC 220515Z AUTO 00000KT 10SM CLR 16/13 A3008 RMK AO2 T01570129 $,0,0.0,0,16090.0,0,0,0,
2026-03-22 04:55:00,METAR KVNC 220455Z AUTO 33003KT 10SM CLR 18/13 A3008 RMK AO2 T01850131 402350112 $,0,3.0,0,16090.0,0,0,0,
2026-03-22 04:35:00,METAR KVNC 220435Z AUTO 33004KT 10SM CLR 19/13 A3008 RMK AO2 T01880130 $,0,4.0,0,16090.0,0,0,0,
2026-03-22 04:15:00,METAR KVNC 220415Z AUTO 33005KT 10SM CLR 19/13 A3008 RMK AO2 T01890135 $,0,5.0,0,16090.0,0,0,0,
2026-03-22 03:55:00,METAR KVNC 220355Z AUTO 32007KT 10SM CLR 19/14 A3009 RMK AO2 T01900136 $,0,7.0,0,16090.0,0,0,0,
2026-03-22 03:35:00,METAR KVNC 220335Z AUTO 32007KT 10SM CLR 19/14 A3009 RMK AO2 T01920136 $,0,7.0,0,16090.0,0,0,0,
2026-03-22 03:15:00,METAR KVNC 220315Z AUTO 32008KT 10SM CLR 19/13 A3009 RMK AO2 T01950134 $,0,8.0,0,16090.0,0,0,0,
2026-03-22 02:55:00,METAR KVNC 220255Z AUTO 31008KT 10SM CLR 19/13 A3009 RMK AO2 T01950133 52006 $,0,8.0,0,16090.0,0,0,0,
2026-03-22 02:35:00,METAR KVNC 220235Z AUTO 31009KT 10SM CLR 20/13 A3009 RMK AO2 T01960133 $,0,9.0,0,16090.0,0,0,0,
2026-03-22 02:15:00,METAR KVNC 220215Z AUTO 31008KT 10SM CLR 20/13 A3009 RMK AO2 T01970130 $,0,8.0,0,16090.0,0,0,0,
2026-03-22 01:55:00,METAR KVNC 220155Z AUTO 31010KT 10SM CLR 20/13 A3008 RMK AO2 T01980127 $,0,10.0,0,16090.0,0,0,0,
2026-03-22 01:35:00,METAR KVNC 220135Z AUTO 32008KT 10SM CLR 20/13 A3008 RMK AO2 T01980130 $,0,8.0,0,16090.0,0,0,0,
2026-03-22 01:15:00,METAR KVNC 220115Z AUTO 32010KT 10SM CLR 20/13 A3008 RMK AO2 T01990130 $,0,10.0,0,16090.0,0,0,0,
2026-03-22 00:55:00,METAR KVNC 220055Z AUTO 32010KT 10SM CLR 20/13 A3008 RMK AO2 T01990130 $,0,10.0,0,16090.0,0,0,0,
2026-03-22 00:35:00,METAR KVNC 220035Z AUTO 32012KT 10SM CLR 20/13 A3008 RMK AO2 T02000130 $,0,12.0,0,16090.0,0,0,0,
2026-03-22 00:15:00,METAR KVNC 220015Z AUTO 32009KT 10SM CLR 20/13 A3008 RMK AO2 T02000128 $,0,9.0,0,16090.0,0,0,0,
2026-03-21 23:55:00,METAR KVNC 212355Z AUTO 31011KT 9SM CLR 20/13 A3007 RMK AO2 T02010128 10235 20201 53003 $,0,11.0,0,14481.0,0,0,0,
2026-03-21 23:35:00,METAR KVNC 212335Z AUTO 31010KT 9SM CLR 20/13 A3007 RMK AO2 T02030128 $,0,10.0,0,14481.0,0,0,0,
2026-03-21 23:15:00,METAR KVNC 212315Z AUTO 31012KT 10SM CLR 21/12 A3007 RMK AO2 T02060124 $,0,12.0,0,16090.0,0,0,0,
2026-03-21 22:55:00,METAR KVNC 212255Z AUTO 31012KT 9SM CLR 21/13 A3007 RMK AO2 T02110126 $,0,12.0,0,14481.0,0,0,0,
2026-03-21 22:35:00,METAR KVNC 212235Z AUTO 31012KT 10SM CLR 21/12 A3007 RMK AO2 T02120123 $,0,12.0,0,16090.0,0,0,0,
2026-03-21 22:15:00,METAR KVNC 212215Z AUTO 31012KT 10SM CLR 21/13 A3007 RMK AO2 T02150129 $,0,12.0,0,16090.0,0,0,0,
2026-03-21 21:55:00,METAR KVNC 212155Z AUTO 31014KT 10SM CLR 22/12 A3006 RMK AO2 T02170121 $,0,14.0,0,16090.0,0,0,0,
2026-03-21 21:35:00,METAR KVNC 212135Z AUTO 31013KT 10SM CLR 22/12 A3006 RMK AO2 T02200123 $,0,13.0,0,16090.0,0,0,0,
2026-03-21 21:15:00,METAR KVNC 212115Z AUTO 32013KT 9SM CLR 22/13 A3006 RMK AO2 T02240130 $,0,13.0,0,14481.0,0,0,0,
2026-03-21 20:55:00,METAR KVNC 212055Z AUTO 31013KT 9SM CLR 23/13 A3006 RMK AO2 T02270134 56018 $,0,13.0,0,14481.0,0,0,0,
2026-03-21 20:35:00,METAR KVNC 212035Z AUTO 30013KT 9SM CLR 23/13 A3007 RMK AO2 T02330127 $,0,13.0,0,14481.0,0,0,0,
2026-03-21 20:15:00,METAR KVNC 212015Z AUTO 30012KT 10SM CLR 23/13 A3007 RMK AO2 T02270130 $,0,12.0,0,16090.0,0,0,0,
2026-03-21 19:55:00,METAR KVNC 211955Z AUTO 31013KT 9SM CLR 23/13 A3008 RMK AO2 T02260129 $,0,13.0,0,14481.0,0,0,0,
2026-03-21 19:35:00,METAR KVNC 211935Z AUTO 30013KT 10SM CLR 23/13 A3008 RMK AO2 T02310132 $,0,13.0,0,16090.0,0,0,0,
2026-03-21 19:15:00,METAR KVNC 211915Z AUTO 30013KT 10SM CLR 23/14 A3008 RMK AO2 T02260139 $,0,13.0,0,16090.0,0,0,0,
2026-03-21 18:55:00,METAR KVNC 211855Z AUTO 30011KT 10SM CLR 23/14 A3010 RMK AO2 T02320137 $,0,11.0,0,16090.0,0,0,0,
2026-03-21 18:35:00,METAR KVNC 211835Z AUTO 30012KT 10SM CLR 23/14 A3010 RMK AO2 T02340137 $,0,12.0,0,16090.0,0,0,0,
2026-03-21 18:15:00,METAR KVNC 211815Z AUTO 29012KT 10SM CLR 23/14 A3011 RMK AO2 T02260141 $,0,12.0,0,16090.0,0,0,0,
2026-03-21 17:55:00,METAR KVNC 211755Z AUTO 29011KT 10SM CLR 22/14 A3012 RMK AO2 T02230144 10234 20115 58010 $,0,11.0,0,16090.0,0,0,0,
2026-03-21 17:35:00,METAR KVNC 211735Z AUTO 29012KT 10SM CLR 23/15 A3012 RMK AO2 T02340145 $,0,12.0,0,16090.0,0,0,0,
2026-03-21 17:15:00,METAR KVNC 211715Z AUTO 30009KT 10SM CLR 22/15 A3013 RMK AO2 T02250148 $,0,9.0,0,16090.0,0,0,0,
2026-03-21 16:55:00,METAR KVNC 211655Z AUTO 30009KT 10SM CLR 22/14 A3014 RMK AO2 T02250136 $,0,9.0,0,16090.0,0,0,0,
2026-03-21 16:35:00,METAR KVNC 211635Z AUTO 31009KT 10SM CLR 22/13 A3014 RMK AO2 T02230132 $,0,9.0,0,16090.0,0,0,0,
2026-03-21 16:15:00,METAR KVNC 211615Z AUTO 30010KT 10SM FEW330 22/13 A3014 RMK AO2 T02200133 $,0,10.0,0,16090.0,0,0,0,
2026-03-21 15:55:00,METAR KVNC 211555Z AUTO 29008KT 250V310 10SM CLR 22/12 A3014 RMK AO2 T02190123 $,0,8.0,0,16090.0,0,0,0,
2026-03-21 15:35:00,METAR KVNC 211535Z AUTO 28008KT 10SM CLR 22/12 A3014 RMK AO2 T02160118 $,0,8.0,0,16090.0,0,0,0,
2026-03-21 14:35:00,METAR KVNC 211435Z AUTO 00000KT 10SM CLR 20/12 A3014 RMK AO2 T02030123 $,0,0.0,0,16090.0,0,0,0,
2026-03-21 14:15:00,METAR KVNC 211415Z AUTO 00000KT 10SM CLR 19/13 A3015 RMK AO2 T01900128 $,0,0.0,0,16090.0,0,0,0,
2026-03-21 13:55:00,METAR KVNC 211355Z AUTO 36005KT 9SM CLR 18/13 A3014 RMK AO2 T01800129 $,0,5.0,0,14481.0,0,0,0,
2026-03-21 13:35:00,METAR KVNC 211335Z AUTO 02007KT 350V050 9SM CLR 18/13 A3014 RMK AO2 T01810134 $,0,7.0,0,14481.0,0,0,0,
2026-03-21 13:15:00,METAR KVNC 211315Z AUTO 05005KT 9SM CLR 17/13 A3013 RMK AO2 T01690132 $,0,5.0,0,14481.0,0,0,0,
2026-03-21 12:55:00,METAR KVNC 211255Z AUTO 05006KT 9SM CLR 15/13 A3012 RMK AO2 T01540130 $,0,6.0,0,14481.0,0,0,0,
2026-03-21 12:35:00,METAR KVNC 211235Z AUTO 05006KT 9SM CLR 15/13 A3012 RMK AO2 T01470128 $,0,6.0,0,14481.0,0,0,0,
2026-03-21 12:15:00,METAR KVNC 211215Z AUTO 05004KT 8SM CLR 13/11 A3011 RMK AO2 T01280114 $,0,4.0,0,12872.0,0,0,0,
2026-03-21 11:55:00,METAR KVNC 211155Z AUTO 04003KT 10SM CLR 12/10 A3010 RMK AO2 T01190105 10155 20117 53012 $,0,3.0,0,16090.0,0,0,0,
2026-03-21 11:35:00,METAR KVNC 211135Z AUTO 00000KT 9SM CLR 12/11 A3010 RMK AO2 T01220107 $,0,0.0,0,14481.0,0,0,0,
2026-03-21 11:15:00,METAR KVNC 211115Z AUTO 00000KT 10SM CLR 13/11 A3009 RMK AO2 T01260110 $,0,0.0,0,16090.0,0,0,0,
2026-03-21 10:55:00,METAR KVNC 211055Z AUTO 06005KT 10SM CLR 12/11 A3009 RMK AO2 T01230107 $,0,5.0,0,16090.0,0,0,0,
2026-03-21 10:35:00,METAR KVNC 211035Z AUTO 06005KT 10SM CLR 12/11 A3008 RMK AO2 T01220106 $,0,5.0,0,16090.0,0,0,0,
2026-03-21 10:15:00,METAR KVNC 211015Z AUTO 06006KT 10SM CLR 12/11 A3008 RMK AO2 T01220106 $,0,6.0,0,16090.0,0,0,0,
2026-03-21 09:55:00,METAR KVNC 210955Z AUTO 06005KT 10SM CLR 13/11 A3007 RMK AO2 T01250109 $,0,5.0,0,16090.0,0,0,0,
2026-03-21 09:35:00,METAR KVNC 210935Z AUTO 05006KT 10SM CLR 12/11 A3007 RMK AO2 T01230106 $,0,6.0,0,16090.0,0,0,0,
2026-03-21 09:15:00,METAR KVNC 210915Z AUTO 05005KT 10SM CLR 12/11 A3006 RMK AO2 T01240105 $,0,5.0,0,16090.0,0,0,0,
2026-03-21 08:55:00,METAR KVNC 210855Z AUTO 04005KT 10SM CLR 13/11 A3007 RMK AO2 T01260106 58007 $,0,5.0,0,16090.0,0,0,0,
2026-03-21 08:35:00,METAR KVNC 210835Z AUTO 04004KT 9SM CLR 13/11 A3007 RMK AO2 T01270106 $,0,4.0,0,14481.0,0,0,0,
2026-03-21 08:15:00,METAR KVNC 210815Z AUTO 04005KT 10SM CLR 13/10 A3007 RMK AO2 T01280103 $,0,5.0,0,16090.0,0,0,0,
2026-03-21 07:55:00,METAR KVNC 210755Z AUTO 04005KT 10SM CLR 13/10 A3007 RMK AO2 T01290104 $,0,5.0,0,16090.0,0,0,0,
2026-03-21 07:35:00,METAR KVNC 210735Z AUTO 03005KT 10SM CLR 14/11 A3007 RMK AO2 T01350105 $,0,5.0,0,16090.0,0,0,0,
2026-03-21 07:15:00,METAR KVNC 210715Z AUTO 04004KT 10SM CLR 13/10 A3008 RMK AO2 T01330104 $,0,4.0,0,16090.0,0,0,0,
2026-03-21 06:55:00,METAR KVNC 210655Z AUTO 02005KT 9SM CLR 14/10 A3008 RMK AO2 T01420105 $,0,5.0,0,14481.0,0,0,0,
2026-03-21 06:35:00,METAR KVNC 210635Z AUTO 04005KT 9SM CLR 15/10 A3008 RMK AO2 T01470105 $,0,5.0,0,14481.0,0,0,0,
2026-03-21 06:15:00,METAR KVNC 210615Z AUTO 05004KT 10SM CLR 15/11 A3008 RMK AO2 T01520105 $,0,4.0,0,16090.0,0,0,0,
2026-03-21 05:55:00,METAR KVNC 210555Z AUTO 05004KT 10SM CLR 15/11 A3009 RMK AO2 T01500106 10200 20150 58009 $,0,4.0,0,16090.0,0,0,0,
2026-03-21 05:35:00,METAR KVNC 210535Z AUTO 05005KT 10SM CLR 15/11 A3009 RMK AO2 T01510106 $,0,5.0,0,16090.0,0,0,0,
2026-03-21 05:15:00,METAR KVNC 210515Z AUTO 07005KT 9SM CLR 16/11 A3009 RMK AO2 T01560105 $,0,5.0,0,14481.0,0,0,0,
2026-03-21 04:55:00,METAR KVNC 210455Z AUTO 04005KT 9SM CLR 16/11 A3010 RMK AO2 T01550107 402680126 $,0,5.0,0,14481.0,0,0,0,
2026-03-21 04:35:00,METAR KVNC 210435Z AUTO 03007KT 10SM CLR 16/11 A3011 RMK AO2 T01620108 $,0,7.0,0,16090.0,0,0,0,
2026-03-21 04:15:00,METAR KVNC 210415Z AUTO 02006KT 9SM CLR 16/11 A3011 RMK AO2 T01600111 $,0,6.0,0,14481.0,0,0,0,
2026-03-21 03:55:00,METAR KVNC 210355Z AUTO 02004KT 10SM CLR 17/11 A3011 RMK AO2 T01690113 $,0,4.0,0,16090.0,0,0,0,
2026-03-21 03:35:00,METAR KVNC 210335Z AUTO 00000KT 9SM CLR 17/11 A3011 RMK AO2 T01710112 $,0,0.0,0,14481.0,0,0,0,
2026-03-21 03:15:00,METAR KVNC 210315Z AUTO 00000KT 9SM CLR 18/12 A3012 RMK AO2 T01810122 $,0,0.0,0,14481.0,0,0,0,
2026-03-21 02:55:00,METAR KVNC 210255Z AUTO 00000KT 10SM CLR 19/13 A3011 RMK AO2 T01860127 53021 $,0,0.0,0,16090.0,0,0,0,
2026-03-21 02:35:00,METAR KVNC 210235Z AUTO 34005KT 9SM CLR 19/13 A3011 RMK AO2 T01920129 $,0,5.0,0,14481.0,0,0,0,
2026-03-21 02:15:00,METAR KVNC 210215Z AUTO 33005KT 9SM CLR 19/14 A3010 RMK AO2 T01920136 $,0,5.0,0,14481.0,0,0,0,
2026-03-21 01:55:00,METAR KVNC 210155Z AUTO 34006KT 9SM CLR 20/14 A3009 RMK AO2 T01950141 $,0,6.0,0,14481.0,0,0,0,
2026-03-21 01:35:00,METAR KVNC 210135Z AUTO 33006KT 9SM CLR 20/15 A3009 RMK AO2 T01950145 $,0,6.0,0,14481.0,0,0,0,
2026-03-21 01:15:00,METAR KVNC 210115Z AUTO 33007KT 9SM CLR 20/15 A3008 RMK AO2 T01960148 $,0,7.0,0,14481.0,0,0,0,
2026-03-21 00:55:00,METAR KVNC 210055Z AUTO 33009KT 9SM CLR 20/15 A3007 RMK AO2 T01980146 $,0,9.0,0,14481.0,0,0,0,
2026-03-21 00:35:00,METAR KVNC 210035Z AUTO 32010KT 9SM CLR 20/14 A3006 RMK AO2 T01980141 $,0,10.0,0,14481.0,0,0,0,
2026-03-21 00:15:00,METAR KVNC 210015Z AUTO 32011KT 9SM CLR 20/14 A3005 RMK AO2 T02000143 $,0,11.0,0,14481.0,0,0,0,
2026-03-20 23:55:00,METAR KVNC 202355Z AUTO 32013KT 8SM CLR 20/14 A3005 RMK AO2 T02000141 10268 20200 53004 $,0,13.0,0,12872.0,0,0,0,
2026-03-20 23:35:00,METAR KVNC 202335Z AUTO 32014KT 7SM CLR 20/14 A3005 RMK AO2 T02000143 $,0,14.0,0,11263.0,0,0,0,
2026-03-20 23:15:00,METAR KVNC 202315Z AUTO 33013KT 8SM CLR 20/14 A3004 RMK AO2 T02030144 $,0,13.0,0,12872.0,0,0,0,
2026-03-20 22:55:00,METAR KVNC 202255Z AUTO 32018KT 8SM CLR 20/14 A3004 RMK AO2 T02050141 $,0,18.0,0,12872.0,0,0,0,
2026-03-20 22:35:00,METAR KVNC 202235Z AUTO 32015KT 7SM CLR 21/14 A3003 RMK AO2 T02060142 $,0,15.0,0,11263.0,0,0,0,
2026-03-20 22:15:00,METAR KVNC 202215Z AUTO 31015KT 8SM CLR 21/14 A3003 RMK AO2 T02090143 $,0,15.0,0,12872.0,0,0,0,
2026-03-20 21:55:00,METAR KVNC 202155Z AUTO 32015KT 8SM CLR 21/15 A3003 RMK AO2 T02100146 $,0,15.0,0,12872.0,0,0,0,
2026-03-20 21:35:00,METAR KVNC 202135Z AUTO 31014KT 8SM CLR 21/15 A3003 RMK AO2 T02130146 $,0,14.0,0,12872.0,0,0,0,
2026-03-20 21:15:00,METAR KVNC 202115Z AUTO 31017KT 8SM CLR 22/15 A3003 RMK AO2 T02150151 $,0,17.0,0,12872.0,0,0,0,
2026-03-20 20:55:00,METAR KVNC 202055Z AUTO 30016KT 8SM CLR 22/15 A3004 RMK AO2 T02230153 56019 $,0,16.0,0,12872.0,0,0,0,
2026-03-20 20:35:00,METAR KVNC 202035Z AUTO 30018KT 8SM CLR 23/16 A3004 RMK AO2 T02320156 $,0,18.0,0,12872.0,0,0,0,
2026-03-20 20:15:00,METAR KVNC 202015Z AUTO 05006KT 9SM CLR 26/07 A3004 RMK AO2 T02590074 $,0,6.0,0,14481.0,0,0,0,
2026-03-20 19:55:00,METAR KVNC 201955Z AUTO 02012G15KT 8SM CLR 26/08 A3005 RMK AO2 T02610080 $,0,12.0,1,12872.0,0,0,0,
2026-03-20 19:35:00,METAR KVNC 201935Z AUTO 36009KT 330V060 9SM CLR 26/07 A3005 RMK AO2 T02600072 $,0,9.0,0,14481.0,0,0,0,
2026-03-20 19:15:00,METAR KVNC 201915Z AUTO 03011KT 9SM CLR 26/08 A3006 RMK AO2 T02580080 $,0,11.0,0,14481.0,0,0,0,
2026-03-20 18:55:00,METAR KVNC 201855Z AUTO 04010G15KT 020V090 9SM FEW380 26/08 A3006 RMK AO2 T02580084 $,0,10.0,1,14481.0,0,0,0,
2026-03-20 18:35:00,METAR KVNC 201835Z AUTO 03006KT 9SM CLR 26/08 A3007 RMK AO2 T02580077 $,0,6.0,0,14481.0,0,0,0,
2026-03-20 18:15:00,METAR KVNC 201815Z AUTO 02009KT 9SM CLR 25/08 A3008 RMK AO2 T02520084 $,0,9.0,0,14481.0,0,0,0,
2026-03-20 17:55:00,METAR KVNC 201755Z AUTO 03007KT 9SM CLR 25/09 A3010 RMK AO2 T02460088 10251 20130 58012 $,0,7.0,0,14481.0,0,0,0,
2026-03-20 17:35:00,METAR KVNC 201735Z AUTO 35010G15KT 9SM CLR 25/09 A3010 RMK AO2 T02460091 $,0,10.0,1,14481.0,0,0,0,
2026-03-20 17:15:00,METAR KVNC 201715Z AUTO 03012G17KT 9SM CLR 24/10 A3011 RMK AO2 T02450098 $,0,12.0,1,14481.0,0,0,0,
2026-03-20 16:55:00,METAR KVNC 201655Z AUTO 07011KT 8SM CLR 24/10 A3012 RMK AO2 T02420103 $,0,11.0,0,12872.0,0,0,0,
2026-03-20 16:35:00,METAR KVNC 201635Z AUTO 03011G16KT 9SM CLR 24/11 A3012 RMK AO2 T02380109 $,0,11.0,1,14481.0,0,0,0,
2026-03-20 16:15:00,METAR KVNC 201615Z AUTO 04013G19KT 9SM FEW330 23/11 A3012 RMK AO2 T02310109 $,0,13.0,1,14481.0,0,0,0,
2026-03-20 15:55:00,METAR KVNC 201555Z AUTO 04009KT 9SM CLR 23/11 A3013 RMK AO2 T02260111 $,0,9.0,0,14481.0,0,0,0,
2026-03-20 15:35:00,METAR KVNC 201535Z AUTO 06011KT 9SM CLR 22/11 A3013 RMK AO2 T02240113 $,0,11.0,0,14481.0,0,0,0,
2026-03-20 15:15:00,METAR KVNC 201515Z AUTO 05011KT 9SM CLR 22/11 A3013 RMK AO2 T02160112 $,0,11.0,0,14481.0,0,0,0,
2026-03-20 14:35:00,METAR KVNC 201435Z AUTO 05013KT 9SM CLR 20/11 A3013 RMK AO2 T02030108 $,0,13.0,0,14481.0,0,0,0,
2026-03-20 14:15:00,METAR KVNC 201415Z AUTO 04013KT 9SM CLR 19/10 A3014 RMK AO2 T01940101 $,0,13.0,0,14481.0,0,0,0,
2026-03-20 13:55:00,METAR KVNC 201355Z AUTO 04012KT 8SM CLR 18/09 A3013 RMK AO2 T01830087 $,0,12.0,0,12872.0,0,0,0,
2026-03-20 13:35:00,METAR KVNC 201335Z AUTO 03008KT 7SM CLR 17/08 A3013 RMK AO2 T01730076 $,0,8.0,0,11263.0,0,0,0,
2026-03-20 13:15:00,METAR KVNC 201315Z AUTO 03010KT 7SM CLR 16/07 A3013 RMK AO2 T01610069 $,0,10.0,0,11263.0,0,0,0,
2026-03-20 12:55:00,METAR KVNC 201255Z AUTO 02012KT 8SM CLR 15/07 A3013 RMK AO2 T01530066 $,0,12.0,0,12872.0,0,0,0,
2026-03-20 12:35:00,METAR KVNC 201235Z AUTO 03009KT 8SM CLR 15/07 A3013 RMK AO2 T01460069 $,0,9.0,0,12872.0,0,0,0,
2026-03-20 12:15:00,METAR KVNC 201215Z AUTO 03011KT 8SM CLR 14/07 A3012 RMK AO2 T01360072 $,0,11.0,0,12872.0,0,0,0,
2026-03-20 11:55:00,METAR KVNC 201155Z AUTO 03011KT 8SM CLR 13/08 A3012 RMK AO2 T01290078 10148 20126 51010 $,0,11.0,0,12872.0,0,0,0,
2026-03-20 11:35:00,METAR KVNC 201135Z AUTO 03009KT 8SM CLR 13/08 A3012 RMK AO2 T01260083 $,0,9.0,0,12872.0,0,0,0,
2026-03-20 11:15:00,METAR KVNC 201115Z AUTO 02007KT 9SM CLR 13/09 A3012 RMK AO2 T01270088 $,0,7.0,0,14481.0,0,0,0,
2026-03-20 10:55:00,METAR KVNC 201055Z AUTO 03009KT 9SM CLR 13/09 A3011 RMK AO2 T01270091 $,0,9.0,0,14481.0,0,0,0,
2026-03-20 10:35:00,METAR KVNC 201035Z AUTO 03010KT 9SM SCT190 13/09 A3011 RMK AO2 T01280091 $,0,10.0,0,14481.0,0,0,0,
2026-03-20 10:15:00,METAR KVNC 201015Z AUTO 02011KT 8SM BKN190 13/09 A3011 RMK AO2 T01290091 $,0,11.0,0,12872.0,0,0,0,
2026-03-20 09:55:00,METAR KVNC 200955Z AUTO 03010KT 9SM FEW200 13/09 A3010 RMK AO2 T01280090 $,0,10.0,0,14481.0,0,0,0,
2026-03-20 09:35:00,METAR KVNC 200935Z AUTO 03010KT 9SM CLR 13/09 A3010 RMK AO2 T01280090 $,0,10.0,0,14481.0,0,0,0,
2026-03-20 09:15:00,METAR KVNC 200915Z AUTO 03012KT 8SM CLR 13/09 A3009 RMK AO2 T01300091 $,0,12.0,0,12872.0,0,0,0,
2026-03-20 08:55:00,METAR KVNC 200855Z AUTO 03012KT 9SM CLR 13/09 A3009 RMK AO2 T01320091 56012 $,0,12.0,0,14481.0,0,0,0,
2026-03-20 08:35:00,METAR KVNC 200835Z AUTO 02011KT 9SM CLR 13/09 A3009 RMK AO2 T01310088 $,0,11.0,0,14481.0,0,0,0,
2026-03-20 08:15:00,METAR KVNC 200815Z AUTO 02009KT 9SM CLR 13/08 A3009 RMK AO2 T01320084 $,0,9.0,0,14481.0,0,0,0,
2026-03-20 07:55:00,METAR KVNC 200755Z AUTO 02011KT 9SM CLR 13/08 A3009 RMK AO2 T01330081 $,0,11.0,0,14481.0,0,0,0,
2026-03-20 07:35:00,METAR KVNC 200735Z AUTO 03012KT 9SM CLR 13/08 A3010 RMK AO2 T01350079 $,0,12.0,0,14481.0,0,0,0,
2026-03-20 07:15:00,METAR KVNC 200715Z AUTO 03010KT 9SM CLR 14/08 A3010 RMK AO2 T01360076 $,0,10.0,0,14481.0,0,0,0,
2026-03-20 06:55:00,METAR KVNC 200655Z AUTO 03008KT 9SM SCT070 14/07 A3011 RMK AO2 T01390073 $,0,8.0,0,14481.0,0,0,0,
2026-03-20 06:35:00,METAR KVNC 200635Z AUTO 03011KT 10SM OVC070 14/07 A3011 RMK AO2 T01440070 $,0,11.0,0,16090.0,0,0,0,
2026-03-20 06:15:00,METAR KVNC 200615Z AUTO 03012KT 9SM OVC070 15/07 A3012 RMK AO2 T01460069 $,0,12.0,0,14481.0,0,0,0,
2026-03-20 05:55:00,METAR KVNC 200555Z AUTO 03009KT 9SM OVC070 15/07 A3012 RMK AO2 T01490070 10199 20149 58004 $,0,9.0,0,14481.0,0,0,0,
2026-03-20 05:35:00,METAR KVNC 200535Z AUTO 03011KT 9SM OVC070 15/07 A3013 RMK AO2 T01500072 $,0,11.0,0,14481.0,0,0,0,
2026-03-20 05:15:00,METAR KVNC 200515Z AUTO 02011KT 10SM OVC075 15/07 A3013 RMK AO2 T01520073 $,0,11.0,0,16090.0,0,0,0,
2026-03-20 04:55:00,METAR KVNC 200455Z AUTO 02009KT 9SM BKN075 15/08 A3013 RMK AO2 T01550078 402510111 $,0,9.0,0,14481.0,0,0,0,
2026-03-20 04:35:00,METAR KVNC 200435Z AUTO 02008KT 9SM SCT070 16/08 A3013 RMK AO2 T01560077 $,0,8.0,0,14481.0,0,0,0,
2026-03-20 04:15:00,METAR KVNC 200415Z AUTO 02011KT 9SM CLR 16/08 A3014 RMK AO2 T01590081 $,0,11.0,0,14481.0,0,0,0,
2026-03-20 03:55:00,METAR KVNC 200355Z AUTO 02011KT 10SM CLR 16/09 A3014 RMK AO2 T01630086 $,0,11.0,0,16090.0,0,0,0,
2026-03-20 03:35:00,METAR KVNC 200335Z AUTO 03009KT 9SM CLR 17/09 A3014 RMK AO2 T01650092 $,0,9.0,0,14481.0,0,0,0,
2026-03-20 03:15:00,METAR KVNC 200315Z AUTO 03008KT 9SM CLR 17/09 A3014 RMK AO2 T01660093 $,0,8.0,0,14481.0,0,0,0,
2026-03-20 02:55:00,METAR KVNC 200255Z AUTO 03008KT 10SM CLR 17/09 A3014 RMK AO2 T01690093 51022 $,0,8.0,0,16090.0,0,0,0,
2026-03-20 02:35:00,METAR KVNC 200235Z AUTO 05009KT 9SM CLR 17/09 A3013 RMK AO2 T01710093 $,0,9.0,0,14481.0,0,0,0,
2026-03-20 02:15:00,METAR KVNC 200215Z AUTO 04010KT 9SM CLR 17/09 A3013 RMK AO2 T01730095 $,0,10.0,0,14481.0,0,0,0,
2026-03-20 01:55:00,METAR KVNC 200155Z AUTO 04009KT 9SM CLR 17/10 A3012 RMK AO2 T01730095 $,0,9.0,0,14481.0,0,0,0,
2026-03-20 01:35:00,METAR KVNC 200135Z AUTO 05007KT 9SM CLR 18/10 A3012 RMK AO2 T01760095 $,0,7.0,0,14481.0,0,0,0,
2026-03-20 01:15:00,METAR KVNC 200115Z AUTO 06008KT 9SM CLR 18/10 A3010 RMK AO2 T01840096 $,0,8.0,0,14481.0,0,0,0,
2026-03-20 00:55:00,METAR KVNC 200055Z AUTO 07009KT 9SM CLR 19/10 A3009 RMK AO2 T01900098 $,0,9.0,0,14481.0,0,0,0,
2026-03-20 00:35:00,METAR KVNC 200035Z AUTO 06008KT 9SM CLR 19/10 A3008 RMK AO2 T01920102 $,0,8.0,0,14481.0,0,0,0,
2026-03-20 00:15:00,METAR KVNC 200015Z AUTO 06009KT 9SM CLR 20/11 A3008 RMK AO2 T01960106 $,0,9.0,0,14481.0,0,0,0,
2026-03-19 23:55:00,METAR KVNC 192355Z AUTO 06012KT 8SM CLR 20/11 A3007 RMK AO2 T02020107 10251 20202 53008 $,0,12.0,0,12872.0,0,0,0,
2026-03-19 23:35:00,METAR KVNC 192335Z AUTO 05014KT 8SM CLR 21/11 A3007 RMK AO2 T02070106 $,0,14.0,0,12872.0,0,0,0,
2026-03-19 23:15:00,METAR KVNC 192315Z AUTO 05012KT 8SM CLR 21/11 A3006 RMK AO2 T02140105 $,0,12.0,0,12872.0,0,0,0,
2026-03-19 22:55:00,METAR KVNC 192255Z AUTO 05012KT 8SM CLR 22/11 A3005 RMK AO2 T02240106 $,0,12.0,0,12872.0,0,0,0,
2026-03-19 22:35:00,METAR KVNC 192235Z AUTO 05012KT 8SM CLR 23/10 A3005 RMK AO2 T02290100 $,0,12.0,0,12872.0,0,0,0,
2026-03-19 22:15:00,METAR KVNC 192215Z AUTO 03012G19KT 8SM CLR 23/10 A3004 RMK AO2 T02290100 $,0,12.0,1,12872.0,0,0,0,
2026-03-19 21:55:00,METAR KVNC 192155Z AUTO 04012KT 8SM CLR 23/10 A3004 RMK AO2 T02350100 $,0,12.0,0,12872.0,0,0,0,
2026-03-19 21:35:00,METAR KVNC 192135Z AUTO 04011G18KT 9SM FEW055 24/10 A3004 RMK AO2 T02380101 $,0,11.0,1,14481.0,0,0,0,
2026-03-19 21:15:00,METAR KVNC 192115Z AUTO 03012KT 9SM BKN055 24/11 A3004 RMK AO2 T02380106 $,0,12.0,0,14481.0,0,0,0,
2026-03-19 20:55:00,METAR KVNC 192055Z AUTO 02014G21KT 8SM SCT055 23/11 A3005 RMK AO2 T02350108 56020 $,0,14.0,1,12872.0,0,0,0,
2026-03-19 20:35:00,METAR KVNC 192035Z AUTO 05017G21KT 9SM SCT055 25/11 A3005 RMK AO2 T02500109 $,0,17.0,1,14481.0,0,0,0,
2026-03-19 20:15:00,METAR KVNC 192015Z AUTO 01010KT 9SM FEW055 24/11 A3005 RMK AO2 T02440106 $,0,10.0,0,14481.0,0,0,0,
2026-03-19 19:55:00,METAR KVNC 191955Z AUTO 02010KT 9SM CLR 24/11 A3005 RMK AO2 WSHFT 1912 T02430105 $,0,10.0,0,14481.0,0,0,0,
2026-03-19 19:35:00,METAR KVNC 191935Z AUTO 03011G19KT 10SM CLR 24/10 A3006 RMK AO2 WSHFT 1912 T02450101 $,0,11.0,1,16090.0,0,0,0,
2026-03-19 19:15:00,METAR KVNC 191915Z AUTO 05012KT 9SM CLR 24/10 A3006 RMK AO2 T02410097 $,0,12.0,0,14481.0,0,0,0,
2026-03-19 18:55:00,METAR KVNC 191855Z AUTO 01012KT 10SM FEW350 24/09 A3008 RMK AO2 T02370089 $,0,12.0,0,16090.0,0,0,0,
2026-03-19 18:35:00,METAR KVNC 191835Z AUTO 01011KT 260V050 9SM CLR 24/10 A3008 RMK AO2 T02370096 $,0,11.0,0,14481.0,0,0,0,
2026-03-19 18:15:00,METAR KVNC 191815Z AUTO 04013G21KT 9SM CLR 23/09 A3009 RMK AO2 T02350088 $,0,13.0,1,14481.0,0,0,0,
2026-03-19 17:55:00,METAR KVNC 191755Z AUTO 03013G21KT 9SM FEW340 23/09 A3011 RMK AO2 T02260094 10230 20117 58015 $,0,13.0,1,14481.0,0,0,0,
2026-03-19 17:35:00,METAR KVNC 191735Z AUTO 03013G19KT 9SM CLR 22/09 A3011 RMK AO2 T02250093 $,0,13.0,1,14481.0,0,0,0,
2026-03-19 17:15:00,METAR KVNC 191715Z AUTO 02011G19KT 9SM CLR 22/10 A3012 RMK AO2 T02240095 $,0,11.0,1,14481.0,0,0,0,
2026-03-19 16:55:00,METAR KVNC 191655Z AUTO 01012KT 9SM CLR 21/10 A3013 RMK AO2 T02090099 $,0,12.0,0,14481.0,0,0,0,
2026-03-19 16:35:00,METAR KVNC 191635Z AUTO 01008KT 8SM FEW280 20/10 A3013 RMK AO2 T02030098 $,0,8.0,0,12872.0,0,0,0,
2026-03-19 16:15:00,METAR KVNC 191615Z AUTO 03007KT 10SM FEW300 22/10 A3014 RMK AO2 T02200103 $,0,7.0,0,16090.0,0,0,0,
2026-03-19 15:55:00,METAR KVNC 191555Z AUTO 03008KT 9SM CLR 20/10 A3014 RMK AO2 T02050100 $,0,8.0,0,14481.0,0,0,0,
2026-03-19 15:35:00,METAR KVNC 191535Z AUTO 01008KT 8SM CLR 19/10 A3015 RMK AO2 T01930097 $,0,8.0,0,12872.0,0,0,0,
2026-03-19 15:15:00,METAR KVNC 191515Z AUTO 03009KT 350V060 9SM CLR 20/10 A3015 RMK AO2 T01950097 $,0,9.0,0,14481.0,0,0,0,
2026-03-19 14:55:00,METAR KVNC 191455Z AUTO 01010KT 9SM FEW180 18/09 A3015 RMK AO2 T01780091 51008 $,0,10.0,0,14481.0,0,0,0,
2026-03-19 14:35:00,METAR KVNC 191435Z AUTO 02010KT 7SM BKN180 16/09 A3016 RMK AO2 T01640085 $,0,10.0,0,11263.0,0,0,0,
2026-03-19 14:15:00,METAR KVNC 191415Z AUTO 03012KT 9SM BKN170 17/08 A3015 RMK AO2 T01740081 $,0,12.0,0,14481.0,0,0,0,
2026-03-19 13:55:00,METAR KVNC 191355Z AUTO 02014KT 9SM CLR 16/06 A3015 RMK AO2 T01560063 $,0,14.0,0,14481.0,0,0,0,
2026-03-19 13:35:00,METAR KVNC 191335Z AUTO 03011KT 9SM CLR 14/05 A3015 RMK AO2 T01390049 $,0,11.0,0,14481.0,0,0,0,
2026-03-19 13:15:00,METAR KVNC 191315Z AUTO 02011KT 8SM CLR 14/04 A3015 RMK AO2 T01390041 $,0,11.0,0,12872.0,0,0,0,
2026-03-19 12:55:00,METAR KVNC 191255Z AUTO 02013KT 8SM CLR 14/03 A3014 RMK AO2 T01350035 $,0,13.0,0,12872.0,0,0,0,
2026-03-19 12:35:00,METAR KVNC 191235Z AUTO 02011KT 8SM CLR 13/03 A3014 RMK AO2 T01290033 $,0,11.0,0,12872.0,0,0,0,
2026-03-19 12:15:00,METAR KVNC 191215Z AUTO 03012KT 9SM CLR 12/03 A3014 RMK AO2 T01200033 $,0,12.0,0,14481.0,0,0,0,
2026-03-19 11:55:00,METAR KVNC 191155Z AUTO 02012KT 9SM FEW210 12/03 A3013 RMK AO2 T01160032 10132 20111 53010 $,0,12.0,0,14481.0,0,0,0,
2026-03-19 11:35:00,METAR KVNC 191135Z AUTO 02013G18KT 9SM CLR 12/03 A3013 RMK AO2 T01150033 $,0,13.0,1,14481.0,0,0,0,
2026-03-19 11:15:00,METAR KVNC 191115Z AUTO 03011KT 10SM CLR 11/03 A3012 RMK AO2 T01140034 $,0,11.0,0,16090.0,0,0,0,
2026-03-19 10:55:00,METAR KVNC 191055Z AUTO 03010KT 9SM CLR 11/04 A3012 RMK AO2 T01120036 $,0,10.0,0,14481.0,0,0,0,
2026-03-19 10:35:00,METAR KVNC 191035Z AUTO 03011KT 10SM CLR 11/04 A3011 RMK AO2 T01120037 $,0,11.0,0,16090.0,0,0,0,
2026-03-19 10:15:00,METAR KVNC 191015Z AUTO 03013KT 10SM CLR 11/04 A3011 RMK AO2 T01110038 $,0,13.0,0,16090.0,0,0,0,
2026-03-19 09:55:00,METAR KVNC 190955Z AUTO 03012KT 10SM CLR 11/03 A3010 RMK AO2 T01130033 $,0,12.0,0,16090.0,0,0,0,
2026-03-19 09:35:00,METAR KVNC 190935Z AUTO 03012KT 10SM CLR 11/03 A3010 RMK AO2 T01120029 $,0,12.0,0,16090.0,0,0,0,
2026-03-19 09:15:00,METAR KVNC 190915Z AUTO 03012KT 10SM CLR 11/03 A3010 RMK AO2 T01140027 $,0,12.0,0,16090.0,0,0,0,
2026-03-19 08:55:00,METAR KVNC 190855Z AUTO 03009KT 10SM CLR 11/03 A3010 RMK AO2 T01130034 58011 $,0,9.0,0,16090.0,0,0,0,
2026-03-19 08:35:00,METAR KVNC 190835Z AUTO 03011KT 10SM CLR 11/04 A3010 RMK AO2 T01140037 $,0,11.0,0,16090.0,0,0,0,
2026-03-19 08:15:00,METAR KVNC 190815Z AUTO 03011KT 10SM CLR 12/04 A3011 RMK AO2 T01150044 $,0,11.0,0,16090.0,0,0,0,
2026-03-19 07:35:00,METAR KVNC 190735Z AUTO 03010KT 10SM CLR 12/07 A3012 RMK AO2 T01180065 $,0,10.0,0,16090.0,0,0,0,
2026-03-19 07:15:00,METAR KVNC 190715Z AUTO 04010KT 10SM CLR 12/06 A3011 RMK AO2 T01230065 $,0,10.0,0,16090.0,0,0,0,
2026-03-19 06:55:00,METAR KVNC 190655Z AUTO 04010KT 10SM CLR 13/07 A3012 RMK AO2 T01250071 $,0,10.0,0,16090.0,0,0,0,
2026-03-19 06:35:00,METAR KVNC 190635Z AUTO 04011KT 10SM CLR 13/08 A3012 RMK AO2 T01280076 $,0,11.0,0,16090.0,0,0,0,
2026-03-19 06:15:00,METAR KVNC 190615Z AUTO 04010KT 10SM CLR 13/08 A3013 RMK AO2 T01310083 $,0,10.0,0,16090.0,0,0,0,
2026-03-19 05:55:00,METAR KVNC 190555Z AUTO 04010KT 10SM CLR 13/09 A3013 RMK AO2 T01320087 10194 20132 58004 $,0,10.0,0,16090.0,0,0,0,
2026-03-19 05:35:00,METAR KVNC 190535Z AUTO 04012KT 10SM CLR 14/09 A3013 RMK AO2 T01360088 $,0,12.0,0,16090.0,0,0,0,
2026-03-19 05:15:00,METAR KVNC 190515Z AUTO 05012KT 10SM CLR 14/09 A3014 RMK AO2 T01380091 $,0,12.0,0,16090.0,0,0,0,
2026-03-19 04:55:00,METAR KVNC 190455Z AUTO 05012KT 10SM CLR 14/09 A3014 RMK AO2 T01400094 402220084 $,0,12.0,0,16090.0,0,0,0,
2026-03-19 04:35:00,METAR KVNC 190435Z AUTO 05013KT 10SM CLR 14/10 A3014 RMK AO2 T01420096 $,0,13.0,0,16090.0,0,0,0,
2026-03-19 04:15:00,METAR KVNC 190415Z AUTO 05010KT 10SM CLR 15/10 A3014 RMK AO2 T01450097 $,0,10.0,0,16090.0,0,0,0,
2026-03-19 03:55:00,METAR KVNC 190355Z AUTO 04009KT 10SM CLR 15/10 A3015 RMK AO2 T01510097 $,0,9.0,0,16090.0,0,0,0,
2026-03-19 03:35:00,METAR KVNC 190335Z AUTO 05013KT 10SM CLR 15/10 A3015 RMK AO2 T01520096 $,0,13.0,0,16090.0,0,0,0,
2026-03-19 03:15:00,METAR KVNC 190315Z AUTO 04007KT 10SM CLR 15/10 A3015 RMK AO2 T01510097 $,0,7.0,0,16090.0,0,0,0,
2026-03-19 02:55:00,METAR KVNC 190255Z AUTO 05009KT 10SM CLR 16/10 A3014 RMK AO2 T01570098 51015 $,0,9.0,0,16090.0,0,0,0,
2026-03-19 02:35:00,METAR KVNC 190235Z AUTO 05008KT 10SM CLR 16/09 A3014 RMK AO2 T01600095 $,0,8.0,0,16090.0,0,0,0,
2026-03-19 02:15:00,METAR KVNC 190215Z AUTO 06009KT 10SM CLR 17/09 A3013 RMK AO2 T01660091 $,0,9.0,0,16090.0,0,0,0,
2026-03-19 01:55:00,METAR KVNC 190155Z AUTO 06007KT 10SM CLR 17/08 A3013 RMK AO2 T01680077 $,0,7.0,0,16090.0,0,0,0,
2026-03-19 01:35:00,METAR KVNC 190135Z AUTO 06007KT 10SM CLR 17/06 A3013 RMK AO2 T01700063 $,0,7.0,0,16090.0,0,0,0,
2026-03-19 01:15:00,METAR KVNC 190115Z AUTO 06009KT 10SM BKN055 18/05 A3012 RMK AO2 T01760053 $,0,9.0,0,16090.0,0,0,0,
2026-03-19 00:55:00,METAR KVNC 190055Z AUTO 03008KT 10SM OVC055 19/05 A3011 RMK AO2 T01860050 $,0,8.0,0,16090.0,0,0,0,
2026-03-19 00:35:00,METAR KVNC 190035Z AUTO 03008KT 10SM OVC055 19/05 A3011 RMK AO2 T01880053 $,0,8.0,0,16090.0,0,0,0,
2026-03-19 00:15:00,METAR KVNC 190015Z AUTO 04006KT 10SM OVC055 19/07 A3011 RMK AO2 T01900065 $,0,6.0,0,16090.0,0,0,0,
2026-03-18 23:55:00,METAR KVNC 182355Z AUTO 03007KT 10SM BKN055 19/06 A3010 RMK AO2 T01940061 10222 20194 53007 $,0,7.0,0,16090.0,0,0,0,
2026-03-18 23:35:00,METAR KVNC 182335Z AUTO 03007KT 10SM FEW055 20/06 A3009 RMK AO2 T01970062 $,0,7.0,0,16090.0,0,0,0,
2026-03-18 23:15:00,METAR KVNC 182315Z AUTO 04007KT 9SM FEW055 20/06 A3009 RMK AO2 T02040064 $,0,7.0,0,14481.0,0,0,0,
2026-03-18 22:55:00,METAR KVNC 182255Z AUTO 03009KT 9SM SCT055 21/07 A3008 RMK AO2 T02080067 $,0,9.0,0,14481.0,0,0,0,
2026-03-18 22:35:00,METAR KVNC 182235Z AUTO 02009KT 10SM OVC050 21/07 A3008 RMK AO2 T02090068 $,0,9.0,0,16090.0,0,0,0,
2026-03-18 22:15:00,METAR KVNC 182215Z AUTO 03011KT 360V180 10SM BKN050 22/07 A3007 RMK AO2 T02170069 $,0,11.0,0,16090.0,0,0,0,
2026-03-18 21:55:00,METAR KVNC 182155Z AUTO 03009KT 10SM CLR 21/07 A3007 RMK AO2 T02120066 $,0,9.0,0,16090.0,0,0,0,
2026-03-18 21:35:00,METAR KVNC 182135Z AUTO 03012KT 9SM FEW049 21/07 A3007 RMK AO2 T02110067 $,0,12.0,0,14481.0,0,0,0,
2026-03-18 21:15:00,METAR KVNC 182115Z AUTO 05012KT 9SM BKN049 22/07 A3007 RMK AO2 T02210069 $,0,12.0,0,14481.0,0,0,0,
2026-03-18 20:55:00,METAR KVNC 182055Z AUTO 02007KT 10SM BKN049 21/07 A3008 RMK AO2 T02110069 56027 $,0,7.0,0,16090.0,0,0,0,
2026-03-18 20:35:00,METAR KVNC 182035Z AUTO 04007KT 9SM FEW048 22/07 A3008 RMK AO2 T02190072 $,0,7.0,0,14481.0,0,0,0,
2026-03-18 19:35:00,METAR KVNC 181935Z AUTO 02010KT 10SM CLR 21/07 A3010 RMK AO2 T02120071 $,0,10.0,0,16090.0,0,0,0,
2026-03-18 19:15:00,METAR KVNC 181915Z AUTO 06009KT 10SM SCT043 21/07 A3011 RMK AO2 T02120071 $,0,9.0,0,16090.0,0,0,0,
2026-03-18 18:55:00,METAR KVNC 181855Z AUTO 01008G17KT 10SM OVC043 21/07 A3013 RMK AO2 T02070068 $,0,8.0,1,16090.0,0,0,0,
2026-03-18 18:35:00,METAR KVNC 181835Z AUTO 03009G15KT 10SM BKN044 BKN050 20/07 A3014 RMK AO2 T02010066 $,0,9.0,1,16090.0,0,0,0,
2026-03-18 18:15:00,METAR KVNC 181815Z AUTO 36011G18KT 340V080 10SM SCT042 BKN050 20/06 A3015 RMK AO2 T02030065 $,0,11.0,1,16090.0,0,0,0,
2026-03-18 17:55:00,METAR KVNC 181755Z AUTO 03010KT 9SM OVC040 19/06 A3016 RMK AO2 T01910061 10192 20085 58015 $,0,10.0,0,14481.0,0,0,0,
2026-03-18 17:35:00,METAR KVNC 181735Z AUTO 05010KT 10SM OVC039 19/06 A3016 RMK AO2 T01880060 $,0,10.0,0,16090.0,0,0,0,
2026-03-18 17:15:00,METAR KVNC 181715Z AUTO 03011KT 10SM OVC040 19/06 A3017 RMK AO2 T01920062 $,0,11.0,0,16090.0,0,0,0,
2026-03-18 16:55:00,METAR KVNC 181655Z AUTO 05011KT 9SM OVC039 18/06 A3018 RMK AO2 T01800059 $,0,11.0,0,14481.0,0,0,0,
2026-03-18 16:35:00,METAR KVNC 181635Z AUTO 05012KT 10SM OVC040 18/06 A3018 RMK AO2 T01790057 $,0,12.0,0,16090.0,0,0,0,
2026-03-18 16:15:00,METAR KVNC 181615Z AUTO 04012KT 9SM BKN040 17/05 A3019 RMK AO2 T01730052 $,0,12.0,0,14481.0,0,0,0,
2026-03-18 15:55:00,METAR KVNC 181555Z AUTO 04013KT 10SM FEW050 17/05 A3019 RMK AO2 T01740051 $,0,13.0,0,16090.0,0,0,0,
2026-03-18 15:35:00,METAR KVNC 181535Z AUTO 04013KT 10SM BKN049 17/05 A3019 RMK AO2 T01710049 $,0,13.0,0,16090.0,0,0,0,
2026-03-18 15:15:00,METAR KVNC 181515Z AUTO 04013KT 10SM OVC047 16/04 A3019 RMK AO2 T01580042 $,0,13.0,0,16090.0,0,0,0,
2026-03-18 14:55:00,METAR KVNC 181455Z AUTO 03011KT 10SM OVC044 14/03 A3020 RMK AO2 T01390033 51020 $,0,11.0,0,16090.0,0,0,0,
2026-03-18 14:35:00,METAR KVNC 181435Z AUTO 03012KT 7SM OVC043 13/03 A3020 RMK AO2 T01260027 $,0,12.0,0,11263.0,0,0,0,
2026-03-18 14:15:00,METAR KVNC 181415Z AUTO 04015G19KT 7SM OVC044 12/02 A3020 RMK AO2 T01170023 $,0,15.0,1,11263.0,0,0,0,
2026-03-18 13:55:00,METAR KVNC 181355Z AUTO 03012KT 9SM OVC045 12/02 A3019 RMK AO2 T01150018 $,0,12.0,0,14481.0,0,0,0,
2026-03-18 13:35:00,METAR KVNC 181335Z AUTO 02013G20KT 10SM SCT047 12/02 A3018 RMK AO2 T01150017 $,0,13.0,1,16090.0,0,0,0,
2026-03-18 13:15:00,METAR KVNC 181315Z AUTO 02012KT 9SM FEW045 12/02 A3017 RMK AO2 T01170018 $,0,12.0,0,14481.0,0,0,0,
2026-03-18 12:55:00,METAR KVNC 181255Z AUTO 03012KT 9SM CLR 10/01 A3017 RMK AO2 T01040012 $,0,12.0,0,14481.0,0,0,0,
2026-03-18 12:35:00,METAR KVNC 181235Z AUTO 03011KT 9SM CLR 09/01 A3016 RMK AO2 T00930008 $,0,11.0,0,14481.0,0,0,0,
2026-03-18 12:15:00,METAR KVNC 181215Z AUTO 03011KT 9SM CLR 09/01 A3015 RMK AO2 T00860006 $,0,11.0,0,14481.0,0,0,0,
2026-03-18 11:35:00,METAR KVNC 181135Z AUTO 03012KT 9SM FEW180 09/00 A3014 RMK AO2 T00860005 $,0,12.0,0,14481.0,0,0,0,
2026-03-18 11:15:00,METAR KVNC 181115Z AUTO 03013KT 10SM OVC180 09/00 A3013 RMK AO2 T00890004 $,0,13.0,0,16090.0,0,0,0,
2026-03-18 10:55:00,METAR KVNC 181055Z AUTO 03010KT 10SM BKN170 BKN200 09/00 A3013 RMK AO2 T00900004 $,0,10.0,0,16090.0,0,0,0,
2026-03-18 10:35:00,METAR KVNC 181035Z AUTO 02011KT 10SM FEW200 09/00 A3013 RMK AO2 T00910003 $,0,11.0,0,16090.0,0,0,0,
2026-03-18 10:15:00,METAR KVNC 181015Z AUTO 03012KT 10SM CLR 09/00 A3012 RMK AO2 T00910004 $,0,12.0,0,16090.0,0,0,0,
2026-03-18 09:55:00,METAR KVNC 180955Z AUTO 03010KT 10SM CLR 09/01 A3012 RMK AO2 T00930012 $,0,10.0,0,16090.0,0,0,0,
2026-03-18 09:35:00,METAR KVNC 180935Z AUTO 03011KT 10SM FEW200 09/01 A3013 RMK AO2 T00940013 $,0,11.0,0,16090.0,0,0,0,
2026-03-18 09:15:00,METAR KVNC 180915Z AUTO 03011KT 10SM FEW200 09/02 A3013 RMK AO2 T00940017 $,0,11.0,0,16090.0,0,0,0,
2026-03-18 08:55:00,METAR KVNC 180855Z AUTO 02012KT 10SM CLR 09/01 A3013 RMK AO2 T00920013 55015 $,0,12.0,0,16090.0,0,0,0,
2026-03-18 08:35:00,METAR KVNC 180835Z AUTO 02010KT 10SM FEW190 09/01 A3013 RMK AO2 T00920011 $,0,10.0,0,16090.0,0,0,0,
2026-03-18 08:15:00,METAR KVNC 180815Z AUTO 03009KT 10SM FEW190 09/00 A3013 RMK AO2 T00950005 $,0,9.0,0,16090.0,0,0,0,
2026-03-18 07:55:00,METAR KVNC 180755Z AUTO 03011KT 10SM CLR 10/M00 A3013 RMK AO2 T00971000 $,0,11.0,0,16090.0,0,0,0,
2026-03-18 07:35:00,METAR KVNC 180735Z AUTO 03009KT 10SM FEW170 10/00 A3014 RMK AO2 T01000001 $,0,9.0,0,16090.0,0,0,0,
2026-03-18 07:15:00,METAR KVNC 180715Z AUTO 03009KT 10SM SCT170 10/01 A3015 RMK AO2 T01010014 $,0,9.0,0,16090.0,0,0,0,
2026-03-18 06:55:00,METAR KVNC 180655Z AUTO 02009KT 10SM CLR 11/01 A3016 RMK AO2 T01070014 $,0,9.0,0,16090.0,0,0,0,
2026-03-18 06:35:00,METAR KVNC 180635Z AUTO 02008KT 350V090 10SM CLR 11/02 A3016 RMK AO2 T01070017 $,0,8.0,0,16090.0,0,0,0,
2026-03-18 06:15:00,METAR KVNC 180615Z AUTO 02009KT 10SM CLR 11/02 A3017 RMK AO2 T01090023 $,0,9.0,0,16090.0,0,0,0,
2026-03-18 05:55:00,METAR KVNC 180555Z AUTO 01008KT 230V060 10SM CLR 11/03 A3018 RMK AO2 T01090029 10138 20106 51004 $,0,8.0,0,16090.0,0,0,0,
2026-03-18 05:35:00,METAR KVNC 180535Z AUTO 02007KT 10SM CLR 11/03 A3018 RMK AO2 T01080033 $,0,7.0,0,16090.0,0,0,0,
2026-03-18 05:15:00,METAR KVNC 180515Z AUTO 02010KT 10SM CLR 11/04 A3018 RMK AO2 T01080041 $,0,10.0,0,16090.0,0,0,0,
2026-03-18 04:55:00,METAR KVNC 180455Z AUTO 02008KT 10SM CLR 11/04 A3018 RMK AO2 T01070040 401800097 $,0,8.0,0,16090.0,0,0,0,
2026-03-18 04:35:00,METAR KVNC 180435Z AUTO 03007KT 10SM CLR 11/04 A3018 RMK AO2 T01070039 $,0,7.0,0,16090.0,0,0,0,
2026-03-18 04:15:00,METAR KVNC 180415Z AUTO 02008KT 10SM CLR 11/04 A3019 RMK AO2 T01110037 $,0,8.0,0,16090.0,0,0,0,
2026-03-18 03:55:00,METAR KVNC 180355Z AUTO 02007KT 10SM FEW170 11/04 A3018 RMK AO2 T01110036 $,0,7.0,0,16090.0,0,0,0,
2026-03-18 03:35:00,METAR KVNC 180335Z AUTO 03010KT 10SM CLR 11/04 A3018 RMK AO2 T01120038 $,0,10.0,0,16090.0,0,0,0,
2026-03-18 03:15:00,METAR KVNC 180315Z AUTO 02007KT 10SM CLR 11/04 A3018 RMK AO2 T01150036 $,0,7.0,0,16090.0,0,0,0,
2026-03-18 02:55:00,METAR KVNC 180255Z AUTO 01008KT 190V110 10SM CLR 12/03 A3017 RMK AO2 T01190033 53012 $,0,8.0,0,16090.0,0,0,0,
2026-03-18 02:35:00,METAR KVNC 180235Z AUTO 01008KT 350V060 10SM CLR 12/03 A3016 RMK AO2 T01190029 $,0,8.0,0,16090.0,0,0,0,
2026-03-18 02:15:00,METAR KVNC 180215Z AUTO 36008KT 340V040 10SM CLR 12/03 A3016 RMK AO2 T01220026 $,0,8.0,0,16090.0,0,0,0,
2026-03-18 01:55:00,METAR KVNC 180155Z AUTO 36010KT 210V060 10SM CLR 12/02 A3015 RMK AO2 T01230024 $,0,10.0,0,16090.0,0,0,0,
2026-03-18 01:35:00,METAR KVNC 180135Z AUTO 36009KT 230V030 10SM CLR 12/02 A3015 RMK AO2 T01240024 $,0,9.0,0,16090.0,0,0,0,
2026-03-18 00:55:00,METAR KVNC 180055Z AUTO 34008KT 10SM FEW310 13/03 A3014 RMK AO2 T01300025 $,0,8.0,0,16090.0,0,0,0,
2026-03-18 00:35:00,METAR KVNC 180035Z AUTO 34010KT 10SM CLR 13/03 A3014 RMK AO2 T01330025 $,0,10.0,0,16090.0,0,0,0,
2026-03-18 00:15:00,METAR KVNC 180015Z AUTO 34011KT 320V080 10SM CLR 14/03 A3014 RMK AO2 T01360027 $,0,11.0,0,16090.0,0,0,0,
2026-03-17 23:55:00,METAR KVNC 172355Z AUTO 34008KT 320V070 10SM CLR 14/03 A3013 RMK AO2 T01400028 10163 20140 52015 $,0,8.0,0,16090.0,0,0,0,
2026-03-17 23:35:00,METAR KVNC 172335Z AUTO 34008KT 10SM SCT120 14/04 A3013 RMK AO2 T01420036 $,0,8.0,0,16090.0,0,0,0,
2026-03-17 23:15:00,METAR KVNC 172315Z AUTO 33009KT 9SM OVC120 15/04 A3013 RMK AO2 T01450038 $,0,9.0,0,14481.0,0,0,0,
2026-03-17 22:55:00,METAR KVNC 172255Z AUTO 33011KT 9SM SCT120 15/03 A3012 RMK AO2 T01510031 $,0,11.0,0,14481.0,0,0,0,
2026-03-17 22:35:00,METAR KVNC 172235Z AUTO 35008KT 10SM CLR 15/01 A3012 RMK AO2 T01540011 $,0,8.0,0,16090.0,0,0,0,
2026-03-17 22:15:00,METAR KVNC 172215Z AUTO 34010KT 9SM CLR 15/04 A3011 RMK AO2 T01500038 $,0,10.0,0,14481.0,0,0,0,
2026-03-17 21:55:00,METAR KVNC 172155Z AUTO 32013KT 10SM CLR 16/04 A3010 RMK AO2 T01550041 $,0,13.0,0,16090.0,0,0,0,
2026-03-17 21:35:00,METAR KVNC 172135Z AUTO 32012KT 10SM CLR 16/05 A3010 RMK AO2 T01560048 $,0,12.0,0,16090.0,0,0,0,
2026-03-17 21:15:00,METAR KVNC 172115Z AUTO 33008KT 10SM CLR 16/M00 A3009 RMK AO2 T01621001 $,0,8.0,0,16090.0,0,0,0,
2026-03-17 20:55:00,METAR KVNC 172055Z AUTO 33013G19KT 10SM FEW290 15/03 A3009 RMK AO2 T01540033 56018 $,0,13.0,1,16090.0,0,0,0,
2026-03-17 20:35:00,METAR KVNC 172035Z AUTO 32013G19KT 9SM FEW330 16/04 A3009 RMK AO2 T01590038 $,0,13.0,1,14481.0,0,0,0,
2026-03-17 20:15:00,METAR KVNC 172015Z AUTO 32013KT 10SM FEW110 16/03 A3010 RMK AO2 T01610030 $,0,13.0,0,16090.0,0,0,0,
2026-03-17 19:55:00,METAR KVNC 171955Z AUTO 32014G19KT 10SM OVC110 16/02 A3010 RMK AO2 T01570021 $,0,14.0,1,16090.0,0,0,0,
2026-03-17 19:35:00,METAR KVNC 171935Z AUTO 32015KT 10SM BKN110 15/02 A3010 RMK AO2 T01530020 $,0,15.0,0,16090.0,0,0,0,
2026-03-17 19:15:00,METAR KVNC 171915Z AUTO 32017KT 10SM SCT100 16/01 A3011 RMK AO2 T01570012 $,0,17.0,0,16090.0,0,0,0,
2026-03-17 18:55:00,METAR KVNC 171855Z AUTO 33014KT 10SM OVC100 15/01 A3012 RMK AO2 T01490011 $,0,14.0,0,16090.0,0,0,0,
2026-03-17 18:35:00,METAR KVNC 171835Z AUTO 32010G17KT 10SM OVC100 15/01 A3012 RMK AO2 T01470013 $,0,10.0,1,16090.0,0,0,0,
2026-03-17 18:15:00,METAR KVNC 171815Z AUTO 33015G18KT 10SM OVC100 14/M00 A3013 RMK AO2 T01451001 $,0,15.0,1,16090.0,0,0,0,
2026-03-17 17:55:00,METAR KVNC 171755Z AUTO 34007KT 290V010 10SM BKN095 15/00 A3014 RMK AO2 T01480004 10154 20097 58007 $,0,7.0,0,16090.0,0,0,0,
2026-03-17 17:35:00,METAR KVNC 171735Z AUTO 33013KT 10SM FEW095 15/01 A3014 RMK AO2 T01470010 $,0,13.0,0,16090.0,0,0,0,
2026-03-17 17:15:00,METAR KVNC 171715Z AUTO 35010KT 210V030 10SM FEW300 15/00 A3015 RMK AO2 T01490004 $,0,10.0,0,16090.0,0,0,0,
2026-03-17 16:55:00,METAR KVNC 171655Z AUTO 33011KT 10SM SCT036 SCT290 SCT370 14/M01 A3016 RMK AO2 T01431009 $,0,11.0,0,16090.0,0,0,0,
2026-03-17 16:35:00,METAR KVNC 171635Z AUTO 03009KT 10SM BKN035 BKN042 14/00 A3015 RMK AO2 T01390000 $,0,9.0,0,16090.0,0,0,0,
2026-03-17 16:15:00,METAR KVNC 171615Z AUTO 03009KT 10SM SCT042 13/00 A3015 RMK AO2 T01290001 $,0,9.0,0,16090.0,0,0,0,
2026-03-17 15:55:00,METAR KVNC 171555Z AUTO 01010KT 330V050 10SM SCT037 BKN280 12/00 A3015 RMK AO2 T01220003 $,0,10.0,0,16090.0,0,0,0,
2026-03-17 15:35:00,METAR KVNC 171535Z AUTO 01012KT 10SM OVC038 13/00 A3015 RMK AO2 T01260002 $,0,12.0,0,16090.0,0,0,0,
2026-03-17 15:15:00,METAR KVNC 171515Z AUTO 02011KT 10SM BKN034 OVC042 12/01 A3016 RMK AO2 T01220006 $,0,11.0,0,16090.0,0,0,0,
2026-03-17 14:55:00,METAR KVNC 171455Z AUTO 36012KT 200V050 10SM OVC035 11/00 A3016 RMK AO2 T01090004 51017 $,0,12.0,0,16090.0,0,0,0,
2026-03-17 14:35:00,METAR KVNC 171435Z AUTO 02014G20KT 10SM OVC035 10/M00 A3016 RMK AO2 T01021001 $,0,14.0,1,16090.0,0,0,0,
2026-03-17 14:15:00,METAR KVNC 171415Z AUTO 02015G19KT 10SM OVC036 10/01 A3015 RMK AO2 T00990010 $,0,15.0,1,16090.0,0,0,0,
2026-03-17 13:55:00,METAR KVNC 171355Z AUTO 36014KT 10SM OVC037 10/01 A3016 RMK AO2 T01030011 $,0,14.0,0,16090.0,0,0,0,
2026-03-17 13:35:00,METAR KVNC 171335Z AUTO 36013G19KT 10SM BKN038 10/01 A3015 RMK AO2 T01020009 $,0,13.0,1,16090.0,0,0,0,
2026-03-17 13:15:00,METAR KVNC 171315Z AUTO 36013KT 340V170 10SM OVC037 11/01 A3015 RMK AO2 T01050012 $,0,13.0,0,16090.0,0,0,0,
2026-03-17 12:55:00,METAR KVNC 171255Z AUTO 02011KT 10SM OVC036 10/01 A3013 RMK AO2 T00980013 $,0,11.0,0,16090.0,0,0,0,
2026-03-17 12:35:00,METAR KVNC 171235Z AUTO 01010KT 10SM OVC036 10/01 A3013 RMK AO2 T00980012 $,0,10.0,0,16090.0,0,0,0,
2026-03-17 12:15:00,METAR KVNC 171215Z AUTO 01015KT 10SM OVC035 10/01 A3012 RMK AO2 T00990012 $,0,15.0,0,16090.0,0,0,0,
2026-03-17 11:55:00,METAR KVNC 171155Z AUTO 02012KT 10SM OVC034 10/02 A3011 RMK AO2 70016 T01040016 10167 20104 53023 $,0,12.0,0,16090.0,0,0,0,
2026-03-17 11:35:00,METAR KVNC 171135Z AUTO 01015G19KT 10SM OVC035 11/02 A3010 RMK AO2 T01090019 $,0,15.0,1,16090.0,0,0,0,
2026-03-17 11:15:00,METAR KVNC 171115Z AUTO 01012KT 10SM OVC035 12/02 A3010 RMK AO2 T01160018 $,0,12.0,0,16090.0,0,0,0,
2026-03-17 10:55:00,METAR KVNC 171055Z AUTO 35014KT 10SM OVC035 12/01 A3008 RMK AO2 T01250011 $,0,14.0,0,16090.0,0,0,0,
2026-03-17 10:35:00,METAR KVNC 171035Z AUTO 35014KT 230V010 10SM OVC036 13/M00 A3007 RMK AO2 T01281001 $,0,14.0,0,16090.0,0,0,0,
2026-03-17 10:15:00,METAR KVNC 171015Z AUTO 01012KT 210V020 10SM OVC036 13/M00 A3006 RMK AO2 T01311002 $,0,12.0,0,16090.0,0,0,0,
2026-03-17 09:55:00,METAR KVNC 170955Z AUTO 36011KT 300V020 10SM OVC036 13/01 A3007 RMK AO2 T01320014 $,0,11.0,0,16090.0,0,0,0,
2026-03-17 09:35:00,METAR KVNC 170935Z AUTO 01011KT 10SM OVC036 14/04 A3006 RMK AO2 T01360039 $,0,11.0,0,16090.0,0,0,0,
2026-03-17 09:15:00,METAR KVNC 170915Z AUTO 01008KT 200V030 10SM OVC036 14/05 A3006 RMK AO2 T01390048 $,0,8.0,0,16090.0,0,0,0,
2026-03-17 08:55:00,METAR KVNC 170855Z AUTO 02011KT 10SM OVC037 14/06 A3004 RMK AO2 T01410060 53010 $,0,11.0,0,16090.0,0,0,0,
2026-03-17 08:35:00,METAR KVNC 170835Z AUTO 36009KT 10SM OVC035 14/06 A3004 RMK AO2 T01450064 $,0,9.0,0,16090.0,0,0,0,
2026-03-17 08:15:00,METAR KVNC 170815Z AUTO 01008KT 10SM OVC034 15/07 A3003 RMK AO2 T01480072 $,0,8.0,0,16090.0,0,0,0,
2026-03-17 07:55:00,METAR KVNC 170755Z AUTO 35008KT 10SM OVC032 15/07 A3002 RMK AO2 T01520068 $,0,8.0,0,16090.0,0,0,0,
2026-03-17 07:35:00,METAR KVNC 170735Z AUTO 34008G17KT 10SM OVC031 15/07 A3001 RMK AO2 T01540065 $,0,8.0,1,16090.0,0,0,0,
2026-03-17 07:15:00,METAR KVNC 170715Z AUTO 34010KT 10SM OVC032 16/09 A3001 RMK AO2 T01570087 $,0,10.0,0,16090.0,0,0,0,
2026-03-17 06:55:00,METAR KVNC 170655Z AUTO 35012KT 320V080 10SM OVC032 16/09 A3001 RMK AO2 T01610090 $,0,12.0,0,16090.0,0,0,0,
2026-03-17 06:35:00,METAR KVNC 170635Z AUTO 01012KT 10SM OVC031 16/09 A3002 RMK AO2 T01620091 $,0,12.0,0,16090.0,0,0,0,
2026-03-17 06:15:00,METAR KVNC 170615Z AUTO 35008KT 340V170 10SM OVC031 16/10 A3002 RMK AO2 T01650096 $,0,8.0,0,16090.0,0,0,0,
2026-03-17 05:55:00,METAR KVNC 170555Z AUTO 36010KT 10SM OVC028 17/11 A3001 RMK AO2 CIG 023V031 60000 T01670105 10218 20167 53022 $,0,10.0,0,16090.0,0,0,0,
2026-03-17 05:35:00,METAR KVNC 170535Z AUTO 01012KT 360V170 10SM OVC026 17/12 A3001 RMK AO2 CIG 022V031 PRESRR T01710120 $,0,12.0,0,16090.0,0,0,0,
2026-03-17 05:15:00,METAR KVNC 170515Z AUTO 35009KT 10SM OVC023 18/13 A2998 RMK AO2 CIG 020V027 OVC V BKN T01780129 $,0,9.0,0,16090.0,0,0,0,VC
2026-03-17 04:55:00,METAR KVNC 170455Z AUTO 35011G17KT 330V150 10SM OVC023 18/13 A2997 RMK AO2 T01820134 402680182 $,0,11.0,1,16090.0,0,0,0,
2026-03-17 04:35:00,METAR KVNC 170435Z AUTO 35010KT 10SM OVC022 18/14 A2996 RMK AO2 LTG DSNT SE AND S T01840138 $,0,10.0,0,16090.0,0,0,0,DS
2026-03-17 04:15:00,METAR KVNC 170415Z AUTO 35010KT 10SM OVC022 19/14 A2997 RMK AO2 T01860143 $,0,10.0,0,16090.0,0,0,0,
2026-03-17 03:55:00,METAR KVNC 170355Z AUTO 35008KT 330V030 10SM OVC021 19/15 A2998 RMK AO2 CIG 020V025 T01890147 $,0,8.0,0,16090.0,0,0,0,
2026-03-17 03:35:00,METAR KVNC 170335Z AUTO 34012KT 10SM OVC021 19/15 A2996 RMK AO2 CIG 019V025 T01900149 $,0,12.0,0,16090.0,0,0,0,
2026-03-17 03:15:00,METAR KVNC 170315Z AUTO 34011KT 330V100 10SM OVC020 19/15 A2995 RMK AO2 CIG 018V022 T01930150 $,0,11.0,0,16090.0,0,0,0,
2026-03-17 02:55:00,METAR KVNC 170255Z AUTO 35013G21KT 230V010 10SM OVC018 20/16 A2995 RMK AO2 60000 T01960160 52026 $,0,13.0,1,16090.0,0,0,0,
2026-03-17 02:35:00,METAR KVNC 170235Z AUTO 33015KT 10SM OVC016 20/16 A2994 RMK AO2 CIG 015V019 T01980163 $,0,15.0,0,16090.0,0,0,0,
2026-03-17 02:15:00,METAR KVNC 170215Z AUTO 33012G20KT 9SM OVC012 20/17 A2992 RMK AO2 CIG 010V016 T02010171 $,0,12.0,1,14481.0,0,0,0,
2026-03-17 01:55:00,METAR KVNC 170155Z AUTO 32014G20KT 8SM BKN011 BKN017 BKN110 21/19 A2992 RMK AO2 RAE0147 CIG 010V015 PRESRR P0000 T02070189 $,0,14.0,1,12872.0,0,0,0,RA
2026-03-17 01:35:00,METAR KVNC 170135Z AUTO 28017KT 8SM -RA FEW110 21/18 A2990 RMK AO2 P0000 T02120183 $,0,17.0,0,12872.0,0,0,0,-RA
2026-03-17 01:15:00,METAR KVNC 170115Z AUTO 26015KT 8SM -RA FEW021 21/19 A2988 RMK AO2 LTG DSNT E AND SE P0000 T02150186 $,0,15.0,0,12872.0,0,0,0,"-RA,DS"
2026-03-17 00:55:00,METAR KVNC 170055Z AUTO 26015KT 9SM -RA FEW070 22/19 A2990 RMK AO2 RAE2356B0044 P0000 T02180191 $,0,15.0,0,14481.0,0,0,0,"-RA,RA"
2026-03-17 00:35:00,METAR KVNC 170035Z AUTO 25013KT 10SM CLR 22/19 A2989 RMK AO2 RAE2356 P0000 T02170188 $,0,13.0,0,16090.0,0,0,0,RA
2026-03-17 00:15:00,METAR KVNC 170015Z AUTO 23010KT 10SM FEW110 21/19 A2987 RMK AO2 LTG DSNT E AND SW RAE2356 P0000 T02140186 $,0,10.0,0,16090.0,0,0,0,"DS,RA"
2026-03-16 23:55:00,METAR KVNC 162355Z AUTO 26007KT 7SM -RA SCT060 BKN110 21/19 A2987 RMK AO2 WSHFT 2257 LTG DSNT NE AND E AND W TSE2309 PRESFR P0004 60016 T02120185 10268 20198 50010 $,0,7.0,0,11263.0,1,0,0,"-RA,DS,TS"
2026-03-16 23:35:00,METAR KVNC 162335Z AUTO 27012KT 7SM -RA SCT070 BKN110 21/20 A2989 RMK AO2 WSHFT 2257 TSE2309 P0004 T02110195 $,0,12.0,0,11263.0,1,0,0,"-RA,TS"
2026-03-16 23:15:00,METAR KVNC 162315Z AUTO 27008KT 3SM -RA BR BKN075 OVC100 20/19 A2989 RMK AO2 WSHFT 2257 LTG DSNT NE AND SE AND S TSE2309 P0004 T02050191 $,0,8.0,0,4827.0,1,0,1,"-RA,BR,DS,TS"
2026-03-16 22:55:00,METAR KVNC 162255Z AUTO 30018G33KT 3/4SM TSRA BR FEW012 BKN030 BKN037 BKN049 20/19 A2989 RMK AO2 PK WND 29033/2240 WSHFT 2241 RAB2236 TSB2229 P0012 T01990192 $,0,18.0,1,1207.0,1,0,1,"BR,RA,TS"
2026-03-16 22:35:00,METAR KVNC 162235Z AUTO 26022G27KT 220V290 9SM TS SCT015 BKN049 24/22 A2986 RMK AO2 PK WND 25027/2233 WSHFT 2231 TSB2229 PRESRR T02420223 $,0,22.0,1,14481.0,1,0,0,TS
2026-03-16 22:15:00,METAR KVNC 162215Z AUTO 20012KT 9SM VCTS BKN016 25/23 A2984 RMK AO2 CIG 014V020 T02460231 $,0,12.0,0,14481.0,1,0,0,"TS,VC"
2026-03-16 21:55:00,METAR KVNC 162155Z AUTO 21013KT 9SM FEW007 25/23 A2984 RMK AO2 LTG DSNT SW - N T02490226 $,0,13.0,0,14481.0,0,0,0,DS
2026-03-16 21:35:00,METAR KVNC 162135Z AUTO 20010KT 9SM SCT007 SCT013 25/23 A2983 RMK AO2 LTG DSNT NE AND SW - NW T02470232 $,0,10.0,0,14481.0,0,0,0,DS
2026-03-16 21:15:00,METAR KVNC 162115Z AUTO 20011KT 9SM FEW006 SCT014 25/23 A2983 RMK AO2 LTG DSNT N AND W FEW V SCT T02490233 $,0,11.0,0,14481.0,0,0,0,DS
2026-03-16 20:55:00,METAR KVNC 162055Z AUTO 20010KT 9SM FEW006 SCT020 BKN080 25/23 A2984 RMK AO2 LTG DSNT SW - N FEW V SCT T02490233 56016 $,0,10.0,0,14481.0,0,0,0,DS
2026-03-16 20:35:00,METAR KVNC 162035Z AUTO 21012KT 9SM FEW005 SCT080 BKN340 BKN380 25/23 A2985 RMK AO2 LTG DSNT W - NE T02530234 $,0,12.0,0,14481.0,0,0,0,DS
2026-03-16 20:15:00,METAR KVNC 162015Z AUTO 19011KT 10SM SCT006 SCT080 26/23 A2985 RMK AO2 LTG DSNT N AND W T02550234 $,0,11.0,0,16090.0,0,0,0,DS
2026-03-16 19:55:00,METAR KVNC 161955Z AUTO 20011KT 10SM SCT006 BKN080 26/24 A2986 RMK AO2 LTG DSNT E AND W AND NW T02600235 $,0,11.0,0,16090.0,0,0,0,DS
2026-03-16 19:35:00,METAR KVNC 161935Z AUTO 20011KT 10SM BKN006 BKN080 OVC110 26/24 A2986 RMK AO2 LTG DSNT NW AND E BKN006 V SCT T02560235 $,0,11.0,0,16090.0,0,0,0,DS
2026-03-16 19:15:00,METAR KVNC 161915Z AUTO 19011KT 10SM FEW006 SCT085 BKN110 26/24 A2986 RMK AO2 T02610236 $,0,11.0,0,16090.0,0,0,0,
2026-03-16 18:55:00,METAR KVNC 161855Z AUTO 19011KT 10SM FEW009 26/24 A2987 RMK AO2 T02640236 $,0,11.0,0,16090.0,0,0,0,
2026-03-16 18:35:00,METAR KVNC 161835Z AUTO 19011G18KT 10SM FEW007 27/24 A2987 RMK AO2 LTG DSNT NE AND W T02670237 $,0,11.0,1,16090.0,0,0,0,DS
2026-03-16 18:15:00,METAR KVNC 161815Z AUTO 18013KT 10SM SCT140 26/23 A2987 RMK AO2 T02600234 $,0,13.0,0,16090.0,0,0,0,
2026-03-16 17:55:00,METAR KVNC 161755Z AUTO 19010KT 10SM FEW120 SCT150 26/23 A2989 RMK AO2 LTG DSNT NE T02620235 10268 20233 53007 $,0,10.0,0,16090.0,0,0,0,DS
2026-03-16 17:35:00,METAR KVNC 161735Z AUTO 19014KT 10SM FEW150 27/23 A2989 RMK AO2 LTG DSNT W T02650234 $,0,14.0,0,16090.0,0,0,0,DS
2026-03-16 17:15:00,METAR KVNC 161715Z AUTO 19013G21KT 10SM CLR 26/23 A2988 RMK AO2 T02650235 $,0,13.0,1,16090.0,0,0,0,
2026-03-16 16:55:00,METAR KVNC 161655Z AUTO 18015KT 10SM CLR 27/23 A2988 RMK AO2 T02660234 $,0,15.0,0,16090.0,0,0,0,
2026-03-16 16:35:00,METAR KVNC 161635Z AUTO 18013KT 10SM CLR 27/24 A2988 RMK AO2 T02650235 $,0,13.0,0,16090.0,0,0,0,
2026-03-16 15:55:00,METAR KVNC 161555Z AUTO 18016KT 10SM BKN007 26/23 A2987 RMK AO2 LTG DSNT NE T02600234 $,0,16.0,0,16090.0,0,0,0,DS
2026-03-16 15:35:00,METAR KVNC 161535Z AUTO 18015KT 10SM BKN006 26/23 A2986 RMK AO2 T02610235 $,0,15.0,0,16090.0,0,0,0,
2026-03-16 15:15:00,METAR KVNC 161515Z AUTO 17014KT 10SM SCT006 26/24 A2986 RMK AO2 LTG DSNT NW AND N T02630236 $,0,14.0,0,16090.0,0,0,0,DS
2026-03-16 14:55:00,METAR KVNC 161455Z AUTO 18018G23KT 10SM CLR 26/23 A2987 RMK AO2 LTG DSNT NW T02560233 58003 $,0,18.0,1,16090.0,0,0,0,DS
2026-03-16 14:35:00,METAR KVNC 161435Z AUTO 18014KT 10SM FEW006 26/23 A2987 RMK AO2 LTG DSNT N AND NE T02570234 $,0,14.0,0,16090.0,0,0,0,DS
2026-03-16 14:15:00,METAR KVNC 161415Z AUTO 17014KT 10SM FEW006 25/23 A2987 RMK AO2 T02540233 $,0,14.0,0,16090.0,0,0,0,
2026-03-16 13:55:00,METAR KVNC 161355Z AUTO 17016KT 10SM CLR 25/23 A2987 RMK AO2 LTG DSNT NW AND N T02500232 $,0,16.0,0,16090.0,0,0,0,DS
2026-03-16 13:35:00,METAR KVNC 161335Z AUTO 17013KT 10SM CLR 25/23 A2988 RMK AO2 T02500233 $,0,13.0,0,16090.0,0,0,0,
2026-03-16 13:15:00,METAR KVNC 161315Z AUTO 17010KT 9SM FEW006 25/23 A2988 RMK AO2 T02460231 $,0,10.0,0,14481.0,0,0,0,
2026-03-16 12:55:00,METAR KVNC 161255Z AUTO 16011KT 10SM SCT008 24/23 A2988 RMK AO2 T02420228 $,0,11.0,0,16090.0,0,0,0,
2026-03-16 12:35:00,METAR KVNC 161235Z AUTO 17009KT 10SM SCT009 24/23 A2988 RMK AO2 LTG DSNT W T02390227 $,0,9.0,0,16090.0,0,0,0,DS
2026-03-16 12:15:00,METAR KVNC 161215Z AUTO 16009KT 10SM CLR 24/22 A2988 RMK AO2 LTG DSNT NW T02350224 $,0,9.0,0,16090.0,0,0,0,DS
2026-03-16 11:55:00,METAR KVNC 161155Z AUTO 17010KT 10SM CLR 23/22 A2988 RMK AO2 LTG DSNT NW AND NE 70009 T02330222 10234 20205 53005 $,0,10.0,0,16090.0,0,0,0,DS
2026-03-16 11:35:00,METAR KVNC 161135Z AUTO 17010KT 9SM CLR 23/22 A2988 RMK AO2 LTG DSNT NW AND NE T02330221 $,0,10.0,0,14481.0,0,0,0,DS
2026-03-16 11:15:00,METAR KVNC 161115Z AUTO 16008KT 8SM CLR 23/22 A2988 RMK AO2 T02320220 $,0,8.0,0,12872.0,0,0,0,
2026-03-16 10:55:00,METAR KVNC 161055Z AUTO 16010KT 7SM SCT007 23/22 A2988 RMK AO2 T02320223 $,0,10.0,0,11263.0,0,0,0,
2026-03-16 10:35:00,METAR KVNC 161035Z AUTO 17009KT 7SM OVC007 23/22 A2987 RMK AO2 CIG 006V009 T02330225 $,0,9.0,0,11263.0,0,0,0,
2026-03-16 10:15:00,METAR KVNC 161015Z AUTO 17011KT 7SM OVC008 23/22 A2986 RMK AO2 T02340224 $,0,11.0,0,11263.0,0,0,0,
2026-03-16 09:55:00,METAR KVNC 160955Z AUTO 17012KT 8SM BKN009 23/22 A2986 RMK AO2 T02330223 $,0,12.0,0,12872.0,0,0,0,
2026-03-16 09:35:00,METAR KVNC 160935Z AUTO 17011KT 8SM SCT009 23/22 A2986 RMK AO2 T02330222 $,0,11.0,0,12872.0,0,0,0,
2026-03-16 09:15:00,METAR KVNC 160915Z AUTO 16011KT 8SM CLR 23/22 A2986 RMK AO2 T02310221 $,0,11.0,0,12872.0,0,0,0,
2026-03-16 08:55:00,METAR KVNC 160855Z AUTO 17009KT 8SM CLR 23/22 A2986 RMK AO2 T02330221 58020 $,0,9.0,0,12872.0,0,0,0,
2026-03-16 08:35:00,METAR KVNC 160835Z AUTO 17012KT 8SM CLR 23/22 A2986 RMK AO2 T02330220 $,0,12.0,0,12872.0,0,0,0,
2026-03-16 08:15:00,METAR KVNC 160815Z AUTO 17013G18KT 9SM CLR 23/22 A2987 RMK AO2 T02340219 $,0,13.0,1,14481.0,0,0,0,
2026-03-16 07:55:00,METAR KVNC 160755Z AUTO 16010KT 9SM CLR 23/22 A2988 RMK AO2 T02330217 $,0,10.0,0,14481.0,0,0,0,
2026-03-16 07:35:00,METAR KVNC 160735Z AUTO 17009KT 8SM CLR 23/21 A2990 RMK AO2 T02330215 $,0,9.0,0,12872.0,0,0,0,
2026-03-16 07:15:00,METAR KVNC 160715Z AUTO 16008KT 10SM CLR 23/21 A2990 RMK AO2 T02270210 $,0,8.0,0,16090.0,0,0,0,
2026-03-16 06:55:00,METAR KVNC 160655Z AUTO 14005KT 10SM CLR 21/19 A2990 RMK AO2 LTG DSNT N AND E T02120193 $,0,5.0,0,16090.0,0,0,0,DS
2026-03-16 06:35:00,METAR KVNC 160635Z AUTO 15006KT 10SM CLR 21/19 A2991 RMK AO2 T02090189 $,0,6.0,0,16090.0,0,0,0,
2026-03-16 06:15:00,METAR KVNC 160615Z AUTO 14005KT 10SM CLR 21/19 A2991 RMK AO2 T02060187 $,0,5.0,0,16090.0,0,0,0,
2026-03-16 05:55:00,METAR KVNC 160555Z AUTO 15007KT 10SM FEW140 21/18 A2992 RMK AO2 60003 T02070185 10212 20204 58017 $,0,7.0,0,16090.0,0,0,0,
2026-03-16 05:35:00,METAR KVNC 160535Z AUTO 15008KT 10SM SCT140 21/18 A2992 RMK AO2 T02060185 $,0,8.0,0,16090.0,0,0,0,
2026-03-16 05:15:00,METAR KVNC 160515Z AUTO 14009KT 10SM CLR 21/19 A2993 RMK AO2 T02090185 $,0,9.0,0,16090.0,0,0,0,
2026-03-16 04:55:00,METAR KVNC 160455Z AUTO 13008KT 10SM SCT080 21/19 A2994 RMK AO2 T02110186 402840185 $,0,8.0,0,16090.0,0,0,0,
2026-03-16 04:35:00,METAR KVNC 160435Z AUTO 12008KT 10SM BKN080 21/19 A2995 RMK AO2 T02110187 $,0,8.0,0,16090.0,0,0,0,
2026-03-16 04:15:00,METAR KVNC 160415Z AUTO 12006KT 10SM FEW085 21/19 A2996 RMK AO2 T02090187 $,0,6.0,0,16090.0,0,0,0,
2026-03-16 03:55:00,METAR KVNC 160355Z AUTO 11006KT 10SM FEW120 21/19 A2997 RMK AO2 T02070188 $,0,6.0,0,16090.0,0,0,0,
2026-03-16 03:35:00,METAR KVNC 160335Z AUTO 11005KT 10SM CLR 21/19 A2997 RMK AO2 T02070187 $,0,5.0,0,16090.0,0,0,0,
2026-03-16 03:15:00,METAR KVNC 160315Z AUTO 12005KT 10SM SCT160 21/19 A2997 RMK AO2 LTG DSNT NW AND N T02090187 $,0,5.0,0,16090.0,0,0,0,DS
2026-03-16 02:55:00,METAR KVNC 160255Z AUTO 13007KT 10SM BKN160 21/19 A2997 RMK AO2 60003 T02110187 51005 $,0,7.0,0,16090.0,0,0,0,
2026-03-16 02:35:00,METAR KVNC 160235Z AUTO 13007KT 10SM SCT150 21/19 A2997 RMK AO2 LTG DSNT NW AND NE AND S T02100187 $,0,7.0,0,16090.0,0,0,0,DS
2026-03-16 02:15:00,METAR KVNC 160215Z AUTO 12006KT 10SM FEW150 21/19 A2997 RMK AO2 LTG DSNT W - NE T02050187 $,0,6.0,0,16090.0,0,0,0,DS
2026-03-16 01:55:00,METAR KVNC 160155Z AUTO 11006KT 10SM CLR 21/19 A2997 RMK AO2 LTG DSNT N T02060185 $,0,6.0,0,16090.0,0,0,0,DS
2026-03-16 01:35:00,METAR KVNC 160135Z AUTO 10006KT 10SM SCT140 20/19 A2997 RMK AO2 T02050186 $,0,6.0,0,16090.0,0,0,0,
2026-03-16 01:15:00,METAR KVNC 160115Z AUTO 10007KT 10SM FEW036 OVC140 21/19 A2997 RMK AO2 LTG DSNT N AND W T02060188 $,0,7.0,0,16090.0,0,0,0,DS
2026-03-16 00:55:00,METAR KVNC 160055Z AUTO 11007KT 10SM SCT042 BKN049 OVC095 21/19 A2997 RMK AO2 LTG DSNT N AND NE RAE0002B0026E0047 P0003 T02090194 $,0,7.0,0,16090.0,0,0,0,"DS,RA"
2026-03-16 00:35:00,METAR KVNC 160035Z AUTO 11008KT 5SM -RA BR VCTS FEW005 BKN044 BKN055 BKN085 OVC130 21/19 A2997 RMK AO2 RAE0002B0026 P0002 T02090192 $,0,8.0,0,8045.0,1,0,1,"-RA,BR,RA,TS,VC"
2026-03-16 00:15:00,METAR KVNC 160015Z AUTO 11009KT 10SM VCTS FEW027 SCT047 BKN055 BKN070 OVC130 21/19 A2996 RMK AO2 RAE0002 P0000 T02110192 $,0,9.0,0,16090.0,1,0,0,"RA,TS,VC"
2026-03-15 23:55:00,METAR KVNC 152355Z AUTO 11008KT 10SM -RA FEW020 SCT027 BKN047 OVC080 21/20 A2996 RMK AO2 LTG DSNT N - SE AND W RAB2337 TSB2334E2349 FEW V SCT P0002 60006 T02110196 10284 20211 52013 $,0,8.0,0,16090.0,1,0,0,"-RA,DS,RA,TS"
2026-03-15 23:35:00,METAR KVNC 152335Z AUTO 10010G17KT 10SM TS BKN020 OVC028 21/19 A2996 RMK AO2 TSB2334 T02140194 $,0,10.0,1,16090.0,1,0,0,TS
2026-03-15 23:15:00,METAR KVNC 152315Z AUTO 11013G16KT 10SM VCTS OVC020 22/20 A2995 RMK AO2 CIG 019V024 T02150197 $,0,13.0,1,16090.0,1,0,0,"TS,VC"
2026-03-15 22:55:00,METAR KVNC 152255Z AUTO 11009KT 10SM VCTS FEW011 OVC019 21/20 A2994 RMK AO2 RAB2222E2235 TSB2211E2230 P0004 T02150202 $,0,9.0,0,16090.0,1,0,0,"RA,TS,VC"
2026-03-15 22:35:00,METAR KVNC 152235Z AUTO 10009KT 9SM VCTS FEW010 BKN019 OVC024 22/20 A2994 RMK AO2 RAB2222E2235 TSB2211E2230 P0004 T02150204 $,0,9.0,0,14481.0,1,0,0,"RA,TS,VC"
2026-03-15 22:15:00,METAR KVNC 152215Z AUTO 10013G18KT 10SM TS OVC017 23/20 A2993 RMK AO2 TSB2211 CIG 015V022 T02310198 $,0,13.0,1,16090.0,1,0,0,TS
2026-03-15 21:55:00,METAR KVNC 152155Z AUTO 11010KT 10SM VCTS OVC016 23/20 A2993 RMK AO2 WSHFT 2106 T02340198 $,0,10.0,0,16090.0,1,0,0,"TS,VC"
2026-03-15 21:35:00,METAR KVNC 152135Z AUTO 12012KT 080V150 10SM VCTS OVC016 24/20 A2992 RMK AO2 WSHFT 2106 CIG 015V019 T02440198 $,0,12.0,0,16090.0,1,0,0,"TS,VC"
2026-03-15 21:15:00,METAR KVNC 152115Z AUTO 13012KT 10SM VCTS SCT016 BKN034 OVC100 25/20 A2992 RMK AO2 WSHFT 2106 T02470200 $,0,12.0,0,16090.0,1,0,0,"TS,VC"
2026-03-15 20:55:00,METAR KVNC 152055Z AUTO 17016G20KT 10SM SCT100 28/23 A2992 RMK AO2 LTG DSNT N - SE T02760228 56020 $,0,16.0,1,16090.0,0,0,0,DS
2026-03-15 20:35:00,METAR KVNC 152035Z AUTO 18014KT 10SM SCT100 28/23 A2992 RMK AO2 LTG DSNT NE - S T02770227 $,0,14.0,0,16090.0,0,0,0,DS
2026-03-15 20:15:00,METAR KVNC 152015Z AUTO 18013KT 10SM VCTS FEW100 27/23 A2993 RMK AO2 T02730228 $,0,13.0,0,16090.0,1,0,0,"TS,VC"
2026-03-15 19:55:00,METAR KVNC 151955Z AUTO 17013G18KT 10SM FEW100 28/23 A2994 RMK AO2 LTG DSNT NE - SE T02780229 $,0,13.0,1,16090.0,0,0,0,DS
2026-03-15 19:35:00,METAR KVNC 151935Z AUTO 18014G18KT 10SM FEW100 27/23 A2994 RMK AO2 LTG DSNT N - SE T02750228 $,0,14.0,1,16090.0,0,0,0,DS
2026-03-15 19:15:00,METAR KVNC 151915Z AUTO 18012KT 10SM CLR 28/23 A2995 RMK AO2 LTG DSNT NE - SE T02780228 $,0,12.0,0,16090.0,0,0,0,DS
2026-03-15 18:55:00,METAR KVNC 151855Z AUTO 17011KT 10SM CLR 28/23 A2995 RMK AO2 LTG DSNT N - SE T02780228 $,0,11.0,0,16090.0,0,0,0,DS
2026-03-15 18:35:00,METAR KVNC 151835Z AUTO 18013KT 10SM FEW310 28/23 A2995 RMK AO2 LTG DSNT N - SE T02780227 $,0,13.0,0,16090.0,0,0,0,DS
2026-03-15 18:15:00,METAR KVNC 151815Z AUTO 18013G19KT 10SM FEW330 28/23 A2997 RMK AO2 LTG DSNT N - SE T02790228 $,0,13.0,1,16090.0,0,0,0,DS
2026-03-15 17:55:00,METAR KVNC 151755Z AUTO 17012G18KT 10SM FEW350 28/23 A2998 RMK AO2 T02820231 10284 20198 58014 $,0,12.0,1,16090.0,0,0,0,
2026-03-15 17:35:00,METAR KVNC 151735Z AUTO 18012KT 10SM FEW350 28/23 A2998 RMK AO2 LTG DSNT N - SE T02770228 $,0,12.0,0,16090.0,0,0,0,DS
2026-03-15 17:15:00,METAR KVNC 151715Z AUTO 18013G19KT 10SM CLR 27/23 A2999 RMK AO2 T02740226 $,0,13.0,1,16090.0,0,0,0,
2026-03-15 16:55:00,METAR KVNC 151655Z AUTO 18014KT 10SM FEW130 28/22 A3000 RMK AO2 T02800224 $,0,14.0,0,16090.0,0,0,0,
2026-03-15 16:35:00,METAR KVNC 151635Z AUTO 18012KT 10SM FEW110 SCT360 28/23 A3000 RMK AO2 LTG DSNT NE AND SE T02780226 $,0,12.0,0,16090.0,0,0,0,DS
2026-03-15 16:15:00,METAR KVNC 151615Z AUTO 18012KT 10SM FEW110 SCT320 28/23 A3001 RMK AO2 T02800226 $,0,12.0,0,16090.0,0,0,0,
2026-03-15 15:55:00,METAR KVNC 151555Z AUTO 19010KT 10SM BKN022 28/22 A3001 RMK AO2 CIG 018V026 T02770221 $,0,10.0,0,16090.0,0,0,0,
2026-03-15 15:35:00,METAR KVNC 151535Z AUTO 17011KT 10SM BKN020 OVC026 27/22 A3001 RMK AO2 CIG 017V025 BKN V OVC T02680223 $,0,11.0,0,16090.0,0,0,0,VC
2026-03-15 15:15:00,METAR KVNC 151515Z AUTO 14009KT 10SM BKN021 BKN027 27/22 A3002 RMK AO2 T02690219 $,0,9.0,0,16090.0,0,0,0,
2026-03-15 14:55:00,METAR KVNC 151455Z AUTO 13009KT 10SM FEW020 SCT095 SCT120 27/22 A3002 RMK AO2 T02670218 53010 $,0,9.0,0,16090.0,0,0,0,
2026-03-15 14:35:00,METAR KVNC 151435Z AUTO 13007KT 10SM SCT110 26/22 A3001 RMK AO2 T02610216 $,0,7.0,0,16090.0,0,0,0,
2026-03-15 14:15:00,METAR KVNC 151415Z AUTO 13008KT 10SM BKN110 25/21 A3001 RMK AO2 T02500211 $,0,8.0,0,16090.0,0,0,0,
2026-03-15 13:55:00,METAR KVNC 151355Z AUTO 12008KT 10SM SCT120 25/21 A3000 RMK AO2 LTG DSNT NE AND SW T02490208 $,0,8.0,0,16090.0,0,0,0,DS
2026-03-15 13:35:00,METAR KVNC 151335Z AUTO 12006KT 10SM CLR 24/20 A3000 RMK AO2 LTG DSNT NE T02410204 $,0,6.0,0,16090.0,0,0,0,DS
2026-03-15 13:15:00,METAR KVNC 151315Z AUTO 11005KT 10SM CLR 23/19 A3001 RMK AO2 T02300190 $,0,5.0,0,16090.0,0,0,0,
2026-03-15 12:55:00,METAR KVNC 151255Z AUTO 10004KT 10SM CLR 22/18 A3000 RMK AO2 LTG DSNT NE T02190184 $,0,4.0,0,16090.0,0,0,0,DS
2026-03-15 12:35:00,METAR KVNC 151235Z AUTO 09004KT 10SM CLR 21/19 A3000 RMK AO2 T02100188 $,0,4.0,0,16090.0,0,0,0,
2026-03-15 12:15:00,METAR KVNC 151215Z AUTO 08004KT 10SM CLR 20/19 A2999 RMK AO2 T02010186 $,0,4.0,0,16090.0,0,0,0,
2026-03-15 11:55:00,METAR KVNC 151155Z AUTO 08004KT 10SM SCT022 SCT030 BKN037 20/18 A2999 RMK AO2 T01970183 10198 20185 51010 $,0,4.0,0,16090.0,0,0,0,
2026-03-15 11:35:00,METAR KVNC 151135Z AUTO 09004KT 10SM BKN022 BKN029 BKN039 20/18 A2999 RMK AO2 BKN022 V SCT T01980184 $,0,4.0,0,16090.0,0,0,0,
2026-03-15 11:15:00,METAR KVNC 151115Z AUTO 08004KT 10SM SCT022 SCT042 BKN055 20/18 A2998 RMK AO2 T01950182 $,0,4.0,0,16090.0,0,0,0,
2026-03-15 10:55:00,METAR KVNC 151055Z AUTO 08003KT 10SM BKN022 OVC050 19/18 A2998 RMK AO2 T01940182 $,0,3.0,0,16090.0,0,0,0,
2026-03-15 10:35:00,METAR KVNC 151035Z AUTO 06004KT 10SM BKN022 BKN048 19/18 A2998 RMK AO2 T01930183 $,0,4.0,0,16090.0,0,0,0,
2026-03-15 10:15:00,METAR KVNC 151015Z AUTO 00000KT 10SM SCT022 19/18 A2998 RMK AO2 T01910179 $,0,0.0,0,16090.0,0,0,0,
2026-03-15 09:55:00,METAR KVNC 150955Z AUTO 00000KT 10SM CLR 19/18 A2997 RMK AO2 T01870177 $,0,0.0,0,16090.0,0,0,0,
2026-03-15 09:35:00,METAR KVNC 150935Z AUTO 07004KT 10SM CLR 19/18 A2997 RMK AO2 T01870177 $,0,4.0,0,16090.0,0,0,0,
2026-03-15 09:15:00,METAR KVNC 150915Z AUTO 08004KT 10SM CLR 19/18 A2996 RMK AO2 T01850177 $,0,4.0,0,16090.0,0,0,0,
2026-03-15 08:55:00,METAR KVNC 150855Z AUTO 08003KT 10SM CLR 19/18 A2996 RMK AO2 T01860178 58021 $,0,3.0,0,16090.0,0,0,0,
2026-03-15 08:35:00,METAR KVNC 150835Z AUTO 06005KT 10SM CLR 19/18 A2996 RMK AO2 T01860178 $,0,5.0,0,16090.0,0,0,0,
2026-03-15 08:15:00,METAR KVNC 150815Z AUTO 06004KT 10SM CLR 19/18 A2997 RMK AO2 T01880181 $,0,4.0,0,16090.0,0,0,0,
