Time_recorded,METAR,is_cavok,wind_speed,is_gust,visibility_meters,has_thunderstorm,has_heavy_rain,has_low_vis_fog,other_phenomenon
2026-05-02 15:35:00,METAR KSVH 021535Z AUTO 04005KT 10SM OVC050 13/01 A2997 RMK AO2 T01260014,0,5.0,0,16090.0,0,0,0,
2026-05-02 15:15:00,METAR KSVH 021515Z AUTO 01005KT 10SM OVC050 12/01 A2998 RMK AO2 T01220008,0,5.0,0,16090.0,0,0,0,
2026-05-02 14:55:00,METAR KSVH 021455Z AUTO 01005KT 10SM OVC050 12/00 A2998 RMK AO2 T01220001,0,5.0,0,16090.0,0,0,0,
2026-05-02 14:35:00,METAR KSVH 021435Z AUTO 03008KT 10SM OVC050 12/M01 A2996 RMK AO2 T01221006,0,8.0,0,16090.0,0,0,0,
2026-05-02 14:15:00,METAR KSVH 021415Z AUTO 03009KT 10SM OVC050 12/00 A2996 RMK AO2 T01220004,0,9.0,0,16090.0,0,0,0,
2026-05-02 13:55:00,METAR KSVH 021355Z AUTO 03006KT 10SM OVC050 12/01 A2996 RMK AO2 T01220014,0,6.0,0,16090.0,0,0,0,
2026-05-02 13:35:00,METAR KSVH 021335Z AUTO 03006KT 10SM OVC050 12/02 A2996 RMK AO2 T01220015,0,6.0,0,16090.0,0,0,0,
2026-05-02 13:15:00,METAR KSVH 021315Z AUTO 02008KT 010V070 10SM OVC050 12/03 A2995 RMK AO2 T01220034,0,8.0,0,16090.0,0,0,0,
2026-05-02 12:55:00,METAR KSVH 021255Z AUTO 03006KT 10SM OVC050 12/04 A2996 RMK AO2 T01220040,0,6.0,0,16090.0,0,0,0,
2026-05-02 12:35:00,METAR KSVH 021235Z AUTO 04005KT 10SM OVC050 12/04 A2995 RMK AO2 T01220039,0,5.0,0,16090.0,0,0,0,
2026-05-02 12:15:00,METAR KSVH 021215Z AUTO 04005KT 10SM OVC050 12/05 A2993 RMK AO2 T01230053,0,5.0,0,16090.0,0,0,0,
2026-05-02 11:55:00,METAR KSVH 021155Z AUTO 04006KT 10SM OVC048 12/05 A2993 RMK AO2 T01220047 10135 20122,0,6.0,0,16090.0,0,0,0,
2026-05-02 11:35:00,METAR KSVH 021135Z AUTO 03006KT 10SM BKN050 OVC065 12/05 A2993 RMK AO2 T01220047,0,6.0,0,16090.0,0,0,0,
2026-05-02 11:15:00,METAR KSVH 021115Z AUTO 02007KT 10SM BKN048 BKN050 OVC065 12/05 A2993 RMK AO2 T01220049,0,7.0,0,16090.0,0,0,0,
2026-05-02 10:55:00,METAR KSVH 021055Z AUTO 04006KT 10SM OVC046 12/05 A2992 RMK AO2 T01220051,0,6.0,0,16090.0,0,0,0,
2026-05-02 10:35:00,METAR KSVH 021035Z AUTO 04005KT 10SM OVC046 12/06 A2992 RMK AO2 T01230058,0,5.0,0,16090.0,0,0,0,
2026-05-02 10:15:00,METAR KSVH 021015Z AUTO 05005KT 10SM OVC044 13/06 A2992 RMK AO2 T01250061,0,5.0,0,16090.0,0,0,0,
2026-05-02 09:55:00,METAR KSVH 020955Z AUTO 05006KT 10SM OVC042 13/07 A2992 RMK AO2 T01270066,0,6.0,0,16090.0,0,0,0,
2026-05-02 09:35:00,METAR KSVH 020935Z AUTO 05005KT 10SM OVC040 13/06 A2993 RMK AO2 T01270063,0,5.0,0,16090.0,0,0,0,
2026-05-02 09:15:00,METAR KSVH 020915Z AUTO 05004KT 10SM OVC040 13/07 A2994 RMK AO2 T01300067,0,4.0,0,16090.0,0,0,0,
2026-05-02 08:55:00,METAR KSVH 020855Z AUTO 04005KT 10SM OVC036 13/07 A2994 RMK AO2 T01310072,0,5.0,0,16090.0,0,0,0,
2026-05-02 08:35:00,METAR KSVH 020835Z AUTO 04004KT 10SM OVC034 13/08 A2993 RMK AO2 T01310075,0,4.0,0,16090.0,0,0,0,
2026-05-02 08:15:00,METAR KSVH 020815Z AUTO 04006KT 10SM OVC032 13/07 A2992 RMK AO2 T01330074,0,6.0,0,16090.0,0,0,0,
2026-05-02 07:55:00,METAR KSVH 020755Z AUTO 06004KT 10SM OVC032 13/08 A2992 RMK AO2 T01320082,0,4.0,0,16090.0,0,0,0,
2026-05-02 07:35:00,METAR KSVH 020735Z AUTO 06004KT 10SM OVC030 13/09 A2991 RMK AO2 T01320087,0,4.0,0,16090.0,0,0,0,
2026-05-02 07:15:00,METAR KSVH 020715Z AUTO 00000KT 10SM SCT026 BKN080 13/10 A2991 RMK AO2 T01290100,0,0.0,0,16090.0,0,0,0,
2026-05-02 06:55:00,METAR KSVH 020655Z AUTO 00000KT 10SM SCT080 SCT120 13/10 A2990 RMK AO2 T01270100,0,0.0,0,16090.0,0,0,0,
2026-05-02 06:35:00,METAR KSVH 020635Z AUTO 00000KT 10SM SCT080 SCT120 12/10 A2991 RMK AO2 T01230101,0,0.0,0,16090.0,0,0,0,
2026-05-02 06:15:00,METAR KSVH 020615Z AUTO 00000KT 10SM CLR 13/10 A2991 RMK AO2 T01310101,0,0.0,0,16090.0,0,0,0,
2026-05-02 05:55:00,METAR KSVH 020555Z AUTO 00000KT 10SM CLR 13/10 A2991 RMK AO2 T01270100 10162 20125,0,0.0,0,16090.0,0,0,0,
2026-05-02 05:35:00,METAR KSVH 020535Z AUTO 00000KT 10SM CLR 13/10 A2991 RMK AO2 T01310101,0,0.0,0,16090.0,0,0,0,
2026-05-02 05:15:00,METAR KSVH 020515Z AUTO 00000KT 10SM CLR 13/10 A2991 RMK AO2 T01250101,0,0.0,0,16090.0,0,0,0,
2026-05-02 04:55:00,METAR KSVH 020455Z AUTO 00000KT 10SM CLR 13/10 A2991 RMK AO2 T01310098 402000101,0,0.0,0,16090.0,0,0,0,
2026-05-02 04:35:00,METAR KSVH 020435Z AUTO 00000KT 10SM CLR 13/10 A2992 RMK AO2 T01300098,0,0.0,0,16090.0,0,0,0,
2026-05-02 04:15:00,METAR KSVH 020415Z AUTO 00000KT 10SM CLR 13/10 A2992 RMK AO2 T01330095,0,0.0,0,16090.0,0,0,0,
2026-05-02 03:55:00,METAR KSVH 020355Z AUTO 00000KT 10SM CLR 13/10 A2992 RMK AO2 T01310095,0,0.0,0,16090.0,0,0,0,
2026-05-02 03:35:00,METAR KSVH 020335Z AUTO 00000KT 10SM CLR 14/10 A2992 RMK AO2 T01350095,0,0.0,0,16090.0,0,0,0,
2026-05-02 03:15:00,METAR KSVH 020315Z AUTO 00000KT 10SM CLR 14/09 A2993 RMK AO2 T01350092,0,0.0,0,16090.0,0,0,0,
2026-05-02 02:55:00,METAR KSVH 020255Z AUTO 00000KT 10SM CLR 13/09 A2994 RMK AO2 T01330092,0,0.0,0,16090.0,0,0,0,
2026-05-02 02:35:00,METAR KSVH 020235Z AUTO 00000KT 10SM CLR 14/09 A2993 RMK AO2 T01360090,0,0.0,0,16090.0,0,0,0,
2026-05-02 02:15:00,METAR KSVH 020215Z AUTO 19003KT 10SM CLR 14/09 A2993 RMK AO2 T01350092,0,3.0,0,16090.0,0,0,0,
2026-05-02 01:55:00,METAR KSVH 020155Z AUTO 00000KT 10SM CLR 14/09 A2992 RMK AO2 T01380090,0,0.0,0,16090.0,0,0,0,
2026-05-02 01:35:00,METAR KSVH 020135Z AUTO 00000KT 10SM CLR 14/09 A2992 RMK AO2 T01420087,0,0.0,0,16090.0,0,0,0,
2026-05-02 01:15:00,METAR KSVH 020115Z AUTO 00000KT 10SM CLR 15/09 A2993 RMK AO2 T01450086,0,0.0,0,16090.0,0,0,0,
2026-05-02 00:55:00,METAR KSVH 020055Z AUTO 00000KT 10SM CLR 15/09 A2992 RMK AO2 T01470085,0,0.0,0,16090.0,0,0,0,
2026-05-02 00:35:00,METAR KSVH 020035Z AUTO 15003KT 10SM CLR 15/09 A2991 RMK AO2 T01520085,0,3.0,0,16090.0,0,0,0,
2026-05-02 00:15:00,METAR KSVH 020015Z AUTO 15003KT 10SM CLR 16/09 A2989 RMK AO2 T01610086,0,3.0,0,16090.0,0,0,0,
2026-05-01 23:55:00,METAR KSVH 012355Z AUTO 00000KT 10SM CLR 16/08 A2988 RMK AO2 T01620083 10200 20162,0,0.0,0,16090.0,0,0,0,
2026-05-01 23:35:00,METAR KSVH 012335Z AUTO 18004KT 10SM CLR 17/08 A2987 RMK AO2 T01710078,0,4.0,0,16090.0,0,0,0,
2026-05-01 23:15:00,METAR KSVH 012315Z AUTO 17007KT 10SM CLR 18/07 A2988 RMK AO2 T01770072,0,7.0,0,16090.0,0,0,0,
2026-05-01 22:55:00,METAR KSVH 012255Z AUTO 19005KT 10SM CLR 18/07 A2988 RMK AO2 T01840070,0,5.0,0,16090.0,0,0,0,
2026-05-01 22:35:00,METAR KSVH 012235Z AUTO 19005KT 10SM CLR 19/07 A2989 RMK AO2 T01890072,0,5.0,0,16090.0,0,0,0,
2026-05-01 22:15:00,METAR KSVH 012215Z AUTO 19006KT 10SM CLR 19/06 A2989 RMK AO2 T01900063,0,6.0,0,16090.0,0,0,0,
2026-05-01 21:55:00,METAR KSVH 012155Z AUTO 16005KT 10SM CLR 19/06 A2989 RMK AO2 T01890060,0,5.0,0,16090.0,0,0,0,
2026-05-01 21:35:00,METAR KSVH 012135Z AUTO 15006KT 10SM CLR 19/06 A2989 RMK AO2 T01900058,0,6.0,0,16090.0,0,0,0,
2026-05-01 21:15:00,METAR KSVH 012115Z AUTO 18004KT 10SM CLR 19/06 A2990 RMK AO2 T01920058,0,4.0,0,16090.0,0,0,0,
2026-05-01 20:55:00,METAR KSVH 012055Z AUTO 20006KT 10SM CLR 20/06 A2990 RMK AO2 T02000063,0,6.0,0,16090.0,0,0,0,
2026-05-01 20:35:00,METAR KSVH 012035Z AUTO 14008KT 10SM CLR 20/06 A2990 RMK AO2 T01950058,0,8.0,0,16090.0,0,0,0,
2026-05-01 20:15:00,METAR KSVH 012015Z AUTO 18005KT 10SM CLR 19/06 A2991 RMK AO2 T01940056,0,5.0,0,16090.0,0,0,0,
2026-05-01 19:55:00,METAR KSVH 011955Z AUTO 19006KT 10SM CLR 20/05 A2992 RMK AO2 T01950050,0,6.0,0,16090.0,0,0,0,
2026-05-01 19:35:00,METAR KSVH 011935Z AUTO 16007KT 10SM CLR 20/05 A2992 RMK AO2 T01970051,0,7.0,0,16090.0,0,0,0,
2026-05-01 19:15:00,METAR KSVH 011915Z AUTO 17004KT 10SM CLR 20/04 A2994 RMK AO2 T01960043,0,4.0,0,16090.0,0,0,0,
2026-05-01 18:55:00,METAR KSVH 011855Z AUTO 19006KT 10SM CLR 20/04 A2995 RMK AO2 T01960040,0,6.0,0,16090.0,0,0,0,
2026-05-01 18:35:00,METAR KSVH 011835Z AUTO 15004KT 10SM SCT050 20/04 A2995 RMK AO2 T01960042,0,4.0,0,16090.0,0,0,0,
2026-05-01 18:15:00,METAR KSVH 011815Z AUTO 00000KT 10SM BKN055 19/03 A2996 RMK AO2 T01900028,0,0.0,0,16090.0,0,0,0,
2026-05-01 17:55:00,METAR KSVH 011755Z AUTO 21007KT 10SM BKN055 19/04 A2997 RMK AO2 T01900043 10191 20112,0,7.0,0,16090.0,0,0,0,
2026-05-01 17:35:00,METAR KSVH 011735Z AUTO 21003KT 10SM SCT055 19/04 A2997 RMK AO2 T01870044,0,3.0,0,16090.0,0,0,0,
2026-05-01 17:15:00,METAR KSVH 011715Z AUTO 00000KT 10SM CLR 18/04 A2998 RMK AO2 T01800039,0,0.0,0,16090.0,0,0,0,
2026-05-01 16:55:00,METAR KSVH 011655Z AUTO 13004KT 10SM CLR 18/04 A2998 RMK AO2 T01760038,0,4.0,0,16090.0,0,0,0,
2026-05-01 16:35:00,METAR KSVH 011635Z AUTO 00000KT 10SM CLR 17/04 A2999 RMK AO2 T01700035,0,0.0,0,16090.0,0,0,0,
2026-05-01 16:15:00,METAR KSVH 011615Z AUTO 00000KT 10SM CLR 16/03 A3000 RMK AO2 T01620025,0,0.0,0,16090.0,0,0,0,
2026-05-01 15:55:00,METAR KSVH 011555Z AUTO 15006KT 10SM SCT050 16/02 A3001 RMK AO2 T01620024,0,6.0,0,16090.0,0,0,0,
2026-05-01 15:35:00,METAR KSVH 011535Z AUTO 00000KT 10SM SCT050 16/02 A3001 RMK AO2 T01550022,0,0.0,0,16090.0,0,0,0,
2026-05-01 15:15:00,METAR KSVH 011515Z AUTO 00000KT 10SM CLR 15/03 A3002 RMK AO2 T01540030,0,0.0,0,16090.0,0,0,0,
2026-05-01 14:55:00,METAR KSVH 011455Z AUTO 05006KT 10SM SCT120 15/03 A3002 RMK AO2 T01520028,0,6.0,0,16090.0,0,0,0,
2026-05-01 14:35:00,METAR KSVH 011435Z AUTO 12005KT 10SM OVC120 14/03 A3002 RMK AO2 T01390025,0,5.0,0,16090.0,0,0,0,
2026-05-01 14:15:00,METAR KSVH 011415Z AUTO 06007KT 10SM SCT060 BKN120 14/02 A3002 RMK AO2 T01420022,0,7.0,0,16090.0,0,0,0,
2026-05-01 13:55:00,METAR KSVH 011355Z AUTO 07008KT 10SM BKN060 14/02 A3002 RMK AO2 T01350022,0,8.0,0,16090.0,0,0,0,
2026-05-01 13:35:00,METAR KSVH 011335Z AUTO 05007KT 10SM BKN060 OVC085 13/02 A3002 RMK AO2 T01280021,0,7.0,0,16090.0,0,0,0,
2026-05-01 13:15:00,METAR KSVH 011315Z AUTO 09006KT 10SM BKN085 12/03 A3002 RMK AO2 T01230027,0,6.0,0,16090.0,0,0,0,
2026-05-01 12:55:00,METAR KSVH 011255Z AUTO 08008KT 10SM BKN080 12/03 A3002 RMK AO2 T01220025,0,8.0,0,16090.0,0,0,0,
2026-05-01 12:35:00,METAR KSVH 011235Z AUTO 08008G14KT 10SM BKN080 12/03 A3001 RMK AO2 T01190027,0,8.0,1,16090.0,0,0,0,
2026-05-01 12:15:00,METAR KSVH 011215Z AUTO 07004KT 10SM BKN080 12/03 A3002 RMK AO2 T01160027,0,4.0,0,16090.0,0,0,0,
2026-05-01 11:55:00,METAR KSVH 011155Z AUTO 07006KT 10SM BKN080 OVC110 11/03 A3001 RMK AO2 T01110025 10115 20101,0,6.0,0,16090.0,0,0,0,
2026-05-01 11:35:00,METAR KSVH 011135Z AUTO 07006KT 10SM BKN080 OVC110 11/02 A3001 RMK AO2 T01070021,0,6.0,0,16090.0,0,0,0,
2026-05-01 11:15:00,METAR KSVH 011115Z AUTO 05005KT 10SM BKN085 OVC100 10/02 A3000 RMK AO2 T01030021,0,5.0,0,16090.0,0,0,0,
2026-05-01 10:55:00,METAR KSVH 011055Z AUTO 06004KT 10SM SCT085 BKN095 OVC120 10/03 A3000 RMK AO2 T01020029,0,4.0,0,16090.0,0,0,0,
2026-05-01 10:35:00,METAR KSVH 011035Z AUTO 05003KT 10SM BKN075 OVC110 10/03 A3000 RMK AO2 T01020029,0,3.0,0,16090.0,0,0,0,
2026-05-01 10:15:00,METAR KSVH 011015Z AUTO 06003KT 10SM OVC075 10/03 A3000 RMK AO2 T01020025,0,3.0,0,16090.0,0,0,0,
2026-05-01 09:55:00,METAR KSVH 010955Z AUTO 06006KT 10SM OVC075 11/02 A2998 RMK AO2 T01050023,0,6.0,0,16090.0,0,0,0,
2026-05-01 09:35:00,METAR KSVH 010935Z AUTO 05004KT 10SM BKN080 11/02 A2998 RMK AO2 T01050023,0,4.0,0,16090.0,0,0,0,
2026-05-01 09:15:00,METAR KSVH 010915Z AUTO 05005KT 10SM SCT090 10/03 A2997 RMK AO2 T01020025,0,5.0,0,16090.0,0,0,0,
2026-05-01 08:55:00,METAR KSVH 010855Z AUTO 05004KT 10SM SCT080 11/02 A2997 RMK AO2 T01050022,0,4.0,0,16090.0,0,0,0,
2026-05-01 08:35:00,METAR KSVH 010835Z AUTO 05006KT 10SM BKN080 11/03 A2997 RMK AO2 T01070026,0,6.0,0,16090.0,0,0,0,
2026-05-01 08:15:00,METAR KSVH 010815Z AUTO 05005KT 10SM OVC080 11/03 A2997 RMK AO2 T01080030,0,5.0,0,16090.0,0,0,0,
2026-05-01 07:55:00,METAR KSVH 010755Z AUTO 06004KT 10SM OVC080 11/03 A2997 RMK AO2 T01110030,0,4.0,0,16090.0,0,0,0,
2026-05-01 07:35:00,METAR KSVH 010735Z AUTO 07004KT 10SM BKN080 BKN100 11/03 A2997 RMK AO2 T01120031,0,4.0,0,16090.0,0,0,0,
2026-05-01 07:15:00,METAR KSVH 010715Z AUTO 07006KT 10SM BKN090 11/03 A2997 RMK AO2 T01120028,0,6.0,0,16090.0,0,0,0,
2026-05-01 06:55:00,METAR KSVH 010655Z AUTO 07005KT 10SM BKN090 11/03 A2997 RMK AO2 T01120028,0,5.0,0,16090.0,0,0,0,
2026-05-01 06:35:00,METAR KSVH 010635Z AUTO 06005KT 10SM BKN090 11/03 A2997 RMK AO2 T01120030,0,5.0,0,16090.0,0,0,0,
2026-05-01 06:15:00,METAR KSVH 010615Z AUTO 06003KT 10SM OVC090 11/03 A2997 RMK AO2 T01120026,0,3.0,0,16090.0,0,0,0,
2026-05-01 05:55:00,METAR KSVH 010555Z AUTO 06003KT 10SM OVC090 11/02 A2997 RMK AO2 T01120024 10194 20103,0,3.0,0,16090.0,0,0,0,
2026-05-01 05:35:00,METAR KSVH 010535Z AUTO 06004KT 10SM BKN090 11/02 A2997 RMK AO2 T01130022,0,4.0,0,16090.0,0,0,0,
2026-05-01 05:15:00,METAR KSVH 010515Z AUTO 06003KT 10SM BKN090 11/03 A2997 RMK AO2 T01070026,0,3.0,0,16090.0,0,0,0,
2026-05-01 04:55:00,METAR KSVH 010455Z AUTO 04004KT 10SM SCT090 12/02 A2996 RMK AO2 T01180016 402410103,0,4.0,0,16090.0,0,0,0,
2026-05-01 04:35:00,METAR KSVH 010435Z AUTO 00000KT 10SM BKN090 11/05 A2995 RMK AO2 T01050045,0,0.0,0,16090.0,0,0,0,
2026-05-01 04:15:00,METAR KSVH 010415Z AUTO 00000KT 10SM BKN090 13/03 A2995 RMK AO2 T01250026,0,0.0,0,16090.0,0,0,0,
2026-05-01 03:55:00,METAR KSVH 010355Z AUTO 00000KT 10SM SCT090 12/03 A2994 RMK AO2 T01220034,0,0.0,0,16090.0,0,0,0,
2026-05-01 03:35:00,METAR KSVH 010335Z AUTO 03003KT 10SM SCT085 14/02 A2994 RMK AO2 T01350015,0,3.0,0,16090.0,0,0,0,
2026-05-01 03:15:00,METAR KSVH 010315Z AUTO 00000KT 10SM SCT085 12/03 A2994 RMK AO2 T01230029,0,0.0,0,16090.0,0,0,0,
2026-05-01 02:55:00,METAR KSVH 010255Z AUTO 02003KT 10SM CLR 15/01 A2994 RMK AO2 T01460010,0,3.0,0,16090.0,0,0,0,
2026-05-01 02:35:00,METAR KSVH 010235Z AUTO 00000KT 10SM CLR 14/02 A2994 RMK AO2 T01350018,0,0.0,0,16090.0,0,0,0,
2026-05-01 02:15:00,METAR KSVH 010215Z AUTO 00000KT 10SM CLR 16/01 A2993 RMK AO2 T01560010,0,0.0,0,16090.0,0,0,0,
2026-05-01 01:55:00,METAR KSVH 010155Z AUTO 36003KT 10SM CLR 16/01 A2992 RMK AO2 T01610006,0,3.0,0,16090.0,0,0,0,
2026-05-01 01:35:00,METAR KSVH 010135Z AUTO 35003KT 10SM CLR 17/01 A2991 RMK AO2 T01660005,0,3.0,0,16090.0,0,0,0,
2026-05-01 01:15:00,METAR KSVH 010115Z AUTO 34004KT 10SM CLR 17/01 A2990 RMK AO2 T01710009,0,4.0,0,16090.0,0,0,0,
2026-05-01 00:55:00,METAR KSVH 010055Z AUTO 34003KT 10SM CLR 17/01 A2989 RMK AO2 T01720009,0,3.0,0,16090.0,0,0,0,
2026-05-01 00:35:00,METAR KSVH 010035Z AUTO 34005KT 10SM CLR 18/01 A2988 RMK AO2 T01820011,0,5.0,0,16090.0,0,0,0,
2026-05-01 00:15:00,METAR KSVH 010015Z AUTO 35004KT 10SM CLR 19/02 A2987 RMK AO2 T01880018,0,4.0,0,16090.0,0,0,0,
2026-04-30 23:55:00,METAR KSVH 302355Z AUTO 00000KT 10SM CLR 20/02 A2986 RMK AO2 T01960021 10241 20196,0,0.0,0,16090.0,0,0,0,
2026-04-30 23:35:00,METAR KSVH 302335Z AUTO 34003KT 10SM SCT075 21/01 A2985 RMK AO2 T02080014,0,3.0,0,16090.0,0,0,0,
2026-04-30 23:15:00,METAR KSVH 302315Z AUTO 33007KT 10SM SCT075 21/02 A2985 RMK AO2 T02120019,0,7.0,0,16090.0,0,0,0,
2026-04-30 22:55:00,METAR KSVH 302255Z AUTO 35006KT 10SM SCT085 SCT090 22/01 A2984 RMK AO2 T02150014,0,6.0,0,16090.0,0,0,0,
2026-04-30 22:35:00,METAR KSVH 302235Z AUTO 36007KT 10SM BKN085 22/03 A2984 RMK AO2 T02190029,0,7.0,0,16090.0,0,0,0,
2026-04-30 22:15:00,METAR KSVH 302215Z AUTO 32008KT 10SM CLR 22/02 A2983 RMK AO2 T02240015,0,8.0,0,16090.0,0,0,0,
2026-04-30 21:55:00,METAR KSVH 302155Z AUTO 34008KT 10SM SCT085 23/03 A2983 RMK AO2 T02290029,0,8.0,0,16090.0,0,0,0,
2026-04-30 21:35:00,METAR KSVH 302135Z AUTO 32007KT 10SM CLR 23/02 A2983 RMK AO2 T02290022,0,7.0,0,16090.0,0,0,0,
2026-04-30 21:15:00,METAR KSVH 302115Z AUTO 30008KT 10SM CLR 23/03 A2983 RMK AO2 T02290029,0,8.0,0,16090.0,0,0,0,
2026-04-30 20:55:00,METAR KSVH 302055Z AUTO 34006G15KT 10SM CLR 23/02 A2982 RMK AO2 T02320022,0,6.0,1,16090.0,0,0,0,
2026-04-30 20:35:00,METAR KSVH 302035Z AUTO 31008KT 10SM CLR 23/03 A2982 RMK AO2 T02320032,0,8.0,0,16090.0,0,0,0,
2026-04-30 20:15:00,METAR KSVH 302015Z AUTO 30009KT 270V350 10SM CLR 24/05 A2982 RMK AO2 T02380048,0,9.0,0,16090.0,0,0,0,
2026-04-30 19:55:00,METAR KSVH 301955Z AUTO 31008G14KT 10SM SCT075 24/05 A2982 RMK AO2 T02360046,0,8.0,1,16090.0,0,0,0,
2026-04-30 19:35:00,METAR KSVH 301935Z AUTO 32008KT 10SM BKN075 23/05 A2982 RMK AO2 T02290049,0,8.0,0,16090.0,0,0,0,
2026-04-30 19:15:00,METAR KSVH 301915Z AUTO 35008KT 10SM BKN075 24/04 A2982 RMK AO2 T02360044,0,8.0,0,16090.0,0,0,0,
2026-04-30 18:55:00,METAR KSVH 301855Z AUTO 31010G15KT 10SM SCT070 23/04 A2983 RMK AO2 T02300042,0,10.0,1,16090.0,0,0,0,
2026-04-30 18:35:00,METAR KSVH 301835Z AUTO 29007G15KT 10SM SCT060 23/06 A2984 RMK AO2 T02320062,0,7.0,1,16090.0,0,0,0,
2026-04-30 18:15:00,METAR KSVH 301815Z AUTO 26007KT 10SM SCT060 23/08 A2984 RMK AO2 T02300076,0,7.0,0,16090.0,0,0,0,
2026-04-30 17:55:00,METAR KSVH 301755Z AUTO 27005KT 10SM SCT060 23/08 A2984 RMK AO2 T02280076 10229 20140,0,5.0,0,16090.0,0,0,0,
2026-04-30 17:35:00,METAR KSVH 301735Z AUTO 27009G16KT 10SM SCT050 23/09 A2985 RMK AO2 T02270089,0,9.0,1,16090.0,0,0,0,
2026-04-30 17:15:00,METAR KSVH 301715Z AUTO 36003KT 10SM SCT050 22/09 A2985 RMK AO2 T02170090,0,3.0,0,16090.0,0,0,0,
2026-04-30 16:55:00,METAR KSVH 301655Z AUTO 00000KT 10SM SCT043 BKN050 21/09 A2985 RMK AO2 T02090092,0,0.0,0,16090.0,0,0,0,
2026-04-30 16:35:00,METAR KSVH 301635Z AUTO 33003KT 10SM BKN043 BKN049 20/09 A2986 RMK AO2 T02000091,0,3.0,0,16090.0,0,0,0,
2026-04-30 16:15:00,METAR KSVH 301615Z AUTO 28006KT 10SM BKN041 BKN050 20/09 A2986 RMK AO2 T02020092,0,6.0,0,16090.0,0,0,0,
2026-04-30 14:55:00,METAR KSVH 301455Z AUTO 36003KT 10SM SCT055 19/09 A2987 RMK AO2 T01910092,0,3.0,0,16090.0,0,0,0,
2026-04-30 14:35:00,METAR KSVH 301435Z AUTO 04004KT 10SM OVC055 19/10 A2988 RMK AO2 T01850095,0,4.0,0,16090.0,0,0,0,
2026-04-30 14:15:00,METAR KSVH 301415Z AUTO 00000KT 10SM OVC055 18/10 A2989 RMK AO2 T01780099,0,0.0,0,16090.0,0,0,0,
2026-04-30 13:55:00,METAR KSVH 301355Z AUTO 00000KT 10SM OVC055 16/10 A2988 RMK AO2 T01610104,0,0.0,0,16090.0,0,0,0,
2026-04-30 13:35:00,METAR KSVH 301335Z AUTO 00000KT 10SM BKN055 BKN090 15/11 A2989 RMK AO2 T01490108,0,0.0,0,16090.0,0,0,0,
2026-04-30 13:15:00,METAR KSVH 301315Z AUTO 00000KT 10SM OVC055 15/12 A2990 RMK AO2 T01450115,0,0.0,0,16090.0,0,0,0,
2026-04-30 12:55:00,METAR KSVH 301255Z AUTO 00000KT 10SM BKN055 14/12 A2990 RMK AO2 T01440120,0,0.0,0,16090.0,0,0,0,
2026-04-30 12:35:00,METAR KSVH 301235Z AUTO 00000KT 10SM SCT055 BKN110 14/12 A2991 RMK AO2 T01410118,0,0.0,0,16090.0,0,0,0,
2026-04-30 12:15:00,METAR KSVH 301215Z AUTO 00000KT 10SM OVC110 14/11 A2988 RMK AO2 T01420112,0,0.0,0,16090.0,0,0,0,
2026-04-30 11:55:00,METAR KSVH 301155Z AUTO 22003KT 10SM OVC120 14/11 A2990 RMK AO2 T01390112 10174 20136,0,3.0,0,16090.0,0,0,0,
2026-04-30 11:35:00,METAR KSVH 301135Z AUTO 00000KT 10SM BKN120 14/12 A2987 RMK AO2 T01370115,0,0.0,0,16090.0,0,0,0,
2026-04-30 11:15:00,METAR KSVH 301115Z AUTO 00000KT 10SM CLR 14/11 A2986 RMK AO2 T01400111,0,0.0,0,16090.0,0,0,0,
2026-04-30 10:55:00,METAR KSVH 301055Z AUTO 00000KT 10SM CLR 14/11 A2984 RMK AO2 T01410110,0,0.0,0,16090.0,0,0,0,
2026-04-30 10:35:00,METAR KSVH 301035Z AUTO 00000KT 10SM CLR 14/11 A2982 RMK AO2 T01430107,0,0.0,0,16090.0,0,0,0,
2026-04-30 10:15:00,METAR KSVH 301015Z AUTO 07003KT 10SM CLR 15/11 A2982 RMK AO2 T01460107,0,3.0,0,16090.0,0,0,0,
2026-04-30 09:55:00,METAR KSVH 300955Z AUTO 06003KT 10SM CLR 15/11 A2982 RMK AO2 T01480108,0,3.0,0,16090.0,0,0,0,
2026-04-30 09:35:00,METAR KSVH 300935Z AUTO 07004KT 10SM CLR 15/11 A2982 RMK AO2 T01510107,0,4.0,0,16090.0,0,0,0,
2026-04-30 09:15:00,METAR KSVH 300915Z AUTO 06003KT 10SM CLR 16/10 A2982 RMK AO2 T01560104,0,3.0,0,16090.0,0,0,0,
2026-04-30 08:55:00,METAR KSVH 300855Z AUTO 07003KT 10SM CLR 16/11 A2982 RMK AO2 T01600106,0,3.0,0,16090.0,0,0,0,
2026-04-30 08:35:00,METAR KSVH 300835Z AUTO 02008KT 10SM CLR 16/11 A2982 RMK AO2 T01610108,0,8.0,0,16090.0,0,0,0,
2026-04-30 08:15:00,METAR KSVH 300815Z AUTO 02007KT 10SM CLR 16/12 A2982 RMK AO2 T01610117,0,7.0,0,16090.0,0,0,0,
2026-04-30 07:55:00,METAR KSVH 300755Z AUTO 01006KT 10SM CLR 17/12 A2981 RMK AO2 T01700121,0,6.0,0,16090.0,0,0,0,
2026-04-30 07:35:00,METAR KSVH 300735Z AUTO 01003KT 10SM CLR 17/13 A2981 RMK AO2 T01700126,0,3.0,0,16090.0,0,0,0,
2026-04-30 07:15:00,METAR KSVH 300715Z AUTO 36006KT 10SM CLR 17/13 A2980 RMK AO2 T01710134,0,6.0,0,16090.0,0,0,0,
2026-04-30 06:55:00,METAR KSVH 300655Z AUTO 36005KT 10SM CLR 17/14 A2980 RMK AO2 T01690140,0,5.0,0,16090.0,0,0,0,
2026-04-30 06:35:00,METAR KSVH 300635Z AUTO 02003KT 10SM CLR 16/14 A2980 RMK AO2 T01620143,0,3.0,0,16090.0,0,0,0,
2026-04-30 06:15:00,METAR KSVH 300615Z AUTO 07003KT 10SM CLR 16/14 A2981 RMK AO2 T01630143,0,3.0,0,16090.0,0,0,0,
2026-04-30 05:55:00,METAR KSVH 300555Z AUTO 00000KT 10SM CLR 16/14 A2982 RMK AO2 T01610142 10228 20161,0,0.0,0,16090.0,0,0,0,
2026-04-30 05:35:00,METAR KSVH 300535Z AUTO 34006KT 10SM CLR 16/15 A2983 RMK AO2 T01630145,0,6.0,0,16090.0,0,0,0,
2026-04-30 05:15:00,METAR KSVH 300515Z AUTO 00000KT 10SM CLR 16/15 A2984 RMK AO2 T01640146,0,0.0,0,16090.0,0,0,0,
2026-04-30 04:55:00,METAR KSVH 300455Z AUTO 00000KT 10SM CLR 16/15 A2984 RMK AO2 T01630148,0,0.0,0,16090.0,0,0,0,
2026-04-30 04:35:00,METAR KSVH 300435Z AUTO 00000KT 10SM CLR 17/15 A2984 RMK AO2 T01690154,0,0.0,0,16090.0,0,0,0,
2026-04-30 04:15:00,METAR KSVH 300415Z AUTO 00000KT 10SM CLR 18/15 A2983 RMK AO2 T01780147,0,0.0,0,16090.0,0,0,0,
2026-04-30 03:55:00,METAR KSVH 300355Z AUTO 36003KT 10SM SCT070 19/15 A2983 RMK AO2 T01850145,0,3.0,0,16090.0,0,0,0,
2026-04-30 03:35:00,METAR KSVH 300335Z AUTO 00000KT 10SM CLR 20/14 A2984 RMK AO2 T01950140,0,0.0,0,16090.0,0,0,0,
2026-04-30 03:15:00,METAR KSVH 300315Z AUTO 00000KT 10SM CLR 20/14 A2983 RMK AO2 T01980143,0,0.0,0,16090.0,0,0,0,
2026-04-30 02:55:00,METAR KSVH 300255Z AUTO 32004KT 10SM CLR 20/15 A2984 RMK AO2 T02020146,0,4.0,0,16090.0,0,0,0,
2026-04-30 02:35:00,METAR KSVH 300235Z AUTO 31005KT 10SM CLR 21/15 A2983 RMK AO2 T02050154,0,5.0,0,16090.0,0,0,0,
2026-04-30 02:15:00,METAR KSVH 300215Z AUTO 00000KT 10SM CLR 20/16 A2983 RMK AO2 T01990164,0,0.0,0,16090.0,0,0,0,
2026-04-30 01:55:00,METAR KSVH 300155Z AUTO 31005KT 10SM CLR 21/17 A2982 RMK AO2 T02090165,0,5.0,0,16090.0,0,0,0,
2026-04-30 01:35:00,METAR KSVH 300135Z AUTO 29007KT 10SM SCT070 20/17 A2981 RMK AO2 T02040168,0,7.0,0,16090.0,0,0,0,
2026-04-30 01:15:00,METAR KSVH 300115Z AUTO 27004KT 10SM SCT070 BKN080 19/17 A2980 RMK AO2 T01910170,0,4.0,0,16090.0,0,0,0,
2026-04-30 00:55:00,METAR KSVH 300055Z AUTO 28004KT 10SM SCT070 20/17 A2980 RMK AO2 T01960168,0,4.0,0,16090.0,0,0,0,
2026-04-30 00:35:00,METAR KSVH 300035Z AUTO 00000KT 10SM CLR 21/17 A2979 RMK AO2 T02100168,0,0.0,0,16090.0,0,0,0,
2026-04-30 00:15:00,METAR KSVH 300015Z AUTO 00000KT 10SM CLR 22/17 A2978 RMK AO2 T02150165,0,0.0,0,16090.0,0,0,0,
2026-04-29 23:55:00,METAR KSVH 292355Z AUTO 00000KT 10SM CLR 23/17 A2977 RMK AO2 T02300168,0,0.0,0,16090.0,0,0,0,
2026-04-29 23:35:00,METAR KSVH 292335Z AUTO 21004KT 10SM CLR 24/17 A2977 RMK AO2 T02400171,0,4.0,0,16090.0,0,0,0,
2026-04-29 23:15:00,METAR KSVH 292315Z AUTO 22006KT 10SM CLR 24/17 A2977 RMK AO2 T02430170,0,6.0,0,16090.0,0,0,0,
2026-04-29 22:55:00,METAR KSVH 292255Z AUTO 23003KT 7SM SCT043 SCT050 SCT060 26/17 A2977 RMK AO2 T02560168,0,3.0,0,11263.0,0,0,0,
2026-04-29 22:15:00,METAR KSVH 292215Z AUTO 17003KT 10SM SCT120 26/17 A2977 RMK AO2 T02610173,0,3.0,0,16090.0,0,0,0,
2026-04-29 21:55:00,METAR KSVH 292155Z AUTO 20003KT 10SM SCT044 SCT055 BKN080 25/17 A2977 RMK AO2 T02500172,0,3.0,0,16090.0,0,0,0,
2026-04-29 21:35:00,METAR KSVH 292135Z AUTO 20004KT 10SM SCT044 SCT050 BKN065 25/17 A2978 RMK AO2 T02500165,0,4.0,0,16090.0,0,0,0,
2026-04-29 21:15:00,METAR KSVH 292115Z AUTO 00000KT 10SM SCT044 BKN055 BKN070 26/16 A2978 RMK AO2 T02590164,0,0.0,0,16090.0,0,0,0,
2026-04-29 20:55:00,METAR KSVH 292055Z AUTO 00000KT 10SM SCT044 BKN055 BKN070 25/17 A2979 RMK AO2 T02500170,0,0.0,0,16090.0,0,0,0,
2026-04-29 20:35:00,METAR KSVH 292035Z AUTO 00000KT 10SM SCT033 BKN055 OVC080 24/17 A2979 RMK AO2 T02430166,0,0.0,0,16090.0,0,0,0,
2026-04-29 20:15:00,METAR KSVH 292015Z AUTO 00000KT 10SM SCT036 BKN050 BKN065 25/17 A2979 RMK AO2 T02510168,0,0.0,0,16090.0,0,0,0,
2026-04-29 19:55:00,METAR KSVH 291955Z AUTO 20005KT 10SM BKN034 BKN041 25/17 A2980 RMK AO2 T02500165,0,5.0,0,16090.0,0,0,0,
2026-04-29 19:35:00,METAR KSVH 291935Z AUTO 15006KT 10SM OVC032 26/17 A2981 RMK AO2 T02570167,0,6.0,0,16090.0,0,0,0,
2026-04-29 19:15:00,METAR KSVH 291915Z AUTO 11003KT 25/17 A2982 RMK AO2 T02500167 PWINO,0,3.0,0,,0,0,0,
2026-04-29 18:50:00,METAR KSVH 291850Z AUTO 22005KT 10SM 24/17 A2983 RMK AO2 T02420167,0,5.0,0,16090.0,0,0,0,
2026-04-29 18:30:00,METAR KSVH 291830Z AUTO 21005KT 10SM SCT022 23/17 A2984 RMK AO2 T02340171,0,5.0,0,16090.0,0,0,0,
2026-04-29 18:15:00,METAR KSVH 291815Z AUTO 18005KT 10SM 23/17 A2985 RMK AO2 T02270167,0,5.0,0,16090.0,0,0,0,
2026-04-29 17:55:00,METAR KSVH 291755Z AUTO 19004KT 10SM BKN019 22/16 A2986 RMK AO2 T02210163 10222 20152,0,4.0,0,16090.0,0,0,0,
2026-04-29 17:35:00,METAR KSVH 291735Z AUTO 24005KT 10SM OVC017 22/17 A2987 RMK AO2 T02150165,0,5.0,0,16090.0,0,0,0,
2026-04-29 17:15:00,METAR KSVH 291715Z AUTO 28004KT 10SM OVC015 20/16 A2988 RMK AO2 T02040163,0,4.0,0,16090.0,0,0,0,
2026-04-29 16:55:00,METAR KSVH 291655Z AUTO 28005KT 10SM BKN013 OVC020 20/16 A2990 RMK AO2 T02000164,0,5.0,0,16090.0,0,0,0,
2026-04-29 16:35:00,METAR KSVH 291635Z AUTO 23007KT 10SM OVC009 18/16 A2992 RMK AO2 T01830160,0,7.0,0,16090.0,0,0,0,
2026-04-29 16:15:00,METAR KSVH 291615Z AUTO 21005KT 10SM OVC009 18/16 A2992 RMK AO2 T01790161,0,5.0,0,16090.0,0,0,0,
2026-04-29 15:55:00,METAR KSVH 291555Z AUTO 24003KT 10SM BKN007 OVC013 17/16 A2992 RMK AO2 T01740161,0,3.0,0,16090.0,0,0,0,
2026-04-29 15:35:00,METAR KSVH 291535Z AUTO 21003KT 7SM OVC005 17/16 A2993 RMK AO2 T01710163,0,3.0,0,11263.0,0,0,0,
2026-04-29 15:15:00,METAR KSVH 291515Z AUTO 23005KT 4SM BR OVC003 17/16 A2993 RMK AO2 T01650160,0,5.0,0,6436.0,0,0,1,BR
2026-04-29 14:55:00,METAR KSVH 291455Z AUTO 21003KT 4SM BR OVC003 17/16 A2992 RMK AO2 T01650160,0,3.0,0,6436.0,0,0,1,BR
2026-04-29 14:35:00,METAR KSVH 291435Z AUTO 23004KT 4SM BR OVC003 16/16 A2993 RMK AO2 T01640160,0,4.0,0,6436.0,0,0,1,BR
2026-04-29 14:15:00,METAR KSVH 291415Z AUTO 21003KT 5SM BR OVC003 16/16 A2992 RMK AO2 T01640161,0,3.0,0,8045.0,0,0,1,BR
2026-04-29 13:55:00,METAR KSVH 291355Z AUTO 00000KT 4SM BR OVC003 16/16 A2992 RMK AO2 T01610160,0,0.0,0,6436.0,0,0,1,BR
2026-04-29 13:35:00,METAR KSVH 291335Z AUTO 00000KT 2 1/2SM -RA OVC003 16/16 A2993 RMK AO2 T01610160,0,0.0,0,4022.0,0,0,0,-RA
2026-04-29 13:15:00,METAR KSVH 291315Z AUTO 00000KT 4SM BR OVC003 16/16 A2994 RMK AO2 T01610160,0,0.0,0,6436.0,0,0,1,BR
2026-04-29 12:55:00,METAR KSVH 291255Z AUTO 00000KT 1 3/4SM BR OVC003 16/16 A2995 RMK AO2 T01570156,0,0.0,0,2816.0,0,0,1,BR
2026-04-29 12:35:00,METAR KSVH 291235Z AUTO 24003KT 5SM BR OVC003 16/16 A2996 RMK AO2 T01560156,0,3.0,0,8045.0,0,0,1,BR
2026-04-29 12:15:00,METAR KSVH 291215Z AUTO 00000KT 2 1/2SM BR OVC003 16/16 A2995 RMK AO2 T01550155,0,0.0,0,4022.0,0,0,1,BR
2026-04-29 11:55:00,METAR KSVH 291155Z AUTO 00000KT 1SM BR OVC003 15/15 A2993 RMK AO2 70018 T01520152 10152 20137,0,0.0,0,1609.0,0,0,1,BR
2026-04-29 11:35:00,METAR KSVH 291135Z AUTO 14004KT 2 1/2SM BR OVC003 15/15 A2994 RMK AO2 T01490148,0,4.0,0,4022.0,0,0,1,BR
2026-04-29 11:15:00,METAR KSVH 291115Z AUTO 15003KT 5SM BR OVC005 15/15 A2995 RMK AO2 T01450145,0,3.0,0,8045.0,0,0,1,BR
2026-04-29 10:55:00,METAR KSVH 291055Z AUTO 00000KT 5SM BR OVC005 15/14 A2996 RMK AO2 T01450143,0,0.0,0,8045.0,0,0,1,BR
2026-04-29 10:35:00,METAR KSVH 291035Z AUTO 00000KT 7SM OVC005 15/15 A2997 RMK AO2 T01460146,0,0.0,0,11263.0,0,0,0,
2026-04-29 10:15:00,METAR KSVH 291015Z AUTO 00000KT 7SM OVC007 15/15 A2997 RMK AO2 T01450145,0,0.0,0,11263.0,0,0,0,
2026-04-29 09:55:00,METAR KSVH 290955Z AUTO 00000KT 7SM SCT005 OVC010 14/14 A2997 RMK AO2 T01420141,0,0.0,0,11263.0,0,0,0,
2026-04-29 09:35:00,METAR KSVH 290935Z AUTO 00000KT 7SM BKN003 OVC010 14/14 A2996 RMK AO2 T01410141,0,0.0,0,11263.0,0,0,0,
2026-04-29 09:15:00,METAR KSVH 290915Z AUTO 00000KT 7SM OVC003 14/14 A2997 RMK AO2 T01410141,0,0.0,0,11263.0,0,0,0,
2026-04-29 08:55:00,METAR KSVH 290855Z AUTO 00000KT 7SM OVC003 14/14 A2997 RMK AO2 T01400140,0,0.0,0,11263.0,0,0,0,
2026-04-29 08:35:00,METAR KSVH 290835Z AUTO 00000KT 10SM BKN005 BKN060 14/14 A2998 RMK AO2 T01390138,0,0.0,0,16090.0,0,0,0,
2026-04-29 08:15:00,METAR KSVH 290815Z AUTO 00000KT 7SM SCT005 14/14 A2998 RMK AO2 T01370136,0,0.0,0,11263.0,0,0,0,
2026-04-29 07:55:00,METAR KSVH 290755Z AUTO 00000KT 7SM CLR 14/14 A2996 RMK AO2 T01380138,0,0.0,0,11263.0,0,0,0,
2026-04-29 07:35:00,METAR KSVH 290735Z AUTO 00000KT 7SM CLR 14/14 A2996 RMK AO2 T01380138,0,0.0,0,11263.0,0,0,0,
2026-04-29 07:15:00,METAR KSVH 290715Z AUTO 00000KT 10SM CLR 14/14 A2995 RMK AO2 T01410140,0,0.0,0,16090.0,0,0,0,
2026-04-29 06:55:00,METAR KSVH 290655Z AUTO 00000KT 10SM CLR 14/14 A2997 RMK AO2 T01410140,0,0.0,0,16090.0,0,0,0,
2026-04-29 06:35:00,METAR KSVH 290635Z AUTO 20003KT 7SM CLR 14/14 A2998 RMK AO2 T01400138,0,3.0,0,11263.0,0,0,0,
2026-04-29 06:15:00,METAR KSVH 290615Z AUTO 00000KT 10SM CLR 14/14 A2999 RMK AO2 T01430141,0,0.0,0,16090.0,0,0,0,
2026-04-29 05:55:00,METAR KSVH 290555Z AUTO 26003KT 10SM CLR 14/14 A3002 RMK AO2 T01410140 10170 20140,0,3.0,0,16090.0,0,0,0,
2026-04-29 05:35:00,METAR KSVH 290535Z AUTO 25003KT 10SM CLR 14/14 A3001 RMK AO2 T01420139,0,3.0,0,16090.0,0,0,0,
2026-04-29 05:15:00,METAR KSVH 290515Z AUTO 00000KT 10SM CLR 15/14 A3000 RMK AO2 T01450141,0,0.0,0,16090.0,0,0,0,
2026-04-29 04:55:00,METAR KSVH 290455Z AUTO 00000KT 10SM CLR 15/14 A2999 RMK AO2 T01460142 401900112,0,0.0,0,16090.0,0,0,0,
2026-04-29 04:35:00,METAR KSVH 290435Z AUTO 00000KT 10SM CLR 15/14 A3000 RMK AO2 T01460143,0,0.0,0,16090.0,0,0,0,
2026-04-29 04:15:00,METAR KSVH 290415Z AUTO 00000KT 10SM CLR 14/14 A3003 RMK AO2 T01430140,0,0.0,0,16090.0,0,0,0,
2026-04-29 03:55:00,METAR KSVH 290355Z AUTO 00000KT 10SM CLR 15/14 A3005 RMK AO2 T01500143,0,0.0,0,16090.0,0,0,0,
2026-04-29 03:35:00,METAR KSVH 290335Z AUTO 00000KT 10SM CLR 15/14 A3005 RMK AO2 T01500144,0,0.0,0,16090.0,0,0,0,
2026-04-29 03:15:00,METAR KSVH 290315Z AUTO 21003KT 10SM CLR 15/14 A3005 RMK AO2 T01480143,0,3.0,0,16090.0,0,0,0,
2026-04-29 02:55:00,METAR KSVH 290255Z AUTO 20004KT 10SM CLR 15/14 A3006 RMK AO2 T01470142,0,4.0,0,16090.0,0,0,0,
2026-04-29 02:35:00,METAR KSVH 290235Z AUTO 19003KT 10SM CLR 15/14 A3006 RMK AO2 T01500143,0,3.0,0,16090.0,0,0,0,
2026-04-29 02:15:00,METAR KSVH 290215Z AUTO 00000KT 10SM SCT021 15/14 A3009 RMK AO2 T01480143,0,0.0,0,16090.0,0,0,0,
2026-04-29 01:55:00,METAR KSVH 290155Z AUTO 00000KT 10SM BKN021 16/14 A3009 RMK AO2 T01550144,0,0.0,0,16090.0,0,0,0,
2026-04-29 01:35:00,METAR KSVH 290135Z AUTO 00000KT 10SM SCT021 16/14 A3009 RMK AO2 T01560144,0,0.0,0,16090.0,0,0,0,
2026-04-29 01:15:00,METAR KSVH 290115Z AUTO 00000KT 10SM BKN023 16/15 A3006 RMK AO2 T01560145,0,0.0,0,16090.0,0,0,0,
2026-04-29 00:55:00,METAR KSVH 290055Z AUTO 00000KT 10SM SCT023 16/15 A3006 RMK AO2 T01550145,0,0.0,0,16090.0,0,0,0,
2026-04-29 00:35:00,METAR KSVH 290035Z AUTO 19003KT 10SM BKN023 16/15 A3005 RMK AO2 T01600145,0,3.0,0,16090.0,0,0,0,
2026-04-29 00:15:00,METAR KSVH 290015Z AUTO 00000KT 10SM OVC023 17/14 A3004 RMK AO2 T01650143,0,0.0,0,16090.0,0,0,0,
2026-04-28 23:55:00,METAR KSVH 282355Z AUTO 17003KT 10SM BKN023 17/15 A3004 RMK AO2 T01710145 10190 20152,0,3.0,0,16090.0,0,0,0,
2026-04-28 23:35:00,METAR KSVH 282335Z AUTO 00000KT 10SM SCT021 18/14 A3004 RMK AO2 T01760139,0,0.0,0,16090.0,0,0,0,
2026-04-28 23:15:00,METAR KSVH 282315Z AUTO 20003KT 10SM SCT021 19/14 A3002 RMK AO2 T01850138,0,3.0,0,16090.0,0,0,0,
2026-04-28 22:55:00,METAR KSVH 282255Z AUTO 21003KT 10SM OVC021 18/14 A3002 RMK AO2 T01830138,0,3.0,0,16090.0,0,0,0,
2026-04-28 22:35:00,METAR KSVH 282235Z AUTO 20004KT 10SM OVC021 18/13 A3002 RMK AO2 T01820134,0,4.0,0,16090.0,0,0,0,
2026-04-28 22:15:00,METAR KSVH 282215Z AUTO 21004KT 10SM OVC021 19/14 A3003 RMK AO2 T01890135,0,4.0,0,16090.0,0,0,0,
2026-04-28 21:55:00,METAR KSVH 282155Z AUTO 23006KT 10SM OVC021 18/13 A3005 RMK AO2 T01840134,0,6.0,0,16090.0,0,0,0,
2026-04-28 21:35:00,METAR KSVH 282135Z AUTO 23006KT 10SM OVC021 18/13 A3006 RMK AO2 T01760132,0,6.0,0,16090.0,0,0,0,
2026-04-28 21:15:00,METAR KSVH 282115Z AUTO 23005KT 10SM OVC021 18/13 A3007 RMK AO2 T01750132,0,5.0,0,16090.0,0,0,0,
2026-04-28 20:55:00,METAR KSVH 282055Z AUTO 22006KT 10SM OVC019 17/13 A3007 RMK AO2 T01710132,0,6.0,0,16090.0,0,0,0,
2026-04-28 20:35:00,METAR KSVH 282035Z AUTO 22006KT 10SM BKN017 OVC022 17/13 A3007 RMK AO2 T01710133,0,6.0,0,16090.0,0,0,0,
2026-04-28 20:15:00,METAR KSVH 282015Z AUTO 20006KT 10SM OVC017 16/13 A3009 RMK AO2 T01630128,0,6.0,0,16090.0,0,0,0,
2026-04-28 19:55:00,METAR KSVH 281955Z AUTO 20005KT 10SM OVC015 16/13 A3009 RMK AO2 T01610128,0,5.0,0,16090.0,0,0,0,
2026-04-28 19:35:00,METAR KSVH 281935Z AUTO 21003KT 10SM OVC015 16/13 A3010 RMK AO2 T01610128,0,3.0,0,16090.0,0,0,0,
2026-04-28 19:15:00,METAR KSVH 281915Z AUTO 22008G14KT 10SM OVC015 16/12 A3011 RMK AO2 T01550124,0,8.0,1,16090.0,0,0,0,
2026-04-28 18:55:00,METAR KSVH 281855Z AUTO 21007G15KT 10SM OVC015 16/12 A3012 RMK AO2 T01550124,0,7.0,1,16090.0,0,0,0,
2026-04-28 18:35:00,METAR KSVH 281835Z AUTO 23009G14KT 10SM OVC015 16/13 A3013 RMK AO2 T01600128,0,9.0,1,16090.0,0,0,0,
2026-04-28 18:15:00,METAR KSVH 281815Z AUTO 23008KT 10SM OVC015 16/13 A3013 RMK AO2 T01610128,0,8.0,0,16090.0,0,0,0,
2026-04-28 17:55:00,METAR KSVH 281755Z AUTO 22010G15KT 10SM OVC013 16/13 A3014 RMK AO2 60018 T01570126 10157 20113,0,10.0,1,16090.0,0,0,0,
2026-04-28 17:35:00,METAR KSVH 281735Z AUTO 22007KT 10SM OVC011 15/13 A3014 RMK AO2 T01510127,0,7.0,0,16090.0,0,0,0,
2026-04-28 17:15:00,METAR KSVH 281715Z AUTO 22007KT 10SM OVC011 15/13 A3015 RMK AO2 T01460125,0,7.0,0,16090.0,0,0,0,
2026-04-28 16:55:00,METAR KSVH 281655Z AUTO 21004G08KT 10SM OVC011 15/12 A3015 RMK AO2 T01460124,0,4.0,1,16090.0,0,0,0,
2026-04-28 16:35:00,METAR KSVH 281635Z AUTO 21007KT 10SM OVC009 14/13 A3016 RMK AO2 T01440126,0,7.0,0,16090.0,0,0,0,
2026-04-28 16:15:00,METAR KSVH 281615Z AUTO 22007KT 10SM OVC009 14/13 A3018 RMK AO2 T01410125,0,7.0,0,16090.0,0,0,0,
2026-04-28 15:55:00,METAR KSVH 281555Z AUTO 23012G17KT 10SM OVC009 14/13 A3017 RMK AO2 T01440128,0,12.0,1,16090.0,0,0,0,
2026-04-28 15:35:00,METAR KSVH 281535Z AUTO 23010G16KT 10SM OVC009 14/13 A3019 RMK AO2 T01420128,0,10.0,1,16090.0,0,0,0,
2026-04-28 15:15:00,METAR KSVH 281515Z AUTO 23012G18KT 10SM OVC007 14/13 A3018 RMK AO2 T01350126,0,12.0,1,16090.0,0,0,0,
2026-04-27 15:35:00,METAR KSVH 271535Z AUTO 08010KT 050V120 10SM SCT028 17/07 A3024 RMK AO2 T01700073,0,10.0,0,16090.0,0,0,0,
2026-04-27 15:15:00,METAR KSVH 271515Z AUTO 08010KT 10SM BKN028 16/07 A3024 RMK AO2 T01630070,0,10.0,0,16090.0,0,0,0,
2026-04-27 14:55:00,METAR KSVH 271455Z AUTO 09006KT 10SM OVC028 16/07 A3025 RMK AO2 T01600070,0,6.0,0,16090.0,0,0,0,
2026-04-27 14:35:00,METAR KSVH 271435Z AUTO 06006KT 10SM OVC028 16/07 A3026 RMK AO2 T01610071,0,6.0,0,16090.0,0,0,0,
2026-04-27 14:15:00,METAR KSVH 271415Z AUTO 06006G14KT 020V080 10SM OVC026 14/06 A3026 RMK AO2 T01380064,0,6.0,1,16090.0,0,0,0,
2026-04-27 13:55:00,METAR KSVH 271355Z AUTO 06008KT 10SM OVC026 14/07 A3026 RMK AO2 T01370065,0,8.0,0,16090.0,0,0,0,
2026-04-27 13:35:00,METAR KSVH 271335Z AUTO 06006KT 10SM BKN026 14/07 A3026 RMK AO2 T01360066,0,6.0,0,16090.0,0,0,0,
2026-04-27 13:15:00,METAR KSVH 271315Z AUTO 05004KT 10SM BKN024 13/06 A3025 RMK AO2 T01280061,0,4.0,0,16090.0,0,0,0,
2026-04-27 12:55:00,METAR KSVH 271255Z AUTO 07007KT 10SM OVC022 12/06 A3025 RMK AO2 T01230064,0,7.0,0,16090.0,0,0,0,
2026-04-27 12:35:00,METAR KSVH 271235Z AUTO 03009KT 10SM OVC022 11/06 A3026 RMK AO2 T01120062,0,9.0,0,16090.0,0,0,0,
2026-04-27 12:15:00,METAR KSVH 271215Z AUTO 04009G15KT 10SM OVC024 11/06 A3025 RMK AO2 T01120060,0,9.0,1,16090.0,0,0,0,
2026-04-27 11:55:00,METAR KSVH 271155Z AUTO 04010G15KT 10SM OVC024 11/06 A3025 RMK AO2 T01120060 10122 20105,0,10.0,1,16090.0,0,0,0,
2026-04-27 11:35:00,METAR KSVH 271135Z AUTO 04006KT 10SM OVC024 11/06 A3025 RMK AO2 T01100064,0,6.0,0,16090.0,0,0,0,
2026-04-27 11:15:00,METAR KSVH 271115Z AUTO 04004KT 10SM OVC024 11/06 A3024 RMK AO2 T01080061,0,4.0,0,16090.0,0,0,0,
2026-04-27 10:35:00,METAR KSVH 271035Z AUTO 04005KT 10SM OVC022 11/06 A3023 RMK AO2 T01050062,0,5.0,0,16090.0,0,0,0,
2026-04-27 10:15:00,METAR KSVH 271015Z AUTO 04004KT 10SM OVC022 11/06 A3022 RMK AO2 T01050060,0,4.0,0,16090.0,0,0,0,
2026-04-27 09:55:00,METAR KSVH 270955Z AUTO 03010KT 10SM OVC022 11/06 A3022 RMK AO2 T01050060,0,10.0,0,16090.0,0,0,0,
2026-04-27 09:35:00,METAR KSVH 270935Z AUTO 03007KT 10SM OVC022 11/06 A3021 RMK AO2 T01060060,0,7.0,0,16090.0,0,0,0,
2026-04-27 09:15:00,METAR KSVH 270915Z AUTO 05007KT 10SM OVC022 11/06 A3021 RMK AO2 T01060060,0,7.0,0,16090.0,0,0,0,
2026-04-27 08:55:00,METAR KSVH 270855Z AUTO 04009KT 10SM OVC022 11/06 A3020 RMK AO2 T01050060,0,9.0,0,16090.0,0,0,0,
2026-04-27 08:35:00,METAR KSVH 270835Z AUTO 03005KT 10SM OVC022 11/06 A3020 RMK AO2 T01060060,0,5.0,0,16090.0,0,0,0,
2026-04-27 08:15:00,METAR KSVH 270815Z AUTO 05008KT 10SM OVC024 11/06 A3019 RMK AO2 T01090060,0,8.0,0,16090.0,0,0,0,
2026-04-27 07:55:00,METAR KSVH 270755Z AUTO 04006G15KT 10SM OVC026 11/06 A3019 RMK AO2 T01120060,0,6.0,1,16090.0,0,0,0,
2026-04-27 07:35:00,METAR KSVH 270735Z AUTO 04009G15KT 10SM OVC026 11/06 A3019 RMK AO2 T01120055,0,9.0,1,16090.0,0,0,0,
2026-04-27 07:15:00,METAR KSVH 270715Z AUTO 04011G14KT 10SM OVC026 11/06 A3019 RMK AO2 T01130055,0,11.0,1,16090.0,0,0,0,
2026-04-27 06:55:00,METAR KSVH 270655Z AUTO 06012G18KT 10SM OVC026 12/06 A3018 RMK AO2 T01150056,0,12.0,1,16090.0,0,0,0,
2026-04-27 06:35:00,METAR KSVH 270635Z AUTO 05011G17KT 10SM OVC026 12/06 A3019 RMK AO2 T01160059,0,11.0,1,16090.0,0,0,0,
2026-04-27 06:15:00,METAR KSVH 270615Z AUTO 06011G15KT 10SM OVC026 12/06 A3019 RMK AO2 T01170060,0,11.0,1,16090.0,0,0,0,
2026-04-27 05:55:00,METAR KSVH 270555Z AUTO 04012G16KT 10SM OVC024 12/07 A3019 RMK AO2 T01220068 10166 20122,0,12.0,1,16090.0,0,0,0,
2026-04-27 05:35:00,METAR KSVH 270535Z AUTO 05008G14KT 10SM OVC024 13/08 A3019 RMK AO2 T01270075,0,8.0,1,16090.0,0,0,0,
2026-04-27 05:15:00,METAR KSVH 270515Z AUTO 05009KT 10SM OVC026 13/08 A3018 RMK AO2 T01290079,0,9.0,0,16090.0,0,0,0,
2026-04-27 04:55:00,METAR KSVH 270455Z AUTO 07010KT 10SM BKN027 OVC032 13/08 A3017 RMK AO2 T01310084 402260131,0,10.0,0,16090.0,0,0,0,
2026-04-27 04:35:00,METAR KSVH 270435Z AUTO 06011G15KT 10SM OVC032 14/08 A3017 RMK AO2 T01350081,0,11.0,1,16090.0,0,0,0,
2026-04-27 04:15:00,METAR KSVH 270415Z AUTO 06005KT 10SM OVC032 14/09 A3016 RMK AO2 T01380085,0,5.0,0,16090.0,0,0,0,
2026-04-27 03:55:00,METAR KSVH 270355Z AUTO 07008KT 10SM OVC032 14/09 A3015 RMK AO2 T01400086,0,8.0,0,16090.0,0,0,0,
2026-04-27 03:35:00,METAR KSVH 270335Z AUTO 05008KT 10SM OVC032 14/09 A3015 RMK AO2 T01420089,0,8.0,0,16090.0,0,0,0,
2026-04-27 03:15:00,METAR KSVH 270315Z AUTO 07010KT 10SM OVC032 14/09 A3014 RMK AO2 T01440092,0,10.0,0,16090.0,0,0,0,
2026-04-27 02:55:00,METAR KSVH 270255Z AUTO 05007KT 10SM BKN032 14/09 A3014 RMK AO2 T01420094,0,7.0,0,16090.0,0,0,0,
2026-04-27 02:35:00,METAR KSVH 270235Z AUTO 04008KT 10SM CLR 14/10 A3013 RMK AO2 T01400096,0,8.0,0,16090.0,0,0,0,
2026-04-27 02:15:00,METAR KSVH 270215Z AUTO 05004KT 10SM SCT029 SCT039 14/10 A3012 RMK AO2 T01420097,0,4.0,0,16090.0,0,0,0,
2026-04-27 01:55:00,METAR KSVH 270155Z AUTO 04007KT 10SM BKN039 15/10 A3011 RMK AO2 T01470098,0,7.0,0,16090.0,0,0,0,
2026-04-27 01:35:00,METAR KSVH 270135Z AUTO 04006KT 10SM OVC039 15/10 A3011 RMK AO2 T01510099,0,6.0,0,16090.0,0,0,0,
2026-04-27 01:15:00,METAR KSVH 270115Z AUTO 05006KT 10SM OVC039 15/10 A3009 RMK AO2 T01530104,0,6.0,0,16090.0,0,0,0,
2026-04-27 00:55:00,METAR KSVH 270055Z AUTO 04007KT 10SM OVC041 16/11 A3009 RMK AO2 T01610108,0,7.0,0,16090.0,0,0,0,
2026-04-27 00:35:00,METAR KSVH 270035Z AUTO 04006KT 10SM BKN043 16/11 A3007 RMK AO2 T01610109,0,6.0,0,16090.0,0,0,0,
2026-04-27 00:15:00,METAR KSVH 270015Z AUTO 05006KT 10SM CLR 16/10 A3006 RMK AO2 T01610103,0,6.0,0,16090.0,0,0,0,
2026-04-26 23:55:00,METAR KSVH 262355Z AUTO 06006KT 10SM CLR 17/11 A3005 RMK AO2 T01680106 10226 20168,0,6.0,0,16090.0,0,0,0,
2026-04-26 23:35:00,METAR KSVH 262335Z AUTO 04009KT 10SM CLR 17/11 A3004 RMK AO2 T01710110,0,9.0,0,16090.0,0,0,0,
2026-04-26 22:55:00,METAR KSVH 262255Z AUTO 05010G14KT 10SM CLR 19/11 A3002 RMK AO2 T01880112,0,10.0,1,16090.0,0,0,0,
2026-04-26 22:35:00,METAR KSVH 262235Z AUTO 06012G15KT 10SM SCT035 20/12 A3002 RMK AO2 T01950117,0,12.0,1,16090.0,0,0,0,
2026-04-26 22:15:00,METAR KSVH 262215Z AUTO 07009KT 10SM BKN035 20/12 A3001 RMK AO2 T01970118,0,9.0,0,16090.0,0,0,0,
2026-04-26 21:55:00,METAR KSVH 262155Z AUTO 09011KT 10SM SCT031 SCT039 21/12 A3000 RMK AO2 T02070120,0,11.0,0,16090.0,0,0,0,
2026-04-26 21:35:00,METAR KSVH 262135Z AUTO 07011KT 10SM SCT033 BKN039 OVC047 20/12 A3000 RMK AO2 T02010120,0,11.0,0,16090.0,0,0,0,
2026-04-26 21:15:00,METAR KSVH 262115Z AUTO 08010KT 10SM BKN034 BKN040 BKN047 22/13 A2999 RMK AO2 T02190127,0,10.0,0,16090.0,0,0,0,
2026-04-26 20:55:00,METAR KSVH 262055Z AUTO 08012KT 10SM SCT032 BKN039 22/13 A2998 RMK AO2 T02200127,0,12.0,0,16090.0,0,0,0,
2026-04-26 20:35:00,METAR KSVH 262035Z AUTO 09008KT 10SM SCT032 SCT043 22/13 A2998 RMK AO2 T02230130,0,8.0,0,16090.0,0,0,0,
2026-04-26 20:15:00,METAR KSVH 262015Z AUTO 06010G15KT 030V090 10SM SCT032 BKN047 23/13 A2998 RMK AO2 T02250131,0,10.0,1,16090.0,0,0,0,
2026-04-26 19:55:00,METAR KSVH 261955Z AUTO 05009G14KT 10SM SCT032 SCT055 22/13 A2997 RMK AO2 T02180126,0,9.0,1,16090.0,0,0,0,
2026-04-26 19:35:00,METAR KSVH 261935Z AUTO 08010G15KT 10SM SCT032 22/13 A2997 RMK AO2 T02160129,0,10.0,1,16090.0,0,0,0,
2026-04-26 19:15:00,METAR KSVH 261915Z AUTO 10010KT 10SM SCT030 23/13 A2997 RMK AO2 T02250134,0,10.0,0,16090.0,0,0,0,
2026-04-26 18:55:00,METAR KSVH 261855Z AUTO 08007G14KT 040V110 10SM BKN030 BKN036 22/14 A2998 RMK AO2 T02160135,0,7.0,1,16090.0,0,0,0,
2026-04-26 18:35:00,METAR KSVH 261835Z AUTO 10009KT 10SM SCT028 BKN036 21/13 A2998 RMK AO2 T02130132,0,9.0,0,16090.0,0,0,0,
2026-04-26 18:15:00,METAR KSVH 261815Z AUTO 07009G15KT 10SM BKN028 BKN036 22/14 A2998 RMK AO2 T02210140,0,9.0,1,16090.0,0,0,0,
2026-04-26 17:35:00,METAR KSVH 261735Z AUTO 07009G15KT 10SM BKN024 BKN029 22/14 A2999 RMK AO2 T02150143,0,9.0,1,16090.0,0,0,0,
2026-04-26 17:15:00,METAR KSVH 261715Z AUTO 08009G14KT 10SM BKN022 OVC029 20/14 A2999 RMK AO2 T02030142,0,9.0,1,16090.0,0,0,0,
2026-04-26 16:55:00,METAR KSVH 261655Z AUTO 09012KT 10SM BKN020 BKN024 BKN031 20/15 A2999 RMK AO2 T02030145,0,12.0,0,16090.0,0,0,0,
2026-04-26 16:35:00,METAR KSVH 261635Z AUTO 08012G15KT 10SM BKN015 BKN024 BKN039 21/15 A2999 RMK AO2 T02100153,0,12.0,1,16090.0,0,0,0,
2026-04-26 16:15:00,METAR KSVH 261615Z AUTO 08007KT 10SM BKN015 BKN040 BKN049 20/16 A2999 RMK AO2 T02040156,0,7.0,0,16090.0,0,0,0,
2026-04-26 15:55:00,METAR KSVH 261555Z AUTO 07010KT 10SM SCT015 BKN035 OVC049 19/15 A3000 RMK AO2 T01900153,0,10.0,0,16090.0,0,0,0,
2026-04-26 15:35:00,METAR KSVH 261535Z AUTO 06009KT 10SM SCT015 OVC033 19/15 A2999 RMK AO2 T01860153,0,9.0,0,16090.0,0,0,0,
2026-04-26 15:15:00,METAR KSVH 261515Z AUTO 03009KT 10SM SCT015 BKN029 OVC036 19/15 A2998 RMK AO2 T01850151,0,9.0,0,16090.0,0,0,0,
2026-04-26 14:55:00,METAR KSVH 261455Z AUTO 06007KT 10SM SCT015 OVC034 19/15 A2997 RMK AO2 T01900154,0,7.0,0,16090.0,0,0,0,
2026-04-26 14:35:00,METAR KSVH 261435Z AUTO 05010KT 10SM SCT015 BKN020 OVC030 18/15 A2997 RMK AO2 T01840153,0,10.0,0,16090.0,0,0,0,
2026-04-26 14:15:00,METAR KSVH 261415Z AUTO 04007KT 10SM BKN017 OVC030 18/16 A2996 RMK AO2 T01800157,0,7.0,0,16090.0,0,0,0,
2026-04-26 13:55:00,METAR KSVH 261355Z AUTO 04007KT 020V080 10SM BKN011 OVC018 18/16 A2996 RMK AO2 T01800157,0,7.0,0,16090.0,0,0,0,
2026-04-26 13:35:00,METAR KSVH 261335Z AUTO 05007KT 10SM OVC009 19/16 A2996 RMK AO2 T01890163,0,7.0,0,16090.0,0,0,0,
2026-04-26 13:15:00,METAR KSVH 261315Z AUTO 05009KT 10SM OVC007 17/16 A2995 RMK AO2 T01740157,0,9.0,0,16090.0,0,0,0,
2026-04-26 12:55:00,METAR KSVH 261255Z AUTO 04007KT 10SM OVC005 17/16 A2994 RMK AO2 T01650158,0,7.0,0,16090.0,0,0,0,
2026-04-26 12:35:00,METAR KSVH 261235Z AUTO 04006KT 10SM BKN005 16/16 A2994 RMK AO2 T01610160,0,6.0,0,16090.0,0,0,0,
2026-04-26 12:15:00,METAR KSVH 261215Z AUTO 02005KT 10SM SCT007 16/16 A2994 RMK AO2 T01610160,0,5.0,0,16090.0,0,0,0,
2026-04-26 11:55:00,METAR KSVH 261155Z AUTO 03005KT 10SM SCT002 16/16 A2993 RMK AO2 70028 T01600160 10160 20150,0,5.0,0,16090.0,0,0,0,
2026-04-26 11:35:00,METAR KSVH 261135Z AUTO 00000KT 1SM BR OVC002 15/15 A2993 RMK AO2 T01530153,0,0.0,0,1609.0,0,0,1,BR
2026-04-26 11:15:00,METAR KSVH 261115Z AUTO 00000KT 1/4SM FG OVC002 15/15 A2992 RMK AO2 T01520152,0,0.0,0,402.0,0,0,1,FG
2026-04-26 10:55:00,METAR KSVH 261055Z AUTO 00000KT M1/4SM FG OVC002 15/15 A2990 RMK AO2 T01510151,0,0.0,0,402.0,0,0,1,FG
2026-04-26 10:35:00,METAR KSVH 261035Z AUTO 00000KT 1/4SM FG OVC002 15/15 A2989 RMK AO2 T01510151,0,0.0,0,402.0,0,0,1,FG
2026-04-26 10:15:00,METAR KSVH 261015Z AUTO 00000KT 1/4SM FG OVC002 15/15 A2988 RMK AO2 T01510151,0,0.0,0,402.0,0,0,1,FG
2026-04-26 09:55:00,METAR KSVH 260955Z AUTO 00000KT 1/2SM FG OVC002 15/15 A2988 RMK AO2 T01520152,0,0.0,0,804.0,0,0,1,FG
2026-04-26 09:35:00,METAR KSVH 260935Z AUTO 00000KT 2 1/2SM BR OVC002 15/15 A2988 RMK AO2 T01530153,0,0.0,0,4022.0,0,0,1,BR
2026-04-26 09:15:00,METAR KSVH 260915Z AUTO 00000KT 4SM BR OVC002 15/15 A2988 RMK AO2 T01530153,0,0.0,0,6436.0,0,0,1,BR
2026-04-26 08:55:00,METAR KSVH 260855Z AUTO 00000KT 5SM BR BKN002 OVC040 16/15 A2988 RMK AO2 T01550154,0,0.0,0,8045.0,0,0,1,BR
2026-04-26 08:35:00,METAR KSVH 260835Z AUTO 00000KT 5SM BR BKN040 OVC050 15/15 A2988 RMK AO2 T01520152,0,0.0,0,8045.0,0,0,1,BR
2026-04-26 08:15:00,METAR KSVH 260815Z AUTO 24003KT 2 1/2SM -DZ SCT040 OVC050 15/15 A2987 RMK AO2 T01510151,0,3.0,0,4022.0,0,0,0,DZ
2026-04-26 07:55:00,METAR KSVH 260755Z AUTO 00000KT 5SM -DZ SCT042 BKN050 15/15 A2986 RMK AO2 T01510151,0,0.0,0,8045.0,0,0,0,DZ
2026-04-26 07:35:00,METAR KSVH 260735Z AUTO 00000KT 3SM BR SCT002 OVC050 15/15 A2986 RMK AO2 T01500150,0,0.0,0,4827.0,0,0,1,BR
2026-04-26 07:15:00,METAR KSVH 260715Z AUTO 00000KT 1SM BR BKN002 OVC050 15/15 A2985 RMK AO2 VIS 3/4V2 1/2 T01500149,0,0.0,0,1609.0,0,0,1,BR
2026-04-26 06:55:00,METAR KSVH 260655Z AUTO 00000KT 1/2SM FG BKN002 OVC050 15/15 A2985 RMK AO2 T01510151,0,0.0,0,804.0,0,0,1,FG
2026-04-26 06:35:00,METAR KSVH 260635Z AUTO 00000KT 1/4SM FG OVC002 15/15 A2985 RMK AO2 T01500150,0,0.0,0,402.0,0,0,1,FG
2026-04-26 06:15:00,METAR KSVH 260615Z AUTO 00000KT 1SM BR OVC002 15/15 A2985 RMK AO2 T01500150,0,0.0,0,1609.0,0,0,1,BR
2026-04-26 05:35:00,METAR KSVH 260535Z AUTO 00000KT 3SM BR SCT090 15/15 A2986 RMK AO2 T01540154,0,0.0,0,4827.0,0,0,1,BR
2026-04-26 05:15:00,METAR KSVH 260515Z AUTO 00000KT 5SM BR SCT090 16/16 A2986 RMK AO2 T01550155,0,0.0,0,8045.0,0,0,1,BR
2026-04-26 04:55:00,METAR KSVH 260455Z AUTO 00000KT 1SM BR OVC090 16/16 A2986 RMK AO2 T01560155 402920126,0,0.0,0,1609.0,0,0,1,BR
2026-04-26 04:35:00,METAR KSVH 260435Z AUTO 00000KT 7SM OVC090 16/16 A2986 RMK AO2 T01600160,0,0.0,0,11263.0,0,0,0,
2026-04-26 04:15:00,METAR KSVH 260415Z AUTO 00000KT 7SM OVC090 16/16 A2986 RMK AO2 T01610160,0,0.0,0,11263.0,0,0,0,
2026-04-26 03:55:00,METAR KSVH 260355Z AUTO 00000KT 10SM OVC100 16/16 A2986 RMK AO2 T01610161,0,0.0,0,16090.0,0,0,0,
2026-04-26 03:35:00,METAR KSVH 260335Z AUTO 00000KT 10SM OVC100 16/16 A2985 RMK AO2 T01620162,0,0.0,0,16090.0,0,0,0,
2026-04-26 03:15:00,METAR KSVH 260315Z AUTO 00000KT 10SM BKN100 16/16 A2985 RMK AO2 T01610161,0,0.0,0,16090.0,0,0,0,
2026-04-26 02:55:00,METAR KSVH 260255Z AUTO 06005KT 4SM -RA BKN110 16/16 A2985 RMK AO2 P0002 60007 T01610160,0,5.0,0,6436.0,0,0,0,-RA
2026-04-26 02:35:00,METAR KSVH 260235Z AUTO 00000KT 5SM -RA OVC110 16/16 A2986 RMK AO2 P0001 T01620162,0,0.0,0,8045.0,0,0,0,-RA
2026-04-26 02:15:00,METAR KSVH 260215Z AUTO 00000KT 10SM -RA OVC110 16/16 A2986 RMK AO2 P0001 T01620162,0,0.0,0,16090.0,0,0,0,-RA
2026-04-26 01:55:00,METAR KSVH 260155Z AUTO 00000KT 7SM RA OVC110 16/16 A2987 RMK AO2 P0001 T01640164,0,0.0,0,11263.0,0,0,0,RA
2026-04-26 01:35:00,METAR KSVH 260135Z AUTO 00000KT 5SM RA BKN110 17/16 A2987 RMK AO2 P0001 T01650164,0,0.0,0,8045.0,0,0,0,RA
2026-04-26 01:15:00,METAR KSVH 260115Z AUTO 00000KT 7SM -RA BKN110 16/16 A2986 RMK AO2 P0001 T01620161,0,0.0,0,11263.0,0,0,0,-RA
2026-04-26 00:55:00,METAR KSVH 260055Z AUTO 00000KT 7SM RA OVC100 17/17 A2986 RMK AO2 P0004 T01680166,0,0.0,0,11263.0,0,0,0,RA
2026-04-26 00:35:00,METAR KSVH 260035Z AUTO 00000KT 10SM -RA OVC100 17/16 A2986 RMK AO2 P0002 T01680164,0,0.0,0,16090.0,0,0,0,-RA
2026-04-26 00:15:00,METAR KSVH 260015Z AUTO 00000KT 10SM -RA OVC090 17/17 A2986 RMK AO2 P0001 T01710165,0,0.0,0,16090.0,0,0,0,-RA
2026-04-25 23:55:00,METAR KSVH 252355Z AUTO 00000KT 10SM -RA OVC090 17/17 A2986 RMK AO2 P0003 60021 T01710165 10292 20171,0,0.0,0,16090.0,0,0,0,-RA
2026-04-25 23:35:00,METAR KSVH 252335Z AUTO 30003KT 10SM RA OVC100 17/16 A2985 RMK AO2 P0002 T01710162,0,3.0,0,16090.0,0,0,0,RA
2026-04-25 23:15:00,METAR KSVH 252315Z AUTO 29006KT 10SM RA OVC100 17/16 A2985 RMK AO2 P0001 T01710160,0,6.0,0,16090.0,0,0,0,RA
2026-04-25 22:55:00,METAR KSVH 252255Z AUTO 30007KT 10SM -RA OVC100 17/16 A2985 RMK AO2 P0002 T01710160,0,7.0,0,16090.0,0,0,0,-RA
2026-04-25 22:35:00,METAR KSVH 252235Z AUTO 30008KT 10SM -RA OVC100 17/16 A2985 RMK AO2 P0002 T01710161,0,8.0,0,16090.0,0,0,0,-RA
2026-04-25 22:15:00,METAR KSVH 252215Z AUTO 31009KT 10SM -RA OVC100 17/16 A2985 RMK AO2 P0001 T01710159,0,9.0,0,16090.0,0,0,0,-RA
2026-04-25 21:55:00,METAR KSVH 252155Z AUTO 30007KT 10SM RA OVC100 17/16 A2985 RMK AO2 P0011 T01710160,0,7.0,0,16090.0,0,0,0,RA
2026-04-25 21:35:00,METAR KSVH 252135Z AUTO 30010G16KT 10SM RA SCT075 OVC090 17/16 A2985 RMK AO2 P0009 T01710161,0,10.0,1,16090.0,0,0,0,RA
2026-04-25 21:15:00,METAR KSVH 252115Z AUTO 28016KT 5SM RA SCT070 OVC090 17/16 A2987 RMK AO2 P0003 T01710162,0,16.0,0,8045.0,0,0,0,RA
2026-04-25 20:55:00,METAR KSVH 252055Z AUTO 31013G19KT 7SM RA OVC090 17/16 A2984 RMK AO2 P0005 60005 T01740161,0,13.0,1,11263.0,0,0,0,RA
2026-04-25 20:35:00,METAR KSVH 252035Z AUTO 29017G29KT 3SM -RA 18/16 A2985 RMK AO2 P0003 T01750159,0,17.0,1,4827.0,0,0,0,-RA
2026-04-25 20:15:00,METAR KSVH 252015Z AUTO 27012KT 21/14 A2982 RMK AO2 T02110142 PWINO,0,12.0,0,,0,0,0,
2026-04-25 19:35:00,METAR KSVH 251935Z AUTO 25013G16KT 10SM SCT070 BKN110 27/10 A2979 RMK AO2 T02700096,0,13.0,1,16090.0,0,0,0,
2026-04-25 19:15:00,METAR KSVH 251915Z AUTO 21006KT 10SM SCT070 SCT110 27/10 A2979 RMK AO2 T02720100,0,6.0,0,16090.0,0,0,0,
2026-04-25 18:55:00,METAR KSVH 251855Z AUTO 22010G14KT 10SM CLR 29/10 A2980 RMK AO2 T02870100,0,10.0,1,16090.0,0,0,0,
2026-04-25 18:35:00,METAR KSVH 251835Z AUTO 22009KT 190V250 10SM SCT065 SCT080 SCT100 29/11 A2980 RMK AO2 T02880114,0,9.0,0,16090.0,0,0,0,
2026-04-25 18:15:00,METAR KSVH 251815Z AUTO 22006KT 10SM SCT065 BKN080 BKN100 27/11 A2980 RMK AO2 T02730114,0,6.0,0,16090.0,0,0,0,
2026-04-25 17:55:00,METAR KSVH 251755Z AUTO 22005KT 10SM SCT065 SCT110 27/11 A2981 RMK AO2 T02720114 10283 20151,0,5.0,0,16090.0,0,0,0,
2026-04-25 17:35:00,METAR KSVH 251735Z AUTO 24009KT 10SM SCT065 SCT075 SCT100 28/11 A2981 RMK AO2 T02780111,0,9.0,0,16090.0,0,0,0,
2026-04-25 17:15:00,METAR KSVH 251715Z AUTO 22006KT 10SM SCT070 SCT090 28/11 A2981 RMK AO2 T02780107,0,6.0,0,16090.0,0,0,0,
2026-04-25 16:55:00,METAR KSVH 251655Z AUTO 21008KT 180V240 10SM CLR 28/11 A2982 RMK AO2 T02750114,0,8.0,0,16090.0,0,0,0,
2026-04-25 16:35:00,METAR KSVH 251635Z AUTO 21005KT 10SM CLR 28/12 A2982 RMK AO2 T02770118,0,5.0,0,16090.0,0,0,0,
2026-04-25 16:15:00,METAR KSVH 251615Z AUTO 22003KT 10SM CLR 27/11 A2983 RMK AO2 T02700113,0,3.0,0,16090.0,0,0,0,
2026-04-25 15:55:00,METAR KSVH 251555Z AUTO 20005KT 10SM CLR 27/12 A2984 RMK AO2 T02700115,0,5.0,0,16090.0,0,0,0,
2026-04-25 15:35:00,METAR KSVH 251535Z AUTO 19005KT 10SM CLR 26/12 A2985 RMK AO2 T02640116,0,5.0,0,16090.0,0,0,0,
2026-04-25 15:15:00,METAR KSVH 251515Z AUTO 00000KT 10SM CLR 26/12 A2985 RMK AO2 T02580121,0,0.0,0,16090.0,0,0,0,
2026-04-25 14:55:00,METAR KSVH 251455Z AUTO 00000KT 10SM CLR 25/13 A2985 RMK AO2 T02520130,0,0.0,0,16090.0,0,0,0,
2026-04-25 14:35:00,METAR KSVH 251435Z AUTO 00000KT 10SM CLR 24/13 A2985 RMK AO2 T02400127,0,0.0,0,16090.0,0,0,0,
2026-04-25 14:15:00,METAR KSVH 251415Z AUTO 00000KT 10SM CLR 22/13 A2985 RMK AO2 T02240126,0,0.0,0,16090.0,0,0,0,
2026-04-25 13:55:00,METAR KSVH 251355Z AUTO 00000KT 10SM CLR 22/12 A2985 RMK AO2 T02160123,0,0.0,0,16090.0,0,0,0,
2026-04-25 13:35:00,METAR KSVH 251335Z AUTO 00000KT 10SM CLR 20/12 A2985 RMK AO2 T02020121,0,0.0,0,16090.0,0,0,0,
2026-04-25 13:15:00,METAR KSVH 251315Z AUTO 00000KT 10SM CLR 19/12 A2985 RMK AO2 T01940118,0,0.0,0,16090.0,0,0,0,
2026-04-25 12:55:00,METAR KSVH 251255Z AUTO 25003KT 10SM CLR 18/12 A2986 RMK AO2 T01840117,0,3.0,0,16090.0,0,0,0,
2026-04-25 12:35:00,METAR KSVH 251235Z AUTO 00000KT 10SM CLR 17/12 A2986 RMK AO2 T01730116,0,0.0,0,16090.0,0,0,0,
2026-04-25 12:15:00,METAR KSVH 251215Z AUTO 00000KT 10SM CLR 16/12 A2985 RMK AO2 T01610115,0,0.0,0,16090.0,0,0,0,
2026-04-25 11:55:00,METAR KSVH 251155Z AUTO 00000KT 10SM CLR 15/11 A2985 RMK AO2 T01500111 10168 20126,0,0.0,0,16090.0,0,0,0,
2026-04-25 11:35:00,METAR KSVH 251135Z AUTO 00000KT 10SM CLR 14/11 A2985 RMK AO2 T01430109,0,0.0,0,16090.0,0,0,0,
2026-04-25 11:15:00,METAR KSVH 251115Z AUTO 17003KT 10SM CLR 13/11 A2984 RMK AO2 T01310108,0,3.0,0,16090.0,0,0,0,
2026-04-25 10:55:00,METAR KSVH 251055Z AUTO 00000KT 10SM CLR 14/10 A2983 RMK AO2 T01390104,0,0.0,0,16090.0,0,0,0,
2026-04-25 10:35:00,METAR KSVH 251035Z AUTO 00000KT 10SM CLR 14/10 A2983 RMK AO2 T01360102,0,0.0,0,16090.0,0,0,0,
2026-04-25 10:15:00,METAR KSVH 251015Z AUTO 26003KT 10SM CLR 14/10 A2982 RMK AO2 T01400102,0,3.0,0,16090.0,0,0,0,
2026-04-25 09:55:00,METAR KSVH 250955Z AUTO 26004KT 10SM SCT110 13/10 A2982 RMK AO2 T01330100,0,4.0,0,16090.0,0,0,0,
2026-04-25 09:35:00,METAR KSVH 250935Z AUTO 00000KT 10SM BKN110 15/10 A2981 RMK AO2 T01500104,0,0.0,0,16090.0,0,0,0,
2026-04-25 09:15:00,METAR KSVH 250915Z AUTO 25004KT 10SM OVC110 15/11 A2982 RMK AO2 T01450105,0,4.0,0,16090.0,0,0,0,
2026-04-25 08:55:00,METAR KSVH 250855Z AUTO 25003KT 10SM BKN110 14/10 A2982 RMK AO2 T01380104,0,3.0,0,16090.0,0,0,0,
2026-04-25 08:35:00,METAR KSVH 250835Z AUTO 00000KT 10SM OVC110 15/11 A2982 RMK AO2 T01500105,0,0.0,0,16090.0,0,0,0,
2026-04-25 08:15:00,METAR KSVH 250815Z AUTO 24003KT 10SM BKN120 14/11 A2983 RMK AO2 T01370105,0,3.0,0,16090.0,0,0,0,
2026-04-25 07:55:00,METAR KSVH 250755Z AUTO 21003KT 10SM OVC120 15/10 A2982 RMK AO2 T01460104,0,3.0,0,16090.0,0,0,0,
2026-04-25 07:35:00,METAR KSVH 250735Z AUTO 22003KT 10SM SCT110 14/10 A2982 RMK AO2 T01420103,0,3.0,0,16090.0,0,0,0,
2026-04-25 07:15:00,METAR KSVH 250715Z AUTO 23003KT 10SM CLR 15/10 A2982 RMK AO2 T01450103,0,3.0,0,16090.0,0,0,0,
2026-04-25 06:35:00,METAR KSVH 250635Z AUTO 00000KT 10SM SCT110 15/11 A2982 RMK AO2 T01530105,0,0.0,0,16090.0,0,0,0,
2026-04-25 06:15:00,METAR KSVH 250615Z AUTO 00000KT 10SM SCT110 16/10 A2983 RMK AO2 T01570103,0,0.0,0,16090.0,0,0,0,
2026-04-25 05:55:00,METAR KSVH 250555Z AUTO 00000KT 10SM SCT110 17/10 A2984 RMK AO2 T01650100 10235 20163,0,0.0,0,16090.0,0,0,0,
2026-04-25 05:35:00,METAR KSVH 250535Z AUTO 26004KT 10SM CLR 17/10 A2984 RMK AO2 T01660095,0,4.0,0,16090.0,0,0,0,
2026-04-25 05:15:00,METAR KSVH 250515Z AUTO 25004KT 10SM CLR 18/10 A2984 RMK AO2 T01780097,0,4.0,0,16090.0,0,0,0,
2026-04-25 04:55:00,METAR KSVH 250455Z AUTO 23004KT 10SM CLR 18/10 A2984 RMK AO2 T01820096 402890112,0,4.0,0,16090.0,0,0,0,
2026-04-25 04:35:00,METAR KSVH 250435Z AUTO 22003KT 10SM SCT110 18/10 A2984 RMK AO2 T01800096,0,3.0,0,16090.0,0,0,0,
2026-04-25 04:15:00,METAR KSVH 250415Z AUTO 22004KT 10SM CLR 19/10 A2984 RMK AO2 T01900095,0,4.0,0,16090.0,0,0,0,
2026-04-25 03:55:00,METAR KSVH 250355Z AUTO 21004KT 10SM CLR 19/09 A2984 RMK AO2 T01860093,0,4.0,0,16090.0,0,0,0,
2026-04-25 03:35:00,METAR KSVH 250335Z AUTO 21005KT 10SM SCT120 18/10 A2985 RMK AO2 T01840098,0,5.0,0,16090.0,0,0,0,
2026-04-25 03:15:00,METAR KSVH 250315Z AUTO 23004KT 10SM BKN120 19/09 A2985 RMK AO2 T01900094,0,4.0,0,16090.0,0,0,0,
2026-04-25 02:55:00,METAR KSVH 250255Z AUTO 23003KT 10SM CLR 20/09 A2985 RMK AO2 T01970087,0,3.0,0,16090.0,0,0,0,
2026-04-25 02:35:00,METAR KSVH 250235Z AUTO 23004KT 10SM CLR 19/09 A2985 RMK AO2 T01940088,0,4.0,0,16090.0,0,0,0,
2026-04-25 02:15:00,METAR KSVH 250215Z AUTO 22004KT 10SM CLR 19/09 A2985 RMK AO2 T01940090,0,4.0,0,16090.0,0,0,0,
2026-04-25 01:55:00,METAR KSVH 250155Z AUTO 22004KT 10SM CLR 19/09 A2985 RMK AO2 T01940091,0,4.0,0,16090.0,0,0,0,
2026-04-25 01:35:00,METAR KSVH 250135Z AUTO 22004KT 10SM CLR 21/08 A2984 RMK AO2 T02090082,0,4.0,0,16090.0,0,0,0,
2026-04-25 01:15:00,METAR KSVH 250115Z AUTO 22004KT 10SM CLR 21/08 A2984 RMK AO2 T02120081,0,4.0,0,16090.0,0,0,0,
2026-04-25 00:55:00,METAR KSVH 250055Z AUTO 20004KT 10SM CLR 22/08 A2983 RMK AO2 T02170081,0,4.0,0,16090.0,0,0,0,
2026-04-25 00:35:00,METAR KSVH 250035Z AUTO 19003KT 10SM CLR 22/08 A2982 RMK AO2 T02220077,0,3.0,0,16090.0,0,0,0,
2026-04-25 00:15:00,METAR KSVH 250015Z AUTO 20003KT 10SM CLR 23/08 A2982 RMK AO2 T02300080,0,3.0,0,16090.0,0,0,0,
2026-04-24 23:55:00,METAR KSVH 242355Z AUTO 20003KT 10SM CLR 24/08 A2982 RMK AO2 T02350075 10289 20235,0,3.0,0,16090.0,0,0,0,
2026-04-24 23:35:00,METAR KSVH 242335Z AUTO 20003KT 10SM CLR 25/07 A2982 RMK AO2 T02500073,0,3.0,0,16090.0,0,0,0,
2026-04-24 23:15:00,METAR KSVH 242315Z AUTO 21004KT 10SM CLR 27/07 A2981 RMK AO2 T02650070,0,4.0,0,16090.0,0,0,0,
2026-04-24 22:55:00,METAR KSVH 242255Z AUTO 22004KT 10SM CLR 27/06 A2981 RMK AO2 T02730061,0,4.0,0,16090.0,0,0,0,
2026-04-24 22:35:00,METAR KSVH 242235Z AUTO 20006KT 10SM CLR 28/07 A2982 RMK AO2 T02790066,0,6.0,0,16090.0,0,0,0,
2026-04-24 22:15:00,METAR KSVH 242215Z AUTO 19003KT 10SM CLR 28/06 A2982 RMK AO2 T02820064,0,3.0,0,16090.0,0,0,0,
2026-04-24 21:55:00,METAR KSVH 242155Z AUTO 20005KT 10SM CLR 29/06 A2982 RMK AO2 T02880062,0,5.0,0,16090.0,0,0,0,
2026-04-24 21:35:00,METAR KSVH 242135Z AUTO 22005KT 10SM SCT090 28/07 A2982 RMK AO2 T02840065,0,5.0,0,16090.0,0,0,0,
2026-04-24 21:15:00,METAR KSVH 242115Z AUTO 19007KT 160V230 10SM SCT090 29/07 A2982 RMK AO2 T02850074,0,7.0,0,16090.0,0,0,0,
2026-04-24 20:55:00,METAR KSVH 242055Z AUTO 19007KT 10SM CLR 29/07 A2982 RMK AO2 T02870067,0,7.0,0,16090.0,0,0,0,
2026-04-24 20:35:00,METAR KSVH 242035Z AUTO 20007KT 10SM SCT120 29/08 A2983 RMK AO2 T02880082,0,7.0,0,16090.0,0,0,0,
2026-04-24 20:15:00,METAR KSVH 242015Z AUTO 20007KT 10SM CLR 29/08 A2984 RMK AO2 T02870080,0,7.0,0,16090.0,0,0,0,
2026-04-24 19:55:00,METAR KSVH 241955Z AUTO 00000KT 10SM CLR 28/08 A2985 RMK AO2 T02760082,0,0.0,0,16090.0,0,0,0,
2026-04-24 19:35:00,METAR KSVH 241935Z AUTO 00000KT 10SM CLR 26/07 A2986 RMK AO2 T02570071,0,0.0,0,16090.0,0,0,0,
2026-04-24 19:15:00,METAR KSVH 241915Z AUTO 20003KT 10SM SCT090 SCT110 25/07 A2986 RMK AO2 T02510067,0,3.0,0,16090.0,0,0,0,
2026-04-24 18:55:00,METAR KSVH 241855Z AUTO 19006KT 10SM BKN110 25/07 A2988 RMK AO2 T02480073,0,6.0,0,16090.0,0,0,0,
2026-04-24 18:35:00,METAR KSVH 241835Z AUTO 23013G20KT 10SM SCT080 SCT110 25/08 A2989 RMK AO2 T02470079,0,13.0,1,16090.0,0,0,0,
2026-04-24 18:15:00,METAR KSVH 241815Z AUTO 25017G22KT 10SM SCT080 BKN095 25/08 A2990 RMK AO2 T02510076,0,17.0,1,16090.0,0,0,0,
2026-04-24 17:55:00,METAR KSVH 241755Z AUTO 19004KT 10SM 28/08 A2988 RMK AO2 T02760082 10285 20136,0,4.0,0,16090.0,0,0,0,
2026-04-24 17:35:00,METAR KSVH 241735Z AUTO 17003KT 10SM CLR 29/09 A2989 RMK AO2 T02850085,0,3.0,0,16090.0,0,0,0,
2026-04-24 17:15:00,METAR KSVH 241715Z AUTO 27005KT 10SM CLR 28/08 A2990 RMK AO2 T02800076,0,5.0,0,16090.0,0,0,0,
2026-04-24 16:55:00,METAR KSVH 241655Z AUTO 20005KT 10SM CLR 28/09 A2991 RMK AO2 T02780090,0,5.0,0,16090.0,0,0,0,
2026-04-24 16:35:00,METAR KSVH 241635Z AUTO 17003KT 10SM CLR 27/09 A2992 RMK AO2 T02730089,0,3.0,0,16090.0,0,0,0,
2026-04-24 16:15:00,METAR KSVH 241615Z AUTO 00000KT 10SM CLR 27/09 A2992 RMK AO2 T02690089,0,0.0,0,16090.0,0,0,0,
2026-04-24 15:55:00,METAR KSVH 241555Z AUTO 17003KT 10SM CLR 26/09 A2993 RMK AO2 T02620089,0,3.0,0,16090.0,0,0,0,
2026-04-24 15:35:00,METAR KSVH 241535Z AUTO 15004KT 10SM CLR 26/09 A2993 RMK AO2 T02590087,0,4.0,0,16090.0,0,0,0,
2026-04-24 15:15:00,METAR KSVH 241515Z AUTO 00000KT 10SM CLR 26/10 A2994 RMK AO2 T02590098,0,0.0,0,16090.0,0,0,0,
2026-04-24 14:55:00,METAR KSVH 241455Z AUTO 00000KT 10SM CLR 25/09 A2994 RMK AO2 T02500091,0,0.0,0,16090.0,0,0,0,
2026-04-24 14:35:00,METAR KSVH 241435Z AUTO 00000KT 10SM CLR 24/11 A2994 RMK AO2 T02400105,0,0.0,0,16090.0,0,0,0,
2026-04-24 14:15:00,METAR KSVH 241415Z AUTO 19003KT 10SM CLR 23/11 A2994 RMK AO2 T02300107,0,3.0,0,16090.0,0,0,0,
2026-04-24 13:55:00,METAR KSVH 241355Z AUTO 00000KT 10SM CLR 22/11 A2995 RMK AO2 T02180109,0,0.0,0,16090.0,0,0,0,
2026-04-24 13:35:00,METAR KSVH 241335Z AUTO 00000KT 10SM CLR 21/11 A2995 RMK AO2 T02090114,0,0.0,0,16090.0,0,0,0,
2026-04-24 13:15:00,METAR KSVH 241315Z AUTO 00000KT 10SM CLR 20/11 A2995 RMK AO2 T01990111,0,0.0,0,16090.0,0,0,0,
2026-04-24 12:55:00,METAR KSVH 241255Z AUTO 00000KT 10SM CLR 19/11 A2995 RMK AO2 T01870108,0,0.0,0,16090.0,0,0,0,
2026-04-24 12:35:00,METAR KSVH 241235Z AUTO 00000KT 10SM CLR 17/10 A2995 RMK AO2 T01730104,0,0.0,0,16090.0,0,0,0,
2026-04-24 12:15:00,METAR KSVH 241215Z AUTO 00000KT 10SM CLR 15/10 A2995 RMK AO2 T01530101,0,0.0,0,16090.0,0,0,0,
2026-04-24 11:55:00,METAR KSVH 241155Z AUTO 00000KT 10SM CLR 14/10 A2995 RMK AO2 T01380098 10148 20112,0,0.0,0,16090.0,0,0,0,
2026-04-24 11:35:00,METAR KSVH 241135Z AUTO 00000KT 10SM CLR 13/09 A2995 RMK AO2 T01250090,0,0.0,0,16090.0,0,0,0,
2026-04-24 11:15:00,METAR KSVH 241115Z AUTO 00000KT 10SM CLR 12/08 A2994 RMK AO2 T01200084,0,0.0,0,16090.0,0,0,0,
2026-04-24 10:55:00,METAR KSVH 241055Z AUTO 00000KT 10SM CLR 12/08 A2994 RMK AO2 T01150084,0,0.0,0,16090.0,0,0,0,
2026-04-24 10:35:00,METAR KSVH 241035Z AUTO 00000KT 10SM CLR 12/08 A2994 RMK AO2 T01160083,0,0.0,0,16090.0,0,0,0,
2026-04-24 10:15:00,METAR KSVH 241015Z AUTO 00000KT 10SM CLR 12/08 A2994 RMK AO2 T01170081,0,0.0,0,16090.0,0,0,0,
2026-04-24 09:55:00,METAR KSVH 240955Z AUTO 27003KT 10SM CLR 12/08 A2993 RMK AO2 T01220078,0,3.0,0,16090.0,0,0,0,
2026-04-24 09:35:00,METAR KSVH 240935Z AUTO 23003KT 10SM CLR 12/08 A2993 RMK AO2 T01230083,0,3.0,0,16090.0,0,0,0,
2026-04-24 09:15:00,METAR KSVH 240915Z AUTO 25005KT 10SM CLR 12/08 A2993 RMK AO2 T01220080,0,5.0,0,16090.0,0,0,0,
2026-04-24 08:55:00,METAR KSVH 240855Z AUTO 00000KT 10SM CLR 13/08 A2993 RMK AO2 T01290080,0,0.0,0,16090.0,0,0,0,
2026-04-24 08:35:00,METAR KSVH 240835Z AUTO 21004KT 10SM CLR 12/08 A2993 RMK AO2 T01210082,0,4.0,0,16090.0,0,0,0,
2026-04-24 04:35:00,METAR KSVH 240435Z AUTO 23004KT 10SM SCT100 15/08 A2995 RMK AO2 T01510081,0,4.0,0,16090.0,0,0,0,
2026-04-24 04:15:00,METAR KSVH 240415Z AUTO 24003KT 10SM CLR 17/07 A2995 RMK AO2 T01680067,0,3.0,0,16090.0,0,0,0,
2026-04-24 03:55:00,METAR KSVH 240355Z AUTO 25004KT 10SM CLR 17/07 A2996 RMK AO2 T01670072,0,4.0,0,16090.0,0,0,0,
2026-04-24 03:35:00,METAR KSVH 240335Z AUTO 25003KT 10SM CLR 17/06 A2996 RMK AO2 T01740062,0,3.0,0,16090.0,0,0,0,
2026-04-24 03:15:00,METAR KSVH 240315Z AUTO 26004KT 10SM SCT100 17/06 A2997 RMK AO2 T01690064,0,4.0,0,16090.0,0,0,0,
2026-04-24 02:55:00,METAR KSVH 240255Z AUTO 25003KT 10SM SCT100 18/06 A2997 RMK AO2 T01840062,0,3.0,0,16090.0,0,0,0,
2026-04-24 02:35:00,METAR KSVH 240235Z AUTO 23003KT 10SM SCT100 19/05 A2997 RMK AO2 T01930052,0,3.0,0,16090.0,0,0,0,
2026-04-24 02:15:00,METAR KSVH 240215Z AUTO 22004KT 10SM SCT100 19/05 A2997 RMK AO2 T01910053,0,4.0,0,16090.0,0,0,0,
2026-04-24 01:55:00,METAR KSVH 240155Z AUTO 22003KT 10SM SCT100 19/06 A2996 RMK AO2 T01910057,0,3.0,0,16090.0,0,0,0,
2026-04-24 01:35:00,METAR KSVH 240135Z AUTO 21003KT 10SM SCT100 20/05 A2996 RMK AO2 T02040051,0,3.0,0,16090.0,0,0,0,
2026-04-24 01:15:00,METAR KSVH 240115Z AUTO 21003KT 10SM CLR 21/04 A2995 RMK AO2 T02100043,0,3.0,0,16090.0,0,0,0,
2026-04-24 00:55:00,METAR KSVH 240055Z AUTO 20003KT 10SM SCT110 21/04 A2995 RMK AO2 T02100041,0,3.0,0,16090.0,0,0,0,
2026-04-24 00:35:00,METAR KSVH 240035Z AUTO 20003KT 10SM CLR 22/04 A2994 RMK AO2 T02180041,0,3.0,0,16090.0,0,0,0,
2026-04-24 00:15:00,METAR KSVH 240015Z AUTO 20003KT 10SM CLR 23/04 A2994 RMK AO2 T02290038,0,3.0,0,16090.0,0,0,0,
2026-04-23 23:55:00,METAR KSVH 232355Z AUTO 20003KT 10SM CLR 24/04 A2994 RMK AO2 T02350043 10292 20235,0,3.0,0,16090.0,0,0,0,
2026-04-23 23:35:00,METAR KSVH 232335Z AUTO 19003KT 10SM CLR 26/03 A2994 RMK AO2 T02550033,0,3.0,0,16090.0,0,0,0,
2026-04-23 23:15:00,METAR KSVH 232315Z AUTO 21005KT 10SM CLR 27/03 A2994 RMK AO2 T02680027,0,5.0,0,16090.0,0,0,0,
2026-04-23 22:55:00,METAR KSVH 232255Z AUTO 20004KT 10SM CLR 28/02 A2994 RMK AO2 T02770023,0,4.0,0,16090.0,0,0,0,
2026-04-23 22:35:00,METAR KSVH 232235Z AUTO 21005KT 10SM CLR 28/04 A2994 RMK AO2 T02800038,0,5.0,0,16090.0,0,0,0,
2026-04-23 22:15:00,METAR KSVH 232215Z AUTO 19006KT 10SM CLR 29/04 A2995 RMK AO2 T02850036,0,6.0,0,16090.0,0,0,0,
2026-04-23 21:55:00,METAR KSVH 232155Z AUTO 20004KT 10SM CLR 29/04 A2994 RMK AO2 T02870038,0,4.0,0,16090.0,0,0,0,
2026-04-23 21:35:00,METAR KSVH 232135Z AUTO 19004KT 10SM CLR 29/04 A2995 RMK AO2 T02880037,0,4.0,0,16090.0,0,0,0,
2026-04-23 21:15:00,METAR KSVH 232115Z AUTO 19003KT 10SM CLR 29/03 A2995 RMK AO2 T02850032,0,3.0,0,16090.0,0,0,0,
2026-04-23 20:55:00,METAR KSVH 232055Z AUTO 22007KT 10SM CLR 29/04 A2995 RMK AO2 T02890042,0,7.0,0,16090.0,0,0,0,
2026-04-23 20:35:00,METAR KSVH 232035Z AUTO 23004KT 10SM CLR 29/04 A2996 RMK AO2 T02860036,0,4.0,0,16090.0,0,0,0,
2026-04-23 20:15:00,METAR KSVH 232015Z AUTO 25006KT 10SM CLR 29/04 A2997 RMK AO2 T02890037,0,6.0,0,16090.0,0,0,0,
2026-04-23 19:55:00,METAR KSVH 231955Z AUTO 18003KT 10SM CLR 29/04 A2998 RMK AO2 T02870038,0,3.0,0,16090.0,0,0,0,
2026-04-23 19:35:00,METAR KSVH 231935Z AUTO 23006KT 10SM CLR 29/04 A2999 RMK AO2 T02890037,0,6.0,0,16090.0,0,0,0,
2026-04-23 19:15:00,METAR KSVH 231915Z AUTO 24005KT 10SM CLR 29/04 A3000 RMK AO2 T02880038,0,5.0,0,16090.0,0,0,0,
2026-04-23 18:55:00,METAR KSVH 231855Z AUTO 25009G17KT 10SM CLR 29/05 A3001 RMK AO2 T02910051,0,9.0,1,16090.0,0,0,0,
2026-04-23 18:35:00,METAR KSVH 231835Z AUTO 16004KT 10SM CLR 28/04 A3002 RMK AO2 T02810044,0,4.0,0,16090.0,0,0,0,
2026-04-23 18:15:00,METAR KSVH 231815Z AUTO 25007KT 10SM CLR 28/04 A3003 RMK AO2 T02810044,0,7.0,0,16090.0,0,0,0,
2026-04-23 17:55:00,METAR KSVH 231755Z AUTO 26006KT 10SM CLR 28/05 A3004 RMK AO2 T02780052 10278 20112,0,6.0,0,16090.0,0,0,0,
2026-04-23 17:35:00,METAR KSVH 231735Z AUTO 26007KT 210V290 10SM CLR 28/05 A3005 RMK AO2 T02760047,0,7.0,0,16090.0,0,0,0,
2026-04-23 17:15:00,METAR KSVH 231715Z AUTO 24007KT 10SM CLR 27/06 A3006 RMK AO2 T02740057,0,7.0,0,16090.0,0,0,0,
2026-04-23 16:55:00,METAR KSVH 231655Z AUTO 34003KT 10SM CLR 27/05 A3007 RMK AO2 T02680052,0,3.0,0,16090.0,0,0,0,
2026-04-23 16:35:00,METAR KSVH 231635Z AUTO 00000KT 10SM CLR 27/05 A3008 RMK AO2 T02650049,0,0.0,0,16090.0,0,0,0,
2026-04-23 16:15:00,METAR KSVH 231615Z AUTO 34003KT 10SM CLR 26/06 A3009 RMK AO2 T02640057,0,3.0,0,16090.0,0,0,0,
2026-04-23 15:55:00,METAR KSVH 231555Z AUTO 00000KT 10SM CLR 26/05 A3010 RMK AO2 T02580045,0,0.0,0,16090.0,0,0,0,
2026-04-23 15:35:00,METAR KSVH 231535Z AUTO 18004KT 10SM CLR 26/06 A3010 RMK AO2 T02550055,0,4.0,0,16090.0,0,0,0,
2026-04-23 15:15:00,METAR KSVH 231515Z AUTO 00000KT 10SM CLR 25/07 A3011 RMK AO2 T02540072,0,0.0,0,16090.0,0,0,0,
2026-04-23 14:55:00,METAR KSVH 231455Z AUTO 00000KT 10SM CLR 25/08 A3011 RMK AO2 T02450082,0,0.0,0,16090.0,0,0,0,
2026-04-23 14:35:00,METAR KSVH 231435Z AUTO 00000KT 10SM CLR 23/08 A3011 RMK AO2 T02340083,0,0.0,0,16090.0,0,0,0,
2026-04-23 14:15:00,METAR KSVH 231415Z AUTO 00000KT 10SM CLR 22/07 A3011 RMK AO2 T02220074,0,0.0,0,16090.0,0,0,0,
2026-04-23 13:55:00,METAR KSVH 231355Z AUTO 23003KT 10SM CLR 21/08 A3011 RMK AO2 T02110077,0,3.0,0,16090.0,0,0,0,
2026-04-23 13:35:00,METAR KSVH 231335Z AUTO 23003KT 10SM CLR 20/08 A3012 RMK AO2 T01950082,0,3.0,0,16090.0,0,0,0,
2026-04-23 13:15:00,METAR KSVH 231315Z AUTO 25003KT 10SM CLR 18/08 A3012 RMK AO2 T01830083,0,3.0,0,16090.0,0,0,0,
2026-04-23 12:55:00,METAR KSVH 231255Z AUTO 24003KT 10SM CLR 17/09 A3012 RMK AO2 T01710087,0,3.0,0,16090.0,0,0,0,
2026-04-23 12:35:00,METAR KSVH 231235Z AUTO 23003KT 10SM CLR 15/09 A3012 RMK AO2 T01530085,0,3.0,0,16090.0,0,0,0,
2026-04-23 12:15:00,METAR KSVH 231215Z AUTO 00000KT 10SM CLR 13/08 A3011 RMK AO2 T01330082,0,0.0,0,16090.0,0,0,0,
2026-04-23 11:55:00,METAR KSVH 231155Z AUTO 23003KT 10SM CLR 11/08 A3010 RMK AO2 7//// T01120075 10137 20082,0,3.0,0,16090.0,0,0,0,
2026-04-23 11:35:00,METAR KSVH 231135Z AUTO 00000KT 10SM CLR 09/07 A3009 RMK AO2 T00920068,0,0.0,0,16090.0,0,0,0,
2026-04-23 11:15:00,METAR KSVH 231115Z AUTO 00000KT 10SM CLR 09/06 A3009 RMK AO2 T00890061,0,0.0,0,16090.0,0,0,0,
2026-04-23 10:55:00,METAR KSVH 231055Z AUTO 27003KT 10SM CLR 10/06 A3009 RMK AO2 T00970060,0,3.0,0,16090.0,0,0,0,
2026-04-23 10:35:00,METAR KSVH 231035Z AUTO 26003KT 10SM CLR 08/06 A3009 RMK AO2 T00820059,0,3.0,0,16090.0,0,0,0,
2026-04-23 10:15:00,METAR KSVH 231015Z AUTO 00000KT 10SM CLR 08/06 A3008 RMK AO2 T00840060,0,0.0,0,16090.0,0,0,0,
2026-04-23 09:55:00,METAR KSVH 230955Z AUTO 26004KT 10SM CLR 09/06 A3007 RMK AO2 T00860061,0,4.0,0,16090.0,0,0,0,
2026-04-23 09:35:00,METAR KSVH 230935Z AUTO 00000KT 10SM CLR 10/06 A3007 RMK AO2 T00970060,0,0.0,0,16090.0,0,0,0,
2026-04-23 09:15:00,METAR KSVH 230915Z AUTO 27003KT 10SM CLR 09/06 A3006 RMK AO2 T00920061,0,3.0,0,16090.0,0,0,0,
2026-04-23 08:55:00,METAR KSVH 230855Z AUTO 00000KT 10SM 09/06 A3007 RMK AO2 T00870063,0,0.0,0,16090.0,0,0,0,
2026-04-23 08:35:00,METAR KSVH 230835Z AUTO 00000KT 10SM CLR 09/07 A3007 RMK AO2 T00900069,0,0.0,0,16090.0,0,0,0,
2026-04-23 08:15:00,METAR KSVH 230815Z AUTO 00000KT 10SM CLR 10/06 A3006 RMK AO2 T01030057,0,0.0,0,16090.0,0,0,0,
2026-04-23 07:55:00,METAR KSVH 230755Z AUTO 00000KT 10SM CLR 11/06 A3006 RMK AO2 T01120058,0,0.0,0,16090.0,0,0,0,
2026-04-23 07:35:00,METAR KSVH 230735Z AUTO 00000KT 10SM CLR 11/06 A3006 RMK AO2 T01120056,0,0.0,0,16090.0,0,0,0,
2026-04-23 07:15:00,METAR KSVH 230715Z AUTO 00000KT 10SM CLR 10/06 A3006 RMK AO2 T01040056,0,0.0,0,16090.0,0,0,0,
2026-04-23 06:55:00,METAR KSVH 230655Z AUTO 00000KT 10SM CLR 12/05 A3005 RMK AO2 T01180053,0,0.0,0,16090.0,0,0,0,
2026-04-23 06:35:00,METAR KSVH 230635Z AUTO 00000KT 10SM CLR 12/05 A3006 RMK AO2 T01230049,0,0.0,0,16090.0,0,0,0,
2026-04-23 06:15:00,METAR KSVH 230615Z AUTO 00000KT 10SM CLR 12/05 A3007 RMK AO2 T01230050,0,0.0,0,16090.0,0,0,0,
2026-04-23 05:55:00,METAR KSVH 230555Z AUTO 00000KT 10SM CLR 14/05 A3008 RMK AO2 T01370046 10238 20125,0,0.0,0,16090.0,0,0,0,
2026-04-23 05:35:00,METAR KSVH 230535Z AUTO 29003KT 10SM CLR 14/05 A3008 RMK AO2 T01360051,0,3.0,0,16090.0,0,0,0,
2026-04-23 05:15:00,METAR KSVH 230515Z AUTO 27003KT 10SM CLR 13/06 A3009 RMK AO2 T01330055,0,3.0,0,16090.0,0,0,0,
2026-04-23 04:55:00,METAR KSVH 230455Z AUTO 00000KT 10SM CLR 13/06 A3009 RMK AO2 T01260059,0,0.0,0,16090.0,0,0,0,
2026-04-23 04:35:00,METAR KSVH 230435Z AUTO 00000KT 10SM CLR 14/05 A3009 RMK AO2 T01440054,0,0.0,0,16090.0,0,0,0,
2026-04-23 04:15:00,METAR KSVH 230415Z AUTO 36003KT 10SM CLR 14/05 A3009 RMK AO2 T01430054,0,3.0,0,16090.0,0,0,0,
2026-04-23 03:55:00,METAR KSVH 230355Z AUTO 00000KT 10SM CLR 15/06 A3008 RMK AO2 T01480055,0,0.0,0,16090.0,0,0,0,
2026-04-23 03:35:00,METAR KSVH 230335Z AUTO 25003KT 10SM CLR 16/05 A3008 RMK AO2 T01560051,0,3.0,0,16090.0,0,0,0,
2026-04-23 03:15:00,METAR KSVH 230315Z AUTO 00000KT 10SM CLR 16/05 A3008 RMK AO2 T01620049,0,0.0,0,16090.0,0,0,0,
2026-04-23 02:55:00,METAR KSVH 230255Z AUTO 22003KT 10SM CLR 17/05 A3008 RMK AO2 T01690051,0,3.0,0,16090.0,0,0,0,
2026-04-23 02:35:00,METAR KSVH 230235Z AUTO 21004KT 10SM CLR 16/06 A3008 RMK AO2 T01590060,0,4.0,0,16090.0,0,0,0,
2026-04-23 02:15:00,METAR KSVH 230215Z AUTO 22003KT 10SM CLR 18/05 A3008 RMK AO2 T01750048,0,3.0,0,16090.0,0,0,0,
2026-04-23 01:55:00,METAR KSVH 230155Z AUTO 23003KT 10SM CLR 19/05 A3008 RMK AO2 T01870048,0,3.0,0,16090.0,0,0,0,
2026-04-23 01:35:00,METAR KSVH 230135Z AUTO 25003KT 10SM CLR 18/05 A3008 RMK AO2 T01830047,0,3.0,0,16090.0,0,0,0,
2026-04-23 01:15:00,METAR KSVH 230115Z AUTO 00000KT 10SM CLR 20/03 A3007 RMK AO2 T02030030,0,0.0,0,16090.0,0,0,0,
2026-04-23 00:55:00,METAR KSVH 230055Z AUTO 24003KT 10SM CLR 22/03 A3006 RMK AO2 T02160026,0,3.0,0,16090.0,0,0,0,
2026-04-23 00:35:00,METAR KSVH 230035Z AUTO 23003KT 10SM 21/03 A3005 RMK AO2 T02130027,0,3.0,0,16090.0,0,0,0,
2026-04-22 23:55:00,METAR KSVH 222355Z AUTO 25/00 RMK AO2 6//// T02480004 PWINO,0,,0,,0,0,0,
2026-04-22 22:50:00,METAR KSVH 222250Z AUTO 26006KT 28/M01 A3003 RMK AO2 T02751013 PWINO,0,6.0,0,,0,0,0,
2026-04-22 22:35:00,METAR KSVH 222235Z AUTO 25007KT 10SM SCT110 28/M01 A3003 RMK AO2 T02781006,0,7.0,0,16090.0,0,0,0,
2026-04-22 22:15:00,METAR KSVH 222215Z AUTO 24007KT 10SM SCT110 28/03 A3004 RMK AO2 T02820029,0,7.0,0,16090.0,0,0,0,
2026-04-22 21:55:00,METAR KSVH 222155Z AUTO 28006KT 10SM CLR 28/02 A3004 RMK AO2 T02800023,0,6.0,0,16090.0,0,0,0,
2026-04-22 21:35:00,METAR KSVH 222135Z AUTO 27007KT 10SM 28/03 A3004 RMK AO2 T02830025,0,7.0,0,16090.0,0,0,0,
2026-04-22 21:15:00,METAR KSVH 222115Z AUTO 30006KT 10SM BKN110 29/04 A3004 RMK AO2 T02890036,0,6.0,0,16090.0,0,0,0,
2026-04-22 20:55:00,METAR KSVH 222055Z AUTO 23007G17KT 10SM SCT110 29/02 A3004 RMK AO2 T02890018,0,7.0,1,16090.0,0,0,0,
2026-04-22 20:35:00,METAR KSVH 222035Z AUTO 25011G16KT 10SM CLR 29/00 A3005 RMK AO2 T02880003,0,11.0,1,16090.0,0,0,0,
2026-04-22 20:15:00,METAR KSVH 222015Z AUTO 24007G14KT 210V270 10SM CLR 29/00 A3005 RMK AO2 T02851005,0,7.0,1,16090.0,0,0,0,
2026-04-22 19:35:00,METAR KSVH 221935Z AUTO 16003KT 10SM CLR 28/01 A3008 RMK AO2 T02810013,0,3.0,0,16090.0,0,0,0,
2026-04-22 19:15:00,METAR KSVH 221915Z AUTO 26005G16KT 10SM CLR 28/01 A3008 RMK AO2 T02780010,0,5.0,1,16090.0,0,0,0,
2026-04-22 18:55:00,METAR KSVH 221855Z AUTO 22006KT 10SM CLR 28/03 A3010 RMK AO2 T02800034,0,6.0,0,16090.0,0,0,0,
2026-04-22 18:35:00,METAR KSVH 221835Z AUTO 00000KT 10SM CLR 27/03 A3011 RMK AO2 T02740027,0,0.0,0,16090.0,0,0,0,
2026-04-22 18:15:00,METAR KSVH 221815Z AUTO 22006G15KT 10SM CLR 27/02 A3012 RMK AO2 T02740017,0,6.0,1,16090.0,0,0,0,
2026-04-22 17:55:00,METAR KSVH 221755Z AUTO 24005G14KT 10SM CLR 27/01 A3013 RMK AO2 T02690014 10269 20109,0,5.0,1,16090.0,0,0,0,
2026-04-22 17:35:00,METAR KSVH 221735Z AUTO 25006G16KT 200V280 10SM CLR 27/01 A3013 RMK AO2 T02680011,0,6.0,1,16090.0,0,0,0,
2026-04-22 16:55:00,METAR KSVH 221655Z AUTO 25009G14KT 10SM CLR 25/04 A3016 RMK AO2 T02510041,0,9.0,1,16090.0,0,0,0,
2026-04-22 16:35:00,METAR KSVH 221635Z AUTO 24004KT 10SM CLR 25/04 A3016 RMK AO2 T02500040,0,4.0,0,16090.0,0,0,0,
2026-04-22 16:15:00,METAR KSVH 221615Z AUTO 25007KT 10SM CLR 25/04 A3017 RMK AO2 T02500036,0,7.0,0,16090.0,0,0,0,
2026-04-22 15:55:00,METAR KSVH 221555Z AUTO 21005KT 10SM CLR 24/04 A3018 RMK AO2 T02420042,0,5.0,0,16090.0,0,0,0,
2026-04-22 15:35:00,METAR KSVH 221535Z AUTO 22006KT 10SM CLR 23/06 A3019 RMK AO2 T02320064,0,6.0,0,16090.0,0,0,0,
2026-04-22 15:15:00,METAR KSVH 221515Z AUTO 20007KT 10SM CLR 23/08 A3019 RMK AO2 T02300076,0,7.0,0,16090.0,0,0,0,
2026-04-22 14:55:00,METAR KSVH 221455Z AUTO 20006KT 10SM CLR 22/08 A3019 RMK AO2 T02170075,0,6.0,0,16090.0,0,0,0,
2026-04-22 14:35:00,METAR KSVH 221435Z AUTO 21003KT 10SM CLR 21/08 A3019 RMK AO2 T02090081,0,3.0,0,16090.0,0,0,0,
2026-04-22 14:15:00,METAR KSVH 221415Z AUTO 00000KT 10SM CLR 20/08 A3019 RMK AO2 T01970076,0,0.0,0,16090.0,0,0,0,
2026-04-22 13:55:00,METAR KSVH 221355Z AUTO 00000KT 10SM CLR 18/07 A3019 RMK AO2 T01820072,0,0.0,0,16090.0,0,0,0,
2026-04-22 13:35:00,METAR KSVH 221335Z AUTO 21003KT 10SM CLR 17/07 A3020 RMK AO2 T01680068,0,3.0,0,16090.0,0,0,0,
2026-04-22 13:15:00,METAR KSVH 221315Z AUTO 24003KT 10SM CLR 15/06 A3020 RMK AO2 T01530057,0,3.0,0,16090.0,0,0,0,
2026-04-22 12:55:00,METAR KSVH 221255Z AUTO 23003KT 10SM CLR 14/06 A3020 RMK AO2 T01410058,0,3.0,0,16090.0,0,0,0,
2026-04-22 12:35:00,METAR KSVH 221235Z AUTO 22003KT 10SM CLR 13/06 A3020 RMK AO2 T01310055,0,3.0,0,16090.0,0,0,0,
2026-04-22 12:15:00,METAR KSVH 221215Z AUTO 22003KT 10SM CLR 12/06 A3020 RMK AO2 T01190055,0,3.0,0,16090.0,0,0,0,
2026-04-22 11:55:00,METAR KSVH 221155Z AUTO 23003KT 10SM CLR 11/05 A3020 RMK AO2 T01060050 10121 20073,0,3.0,0,16090.0,0,0,0,
2026-04-22 11:35:00,METAR KSVH 221135Z AUTO 22003KT 10SM CLR 10/05 A3020 RMK AO2 T00950052,0,3.0,0,16090.0,0,0,0,
2026-04-22 11:15:00,METAR KSVH 221115Z AUTO 24004KT 10SM CLR 09/05 A3020 RMK AO2 T00920050,0,4.0,0,16090.0,0,0,0,
2026-04-22 10:55:00,METAR KSVH 221055Z AUTO 23004KT 10SM CLR 08/06 A3020 RMK AO2 T00820055,0,4.0,0,16090.0,0,0,0,
2026-04-22 10:35:00,METAR KSVH 221035Z AUTO 25004KT 10SM CLR 09/05 A3019 RMK AO2 T00930050,0,4.0,0,16090.0,0,0,0,
2026-04-22 10:15:00,METAR KSVH 221015Z AUTO 23003KT 10SM CLR 10/05 A3019 RMK AO2 T01020045,0,3.0,0,16090.0,0,0,0,
2026-04-22 09:55:00,METAR KSVH 220955Z AUTO 24003KT 10SM CLR 11/05 A3019 RMK AO2 T01100046,0,3.0,0,16090.0,0,0,0,
2026-04-22 09:35:00,METAR KSVH 220935Z AUTO 24005KT 10SM CLR 11/05 A3018 RMK AO2 T01100045,0,5.0,0,16090.0,0,0,0,
2026-04-22 09:15:00,METAR KSVH 220915Z AUTO 24006KT 10SM CLR 10/05 A3018 RMK AO2 T01030045,0,6.0,0,16090.0,0,0,0,
2026-04-22 08:55:00,METAR KSVH 220855Z AUTO 25004KT 10SM CLR 08/05 A3018 RMK AO2 T00790046,0,4.0,0,16090.0,0,0,0,
2026-04-22 08:35:00,METAR KSVH 220835Z AUTO 25003KT 10SM CLR 08/05 A3019 RMK AO2 T00830049,0,3.0,0,16090.0,0,0,0,
2026-04-22 08:15:00,METAR KSVH 220815Z AUTO 00000KT 10SM CLR 10/05 A3019 RMK AO2 T00960048,0,0.0,0,16090.0,0,0,0,
2026-04-22 07:55:00,METAR KSVH 220755Z AUTO 00000KT 10SM CLR 09/05 A3020 RMK AO2 T00940052,0,0.0,0,16090.0,0,0,0,
2026-04-22 07:35:00,METAR KSVH 220735Z AUTO 00000KT 10SM CLR 10/05 A3020 RMK AO2 T01010050,0,0.0,0,16090.0,0,0,0,
2026-04-22 07:15:00,METAR KSVH 220715Z AUTO 22004KT 10SM CLR 11/04 A3020 RMK AO2 T01130043,0,4.0,0,16090.0,0,0,0,
2026-04-22 06:55:00,METAR KSVH 220655Z AUTO 23003KT 10SM CLR 12/04 A3020 RMK AO2 T01170041,0,3.0,0,16090.0,0,0,0,
2026-04-22 06:35:00,METAR KSVH 220635Z AUTO 21006KT 10SM CLR 12/04 A3020 RMK AO2 T01190043,0,6.0,0,16090.0,0,0,0,
2026-04-22 06:15:00,METAR KSVH 220615Z AUTO 21005KT 10SM CLR 11/05 A3021 RMK AO2 T01120048,0,5.0,0,16090.0,0,0,0,
2026-04-22 05:55:00,METAR KSVH 220555Z AUTO 21005KT 10SM CLR 11/05 A3022 RMK AO2 T01140045 10160 20092,0,5.0,0,16090.0,0,0,0,
2026-04-22 05:35:00,METAR KSVH 220535Z AUTO 22005KT 10SM CLR 10/05 A3022 RMK AO2 T01010054,0,5.0,0,16090.0,0,0,0,
2026-04-22 05:15:00,METAR KSVH 220515Z AUTO 22003KT 10SM CLR 11/05 A3023 RMK AO2 T01110052,0,3.0,0,16090.0,0,0,0,
2026-04-22 04:55:00,METAR KSVH 220455Z AUTO 22004KT 10SM CLR 10/06 A3023 RMK AO2 T00960061 401990049,0,4.0,0,16090.0,0,0,0,
2026-04-22 04:35:00,METAR KSVH 220435Z AUTO 21004KT 10SM CLR 10/06 A3024 RMK AO2 T00950060,0,4.0,0,16090.0,0,0,0,
2026-04-22 04:15:00,METAR KSVH 220415Z AUTO 22003KT 10SM CLR 10/06 A3024 RMK AO2 T01020060,0,3.0,0,16090.0,0,0,0,
2026-04-22 03:55:00,METAR KSVH 220355Z AUTO 22003KT 10SM CLR 11/05 A3025 RMK AO2 T01130052,0,3.0,0,16090.0,0,0,0,
2026-04-22 03:35:00,METAR KSVH 220335Z AUTO 00000KT 10SM CLR 12/05 A3025 RMK AO2 T01150051,0,0.0,0,16090.0,0,0,0,
2026-04-22 03:15:00,METAR KSVH 220315Z AUTO 25003KT 10SM CLR 10/05 A3025 RMK AO2 T01000049,0,3.0,0,16090.0,0,0,0,
2026-04-22 02:55:00,METAR KSVH 220255Z AUTO 23003KT 10SM CLR 14/05 A3024 RMK AO2 T01380045,0,3.0,0,16090.0,0,0,0,
2026-04-22 02:35:00,METAR KSVH 220235Z AUTO 22003KT 10SM CLR 14/04 A3024 RMK AO2 T01380044,0,3.0,0,16090.0,0,0,0,
2026-04-22 02:15:00,METAR KSVH 220215Z AUTO 21004KT 10SM CLR 14/05 A3024 RMK AO2 T01350047,0,4.0,0,16090.0,0,0,0,
2026-04-22 01:55:00,METAR KSVH 220155Z AUTO 22004KT 10SM CLR 13/05 A3025 RMK AO2 T01330047,0,4.0,0,16090.0,0,0,0,
2026-04-22 01:35:00,METAR KSVH 220135Z AUTO 22004KT 10SM CLR 14/05 A3024 RMK AO2 T01350052,0,4.0,0,16090.0,0,0,0,
2026-04-22 01:15:00,METAR KSVH 220115Z AUTO 00000KT 10SM CLR 14/05 A3024 RMK AO2 T01410047,0,0.0,0,16090.0,0,0,0,
2026-04-22 00:55:00,METAR KSVH 220055Z AUTO 19003KT 10SM CLR 15/04 A3024 RMK AO2 T01540044,0,3.0,0,16090.0,0,0,0,
2026-04-22 00:35:00,METAR KSVH 220035Z AUTO 20004KT 10SM CLR 15/05 A3024 RMK AO2 T01540047,0,4.0,0,16090.0,0,0,0,
2026-04-22 00:15:00,METAR KSVH 220015Z AUTO 21003KT 10SM CLR 16/05 A3024 RMK AO2 T01570051,0,3.0,0,16090.0,0,0,0,
2026-04-21 23:55:00,METAR KSVH 212355Z AUTO 00000KT 10SM CLR 16/05 A3023 RMK AO2 T01620054 10199 20162,0,0.0,0,16090.0,0,0,0,
2026-04-21 23:35:00,METAR KSVH 212335Z AUTO 00000KT 10SM CLR 17/05 A3023 RMK AO2 T01740048,0,0.0,0,16090.0,0,0,0,
2026-04-21 23:15:00,METAR KSVH 212315Z AUTO 00000KT 10SM CLR 18/05 A3024 RMK AO2 T01820047,0,0.0,0,16090.0,0,0,0,
2026-04-21 22:55:00,METAR KSVH 212255Z AUTO 00000KT 10SM CLR 19/04 A3024 RMK AO2 T01900041,0,0.0,0,16090.0,0,0,0,
2026-04-21 22:35:00,METAR KSVH 212235Z AUTO 00000KT 10SM CLR 19/03 A3024 RMK AO2 T01860034,0,0.0,0,16090.0,0,0,0,
2026-04-21 21:55:00,METAR KSVH 212155Z AUTO 00000KT 10SM CLR 19/03 A3025 RMK AO2 T01900030,0,0.0,0,16090.0,0,0,0,
2026-04-21 21:35:00,METAR KSVH 212135Z AUTO 16004KT 10SM CLR 20/02 A3026 RMK AO2 T01950023,0,4.0,0,16090.0,0,0,0,
2026-04-21 21:15:00,METAR KSVH 212115Z AUTO 16007KT 10SM CLR 19/02 A3026 RMK AO2 T01920018,0,7.0,0,16090.0,0,0,0,
2026-04-21 20:55:00,METAR KSVH 212055Z AUTO 20004KT 10SM CLR 20/01 A3027 RMK AO2 T01970011,0,4.0,0,16090.0,0,0,0,
2026-04-21 20:35:00,METAR KSVH 212035Z AUTO 00000KT 10SM CLR 19/01 A3028 RMK AO2 T01940007,0,0.0,0,16090.0,0,0,0,
2026-04-21 20:15:00,METAR KSVH 212015Z AUTO 18006KT 10SM CLR 19/01 A3029 RMK AO2 T01900006,0,6.0,0,16090.0,0,0,0,
2026-04-21 19:55:00,METAR KSVH 211955Z AUTO 13005KT 10SM CLR 19/00 A3031 RMK AO2 T01870002,0,5.0,0,16090.0,0,0,0,
2026-04-21 19:35:00,METAR KSVH 211935Z AUTO 23006KT 10SM CLR 18/01 A3031 RMK AO2 T01840005,0,6.0,0,16090.0,0,0,0,
2026-04-21 19:15:00,METAR KSVH 211915Z AUTO 21005KT 10SM CLR 18/01 A3032 RMK AO2 T01820005,0,5.0,0,16090.0,0,0,0,
2026-04-21 18:55:00,METAR KSVH 211855Z AUTO 19003KT 10SM CLR 18/00 A3034 RMK AO2 T01810001,0,3.0,0,16090.0,0,0,0,
2026-04-21 18:35:00,METAR KSVH 211835Z AUTO 22006KT 10SM CLR 18/00 A3034 RMK AO2 T01810001,0,6.0,0,16090.0,0,0,0,
2026-04-21 18:15:00,METAR KSVH 211815Z AUTO 21005KT 10SM CLR 18/00 A3034 RMK AO2 T01770002,0,5.0,0,16090.0,0,0,0,
2026-04-21 17:55:00,METAR KSVH 211755Z AUTO 08004KT 10SM CLR 17/00 A3035 RMK AO2 T01731004 10174 20066,0,4.0,0,16090.0,0,0,0,
2026-04-21 17:35:00,METAR KSVH 211735Z AUTO 00000KT 10SM CLR 17/M01 A3036 RMK AO2 T01711007,0,0.0,0,16090.0,0,0,0,
2026-04-21 17:15:00,METAR KSVH 211715Z AUTO 00000KT 10SM CLR 16/M01 A3037 RMK AO2 T01611011,0,0.0,0,16090.0,0,0,0,
2026-04-21 16:55:00,METAR KSVH 211655Z AUTO 00000KT 10SM CLR 16/00 A3037 RMK AO2 T01581002,0,0.0,0,16090.0,0,0,0,
2026-04-21 16:35:00,METAR KSVH 211635Z AUTO 00000KT 10SM CLR 15/M02 A3038 RMK AO2 T01501017,0,0.0,0,16090.0,0,0,0,
2026-04-21 16:15:00,METAR KSVH 211615Z AUTO 00000KT 10SM CLR 14/M02 A3039 RMK AO2 T01441017,0,0.0,0,16090.0,0,0,0,
2026-04-21 15:55:00,METAR KSVH 211555Z AUTO 02004KT 10SM CLR 14/M01 A3039 RMK AO2 T01421012,0,4.0,0,16090.0,0,0,0,
2026-04-21 15:35:00,METAR KSVH 211535Z AUTO 11004KT 10SM CLR 13/M02 A3040 RMK AO2 T01341017,0,4.0,0,16090.0,0,0,0,
2026-04-21 15:15:00,METAR KSVH 211515Z AUTO 00000KT 10SM CLR 13/M02 A3041 RMK AO2 T01281020,0,0.0,0,16090.0,0,0,0,
2026-04-21 14:55:00,METAR KSVH 211455Z AUTO 00000KT 10SM CLR 12/M02 A3042 RMK AO2 T01191020,0,0.0,0,16090.0,0,0,0,
2026-04-21 14:35:00,METAR KSVH 211435Z AUTO 06003KT 10SM CLR 12/M02 A3043 RMK AO2 T01161023,0,3.0,0,16090.0,0,0,0,
2026-04-21 14:15:00,METAR KSVH 211415Z AUTO 00000KT 10SM CLR 11/M03 A3043 RMK AO2 T01121030,0,0.0,0,16090.0,0,0,0,
2026-04-21 13:55:00,METAR KSVH 211355Z AUTO 09007KT 10SM CLR 11/M03 A3043 RMK AO2 T01101029,0,7.0,0,16090.0,0,0,0,
2026-04-21 13:35:00,METAR KSVH 211335Z AUTO 03005KT 10SM CLR 10/M02 A3043 RMK AO2 T00981025,0,5.0,0,16090.0,0,0,0,
2026-04-21 13:15:00,METAR KSVH 211315Z AUTO 05006KT 10SM CLR 10/M02 A3043 RMK AO2 T00951024,0,6.0,0,16090.0,0,0,0,
2026-04-21 12:55:00,METAR KSVH 211255Z AUTO 04005KT 10SM CLR 09/M03 A3043 RMK AO2 T00871026,0,5.0,0,16090.0,0,0,0,
2026-04-21 12:35:00,METAR KSVH 211235Z AUTO 04005KT 10SM CLR 08/M02 A3043 RMK AO2 T00831024,0,5.0,0,16090.0,0,0,0,
2026-04-21 12:15:00,METAR KSVH 211215Z AUTO 04007KT 10SM CLR 07/M03 A3043 RMK AO2 T00731029,0,7.0,0,16090.0,0,0,0,
2026-04-21 11:55:00,METAR KSVH 211155Z AUTO 03005KT 10SM CLR 07/M03 A3043 RMK AO2 T00651030 10089 20049,0,5.0,0,16090.0,0,0,0,
2026-04-21 11:35:00,METAR KSVH 211135Z AUTO 02005KT 10SM CLR 06/M03 A3041 RMK AO2 T00551033,0,5.0,0,16090.0,0,0,0,
2026-04-21 11:15:00,METAR KSVH 211115Z AUTO 02005KT 10SM CLR 05/M04 A3040 RMK AO2 T00521036,0,5.0,0,16090.0,0,0,0,
2026-04-21 10:55:00,METAR KSVH 211055Z AUTO 01004KT 10SM CLR 05/M04 A3039 RMK AO2 T00501038,0,4.0,0,16090.0,0,0,0,
2026-04-21 10:35:00,METAR KSVH 211035Z AUTO 01004KT 10SM CLR 05/M04 A3037 RMK AO2 T00511039,0,4.0,0,16090.0,0,0,0,
2026-04-21 10:15:00,METAR KSVH 211015Z AUTO 02004KT 10SM CLR 05/M04 A3036 RMK AO2 T00491037,0,4.0,0,16090.0,0,0,0,
2026-04-21 09:55:00,METAR KSVH 210955Z AUTO 02005KT 10SM CLR 05/M04 A3035 RMK AO2 T00501038,0,5.0,0,16090.0,0,0,0,
2026-04-21 09:35:00,METAR KSVH 210935Z AUTO 02004KT 10SM CLR 06/M04 A3034 RMK AO2 T00551042,0,4.0,0,16090.0,0,0,0,
2026-04-21 09:15:00,METAR KSVH 210915Z AUTO 01003KT 10SM CLR 06/M04 A3034 RMK AO2 T00561042,0,3.0,0,16090.0,0,0,0,
2026-04-21 08:55:00,METAR KSVH 210855Z AUTO 03004KT 10SM CLR 06/M04 A3034 RMK AO2 T00621045,0,4.0,0,16090.0,0,0,0,
2026-04-21 08:35:00,METAR KSVH 210835Z AUTO 01004KT 10SM CLR 07/M04 A3034 RMK AO2 T00651044,0,4.0,0,16090.0,0,0,0,
2026-04-21 08:15:00,METAR KSVH 210815Z AUTO 01004KT 10SM CLR 07/M04 A3033 RMK AO2 T00681045,0,4.0,0,16090.0,0,0,0,
2026-04-21 07:55:00,METAR KSVH 210755Z AUTO 04005KT 10SM CLR 06/M03 A3032 RMK AO2 T00631035,0,5.0,0,16090.0,0,0,0,
2026-04-21 07:35:00,METAR KSVH 210735Z AUTO 02003KT 10SM CLR 07/M04 A3032 RMK AO2 T00701039,0,3.0,0,16090.0,0,0,0,
2026-04-21 06:55:00,METAR KSVH 210655Z AUTO 36003KT 10SM CLR 08/M04 A3032 RMK AO2 T00751039,0,3.0,0,16090.0,0,0,0,
2026-04-21 06:35:00,METAR KSVH 210635Z AUTO 05004KT 10SM CLR 08/M04 A3032 RMK AO2 T00781038,0,4.0,0,16090.0,0,0,0,
2026-04-21 06:15:00,METAR KSVH 210615Z AUTO 00000KT 10SM CLR 07/M04 A3032 RMK AO2 T00671040,0,0.0,0,16090.0,0,0,0,
2026-04-21 05:55:00,METAR KSVH 210555Z AUTO 06003KT 10SM CLR 09/M04 A3032 RMK AO2 T00901041 10183 20089,0,3.0,0,16090.0,0,0,0,
2026-04-21 05:35:00,METAR KSVH 210535Z AUTO 05004KT 10SM CLR 10/M04 A3031 RMK AO2 T00971044,0,4.0,0,16090.0,0,0,0,
2026-04-21 05:15:00,METAR KSVH 210515Z AUTO 05004KT 10SM CLR 10/M04 A3031 RMK AO2 T00961045,0,4.0,0,16090.0,0,0,0,
2026-04-21 04:55:00,METAR KSVH 210455Z AUTO 06004KT 10SM CLR 10/M04 A3030 RMK AO2 T00961043 402200025,0,4.0,0,16090.0,0,0,0,
2026-04-21 04:35:00,METAR KSVH 210435Z AUTO 06005KT 10SM CLR 10/M04 A3029 RMK AO2 T01011037,0,5.0,0,16090.0,0,0,0,
2026-04-21 04:15:00,METAR KSVH 210415Z AUTO 07004KT 10SM CLR 11/M03 A3029 RMK AO2 T01051032,0,4.0,0,16090.0,0,0,0,
2026-04-21 03:55:00,METAR KSVH 210355Z AUTO 07004KT 10SM CLR 10/M03 A3028 RMK AO2 T01041029,0,4.0,0,16090.0,0,0,0,
2026-04-21 03:35:00,METAR KSVH 210335Z AUTO 05003KT 10SM CLR 12/M02 A3028 RMK AO2 T01151023,0,3.0,0,16090.0,0,0,0,
2026-04-21 03:15:00,METAR KSVH 210315Z AUTO 06004KT 10SM CLR 12/M02 A3027 RMK AO2 T01221019,0,4.0,0,16090.0,0,0,0,
2026-04-21 02:55:00,METAR KSVH 210255Z AUTO 04004KT 10SM CLR 12/M01 A3027 RMK AO2 T01201009,0,4.0,0,16090.0,0,0,0,
2026-04-21 02:35:00,METAR KSVH 210235Z AUTO 05004KT 10SM CLR 13/00 A3026 RMK AO2 T01250000,0,4.0,0,16090.0,0,0,0,
2026-04-21 02:15:00,METAR KSVH 210215Z AUTO 04003KT 10SM CLR 13/00 A3026 RMK AO2 T01300004,0,3.0,0,16090.0,0,0,0,
2026-04-21 01:55:00,METAR KSVH 210155Z AUTO 02004KT 10SM CLR 13/00 A3025 RMK AO2 T01330002,0,4.0,0,16090.0,0,0,0,
2026-04-21 01:35:00,METAR KSVH 210135Z AUTO 00000KT 10SM CLR 13/00 A3023 RMK AO2 T01310003,0,0.0,0,16090.0,0,0,0,
2026-04-21 01:15:00,METAR KSVH 210115Z AUTO 35003KT 10SM CLR 16/M01 A3022 RMK AO2 T01611012,0,3.0,0,16090.0,0,0,0,
2026-04-21 00:55:00,METAR KSVH 210055Z AUTO 00000KT 10SM CLR 15/00 A3021 RMK AO2 T01511002,0,0.0,0,16090.0,0,0,0,
2026-04-21 00:35:00,METAR KSVH 210035Z AUTO 33004KT 10SM CLR 17/M01 A3019 RMK AO2 T01711011,0,4.0,0,16090.0,0,0,0,
2026-04-21 00:15:00,METAR KSVH 210015Z AUTO 31003KT 10SM CLR 18/00 A3019 RMK AO2 T01751005,0,3.0,0,16090.0,0,0,0,
2026-04-20 23:55:00,METAR KSVH 202355Z AUTO 30003KT 10SM CLR 18/M01 A3018 RMK AO2 T01831007 10220 20183,0,3.0,0,16090.0,0,0,0,
2026-04-20 23:35:00,METAR KSVH 202335Z AUTO 29003KT 10SM CLR 19/00 A3018 RMK AO2 T01901002,0,3.0,0,16090.0,0,0,0,
2026-04-20 23:15:00,METAR KSVH 202315Z AUTO 30006KT 10SM CLR 20/M01 A3017 RMK AO2 T02001007,0,6.0,0,16090.0,0,0,0,
2026-04-20 22:55:00,METAR KSVH 202255Z AUTO 30004KT 10SM CLR 20/M01 A3017 RMK AO2 T02041012,0,4.0,0,16090.0,0,0,0,
2026-04-20 22:35:00,METAR KSVH 202235Z AUTO 30012G18KT 10SM CLR 21/M01 A3017 RMK AO2 T02061015,0,12.0,1,16090.0,0,0,0,
2026-04-20 22:15:00,METAR KSVH 202215Z AUTO 31011G16KT 10SM SCT100 21/M02 A3017 RMK AO2 T02071019,0,11.0,1,16090.0,0,0,0,
2026-04-20 21:55:00,METAR KSVH 202155Z AUTO 29007KT 10SM SCT100 21/00 A3017 RMK AO2 T02091003,0,7.0,0,16090.0,0,0,0,
2026-04-20 21:35:00,METAR KSVH 202135Z AUTO 29010KT 10SM SCT100 BKN110 21/M01 A3016 RMK AO2 T02071011,0,10.0,0,16090.0,0,0,0,
2026-04-20 21:15:00,METAR KSVH 202115Z AUTO 30008G17KT 10SM SCT095 21/M02 A3016 RMK AO2 T02071022,0,8.0,1,16090.0,0,0,0,
2026-04-20 20:55:00,METAR KSVH 202055Z AUTO 33010G18KT 10SM SCT095 SCT120 22/M01 A3015 RMK AO2 T02201008,0,10.0,1,16090.0,0,0,0,
2026-04-20 20:35:00,METAR KSVH 202035Z AUTO 29013G21KT 10SM BKN095 BKN120 22/M01 A3015 RMK AO2 T02181012,0,13.0,1,16090.0,0,0,0,
2026-04-20 20:15:00,METAR KSVH 202015Z AUTO 31012G18KT 10SM BKN095 BKN120 21/M01 A3015 RMK AO2 T02091013,0,12.0,1,16090.0,0,0,0,
2026-04-20 19:55:00,METAR KSVH 201955Z AUTO 31009KT 10SM BKN095 BKN120 21/M01 A3016 RMK AO2 T02061007,0,9.0,0,16090.0,0,0,0,
2026-04-20 19:35:00,METAR KSVH 201935Z AUTO 29007KT 10SM BKN095 BKN110 20/00 A3016 RMK AO2 T02021005,0,7.0,0,16090.0,0,0,0,
2026-04-20 19:15:00,METAR KSVH 201915Z AUTO 28014G18KT 10SM BKN095 20/M01 A3017 RMK AO2 T02031014,0,14.0,1,16090.0,0,0,0,
2026-04-20 18:55:00,METAR KSVH 201855Z AUTO 30010G16KT 10SM BKN095 BKN120 21/00 A3017 RMK AO2 T02141003,0,10.0,1,16090.0,0,0,0,
2026-04-20 18:35:00,METAR KSVH 201835Z AUTO 24005KT 10SM BKN095 BKN120 20/00 A3018 RMK AO2 T01991004,0,5.0,0,16090.0,0,0,0,
2026-04-20 18:15:00,METAR KSVH 201815Z AUTO 23011G16KT 10SM BKN085 BKN110 20/00 A3019 RMK AO2 T01981001,0,11.0,1,16090.0,0,0,0,
2026-04-20 17:55:00,METAR KSVH 201755Z AUTO 25011G22KT 10SM BKN100 21/00 A3019 RMK AO2 T02110002 10213 20055,0,11.0,1,16090.0,0,0,0,
2026-04-20 17:35:00,METAR KSVH 201735Z AUTO 28009KT 10SM BKN090 20/01 A3020 RMK AO2 T02030005,0,9.0,0,16090.0,0,0,0,
2026-04-20 17:15:00,METAR KSVH 201715Z AUTO 28009G15KT 10SM BKN090 20/00 A3020 RMK AO2 T02010001,0,9.0,1,16090.0,0,0,0,
2026-04-20 16:35:00,METAR KSVH 201635Z AUTO 28011G25KT 10SM SCT080 SCT110 20/00 A3023 RMK AO2 T01951001,0,11.0,1,16090.0,0,0,0,
2026-04-20 16:15:00,METAR KSVH 201615Z AUTO 26012G17KT 10SM CLR 19/00 A3023 RMK AO2 T01931002,0,12.0,1,16090.0,0,0,0,
2026-04-20 15:55:00,METAR KSVH 201555Z AUTO 24010G16KT 10SM CLR 18/00 A3024 RMK AO2 T01821002,0,10.0,1,16090.0,0,0,0,
2026-04-20 15:35:00,METAR KSVH 201535Z AUTO 27007KT 10SM CLR 18/00 A3025 RMK AO2 T01761003,0,7.0,0,16090.0,0,0,0,
2026-04-20 15:15:00,METAR KSVH 201515Z AUTO 25007KT 10SM CLR 17/M01 A3026 RMK AO2 T01721013,0,7.0,0,16090.0,0,0,0,
2026-04-20 14:55:00,METAR KSVH 201455Z AUTO 22005KT 10SM CLR 17/M02 A3026 RMK AO2 T01681016,0,5.0,0,16090.0,0,0,0,
2026-04-20 14:15:00,METAR KSVH 201415Z AUTO 25007KT 10SM CLR 16/M01 A3026 RMK AO2 T01551007,0,7.0,0,16090.0,0,0,0,
2026-04-20 13:55:00,METAR KSVH 201355Z AUTO 23006KT 10SM CLR 15/00 A3026 RMK AO2 T01450001,0,6.0,0,16090.0,0,0,0,
2026-04-20 13:35:00,METAR KSVH 201335Z AUTO 22007KT 10SM CLR 13/00 A3026 RMK AO2 T01320001,0,7.0,0,16090.0,0,0,0,
2026-04-20 13:15:00,METAR KSVH 201315Z AUTO 24004KT 10SM CLR 12/01 A3026 RMK AO2 T01220007,0,4.0,0,16090.0,0,0,0,
2026-04-20 12:55:00,METAR KSVH 201255Z AUTO 24003KT 10SM CLR 11/01 A3027 RMK AO2 T01110005,0,3.0,0,16090.0,0,0,0,
2026-04-20 12:35:00,METAR KSVH 201235Z AUTO 26003KT 10SM CLR 09/02 A3027 RMK AO2 T00940017,0,3.0,0,16090.0,0,0,0,
2026-04-20 12:15:00,METAR KSVH 201215Z AUTO 26003KT 10SM CLR 08/02 A3027 RMK AO2 T00760019,0,3.0,0,16090.0,0,0,0,
2026-04-20 11:55:00,METAR KSVH 201155Z AUTO 25003KT 10SM CLR 06/02 A3026 RMK AO2 T00550023 10055 20025,0,3.0,0,16090.0,0,0,0,
2026-04-20 11:35:00,METAR KSVH 201135Z AUTO 00000KT 10SM CLR 04/02 A3025 RMK AO2 T00350015,0,0.0,0,16090.0,0,0,0,
2026-04-20 11:15:00,METAR KSVH 201115Z AUTO 28003KT 10SM CLR 03/01 A3024 RMK AO2 T00290005,0,3.0,0,16090.0,0,0,0,
2026-04-20 10:55:00,METAR KSVH 201055Z AUTO 00000KT 10SM CLR 03/00 A3023 RMK AO2 T00260000,0,0.0,0,16090.0,0,0,0,
2026-04-20 10:35:00,METAR KSVH 201035Z AUTO 00000KT 10SM CLR 03/00 A3022 RMK AO2 T00260004,0,0.0,0,16090.0,0,0,0,
2026-04-20 10:15:00,METAR KSVH 201015Z AUTO 00000KT 10SM CLR 03/00 A3022 RMK AO2 T00320000,0,0.0,0,16090.0,0,0,0,
2026-04-20 09:55:00,METAR KSVH 200955Z AUTO 24003KT 10SM CLR 03/00 A3022 RMK AO2 T00310001,0,3.0,0,16090.0,0,0,0,
2026-04-20 09:35:00,METAR KSVH 200935Z AUTO 25003KT 10SM CLR 03/00 A3022 RMK AO2 T00300001,0,3.0,0,16090.0,0,0,0,
2026-04-20 09:15:00,METAR KSVH 200915Z AUTO 22004KT 10SM CLR 03/01 A3022 RMK AO2 T00260009,0,4.0,0,16090.0,0,0,0,
2026-04-20 08:55:00,METAR KSVH 200855Z AUTO 00000KT 10SM CLR 03/01 A3023 RMK AO2 T00330010,0,0.0,0,16090.0,0,0,0,
2026-04-20 08:35:00,METAR KSVH 200835Z AUTO 24003KT 10SM CLR 04/00 A3023 RMK AO2 T00440000,0,3.0,0,16090.0,0,0,0,
2026-04-20 08:15:00,METAR KSVH 200815Z AUTO 24003KT 10SM CLR 03/01 A3023 RMK AO2 T00340006,0,3.0,0,16090.0,0,0,0,
2026-04-20 07:55:00,METAR KSVH 200755Z AUTO 23004KT 10SM CLR 03/01 A3022 RMK AO2 T00290008,0,4.0,0,16090.0,0,0,0,
2026-04-20 07:35:00,METAR KSVH 200735Z AUTO 00000KT 10SM CLR 04/01 A3022 RMK AO2 T00350013,0,0.0,0,16090.0,0,0,0,
2026-04-20 06:55:00,METAR KSVH 200655Z AUTO 00000KT 10SM CLR 04/01 A3023 RMK AO2 T00350006,0,0.0,0,16090.0,0,0,0,
2026-04-20 06:35:00,METAR KSVH 200635Z AUTO 23003KT 10SM CLR 04/01 A3023 RMK AO2 T00430007,0,3.0,0,16090.0,0,0,0,
2026-04-20 06:15:00,METAR KSVH 200615Z AUTO 22004KT 10SM CLR 04/01 A3022 RMK AO2 T00360010,0,4.0,0,16090.0,0,0,0,
2026-04-20 05:55:00,METAR KSVH 200555Z AUTO 23003KT 10SM CLR 04/01 A3023 RMK AO2 T00390014 10140 20036,0,3.0,0,16090.0,0,0,0,
2026-04-20 05:35:00,METAR KSVH 200535Z AUTO 00000KT 10SM CLR 05/01 A3023 RMK AO2 T00460006,0,0.0,0,16090.0,0,0,0,
2026-04-20 05:15:00,METAR KSVH 200515Z AUTO 22003KT 10SM CLR 04/01 A3023 RMK AO2 T00420014,0,3.0,0,16090.0,0,0,0,
2026-04-20 04:55:00,METAR KSVH 200455Z AUTO 00000KT 10SM CLR 06/01 A3022 RMK AO2 T00550007 402300055,0,0.0,0,16090.0,0,0,0,
2026-04-20 04:35:00,METAR KSVH 200435Z AUTO 00000KT 10SM CLR 06/00 A3022 RMK AO2 T00581004,0,0.0,0,16090.0,0,0,0,
2026-04-20 04:15:00,METAR KSVH 200415Z AUTO 35003KT 10SM CLR 07/M01 A3021 RMK AO2 T00731014,0,3.0,0,16090.0,0,0,0,
2026-04-20 03:55:00,METAR KSVH 200355Z AUTO 00000KT 10SM CLR 08/00 A3021 RMK AO2 T00781005,0,0.0,0,16090.0,0,0,0,
2026-04-20 03:35:00,METAR KSVH 200335Z AUTO 33003KT 10SM CLR 10/M03 A3021 RMK AO2 T01021034,0,3.0,0,16090.0,0,0,0,
2026-04-20 03:15:00,METAR KSVH 200315Z AUTO 31004KT 10SM CLR 10/M03 A3021 RMK AO2 T00961026,0,4.0,0,16090.0,0,0,0,
2026-04-20 02:55:00,METAR KSVH 200255Z AUTO 32004KT 10SM CLR 10/M02 A3020 RMK AO2 T01001022,0,4.0,0,16090.0,0,0,0,
2026-04-20 02:35:00,METAR KSVH 200235Z AUTO 32004KT 10SM CLR 10/M01 A3020 RMK AO2 T00961015,0,4.0,0,16090.0,0,0,0,
2026-04-20 02:15:00,METAR KSVH 200215Z AUTO 36004KT 10SM CLR 11/M03 A3019 RMK AO2 T01121026,0,4.0,0,16090.0,0,0,0,
2026-04-20 01:50:00,METAR KSVH 200150Z AUTO 35004KT 10SM CLR 12/M04 A3018 RMK AO2 T01181041,0,4.0,0,16090.0,0,0,0,
2026-04-20 01:15:00,METAR KSVH 200115Z AUTO 33004KT 10SM CLR 13/M03 A3016 RMK AO2 T01281035,0,4.0,0,16090.0,0,0,0,
2026-04-20 00:55:00,METAR KSVH 200055Z AUTO 32004KT 10SM CLR 12/M02 A3015 RMK AO2 T01191019,0,4.0,0,16090.0,0,0,0,
2026-04-20 00:35:00,METAR KSVH 200035Z AUTO 30004KT 10SM CLR 13/M01 A3014 RMK AO2 T01251014,0,4.0,0,16090.0,0,0,0,
2026-04-20 00:15:00,METAR KSVH 200015Z AUTO 00000KT 10SM CLR 13/M02 A3013 RMK AO2 T01341024,0,0.0,0,16090.0,0,0,0,
2026-04-19 23:55:00,METAR KSVH 192355Z AUTO 27004KT 10SM CLR 14/M03 A3012 RMK AO2 T01421028 10179 20142,0,4.0,0,16090.0,0,0,0,
2026-04-19 23:35:00,METAR KSVH 192335Z AUTO 31004KT 10SM CLR 16/M04 A3010 RMK AO2 T01611043,0,4.0,0,16090.0,0,0,0,
2026-04-19 23:15:00,METAR KSVH 192315Z AUTO 30005KT 10SM CLR 16/M04 A3009 RMK AO2 T01641038,0,5.0,0,16090.0,0,0,0,
2026-04-19 22:55:00,METAR KSVH 192255Z AUTO 32004KT 10SM CLR 17/M05 A3009 RMK AO2 T01711047,0,4.0,0,16090.0,0,0,0,
2026-04-19 22:35:00,METAR KSVH 192235Z AUTO 33005KT 10SM CLR 17/M05 A3009 RMK AO2 T01711052,0,5.0,0,16090.0,0,0,0,
2026-04-19 22:15:00,METAR KSVH 192215Z AUTO 32006KT 290V350 10SM CLR 18/M05 A3009 RMK AO2 T01761055,0,6.0,0,16090.0,0,0,0,
2026-04-19 21:55:00,METAR KSVH 192155Z AUTO 33007KT 10SM CLR 17/M04 A3008 RMK AO2 T01711042,0,7.0,0,16090.0,0,0,0,
2026-04-19 21:35:00,METAR KSVH 192135Z AUTO 34010KT 10SM CLR 18/M04 A3007 RMK AO2 T01751041,0,10.0,0,16090.0,0,0,0,
2026-04-19 21:15:00,METAR KSVH 192115Z AUTO 32006KT 10SM CLR 17/M05 A3007 RMK AO2 T01711052,0,6.0,0,16090.0,0,0,0,
2026-04-19 20:55:00,METAR KSVH 192055Z AUTO 32011G16KT 10SM CLR 17/M05 A3007 RMK AO2 T01721051,0,11.0,1,16090.0,0,0,0,
2026-04-19 20:35:00,METAR KSVH 192035Z AUTO 32011G18KT 10SM CLR 18/M06 A3007 RMK AO2 T01771062,0,11.0,1,16090.0,0,0,0,
2026-04-19 20:15:00,METAR KSVH 192015Z AUTO 30003KT 10SM CLR 18/M04 A3006 RMK AO2 T01751039,0,3.0,0,16090.0,0,0,0,
2026-04-19 19:55:00,METAR KSVH 191955Z AUTO 30006KT 10SM CLR 18/M03 A3007 RMK AO2 T01791026,0,6.0,0,16090.0,0,0,0,
2026-04-19 19:35:00,METAR KSVH 191935Z AUTO 29008KT 10SM CLR 17/M03 A3007 RMK AO2 T01731026,0,8.0,0,16090.0,0,0,0,
2026-04-19 19:15:00,METAR KSVH 191915Z AUTO 34006G17KT 10SM CLR 17/M02 A3008 RMK AO2 T01741024,0,6.0,1,16090.0,0,0,0,
2026-04-19 18:55:00,METAR KSVH 191855Z AUTO 36007G15KT 320V020 10SM CLR 17/M03 A3009 RMK AO2 T01691031,0,7.0,1,16090.0,0,0,0,
2026-04-19 18:35:00,METAR KSVH 191835Z AUTO 34009KT 10SM CLR 17/M02 A3009 RMK AO2 T01681023,0,9.0,0,16090.0,0,0,0,
2026-04-19 18:15:00,METAR KSVH 191815Z AUTO 30008KT 10SM CLR 16/M02 A3009 RMK AO2 T01601018,0,8.0,0,16090.0,0,0,0,
2026-04-19 17:55:00,METAR KSVH 191755Z AUTO 35007G14KT 10SM CLR 16/M02 A3009 RMK AO2 T01611017 10161 20102,0,7.0,1,16090.0,0,0,0,
2026-04-19 17:35:00,METAR KSVH 191735Z AUTO 35011G17KT 10SM CLR 15/M02 A3009 RMK AO2 T01541019,0,11.0,1,16090.0,0,0,0,
2026-04-19 17:15:00,METAR KSVH 191715Z AUTO 33008KT 300V360 10SM CLR 15/M02 A3009 RMK AO2 T01541020,0,8.0,0,16090.0,0,0,0,
2026-04-19 16:55:00,METAR KSVH 191655Z AUTO 33012G18KT 10SM CLR 15/M02 A3008 RMK AO2 T01511019,0,12.0,1,16090.0,0,0,0,
2026-04-19 16:35:00,METAR KSVH 191635Z AUTO 32016G20KT 10SM CLR 15/M02 A3009 RMK AO2 T01451021,0,16.0,1,16090.0,0,0,0,
2026-04-19 16:15:00,METAR KSVH 191615Z AUTO 32008G19KT 290V350 10SM CLR 14/00 A3009 RMK AO2 T01431005,0,8.0,1,16090.0,0,0,0,
2026-04-19 15:55:00,METAR KSVH 191555Z AUTO 34012G17KT 10SM CLR 14/00 A3009 RMK AO2 T01370001,0,12.0,1,16090.0,0,0,0,
2026-04-19 15:35:00,METAR KSVH 191535Z AUTO 34010G19KT 10SM SCT110 13/00 A3009 RMK AO2 T01270003,0,10.0,1,16090.0,0,0,0,
2026-04-19 15:15:00,METAR KSVH 191515Z AUTO 33012G16KT 10SM SCT110 13/01 A3009 RMK AO2 T01250008,0,12.0,1,16090.0,0,0,0,
2026-04-19 14:55:00,METAR KSVH 191455Z AUTO 35010G18KT 10SM CLR 12/02 A3008 RMK AO2 T01240015,0,10.0,1,16090.0,0,0,0,
2026-04-19 14:35:00,METAR KSVH 191435Z AUTO 33009G22KT 10SM SCT065 12/02 A3007 RMK AO2 T01220018,0,9.0,1,16090.0,0,0,0,
2026-04-19 14:15:00,METAR KSVH 191415Z AUTO 34010G20KT 10SM BKN065 12/02 A3007 RMK AO2 T01220023,0,10.0,1,16090.0,0,0,0,
2026-04-19 13:55:00,METAR KSVH 191355Z AUTO 33012G20KT 10SM OVC065 12/03 A3007 RMK AO2 T01190025,0,12.0,1,16090.0,0,0,0,
2026-04-19 13:35:00,METAR KSVH 191335Z AUTO 34006KT 10SM SCT060 OVC065 11/03 A3006 RMK AO2 T01130034,0,6.0,0,16090.0,0,0,0,
2026-04-19 13:15:00,METAR KSVH 191315Z AUTO 32010G19KT 290V350 10SM BKN050 BKN065 OVC080 11/05 A3005 RMK AO2 T01120045,0,10.0,1,16090.0,0,0,0,
2026-04-19 12:55:00,METAR KSVH 191255Z AUTO 33008KT 10SM -RA SCT034 BKN049 OVC085 10/06 A3005 RMK AO2 T01020059,0,8.0,0,16090.0,0,0,0,-RA
2026-04-19 12:35:00,METAR KSVH 191235Z AUTO 33013G17KT 10SM -RA OVC049 11/05 A3004 RMK AO2 T01060053,0,13.0,1,16090.0,0,0,0,-RA
2026-04-19 12:15:00,METAR KSVH 191215Z AUTO 33012G20KT 290V350 10SM BKN042 OVC048 11/06 A3003 RMK AO2 T01090062,0,12.0,1,16090.0,0,0,0,
2026-04-19 11:55:00,METAR KSVH 191155Z AUTO 34012G18KT 10SM -RA BKN040 OVC090 11/08 A3000 RMK AO2 T01120076 10222 20112,0,12.0,1,16090.0,0,0,0,-RA
2026-04-19 11:35:00,METAR KSVH 191135Z AUTO 32022G28KT 10SM RA OVC080 13/07 A2999 RMK AO2 T01300070,0,22.0,1,16090.0,0,0,0,RA
2026-04-19 11:15:00,METAR KSVH 191115Z AUTO 33017G24KT 10SM OVC090 16/08 A2996 RMK AO2 T01600075,0,17.0,1,16090.0,0,0,0,
2026-04-19 10:55:00,METAR KSVH 191055Z AUTO 30022G27KT 10SM SCT070 OVC090 19/11 A2992 RMK AO2 T01850110,0,22.0,1,16090.0,0,0,0,
2026-04-19 10:15:00,METAR KSVH 191015Z AUTO 31004KT 10SM SCT060 OVC070 19/14 A2987 RMK AO2 T01860141,0,4.0,0,16090.0,0,0,0,
2026-04-19 09:55:00,METAR KSVH 190955Z AUTO 31003KT 10SM BKN070 18/14 A2986 RMK AO2 T01810141,0,3.0,0,16090.0,0,0,0,
2026-04-19 09:35:00,METAR KSVH 190935Z AUTO 33004KT 10SM CLR 18/15 A2985 RMK AO2 T01810145,0,4.0,0,16090.0,0,0,0,
2026-04-19 09:15:00,METAR KSVH 190915Z AUTO 00000KT 10SM CLR 17/14 A2984 RMK AO2 T01730142,0,0.0,0,16090.0,0,0,0,
2026-04-19 08:55:00,METAR KSVH 190855Z AUTO 28003KT 10SM CLR 18/15 A2983 RMK AO2 T01810146,0,3.0,0,16090.0,0,0,0,
2026-04-19 08:35:00,METAR KSVH 190835Z AUTO 29004KT 10SM CLR 18/15 A2983 RMK AO2 T01790146,0,4.0,0,16090.0,0,0,0,
2026-04-19 08:15:00,METAR KSVH 190815Z AUTO 00000KT 10SM CLR 19/15 A2983 RMK AO2 T01900147,0,0.0,0,16090.0,0,0,0,
2026-04-19 07:55:00,METAR KSVH 190755Z AUTO 00000KT 10SM CLR 19/15 A2983 RMK AO2 T01920147,0,0.0,0,16090.0,0,0,0,
2026-04-19 07:35:00,METAR KSVH 190735Z AUTO 00000KT 10SM CLR 19/15 A2983 RMK AO2 T01940146,0,0.0,0,16090.0,0,0,0,
2026-04-19 07:15:00,METAR KSVH 190715Z AUTO 00000KT 10SM CLR 20/15 A2984 RMK AO2 T02000145,0,0.0,0,16090.0,0,0,0,
2026-04-19 06:55:00,METAR KSVH 190655Z AUTO 28004KT 10SM CLR 21/14 A2986 RMK AO2 T02080142,0,4.0,0,16090.0,0,0,0,
2026-04-19 06:35:00,METAR KSVH 190635Z AUTO 29004KT 10SM CLR 21/14 A2986 RMK AO2 T02140141,0,4.0,0,16090.0,0,0,0,
2026-04-19 06:15:00,METAR KSVH 190615Z AUTO 24005KT 10SM CLR 22/14 A2987 RMK AO2 T02200140,0,5.0,0,16090.0,0,0,0,
2026-04-19 05:55:00,METAR KSVH 190555Z AUTO 26004KT 10SM CLR 22/14 A2987 RMK AO2 T02240140 10268 20222,0,4.0,0,16090.0,0,0,0,
2026-04-19 05:35:00,METAR KSVH 190535Z AUTO 23006KT 10SM CLR 23/14 A2987 RMK AO2 T02260140,0,6.0,0,16090.0,0,0,0,
2026-04-19 05:15:00,METAR KSVH 190515Z AUTO 23005KT 10SM CLR 23/14 A2988 RMK AO2 T02260139,0,5.0,0,16090.0,0,0,0,
2026-04-19 04:55:00,METAR KSVH 190455Z AUTO 24005KT 10SM CLR 23/14 A2988 RMK AO2 T02300140 403190112,0,5.0,0,16090.0,0,0,0,
2026-04-19 04:35:00,METAR KSVH 190435Z AUTO 22007KT 10SM CLR 23/14 A2988 RMK AO2 T02300140,0,7.0,0,16090.0,0,0,0,
2026-04-19 04:15:00,METAR KSVH 190415Z AUTO 21005KT 10SM CLR 23/14 A2988 RMK AO2 T02300137,0,5.0,0,16090.0,0,0,0,
2026-04-19 03:55:00,METAR KSVH 190355Z AUTO 22006KT 10SM CLR 23/14 A2989 RMK AO2 T02340135,0,6.0,0,16090.0,0,0,0,
2026-04-19 03:35:00,METAR KSVH 190335Z AUTO 23005KT 10SM CLR 24/14 A2990 RMK AO2 T02400135,0,5.0,0,16090.0,0,0,0,
2026-04-19 03:15:00,METAR KSVH 190315Z AUTO 22008KT 10SM CLR 24/14 A2989 RMK AO2 T02400135,0,8.0,0,16090.0,0,0,0,
2026-04-19 02:55:00,METAR KSVH 190255Z AUTO 21007KT 10SM CLR 24/14 A2989 RMK AO2 T02410136,0,7.0,0,16090.0,0,0,0,
2026-04-19 02:35:00,METAR KSVH 190235Z AUTO 21007KT 10SM CLR 24/14 A2989 RMK AO2 T02430136,0,7.0,0,16090.0,0,0,0,
2026-04-19 01:55:00,METAR KSVH 190155Z AUTO 21006KT 10SM CLR 24/14 A2988 RMK AO2 T02400138,0,6.0,0,16090.0,0,0,0,
2026-04-19 01:35:00,METAR KSVH 190135Z AUTO 20003KT 10SM CLR 24/14 A2988 RMK AO2 T02420135,0,3.0,0,16090.0,0,0,0,
2026-04-19 01:15:00,METAR KSVH 190115Z AUTO 21005KT 10SM CLR 25/14 A2988 RMK AO2 T02500135,0,5.0,0,16090.0,0,0,0,
2026-04-19 00:55:00,METAR KSVH 190055Z AUTO 21005KT 10SM CLR 25/13 A2987 RMK AO2 T02530131,0,5.0,0,16090.0,0,0,0,
2026-04-19 00:35:00,METAR KSVH 190035Z AUTO 19004KT 10SM CLR 26/13 A2987 RMK AO2 T02550130,0,4.0,0,16090.0,0,0,0,
2026-04-19 00:15:00,METAR KSVH 190015Z AUTO 20003KT 10SM CLR 26/13 A2987 RMK AO2 T02570130,0,3.0,0,16090.0,0,0,0,
2026-04-18 23:55:00,METAR KSVH 182355Z AUTO 19004KT 10SM CLR 27/13 A2987 RMK AO2 T02680129 10319 20268,0,4.0,0,16090.0,0,0,0,
2026-04-18 23:35:00,METAR KSVH 182335Z AUTO 20006KT 10SM CLR 28/12 A2987 RMK AO2 T02750124,0,6.0,0,16090.0,0,0,0,
2026-04-18 23:15:00,METAR KSVH 182315Z AUTO 20005KT 10SM CLR 29/12 A2988 RMK AO2 T02860122,0,5.0,0,16090.0,0,0,0,
2026-04-18 22:55:00,METAR KSVH 182255Z AUTO 21011KT 190V250 10SM CLR 29/12 A2988 RMK AO2 T02870120,0,11.0,0,16090.0,0,0,0,
2026-04-18 22:35:00,METAR KSVH 182235Z AUTO 21007KT 10SM CLR 29/12 A2988 RMK AO2 T02920115,0,7.0,0,16090.0,0,0,0,
2026-04-18 22:15:00,METAR KSVH 182215Z AUTO 20009KT 10SM CLR 30/12 A2988 RMK AO2 T03020120,0,9.0,0,16090.0,0,0,0,
2026-04-18 21:55:00,METAR KSVH 182155Z AUTO 21008KT 10SM CLR 30/12 A2988 RMK AO2 T03030116,0,8.0,0,16090.0,0,0,0,
2026-04-18 21:35:00,METAR KSVH 182135Z AUTO 21006G17KT 10SM CLR 30/11 A2988 RMK AO2 T03020112,0,6.0,1,16090.0,0,0,0,
2026-04-18 21:15:00,METAR KSVH 182115Z AUTO 21007KT 10SM CLR 31/12 A2988 RMK AO2 T03100119,0,7.0,0,16090.0,0,0,0,
2026-04-18 20:55:00,METAR KSVH 182055Z AUTO 22009G18KT 10SM CLR 30/11 A2990 RMK AO2 T03000107,0,9.0,1,16090.0,0,0,0,
2026-04-18 20:35:00,METAR KSVH 182035Z AUTO 24008KT 210V270 10SM CLR 32/11 A2991 RMK AO2 T03160108,0,8.0,0,16090.0,0,0,0,
2026-04-18 20:15:00,METAR KSVH 182015Z AUTO 22007G15KT 190V260 10SM CLR 32/10 A2991 RMK AO2 T03170101,0,7.0,1,16090.0,0,0,0,
2026-04-18 19:55:00,METAR KSVH 181955Z AUTO 22008G15KT 190V250 10SM CLR 32/10 A2992 RMK AO2 T03160100,0,8.0,1,16090.0,0,0,0,
2026-04-18 19:35:00,METAR KSVH 181935Z AUTO 21009KT 190V250 10SM CLR 31/10 A2992 RMK AO2 T03140098,0,9.0,0,16090.0,0,0,0,
2026-04-18 19:15:00,METAR KSVH 181915Z AUTO 22011KT 10SM CLR 32/10 A2994 RMK AO2 T03160100,0,11.0,0,16090.0,0,0,0,
2026-04-18 18:55:00,METAR KSVH 181855Z AUTO 25009G14KT 220V280 10SM CLR 31/09 A2994 RMK AO2 T03100092,0,9.0,1,16090.0,0,0,0,
2026-04-18 18:35:00,METAR KSVH 181835Z AUTO 21007KT 10SM CLR 31/10 A2994 RMK AO2 T03070100,0,7.0,0,16090.0,0,0,0,
2026-04-18 18:15:00,METAR KSVH 181815Z AUTO 21008KT 150V240 10SM CLR 31/11 A2995 RMK AO2 T03070105,0,8.0,0,16090.0,0,0,0,
2026-04-18 17:55:00,METAR KSVH 181755Z AUTO 19007G15KT 170V230 10SM SCT075 30/11 A2996 RMK AO2 T03000106 10302 20148,0,7.0,1,16090.0,0,0,0,
2026-04-18 17:35:00,METAR KSVH 181735Z AUTO 22010G18KT 200V260 10SM CLR 30/11 A2997 RMK AO2 T03000113,0,10.0,1,16090.0,0,0,0,
2026-04-18 17:15:00,METAR KSVH 181715Z AUTO 22010G15KT 200V260 10SM CLR 30/11 A2997 RMK AO2 T02970111,0,10.0,1,16090.0,0,0,0,
2026-04-18 16:55:00,METAR KSVH 181655Z AUTO 21010G15KT 180V240 10SM SCT070 30/11 A2998 RMK AO2 T02970110,0,10.0,1,16090.0,0,0,0,
2026-04-18 16:35:00,METAR KSVH 181635Z AUTO 18006KT 10SM CLR 29/12 A2998 RMK AO2 T02920120,0,6.0,0,16090.0,0,0,0,
2026-04-18 15:55:00,METAR KSVH 181555Z AUTO 20006G14KT 10SM CLR 28/13 A3000 RMK AO2 T02780126,0,6.0,1,16090.0,0,0,0,
2026-04-18 15:15:00,METAR KSVH 181515Z AUTO 20005KT 10SM CLR 27/13 A3001 RMK AO2 T02670133,0,5.0,0,16090.0,0,0,0,
2026-04-18 14:55:00,METAR KSVH 181455Z AUTO 18004KT 10SM CLR 26/13 A3001 RMK AO2 T02550130,0,4.0,0,16090.0,0,0,0,
2026-04-18 14:35:00,METAR KSVH 181435Z AUTO 00000KT 10SM CLR 25/13 A3001 RMK AO2 T02490126,0,0.0,0,16090.0,0,0,0,
2026-04-18 14:15:00,METAR KSVH 181415Z AUTO 20004KT 10SM CLR 24/13 A3000 RMK AO2 T02390127,0,4.0,0,16090.0,0,0,0,
2026-04-18 13:55:00,METAR KSVH 181355Z AUTO 00000KT 10SM CLR 23/13 A3000 RMK AO2 T02260132,0,0.0,0,16090.0,0,0,0,
2026-04-18 13:35:00,METAR KSVH 181335Z AUTO 00000KT 10SM CLR 21/13 A3000 RMK AO2 T02050126,0,0.0,0,16090.0,0,0,0,
2026-04-18 13:15:00,METAR KSVH 181315Z AUTO 00000KT 10SM CLR 19/12 A2999 RMK AO2 T01920122,0,0.0,0,16090.0,0,0,0,
2026-04-18 12:55:00,METAR KSVH 181255Z AUTO 00000KT 10SM CLR 18/12 A3000 RMK AO2 T01840123,0,0.0,0,16090.0,0,0,0,
2026-04-18 12:35:00,METAR KSVH 181235Z AUTO 00000KT 10SM CLR 17/11 A3000 RMK AO2 T01740114,0,0.0,0,16090.0,0,0,0,
2026-04-18 12:15:00,METAR KSVH 181215Z AUTO 00000KT 10SM CLR 16/12 A3000 RMK AO2 T01620115,0,0.0,0,16090.0,0,0,0,
2026-04-18 11:55:00,METAR KSVH 181155Z AUTO 00000KT 10SM CLR 14/12 A3000 RMK AO2 T01440118 10153 20112,0,0.0,0,16090.0,0,0,0,
2026-04-18 11:35:00,METAR KSVH 181135Z AUTO 00000KT 10SM CLR 12/11 A2999 RMK AO2 T01220111,0,0.0,0,16090.0,0,0,0,
2026-04-18 11:15:00,METAR KSVH 181115Z AUTO 00000KT 10SM CLR 12/11 A2999 RMK AO2 T01160105,0,0.0,0,16090.0,0,0,0,
2026-04-18 10:35:00,METAR KSVH 181035Z AUTO 00000KT 10SM CLR 11/11 A2998 RMK AO2 T01120106,0,0.0,0,16090.0,0,0,0,
2026-04-18 10:15:00,METAR KSVH 181015Z AUTO 00000KT 10SM CLR 12/11 A2998 RMK AO2 T01160110,0,0.0,0,16090.0,0,0,0,
2026-04-18 09:55:00,METAR KSVH 180955Z AUTO 00000KT 10SM CLR 12/11 A2998 RMK AO2 T01180110,0,0.0,0,16090.0,0,0,0,
2026-04-18 09:35:00,METAR KSVH 180935Z AUTO 00000KT 10SM CLR 12/11 A2997 RMK AO2 T01230112,0,0.0,0,16090.0,0,0,0,
2026-04-18 09:15:00,METAR KSVH 180915Z AUTO 00000KT 10SM CLR 13/12 A2998 RMK AO2 T01270116,0,0.0,0,16090.0,0,0,0,
2026-04-18 08:55:00,METAR KSVH 180855Z AUTO 00000KT 10SM CLR 13/12 A2998 RMK AO2 T01290115,0,0.0,0,16090.0,0,0,0,
2026-04-18 08:35:00,METAR KSVH 180835Z AUTO 00000KT 10SM CLR 13/12 A2998 RMK AO2 T01280115,0,0.0,0,16090.0,0,0,0,
2026-04-18 08:15:00,METAR KSVH 180815Z AUTO 00000KT 10SM CLR 13/12 A2998 RMK AO2 T01320115,0,0.0,0,16090.0,0,0,0,
2026-04-18 07:55:00,METAR KSVH 180755Z AUTO 00000KT 10SM CLR 13/12 A2998 RMK AO2 T01320117,0,0.0,0,16090.0,0,0,0,
2026-04-18 07:35:00,METAR KSVH 180735Z AUTO 00000KT 10SM CLR 14/12 A2999 RMK AO2 T01390118,0,0.0,0,16090.0,0,0,0,
2026-04-18 07:15:00,METAR KSVH 180715Z AUTO 00000KT 10SM CLR 14/12 A2999 RMK AO2 T01430118,0,0.0,0,16090.0,0,0,0,
2026-04-18 06:55:00,METAR KSVH 180655Z AUTO 00000KT 10SM CLR 14/12 A2999 RMK AO2 T01410121,0,0.0,0,16090.0,0,0,0,
2026-04-18 06:35:00,METAR KSVH 180635Z AUTO 00000KT 10SM CLR 15/12 A2999 RMK AO2 T01490122,0,0.0,0,16090.0,0,0,0,
2026-04-18 06:15:00,METAR KSVH 180615Z AUTO 00000KT 10SM CLR 15/12 A3000 RMK AO2 T01510123,0,0.0,0,16090.0,0,0,0,
2026-04-18 05:55:00,METAR KSVH 180555Z AUTO 00000KT 10SM CLR 15/13 A3000 RMK AO2 T01500128 10244 20144,0,0.0,0,16090.0,0,0,0,
2026-04-18 05:35:00,METAR KSVH 180535Z AUTO 00000KT 10SM CLR 15/12 A3000 RMK AO2 T01460123,0,0.0,0,16090.0,0,0,0,
2026-04-18 05:15:00,METAR KSVH 180515Z AUTO 00000KT 10SM CLR 15/13 A3000 RMK AO2 T01530127,0,0.0,0,16090.0,0,0,0,
2026-04-18 04:55:00,METAR KSVH 180455Z AUTO 00000KT 10SM CLR 15/12 A3000 RMK AO2 T01510124,0,0.0,0,16090.0,0,0,0,
2026-04-18 04:35:00,METAR KSVH 180435Z AUTO 00000KT 10SM CLR 16/12 A3000 RMK AO2 T01570123,0,0.0,0,16090.0,0,0,0,
2026-04-18 04:15:00,METAR KSVH 180415Z AUTO 00000KT 10SM CLR 16/13 A2999 RMK AO2 T01630125,0,0.0,0,16090.0,0,0,0,
2026-04-18 03:55:00,METAR KSVH 180355Z AUTO 00000KT 10SM CLR 17/12 A2999 RMK AO2 T01670124,0,0.0,0,16090.0,0,0,0,
2026-04-18 03:35:00,METAR KSVH 180335Z AUTO 00000KT 10SM CLR 17/13 A2999 RMK AO2 T01710125,0,0.0,0,16090.0,0,0,0,
2026-04-18 03:15:00,METAR KSVH 180315Z AUTO 00000KT 10SM CLR 18/12 A2999 RMK AO2 T01750120,0,0.0,0,16090.0,0,0,0,
2026-04-18 02:55:00,METAR KSVH 180255Z AUTO 00000KT 10SM CLR 18/13 A2999 RMK AO2 T01780125,0,0.0,0,16090.0,0,0,0,
2026-04-18 02:35:00,METAR KSVH 180235Z AUTO 00000KT 10SM CLR 18/12 A2999 RMK AO2 T01810121,0,0.0,0,16090.0,0,0,0,
2026-04-18 02:15:00,METAR KSVH 180215Z AUTO 00000KT 10SM CLR 19/12 A2998 RMK AO2 T01940123,0,0.0,0,16090.0,0,0,0,
2026-04-18 01:55:00,METAR KSVH 180155Z AUTO 00000KT 10SM CLR 19/12 A2998 RMK AO2 T01900124,0,0.0,0,16090.0,0,0,0,
2026-04-18 01:35:00,METAR KSVH 180135Z AUTO 00000KT 10SM CLR 20/12 A2997 RMK AO2 T01960122,0,0.0,0,16090.0,0,0,0,
2026-04-18 01:15:00,METAR KSVH 180115Z AUTO 00000KT 10SM CLR 19/12 A2997 RMK AO2 T01940115,0,0.0,0,16090.0,0,0,0,
2026-04-18 00:55:00,METAR KSVH 180055Z AUTO 00000KT 10SM CLR 21/12 A2997 RMK AO2 T02130117,0,0.0,0,16090.0,0,0,0,
2026-04-18 00:35:00,METAR KSVH 180035Z AUTO 00000KT 10SM CLR 22/12 A2997 RMK AO2 T02160116,0,0.0,0,16090.0,0,0,0,
2026-04-18 00:15:00,METAR KSVH 180015Z AUTO 00000KT 10SM CLR 23/11 A2997 RMK AO2 T02310112,0,0.0,0,16090.0,0,0,0,
2026-04-17 23:55:00,METAR KSVH 172355Z AUTO 20003KT 10SM CLR 24/11 A2997 RMK AO2 T02430110 10294 20243,0,3.0,0,16090.0,0,0,0,
2026-04-17 23:35:00,METAR KSVH 172335Z AUTO 20003KT 10SM CLR 26/11 A2997 RMK AO2 T02580105,0,3.0,0,16090.0,0,0,0,
2026-04-17 23:15:00,METAR KSVH 172315Z AUTO 21003KT 10SM CLR 27/10 A2997 RMK AO2 T02710104,0,3.0,0,16090.0,0,0,0,
2026-04-17 22:55:00,METAR KSVH 172255Z AUTO 24004KT 10SM CLR 28/10 A2997 RMK AO2 T02840098,0,4.0,0,16090.0,0,0,0,
2026-04-17 22:35:00,METAR KSVH 172235Z AUTO 21005KT 10SM CLR 29/10 A2997 RMK AO2 T02880098,0,5.0,0,16090.0,0,0,0,
2026-04-17 22:15:00,METAR KSVH 172215Z AUTO 20003KT 10SM CLR 29/10 A2997 RMK AO2 T02880096,0,3.0,0,16090.0,0,0,0,
2026-04-17 21:55:00,METAR KSVH 172155Z AUTO 00000KT 10SM CLR 29/09 A2997 RMK AO2 T02890089,0,0.0,0,16090.0,0,0,0,
2026-04-17 21:35:00,METAR KSVH 172135Z AUTO 26003KT 10SM CLR 29/10 A2998 RMK AO2 T02910096,0,3.0,0,16090.0,0,0,0,
2026-04-17 21:15:00,METAR KSVH 172115Z AUTO 23006KT 10SM CLR 29/10 A2998 RMK AO2 T02910103,0,6.0,0,16090.0,0,0,0,
2026-04-17 20:55:00,METAR KSVH 172055Z AUTO 26006G14KT 10SM CLR 29/11 A2999 RMK AO2 T02890107,0,6.0,1,16090.0,0,0,0,
2026-04-17 20:35:00,METAR KSVH 172035Z AUTO 00000KT 10SM SCT075 29/10 A2999 RMK AO2 T02880103,0,0.0,0,16090.0,0,0,0,
2026-04-17 20:15:00,METAR KSVH 172015Z AUTO 00000KT 10SM SCT090 28/10 A3000 RMK AO2 T02770102,0,0.0,0,16090.0,0,0,0,
2026-04-17 19:55:00,METAR KSVH 171955Z AUTO 29004KT 10SM SCT075 SCT100 28/10 A3000 RMK AO2 T02770097,0,4.0,0,16090.0,0,0,0,
2026-04-17 19:35:00,METAR KSVH 171935Z AUTO 24003KT 10SM SCT075 SCT090 28/10 A3000 RMK AO2 T02820102,0,3.0,0,16090.0,0,0,0,
2026-04-17 19:15:00,METAR KSVH 171915Z AUTO 32007KT 10SM CLR 28/10 A3001 RMK AO2 T02830101,0,7.0,0,16090.0,0,0,0,
2026-04-17 18:55:00,METAR KSVH 171855Z AUTO 24003KT 10SM CLR 27/10 A3002 RMK AO2 T02740104,0,3.0,0,16090.0,0,0,0,
2026-04-17 18:35:00,METAR KSVH 171835Z AUTO 24007G19KT 10SM SCT090 28/11 A3002 RMK AO2 T02820109,0,7.0,1,16090.0,0,0,0,
2026-04-17 18:15:00,METAR KSVH 171815Z AUTO 27009KT 10SM SCT070 SCT100 28/11 A3003 RMK AO2 T02810112,0,9.0,0,16090.0,0,0,0,
2026-04-17 17:55:00,METAR KSVH 171755Z AUTO 00000KT 27/10 A3003 RMK AO2 T02710097 10284 20171 PWINO,0,0.0,0,,0,0,0,
2026-04-17 17:35:00,METAR KSVH 171735Z AUTO 22005KT 28/10 A3003 RMK AO2 T02820100 PWINO,0,5.0,0,,0,0,0,
2026-04-17 17:15:00,METAR KSVH 171715Z AUTO 27006KT 10SM BKN070 28/10 A3004 RMK AO2 T02780097,0,6.0,0,16090.0,0,0,0,
2026-04-17 16:55:00,METAR KSVH 171655Z AUTO 00000KT 10SM 27/09 A3004 RMK AO2 T02690091,0,0.0,0,16090.0,0,0,0,
2026-04-17 16:30:00,METAR KSVH 171630Z AUTO 00000KT 10SM CLR 27/09 A3005 RMK AO2 T02710087,0,0.0,0,16090.0,0,0,0,
2026-04-17 16:15:00,METAR KSVH 171615Z AUTO 23003KT 10SM CLR 27/09 A3005 RMK AO2 T02680092,0,3.0,0,16090.0,0,0,0,
2026-04-17 15:55:00,METAR KSVH 171555Z AUTO 00000KT 10SM SCT075 27/11 A3005 RMK AO2 T02660110,0,0.0,0,16090.0,0,0,0,
2026-04-17 15:35:00,METAR KSVH 171535Z AUTO 26003KT 10SM SCT075 26/12 A3008 RMK AO2 T02600118,0,3.0,0,16090.0,0,0,0,
2026-04-17 15:15:00,METAR KSVH 171515Z AUTO 29005KT 10SM BKN075 25/12 A3008 RMK AO2 T02500118,0,5.0,0,16090.0,0,0,0,
2026-04-17 14:55:00,METAR KSVH 171455Z AUTO 30004KT 10SM CLR 25/12 A3008 RMK AO2 T02500117,0,4.0,0,16090.0,0,0,0,
2026-04-17 14:15:00,METAR KSVH 171415Z AUTO 31004KT 10SM SCT120 24/12 A3007 RMK AO2 T02350124,0,4.0,0,16090.0,0,0,0,
2026-04-17 13:55:00,METAR KSVH 171355Z AUTO 29005KT 10SM SCT120 23/14 A3006 RMK AO2 T02310137,0,5.0,0,16090.0,0,0,0,
2026-04-17 13:35:00,METAR KSVH 171335Z AUTO 27003KT 10SM SCT120 21/15 A3005 RMK AO2 T02130150,0,3.0,0,16090.0,0,0,0,
2026-04-17 13:15:00,METAR KSVH 171315Z AUTO 00000KT 10SM BKN120 20/15 A3005 RMK AO2 T02000146,0,0.0,0,16090.0,0,0,0,
2026-04-17 12:55:00,METAR KSVH 171255Z AUTO 00000KT 10SM SCT120 20/14 A3005 RMK AO2 T02010137,0,0.0,0,16090.0,0,0,0,
2026-04-17 12:35:00,METAR KSVH 171235Z AUTO 00000KT 10SM CLR 20/14 A3004 RMK AO2 T02000142,0,0.0,0,16090.0,0,0,0,
2026-04-17 12:15:00,METAR KSVH 171215Z AUTO 27003KT 10SM CLR 19/14 A3004 RMK AO2 T01900136,0,3.0,0,16090.0,0,0,0,
2026-04-17 11:55:00,METAR KSVH 171155Z AUTO 00000KT 10SM CLR 17/14 A3003 RMK AO2 6//// 7//// T01680137,0,0.0,0,16090.0,0,0,0,
2026-04-17 11:35:00,METAR KSVH 171135Z AUTO 24003KT 10SM CLR 15/13 A3003 RMK AO2 T01450126,0,3.0,0,16090.0,0,0,0,
2026-04-17 11:15:00,METAR KSVH 171115Z AUTO 00000KT 10SM CLR 13/12 A3001 RMK AO2 T01330120,0,0.0,0,16090.0,0,0,0,
2026-04-17 10:55:00,METAR KSVH 171055Z AUTO 00000KT 10SM CLR 13/12 A3000 RMK AO2 T01340119,0,0.0,0,16090.0,0,0,0,
2026-04-17 10:35:00,METAR KSVH 171035Z AUTO 00000KT 10SM CLR 15/12 A3000 RMK AO2 T01450122,0,0.0,0,16090.0,0,0,0,
2026-04-17 10:15:00,METAR KSVH 171015Z AUTO 00000KT 10SM CLR 15/12 A3000 RMK AO2 T01530122,0,0.0,0,16090.0,0,0,0,
2026-04-17 09:55:00,METAR KSVH 170955Z AUTO 26003KT 10SM CLR 15/12 A3000 RMK AO2 T01520122,0,3.0,0,16090.0,0,0,0,
2026-04-17 09:35:00,METAR KSVH 170935Z AUTO 27005KT 10SM CLR 15/13 A2999 RMK AO2 T01510125,0,5.0,0,16090.0,0,0,0,
2026-04-17 09:15:00,METAR KSVH 170915Z AUTO 27004KT 10SM CLR 16/13 A2998 RMK AO2 T01610125,0,4.0,0,16090.0,0,0,0,
2026-04-17 08:55:00,METAR KSVH 170855Z AUTO 00000KT 10SM SCT110 16/13 A2998 RMK AO2 6//// T01640131,0,0.0,0,16090.0,0,0,0,
2026-04-17 08:35:00,METAR KSVH 170835Z AUTO 00000KT 10SM BKN110 17/13 A2998 RMK AO2 T01740126,0,0.0,0,16090.0,0,0,0,
2026-04-17 08:15:00,METAR KSVH 170815Z AUTO 00000KT 10SM 18/12 A2997 RMK AO2 T01800124,0,0.0,0,16090.0,0,0,0,
2026-04-17 07:55:00,METAR KSVH 170755Z AUTO 00000KT 17/12 A2997 RMK AO2 T01740123 PWINO,0,0.0,0,,0,0,0,
2026-04-17 07:35:00,METAR KSVH 170735Z AUTO 00000KT 17/13 A2997 RMK AO2 T01710128 PWINO,0,0.0,0,,0,0,0,
2026-04-17 07:15:00,METAR KSVH 170715Z AUTO 17/13 RMK AO2 T01710126 PWINO,0,,0,,0,0,0,
2026-04-17 06:50:00,METAR KSVH 170650Z AUTO 00000KT 17/12 A2998 RMK AO2 T01740119 PWINO,0,0.0,0,,0,0,0,
2026-04-17 06:35:00,METAR KSVH 170635Z AUTO 00000KT 17/12 A2998 RMK AO2 T01720120 PWINO,0,0.0,0,,0,0,0,
2026-04-17 05:35:00,METAR KSVH 170535Z AUTO 00000KT 18/12 A2999 RMK AO2 T01840118 PWINO,0,0.0,0,,0,0,0,
2026-04-17 05:10:00,METAR KSVH 170510Z AUTO 32004KT 22/11 A2999 RMK AO2 T02150107 PWINO,0,4.0,0,,0,0,0,
2026-04-17 04:50:00,METAR KSVH 170450Z AUTO 30003KT A3000 RMK AO2 PWINO,0,3.0,0,,0,0,0,
2026-04-17 04:10:00,METAR KSVH 170410Z AUTO 25004KT 10SM 21/11 A2999 RMK AO2 T02100105,0,4.0,0,16090.0,0,0,0,
2026-04-17 03:35:00,METAR KSVH 170335Z AUTO 00000KT 10SM 21/10 A2998 RMK AO2 T02100103,0,0.0,0,16090.0,0,0,0,
2026-04-17 03:15:00,METAR KSVH 170315Z AUTO 00000KT 10SM 21/10 A2998 RMK AO2 T02070103,0,0.0,0,16090.0,0,0,0,
2026-04-17 02:50:00,METAR KSVH 170250Z AUTO 00000KT 10SM CLR 22/09 A2997 RMK AO2 T02230093,0,0.0,0,16090.0,0,0,0,
2026-04-17 02:35:00,METAR KSVH 170235Z AUTO 21004KT 10SM 23/10 A2997 RMK AO2 T02300095,0,4.0,0,16090.0,0,0,0,
2026-04-17 02:15:00,METAR KSVH 170215Z AUTO 20003KT 23/10 A2996 RMK AO2 T02310097,0,3.0,0,,0,0,0,
2026-04-17 01:55:00,METAR KSVH 170155Z AUTO 20004KT 10SM CLR 24/10 A2995 RMK AO2 T02400098,0,4.0,0,16090.0,0,0,0,
2026-04-17 01:35:00,METAR KSVH 170135Z AUTO 21005KT 10SM CLR 25/10 A2995 RMK AO2 T02450100,0,5.0,0,16090.0,0,0,0,
2026-04-17 01:15:00,METAR KSVH 170115Z AUTO 21006KT 25/11 A2994 RMK AO2 T02500105,0,6.0,0,,0,0,0,
2026-04-17 00:55:00,METAR KSVH 170055Z AUTO 21006KT 10SM CLR 25/11 A2994 RMK AO2 T02520107,0,6.0,0,16090.0,0,0,0,
2026-04-17 00:35:00,METAR KSVH 170035Z AUTO 21007KT 10SM CLR 26/11 A2993 RMK AO2 T02550111,0,7.0,0,16090.0,0,0,0,
2026-04-17 00:15:00,METAR KSVH 170015Z AUTO 20006KT 10SM CLR 26/11 A2993 RMK AO2 T02590111,0,6.0,0,16090.0,0,0,0,
2026-04-16 23:55:00,METAR KSVH 162355Z AUTO 21006KT 10SM CLR 27/12 A2992 RMK AO2 T02680115 10307 20268,0,6.0,0,16090.0,0,0,0,
2026-04-16 23:35:00,METAR KSVH 162335Z AUTO 20006KT 10SM CLR 27/11 A2992 RMK AO2 T02740110,0,6.0,0,16090.0,0,0,0,
2026-04-16 23:15:00,METAR KSVH 162315Z AUTO 22007KT 10SM CLR 28/11 A2992 RMK AO2 T02820105,0,7.0,0,16090.0,0,0,0,
2026-04-16 22:55:00,METAR KSVH 162255Z AUTO 20009G14KT 170V230 10SM CLR 29/11 A2992 RMK AO2 T02880106,0,9.0,1,16090.0,0,0,0,
2026-04-16 22:35:00,METAR KSVH 162235Z AUTO 21005KT 10SM CLR 30/11 A2993 RMK AO2 T02950107,0,5.0,0,16090.0,0,0,0,
2026-04-16 22:15:00,METAR KSVH 162215Z AUTO 20006KT 10SM CLR 30/10 A2993 RMK AO2 T02980102,0,6.0,0,16090.0,0,0,0,
2026-04-16 21:55:00,METAR KSVH 162155Z AUTO 21010G16KT 180V240 10SM CLR 30/10 A2994 RMK AO2 T03010097,0,10.0,1,16090.0,0,0,0,
2026-04-16 21:35:00,METAR KSVH 162135Z AUTO 20006G09KT 10SM CLR 30/09 A2994 RMK AO2 T03000093,0,6.0,1,16090.0,0,0,0,
2026-04-16 21:15:00,METAR KSVH 162115Z AUTO 21010KT 180V240 10SM CLR 30/09 A2994 RMK AO2 T03040094,0,10.0,0,16090.0,0,0,0,
2026-04-16 20:55:00,METAR KSVH 162055Z AUTO 20007G14KT 10SM CLR 31/09 A2994 RMK AO2 T03060090,0,7.0,1,16090.0,0,0,0,
2026-04-16 20:35:00,METAR KSVH 162035Z AUTO 22009G15KT 10SM CLR 30/08 A2995 RMK AO2 T03040081,0,9.0,1,16090.0,0,0,0,
2026-04-16 20:15:00,METAR KSVH 162015Z AUTO 22007G15KT 10SM CLR 31/08 A2996 RMK AO2 T03050082,0,7.0,1,16090.0,0,0,0,
2026-04-16 19:55:00,METAR KSVH 161955Z AUTO 22008KT 190V250 10SM CLR 30/08 A2997 RMK AO2 T03020076,0,8.0,0,16090.0,0,0,0,
2026-04-16 19:35:00,METAR KSVH 161935Z AUTO 23010G14KT 10SM CLR 31/08 A2998 RMK AO2 T03050083,0,10.0,1,16090.0,0,0,0,
2026-04-16 19:15:00,METAR KSVH 161915Z AUTO 20009G16KT 170V230 10SM CLR 30/09 A2999 RMK AO2 T03000090,0,9.0,1,16090.0,0,0,0,
2026-04-16 18:55:00,METAR KSVH 161855Z AUTO 23007KT 30/10 A3000 RMK AO2 T03000097 PWINO,0,7.0,0,,0,0,0,
2026-04-16 18:35:00,METAR KSVH 161835Z AUTO 24007KT 10SM 30/11 A3000 RMK AO2 T03000109,0,7.0,0,16090.0,0,0,0,
2026-04-16 17:50:00,METAR KSVH 161750Z AUTO 22007KT 10SM 30/12 A3003 RMK AO2 6//// T02990121,0,7.0,0,16090.0,0,0,0,
2026-04-16 17:30:00,METAR KSVH 161730Z AUTO 22008KT 180V240 10SM CLR 29/12 A3004 RMK AO2 T02910115,0,8.0,0,16090.0,0,0,0,
2026-04-16 17:15:00,METAR KSVH 161715Z AUTO 26007G17KT 10SM 29/11 A3005 RMK AO2 T02890111,0,7.0,1,16090.0,0,0,0,
2026-04-16 16:35:00,METAR KSVH 161635Z AUTO 24005KT 10SM CLR 28/11 A3006 RMK AO2 T02790114,0,5.0,0,16090.0,0,0,0,
2026-04-16 16:15:00,METAR KSVH 161615Z AUTO 00000KT 10SM CLR 27/12 A3006 RMK AO2 T02730120,0,0.0,0,16090.0,0,0,0,
2026-04-16 15:55:00,METAR KSVH 161555Z AUTO 27005KT 10SM CLR 27/12 A3007 RMK AO2 T02690120,0,5.0,0,16090.0,0,0,0,
2026-04-16 15:35:00,METAR KSVH 161535Z AUTO 22006KT 10SM CLR 27/13 A3008 RMK AO2 T02680133,0,6.0,0,16090.0,0,0,0,
2026-04-16 14:55:00,METAR KSVH 161455Z AUTO 22003KT 10SM CLR 25/14 A3008 RMK AO2 T02510135,0,3.0,0,16090.0,0,0,0,
2026-04-16 14:35:00,METAR KSVH 161435Z AUTO 00000KT 10SM CLR 24/13 A3009 RMK AO2 T02430133,0,0.0,0,16090.0,0,0,0,
2026-04-16 14:15:00,METAR KSVH 161415Z AUTO 00000KT 10SM CLR 24/14 A3009 RMK AO2 T02350136,0,0.0,0,16090.0,0,0,0,
2026-04-16 13:55:00,METAR KSVH 161355Z AUTO 25003KT 10SM CLR 23/14 A3009 RMK AO2 T02260137,0,3.0,0,16090.0,0,0,0,
2026-04-16 13:35:00,METAR KSVH 161335Z AUTO 23004KT 10SM CLR 22/14 A3009 RMK AO2 T02160136,0,4.0,0,16090.0,0,0,0,
2026-04-16 13:15:00,METAR KSVH 161315Z AUTO 23004KT 10SM CLR 20/14 A3009 RMK AO2 T02030136,0,4.0,0,16090.0,0,0,0,
2026-04-16 12:55:00,METAR KSVH 161255Z AUTO 23004KT 10SM CLR 20/13 A3008 RMK AO2 T01970134,0,4.0,0,16090.0,0,0,0,
2026-04-16 12:35:00,METAR KSVH 161235Z AUTO 23004KT 10SM CLR 19/13 A3008 RMK AO2 T01930130,0,4.0,0,16090.0,0,0,0,
2026-04-16 12:15:00,METAR KSVH 161215Z AUTO 23003KT 10SM CLR 19/13 A3008 RMK AO2 T01900131,0,3.0,0,16090.0,0,0,0,
2026-04-16 11:55:00,METAR KSVH 161155Z AUTO 21004KT 10SM CLR 17/13 A3008 RMK AO2 T01730127 10195 20149,0,4.0,0,16090.0,0,0,0,
2026-04-16 11:35:00,METAR KSVH 161135Z AUTO 22005KT 10SM CLR 16/13 A3008 RMK AO2 T01610127,0,5.0,0,16090.0,0,0,0,
2026-04-16 11:15:00,METAR KSVH 161115Z AUTO 21004KT 10SM CLR 16/13 A3007 RMK AO2 T01590127,0,4.0,0,16090.0,0,0,0,
2026-04-16 10:55:00,METAR KSVH 161055Z AUTO 22005KT 10SM CLR 15/13 A3006 RMK AO2 T01490126,0,5.0,0,16090.0,0,0,0,
2026-04-16 10:35:00,METAR KSVH 161035Z AUTO 23003KT 10SM CLR 15/13 A3005 RMK AO2 T01540125,0,3.0,0,16090.0,0,0,0,
2026-04-16 10:15:00,METAR KSVH 161015Z AUTO 21004KT 10SM CLR 15/13 A3004 RMK AO2 T01530125,0,4.0,0,16090.0,0,0,0,
2026-04-16 09:55:00,METAR KSVH 160955Z AUTO 22004KT 10SM CLR 16/13 A3004 RMK AO2 T01630125,0,4.0,0,16090.0,0,0,0,
2026-04-16 09:35:00,METAR KSVH 160935Z AUTO 22004KT 10SM CLR 16/13 A3003 RMK AO2 T01550126,0,4.0,0,16090.0,0,0,0,
2026-04-16 09:15:00,METAR KSVH 160915Z AUTO 22003KT 10SM CLR 16/12 A3003 RMK AO2 T01600124,0,3.0,0,16090.0,0,0,0,
2026-04-16 08:55:00,METAR KSVH 160855Z AUTO 00000KT 10SM CLR 17/12 A3003 RMK AO2 T01710124,0,0.0,0,16090.0,0,0,0,
2026-04-16 08:35:00,METAR KSVH 160835Z AUTO 22003KT 10SM CLR 16/12 A3003 RMK AO2 T01620122,0,3.0,0,16090.0,0,0,0,
2026-04-16 08:15:00,METAR KSVH 160815Z AUTO 00000KT 10SM CLR 17/13 A3002 RMK AO2 T01710125,0,0.0,0,16090.0,0,0,0,
2026-04-16 07:55:00,METAR KSVH 160755Z AUTO 00000KT 10SM CLR 17/12 A3002 RMK AO2 T01660124,0,0.0,0,16090.0,0,0,0,
2026-04-16 07:35:00,METAR KSVH 160735Z AUTO 00000KT 10SM CLR 17/13 A3002 RMK AO2 T01720125,0,0.0,0,16090.0,0,0,0,
2026-04-16 07:15:00,METAR KSVH 160715Z AUTO 00000KT 10SM CLR 18/12 A3003 RMK AO2 T01750120,0,0.0,0,16090.0,0,0,0,
2026-04-16 06:55:00,METAR KSVH 160655Z AUTO 00000KT 10SM CLR 19/12 A3003 RMK AO2 T01880120,0,0.0,0,16090.0,0,0,0,
2026-04-16 06:15:00,METAR KSVH 160615Z AUTO 20004KT 10SM CLR 19/12 A3003 RMK AO2 T01900121,0,4.0,0,16090.0,0,0,0,
2026-04-16 05:55:00,METAR KSVH 160555Z AUTO 19004KT 10SM CLR 18/12 A3004 RMK AO2 T01800124 10258 20180,0,4.0,0,16090.0,0,0,0,
2026-04-16 05:35:00,METAR KSVH 160535Z AUTO 20003KT 10SM CLR 18/12 A3004 RMK AO2 T01830118,0,3.0,0,16090.0,0,0,0,
2026-04-16 05:15:00,METAR KSVH 160515Z AUTO 21003KT 10SM CLR 19/12 A3005 RMK AO2 T01880120,0,3.0,0,16090.0,0,0,0,
2026-04-16 04:55:00,METAR KSVH 160455Z AUTO 20003KT 10SM CLR 20/12 A3005 RMK AO2 T01970117,0,3.0,0,16090.0,0,0,0,
2026-04-16 04:35:00,METAR KSVH 160435Z AUTO 20003KT 10SM CLR 20/11 A3005 RMK AO2 T02000113,0,3.0,0,16090.0,0,0,0,
2026-04-16 04:15:00,METAR KSVH 160415Z AUTO 22003KT 22/11 A3006 RMK AO2 T02160110 PWINO,0,3.0,0,,0,0,0,
2026-04-16 03:55:00,METAR KSVH 160355Z AUTO 20003KT 10SM CLR 22/11 A3006 RMK AO2 T02150111,0,3.0,0,16090.0,0,0,0,
2026-04-16 03:35:00,METAR KSVH 160335Z AUTO 20003KT 10SM CLR 22/11 A3007 RMK AO2 T02210107,0,3.0,0,16090.0,0,0,0,
2026-04-16 03:15:00,METAR KSVH 160315Z AUTO 22004KT 10SM CLR 23/11 A3007 RMK AO2 T02300107,0,4.0,0,16090.0,0,0,0,
2026-04-16 02:55:00,METAR KSVH 160255Z AUTO 21003KT 10SM CLR 24/11 A3007 RMK AO2 T02380105,0,3.0,0,16090.0,0,0,0,
2026-04-16 02:35:00,METAR KSVH 160235Z AUTO 22006KT 10SM CLR 24/10 A3007 RMK AO2 T02410101,0,6.0,0,16090.0,0,0,0,
2026-04-16 02:15:00,METAR KSVH 160215Z AUTO 23007KT 10SM CLR 25/10 A3007 RMK AO2 T02500100,0,7.0,0,16090.0,0,0,0,
2026-04-16 01:55:00,METAR KSVH 160155Z AUTO 22006KT 10SM CLR 25/10 A3007 RMK AO2 T02500096,0,6.0,0,16090.0,0,0,0,
2026-04-16 01:35:00,METAR KSVH 160135Z AUTO 22006KT 10SM CLR 25/09 A3006 RMK AO2 T02500089,0,6.0,0,16090.0,0,0,0,
2026-04-16 01:15:00,METAR KSVH 160115Z AUTO 21005KT 10SM CLR 25/08 A3005 RMK AO2 T02500084,0,5.0,0,16090.0,0,0,0,
2026-04-16 00:55:00,METAR KSVH 160055Z AUTO 22008KT 10SM CLR 26/08 A3005 RMK AO2 T02580080,0,8.0,0,16090.0,0,0,0,
2026-04-16 00:35:00,METAR KSVH 160035Z AUTO 21008KT 10SM CLR 26/08 A3005 RMK AO2 T02580080,0,8.0,0,16090.0,0,0,0,
2026-04-16 00:15:00,METAR KSVH 160015Z AUTO 21006KT 10SM CLR 26/08 A3004 RMK AO2 T02570080,0,6.0,0,16090.0,0,0,0,
2026-04-15 23:55:00,METAR KSVH 152355Z AUTO 20005KT 10SM CLR 26/08 A3004 RMK AO2 T02580082 10316 20258,0,5.0,0,16090.0,0,0,0,
2026-04-15 23:35:00,METAR KSVH 152335Z AUTO 18004KT 10SM CLR 27/08 A3004 RMK AO2 T02690077,0,4.0,0,16090.0,0,0,0,
2026-04-15 22:55:00,METAR KSVH 152255Z AUTO 18004KT 10SM CLR 29/07 A3004 RMK AO2 T02930073,0,4.0,0,16090.0,0,0,0,
2026-04-15 22:35:00,METAR KSVH 152235Z AUTO 18005KT 10SM CLR 30/07 A3004 RMK AO2 T03030070,0,5.0,0,16090.0,0,0,0,
2026-04-15 22:15:00,METAR KSVH 152215Z AUTO 19004KT 10SM CLR 31/06 A3004 RMK AO2 T03100062,0,4.0,0,16090.0,0,0,0,
2026-04-15 21:55:00,METAR KSVH 152155Z AUTO 21004KT 10SM CLR 31/05 A3004 RMK AO2 T03080047,0,4.0,0,16090.0,0,0,0,
2026-04-15 21:35:00,METAR KSVH 152135Z AUTO 20006KT 10SM CLR 31/03 A3004 RMK AO2 T03070031,0,6.0,0,16090.0,0,0,0,
2026-04-15 21:15:00,METAR KSVH 152115Z AUTO 22008KT 200V260 10SM CLR 32/04 A3005 RMK AO2 T03150040,0,8.0,0,16090.0,0,0,0,
2026-04-15 20:55:00,METAR KSVH 152055Z AUTO 17003KT 10SM CLR 32/06 A3005 RMK AO2 T03150064,0,3.0,0,16090.0,0,0,0,
2026-04-15 20:35:00,METAR KSVH 152035Z AUTO 17006KT 10SM CLR 31/08 A3005 RMK AO2 T03100076,0,6.0,0,16090.0,0,0,0,
2026-04-15 20:15:00,METAR KSVH 152015Z AUTO 19005KT 10SM CLR 31/08 A3005 RMK AO2 T03060080,0,5.0,0,16090.0,0,0,0,
2026-04-15 19:55:00,METAR KSVH 151955Z AUTO 16008KT 10SM CLR 31/09 A3005 RMK AO2 T03080089,0,8.0,0,16090.0,0,0,0,
2026-04-15 19:35:00,METAR KSVH 151935Z AUTO 17007KT 140V200 10SM CLR 30/09 A3006 RMK AO2 T03010091,0,7.0,0,16090.0,0,0,0,
2026-04-15 19:15:00,METAR KSVH 151915Z AUTO 15006KT 10SM CLR 30/10 A3006 RMK AO2 T03000098,0,6.0,0,16090.0,0,0,0,
2026-04-15 18:55:00,METAR KSVH 151855Z AUTO 15003KT 10SM CLR 30/10 A3007 RMK AO2 T02980098,0,3.0,0,16090.0,0,0,0,
2026-04-15 18:35:00,METAR KSVH 151835Z AUTO 16004KT 10SM CLR 30/08 A3008 RMK AO2 T02980082,0,4.0,0,16090.0,0,0,0,
2026-04-15 18:15:00,METAR KSVH 151815Z AUTO 14007KT 10SM 30/10 A3008 RMK AO2 T02950095,0,7.0,0,16090.0,0,0,0,
2026-04-15 17:50:00,METAR KSVH 151750Z AUTO 16007KT 10SM CLR 29/11 A3009 RMK AO2 T02930105 10296 20171,0,7.0,0,16090.0,0,0,0,
2026-04-15 17:35:00,METAR KSVH 151735Z AUTO 14006KT 10SM CLR 29/11 A3009 RMK AO2 T02920106,0,6.0,0,16090.0,0,0,0,
2026-04-15 17:15:00,METAR KSVH 151715Z AUTO 16006KT 10SM CLR 29/10 A3010 RMK AO2 T02880099,0,6.0,0,16090.0,0,0,0,
2026-04-15 16:55:00,METAR KSVH 151655Z AUTO 25003KT 10SM CLR 29/10 A3010 RMK AO2 T02850099,0,3.0,0,16090.0,0,0,0,
2026-04-15 16:35:00,METAR KSVH 151635Z AUTO 21004KT 10SM 29/09 A3010 RMK AO2 T02860088,0,4.0,0,16090.0,0,0,0,
2026-04-15 16:10:00,METAR KSVH 151610Z AUTO 18004KT 10SM CLR 28/10 A3011 RMK AO2 T02790097,0,4.0,0,16090.0,0,0,0,
2026-04-15 15:55:00,METAR KSVH 151555Z AUTO 00000KT 10SM CLR 28/11 A3012 RMK AO2 T02780110,0,0.0,0,16090.0,0,0,0,
2026-04-15 15:35:00,METAR KSVH 151535Z AUTO 22003KT 10SM CLR 27/10 A3012 RMK AO2 T02730099,0,3.0,0,16090.0,0,0,0,
2026-04-15 15:15:00,METAR KSVH 151515Z AUTO 00000KT 10SM CLR 27/11 A3012 RMK AO2 T02710107,0,0.0,0,16090.0,0,0,0,
2026-04-15 14:55:00,METAR KSVH 151455Z AUTO 14004KT 10SM CLR 26/12 A3013 RMK AO2 T02600117,0,4.0,0,16090.0,0,0,0,
2026-04-15 14:35:00,METAR KSVH 151435Z AUTO 18003KT 10SM CLR 26/12 A3013 RMK AO2 T02550122,0,3.0,0,16090.0,0,0,0,
2026-04-15 14:15:00,METAR KSVH 151415Z AUTO 00000KT 10SM CLR 25/13 A3013 RMK AO2 T02500131,0,0.0,0,16090.0,0,0,0,
2026-04-15 13:55:00,METAR KSVH 151355Z AUTO 00000KT 10SM CLR 24/14 A3013 RMK AO2 T02400139,0,0.0,0,16090.0,0,0,0,
2026-04-15 13:35:00,METAR KSVH 151335Z AUTO 00000KT 10SM CLR 22/14 A3013 RMK AO2 T02240142,0,0.0,0,16090.0,0,0,0,
2026-04-15 13:15:00,METAR KSVH 151315Z AUTO 00000KT 10SM CLR 21/14 A3013 RMK AO2 T02080140,0,0.0,0,16090.0,0,0,0,
2026-04-15 12:55:00,METAR KSVH 151255Z AUTO 00000KT 10SM CLR 20/14 A3013 RMK AO2 T01970141,0,0.0,0,16090.0,0,0,0,
2026-04-15 12:35:00,METAR KSVH 151235Z AUTO 00000KT 10SM CLR 18/13 A3013 RMK AO2 T01840132,0,0.0,0,16090.0,0,0,0,
2026-04-15 12:15:00,METAR KSVH 151215Z AUTO 00000KT 10SM CLR 18/13 A3013 RMK AO2 T01800131,0,0.0,0,16090.0,0,0,0,
2026-04-15 11:55:00,METAR KSVH 151155Z AUTO 00000KT 10SM CLR 17/13 A3012 RMK AO2 T01680128 10190 20132,0,0.0,0,16090.0,0,0,0,
2026-04-15 11:35:00,METAR KSVH 151135Z AUTO 00000KT 10SM CLR 15/12 A3012 RMK AO2 T01470123,0,0.0,0,16090.0,0,0,0,
2026-04-15 11:15:00,METAR KSVH 151115Z AUTO 00000KT 10SM CLR 13/12 A3011 RMK AO2 T01330117,0,0.0,0,16090.0,0,0,0,
2026-04-15 10:55:00,METAR KSVH 151055Z AUTO 00000KT 10SM CLR 14/12 A3010 RMK AO2 T01390115,0,0.0,0,16090.0,0,0,0,
2026-04-15 10:35:00,METAR KSVH 151035Z AUTO 00000KT 10SM CLR 14/12 A3009 RMK AO2 T01420117,0,0.0,0,16090.0,0,0,0,
2026-04-15 10:15:00,METAR KSVH 151015Z AUTO 00000KT 10SM CLR 15/12 A3010 RMK AO2 T01460115,0,0.0,0,16090.0,0,0,0,
2026-04-15 09:55:00,METAR KSVH 150955Z AUTO 00000KT 10SM CLR 15/12 A3009 RMK AO2 T01500116,0,0.0,0,16090.0,0,0,0,
2026-04-15 09:35:00,METAR KSVH 150935Z AUTO 21004KT 10SM CLR 14/12 A3008 RMK AO2 T01420117,0,4.0,0,16090.0,0,0,0,
2026-04-15 09:15:00,METAR KSVH 150915Z AUTO 22003KT 16/12 A3007 RMK AO2 T01570118 PWINO,0,3.0,0,,0,0,0,
2026-04-15 08:55:00,METAR KSVH 150855Z AUTO 22003KT 10SM CLR 15/12 A3007 RMK AO2 T01450120,0,3.0,0,16090.0,0,0,0,
2026-04-15 08:35:00,METAR KSVH 150835Z AUTO 00000KT 10SM CLR 15/12 A3007 RMK AO2 T01510116,0,0.0,0,16090.0,0,0,0,
2026-04-15 08:15:00,METAR KSVH 150815Z AUTO 24004KT 10SM CLR 16/12 A3007 RMK AO2 T01560117,0,4.0,0,16090.0,0,0,0,
2026-04-15 07:55:00,METAR KSVH 150755Z AUTO 25004KT 10SM CLR 15/12 A3006 RMK AO2 T01520119,0,4.0,0,16090.0,0,0,0,
2026-04-15 07:35:00,METAR KSVH 150735Z AUTO 00000KT 10SM CLR 16/12 A3006 RMK AO2 T01610116,0,0.0,0,16090.0,0,0,0,
2026-04-15 07:15:00,METAR KSVH 150715Z AUTO 25003KT 10SM CLR 16/12 A3006 RMK AO2 T01610116,0,3.0,0,16090.0,0,0,0,
2026-04-15 06:55:00,METAR KSVH 150655Z AUTO 00000KT 10SM CLR 17/12 A3007 RMK AO2 T01700116,0,0.0,0,16090.0,0,0,0,
2026-04-15 06:35:00,METAR KSVH 150635Z AUTO 00000KT 10SM CLR 17/12 A3007 RMK AO2 T01730116,0,0.0,0,16090.0,0,0,0,
2026-04-15 06:15:00,METAR KSVH 150615Z AUTO 00000KT 10SM CLR 17/12 A3008 RMK AO2 T01710117,0,0.0,0,16090.0,0,0,0,
2026-04-15 05:55:00,METAR KSVH 150555Z AUTO 23003KT 10SM CLR 19/11 A3008 RMK AO2 T01910110 10255 20182,0,3.0,0,16090.0,0,0,0,
2026-04-15 05:35:00,METAR KSVH 150535Z AUTO 23003KT 10SM CLR 20/11 A3009 RMK AO2 T01950110,0,3.0,0,16090.0,0,0,0,
2026-04-15 05:15:00,METAR KSVH 150515Z AUTO 21004KT 10SM CLR 18/12 A3009 RMK AO2 T01830115,0,4.0,0,16090.0,0,0,0,
2026-04-15 04:55:00,METAR KSVH 150455Z AUTO 21004KT 10SM CLR 18/12 A3009 RMK AO2 T01830119 402980119,0,4.0,0,16090.0,0,0,0,
2026-04-15 04:35:00,METAR KSVH 150435Z AUTO 22003KT 10SM CLR 20/11 A3009 RMK AO2 T01950112,0,3.0,0,16090.0,0,0,0,
2026-04-15 04:15:00,METAR KSVH 150415Z AUTO 22004KT 10SM CLR 19/11 A3009 RMK AO2 T01940114,0,4.0,0,16090.0,0,0,0,
2026-04-15 03:55:00,METAR KSVH 150355Z AUTO 21004KT 10SM CLR 20/11 A3009 RMK AO2 T02020111,0,4.0,0,16090.0,0,0,0,
2026-04-15 03:35:00,METAR KSVH 150335Z AUTO 23004KT 10SM CLR 20/11 A3009 RMK AO2 T02010114,0,4.0,0,16090.0,0,0,0,
2026-04-15 03:15:00,METAR KSVH 150315Z AUTO 22003KT 10SM CLR 21/12 A3010 RMK AO2 T02080116,0,3.0,0,16090.0,0,0,0,
2026-04-15 02:55:00,METAR KSVH 150255Z AUTO 21004KT 10SM CLR 21/12 A3010 RMK AO2 T02060117,0,4.0,0,16090.0,0,0,0,
2026-04-15 02:35:00,METAR KSVH 150235Z AUTO 21003KT 10SM CLR 22/12 A3010 RMK AO2 T02180115,0,3.0,0,16090.0,0,0,0,
2026-04-15 02:15:00,METAR KSVH 150215Z AUTO 21004KT 10SM CLR 22/12 A3010 RMK AO2 T02200115,0,4.0,0,16090.0,0,0,0,
2026-04-15 01:55:00,METAR KSVH 150155Z AUTO 21004KT 10SM CLR 22/12 A3010 RMK AO2 T02180116,0,4.0,0,16090.0,0,0,0,
2026-04-15 01:35:00,METAR KSVH 150135Z AUTO 20004KT 10SM CLR 23/12 A3010 RMK AO2 T02300117,0,4.0,0,16090.0,0,0,0,
2026-04-15 01:15:00,METAR KSVH 150115Z AUTO 21005KT 10SM CLR 23/12 A3009 RMK AO2 T02300115,0,5.0,0,16090.0,0,0,0,
2026-04-15 00:55:00,METAR KSVH 150055Z AUTO 22004KT 10SM CLR 23/11 A3009 RMK AO2 T02310113,0,4.0,0,16090.0,0,0,0,
2026-04-15 00:35:00,METAR KSVH 150035Z AUTO 20004KT 10SM CLR 23/12 A3009 RMK AO2 T02290120,0,4.0,0,16090.0,0,0,0,
2026-04-15 00:15:00,METAR KSVH 150015Z AUTO 20003KT 10SM CLR 24/11 A3009 RMK AO2 T02400106,0,3.0,0,16090.0,0,0,0,
2026-04-14 23:55:00,METAR KSVH 142355Z AUTO 19003KT 10SM CLR 26/10 A3009 RMK AO2 T02560100 10298 20256,0,3.0,0,16090.0,0,0,0,
2026-04-14 23:35:00,METAR KSVH 142335Z AUTO 21004KT 10SM CLR 27/10 A3009 RMK AO2 T02680100,0,4.0,0,16090.0,0,0,0,
2026-04-14 23:15:00,METAR KSVH 142315Z AUTO 21004KT 10SM CLR 28/10 A3009 RMK AO2 T02780101,0,4.0,0,16090.0,0,0,0,
2026-04-14 22:55:00,METAR KSVH 142255Z AUTO 20003KT 10SM CLR 29/10 A3009 RMK AO2 T02880096,0,3.0,0,16090.0,0,0,0,
2026-04-14 22:35:00,METAR KSVH 142235Z AUTO 00000KT 10SM CLR 29/10 A3009 RMK AO2 T02880100,0,0.0,0,16090.0,0,0,0,
2026-04-14 22:15:00,METAR KSVH 142215Z AUTO 21003KT 10SM CLR 28/10 A3010 RMK AO2 T02840096,0,3.0,0,16090.0,0,0,0,
2026-04-14 21:55:00,METAR KSVH 142155Z AUTO 20004KT 10SM CLR 29/09 A3010 RMK AO2 T02870091,0,4.0,0,16090.0,0,0,0,
2026-04-14 21:35:00,METAR KSVH 142135Z AUTO 23005KT 10SM CLR 29/08 A3010 RMK AO2 T02880084,0,5.0,0,16090.0,0,0,0,
2026-04-14 21:15:00,METAR KSVH 142115Z AUTO 20004KT 10SM CLR 30/09 A3010 RMK AO2 T02960087,0,4.0,0,16090.0,0,0,0,
2026-04-14 20:55:00,METAR KSVH 142055Z AUTO 21004KT 10SM CLR 29/09 A3010 RMK AO2 T02920087,0,4.0,0,16090.0,0,0,0,
2026-04-14 20:35:00,METAR KSVH 142035Z AUTO 20005KT 10SM 30/09 A3011 RMK AO2 T02970086,0,5.0,0,16090.0,0,0,0,
2026-04-14 20:15:00,METAR KSVH 142015Z AUTO 17005KT 10SM SCT110 29/09 A3011 RMK AO2 T02890085,0,5.0,0,16090.0,0,0,0,
2026-04-14 19:55:00,METAR KSVH 141955Z AUTO 25009KT 10SM CLR 30/08 A3012 RMK AO2 T02960078,0,9.0,0,16090.0,0,0,0,
2026-04-14 19:35:00,METAR KSVH 141935Z AUTO 26006KT 29/09 A3012 RMK AO2 T02910090 PWINO,0,6.0,0,,0,0,0,
2026-04-14 19:15:00,METAR KSVH 141915Z AUTO 20007KT 10SM CLR 29/10 A3013 RMK AO2 T02930096,0,7.0,0,16090.0,0,0,0,
2026-04-14 18:55:00,METAR KSVH 141855Z AUTO 24004KT 10SM CLR 28/08 A3014 RMK AO2 T02830082,0,4.0,0,16090.0,0,0,0,
2026-04-14 18:35:00,METAR KSVH 141835Z AUTO 17004KT 10SM CLR 29/10 A3014 RMK AO2 T02850104,0,4.0,0,16090.0,0,0,0,
2026-04-14 18:15:00,METAR KSVH 141815Z AUTO 00000KT 10SM CLR 28/10 A3015 RMK AO2 T02780100,0,0.0,0,16090.0,0,0,0,
2026-04-14 17:55:00,METAR KSVH 141755Z AUTO 23008KT 10SM 28/11 A3015 RMK AO2 T02810109 10281 20131,0,8.0,0,16090.0,0,0,0,
2026-04-14 17:35:00,METAR KSVH 141735Z AUTO 18004KT 10SM 28/10 A3016 RMK AO2 T02760103,0,4.0,0,16090.0,0,0,0,
2026-04-14 17:15:00,METAR KSVH 141715Z AUTO 18003KT 27/10 A3017 RMK AO2 T02730102 PWINO,0,3.0,0,,0,0,0,
2026-04-14 16:55:00,METAR KSVH 141655Z AUTO 28007KT 10SM CLR 27/10 A3018 RMK AO2 T02680098,0,7.0,0,16090.0,0,0,0,
2026-04-14 16:35:00,METAR KSVH 141635Z AUTO 30004KT 10SM CLR 27/11 A3018 RMK AO2 T02690112,0,4.0,0,16090.0,0,0,0,
2026-04-14 16:15:00,METAR KSVH 141615Z AUTO 25005KT 10SM 27/11 A3019 RMK AO2 T02680106,0,5.0,0,16090.0,0,0,0,
2026-04-14 15:55:00,METAR KSVH 141555Z AUTO 18003KT 10SM CLR 26/11 A3020 RMK AO2 T02550108,0,3.0,0,16090.0,0,0,0,
2026-04-14 15:35:00,METAR KSVH 141535Z AUTO 25004KT 10SM CLR 25/13 A3020 RMK AO2 T02510127,0,4.0,0,16090.0,0,0,0,
2026-04-14 15:15:00,METAR KSVH 141515Z AUTO 23004KT 10SM SCT110 24/13 A3021 RMK AO2 T02390129,0,4.0,0,16090.0,0,0,0,
2026-04-14 14:55:00,METAR KSVH 141455Z AUTO 19003KT 10SM SCT110 23/14 A3021 RMK AO2 T02290135,0,3.0,0,16090.0,0,0,0,
2026-04-14 14:35:00,METAR KSVH 141435Z AUTO 24004KT 10SM SCT110 22/13 A3021 RMK AO2 T02190134,0,4.0,0,16090.0,0,0,0,
2026-04-14 14:15:00,METAR KSVH 141415Z AUTO 19003KT 10SM BKN110 21/13 A3021 RMK AO2 T02100131,0,3.0,0,16090.0,0,0,0,
2026-04-14 13:55:00,METAR KSVH 141355Z AUTO 20004KT 10SM OVC110 21/13 A3021 RMK AO2 T02070134,0,4.0,0,16090.0,0,0,0,
2026-04-14 13:35:00,METAR KSVH 141335Z AUTO 22003KT 10SM SCT110 19/13 A3020 RMK AO2 T01900132,0,3.0,0,16090.0,0,0,0,
2026-04-14 13:15:00,METAR KSVH 141315Z AUTO 00000KT 10SM CLR 18/13 A3020 RMK AO2 T01760129,0,0.0,0,16090.0,0,0,0,
2026-04-14 12:55:00,METAR KSVH 141255Z AUTO 24004KT 10SM CLR 18/13 A3021 RMK AO2 T01780130,0,4.0,0,16090.0,0,0,0,
2026-04-14 12:35:00,METAR KSVH 141235Z AUTO 00000KT 10SM CLR 17/14 A3020 RMK AO2 T01710136,0,0.0,0,16090.0,0,0,0,
2026-04-14 12:15:00,METAR KSVH 141215Z AUTO 22003KT 10SM CLR 15/13 A3020 RMK AO2 T01450130,0,3.0,0,16090.0,0,0,0,
2026-04-14 11:55:00,METAR KSVH 141155Z AUTO 00000KT 10SM CLR 13/13 A3020 RMK AO2 T01320125 10170 20119,0,0.0,0,16090.0,0,0,0,
2026-04-14 11:35:00,METAR KSVH 141135Z AUTO 00000KT 10SM CLR 12/12 A3019 RMK AO2 T01230116,0,0.0,0,16090.0,0,0,0,
2026-04-14 11:15:00,METAR KSVH 141115Z AUTO 22003KT 10SM SCT120 12/12 A3018 RMK AO2 T01200115,0,3.0,0,16090.0,0,0,0,
2026-04-14 10:55:00,METAR KSVH 141055Z AUTO 00000KT 10SM BKN120 12/11 A3018 RMK AO2 T01190114,0,0.0,0,16090.0,0,0,0,
2026-04-14 10:35:00,METAR KSVH 141035Z AUTO 00000KT 10SM CLR 13/12 A3017 RMK AO2 T01260115,0,0.0,0,16090.0,0,0,0,
2026-04-14 10:15:00,METAR KSVH 141015Z AUTO 00000KT 10SM CLR 13/12 A3017 RMK AO2 T01290122,0,0.0,0,16090.0,0,0,0,
2026-04-14 09:55:00,METAR KSVH 140955Z AUTO 00000KT 10SM CLR 12/12 A3017 RMK AO2 T01220116,0,0.0,0,16090.0,0,0,0,
2026-04-14 09:35:00,METAR KSVH 140935Z AUTO 24003KT 10SM CLR 13/12 A3017 RMK AO2 T01270120,0,3.0,0,16090.0,0,0,0,
2026-04-14 09:15:00,METAR KSVH 140915Z AUTO 00000KT 10SM CLR 13/12 A3017 RMK AO2 T01300119,0,0.0,0,16090.0,0,0,0,
2026-04-14 08:55:00,METAR KSVH 140855Z AUTO 00000KT 10SM CLR 13/12 A3017 RMK AO2 T01310120,0,0.0,0,16090.0,0,0,0,
2026-04-14 08:35:00,METAR KSVH 140835Z AUTO 28003KT 10SM CLR 14/12 A3017 RMK AO2 T01410122,0,3.0,0,16090.0,0,0,0,
2026-04-14 08:15:00,METAR KSVH 140815Z AUTO 00000KT 10SM CLR 14/12 A3017 RMK AO2 T01350121,0,0.0,0,16090.0,0,0,0,
2026-04-14 07:55:00,METAR KSVH 140755Z AUTO 00000KT 10SM CLR 14/12 A3017 RMK AO2 T01360120,0,0.0,0,16090.0,0,0,0,
2026-04-14 07:35:00,METAR KSVH 140735Z AUTO 00000KT 10SM CLR 14/12 A3016 RMK AO2 T01410119,0,0.0,0,16090.0,0,0,0,
2026-04-14 07:15:00,METAR KSVH 140715Z AUTO 00000KT 10SM CLR 15/12 A3017 RMK AO2 T01460116,0,0.0,0,16090.0,0,0,0,
2026-04-14 06:55:00,METAR KSVH 140655Z AUTO 00000KT 10SM CLR 16/12 A3017 RMK AO2 T01610122,0,0.0,0,16090.0,0,0,0,
2026-04-14 06:35:00,METAR KSVH 140635Z AUTO 22003KT 10SM CLR 17/12 A3017 RMK AO2 T01700123,0,3.0,0,16090.0,0,0,0,
2026-04-14 06:15:00,METAR KSVH 140615Z AUTO 22003KT 10SM CLR 16/12 A3018 RMK AO2 T01580122,0,3.0,0,16090.0,0,0,0,
2026-04-14 05:55:00,METAR KSVH 140555Z AUTO 21004KT 10SM CLR 16/12 A3018 RMK AO2 T01590121 10232 20156,0,4.0,0,16090.0,0,0,0,
2026-04-14 05:35:00,METAR KSVH 140535Z AUTO 20003KT 10SM CLR 17/12 A3019 RMK AO2 T01710119,0,3.0,0,16090.0,0,0,0,
2026-04-14 05:15:00,METAR KSVH 140515Z AUTO 20003KT 10SM CLR 17/12 A3019 RMK AO2 T01710122,0,3.0,0,16090.0,0,0,0,
2026-04-14 04:55:00,METAR KSVH 140455Z AUTO 21004KT 10SM CLR 17/12 A3020 RMK AO2 T01720117 402740151,0,4.0,0,16090.0,0,0,0,
2026-04-14 04:35:00,METAR KSVH 140435Z AUTO 21004KT 10SM CLR 17/12 A3020 RMK AO2 T01740117,0,4.0,0,16090.0,0,0,0,
2026-04-14 04:15:00,METAR KSVH 140415Z AUTO 21004KT 10SM CLR 18/12 A3020 RMK AO2 T01760116,0,4.0,0,16090.0,0,0,0,
2026-04-14 03:55:00,METAR KSVH 140355Z AUTO 21003KT 10SM CLR 18/12 A3021 RMK AO2 T01780116,0,3.0,0,16090.0,0,0,0,
2026-04-14 03:35:00,METAR KSVH 140335Z AUTO 19003KT 10SM CLR 18/12 A3021 RMK AO2 T01750115,0,3.0,0,16090.0,0,0,0,
2026-04-14 03:15:00,METAR KSVH 140315Z AUTO 00000KT 10SM CLR 19/11 A3022 RMK AO2 T01900113,0,0.0,0,16090.0,0,0,0,
2026-04-14 02:55:00,METAR KSVH 140255Z AUTO 19003KT 10SM CLR 19/11 A3022 RMK AO2 T01900110,0,3.0,0,16090.0,0,0,0,
2026-04-14 02:35:00,METAR KSVH 140235Z AUTO 20004KT 10SM CLR 20/11 A3022 RMK AO2 T01980111,0,4.0,0,16090.0,0,0,0,
2026-04-14 02:15:00,METAR KSVH 140215Z AUTO 20004KT 10SM CLR 20/11 A3022 RMK AO2 T02000113,0,4.0,0,16090.0,0,0,0,
2026-04-14 01:55:00,METAR KSVH 140155Z AUTO 19004KT 10SM CLR 20/11 A3022 RMK AO2 T02010111,0,4.0,0,16090.0,0,0,0,
2026-04-14 01:35:00,METAR KSVH 140135Z AUTO 20004KT 10SM CLR 21/11 A3022 RMK AO2 T02070112,0,4.0,0,16090.0,0,0,0,
2026-04-14 01:15:00,METAR KSVH 140115Z AUTO 21004KT 10SM CLR 21/11 A3022 RMK AO2 T02100112,0,4.0,0,16090.0,0,0,0,
2026-04-14 00:55:00,METAR KSVH 140055Z AUTO 21003KT 10SM CLR 21/11 A3022 RMK AO2 T02110112,0,3.0,0,16090.0,0,0,0,
2026-04-14 00:35:00,METAR KSVH 140035Z AUTO 20003KT 10SM CLR 22/11 A3022 RMK AO2 T02200110,0,3.0,0,16090.0,0,0,0,
2026-04-14 00:15:00,METAR KSVH 140015Z AUTO 21003KT 10SM CLR 23/11 A3022 RMK AO2 T02300110,0,3.0,0,16090.0,0,0,0,
2026-04-13 23:55:00,METAR KSVH 132355Z AUTO 22004KT 10SM CLR 23/10 A3021 RMK AO2 T02330101 10272 20233,0,4.0,0,16090.0,0,0,0,
2026-04-13 23:35:00,METAR KSVH 132335Z AUTO 22007KT 10SM CLR 25/10 A3020 RMK AO2 T02460101,0,7.0,0,16090.0,0,0,0,
2026-04-13 23:15:00,METAR KSVH 132315Z AUTO 22006KT 10SM CLR 25/10 A3020 RMK AO2 T02500103,0,6.0,0,16090.0,0,0,0,
2026-04-13 22:55:00,METAR KSVH 132255Z AUTO 20006KT 10SM CLR 26/10 A3020 RMK AO2 T02580104,0,6.0,0,16090.0,0,0,0,
2026-04-13 22:35:00,METAR KSVH 132235Z AUTO 22006KT 10SM CLR 27/11 A3021 RMK AO2 T02660106,0,6.0,0,16090.0,0,0,0,
2026-04-13 22:15:00,METAR KSVH 132215Z AUTO 21007KT 10SM CLR 26/10 A3021 RMK AO2 T02590095,0,7.0,0,16090.0,0,0,0,
2026-04-13 21:55:00,METAR KSVH 132155Z AUTO 21004KT 10SM CLR 26/10 A3021 RMK AO2 T02570098,0,4.0,0,16090.0,0,0,0,
2026-04-13 21:35:00,METAR KSVH 132135Z AUTO 21008KT 10SM CLR 27/10 A3022 RMK AO2 T02680101,0,8.0,0,16090.0,0,0,0,
2026-04-13 20:55:00,METAR KSVH 132055Z AUTO 24011G17KT 10SM CLR 27/10 A3022 RMK AO2 T02680097,0,11.0,1,16090.0,0,0,0,
2026-04-13 20:35:00,METAR KSVH 132035Z AUTO 24010G16KT 10SM CLR 27/10 A3022 RMK AO2 T02700096,0,10.0,1,16090.0,0,0,0,
2026-04-13 20:15:00,METAR KSVH 132015Z AUTO 22008G15KT 10SM CLR 27/10 A3023 RMK AO2 T02690095,0,8.0,1,16090.0,0,0,0,
2026-04-13 19:55:00,METAR KSVH 131955Z AUTO 23009G15KT 10SM CLR 27/10 A3023 RMK AO2 T02700098,0,9.0,1,16090.0,0,0,0,
2026-04-13 19:35:00,METAR KSVH 131935Z AUTO 24010G16KT 10SM CLR 27/10 A3024 RMK AO2 T02680097,0,10.0,1,16090.0,0,0,0,
2026-04-13 19:15:00,METAR KSVH 131915Z AUTO 20009G14KT 10SM CLR 27/11 A3025 RMK AO2 T02680112,0,9.0,1,16090.0,0,0,0,
2026-04-13 18:55:00,METAR KSVH 131855Z AUTO 20007G14KT 10SM CLR 26/10 A3026 RMK AO2 T02590104,0,7.0,1,16090.0,0,0,0,
2026-04-13 18:35:00,METAR KSVH 131835Z AUTO 23010G17KT 10SM CLR 26/11 A3026 RMK AO2 T02580107,0,10.0,1,16090.0,0,0,0,
2026-04-13 18:15:00,METAR KSVH 131815Z AUTO 20009G14KT 160V220 10SM CLR 27/11 A3026 RMK AO2 T02680108,0,9.0,1,16090.0,0,0,0,
2026-04-13 17:55:00,METAR KSVH 131755Z AUTO 23008G14KT 10SM CLR 27/11 A3027 RMK AO2 T02680108 10274 20156,0,8.0,1,16090.0,0,0,0,
2026-04-13 17:35:00,METAR KSVH 131735Z AUTO 20007KT 170V230 10SM CLR 27/12 A3028 RMK AO2 T02660118,0,7.0,0,16090.0,0,0,0,
2026-04-13 17:15:00,METAR KSVH 131715Z AUTO 21011G15KT 10SM CLR 26/12 A3029 RMK AO2 T02560116,0,11.0,1,16090.0,0,0,0,
2026-04-13 16:55:00,METAR KSVH 131655Z AUTO 23009KT 10SM CLR 25/12 A3030 RMK AO2 T02510115,0,9.0,0,16090.0,0,0,0,
2026-04-13 16:35:00,METAR KSVH 131635Z AUTO 21009G14KT 10SM CLR 26/12 A3030 RMK AO2 T02560121,0,9.0,1,16090.0,0,0,0,
2026-04-13 16:15:00,METAR KSVH 131615Z AUTO 21007KT 10SM CLR 25/12 A3031 RMK AO2 T02500124,0,7.0,0,16090.0,0,0,0,
2026-04-13 15:55:00,METAR KSVH 131555Z AUTO 23008KT 180V240 10SM CLR 24/12 A3032 RMK AO2 T02360120,0,8.0,0,16090.0,0,0,0,
2026-04-13 15:35:00,METAR KSVH 131535Z AUTO 23009KT 10SM CLR 23/12 A3033 RMK AO2 T02320124,0,9.0,0,16090.0,0,0,0,
2026-04-13 15:15:00,METAR KSVH 131515Z AUTO 20008KT 10SM CLR 22/13 A3033 RMK AO2 T02220126,0,8.0,0,16090.0,0,0,0,
2026-04-13 14:55:00,METAR KSVH 131455Z AUTO 20006KT 10SM CLR 22/13 A3034 RMK AO2 T02180128,0,6.0,0,16090.0,0,0,0,
2026-04-13 14:35:00,METAR KSVH 131435Z AUTO 21010G16KT 10SM CLR 21/13 A3034 RMK AO2 T02140127,0,10.0,1,16090.0,0,0,0,
2026-04-13 14:15:00,METAR KSVH 131415Z AUTO 22009G14KT 10SM CLR 20/13 A3034 RMK AO2 T02040128,0,9.0,1,16090.0,0,0,0,
2026-04-13 13:55:00,METAR KSVH 131355Z AUTO 22006KT 10SM CLR 20/13 A3035 RMK AO2 T02000131,0,6.0,0,16090.0,0,0,0,
2026-04-13 13:35:00,METAR KSVH 131335Z AUTO 21006KT 10SM CLR 19/13 A3035 RMK AO2 T01860131,0,6.0,0,16090.0,0,0,0,
2026-04-13 13:15:00,METAR KSVH 131315Z AUTO 21005KT 10SM CLR 18/13 A3035 RMK AO2 T01750128,0,5.0,0,16090.0,0,0,0,
2026-04-13 12:55:00,METAR KSVH 131255Z AUTO 22006KT 10SM CLR 17/13 A3035 RMK AO2 T01710127,0,6.0,0,16090.0,0,0,0,
2026-04-13 12:35:00,METAR KSVH 131235Z AUTO 21005KT 10SM CLR 17/13 A3035 RMK AO2 T01700127,0,5.0,0,16090.0,0,0,0,
2026-04-13 12:15:00,METAR KSVH 131215Z AUTO 20005KT 10SM CLR 16/12 A3034 RMK AO2 T01610123,0,5.0,0,16090.0,0,0,0,
2026-04-13 11:55:00,METAR KSVH 131155Z AUTO 19004KT 10SM CLR 16/12 A3034 RMK AO2 T01560122 10196 20151,0,4.0,0,16090.0,0,0,0,
2026-04-13 11:35:00,METAR KSVH 131135Z AUTO 20005KT 10SM CLR 15/12 A3033 RMK AO2 T01520120,0,5.0,0,16090.0,0,0,0,
2026-04-13 11:15:00,METAR KSVH 131115Z AUTO 20004KT 10SM CLR 15/12 A3033 RMK AO2 T01510118,0,4.0,0,16090.0,0,0,0,
2026-04-13 10:55:00,METAR KSVH 131055Z AUTO 20005KT 10SM CLR 15/12 A3032 RMK AO2 T01510117,0,5.0,0,16090.0,0,0,0,
2026-04-13 10:35:00,METAR KSVH 131035Z AUTO 21005KT 10SM CLR 15/12 A3032 RMK AO2 T01520116,0,5.0,0,16090.0,0,0,0,
2026-04-13 10:15:00,METAR KSVH 131015Z AUTO 20004KT 10SM CLR 16/12 A3032 RMK AO2 T01550116,0,4.0,0,16090.0,0,0,0,
2026-04-13 09:55:00,METAR KSVH 130955Z AUTO 20005KT 10SM CLR 16/12 A3032 RMK AO2 T01570115,0,5.0,0,16090.0,0,0,0,
2026-04-13 09:35:00,METAR KSVH 130935Z AUTO 20005KT 10SM CLR 16/11 A3031 RMK AO2 T01620114,0,5.0,0,16090.0,0,0,0,
2026-04-13 09:15:00,METAR KSVH 130915Z AUTO 21005KT 10SM CLR 16/11 A3030 RMK AO2 T01620113,0,5.0,0,16090.0,0,0,0,
2026-04-13 08:55:00,METAR KSVH 130855Z AUTO 20006KT 10SM CLR 16/11 A3030 RMK AO2 T01620113,0,6.0,0,16090.0,0,0,0,
2026-04-13 08:35:00,METAR KSVH 130835Z AUTO 20005KT 10SM CLR 17/11 A3031 RMK AO2 T01650113,0,5.0,0,16090.0,0,0,0,
2026-04-13 08:15:00,METAR KSVH 130815Z AUTO 21005KT 10SM CLR 17/11 A3030 RMK AO2 T01710113,0,5.0,0,16090.0,0,0,0,
2026-04-13 07:55:00,METAR KSVH 130755Z AUTO 21005KT 10SM CLR 17/11 A3030 RMK AO2 T01730111,0,5.0,0,16090.0,0,0,0,
2026-04-13 07:35:00,METAR KSVH 130735Z AUTO 21006KT 10SM CLR 18/11 A3029 RMK AO2 T01750110,0,6.0,0,16090.0,0,0,0,
2026-04-13 07:15:00,METAR KSVH 130715Z AUTO 20004KT 10SM CLR 18/11 A3029 RMK AO2 T01750110,0,4.0,0,16090.0,0,0,0,
2026-04-13 06:55:00,METAR KSVH 130655Z AUTO 19003KT 10SM CLR 18/11 A3030 RMK AO2 T01790110,0,3.0,0,16090.0,0,0,0,
2026-04-13 06:35:00,METAR KSVH 130635Z AUTO 21003KT 10SM CLR 18/11 A3030 RMK AO2 T01810110,0,3.0,0,16090.0,0,0,0,
2026-04-13 05:55:00,METAR KSVH 130555Z AUTO 21005KT 10SM CLR 20/11 A3031 RMK AO2 T01960106 10235 20196,0,5.0,0,16090.0,0,0,0,
2026-04-13 05:35:00,METAR KSVH 130535Z AUTO 21005KT 10SM CLR 20/11 A3030 RMK AO2 T02000108,0,5.0,0,16090.0,0,0,0,
2026-04-13 05:15:00,METAR KSVH 130515Z AUTO 20006KT 10SM CLR 20/11 A3030 RMK AO2 T02030108,0,6.0,0,16090.0,0,0,0,
2026-04-13 04:55:00,METAR KSVH 130455Z AUTO 19006G14KT 10SM CLR 21/11 A3030 RMK AO2 T02050107 402780130,0,6.0,1,16090.0,0,0,0,
2026-04-13 04:35:00,METAR KSVH 130435Z AUTO 20007KT 10SM CLR 21/11 A3029 RMK AO2 T02100107,0,7.0,0,16090.0,0,0,0,
2026-04-13 04:15:00,METAR KSVH 130415Z AUTO 20008KT 160V220 10SM CLR 21/11 A3030 RMK AO2 T02070105,0,8.0,0,16090.0,0,0,0,
2026-04-13 03:55:00,METAR KSVH 130355Z AUTO 19006KT 10SM CLR 21/10 A3029 RMK AO2 T02090102,0,6.0,0,16090.0,0,0,0,
2026-04-13 03:35:00,METAR KSVH 130335Z AUTO 19005KT 10SM CLR 21/10 A3029 RMK AO2 T02100098,0,5.0,0,16090.0,0,0,0,
2026-04-13 03:15:00,METAR KSVH 130315Z AUTO 18004KT 10SM CLR 21/09 A3029 RMK AO2 T02050093,0,4.0,0,16090.0,0,0,0,
2026-04-13 02:55:00,METAR KSVH 130255Z AUTO 18004KT 10SM CLR 20/09 A3029 RMK AO2 T02040091,0,4.0,0,16090.0,0,0,0,
2026-04-13 02:35:00,METAR KSVH 130235Z AUTO 19003KT 10SM CLR 20/09 A3029 RMK AO2 T02010088,0,3.0,0,16090.0,0,0,0,
2026-04-13 02:15:00,METAR KSVH 130215Z AUTO 19003KT 10SM CLR 21/09 A3029 RMK AO2 T02050089,0,3.0,0,16090.0,0,0,0,
2026-04-13 01:55:00,METAR KSVH 130155Z AUTO 20003KT 10SM CLR 21/09 A3029 RMK AO2 T02110085,0,3.0,0,16090.0,0,0,0,
2026-04-13 01:35:00,METAR KSVH 130135Z AUTO 20003KT 10SM CLR 22/09 A3029 RMK AO2 T02150086,0,3.0,0,16090.0,0,0,0,
2026-04-13 01:15:00,METAR KSVH 130115Z AUTO 18003KT 10SM CLR 22/09 A3028 RMK AO2 T02210085,0,3.0,0,16090.0,0,0,0,
2026-04-13 00:55:00,METAR KSVH 130055Z AUTO 18004KT 10SM CLR 22/09 A3028 RMK AO2 T02230085,0,4.0,0,16090.0,0,0,0,
2026-04-13 00:35:00,METAR KSVH 130035Z AUTO 19003KT 10SM CLR 23/08 A3028 RMK AO2 T02300084,0,3.0,0,16090.0,0,0,0,
2026-04-13 00:15:00,METAR KSVH 130015Z AUTO 18003KT 10SM CLR 23/09 A3027 RMK AO2 T02300088,0,3.0,0,16090.0,0,0,0,
2026-04-12 23:55:00,METAR KSVH 122355Z AUTO 18003KT 10SM CLR 24/09 A3028 RMK AO2 T02350091 10278 20234,0,3.0,0,16090.0,0,0,0,
2026-04-12 23:35:00,METAR KSVH 122335Z AUTO 18003KT 10SM CLR 25/09 A3028 RMK AO2 T02500091,0,3.0,0,16090.0,0,0,0,
2026-04-12 22:55:00,METAR KSVH 122255Z AUTO 18003KT 10SM CLR 27/09 A3028 RMK AO2 T02670088,0,3.0,0,16090.0,0,0,0,
2026-04-12 22:35:00,METAR KSVH 122235Z AUTO 16003KT 10SM SCT080 27/09 A3028 RMK AO2 T02680090,0,3.0,0,16090.0,0,0,0,
2026-04-12 22:15:00,METAR KSVH 122215Z AUTO 17004KT 10SM SCT080 27/09 A3028 RMK AO2 T02680088,0,4.0,0,16090.0,0,0,0,
2026-04-12 21:55:00,METAR KSVH 122155Z AUTO 17003KT 10SM SCT080 28/09 A3028 RMK AO2 T02760089,0,3.0,0,16090.0,0,0,0,
2026-04-12 21:35:00,METAR KSVH 122135Z AUTO 17004G14KT 10SM SCT075 27/09 A3029 RMK AO2 T02690086,0,4.0,1,16090.0,0,0,0,
2026-04-12 21:15:00,METAR KSVH 122115Z AUTO 16008G14KT 10SM SCT075 28/09 A3029 RMK AO2 T02750087,0,8.0,1,16090.0,0,0,0,
2026-04-12 20:55:00,METAR KSVH 122055Z AUTO 20007KT 10SM CLR 28/10 A3029 RMK AO2 T02770096,0,7.0,0,16090.0,0,0,0,
2026-04-12 20:35:00,METAR KSVH 122035Z AUTO 16007KT 10SM CLR 27/10 A3029 RMK AO2 T02740101,0,7.0,0,16090.0,0,0,0,
2026-04-12 20:15:00,METAR KSVH 122015Z AUTO 21008KT 10SM CLR 28/10 A3030 RMK AO2 T02750104,0,8.0,0,16090.0,0,0,0,
2026-04-12 19:55:00,METAR KSVH 121955Z AUTO 17006KT 10SM CLR 27/10 A3031 RMK AO2 T02710098,0,6.0,0,16090.0,0,0,0,
2026-04-12 19:35:00,METAR KSVH 121935Z AUTO 14006KT 10SM CLR 27/10 A3031 RMK AO2 T02730100,0,6.0,0,16090.0,0,0,0,
2026-04-12 19:15:00,METAR KSVH 121915Z AUTO 20005KT 10SM CLR 27/09 A3032 RMK AO2 T02690094,0,5.0,0,16090.0,0,0,0,
2026-04-12 18:55:00,METAR KSVH 121855Z AUTO 11004KT 10SM CLR 27/11 A3033 RMK AO2 T02680105,0,4.0,0,16090.0,0,0,0,
2026-04-12 18:35:00,METAR KSVH 121835Z AUTO 15004KT 10SM CLR 26/11 A3034 RMK AO2 T02600109,0,4.0,0,16090.0,0,0,0,
2026-04-12 18:15:00,METAR KSVH 121815Z AUTO 00000KT 10SM CLR 26/11 A3034 RMK AO2 T02550112,0,0.0,0,16090.0,0,0,0,
2026-04-12 17:55:00,METAR KSVH 121755Z AUTO 00000KT 10SM CLR 25/11 A3035 RMK AO2 T02510113 10252 20141,0,0.0,0,16090.0,0,0,0,
2026-04-12 17:35:00,METAR KSVH 121735Z AUTO 00000KT 10SM CLR 25/12 A3036 RMK AO2 T02480117,0,0.0,0,16090.0,0,0,0,
2026-04-12 17:15:00,METAR KSVH 121715Z AUTO 00000KT 10SM CLR 24/12 A3037 RMK AO2 T02400123,0,0.0,0,16090.0,0,0,0,
2026-04-12 16:55:00,METAR KSVH 121655Z AUTO 00000KT 10SM CLR 24/13 A3037 RMK AO2 T02380125,0,0.0,0,16090.0,0,0,0,
2026-04-12 16:35:00,METAR KSVH 121635Z AUTO 36003KT 10SM CLR 23/13 A3038 RMK AO2 T02260125,0,3.0,0,16090.0,0,0,0,
2026-04-12 16:15:00,METAR KSVH 121615Z AUTO 04003KT 10SM CLR 22/12 A3039 RMK AO2 T02180120,0,3.0,0,16090.0,0,0,0,
2026-04-12 15:55:00,METAR KSVH 121555Z AUTO 00000KT 10SM CLR 21/12 A3039 RMK AO2 T02120122,0,0.0,0,16090.0,0,0,0,
2026-04-12 14:55:00,METAR KSVH 121455Z AUTO 06004KT 10SM CLR 19/13 A3039 RMK AO2 T01900126,0,4.0,0,16090.0,0,0,0,
2026-04-12 14:35:00,METAR KSVH 121435Z AUTO 01005KT 10SM CLR 19/13 A3039 RMK AO2 T01900126,0,5.0,0,16090.0,0,0,0,
2026-04-12 14:15:00,METAR KSVH 121415Z AUTO 04004KT 10SM CLR 18/12 A3039 RMK AO2 T01820120,0,4.0,0,16090.0,0,0,0,
2026-04-12 13:55:00,METAR KSVH 121355Z AUTO 04007KT 10SM CLR 17/12 A3039 RMK AO2 T01740117,0,7.0,0,16090.0,0,0,0,
2026-04-12 13:35:00,METAR KSVH 121335Z AUTO 03008KT 10SM CLR 17/12 A3038 RMK AO2 T01710116,0,8.0,0,16090.0,0,0,0,
2026-04-12 13:15:00,METAR KSVH 121315Z AUTO 04006KT 10SM CLR 16/11 A3038 RMK AO2 T01610111,0,6.0,0,16090.0,0,0,0,
2026-04-12 12:55:00,METAR KSVH 121255Z AUTO 03006KT 10SM CLR 16/11 A3037 RMK AO2 T01590107,0,6.0,0,16090.0,0,0,0,
2026-04-12 12:35:00,METAR KSVH 121235Z AUTO 03007KT 10SM CLR 15/10 A3037 RMK AO2 T01520103,0,7.0,0,16090.0,0,0,0,
2026-04-12 12:15:00,METAR KSVH 121215Z AUTO 04008KT 10SM CLR 15/10 A3037 RMK AO2 T01460099,0,8.0,0,16090.0,0,0,0,
2026-04-12 11:55:00,METAR KSVH 121155Z AUTO 03005KT 10SM CLR 14/10 A3037 RMK AO2 T01410097 10170 20130,0,5.0,0,16090.0,0,0,0,
2026-04-12 11:35:00,METAR KSVH 121135Z AUTO 03006KT 10SM CLR 14/10 A3037 RMK AO2 T01350095,0,6.0,0,16090.0,0,0,0,
2026-04-12 11:15:00,METAR KSVH 121115Z AUTO 03006KT 10SM CLR 13/09 A3036 RMK AO2 T01310091,0,6.0,0,16090.0,0,0,0,
2026-04-12 10:55:00,METAR KSVH 121055Z AUTO 05005KT 10SM CLR 13/09 A3034 RMK AO2 T01310090,0,5.0,0,16090.0,0,0,0,
2026-04-12 10:35:00,METAR KSVH 121035Z AUTO 04005KT 10SM CLR 14/09 A3034 RMK AO2 T01350089,0,5.0,0,16090.0,0,0,0,
2026-04-12 10:15:00,METAR KSVH 121015Z AUTO 04005KT 10SM CLR 14/09 A3033 RMK AO2 T01400091,0,5.0,0,16090.0,0,0,0,
2026-04-12 09:55:00,METAR KSVH 120955Z AUTO 05007KT 10SM CLR 14/09 A3032 RMK AO2 T01410092,0,7.0,0,16090.0,0,0,0,
2026-04-12 09:35:00,METAR KSVH 120935Z AUTO 03006KT 10SM CLR 14/09 A3031 RMK AO2 T01430094,0,6.0,0,16090.0,0,0,0,
2026-04-12 09:15:00,METAR KSVH 120915Z AUTO 03005KT 10SM CLR 15/10 A3031 RMK AO2 T01450097,0,5.0,0,16090.0,0,0,0,
2026-04-12 08:55:00,METAR KSVH 120855Z AUTO 02006KT 10SM CLR 15/10 A3031 RMK AO2 T01500098,0,6.0,0,16090.0,0,0,0,
2026-04-12 08:35:00,METAR KSVH 120835Z AUTO 03005KT 10SM CLR 15/10 A3030 RMK AO2 T01510100,0,5.0,0,16090.0,0,0,0,
2026-04-12 08:15:00,METAR KSVH 120815Z AUTO 05003KT 10SM CLR 16/10 A3029 RMK AO2 T01560101,0,3.0,0,16090.0,0,0,0,
2026-04-12 07:55:00,METAR KSVH 120755Z AUTO 05003KT 10SM BKN090 14/12 A3029 RMK AO2 T01440117,0,3.0,0,16090.0,0,0,0,
2026-04-12 07:35:00,METAR KSVH 120735Z AUTO 05003KT 10SM BKN090 14/12 A3029 RMK AO2 T01440115,0,3.0,0,16090.0,0,0,0,
2026-04-12 07:15:00,METAR KSVH 120715Z AUTO 04005KT 10SM SCT090 15/12 A3029 RMK AO2 T01480117,0,5.0,0,16090.0,0,0,0,
2026-04-12 06:55:00,METAR KSVH 120655Z AUTO 36003KT 10SM BKN090 14/12 A3028 RMK AO2 T01400118,0,3.0,0,16090.0,0,0,0,
2026-04-12 06:35:00,METAR KSVH 120635Z AUTO 00000KT 10SM SCT090 14/12 A3028 RMK AO2 T01400120,0,0.0,0,16090.0,0,0,0,
2026-04-12 06:15:00,METAR KSVH 120615Z AUTO 00000KT 10SM SCT085 16/12 A3028 RMK AO2 T01610119,0,0.0,0,16090.0,0,0,0,
2026-04-12 05:55:00,METAR KSVH 120555Z AUTO 04004KT 10SM BKN085 16/12 A3029 RMK AO2 T01620120 10224 20137,0,4.0,0,16090.0,0,0,0,
2026-04-12 05:35:00,METAR KSVH 120535Z AUTO 00000KT 10SM BKN085 15/12 A3029 RMK AO2 T01510118,0,0.0,0,16090.0,0,0,0,
2026-04-12 05:15:00,METAR KSVH 120515Z AUTO 00000KT 10SM SCT095 16/12 A3029 RMK AO2 T01550120,0,0.0,0,16090.0,0,0,0,
2026-04-12 04:55:00,METAR KSVH 120455Z AUTO 03004KT 10SM OVC095 14/12 A3029 RMK AO2 T01370118 402880069,0,4.0,0,16090.0,0,0,0,
2026-04-12 04:35:00,METAR KSVH 120435Z AUTO 00000KT 10SM BKN085 14/12 A3029 RMK AO2 T01410116,0,0.0,0,16090.0,0,0,0,
2026-04-12 04:15:00,METAR KSVH 120415Z AUTO 00000KT 10SM SCT085 15/11 A3028 RMK AO2 T01480110,0,0.0,0,16090.0,0,0,0,
2026-04-12 03:55:00,METAR KSVH 120355Z AUTO 00000KT 10SM SCT085 15/12 A3028 RMK AO2 T01520115,0,0.0,0,16090.0,0,0,0,
2026-04-12 03:35:00,METAR KSVH 120335Z AUTO 00000KT 10SM CLR 16/12 A3028 RMK AO2 T01560115,0,0.0,0,16090.0,0,0,0,
2026-04-12 03:15:00,METAR KSVH 120315Z AUTO 00000KT 10SM CLR 16/11 A3029 RMK AO2 T01610114,0,0.0,0,16090.0,0,0,0,
2026-04-12 02:55:00,METAR KSVH 120255Z AUTO 00000KT 10SM CLR 17/12 A3029 RMK AO2 T01710116,0,0.0,0,16090.0,0,0,0,
2026-04-12 02:35:00,METAR KSVH 120235Z AUTO 00000KT 10SM SCT090 SCT120 17/12 A3028 RMK AO2 T01710116,0,0.0,0,16090.0,0,0,0,
2026-04-12 02:15:00,METAR KSVH 120215Z AUTO 00000KT 10SM SCT090 SCT110 17/12 A3028 RMK AO2 T01730120,0,0.0,0,16090.0,0,0,0,
2026-04-12 01:55:00,METAR KSVH 120155Z AUTO 00000KT 10SM SCT090 SCT110 18/11 A3028 RMK AO2 T01800114,0,0.0,0,16090.0,0,0,0,
2026-04-12 01:35:00,METAR KSVH 120135Z AUTO 00000KT 10SM CLR 18/12 A3027 RMK AO2 T01800116,0,0.0,0,16090.0,0,0,0,
2026-04-12 01:15:00,METAR KSVH 120115Z AUTO 00000KT 10SM CLR 18/11 A3026 RMK AO2 T01840110,0,0.0,0,16090.0,0,0,0,
2026-04-12 00:55:00,METAR KSVH 120055Z AUTO 00000KT 10SM CLR 20/10 A3026 RMK AO2 T02000103,0,0.0,0,16090.0,0,0,0,
2026-04-12 00:35:00,METAR KSVH 120035Z AUTO 00000KT 10SM CLR 20/10 A3025 RMK AO2 T02040101,0,0.0,0,16090.0,0,0,0,
2026-04-12 00:15:00,METAR KSVH 120015Z AUTO 00000KT 10SM CLR 22/10 A3025 RMK AO2 T02190099,0,0.0,0,16090.0,0,0,0,
2026-04-11 23:55:00,METAR KSVH 112355Z AUTO 12003KT 10SM SCT100 22/10 A3025 RMK AO2 T02170101 10288 20217,0,3.0,0,16090.0,0,0,0,
2026-04-11 23:35:00,METAR KSVH 112335Z AUTO 00000KT 10SM BKN100 24/10 A3024 RMK AO2 T02400098,0,0.0,0,16090.0,0,0,0,
2026-04-11 23:15:00,METAR KSVH 112315Z AUTO 10004KT 10SM BKN110 24/10 A3024 RMK AO2 T02400104,0,4.0,0,16090.0,0,0,0,
2026-04-11 22:55:00,METAR KSVH 112255Z AUTO 09003KT 10SM BKN100 24/11 A3024 RMK AO2 T02410109,0,3.0,0,16090.0,0,0,0,
2026-04-11 22:35:00,METAR KSVH 112235Z AUTO 00000KT 10SM BKN100 OVC120 26/09 A3023 RMK AO2 T02550087,0,0.0,0,16090.0,0,0,0,
2026-04-11 22:15:00,METAR KSVH 112215Z AUTO 11003KT 10SM OVC100 25/09 A3023 RMK AO2 T02530094,0,3.0,0,16090.0,0,0,0,
2026-04-11 21:55:00,METAR KSVH 112155Z AUTO 07005KT 10SM BKN090 25/10 A3022 RMK AO2 T02540096,0,5.0,0,16090.0,0,0,0,
2026-04-11 21:35:00,METAR KSVH 112135Z AUTO 00000KT 10SM SCT090 SCT120 28/07 A3022 RMK AO2 T02810073,0,0.0,0,16090.0,0,0,0,
2026-04-11 21:15:00,METAR KSVH 112115Z AUTO 19003KT 10SM BKN090 27/07 A3022 RMK AO2 T02700073,0,3.0,0,16090.0,0,0,0,
2026-04-11 20:55:00,METAR KSVH 112055Z AUTO 00000KT 10SM SCT090 27/07 A3022 RMK AO2 T02730069,0,0.0,0,16090.0,0,0,0,
2026-04-11 20:35:00,METAR KSVH 112035Z AUTO 00000KT 10SM SCT085 28/07 A3022 RMK AO2 T02830070,0,0.0,0,16090.0,0,0,0,
2026-04-11 20:15:00,METAR KSVH 112015Z AUTO 26005KT 10SM CLR 28/07 A3022 RMK AO2 T02830074,0,5.0,0,16090.0,0,0,0,
2026-04-11 19:55:00,METAR KSVH 111955Z AUTO 24005KT 10SM CLR 29/08 A3022 RMK AO2 T02860079,0,5.0,0,16090.0,0,0,0,
2026-04-11 19:35:00,METAR KSVH 111935Z AUTO 29004KT 10SM SCT080 28/08 A3023 RMK AO2 T02810084,0,4.0,0,16090.0,0,0,0,
2026-04-11 19:15:00,METAR KSVH 111915Z AUTO 18004KT 10SM CLR 28/08 A3024 RMK AO2 T02840084,0,4.0,0,16090.0,0,0,0,
2026-04-11 18:55:00,METAR KSVH 111855Z AUTO 24004KT 10SM CLR 28/08 A3025 RMK AO2 T02780081,0,4.0,0,16090.0,0,0,0,
2026-04-11 18:35:00,METAR KSVH 111835Z AUTO 00000KT 10SM CLR 27/08 A3026 RMK AO2 T02740082,0,0.0,0,16090.0,0,0,0,
2026-04-11 18:15:00,METAR KSVH 111815Z AUTO 27005KT 10SM CLR 27/08 A3027 RMK AO2 T02710079,0,5.0,0,16090.0,0,0,0,
2026-04-11 17:55:00,METAR KSVH 111755Z AUTO 01006KT 10SM CLR 27/09 A3027 RMK AO2 T02680089 10268 20100,0,6.0,0,16090.0,0,0,0,
2026-04-11 17:35:00,METAR KSVH 111735Z AUTO 21003KT 10SM CLR 26/09 A3028 RMK AO2 T02630085,0,3.0,0,16090.0,0,0,0,
2026-04-11 17:15:00,METAR KSVH 111715Z AUTO 31003KT 10SM CLR 26/08 A3028 RMK AO2 T02600084,0,3.0,0,16090.0,0,0,0,
2026-04-11 16:55:00,METAR KSVH 111655Z AUTO 30007KT 10SM CLR 27/09 A3029 RMK AO2 T02650089,0,7.0,0,16090.0,0,0,0,
2026-04-11 16:35:00,METAR KSVH 111635Z AUTO 00000KT 10SM CLR 25/07 A3030 RMK AO2 T02520071,0,0.0,0,16090.0,0,0,0,
2026-04-11 16:15:00,METAR KSVH 111615Z AUTO 27004KT 10SM CLR 25/08 A3030 RMK AO2 T02520077,0,4.0,0,16090.0,0,0,0,
2026-04-11 15:55:00,METAR KSVH 111555Z AUTO 00000KT 10SM CLR 25/08 A3031 RMK AO2 T02500079,0,0.0,0,16090.0,0,0,0,
2026-04-11 15:15:00,METAR KSVH 111515Z AUTO 28003KT 10SM CLR 24/07 A3032 RMK AO2 T02400067,0,3.0,0,16090.0,0,0,0,
2026-04-11 14:55:00,METAR KSVH 111455Z AUTO 00000KT 10SM CLR 23/07 A3032 RMK AO2 T02310069,0,0.0,0,16090.0,0,0,0,
2026-04-11 14:35:00,METAR KSVH 111435Z AUTO 00000KT 10SM CLR 22/08 A3032 RMK AO2 T02190075,0,0.0,0,16090.0,0,0,0,
2026-04-11 14:15:00,METAR KSVH 111415Z AUTO 00000KT 10SM CLR 21/07 A3031 RMK AO2 T02080071,0,0.0,0,16090.0,0,0,0,
2026-04-11 13:55:00,METAR KSVH 111355Z AUTO 00000KT 10SM CLR 20/07 A3031 RMK AO2 T01950069,0,0.0,0,16090.0,0,0,0,
2026-04-11 13:35:00,METAR KSVH 111335Z AUTO 25003KT 10SM CLR 18/08 A3031 RMK AO2 T01780075,0,3.0,0,16090.0,0,0,0,
2026-04-11 13:15:00,METAR KSVH 111315Z AUTO 26003KT 10SM CLR 16/07 A3031 RMK AO2 T01580073,0,3.0,0,16090.0,0,0,0,
2026-04-11 12:55:00,METAR KSVH 111255Z AUTO 25003KT 10SM CLR 15/06 A3030 RMK AO2 T01500063,0,3.0,0,16090.0,0,0,0,
2026-04-11 12:35:00,METAR KSVH 111235Z AUTO 26003KT 10SM CLR 13/08 A3030 RMK AO2 T01320075,0,3.0,0,16090.0,0,0,0,
2026-04-11 12:15:00,METAR KSVH 111215Z AUTO 00000KT 10SM CLR 11/08 A3030 RMK AO2 T01120079,0,0.0,0,16090.0,0,0,0,
2026-04-11 11:55:00,METAR KSVH 111155Z AUTO 00000KT 10SM CLR 10/07 A3029 RMK AO2 T00990069 10114 20069,0,0.0,0,16090.0,0,0,0,
2026-04-11 11:35:00,METAR KSVH 111135Z AUTO 00000KT 10SM CLR 09/05 A3029 RMK AO2 T00890054,0,0.0,0,16090.0,0,0,0,
2026-04-11 11:15:00,METAR KSVH 111115Z AUTO 27003KT 10SM CLR 09/05 A3028 RMK AO2 T00920050,0,3.0,0,16090.0,0,0,0,
2026-04-11 10:55:00,METAR KSVH 111055Z AUTO 27005KT 10SM CLR 09/05 A3027 RMK AO2 T00860051,0,5.0,0,16090.0,0,0,0,
2026-04-11 10:35:00,METAR KSVH 111035Z AUTO 27005KT 10SM CLR 07/06 A3027 RMK AO2 T00740057,0,5.0,0,16090.0,0,0,0,
2026-04-11 10:15:00,METAR KSVH 111015Z AUTO 00000KT 10SM CLR 07/05 A3026 RMK AO2 T00690052,0,0.0,0,16090.0,0,0,0,
2026-04-11 09:55:00,METAR KSVH 110955Z AUTO 27003KT 10SM CLR 07/06 A3025 RMK AO2 T00720058,0,3.0,0,16090.0,0,0,0,
2026-04-11 09:35:00,METAR KSVH 110935Z AUTO 00000KT 10SM CLR 08/05 A3025 RMK AO2 T00770054,0,0.0,0,16090.0,0,0,0,
2026-04-11 09:15:00,METAR KSVH 110915Z AUTO 27005KT 10SM CLR 08/06 A3024 RMK AO2 T00810059,0,5.0,0,16090.0,0,0,0,
2026-04-11 08:55:00,METAR KSVH 110855Z AUTO 24004KT 10SM CLR 07/06 A3024 RMK AO2 T00740060,0,4.0,0,16090.0,0,0,0,
2026-04-11 08:35:00,METAR KSVH 110835Z AUTO 00000KT 10SM CLR 08/06 A3024 RMK AO2 T00770062,0,0.0,0,16090.0,0,0,0,
2026-04-11 08:15:00,METAR KSVH 110815Z AUTO 26003KT 10SM CLR 09/06 A3024 RMK AO2 T00850060,0,3.0,0,16090.0,0,0,0,
2026-04-11 07:55:00,METAR KSVH 110755Z AUTO 00000KT 10SM CLR 09/07 A3024 RMK AO2 T00910065,0,0.0,0,16090.0,0,0,0,
2026-04-11 07:35:00,METAR KSVH 110735Z AUTO 00000KT 10SM CLR 09/06 A3023 RMK AO2 T00910062,0,0.0,0,16090.0,0,0,0,
2026-04-11 07:15:00,METAR KSVH 110715Z AUTO 00000KT 10SM CLR 09/06 A3023 RMK AO2 T00940060,0,0.0,0,16090.0,0,0,0,
2026-04-11 06:55:00,METAR KSVH 110655Z AUTO 24003KT 10SM CLR 10/06 A3023 RMK AO2 T00990060,0,3.0,0,16090.0,0,0,0,
2026-04-11 06:35:00,METAR KSVH 110635Z AUTO 00000KT 10SM CLR 09/07 A3024 RMK AO2 T00930067,0,0.0,0,16090.0,0,0,0,
2026-04-11 06:15:00,METAR KSVH 110615Z AUTO 24003KT 10SM CLR 11/06 A3025 RMK AO2 T01100061,0,3.0,0,16090.0,0,0,0,
2026-04-11 05:55:00,METAR KSVH 110555Z AUTO 25004KT 10SM CLR 11/06 A3026 RMK AO2 T01120061 10208 20106,0,4.0,0,16090.0,0,0,0,
2026-04-11 05:35:00,METAR KSVH 110535Z AUTO 26003KT 10SM CLR 11/06 A3026 RMK AO2 T01110064,0,3.0,0,16090.0,0,0,0,
2026-04-11 05:15:00,METAR KSVH 110515Z AUTO 23003KT 10SM CLR 11/07 A3026 RMK AO2 T01110067,0,3.0,0,16090.0,0,0,0,
2026-04-11 04:55:00,METAR KSVH 110455Z AUTO 22004KT 10SM CLR 11/07 A3026 RMK AO2 T01110074 402540015,0,4.0,0,16090.0,0,0,0,
2026-04-11 04:35:00,METAR KSVH 110435Z AUTO 00000KT 10SM CLR 13/06 A3027 RMK AO2 T01260062,0,0.0,0,16090.0,0,0,0,
2026-04-11 04:15:00,METAR KSVH 110415Z AUTO 24003KT 10SM CLR 12/07 A3027 RMK AO2 T01220067,0,3.0,0,16090.0,0,0,0,
2026-04-11 03:55:00,METAR KSVH 110355Z AUTO 23003KT 10SM CLR 13/06 A3027 RMK AO2 T01280063,0,3.0,0,16090.0,0,0,0,
2026-04-11 03:35:00,METAR KSVH 110335Z AUTO 23003KT 10SM CLR 14/06 A3028 RMK AO2 T01430059,0,3.0,0,16090.0,0,0,0,
2026-04-11 03:15:00,METAR KSVH 110315Z AUTO 22003KT 10SM CLR 15/06 A3028 RMK AO2 T01490057,0,3.0,0,16090.0,0,0,0,
2026-04-11 02:55:00,METAR KSVH 110255Z AUTO 22003KT 10SM CLR 15/06 A3028 RMK AO2 T01510058,0,3.0,0,16090.0,0,0,0,
2026-04-11 02:35:00,METAR KSVH 110235Z AUTO 22004KT 10SM CLR 14/07 A3029 RMK AO2 T01430071,0,4.0,0,16090.0,0,0,0,
2026-04-11 02:15:00,METAR KSVH 110215Z AUTO 22003KT 10SM CLR 15/06 A3029 RMK AO2 T01490061,0,3.0,0,16090.0,0,0,0,
2026-04-11 01:55:00,METAR KSVH 110155Z AUTO 22003KT 10SM CLR 16/06 A3029 RMK AO2 T01560061,0,3.0,0,16090.0,0,0,0,
2026-04-11 01:35:00,METAR KSVH 110135Z AUTO 23003KT 10SM CLR 17/06 A3028 RMK AO2 T01730056,0,3.0,0,16090.0,0,0,0,
2026-04-11 01:15:00,METAR KSVH 110115Z AUTO 21003KT 10SM CLR 18/06 A3027 RMK AO2 T01830056,0,3.0,0,16090.0,0,0,0,
2026-04-11 00:55:00,METAR KSVH 110055Z AUTO 19003KT 10SM CLR 19/06 A3026 RMK AO2 T01900056,0,3.0,0,16090.0,0,0,0,
2026-04-11 00:35:00,METAR KSVH 110035Z AUTO 20003KT 10SM CLR 19/05 A3026 RMK AO2 T01940052,0,3.0,0,16090.0,0,0,0,
2026-04-11 00:15:00,METAR KSVH 110015Z AUTO 19003KT 10SM CLR 20/05 A3026 RMK AO2 T02000048,0,3.0,0,16090.0,0,0,0,
2026-04-10 23:55:00,METAR KSVH 102355Z AUTO 18003KT 10SM CLR 21/05 A3025 RMK AO2 T02090047 10254 20209,0,3.0,0,16090.0,0,0,0,
2026-04-10 23:35:00,METAR KSVH 102335Z AUTO 19004KT 10SM CLR 22/04 A3025 RMK AO2 T02200043,0,4.0,0,16090.0,0,0,0,
2026-04-10 23:15:00,METAR KSVH 102315Z AUTO 18005KT 10SM CLR 23/04 A3025 RMK AO2 T02300042,0,5.0,0,16090.0,0,0,0,
2026-04-10 22:55:00,METAR KSVH 102255Z AUTO 17005KT 10SM CLR 24/04 A3025 RMK AO2 T02360042,0,5.0,0,16090.0,0,0,0,
2026-04-10 22:35:00,METAR KSVH 102235Z AUTO 17003KT 10SM CLR 24/04 A3025 RMK AO2 T02390041,0,3.0,0,16090.0,0,0,0,
2026-04-10 22:15:00,METAR KSVH 102215Z AUTO 17005KT 10SM CLR 25/04 A3024 RMK AO2 T02460040,0,5.0,0,16090.0,0,0,0,
2026-04-10 21:55:00,METAR KSVH 102155Z AUTO 15006KT 10SM CLR 25/04 A3024 RMK AO2 T02490035,0,6.0,0,16090.0,0,0,0,
2026-04-10 21:35:00,METAR KSVH 102135Z AUTO 16007KT 10SM CLR 25/04 A3024 RMK AO2 T02500035,0,7.0,0,16090.0,0,0,0,
2026-04-10 21:15:00,METAR KSVH 102115Z AUTO 17006KT 10SM CLR 25/04 A3025 RMK AO2 T02500036,0,6.0,0,16090.0,0,0,0,
2026-04-10 20:55:00,METAR KSVH 102055Z AUTO 15006KT 10SM CLR 25/04 A3025 RMK AO2 T02530040,0,6.0,0,16090.0,0,0,0,
2026-04-10 20:35:00,METAR KSVH 102035Z AUTO 16004KT 10SM CLR 25/04 A3025 RMK AO2 T02510036,0,4.0,0,16090.0,0,0,0,
2026-04-10 20:15:00,METAR KSVH 102015Z AUTO 20006KT 10SM CLR 25/04 A3026 RMK AO2 T02520037,0,6.0,0,16090.0,0,0,0,
2026-04-10 19:55:00,METAR KSVH 101955Z AUTO 16003KT 10SM CLR 25/05 A3026 RMK AO2 T02530045,0,3.0,0,16090.0,0,0,0,
2026-04-10 19:35:00,METAR KSVH 101935Z AUTO 13008KT 10SM CLR 25/04 A3027 RMK AO2 T02500037,0,8.0,0,16090.0,0,0,0,
2026-04-10 19:15:00,METAR KSVH 101915Z AUTO 15005KT 10SM CLR 24/04 A3029 RMK AO2 T02440041,0,5.0,0,16090.0,0,0,0,
2026-04-10 18:55:00,METAR KSVH 101855Z AUTO 13007KT 10SM CLR 25/05 A3029 RMK AO2 T02500049,0,7.0,0,16090.0,0,0,0,
2026-04-10 18:35:00,METAR KSVH 101835Z AUTO 00000KT 10SM CLR 24/03 A3031 RMK AO2 T02400025,0,0.0,0,16090.0,0,0,0,
2026-04-10 18:15:00,METAR KSVH 101815Z AUTO 00000KT 10SM CLR 24/03 A3032 RMK AO2 T02350028,0,0.0,0,16090.0,0,0,0,
2026-04-10 17:55:00,METAR KSVH 101755Z AUTO 00000KT 10SM CLR 23/03 A3033 RMK AO2 T02310034 10231 20038,0,0.0,0,16090.0,0,0,0,
2026-04-10 17:35:00,METAR KSVH 101735Z AUTO 19003KT 10SM CLR 23/04 A3034 RMK AO2 T02280039,0,3.0,0,16090.0,0,0,0,
2026-04-10 17:15:00,METAR KSVH 101715Z AUTO 22004KT 10SM CLR 22/03 A3035 RMK AO2 T02180030,0,4.0,0,16090.0,0,0,0,
2026-04-10 16:55:00,METAR KSVH 101655Z AUTO 27005KT 10SM CLR 21/03 A3036 RMK AO2 T02110034,0,5.0,0,16090.0,0,0,0,
2026-04-10 16:35:00,METAR KSVH 101635Z AUTO 19003KT 10SM CLR 21/03 A3037 RMK AO2 T02080029,0,3.0,0,16090.0,0,0,0,
2026-04-10 16:15:00,METAR KSVH 101615Z AUTO 00000KT 10SM CLR 20/03 A3037 RMK AO2 T02010029,0,0.0,0,16090.0,0,0,0,
2026-04-10 15:55:00,METAR KSVH 101555Z AUTO 23006KT 10SM CLR 19/03 A3039 RMK AO2 T01940028,0,6.0,0,16090.0,0,0,0,
2026-04-10 15:35:00,METAR KSVH 101535Z AUTO 25007KT 10SM CLR 19/03 A3039 RMK AO2 T01860029,0,7.0,0,16090.0,0,0,0,
2026-04-10 15:15:00,METAR KSVH 101515Z AUTO 27007KT 10SM CLR 18/03 A3040 RMK AO2 T01810034,0,7.0,0,16090.0,0,0,0,
2026-04-10 14:55:00,METAR KSVH 101455Z AUTO 25003KT 10SM CLR 17/03 A3040 RMK AO2 T01720032,0,3.0,0,16090.0,0,0,0,
2026-04-10 14:35:00,METAR KSVH 101435Z AUTO 21005KT 10SM CLR 17/04 A3040 RMK AO2 T01710036,0,5.0,0,16090.0,0,0,0,
2026-04-10 14:15:00,METAR KSVH 101415Z AUTO 24005KT 10SM CLR 16/01 A3041 RMK AO2 T01580013,0,5.0,0,16090.0,0,0,0,
2026-04-10 13:55:00,METAR KSVH 101355Z AUTO 00000KT 10SM CLR 15/01 A3041 RMK AO2 T01490007,0,0.0,0,16090.0,0,0,0,
2026-04-10 13:35:00,METAR KSVH 101335Z AUTO 00000KT 10SM CLR 13/01 A3041 RMK AO2 T01330014,0,0.0,0,16090.0,0,0,0,
2026-04-10 13:15:00,METAR KSVH 101315Z AUTO 00000KT 10SM CLR 12/02 A3041 RMK AO2 T01150016,0,0.0,0,16090.0,0,0,0,
2026-04-10 12:55:00,METAR KSVH 101255Z AUTO 00000KT 10SM CLR 10/02 A3041 RMK AO2 T01000015,0,0.0,0,16090.0,0,0,0,
2026-04-10 12:35:00,METAR KSVH 101235Z AUTO 00000KT 10SM CLR 08/01 A3041 RMK AO2 T00820014,0,0.0,0,16090.0,0,0,0,
2026-04-10 12:15:00,METAR KSVH 101215Z AUTO 00000KT 10SM CLR 06/02 A3041 RMK AO2 T00590018,0,0.0,0,16090.0,0,0,0,
2026-04-10 11:55:00,METAR KSVH 101155Z AUTO 26003KT 10SM CLR 04/02 A3041 RMK AO2 T00350016 10046 20015,0,3.0,0,16090.0,0,0,0,
2026-04-10 11:35:00,METAR KSVH 101135Z AUTO 00000KT 10SM CLR 02/00 A3040 RMK AO2 T00200003,0,0.0,0,16090.0,0,0,0,
2026-04-10 11:15:00,METAR KSVH 101115Z AUTO 00000KT 10SM CLR 02/00 A3039 RMK AO2 T00170004,0,0.0,0,16090.0,0,0,0,
2026-04-10 10:55:00,METAR KSVH 101055Z AUTO 00000KT 10SM CLR 02/00 A3039 RMK AO2 T00200001,0,0.0,0,16090.0,0,0,0,
2026-04-10 10:35:00,METAR KSVH 101035Z AUTO 00000KT 10SM CLR 02/00 A3039 RMK AO2 T00160000,0,0.0,0,16090.0,0,0,0,
2026-04-10 10:15:00,METAR KSVH 101015Z AUTO 00000KT 10SM CLR 03/00 A3038 RMK AO2 T00250001,0,0.0,0,16090.0,0,0,0,
2026-04-10 09:55:00,METAR KSVH 100955Z AUTO 00000KT 10SM CLR 02/00 A3037 RMK AO2 T00210000,0,0.0,0,16090.0,0,0,0,
2026-04-10 09:35:00,METAR KSVH 100935Z AUTO 00000KT 10SM CLR 03/00 A3037 RMK AO2 T00250000,0,0.0,0,16090.0,0,0,0,
2026-04-10 09:15:00,METAR KSVH 100915Z AUTO 00000KT 10SM CLR 03/00 A3037 RMK AO2 T00250000,0,0.0,0,16090.0,0,0,0,
2026-04-10 08:55:00,METAR KSVH 100855Z AUTO 00000KT 10SM CLR 03/01 A3036 RMK AO2 T00250006,0,0.0,0,16090.0,0,0,0,
2026-04-10 08:35:00,METAR KSVH 100835Z AUTO 00000KT 10SM CLR 03/00 A3036 RMK AO2 T00260000,0,0.0,0,16090.0,0,0,0,
2026-04-10 08:15:00,METAR KSVH 100815Z AUTO 00000KT 10SM CLR 04/00 A3036 RMK AO2 T00351003,0,0.0,0,16090.0,0,0,0,
2026-04-10 07:55:00,METAR KSVH 100755Z AUTO 00000KT 10SM CLR 04/00 A3036 RMK AO2 T00350000,0,0.0,0,16090.0,0,0,0,
2026-04-10 07:35:00,METAR KSVH 100735Z AUTO 00000KT 10SM CLR 03/00 A3036 RMK AO2 T00340001,0,0.0,0,16090.0,0,0,0,
2026-04-10 07:15:00,METAR KSVH 100715Z AUTO 00000KT 10SM CLR 03/01 A3036 RMK AO2 T00320006,0,0.0,0,16090.0,0,0,0,
2026-04-10 06:55:00,METAR KSVH 100655Z AUTO 00000KT 10SM CLR 04/01 A3037 RMK AO2 T00350007,0,0.0,0,16090.0,0,0,0,
2026-04-10 06:35:00,METAR KSVH 100635Z AUTO 00000KT 10SM CLR 04/00 A3038 RMK AO2 T00400003,0,0.0,0,16090.0,0,0,0,
2026-04-10 06:15:00,METAR KSVH 100615Z AUTO 00000KT 10SM CLR 05/M01 A3038 RMK AO2 T00451007,0,0.0,0,16090.0,0,0,0,
2026-04-10 05:55:00,METAR KSVH 100555Z AUTO 00000KT 10SM CLR 04/M01 A3039 RMK AO2 T00431010 10142 20042,0,0.0,0,16090.0,0,0,0,
2026-04-10 05:35:00,METAR KSVH 100535Z AUTO 00000KT 10SM CLR 05/00 A3039 RMK AO2 T00481004,0,0.0,0,16090.0,0,0,0,
2026-04-10 05:15:00,METAR KSVH 100515Z AUTO 00000KT 10SM CLR 05/M01 A3040 RMK AO2 T00511014,0,0.0,0,16090.0,0,0,0,
2026-04-10 04:55:00,METAR KSVH 100455Z AUTO 00000KT 10SM CLR 05/M01 A3041 RMK AO2 T00511011 401900025,0,0.0,0,16090.0,0,0,0,
2026-04-10 04:35:00,METAR KSVH 100435Z AUTO 00000KT 10SM CLR 06/M01 A3041 RMK AO2 T00591013,0,0.0,0,16090.0,0,0,0,
2026-04-10 04:15:00,METAR KSVH 100415Z AUTO 00000KT 10SM CLR 06/M01 A3041 RMK AO2 T00611011,0,0.0,0,16090.0,0,0,0,
2026-04-10 03:55:00,METAR KSVH 100355Z AUTO 00000KT 10SM CLR 07/M02 A3041 RMK AO2 T00651018,0,0.0,0,16090.0,0,0,0,
2026-04-10 03:35:00,METAR KSVH 100335Z AUTO 00000KT 10SM CLR 07/M03 A3041 RMK AO2 T00701030,0,0.0,0,16090.0,0,0,0,
2026-04-10 03:15:00,METAR KSVH 100315Z AUTO 00000KT 10SM CLR 08/M03 A3041 RMK AO2 T00761034,0,0.0,0,16090.0,0,0,0,
2026-04-10 02:55:00,METAR KSVH 100255Z AUTO 00000KT 10SM CLR 07/00 A3041 RMK AO2 T00721005,0,0.0,0,16090.0,0,0,0,
2026-04-10 02:35:00,METAR KSVH 100235Z AUTO 00000KT 10SM CLR 08/M03 A3041 RMK AO2 T00811027,0,0.0,0,16090.0,0,0,0,
2026-04-10 02:15:00,METAR KSVH 100215Z AUTO 00000KT 10SM CLR 09/M03 A3042 RMK AO2 T00921026,0,0.0,0,16090.0,0,0,0,
2026-04-10 01:55:00,METAR KSVH 100155Z AUTO 00000KT 10SM CLR 09/M03 A3042 RMK AO2 T00921031,0,0.0,0,16090.0,0,0,0,
2026-04-10 01:35:00,METAR KSVH 100135Z AUTO 00000KT 10SM CLR 10/M05 A3041 RMK AO2 T01011047,0,0.0,0,16090.0,0,0,0,
2026-04-10 01:15:00,METAR KSVH 100115Z AUTO 00000KT 10SM CLR 12/M06 A3041 RMK AO2 T01161059,0,0.0,0,16090.0,0,0,0,
2026-04-10 00:55:00,METAR KSVH 100055Z AUTO 00000KT 10SM CLR 13/M05 A3040 RMK AO2 T01251052,0,0.0,0,16090.0,0,0,0,
2026-04-10 00:35:00,METAR KSVH 100035Z AUTO 00000KT 10SM CLR 12/M04 A3040 RMK AO2 T01241045,0,0.0,0,16090.0,0,0,0,
2026-04-10 00:15:00,METAR KSVH 100015Z AUTO 00000KT 10SM CLR 13/M06 A3039 RMK AO2 T01281063,0,0.0,0,16090.0,0,0,0,
2026-04-09 23:55:00,METAR KSVH 092355Z AUTO 00000KT 10SM CLR 14/M07 A3039 RMK AO2 T01431067 10190 20141,0,0.0,0,16090.0,0,0,0,
2026-04-09 23:35:00,METAR KSVH 092335Z AUTO 10003KT 10SM CLR 16/M07 A3039 RMK AO2 T01581066,0,3.0,0,16090.0,0,0,0,
2026-04-09 23:15:00,METAR KSVH 092315Z AUTO 13003KT 10SM CLR 18/M08 A3040 RMK AO2 T01761082,0,3.0,0,16090.0,0,0,0,
2026-04-09 22:55:00,METAR KSVH 092255Z AUTO 00000KT 10SM CLR 18/M09 A3040 RMK AO2 T01821087,0,0.0,0,16090.0,0,0,0,
2026-04-09 22:35:00,METAR KSVH 092235Z AUTO 00000KT 10SM CLR 19/M07 A3040 RMK AO2 T01901071,0,0.0,0,16090.0,0,0,0,
2026-04-09 22:15:00,METAR KSVH 092215Z AUTO 00000KT 10SM CLR 19/M09 A3040 RMK AO2 T01901091,0,0.0,0,16090.0,0,0,0,
2026-04-09 21:55:00,METAR KSVH 092155Z AUTO 00000KT 10SM CLR 19/M08 A3040 RMK AO2 T01901076,0,0.0,0,16090.0,0,0,0,
2026-04-09 21:35:00,METAR KSVH 092135Z AUTO 00000KT 10SM CLR 19/M07 A3040 RMK AO2 T01881070,0,0.0,0,16090.0,0,0,0,
2026-04-09 21:15:00,METAR KSVH 092115Z AUTO 00000KT 10SM CLR 19/M07 A3040 RMK AO2 T01871075,0,0.0,0,16090.0,0,0,0,
2026-04-09 20:55:00,METAR KSVH 092055Z AUTO 11005KT 10SM CLR 19/M07 A3041 RMK AO2 T01901068,0,5.0,0,16090.0,0,0,0,
2026-04-09 20:35:00,METAR KSVH 092035Z AUTO 00000KT 10SM CLR 18/M07 A3041 RMK AO2 T01841074,0,0.0,0,16090.0,0,0,0,
2026-04-09 20:15:00,METAR KSVH 092015Z AUTO 13004KT 10SM CLR 19/M07 A3041 RMK AO2 T01881066,0,4.0,0,16090.0,0,0,0,
2026-04-09 19:55:00,METAR KSVH 091955Z AUTO 00000KT 10SM CLR 18/M06 A3042 RMK AO2 T01811061,0,0.0,0,16090.0,0,0,0,
2026-04-09 19:35:00,METAR KSVH 091935Z AUTO 00000KT 10SM CLR 18/M07 A3043 RMK AO2 T01801068,0,0.0,0,16090.0,0,0,0,
2026-04-09 19:15:00,METAR KSVH 091915Z AUTO 12005KT 10SM CLR 18/M04 A3044 RMK AO2 T01771038,0,5.0,0,16090.0,0,0,0,
2026-04-09 18:55:00,METAR KSVH 091855Z AUTO 03003KT 10SM CLR 17/M06 A3045 RMK AO2 T01721059,0,3.0,0,16090.0,0,0,0,
2026-04-09 18:35:00,METAR KSVH 091835Z AUTO 10005KT 10SM CLR 17/M05 A3046 RMK AO2 T01711047,0,5.0,0,16090.0,0,0,0,
2026-04-09 18:15:00,METAR KSVH 091815Z AUTO 04003KT 10SM CLR 16/M03 A3046 RMK AO2 T01631032,0,3.0,0,16090.0,0,0,0,
2026-04-09 17:55:00,METAR KSVH 091755Z AUTO 00000KT 10SM CLR 16/M03 A3047 RMK AO2 T01611034 10161 20040,0,0.0,0,16090.0,0,0,0,
2026-04-09 17:35:00,METAR KSVH 091735Z AUTO 00000KT 10SM CLR 15/M02 A3048 RMK AO2 T01501020,0,0.0,0,16090.0,0,0,0,
2026-04-09 17:15:00,METAR KSVH 091715Z AUTO 00000KT 10SM CLR 14/M03 A3049 RMK AO2 T01441026,0,0.0,0,16090.0,0,0,0,
2026-04-09 16:55:00,METAR KSVH 091655Z AUTO 04005KT 10SM CLR 14/M01 A3049 RMK AO2 T01441014,0,5.0,0,16090.0,0,0,0,
2026-04-09 16:35:00,METAR KSVH 091635Z AUTO 00000KT 10SM CLR 14/M02 A3050 RMK AO2 T01361022,0,0.0,0,16090.0,0,0,0,
2026-04-09 16:15:00,METAR KSVH 091615Z AUTO 06003KT 10SM CLR 13/M02 A3051 RMK AO2 T01341017,0,3.0,0,16090.0,0,0,0,
2026-04-09 15:55:00,METAR KSVH 091555Z AUTO 07003KT 10SM CLR 13/M01 A3052 RMK AO2 T01281011,0,3.0,0,16090.0,0,0,0,
2026-04-09 15:35:00,METAR KSVH 091535Z AUTO 02003KT 10SM CLR 12/M01 A3053 RMK AO2 T01211012,0,3.0,0,16090.0,0,0,0,
2026-04-09 15:15:00,METAR KSVH 091515Z AUTO 05003KT 10SM CLR 11/M01 A3053 RMK AO2 T01141014,0,3.0,0,16090.0,0,0,0,
2026-04-09 14:55:00,METAR KSVH 091455Z AUTO 07004KT 10SM CLR 11/00 A3052 RMK AO2 T01121004,0,4.0,0,16090.0,0,0,0,
2026-04-09 14:35:00,METAR KSVH 091435Z AUTO 04005KT 10SM CLR 10/00 A3053 RMK AO2 T00981003,0,5.0,0,16090.0,0,0,0,
2026-04-09 14:15:00,METAR KSVH 091415Z AUTO 07005KT 10SM CLR 09/00 A3053 RMK AO2 T00941002,0,5.0,0,16090.0,0,0,0,
2026-04-09 13:55:00,METAR KSVH 091355Z AUTO 02005KT 10SM CLR 09/00 A3052 RMK AO2 T00850000,0,5.0,0,16090.0,0,0,0,
2026-04-09 13:35:00,METAR KSVH 091335Z AUTO 03005KT 10SM CLR 08/00 A3053 RMK AO2 T00830000,0,5.0,0,16090.0,0,0,0,
2026-04-09 13:15:00,METAR KSVH 091315Z AUTO 04006KT 10SM CLR 07/00 A3053 RMK AO2 T00721002,0,6.0,0,16090.0,0,0,0,
2026-04-09 12:55:00,METAR KSVH 091255Z AUTO 03007KT 10SM CLR 06/M01 A3053 RMK AO2 T00631006,0,7.0,0,16090.0,0,0,0,
2026-04-09 12:35:00,METAR KSVH 091235Z AUTO 04005KT 10SM CLR 05/M01 A3053 RMK AO2 T00541006,0,5.0,0,16090.0,0,0,0,
2026-04-09 12:15:00,METAR KSVH 091215Z AUTO 04005KT 10SM CLR 05/M01 A3053 RMK AO2 T00501007,0,5.0,0,16090.0,0,0,0,
2026-04-09 11:55:00,METAR KSVH 091155Z AUTO 03005KT 10SM CLR 04/M01 A3052 RMK AO2 T00401012 10050 20025,0,5.0,0,16090.0,0,0,0,
2026-04-09 11:35:00,METAR KSVH 091135Z AUTO 01006KT 10SM CLR 04/M02 A3052 RMK AO2 T00351016,0,6.0,0,16090.0,0,0,0,
2026-04-09 11:15:00,METAR KSVH 091115Z AUTO 01005KT 10SM CLR 03/M02 A3051 RMK AO2 T00331016,0,5.0,0,16090.0,0,0,0,
2026-04-09 10:55:00,METAR KSVH 091055Z AUTO 01004KT 10SM CLR 03/M02 A3051 RMK AO2 T00271018,0,4.0,0,16090.0,0,0,0,
2026-04-09 10:35:00,METAR KSVH 091035Z AUTO 01004KT 10SM CLR 03/M02 A3051 RMK AO2 T00341016,0,4.0,0,16090.0,0,0,0,
2026-04-09 10:15:00,METAR KSVH 091015Z AUTO 01003KT 10SM CLR 04/M01 A3050 RMK AO2 T00351015,0,3.0,0,16090.0,0,0,0,
2026-04-09 09:55:00,METAR KSVH 090955Z AUTO 01003KT 10SM CLR 04/M01 A3050 RMK AO2 T00351015,0,3.0,0,16090.0,0,0,0,
2026-04-09 09:35:00,METAR KSVH 090935Z AUTO 01004KT 10SM CLR 04/M01 A3049 RMK AO2 T00351015,0,4.0,0,16090.0,0,0,0,
2026-04-09 09:15:00,METAR KSVH 090915Z AUTO 36004KT 10SM CLR 04/M01 A3049 RMK AO2 T00351015,0,4.0,0,16090.0,0,0,0,
2026-04-09 08:55:00,METAR KSVH 090855Z AUTO 36004KT 10SM CLR 04/M01 A3048 RMK AO2 T00351013,0,4.0,0,16090.0,0,0,0,
2026-04-09 08:35:00,METAR KSVH 090835Z AUTO 36004KT 10SM CLR 04/M01 A3048 RMK AO2 T00351015,0,4.0,0,16090.0,0,0,0,
2026-04-09 08:15:00,METAR KSVH 090815Z AUTO 36003KT 10SM CLR 03/00 A3048 RMK AO2 T00251004,0,3.0,0,16090.0,0,0,0,
2026-04-09 07:55:00,METAR KSVH 090755Z AUTO 00000KT 10SM CLR 03/M01 A3047 RMK AO2 T00301007,0,0.0,0,16090.0,0,0,0,
2026-04-09 07:35:00,METAR KSVH 090735Z AUTO 00000KT 10SM CLR 04/M01 A3048 RMK AO2 T00371006,0,0.0,0,16090.0,0,0,0,
2026-04-09 07:15:00,METAR KSVH 090715Z AUTO 00000KT 10SM CLR 04/M01 A3047 RMK AO2 T00371006,0,0.0,0,16090.0,0,0,0,
2026-04-09 06:55:00,METAR KSVH 090655Z AUTO 00000KT 10SM CLR 05/M02 A3047 RMK AO2 T00491016,0,0.0,0,16090.0,0,0,0,
2026-04-09 06:35:00,METAR KSVH 090635Z AUTO 00000KT 10SM CLR 05/M01 A3048 RMK AO2 T00491015,0,0.0,0,16090.0,0,0,0,
2026-04-09 06:15:00,METAR KSVH 090615Z AUTO 03003KT 10SM CLR 05/M01 A3048 RMK AO2 T00451013,0,3.0,0,16090.0,0,0,0,
2026-04-09 05:55:00,METAR KSVH 090555Z AUTO 03003KT 10SM CLR 04/M01 A3048 RMK AO2 T00411007 10117 20041,0,3.0,0,16090.0,0,0,0,
2026-04-09 05:35:00,METAR KSVH 090535Z AUTO 02003KT 10SM CLR 05/M01 A3049 RMK AO2 T00501011,0,3.0,0,16090.0,0,0,0,
2026-04-09 05:15:00,METAR KSVH 090515Z AUTO 04003KT 10SM CLR 06/M01 A3049 RMK AO2 T00611014,0,3.0,0,16090.0,0,0,0,
2026-04-09 04:55:00,METAR KSVH 090455Z AUTO 00000KT 10SM CLR 06/M02 A3049 RMK AO2 T00641022 401530055,0,0.0,0,16090.0,0,0,0,
2026-04-09 04:35:00,METAR KSVH 090435Z AUTO 00000KT 10SM CLR 07/M02 A3049 RMK AO2 T00671025,0,0.0,0,16090.0,0,0,0,
2026-04-09 04:15:00,METAR KSVH 090415Z AUTO 04003KT 10SM CLR 07/M02 A3049 RMK AO2 T00701021,0,3.0,0,16090.0,0,0,0,
2026-04-09 03:55:00,METAR KSVH 090355Z AUTO 05003KT 10SM CLR 07/M02 A3049 RMK AO2 T00671019,0,3.0,0,16090.0,0,0,0,
2026-04-09 03:35:00,METAR KSVH 090335Z AUTO 05003KT 10SM CLR 07/M02 A3049 RMK AO2 T00661017,0,3.0,0,16090.0,0,0,0,
2026-04-09 03:15:00,METAR KSVH 090315Z AUTO 04003KT 10SM CLR 06/M02 A3049 RMK AO2 T00611017,0,3.0,0,16090.0,0,0,0,
2026-04-09 02:55:00,METAR KSVH 090255Z AUTO 00000KT 10SM CLR 07/M02 A3049 RMK AO2 T00711018,0,0.0,0,16090.0,0,0,0,
2026-04-09 02:35:00,METAR KSVH 090235Z AUTO 00000KT 10SM CLR 08/M02 A3048 RMK AO2 T00811024,0,0.0,0,16090.0,0,0,0,
2026-04-09 02:15:00,METAR KSVH 090215Z AUTO 00000KT 10SM CLR 09/M03 A3048 RMK AO2 T00891031,0,0.0,0,16090.0,0,0,0,
2026-04-09 01:55:00,METAR KSVH 090155Z AUTO 00000KT 10SM CLR 10/M03 A3048 RMK AO2 T00961035,0,0.0,0,16090.0,0,0,0,
2026-04-09 01:35:00,METAR KSVH 090135Z AUTO 00000KT 10SM CLR 10/M04 A3047 RMK AO2 T01001039,0,0.0,0,16090.0,0,0,0,
2026-04-09 01:15:00,METAR KSVH 090115Z AUTO 00000KT 10SM CLR 10/M04 A3046 RMK AO2 T01021040,0,0.0,0,16090.0,0,0,0,
2026-04-09 00:55:00,METAR KSVH 090055Z AUTO 02003KT 10SM CLR 11/M04 A3046 RMK AO2 T01051040,0,3.0,0,16090.0,0,0,0,
2026-04-09 00:35:00,METAR KSVH 090035Z AUTO 03003KT 10SM CLR 11/M04 A3045 RMK AO2 T01121041,0,3.0,0,16090.0,0,0,0,
2026-04-09 00:15:00,METAR KSVH 090015Z AUTO 03003KT 10SM CLR 11/M04 A3044 RMK AO2 T01141043,0,3.0,0,16090.0,0,0,0,
2026-04-08 23:55:00,METAR KSVH 082355Z AUTO 04003KT 10SM CLR 12/M04 A3044 RMK AO2 T01171041 10153 20117,0,3.0,0,16090.0,0,0,0,
2026-04-08 23:35:00,METAR KSVH 082335Z AUTO 03003KT 10SM CLR 13/M04 A3044 RMK AO2 T01251042,0,3.0,0,16090.0,0,0,0,
2026-04-08 23:15:00,METAR KSVH 082315Z AUTO 07003KT 10SM CLR 13/M03 A3044 RMK AO2 T01271034,0,3.0,0,16090.0,0,0,0,
2026-04-08 22:55:00,METAR KSVH 082255Z AUTO 07004KT 10SM CLR 14/M04 A3044 RMK AO2 T01351042,0,4.0,0,16090.0,0,0,0,
2026-04-08 22:35:00,METAR KSVH 082235Z AUTO 07003KT 10SM CLR 14/M03 A3044 RMK AO2 T01431033,0,3.0,0,16090.0,0,0,0,
2026-04-08 22:15:00,METAR KSVH 082215Z AUTO 06006KT 10SM CLR 15/M04 A3044 RMK AO2 T01501039,0,6.0,0,16090.0,0,0,0,
2026-04-08 21:55:00,METAR KSVH 082155Z AUTO 06005KT 10SM CLR 15/M04 A3044 RMK AO2 T01501042,0,5.0,0,16090.0,0,0,0,
2026-04-08 21:35:00,METAR KSVH 082135Z AUTO 09005KT 10SM CLR 15/M04 A3044 RMK AO2 T01481040,0,5.0,0,16090.0,0,0,0,
2026-04-08 21:15:00,METAR KSVH 082115Z AUTO 08004KT 10SM CLR 15/M05 A3044 RMK AO2 T01491048,0,4.0,0,16090.0,0,0,0,
2026-04-08 20:55:00,METAR KSVH 082055Z AUTO 09007KT 10SM CLR 15/M04 A3044 RMK AO2 T01521039,0,7.0,0,16090.0,0,0,0,
2026-04-08 20:35:00,METAR KSVH 082035Z AUTO 12005KT 10SM CLR 15/M05 A3044 RMK AO2 T01511048,0,5.0,0,16090.0,0,0,0,
2026-04-08 20:15:00,METAR KSVH 082015Z AUTO 10005KT 10SM CLR 15/M04 A3045 RMK AO2 T01491044,0,5.0,0,16090.0,0,0,0,
2026-04-08 19:55:00,METAR KSVH 081955Z AUTO 11007KT 10SM CLR 15/M04 A3045 RMK AO2 T01521042,0,7.0,0,16090.0,0,0,0,
2026-04-08 19:35:00,METAR KSVH 081935Z AUTO 08005KT 10SM CLR 15/M05 A3046 RMK AO2 T01491047,0,5.0,0,16090.0,0,0,0,
2026-04-08 19:15:00,METAR KSVH 081915Z AUTO 06005KT 10SM CLR 15/M05 A3046 RMK AO2 T01511046,0,5.0,0,16090.0,0,0,0,
2026-04-08 18:55:00,METAR KSVH 081855Z AUTO 11006KT 10SM CLR 15/M05 A3046 RMK AO2 T01471049,0,6.0,0,16090.0,0,0,0,
2026-04-08 18:35:00,METAR KSVH 081835Z AUTO 11003KT 10SM CLR 14/M04 A3047 RMK AO2 T01441044,0,3.0,0,16090.0,0,0,0,
2026-04-08 18:15:00,METAR KSVH 081815Z AUTO 06003KT 10SM CLR 14/M05 A3048 RMK AO2 T01401049,0,3.0,0,16090.0,0,0,0,
2026-04-08 17:55:00,METAR KSVH 081755Z AUTO 07006KT 10SM CLR 14/M05 A3048 RMK AO2 T01351050 10137 20062,0,6.0,0,16090.0,0,0,0,
2026-04-08 17:35:00,METAR KSVH 081735Z AUTO 08005KT 10SM CLR 13/M06 A3049 RMK AO2 T01311056,0,5.0,0,16090.0,0,0,0,
2026-04-08 17:15:00,METAR KSVH 081715Z AUTO 05007KT 360V100 10SM CLR 13/M05 A3050 RMK AO2 T01291047,0,7.0,0,16090.0,0,0,0,
2026-04-08 16:55:00,METAR KSVH 081655Z AUTO 07007KT 030V090 10SM CLR 13/M05 A3050 RMK AO2 T01251053,0,7.0,0,16090.0,0,0,0,
2026-04-08 16:35:00,METAR KSVH 081635Z AUTO 03006KT 10SM CLR 12/M06 A3051 RMK AO2 T01191058,0,6.0,0,16090.0,0,0,0,
2026-04-08 16:15:00,METAR KSVH 081615Z AUTO 09009KT 10SM CLR 12/M06 A3051 RMK AO2 T01161060,0,9.0,0,16090.0,0,0,0,
2026-04-08 15:55:00,METAR KSVH 081555Z AUTO 04006KT 10SM CLR 11/M06 A3052 RMK AO2 T01121059,0,6.0,0,16090.0,0,0,0,
2026-04-08 15:35:00,METAR KSVH 081535Z AUTO 06008G14KT 10SM CLR 11/M07 A3052 RMK AO2 T01101068,0,8.0,1,16090.0,0,0,0,
2026-04-08 15:15:00,METAR KSVH 081515Z AUTO 07006KT 10SM CLR 11/M07 A3052 RMK AO2 T01071068,0,6.0,0,16090.0,0,0,0,
2026-04-08 14:55:00,METAR KSVH 081455Z AUTO 06004KT 10SM CLR 11/M06 A3052 RMK AO2 T01051058,0,4.0,0,16090.0,0,0,0,
2026-04-08 14:35:00,METAR KSVH 081435Z AUTO 03011G16KT 010V080 10SM CLR 10/M06 A3051 RMK AO2 T00981059,0,11.0,1,16090.0,0,0,0,
2026-04-08 14:15:00,METAR KSVH 081415Z AUTO 06007KT 10SM CLR 10/M06 A3051 RMK AO2 T00961064,0,7.0,0,16090.0,0,0,0,
2026-04-08 13:55:00,METAR KSVH 081355Z AUTO 04010G16KT 10SM CLR 09/M06 A3051 RMK AO2 T00881063,0,10.0,1,16090.0,0,0,0,
2026-04-08 13:35:00,METAR KSVH 081335Z AUTO 06009G14KT 10SM CLR 09/M06 A3051 RMK AO2 T00871063,0,9.0,1,16090.0,0,0,0,
2026-04-08 13:15:00,METAR KSVH 081315Z AUTO 06010G15KT 10SM CLR 08/M07 A3051 RMK AO2 T00781066,0,10.0,1,16090.0,0,0,0,
2026-04-08 12:55:00,METAR KSVH 081255Z AUTO 05008KT 10SM CLR 07/M07 A3051 RMK AO2 T00741069,0,8.0,0,16090.0,0,0,0,
2026-04-08 12:35:00,METAR KSVH 081235Z AUTO 03012KT 07/M07 A3050 RMK AO2 T00701075 PWINO,0,12.0,0,,0,0,0,
2026-04-08 12:15:00,METAR KSVH 081215Z AUTO 04006KT 10SM CLR 07/M07 A3049 RMK AO2 T00661071,0,6.0,0,16090.0,0,0,0,
2026-04-08 11:55:00,METAR KSVH 081155Z AUTO 03009G14KT 10SM CLR 06/M06 A3048 RMK AO2 70005 T00621064 10097 20055,0,9.0,1,16090.0,0,0,0,
2026-04-08 11:35:00,METAR KSVH 081135Z AUTO 04008KT 10SM CLR 06/M06 A3047 RMK AO2 T00571063,0,8.0,0,16090.0,0,0,0,
2026-04-08 11:15:00,METAR KSVH 081115Z AUTO 04008KT 10SM CLR 06/M06 A3047 RMK AO2 T00551060,0,8.0,0,16090.0,0,0,0,
2026-04-08 10:55:00,METAR KSVH 081055Z AUTO 04005KT 10SM CLR 06/M06 A3046 RMK AO2 T00571057,0,5.0,0,16090.0,0,0,0,
2026-04-08 10:35:00,METAR KSVH 081035Z AUTO 04006KT 10SM CLR 06/M05 A3045 RMK AO2 T00601051,0,6.0,0,16090.0,0,0,0,
2026-04-08 10:15:00,METAR KSVH 081015Z AUTO 04007KT 10SM CLR 06/M04 A3044 RMK AO2 T00621040,0,7.0,0,16090.0,0,0,0,
2026-04-08 09:55:00,METAR KSVH 080955Z AUTO 03007KT 10SM CLR 06/M03 A3042 RMK AO2 T00641030,0,7.0,0,16090.0,0,0,0,
2026-04-08 09:35:00,METAR KSVH 080935Z AUTO 04006KT 10SM CLR 07/M02 A3041 RMK AO2 T00661018,0,6.0,0,16090.0,0,0,0,
2026-04-08 09:15:00,METAR KSVH 080915Z AUTO 04005KT 10SM CLR 07/M01 A3040 RMK AO2 T00681011,0,5.0,0,16090.0,0,0,0,
2026-04-08 08:55:00,METAR KSVH 080855Z AUTO 04004KT 10SM CLR 07/M01 A3040 RMK AO2 T00701007,0,4.0,0,16090.0,0,0,0,
2026-04-08 08:35:00,METAR KSVH 080835Z AUTO 05005KT 10SM CLR 08/M01 A3039 RMK AO2 T00751010,0,5.0,0,16090.0,0,0,0,
2026-04-08 08:15:00,METAR KSVH 080815Z AUTO 05004KT 10SM CLR 08/M01 A3038 RMK AO2 T00781014,0,4.0,0,16090.0,0,0,0,
2026-04-08 07:55:00,METAR KSVH 080755Z AUTO 05006KT 10SM CLR 08/M02 A3037 RMK AO2 T00831021,0,6.0,0,16090.0,0,0,0,
2026-04-08 07:35:00,METAR KSVH 080735Z AUTO 04007KT 10SM CLR 08/M03 A3036 RMK AO2 T00831031,0,7.0,0,16090.0,0,0,0,
2026-04-08 07:15:00,METAR KSVH 080715Z AUTO 04006KT 10SM CLR 09/M04 A3036 RMK AO2 T00871038,0,6.0,0,16090.0,0,0,0,
2026-04-08 06:55:00,METAR KSVH 080655Z AUTO 04006KT 10SM CLR 09/M04 A3035 RMK AO2 T00921041,0,6.0,0,16090.0,0,0,0,
2026-04-08 06:35:00,METAR KSVH 080635Z AUTO 03007KT 10SM CLR 09/M04 A3034 RMK AO2 T00921042,0,7.0,0,16090.0,0,0,0,
2026-04-08 06:15:00,METAR KSVH 080615Z AUTO 03006KT 10SM CLR 10/M04 A3034 RMK AO2 T00961045,0,6.0,0,16090.0,0,0,0,
2026-04-08 05:55:00,METAR KSVH 080555Z AUTO 03006KT 10SM CLR 10/M04 A3033 RMK AO2 T00951044 10146 20095,0,6.0,0,16090.0,0,0,0,
2026-04-08 05:35:00,METAR KSVH 080535Z AUTO 02003KT 10SM CLR 10/M05 A3033 RMK AO2 T00991046,0,3.0,0,16090.0,0,0,0,
2026-04-08 05:15:00,METAR KSVH 080515Z AUTO 04005KT 10SM CLR 10/M05 A3033 RMK AO2 T01041050,0,5.0,0,16090.0,0,0,0,
2026-04-08 04:55:00,METAR KSVH 080455Z AUTO 05005KT 10SM CLR 11/M04 A3033 RMK AO2 T01071045 402060056,0,5.0,0,16090.0,0,0,0,
2026-04-08 04:35:00,METAR KSVH 080435Z AUTO 05004KT 10SM CLR 11/M04 A3033 RMK AO2 T01111038,0,4.0,0,16090.0,0,0,0,
2026-04-08 04:15:00,METAR KSVH 080415Z AUTO 04005KT 10SM CLR 12/M04 A3032 RMK AO2 T01151037,0,5.0,0,16090.0,0,0,0,
2026-04-08 03:55:00,METAR KSVH 080355Z AUTO 04006KT 10SM CLR 12/M03 A3032 RMK AO2 T01171028,0,6.0,0,16090.0,0,0,0,
2026-04-08 03:35:00,METAR KSVH 080335Z AUTO 04005KT 10SM CLR 12/M01 A3032 RMK AO2 T01161015,0,5.0,0,16090.0,0,0,0,
2026-04-08 03:15:00,METAR KSVH 080315Z AUTO 04004KT 10SM CLR 12/M01 A3032 RMK AO2 T01201010,0,4.0,0,16090.0,0,0,0,
2026-04-08 02:55:00,METAR KSVH 080255Z AUTO 06004KT 10SM CLR 13/M01 A3031 RMK AO2 T01271013,0,4.0,0,16090.0,0,0,0,
2026-04-08 02:35:00,METAR KSVH 080235Z AUTO 05007KT 10SM CLR 12/00 A3030 RMK AO2 T01241004,0,7.0,0,16090.0,0,0,0,
2026-04-08 02:15:00,METAR KSVH 080215Z AUTO 05005KT 10SM CLR 12/00 A3029 RMK AO2 T01240002,0,5.0,0,16090.0,0,0,0,
2026-04-08 01:55:00,METAR KSVH 080155Z AUTO 05006KT 10SM CLR 13/00 A3029 RMK AO2 T01290002,0,6.0,0,16090.0,0,0,0,
2026-04-08 01:35:00,METAR KSVH 080135Z AUTO 05004KT 10SM CLR 14/00 A3028 RMK AO2 T01350001,0,4.0,0,16090.0,0,0,0,
2026-04-08 01:15:00,METAR KSVH 080115Z AUTO 06004KT 10SM CLR 14/00 A3026 RMK AO2 T01350000,0,4.0,0,16090.0,0,0,0,
2026-04-08 00:55:00,METAR KSVH 080055Z AUTO 06004KT 10SM CLR 14/00 A3026 RMK AO2 T01400000,0,4.0,0,16090.0,0,0,0,
2026-04-08 00:35:00,METAR KSVH 080035Z AUTO 07004KT 10SM CLR 13/00 A3024 RMK AO2 T01290003,0,4.0,0,16090.0,0,0,0,
2026-04-08 00:15:00,METAR KSVH 080015Z AUTO 08003KT 10SM CLR 14/00 A3023 RMK AO2 T01390000,0,3.0,0,16090.0,0,0,0,
2026-04-07 23:55:00,METAR KSVH 072355Z AUTO 09004KT 10SM CLR 15/00 A3023 RMK AO2 60005 T01460000 10206 20146,0,4.0,0,16090.0,0,0,0,
2026-04-07 23:35:00,METAR KSVH 072335Z AUTO 10003KT 10SM CLR 17/00 A3022 RMK AO2 T01711002,0,3.0,0,16090.0,0,0,0,
2026-04-07 23:15:00,METAR KSVH 072315Z AUTO 12005KT 10SM CLR 18/00 A3022 RMK AO2 T01801004,0,5.0,0,16090.0,0,0,0,
2026-04-07 22:55:00,METAR KSVH 072255Z AUTO 06006KT 10SM CLR 19/M01 A3021 RMK AO2 T01901006,0,6.0,0,16090.0,0,0,0,
2026-04-07 22:35:00,METAR KSVH 072235Z AUTO 09005KT 10SM CLR 19/00 A3021 RMK AO2 T01921004,0,5.0,0,16090.0,0,0,0,
2026-04-07 22:15:00,METAR KSVH 072215Z AUTO 04007KT 10SM CLR 19/M01 A3021 RMK AO2 T01931011,0,7.0,0,16090.0,0,0,0,
2026-04-07 21:55:00,METAR KSVH 072155Z AUTO 03005KT 10SM CLR 20/00 A3020 RMK AO2 P0005 T01991002,0,5.0,0,16090.0,0,0,0,
2026-04-07 21:35:00,METAR KSVH 072135Z AUTO 01003KT 10SM CLR 20/00 A3020 RMK AO2 P0005 T01991003,0,3.0,0,16090.0,0,0,0,
2026-04-07 20:30:00,METAR KSVH 072030Z AUTO 01004KT 10SM CLR 21/01 A3021 RMK AO2 T02060010,0,4.0,0,16090.0,0,0,0,
2026-04-07 20:15:00,METAR KSVH 072015Z AUTO 01004KT 10SM 20/01 A3021 RMK AO2 T02000010,0,4.0,0,16090.0,0,0,0,
2026-04-07 19:55:00,METAR KSVH 071955Z AUTO 08004KT 10SM 20/01 A3022 RMK AO2 T02000005,0,4.0,0,16090.0,0,0,0,
2026-04-07 19:30:00,METAR KSVH 071930Z AUTO 04007KT 20/01 A3022 RMK AO2 T01970008,0,7.0,0,,0,0,0,
2026-04-07 19:15:00,METAR KSVH 071915Z AUTO 00000KT 10SM CLR 19/00 A3022 RMK AO2 T01921001,0,0.0,0,16090.0,0,0,0,
2026-04-07 18:55:00,METAR KSVH 071855Z AUTO 07006KT 10SM CLR 19/02 A3023 RMK AO2 T01930015,0,6.0,0,16090.0,0,0,0,
2026-04-07 18:35:00,METAR KSVH 071835Z AUTO 03007KT 10SM CLR 18/00 A3024 RMK AO2 T01830002,0,7.0,0,16090.0,0,0,0,
2026-04-07 18:15:00,METAR KSVH 071815Z AUTO 08003KT 10SM CLR 18/00 A3025 RMK AO2 T01841002,0,3.0,0,16090.0,0,0,0,
2026-04-07 17:55:00,METAR KSVH 071755Z AUTO 35006KT 10SM CLR 18/00 A3025 RMK AO2 T01820001 10186 20093,0,6.0,0,16090.0,0,0,0,
2026-04-07 17:35:00,METAR KSVH 071735Z AUTO 05004KT 10SM CLR 18/00 A3025 RMK AO2 T01840004,0,4.0,0,16090.0,0,0,0,
2026-04-07 17:15:00,METAR KSVH 071715Z AUTO 04003KT 10SM CLR 18/00 A3026 RMK AO2 T01751001,0,3.0,0,16090.0,0,0,0,
2026-04-07 16:55:00,METAR KSVH 071655Z AUTO 07006KT 10SM CLR 17/00 A3026 RMK AO2 T01731002,0,6.0,0,16090.0,0,0,0,
2026-04-07 16:35:00,METAR KSVH 071635Z AUTO 03010KT 10SM CLR 17/00 A3027 RMK AO2 T01710003,0,10.0,0,16090.0,0,0,0,
2026-04-07 16:15:00,METAR KSVH 071615Z AUTO 03006KT 10SM CLR 16/00 A3028 RMK AO2 T01611002,0,6.0,0,16090.0,0,0,0,
2026-04-07 15:55:00,METAR KSVH 071555Z AUTO 04005KT 10SM CLR 16/00 A3028 RMK AO2 T01571001,0,5.0,0,16090.0,0,0,0,
2026-04-07 15:35:00,METAR KSVH 071535Z AUTO 03008KT 10SM CLR 15/M01 A3029 RMK AO2 T01511006,0,8.0,0,16090.0,0,0,0,
2026-04-07 15:15:00,METAR KSVH 071515Z AUTO 03007KT 10SM CLR 15/00 A3029 RMK AO2 T01490001,0,7.0,0,16090.0,0,0,0,
2026-04-07 14:55:00,METAR KSVH 071455Z AUTO 02007KT 10SM CLR 14/00 A3028 RMK AO2 T01400001,0,7.0,0,16090.0,0,0,0,
2026-04-07 14:35:00,METAR KSVH 071435Z AUTO 01012G18KT 10SM CLR 14/00 A3027 RMK AO2 T01361001,0,12.0,1,16090.0,0,0,0,
2026-04-07 14:15:00,METAR KSVH 071415Z AUTO 02011G15KT 10SM CLR 14/01 A3026 RMK AO2 T01360005,0,11.0,1,16090.0,0,0,0,
2026-04-07 13:55:00,METAR KSVH 071355Z AUTO 01009G17KT 10SM CLR 13/01 A3025 RMK AO2 T01310006,0,9.0,1,16090.0,0,0,0,
2026-04-07 13:35:00,METAR KSVH 071335Z AUTO 02007KT 10SM CLR 13/01 A3025 RMK AO2 T01300008,0,7.0,0,16090.0,0,0,0,
2026-04-07 13:15:00,METAR KSVH 071315Z AUTO 01005KT 10SM CLR 12/02 A3025 RMK AO2 T01220021,0,5.0,0,16090.0,0,0,0,
2026-04-07 12:55:00,METAR KSVH 071255Z AUTO 03005KT 10SM CLR 11/03 A3024 RMK AO2 T01120028,0,5.0,0,16090.0,0,0,0,
2026-04-07 12:35:00,METAR KSVH 071235Z AUTO 04004KT 10SM CLR 11/03 A3023 RMK AO2 T01050033,0,4.0,0,16090.0,0,0,0,
2026-04-07 12:15:00,METAR KSVH 071215Z AUTO 36004KT 10SM CLR 10/02 A3022 RMK AO2 T01040019,0,4.0,0,16090.0,0,0,0,
2026-04-07 11:55:00,METAR KSVH 071155Z AUTO 36005KT 10SM CLR 09/03 A3022 RMK AO2 T00920027 10096 20056,0,5.0,0,16090.0,0,0,0,
2026-04-07 11:35:00,METAR KSVH 071135Z AUTO 36004KT 10SM CLR 09/03 A3020 RMK AO2 T00890028,0,4.0,0,16090.0,0,0,0,
2026-04-07 11:15:00,METAR KSVH 071115Z AUTO 00000KT 10SM CLR 07/04 A3019 RMK AO2 T00690037,0,0.0,0,16090.0,0,0,0,
2026-04-07 10:55:00,METAR KSVH 071055Z AUTO 00000KT 10SM CLR 07/04 A3019 RMK AO2 T00660042,0,0.0,0,16090.0,0,0,0,
2026-04-07 10:35:00,METAR KSVH 071035Z AUTO 05004KT 10SM CLR 06/05 A3019 RMK AO2 T00580047,0,4.0,0,16090.0,0,0,0,
2026-04-07 10:15:00,METAR KSVH 071015Z AUTO 00000KT 10SM CLR 07/04 A3018 RMK AO2 T00660044,0,0.0,0,16090.0,0,0,0,
2026-04-07 09:55:00,METAR KSVH 070955Z AUTO 28003KT 10SM CLR 07/05 A3017 RMK AO2 T00710046,0,3.0,0,16090.0,0,0,0,
2026-04-07 09:35:00,METAR KSVH 070935Z AUTO 29003KT 10SM CLR 07/05 A3017 RMK AO2 T00740047,0,3.0,0,16090.0,0,0,0,
2026-04-07 09:15:00,METAR KSVH 070915Z AUTO 30003KT 10SM CLR 07/05 A3017 RMK AO2 T00730050,0,3.0,0,16090.0,0,0,0,
2026-04-07 08:55:00,METAR KSVH 070855Z AUTO 00000KT 10SM CLR 07/05 A3017 RMK AO2 T00650052,0,0.0,0,16090.0,0,0,0,
2026-04-07 08:35:00,METAR KSVH 070835Z AUTO 28003KT 10SM CLR 07/05 A3017 RMK AO2 T00680048,0,3.0,0,16090.0,0,0,0,
2026-04-07 08:15:00,METAR KSVH 070815Z AUTO 27004KT 10SM CLR 07/05 A3016 RMK AO2 T00740054,0,4.0,0,16090.0,0,0,0,
2026-04-07 07:55:00,METAR KSVH 070755Z AUTO 27003KT 10SM CLR 08/05 A3016 RMK AO2 T00820046,0,3.0,0,16090.0,0,0,0,
2026-04-07 07:35:00,METAR KSVH 070735Z AUTO 28004KT 10SM CLR 08/04 A3016 RMK AO2 T00820044,0,4.0,0,16090.0,0,0,0,
2026-04-07 07:15:00,METAR KSVH 070715Z AUTO 00000KT 10SM CLR 08/04 A3016 RMK AO2 T00810044,0,0.0,0,16090.0,0,0,0,
2026-04-07 06:55:00,METAR KSVH 070655Z AUTO 25004KT 10SM CLR 10/05 A3016 RMK AO2 T00950045,0,4.0,0,16090.0,0,0,0,
2026-04-07 06:35:00,METAR KSVH 070635Z AUTO 25004KT 10SM CLR 10/05 A3017 RMK AO2 T00950048,0,4.0,0,16090.0,0,0,0,
2026-04-07 06:15:00,METAR KSVH 070615Z AUTO 00000KT 10SM CLR 09/05 A3017 RMK AO2 T00920049,0,0.0,0,16090.0,0,0,0,
2026-04-07 05:55:00,METAR KSVH 070555Z AUTO 25003KT 10SM CLR 09/05 A3017 RMK AO2 T00860047 10141 20084,0,3.0,0,16090.0,0,0,0,
2026-04-07 05:35:00,METAR KSVH 070535Z AUTO 26003KT 10SM CLR 09/05 A3017 RMK AO2 T00900046,0,3.0,0,16090.0,0,0,0,
2026-04-07 05:15:00,METAR KSVH 070515Z AUTO 24003KT 10SM CLR 10/05 A3017 RMK AO2 T01000045,0,3.0,0,16090.0,0,0,0,
2026-04-07 04:55:00,METAR KSVH 070455Z AUTO 23004KT 10SM CLR 10/05 A3017 RMK AO2 T00990047 401810080,0,4.0,0,16090.0,0,0,0,
2026-04-07 04:35:00,METAR KSVH 070435Z AUTO 22004KT 10SM CLR 10/05 A3017 RMK AO2 T00970053,0,4.0,0,16090.0,0,0,0,
2026-04-07 04:15:00,METAR KSVH 070415Z AUTO 22004KT 10SM CLR 10/05 A3017 RMK AO2 T00960053,0,4.0,0,16090.0,0,0,0,
2026-04-07 03:55:00,METAR KSVH 070355Z AUTO 22003KT 10SM CLR 10/06 A3017 RMK AO2 T01000056,0,3.0,0,16090.0,0,0,0,
2026-04-07 03:35:00,METAR KSVH 070335Z AUTO 23003KT 10SM CLR 11/05 A3017 RMK AO2 T01110046,0,3.0,0,16090.0,0,0,0,
2026-04-07 03:15:00,METAR KSVH 070315Z AUTO 23003KT 10SM CLR 12/04 A3017 RMK AO2 T01150040,0,3.0,0,16090.0,0,0,0,
2026-04-07 02:55:00,METAR KSVH 070255Z AUTO 22004KT 10SM CLR 11/04 A3017 RMK AO2 T01140040,0,4.0,0,16090.0,0,0,0,
2026-04-07 02:35:00,METAR KSVH 070235Z AUTO 19004KT 10SM CLR 12/04 A3017 RMK AO2 T01210036,0,4.0,0,16090.0,0,0,0,
2026-04-07 02:15:00,METAR KSVH 070215Z AUTO 22004KT 10SM CLR 12/04 A3017 RMK AO2 T01210038,0,4.0,0,16090.0,0,0,0,
2026-04-07 01:55:00,METAR KSVH 070155Z AUTO 23003KT 10SM CLR 12/03 A3017 RMK AO2 T01220033,0,3.0,0,16090.0,0,0,0,
2026-04-07 01:35:00,METAR KSVH 070135Z AUTO 22003KT 10SM CLR 13/03 A3017 RMK AO2 T01270031,0,3.0,0,16090.0,0,0,0,
2026-04-07 01:15:00,METAR KSVH 070115Z AUTO 20004KT 10SM CLR 13/03 A3016 RMK AO2 T01280027,0,4.0,0,16090.0,0,0,0,
2026-04-07 00:55:00,METAR KSVH 070055Z AUTO 20004KT 10SM CLR 13/03 A3015 RMK AO2 T01310025,0,4.0,0,16090.0,0,0,0,
2026-04-07 00:35:00,METAR KSVH 070035Z AUTO 21003KT 10SM CLR 13/03 A3014 RMK AO2 T01330026,0,3.0,0,16090.0,0,0,0,
2026-04-07 00:15:00,METAR KSVH 070015Z AUTO 20004KT 10SM CLR 14/02 A3013 RMK AO2 T01370023,0,4.0,0,16090.0,0,0,0,
2026-04-06 23:55:00,METAR KSVH 062355Z AUTO 19003KT 10SM CLR 14/02 A3013 RMK AO2 T01410020 10181 20141,0,3.0,0,16090.0,0,0,0,
2026-04-06 23:35:00,METAR KSVH 062335Z AUTO 00000KT 10SM CLR 15/02 A3013 RMK AO2 T01470018,0,0.0,0,16090.0,0,0,0,
2026-04-06 23:15:00,METAR KSVH 062315Z AUTO 20004KT 10SM CLR 15/02 A3013 RMK AO2 T01530016,0,4.0,0,16090.0,0,0,0,
2026-04-06 22:55:00,METAR KSVH 062255Z AUTO 21003KT 10SM CLR 16/01 A3013 RMK AO2 T01580013,0,3.0,0,16090.0,0,0,0,
2026-04-06 22:35:00,METAR KSVH 062235Z AUTO 18004KT 10SM CLR 16/01 A3012 RMK AO2 T01620013,0,4.0,0,16090.0,0,0,0,
2026-04-06 22:15:00,METAR KSVH 062215Z AUTO 16005KT 10SM CLR 17/01 A3012 RMK AO2 T01690013,0,5.0,0,16090.0,0,0,0,
2026-04-06 21:55:00,METAR KSVH 062155Z AUTO 18003KT 10SM CLR 17/01 A3011 RMK AO2 T01710006,0,3.0,0,16090.0,0,0,0,
2026-04-06 21:35:00,METAR KSVH 062135Z AUTO 14006KT 10SM CLR 17/01 A3011 RMK AO2 T01710006,0,6.0,0,16090.0,0,0,0,
2026-04-06 21:15:00,METAR KSVH 062115Z AUTO 16005KT 10SM CLR 17/01 A3011 RMK AO2 T01710009,0,5.0,0,16090.0,0,0,0,
2026-04-06 20:55:00,METAR KSVH 062055Z AUTO 14005KT 10SM CLR 17/00 A3012 RMK AO2 T01720004,0,5.0,0,16090.0,0,0,0,
2026-04-06 20:35:00,METAR KSVH 062035Z AUTO 13008KT 10SM CLR 18/01 A3012 RMK AO2 T01760007,0,8.0,0,16090.0,0,0,0,
2026-04-06 20:15:00,METAR KSVH 062015Z AUTO 21003KT 10SM CLR 18/00 A3012 RMK AO2 T01800002,0,3.0,0,16090.0,0,0,0,
2026-04-06 19:55:00,METAR KSVH 061955Z AUTO 23003KT 10SM CLR 18/00 A3014 RMK AO2 T01771001,0,3.0,0,16090.0,0,0,0,
2026-04-06 19:35:00,METAR KSVH 061935Z AUTO 00000KT 10SM CLR 18/00 A3014 RMK AO2 T01781005,0,0.0,0,16090.0,0,0,0,
2026-04-06 19:15:00,METAR KSVH 061915Z AUTO 21007KT 10SM CLR 18/00 A3015 RMK AO2 T01760001,0,7.0,0,16090.0,0,0,0,
2026-04-06 18:55:00,METAR KSVH 061855Z AUTO 11003KT 10SM CLR 17/00 A3016 RMK AO2 T01710000,0,3.0,0,16090.0,0,0,0,
2026-04-06 18:35:00,METAR KSVH 061835Z AUTO 00000KT 10SM CLR 17/00 A3017 RMK AO2 T01680003,0,0.0,0,16090.0,0,0,0,
2026-04-06 18:15:00,METAR KSVH 061815Z AUTO 24003KT 10SM CLR 16/00 A3018 RMK AO2 T01631003,0,3.0,0,16090.0,0,0,0,
2026-04-06 17:55:00,METAR KSVH 061755Z AUTO 09003KT 10SM CLR 16/00 A3019 RMK AO2 T01610004 10162 20083,0,3.0,0,16090.0,0,0,0,
2026-04-06 17:35:00,METAR KSVH 061735Z AUTO 00000KT 10SM CLR 15/M01 A3020 RMK AO2 T01491006,0,0.0,0,16090.0,0,0,0,
2026-04-06 17:15:00,METAR KSVH 061715Z AUTO 00000KT 10SM CLR 15/00 A3021 RMK AO2 T01501005,0,0.0,0,16090.0,0,0,0,
2026-04-06 16:55:00,METAR KSVH 061655Z AUTO 05005KT 10SM CLR 15/00 A3022 RMK AO2 T01451003,0,5.0,0,16090.0,0,0,0,
2026-04-06 16:35:00,METAR KSVH 061635Z AUTO 00000KT 10SM CLR 14/M01 A3022 RMK AO2 T01421007,0,0.0,0,16090.0,0,0,0,
2026-04-06 16:15:00,METAR KSVH 061615Z AUTO 06004KT 10SM CLR 14/00 A3023 RMK AO2 T01410003,0,4.0,0,16090.0,0,0,0,
2026-04-06 15:55:00,METAR KSVH 061555Z AUTO 03006KT 10SM CLR 13/00 A3024 RMK AO2 T01330003,0,6.0,0,16090.0,0,0,0,
2026-04-06 15:35:00,METAR KSVH 061535Z AUTO 00000KT 10SM CLR 13/00 A3024 RMK AO2 T01251003,0,0.0,0,16090.0,0,0,0,
2026-04-06 14:55:00,METAR KSVH 061455Z AUTO 01004KT 10SM CLR 12/00 A3024 RMK AO2 T01230000,0,4.0,0,16090.0,0,0,0,
2026-04-06 14:35:00,METAR KSVH 061435Z AUTO 04008KT 10SM CLR 12/00 A3024 RMK AO2 T01160003,0,8.0,0,16090.0,0,0,0,
2026-04-06 14:15:00,METAR KSVH 061415Z AUTO 00000KT 10SM CLR 11/00 A3023 RMK AO2 T01071002,0,0.0,0,16090.0,0,0,0,
2026-04-06 13:55:00,METAR KSVH 061355Z AUTO 04005KT 10SM CLR 11/01 A3023 RMK AO2 T01120007,0,5.0,0,16090.0,0,0,0,
2026-04-06 13:35:00,METAR KSVH 061335Z AUTO 05004KT 10SM CLR 10/00 A3023 RMK AO2 T01020004,0,4.0,0,16090.0,0,0,0,
2026-04-06 13:15:00,METAR KSVH 061315Z AUTO 02005KT 10SM CLR 10/01 A3022 RMK AO2 T01000005,0,5.0,0,16090.0,0,0,0,
2026-04-06 12:55:00,METAR KSVH 061255Z AUTO 02004KT 10SM CLR 10/01 A3022 RMK AO2 T00950007,0,4.0,0,16090.0,0,0,0,
2026-04-06 12:35:00,METAR KSVH 061235Z AUTO 01004KT 10SM CLR 09/01 A3021 RMK AO2 T00920009,0,4.0,0,16090.0,0,0,0,
2026-04-06 12:15:00,METAR KSVH 061215Z AUTO 35003KT 10SM CLR 09/00 A3020 RMK AO2 T00850004,0,3.0,0,16090.0,0,0,0,
2026-04-06 11:55:00,METAR KSVH 061155Z AUTO 00000KT 10SM CLR 08/00 A3019 RMK AO2 70010 T00830002 10117 20080,0,0.0,0,16090.0,0,0,0,
2026-04-06 11:35:00,METAR KSVH 061135Z AUTO 00000KT 10SM CLR 08/00 A3018 RMK AO2 T00820000,0,0.0,0,16090.0,0,0,0,
2026-04-06 11:15:00,METAR KSVH 061115Z AUTO 35004KT 10SM CLR 08/00 A3017 RMK AO2 T00800000,0,4.0,0,16090.0,0,0,0,
2026-04-06 10:55:00,METAR KSVH 061055Z AUTO 34003KT 10SM CLR 08/00 A3017 RMK AO2 T00820001,0,3.0,0,16090.0,0,0,0,
2026-04-06 10:35:00,METAR KSVH 061035Z AUTO 34004KT 10SM CLR 08/00 A3016 RMK AO2 T00830000,0,4.0,0,16090.0,0,0,0,
2026-04-06 10:15:00,METAR KSVH 061015Z AUTO 00000KT 10SM CLR 09/00 A3015 RMK AO2 T00850000,0,0.0,0,16090.0,0,0,0,
2026-04-06 09:55:00,METAR KSVH 060955Z AUTO 34005KT 10SM CLR 09/00 A3014 RMK AO2 T00920000,0,5.0,0,16090.0,0,0,0,
2026-04-06 09:35:00,METAR KSVH 060935Z AUTO 35005KT 10SM CLR 09/00 A3014 RMK AO2 T00900000,0,5.0,0,16090.0,0,0,0,
2026-04-06 09:15:00,METAR KSVH 060915Z AUTO 36007KT 10SM CLR 09/00 A3014 RMK AO2 T00941002,0,7.0,0,16090.0,0,0,0,
2026-04-06 08:55:00,METAR KSVH 060855Z AUTO 35007G14KT 10SM CLR 10/00 A3013 RMK AO2 T00961002,0,7.0,1,16090.0,0,0,0,
2026-04-06 08:35:00,METAR KSVH 060835Z AUTO 35008G16KT 10SM CLR 10/00 A3013 RMK AO2 T01011001,0,8.0,1,16090.0,0,0,0,
2026-04-06 08:15:00,METAR KSVH 060815Z AUTO 34005KT 10SM CLR 10/00 A3013 RMK AO2 T01020001,0,5.0,0,16090.0,0,0,0,
2026-04-06 07:55:00,METAR KSVH 060755Z AUTO 34010G14KT 10SM CLR 11/00 A3012 RMK AO2 T01050000,0,10.0,1,16090.0,0,0,0,
2026-04-06 07:35:00,METAR KSVH 060735Z AUTO 33008KT 10SM CLR 11/00 A3012 RMK AO2 T01060002,0,8.0,0,16090.0,0,0,0,
2026-04-06 07:15:00,METAR KSVH 060715Z AUTO 33011G15KT 10SM CLR 11/00 A3012 RMK AO2 T01120003,0,11.0,1,16090.0,0,0,0,
2026-04-06 06:55:00,METAR KSVH 060655Z AUTO 33010G16KT 10SM CLR 11/00 A3012 RMK AO2 T01120003,0,10.0,1,16090.0,0,0,0,
2026-04-06 06:35:00,METAR KSVH 060635Z AUTO 34010G17KT 10SM CLR 12/00 A3013 RMK AO2 T01150004,0,10.0,1,16090.0,0,0,0,
2026-04-06 06:15:00,METAR KSVH 060615Z AUTO 34009KT 10SM CLR 12/01 A3012 RMK AO2 T01150008,0,9.0,0,16090.0,0,0,0,
2026-04-06 05:55:00,METAR KSVH 060555Z AUTO 33008KT 10SM CLR 12/01 A3013 RMK AO2 T01170012 10183 20103,0,8.0,0,16090.0,0,0,0,
2026-04-06 05:35:00,METAR KSVH 060535Z AUTO 34006KT 10SM CLR 12/02 A3013 RMK AO2 T01150015,0,6.0,0,16090.0,0,0,0,
2026-04-06 05:15:00,METAR KSVH 060515Z AUTO 35003KT 10SM CLR 12/02 A3013 RMK AO2 T01170017,0,3.0,0,16090.0,0,0,0,
2026-04-06 04:55:00,METAR KSVH 060455Z AUTO 35003KT 10SM CLR 12/02 A3013 RMK AO2 T01180019 402370103,0,3.0,0,16090.0,0,0,0,
2026-04-06 04:35:00,METAR KSVH 060435Z AUTO 00000KT 10SM CLR 11/02 A3013 RMK AO2 T01080023,0,0.0,0,16090.0,0,0,0,
2026-04-06 04:15:00,METAR KSVH 060415Z AUTO 00000KT 10SM CLR 12/02 A3012 RMK AO2 T01200024,0,0.0,0,16090.0,0,0,0,
2026-04-06 03:55:00,METAR KSVH 060355Z AUTO 35003KT 10SM CLR 13/03 A3012 RMK AO2 T01260027,0,3.0,0,16090.0,0,0,0,
2026-04-06 03:35:00,METAR KSVH 060335Z AUTO 34004KT 10SM CLR 13/03 A3012 RMK AO2 T01320029,0,4.0,0,16090.0,0,0,0,
2026-04-06 03:15:00,METAR KSVH 060315Z AUTO 34005KT 10SM CLR 14/03 A3012 RMK AO2 T01400029,0,5.0,0,16090.0,0,0,0,
2026-04-06 02:55:00,METAR KSVH 060255Z AUTO 33009G14KT 10SM CLR 15/04 A3011 RMK AO2 T01450040,0,9.0,1,16090.0,0,0,0,
2026-04-06 02:35:00,METAR KSVH 060235Z AUTO 33008KT 10SM CLR 15/04 A3010 RMK AO2 T01510044,0,8.0,0,16090.0,0,0,0,
2026-04-06 02:15:00,METAR KSVH 060215Z AUTO 34011G14KT 10SM CLR 15/05 A3009 RMK AO2 T01540046,0,11.0,1,16090.0,0,0,0,
2026-04-06 01:55:00,METAR KSVH 060155Z AUTO 33008KT 10SM CLR 16/06 A3008 RMK AO2 T01560055,0,8.0,0,16090.0,0,0,0,
2026-04-06 01:35:00,METAR KSVH 060135Z AUTO 32008KT 10SM CLR 16/06 A3006 RMK AO2 T01560055,0,8.0,0,16090.0,0,0,0,
2026-04-06 01:15:00,METAR KSVH 060115Z AUTO 31009G14KT 10SM CLR 16/05 A3005 RMK AO2 T01620053,0,9.0,1,16090.0,0,0,0,
2026-04-06 00:55:00,METAR KSVH 060055Z AUTO 31010G14KT 10SM CLR 17/05 A3004 RMK AO2 T01700052,0,10.0,1,16090.0,0,0,0,
2026-04-06 00:35:00,METAR KSVH 060035Z AUTO 31011G17KT 10SM CLR 18/04 A3001 RMK AO2 T01750038,0,11.0,1,16090.0,0,0,0,
2026-04-06 00:15:00,METAR KSVH 060015Z AUTO 31010KT 10SM CLR 18/03 A3000 RMK AO2 T01780032,0,10.0,0,16090.0,0,0,0,
2026-04-05 23:55:00,METAR KSVH 052355Z AUTO 31008KT 10SM CLR 18/03 A2998 RMK AO2 60003 T01840029 10237 20171,0,8.0,0,16090.0,0,0,0,
2026-04-05 23:35:00,METAR KSVH 052335Z AUTO 31008KT 10SM CLR 19/05 A2998 RMK AO2 T01910048,0,8.0,0,16090.0,0,0,0,
2026-04-05 23:15:00,METAR KSVH 052315Z AUTO 30006KT 10SM CLR 20/06 A2996 RMK AO2 T01950056,0,6.0,0,16090.0,0,0,0,
2026-04-05 22:55:00,METAR KSVH 052255Z AUTO 31008KT 10SM CLR 20/06 A2995 RMK AO2 T02040057,0,8.0,0,16090.0,0,0,0,
2026-04-05 22:35:00,METAR KSVH 052235Z AUTO 30009KT 10SM CLR 21/06 A2995 RMK AO2 T02100058,0,9.0,0,16090.0,0,0,0,
2026-04-05 22:15:00,METAR KSVH 052215Z AUTO 31007KT 10SM SCT050 22/06 A2994 RMK AO2 T02170061,0,7.0,0,16090.0,0,0,0,
2026-04-05 21:55:00,METAR KSVH 052155Z AUTO 30006KT 10SM SCT050 SCT060 22/12 A2994 RMK AO2 T02200119,0,6.0,0,16090.0,0,0,0,
2026-04-05 21:35:00,METAR KSVH 052135Z AUTO 27009KT 10SM CLR 23/12 A2993 RMK AO2 T02340119,0,9.0,0,16090.0,0,0,0,
2026-04-05 21:15:00,METAR KSVH 052115Z AUTO 29011KT 10SM CLR 23/13 A2993 RMK AO2 T02340130,0,11.0,0,16090.0,0,0,0,
2026-04-05 20:55:00,METAR KSVH 052055Z AUTO 26008KT 10SM CLR 23/14 A2994 RMK AO2 60003 T02300144,0,8.0,0,16090.0,0,0,0,
2026-04-05 20:35:00,METAR KSVH 052035Z AUTO 28008KT 10SM SCT055 23/15 A2994 RMK AO2 T02280146,0,8.0,0,16090.0,0,0,0,
2026-04-05 20:15:00,METAR KSVH 052015Z AUTO 23004KT 10SM SCT120 22/17 A2995 RMK AO2 T02170166,0,4.0,0,16090.0,0,0,0,
2026-04-05 19:55:00,METAR KSVH 051955Z AUTO 25004KT 10SM SCT060 OVC120 20/17 A2995 RMK AO2 T02040168,0,4.0,0,16090.0,0,0,0,
2026-04-05 19:35:00,METAR KSVH 051935Z AUTO 26005KT 10SM SCT048 SCT060 OVC110 20/17 A2996 RMK AO2 T02000167,0,5.0,0,16090.0,0,0,0,
2026-04-05 19:15:00,METAR KSVH 051915Z AUTO 25004KT 10SM SCT031 BKN041 OVC110 19/17 A2997 RMK AO2 T01900171,0,4.0,0,16090.0,0,0,0,
2026-04-05 18:55:00,METAR KSVH 051855Z AUTO 23003KT 10SM SCT031 BKN040 OVC046 18/17 A2998 RMK AO2 P0003 T01790166,0,3.0,0,16090.0,0,0,0,
2026-04-05 18:35:00,METAR KSVH 051835Z AUTO 24005KT 10SM DZ SCT029 BKN037 OVC060 17/16 A2998 RMK AO2 P0003 T01710161,0,5.0,0,16090.0,0,0,0,DZ
2026-04-05 18:15:00,METAR KSVH 051815Z AUTO 25006KT 4SM -RA BKN029 BKN035 OVC050 17/16 A3000 RMK AO2 P0002 T01710159,0,6.0,0,6436.0,0,0,0,-RA
2026-04-05 17:55:00,METAR KSVH 051755Z AUTO 25006KT 5SM RA SCT011 BKN035 OVC041 17/16 A3001 RMK AO2 P0002 60007 T01730155 10195 20173,0,6.0,0,8045.0,0,0,0,RA
2026-04-05 17:35:00,METAR KSVH 051735Z AUTO 29008KT 10SM OVC011 19/18 A3001 RMK AO2 T01920179,0,8.0,0,16090.0,0,0,0,
2026-04-05 17:15:00,METAR KSVH 051715Z AUTO 22007KT 10SM BKN011 OVC017 20/18 A3002 RMK AO2 T01950181,0,7.0,0,16090.0,0,0,0,
2026-04-05 16:55:00,METAR KSVH 051655Z AUTO 21007KT 10SM BKN011 OVC014 19/18 A3002 RMK AO2 T01900181,0,7.0,0,16090.0,0,0,0,
2026-04-05 16:35:00,METAR KSVH 051635Z AUTO 22005KT 10SM OVC011 19/18 A3002 RMK AO2 T01900183,0,5.0,0,16090.0,0,0,0,
2026-04-05 16:15:00,METAR KSVH 051615Z AUTO 23006KT 10SM -DZ OVC011 19/18 A3003 RMK AO2 T01900183,0,6.0,0,16090.0,0,0,0,DZ
2026-04-05 15:55:00,METAR KSVH 051555Z AUTO 22005KT 10SM -RA OVC011 19/18 A3002 RMK AO2 P0001 T01900183,0,5.0,0,16090.0,0,0,0,-RA
2026-04-05 15:35:00,METAR KSVH 051535Z AUTO 21008G14KT 10SM -RA OVC011 19/19 A3003 RMK AO2 P0001 T01900185,0,8.0,1,16090.0,0,0,0,-RA
2026-04-05 15:15:00,METAR KSVH 051515Z AUTO 22007KT 10SM RA OVC011 19/18 A3003 RMK AO2 T01880181,0,7.0,0,16090.0,0,0,0,RA
2026-04-05 14:55:00,METAR KSVH 051455Z AUTO 22007KT 10SM RA OVC011 19/18 A3003 RMK AO2 P0001 60004 T01880181,0,7.0,0,16090.0,0,0,0,RA
2026-04-05 14:35:00,METAR KSVH 051435Z AUTO 21008KT 10SM DZ OVC011 19/18 A3002 RMK AO2 T01850180,0,8.0,0,16090.0,0,0,0,DZ
2026-04-05 12:55:00,METAR KSVH 051255Z AUTO 21005KT 7SM -RA OVC009 18/18 A3004 RMK AO2 P0002 T01800177,0,5.0,0,11263.0,0,0,0,-RA
2026-04-05 12:35:00,METAR KSVH 051235Z AUTO 21008G14KT 7SM -RA OVC009 18/18 A3005 RMK AO2 P0001 T01800175,0,8.0,1,11263.0,0,0,0,-RA
2026-04-05 12:15:00,METAR KSVH 051215Z AUTO 21008KT 10SM OVC011 18/17 A3004 RMK AO2 T01830170,0,8.0,0,16090.0,0,0,0,
2026-04-05 11:55:00,METAR KSVH 051155Z AUTO 20008KT 10SM OVC011 18/17 A3004 RMK AO2 70002 T01810170 10182 20175,0,8.0,0,16090.0,0,0,0,
2026-04-05 11:35:00,METAR KSVH 051135Z AUTO 21008KT 10SM OVC011 18/17 A3004 RMK AO2 T01800168,0,8.0,0,16090.0,0,0,0,
2026-04-05 11:15:00,METAR KSVH 051115Z AUTO 20005KT 10SM BKN013 OVC085 18/17 A3003 RMK AO2 T01800166,0,5.0,0,16090.0,0,0,0,
2026-04-05 10:55:00,METAR KSVH 051055Z AUTO 20008G14KT 10SM OVC013 18/17 A3003 RMK AO2 T01810165,0,8.0,1,16090.0,0,0,0,
2026-04-05 10:35:00,METAR KSVH 051035Z AUTO 21009KT 10SM OVC015 18/17 A3004 RMK AO2 T01810165,0,9.0,0,16090.0,0,0,0,
2026-04-05 10:15:00,METAR KSVH 051015Z AUTO 20007KT 10SM OVC015 18/16 A3004 RMK AO2 T01820163,0,7.0,0,16090.0,0,0,0,
2026-04-05 09:55:00,METAR KSVH 050955Z AUTO 20007KT 160V220 10SM BKN017 OVC110 18/16 A3005 RMK AO2 T01810161,0,7.0,0,16090.0,0,0,0,
2026-04-05 09:35:00,METAR KSVH 050935Z AUTO 20006KT 10SM OVC019 18/16 A3005 RMK AO2 T01810161,0,6.0,0,16090.0,0,0,0,
2026-04-05 09:15:00,METAR KSVH 050915Z AUTO 20009KT 10SM -RA BKN021 OVC040 18/17 A3005 RMK AO2 T01800165,0,9.0,0,16090.0,0,0,0,-RA
2026-04-05 08:55:00,METAR KSVH 050855Z AUTO 21006KT 10SM SCT021 BKN040 OVC055 18/17 A3006 RMK AO2 T01790166,0,6.0,0,16090.0,0,0,0,
2026-04-05 08:35:00,METAR KSVH 050835Z AUTO 20006KT 10SM SCT040 BKN060 OVC090 18/17 A3007 RMK AO2 T01760168,0,6.0,0,16090.0,0,0,0,
2026-04-05 08:15:00,METAR KSVH 050815Z AUTO 21005KT 10SM -RA SCT042 BKN060 OVC080 18/17 A3007 RMK AO2 T01770170,0,5.0,0,16090.0,0,0,0,-RA
2026-04-05 07:55:00,METAR KSVH 050755Z AUTO 21005KT 10SM SCT011 BKN060 OVC100 18/17 A3008 RMK AO2 T01780171,0,5.0,0,16090.0,0,0,0,
2026-04-05 07:35:00,METAR KSVH 050735Z AUTO 19006KT 10SM SCT011 SCT060 BKN090 18/17 A3008 RMK AO2 T01790172,0,6.0,0,16090.0,0,0,0,
2026-04-05 07:15:00,METAR KSVH 050715Z AUTO 20007KT 10SM SCT011 BKN034 BKN110 18/17 A3008 RMK AO2 T01800171,0,7.0,0,16090.0,0,0,0,
2026-04-05 06:55:00,METAR KSVH 050655Z AUTO 22004KT 10SM BKN011 OVC034 18/17 A3009 RMK AO2 T01820173,0,4.0,0,16090.0,0,0,0,
2026-04-05 06:35:00,METAR KSVH 050635Z AUTO 20003KT 10SM SCT011 OVC034 18/17 A3010 RMK AO2 T01810172,0,3.0,0,16090.0,0,0,0,
2026-04-05 06:15:00,METAR KSVH 050615Z AUTO 21005KT 10SM OVC034 18/17 A3010 RMK AO2 T01800171,0,5.0,0,16090.0,0,0,0,
2026-04-05 05:55:00,METAR KSVH 050555Z AUTO 21005KT 10SM SCT029 BKN038 OVC044 18/17 A3011 RMK AO2 T01830170 10206 20176,0,5.0,0,16090.0,0,0,0,
2026-04-05 05:35:00,METAR KSVH 050535Z AUTO 21004KT 10SM SCT028 BKN044 18/17 A3012 RMK AO2 T01820170,0,4.0,0,16090.0,0,0,0,
2026-04-05 05:15:00,METAR KSVH 050515Z AUTO 21006KT 10SM CLR 18/17 A3012 RMK AO2 T01800167,0,6.0,0,16090.0,0,0,0,
2026-04-05 04:55:00,METAR KSVH 050455Z AUTO 20003KT 10SM CLR 18/17 A3012 RMK AO2 T01770166 402690170,0,3.0,0,16090.0,0,0,0,
2026-04-05 04:35:00,METAR KSVH 050435Z AUTO 23003KT 10SM CLR 18/17 A3012 RMK AO2 T01800166,0,3.0,0,16090.0,0,0,0,
2026-04-05 04:15:00,METAR KSVH 050415Z AUTO 23004KT 10SM CLR 18/17 A3013 RMK AO2 T01820167,0,4.0,0,16090.0,0,0,0,
2026-04-05 03:55:00,METAR KSVH 050355Z AUTO 20004KT 10SM CLR 19/17 A3013 RMK AO2 T01860167,0,4.0,0,16090.0,0,0,0,
2026-04-05 03:35:00,METAR KSVH 050335Z AUTO 20004KT 10SM CLR 18/17 A3012 RMK AO2 T01830166,0,4.0,0,16090.0,0,0,0,
2026-04-05 03:15:00,METAR KSVH 050315Z AUTO 20003KT 10SM CLR 19/17 A3013 RMK AO2 T01850166,0,3.0,0,16090.0,0,0,0,
2026-04-05 02:55:00,METAR KSVH 050255Z AUTO 20004KT 10SM CLR 19/17 A3014 RMK AO2 T01870170,0,4.0,0,16090.0,0,0,0,
2026-04-05 02:35:00,METAR KSVH 050235Z AUTO 21004KT 10SM CLR 19/17 A3014 RMK AO2 T01900167,0,4.0,0,16090.0,0,0,0,
2026-04-05 02:15:00,METAR KSVH 050215Z AUTO 20004KT 10SM CLR 20/17 A3014 RMK AO2 T01950170,0,4.0,0,16090.0,0,0,0,
2026-04-05 01:55:00,METAR KSVH 050155Z AUTO 21005KT 10SM CLR 20/17 A3014 RMK AO2 T01950170,0,5.0,0,16090.0,0,0,0,
2026-04-05 01:35:00,METAR KSVH 050135Z AUTO 19004KT 10SM SCT120 20/18 A3013 RMK AO2 T01950175,0,4.0,0,16090.0,0,0,0,
2026-04-05 01:15:00,METAR KSVH 050115Z AUTO 20003KT 10SM OVC120 20/19 A3013 RMK AO2 T02000188,0,3.0,0,16090.0,0,0,0,
2026-04-05 00:55:00,METAR KSVH 050055Z AUTO 00000KT 10SM OVC120 20/19 A3013 RMK AO2 T02010191,0,0.0,0,16090.0,0,0,0,
2026-04-05 00:35:00,METAR KSVH 050035Z AUTO 21004KT 10SM BKN110 21/19 A3012 RMK AO2 T02050192,0,4.0,0,16090.0,0,0,0,
2026-04-05 00:15:00,METAR KSVH 050015Z AUTO 21005KT 10SM BKN120 21/20 A3012 RMK AO2 T02050195,0,5.0,0,16090.0,0,0,0,
2026-04-04 23:55:00,METAR KSVH 042355Z AUTO 21004KT 10SM BKN110 20/20 A3013 RMK AO2 60002 T02040195 10269 20193,0,4.0,0,16090.0,0,0,0,
2026-04-04 23:35:00,METAR KSVH 042335Z AUTO 00000KT 10SM SCT120 21/20 A3012 RMK AO2 T02110195,0,0.0,0,16090.0,0,0,0,
2026-04-04 23:15:00,METAR KSVH 042315Z AUTO 24004KT 10SM CLR 22/20 A3012 RMK AO2 T02150195,0,4.0,0,16090.0,0,0,0,
2026-04-04 22:55:00,METAR KSVH 042255Z AUTO 22003KT 10SM CLR 22/19 A3013 RMK AO2 T02180191,0,3.0,0,16090.0,0,0,0,
2026-04-04 22:35:00,METAR KSVH 042235Z AUTO 22004KT 10SM CLR 22/19 A3013 RMK AO2 T02220191,0,4.0,0,16090.0,0,0,0,
2026-04-04 22:15:00,METAR KSVH 042215Z AUTO 21003KT 10SM SCT041 SCT110 21/19 A3014 RMK AO2 T02130193,0,3.0,0,16090.0,0,0,0,
2026-04-04 21:55:00,METAR KSVH 042155Z AUTO 24003KT 10SM RA SCT042 BKN090 OVC110 20/18 A3014 RMK AO2 P0002 T01950182,0,3.0,0,16090.0,0,0,0,RA
2026-04-04 21:35:00,METAR KSVH 042135Z AUTO 25013G27KT 10SM -RA SCT040 BKN045 OVC110 21/17 A3015 RMK AO2 T02080173,0,13.0,1,16090.0,0,0,0,-RA
2026-04-04 21:15:00,METAR KSVH 042115Z AUTO 20006G09KT 170V240 10SM SCT046 SCT070 BKN110 25/15 A3012 RMK AO2 T02540152,0,6.0,1,16090.0,0,0,0,
2026-04-04 20:55:00,METAR KSVH 042055Z AUTO 18008G17KT 10SM SCT048 SCT060 BKN075 27/16 A3013 RMK AO2 T02690155,0,8.0,1,16090.0,0,0,0,
2026-04-04 20:35:00,METAR KSVH 042035Z AUTO 17008G17KT 10SM SCT050 SCT075 BKN120 26/16 A3014 RMK AO2 T02600156,0,8.0,1,16090.0,0,0,0,
2026-04-04 20:15:00,METAR KSVH 042015Z AUTO 15010KT 10SM SCT044 SCT050 OVC110 26/16 A3014 RMK AO2 T02600161,0,10.0,0,16090.0,0,0,0,
2026-04-04 19:55:00,METAR KSVH 041955Z AUTO 17006KT 140V200 10SM SCT040 SCT050 BKN070 25/16 A3015 RMK AO2 T02520162,0,6.0,0,16090.0,0,0,0,
2026-04-04 19:35:00,METAR KSVH 041935Z AUTO 17006KT 10SM SCT038 27/17 A3016 RMK AO2 T02680169,0,6.0,0,16090.0,0,0,0,
2026-04-04 19:15:00,METAR KSVH 041915Z AUTO 17009KT 150V230 10SM SCT038 SCT046 27/17 A3017 RMK AO2 T02680170,0,9.0,0,16090.0,0,0,0,
2026-04-04 18:55:00,METAR KSVH 041855Z AUTO 19009KT 10SM SCT038 SCT046 BKN060 27/17 A3019 RMK AO2 T02650168,0,9.0,0,16090.0,0,0,0,
2026-04-04 18:35:00,METAR KSVH 041835Z AUTO 19010G15KT 10SM SCT039 BKN050 BKN100 26/16 A3019 RMK AO2 T02580164,0,10.0,1,16090.0,0,0,0,
2026-04-04 18:15:00,METAR KSVH 041815Z AUTO 22006KT 10SM SCT038 SCT046 BKN050 25/16 A3021 RMK AO2 T02520161,0,6.0,0,16090.0,0,0,0,
2026-04-04 17:55:00,METAR KSVH 041755Z AUTO 22009KT 10SM BKN039 BKN047 BKN050 25/17 A3021 RMK AO2 T02530166 10255 20172,0,9.0,0,16090.0,0,0,0,
2026-04-04 17:35:00,METAR KSVH 041735Z AUTO 22005KT 10SM SCT030 BKN043 BKN055 25/17 A3022 RMK AO2 T02540172,0,5.0,0,16090.0,0,0,0,
2026-04-04 17:15:00,METAR KSVH 041715Z AUTO 22007KT 10SM BKN030 OVC040 25/17 A3023 RMK AO2 T02470171,0,7.0,0,16090.0,0,0,0,
2026-04-04 16:55:00,METAR KSVH 041655Z AUTO 19004KT 10SM SCT030 BKN037 OVC050 24/17 A3023 RMK AO2 T02430171,0,4.0,0,16090.0,0,0,0,
2026-04-04 16:35:00,METAR KSVH 041635Z AUTO 21007KT 10SM SCT028 BKN038 OVC055 24/17 A3025 RMK AO2 T02370171,0,7.0,0,16090.0,0,0,0,
2026-04-04 16:15:00,METAR KSVH 041615Z AUTO 22005KT 10SM SCT028 BKN035 OVC043 24/17 A3026 RMK AO2 T02360169,0,5.0,0,16090.0,0,0,0,
2026-04-04 15:55:00,METAR KSVH 041555Z AUTO 23006KT 10SM SCT024 SCT030 OVC037 23/18 A3026 RMK AO2 T02310176,0,6.0,0,16090.0,0,0,0,
2026-04-04 15:35:00,METAR KSVH 041535Z AUTO 19004KT 10SM SCT018 SCT024 OVC035 23/18 A3027 RMK AO2 T02290183,0,4.0,0,16090.0,0,0,0,
2026-04-04 15:15:00,METAR KSVH 041515Z AUTO 20005KT 10SM SCT015 SCT021 OVC029 22/18 A3027 RMK AO2 T02150179,0,5.0,0,16090.0,0,0,0,
2026-04-04 14:55:00,METAR KSVH 041455Z AUTO 23006KT 10SM BKN013 OVC021 21/18 A3027 RMK AO2 T02140179,0,6.0,0,16090.0,0,0,0,
2026-04-04 14:35:00,METAR KSVH 041435Z AUTO 21004KT 10SM OVC011 21/18 A3027 RMK AO2 T02100179,0,4.0,0,16090.0,0,0,0,
2026-04-04 14:15:00,METAR KSVH 041415Z AUTO 19004KT 10SM OVC009 20/18 A3027 RMK AO2 T02010178,0,4.0,0,16090.0,0,0,0,
2026-04-04 13:55:00,METAR KSVH 041355Z AUTO 20006KT 10SM OVC007 19/18 A3028 RMK AO2 T01930178,0,6.0,0,16090.0,0,0,0,
2026-04-04 13:35:00,METAR KSVH 041335Z AUTO 21003KT 10SM OVC005 19/18 A3028 RMK AO2 T01900179,0,3.0,0,16090.0,0,0,0,
2026-04-04 13:15:00,METAR KSVH 041315Z AUTO 22003KT 10SM OVC005 18/18 A3029 RMK AO2 T01830176,0,3.0,0,16090.0,0,0,0,
2026-04-04 12:55:00,METAR KSVH 041255Z AUTO 21005KT 7SM OVC003 18/18 A3029 RMK AO2 T01780175,0,5.0,0,11263.0,0,0,0,
2026-04-04 12:35:00,METAR KSVH 041235Z AUTO 21004KT 7SM OVC003 18/18 A3029 RMK AO2 T01780176,0,4.0,0,11263.0,0,0,0,
2026-04-04 12:15:00,METAR KSVH 041215Z AUTO 22003KT 7SM OVC003 17/17 A3028 RMK AO2 T01740173,0,3.0,0,11263.0,0,0,0,
2026-04-04 11:55:00,METAR KSVH 041155Z AUTO 21005KT 5SM BR OVC003 17/17 A3028 RMK AO2 T01720172 10187 20170,0,5.0,0,8045.0,0,0,1,BR
2026-04-04 11:35:00,METAR KSVH 041135Z AUTO 21004KT 7SM OVC003 17/17 A3027 RMK AO2 T01710170,0,4.0,0,11263.0,0,0,0,
2026-04-04 11:15:00,METAR KSVH 041115Z AUTO 21003KT 7SM BKN005 17/17 A3027 RMK AO2 T01710170,0,3.0,0,11263.0,0,0,0,
2026-04-04 10:55:00,METAR KSVH 041055Z AUTO 20003KT 10SM SCT017 17/17 A3026 RMK AO2 T01710170,0,3.0,0,16090.0,0,0,0,
2026-04-04 10:35:00,METAR KSVH 041035Z AUTO 19004KT 10SM OVC017 17/17 A3026 RMK AO2 T01720171,0,4.0,0,16090.0,0,0,0,
2026-04-04 10:15:00,METAR KSVH 041015Z AUTO 19003KT 10SM BKN015 17/17 A3026 RMK AO2 T01710171,0,3.0,0,16090.0,0,0,0,
2026-04-04 09:55:00,METAR KSVH 040955Z AUTO 19004KT 10SM SCT015 17/17 A3026 RMK AO2 T01710170,0,4.0,0,16090.0,0,0,0,
2026-04-04 09:40:00,METAR KSVH 040940Z AUTO 19003KT 10SM CLR 17/17 A3026 RMK AO2 T01710170,0,3.0,0,16090.0,0,0,0,
2026-04-04 09:15:00,METAR KSVH 040915Z AUTO 00000KT 10SM CLR 17/17 A3026 RMK AO2 T01710170,0,0.0,0,16090.0,0,0,0,
2026-04-04 08:55:00,METAR KSVH 040855Z AUTO 19003KT 10SM CLR 17/17 A3025 RMK AO2 T01720170,0,3.0,0,16090.0,0,0,0,
2026-04-04 08:35:00,METAR KSVH 040835Z AUTO 20003KT 10SM CLR 17/17 A3026 RMK AO2 T01740169,0,3.0,0,16090.0,0,0,0,
2026-04-04 08:15:00,METAR KSVH 040815Z AUTO 19003KT 10SM SCT015 BKN027 18/17 A3026 RMK AO2 T01780169,0,3.0,0,16090.0,0,0,0,
2026-04-04 07:55:00,METAR KSVH 040755Z AUTO 19003KT 10SM SCT018 OVC025 18/17 A3027 RMK AO2 T01820170,0,3.0,0,16090.0,0,0,0,
2026-04-04 07:35:00,METAR KSVH 040735Z AUTO 00000KT 10SM OVC022 19/17 A3027 RMK AO2 T01850170,0,0.0,0,16090.0,0,0,0,
2026-04-04 07:15:00,METAR KSVH 040715Z AUTO 21003KT 10SM OVC018 19/17 A3028 RMK AO2 T01850170,0,3.0,0,16090.0,0,0,0,
2026-04-04 06:55:00,METAR KSVH 040655Z AUTO 21003KT 10SM OVC016 18/17 A3028 RMK AO2 T01820167,0,3.0,0,16090.0,0,0,0,
2026-04-04 06:35:00,METAR KSVH 040635Z AUTO 20004KT 10SM SCT016 18/17 A3028 RMK AO2 T01800165,0,4.0,0,16090.0,0,0,0,
2026-04-04 06:15:00,METAR KSVH 040615Z AUTO 21004KT 10SM CLR 18/16 A3029 RMK AO2 T01820164,0,4.0,0,16090.0,0,0,0,
2026-04-04 05:55:00,METAR KSVH 040555Z AUTO 21003KT 10SM CLR 19/16 A3029 RMK AO2 T01850163 10232 20185,0,3.0,0,16090.0,0,0,0,
2026-04-04 05:35:00,METAR KSVH 040535Z AUTO 21004KT 10SM CLR 19/17 A3029 RMK AO2 T01900165,0,4.0,0,16090.0,0,0,0,
2026-04-04 05:15:00,METAR KSVH 040515Z AUTO 21004KT 10SM SCT060 19/16 A3029 RMK AO2 T01900161,0,4.0,0,16090.0,0,0,0,
2026-04-04 04:55:00,METAR KSVH 040455Z AUTO 21004KT 10SM CLR 19/16 A3029 RMK AO2 T01920161 402760144,0,4.0,0,16090.0,0,0,0,
2026-04-04 04:35:00,METAR KSVH 040435Z AUTO 21005KT 10SM CLR 19/16 A3029 RMK AO2 T01940162,0,5.0,0,16090.0,0,0,0,
2026-04-04 04:15:00,METAR KSVH 040415Z AUTO 20004KT 10SM CLR 20/16 A3029 RMK AO2 T01990164,0,4.0,0,16090.0,0,0,0,
2026-04-04 03:55:00,METAR KSVH 040355Z AUTO 20005KT 10SM CLR 20/16 A3028 RMK AO2 T02000160,0,5.0,0,16090.0,0,0,0,
2026-04-04 03:35:00,METAR KSVH 040335Z AUTO 18004KT 10SM CLR 20/16 A3028 RMK AO2 T02000155,0,4.0,0,16090.0,0,0,0,
2026-04-04 03:15:00,METAR KSVH 040315Z AUTO 19004KT 10SM CLR 20/15 A3027 RMK AO2 T02000146,0,4.0,0,16090.0,0,0,0,
2026-04-04 02:55:00,METAR KSVH 040255Z AUTO 17003KT 10SM CLR 20/14 A3027 RMK AO2 T02000140,0,3.0,0,16090.0,0,0,0,
2026-04-04 02:35:00,METAR KSVH 040235Z AUTO 15003KT 10SM SCT060 20/13 A3027 RMK AO2 T02000134,0,3.0,0,16090.0,0,0,0,
2026-04-04 02:15:00,METAR KSVH 040215Z AUTO 00000KT 10SM CLR 21/13 A3026 RMK AO2 T02100133,0,0.0,0,16090.0,0,0,0,
2026-04-04 01:55:00,METAR KSVH 040155Z AUTO 00000KT 10SM CLR 21/13 A3026 RMK AO2 T02110130,0,0.0,0,16090.0,0,0,0,
2026-04-04 01:35:00,METAR KSVH 040135Z AUTO 19003KT 10SM CLR 21/13 A3025 RMK AO2 T02130131,0,3.0,0,16090.0,0,0,0,
2026-04-04 01:15:00,METAR KSVH 040115Z AUTO 18003KT 10SM CLR 22/13 A3025 RMK AO2 T02160130,0,3.0,0,16090.0,0,0,0,
2026-04-04 00:55:00,METAR KSVH 040055Z AUTO 19003KT 10SM CLR 22/13 A3024 RMK AO2 T02190129,0,3.0,0,16090.0,0,0,0,
2026-04-04 00:35:00,METAR KSVH 040035Z AUTO 00000KT 10SM CLR 22/13 A3023 RMK AO2 T02210125,0,0.0,0,16090.0,0,0,0,
2026-04-04 00:15:00,METAR KSVH 040015Z AUTO 19003KT 10SM CLR 23/12 A3023 RMK AO2 T02250124,0,3.0,0,16090.0,0,0,0,
2026-04-03 23:55:00,METAR KSVH 032355Z AUTO 19003KT 10SM CLR 23/12 A3023 RMK AO2 T02330122 10276 20233,0,3.0,0,16090.0,0,0,0,
2026-04-03 23:35:00,METAR KSVH 032335Z AUTO 00000KT 10SM CLR 24/12 A3023 RMK AO2 T02400120,0,0.0,0,16090.0,0,0,0,
2026-04-03 23:15:00,METAR KSVH 032315Z AUTO 00000KT 10SM CLR 25/13 A3024 RMK AO2 T02480127,0,0.0,0,16090.0,0,0,0,
2026-04-03 22:55:00,METAR KSVH 032255Z AUTO 16004KT 10SM CLR 25/12 A3024 RMK AO2 T02500123,0,4.0,0,16090.0,0,0,0,
2026-04-03 22:35:00,METAR KSVH 032235Z AUTO 16005KT 10SM CLR 26/13 A3024 RMK AO2 T02570125,0,5.0,0,16090.0,0,0,0,
2026-04-03 22:15:00,METAR KSVH 032215Z AUTO 16004KT 10SM CLR 27/13 A3024 RMK AO2 T02680128,0,4.0,0,16090.0,0,0,0,
2026-04-03 21:55:00,METAR KSVH 032155Z AUTO 16006KT 10SM CLR 27/13 A3024 RMK AO2 T02680129,0,6.0,0,16090.0,0,0,0,
2026-04-03 21:35:00,METAR KSVH 032135Z AUTO 17003KT 10SM CLR 26/13 A3025 RMK AO2 T02570130,0,3.0,0,16090.0,0,0,0,
2026-04-03 21:15:00,METAR KSVH 032115Z AUTO 17005KT 10SM SCT060 27/13 A3025 RMK AO2 T02680126,0,5.0,0,16090.0,0,0,0,
2026-04-03 20:55:00,METAR KSVH 032055Z AUTO 20006KT 160V230 10SM SCT060 28/13 A3025 RMK AO2 T02760129,0,6.0,0,16090.0,0,0,0,
2026-04-03 20:35:00,METAR KSVH 032035Z AUTO 21006KT 10SM SCT050 27/13 A3025 RMK AO2 T02660133,0,6.0,0,16090.0,0,0,0,
2026-04-03 20:15:00,METAR KSVH 032015Z AUTO 18008KT 140V210 10SM SCT055 27/14 A3026 RMK AO2 T02710135,0,8.0,0,16090.0,0,0,0,
2026-04-03 19:55:00,METAR KSVH 031955Z AUTO 22006G15KT 10SM SCT050 27/12 A3026 RMK AO2 T02730121,0,6.0,1,16090.0,0,0,0,
2026-04-03 19:35:00,METAR KSVH 031935Z AUTO 19009KT 10SM BKN050 26/13 A3027 RMK AO2 T02640134,0,9.0,0,16090.0,0,0,0,
2026-04-03 19:15:00,METAR KSVH 031915Z AUTO 17008KT 10SM BKN050 BKN070 27/14 A3027 RMK AO2 T02670144,0,8.0,0,16090.0,0,0,0,
2026-04-03 18:55:00,METAR KSVH 031855Z AUTO 19009KT 10SM BKN050 BKN060 26/15 A3028 RMK AO2 T02620146,0,9.0,0,16090.0,0,0,0,
2026-04-03 18:35:00,METAR KSVH 031835Z AUTO 16007KT 10SM BKN048 BKN060 BKN070 26/14 A3029 RMK AO2 T02580144,0,7.0,0,16090.0,0,0,0,
2026-04-03 18:15:00,METAR KSVH 031815Z AUTO 16006G09KT 10SM BKN046 BKN060 26/15 A3029 RMK AO2 T02590146,0,6.0,1,16090.0,0,0,0,
2026-04-03 17:55:00,METAR KSVH 031755Z AUTO 20006KT 10SM SCT046 BKN055 26/14 A3030 RMK AO2 T02610139 10264 20153,0,6.0,0,16090.0,0,0,0,
2026-04-03 17:35:00,METAR KSVH 031735Z AUTO 20007KT 150V210 10SM SCT046 26/15 A3031 RMK AO2 T02550146,0,7.0,0,16090.0,0,0,0,
2026-04-03 17:15:00,METAR KSVH 031715Z AUTO 21005KT 10SM SCT042 25/14 A3032 RMK AO2 T02480139,0,5.0,0,16090.0,0,0,0,
2026-04-03 16:55:00,METAR KSVH 031655Z AUTO 22008KT 10SM SCT038 25/14 A3032 RMK AO2 T02500144,0,8.0,0,16090.0,0,0,0,
2026-04-03 16:35:00,METAR KSVH 031635Z AUTO 20006KT 10SM SCT038 24/14 A3033 RMK AO2 T02420139,0,6.0,0,16090.0,0,0,0,
2026-04-03 16:15:00,METAR KSVH 031615Z AUTO 21005KT 10SM SCT034 24/15 A3034 RMK AO2 T02390145,0,5.0,0,16090.0,0,0,0,
2026-04-03 15:55:00,METAR KSVH 031555Z AUTO 21006KT 10SM SCT034 24/14 A3034 RMK AO2 T02370143,0,6.0,0,16090.0,0,0,0,
2026-04-03 15:35:00,METAR KSVH 031535Z AUTO 23007G14KT 10SM SCT032 23/14 A3036 RMK AO2 T02300142,0,7.0,1,16090.0,0,0,0,
2026-04-03 15:15:00,METAR KSVH 031515Z AUTO 21006KT 10SM CLR 22/14 A3036 RMK AO2 T02210140,0,6.0,0,16090.0,0,0,0,
2026-04-03 14:55:00,METAR KSVH 031455Z AUTO 22005KT 190V270 10SM CLR 22/14 A3036 RMK AO2 T02190137,0,5.0,0,16090.0,0,0,0,
2026-04-03 14:35:00,METAR KSVH 031435Z AUTO 21007KT 10SM CLR 22/14 A3036 RMK AO2 T02150144,0,7.0,0,16090.0,0,0,0,
2026-04-03 14:15:00,METAR KSVH 031415Z AUTO 21010G17KT 10SM CLR 21/14 A3036 RMK AO2 T02100143,0,10.0,1,16090.0,0,0,0,
2026-04-03 13:55:00,METAR KSVH 031355Z AUTO 22006KT 10SM CLR 21/15 A3035 RMK AO2 T02070153,0,6.0,0,16090.0,0,0,0,
2026-04-03 13:35:00,METAR KSVH 031335Z AUTO 22004KT 10SM CLR 20/15 A3036 RMK AO2 T01960151,0,4.0,0,16090.0,0,0,0,
2026-04-03 13:15:00,METAR KSVH 031315Z AUTO 21005KT 10SM CLR 19/16 A3035 RMK AO2 T01900155,0,5.0,0,16090.0,0,0,0,
2026-04-03 12:55:00,METAR KSVH 031255Z AUTO 22005KT 10SM CLR 18/16 A3035 RMK AO2 T01820156,0,5.0,0,16090.0,0,0,0,
2026-04-03 12:35:00,METAR KSVH 031235Z AUTO 00000KT 10SM CLR 17/15 A3034 RMK AO2 T01740154,0,0.0,0,16090.0,0,0,0,
2026-04-03 12:15:00,METAR KSVH 031215Z AUTO 00000KT 10SM CLR 17/15 A3034 RMK AO2 T01650154,0,0.0,0,16090.0,0,0,0,
2026-04-03 11:55:00,METAR KSVH 031155Z AUTO 00000KT 10SM CLR 15/15 A3034 RMK AO2 T01510148 10185 20144,0,0.0,0,16090.0,0,0,0,
2026-04-03 11:35:00,METAR KSVH 031135Z AUTO 00000KT 10SM CLR 15/15 A3033 RMK AO2 T01490145,0,0.0,0,16090.0,0,0,0,
2026-04-03 11:15:00,METAR KSVH 031115Z AUTO 00000KT 10SM CLR 15/14 A3033 RMK AO2 T01470143,0,0.0,0,16090.0,0,0,0,
2026-04-03 08:55:00,METAR KSVH 030855Z AUTO 00000KT 10SM BKN017 BKN070 16/14 A3031 RMK AO2 T01610144,0,0.0,0,16090.0,0,0,0,
2026-04-03 06:15:00,METAR KSVH 030615Z AUTO 20006KT 10SM CLR 18/14 A3029 RMK AO2 T01800135,0,6.0,0,16090.0,0,0,0,
2026-04-03 05:55:00,METAR KSVH 030555Z AUTO 20004KT 10SM CLR 19/13 A3029 RMK AO2 T01880134 10240 20188,0,4.0,0,16090.0,0,0,0,
2026-04-03 05:35:00,METAR KSVH 030535Z AUTO 19004KT 10SM CLR 19/13 A3029 RMK AO2 T01900131,0,4.0,0,16090.0,0,0,0,
2026-04-03 05:15:00,METAR KSVH 030515Z AUTO 18005KT 10SM CLR 19/13 A3028 RMK AO2 T01900125,0,5.0,0,16090.0,0,0,0,
2026-04-03 04:55:00,METAR KSVH 030455Z AUTO 18006KT 10SM CLR 19/12 A3028 RMK AO2 T01910118 402820166,0,6.0,0,16090.0,0,0,0,
2026-04-03 04:35:00,METAR KSVH 030435Z AUTO 17007KT 10SM CLR 20/12 A3028 RMK AO2 T01950116,0,7.0,0,16090.0,0,0,0,
2026-04-03 04:15:00,METAR KSVH 030415Z AUTO 17005KT 10SM CLR 20/11 A3028 RMK AO2 T01950110,0,5.0,0,16090.0,0,0,0,
2026-04-03 03:55:00,METAR KSVH 030355Z AUTO 18004KT 10SM CLR 19/11 A3028 RMK AO2 T01900114,0,4.0,0,16090.0,0,0,0,
2026-04-03 03:35:00,METAR KSVH 030335Z AUTO 00000KT 10SM CLR 19/12 A3027 RMK AO2 T01930116,0,0.0,0,16090.0,0,0,0,
2026-04-03 03:15:00,METAR KSVH 030315Z AUTO 18003KT 10SM CLR 20/12 A3027 RMK AO2 T02000119,0,3.0,0,16090.0,0,0,0,
2026-04-03 02:55:00,METAR KSVH 030255Z AUTO 18003KT 10SM CLR 20/12 A3027 RMK AO2 T01970120,0,3.0,0,16090.0,0,0,0,
2026-04-03 02:35:00,METAR KSVH 030235Z AUTO 00000KT 10SM CLR 20/12 A3026 RMK AO2 T02020120,0,0.0,0,16090.0,0,0,0,
2026-04-03 02:15:00,METAR KSVH 030215Z AUTO 00000KT 10SM CLR 21/12 A3026 RMK AO2 T02100120,0,0.0,0,16090.0,0,0,0,
2026-04-03 01:55:00,METAR KSVH 030155Z AUTO 15003KT 10SM CLR 21/12 A3025 RMK AO2 T02100123,0,3.0,0,16090.0,0,0,0,
2026-04-03 01:35:00,METAR KSVH 030135Z AUTO 15003KT 10SM CLR 22/12 A3023 RMK AO2 T02150122,0,3.0,0,16090.0,0,0,0,
2026-04-03 01:15:00,METAR KSVH 030115Z AUTO 00000KT 10SM CLR 22/12 A3023 RMK AO2 T02200122,0,0.0,0,16090.0,0,0,0,
2026-04-03 00:55:00,METAR KSVH 030055Z AUTO 15003KT 10SM CLR 22/13 A3022 RMK AO2 T02240126,0,3.0,0,16090.0,0,0,0,
2026-04-03 00:35:00,METAR KSVH 030035Z AUTO 16004KT 10SM CLR 23/13 A3021 RMK AO2 T02300127,0,4.0,0,16090.0,0,0,0,
2026-04-03 00:15:00,METAR KSVH 030015Z AUTO 00000KT 10SM CLR 24/13 A3021 RMK AO2 T02350126,0,0.0,0,16090.0,0,0,0,
2026-04-02 23:55:00,METAR KSVH 022355Z AUTO 15005KT 10SM CLR 24/13 A3020 RMK AO2 T02400127 10282 20240,0,5.0,0,16090.0,0,0,0,
2026-04-02 23:35:00,METAR KSVH 022335Z AUTO 17006KT 10SM CLR 25/13 A3020 RMK AO2 T02500126,0,6.0,0,16090.0,0,0,0,
2026-04-02 23:15:00,METAR KSVH 022315Z AUTO 17006KT 10SM CLR 25/12 A3020 RMK AO2 T02510124,0,6.0,0,16090.0,0,0,0,
2026-04-02 22:55:00,METAR KSVH 022255Z AUTO 16008KT 10SM CLR 26/12 A3020 RMK AO2 T02580124,0,8.0,0,16090.0,0,0,0,
2026-04-02 22:35:00,METAR KSVH 022235Z AUTO 17008KT 140V200 10SM CLR 27/13 A3020 RMK AO2 T02680131,0,8.0,0,16090.0,0,0,0,
2026-04-02 22:15:00,METAR KSVH 022215Z AUTO 16006KT 140V220 10SM CLR 27/13 A3019 RMK AO2 T02690132,0,6.0,0,16090.0,0,0,0,
2026-04-02 21:55:00,METAR KSVH 022155Z AUTO 19006G15KT 10SM CLR 27/13 A3019 RMK AO2 T02720132,0,6.0,1,16090.0,0,0,0,
2026-04-02 21:35:00,METAR KSVH 022135Z AUTO 18009G14KT 10SM SCT055 28/14 A3019 RMK AO2 T02780135,0,9.0,1,16090.0,0,0,0,
2026-04-02 21:15:00,METAR KSVH 022115Z AUTO 18008G14KT 10SM CLR 28/14 A3019 RMK AO2 T02780137,0,8.0,1,16090.0,0,0,0,
2026-04-02 20:55:00,METAR KSVH 022055Z AUTO 17009G14KT 10SM SCT055 28/14 A3020 RMK AO2 T02800136,0,9.0,1,16090.0,0,0,0,
2026-04-02 20:35:00,METAR KSVH 022035Z AUTO 20009KT 170V240 10SM CLR 28/14 A3020 RMK AO2 T02780139,0,9.0,0,16090.0,0,0,0,
2026-04-02 20:15:00,METAR KSVH 022015Z AUTO 16010KT 150V210 10SM CLR 28/14 A3021 RMK AO2 T02790138,0,10.0,0,16090.0,0,0,0,
2026-04-02 19:55:00,METAR KSVH 021955Z AUTO 17007G16KT 10SM CLR 28/14 A3021 RMK AO2 T02760140,0,7.0,1,16090.0,0,0,0,
2026-04-02 19:35:00,METAR KSVH 021935Z AUTO 16007KT 10SM CLR 28/14 A3022 RMK AO2 T02780140,0,7.0,0,16090.0,0,0,0,
2026-04-02 19:15:00,METAR KSVH 021915Z AUTO 15008KT 10SM CLR 28/15 A3022 RMK AO2 T02770149,0,8.0,0,16090.0,0,0,0,
2026-04-02 18:55:00,METAR KSVH 021855Z AUTO 14006G14KT 10SM CLR 27/15 A3023 RMK AO2 T02710153,0,6.0,1,16090.0,0,0,0,
2026-04-02 18:35:00,METAR KSVH 021835Z AUTO 18008KT 10SM SCT042 27/16 A3024 RMK AO2 T02700157,0,8.0,0,16090.0,0,0,0,
2026-04-02 18:15:00,METAR KSVH 021815Z AUTO 17009KT 10SM SCT042 27/16 A3025 RMK AO2 T02680157,0,9.0,0,16090.0,0,0,0,
2026-04-02 17:55:00,METAR KSVH 021755Z AUTO 14008KT 10SM SCT040 27/16 A3026 RMK AO2 T02680163 10268 20171,0,8.0,0,16090.0,0,0,0,
2026-04-02 17:35:00,METAR KSVH 021735Z AUTO 15006KT 10SM SCT038 SCT085 27/17 A3026 RMK AO2 T02680166,0,6.0,0,16090.0,0,0,0,
2026-04-02 17:15:00,METAR KSVH 021715Z AUTO 24003KT 10SM CLR 26/16 A3027 RMK AO2 T02580162,0,3.0,0,16090.0,0,0,0,
2026-04-02 16:55:00,METAR KSVH 021655Z AUTO 14006KT 10SM CLR 26/17 A3028 RMK AO2 T02580165,0,6.0,0,16090.0,0,0,0,
2026-04-02 16:35:00,METAR KSVH 021635Z AUTO 17006KT 10SM CLR 25/16 A3029 RMK AO2 T02520161,0,6.0,0,16090.0,0,0,0,
2026-04-02 16:15:00,METAR KSVH 021615Z AUTO 00000KT 10SM SCT033 25/16 A3029 RMK AO2 T02500160,0,0.0,0,16090.0,0,0,0,
2026-04-02 15:55:00,METAR KSVH 021555Z AUTO 22005KT 10SM CLR 25/16 A3029 RMK AO2 T02490164,0,5.0,0,16090.0,0,0,0,
2026-04-02 15:35:00,METAR KSVH 021535Z AUTO 00000KT 10SM CLR 24/16 A3030 RMK AO2 T02390162,0,0.0,0,16090.0,0,0,0,
2026-04-02 15:15:00,METAR KSVH 021515Z AUTO 21006KT 10SM CLR 23/16 A3030 RMK AO2 T02310158,0,6.0,0,16090.0,0,0,0,
2026-04-02 14:55:00,METAR KSVH 021455Z AUTO 19006KT 10SM CLR 22/16 A3030 RMK AO2 T02210160,0,6.0,0,16090.0,0,0,0,
2026-04-02 14:35:00,METAR KSVH 021435Z AUTO 22007KT 10SM CLR 22/16 A3029 RMK AO2 T02190162,0,7.0,0,16090.0,0,0,0,
2026-04-02 14:15:00,METAR KSVH 021415Z AUTO 18007KT 10SM CLR 22/16 A3029 RMK AO2 T02150162,0,7.0,0,16090.0,0,0,0,
2026-04-02 13:55:00,METAR KSVH 021355Z AUTO 20004KT 10SM CLR 21/16 A3029 RMK AO2 T02070160,0,4.0,0,16090.0,0,0,0,
2026-04-02 13:35:00,METAR KSVH 021335Z AUTO 20006KT 10SM CLR 20/16 A3028 RMK AO2 T02020159,0,6.0,0,16090.0,0,0,0,
2026-04-02 13:15:00,METAR KSVH 021315Z AUTO 20007KT 10SM CLR 20/16 A3028 RMK AO2 T01990158,0,7.0,0,16090.0,0,0,0,
2026-04-02 12:55:00,METAR KSVH 021255Z AUTO 20003KT 10SM CLR 19/16 A3027 RMK AO2 T01900157,0,3.0,0,16090.0,0,0,0,
2026-04-02 12:35:00,METAR KSVH 021235Z AUTO 19003KT 10SM SCT055 18/15 A3027 RMK AO2 T01800152,0,3.0,0,16090.0,0,0,0,
2026-04-02 12:15:00,METAR KSVH 021215Z AUTO 00000KT 10SM BKN055 17/15 A3026 RMK AO2 T01730151,0,0.0,0,16090.0,0,0,0,
2026-04-02 11:55:00,METAR KSVH 021155Z AUTO 00000KT 10SM SCT055 17/15 A3026 RMK AO2 T01710151 10195 20166,0,0.0,0,16090.0,0,0,0,
2026-04-02 11:35:00,METAR KSVH 021135Z AUTO 00000KT 10SM CLR 17/15 A3025 RMK AO2 T01690152,0,0.0,0,16090.0,0,0,0,
2026-04-02 11:15:00,METAR KSVH 021115Z AUTO 00000KT 10SM CLR 17/15 A3023 RMK AO2 T01670151,0,0.0,0,16090.0,0,0,0,
2026-04-02 10:55:00,METAR KSVH 021055Z AUTO 19003KT 10SM CLR 17/16 A3022 RMK AO2 T01700155,0,3.0,0,16090.0,0,0,0,
2026-04-02 10:35:00,METAR KSVH 021035Z AUTO 00000KT 10SM CLR 17/16 A3021 RMK AO2 T01710155,0,0.0,0,16090.0,0,0,0,
2026-04-02 10:15:00,METAR KSVH 021015Z AUTO 20003KT 10SM CLR 17/15 A3020 RMK AO2 T01710154,0,3.0,0,16090.0,0,0,0,
2026-04-02 09:55:00,METAR KSVH 020955Z AUTO 00000KT 10SM CLR 17/15 A3020 RMK AO2 T01720152,0,0.0,0,16090.0,0,0,0,
2026-04-02 09:35:00,METAR KSVH 020935Z AUTO 18003KT 10SM CLR 18/16 A3019 RMK AO2 T01750155,0,3.0,0,16090.0,0,0,0,
2026-04-02 09:15:00,METAR KSVH 020915Z AUTO 00000KT 10SM CLR 18/16 A3018 RMK AO2 T01760155,0,0.0,0,16090.0,0,0,0,
2026-04-02 08:55:00,METAR KSVH 020855Z AUTO 21003KT 10SM CLR 18/16 A3017 RMK AO2 T01770155,0,3.0,0,16090.0,0,0,0,
2026-04-02 08:35:00,METAR KSVH 020835Z AUTO 20003KT 10SM CLR 18/16 A3017 RMK AO2 T01800155,0,3.0,0,16090.0,0,0,0,
2026-04-02 08:15:00,METAR KSVH 020815Z AUTO 19003KT 10SM CLR 18/16 A3016 RMK AO2 T01830155,0,3.0,0,16090.0,0,0,0,
2026-04-02 07:55:00,METAR KSVH 020755Z AUTO 19003KT 10SM CLR 19/16 A3016 RMK AO2 T01900157,0,3.0,0,16090.0,0,0,0,
2026-04-02 07:35:00,METAR KSVH 020735Z AUTO 20003KT 10SM CLR 19/16 A3017 RMK AO2 T01900155,0,3.0,0,16090.0,0,0,0,
2026-04-02 07:15:00,METAR KSVH 020715Z AUTO 20004KT 10SM CLR 19/15 A3017 RMK AO2 T01900153,0,4.0,0,16090.0,0,0,0,
2026-04-02 06:55:00,METAR KSVH 020655Z AUTO 20005KT 10SM CLR 19/15 A3017 RMK AO2 T01900151,0,5.0,0,16090.0,0,0,0,
2026-04-02 06:35:00,METAR KSVH 020635Z AUTO 20005KT 10SM CLR 19/15 A3018 RMK AO2 T01900150,0,5.0,0,16090.0,0,0,0,
2026-04-02 06:15:00,METAR KSVH 020615Z AUTO 20004KT 10SM CLR 19/15 A3018 RMK AO2 T01900150,0,4.0,0,16090.0,0,0,0,
2026-04-02 05:55:00,METAR KSVH 020555Z AUTO 21004KT 10SM CLR 20/15 A3018 RMK AO2 T01950148 10250 20180,0,4.0,0,16090.0,0,0,0,
2026-04-02 05:35:00,METAR KSVH 020535Z AUTO 20003KT 10SM CLR 20/15 A3019 RMK AO2 T01950146,0,3.0,0,16090.0,0,0,0,
2026-04-02 05:15:00,METAR KSVH 020515Z AUTO 20003KT 10SM CLR 19/15 A3019 RMK AO2 T01940147,0,3.0,0,16090.0,0,0,0,
2026-04-02 04:55:00,METAR KSVH 020455Z AUTO 19003KT 10SM CLR 18/15 A3018 RMK AO2 T01810149 402960155,0,3.0,0,16090.0,0,0,0,
2026-04-02 04:35:00,METAR KSVH 020435Z AUTO 00000KT 10SM CLR 19/15 A3018 RMK AO2 T01900151,0,0.0,0,16090.0,0,0,0,
2026-04-02 04:15:00,METAR KSVH 020415Z AUTO 00000KT 10SM CLR 18/15 A3018 RMK AO2 T01820151,0,0.0,0,16090.0,0,0,0,
2026-04-02 03:55:00,METAR KSVH 020355Z AUTO 00000KT 10SM CLR 20/15 A3018 RMK AO2 T02000147,0,0.0,0,16090.0,0,0,0,
2026-04-02 03:35:00,METAR KSVH 020335Z AUTO 00000KT 10SM CLR 21/15 A3018 RMK AO2 T02090147,0,0.0,0,16090.0,0,0,0,
2026-04-02 03:15:00,METAR KSVH 020315Z AUTO 00000KT 10SM CLR 20/15 A3017 RMK AO2 T02040151,0,0.0,0,16090.0,0,0,0,
2026-04-02 02:55:00,METAR KSVH 020255Z AUTO 19003KT 10SM CLR 21/15 A3017 RMK AO2 T02100152,0,3.0,0,16090.0,0,0,0,
2026-04-02 02:35:00,METAR KSVH 020235Z AUTO 00000KT 10SM CLR 22/15 A3017 RMK AO2 T02150151,0,0.0,0,16090.0,0,0,0,
2026-04-02 02:15:00,METAR KSVH 020215Z AUTO 00000KT 10SM CLR 21/16 A3016 RMK AO2 T02100157,0,0.0,0,16090.0,0,0,0,
2026-04-02 01:55:00,METAR KSVH 020155Z AUTO 17003KT 10SM CLR 20/17 A3016 RMK AO2 T02000170,0,3.0,0,16090.0,0,0,0,
2026-04-02 01:35:00,METAR KSVH 020135Z AUTO 00000KT 10SM SCT065 21/16 A3016 RMK AO2 T02050157,0,0.0,0,16090.0,0,0,0,
2026-04-02 01:15:00,METAR KSVH 020115Z AUTO 00000KT 10SM SCT065 22/14 A3016 RMK AO2 T02200144,0,0.0,0,16090.0,0,0,0,
2026-04-02 00:55:00,METAR KSVH 020055Z AUTO 00000KT 10SM SCT070 23/14 A3015 RMK AO2 T02300141,0,0.0,0,16090.0,0,0,0,
2026-04-02 00:35:00,METAR KSVH 020035Z AUTO 25003KT 10SM SCT085 SCT110 24/14 A3014 RMK AO2 T02400140,0,3.0,0,16090.0,0,0,0,
2026-04-02 00:15:00,METAR KSVH 020015Z AUTO 21012G16KT 10SM CLR 25/14 A3014 RMK AO2 T02450139,0,12.0,1,16090.0,0,0,0,
2026-04-01 23:55:00,METAR KSVH 012355Z AUTO 19003KT 10SM CLR 25/13 A3013 RMK AO2 T02500131 10296 20250,0,3.0,0,16090.0,0,0,0,
2026-04-01 23:35:00,METAR KSVH 012335Z AUTO 21003KT 10SM CLR 26/13 A3013 RMK AO2 T02550131,0,3.0,0,16090.0,0,0,0,
2026-04-01 23:15:00,METAR KSVH 012315Z AUTO 22003KT 10SM CLR 26/13 A3012 RMK AO2 T02600130,0,3.0,0,16090.0,0,0,0,
2026-04-01 22:55:00,METAR KSVH 012255Z AUTO 22004KT 10SM CLR 27/13 A3012 RMK AO2 T02680130,0,4.0,0,16090.0,0,0,0,
2026-04-01 22:35:00,METAR KSVH 012235Z AUTO 20003KT 10SM CLR 27/12 A3011 RMK AO2 T02720124,0,3.0,0,16090.0,0,0,0,
2026-04-01 22:15:00,METAR KSVH 012215Z AUTO 20007KT 160V230 10SM CLR 28/12 A3010 RMK AO2 T02780122,0,7.0,0,16090.0,0,0,0,
2026-04-01 21:55:00,METAR KSVH 012155Z AUTO 19006KT 10SM SCT070 28/13 A3010 RMK AO2 T02840125,0,6.0,0,16090.0,0,0,0,
2026-04-01 21:35:00,METAR KSVH 012135Z AUTO 19007G14KT 160V220 10SM SCT070 SCT090 28/12 A3010 RMK AO2 T02810124,0,7.0,1,16090.0,0,0,0,
2026-04-01 21:15:00,METAR KSVH 012115Z AUTO 19009G15KT 10SM CLR 29/12 A3010 RMK AO2 T02900116,0,9.0,1,16090.0,0,0,0,
2026-04-01 20:55:00,METAR KSVH 012055Z AUTO 20011G15KT 10SM CLR 29/12 A3011 RMK AO2 T02930116,0,11.0,1,16090.0,0,0,0,
2026-04-01 20:35:00,METAR KSVH 012035Z AUTO 19008KT 10SM CLR 29/13 A3010 RMK AO2 T02910125,0,8.0,0,16090.0,0,0,0,
2026-04-01 20:15:00,METAR KSVH 012015Z AUTO 21008G18KT 10SM CLR 29/13 A3011 RMK AO2 T02930125,0,8.0,1,16090.0,0,0,0,
2026-04-01 19:55:00,METAR KSVH 011955Z AUTO 18007G15KT 150V220 10SM CLR 29/12 A3011 RMK AO2 T02930123,0,7.0,1,16090.0,0,0,0,
2026-04-01 19:35:00,METAR KSVH 011935Z AUTO 24011G18KT 10SM SCT070 29/12 A3012 RMK AO2 T02930117,0,11.0,1,16090.0,0,0,0,
2026-04-01 19:15:00,METAR KSVH 011915Z AUTO 25007KT 10SM SCT060 29/13 A3013 RMK AO2 T02930128,0,7.0,0,16090.0,0,0,0,
2026-04-01 18:55:00,METAR KSVH 011855Z AUTO 20009KT 170V230 10SM SCT060 28/13 A3014 RMK AO2 T02830131,0,9.0,0,16090.0,0,0,0,
2026-04-01 18:35:00,METAR KSVH 011835Z AUTO 20009KT 10SM SCT060 29/13 A3016 RMK AO2 T02880127,0,9.0,0,16090.0,0,0,0,
2026-04-01 18:15:00,METAR KSVH 011815Z AUTO 18006KT 10SM CLR 29/14 A3017 RMK AO2 T02860135,0,6.0,0,16090.0,0,0,0,
2026-04-01 17:55:00,METAR KSVH 011755Z AUTO 24007KT 10SM CLR 28/14 A3018 RMK AO2 T02810140 10283 20160,0,7.0,0,16090.0,0,0,0,
2026-04-01 17:35:00,METAR KSVH 011735Z AUTO 22007G14KT 10SM CLR 28/15 A3019 RMK AO2 T02770149,0,7.0,1,16090.0,0,0,0,
2026-04-01 17:15:00,METAR KSVH 011715Z AUTO 22005KT 10SM CLR 27/15 A3020 RMK AO2 T02710145,0,5.0,0,16090.0,0,0,0,
2026-04-01 16:55:00,METAR KSVH 011655Z AUTO 20003KT 10SM CLR 27/16 A3020 RMK AO2 T02680157,0,3.0,0,16090.0,0,0,0,
2026-04-01 16:35:00,METAR KSVH 011635Z AUTO 22005KT 10SM CLR 26/16 A3021 RMK AO2 T02620156,0,5.0,0,16090.0,0,0,0,
2026-04-01 16:15:00,METAR KSVH 011615Z AUTO 00000KT 10SM CLR 26/16 A3021 RMK AO2 T02590164,0,0.0,0,16090.0,0,0,0,
2026-04-01 15:55:00,METAR KSVH 011555Z AUTO 25006KT 10SM CLR 25/17 A3022 RMK AO2 T02510165,0,6.0,0,16090.0,0,0,0,
2026-04-01 15:35:00,METAR KSVH 011535Z AUTO 26007KT 10SM CLR 25/17 A3023 RMK AO2 T02500169,0,7.0,0,16090.0,0,0,0,
2026-04-01 15:15:00,METAR KSVH 011515Z AUTO 24007KT 10SM CLR 23/16 A3023 RMK AO2 T02330164,0,7.0,0,16090.0,0,0,0,
2026-04-01 14:55:00,METAR KSVH 011455Z AUTO 22006KT 10SM CLR 23/17 A3023 RMK AO2 T02250166,0,6.0,0,16090.0,0,0,0,
2026-04-01 14:35:00,METAR KSVH 011435Z AUTO 20003KT 10SM CLR 22/17 A3023 RMK AO2 T02190167,0,3.0,0,16090.0,0,0,0,
2026-04-01 13:55:00,METAR KSVH 011355Z AUTO 25009KT 10SM CLR 20/16 A3023 RMK AO2 T02000162,0,9.0,0,16090.0,0,0,0,
2026-04-01 13:35:00,METAR KSVH 011335Z AUTO 23008KT 10SM CLR 20/17 A3022 RMK AO2 T01950165,0,8.0,0,16090.0,0,0,0,
2026-04-01 13:15:00,METAR KSVH 011315Z AUTO 22007KT 10SM SCT006 18/16 A3023 RMK AO2 T01830162,0,7.0,0,16090.0,0,0,0,
2026-04-01 12:55:00,METAR KSVH 011255Z AUTO 21006KT 10SM BKN006 18/16 A3023 RMK AO2 T01750161,0,6.0,0,16090.0,0,0,0,
2026-04-01 12:35:00,METAR KSVH 011235Z AUTO 22004KT 10SM SCT006 17/16 A3022 RMK AO2 T01710162,0,4.0,0,16090.0,0,0,0,
2026-04-01 12:15:00,METAR KSVH 011215Z AUTO 20003KT 10SM CLR 16/16 A3022 RMK AO2 T01620157,0,3.0,0,16090.0,0,0,0,
2026-04-01 11:55:00,METAR KSVH 011155Z AUTO 00000KT 7SM SCT009 16/16 A3021 RMK AO2 T01600157 10180 20155,0,0.0,0,11263.0,0,0,0,
2026-04-01 11:35:00,METAR KSVH 011135Z AUTO 00000KT 7SM SCT009 16/15 A3020 RMK AO2 T01560154,0,0.0,0,11263.0,0,0,0,
2026-04-01 11:15:00,METAR KSVH 011115Z AUTO 19003KT 7SM CLR 16/16 A3019 RMK AO2 T01560155,0,3.0,0,11263.0,0,0,0,
2026-04-01 10:55:00,METAR KSVH 011055Z AUTO 00000KT 10SM CLR 16/15 A3019 RMK AO2 T01570154,0,0.0,0,16090.0,0,0,0,
2026-04-01 10:35:00,METAR KSVH 011035Z AUTO 21003KT 10SM CLR 16/16 A3018 RMK AO2 T01600155,0,3.0,0,16090.0,0,0,0,
2026-04-01 10:15:00,METAR KSVH 011015Z AUTO 00000KT 10SM CLR 16/16 A3017 RMK AO2 T01610155,0,0.0,0,16090.0,0,0,0,
2026-04-01 09:55:00,METAR KSVH 010955Z AUTO 20003KT 10SM CLR 17/16 A3017 RMK AO2 T01660157,0,3.0,0,16090.0,0,0,0,
2026-04-01 09:35:00,METAR KSVH 010935Z AUTO 20005KT 10SM CLR 17/16 A3016 RMK AO2 T01700158,0,5.0,0,16090.0,0,0,0,
2026-04-01 09:15:00,METAR KSVH 010915Z AUTO 20006KT 10SM CLR 17/16 A3016 RMK AO2 T01710157,0,6.0,0,16090.0,0,0,0,
2026-04-01 08:55:00,METAR KSVH 010855Z AUTO 21006KT 10SM CLR 17/16 A3016 RMK AO2 T01710156,0,6.0,0,16090.0,0,0,0,
2026-04-01 08:35:00,METAR KSVH 010835Z AUTO 21007KT 10SM CLR 17/16 A3016 RMK AO2 T01710155,0,7.0,0,16090.0,0,0,0,
2026-04-01 08:15:00,METAR KSVH 010815Z AUTO 20006KT 10SM CLR 17/15 A3017 RMK AO2 T01710152,0,6.0,0,16090.0,0,0,0,
2026-04-01 07:55:00,METAR KSVH 010755Z AUTO 21005KT 10SM CLR 17/15 A3017 RMK AO2 T01720152,0,5.0,0,16090.0,0,0,0,
2026-04-01 07:35:00,METAR KSVH 010735Z AUTO 20005KT 10SM CLR 17/15 A3017 RMK AO2 T01710150,0,5.0,0,16090.0,0,0,0,
2026-04-01 07:15:00,METAR KSVH 010715Z AUTO 20004KT 10SM CLR 17/15 A3017 RMK AO2 T01710151,0,4.0,0,16090.0,0,0,0,
2026-04-01 06:55:00,METAR KSVH 010655Z AUTO 00000KT 10SM CLR 17/15 A3017 RMK AO2 T01720150,0,0.0,0,16090.0,0,0,0,
2026-04-01 06:35:00,METAR KSVH 010635Z AUTO 20004KT 10SM CLR 17/15 A3017 RMK AO2 T01730150,0,4.0,0,16090.0,0,0,0,
2026-04-01 06:15:00,METAR KSVH 010615Z AUTO 19004KT 10SM CLR 18/15 A3017 RMK AO2 T01750150,0,4.0,0,16090.0,0,0,0,
2026-04-01 05:55:00,METAR KSVH 010555Z AUTO 21004KT 10SM CLR 18/15 A3017 RMK AO2 T01800150 10219 20180,0,4.0,0,16090.0,0,0,0,
2026-04-01 05:35:00,METAR KSVH 010535Z AUTO 20005KT 10SM CLR 18/15 A3017 RMK AO2 T01800150,0,5.0,0,16090.0,0,0,0,
2026-04-01 05:15:00,METAR KSVH 010515Z AUTO 20004KT 10SM CLR 18/15 A3017 RMK AO2 T01810150,0,4.0,0,16090.0,0,0,0,
2026-04-01 04:55:00,METAR KSVH 010455Z AUTO 20004KT 10SM CLR 19/15 A3018 RMK AO2 T01870151 402610127,0,4.0,0,16090.0,0,0,0,
2026-04-01 04:35:00,METAR KSVH 010435Z AUTO 20003KT 10SM CLR 19/15 A3018 RMK AO2 T01900153,0,3.0,0,16090.0,0,0,0,
2026-04-01 04:15:00,METAR KSVH 010415Z AUTO 20005KT 10SM CLR 19/15 A3017 RMK AO2 T01890152,0,5.0,0,16090.0,0,0,0,
2026-04-01 03:55:00,METAR KSVH 010355Z AUTO 20004KT 10SM CLR 19/15 A3018 RMK AO2 T01900153,0,4.0,0,16090.0,0,0,0,
2026-04-01 03:35:00,METAR KSVH 010335Z AUTO 19004KT 10SM CLR 19/15 A3017 RMK AO2 T01900151,0,4.0,0,16090.0,0,0,0,
2026-04-01 03:15:00,METAR KSVH 010315Z AUTO 20004KT 10SM CLR 19/15 A3017 RMK AO2 T01930150,0,4.0,0,16090.0,0,0,0,
2026-04-01 02:55:00,METAR KSVH 010255Z AUTO 20004KT 10SM CLR 20/15 A3017 RMK AO2 T01950150,0,4.0,0,16090.0,0,0,0,
2026-04-01 02:35:00,METAR KSVH 010235Z AUTO 20004KT 10SM CLR 20/15 A3017 RMK AO2 T01950148,0,4.0,0,16090.0,0,0,0,
2026-04-01 02:15:00,METAR KSVH 010215Z AUTO 19004KT 10SM CLR 20/15 A3017 RMK AO2 T01990148,0,4.0,0,16090.0,0,0,0,
2026-04-01 01:55:00,METAR KSVH 010155Z AUTO 18004KT 10SM CLR 20/15 A3018 RMK AO2 T02000145,0,4.0,0,16090.0,0,0,0,
2026-04-01 01:35:00,METAR KSVH 010135Z AUTO 19004KT 10SM CLR 20/15 A3018 RMK AO2 T02040145,0,4.0,0,16090.0,0,0,0,
2026-04-01 01:15:00,METAR KSVH 010115Z AUTO 18005KT 10SM CLR 21/14 A3017 RMK AO2 T02050142,0,5.0,0,16090.0,0,0,0,
2026-04-01 00:55:00,METAR KSVH 010055Z AUTO 18004KT 10SM CLR 21/14 A3017 RMK AO2 T02100142,0,4.0,0,16090.0,0,0,0,
2026-04-01 00:35:00,METAR KSVH 010035Z AUTO 18004KT 10SM CLR 21/14 A3017 RMK AO2 T02100140,0,4.0,0,16090.0,0,0,0,
2026-04-01 00:15:00,METAR KSVH 010015Z AUTO 19004KT 10SM CLR 22/14 A3016 RMK AO2 T02150140,0,4.0,0,16090.0,0,0,0,
2026-03-31 23:55:00,METAR KSVH 312355Z AUTO 20003KT 10SM CLR 22/14 A3016 RMK AO2 T02200137 10261 20220,0,3.0,0,16090.0,0,0,0,
2026-03-31 23:35:00,METAR KSVH 312335Z AUTO 19005KT 10SM CLR 23/14 A3015 RMK AO2 T02250137,0,5.0,0,16090.0,0,0,0,
2026-03-31 23:15:00,METAR KSVH 312315Z AUTO 19005KT 10SM CLR 23/14 A3016 RMK AO2 T02330136,0,5.0,0,16090.0,0,0,0,
2026-03-31 22:55:00,METAR KSVH 312255Z AUTO 18007KT 160V230 10SM CLR 24/14 A3016 RMK AO2 T02400137,0,7.0,0,16090.0,0,0,0,
2026-03-31 22:35:00,METAR KSVH 312235Z AUTO 19007KT 10SM CLR 24/14 A3016 RMK AO2 T02400135,0,7.0,0,16090.0,0,0,0,
2026-03-31 22:15:00,METAR KSVH 312215Z AUTO 19007G14KT 160V220 10SM SCT050 25/14 A3015 RMK AO2 T02450136,0,7.0,1,16090.0,0,0,0,
2026-03-31 21:55:00,METAR KSVH 312155Z AUTO 17010G15KT 10SM SCT050 25/14 A3016 RMK AO2 T02510135,0,10.0,1,16090.0,0,0,0,
2026-03-31 21:35:00,METAR KSVH 312135Z AUTO 20006G16KT 10SM SCT050 26/13 A3016 RMK AO2 T02550128,0,6.0,1,16090.0,0,0,0,
2026-03-31 21:15:00,METAR KSVH 312115Z AUTO 19009G16KT 10SM SCT050 25/13 A3016 RMK AO2 T02500131,0,9.0,1,16090.0,0,0,0,
2026-03-31 20:55:00,METAR KSVH 312055Z AUTO 20010G15KT 150V210 10SM CLR 26/13 A3016 RMK AO2 T02600131,0,10.0,1,16090.0,0,0,0,
2026-03-31 20:35:00,METAR KSVH 312035Z AUTO 17009G18KT 10SM CLR 26/13 A3016 RMK AO2 T02580128,0,9.0,1,16090.0,0,0,0,
2026-03-31 20:15:00,METAR KSVH 312015Z AUTO 17012G16KT 150V220 10SM CLR 26/13 A3016 RMK AO2 T02590129,0,12.0,1,16090.0,0,0,0,
2026-03-31 19:55:00,METAR KSVH 311955Z AUTO 17009G16KT 10SM SCT050 26/13 A3017 RMK AO2 T02590133,0,9.0,1,16090.0,0,0,0,
2026-03-31 19:35:00,METAR KSVH 311935Z AUTO 17009G15KT 10SM CLR 26/13 A3018 RMK AO2 T02550131,0,9.0,1,16090.0,0,0,0,
2026-03-31 19:15:00,METAR KSVH 311915Z AUTO 20010G15KT 10SM CLR 26/13 A3019 RMK AO2 T02550129,0,10.0,1,16090.0,0,0,0,
2026-03-31 18:55:00,METAR KSVH 311855Z AUTO 21007G10KT 10SM CLR 25/13 A3020 RMK AO2 T02520131,0,7.0,1,16090.0,0,0,0,
2026-03-31 18:35:00,METAR KSVH 311835Z AUTO 21009G17KT 170V240 10SM CLR 25/13 A3022 RMK AO2 T02500130,0,9.0,1,16090.0,0,0,0,
2026-03-31 18:15:00,METAR KSVH 311815Z AUTO 21013G17KT 10SM CLR 25/13 A3023 RMK AO2 T02500133,0,13.0,1,16090.0,0,0,0,
2026-03-31 17:55:00,METAR KSVH 311755Z AUTO 22012G18KT 10SM CLR 25/13 A3024 RMK AO2 T02500131 10251 20136,0,12.0,1,16090.0,0,0,0,
2026-03-31 17:35:00,METAR KSVH 311735Z AUTO 21011G17KT 10SM CLR 25/13 A3025 RMK AO2 T02500132,0,11.0,1,16090.0,0,0,0,
2026-03-31 17:15:00,METAR KSVH 311715Z AUTO 21010G15KT 10SM CLR 24/13 A3026 RMK AO2 T02400131,0,10.0,1,16090.0,0,0,0,
2026-03-31 16:55:00,METAR KSVH 311655Z AUTO 20008G15KT 10SM CLR 24/13 A3027 RMK AO2 T02350133,0,8.0,1,16090.0,0,0,0,
2026-03-31 16:35:00,METAR KSVH 311635Z AUTO 21007G14KT 10SM SCT100 22/13 A3028 RMK AO2 T02220131,0,7.0,1,16090.0,0,0,0,
2026-03-31 16:15:00,METAR KSVH 311615Z AUTO 21010G14KT 10SM OVC100 22/13 A3029 RMK AO2 T02200130,0,10.0,1,16090.0,0,0,0,
2026-03-31 15:55:00,METAR KSVH 311555Z AUTO 23011G14KT 10SM OVC090 21/13 A3030 RMK AO2 T02130128,0,11.0,1,16090.0,0,0,0,
2026-03-31 15:35:00,METAR KSVH 311535Z AUTO 21010G15KT 10SM OVC090 21/13 A3031 RMK AO2 T02140129,0,10.0,1,16090.0,0,0,0,
2026-03-31 15:15:00,METAR KSVH 311515Z AUTO 23012G16KT 10SM OVC090 22/13 A3031 RMK AO2 T02160128,0,12.0,1,16090.0,0,0,0,
2026-03-31 14:55:00,METAR KSVH 311455Z AUTO 22010G15KT 10SM OVC090 21/13 A3031 RMK AO2 T02100129,0,10.0,1,16090.0,0,0,0,
2026-03-31 14:35:00,METAR KSVH 311435Z AUTO 23009KT 10SM OVC080 19/13 A3031 RMK AO2 T01930129,0,9.0,0,16090.0,0,0,0,
2026-03-31 14:15:00,METAR KSVH 311415Z AUTO 22005KT 10SM OVC080 18/13 A3031 RMK AO2 T01800127,0,5.0,0,16090.0,0,0,0,
2026-03-31 13:55:00,METAR KSVH 311355Z AUTO 23005KT 10SM OVC080 17/13 A3031 RMK AO2 T01720126,0,5.0,0,16090.0,0,0,0,
2026-03-31 13:35:00,METAR KSVH 311335Z AUTO 21009KT 10SM OVC080 17/13 A3031 RMK AO2 T01700126,0,9.0,0,16090.0,0,0,0,
2026-03-31 13:15:00,METAR KSVH 311315Z AUTO 21007KT 10SM OVC080 16/12 A3032 RMK AO2 T01620123,0,7.0,0,16090.0,0,0,0,
2026-03-31 12:55:00,METAR KSVH 311255Z AUTO 20005KT 10SM OVC080 15/12 A3032 RMK AO2 T01540121,0,5.0,0,16090.0,0,0,0,
2026-03-31 12:35:00,METAR KSVH 311235Z AUTO 21004KT 10SM OVC080 15/12 A3032 RMK AO2 T01460120,0,4.0,0,16090.0,0,0,0,
2026-03-31 12:15:00,METAR KSVH 311215Z AUTO 20003KT 10SM OVC070 14/12 A3032 RMK AO2 T01410120,0,3.0,0,16090.0,0,0,0,
2026-03-31 11:55:00,METAR KSVH 311155Z AUTO 20004KT 10SM BKN070 14/12 A3032 RMK AO2 T01360117 10155 20127,0,4.0,0,16090.0,0,0,0,
2026-03-31 11:35:00,METAR KSVH 311135Z AUTO 19004KT 10SM CLR 13/12 A3031 RMK AO2 T01300116,0,4.0,0,16090.0,0,0,0,
2026-03-31 11:15:00,METAR KSVH 311115Z AUTO 20003KT 10SM CLR 13/12 A3030 RMK AO2 T01310115,0,3.0,0,16090.0,0,0,0,
2026-03-31 10:55:00,METAR KSVH 311055Z AUTO 21003KT 10SM CLR 13/12 A3030 RMK AO2 T01330115,0,3.0,0,16090.0,0,0,0,
2026-03-31 10:35:00,METAR KSVH 311035Z AUTO 21003KT 10SM BKN055 14/12 A3029 RMK AO2 T01350115,0,3.0,0,16090.0,0,0,0,
2026-03-31 10:15:00,METAR KSVH 311015Z AUTO 20004KT 10SM SCT055 14/12 A3028 RMK AO2 T01350115,0,4.0,0,16090.0,0,0,0,
2026-03-31 09:55:00,METAR KSVH 310955Z AUTO 21004KT 10SM CLR 14/12 A3028 RMK AO2 T01400115,0,4.0,0,16090.0,0,0,0,
2026-03-31 09:35:00,METAR KSVH 310935Z AUTO 20004KT 10SM CLR 14/11 A3027 RMK AO2 T01400113,0,4.0,0,16090.0,0,0,0,
2026-03-31 09:15:00,METAR KSVH 310915Z AUTO 21005KT 10SM CLR 14/11 A3026 RMK AO2 T01400112,0,5.0,0,16090.0,0,0,0,
2026-03-31 08:55:00,METAR KSVH 310855Z AUTO 20004KT 10SM CLR 14/11 A3027 RMK AO2 T01370110,0,4.0,0,16090.0,0,0,0,
2026-03-31 08:35:00,METAR KSVH 310835Z AUTO 20003KT 10SM SCT070 14/11 A3026 RMK AO2 T01440110,0,3.0,0,16090.0,0,0,0,
2026-03-31 08:15:00,METAR KSVH 310815Z AUTO 19004KT 10SM SCT070 15/11 A3026 RMK AO2 T01450110,0,4.0,0,16090.0,0,0,0,
2026-03-31 07:55:00,METAR KSVH 310755Z AUTO 19004KT 10SM CLR 15/11 A3027 RMK AO2 T01450108,0,4.0,0,16090.0,0,0,0,
2026-03-31 07:35:00,METAR KSVH 310735Z AUTO 20004KT 10SM CLR 15/11 A3027 RMK AO2 T01470107,0,4.0,0,16090.0,0,0,0,
2026-03-31 07:15:00,METAR KSVH 310715Z AUTO 20004KT 10SM CLR 15/11 A3027 RMK AO2 T01500107,0,4.0,0,16090.0,0,0,0,
2026-03-31 06:55:00,METAR KSVH 310655Z AUTO 20004KT 10SM CLR 15/11 A3027 RMK AO2 T01490107,0,4.0,0,16090.0,0,0,0,
2026-03-31 06:35:00,METAR KSVH 310635Z AUTO 19004KT 10SM CLR 15/11 A3028 RMK AO2 T01500106,0,4.0,0,16090.0,0,0,0,
2026-03-31 06:15:00,METAR KSVH 310615Z AUTO 19003KT 10SM CLR 15/11 A3028 RMK AO2 T01480105,0,3.0,0,16090.0,0,0,0,
2026-03-31 05:55:00,METAR KSVH 310555Z AUTO 17004KT 10SM CLR 16/10 A3028 RMK AO2 T01550103 10190 20152,0,4.0,0,16090.0,0,0,0,
2026-03-31 05:35:00,METAR KSVH 310535Z AUTO 18003KT 10SM CLR 16/10 A3029 RMK AO2 T01550103,0,3.0,0,16090.0,0,0,0,
2026-03-31 05:15:00,METAR KSVH 310515Z AUTO 19004KT 10SM CLR 16/10 A3029 RMK AO2 T01590102,0,4.0,0,16090.0,0,0,0,
2026-03-31 04:55:00,METAR KSVH 310455Z AUTO 19004KT 10SM CLR 15/10 A3029 RMK AO2 T01540102 402220084,0,4.0,0,16090.0,0,0,0,
2026-03-31 04:35:00,METAR KSVH 310435Z AUTO 18003KT 10SM CLR 16/10 A3030 RMK AO2 T01610103,0,3.0,0,16090.0,0,0,0,
2026-03-31 04:15:00,METAR KSVH 310415Z AUTO 20003KT 10SM SCT085 16/10 A3030 RMK AO2 T01620101,0,3.0,0,16090.0,0,0,0,
2026-03-31 03:55:00,METAR KSVH 310355Z AUTO 20003KT 10SM SCT085 16/10 A3030 RMK AO2 T01610101,0,3.0,0,16090.0,0,0,0,
2026-03-31 03:35:00,METAR KSVH 310335Z AUTO 19003KT 10SM CLR 17/10 A3030 RMK AO2 T01650101,0,3.0,0,16090.0,0,0,0,
2026-03-31 03:15:00,METAR KSVH 310315Z AUTO 19003KT 10SM CLR 17/11 A3030 RMK AO2 T01690105,0,3.0,0,16090.0,0,0,0,
2026-03-31 02:55:00,METAR KSVH 310255Z AUTO 19003KT 10SM SCT065 17/10 A3030 RMK AO2 T01710103,0,3.0,0,16090.0,0,0,0,
2026-03-31 02:35:00,METAR KSVH 310235Z AUTO 00000KT 10SM BKN065 17/10 A3030 RMK AO2 T01730102,0,0.0,0,16090.0,0,0,0,
2026-03-31 02:15:00,METAR KSVH 310215Z AUTO 19003KT 10SM OVC065 17/10 A3030 RMK AO2 T01720102,0,3.0,0,16090.0,0,0,0,
2026-03-31 01:55:00,METAR KSVH 310155Z AUTO 18003KT 10SM BKN065 17/10 A3030 RMK AO2 T01720101,0,3.0,0,16090.0,0,0,0,
2026-03-31 01:35:00,METAR KSVH 310135Z AUTO 19003KT 10SM CLR 17/10 A3029 RMK AO2 T01710101,0,3.0,0,16090.0,0,0,0,
2026-03-31 01:15:00,METAR KSVH 310115Z AUTO 20003KT 10SM CLR 17/10 A3029 RMK AO2 T01720100,0,3.0,0,16090.0,0,0,0,
2026-03-31 00:55:00,METAR KSVH 310055Z AUTO 20003KT 10SM CLR 17/10 A3029 RMK AO2 T01730100,0,3.0,0,16090.0,0,0,0,
2026-03-31 00:35:00,METAR KSVH 310035Z AUTO 00000KT 10SM CLR 18/10 A3028 RMK AO2 T01770099,0,0.0,0,16090.0,0,0,0,
2026-03-31 00:15:00,METAR KSVH 310015Z AUTO 19004KT 10SM CLR 18/10 A3028 RMK AO2 T01800098,0,4.0,0,16090.0,0,0,0,
2026-03-30 23:55:00,METAR KSVH 302355Z AUTO 18004KT 10SM CLR 19/10 A3028 RMK AO2 T01900100 10222 20190,0,4.0,0,16090.0,0,0,0,
2026-03-30 23:35:00,METAR KSVH 302335Z AUTO 19004KT 10SM CLR 19/10 A3029 RMK AO2 T01930098,0,4.0,0,16090.0,0,0,0,
2026-03-30 23:15:00,METAR KSVH 302315Z AUTO 18005KT 10SM CLR 20/10 A3029 RMK AO2 T02000097,0,5.0,0,16090.0,0,0,0,
2026-03-30 22:55:00,METAR KSVH 302255Z AUTO 17006KT 10SM CLR 21/10 A3029 RMK AO2 T02050095,0,6.0,0,16090.0,0,0,0,
2026-03-30 22:35:00,METAR KSVH 302235Z AUTO 20006KT 10SM CLR 21/10 A3029 RMK AO2 T02110095,0,6.0,0,16090.0,0,0,0,
2026-03-30 22:15:00,METAR KSVH 302215Z AUTO 19007KT 10SM CLR 21/10 A3029 RMK AO2 T02140096,0,7.0,0,16090.0,0,0,0,
2026-03-30 21:55:00,METAR KSVH 302155Z AUTO 21009KT 10SM CLR 22/09 A3029 RMK AO2 T02150094,0,9.0,0,16090.0,0,0,0,
2026-03-30 21:35:00,METAR KSVH 302135Z AUTO 19011G14KT 10SM CLR 22/09 A3029 RMK AO2 T02160093,0,11.0,1,16090.0,0,0,0,
2026-03-30 21:15:00,METAR KSVH 302115Z AUTO 21010G16KT 10SM CLR 22/10 A3029 RMK AO2 T02200095,0,10.0,1,16090.0,0,0,0,
2026-03-30 20:55:00,METAR KSVH 302055Z AUTO 21009G15KT 160V250 10SM SCT055 22/10 A3030 RMK AO2 T02190097,0,9.0,1,16090.0,0,0,0,
2026-03-30 20:35:00,METAR KSVH 302035Z AUTO 19008KT 10SM BKN055 22/10 A3031 RMK AO2 T02180099,0,8.0,0,16090.0,0,0,0,
2026-03-30 20:15:00,METAR KSVH 302015Z AUTO 20008KT 10SM OVC055 21/10 A3031 RMK AO2 T02100096,0,8.0,0,16090.0,0,0,0,
2026-03-30 19:55:00,METAR KSVH 301955Z AUTO 19008KT 10SM OVC055 21/10 A3032 RMK AO2 T02100099,0,8.0,0,16090.0,0,0,0,
2026-03-30 19:35:00,METAR KSVH 301935Z AUTO 21008KT 10SM SCT046 OVC055 21/10 A3033 RMK AO2 T02050096,0,8.0,0,16090.0,0,0,0,
2026-03-30 19:15:00,METAR KSVH 301915Z AUTO 19007KT 10SM SCT046 OVC055 21/10 A3033 RMK AO2 T02140099,0,7.0,0,16090.0,0,0,0,
2026-03-30 18:55:00,METAR KSVH 301855Z AUTO 22012G16KT 160V230 10SM SCT044 SCT055 SCT065 22/10 A3034 RMK AO2 T02170101,0,12.0,1,16090.0,0,0,0,
2026-03-30 18:35:00,METAR KSVH 301835Z AUTO 21012G16KT 10SM SCT042 21/10 A3035 RMK AO2 T02140097,0,12.0,1,16090.0,0,0,0,
2026-03-30 18:15:00,METAR KSVH 301815Z AUTO 22010G14KT 10SM SCT042 21/10 A3036 RMK AO2 T02130098,0,10.0,1,16090.0,0,0,0,
2026-03-30 17:55:00,METAR KSVH 301755Z AUTO 19007KT 10SM SCT042 21/10 A3037 RMK AO2 T02110096 10213 20095,0,7.0,0,16090.0,0,0,0,
2026-03-30 17:35:00,METAR KSVH 301735Z AUTO 18008KT 10SM SCT042 BKN048 20/10 A3038 RMK AO2 T01970096,0,8.0,0,16090.0,0,0,0,
2026-03-30 17:15:00,METAR KSVH 301715Z AUTO 20007KT 10SM OVC042 20/09 A3038 RMK AO2 T01950094,0,7.0,0,16090.0,0,0,0,
2026-03-30 16:55:00,METAR KSVH 301655Z AUTO 22007KT 200V260 10SM OVC038 19/10 A3039 RMK AO2 T01940096,0,7.0,0,16090.0,0,0,0,
2026-03-30 16:35:00,METAR KSVH 301635Z AUTO 23006KT 10SM OVC038 20/10 A3039 RMK AO2 T01950097,0,6.0,0,16090.0,0,0,0,
2026-03-30 16:15:00,METAR KSVH 301615Z AUTO 21009G15KT 10SM OVC038 19/10 A3040 RMK AO2 T01940096,0,9.0,1,16090.0,0,0,0,
2026-03-30 15:55:00,METAR KSVH 301555Z AUTO 19010KT 10SM BKN036 BKN042 BKN048 19/10 A3040 RMK AO2 T01920096,0,10.0,0,16090.0,0,0,0,
2026-03-30 15:35:00,METAR KSVH 301535Z AUTO 21006KT 10SM SCT032 19/10 A3041 RMK AO2 T01920104,0,6.0,0,16090.0,0,0,0,
2026-03-30 15:15:00,METAR KSVH 301515Z AUTO 19010G16KT 10SM BKN030 18/10 A3041 RMK AO2 T01810100,0,10.0,1,16090.0,0,0,0,
2026-03-30 14:55:00,METAR KSVH 301455Z AUTO 21011G15KT 10SM BKN028 18/10 A3041 RMK AO2 T01750101,0,11.0,1,16090.0,0,0,0,
2026-03-30 14:35:00,METAR KSVH 301435Z AUTO 19010G16KT 10SM BKN026 BKN031 17/10 A3041 RMK AO2 T01710104,0,10.0,1,16090.0,0,0,0,
2026-03-30 14:15:00,METAR KSVH 301415Z AUTO 22008G14KT 10SM SCT026 16/10 A3041 RMK AO2 T01630102,0,8.0,1,16090.0,0,0,0,
2026-03-30 13:55:00,METAR KSVH 301355Z AUTO 19007G18KT 10SM CLR 16/10 A3040 RMK AO2 T01560100,0,7.0,1,16090.0,0,0,0,
2026-03-30 13:35:00,METAR KSVH 301335Z AUTO 21007KT 10SM CLR 15/10 A3040 RMK AO2 T01500100,0,7.0,0,16090.0,0,0,0,
2026-03-30 13:15:00,METAR KSVH 301315Z AUTO 21005KT 10SM CLR 14/10 A3040 RMK AO2 T01360097,0,5.0,0,16090.0,0,0,0,
2026-03-30 12:55:00,METAR KSVH 301255Z AUTO 22004KT 10SM CLR 13/09 A3040 RMK AO2 T01250093,0,4.0,0,16090.0,0,0,0,
2026-03-30 12:35:00,METAR KSVH 301235Z AUTO 20004KT 10SM CLR 12/09 A3040 RMK AO2 T01190091,0,4.0,0,16090.0,0,0,0,
2026-03-30 12:15:00,METAR KSVH 301215Z AUTO 20003KT 10SM CLR 10/09 A3040 RMK AO2 T01030086,0,3.0,0,16090.0,0,0,0,
2026-03-30 11:55:00,METAR KSVH 301155Z AUTO 00000KT 10SM CLR 09/08 A3040 RMK AO2 T00930081 10118 20084,0,0.0,0,16090.0,0,0,0,
2026-03-30 11:35:00,METAR KSVH 301135Z AUTO 00000KT 10SM CLR 10/08 A3039 RMK AO2 T00950081,0,0.0,0,16090.0,0,0,0,
2026-03-30 11:15:00,METAR KSVH 301115Z AUTO 21003KT 10SM CLR 09/08 A3039 RMK AO2 T00920080,0,3.0,0,16090.0,0,0,0,
2026-03-30 10:55:00,METAR KSVH 301055Z AUTO 20003KT 10SM CLR 09/08 A3039 RMK AO2 T00920080,0,3.0,0,16090.0,0,0,0,
2026-03-30 10:35:00,METAR KSVH 301035Z AUTO 21003KT 10SM CLR 09/08 A3038 RMK AO2 T00920077,0,3.0,0,16090.0,0,0,0,
2026-03-30 10:15:00,METAR KSVH 301015Z AUTO 00000KT 10SM CLR 09/08 A3038 RMK AO2 T00910079,0,0.0,0,16090.0,0,0,0,
2026-03-30 09:55:00,METAR KSVH 300955Z AUTO 00000KT 10SM SCT044 09/08 A3038 RMK AO2 T00920075,0,0.0,0,16090.0,0,0,0,
2026-03-30 09:35:00,METAR KSVH 300935Z AUTO 00000KT 10SM SCT042 09/08 A3038 RMK AO2 T00920075,0,0.0,0,16090.0,0,0,0,
2026-03-30 09:15:00,METAR KSVH 300915Z AUTO 00000KT 10SM SCT044 10/08 A3037 RMK AO2 T01010075,0,0.0,0,16090.0,0,0,0,
2026-03-30 08:55:00,METAR KSVH 300855Z AUTO 21003KT 10SM BKN044 10/08 A3037 RMK AO2 T01020075,0,3.0,0,16090.0,0,0,0,
2026-03-30 08:35:00,METAR KSVH 300835Z AUTO 22004KT 10SM SCT037 SCT043 10/07 A3037 RMK AO2 T01020074,0,4.0,0,16090.0,0,0,0,
2026-03-30 08:15:00,METAR KSVH 300815Z AUTO 22003KT 10SM SCT036 SCT120 11/08 A3038 RMK AO2 T01070075,0,3.0,0,16090.0,0,0,0,
2026-03-30 07:55:00,METAR KSVH 300755Z AUTO 21004KT 10SM CLR 11/08 A3038 RMK AO2 T01120076,0,4.0,0,16090.0,0,0,0,
2026-03-30 07:35:00,METAR KSVH 300735Z AUTO 22005KT 10SM CLR 11/07 A3039 RMK AO2 T01120073,0,5.0,0,16090.0,0,0,0,
2026-03-30 07:15:00,METAR KSVH 300715Z AUTO 21005KT 10SM CLR 12/07 A3039 RMK AO2 T01170073,0,5.0,0,16090.0,0,0,0,
2026-03-30 06:55:00,METAR KSVH 300655Z AUTO 21007KT 10SM CLR 12/07 A3040 RMK AO2 T01180070,0,7.0,0,16090.0,0,0,0,
2026-03-30 06:35:00,METAR KSVH 300635Z AUTO 20007KT 10SM CLR 12/07 A3040 RMK AO2 T01170065,0,7.0,0,16090.0,0,0,0,
2026-03-30 06:15:00,METAR KSVH 300615Z AUTO 20006KT 10SM CLR 11/06 A3041 RMK AO2 T01120057,0,6.0,0,16090.0,0,0,0,
2026-03-30 05:55:00,METAR KSVH 300555Z AUTO 20005KT 10SM SCT055 11/05 A3042 RMK AO2 T01120052 10150 20100,0,5.0,0,16090.0,0,0,0,
2026-03-30 05:35:00,METAR KSVH 300535Z AUTO 20004KT 10SM BKN055 11/05 A3042 RMK AO2 T01090047,0,4.0,0,16090.0,0,0,0,
2026-03-30 05:15:00,METAR KSVH 300515Z AUTO 19003KT 10SM BKN055 11/04 A3042 RMK AO2 T01090040,0,3.0,0,16090.0,0,0,0,
2026-03-30 04:55:00,METAR KSVH 300455Z AUTO 19003KT 10SM BKN055 11/04 A3042 RMK AO2 T01080039 401801008,0,3.0,0,16090.0,0,0,0,
2026-03-30 04:35:00,METAR KSVH 300435Z AUTO 19003KT 10SM OVC055 10/04 A3043 RMK AO2 T01020040,0,3.0,0,16090.0,0,0,0,
2026-03-30 04:15:00,METAR KSVH 300415Z AUTO 00000KT 10SM SCT055 10/04 A3043 RMK AO2 T01040035,0,0.0,0,16090.0,0,0,0,
2026-03-30 03:55:00,METAR KSVH 300355Z AUTO 00000KT 10SM SCT055 12/03 A3043 RMK AO2 T01150030,0,0.0,0,16090.0,0,0,0,
2026-03-30 03:35:00,METAR KSVH 300335Z AUTO 19003KT 10SM CLR 12/03 A3043 RMK AO2 T01150030,0,3.0,0,16090.0,0,0,0,
2026-03-30 03:10:00,METAR KSVH 300310Z AUTO 00000KT 10SM CLR 11/03 A3044 RMK AO2 T01120029,0,0.0,0,16090.0,0,0,0,
2026-03-30 02:55:00,METAR KSVH 300255Z AUTO 21003KT 10SM CLR 11/03 A3043 RMK AO2 T01050029,0,3.0,0,16090.0,0,0,0,
2026-03-30 02:35:00,METAR KSVH 300235Z AUTO 00000KT 10SM CLR 12/03 A3043 RMK AO2 T01160025,0,0.0,0,16090.0,0,0,0,
2026-03-30 02:15:00,METAR KSVH 300215Z AUTO 00000KT 10SM CLR 12/02 A3043 RMK AO2 T01190022,0,0.0,0,16090.0,0,0,0,
2026-03-30 01:55:00,METAR KSVH 300155Z AUTO 00000KT 10SM CLR 12/02 A3042 RMK AO2 T01200020,0,0.0,0,16090.0,0,0,0,
2026-03-30 01:35:00,METAR KSVH 300135Z AUTO 00000KT 10SM CLR 13/02 A3043 RMK AO2 T01260017,0,0.0,0,16090.0,0,0,0,
2026-03-30 01:15:00,METAR KSVH 300115Z AUTO 00000KT 10SM CLR 13/02 A3042 RMK AO2 T01250015,0,0.0,0,16090.0,0,0,0,
2026-03-30 00:55:00,METAR KSVH 300055Z AUTO 00000KT 10SM CLR 13/01 A3041 RMK AO2 T01310010,0,0.0,0,16090.0,0,0,0,
2026-03-30 00:35:00,METAR KSVH 300035Z AUTO 00000KT 10SM CLR 14/01 A3041 RMK AO2 T01370008,0,0.0,0,16090.0,0,0,0,
2026-03-30 00:15:00,METAR KSVH 300015Z AUTO 00000KT 10SM CLR 14/01 A3042 RMK AO2 T01420005,0,0.0,0,16090.0,0,0,0,
2026-03-29 23:55:00,METAR KSVH 292355Z AUTO 00000KT 10SM CLR 15/00 A3042 RMK AO2 T01500001 10180 20150,0,0.0,0,16090.0,0,0,0,
2026-03-29 23:35:00,METAR KSVH 292335Z AUTO 18004KT 10SM CLR 16/00 A3042 RMK AO2 T01570000,0,4.0,0,16090.0,0,0,0,
2026-03-29 23:15:00,METAR KSVH 292315Z AUTO 20006KT 10SM CLR 17/00 A3043 RMK AO2 T01691001,0,6.0,0,16090.0,0,0,0,
2026-03-29 22:55:00,METAR KSVH 292255Z AUTO 20003KT 10SM CLR 17/M01 A3043 RMK AO2 T01711006,0,3.0,0,16090.0,0,0,0,
2026-03-29 22:35:00,METAR KSVH 292235Z AUTO 16006KT 10SM CLR 17/00 A3043 RMK AO2 T01740000,0,6.0,0,16090.0,0,0,0,
2026-03-29 22:15:00,METAR KSVH 292215Z AUTO 17005KT 10SM CLR 17/M01 A3043 RMK AO2 T01731010,0,5.0,0,16090.0,0,0,0,
2026-03-29 21:55:00,METAR KSVH 292155Z AUTO 16006KT 10SM CLR 18/M01 A3043 RMK AO2 T01771014,0,6.0,0,16090.0,0,0,0,
2026-03-29 21:35:00,METAR KSVH 292135Z AUTO 16007KT 120V180 10SM CLR 18/M02 A3044 RMK AO2 T01771021,0,7.0,0,16090.0,0,0,0,
2026-03-29 21:15:00,METAR KSVH 292115Z AUTO 18005KT 10SM CLR 18/M02 A3044 RMK AO2 T01781019,0,5.0,0,16090.0,0,0,0,
2026-03-29 20:55:00,METAR KSVH 292055Z AUTO 14007KT 10SM CLR 18/M03 A3045 RMK AO2 T01751032,0,7.0,0,16090.0,0,0,0,
2026-03-29 20:35:00,METAR KSVH 292035Z AUTO 16006KT 10SM CLR 17/M04 A3046 RMK AO2 T01721039,0,6.0,0,16090.0,0,0,0,
2026-03-29 20:15:00,METAR KSVH 292015Z AUTO 15005KT 10SM CLR 17/M04 A3047 RMK AO2 T01711045,0,5.0,0,16090.0,0,0,0,
2026-03-29 19:55:00,METAR KSVH 291955Z AUTO 17007KT 120V200 10SM CLR 17/M05 A3048 RMK AO2 T01711050,0,7.0,0,16090.0,0,0,0,
2026-03-29 19:35:00,METAR KSVH 291935Z AUTO 20007KT 10SM CLR 17/M06 A3049 RMK AO2 T01661062,0,7.0,0,16090.0,0,0,0,
2026-03-29 19:15:00,METAR KSVH 291915Z AUTO 15008KT 10SM CLR 16/M06 A3050 RMK AO2 T01621062,0,8.0,0,16090.0,0,0,0,
2026-03-29 18:55:00,METAR KSVH 291855Z AUTO 17009KT 10SM CLR 16/M07 A3051 RMK AO2 T01631066,0,9.0,0,16090.0,0,0,0,
2026-03-29 18:35:00,METAR KSVH 291835Z AUTO 20006KT 10SM CLR 16/M07 A3052 RMK AO2 T01611066,0,6.0,0,16090.0,0,0,0,
2026-03-29 18:15:00,METAR KSVH 291815Z AUTO 15009KT 120V180 10SM CLR 16/M08 A3054 RMK AO2 T01551078,0,9.0,0,16090.0,0,0,0,
2026-03-29 17:55:00,METAR KSVH 291755Z AUTO 19007KT 10SM CLR 15/M09 A3054 RMK AO2 T01481086 10148 20000,0,7.0,0,16090.0,0,0,0,
2026-03-29 17:35:00,METAR KSVH 291735Z AUTO 20006KT 10SM CLR 15/M08 A3056 RMK AO2 T01461082,0,6.0,0,16090.0,0,0,0,
2026-03-29 17:15:00,METAR KSVH 291715Z AUTO 16005KT 10SM CLR 14/M08 A3057 RMK AO2 T01371081,0,5.0,0,16090.0,0,0,0,
2026-03-29 16:55:00,METAR KSVH 291655Z AUTO 14005KT 10SM CLR 13/M05 A3059 RMK AO2 T01321054,0,5.0,0,16090.0,0,0,0,
2026-03-29 16:35:00,METAR KSVH 291635Z AUTO 22005KT 10SM CLR 13/M04 A3061 RMK AO2 T01291044,0,5.0,0,16090.0,0,0,0,
2026-03-29 16:15:00,METAR KSVH 291615Z AUTO 14005KT 10SM CLR 13/M03 A3062 RMK AO2 T01271035,0,5.0,0,16090.0,0,0,0,
2026-03-29 15:35:00,METAR KSVH 291535Z AUTO 13006KT 10SM CLR 11/M05 A3064 RMK AO2 T01131050,0,6.0,0,16090.0,0,0,0,
2026-03-29 15:15:00,METAR KSVH 291515Z AUTO 16007KT 10SM CLR 11/M05 A3064 RMK AO2 T01121050,0,7.0,0,16090.0,0,0,0,
2026-03-29 14:55:00,METAR KSVH 291455Z AUTO 20005KT 10SM CLR 10/M05 A3064 RMK AO2 T01041048,0,5.0,0,16090.0,0,0,0,
2026-03-29 14:35:00,METAR KSVH 291435Z AUTO 22006KT 10SM CLR 10/M04 A3064 RMK AO2 T01001042,0,6.0,0,16090.0,0,0,0,
2026-03-29 14:15:00,METAR KSVH 291415Z AUTO 20004KT 10SM CLR 10/M02 A3064 RMK AO2 T00961017,0,4.0,0,16090.0,0,0,0,
2026-03-29 13:55:00,METAR KSVH 291355Z AUTO 22006KT 10SM CLR 08/M02 A3063 RMK AO2 T00831025,0,6.0,0,16090.0,0,0,0,
2026-03-29 13:35:00,METAR KSVH 291335Z AUTO 23003KT 10SM CLR 08/M03 A3063 RMK AO2 T00781034,0,3.0,0,16090.0,0,0,0,
2026-03-29 13:15:00,METAR KSVH 291315Z AUTO 00000KT 10SM CLR 07/M02 A3063 RMK AO2 T00671025,0,0.0,0,16090.0,0,0,0,
2026-03-29 12:55:00,METAR KSVH 291255Z AUTO 00000KT 10SM CLR 05/M01 A3062 RMK AO2 T00521007,0,0.0,0,16090.0,0,0,0,
2026-03-29 12:35:00,METAR KSVH 291235Z AUTO 00000KT 10SM CLR 03/00 A3062 RMK AO2 T00331001,0,0.0,0,16090.0,0,0,0,
2026-03-29 12:15:00,METAR KSVH 291215Z AUTO 00000KT 10SM CLR 02/M01 A3061 RMK AO2 T00151010,0,0.0,0,16090.0,0,0,0,
2026-03-29 11:55:00,METAR KSVH 291155Z AUTO 00000KT 10SM CLR 00/M02 A3061 RMK AO2 T00011018 10034 21008,0,0.0,0,16090.0,0,0,0,
2026-03-29 11:35:00,METAR KSVH 291135Z AUTO 00000KT 10SM CLR 00/M02 A3059 RMK AO2 T10021017,0,0.0,0,16090.0,0,0,0,
2026-03-29 11:15:00,METAR KSVH 291115Z AUTO 00000KT 10SM CLR 00/M02 A3059 RMK AO2 T10021025,0,0.0,0,16090.0,0,0,0,
2026-03-29 10:55:00,METAR KSVH 291055Z AUTO 00000KT 10SM CLR M01/M02 A3058 RMK AO2 T10061021,0,0.0,0,16090.0,0,0,0,
2026-03-29 10:35:00,METAR KSVH 291035Z AUTO 00000KT 10SM CLR 00/M02 A3057 RMK AO2 T10051021,0,0.0,0,16090.0,0,0,0,
2026-03-29 10:15:00,METAR KSVH 291015Z AUTO 00000KT 10SM CLR 00/M03 A3057 RMK AO2 T10031031,0,0.0,0,16090.0,0,0,0,
2026-03-29 09:55:00,METAR KSVH 290955Z AUTO 00000KT 10SM CLR 00/M02 A3057 RMK AO2 T00031021,0,0.0,0,16090.0,0,0,0,
2026-03-29 09:35:00,METAR KSVH 290935Z AUTO 00000KT 10SM CLR 00/M02 A3056 RMK AO2 T00001020,0,0.0,0,16090.0,0,0,0,
2026-03-29 09:15:00,METAR KSVH 290915Z AUTO 00000KT 10SM CLR 00/M03 A3055 RMK AO2 T00021032,0,0.0,0,16090.0,0,0,0,
2026-03-29 08:55:00,METAR KSVH 290855Z AUTO 00000KT 10SM CLR 00/M03 A3055 RMK AO2 T00031028,0,0.0,0,16090.0,0,0,0,
2026-03-29 08:35:00,METAR KSVH 290835Z AUTO 00000KT 10SM CLR 00/M03 A3055 RMK AO2 T00041026,0,0.0,0,16090.0,0,0,0,
2026-03-29 08:15:00,METAR KSVH 290815Z AUTO 00000KT 10SM CLR 01/M03 A3054 RMK AO2 T00061026,0,0.0,0,16090.0,0,0,0,
2026-03-29 07:55:00,METAR KSVH 290755Z AUTO 00000KT 10SM CLR 01/M03 A3053 RMK AO2 T00101029,0,0.0,0,16090.0,0,0,0,
2026-03-29 07:35:00,METAR KSVH 290735Z AUTO 00000KT 10SM CLR 02/M03 A3054 RMK AO2 T00151035,0,0.0,0,16090.0,0,0,0,
2026-03-29 07:15:00,METAR KSVH 290715Z AUTO 00000KT 10SM CLR 02/M03 A3054 RMK AO2 T00211035,0,0.0,0,16090.0,0,0,0,
2026-03-29 06:55:00,METAR KSVH 290655Z AUTO 00000KT 10SM CLR 03/M04 A3054 RMK AO2 T00261037,0,0.0,0,16090.0,0,0,0,
2026-03-29 06:35:00,METAR KSVH 290635Z AUTO 00000KT 10SM CLR 02/M03 A3054 RMK AO2 T00171034,0,0.0,0,16090.0,0,0,0,
2026-03-29 06:15:00,METAR KSVH 290615Z AUTO 00000KT 10SM CLR 03/M03 A3054 RMK AO2 T00251033,0,0.0,0,16090.0,0,0,0,
2026-03-29 05:55:00,METAR KSVH 290555Z AUTO 00000KT 10SM CLR 04/M04 A3055 RMK AO2 T00351036 10113 20025,0,0.0,0,16090.0,0,0,0,
2026-03-29 05:35:00,METAR KSVH 290535Z AUTO 00000KT 10SM CLR 03/M03 A3054 RMK AO2 T00321030,0,0.0,0,16090.0,0,0,0,
2026-03-29 05:15:00,METAR KSVH 290515Z AUTO 00000KT 10SM CLR 04/M05 A3054 RMK AO2 T00361047,0,0.0,0,16090.0,0,0,0,
2026-03-29 04:55:00,METAR KSVH 290455Z AUTO 00000KT 10SM CLR 04/M04 A3053 RMK AO2 T00351044 401520035,0,0.0,0,16090.0,0,0,0,
2026-03-29 04:35:00,METAR KSVH 290435Z AUTO 00000KT 10SM CLR 05/M05 A3053 RMK AO2 T00531051,0,0.0,0,16090.0,0,0,0,
2026-03-29 04:15:00,METAR KSVH 290415Z AUTO 00000KT 10SM CLR 06/M05 A3053 RMK AO2 T00571053,0,0.0,0,16090.0,0,0,0,
2026-03-29 03:55:00,METAR KSVH 290355Z AUTO 00000KT 10SM CLR 07/M06 A3053 RMK AO2 T00661063,0,0.0,0,16090.0,0,0,0,
2026-03-29 03:35:00,METAR KSVH 290335Z AUTO 00000KT 10SM CLR 07/M06 A3052 RMK AO2 T00661060,0,0.0,0,16090.0,0,0,0,
2026-03-29 03:15:00,METAR KSVH 290315Z AUTO 00000KT 10SM CLR 08/M06 A3051 RMK AO2 T00781065,0,0.0,0,16090.0,0,0,0,
2026-03-29 02:55:00,METAR KSVH 290255Z AUTO 13003KT 10SM CLR 08/M06 A3051 RMK AO2 T00831065,0,3.0,0,16090.0,0,0,0,
2026-03-29 02:35:00,METAR KSVH 290235Z AUTO 13004KT 10SM CLR 09/M06 A3051 RMK AO2 T00851059,0,4.0,0,16090.0,0,0,0,
2026-03-29 02:15:00,METAR KSVH 290215Z AUTO 13004KT 10SM CLR 09/M06 A3051 RMK AO2 T00891062,0,4.0,0,16090.0,0,0,0,
2026-03-29 01:55:00,METAR KSVH 290155Z AUTO 12004KT 10SM CLR 09/M07 A3050 RMK AO2 T00911066,0,4.0,0,16090.0,0,0,0,
2026-03-29 01:35:00,METAR KSVH 290135Z AUTO 11003KT 10SM CLR 08/M07 A3050 RMK AO2 T00801069,0,3.0,0,16090.0,0,0,0,
2026-03-29 01:15:00,METAR KSVH 290115Z AUTO 11003KT 10SM CLR 08/M07 A3049 RMK AO2 T00821075,0,3.0,0,16090.0,0,0,0,
2026-03-29 00:55:00,METAR KSVH 290055Z AUTO 00000KT 10SM CLR 09/M09 A3048 RMK AO2 T00891087,0,0.0,0,16090.0,0,0,0,
2026-03-29 00:35:00,METAR KSVH 290035Z AUTO 09003KT 10SM CLR 09/M09 A3048 RMK AO2 T00921089,0,3.0,0,16090.0,0,0,0,
2026-03-29 00:15:00,METAR KSVH 290015Z AUTO 08007KT 10SM CLR 10/M09 A3047 RMK AO2 T00951090,0,7.0,0,16090.0,0,0,0,
2026-03-28 23:55:00,METAR KSVH 282355Z AUTO 06003KT 10SM CLR 11/M11 A3047 RMK AO2 T01131111 10152 20112,0,3.0,0,16090.0,0,0,0,
2026-03-28 23:35:00,METAR KSVH 282335Z AUTO 05004KT 10SM CLR 13/M11 A3046 RMK AO2 T01251112,0,4.0,0,16090.0,0,0,0,
2026-03-28 23:15:00,METAR KSVH 282315Z AUTO 05004KT 10SM CLR 13/M11 A3046 RMK AO2 T01321111,0,4.0,0,16090.0,0,0,0,
2026-03-28 22:55:00,METAR KSVH 282255Z AUTO 05006KT 10SM CLR 14/M10 A3045 RMK AO2 T01391098,0,6.0,0,16090.0,0,0,0,
2026-03-28 22:35:00,METAR KSVH 282235Z AUTO 01005KT 10SM CLR 14/M11 A3045 RMK AO2 T01411106,0,5.0,0,16090.0,0,0,0,
2026-03-28 22:15:00,METAR KSVH 282215Z AUTO 05006KT 10SM CLR 15/M09 A3044 RMK AO2 T01461091,0,6.0,0,16090.0,0,0,0,
2026-03-28 21:55:00,METAR KSVH 282155Z AUTO 04007KT 10SM CLR 15/M10 A3044 RMK AO2 T01461099,0,7.0,0,16090.0,0,0,0,
2026-03-28 21:35:00,METAR KSVH 282135Z AUTO 36007KT 10SM CLR 15/M10 A3044 RMK AO2 T01451097,0,7.0,0,16090.0,0,0,0,
2026-03-28 21:15:00,METAR KSVH 282115Z AUTO 02011G14KT 10SM CLR 15/M09 A3044 RMK AO2 T01481091,0,11.0,1,16090.0,0,0,0,
2026-03-28 20:55:00,METAR KSVH 282055Z AUTO 02004KT 10SM CLR 15/M09 A3044 RMK AO2 T01471095,0,4.0,0,16090.0,0,0,0,
2026-03-28 20:35:00,METAR KSVH 282035Z AUTO 05009G17KT 10SM CLR 15/M09 A3045 RMK AO2 T01471089,0,9.0,1,16090.0,0,0,0,
2026-03-28 20:15:00,METAR KSVH 282015Z AUTO 03010G20KT 10SM CLR 15/M09 A3044 RMK AO2 T01471092,0,10.0,1,16090.0,0,0,0,
2026-03-28 19:55:00,METAR KSVH 281955Z AUTO 03010G16KT 10SM CLR 14/M08 A3045 RMK AO2 T01441084,0,10.0,1,16090.0,0,0,0,
2026-03-28 19:35:00,METAR KSVH 281935Z AUTO 05010G21KT 10SM CLR 14/M07 A3045 RMK AO2 T01421072,0,10.0,1,16090.0,0,0,0,
2026-03-28 19:15:00,METAR KSVH 281915Z AUTO 01010KT 10SM CLR 14/M07 A3046 RMK AO2 T01401066,0,10.0,0,16090.0,0,0,0,
2026-03-28 18:55:00,METAR KSVH 281855Z AUTO 05009G14KT 10SM CLR 13/M07 A3047 RMK AO2 T01321069,0,9.0,1,16090.0,0,0,0,
2026-03-28 18:35:00,METAR KSVH 281835Z AUTO 02006KT 10SM CLR 13/M07 A3047 RMK AO2 T01341067,0,6.0,0,16090.0,0,0,0,
2026-03-28 18:15:00,METAR KSVH 281815Z AUTO 04010KT 10SM CLR 13/M06 A3048 RMK AO2 T01301062,0,10.0,0,16090.0,0,0,0,
2026-03-28 17:55:00,METAR KSVH 281755Z AUTO 04004KT 10SM CLR 13/M05 A3048 RMK AO2 T01251054 10125 20045,0,4.0,0,16090.0,0,0,0,
2026-03-28 17:35:00,METAR KSVH 281735Z AUTO 02015G20KT 10SM CLR 12/M07 A3049 RMK AO2 T01171075,0,15.0,1,16090.0,0,0,0,
2026-03-28 17:15:00,METAR KSVH 281715Z AUTO 01009G17KT 340V040 10SM CLR 12/M07 A3049 RMK AO2 T01151067,0,9.0,1,16090.0,0,0,0,
2026-03-28 16:55:00,METAR KSVH 281655Z AUTO 02006G14KT 10SM CLR 11/M07 A3049 RMK AO2 T01051074,0,6.0,1,16090.0,0,0,0,
2026-03-28 16:35:00,METAR KSVH 281635Z AUTO 02011G15KT 10SM CLR 11/M06 A3050 RMK AO2 T01051065,0,11.0,1,16090.0,0,0,0,
2026-03-28 16:15:00,METAR KSVH 281615Z AUTO 05009G14KT 10SM CLR 10/M06 A3051 RMK AO2 T01011062,0,9.0,1,16090.0,0,0,0,
2026-03-28 15:55:00,METAR KSVH 281555Z AUTO 05004G16KT 10SM CLR 10/M06 A3052 RMK AO2 T00951057,0,4.0,1,16090.0,0,0,0,
2026-03-28 15:35:00,METAR KSVH 281535Z AUTO 36009G14KT 10SM CLR 09/M06 A3053 RMK AO2 T00921058,0,9.0,1,16090.0,0,0,0,
2026-03-28 15:15:00,METAR KSVH 281515Z AUTO 34013G19KT 10SM CLR 08/M07 A3053 RMK AO2 T00831066,0,13.0,1,16090.0,0,0,0,
2026-03-28 14:55:00,METAR KSVH 281455Z AUTO 35012G19KT 10SM CLR 08/M06 A3053 RMK AO2 T00781062,0,12.0,1,16090.0,0,0,0,
2026-03-28 14:35:00,METAR KSVH 281435Z AUTO 02014G19KT 10SM CLR 08/M06 A3052 RMK AO2 T00761056,0,14.0,1,16090.0,0,0,0,
2026-03-28 14:15:00,METAR KSVH 281415Z AUTO 02012G17KT 10SM CLR 07/M05 A3052 RMK AO2 T00701052,0,12.0,1,16090.0,0,0,0,
2026-03-28 13:55:00,METAR KSVH 281355Z AUTO 03014KT 10SM CLR 07/M05 A3051 RMK AO2 T00691050,0,14.0,0,16090.0,0,0,0,
2026-03-28 13:35:00,METAR KSVH 281335Z AUTO 03013G17KT 10SM CLR 07/M05 A3049 RMK AO2 T00661048,0,13.0,1,16090.0,0,0,0,
2026-03-28 13:15:00,METAR KSVH 281315Z AUTO 02013G18KT 10SM CLR 06/M06 A3049 RMK AO2 T00571058,0,13.0,1,16090.0,0,0,0,
2026-03-28 12:55:00,METAR KSVH 281255Z AUTO 02010KT 10SM CLR 05/M05 A3048 RMK AO2 T00521053,0,10.0,0,16090.0,0,0,0,
2026-03-28 12:35:00,METAR KSVH 281235Z AUTO 03015G19KT 10SM CLR 05/M05 A3047 RMK AO2 T00501053,0,15.0,1,16090.0,0,0,0,
2026-03-28 12:15:00,METAR KSVH 281215Z AUTO 03013G18KT 10SM CLR 05/M05 A3046 RMK AO2 T00451055,0,13.0,1,16090.0,0,0,0,
2026-03-28 11:55:00,METAR KSVH 281155Z AUTO 03009G16KT 10SM CLR 05/M05 A3044 RMK AO2 70046 T00451052 10112 20045,0,9.0,1,16090.0,0,0,0,
2026-03-28 11:35:00,METAR KSVH 281135Z AUTO 02010G15KT 10SM CLR 05/M05 A3042 RMK AO2 T00451047,0,10.0,1,16090.0,0,0,0,
2026-03-28 11:15:00,METAR KSVH 281115Z AUTO 03009G14KT 10SM CLR 05/M03 A3040 RMK AO2 T00451035,0,9.0,1,16090.0,0,0,0,
2026-03-28 10:55:00,METAR KSVH 281055Z AUTO 03010KT 10SM CLR 05/M02 A3038 RMK AO2 T00461020,0,10.0,0,16090.0,0,0,0,
2026-03-28 10:35:00,METAR KSVH 281035Z AUTO 03005KT 10SM CLR 05/M02 A3037 RMK AO2 T00461020,0,5.0,0,16090.0,0,0,0,
2026-03-28 10:15:00,METAR KSVH 281015Z AUTO 02005KT 10SM CLR 05/M02 A3036 RMK AO2 T00501020,0,5.0,0,16090.0,0,0,0,
2026-03-28 09:55:00,METAR KSVH 280955Z AUTO 02006KT 10SM CLR 05/M02 A3034 RMK AO2 T00521020,0,6.0,0,16090.0,0,0,0,
2026-03-28 09:35:00,METAR KSVH 280935Z AUTO 02006KT 10SM CLR 05/M02 A3033 RMK AO2 T00531016,0,6.0,0,16090.0,0,0,0,
2026-03-28 09:15:00,METAR KSVH 280915Z AUTO 04007KT 10SM CLR 06/M02 A3031 RMK AO2 T00591018,0,7.0,0,16090.0,0,0,0,
2026-03-28 08:55:00,METAR KSVH 280855Z AUTO 03008G14KT 10SM CLR 07/M01 A3030 RMK AO2 T00651013,0,8.0,1,16090.0,0,0,0,
2026-03-28 08:35:00,METAR KSVH 280835Z AUTO 03009KT 10SM CLR 07/M01 A3029 RMK AO2 T00701007,0,9.0,0,16090.0,0,0,0,
2026-03-28 08:15:00,METAR KSVH 280815Z AUTO 02008KT 10SM CLR 07/00 A3027 RMK AO2 T00710000,0,8.0,0,16090.0,0,0,0,
2026-03-28 07:55:00,METAR KSVH 280755Z AUTO 04006KT 10SM CLR 08/00 A3027 RMK AO2 T00760000,0,6.0,0,16090.0,0,0,0,
2026-03-28 07:35:00,METAR KSVH 280735Z AUTO 03010G16KT 10SM CLR 08/00 A3026 RMK AO2 T00840002,0,10.0,1,16090.0,0,0,0,
2026-03-28 07:15:00,METAR KSVH 280715Z AUTO 03012G19KT 10SM CLR 09/01 A3026 RMK AO2 T00910010,0,12.0,1,16090.0,0,0,0,
2026-03-28 06:55:00,METAR KSVH 280655Z AUTO 03010G15KT 10SM CLR 09/02 A3025 RMK AO2 T00920016,0,10.0,1,16090.0,0,0,0,
2026-03-28 06:35:00,METAR KSVH 280635Z AUTO 03009G15KT 10SM CLR 10/02 A3024 RMK AO2 T00990019,0,9.0,1,16090.0,0,0,0,
2026-03-28 06:15:00,METAR KSVH 280615Z AUTO 03013G16KT 10SM CLR 11/02 A3022 RMK AO2 T01050022,0,13.0,1,16090.0,0,0,0,
2026-03-28 05:55:00,METAR KSVH 280555Z AUTO 03008G17KT 10SM CLR 11/03 A3021 RMK AO2 60008 T01130030 10220 20113,0,8.0,1,16090.0,0,0,0,
2026-03-28 05:35:00,METAR KSVH 280535Z AUTO 03007G14KT 10SM SCT100 12/04 A3021 RMK AO2 T01220036,0,7.0,1,16090.0,0,0,0,
2026-03-28 05:15:00,METAR KSVH 280515Z AUTO 03009G15KT 10SM SCT110 12/04 A3019 RMK AO2 T01240038,0,9.0,1,16090.0,0,0,0,
2026-03-28 04:55:00,METAR KSVH 280455Z AUTO 02009G14KT 10SM BKN110 13/06 A3018 RMK AO2 T01310056 403060131,0,9.0,1,16090.0,0,0,0,
2026-03-28 04:35:00,METAR KSVH 280435Z AUTO 03007KT 10SM OVC100 13/07 A3018 RMK AO2 T01310070,0,7.0,0,16090.0,0,0,0,
2026-03-28 04:15:00,METAR KSVH 280415Z AUTO 03006KT 10SM OVC100 13/08 A3017 RMK AO2 T01340079,0,6.0,0,16090.0,0,0,0,
2026-03-28 03:55:00,METAR KSVH 280355Z AUTO 04006KT 10SM OVC080 14/10 A3016 RMK AO2 P0001 T01360096,0,6.0,0,16090.0,0,0,0,
2026-03-28 03:35:00,METAR KSVH 280335Z AUTO 04006KT 10SM -RA BKN070 OVC100 14/11 A3014 RMK AO2 P0001 T01420110,0,6.0,0,16090.0,0,0,0,-RA
2026-03-28 03:15:00,METAR KSVH 280315Z AUTO 04008KT 10SM -RA BKN070 OVC095 15/13 A3013 RMK AO2 T01540127,0,8.0,0,16090.0,0,0,0,-RA
2026-03-28 02:55:00,METAR KSVH 280255Z AUTO 01014G18KT 10SM -RA OVC070 17/13 A3011 RMK AO2 P0001 60007 T01650130,0,14.0,1,16090.0,0,0,0,-RA
2026-03-28 02:35:00,METAR KSVH 280235Z AUTO 03007KT 10SM -DZ OVC070 17/16 A3010 RMK AO2 T01710160,0,7.0,0,16090.0,0,0,0,DZ
2026-03-28 02:15:00,METAR KSVH 280215Z AUTO 02007KT 10SM OVC070 17/17 A3009 RMK AO2 T01720166,0,7.0,0,16090.0,0,0,0,
2026-03-28 01:55:00,METAR KSVH 280155Z AUTO 01005KT 10SM -RA BKN070 BKN090 BKN110 18/15 A3008 RMK AO2 P0006 T01750153,0,5.0,0,16090.0,0,0,0,-RA
2026-03-28 01:35:00,METAR KSVH 280135Z AUTO 01007KT 10SM RA SCT070 OVC090 18/16 A3007 RMK AO2 P0005 T01800161,0,7.0,0,16090.0,0,0,0,RA
2026-03-28 01:15:00,METAR KSVH 280115Z AUTO 01006KT 10SM -RA SCT070 OVC100 19/17 A3005 RMK AO2 P0001 T01900167,0,6.0,0,16090.0,0,0,0,-RA
2026-03-28 00:55:00,METAR KSVH 280055Z AUTO 35009G17KT 10SM -RA OVC070 21/15 A3004 RMK AO2 T02050154,0,9.0,1,16090.0,0,0,0,-RA
2026-03-28 00:35:00,METAR KSVH 280035Z AUTO 01009KT 10SM OVC070 22/15 A3001 RMK AO2 T02170150,0,9.0,0,16090.0,0,0,0,
2026-03-28 00:15:00,METAR KSVH 280015Z AUTO 33006KT 10SM OVC070 22/16 A3000 RMK AO2 T02170156,0,6.0,0,16090.0,0,0,0,
2026-03-27 23:55:00,METAR KSVH 272355Z AUTO 33007KT 10SM OVC070 21/17 A2999 RMK AO2 60038 T02130171 10306 20203,0,7.0,0,16090.0,0,0,0,
2026-03-27 23:35:00,METAR KSVH 272335Z AUTO 34007KT 10SM BKN070 OVC090 22/17 A2998 RMK AO2 T02150173,0,7.0,0,16090.0,0,0,0,
2026-03-27 23:15:00,METAR KSVH 272315Z AUTO 35005KT 10SM SCT014 SCT025 BKN070 20/18 A2997 RMK AO2 T02030182,0,5.0,0,16090.0,0,0,0,
2026-03-27 22:55:00,METAR KSVH 272255Z AUTO 01010G32KT 1 1/4SM +RA SCT014 BKN023 OVC070 21/18 A2997 RMK AO2 P0038 T02120175,0,10.0,1,2011.0,0,1,0,+RA
2026-03-27 22:35:00,METAR KSVH 272235Z AUTO 05011G15KT 3SM -RA SCT037 BKN070 OVC090 22/17 A2993 RMK AO2 P0012 T02220172,0,11.0,1,4827.0,0,0,0,-RA
2026-03-27 22:15:00,METAR KSVH 272215Z AUTO 04005KT 10SM OVC080 27/13 A2992 RMK AO2 T02730132,0,5.0,0,16090.0,0,0,0,
2026-03-27 21:55:00,METAR KSVH 272155Z AUTO 00000KT 10SM BKN080 BKN090 OVC110 29/11 A2992 RMK AO2 T02880113,0,0.0,0,16090.0,0,0,0,
2026-03-27 21:35:00,METAR KSVH 272135Z AUTO 21004KT 10SM SCT090 SCT110 29/11 A2991 RMK AO2 T02920111,0,4.0,0,16090.0,0,0,0,
2026-03-27 21:15:00,METAR KSVH 272115Z AUTO 00000KT 10SM CLR 30/11 A2991 RMK AO2 T02980113,0,0.0,0,16090.0,0,0,0,
2026-03-27 20:55:00,METAR KSVH 272055Z AUTO 23009KT 10SM CLR 30/11 A2991 RMK AO2 T03020113,0,9.0,0,16090.0,0,0,0,
2026-03-27 20:35:00,METAR KSVH 272035Z AUTO 25007KT 10SM CLR 30/12 A2991 RMK AO2 T03030117,0,7.0,0,16090.0,0,0,0,
2026-03-27 20:15:00,METAR KSVH 272015Z AUTO 26009KT 10SM SCT070 30/12 A2991 RMK AO2 T03040122,0,9.0,0,16090.0,0,0,0,
2026-03-27 19:55:00,METAR KSVH 271955Z AUTO 23008KT 160V260 10SM BKN070 31/12 A2992 RMK AO2 T03060123,0,8.0,0,16090.0,0,0,0,
2026-03-27 19:35:00,METAR KSVH 271935Z AUTO 24007KT 10SM BKN070 30/12 A2992 RMK AO2 T02970119,0,7.0,0,16090.0,0,0,0,
2026-03-27 19:15:00,METAR KSVH 271915Z AUTO 23005KT 10SM SCT070 29/11 A2993 RMK AO2 T02880111,0,5.0,0,16090.0,0,0,0,
2026-03-27 18:55:00,METAR KSVH 271855Z AUTO 20005KT 10SM SCT070 30/12 A2993 RMK AO2 T02980120,0,5.0,0,16090.0,0,0,0,
2026-03-27 18:35:00,METAR KSVH 271835Z AUTO 00000KT 10SM SCT070 29/13 A2994 RMK AO2 T02930127,0,0.0,0,16090.0,0,0,0,
2026-03-27 18:15:00,METAR KSVH 271815Z AUTO 26007KT 220V280 10SM CLR 29/13 A2995 RMK AO2 T02920125,0,7.0,0,16090.0,0,0,0,
2026-03-27 17:55:00,METAR KSVH 271755Z AUTO 00000KT 10SM SCT060 29/13 A2996 RMK AO2 T02890127 10291 20149,0,0.0,0,16090.0,0,0,0,
2026-03-27 17:35:00,METAR KSVH 271735Z AUTO 26004KT 10SM SCT060 29/13 A2997 RMK AO2 T02890128,0,4.0,0,16090.0,0,0,0,
2026-03-27 17:15:00,METAR KSVH 271715Z AUTO 27006KT 220V280 10SM CLR 28/13 A2998 RMK AO2 T02780133,0,6.0,0,16090.0,0,0,0,
2026-03-27 16:55:00,METAR KSVH 271655Z AUTO 29007KT 10SM CLR 27/13 A2999 RMK AO2 T02740131,0,7.0,0,16090.0,0,0,0,
2026-03-27 16:35:00,METAR KSVH 271635Z AUTO 26003KT 10SM CLR 27/13 A2999 RMK AO2 T02680130,0,3.0,0,16090.0,0,0,0,
2026-03-27 16:15:00,METAR KSVH 271615Z AUTO 32003KT 10SM CLR 27/14 A2999 RMK AO2 T02670136,0,3.0,0,16090.0,0,0,0,
2026-03-25 14:55:00,METAR KSVH 251455Z AUTO 00000KT 10SM CLR 11/00 A3037 RMK AO2 T01081002,0,0.0,0,16090.0,0,0,0,
2026-03-25 14:35:00,METAR KSVH 251435Z AUTO 18003KT 10SM CLR 10/00 A3037 RMK AO2 T01040002,0,3.0,0,16090.0,0,0,0,
2026-03-25 14:15:00,METAR KSVH 251415Z AUTO 00000KT 10SM CLR 09/00 A3038 RMK AO2 T00940002,0,0.0,0,16090.0,0,0,0,
2026-03-25 13:55:00,METAR KSVH 251355Z AUTO 00000KT 10SM CLR 09/00 A3038 RMK AO2 T00880000,0,0.0,0,16090.0,0,0,0,
2026-03-25 13:35:00,METAR KSVH 251335Z AUTO 19003KT 10SM CLR 08/00 A3038 RMK AO2 T00790000,0,3.0,0,16090.0,0,0,0,
2026-03-25 13:15:00,METAR KSVH 251315Z AUTO 21003KT 10SM CLR 07/00 A3037 RMK AO2 T00700002,0,3.0,0,16090.0,0,0,0,
2026-03-25 12:55:00,METAR KSVH 251255Z AUTO 00000KT 10SM CLR 06/00 A3037 RMK AO2 T00550000,0,0.0,0,16090.0,0,0,0,
2026-03-25 12:35:00,METAR KSVH 251235Z AUTO 00000KT 10SM CLR 04/00 A3037 RMK AO2 T00351002,0,0.0,0,16090.0,0,0,0,
2026-03-25 12:15:00,METAR KSVH 251215Z AUTO 00000KT 10SM CLR 02/00 A3037 RMK AO2 T00210000,0,0.0,0,16090.0,0,0,0,
2026-03-25 11:55:00,METAR KSVH 251155Z AUTO 00000KT 10SM CLR 01/00 A3036 RMK AO2 T00081005 10035 20005,0,0.0,0,16090.0,0,0,0,
2026-03-25 11:35:00,METAR KSVH 251135Z AUTO 00000KT 10SM CLR 01/00 A3035 RMK AO2 T00071005,0,0.0,0,16090.0,0,0,0,
2026-03-25 11:15:00,METAR KSVH 251115Z AUTO 00000KT 10SM CLR 01/00 A3035 RMK AO2 T00081005,0,0.0,0,16090.0,0,0,0,
2026-03-25 10:55:00,METAR KSVH 251055Z AUTO 11004KT 10SM CLR 01/00 A3034 RMK AO2 T00061005,0,4.0,0,16090.0,0,0,0,
2026-03-25 10:35:00,METAR KSVH 251035Z AUTO 00000KT 10SM CLR 01/00 A3034 RMK AO2 T00071005,0,0.0,0,16090.0,0,0,0,
2026-03-25 10:15:00,METAR KSVH 251015Z AUTO 00000KT 10SM CLR 01/00 A3034 RMK AO2 T00061005,0,0.0,0,16090.0,0,0,0,
2026-03-25 09:55:00,METAR KSVH 250955Z AUTO 00000KT 10SM CLR 01/M01 A3034 RMK AO2 T00061010,0,0.0,0,16090.0,0,0,0,
2026-03-25 09:35:00,METAR KSVH 250935Z AUTO 00000KT 10SM CLR 01/M02 A3033 RMK AO2 T00061019,0,0.0,0,16090.0,0,0,0,
2026-03-25 09:15:00,METAR KSVH 250915Z AUTO 00000KT 10SM CLR 02/M01 A3032 RMK AO2 T00151011,0,0.0,0,16090.0,0,0,0,
2026-03-25 08:55:00,METAR KSVH 250855Z AUTO 00000KT 10SM CLR 02/M01 A3032 RMK AO2 T00151013,0,0.0,0,16090.0,0,0,0,
2026-03-25 08:35:00,METAR KSVH 250835Z AUTO 00000KT 10SM CLR 02/M01 A3032 RMK AO2 T00151011,0,0.0,0,16090.0,0,0,0,
2026-03-25 08:15:00,METAR KSVH 250815Z AUTO 00000KT 10SM CLR 02/M02 A3033 RMK AO2 T00201016,0,0.0,0,16090.0,0,0,0,
2026-03-25 07:55:00,METAR KSVH 250755Z AUTO 00000KT 10SM CLR 02/M01 A3033 RMK AO2 T00151013,0,0.0,0,16090.0,0,0,0,
2026-03-25 07:35:00,METAR KSVH 250735Z AUTO 00000KT 10SM CLR 02/M01 A3033 RMK AO2 T00161009,0,0.0,0,16090.0,0,0,0,
2026-03-25 07:15:00,METAR KSVH 250715Z AUTO 00000KT 10SM CLR 02/M01 A3033 RMK AO2 T00221015,0,0.0,0,16090.0,0,0,0,
2026-03-25 06:55:00,METAR KSVH 250655Z AUTO 00000KT 10SM CLR 02/00 A3034 RMK AO2 T00201003,0,0.0,0,16090.0,0,0,0,
2026-03-25 06:35:00,METAR KSVH 250635Z AUTO 00000KT 10SM CLR 03/00 A3034 RMK AO2 T00251004,0,0.0,0,16090.0,0,0,0,
2026-03-25 06:15:00,METAR KSVH 250615Z AUTO 00000KT 10SM CLR 03/M01 A3035 RMK AO2 T00311010,0,0.0,0,16090.0,0,0,0,
2026-03-25 05:55:00,METAR KSVH 250555Z AUTO 00000KT 10SM CLR 04/M01 A3036 RMK AO2 T00351013 10092 20032,0,0.0,0,16090.0,0,0,0,
2026-03-25 05:35:00,METAR KSVH 250535Z AUTO 00000KT 10SM CLR 04/M02 A3037 RMK AO2 T00351023,0,0.0,0,16090.0,0,0,0,
2026-03-25 05:15:00,METAR KSVH 250515Z AUTO 00000KT 10SM CLR 04/M03 A3037 RMK AO2 T00421027,0,0.0,0,16090.0,0,0,0,
2026-03-25 04:55:00,METAR KSVH 250455Z AUTO 00000KT 10SM CLR 05/M02 A3037 RMK AO2 T00461022 401310038,0,0.0,0,16090.0,0,0,0,
2026-03-25 04:35:00,METAR KSVH 250435Z AUTO 00000KT 10SM CLR 04/M02 A3037 RMK AO2 T00431021,0,0.0,0,16090.0,0,0,0,
2026-03-25 04:15:00,METAR KSVH 250415Z AUTO 00000KT 10SM CLR 05/M03 A3036 RMK AO2 T00531029,0,0.0,0,16090.0,0,0,0,
2026-03-25 03:55:00,METAR KSVH 250355Z AUTO 00000KT 10SM CLR 06/M03 A3036 RMK AO2 T00571029,0,0.0,0,16090.0,0,0,0,
2026-03-25 03:35:00,METAR KSVH 250335Z AUTO 10003KT 10SM CLR 06/M03 A3036 RMK AO2 T00611029,0,3.0,0,16090.0,0,0,0,
2026-03-25 03:15:00,METAR KSVH 250315Z AUTO 10003KT 10SM CLR 06/M02 A3035 RMK AO2 T00621023,0,3.0,0,16090.0,0,0,0,
2026-03-25 02:55:00,METAR KSVH 250255Z AUTO 11004KT 10SM CLR 06/M02 A3035 RMK AO2 T00631017,0,4.0,0,16090.0,0,0,0,
2026-03-25 02:35:00,METAR KSVH 250235Z AUTO 00000KT 10SM CLR 07/M02 A3037 RMK AO2 T00681024,0,0.0,0,16090.0,0,0,0,
2026-03-25 02:15:00,METAR KSVH 250215Z AUTO 00000KT 10SM CLR 06/M02 A3038 RMK AO2 T00631019,0,0.0,0,16090.0,0,0,0,
2026-03-25 01:55:00,METAR KSVH 250155Z AUTO 00000KT 10SM CLR 07/M03 A3037 RMK AO2 T00721035,0,0.0,0,16090.0,0,0,0,
2026-03-25 01:35:00,METAR KSVH 250135Z AUTO 00000KT 10SM CLR 07/M04 A3037 RMK AO2 T00711036,0,0.0,0,16090.0,0,0,0,
2026-03-25 01:15:00,METAR KSVH 250115Z AUTO 00000KT 10SM CLR 08/M04 A3037 RMK AO2 T00821044,0,0.0,0,16090.0,0,0,0,
2026-03-25 00:55:00,METAR KSVH 250055Z AUTO 00000KT 10SM CLR 08/M04 A3036 RMK AO2 T00791038,0,0.0,0,16090.0,0,0,0,
2026-03-25 00:35:00,METAR KSVH 250035Z AUTO 08004KT 10SM CLR 08/M04 A3034 RMK AO2 T00821040,0,4.0,0,16090.0,0,0,0,
2026-03-25 00:15:00,METAR KSVH 250015Z AUTO 09004KT 10SM CLR 09/M04 A3034 RMK AO2 T00851042,0,4.0,0,16090.0,0,0,0,
2026-03-24 23:55:00,METAR KSVH 242355Z AUTO 10004KT 10SM CLR 09/M04 A3033 RMK AO2 T00921045 10131 20088,0,4.0,0,16090.0,0,0,0,
2026-03-24 23:35:00,METAR KSVH 242335Z AUTO 09004KT 10SM CLR 09/M04 A3033 RMK AO2 T00921039,0,4.0,0,16090.0,0,0,0,
2026-03-24 23:15:00,METAR KSVH 242315Z AUTO 10003KT 10SM CLR 10/M04 A3032 RMK AO2 T01011037,0,3.0,0,16090.0,0,0,0,
2026-03-24 22:55:00,METAR KSVH 242255Z AUTO 10004KT 10SM CLR 12/M04 A3032 RMK AO2 T01191039,0,4.0,0,16090.0,0,0,0,
2026-03-24 22:35:00,METAR KSVH 242235Z AUTO 10005KT 10SM CLR 13/M04 A3032 RMK AO2 T01261036,0,5.0,0,16090.0,0,0,0,
2026-03-24 22:15:00,METAR KSVH 242215Z AUTO 07004KT 10SM CLR 13/M04 A3032 RMK AO2 T01261043,0,4.0,0,16090.0,0,0,0,
2026-03-24 21:55:00,METAR KSVH 242155Z AUTO 04005KT 10SM CLR 13/M04 A3031 RMK AO2 T01311044,0,5.0,0,16090.0,0,0,0,
2026-03-24 21:35:00,METAR KSVH 242135Z AUTO 08004KT 10SM CLR 13/M04 A3030 RMK AO2 T01301043,0,4.0,0,16090.0,0,0,0,
2026-03-24 21:15:00,METAR KSVH 242115Z AUTO 10005KT 10SM CLR 13/M04 A3031 RMK AO2 T01301044,0,5.0,0,16090.0,0,0,0,
2026-03-24 20:55:00,METAR KSVH 242055Z AUTO 11005KT 10SM CLR 13/M05 A3032 RMK AO2 T01271048,0,5.0,0,16090.0,0,0,0,
2026-03-24 20:35:00,METAR KSVH 242035Z AUTO 00000KT 10SM CLR 13/M04 A3032 RMK AO2 T01271043,0,0.0,0,16090.0,0,0,0,
2026-03-24 20:15:00,METAR KSVH 242015Z AUTO 06004KT 10SM CLR 13/M03 A3032 RMK AO2 T01251034,0,4.0,0,16090.0,0,0,0,
2026-03-24 19:55:00,METAR KSVH 241955Z AUTO 07006KT 10SM CLR 13/M04 A3033 RMK AO2 T01261040,0,6.0,0,16090.0,0,0,0,
2026-03-24 19:35:00,METAR KSVH 241935Z AUTO 02003KT 10SM CLR 12/M04 A3034 RMK AO2 T01191037,0,3.0,0,16090.0,0,0,0,
2026-03-24 19:15:00,METAR KSVH 241915Z AUTO 11003KT 10SM CLR 12/M03 A3033 RMK AO2 T01211035,0,3.0,0,16090.0,0,0,0,
2026-03-24 18:55:00,METAR KSVH 241855Z AUTO 05005KT 10SM CLR 11/M03 A3034 RMK AO2 T01141026,0,5.0,0,16090.0,0,0,0,
2026-03-24 18:35:00,METAR KSVH 241835Z AUTO 12003KT 10SM CLR 12/M02 A3035 RMK AO2 T01161024,0,3.0,0,16090.0,0,0,0,
2026-03-24 18:15:00,METAR KSVH 241815Z AUTO 05006KT 10SM CLR 11/M02 A3036 RMK AO2 T01141021,0,6.0,0,16090.0,0,0,0,
2026-03-24 17:55:00,METAR KSVH 241755Z AUTO 04006KT 10SM CLR 11/M02 A3038 RMK AO2 T01061025 10108 20040,0,6.0,0,16090.0,0,0,0,
2026-03-24 17:35:00,METAR KSVH 241735Z AUTO 07007KT 10SM CLR 11/M02 A3039 RMK AO2 T01071025,0,7.0,0,16090.0,0,0,0,
2026-03-24 17:15:00,METAR KSVH 241715Z AUTO 01005KT 10SM CLR 10/M03 A3039 RMK AO2 T00961029,0,5.0,0,16090.0,0,0,0,
2026-03-24 16:55:00,METAR KSVH 241655Z AUTO 03005KT 10SM CLR 10/M03 A3039 RMK AO2 T00981030,0,5.0,0,16090.0,0,0,0,
2026-03-24 16:35:00,METAR KSVH 241635Z AUTO 03006KT 10SM CLR 09/M03 A3039 RMK AO2 T00941027,0,6.0,0,16090.0,0,0,0,
2026-03-24 16:15:00,METAR KSVH 241615Z AUTO 03004KT 10SM CLR 08/M04 A3039 RMK AO2 T00801036,0,4.0,0,16090.0,0,0,0,
2026-03-24 15:55:00,METAR KSVH 241555Z AUTO 04003KT 10SM CLR 08/M04 A3040 RMK AO2 T00831039,0,3.0,0,16090.0,0,0,0,
2026-03-24 15:35:00,METAR KSVH 241535Z AUTO 10005G14KT 10SM CLR 08/M04 A3040 RMK AO2 T00831039,0,5.0,1,16090.0,0,0,0,
2026-03-24 15:15:00,METAR KSVH 241515Z AUTO 07006KT 10SM CLR 07/M03 A3041 RMK AO2 T00731034,0,6.0,0,16090.0,0,0,0,
2026-03-24 14:55:00,METAR KSVH 241455Z AUTO 08005KT 10SM CLR 08/M03 A3041 RMK AO2 T00771035,0,5.0,0,16090.0,0,0,0,
2026-03-24 14:35:00,METAR KSVH 241435Z AUTO 03008KT 10SM CLR 07/M04 A3040 RMK AO2 T00701043,0,8.0,0,16090.0,0,0,0,
2026-03-24 14:15:00,METAR KSVH 241415Z AUTO 03005G14KT 10SM CLR 07/M05 A3040 RMK AO2 T00671047,0,5.0,1,16090.0,0,0,0,
2026-03-24 13:55:00,METAR KSVH 241355Z AUTO 06009KT 10SM CLR 06/M05 A3039 RMK AO2 T00611047,0,9.0,0,16090.0,0,0,0,
2026-03-24 13:35:00,METAR KSVH 241335Z AUTO 05007KT 10SM CLR 06/M05 A3039 RMK AO2 T00551050,0,7.0,0,16090.0,0,0,0,
2026-03-24 13:15:00,METAR KSVH 241315Z AUTO 03008KT 10SM CLR 05/M05 A3038 RMK AO2 T00521046,0,8.0,0,16090.0,0,0,0,
2026-03-24 12:55:00,METAR KSVH 241255Z AUTO 03009KT 10SM CLR 05/M04 A3038 RMK AO2 T00501045,0,9.0,0,16090.0,0,0,0,
2026-03-24 12:35:00,METAR KSVH 241235Z AUTO 03009KT 10SM CLR 05/M05 A3038 RMK AO2 T00471046,0,9.0,0,16090.0,0,0,0,
2026-03-24 05:55:00,METAR KSVH 240555Z AUTO 03010G14KT 10SM CLR 09/M05 A3023 RMK AO2 T00881046 10143 20083,0,10.0,1,16090.0,0,0,0,
2026-03-24 05:35:00,METAR KSVH 240535Z AUTO 03009G15KT 10SM CLR 09/M05 A3024 RMK AO2 T00901047,0,9.0,1,16090.0,0,0,0,
2026-03-24 05:15:00,METAR KSVH 240515Z AUTO 04007KT 10SM CLR 09/M05 A3023 RMK AO2 T00911048,0,7.0,0,16090.0,0,0,0,
2026-03-24 04:55:00,METAR KSVH 240455Z AUTO 03007KT 10SM CLR 09/M05 A3023 RMK AO2 T00921049 402590083,0,7.0,0,16090.0,0,0,0,
2026-03-24 04:35:00,METAR KSVH 240435Z AUTO 03008KT 10SM CLR 09/M05 A3022 RMK AO2 T00861053,0,8.0,0,16090.0,0,0,0,
2026-03-24 04:15:00,METAR KSVH 240415Z AUTO 04006KT 10SM CLR 09/M05 A3022 RMK AO2 T00901055,0,6.0,0,16090.0,0,0,0,
2026-03-24 03:55:00,METAR KSVH 240355Z AUTO 03004KT 10SM CLR 09/M06 A3022 RMK AO2 T00921058,0,4.0,0,16090.0,0,0,0,
2026-03-24 03:35:00,METAR KSVH 240335Z AUTO 05003KT 10SM CLR 10/M06 A3021 RMK AO2 T00991061,0,3.0,0,16090.0,0,0,0,
2026-03-24 03:15:00,METAR KSVH 240315Z AUTO 04004KT 10SM CLR 10/M06 A3020 RMK AO2 T01041062,0,4.0,0,16090.0,0,0,0,
2026-03-24 02:55:00,METAR KSVH 240255Z AUTO 02004KT 10SM CLR 11/M07 A3020 RMK AO2 T01081066,0,4.0,0,16090.0,0,0,0,
2026-03-24 02:35:00,METAR KSVH 240235Z AUTO 01007KT 10SM CLR 12/M07 A3019 RMK AO2 T01151072,0,7.0,0,16090.0,0,0,0,
2026-03-24 02:15:00,METAR KSVH 240215Z AUTO 36006KT 10SM CLR 12/M07 A3019 RMK AO2 T01161071,0,6.0,0,16090.0,0,0,0,
2026-03-24 01:55:00,METAR KSVH 240155Z AUTO 35007KT 10SM CLR 12/M07 A3018 RMK AO2 T01211072,0,7.0,0,16090.0,0,0,0,
2026-03-24 01:35:00,METAR KSVH 240135Z AUTO 35009KT 10SM CLR 13/M08 A3018 RMK AO2 T01251079,0,9.0,0,16090.0,0,0,0,
2026-03-24 01:15:00,METAR KSVH 240115Z AUTO 35008G14KT 10SM CLR 13/M09 A3017 RMK AO2 T01271086,0,8.0,1,16090.0,0,0,0,
2026-03-24 00:55:00,METAR KSVH 240055Z AUTO 35008G16KT 10SM CLR 13/M09 A3016 RMK AO2 T01321087,0,8.0,1,16090.0,0,0,0,
2026-03-24 00:35:00,METAR KSVH 240035Z AUTO 34014G19KT 10SM CLR 14/M08 A3015 RMK AO2 T01361078,0,14.0,1,16090.0,0,0,0,
2026-03-24 00:15:00,METAR KSVH 240015Z AUTO 36010G17KT 10SM CLR 14/M06 A3014 RMK AO2 T01381060,0,10.0,1,16090.0,0,0,0,
2026-03-23 23:55:00,METAR KSVH 232355Z AUTO 36009G15KT 10SM CLR 15/M05 A3014 RMK AO2 T01451051 10258 20145,0,9.0,1,16090.0,0,0,0,
2026-03-23 23:35:00,METAR KSVH 232335Z AUTO 36010G15KT 10SM CLR 16/M03 A3012 RMK AO2 T01551032,0,10.0,1,16090.0,0,0,0,
2026-03-23 23:15:00,METAR KSVH 232315Z AUTO 35014G18KT 10SM CLR 17/M04 A3011 RMK AO2 T01691039,0,14.0,1,16090.0,0,0,0,
2026-03-23 22:55:00,METAR KSVH 232255Z AUTO 34012G18KT 10SM CLR 17/M05 A3009 RMK AO2 T01731051,0,12.0,1,16090.0,0,0,0,
2026-03-23 22:35:00,METAR KSVH 232235Z AUTO 34011G22KT 10SM CLR 18/M05 A3007 RMK AO2 T01811050,0,11.0,1,16090.0,0,0,0,
2026-03-23 22:15:00,METAR KSVH 232215Z AUTO 34012G16KT 10SM CLR 20/M03 A3005 RMK AO2 T01971028,0,12.0,1,16090.0,0,0,0,
2026-03-23 21:55:00,METAR KSVH 232155Z AUTO 35017G23KT 10SM CLR 21/M01 A3003 RMK AO2 T02101006,0,17.0,1,16090.0,0,0,0,
2026-03-23 21:35:00,METAR KSVH 232135Z AUTO 33015G20KT 10SM CLR 22/M01 A3002 RMK AO2 T02161013,0,15.0,1,16090.0,0,0,0,
2026-03-23 21:15:00,METAR KSVH 232115Z AUTO 33013G19KT 10SM CLR 23/02 A3000 RMK AO2 T02300020,0,13.0,1,16090.0,0,0,0,
2026-03-23 20:55:00,METAR KSVH 232055Z AUTO 34010G18KT 10SM CLR 24/03 A2998 RMK AO2 T02390032,0,10.0,1,16090.0,0,0,0,
2026-03-23 20:35:00,METAR KSVH 232035Z AUTO 34010G17KT 300V020 10SM CLR 24/04 A2997 RMK AO2 T02400042,0,10.0,1,16090.0,0,0,0,
2026-03-23 20:15:00,METAR KSVH 232015Z AUTO 34008G16KT 290V350 10SM CLR 24/05 A2996 RMK AO2 T02400047,0,8.0,1,16090.0,0,0,0,
2026-03-23 19:55:00,METAR KSVH 231955Z AUTO 33013G16KT 10SM CLR 24/05 A2996 RMK AO2 T02440053,0,13.0,1,16090.0,0,0,0,
2026-03-23 19:35:00,METAR KSVH 231935Z AUTO 33012G20KT 10SM CLR 25/06 A2995 RMK AO2 T02500063,0,12.0,1,16090.0,0,0,0,
2026-03-23 19:15:00,METAR KSVH 231915Z AUTO 30016G21KT 10SM CLR 25/08 A2994 RMK AO2 T02500079,0,16.0,1,16090.0,0,0,0,
2026-03-23 18:55:00,METAR KSVH 231855Z AUTO 31014G21KT 10SM CLR 25/09 A2993 RMK AO2 T02540085,0,14.0,1,16090.0,0,0,0,
2026-03-23 18:35:00,METAR KSVH 231835Z AUTO 28015G18KT 10SM CLR 26/08 A2992 RMK AO2 T02580084,0,15.0,1,16090.0,0,0,0,
2026-03-23 18:15:00,METAR KSVH 231815Z AUTO 29012G16KT 260V320 10SM CLR 26/09 A2992 RMK AO2 T02580094,0,12.0,1,16090.0,0,0,0,
2026-03-23 17:55:00,METAR KSVH 231755Z AUTO 31012G17KT 10SM CLR 26/09 A2992 RMK AO2 T02580087 10259 20190,0,12.0,1,16090.0,0,0,0,
2026-03-23 17:35:00,METAR KSVH 231735Z AUTO 31011KT 10SM SCT050 26/09 A2992 RMK AO2 T02570094,0,11.0,0,16090.0,0,0,0,
2026-03-23 17:15:00,METAR KSVH 231715Z AUTO 34013G18KT 10SM BKN050 25/12 A2992 RMK AO2 T02540117,0,13.0,1,16090.0,0,0,0,
2026-03-23 16:55:00,METAR KSVH 231655Z AUTO 36008KT 10SM SCT050 25/12 A2992 RMK AO2 T02510124,0,8.0,0,16090.0,0,0,0,
2026-03-23 16:35:00,METAR KSVH 231635Z AUTO 33011KT 10SM SCT050 SCT060 25/13 A2991 RMK AO2 T02510130,0,11.0,0,16090.0,0,0,0,
2026-03-23 16:15:00,METAR KSVH 231615Z AUTO 35008KT 320V020 10SM SCT050 BKN060 BKN070 24/13 A2991 RMK AO2 T02410128,0,8.0,0,16090.0,0,0,0,
2026-03-23 15:55:00,METAR KSVH 231555Z AUTO 34010KT 10SM BKN050 OVC060 24/13 A2990 RMK AO2 T02440131,0,10.0,0,16090.0,0,0,0,
2026-03-23 15:35:00,METAR KSVH 231535Z AUTO 27010KT 10SM BKN060 BKN070 BKN090 25/13 A2990 RMK AO2 T02500133,0,10.0,0,16090.0,0,0,0,
2026-03-23 15:15:00,METAR KSVH 231515Z AUTO 28008KT 10SM BKN065 OVC090 24/13 A2989 RMK AO2 T02410129,0,8.0,0,16090.0,0,0,0,
2026-03-23 14:55:00,METAR KSVH 231455Z AUTO 28006KT 10SM SCT065 BKN090 24/14 A2988 RMK AO2 T02400138,0,6.0,0,16090.0,0,0,0,
2026-03-23 14:35:00,METAR KSVH 231435Z AUTO 26005KT 10SM SCT065 SCT090 22/14 A2987 RMK AO2 T02210135,0,5.0,0,16090.0,0,0,0,
2026-03-23 14:15:00,METAR KSVH 231415Z AUTO 24004KT 10SM CLR 22/14 A2986 RMK AO2 T02170136,0,4.0,0,16090.0,0,0,0,
2026-03-23 13:55:00,METAR KSVH 231355Z AUTO 25004KT 10SM CLR 21/13 A2985 RMK AO2 T02100134,0,4.0,0,16090.0,0,0,0,
2026-03-23 13:35:00,METAR KSVH 231335Z AUTO 00000KT 10SM CLR 21/13 A2984 RMK AO2 T02050134,0,0.0,0,16090.0,0,0,0,
2026-03-23 13:15:00,METAR KSVH 231315Z AUTO 22003KT 10SM CLR 20/13 A2983 RMK AO2 T02000134,0,3.0,0,16090.0,0,0,0,
2026-03-23 12:55:00,METAR KSVH 231255Z AUTO 00000KT 10SM CLR 20/13 A2982 RMK AO2 T01950132,0,0.0,0,16090.0,0,0,0,
2026-03-23 12:35:00,METAR KSVH 231235Z AUTO 23003KT 10SM CLR 19/13 A2982 RMK AO2 T01930130,0,3.0,0,16090.0,0,0,0,
2026-03-23 12:15:00,METAR KSVH 231215Z AUTO 23005KT 10SM SCT070 19/13 A2981 RMK AO2 T01910130,0,5.0,0,16090.0,0,0,0,
2026-03-23 11:55:00,METAR KSVH 231155Z AUTO 22006KT 10SM SCT070 19/13 A2981 RMK AO2 T01900129 10218 20186,0,6.0,0,16090.0,0,0,0,
2026-03-23 11:35:00,METAR KSVH 231135Z AUTO 22006KT 10SM CLR 19/13 A2980 RMK AO2 T01870130,0,6.0,0,16090.0,0,0,0,
2026-03-23 11:15:00,METAR KSVH 231115Z AUTO 22005KT 10SM CLR 19/13 A2980 RMK AO2 T01900131,0,5.0,0,16090.0,0,0,0,
2026-03-23 10:55:00,METAR KSVH 231055Z AUTO 21006KT 10SM CLR 19/13 A2979 RMK AO2 T01900130,0,6.0,0,16090.0,0,0,0,
2026-03-23 10:35:00,METAR KSVH 231035Z AUTO 21005KT 10SM CLR 19/13 A2978 RMK AO2 T01900130,0,5.0,0,16090.0,0,0,0,
2026-03-23 10:15:00,METAR KSVH 231015Z AUTO 22005KT 10SM CLR 19/13 A2978 RMK AO2 T01900128,0,5.0,0,16090.0,0,0,0,
2026-03-23 09:55:00,METAR KSVH 230955Z AUTO 22005KT 10SM CLR 19/13 A2978 RMK AO2 T01910126,0,5.0,0,16090.0,0,0,0,
2026-03-23 09:35:00,METAR KSVH 230935Z AUTO 22007KT 10SM CLR 20/13 A2977 RMK AO2 T01950126,0,7.0,0,16090.0,0,0,0,
2026-03-23 09:15:00,METAR KSVH 230915Z AUTO 22007KT 10SM CLR 20/13 A2977 RMK AO2 T01950125,0,7.0,0,16090.0,0,0,0,
2026-03-23 08:55:00,METAR KSVH 230855Z AUTO 21007KT 10SM CLR 20/13 A2977 RMK AO2 T01980126,0,7.0,0,16090.0,0,0,0,
2026-03-23 08:35:00,METAR KSVH 230835Z AUTO 22007KT 10SM CLR 20/12 A2977 RMK AO2 T02010123,0,7.0,0,16090.0,0,0,0,
2026-03-23 08:15:00,METAR KSVH 230815Z AUTO 22008KT 10SM CLR 20/12 A2977 RMK AO2 T02000123,0,8.0,0,16090.0,0,0,0,
2026-03-23 07:55:00,METAR KSVH 230755Z AUTO 22007KT 10SM CLR 20/12 A2977 RMK AO2 T02020122,0,7.0,0,16090.0,0,0,0,
2026-03-23 07:35:00,METAR KSVH 230735Z AUTO 22007KT 10SM CLR 21/12 A2978 RMK AO2 T02050121,0,7.0,0,16090.0,0,0,0,
2026-03-23 07:15:00,METAR KSVH 230715Z AUTO 23007KT 10SM CLR 21/12 A2979 RMK AO2 T02100122,0,7.0,0,16090.0,0,0,0,
2026-03-23 06:55:00,METAR KSVH 230655Z AUTO 23007KT 10SM CLR 21/12 A2979 RMK AO2 T02090121,0,7.0,0,16090.0,0,0,0,
2026-03-23 06:35:00,METAR KSVH 230635Z AUTO 23006KT 10SM CLR 21/12 A2979 RMK AO2 T02120120,0,6.0,0,16090.0,0,0,0,
2026-03-23 06:15:00,METAR KSVH 230615Z AUTO 23007KT 10SM CLR 22/12 A2979 RMK AO2 T02150120,0,7.0,0,16090.0,0,0,0,
2026-03-23 05:55:00,METAR KSVH 230555Z AUTO 23007KT 10SM CLR 22/12 A2978 RMK AO2 T02170118 10268 20217,0,7.0,0,16090.0,0,0,0,
2026-03-23 05:35:00,METAR KSVH 230535Z AUTO 23008KT 10SM CLR 22/12 A2978 RMK AO2 T02200117,0,8.0,0,16090.0,0,0,0,
2026-03-23 05:15:00,METAR KSVH 230515Z AUTO 22010G16KT 10SM CLR 22/12 A2979 RMK AO2 T02230116,0,10.0,1,16090.0,0,0,0,
2026-03-23 04:55:00,METAR KSVH 230455Z AUTO 22009G15KT 10SM CLR 22/12 A2978 RMK AO2 T02240115 403030129,0,9.0,1,16090.0,0,0,0,
2026-03-23 04:35:00,METAR KSVH 230435Z AUTO 22010G15KT 10SM CLR 23/12 A2978 RMK AO2 T02270116,0,10.0,1,16090.0,0,0,0,
2026-03-23 04:15:00,METAR KSVH 230415Z AUTO 22011G15KT 10SM CLR 23/12 A2978 RMK AO2 T02300115,0,11.0,1,16090.0,0,0,0,
2026-03-23 03:55:00,METAR KSVH 230355Z AUTO 22008KT 10SM CLR 23/11 A2979 RMK AO2 T02300112,0,8.0,0,16090.0,0,0,0,
2026-03-23 03:35:00,METAR KSVH 230335Z AUTO 22006KT 10SM CLR 23/11 A2980 RMK AO2 T02300110,0,6.0,0,16090.0,0,0,0,
2026-03-23 03:15:00,METAR KSVH 230315Z AUTO 22005KT 10SM CLR 23/11 A2980 RMK AO2 T02300106,0,5.0,0,16090.0,0,0,0,
2026-03-23 02:55:00,METAR KSVH 230255Z AUTO 22005KT 10SM CLR 23/10 A2981 RMK AO2 T02300103,0,5.0,0,16090.0,0,0,0,
2026-03-23 02:35:00,METAR KSVH 230235Z AUTO 22004KT 10SM CLR 24/10 A2982 RMK AO2 T02360102,0,4.0,0,16090.0,0,0,0,
2026-03-23 02:15:00,METAR KSVH 230215Z AUTO 21006KT 10SM CLR 24/10 A2982 RMK AO2 T02400100,0,6.0,0,16090.0,0,0,0,
2026-03-23 01:55:00,METAR KSVH 230155Z AUTO 21006KT 10SM CLR 25/10 A2982 RMK AO2 T02470100,0,6.0,0,16090.0,0,0,0,
2026-03-23 01:35:00,METAR KSVH 230135Z AUTO 22007KT 10SM CLR 25/10 A2982 RMK AO2 T02500097,0,7.0,0,16090.0,0,0,0,
2026-03-23 01:15:00,METAR KSVH 230115Z AUTO 21005KT 10SM CLR 25/10 A2981 RMK AO2 T02520095,0,5.0,0,16090.0,0,0,0,
2026-03-23 00:55:00,METAR KSVH 230055Z AUTO 22008KT 10SM CLR 26/09 A2981 RMK AO2 T02550093,0,8.0,0,16090.0,0,0,0,
2026-03-23 00:35:00,METAR KSVH 230035Z AUTO 21006KT 10SM CLR 26/09 A2980 RMK AO2 T02550092,0,6.0,0,16090.0,0,0,0,
2026-03-23 00:15:00,METAR KSVH 230015Z AUTO 21005KT 10SM CLR 26/09 A2980 RMK AO2 T02580091,0,5.0,0,16090.0,0,0,0,
2026-03-22 23:55:00,METAR KSVH 222355Z AUTO 21008KT 10SM CLR 27/09 A2980 RMK AO2 T02680090 10303 20268,0,8.0,0,16090.0,0,0,0,
2026-03-22 23:35:00,METAR KSVH 222335Z AUTO 22011G17KT 10SM CLR 27/09 A2980 RMK AO2 T02720092,0,11.0,1,16090.0,0,0,0,
2026-03-22 23:15:00,METAR KSVH 222315Z AUTO 22007G15KT 10SM CLR 28/09 A2979 RMK AO2 T02800094,0,7.0,1,16090.0,0,0,0,
2026-03-22 22:55:00,METAR KSVH 222255Z AUTO 22007G17KT 10SM CLR 29/10 A2979 RMK AO2 T02870100,0,7.0,1,16090.0,0,0,0,
2026-03-22 22:35:00,METAR KSVH 222235Z AUTO 22010G16KT 10SM CLR 29/10 A2979 RMK AO2 T02920097,0,10.0,1,16090.0,0,0,0,
2026-03-22 22:15:00,METAR KSVH 222215Z AUTO 23012G16KT 10SM CLR 30/10 A2979 RMK AO2 T02970100,0,12.0,1,16090.0,0,0,0,
2026-03-22 21:55:00,METAR KSVH 222155Z AUTO 24012G17KT 10SM CLR 30/10 A2979 RMK AO2 T03000101,0,12.0,1,16090.0,0,0,0,
2026-03-22 21:35:00,METAR KSVH 222135Z AUTO 22011KT 10SM CLR 30/10 A2980 RMK AO2 T03010100,0,11.0,0,16090.0,0,0,0,
2026-03-22 21:15:00,METAR KSVH 222115Z AUTO 22007G18KT 10SM CLR 30/10 A2980 RMK AO2 T03010100,0,7.0,1,16090.0,0,0,0,
2026-03-22 20:55:00,METAR KSVH 222055Z AUTO 21014G19KT 10SM CLR 30/10 A2980 RMK AO2 T03020095,0,14.0,1,16090.0,0,0,0,
2026-03-22 20:35:00,METAR KSVH 222035Z AUTO 20011G21KT 10SM CLR 30/10 A2980 RMK AO2 T03020097,0,11.0,1,16090.0,0,0,0,
2026-03-22 20:15:00,METAR KSVH 222015Z AUTO 23011G17KT 10SM CLR 30/10 A2981 RMK AO2 T03000101,0,11.0,1,16090.0,0,0,0,
2026-03-22 19:55:00,METAR KSVH 221955Z AUTO 22012G17KT 10SM CLR 30/10 A2981 RMK AO2 T02980101,0,12.0,1,16090.0,0,0,0,
2026-03-22 19:35:00,METAR KSVH 221935Z AUTO 23012G18KT 10SM CLR 30/11 A2982 RMK AO2 T03000107,0,12.0,1,16090.0,0,0,0,
2026-03-22 19:15:00,METAR KSVH 221915Z AUTO 23012G18KT 10SM CLR 30/11 A2983 RMK AO2 T02980107,0,12.0,1,16090.0,0,0,0,
2026-03-22 18:55:00,METAR KSVH 221855Z AUTO 21015G21KT 10SM CLR 30/09 A2984 RMK AO2 T02990091,0,15.0,1,16090.0,0,0,0,
2026-03-22 18:35:00,METAR KSVH 221835Z AUTO 23011G15KT 10SM CLR 30/11 A2985 RMK AO2 T02970114,0,11.0,1,16090.0,0,0,0,
2026-03-22 18:15:00,METAR KSVH 221815Z AUTO 23007G15KT 10SM CLR 29/12 A2987 RMK AO2 T02930119,0,7.0,1,16090.0,0,0,0,
2026-03-22 17:55:00,METAR KSVH 221755Z AUTO 22008G15KT 180V240 10SM CLR 29/12 A2988 RMK AO2 T02880124 10293 20131,0,8.0,1,16090.0,0,0,0,
2026-03-22 17:35:00,METAR KSVH 221735Z AUTO 19007KT 10SM CLR 29/13 A2989 RMK AO2 T02880129,0,7.0,0,16090.0,0,0,0,
2026-03-22 17:15:00,METAR KSVH 221715Z AUTO 24006KT 10SM CLR 28/13 A2990 RMK AO2 T02810130,0,6.0,0,16090.0,0,0,0,
2026-03-22 16:55:00,METAR KSVH 221655Z AUTO 24008KT 10SM CLR 28/13 A2992 RMK AO2 T02780134,0,8.0,0,16090.0,0,0,0,
2026-03-22 16:35:00,METAR KSVH 221635Z AUTO 26007KT 10SM CLR 27/14 A2992 RMK AO2 T02710136,0,7.0,0,16090.0,0,0,0,
2026-03-22 16:15:00,METAR KSVH 221615Z AUTO 23005KT 10SM CLR 27/14 A2992 RMK AO2 T02680140,0,5.0,0,16090.0,0,0,0,
2026-03-22 15:55:00,METAR KSVH 221555Z AUTO 25005KT 10SM CLR 26/14 A2993 RMK AO2 T02600141,0,5.0,0,16090.0,0,0,0,
2026-03-22 15:35:00,METAR KSVH 221535Z AUTO 25007KT 10SM CLR 25/14 A2994 RMK AO2 T02500141,0,7.0,0,16090.0,0,0,0,
2026-03-22 15:15:00,METAR KSVH 221515Z AUTO 24003KT 10SM CLR 25/14 A2994 RMK AO2 T02500139,0,3.0,0,16090.0,0,0,0,
2026-03-22 14:55:00,METAR KSVH 221455Z AUTO 25005KT 10SM CLR 24/14 A2994 RMK AO2 T02400139,0,5.0,0,16090.0,0,0,0,
2026-03-22 14:35:00,METAR KSVH 221435Z AUTO 24005KT 10SM CLR 22/14 A2994 RMK AO2 T02210135,0,5.0,0,16090.0,0,0,0,
2026-03-22 14:15:00,METAR KSVH 221415Z AUTO 24006KT 10SM CLR 21/13 A2994 RMK AO2 T02100134,0,6.0,0,16090.0,0,0,0,
2026-03-22 13:55:00,METAR KSVH 221355Z AUTO 25005KT 10SM CLR 20/13 A2994 RMK AO2 T01950132,0,5.0,0,16090.0,0,0,0,
2026-03-22 13:35:00,METAR KSVH 221335Z AUTO 24004KT 10SM CLR 19/14 A2994 RMK AO2 T01900136,0,4.0,0,16090.0,0,0,0,
2026-03-22 13:15:00,METAR KSVH 221315Z AUTO 26004KT 10SM CLR 18/14 A2994 RMK AO2 T01760136,0,4.0,0,16090.0,0,0,0,
2026-03-22 12:35:00,METAR KSVH 221235Z AUTO 24004KT 10SM CLR 14/13 A2994 RMK AO2 T01400130,0,4.0,0,16090.0,0,0,0,
2026-03-22 12:15:00,METAR KSVH 221215Z AUTO 23003KT 10SM CLR 13/13 A2993 RMK AO2 T01310125,0,3.0,0,16090.0,0,0,0,
2026-03-22 11:55:00,METAR KSVH 221155Z AUTO 24003KT 10SM CLR 13/12 A2993 RMK AO2 T01310123 10171 20129,0,3.0,0,16090.0,0,0,0,
2026-03-22 11:35:00,METAR KSVH 221135Z AUTO 00000KT 10SM CLR 13/12 A2992 RMK AO2 T01320124,0,0.0,0,16090.0,0,0,0,
2026-03-22 11:15:00,METAR KSVH 221115Z AUTO 00000KT 10SM CLR 14/13 A2992 RMK AO2 T01400127,0,0.0,0,16090.0,0,0,0,
2026-03-22 10:55:00,METAR KSVH 221055Z AUTO 00000KT 10SM CLR 14/13 A2992 RMK AO2 T01400125,0,0.0,0,16090.0,0,0,0,
2026-03-22 10:35:00,METAR KSVH 221035Z AUTO 00000KT 10SM CLR 15/13 A2991 RMK AO2 T01530127,0,0.0,0,16090.0,0,0,0,
2026-03-22 10:15:00,METAR KSVH 221015Z AUTO 28003KT 10SM CLR 15/13 A2991 RMK AO2 T01510126,0,3.0,0,16090.0,0,0,0,
2026-03-22 09:55:00,METAR KSVH 220955Z AUTO 24003KT 10SM CLR 16/13 A2990 RMK AO2 T01610131,0,3.0,0,16090.0,0,0,0,
2026-03-22 09:35:00,METAR KSVH 220935Z AUTO 23005KT 10SM CLR 16/13 A2990 RMK AO2 T01610130,0,5.0,0,16090.0,0,0,0,
2026-03-22 09:15:00,METAR KSVH 220915Z AUTO 23004KT 10SM CLR 16/13 A2990 RMK AO2 T01550128,0,4.0,0,16090.0,0,0,0,
2026-03-22 08:55:00,METAR KSVH 220855Z AUTO 22005KT 10SM CLR 16/13 A2990 RMK AO2 T01600129,0,5.0,0,16090.0,0,0,0,
2026-03-22 08:35:00,METAR KSVH 220835Z AUTO 22005KT 10SM CLR 16/13 A2990 RMK AO2 T01620126,0,5.0,0,16090.0,0,0,0,
2026-03-22 08:15:00,METAR KSVH 220815Z AUTO 22006KT 10SM CLR 17/13 A2991 RMK AO2 T01650127,0,6.0,0,16090.0,0,0,0,
2026-03-22 07:55:00,METAR KSVH 220755Z AUTO 22006KT 10SM CLR 17/13 A2991 RMK AO2 T01700130,0,6.0,0,16090.0,0,0,0,
2026-03-22 07:35:00,METAR KSVH 220735Z AUTO 23008KT 10SM CLR 17/13 A2991 RMK AO2 T01710127,0,8.0,0,16090.0,0,0,0,
2026-03-22 07:15:00,METAR KSVH 220715Z AUTO 23008KT 10SM CLR 17/13 A2992 RMK AO2 T01710126,0,8.0,0,16090.0,0,0,0,
2026-03-22 06:55:00,METAR KSVH 220655Z AUTO 23008KT 10SM CLR 17/13 A2992 RMK AO2 T01710127,0,8.0,0,16090.0,0,0,0,
2026-03-22 06:35:00,METAR KSVH 220635Z AUTO 22006KT 10SM CLR 17/13 A2991 RMK AO2 T01660128,0,6.0,0,16090.0,0,0,0,
2026-03-22 06:15:00,METAR KSVH 220615Z AUTO 23005KT 10SM CLR 17/13 A2992 RMK AO2 T01650129,0,5.0,0,16090.0,0,0,0,
2026-03-22 05:55:00,METAR KSVH 220555Z AUTO 22004KT 10SM CLR 17/13 A2992 RMK AO2 T01670130 10223 20163,0,4.0,0,16090.0,0,0,0,
2026-03-22 05:35:00,METAR KSVH 220535Z AUTO 22003KT 10SM CLR 17/13 A2992 RMK AO2 T01710131,0,3.0,0,16090.0,0,0,0,
2026-03-22 05:15:00,METAR KSVH 220515Z AUTO 22004KT 10SM CLR 17/13 A2992 RMK AO2 T01710127,0,4.0,0,16090.0,0,0,0,
2026-03-22 04:55:00,METAR KSVH 220455Z AUTO 23004KT 10SM CLR 18/13 A2992 RMK AO2 T01750126 402530120,0,4.0,0,16090.0,0,0,0,
2026-03-22 04:35:00,METAR KSVH 220435Z AUTO 23004KT 10SM CLR 18/13 A2992 RMK AO2 T01800126,0,4.0,0,16090.0,0,0,0,
2026-03-22 04:15:00,METAR KSVH 220415Z AUTO 23005KT 10SM SCT085 18/13 A2992 RMK AO2 T01820125,0,5.0,0,16090.0,0,0,0,
2026-03-22 03:55:00,METAR KSVH 220355Z AUTO 25006KT 10SM SCT085 19/12 A2992 RMK AO2 T01870123,0,6.0,0,16090.0,0,0,0,
2026-03-22 03:35:00,METAR KSVH 220335Z AUTO 23003KT 10SM CLR 19/13 A2992 RMK AO2 T01900126,0,3.0,0,16090.0,0,0,0,
2026-03-22 03:15:00,METAR KSVH 220315Z AUTO 22004KT 10SM CLR 19/12 A2992 RMK AO2 T01900124,0,4.0,0,16090.0,0,0,0,
2026-03-22 02:55:00,METAR KSVH 220255Z AUTO 22005KT 10SM CLR 19/13 A2991 RMK AO2 T01900127,0,5.0,0,16090.0,0,0,0,
2026-03-22 02:35:00,METAR KSVH 220235Z AUTO 00000KT 10SM CLR 17/13 A2991 RMK AO2 T01680126,0,0.0,0,16090.0,0,0,0,
2026-03-22 02:15:00,METAR KSVH 220215Z AUTO 00000KT 10SM CLR 18/13 A2991 RMK AO2 T01780132,0,0.0,0,16090.0,0,0,0,
2026-03-22 01:55:00,METAR KSVH 220155Z AUTO 16003KT 10SM CLR 19/13 A2991 RMK AO2 T01870131,0,3.0,0,16090.0,0,0,0,
2026-03-22 01:35:00,METAR KSVH 220135Z AUTO 00000KT 10SM CLR 20/13 A2991 RMK AO2 T01960131,0,0.0,0,16090.0,0,0,0,
2026-03-22 01:15:00,METAR KSVH 220115Z AUTO 00000KT 10SM CLR 20/13 A2991 RMK AO2 T01960131,0,0.0,0,16090.0,0,0,0,
2026-03-22 00:55:00,METAR KSVH 220055Z AUTO 00000KT 10SM CLR 21/12 A2990 RMK AO2 T02100122,0,0.0,0,16090.0,0,0,0,
2026-03-22 00:35:00,METAR KSVH 220035Z AUTO 00000KT 10SM SCT095 21/13 A2990 RMK AO2 T02050125,0,0.0,0,16090.0,0,0,0,
2026-03-22 00:15:00,METAR KSVH 220015Z AUTO 00000KT 10SM BKN095 22/12 A2989 RMK AO2 T02200124,0,0.0,0,16090.0,0,0,0,
2026-03-21 23:55:00,METAR KSVH 212355Z AUTO 00000KT 10SM SCT110 22/12 A2989 RMK AO2 T02210122 10253 20221,0,0.0,0,16090.0,0,0,0,
2026-03-21 23:35:00,METAR KSVH 212335Z AUTO 00000KT 10SM SCT110 23/13 A2988 RMK AO2 T02290125,0,0.0,0,16090.0,0,0,0,
2026-03-21 23:15:00,METAR KSVH 212315Z AUTO 00000KT 10SM SCT110 23/12 A2988 RMK AO2 T02320124,0,0.0,0,16090.0,0,0,0,
2026-03-21 22:55:00,METAR KSVH 212255Z AUTO 00000KT 10SM CLR 24/13 A2987 RMK AO2 T02360127,0,0.0,0,16090.0,0,0,0,
2026-03-21 22:35:00,METAR KSVH 212235Z AUTO 00000KT 10SM CLR 25/12 A2986 RMK AO2 T02500120,0,0.0,0,16090.0,0,0,0,
2026-03-21 22:15:00,METAR KSVH 212215Z AUTO 00000KT 10SM CLR 25/12 A2986 RMK AO2 T02460118,0,0.0,0,16090.0,0,0,0,
2026-03-21 21:55:00,METAR KSVH 212155Z AUTO 00000KT 10SM CLR 24/12 A2986 RMK AO2 T02430117,0,0.0,0,16090.0,0,0,0,
2026-03-21 21:35:00,METAR KSVH 212135Z AUTO 22005KT 10SM CLR 24/11 A2986 RMK AO2 T02400113,0,5.0,0,16090.0,0,0,0,
2026-03-21 21:15:00,METAR KSVH 212115Z AUTO 23008KT 10SM CLR 25/12 A2987 RMK AO2 T02460116,0,8.0,0,16090.0,0,0,0,
2026-03-21 20:55:00,METAR KSVH 212055Z AUTO 20008KT 10SM CLR 25/12 A2987 RMK AO2 T02510115,0,8.0,0,16090.0,0,0,0,
2026-03-21 20:35:00,METAR KSVH 212035Z AUTO 24007KT 10SM CLR 25/12 A2987 RMK AO2 T02500116,0,7.0,0,16090.0,0,0,0,
2026-03-21 20:15:00,METAR KSVH 212015Z AUTO 22005KT 10SM CLR 25/12 A2988 RMK AO2 T02490121,0,5.0,0,16090.0,0,0,0,
2026-03-21 19:55:00,METAR KSVH 211955Z AUTO 22006KT 10SM CLR 24/12 A2989 RMK AO2 T02440121,0,6.0,0,16090.0,0,0,0,
2026-03-21 19:35:00,METAR KSVH 211935Z AUTO 21005KT 10SM CLR 23/12 A2990 RMK AO2 T02300115,0,5.0,0,16090.0,0,0,0,
2026-03-21 19:15:00,METAR KSVH 211915Z AUTO 20003KT 10SM CLR 23/12 A2991 RMK AO2 T02270117,0,3.0,0,16090.0,0,0,0,
2026-03-21 18:55:00,METAR KSVH 211855Z AUTO 20004KT 10SM CLR 23/12 A2992 RMK AO2 T02260117,0,4.0,0,16090.0,0,0,0,
2026-03-21 18:35:00,METAR KSVH 211835Z AUTO 22004KT 10SM CLR 23/12 A2993 RMK AO2 T02260115,0,4.0,0,16090.0,0,0,0,
2026-03-21 18:15:00,METAR KSVH 211815Z AUTO 22003KT 10SM CLR 23/11 A2993 RMK AO2 T02300114,0,3.0,0,16090.0,0,0,0,
2026-03-21 17:55:00,METAR KSVH 211755Z AUTO 00000KT 10SM CLR 22/12 A2994 RMK AO2 T02210123 10237 20120,0,0.0,0,16090.0,0,0,0,
2026-03-21 17:35:00,METAR KSVH 211735Z AUTO 25004KT 10SM CLR 23/11 A2994 RMK AO2 T02300112,0,4.0,0,16090.0,0,0,0,
2026-03-21 17:15:00,METAR KSVH 211715Z AUTO 26004KT 10SM CLR 23/12 A2994 RMK AO2 T02300115,0,4.0,0,16090.0,0,0,0,
2026-03-21 16:55:00,METAR KSVH 211655Z AUTO 26006KT 10SM CLR 23/11 A2995 RMK AO2 T02300112,0,6.0,0,16090.0,0,0,0,
2026-03-21 16:35:00,METAR KSVH 211635Z AUTO 27012KT 10SM CLR 23/12 A2995 RMK AO2 T02300116,0,12.0,0,16090.0,0,0,0,
2026-03-21 16:15:00,METAR KSVH 211615Z AUTO 28010KT 10SM CLR 23/12 A2996 RMK AO2 T02300116,0,10.0,0,16090.0,0,0,0,
2026-03-21 15:55:00,METAR KSVH 211555Z AUTO 26008KT 10SM CLR 23/11 A2996 RMK AO2 T02340108,0,8.0,0,16090.0,0,0,0,
2026-03-21 15:35:00,METAR KSVH 211535Z AUTO 26008KT 10SM CLR 23/10 A2996 RMK AO2 T02300104,0,8.0,0,16090.0,0,0,0,
2026-03-21 14:55:00,METAR KSVH 211455Z AUTO 24004KT 10SM CLR 20/09 A2997 RMK AO2 T02010088,0,4.0,0,16090.0,0,0,0,
2026-03-21 14:35:00,METAR KSVH 211435Z AUTO 24005KT 10SM CLR 19/08 A2997 RMK AO2 T01900081,0,5.0,0,16090.0,0,0,0,
2026-03-21 14:15:00,METAR KSVH 211415Z AUTO 25006KT 10SM CLR 18/08 A2996 RMK AO2 T01760077,0,6.0,0,16090.0,0,0,0,
2026-03-21 13:55:00,METAR KSVH 211355Z AUTO 24004KT 10SM CLR 17/07 A2996 RMK AO2 T01660072,0,4.0,0,16090.0,0,0,0,
2026-03-21 13:35:00,METAR KSVH 211335Z AUTO 23003KT 10SM CLR 16/07 A2995 RMK AO2 T01570069,0,3.0,0,16090.0,0,0,0,
2026-03-21 13:15:00,METAR KSVH 211315Z AUTO 23005KT 10SM CLR 15/07 A2994 RMK AO2 T01500066,0,5.0,0,16090.0,0,0,0,
2026-03-21 12:55:00,METAR KSVH 211255Z AUTO 23003KT 10SM CLR 14/06 A2994 RMK AO2 T01430064,0,3.0,0,16090.0,0,0,0,
2026-03-21 12:35:00,METAR KSVH 211235Z AUTO 00000KT 10SM SCT065 14/06 A2994 RMK AO2 T01410059,0,0.0,0,16090.0,0,0,0,
2026-03-21 12:15:00,METAR KSVH 211215Z AUTO 23005KT 10SM SCT065 13/06 A2993 RMK AO2 T01270062,0,5.0,0,16090.0,0,0,0,
2026-03-21 11:55:00,METAR KSVH 211155Z AUTO 23004KT 10SM SCT065 12/06 A2993 RMK AO2 T01230061 10168 20123,0,4.0,0,16090.0,0,0,0,
2026-03-21 11:35:00,METAR KSVH 211135Z AUTO 00000KT 10SM BKN065 BKN080 13/06 A2992 RMK AO2 T01280060,0,0.0,0,16090.0,0,0,0,
2026-03-21 11:15:00,METAR KSVH 211115Z AUTO 00000KT 10SM BKN065 OVC080 13/06 A2992 RMK AO2 T01310055,0,0.0,0,16090.0,0,0,0,
2026-03-21 10:55:00,METAR KSVH 211055Z AUTO 00000KT 10SM SCT065 BKN080 14/05 A2991 RMK AO2 T01350050,0,0.0,0,16090.0,0,0,0,
2026-03-21 10:35:00,METAR KSVH 211035Z AUTO 00000KT 10SM SCT065 14/05 A2991 RMK AO2 T01370049,0,0.0,0,16090.0,0,0,0,
2026-03-21 10:15:00,METAR KSVH 211015Z AUTO 00000KT 10SM CLR 14/05 A2990 RMK AO2 T01350048,0,0.0,0,16090.0,0,0,0,
2026-03-21 09:55:00,METAR KSVH 210955Z AUTO 00000KT 10SM SCT090 14/05 A2990 RMK AO2 T01390046,0,0.0,0,16090.0,0,0,0,
2026-03-21 09:35:00,METAR KSVH 210935Z AUTO 23003KT 10SM SCT080 14/05 A2990 RMK AO2 T01440046,0,3.0,0,16090.0,0,0,0,
2026-03-21 09:15:00,METAR KSVH 210915Z AUTO 25003KT 10SM CLR 14/05 A2989 RMK AO2 T01440045,0,3.0,0,16090.0,0,0,0,
2026-03-21 08:55:00,METAR KSVH 210855Z AUTO 22003KT 10SM SCT090 15/05 A2989 RMK AO2 T01470045,0,3.0,0,16090.0,0,0,0,
2026-03-21 08:35:00,METAR KSVH 210835Z AUTO 23006KT 10SM SCT090 15/05 A2988 RMK AO2 T01500045,0,6.0,0,16090.0,0,0,0,
2026-03-21 08:15:00,METAR KSVH 210815Z AUTO 23007KT 10SM BKN090 15/04 A2989 RMK AO2 T01530042,0,7.0,0,16090.0,0,0,0,
2026-03-21 07:55:00,METAR KSVH 210755Z AUTO 22008KT 10SM BKN090 15/04 A2990 RMK AO2 T01540043,0,8.0,0,16090.0,0,0,0,
2026-03-21 07:35:00,METAR KSVH 210735Z AUTO 22006KT 10SM CLR 15/04 A2990 RMK AO2 T01520041,0,6.0,0,16090.0,0,0,0,
2026-03-21 07:15:00,METAR KSVH 210715Z AUTO 22008KT 10SM CLR 16/04 A2991 RMK AO2 T01580041,0,8.0,0,16090.0,0,0,0,
2026-03-21 06:55:00,METAR KSVH 210655Z AUTO 22007KT 10SM CLR 16/04 A2991 RMK AO2 T01610041,0,7.0,0,16090.0,0,0,0,
2026-03-21 06:35:00,METAR KSVH 210635Z AUTO 23007KT 10SM CLR 16/04 A2991 RMK AO2 T01620038,0,7.0,0,16090.0,0,0,0,
2026-03-21 06:15:00,METAR KSVH 210615Z AUTO 22009KT 10SM CLR 16/04 A2991 RMK AO2 T01630037,0,9.0,0,16090.0,0,0,0,
2026-03-21 05:55:00,METAR KSVH 210555Z AUTO 22007G14KT 10SM CLR 17/04 A2992 RMK AO2 T01670037 10195 20166,0,7.0,1,16090.0,0,0,0,
2026-03-21 05:35:00,METAR KSVH 210535Z AUTO 22009G15KT 10SM CLR 17/04 A2992 RMK AO2 T01710037,0,9.0,1,16090.0,0,0,0,
2026-03-21 05:15:00,METAR KSVH 210515Z AUTO 22010G14KT 10SM CLR 17/04 A2993 RMK AO2 T01680035,0,10.0,1,16090.0,0,0,0,
2026-03-21 04:55:00,METAR KSVH 210455Z AUTO 22007KT 10SM CLR 17/04 A2994 RMK AO2 T01710035 402310018,0,7.0,0,16090.0,0,0,0,
2026-03-21 04:35:00,METAR KSVH 210435Z AUTO 21008KT 10SM CLR 17/03 A2994 RMK AO2 T01710033,0,8.0,0,16090.0,0,0,0,
2026-03-21 04:15:00,METAR KSVH 210415Z AUTO 21008KT 10SM CLR 17/03 A2994 RMK AO2 T01710034,0,8.0,0,16090.0,0,0,0,
2026-03-21 03:55:00,METAR KSVH 210355Z AUTO 22007KT 10SM CLR 17/03 A2994 RMK AO2 T01710031,0,7.0,0,16090.0,0,0,0,
2026-03-21 03:35:00,METAR KSVH 210335Z AUTO 21007KT 10SM CLR 17/03 A2995 RMK AO2 T01710030,0,7.0,0,16090.0,0,0,0,
2026-03-21 03:15:00,METAR KSVH 210315Z AUTO 21007KT 10SM CLR 17/03 A2995 RMK AO2 T01710030,0,7.0,0,16090.0,0,0,0,
2026-03-21 02:55:00,METAR KSVH 210255Z AUTO 20005KT 10SM CLR 18/03 A2996 RMK AO2 T01750029,0,5.0,0,16090.0,0,0,0,
2026-03-21 02:35:00,METAR KSVH 210235Z AUTO 20006KT 10SM SCT090 18/03 A2996 RMK AO2 T01760028,0,6.0,0,16090.0,0,0,0,
2026-03-21 02:15:00,METAR KSVH 210215Z AUTO 20005KT 10SM BKN090 18/03 A2996 RMK AO2 T01800029,0,5.0,0,16090.0,0,0,0,
2026-03-21 01:55:00,METAR KSVH 210155Z AUTO 21005KT 10SM OVC090 18/03 A2997 RMK AO2 T01840026,0,5.0,0,16090.0,0,0,0,
2026-03-21 01:35:00,METAR KSVH 210135Z AUTO 21005KT 10SM OVC090 18/02 A2997 RMK AO2 T01820024,0,5.0,0,16090.0,0,0,0,
2026-03-21 01:15:00,METAR KSVH 210115Z AUTO 21005KT 10SM OVC090 18/02 A2997 RMK AO2 T01830022,0,5.0,0,16090.0,0,0,0,
2026-03-21 00:55:00,METAR KSVH 210055Z AUTO 21005KT 10SM SCT100 BKN120 19/02 A2997 RMK AO2 T01860021,0,5.0,0,16090.0,0,0,0,
2026-03-21 00:35:00,METAR KSVH 210035Z AUTO 20004KT 10SM SCT100 SCT120 19/02 A2996 RMK AO2 T01890021,0,4.0,0,16090.0,0,0,0,
2026-03-21 00:15:00,METAR KSVH 210015Z AUTO 21004KT 10SM SCT100 19/02 A2996 RMK AO2 T01910017,0,4.0,0,16090.0,0,0,0,
2026-03-20 23:55:00,METAR KSVH 202355Z AUTO 20005KT 10SM CLR 20/02 A2996 RMK AO2 T01950016 10231 20195,0,5.0,0,16090.0,0,0,0,
2026-03-20 23:35:00,METAR KSVH 202335Z AUTO 20005KT 10SM CLR 20/02 A2996 RMK AO2 T01990018,0,5.0,0,16090.0,0,0,0,
2026-03-20 23:15:00,METAR KSVH 202315Z AUTO 21006KT 10SM CLR 21/02 A2997 RMK AO2 T02070017,0,6.0,0,16090.0,0,0,0,
2026-03-20 22:55:00,METAR KSVH 202255Z AUTO 21005KT 10SM CLR 21/01 A2997 RMK AO2 T02110014,0,5.0,0,16090.0,0,0,0,
2026-03-20 22:35:00,METAR KSVH 202235Z AUTO 21006G14KT 10SM CLR 22/01 A2997 RMK AO2 T02150012,0,6.0,1,16090.0,0,0,0,
2026-03-20 22:15:00,METAR KSVH 202215Z AUTO 22009G14KT 10SM CLR 22/01 A2997 RMK AO2 T02150010,0,9.0,1,16090.0,0,0,0,
2026-03-20 21:55:00,METAR KSVH 202155Z AUTO 21008G15KT 10SM CLR 22/01 A2997 RMK AO2 T02160011,0,8.0,1,16090.0,0,0,0,
2026-03-20 21:35:00,METAR KSVH 202135Z AUTO 21010KT 10SM CLR 22/01 A2998 RMK AO2 T02170010,0,10.0,0,16090.0,0,0,0,
2026-03-20 21:15:00,METAR KSVH 202115Z AUTO 21008G16KT 10SM CLR 22/01 A2998 RMK AO2 T02170009,0,8.0,1,16090.0,0,0,0,
2026-03-20 20:55:00,METAR KSVH 202055Z AUTO 21007G15KT 170V230 10SM CLR 22/01 A3000 RMK AO2 T02180011,0,7.0,1,16090.0,0,0,0,
2026-03-20 20:35:00,METAR KSVH 202035Z AUTO 22006G15KT 180V240 10SM CLR 22/01 A3001 RMK AO2 T02180009,0,6.0,1,16090.0,0,0,0,
2026-03-20 20:15:00,METAR KSVH 202015Z AUTO 22005G17KT 10SM CLR 22/01 A3002 RMK AO2 T02210006,0,5.0,1,16090.0,0,0,0,
2026-03-20 19:55:00,METAR KSVH 201955Z AUTO 23010G16KT 10SM CLR 22/00 A3002 RMK AO2 T02210003,0,10.0,1,16090.0,0,0,0,
2026-03-20 19:35:00,METAR KSVH 201935Z AUTO 21007G18KT 10SM CLR 22/00 A3003 RMK AO2 T02181002,0,7.0,1,16090.0,0,0,0,
2026-03-20 19:15:00,METAR KSVH 201915Z AUTO 22007KT 10SM CLR 23/00 A3004 RMK AO2 T02300003,0,7.0,0,16090.0,0,0,0,
2026-03-20 18:55:00,METAR KSVH 201855Z AUTO 24012G17KT 10SM CLR 23/00 A3006 RMK AO2 T02290002,0,12.0,1,16090.0,0,0,0,
2026-03-20 18:35:00,METAR KSVH 201835Z AUTO 23010G16KT 10SM CLR 23/01 A3008 RMK AO2 T02280005,0,10.0,1,16090.0,0,0,0,
2026-03-20 18:15:00,METAR KSVH 201815Z AUTO 20010G18KT 10SM CLR 23/00 A3009 RMK AO2 T02250002,0,10.0,1,16090.0,0,0,0,
2026-03-20 17:55:00,METAR KSVH 201755Z AUTO 22013G18KT 10SM CLR 23/00 A3011 RMK AO2 T02260003 10226 20026,0,13.0,1,16090.0,0,0,0,
2026-03-20 17:35:00,METAR KSVH 201735Z AUTO 22014G19KT 10SM CLR 22/01 A3012 RMK AO2 T02190008,0,14.0,1,16090.0,0,0,0,
2026-03-20 17:15:00,METAR KSVH 201715Z AUTO 20012G18KT 10SM CLR 22/01 A3012 RMK AO2 T02160013,0,12.0,1,16090.0,0,0,0,
2026-03-20 16:55:00,METAR KSVH 201655Z AUTO 21012G16KT 10SM CLR 21/01 A3014 RMK AO2 T02140013,0,12.0,1,16090.0,0,0,0,
2026-03-20 16:35:00,METAR KSVH 201635Z AUTO 25011G15KT 10SM CLR 21/01 A3014 RMK AO2 T02050014,0,11.0,1,16090.0,0,0,0,
2026-03-20 16:15:00,METAR KSVH 201615Z AUTO 21007KT 10SM CLR 20/02 A3015 RMK AO2 T01990016,0,7.0,0,16090.0,0,0,0,
2026-03-20 15:35:00,METAR KSVH 201535Z AUTO 19005KT 10SM CLR 17/03 A3017 RMK AO2 T01720029,0,5.0,0,16090.0,0,0,0,
2026-03-20 15:15:00,METAR KSVH 201515Z AUTO 22005KT 10SM CLR 16/03 A3018 RMK AO2 T01630032,0,5.0,0,16090.0,0,0,0,
2026-03-20 14:55:00,METAR KSVH 201455Z AUTO 21005KT 10SM CLR 15/03 A3018 RMK AO2 T01480031,0,5.0,0,16090.0,0,0,0,
2026-03-20 14:35:00,METAR KSVH 201435Z AUTO 21003KT 10SM CLR 13/03 A3019 RMK AO2 T01340032,0,3.0,0,16090.0,0,0,0,
2026-03-20 14:15:00,METAR KSVH 201415Z AUTO 00000KT 10SM CLR 12/03 A3019 RMK AO2 T01230031,0,0.0,0,16090.0,0,0,0,
2026-03-20 13:55:00,METAR KSVH 201355Z AUTO 00000KT 10SM CLR 11/03 A3019 RMK AO2 T01120032,0,0.0,0,16090.0,0,0,0,
2026-03-20 13:35:00,METAR KSVH 201335Z AUTO 23003KT 10SM CLR 10/03 A3019 RMK AO2 T01010030,0,3.0,0,16090.0,0,0,0,
2026-03-20 13:15:00,METAR KSVH 201315Z AUTO 00000KT 10SM CLR 09/03 A3019 RMK AO2 T00920031,0,0.0,0,16090.0,0,0,0,
2026-03-20 12:55:00,METAR KSVH 201255Z AUTO 25003KT 10SM CLR 07/03 A3019 RMK AO2 T00710032,0,3.0,0,16090.0,0,0,0,
2026-03-20 12:35:00,METAR KSVH 201235Z AUTO 23003KT 10SM CLR 05/03 A3019 RMK AO2 T00470027,0,3.0,0,16090.0,0,0,0,
2026-03-20 12:15:00,METAR KSVH 201215Z AUTO 24003KT 10SM CLR 03/02 A3019 RMK AO2 T00280016,0,3.0,0,16090.0,0,0,0,
2026-03-20 11:55:00,METAR KSVH 201155Z AUTO 00000KT 10SM CLR 04/02 A3019 RMK AO2 T00360018 10059 20018,0,0.0,0,16090.0,0,0,0,
2026-03-20 11:35:00,METAR KSVH 201135Z AUTO 25003KT 10SM CLR 02/02 A3018 RMK AO2 T00240015,0,3.0,0,16090.0,0,0,0,
2026-03-20 11:15:00,METAR KSVH 201115Z AUTO 23003KT 10SM CLR 02/01 A3018 RMK AO2 T00190010,0,3.0,0,16090.0,0,0,0,
2026-03-20 10:55:00,METAR KSVH 201055Z AUTO 25003KT 10SM CLR 03/01 A3018 RMK AO2 T00250011,0,3.0,0,16090.0,0,0,0,
2026-03-20 10:35:00,METAR KSVH 201035Z AUTO 23003KT 10SM CLR 03/01 A3017 RMK AO2 T00250013,0,3.0,0,16090.0,0,0,0,
2026-03-20 10:15:00,METAR KSVH 201015Z AUTO 23003KT 10SM CLR 02/01 A3017 RMK AO2 T00210010,0,3.0,0,16090.0,0,0,0,
2026-03-20 09:55:00,METAR KSVH 200955Z AUTO 24004KT 10SM CLR 02/01 A3017 RMK AO2 T00240012,0,4.0,0,16090.0,0,0,0,
2026-03-20 09:35:00,METAR KSVH 200935Z AUTO 24003KT 10SM CLR 02/01 A3018 RMK AO2 T00220010,0,3.0,0,16090.0,0,0,0,
2026-03-20 09:15:00,METAR KSVH 200915Z AUTO 00000KT 10SM CLR 02/01 A3018 RMK AO2 T00220011,0,0.0,0,16090.0,0,0,0,
2026-03-20 08:55:00,METAR KSVH 200855Z AUTO 28003KT 10SM CLR 04/02 A3017 RMK AO2 T00350016,0,3.0,0,16090.0,0,0,0,
2026-03-20 08:35:00,METAR KSVH 200835Z AUTO 00000KT 10SM CLR 04/01 A3017 RMK AO2 T00370010,0,0.0,0,16090.0,0,0,0,
2026-03-20 08:15:00,METAR KSVH 200815Z AUTO 00000KT 10SM CLR 04/01 A3018 RMK AO2 T00350012,0,0.0,0,16090.0,0,0,0,
2026-03-20 07:55:00,METAR KSVH 200755Z AUTO 00000KT 10SM CLR 04/01 A3018 RMK AO2 T00400013,0,0.0,0,16090.0,0,0,0,
2026-03-20 07:35:00,METAR KSVH 200735Z AUTO 00000KT 10SM CLR 04/01 A3019 RMK AO2 T00430010,0,0.0,0,16090.0,0,0,0,
2026-03-20 07:15:00,METAR KSVH 200715Z AUTO 00000KT 10SM CLR 04/02 A3019 RMK AO2 T00370015,0,0.0,0,16090.0,0,0,0,
2026-03-20 06:55:00,METAR KSVH 200655Z AUTO 00000KT 10SM CLR 05/01 A3019 RMK AO2 T00450011,0,0.0,0,16090.0,0,0,0,
2026-03-20 06:35:00,METAR KSVH 200635Z AUTO 00000KT 10SM CLR 05/01 A3020 RMK AO2 T00490011,0,0.0,0,16090.0,0,0,0,
2026-03-20 06:15:00,METAR KSVH 200615Z AUTO 00000KT 10SM CLR 06/01 A3020 RMK AO2 T00590010,0,0.0,0,16090.0,0,0,0,
2026-03-20 05:55:00,METAR KSVH 200555Z AUTO 00000KT 10SM CLR 04/02 A3020 RMK AO2 T00410017 10145 20040,0,0.0,0,16090.0,0,0,0,
2026-03-20 05:35:00,METAR KSVH 200535Z AUTO 00000KT 10SM CLR 04/02 A3020 RMK AO2 T00430020,0,0.0,0,16090.0,0,0,0,
2026-03-20 05:15:00,METAR KSVH 200515Z AUTO 00000KT 10SM CLR 06/01 A3021 RMK AO2 T00600014,0,0.0,0,16090.0,0,0,0,
2026-03-20 04:55:00,METAR KSVH 200455Z AUTO 00000KT 10SM CLR 05/01 A3022 RMK AO2 T00520013 401801012,0,0.0,0,16090.0,0,0,0,
2026-03-20 04:35:00,METAR KSVH 200435Z AUTO 00000KT 10SM CLR 07/01 A3022 RMK AO2 T00670012,0,0.0,0,16090.0,0,0,0,
2026-03-20 04:15:00,METAR KSVH 200415Z AUTO 00000KT 10SM CLR 07/02 A3022 RMK AO2 T00670016,0,0.0,0,16090.0,0,0,0,
2026-03-20 03:55:00,METAR KSVH 200355Z AUTO 00000KT 10SM CLR 07/01 A3022 RMK AO2 T00730011,0,0.0,0,16090.0,0,0,0,
2026-03-20 03:35:00,METAR KSVH 200335Z AUTO 00000KT 10SM CLR 08/01 A3022 RMK AO2 T00760011,0,0.0,0,16090.0,0,0,0,
2026-03-20 03:15:00,METAR KSVH 200315Z AUTO 00000KT 10SM CLR 08/02 A3021 RMK AO2 T00750015,0,0.0,0,16090.0,0,0,0,
2026-03-20 02:55:00,METAR KSVH 200255Z AUTO 00000KT 10SM CLR 08/01 A3021 RMK AO2 T00800010,0,0.0,0,16090.0,0,0,0,
2026-03-20 02:35:00,METAR KSVH 200235Z AUTO 00000KT 10SM CLR 09/01 A3021 RMK AO2 T00910006,0,0.0,0,16090.0,0,0,0,
2026-03-20 02:15:00,METAR KSVH 200215Z AUTO 00000KT 10SM CLR 09/01 A3020 RMK AO2 T00920011,0,0.0,0,16090.0,0,0,0,
2026-03-20 01:55:00,METAR KSVH 200155Z AUTO 00000KT 10SM CLR 10/01 A3020 RMK AO2 T00960008,0,0.0,0,16090.0,0,0,0,
2026-03-20 01:35:00,METAR KSVH 200135Z AUTO 00000KT 10SM CLR 11/00 A3019 RMK AO2 T01090003,0,0.0,0,16090.0,0,0,0,
2026-03-20 01:15:00,METAR KSVH 200115Z AUTO 00000KT 10SM CLR 10/01 A3019 RMK AO2 T01030007,0,0.0,0,16090.0,0,0,0,
2026-03-20 00:55:00,METAR KSVH 200055Z AUTO 00000KT 10SM CLR 12/00 A3018 RMK AO2 T01180003,0,0.0,0,16090.0,0,0,0,
2026-03-20 00:35:00,METAR KSVH 200035Z AUTO 18003KT 10SM CLR 12/00 A3017 RMK AO2 T01160002,0,3.0,0,16090.0,0,0,0,
2026-03-20 00:15:00,METAR KSVH 200015Z AUTO 00000KT 10SM CLR 13/00 A3017 RMK AO2 T01331002,0,0.0,0,16090.0,0,0,0,
2026-03-19 23:55:00,METAR KSVH 192355Z AUTO 00000KT 10SM CLR 15/00 A3017 RMK AO2 T01461003 10180 20144,0,0.0,0,16090.0,0,0,0,
2026-03-19 23:35:00,METAR KSVH 192335Z AUTO 19003KT 10SM CLR 15/M01 A3016 RMK AO2 T01501006,0,3.0,0,16090.0,0,0,0,
2026-03-19 23:15:00,METAR KSVH 192315Z AUTO 21003KT 10SM CLR 16/M01 A3016 RMK AO2 T01631006,0,3.0,0,16090.0,0,0,0,
2026-03-19 22:55:00,METAR KSVH 192255Z AUTO 00000KT 10SM CLR 17/00 A3015 RMK AO2 T01711005,0,0.0,0,16090.0,0,0,0,
2026-03-19 22:35:00,METAR KSVH 192235Z AUTO 00000KT 10SM CLR 17/M01 A3016 RMK AO2 T01711013,0,0.0,0,16090.0,0,0,0,
2026-03-19 22:15:00,METAR KSVH 192215Z AUTO 00000KT 10SM CLR 18/M01 A3016 RMK AO2 T01751009,0,0.0,0,16090.0,0,0,0,
2026-03-19 21:55:00,METAR KSVH 192155Z AUTO 25004KT 10SM CLR 18/M01 A3017 RMK AO2 T01801009,0,4.0,0,16090.0,0,0,0,
2026-03-19 21:35:00,METAR KSVH 192135Z AUTO 29005KT 10SM CLR 18/00 A3017 RMK AO2 T01791001,0,5.0,0,16090.0,0,0,0,
2026-03-19 21:15:00,METAR KSVH 192115Z AUTO 28005KT 10SM CLR 18/00 A3017 RMK AO2 T01800000,0,5.0,0,16090.0,0,0,0,
2026-03-19 20:55:00,METAR KSVH 192055Z AUTO 31003KT 10SM CLR 18/00 A3017 RMK AO2 T01751005,0,3.0,0,16090.0,0,0,0,
2026-03-19 20:35:00,METAR KSVH 192035Z AUTO 28006KT 10SM CLR 18/00 A3018 RMK AO2 T01761004,0,6.0,0,16090.0,0,0,0,
2026-03-19 20:15:00,METAR KSVH 192015Z AUTO 00000KT 10SM CLR 17/M01 A3018 RMK AO2 T01741010,0,0.0,0,16090.0,0,0,0,
2026-03-19 19:55:00,METAR KSVH 191955Z AUTO 29003KT 10SM CLR 17/00 A3019 RMK AO2 T01731004,0,3.0,0,16090.0,0,0,0,
2026-03-19 19:35:00,METAR KSVH 191935Z AUTO 33006KT 10SM CLR 17/M01 A3019 RMK AO2 T01731006,0,6.0,0,16090.0,0,0,0,
2026-03-19 19:15:00,METAR KSVH 191915Z AUTO 31005KT 10SM CLR 17/M01 A3019 RMK AO2 T01711006,0,5.0,0,16090.0,0,0,0,
2026-03-19 18:55:00,METAR KSVH 191855Z AUTO 00000KT 10SM CLR 17/M01 A3020 RMK AO2 T01701007,0,0.0,0,16090.0,0,0,0,
2026-03-19 18:35:00,METAR KSVH 191835Z AUTO 36003KT 10SM CLR 17/00 A3021 RMK AO2 T01690000,0,3.0,0,16090.0,0,0,0,
2026-03-19 18:15:00,METAR KSVH 191815Z AUTO 00000KT 10SM CLR 16/M01 A3022 RMK AO2 T01551013,0,0.0,0,16090.0,0,0,0,
2026-03-19 17:55:00,METAR KSVH 191755Z AUTO 00000KT 10SM CLR 15/M02 A3023 RMK AO2 T01451022 10154 21007,0,0.0,0,16090.0,0,0,0,
2026-03-19 17:35:00,METAR KSVH 191735Z AUTO 00000KT 10SM CLR 14/M02 A3023 RMK AO2 T01441017,0,0.0,0,16090.0,0,0,0,
2026-03-19 17:15:00,METAR KSVH 191715Z AUTO 00000KT 10SM CLR 15/M01 A3024 RMK AO2 T01481007,0,0.0,0,16090.0,0,0,0,
2026-03-19 16:55:00,METAR KSVH 191655Z AUTO 21004KT 10SM CLR 13/00 A3025 RMK AO2 T01321003,0,4.0,0,16090.0,0,0,0,
2026-03-19 16:35:00,METAR KSVH 191635Z AUTO 00000KT 10SM CLR 13/M01 A3026 RMK AO2 T01251010,0,0.0,0,16090.0,0,0,0,
2026-03-19 16:15:00,METAR KSVH 191615Z AUTO 00000KT 10SM CLR 12/M02 A3026 RMK AO2 T01221016,0,0.0,0,16090.0,0,0,0,
2026-03-19 15:55:00,METAR KSVH 191555Z AUTO 00000KT 10SM CLR 11/M01 A3027 RMK AO2 T01121010,0,0.0,0,16090.0,0,0,0,
2026-03-19 15:35:00,METAR KSVH 191535Z AUTO 00000KT 10SM CLR 10/M01 A3028 RMK AO2 T01031015,0,0.0,0,16090.0,0,0,0,
2026-03-19 15:15:00,METAR KSVH 191515Z AUTO 26004KT 10SM CLR 09/M01 A3028 RMK AO2 T00921013,0,4.0,0,16090.0,0,0,0,
2026-03-19 14:55:00,METAR KSVH 191455Z AUTO 23004KT 10SM CLR 08/M02 A3028 RMK AO2 T00841020,0,4.0,0,16090.0,0,0,0,
2026-03-19 14:35:00,METAR KSVH 191435Z AUTO 25005KT 10SM CLR 08/M03 A3029 RMK AO2 T00791027,0,5.0,0,16090.0,0,0,0,
2026-03-19 14:15:00,METAR KSVH 191415Z AUTO 25007KT 10SM CLR 08/M02 A3029 RMK AO2 T00781021,0,7.0,0,16090.0,0,0,0,
2026-03-19 13:55:00,METAR KSVH 191355Z AUTO 26003KT 10SM CLR 08/M01 A3029 RMK AO2 T00771014,0,3.0,0,16090.0,0,0,0,
2026-03-19 13:35:00,METAR KSVH 191335Z AUTO 00000KT 10SM CLR 06/M02 A3029 RMK AO2 T00611018,0,0.0,0,16090.0,0,0,0,
2026-03-19 13:15:00,METAR KSVH 191315Z AUTO 00000KT 10SM CLR 05/M02 A3028 RMK AO2 T00491022,0,0.0,0,16090.0,0,0,0,
2026-03-19 12:55:00,METAR KSVH 191255Z AUTO 00000KT 10SM CLR 03/M03 A3028 RMK AO2 T00321029,0,0.0,0,16090.0,0,0,0,
2026-03-19 12:35:00,METAR KSVH 191235Z AUTO 00000KT 10SM CLR 02/M02 A3027 RMK AO2 T00221025,0,0.0,0,16090.0,0,0,0,
2026-03-19 12:15:00,METAR KSVH 191215Z AUTO 17003KT 10SM CLR 00/M02 A3027 RMK AO2 T00001021,0,3.0,0,16090.0,0,0,0,
2026-03-19 11:55:00,METAR KSVH 191155Z AUTO 00000KT 10SM CLR M01/M03 A3027 RMK AO2 T10081030 10045 21012,0,0.0,0,16090.0,0,0,0,
2026-03-19 11:35:00,METAR KSVH 191135Z AUTO 00000KT 10SM CLR M01/M03 A3026 RMK AO2 T10121033,0,0.0,0,16090.0,0,0,0,
2026-03-19 11:15:00,METAR KSVH 191115Z AUTO 00000KT 10SM CLR 00/M04 A3026 RMK AO2 T00001036,0,0.0,0,16090.0,0,0,0,
2026-03-19 10:55:00,METAR KSVH 191055Z AUTO 00000KT 10SM CLR 00/M04 A3026 RMK AO2 T00021040,0,0.0,0,16090.0,0,0,0,
2026-03-19 10:35:00,METAR KSVH 191035Z AUTO 00000KT 10SM CLR 00/M04 A3025 RMK AO2 T00021040,0,0.0,0,16090.0,0,0,0,
2026-03-19 10:15:00,METAR KSVH 191015Z AUTO 00000KT 10SM CLR 01/M04 A3025 RMK AO2 T00051040,0,0.0,0,16090.0,0,0,0,
2026-03-19 09:55:00,METAR KSVH 190955Z AUTO 00000KT 10SM CLR 01/M04 A3023 RMK AO2 T00101044,0,0.0,0,16090.0,0,0,0,
2026-03-19 09:35:00,METAR KSVH 190935Z AUTO 00000KT 10SM CLR 01/M04 A3023 RMK AO2 T00051044,0,0.0,0,16090.0,0,0,0,
2026-03-19 09:15:00,METAR KSVH 190915Z AUTO 00000KT 10SM CLR 02/M04 A3023 RMK AO2 T00151041,0,0.0,0,16090.0,0,0,0,
2026-03-19 08:55:00,METAR KSVH 190855Z AUTO 00000KT 10SM CLR 02/M04 A3024 RMK AO2 T00151045,0,0.0,0,16090.0,0,0,0,
2026-03-19 08:35:00,METAR KSVH 190835Z AUTO 19003KT 10SM CLR 01/M04 A3025 RMK AO2 T00141043,0,3.0,0,16090.0,0,0,0,
2026-03-19 08:15:00,METAR KSVH 190815Z AUTO 18003KT 10SM CLR 02/M04 A3025 RMK AO2 T00151042,0,3.0,0,16090.0,0,0,0,
2026-03-19 07:55:00,METAR KSVH 190755Z AUTO 19003KT 10SM CLR 01/M04 A3026 RMK AO2 T00061040,0,3.0,0,16090.0,0,0,0,
2026-03-19 07:35:00,METAR KSVH 190735Z AUTO 00000KT 10SM CLR 02/M04 A3027 RMK AO2 T00151038,0,0.0,0,16090.0,0,0,0,
2026-03-19 07:15:00,METAR KSVH 190715Z AUTO 00000KT 10SM CLR 02/M05 A3028 RMK AO2 T00201046,0,0.0,0,16090.0,0,0,0,
2026-03-19 06:55:00,METAR KSVH 190655Z AUTO 00000KT 10SM CLR 02/M04 A3028 RMK AO2 T00211045,0,0.0,0,16090.0,0,0,0,
2026-03-19 06:35:00,METAR KSVH 190635Z AUTO 00000KT 10SM CLR 03/M05 A3027 RMK AO2 T00321053,0,0.0,0,16090.0,0,0,0,
2026-03-19 06:15:00,METAR KSVH 190615Z AUTO 00000KT 10SM CLR 04/M05 A3028 RMK AO2 T00401055,0,0.0,0,16090.0,0,0,0,
2026-03-19 05:55:00,METAR KSVH 190555Z AUTO 00000KT 10SM CLR 05/M06 A3028 RMK AO2 T00451056 10068 20041,0,0.0,0,16090.0,0,0,0,
2026-03-19 05:35:00,METAR KSVH 190535Z AUTO 00000KT 10SM CLR 05/M06 A3028 RMK AO2 T00451056,0,0.0,0,16090.0,0,0,0,
2026-03-19 05:15:00,METAR KSVH 190515Z AUTO 00000KT 10SM SCT060 05/M06 A3028 RMK AO2 T00491058,0,0.0,0,16090.0,0,0,0,
2026-03-19 04:55:00,METAR KSVH 190455Z AUTO 00000KT 10SM OVC060 06/M06 A3029 RMK AO2 T00551057 400971019,0,0.0,0,16090.0,0,0,0,
2026-03-19 04:35:00,METAR KSVH 190435Z AUTO 00000KT 10SM OVC060 05/M06 A3029 RMK AO2 T00531057,0,0.0,0,16090.0,0,0,0,
2026-03-19 04:15:00,METAR KSVH 190415Z AUTO 00000KT 10SM OVC060 05/M06 A3029 RMK AO2 T00531058,0,0.0,0,16090.0,0,0,0,
2026-03-19 03:55:00,METAR KSVH 190355Z AUTO 00000KT 10SM OVC060 05/M06 A3029 RMK AO2 T00531061,0,0.0,0,16090.0,0,0,0,
2026-03-19 03:35:00,METAR KSVH 190335Z AUTO 00000KT 10SM OVC060 06/M07 A3029 RMK AO2 T00551067,0,0.0,0,16090.0,0,0,0,
2026-03-19 03:15:00,METAR KSVH 190315Z AUTO 00000KT 10SM OVC060 06/M07 A3029 RMK AO2 T00551067,0,0.0,0,16090.0,0,0,0,
2026-03-19 02:55:00,METAR KSVH 190255Z AUTO 00000KT 10SM BKN060 05/M07 A3028 RMK AO2 T00531073,0,0.0,0,16090.0,0,0,0,
2026-03-19 02:35:00,METAR KSVH 190235Z AUTO 00000KT 10SM BKN060 05/M08 A3028 RMK AO2 T00531076,0,0.0,0,16090.0,0,0,0,
2026-03-19 02:15:00,METAR KSVH 190215Z AUTO 00000KT 10SM OVC060 06/M08 A3028 RMK AO2 T00571078,0,0.0,0,16090.0,0,0,0,
2026-03-19 01:55:00,METAR KSVH 190155Z AUTO 00000KT 10SM OVC070 06/M07 A3028 RMK AO2 T00581075,0,0.0,0,16090.0,0,0,0,
2026-03-19 01:35:00,METAR KSVH 190135Z AUTO 00000KT 10SM OVC070 06/M08 A3027 RMK AO2 T00581076,0,0.0,0,16090.0,0,0,0,
2026-03-19 01:15:00,METAR KSVH 190115Z AUTO 00000KT 10SM OVC070 06/M08 A3027 RMK AO2 T00581083,0,0.0,0,16090.0,0,0,0,
2026-03-19 00:55:00,METAR KSVH 190055Z AUTO 00000KT 10SM BKN070 06/M08 A3027 RMK AO2 T00571080,0,0.0,0,16090.0,0,0,0,
2026-03-19 00:35:00,METAR KSVH 190035Z AUTO 00000KT 10SM SCT080 06/M08 A3027 RMK AO2 T00601076,0,0.0,0,16090.0,0,0,0,
2026-03-19 00:15:00,METAR KSVH 190015Z AUTO 00000KT 10SM OVC080 07/M08 A3027 RMK AO2 T00661081,0,0.0,0,16090.0,0,0,0,
2026-03-18 23:55:00,METAR KSVH 182355Z AUTO 00000KT 10SM OVC080 07/M08 A3026 RMK AO2 T00691080 10097 20068,0,0.0,0,16090.0,0,0,0,
2026-03-18 23:35:00,METAR KSVH 182335Z AUTO 00000KT 10SM OVC080 07/M08 A3026 RMK AO2 T00711082,0,0.0,0,16090.0,0,0,0,
2026-03-18 23:15:00,METAR KSVH 182315Z AUTO 15003KT 10SM OVC080 07/M08 A3026 RMK AO2 T00701085,0,3.0,0,16090.0,0,0,0,
2026-03-18 22:55:00,METAR KSVH 182255Z AUTO 14004KT 10SM BKN080 08/M09 A3026 RMK AO2 T00751088,0,4.0,0,16090.0,0,0,0,
2026-03-18 22:35:00,METAR KSVH 182235Z AUTO 18006KT 10SM CLR 09/M09 A3026 RMK AO2 T00851091,0,6.0,0,16090.0,0,0,0,
2026-03-18 22:15:00,METAR KSVH 182215Z AUTO 16004KT 10SM CLR 09/M09 A3026 RMK AO2 T00911092,0,4.0,0,16090.0,0,0,0,
2026-03-18 21:55:00,METAR KSVH 182155Z AUTO 17004KT 10SM CLR 09/M08 A3026 RMK AO2 T00901085,0,4.0,0,16090.0,0,0,0,
2026-03-18 21:35:00,METAR KSVH 182135Z AUTO 14006KT 10SM CLR 09/M09 A3026 RMK AO2 T00921095,0,6.0,0,16090.0,0,0,0,
2026-03-18 21:15:00,METAR KSVH 182115Z AUTO 14003KT 10SM CLR 09/M09 A3027 RMK AO2 T00931088,0,3.0,0,16090.0,0,0,0,
2026-03-18 20:55:00,METAR KSVH 182055Z AUTO 16005KT 10SM CLR 09/M10 A3027 RMK AO2 T00941098,0,5.0,0,16090.0,0,0,0,
2026-03-18 20:35:00,METAR KSVH 182035Z AUTO 23003KT 10SM SCT070 09/M10 A3027 RMK AO2 T00921102,0,3.0,0,16090.0,0,0,0,
2026-03-18 20:15:00,METAR KSVH 182015Z AUTO 00000KT 10SM SCT070 09/M10 A3027 RMK AO2 T00851100,0,0.0,0,16090.0,0,0,0,
2026-03-18 19:55:00,METAR KSVH 181955Z AUTO 22005KT 10SM CLR 09/M09 A3029 RMK AO2 T00881095,0,5.0,0,16090.0,0,0,0,
2026-03-18 19:35:00,METAR KSVH 181935Z AUTO 00000KT 10SM CLR 08/M10 A3029 RMK AO2 T00831099,0,0.0,0,16090.0,0,0,0,
2026-03-18 19:15:00,METAR KSVH 181915Z AUTO 00000KT 10SM CLR 08/M10 A3030 RMK AO2 T00791100,0,0.0,0,16090.0,0,0,0,
2026-03-18 18:55:00,METAR KSVH 181855Z AUTO 00000KT 10SM CLR 08/M11 A3031 RMK AO2 T00771107,0,0.0,0,16090.0,0,0,0,
2026-03-18 18:35:00,METAR KSVH 181835Z AUTO 30003KT 10SM CLR 07/M11 A3032 RMK AO2 T00721113,0,3.0,0,16090.0,0,0,0,
2026-03-18 18:15:00,METAR KSVH 181815Z AUTO 27005KT 10SM CLR 08/M12 A3033 RMK AO2 T00751116,0,5.0,0,16090.0,0,0,0,
2026-03-18 17:55:00,METAR KSVH 181755Z AUTO 00000KT 10SM CLR 07/M11 A3034 RMK AO2 T00711109 10071 21011,0,0.0,0,16090.0,0,0,0,
2026-03-18 17:35:00,METAR KSVH 181735Z AUTO 14006KT 10SM CLR 07/M10 A3035 RMK AO2 T00671102,0,6.0,0,16090.0,0,0,0,
2026-03-18 17:15:00,METAR KSVH 181715Z AUTO 09005KT 10SM CLR 06/M10 A3036 RMK AO2 T00601103,0,5.0,0,16090.0,0,0,0,
2026-03-18 16:55:00,METAR KSVH 181655Z AUTO 17007KT 10SM CLR 06/M10 A3036 RMK AO2 T00601099,0,7.0,0,16090.0,0,0,0,
2026-03-18 16:35:00,METAR KSVH 181635Z AUTO 01003KT 10SM CLR 05/M10 A3036 RMK AO2 T00521105,0,3.0,0,16090.0,0,0,0,
2026-03-18 16:15:00,METAR KSVH 181615Z AUTO 00000KT 10SM CLR 05/M11 A3037 RMK AO2 T00471112,0,0.0,0,16090.0,0,0,0,
2026-03-18 15:55:00,METAR KSVH 181555Z AUTO 00000KT 10SM CLR 04/M10 A3038 RMK AO2 T00441104,0,0.0,0,16090.0,0,0,0,
2026-03-18 15:35:00,METAR KSVH 181535Z AUTO 13005KT 10SM CLR 04/M10 A3039 RMK AO2 T00401101,0,5.0,0,16090.0,0,0,0,
2026-03-18 15:15:00,METAR KSVH 181515Z AUTO 09003KT 10SM CLR 04/M10 A3039 RMK AO2 T00361104,0,3.0,0,16090.0,0,0,0,
2026-03-18 14:55:00,METAR KSVH 181455Z AUTO 07005KT 10SM CLR 03/M10 A3037 RMK AO2 T00341097,0,5.0,0,16090.0,0,0,0,
2026-03-18 14:35:00,METAR KSVH 181435Z AUTO 08006KT 10SM CLR 03/M10 A3037 RMK AO2 T00291097,0,6.0,0,16090.0,0,0,0,
2026-03-18 14:15:00,METAR KSVH 181415Z AUTO 11004KT 10SM CLR 02/M10 A3037 RMK AO2 T00221103,0,4.0,0,16090.0,0,0,0,
2026-03-18 13:55:00,METAR KSVH 181355Z AUTO 09006KT 10SM CLR 02/M09 A3037 RMK AO2 T00211092,0,6.0,0,16090.0,0,0,0,
2026-03-18 13:35:00,METAR KSVH 181335Z AUTO 13004KT 10SM CLR 01/M10 A3038 RMK AO2 T00121098,0,4.0,0,16090.0,0,0,0,
2026-03-18 13:15:00,METAR KSVH 181315Z AUTO 11005KT 10SM CLR 01/M10 A3038 RMK AO2 T00071097,0,5.0,0,16090.0,0,0,0,
2026-03-18 12:55:00,METAR KSVH 181255Z AUTO 10004KT 10SM CLR 00/M10 A3037 RMK AO2 T00041097,0,4.0,0,16090.0,0,0,0,
2026-03-18 12:35:00,METAR KSVH 181235Z AUTO 00000KT 10SM SCT090 M01/M10 A3037 RMK AO2 T10071096,0,0.0,0,16090.0,0,0,0,
2026-03-18 12:15:00,METAR KSVH 181215Z AUTO 00000KT 10SM OVC090 M01/M10 A3036 RMK AO2 T10111098,0,0.0,0,16090.0,0,0,0,
2026-03-18 11:55:00,METAR KSVH 181155Z AUTO 09003KT 10SM OVC090 M01/M09 A3034 RMK AO2 T10111093 11008 21019,0,3.0,0,16090.0,0,0,0,
2026-03-18 11:35:00,METAR KSVH 181135Z AUTO 00000KT 10SM OVC100 M01/M09 A3032 RMK AO2 T10111091,0,0.0,0,16090.0,0,0,0,
2026-03-18 11:15:00,METAR KSVH 181115Z AUTO 09004KT 10SM OVC100 M01/M09 A3032 RMK AO2 T10121091,0,4.0,0,16090.0,0,0,0,
2026-03-18 10:55:00,METAR KSVH 181055Z AUTO 11003KT 10SM OVC100 M01/M09 A3031 RMK AO2 T10121091,0,3.0,0,16090.0,0,0,0,
2026-03-18 10:35:00,METAR KSVH 181035Z AUTO 11005KT 10SM OVC100 M01/M09 A3029 RMK AO2 T10121094,0,5.0,0,16090.0,0,0,0,
2026-03-18 10:15:00,METAR KSVH 181015Z AUTO 11004KT 10SM OVC110 M01/M09 A3030 RMK AO2 T10111092,0,4.0,0,16090.0,0,0,0,
2026-03-18 09:55:00,METAR KSVH 180955Z AUTO 10004KT 10SM BKN120 M01/M09 A3029 RMK AO2 T10111093,0,4.0,0,16090.0,0,0,0,
2026-03-18 09:35:00,METAR KSVH 180935Z AUTO 10004KT 10SM SCT110 M01/M09 A3028 RMK AO2 T10111093,0,4.0,0,16090.0,0,0,0,
2026-03-18 09:15:00,METAR KSVH 180915Z AUTO 10005KT 10SM BKN110 M01/M10 A3027 RMK AO2 T10101098,0,5.0,0,16090.0,0,0,0,
2026-03-18 08:55:00,METAR KSVH 180855Z AUTO 12004KT 10SM SCT120 M01/M10 A3026 RMK AO2 T10101097,0,4.0,0,16090.0,0,0,0,
2026-03-18 08:35:00,METAR KSVH 180835Z AUTO 11003KT 10SM BKN120 M01/M10 A3026 RMK AO2 T10101098,0,3.0,0,16090.0,0,0,0,
2026-03-18 08:15:00,METAR KSVH 180815Z AUTO 00000KT 10SM SCT110 M01/M10 A3026 RMK AO2 T10101104,0,0.0,0,16090.0,0,0,0,
2026-03-18 07:55:00,METAR KSVH 180755Z AUTO 02004KT 10SM CLR M01/M10 A3026 RMK AO2 T10101105,0,4.0,0,16090.0,0,0,0,
2026-03-18 07:35:00,METAR KSVH 180735Z AUTO 01005KT 10SM CLR M01/M10 A3026 RMK AO2 T10101103,0,5.0,0,16090.0,0,0,0,
2026-03-18 07:15:00,METAR KSVH 180715Z AUTO 01005KT 10SM CLR M01/M09 A3025 RMK AO2 T10131092,0,5.0,0,16090.0,0,0,0,
2026-03-18 06:55:00,METAR KSVH 180655Z AUTO 00000KT 10SM CLR M02/M08 A3028 RMK AO2 T10181085,0,0.0,0,16090.0,0,0,0,
2026-03-18 06:35:00,METAR KSVH 180635Z AUTO 00000KT 10SM CLR M02/M09 A3028 RMK AO2 T10191090,0,0.0,0,16090.0,0,0,0,
2026-03-18 06:15:00,METAR KSVH 180615Z AUTO 00000KT 10SM CLR M01/M09 A3027 RMK AO2 T10151093,0,0.0,0,16090.0,0,0,0,
2026-03-18 05:55:00,METAR KSVH 180555Z AUTO 02003KT 10SM CLR M01/M10 A3028 RMK AO2 T10131101 10025 21017,0,3.0,0,16090.0,0,0,0,
2026-03-18 05:35:00,METAR KSVH 180535Z AUTO 00000KT 10SM CLR M01/M10 A3028 RMK AO2 T10111100,0,0.0,0,16090.0,0,0,0,
2026-03-18 05:15:00,METAR KSVH 180515Z AUTO 00000KT 10SM CLR M01/M10 A3027 RMK AO2 T10131096,0,0.0,0,16090.0,0,0,0,
2026-03-18 04:55:00,METAR KSVH 180455Z AUTO 00000KT 10SM CLR M01/M10 A3027 RMK AO2 T10101097 400751030,0,0.0,0,16090.0,0,0,0,
2026-03-18 04:35:00,METAR KSVH 180435Z AUTO 00000KT 10SM CLR M01/M10 A3027 RMK AO2 T10071099,0,0.0,0,16090.0,0,0,0,
2026-03-18 04:15:00,METAR KSVH 180415Z AUTO 05004KT 10SM CLR 00/M10 A3026 RMK AO2 T10041100,0,4.0,0,16090.0,0,0,0,
2026-03-18 03:55:00,METAR KSVH 180355Z AUTO 03003KT 10SM CLR 00/M10 A3026 RMK AO2 T00001101,0,3.0,0,16090.0,0,0,0,
2026-03-18 03:35:00,METAR KSVH 180335Z AUTO 05003KT 10SM CLR 00/M10 A3026 RMK AO2 T00001102,0,3.0,0,16090.0,0,0,0,
2026-03-18 03:15:00,METAR KSVH 180315Z AUTO 03005KT 10SM CLR 00/M11 A3025 RMK AO2 T00011110,0,5.0,0,16090.0,0,0,0,
2026-03-18 02:55:00,METAR KSVH 180255Z AUTO 01005KT 10SM CLR 01/M11 A3023 RMK AO2 T00051114,0,5.0,0,16090.0,0,0,0,
2026-03-18 02:35:00,METAR KSVH 180235Z AUTO 34004KT 10SM CLR 01/M11 A3022 RMK AO2 T00141115,0,4.0,0,16090.0,0,0,0,
2026-03-18 02:15:00,METAR KSVH 180215Z AUTO 32005KT 10SM CLR 01/M11 A3022 RMK AO2 T00131115,0,5.0,0,16090.0,0,0,0,
2026-03-18 01:55:00,METAR KSVH 180155Z AUTO 34004KT 10SM CLR 02/M11 A3022 RMK AO2 T00151112,0,4.0,0,16090.0,0,0,0,
2026-03-18 01:35:00,METAR KSVH 180135Z AUTO 34007KT 10SM CLR 02/M11 A3022 RMK AO2 T00151107,0,7.0,0,16090.0,0,0,0,
2026-03-18 01:15:00,METAR KSVH 180115Z AUTO 00000KT 10SM CLR 02/M10 A3022 RMK AO2 T00151104,0,0.0,0,16090.0,0,0,0,
2026-03-18 00:55:00,METAR KSVH 180055Z AUTO 31005KT 10SM CLR 02/M11 A3020 RMK AO2 T00151106,0,5.0,0,16090.0,0,0,0,
2026-03-18 00:35:00,METAR KSVH 180035Z AUTO 32003KT 10SM CLR 02/M11 A3019 RMK AO2 T00171108,0,3.0,0,16090.0,0,0,0,
2026-03-18 00:15:00,METAR KSVH 180015Z AUTO 33004KT 10SM CLR 02/M11 A3019 RMK AO2 T00211112,0,4.0,0,16090.0,0,0,0,
2026-03-17 23:55:00,METAR KSVH 172355Z AUTO 32007KT 10SM CLR 03/M11 A3017 RMK AO2 T00261112 10075 20026,0,7.0,0,16090.0,0,0,0,
2026-03-17 23:35:00,METAR KSVH 172335Z AUTO 32007KT 10SM CLR 03/M11 A3016 RMK AO2 T00331115,0,7.0,0,16090.0,0,0,0,
2026-03-17 23:15:00,METAR KSVH 172315Z AUTO 33009KT 10SM CLR 04/M11 A3015 RMK AO2 T00351112,0,9.0,0,16090.0,0,0,0,
2026-03-17 22:55:00,METAR KSVH 172255Z AUTO 35006G09KT 10SM CLR 05/M11 A3014 RMK AO2 T00451112,0,6.0,1,16090.0,0,0,0,
2026-03-17 22:35:00,METAR KSVH 172235Z AUTO 33013KT 10SM CLR 05/M12 A3012 RMK AO2 T00511118,0,13.0,0,16090.0,0,0,0,
2026-03-17 22:15:00,METAR KSVH 172215Z AUTO 29014G20KT 10SM CLR 06/M12 A3011 RMK AO2 T00561120,0,14.0,1,16090.0,0,0,0,
2026-03-17 21:55:00,METAR KSVH 172155Z AUTO 29016G21KT 10SM CLR 06/M12 A3010 RMK AO2 T00581124,0,16.0,1,16090.0,0,0,0,
2026-03-17 21:35:00,METAR KSVH 172135Z AUTO 29013G21KT 10SM CLR 06/M12 A3009 RMK AO2 T00641116,0,13.0,1,16090.0,0,0,0,
2026-03-17 21:15:00,METAR KSVH 172115Z AUTO 30017G23KT 10SM CLR 07/M12 A3008 RMK AO2 T00651120,0,17.0,1,16090.0,0,0,0,
2026-03-17 20:55:00,METAR KSVH 172055Z AUTO 28017G24KT 10SM CLR 07/M12 A3008 RMK AO2 T00671121,0,17.0,1,16090.0,0,0,0,
2026-03-17 20:35:00,METAR KSVH 172035Z AUTO 30010G16KT 10SM SCT070 07/M11 A3007 RMK AO2 T00711109,0,10.0,1,16090.0,0,0,0,
2026-03-17 20:15:00,METAR KSVH 172015Z AUTO 29014KT 10SM SCT070 07/M11 A3006 RMK AO2 T00711106,0,14.0,0,16090.0,0,0,0,
2026-03-17 19:55:00,METAR KSVH 171955Z AUTO 27008G16KT 10SM SCT070 07/M11 A3006 RMK AO2 T00721106,0,8.0,1,16090.0,0,0,0,
2026-03-17 19:35:00,METAR KSVH 171935Z AUTO 31009G21KT 280V340 10SM CLR 07/M11 A3006 RMK AO2 T00651109,0,9.0,1,16090.0,0,0,0,
2026-03-17 19:15:00,METAR KSVH 171915Z AUTO 26009G18KT 10SM CLR 06/M10 A3005 RMK AO2 T00641105,0,9.0,1,16090.0,0,0,0,
2026-03-17 18:55:00,METAR KSVH 171855Z AUTO 23008G16KT 200V260 10SM CLR 06/M10 A3006 RMK AO2 T00621102,0,8.0,1,16090.0,0,0,0,
2026-03-17 18:35:00,METAR KSVH 171835Z AUTO 29014G19KT 10SM CLR 06/M10 A3007 RMK AO2 T00551099,0,14.0,1,16090.0,0,0,0,
2026-03-17 18:15:00,METAR KSVH 171815Z AUTO 28013G18KT 10SM CLR 06/M10 A3009 RMK AO2 T00551098,0,13.0,1,16090.0,0,0,0,
2026-03-17 17:55:00,METAR KSVH 171755Z AUTO 28009G15KT 10SM CLR 05/M09 A3009 RMK AO2 T00541087 10054 21030,0,9.0,1,16090.0,0,0,0,
2026-03-17 17:35:00,METAR KSVH 171735Z AUTO 28009G17KT 10SM CLR 05/M09 A3010 RMK AO2 T00471093,0,9.0,1,16090.0,0,0,0,
2026-03-17 17:15:00,METAR KSVH 171715Z AUTO 25006KT 10SM SCT055 04/M10 A3010 RMK AO2 T00391099,0,6.0,0,16090.0,0,0,0,
2026-03-17 16:55:00,METAR KSVH 171655Z AUTO 23010G16KT 10SM SCT049 04/M09 A3011 RMK AO2 T00421095,0,10.0,1,16090.0,0,0,0,
2026-03-17 16:35:00,METAR KSVH 171635Z AUTO 22008G16KT 10SM SCT049 04/M10 A3012 RMK AO2 T00351096,0,8.0,1,16090.0,0,0,0,
2026-03-17 16:15:00,METAR KSVH 171615Z AUTO 24008G19KT 220V280 10SM SCT049 03/M10 A3012 RMK AO2 T00261097,0,8.0,1,16090.0,0,0,0,
2026-03-17 15:55:00,METAR KSVH 171555Z AUTO 26013KT 10SM SCT049 03/M09 A3013 RMK AO2 T00311091,0,13.0,0,16090.0,0,0,0,
2026-03-17 15:35:00,METAR KSVH 171535Z AUTO 29012G15KT 10SM SCT047 03/M09 A3013 RMK AO2 T00251086,0,12.0,1,16090.0,0,0,0,
2026-03-17 15:15:00,METAR KSVH 171515Z AUTO 31004G14KT 10SM SCT045 01/M09 A3013 RMK AO2 T00141091,0,4.0,1,16090.0,0,0,0,
2026-03-17 14:55:00,METAR KSVH 171455Z AUTO 30008G14KT 10SM SCT043 01/M09 A3013 RMK AO2 T00131092,0,8.0,1,16090.0,0,0,0,
2026-03-17 14:35:00,METAR KSVH 171435Z AUTO 27008G14KT 10SM CLR 01/M09 A3012 RMK AO2 T00101091,0,8.0,1,16090.0,0,0,0,
2026-03-17 14:15:00,METAR KSVH 171415Z AUTO 28011G16KT 10SM CLR 01/M09 A3012 RMK AO2 T00071095,0,11.0,1,16090.0,0,0,0,
2026-03-17 13:55:00,METAR KSVH 171355Z AUTO 30009G14KT 260V320 10SM CLR 00/M10 A3012 RMK AO2 T00021097,0,9.0,1,16090.0,0,0,0,
2026-03-17 13:35:00,METAR KSVH 171335Z AUTO 28010G16KT 10SM CLR 00/M10 A3012 RMK AO2 T00001097,0,10.0,1,16090.0,0,0,0,
2026-03-17 13:15:00,METAR KSVH 171315Z AUTO 30007KT 10SM CLR 00/M10 A3012 RMK AO2 T10011097,0,7.0,0,16090.0,0,0,0,
2026-03-17 12:55:00,METAR KSVH 171255Z AUTO 28007KT 10SM CLR M01/M10 A3012 RMK AO2 T10061096,0,7.0,0,16090.0,0,0,0,
2026-03-17 12:35:00,METAR KSVH 171235Z AUTO 28006KT 10SM CLR M01/M10 A3010 RMK AO2 T10141096,0,6.0,0,16090.0,0,0,0,
2026-03-17 12:15:00,METAR KSVH 171215Z AUTO 29004KT 10SM CLR M02/M09 A3009 RMK AO2 T10251095,0,4.0,0,16090.0,0,0,0,
2026-03-17 11:55:00,METAR KSVH 171155Z AUTO 27005KT M02/M10 A3008 RMK AO2 70017 T10251096 10003 21030 PWINO,0,5.0,0,,0,0,0,
2026-03-17 11:35:00,METAR KSVH 171135Z AUTO 29003KT 10SM CLR M03/M10 A3006 RMK AO2 T10291096,0,3.0,0,16090.0,0,0,0,
2026-03-17 11:15:00,METAR KSVH 171115Z AUTO 29005KT 10SM CLR M02/M10 A3005 RMK AO2 T10221104,0,5.0,0,16090.0,0,0,0,
2026-03-17 10:55:00,METAR KSVH 171055Z AUTO 30005KT 10SM CLR M02/M10 A3004 RMK AO2 T10191105,0,5.0,0,16090.0,0,0,0,
2026-03-17 10:35:00,METAR KSVH 171035Z AUTO 29003KT 10SM CLR M02/M11 A3002 RMK AO2 T10181109,0,3.0,0,16090.0,0,0,0,
2026-03-17 10:15:00,METAR KSVH 171015Z AUTO 29006KT 10SM CLR M02/M11 A3000 RMK AO2 T10201108,0,6.0,0,16090.0,0,0,0,
2026-03-17 09:55:00,METAR KSVH 170955Z AUTO 30006KT 10SM CLR M02/M11 A2999 RMK AO2 T10171112,0,6.0,0,16090.0,0,0,0,
2026-03-17 09:35:00,METAR KSVH 170935Z AUTO 30005KT 10SM CLR M02/M11 A2998 RMK AO2 T10181106,0,5.0,0,16090.0,0,0,0,
2026-03-17 09:15:00,METAR KSVH 170915Z AUTO 30006KT 10SM CLR M02/M10 A2997 RMK AO2 T10161105,0,6.0,0,16090.0,0,0,0,
2026-03-17 08:55:00,METAR KSVH 170855Z AUTO 31007G16KT 10SM CLR M01/M10 A2997 RMK AO2 T10151102,0,7.0,1,16090.0,0,0,0,
2026-03-17 08:35:00,METAR KSVH 170835Z AUTO 30012G16KT 10SM CLR M01/M10 A2996 RMK AO2 T10131100,0,12.0,1,16090.0,0,0,0,
2026-03-17 08:15:00,METAR KSVH 170815Z AUTO 30009KT 10SM CLR M01/M10 A2995 RMK AO2 T10111105,0,9.0,0,16090.0,0,0,0,
2026-03-17 07:55:00,METAR KSVH 170755Z AUTO 29010KT 10SM CLR M01/M11 A2995 RMK AO2 T10091110,0,10.0,0,16090.0,0,0,0,
2026-03-17 07:35:00,METAR KSVH 170735Z AUTO 30015G19KT 10SM CLR M01/M11 A2995 RMK AO2 T10081109,0,15.0,1,16090.0,0,0,0,
2026-03-17 07:15:00,METAR KSVH 170715Z AUTO 30013G18KT 10SM CLR M01/M09 A2995 RMK AO2 T10071088,0,13.0,1,16090.0,0,0,0,
2026-03-17 06:55:00,METAR KSVH 170655Z AUTO 29014G22KT 10SM CLR 00/M09 A2994 RMK AO2 T00001089,0,14.0,1,16090.0,0,0,0,
2026-03-17 06:35:00,METAR KSVH 170635Z AUTO 30008G15KT 10SM CLR 00/M08 A2992 RMK AO2 T00001082,0,8.0,1,16090.0,0,0,0,
2026-03-17 06:15:00,METAR KSVH 170615Z AUTO 29012KT 10SM CLR 00/M08 A2992 RMK AO2 T00011085,0,12.0,0,16090.0,0,0,0,
2026-03-17 05:55:00,METAR KSVH 170555Z AUTO 28015G22KT 10SM CLR 00/M08 A2992 RMK AO2 T00031080 10053 20001,0,15.0,1,16090.0,0,0,0,
2026-03-17 05:35:00,METAR KSVH 170535Z AUTO 28013G19KT 10SM SCT050 01/M08 A2992 RMK AO2 T00051078,0,13.0,1,16090.0,0,0,0,
2026-03-17 05:15:00,METAR KSVH 170515Z AUTO 26016G19KT 10SM OVC050 01/M07 A2992 RMK AO2 T00091071,0,16.0,1,16090.0,0,0,0,
2026-03-17 04:55:00,METAR KSVH 170455Z AUTO 29004KT 10SM OVC050 01/M06 A2991 RMK AO2 T00081060 401920001,0,4.0,0,16090.0,0,0,0,
2026-03-17 04:35:00,METAR KSVH 170435Z AUTO 26004KT 10SM BKN050 01/M06 A2990 RMK AO2 T00071064,0,4.0,0,16090.0,0,0,0,
2026-03-17 04:15:00,METAR KSVH 170415Z AUTO 26006KT 10SM SCT050 00/M06 A2988 RMK AO2 T00031063,0,6.0,0,16090.0,0,0,0,
2026-03-17 03:55:00,METAR KSVH 170355Z AUTO 26006KT 10SM CLR 01/M07 A2987 RMK AO2 T00131066,0,6.0,0,16090.0,0,0,0,
2026-03-17 03:35:00,METAR KSVH 170335Z AUTO 26007KT 10SM SCT049 02/M07 A2985 RMK AO2 T00151067,0,7.0,0,16090.0,0,0,0,
2026-03-17 03:15:00,METAR KSVH 170315Z AUTO 27009G17KT 10SM SCT049 02/M06 A2984 RMK AO2 T00151064,0,9.0,1,16090.0,0,0,0,
2026-03-17 02:55:00,METAR KSVH 170255Z AUTO 27011G15KT 10SM BKN049 02/M06 A2982 RMK AO2 T00151062,0,11.0,1,16090.0,0,0,0,
2026-03-17 02:35:00,METAR KSVH 170235Z AUTO 28011G15KT 10SM SCT049 02/M06 A2980 RMK AO2 T00181065,0,11.0,1,16090.0,0,0,0,
2026-03-17 02:15:00,METAR KSVH 170215Z AUTO 27021G29KT 10SM SCT047 02/M07 A2979 RMK AO2 T00241068,0,21.0,1,16090.0,0,0,0,
2026-03-17 01:55:00,METAR KSVH 170155Z AUTO 29012G16KT 10SM SCT047 03/M05 A2977 RMK AO2 T00251051,0,12.0,1,16090.0,0,0,0,
2026-03-17 01:35:00,METAR KSVH 170135Z AUTO 28021G30KT 10SM CLR 04/M06 A2975 RMK AO2 T00351059,0,21.0,1,16090.0,0,0,0,
2026-03-17 01:15:00,METAR KSVH 170115Z AUTO 27017KT 10SM CLR 04/M05 A2973 RMK AO2 T00351049,0,17.0,0,16090.0,0,0,0,
2026-03-17 00:55:00,METAR KSVH 170055Z AUTO 28015G21KT 10SM BKN060 04/M04 A2972 RMK AO2 T00381038,0,15.0,1,16090.0,0,0,0,
2026-03-17 00:35:00,METAR KSVH 170035Z AUTO 27020G26KT 10SM OVC060 05/M04 A2969 RMK AO2 T00451037,0,20.0,1,16090.0,0,0,0,
2026-03-17 00:15:00,METAR KSVH 170015Z AUTO 27018G27KT 10SM SCT041 SCT049 OVC060 05/M02 A2966 RMK AO2 T00461022,0,18.0,1,16090.0,0,0,0,
2026-03-16 23:55:00,METAR KSVH 162355Z AUTO 27020G26KT 10SM SCT036 BKN043 OVC049 05/M01 A2963 RMK AO2 60011 T00531006 10171 20053,0,20.0,1,16090.0,0,0,0,
2026-03-16 23:35:00,METAR KSVH 162335Z AUTO 28019G32KT 7SM DZ SCT015 SCT023 OVC036 05/02 A2960 RMK AO2 T00530015,0,19.0,1,11263.0,0,0,0,DZ
2026-03-16 23:15:00,METAR KSVH 162315Z AUTO 28018G22KT 10SM -DZ SCT015 BKN027 OVC034 08/05 A2957 RMK AO2 T00820054,0,18.0,1,16090.0,0,0,0,DZ
2026-03-16 22:55:00,METAR KSVH 162255Z AUTO 23022G30KT 10SM BKN034 OVC090 10/07 A2953 RMK AO2 P0004 T01010069,0,22.0,1,16090.0,0,0,0,
2026-03-16 22:35:00,METAR KSVH 162235Z AUTO 22006KT 10SM SCT014 BKN038 OVC080 10/10 A2950 RMK AO2 P0004 T01020096,0,6.0,0,16090.0,0,0,0,
2026-03-16 22:15:00,METAR KSVH 162215Z AUTO 27005KT 5SM RA SCT015 BKN019 OVC060 11/10 A2948 RMK AO2 P0003 T01060097,0,5.0,0,8045.0,0,0,0,RA
2026-03-16 21:55:00,METAR KSVH 162155Z AUTO 24012G21KT 7SM -RA SCT022 BKN030 OVC060 11/10 A2949 RMK AO2 P0001 T01120095,0,12.0,1,11263.0,0,0,0,-RA
2026-03-16 21:35:00,METAR KSVH 162135Z AUTO 23016G26KT 10SM RA SCT024 SCT028 OVC060 12/09 A2949 RMK AO2 P0001 T01210093,0,16.0,1,16090.0,0,0,0,RA
2026-03-16 21:15:00,METAR KSVH 162115Z AUTO 22012G18KT 10SM -DZ SCT018 SCT028 OVC050 12/11 A2947 RMK AO2 P0001 T01190105,0,12.0,1,16090.0,0,0,0,DZ
2026-03-16 20:55:00,METAR KSVH 162055Z AUTO 23011G21KT 7SM RA OVC048 12/11 A2947 RMK AO2 P0005 60006 T01220105,0,11.0,1,11263.0,0,0,0,RA
2026-03-16 20:35:00,METAR KSVH 162035Z AUTO 23016G21KT 10SM -RA SCT010 SCT018 OVC044 13/11 A2945 RMK AO2 P0005 T01280106,0,16.0,1,16090.0,0,0,0,-RA
2026-03-16 20:15:00,METAR KSVH 162015Z AUTO 24022G35KT 4SM -RA SCT008 BKN014 OVC036 14/11 A2945 RMK AO2 P0005 T01380114,0,22.0,1,6436.0,0,0,0,-RA
2026-03-16 19:55:00,METAR KSVH 161955Z AUTO 20012G21KT 7SM RA OVC016 16/15 A2943 RMK AO2 P0001 T01610145,0,12.0,1,11263.0,0,0,0,RA
2026-03-16 19:35:00,METAR KSVH 161935Z AUTO 20009G20KT 10SM OVC016 17/14 A2943 RMK AO2 T01710141,0,9.0,1,16090.0,0,0,0,
2026-03-16 19:15:00,METAR KSVH 161915Z AUTO 20009G21KT 150V220 10SM OVC016 17/14 A2945 RMK AO2 T01710141,0,9.0,1,16090.0,0,0,0,
2026-03-16 18:55:00,METAR KSVH 161855Z AUTO 19010G17KT 160V220 10SM OVC016 17/14 A2946 RMK AO2 T01710141,0,10.0,1,16090.0,0,0,0,
2026-03-16 15:55:00,METAR KSVH 161555Z AUTO 19010G15KT 10SM -RA SCT036 SCT060 OVC110 16/14 A2960 RMK AO2 T01560139,0,10.0,1,16090.0,0,0,0,-RA
2026-03-16 15:35:00,METAR KSVH 161535Z AUTO 19007KT 10SM -RA SCT035 SCT065 OVC100 16/14 A2961 RMK AO2 T01600141,0,7.0,0,16090.0,0,0,0,-RA
2026-03-16 15:10:00,METAR KSVH 161510Z AUTO 18007G17KT 10SM OVC090 16/14 A2962 RMK AO2 T01610138,0,7.0,1,16090.0,0,0,0,
2026-03-16 15:00:00,METAR KSVH 161500Z AUTO 19010G16KT 10SM OVC100 16/14 A2963 RMK AO2 T01620140,0,10.0,1,16090.0,0,0,0,
2026-03-16 11:15:00,METAR KSVH 161115Z AUTO 21013G23KT 7SM -RA SCT015 BKN020 OVC080 18/17 A2964 RMK AO2 P0007 T01820174,0,13.0,1,11263.0,0,0,0,-RA
2026-03-16 10:55:00,METAR KSVH 161055Z AUTO 20008G16KT 5SM +RA OVC019 19/18 A2963 RMK AO2 P0007 T01850175,0,8.0,1,8045.0,0,1,0,+RA
2026-03-16 10:35:00,METAR KSVH 161035Z AUTO 19009G19KT 160V230 10SM RA OVC019 19/17 A2964 RMK AO2 T01910170,0,9.0,1,16090.0,0,0,0,RA
2026-03-16 10:15:00,METAR KSVH 161015Z AUTO 20009G15KT 170V230 10SM BKN019 OVC025 19/17 A2965 RMK AO2 T01900170,0,9.0,1,16090.0,0,0,0,
2026-03-16 09:55:00,METAR KSVH 160955Z AUTO 19012G16KT 10SM BKN017 OVC024 19/18 A2965 RMK AO2 T01900175,0,12.0,1,16090.0,0,0,0,
2026-03-16 09:35:00,METAR KSVH 160935Z AUTO 20008G15KT 150V230 10SM OVC017 19/18 A2965 RMK AO2 T01900175,0,8.0,1,16090.0,0,0,0,
2026-03-16 09:15:00,METAR KSVH 160915Z AUTO 19009G15KT 10SM BKN012 OVC019 18/17 A2965 RMK AO2 T01840174,0,9.0,1,16090.0,0,0,0,
2026-03-16 08:55:00,METAR KSVH 160855Z AUTO 19007G16KT 10SM OVC010 18/18 A2967 RMK AO2 T01830175,0,7.0,1,16090.0,0,0,0,
2026-03-16 08:35:00,METAR KSVH 160835Z AUTO 19006G14KT 10SM OVC010 18/18 A2968 RMK AO2 T01830175,0,6.0,1,16090.0,0,0,0,
2026-03-16 08:15:00,METAR KSVH 160815Z AUTO 19009G15KT 10SM OVC010 18/18 A2972 RMK AO2 T01820175,0,9.0,1,16090.0,0,0,0,
2026-03-16 07:55:00,METAR KSVH 160755Z AUTO 19012G16KT 10SM BKN010 OVC014 18/18 A2973 RMK AO2 T01810175,0,12.0,1,16090.0,0,0,0,
2026-03-16 07:35:00,METAR KSVH 160735Z AUTO 17008G15KT 10SM OVC008 18/18 A2974 RMK AO2 T01800175,0,8.0,1,16090.0,0,0,0,
2026-03-16 07:15:00,METAR KSVH 160715Z AUTO 17010G16KT 10SM OVC008 18/18 A2976 RMK AO2 T01800175,0,10.0,1,16090.0,0,0,0,
2026-03-16 06:55:00,METAR KSVH 160655Z AUTO 18007KT 150V210 10SM OVC008 18/17 A2976 RMK AO2 T01760172,0,7.0,0,16090.0,0,0,0,
2026-03-16 06:35:00,METAR KSVH 160635Z AUTO 18005KT 10SM OVC010 18/17 A2977 RMK AO2 T01760172,0,5.0,0,16090.0,0,0,0,
2026-03-16 06:15:00,METAR KSVH 160615Z AUTO 18006KT 10SM OVC008 18/17 A2977 RMK AO2 T01760172,0,6.0,0,16090.0,0,0,0,
2026-03-16 05:55:00,METAR KSVH 160555Z AUTO 18005KT 10SM OVC008 18/17 A2978 RMK AO2 60003 T01750172 10175 20153,0,5.0,0,16090.0,0,0,0,
2026-03-16 05:35:00,METAR KSVH 160535Z AUTO 17007KT 10SM OVC008 17/17 A2978 RMK AO2 T01720170,0,7.0,0,16090.0,0,0,0,
2026-03-16 05:15:00,METAR KSVH 160515Z AUTO 17007KT 10SM BKN008 OVC015 17/17 A2979 RMK AO2 T01710170,0,7.0,0,16090.0,0,0,0,
2026-03-16 04:55:00,METAR KSVH 160455Z AUTO 17005KT 10SM BKN016 OVC022 17/17 A2979 RMK AO2 T01710170 402140081,0,5.0,0,16090.0,0,0,0,
2026-03-16 04:35:00,METAR KSVH 160435Z AUTO 17007KT 10SM BKN013 BKN019 BKN024 17/17 A2980 RMK AO2 T01710170,0,7.0,0,16090.0,0,0,0,
2026-03-16 04:15:00,METAR KSVH 160415Z AUTO 17007KT 10SM SCT009 BKN012 BKN018 17/17 A2981 RMK AO2 T01710167,0,7.0,0,16090.0,0,0,0,
2026-03-16 03:55:00,METAR KSVH 160355Z AUTO 17011G14KT 140V200 10SM -RA OVC009 17/17 A2982 RMK AO2 P0002 T01730170,0,11.0,1,16090.0,0,0,0,-RA
2026-03-16 03:35:00,METAR KSVH 160335Z AUTO 18008KT 10SM -RA BKN007 OVC011 17/17 A2983 RMK AO2 P0002 T01710170,0,8.0,0,16090.0,0,0,0,-RA
2026-03-16 03:15:00,METAR KSVH 160315Z AUTO 24005KT 10SM RA BKN009 OVC014 17/17 A2984 RMK AO2 P0001 T01710167,0,5.0,0,16090.0,0,0,0,RA
2026-03-16 02:55:00,METAR KSVH 160255Z AUTO 12008KT 10SM SCT009 OVC024 17/17 A2983 RMK AO2 60001 T01710169,0,8.0,0,16090.0,0,0,0,
2026-03-16 02:35:00,METAR KSVH 160235Z AUTO 13008KT 10SM BKN005 OVC026 17/17 A2984 RMK AO2 T01690167,0,8.0,0,16090.0,0,0,0,
2026-03-16 02:15:00,METAR KSVH 160215Z AUTO 12008KT 10SM OVC007 17/17 A2986 RMK AO2 T01680166,0,8.0,0,16090.0,0,0,0,
2026-03-16 01:55:00,METAR KSVH 160155Z AUTO 12007KT 10SM BKN007 OVC034 17/17 A2987 RMK AO2 T01690166,0,7.0,0,16090.0,0,0,0,
2026-03-16 01:35:00,METAR KSVH 160135Z AUTO 12008KT 10SM OVC009 17/17 A2987 RMK AO2 T01680166,0,8.0,0,16090.0,0,0,0,
2026-03-16 01:15:00,METAR KSVH 160115Z AUTO 13007KT 10SM OVC011 17/16 A2989 RMK AO2 T01650162,0,7.0,0,16090.0,0,0,0,
2026-03-16 00:55:00,METAR KSVH 160055Z AUTO 15005KT 10SM BKN013 BKN018 OVC033 16/16 A2990 RMK AO2 P0001 T01600160,0,5.0,0,16090.0,0,0,0,
2026-03-16 00:35:00,METAR KSVH 160035Z AUTO 00000KT 10SM RA BKN013 OVC018 16/16 A2991 RMK AO2 T01560156,0,0.0,0,16090.0,0,0,0,RA
2026-03-16 00:15:00,METAR KSVH 160015Z AUTO 00000KT 10SM SCT005 OVC016 16/16 A2991 RMK AO2 T01560156,0,0.0,0,16090.0,0,0,0,
2026-03-15 23:55:00,METAR KSVH 152355Z AUTO 00000KT 10SM BKN020 BKN042 OVC120 16/16 A2992 RMK AO2 60008 T01560155 10214 20151,0,0.0,0,16090.0,0,0,0,
2026-03-15 23:35:00,METAR KSVH 152335Z AUTO 09005KT 10SM BKN020 OVC048 16/16 A2992 RMK AO2 T01560155,0,5.0,0,16090.0,0,0,0,
2026-03-15 23:15:00,METAR KSVH 152315Z AUTO 00000KT 10SM SCT024 BKN050 OVC080 16/16 A2993 RMK AO2 T01560155,0,0.0,0,16090.0,0,0,0,
2026-03-15 22:55:00,METAR KSVH 152255Z AUTO 07005KT 10SM SCT013 BKN050 OVC080 16/16 A2992 RMK AO2 P0008 T01560155,0,5.0,0,16090.0,0,0,0,
2026-03-15 22:35:00,METAR KSVH 152235Z AUTO 07003KT 3SM +RA SCT015 BKN036 OVC055 16/16 A2993 RMK AO2 P0006 T01610156,0,3.0,0,4827.0,0,1,0,+RA
2026-03-15 22:15:00,METAR KSVH 152215Z AUTO 00000KT 4SM DZ SCT025 BKN050 OVC070 16/15 A2994 RMK AO2 T01610152,0,0.0,0,6436.0,0,0,0,DZ
2026-03-15 21:55:00,METAR KSVH 152155Z AUTO 14006KT 5SM RA SCT025 BKN038 OVC050 17/15 A2995 RMK AO2 T01710145,0,6.0,0,8045.0,0,0,0,RA
2026-03-15 21:35:00,METAR KSVH 152135Z AUTO 15006KT 10SM SCT038 OVC048 19/13 A2995 RMK AO2 T01900126,0,6.0,0,16090.0,0,0,0,
2026-03-15 21:15:00,METAR KSVH 152115Z AUTO 14010G15KT 10SM SCT040 BKN048 OVC050 20/11 A2996 RMK AO2 T01980114,0,10.0,1,16090.0,0,0,0,
2026-03-15 20:55:00,METAR KSVH 152055Z AUTO 14007KT 10SM BKN041 OVC050 20/12 A2996 RMK AO2 T01950115,0,7.0,0,16090.0,0,0,0,
2026-03-15 20:35:00,METAR KSVH 152035Z AUTO 13008G15KT 110V190 10SM SCT047 BKN050 OVC070 21/11 A2997 RMK AO2 T02100111,0,8.0,1,16090.0,0,0,0,
2026-03-15 20:15:00,METAR KSVH 152015Z AUTO 14012G16KT 10SM SCT044 SCT050 OVC070 21/11 A2998 RMK AO2 T02100107,0,12.0,1,16090.0,0,0,0,
2026-03-15 19:55:00,METAR KSVH 151955Z AUTO 14009G14KT 110V170 10SM BKN044 BKN050 OVC070 21/11 A2999 RMK AO2 T02090111,0,9.0,1,16090.0,0,0,0,
2026-03-15 19:35:00,METAR KSVH 151935Z AUTO 12009G16KT 10SM SCT046 BKN050 OVC080 21/11 A3000 RMK AO2 T02090111,0,9.0,1,16090.0,0,0,0,
2026-03-15 19:15:00,METAR KSVH 151915Z AUTO 14008G14KT 10SM BKN047 OVC080 21/10 A3001 RMK AO2 T02050104,0,8.0,1,16090.0,0,0,0,
2026-03-15 18:55:00,METAR KSVH 151855Z AUTO 15006KT 10SM SCT041 BKN046 OVC080 21/11 A3002 RMK AO2 T02080105,0,6.0,0,16090.0,0,0,0,
2026-03-15 18:35:00,METAR KSVH 151835Z AUTO 12008G15KT 10SM BKN041 OVC050 21/12 A3003 RMK AO2 T02100116,0,8.0,1,16090.0,0,0,0,
2026-03-15 18:15:00,METAR KSVH 151815Z AUTO 14005KT 10SM BKN037 OVC050 21/12 A3005 RMK AO2 T02110121,0,5.0,0,16090.0,0,0,0,
2026-03-15 17:55:00,METAR KSVH 151755Z AUTO 13005KT 10SM BKN035 BKN041 OVC047 21/12 A3006 RMK AO2 T02120123 10212 20090,0,5.0,0,16090.0,0,0,0,
2026-03-15 17:35:00,METAR KSVH 151735Z AUTO 09008KT 10SM BKN031 BKN040 BKN100 20/12 A3008 RMK AO2 T02040123,0,8.0,0,16090.0,0,0,0,
2026-03-15 17:15:00,METAR KSVH 151715Z AUTO 09007KT 10SM BKN029 BKN040 OVC100 20/12 A3009 RMK AO2 T02020124,0,7.0,0,16090.0,0,0,0,
2026-03-15 16:55:00,METAR KSVH 151655Z AUTO 09008KT 10SM OVC027 19/12 A3011 RMK AO2 T01870117,0,8.0,0,16090.0,0,0,0,
2026-03-15 16:35:00,METAR KSVH 151635Z AUTO 11006KT 10SM OVC023 19/12 A3012 RMK AO2 T01900119,0,6.0,0,16090.0,0,0,0,
2026-03-15 16:15:00,METAR KSVH 151615Z AUTO 08004KT 10SM BKN023 BKN028 OVC037 17/10 A3013 RMK AO2 T01710104,0,4.0,0,16090.0,0,0,0,
2026-03-15 15:55:00,METAR KSVH 151555Z AUTO 10006KT 10SM SCT021 BKN037 OVC095 17/10 A3014 RMK AO2 T01710104,0,6.0,0,16090.0,0,0,0,
2026-03-15 15:35:00,METAR KSVH 151535Z AUTO 04005KT 10SM BKN023 BKN027 OVC095 16/09 A3015 RMK AO2 T01610093,0,5.0,0,16090.0,0,0,0,
2026-03-15 15:15:00,METAR KSVH 151515Z AUTO 04004KT 10SM OVC023 14/08 A3016 RMK AO2 T01410082,0,4.0,0,16090.0,0,0,0,
2026-03-15 14:55:00,METAR KSVH 151455Z AUTO 02005KT 10SM BKN016 OVC023 14/08 A3016 RMK AO2 T01420084,0,5.0,0,16090.0,0,0,0,
2026-03-15 14:35:00,METAR KSVH 151435Z AUTO 08005KT 10SM OVC014 14/09 A3017 RMK AO2 T01430088,0,5.0,0,16090.0,0,0,0,
2026-03-15 14:15:00,METAR KSVH 151415Z AUTO 06005KT 10SM OVC014 14/08 A3017 RMK AO2 T01370081,0,5.0,0,16090.0,0,0,0,
2026-03-15 13:55:00,METAR KSVH 151355Z AUTO 06004KT 10SM OVC016 13/08 A3017 RMK AO2 T01290077,0,4.0,0,16090.0,0,0,0,
2026-03-15 13:35:00,METAR KSVH 151335Z AUTO 07006KT 10SM OVC016 12/07 A3017 RMK AO2 T01220071,0,6.0,0,16090.0,0,0,0,
2026-03-15 13:15:00,METAR KSVH 151315Z AUTO 05003KT 10SM OVC016 11/07 A3018 RMK AO2 T01120068,0,3.0,0,16090.0,0,0,0,
2026-03-15 12:55:00,METAR KSVH 151255Z AUTO 00000KT 10SM OVC014 11/07 A3018 RMK AO2 T01070066,0,0.0,0,16090.0,0,0,0,
2026-03-15 12:35:00,METAR KSVH 151235Z AUTO 04003KT 10SM OVC014 10/07 A3017 RMK AO2 T01030066,0,3.0,0,16090.0,0,0,0,
2026-03-15 12:15:00,METAR KSVH 151215Z AUTO 05004KT 10SM BKN014 BKN027 09/06 A3017 RMK AO2 T00920062,0,4.0,0,16090.0,0,0,0,
2026-03-15 11:55:00,METAR KSVH 151155Z AUTO 05003KT 10SM BKN025 BKN039 09/06 A3016 RMK AO2 T00890055 10145 20081,0,3.0,0,16090.0,0,0,0,
2026-03-15 11:35:00,METAR KSVH 151135Z AUTO 00000KT 10SM SCT027 SCT036 09/06 A3016 RMK AO2 T00910055,0,0.0,0,16090.0,0,0,0,
2026-03-15 11:15:00,METAR KSVH 151115Z AUTO 00000KT 10SM SCT034 08/05 A3017 RMK AO2 T00840053,0,0.0,0,16090.0,0,0,0,
2026-03-15 10:55:00,METAR KSVH 151055Z AUTO 00000KT 10SM SCT029 SCT035 09/05 A3016 RMK AO2 T00890049,0,0.0,0,16090.0,0,0,0,
2026-03-15 10:35:00,METAR KSVH 151035Z AUTO 00000KT 10SM BKN026 OVC031 10/05 A3017 RMK AO2 T01010052,0,0.0,0,16090.0,0,0,0,
2026-03-15 10:15:00,METAR KSVH 151015Z AUTO 00000KT 10SM OVC024 11/05 A3017 RMK AO2 T01050054,0,0.0,0,16090.0,0,0,0,
2026-03-15 09:55:00,METAR KSVH 150955Z AUTO 36003KT 10SM OVC026 10/06 A3017 RMK AO2 T01020057,0,3.0,0,16090.0,0,0,0,
2026-03-15 09:35:00,METAR KSVH 150935Z AUTO 36003KT 10SM BKN026 09/06 A3016 RMK AO2 T00910055,0,3.0,0,16090.0,0,0,0,
2026-03-15 09:15:00,METAR KSVH 150915Z AUTO 00000KT 10SM CLR 09/05 A3016 RMK AO2 T00930050,0,0.0,0,16090.0,0,0,0,
2026-03-15 08:55:00,METAR KSVH 150855Z AUTO 00000KT 10SM CLR 09/05 A3015 RMK AO2 T00900050,0,0.0,0,16090.0,0,0,0,
2026-03-15 08:35:00,METAR KSVH 150835Z AUTO 00000KT 10SM CLR 11/05 A3015 RMK AO2 T01050047,0,0.0,0,16090.0,0,0,0,
2026-03-15 08:15:00,METAR KSVH 150815Z AUTO 00000KT 10SM CLR 12/05 A3015 RMK AO2 T01180047,0,0.0,0,16090.0,0,0,0,
