Time_recorded,METAR,is_cavok,wind_speed,is_gust,visibility_meters,has_thunderstorm,has_heavy_rain,has_low_vis_fog,other_phenomenon
2026-05-02 14:52:00,METAR KIOW 021452Z AUTO 00000KT 10SM CLR 11/02 A3016 RMK AO2 SLP215 T01110022 50006,0,0.0,0,16090,0,0,0,
2026-05-02 13:52:00,METAR KIOW 021352Z AUTO 00000KT 10SM CLR 08/03 A3016 RMK AO2 SLP217 T00830033,0,0.0,0,16090,0,0,0,
2026-05-02 12:52:00,METAR KIOW 021252Z AUTO 00000KT 10SM CLR 06/03 A3016 RMK AO2 SLP215 T00610028,0,0.0,0,16090,0,0,0,
2026-05-02 11:52:00,METAR KIOW 021152Z AUTO 00000KT 10SM CLR 03/01 A3014 RMK AO2 SLP210 70002 T00280006 10078 20011 53007,0,0.0,0,16090,0,0,0,
2026-05-02 10:52:00,METAR KIOW 021052Z AUTO 00000KT 10SM CLR 02/00 A3013 RMK AO2 SLP207 T00220000,0,0.0,0,16090,0,0,0,
2026-05-02 09:52:00,METAR KIOW 020952Z AUTO 00000KT 10SM CLR 03/00 A3013 RMK AO2 SLP205 T00330000,0,0.0,0,16090,0,0,0,
2026-05-02 08:52:00,METAR KIOW 020852Z AUTO 00000KT 10SM CLR 04/01 A3012 RMK AO2 SLP203 T00440006 53004,0,0.0,0,16090,0,0,0,
2026-05-02 07:52:00,METAR KIOW 020752Z AUTO 04004KT 10SM FEW090 04/01 A3011 RMK AO2 SLP201 T00440006,0,4.0,0,16090,0,0,0,
2026-05-02 06:52:00,METAR KIOW 020652Z AUTO 04005KT 10SM BKN090 06/00 A3011 RMK AO2 SLP198 T00610000,0,5.0,0,16090,0,0,0,
2026-05-02 05:52:00,METAR KIOW 020552Z AUTO 02004KT 10SM OVC090 08/01 A3011 RMK AO2 SLP198 T00780006 10128 20061 401390017 51008,0,4.0,0,16090,0,0,0,
2026-05-02 04:52:00,METAR KIOW 020452Z AUTO 00000KT 10SM OVC090 08/03 A3010 RMK AO2 SLP196 T00780033,0,0.0,0,16090,0,0,0,
2026-05-02 03:52:00,METAR KIOW 020352Z AUTO 00000KT 10SM OVC090 07/02 A3010 RMK AO2 SLP195 T00670022,0,0.0,0,16090,0,0,0,
2026-05-02 02:52:00,METAR KIOW 020252Z AUTO 00000KT 10SM BKN075 07/02 A3008 RMK AO2 SLP190 T00720022 53017,0,0.0,0,16090,0,0,0,
2026-05-02 01:52:00,METAR KIOW 020152Z AUTO 00000KT 10SM CLR 08/01 A3006 RMK AO2 SLP183 T00780006,0,0.0,0,16090,0,0,0,
2026-05-02 00:52:00,METAR KIOW 020052Z AUTO 02004KT 10SM CLR 11/00 A3004 RMK AO2 SLP177 T01060000,0,4.0,0,16090,0,0,0,
2026-05-01 23:52:00,METAR KIOW 012352Z AUTO 34005KT 10SM FEW100 12/M01 A3003 RMK AO2 SLP173 60002 T01221011 10139 20100 58002,0,5.0,0,16090,0,0,0,
2026-05-01 22:52:00,METAR KIOW 012252Z AUTO VRB06KT 10SM FEW090 13/01 A3004 RMK AO2 WSHFT 2146 SLP174 T01330011,0,6.0,0,16090,0,0,0,
2026-05-01 22:06:00,SPECI KIOW 012206Z AUTO 02010KT 10SM SCT050 SCT090 OVC110 12/03 A3004 RMK AO2 WSHFT 2146 T01170028,0,10.0,0,16090,0,0,0,
2026-05-01 21:52:00,METAR KIOW 012152Z AUTO 02014G20KT 10SM BKN055 OVC090 12/02 A3004 RMK AO2 SLP176 T01170022,0,14.0,1,16090,0,0,0,
2026-05-01 20:52:00,METAR KIOW 012052Z AUTO VRB04KT 10SM FEW065 BKN095 BKN110 12/03 A3004 RMK AO2 RAE1959 SLP174 P0000 60002 T01220028 58003,0,4.0,0,16090,0,0,0,RA
2026-05-01 19:52:00,METAR KIOW 011952Z AUTO 25007KT 8SM -RA BKN039 BKN055 OVC070 11/04 A3006 RMK AO2 RAB12 SLP183 P0002 T01110039,0,7.0,0,12872,0,0,0,-RA
2026-05-01 18:52:00,METAR KIOW 011852Z AUTO 03004KT 10SM FEW050 BKN060 OVC070 13/01 A3005 RMK AO2 SLP177 T01280011,0,4.0,0,16090,0,0,0,
2026-05-01 17:52:00,METAR KIOW 011752Z AUTO 00000KT 10SM BKN050 12/01 A3005 RMK AO2 SLP178 60000 T01220006 10133 20044 58005,0,0.0,0,16090,0,0,0,
2026-05-01 16:52:00,METAR KIOW 011652Z AUTO 00000KT 10SM BKN047 BKN110 11/M01 A3006 RMK AO2 SLP180 T01111006,0,0.0,0,16090,0,0,0,
2026-05-01 15:52:00,METAR KIOW 011552Z AUTO VRB04KT 10SM BKN110 11/01 A3006 RMK AO2 RAB15E24 SLP182 P0000 T01110011,0,4.0,0,16090,0,0,0,RA
2026-05-01 14:52:00,METAR KIOW 011452Z AUTO 17005KT 10SM FEW050 BKN060 OVC090 09/M01 A3006 RMK AO2 SLP182 T00941006 52002,0,5.0,0,16090,0,0,0,
2026-05-01 13:52:00,METAR KIOW 011352Z AUTO 08003KT 10SM BKN080 BKN110 09/M01 A3006 RMK AO2 SLP180 T00941006,0,3.0,0,16090,0,0,0,
2026-05-01 12:52:00,METAR KIOW 011252Z AUTO 00000KT 10SM BKN065 OVC100 06/01 A3006 RMK AO2 SLP183 T00560006,0,0.0,0,16090,0,0,0,
2026-05-01 11:52:00,METAR KIOW 011152Z AUTO 00000KT 10SM BKN055 BKN070 OVC080 04/00 A3006 RMK AO2 SLP182 T00440000 10050 20017 53004,0,0.0,0,16090,0,0,0,
2026-05-01 10:52:00,METAR KIOW 011052Z AUTO 26005KT 10SM BKN070 02/M01 A3005 RMK AO2 SLP180 T00171011,0,5.0,0,16090,0,0,0,
2026-05-01 09:52:00,METAR KIOW 010952Z AUTO 25004KT 10SM FEW070 BKN095 03/M02 A3005 RMK AO2 SLP179 T00281017,0,4.0,0,16090,0,0,0,
2026-05-01 08:52:00,METAR KIOW 010852Z AUTO 00000KT 10SM FEW075 SCT090 OVC110 04/M02 A3005 RMK AO2 SLP177 T00391017 55001,0,0.0,0,16090,0,0,0,
2026-05-01 07:52:00,METAR KIOW 010752Z AUTO 00000KT 10SM SCT075 03/M02 A3004 RMK AO2 SLP177 T00281017,0,0.0,0,16090,0,0,0,
2026-05-01 06:52:00,METAR KIOW 010652Z AUTO 32004KT 10SM CLR 05/M02 A3005 RMK AO2 SLP179 T00501017,0,4.0,0,16090,0,0,0,
2026-05-01 05:52:00,METAR KIOW 010552Z AUTO 31005KT 10SM CLR 05/M02 A3005 RMK AO2 SLP179 T00501017 10128 20050 401390022 53007,0,5.0,0,16090,0,0,0,
2026-05-01 04:52:00,METAR KIOW 010452Z AUTO 31006KT 10SM CLR 06/M02 A3004 RMK AO2 SLP174 T00611017,0,6.0,0,16090,0,0,0,
2026-05-01 03:52:00,METAR KIOW 010352Z AUTO 30006KT 10SM CLR 07/M02 A3003 RMK AO2 SLP172 T00671017,0,6.0,0,16090,0,0,0,
2026-05-01 02:52:00,METAR KIOW 010252Z AUTO 31007KT 10SM CLR 09/M02 A3003 RMK AO2 SLP170 T00941022 53019,0,7.0,0,16090,0,0,0,
2026-05-01 01:52:00,METAR KIOW 010152Z AUTO 31007KT 10SM OVC085 11/M02 A3000 RMK AO2 SLP160 T01061017,0,7.0,0,16090,0,0,0,
2026-05-01 00:52:00,METAR KIOW 010052Z AUTO 30007KT 10SM FEW080 12/M03 A2998 RMK AO2 SLP154 T01171028,0,7.0,0,16090,0,0,0,
2026-04-30 23:52:00,METAR KIOW 302352Z AUTO 30012G18KT 10SM FEW060 OVC075 13/M01 A2997 RMK AO2 SLP152 T01281006 10139 20111 56005,0,12.0,1,16090,0,0,0,
2026-04-30 22:52:00,METAR KIOW 302252Z AUTO 31010G21KT 10SM SCT049 BKN060 BKN100 13/02 A2997 RMK AO2 SLP152 T01280017,0,10.0,1,16090,0,0,0,
2026-04-30 21:52:00,METAR KIOW 302152Z AUTO 33012G23KT 10SM FEW043 BKN110 14/02 A2997 RMK AO2 SLP151 T01390022,0,12.0,1,16090,0,0,0,
2026-04-30 20:52:00,METAR KIOW 302052Z AUTO 30006KT 10SM BKN046 OVC070 12/04 A2999 RMK AO2 SLP157 T01220044 56009,0,6.0,0,16090,0,0,0,
2026-04-30 19:52:00,METAR KIOW 301952Z AUTO 33011KT 10SM BKN042 BKN055 OVC070 12/06 A3000 RMK AO2 SLP160 T01220056,0,11.0,0,16090,0,0,0,
2026-04-30 18:52:00,METAR KIOW 301852Z AUTO 31010KT 10SM FEW028 BKN038 OVC050 13/06 A3000 RMK AO2 SLP160 T01280061,0,10.0,0,16090,0,0,0,
2026-04-30 18:32:00,SPECI KIOW 301832Z AUTO 27008KT 10SM SCT024 BKN031 OVC050 13/06 A3000 RMK AO2 T01280061,0,8.0,0,16090,0,0,0,
2026-04-30 18:13:00,SPECI KIOW 301813Z AUTO 28011KT 10SM BKN024 BKN029 OVC060 13/07 A3001 RMK AO2 T01280072,0,11.0,0,16090,0,0,0,
2026-04-30 17:52:00,METAR KIOW 301752Z AUTO 29006KT 10SM SCT024 BKN044 OVC055 12/07 A3001 RMK AO2 RAE1659 SLP166 P0000 60000 T01220072 10122 20039 58010,0,6.0,0,16090,0,0,0,RA
2026-04-30 16:52:00,METAR KIOW 301652Z AUTO 23007KT 10SM -RA OVC050 10/07 A3004 RMK AO2 RAB1558 SLP175 P0000 T01000072,0,7.0,0,16090,0,0,0,"-RA,RA"
2026-04-30 15:52:00,METAR KIOW 301552Z AUTO 24011KT 10SM FEW035 SCT045 OVC060 12/05 A3005 RMK AO2 SLP178 T01170050,0,11.0,0,16090,0,0,0,
2026-04-30 14:52:00,METAR KIOW 301452Z AUTO 24010KT 10SM BKN070 12/04 A3004 RMK AO2 SLP175 T01170039 51001,0,10.0,0,16090,0,0,0,
2026-04-30 13:52:00,METAR KIOW 301352Z AUTO 22004KT 10SM BKN080 10/04 A3004 RMK AO2 SLP174 T01000039,0,4.0,0,16090,0,0,0,
2026-04-30 12:52:00,METAR KIOW 301252Z AUTO 00000KT 10SM BKN110 08/02 A3004 RMK AO2 SLP175 T00780022,0,0.0,0,16090,0,0,0,
2026-04-30 11:52:00,METAR KIOW 301152Z AUTO 00000KT 10SM CLR 04/01 A3004 RMK AO2 SLP175 T00390006 10061 20022 55001,0,0.0,0,16090,0,0,0,
2026-04-30 10:52:00,METAR KIOW 301052Z AUTO 00000KT 10SM CLR 03/00 A3003 RMK AO2 SLP172 T00330000,0,0.0,0,16090,0,0,0,
2026-04-30 09:52:00,METAR KIOW 300952Z AUTO 00000KT 10SM CLR 06/M01 A3003 RMK AO2 SLP171 T00561011,0,0.0,0,16090,0,0,0,
2026-04-30 08:52:00,METAR KIOW 300852Z AUTO 24004KT 10SM SCT090 04/M01 A3004 RMK AO2 SLP175 T00441006 58009,0,4.0,0,16090,0,0,0,
2026-04-30 07:52:00,METAR KIOW 300752Z AUTO 00000KT 10SM CLR 04/00 A3006 RMK AO2 SLP180 T00390000,0,0.0,0,16090,0,0,0,
2026-04-30 06:52:00,METAR KIOW 300652Z AUTO 00000KT 10SM CLR 04/M01 A3006 RMK AO2 SLP181 T00391006,0,0.0,0,16090,0,0,0,
2026-04-30 05:52:00,METAR KIOW 300552Z AUTO 00000KT 10SM CLR 05/00 A3007 RMK AO2 SLP185 T00500000 10139 20044 401610044 58001,0,0.0,0,16090,0,0,0,
2026-04-30 04:52:00,METAR KIOW 300452Z AUTO 00000KT 10SM CLR 06/00 A3007 RMK AO2 SLP186 T00560000,0,0.0,0,16090,0,0,0,
2026-04-30 03:52:00,METAR KIOW 300352Z AUTO 00000KT 10SM CLR 06/00 A3008 RMK AO2 SLP186 T00560000,0,0.0,0,16090,0,0,0,
2026-04-30 02:52:00,METAR KIOW 300252Z AUTO 00000KT 10SM CLR 08/00 A3008 RMK AO2 SLP187 T00780000 53012,0,0.0,0,16090,0,0,0,
2026-04-30 01:52:00,METAR KIOW 300152Z AUTO 29003KT 10SM CLR 11/M03 A3007 RMK AO2 SLP183 T01061028,0,3.0,0,16090,0,0,0,
2026-04-30 00:52:00,METAR KIOW 300052Z AUTO 33007KT 10SM FEW090 13/M04 A3005 RMK AO2 SLP176 T01331044,0,7.0,0,16090,0,0,0,
2026-04-29 23:52:00,METAR KIOW 292352Z AUTO 33011G20KT 10SM FEW085 14/M05 A3004 RMK AO2 SLP173 T01391050 10161 20139 53001,0,11.0,1,16090,0,0,0,
2026-04-29 22:52:00,METAR KIOW 292252Z AUTO 34011G22KT 10SM FEW085 16/M04 A3003 RMK AO2 SLP170 T01561044,0,11.0,1,16090,0,0,0,
2026-04-29 21:52:00,METAR KIOW 292152Z AUTO 10SM CLR 16/M04 A3003 RMK AO2 SLP170 T01611044,0,,0,16090,0,0,0,
2026-04-29 20:52:00,METAR KIOW 292052Z AUTO 10SM CLR 16/M04 A3004 RMK AO2 SLP172 T01611044 58011,0,,0,16090,0,0,0,
2026-04-29 19:52:00,METAR KIOW 291952Z AUTO 10SM CLR 16/M03 A3005 RMK AO2 PK WND 32030/1859 SLP177 T01561028,0,,0,16090,0,0,0,
2026-04-29 18:52:00,METAR KIOW 291852Z AUTO 31017G25KT 10SM SCT070 15/M02 A3006 RMK AO2 PK WND 29029/1824 SLP180 T01501022,0,17.0,1,16090,0,0,0,
2026-04-29 17:52:00,METAR KIOW 291752Z AUTO 32016G25KT 10SM FEW065 14/M01 A3007 RMK AO2 PK WND 30028/1659 SLP183 T01441011 10144 20089 58003,0,16.0,1,16090,0,0,0,
2026-04-29 16:52:00,METAR KIOW 291652Z AUTO 31014G25KT 10SM FEW055 13/00 A3008 RMK AO2 PK WND 33027/1607 SLP185 T01330000,0,14.0,1,16090,0,0,0,
2026-04-29 15:52:00,METAR KIOW 291552Z AUTO 31012G26KT 10SM CLR 13/M01 A3008 RMK AO2 PK WND 31026/1545 SLP186 T01281011,0,12.0,1,16090,0,0,0,
2026-04-29 14:52:00,METAR KIOW 291452Z AUTO 31013G23KT 10SM FEW085 12/01 A3008 RMK AO2 SLP187 T01170006 51009,0,13.0,1,16090,0,0,0,
2026-04-29 13:52:00,METAR KIOW 291352Z AUTO 31012G20KT 10SM CLR 11/00 A3008 RMK AO2 SLP186 T01060000,0,12.0,1,16090,0,0,0,
2026-04-29 12:52:00,METAR KIOW 291252Z AUTO 35009KT 10SM BKN080 09/01 A3006 RMK AO2 SLP179 T00940006,0,9.0,0,16090,0,0,0,
2026-04-29 11:52:00,METAR KIOW 291152Z AUTO 33007KT 10SM CLR 09/02 A3005 RMK AO2 SLP177 T00890017 10117 20089 53008,0,7.0,0,16090,0,0,0,
2026-04-29 10:52:00,METAR KIOW 291052Z AUTO 34008G17KT 10SM FEW080 BKN095 09/02 A3004 RMK AO2 SLP174 T00940017,0,8.0,1,16090,0,0,0,
2026-04-29 09:52:00,METAR KIOW 290952Z AUTO 33013G19KT 10SM OVC085 10/02 A3003 RMK AO2 SLP170 T01000017,0,13.0,1,16090,0,0,0,
2026-04-29 08:52:00,METAR KIOW 290852Z AUTO 34010KT 10SM OVC085 10/02 A3003 RMK AO2 SLP168 T01000017 50005,0,10.0,0,16090,0,0,0,
2026-04-29 07:52:00,METAR KIOW 290752Z AUTO 32010KT 10SM BKN075 OVC090 10/03 A3003 RMK AO2 SLP169 T01000028,0,10.0,0,16090,0,0,0,
2026-04-29 06:52:00,METAR KIOW 290652Z AUTO 31007KT 10SM OVC090 11/03 A3002 RMK AO2 SLP167 T01060033,0,7.0,0,16090,0,0,0,
2026-04-29 05:52:00,METAR KIOW 290552Z AUTO 33009KT 10SM OVC085 12/03 A3001 RMK AO2 SLP164 60000 T01170033 10144 20117 401720089 53010,0,9.0,0,16090,0,0,0,
2026-04-29 04:52:00,METAR KIOW 290452Z AUTO 32010KT 10SM BKN075 OVC120 12/03 A2999 RMK AO2 SLP157 T01220033,0,10.0,0,16090,0,0,0,
2026-04-29 03:52:00,METAR KIOW 290352Z AUTO 31010KT 10SM SCT100 BKN110 13/02 A2997 RMK AO2 SLP150 T01280022,0,10.0,0,16090,0,0,0,
2026-04-29 02:52:00,METAR KIOW 290252Z AUTO 32009KT 10SM BKN080 OVC090 13/02 A2998 RMK AO2 SLP154 60000 T01330022 53000,0,9.0,0,16090,0,0,0,
2026-04-29 01:52:00,METAR KIOW 290152Z AUTO 31009G19KT 10SM FEW075 OVC100 14/03 A2998 RMK AO2 RAB12E21 SLP154 P0000 T01390028,0,9.0,1,16090,0,0,0,RA
2026-04-29 00:52:00,METAR KIOW 290052Z AUTO 30008KT 10SM OVC090 14/03 A2998 RMK AO2 SLP151 T01390033,0,8.0,0,16090,0,0,0,
2026-04-28 23:52:00,METAR KIOW 282352Z AUTO 29011KT 10SM OVC085 14/03 A2998 RMK AO2 SLP153 T01440028 10172 20144 53004,0,11.0,0,16090,0,0,0,
2026-04-28 22:52:00,METAR KIOW 282252Z AUTO 29008KT 10SM BKN090 BKN120 16/03 A2997 RMK AO2 SLP148 T01560028,0,8.0,0,16090,0,0,0,
2026-04-28 21:52:00,METAR KIOW 282152Z AUTO 26009KT 10SM CLR 16/03 A2996 RMK AO2 SLP144 T01610033,0,9.0,0,16090,0,0,0,
2026-04-28 20:52:00,METAR KIOW 282052Z AUTO 34004KT 10SM CLR 17/03 A2997 RMK AO2 SLP148 T01720033 56022,0,4.0,0,16090,0,0,0,
2026-04-28 19:52:00,METAR KIOW 281952Z AUTO 34007KT 300V010 10SM CLR 17/04 A2998 RMK AO2 SLP151 T01670039,0,7.0,0,16090,0,0,0,
2026-04-28 18:52:00,METAR KIOW 281852Z AUTO 28007KT 10SM CLR 15/04 A3001 RMK AO2 SLP162 T01500039,0,7.0,0,16090,0,0,0,
2026-04-28 17:52:00,METAR KIOW 281752Z AUTO 31007G15KT 10SM SCT040 15/05 A3004 RMK AO2 SLP172 T01500050 10156 20089 50015,0,7.0,1,16090,0,0,0,
2026-04-28 16:52:00,METAR KIOW 281652Z AUTO 32009G16KT 10SM FEW033 14/05 A3004 RMK AO2 SLP174 T01440050,0,9.0,1,16090,0,0,0,
2026-04-28 15:52:00,METAR KIOW 281552Z AUTO 29012KT 10SM FEW027 13/06 A3005 RMK AO2 SLP175 T01280056,0,12.0,0,16090,0,0,0,
2026-04-28 14:52:00,METAR KIOW 281452Z AUTO 32013KT 10SM CLR 11/05 A2999 RMK AO2 SLP156 T01110050 53012,0,13.0,0,16090,0,0,0,
2026-04-28 14:13:00,SPECI KIOW 281413Z AUTO 33014G25KT 10SM SCT022 10/04 A2997 RMK AO2 T01000044,0,14.0,1,16090,0,0,0,
2026-04-28 13:59:00,SPECI KIOW 281359Z AUTO 31014G22KT 10SM BKN023 11/04 A2998 RMK AO2 T01060044,0,14.0,1,16090,0,0,0,
2026-04-28 13:52:00,METAR KIOW 281352Z AUTO 30013G21KT 10SM SCT023 11/04 A2997 RMK AO2 SLP151 T01060044,0,13.0,1,16090,0,0,0,
2026-04-28 13:43:00,SPECI KIOW 281343Z AUTO 32013G20KT 10SM FEW022 10/04 A2997 RMK AO2 T01000039,0,13.0,1,16090,0,0,0,
2026-04-28 12:52:00,METAR KIOW 281252Z AUTO 31014KT 10SM OVC021 09/04 A2997 RMK AO2 SLP150 T00940044,0,14.0,0,16090,0,0,0,
2026-04-28 11:52:00,METAR KIOW 281152Z AUTO 31013G23KT 10SM OVC019 09/ A2996 RMK AO2 SLP143 70088 T0089 10117 20089 53029 $,0,13.0,1,16090,0,0,0,
2026-04-28 10:52:00,METAR KIOW 281052Z AUTO 29016G26KT 10SM OVC019 09/ A2991 RMK AO2 PK WND 28026/1048 SLP127 T0094 $,0,16.0,1,16090,0,0,0,
2026-04-28 09:52:00,METAR KIOW 280952Z AUTO 30013KT 10SM OVC019 09/ A2989 RMK AO2 PK WND 30028/0902 SLP121 T0094 $,0,13.0,0,16090,0,0,0,
2026-04-28 08:52:00,METAR KIOW 280852Z AUTO 30015G22KT 10SM OVC018 10/ A2987 RMK AO2 PK WND 30026/0834 SLP113 T0100 53019 $,0,15.0,1,16090,0,0,0,
2026-04-28 07:52:00,METAR KIOW 280752Z AUTO 31017G33KT 10SM OVC021 10/ A2985 RMK AO2 PK WND 30033/0747 SLP106 T0100 $,0,17.0,1,16090,0,0,0,
2026-04-28 06:52:00,METAR KIOW 280652Z AUTO 31019G28KT 10SM BKN022 OVC027 11/ A2983 RMK AO2 PK WND 29028/0651 SLP100 T0106 $,0,19.0,1,16090,0,0,0,
2026-04-28 05:52:00,METAR KIOW 280552Z AUTO 27016G23KT 10SM OVC025 12/ A2981 RMK AO2 PK WND 28029/0517 SLP094 T0117 10183 20117 402390117 51024 $,0,16.0,1,16090,0,0,0,
2026-04-28 04:52:00,METAR KIOW 280452Z AUTO 28020G33KT 10SM OVC023 12/ A2979 RMK AO2 PK WND 28033/0448 SLP085 T0122 $,0,20.0,1,16090,0,0,0,
2026-04-28 03:52:00,METAR KIOW 280352Z AUTO 27019G27KT 10SM OVC022 13/ A2977 RMK AO2 PK WND 30030/0300 SLP079 T0128 $,0,19.0,1,16090,0,0,0,
2026-04-28 02:52:00,METAR KIOW 280252Z AUTO 29016G27KT 10SM OVC023 14/ A2974 RMK AO2 PK WND 28030/0229 SLP070 T0139 53048 $,0,16.0,1,16090,0,0,0,
2026-04-28 01:52:00,METAR KIOW 280152Z AUTO 28017G28KT 10SM OVC019 15/ A2968 RMK AO2 PK WND 29041/0114 PRESRR SLP050 T0150 $,0,17.0,1,16090,0,0,0,
2026-04-28 00:52:00,METAR KIOW 280052Z AUTO 30014G32KT 10SM OVC019 16/ A2963 RMK AO2 PK WND 29034/0027 SLP031 T0161 $,0,14.0,1,16090,0,0,0,
2026-04-28 00:23:00,SPECI KIOW 280023Z AUTO 30018G31KT 10SM BKN022 BKN035 OVC110 17/13 A2961 RMK AO2 PK WND 29031/0022 T01720128,0,18.0,1,16090,0,0,0,
2026-04-28 00:09:00,SPECI KIOW 280009Z AUTO 28017G31KT 10SM FEW020 BKN035 OVC110 18/13 A2961 RMK AO2 PK WND 28031/0005 T01780128,0,17.0,1,16090,0,0,0,
2026-04-27 23:52:00,METAR KIOW 272352Z AUTO 29018G31KT 10SM BKN026 BKN035 18/14 A2960 RMK AO2 PK WND 30032/2325 SLP019 T01830139 10239 20183 53018,0,18.0,1,16090,0,0,0,
2026-04-27 22:52:00,METAR KIOW 272252Z AUTO 25015G28KT 10SM CLR 23/14 A2955 RMK AO2 PK WND 25028/2248 LTG DSNT N AND NW SLP005 T02330139,0,15.0,1,16090,0,0,0,DS
2026-04-27 21:52:00,METAR KIOW 272152Z AUTO 25015G21KT 10SM OVC075 23/15 A2955 RMK AO2 SLP003 T02330150,0,15.0,1,16090,0,0,0,
2026-04-27 20:52:00,METAR KIOW 272052Z AUTO 26013KT 10SM SCT035 BKN048 OVC060 23/16 A2954 RMK AO2 SLP000 T02280156 53001,0,13.0,0,16090,0,0,0,
2026-04-27 19:52:00,METAR KIOW 271952Z AUTO 25011KT 10SM FEW026 23/17 A2953 RMK AO2 SLP995 T02330167,0,11.0,0,16090,0,0,0,
2026-04-27 19:23:00,SPECI KIOW 271923Z AUTO 26009KT 10SM SCT023 SCT033 BKN046 22/17 A2954 RMK AO2 T02170167,0,9.0,0,16090,0,0,0,
2026-04-27 19:13:00,SPECI KIOW 271913Z AUTO 27010KT 10SM BKN025 BKN033 OVC044 21/16 A2955 RMK AO2 T02060161,0,10.0,0,16090,0,0,0,
2026-04-27 18:52:00,METAR KIOW 271852Z AUTO 24013G18KT 10SM FEW025 SCT031 OVC042 22/16 A2954 RMK AO2 SLP000 T02170161,0,13.0,1,16090,0,0,0,
2026-04-27 18:32:00,SPECI KIOW 271832Z AUTO 21012G18KT 10SM SCT025 OVC035 21/16 A2954 RMK AO2 T02110156,0,12.0,1,16090,0,0,0,
2026-04-27 18:22:00,SPECI KIOW 271822Z AUTO 23010KT 10SM BKN027 OVC034 21/15 A2954 RMK AO2 T02060150,0,10.0,0,16090,0,0,0,
2026-04-27 17:52:00,METAR KIOW 271752Z AUTO 21010KT 10SM CLR 21/16 A2954 RMK AO2 SLP999 60088 T02110156 10211 20150 53024,0,10.0,0,16090,0,0,0,
2026-04-27 17:01:00,SPECI KIOW 271701Z AUTO 15014G22KT 10SM FEW012 SCT018 19/16 A2952 RMK AO2 T01890156,0,14.0,1,16090,0,0,0,
2026-04-27 16:52:00,METAR KIOW 271652Z AUTO 16013G24KT 10SM BKN012 19/16 A2951 RMK AO2 PK WND 12026/1555 SLP988 T01890161,0,13.0,1,16090,0,0,0,
2026-04-27 16:27:00,SPECI KIOW 271627Z AUTO 12013G25KT 10SM BKN012 18/15 A2949 RMK AO2 PK WND 12026/1555 T01780150,0,13.0,1,16090,0,0,0,
2026-04-27 15:52:00,METAR KIOW 271552Z AUTO 12019G31KT 10SM CLR 18/15 A2947 RMK AO2 PK WND 10038/1457 RAE04 SLP976 P0000 T01780150,0,19.0,1,16090,0,0,0,
2026-04-27 14:52:00,METAR KIOW 271452Z AUTO 10021G35KT 5SM -RA BR BKN095 OVC120 16/14 A2947 RMK AO2 PK WND 10035/1450 LTG DSNT SE TSB14E28 PRESFR SLP975 P0021 60088 T01560144 58062,0,21.0,1,8045,1,0,1,"-RA,BR,DS,TS"
2026-04-27 14:28:00,SPECI KIOW 271428Z AUTO 12012KT 3SM RA BR FEW060 BKN070 OVC095 15/14 A2964 RMK AO2 LTG DSNT ALQDS TSB14E28 PRESFR P0016 T01500144,0,12.0,0,4827,1,0,1,"BR,DS,RA,TS"
2026-04-27 14:20:00,SPECI KIOW 271420Z AUTO 12011KT 2SM TSRA BR FEW024 BKN070 OVC090 15/15 A2966 RMK AO2 LTG DSNT ALQDS TSB14 PRESFR P0014 T01500150,0,11.0,0,3218,1,0,1,"BR,DS,RA,TS"
2026-04-27 14:11:00,SPECI KIOW 271411Z AUTO 13011KT 2SM RA BR FEW025 BKN050 OVC085 15/14 A2968 RMK AO2 LTG DSNT NE AND E P0009 T01500144,0,11.0,0,3218,0,0,1,"BR,DS,RA"
2026-04-27 13:52:00,METAR KIOW 271352Z AUTO 20004KT 1 1/4SM VCTS +RA BR SCT027 OVC038 16/15 A2972 RMK AO2 LTG DSNT ALQDS TSE08B10E51 SLP062 P0052 T01560150,0,4.0,0,2011,1,1,1,"+RA,BR,DS,TS,VC"
2026-04-27 13:38:00,SPECI KIOW 271338Z AUTO 17003KT 1 1/4SM +TSRA BR SCT027 BKN036 OVC055 15/15 A2972 RMK AO2 LTG DSNT ALQDS TSE08B10 P0042 T01500150,0,3.0,0,2011,1,0,1,"BR,DS,RA,TS"
2026-04-27 13:16:00,SPECI KIOW 271316Z AUTO 00000KT 1 1/2SM +TSRA BR FEW021 OVC028 16/14 A2969 RMK AO2 LTG DSNT ALQDS TSE08B10 P0024 T01560144,0,0.0,0,2414,1,0,1,"BR,DS,RA,TS"
2026-04-27 13:08:00,SPECI KIOW 271308Z AUTO 12004KT 1SM VCTS +RA BR SCT021 OVC028 16/14 A2969 RMK AO2 LTG DSNT ALQDS TSE08 P0018 T01560144,0,4.0,0,1609,1,1,1,"+RA,BR,DS,TS,VC"
2026-04-27 13:01:00,SPECI KIOW 271301Z AUTO 14005KT 1 3/4SM +TSRA BR BKN021 OVC026 16/14 A2969 RMK AO2 VIS 1V3 LTG DSNT ALQDS P0008 T01560144,0,5.0,0,2816,1,0,1,"BR,DS,RA"
2026-04-27 12:52:00,METAR KIOW 271252Z AUTO 11004KT 4SM TSRA BR BKN023 OVC031 16/14 A2968 RMK AO2 LTG DSNT ALQDS RAB09 TSB31 SLP047 P0015 T01560144,0,4.0,0,6436,1,0,1,"BR,DS,RA,TS"
2026-04-27 12:45:00,SPECI KIOW 271245Z AUTO 14003KT 2SM TSRA BR BKN023 OVC028 16/14 A2968 RMK AO2 LTG DSNT SE-W RAB09 TSB31 P0013 T01560144,0,3.0,0,3218,1,0,1,"BR,DS,RA,TS"
2026-04-27 12:37:00,SPECI KIOW 271237Z AUTO 12005KT 3SM +TSRA BR OVC023 16/14 A2968 RMK AO2 LTG DSNT SE-W RAB09 TSB31 P0009 T01610139,0,5.0,0,4827,1,0,1,"BR,DS,RA"
2026-04-27 12:22:00,SPECI KIOW 271222Z AUTO 14006KT 8SM -RA BKN024 OVC060 17/14 A2967 RMK AO2 LTG DSNT S-W RAB09 P0002 T01670139,0,6.0,0,12872,0,0,0,"-RA,DS"
2026-04-27 11:52:00,METAR KIOW 271152Z AUTO 12009KT 10SM FEW055 BKN100 OVC120 17/13 A2965 RMK AO2 LTG DSNT SW SLP037 70003 T01670128 10172 20144 58023,0,9.0,0,16090,0,0,0,DS
2026-04-27 10:52:00,METAR KIOW 271052Z AUTO 12007KT 10SM BKN100 16/12 A2968 RMK AO2 SLP049 T01560117,0,7.0,0,16090,0,0,0,
2026-04-27 09:52:00,METAR KIOW 270952Z AUTO 10005KT 10SM CLR 14/11 A2971 RMK AO2 SLP057 T01440111,0,5.0,0,16090,0,0,0,
2026-04-27 08:52:00,METAR KIOW 270852Z AUTO 11006KT 10SM CLR 14/11 A2972 RMK AO2 SLP061 T01440106 56027,0,6.0,0,16090,0,0,0,
2026-04-27 07:52:00,METAR KIOW 270752Z AUTO 09009G18KT 10SM CLR 16/11 A2972 RMK AO2 SLP061 T01610106,0,9.0,1,16090,0,0,0,
2026-04-27 06:52:00,METAR KIOW 270652Z AUTO 11010G16KT 10SM BKN120 17/12 A2978 RMK AO2 SLP080 T01670122,0,10.0,1,16090,0,0,0,
2026-04-27 05:52:00,METAR KIOW 270552Z AUTO 11007G15KT 10SM OVC050 17/13 A2980 RMK AO2 RAE0458 SLP089 P0000 60003 T01720128 10228 20167 402500094 58011,0,7.0,1,16090,0,0,0,RA
2026-04-27 04:52:00,METAR KIOW 270452Z AUTO 08009KT 10SM -RA SCT065 BKN085 OVC100 17/12 A2982 RMK AO2 SLP094 P0003 T01720122,0,9.0,0,16090,0,0,0,-RA
2026-04-27 03:52:00,METAR KIOW 270352Z AUTO 12005KT 10SM -RA BKN070 OVC085 19/11 A2983 RMK AO2 RAB40 SLP099 P0000 T01890106,0,5.0,0,16090,0,0,0,-RA
2026-04-27 02:52:00,METAR KIOW 270252Z AUTO 10010G16KT 10SM FEW075 BKN100 20/09 A2983 RMK AO2 SLP100 T02000094 53000,0,10.0,1,16090,0,0,0,
2026-04-27 01:52:00,METAR KIOW 270152Z AUTO 09010KT 10SM CLR 21/10 A2983 RMK AO2 SLP098 T02060100,0,10.0,0,16090,0,0,0,
2026-04-27 00:52:00,METAR KIOW 270052Z AUTO 10008G14KT 10SM BKN110 22/09 A2984 RMK AO2 SLP102 T02220089,0,8.0,1,16090,0,0,0,
2026-04-26 23:52:00,METAR KIOW 262352Z AUTO 11009KT 10SM CLR 23/09 A2983 RMK AO2 SLP100 T02280089 10250 20217 56014,0,9.0,0,16090,0,0,0,
2026-04-26 22:52:00,METAR KIOW 262252Z AUTO 11013G20KT 10SM CLR 23/09 A2983 RMK AO2 SLP101 T02330089,0,13.0,1,16090,0,0,0,
2026-04-26 21:52:00,METAR KIOW 262152Z AUTO 12009KT 10SM FEW070 24/09 A2986 RMK AO2 SLP108 T02390094,0,9.0,0,16090,0,0,0,
2026-04-26 20:52:00,METAR KIOW 262052Z AUTO 14012KT 10SM SCT065 24/09 A2987 RMK AO2 SLP114 T02390094 56027,0,12.0,0,16090,0,0,0,
2026-04-26 19:52:00,METAR KIOW 261952Z AUTO 10009G17KT 10SM CLR 24/11 A2989 RMK AO2 SLP119 T02390106,0,9.0,1,16090,0,0,0,
2026-04-26 18:52:00,METAR KIOW 261852Z AUTO 12009KT 10SM CLR 23/12 A2992 RMK AO2 SLP131 T02330117,0,9.0,0,16090,0,0,0,
2026-04-26 17:52:00,METAR KIOW 261752Z AUTO 09008G17KT 10SM CLR 22/12 A2996 RMK AO2 SLP142 T02170117 10217 20100 58016,0,8.0,1,16090,0,0,0,
2026-04-26 16:52:00,METAR KIOW 261652Z AUTO 10009KT 10SM CLR 20/12 A2997 RMK AO2 SLP148 T02000117,0,9.0,0,16090,0,0,0,
2026-04-26 15:52:00,METAR KIOW 261552Z AUTO 10008KT 10SM CLR 17/11 A2999 RMK AO2 SLP155 T01720106,0,8.0,0,16090,0,0,0,
2026-04-26 14:52:00,METAR KIOW 261452Z AUTO 13009KT 10SM CLR 16/10 A3000 RMK AO2 SLP159 T01560100 58001,0,9.0,0,16090,0,0,0,
2026-04-26 13:52:00,METAR KIOW 261352Z AUTO 10011KT 10SM CLR 13/08 A3000 RMK AO2 SLP158 T01280083,0,11.0,0,16090,0,0,0,
2026-04-26 12:52:00,METAR KIOW 261252Z AUTO 09008G16KT 10SM CLR 11/07 A3001 RMK AO2 SLP163 T01060067,0,8.0,1,16090,0,0,0,
2026-04-26 11:52:00,METAR KIOW 261152Z AUTO 08008KT 10SM CLR 10/06 A3001 RMK AO2 SLP160 T01000061 10117 20094 53007,0,8.0,0,16090,0,0,0,
2026-04-26 10:52:00,METAR KIOW 261052Z AUTO 08006KT 10SM CLR 09/06 A3000 RMK AO2 SLP158 T00940061,0,6.0,0,16090,0,0,0,
2026-04-26 09:52:00,METAR KIOW 260952Z AUTO 08006KT 10SM CLR 11/07 A2999 RMK AO2 SLP154 T01060067,0,6.0,0,16090,0,0,0,
2026-04-26 08:52:00,METAR KIOW 260852Z AUTO 09008KT 10SM CLR 11/07 A2999 RMK AO2 SLP153 T01110067 51006,0,8.0,0,16090,0,0,0,
2026-04-26 07:52:00,METAR KIOW 260752Z AUTO 08006KT 10SM CLR 12/07 A2998 RMK AO2 SLP152 T01170067,0,6.0,0,16090,0,0,0,
2026-04-26 06:52:00,METAR KIOW 260652Z AUTO 09003KT 10SM CLR 11/07 A2998 RMK AO2 SLP150 T01110067,0,3.0,0,16090,0,0,0,
2026-04-26 05:52:00,METAR KIOW 260552Z AUTO 13005KT 10SM CLR 12/07 A2997 RMK AO2 SLP146 T01220067 10206 20117 402220061 53008,0,5.0,0,16090,0,0,0,
2026-04-26 04:52:00,METAR KIOW 260452Z AUTO 09010KT 10SM CLR 15/06 A2995 RMK AO2 SLP141 T01500061,0,10.0,0,16090,0,0,0,
2026-04-26 03:52:00,METAR KIOW 260352Z AUTO 09009KT 10SM CLR 16/07 A2995 RMK AO2 SLP139 T01610067,0,9.0,0,16090,0,0,0,
2026-04-26 02:52:00,METAR KIOW 260252Z AUTO 08006KT 10SM CLR 17/08 A2994 RMK AO2 SLP138 T01720078 50000,0,6.0,0,16090,0,0,0,
2026-04-26 01:52:00,METAR KIOW 260152Z AUTO 08004KT 10SM CLR 18/08 A2995 RMK AO2 SLP141 T01780078,0,4.0,0,16090,0,0,0,
2026-04-26 00:52:00,METAR KIOW 260052Z AUTO 10006KT 10SM CLR 19/08 A2993 RMK AO2 SLP135 T01890078,0,6.0,0,16090,0,0,0,
2026-04-25 23:52:00,METAR KIOW 252352Z AUTO 10005KT 10SM CLR 21/08 A2994 RMK AO2 SLP138 T02060078 10222 20206 53006,0,5.0,0,16090,0,0,0,
2026-04-25 22:52:00,METAR KIOW 252252Z AUTO 10008KT 10SM CLR 21/08 A2993 RMK AO2 SLP135 T02060083,0,8.0,0,16090,0,0,0,
2026-04-25 21:52:00,METAR KIOW 252152Z AUTO 12009KT 10SM CLR 21/09 A2992 RMK AO2 SLP129 T02110089,0,9.0,0,16090,0,0,0,
2026-04-25 20:52:00,METAR KIOW 252052Z AUTO 10008G17KT 10SM CLR 22/08 A2992 RMK AO2 SLP133 T02170083 56009,0,8.0,1,16090,0,0,0,
2026-04-25 19:52:00,METAR KIOW 251952Z AUTO 08008KT 10SM CLR 22/08 A2993 RMK AO2 SLP135 T02220083,0,8.0,0,16090,0,0,0,
2026-04-25 18:52:00,METAR KIOW 251852Z AUTO 08008KT 050V110 10SM CLR 22/09 A2994 RMK AO2 SLP137 T02220089,0,8.0,0,16090,0,0,0,
2026-04-25 17:52:00,METAR KIOW 251752Z AUTO VRB06KT 10SM CLR 21/09 A2995 RMK AO2 SLP142 T02060089 10206 20094 56008,0,6.0,0,16090,0,0,0,
2026-04-25 16:52:00,METAR KIOW 251652Z AUTO 10SM CLR 19/09 A2996 RMK AO2 SLP146 T01940089,0,,0,16090,0,0,0,
2026-04-25 15:52:00,METAR KIOW 251552Z AUTO 06011KT 10SM CLR 18/08 A2996 RMK AO2 SLP145 T01830083,0,11.0,0,16090,0,0,0,
2026-04-25 14:52:00,METAR KIOW 251452Z AUTO 09009KT 10SM CLR 17/08 A2998 RMK AO2 SLP151 T01670083 53011,0,9.0,0,16090,0,0,0,
2026-04-25 13:52:00,METAR KIOW 251352Z AUTO 10008KT 10SM CLR 14/08 A2997 RMK AO2 SLP147 T01440083,0,8.0,0,16090,0,0,0,
2026-04-25 12:52:00,METAR KIOW 251252Z AUTO 07004KT 10SM CLR 13/07 A2995 RMK AO2 SLP142 T01280072,0,4.0,0,16090,0,0,0,
2026-04-25 11:52:00,METAR KIOW 251152Z AUTO 05007KT 10SM CLR 09/05 A2994 RMK AO2 SLP140 T00940050 10100 20061 53003,0,7.0,0,16090,0,0,0,
2026-04-25 10:52:00,METAR KIOW 251052Z AUTO 02005KT 10SM CLR 09/06 A2993 RMK AO2 SLP136 T00890056,0,5.0,0,16090,0,0,0,
2026-04-25 09:52:00,METAR KIOW 250952Z AUTO 04004KT 10SM CLR 09/06 A2994 RMK AO2 SLP138 T00940061,0,4.0,0,16090,0,0,0,
2026-04-25 08:52:00,METAR KIOW 250852Z AUTO 00000KT 10SM CLR 07/05 A2993 RMK AO2 SLP137 T00670050 53012,0,0.0,0,16090,0,0,0,
2026-04-25 07:52:00,METAR KIOW 250752Z AUTO 00000KT 10SM CLR 08/06 A2991 RMK AO2 SLP130 T00780056,0,0.0,0,16090,0,0,0,
2026-04-25 06:52:00,METAR KIOW 250652Z AUTO 00000KT 10SM CLR 08/06 A2991 RMK AO2 SLP128 T00830061,0,0.0,0,16090,0,0,0,
2026-04-25 05:52:00,METAR KIOW 250552Z AUTO 28003KT 10SM CLR 08/06 A2990 RMK AO2 SLP125 T00780056 10183 20078 401940078 51002,0,3.0,0,16090,0,0,0,
2026-04-25 04:52:00,METAR KIOW 250452Z AUTO 00000KT 10SM CLR 08/06 A2989 RMK AO2 SLP124 T00830061,0,0.0,0,16090,0,0,0,
2026-04-25 03:52:00,METAR KIOW 250352Z AUTO 00000KT 10SM CLR 10/07 A2990 RMK AO2 SLP127 T01000067,0,0.0,0,16090,0,0,0,
2026-04-25 02:52:00,METAR KIOW 250252Z AUTO 15003KT 10SM CLR 12/07 A2989 RMK AO2 SLP123 T01220067 53021,0,3.0,0,16090,0,0,0,
2026-04-25 01:52:00,METAR KIOW 250152Z AUTO 30003KT 10SM CLR 13/07 A2987 RMK AO2 SLP115 T01330067,0,3.0,0,16090,0,0,0,
2026-04-25 00:52:00,METAR KIOW 250052Z AUTO 31006KT 10SM CLR 17/06 A2984 RMK AO2 SLP105 T01670061,0,6.0,0,16090,0,0,0,
2026-04-24 23:52:00,METAR KIOW 242352Z AUTO 32012KT 10SM CLR 18/06 A2983 RMK AO2 SLP100 T01830061 10194 20167 53001,0,12.0,0,16090,0,0,0,
2026-04-24 22:52:00,METAR KIOW 242252Z AUTO 33011G20KT 10SM CLR 19/06 A2983 RMK AO2 SLP098 T01940056,0,11.0,1,16090,0,0,0,
2026-04-24 21:52:00,METAR KIOW 242152Z AUTO 31011G23KT 10SM CLR 19/07 A2983 RMK AO2 SLP100 T01890072,0,11.0,1,16090,0,0,0,
2026-04-24 20:52:00,METAR KIOW 242052Z AUTO 31012G22KT 10SM CLR 19/07 A2983 RMK AO2 SLP099 T01890067 50002,0,12.0,1,16090,0,0,0,
2026-04-24 19:52:00,METAR KIOW 241952Z AUTO 32013G22KT 10SM CLR 18/08 A2984 RMK AO2 SLP102 T01830078,0,13.0,1,16090,0,0,0,
2026-04-24 18:52:00,METAR KIOW 241852Z AUTO 30011KT 10SM CLR 18/08 A2983 RMK AO2 SLP100 T01780083,0,11.0,0,16090,0,0,0,
2026-04-24 17:52:00,METAR KIOW 241752Z AUTO 30010KT 10SM CLR 17/08 A2982 RMK AO2 SLP097 T01670083 10167 20111 51012 $,0,10.0,0,16090,0,0,0,
2026-04-24 16:52:00,METAR KIOW 241652Z AUTO 33011KT 10SM CLR 16/08 A2981 RMK AO2 SLP094 T01560083 $,0,11.0,0,16090,0,0,0,
2026-04-24 15:52:00,METAR KIOW 241552Z AUTO 33011G17KT 10SM CLR 14/07 A2980 RMK AO2 SLP090 T01390067,0,11.0,1,16090,0,0,0,
2026-04-24 14:52:00,METAR KIOW 241452Z AUTO 31009KT 10SM CLR 13/07 A2979 RMK AO2 SLP084 T01330067 53025,0,9.0,0,16090,0,0,0,
2026-04-24 13:52:00,METAR KIOW 241352Z AUTO 32011G16KT 10SM CLR 12/06 A2976 RMK AO2 SLP074 T01170061,0,11.0,1,16090,0,0,0,
2026-04-24 13:07:00,SPECI KIOW 241307Z AUTO 31011KT 10SM SCT019 11/06 A2974 RMK AO2 T01110061,0,11.0,0,16090,0,0,0,
2026-04-24 12:52:00,METAR KIOW 241252Z AUTO 32013G20KT 10SM BKN019 11/07 A2974 RMK AO2 SLP067 T01110067,0,13.0,1,16090,0,0,0,
2026-04-24 12:05:00,SPECI KIOW 241205Z AUTO 31013G22KT 10SM OVC016 12/08 A2972 RMK AO2 T01220078,0,13.0,1,16090,0,0,0,
2026-04-24 11:52:00,METAR KIOW 241152Z AUTO 30011KT 10SM FEW010 BKN014 OVC020 12/09 A2971 RMK AO2 WSHFT 1134 SLP058 60007 70043 T01220089 10161 20122 53013 $,0,11.0,0,16090,0,0,0,
2026-04-24 11:47:00,SPECI KIOW 241147Z AUTO 30012G22KT 10SM FEW010 BKN014 OVC022 13/09 A2971 RMK AO2 $,0,12.0,1,16090,0,0,0,
2026-04-24 11:38:00,SPECI KIOW 241138Z AUTO 30013G21KT 10SM SCT008 SCT014 OVC022 14/ A2970 RMK AO2 T0144 $,0,13.0,1,16090,0,0,0,
2026-04-24 10:52:00,METAR KIOW 241052Z AUTO 25006KT 10SM OVC024 15/ A2967 RMK AO2 SLP043 T0150 $,0,6.0,0,16090,0,0,0,
2026-04-24 10:39:00,SPECI KIOW 241039Z AUTO 25006KT 10SM BKN025 14/ A2967 RMK AO2 T0144 $,0,6.0,0,16090,0,0,0,
2026-04-24 10:13:00,SPECI KIOW 241013Z AUTO 24007KT 10SM FEW009 FEW027 15/ A2967 RMK AO2 T0150 $,0,7.0,0,16090,0,0,0,
2026-04-24 10:04:00,SPECI KIOW 241004Z AUTO 25006KT 10SM FEW009 BKN027 15/ A2967 RMK AO2 T0150 $,0,6.0,0,16090,0,0,0,
2026-04-24 09:52:00,METAR KIOW 240952Z AUTO 24007KT 10SM FEW011 BKN027 15/ A2967 RMK AO2 SLP044 T0150 $,0,7.0,0,16090,0,0,0,
2026-04-24 09:29:00,SPECI KIOW 240929Z AUTO 23006KT 10SM FEW009 BKN029 BKN035 15/ A2968 RMK AO2 T0150 $,0,6.0,0,16090,0,0,0,
2026-04-24 08:57:00,SPECI KIOW 240857Z AUTO 00000KT 10SM SCT011 BKN042 15/ A2966 RMK AO2 T0150 $,0,0.0,0,16090,0,0,0,
2026-04-24 08:52:00,METAR KIOW 240852Z AUTO 25005KT 10SM BKN011 BKN016 BKN042 15/ A2967 RMK AO2 CIG 007V012 SLP043 60007 T0150 51003 $,0,5.0,0,16090,0,0,0,
2026-04-24 08:14:00,SPECI KIOW 240814Z AUTO 25004KT 10SM BKN007 BKN080 OVC100 16/ A2967 RMK AO2 T0156 $,0,4.0,0,16090,0,0,0,
2026-04-24 08:00:00,SPECI KIOW 240800Z AUTO 27005KT 10SM FEW005 SCT065 OVC090 16/ A2967 RMK AO2 T0156 $,0,5.0,0,16090,0,0,0,
2026-04-24 07:52:00,METAR KIOW 240752Z AUTO 26006KT 10SM FEW065 BKN090 OVC100 16/ A2967 RMK AO2 RAE42 PRESRR SLP043 P0004 T0156 $,0,6.0,0,16090,0,0,0,
2026-04-24 06:52:00,METAR KIOW 240652Z AUTO 20009KT 9SM -RA OVC095 16/ A2970 RMK AO2 SLP055 P0003 T0156 $,0,9.0,0,14481,0,0,0,-RA
2026-04-24 05:52:00,METAR KIOW 240552Z AUTO 13004KT 10SM -RA BKN090 OVC100 16/ A2966 RMK AO2 RAE08B38 SLP040 P0001 60036 T0161 10267 20161 402830133 50025 $,0,4.0,0,16090,0,0,0,"-RA,RA"
2026-04-24 04:52:00,METAR KIOW 240452Z AUTO 33009KT 9SM -RA FEW060 OVC075 16/14 A2967 RMK AO2 PK WND 27043/0411 LTG DSNT N-E RAB10 TSB13E34 SLP042 P0022 T01610144,0,9.0,0,14481,1,0,0,"-RA,DS,TS"
2026-04-24 04:38:00,SPECI KIOW 240438Z AUTO 31010G20KT 7SM RA SCT034 SCT060 OVC080 16/14 A2967 RMK AO2 PK WND 27043/0411 LTG DSNT N-SE RAB10 TSB13E34 P0022 T01610139,0,10.0,1,11263,1,0,0,"DS,RA,TS"
2026-04-24 04:25:00,SPECI KIOW 240425Z AUTO 32019G29KT 3SM TSRA BR FEW025 BKN042 OVC095 16/14 A2967 RMK AO2 PK WND 27043/0411 LTG DSNT SW-N RAB10 TSB13 P0019 T01610139,0,19.0,1,4827,1,0,1,"BR,DS,RA,TS"
2026-04-24 04:16:00,SPECI KIOW 240416Z AUTO 30020G43KT 1 3/4SM +TSRA BR SCT022 BKN044 OVC095 16/14 A2969 RMK AO2 PK WND 27043/0411 LTG DSNT SW-N RAB10 TSB13 P0016 T01610139,0,20.0,1,2816,1,0,1,"BR,DS,RA"
2026-04-24 04:13:00,SPECI KIOW 240413Z AUTO 29026G43KT 3SM -TSRA FEW016 BKN065 OVC095 17/13 A2969 RMK AO2 PK WND 27043/0411 LTG DSNT SW-N RAB10 TSB13 PRESRR P0009 T01720133,0,26.0,1,4827,1,0,0,"DS,RA"
2026-04-24 03:52:00,METAR KIOW 240352Z AUTO 20008KT 10SM FEW065 OVC095 21/17 A2960 RMK AO2 LTG DSNT ALQDS RAE0256 SLP019 P0000 T02060167,0,8.0,0,16090,0,0,0,"DS,RA"
2026-04-24 03:09:00,SPECI KIOW 240309Z AUTO 19007KT 10SM FEW050 BKN075 OVC110 21/16 A2959 RMK AO2 LTG DSNT NE AND E RAE0256 P0000 T02060161,0,7.0,0,16090,0,0,0,"DS,RA"
2026-04-24 02:52:00,METAR KIOW 240252Z AUTO 21011G19KT 10SM VCTS -RA FEW048 SCT070 BKN100 20/15 A2959 RMK AO2 PK WND 20046/0223 LTG DSNT ALQDS RAB0153 TSB0155E46 SLP015 P0013 60013 T02000150 53009,0,11.0,1,16090,1,0,0,"-RA,DS,RA,TS,VC"
2026-04-24 01:55:00,SPECI KIOW 240155Z AUTO 20010KT 10SM -TSRA BKN055 OVC070 24/16 A2957 RMK AO2 LTG DSNT ALQDS RAB53 TSB55 P0000 T02390161,0,10.0,0,16090,1,0,0,"DS,RA"
2026-04-24 01:52:00,METAR KIOW 240152Z AUTO 18012G20KT 10SM BKN055 OVC070 24/16 A2957 RMK AO2 LTG DSNT SW-N RAB30E39 SLP007 P0000 T02390161,0,12.0,1,16090,0,0,0,"DS,RA"
2026-04-24 01:35:00,SPECI KIOW 240135Z AUTO 19011KT 10SM VCTS -RA BKN055 BKN070 OVC100 26/15 A2956 RMK AO2 LTG DSNT ALQDS RAB30 P0000 T02560150,0,11.0,0,16090,1,0,0,"-RA,DS,TS,VC"
2026-04-24 00:52:00,METAR KIOW 240052Z AUTO 18010KT 10SM FEW065 OVC100 26/14 A2955 RMK AO2 LTG DSNT W-N SLP001 T02610144,0,10.0,0,16090,0,0,0,DS
2026-04-24 00:31:00,SPECI KIOW 240031Z AUTO 17010KT 10SM VCTS FEW070 OVC100 26/14 A2955 RMK AO2 LTG DSNT W-N T02610144,0,10.0,0,16090,1,0,0,"DS,TS,VC"
2026-04-23 23:52:00,METAR KIOW 232352Z AUTO 18013KT 10SM FEW065 BKN095 27/14 A2956 RMK AO2 LTG DSNT W AND NW SLP005 T02670144 10283 20261 58024,0,13.0,0,16090,0,0,0,DS
2026-04-23 22:52:00,METAR KIOW 232252Z AUTO 18012G23KT 10SM SCT060 SCT070 OVC090 27/16 A2959 RMK AO2 SLP015 T02720156,0,12.0,1,16090,0,0,0,
2026-04-23 21:52:00,METAR KIOW 232152Z AUTO 18016G26KT 10SM OVC060 27/16 A2961 RMK AO2 PK WND 19030/2055 SLP022 T02670156,0,16.0,1,16090,0,0,0,
2026-04-23 20:52:00,METAR KIOW 232052Z AUTO 18018G27KT 10SM BKN055 27/15 A2963 RMK AO2 PK WND 17030/2040 SLP029 T02670150 56029,0,18.0,1,16090,0,0,0,
2026-04-23 19:52:00,METAR KIOW 231952Z AUTO 17016G25KT 10SM BKN050 OVC060 26/15 A2966 RMK AO2 PK WND 18031/1911 SLP039 T02610150,0,16.0,1,16090,0,0,0,
2026-04-23 18:52:00,METAR KIOW 231852Z AUTO 15021G30KT 10SM SCT048 SCT060 27/15 A2968 RMK AO2 PK WND 18032/1759 SLP047 T02720150,0,21.0,1,16090,0,0,0,
2026-04-23 17:52:00,METAR KIOW 231752Z AUTO 18018G27KT 10SM FEW100 27/16 A2972 RMK AO2 PK WND 18030/1740 SLP059 T02670156 10267 20150 58022,0,18.0,1,16090,0,0,0,
2026-04-23 16:52:00,METAR KIOW 231652Z AUTO 18017G23KT 10SM SCT065 26/15 A2975 RMK AO2 SLP072 T02560150,0,17.0,1,16090,0,0,0,
2026-04-23 15:52:00,METAR KIOW 231552Z AUTO 17014G21KT 10SM BKN065 24/15 A2978 RMK AO2 SLP080 T02440150,0,14.0,1,16090,0,0,0,
2026-04-23 14:52:00,METAR KIOW 231452Z AUTO 18010KT 10SM CLR 22/15 A2978 RMK AO2 SLP082 T02220150 56015,0,10.0,0,16090,0,0,0,
2026-04-23 13:52:00,METAR KIOW 231352Z AUTO 18013KT 10SM CLR 21/14 A2980 RMK AO2 SLP088 T02060144,0,13.0,0,16090,0,0,0,
2026-04-23 12:52:00,METAR KIOW 231252Z AUTO 13010G17KT 10SM CLR 17/14 A2981 RMK AO2 SLP090 T01720144,0,10.0,1,16090,0,0,0,
2026-04-23 11:52:00,METAR KIOW 231152Z AUTO 14007KT 10SM CLR 15/ A2983 RMK AO2 SLP097 T0150 10161 20133 56008 $,0,7.0,0,16090,0,0,0,
2026-04-23 10:52:00,METAR KIOW 231052Z AUTO 15005KT 10SM CLR 14/ A2984 RMK AO2 SLP100 T0139 $,0,5.0,0,16090,0,0,0,
2026-04-23 09:52:00,METAR KIOW 230952Z AUTO 14005KT 10SM CLR 14/ A2984 RMK AO2 SLP102 T0139 $,0,5.0,0,16090,0,0,0,
2026-04-23 08:52:00,METAR KIOW 230852Z AUTO 11003KT 10SM CLR 15/ A2985 RMK AO2 SLP105 T0150 58013 $,0,3.0,0,16090,0,0,0,
2026-04-23 07:52:00,METAR KIOW 230752Z AUTO 14004KT 10SM CLR 14/ A2987 RMK AO2 SLP112 T0144 $,0,4.0,0,16090,0,0,0,
2026-04-23 06:52:00,METAR KIOW 230652Z AUTO 18006KT 10SM CLR 16/ A2989 RMK AO2 SLP119 T0156 $,0,6.0,0,16090,0,0,0,
2026-04-23 05:52:00,METAR KIOW 230552Z AUTO 17004KT 8SM CLR 16/ A2989 RMK AO2 SLP119 T0156 10250 20156 402780156 58001 $,0,4.0,0,12872,0,0,0,
2026-04-23 04:52:00,METAR KIOW 230452Z AUTO 18005KT 10SM CLR 17/13 A2990 RMK AO2 SLP120 T01670133,0,5.0,0,16090,0,0,0,
2026-04-23 03:52:00,METAR KIOW 230352Z AUTO 20009KT 10SM CLR 19/14 A2991 RMK AO2 SLP124 T01890139,0,9.0,0,16090,0,0,0,
2026-04-23 02:52:00,METAR KIOW 230252Z AUTO 18008KT 10SM CLR 19/14 A2989 RMK AO2 SLP120 T01890144 53012,0,8.0,0,16090,0,0,0,
2026-04-23 01:52:00,METAR KIOW 230152Z AUTO 19011G18KT 10SM CLR 22/14 A2988 RMK AO2 SLP116 T02170144,0,11.0,1,16090,0,0,0,
2026-04-23 00:52:00,METAR KIOW 230052Z AUTO 19009KT 10SM CLR 23/14 A2987 RMK AO2 SLP110 T02330144,0,9.0,0,16090,0,0,0,
2026-04-22 23:52:00,METAR KIOW 222352Z AUTO 18009KT 10SM CLR 25/15 A2986 RMK AO2 SLP107 T02500150 10278 20250 55012,0,9.0,0,16090,0,0,0,
2026-04-22 22:52:00,METAR KIOW 222252Z AUTO 19013KT 10SM CLR 27/16 A2986 RMK AO2 SLP107 T02670156,0,13.0,0,16090,0,0,0,
2026-04-22 21:52:00,METAR KIOW 222152Z AUTO 20011KT 10SM CLR 28/16 A2987 RMK AO2 SLP110 T02780161,0,11.0,0,16090,0,0,0,
2026-04-22 20:52:00,METAR KIOW 222052Z AUTO 21011G19KT 10SM CLR 28/14 A2989 RMK AO2 SLP118 T02780139 56021,0,11.0,1,16090,0,0,0,
2026-04-22 19:52:00,METAR KIOW 221952Z AUTO 20009KT 10SM CLR 27/14 A2991 RMK AO2 SLP125 T02720144,0,9.0,0,16090,0,0,0,
2026-04-22 18:52:00,METAR KIOW 221852Z AUTO 17009KT 10SM CLR 26/14 A2993 RMK AO2 SLP132 T02610144,0,9.0,0,16090,0,0,0,
2026-04-22 17:52:00,METAR KIOW 221752Z AUTO 10SM CLR 25/14 A2996 RMK AO2 SLP140 T02500144 10256 20167 58001,0,,0,16090,0,0,0,
2026-04-22 16:52:00,METAR KIOW 221652Z AUTO 30007KT 10SM CLR 24/15 A2997 RMK AO2 SLP146 T02440150,0,7.0,0,16090,0,0,0,
2026-04-22 15:52:00,METAR KIOW 221552Z AUTO 24006KT 10SM CLR 22/15 A2997 RMK AO2 SLP144 T02220150,0,6.0,0,16090,0,0,0,
2026-04-22 14:52:00,METAR KIOW 221452Z AUTO 27009KT 10SM CLR 21/15 A2996 RMK AO2 SLP142 T02110150 50002,0,9.0,0,16090,0,0,0,
2026-04-22 13:52:00,METAR KIOW 221352Z AUTO 26011KT 10SM CLR 19/14 A2997 RMK AO2 SLP145 T01940144,0,11.0,0,16090,0,0,0,
2026-04-22 12:52:00,METAR KIOW 221252Z AUTO 26010KT 10SM CLR 18/14 A2997 RMK AO2 SLP144 T01780144,0,10.0,0,16090,0,0,0,
2026-04-22 11:52:00,METAR KIOW 221152Z AUTO 25006KT 10SM CLR 17/ A2995 RMK AO2 SLP140 T0167 10200 20167 53014 $,0,6.0,0,16090,0,0,0,
2026-04-22 10:52:00,METAR KIOW 221052Z AUTO 24009KT 10SM CLR 17/ A2994 RMK AO2 SLP135 T0167 $,0,9.0,0,16090,0,0,0,
2026-04-22 09:52:00,METAR KIOW 220952Z AUTO 22006KT 10SM CLR 17/14 A2992 RMK AO2 SLP129 T01720139,0,6.0,0,16090,0,0,0,
2026-04-22 08:52:00,METAR KIOW 220852Z AUTO 23007KT 10SM CLR 18/14 A2991 RMK AO2 SLP125 T01830139 53007,0,7.0,0,16090,0,0,0,
2026-04-22 07:52:00,METAR KIOW 220752Z AUTO 24009KT 10SM CLR 19/14 A2990 RMK AO2 SLP120 T01940139,0,9.0,0,16090,0,0,0,
2026-04-22 06:52:00,METAR KIOW 220652Z AUTO 23007KT 210V270 10SM CLR 19/14 A2990 RMK AO2 SLP120 T01940139,0,7.0,0,16090,0,0,0,
2026-04-22 05:52:00,METAR KIOW 220552Z AUTO 21007KT 10SM CLR 19/14 A2989 RMK AO2 SLP118 T01940139 10267 20183 402830106 53003,0,7.0,0,16090,0,0,0,
2026-04-22 04:52:00,METAR KIOW 220452Z AUTO 21007KT 10SM CLR 21/13 A2988 RMK AO2 SLP115 T02060133,0,7.0,0,16090,0,0,0,
2026-04-22 03:52:00,METAR KIOW 220352Z AUTO 20003KT 10SM CLR 19/12 A2988 RMK AO2 SLP116 T01940122,0,3.0,0,16090,0,0,0,
2026-04-22 02:52:00,METAR KIOW 220252Z AUTO 21003KT 10SM CLR 18/12 A2988 RMK AO2 SLP117 T01830122 53007,0,3.0,0,16090,0,0,0,
2026-04-22 01:52:00,METAR KIOW 220152Z AUTO 20005KT 10SM CLR 21/12 A2987 RMK AO2 SLP114 T02060117,0,5.0,0,16090,0,0,0,
2026-04-22 00:52:00,METAR KIOW 220052Z AUTO 21004KT 10SM CLR 24/12 A2987 RMK AO2 SLP111 T02390117,0,4.0,0,16090,0,0,0,
2026-04-21 23:52:00,METAR KIOW 212352Z AUTO 25007KT 10SM CLR 26/09 A2986 RMK AO2 SLP109 T02610094 10283 20244 55000,0,7.0,0,16090,0,0,0,
2026-04-21 22:52:00,METAR KIOW 212252Z AUTO 27009KT 10SM CLR 28/10 A2986 RMK AO2 SLP108 T02780100,0,9.0,0,16090,0,0,0,
2026-04-21 21:52:00,METAR KIOW 212152Z AUTO 27011KT 10SM CLR 28/09 A2985 RMK AO2 SLP105 T02780094,0,11.0,0,16090,0,0,0,
2026-04-21 20:52:00,METAR KIOW 212052Z AUTO 26009G16KT 10SM CLR 27/11 A2986 RMK AO2 SLP108 T02720106 56010,0,9.0,1,16090,0,0,0,
2026-04-21 19:52:00,METAR KIOW 211952Z AUTO 24014G20KT 10SM CLR 27/10 A2987 RMK AO2 SLP112 T02670100,0,14.0,1,16090,0,0,0,
2026-04-21 18:52:00,METAR KIOW 211852Z AUTO 26014G20KT 10SM CLR 26/11 A2988 RMK AO2 SLP115 T02560106,0,14.0,1,16090,0,0,0,
2026-04-21 17:52:00,METAR KIOW 211752Z AUTO 26009KT 10SM CLR 24/11 A2989 RMK AO2 SLP120 T02440106 10250 20117 58005,0,9.0,0,16090,0,0,0,
2026-04-21 16:52:00,METAR KIOW 211652Z AUTO 26011G20KT 230V290 10SM CLR 23/10 A2990 RMK AO2 SLP124 T02330100,0,11.0,1,16090,0,0,0,
2026-04-21 15:52:00,METAR KIOW 211552Z AUTO 26015G24KT 10SM CLR 22/10 A2991 RMK AO2 SLP126 T02220100,0,15.0,1,16090,0,0,0,
2026-04-21 14:52:00,METAR KIOW 211452Z AUTO 23015G23KT 10SM CLR 21/09 A2991 RMK AO2 SLP125 T02060094 58004,0,15.0,1,16090,0,0,0,
2026-04-21 13:52:00,METAR KIOW 211352Z AUTO 22010KT 10SM CLR 17/08 A2992 RMK AO2 SLP132 T01720078,0,10.0,0,16090,0,0,0,
2026-04-21 12:52:00,METAR KIOW 211252Z AUTO 22005KT 10SM CLR 15/07 A2993 RMK AO2 SLP136 T01500072,0,5.0,0,16090,0,0,0,
2026-04-21 11:52:00,METAR KIOW 211152Z AUTO 17006KT 10SM CLR 12/06 A2992 RMK AO2 SLP131 T01170061 10133 20106 58011,0,6.0,0,16090,0,0,0,
2026-04-21 10:52:00,METAR KIOW 211052Z AUTO 17006KT 10SM CLR 11/06 A2993 RMK AO2 SLP134 T01060056,0,6.0,0,16090,0,0,0,
2026-04-21 09:52:00,METAR KIOW 210952Z AUTO 18007KT 10SM CLR 12/06 A2994 RMK AO2 SLP139 T01220061,0,7.0,0,16090,0,0,0,
2026-04-21 08:52:00,METAR KIOW 210852Z AUTO 18007KT 10SM CLR 12/06 A2995 RMK AO2 SLP142 T01220056 56011,0,7.0,0,16090,0,0,0,
2026-04-21 07:52:00,METAR KIOW 210752Z AUTO 18008KT 10SM CLR 13/06 A2995 RMK AO2 SLP143 T01330056,0,8.0,0,16090,0,0,0,
2026-04-21 06:52:00,METAR KIOW 210652Z AUTO 18008KT 10SM CLR 12/06 A2997 RMK AO2 SLP150 T01220056,0,8.0,0,16090,0,0,0,
2026-04-21 05:52:00,METAR KIOW 210552Z AUTO 17009KT 10SM CLR 13/05 A2998 RMK AO2 SLP154 T01280050 10167 20111 401721017 56017,0,9.0,0,16090,0,0,0,
2026-04-21 04:52:00,METAR KIOW 210452Z AUTO 17012G21KT 10SM CLR 13/04 A3000 RMK AO2 SLP158 T01330039,0,12.0,1,16090,0,0,0,
2026-04-21 03:52:00,METAR KIOW 210352Z AUTO 15011KT 10SM CLR 12/03 A3001 RMK AO2 SLP164 T01220033,0,11.0,0,16090,0,0,0,
2026-04-21 02:52:00,METAR KIOW 210252Z AUTO 14006KT 10SM CLR 11/03 A3003 RMK AO2 SLP172 T01110033 56017,0,6.0,0,16090,0,0,0,
2026-04-21 01:52:00,METAR KIOW 210152Z AUTO 14007KT 10SM CLR 13/03 A3004 RMK AO2 SLP175 T01280033,0,7.0,0,16090,0,0,0,
2026-04-21 00:52:00,METAR KIOW 210052Z AUTO 16011KT 10SM CLR 15/02 A3006 RMK AO2 SLP180 T01500022,0,11.0,0,16090,0,0,0,
2026-04-20 23:52:00,METAR KIOW 202352Z AUTO 16014G21KT 10SM CLR 17/02 A3008 RMK AO2 SLP190 T01670017 10172 20133 57025,0,14.0,1,16090,0,0,0,
2026-04-20 22:52:00,METAR KIOW 202252Z AUTO 15016G24KT 10SM CLR 17/01 A3011 RMK AO2 SLP199 T01720006,0,16.0,1,16090,0,0,0,
2026-04-20 21:52:00,METAR KIOW 202152Z AUTO 15011G23KT 10SM CLR 17/M01 A3013 RMK AO2 SLP207 T01721011,0,11.0,1,16090,0,0,0,
2026-04-20 20:52:00,METAR KIOW 202052Z AUTO 15009G19KT 10SM CLR 17/M02 A3016 RMK AO2 SLP216 T01671022 56039,0,9.0,1,16090,0,0,0,
2026-04-20 19:52:00,METAR KIOW 201952Z AUTO 12013KT 10SM CLR 16/M03 A3019 RMK AO2 PRESFR SLP228 T01561028,0,13.0,0,16090,0,0,0,
2026-04-20 18:52:00,METAR KIOW 201852Z AUTO 14009G22KT 10SM CLR 14/M03 A3024 RMK AO2 SLP242 T01441033,0,9.0,1,16090,0,0,0,
2026-04-20 17:52:00,METAR KIOW 201752Z AUTO 16012G18KT 10SM CLR 14/M03 A3028 RMK AO2 SLP256 T01391028 10139 21006 58019,0,12.0,1,16090,0,0,0,
2026-04-20 16:52:00,METAR KIOW 201652Z AUTO 15008KT 10SM CLR 12/M04 A3031 RMK AO2 SLP265 T01221039,0,8.0,0,16090,0,0,0,
2026-04-20 15:52:00,METAR KIOW 201552Z AUTO 14009KT 10SM CLR 11/M06 A3032 RMK AO2 SLP270 T01111056,0,9.0,0,16090,0,0,0,
2026-04-20 14:52:00,METAR KIOW 201452Z AUTO 12007KT 10SM CLR 09/M05 A3033 RMK AO2 SLP275 T00941050 58001 $,0,7.0,0,16090,0,0,0,
2026-04-20 13:52:00,METAR KIOW 201352Z AUTO 12005KT 10SM CLR 07/M03 A3035 RMK AO2 SLP281 T00671033 $,0,5.0,0,16090,0,0,0,
2026-04-20 12:52:00,METAR KIOW 201252Z AUTO 00000KT 10SM CLR 03/M01 A3035 RMK AO2 SLP282 T00331006 $,0,0.0,0,16090,0,0,0,
2026-04-20 11:52:00,METAR KIOW 201152Z AUTO 00000KT 10SM CLR M01/ A3034 RMK AO2 SLP277 T1006 10028 21017 53009 $,0,0.0,0,16090,0,0,0,
2026-04-20 10:52:00,METAR KIOW 201052Z AUTO 00000KT 10SM CLR M01/ A3032 RMK AO2 SLP273 T1011 $,0,0.0,0,16090,0,0,0,
2026-04-20 09:52:00,METAR KIOW 200952Z AUTO 00000KT 10SM CLR M01/ A3031 RMK AO2 SLP270 T1006 $,0,0.0,0,16090,0,0,0,
2026-04-20 08:52:00,METAR KIOW 200852Z AUTO 00000KT 10SM CLR 00/ A3031 RMK AO2 SLP268 T0000 53003 $,0,0.0,0,16090,0,0,0,
2026-04-20 07:52:00,METAR KIOW 200752Z AUTO 00000KT 10SM CLR 00/M03 A3030 RMK AO2 SLP266 T00001033,0,0.0,0,16090,0,0,0,
2026-04-20 06:52:00,METAR KIOW 200652Z AUTO 00000KT 10SM CLR 01/M03 A3030 RMK AO2 SLP266 T00111028,0,0.0,0,16090,0,0,0,
2026-04-20 05:52:00,METAR KIOW 200552Z AUTO 00000KT 10SM CLR 02/M03 A3030 RMK AO2 SLP265 T00221033 10111 20022 401281006 51009,0,0.0,0,16090,0,0,0,
2026-04-20 04:52:00,METAR KIOW 200452Z AUTO 02004KT 10SM CLR 06/M05 A3029 RMK AO2 SLP260 T00611050,0,4.0,0,16090,0,0,0,
2026-04-20 03:52:00,METAR KIOW 200352Z AUTO 01004KT 10SM CLR 07/M05 A3028 RMK AO2 SLP257 T00671050,0,4.0,0,16090,0,0,0,
2026-04-20 02:52:00,METAR KIOW 200252Z AUTO 36005KT 10SM CLR 08/M05 A3027 RMK AO2 SLP253 T00781050 53015,0,5.0,0,16090,0,0,0,
2026-04-20 01:52:00,METAR KIOW 200152Z AUTO 34005KT 10SM CLR 09/M05 A3025 RMK AO2 SLP248 T00891050,0,5.0,0,16090,0,0,0,
2026-04-20 00:52:00,METAR KIOW 200052Z AUTO 35007KT 10SM CLR 10/M06 A3024 RMK AO2 SLP243 T01001056,0,7.0,0,16090,0,0,0,
2026-04-19 23:52:00,METAR KIOW 192352Z AUTO 34007KT 10SM CLR 11/M05 A3023 RMK AO2 SLP240 T01111050 10128 20111 53003,0,7.0,0,16090,0,0,0,
2026-04-19 22:52:00,METAR KIOW 192252Z AUTO 32008KT 10SM FEW065 12/M05 A3022 RMK AO2 SLP238 T01171050,0,8.0,0,16090,0,0,0,
2026-04-19 21:52:00,METAR KIOW 192152Z AUTO 35012G21KT 10SM CLR 12/M05 A3022 RMK AO2 SLP238 T01221050,0,12.0,1,16090,0,0,0,
2026-04-19 20:52:00,METAR KIOW 192052Z AUTO 31012G21KT 10SM CLR 12/M04 A3022 RMK AO2 PK WND 30026/2024 SLP237 T01221044 50005,0,12.0,1,16090,0,0,0,
2026-04-19 19:52:00,METAR KIOW 191952Z AUTO 31015G22KT 10SM FEW060 12/M04 A3022 RMK AO2 PK WND 30032/1855 SLP238 T01221044,0,15.0,1,16090,0,0,0,
2026-04-19 18:52:00,METAR KIOW 191852Z AUTO 32017G27KT 10SM FEW050 12/M04 A3021 RMK AO2 PK WND 29030/1755 SLP235 T01171039,0,17.0,1,16090,0,0,0,
2026-04-19 17:52:00,METAR KIOW 191752Z AUTO 29019G26KT 10SM SCT065 BKN075 12/M02 A3020 RMK AO2 PK WND 29038/1725 SLP230 T01221022 10128 20006 51019,0,19.0,1,16090,0,0,0,
2026-04-19 16:52:00,METAR KIOW 191652Z AUTO 32020G32KT 10SM FEW070 13/M03 A3019 RMK AO2 PK WND 30032/1650 SLP228 T01281033,0,20.0,1,16090,0,0,0,
2026-04-19 15:52:00,METAR KIOW 191552Z AUTO 33015G24KT 10SM BKN090 12/M04 A3017 RMK AO2 PK WND 29036/1528 SLP219 T01171039,0,15.0,1,16090,0,0,0,
2026-04-19 14:52:00,METAR KIOW 191452Z AUTO 28014G24KT 10SM BKN100 11/M03 A3014 RMK AO2 SLP211 T01061028 50001,0,14.0,1,16090,0,0,0,
2026-04-19 13:52:00,METAR KIOW 191352Z AUTO 28005KT 10SM FEW047 BKN080 OVC095 06/M03 A3015 RMK AO2 SLP214 T00611028,0,5.0,0,16090,0,0,0,
2026-04-19 12:52:00,METAR KIOW 191252Z AUTO 00000KT 10SM BKN095 04/M03 A3015 RMK AO2 SLP213 T00391033,0,0.0,0,16090,0,0,0,
2026-04-19 11:52:00,METAR KIOW 191152Z AUTO 29005KT 10SM BKN100 01/M04 A3014 RMK AO2 SLP211 T00061039 10028 21006 55000,0,5.0,0,16090,0,0,0,
2026-04-19 10:52:00,METAR KIOW 191052Z AUTO 26005KT 10SM CLR 00/M05 A3013 RMK AO2 SLP207 T00001050,0,5.0,0,16090,0,0,0,
2026-04-19 09:52:00,METAR KIOW 190952Z AUTO 25004KT 10SM CLR 01/M06 A3013 RMK AO2 SLP208 T00061056,0,4.0,0,16090,0,0,0,
2026-04-19 08:52:00,METAR KIOW 190852Z AUTO 28005KT 10SM CLR 01/M06 A3014 RMK AO2 SLP211 T00061056 53002,0,5.0,0,16090,0,0,0,
2026-04-19 07:52:00,METAR KIOW 190752Z AUTO 27008KT 10SM CLR 02/M06 A3013 RMK AO2 SLP208 T00221056,0,8.0,0,16090,0,0,0,
2026-04-19 06:52:00,METAR KIOW 190652Z AUTO 27007KT 10SM CLR 02/M06 A3013 RMK AO2 SLP207 T00221056,0,7.0,0,16090,0,0,0,
2026-04-19 05:52:00,METAR KIOW 190552Z AUTO 26006KT 10SM CLR 03/M06 A3013 RMK AO2 SLP208 T00281061 10106 20022 401110022 53004,0,6.0,0,16090,0,0,0,
2026-04-19 04:52:00,METAR KIOW 190452Z AUTO 26006KT 10SM CLR 02/M06 A3013 RMK AO2 SLP208 T00221061,0,6.0,0,16090,0,0,0,
2026-04-19 03:52:00,METAR KIOW 190352Z AUTO 26006KT 10SM CLR 03/M06 A3012 RMK AO2 SLP206 T00331061,0,6.0,0,16090,0,0,0,
2026-04-19 02:52:00,METAR KIOW 190252Z AUTO 25005KT 10SM CLR 05/M06 A3012 RMK AO2 SLP205 T00501061 53010,0,5.0,0,16090,0,0,0,
2026-04-19 01:52:00,METAR KIOW 190152Z AUTO 27007KT 10SM CLR 07/M07 A3011 RMK AO2 SLP199 T00671067,0,7.0,0,16090,0,0,0,
2026-04-19 00:52:00,METAR KIOW 190052Z AUTO 28010KT 10SM CLR 09/M09 A3010 RMK AO2 SLP195 T00891089,0,10.0,0,16090,0,0,0,
2026-04-18 23:52:00,METAR KIOW 182352Z AUTO 29017G29KT 10SM CLR 11/M10 A3009 RMK AO2 PK WND 28032/2333 SLP194 T01061100 10111 20089 53007,0,17.0,1,16090,0,0,0,
2026-04-18 22:52:00,METAR KIOW 182252Z AUTO 30017G23KT 10SM FEW080 11/M07 A3008 RMK AO2 PK WND 28034/2213 SLP190 T01111072,0,17.0,1,16090,0,0,0,
2026-04-18 21:52:00,METAR KIOW 182152Z AUTO 29017G29KT 10SM CLR 11/M07 A3007 RMK AO2 PK WND 29031/2057 SLP186 T01111072,0,17.0,1,16090,0,0,0,
2026-04-18 20:52:00,METAR KIOW 182052Z AUTO 30014G30KT 10SM CLR 11/M06 A3007 RMK AO2 PK WND 27036/2040 SLP185 T01111056 50004,0,14.0,1,16090,0,0,0,
2026-04-18 19:52:00,METAR KIOW 181952Z AUTO 29016G28KT 10SM FEW055 11/M04 A3008 RMK AO2 PK WND 28034/1935 SLP187 T01061044,0,16.0,1,16090,0,0,0,
2026-04-18 18:52:00,METAR KIOW 181852Z AUTO 29021G39KT 10SM CLR 09/M05 A3007 RMK AO2 PK WND 30039/1848 SLP185 T00941050,0,21.0,1,16090,0,0,0,
2026-04-18 17:52:00,METAR KIOW 181752Z AUTO 29019G29KT 10SM CLR 08/M04 A3006 RMK AO2 PK WND 27033/1710 SLP182 T00831044 10089 20022 51016,0,19.0,1,16090,0,0,0,
2026-04-18 16:52:00,METAR KIOW 181652Z AUTO 29014G26KT 10SM CLR 08/M04 A3005 RMK AO2 PK WND 31029/1639 SLP178 T00781039,0,14.0,1,16090,0,0,0,
2026-04-18 15:52:00,METAR KIOW 181552Z AUTO 30018G27KT 10SM CLR 06/M04 A3003 RMK AO2 PK WND 30034/1538 SLP172 T00611044,0,18.0,1,16090,0,0,0,
2026-04-18 14:52:00,METAR KIOW 181452Z AUTO 31017G30KT 10SM CLR 05/M05 A3001 RMK AO2 PK WND 33034/1356 SLP166 T00501050 51022,0,17.0,1,16090,0,0,0,
2026-04-18 13:52:00,METAR KIOW 181352Z AUTO 31021G32KT 10SM CLR 04/M06 A3000 RMK AO2 PK WND 31032/1334 SLP162 T00391056,0,21.0,1,16090,0,0,0,
2026-04-18 12:52:00,METAR KIOW 181252Z AUTO 30017G27KT 10SM CLR 03/M06 A2997 RMK AO2 PK WND 29029/1208 SLP152 T00281056,0,17.0,1,16090,0,0,0,
2026-04-18 11:52:00,METAR KIOW 181152Z AUTO 31015G27KT 10SM CLR 02/M06 A2994 RMK AO2 PK WND 30029/1121 SLP142 70018 T00221061 10089 20022 51031,0,15.0,1,16090,0,0,0,
2026-04-18 10:52:00,METAR KIOW 181052Z AUTO 31015G25KT 10SM CLR 03/M04 A2992 RMK AO2 PK WND 32033/1020 SLP134 T00331044,0,15.0,1,16090,0,0,0,
2026-04-18 09:52:00,METAR KIOW 180952Z AUTO 31013G24KT 10SM CLR 04/M03 A2989 RMK AO2 PK WND 31037/0917 SLP121 T00391033,0,13.0,1,16090,0,0,0,
2026-04-18 08:52:00,METAR KIOW 180852Z AUTO 32016G30KT 10SM CLR 06/M02 A2985 RMK AO2 PK WND 30030/0844 SLP107 T00561022 53023,0,16.0,1,16090,0,0,0,
2026-04-18 07:52:00,METAR KIOW 180752Z AUTO 32019G26KT 10SM CLR 07/M01 A2982 RMK AO2 PK WND 32029/0710 SLP096 T00671011,0,19.0,1,16090,0,0,0,
2026-04-18 06:52:00,METAR KIOW 180652Z AUTO 32015G29KT 10SM CLR 08/M01 A2981 RMK AO2 PK WND 31030/0615 SLP093 T00781006,0,15.0,1,16090,0,0,0,
2026-04-18 05:52:00,METAR KIOW 180552Z AUTO 31013G23KT 10SM OVC060 09/01 A2978 RMK AO2 PK WND 32026/0512 SLP083 60000 T00890006 10189 20089 402830089 51010,0,13.0,1,16090,0,0,0,
2026-04-18 04:52:00,METAR KIOW 180452Z AUTO 32011G21KT 10SM OVC055 09/02 A2978 RMK AO2 PK WND 30029/0400 SLP081 T00940022,0,11.0,1,16090,0,0,0,
2026-04-18 03:52:00,METAR KIOW 180352Z AUTO 31016G27KT 10SM OVC050 09/04 A2978 RMK AO2 PK WND 31027/0352 RAB29E38 SLP082 P0000 T00940039,0,16.0,1,16090,0,0,0,RA
2026-04-18 02:52:00,METAR KIOW 180252Z AUTO 31015G21KT 10SM OVC038 09/06 A2975 RMK AO2 PK WND 32031/0221 RAB07E22B42E52 SLP073 P0000 60000 T00890056 51058,0,15.0,1,16090,0,0,0,RA
2026-04-18 02:20:00,SPECI KIOW 180220Z AUTO 30020G28KT 10SM -RA SCT018 OVC030 09/06 A2974 RMK AO2 PK WND 30028/0219 RAB07 P0000 T00940056,0,20.0,1,16090,0,0,0,-RA
2026-04-18 02:03:00,SPECI KIOW 180203Z AUTO 31015G28KT 10SM VCTS OVC030 10/05 A2970 RMK AO2 PK WND 30028/0157 T01000050,0,15.0,1,16090,1,0,0,"TS,VC"
2026-04-18 01:52:00,METAR KIOW 180152Z AUTO 32017G25KT 10SM OVC028 10/06 A2971 RMK AO2 PK WND 32030/0119 LTG DSNT SE-SW SLP058 T01000056,0,17.0,1,16090,0,0,0,DS
2026-04-18 00:52:00,METAR KIOW 180052Z AUTO 32018G25KT 10SM OVC021 13/08 A2963 RMK AO2 PK WND 33027/0024 WSHFT 0020 PRESRR SLP034 T01330078,0,18.0,1,16090,0,0,0,
2026-04-18 00:34:00,SPECI KIOW 180034Z AUTO 33015G27KT 10SM BKN020 BKN026 14/09 A2960 RMK AO2 PK WND 33027/0024 WSHFT 0020 T01440089,0,15.0,1,16090,0,0,0,
2026-04-17 23:52:00,METAR KIOW 172352Z AUTO 27009KT 10SM CLR 19/14 A2958 RMK AO2 WSHFT 2241 TSE01 SLP014 60018 T01890144 10283 20189 50010,0,9.0,0,16090,1,0,0,
2026-04-17 23:10:00,SPECI KIOW 172310Z AUTO 25015KT 10SM FEW100 19/14 A2961 RMK AO2 WSHFT 2241 LTG DSNT NE-S TSE01 T01940139,0,15.0,0,16090,1,0,0,DS
2026-04-17 23:01:00,SPECI KIOW 172301Z AUTO 25015G25KT 10SM VCTS SCT100 20/13 A2959 RMK AO2 WSHFT 2241 LTG DSNT NE-S TSE01 T02000133,0,15.0,1,16090,1,0,0,"DS,TS,VC"
2026-04-17 22:52:00,METAR KIOW 172252Z AUTO 24011G24KT 10SM TS FEW070 SCT085 BKN100 19/13 A2959 RMK AO2 PK WND 21047/2223 LTG DSNT NE-S RAE46 TSB03E19B23 PRESRR SLP017 P0017 T01940133,0,11.0,1,16090,1,0,0,"DS,TS"
2026-04-17 22:25:00,SPECI KIOW 172225Z AUTO 20032G47KT 5SM TSRA FEW047 BKN090 OVC110 22/14 A2955 RMK AO2 PK WND 21047/2223 LTG DSNT ALQDS TSB03E19B23 P0014 T02220144,0,32.0,1,8045,1,0,0,"DS,RA,TS"
2026-04-17 22:09:00,SPECI KIOW 172209Z AUTO 20019G29KT 2 1/2SM TSRA SCT050 BKN075 OVC110 23/19 A2956 RMK AO2 PK WND 18029/2201 VIS 1V5 LTG DSNT ALQDS TSB03 P0009 T02330189,0,19.0,1,4022,1,0,0,"DS,RA,TS"
2026-04-17 21:52:00,METAR KIOW 172152Z AUTO 19018G25KT 10SM VCTS -RA FEW049 BKN100 OVC110 25/18 A2956 RMK AO2 PK WND 17029/2118 LTG DSNT ALQDS RAB42 SLP005 P0000 T02500183,0,18.0,1,16090,1,0,0,"-RA,DS,TS,VC"
2026-04-17 20:52:00,METAR KIOW 172052Z AUTO 19017G24KT 10SM FEW050 27/17 A2955 RMK AO2 PK WND 19036/2005 LTG DSNT W-N SLP002 60001 T02720172 56039,0,17.0,1,16090,0,0,0,DS
2026-04-17 20:36:00,SPECI KIOW 172036Z AUTO 18016G24KT 10SM CLR 27/18 A2954 RMK AO2 PK WND 19036/2005 LTG DSNT W-N T02670178,0,16.0,1,16090,0,0,0,DS
2026-04-17 20:19:00,SPECI KIOW 172019Z AUTO 18020G32KT 10SM VCTS FEW045 FEW060 27/18 A2956 RMK AO2 PK WND 19036/2005 LTG DSNT W AND NW T02720178,0,20.0,1,16090,1,0,0,"DS,TS,VC"
2026-04-17 19:52:00,METAR KIOW 171952Z AUTO 19020G29KT 10SM FEW041 SCT050 28/18 A2958 RMK AO2 PK WND 17034/1903 LTG DSNT W RAB15E27 TSB10E33 PRESFR SLP013 P0001 T02780183,0,20.0,1,16090,1,0,0,"DS,RA,TS"
2026-04-17 19:39:00,SPECI KIOW 171939Z AUTO 19015G26KT 10SM SCT037 SCT047 SCT060 28/19 A2960 RMK AO2 PK WND 17034/1903 RAB15E27 TSB10E33 P0001 T02780194,0,15.0,1,16090,1,0,0,"RA,TS"
2026-04-17 19:10:00,SPECI KIOW 171910Z AUTO 20017G34KT 10SM TS FEW043 SCT055 28/18 A2963 RMK AO2 PK WND 17034/1903 LTG DSNT NE AND SW TSB10 T02780183,0,17.0,1,16090,1,0,0,"DS,TS"
2026-04-17 18:52:00,METAR KIOW 171852Z AUTO 19020G32KT 10SM SCT038 SCT047 28/18 A2963 RMK AO2 PK WND 19033/1804 LTG DSNT NE SLP029 T02780183,0,20.0,1,16090,0,0,0,DS
2026-04-17 18:28:00,SPECI KIOW 171828Z AUTO 19017G29KT 10SM BKN036 OVC047 26/18 A2965 RMK AO2 PK WND 19033/1804 LTG DSNT N AND NE T02610183,0,17.0,1,16090,0,0,0,DS
2026-04-17 18:13:00,SPECI KIOW 171813Z AUTO 19020G33KT 10SM VCTS BKN036 OVC046 27/18 A2966 RMK AO2 PK WND 19033/1804 LTG DSNT W-N T02670183,0,20.0,1,16090,1,0,0,"DS,TS,VC"
2026-04-17 17:52:00,METAR KIOW 171752Z AUTO 18020G28KT 10SM BKN032 OVC042 27/19 A2967 RMK AO2 PK WND 17031/1731 LTG DSNT ALQDS SLP042 T02670189 10267 20150 58027,0,20.0,1,16090,0,0,0,DS
2026-04-17 16:52:00,METAR KIOW 171652Z AUTO 18020G30KT 10SM BKN030 27/19 A2970 RMK AO2 PK WND 18030/1652 SLP054 T02670189,0,20.0,1,16090,0,0,0,
2026-04-17 15:52:00,METAR KIOW 171552Z AUTO 17015G28KT 10SM FEW022 25/18 A2972 RMK AO2 PK WND 17028/1544 SLP059 T02500183,0,15.0,1,16090,0,0,0,
2026-04-17 15:11:00,SPECI KIOW 171511Z AUTO 16015G21KT 10SM SCT017 BKN100 23/18 A2974 RMK AO2 T02280178 $,0,15.0,1,16090,0,0,0,
2026-04-17 14:52:00,METAR KIOW 171452Z AUTO 15011G26KT 10SM BKN016 22/18 A2975 RMK AO2 PK WND 14026/1443 SLP070 T02220178 58016 $,0,11.0,1,16090,0,0,0,
2026-04-17 14:45:00,SPECI KIOW 171445Z AUTO 16015G26KT 10SM BKN016 23/18 A2975 RMK AO2 PK WND 14026/1443 T02280178 $,0,15.0,1,16090,0,0,0,
2026-04-17 13:59:00,SPECI KIOW 171359Z AUTO 15009KT 10SM SCT015 20/ A2977 RMK AO2 T0200 $,0,9.0,0,16090,0,0,0,
2026-04-17 13:52:00,METAR KIOW 171352Z AUTO 15008KT 10SM BKN014 19/16 A2977 RMK AO2 SLP078 T01890161 $,0,8.0,0,16090,0,0,0,
2026-04-17 13:42:00,SPECI KIOW 171342Z AUTO 13008KT 10SM OVC014 18/16 A2977 RMK AO2 T01830161 $,0,8.0,0,16090,0,0,0,
2026-04-17 13:03:00,SPECI KIOW 171303Z AUTO 14008KT 10SM BKN017 17/14 A2979 RMK AO2 T01720144,0,8.0,0,16090,0,0,0,
2026-04-17 12:52:00,METAR KIOW 171252Z AUTO 13008KT 10SM SCT020 17/14 A2979 RMK AO2 SLP084 T01670139,0,8.0,0,16090,0,0,0,
2026-04-17 11:52:00,METAR KIOW 171152Z AUTO 12006KT 10SM CLR 15/ A2980 RMK AO2 SLP086 T0150 10156 20133 56008 $,0,6.0,0,16090,0,0,0,
2026-04-17 10:52:00,METAR KIOW 171052Z AUTO 13005KT 10SM CLR 13/ A2980 RMK AO2 SLP089 T0133 $,0,5.0,0,16090,0,0,0,
2026-04-17 09:52:00,METAR KIOW 170952Z AUTO 00000KT 10SM CLR 14/10 A2981 RMK AO2 SLP090 T01440100 $,0,0.0,0,16090,0,0,0,
2026-04-17 08:52:00,METAR KIOW 170852Z AUTO 00000KT 10SM CLR 14/09 A2982 RMK AO2 SLP095 T01390094 56015 $,0,0.0,0,16090,0,0,0,
2026-04-17 07:52:00,METAR KIOW 170752Z AUTO 00000KT 10SM CLR 14/09 A2982 RMK AO2 SLP095 T01440094 $,0,0.0,0,16090,0,0,0,
2026-04-17 06:52:00,METAR KIOW 170652Z AUTO 14004KT 10SM CLR 15/10 A2984 RMK AO2 SLP102 T01500100 $,0,4.0,0,16090,0,0,0,
2026-04-17 05:52:00,METAR KIOW 170552Z AUTO 16003KT 10SM CLR 15/10 A2986 RMK AO2 SLP110 T01500100 10244 20150 402610128 51005 $,0,3.0,0,16090,0,0,0,
2026-04-17 04:52:00,METAR KIOW 170452Z AUTO 00000KT 10SM CLR 17/10 A2986 RMK AO2 SLP108 T01670100 $,0,0.0,0,16090,0,0,0,
2026-04-17 03:52:00,METAR KIOW 170352Z AUTO 13004KT 10SM CLR 17/10 A2986 RMK AO2 SLP107 T01720100 $,0,4.0,0,16090,0,0,0,
2026-04-17 02:52:00,METAR KIOW 170252Z AUTO 14004KT 10SM CLR 18/11 A2985 RMK AO2 SLP106 T01780106 53007 $,0,4.0,0,16090,0,0,0,
2026-04-17 01:52:00,METAR KIOW 170152Z AUTO 14004KT 10SM CLR 20/11 A2984 RMK AO2 SLP102 T02000111 $,0,4.0,0,16090,0,0,0,
2026-04-17 00:52:00,METAR KIOW 170052Z AUTO 12004KT 10SM CLR 23/09 A2983 RMK AO2 SLP098 T02280089 $,0,4.0,0,16090,0,0,0,
2026-04-16 23:52:00,METAR KIOW 162352Z AUTO 18004KT 10SM CLR 24/09 A2983 RMK AO2 SLP097 T02440089 10261 20228 56006 $,0,4.0,0,16090,0,0,0,
2026-04-16 22:52:00,METAR KIOW 162252Z AUTO 19006KT 10SM CLR 26/08 A2983 RMK AO2 SLP099 T02560083 $,0,6.0,0,16090,0,0,0,
2026-04-16 21:52:00,METAR KIOW 162152Z AUTO 19009KT 10SM CLR 26/09 A2984 RMK AO2 SLP099 T02560089 $,0,9.0,0,16090,0,0,0,
2026-04-16 20:52:00,METAR KIOW 162052Z AUTO VRB05KT 10SM CLR 25/08 A2985 RMK AO2 SLP104 T02500083 58009 $,0,5.0,0,16090,0,0,0,
2026-04-16 19:52:00,METAR KIOW 161952Z AUTO 23007KT 10SM CLR 24/09 A2986 RMK AO2 SLP108 T02440094 $,0,7.0,0,16090,0,0,0,
2026-04-16 18:52:00,METAR KIOW 161852Z AUTO 27008KT 10SM CLR 24/11 A2987 RMK AO2 SLP111 T02390106 $,0,8.0,0,16090,0,0,0,
2026-04-16 17:52:00,METAR KIOW 161752Z AUTO VRB05KT 10SM CLR 23/11 A2987 RMK AO2 SLP113 T02280111 10228 20128 50010 $,0,5.0,0,16090,0,0,0,
2026-04-16 16:52:00,METAR KIOW 161652Z AUTO 30008G18KT 10SM CLR 21/13 A2988 RMK AO2 SLP115 T02110128 $,0,8.0,1,16090,0,0,0,
2026-04-16 15:52:00,METAR KIOW 161552Z AUTO 28009KT 10SM FEW013 18/14 A2986 RMK AO2 SLP109 T01830139 $,0,9.0,0,16090,0,0,0,
2026-04-16 15:01:00,SPECI KIOW 161501Z AUTO 28010KT 10SM OVC007 17/14 A2984 RMK AO2 CIG 005V009 T01670139 $,0,10.0,0,16090,0,0,0,
2026-04-16 14:52:00,METAR KIOW 161452Z AUTO 31008KT 10SM OVC005 16/ A2984 RMK AO2 CIG 004V009 SLP104 T0161 51021 $,0,8.0,0,16090,0,0,0,
2026-04-16 13:52:00,METAR KIOW 161352Z AUTO 28011KT 5SM HZ OVC003 14/ A2984 RMK AO2 SLP103 T0139 $,0,11.0,0,8045,0,0,0,
2026-04-16 13:43:00,SPECI KIOW 161343Z AUTO 28010KT 3SM BR OVC003 13/ A2984 RMK AO2 T0133 $,0,10.0,0,4827,0,0,1,BR
2026-04-16 13:32:00,SPECI KIOW 161332Z AUTO 28009KT 1 3/4SM BR OVC003 13/ A2983 RMK AO2 CIG 002V007 T0128 $,0,9.0,0,2816,0,0,1,BR
2026-04-16 13:25:00,SPECI KIOW 161325Z AUTO 28009KT 3SM BR BKN003 OVC007 13/ A2983 RMK AO2 T0128 $,0,9.0,0,4827,0,0,1,BR
2026-04-16 13:11:00,SPECI KIOW 161311Z AUTO 27010KT 8SM OVC006 13/ A2983 RMK AO2 CIG 003V008 T0128 $,0,10.0,0,12872,0,0,0,
2026-04-16 12:52:00,METAR KIOW 161252Z AUTO 26007KT 10SM OVC005 13/ A2981 RMK AO2 SLP093 T0133 $,0,7.0,0,16090,0,0,0,
2026-04-16 12:15:00,SPECI KIOW 161215Z AUTO 28008KT 5SM HZ OVC004 13/ A2979 RMK AO2 T0133 $,0,8.0,0,8045,0,0,0,
2026-04-16 11:52:00,METAR KIOW 161152Z AUTO 28006KT 5SM HZ OVC005 13/ A2978 RMK AO2 SLP081 70049 T0133 10156 20128 53026 $,0,6.0,0,8045,0,0,0,
2026-04-16 11:42:00,SPECI KIOW 161142Z AUTO 29007KT 7SM OVC005 13/ A2977 RMK AO2 T0133 $,0,7.0,0,11263,0,0,0,
2026-04-16 11:25:00,SPECI KIOW 161125Z AUTO 29007KT 8SM OVC006 13/ A2976 RMK AO2 T0128 $,0,7.0,0,12872,0,0,0,
2026-04-16 11:08:00,SPECI KIOW 161108Z AUTO 27007KT 8SM BKN005 13/ A2976 RMK AO2 T0128 $,0,7.0,0,12872,0,0,0,
2026-04-16 10:52:00,METAR KIOW 161052Z AUTO 28008KT 8SM FEW005 13/ A2975 RMK AO2 SLP072 T0128 $,0,8.0,0,12872,0,0,0,
2026-04-16 09:52:00,METAR KIOW 160952Z AUTO 28008KT 10SM CLR 14/ A2972 RMK AO2 SLP062 T0144 $,0,8.0,0,16090,0,0,0,
2026-04-16 08:52:00,METAR KIOW 160852Z AUTO 24004KT 10SM CLR 13/ A2970 RMK AO2 SLP054 T0133 55006 $,0,4.0,0,16090,0,0,0,
2026-04-16 08:34:00,SPECI KIOW 160834Z AUTO 25003KT 3SM BR FEW050 13/ A2969 RMK AO2 T0133 $,0,3.0,0,4827,0,0,1,BR
2026-04-16 08:29:00,SPECI KIOW 160829Z AUTO 26003KT 1 1/4SM BR FEW050 13/ A2969 RMK AO2 VIS 1/2V5 T0133 $,0,3.0,0,2011,0,0,1,BR
2026-04-16 08:16:00,SPECI KIOW 160816Z AUTO 27003KT 3/4SM BR FEW050 13/ A2969 RMK AO2 T0128 $,0,3.0,0,1207,0,0,1,BR
2026-04-16 08:06:00,SPECI KIOW 160806Z AUTO 00000KT 1SM BR CLR 13/ A2968 RMK AO2 VIS 1/2V3 T0133 $,0,0.0,0,1609,0,0,1,BR
2026-04-16 08:00:00,SPECI KIOW 160800Z AUTO 00000KT 2SM BR CLR 13/ A2969 RMK AO2 VIS 3/4V4 T0133 $,0,0.0,0,3218,0,0,1,BR
2026-04-16 07:52:00,METAR KIOW 160752Z AUTO 00000KT 1SM BR CLR 13/ A2969 RMK AO2 VIS 1/2V3 SLP051 T0128 $,0,0.0,0,1609,0,0,1,BR
2026-04-16 07:36:00,SPECI KIOW 160736Z AUTO 00000KT 1 3/4SM BR CLR 13/ A2969 RMK AO2 T0133 $,0,0.0,0,2816,0,0,1,BR
2026-04-16 06:52:00,METAR KIOW 160652Z AUTO 17003KT 10SM CLR 14/ A2969 RMK AO2 SLP051 T0139 $,0,3.0,0,16090,0,0,0,
2026-04-16 05:52:00,METAR KIOW 160552Z AUTO 32005KT 10SM FEW030 15/ A2972 RMK AO2 SLP061 60020 T0150 10233 20144 402440144 53002 $,0,5.0,0,16090,0,0,0,
2026-04-16 04:52:00,METAR KIOW 160452Z AUTO 15004KT 10SM CLR 15/ A2969 RMK AO2 LTG DSNT N SLP054 T0150 $,0,4.0,0,16090,0,0,0,DS
2026-04-16 03:52:00,METAR KIOW 160352Z AUTO 00000KT 10SM CLR 16/ A2970 RMK AO2 SLP055 T0161 $,0,0.0,0,16090,0,0,0,
2026-04-16 02:52:00,METAR KIOW 160252Z AUTO 14009KT 10SM FEW041 16/ A2971 RMK AO2 SLP059 60020 T0161 51012 $,0,9.0,0,16090,0,0,0,
2026-04-16 01:52:00,METAR KIOW 160152Z AUTO 13009KT 10SM FEW100 SCT120 16/14 A2969 RMK AO2 LTG DSNT E AND S RAE35 TSE09 SLP052 P0002 T01610139,0,9.0,0,16090,1,0,0,DS
2026-04-16 01:22:00,SPECI KIOW 160122Z AUTO 10009KT 10SM -RA FEW075 BKN090 BKN110 16/14 A2966 RMK AO2 LTG DSNT NE-S TSE09 PRESFR P0002 T01610139,0,9.0,0,16090,1,0,0,"-RA,DS"
2026-04-16 01:15:00,SPECI KIOW 160115Z AUTO 12004KT 10SM VCTS -RA FEW050 BKN090 OVC110 16/14 A2970 RMK AO2 LTG DSNT ALQDS TSE09 PRESFR P0002 T01610139,0,4.0,0,16090,1,0,0,"-RA,DS,TS,VC"
2026-04-16 01:02:00,SPECI KIOW 160102Z AUTO 21005KT 6SM -TSRA SCT050 BKN070 OVC110 17/13 A2973 RMK AO2 LTG DSNT ALQDS P0001 T01670133,0,5.0,0,9654,1,0,0,"DS,RA"
2026-04-16 00:52:00,METAR KIOW 160052Z AUTO 23008G24KT 2 1/2SM +TSRA BKN048 BKN065 OVC090 17/13 A2976 RMK AO2 PK WND 32035/0016 WSHFT 0034 LTG DSNT ALQDS RAB29 TSB34 SLP075 P0018 T01720128,0,8.0,1,4022,1,0,0,"DS,RA"
2026-04-16 00:50:00,SPECI KIOW 160050Z AUTO 24011G24KT 2 1/2SM +TSRA BKN048 OVC065 17/13 A2977 RMK AO2 PK WND 32035/0016 WSHFT 0034 LTG DSNT ALQDS RAB29 TSB34 P0017,0,11.0,1,4022,1,0,0,"DS,RA"
2026-04-16 00:34:00,SPECI KIOW 160034Z AUTO 33016G27KT 4SM +TSRA FEW037 BKN055 OVC090 17/14 A2970 RMK AO2 PK WND 32035/0016 WSHFT 0014 LTG DSNT ALQDS RAB29 TSB34 P0006 T01720139,0,16.0,1,6436,1,0,0,"DS,RA"
2026-04-16 00:13:00,SPECI KIOW 160013Z AUTO 23009G20KT 200V300 10SM VCTS FEW035 FEW070 SCT100 22/17 A2967 RMK AO2 LTG DSNT ALQDS T02220172,0,9.0,1,16090,1,0,0,"DS,TS,VC"
2026-04-15 23:52:00,METAR KIOW 152352Z AUTO 20005KT 10SM CLR 23/17 A2968 RMK AO2 LTG DSNT W-N SLP045 T02330167 10244 20183 55013,0,5.0,0,16090,0,0,0,DS
2026-04-15 22:52:00,METAR KIOW 152252Z AUTO 18009KT 10SM BKN032 BKN043 OVC070 24/18 A2967 RMK AO2 SLP044 T02390178,0,9.0,0,16090,0,0,0,
2026-04-15 21:52:00,METAR KIOW 152152Z AUTO 16013KT 10SM FEW027 BKN034 OVC042 23/17 A2968 RMK AO2 SLP047 T02330172,0,13.0,0,16090,0,0,0,
2026-04-15 20:52:00,METAR KIOW 152052Z AUTO 17014KT 10SM SCT039 BKN050 BKN065 23/17 A2971 RMK AO2 SLP058 T02330172 58022,0,14.0,0,16090,0,0,0,
2026-04-15 20:29:00,SPECI KIOW 152029Z AUTO 17011KT 10SM BKN030 OVC039 22/17 A2973 RMK AO2 T02220172,0,11.0,0,16090,0,0,0,
2026-04-15 20:02:00,SPECI KIOW 152002Z AUTO 16010KT 10SM BKN027 OVC034 22/17 A2973 RMK AO2 T02220172,0,10.0,0,16090,0,0,0,
2026-04-15 19:52:00,METAR KIOW 151952Z AUTO 16010KT 10SM FEW022 BKN030 OVC048 22/17 A2974 RMK AO2 SLP067 T02170172,0,10.0,0,16090,0,0,0,
2026-04-15 19:21:00,SPECI KIOW 151921Z AUTO 14011KT 10SM SCT018 BKN038 OVC075 22/17 A2975 RMK AO2 T02220172,0,11.0,0,16090,0,0,0,
2026-04-15 19:00:00,SPECI KIOW 151900Z AUTO 14011KT 10SM FEW016 BKN026 OVC080 21/17 A2975 RMK AO2 T02110167,0,11.0,0,16090,0,0,0,
2026-04-15 18:52:00,METAR KIOW 151852Z AUTO 15011KT 10SM FEW017 SCT022 OVC030 20/16 A2976 RMK AO2 SLP075 T02000161 $,0,11.0,0,16090,0,0,0,
2026-04-15 18:41:00,SPECI KIOW 151841Z AUTO 16010KT 10SM SCT017 BKN024 OVC049 19/16 A2977 RMK AO2 T01940161 $,0,10.0,0,16090,0,0,0,
2026-04-15 17:52:00,METAR KIOW 151752Z AUTO 12009KT 10SM BKN046 OVC065 18/16 A2978 RMK AO2 RAE10 SLP081 P0000 60029 T01830161 10183 20161 58012 $,0,9.0,0,16090,0,0,0,
2026-04-15 17:24:00,SPECI KIOW 151724Z AUTO 08005KT 10SM FEW007 OVC070 18/16 A2980 RMK AO2 RAE10 P0000 T01780161,0,5.0,0,16090,0,0,0,
2026-04-15 17:09:00,SPECI KIOW 151709Z AUTO 12003KT 10SM VCTS -RA FEW008 SCT047 OVC065 17/16 A2981 RMK AO2 P0000 T01720156,0,3.0,0,16090,1,0,0,"-RA,TS,VC"
2026-04-15 16:52:00,METAR KIOW 151652Z AUTO 14005KT 10SM -RA SCT043 BKN050 OVC070 17/16 A2981 RMK AO2 LTG DSNT E SLP090 P0008 T01720156,0,5.0,0,16090,0,0,0,"-RA,DS"
2026-04-15 15:52:00,METAR KIOW 151552Z AUTO 00000KT 5SM -RA FEW060 OVC095 17/ A2981 RMK AO2 SLP090 P0016 T0167 $,0,0.0,0,8045,0,0,0,-RA
2026-04-15 15:25:00,SPECI KIOW 151525Z AUTO 20005KT 3SM -RA FEW042 BKN075 OVC095 17/ A2981 RMK AO2 P0013 T0167 $,0,5.0,0,4827,0,0,0,-RA
2026-04-15 15:11:00,SPECI KIOW 151511Z AUTO 21005KT 1 3/4SM RA FEW035 BKN075 OVC095 17/ A2981 RMK AO2 P0008 T0167 $,0,5.0,0,2816,0,0,0,RA
2026-04-15 14:52:00,METAR KIOW 151452Z AUTO 21007KT 4SM RA FEW036 BKN070 OVC095 17/ A2982 RMK AO2 SLP093 P0005 60005 T0167 53030 $,0,7.0,0,6436,0,0,0,RA
2026-04-15 13:52:00,METAR KIOW 151352Z AUTO 19005KT 10SM -RA SCT075 BKN100 BKN120 17/ A2978 RMK AO2 RAB39 SLP079 P0000 T0172 $,0,5.0,0,16090,0,0,0,-RA
2026-04-15 12:52:00,METAR KIOW 151252Z AUTO 13004KT 8SM SCT110 17/16 A2975 RMK AO2 SLP071 T01670156,0,4.0,0,12872,0,0,0,
2026-04-15 11:52:00,METAR KIOW 151152Z AUTO 15007KT 9SM BKN110 17/ A2973 RMK AO2 SLP062 60064 70067 T0167 10228 20161 58012 $,0,7.0,0,14481,0,0,0,
2026-04-15 10:52:00,METAR KIOW 151052Z AUTO 24003KT 7SM FEW065 OVC100 17/ A2975 RMK AO2 RAE06 SLP071 P0000 T0167 $,0,3.0,0,11263,0,0,0,
2026-04-15 09:52:00,METAR KIOW 150952Z AUTO 32005KT 7SM -RA SCT070 OVC090 17/ A2977 RMK AO2 TSB0857E12 SLP076 P0005 T0172 $,0,5.0,0,11263,1,0,0,"-RA,TS"
2026-04-15 09:18:00,SPECI KIOW 150918Z AUTO 28004KT 9SM -RA OVC100 18/ A2978 RMK AO2 LTG DSNT E TSB0857E12 P0002 T0178 $,0,4.0,0,14481,1,0,0,"-RA,DS,TS"
2026-04-15 09:03:00,SPECI KIOW 150903Z AUTO 27008G17KT 10SM -TSRA FEW055 FEW075 OVC100 18/ A2977 RMK AO2 LTG DSNT E-S TSB0857 P0001 T0178 $,0,8.0,1,16090,1,0,0,"DS,RA,TS"
2026-04-15 08:52:00,METAR KIOW 150852Z AUTO 28015G21KT 10SM -RA SCT055 SCT070 BKN090 17/ A2976 RMK AO2 PK WND 26032/0820 LTG DSNT E-S TSE09B13E28 SLP073 P0006 60059 T0172 53017 $,0,15.0,1,16090,1,0,0,"-RA,DS,TS"
2026-04-15 08:34:00,SPECI KIOW 150834Z AUTO 26018KT 8SM -RA FEW055 SCT070 OVC090 17/ A2975 RMK AO2 PK WND 26032/0820 LTG DSNT ALQDS TSE09B13E28 P0006 T0172 $,0,18.0,0,12872,1,0,0,"-RA,DS,TS"
2026-04-15 07:59:00,SPECI KIOW 150759Z AUTO 24013G22KT 9SM -TSRA BKN080 OVC095 17/ A2973 RMK AO2 LTG DSNT ALQDS P0000 T0172 $,0,13.0,1,14481,1,0,0,"DS,RA"
2026-04-15 07:52:00,METAR KIOW 150752Z AUTO 22011G19KT 2 1/2SM TSRA BKN080 OVC095 17/ A2974 RMK AO2 PK WND 25029/0706 VIS 1/2V5 LTG DSNT ALQDS TSE24B26 SLP066 P0038 T0172 $,0,11.0,1,4022,1,0,0,"DS,RA,TS"
2026-04-15 07:30:00,SPECI KIOW 150730Z AUTO 26011KT 5SM -TSRA SCT037 OVC090 17/ A2972 RMK AO2 PK WND 25029/0706 LTG DSNT ALQDS TSE24B26 P0035 T0167 $,0,11.0,0,8045,1,0,0,"DS,RA,TS"
2026-04-15 07:20:00,SPECI KIOW 150720Z AUTO 27010KT 2SM +TSRA BKN034 BKN075 OVC085 17/ A2973 RMK AO2 PK WND 25029/0706 VIS 1 1/2V3 LTG DSNT ALQDS P0032 T0167 $,0,10.0,0,3218,1,0,0,"DS,RA"
2026-04-15 07:10:00,SPECI KIOW 150710Z AUTO 25014G29KT 5SM +TSRA SCT036 BKN070 OVC085 18/ A2974 RMK AO2 PK WND 25029/0706 LTG DSNT ALQDS P0017 T0178 $,0,14.0,1,8045,1,0,0,"DS,RA"
2026-04-15 06:50:00,METAR KIOW 150650Z AUTO 29005KT 2SM -TSRA FEW036 OVC070 17/ A2971 RMK AO2 WSHFT 0546 LTG DSNT ALQDS RAB0553E03B29 TSE01B44 SLP055 P0015 T0172 $,0,5.0,0,3218,1,0,0,"DS,RA,TS"
2026-04-15 06:49:00,SPECI KIOW 150649Z AUTO 28005KT 2 1/2SM -TSRA FEW039 OVC070 17/ A2971 RMK AO2 WSHFT 0546 LTG DSNT ALQDS RAB0553E03B29 TSE01B44 P0014 $,0,5.0,0,4022,1,0,0,"DS,RA,TS"
2026-04-15 06:01:00,SPECI KIOW 150601Z AUTO 31011G30KT 10SM VCTS -RA FEW033 BKN055 BKN080 22/14 A2973 RMK AO2 WSHFT 0546 LTG DSNT W-NE RAB0553 TSE01 P0000 T02170139,0,11.0,1,16090,1,0,0,"-RA,DS,RA,TS,VC"
2026-04-15 05:52:00,METAR KIOW 150552Z AUTO 30024G33KT 10SM TS FEW035 SCT043 SCT055 23/16 A2971 RMK AO2 PK WND 30033/0551 LTG DSNT W-NE TSB41 PRESRR SLP054 60001 T02280156 10261 20228 402940189 53012,0,24.0,1,16090,1,0,0,"DS,TS"
2026-04-15 05:41:00,SPECI KIOW 150541Z AUTO 24005KT 10SM TS CLR 23/18 A2967 RMK AO2 LTG DSNT W-NE TSB41 T02330178,0,5.0,0,16090,1,0,0,"DS,TS"
2026-04-15 04:52:00,METAR KIOW 150452Z AUTO 21009KT 10SM CLR 24/18 A2965 RMK AO2 LTG DSNT NW-NE SLP035 T02440183,0,9.0,0,16090,0,0,0,DS
2026-04-15 03:52:00,METAR KIOW 150352Z AUTO 21013KT 10SM CLR 25/18 A2967 RMK AO2 SLP041 T02500183,0,13.0,0,16090,0,0,0,
2026-04-15 02:52:00,METAR KIOW 150252Z AUTO 21012G20KT 10SM CLR 25/18 A2967 RMK AO2 SLP042 60001 T02500178 53023,0,12.0,1,16090,0,0,0,
2026-04-15 01:52:00,METAR KIOW 150152Z AUTO 22007KT 10SM CLR 24/18 A2965 RMK AO2 SLP034 T02440183,0,7.0,0,16090,0,0,0,
2026-04-15 00:52:00,METAR KIOW 150052Z AUTO 22009G18KT 10SM CLR 26/18 A2962 RMK AO2 RAE2353 SLP027 P0001 T02560178,0,9.0,1,16090,0,0,0,RA
2026-04-14 23:52:00,METAR KIOW 142352Z AUTO 22014G23KT 10SM -RA FEW039 FEW070 SCT085 26/19 A2960 RMK AO2 PK WND 19035/2310 LTG DSNT NE-S RAB11E23B43 TSB08E32 SLP019 P0002 60002 T02560189 10294 20256 55021,0,14.0,1,16090,1,0,0,"-RA,DS,RA,TS"
2026-04-14 23:35:00,SPECI KIOW 142335Z AUTO 22014G23KT 10SM CLR 27/19 A2961 RMK AO2 PK WND 19035/2310 LTG DSNT N AND NE AND S RAB11E23 TSB08E32 P0002 T02670189,0,14.0,1,16090,1,0,0,"DS,RA,TS"
2026-04-14 23:14:00,SPECI KIOW 142314Z AUTO 21018G35KT 6SM -TSRA FEW027 FEW055 SCT075 27/19 A2961 RMK AO2 PK WND 19035/2310 LTG DSNT ALQDS RAB11 TSB08 P0002 T02720189,0,18.0,1,9654,1,0,0,"DS,RA"
2026-04-14 23:04:00,SPECI KIOW 142304Z AUTO 19018G28KT 10SM VCTS FEW075 29/18 A2960 RMK AO2 PK WND 20028/2257 LTG DSNT ALQDS T02890178,0,18.0,1,16090,1,0,0,"DS,TS,VC"
2026-04-14 22:52:00,METAR KIOW 142252Z AUTO 19017G25KT 10SM CLR 29/18 A2960 RMK AO2 PK WND 20028/2229 LTG DSNT SW-N SLP016 T02940178,0,17.0,1,16090,0,0,0,DS
2026-04-14 21:52:00,METAR KIOW 142152Z AUTO 19017G27KT 10SM FEW055 29/18 A2963 RMK AO2 PK WND 19028/2140 SLP027 T02940178,0,17.0,1,16090,0,0,0,
2026-04-14 20:52:00,METAR KIOW 142052Z AUTO 20016G23KT 10SM SCT046 SCT050 29/18 A2967 RMK AO2 PK WND 21026/2031 SLP040 T02940178 58018,0,16.0,1,16090,0,0,0,
2026-04-14 19:52:00,METAR KIOW 141952Z AUTO 20011KT 10SM SCT037 BKN047 28/18 A2969 RMK AO2 SLP048 T02830183,0,11.0,0,16090,0,0,0,
2026-04-14 18:52:00,METAR KIOW 141852Z AUTO 21010KT 10SM SCT035 SCT044 BKN050 28/19 A2970 RMK AO2 SLP052 T02830189,0,10.0,0,16090,0,0,0,
2026-04-14 18:09:00,SPECI KIOW 141809Z AUTO 21013G21KT 10SM SCT028 BKN049 27/19 A2972 RMK AO2 T02720189,0,13.0,1,16090,0,0,0,
2026-04-14 17:52:00,METAR KIOW 141752Z AUTO 19013G21KT 10SM BKN029 BKN042 27/19 A2972 RMK AO2 SLP059 T02670189 10272 20189 58012,0,13.0,1,16090,0,0,0,
2026-04-14 17:06:00,SPECI KIOW 141706Z AUTO 20013G20KT 10SM SCT025 26/19 A2974 RMK AO2 T02610189,0,13.0,1,16090,0,0,0,
2026-04-14 16:52:00,METAR KIOW 141652Z AUTO 20012KT 10SM BKN024 BKN045 26/19 A2975 RMK AO2 SLP068 T02610189,0,12.0,0,16090,0,0,0,
2026-04-14 16:47:00,SPECI KIOW 141647Z AUTO 21015G21KT 10SM BKN024 BKN045 27/19 A2975 RMK AO2,0,15.0,1,16090,0,0,0,
2026-04-14 15:52:00,METAR KIOW 141552Z AUTO 21012G19KT 10SM FEW024 BKN037 24/18 A2976 RMK AO2 SLP072 T02440183,0,12.0,1,16090,0,0,0,
2026-04-14 14:52:00,METAR KIOW 141452Z AUTO 20009KT 10SM FEW030 24/18 A2976 RMK AO2 SLP071 T02440183 58001,0,9.0,0,16090,0,0,0,
2026-04-14 14:44:00,SPECI KIOW 141444Z AUTO 21009KT 10SM SCT030 24/18 A2976 RMK AO2 T02390178,0,9.0,0,16090,0,0,0,
2026-04-14 13:52:00,METAR KIOW 141352Z AUTO 20009KT 10SM OVC023 22/17 A2977 RMK AO2 SLP076 T02170167,0,9.0,0,16090,0,0,0,
2026-04-14 12:52:00,METAR KIOW 141252Z AUTO 20006KT 10SM OVC024 21/16 A2976 RMK AO2 SLP074 T02060156,0,6.0,0,16090,0,0,0,
2026-04-14 11:52:00,METAR KIOW 141152Z AUTO 22006KT 10SM BKN025 19/14 A2976 RMK AO2 SLP072 60000 T01940139 10222 20189 53006,0,6.0,0,16090,0,0,0,
2026-04-14 11:23:00,SPECI KIOW 141123Z AUTO 21005KT 10SM BKN027 19/14 A2975 RMK AO2 T01890139,0,5.0,0,16090,0,0,0,
2026-04-14 10:52:00,METAR KIOW 141052Z AUTO 20008KT 10SM CLR 19/14 A2974 RMK AO2 SLP066 T01940144,0,8.0,0,16090,0,0,0,
2026-04-14 09:52:00,METAR KIOW 140952Z AUTO 21010KT 10SM CLR 20/14 A2974 RMK AO2 SLP066 T02000144,0,10.0,0,16090,0,0,0,
2026-04-14 08:52:00,METAR KIOW 140852Z AUTO 22008KT 10SM FEW050 FEW075 21/14 A2974 RMK AO2 RAB31E44 TSB13E28 SLP065 P0000 60000 T02060144 51011,0,8.0,0,16090,1,0,0,"RA,TS"
2026-04-14 08:34:00,SPECI KIOW 140834Z AUTO 22008KT 10SM -RA FEW050 SCT075 21/14 A2974 RMK AO2 RAB31 TSB13E28 P0000 T02110144,0,8.0,0,16090,1,0,0,"-RA,TS"
2026-04-14 08:19:00,SPECI KIOW 140819Z AUTO 22008KT 10SM TS FEW050 FEW060 SCT075 22/14 A2974 RMK AO2 TSB13 T02170144,0,8.0,0,16090,1,0,0,TS
2026-04-14 07:52:00,METAR KIOW 140752Z AUTO 23008KT 10SM CLR 21/15 A2973 RMK AO2 LTG DSNT W SLP064 T02110150,0,8.0,0,16090,0,0,0,DS
2026-04-14 06:52:00,METAR KIOW 140652Z AUTO 21008KT 10SM CLR 22/17 A2972 RMK AO2 SLP058 T02170167,0,8.0,0,16090,0,0,0,
2026-04-14 05:52:00,METAR KIOW 140552Z AUTO 20008KT 10SM CLR 22/17 A2971 RMK AO2 SLP054 T02220167 10261 20222 402780122 55002,0,8.0,0,16090,0,0,0,
2026-04-14 04:52:00,METAR KIOW 140452Z AUTO 20011KT 10SM CLR 23/17 A2970 RMK AO2 SLP053 T02280167,0,11.0,0,16090,0,0,0,
2026-04-14 03:52:00,METAR KIOW 140352Z AUTO 20014G20KT 10SM CLR 23/17 A2971 RMK AO2 SLP055 T02330167,0,14.0,1,16090,0,0,0,
2026-04-14 02:52:00,METAR KIOW 140252Z AUTO 19011KT 10SM CLR 23/17 A2971 RMK AO2 SLP057 T02330167 53000,0,11.0,0,16090,0,0,0,
2026-04-14 01:52:00,METAR KIOW 140152Z AUTO 18010KT 10SM CLR 23/17 A2969 RMK AO2 SLP049 T02330172,0,10.0,0,16090,0,0,0,
2026-04-14 00:52:00,METAR KIOW 140052Z AUTO 19009KT 10SM CLR 24/17 A2970 RMK AO2 SLP052 T02440172,0,9.0,0,16090,0,0,0,
2026-04-13 23:52:00,METAR KIOW 132352Z AUTO 19011KT 10SM FEW046 26/17 A2971 RMK AO2 SLP057 T02560172 10278 20239 56019,0,11.0,0,16090,0,0,0,
2026-04-13 22:52:00,METAR KIOW 132252Z AUTO 19013G22KT 10SM BKN041 BKN050 27/18 A2973 RMK AO2 SLP063 T02670178,0,13.0,1,16090,0,0,0,
2026-04-13 21:52:00,METAR KIOW 132152Z AUTO 16013KT 10SM FEW035 SCT044 26/19 A2975 RMK AO2 SLP069 T02610189,0,13.0,0,16090,0,0,0,
2026-04-13 20:52:00,METAR KIOW 132052Z AUTO 18015G22KT 10SM SCT030 BKN037 BKN049 26/19 A2977 RMK AO2 PRESFR SLP077 T02610189 56025,0,15.0,1,16090,0,0,0,
2026-04-13 19:52:00,METAR KIOW 131952Z AUTO 17015G27KT 10SM SCT028 BKN039 25/18 A2980 RMK AO2 PK WND 17027/1945 SLP087 T02500183,0,15.0,1,16090,0,0,0,
2026-04-13 18:52:00,METAR KIOW 131852Z AUTO 18013G19KT 10SM SCT027 BKN036 BKN043 25/18 A2981 RMK AO2 SLP092 T02500178,0,13.0,1,16090,0,0,0,
2026-04-13 17:52:00,METAR KIOW 131752Z AUTO 18012G20KT 10SM OVC042 24/18 A2985 RMK AO2 SLP103 T02390178 10244 20150 58009,0,12.0,1,16090,0,0,0,
2026-04-13 17:07:00,SPECI KIOW 131707Z AUTO 19012KT 10SM FEW024 SCT029 OVC041 24/18 A2985 RMK AO2 T02440183,0,12.0,0,16090,0,0,0,
2026-04-13 16:52:00,METAR KIOW 131652Z AUTO 21012KT 10SM BKN024 OVC033 24/18 A2986 RMK AO2 SLP108 T02390183,0,12.0,0,16090,0,0,0,
2026-04-13 15:52:00,METAR KIOW 131552Z AUTO 19010KT 10SM OVC021 23/18 A2986 RMK AO2 LTG DSNT NE SLP110 T02280183,0,10.0,0,16090,0,0,0,DS
2026-04-13 15:21:00,SPECI KIOW 131521Z AUTO 18010KT 10SM BKN019 23/18 A2987 RMK AO2 T02280183,0,10.0,0,16090,0,0,0,
2026-04-13 15:08:00,SPECI KIOW 131508Z AUTO 18008KT 10SM FEW013 SCT019 22/18 A2987 RMK AO2 T02220183,0,8.0,0,16090,0,0,0,
2026-04-13 14:52:00,METAR KIOW 131452Z AUTO 16009KT 10SM SCT011 BKN019 22/18 A2987 RMK AO2 SLP113 T02170183 51003,0,9.0,0,16090,0,0,0,
2026-04-13 14:01:00,SPECI KIOW 131401Z AUTO 14007KT 4SM BR CLR 19/17 A2987 RMK AO2 T01940172,0,7.0,0,6436,0,0,1,BR
2026-04-13 13:52:00,METAR KIOW 131352Z AUTO 14008KT 2 1/2SM BR CLR 19/17 A2987 RMK AO2 SLP113 T01890172,0,8.0,0,4022,0,0,1,BR
2026-04-13 13:44:00,SPECI KIOW 131344Z AUTO 14007KT 1 1/2SM BR CLR 18/ A2987 RMK AO2 T0183,0,7.0,0,2414,0,0,1,BR
2026-04-13 13:24:00,SPECI KIOW 131324Z AUTO 14005KT 1SM BR CLR 17/ A2988 RMK AO2 T0172 $,0,5.0,0,1609,0,0,1,BR
2026-04-13 13:09:00,SPECI KIOW 131309Z AUTO 14004KT 1 1/4SM BR SCT020 17/ A2988 RMK AO2 T0167 $,0,4.0,0,2011,0,0,1,BR
2026-04-13 12:52:00,METAR KIOW 131252Z AUTO 15005KT 1/2SM FG OVC018 16/ A2987 RMK AO2 SLP114 T0161 $,0,5.0,0,804,0,0,1,FG
2026-04-13 12:45:00,SPECI KIOW 131245Z AUTO 15004KT 3/4SM BR OVC016 16/ A2987 RMK AO2 T0161 $,0,4.0,0,1207,0,0,1,BR
2026-04-13 12:41:00,SPECI KIOW 131241Z AUTO 13003KT 1 3/4SM BR OVC016 16/ A2987 RMK AO2 T0156 $,0,3.0,0,2816,0,0,1,BR
2026-04-13 12:22:00,SPECI KIOW 131222Z AUTO 16003KT 4SM HZ OVC015 16/ A2987 RMK AO2 T0156 $,0,3.0,0,6436,0,0,0,
2026-04-13 12:00:00,SPECI KIOW 131200Z AUTO 13004KT 3SM BR OVC014 16/ A2986 RMK AO2 T0156 $,0,4.0,0,4827,0,0,1,BR
2026-04-13 11:57:00,SPECI KIOW 131157Z AUTO 12004KT 1 1/2SM BR OVC014 16/ A2986 RMK AO2 T0156 $,0,4.0,0,2414,0,0,1,BR
2026-04-13 11:52:00,METAR KIOW 131152Z AUTO 11003KT 1/2SM FG OVC014 15/ A2986 RMK AO2 SLP111 70031 T0150 10178 20122 51011 $,0,3.0,0,804,0,0,1,FG
2026-04-13 11:48:00,SPECI KIOW 131148Z AUTO 12003KT 1/2SM FG OVC014 14/ A2986 RMK AO2 $,0,3.0,0,804,0,0,1,FG
2026-04-13 11:28:00,SPECI KIOW 131128Z AUTO 17003KT 1/2SM FG FEW002 OVC015 14/ A2985 RMK AO2 T0139 $,0,3.0,0,804,0,0,1,FG
2026-04-13 11:20:00,SPECI KIOW 131120Z AUTO 15004KT 1/4SM FG SCT002 OVC015 14/ A2985 RMK AO2 T0144 $,0,4.0,0,402,0,0,1,FG
2026-04-13 10:52:00,METAR KIOW 131052Z AUTO 15004KT 1/4SM FG BKN002 OVC015 13/ A2984 RMK AO2 SLP103 T0128 $,0,4.0,0,402,0,0,1,FG
2026-04-13 10:24:00,SPECI KIOW 131024Z AUTO 00000KT 1/4SM FG VV003 14/ A2983 RMK AO2 T0144 $,0,0.0,0,402,0,0,1,FG
2026-04-13 10:01:00,SPECI KIOW 131001Z AUTO 15003KT 1/4SM FG CLR 14/ A2983 RMK AO2 T0144 $,0,3.0,0,402,0,0,1,FG
2026-04-13 09:52:00,METAR KIOW 130952Z AUTO 16003KT 1/2SM FG CLR 15/ A2983 RMK AO2 SLP100 T0150 $,0,3.0,0,804,0,0,1,FG
2026-04-13 09:49:00,SPECI KIOW 130949Z AUTO 16003KT 1 1/2SM BR CLR 15/ A2983 RMK AO2 $,0,3.0,0,2414,0,0,1,BR
2026-04-13 08:52:00,METAR KIOW 130852Z AUTO 20004KT 10SM CLR 17/ A2982 RMK AO2 SLP094 T0167 53005 $,0,4.0,0,16090,0,0,0,
2026-04-13 08:32:00,SPECI KIOW 130832Z AUTO 21005KT 10SM SCT007 17/ A2981 RMK AO2 T0172 $,0,5.0,0,16090,0,0,0,
2026-04-13 07:52:00,METAR KIOW 130752Z AUTO 22008KT 10SM OVC006 18/ A2981 RMK AO2 SLP090 T0178 $,0,8.0,0,16090,0,0,0,
2026-04-13 06:52:00,METAR KIOW 130652Z AUTO 21005KT 10SM OVC007 17/ A2981 RMK AO2 SLP091 T0167 $,0,5.0,0,16090,0,0,0,
2026-04-13 06:04:00,SPECI KIOW 130604Z AUTO 20006KT 10SM BKN008 BKN030 16/ A2980 RMK AO2 T0161 $,0,6.0,0,16090,0,0,0,
2026-04-13 05:52:00,METAR KIOW 130552Z AUTO 20007KT 10SM FEW008 SCT030 17/ A2980 RMK AO2 SLP088 60009 T0167 10178 20161 402390111 53007 $,0,7.0,0,16090,0,0,0,
2026-04-13 05:26:00,SPECI KIOW 130526Z AUTO 20006KT 10SM SCT009 SCT030 16/ A2979 RMK AO2 T0161 $,0,6.0,0,16090,0,0,0,
2026-04-13 05:15:00,SPECI KIOW 130515Z AUTO 20006KT 10SM BKN009 16/ A2979 RMK AO2 T0161 $,0,6.0,0,16090,0,0,0,
2026-04-13 04:52:00,METAR KIOW 130452Z AUTO 19007KT 10SM BKN011 16/ A2979 RMK AO2 SLP085 T0161 $,0,7.0,0,16090,0,0,0,
2026-04-13 03:52:00,METAR KIOW 130352Z AUTO 20005KT 10SM BKN009 16/ A2979 RMK AO2 CIG 008V012 SLP085 T0161 $,0,5.0,0,16090,0,0,0,
2026-04-13 03:41:00,SPECI KIOW 130341Z AUTO 19006KT 10SM BKN009 16/ A2979 RMK AO2 T0161 $,0,6.0,0,16090,0,0,0,
2026-04-13 02:52:00,METAR KIOW 130252Z AUTO 19010KT 10SM OVC011 17/ A2978 RMK AO2 SLP082 60009 T0167 56001 $,0,10.0,0,16090,0,0,0,
2026-04-13 02:19:00,SPECI KIOW 130219Z AUTO 20009KT 10SM OVC013 17/ A2979 RMK AO2 T0167 $,0,9.0,0,16090,0,0,0,
2026-04-13 01:52:00,METAR KIOW 130152Z AUTO 20010KT 10SM BKN017 OVC027 17/ A2978 RMK AO2 SLP082 T0167 $,0,10.0,0,16090,0,0,0,
2026-04-13 01:24:00,SPECI KIOW 130124Z AUTO 20010KT 10SM SCT012 BKN026 OVC038 17/ A2978 RMK AO2 T0167 $,0,10.0,0,16090,0,0,0,
2026-04-13 00:52:00,METAR KIOW 130052Z AUTO 18010KT 10SM FEW009 BKN014 OVC022 17/ A2977 RMK AO2 RAE42 SLP079 P0009 T0167 $,0,10.0,0,16090,0,0,0,
2026-04-13 00:43:00,SPECI KIOW 130043Z AUTO 18012KT 10SM BKN011 BKN023 OVC110 17/ A2977 RMK AO2 RAE42 P0009 T0167 $,0,12.0,0,16090,0,0,0,
2026-04-13 00:31:00,SPECI KIOW 130031Z AUTO 19010G18KT 7SM -RA BKN009 OVC017 17/ A2977 RMK AO2 P0009 T0172 $,0,10.0,1,11263,0,0,0,-RA
2026-04-13 00:19:00,SPECI KIOW 130019Z AUTO 18014G23KT 4SM RA SCT011 BKN014 OVC038 17/ A2976 RMK AO2 P0008 T0172 $,0,14.0,1,6436,0,0,0,RA
2026-04-13 00:10:00,SPECI KIOW 130010Z AUTO 22007KT 2 1/2SM RA FEW008 BKN013 OVC043 18/ A2978 RMK AO2 P0006 T0178 $,0,7.0,0,4022,0,0,0,RA
2026-04-12 23:58:00,SPECI KIOW 122358Z AUTO 20009KT 2 1/2SM RA BKN014 BKN027 OVC045 18/ A2978 RMK AO2 P0002 T0178 $,0,9.0,0,4022,0,0,0,RA
2026-04-12 23:52:00,METAR KIOW 122352Z AUTO 20009G18KT 3SM RA FEW012 BKN031 OVC045 18/ A2978 RMK AO2 SLP083 P0012 60022 T0178 10239 20178 56004 $,0,9.0,1,4827,0,0,0,RA
2026-04-12 23:42:00,SPECI KIOW 122342Z AUTO 21011KT 3SM RA SCT012 BKN020 OVC041 18/ A2979 RMK AO2 P0009 T0178 $,0,11.0,0,4827,0,0,0,RA
2026-04-12 23:26:00,SPECI KIOW 122326Z AUTO 22007KT 2 1/2SM RA SCT012 BKN024 OVC034 18/ A2978 RMK AO2 P0005 T0178 $,0,7.0,0,4022,0,0,0,RA
2026-04-12 23:10:00,SPECI KIOW 122310Z AUTO 25011G16KT 3SM -RA FEW010 BKN023 OVC030 18/ A2978 RMK AO2 P0002 T0178 $,0,11.0,1,4827,0,0,0,-RA
2026-04-12 22:52:00,METAR KIOW 122252Z AUTO 23005KT 2 1/2SM RA SCT008 BKN026 OVC049 18/ A2979 RMK AO2 SLP085 P0007 T0178 $,0,5.0,0,4022,0,0,0,RA
2026-04-12 22:49:00,SPECI KIOW 122249Z AUTO 23007KT 2 1/2SM -RA FEW008 BKN026 OVC044 18/ A2979 RMK AO2 P0007 $,0,7.0,0,4022,0,0,0,-RA
2026-04-12 22:42:00,SPECI KIOW 122242Z AUTO 24008KT 3SM -RA FEW008 SCT015 OVC044 18/ A2979 RMK AO2 P0005 T0183 $,0,8.0,0,4827,0,0,0,-RA
2026-04-12 22:21:00,SPECI KIOW 122221Z AUTO 25012KT 4SM -RA FEW010 BKN019 OVC042 18/ A2979 RMK AO2 P0003 T0183 $,0,12.0,0,6436,0,0,0,-RA
2026-04-12 21:52:00,METAR KIOW 122152Z AUTO 23008KT 5SM -RA SCT038 OVC050 19/16 A2979 RMK AO2 SLP085 P0002 T01890161 $,0,8.0,0,8045,0,0,0,-RA
2026-04-12 20:52:00,METAR KIOW 122052Z AUTO 22010G20KT 8SM -RA SCT055 BKN070 OVC100 20/16 A2980 RMK AO2 PK WND 21030/2016 RAB19 SLP087 P0001 60001 T02000156 56011 $,0,10.0,1,12872,0,0,0,-RA
2026-04-12 19:52:00,METAR KIOW 121952Z AUTO 21013G26KT 10SM FEW041 SCT085 OVC110 23/14 A2980 RMK AO2 PK WND 21034/1900 SLP089 T02330139 $,0,13.0,1,16090,0,0,0,
2026-04-12 18:52:00,METAR KIOW 121852Z AUTO 21025G36KT 10SM BKN038 OVC060 24/15 A2982 RMK AO2 PK WND 22036/1814 RAB13E22 SLP094 P0000 T02390150 $,0,25.0,1,16090,0,0,0,RA
2026-04-12 17:52:00,METAR KIOW 121752Z AUTO 21019G31KT 10SM FEW038 SCT090 BKN110 24/15 A2983 RMK AO2 PK WND 20032/1715 SLP098 T02390150 10239 20172 58013 $,0,19.0,1,16090,0,0,0,
2026-04-12 16:52:00,METAR KIOW 121652Z AUTO 21021G30KT 10SM FEW110 24/14 A2985 RMK AO2 PK WND 21037/1641 SLP105 T02390144 $,0,21.0,1,16090,0,0,0,
2026-04-12 15:52:00,METAR KIOW 121552Z AUTO 21019G29KT 10SM FEW120 23/14 A2986 RMK AO2 PK WND 21031/1520 SLP109 T02280144 $,0,19.0,1,16090,0,0,0,
2026-04-12 14:52:00,METAR KIOW 121452Z AUTO 20019G25KT 10SM CLR 21/14 A2987 RMK AO2 PK WND 20029/1356 SLP113 T02110144 58010 $,0,19.0,1,16090,0,0,0,
2026-04-12 13:52:00,METAR KIOW 121352Z AUTO 20014G24KT 10SM CLR 20/14 A2989 RMK AO2 SLP119 T02000139 $,0,14.0,1,16090,0,0,0,
2026-04-12 12:52:00,METAR KIOW 121252Z AUTO 18013KT 10SM SCT120 18/13 A2990 RMK AO2 SLP124 T01830133 $,0,13.0,0,16090,0,0,0,
2026-04-12 11:52:00,METAR KIOW 121152Z AUTO 18011KT 10SM OVC110 17/13 A2990 RMK AO2 SLP124 70010 T01720133 10172 20111 56011 $,0,11.0,0,16090,0,0,0,
2026-04-12 10:52:00,METAR KIOW 121052Z AUTO 18009KT 10SM FEW075 17/ A2990 RMK AO2 SLP125 T0167 $,0,9.0,0,16090,0,0,0,
2026-04-12 09:52:00,METAR KIOW 120952Z AUTO 16007KT 10SM OVC110 16/ A2991 RMK AO2 SLP128 T0161 $,0,7.0,0,16090,0,0,0,
2026-04-12 08:52:00,METAR KIOW 120852Z AUTO 17007KT 10SM CLR 16/ A2993 RMK AO2 SLP137 T0156 58023 $,0,7.0,0,16090,0,0,0,
2026-04-12 07:52:00,METAR KIOW 120752Z AUTO 15003KT 9SM CLR 12/ A2996 RMK AO2 SLP145 T0122 $,0,3.0,0,14481,0,0,0,
2026-04-12 06:52:00,METAR KIOW 120652Z AUTO 14005KT 10SM FEW100 12/ A2998 RMK AO2 SLP154 T0122 $,0,5.0,0,16090,0,0,0,
2026-04-12 05:52:00,METAR KIOW 120552Z AUTO 14005KT 10SM CLR 11/08 A3000 RMK AO2 SLP160 T01110078 10122 20106 401280017 58025 $,0,5.0,0,16090,0,0,0,
2026-04-12 04:52:00,METAR KIOW 120452Z AUTO 14005KT 10SM CLR 11/07 A3003 RMK AO2 SLP170 T01060072 $,0,5.0,0,16090,0,0,0,
2026-04-12 03:52:00,METAR KIOW 120352Z AUTO 13007KT 10SM CLR 12/07 A3005 RMK AO2 SLP177 T01170072 $,0,7.0,0,16090,0,0,0,
2026-04-12 02:52:00,METAR KIOW 120252Z AUTO 13006KT 10SM CLR 12/07 A3008 RMK AO2 SLP186 T01170072 58010 $,0,6.0,0,16090,0,0,0,
2026-04-12 01:52:00,METAR KIOW 120152Z AUTO 13006KT 10SM FEW120 11/08 A3009 RMK AO2 SLP192 T01110078 $,0,6.0,0,16090,0,0,0,
2026-04-12 00:52:00,METAR KIOW 120052Z AUTO 12006KT 10SM FEW120 12/08 A3010 RMK AO2 SLP197 T01170078 $,0,6.0,0,16090,0,0,0,
2026-04-11 23:52:00,METAR KIOW 112352Z AUTO 13010KT 10SM FEW022 12/08 A3011 RMK AO2 SLP197 60010 T01220078 10122 20106 58034 $,0,10.0,0,16090,0,0,0,
2026-04-11 23:31:00,SPECI KIOW 112331Z AUTO 12012G23KT 10SM SCT023 12/08 A3011 RMK AO2 T01220078 $,0,12.0,1,16090,0,0,0,
2026-04-11 23:05:00,SPECI KIOW 112305Z AUTO 13012KT 10SM BKN024 BKN080 12/08 A3013 RMK AO2 T01220078 $,0,12.0,0,16090,0,0,0,
2026-04-11 22:52:00,METAR KIOW 112252Z AUTO 13011G19KT 10SM SCT024 BKN080 12/08 A3015 RMK AO2 SLP211 T01220078 $,0,11.0,1,16090,0,0,0,
2026-04-11 22:29:00,SPECI KIOW 112229Z AUTO 13011G22KT 10SM SCT025 BKN085 12/08 A3016 RMK AO2 T01220078 $,0,11.0,1,16090,0,0,0,
2026-04-11 21:52:00,METAR KIOW 112152Z AUTO 13013KT 10SM OVC026 12/ A3019 RMK AO2 SLP228 T0117 $,0,13.0,0,16090,0,0,0,
2026-04-11 20:52:00,METAR KIOW 112052Z AUTO 13013G20KT 10SM OVC023 11/ A3021 RMK AO2 RAE36 SLP233 P0004 60010 T0106 58035 $,0,13.0,1,16090,0,0,0,
2026-04-11 20:40:00,SPECI KIOW 112040Z AUTO 13013G22KT 9SM BKN022 OVC085 11/ A3021 RMK AO2 RAE36 P0004 T0106 $,0,13.0,1,14481,0,0,0,
2026-04-11 20:16:00,SPECI KIOW 112016Z AUTO 13011G20KT 4SM -RA FEW026 BKN070 OVC090 11/08 A3023 RMK AO2 P0003 T01110083 $,0,11.0,1,6436,0,0,0,-RA
2026-04-11 19:52:00,METAR KIOW 111952Z AUTO 12012KT 5SM -RA OVC026 11/08 A3025 RMK AO2 SLP247 P0006 T01110083 $,0,12.0,0,8045,0,0,0,-RA
2026-04-11 18:52:00,METAR KIOW 111852Z AUTO 13011G18KT 7SM -RA OVC026 12/07 A3029 RMK AO2 RAB37 SLP259 P0000 T01170072 $,0,11.0,1,11263,0,0,0,-RA
2026-04-11 18:06:00,SPECI KIOW 111806Z AUTO 14010G18KT 10SM OVC028 12/06 A3030 RMK AO2 T01220056 $,0,10.0,1,16090,0,0,0,
2026-04-11 17:52:00,METAR KIOW 111752Z AUTO 15010G19KT 10SM OVC030 12/06 A3031 RMK AO2 SLP267 T01220056 10128 20033 58017 $,0,10.0,1,16090,0,0,0,
2026-04-11 16:52:00,METAR KIOW 111652Z AUTO 15014G20KT 10SM BKN035 OVC055 12/06 A3033 RMK AO2 SLP275 T01220061 $,0,14.0,1,16090,0,0,0,
2026-04-11 15:52:00,METAR KIOW 111552Z AUTO 14014KT 10SM SCT037 12/06 A3035 RMK AO2 SLP279 T01220056 $,0,14.0,0,16090,0,0,0,
2026-04-11 14:52:00,METAR KIOW 111452Z AUTO 13006KT 10SM CLR 11/06 A3036 RMK AO2 SLP285 T01060061 58005 $,0,6.0,0,16090,0,0,0,
2026-04-11 13:52:00,METAR KIOW 111352Z AUTO 12006KT 10SM OVC100 08/04 A3037 RMK AO2 SLP288 T00830039 $,0,6.0,0,16090,0,0,0,
2026-04-11 12:52:00,METAR KIOW 111252Z AUTO 12006KT 10SM BKN095 06/02 A3037 RMK AO2 SLP288 T00610017 $,0,6.0,0,16090,0,0,0,
2026-04-11 11:52:00,METAR KIOW 111152Z AUTO 00000KT 10SM FEW100 04/ A3038 RMK AO2 SLP290 T0039 10050 20017 53003 $,0,0.0,0,16090,0,0,0,
2026-04-11 10:52:00,METAR KIOW 111052Z AUTO 19003KT 10SM FEW100 03/ A3036 RMK AO2 SLP285 T0028 $,0,3.0,0,16090,0,0,0,
2026-04-11 09:52:00,METAR KIOW 110952Z AUTO 00000KT 10SM CLR 03/ A3035 RMK AO2 SLP282 T0028 $,0,0.0,0,16090,0,0,0,
2026-04-11 08:52:00,METAR KIOW 110852Z AUTO 00000KT 10SM CLR 03/ A3037 RMK AO2 SLP287 T0028 50000 $,0,0.0,0,16090,0,0,0,
2026-04-11 07:52:00,METAR KIOW 110752Z AUTO 00000KT 10SM CLR 03/ A3037 RMK AO2 SLP288 T0033 $,0,0.0,0,16090,0,0,0,
2026-04-11 06:52:00,METAR KIOW 110652Z AUTO 04003KT 10SM CLR 04/ A3038 RMK AO2 SLP290 T0044 $,0,3.0,0,16090,0,0,0,
2026-04-11 05:52:00,METAR KIOW 110552Z AUTO 00000KT 10SM CLR 04/01 A3037 RMK AO2 SLP287 T00440006 10122 20039 401440039 55006,0,0.0,0,16090,0,0,0,
2026-04-11 04:52:00,METAR KIOW 110452Z AUTO 00000KT 10SM CLR 04/01 A3036 RMK AO2 SLP285 T00440006,0,0.0,0,16090,0,0,0,
2026-04-11 03:52:00,METAR KIOW 110352Z AUTO 00000KT 10SM CLR 06/01 A3037 RMK AO2 SLP287 T00610006,0,0.0,0,16090,0,0,0,
2026-04-11 02:52:00,METAR KIOW 110252Z AUTO 00000KT 10SM CLR 07/01 A3039 RMK AO2 SLP293 T00720006 53013,0,0.0,0,16090,0,0,0,
2026-04-11 01:52:00,METAR KIOW 110152Z AUTO 00000KT 10SM CLR 08/00 A3038 RMK AO2 SLP289 T00780000,0,0.0,0,16090,0,0,0,
2026-04-11 00:52:00,METAR KIOW 110052Z AUTO 36006KT 10SM CLR 11/M01 A3036 RMK AO2 SLP282 T01061011,0,6.0,0,16090,0,0,0,
2026-04-10 23:52:00,METAR KIOW 102352Z AUTO 03008KT 10SM CLR 12/M01 A3035 RMK AO2 SLP279 T01221006 10144 20111 50001,0,8.0,0,16090,0,0,0,
2026-04-10 22:52:00,METAR KIOW 102252Z AUTO 33008KT 10SM CLR 14/M01 A3036 RMK AO2 SLP281 T01391011,0,8.0,0,16090,0,0,0,
2026-04-10 21:52:00,METAR KIOW 102152Z AUTO 02011G15KT 10SM CLR 14/01 A3035 RMK AO2 SLP278 T01390006,0,11.0,1,16090,0,0,0,
2026-04-10 20:52:00,METAR KIOW 102052Z AUTO 31008G17KT 10SM CLR 14/01 A3035 RMK AO2 SLP278 T01390011 58003,0,8.0,1,16090,0,0,0,
2026-04-10 19:52:00,METAR KIOW 101952Z AUTO 31008G17KT 10SM CLR 13/03 A3035 RMK AO2 SLP278 T01330028,0,8.0,1,16090,0,0,0,
2026-04-10 18:52:00,METAR KIOW 101852Z AUTO 32010G16KT 10SM SCT030 12/03 A3036 RMK AO2 SLP283 T01220033,0,10.0,1,16090,0,0,0,
2026-04-10 18:29:00,SPECI KIOW 101829Z AUTO 32006G16KT 10SM SCT027 12/03 A3036 RMK AO2 T01220033,0,6.0,1,16090,0,0,0,
2026-04-10 17:52:00,METAR KIOW 101752Z AUTO 32012KT 10SM BKN026 12/04 A3035 RMK AO2 SLP281 T01220039 10122 20078 51019,0,12.0,0,16090,0,0,0,
2026-04-10 16:52:00,METAR KIOW 101652Z AUTO 33009KT 10SM BKN024 11/03 A3034 RMK AO2 SLP278 T01110033,0,9.0,0,16090,0,0,0,
2026-04-10 16:45:00,SPECI KIOW 101645Z AUTO 33011KT 10SM BKN024 11/04 A3034 RMK AO2 T01110039,0,11.0,0,16090,0,0,0,
2026-04-10 15:52:00,METAR KIOW 101552Z AUTO 35009KT 10SM FEW020 11/04 A3032 RMK AO2 SLP270 T01060039,0,9.0,0,16090,0,0,0,
2026-04-10 14:52:00,METAR KIOW 101452Z AUTO 34010KT 10SM FEW015 09/04 A3030 RMK AO2 SLP262 T00940039 53006,0,10.0,0,16090,0,0,0,
2026-04-10 13:52:00,METAR KIOW 101352Z AUTO 35013KT 10SM FEW014 BKN039 08/04 A3029 RMK AO2 SLP260 T00780044,0,13.0,0,16090,0,0,0,
2026-04-10 13:49:00,SPECI KIOW 101349Z AUTO 35013KT 10SM SCT014 BKN039 08/04 A3029 RMK AO2 $,0,13.0,0,16090,0,0,0,
2026-04-10 13:26:00,SPECI KIOW 101326Z AUTO 34013KT 10SM BKN014 OVC050 08/05 A3028 RMK AO2 T00780050 $,0,13.0,0,16090,0,0,0,
2026-04-10 13:17:00,SPECI KIOW 101317Z AUTO 35010KT 10SM SCT014 BKN027 OVC050 08/05 A3028 RMK AO2 T00780050,0,10.0,0,16090,0,0,0,
2026-04-10 13:09:00,SPECI KIOW 101309Z AUTO 36009KT 10SM FEW014 SCT027 OVC050 08/05 A3027 RMK AO2 T00780050,0,9.0,0,16090,0,0,0,
2026-04-10 13:01:00,SPECI KIOW 101301Z AUTO 34010KT 10SM FEW014 BKN026 OVC049 08/05 A3028 RMK AO2 T00780050,0,10.0,0,16090,0,0,0,
2026-04-10 12:52:00,METAR KIOW 101252Z AUTO 33008KT 10SM SCT026 OVC049 08/05 A3028 RMK AO2 SLP257 T00780050,0,8.0,0,16090,0,0,0,
2026-04-10 12:23:00,SPECI KIOW 101223Z AUTO 33007KT 10SM SCT011 OVC047 08/ A3026 RMK AO2 T0078,0,7.0,0,16090,0,0,0,
2026-04-10 12:00:00,SPECI KIOW 101200Z AUTO 35007KT 10SM BKN010 OVC046 08/ A3024 RMK AO2 CIG 007V012 T0078 $,0,7.0,0,16090,0,0,0,
2026-04-10 11:52:00,METAR KIOW 101152Z AUTO 34009G16KT 10SM OVC008 08/ A3024 RMK AO2 CIG 007V012 SLP241 60007 70134 T0078 10094 20078 51030 $,0,9.0,1,16090,0,0,0,
2026-04-10 10:52:00,METAR KIOW 101052Z AUTO 35008KT 10SM BKN009 OVC027 08/ A3021 RMK AO2 RAE15 SLP233 P0001 T0078 $,0,8.0,0,16090,0,0,0,
2026-04-10 10:12:00,SPECI KIOW 101012Z AUTO 02007KT 6SM -RA SCT007 BKN025 OVC039 08/ A3019 RMK AO2 P0001 T0078 $,0,7.0,0,9654,0,0,0,-RA
2026-04-10 09:52:00,METAR KIOW 100952Z AUTO 36010KT 4SM -RA BKN008 OVC027 08/ A3019 RMK AO2 SLP224 P0001 T0078 $,0,10.0,0,6436,0,0,0,-RA
2026-04-10 09:32:00,SPECI KIOW 100932Z AUTO 36010KT 4SM -RA OVC010 08/ A3018 RMK AO2 P0001 T0078 $,0,10.0,0,6436,0,0,0,-RA
2026-04-10 08:52:00,METAR KIOW 100852Z AUTO 36010KT 3SM -RA BKN008 OVC014 08/ A3015 RMK AO2 RAB29 SLP210 P0000 60005 T0083 53015 $,0,10.0,0,4827,0,0,0,-RA
2026-04-10 08:31:00,SPECI KIOW 100831Z AUTO 36010KT 4SM -RA OVC009 09/ A3013 RMK AO2 RAB29 CIG 007V013 P0000 T0089 $,0,10.0,0,6436,0,0,0,-RA
2026-04-10 07:52:00,METAR KIOW 100752Z AUTO 01009KT 10SM BKN010 OVC014 09/ A3012 RMK AO2 CIG 008V012 SLP201 T0094 $,0,9.0,0,16090,0,0,0,
2026-04-10 06:52:00,METAR KIOW 100652Z AUTO 02008KT 10SM OVC007 09/ A3010 RMK AO2 RAE26 SLP194 P0005 T0094 $,0,8.0,0,16090,0,0,0,
2026-04-10 06:04:00,SPECI KIOW 100604Z AUTO 02007KT 4SM RA OVC006 09/ A3010 RMK AO2 CIG 004V009 P0003 T0094 $,0,7.0,0,6436,0,0,0,RA
2026-04-10 05:52:00,METAR KIOW 100552Z AUTO 01006KT 9SM -RA OVC005 10/ A3010 RMK AO2 SLP193 P0012 60108 T0100 10106 20094 401720078 55006 $,0,6.0,0,14481,0,0,0,-RA
2026-04-10 05:14:00,SPECI KIOW 100514Z AUTO 33008KT 4SM -RA OVC003 10/ A3011 RMK AO2 LTG DSNT S P0009 T0100 $,0,8.0,0,6436,0,0,0,"-RA,DS"
2026-04-10 05:05:00,SPECI KIOW 100505Z AUTO 34007KT 2 1/2SM RA OVC003 10/ A3010 RMK AO2 P0007 T0100 $,0,7.0,0,4022,0,0,0,RA
2026-04-10 04:52:00,METAR KIOW 100452Z AUTO 05003KT 4SM RA BKN003 OVC047 10/ A3010 RMK AO2 SLP192 P0027 T0100 $,0,3.0,0,6436,0,0,0,RA
2026-04-10 04:47:00,SPECI KIOW 100447Z AUTO 10006KT 5SM RA BKN003 OVC049 10/ A3010 RMK AO2 P0026 $,0,6.0,0,8045,0,0,0,RA
2026-04-10 04:38:00,SPECI KIOW 100438Z AUTO VRB04KT 4SM RA SCT003 BKN012 OVC070 10/ A3010 RMK AO2 LTG DSNT S P0024 T0100 $,0,4.0,0,6436,0,0,0,"DS,RA"
2026-04-10 04:25:00,SPECI KIOW 100425Z AUTO 10007KT 2 1/2SM +RA FEW005 BKN050 OVC080 09/ A3010 RMK AO2 LTG DSNT S PRESFR P0020 T0094 $,0,7.0,0,4022,0,1,0,"+RA,DS"
2026-04-10 04:17:00,SPECI KIOW 100417Z AUTO 13005KT 3SM +RA SCT048 BKN065 OVC080 09/ A3012 RMK AO2 LTG DSNT S P0013 T0094 $,0,5.0,0,4827,0,1,0,"+RA,DS"
2026-04-10 04:02:00,SPECI KIOW 100402Z AUTO 13006KT 3SM VCTS RA BKN048 BKN055 OVC065 09/ A3012 RMK AO2 P0005 T0094 $,0,6.0,0,4827,1,0,0,"RA,TS,VC"
2026-04-10 03:52:00,METAR KIOW 100352Z AUTO 14006KT 4SM RA BKN046 OVC055 09/ A3012 RMK AO2 SLP200 P0032 T0094 $,0,6.0,0,6436,0,0,0,RA
2026-04-10 03:38:00,SPECI KIOW 100338Z AUTO 09004KT 4SM +RA BKN046 OVC055 09/ A3012 RMK AO2 LTG DSNT SW P0026 T0094 $,0,4.0,0,6436,0,1,0,"+RA,DS"
2026-04-10 03:27:00,SPECI KIOW 100327Z AUTO 12003KT 2 1/2SM +RA SCT048 OVC060 09/ A3011 RMK AO2 LTG DSNT SW P0020 T0094 $,0,3.0,0,4022,0,1,0,"+RA,DS"
2026-04-10 03:01:00,SPECI KIOW 100301Z AUTO 07005KT 3SM +RA SCT049 BKN060 OVC070 09/ A3012 RMK AO2 P0004 T0094 $,0,5.0,0,4827,0,1,0,+RA
2026-04-10 02:52:00,METAR KIOW 100252Z AUTO 05005KT 2 1/2SM +RA FEW011 BKN049 OVC060 09/ A3012 RMK AO2 SLP202 P0026 60037 T0094 53006 $,0,5.0,0,4022,0,1,0,+RA
2026-04-10 02:41:00,SPECI KIOW 100241Z AUTO 04005KT 3SM +RA SCT011 BKN039 OVC060 09/ A3013 RMK AO2 P0020 T0094 $,0,5.0,0,4827,0,1,0,+RA
2026-04-10 02:33:00,SPECI KIOW 100233Z AUTO 04006KT 2SM +RA SCT009 BKN015 OVC055 09/ A3012 RMK AO2 P0016 T0094 $,0,6.0,0,3218,0,1,0,+RA
2026-04-10 02:18:00,SPECI KIOW 100218Z AUTO VRB05G16KT 2 1/2SM +RA FEW009 BKN041 OVC065 09/ A3014 RMK AO2 P0008 T0094 $,0,5.0,1,4022,0,1,0,+RA
2026-04-10 01:52:00,METAR KIOW 100152Z AUTO 01008KT 7SM -RA SCT065 OVC080 10/ A3009 RMK AO2 SLP190 P0006 T0100 $,0,8.0,0,11263,0,0,0,-RA
2026-04-10 00:52:00,METAR KIOW 100052Z AUTO 04006KT 7SM RA OVC080 10/ A3008 RMK AO2 SLP189 P0005 T0100 $,0,6.0,0,11263,0,0,0,RA
2026-04-09 23:52:00,METAR KIOW 092352Z AUTO 05006KT 8SM -RA OVC090 11/07 A3010 RMK AO2 SLP195 P0005 60019 T01060072 10167 20106 58022 $,0,6.0,0,12872,0,0,0,-RA
2026-04-09 22:52:00,METAR KIOW 092252Z AUTO 03005KT 10SM -RA FEW070 OVC085 11/07 A3014 RMK AO2 SLP208 P0002 T01110072 $,0,5.0,0,16090,0,0,0,-RA
2026-04-09 21:52:00,METAR KIOW 092152Z AUTO VRB03KT 7SM -RA OVC080 12/08 A3016 RMK AO2 SLP216 P0009 T01170078 $,0,3.0,0,11263,0,0,0,-RA
2026-04-09 21:23:00,SPECI KIOW 092123Z AUTO 29003KT 3SM -RA OVC080 12/07 A3016 RMK AO2 P0008 T01220072 $,0,3.0,0,4827,0,0,0,-RA
2026-04-09 21:15:00,SPECI KIOW 092115Z AUTO 30003KT 2 1/2SM -RA BKN075 OVC085 12/08 A3016 RMK AO2 P0006 T01220078 $,0,3.0,0,4022,0,0,0,-RA
2026-04-09 21:08:00,SPECI KIOW 092108Z AUTO 27003KT 1 3/4SM RA OVC080 13/07 A3017 RMK AO2 P0005 T01280067 $,0,3.0,0,2816,0,0,0,RA
2026-04-09 20:52:00,METAR KIOW 092052Z AUTO 23005KT 4SM RA OVC080 14/05 A3017 RMK AO2 RAB30 SLP217 P0003 60003 T01390050 55001 $,0,5.0,0,6436,0,0,0,RA
2026-04-09 19:52:00,METAR KIOW 091952Z AUTO 00000KT 10SM BKN090 BKN110 16/M01 A3013 RMK AO2 SLP205 T01611006 $,0,0.0,0,16090,0,0,0,
2026-04-09 18:52:00,METAR KIOW 091852Z AUTO 00000KT 10SM CLR 17/M02 A3016 RMK AO2 SLP214 T01671017 $,0,0.0,0,16090,0,0,0,
2026-04-09 17:52:00,METAR KIOW 091752Z AUTO 33005KT 10SM CLR 17/M02 A3017 RMK AO2 SLP216 T01721017 10172 20094 58006 $,0,5.0,0,16090,0,0,0,
2026-04-09 16:52:00,METAR KIOW 091652Z AUTO VRB06KT 10SM CLR 16/M02 A3019 RMK AO2 SLP221 T01561017 $,0,6.0,0,16090,0,0,0,
2026-04-09 15:52:00,METAR KIOW 091552Z AUTO 31006KT 10SM CLR 13/M02 A3019 RMK AO2 SLP224 T01331017 $,0,6.0,0,16090,0,0,0,
2026-04-09 14:52:00,METAR KIOW 091452Z AUTO 02006KT 10SM CLR 12/M02 A3019 RMK AO2 SLP223 T01171017 51013 $,0,6.0,0,16090,0,0,0,
2026-04-09 13:52:00,METAR KIOW 091352Z AUTO 33009KT 10SM CLR 10/M01 A3018 RMK AO2 SLP221 T01001011 $,0,9.0,0,16090,0,0,0,
2026-04-09 12:52:00,METAR KIOW 091252Z AUTO VRB06KT 10SM CLR 10/02 A3017 RMK AO2 SLP216 T01000017 $,0,6.0,0,16090,0,0,0,
2026-04-09 11:52:00,METAR KIOW 091152Z AUTO 33008KT 10SM SCT080 09/02 A3015 RMK AO2 SLP208 60000 T00940022 10133 20078 53024 $,0,8.0,0,16090,0,0,0,
2026-04-09 10:52:00,METAR KIOW 091052Z AUTO 00000KT 10SM OVC090 09/06 A3011 RMK AO2 SLP195 T00890061,0,0.0,0,16090,0,0,0,
2026-04-09 09:52:00,METAR KIOW 090952Z AUTO 00000KT 10SM BKN080 OVC100 11/06 A3009 RMK AO2 RAB40E51 SLP188 P0000 T01060056,0,0.0,0,16090,0,0,0,RA
2026-04-09 08:52:00,METAR KIOW 090852Z AUTO 24003KT 10SM SCT080 BKN100 BKN110 09/06 A3008 RMK AO2 SLP183 T00890056 51008,0,3.0,0,16090,0,0,0,
2026-04-09 07:52:00,METAR KIOW 090752Z AUTO 26003KT 10SM SCT110 10/06 A3007 RMK AO2 SLP181 T01000056,0,3.0,0,16090,0,0,0,
2026-04-09 06:52:00,METAR KIOW 090652Z AUTO 31003KT 10SM FEW120 12/06 A3007 RMK AO2 SLP179 T01220056,0,3.0,0,16090,0,0,0,
2026-04-09 05:52:00,METAR KIOW 090552Z AUTO 33006KT 10SM CLR 13/05 A3005 RMK AO2 SLP174 60000 T01330050 10228 20133 402500039 51028,0,6.0,0,16090,0,0,0,
2026-04-09 04:52:00,METAR KIOW 090452Z AUTO 33008KT 10SM SCT085 15/05 A3003 RMK AO2 SLP169 T01500050,0,8.0,0,16090,0,0,0,
2026-04-09 03:52:00,METAR KIOW 090352Z AUTO 33010KT 10SM BKN095 17/04 A3000 RMK AO2 SLP157 T01670044,0,10.0,0,16090,0,0,0,
2026-04-09 02:52:00,METAR KIOW 090252Z AUTO 27009KT 10SM OVC090 18/07 A2997 RMK AO2 RAE03 SLP147 P0000 60000 T01830067 52018,0,9.0,0,16090,0,0,0,
2026-04-09 01:52:00,METAR KIOW 090152Z AUTO 20014G23KT 10SM -RA SCT090 BKN110 20/06 A2994 RMK AO2 PK WND 21027/0126 RAE27B51 SLP137 P0000 T02000056,0,14.0,1,16090,0,0,0,"-RA,RA"
2026-04-09 00:52:00,METAR KIOW 090052Z AUTO 21009KT 10SM -RA FEW060 OVC085 21/06 A2994 RMK AO2 RAB51 PRESRR SLP139 P0000 T02060056,0,9.0,0,16090,0,0,0,-RA
2026-04-08 23:52:00,METAR KIOW 082352Z AUTO 21012G20KT 10SM FEW065 BKN090 BKN120 23/03 A2991 RMK AO2 SLP129 T02280033 10250 20217 58001,0,12.0,1,16090,0,0,0,
2026-04-08 22:52:00,METAR KIOW 082252Z AUTO 21013G20KT 10SM SCT110 23/03 A2991 RMK AO2 PK WND 22027/2221 SLP129 T02280033,0,13.0,1,16090,0,0,0,
2026-04-08 21:52:00,METAR KIOW 082152Z AUTO 22012G27KT 10SM FEW085 24/03 A2993 RMK AO2 PK WND 22035/2053 SLP133 T02390033,0,12.0,1,16090,0,0,0,
2026-04-08 20:52:00,METAR KIOW 082052Z AUTO 22024G36KT 10SM CLR 23/03 A2992 RMK AO2 PK WND 20039/2009 SLP130 T02330028 57019,0,24.0,1,16090,0,0,0,
2026-04-08 19:52:00,METAR KIOW 081952Z AUTO 22019G35KT 10SM CLR 24/03 A2993 RMK AO2 PK WND 21044/1939 SLP133 T02440033,0,19.0,1,16090,0,0,0,
2026-04-08 18:52:00,METAR KIOW 081852Z AUTO 20020G36KT 10SM CLR 23/05 A2996 RMK AO2 PK WND 19042/1753 SLP146 T02280050,0,20.0,1,16090,0,0,0,
2026-04-08 17:52:00,METAR KIOW 081752Z AUTO 20022G39KT 10SM CLR 22/04 A2997 RMK AO2 PK WND 18039/1752 SLP150 T02170044 10217 20056 58027,0,22.0,1,16090,0,0,0,
2026-04-08 16:52:00,METAR KIOW 081652Z AUTO 18021G30KT 10SM CLR 19/06 A3000 RMK AO2 PK WND 19040/1608 SLP160 T01940056,0,21.0,1,16090,0,0,0,
2026-04-08 15:52:00,METAR KIOW 081552Z AUTO 10SM CLR 17/04 A3003 RMK AO2 PK WND 19042/1537 SLP170 T01720044,0,,0,16090,0,0,0,
2026-04-08 14:52:00,METAR KIOW 081452Z AUTO 18017G32KT 10SM CLR 13/03 A3005 RMK AO2 PK WND 19032/1449 SLP180 T01330033 58021,0,17.0,1,16090,0,0,0,
2026-04-08 13:52:00,METAR KIOW 081352Z AUTO 17015G28KT 10SM CLR 10/02 A3008 RMK AO2 PK WND 18028/1349 SLP190 T01000017,0,15.0,1,16090,0,0,0,
2026-04-08 12:52:00,METAR KIOW 081252Z AUTO 16015G21KT 10SM CLR 08/00 A3010 RMK AO2 SLP198 T00780000,0,15.0,1,16090,0,0,0,
2026-04-08 11:52:00,METAR KIOW 081152Z AUTO 15009KT 10SM CLR 06/00 A3012 RMK AO2 SLP202 T00560000 10056 20039 56009,0,9.0,0,16090,0,0,0,
2026-04-08 10:52:00,METAR KIOW 081052Z AUTO 14006KT 10SM CLR 05/M01 A3012 RMK AO2 SLP204 T00501006,0,6.0,0,16090,0,0,0,
2026-04-08 09:52:00,METAR KIOW 080952Z AUTO 14009KT 10SM CLR 06/M01 A3013 RMK AO2 SLP207 T00561011,0,9.0,0,16090,0,0,0,
2026-04-08 08:52:00,METAR KIOW 080852Z AUTO 14009KT 10SM CLR 05/M02 A3014 RMK AO2 SLP211 T00501017 58020,0,9.0,0,16090,0,0,0,
2026-04-08 07:52:00,METAR KIOW 080752Z AUTO 14008KT 10SM SCT110 04/M02 A3016 RMK AO2 SLP220 T00441022,0,8.0,0,16090,0,0,0,
2026-04-08 06:52:00,METAR KIOW 080652Z AUTO 13009KT 10SM CLR 04/M03 A3018 RMK AO2 SLP226 T00391033,0,9.0,0,16090,0,0,0,
2026-04-08 05:52:00,METAR KIOW 080552Z AUTO 13010KT 10SM CLR 04/M03 A3020 RMK AO2 SLP232 60000 T00441033 10056 20039 400610006 58018,0,10.0,0,16090,0,0,0,
2026-04-08 04:52:00,METAR KIOW 080452Z AUTO 12008KT 10SM CLR 04/M03 A3022 RMK AO2 SLP240 T00441028,0,8.0,0,16090,0,0,0,
2026-04-08 03:52:00,METAR KIOW 080352Z AUTO 13008KT 10SM FEW110 04/M02 A3025 RMK AO2 SLP248 T00391017,0,8.0,0,16090,0,0,0,
2026-04-08 02:52:00,METAR KIOW 080252Z AUTO 12011KT 10SM SCT075 OVC095 04/M02 A3026 RMK AO2 RAE09B26E48 SLP251 P0000 60000 T00441022 58016,0,11.0,0,16090,0,0,0,RA
2026-04-08 01:52:00,METAR KIOW 080152Z AUTO 13010KT 10SM -RA BKN055 BKN075 OVC110 05/M04 A3030 RMK AO2 RAB52 SLP264 P0000 T00501044,0,10.0,0,16090,0,0,0,-RA
2026-04-08 00:52:00,METAR KIOW 080052Z AUTO 15010KT 10SM BKN110 05/M04 A3031 RMK AO2 SLP270 T00501044,0,10.0,0,16090,0,0,0,
2026-04-07 23:52:00,METAR KIOW 072352Z AUTO 12010G19KT 10SM FEW070 OVC090 06/M04 A3031 RMK AO2 SLP269 T00561044 10061 20050 56023,0,10.0,1,16090,0,0,0,
2026-04-07 22:52:00,METAR KIOW 072252Z AUTO 13015KT 10SM FEW050 OVC075 06/M04 A3032 RMK AO2 SLP273 T00561044,0,15.0,0,16090,0,0,0,
2026-04-07 21:52:00,METAR KIOW 072152Z AUTO 15011KT 10SM OVC055 06/M03 A3035 RMK AO2 SLP283 T00561033,0,11.0,0,16090,0,0,0,
2026-04-07 20:52:00,METAR KIOW 072052Z AUTO 13011G18KT 10SM OVC060 06/M05 A3037 RMK AO2 SLP291 T00561050 58027,0,11.0,1,16090,0,0,0,
2026-04-07 19:52:00,METAR KIOW 071952Z AUTO 13010KT 10SM OVC060 06/M05 A3041 RMK AO2 SLP302 T00561050,0,10.0,0,16090,0,0,0,
2026-04-07 18:52:00,METAR KIOW 071852Z AUTO 12011KT 10SM OVC085 06/M05 A3043 RMK AO2 SLP309 T00611050,0,11.0,0,16090,0,0,0,
2026-04-07 17:52:00,METAR KIOW 071752Z AUTO 12011KT 10SM OVC100 06/M06 A3046 RMK AO2 SLP319 T00561061 10061 20006 58013,0,11.0,0,16090,0,0,0,
2026-04-07 16:52:00,METAR KIOW 071652Z AUTO 12010KT 10SM BKN110 06/M06 A3047 RMK AO2 SLP323 T00561056,0,10.0,0,16090,0,0,0,
2026-04-07 15:52:00,METAR KIOW 071552Z AUTO 09010KT 10SM FEW034 SCT120 05/M05 A3049 RMK AO2 SLP328 T00501050,0,10.0,0,16090,0,0,0,
2026-04-07 15:16:00,SPECI KIOW 071516Z AUTO 12011G17KT 10SM BKN030 04/M04 A3049 RMK AO2 T00391044,0,11.0,1,16090,0,0,0,
2026-04-07 15:00:00,SPECI KIOW 071500Z AUTO 12013G18KT 10SM BKN029 03/M05 A3049 RMK AO2 T00331050,0,13.0,1,16090,0,0,0,
2026-04-07 14:52:00,METAR KIOW 071452Z AUTO 10009KT 10SM SCT029 BKN120 03/M04 A3049 RMK AO2 SLP332 T00331044 50005,0,9.0,0,16090,0,0,0,
2026-04-07 13:52:00,METAR KIOW 071352Z AUTO 10009G19KT 060V130 10SM OVC120 02/M05 A3050 RMK AO2 SLP333 T00221050,0,9.0,1,16090,0,0,0,
2026-04-07 12:52:00,METAR KIOW 071252Z AUTO 07011KT 10SM CLR 01/M07 A3050 RMK AO2 SLP334 T00111072,0,11.0,0,16090,0,0,0,
2026-04-07 11:52:00,METAR KIOW 071152Z AUTO 07009KT 10SM CLR 01/M08 A3048 RMK AO2 SLP327 T00111078 10044 20011 53015,0,9.0,0,16090,0,0,0,
2026-04-07 10:52:00,METAR KIOW 071052Z AUTO 06008KT 10SM CLR 02/M08 A3046 RMK AO2 SLP318 T00171078,0,8.0,0,16090,0,0,0,
2026-04-07 09:52:00,METAR KIOW 070952Z AUTO 06008KT 10SM CLR 02/M07 A3044 RMK AO2 SLP314 T00171067,0,8.0,0,16090,0,0,0,
2026-04-07 08:52:00,METAR KIOW 070852Z AUTO 05009KT 10SM CLR 02/M07 A3044 RMK AO2 SLP311 T00221072 53007,0,9.0,0,16090,0,0,0,
2026-04-07 07:52:00,METAR KIOW 070752Z AUTO 03010KT 10SM CLR 03/M08 A3043 RMK AO2 SLP310 T00281083,0,10.0,0,16090,0,0,0,
2026-04-07 06:52:00,METAR KIOW 070652Z AUTO 02010KT 10SM CLR 03/M08 A3042 RMK AO2 SLP304 T00331083,0,10.0,0,16090,0,0,0,
2026-04-07 05:52:00,METAR KIOW 070552Z AUTO 02008KT 10SM CLR 04/M08 A3041 RMK AO2 SLP303 T00441078 10089 20044 401110028 53008,0,8.0,0,16090,0,0,0,
2026-04-07 04:52:00,METAR KIOW 070452Z AUTO 01009KT 10SM CLR 05/M07 A3040 RMK AO2 SLP299 T00501067,0,9.0,0,16090,0,0,0,
2026-04-07 03:52:00,METAR KIOW 070352Z AUTO 33007KT 10SM CLR 06/M04 A3039 RMK AO2 SLP295 T00611044,0,7.0,0,16090,0,0,0,
2026-04-07 02:52:00,METAR KIOW 070252Z AUTO 33009KT 10SM CLR 06/M04 A3039 RMK AO2 SLP294 T00611044 53018,0,9.0,0,16090,0,0,0,
2026-04-07 01:52:00,METAR KIOW 070152Z AUTO 33009KT 10SM CLR 07/M05 A3037 RMK AO2 SLP288 T00671050,0,9.0,0,16090,0,0,0,
2026-04-07 00:52:00,METAR KIOW 070052Z AUTO 34011KT 10SM CLR 08/M04 A3035 RMK AO2 SLP281 T00781044,0,11.0,0,16090,0,0,0,
2026-04-06 23:52:00,METAR KIOW 062352Z AUTO 32012G19KT 10SM SCT110 09/M05 A3033 RMK AO2 SLP276 T00891050 10111 20089 53008,0,12.0,1,16090,0,0,0,
2026-04-06 22:52:00,METAR KIOW 062252Z AUTO 32011KT 10SM FEW120 09/M06 A3032 RMK AO2 SLP272 T00941061,0,11.0,0,16090,0,0,0,
2026-04-06 21:52:00,METAR KIOW 062152Z AUTO 33016G22KT 10SM CLR 11/M06 A3031 RMK AO2 SLP269 T01061061,0,16.0,1,16090,0,0,0,
2026-04-06 20:52:00,METAR KIOW 062052Z AUTO 32012G19KT 10SM CLR 11/M04 A3031 RMK AO2 SLP266 T01061039 56017,0,12.0,1,16090,0,0,0,
2026-04-06 19:52:00,METAR KIOW 061952Z AUTO 33010G22KT 10SM CLR 11/M03 A3032 RMK AO2 SLP271 T01061028,0,10.0,1,16090,0,0,0,
2026-04-06 18:52:00,METAR KIOW 061852Z AUTO 31015G23KT 10SM CLR 10/M03 A3034 RMK AO2 SLP278 T01001033,0,15.0,1,16090,0,0,0,
2026-04-06 17:52:00,METAR KIOW 061752Z AUTO 33013G20KT 10SM CLR 10/M01 A3036 RMK AO2 PK WND 29026/1709 SLP283 T01001011 10100 20028 58004,0,13.0,1,16090,0,0,0,
2026-04-06 16:52:00,METAR KIOW 061652Z AUTO 32016G22KT 10SM BKN030 08/M01 A3038 RMK AO2 SLP291 T00831006,0,16.0,1,16090,0,0,0,
2026-04-06 16:42:00,SPECI KIOW 061642Z AUTO 30010G22KT 10SM BKN028 08/00 A3038 RMK AO2 T00830000,0,10.0,1,16090,0,0,0,
2026-04-06 15:52:00,METAR KIOW 061552Z AUTO 33015G23KT 10SM FEW021 07/00 A3038 RMK AO2 SLP291 T00720000,0,15.0,1,16090,0,0,0,
2026-04-06 14:52:00,METAR KIOW 061452Z AUTO 33011G20KT 10SM FEW022 07/01 A3037 RMK AO2 SLP288 T00720006 53013,0,11.0,1,16090,0,0,0,
2026-04-06 13:52:00,METAR KIOW 061352Z AUTO 33010G21KT 10SM CLR 06/00 A3036 RMK AO2 SLP283 T00560000,0,10.0,1,16090,0,0,0,
2026-04-06 12:52:00,METAR KIOW 061252Z AUTO 31008KT 10SM CLR 04/M01 A3035 RMK AO2 SLP280 T00391006,0,8.0,0,16090,0,0,0,
2026-04-06 11:52:00,METAR KIOW 061152Z AUTO 31009KT 10SM CLR 03/M01 A3033 RMK AO2 SLP275 T00281011 10100 20028 52018 $,0,9.0,0,16090,0,0,0,
2026-04-06 10:52:00,METAR KIOW 061052Z AUTO 29009KT 10SM CLR 03/M01 A3032 RMK AO2 SLP270 T00281006 $,0,9.0,0,16090,0,0,0,
2026-04-06 09:52:00,METAR KIOW 060952Z AUTO 32008KT 10SM CLR 04/00 A3029 RMK AO2 SLP262 T00390000 $,0,8.0,0,16090,0,0,0,
2026-04-06 08:52:00,METAR KIOW 060852Z AUTO 31010KT 10SM CLR 05/00 A3028 RMK AO2 SLP256 T00500000 53014 $,0,10.0,0,16090,0,0,0,
2026-04-06 07:52:00,METAR KIOW 060752Z AUTO 30007KT 10SM CLR 06/00 A3027 RMK AO2 SLP251 T00560000 $,0,7.0,0,16090,0,0,0,
2026-04-06 06:52:00,METAR KIOW 060652Z AUTO 31009KT 10SM CLR 08/02 A3025 RMK AO2 SLP245 T00780017 $,0,9.0,0,16090,0,0,0,
2026-04-06 05:52:00,METAR KIOW 060552Z AUTO 31010KT 10SM CLR 10/02 A3024 RMK AO2 SLP241 T01000022 10133 20072 401440022 53008 $,0,10.0,0,16090,0,0,0,
2026-04-06 04:52:00,METAR KIOW 060452Z AUTO 27006KT 10SM BKN085 09/02 A3022 RMK AO2 SLP235 T00890022 $,0,6.0,0,16090,0,0,0,
2026-04-06 03:52:00,METAR KIOW 060352Z AUTO 10SM SCT080 09/02 A3020 RMK AO2 SLP229 T00940022 $,0,,0,16090,0,0,0,
2026-04-06 02:52:00,METAR KIOW 060252Z AUTO 10SM BKN100 08/02 A3021 RMK AO2 SLP234 T00830022 56007 $,0,,0,16090,0,0,0,
2026-04-06 01:52:00,METAR KIOW 060152Z AUTO 10SM CLR 09/02 A3021 RMK AO2 SLP235 T00940022 $,0,,0,16090,0,0,0,
2026-04-06 00:52:00,METAR KIOW 060052Z AUTO 10SM CLR 11/02 A3023 RMK AO2 SLP239 T01060017 $,0,,0,16090,0,0,0,
2026-04-05 23:52:00,METAR KIOW 052352Z AUTO 10SM CLR 13/02 A3024 RMK AO2 SLP241 T01330017 10144 20111 58006 $,0,,0,16090,0,0,0,
2026-04-05 22:52:00,METAR KIOW 052252Z AUTO 10SM CLR 14/01 A3024 RMK AO2 SLP244 T01390006 $,0,,0,16090,0,0,0,
2026-04-05 21:52:00,METAR KIOW 052152Z AUTO 10SM CLR 14/M01 A3025 RMK AO2 SLP246 T01391006 $,0,,0,16090,0,0,0,
2026-04-05 20:52:00,METAR KIOW 052052Z AUTO 10SM CLR 13/M01 A3025 RMK AO2 SLP248 T01331011 58012 $,0,,0,16090,0,0,0,
2026-04-05 19:52:00,METAR KIOW 051952Z AUTO 10SM CLR 13/M01 A3027 RMK AO2 PK WND 30026/1856 SLP254 T01331011 $,0,,0,16090,0,0,0,
2026-04-05 18:52:00,METAR KIOW 051852Z AUTO 30014G20KT 10SM CLR 13/M02 A3028 RMK AO2 SLP258 T01281022 $,0,14.0,1,16090,0,0,0,
2026-04-05 17:52:00,METAR KIOW 051752Z AUTO 31015G24KT 280V340 10SM CLR 12/M03 A3029 RMK AO2 SLP260 T01171028 10117 20028 50003 $,0,15.0,1,16090,0,0,0,
2026-04-05 16:52:00,METAR KIOW 051652Z AUTO 29011G20KT 10SM CLR 10/M02 A3030 RMK AO2 SLP264 T01001022 $,0,11.0,1,16090,0,0,0,
2026-04-05 15:52:00,METAR KIOW 051552Z AUTO 32009G19KT 10SM CLR 09/M02 A3029 RMK AO2 SLP261 T00891017 $,0,9.0,1,16090,0,0,0,
2026-04-05 14:52:00,METAR KIOW 051452Z AUTO 30013KT 10SM CLR 07/M02 A3028 RMK AO2 SLP258 T00671017 51023 $,0,13.0,0,16090,0,0,0,
2026-04-05 12:52:00,METAR KIOW 051252Z AUTO 31011G18KT 10SM CLR 03/M02 A3024 RMK AO2 SLP246 T00331017 $,0,11.0,1,16090,0,0,0,
2026-04-05 11:52:00,METAR KIOW 051152Z AUTO 31014G22KT 10SM CLR 03/M02 A3021 RMK AO2 SLP235 T00281022 10039 20022 53016 $,0,14.0,1,16090,0,0,0,
2026-04-05 10:52:00,METAR KIOW 051052Z AUTO 31014G21KT 10SM CLR 03/M03 A3019 RMK AO2 SLP227 T00281028 $,0,14.0,1,16090,0,0,0,
2026-04-05 09:52:00,METAR KIOW 050952Z AUTO 28011KT 10SM CLR 02/M03 A3018 RMK AO2 SLP224 T00221028 $,0,11.0,0,16090,0,0,0,
2026-04-05 08:52:00,METAR KIOW 050852Z AUTO 29012G22KT 10SM CLR 03/M03 A3016 RMK AO2 SLP218 T00281033 51011 $,0,12.0,1,16090,0,0,0,
2026-04-05 07:52:00,METAR KIOW 050752Z AUTO 30013G23KT 10SM CLR 03/M03 A3015 RMK AO2 PK WND 29030/0708 SLP214 T00331028 $,0,13.0,1,16090,0,0,0,
2026-04-05 06:52:00,METAR KIOW 050652Z AUTO 30016G26KT 10SM CLR 03/M03 A3014 RMK AO2 PK WND 30030/0612 SLP213 T00331028 $,0,16.0,1,16090,0,0,0,
2026-04-05 05:52:00,METAR KIOW 050552Z AUTO 30017G33KT 10SM BKN030 04/M03 A3013 RMK AO2 PK WND 32035/0535 SLP207 T00391028 10072 20039 401110039 53015 $,0,17.0,1,16090,0,0,0,
2026-04-05 05:19:00,SPECI KIOW 050519Z AUTO 31010G24KT 10SM OVC029 06/M01 A3011 RMK AO2 PK WND 28026/0504 T00561011 $,0,10.0,1,16090,0,0,0,
2026-04-05 04:52:00,METAR KIOW 050452Z AUTO 31012G21KT 10SM OVC035 06/M01 A3011 RMK AO2 PK WND 30032/0406 SLP200 T00561011 $,0,12.0,1,16090,0,0,0,
2026-04-05 03:52:00,METAR KIOW 050352Z AUTO 29017G27KT 10SM OVC038 07/M02 A3010 RMK AO2 PK WND 30030/0333 SLP196 T00671017 $,0,17.0,1,16090,0,0,0,
2026-04-05 02:52:00,METAR KIOW 050252Z AUTO 28015G24KT 10SM BKN042 OVC050 07/00 A3008 RMK AO2 PK WND 27030/0215 SLP191 T00670000 53016 $,0,15.0,1,16090,0,0,0,
2026-04-05 01:52:00,METAR KIOW 050152Z AUTO 27013KT 10SM OVC055 07/01 A3007 RMK AO2 PK WND 28027/0126 SLP185 T00670006 $,0,13.0,0,16090,0,0,0,
2026-04-05 00:52:00,METAR KIOW 050052Z AUTO 27018G28KT 10SM BKN039 OVC050 07/00 A3004 RMK AO2 PK WND 26030/0041 SLP178 T00720000 $,0,18.0,1,16090,0,0,0,
2026-04-04 23:52:00,METAR KIOW 042352Z AUTO 25014G27KT 10SM FEW042 OVC055 07/M01 A3004 RMK AO2 PK WND 26031/2323 SLP175 T00671006 10078 20056 50005 $,0,14.0,1,16090,0,0,0,
2026-04-04 22:52:00,METAR KIOW 042252Z AUTO 26017G27KT 10SM BKN040 OVC049 07/M01 A3004 RMK AO2 PK WND 27034/2215 SLP175 T00671011 $,0,17.0,1,16090,0,0,0,
2026-04-04 21:52:00,METAR KIOW 042152Z AUTO 27022G36KT 10SM BKN035 OVC046 07/M01 A3004 RMK AO2 PK WND 29036/2149 SLP175 T00671011 $,0,22.0,1,16090,0,0,0,
2026-04-04 20:52:00,METAR KIOW 042052Z AUTO 28025G34KT 10SM SCT031 OVC039 07/M01 A3002 RMK AO2 PK WND 29037/2034 SLP169 T00671011 53005 $,0,25.0,1,16090,0,0,0,
2026-04-04 19:52:00,METAR KIOW 041952Z AUTO 27019G27KT 10SM FEW030 BKN039 OVC046 08/00 A3001 RMK AO2 PK WND 28028/1854 SLP165 T00780000 $,0,19.0,1,16090,0,0,0,
2026-04-04 19:07:00,SPECI KIOW 041907Z AUTO 27017G27KT 10SM OVC029 07/M01 A3002 RMK AO2 PK WND 28028/1854 T00671006 $,0,17.0,1,16090,0,0,0,
2026-04-04 19:00:00,SPECI KIOW 041900Z AUTO 27019G28KT 10SM SCT025 OVC033 07/M01 A3002 RMK AO2 PK WND 28028/1854 T00671006 $,0,19.0,1,16090,0,0,0,
2026-04-04 18:52:00,METAR KIOW 041852Z AUTO 29019G28KT 10SM OVC028 07/00 A3002 RMK AO2 PK WND 28029/1820 SLP167 T00670000 $,0,19.0,1,16090,0,0,0,
2026-04-04 17:52:00,METAR KIOW 041752Z AUTO 26019G29KT 10SM OVC026 06/00 A3001 RMK AO2 PK WND 28029/1743 SLP163 T00610000 10061 20050 51008 $,0,19.0,1,16090,0,0,0,
2026-04-04 16:52:00,METAR KIOW 041652Z AUTO 27018G28KT 10SM OVC022 06/01 A3001 RMK AO2 PK WND 28029/1629 SLP163 T00610006 $,0,18.0,1,16090,0,0,0,
2026-04-04 15:52:00,METAR KIOW 041552Z AUTO 28014G26KT 10SM OVC019 06/01 A3000 RMK AO2 PK WND 28029/1517 SLP160 T00560011 $,0,14.0,1,16090,0,0,0,
2026-04-04 14:52:00,METAR KIOW 041452Z AUTO 28015KT 10SM OVC016 06/01 A2998 RMK AO2 PK WND 27026/1435 SLP155 T00560011 53012 $,0,15.0,0,16090,0,0,0,
2026-04-04 13:52:00,METAR KIOW 041352Z AUTO 28013G22KT 10SM OVC017 06/02 A2998 RMK AO2 SLP153 T00560017 $,0,13.0,1,16090,0,0,0,
2026-04-04 13:39:00,SPECI KIOW 041339Z AUTO 28015KT 10SM OVC015 05/ A2997 RMK AO2 T0050 $,0,15.0,0,16090,0,0,0,
2026-04-04 12:52:00,METAR KIOW 041252Z AUTO 30011G24KT 10SM OVC013 05/ A2994 RMK AO2 PK WND 28026/1159 SLP143 T0050 $,0,11.0,1,16090,0,0,0,
2026-04-04 12:49:00,SPECI KIOW 041249Z AUTO 29010G24KT 10SM OVC013 05/ A2995 RMK AO2 PK WND 28026/1159 $,0,10.0,1,16090,0,0,0,
2026-04-04 12:14:00,SPECI KIOW 041214Z AUTO 28016G23KT 10SM OVC009 05/ A2993 RMK AO2 PK WND 28026/1159 T0050 $,0,16.0,1,16090,0,0,0,
2026-04-04 11:52:00,METAR KIOW 041152Z AUTO 27017G24KT 10SM OVC010 06/ A2993 RMK AO2 CIG 008V014 SLP139 70022 T0056 10111 20056 53014 $,0,17.0,1,16090,0,0,0,
2026-04-04 11:40:00,SPECI KIOW 041140Z AUTO 27016G25KT 10SM OVC009 06/ A2993 RMK AO2 CIG 008V012 T0056 $,0,16.0,1,16090,0,0,0,
2026-04-04 11:13:00,SPECI KIOW 041113Z AUTO 28016G25KT 10SM OVC010 06/ A2991 RMK AO2 T0061 $,0,16.0,1,16090,0,0,0,
2026-04-04 10:52:00,METAR KIOW 041052Z AUTO 28014G24KT 10SM OVC009 06/ A2990 RMK AO2 PK WND 29027/1009 SLP126 T0061 $,0,14.0,1,16090,0,0,0,
2026-04-04 09:52:00,METAR KIOW 040952Z AUTO 28014G21KT 10SM OVC008 07/ A2988 RMK AO2 SLP121 T0072 $,0,14.0,1,16090,0,0,0,
2026-04-04 08:52:00,METAR KIOW 040852Z AUTO 26018G25KT 10SM OVC008 08/ A2989 RMK AO2 PK WND 27026/0841 SLP123 T0083 53010 $,0,18.0,1,16090,0,0,0,
2026-04-04 08:20:00,SPECI KIOW 040820Z AUTO 25015KT 10SM OVC006 09/ A2987 RMK AO2 T0094 $,0,15.0,0,16090,0,0,0,
2026-04-04 07:52:00,METAR KIOW 040752Z AUTO 26013KT 8SM OVC005 10/ A2986 RMK AO2 SLP113 T0100 $,0,13.0,0,12872,0,0,0,
2026-04-04 07:43:00,SPECI KIOW 040743Z AUTO 28014G23KT 4SM HZ OVC005 11/ A2985 RMK AO2 T0106 $,0,14.0,1,6436,0,0,0,
2026-04-04 07:35:00,SPECI KIOW 040735Z AUTO 28014KT 2SM BR OVC004 11/ A2985 RMK AO2 T0106 $,0,14.0,0,3218,0,0,1,BR
2026-04-04 07:28:00,SPECI KIOW 040728Z AUTO 27016G21KT 1 3/4SM BR OVC004 11/ A2984 RMK AO2 T0111 $,0,16.0,1,2816,0,0,1,BR
2026-04-04 07:19:00,SPECI KIOW 040719Z AUTO 00000KT 2SM BR OVC004 11/ A2984 RMK AO2 T0111 $,0,0.0,0,3218,0,0,1,BR
2026-04-04 07:04:00,SPECI KIOW 040704Z AUTO 19003KT 5SM HZ OVC005 11/ A2985 RMK AO2 T0106 $,0,3.0,0,8045,0,0,0,
2026-04-04 06:52:00,METAR KIOW 040652Z AUTO 18003KT 6SM HZ OVC006 11/ A2985 RMK AO2 SLP109 T0106 $,0,3.0,0,9654,0,0,0,
2026-04-04 06:27:00,SPECI KIOW 040627Z AUTO 09005KT 6SM HZ BKN008 OVC013 11/ A2983 RMK AO2 CIG 005V011 T0106 $,0,5.0,0,9654,0,0,0,
2026-04-04 06:04:00,SPECI KIOW 040604Z AUTO 11007KT 7SM FEW005 OVC014 11/ A2984 RMK AO2 LTG DSNT E T0111 $,0,7.0,0,11263,0,0,0,DS
2026-04-04 05:52:00,METAR KIOW 040552Z AUTO 12008KT 6SM HZ SCT005 OVC016 11/ A2986 RMK AO2 LTG DSNT S RAE40 SLP112 P0001 60022 T0111 10128 20106 401280056 51000 $,0,8.0,0,9654,0,0,0,DS
2026-04-04 05:40:00,SPECI KIOW 040540Z AUTO 6SM HZ BKN006 OVC016 11/ A2986 RMK AO2 LTG DSNT SE AND S RAE40 P0001 T0111 $,0,,0,9654,0,0,0,DS
2026-04-04 05:32:00,SPECI KIOW 040532Z AUTO 08007KT 6SM -RA SCT007 BKN012 OVC018 11/ A2984 RMK AO2 LTG DSNT S P0001 T0111 $,0,7.0,0,9654,0,0,0,"-RA,DS"
2026-04-04 05:02:00,SPECI KIOW 040502Z AUTO 08007KT 6SM -RA FEW007 BKN017 OVC100 11/ A2985 RMK AO2 LTG DSNT NE-S P0001 T0111 $,0,7.0,0,9654,0,0,0,"-RA,DS"
2026-04-04 04:52:00,METAR KIOW 040452Z AUTO 09009KT 4SM VCTS RA FEW008 BKN039 OVC100 11/ A2986 RMK AO2 LTG DSNT NE-S TSE16 SLP112 P0020 T0111 $,0,9.0,0,6436,1,0,0,"DS,RA,TS,VC"
2026-04-04 04:47:00,SPECI KIOW 040447Z AUTO 10008G17KT 3SM VCTS RA SCT008 BKN035 OVC095 11/ A2986 RMK AO2 LTG DSNT NE-SE TSE16 P0019 $,0,8.0,1,4827,1,0,0,"DS,RA,TS,VC"
2026-04-04 04:30:00,SPECI KIOW 040430Z AUTO 12011KT 4SM RA SCT009 BKN030 OVC090 12/ A2986 RMK AO2 LTG DSNT ALQDS TSE16 P0012 T0117 $,0,11.0,0,6436,1,0,0,"DS,RA"
2026-04-04 04:16:00,SPECI KIOW 040416Z AUTO 10009G15KT 6SM VCTS -RA SCT009 BKN030 OVC090 12/ A2985 RMK AO2 LTG DSNT N AND NE AND S TSE16 P0007 T0122 $,0,9.0,1,9654,1,0,0,"-RA,DS,TS,VC"
2026-04-04 03:52:00,METAR KIOW 040352Z AUTO 13007G18KT 8SM -TSRA BKN013 OVC045 13/ A2987 RMK AO2 LTG DSNT SW-N RAB52 TSB50 SLP115 P0001 T0128 $,0,7.0,1,12872,1,0,0,"DS,RA"
2026-04-04 03:50:00,SPECI KIOW 040350Z AUTO 11008G18KT 10SM TS BKN013 OVC045 13/ A2986 RMK AO2 LTG DSNT SW-N TSB50 $,0,8.0,1,16090,1,0,0,"DS,TS"
2026-04-04 03:39:00,SPECI KIOW 040339Z AUTO 09008KT 10SM BKN013 OVC027 13/ A2985 RMK AO2 LTG DSNT SW-N T0128 $,0,8.0,0,16090,0,0,0,DS
2026-04-04 03:26:00,SPECI KIOW 040326Z AUTO 12008G16KT 10SM SCT015 BKN027 OVC055 13/ A2986 RMK AO2 LTG DSNT W AND NW T0128 $,0,8.0,1,16090,0,0,0,DS
2026-04-04 02:52:00,METAR KIOW 040252Z AUTO 18006G18KT 10SM FEW015 BKN030 BKN047 13/ A2989 RMK AO2 LTG DSNT W SLP122 T0128 55009 $,0,6.0,1,16090,0,0,0,DS
2026-04-04 01:52:00,METAR KIOW 040152Z AUTO 11008G17KT 10SM SCT011 12/ A2988 RMK AO2 SLP119 T0117 $,0,8.0,1,16090,0,0,0,
2026-04-04 00:52:00,METAR KIOW 040052Z AUTO 10SM CLR 12/09 A2989 RMK AO2 SLP123 T01220089,0,,0,16090,0,0,0,
2026-04-03 23:52:00,METAR KIOW 032352Z AUTO 10SM CLR 12/08 A2991 RMK AO2 SLP132 60000 T01220083 10122 20094 56023,0,,0,16090,0,0,0,
2026-04-03 23:09:00,SPECI KIOW 032309Z AUTO 09014G23KT 10SM SCT018 SCT043 12/08 A2993 RMK AO2 T01220078,0,14.0,1,16090,0,0,0,
2026-04-03 22:52:00,METAR KIOW 032252Z AUTO 09011G22KT 10SM BKN017 12/08 A2992 RMK AO2 SLP135 T01220078,0,11.0,1,16090,0,0,0,
2026-04-03 21:52:00,METAR KIOW 032152Z AUTO 09009G20KT 10SM OVC017 12/07 A2995 RMK AO2 SLP145 T01170072,0,9.0,1,16090,0,0,0,
2026-04-03 20:52:00,METAR KIOW 032052Z AUTO 08009G15KT 10SM OVC017 11/06 A2998 RMK AO2 SLP156 60000 T01110061 58003,0,9.0,1,16090,0,0,0,
2026-04-03 19:52:00,METAR KIOW 031952Z AUTO 07009KT 10SM OVC019 11/06 A3000 RMK AO2 SLP161 T01110061,0,9.0,0,16090,0,0,0,
2026-04-03 18:52:00,METAR KIOW 031852Z AUTO 06007KT 10SM OVC021 11/06 A3003 RMK AO2 RAB1755E05 SLP172 P0000 T01060056,0,7.0,0,16090,0,0,0,RA
2026-04-03 17:52:00,METAR KIOW 031752Z AUTO 11013G20KT 10SM OVC027 10/04 A2999 RMK AO2 SLP159 T01000044 10106 20056 58017,0,13.0,1,16090,0,0,0,
2026-04-03 17:28:00,SPECI KIOW 031728Z AUTO 09008G18KT 10SM BKN029 OVC033 10/04 A3000 RMK AO2 T01000044,0,8.0,1,16090,0,0,0,
2026-04-03 16:52:00,METAR KIOW 031652Z AUTO 09009G18KT 10SM OVC037 09/04 A3002 RMK AO2 SLP168 T00940039,0,9.0,1,16090,0,0,0,
2026-04-03 15:52:00,METAR KIOW 031552Z AUTO 10007KT 060V120 10SM FEW050 OVC060 08/03 A3004 RMK AO2 SLP174 T00830033,0,7.0,0,16090,0,0,0,
2026-04-03 14:52:00,METAR KIOW 031452Z AUTO 09004KT 10SM BKN060 07/02 A3004 RMK AO2 SLP176 T00720022 50007,0,4.0,0,16090,0,0,0,
2026-04-03 14:22:00,SPECI KIOW 031422Z AUTO 06007KT 10SM SCT016 BKN060 07/02 A3004 RMK AO2 T00720022,0,7.0,0,16090,0,0,0,
2026-04-03 14:06:00,SPECI KIOW 031406Z AUTO VRB04KT 10SM BKN015 07/02 A3005 RMK AO2 T00670022,0,4.0,0,16090,0,0,0,
2026-04-03 13:52:00,METAR KIOW 031352Z AUTO 05003KT 10SM OVC014 07/02 A3006 RMK AO2 SLP180 T00670022,0,3.0,0,16090,0,0,0,
2026-04-03 12:52:00,METAR KIOW 031252Z AUTO 24004KT 10SM OVC013 06/02 A3005 RMK AO2 SLP178 T00560022,0,4.0,0,16090,0,0,0,
2026-04-03 11:52:00,METAR KIOW 031152Z AUTO 24003KT 10SM OVC014 06/02 A3002 RMK AO2 SLP166 70114 T00560022 10078 20056 51024 $,0,3.0,0,16090,0,0,0,
2026-04-03 11:15:00,SPECI KIOW 031115Z AUTO 29003KT 10SM OVC014 06/02 A3000 RMK AO2 T00560017 $,0,3.0,0,16090,0,0,0,
2026-04-03 08:52:00,METAR KIOW 030852Z AUTO 31010KT 10SM OVC014 07/03 A2995 RMK AO2 SLP141 T00670028 51014 $,0,10.0,0,16090,0,0,0,
2026-04-03 08:41:00,SPECI KIOW 030841Z AUTO 32008KT 10SM OVC014 07/03 A2994 RMK AO2 T00670028 $,0,8.0,0,16090,0,0,0,
2026-04-03 05:52:00,METAR KIOW 030552Z AUTO 28013G21KT 10SM BKN016 OVC023 08/ A2990 RMK AO2 SLP128 T0078 10172 20078 402220044 51045 $,0,13.0,1,16090,0,0,0,
2026-04-03 05:09:00,SPECI KIOW 030509Z AUTO 27013KT 10SM SCT013 OVC023 08/ A2988 RMK AO2 T0078 $,0,13.0,0,16090,0,0,0,
2026-04-03 04:59:00,SPECI KIOW 030459Z AUTO 29013G22KT 10SM BKN013 BKN018 OVC024 08/ A2987 RMK AO2 T0078 $,0,13.0,1,16090,0,0,0,
2026-04-03 04:52:00,METAR KIOW 030452Z AUTO 27017G24KT 10SM BKN015 OVC024 08/ A2987 RMK AO2 PK WND 30026/0409 SLP115 T0083 $,0,17.0,1,16090,0,0,0,
2026-04-03 04:19:00,SPECI KIOW 030419Z AUTO 28014G23KT 10SM BKN015 BKN022 OVC027 08/ A2984 RMK AO2 PK WND 30026/0409 T0083 $,0,14.0,1,16090,0,0,0,
2026-04-03 03:52:00,METAR KIOW 030352Z AUTO 28013G24KT 10SM BKN011 OVC017 09/ A2982 RMK AO2 PK WND 29029/0328 SLP099 T0089 $,0,13.0,1,16090,0,0,0,
2026-04-03 02:52:00,METAR KIOW 030252Z AUTO 28020G28KT 10SM OVC011 10/ A2977 RMK AO2 PK WND 28029/0204 SLP082 T0100 53066 $,0,20.0,1,16090,0,0,0,
2026-04-03 01:52:00,METAR KIOW 030152Z AUTO 27018G27KT 10SM BKN014 OVC029 12/ A2971 RMK AO2 PK WND 29032/0103 PRESRR SLP063 T0122 $,0,18.0,1,16090,0,0,0,
2026-04-03 01:17:00,SPECI KIOW 030117Z AUTO 26018G31KT 10SM BKN015 OVC021 14/13 A2966 RMK AO2 PK WND 29032/0103 PRESRR T01440128 $,0,18.0,1,16090,0,0,0,
2026-04-03 01:09:00,SPECI KIOW 030109Z AUTO 27018G32KT 10SM BKN012 OVC021 15/13 A2965 RMK AO2 PK WND 29032/0103 PRESRR T01500128 $,0,18.0,1,16090,0,0,0,
2026-04-03 00:52:00,METAR KIOW 030052Z AUTO 27011KT 10SM BKN021 BKN026 17/13 A2963 RMK AO2 SLP032 T01670133 $,0,11.0,0,16090,0,0,0,
2026-04-03 00:43:00,SPECI KIOW 030043Z AUTO 26011KT 10SM BKN025 17/13 A2962 RMK AO2 T01670133 $,0,11.0,0,16090,0,0,0,
2026-04-02 23:52:00,METAR KIOW 022352Z AUTO 25012G22KT 10SM CLR 18/13 A2957 RMK AO2 SLP013 60056 T01780133 10222 20128 53019 $,0,12.0,1,16090,0,0,0,
2026-04-02 22:52:00,METAR KIOW 022252Z AUTO 10SM SCT065 17/13 A2954 RMK AO2 PK WND 21028/2201 LTG DSNT E AND SE RAE11 TSE11 SLP003 P0001 T01720133 $,0,,0,16090,1,0,0,DS
2026-04-02 22:17:00,SPECI KIOW 022217Z AUTO 10SM FEW039 SCT075 BKN095 16/13 A2953 RMK AO2 PK WND 21028/2201 LTG DSNT NE-S RAE11 TSE11 P0001 T01610133,0,,0,16090,1,0,0,DS
2026-04-02 22:07:00,SPECI KIOW 022207Z AUTO 10SM -TSRA SCT032 SCT075 BKN100 16/13 A2953 RMK AO2 PK WND 21028/2201 LTG DSNT ALQDS P0001 T01610133,0,,0,16090,1,0,0,"DS,RA"
2026-04-02 22:00:00,SPECI KIOW 022200Z AUTO 21017G27KT 5SM -TSRA BKN029 BKN047 OVC090 16/13 A2952 RMK AO2 PK WND 21027/2158 LTG DSNT ALQDS P0001 T01610133,0,17.0,1,8045,1,0,0,"DS,RA"
2026-04-02 21:58:00,SPECI KIOW 022158Z AUTO 21020G31KT 2 1/2SM -TSRA BKN031 BKN049 OVC090 16/13 A2952 RMK AO2 PK WND 21027/2158 LTG DSNT ALQDS P0001 T01610133,0,20.0,1,4022,1,0,0,"DS,RA"
2026-04-02 21:52:00,METAR KIOW 022152Z AUTO 21016G33KT 1SM +TSRA BKN031 BKN049 OVC075 16/13 A2952 RMK AO2 PK WND 22033/2132 VIS 1/2V2 1/2 LTG DSNT ALQDS RAB18 TSB17 SLP998 P0055 T01610133,0,16.0,1,1609,1,0,0,"DS,RA"
2026-04-02 21:38:00,SPECI KIOW 022138Z AUTO 23014G33KT 3/4SM +TSRA SCT029 BKN048 OVC075 17/14 A2954 RMK AO2 PK WND 22033/2132 VIS 1/2V3 LTG DSNT ALQDS RAB18 TSB17 PRESRR P0027 T01720144,0,14.0,1,1207,1,0,0,"DS,RA"
2026-04-02 21:32:00,SPECI KIOW 022132Z AUTO 22022G33KT 1 1/2SM +TSRA BKN034 BKN070 OVC110 19/16 A2952 RMK AO2 PK WND 22033/2132 VIS 1/2V4 LTG DSNT ALQDS RAB18 TSB17 P0017 T01940156,0,22.0,1,2414,1,0,0,"DS,RA"
2026-04-02 21:17:00,SPECI KIOW 022117Z AUTO 20013KT 9SM TS FEW035 BKN075 BKN090 22/16 A2950 RMK AO2 LTG DSNT S-NW TSB17 T02170156,0,13.0,0,14481,1,0,0,"DS,TS"
2026-04-02 20:52:00,METAR KIOW 022052Z AUTO 19014G26KT 10SM FEW030 BKN034 BKN043 22/16 A2951 RMK AO2 PK WND 19028/2039 LTG DSNT SW AND W SLP993 60000 T02220161 58019,0,14.0,1,16090,0,0,0,DS
2026-04-02 20:36:00,SPECI KIOW 022036Z AUTO 19018G25KT 10SM FEW026 SCT030 OVC038 22/16 A2952 RMK AO2 PK WND 19027/2024 T02220161,0,18.0,1,16090,0,0,0,
2026-04-02 19:52:00,METAR KIOW 021952Z AUTO 19018G25KT 10SM BKN018 BKN026 21/17 A2954 RMK AO2 PK WND 20028/1939 SLP003 T02110167 $,0,18.0,1,16090,0,0,0,
2026-04-02 19:47:00,SPECI KIOW 021947Z AUTO 19016G28KT 10SM BKN018 21/17 A2954 RMK AO2 PK WND 20028/1939 $,0,16.0,1,16090,0,0,0,
2026-04-02 18:52:00,METAR KIOW 021852Z AUTO 16010KT 4SM HZ BKN010 OVC013 16/ A2957 RMK AO2 RAE1753 CIG 007V011 SLP014 P0000 T0161 $,0,10.0,0,6436,0,0,0,RA
2026-04-02 18:29:00,SPECI KIOW 021829Z AUTO 15007KT 5SM HZ SCT005 OVC010 14/ A2958 RMK AO2 RAE1753 CIG 008V014 P0000 T0144 $,0,7.0,0,8045,0,0,0,RA
2026-04-02 18:08:00,SPECI KIOW 021808Z AUTO 14007KT 5SM HZ BKN007 BKN014 OVC024 13/ A2959 RMK AO2 RAE1753 P0000 T0133 $,0,7.0,0,8045,0,0,0,RA
2026-04-02 17:52:00,METAR KIOW 021752Z AUTO 13005KT 7SM -RA SCT006 BKN014 OVC020 13/ A2959 RMK AO2 SLP023 P0022 60058 T0128 10128 20061 58016 $,0,5.0,0,11263,0,0,0,-RA
2026-04-02 17:46:00,SPECI KIOW 021746Z AUTO 14005KT 3SM -RA SCT004 BKN018 OVC027 12/ A2960 RMK AO2 P0022 $,0,5.0,0,4827,0,0,0,-RA
2026-04-02 17:43:00,SPECI KIOW 021743Z AUTO 14004KT 2SM RA SCT004 BKN016 OVC023 12/ A2960 RMK AO2 P0022 T0122 $,0,4.0,0,3218,0,0,0,RA
2026-04-02 17:38:00,SPECI KIOW 021738Z AUTO 13005KT 1 1/2SM +RA SCT004 SCT014 OVC023 12/ A2960 RMK AO2 P0022 T0122 $,0,5.0,0,2414,0,1,0,+RA
2026-04-02 17:29:00,SPECI KIOW 021729Z AUTO 13005KT 2SM RA SCT006 BKN022 OVC075 12/ A2961 RMK AO2 P0016 T0117 $,0,5.0,0,3218,0,0,0,RA
2026-04-02 17:23:00,SPECI KIOW 021723Z AUTO 14004KT 1 3/4SM RA BKN006 BKN019 OVC080 12/ A2961 RMK AO2 P0012 T0117 $,0,4.0,0,2816,0,0,0,RA
2026-04-02 17:18:00,SPECI KIOW 021718Z AUTO 13005KT 2SM +RA SCT006 BKN017 OVC080 12/ A2961 RMK AO2 P0011 T0117 $,0,5.0,0,3218,0,1,0,+RA
2026-04-02 17:15:00,SPECI KIOW 021715Z AUTO 14007KT 2 1/2SM RA BKN004 BKN019 OVC075 12/ A2962 RMK AO2 P0010 T0117 $,0,7.0,0,4022,0,0,0,RA
2026-04-02 17:12:00,SPECI KIOW 021712Z AUTO 15006KT 4SM RA BKN004 BKN020 OVC070 12/ A2962 RMK AO2 P0007 T0117 $,0,6.0,0,6436,0,0,0,RA
2026-04-02 17:00:00,SPECI KIOW 021700Z AUTO 15009KT 2SM +RA BKN004 BKN009 OVC026 11/ A2963 RMK AO2 P0005 T0111 $,0,9.0,0,3218,0,1,0,+RA
2026-04-02 16:52:00,METAR KIOW 021652Z AUTO 13007KT 3SM RA OVC004 11/ A2964 RMK AO2 RAE01B12 SLP039 P0012 T0106 $,0,7.0,0,4827,0,0,0,RA
2026-04-02 16:39:00,SPECI KIOW 021639Z AUTO 14006KT 3SM -RA OVC004 11/ A2964 RMK AO2 RAE01B12 P0010 T0106 $,0,6.0,0,4827,0,0,0,"-RA,RA"
2026-04-02 16:20:00,SPECI KIOW 021620Z AUTO 13010KT 1 3/4SM RA BR OVC004 10/08 A2963 RMK AO2 RAE01B12 P0003 T01000078 $,0,10.0,0,2816,0,0,1,"BR,RA"
2026-04-02 16:06:00,SPECI KIOW 021606Z AUTO 12009KT 10SM OVC004 09/08 A2963 RMK AO2 RAE01 P0000 T00940078 $,0,9.0,0,16090,0,0,0,
2026-04-02 15:52:00,METAR KIOW 021552Z AUTO 11010KT 7SM -RA OVC005 09/08 A2964 RMK AO2 SLP039 P0006 T00940078,0,10.0,0,11263,0,0,0,-RA
2026-04-02 15:47:00,SPECI KIOW 021547Z AUTO 10009KT 5SM -RA BR OVC005 09/08 A2964 RMK AO2 P0006,0,9.0,0,8045,0,0,1,"-RA,BR"
2026-04-02 14:52:00,METAR KIOW 021452Z AUTO 11007KT 5SM -RA OVC004 08/ A2967 RMK AO2 SLP051 P0006 60018 T0083 58023 $,0,7.0,0,8045,0,0,0,-RA
2026-04-02 14:39:00,SPECI KIOW 021439Z AUTO 10008KT 3SM -RA OVC004 08/ A2967 RMK AO2 PRESFR P0005 T0078 $,0,8.0,0,4827,0,0,0,-RA
2026-04-02 14:30:00,SPECI KIOW 021430Z AUTO 11008KT 1 3/4SM RA OVC004 08/ A2969 RMK AO2 P0005 T0078 $,0,8.0,0,2816,0,0,0,RA
2026-04-02 14:06:00,SPECI KIOW 021406Z AUTO 11008KT 6SM -RA BR OVC004 07/06 A2970 RMK AO2 P0001 T00720056 $,0,8.0,0,9654,0,0,1,"-RA,BR"
2026-04-02 13:52:00,METAR KIOW 021352Z AUTO 10010KT 6SM -RA BR OVC005 07/06 A2970 RMK AO2 SLP060 P0005 T00720056,0,10.0,0,9654,0,0,1,"-RA,BR"
2026-04-02 12:52:00,METAR KIOW 021252Z AUTO 10008KT 4SM -RA OVC005 07/ A2973 RMK AO2 SLP070 P0007 T0067 $,0,8.0,0,6436,0,0,0,-RA
2026-04-02 11:52:00,METAR KIOW 021152Z AUTO 09008KT 6SM -RA OVC005 06/ A2974 RMK AO2 SLP075 P0005 60056 70116 T0061 10061 20044 56020 $,0,8.0,0,9654,0,0,0,-RA
2026-04-02 11:18:00,SPECI KIOW 021118Z AUTO 09007KT 7SM -RA BKN005 OVC009 06/ A2975 RMK AO2 P0002 T0061 $,0,7.0,0,11263,0,0,0,-RA
2026-04-02 10:52:00,METAR KIOW 021052Z AUTO 08007KT 5SM -RA OVC008 06/ A2976 RMK AO2 SLP082 P0013 T0061 $,0,7.0,0,8045,0,0,0,-RA
2026-04-02 10:31:00,SPECI KIOW 021031Z AUTO 08006KT 6SM -RA OVC006 06/ A2977 RMK AO2 P0010 T0056 $,0,6.0,0,9654,0,0,0,-RA
2026-04-02 10:15:00,SPECI KIOW 021015Z AUTO 12006KT 4SM -RA OVC005 06/ A2979 RMK AO2 P0008 T0056 $,0,6.0,0,6436,0,0,0,-RA
2026-04-02 09:54:00,SPECI KIOW 020954Z AUTO 08007KT 2 1/2SM RA OVC005 06/ A2977 RMK AO2 P0001 T0056 $,0,7.0,0,4022,0,0,0,RA
2026-04-02 09:52:00,METAR KIOW 020952Z AUTO 08008KT 2 1/2SM RA OVC006 06/ A2977 RMK AO2 SLP085 P0011 T0056 $,0,8.0,0,4022,0,0,0,RA
2026-04-02 08:52:00,METAR KIOW 020852Z AUTO 08012KT 6SM -RA BKN006 OVC010 05/ A2980 RMK AO2 SLP096 P0007 60027 T0050 58050 $,0,12.0,0,9654,0,0,0,-RA
2026-04-02 07:52:00,METAR KIOW 020752Z AUTO 07009KT 6SM -RA OVC006 04/ A2987 RMK AO2 PRESFR SLP118 P0008 T0044 $,0,9.0,0,9654,0,0,0,-RA
2026-04-02 06:52:00,METAR KIOW 020652Z AUTO 08009G17KT 4SM RA OVC007 04/ A2992 RMK AO2 SLP134 P0012 T0044 $,0,9.0,1,6436,0,0,0,RA
2026-04-02 06:00:00,SPECI KIOW 020600Z AUTO 09008KT 4SM RA BKN006 OVC013 04/ A2995 RMK AO2 P0003 T0044 $,0,8.0,0,6436,0,0,0,RA
2026-04-02 05:52:00,METAR KIOW 020552Z AUTO 10010KT 2 1/2SM RA BKN006 BKN011 OVC015 04/ A2995 RMK AO2 SLP147 P0033 60059 T0044 10072 20039 401220039 56003 $,0,10.0,0,4022,0,0,0,RA
2026-04-02 05:48:00,SPECI KIOW 020548Z AUTO 10009KT 2 1/2SM +RA OVC006 04/ A2996 RMK AO2 P0032 $,0,9.0,0,4022,0,1,0,+RA
2026-04-02 05:32:00,SPECI KIOW 020532Z AUTO 08011KT 1 3/4SM +RA OVC008 04/ A2995 RMK AO2 P0018 T0039 $,0,11.0,0,2816,0,1,0,+RA
2026-04-02 04:52:00,METAR KIOW 020452Z AUTO 09013G21KT 3SM -RA OVC009 04/ A2996 RMK AO2 SLP148 P0011 T0044 $,0,13.0,1,4827,0,0,0,-RA
2026-04-02 03:52:00,METAR KIOW 020352Z AUTO 09010G23KT 8SM -RA OVC008 04/ A2996 RMK AO2 PK WND 09026/0330 CIG 007V012 SLP150 P0010 T0044 $,0,10.0,1,12872,0,0,0,-RA
2026-04-02 03:05:00,SPECI KIOW 020305Z AUTO 10012G22KT 3SM +RA OVC008 04/ A3000 RMK AO2 CIG 008V011 P0004 T0044 $,0,12.0,1,4827,0,1,0,+RA
2026-04-02 02:52:00,METAR KIOW 020252Z AUTO 10011G22KT 7SM -RA OVC011 04/ A3000 RMK AO2 PK WND 10027/0159 CIG 008V014 SLP163 P0001 60005 T0044 56004 $,0,11.0,1,11263,0,0,0,-RA
2026-04-02 01:52:00,METAR KIOW 020152Z AUTO 09013G28KT 6SM -RA BR OVC014 05/03 A3000 RMK AO2 PK WND 10032/0055 SLP164 P0002 T00500028 $,0,13.0,1,9654,0,0,1,"-RA,BR"
2026-04-02 01:48:00,SPECI KIOW 020148Z AUTO 09013G28KT 8SM -RA OVC014 06/03 A3000 RMK AO2 PK WND 10032/0055 PRESFR P0001 $,0,13.0,1,12872,0,0,0,-RA
2026-04-02 00:52:00,METAR KIOW 020052Z AUTO 09013G23KT 6SM -RA OVC019 06/03 A3002 RMK AO2 RAE14B35 SLP168 P0002 T00610028,0,13.0,1,9654,0,0,0,"-RA,RA"
2026-04-01 23:52:00,METAR KIOW 012352Z AUTO 09012G23KT 10SM -RA OVC022 07/02 A3004 RMK AO2 RAB43 SLP175 P0001 60001 T00720022 10083 20072 58011,0,12.0,1,16090,0,0,0,-RA
2026-04-01 22:52:00,METAR KIOW 012252Z AUTO 10012G22KT 10SM OVC023 08/01 A3006 RMK AO2 SLP183 T00780011,0,12.0,1,16090,0,0,0,
2026-04-01 21:52:00,METAR KIOW 012152Z AUTO 09012G22KT 10SM OVC023 08/01 A3006 RMK AO2 SLP180 T00830011,0,12.0,1,16090,0,0,0,
2026-04-01 20:52:00,METAR KIOW 012052Z AUTO 09012G21KT 10SM OVC022 08/01 A3007 RMK AO2 SLP184 T00830011 58024,0,12.0,1,16090,0,0,0,
2026-04-01 19:52:00,METAR KIOW 011952Z AUTO 10012G21KT 10SM OVC025 08/01 A3012 RMK AO2 SLP201 T00780006,0,12.0,1,16090,0,0,0,
2026-04-01 19:44:00,SPECI KIOW 011944Z AUTO 10011G19KT 10SM BKN025 OVC035 08/00 A3012 RMK AO2 T00830000,0,11.0,1,16090,0,0,0,
2026-04-01 18:52:00,METAR KIOW 011852Z AUTO 08012G20KT 10SM OVC035 08/M01 A3015 RMK AO2 SLP212 T00831006,0,12.0,1,16090,0,0,0,
2026-04-01 17:52:00,METAR KIOW 011752Z AUTO 08013G22KT 10SM OVC036 08/M02 A3014 RMK AO2 SLP208 T00831017 10083 20067 58010,0,13.0,1,16090,0,0,0,
2026-04-01 16:52:00,METAR KIOW 011652Z AUTO 07014G25KT 10SM OVC044 07/M01 A3015 RMK AO2 SLP212 T00721011,0,14.0,1,16090,0,0,0,
2026-04-01 15:52:00,METAR KIOW 011552Z AUTO 09011G21KT 10SM OVC047 07/M01 A3016 RMK AO2 PK WND 05027/1504 SLP216 T00671006,0,11.0,1,16090,0,0,0,
2026-04-01 15:11:00,SPECI KIOW 011511Z AUTO 07014G27KT 10SM FEW019 OVC047 07/01 A3017 RMK AO2 PK WND 05027/1504 T00670006,0,14.0,1,16090,0,0,0,
2026-04-01 14:52:00,METAR KIOW 011452Z AUTO 07011G22KT 10SM BKN018 OVC047 07/01 A3017 RMK AO2 SLP219 T00670011 50014,0,11.0,1,16090,0,0,0,
2026-04-01 13:52:00,METAR KIOW 011352Z AUTO 09011G20KT 10SM OVC017 07/02 A3018 RMK AO2 SLP221 T00670022,0,11.0,1,16090,0,0,0,
2026-04-01 12:52:00,METAR KIOW 011252Z AUTO 07013KT 10SM BKN016 07/03 A3015 RMK AO2 SLP209 T00670028,0,13.0,0,16090,0,0,0,
2026-04-01 12:37:00,SPECI KIOW 011237Z AUTO 07014G23KT 10SM FEW010 BKN016 BKN024 07/03 A3014 RMK AO2 T00670028,0,14.0,1,16090,0,0,0,
2026-04-01 12:12:00,SPECI KIOW 011212Z AUTO 07013G19KT 10SM OVC010 07/ A3013 RMK AO2 CIG 008V011 T0072 $,0,13.0,1,16090,0,0,0,
2026-04-01 11:52:00,METAR KIOW 011152Z AUTO 09011G21KT 9SM OVC009 07/04 A3013 RMK AO2 RAE1058 SLP204 P0000 60000 70001 T00720044 10122 20072 53018 $,0,11.0,1,14481,0,0,0,RA
2026-04-01 11:36:00,SPECI KIOW 011136Z AUTO 09012G20KT 9SM OVC009 08/05 A3012 RMK AO2 RAE1058 P0000 T00780050,0,12.0,1,14481,0,0,0,RA
2026-04-01 10:59:00,SPECI KIOW 011059Z AUTO 08012G21KT 9SM BKN012 OVC019 08/06 A3011 RMK AO2 RAE58 P0000 T00830056,0,12.0,1,14481,0,0,0,
2026-04-01 10:52:00,METAR KIOW 011052Z AUTO 09013G21KT 10SM -RA SCT012 OVC019 09/06 A3010 RMK AO2 RAB25 SLP194 P0000 T00890056,0,13.0,1,16090,0,0,0,-RA
2026-04-01 10:05:00,SPECI KIOW 011005Z AUTO 05010KT 10SM BKN023 OVC110 10/03 A3011 RMK AO2 T01000033,0,10.0,0,16090,0,0,0,
2026-04-01 09:52:00,METAR KIOW 010952Z AUTO 06012G19KT 10SM FEW023 OVC110 11/04 A3010 RMK AO2 SLP191 T01060039,0,12.0,1,16090,0,0,0,
2026-04-01 08:52:00,METAR KIOW 010852Z AUTO 05010KT 10SM CLR 11/02 A3008 RMK AO2 SLP184 T01060017 51012,0,10.0,0,16090,0,0,0,
2026-04-01 07:52:00,METAR KIOW 010752Z AUTO 04009KT 10SM CLR 11/01 A3006 RMK AO2 SLP179 T01110011,0,9.0,0,16090,0,0,0,
2026-04-01 06:52:00,METAR KIOW 010652Z AUTO 03008KT 10SM CLR 12/01 A3007 RMK AO2 SLP181 T01170006,0,8.0,0,16090,0,0,0,
2026-04-01 05:52:00,METAR KIOW 010552Z AUTO 02011KT 10SM CLR 12/00 A3004 RMK AO2 SLP172 T01220000 10178 20122 402440122 50001,0,11.0,0,16090,0,0,0,
2026-04-01 04:52:00,METAR KIOW 010452Z AUTO 01010KT 10SM CLR 13/01 A3005 RMK AO2 SLP174 T01330011,0,10.0,0,16090,0,0,0,
2026-04-01 03:52:00,METAR KIOW 010352Z AUTO 36011KT 10SM CLR 14/02 A3005 RMK AO2 SLP173 T01390017,0,11.0,0,16090,0,0,0,
2026-04-01 02:52:00,METAR KIOW 010252Z AUTO 36013G20KT 10SM CLR 14/02 A3004 RMK AO2 SLP170 T01440017 53030,0,13.0,1,16090,0,0,0,
2026-04-01 01:52:00,METAR KIOW 010152Z AUTO 01011KT 10SM CLR 15/02 A2999 RMK AO2 SLP154 T01500017,0,11.0,0,16090,0,0,0,
2026-04-01 00:52:00,METAR KIOW 010052Z AUTO 35011G20KT 10SM CLR 17/02 A2998 RMK AO2 PK WND 35026/2353 SLP150 T01670017,0,11.0,1,16090,0,0,0,
2026-03-31 23:52:00,METAR KIOW 312352Z AUTO 36015G21KT 10SM CLR 18/02 A2995 RMK AO2 SLP139 T01780022 10211 20156 53029,0,15.0,1,16090,0,0,0,
2026-03-31 22:52:00,METAR KIOW 312252Z AUTO 03014G19KT 10SM CLR 19/04 A2991 RMK AO2 SLP127 T01940044,0,14.0,1,16090,0,0,0,
2026-03-31 21:52:00,METAR KIOW 312152Z AUTO 36011G19KT 10SM CLR 21/05 A2989 RMK AO2 SLP118 T02060050,0,11.0,1,16090,0,0,0,
2026-03-31 20:52:00,METAR KIOW 312052Z AUTO 36011G27KT 10SM CLR 20/06 A2986 RMK AO2 PK WND 01027/2044 SLP109 T02000061 51010,0,11.0,1,16090,0,0,0,
2026-03-31 19:52:00,METAR KIOW 311952Z AUTO 36015KT 10SM FEW050 19/09 A2985 RMK AO2 SLP105 T01940089,0,15.0,0,16090,0,0,0,
2026-03-31 18:52:00,METAR KIOW 311852Z AUTO 33009KT 10SM SCT047 BKN060 17/10 A2985 RMK AO2 SLP106 T01720100,0,9.0,0,16090,0,0,0,
2026-03-31 17:52:00,METAR KIOW 311752Z AUTO 32014G22KT 10SM BKN035 16/08 A2983 RMK AO2 WSHFT 1639 LTG DSNT E AND SE RAB1655E05 PRESRR SLP097 P0001 60001 T01610083 10222 20161 53024,0,14.0,1,16090,0,0,0,"DS,RA"
2026-03-31 17:36:00,SPECI KIOW 311736Z AUTO 31017G23KT 10SM CLR 17/09 A2981 RMK AO2 WSHFT 1639 LTG DSNT E AND SE RAB1655E05 P0001 T01720094,0,17.0,1,16090,0,0,0,"DS,RA"
2026-03-31 17:18:00,SPECI KIOW 311718Z AUTO 32015G20KT 10SM VCTS FEW037 SCT110 17/11 A2979 RMK AO2 WSHFT 1639 LTG DSNT E-S RAB1655E05 P0001 T01720106,0,15.0,1,16090,1,0,0,"DS,RA,TS,VC"
2026-03-31 17:10:00,SPECI KIOW 311710Z AUTO 32012KT 10SM FEW029 SCT035 BKN090 16/11 A2979 RMK AO2 WSHFT 1639 LTG DSNT S RAB1655E05 P0001 T01610106,0,12.0,0,16090,0,0,0,"DS,RA"
2026-03-31 16:59:00,SPECI KIOW 311659Z AUTO 32013G25KT 10SM VCTS -RA FEW029 BKN034 BKN047 17/12 A2979 RMK AO2 WSHFT 1639 RAB55 P0001 T01670117,0,13.0,1,16090,1,0,0,"-RA,TS,VC"
2026-03-31 16:52:00,METAR KIOW 311652Z AUTO 32018G28KT 10SM VCTS FEW029 BKN036 OVC090 18/13 A2979 RMK AO2 PK WND 28028/1645 WSHFT 1638 SLP083 T01830128,0,18.0,1,16090,1,0,0,"TS,VC"
2026-03-31 16:45:00,SPECI KIOW 311645Z AUTO 27019G28KT 10SM VCTS FEW028 BKN032 OVC095 22/15 A2976 RMK AO2 PK WND 28028/1645 LTG DSNT E T02220150,0,19.0,1,16090,1,0,0,"DS,TS,VC"
2026-03-31 15:52:00,METAR KIOW 311552Z AUTO 23010KT 10SM OVC060 21/15 A2976 RMK AO2 LTG DSNT E AND SE SLP072 T02060150,0,10.0,0,16090,0,0,0,DS
2026-03-31 14:52:00,METAR KIOW 311452Z AUTO 21013G20KT 10SM OVC055 19/14 A2976 RMK AO2 LTG DSNT SE-SW SLP072 T01940144 53009,0,13.0,1,16090,0,0,0,DS
2026-03-31 14:08:00,SPECI KIOW 311408Z AUTO 19010KT 10SM BKN060 19/14 A2974 RMK AO2 LTG DSNT E-SW T01940139,0,10.0,0,16090,0,0,0,DS
2026-03-31 13:52:00,METAR KIOW 311352Z AUTO 19010KT 10SM VCTS FEW065 FEW095 19/14 A2973 RMK AO2 LTG DSNT E-SW SLP064 T01940139,0,10.0,0,16090,1,0,0,"DS,TS,VC"
2026-03-31 12:52:00,METAR KIOW 311252Z AUTO 18007KT 8SM FEW110 19/14 A2974 RMK AO2 LTG DSNT SE AND S SLP066 T01890139,0,7.0,0,12872,0,0,0,DS
2026-03-31 11:52:00,METAR KIOW 311152Z AUTO 18008KT 10SM CLR 18/13 A2973 RMK AO2 SLP062 60058 70058 T01830133 10250 20167 55000 $,0,8.0,0,16090,0,0,0,
2026-03-31 10:52:00,METAR KIOW 311052Z AUTO 17008KT 10SM CLR 19/14 A2972 RMK AO2 SLP060 T01890139 $,0,8.0,0,16090,0,0,0,
2026-03-31 09:52:00,METAR KIOW 310952Z AUTO 17011KT 10SM SCT100 18/12 A2972 RMK AO2 SLP059 T01830122 $,0,11.0,0,16090,0,0,0,
2026-03-31 08:52:00,METAR KIOW 310852Z AUTO 17011KT 10SM CLR 18/ A2973 RMK AO2 SLP063 60058 T0178 58019 $,0,11.0,0,16090,0,0,0,
2026-03-31 07:51:00,METAR KIOW 310751Z AUTO 17006KT 10SM FEW030 BKN060 OVC100 17/15 A2975 RMK AO2 PK WND 31029/0700 LTG DSNT E AND SE RAE40 TSE45 SLP068 P0053 T01720150,0,6.0,0,16090,1,0,0,DS
2026-03-31 07:50:00,SPECI KIOW 310750Z AUTO 16007KT 10SM FEW032 BKN060 OVC085 17/15 A2975 RMK AO2 PK WND 31029/0700 LTG DSNT E AND SE RAE40 TSE45 P0053,0,7.0,0,16090,1,0,0,DS
2026-03-31 07:36:00,SPECI KIOW 310736Z AUTO 00000KT 9SM -TSRA SCT034 OVC060 18/15 A2976 RMK AO2 PK WND 31029/0700 LTG DSNT E P0053 T01780150,0,0.0,0,14481,1,0,0,"DS,RA"
2026-03-31 07:20:00,SPECI KIOW 310720Z AUTO VRB04G17KT 2SM +TSRA BKN038 BKN060 OVC080 18/14 A2977 RMK AO2 PK WND 31029/0700 LTG DSNT NE AND E AND W PRESFR P0046 T01780144,0,4.0,1,3218,1,0,0,"DS,RA"
2026-03-31 07:07:00,SPECI KIOW 310707Z AUTO 33015G29KT 1 3/4SM +TSRA SCT039 BKN080 OVC095 17/13 A2980 RMK AO2 PK WND 31029/0700 LTG DSNT NE AND E AND W P0022 T01720133,0,15.0,1,2816,1,0,0,"DS,RA"
2026-03-31 06:52:00,METAR KIOW 310652Z AUTO 34015G19KT 7SM -TSRA OVC090 19/13 A2979 RMK AO2 PK WND 30028/0605 WSHFT 0549 LTG DSNT ALQDS RAB01 TSB29 PRESFR SLP081 P0005 T01890128,0,15.0,1,11263,1,0,0,"DS,RA"
2026-03-31 06:35:00,SPECI KIOW 310635Z AUTO 30009G18KT 8SM -TSRA FEW060 OVC085 19/13 A2980 RMK AO2 PK WND 30028/0605 WSHFT 0549 LTG DSNT ALQDS RAB01 TSB29 PRESFR P0002 T01940128,0,9.0,1,12872,1,0,0,"DS,RA"
2026-03-31 06:09:00,SPECI KIOW 310609Z AUTO 31015G28KT 10SM VCTS -RA BKN055 BKN070 22/12 A2982 RMK AO2 PK WND 30028/0605 WSHFT 0549 LTG DSNT W-NE RAB01 P0000 T02170117,0,15.0,1,16090,1,0,0,"-RA,DS,TS,VC"
2026-03-31 06:02:00,SPECI KIOW 310602Z AUTO 30018G31KT 10SM VCTS -RA BKN055 BKN070 24/12 A2982 RMK AO2 LTG DSNT W-NE RAB01 PRESRR P0000 T02390122,0,18.0,1,16090,1,0,0,"-RA,DS,TS,VC"
2026-03-31 05:52:00,METAR KIOW 310552Z AUTO 25011KT 10SM SCT070 24/13 A2979 RMK AO2 LTG DSNT W-NE PRESRR SLP081 T02440128 10289 20239 403000050 53026,0,11.0,0,16090,0,0,0,DS
2026-03-31 04:52:00,METAR KIOW 310452Z AUTO 22008KT 10SM CLR 24/13 A2974 RMK AO2 LTG DSNT N AND NW SLP065 T02390133,0,8.0,0,16090,0,0,0,DS
2026-03-31 03:52:00,METAR KIOW 310352Z AUTO 21007KT 10SM CLR 24/13 A2972 RMK AO2 SLP059 T02440128,0,7.0,0,16090,0,0,0,
2026-03-31 02:52:00,METAR KIOW 310252Z AUTO 19011KT 10SM CLR 25/13 A2971 RMK AO2 SLP055 T02500128 50006,0,11.0,0,16090,0,0,0,
2026-03-31 01:52:00,METAR KIOW 310152Z AUTO 21008KT 10SM CLR 26/13 A2972 RMK AO2 SLP061 T02610128,0,8.0,0,16090,0,0,0,
2026-03-31 00:52:00,METAR KIOW 310052Z AUTO 22010KT 10SM CLR 27/13 A2972 RMK AO2 SLP060 T02720128,0,10.0,0,16090,0,0,0,
2026-03-30 23:52:00,METAR KIOW 302352Z AUTO 21012KT 10SM CLR 29/12 A2969 RMK AO2 PK WND 21027/2305 SLP052 T02890122 10300 20261 55002,0,12.0,0,16090,0,0,0,
2026-03-30 22:52:00,METAR KIOW 302252Z AUTO 20017G28KT 10SM CLR 29/12 A2967 RMK AO2 PK WND 20032/2215 SLP044 T02940117,0,17.0,1,16090,0,0,0,
2026-03-30 21:52:00,METAR KIOW 302152Z AUTO 19019G27KT 10SM CLR 30/11 A2967 RMK AO2 PK WND 19030/2125 SLP044 T03000111,0,19.0,1,16090,0,0,0,
2026-03-30 20:52:00,METAR KIOW 302052Z AUTO 19014G27KT 10SM CLR 29/11 A2970 RMK AO2 PK WND 16027/2046 SLP053 T02940111 58032,0,14.0,1,16090,0,0,0,
2026-03-30 19:52:00,METAR KIOW 301952Z AUTO 19016G24KT 10SM CLR 29/11 A2973 RMK AO2 SLP065 T02890111,0,16.0,1,16090,0,0,0,
2026-03-30 18:52:00,METAR KIOW 301852Z AUTO 19012G20KT 10SM CLR 28/11 A2976 RMK AO2 SLP077 T02780111,0,12.0,1,16090,0,0,0,
2026-03-30 17:52:00,METAR KIOW 301752Z AUTO 20010KT 10SM CLR 26/11 A2979 RMK AO2 SLP087 T02610106 10261 20056 58021,0,10.0,0,16090,0,0,0,
2026-03-30 16:52:00,METAR KIOW 301652Z AUTO 20008KT 10SM CLR 24/11 A2983 RMK AO2 SLP099 T02390106,0,8.0,0,16090,0,0,0,
2026-03-30 15:52:00,METAR KIOW 301552Z AUTO 23010KT 10SM CLR 22/10 A2985 RMK AO2 SLP106 T02220100,0,10.0,0,16090,0,0,0,
2026-03-30 14:52:00,METAR KIOW 301452Z AUTO 24011KT 10SM CLR 20/09 A2986 RMK AO2 SLP108 T02000094 58005,0,11.0,0,16090,0,0,0,
2026-03-30 13:52:00,METAR KIOW 301352Z AUTO VRB03KT 10SM CLR 14/07 A2986 RMK AO2 SLP111 T01390072,0,3.0,0,16090,0,0,0,
2026-03-30 12:52:00,METAR KIOW 301252Z AUTO 00000KT 10SM CLR 09/06 A2987 RMK AO2 SLP116 T00890056,0,0.0,0,16090,0,0,0,
2026-03-30 11:52:00,METAR KIOW 301152Z AUTO 00000KT 10SM CLR 06/ A2987 RMK AO2 SLP116 T0056 10078 20050 56007 $,0,0.0,0,16090,0,0,0,
2026-03-30 10:52:00,METAR KIOW 301052Z AUTO 00000KT 10SM CLR 08/ A2987 RMK AO2 SLP116 T0078 $,0,0.0,0,16090,0,0,0,
2026-03-30 09:52:00,METAR KIOW 300952Z AUTO 00000KT 10SM CLR 07/ A2988 RMK AO2 SLP118 T0072 $,0,0.0,0,16090,0,0,0,
2026-03-30 08:52:00,METAR KIOW 300852Z AUTO 00000KT 10SM CLR 07/ A2989 RMK AO2 SLP124 T0067 56018 $,0,0.0,0,16090,0,0,0,
2026-03-30 07:52:00,METAR KIOW 300752Z AUTO 00000KT 10SM CLR 06/02 A2991 RMK AO2 SLP129 T00610022 $,0,0.0,0,16090,0,0,0,
2026-03-30 06:52:00,METAR KIOW 300652Z AUTO 00000KT 10SM CLR 06/02 A2992 RMK AO2 SLP135 T00610022 $,0,0.0,0,16090,0,0,0,
2026-03-30 05:52:00,METAR KIOW 300552Z AUTO 00000KT 10SM CLR 07/02 A2994 RMK AO2 SLP142 T00720022 10161 20067 401670028 58013 $,0,0.0,0,16090,0,0,0,
2026-03-30 04:52:00,METAR KIOW 300452Z AUTO 00000KT 10SM CLR 08/03 A2996 RMK AO2 SLP147 T00830028 $,0,0.0,0,16090,0,0,0,
2026-03-30 03:52:00,METAR KIOW 300352Z AUTO 00000KT 10SM CLR 10/03 A2998 RMK AO2 SLP153 T01000033 $,0,0.0,0,16090,0,0,0,
2026-03-30 02:52:00,METAR KIOW 300252Z AUTO 00000KT 10SM CLR 11/03 A2998 RMK AO2 SLP154 T01110033 53007 $,0,0.0,0,16090,0,0,0,
2026-03-30 01:52:00,METAR KIOW 300152Z AUTO 12005KT 10SM CLR 13/03 A2997 RMK AO2 SLP149 T01280033 $,0,5.0,0,16090,0,0,0,
2026-03-30 00:52:00,METAR KIOW 300052Z AUTO 17008KT 10SM CLR 13/03 A2996 RMK AO2 SLP149 T01330033 $,0,8.0,0,16090,0,0,0,
2026-03-29 23:52:00,METAR KIOW 292352Z AUTO 16008G22KT 140V200 10SM CLR 16/02 A2996 RMK AO2 SLP147 T01610022 10167 20144 56013 $,0,8.0,1,16090,0,0,0,
2026-03-29 22:52:00,METAR KIOW 292252Z AUTO 16016G22KT 10SM FEW110 16/02 A2997 RMK AO2 SLP149 T01610022 $,0,16.0,1,16090,0,0,0,
2026-03-29 21:52:00,METAR KIOW 292152Z AUTO 17013G19KT 10SM CLR 16/02 A2998 RMK AO2 SLP155 T01610022 $,0,13.0,1,16090,0,0,0,
2026-03-29 20:52:00,METAR KIOW 292052Z AUTO 17011KT 10SM CLR 16/01 A3000 RMK AO2 SLP160 T01560011 56026 $,0,11.0,0,16090,0,0,0,
2026-03-29 19:52:00,METAR KIOW 291952Z AUTO 17015G19KT 10SM CLR 16/01 A3002 RMK AO2 SLP168 T01610011 $,0,15.0,1,16090,0,0,0,
2026-03-29 18:52:00,METAR KIOW 291852Z AUTO 18012G20KT 10SM FEW050 16/01 A3005 RMK AO2 SLP178 T01610006 $,0,12.0,1,16090,0,0,0,
2026-03-29 17:52:00,METAR KIOW 291752Z AUTO 17010KT 10SM FEW047 OVC055 15/M02 A3008 RMK AO2 SLP187 T01501017 10167 20039 58016 $,0,10.0,0,16090,0,0,0,
2026-03-29 16:52:00,METAR KIOW 291652Z AUTO 19013KT 10SM FEW045 OVC055 14/M03 A3010 RMK AO2 SLP196 T01441028 $,0,13.0,0,16090,0,0,0,
2026-03-29 14:52:00,METAR KIOW 291452Z AUTO 19011KT 10SM CLR 13/M03 A3013 RMK AO2 SLP204 T01281033 58009 $,0,11.0,0,16090,0,0,0,
2026-03-29 13:52:00,METAR KIOW 291352Z AUTO 18012KT 10SM CLR 10/M03 A3014 RMK AO2 SLP208 T01001033 $,0,12.0,0,16090,0,0,0,
2026-03-29 12:52:00,METAR KIOW 291252Z AUTO 00000KT 10SM CLR 04/M03 A3015 RMK AO2 SLP215 T00441028 $,0,0.0,0,16090,0,0,0,
2026-03-29 11:52:00,METAR KIOW 291152Z AUTO 00000KT 10SM CLR 04/M04 A3015 RMK AO2 SLP214 T00391039 10050 20028 56011 $,0,0.0,0,16090,0,0,0,
2026-03-29 10:52:00,METAR KIOW 291052Z AUTO 00000KT 10SM CLR 03/M04 A3016 RMK AO2 SLP215 T00331039 $,0,0.0,0,16090,0,0,0,
2026-03-29 09:52:00,METAR KIOW 290952Z AUTO 14004KT 10SM CLR 03/M04 A3017 RMK AO2 SLP220 T00331039 $,0,4.0,0,16090,0,0,0,
2026-03-29 08:52:00,METAR KIOW 290852Z AUTO 11003KT 10SM SCT080 05/M04 A3019 RMK AO2 SLP225 T00501039 56021 $,0,3.0,0,16090,0,0,0,
2026-03-29 07:52:00,METAR KIOW 290752Z AUTO 16003KT 10SM OVC085 03/M05 A3020 RMK AO2 SLP232 T00331050 $,0,3.0,0,16090,0,0,0,
2026-03-29 06:52:00,METAR KIOW 290652Z AUTO 00000KT 10SM SCT095 04/M04 A3023 RMK AO2 SLP241 T00391044 $,0,0.0,0,16090,0,0,0,
2026-03-29 05:52:00,METAR KIOW 290552Z AUTO 12003KT 10SM BKN100 04/M05 A3025 RMK AO2 SLP248 T00441050 10117 20022 401331083 56007 $,0,3.0,0,16090,0,0,0,
2026-03-29 04:52:00,METAR KIOW 290452Z AUTO 16003KT 10SM CLR 03/M06 A3025 RMK AO2 SLP249 T00331056 $,0,3.0,0,16090,0,0,0,
2026-03-29 03:52:00,METAR KIOW 290352Z AUTO 14005KT 10SM CLR 04/M06 A3026 RMK AO2 SLP252 T00441061 $,0,5.0,0,16090,0,0,0,
2026-03-29 02:52:00,METAR KIOW 290252Z AUTO 13006KT 10SM CLR 06/M07 A3027 RMK AO2 SLP257 T00611067 55002 $,0,6.0,0,16090,0,0,0,
2026-03-29 01:52:00,METAR KIOW 290152Z AUTO 17010KT 10SM CLR 08/M07 A3027 RMK AO2 SLP256 T00831067 $,0,10.0,0,16090,0,0,0,
2026-03-29 00:52:00,METAR KIOW 290052Z AUTO 16008KT 10SM CLR 09/M07 A3027 RMK AO2 SLP256 T00941072 $,0,8.0,0,16090,0,0,0,
2026-03-28 23:52:00,METAR KIOW 282352Z AUTO 18012G19KT 10SM CLR 12/M09 A3028 RMK AO2 SLP259 T01171094 10133 20083 56036 $,0,12.0,1,16090,0,0,0,
2026-03-28 22:52:00,METAR KIOW 282252Z AUTO 18015G23KT 10SM CLR 12/M11 A3029 RMK AO2 PK WND 18027/2159 SLP264 T01221106 $,0,15.0,1,16090,0,0,0,
2026-03-28 21:52:00,METAR KIOW 282152Z AUTO 20013G27KT 10SM CLR 13/M12 A3033 RMK AO2 PK WND 18028/2124 SLP277 T01331117 $,0,13.0,1,16090,0,0,0,
2026-03-28 20:52:00,METAR KIOW 282052Z AUTO 20013G21KT 10SM CLR 13/M12 A3038 RMK AO2 SLP295 T01281117 58052 $,0,13.0,1,16090,0,0,0,
2026-03-28 19:52:00,METAR KIOW 281952Z AUTO 20011G20KT 10SM CLR 11/M11 A3043 RMK AO2 SLP312 T01111111 $,0,11.0,1,16090,0,0,0,
2026-03-28 18:52:00,METAR KIOW 281852Z AUTO 19014G22KT 10SM OVC100 11/M11 A3050 RMK AO2 SLP332 T01061111 $,0,14.0,1,16090,0,0,0,
2026-03-28 17:52:00,METAR KIOW 281752Z AUTO 18008G17KT 10SM BKN110 08/M11 A3054 RMK AO2 SLP349 T00781106 10078 21072 58039 $,0,8.0,1,16090,0,0,0,
2026-03-28 16:52:00,METAR KIOW 281652Z AUTO 17011KT 10SM CLR 06/M09 A3058 RMK AO2 SLP363 T00611089 $,0,11.0,0,16090,0,0,0,
2026-03-28 15:52:00,METAR KIOW 281552Z AUTO 19011G16KT 10SM CLR 03/M09 A3064 RMK AO2 SLP384 T00331089 $,0,11.0,1,16090,0,0,0,
2026-03-28 14:52:00,METAR KIOW 281452Z AUTO 16009KT 10SM CLR 01/M08 A3066 RMK AO2 SLP390 T00061083 53000 $,0,9.0,0,16090,0,0,0,
2026-03-28 13:52:00,METAR KIOW 281352Z AUTO 00000KT 10SM CLR M02/M06 A3066 RMK AO2 SLP389 T10221061 $,0,0.0,0,16090,0,0,0,
2026-03-28 12:52:00,METAR KIOW 281252Z AUTO 00000KT 10SM CLR M04/ A3066 RMK AO2 SLP389 T1044 $,0,0.0,0,16090,0,0,0,
2026-03-28 11:52:00,METAR KIOW 281152Z AUTO 00000KT 10SM CLR M07/M12 A3066 RMK AO2 SLP390 T10671117 11011 21083 56005 $,0,0.0,0,16090,0,0,0,
2026-03-28 10:52:00,METAR KIOW 281052Z AUTO 00000KT 10SM CLR M07/M11 A3066 RMK AO2 SLP391 T10671111,0,0.0,0,16090,0,0,0,
2026-03-28 09:52:00,METAR KIOW 280952Z AUTO 00000KT 10SM CLR M06/M11 A3067 RMK AO2 SLP392 T10561106,0,0.0,0,16090,0,0,0,
2026-03-28 08:52:00,METAR KIOW 280852Z AUTO 28005KT 10SM CLR M06/M11 A3067 RMK AO2 SLP395 T10611106 50000,0,5.0,0,16090,0,0,0,
2026-03-28 07:52:00,METAR KIOW 280752Z AUTO 26005KT 10SM CLR M06/M10 A3068 RMK AO2 SLP398 T10561100,0,5.0,0,16090,0,0,0,
2026-03-28 06:52:00,METAR KIOW 280652Z AUTO 34010KT 10SM CLR M01/M09 A3068 RMK AO2 SLP396 T10111094,0,10.0,0,16090,0,0,0,
2026-03-28 05:52:00,METAR KIOW 280552Z AUTO 33007KT 10SM CLR M01/M09 A3068 RMK AO2 SLP394 T10111094 10072 21011 401001011 50010,0,7.0,0,16090,0,0,0,
2026-03-28 04:52:00,METAR KIOW 280452Z AUTO 34012G21KT 10SM CLR 00/M10 A3068 RMK AO2 SLP396 T00001100,0,12.0,1,16090,0,0,0,
2026-03-28 03:52:00,METAR KIOW 280352Z AUTO 33011G27KT 10SM CLR 01/M09 A3066 RMK AO2 PK WND 34027/0332 SLP391 T00061094,0,11.0,1,16090,0,0,0,
2026-03-28 02:52:00,METAR KIOW 280252Z AUTO 34017G28KT 10SM CLR 02/M08 A3065 RMK AO2 PK WND 34028/0251 SLP384 T00221083 53027,0,17.0,1,16090,0,0,0,
2026-03-28 01:52:00,METAR KIOW 280152Z AUTO 32014G23KT 10SM CLR 04/M09 A3061 RMK AO2 SLP374 T00391089,0,14.0,1,16090,0,0,0,
2026-03-28 00:52:00,METAR KIOW 280052Z AUTO 31011G20KT 10SM CLR 05/M09 A3059 RMK AO2 PK WND 33029/0015 SLP366 T00501089,0,11.0,1,16090,0,0,0,
2026-03-27 23:52:00,METAR KIOW 272352Z AUTO 32015G28KT 10SM CLR 07/M09 A3056 RMK AO2 PK WND 31032/2256 SLP356 T00721089 10100 20072 53016,0,15.0,1,16090,0,0,0,
2026-03-27 22:52:00,METAR KIOW 272252Z AUTO 32020G28KT 10SM CLR 08/M09 A3054 RMK AO2 PK WND 36035/2220 SLP349 T00831089,0,20.0,1,16090,0,0,0,
2026-03-27 21:52:00,METAR KIOW 272152Z AUTO 32018G28KT 10SM CLR 09/M09 A3052 RMK AO2 PK WND 34033/2142 SLP341 T00941089,0,18.0,1,16090,0,0,0,
2026-03-27 20:52:00,METAR KIOW 272052Z AUTO 30015G27KT 10SM CLR 10/M08 A3052 RMK AO2 PK WND 30031/2010 SLP338 T01001078 50000,0,15.0,1,16090,0,0,0,
2026-03-27 19:52:00,METAR KIOW 271952Z AUTO 33019G26KT 10SM CLR 09/M08 A3052 RMK AO2 PK WND 30036/1916 SLP340 T00891078,0,19.0,1,16090,0,0,0,
2026-03-27 18:52:00,METAR KIOW 271852Z AUTO 32017G32KT 10SM FEW055 10/M06 A3051 RMK AO2 PK WND 01036/1806 SLP337 T01001061,0,17.0,1,16090,0,0,0,
2026-03-27 17:52:00,METAR KIOW 271752Z AUTO 33017G31KT 10SM CLR 09/M07 A3052 RMK AO2 PK WND 35033/1734 SLP338 T00891067 10089 20006 58002,0,17.0,1,16090,0,0,0,
2026-03-27 16:52:00,METAR KIOW 271652Z AUTO 33017G26KT 10SM CLR 07/M08 A3052 RMK AO2 PK WND 36026/1648 SLP339 T00721078,0,17.0,1,16090,0,0,0,
2026-03-27 15:52:00,METAR KIOW 271552Z AUTO 33012G23KT 10SM CLR 06/M08 A3053 RMK AO2 SLP342 T00561078,0,12.0,1,16090,0,0,0,
2026-03-25 14:52:00,METAR KIOW 251452Z AUTO 19009KT 10SM CLR 13/M01 A2994 RMK AO2 SLP137 T01331006 58023,0,9.0,0,16090,0,0,0,
2026-03-25 13:52:00,METAR KIOW 251352Z AUTO VRB03KT 10SM CLR 10/01 A2997 RMK AO2 SLP150 T01000006,0,3.0,0,16090,0,0,0,
2026-03-25 12:52:00,METAR KIOW 251252Z AUTO 12003KT 10SM CLR 07/M01 A3000 RMK AO2 SLP160 T00671006,0,3.0,0,16090,0,0,0,
2026-03-25 11:52:00,METAR KIOW 251152Z AUTO 00000KT 10SM CLR 06/M02 A3000 RMK AO2 SLP162 T00561017 10067 20033 56014,0,0.0,0,16090,0,0,0,
2026-03-25 10:52:00,METAR KIOW 251052Z AUTO 00000KT 10SM CLR 04/M02 A3001 RMK AO2 SLP164 T00441022,0,0.0,0,16090,0,0,0,
2026-03-25 09:52:00,METAR KIOW 250952Z AUTO 00000KT 10SM CLR 04/M02 A3002 RMK AO2 SLP167 T00391022,0,0.0,0,16090,0,0,0,
2026-03-25 08:52:00,METAR KIOW 250852Z AUTO 00000KT 10SM CLR 05/M03 A3004 RMK AO2 SLP176 T00501033 56023,0,0.0,0,16090,0,0,0,
2026-03-25 07:52:00,METAR KIOW 250752Z AUTO 00000KT 10SM FEW060 04/M03 A3006 RMK AO2 SLP181 T00441028,0,0.0,0,16090,0,0,0,
2026-03-25 06:52:00,METAR KIOW 250652Z AUTO 12003KT 10SM BKN060 04/M02 A3008 RMK AO2 SLP191 T00441022,0,3.0,0,16090,0,0,0,
2026-03-25 05:52:00,METAR KIOW 250552Z AUTO 00000KT 10SM CLR 06/M03 A3011 RMK AO2 SLP200 T00611033 10128 20061 401500011 55009,0,0.0,0,16090,0,0,0,
2026-03-25 04:52:00,METAR KIOW 250452Z AUTO 12003KT 10SM CLR 08/M03 A3011 RMK AO2 SLP200 T00781033,0,3.0,0,16090,0,0,0,
2026-03-25 03:52:00,METAR KIOW 250352Z AUTO 14003KT 10SM CLR 09/M03 A3013 RMK AO2 SLP206 T00891028,0,3.0,0,16090,0,0,0,
2026-03-25 02:52:00,METAR KIOW 250252Z AUTO 14003KT 10SM CLR 09/M03 A3014 RMK AO2 SLP210 T00941033 56005,0,3.0,0,16090,0,0,0,
2026-03-25 01:52:00,METAR KIOW 250152Z AUTO 12003KT 10SM CLR 10/M04 A3015 RMK AO2 SLP213 T01001039,0,3.0,0,16090,0,0,0,
2026-03-25 00:52:00,METAR KIOW 250052Z AUTO 12004KT 10SM CLR 11/M05 A3014 RMK AO2 SLP210 T01111050,0,4.0,0,16090,0,0,0,
2026-03-24 23:52:00,METAR KIOW 242352Z AUTO 13006KT 10SM CLR 13/M05 A3016 RMK AO2 SLP217 T01281050 10150 20111 56008,0,6.0,0,16090,0,0,0,
2026-03-24 22:52:00,METAR KIOW 242252Z AUTO 13008KT 10SM CLR 14/M06 A3016 RMK AO2 SLP217 T01441061,0,8.0,0,16090,0,0,0,
2026-03-24 21:52:00,METAR KIOW 242152Z AUTO 15009KT 10SM CLR 14/M06 A3017 RMK AO2 SLP220 T01441061,0,9.0,0,16090,0,0,0,
2026-03-24 20:52:00,METAR KIOW 242052Z AUTO 14009KT 10SM CLR 15/M06 A3018 RMK AO2 SLP223 T01501061 58022,0,9.0,0,16090,0,0,0,
2026-03-24 19:52:00,METAR KIOW 241952Z AUTO 14007KT 10SM CLR 14/M07 A3020 RMK AO2 SLP228 T01441067,0,7.0,0,16090,0,0,0,
2026-03-24 18:52:00,METAR KIOW 241852Z AUTO 16007KT 10SM CLR 13/M05 A3024 RMK AO2 SLP241 T01281050,0,7.0,0,16090,0,0,0,
2026-03-24 17:52:00,METAR KIOW 241752Z AUTO 17010KT 10SM CLR 11/M05 A3025 RMK AO2 SLP246 T01061050 10111 20011 58019,0,10.0,0,16090,0,0,0,
2026-03-24 16:52:00,METAR KIOW 241652Z AUTO 15009KT 10SM CLR 09/M05 A3027 RMK AO2 SLP254 T00891050,0,9.0,0,16090,0,0,0,
2026-03-24 15:52:00,METAR KIOW 241552Z AUTO 14010KT 10SM CLR 07/M06 A3030 RMK AO2 SLP265 T00671061,0,10.0,0,16090,0,0,0,
2026-03-24 14:52:00,METAR KIOW 241452Z AUTO 15011KT 10SM CLR 06/M07 A3031 RMK AO2 SLP267 T00561067 53001,0,11.0,0,16090,0,0,0,
2026-03-24 13:52:00,METAR KIOW 241352Z AUTO 14008KT 10SM CLR 03/M07 A3029 RMK AO2 SLP263 T00331072,0,8.0,0,16090,0,0,0,
2026-03-24 12:52:00,METAR KIOW 241252Z AUTO 13005KT 10SM CLR 02/M07 A3029 RMK AO2 SLP264 T00171067,0,5.0,0,16090,0,0,0,
2026-03-24 11:52:00,METAR KIOW 241152Z AUTO 14008KT 10SM CLR 01/M06 A3030 RMK AO2 SLP267 T00111061 10061 20011 56012 $,0,8.0,0,16090,0,0,0,
2026-03-24 10:52:00,METAR KIOW 241052Z AUTO 13007KT 10SM CLR 02/M05 A3031 RMK AO2 SLP267 T00221050 $,0,7.0,0,16090,0,0,0,
2026-03-24 09:52:00,METAR KIOW 240952Z AUTO 13006KT 10SM CLR 03/M06 A3031 RMK AO2 SLP269 T00281056 $,0,6.0,0,16090,0,0,0,
2026-03-24 08:52:00,METAR KIOW 240852Z AUTO 14004KT 10SM FEW120 03/M06 A3034 RMK AO2 SLP278 T00331056 56005 $,0,4.0,0,16090,0,0,0,
2026-03-24 07:52:00,METAR KIOW 240752Z AUTO 10003KT 10SM BKN120 06/M06 A3034 RMK AO2 SLP277 T00561056 $,0,3.0,0,16090,0,0,0,
2026-03-24 06:52:00,METAR KIOW 240652Z AUTO 13004KT 10SM OVC120 06/M06 A3034 RMK AO2 SLP278 T00561056 $,0,4.0,0,16090,0,0,0,
2026-03-24 05:52:00,METAR KIOW 240552Z AUTO 13005KT 10SM OVC110 06/M06 A3035 RMK AO2 SLP283 T00611056 10083 20061 401060000 58005 $,0,5.0,0,16090,0,0,0,
2026-03-24 04:52:00,METAR KIOW 240452Z AUTO 12007KT 10SM OVC110 06/M06 A3037 RMK AO2 SLP287 T00611061 $,0,7.0,0,16090,0,0,0,
2026-03-24 03:52:00,METAR KIOW 240352Z AUTO 14009KT 10SM OVC100 07/M06 A3036 RMK AO2 SLP286 T00671056 $,0,9.0,0,16090,0,0,0,
2026-03-24 02:52:00,METAR KIOW 240252Z AUTO 16007KT 10SM BKN120 07/M06 A3037 RMK AO2 SLP289 T00671061 58006 $,0,7.0,0,16090,0,0,0,
2026-03-24 01:52:00,METAR KIOW 240152Z AUTO 14005KT 10SM BKN120 07/M06 A3038 RMK AO2 SLP293 T00721061 $,0,5.0,0,16090,0,0,0,
2026-03-24 00:52:00,METAR KIOW 240052Z AUTO 12005KT 10SM FEW120 08/M07 A3038 RMK AO2 SLP294 T00781072 $,0,5.0,0,16090,0,0,0,
2026-03-23 23:52:00,METAR KIOW 232352Z AUTO 12005KT 10SM CLR 08/M08 A3039 RMK AO2 SLP296 T00831083 10106 20072 57005 $,0,5.0,0,16090,0,0,0,
2026-03-23 22:52:00,METAR KIOW 232252Z AUTO 13006KT 10SM CLR 09/M09 A3040 RMK AO2 SLP299 T00941089 $,0,6.0,0,16090,0,0,0,
2026-03-23 21:52:00,METAR KIOW 232152Z AUTO 07007KT 050V120 10SM CLR 10/M09 A3040 RMK AO2 SLP298 T01001094 $,0,7.0,0,16090,0,0,0,
2026-03-23 20:52:00,METAR KIOW 232052Z AUTO 08006KT 10SM CLR 10/M08 A3041 RMK AO2 SLP301 T01001083 56023 $,0,6.0,0,16090,0,0,0,
2026-03-23 19:52:00,METAR KIOW 231952Z AUTO VRB03KT 10SM CLR 09/M08 A3042 RMK AO2 SLP305 T00941083 $,0,3.0,0,16090,0,0,0,
2026-03-23 18:52:00,METAR KIOW 231852Z AUTO 04004KT 10SM CLR 09/M08 A3045 RMK AO2 SLP317 T00891078 $,0,4.0,0,16090,0,0,0,
2026-03-23 17:52:00,METAR KIOW 231752Z AUTO 10SM CLR 07/M07 A3048 RMK AO2 SLP326 T00721067 10078 20000 50002 $,0,,0,16090,0,0,0,
2026-03-23 16:52:00,METAR KIOW 231652Z AUTO 01007KT 10SM CLR 07/M07 A3050 RMK AO2 SLP334 T00671067 $,0,7.0,0,16090,0,0,0,
2026-03-23 15:52:00,METAR KIOW 231552Z AUTO 10006KT 10SM CLR 04/M06 A3050 RMK AO2 SLP335 T00441061 $,0,6.0,0,16090,0,0,0,
2026-03-23 14:52:00,METAR KIOW 231452Z AUTO 03008KT 10SM CLR 04/M06 A3047 RMK AO2 SLP324 T00391056 53017 $,0,8.0,0,16090,0,0,0,
2026-03-23 13:52:00,METAR KIOW 231352Z AUTO 36008KT 10SM CLR 02/M06 A3044 RMK AO2 SLP315 T00221056 $,0,8.0,0,16090,0,0,0,
2026-03-23 12:52:00,METAR KIOW 231252Z AUTO 36007KT 10SM CLR 01/M06 A3042 RMK AO2 SLP308 T00061061 $,0,7.0,0,16090,0,0,0,
2026-03-23 11:52:00,METAR KIOW 231152Z AUTO 35003KT 10SM CLR 00/M06 A3042 RMK AO2 SLP307 T00001061 10028 20000 51023 $,0,3.0,0,16090,0,0,0,
2026-03-23 10:52:00,METAR KIOW 231052Z AUTO 35005KT 10SM CLR 00/M06 A3039 RMK AO2 SLP298 T00001061 $,0,5.0,0,16090,0,0,0,
2026-03-23 09:52:00,METAR KIOW 230952Z AUTO 36011KT 10SM CLR 01/M06 A3038 RMK AO2 SLP291 T00061061 $,0,11.0,0,16090,0,0,0,
2026-03-23 08:52:00,METAR KIOW 230852Z AUTO 35012KT 10SM CLR 01/M06 A3035 RMK AO2 SLP282 T00111061 51023 $,0,12.0,0,16090,0,0,0,
2026-03-23 07:52:00,METAR KIOW 230752Z AUTO 35015G24KT 10SM CLR 02/M06 A3033 RMK AO2 SLP275 T00171061 $,0,15.0,1,16090,0,0,0,
2026-03-23 06:59:00,SPECI KIOW 230659Z AUTO 35014G25KT 10SM SCT027 02/M05 A3031 RMK AO2 T00221050 $,0,14.0,1,16090,0,0,0,
2026-03-23 06:52:00,METAR KIOW 230652Z AUTO 35017G25KT 10SM BKN027 02/M05 A3031 RMK AO2 PK WND 34030/0639 SLP268 T00221050 $,0,17.0,1,16090,0,0,0,
2026-03-23 06:23:00,SPECI KIOW 230623Z AUTO 35017G25KT 10SM BKN027 03/M04 A3030 RMK AO2 T00281044 $,0,17.0,1,16090,0,0,0,
2026-03-23 05:52:00,METAR KIOW 230552Z AUTO 35019G27KT 10SM CLR 03/M04 A3028 RMK AO2 PK WND 35027/0547 SLP257 T00281044 10083 20028 402220028 53021 $,0,19.0,1,16090,0,0,0,
2026-03-23 05:09:00,SPECI KIOW 230509Z AUTO 34015G26KT 10SM SCT026 03/M04 A3026 RMK AO2 PK WND 35027/0454 T00331039 $,0,15.0,1,16090,0,0,0,
2026-03-23 04:52:00,METAR KIOW 230452Z AUTO 35013G20KT 10SM BKN026 04/M03 A3025 RMK AO2 SLP244 T00391028 $,0,13.0,1,16090,0,0,0,
2026-03-23 03:52:00,METAR KIOW 230352Z AUTO 35013G25KT 10SM FEW027 04/M03 A3022 RMK AO2 PK WND 01030/0341 SLP235 T00441028 $,0,13.0,1,16090,0,0,0,
2026-03-23 03:50:00,SPECI KIOW 230350Z AUTO 35015G30KT 10SM FEW027 04/M03 A3022 RMK AO2 PK WND 01030/0341 $,0,15.0,1,16090,0,0,0,
2026-03-23 03:23:00,SPECI KIOW 230323Z AUTO 34015G23KT 10SM BKN027 05/M02 A3020 RMK AO2 T00501022 $,0,15.0,1,16090,0,0,0,
2026-03-23 02:52:00,METAR KIOW 230252Z AUTO 32012G23KT 10SM CLR 06/M02 A3020 RMK AO2 SLP228 T00561017 53033 $,0,12.0,1,16090,0,0,0,
2026-03-23 01:52:00,METAR KIOW 230152Z AUTO 32012KT 10SM CLR 06/M01 A3016 RMK AO2 SLP217 T00611011 $,0,12.0,0,16090,0,0,0,
2026-03-23 00:52:00,METAR KIOW 230052Z AUTO 34012G17KT 10SM CLR 07/M02 A3013 RMK AO2 SLP204 T00721017 $,0,12.0,1,16090,0,0,0,
2026-03-22 23:52:00,METAR KIOW 222352Z AUTO 34014KT 10SM SCT110 08/M01 A3010 RMK AO2 SLP193 T00831011 10128 20083 51041 $,0,14.0,0,16090,0,0,0,
2026-03-22 22:52:00,METAR KIOW 222252Z AUTO 34014G22KT 10SM FEW035 FEW120 09/00 A3006 RMK AO2 PK WND 01031/2225 SLP180 T00940000 $,0,14.0,1,16090,0,0,0,
2026-03-22 21:52:00,METAR KIOW 222152Z AUTO 34015G26KT 10SM CLR 11/01 A3002 RMK AO2 PK WND 35026/2151 SLP167 T01110006 $,0,15.0,1,16090,0,0,0,
2026-03-22 20:52:00,METAR KIOW 222052Z AUTO 01013G25KT 10SM CLR 11/01 A2998 RMK AO2 PK WND 01028/2005 SLP149 T01110006 51030 $,0,13.0,1,16090,0,0,0,
2026-03-22 19:52:00,METAR KIOW 221952Z AUTO 35013G33KT 10SM CLR 12/01 A2995 RMK AO2 PK WND 36033/1943 SLP142 T01170011 $,0,13.0,1,16090,0,0,0,
2026-03-22 18:52:00,METAR KIOW 221852Z AUTO 36016G26KT 10SM CLR 12/03 A2993 RMK AO2 PK WND 01031/1803 SLP135 T01220028 $,0,16.0,1,16090,0,0,0,
2026-03-22 17:52:00,METAR KIOW 221752Z AUTO 35014G32KT 10SM FEW030 13/04 A2989 RMK AO2 PK WND 01032/1748 SLP118 T01280039 10167 20128 53037 $,0,14.0,1,16090,0,0,0,
2026-03-22 16:52:00,METAR KIOW 221652Z AUTO 35017G25KT 10SM CLR 15/05 A2985 RMK AO2 PK WND 02026/1630 SLP105 T01500050 $,0,17.0,1,16090,0,0,0,
2026-03-22 15:52:00,METAR KIOW 221552Z AUTO 02016G23KT 10SM CLR 15/05 A2980 RMK AO2 WSHFT 1450 SLP088 T01500050 $,0,16.0,1,16090,0,0,0,
2026-03-22 15:10:00,SPECI KIOW 221510Z AUTO 01016G21KT 10SM CLR 17/06 A2978 RMK AO2 WSHFT 1450 T01670056 $,0,16.0,1,16090,0,0,0,
2026-03-22 14:52:00,METAR KIOW 221452Z AUTO 01014G19KT 10SM CLR 16/06 A2977 RMK AO2 PRESRR SLP080 T01610056 53039 $,0,14.0,1,16090,0,0,0,
2026-03-22 13:52:00,METAR KIOW 221352Z AUTO 03012G22KT 10SM CLR 16/06 A2973 RMK AO2 SLP066 T01560056 $,0,12.0,1,16090,0,0,0,
2026-03-22 12:52:00,METAR KIOW 221252Z AUTO 03009KT 10SM CLR 15/06 A2970 RMK AO2 SLP054 T01500056 $,0,9.0,0,16090,0,0,0,
2026-03-22 11:52:00,METAR KIOW 221152Z AUTO 03015G24KT 10SM CLR 16/06 A2966 RMK AO2 PK WND 02031/1059 SLP038 T01610056 10222 20139 53037 $,0,15.0,1,16090,0,0,0,
2026-03-22 10:52:00,METAR KIOW 221052Z AUTO 02017G28KT 10SM CLR 17/06 A2961 RMK AO2 PK WND 03028/1049 SLP022 T01720061 $,0,17.0,1,16090,0,0,0,
2026-03-22 09:52:00,METAR KIOW 220952Z AUTO 29005KT 10SM CLR 15/05 A2958 RMK AO2 SLP011 T01500050 $,0,5.0,0,16090,0,0,0,
2026-03-22 08:52:00,METAR KIOW 220852Z AUTO 26007KT 10SM CLR 19/06 A2955 RMK AO2 SLP000 T01940061 55003 $,0,7.0,0,16090,0,0,0,
2026-03-22 07:52:00,METAR KIOW 220752Z AUTO 21006KT 10SM CLR 21/06 A2952 RMK AO2 SLP989 T02060056 $,0,6.0,0,16090,0,0,0,
2026-03-22 06:52:00,METAR KIOW 220652Z AUTO 21010KT 10SM CLR 22/05 A2954 RMK AO2 SLP996 T02170050 $,0,10.0,0,16090,0,0,0,
2026-03-22 05:52:00,METAR KIOW 220552Z AUTO 20009KT 10SM CLR 22/04 A2956 RMK AO2 SLP003 T02220044 10283 20194 403280078 58022 $,0,9.0,0,16090,0,0,0,
2026-03-22 04:52:00,METAR KIOW 220452Z AUTO 20008KT 10SM CLR 21/04 A2958 RMK AO2 SLP012 T02110044 $,0,8.0,0,16090,0,0,0,
2026-03-22 03:52:00,METAR KIOW 220352Z AUTO 20006KT 10SM CLR 21/05 A2960 RMK AO2 SLP021 T02110050 $,0,6.0,0,16090,0,0,0,
2026-03-22 02:52:00,METAR KIOW 220252Z AUTO 20007KT 10SM CLR 22/04 A2962 RMK AO2 SLP029 T02220044 58006 $,0,7.0,0,16090,0,0,0,
2026-03-22 01:52:00,METAR KIOW 220152Z AUTO 20009KT 10SM CLR 23/05 A2963 RMK AO2 SLP032 T02280050 $,0,9.0,0,16090,0,0,0,
2026-03-22 00:52:00,METAR KIOW 220052Z AUTO 19003KT 10SM CLR 21/07 A2964 RMK AO2 SLP036 T02060067 $,0,3.0,0,16090,0,0,0,
2026-03-21 23:52:00,METAR KIOW 212352Z AUTO 22004KT 10SM CLR 28/05 A2964 RMK AO2 SLP035 T02830050 10328 20267 56013 $,0,4.0,0,16090,0,0,0,
2026-03-21 22:52:00,METAR KIOW 212252Z AUTO 26009KT 10SM CLR 32/03 A2966 RMK AO2 SLP038 T03220033 $,0,9.0,0,16090,0,0,0,
2026-03-21 21:52:00,METAR KIOW 212152Z AUTO 25011G20KT 10SM CLR 33/03 A2967 RMK AO2 SLP042 T03280033 $,0,11.0,1,16090,0,0,0,
2026-03-21 20:52:00,METAR KIOW 212052Z AUTO 24017G25KT 10SM CLR 32/03 A2968 RMK AO2 SLP048 T03220033 57034 $,0,17.0,1,16090,0,0,0,
2026-03-21 19:52:00,METAR KIOW 211952Z AUTO 21011G20KT 10SM CLR 31/06 A2972 RMK AO2 SLP059 T03060061 $,0,11.0,1,16090,0,0,0,
2026-03-21 18:52:00,METAR KIOW 211852Z AUTO 23008KT 10SM CLR 29/07 A2975 RMK AO2 SLP072 T02890067 $,0,8.0,0,16090,0,0,0,
2026-03-21 17:52:00,METAR KIOW 211752Z AUTO 21012G18KT 10SM CLR 27/07 A2979 RMK AO2 SLP083 T02670067 10267 20083 58028 $,0,12.0,1,16090,0,0,0,
2026-03-21 16:52:00,METAR KIOW 211652Z AUTO 20007KT 10SM CLR 23/08 A2982 RMK AO2 SLP098 T02280083 $,0,7.0,0,16090,0,0,0,
2026-03-21 15:52:00,METAR KIOW 211552Z AUTO 18006KT 10SM CLR 19/08 A2986 RMK AO2 SLP109 T01890078 $,0,6.0,0,16090,0,0,0,
2026-03-21 14:52:00,METAR KIOW 211452Z AUTO 16006KT 10SM CLR 15/08 A2987 RMK AO2 SLP114 T01500083 58007 $,0,6.0,0,16090,0,0,0,
2026-03-21 13:52:00,METAR KIOW 211352Z AUTO 14006KT 10SM CLR 12/08 A2988 RMK AO2 SLP119 T01170078 $,0,6.0,0,16090,0,0,0,
2026-03-21 12:52:00,METAR KIOW 211252Z AUTO 12003KT 10SM CLR 09/ A2989 RMK AO2 SLP122 T0089 $,0,3.0,0,16090,0,0,0,
2026-03-21 11:52:00,METAR KIOW 211152Z AUTO 16003KT 10SM CLR 09/ A2989 RMK AO2 SLP121 T0089 10106 20078 53000 $,0,3.0,0,16090,0,0,0,
2026-03-21 10:52:00,METAR KIOW 211052Z AUTO 15003KT 10SM CLR 09/ A2989 RMK AO2 SLP120 T0089 $,0,3.0,0,16090,0,0,0,
2026-03-21 09:52:00,METAR KIOW 210952Z AUTO 00000KT 10SM CLR 09/ A2988 RMK AO2 SLP117 T0089 $,0,0.0,0,16090,0,0,0,
2026-03-21 08:52:00,METAR KIOW 210852Z AUTO 00000KT 10SM CLR 09/ A2989 RMK AO2 SLP119 T0094 56013 $,0,0.0,0,16090,0,0,0,
2026-03-21 07:52:00,METAR KIOW 210752Z AUTO 00000KT 10SM CLR 09/06 A2990 RMK AO2 SLP122 T00940056,0,0.0,0,16090,0,0,0,
2026-03-21 06:52:00,METAR KIOW 210652Z AUTO 00000KT 10SM CLR 10/06 A2992 RMK AO2 SLP129 T01000061,0,0.0,0,16090,0,0,0,
2026-03-21 05:52:00,METAR KIOW 210552Z AUTO 00000KT 10SM CLR 11/06 A2993 RMK AO2 SLP133 T01060061 10222 20100 402610044 58005,0,0.0,0,16090,0,0,0,
2026-03-21 04:52:00,METAR KIOW 210452Z AUTO 00000KT 10SM CLR 12/06 A2994 RMK AO2 SLP136 T01170061,0,0.0,0,16090,0,0,0,
2026-03-21 03:52:00,METAR KIOW 210352Z AUTO 00000KT 10SM CLR 12/06 A2994 RMK AO2 SLP138 T01170056,0,0.0,0,16090,0,0,0,
2026-03-21 02:52:00,METAR KIOW 210252Z AUTO 00000KT 10SM CLR 15/06 A2994 RMK AO2 SLP138 T01500061 52013,0,0.0,0,16090,0,0,0,
2026-03-21 01:52:00,METAR KIOW 210152Z AUTO 02004KT 10SM CLR 18/06 A2994 RMK AO2 SLP137 T01830061,0,4.0,0,16090,0,0,0,
2026-03-21 00:52:00,METAR KIOW 210052Z AUTO 01006KT 10SM CLR 19/06 A2991 RMK AO2 SLP130 T01940061,0,6.0,0,16090,0,0,0,
2026-03-20 23:52:00,METAR KIOW 202352Z AUTO 35006KT 10SM CLR 22/06 A2990 RMK AO2 SLP126 T02220056 10261 20222 53013,0,6.0,0,16090,0,0,0,
2026-03-20 22:52:00,METAR KIOW 202252Z AUTO 32011KT 10SM CLR 23/05 A2989 RMK AO2 SLP120 T02330050,0,11.0,0,16090,0,0,0,
2026-03-20 21:52:00,METAR KIOW 202152Z AUTO 35012KT 10SM CLR 25/03 A2988 RMK AO2 SLP115 T02500033,0,12.0,0,16090,0,0,0,
2026-03-20 20:52:00,METAR KIOW 202052Z AUTO 32012KT 10SM CLR 26/03 A2987 RMK AO2 SLP112 T02610033 57006,0,12.0,0,16090,0,0,0,
2026-03-20 19:52:00,METAR KIOW 201952Z AUTO 31010G18KT 10SM CLR 26/05 A2987 RMK AO2 SLP113 T02560050,0,10.0,1,16090,0,0,0,
2026-03-20 18:52:00,METAR KIOW 201852Z AUTO 32012G18KT 10SM CLR 25/06 A2988 RMK AO2 SLP117 T02500061,0,12.0,1,16090,0,0,0,
2026-03-20 17:52:00,METAR KIOW 201752Z AUTO 32012KT 10SM CLR 24/06 A2988 RMK AO2 SLP118 T02390061 10239 20044 51006,0,12.0,0,16090,0,0,0,
2026-03-20 16:52:00,METAR KIOW 201652Z AUTO 34011KT 10SM CLR 22/06 A2988 RMK AO2 SLP119 T02220061,0,11.0,0,16090,0,0,0,
2026-03-20 15:52:00,METAR KIOW 201552Z AUTO 33009KT 10SM CLR 20/06 A2987 RMK AO2 SLP115 T02000056,0,9.0,0,16090,0,0,0,
2026-03-20 14:52:00,METAR KIOW 201452Z AUTO 32008KT 10SM CLR 17/06 A2987 RMK AO2 SLP114 T01720056 53004 $,0,8.0,0,16090,0,0,0,
2026-03-20 13:52:00,METAR KIOW 201352Z AUTO 27003KT 10SM CLR 10/ A2986 RMK AO2 SLP112 T0100 $,0,3.0,0,16090,0,0,0,
2026-03-20 12:52:00,METAR KIOW 201252Z AUTO 00000KT 9SM CLR 06/03 A2985 RMK AO2 SLP109 T00560033,0,0.0,0,14481,0,0,0,
2026-03-20 11:52:00,METAR KIOW 201152Z AUTO 00000KT 10SM CLR 05/ A2985 RMK AO2 SLP109 T0050 10072 20044 55003 $,0,0.0,0,16090,0,0,0,
2026-03-20 11:04:00,SPECI KIOW 201104Z AUTO 00000KT 7SM CLR 05/ A2985 RMK AO2 T0050 $,0,0.0,0,11263,0,0,0,
2026-03-20 10:52:00,METAR KIOW 201052Z AUTO 00000KT 2 1/2SM BR CLR 04/ A2985 RMK AO2 SLP108 T0044 $,0,0.0,0,4022,0,0,1,BR
2026-03-20 09:52:00,METAR KIOW 200952Z AUTO 00000KT 4SM HZ CLR 06/ A2985 RMK AO2 SLP108 T0056 $,0,0.0,0,6436,0,0,0,
2026-03-20 08:52:00,METAR KIOW 200852Z AUTO 00000KT 6SM HZ CLR 06/ A2986 RMK AO2 SLP113 T0056 58017 $,0,0.0,0,9654,0,0,0,
2026-03-20 07:52:00,METAR KIOW 200752Z AUTO 00000KT 6SM HZ CLR 07/ A2989 RMK AO2 SLP120 T0067 $,0,0.0,0,9654,0,0,0,
2026-03-20 06:52:00,METAR KIOW 200652Z AUTO 00000KT 9SM CLR 07/ A2989 RMK AO2 SLP124 T0067 $,0,0.0,0,14481,0,0,0,
2026-03-20 05:52:00,METAR KIOW 200552Z AUTO 00000KT 10SM CLR 07/ A2991 RMK AO2 SLP130 T0072 10183 20067 402220000 58024 $,0,0.0,0,16090,0,0,0,
2026-03-20 04:52:00,METAR KIOW 200452Z AUTO 00000KT 10SM CLR 07/04 A2995 RMK AO2 SLP143 T00720039,0,0.0,0,16090,0,0,0,
2026-03-20 03:52:00,METAR KIOW 200352Z AUTO 00000KT 10SM CLR 09/04 A2997 RMK AO2 SLP151 T00890044,0,0.0,0,16090,0,0,0,
2026-03-20 02:52:00,METAR KIOW 200252Z AUTO 00000KT 10SM CLR 09/05 A2999 RMK AO2 SLP156 T00940050 58000,0,0.0,0,16090,0,0,0,
2026-03-20 01:52:00,METAR KIOW 200152Z AUTO 00000KT 10SM CLR 11/06 A3000 RMK AO2 SLP161 T01060056,0,0.0,0,16090,0,0,0,
2026-03-20 00:52:00,METAR KIOW 200052Z AUTO 00000KT 10SM CLR 14/07 A2999 RMK AO2 SLP158 T01440067,0,0.0,0,16090,0,0,0,
2026-03-19 23:52:00,METAR KIOW 192352Z AUTO 00000KT 10SM CLR 18/06 A2999 RMK AO2 SLP156 T01830061 10222 20183 56010,0,0.0,0,16090,0,0,0,
2026-03-19 22:52:00,METAR KIOW 192252Z AUTO 18003KT 10SM CLR 21/06 A3000 RMK AO2 SLP161 T02110056,0,3.0,0,16090,0,0,0,
2026-03-19 21:52:00,METAR KIOW 192152Z AUTO VRB03KT 10SM CLR 22/06 A3000 RMK AO2 SLP160 T02220061,0,3.0,0,16090,0,0,0,
2026-03-19 20:52:00,METAR KIOW 192052Z AUTO 18004KT 10SM CLR 21/06 A3002 RMK AO2 SLP166 T02110061 58016 $,0,4.0,0,16090,0,0,0,
2026-03-19 19:52:00,METAR KIOW 191952Z AUTO 00000KT 10SM CLR 22/07 A3004 RMK AO2 SLP172 T02170067 $,0,0.0,0,16090,0,0,0,
2026-03-19 18:52:00,METAR KIOW 191852Z AUTO 00000KT 10SM CLR 19/06 A3005 RMK AO2 SLP176 T01940061 $,0,0.0,0,16090,0,0,0,
2026-03-19 17:52:00,METAR KIOW 191752Z AUTO VRB05KT 10SM CLR 19/06 A3007 RMK AO2 SLP182 T01890061 10194 20006 51007 $,0,5.0,0,16090,0,0,0,
2026-03-19 16:52:00,METAR KIOW 191652Z AUTO 05004KT 10SM CLR 18/06 A3006 RMK AO2 SLP181 T01780056 $,0,4.0,0,16090,0,0,0,
2026-03-19 15:52:00,METAR KIOW 191552Z AUTO 00000KT 10SM CLR 14/05 A3005 RMK AO2 SLP179 T01390050 $,0,0.0,0,16090,0,0,0,
2026-03-19 14:52:00,METAR KIOW 191452Z AUTO 00000KT 10SM CLR 10/03 A3004 RMK AO2 SLP178 T01000033 53011 $,0,0.0,0,16090,0,0,0,
2026-03-19 13:52:00,METAR KIOW 191352Z AUTO 00000KT 10SM CLR 06/03 A3003 RMK AO2 SLP172 T00610028 $,0,0.0,0,16090,0,0,0,
2026-03-19 12:52:00,METAR KIOW 191252Z AUTO 00000KT 7SM CLR 01/ A3002 RMK AO2 SLP171 T0011 $,0,0.0,0,11263,0,0,0,
2026-03-19 11:52:00,METAR KIOW 191152Z AUTO 00000KT 5SM HZ CLR 01/ A3001 RMK AO2 SLP166 T0006 10050 20000 53005 $,0,0.0,0,8045,0,0,0,
2026-03-19 10:52:00,METAR KIOW 191052Z AUTO 00000KT 8SM CLR 01/ A2999 RMK AO2 SLP161 T0011 $,0,0.0,0,12872,0,0,0,
2026-03-19 09:52:00,METAR KIOW 190952Z AUTO 00000KT 10SM CLR 03/ A3000 RMK AO2 SLP164 T0028 $,0,0.0,0,16090,0,0,0,
2026-03-19 08:52:00,METAR KIOW 190852Z AUTO 00000KT 10SM CLR 04/ A2999 RMK AO2 SLP161 T0039 58006 $,0,0.0,0,16090,0,0,0,
2026-03-19 07:52:00,METAR KIOW 190752Z AUTO 12003KT 10SM CLR 04/ A3000 RMK AO2 SLP164 T0044 $,0,3.0,0,16090,0,0,0,
2026-03-19 06:52:00,METAR KIOW 190652Z AUTO 00000KT 10SM CLR 04/ A3001 RMK AO2 SLP166 T0039 $,0,0.0,0,16090,0,0,0,
2026-03-19 05:52:00,METAR KIOW 190552Z AUTO 00000KT 10SM CLR 04/ A3001 RMK AO2 SLP168 T0044 10100 20039 401111044 58003 $,0,0.0,0,16090,0,0,0,
2026-03-19 04:52:00,METAR KIOW 190452Z AUTO 12003KT 10SM CLR 05/ A3002 RMK AO2 SLP170 T0050 $,0,3.0,0,16090,0,0,0,
2026-03-19 03:52:00,METAR KIOW 190352Z AUTO 16003KT 10SM CLR 05/ A3002 RMK AO2 SLP171 T0050 $,0,3.0,0,16090,0,0,0,
2026-03-19 02:52:00,METAR KIOW 190252Z AUTO 18004KT 10SM CLR 04/ A3002 RMK AO2 SLP172 T0044 50001 $,0,4.0,0,16090,0,0,0,
2026-03-19 01:52:00,METAR KIOW 190152Z AUTO 17003KT 10SM CLR 06/02 A3003 RMK AO2 SLP175 T00560022,0,3.0,0,16090,0,0,0,
2026-03-19 00:52:00,METAR KIOW 190052Z AUTO 14003KT 10SM CLR 07/03 A3002 RMK AO2 SLP172 T00670028,0,3.0,0,16090,0,0,0,
2026-03-18 23:52:00,METAR KIOW 182352Z AUTO 00000KT 10SM CLR 10/03 A3002 RMK AO2 SLP171 T01000033 10111 20050 53008,0,0.0,0,16090,0,0,0,
2026-03-18 22:52:00,METAR KIOW 182252Z AUTO 23003KT 10SM CLR 11/03 A3000 RMK AO2 SLP164 T01060033,0,3.0,0,16090,0,0,0,
2026-03-18 21:52:00,METAR KIOW 182152Z AUTO 20004KT 10SM CLR 11/03 A2999 RMK AO2 SLP160 T01110028,0,4.0,0,16090,0,0,0,
2026-03-18 20:52:00,METAR KIOW 182052Z AUTO 24005KT 10SM CLR 10/02 A2999 RMK AO2 SLP162 T01000017 53000,0,5.0,0,16090,0,0,0,
2026-03-18 19:52:00,METAR KIOW 181952Z AUTO 26004KT 10SM CLR 09/01 A2999 RMK AO2 SLP161 T00890006,0,4.0,0,16090,0,0,0,
2026-03-18 18:52:00,METAR KIOW 181852Z AUTO 22005KT 10SM CLR 07/00 A2999 RMK AO2 SLP162 T00670000,0,5.0,0,16090,0,0,0,
2026-03-18 17:52:00,METAR KIOW 181752Z AUTO 22006KT 10SM CLR 05/M02 A2999 RMK AO2 SLP163 T00501017 10050 21044 51008,0,6.0,0,16090,0,0,0,
2026-03-18 16:52:00,METAR KIOW 181652Z AUTO 22004KT 10SM CLR 03/M03 A2999 RMK AO2 SLP162 T00281033,0,4.0,0,16090,0,0,0,
2026-03-18 15:52:00,METAR KIOW 181552Z AUTO 23007KT 10SM CLR 02/M04 A2998 RMK AO2 SLP159 T00171044,0,7.0,0,16090,0,0,0,
2026-03-18 14:52:00,METAR KIOW 181452Z AUTO 15005KT 10SM CLR M01/M05 A2997 RMK AO2 SLP157 T10061050 51005,0,5.0,0,16090,0,0,0,
2026-03-18 13:52:00,METAR KIOW 181352Z AUTO 15004KT 10SM CLR M03/M06 A2996 RMK AO2 SLP157 T10281061,0,4.0,0,16090,0,0,0,
2026-03-18 12:52:00,METAR KIOW 181252Z AUTO 14003KT 10SM CLR M04/M07 A2996 RMK AO2 SLP156 T10441067,0,3.0,0,16090,0,0,0,
2026-03-18 11:52:00,METAR KIOW 181152Z AUTO 13005KT 10SM CLR M03/ A2995 RMK AO2 SLP152 60000 T1033 11022 21039 53003 $,0,5.0,0,16090,0,0,0,
2026-03-18 10:52:00,METAR KIOW 181052Z AUTO 12004KT 10SM CLR M03/M06 A2994 RMK AO2 SLP148 T10331061 $,0,4.0,0,16090,0,0,0,
2026-03-18 09:52:00,METAR KIOW 180952Z AUTO 16008KT 10SM BKN100 M02/M06 A2994 RMK AO2 SLP147 T10221061 $,0,8.0,0,16090,0,0,0,
2026-03-18 08:52:00,METAR KIOW 180852Z AUTO 14008KT 10SM BKN055 OVC070 M02/M06 A2994 RMK AO2 SLP149 60000 T10221061 58026 $,0,8.0,0,16090,0,0,0,
2026-03-18 07:52:00,METAR KIOW 180752Z AUTO 15007KT 10SM OVC055 M03/ A2998 RMK AO2 SLP162 T1028 $,0,7.0,0,16090,0,0,0,
2026-03-18 06:52:00,METAR KIOW 180652Z AUTO 15009KT 10SM OVC055 M03/ A3000 RMK AO2 SNB00E14 SLP169 P0000 T1033 $,0,9.0,0,16090,0,0,0,SN
2026-03-18 05:52:00,METAR KIOW 180552Z AUTO 16009KT 10SM OVC050 M04/ A3002 RMK AO2 SLP177 60000 I6000 T1039 11039 21050 410391144 58019 $,0,9.0,0,16090,0,0,0,
2026-03-18 04:52:00,METAR KIOW 180452Z AUTO 15010KT 10SM BKN050 OVC065 M04/ A3005 RMK AO2 SNE34 SLP187 P0000 T1044 $,0,10.0,0,16090,0,0,0,
2026-03-18 03:52:00,METAR KIOW 180352Z AUTO 16008KT 4SM -SN FEW030 OVC045 M05/ A3008 RMK AO2 SNB0258 SLP197 P0000 T1050 $,0,8.0,0,6436,0,0,0,SN
2026-03-18 03:36:00,SPECI KIOW 180336Z AUTO 16010KT 2 1/2SM -SN SCT032 OVC047 M05/ A3008 RMK AO2 SNB0258 P0000 T1050 $,0,10.0,0,4022,0,0,0,SN
2026-03-18 02:52:00,METAR KIOW 180252Z AUTO 16010KT 10SM SCT030 OVC041 M05/M09 A3011 RMK AO2 SLP208 60000 I1000 I3000 T10501089 50006 $,0,10.0,0,16090,0,0,0,
2026-03-18 01:52:00,METAR KIOW 180152Z AUTO 16010KT 10SM OVC034 M05/M10 A3014 RMK AO2 SNE02 SLP218 P0000 T10501100 $,0,10.0,0,16090,0,0,0,
2026-03-18 00:52:00,METAR KIOW 180052Z AUTO 15011KT 5SM -SN BKN048 OVC060 M05/M11 A3010 RMK AO2 SNB34 SLP206 P0000 T10501106 $,0,11.0,0,8045,0,0,0,SN
2026-03-17 23:52:00,METAR KIOW 172352Z AUTO 14011KT 10SM OVC065 M04/M12 A3009 RMK AO2 SLP202 T10441122 11044 21072 58023 $,0,11.0,0,16090,0,0,0,
2026-03-17 22:52:00,METAR KIOW 172252Z AUTO 16011KT 10SM BKN075 OVC090 M04/M13 A3011 RMK AO2 SLP208 T10441133 $,0,11.0,0,16090,0,0,0,
2026-03-17 21:52:00,METAR KIOW 172152Z AUTO 17012KT 10SM BKN080 OVC100 M05/M13 A3014 RMK AO2 SLP219 T10501133 $,0,12.0,0,16090,0,0,0,
2026-03-17 20:52:00,METAR KIOW 172052Z AUTO 19010KT 10SM OVC085 M06/M14 A3016 RMK AO2 SLP225 T10561139 56029 $,0,10.0,0,16090,0,0,0,
2026-03-17 19:52:00,METAR KIOW 171952Z AUTO 18010KT 10SM CLR M06/M16 A3018 RMK AO2 SLP232 T10611156 $,0,10.0,0,16090,0,0,0,
2026-03-17 18:52:00,METAR KIOW 171852Z AUTO 19008KT 10SM CLR M07/M16 A3022 RMK AO2 SLP245 T10671156 $,0,8.0,0,16090,0,0,0,
2026-03-17 17:52:00,METAR KIOW 171752Z AUTO 24006KT 10SM CLR M07/M16 A3024 RMK AO2 SLP255 T10721156 11072 21144 53007 $,0,6.0,0,16090,0,0,0,
2026-03-17 16:52:00,METAR KIOW 171652Z AUTO 22007KT 10SM CLR M08/M16 A3023 RMK AO2 SLP250 T10831161 $,0,7.0,0,16090,0,0,0,
2026-03-17 15:52:00,METAR KIOW 171552Z AUTO 25004KT 10SM CLR M09/M17 A3024 RMK AO2 SLP252 T10941167 $,0,4.0,0,16090,0,0,0,
2026-03-17 14:52:00,METAR KIOW 171452Z AUTO 28003KT 10SM CLR M11/M17 A3022 RMK AO2 SLP249 T11061172 50007 $,0,3.0,0,16090,0,0,0,
2026-03-17 13:52:00,METAR KIOW 171352Z AUTO 32006KT 10SM CLR M12/M18 A3023 RMK AO2 SLP252 T11221178 $,0,6.0,0,16090,0,0,0,
2026-03-17 12:52:00,METAR KIOW 171252Z AUTO 31006KT 10SM CLR M13/M18 A3021 RMK AO2 SLP244 T11331183 $,0,6.0,0,16090,0,0,0,
2026-03-17 11:52:00,METAR KIOW 171152Z AUTO 30006KT 10SM CLR M14/M18 A3020 RMK AO2 SLP243 T11391183 11117 21139 52012,0,6.0,0,16090,0,0,0,
2026-03-17 10:52:00,METAR KIOW 171052Z AUTO 31008KT 10SM CLR M13/M18 A3019 RMK AO2 SLP237 T11331178,0,8.0,0,16090,0,0,0,
2026-03-17 09:52:00,METAR KIOW 170952Z AUTO 30008KT 10SM CLR M13/M18 A3018 RMK AO2 SLP235 T11331178,0,8.0,0,16090,0,0,0,
2026-03-17 08:52:00,METAR KIOW 170852Z AUTO 31009KT 10SM CLR M13/M17 A3017 RMK AO2 SLP230 T11281172 51014,0,9.0,0,16090,0,0,0,
2026-03-17 07:52:00,METAR KIOW 170752Z AUTO 30010KT 10SM CLR M12/M17 A3016 RMK AO2 SLP227 T11221172,0,10.0,0,16090,0,0,0,
2026-03-17 06:52:00,METAR KIOW 170652Z AUTO 30011KT 10SM CLR M12/M17 A3015 RMK AO2 SLP224 T11221167,0,11.0,0,16090,0,0,0,
2026-03-17 05:52:00,METAR KIOW 170552Z AUTO 30010KT 10SM SCT040 M12/M17 A3013 RMK AO2 SLP216 60000 T11171167 11094 21117 410171117 51004,0,10.0,0,16090,0,0,0,
2026-03-17 04:52:00,METAR KIOW 170452Z AUTO 30011G20KT 10SM CLR M12/M16 A3013 RMK AO2 SLP215 T11171161,0,11.0,1,16090,0,0,0,
2026-03-17 03:52:00,METAR KIOW 170352Z AUTO 31011KT 10SM FEW020 M11/M16 A3012 RMK AO2 SLP215 T11111161,0,11.0,0,16090,0,0,0,
2026-03-17 03:39:00,SPECI KIOW 170339Z AUTO 30012KT 10SM BKN020 M11/M16 A3012 RMK AO2 T11111161,0,12.0,0,16090,0,0,0,
2026-03-17 02:52:00,METAR KIOW 170252Z AUTO 30015G21KT 10SM FEW017 OVC038 M11/M16 A3012 RMK AO2 PK WND 31026/0154 SLP212 60000 T11061156 51013,0,15.0,1,16090,0,0,0,
2026-03-17 01:52:00,METAR KIOW 170152Z AUTO 30014G23KT 10SM SCT018 BKN036 M10/M15 A3011 RMK AO2 PK WND 32031/0057 SLP209 T11001150,0,14.0,1,16090,0,0,0,
2026-03-17 00:52:00,METAR KIOW 170052Z AUTO 30013G24KT 10SM FEW019 OVC038 M09/M14 A3009 RMK AO2 PK WND 30029/0010 SNE14 SLP204 P0000 T10941144,0,13.0,1,16090,0,0,0,
2026-03-16 23:52:00,METAR KIOW 162352Z AUTO 31014G25KT 6SM -SN FEW023 FEW028 OVC036 M09/M14 A3008 RMK AO2 PK WND 32030/2254 SNE32B49 SLP198 P0000 60000 T10891144 11056 21089 52024,0,14.0,1,9654,0,0,0,SN
2026-03-16 23:35:00,SPECI KIOW 162335Z AUTO 29019G28KT 7SM SCT025 OVC036 M08/M14 A3007 RMK AO2 PK WND 32030/2254 SNE32 P0000 T10831144,0,19.0,1,11263,0,0,0,
2026-03-16 23:27:00,SPECI KIOW 162327Z AUTO 31019G27KT 3SM -SN SCT022 BKN028 OVC036 M08/M14 A3007 RMK AO2 PK WND 32030/2254 P0000 T10831139,0,19.0,1,4827,0,0,0,SN
2026-03-16 23:21:00,SPECI KIOW 162321Z AUTO 30015G28KT 1 3/4SM -SN BKN022 BKN028 OVC036 M08/M14 A3007 RMK AO2 PK WND 32030/2254 P0000 T10831139,0,15.0,1,2816,0,0,0,SN
2026-03-16 22:52:00,METAR KIOW 162252Z AUTO 31023G34KT 5SM -SN BKN025 OVC034 M08/M14 A3006 RMK AO2 PK WND 32038/2155 UPB01E03SNE2159B03 SLP191 P0000 T10781144,0,23.0,1,8045,0,0,0,"SN,UP"
2026-03-16 22:06:00,SPECI KIOW 162206Z AUTO 30023G36KT 3SM -SN BKN027 OVC034 M07/M13 A3003 RMK AO2 PK WND 32038/2155 UPB01E03SNE2159B03 P0000 T10671133,0,23.0,1,4827,0,0,0,"SN,UP"
2026-03-16 21:52:00,METAR KIOW 162152Z AUTO 31022G33KT 4SM -SN SCT025 OVC032 M07/M13 A3003 RMK AO2 PK WND 30041/2108 SLP180 P0000 T10671128,0,22.0,1,6436,0,0,0,SN
2026-03-16 21:40:00,SPECI KIOW 162140Z AUTO 32024G35KT 2 1/2SM -SN BKN024 OVC034 M07/M13 A3003 RMK AO2 PK WND 30041/2108 VIS 1 1/2V5 P0000 T10671128,0,24.0,1,4022,0,0,0,SN
2026-03-16 21:25:00,SPECI KIOW 162125Z AUTO 31022G35KT 4SM -SN BKN022 OVC028 M07/M13 A3002 RMK AO2 PK WND 30041/2108 P0000 T10671128,0,22.0,1,6436,0,0,0,SN
2026-03-16 21:16:00,SPECI KIOW 162116Z AUTO 30023G41KT 2 1/2SM -SN OVC024 M06/M12 A3002 RMK AO2 PK WND 30041/2108 VIS 1 1/2V4 P0000 T10611122,0,23.0,1,4022,0,0,0,SN
2026-03-16 20:52:00,METAR KIOW 162052Z AUTO 29023G38KT 5SM -SN OVC024 M06/M13 A3001 RMK AO2 PK WND 30038/2050 SLP173 P0000 60000 T10611128 53009,0,23.0,1,8045,0,0,0,SN
2026-03-16 19:52:00,METAR KIOW 161952Z AUTO 31022G35KT 4SM -SN OVC022 M07/M13 A2999 RMK AO2 PK WND 29037/1853 SLP166 P0000 T10671128,0,22.0,1,6436,0,0,0,SN
2026-03-16 18:52:00,METAR KIOW 161852Z AUTO 31023G35KT 7SM -SN OVC018 M07/M13 A2999 RMK AO2 PK WND 30035/1845 SLP165 P0000 T10721133,0,23.0,1,11263,0,0,0,SN
2026-03-16 18:18:00,SPECI KIOW 161818Z AUTO 30022G33KT 3SM -SN OVC016 M07/M13 A2999 RMK AO2 PK WND 29033/1812 P0000 T10721128,0,22.0,1,4827,0,0,0,SN
2026-03-16 17:52:00,METAR KIOW 161752Z AUTO 31019G27KT 2 1/2SM -SN OVC016 M08/M13 A2998 RMK AO2 PK WND 30038/1740 SLP163 P0000 60000 T10781128 11078 21106 50004,0,19.0,1,4022,0,0,0,SN
2026-03-16 17:36:00,SPECI KIOW 161736Z AUTO 30021G29KT 4SM -SN OVC016 M08/M13 A2998 RMK AO2 PK WND 30032/1657 P0000 T10781128,0,21.0,1,6436,0,0,0,SN
2026-03-16 17:29:00,SPECI KIOW 161729Z AUTO 30017G32KT 3SM -SN OVC014 M08/M13 A2998 RMK AO2 PK WND 30032/1657 P0000 T10781133,0,17.0,1,4827,0,0,0,SN
2026-03-16 17:17:00,SPECI KIOW 161717Z AUTO 30018G28KT 1 1/2SM -SN OVC014 M08/M13 A2998 RMK AO2 PK WND 30032/1657 VIS 3/4V2 1/2 P0000 T10831128,0,18.0,1,2414,0,0,0,SN
2026-03-16 16:52:00,METAR KIOW 161652Z AUTO 30022G29KT 2 1/2SM -SN OVC013 M09/M13 A2998 RMK AO2 PK WND 31034/1633 UPE1558SNB1558 SLP162 P0000 T10891133,0,22.0,1,4022,0,0,0,"SN,UP"
2026-03-16 16:24:00,SPECI KIOW 161624Z AUTO 31018G27KT 1 1/2SM -SN OVC014 M09/M14 A2998 RMK AO2 PK WND 30033/1611 UPE1558SNB1558 P0000 T10941139,0,18.0,1,2414,0,0,0,"SN,UP"
2026-03-16 16:05:00,SPECI KIOW 161605Z AUTO 31017G32KT 2SM -SN OVC015 M10/M14 A2998 RMK AO2 PK WND 32032/1601 UPE1558SNB1558 P0000 T11001144,0,17.0,1,3218,0,0,0,"SN,UP"
2026-03-16 15:52:00,METAR KIOW 161552Z AUTO 32021G37KT 3SM UP OVC015 M10/M15 A2997 RMK AO2 PK WND 32037/1546 SNB43E52 SLP159 P0000 T11001150,0,21.0,1,4827,0,0,0,"SN,UP"
2026-03-16 15:34:00,SPECI KIOW 161534Z AUTO 31020G34KT 3SM UP OVC014 M10/M14 A2996 RMK AO2 PK WND 30035/1517 P0000 T11001144,0,20.0,1,4827,0,0,0,UP
2026-03-16 15:21:00,SPECI KIOW 161521Z AUTO 30024G35KT 1 1/2SM UP OVC013 M11/M15 A2995 RMK AO2 PK WND 30035/1517 P0000 T11061150,0,24.0,1,2414,0,0,0,UP
2026-03-16 15:03:00,SPECI KIOW 161503Z AUTO 31023G34KT 2SM UP OVC014 M10/M15 A2994 RMK AO2 PK WND 30034/1455 VIS 1 3/4V3 P0000 T11001150,0,23.0,1,3218,0,0,0,UP
2026-03-16 14:52:00,METAR KIOW 161452Z AUTO 31024G33KT 2 1/2SM UP OVC015 M10/M14 A2994 RMK AO2 PK WND 31036/1410 VIS 1 1/2V3 UPB07SNE07 SLP150 P0000 60000 T11001144 53039,0,24.0,1,4022,0,0,0,UP
2026-03-16 14:44:00,SPECI KIOW 161444Z AUTO 31019G33KT 2SM UP OVC015 M11/M14 A2993 RMK AO2 PK WND 31036/1410 UPB07SNE07 P0000 T11061144,0,19.0,1,3218,0,0,0,UP
2026-03-16 14:30:00,SPECI KIOW 161430Z AUTO 31019G34KT 3SM UP OVC015 M11/M14 A2993 RMK AO2 PK WND 31036/1410 UPB07SNE07 P0000 T11061144,0,19.0,1,4827,0,0,0,UP
2026-03-16 14:23:00,SPECI KIOW 161423Z AUTO 30023G34KT 2 1/2SM UP OVC015 M11/M14 A2992 RMK AO2 PK WND 31036/1410 VIS 1 1/4V5 UPB07SNE07 P0000 T11061144,0,23.0,1,4022,0,0,0,UP
2026-03-16 14:06:00,SPECI KIOW 161406Z AUTO 30020G31KT 1 3/4SM -SN BKN015 OVC037 M10/M14 A2991 RMK AO2 PK WND 29031/1403 P0000 T11001144,0,20.0,1,2816,0,0,0,SN
2026-03-16 13:52:00,METAR KIOW 161352Z AUTO 31018G30KT 1 3/4SM -SN OVC014 M10/ A2990 RMK AO2 PK WND 31035/1256 SLP135 P0000 T1100,0,18.0,1,2816,0,0,0,SN
2026-03-16 13:37:00,SPECI KIOW 161337Z AUTO 31018G27KT 1 1/4SM -SN OVC014 M10/ A2989 RMK AO2 PK WND 31035/1256 P0000 T1100 $,0,18.0,1,2011,0,0,0,SN
2026-03-16 13:24:00,SPECI KIOW 161324Z AUTO 31021G35KT 1SM -SN VV013 M10/ A2988 RMK AO2 PK WND 31035/1256 P0000 T1100 $,0,21.0,1,1609,0,0,0,SN
2026-03-16 12:52:00,METAR KIOW 161252Z AUTO 31020G34KT 3/4SM -SN VV013 M10/ A2986 RMK AO2 PK WND 30037/1226 SLP122 P0000 T1100 $,0,20.0,1,1207,0,0,0,SN
2026-03-16 11:52:00,METAR KIOW 161152Z AUTO 31022G34KT 3/4SM -SN VV010 M09/ A2982 RMK AO2 PK WND 30040/1131 SLP109 P0000 60001 70045 T1094 11017 21094 51031 $,0,22.0,1,1207,0,0,0,SN
2026-03-16 11:25:00,SPECI KIOW 161125Z AUTO 30019G33KT 3/4SM -SN VV011 M09/ A2981 RMK AO2 PK WND 32033/1121 P0000 T1089 $,0,19.0,1,1207,0,0,0,SN
2026-03-16 10:58:00,SPECI KIOW 161058Z AUTO 31019G31KT 1SM -SN VV010 M09/ A2979 RMK AO2 PK WND 31031/1054 P0000 T1089 $,0,19.0,1,1609,0,0,0,SN
2026-03-16 10:52:00,METAR KIOW 161052Z AUTO 30018G27KT 3/4SM -SN VV009 M09/ A2979 RMK AO2 PK WND 32033/0953 UPB08E10SNE08B10 SLP097 P0000 T1089 $,0,18.0,1,1207,0,0,0,"SN,UP"
2026-03-16 09:52:00,METAR KIOW 160952Z AUTO 31021G31KT 1/2SM SN VV009 M08/ A2976 RMK AO2 PK WND 30039/0855 UPB39E45SNE39B45 SLP088 P0000 T1078 $,0,21.0,1,804,0,0,0,"SN,UP"
2026-03-16 09:37:00,SPECI KIOW 160937Z AUTO 31022G35KT 1/2SM SN VV009 M08/ A2975 RMK AO2 PK WND 30039/0855 P0000 T1078 $,0,22.0,1,804,0,0,0,SN
2026-03-16 08:52:00,METAR KIOW 160852Z AUTO 31019G37KT 3/4SM -SN VV012 M07/ A2973 RMK AO2 PK WND 29040/0825 SLP075 P0001 60001 T1067 53020 $,0,19.0,1,1207,0,0,0,SN
2026-03-16 07:52:00,METAR KIOW 160752Z AUTO 31020G33KT 3/4SM -SN VV012 M06/ A2971 RMK AO2 PK WND 29043/0653 SLP069 P0000 T1056 $,0,20.0,1,1207,0,0,0,SN
2026-03-16 07:16:00,SPECI KIOW 160716Z AUTO 31020G37KT 3/4SM -SN VV010 M04/ A2969 RMK AO2 PK WND 29043/0653 P0000 T1044 $,0,20.0,1,1207,0,0,0,SN
2026-03-16 06:52:00,METAR KIOW 160652Z AUTO 31020G37KT 1/2SM SN VV008 M04/ A2969 RMK AO2 PK WND 32043/0610 SLP060 P0000 T1039 $,0,20.0,1,804,0,0,0,SN
2026-03-16 06:17:00,SPECI KIOW 160617Z AUTO 31023G43KT 1/2SM SN VV008 M03/ A2967 RMK AO2 PK WND 32043/0610 P0000 T1028 $,0,23.0,1,804,0,0,0,SN
2026-03-16 05:52:00,METAR KIOW 160552Z AUTO 32020G37KT 3/4SM -SN VV011 M02/ A2967 RMK AO2 PK WND 32038/0511 SLP054 P0000 60002 T1017 10006 21017 400831017 53009 $,0,20.0,1,1207,0,0,0,SN
2026-03-16 05:33:00,SPECI KIOW 160533Z AUTO 33019G32KT 3/4SM -SN VV010 M02/ A2967 RMK AO2 PK WND 32038/0511 P0000 T1017 $,0,19.0,1,1207,0,0,0,SN
2026-03-16 05:25:00,SPECI KIOW 160525Z AUTO 32020G34KT 3/4SM -SN VV009 M02/ A2966 RMK AO2 PK WND 32038/0511 P0000 T1017 $,0,20.0,1,1207,0,0,0,SN
2026-03-16 05:09:00,SPECI KIOW 160509Z AUTO 32023G36KT 3/4SM -SN VV012 M01/ A2965 RMK AO2 PK WND 33036/0506 P0000 T1011 $,0,23.0,1,1207,0,0,0,SN
2026-03-16 04:52:00,METAR KIOW 160452Z AUTO 33021G31KT 1 1/4SM -SN OVC011 M01/ A2965 RMK AO2 PK WND 32031/0450 SLP047 P0001 T1011 $,0,21.0,1,2011,0,0,0,SN
2026-03-16 04:41:00,SPECI KIOW 160441Z AUTO 32020G31KT 1SM -SN VV010 M01/ A2965 RMK AO2 PK WND 32031/0440 P0001 T1011 $,0,20.0,1,1609,0,0,0,SN
2026-03-16 04:07:00,SPECI KIOW 160407Z AUTO 32012G24KT 1/2SM SN VV009 M01/ A2966 RMK AO2 PK WND 33028/0355 P0000 T1011 $,0,12.0,1,804,0,0,0,SN
2026-03-16 04:00:00,SPECI KIOW 160400Z AUTO 32013G28KT 1SM -SN VV013 M01/ A2965 RMK AO2 PK WND 33028/0355 P0000 T1006 $,0,13.0,1,1609,0,0,0,SN
2026-03-16 03:52:00,METAR KIOW 160352Z AUTO 33013G23KT 1 1/4SM -SN OVC015 M01/ A2965 RMK AO2 PK WND 01045/0312 SLP047 P0000 T1006 $,0,13.0,1,2011,0,0,0,SN
2026-03-16 03:42:00,SPECI KIOW 160342Z AUTO 34020G32KT 1 3/4SM -SN FEW008 OVC015 M01/ A2964 RMK AO2 PK WND 01045/0312 P0000 T1006 $,0,20.0,1,2816,0,0,0,SN
2026-03-16 03:35:00,SPECI KIOW 160335Z AUTO 34019G32KT 1SM -SN FEW009 OVC015 M01/ A2963 RMK AO2 PK WND 01045/0312 P0000 T1006 $,0,19.0,1,1609,0,0,0,SN
2026-03-16 03:20:00,SPECI KIOW 160320Z AUTO 36014G45KT 3/4SM -SN FEW009 OVC013 M01/ A2963 RMK AO2 PK WND 01045/0312 P0000 T1006 $,0,14.0,1,1207,0,0,0,SN
2026-03-16 03:17:00,SPECI KIOW 160317Z AUTO 35016G45KT 1SM -SN FEW009 OVC015 M01/ A2964 RMK AO2 PK WND 01045/0312 P0000 T1006 $,0,16.0,1,1609,0,0,0,SN
2026-03-16 03:08:00,SPECI KIOW 160308Z AUTO 34014G25KT 1 1/4SM -SN FEW007 OVC011 M01/ A2964 RMK AO2 P0000 T1006 $,0,14.0,1,2011,0,0,0,SN
2026-03-16 03:00:00,SPECI KIOW 160300Z AUTO 32013G19KT 3/4SM -SN VV009 M01/ A2964 RMK AO2 P0000 T1011 $,0,13.0,1,1207,0,0,0,SN
2026-03-16 02:52:00,METAR KIOW 160252Z AUTO 34010G25KT 1/2SM SN VV010 M01/ A2964 RMK AO2 PK WND 01036/0236 SLP043 P0001 60001 T1011 53028 $,0,10.0,1,804,0,0,0,SN
2026-03-16 02:43:00,SPECI KIOW 160243Z AUTO 35014G36KT 3/4SM -SN VV012 M01/ A2964 RMK AO2 PK WND 01036/0236 P0000 T1006 $,0,14.0,1,1207,0,0,0,SN
2026-03-16 02:38:00,SPECI KIOW 160238Z AUTO 35022G36KT 1SM -SN VV015 M01/ A2964 RMK AO2 PK WND 01036/0236 P0000 T1006 $,0,22.0,1,1609,0,0,0,SN
2026-03-16 01:52:00,METAR KIOW 160152Z AUTO 33015G28KT 1 1/4SM -SN FEW013 BKN019 OVC026 M01/ A2961 RMK AO2 PK WND 01040/0053 SLP029 P0000 T1006 $,0,15.0,1,2011,0,0,0,SN
2026-03-16 01:14:00,SPECI KIOW 160114Z AUTO 35017G30KT 1 1/2SM -SN OVC017 M01/ A2956 RMK AO2 PK WND 01040/0053 P0000 T1006 $,0,17.0,1,2414,0,0,0,SN
2026-03-16 01:00:00,SPECI KIOW 160100Z AUTO 36018G40KT 2 1/2SM -SN SCT011 OVC019 M01/ A2956 RMK AO2 PK WND 01040/0053 P0000 T1006 $,0,18.0,1,4022,0,0,0,SN
2026-03-16 00:52:00,METAR KIOW 160052Z AUTO 35019G33KT 2 1/2SM -SN BKN013 OVC021 00/ A2956 RMK AO2 PK WND 36033/0048 SLP013 P0000 T0000 $,0,19.0,1,4022,0,0,0,SN
2026-03-16 00:46:00,SPECI KIOW 160046Z AUTO 35016G30KT 2SM -SN SCT012 BKN019 OVC023 00/ A2956 RMK AO2 PK WND 35031/0018 P0000 $,0,16.0,1,3218,0,0,0,SN
2026-03-16 00:25:00,SPECI KIOW 160025Z AUTO 35014G31KT 1 1/2SM -SN BKN011 OVC017 00/ A2956 RMK AO2 PK WND 35031/0018 P0000 T0000 $,0,14.0,1,2414,0,0,0,SN
2026-03-16 00:17:00,SPECI KIOW 160017Z AUTO 34014G23KT 1SM -SN BR BKN011 OVC017 00/M02 A2956 RMK AO2 PK WND 35028/0004 P0000 T00001022 $,0,14.0,1,1609,0,0,1,"BR,SN"
2026-03-16 00:11:00,SPECI KIOW 160011Z AUTO 35016G28KT 3/4SM -SN BR FEW009 OVC015 00/M02 A2956 RMK AO2 PK WND 35028/0004 P0000 T00001022 $,0,16.0,1,1207,0,0,1,"BR,SN"
2026-03-15 23:52:00,METAR KIOW 152352Z AUTO 34016G28KT 3/4SM -SN SCT012 OVC019 01/M02 A2956 RMK AO2 PK WND 36033/2254 SLP013 P0000 60006 T00061022 10033 20006 52031 $,0,16.0,1,1207,0,0,0,SN
2026-03-15 23:48:00,SPECI KIOW 152348Z AUTO 35016G23KT 3/4SM -SN BR SCT012 OVC021 01/M02 A2955 RMK AO2 PK WND 36033/2254 P0000 $,0,16.0,1,1207,0,0,1,"BR,SN"
2026-03-15 23:38:00,SPECI KIOW 152338Z AUTO 35013G27KT 1 1/2SM -SN FEW011 BKN017 OVC025 01/M02 A2954 RMK AO2 PK WND 36033/2254 P0000 T00061022 $,0,13.0,1,2414,0,0,0,SN
2026-03-15 23:30:00,SPECI KIOW 152330Z AUTO 35017G24KT 2SM -SN BKN015 BKN021 OVC027 01/M02 A2954 RMK AO2 PK WND 36033/2254 P0000 T00111022 $,0,17.0,1,3218,0,0,0,SN
2026-03-15 22:52:00,METAR KIOW 152252Z AUTO 35017G33KT 3SM -SN OVC020 02/M02 A2953 RMK AO2 PK WND 01033/2157 UPB16E21SNB2157E16B21 SLP005 P0003 T00171022 $,0,17.0,1,4827,0,0,0,"SN,UP"
2026-03-15 21:52:00,METAR KIOW 152152Z AUTO 35015G26KT 10SM OVC016 02/M02 A2949 RMK AO2 PK WND 33035/2128 SLP990 T00221017 $,0,15.0,1,16090,0,0,0,
2026-03-15 21:45:00,SPECI KIOW 152145Z AUTO 35016G26KT 10SM OVC015 02/M02 A2950 RMK AO2 PK WND 33035/2128 T00221017 $,0,16.0,1,16090,0,0,0,
2026-03-15 20:52:00,METAR KIOW 152052Z AUTO 35016G25KT 10SM OVC012 03/ A2946 RMK AO2 PK WND 01027/2035 RAE1958 SLP981 P0000 60003 T0028 53019 $,0,16.0,1,16090,0,0,0,RA
2026-03-15 19:52:00,METAR KIOW 151952Z AUTO 35012G25KT 10SM -RA OVC010 03/ A2944 RMK AO2 RAE03B31UPB03E15 SLP974 P0001 T0028 $,0,12.0,1,16090,0,0,0,"-RA,RA"
2026-03-15 19:33:00,SPECI KIOW 151933Z AUTO 36013KT 9SM -RA OVC010 03/ A2942 RMK AO2 RAE03B31UPB03E15 CIG 008V013 P0001 T0028 $,0,13.0,0,14481,0,0,0,"-RA,RA"
2026-03-15 18:52:00,METAR KIOW 151852Z AUTO 35012G21KT 5SM -RA OVC009 03/ A2942 RMK AO2 LTG DSNT S RAB34 CIG 008V013 SLP966 P0002 T0028 $,0,12.0,1,8045,0,0,0,"-RA,DS"
2026-03-15 17:52:00,METAR KIOW 151752Z AUTO 35012G23KT 10SM OVC008 03/ A2941 RMK AO2 WSHFT 1712 RAE52 SLP963 P0002 60036 T0033 10083 20033 53004 $,0,12.0,1,16090,0,0,0,
2026-03-15 17:32:00,SPECI KIOW 151732Z AUTO 34015G23KT 10SM -RA OVC008 03/ A2941 RMK AO2 WSHFT 1712 LTG DSNT E P0002 T0033 $,0,15.0,1,16090,0,0,0,"-RA,DS"
2026-03-15 17:10:00,SPECI KIOW 151710Z AUTO VRB05KT 10SM -RA BKN008 OVC042 03/ A2941 RMK AO2 LTG DSNT E AND SE P0001 T0033 $,0,5.0,0,16090,0,0,0,"-RA,DS"
2026-03-15 17:01:00,SPECI KIOW 151701Z AUTO 05009KT 6SM -RA SCT008 OVC042 03/ A2938 RMK AO2 LTG DSNT NE-SE P0001 T0033 $,0,9.0,0,9654,0,0,0,"-RA,DS"
2026-03-15 16:52:00,METAR KIOW 151652Z AUTO 03007KT 4SM RA BKN008 OVC044 03/ A2939 RMK AO2 LTG DSNT E-S TSB27E42 SLP956 P0017 T0033 $,0,7.0,0,6436,1,0,0,"DS,RA,TS"
2026-03-15 16:49:00,SPECI KIOW 151649Z AUTO 03006KT 4SM RA BKN008 OVC044 03/ A2939 RMK AO2 LTG DSNT E-S TSB27E42 P0017 $,0,6.0,0,6436,1,0,0,"DS,RA,TS"
2026-03-15 16:42:00,SPECI KIOW 151642Z AUTO 07006G15KT 4SM -RA SCT008 BKN044 OVC075 03/ A2941 RMK AO2 LTG DSNT NE-S TSB27E42 P0015 T0033 $,0,6.0,1,6436,1,0,0,"-RA,DS,TS"
2026-03-15 16:28:00,SPECI KIOW 151628Z AUTO 03013G18KT 2 1/2SM +TSRA SCT008 BKN044 OVC075 03/ A2936 RMK AO2 LTG DSNT S AND SW TSB27 P0011 T0033 $,0,13.0,1,4022,1,0,0,"DS,RA"
2026-03-15 16:09:00,SPECI KIOW 151609Z AUTO 01018G25KT 5SM VCTS -RA FEW008 BKN055 OVC075 03/ A2932 RMK AO2 LTG DSNT N AND SW PRESFR P0005 T0033 $,0,18.0,1,8045,1,0,0,"-RA,DS,TS,VC"
2026-03-15 15:57:00,SPECI KIOW 151557Z AUTO 01014KT 2 1/2SM VCTS +RA SCT008 OVC060 03/ A2937 RMK AO2 VIS 1 3/4V4 P0003 T0033 $,0,14.0,0,4022,1,1,0,"+RA,TS,VC"
2026-03-15 15:52:00,METAR KIOW 151552Z AUTO 01015G20KT 4SM VCTS RA BR BKN008 OVC060 04/02 A2940 RMK AO2 PK WND 33028/1455 RAE27B47 TSE1453 SLP958 P0004 T00390017 $,0,15.0,1,6436,1,0,1,"BR,RA,TS,VC"
2026-03-15 15:38:00,SPECI KIOW 151538Z AUTO 36015G26KT 10SM VCTS BKN008 BKN042 OVC060 04/02 A2938 RMK AO2 PK WND 33028/1455 RAE27 TSE1453 P0001 T00390017,0,15.0,1,16090,1,0,0,"TS,VC"
2026-03-15 15:21:00,SPECI KIOW 151521Z AUTO 36013G22KT 4SM -RA BR FEW008 BKN027 OVC048 05/03 A2936 RMK AO2 PK WND 33028/1455 LTG DSNT NE TSE1453 P0001 T00500028,0,13.0,1,6436,1,0,1,"-RA,BR,DS,TS"
2026-03-15 14:59:00,SPECI KIOW 151459Z AUTO 33014G28KT 10SM -RA OVC021 05/03 A2938 RMK AO2 PK WND 33028/1455 LTG DSNT NE AND E AND W TSE53 P0000 T00500028,0,14.0,1,16090,1,0,0,"-RA,DS"
2026-03-15 14:52:00,METAR KIOW 151452Z AUTO 32019G28KT 7SM -TSRA BKN021 OVC030 06/03 A2938 RMK AO2 PK WND 31028/1452 LTG DSNT ALQDS RAB33 TSB25 PRESRR SLP954 P0007 60013 T00610028 53015,0,19.0,1,11263,1,0,0,"DS,RA"
2026-03-15 14:49:00,SPECI KIOW 151449Z AUTO 32016G23KT 5SM -TSRA BKN021 OVC030 06/03 A2938 RMK AO2 LTG DSNT ALQDS RAB33 TSB25 PRESRR P0007,0,16.0,1,8045,1,0,0,"DS,RA"
2026-03-15 14:40:00,SPECI KIOW 151440Z AUTO 34008KT 2 1/2SM +TSRA BKN023 BKN030 OVC041 07/03 A2936 RMK AO2 LTG DSNT N RAB33 TSB25 PRESRR P0006 T00670033,0,8.0,0,4022,1,0,0,"DS,RA"
2026-03-15 14:31:00,SPECI KIOW 151431Z AUTO 34009KT 9SM TS FEW023 SCT030 OVC043 08/04 A2934 RMK AO2 LTG DSNT SW TSB25 T00780039,0,9.0,0,14481,1,0,0,"DS,TS"
2026-03-15 13:52:00,METAR KIOW 151352Z AUTO VRB03KT 10SM OVC043 08/04 A2932 RMK AO2 SLP930 T00830044,0,3.0,0,16090,0,0,0,
2026-03-15 12:52:00,METAR KIOW 151252Z AUTO 12004KT 10SM OVC047 07/03 A2934 RMK AO2 LTG DSNT E AND SE RAB21E42 TSB23E39 SLP937 P0006 T00720028,0,4.0,0,16090,1,0,0,"DS,RA,TS"
2026-03-15 12:45:00,SPECI KIOW 151245Z AUTO 11005KT 10SM OVC047 07/03 A2934 RMK AO2 LTG DSNT E AND SE RAB21E42 TSB23E39 P0006 T00720028,0,5.0,0,16090,1,0,0,"DS,RA,TS"
2026-03-15 12:29:00,SPECI KIOW 151229Z AUTO 11007KT 8SM -TSRA BKN048 OVC065 07/02 A2935 RMK AO2 LTG DSNT ALQDS RAB21 TSB23 P0004 T00720022,0,7.0,0,12872,1,0,0,"DS,RA"
2026-03-15 12:20:00,SPECI KIOW 151220Z AUTO 12010KT 10SM VCTS BKN048 BKN055 OVC110 08/01 A2935 RMK AO2 LTG DSNT N AND S T00780011,0,10.0,0,16090,1,0,0,"DS,TS,VC"
2026-03-15 11:52:00,METAR KIOW 151152Z AUTO 11007KT 10SM BKN055 OVC075 07/00 A2937 RMK AO2 SLP949 T00670000 10067 20033 56053,0,7.0,0,16090,0,0,0,
2026-03-15 10:52:00,METAR KIOW 151052Z AUTO 09008G15KT 10SM BKN050 OVC080 06/M01 A2942 RMK AO2 SLP965 T00611011,0,8.0,1,16090,0,0,0,
2026-03-15 09:52:00,METAR KIOW 150952Z AUTO 08010G18KT 10SM BKN055 OVC075 05/M02 A2948 RMK AO2 SLP985 T00501017,0,10.0,1,16090,0,0,0,
2026-03-15 08:52:00,METAR KIOW 150852Z AUTO 09011G20KT 10SM CLR 04/M02 A2953 RMK AO2 SLP003 T00441022 58049,0,11.0,1,16090,0,0,0,
