Time_recorded,METAR,is_cavok,wind_speed,is_gust,visibility_meters,has_thunderstorm,has_heavy_rain,has_low_vis_fog,other_phenomenon
2026-05-02 15:30:00,METAR ZSPD 021530Z 20002MPS 8000 NSC 19/19 Q1005 NOSIG,0,2.0,0,8000,0,0,0,
2026-05-02 15:00:00,METAR ZSPD 021500Z 17002MPS CAVOK 19/19 Q1005 NOSIG,1,0.0,0,9999,0,0,0,
2026-05-02 14:30:00,METAR ZSPD 021430Z 18002MPS CAVOK 19/19 Q1005 NOSIG,1,0.0,0,9999,0,0,0,
2026-05-02 14:00:00,METAR ZSPD 021400Z 17002MPS CAVOK 19/19 Q1006 NOSIG,1,0.0,0,9999,0,0,0,
2026-05-02 13:30:00,METAR ZSPD 021330Z 18002MPS 9999 -SHRA NSC 19/19 Q1006 NOSIG,0,2.0,0,10000,0,0,0,RA
2026-05-02 13:00:00,METAR ZSPD 021300Z 17002MPS 9999 -SHRA NSC 19/19 Q1006 NOSIG,0,2.0,0,10000,0,0,0,RA
2026-05-02 12:30:00,METAR ZSPD 021230Z 15002MPS CAVOK 20/18 Q1006 NOSIG,1,0.0,0,9999,0,0,0,
2026-05-02 12:00:00,METAR ZSPD 021200Z 15002MPS CAVOK 20/18 Q1006 NOSIG,1,0.0,0,9999,0,0,0,
2026-05-02 11:30:00,METAR ZSPD 021130Z 16003MPS CAVOK 20/18 Q1006 NOSIG,1,0.0,0,9999,0,0,0,
2026-05-02 11:00:00,METAR ZSPD 021100Z 18003MPS CAVOK 20/17 Q1006 NOSIG,1,0.0,0,9999,0,0,0,
2026-05-02 10:30:00,METAR ZSPD 021030Z 16004MPS CAVOK 20/17 Q1005 NOSIG,1,0.0,0,9999,0,0,0,
2026-05-02 10:00:00,METAR ZSPD 021000Z 17004MPS CAVOK 21/17 Q1005 NOSIG,1,0.0,0,9999,0,0,0,
2026-05-02 09:30:00,METAR ZSPD 020930Z 17004MPS CAVOK 21/17 Q1005 NOSIG,1,0.0,0,9999,0,0,0,
2026-05-02 09:00:00,METAR ZSPD 020900Z 17005MPS CAVOK 21/17 Q1005 NOSIG,1,0.0,0,9999,0,0,0,
2026-05-02 08:30:00,METAR ZSPD 020830Z 17004MPS CAVOK 22/17 Q1005 NOSIG,1,0.0,0,9999,0,0,0,
2026-05-02 08:00:00,METAR ZSPD 020800Z 18004MPS CAVOK 21/17 Q1006 NOSIG,1,0.0,0,9999,0,0,0,
2026-05-02 07:30:00,METAR ZSPD 020730Z 18004MPS CAVOK 22/17 Q1006 NOSIG,1,0.0,0,9999,0,0,0,
2026-05-02 07:00:00,METAR ZSPD 020700Z 18005MPS 9999 -RA NSC 21/17 Q1006 NOSIG,0,5.0,0,10000,0,0,0,-RA
2026-05-02 06:30:00,METAR ZSPD 020630Z 18007MPS 9999 -RA NSC 22/16 Q1006 NOSIG,0,7.0,0,10000,0,0,0,-RA
2026-05-02 06:00:00,METAR ZSPD 020600Z 18008MPS 9999 -RA NSC 23/15 Q1007 NOSIG,0,8.0,0,10000,0,0,0,-RA
2026-05-02 05:30:00,METAR ZSPD 020530Z 18009MPS CAVOK 23/15 Q1007 NOSIG,1,0.0,0,9999,0,0,0,
2026-05-02 05:00:00,METAR ZSPD 020500Z 18009MPS CAVOK 24/15 Q1008 NOSIG,1,0.0,0,9999,0,0,0,
2026-05-02 04:30:00,METAR ZSPD 020430Z 18009MPS CAVOK 24/15 Q1008 NOSIG,1,0.0,0,9999,0,0,0,
2026-05-02 04:00:00,METAR ZSPD 020400Z 18009MPS CAVOK 23/14 Q1008 NOSIG,1,0.0,0,9999,0,0,0,
2026-05-02 03:30:00,METAR ZSPD 020330Z 18010MPS CAVOK 24/14 Q1008 NOSIG,1,0.0,0,9999,0,0,0,
2026-05-02 03:00:00,METAR ZSPD 020300Z 18010MPS CAVOK 23/14 Q1009 NOSIG,1,0.0,0,9999,0,0,0,
2026-05-02 02:30:00,METAR ZSPD 020230Z 19010MPS CAVOK 23/13 Q1010 NOSIG,1,0.0,0,9999,0,0,0,
2026-05-02 02:00:00,METAR ZSPD 020200Z 17010MPS CAVOK 22/14 Q1010 NOSIG,1,0.0,0,9999,0,0,0,
2026-05-02 01:30:00,METAR ZSPD 020130Z 17010MPS CAVOK 22/13 Q1010 NOSIG,1,0.0,0,9999,0,0,0,
2026-05-02 01:00:00,METAR ZSPD 020100Z 17009MPS CAVOK 21/12 Q1010 NOSIG,1,0.0,0,9999,0,0,0,
2026-05-02 00:30:00,METAR ZSPD 020030Z 17009MPS CAVOK 21/13 Q1011 NOSIG,1,0.0,0,9999,0,0,0,
2026-05-02 00:00:00,METAR ZSPD 020000Z 17007MPS CAVOK 20/13 Q1011 NOSIG,1,0.0,0,9999,0,0,0,
2026-05-01 23:30:00,METAR ZSPD 012330Z 15006MPS CAVOK 19/12 Q1011 NOSIG,1,0.0,0,9999,0,0,0,
2026-05-01 23:00:00,METAR ZSPD 012300Z 15003MPS CAVOK 17/12 Q1011 NOSIG,1,0.0,0,9999,0,0,0,
2026-05-01 22:30:00,METAR ZSPD 012230Z 15004MPS CAVOK 16/12 Q1011 NOSIG,1,0.0,0,9999,0,0,0,
2026-05-01 22:00:00,METAR ZSPD 012200Z 15004MPS CAVOK 15/11 Q1011 NOSIG,1,0.0,0,9999,0,0,0,
2026-05-01 21:30:00,METAR ZSPD 012130Z 15004MPS CAVOK 15/11 Q1011 NOSIG,1,0.0,0,9999,0,0,0,
2026-05-01 21:00:00,METAR ZSPD 012100Z 15002MPS CAVOK 15/11 Q1012 NOSIG,1,0.0,0,9999,0,0,0,
2026-05-01 20:30:00,METAR ZSPD 012030Z 15003MPS CAVOK 14/10 Q1011 NOSIG,1,0.0,0,9999,0,0,0,
2026-05-01 20:00:00,METAR ZSPD 012000Z 17002MPS CAVOK 14/10 Q1011 NOSIG,1,0.0,0,9999,0,0,0,
2026-05-01 19:30:00,METAR ZSPD 011930Z 18003MPS CAVOK 14/10 Q1012 NOSIG,1,0.0,0,9999,0,0,0,
2026-05-01 19:00:00,METAR ZSPD 011900Z 17003MPS CAVOK 14/10 Q1012 NOSIG,1,0.0,0,9999,0,0,0,
2026-05-01 18:30:00,METAR ZSPD 011830Z 17002MPS CAVOK 13/10 Q1012 NOSIG,1,0.0,0,9999,0,0,0,
2026-05-01 18:00:00,METAR ZSPD 011800Z 17003MPS CAVOK 14/10 Q1012 NOSIG,1,0.0,0,9999,0,0,0,
2026-05-01 17:30:00,METAR ZSPD 011730Z 17003MPS CAVOK 13/10 Q1013 NOSIG,1,0.0,0,9999,0,0,0,
2026-05-01 17:00:00,METAR ZSPD 011700Z 18003MPS CAVOK 14/10 Q1013 NOSIG,1,0.0,0,9999,0,0,0,
2026-05-01 16:30:00,METAR ZSPD 011630Z 19003MPS CAVOK 14/10 Q1014 NOSIG,1,0.0,0,9999,0,0,0,
2026-05-01 16:00:00,METAR ZSPD 011600Z 15004MPS CAVOK 15/10 Q1014 NOSIG,1,0.0,0,9999,0,0,0,
2026-05-01 15:30:00,METAR ZSPD 011530Z 18002MPS 130V210 CAVOK 15/10 Q1014 NOSIG,1,0.0,0,9999,0,0,0,
2026-05-01 15:00:00,METAR ZSPD 011500Z 17002MPS 130V200 CAVOK 16/09 Q1014 NOSIG,1,0.0,0,9999,0,0,0,
2026-05-01 14:30:00,METAR ZSPD 011430Z 14003MPS CAVOK 15/10 Q1015 NOSIG,1,0.0,0,9999,0,0,0,
2026-05-01 14:00:00,METAR ZSPD 011400Z 15003MPS CAVOK 15/10 Q1015 NOSIG,1,0.0,0,9999,0,0,0,
2026-05-01 13:30:00,METAR ZSPD 011330Z 16003MPS CAVOK 15/11 Q1015 NOSIG,1,0.0,0,9999,0,0,0,
2026-05-01 13:00:00,METAR ZSPD 011300Z 17003MPS CAVOK 15/10 Q1016 NOSIG,1,0.0,0,9999,0,0,0,
2026-05-01 12:30:00,METAR ZSPD 011230Z 18003MPS CAVOK 16/10 Q1015 NOSIG,1,0.0,0,9999,0,0,0,
2026-05-01 12:00:00,METAR ZSPD 011200Z 16003MPS CAVOK 17/10 Q1015 NOSIG,1,0.0,0,9999,0,0,0,
2026-05-01 11:30:00,METAR ZSPD 011130Z 16004MPS CAVOK 17/10 Q1014 NOSIG,1,0.0,0,9999,0,0,0,
2026-05-01 11:00:00,METAR ZSPD 011100Z 15004MPS CAVOK 19/08 Q1014 NOSIG,1,0.0,0,9999,0,0,0,
2026-05-01 10:30:00,METAR ZSPD 011030Z 14004MPS CAVOK 20/06 Q1014 NOSIG,1,0.0,0,9999,0,0,0,
2026-05-01 10:00:00,METAR ZSPD 011000Z 14004MPS CAVOK 21/08 Q1014 NOSIG,1,0.0,0,9999,0,0,0,
2026-05-01 09:30:00,METAR ZSPD 010930Z 15005MPS 130V230 CAVOK 22/08 Q1014 NOSIG,1,0.0,0,9999,0,0,0,
2026-05-01 09:00:00,METAR ZSPD 010900Z 16005MPS CAVOK 23/11 Q1014 NOSIG,1,0.0,0,9999,0,0,0,
2026-05-01 08:39:00,SPECI ZSPD 010839Z 16005MPS 120V190 CAVOK 23/11 Q1014 NOSIG,1,0.0,0,9999,0,0,0,
2026-05-01 08:30:00,METAR ZSPD 010830Z 10005MPS 070V130 CAVOK 23/13 Q1014 NOSIG,1,0.0,0,9999,0,0,0,
2026-05-01 08:00:00,METAR ZSPD 010800Z 10005MPS CAVOK 23/10 Q1014 NOSIG,1,0.0,0,9999,0,0,0,
2026-05-01 07:30:00,METAR ZSPD 010730Z 09005MPS CAVOK 24/10 Q1014 NOSIG,1,0.0,0,9999,0,0,0,
2026-05-01 07:00:00,METAR ZSPD 010700Z 07005MPS 020V110 CAVOK 24/09 Q1014 BECMG TL0840 15004MPS,1,0.0,0,9999,0,0,0,
2026-05-01 06:30:00,METAR ZSPD 010630Z 10003MPS 350V140 CAVOK 24/09 Q1015 NOSIG,1,0.0,0,9999,0,0,0,
2026-05-01 06:00:00,METAR ZSPD 010600Z 31003MPS 260V360 CAVOK 25/08 Q1015 NOSIG,1,0.0,0,9999,0,0,0,
2026-05-01 05:30:00,METAR ZSPD 010530Z 24003MPS 170V320 CAVOK 24/08 Q1015 NOSIG,1,0.0,0,9999,0,0,0,
2026-05-01 05:00:00,METAR ZSPD 010500Z 27004MPS 230V320 CAVOK 24/08 Q1016 NOSIG,1,0.0,0,9999,0,0,0,
2026-05-01 04:30:00,METAR ZSPD 010430Z 25004MPS 200V290 CAVOK 23/08 Q1016 NOSIG,1,0.0,0,9999,0,0,0,
2026-05-01 04:00:00,METAR ZSPD 010400Z 24004MPS 210V280 CAVOK 23/09 Q1016 NOSIG,1,0.0,0,9999,0,0,0,
2026-05-01 03:30:00,METAR ZSPD 010330Z 24004MPS 210V280 CAVOK 22/09 Q1017 NOSIG,1,0.0,0,9999,0,0,0,
2026-05-01 03:00:00,METAR ZSPD 010300Z 27005MPS 230V290 CAVOK 22/09 Q1017 BECMG TL0430 21005MPS,1,0.0,0,9999,0,0,0,
2026-05-01 02:30:00,METAR ZSPD 010230Z 26005MPS 210V290 CAVOK 21/10 Q1017 NOSIG,1,0.0,0,9999,0,0,0,
2026-05-01 02:00:00,METAR ZSPD 010200Z 26005MPS 220V290 CAVOK 20/08 Q1017 NOSIG,1,0.0,0,9999,0,0,0,
2026-05-01 01:30:00,METAR ZSPD 010130Z 24005MPS 210V270 CAVOK 20/09 Q1017 NOSIG,1,0.0,0,9999,0,0,0,
2026-05-01 01:00:00,METAR ZSPD 010100Z 23005MPS CAVOK 19/10 Q1017 NOSIG,1,0.0,0,9999,0,0,0,
2026-05-01 00:30:00,METAR ZSPD 010030Z 23006MPS CAVOK 18/10 Q1017 NOSIG,1,0.0,0,9999,0,0,0,
2026-05-01 00:00:00,METAR ZSPD 010000Z 23004MPS CAVOK 18/09 Q1017 NOSIG,1,0.0,0,9999,0,0,0,
2026-04-30 23:30:00,METAR ZSPD 302330Z 23004MPS CAVOK 16/09 Q1017 NOSIG,1,0.0,0,9999,0,0,0,
2026-04-30 23:00:00,METAR ZSPD 302300Z 23003MPS 180V240 CAVOK 15/08 Q1017 NOSIG,1,0.0,0,9999,0,0,0,
2026-04-30 22:30:00,METAR ZSPD 302230Z 24003MPS CAVOK 14/09 Q1017 NOSIG,1,0.0,0,9999,0,0,0,
2026-04-30 22:00:00,METAR ZSPD 302200Z VRB01MPS CAVOK 11/10 Q1016 NOSIG,1,0.0,0,9999,0,0,0,
2026-04-30 21:30:00,METAR ZSPD 302130Z 19002MPS 150V220 CAVOK 10/10 Q1016 NOSIG,1,0.0,0,9999,0,0,0,
2026-04-30 21:00:00,METAR ZSPD 302100Z 21002MPS CAVOK 10/10 Q1016 NOSIG,1,0.0,0,9999,0,0,0,
2026-04-30 20:30:00,METAR ZSPD 302030Z 23002MPS CAVOK 11/09 Q1016 NOSIG,1,0.0,0,9999,0,0,0,
2026-04-30 20:00:00,METAR ZSPD 302000Z 23003MPS CAVOK 12/10 Q1016 NOSIG,1,0.0,0,9999,0,0,0,
2026-04-30 19:30:00,METAR ZSPD 301930Z 23003MPS CAVOK 12/10 Q1016 NOSIG,1,0.0,0,9999,0,0,0,
2026-04-30 19:00:00,METAR ZSPD 301900Z 24003MPS CAVOK 13/10 Q1016 NOSIG,1,0.0,0,9999,0,0,0,
2026-04-30 18:30:00,METAR ZSPD 301830Z 23002MPS CAVOK 10/09 Q1016 NOSIG,1,0.0,0,9999,0,0,0,
2026-04-30 18:00:00,METAR ZSPD 301800Z 21002MPS CAVOK 11/09 Q1016 NOSIG,1,0.0,0,9999,0,0,0,
2026-04-30 17:30:00,METAR ZSPD 301730Z 20003MPS CAVOK 11/09 Q1016 NOSIG,1,0.0,0,9999,0,0,0,
2026-04-30 17:00:00,METAR ZSPD 301700Z 21002MPS CAVOK 12/09 Q1017 NOSIG,1,0.0,0,9999,0,0,0,
2026-04-30 16:30:00,METAR ZSPD 301630Z 19003MPS CAVOK 12/09 Q1017 NOSIG,1,0.0,0,9999,0,0,0,
2026-04-30 16:00:00,METAR ZSPD 301600Z 20003MPS CAVOK 13/08 Q1017 NOSIG,1,0.0,0,9999,0,0,0,
2026-04-30 15:00:00,METAR ZSPD 301500Z 19003MPS CAVOK 12/09 Q1017 NOSIG,1,0.0,0,9999,0,0,0,
2026-04-30 14:30:00,METAR ZSPD 301430Z 18002MPS CAVOK 13/08 Q1017 NOSIG,1,0.0,0,9999,0,0,0,
2026-04-30 14:00:00,METAR ZSPD 301400Z 18002MPS CAVOK 13/08 Q1018 NOSIG,1,0.0,0,9999,0,0,0,
2026-04-30 13:30:00,METAR ZSPD 301330Z 19002MPS CAVOK 13/09 Q1018 NOSIG,1,0.0,0,9999,0,0,0,
2026-04-30 13:00:00,METAR ZSPD 301300Z 17003MPS CAVOK 13/08 Q1018 NOSIG,1,0.0,0,9999,0,0,0,
2026-04-30 12:30:00,METAR ZSPD 301230Z 19002MPS 160V230 CAVOK 14/08 Q1017 NOSIG,1,0.0,0,9999,0,0,0,
2026-04-30 12:00:00,METAR ZSPD 301200Z 16002MPS 120V180 CAVOK 14/08 Q1017 NOSIG,1,0.0,0,9999,0,0,0,
2026-04-30 11:30:00,METAR ZSPD 301130Z 17003MPS CAVOK 14/08 Q1017 NOSIG,1,0.0,0,9999,0,0,0,
2026-04-30 11:00:00,METAR ZSPD 301100Z 09003MPS 050V110 CAVOK 16/06 Q1016 NOSIG,1,0.0,0,9999,0,0,0,
2026-04-30 10:30:00,METAR ZSPD 301030Z 08004MPS CAVOK 17/06 Q1016 NOSIG,1,0.0,0,9999,0,0,0,
2026-04-30 10:00:00,METAR ZSPD 301000Z 06004MPS 020V090 CAVOK 17/06 Q1016 NOSIG,1,0.0,0,9999,0,0,0,
2026-04-30 09:42:00,SPECI ZSPD 300942Z 07004MPS 030V090 CAVOK 17/06 Q1016 NOSIG,1,0.0,0,9999,0,0,0,
2026-04-30 09:30:00,METAR ZSPD 300930Z 01005MPS 340V070 CAVOK 18/06 Q1016 NOSIG,1,0.0,0,9999,0,0,0,
2026-04-30 09:00:00,METAR ZSPD 300900Z 02004MPS CAVOK 18/05 Q1016 NOSIG,1,0.0,0,9999,0,0,0,
2026-04-30 08:30:00,METAR ZSPD 300830Z 36005MPS CAVOK 18/05 Q1016 NOSIG,1,0.0,0,9999,0,0,0,
2026-04-30 08:00:00,METAR ZSPD 300800Z 36006MPS CAVOK 19/06 Q1016 NOSIG,1,0.0,0,9999,0,0,0,
2026-04-30 07:30:00,METAR ZSPD 300730Z 02006MPS 340V050 CAVOK 19/05 Q1016 NOSIG,1,0.0,0,9999,0,0,0,
2026-04-30 07:00:00,METAR ZSPD 300700Z 01006MPS 340V040 CAVOK 19/06 Q1016 NOSIG,1,0.0,0,9999,0,0,0,
2026-04-30 06:30:00,METAR ZSPD 300630Z 36006MPS 330V040 CAVOK 19/07 Q1017 NOSIG,1,0.0,0,9999,0,0,0,
2026-04-30 06:00:00,METAR ZSPD 300600Z 35006MPS 310V020 CAVOK 19/06 Q1017 NOSIG,1,0.0,0,9999,0,0,0,
2026-04-30 05:30:00,METAR ZSPD 300530Z 01006MPS 320V040 CAVOK 19/08 Q1018 NOSIG,1,0.0,0,9999,0,0,0,
2026-04-30 05:00:00,METAR ZSPD 300500Z 01006MPS 330V030 CAVOK 18/06 Q1018 NOSIG,1,0.0,0,9999,0,0,0,
2026-04-30 04:30:00,METAR ZSPD 300430Z 35006MPS CAVOK 18/07 Q1018 NOSIG,1,0.0,0,9999,0,0,0,
2026-04-30 04:00:00,METAR ZSPD 300400Z 36006MPS 320V020 9999 FEW043 17/07 Q1019 NOSIG,0,6.0,0,10000,0,0,0,
2026-04-30 03:30:00,METAR ZSPD 300330Z 33006MPS CAVOK 17/10 Q1019 NOSIG,1,0.0,0,9999,0,0,0,
2026-04-30 03:00:00,METAR ZSPD 300300Z 34007MPS 310V020 CAVOK 17/08 Q1019 NOSIG,1,0.0,0,9999,0,0,0,
2026-04-30 02:30:00,METAR ZSPD 300230Z 34007MPS CAVOK 17/09 Q1019 NOSIG,1,0.0,0,9999,0,0,0,
2026-04-30 02:00:00,METAR ZSPD 300200Z 34006MPS 310V010 CAVOK 16/08 Q1019 NOSIG,1,0.0,0,9999,0,0,0,
2026-04-30 01:30:00,METAR ZSPD 300130Z 32004MPS 290V360 CAVOK 15/09 Q1019 NOSIG,1,0.0,0,9999,0,0,0,
2026-04-30 01:00:00,METAR ZSPD 300100Z 31005MPS CAVOK 14/09 Q1019 NOSIG,1,0.0,0,9999,0,0,0,
2026-04-30 00:30:00,METAR ZSPD 300030Z 30005MPS CAVOK 14/09 Q1020 NOSIG,1,0.0,0,9999,0,0,0,
2026-04-30 00:00:00,METAR ZSPD 300000Z 31005MPS 9999 SCT033 13/09 Q1020 NOSIG,0,5.0,0,10000,0,0,0,
2026-04-29 23:30:00,METAR ZSPD 292330Z 29004MPS 9999 SCT033 13/09 Q1019 NOSIG,0,4.0,0,10000,0,0,0,
2026-04-29 23:00:00,METAR ZSPD 292300Z 28003MPS 9999 SCT033 12/09 Q1019 NOSIG,0,3.0,0,10000,0,0,0,
2026-04-29 22:30:00,METAR ZSPD 292230Z 29003MPS 9999 SCT033 11/09 Q1019 NOSIG,0,3.0,0,10000,0,0,0,
2026-04-29 22:00:00,METAR ZSPD 292200Z 29003MPS 9999 SCT033 11/08 Q1019 NOSIG,0,3.0,0,10000,0,0,0,
2026-04-29 21:30:00,METAR ZSPD 292130Z 34003MPS 310V010 9999 SCT033 11/08 Q1019 NOSIG,0,3.0,0,10000,0,0,0,
2026-04-29 21:00:00,METAR ZSPD 292100Z 33002MPS 9999 SCT033 10/08 Q1018 NOSIG,0,2.0,0,10000,0,0,0,
2026-04-29 20:30:00,METAR ZSPD 292030Z 33003MPS 9999 SCT033 10/08 Q1018 NOSIG,0,3.0,0,10000,0,0,0,
2026-04-29 20:00:00,METAR ZSPD 292000Z 34003MPS CAVOK 10/08 Q1019 NOSIG,1,0.0,0,9999,0,0,0,
2026-04-29 19:30:00,METAR ZSPD 291930Z 01002MPS CAVOK 11/08 Q1019 NOSIG,1,0.0,0,9999,0,0,0,
2026-04-29 19:00:00,METAR ZSPD 291900Z 03004MPS CAVOK 11/07 Q1019 NOSIG,1,0.0,0,9999,0,0,0,
2026-04-29 18:30:00,METAR ZSPD 291830Z 03005MPS CAVOK 11/07 Q1019 NOSIG,1,0.0,0,9999,0,0,0,
2026-04-29 18:00:00,METAR ZSPD 291800Z 03006MPS CAVOK 12/07 Q1019 NOSIG,1,0.0,0,9999,0,0,0,
2026-04-29 17:30:00,METAR ZSPD 291730Z 02005MPS 9999 BKN026 12/08 Q1019 NOSIG,0,5.0,0,10000,0,0,0,
2026-04-29 17:00:00,METAR ZSPD 291700Z 03005MPS 360V060 9999 BKN020 12/08 Q1019 NOSIG,0,5.0,0,10000,0,0,0,
2026-04-29 16:30:00,METAR ZSPD 291630Z 02006MPS 9999 BKN020 12/08 Q1019 NOSIG,0,6.0,0,10000,0,0,0,
2026-04-29 16:00:00,METAR ZSPD 291600Z 01005MPS 9999 BKN020 12/09 Q1020 NOSIG,0,5.0,0,10000,0,0,0,
2026-04-29 15:30:00,METAR ZSPD 291530Z 33003MPS 9999 -RA BKN020 11/10 Q1020 NOSIG,0,3.0,0,10000,0,0,0,-RA
2026-04-29 15:00:00,METAR ZSPD 291500Z 01004MPS 9999 BKN020 12/09 Q1021 NOSIG,0,4.0,0,10000,0,0,0,
2026-04-29 14:30:00,METAR ZSPD 291430Z 04005MPS 9999 BKN020 12/09 Q1021 NOSIG,0,5.0,0,10000,0,0,0,
2026-04-29 14:00:00,METAR ZSPD 291400Z 05005MPS 020V080 9999 -RA BKN013 12/09 Q1020 BECMG TL1430 BKN015,0,5.0,0,10000,0,0,0,-RA
2026-04-29 13:30:00,METAR ZSPD 291330Z 05006MPS 010V080 9999 -RA BKN013 12/09 Q1020 NOSIG,0,6.0,0,10000,0,0,0,-RA
2026-04-29 13:00:00,METAR ZSPD 291300Z 01005MPS 9999 -RA BKN013 11/10 Q1020 BECMG TL1430 BKN015,0,5.0,0,10000,0,0,0,-RA
2026-04-29 12:30:00,METAR ZSPD 291230Z 02006MPS 350V050 9999 -RA BKN013 11/09 Q1020 NOSIG,0,6.0,0,10000,0,0,0,-RA
2026-04-29 12:00:00,METAR ZSPD 291200Z 02005MPS 350V050 9999 -RA BKN015 11/09 Q1020 BECMG TL1240 BKN013,0,5.0,0,10000,0,0,0,-RA
2026-04-29 11:30:00,METAR ZSPD 291130Z 02006MPS 9999 -RA BKN015 11/09 Q1020 NOSIG,0,6.0,0,10000,0,0,0,-RA
2026-04-29 11:00:00,METAR ZSPD 291100Z 01006MPS 9999 -RA BKN013 11/09 Q1020 NOSIG,0,6.0,0,10000,0,0,0,-RA
2026-04-29 10:30:00,METAR ZSPD 291030Z 01006MPS 9999 -RA BKN013 11/09 Q1020 NOSIG,0,6.0,0,10000,0,0,0,-RA
2026-04-29 10:00:00,METAR ZSPD 291000Z 36008MPS 9999 -RA BKN013 11/09 Q1020 BECMG TL1130 BKN015,0,8.0,0,10000,0,0,0,-RA
2026-04-29 09:30:00,METAR ZSPD 290930Z 02008MPS 9999 -RA BKN013 11/09 Q1020 NOSIG,0,8.0,0,10000,0,0,0,-RA
2026-04-29 09:00:00,METAR ZSPD 290900Z 03008MPS 9999 -RA BKN013 11/10 Q1019 NOSIG,0,8.0,0,10000,0,0,0,-RA
2026-04-29 08:30:00,METAR ZSPD 290830Z 03007MPS 9999 -RA BKN016 11/10 Q1019 NOSIG,0,7.0,0,10000,0,0,0,-RA
2026-04-29 08:00:00,METAR ZSPD 290800Z 03007MPS 9999 -RA BKN016 11/09 Q1020 BECMG TL0830 BKN013,0,7.0,0,10000,0,0,0,-RA
2026-04-29 07:30:00,METAR ZSPD 290730Z 03008MPS 9999 -RA BKN016 11/09 Q1020 NOSIG,0,8.0,0,10000,0,0,0,-RA
2026-04-29 07:00:00,METAR ZSPD 290700Z 03007MPS 9999 -RA BKN016 11/09 Q1020 NOSIG,0,7.0,0,10000,0,0,0,-RA
2026-04-29 06:30:00,METAR ZSPD 290630Z 02008MPS 9999 -RA BKN016 11/09 Q1020 NOSIG,0,8.0,0,10000,0,0,0,-RA
2026-04-29 06:00:00,METAR ZSPD 290600Z 03009MPS 9999 -RA BKN013 11/09 Q1020 BECMG TL0630 BKN015,0,9.0,0,10000,0,0,0,-RA
2026-04-29 05:30:00,METAR ZSPD 290530Z 02009MPS 9999 -RA BKN013 11/10 Q1020 NOSIG,0,9.0,0,10000,0,0,0,-RA
2026-04-29 05:00:00,METAR ZSPD 290500Z 02008MPS 9999 -RA BKN011 11/11 Q1020 BECMG TL0620 BKN015,0,8.0,0,10000,0,0,0,-RA
2026-04-29 04:30:00,METAR ZSPD 290430Z 03008MPS 9999 -RA BKN011 12/10 Q1020 NOSIG,0,8.0,0,10000,0,0,0,-RA
2026-04-29 04:00:00,METAR ZSPD 290400Z 02008MPS 9999 -RA BKN011 12/10 Q1020 NOSIG,0,8.0,0,10000,0,0,0,-RA
2026-04-29 03:30:00,METAR ZSPD 290330Z 02008MPS 9999 -RA BKN011 12/10 Q1021 NOSIG,0,8.0,0,10000,0,0,0,-RA
2026-04-29 03:00:00,METAR ZSPD 290300Z 03007MPS 9999 -RA BKN011 12/10 Q1021 BECMG TL0430 BKN015,0,7.0,0,10000,0,0,0,-RA
2026-04-29 02:30:00,METAR ZSPD 290230Z 03008MPS 9999 -RA BKN011 12/10 Q1021 NOSIG,0,8.0,0,10000,0,0,0,-RA
2026-04-29 02:00:00,METAR ZSPD 290200Z 05008MPS 020V080 8000 -RA BKN011 12/10 Q1021 NOSIG,0,8.0,0,8000,0,0,0,-RA
2026-04-29 01:30:00,METAR ZSPD 290130Z 04007MPS 8000 -RA BKN011 11/10 Q1021 NOSIG,0,7.0,0,8000,0,0,0,-RA
2026-04-29 01:00:00,METAR ZSPD 290100Z 05009MPS 9999 -RA BKN013 11/10 Q1021 BECMG TL0230 BKN015,0,9.0,0,10000,0,0,0,-RA
2026-04-29 00:30:00,METAR ZSPD 290030Z 03007MPS 360V060 9999 -RA BKN013 11/10 Q1022 NOSIG,0,7.0,0,10000,0,0,0,-RA
2026-04-29 00:00:00,METAR ZSPD 290000Z 04007MPS 9999 -RA BKN013 11/09 Q1021 NOSIG,0,7.0,0,10000,0,0,0,-RA
2026-04-28 23:30:00,METAR ZSPD 282330Z 05008MPS 9999 -RA BKN013 11/09 Q1021 NOSIG,0,8.0,0,10000,0,0,0,-RA
2026-04-28 23:00:00,METAR ZSPD 282300Z 05010MPS 9999 -RA BKN013 11/09 Q1021 BECMG TL2400 BKN015,0,10.0,0,10000,0,0,0,-RA
2026-04-28 22:30:00,METAR ZSPD 282230Z 05010MPS 9999 -RA BKN013 11/09 Q1020 NOSIG,0,10.0,0,10000,0,0,0,-RA
2026-04-28 22:00:00,METAR ZSPD 282200Z 04008G13MPS 9999 -RA BKN013 11/09 Q1020 BECMG TL2230 BKN015,0,8.0,1,10000,0,0,0,-RA
2026-04-28 21:30:00,METAR ZSPD 282130Z 05009MPS 9999 -RA BKN013 11/09 Q1020 NOSIG,0,9.0,0,10000,0,0,0,-RA
2026-04-28 21:00:00,METAR ZSPD 282100Z 04007MPS 9999 -RA SCT013 11/09 Q1021 BECMG TL2130 BKN013,0,7.0,0,10000,0,0,0,-RA
2026-04-28 20:30:00,METAR ZSPD 282030Z 03009MPS 9999 -RA SCT013 11/08 Q1021 NOSIG,0,9.0,0,10000,0,0,0,-RA
2026-04-28 20:00:00,METAR ZSPD 282000Z 03009MPS 9999 -RA SCT013 11/09 Q1020 BECMG TL2030 BKN013,0,9.0,0,10000,0,0,0,-RA
2026-04-28 19:30:00,METAR ZSPD 281930Z 04008MPS 9999 -RA FEW020 11/08 Q1020 NOSIG,0,8.0,0,10000,0,0,0,-RA
2026-04-28 19:00:00,METAR ZSPD 281900Z 02010MPS 9999 -RA FEW020 12/08 Q1020 NOSIG,0,10.0,0,10000,0,0,0,-RA
2026-04-28 18:30:00,METAR ZSPD 281830Z 02007MPS 9999 -RA FEW020 12/10 Q1019 NOSIG,0,7.0,0,10000,0,0,0,-RA
2026-04-28 18:00:00,METAR ZSPD 281800Z 01007MPS 9999 -RA FEW016 13/09 Q1019 NOSIG,0,7.0,0,10000,0,0,0,-RA
2026-04-28 17:30:00,METAR ZSPD 281730Z 02007MPS 9999 FEW016 13/10 Q1019 NOSIG,0,7.0,0,10000,0,0,0,
2026-04-28 17:00:00,METAR ZSPD 281700Z 02008MPS 9999 FEW016 12/09 Q1020 NOSIG,0,8.0,0,10000,0,0,0,
2026-04-28 16:30:00,METAR ZSPD 281630Z 03007MPS 9999 FEW016 13/10 Q1020 NOSIG,0,7.0,0,10000,0,0,0,
2026-04-28 16:00:00,METAR ZSPD 281600Z 04006MPS 9999 FEW016 13/10 Q1020 NOSIG,0,6.0,0,10000,0,0,0,
2026-04-28 15:30:00,METAR ZSPD 281530Z 02007MPS 9999 -RA SCT016 13/11 Q1020 NOSIG,0,7.0,0,10000,0,0,0,-RA
2026-04-28 15:00:00,METAR ZSPD 281500Z 02006MPS 9999 -RA FEW016 13/10 Q1020 NOSIG,0,6.0,0,10000,0,0,0,-RA
2026-04-28 14:30:00,METAR ZSPD 281430Z 03008MPS 9999 -RA FEW016 13/10 Q1020 NOSIG,0,8.0,0,10000,0,0,0,-RA
2026-04-28 14:00:00,METAR ZSPD 281400Z 04007MPS 010V070 9999 FEW016 14/10 Q1020 NOSIG,0,7.0,0,10000,0,0,0,
2026-04-28 13:30:00,METAR ZSPD 281330Z 03006MPS 9999 FEW016 14/11 Q1020 NOSIG,0,6.0,0,10000,0,0,0,
2026-04-28 13:00:00,METAR ZSPD 281300Z 04006MPS 9999 -RA FEW016 13/11 Q1020 NOSIG,0,6.0,0,10000,0,0,0,-RA
2026-04-28 12:30:00,METAR ZSPD 281230Z 04006MPS 9999 -RA FEW016 13/10 Q1019 NOSIG,0,6.0,0,10000,0,0,0,-RA
2026-04-28 12:00:00,METAR ZSPD 281200Z 04007MPS 9999 -RA SCT016 13/11 Q1019 NOSIG,0,7.0,0,10000,0,0,0,-RA
2026-04-28 11:30:00,METAR ZSPD 281130Z 04007MPS 9999 -RA BKN016 13/10 Q1019 NOSIG,0,7.0,0,10000,0,0,0,-RA
2026-04-28 11:00:00,METAR ZSPD 281100Z 05007MPS 9999 -RA BKN016 13/11 Q1019 BECMG TL1220 BKN013,0,7.0,0,10000,0,0,0,-RA
2026-04-28 10:30:00,METAR ZSPD 281030Z 05007MPS 9999 -RA BKN016 13/11 Q1018 NOSIG,0,7.0,0,10000,0,0,0,-RA
2026-04-28 10:00:00,METAR ZSPD 281000Z 05008G13MPS 9999 -RA SCT016 13/11 Q1017 NOSIG,0,8.0,1,10000,0,0,0,-RA
2026-04-28 09:30:00,METAR ZSPD 280930Z 04008MPS 9999 -RA SCT016 13/10 Q1017 NOSIG,0,8.0,0,10000,0,0,0,-RA
2026-04-28 09:00:00,METAR ZSPD 280900Z 04008MPS 9999 -RA NSC 14/11 Q1017 NOSIG,0,8.0,0,10000,0,0,0,-RA
2026-04-28 08:30:00,METAR ZSPD 280830Z 03008MPS 9999 -RA NSC 14/11 Q1017 NOSIG,0,8.0,0,10000,0,0,0,-RA
2026-04-28 08:00:00,METAR ZSPD 280800Z 03008MPS 9999 -RA NSC 14/11 Q1017 NOSIG,0,8.0,0,10000,0,0,0,-RA
2026-04-28 07:30:00,METAR ZSPD 280730Z 03008MPS 9999 -RA NSC 14/11 Q1017 NOSIG,0,8.0,0,10000,0,0,0,-RA
2026-04-28 07:00:00,METAR ZSPD 280700Z 03008MPS 9999 -RA NSC 14/11 Q1017 NOSIG,0,8.0,0,10000,0,0,0,-RA
2026-04-28 06:30:00,METAR ZSPD 280630Z 02009MPS 9999 -RA BKN013 14/12 Q1017 NOSIG,0,9.0,0,10000,0,0,0,-RA
2026-04-28 06:00:00,METAR ZSPD 280600Z 02008MPS 9999 -RA BKN013 15/13 Q1017 NOSIG,0,8.0,0,10000,0,0,0,-RA
2026-04-28 05:30:00,METAR ZSPD 280530Z 01008G13MPS 9999 -RA SCT015 15/13 Q1017 NOSIG,0,8.0,1,10000,0,0,0,-RA
2026-04-28 05:00:00,METAR ZSPD 280500Z 01008MPS 9999 -RA NSC 15/13 Q1017 BECMG TL0620 BKN013,0,8.0,0,10000,0,0,0,-RA
2026-04-28 04:30:00,METAR ZSPD 280430Z 01007MPS 9999 -RA NSC 16/13 Q1017 NOSIG,0,7.0,0,10000,0,0,0,-RA
2026-04-28 04:00:00,METAR ZSPD 280400Z 02006MPS 9999 -RA NSC 17/12 Q1017 NOSIG,0,6.0,0,10000,0,0,0,-RA
2026-04-28 03:30:00,METAR ZSPD 280330Z 04006MPS 360V080 9999 -RA NSC 17/12 Q1017 NOSIG,0,6.0,0,10000,0,0,0,-RA
2026-04-28 03:00:00,METAR ZSPD 280300Z 04007MPS 9999 -RA NSC 17/11 Q1017 NOSIG,0,7.0,0,10000,0,0,0,-RA
2026-04-28 02:30:00,METAR ZSPD 280230Z 04007MPS 9999 -RA NSC 17/12 Q1017 NOSIG,0,7.0,0,10000,0,0,0,-RA
2026-04-28 02:00:00,METAR ZSPD 280200Z 04007MPS CAVOK 17/11 Q1017 NOSIG,1,0.0,0,9999,0,0,0,
2026-04-28 01:30:00,METAR ZSPD 280130Z 03008MPS 9999 -RA NSC 17/11 Q1016 NOSIG,0,8.0,0,10000,0,0,0,-RA
2026-04-28 01:00:00,METAR ZSPD 280100Z 02009MPS 9999 -RA NSC 17/12 Q1016 NOSIG,0,9.0,0,10000,0,0,0,-RA
2026-04-28 00:30:00,METAR ZSPD 280030Z 02008MPS CAVOK 17/12 Q1016 NOSIG,1,0.0,0,9999,0,0,0,
2026-04-28 00:00:00,METAR ZSPD 280000Z 03009MPS CAVOK 17/12 Q1016 NOSIG,1,0.0,0,9999,0,0,0,
2026-04-27 23:30:00,METAR ZSPD 272330Z 02009MPS CAVOK 17/12 Q1016 NOSIG,1,0.0,0,9999,0,0,0,
2026-04-27 23:00:00,METAR ZSPD 272300Z 01008MPS CAVOK 17/12 Q1015 NOSIG,1,0.0,0,9999,0,0,0,
2026-04-27 22:30:00,METAR ZSPD 272230Z 01010MPS CAVOK 16/12 Q1015 NOSIG,1,0.0,0,9999,0,0,0,
2026-04-27 22:00:00,METAR ZSPD 272200Z 01008G13MPS CAVOK 16/13 Q1014 NOSIG,1,0.0,0,9999,0,0,0,
2026-04-27 21:30:00,METAR ZSPD 272130Z 02008MPS 9999 -RA NSC 16/13 Q1014 NOSIG,0,8.0,0,10000,0,0,0,-RA
2026-04-27 21:00:00,METAR ZSPD 272100Z 01010MPS CAVOK 17/10 Q1014 NOSIG,1,0.0,0,9999,0,0,0,
2026-04-27 20:30:00,METAR ZSPD 272030Z 01010MPS CAVOK 18/11 Q1013 NOSIG,1,0.0,0,9999,0,0,0,
2026-04-27 20:00:00,METAR ZSPD 272000Z 01011MPS CAVOK 18/10 Q1013 NOSIG,1,0.0,0,9999,0,0,0,
2026-04-27 19:30:00,METAR ZSPD 271930Z 36013MPS CAVOK 18/11 Q1013 NOSIG,1,0.0,0,9999,0,0,0,
2026-04-27 19:00:00,METAR ZSPD 271900Z 36011MPS CAVOK 19/15 Q1012 NOSIG,1,0.0,0,9999,0,0,0,
2026-04-27 18:30:00,METAR ZSPD 271830Z 35012MPS CAVOK 19/16 Q1012 NOSIG,1,0.0,0,9999,0,0,0,
2026-04-27 18:07:00,SPECI ZSPD 271807Z 35010MPS CAVOK 22/18 Q1012 NOSIG,1,0.0,0,9999,0,0,0,
2026-04-27 18:00:00,METAR ZSPD 271800Z 31002MPS CAVOK 22/17 Q1012 NOSIG,1,0.0,0,9999,0,0,0,
2026-04-27 17:30:00,METAR ZSPD 271730Z 27003MPS CAVOK 22/17 Q1011 NOSIG,1,0.0,0,9999,0,0,0,
2026-04-27 17:00:00,METAR ZSPD 271700Z VRB01MPS CAVOK 22/17 Q1011 BECMG TL1740 32005MPS,1,0.0,0,9999,0,0,0,
2026-04-27 16:30:00,METAR ZSPD 271630Z 21002MPS 180V240 CAVOK 22/17 Q1011 NOSIG,1,0.0,0,9999,0,0,0,
2026-04-27 16:00:00,METAR ZSPD 271600Z 22002MPS 200V260 CAVOK 22/17 Q1011 BECMG TL1720 32005MPS,1,0.0,0,9999,0,0,0,
2026-04-27 15:30:00,METAR ZSPD 271530Z 24001MPS CAVOK 23/17 Q1011 NOSIG,1,0.0,0,9999,0,0,0,
2026-04-27 15:00:00,METAR ZSPD 271500Z 27002MPS 220V330 CAVOK 23/17 Q1011 BECMG TL1650 34005MPS,1,0.0,0,9999,0,0,0,
2026-04-27 14:30:00,METAR ZSPD 271430Z 28002MPS 240V300 CAVOK 23/17 Q1011 NOSIG,1,0.0,0,9999,0,0,0,
2026-04-27 14:00:00,METAR ZSPD 271400Z 19002MPS CAVOK 23/17 Q1012 NOSIG,1,0.0,0,9999,0,0,0,
2026-04-27 13:30:00,METAR ZSPD 271330Z VRB01MPS CAVOK 22/17 Q1012 NOSIG,1,0.0,0,9999,0,0,0,
2026-04-27 13:00:00,METAR ZSPD 271300Z 18002MPS CAVOK 22/17 Q1012 NOSIG,1,0.0,0,9999,0,0,0,
2026-04-27 12:30:00,METAR ZSPD 271230Z 18002MPS CAVOK 23/17 Q1011 NOSIG,1,0.0,0,9999,0,0,0,
2026-04-27 12:00:00,METAR ZSPD 271200Z 17002MPS CAVOK 23/17 Q1011 NOSIG,1,0.0,0,9999,0,0,0,
2026-04-27 11:30:00,METAR ZSPD 271130Z 17002MPS CAVOK 23/17 Q1010 NOSIG,1,0.0,0,9999,0,0,0,
2026-04-27 11:00:00,METAR ZSPD 271100Z 17003MPS CAVOK 24/15 Q1010 NOSIG,1,0.0,0,9999,0,0,0,
2026-04-27 10:30:00,METAR ZSPD 271030Z 17003MPS CAVOK 24/15 Q1010 NOSIG,1,0.0,0,9999,0,0,0,
2026-04-27 10:00:00,METAR ZSPD 271000Z 17004MPS CAVOK 25/14 Q1010 NOSIG,1,0.0,0,9999,0,0,0,
2026-04-27 09:30:00,METAR ZSPD 270930Z 17004MPS CAVOK 26/15 Q1009 NOSIG,1,0.0,0,9999,0,0,0,
2026-04-27 09:00:00,METAR ZSPD 270900Z 17005MPS CAVOK 26/15 Q1009 NOSIG,1,0.0,0,9999,0,0,0,
2026-04-27 08:30:00,METAR ZSPD 270830Z 17005MPS CAVOK 27/15 Q1009 NOSIG,1,0.0,0,9999,0,0,0,
2026-04-27 08:00:00,METAR ZSPD 270800Z 19003MPS 150V240 CAVOK 28/14 Q1009 NOSIG,1,0.0,0,9999,0,0,0,
2026-04-27 07:30:00,METAR ZSPD 270730Z 20005MPS CAVOK 29/14 Q1009 NOSIG,1,0.0,0,9999,0,0,0,
2026-04-27 07:00:00,METAR ZSPD 270700Z 20004MPS CAVOK 29/14 Q1009 NOSIG,1,0.0,0,9999,0,0,0,
2026-04-27 06:30:00,METAR ZSPD 270630Z 21005MPS 180V250 CAVOK 28/14 Q1010 NOSIG,1,0.0,0,9999,0,0,0,
2026-04-27 06:00:00,METAR ZSPD 270600Z 20005MPS 160V240 CAVOK 28/14 Q1010 NOSIG,1,0.0,0,9999,0,0,0,
2026-04-27 05:30:00,METAR ZSPD 270530Z 19005MPS 150V220 CAVOK 28/14 Q1010 NOSIG,1,0.0,0,9999,0,0,0,
2026-04-27 05:00:00,METAR ZSPD 270500Z 19004MPS 150V230 CAVOK 27/15 Q1011 NOSIG,1,0.0,0,9999,0,0,0,
2026-04-27 04:30:00,METAR ZSPD 270430Z 19004MPS 160V220 CAVOK 27/14 Q1011 NOSIG,1,0.0,0,9999,0,0,0,
2026-04-27 04:00:00,METAR ZSPD 270400Z 20004MPS 150V230 CAVOK 27/15 Q1012 NOSIG,1,0.0,0,9999,0,0,0,
2026-04-27 03:30:00,METAR ZSPD 270330Z 20004MPS 160V220 CAVOK 26/14 Q1012 NOSIG,1,0.0,0,9999,0,0,0,
2026-04-27 03:00:00,METAR ZSPD 270300Z 20004MPS 160V230 CAVOK 25/14 Q1012 NOSIG,1,0.0,0,9999,0,0,0,
2026-04-27 02:30:00,METAR ZSPD 270230Z 20004MPS 170V230 CAVOK 24/15 Q1012 NOSIG,1,0.0,0,9999,0,0,0,
2026-04-27 02:00:00,METAR ZSPD 270200Z 19005MPS CAVOK 23/14 Q1013 NOSIG,1,0.0,0,9999,0,0,0,
2026-04-27 01:30:00,METAR ZSPD 270130Z 18004MPS CAVOK 22/14 Q1013 NOSIG,1,0.0,0,9999,0,0,0,
2026-04-27 01:00:00,METAR ZSPD 270100Z 17005MPS 150V210 CAVOK 22/14 Q1013 NOSIG,1,0.0,0,9999,0,0,0,
2026-04-27 00:30:00,METAR ZSPD 270030Z 16005MPS CAVOK 22/15 Q1013 NOSIG,1,0.0,0,9999,0,0,0,
2026-04-27 00:00:00,METAR ZSPD 270000Z 14004MPS 100V160 CAVOK 21/15 Q1013 NOSIG,1,0.0,0,9999,0,0,0,
2026-04-26 23:30:00,METAR ZSPD 262330Z 15004MPS CAVOK 19/16 Q1013 NOSIG,1,0.0,0,9999,0,0,0,
2026-04-26 23:00:00,METAR ZSPD 262300Z 14003MPS CAVOK 19/15 Q1013 NOSIG,1,0.0,0,9999,0,0,0,
2026-04-26 22:30:00,METAR ZSPD 262230Z 14003MPS CAVOK 17/15 Q1012 NOSIG,1,0.0,0,9999,0,0,0,
2026-04-26 22:00:00,METAR ZSPD 262200Z 15002MPS CAVOK 16/16 Q1012 NOSIG,1,0.0,0,9999,0,0,0,
2026-04-26 21:30:00,METAR ZSPD 262130Z 15002MPS CAVOK 15/15 Q1012 NOSIG,1,0.0,0,9999,0,0,0,
2026-04-26 21:00:00,METAR ZSPD 262100Z 14003MPS CAVOK 16/14 Q1012 NOSIG,1,0.0,0,9999,0,0,0,
2026-04-26 20:30:00,METAR ZSPD 262030Z 12003MPS CAVOK 16/14 Q1012 NOSIG,1,0.0,0,9999,0,0,0,
2026-04-26 20:00:00,METAR ZSPD 262000Z 12004MPS CAVOK 16/14 Q1012 NOSIG,1,0.0,0,9999,0,0,0,
2026-04-26 19:30:00,METAR ZSPD 261930Z 11003MPS CAVOK 16/13 Q1012 NOSIG,1,0.0,0,9999,0,0,0,
2026-04-26 19:00:00,METAR ZSPD 261900Z 09003MPS CAVOK 15/12 Q1012 NOSIG,1,0.0,0,9999,0,0,0,
2026-04-26 18:30:00,METAR ZSPD 261830Z 10002MPS CAVOK 15/12 Q1012 NOSIG,1,0.0,0,9999,0,0,0,
2026-04-26 18:00:00,METAR ZSPD 261800Z 13002MPS CAVOK 15/11 Q1012 NOSIG,1,0.0,0,9999,0,0,0,
2026-04-26 17:30:00,METAR ZSPD 261730Z 15002MPS CAVOK 15/12 Q1013 NOSIG,1,0.0,0,9999,0,0,0,
2026-04-26 17:00:00,METAR ZSPD 261700Z 16003MPS CAVOK 14/12 Q1012 NOSIG,1,0.0,0,9999,0,0,0,
2026-04-26 16:30:00,METAR ZSPD 261630Z 18002MPS CAVOK 14/12 Q1013 NOSIG,1,0.0,0,9999,0,0,0,
2026-04-26 16:00:00,METAR ZSPD 261600Z 19002MPS CAVOK 14/12 Q1013 NOSIG,1,0.0,0,9999,0,0,0,
2026-04-26 15:30:00,METAR ZSPD 261530Z 19003MPS CAVOK 15/12 Q1013 NOSIG,1,0.0,0,9999,0,0,0,
2026-04-26 15:00:00,METAR ZSPD 261500Z 16003MPS CAVOK 15/13 Q1013 NOSIG,1,0.0,0,9999,0,0,0,
2026-04-26 14:30:00,METAR ZSPD 261430Z 15003MPS CAVOK 16/13 Q1013 NOSIG,1,0.0,0,9999,0,0,0,
2026-04-26 14:00:00,METAR ZSPD 261400Z 14004MPS CAVOK 16/12 Q1013 NOSIG,1,0.0,0,9999,0,0,0,
2026-04-26 13:30:00,METAR ZSPD 261330Z 15003MPS CAVOK 16/14 Q1013 NOSIG,1,0.0,0,9999,0,0,0,
2026-04-26 13:00:00,METAR ZSPD 261300Z 15003MPS CAVOK 16/14 Q1013 NOSIG,1,0.0,0,9999,0,0,0,
2026-04-26 12:30:00,METAR ZSPD 261230Z 14004MPS CAVOK 17/14 Q1013 NOSIG,1,0.0,0,9999,0,0,0,
2026-04-26 12:00:00,METAR ZSPD 261200Z 13003MPS CAVOK 17/15 Q1013 NOSIG,1,0.0,0,9999,0,0,0,
2026-04-26 11:30:00,METAR ZSPD 261130Z 13003MPS CAVOK 17/15 Q1013 NOSIG,1,0.0,0,9999,0,0,0,
2026-04-26 11:00:00,METAR ZSPD 261100Z 13003MPS CAVOK 18/15 Q1013 NOSIG,1,0.0,0,9999,0,0,0,
2026-04-26 10:30:00,METAR ZSPD 261030Z 13004MPS CAVOK 18/13 Q1013 NOSIG,1,0.0,0,9999,0,0,0,
2026-04-26 10:00:00,METAR ZSPD 261000Z 13004MPS CAVOK 19/13 Q1013 NOSIG,1,0.0,0,9999,0,0,0,
2026-04-26 09:30:00,METAR ZSPD 260930Z 12004MPS CAVOK 20/12 Q1013 NOSIG,1,0.0,0,9999,0,0,0,
2026-04-26 09:00:00,METAR ZSPD 260900Z 11005MPS 090V150 CAVOK 21/12 Q1012 NOSIG,1,0.0,0,9999,0,0,0,
2026-04-26 08:30:00,METAR ZSPD 260830Z 13005MPS CAVOK 21/11 Q1012 NOSIG,1,0.0,0,9999,0,0,0,
2026-04-26 08:00:00,METAR ZSPD 260800Z 12005MPS CAVOK 21/11 Q1012 NOSIG,1,0.0,0,9999,0,0,0,
2026-04-26 07:30:00,METAR ZSPD 260730Z 12005MPS 090V150 CAVOK 22/10 Q1012 NOSIG,1,0.0,0,9999,0,0,0,
2026-04-26 07:00:00,METAR ZSPD 260700Z 13005MPS CAVOK 21/11 Q1012 NOSIG,1,0.0,0,9999,0,0,0,
2026-04-26 06:30:00,METAR ZSPD 260630Z 12005MPS CAVOK 21/11 Q1012 NOSIG,1,0.0,0,9999,0,0,0,
2026-04-26 06:00:00,METAR ZSPD 260600Z 11006MPS 080V150 CAVOK 22/12 Q1012 NOSIG,1,0.0,0,9999,0,0,0,
2026-04-26 05:30:00,METAR ZSPD 260530Z 09005MPS 050V110 CAVOK 23/12 Q1013 NOSIG,1,0.0,0,9999,0,0,0,
2026-04-26 05:00:00,METAR ZSPD 260500Z 09005MPS 070V130 CAVOK 22/12 Q1013 NOSIG,1,0.0,0,9999,0,0,0,
2026-04-26 04:30:00,METAR ZSPD 260430Z 08005MPS 040V110 CAVOK 23/12 Q1013 NOSIG,1,0.0,0,9999,0,0,0,
2026-04-26 04:00:00,METAR ZSPD 260400Z 06004MPS 360V110 CAVOK 23/11 Q1014 NOSIG,1,0.0,0,9999,0,0,0,
2026-04-26 03:30:00,METAR ZSPD 260330Z 07004MPS 020V100 CAVOK 22/10 Q1014 NOSIG,1,0.0,0,9999,0,0,0,
2026-04-26 03:00:00,METAR ZSPD 260300Z 05003MPS 350V100 CAVOK 22/11 Q1014 NOSIG,1,0.0,0,9999,0,0,0,
2026-04-26 02:30:00,METAR ZSPD 260230Z VRB02MPS CAVOK 22/10 Q1014 NOSIG,1,0.0,0,9999,0,0,0,
2026-04-26 02:00:00,METAR ZSPD 260200Z 11002MPS 050V200 CAVOK 22/10 Q1014 NOSIG,1,0.0,0,9999,0,0,0,
2026-04-26 01:30:00,METAR ZSPD 260130Z VRB01MPS CAVOK 22/11 Q1015 NOSIG,1,0.0,0,9999,0,0,0,
2026-04-26 01:00:00,METAR ZSPD 260100Z VRB01MPS CAVOK 21/12 Q1015 NOSIG,1,0.0,0,9999,0,0,0,
2026-04-26 00:30:00,METAR ZSPD 260030Z VRB01MPS CAVOK 19/13 Q1015 NOSIG,1,0.0,0,9999,0,0,0,
2026-04-26 00:00:00,METAR ZSPD 260000Z 19002MPS 160V220 CAVOK 18/12 Q1015 NOSIG,1,0.0,0,9999,0,0,0,
2026-04-25 23:30:00,METAR ZSPD 252330Z 19003MPS CAVOK 17/13 Q1015 NOSIG,1,0.0,0,9999,0,0,0,
2026-04-25 23:00:00,METAR ZSPD 252300Z 17002MPS 140V200 CAVOK 16/13 Q1015 NOSIG,1,0.0,0,9999,0,0,0,
2026-04-25 22:30:00,METAR ZSPD 252230Z 17002MPS CAVOK 14/13 Q1015 NOSIG,1,0.0,0,9999,0,0,0,
2026-04-25 22:00:00,METAR ZSPD 252200Z 18001MPS CAVOK 13/13 Q1014 NOSIG,1,0.0,0,9999,0,0,0,
2026-04-25 21:30:00,METAR ZSPD 252130Z 14001MPS CAVOK 12/12 Q1014 NOSIG,1,0.0,0,9999,0,0,0,
2026-04-25 21:00:00,METAR ZSPD 252100Z 12001MPS CAVOK 13/13 Q1014 NOSIG,1,0.0,0,9999,0,0,0,
2026-04-25 20:30:00,METAR ZSPD 252030Z 00000MPS CAVOK 13/13 Q1014 NOSIG,1,0.0,0,9999,0,0,0,
2026-04-25 20:00:00,METAR ZSPD 252000Z 10001MPS CAVOK 13/12 Q1014 NOSIG,1,0.0,0,9999,0,0,0,
2026-04-25 19:30:00,METAR ZSPD 251930Z VRB01MPS CAVOK 13/13 Q1014 NOSIG,1,0.0,0,9999,0,0,0,
2026-04-25 19:00:00,METAR ZSPD 251900Z 14001MPS CAVOK 13/13 Q1014 NOSIG,1,0.0,0,9999,0,0,0,
2026-04-25 18:30:00,METAR ZSPD 251830Z 15001MPS CAVOK 13/12 Q1014 NOSIG,1,0.0,0,9999,0,0,0,
2026-04-25 18:00:00,METAR ZSPD 251800Z 16001MPS CAVOK 13/11 Q1014 NOSIG,1,0.0,0,9999,0,0,0,
2026-04-25 17:30:00,METAR ZSPD 251730Z 16001MPS CAVOK 13/11 Q1015 NOSIG,1,0.0,0,9999,0,0,0,
2026-04-25 17:00:00,METAR ZSPD 251700Z 16002MPS CAVOK 13/12 Q1015 NOSIG,1,0.0,0,9999,0,0,0,
2026-04-25 16:30:00,METAR ZSPD 251630Z 15002MPS CAVOK 13/11 Q1015 NOSIG,1,0.0,0,9999,0,0,0,
2026-04-25 16:00:00,METAR ZSPD 251600Z 17002MPS CAVOK 13/12 Q1016 NOSIG,1,0.0,0,9999,0,0,0,
2026-04-25 15:30:00,METAR ZSPD 251530Z 17003MPS CAVOK 14/11 Q1016 NOSIG,1,0.0,0,9999,0,0,0,
2026-04-25 15:00:00,METAR ZSPD 251500Z 15003MPS CAVOK 14/11 Q1016 NOSIG,1,0.0,0,9999,0,0,0,
2026-04-25 14:30:00,METAR ZSPD 251430Z 15002MPS CAVOK 14/10 Q1017 NOSIG,1,0.0,0,9999,0,0,0,
2026-04-25 14:00:00,METAR ZSPD 251400Z 15003MPS 120V210 CAVOK 15/10 Q1017 NOSIG,1,0.0,0,9999,0,0,0,
2026-04-25 13:30:00,METAR ZSPD 251330Z 16002MPS 130V190 CAVOK 15/11 Q1017 NOSIG,1,0.0,0,9999,0,0,0,
2026-04-25 13:00:00,METAR ZSPD 251300Z 14003MPS CAVOK 15/11 Q1017 NOSIG,1,0.0,0,9999,0,0,0,
2026-04-25 12:30:00,METAR ZSPD 251230Z 14004MPS CAVOK 16/11 Q1017 NOSIG,1,0.0,0,9999,0,0,0,
2026-04-25 12:00:00,METAR ZSPD 251200Z 12003MPS CAVOK 16/10 Q1016 NOSIG,1,0.0,0,9999,0,0,0,
2026-04-25 11:30:00,METAR ZSPD 251130Z 12004MPS CAVOK 17/09 Q1016 NOSIG,1,0.0,0,9999,0,0,0,
2026-04-25 11:00:00,METAR ZSPD 251100Z 11003MPS CAVOK 17/09 Q1016 NOSIG,1,0.0,0,9999,0,0,0,
2026-04-25 10:30:00,METAR ZSPD 251030Z 13004MPS CAVOK 17/10 Q1016 NOSIG,1,0.0,0,9999,0,0,0,
2026-04-25 10:00:00,METAR ZSPD 251000Z 13005MPS CAVOK 18/09 Q1016 NOSIG,1,0.0,0,9999,0,0,0,
2026-04-25 09:30:00,METAR ZSPD 250930Z 12005MPS CAVOK 18/09 Q1016 NOSIG,1,0.0,0,9999,0,0,0,
2026-04-25 09:00:00,METAR ZSPD 250900Z 11005MPS CAVOK 19/10 Q1016 NOSIG,1,0.0,0,9999,0,0,0,
2026-04-25 08:30:00,METAR ZSPD 250830Z 11005MPS 090V240 CAVOK 19/09 Q1016 NOSIG,1,0.0,0,9999,0,0,0,
2026-04-25 08:00:00,METAR ZSPD 250800Z 09004MPS CAVOK 20/08 Q1016 NOSIG,1,0.0,0,9999,0,0,0,
2026-04-25 07:30:00,METAR ZSPD 250730Z 10004MPS 070V140 CAVOK 20/09 Q1016 NOSIG,1,0.0,0,9999,0,0,0,
2026-04-25 07:00:00,METAR ZSPD 250700Z 12004MPS 080V150 CAVOK 20/08 Q1016 NOSIG,1,0.0,0,9999,0,0,0,
2026-04-25 06:30:00,METAR ZSPD 250630Z 11004MPS 080V150 CAVOK 20/08 Q1017 NOSIG,1,0.0,0,9999,0,0,0,
2026-04-25 06:00:00,METAR ZSPD 250600Z 10005MPS 070V130 CAVOK 20/07 Q1017 NOSIG,1,0.0,0,9999,0,0,0,
2026-04-25 05:30:00,METAR ZSPD 250530Z 09005MPS CAVOK 20/06 Q1018 NOSIG,1,0.0,0,9999,0,0,0,
2026-04-25 05:00:00,METAR ZSPD 250500Z 10004MPS 050V120 CAVOK 21/10 Q1018 NOSIG,1,0.0,0,9999,0,0,0,
2026-04-25 04:30:00,METAR ZSPD 250430Z 09005MPS CAVOK 21/12 Q1018 NOSIG,1,0.0,0,9999,0,0,0,
2026-04-25 04:00:00,METAR ZSPD 250400Z VRB04MPS CAVOK 20/11 Q1019 BECMG TL0530 13005MPS,1,0.0,0,9999,0,0,0,
2026-04-25 03:30:00,METAR ZSPD 250330Z VRB03MPS CAVOK 20/10 Q1019 NOSIG,1,0.0,0,9999,0,0,0,
2026-04-25 03:00:00,METAR ZSPD 250300Z 09003MPS 030V140 CAVOK 20/11 Q1020 NOSIG,1,0.0,0,9999,0,0,0,
2026-04-25 02:30:00,METAR ZSPD 250230Z 10002MPS 060V170 CAVOK 20/11 Q1020 NOSIG,1,0.0,0,9999,0,0,0,
2026-04-25 02:00:00,METAR ZSPD 250200Z VRB03MPS CAVOK 20/13 Q1020 BECMG TL0330 13005MPS,1,0.0,0,9999,0,0,0,
2026-04-25 01:30:00,METAR ZSPD 250130Z 08003MPS 030V130 CAVOK 19/13 Q1019 NOSIG,1,0.0,0,9999,0,0,0,
2026-04-25 01:00:00,METAR ZSPD 250100Z VRB02MPS CAVOK 19/12 Q1019 NOSIG,1,0.0,0,9999,0,0,0,
2026-04-25 00:30:00,METAR ZSPD 250030Z VRB01MPS CAVOK 19/13 Q1019 NOSIG,1,0.0,0,9999,0,0,0,
2026-04-25 00:00:00,METAR ZSPD 250000Z 14002MPS 070V210 CAVOK 17/14 Q1019 NOSIG,1,0.0,0,9999,0,0,0,
2026-04-24 23:30:00,METAR ZSPD 242330Z 15002MPS CAVOK 17/14 Q1019 NOSIG,1,0.0,0,9999,0,0,0,
2026-04-24 23:00:00,METAR ZSPD 242300Z 16002MPS 8000 NSC 16/15 Q1019 NOSIG,0,2.0,0,8000,0,0,0,
2026-04-24 22:30:00,METAR ZSPD 242230Z 16002MPS 120V200 5000 BR NSC 14/14 Q1018 NOSIG,0,2.0,0,5000,0,0,1,BR
2026-04-24 22:00:00,METAR ZSPD 242200Z 16002MPS 5000 BR NSC 14/14 Q1018 NOSIG,0,2.0,0,5000,0,0,1,BR
2026-04-24 21:30:00,METAR ZSPD 242130Z 14001MPS 5000 BR NSC 13/13 Q1018 NOSIG,0,1.0,0,5000,0,0,1,BR
2026-04-24 21:00:00,METAR ZSPD 242100Z 15002MPS 120V180 5000 BR NSC 13/13 Q1018 NOSIG,0,2.0,0,5000,0,0,1,BR
2026-04-24 20:30:00,METAR ZSPD 242030Z 16002MPS 5000 BR NSC 13/13 Q1018 NOSIG,0,2.0,0,5000,0,0,1,BR
2026-04-24 20:00:00,METAR ZSPD 242000Z 18002MPS 7000 NSC 13/13 Q1018 NOSIG,0,2.0,0,7000,0,0,0,
2026-04-24 19:30:00,METAR ZSPD 241930Z 20002MPS 7000 PRFG NSC 12/12 Q1017 NOSIG,0,2.0,0,7000,0,0,1,FG
2026-04-24 19:00:00,METAR ZSPD 241900Z 12001MPS 7000 NSC 14/14 Q1017 NOSIG,0,1.0,0,7000,0,0,0,
2026-04-24 18:30:00,METAR ZSPD 241830Z 13001MPS 6000 NSC 13/13 Q1017 NOSIG,0,1.0,0,6000,0,0,0,
2026-04-24 18:00:00,METAR ZSPD 241800Z 16001MPS 6000 NSC 13/13 Q1018 NOSIG,0,1.0,0,6000,0,0,0,
2026-04-24 17:30:00,METAR ZSPD 241730Z 16001MPS 7000 NSC 14/14 Q1018 NOSIG,0,1.0,0,7000,0,0,0,
2026-04-24 17:00:00,METAR ZSPD 241700Z 14001MPS CAVOK 14/14 Q1018 NOSIG,1,0.0,0,9999,0,0,0,
2026-04-24 16:30:00,METAR ZSPD 241630Z 18001MPS CAVOK 14/14 Q1019 NOSIG,1,0.0,0,9999,0,0,0,
2026-04-24 16:00:00,METAR ZSPD 241600Z 19002MPS CAVOK 14/14 Q1019 NOSIG,1,0.0,0,9999,0,0,0,
2026-04-24 15:30:00,METAR ZSPD 241530Z 17002MPS CAVOK 14/13 Q1018 NOSIG,1,0.0,0,9999,0,0,0,
2026-04-24 15:00:00,METAR ZSPD 241500Z 16002MPS 120V190 CAVOK 15/13 Q1018 NOSIG,1,0.0,0,9999,0,0,0,
2026-04-24 14:30:00,METAR ZSPD 241430Z VRB01MPS CAVOK 16/13 Q1018 NOSIG,1,0.0,0,9999,0,0,0,
2026-04-24 14:00:00,METAR ZSPD 241400Z 13002MPS 100V160 CAVOK 15/13 Q1018 NOSIG,1,0.0,0,9999,0,0,0,
2026-04-24 13:30:00,METAR ZSPD 241330Z 14003MPS CAVOK 15/13 Q1018 NOSIG,1,0.0,0,9999,0,0,0,
2026-04-24 13:00:00,METAR ZSPD 241300Z 12002MPS CAVOK 16/13 Q1018 NOSIG,1,0.0,0,9999,0,0,0,
2026-04-24 12:30:00,METAR ZSPD 241230Z 14003MPS 110V170 CAVOK 15/13 Q1018 NOSIG,1,0.0,0,9999,0,0,0,
2026-04-24 12:00:00,METAR ZSPD 241200Z 15003MPS CAVOK 15/14 Q1017 NOSIG,1,0.0,0,9999,0,0,0,
2026-04-24 11:30:00,METAR ZSPD 241130Z 14003MPS CAVOK 16/13 Q1017 NOSIG,1,0.0,0,9999,0,0,0,
2026-04-24 11:00:00,METAR ZSPD 241100Z 14004MPS CAVOK 16/13 Q1017 NOSIG,1,0.0,0,9999,0,0,0,
2026-04-24 10:30:00,METAR ZSPD 241030Z 15003MPS CAVOK 17/13 Q1017 NOSIG,1,0.0,0,9999,0,0,0,
2026-04-24 10:00:00,METAR ZSPD 241000Z 13004MPS CAVOK 17/14 Q1016 NOSIG,1,0.0,0,9999,0,0,0,
2026-04-24 09:30:00,METAR ZSPD 240930Z 12004MPS CAVOK 18/13 Q1016 NOSIG,1,0.0,0,9999,0,0,0,
2026-04-24 09:00:00,METAR ZSPD 240900Z 11004MPS 090V150 CAVOK 18/14 Q1016 NOSIG,1,0.0,0,9999,0,0,0,
2026-04-24 08:30:00,METAR ZSPD 240830Z 12005MPS CAVOK 18/13 Q1016 NOSIG,1,0.0,0,9999,0,0,0,
2026-04-24 08:00:00,METAR ZSPD 240800Z 10005MPS CAVOK 19/14 Q1016 NOSIG,1,0.0,0,9999,0,0,0,
2026-04-24 07:30:00,METAR ZSPD 240730Z 09005MPS CAVOK 20/14 Q1016 NOSIG,1,0.0,0,9999,0,0,0,
2026-04-24 07:00:00,METAR ZSPD 240700Z 08005MPS 050V110 CAVOK 20/13 Q1016 NOSIG,1,0.0,0,9999,0,0,0,
2026-04-24 06:30:00,METAR ZSPD 240630Z 08005MPS 040V100 CAVOK 20/13 Q1016 NOSIG,1,0.0,0,9999,0,0,0,
2026-04-24 06:00:00,METAR ZSPD 240600Z 08004MPS 030V120 CAVOK 20/13 Q1016 NOSIG,1,0.0,0,9999,0,0,0,
2026-04-24 05:30:00,METAR ZSPD 240530Z 08005MPS 030V120 CAVOK 20/13 Q1016 NOSIG,1,0.0,0,9999,0,0,0,
2026-04-24 05:00:00,METAR ZSPD 240500Z 07003MPS 020V130 CAVOK 20/13 Q1016 NOSIG,1,0.0,0,9999,0,0,0,
2026-04-24 04:30:00,METAR ZSPD 240430Z 06003MPS 360V130 CAVOK 20/12 Q1016 NOSIG,1,0.0,0,9999,0,0,0,
2026-04-24 04:00:00,METAR ZSPD 240400Z 04003MPS 330V120 CAVOK 19/11 Q1016 NOSIG,1,0.0,0,9999,0,0,0,
2026-04-24 03:30:00,METAR ZSPD 240330Z 04003MPS 330V120 CAVOK 19/09 Q1017 NOSIG,1,0.0,0,9999,0,0,0,
2026-04-24 03:00:00,METAR ZSPD 240300Z 04003MPS 350V100 CAVOK 19/12 Q1017 NOSIG,1,0.0,0,9999,0,0,0,
2026-04-24 02:30:00,METAR ZSPD 240230Z 03003MPS 340V110 CAVOK 18/10 Q1017 NOSIG,1,0.0,0,9999,0,0,0,
2026-04-24 02:00:00,METAR ZSPD 240200Z 02003MPS 330V130 CAVOK 17/10 Q1017 NOSIG,1,0.0,0,9999,0,0,0,
2026-04-24 01:30:00,METAR ZSPD 240130Z 02004MPS 330V090 CAVOK 17/10 Q1017 NOSIG,1,0.0,0,9999,0,0,0,
2026-04-24 01:00:00,METAR ZSPD 240100Z 01004MPS 340V040 CAVOK 17/10 Q1017 NOSIG,1,0.0,0,9999,0,0,0,
2026-04-24 00:30:00,METAR ZSPD 240030Z 35004MPS 310V030 CAVOK 16/10 Q1017 NOSIG,1,0.0,0,9999,0,0,0,
2026-04-24 00:00:00,METAR ZSPD 240000Z 35004MPS 320V030 CAVOK 16/10 Q1017 NOSIG,1,0.0,0,9999,0,0,0,
2026-04-23 23:30:00,METAR ZSPD 232330Z 35004MPS CAVOK 15/11 Q1016 NOSIG,1,0.0,0,9999,0,0,0,
2026-04-23 23:00:00,METAR ZSPD 232300Z 34003MPS CAVOK 14/11 Q1016 NOSIG,1,0.0,0,9999,0,0,0,
2026-04-23 22:30:00,METAR ZSPD 232230Z 34004MPS CAVOK 13/10 Q1016 NOSIG,1,0.0,0,9999,0,0,0,
2026-04-23 22:00:00,METAR ZSPD 232200Z 34004MPS CAVOK 13/10 Q1015 NOSIG,1,0.0,0,9999,0,0,0,
2026-04-23 21:30:00,METAR ZSPD 232130Z 34003MPS CAVOK 12/10 Q1015 NOSIG,1,0.0,0,9999,0,0,0,
2026-04-23 21:00:00,METAR ZSPD 232100Z 34003MPS CAVOK 12/09 Q1014 NOSIG,1,0.0,0,9999,0,0,0,
2026-04-23 20:30:00,METAR ZSPD 232030Z 34003MPS CAVOK 12/09 Q1014 NOSIG,1,0.0,0,9999,0,0,0,
2026-04-23 20:00:00,METAR ZSPD 232000Z 34003MPS CAVOK 12/09 Q1014 NOSIG,1,0.0,0,9999,0,0,0,
2026-04-23 19:30:00,METAR ZSPD 231930Z 33003MPS CAVOK 13/09 Q1014 NOSIG,1,0.0,0,9999,0,0,0,
2026-04-23 19:00:00,METAR ZSPD 231900Z 35002MPS CAVOK 13/10 Q1014 NOSIG,1,0.0,0,9999,0,0,0,
2026-04-23 18:30:00,METAR ZSPD 231830Z 32003MPS CAVOK 14/09 Q1014 NOSIG,1,0.0,0,9999,0,0,0,
2026-04-23 18:00:00,METAR ZSPD 231800Z 32004MPS CAVOK 14/10 Q1014 NOSIG,1,0.0,0,9999,0,0,0,
2026-04-23 17:30:00,METAR ZSPD 231730Z 32004MPS CAVOK 14/10 Q1014 NOSIG,1,0.0,0,9999,0,0,0,
2026-04-23 17:00:00,METAR ZSPD 231700Z 32004MPS CAVOK 14/10 Q1014 NOSIG,1,0.0,0,9999,0,0,0,
2026-04-23 16:30:00,METAR ZSPD 231630Z 32005MPS CAVOK 14/09 Q1014 NOSIG,1,0.0,0,9999,0,0,0,
2026-04-23 16:00:00,METAR ZSPD 231600Z 33004MPS CAVOK 14/09 Q1014 NOSIG,1,0.0,0,9999,0,0,0,
2026-04-23 15:30:00,METAR ZSPD 231530Z 34004MPS CAVOK 14/09 Q1014 NOSIG,1,0.0,0,9999,0,0,0,
2026-04-23 15:00:00,METAR ZSPD 231500Z 33005MPS CAVOK 14/09 Q1014 NOSIG,1,0.0,0,9999,0,0,0,
2026-04-23 14:30:00,METAR ZSPD 231430Z 33004MPS CAVOK 14/09 Q1014 NOSIG,1,0.0,0,9999,0,0,0,
2026-04-23 14:00:00,METAR ZSPD 231400Z 34005MPS CAVOK 14/09 Q1014 NOSIG,1,0.0,0,9999,0,0,0,
2026-04-23 13:30:00,METAR ZSPD 231330Z 33004MPS CAVOK 14/09 Q1014 NOSIG,1,0.0,0,9999,0,0,0,
2026-04-23 13:00:00,METAR ZSPD 231300Z 33003MPS CAVOK 15/08 Q1014 NOSIG,1,0.0,0,9999,0,0,0,
2026-04-23 12:30:00,METAR ZSPD 231230Z 34004MPS CAVOK 14/08 Q1014 NOSIG,1,0.0,0,9999,0,0,0,
2026-04-23 12:00:00,METAR ZSPD 231200Z 34003MPS CAVOK 14/08 Q1013 NOSIG,1,0.0,0,9999,0,0,0,
2026-04-23 11:30:00,METAR ZSPD 231130Z 34004MPS CAVOK 15/07 Q1013 NOSIG,1,0.0,0,9999,0,0,0,
2026-04-23 11:00:00,METAR ZSPD 231100Z 32005MPS CAVOK 16/07 Q1013 NOSIG,1,0.0,0,9999,0,0,0,
2026-04-23 10:30:00,METAR ZSPD 231030Z 34005MPS CAVOK 16/09 Q1012 NOSIG,1,0.0,0,9999,0,0,0,
2026-04-23 10:00:00,METAR ZSPD 231000Z 33005MPS CAVOK 16/08 Q1012 NOSIG,1,0.0,0,9999,0,0,0,
2026-04-23 09:30:00,METAR ZSPD 230930Z 34006MPS CAVOK 16/08 Q1012 NOSIG,1,0.0,0,9999,0,0,0,
2026-04-23 09:00:00,METAR ZSPD 230900Z 34006MPS CAVOK 16/08 Q1012 NOSIG,1,0.0,0,9999,0,0,0,
2026-04-23 08:30:00,METAR ZSPD 230830Z 35006MPS CAVOK 16/08 Q1012 NOSIG,1,0.0,0,9999,0,0,0,
2026-04-23 08:00:00,METAR ZSPD 230800Z 35006MPS CAVOK 16/08 Q1011 NOSIG,1,0.0,0,9999,0,0,0,
2026-04-23 07:30:00,METAR ZSPD 230730Z 36007MPS CAVOK 16/08 Q1011 NOSIG,1,0.0,0,9999,0,0,0,
2026-04-23 07:00:00,METAR ZSPD 230700Z 36007MPS CAVOK 16/07 Q1011 NOSIG,1,0.0,0,9999,0,0,0,
2026-04-23 06:30:00,METAR ZSPD 230630Z 35006MPS CAVOK 16/09 Q1012 NOSIG,1,0.0,0,9999,0,0,0,
2026-04-23 06:00:00,METAR ZSPD 230600Z 36007MPS CAVOK 16/08 Q1012 NOSIG,1,0.0,0,9999,0,0,0,
2026-04-23 05:30:00,METAR ZSPD 230530Z 36006MPS CAVOK 16/07 Q1012 NOSIG,1,0.0,0,9999,0,0,0,
2026-04-23 05:00:00,METAR ZSPD 230500Z 36006MPS CAVOK 16/08 Q1012 NOSIG,1,0.0,0,9999,0,0,0,
2026-04-23 04:30:00,METAR ZSPD 230430Z 36006MPS CAVOK 15/09 Q1012 NOSIG,1,0.0,0,9999,0,0,0,
2026-04-23 04:00:00,METAR ZSPD 230400Z 36006MPS CAVOK 15/08 Q1012 NOSIG,1,0.0,0,9999,0,0,0,
2026-04-23 03:30:00,METAR ZSPD 230330Z 36007MPS 9999 BKN040 15/10 Q1012 NOSIG,0,7.0,0,10000,0,0,0,
2026-04-23 03:00:00,METAR ZSPD 230300Z 01007MPS 9999 BKN040 15/10 Q1012 NOSIG,0,7.0,0,10000,0,0,0,
2026-04-23 02:30:00,METAR ZSPD 230230Z 01006MPS 9999 BKN026 14/10 Q1012 NOSIG,0,6.0,0,10000,0,0,0,
2026-04-23 02:00:00,METAR ZSPD 230200Z 01006MPS 9999 BKN026 14/10 Q1012 NOSIG,0,6.0,0,10000,0,0,0,
2026-04-23 01:30:00,METAR ZSPD 230130Z 01005MPS 9999 BKN026 13/11 Q1012 NOSIG,0,5.0,0,10000,0,0,0,
2026-04-23 01:00:00,METAR ZSPD 230100Z 01006MPS 9999 -RA BKN016 13/11 Q1012 BECMG TL0210 BKN013,0,6.0,0,10000,0,0,0,-RA
2026-04-23 00:30:00,METAR ZSPD 230030Z 36007MPS 9999 -RA BKN016 13/11 Q1012 NOSIG,0,7.0,0,10000,0,0,0,-RA
2026-04-23 00:00:00,METAR ZSPD 230000Z 02007MPS 9999 -RA BKN013 13/11 Q1012 BECMG TL0030 BKN015,0,7.0,0,10000,0,0,0,-RA
2026-04-22 23:30:00,METAR ZSPD 222330Z 03009MPS 9999 -RA BKN013 13/11 Q1011 NOSIG,0,9.0,0,10000,0,0,0,-RA
2026-04-22 23:00:00,METAR ZSPD 222300Z 02008MPS 9999 -RA BKN011 13/13 Q1011 NOSIG,0,8.0,0,10000,0,0,0,-RA
2026-04-22 22:30:00,METAR ZSPD 222230Z 02007MPS 9999 -RA BKN009 13/13 Q1010 NOSIG,0,7.0,0,10000,0,0,0,-RA
2026-04-22 22:00:00,METAR ZSPD 222200Z 01006MPS 9999 -RA BKN009 14/14 Q1010 BECMG TL2250 BKN012,0,6.0,0,10000,0,0,0,-RA
2026-04-22 21:30:00,METAR ZSPD 222130Z 01007MPS 9999 -RA BKN009 13/13 Q1010 NOSIG,0,7.0,0,10000,0,0,0,-RA
2026-04-22 21:00:00,METAR ZSPD 222100Z 01007MPS 9999 -RA BKN009 13/13 Q1010 BECMG TL2230 BKN012,0,7.0,0,10000,0,0,0,-RA
2026-04-22 20:30:00,METAR ZSPD 222030Z 01006MPS 9999 -RA BKN009 13/13 Q1010 NOSIG,0,6.0,0,10000,0,0,0,-RA
2026-04-22 20:00:00,METAR ZSPD 222000Z 36006MPS 9999 -RA BKN012 13/13 Q1010 NOSIG,0,6.0,0,10000,0,0,0,-RA
2026-04-22 19:30:00,METAR ZSPD 221930Z 35006MPS 9999 -RA BKN012 13/13 Q1010 NOSIG,0,6.0,0,10000,0,0,0,-RA
2026-04-22 19:00:00,METAR ZSPD 221900Z 35005MPS 9999 -RA BKN012 13/13 Q1010 BECMG TL1950 BKN009,0,5.0,0,10000,0,0,0,-RA
2026-04-22 18:30:00,METAR ZSPD 221830Z 34006MPS 9999 -RA BKN012 13/13 Q1009 NOSIG,0,6.0,0,10000,0,0,0,-RA
2026-04-22 18:00:00,METAR ZSPD 221800Z 33005MPS 9999 -RA BKN012 13/13 Q1009 NOSIG,0,5.0,0,10000,0,0,0,-RA
2026-04-22 17:30:00,METAR ZSPD 221730Z 35005MPS 9999 -RA BKN008 13/13 Q1009 NOSIG,0,5.0,0,10000,0,0,0,-RA
2026-04-22 17:00:00,METAR ZSPD 221700Z 35007MPS 9999 -RA BKN008 13/13 Q1009 NOSIG,0,7.0,0,10000,0,0,0,-RA
2026-04-22 16:30:00,METAR ZSPD 221630Z 36006MPS 9999 -RA BKN008 14/14 Q1010 NOSIG,0,6.0,0,10000,0,0,0,-RA
2026-04-22 16:00:00,METAR ZSPD 221600Z 36007MPS 9999 -RA BKN011 14/14 Q1009 BECMG TL1630 BKN008,0,7.0,0,10000,0,0,0,-RA
2026-04-22 15:30:00,METAR ZSPD 221530Z 01008MPS 8000 -RA BKN011 14/14 Q1009 NOSIG,0,8.0,0,8000,0,0,0,-RA
2026-04-22 15:00:00,METAR ZSPD 221500Z 36007MPS 7000 -RA BKN008 14/14 Q1010 BECMG TL1550 BKN010,0,7.0,0,7000,0,0,0,-RA
2026-04-22 14:30:00,METAR ZSPD 221430Z 01007MPS 9999 -RA BKN008 14/14 Q1009 NOSIG,0,7.0,0,10000,0,0,0,-RA
2026-04-22 14:00:00,METAR ZSPD 221400Z 01006MPS 8000 -RA BKN006 15/15 Q1009 NOSIG,0,6.0,0,8000,0,0,0,-RA
2026-04-22 13:30:00,METAR ZSPD 221330Z 36006MPS 6000 -RA BKN006 15/15 Q1009 NOSIG,0,6.0,0,6000,0,0,0,-RA
2026-04-22 13:00:00,METAR ZSPD 221300Z 35005MPS 8000 -RA BKN006 15/15 Q1009 NOSIG,0,5.0,0,8000,0,0,0,-RA
2026-04-22 12:30:00,METAR ZSPD 221230Z 34005MPS 9999 -RA BKN006 15/15 Q1008 NOSIG,0,5.0,0,10000,0,0,0,-RA
2026-04-22 12:00:00,METAR ZSPD 221200Z 34005MPS 9999 -RA BKN006 15/15 Q1008 BECMG TL1340 BKN010,0,5.0,0,10000,0,0,0,-RA
2026-04-22 11:30:00,METAR ZSPD 221130Z 33005MPS 9999 -RA BKN006 15/15 Q1008 NOSIG,0,5.0,0,10000,0,0,0,-RA
2026-04-22 11:00:00,METAR ZSPD 221100Z 36005MPS 9999 -RA BKN006 15/15 Q1007 NOSIG,0,5.0,0,10000,0,0,0,-RA
2026-04-22 10:30:00,METAR ZSPD 221030Z 35006MPS 8000 -RA BKN006 15/15 Q1007 NOSIG,0,6.0,0,8000,0,0,0,-RA
2026-04-22 10:00:00,METAR ZSPD 221000Z 35006MPS 9999 -RA BKN006 16/16 Q1007 NOSIG,0,6.0,0,10000,0,0,0,-RA
2026-04-22 09:30:00,METAR ZSPD 220930Z 36006MPS 9999 -RA BKN006 16/16 Q1006 NOSIG,0,6.0,0,10000,0,0,0,-RA
2026-04-22 09:00:00,METAR ZSPD 220900Z 36006MPS 9999 -RA BKN006 16/16 Q1006 NOSIG,0,6.0,0,10000,0,0,0,-RA
2026-04-22 08:30:00,METAR ZSPD 220830Z 35006MPS 9999 -RA BKN006 17/17 Q1005 NOSIG,0,6.0,0,10000,0,0,0,-RA
2026-04-22 08:00:00,METAR ZSPD 220800Z 33005MPS 9999 -RA BKN006 18/18 Q1005 NOSIG,0,5.0,0,10000,0,0,0,-RA
2026-04-22 07:30:00,METAR ZSPD 220730Z 33004MPS 9999 -RA BKN006 18/18 Q1005 NOSIG,0,4.0,0,10000,0,0,0,-RA
2026-04-22 07:00:00,METAR ZSPD 220700Z 34003MPS 9999 -RA BKN006 18/18 Q1005 NOSIG,0,3.0,0,10000,0,0,0,-RA
2026-04-22 06:30:00,METAR ZSPD 220630Z 35003MPS 310V010 6000 -RA BKN005 18/18 Q1005 NOSIG,0,3.0,0,6000,0,0,0,-RA
2026-04-22 06:00:00,METAR ZSPD 220600Z 34003MPS 6000 -RA BKN004 18/18 Q1005 BECMG TL0630 BKN005,0,3.0,0,6000,0,0,0,-RA
2026-04-22 05:30:00,METAR ZSPD 220530Z 01002MPS 300V080 4500 -RA BR BKN004 17/17 Q1006 NOSIG,0,2.0,0,4500,0,0,1,"-RA,BR"
2026-04-22 05:00:00,METAR ZSPD 220500Z 08002MPS 050V140 3500 -RA BR BKN003 17/17 Q1006 BECMG TL0630 BKN005,0,2.0,0,3500,0,0,1,"-RA,BR"
2026-04-22 04:30:00,METAR ZSPD 220430Z 12003MPS 050V210 5000 -RA BR BKN003 17/17 Q1006 NOSIG,0,3.0,0,5000,0,0,1,"-RA,BR"
2026-04-22 04:00:00,METAR ZSPD 220400Z 11004MPS 6000 BKN004 17/17 Q1006 NOSIG,0,4.0,0,6000,0,0,0,
2026-04-22 03:30:00,METAR ZSPD 220330Z 11005MPS 4000 BR BKN004 17/17 Q1006 NOSIG,0,5.0,0,4000,0,0,1,BR
2026-04-22 03:00:00,METAR ZSPD 220300Z 10005MPS 9999 BKN004 17/17 Q1006 NOSIG,0,5.0,0,10000,0,0,0,
2026-04-22 02:30:00,METAR ZSPD 220230Z 10004MPS 9999 -SHRA BKN004 17/17 Q1006 NOSIG,0,4.0,0,10000,0,0,0,RA
2026-04-22 02:00:00,METAR ZSPD 220200Z 12003MPS 090V230 9999 -SHRA BKN004 17/17 Q1007 BECMG TL0330 BKN005,0,3.0,0,10000,0,0,0,RA
2026-04-22 01:30:00,METAR ZSPD 220130Z 12003MPS 090V200 9999 -SHRA BKN004 17/17 Q1007 NOSIG,0,3.0,0,10000,0,0,0,RA
2026-04-22 01:00:00,METAR ZSPD 220100Z 12003MPS 9999 -SHRA BKN005 16/16 Q1007 BECMG TL0130 BKN004,0,3.0,0,10000,0,0,0,RA
2026-04-22 00:30:00,METAR ZSPD 220030Z 12003MPS 8000 -SHRA BKN005 16/16 Q1007 NOSIG,0,3.0,0,8000,0,0,0,RA
2026-04-22 00:00:00,METAR ZSPD 220000Z 12004MPS 090V180 8000 -SHRA BKN005 16/16 Q1007 BECMG TL0140 BKN004,0,4.0,0,8000,0,0,0,RA
2026-04-21 23:30:00,METAR ZSPD 212330Z 13004MPS 6000 -SHRA BKN005 16/16 Q1007 NOSIG,0,4.0,0,6000,0,0,0,RA
2026-04-21 23:00:00,METAR ZSPD 212300Z 11003MPS 4000 -SHRA BKN005 16/16 Q1007 NOSIG,0,3.0,0,4000,0,0,0,RA
2026-04-21 22:30:00,METAR ZSPD 212230Z 10001MPS 4000 -SHRA BKN005 16/16 Q1008 RESHRA NOSIG,0,1.0,0,4000,0,0,0,RA
2026-04-21 22:22:00,SPECI ZSPD 212222Z VRB01MPS 4000 SHRA BKN005 16/16 Q1008 NOSIG,0,1.0,0,4000,0,0,0,"RA,SH"
2026-04-21 22:00:00,METAR ZSPD 212200Z VRB01MPS 4000 -SHRA BKN005 15/15 Q1008 BECMG TL2310 SHRA,0,1.0,0,4000,0,0,0,"RA,SH"
2026-04-21 21:30:00,METAR ZSPD 212130Z 14003MPS 6000 -SHRA BKN005 15/15 Q1007 NOSIG,0,3.0,0,6000,0,0,0,RA
2026-04-21 21:00:00,METAR ZSPD 212100Z 15004MPS 120V180 8000 -SHRA BKN005 15/15 Q1007 NOSIG,0,4.0,0,8000,0,0,0,RA
2026-04-21 20:30:00,METAR ZSPD 212030Z 14005MPS 8000 -SHRA BKN005 15/15 Q1007 NOSIG,0,5.0,0,8000,0,0,0,RA
2026-04-21 20:00:00,METAR ZSPD 212000Z 14004MPS 8000 -SHRA BKN005 15/15 Q1008 NOSIG,0,4.0,0,8000,0,0,0,RA
2026-04-21 19:30:00,METAR ZSPD 211930Z 15004MPS 8000 -SHRA BKN005 15/15 Q1009 NOSIG,0,4.0,0,8000,0,0,0,RA
2026-04-21 19:00:00,METAR ZSPD 211900Z 15004MPS 6000 -SHRA BKN005 15/15 Q1009 RESHRA NOSIG,0,4.0,0,6000,0,0,0,RA
2026-04-21 18:30:00,METAR ZSPD 211830Z 15004MPS 5000 SHRA BKN005 15/15 Q1009 NOSIG,0,4.0,0,5000,0,0,0,"RA,SH"
2026-04-21 18:00:00,METAR ZSPD 211800Z 15004MPS 5000 SHRA BKN006 14/14 Q1010 BECMG TL1830 -SHRA,0,4.0,0,5000,0,0,0,"RA,SH"
2026-04-21 17:30:00,METAR ZSPD 211730Z 14005MPS 5000 -SHRA BKN008 14/14 Q1010 NOSIG,0,5.0,0,5000,0,0,0,RA
2026-04-21 17:00:00,METAR ZSPD 211700Z 14004MPS 6000 -SHRA SCT008 14/14 Q1011 BECMG TL1730 BKN008,0,4.0,0,6000,0,0,0,RA
2026-04-21 16:30:00,METAR ZSPD 211630Z 15004MPS 7000 -SHRA BKN030 14/14 Q1012 NOSIG,0,4.0,0,7000,0,0,0,RA
2026-04-21 16:00:00,METAR ZSPD 211600Z 14005MPS 9999 -SHRA BKN033 14/14 Q1012 NOSIG,0,5.0,0,10000,0,0,0,RA
2026-04-21 15:30:00,METAR ZSPD 211530Z 12004MPS 9999 -SHRA NSC 14/12 Q1012 NOSIG,0,4.0,0,10000,0,0,0,RA
2026-04-21 15:00:00,METAR ZSPD 211500Z 14004MPS 120V180 9999 -SHRA NSC 14/11 Q1013 NOSIG,0,4.0,0,10000,0,0,0,RA
2026-04-21 14:30:00,METAR ZSPD 211430Z 15004MPS 110V170 9999 -SHRA NSC 15/11 Q1013 NOSIG,0,4.0,0,10000,0,0,0,RA
2026-04-21 14:00:00,METAR ZSPD 211400Z 14005MPS CAVOK 15/10 Q1013 NOSIG,1,0.0,0,9999,0,0,0,
2026-04-21 13:30:00,METAR ZSPD 211330Z 15005MPS CAVOK 15/10 Q1014 NOSIG,1,0.0,0,9999,0,0,0,
2026-04-21 13:00:00,METAR ZSPD 211300Z 14005MPS CAVOK 15/11 Q1014 NOSIG,1,0.0,0,9999,0,0,0,
2026-04-21 12:30:00,METAR ZSPD 211230Z 13005MPS CAVOK 15/11 Q1014 NOSIG,1,0.0,0,9999,0,0,0,
2026-04-21 12:00:00,METAR ZSPD 211200Z 14006MPS CAVOK 15/11 Q1014 NOSIG,1,0.0,0,9999,0,0,0,
2026-04-21 11:30:00,METAR ZSPD 211130Z 13005MPS CAVOK 15/11 Q1014 NOSIG,1,0.0,0,9999,0,0,0,
2026-04-21 11:00:00,METAR ZSPD 211100Z 14006MPS CAVOK 15/11 Q1014 NOSIG,1,0.0,0,9999,0,0,0,
2026-04-21 10:30:00,METAR ZSPD 211030Z 13006MPS CAVOK 15/10 Q1014 NOSIG,1,0.0,0,9999,0,0,0,
2026-04-21 10:00:00,METAR ZSPD 211000Z 13005MPS CAVOK 15/10 Q1014 NOSIG,1,0.0,0,9999,0,0,0,
2026-04-21 09:30:00,METAR ZSPD 210930Z 13007MPS CAVOK 15/09 Q1014 NOSIG,1,0.0,0,9999,0,0,0,
2026-04-21 09:00:00,METAR ZSPD 210900Z 13006MPS 9999 -SHRA NSC 15/10 Q1015 NOSIG,0,6.0,0,10000,0,0,0,RA
2026-04-21 08:30:00,METAR ZSPD 210830Z 14006MPS 9999 -SHRA NSC 15/10 Q1015 NOSIG,0,6.0,0,10000,0,0,0,RA
2026-04-21 08:00:00,METAR ZSPD 210800Z 15006MPS CAVOK 15/10 Q1015 NOSIG,1,0.0,0,9999,0,0,0,
2026-04-21 07:30:00,METAR ZSPD 210730Z 14006MPS CAVOK 15/09 Q1015 NOSIG,1,0.0,0,9999,0,0,0,
2026-04-21 07:00:00,METAR ZSPD 210700Z 13006MPS CAVOK 15/09 Q1016 NOSIG,1,0.0,0,9999,0,0,0,
2026-04-21 06:30:00,METAR ZSPD 210630Z 11007MPS 090V150 CAVOK 16/09 Q1016 NOSIG,1,0.0,0,9999,0,0,0,
2026-04-21 06:00:00,METAR ZSPD 210600Z 11006MPS 090V150 CAVOK 16/09 Q1017 NOSIG,1,0.0,0,9999,0,0,0,
2026-04-21 05:30:00,METAR ZSPD 210530Z 11006MPS CAVOK 15/08 Q1017 NOSIG,1,0.0,0,9999,0,0,0,
2026-04-21 05:00:00,METAR ZSPD 210500Z 10007MPS CAVOK 15/08 Q1018 NOSIG,1,0.0,0,9999,0,0,0,
2026-04-21 04:30:00,METAR ZSPD 210430Z 10008MPS CAVOK 15/07 Q1018 NOSIG,1,0.0,0,9999,0,0,0,
2026-04-21 04:00:00,METAR ZSPD 210400Z 10007MPS CAVOK 15/08 Q1018 NOSIG,1,0.0,0,9999,0,0,0,
2026-04-21 03:30:00,METAR ZSPD 210330Z 10007MPS CAVOK 15/08 Q1019 NOSIG,1,0.0,0,9999,0,0,0,
2026-04-21 03:00:00,METAR ZSPD 210300Z 09007MPS CAVOK 15/08 Q1019 NOSIG,1,0.0,0,9999,0,0,0,
2026-04-21 02:30:00,METAR ZSPD 210230Z 09007MPS 050V110 CAVOK 16/08 Q1020 NOSIG,1,0.0,0,9999,0,0,0,
2026-04-21 02:00:00,METAR ZSPD 210200Z 10007MPS CAVOK 15/08 Q1020 NOSIG,1,0.0,0,9999,0,0,0,
2026-04-21 01:30:00,METAR ZSPD 210130Z 09006MPS CAVOK 15/08 Q1020 NOSIG,1,0.0,0,9999,0,0,0,
2026-04-21 01:00:00,METAR ZSPD 210100Z 08006MPS CAVOK 15/08 Q1020 NOSIG,1,0.0,0,9999,0,0,0,
2026-04-21 00:30:00,METAR ZSPD 210030Z 08005MPS CAVOK 15/09 Q1020 NOSIG,1,0.0,0,9999,0,0,0,
2026-04-21 00:00:00,METAR ZSPD 210000Z 07005MPS 010V110 CAVOK 14/09 Q1020 NOSIG,1,0.0,0,9999,0,0,0,
2026-04-20 23:30:00,METAR ZSPD 202330Z 08004MPS 010V120 CAVOK 14/09 Q1020 NOSIG,1,0.0,0,9999,0,0,0,
2026-04-20 23:00:00,METAR ZSPD 202300Z 09004MPS 030V120 CAVOK 14/09 Q1020 NOSIG,1,0.0,0,9999,0,0,0,
2026-04-20 22:30:00,METAR ZSPD 202230Z 10004MPS CAVOK 13/09 Q1020 NOSIG,1,0.0,0,9999,0,0,0,
2026-04-20 22:00:00,METAR ZSPD 202200Z 07004MPS CAVOK 13/08 Q1020 NOSIG,1,0.0,0,9999,0,0,0,
2026-04-20 21:30:00,METAR ZSPD 202130Z 06004MPS CAVOK 13/08 Q1019 NOSIG,1,0.0,0,9999,0,0,0,
2026-04-20 21:00:00,METAR ZSPD 202100Z 10004MPS 9999 FEW020 13/08 Q1019 NOSIG,0,4.0,0,10000,0,0,0,
2026-04-20 20:30:00,METAR ZSPD 202030Z 07003MPS 9999 FEW020 13/08 Q1019 NOSIG,0,3.0,0,10000,0,0,0,
2026-04-20 20:00:00,METAR ZSPD 202000Z 07004MPS 040V100 9999 FEW020 13/08 Q1019 NOSIG,0,4.0,0,10000,0,0,0,
2026-04-20 19:30:00,METAR ZSPD 201930Z 06004MPS 9999 FEW020 13/08 Q1019 NOSIG,0,4.0,0,10000,0,0,0,
2026-04-20 19:00:00,METAR ZSPD 201900Z 06004MPS 030V090 9999 FEW020 13/08 Q1019 NOSIG,0,4.0,0,10000,0,0,0,
2026-04-20 18:30:00,METAR ZSPD 201830Z 05005MPS 9999 FEW020 13/08 Q1019 NOSIG,0,5.0,0,10000,0,0,0,
2026-04-20 18:00:00,METAR ZSPD 201800Z 06004MPS 9999 FEW020 13/09 Q1019 NOSIG,0,4.0,0,10000,0,0,0,
2026-04-20 17:30:00,METAR ZSPD 201730Z 06005MPS 9999 SCT020 13/09 Q1019 NOSIG,0,5.0,0,10000,0,0,0,
2026-04-20 17:00:00,METAR ZSPD 201700Z 07004MPS 030V090 9999 SCT020 13/09 Q1020 NOSIG,0,4.0,0,10000,0,0,0,
2026-04-20 16:30:00,METAR ZSPD 201630Z 05005MPS 010V070 9999 FEW016 13/09 Q1020 NOSIG,0,5.0,0,10000,0,0,0,
2026-04-20 16:00:00,METAR ZSPD 201600Z 04005MPS CAVOK 13/10 Q1020 NOSIG,1,0.0,0,9999,0,0,0,
2026-04-20 15:30:00,METAR ZSPD 201530Z 03006MPS 9999 BKN016 14/10 Q1020 NOSIG,0,6.0,0,10000,0,0,0,
2026-04-20 15:00:00,METAR ZSPD 201500Z 03006MPS 9999 BKN016 14/10 Q1020 NOSIG,0,6.0,0,10000,0,0,0,
2026-04-20 14:30:00,METAR ZSPD 201430Z 03007MPS 9999 SCT016 14/10 Q1020 NOSIG,0,7.0,0,10000,0,0,0,
2026-04-20 14:00:00,METAR ZSPD 201400Z 03007MPS 9999 FEW016 14/10 Q1020 NOSIG,0,7.0,0,10000,0,0,0,
2026-04-20 13:30:00,METAR ZSPD 201330Z 03007MPS CAVOK 14/09 Q1020 NOSIG,1,0.0,0,9999,0,0,0,
2026-04-20 13:00:00,METAR ZSPD 201300Z 03006MPS CAVOK 14/09 Q1019 NOSIG,1,0.0,0,9999,0,0,0,
2026-04-20 12:30:00,METAR ZSPD 201230Z 02006MPS CAVOK 14/10 Q1019 NOSIG,1,0.0,0,9999,0,0,0,
2026-04-20 12:00:00,METAR ZSPD 201200Z 02007MPS 9999 FEW016 14/11 Q1019 NOSIG,0,7.0,0,10000,0,0,0,
2026-04-20 11:30:00,METAR ZSPD 201130Z 02007MPS 9999 FEW016 14/10 Q1019 NOSIG,0,7.0,0,10000,0,0,0,
2026-04-20 11:00:00,METAR ZSPD 201100Z 03008MPS 9999 BKN016 14/10 Q1018 NOSIG,0,8.0,0,10000,0,0,0,
2026-04-20 10:30:00,METAR ZSPD 201030Z 02008MPS 9999 BKN016 14/10 Q1018 NOSIG,0,8.0,0,10000,0,0,0,
2026-04-20 10:00:00,METAR ZSPD 201000Z 36008MPS 9999 BKN015 14/11 Q1018 NOSIG,0,8.0,0,10000,0,0,0,
2026-04-20 09:30:00,METAR ZSPD 200930Z 36008MPS 9999 BKN015 14/11 Q1017 NOSIG,0,8.0,0,10000,0,0,0,
2026-04-20 09:00:00,METAR ZSPD 200900Z 01008MPS 8000 BKN013 14/12 Q1017 BECMG TL0940 BKN015,0,8.0,0,8000,0,0,0,
2026-04-20 08:30:00,METAR ZSPD 200830Z 01009MPS 7000 BKN013 15/12 Q1017 NOSIG,0,9.0,0,7000,0,0,0,
2026-04-20 08:00:00,METAR ZSPD 200800Z 36010MPS 9999 BKN013 16/13 Q1016 NOSIG,0,10.0,0,10000,0,0,0,
2026-04-20 07:30:00,METAR ZSPD 200730Z 36010MPS 9999 BKN013 17/14 Q1016 NOSIG,0,10.0,0,10000,0,0,0,
2026-04-20 07:17:00,SPECI ZSPD 200717Z 36010MPS 9999 BKN016 17/14 Q1016 NOSIG,0,10.0,0,10000,0,0,0,
2026-04-20 07:00:00,METAR ZSPD 200700Z 36005MPS 320V020 9999 BKN016 19/15 Q1015 NOSIG,0,5.0,0,10000,0,0,0,
2026-04-20 06:30:00,METAR ZSPD 200630Z 36006MPS 9999 BKN016 19/15 Q1015 NOSIG,0,6.0,0,10000,0,0,0,
2026-04-20 06:00:00,METAR ZSPD 200600Z 02003MPS 350V050 9999 BKN011 19/15 Q1015 BECMG TL0640 BKN015,0,3.0,0,10000,0,0,0,
2026-04-20 05:30:00,METAR ZSPD 200530Z 36005MPS 9999 BKN011 18/15 Q1016 NOSIG,0,5.0,0,10000,0,0,0,
2026-04-20 05:00:00,METAR ZSPD 200500Z 36006MPS 9999 BKN011 17/15 Q1016 NOSIG,0,6.0,0,10000,0,0,0,
2026-04-20 04:30:00,METAR ZSPD 200430Z 36006MPS 9999 BKN011 17/15 Q1016 NOSIG,0,6.0,0,10000,0,0,0,
2026-04-20 04:00:00,METAR ZSPD 200400Z 36006MPS 9999 BKN010 18/15 Q1016 NOSIG,0,6.0,0,10000,0,0,0,
2026-04-20 03:30:00,METAR ZSPD 200330Z 01005MPS 340V050 9999 BKN010 18/16 Q1016 NOSIG,0,5.0,0,10000,0,0,0,
2026-04-20 03:00:00,METAR ZSPD 200300Z 01004MPS 9999 BKN009 18/17 Q1016 BECMG TL0340 BKN010,0,4.0,0,10000,0,0,0,
2026-04-20 02:30:00,METAR ZSPD 200230Z 01004MPS 340V050 9999 BKN009 18/16 Q1016 NOSIG,0,4.0,0,10000,0,0,0,
2026-04-20 02:00:00,METAR ZSPD 200200Z 35003MPS 320V020 9999 BKN007 17/16 Q1016 BECMG TL0340 BKN010,0,3.0,0,10000,0,0,0,
2026-04-20 01:30:00,METAR ZSPD 200130Z 02004MPS 330V070 9999 BKN007 17/16 Q1015 NOSIG,0,4.0,0,10000,0,0,0,
2026-04-20 01:00:00,METAR ZSPD 200100Z 36004MPS 9999 BKN007 17/17 Q1015 BECMG TL0220 BKN010,0,4.0,0,10000,0,0,0,
2026-04-20 00:30:00,METAR ZSPD 200030Z 35003MPS 320V020 8000 BKN007 17/17 Q1014 NOSIG,0,3.0,0,8000,0,0,0,
2026-04-20 00:00:00,METAR ZSPD 200000Z VRB01MPS 6000 BKN007 16/16 Q1014 BECMG TL0050 BKN010,0,1.0,0,6000,0,0,0,
2026-04-19 23:30:00,METAR ZSPD 192330Z 08002MPS 020V160 5000 BR BKN005 16/16 Q1014 NOSIG,0,2.0,0,5000,0,0,1,BR
2026-04-19 23:00:00,METAR ZSPD 192300Z 08002MPS 010V120 5000 BR BKN005 16/16 Q1013 BECMG TL0040 BKN010,0,2.0,0,5000,0,0,1,BR
2026-04-19 22:30:00,METAR ZSPD 192230Z VRB01MPS 5000 BR BKN005 16/16 Q1013 NOSIG,0,1.0,0,5000,0,0,1,BR
2026-04-19 22:00:00,METAR ZSPD 192200Z 15002MPS 120V200 5000 BR BKN005 16/16 Q1013 NOSIG,0,2.0,0,5000,0,0,1,BR
2026-04-19 21:30:00,METAR ZSPD 192130Z 19002MPS 140V230 8000 BKN005 16/16 Q1012 NOSIG,0,2.0,0,8000,0,0,0,
2026-04-19 21:00:00,METAR ZSPD 192100Z 10002MPS 060V150 9999 BKN005 16/16 Q1012 NOSIG,0,2.0,0,10000,0,0,0,
2026-04-19 20:30:00,METAR ZSPD 192030Z 17002MPS 150V210 9999 BKN005 16/16 Q1012 NOSIG,0,2.0,0,10000,0,0,0,
2026-04-19 20:00:00,METAR ZSPD 192000Z VRB01MPS 9999 BKN005 16/16 Q1013 NOSIG,0,1.0,0,10000,0,0,0,
2026-04-19 19:30:00,METAR ZSPD 191930Z VRB01MPS 9999 BKN005 16/16 Q1013 NOSIG,0,1.0,0,10000,0,0,0,
2026-04-19 19:00:00,METAR ZSPD 191900Z VRB01MPS 9999 BKN004 16/16 Q1012 BECMG TL1930 BKN005,0,1.0,0,10000,0,0,0,
2026-04-19 18:30:00,METAR ZSPD 191830Z VRB01MPS 9999 BKN004 16/16 Q1013 NOSIG,0,1.0,0,10000,0,0,0,
2026-04-19 18:00:00,METAR ZSPD 191800Z 13002MPS 9999 BKN004 16/16 Q1013 BECMG TL1930 BKN005,0,2.0,0,10000,0,0,0,
2026-04-19 17:30:00,METAR ZSPD 191730Z 11003MPS 9999 BKN004 16/16 Q1013 NOSIG,0,3.0,0,10000,0,0,0,
2026-04-19 17:00:00,METAR ZSPD 191700Z 06003MPS 360V120 9999 BKN003 16/16 Q1013 NOSIG,0,3.0,0,10000,0,0,0,
2026-04-19 16:30:00,METAR ZSPD 191630Z 08003MPS 360V130 9999 BKN003 16/16 Q1013 NOSIG,0,3.0,0,10000,0,0,0,
2026-04-19 16:00:00,METAR ZSPD 191600Z 08004MPS 040V100 9999 BKN002 16/16 Q1013 NOSIG,0,4.0,0,10000,0,0,0,
2026-04-19 15:30:00,METAR ZSPD 191530Z 04003MPS 320V080 9999 BKN004 16/16 Q1013 NOSIG,0,3.0,0,10000,0,0,0,
2026-04-19 15:00:00,METAR ZSPD 191500Z 04004MPS 360V080 9999 BKN004 16/16 Q1013 NOSIG,0,4.0,0,10000,0,0,0,
2026-04-19 14:30:00,METAR ZSPD 191430Z 04005MPS 9999 BKN006 17/17 Q1013 NOSIG,0,5.0,0,10000,0,0,0,
2026-04-19 14:00:00,METAR ZSPD 191400Z 03004MPS 350V080 9999 BKN008 18/16 Q1013 NOSIG,0,4.0,0,10000,0,0,0,
2026-04-19 13:30:00,METAR ZSPD 191330Z 05004MPS 010V080 9999 BKN008 17/17 Q1013 NOSIG,0,4.0,0,10000,0,0,0,
2026-04-19 13:00:00,METAR ZSPD 191300Z 03004MPS 350V060 9999 BKN010 17/17 Q1013 BECMG TL1330 BKN009,0,4.0,0,10000,0,0,0,
2026-04-19 12:30:00,METAR ZSPD 191230Z 33003MPS 9999 FEW020 17/17 Q1013 NOSIG,0,3.0,0,10000,0,0,0,
2026-04-19 12:00:00,METAR ZSPD 191200Z 34004MPS 9999 BKN020 18/18 Q1013 NOSIG,0,4.0,0,10000,0,0,0,
2026-04-19 11:30:00,METAR ZSPD 191130Z 34004MPS 9999 BKN020 17/17 Q1013 NOSIG,0,4.0,0,10000,0,0,0,
2026-04-19 11:00:00,METAR ZSPD 191100Z 35005MPS 9999 BKN023 18/16 Q1012 BECMG TL1240 BKN013,0,5.0,0,10000,0,0,0,
2026-04-19 10:30:00,METAR ZSPD 191030Z 35005MPS 9999 BKN023 18/16 Q1012 NOSIG,0,5.0,0,10000,0,0,0,
2026-04-19 10:00:00,METAR ZSPD 191000Z 35006MPS 9999 BKN026 18/16 Q1012 NOSIG,0,6.0,0,10000,0,0,0,
2026-04-19 09:30:00,METAR ZSPD 190930Z 36005MPS 9999 FEW015 BKN026 19/16 Q1011 NOSIG,0,5.0,0,10000,0,0,0,
2026-04-19 09:00:00,METAR ZSPD 190900Z 35006MPS 9999 BKN026 19/16 Q1011 NOSIG,0,6.0,0,10000,0,0,0,
2026-04-19 08:30:00,METAR ZSPD 190830Z 35006MPS 9999 BKN026 20/16 Q1011 NOSIG,0,6.0,0,10000,0,0,0,
2026-04-19 08:00:00,METAR ZSPD 190800Z 34006MPS 9999 BKN026 21/16 Q1011 NOSIG,0,6.0,0,10000,0,0,0,
2026-04-19 07:30:00,METAR ZSPD 190730Z 35007MPS 310V010 9999 FEW016 BKN033 20/15 Q1011 NOSIG,0,7.0,0,10000,0,0,0,
2026-04-19 07:00:00,METAR ZSPD 190700Z 35006MPS 9999 FEW016 BKN026 20/16 Q1011 NOSIG,0,6.0,0,10000,0,0,0,
2026-04-19 06:30:00,METAR ZSPD 190630Z 34006MPS 9999 BKN033 21/16 Q1011 NOSIG,0,6.0,0,10000,0,0,0,
2026-04-19 06:00:00,METAR ZSPD 190600Z 34007MPS 9999 FEW015 BKN033 20/16 Q1011 NOSIG,0,7.0,0,10000,0,0,0,
2026-04-19 05:30:00,METAR ZSPD 190530Z 35008MPS 9999 SCT015 BKN033 19/16 Q1011 NOSIG,0,8.0,0,10000,0,0,0,
2026-04-19 05:00:00,METAR ZSPD 190500Z 36009MPS 9999 BKN033 20/16 Q1012 NOSIG,0,9.0,0,10000,0,0,0,
2026-04-19 04:30:00,METAR ZSPD 190430Z 33006MPS 310V010 9999 BKN023 21/15 Q1011 NOSIG,0,6.0,0,10000,0,0,0,
2026-04-19 04:00:00,METAR ZSPD 190400Z 33006MPS 9999 BKN023 21/15 Q1012 NOSIG,0,6.0,0,10000,0,0,0,
2026-04-19 03:30:00,METAR ZSPD 190330Z 32006MPS 9999 BKN023 21/15 Q1012 NOSIG,0,6.0,0,10000,0,0,0,
2026-04-19 03:00:00,METAR ZSPD 190300Z 30006MPS 280V350 9999 BKN020 20/14 Q1013 NOSIG,0,6.0,0,10000,0,0,0,
2026-04-19 02:30:00,METAR ZSPD 190230Z 28006MPS 9999 BKN020 20/14 Q1013 NOSIG,0,6.0,0,10000,0,0,0,
2026-04-19 02:00:00,METAR ZSPD 190200Z 29006MPS 260V320 9999 BKN020 20/14 Q1013 NOSIG,0,6.0,0,10000,0,0,0,
2026-04-19 01:30:00,METAR ZSPD 190130Z 30005MPS 270V340 9999 BKN015 19/14 Q1013 NOSIG,0,5.0,0,10000,0,0,0,
2026-04-19 01:00:00,METAR ZSPD 190100Z 32006MPS 9999 BKN015 18/14 Q1013 NOSIG,0,6.0,0,10000,0,0,0,
2026-04-19 00:30:00,METAR ZSPD 190030Z 31005MPS 290V350 9999 BKN015 17/14 Q1013 NOSIG,0,5.0,0,10000,0,0,0,
2026-04-19 00:00:00,METAR ZSPD 190000Z 30004MPS 270V330 9999 BKN012 17/14 Q1012 BECMG TL0050 BKN015,0,4.0,0,10000,0,0,0,
2026-04-18 23:30:00,METAR ZSPD 182330Z 31005MPS 9999 BKN012 17/14 Q1012 NOSIG,0,5.0,0,10000,0,0,0,
2026-04-18 23:00:00,METAR ZSPD 182300Z 32004MPS 8000 BKN012 16/13 Q1012 BECMG TL0030 BKN015,0,4.0,0,8000,0,0,0,
2026-04-18 22:30:00,METAR ZSPD 182230Z 31003MPS 260V010 8000 BKN012 16/13 Q1012 NOSIG,0,3.0,0,8000,0,0,0,
2026-04-18 22:00:00,METAR ZSPD 182200Z 28004MPS 230V310 8000 BKN015 16/13 Q1012 NOSIG,0,4.0,0,8000,0,0,0,
2026-04-18 21:30:00,METAR ZSPD 182130Z 28004MPS 240V310 9999 BKN015 15/13 Q1012 NOSIG,0,4.0,0,10000,0,0,0,
2026-04-18 21:00:00,METAR ZSPD 182100Z 28004MPS 230V300 9999 BKN013 15/13 Q1011 BECMG TL2130 BKN015,0,4.0,0,10000,0,0,0,
2026-04-18 20:30:00,METAR ZSPD 182030Z 27004MPS 9999 BKN013 15/13 Q1011 NOSIG,0,4.0,0,10000,0,0,0,
2026-04-18 20:00:00,METAR ZSPD 182000Z 27003MPS 9999 BKN013 15/13 Q1011 BECMG TL2130 BKN015,0,3.0,0,10000,0,0,0,
2026-04-18 19:30:00,METAR ZSPD 181930Z 29003MPS 240V320 9999 BKN010 15/13 Q1012 NOSIG,0,3.0,0,10000,0,0,0,
2026-04-18 19:00:00,METAR ZSPD 181900Z 28003MPS 250V310 9999 BKN010 15/13 Q1012 NOSIG,0,3.0,0,10000,0,0,0,
2026-04-18 18:30:00,METAR ZSPD 181830Z 29004MPS 9999 BKN010 15/13 Q1012 NOSIG,0,4.0,0,10000,0,0,0,
2026-04-18 18:00:00,METAR ZSPD 181800Z 32004MPS 300V360 9999 BKN010 14/13 Q1012 NOSIG,0,4.0,0,10000,0,0,0,
2026-04-18 17:30:00,METAR ZSPD 181730Z 29003MPS 9999 BKN010 14/12 Q1012 NOSIG,0,3.0,0,10000,0,0,0,
2026-04-18 17:00:00,METAR ZSPD 181700Z 30004MPS 9999 BKN010 15/12 Q1013 NOSIG,0,4.0,0,10000,0,0,0,
2026-04-18 16:30:00,METAR ZSPD 181630Z 32003MPS 9999 BKN010 14/12 Q1013 NOSIG,0,3.0,0,10000,0,0,0,
2026-04-18 16:00:00,METAR ZSPD 181600Z 34003MPS 9999 SCT013 14/11 Q1013 BECMG TL1640 BKN013,0,3.0,0,10000,0,0,0,
2026-04-18 15:00:00,METAR ZSPD 181500Z 34004MPS CAVOK 14/11 Q1013 BECMG TL1650 BKN012,1,0.0,0,9999,0,0,0,
2026-04-18 14:30:00,METAR ZSPD 181430Z 34003MPS CAVOK 14/11 Q1014 NOSIG,1,0.0,0,9999,0,0,0,
2026-04-18 14:00:00,METAR ZSPD 181400Z 34004MPS CAVOK 14/11 Q1014 NOSIG,1,0.0,0,9999,0,0,0,
2026-04-18 13:30:00,METAR ZSPD 181330Z 34004MPS CAVOK 14/11 Q1014 NOSIG,1,0.0,0,9999,0,0,0,
2026-04-18 13:00:00,METAR ZSPD 181300Z 34004MPS CAVOK 15/12 Q1014 NOSIG,1,0.0,0,9999,0,0,0,
2026-04-18 12:30:00,METAR ZSPD 181230Z 35004MPS CAVOK 15/12 Q1014 NOSIG,1,0.0,0,9999,0,0,0,
2026-04-18 12:00:00,METAR ZSPD 181200Z 36005MPS CAVOK 15/12 Q1014 NOSIG,1,0.0,0,9999,0,0,0,
2026-04-18 11:30:00,METAR ZSPD 181130Z 02006MPS CAVOK 16/13 Q1013 NOSIG,1,0.0,0,9999,0,0,0,
2026-04-18 11:00:00,METAR ZSPD 181100Z 02006MPS CAVOK 16/12 Q1013 NOSIG,1,0.0,0,9999,0,0,0,
2026-04-18 10:30:00,METAR ZSPD 181030Z 03006MPS CAVOK 16/13 Q1013 NOSIG,1,0.0,0,9999,0,0,0,
2026-04-18 10:00:00,METAR ZSPD 181000Z 03006MPS CAVOK 17/13 Q1013 NOSIG,1,0.0,0,9999,0,0,0,
2026-04-18 09:30:00,METAR ZSPD 180930Z 03006MPS CAVOK 17/13 Q1013 NOSIG,1,0.0,0,9999,0,0,0,
2026-04-18 09:00:00,METAR ZSPD 180900Z 04007MPS CAVOK 18/13 Q1013 NOSIG,1,0.0,0,9999,0,0,0,
2026-04-18 08:30:00,METAR ZSPD 180830Z 04007MPS CAVOK 18/14 Q1013 NOSIG,1,0.0,0,9999,0,0,0,
2026-04-18 08:00:00,METAR ZSPD 180800Z 06005MPS CAVOK 19/14 Q1012 NOSIG,1,0.0,0,9999,0,0,0,
2026-04-18 07:30:00,METAR ZSPD 180730Z 05005MPS 010V090 CAVOK 20/14 Q1013 NOSIG,1,0.0,0,9999,0,0,0,
2026-04-18 07:00:00,METAR ZSPD 180700Z 04004MPS 360V080 CAVOK 20/13 Q1013 NOSIG,1,0.0,0,9999,0,0,0,
2026-04-18 06:30:00,METAR ZSPD 180630Z 04005MPS 010V080 CAVOK 20/13 Q1013 NOSIG,1,0.0,0,9999,0,0,0,
2026-04-18 06:00:00,METAR ZSPD 180600Z 36005MPS 330V030 CAVOK 21/12 Q1013 NOSIG,1,0.0,0,9999,0,0,0,
2026-04-18 05:30:00,METAR ZSPD 180530Z 01006MPS 330V030 9999 FEW020 20/12 Q1013 NOSIG,0,6.0,0,10000,0,0,0,
2026-04-18 05:00:00,METAR ZSPD 180500Z 35005MPS 310V050 9999 SCT020 20/13 Q1013 NOSIG,0,5.0,0,10000,0,0,0,
2026-04-18 04:30:00,METAR ZSPD 180430Z 01005MPS 320V050 9999 SCT020 20/13 Q1014 NOSIG,0,5.0,0,10000,0,0,0,
2026-04-18 04:00:00,METAR ZSPD 180400Z 01005MPS 330V040 9999 SCT020 19/14 Q1014 NOSIG,0,5.0,0,10000,0,0,0,
2026-04-18 03:30:00,METAR ZSPD 180330Z 34005MPS 310V040 9999 BKN016 19/14 Q1015 NOSIG,0,5.0,0,10000,0,0,0,
2026-04-18 03:00:00,METAR ZSPD 180300Z 36003MPS 330V030 9999 BKN016 18/14 Q1015 NOSIG,0,3.0,0,10000,0,0,0,
2026-04-18 02:30:00,METAR ZSPD 180230Z 35004MPS 310V010 9999 BKN013 17/13 Q1015 NOSIG,0,4.0,0,10000,0,0,0,
2026-04-18 02:00:00,METAR ZSPD 180200Z 36005MPS 9999 BKN011 16/14 Q1015 BECMG TL0300 BKN015,0,5.0,0,10000,0,0,0,
2026-04-18 01:30:00,METAR ZSPD 180130Z 02005MPS 9999 BKN011 15/13 Q1015 NOSIG,0,5.0,0,10000,0,0,0,
2026-04-18 01:00:00,METAR ZSPD 180100Z 04006MPS 9999 BKN011 15/13 Q1014 BECMG TL0230 BKN015,0,6.0,0,10000,0,0,0,
2026-04-18 00:30:00,METAR ZSPD 180030Z 03005MPS 9999 BKN011 15/13 Q1015 NOSIG,0,5.0,0,10000,0,0,0,
2026-04-18 00:00:00,METAR ZSPD 180000Z 36004MPS 9999 BKN011 15/14 Q1015 BECMG TL0130 BKN015,0,4.0,0,10000,0,0,0,
2026-04-17 23:30:00,METAR ZSPD 172330Z 01004MPS 9999 BKN011 15/14 Q1015 NOSIG,0,4.0,0,10000,0,0,0,
2026-04-17 23:00:00,METAR ZSPD 172300Z 03004MPS 9999 BKN011 15/14 Q1014 NOSIG,0,4.0,0,10000,0,0,0,
2026-04-17 22:30:00,METAR ZSPD 172230Z 04004MPS 9999 BKN010 14/14 Q1014 NOSIG,0,4.0,0,10000,0,0,0,
2026-04-17 22:00:00,METAR ZSPD 172200Z 03004MPS 9999 BKN010 15/15 Q1014 BECMG TL2250 BKN008,0,4.0,0,10000,0,0,0,
2026-04-17 21:30:00,METAR ZSPD 172130Z 36003MPS 9999 BKN010 15/15 Q1014 NOSIG,0,3.0,0,10000,0,0,0,
2026-04-17 21:00:00,METAR ZSPD 172100Z 36004MPS 9999 BKN009 14/14 Q1014 BECMG TL2150 BKN010,0,4.0,0,10000,0,0,0,
2026-04-17 20:30:00,METAR ZSPD 172030Z 01003MPS 9999 BKN009 15/14 Q1014 NOSIG,0,3.0,0,10000,0,0,0,
2026-04-17 20:00:00,METAR ZSPD 172000Z 01004MPS 9999 BKN009 14/14 Q1013 BECMG TL2130 BKN010,0,4.0,0,10000,0,0,0,
2026-04-17 19:30:00,METAR ZSPD 171930Z 04004MPS 9999 BKN008 14/14 Q1013 NOSIG,0,4.0,0,10000,0,0,0,
2026-04-17 19:00:00,METAR ZSPD 171900Z 04005MPS 9999 BKN008 15/15 Q1013 NOSIG,0,5.0,0,10000,0,0,0,
2026-04-17 18:30:00,METAR ZSPD 171830Z 03004MPS 9999 BKN008 15/15 Q1013 NOSIG,0,4.0,0,10000,0,0,0,
2026-04-17 18:00:00,METAR ZSPD 171800Z 02005MPS 9999 BKN010 15/14 Q1013 BECMG TL1830 BKN008,0,5.0,0,10000,0,0,0,
2026-04-17 17:30:00,METAR ZSPD 171730Z 02005MPS 9999 BKN010 15/14 Q1014 NOSIG,0,5.0,0,10000,0,0,0,
2026-04-17 17:00:00,METAR ZSPD 171700Z 03003MPS 010V070 9999 BKN008 15/14 Q1015 BECMG TL1730 BKN011,0,3.0,0,10000,0,0,0,
2026-04-17 16:30:00,METAR ZSPD 171630Z 04004MPS 9999 BKN008 16/15 Q1014 NOSIG,0,4.0,0,10000,0,0,0,
2026-04-17 16:00:00,METAR ZSPD 171600Z 02004MPS 9999 BKN008 15/15 Q1015 NOSIG,0,4.0,0,10000,0,0,0,
2026-04-17 15:30:00,METAR ZSPD 171530Z 04004MPS 9999 BKN008 16/16 Q1015 NOSIG,0,4.0,0,10000,0,0,0,
2026-04-17 15:00:00,METAR ZSPD 171500Z 03004MPS 010V070 9999 BKN010 16/15 Q1015 BECMG TL1530 BKN008,0,4.0,0,10000,0,0,0,
2026-04-17 14:30:00,METAR ZSPD 171430Z 04004MPS 010V070 9999 SCT010 16/14 Q1015 NOSIG,0,4.0,0,10000,0,0,0,
2026-04-17 14:00:00,METAR ZSPD 171400Z 04004MPS 010V070 9999 SCT010 17/15 Q1015 BECMG TL1530 BKN010,0,4.0,0,10000,0,0,0,
2026-04-17 13:30:00,METAR ZSPD 171330Z 03005MPS 9999 BKN040 17/14 Q1015 NOSIG,0,5.0,0,10000,0,0,0,
2026-04-17 13:00:00,METAR ZSPD 171300Z 04004MPS 010V080 9999 BKN040 17/15 Q1015 NOSIG,0,4.0,0,10000,0,0,0,
2026-04-17 12:30:00,METAR ZSPD 171230Z 04004MPS 9999 BKN040 17/14 Q1015 NOSIG,0,4.0,0,10000,0,0,0,
2026-04-17 12:00:00,METAR ZSPD 171200Z 04004MPS 360V060 9999 BKN040 17/14 Q1014 NOSIG,0,4.0,0,10000,0,0,0,
2026-04-17 11:30:00,METAR ZSPD 171130Z 03004MPS 360V060 9999 BKN023 17/14 Q1014 NOSIG,0,4.0,0,10000,0,0,0,
2026-04-17 11:00:00,METAR ZSPD 171100Z 04004MPS 9999 BKN023 17/14 Q1013 NOSIG,0,4.0,0,10000,0,0,0,
2026-04-17 10:30:00,METAR ZSPD 171030Z 04005MPS 9999 OVC040 17/14 Q1013 NOSIG,0,5.0,0,10000,0,0,0,
2026-04-17 10:00:00,METAR ZSPD 171000Z 04005MPS 9999 BKN023 18/14 Q1013 NOSIG,0,5.0,0,10000,0,0,0,
2026-04-17 09:30:00,METAR ZSPD 170930Z 04005MPS 010V080 9999 BKN023 18/14 Q1013 NOSIG,0,5.0,0,10000,0,0,0,
2026-04-17 09:00:00,METAR ZSPD 170900Z 04005MPS 010V070 9999 BKN026 18/15 Q1012 NOSIG,0,5.0,0,10000,0,0,0,
2026-04-17 08:30:00,METAR ZSPD 170830Z 03005MPS 7000 BKN030 18/15 Q1012 NOSIG,0,5.0,0,7000,0,0,0,
2026-04-17 08:00:00,METAR ZSPD 170800Z 04005MPS 7000 BKN030 19/16 Q1012 NOSIG,0,5.0,0,7000,0,0,0,
2026-04-17 07:30:00,METAR ZSPD 170730Z 01005MPS 340V040 7000 BKN030 19/15 Q1012 NOSIG,0,5.0,0,7000,0,0,0,
2026-04-17 07:00:00,METAR ZSPD 170700Z 01005MPS 340V050 7000 OVC040 19/16 Q1012 NOSIG,0,5.0,0,7000,0,0,0,
2026-04-17 06:30:00,METAR ZSPD 170630Z 36007MPS 8000 BKN033 20/15 Q1012 NOSIG,0,7.0,0,8000,0,0,0,
2026-04-17 06:00:00,METAR ZSPD 170600Z 01005MPS 8000 BKN023 20/16 Q1012 NOSIG,0,5.0,0,8000,0,0,0,
2026-04-17 05:30:00,METAR ZSPD 170530Z 01005MPS 8000 BKN023 19/15 Q1013 NOSIG,0,5.0,0,8000,0,0,0,
2026-04-17 05:00:00,METAR ZSPD 170500Z 35005MPS 330V030 8000 BKN020 19/16 Q1013 NOSIG,0,5.0,0,8000,0,0,0,
2026-04-17 04:30:00,METAR ZSPD 170430Z 32004MPS 290V350 7000 BKN020 20/16 Q1013 NOSIG,0,4.0,0,7000,0,0,0,
2026-04-17 04:00:00,METAR ZSPD 170400Z 32004MPS 7000 BKN016 19/15 Q1013 NOSIG,0,4.0,0,7000,0,0,0,
2026-04-17 03:30:00,METAR ZSPD 170330Z 33004MPS 310V010 7000 BKN015 19/15 Q1013 NOSIG,0,4.0,0,7000,0,0,0,
2026-04-17 03:00:00,METAR ZSPD 170300Z 34004MPS 310V010 7000 BKN015 18/15 Q1014 NOSIG,0,4.0,0,7000,0,0,0,
2026-04-17 02:30:00,METAR ZSPD 170230Z 31003MPS 270V340 7000 BKN015 18/16 Q1014 NOSIG,0,3.0,0,7000,0,0,0,
2026-04-17 02:00:00,METAR ZSPD 170200Z 29004MPS 7000 BKN015 18/15 Q1014 NOSIG,0,4.0,0,7000,0,0,0,
2026-04-17 01:30:00,METAR ZSPD 170130Z 30003MPS 7000 BKN015 18/16 Q1014 NOSIG,0,3.0,0,7000,0,0,0,
2026-04-17 01:00:00,METAR ZSPD 170100Z 33002MPS 290V350 7000 BKN013 18/16 Q1013 BECMG TL0130 BKN015,0,2.0,0,7000,0,0,0,
2026-04-17 00:30:00,METAR ZSPD 170030Z 32003MPS 290V360 7000 BKN012 17/17 Q1013 NOSIG,0,3.0,0,7000,0,0,0,
2026-04-17 00:00:00,METAR ZSPD 170000Z 29003MPS 7000 BKN012 17/17 Q1013 BECMG TL0050 BKN015,0,3.0,0,7000,0,0,0,
2026-04-16 23:30:00,METAR ZSPD 162330Z 29002MPS 230V320 7000 BKN020 17/16 Q1013 NOSIG,0,2.0,0,7000,0,0,0,
2026-04-16 23:00:00,METAR ZSPD 162300Z 28002MPS 240V310 7000 BKN012 17/17 Q1013 BECMG TL2350 BKN015,0,2.0,0,7000,0,0,0,
2026-04-16 22:30:00,METAR ZSPD 162230Z 29002MPS 240V330 4000 BR BKN012 16/16 Q1012 NOSIG,0,2.0,0,4000,0,0,1,BR
2026-04-16 22:00:00,METAR ZSPD 162200Z 26002MPS 4000 BR BKN007 16/16 Q1012 BECMG TL2250 BKN010,0,2.0,0,4000,0,0,1,BR
2026-04-16 21:30:00,METAR ZSPD 162130Z 27003MPS 240V300 6000 BKN007 16/16 Q1012 NOSIG,0,3.0,0,6000,0,0,0,
2026-04-16 21:00:00,METAR ZSPD 162100Z 00000MPS 6000 BKN007 16/16 Q1012 NOSIG,0,0.0,0,6000,0,0,0,
2026-04-16 20:30:00,METAR ZSPD 162030Z 00000MPS 6000 BKN005 16/16 Q1011 NOSIG,0,0.0,0,6000,0,0,0,
2026-04-16 20:00:00,METAR ZSPD 162000Z 09001MPS 6000 BKN005 16/16 Q1011 NOSIG,0,1.0,0,6000,0,0,0,
2026-04-16 19:30:00,METAR ZSPD 161930Z 10002MPS 6000 BKN005 16/16 Q1011 NOSIG,0,2.0,0,6000,0,0,0,
2026-04-16 19:00:00,METAR ZSPD 161900Z 09002MPS 3000 -SHRA BR BKN005 16/16 Q1011 NOSIG,0,2.0,0,3000,0,0,1,"BR,RA"
2026-04-16 18:30:00,METAR ZSPD 161830Z VRB01MPS 8000 -SHRA BKN006 16/16 Q1012 NOSIG,0,1.0,0,8000,0,0,0,RA
2026-04-16 18:00:00,METAR ZSPD 161800Z 11002MPS 9999 BKN008 16/16 Q1012 NOSIG,0,2.0,0,10000,0,0,0,
2026-04-16 17:30:00,METAR ZSPD 161730Z 11003MPS 9999 FEW008 16/16 Q1012 NOSIG,0,3.0,0,10000,0,0,0,
2026-04-16 17:00:00,METAR ZSPD 161700Z VRB01MPS 9999 BKN008 16/16 Q1013 NOSIG,0,1.0,0,10000,0,0,0,
2026-04-16 16:30:00,METAR ZSPD 161630Z 13002MPS 9999 -SHRA BKN008 16/16 Q1013 BECMG TL1710 BKN015,0,2.0,0,10000,0,0,0,RA
2026-04-16 16:00:00,METAR ZSPD 161600Z 14003MPS 9999 -SHRA BKN011 16/16 Q1013 BECMG TL1700 BKN015,0,3.0,0,10000,0,0,0,RA
2026-04-16 15:30:00,METAR ZSPD 161530Z 14004MPS 9999 -SHRA BKN011 16/16 Q1013 BECMG TL1610 BKN015,0,4.0,0,10000,0,0,0,RA
2026-04-16 15:00:00,METAR ZSPD 161500Z 14005MPS 9999 -SHRA BKN011 16/16 Q1013 BECMG TL1600 BKN015,0,5.0,0,10000,0,0,0,RA
2026-04-16 14:30:00,METAR ZSPD 161430Z 12004MPS 9999 BKN007 16/16 Q1013 BECMG TL1510 BKN010,0,4.0,0,10000,0,0,0,
2026-04-16 14:00:00,METAR ZSPD 161400Z 12004MPS 9999 BKN007 16/16 Q1013 BECMG TL1500 BKN010,0,4.0,0,10000,0,0,0,
2026-04-16 13:30:00,METAR ZSPD 161330Z 11005MPS 9999 BKN011 16/16 Q1013 NOSIG,0,5.0,0,10000,0,0,0,
2026-04-16 13:00:00,METAR ZSPD 161300Z 11003MPS 9999 BKN015 16/14 Q1014 NOSIG,0,3.0,0,10000,0,0,0,
2026-04-16 12:30:00,METAR ZSPD 161230Z 10005MPS CAVOK 16/13 Q1013 NOSIG,1,0.0,0,9999,0,0,0,
2026-04-16 12:00:00,METAR ZSPD 161200Z 11004MPS 090V210 9999 FEW026 16/13 Q1013 NOSIG,0,4.0,0,10000,0,0,0,
2026-04-16 11:30:00,METAR ZSPD 161130Z 12005MPS 9999 BKN008 16/16 Q1013 NOSIG,0,5.0,0,10000,0,0,0,
2026-04-16 11:00:00,METAR ZSPD 161100Z 12005MPS 9999 -SHRA BKN008 16/16 Q1012 NOSIG,0,5.0,0,10000,0,0,0,RA
2026-04-16 10:30:00,METAR ZSPD 161030Z 11006MPS 9999 -SHRA FEW010 16/16 Q1012 NOSIG,0,6.0,0,10000,0,0,0,RA
2026-04-16 10:00:00,METAR ZSPD 161000Z 12006MPS 9999 -SHRA FEW010 16/16 Q1012 NOSIG,0,6.0,0,10000,0,0,0,RA
2026-04-16 09:30:00,METAR ZSPD 160930Z 12005MPS 9999 -SHRA FEW015 17/15 Q1013 NOSIG,0,5.0,0,10000,0,0,0,RA
2026-04-16 09:00:00,METAR ZSPD 160900Z 13005MPS CAVOK 17/14 Q1013 NOSIG,1,0.0,0,9999,0,0,0,
2026-04-16 08:30:00,METAR ZSPD 160830Z 12005MPS 9999 -SHRA NSC 17/15 Q1012 NOSIG,0,5.0,0,10000,0,0,0,RA
2026-04-16 08:00:00,METAR ZSPD 160800Z 12005MPS CAVOK 17/14 Q1012 NOSIG,1,0.0,0,9999,0,0,0,
2026-04-16 07:30:00,METAR ZSPD 160730Z 12005MPS CAVOK 17/14 Q1012 NOSIG,1,0.0,0,9999,0,0,0,
2026-04-16 07:00:00,METAR ZSPD 160700Z 11006MPS CAVOK 17/13 Q1012 NOSIG,1,0.0,0,9999,0,0,0,
2026-04-16 06:30:00,METAR ZSPD 160630Z 12005MPS CAVOK 18/12 Q1012 NOSIG,1,0.0,0,9999,0,0,0,
2026-04-16 06:00:00,METAR ZSPD 160600Z 12005MPS CAVOK 18/12 Q1013 NOSIG,1,0.0,0,9999,0,0,0,
2026-04-16 05:30:00,METAR ZSPD 160530Z 11005MPS CAVOK 18/13 Q1013 NOSIG,1,0.0,0,9999,0,0,0,
2026-04-16 05:00:00,METAR ZSPD 160500Z 11005MPS 080V140 CAVOK 19/14 Q1014 NOSIG,1,0.0,0,9999,0,0,0,
2026-04-16 04:30:00,METAR ZSPD 160430Z 10005MPS CAVOK 18/13 Q1014 NOSIG,1,0.0,0,9999,0,0,0,
2026-04-16 04:00:00,METAR ZSPD 160400Z 11005MPS CAVOK 18/13 Q1014 NOSIG,1,0.0,0,9999,0,0,0,
2026-04-16 03:30:00,METAR ZSPD 160330Z 12005MPS 080V150 CAVOK 18/13 Q1015 NOSIG,1,0.0,0,9999,0,0,0,
2026-04-16 03:00:00,METAR ZSPD 160300Z 13006MPS 100V160 CAVOK 18/13 Q1015 NOSIG,1,0.0,0,9999,0,0,0,
2026-04-16 02:30:00,METAR ZSPD 160230Z 11005MPS CAVOK 18/13 Q1015 NOSIG,1,0.0,0,9999,0,0,0,
2026-04-16 02:00:00,METAR ZSPD 160200Z 12005MPS 100V160 CAVOK 19/14 Q1015 NOSIG,1,0.0,0,9999,0,0,0,
2026-04-16 01:30:00,METAR ZSPD 160130Z 12005MPS 080V160 CAVOK 19/14 Q1015 NOSIG,1,0.0,0,9999,0,0,0,
2026-04-16 01:00:00,METAR ZSPD 160100Z 11006MPS CAVOK 18/13 Q1014 NOSIG,1,0.0,0,9999,0,0,0,
2026-04-16 00:30:00,METAR ZSPD 160030Z 13005MPS CAVOK 18/13 Q1014 NOSIG,1,0.0,0,9999,0,0,0,
2026-04-16 00:00:00,METAR ZSPD 160000Z 11005MPS CAVOK 18/13 Q1014 NOSIG,1,0.0,0,9999,0,0,0,
2026-04-15 23:30:00,METAR ZSPD 152330Z 12003MPS 090V150 CAVOK 17/13 Q1014 NOSIG,1,0.0,0,9999,0,0,0,
2026-04-15 23:00:00,METAR ZSPD 152300Z 13003MPS CAVOK 16/13 Q1014 NOSIG,1,0.0,0,9999,0,0,0,
2026-04-15 22:30:00,METAR ZSPD 152230Z 15003MPS CAVOK 15/14 Q1014 NOSIG,1,0.0,0,9999,0,0,0,
2026-04-15 22:00:00,METAR ZSPD 152200Z 13003MPS CAVOK 15/14 Q1014 NOSIG,1,0.0,0,9999,0,0,0,
2026-04-15 21:30:00,METAR ZSPD 152130Z 11003MPS CAVOK 15/13 Q1014 NOSIG,1,0.0,0,9999,0,0,0,
2026-04-15 21:00:00,METAR ZSPD 152100Z 13002MPS 090V160 CAVOK 15/14 Q1014 NOSIG,1,0.0,0,9999,0,0,0,
2026-04-15 20:30:00,METAR ZSPD 152030Z 11003MPS CAVOK 15/14 Q1014 NOSIG,1,0.0,0,9999,0,0,0,
2026-04-15 20:00:00,METAR ZSPD 152000Z 12003MPS 9999 BKN013 15/14 Q1014 BECMG TL2030 SCT013 BKN040,0,3.0,0,10000,0,0,0,
2026-04-15 19:30:00,METAR ZSPD 151930Z 12003MPS 9999 BKN013 15/14 Q1014 NOSIG,0,3.0,0,10000,0,0,0,
2026-04-15 19:00:00,METAR ZSPD 151900Z 13003MPS 9999 BKN009 15/15 Q1014 BECMG TL1930 BKN012,0,3.0,0,10000,0,0,0,
2026-04-15 18:30:00,METAR ZSPD 151830Z 13002MPS 080V160 9999 BKN009 15/15 Q1014 NOSIG,0,2.0,0,10000,0,0,0,
2026-04-15 18:00:00,METAR ZSPD 151800Z 11003MPS 9999 BKN006 15/15 Q1015 NOSIG,0,3.0,0,10000,0,0,0,
2026-04-15 17:30:00,METAR ZSPD 151730Z 13004MPS 100V160 9999 BKN006 15/15 Q1015 NOSIG,0,4.0,0,10000,0,0,0,
2026-04-15 17:00:00,METAR ZSPD 151700Z 12004MPS 9999 BKN007 15/15 Q1014 NOSIG,0,4.0,0,10000,0,0,0,
2026-04-15 16:30:00,METAR ZSPD 151630Z 10004MPS 9999 BKN008 15/14 Q1015 NOSIG,0,4.0,0,10000,0,0,0,
2026-04-15 16:00:00,METAR ZSPD 151600Z 11004MPS 9999 BKN010 15/14 Q1015 BECMG TL1630 BKN008,0,4.0,0,10000,0,0,0,
2026-04-15 15:30:00,METAR ZSPD 151530Z 09005MPS 9999 BKN010 15/14 Q1015 NOSIG,0,5.0,0,10000,0,0,0,
2026-04-15 15:00:00,METAR ZSPD 151500Z 07004MPS 040V100 9999 SCT013 15/13 Q1015 BECMG TL1530 BKN013,0,4.0,0,10000,0,0,0,
2026-04-15 14:30:00,METAR ZSPD 151430Z 08004MPS 030V100 9999 SCT013 16/13 Q1015 NOSIG,0,4.0,0,10000,0,0,0,
2026-04-15 14:00:00,METAR ZSPD 151400Z 06003MPS 020V100 9999 SCT013 16/13 Q1015 BECMG TL1530 BKN013,0,3.0,0,10000,0,0,0,
2026-04-15 13:30:00,METAR ZSPD 151330Z 06003MPS 020V090 CAVOK 16/13 Q1015 NOSIG,1,0.0,0,9999,0,0,0,
2026-04-15 13:00:00,METAR ZSPD 151300Z 05003MPS 020V090 CAVOK 16/13 Q1015 NOSIG,1,0.0,0,9999,0,0,0,
2026-04-15 12:30:00,METAR ZSPD 151230Z 05004MPS 010V090 9999 BKN016 16/13 Q1015 NOSIG,0,4.0,0,10000,0,0,0,
2026-04-15 12:00:00,METAR ZSPD 151200Z 03003MPS 360V060 9999 BKN016 16/13 Q1014 NOSIG,0,3.0,0,10000,0,0,0,
2026-04-15 11:30:00,METAR ZSPD 151130Z 05004MPS 9999 SCT020 16/13 Q1014 NOSIG,0,4.0,0,10000,0,0,0,
2026-04-15 11:00:00,METAR ZSPD 151100Z 07004MPS 040V110 9999 SCT020 16/12 Q1014 NOSIG,0,4.0,0,10000,0,0,0,
2026-04-15 10:30:00,METAR ZSPD 151030Z 07004MPS 020V100 CAVOK 16/12 Q1013 NOSIG,1,0.0,0,9999,0,0,0,
2026-04-15 10:00:00,METAR ZSPD 151000Z 04005MPS CAVOK 16/11 Q1013 NOSIG,1,0.0,0,9999,0,0,0,
2026-04-15 09:30:00,METAR ZSPD 150930Z 04005MPS 010V070 CAVOK 17/11 Q1013 NOSIG,1,0.0,0,9999,0,0,0,
2026-04-15 09:00:00,METAR ZSPD 150900Z 04005MPS 010V070 CAVOK 17/12 Q1013 NOSIG,1,0.0,0,9999,0,0,0,
2026-04-15 08:30:00,METAR ZSPD 150830Z 06005MPS 020V090 CAVOK 17/12 Q1013 NOSIG,1,0.0,0,9999,0,0,0,
2026-04-15 08:00:00,METAR ZSPD 150800Z 06005MPS 010V100 9999 SCT020 18/12 Q1013 NOSIG,0,5.0,0,10000,0,0,0,
2026-04-15 07:30:00,METAR ZSPD 150730Z 05005MPS 010V100 9999 SCT020 18/13 Q1013 NOSIG,0,5.0,0,10000,0,0,0,
2026-04-15 07:00:00,METAR ZSPD 150700Z 05004MPS 020V100 9999 BKN020 18/13 Q1013 NOSIG,0,4.0,0,10000,0,0,0,
2026-04-15 06:30:00,METAR ZSPD 150630Z 05004MPS 020V080 9999 BKN020 18/13 Q1013 NOSIG,0,4.0,0,10000,0,0,0,
2026-04-15 06:00:00,METAR ZSPD 150600Z 08003MPS 020V110 9999 BKN020 18/13 Q1013 NOSIG,0,3.0,0,10000,0,0,0,
2026-04-15 05:30:00,METAR ZSPD 150530Z 05004MPS 020V090 9999 BKN016 18/14 Q1014 NOSIG,0,4.0,0,10000,0,0,0,
2026-04-15 05:00:00,METAR ZSPD 150500Z 06004MPS 360V100 9999 BKN016 18/14 Q1014 NOSIG,0,4.0,0,10000,0,0,0,
2026-04-15 04:30:00,METAR ZSPD 150430Z 05005MPS 010V090 9999 BKN016 18/14 Q1014 NOSIG,0,5.0,0,10000,0,0,0,
2026-04-15 04:00:00,METAR ZSPD 150400Z 04005MPS 360V080 9999 SCT010 BKN040 18/14 Q1014 NOSIG,0,5.0,0,10000,0,0,0,
2026-04-15 03:30:00,METAR ZSPD 150330Z 02004MPS 360V060 9999 SCT010 18/14 Q1014 NOSIG,0,4.0,0,10000,0,0,0,
2026-04-15 03:00:00,METAR ZSPD 150300Z 02004MPS 350V050 9999 BKN010 17/15 Q1015 BECMG TL0350 SCT010 BKN040,0,4.0,0,10000,0,0,0,
2026-04-15 02:30:00,METAR ZSPD 150230Z 02005MPS 9999 BKN010 16/14 Q1015 NOSIG,0,5.0,0,10000,0,0,0,
2026-04-15 02:00:00,METAR ZSPD 150200Z 02004MPS 350V060 9999 BKN010 16/15 Q1015 BECMG TL0350 BKN015,0,4.0,0,10000,0,0,0,
2026-04-15 01:30:00,METAR ZSPD 150130Z 04003MPS 360V070 9999 BKN010 16/14 Q1014 NOSIG,0,3.0,0,10000,0,0,0,
2026-04-15 01:00:00,METAR ZSPD 150100Z 02004MPS 350V060 8000 BKN008 15/15 Q1014 BECMG TL0230 BKN010,0,4.0,0,8000,0,0,0,
2026-04-15 00:30:00,METAR ZSPD 150030Z 04005MPS 010V070 8000 BKN008 16/14 Q1014 NOSIG,0,5.0,0,8000,0,0,0,
2026-04-15 00:00:00,METAR ZSPD 150000Z 02004MPS 340V060 6000 SCT008 16/14 Q1013 BECMG TL0030 BKN008,0,4.0,0,6000,0,0,0,
2026-04-14 23:30:00,METAR ZSPD 142330Z 36004MPS 330V030 6000 FEW008 16/14 Q1013 NOSIG,0,4.0,0,6000,0,0,0,
2026-04-14 23:00:00,METAR ZSPD 142300Z 34005MPS 8000 FEW020 15/13 Q1013 NOSIG,0,5.0,0,8000,0,0,0,
2026-04-14 22:30:00,METAR ZSPD 142230Z 34004MPS 8000 BKN020 15/12 Q1013 NOSIG,0,4.0,0,8000,0,0,0,
2026-04-14 22:00:00,METAR ZSPD 142200Z 34004MPS 6000 BKN020 15/14 Q1013 NOSIG,0,4.0,0,6000,0,0,0,
2026-04-14 21:30:00,METAR ZSPD 142130Z 33003MPS 6000 BKN020 15/15 Q1013 NOSIG,0,3.0,0,6000,0,0,0,
2026-04-14 21:00:00,METAR ZSPD 142100Z 34004MPS 6000 BKN013 15/15 Q1012 BECMG TL2130 BKN015,0,4.0,0,6000,0,0,0,
2026-04-14 20:30:00,METAR ZSPD 142030Z 34005MPS 6000 BKN010 15/15 Q1012 NOSIG,0,5.0,0,6000,0,0,0,
2026-04-14 20:00:00,METAR ZSPD 142000Z 33003MPS 6000 BKN009 15/15 Q1012 BECMG TL2030 BKN010,0,3.0,0,6000,0,0,0,
2026-04-14 19:30:00,METAR ZSPD 141930Z 34003MPS 5000 BR BKN006 15/15 Q1012 NOSIG,0,3.0,0,5000,0,0,1,BR
2026-04-14 19:00:00,METAR ZSPD 141900Z 35004MPS 5000 BR BKN006 15/15 Q1012 NOSIG,0,4.0,0,5000,0,0,1,BR
2026-04-14 18:30:00,METAR ZSPD 141830Z 33003MPS 5000 BR BKN006 15/15 Q1012 NOSIG,0,3.0,0,5000,0,0,1,BR
2026-04-14 18:00:00,METAR ZSPD 141800Z 35003MPS 5000 BR BKN006 15/15 Q1012 NOSIG,0,3.0,0,5000,0,0,1,BR
2026-04-14 17:30:00,METAR ZSPD 141730Z 34003MPS 5000 BR BKN006 15/15 Q1012 NOSIG,0,3.0,0,5000,0,0,1,BR
2026-04-14 17:00:00,METAR ZSPD 141700Z 01003MPS 340V040 5000 BR BKN006 15/15 Q1012 NOSIG,0,3.0,0,5000,0,0,1,BR
2026-04-14 16:30:00,METAR ZSPD 141630Z 35003MPS 5000 BR BKN006 15/15 Q1013 NOSIG,0,3.0,0,5000,0,0,1,BR
2026-04-14 16:00:00,METAR ZSPD 141600Z 32003MPS 290V350 5000 -RA BR BKN003 15/15 Q1013 BECMG TL1630 BKN005,0,3.0,0,5000,0,0,1,"-RA,BR"
2026-04-14 15:30:00,METAR ZSPD 141530Z 05003MPS 010V070 5000 -RA BR BKN003 15/15 Q1012 NOSIG,0,3.0,0,5000,0,0,1,"-RA,BR"
2026-04-14 15:00:00,METAR ZSPD 141500Z 36004MPS 330V030 5000 BR BKN003 16/16 Q1012 NOSIG,0,4.0,0,5000,0,0,1,BR
2026-04-14 14:30:00,METAR ZSPD 141430Z 02004MPS 6000 BKN003 15/15 Q1012 NOSIG,0,4.0,0,6000,0,0,0,
2026-04-14 14:00:00,METAR ZSPD 141400Z 05004MPS 010V090 6000 BKN005 16/16 Q1012 BECMG TL1450 BKN004,0,4.0,0,6000,0,0,0,
2026-04-14 13:30:00,METAR ZSPD 141330Z 03003MPS 350V060 6000 BKN007 16/16 Q1012 NOSIG,0,3.0,0,6000,0,0,0,
2026-04-14 13:00:00,METAR ZSPD 141300Z 01004MPS 330V040 8000 BKN011 16/16 Q1013 BECMG TL1330 BKN009,0,4.0,0,8000,0,0,0,
2026-04-14 12:30:00,METAR ZSPD 141230Z 36004MPS 8000 BKN011 16/16 Q1013 NOSIG,0,4.0,0,8000,0,0,0,
2026-04-14 12:00:00,METAR ZSPD 141200Z 35004MPS 8000 BKN011 16/16 Q1012 BECMG TL1330 BKN009,0,4.0,0,8000,0,0,0,
2026-04-14 11:30:00,METAR ZSPD 141130Z 36005MPS 8000 BKN011 16/15 Q1012 NOSIG,0,5.0,0,8000,0,0,0,
2026-04-14 11:00:00,METAR ZSPD 141100Z 36004MPS 8000 BKN013 16/15 Q1012 NOSIG,0,4.0,0,8000,0,0,0,
2026-04-14 10:30:00,METAR ZSPD 141030Z 34004MPS 8000 BKN013 16/15 Q1011 NOSIG,0,4.0,0,8000,0,0,0,
2026-04-14 10:00:00,METAR ZSPD 141000Z 34004MPS 8000 BKN013 17/15 Q1011 NOSIG,0,4.0,0,8000,0,0,0,
2026-04-14 09:30:00,METAR ZSPD 140930Z 34004MPS 8000 BKN013 17/15 Q1011 NOSIG,0,4.0,0,8000,0,0,0,
2026-04-14 09:00:00,METAR ZSPD 140900Z 32004MPS 5000 BR BKN013 17/15 Q1011 BECMG TL1030 BKN015,0,4.0,0,5000,0,0,1,BR
2026-04-14 08:30:00,METAR ZSPD 140830Z 31004MPS 5000 BR BKN013 17/15 Q1011 NOSIG,0,4.0,0,5000,0,0,1,BR
2026-04-14 08:00:00,METAR ZSPD 140800Z 33004MPS 5000 BR BKN010 17/15 Q1011 NOSIG,0,4.0,0,5000,0,0,1,BR
2026-04-14 07:30:00,METAR ZSPD 140730Z 34004MPS 5000 BR BKN010 17/16 Q1011 NOSIG,0,4.0,0,5000,0,0,1,BR
2026-04-14 07:00:00,METAR ZSPD 140700Z 33005MPS 5000 BR BKN009 17/16 Q1011 BECMG TL0730 BKN010,0,5.0,0,5000,0,0,1,BR
2026-04-14 06:30:00,METAR ZSPD 140630Z 34005MPS 5000 BR BKN009 17/16 Q1011 NOSIG,0,5.0,0,5000,0,0,1,BR
2026-04-14 06:00:00,METAR ZSPD 140600Z 33005MPS 8000 BKN009 17/16 Q1011 BECMG TL0730 BKN010,0,5.0,0,8000,0,0,0,
2026-04-14 05:30:00,METAR ZSPD 140530Z 34005MPS 8000 BKN009 17/16 Q1011 NOSIG,0,5.0,0,8000,0,0,0,
2026-04-14 05:00:00,METAR ZSPD 140500Z 33005MPS 9999 BKN008 17/17 Q1011 NOSIG,0,5.0,0,10000,0,0,0,
2026-04-14 04:30:00,METAR ZSPD 140430Z 34004MPS 9999 BKN008 17/17 Q1012 NOSIG,0,4.0,0,10000,0,0,0,
2026-04-14 04:00:00,METAR ZSPD 140400Z 34004MPS 9999 BKN008 17/17 Q1012 BECMG TL0530 BKN010,0,4.0,0,10000,0,0,0,
2026-04-14 03:30:00,METAR ZSPD 140330Z 35004MPS 9999 BKN008 17/17 Q1012 NOSIG,0,4.0,0,10000,0,0,0,
2026-04-14 03:00:00,METAR ZSPD 140300Z 32003MPS 9999 BKN006 16/16 Q1012 NOSIG,0,3.0,0,10000,0,0,0,
2026-04-14 02:30:00,METAR ZSPD 140230Z 36003MPS 9999 BKN006 16/16 Q1012 NOSIG,0,3.0,0,10000,0,0,0,
2026-04-14 02:00:00,METAR ZSPD 140200Z 35004MPS 9999 BKN005 16/16 Q1012 NOSIG,0,4.0,0,10000,0,0,0,
2026-04-14 01:30:00,METAR ZSPD 140130Z 34003MPS 9999 BKN005 16/16 Q1012 NOSIG,0,3.0,0,10000,0,0,0,
2026-04-14 01:00:00,METAR ZSPD 140100Z 33003MPS 6000 -RA BKN005 15/15 Q1012 NOSIG,0,3.0,0,6000,0,0,0,-RA
2026-04-14 00:30:00,METAR ZSPD 140030Z 34003MPS 2800 -RA BR BKN005 15/15 Q1012 NOSIG,0,3.0,0,2800,0,0,1,"-RA,BR"
2026-04-14 00:00:00,METAR ZSPD 140000Z 33003MPS 3000 -RA BR BKN005 15/15 Q1012 BECMG TL0030 2000 BKN004,0,3.0,0,3000,0,0,1,"-RA,BR"
2026-04-13 23:30:00,METAR ZSPD 132330Z 32002MPS 3000 -RA BR BKN005 15/15 Q1012 NOSIG,0,2.0,0,3000,0,0,1,"-RA,BR"
2026-04-13 23:00:00,METAR ZSPD 132300Z 33003MPS 5000 -RA BR BKN005 15/15 Q1012 NOSIG,0,3.0,0,5000,0,0,1,"-RA,BR"
2026-04-13 22:30:00,METAR ZSPD 132230Z 35002MPS 5000 -RA BR BKN005 15/15 Q1011 NOSIG,0,2.0,0,5000,0,0,1,"-RA,BR"
2026-04-13 22:00:00,METAR ZSPD 132200Z 35003MPS 7000 BKN005 15/15 Q1011 NOSIG,0,3.0,0,7000,0,0,0,
2026-04-13 21:30:00,METAR ZSPD 132130Z 36003MPS 9999 BKN005 15/15 Q1011 NOSIG,0,3.0,0,10000,0,0,0,
2026-04-13 21:00:00,METAR ZSPD 132100Z 36003MPS 9999 BKN005 15/15 Q1011 NOSIG,0,3.0,0,10000,0,0,0,
2026-04-13 20:30:00,METAR ZSPD 132030Z 03003MPS 9999 BKN005 15/15 Q1011 NOSIG,0,3.0,0,10000,0,0,0,
2026-04-13 20:00:00,METAR ZSPD 132000Z 04004MPS 9999 BKN005 15/15 Q1010 NOSIG,0,4.0,0,10000,0,0,0,
2026-04-13 19:30:00,METAR ZSPD 131930Z 03003MPS 9999 -SHRA BKN005 15/15 Q1011 NOSIG,0,3.0,0,10000,0,0,0,RA
2026-04-13 19:00:00,METAR ZSPD 131900Z 03003MPS 9999 -SHRA BKN005 15/15 Q1011 NOSIG,0,3.0,0,10000,0,0,0,RA
2026-04-13 18:30:00,METAR ZSPD 131830Z 03004MPS 5000 -SHRA BR BKN005 15/15 Q1011 RESHRA NOSIG,0,4.0,0,5000,0,0,1,"BR,RA"
2026-04-13 18:04:00,SPECI ZSPD 131804Z 35003MPS 330V030 5000 SHRA BR BKN003 15/15 Q1012 NOSIG,0,3.0,0,5000,0,0,1,"BR,RA,SH"
2026-04-13 18:00:00,METAR ZSPD 131800Z 35003MPS 5000 -RA BR BKN003 15/15 Q1012 NOSIG,0,3.0,0,5000,0,0,1,"-RA,BR"
2026-04-13 17:30:00,METAR ZSPD 131730Z 35004MPS 5000 -RA BR BKN003 15/15 Q1012 NOSIG,0,4.0,0,5000,0,0,1,"-RA,BR"
2026-04-13 17:00:00,METAR ZSPD 131700Z 36005MPS 5000 -RA BR BKN003 15/15 Q1012 RERA BECMG TL1830 BKN005,0,5.0,0,5000,0,0,1,"-RA,BR,RA"
2026-04-13 16:42:00,SPECI ZSPD 131642Z 02003MPS 3500 -RA BR BKN003 15/15 Q1012 RERA NOSIG,0,3.0,0,3500,0,0,1,"-RA,BR,RA"
2026-04-13 16:30:00,METAR ZSPD 131630Z 01003MPS 3500 RA BR BKN003 15/15 Q1012 BECMG TL1720 -RA,0,3.0,0,3500,0,0,1,"-RA,BR,RA"
2026-04-13 16:00:00,METAR ZSPD 131600Z 02003MPS 3500 -RA BR BKN003 15/15 Q1013 NOSIG,0,3.0,0,3500,0,0,1,"-RA,BR"
2026-04-13 15:30:00,METAR ZSPD 131530Z 36004MPS 3500 BR BKN002 15/15 Q1013 NOSIG,0,4.0,0,3500,0,0,1,BR
2026-04-13 15:00:00,METAR ZSPD 131500Z 02004MPS 350V050 3500 BR BKN002 15/15 Q1013 NOSIG,0,4.0,0,3500,0,0,1,BR
2026-04-13 14:30:00,METAR ZSPD 131430Z 35003MPS 3500 BR BKN003 15/15 Q1014 NOSIG,0,3.0,0,3500,0,0,1,BR
2026-04-13 14:00:00,METAR ZSPD 131400Z 34003MPS 5000 BR BKN003 15/15 Q1014 NOSIG,0,3.0,0,5000,0,0,1,BR
2026-04-13 13:30:00,METAR ZSPD 131330Z 01004MPS 340V040 5000 -RA BR BKN003 15/15 Q1014 NOSIG,0,4.0,0,5000,0,0,1,"-RA,BR"
2026-04-13 13:00:00,METAR ZSPD 131300Z 02003MPS 5000 -RA BR BKN003 15/15 Q1014 NOSIG,0,3.0,0,5000,0,0,1,"-RA,BR"
2026-04-13 12:30:00,METAR ZSPD 131230Z 08004MPS 030V100 5000 BR BKN003 15/15 Q1013 NOSIG,0,4.0,0,5000,0,0,1,BR
2026-04-13 12:00:00,METAR ZSPD 131200Z 05004MPS 020V080 4000 -RA BR BKN003 15/15 Q1013 NOSIG,0,4.0,0,4000,0,0,1,"-RA,BR"
2026-04-13 11:30:00,METAR ZSPD 131130Z 06003MPS 020V090 4000 -RA BR BKN003 15/15 Q1013 NOSIG,0,3.0,0,4000,0,0,1,"-RA,BR"
2026-04-13 11:00:00,METAR ZSPD 131100Z 06003MPS 020V090 4000 -RA BR BKN003 15/15 Q1012 NOSIG,0,3.0,0,4000,0,0,1,"-RA,BR"
2026-04-13 10:30:00,METAR ZSPD 131030Z 07004MPS 020V090 4000 -RA BR BKN003 15/15 Q1011 NOSIG,0,4.0,0,4000,0,0,1,"-RA,BR"
2026-04-13 10:00:00,METAR ZSPD 131000Z 05003MPS 010V080 4000 -RA BR BKN003 15/15 Q1012 NOSIG,0,3.0,0,4000,0,0,1,"-RA,BR"
2026-04-13 09:30:00,METAR ZSPD 130930Z 08004MPS 020V100 5000 -RA BR BKN003 15/15 Q1012 NOSIG,0,4.0,0,5000,0,0,1,"-RA,BR"
2026-04-13 09:00:00,METAR ZSPD 130900Z 07004MPS 030V100 5000 -RA BR BKN003 15/15 Q1011 NOSIG,0,4.0,0,5000,0,0,1,"-RA,BR"
2026-04-13 08:30:00,METAR ZSPD 130830Z 08004MPS 030V100 7000 BKN005 15/15 Q1012 NOSIG,0,4.0,0,7000,0,0,0,
2026-04-13 08:00:00,METAR ZSPD 130800Z 05004MPS 020V090 9999 BKN006 16/16 Q1012 NOSIG,0,4.0,0,10000,0,0,0,
2026-04-13 07:30:00,METAR ZSPD 130730Z 05004MPS 020V090 9999 BKN006 16/16 Q1012 NOSIG,0,4.0,0,10000,0,0,0,
2026-04-13 07:00:00,METAR ZSPD 130700Z 05004MPS 020V080 9999 BKN006 16/15 Q1012 NOSIG,0,4.0,0,10000,0,0,0,
2026-04-13 06:30:00,METAR ZSPD 130630Z 03004MPS 9999 BKN008 16/15 Q1012 NOSIG,0,4.0,0,10000,0,0,0,
2026-04-13 06:00:00,METAR ZSPD 130600Z 05003MPS 020V090 9999 BKN008 17/15 Q1013 NOSIG,0,3.0,0,10000,0,0,0,
2026-04-13 05:30:00,METAR ZSPD 130530Z 06003MPS 360V090 9999 BKN008 17/15 Q1013 NOSIG,0,3.0,0,10000,0,0,0,
2026-04-13 05:00:00,METAR ZSPD 130500Z 04004MPS 010V070 9999 BKN008 16/15 Q1012 BECMG TL0530 BKN010,0,4.0,0,10000,0,0,0,
2026-04-13 04:30:00,METAR ZSPD 130430Z 04004MPS 360V080 9999 BKN008 16/15 Q1013 NOSIG,0,4.0,0,10000,0,0,0,
2026-04-13 04:00:00,METAR ZSPD 130400Z 06002MPS 020V120 9999 BKN006 16/15 Q1014 NOSIG,0,2.0,0,10000,0,0,0,
2026-04-13 03:30:00,METAR ZSPD 130330Z 06003MPS 010V090 9999 BKN006 16/15 Q1014 NOSIG,0,3.0,0,10000,0,0,0,
2026-04-13 03:00:00,METAR ZSPD 130300Z 07003MPS 030V090 9999 BKN007 16/15 Q1014 NOSIG,0,3.0,0,10000,0,0,0,
2026-04-13 02:30:00,METAR ZSPD 130230Z 06003MPS 360V090 9999 BKN007 16/15 Q1014 NOSIG,0,3.0,0,10000,0,0,0,
2026-04-13 02:00:00,METAR ZSPD 130200Z 06004MPS 020V090 9999 BKN007 16/15 Q1014 BECMG TL0330 BKN010,0,4.0,0,10000,0,0,0,
2026-04-13 01:30:00,METAR ZSPD 130130Z 08004MPS 030V120 9999 BKN007 15/15 Q1014 NOSIG,0,4.0,0,10000,0,0,0,
2026-04-13 01:00:00,METAR ZSPD 130100Z 06004MPS 030V090 9999 BKN007 16/15 Q1014 NOSIG,0,4.0,0,10000,0,0,0,
2026-04-13 00:30:00,METAR ZSPD 130030Z 04003MPS 360V080 9999 BKN007 15/15 Q1014 NOSIG,0,3.0,0,10000,0,0,0,
2026-04-13 00:00:00,METAR ZSPD 130000Z 05003MPS 360V080 9999 BKN005 15/15 Q1014 BECMG TL0050 BKN010,0,3.0,0,10000,0,0,0,
2026-04-12 23:30:00,METAR ZSPD 122330Z 04003MPS 360V090 9999 BKN005 15/15 Q1014 NOSIG,0,3.0,0,10000,0,0,0,
2026-04-12 23:00:00,METAR ZSPD 122300Z 04003MPS 010V070 9999 BKN005 15/15 Q1014 NOSIG,0,3.0,0,10000,0,0,0,
2026-04-12 22:30:00,METAR ZSPD 122230Z 03004MPS 360V060 9999 BKN008 15/15 Q1013 NOSIG,0,4.0,0,10000,0,0,0,
2026-04-12 22:00:00,METAR ZSPD 122200Z 02004MPS 350V050 5000 BR BKN008 15/15 Q1013 NOSIG,0,4.0,0,5000,0,0,1,BR
2026-04-12 21:30:00,METAR ZSPD 122130Z 36002MPS 9999 BKN008 15/15 Q1013 NOSIG,0,2.0,0,10000,0,0,0,
2026-04-12 21:00:00,METAR ZSPD 122100Z 35003MPS 9999 BKN008 15/15 Q1012 NOSIG,0,3.0,0,10000,0,0,0,
2026-04-12 20:30:00,METAR ZSPD 122030Z 02002MPS 9999 BKN004 15/15 Q1012 NOSIG,0,2.0,0,10000,0,0,0,
2026-04-12 20:00:00,METAR ZSPD 122000Z 03003MPS 360V060 7000 BKN006 15/15 Q1011 BECMG TL2030 BKN004,0,3.0,0,7000,0,0,0,
2026-04-12 19:30:00,METAR ZSPD 121930Z 03003MPS 350V050 6000 BKN006 15/15 Q1011 NOSIG,0,3.0,0,6000,0,0,0,
2026-04-12 19:00:00,METAR ZSPD 121900Z VRB01MPS 4000 BR BKN005 15/15 Q1012 NOSIG,0,1.0,0,4000,0,0,1,BR
2026-04-12 18:30:00,METAR ZSPD 121830Z 04002MPS 340V070 4000 BR BKN003 15/15 Q1011 NOSIG,0,2.0,0,4000,0,0,1,BR
2026-04-12 18:00:00,METAR ZSPD 121800Z 05003MPS 010V090 4000 BR BKN003 15/15 Q1011 NOSIG,0,3.0,0,4000,0,0,1,BR
2026-04-12 17:30:00,METAR ZSPD 121730Z 07003MPS 360V120 4000 -RA BR BKN003 15/15 Q1011 NOSIG,0,3.0,0,4000,0,0,1,"-RA,BR"
2026-04-12 17:00:00,METAR ZSPD 121700Z 06003MPS 360V100 4000 -RA BR BKN004 15/15 Q1012 NOSIG,0,3.0,0,4000,0,0,1,"-RA,BR"
2026-04-12 16:30:00,METAR ZSPD 121630Z 04004MPS 360V080 4000 -RA BR BKN004 15/15 Q1012 NOSIG,0,4.0,0,4000,0,0,1,"-RA,BR"
2026-04-12 16:00:00,METAR ZSPD 121600Z 07003MPS 4000 -RA BR BKN004 15/15 Q1012 NOSIG,0,3.0,0,4000,0,0,1,"-RA,BR"
2026-04-12 15:00:00,METAR ZSPD 121500Z 04004MPS 4000 -RA BR BKN004 15/15 Q1012 NOSIG,0,4.0,0,4000,0,0,1,"-RA,BR"
2026-04-12 14:30:00,METAR ZSPD 121430Z 04004MPS 360V060 4000 -RA BR BKN004 15/15 Q1012 NOSIG,0,4.0,0,4000,0,0,1,"-RA,BR"
2026-04-12 14:00:00,METAR ZSPD 121400Z 04003MPS 360V060 4000 -RA BR BKN003 15/15 Q1012 NOSIG,0,3.0,0,4000,0,0,1,"-RA,BR"
2026-04-12 13:30:00,METAR ZSPD 121330Z 06003MPS 010V090 3000 -RA BR BKN003 15/15 Q1011 NOSIG,0,3.0,0,3000,0,0,1,"-RA,BR"
2026-04-12 13:00:00,METAR ZSPD 121300Z 04003MPS 360V060 3000 -RA BR BKN003 15/15 Q1011 NOSIG,0,3.0,0,3000,0,0,1,"-RA,BR"
2026-04-12 12:30:00,METAR ZSPD 121230Z VRB01MPS 3000 -RA BR BKN004 15/15 Q1011 NOSIG,0,1.0,0,3000,0,0,1,"-RA,BR"
2026-04-12 12:00:00,METAR ZSPD 121200Z 10003MPS 060V120 3000 -RA BR BKN004 15/15 Q1011 NOSIG,0,3.0,0,3000,0,0,1,"-RA,BR"
2026-04-12 11:30:00,METAR ZSPD 121130Z 07004MPS 030V100 3000 -RA BR BKN003 15/15 Q1010 NOSIG,0,4.0,0,3000,0,0,1,"-RA,BR"
2026-04-12 11:00:00,METAR ZSPD 121100Z 08005MPS 010V090 3000 -RA BR BKN003 15/15 Q1010 NOSIG,0,5.0,0,3000,0,0,1,"-RA,BR"
2026-04-12 10:30:00,METAR ZSPD 121030Z 07004MPS 360V100 3000 -RA BR BKN004 15/15 Q1010 NOSIG,0,4.0,0,3000,0,0,1,"-RA,BR"
2026-04-12 10:00:00,METAR ZSPD 121000Z 06004MPS 010V090 5000 BR BKN005 15/15 Q1009 BECMG TL1030 BKN004,0,4.0,0,5000,0,0,1,BR
2026-04-12 09:30:00,METAR ZSPD 120930Z 08006MPS 040V100 9999 BKN005 15/15 Q1009 NOSIG,0,6.0,0,10000,0,0,0,
2026-04-12 09:00:00,METAR ZSPD 120900Z 08006MPS 040V100 9999 BKN005 15/15 Q1009 NOSIG,0,6.0,0,10000,0,0,0,
2026-04-12 08:30:00,METAR ZSPD 120830Z 07006MPS 030V090 9999 BKN005 15/15 Q1009 NOSIG,0,6.0,0,10000,0,0,0,
2026-04-12 08:00:00,METAR ZSPD 120800Z 08007MPS 9999 BKN005 15/15 Q1008 NOSIG,0,7.0,0,10000,0,0,0,
2026-04-12 07:30:00,METAR ZSPD 120730Z 08006MPS 8000 -RA BKN005 15/15 Q1008 NOSIG,0,6.0,0,8000,0,0,0,-RA
2026-04-12 07:00:00,METAR ZSPD 120700Z 07006MPS 2800 -RA BR BKN004 15/15 Q1008 BECMG TL0750 3000,0,6.0,0,2800,0,0,1,"-RA,BR"
2026-04-12 06:30:00,METAR ZSPD 120630Z 09007MPS 2000 -RA BR BKN004 15/15 Q1009 NOSIG,0,7.0,0,2000,0,0,1,"-RA,BR"
2026-04-12 06:00:00,METAR ZSPD 120600Z 08005MPS 3000 -RA BR BKN004 15/15 Q1009 BECMG TL0720 BKN005,0,5.0,0,3000,0,0,1,"-RA,BR"
2026-04-12 05:30:00,METAR ZSPD 120530Z 09006MPS 3000 -RA BR BKN004 15/15 Q1009 NOSIG,0,6.0,0,3000,0,0,1,"-RA,BR"
2026-04-12 05:00:00,METAR ZSPD 120500Z 10006MPS 3000 -RA BR BKN004 15/15 Q1009 BECMG TL0650 BKN005,0,6.0,0,3000,0,0,1,"-RA,BR"
2026-04-12 04:30:00,METAR ZSPD 120430Z 10006MPS 4000 BR BKN004 15/15 Q1010 NOSIG,0,6.0,0,4000,0,0,1,BR
2026-04-12 04:00:00,METAR ZSPD 120400Z 11006MPS 3000 BR BKN005 15/15 Q1010 BECMG TL0450 BKN004,0,6.0,0,3000,0,0,1,BR
2026-04-12 03:30:00,METAR ZSPD 120330Z 11006MPS 3000 BR BKN005 15/15 Q1010 NOSIG,0,6.0,0,3000,0,0,1,BR
2026-04-12 03:00:00,METAR ZSPD 120300Z 10005MPS 080V250 3000 BR BKN005 15/15 Q1010 BECMG TL0330 2800 BKN004,0,5.0,0,3000,0,0,1,BR
2026-04-12 02:30:00,METAR ZSPD 120230Z 11007MPS 9999 BKN010 15/13 Q1011 NOSIG,0,7.0,0,10000,0,0,0,
2026-04-12 02:00:00,METAR ZSPD 120200Z 11006MPS 9999 BKN015 15/13 Q1011 BECMG TL0240 BKN013,0,6.0,0,10000,0,0,0,
2026-04-12 01:30:00,METAR ZSPD 120130Z 11007MPS 9999 BKN023 15/12 Q1011 NOSIG,0,7.0,0,10000,0,0,0,
2026-04-12 01:00:00,METAR ZSPD 120100Z 12006MPS 9999 BKN023 16/12 Q1011 NOSIG,0,6.0,0,10000,0,0,0,
2026-04-12 00:30:00,METAR ZSPD 120030Z 12005MPS 9999 BKN026 15/13 Q1012 NOSIG,0,5.0,0,10000,0,0,0,
2026-04-12 00:00:00,METAR ZSPD 120000Z 12006MPS 9999 BKN030 15/14 Q1011 NOSIG,0,6.0,0,10000,0,0,0,
2026-04-11 23:30:00,METAR ZSPD 112330Z 12007MPS 9999 BKN033 15/14 Q1011 NOSIG,0,7.0,0,10000,0,0,0,
2026-04-11 23:00:00,METAR ZSPD 112300Z 12007MPS 9999 BKN033 16/14 Q1010 NOSIG,0,7.0,0,10000,0,0,0,
2026-04-11 22:30:00,METAR ZSPD 112230Z 12008MPS 9999 -RA BKN010 15/15 Q1010 NOSIG,0,8.0,0,10000,0,0,0,-RA
2026-04-11 22:00:00,METAR ZSPD 112200Z 13006MPS 9999 BKN009 15/15 Q1010 BECMG TL2230 BKN010,0,6.0,0,10000,0,0,0,
2026-04-11 21:30:00,METAR ZSPD 112130Z 11006MPS 9999 -RA BKN007 15/15 Q1010 NOSIG,0,6.0,0,10000,0,0,0,-RA
2026-04-11 21:00:00,METAR ZSPD 112100Z 12006MPS 9999 -RA BKN007 14/14 Q1010 BECMG TL2230 BKN010,0,6.0,0,10000,0,0,0,-RA
2026-04-11 20:45:00,SPECI ZSPD 112045Z 12006MPS 9999 -RA BKN007 14/14 Q1010 WS R17R NOSIG,0,6.0,0,10000,0,0,0,-RA
2026-04-11 20:30:00,METAR ZSPD 112030Z 12005MPS 9999 -RA BKN007 14/14 Q1010 NOSIG,0,5.0,0,10000,0,0,0,-RA
2026-04-11 20:00:00,METAR ZSPD 112000Z 13006MPS 9999 -RA BKN010 14/13 Q1011 BECMG TL2050 BKN009,0,6.0,0,10000,0,0,0,-RA
2026-04-11 19:30:00,METAR ZSPD 111930Z 12005MPS 9999 BKN013 14/13 Q1011 NOSIG,0,5.0,0,10000,0,0,0,
2026-04-11 19:00:00,METAR ZSPD 111900Z 13007MPS 9999 BKN013 15/13 Q1011 NOSIG,0,7.0,0,10000,0,0,0,
2026-04-11 18:30:00,METAR ZSPD 111830Z 11005MPS 9999 BKN016 15/13 Q1011 NOSIG,0,5.0,0,10000,0,0,0,
2026-04-11 18:00:00,METAR ZSPD 111800Z 11004MPS 9999 -RA NSC 14/13 Q1012 NOSIG,0,4.0,0,10000,0,0,0,-RA
2026-04-11 17:30:00,METAR ZSPD 111730Z 12005MPS 9999 -RA NSC 14/12 Q1012 NOSIG,0,5.0,0,10000,0,0,0,-RA
2026-04-11 17:00:00,METAR ZSPD 111700Z 12003MPS CAVOK 14/12 Q1013 NOSIG,1,0.0,0,9999,0,0,0,
2026-04-11 16:30:00,METAR ZSPD 111630Z 11003MPS CAVOK 14/12 Q1014 NOSIG,1,0.0,0,9999,0,0,0,
2026-04-11 16:00:00,METAR ZSPD 111600Z 14003MPS CAVOK 14/12 Q1014 NOSIG,1,0.0,0,9999,0,0,0,
2026-04-11 15:30:00,METAR ZSPD 111530Z 13004MPS CAVOK 14/12 Q1013 NOSIG,1,0.0,0,9999,0,0,0,
2026-04-11 15:00:00,METAR ZSPD 111500Z 11004MPS CAVOK 14/12 Q1014 NOSIG,1,0.0,0,9999,0,0,0,
2026-04-11 14:30:00,METAR ZSPD 111430Z 12004MPS 090V150 CAVOK 14/12 Q1013 NOSIG,1,0.0,0,9999,0,0,0,
2026-04-11 14:00:00,METAR ZSPD 111400Z 11004MPS CAVOK 14/11 Q1013 NOSIG,1,0.0,0,9999,0,0,0,
2026-04-11 13:30:00,METAR ZSPD 111330Z 12002MPS 070V170 9999 FEW020 14/12 Q1014 NOSIG,0,2.0,0,10000,0,0,0,
2026-04-11 13:00:00,METAR ZSPD 111300Z 12004MPS 080V150 9999 -RA SCT013 14/12 Q1014 NOSIG,0,4.0,0,10000,0,0,0,-RA
2026-04-11 12:30:00,METAR ZSPD 111230Z 15005MPS 9999 -RA SCT013 13/11 Q1014 NOSIG,0,5.0,0,10000,0,0,0,-RA
2026-04-11 12:00:00,METAR ZSPD 111200Z 15006MPS 9999 -RA SCT013 14/12 Q1014 NOSIG,0,6.0,0,10000,0,0,0,-RA
2026-04-11 11:30:00,METAR ZSPD 111130Z 16009MPS 8000 -RA SCT013 14/12 Q1013 NOSIG,0,9.0,0,8000,0,0,0,-RA
2026-04-11 11:00:00,METAR ZSPD 111100Z 15006MPS 6000 -RA SCT013 14/13 Q1013 NOSIG,0,6.0,0,6000,0,0,0,-RA
2026-04-11 10:30:00,METAR ZSPD 111030Z 15007MPS 6000 -RA SCT013 14/13 Q1013 NOSIG,0,7.0,0,6000,0,0,0,-RA
2026-04-11 10:00:00,METAR ZSPD 111000Z 15005MPS 6000 -RA SCT013 14/12 Q1013 NOSIG,0,5.0,0,6000,0,0,0,-RA
2026-04-11 09:30:00,METAR ZSPD 110930Z 15005MPS 6000 -RA SCT013 15/13 Q1013 NOSIG,0,5.0,0,6000,0,0,0,-RA
2026-04-11 09:00:00,METAR ZSPD 110900Z 15004MPS 6000 -RA BKN013 15/13 Q1013 BECMG TL0940 SCT013 BKN040,0,4.0,0,6000,0,0,0,-RA
2026-04-11 08:30:00,METAR ZSPD 110830Z 14005MPS 6000 -RA BKN013 15/13 Q1012 NOSIG,0,5.0,0,6000,0,0,0,-RA
2026-04-11 08:00:00,METAR ZSPD 110800Z 13006MPS 6000 -RA SCT013 15/12 Q1011 BECMG TL0830 BKN013,0,6.0,0,6000,0,0,0,-RA
2026-04-11 07:30:00,METAR ZSPD 110730Z 13003MPS 060V210 6000 -RA SCT013 15/13 Q1012 NOSIG,0,3.0,0,6000,0,0,0,-RA
2026-04-11 07:00:00,METAR ZSPD 110700Z 13007MPS 6000 -RA SCT013 16/13 Q1012 BECMG TL0840 BKN013,0,7.0,0,6000,0,0,0,-RA
2026-04-11 06:30:00,METAR ZSPD 110630Z 13005MPS 6000 -RA NSC 16/13 Q1012 NOSIG,0,5.0,0,6000,0,0,0,-RA
2026-04-11 06:00:00,METAR ZSPD 110600Z 14007MPS 6000 -RA NSC 16/13 Q1012 NOSIG,0,7.0,0,6000,0,0,0,-RA
2026-04-11 05:30:00,METAR ZSPD 110530Z 12006MPS 6000 -RA NSC 17/13 Q1012 NOSIG,0,6.0,0,6000,0,0,0,-RA
2026-04-11 05:00:00,METAR ZSPD 110500Z 13006MPS 7000 NSC 17/12 Q1012 NOSIG,0,6.0,0,7000,0,0,0,
2026-04-11 04:30:00,METAR ZSPD 110430Z 13006MPS 7000 NSC 18/12 Q1012 NOSIG,0,6.0,0,7000,0,0,0,
2026-04-11 04:00:00,METAR ZSPD 110400Z 14006MPS CAVOK 17/12 Q1013 NOSIG,1,0.0,0,9999,0,0,0,
2026-04-11 03:30:00,METAR ZSPD 110330Z 15005MPS CAVOK 17/13 Q1014 NOSIG,1,0.0,0,9999,0,0,0,
2026-04-11 03:00:00,METAR ZSPD 110300Z 15005MPS CAVOK 18/13 Q1014 NOSIG,1,0.0,0,9999,0,0,0,
2026-04-11 02:30:00,METAR ZSPD 110230Z 14007MPS CAVOK 17/12 Q1014 NOSIG,1,0.0,0,9999,0,0,0,
2026-04-11 02:00:00,METAR ZSPD 110200Z 12006MPS CAVOK 17/11 Q1014 NOSIG,1,0.0,0,9999,0,0,0,
2026-04-11 01:30:00,METAR ZSPD 110130Z 13006MPS CAVOK 17/12 Q1014 NOSIG,1,0.0,0,9999,0,0,0,
2026-04-11 01:00:00,METAR ZSPD 110100Z 13006MPS 7000 NSC 17/12 Q1014 NOSIG,0,6.0,0,7000,0,0,0,
2026-04-11 00:30:00,METAR ZSPD 110030Z 13005MPS 100V160 6000 NSC 17/13 Q1013 NOSIG,0,5.0,0,6000,0,0,0,
2026-04-11 00:00:00,METAR ZSPD 110000Z 13005MPS 5000 BR NSC 17/13 Q1013 NOSIG,0,5.0,0,5000,0,0,1,BR
2026-04-10 23:30:00,METAR ZSPD 102330Z 14004MPS 100V190 4000 BR NSC 16/14 Q1013 NOSIG,0,4.0,0,4000,0,0,1,BR
2026-04-10 23:00:00,METAR ZSPD 102300Z 14003MPS 3000 BR NSC 16/15 Q1013 NOSIG,0,3.0,0,3000,0,0,1,BR
2026-04-10 22:30:00,METAR ZSPD 102230Z 13002MPS 100V170 3000 BR NSC 15/14 Q1013 NOSIG,0,2.0,0,3000,0,0,1,BR
2026-04-10 22:00:00,METAR ZSPD 102200Z 13003MPS 3000 BR NSC 15/14 Q1013 NOSIG,0,3.0,0,3000,0,0,1,BR
2026-04-10 21:30:00,METAR ZSPD 102130Z 14004MPS 110V210 3500 BR NSC 15/14 Q1013 NOSIG,0,4.0,0,3500,0,0,1,BR
2026-04-10 21:00:00,METAR ZSPD 102100Z 14003MPS 4000 BR NSC 15/14 Q1013 NOSIG,0,3.0,0,4000,0,0,1,BR
2026-04-10 20:30:00,METAR ZSPD 102030Z 15002MPS 4000 BR NSC 14/14 Q1013 NOSIG,0,2.0,0,4000,0,0,1,BR
2026-04-10 20:00:00,METAR ZSPD 102000Z 14002MPS 4000 BR NSC 14/14 Q1012 NOSIG,0,2.0,0,4000,0,0,1,BR
2026-04-10 19:30:00,METAR ZSPD 101930Z 17001MPS 4000 BR NSC 14/14 Q1012 NOSIG,0,1.0,0,4000,0,0,1,BR
2026-04-10 19:00:00,METAR ZSPD 101900Z 17002MPS 5000 BR NSC 14/14 Q1013 NOSIG,0,2.0,0,5000,0,0,1,BR
2026-04-10 18:30:00,METAR ZSPD 101830Z 15002MPS 090V200 5000 BR NSC 15/15 Q1012 NOSIG,0,2.0,0,5000,0,0,1,BR
2026-04-10 18:00:00,METAR ZSPD 101800Z 16002MPS 130V190 5000 BR NSC 14/14 Q1012 NOSIG,0,2.0,0,5000,0,0,1,BR
2026-04-10 17:30:00,METAR ZSPD 101730Z 17002MPS 130V190 6000 NSC 15/13 Q1013 NOSIG,0,2.0,0,6000,0,0,0,
2026-04-10 17:00:00,METAR ZSPD 101700Z 15003MPS 090V190 6000 NSC 15/14 Q1012 NOSIG,0,3.0,0,6000,0,0,0,
2026-04-10 16:30:00,METAR ZSPD 101630Z 13003MPS 6000 NSC 15/13 Q1012 NOSIG,0,3.0,0,6000,0,0,0,
2026-04-10 16:00:00,METAR ZSPD 101600Z 13003MPS 6000 NSC 15/14 Q1012 NOSIG,0,3.0,0,6000,0,0,0,
2026-04-10 15:30:00,METAR ZSPD 101530Z 11003MPS 090V150 6000 NSC 16/14 Q1012 NOSIG,0,3.0,0,6000,0,0,0,
2026-04-10 15:00:00,METAR ZSPD 101500Z 14003MPS 090V260 6000 NSC 16/14 Q1013 NOSIG,0,3.0,0,6000,0,0,0,
2026-04-10 14:30:00,METAR ZSPD 101430Z 12003MPS 6000 NSC 16/14 Q1012 NOSIG,0,3.0,0,6000,0,0,0,
2026-04-10 14:00:00,METAR ZSPD 101400Z 11003MPS 070V160 6000 NSC 16/14 Q1012 NOSIG,0,3.0,0,6000,0,0,0,
2026-04-10 13:30:00,METAR ZSPD 101330Z 11003MPS 8000 NSC 16/14 Q1012 NOSIG,0,3.0,0,8000,0,0,0,
2026-04-10 13:00:00,METAR ZSPD 101300Z 09004MPS 8000 NSC 17/14 Q1012 NOSIG,0,4.0,0,8000,0,0,0,
2026-04-10 12:30:00,METAR ZSPD 101230Z 10004MPS 8000 NSC 17/14 Q1012 NOSIG,0,4.0,0,8000,0,0,0,
2026-04-10 12:00:00,METAR ZSPD 101200Z 09004MPS 8000 NSC 17/14 Q1012 NOSIG,0,4.0,0,8000,0,0,0,
2026-04-10 11:30:00,METAR ZSPD 101130Z 08004MPS 8000 NSC 17/14 Q1011 NOSIG,0,4.0,0,8000,0,0,0,
2026-04-10 11:00:00,METAR ZSPD 101100Z 09005MPS 8000 NSC 17/14 Q1010 NOSIG,0,5.0,0,8000,0,0,0,
2026-04-10 10:30:00,METAR ZSPD 101030Z 09005MPS 6000 NSC 18/14 Q1010 NOSIG,0,5.0,0,6000,0,0,0,
2026-04-10 10:00:00,METAR ZSPD 101000Z 08004MPS 6000 NSC 18/14 Q1009 NOSIG,0,4.0,0,6000,0,0,0,
2026-04-10 09:30:00,METAR ZSPD 100930Z 10005MPS 5000 BR FEW033 18/15 Q1009 NOSIG,0,5.0,0,5000,0,0,1,BR
2026-04-10 09:00:00,METAR ZSPD 100900Z 10005MPS 6000 FEW033 19/15 Q1009 NOSIG,0,5.0,0,6000,0,0,0,
2026-04-10 08:30:00,METAR ZSPD 100830Z 10005MPS 6000 SCT033 19/15 Q1009 NOSIG,0,5.0,0,6000,0,0,0,
2026-04-10 08:00:00,METAR ZSPD 100800Z 11005MPS 6000 BKN033 20/15 Q1008 NOSIG,0,5.0,0,6000,0,0,0,
2026-04-10 07:30:00,METAR ZSPD 100730Z 11005MPS 030V130 5000 HZ BKN033 21/16 Q1008 NOSIG,0,5.0,0,5000,0,0,0,
2026-04-10 07:00:00,METAR ZSPD 100700Z 06005MPS 010V090 4800 HZ BKN033 22/16 Q1008 NOSIG,0,5.0,0,4800,0,0,0,
2026-04-10 06:30:00,METAR ZSPD 100630Z 03005MPS 360V060 4800 HZ BKN033 22/16 Q1008 NOSIG,0,5.0,0,4800,0,0,0,
2026-04-10 06:00:00,METAR ZSPD 100600Z 02006MPS 4500 HZ BKN033 22/16 Q1008 NOSIG,0,6.0,0,4500,0,0,0,
2026-04-10 05:30:00,METAR ZSPD 100530Z 03005MPS 4500 HZ BKN030 21/16 Q1008 NOSIG,0,5.0,0,4500,0,0,0,
2026-04-10 05:00:00,METAR ZSPD 100500Z 02005MPS 4500 HZ BKN026 21/16 Q1008 NOSIG,0,5.0,0,4500,0,0,0,
2026-04-10 04:30:00,METAR ZSPD 100430Z 02004MPS 350V090 4500 BR BKN023 21/16 Q1008 NOSIG,0,4.0,0,4500,0,0,1,BR
2026-04-10 04:00:00,METAR ZSPD 100400Z 01003MPS 320V050 4000 BR BKN020 20/15 Q1009 NOSIG,0,3.0,0,4000,0,0,1,BR
2026-04-10 03:30:00,METAR ZSPD 100330Z 01003MPS 330V040 4000 BR BKN015 20/16 Q1009 NOSIG,0,3.0,0,4000,0,0,1,BR
2026-04-10 03:00:00,METAR ZSPD 100300Z 01004MPS 350V050 4000 BR BKN013 20/16 Q1009 BECMG TL0330 BKN015,0,4.0,0,4000,0,0,1,BR
2026-04-10 02:30:00,METAR ZSPD 100230Z 03003MPS 3000 BR BKN013 18/16 Q1009 NOSIG,0,3.0,0,3000,0,0,1,BR
2026-04-10 02:00:00,METAR ZSPD 100200Z 04003MPS 350V090 3000 BR BKN010 18/17 Q1008 BECMG TL0330 BKN015,0,3.0,0,3000,0,0,1,BR
2026-04-10 01:30:00,METAR ZSPD 100130Z 15002MPS 100V200 3000 BR BKN009 18/18 Q1008 NOSIG,0,2.0,0,3000,0,0,1,BR
2026-04-10 01:00:00,METAR ZSPD 100100Z 09002MPS 030V150 3000 BR BKN009 18/17 Q1008 BECMG TL0200 BKN010,0,2.0,0,3000,0,0,1,BR
2026-04-10 00:30:00,METAR ZSPD 100030Z 35002MPS 320V030 3000 BR BKN009 18/17 Q1008 NOSIG,0,2.0,0,3000,0,0,1,BR
2026-04-10 00:00:00,METAR ZSPD 100000Z 07002MPS 020V150 3000 BR BKN008 18/17 Q1007 BECMG TL0030 BKN010,0,2.0,0,3000,0,0,1,BR
2026-04-09 23:30:00,METAR ZSPD 092330Z 07003MPS 030V090 3000 BR BKN008 17/17 Q1007 NOSIG,0,3.0,0,3000,0,0,1,BR
2026-04-09 23:00:00,METAR ZSPD 092300Z 09003MPS 360V120 2800 BR BKN010 17/17 Q1007 BECMG TL2330 3000 BKN007,0,3.0,0,2800,0,0,1,BR
2026-04-09 22:30:00,METAR ZSPD 092230Z 07002MPS 2800 BR BKN010 17/17 Q1006 NOSIG,0,2.0,0,2800,0,0,1,BR
2026-04-09 22:00:00,METAR ZSPD 092200Z 07003MPS 3500 BR BKN012 17/17 Q1006 BECMG TL2250 2800,0,3.0,0,3500,0,0,1,BR
2026-04-09 21:30:00,METAR ZSPD 092130Z 04004MPS 340V060 5000 BR BKN013 18/18 Q1005 NOSIG,0,4.0,0,5000,0,0,1,BR
2026-04-09 21:00:00,METAR ZSPD 092100Z 34005MPS 6000 BKN013 19/17 Q1004 BECMG TL2130 BKN015,0,5.0,0,6000,0,0,0,
2026-04-09 20:30:00,METAR ZSPD 092030Z 35005MPS 6000 BKN013 19/19 Q1004 NOSIG,0,5.0,0,6000,0,0,0,
2026-04-09 20:00:00,METAR ZSPD 092000Z 28003MPS 5000 BR BKN013 20/20 Q1004 NOSIG,0,3.0,0,5000,0,0,1,BR
2026-04-09 19:30:00,METAR ZSPD 091930Z 26003MPS 5000 BR BKN013 20/20 Q1004 NOSIG,0,3.0,0,5000,0,0,1,BR
2026-04-09 19:00:00,METAR ZSPD 091900Z 26003MPS 5000 BR SCT013 20/20 Q1003 BECMG TL1930 BKN013,0,3.0,0,5000,0,0,1,BR
2026-04-09 18:30:00,METAR ZSPD 091830Z 29002MPS 6000 SCT013 20/20 Q1002 NOSIG,0,2.0,0,6000,0,0,0,
2026-04-09 18:00:00,METAR ZSPD 091800Z VRB01MPS 8000 NSC 20/20 Q1003 NOSIG,0,1.0,0,8000,0,0,0,
2026-04-09 17:30:00,METAR ZSPD 091730Z 19002MPS 160V220 CAVOK 20/20 Q1003 NOSIG,1,0.0,0,9999,0,0,0,
2026-04-09 17:00:00,METAR ZSPD 091700Z 28003MPS 9999 -SHRA BKN026 20/20 Q1003 NOSIG,0,3.0,0,10000,0,0,0,RA
2026-04-09 16:30:00,METAR ZSPD 091630Z 24002MPS 9999 -SHRA BKN013 20/20 Q1003 NOSIG,0,2.0,0,10000,0,0,0,RA
2026-04-09 16:00:00,METAR ZSPD 091600Z 24003MPS 9999 -SHRA BKN013 20/20 Q1004 BECMG TL1650 BKN015,0,3.0,0,10000,0,0,0,RA
2026-04-09 15:30:00,METAR ZSPD 091530Z 30003MPS 9999 -SHRA BKN015 20/20 Q1003 NOSIG,0,3.0,0,10000,0,0,0,RA
2026-04-09 15:00:00,METAR ZSPD 091500Z VRB02MPS 9999 -SHRA BKN015 20/20 Q1003 BECMG TL1530 BKN013,0,2.0,0,10000,0,0,0,RA
2026-04-09 14:40:00,SPECI ZSPD 091440Z 17005MPS 9999 -SHRA FEW030CB 20/20 Q1002 NOSIG,0,5.0,0,10000,0,0,0,RA
2026-04-09 14:30:00,METAR ZSPD 091430Z 23004MPS 200V260 9999 -SHRA FEW030CB 20/20 Q1003 NOSIG,0,4.0,0,10000,0,0,0,RA
2026-04-09 14:00:00,METAR ZSPD 091400Z 24004MPS 9999 -SHRA FEW030CB 21/20 Q1002 NOSIG,0,4.0,0,10000,0,0,0,RA
2026-04-09 13:30:00,METAR ZSPD 091330Z 24003MPS 9999 -SHRA FEW030CB 21/19 Q1003 NOSIG,0,3.0,0,10000,0,0,0,RA
2026-04-09 13:00:00,METAR ZSPD 091300Z 23004MPS 9999 -SHRA NSC 22/19 Q1003 BECMG TL1450 31005MPS,0,4.0,0,10000,0,0,0,RA
2026-04-09 12:40:00,SPECI ZSPD 091240Z 26004MPS 9999 -SHRA FEW030CB 22/19 Q1002 NOSIG,0,4.0,0,10000,0,0,0,RA
2026-04-09 12:30:00,METAR ZSPD 091230Z 20005MPS 170V230 9999 -SHRA FEW030CB 22/19 Q1002 RETS NOSIG,0,5.0,0,10000,1,0,0,"RA,TS"
2026-04-09 12:01:00,SPECI ZSPD 091201Z 23005MPS 9999 -TSRA FEW030CB 24/18 Q1002 BECMG TL1330 NSW,0,5.0,0,10000,1,0,0,RA
2026-04-09 12:00:00,METAR ZSPD 091200Z 23005MPS 9999 -SHRA FEW030CB 24/18 Q1002 BECMG TL1230 33005MPS TSRA,0,5.0,0,10000,1,0,0,"RA,TS"
2026-04-09 11:30:00,METAR ZSPD 091130Z 27004MPS CAVOK 26/17 Q1000 NOSIG,1,0.0,0,9999,0,0,0,
2026-04-09 11:00:00,METAR ZSPD 091100Z 23003MPS CAVOK 26/17 Q1000 BECMG TL1230 TS FEW030CB,1,0.0,0,9999,0,0,0,
2026-04-09 10:30:00,METAR ZSPD 091030Z 24003MPS CAVOK 26/17 Q1000 NOSIG,1,0.0,0,9999,0,0,0,
2026-04-09 10:00:00,METAR ZSPD 091000Z 25005MPS CAVOK 27/17 Q1000 NOSIG,1,0.0,0,9999,0,0,0,
2026-04-09 09:30:00,METAR ZSPD 090930Z 24006MPS CAVOK 27/17 Q1000 NOSIG,1,0.0,0,9999,0,0,0,
2026-04-09 09:00:00,METAR ZSPD 090900Z 24006MPS CAVOK 28/16 Q1000 NOSIG,1,0.0,0,9999,0,0,0,
2026-04-09 08:30:00,METAR ZSPD 090830Z 25007MPS CAVOK 29/16 Q1000 NOSIG,1,0.0,0,9999,0,0,0,
2026-04-09 08:00:00,METAR ZSPD 090800Z 24006MPS CAVOK 29/16 Q1000 NOSIG,1,0.0,0,9999,0,0,0,
2026-04-09 07:30:00,METAR ZSPD 090730Z 25007MPS CAVOK 29/16 Q1000 NOSIG,1,0.0,0,9999,0,0,0,
2026-04-09 07:00:00,METAR ZSPD 090700Z 23009MPS CAVOK 28/16 Q1000 NOSIG,1,0.0,0,9999,0,0,0,
2026-04-09 06:30:00,METAR ZSPD 090630Z 21009MPS CAVOK 28/17 Q0999 NOSIG,1,0.0,0,9999,0,0,0,
2026-04-09 06:00:00,METAR ZSPD 090600Z 23008MPS CAVOK 29/17 Q1000 NOSIG,1,0.0,0,9999,0,0,0,
2026-04-09 05:30:00,METAR ZSPD 090530Z 21009MPS CAVOK 28/17 Q0999 NOSIG,1,0.0,0,9999,0,0,0,
2026-04-09 05:00:00,METAR ZSPD 090500Z 23008MPS CAVOK 27/18 Q1001 NOSIG,1,0.0,0,9999,0,0,0,
2026-04-09 04:30:00,METAR ZSPD 090430Z 22008MPS CAVOK 26/17 Q1001 NOSIG,1,0.0,0,9999,0,0,0,
2026-04-09 04:00:00,METAR ZSPD 090400Z 24009MPS CAVOK 25/17 Q1002 NOSIG,1,0.0,0,9999,0,0,0,
2026-04-09 03:30:00,METAR ZSPD 090330Z 24009MPS CAVOK 26/17 Q1002 NOSIG,1,0.0,0,9999,0,0,0,
2026-04-09 03:00:00,METAR ZSPD 090300Z 23008MPS CAVOK 26/18 Q1002 NOSIG,1,0.0,0,9999,0,0,0,
2026-04-09 02:30:00,METAR ZSPD 090230Z 22008MPS CAVOK 26/18 Q1001 NOSIG,1,0.0,0,9999,0,0,0,
2026-04-09 02:00:00,METAR ZSPD 090200Z 22009MPS CAVOK 24/17 Q1002 NOSIG,1,0.0,0,9999,0,0,0,
2026-04-09 01:30:00,METAR ZSPD 090130Z 21007MPS CAVOK 23/18 Q1002 NOSIG,1,0.0,0,9999,0,0,0,
2026-04-09 01:00:00,METAR ZSPD 090100Z 20008MPS CAVOK 21/18 Q1002 NOSIG,1,0.0,0,9999,0,0,0,
2026-04-09 00:30:00,METAR ZSPD 090030Z 20007MPS CAVOK 21/18 Q1002 NOSIG,1,0.0,0,9999,0,0,0,
2026-04-09 00:00:00,METAR ZSPD 090000Z 20007MPS CAVOK 20/18 Q1002 NOSIG,1,0.0,0,9999,0,0,0,
2026-04-08 23:30:00,METAR ZSPD 082330Z 18006MPS 9999 -SHRA NSC 19/18 Q1002 NOSIG,0,6.0,0,10000,0,0,0,RA
2026-04-08 23:00:00,METAR ZSPD 082300Z 18005MPS CAVOK 19/18 Q1002 NOSIG,1,0.0,0,9999,0,0,0,
2026-04-08 22:30:00,METAR ZSPD 082230Z 18006MPS CAVOK 19/18 Q1002 NOSIG,1,0.0,0,9999,0,0,0,
2026-04-08 22:00:00,METAR ZSPD 082200Z 18007MPS 9999 -SHRA FEW030CB 18/18 Q1002 RETS NOSIG,0,7.0,0,10000,1,0,0,"RA,TS"
2026-04-08 21:30:00,METAR ZSPD 082130Z 17008MPS 9999 -TSRA FEW030CB 18/17 Q1001 NOSIG,0,8.0,0,10000,1,0,0,RA
2026-04-08 21:00:00,METAR ZSPD 082100Z 18008MPS 9999 FEW013 18/17 Q1002 BECMG TL2150 TSRA FEW030CB,0,8.0,0,10000,1,0,0,"RA,TS"
2026-04-08 20:30:00,METAR ZSPD 082030Z 17008MPS 9999 SCT013 18/17 Q1002 NOSIG,0,8.0,0,10000,0,0,0,
2026-04-08 20:00:00,METAR ZSPD 082000Z 17008MPS 9999 BKN013 18/16 Q1003 BECMG TL2050 SCT013 BKN040,0,8.0,0,10000,0,0,0,
2026-04-08 19:30:00,METAR ZSPD 081930Z 17010MPS 9999 BKN013 18/16 Q1003 NOSIG,0,10.0,0,10000,0,0,0,
2026-04-08 19:00:00,METAR ZSPD 081900Z 18010MPS 9999 BKN015 18/16 Q1004 BECMG TL1950 BKN013,0,10.0,0,10000,0,0,0,
2026-04-08 18:30:00,METAR ZSPD 081830Z 18011MPS 9999 SCT016 18/16 Q1005 NOSIG,0,11.0,0,10000,0,0,0,
2026-04-08 18:00:00,METAR ZSPD 081800Z 18010G15MPS 9999 SCT016 18/15 Q1005 NOSIG,0,10.0,1,10000,0,0,0,
2026-04-08 17:30:00,METAR ZSPD 081730Z 17010G15MPS 9999 SCT016 18/15 Q1006 NOSIG,0,10.0,1,10000,0,0,0,
2026-04-08 17:00:00,METAR ZSPD 081700Z 17009MPS 9999 SCT020 17/15 Q1007 NOSIG,0,9.0,0,10000,0,0,0,
2026-04-08 16:30:00,METAR ZSPD 081630Z 17009MPS 9999 FEW020 17/14 Q1008 NOSIG,0,9.0,0,10000,0,0,0,
2026-04-08 16:00:00,METAR ZSPD 081600Z 17007MPS 9999 BKN020 17/14 Q1009 NOSIG,0,7.0,0,10000,0,0,0,
2026-04-08 15:30:00,METAR ZSPD 081530Z 17007MPS 9999 BKN021 16/13 Q1009 NOSIG,0,7.0,0,10000,0,0,0,
2026-04-08 15:00:00,METAR ZSPD 081500Z 17007MPS 9999 SCT026 16/13 Q1009 NOSIG,0,7.0,0,10000,0,0,0,
2026-04-08 14:30:00,METAR ZSPD 081430Z 17008MPS CAVOK 16/12 Q1010 NOSIG,1,0.0,0,9999,0,0,0,
2026-04-08 14:00:00,METAR ZSPD 081400Z 17009MPS CAVOK 16/11 Q1010 NOSIG,1,0.0,0,9999,0,0,0,
2026-04-08 13:30:00,METAR ZSPD 081330Z 16008MPS CAVOK 16/11 Q1010 NOSIG,1,0.0,0,9999,0,0,0,
2026-04-08 13:00:00,METAR ZSPD 081300Z 16008MPS CAVOK 16/10 Q1011 NOSIG,1,0.0,0,9999,0,0,0,
2026-04-08 12:30:00,METAR ZSPD 081230Z 15009MPS CAVOK 16/10 Q1011 NOSIG,1,0.0,0,9999,0,0,0,
2026-04-08 12:00:00,METAR ZSPD 081200Z 15007MPS CAVOK 16/11 Q1011 NOSIG,1,0.0,0,9999,0,0,0,
2026-04-08 11:30:00,METAR ZSPD 081130Z 15007MPS CAVOK 15/11 Q1011 NOSIG,1,0.0,0,9999,0,0,0,
2026-04-08 11:00:00,METAR ZSPD 081100Z 15009MPS CAVOK 15/11 Q1011 NOSIG,1,0.0,0,9999,0,0,0,
2026-04-08 10:30:00,METAR ZSPD 081030Z 15007MPS CAVOK 15/11 Q1011 NOSIG,1,0.0,0,9999,0,0,0,
2026-04-08 10:00:00,METAR ZSPD 081000Z 15008MPS CAVOK 15/10 Q1012 NOSIG,1,0.0,0,9999,0,0,0,
2026-04-08 09:30:00,METAR ZSPD 080930Z 15008MPS CAVOK 15/11 Q1012 NOSIG,1,0.0,0,9999,0,0,0,
2026-04-08 09:00:00,METAR ZSPD 080900Z 14008MPS CAVOK 15/10 Q1012 NOSIG,1,0.0,0,9999,0,0,0,
2026-04-08 08:30:00,METAR ZSPD 080830Z 14008MPS CAVOK 16/10 Q1013 NOSIG,1,0.0,0,9999,0,0,0,
2026-04-08 08:00:00,METAR ZSPD 080800Z 14008MPS CAVOK 16/09 Q1013 NOSIG,1,0.0,0,9999,0,0,0,
2026-04-08 07:30:00,METAR ZSPD 080730Z 14009MPS CAVOK 16/10 Q1013 NOSIG,1,0.0,0,9999,0,0,0,
2026-04-08 07:00:00,METAR ZSPD 080700Z 14008MPS CAVOK 17/10 Q1014 NOSIG,1,0.0,0,9999,0,0,0,
2026-04-08 06:30:00,METAR ZSPD 080630Z 13009MPS CAVOK 16/10 Q1015 NOSIG,1,0.0,0,9999,0,0,0,
2026-04-08 06:00:00,METAR ZSPD 080600Z 14009MPS CAVOK 16/10 Q1015 NOSIG,1,0.0,0,9999,0,0,0,
2026-04-08 05:30:00,METAR ZSPD 080530Z 14009MPS CAVOK 16/09 Q1016 NOSIG,1,0.0,0,9999,0,0,0,
2026-04-08 05:00:00,METAR ZSPD 080500Z 14008MPS CAVOK 17/10 Q1016 NOSIG,1,0.0,0,9999,0,0,0,
2026-04-08 04:30:00,METAR ZSPD 080430Z 15008MPS CAVOK 17/09 Q1017 NOSIG,1,0.0,0,9999,0,0,0,
2026-04-08 04:00:00,METAR ZSPD 080400Z 14008MPS CAVOK 17/09 Q1017 NOSIG,1,0.0,0,9999,0,0,0,
2026-04-08 03:30:00,METAR ZSPD 080330Z 14007MPS CAVOK 18/10 Q1018 NOSIG,1,0.0,0,9999,0,0,0,
2026-04-08 03:00:00,METAR ZSPD 080300Z 14007MPS CAVOK 17/09 Q1018 NOSIG,1,0.0,0,9999,0,0,0,
2026-04-08 02:30:00,METAR ZSPD 080230Z 14007MPS 110V170 CAVOK 17/10 Q1019 NOSIG,1,0.0,0,9999,0,0,0,
2026-04-08 02:00:00,METAR ZSPD 080200Z 12007MPS CAVOK 16/09 Q1019 NOSIG,1,0.0,0,9999,0,0,0,
2026-04-08 01:30:00,METAR ZSPD 080130Z 14007MPS CAVOK 15/08 Q1019 NOSIG,1,0.0,0,9999,0,0,0,
2026-04-08 01:00:00,METAR ZSPD 080100Z 13006MPS CAVOK 15/07 Q1019 NOSIG,1,0.0,0,9999,0,0,0,
2026-04-08 00:30:00,METAR ZSPD 080030Z 13008MPS CAVOK 14/07 Q1019 NOSIG,1,0.0,0,9999,0,0,0,
2026-04-08 00:00:00,METAR ZSPD 080000Z 12006MPS CAVOK 14/07 Q1019 NOSIG,1,0.0,0,9999,0,0,0,
2026-04-07 23:30:00,METAR ZSPD 072330Z 12005MPS CAVOK 13/07 Q1019 NOSIG,1,0.0,0,9999,0,0,0,
2026-04-07 23:00:00,METAR ZSPD 072300Z 12005MPS 090V150 CAVOK 12/06 Q1019 NOSIG,1,0.0,0,9999,0,0,0,
2026-04-07 22:30:00,METAR ZSPD 072230Z 13004MPS CAVOK 11/05 Q1019 NOSIG,1,0.0,0,9999,0,0,0,
2026-04-07 22:00:00,METAR ZSPD 072200Z 13004MPS CAVOK 11/05 Q1019 NOSIG,1,0.0,0,9999,0,0,0,
2026-04-07 21:30:00,METAR ZSPD 072130Z 12003MPS CAVOK 11/05 Q1019 NOSIG,1,0.0,0,9999,0,0,0,
2026-04-07 21:00:00,METAR ZSPD 072100Z 13003MPS CAVOK 11/05 Q1018 NOSIG,1,0.0,0,9999,0,0,0,
2026-04-07 20:30:00,METAR ZSPD 072030Z 13003MPS CAVOK 11/05 Q1018 NOSIG,1,0.0,0,9999,0,0,0,
2026-04-07 20:00:00,METAR ZSPD 072000Z 12003MPS CAVOK 11/05 Q1019 NOSIG,1,0.0,0,9999,0,0,0,
2026-04-07 19:30:00,METAR ZSPD 071930Z 11003MPS CAVOK 11/05 Q1019 NOSIG,1,0.0,0,9999,0,0,0,
2026-04-07 19:00:00,METAR ZSPD 071900Z 12003MPS CAVOK 11/05 Q1019 NOSIG,1,0.0,0,9999,0,0,0,
2026-04-07 18:30:00,METAR ZSPD 071830Z 12003MPS CAVOK 11/04 Q1019 NOSIG,1,0.0,0,9999,0,0,0,
2026-04-07 18:00:00,METAR ZSPD 071800Z 11004MPS CAVOK 11/04 Q1019 NOSIG,1,0.0,0,9999,0,0,0,
2026-04-07 17:30:00,METAR ZSPD 071730Z 12003MPS CAVOK 11/05 Q1020 NOSIG,1,0.0,0,9999,0,0,0,
2026-04-07 17:00:00,METAR ZSPD 071700Z 11004MPS CAVOK 11/05 Q1020 NOSIG,1,0.0,0,9999,0,0,0,
2026-04-07 16:30:00,METAR ZSPD 071630Z 11003MPS CAVOK 11/05 Q1020 NOSIG,1,0.0,0,9999,0,0,0,
2026-04-07 16:00:00,METAR ZSPD 071600Z 11004MPS CAVOK 12/05 Q1020 NOSIG,1,0.0,0,9999,0,0,0,
2026-04-07 15:30:00,METAR ZSPD 071530Z 12004MPS CAVOK 12/05 Q1020 NOSIG,1,0.0,0,9999,0,0,0,
2026-04-07 15:00:00,METAR ZSPD 071500Z 10004MPS CAVOK 12/05 Q1020 NOSIG,1,0.0,0,9999,0,0,0,
2026-04-07 14:30:00,METAR ZSPD 071430Z 11003MPS CAVOK 12/06 Q1020 NOSIG,1,0.0,0,9999,0,0,0,
2026-04-07 14:00:00,METAR ZSPD 071400Z 09005MPS CAVOK 12/06 Q1021 NOSIG,1,0.0,0,9999,0,0,0,
2026-04-07 13:30:00,METAR ZSPD 071330Z 09005MPS CAVOK 13/06 Q1021 NOSIG,1,0.0,0,9999,0,0,0,
2026-04-07 13:00:00,METAR ZSPD 071300Z 09005MPS CAVOK 13/06 Q1021 NOSIG,1,0.0,0,9999,0,0,0,
2026-04-07 12:30:00,METAR ZSPD 071230Z 09004MPS CAVOK 13/05 Q1021 NOSIG,1,0.0,0,9999,0,0,0,
2026-04-07 12:00:00,METAR ZSPD 071200Z 09005MPS CAVOK 13/06 Q1021 NOSIG,1,0.0,0,9999,0,0,0,
2026-04-07 11:30:00,METAR ZSPD 071130Z 07004MPS CAVOK 13/05 Q1020 NOSIG,1,0.0,0,9999,0,0,0,
2026-04-07 11:00:00,METAR ZSPD 071100Z 07004MPS CAVOK 13/05 Q1020 NOSIG,1,0.0,0,9999,0,0,0,
2026-04-07 10:30:00,METAR ZSPD 071030Z 08004MPS 040V110 CAVOK 13/05 Q1020 NOSIG,1,0.0,0,9999,0,0,0,
2026-04-07 10:00:00,METAR ZSPD 071000Z 07005MPS 030V100 CAVOK 13/05 Q1020 NOSIG,1,0.0,0,9999,0,0,0,
2026-04-07 09:30:00,METAR ZSPD 070930Z 07005MPS 030V100 CAVOK 14/05 Q1020 NOSIG,1,0.0,0,9999,0,0,0,
2026-04-07 09:00:00,METAR ZSPD 070900Z 06005MPS 030V090 CAVOK 14/05 Q1019 NOSIG,1,0.0,0,9999,0,0,0,
2026-04-07 08:30:00,METAR ZSPD 070830Z 05006MPS 020V080 CAVOK 14/06 Q1019 NOSIG,1,0.0,0,9999,0,0,0,
2026-04-07 08:00:00,METAR ZSPD 070800Z 06006MPS 010V090 CAVOK 14/05 Q1019 NOSIG,1,0.0,0,9999,0,0,0,
2026-04-07 07:30:00,METAR ZSPD 070730Z 06006MPS 020V090 CAVOK 15/05 Q1019 NOSIG,1,0.0,0,9999,0,0,0,
2026-04-07 07:00:00,METAR ZSPD 070700Z 06005MPS 030V090 CAVOK 15/06 Q1019 NOSIG,1,0.0,0,9999,0,0,0,
2026-04-07 06:30:00,METAR ZSPD 070630Z 05006MPS 010V080 CAVOK 16/06 Q1019 NOSIG,1,0.0,0,9999,0,0,0,
2026-04-07 06:00:00,METAR ZSPD 070600Z 06006MPS 030V090 CAVOK 16/06 Q1019 NOSIG,1,0.0,0,9999,0,0,0,
2026-04-07 05:30:00,METAR ZSPD 070530Z 06006MPS 360V090 CAVOK 17/05 Q1019 NOSIG,1,0.0,0,9999,0,0,0,
2026-04-07 05:00:00,METAR ZSPD 070500Z 07006MPS 040V100 CAVOK 17/05 Q1020 NOSIG,1,0.0,0,9999,0,0,0,
2026-04-07 04:30:00,METAR ZSPD 070430Z 05006MPS 010V100 CAVOK 17/05 Q1020 NOSIG,1,0.0,0,9999,0,0,0,
2026-04-07 04:00:00,METAR ZSPD 070400Z 04006MPS 020V080 CAVOK 17/05 Q1020 NOSIG,1,0.0,0,9999,0,0,0,
2026-04-07 03:30:00,METAR ZSPD 070330Z 05007MPS 020V080 CAVOK 17/04 Q1020 NOSIG,1,0.0,0,9999,0,0,0,
2026-04-07 03:00:00,METAR ZSPD 070300Z 06006MPS 010V090 CAVOK 17/05 Q1019 NOSIG,1,0.0,0,9999,0,0,0,
2026-04-07 02:30:00,METAR ZSPD 070230Z 05007G12MPS CAVOK 16/05 Q1020 NOSIG,1,0.0,0,9999,0,0,0,
2026-04-07 02:00:00,METAR ZSPD 070200Z 05007G13MPS CAVOK 16/05 Q1019 NOSIG,1,0.0,0,9999,0,0,0,
2026-04-07 01:30:00,METAR ZSPD 070130Z 05008MPS 010V080 CAVOK 16/04 Q1019 NOSIG,1,0.0,0,9999,0,0,0,
2026-04-07 01:00:00,METAR ZSPD 070100Z 05007MPS CAVOK 15/05 Q1018 NOSIG,1,0.0,0,9999,0,0,0,
2026-04-07 00:30:00,METAR ZSPD 070030Z 04008MPS 010V070 CAVOK 15/06 Q1018 NOSIG,1,0.0,0,9999,0,0,0,
2026-04-07 00:00:00,METAR ZSPD 070000Z 04007MPS CAVOK 14/07 Q1017 NOSIG,1,0.0,0,9999,0,0,0,
2026-04-06 23:30:00,METAR ZSPD 062330Z 04007MPS 010V070 CAVOK 14/06 Q1017 NOSIG,1,0.0,0,9999,0,0,0,
2026-04-06 23:00:00,METAR ZSPD 062300Z 03007MPS CAVOK 13/07 Q1016 NOSIG,1,0.0,0,9999,0,0,0,
2026-04-06 22:30:00,METAR ZSPD 062230Z 03006MPS CAVOK 13/07 Q1016 NOSIG,1,0.0,0,9999,0,0,0,
2026-04-06 22:00:00,METAR ZSPD 062200Z 03005MPS CAVOK 12/07 Q1015 NOSIG,1,0.0,0,9999,0,0,0,
2026-04-06 21:30:00,METAR ZSPD 062130Z 03005MPS CAVOK 12/07 Q1015 NOSIG,1,0.0,0,9999,0,0,0,
2026-04-06 21:00:00,METAR ZSPD 062100Z 04005MPS CAVOK 12/07 Q1014 NOSIG,1,0.0,0,9999,0,0,0,
2026-04-06 20:30:00,METAR ZSPD 062030Z 03005MPS CAVOK 13/07 Q1014 NOSIG,1,0.0,0,9999,0,0,0,
2026-04-06 20:00:00,METAR ZSPD 062000Z 05004MPS 010V070 CAVOK 13/08 Q1014 NOSIG,1,0.0,0,9999,0,0,0,
2026-04-06 19:30:00,METAR ZSPD 061930Z 05005MPS 360V070 CAVOK 13/08 Q1013 NOSIG,1,0.0,0,9999,0,0,0,
2026-04-06 19:00:00,METAR ZSPD 061900Z 05006MPS CAVOK 13/09 Q1013 NOSIG,1,0.0,0,9999,0,0,0,
2026-04-06 18:30:00,METAR ZSPD 061830Z 04008MPS 9999 FEW015 13/09 Q1012 NOSIG,0,8.0,0,10000,0,0,0,
2026-04-06 18:00:00,METAR ZSPD 061800Z 04007MPS 9999 FEW015 13/09 Q1013 NOSIG,0,7.0,0,10000,0,0,0,
2026-04-06 17:30:00,METAR ZSPD 061730Z 05008MPS 9999 BKN015 13/09 Q1013 NOSIG,0,8.0,0,10000,0,0,0,
2026-04-06 17:00:00,METAR ZSPD 061700Z 04009MPS 9999 BKN013 13/09 Q1013 BECMG TL1730 BKN015,0,9.0,0,10000,0,0,0,
2026-04-06 16:30:00,METAR ZSPD 061630Z 03008MPS 9999 BKN013 13/10 Q1013 NOSIG,0,8.0,0,10000,0,0,0,
2026-04-06 16:00:00,METAR ZSPD 061600Z 03008MPS 9999 BKN008 13/11 Q1013 BECMG TL1630 BKN012,0,8.0,0,10000,0,0,0,
2026-04-06 15:30:00,METAR ZSPD 061530Z 02009MPS 9999 BKN008 13/11 Q1013 NOSIG,0,9.0,0,10000,0,0,0,
2026-04-06 15:00:00,METAR ZSPD 061500Z 03009MPS 9999 BKN008 14/12 Q1012 BECMG TL1630 BKN010,0,9.0,0,10000,0,0,0,
2026-04-06 14:30:00,METAR ZSPD 061430Z 02009MPS 9999 BKN006 14/12 Q1012 NOSIG,0,9.0,0,10000,0,0,0,
2026-04-06 14:00:00,METAR ZSPD 061400Z 01009MPS 9999 BKN006 14/13 Q1012 NOSIG,0,9.0,0,10000,0,0,0,
2026-04-06 13:30:00,METAR ZSPD 061330Z 01009MPS 8000 BKN007 14/14 Q1012 NOSIG,0,9.0,0,8000,0,0,0,
2026-04-06 13:00:00,METAR ZSPD 061300Z 01010MPS 8000 BKN010 14/13 Q1011 BECMG TL1330 BKN007,0,10.0,0,8000,0,0,0,
2026-04-06 12:30:00,METAR ZSPD 061230Z 01009MPS 7000 BKN010 14/13 Q1010 NOSIG,0,9.0,0,7000,0,0,0,
2026-04-06 12:00:00,METAR ZSPD 061200Z 36009MPS 6000 SCT010 14/13 Q1009 BECMG TL1230 BKN010,0,9.0,0,6000,0,0,0,
2026-04-06 11:30:00,METAR ZSPD 061130Z 36010MPS 6000 FEW010 15/13 Q1009 NOSIG,0,10.0,0,6000,0,0,0,
2026-04-06 11:00:00,METAR ZSPD 061100Z 36010MPS 6000 NSC 16/13 Q1009 NOSIG,0,10.0,0,6000,0,0,0,
2026-04-06 10:30:00,METAR ZSPD 061030Z 01010MPS 6000 NSC 17/14 Q1008 NOSIG,0,10.0,0,6000,0,0,0,
2026-04-06 10:00:00,METAR ZSPD 061000Z 03009MPS 6000 NSC 19/15 Q1007 NOSIG,0,9.0,0,6000,0,0,0,
2026-04-06 09:30:00,METAR ZSPD 060930Z 03009MPS 7000 NSC 20/15 Q1007 NOSIG,0,9.0,0,7000,0,0,0,
2026-04-06 09:00:00,METAR ZSPD 060900Z 03007MPS CAVOK 22/15 Q1007 NOSIG,1,0.0,0,9999,0,0,0,
2026-04-06 08:30:00,METAR ZSPD 060830Z 03007MPS CAVOK 24/16 Q1006 NOSIG,1,0.0,0,9999,0,0,0,
2026-04-06 08:00:00,METAR ZSPD 060800Z 03006MPS CAVOK 25/16 Q1006 NOSIG,1,0.0,0,9999,0,0,0,
2026-04-06 07:30:00,METAR ZSPD 060730Z 05004MPS 010V080 CAVOK 25/16 Q1006 NOSIG,1,0.0,0,9999,0,0,0,
2026-04-06 07:00:00,METAR ZSPD 060700Z 03005MPS CAVOK 25/15 Q1006 NOSIG,1,0.0,0,9999,0,0,0,
2026-04-06 06:30:00,METAR ZSPD 060630Z 02005MPS CAVOK 26/16 Q1006 NOSIG,1,0.0,0,9999,0,0,0,
2026-04-06 06:00:00,METAR ZSPD 060600Z 02004MPS 330V050 CAVOK 27/16 Q1006 NOSIG,1,0.0,0,9999,0,0,0,
2026-04-06 05:30:00,METAR ZSPD 060530Z 27002MPS 230V320 CAVOK 26/15 Q1006 NOSIG,1,0.0,0,9999,0,0,0,
2026-04-06 05:00:00,METAR ZSPD 060500Z 22003MPS 160V250 CAVOK 27/16 Q1006 NOSIG,1,0.0,0,9999,0,0,0,
2026-04-06 04:30:00,METAR ZSPD 060430Z 23003MPS CAVOK 26/16 Q1006 NOSIG,1,0.0,0,9999,0,0,0,
2026-04-06 04:00:00,METAR ZSPD 060400Z 22004MPS 190V250 CAVOK 25/16 Q1007 BECMG TL0530 32005MPS,1,0.0,0,9999,0,0,0,
2026-04-06 03:30:00,METAR ZSPD 060330Z 22005MPS CAVOK 25/16 Q1007 NOSIG,1,0.0,0,9999,0,0,0,
2026-04-06 03:00:00,METAR ZSPD 060300Z 19006MPS CAVOK 24/16 Q1008 BECMG TL0430 33005MPS,1,0.0,0,9999,0,0,0,
2026-04-06 02:30:00,METAR ZSPD 060230Z 19004MPS 170V230 CAVOK 23/16 Q1008 NOSIG,1,0.0,0,9999,0,0,0,
2026-04-06 02:00:00,METAR ZSPD 060200Z 21003MPS 170V240 CAVOK 23/16 Q1008 NOSIG,1,0.0,0,9999,0,0,0,
2026-04-06 01:30:00,METAR ZSPD 060130Z 20003MPS 160V240 CAVOK 22/16 Q1008 NOSIG,1,0.0,0,9999,0,0,0,
2026-04-06 01:00:00,METAR ZSPD 060100Z 17005MPS CAVOK 20/16 Q1008 NOSIG,1,0.0,0,9999,0,0,0,
2026-04-06 00:30:00,METAR ZSPD 060030Z 16004MPS CAVOK 20/15 Q1007 NOSIG,1,0.0,0,9999,0,0,0,
2026-04-06 00:00:00,METAR ZSPD 060000Z 16002MPS CAVOK 19/15 Q1007 NOSIG,1,0.0,0,9999,0,0,0,
2026-04-05 23:30:00,METAR ZSPD 052330Z VRB01MPS CAVOK 19/14 Q1007 NOSIG,1,0.0,0,9999,0,0,0,
2026-04-05 23:00:00,METAR ZSPD 052300Z VRB01MPS CAVOK 18/15 Q1007 NOSIG,1,0.0,0,9999,0,0,0,
2026-04-05 22:30:00,METAR ZSPD 052230Z 21003MPS CAVOK 18/14 Q1007 NOSIG,1,0.0,0,9999,0,0,0,
2026-04-05 22:00:00,METAR ZSPD 052200Z 21003MPS 180V240 CAVOK 18/14 Q1007 NOSIG,1,0.0,0,9999,0,0,0,
2026-04-05 21:30:00,METAR ZSPD 052130Z 19005MPS CAVOK 17/14 Q1006 NOSIG,1,0.0,0,9999,0,0,0,
2026-04-05 21:00:00,METAR ZSPD 052100Z 18005MPS CAVOK 17/14 Q1007 NOSIG,1,0.0,0,9999,0,0,0,
2026-04-05 20:30:00,METAR ZSPD 052030Z 18004MPS CAVOK 18/14 Q1007 NOSIG,1,0.0,0,9999,0,0,0,
2026-04-05 20:00:00,METAR ZSPD 052000Z 20003MPS 170V230 CAVOK 18/14 Q1007 NOSIG,1,0.0,0,9999,0,0,0,
2026-04-05 19:30:00,METAR ZSPD 051930Z 21004MPS 180V240 CAVOK 18/14 Q1007 NOSIG,1,0.0,0,9999,0,0,0,
2026-04-05 19:00:00,METAR ZSPD 051900Z 18003MPS CAVOK 17/14 Q1007 NOSIG,1,0.0,0,9999,0,0,0,
2026-04-05 18:30:00,METAR ZSPD 051830Z 18004MPS CAVOK 17/14 Q1007 NOSIG,1,0.0,0,9999,0,0,0,
2026-04-05 18:00:00,METAR ZSPD 051800Z 18004MPS CAVOK 17/14 Q1008 NOSIG,1,0.0,0,9999,0,0,0,
2026-04-05 17:30:00,METAR ZSPD 051730Z 16003MPS CAVOK 17/14 Q1008 NOSIG,1,0.0,0,9999,0,0,0,
2026-04-05 17:00:00,METAR ZSPD 051700Z 17002MPS CAVOK 17/14 Q1008 NOSIG,1,0.0,0,9999,0,0,0,
2026-04-05 16:30:00,METAR ZSPD 051630Z 18004MPS CAVOK 18/14 Q1008 NOSIG,1,0.0,0,9999,0,0,0,
2026-04-05 16:00:00,METAR ZSPD 051600Z 18005MPS CAVOK 18/14 Q1008 NOSIG,1,0.0,0,9999,0,0,0,
2026-04-05 15:00:00,METAR ZSPD 051500Z 17004MPS CAVOK 18/13 Q1008 NOSIG,1,0.0,0,9999,0,0,0,
2026-04-05 13:00:00,METAR ZSPD 051300Z 17004MPS CAVOK 18/13 Q1008 NOSIG,1,0.0,0,9999,0,0,0,
2026-04-05 12:30:00,METAR ZSPD 051230Z 18004MPS CAVOK 19/13 Q1008 NOSIG,1,0.0,0,9999,0,0,0,
2026-04-05 12:00:00,METAR ZSPD 051200Z 18005MPS CAVOK 19/14 Q1008 NOSIG,1,0.0,0,9999,0,0,0,
2026-04-05 11:30:00,METAR ZSPD 051130Z 18004MPS CAVOK 19/14 Q1007 NOSIG,1,0.0,0,9999,0,0,0,
2026-04-05 11:00:00,METAR ZSPD 051100Z 17004MPS CAVOK 19/15 Q1007 NOSIG,1,0.0,0,9999,0,0,0,
2026-04-05 10:30:00,METAR ZSPD 051030Z 17004MPS CAVOK 20/15 Q1007 NOSIG,1,0.0,0,9999,0,0,0,
2026-04-05 10:00:00,METAR ZSPD 051000Z 17004MPS CAVOK 21/15 Q1007 NOSIG,1,0.0,0,9999,0,0,0,
2026-04-05 09:30:00,METAR ZSPD 050930Z 18004MPS CAVOK 22/15 Q1007 NOSIG,1,0.0,0,9999,0,0,0,
2026-04-05 09:00:00,METAR ZSPD 050900Z 17006MPS CAVOK 22/15 Q1007 NOSIG,1,0.0,0,9999,0,0,0,
2026-04-05 08:30:00,METAR ZSPD 050830Z 18006MPS CAVOK 24/15 Q1007 NOSIG,1,0.0,0,9999,0,0,0,
2026-04-05 08:00:00,METAR ZSPD 050800Z 17006MPS CAVOK 24/15 Q1007 NOSIG,1,0.0,0,9999,0,0,0,
2026-04-05 07:30:00,METAR ZSPD 050730Z 20006MPS CAVOK 24/13 Q1007 NOSIG,1,0.0,0,9999,0,0,0,
2026-04-05 07:00:00,METAR ZSPD 050700Z 20006MPS CAVOK 24/14 Q1007 NOSIG,1,0.0,0,9999,0,0,0,
2026-04-05 06:30:00,METAR ZSPD 050630Z 19006MPS CAVOK 24/15 Q1007 NOSIG,1,0.0,0,9999,0,0,0,
2026-04-05 06:00:00,METAR ZSPD 050600Z 17006MPS 140V210 CAVOK 24/15 Q1007 NOSIG,1,0.0,0,9999,0,0,0,
2026-04-05 05:30:00,METAR ZSPD 050530Z 19006MPS CAVOK 24/15 Q1007 NOSIG,1,0.0,0,9999,0,0,0,
2026-04-05 05:00:00,METAR ZSPD 050500Z 21006MPS CAVOK 23/15 Q1007 NOSIG,1,0.0,0,9999,0,0,0,
2026-04-05 04:30:00,METAR ZSPD 050430Z 20006MPS 170V230 CAVOK 23/15 Q1008 NOSIG,1,0.0,0,9999,0,0,0,
2026-04-05 04:00:00,METAR ZSPD 050400Z 19006MPS 160V220 CAVOK 23/16 Q1008 NOSIG,1,0.0,0,9999,0,0,0,
2026-04-05 03:30:00,METAR ZSPD 050330Z 18006MPS 150V210 CAVOK 22/16 Q1009 NOSIG,1,0.0,0,9999,0,0,0,
2026-04-05 03:00:00,METAR ZSPD 050300Z 20006MPS 7000 NSC 21/15 Q1009 NOSIG,0,6.0,0,7000,0,0,0,
2026-04-05 02:30:00,METAR ZSPD 050230Z 19006MPS 7000 NSC 21/15 Q1009 NOSIG,0,6.0,0,7000,0,0,0,
2026-04-05 02:00:00,METAR ZSPD 050200Z 21006MPS 7000 NSC 20/15 Q1009 NOSIG,0,6.0,0,7000,0,0,0,
2026-04-05 01:30:00,METAR ZSPD 050130Z 19006MPS 150V220 7000 NSC 20/15 Q1009 NOSIG,0,6.0,0,7000,0,0,0,
2026-04-05 01:00:00,METAR ZSPD 050100Z 19006MPS 160V230 5000 BR NSC 19/15 Q1010 NOSIG,0,6.0,0,5000,0,0,1,BR
2026-04-05 00:30:00,METAR ZSPD 050030Z 20006MPS 5000 BR NSC 18/15 Q1010 NOSIG,0,6.0,0,5000,0,0,1,BR
2026-04-05 00:00:00,METAR ZSPD 050000Z 17005MPS 4000 BR NSC 17/14 Q1009 NOSIG,0,5.0,0,4000,0,0,1,BR
2026-04-04 23:30:00,METAR ZSPD 042330Z 17003MPS 3000 BR NSC 15/15 Q1009 NOSIG,0,3.0,0,3000,0,0,1,BR
2026-04-04 23:00:00,METAR ZSPD 042300Z 16002MPS 3000 BR NSC 14/14 Q1009 NOSIG,0,2.0,0,3000,0,0,1,BR
2026-04-04 22:30:00,METAR ZSPD 042230Z 14002MPS 3000 BR NSC 13/13 Q1009 NOSIG,0,2.0,0,3000,0,0,1,BR
2026-04-04 22:00:00,METAR ZSPD 042200Z VRB01MPS 3000 BR NSC 12/12 Q1008 NOSIG,0,1.0,0,3000,0,0,1,BR
2026-04-04 21:30:00,METAR ZSPD 042130Z 17001MPS 5000 BR NSC 13/13 Q1008 NOSIG,0,1.0,0,5000,0,0,1,BR
2026-04-04 21:00:00,METAR ZSPD 042100Z 14003MPS 090V150 6000 NSC 13/13 Q1008 NOSIG,0,3.0,0,6000,0,0,0,
2026-04-04 20:30:00,METAR ZSPD 042030Z 13002MPS 6000 NSC 13/13 Q1008 NOSIG,0,2.0,0,6000,0,0,0,
2026-04-04 20:00:00,METAR ZSPD 042000Z 14003MPS 6000 NSC 13/13 Q1008 NOSIG,0,3.0,0,6000,0,0,0,
2026-04-04 19:30:00,METAR ZSPD 041930Z 13003MPS 070V210 7000 NSC 13/13 Q1009 NOSIG,0,3.0,0,7000,0,0,0,
2026-04-04 19:00:00,METAR ZSPD 041900Z 12004MPS CAVOK 13/12 Q1009 NOSIG,1,0.0,0,9999,0,0,0,
2026-04-04 18:30:00,METAR ZSPD 041830Z 13004MPS 100V190 CAVOK 13/13 Q1009 NOSIG,1,0.0,0,9999,0,0,0,
2026-04-04 18:00:00,METAR ZSPD 041800Z 13003MPS CAVOK 13/13 Q1010 NOSIG,1,0.0,0,9999,0,0,0,
2026-04-04 17:30:00,METAR ZSPD 041730Z 15003MPS 120V190 CAVOK 13/13 Q1010 NOSIG,1,0.0,0,9999,0,0,0,
2026-04-04 17:00:00,METAR ZSPD 041700Z 14004MPS CAVOK 13/11 Q1011 NOSIG,1,0.0,0,9999,0,0,0,
2026-04-04 16:30:00,METAR ZSPD 041630Z 14004MPS 120V180 9999 BKN011 BKN040 13/11 Q1011 NOSIG,0,4.0,0,10000,0,0,0,
2026-04-04 16:00:00,METAR ZSPD 041600Z 14004MPS 110V170 9999 BKN009 BKN040 13/11 Q1011 BECMG TL1640 BKN010,0,4.0,0,10000,0,0,0,
2026-04-04 15:30:00,METAR ZSPD 041530Z 14005MPS 120V190 9999 BKN009 BKN040 13/11 Q1011 NOSIG,0,5.0,0,10000,0,0,0,
2026-04-04 15:00:00,METAR ZSPD 041500Z 14005MPS 100V170 9999 BKN009 BKN040 13/11 Q1011 NOSIG,0,5.0,0,10000,0,0,0,
2026-04-04 14:30:00,METAR ZSPD 041430Z 11004MPS 9999 BKN010 BKN040 13/11 Q1011 NOSIG,0,4.0,0,10000,0,0,0,
2026-04-04 14:00:00,METAR ZSPD 041400Z 09005MPS 9999 BKN010 BKN040 13/11 Q1011 BECMG TL1510 BKN009,0,5.0,0,10000,0,0,0,
2026-04-04 13:30:00,METAR ZSPD 041330Z 08005MPS 9999 BKN012 BKN040 14/11 Q1010 NOSIG,0,5.0,0,10000,0,0,0,
2026-04-04 13:00:00,METAR ZSPD 041300Z 08004MPS 9999 BKN012 BKN040 14/11 Q1011 NOSIG,0,4.0,0,10000,0,0,0,
2026-04-04 12:30:00,METAR ZSPD 041230Z 08005MPS 9999 BKN012 BKN040 14/11 Q1010 NOSIG,0,5.0,0,10000,0,0,0,
2026-04-04 12:00:00,METAR ZSPD 041200Z 09005MPS 9999 BKN012 BKN040 14/11 Q1010 BECMG TL1310 SCT012 BKN040,0,5.0,0,10000,0,0,0,
2026-04-04 11:30:00,METAR ZSPD 041130Z 08006MPS 050V110 9999 BKN040 15/12 Q1010 NOSIG,0,6.0,0,10000,0,0,0,
2026-04-04 11:00:00,METAR ZSPD 041100Z 09006MPS 050V110 9999 BKN040 15/12 Q1009 BECMG TL1230 15004MPS,0,6.0,0,10000,0,0,0,
2026-04-04 10:30:00,METAR ZSPD 041030Z 09005MPS 050V110 9999 BKN040 15/12 Q1009 NOSIG,0,5.0,0,10000,0,0,0,
2026-04-04 10:00:00,METAR ZSPD 041000Z 08005MPS 020V100 9999 BKN040 16/12 Q1009 NOSIG,0,5.0,0,10000,0,0,0,
2026-04-04 09:30:00,METAR ZSPD 040930Z 06004MPS 010V090 9999 SCT033 17/12 Q1008 NOSIG,0,4.0,0,10000,0,0,0,
2026-04-04 09:00:00,METAR ZSPD 040900Z 05004MPS 010V090 9999 SCT033 17/12 Q1008 NOSIG,0,4.0,0,10000,0,0,0,
2026-04-04 08:30:00,METAR ZSPD 040830Z 08003MPS 030V120 9999 SCT033 18/13 Q1008 NOSIG,0,3.0,0,10000,0,0,0,
2026-04-04 08:00:00,METAR ZSPD 040800Z 05003MPS 360V090 9999 SCT033 18/13 Q1008 NOSIG,0,3.0,0,10000,0,0,0,
2026-04-04 07:30:00,METAR ZSPD 040730Z 06004MPS 020V080 9999 FEW033 18/13 Q1008 NOSIG,0,4.0,0,10000,0,0,0,
2026-04-04 07:00:00,METAR ZSPD 040700Z 07005MPS 8000 SCT033 18/13 Q1007 NOSIG,0,5.0,0,8000,0,0,0,
2026-04-04 06:30:00,METAR ZSPD 040630Z 05005MPS 020V090 7000 SCT033 19/14 Q1007 NOSIG,0,5.0,0,7000,0,0,0,
2026-04-04 06:00:00,METAR ZSPD 040600Z 04005MPS 360V070 6000 SCT033 19/14 Q1007 NOSIG,0,5.0,0,6000,0,0,0,
2026-04-04 05:30:00,METAR ZSPD 040530Z 03007MPS 350V050 5000 HZ SCT033 19/14 Q1007 NOSIG,0,7.0,0,5000,0,0,0,
2026-04-04 05:00:00,METAR ZSPD 040500Z 02008MPS 5000 HZ SCT033 20/14 Q1008 NOSIG,0,8.0,0,5000,0,0,0,
2026-04-04 04:30:00,METAR ZSPD 040430Z 01008MPS 5000 HZ SCT040 20/13 Q1008 NOSIG,0,8.0,0,5000,0,0,0,
2026-04-04 04:00:00,METAR ZSPD 040400Z 35008MPS 5000 BR BKN030 20/15 Q1008 NOSIG,0,8.0,0,5000,0,0,1,BR
2026-04-04 03:30:00,METAR ZSPD 040330Z 36007MPS 5000 BR BKN030 19/15 Q1008 NOSIG,0,7.0,0,5000,0,0,1,BR
2026-04-04 03:00:00,METAR ZSPD 040300Z 01005MPS 5000 BR BKN030 19/15 Q1008 NOSIG,0,5.0,0,5000,0,0,1,BR
2026-04-04 02:30:00,METAR ZSPD 040230Z 01007MPS 5000 BR BKN030 18/14 Q1009 NOSIG,0,7.0,0,5000,0,0,1,BR
2026-04-04 02:00:00,METAR ZSPD 040200Z 32006MPS 5000 HZ BKN020 20/13 Q1008 NOSIG,0,6.0,0,5000,0,0,0,
2026-04-04 01:30:00,METAR ZSPD 040130Z 31006MPS 5000 BR BKN020 19/14 Q1008 NOSIG,0,6.0,0,5000,0,0,1,BR
2026-04-04 01:00:00,METAR ZSPD 040100Z 31006MPS 280V340 5000 BR BKN020 19/14 Q1008 NOSIG,0,6.0,0,5000,0,0,1,BR
2026-04-04 00:30:00,METAR ZSPD 040030Z 30005MPS 270V330 5000 BR BKN020 18/14 Q1008 NOSIG,0,5.0,0,5000,0,0,1,BR
2026-04-04 00:00:00,METAR ZSPD 040000Z 31005MPS 270V340 5000 BR BKN020 18/14 Q1007 NOSIG,0,5.0,0,5000,0,0,1,BR
2026-04-03 23:30:00,METAR ZSPD 032330Z 29005MPS 5000 BR SCT026 17/13 Q1007 NOSIG,0,5.0,0,5000,0,0,1,BR
2026-04-03 23:00:00,METAR ZSPD 032300Z 29005MPS 5000 BR SCT026 16/13 Q1006 NOSIG,0,5.0,0,5000,0,0,1,BR
2026-04-03 22:30:00,METAR ZSPD 032230Z 28006MPS 5000 BR BKN026 16/13 Q1006 NOSIG,0,6.0,0,5000,0,0,1,BR
2026-04-03 22:00:00,METAR ZSPD 032200Z 30006MPS 5000 BR BKN020 16/13 Q1006 NOSIG,0,6.0,0,5000,0,0,1,BR
2026-04-03 21:30:00,METAR ZSPD 032130Z 30007MPS 8000 BKN020 16/12 Q1005 NOSIG,0,7.0,0,8000,0,0,0,
2026-04-03 21:00:00,METAR ZSPD 032100Z 31009MPS 8000 BKN020 16/12 Q1005 NOSIG,0,9.0,0,8000,0,0,0,
2026-04-03 20:30:00,METAR ZSPD 032030Z 31009MPS 8000 BKN020 16/12 Q1004 NOSIG,0,9.0,0,8000,0,0,0,
2026-04-03 20:00:00,METAR ZSPD 032000Z 29008MPS 9999 BKN020 16/12 Q1004 NOSIG,0,8.0,0,10000,0,0,0,
2026-04-03 19:30:00,METAR ZSPD 031930Z 30008G13MPS 9999 BKN020 16/12 Q1004 NOSIG,0,8.0,1,10000,0,0,0,
2026-04-03 19:00:00,METAR ZSPD 031900Z 29009MPS 9999 BKN020 16/12 Q1004 NOSIG,0,9.0,0,10000,0,0,0,
2026-04-03 18:30:00,METAR ZSPD 031830Z 28008MPS 9999 BKN020 16/13 Q1003 NOSIG,0,8.0,0,10000,0,0,0,
2026-04-03 18:00:00,METAR ZSPD 031800Z 29006MPS 9999 BKN020 16/13 Q1003 NOSIG,0,6.0,0,10000,0,0,0,
2026-04-03 17:30:00,METAR ZSPD 031730Z 28006MPS 9999 BKN020 16/13 Q1003 NOSIG,0,6.0,0,10000,0,0,0,
2026-04-03 17:00:00,METAR ZSPD 031700Z 29008MPS 9999 BKN020 16/13 Q1003 NOSIG,0,8.0,0,10000,0,0,0,
2026-04-03 16:51:00,SPECI ZSPD 031651Z 29008G13MPS 9999 BKN020 16/13 Q1003 NOSIG,0,8.0,1,10000,0,0,0,
2026-04-03 16:30:00,METAR ZSPD 031630Z 29009MPS 9999 BKN020 16/13 Q1003 NOSIG,0,9.0,0,10000,0,0,0,
2026-04-03 16:00:00,METAR ZSPD 031600Z 28007MPS 9999 BKN020 16/14 Q1003 NOSIG,0,7.0,0,10000,0,0,0,
2026-04-03 15:30:00,METAR ZSPD 031530Z 28007MPS 9999 -SHRA BKN015 16/15 Q1003 NOSIG,0,7.0,0,10000,0,0,0,RA
2026-04-03 15:00:00,METAR ZSPD 031500Z 28006MPS 9999 BKN015 16/16 Q1002 NOSIG,0,6.0,0,10000,0,0,0,
2026-04-03 14:30:00,METAR ZSPD 031430Z 28007MPS 9999 BKN015 16/16 Q1002 NOSIG,0,7.0,0,10000,0,0,0,
2026-04-03 14:00:00,METAR ZSPD 031400Z 27005MPS 9999 -SHRA BKN013 16/16 Q1002 BECMG TL1450 BKN015,0,5.0,0,10000,0,0,0,RA
2026-04-03 13:30:00,METAR ZSPD 031330Z 27006MPS 8000 -SHRA BKN011 16/16 Q1002 NOSIG,0,6.0,0,8000,0,0,0,RA
2026-04-03 13:00:00,METAR ZSPD 031300Z 27005MPS 6000 -SHRA BKN009 17/17 Q1002 BECMG TL1420 BKN011,0,5.0,0,6000,0,0,0,RA
2026-04-03 12:30:00,METAR ZSPD 031230Z 25003MPS 6000 -SHRA SCT004 16/16 Q1002 NOSIG,0,3.0,0,6000,0,0,0,RA
2026-04-03 12:00:00,METAR ZSPD 031200Z 25003MPS 6000 -SHRA BKN004 16/16 Q1001 BECMG TL1320 BKN005,0,3.0,0,6000,0,0,0,RA
2026-04-03 11:30:00,METAR ZSPD 031130Z 23003MPS 8000 -SHRA BKN004 16/16 Q1001 NOSIG,0,3.0,0,8000,0,0,0,RA
2026-04-03 11:00:00,METAR ZSPD 031100Z 21003MPS 8000 -SHRA BKN005 16/16 Q1001 BECMG TL1150 BKN004,0,3.0,0,8000,0,0,0,RA
2026-04-03 10:30:00,METAR ZSPD 031030Z 21003MPS 8000 -SHRA BKN006 17/17 Q1001 NOSIG,0,3.0,0,8000,0,0,0,RA
2026-04-03 10:00:00,METAR ZSPD 031000Z 19004MPS 8000 -SHRA BKN006 17/17 Q1001 NOSIG,0,4.0,0,8000,0,0,0,RA
2026-04-03 09:30:00,METAR ZSPD 030930Z 19004MPS 8000 -SHRA BKN006 17/17 Q1001 NOSIG,0,4.0,0,8000,0,0,0,RA
2026-04-03 09:00:00,METAR ZSPD 030900Z 19005MPS 8000 -SHRA BKN006 17/17 Q1001 NOSIG,0,5.0,0,8000,0,0,0,RA
2026-04-03 08:30:00,METAR ZSPD 030830Z 18005MPS 6000 -SHRA BKN006 16/16 Q1002 NOSIG,0,5.0,0,6000,0,0,0,RA
2026-04-03 08:00:00,METAR ZSPD 030800Z 17005MPS 8000 -SHRA BKN006 16/16 Q1002 NOSIG,0,5.0,0,8000,0,0,0,RA
2026-04-03 07:30:00,METAR ZSPD 030730Z 17005MPS 6000 -SHRA BKN006 16/16 Q1002 NOSIG,0,5.0,0,6000,0,0,0,RA
2026-04-03 07:00:00,METAR ZSPD 030700Z 17006MPS 6000 -SHRA BKN006 16/16 Q1003 NOSIG,0,6.0,0,6000,0,0,0,RA
2026-04-03 06:30:00,METAR ZSPD 030630Z 15005MPS 4000 -SHRA BR BKN006 15/15 Q1003 NOSIG,0,5.0,0,4000,0,0,1,"BR,RA"
2026-04-03 06:00:00,METAR ZSPD 030600Z 14009MPS 3000 -SHRA BR BKN006 15/15 Q1004 NOSIG,0,9.0,0,3000,0,0,1,"BR,RA"
2026-04-03 05:30:00,METAR ZSPD 030530Z 14009MPS 3000 -SHRA BR BKN006 15/15 Q1005 NOSIG,0,9.0,0,3000,0,0,1,"BR,RA"
2026-04-03 05:00:00,METAR ZSPD 030500Z 13010MPS 3000 -SHRA BR BKN006 15/15 Q1006 BECMG TL0540 2600,0,10.0,0,3000,0,0,1,"BR,RA"
2026-04-03 04:30:00,METAR ZSPD 030430Z 14009MPS 3000 -SHRA BR BKN006 14/14 Q1007 NOSIG,0,9.0,0,3000,0,0,1,"BR,RA"
2026-04-03 04:00:00,METAR ZSPD 030400Z 14008MPS 3000 -SHRA BR OVC015 14/14 Q1008 BECMG TL0430 BKN011,0,8.0,0,3000,0,0,1,"BR,RA"
2026-04-03 03:30:00,METAR ZSPD 030330Z 13009MPS 2700 -SHRA BR OVC020 13/12 Q1009 NOSIG,0,9.0,0,2700,0,0,1,"BR,RA"
2026-04-03 03:00:00,METAR ZSPD 030300Z 14009MPS 2700 -SHRA BR OVC026 14/12 Q1009 BECMG TL0420 3000,0,9.0,0,2700,0,0,1,"BR,RA"
2026-04-03 02:30:00,METAR ZSPD 030230Z 13009MPS 2700 -SHRA BR OVC033 14/12 Q1010 NOSIG,0,9.0,0,2700,0,0,1,"BR,RA"
2026-04-03 02:00:00,METAR ZSPD 030200Z 13008MPS 3000 -SHRA BR OVC033 14/12 Q1010 BECMG TL0230 2700,0,8.0,0,3000,0,0,1,"BR,RA"
2026-04-03 01:30:00,METAR ZSPD 030130Z 14008MPS 2800 -SHRA BR OVC033 15/13 Q1011 NOSIG,0,8.0,0,2800,0,0,1,"BR,RA"
2026-04-03 01:00:00,METAR ZSPD 030100Z 14007MPS 2800 -SHRA BR NSC 15/13 Q1011 BECMG TL0150 3000,0,7.0,0,2800,0,0,1,"BR,RA"
2026-04-03 00:30:00,METAR ZSPD 030030Z 14006MPS 2500 -SHRA BR FEW016 15/14 Q1011 NOSIG,0,6.0,0,2500,0,0,1,"BR,RA"
2026-04-03 00:00:00,METAR ZSPD 030000Z 15005MPS 3000 -SHRA BR FEW016 15/15 Q1012 BECMG TL0030 2500,0,5.0,0,3000,0,0,1,"BR,RA"
2026-04-02 23:30:00,METAR ZSPD 022330Z 15006MPS 3500 -SHRA BR SCT016 15/15 Q1012 NOSIG,0,6.0,0,3500,0,0,1,"BR,RA"
2026-04-02 23:00:00,METAR ZSPD 022300Z 14005MPS 4000 -SHRA BR NSC 15/13 Q1011 NOSIG,0,5.0,0,4000,0,0,1,"BR,RA"
2026-04-02 22:30:00,METAR ZSPD 022230Z 15005MPS 5000 -SHRA BR NSC 15/13 Q1012 NOSIG,0,5.0,0,5000,0,0,1,"BR,RA"
2026-04-02 22:00:00,METAR ZSPD 022200Z 16005MPS 5000 BR NSC 15/12 Q1012 NOSIG,0,5.0,0,5000,0,0,1,BR
2026-04-02 21:30:00,METAR ZSPD 022130Z 15005MPS 7000 NSC 15/12 Q1012 NOSIG,0,5.0,0,7000,0,0,0,
2026-04-02 21:00:00,METAR ZSPD 022100Z 15005MPS 7000 NSC 15/12 Q1012 NOSIG,0,5.0,0,7000,0,0,0,
2026-04-02 20:30:00,METAR ZSPD 022030Z 16006MPS CAVOK 16/11 Q1012 NOSIG,1,0.0,0,9999,0,0,0,
2026-04-02 20:00:00,METAR ZSPD 022000Z 15004MPS CAVOK 15/10 Q1012 NOSIG,1,0.0,0,9999,0,0,0,
2026-04-02 19:30:00,METAR ZSPD 021930Z 15004MPS CAVOK 16/10 Q1013 NOSIG,1,0.0,0,9999,0,0,0,
2026-04-02 19:00:00,METAR ZSPD 021900Z 15003MPS CAVOK 16/10 Q1013 NOSIG,1,0.0,0,9999,0,0,0,
2026-04-02 18:30:00,METAR ZSPD 021830Z 14003MPS CAVOK 16/10 Q1014 NOSIG,1,0.0,0,9999,0,0,0,
2026-04-02 18:00:00,METAR ZSPD 021800Z 15005MPS CAVOK 15/10 Q1014 NOSIG,1,0.0,0,9999,0,0,0,
2026-04-02 17:30:00,METAR ZSPD 021730Z 15005MPS CAVOK 16/10 Q1014 NOSIG,1,0.0,0,9999,0,0,0,
2026-04-02 17:00:00,METAR ZSPD 021700Z 14005MPS CAVOK 16/10 Q1014 NOSIG,1,0.0,0,9999,0,0,0,
2026-04-02 16:30:00,METAR ZSPD 021630Z 15005MPS CAVOK 16/10 Q1015 NOSIG,1,0.0,0,9999,0,0,0,
2026-04-02 16:00:00,METAR ZSPD 021600Z 15005MPS CAVOK 16/10 Q1015 NOSIG,1,0.0,0,9999,0,0,0,
2026-04-02 15:30:00,METAR ZSPD 021530Z 14005MPS CAVOK 16/11 Q1015 NOSIG,1,0.0,0,9999,0,0,0,
2026-04-02 15:00:00,METAR ZSPD 021500Z 14005MPS CAVOK 16/11 Q1016 NOSIG,1,0.0,0,9999,0,0,0,
2026-04-02 14:30:00,METAR ZSPD 021430Z 15005MPS CAVOK 16/11 Q1016 NOSIG,1,0.0,0,9999,0,0,0,
2026-04-02 14:00:00,METAR ZSPD 021400Z 13006MPS CAVOK 16/10 Q1016 NOSIG,1,0.0,0,9999,0,0,0,
2026-04-02 13:30:00,METAR ZSPD 021330Z 14005MPS CAVOK 16/11 Q1016 NOSIG,1,0.0,0,9999,0,0,0,
2026-04-02 13:00:00,METAR ZSPD 021300Z 14005MPS CAVOK 16/11 Q1016 NOSIG,1,0.0,0,9999,0,0,0,
2026-04-02 12:30:00,METAR ZSPD 021230Z 14005MPS CAVOK 16/11 Q1016 NOSIG,1,0.0,0,9999,0,0,0,
2026-04-02 12:00:00,METAR ZSPD 021200Z 15005MPS 8000 NSC 16/11 Q1016 NOSIG,0,5.0,0,8000,0,0,0,
2026-04-02 11:30:00,METAR ZSPD 021130Z 14005MPS 8000 NSC 16/11 Q1016 NOSIG,0,5.0,0,8000,0,0,0,
2026-04-02 11:00:00,METAR ZSPD 021100Z 12005MPS 8000 NSC 16/11 Q1016 NOSIG,0,5.0,0,8000,0,0,0,
2026-04-02 10:30:00,METAR ZSPD 021030Z 13005MPS 6000 NSC 16/11 Q1016 NOSIG,0,5.0,0,6000,0,0,0,
2026-04-02 10:00:00,METAR ZSPD 021000Z 13005MPS 6000 NSC 17/11 Q1016 NOSIG,0,5.0,0,6000,0,0,0,
2026-04-02 09:30:00,METAR ZSPD 020930Z 13005MPS 6000 NSC 17/12 Q1016 NOSIG,0,5.0,0,6000,0,0,0,
2026-04-02 09:00:00,METAR ZSPD 020900Z 12005MPS 6000 NSC 18/12 Q1016 NOSIG,0,5.0,0,6000,0,0,0,
2026-04-02 08:30:00,METAR ZSPD 020830Z 12005MPS 6000 NSC 18/11 Q1016 NOSIG,0,5.0,0,6000,0,0,0,
2026-04-02 08:00:00,METAR ZSPD 020800Z 12006MPS 6000 NSC 19/12 Q1015 NOSIG,0,6.0,0,6000,0,0,0,
2026-04-02 07:30:00,METAR ZSPD 020730Z 12006MPS 090V160 6000 FEW033 19/12 Q1015 NOSIG,0,6.0,0,6000,0,0,0,
2026-04-02 07:00:00,METAR ZSPD 020700Z 10007MPS 6000 FEW033 20/12 Q1015 NOSIG,0,7.0,0,6000,0,0,0,
2026-04-02 06:30:00,METAR ZSPD 020630Z 11006MPS 6000 FEW033 21/12 Q1016 NOSIG,0,6.0,0,6000,0,0,0,
2026-04-02 06:00:00,METAR ZSPD 020600Z 11006MPS 080V140 6000 FEW033 22/11 Q1016 NOSIG,0,6.0,0,6000,0,0,0,
2026-04-02 05:30:00,METAR ZSPD 020530Z 12006MPS 070V150 6000 FEW033 22/12 Q1017 NOSIG,0,6.0,0,6000,0,0,0,
2026-04-02 05:00:00,METAR ZSPD 020500Z 11005MPS 6000 FEW033 21/11 Q1017 NOSIG,0,5.0,0,6000,0,0,0,
2026-04-02 04:30:00,METAR ZSPD 020430Z 10005MPS 6000 NSC 21/11 Q1017 NOSIG,0,5.0,0,6000,0,0,0,
2026-04-02 04:00:00,METAR ZSPD 020400Z 10005MPS 6000 NSC 21/11 Q1017 NOSIG,0,5.0,0,6000,0,0,0,
2026-04-02 03:30:00,METAR ZSPD 020330Z 10003MPS 030V140 6000 NSC 21/11 Q1018 NOSIG,0,3.0,0,6000,0,0,0,
2026-04-02 03:00:00,METAR ZSPD 020300Z 09003MPS 020V130 6000 NSC 21/12 Q1018 NOSIG,0,3.0,0,6000,0,0,0,
2026-04-02 02:30:00,METAR ZSPD 020230Z VRB02MPS 6000 NSC 20/11 Q1019 NOSIG,0,2.0,0,6000,0,0,0,
2026-04-02 02:00:00,METAR ZSPD 020200Z 09003MPS 050V220 6000 NSC 20/11 Q1019 NOSIG,0,3.0,0,6000,0,0,0,
2026-04-02 01:30:00,METAR ZSPD 020130Z 07003MPS 6000 NSC 20/12 Q1019 NOSIG,0,3.0,0,6000,0,0,0,
2026-04-02 01:00:00,METAR ZSPD 020100Z 02002MPS 330V100 6000 NSC 19/11 Q1019 NOSIG,0,2.0,0,6000,0,0,0,
2026-04-02 00:30:00,METAR ZSPD 020030Z VRB01MPS 6000 NSC 19/11 Q1019 NOSIG,0,1.0,0,6000,0,0,0,
2026-04-02 00:00:00,METAR ZSPD 020000Z 28001MPS 5000 BR NSC 17/12 Q1019 NOSIG,0,1.0,0,5000,0,0,1,BR
2026-04-01 23:30:00,METAR ZSPD 012330Z VRB01MPS 4000 BR NSC 15/12 Q1018 NOSIG,0,1.0,0,4000,0,0,1,BR
2026-04-01 23:00:00,METAR ZSPD 012300Z VRB01MPS 4000 BR NSC 13/13 Q1018 NOSIG,0,1.0,0,4000,0,0,1,BR
2026-04-01 22:30:00,METAR ZSPD 012230Z VRB01MPS 4000 BR NSC 11/11 Q1018 NOSIG,0,1.0,0,4000,0,0,1,BR
2026-04-01 22:00:00,METAR ZSPD 012200Z 17002MPS 5000 BR NSC 11/11 Q1017 NOSIG,0,2.0,0,5000,0,0,1,BR
2026-04-01 21:30:00,METAR ZSPD 012130Z VRB01MPS 6000 NSC 11/11 Q1017 NOSIG,0,1.0,0,6000,0,0,0,
2026-04-01 21:00:00,METAR ZSPD 012100Z 17002MPS 6000 NSC 11/11 Q1017 NOSIG,0,2.0,0,6000,0,0,0,
2026-04-01 20:30:00,METAR ZSPD 012030Z VRB01MPS 6000 NSC 11/11 Q1016 NOSIG,0,1.0,0,6000,0,0,0,
2026-04-01 20:00:00,METAR ZSPD 012000Z 19002MPS 6000 NSC 11/11 Q1016 NOSIG,0,2.0,0,6000,0,0,0,
2026-04-01 19:30:00,METAR ZSPD 011930Z 17001MPS 6000 NSC 12/12 Q1016 NOSIG,0,1.0,0,6000,0,0,0,
2026-04-01 19:00:00,METAR ZSPD 011900Z 17001MPS 6000 NSC 11/11 Q1016 NOSIG,0,1.0,0,6000,0,0,0,
2026-04-01 18:30:00,METAR ZSPD 011830Z 17001MPS 6000 NSC 12/12 Q1017 NOSIG,0,1.0,0,6000,0,0,0,
2026-04-01 18:00:00,METAR ZSPD 011800Z 18002MPS 6000 NSC 12/12 Q1017 NOSIG,0,2.0,0,6000,0,0,0,
2026-04-01 17:30:00,METAR ZSPD 011730Z 18002MPS 6000 NSC 12/12 Q1017 NOSIG,0,2.0,0,6000,0,0,0,
2026-04-01 17:00:00,METAR ZSPD 011700Z 19002MPS 7000 NSC 12/11 Q1017 NOSIG,0,2.0,0,7000,0,0,0,
2026-04-01 16:30:00,METAR ZSPD 011630Z 24003MPS 8000 NSC 14/11 Q1017 NOSIG,0,3.0,0,8000,0,0,0,
2026-04-01 16:00:00,METAR ZSPD 011600Z 26002MPS 8000 NSC 15/11 Q1017 NOSIG,0,2.0,0,8000,0,0,0,
2026-04-01 15:30:00,METAR ZSPD 011530Z 23002MPS 7000 NSC 14/11 Q1017 NOSIG,0,2.0,0,7000,0,0,0,
2026-04-01 15:00:00,METAR ZSPD 011500Z 20002MPS 6000 NSC 14/11 Q1016 NOSIG,0,2.0,0,6000,0,0,0,
2026-04-01 14:00:00,METAR ZSPD 011400Z 16002MPS 080V190 6000 NSC 14/12 Q1016 NOSIG,0,2.0,0,6000,0,0,0,
2026-04-01 13:30:00,METAR ZSPD 011330Z VRB01MPS 8000 NSC 15/11 Q1016 NOSIG,0,1.0,0,8000,0,0,0,
2026-04-01 13:00:00,METAR ZSPD 011300Z 18002MPS 8000 NSC 15/12 Q1016 NOSIG,0,2.0,0,8000,0,0,0,
2026-04-01 12:30:00,METAR ZSPD 011230Z 19001MPS 8000 NSC 15/12 Q1016 NOSIG,0,1.0,0,8000,0,0,0,
2026-04-01 12:00:00,METAR ZSPD 011200Z 18002MPS 8000 NSC 15/12 Q1016 NOSIG,0,2.0,0,8000,0,0,0,
2026-04-01 11:30:00,METAR ZSPD 011130Z 15002MPS 070V190 7000 SCT043 16/12 Q1015 NOSIG,0,2.0,0,7000,0,0,0,
2026-04-01 11:00:00,METAR ZSPD 011100Z VRB01MPS 7000 SCT043 17/11 Q1015 NOSIG,0,1.0,0,7000,0,0,0,
2026-04-01 10:30:00,METAR ZSPD 011030Z 03002MPS 330V120 5000 HZ SCT043 18/10 Q1015 NOSIG,0,2.0,0,5000,0,0,0,
2026-04-01 10:00:00,METAR ZSPD 011000Z 03004MPS 360V060 CAVOK 18/10 Q1015 NOSIG,1,0.0,0,9999,0,0,0,
2026-04-01 09:30:00,METAR ZSPD 010930Z 12002MPS 030V140 CAVOK 18/11 Q1014 NOSIG,1,0.0,0,9999,0,0,0,
2026-04-01 09:00:00,METAR ZSPD 010900Z 11003MPS 050V170 CAVOK 19/11 Q1014 NOSIG,1,0.0,0,9999,0,0,0,
2026-04-01 08:30:00,METAR ZSPD 010830Z 13003MPS 100V170 CAVOK 19/11 Q1014 NOSIG,1,0.0,0,9999,0,0,0,
2026-04-01 08:00:00,METAR ZSPD 010800Z 24002MPS 210V280 CAVOK 20/09 Q1014 NOSIG,1,0.0,0,9999,0,0,0,
2026-04-01 07:30:00,METAR ZSPD 010730Z 27002MPS 210V310 CAVOK 21/08 Q1014 NOSIG,1,0.0,0,9999,0,0,0,
2026-04-01 07:00:00,METAR ZSPD 010700Z 27004MPS 240V300 6000 SCT040 20/09 Q1014 NOSIG,0,4.0,0,6000,0,0,0,
2026-04-01 06:30:00,METAR ZSPD 010630Z 31003MPS 210V010 6000 SCT040 20/09 Q1014 NOSIG,0,3.0,0,6000,0,0,0,
2026-04-01 06:00:00,METAR ZSPD 010600Z 29003MPS 250V320 6000 SCT040 20/09 Q1014 NOSIG,0,3.0,0,6000,0,0,0,
2026-04-01 05:30:00,METAR ZSPD 010530Z 04003MPS 360V100 6000 BKN030 18/11 Q1015 NOSIG,0,3.0,0,6000,0,0,0,
2026-04-01 05:00:00,METAR ZSPD 010500Z 01003MPS 310V080 5000 HZ BKN030 19/11 Q1015 NOSIG,0,3.0,0,5000,0,0,0,
2026-04-01 04:30:00,METAR ZSPD 010430Z 01004MPS 340V050 5000 HZ BKN030 18/11 Q1015 NOSIG,0,4.0,0,5000,0,0,0,
2026-04-01 04:00:00,METAR ZSPD 010400Z 02004MPS 350V050 5000 HZ BKN030 17/12 Q1016 NOSIG,0,4.0,0,5000,0,0,0,
2026-04-01 03:30:00,METAR ZSPD 010330Z 28002MPS 220V010 5000 HZ BKN030 18/11 Q1016 NOSIG,0,2.0,0,5000,0,0,0,
2026-04-01 03:00:00,METAR ZSPD 010300Z 35002MPS 300V110 5000 HZ BKN030 17/10 Q1016 NOSIG,0,2.0,0,5000,0,0,0,
2026-04-01 02:30:00,METAR ZSPD 010230Z 26002MPS 200V320 5000 HZ BKN030 17/11 Q1016 NOSIG,0,2.0,0,5000,0,0,0,
2026-04-01 02:00:00,METAR ZSPD 010200Z 25002MPS 170V300 5000 BR SCT030 16/11 Q1016 NOSIG,0,2.0,0,5000,0,0,1,BR
2026-04-01 01:30:00,METAR ZSPD 010130Z VRB02MPS 5000 BR SCT030 15/10 Q1016 NOSIG,0,2.0,0,5000,0,0,1,BR
2026-04-01 01:00:00,METAR ZSPD 010100Z 25002MPS 200V290 5000 BR FEW030 14/11 Q1016 NOSIG,0,2.0,0,5000,0,0,1,BR
2026-04-01 00:30:00,METAR ZSPD 010030Z 18002MPS 160V220 5000 BR FEW030 13/10 Q1016 NOSIG,0,2.0,0,5000,0,0,1,BR
2026-04-01 00:00:00,METAR ZSPD 010000Z 15002MPS 090V200 4000 BR NSC 12/11 Q1015 NOSIG,0,2.0,0,4000,0,0,1,BR
2026-03-31 23:30:00,METAR ZSPD 312330Z 18002MPS 3000 BR NSC 12/12 Q1015 NOSIG,0,,0,3000,0,0,1,BR
2026-03-31 23:00:00,METAR ZSPD 312300Z VRB01MPS 3000 -RA BR NSC 12/12 Q1015 NOSIG,0,,0,3000,0,0,1,"-RA,BR"
2026-03-31 22:30:00,METAR ZSPD 312230Z 21001MPS 3000 -RA BR NSC 12/12 Q1015 NOSIG,0,,0,3000,0,0,1,"-RA,BR"
2026-03-31 22:00:00,METAR ZSPD 312200Z 21001MPS 4000 -RA BR NSC 12/12 Q1014 NOSIG,0,,0,4000,0,0,1,"-RA,BR"
2026-03-31 21:30:00,METAR ZSPD 312130Z 28002MPS 240V310 5000 -RA BR NSC 12/12 Q1014 NOSIG,0,,0,5000,0,0,1,"-RA,BR"
2026-03-31 21:00:00,METAR ZSPD 312100Z 27002MPS 5000 -RA BR NSC 12/12 Q1014 NOSIG,0,,0,5000,0,0,1,"-RA,BR"
2026-03-31 20:30:00,METAR ZSPD 312030Z 27002MPS 6000 -RA NSC 12/12 Q1013 NOSIG,0,,0,6000,0,0,0,-RA
2026-03-31 20:00:00,METAR ZSPD 312000Z 29002MPS 6000 -RA NSC 12/12 Q1013 NOSIG,0,,0,6000,0,0,0,-RA
2026-03-31 19:30:00,METAR ZSPD 311930Z 30003MPS 6000 -RA NSC 12/12 Q1013 NOSIG,0,,0,6000,0,0,0,-RA
2026-03-31 19:00:00,METAR ZSPD 311900Z 34003MPS 6000 -RA FEW010 11/11 Q1013 NOSIG,0,,0,6000,0,0,0,-RA
2026-03-31 18:30:00,METAR ZSPD 311830Z 36005MPS 6000 FEW010 12/11 Q1013 BECMG TL2020 06004MPS,0,,0,6000,0,0,0,
2026-03-31 18:00:00,METAR ZSPD 311800Z 36005MPS 6000 FEW010 12/11 Q1013 BECMG TL1900 06004MPS,0,,0,6000,0,0,0,
2026-03-31 17:30:00,METAR ZSPD 311730Z 36005MPS 340V040 6000 FEW010 12/11 Q1013 BECMG TL1920 06004MPS,0,,0,6000,0,0,0,
2026-03-31 17:00:00,METAR ZSPD 311700Z 01004MPS 6000 SCT010 12/10 Q1014 NOSIG,0,,0,6000,0,0,0,
2026-03-31 16:30:00,METAR ZSPD 311630Z 34003MPS 6000 NSC 11/10 Q1014 NOSIG,0,,0,6000,0,0,0,
2026-03-31 16:00:00,METAR ZSPD 311600Z 35004MPS 8000 NSC 11/11 Q1014 NOSIG,0,,0,8000,0,0,0,
2026-03-31 15:30:00,METAR ZSPD 311530Z 34001MPS 8000 NSC 11/11 Q1014 NOSIG,0,,0,8000,0,0,0,
2026-03-31 15:00:00,METAR ZSPD 311500Z 18002MPS 8000 NSC 11/10 Q1014 NOSIG,0,,0,8000,0,0,0,
2026-03-31 14:30:00,METAR ZSPD 311430Z VRB01MPS 8000 NSC 11/09 Q1014 NOSIG,0,,0,8000,0,0,0,
2026-03-31 14:00:00,METAR ZSPD 311400Z VRB01MPS 8000 -RA NSC 11/09 Q1015 NOSIG,0,,0,8000,0,0,0,-RA
2026-03-31 13:30:00,METAR ZSPD 311330Z 17002MPS 120V190 8000 -RA NSC 11/10 Q1015 NOSIG,0,,0,8000,0,0,0,-RA
2026-03-31 13:00:00,METAR ZSPD 311300Z 16002MPS 100V200 8000 -RA NSC 11/10 Q1016 NOSIG,0,,0,8000,0,0,0,-RA
2026-03-31 12:30:00,METAR ZSPD 311230Z 11002MPS 060V140 8000 -RA NSC 11/10 Q1015 NOSIG,0,,0,8000,0,0,0,-RA
2026-03-31 12:00:00,METAR ZSPD 311200Z 12003MPS 050V160 8000 -RA NSC 11/10 Q1015 NOSIG,0,,0,8000,0,0,0,-RA
2026-03-31 11:30:00,METAR ZSPD 311130Z 07002MPS 020V110 8000 -RA NSC 11/09 Q1015 NOSIG,0,,0,8000,0,0,0,-RA
2026-03-31 11:00:00,METAR ZSPD 311100Z 01003MPS 8000 -RA NSC 11/09 Q1015 NOSIG,0,,0,8000,0,0,0,-RA
2026-03-31 10:30:00,METAR ZSPD 311030Z 36003MPS 9999 -RA NSC 12/09 Q1015 NOSIG,0,,0,9999,0,0,0,-RA
2026-03-31 10:00:00,METAR ZSPD 311000Z 05002MPS 360V110 9999 -RA NSC 12/09 Q1015 NOSIG,0,,0,9999,0,0,0,-RA
2026-03-31 09:30:00,METAR ZSPD 310930Z 04003MPS 350V090 9999 -RA NSC 12/09 Q1014 NOSIG,0,,0,9999,0,0,0,-RA
2026-03-31 09:00:00,METAR ZSPD 310900Z 04004MPS 360V060 9999 -RA NSC 12/09 Q1014 NOSIG,0,,0,9999,0,0,0,-RA
2026-03-31 08:30:00,METAR ZSPD 310830Z 06003MPS 020V080 9999 -RA NSC 13/10 Q1014 NOSIG,0,,0,9999,0,0,0,-RA
2026-03-31 08:00:00,METAR ZSPD 310800Z 06005MPS 030V090 9999 -RA NSC 13/09 Q1013 NOSIG,0,,0,9999,0,0,0,-RA
2026-03-31 07:30:00,METAR ZSPD 310730Z 07005MPS 9999 -RA NSC 13/10 Q1013 NOSIG,0,,0,9999,0,0,0,-RA
2026-03-31 07:00:00,METAR ZSPD 310700Z 06006MPS CAVOK 13/09 Q1014 NOSIG,1,0.0,0,9999,0,0,0,
2026-03-31 06:30:00,METAR ZSPD 310630Z 04007MPS CAVOK 14/09 Q1014 NOSIG,1,0.0,0,9999,0,0,0,
2026-03-31 06:00:00,METAR ZSPD 310600Z 04007MPS 9999 -RA NSC 14/09 Q1013 NOSIG,0,,0,9999,0,0,0,-RA
2026-03-31 05:30:00,METAR ZSPD 310530Z 04007MPS 360V070 9999 FEW020 14/10 Q1013 NOSIG,0,,0,9999,0,0,0,
2026-03-31 05:00:00,METAR ZSPD 310500Z 04005MPS 010V070 9999 FEW020 16/11 Q1013 NOSIG,0,,0,9999,0,0,0,
2026-03-31 04:30:00,METAR ZSPD 310430Z 01006MPS CAVOK 17/11 Q1013 NOSIG,1,0.0,0,9999,0,0,0,
2026-03-31 04:00:00,METAR ZSPD 310400Z 01008MPS CAVOK 16/11 Q1014 NOSIG,1,0.0,0,9999,0,0,0,
2026-03-31 03:30:00,METAR ZSPD 310330Z 36007MPS 340V040 9999 SCT020 17/11 Q1014 NOSIG,0,,0,9999,0,0,0,
2026-03-31 03:00:00,METAR ZSPD 310300Z 01007MPS 340V040 9999 SCT020 17/11 Q1014 NOSIG,0,,0,9999,0,0,0,
2026-03-31 02:30:00,METAR ZSPD 310230Z 36006MPS 9999 SCT020 17/12 Q1015 NOSIG,0,,0,9999,0,0,0,
2026-03-31 02:00:00,METAR ZSPD 310200Z 33006MPS 9999 SCT020 17/12 Q1015 NOSIG,0,,0,9999,0,0,0,
2026-03-31 01:30:00,METAR ZSPD 310130Z 01006MPS 9999 SCT033 16/12 Q1015 NOSIG,0,,0,9999,0,0,0,
2026-03-31 01:00:00,METAR ZSPD 310100Z 36006MPS 9999 SCT033 16/12 Q1014 NOSIG,0,,0,9999,0,0,0,
2026-03-31 00:30:00,METAR ZSPD 310030Z 34006MPS 9999 SCT033 16/11 Q1014 NOSIG,0,,0,9999,0,0,0,
2026-03-31 00:00:00,METAR ZSPD 310000Z 34005MPS 9999 BKN033 14/11 Q1015 NOSIG,0,,0,9999,0,0,0,
2026-03-30 23:30:00,METAR ZSPD 302330Z 34004MPS 9999 BKN033 14/11 Q1015 NOSIG,0,4.0,0,10000,0,0,0,
2026-03-30 23:00:00,METAR ZSPD 302300Z 33003MPS 9999 BKN015 14/11 Q1015 NOSIG,0,3.0,0,10000,0,0,0,
2026-03-30 22:30:00,METAR ZSPD 302230Z 34004MPS 300V360 9999 BKN015 14/11 Q1014 NOSIG,0,4.0,0,10000,0,0,0,
2026-03-30 22:00:00,METAR ZSPD 302200Z 33004MPS 9999 BKN015 14/11 Q1014 NOSIG,0,4.0,0,10000,0,0,0,
2026-03-30 21:30:00,METAR ZSPD 302130Z 34005MPS 9999 BKN015 13/11 Q1014 NOSIG,0,5.0,0,10000,0,0,0,
2026-03-30 21:00:00,METAR ZSPD 302100Z 34004MPS 9999 BKN013 13/12 Q1013 BECMG TL2130 BKN015,0,4.0,0,10000,0,0,0,
2026-03-30 20:30:00,METAR ZSPD 302030Z 34006MPS 9999 BKN013 14/11 Q1013 NOSIG,0,6.0,0,10000,0,0,0,
2026-03-30 20:00:00,METAR ZSPD 302000Z 32004MPS 290V350 9999 SCT013 14/11 Q1013 BECMG TL2030 BKN013,0,4.0,0,10000,0,0,0,
2026-03-30 19:30:00,METAR ZSPD 301930Z 32005MPS CAVOK 14/11 Q1013 NOSIG,1,0.0,0,9999,0,0,0,
2026-03-30 19:00:00,METAR ZSPD 301900Z 32004MPS 9999 FEW020 13/11 Q1013 NOSIG,0,4.0,0,10000,0,0,0,
2026-03-30 18:30:00,METAR ZSPD 301830Z 33004MPS 9999 SCT020 13/11 Q1013 NOSIG,0,4.0,0,10000,0,0,0,
2026-03-30 18:00:00,METAR ZSPD 301800Z 33005MPS 9999 SCT020 13/11 Q1013 NOSIG,0,5.0,0,10000,0,0,0,
2026-03-30 17:30:00,METAR ZSPD 301730Z 32004MPS 9999 BKN020 14/11 Q1013 NOSIG,0,4.0,0,10000,0,0,0,
2026-03-30 17:00:00,METAR ZSPD 301700Z 32005MPS 9999 BKN020 14/12 Q1013 NOSIG,0,5.0,0,10000,0,0,0,
2026-03-30 16:30:00,METAR ZSPD 301630Z 34006MPS 9999 BKN020 14/12 Q1012 NOSIG,0,6.0,0,10000,0,0,0,
2026-03-30 16:00:00,METAR ZSPD 301600Z 35008MPS 9999 BKN013 14/12 Q1012 BECMG TL1630 BKN015,0,8.0,0,10000,0,0,0,
2026-03-30 15:30:00,METAR ZSPD 301530Z 34009MPS 9999 BKN012 14/12 Q1012 NOSIG,0,9.0,0,10000,0,0,0,
2026-03-30 15:00:00,METAR ZSPD 301500Z 34010MPS 9999 BKN008 14/14 Q1011 BECMG TL1530 BKN010,0,10.0,0,10000,0,0,0,
2026-03-30 14:30:00,METAR ZSPD 301430Z 33010MPS 9999 -RA BKN008 15/14 Q1011 NOSIG,0,10.0,0,10000,0,0,0,-RA
2026-03-30 14:00:00,METAR ZSPD 301400Z 33009MPS 9999 -RA BKN008 15/15 Q1010 BECMG TL1530 BKN010,0,9.0,0,10000,0,0,0,-RA
2026-03-30 13:30:00,METAR ZSPD 301330Z 32009MPS 9999 BKN008 15/15 Q1010 NOSIG,0,9.0,0,10000,0,0,0,
2026-03-30 13:00:00,METAR ZSPD 301300Z 32009MPS 7000 -RA BKN008 15/15 Q1009 NOSIG,0,9.0,0,7000,0,0,0,-RA
2026-03-30 12:30:00,METAR ZSPD 301230Z 32009MPS 7000 -RA BKN008 16/16 Q1008 NOSIG,0,9.0,0,7000,0,0,0,-RA
2026-03-30 12:00:00,METAR ZSPD 301200Z 34009MPS 4000 BR BKN010 17/17 Q1007 BECMG TL1230 BKN007,0,9.0,0,4000,0,0,1,BR
2026-03-30 11:30:00,METAR ZSPD 301130Z 33003MPS 310V010 4000 BR BKN016 18/18 Q1006 NOSIG,0,3.0,0,4000,0,0,1,BR
2026-03-30 11:00:00,METAR ZSPD 301100Z 28002MPS 250V310 5000 -RA BR NSC 19/19 Q1005 NOSIG,0,2.0,0,5000,0,0,1,"-RA,BR"
2026-03-30 10:30:00,METAR ZSPD 301030Z 33003MPS 5000 -RA BR SCT033 18/17 Q1005 NOSIG,0,3.0,0,5000,0,0,1,"-RA,BR"
2026-03-30 10:00:00,METAR ZSPD 301000Z 34004MPS 6000 -RA SCT033 19/17 Q1004 BECMG TL1040 SHRA FEW030CB,0,4.0,0,6000,0,0,0,"-RA,RA,SH"
2026-03-30 09:30:00,METAR ZSPD 300930Z 35004MPS 9999 SCT033 19/17 Q1004 BECMG TL1000 SHRA FEW030CB,0,4.0,0,10000,0,0,0,"RA,SH"
2026-03-30 09:00:00,METAR ZSPD 300900Z 35004MPS CAVOK 19/17 Q1004 NOSIG,1,0.0,0,9999,0,0,0,
2026-03-30 08:30:00,METAR ZSPD 300830Z 31004MPS 250V350 CAVOK 21/17 Q1003 NOSIG,1,0.0,0,9999,0,0,0,
2026-03-30 08:00:00,METAR ZSPD 300800Z 24003MPS 220V290 CAVOK 22/17 Q1003 BECMG TL0930 36005MPS,1,0.0,0,9999,0,0,0,
2026-03-30 07:30:00,METAR ZSPD 300730Z 25003MPS 220V290 CAVOK 22/17 Q1002 NOSIG,1,0.0,0,9999,0,0,0,
2026-03-30 07:00:00,METAR ZSPD 300700Z 24004MPS 200V270 9999 -RA NSC 22/17 Q1003 NOSIG,0,4.0,0,10000,0,0,0,-RA
2026-03-30 06:30:00,METAR ZSPD 300630Z 22005MPS CAVOK 22/17 Q1003 NOSIG,1,0.0,0,9999,0,0,0,
2026-03-30 06:00:00,METAR ZSPD 300600Z 19005MPS 170V230 CAVOK 22/17 Q1004 NOSIG,1,0.0,0,9999,0,0,0,
2026-03-30 05:30:00,METAR ZSPD 300530Z 20006MPS 9999 SCT016 21/17 Q1004 NOSIG,0,6.0,0,10000,0,0,0,
2026-03-30 05:00:00,METAR ZSPD 300500Z 19004MPS 160V230 9999 SCT016 21/17 Q1004 NOSIG,0,4.0,0,10000,0,0,0,
2026-03-30 04:30:00,METAR ZSPD 300430Z 18006MPS 150V210 9999 BKN016 21/17 Q1005 NOSIG,0,6.0,0,10000,0,0,0,
2026-03-30 04:00:00,METAR ZSPD 300400Z 17005MPS 140V200 9999 BKN008 20/16 Q1006 BECMG TL0430 BKN015,0,5.0,0,10000,0,0,0,
2026-03-30 03:30:00,METAR ZSPD 300330Z 17005MPS 140V200 7000 BKN008 20/17 Q1006 NOSIG,0,5.0,0,7000,0,0,0,
2026-03-30 03:00:00,METAR ZSPD 300300Z 13003MPS 090V160 2500 BR BKN004 19/17 Q1007 BECMG TL0330 3000 BKN009,0,3.0,0,2500,0,0,1,BR
2026-03-30 02:30:00,METAR ZSPD 300230Z 11003MPS 070V170 2500 BR BKN004 17/16 Q1007 NOSIG,0,3.0,0,2500,0,0,1,BR
2026-03-30 02:00:00,METAR ZSPD 300200Z 13004MPS 100V170 2000 BR BKN004 16/16 Q1007 NOSIG,0,4.0,0,2000,0,0,1,BR
2026-03-30 01:30:00,METAR ZSPD 300130Z 12004MPS 100V160 2000 R17L/P2000N R16R/1400N R17R/1900U R16L/1900D BR BKN004 16/16 Q1007 NOSIG,0,4.0,0,2000,0,0,1,BR
2026-03-30 01:00:00,METAR ZSPD 300100Z 11003MPS 080V140 2000 BR BKN004 15/15 Q1008 NOSIG,0,3.0,0,2000,0,0,1,BR
2026-03-30 00:30:00,METAR ZSPD 300030Z 12005MPS 2000 BR BKN004 15/15 Q1008 NOSIG,0,5.0,0,2000,0,0,1,BR
2026-03-30 00:00:00,METAR ZSPD 300000Z 12004MPS 2000 BR BKN004 15/15 Q1008 NOSIG,0,4.0,0,2000,0,0,1,BR
2026-03-29 23:30:00,METAR ZSPD 292330Z 11004MPS 2000 BR BKN004 15/15 Q1008 NOSIG,0,4.0,0,2000,0,0,1,BR
2026-03-29 23:00:00,METAR ZSPD 292300Z 12004MPS 2000 -RA BR BKN004 14/14 Q1008 NOSIG,0,4.0,0,2000,0,0,1,"-RA,BR"
2026-03-29 22:30:00,METAR ZSPD 292230Z 11007MPS 2000 -RA BR BKN004 14/14 Q1007 NOSIG,0,7.0,0,2000,0,0,1,"-RA,BR"
2026-03-29 22:00:00,METAR ZSPD 292200Z 11005MPS 2500 -RA BR BKN015 14/14 Q1009 BECMG TL2330 BKN013,0,5.0,0,2500,0,0,1,"-RA,BR"
2026-03-29 21:30:00,METAR ZSPD 292130Z 12003MPS 4000 -RA BR BKN015 15/15 Q1009 NOSIG,0,3.0,0,4000,0,0,1,"-RA,BR"
2026-03-29 21:00:00,METAR ZSPD 292100Z 14004MPS 4000 -RA BR BKN015 14/14 Q1009 BECMG TL2200 2500 BKN012,0,4.0,0,4000,0,0,1,"-RA,BR"
2026-03-29 20:30:00,METAR ZSPD 292030Z 11004MPS 4000 BR NSC 15/15 Q1009 NOSIG,0,4.0,0,4000,0,0,1,BR
2026-03-29 20:00:00,METAR ZSPD 292000Z 11002MPS 5000 BR NSC 15/15 Q1009 NOSIG,0,2.0,0,5000,0,0,1,BR
2026-03-29 19:30:00,METAR ZSPD 291930Z 14003MPS 5000 -RA BR NSC 15/15 Q1010 NOSIG,0,3.0,0,5000,0,0,1,"-RA,BR"
2026-03-29 19:00:00,METAR ZSPD 291900Z 14003MPS 5000 BR NSC 14/14 Q1010 NOSIG,0,3.0,0,5000,0,0,1,BR
2026-03-29 18:30:00,METAR ZSPD 291830Z 15003MPS 5000 BR NSC 15/15 Q1010 NOSIG,0,3.0,0,5000,0,0,1,BR
2026-03-29 18:00:00,METAR ZSPD 291800Z 13003MPS 5000 BR FEW026 15/15 Q1011 NOSIG,0,3.0,0,5000,0,0,1,BR
2026-03-29 17:30:00,METAR ZSPD 291730Z 14003MPS 5000 BR NSC 14/14 Q1011 NOSIG,0,3.0,0,5000,0,0,1,BR
2026-03-29 17:00:00,METAR ZSPD 291700Z 12003MPS 5000 BR NSC 14/14 Q1011 BECMG TL1830 2500,0,3.0,0,5000,0,0,1,BR
2026-03-29 16:30:00,METAR ZSPD 291630Z 12003MPS 5000 BR NSC 14/14 Q1012 NOSIG,0,3.0,0,5000,0,0,1,BR
2026-03-29 16:00:00,METAR ZSPD 291600Z 13003MPS 100V170 5000 BR NSC 14/14 Q1012 NOSIG,0,3.0,0,5000,0,0,1,BR
2026-03-29 15:30:00,METAR ZSPD 291530Z 14002MPS 5000 BR NSC 14/14 Q1012 NOSIG,0,2.0,0,5000,0,0,1,BR
2026-03-29 15:00:00,METAR ZSPD 291500Z 11002MPS 080V150 5000 BR NSC 14/14 Q1012 NOSIG,0,2.0,0,5000,0,0,1,BR
2026-03-29 14:30:00,METAR ZSPD 291430Z 10002MPS 070V140 7000 NSC 14/13 Q1012 NOSIG,0,2.0,0,7000,0,0,0,
2026-03-29 14:00:00,METAR ZSPD 291400Z 11002MPS 080V140 7000 NSC 14/13 Q1013 NOSIG,0,2.0,0,7000,0,0,0,
2026-03-29 13:30:00,METAR ZSPD 291330Z 15003MPS 7000 NSC 14/14 Q1013 NOSIG,0,3.0,0,7000,0,0,0,
2026-03-29 13:00:00,METAR ZSPD 291300Z 14003MPS 7000 NSC 14/13 Q1013 NOSIG,0,3.0,0,7000,0,0,0,
2026-03-29 12:30:00,METAR ZSPD 291230Z 13003MPS 100V170 7000 NSC 14/13 Q1013 NOSIG,0,3.0,0,7000,0,0,0,
2026-03-29 12:00:00,METAR ZSPD 291200Z 13003MPS 7000 NSC 15/14 Q1013 NOSIG,0,3.0,0,7000,0,0,0,
2026-03-29 11:30:00,METAR ZSPD 291130Z 13003MPS 7000 NSC 15/15 Q1012 NOSIG,0,3.0,0,7000,0,0,0,
2026-03-29 11:13:00,SPECI ZSPD 291113Z 11002MPS 7000 NSC 15/14 Q1012 NOSIG,0,2.0,0,7000,0,0,0,
2026-03-29 11:00:00,METAR ZSPD 291100Z 13003MPS 7000 BKN008 15/14 Q1012 BECMG TL1130 BKN015,0,3.0,0,7000,0,0,0,
2026-03-29 10:30:00,METAR ZSPD 291030Z 15004MPS 7000 BKN008 15/14 Q1012 NOSIG,0,4.0,0,7000,0,0,0,
2026-03-29 10:00:00,METAR ZSPD 291000Z 14005MPS 7000 BKN010 16/14 Q1012 BECMG TL1030 BKN008,0,5.0,0,7000,0,0,0,
2026-03-29 09:30:00,METAR ZSPD 290930Z 14006MPS 7000 BKN010 16/14 Q1012 NOSIG,0,6.0,0,7000,0,0,0,
2026-03-29 09:00:00,METAR ZSPD 290900Z 13005MPS 8000 BKN012 16/14 Q1012 BECMG TL1030 BKN008,0,5.0,0,8000,0,0,0,
2026-03-29 08:30:00,METAR ZSPD 290830Z 14005MPS 9999 BKN013 17/14 Q1012 NOSIG,0,5.0,0,10000,0,0,0,
2026-03-29 08:00:00,METAR ZSPD 290800Z 13005MPS 110V170 9999 BKN015 17/14 Q1012 BECMG TL0830 BKN013,0,5.0,0,10000,0,0,0,
2026-03-29 07:30:00,METAR ZSPD 290730Z 12004MPS 9999 BKN015 17/14 Q1012 NOSIG,0,4.0,0,10000,0,0,0,
2026-03-29 07:00:00,METAR ZSPD 290700Z 15004MPS 120V180 9999 BKN015 18/14 Q1012 NOSIG,0,4.0,0,10000,0,0,0,
2026-03-29 06:30:00,METAR ZSPD 290630Z 16005MPS 9999 BKN015 18/14 Q1012 NOSIG,0,5.0,0,10000,0,0,0,
2026-03-29 06:00:00,METAR ZSPD 290600Z 14006MPS 9999 BKN013 17/14 Q1012 BECMG TL0630 BKN015,0,6.0,0,10000,0,0,0,
2026-03-29 05:30:00,METAR ZSPD 290530Z 13005MPS 110V180 9999 BKN013 17/14 Q1013 NOSIG,0,5.0,0,10000,0,0,0,
2026-03-29 05:00:00,METAR ZSPD 290500Z 15004MPS 120V180 8000 BKN012 18/14 Q1013 BECMG TL0630 BKN015,0,4.0,0,8000,0,0,0,
2026-03-29 04:30:00,METAR ZSPD 290430Z 15004MPS 120V200 7000 BKN012 17/14 Q1013 NOSIG,0,4.0,0,7000,0,0,0,
2026-03-29 04:00:00,METAR ZSPD 290400Z 14005MPS 110V170 5000 BR BKN012 17/14 Q1013 NOSIG,0,5.0,0,5000,0,0,1,BR
2026-03-29 03:30:00,METAR ZSPD 290330Z 15005MPS 5000 BR BKN012 16/13 Q1014 NOSIG,0,5.0,0,5000,0,0,1,BR
2026-03-29 03:00:00,METAR ZSPD 290300Z 16005MPS 5000 BR BKN012 16/13 Q1014 NOSIG,0,5.0,0,5000,0,0,1,BR
2026-03-29 02:30:00,METAR ZSPD 290230Z 16005MPS 5000 BR BKN012 16/13 Q1014 NOSIG,0,5.0,0,5000,0,0,1,BR
2026-03-29 02:00:00,METAR ZSPD 290200Z 15006MPS 5000 BR BKN012 16/13 Q1015 BECMG TL0340 BKN015,0,6.0,0,5000,0,0,1,BR
2026-03-29 01:30:00,METAR ZSPD 290130Z 16005MPS 5000 BR BKN016 16/13 Q1015 NOSIG,0,5.0,0,5000,0,0,1,BR
2026-03-29 01:00:00,METAR ZSPD 290100Z 16005MPS 4000 BR BKN016 15/12 Q1015 NOSIG,0,5.0,0,4000,0,0,1,BR
2026-03-29 00:30:00,METAR ZSPD 290030Z 16004MPS 4000 BR BKN016 14/12 Q1015 NOSIG,0,4.0,0,4000,0,0,1,BR
2026-03-29 00:00:00,METAR ZSPD 290000Z 16004MPS 130V190 4000 BR BKN016 14/12 Q1014 NOSIG,0,4.0,0,4000,0,0,1,BR
2026-03-28 23:30:00,METAR ZSPD 282330Z 16005MPS 4000 BR BKN026 14/11 Q1014 NOSIG,0,5.0,0,4000,0,0,1,BR
2026-03-28 23:00:00,METAR ZSPD 282300Z 15004MPS 5000 BR BKN040 14/11 Q1014 NOSIG,0,4.0,0,5000,0,0,1,BR
2026-03-28 22:30:00,METAR ZSPD 282230Z 15004MPS 120V180 5000 BR BKN040 14/11 Q1014 NOSIG,0,4.0,0,5000,0,0,1,BR
2026-03-28 22:00:00,METAR ZSPD 282200Z 14004MPS 5000 BR BKN040 14/10 Q1013 NOSIG,0,4.0,0,5000,0,0,1,BR
2026-03-28 21:30:00,METAR ZSPD 282130Z 14005MPS 7000 BKN040 14/10 Q1013 NOSIG,0,5.0,0,7000,0,0,0,
2026-03-28 21:00:00,METAR ZSPD 282100Z 15004MPS 7000 BKN040 14/10 Q1013 NOSIG,0,4.0,0,7000,0,0,0,
2026-03-28 20:30:00,METAR ZSPD 282030Z 13005MPS 100V220 7000 NSC 14/09 Q1013 NOSIG,0,5.0,0,7000,0,0,0,
2026-03-28 20:00:00,METAR ZSPD 282000Z 14004MPS 7000 NSC 14/09 Q1013 NOSIG,0,4.0,0,7000,0,0,0,
2026-03-28 19:30:00,METAR ZSPD 281930Z 13004MPS 7000 NSC 14/09 Q1013 NOSIG,0,4.0,0,7000,0,0,0,
2026-03-28 19:00:00,METAR ZSPD 281900Z 13004MPS CAVOK 14/09 Q1014 NOSIG,1,0.0,0,9999,0,0,0,
2026-03-28 18:30:00,METAR ZSPD 281830Z 11003MPS CAVOK 14/09 Q1014 NOSIG,1,0.0,0,9999,0,0,0,
2026-03-28 18:00:00,METAR ZSPD 281800Z 14003MPS CAVOK 14/07 Q1014 NOSIG,1,0.0,0,9999,0,0,0,
2026-03-28 17:30:00,METAR ZSPD 281730Z 13003MPS CAVOK 14/07 Q1014 NOSIG,1,0.0,0,9999,0,0,0,
2026-03-28 17:00:00,METAR ZSPD 281700Z 13004MPS 100V170 CAVOK 14/07 Q1015 NOSIG,1,0.0,0,9999,0,0,0,
2026-03-28 16:30:00,METAR ZSPD 281630Z 13004MPS 110V190 CAVOK 14/07 Q1014 NOSIG,1,0.0,0,9999,0,0,0,
2026-03-28 16:00:00,METAR ZSPD 281600Z 13004MPS CAVOK 14/08 Q1015 NOSIG,1,0.0,0,9999,0,0,0,
2026-03-28 15:30:00,METAR ZSPD 281530Z 13004MPS CAVOK 14/07 Q1015 NOSIG,1,0.0,0,9999,0,0,0,
2026-03-28 15:00:00,METAR ZSPD 281500Z 13005MPS CAVOK 14/06 Q1015 NOSIG,1,0.0,0,9999,0,0,0,
2026-03-28 14:30:00,METAR ZSPD 281430Z 13005MPS CAVOK 15/04 Q1015 NOSIG,1,0.0,0,9999,0,0,0,
2026-03-28 14:00:00,METAR ZSPD 281400Z 14005MPS CAVOK 15/03 Q1015 NOSIG,1,0.0,0,9999,0,0,0,
2026-03-28 13:30:00,METAR ZSPD 281330Z 14004MPS CAVOK 15/05 Q1015 NOSIG,1,0.0,0,9999,0,0,0,
2026-03-28 13:00:00,METAR ZSPD 281300Z 14004MPS CAVOK 15/09 Q1015 NOSIG,1,0.0,0,9999,0,0,0,
2026-03-28 12:30:00,METAR ZSPD 281230Z 14004MPS CAVOK 15/08 Q1015 NOSIG,1,0.0,0,9999,0,0,0,
2026-03-28 12:00:00,METAR ZSPD 281200Z 13005MPS CAVOK 15/07 Q1015 NOSIG,1,0.0,0,9999,0,0,0,
2026-03-28 11:30:00,METAR ZSPD 281130Z 13004MPS CAVOK 15/08 Q1015 NOSIG,1,0.0,0,9999,0,0,0,
2026-03-28 11:00:00,METAR ZSPD 281100Z 12004MPS CAVOK 15/07 Q1015 NOSIG,1,0.0,0,9999,0,0,0,
2026-03-28 10:30:00,METAR ZSPD 281030Z 12004MPS CAVOK 15/08 Q1015 NOSIG,1,0.0,0,9999,0,0,0,
2026-03-28 10:00:00,METAR ZSPD 281000Z 13004MPS 110V220 CAVOK 16/07 Q1015 NOSIG,1,0.0,0,9999,0,0,0,
2026-03-28 09:30:00,METAR ZSPD 280930Z 12004MPS CAVOK 17/08 Q1015 NOSIG,1,0.0,0,9999,0,0,0,
2026-03-28 09:00:00,METAR ZSPD 280900Z 11004MPS CAVOK 18/07 Q1015 NOSIG,1,0.0,0,9999,0,0,0,
2026-03-28 08:30:00,METAR ZSPD 280830Z 11004MPS 090V150 CAVOK 19/07 Q1015 NOSIG,1,0.0,0,9999,0,0,0,
2026-03-28 08:00:00,METAR ZSPD 280800Z 10005MPS CAVOK 19/07 Q1015 NOSIG,1,0.0,0,9999,0,0,0,
2026-03-28 07:30:00,METAR ZSPD 280730Z 10006MPS CAVOK 20/07 Q1015 NOSIG,1,0.0,0,9999,0,0,0,
2026-03-28 07:00:00,METAR ZSPD 280700Z 11006MPS 080V150 CAVOK 21/06 Q1015 NOSIG,1,0.0,0,9999,0,0,0,
2026-03-28 06:30:00,METAR ZSPD 280630Z 11006MPS 080V140 CAVOK 21/05 Q1015 NOSIG,1,0.0,0,9999,0,0,0,
2026-03-28 06:00:00,METAR ZSPD 280600Z 11005MPS CAVOK 21/06 Q1015 NOSIG,1,0.0,0,9999,0,0,0,
2026-03-28 05:30:00,METAR ZSPD 280530Z 13004MPS 100V160 CAVOK 21/05 Q1016 NOSIG,1,0.0,0,9999,0,0,0,
2026-03-28 05:00:00,METAR ZSPD 280500Z 11005MPS 090V150 CAVOK 21/05 Q1016 NOSIG,1,0.0,0,9999,0,0,0,
2026-03-28 04:30:00,METAR ZSPD 280430Z 10005MPS 040V200 CAVOK 21/07 Q1017 NOSIG,1,0.0,0,9999,0,0,0,
2026-03-28 04:00:00,METAR ZSPD 280400Z 11004MPS 060V150 CAVOK 21/05 Q1017 NOSIG,1,0.0,0,9999,0,0,0,
2026-03-28 03:49:00,SPECI ZSPD 280349Z 08005MPS CAVOK 21/07 Q1018 NOSIG,1,0.0,0,9999,0,0,0,
2026-03-28 03:30:00,METAR ZSPD 280330Z 15003MPS 090V190 CAVOK 21/04 Q1018 NOSIG,1,0.0,0,9999,0,0,0,
2026-03-28 03:00:00,METAR ZSPD 280300Z VRB03MPS CAVOK 21/05 Q1018 NOSIG,1,0.0,0,9999,0,0,0,
2026-03-28 02:30:00,METAR ZSPD 280230Z 08004MPS 050V110 CAVOK 20/07 Q1018 NOSIG,1,0.0,0,9999,0,0,0,
2026-03-28 02:00:00,METAR ZSPD 280200Z VRB02MPS CAVOK 19/05 Q1018 NOSIG,1,0.0,0,9999,0,0,0,
2026-03-28 01:30:00,METAR ZSPD 280130Z VRB01MPS CAVOK 18/06 Q1018 NOSIG,1,0.0,0,9999,0,0,0,
2026-03-28 01:00:00,METAR ZSPD 280100Z 15002MPS 100V190 CAVOK 17/05 Q1018 NOSIG,1,0.0,0,9999,0,0,0,
2026-03-28 00:30:00,METAR ZSPD 280030Z VRB01MPS CAVOK 16/06 Q1018 NOSIG,1,0.0,0,9999,0,0,0,
2026-03-28 00:00:00,METAR ZSPD 280000Z VRB01MPS CAVOK 14/07 Q1018 NOSIG,1,0.0,0,9999,0,0,0,
2026-03-27 23:30:00,METAR ZSPD 272330Z 20002MPS 170V240 6000 NSC 12/09 Q1018 NOSIG,0,2.0,0,6000,0,0,0,
2026-03-27 23:00:00,METAR ZSPD 272300Z 25001MPS 4500 BR NSC 11/11 Q1017 NOSIG,0,1.0,0,4500,0,0,1,BR
2026-03-27 22:30:00,METAR ZSPD 272230Z VRB01MPS 4500 BR NSC 09/09 Q1017 NOSIG,0,1.0,0,4500,0,0,1,BR
2026-03-27 22:00:00,METAR ZSPD 272200Z VRB01MPS 4500 PRFG BR NSC 09/09 Q1017 NOSIG,0,1.0,0,4500,0,0,1,"BR,FG"
2026-03-27 21:30:00,METAR ZSPD 272130Z VRB01MPS 6000 NSC 09/09 Q1017 NOSIG,0,1.0,0,6000,0,0,0,
2026-03-27 21:00:00,METAR ZSPD 272100Z 20001MPS 6000 NSC 09/09 Q1016 NOSIG,0,1.0,0,6000,0,0,0,
2026-03-27 20:30:00,METAR ZSPD 272030Z VRB01MPS 6000 NSC 09/09 Q1016 NOSIG,0,1.0,0,6000,0,0,0,
2026-03-27 20:00:00,METAR ZSPD 272000Z 21002MPS 8000 NSC 08/08 Q1016 NOSIG,0,2.0,0,8000,0,0,0,
2026-03-27 19:30:00,METAR ZSPD 271930Z 19002MPS 120V210 8000 NSC 09/09 Q1016 NOSIG,0,2.0,0,8000,0,0,0,
2026-03-27 19:00:00,METAR ZSPD 271900Z VRB01MPS 8000 NSC 10/10 Q1016 NOSIG,0,1.0,0,8000,0,0,0,
2026-03-27 18:30:00,METAR ZSPD 271830Z VRB01MPS CAVOK 10/09 Q1016 NOSIG,1,0.0,0,9999,0,0,0,
2026-03-27 18:00:00,METAR ZSPD 271800Z VRB01MPS CAVOK 11/09 Q1016 NOSIG,1,0.0,0,9999,0,0,0,
2026-03-27 17:30:00,METAR ZSPD 271730Z VRB01MPS CAVOK 12/09 Q1016 NOSIG,1,0.0,0,9999,0,0,0,
2026-03-27 17:00:00,METAR ZSPD 271700Z VRB01MPS CAVOK 12/09 Q1017 NOSIG,1,0.0,0,9999,0,0,0,
2026-03-27 16:30:00,METAR ZSPD 271630Z 00000MPS CAVOK 11/10 Q1017 NOSIG,1,0.0,0,9999,0,0,0,
2026-03-27 16:00:00,METAR ZSPD 271600Z 16001MPS CAVOK 12/10 Q1017 NOSIG,1,0.0,0,9999,0,0,0,
2026-03-25 15:00:00,METAR ZSPD 251500Z 17002MPS 5000 BR NSC 10/10 Q1018 NOSIG,0,2.0,0,5000,0,0,1,BR
2026-03-25 14:30:00,METAR ZSPD 251430Z 16002MPS 6000 NSC 11/11 Q1018 NOSIG,0,2.0,0,6000,0,0,0,
2026-03-25 14:00:00,METAR ZSPD 251400Z 16002MPS 8000 NSC 11/11 Q1018 NOSIG,0,2.0,0,8000,0,0,0,
2026-03-25 13:30:00,METAR ZSPD 251330Z 17002MPS CAVOK 11/11 Q1018 NOSIG,1,0.0,0,9999,0,0,0,
2026-03-25 13:00:00,METAR ZSPD 251300Z 16002MPS CAVOK 12/10 Q1018 NOSIG,1,0.0,0,9999,0,0,0,
2026-03-25 12:30:00,METAR ZSPD 251230Z 14002MPS CAVOK 12/12 Q1017 NOSIG,1,0.0,0,9999,0,0,0,
2026-03-25 12:00:00,METAR ZSPD 251200Z 15002MPS 130V200 CAVOK 12/10 Q1017 NOSIG,1,0.0,0,9999,0,0,0,
2026-03-25 11:30:00,METAR ZSPD 251130Z 12003MPS 090V150 CAVOK 12/10 Q1017 NOSIG,1,0.0,0,9999,0,0,0,
2026-03-25 11:00:00,METAR ZSPD 251100Z 09003MPS CAVOK 13/10 Q1017 NOSIG,1,0.0,0,9999,0,0,0,
2026-03-25 10:30:00,METAR ZSPD 251030Z 09003MPS 050V130 CAVOK 13/10 Q1017 NOSIG,1,0.0,0,9999,0,0,0,
2026-03-25 10:00:00,METAR ZSPD 251000Z 10004MPS CAVOK 13/10 Q1017 NOSIG,1,0.0,0,9999,0,0,0,
2026-03-25 09:30:00,METAR ZSPD 250930Z 13003MPS 100V160 CAVOK 14/10 Q1017 NOSIG,1,0.0,0,9999,0,0,0,
2026-03-25 09:00:00,METAR ZSPD 250900Z 12004MPS 030V150 CAVOK 14/10 Q1017 NOSIG,1,0.0,0,9999,0,0,0,
2026-03-25 08:30:00,METAR ZSPD 250830Z 10005MPS 060V130 CAVOK 15/10 Q1017 NOSIG,1,0.0,0,9999,0,0,0,
2026-03-25 08:00:00,METAR ZSPD 250800Z 08004MPS 020V110 CAVOK 16/10 Q1016 NOSIG,1,0.0,0,9999,0,0,0,
2026-03-25 07:30:00,METAR ZSPD 250730Z 05004MPS 010V080 CAVOK 16/09 Q1016 NOSIG,1,0.0,0,9999,0,0,0,
2026-03-25 07:00:00,METAR ZSPD 250700Z 03004MPS 360V060 CAVOK 16/09 Q1016 NOSIG,1,0.0,0,9999,0,0,0,
2026-03-25 06:30:00,METAR ZSPD 250630Z 03005MPS 360V070 CAVOK 16/09 Q1016 NOSIG,1,0.0,0,9999,0,0,0,
2026-03-25 06:00:00,METAR ZSPD 250600Z 04006MPS 010V070 CAVOK 16/09 Q1016 NOSIG,1,0.0,0,9999,0,0,0,
2026-03-25 05:30:00,METAR ZSPD 250530Z 04006MPS 010V080 9999 SCT026 16/09 Q1017 NOSIG,0,6.0,0,10000,0,0,0,
2026-03-25 05:00:00,METAR ZSPD 250500Z 03005MPS 340V070 9999 SCT026 16/10 Q1017 NOSIG,0,5.0,0,10000,0,0,0,
2026-03-25 04:30:00,METAR ZSPD 250430Z 02005MPS 340V070 9999 FEW026 16/09 Q1017 NOSIG,0,5.0,0,10000,0,0,0,
2026-03-25 04:00:00,METAR ZSPD 250400Z 02006MPS 360V060 9999 FEW026 16/10 Q1017 NOSIG,0,6.0,0,10000,0,0,0,
2026-03-25 03:30:00,METAR ZSPD 250330Z 02005MPS 9999 FEW026 15/09 Q1017 NOSIG,0,5.0,0,10000,0,0,0,
2026-03-25 03:00:00,METAR ZSPD 250300Z 36006MPS 9999 FEW026 15/09 Q1017 NOSIG,0,6.0,0,10000,0,0,0,
2026-03-25 02:30:00,METAR ZSPD 250230Z 01007MPS 9999 FEW026 15/09 Q1017 NOSIG,0,7.0,0,10000,0,0,0,
2026-03-25 02:00:00,METAR ZSPD 250200Z 34005MPS 9999 SCT026 15/08 Q1017 NOSIG,0,5.0,0,10000,0,0,0,
2026-03-25 01:30:00,METAR ZSPD 250130Z 33006MPS 9999 BKN026 14/08 Q1017 NOSIG,0,6.0,0,10000,0,0,0,
2026-03-25 01:00:00,METAR ZSPD 250100Z 32006MPS 9999 BKN033 13/07 Q1017 NOSIG,0,6.0,0,10000,0,0,0,
2026-03-25 00:30:00,METAR ZSPD 250030Z 33006MPS 9999 BKN033 12/07 Q1017 NOSIG,0,6.0,0,10000,0,0,0,
2026-03-25 00:00:00,METAR ZSPD 250000Z 32005MPS 9999 SCT023 BKN040 12/08 Q1017 NOSIG,0,5.0,0,10000,0,0,0,
2026-03-24 23:30:00,METAR ZSPD 242330Z 32006MPS 9999 SCT023 BKN040 11/08 Q1016 NOSIG,0,6.0,0,10000,0,0,0,
2026-03-24 23:00:00,METAR ZSPD 242300Z 33005MPS 9999 BKN040 11/08 Q1016 NOSIG,0,5.0,0,10000,0,0,0,
2026-03-24 22:30:00,METAR ZSPD 242230Z 34005MPS 9999 BKN040 11/08 Q1016 NOSIG,0,5.0,0,10000,0,0,0,
2026-03-24 22:00:00,METAR ZSPD 242200Z 32006MPS 6000 BKN020 OVC040 11/08 Q1015 NOSIG,0,6.0,0,6000,0,0,0,
2026-03-24 21:30:00,METAR ZSPD 242130Z 32005MPS 4500 BR BKN013 OVC040 11/09 Q1015 NOSIG,0,5.0,0,4500,0,0,1,BR
2026-03-24 21:00:00,METAR ZSPD 242100Z 32005MPS 4500 BR BKN013 OVC040 11/09 Q1015 BECMG TL2220 BKN015,0,5.0,0,4500,0,0,1,BR
2026-03-24 20:30:00,METAR ZSPD 242030Z 30004MPS 4500 BR BKN010 OVC040 11/09 Q1014 NOSIG,0,4.0,0,4500,0,0,1,BR
2026-03-24 20:00:00,METAR ZSPD 242000Z 32005MPS 4500 BR BKN010 OVC040 11/10 Q1014 BECMG TL2120 BKN015,0,5.0,0,4500,0,0,1,BR
2026-03-24 19:30:00,METAR ZSPD 241930Z 31005MPS 4500 BR BKN010 OVC040 11/10 Q1014 NOSIG,0,5.0,0,4500,0,0,1,BR
2026-03-24 19:00:00,METAR ZSPD 241900Z 30004MPS 6000 BKN023 OVC040 11/10 Q1014 BECMG TL2040 BKN010,0,4.0,0,6000,0,0,0,
2026-03-24 18:30:00,METAR ZSPD 241830Z 29004MPS 6000 BKN023 OVC040 11/10 Q1014 NOSIG,0,4.0,0,6000,0,0,0,
2026-03-24 18:00:00,METAR ZSPD 241800Z 31004MPS 6000 BKN023 OVC040 11/10 Q1014 NOSIG,0,4.0,0,6000,0,0,0,
2026-03-24 17:30:00,METAR ZSPD 241730Z 30004MPS 6000 BKN023 OVC040 11/10 Q1014 NOSIG,0,4.0,0,6000,0,0,0,
2026-03-24 17:00:00,METAR ZSPD 241700Z 31003MPS 6000 BKN023 OVC040 11/10 Q1014 NOSIG,0,3.0,0,6000,0,0,0,
2026-03-24 16:30:00,METAR ZSPD 241630Z 32003MPS 6000 BKN023 OVC040 11/11 Q1014 NOSIG,0,3.0,0,6000,0,0,0,
2026-03-24 16:00:00,METAR ZSPD 241600Z 30004MPS 6000 BKN013 OVC040 11/11 Q1014 BECMG TL1640 BKN015,0,4.0,0,6000,0,0,0,
2026-03-24 15:30:00,METAR ZSPD 241530Z 33004MPS 6000 BKN010 OVC040 11/11 Q1014 NOSIG,0,4.0,0,6000,0,0,0,
2026-03-24 15:00:00,METAR ZSPD 241500Z 32004MPS 6000 BKN010 OVC040 11/11 Q1014 NOSIG,0,4.0,0,6000,0,0,0,
2026-03-24 14:30:00,METAR ZSPD 241430Z 33004MPS 6000 BKN007 OVC040 11/11 Q1015 NOSIG,0,4.0,0,6000,0,0,0,
2026-03-24 14:00:00,METAR ZSPD 241400Z 33004MPS 6000 BKN007 OVC040 11/11 Q1015 BECMG TL1530 BKN010,0,4.0,0,6000,0,0,0,
2026-03-24 13:30:00,METAR ZSPD 241330Z 34004MPS 6000 -RA BKN007 OVC040 11/11 Q1015 NOSIG,0,4.0,0,6000,0,0,0,-RA
2026-03-24 13:00:00,METAR ZSPD 241300Z 35005MPS 6000 -RA BKN007 OVC040 11/11 Q1014 BECMG TL1350 BKN010,0,5.0,0,6000,0,0,0,-RA
2026-03-24 12:30:00,METAR ZSPD 241230Z 35005MPS 6000 -RA BKN007 OVC040 11/11 Q1014 NOSIG,0,5.0,0,6000,0,0,0,-RA
2026-03-24 12:00:00,METAR ZSPD 241200Z 34004MPS 6000 -RA BKN007 OVC040 11/11 Q1014 BECMG TL1340 BKN010,0,4.0,0,6000,0,0,0,-RA
2026-03-24 11:30:00,METAR ZSPD 241130Z 35005MPS 4500 -RA BR BKN005 OVC040 11/11 Q1014 NOSIG,0,5.0,0,4500,0,0,1,"-RA,BR"
2026-03-24 11:00:00,METAR ZSPD 241100Z 01006MPS 4500 -RA BR BKN005 OVC040 11/11 Q1013 NOSIG,0,6.0,0,4500,0,0,1,"-RA,BR"
2026-03-24 10:30:00,METAR ZSPD 241030Z 35005MPS 4500 -RA BR BKN007 OVC040 11/11 Q1014 NOSIG,0,5.0,0,4500,0,0,1,"-RA,BR"
2026-03-24 10:00:00,METAR ZSPD 241000Z 02004MPS 4500 -RA BR BKN007 OVC040 11/11 Q1013 BECMG TL1150 BKN010,0,4.0,0,4500,0,0,1,"-RA,BR"
2026-03-24 09:30:00,METAR ZSPD 240930Z 01005MPS 5000 -RA BR BKN015 OVC040 11/11 Q1013 NOSIG,0,5.0,0,5000,0,0,1,"-RA,BR"
2026-03-24 09:00:00,METAR ZSPD 240900Z 01004MPS 5000 -RA BR BKN015 OVC040 11/11 Q1013 NOSIG,0,4.0,0,5000,0,0,1,"-RA,BR"
2026-03-24 08:30:00,METAR ZSPD 240830Z 02005MPS 5000 -RA BR BKN011 OVC040 11/11 Q1012 NOSIG,0,5.0,0,5000,0,0,1,"-RA,BR"
2026-03-24 08:00:00,METAR ZSPD 240800Z 01005MPS 5000 -RA BR BKN008 OVC040 12/12 Q1013 BECMG TL0920 BKN015,0,5.0,0,5000,0,0,1,"-RA,BR"
2026-03-24 07:30:00,METAR ZSPD 240730Z 03005MPS 5000 -RA BR BKN008 OVC040 12/12 Q1013 NOSIG,0,5.0,0,5000,0,0,1,"-RA,BR"
2026-03-24 07:00:00,METAR ZSPD 240700Z 02004MPS 8000 -RA SCT008 OVC040 12/10 Q1013 BECMG TL0740 BKN008,0,4.0,0,8000,0,0,0,-RA
2026-03-24 06:30:00,METAR ZSPD 240630Z 06002MPS 010V090 9999 -RA OVC040 12/09 Q1013 NOSIG,0,2.0,0,10000,0,0,0,-RA
2026-03-24 06:00:00,METAR ZSPD 240600Z 06003MPS 010V090 9999 -RA OVC040 12/10 Q1013 NOSIG,0,3.0,0,10000,0,0,0,-RA
2026-03-24 05:30:00,METAR ZSPD 240530Z 06004MPS 010V080 9999 -RA BKN040 13/10 Q1013 NOSIG,0,4.0,0,10000,0,0,0,-RA
2026-03-24 05:00:00,METAR ZSPD 240500Z 05004MPS 010V080 9999 BKN040 14/10 Q1013 NOSIG,0,4.0,0,10000,0,0,0,
2026-03-24 04:30:00,METAR ZSPD 240430Z 06003MPS 020V100 9999 BKN040 13/10 Q1014 NOSIG,0,3.0,0,10000,0,0,0,
2026-03-24 04:00:00,METAR ZSPD 240400Z 08004MPS 010V110 9999 BKN040 13/09 Q1015 NOSIG,0,4.0,0,10000,0,0,0,
2026-03-24 03:30:00,METAR ZSPD 240330Z 10004MPS 050V110 9999 BKN040 13/09 Q1015 NOSIG,0,4.0,0,10000,0,0,0,
2026-03-24 03:00:00,METAR ZSPD 240300Z 09003MPS 030V130 9999 BKN040 13/09 Q1016 NOSIG,0,3.0,0,10000,0,0,0,
2026-03-24 02:30:00,METAR ZSPD 240230Z 07004MPS 020V100 9999 FEW010 BKN040 13/09 Q1016 NOSIG,0,4.0,0,10000,0,0,0,
2026-03-24 02:00:00,METAR ZSPD 240200Z 07005MPS 010V100 9999 SCT010 13/10 Q1016 NOSIG,0,5.0,0,10000,0,0,0,
2026-03-24 01:30:00,METAR ZSPD 240130Z 06005MPS 030V090 9999 SCT010 13/09 Q1016 NOSIG,0,5.0,0,10000,0,0,0,
2026-03-24 01:00:00,METAR ZSPD 240100Z 07004MPS 030V090 9999 SCT010 12/09 Q1016 BECMG TL0130 BKN010,0,4.0,0,10000,0,0,0,
2026-03-24 00:30:00,METAR ZSPD 240030Z 07004MPS 030V100 9999 SCT010 12/10 Q1017 NOSIG,0,4.0,0,10000,0,0,0,
2026-03-24 00:00:00,METAR ZSPD 240000Z 07004MPS 020V100 9999 SCT010 12/09 Q1017 NOSIG,0,4.0,0,10000,0,0,0,
2026-03-23 23:30:00,METAR ZSPD 232330Z 07004MPS 9999 SCT010 12/09 Q1017 NOSIG,0,4.0,0,10000,0,0,0,
2026-03-23 23:00:00,METAR ZSPD 232300Z 05004MPS 020V090 9999 SCT010 12/09 Q1017 NOSIG,0,4.0,0,10000,0,0,0,
2026-03-23 22:30:00,METAR ZSPD 232230Z 07004MPS 020V090 9999 SCT010 12/09 Q1016 NOSIG,0,4.0,0,10000,0,0,0,
2026-03-23 22:00:00,METAR ZSPD 232200Z 07004MPS CAVOK 11/09 Q1016 NOSIG,1,0.0,0,9999,0,0,0,
2026-03-23 21:30:00,METAR ZSPD 232130Z 08004MPS CAVOK 11/09 Q1016 NOSIG,1,0.0,0,9999,0,0,0,
2026-03-23 21:00:00,METAR ZSPD 232100Z 08004MPS CAVOK 11/09 Q1016 NOSIG,1,0.0,0,9999,0,0,0,
2026-03-23 20:30:00,METAR ZSPD 232030Z 08003MPS CAVOK 11/09 Q1016 NOSIG,1,0.0,0,9999,0,0,0,
2026-03-23 20:00:00,METAR ZSPD 232000Z 06004MPS CAVOK 11/09 Q1016 NOSIG,1,0.0,0,9999,0,0,0,
2026-03-23 19:30:00,METAR ZSPD 231930Z 07004MPS CAVOK 11/09 Q1017 NOSIG,1,0.0,0,9999,0,0,0,
2026-03-23 19:00:00,METAR ZSPD 231900Z 06003MPS CAVOK 11/09 Q1017 NOSIG,1,0.0,0,9999,0,0,0,
2026-03-23 18:30:00,METAR ZSPD 231830Z 06003MPS CAVOK 11/09 Q1018 NOSIG,1,0.0,0,9999,0,0,0,
2026-03-23 18:00:00,METAR ZSPD 231800Z 08004MPS CAVOK 12/09 Q1018 NOSIG,1,0.0,0,9999,0,0,0,
2026-03-23 17:30:00,METAR ZSPD 231730Z 06004MPS CAVOK 12/09 Q1018 NOSIG,1,0.0,0,9999,0,0,0,
2026-03-23 17:00:00,METAR ZSPD 231700Z 06004MPS CAVOK 12/09 Q1018 NOSIG,1,0.0,0,9999,0,0,0,
2026-03-23 16:30:00,METAR ZSPD 231630Z 07004MPS CAVOK 12/09 Q1019 NOSIG,1,0.0,0,9999,0,0,0,
2026-03-23 16:00:00,METAR ZSPD 231600Z 07003MPS CAVOK 12/09 Q1019 NOSIG,1,0.0,0,9999,0,0,0,
2026-03-23 15:30:00,METAR ZSPD 231530Z 07003MPS 040V100 CAVOK 12/09 Q1019 NOSIG,1,0.0,0,9999,0,0,0,
2026-03-23 15:00:00,METAR ZSPD 231500Z 05004MPS 010V080 CAVOK 12/09 Q1019 NOSIG,1,0.0,0,9999,0,0,0,
2026-03-23 14:30:00,METAR ZSPD 231430Z 06004MPS 020V090 CAVOK 12/10 Q1019 NOSIG,1,0.0,0,9999,0,0,0,
2026-03-23 14:00:00,METAR ZSPD 231400Z 04005MPS 010V080 CAVOK 12/09 Q1020 NOSIG,1,0.0,0,9999,0,0,0,
2026-03-23 13:30:00,METAR ZSPD 231330Z 06004MPS 020V090 CAVOK 12/09 Q1019 NOSIG,1,0.0,0,9999,0,0,0,
2026-03-23 13:00:00,METAR ZSPD 231300Z 07004MPS 030V090 CAVOK 12/09 Q1020 NOSIG,1,0.0,0,9999,0,0,0,
2026-03-23 12:30:00,METAR ZSPD 231230Z 08005MPS 9999 BKN040 12/09 Q1019 NOSIG,0,5.0,0,10000,0,0,0,
2026-03-23 12:00:00,METAR ZSPD 231200Z 07004MPS 9999 BKN040 13/09 Q1019 NOSIG,0,4.0,0,10000,0,0,0,
2026-03-23 11:30:00,METAR ZSPD 231130Z 07003MPS 020V100 9999 BKN040 13/09 Q1019 NOSIG,0,3.0,0,10000,0,0,0,
2026-03-23 11:00:00,METAR ZSPD 231100Z 06004MPS 020V080 9999 BKN040 13/09 Q1019 NOSIG,0,4.0,0,10000,0,0,0,
2026-03-23 10:30:00,METAR ZSPD 231030Z 05004MPS 010V090 9999 BKN040 13/09 Q1019 NOSIG,0,4.0,0,10000,0,0,0,
2026-03-23 10:00:00,METAR ZSPD 231000Z 07004MPS 040V100 9999 SCT040 13/08 Q1019 NOSIG,0,4.0,0,10000,0,0,0,
2026-03-23 09:30:00,METAR ZSPD 230930Z 08005MPS 040V110 9999 SCT040 14/08 Q1019 NOSIG,0,5.0,0,10000,0,0,0,
2026-03-23 09:00:00,METAR ZSPD 230900Z 08004MPS 030V100 9999 SCT040 14/09 Q1019 NOSIG,0,4.0,0,10000,0,0,0,
2026-03-23 08:30:00,METAR ZSPD 230830Z 09005MPS 040V110 9999 SCT040 14/08 Q1019 NOSIG,0,5.0,0,10000,0,0,0,
2026-03-23 08:00:00,METAR ZSPD 230800Z 09006MPS 030V110 9999 SCT040 15/08 Q1018 NOSIG,0,6.0,0,10000,0,0,0,
2026-03-23 07:30:00,METAR ZSPD 230730Z 10005MPS 050V130 9999 SCT040 15/08 Q1019 NOSIG,0,5.0,0,10000,0,0,0,
2026-03-23 07:00:00,METAR ZSPD 230700Z 10006MPS 060V120 9999 SCT040 15/08 Q1018 NOSIG,0,6.0,0,10000,0,0,0,
2026-03-23 06:30:00,METAR ZSPD 230630Z 09006MPS 9999 SCT040 15/08 Q1019 NOSIG,0,6.0,0,10000,0,0,0,
2026-03-23 06:00:00,METAR ZSPD 230600Z 09006MPS 040V110 9999 SCT040 15/07 Q1019 NOSIG,0,6.0,0,10000,0,0,0,
2026-03-23 05:30:00,METAR ZSPD 230530Z 10006MPS 060V120 9999 SCT040 15/08 Q1019 NOSIG,0,6.0,0,10000,0,0,0,
2026-03-23 05:00:00,METAR ZSPD 230500Z 09005MPS 010V120 9999 SCT040 16/08 Q1019 NOSIG,0,5.0,0,10000,0,0,0,
2026-03-23 04:30:00,METAR ZSPD 230430Z 09006MPS 030V110 9999 SCT040 15/09 Q1020 NOSIG,0,6.0,0,10000,0,0,0,
2026-03-23 04:00:00,METAR ZSPD 230400Z 07006MPS 010V100 CAVOK 15/09 Q1020 NOSIG,1,0.0,0,9999,0,0,0,
2026-03-23 03:30:00,METAR ZSPD 230330Z 06006MPS 010V090 CAVOK 15/09 Q1020 NOSIG,1,0.0,0,9999,0,0,0,
2026-03-23 03:00:00,METAR ZSPD 230300Z 06005MPS 010V090 9999 BKN040 15/10 Q1021 NOSIG,0,5.0,0,10000,0,0,0,
2026-03-23 02:30:00,METAR ZSPD 230230Z 06004MPS 020V100 9999 BKN040 15/11 Q1020 NOSIG,0,4.0,0,10000,0,0,0,
2026-03-23 02:00:00,METAR ZSPD 230200Z 06004MPS 360V080 9999 BKN040 14/11 Q1020 NOSIG,0,4.0,0,10000,0,0,0,
2026-03-23 01:30:00,METAR ZSPD 230130Z 05003MPS 010V080 9999 SCT008 OVC040 13/11 Q1020 NOSIG,0,3.0,0,10000,0,0,0,
2026-03-23 01:00:00,METAR ZSPD 230100Z 07004MPS 010V090 9999 SCT008 OVC040 13/11 Q1020 NOSIG,0,4.0,0,10000,0,0,0,
2026-03-23 00:30:00,METAR ZSPD 230030Z 06003MPS 360V090 9999 SCT005 OVC033 12/12 Q1020 NOSIG,0,3.0,0,10000,0,0,0,
2026-03-23 00:00:00,METAR ZSPD 230000Z 05003MPS 010V080 9999 BKN005 OVC033 12/12 Q1020 BECMG TL0100 SCT005,0,3.0,0,10000,0,0,0,
2026-03-22 23:30:00,METAR ZSPD 222330Z 04003MPS 010V070 9999 BKN005 OVC026 12/12 Q1020 NOSIG,0,3.0,0,10000,0,0,0,
2026-03-22 23:00:00,METAR ZSPD 222300Z 06003MPS 020V100 8000 BKN004 12/12 Q1019 BECMG TL2400 BKN005,0,3.0,0,8000,0,0,0,
2026-03-22 22:30:00,METAR ZSPD 222230Z 05004MPS 350V070 5000 BR BKN002 12/12 Q1019 NOSIG,0,4.0,0,5000,0,0,1,BR
2026-03-22 22:00:00,METAR ZSPD 222200Z 05003MPS 350V100 3000 BR BKN002 12/12 Q1019 BECMG TL2230 2500,0,3.0,0,3000,0,0,1,BR
2026-03-22 21:30:00,METAR ZSPD 222130Z 06003MPS 360V110 4000 BR BKN002 12/12 Q1019 NOSIG,0,3.0,0,4000,0,0,1,BR
2026-03-22 21:00:00,METAR ZSPD 222100Z 06003MPS 010V120 2500 BR BKN002 12/12 Q1018 BECMG TL2230 3000,0,3.0,0,2500,0,0,1,BR
2026-03-22 20:30:00,METAR ZSPD 222030Z 05003MPS 360V080 1200 R35R/1000D R34L/P2000N R35L/0800D R34R/P2000N PRFG BR BKN002 12/12 Q1018 NOSIG,0,3.0,0,1200,0,0,1,"BR,FG"
2026-03-22 20:11:00,SPECI ZSPD 222011Z 06002MPS 320V090 1200 R35R/P2000N R34L/0500D R35L/P2000N R34R/0500D PRFG BR BKN002 12/12 Q1018 NOSIG,0,2.0,0,1200,0,0,1,"BR,FG"
2026-03-22 20:00:00,METAR ZSPD 222000Z 07003MPS 020V090 1500 R35R/P2000N R34L/1300U R35L/2000U R34R/1400U PRFG BR BKN002 12/12 Q1018 BECMG TL2040 1200,0,3.0,0,1500,0,0,1,"BR,FG"
2026-03-22 19:30:00,METAR ZSPD 221930Z 05003MPS 330V100 2000 R35R/P2000N R34L/1100D R35L/P2000N R34R/1000D PRFG BR BKN002 13/13 Q1018 BECMG TL2030 0700 FG,0,3.0,0,2000,0,0,1,"BR,FG"
2026-03-22 19:00:00,METAR ZSPD 221900Z VRB01MPS 5000 BR SCT003 13/13 Q1018 BECMG TL2030 2500 BKN003,0,1.0,0,5000,0,0,1,BR
2026-03-22 18:30:00,METAR ZSPD 221830Z VRB01MPS 7000 FEW003 13/13 Q1018 NOSIG,0,1.0,0,7000,0,0,0,
2026-03-22 18:00:00,METAR ZSPD 221800Z 21002MPS 7000 FEW003 12/12 Q1019 NOSIG,0,2.0,0,7000,0,0,0,
2026-03-22 17:30:00,METAR ZSPD 221730Z 15002MPS 060V200 3500 BR BKN003 12/12 Q1019 NOSIG,0,2.0,0,3500,0,0,1,BR
2026-03-22 17:00:00,METAR ZSPD 221700Z VRB03MPS 1200 R35R/1100D R34L/1000U R35L/1600N R34R/1100D PRFG BR BKN002 12/12 Q1019 BECMG TL1750 0700 FG,0,3.0,0,1200,0,0,1,"BR,FG"
2026-03-22 16:30:00,METAR ZSPD 221630Z 09003MPS 4000 BR BKN003 13/13 Q1019 BECMG TL1720 1200 BKN001,0,3.0,0,4000,0,0,1,BR
2026-03-22 16:07:00,SPECI ZSPD 221607Z 10003MPS 6000 BKN003 13/13 Q1019 BECMG TL1700 1200 BR,0,3.0,0,6000,0,0,1,BR
2026-03-22 16:00:00,METAR ZSPD 221600Z 10003MPS 7000 -RA SCT003 13/13 Q1019 BECMG TL1630 2500 BKN003,0,3.0,0,7000,0,0,0,-RA
2026-03-22 15:30:00,METAR ZSPD 221530Z 09003MPS CAVOK 13/13 Q1019 NOSIG,1,0.0,0,9999,0,0,0,
2026-03-22 15:00:00,METAR ZSPD 221500Z 09003MPS CAVOK 13/12 Q1019 NOSIG,1,0.0,0,9999,0,0,0,
2026-03-22 14:30:00,METAR ZSPD 221430Z 09003MPS CAVOK 13/11 Q1019 NOSIG,1,0.0,0,9999,0,0,0,
2026-03-22 14:00:00,METAR ZSPD 221400Z 10004MPS CAVOK 13/12 Q1019 NOSIG,1,0.0,0,9999,0,0,0,
2026-03-22 13:30:00,METAR ZSPD 221330Z 11002MPS CAVOK 13/11 Q1019 NOSIG,1,0.0,0,9999,0,0,0,
2026-03-22 13:00:00,METAR ZSPD 221300Z 10002MPS 070V140 CAVOK 14/11 Q1018 NOSIG,1,0.0,0,9999,0,0,0,
2026-03-22 12:30:00,METAR ZSPD 221230Z 11003MPS CAVOK 14/11 Q1018 NOSIG,1,0.0,0,9999,0,0,0,
2026-03-22 11:30:00,METAR ZSPD 221130Z 10003MPS CAVOK 14/11 Q1017 NOSIG,1,0.0,0,9999,0,0,0,
2026-03-22 11:00:00,METAR ZSPD 221100Z 12003MPS CAVOK 14/11 Q1017 NOSIG,1,0.0,0,9999,0,0,0,
2026-03-22 10:30:00,METAR ZSPD 221030Z 10003MPS CAVOK 14/12 Q1016 NOSIG,1,0.0,0,9999,0,0,0,
2026-03-22 10:00:00,METAR ZSPD 221000Z 10004MPS CAVOK 15/11 Q1016 NOSIG,1,0.0,0,9999,0,0,0,
2026-03-22 09:30:00,METAR ZSPD 220930Z 09004MPS CAVOK 15/12 Q1016 NOSIG,1,0.0,0,9999,0,0,0,
2026-03-22 08:30:00,METAR ZSPD 220830Z 14003MPS 100V180 CAVOK 17/12 Q1016 NOSIG,1,0.0,0,9999,0,0,0,
2026-03-22 08:00:00,METAR ZSPD 220800Z 11003MPS 080V140 CAVOK 16/11 Q1016 NOSIG,1,0.0,0,9999,0,0,0,
2026-03-22 07:30:00,METAR ZSPD 220730Z 12004MPS CAVOK 16/11 Q1016 NOSIG,1,0.0,0,9999,0,0,0,
2026-03-22 06:30:00,METAR ZSPD 220630Z 09005MPS CAVOK 17/11 Q1016 NOSIG,1,0.0,0,9999,0,0,0,
2026-03-22 06:00:00,METAR ZSPD 220600Z 08005MPS 060V120 CAVOK 17/12 Q1016 NOSIG,1,0.0,0,9999,0,0,0,
2026-03-22 05:30:00,METAR ZSPD 220530Z 10004MPS 070V140 CAVOK 18/11 Q1016 NOSIG,1,0.0,0,9999,0,0,0,
2026-03-22 05:00:00,METAR ZSPD 220500Z 11004MPS CAVOK 18/12 Q1016 NOSIG,1,0.0,0,9999,0,0,0,
2026-03-22 04:30:00,METAR ZSPD 220430Z 07006MPS CAVOK 17/12 Q1016 NOSIG,1,0.0,0,9999,0,0,0,
2026-03-22 04:15:00,SPECI ZSPD 220415Z 08006MPS 050V120 CAVOK 17/12 Q1016 NOSIG,1,0.0,0,9999,0,0,0,
2026-03-22 04:00:00,METAR ZSPD 220400Z VRB01MPS CAVOK 18/10 Q1017 NOSIG,1,0.0,0,9999,0,0,0,
2026-03-22 03:30:00,METAR ZSPD 220330Z VRB02MPS CAVOK 17/11 Q1017 NOSIG,1,0.0,0,9999,0,0,0,
2026-03-22 03:00:00,METAR ZSPD 220300Z VRB02MPS CAVOK 17/10 Q1017 NOSIG,1,0.0,0,9999,0,0,0,
2026-03-22 02:30:00,METAR ZSPD 220230Z 14002MPS 080V210 CAVOK 16/10 Q1017 NOSIG,1,0.0,0,9999,0,0,0,
2026-03-22 02:00:00,METAR ZSPD 220200Z 17003MPS 110V220 CAVOK 16/10 Q1018 NOSIG,1,0.0,0,9999,0,0,0,
2026-03-22 01:30:00,METAR ZSPD 220130Z 15003MPS 110V180 CAVOK 15/10 Q1017 NOSIG,1,0.0,0,9999,0,0,0,
2026-03-22 01:00:00,METAR ZSPD 220100Z 15003MPS 120V190 8000 NSC 15/10 Q1018 NOSIG,0,3.0,0,8000,0,0,0,
2026-03-22 00:30:00,METAR ZSPD 220030Z 15002MPS 120V210 6000 NSC 14/10 Q1018 NOSIG,0,2.0,0,6000,0,0,0,
2026-03-22 00:00:00,METAR ZSPD 220000Z 08002MPS 050V110 6000 NSC 13/10 Q1018 NOSIG,0,2.0,0,6000,0,0,0,
2026-03-21 23:30:00,METAR ZSPD 212330Z 15002MPS 110V180 5000 BR BKN043 12/10 Q1018 NOSIG,0,2.0,0,5000,0,0,1,BR
2026-03-21 23:00:00,METAR ZSPD 212300Z 14003MPS 5000 BR NSC 12/10 Q1017 NOSIG,0,3.0,0,5000,0,0,1,BR
2026-03-21 22:30:00,METAR ZSPD 212230Z 14002MPS 120V180 5000 BR NSC 11/09 Q1017 NOSIG,0,2.0,0,5000,0,0,1,BR
2026-03-21 22:00:00,METAR ZSPD 212200Z 10003MPS 5000 BR NSC 11/10 Q1018 NOSIG,0,3.0,0,5000,0,0,1,BR
2026-03-21 21:30:00,METAR ZSPD 212130Z 10003MPS 8000 NSC 11/09 Q1017 NOSIG,0,3.0,0,8000,0,0,0,
2026-03-21 21:00:00,METAR ZSPD 212100Z 11003MPS CAVOK 11/09 Q1017 NOSIG,1,0.0,0,9999,0,0,0,
2026-03-21 20:30:00,METAR ZSPD 212030Z 11003MPS CAVOK 11/08 Q1017 NOSIG,1,0.0,0,9999,0,0,0,
2026-03-21 19:30:00,METAR ZSPD 211930Z 00000MPS CAVOK 10/08 Q1018 NOSIG,1,0.0,0,9999,0,0,0,
2026-03-21 19:00:00,METAR ZSPD 211900Z 18001MPS CAVOK 10/08 Q1018 NOSIG,1,0.0,0,9999,0,0,0,
2026-03-21 18:30:00,METAR ZSPD 211830Z 16003MPS CAVOK 10/08 Q1019 NOSIG,1,0.0,0,9999,0,0,0,
2026-03-21 18:00:00,METAR ZSPD 211800Z 13003MPS CAVOK 10/07 Q1019 NOSIG,1,0.0,0,9999,0,0,0,
2026-03-21 17:30:00,METAR ZSPD 211730Z 12003MPS CAVOK 10/07 Q1019 NOSIG,1,0.0,0,9999,0,0,0,
2026-03-21 17:00:00,METAR ZSPD 211700Z 12003MPS CAVOK 10/08 Q1019 NOSIG,1,0.0,0,9999,0,0,0,
2026-03-21 16:30:00,METAR ZSPD 211630Z 12004MPS CAVOK 10/08 Q1019 NOSIG,1,0.0,0,9999,0,0,0,
2026-03-21 16:00:00,METAR ZSPD 211600Z 11003MPS CAVOK 10/07 Q1020 NOSIG,1,0.0,0,9999,0,0,0,
2026-03-21 15:30:00,METAR ZSPD 211530Z 12004MPS CAVOK 10/07 Q1020 NOSIG,1,0.0,0,9999,0,0,0,
2026-03-21 15:00:00,METAR ZSPD 211500Z 12004MPS CAVOK 10/07 Q1021 NOSIG,1,0.0,0,9999,0,0,0,
2026-03-21 14:30:00,METAR ZSPD 211430Z 11003MPS CAVOK 10/07 Q1021 NOSIG,1,0.0,0,9999,0,0,0,
2026-03-21 14:00:00,METAR ZSPD 211400Z 11003MPS CAVOK 10/07 Q1021 NOSIG,1,0.0,0,9999,0,0,0,
2026-03-21 13:30:00,METAR ZSPD 211330Z 11004MPS CAVOK 10/07 Q1021 NOSIG,1,0.0,0,9999,0,0,0,
2026-03-21 13:00:00,METAR ZSPD 211300Z 11003MPS CAVOK 10/07 Q1021 NOSIG,1,0.0,0,9999,0,0,0,
2026-03-21 12:30:00,METAR ZSPD 211230Z 11003MPS 9999 SCT025 10/07 Q1021 NOSIG,0,3.0,0,10000,0,0,0,
2026-03-21 12:00:00,METAR ZSPD 211200Z 11004MPS 9999 SCT025 11/07 Q1021 NOSIG,0,4.0,0,10000,0,0,0,
2026-03-21 11:30:00,METAR ZSPD 211130Z 11004MPS CAVOK 11/07 Q1021 NOSIG,1,0.0,0,9999,0,0,0,
2026-03-21 11:00:00,METAR ZSPD 211100Z 12004MPS CAVOK 11/07 Q1021 NOSIG,1,0.0,0,9999,0,0,0,
2026-03-21 10:30:00,METAR ZSPD 211030Z 12004MPS CAVOK 11/07 Q1021 NOSIG,1,0.0,0,9999,0,0,0,
2026-03-21 10:00:00,METAR ZSPD 211000Z 12004MPS CAVOK 11/06 Q1021 NOSIG,1,0.0,0,9999,0,0,0,
2026-03-21 09:30:00,METAR ZSPD 210930Z 11004MPS CAVOK 12/06 Q1021 NOSIG,1,0.0,0,9999,0,0,0,
2026-03-21 09:00:00,METAR ZSPD 210900Z 10005MPS CAVOK 12/07 Q1021 NOSIG,1,0.0,0,9999,0,0,0,
2026-03-21 08:30:00,METAR ZSPD 210830Z 10005MPS 070V130 CAVOK 13/07 Q1021 NOSIG,1,0.0,0,9999,0,0,0,
2026-03-21 08:00:00,METAR ZSPD 210800Z 10006MPS 080V140 CAVOK 13/07 Q1021 NOSIG,1,0.0,0,9999,0,0,0,
2026-03-21 07:30:00,METAR ZSPD 210730Z 10006MPS 080V180 CAVOK 14/07 Q1021 NOSIG,1,0.0,0,9999,0,0,0,
2026-03-21 07:00:00,METAR ZSPD 210700Z 10006MPS 070V130 CAVOK 13/07 Q1022 NOSIG,1,0.0,0,9999,0,0,0,
2026-03-21 06:30:00,METAR ZSPD 210630Z 09006MPS CAVOK 13/07 Q1022 NOSIG,1,0.0,0,9999,0,0,0,
2026-03-21 06:00:00,METAR ZSPD 210600Z 09005MPS 050V110 CAVOK 13/07 Q1023 NOSIG,1,0.0,0,9999,0,0,0,
2026-03-21 05:30:00,METAR ZSPD 210530Z 09005MPS 060V150 9999 SCT043 14/07 Q1023 NOSIG,0,5.0,0,10000,0,0,0,
2026-03-21 05:00:00,METAR ZSPD 210500Z 10005MPS 060V150 9999 SCT043 14/06 Q1023 NOSIG,0,5.0,0,10000,0,0,0,
2026-03-21 04:30:00,METAR ZSPD 210430Z 11005MPS 070V160 9999 SCT043 14/06 Q1024 NOSIG,0,5.0,0,10000,0,0,0,
2026-03-21 04:00:00,METAR ZSPD 210400Z 12004MPS 070V190 9999 SCT026 13/06 Q1024 NOSIG,0,4.0,0,10000,0,0,0,
2026-03-21 03:30:00,METAR ZSPD 210330Z 08003MPS 050V150 9999 SCT026 13/07 Q1024 NOSIG,0,3.0,0,10000,0,0,0,
2026-03-21 03:00:00,METAR ZSPD 210300Z 10004MPS 060V200 9999 SCT020 12/05 Q1024 NOSIG,0,4.0,0,10000,0,0,0,
2026-03-21 02:30:00,METAR ZSPD 210230Z 09004MPS 060V140 9999 SCT020 13/07 Q1024 NOSIG,0,4.0,0,10000,0,0,0,
2026-03-21 02:00:00,METAR ZSPD 210200Z 10005MPS 9999 SCT020 13/07 Q1025 NOSIG,0,5.0,0,10000,0,0,0,
2026-03-21 01:30:00,METAR ZSPD 210130Z 10004MPS 9999 SCT020 12/06 Q1025 NOSIG,0,4.0,0,10000,0,0,0,
2026-03-21 01:00:00,METAR ZSPD 210100Z 06004MPS 030V090 9999 FEW020 12/07 Q1025 NOSIG,0,4.0,0,10000,0,0,0,
2026-03-21 00:30:00,METAR ZSPD 210030Z 08004MPS CAVOK 11/06 Q1024 NOSIG,1,0.0,0,9999,0,0,0,
2026-03-21 00:00:00,METAR ZSPD 210000Z 06003MPS 330V110 CAVOK 11/05 Q1024 NOSIG,1,0.0,0,9999,0,0,0,
2026-03-20 23:30:00,METAR ZSPD 202330Z 05003MPS 030V090 CAVOK 10/05 Q1024 NOSIG,1,0.0,0,9999,0,0,0,
2026-03-20 23:00:00,METAR ZSPD 202300Z 36001MPS CAVOK 09/06 Q1024 NOSIG,1,0.0,0,9999,0,0,0,
2026-03-20 22:30:00,METAR ZSPD 202230Z VRB01MPS CAVOK 08/04 Q1024 NOSIG,1,0.0,0,9999,0,0,0,
2026-03-20 22:00:00,METAR ZSPD 202200Z 04002MPS 010V070 CAVOK 08/04 Q1023 NOSIG,1,0.0,0,9999,0,0,0,
2026-03-20 21:30:00,METAR ZSPD 202130Z VRB01MPS CAVOK 07/03 Q1023 NOSIG,1,0.0,0,9999,0,0,0,
2026-03-20 21:00:00,METAR ZSPD 202100Z VRB01MPS CAVOK 06/03 Q1023 NOSIG,1,0.0,0,9999,0,0,0,
2026-03-20 20:30:00,METAR ZSPD 202030Z VRB01MPS CAVOK 07/04 Q1023 NOSIG,1,0.0,0,9999,0,0,0,
2026-03-20 19:30:00,METAR ZSPD 201930Z 30001MPS CAVOK 06/06 Q1023 NOSIG,1,0.0,0,9999,0,0,0,
2026-03-20 19:00:00,METAR ZSPD 201900Z 22001MPS CAVOK 06/04 Q1023 NOSIG,1,0.0,0,9999,0,0,0,
2026-03-20 18:30:00,METAR ZSPD 201830Z VRB01MPS CAVOK 07/03 Q1023 NOSIG,1,0.0,0,9999,0,0,0,
2026-03-20 18:00:00,METAR ZSPD 201800Z VRB01MPS CAVOK 08/03 Q1023 NOSIG,1,0.0,0,9999,0,0,0,
2026-03-20 17:30:00,METAR ZSPD 201730Z VRB02MPS CAVOK 08/03 Q1023 NOSIG,1,0.0,0,9999,0,0,0,
2026-03-20 17:00:00,METAR ZSPD 201700Z 18002MPS 140V220 CAVOK 08/02 Q1023 NOSIG,1,0.0,0,9999,0,0,0,
2026-03-20 16:30:00,METAR ZSPD 201630Z VRB01MPS CAVOK 08/02 Q1024 NOSIG,1,0.0,0,9999,0,0,0,
2026-03-20 16:00:00,METAR ZSPD 201600Z 15001MPS CAVOK 08/03 Q1024 NOSIG,1,0.0,0,9999,0,0,0,
2026-03-20 15:30:00,METAR ZSPD 201530Z 14003MPS 100V170 CAVOK 09/01 Q1024 NOSIG,1,0.0,0,9999,0,0,0,
2026-03-20 15:00:00,METAR ZSPD 201500Z 11002MPS CAVOK 09/02 Q1024 NOSIG,1,0.0,0,9999,0,0,0,
2026-03-20 14:30:00,METAR ZSPD 201430Z 12002MPS CAVOK 09/01 Q1024 NOSIG,1,0.0,0,9999,0,0,0,
2026-03-20 14:00:00,METAR ZSPD 201400Z 14003MPS 110V170 CAVOK 09/M00 Q1024 NOSIG,1,0.0,0,9999,0,0,0,
2026-03-20 13:30:00,METAR ZSPD 201330Z VRB01MPS CAVOK 08/03 Q1024 NOSIG,1,0.0,0,9999,0,0,0,
2026-03-20 12:30:00,METAR ZSPD 201230Z 16002MPS CAVOK 09/05 Q1023 NOSIG,1,0.0,0,9999,0,0,0,
2026-03-20 11:30:00,METAR ZSPD 201130Z 11004MPS 9999 -RA NSC 09/04 Q1022 NOSIG,0,4.0,0,10000,0,0,0,-RA
2026-03-20 11:00:00,METAR ZSPD 201100Z 10003MPS 060V120 9999 -RA NSC 09/03 Q1023 NOSIG,0,3.0,0,10000,0,0,0,-RA
2026-03-20 10:30:00,METAR ZSPD 201030Z 10003MPS 9999 -RA NSC 09/02 Q1023 NOSIG,0,3.0,0,10000,0,0,0,-RA
2026-03-20 10:00:00,METAR ZSPD 201000Z 08005MPS 9999 -RA NSC 09/02 Q1022 NOSIG,0,5.0,0,10000,0,0,0,-RA
2026-03-20 09:30:00,METAR ZSPD 200930Z 06005MPS 020V090 9999 -RA NSC 10/03 Q1022 NOSIG,0,5.0,0,10000,0,0,0,-RA
2026-03-20 09:00:00,METAR ZSPD 200900Z 08005MPS 9999 -RA NSC 11/02 Q1022 NOSIG,0,5.0,0,10000,0,0,0,-RA
2026-03-20 08:30:00,METAR ZSPD 200830Z 08006MPS 040V100 CAVOK 11/02 Q1021 BECMG TL0940 SHRA,1,0.0,0,9999,0,0,0,
2026-03-20 08:00:00,METAR ZSPD 200800Z 08005MPS 010V100 CAVOK 12/01 Q1022 NOSIG,1,0.0,0,9999,0,0,0,
2026-03-20 07:30:00,METAR ZSPD 200730Z 08004MPS 040V110 CAVOK 12/02 Q1022 NOSIG,1,0.0,0,9999,0,0,0,
2026-03-20 06:30:00,METAR ZSPD 200630Z 08004MPS 010V120 CAVOK 12/02 Q1022 NOSIG,1,0.0,0,9999,0,0,0,
2026-03-20 06:00:00,METAR ZSPD 200600Z 08004MPS 060V120 CAVOK 12/01 Q1022 NOSIG,1,0.0,0,9999,0,0,0,
2026-03-20 05:30:00,METAR ZSPD 200530Z 10004MPS 040V130 CAVOK 13/02 Q1022 NOSIG,1,0.0,0,9999,0,0,0,
2026-03-20 05:00:00,METAR ZSPD 200500Z 09004MPS 030V140 CAVOK 13/02 Q1022 NOSIG,1,0.0,0,9999,0,0,0,
2026-03-20 04:30:00,METAR ZSPD 200430Z 08005MPS 040V110 CAVOK 14/02 Q1021 NOSIG,1,0.0,0,9999,0,0,0,
2026-03-20 04:00:00,METAR ZSPD 200400Z 07004MPS 030V120 CAVOK 13/03 Q1022 NOSIG,1,0.0,0,9999,0,0,0,
2026-03-20 03:30:00,METAR ZSPD 200330Z 07005MPS 020V100 CAVOK 14/03 Q1022 NOSIG,1,0.0,0,9999,0,0,0,
2026-03-20 03:00:00,METAR ZSPD 200300Z 08004MPS 020V100 CAVOK 13/03 Q1022 NOSIG,1,0.0,0,9999,0,0,0,
2026-03-20 02:30:00,METAR ZSPD 200230Z 08004MPS 040V100 CAVOK 13/03 Q1022 NOSIG,1,0.0,0,9999,0,0,0,
2026-03-20 02:00:00,METAR ZSPD 200200Z VRB03MPS CAVOK 13/05 Q1022 NOSIG,1,0.0,0,9999,0,0,0,
2026-03-20 01:30:00,METAR ZSPD 200130Z 08003MPS 030V120 CAVOK 12/04 Q1022 NOSIG,1,0.0,0,9999,0,0,0,
2026-03-20 01:00:00,METAR ZSPD 200100Z 08003MPS 360V150 CAVOK 11/03 Q1022 NOSIG,1,0.0,0,9999,0,0,0,
2026-03-20 00:30:00,METAR ZSPD 200030Z 08003MPS 360V110 CAVOK 11/04 Q1022 NOSIG,1,0.0,0,9999,0,0,0,
2026-03-20 00:00:00,METAR ZSPD 200000Z 07004MPS 020V100 CAVOK 10/04 Q1022 NOSIG,1,0.0,0,9999,0,0,0,
2026-03-19 23:30:00,METAR ZSPD 192330Z 08003MPS 040V120 CAVOK 10/04 Q1022 NOSIG,1,0.0,0,9999,0,0,0,
2026-03-19 23:00:00,METAR ZSPD 192300Z 06003MPS 020V090 CAVOK 09/04 Q1021 NOSIG,1,0.0,0,9999,0,0,0,
2026-03-19 22:30:00,METAR ZSPD 192230Z 35002MPS CAVOK 07/04 Q1021 NOSIG,1,0.0,0,9999,0,0,0,
2026-03-19 22:00:00,METAR ZSPD 192200Z 00000MPS CAVOK 07/04 Q1021 NOSIG,1,0.0,0,9999,0,0,0,
2026-03-19 21:30:00,METAR ZSPD 192130Z 00000MPS CAVOK 07/04 Q1020 NOSIG,1,0.0,0,9999,0,0,0,
2026-03-19 21:00:00,METAR ZSPD 192100Z 34001MPS CAVOK 07/04 Q1020 NOSIG,1,0.0,0,9999,0,0,0,
2026-03-19 20:30:00,METAR ZSPD 192030Z 33001MPS CAVOK 07/04 Q1020 NOSIG,1,0.0,0,9999,0,0,0,
2026-03-19 20:00:00,METAR ZSPD 192000Z 32001MPS CAVOK 07/05 Q1020 NOSIG,1,0.0,0,9999,0,0,0,
2026-03-19 19:30:00,METAR ZSPD 191930Z 33001MPS CAVOK 08/05 Q1020 NOSIG,1,0.0,0,9999,0,0,0,
2026-03-19 19:00:00,METAR ZSPD 191900Z 30002MPS CAVOK 08/04 Q1020 NOSIG,1,0.0,0,9999,0,0,0,
2026-03-19 18:30:00,METAR ZSPD 191830Z 19001MPS CAVOK 08/04 Q1020 NOSIG,1,0.0,0,9999,0,0,0,
2026-03-19 18:00:00,METAR ZSPD 191800Z 16001MPS CAVOK 08/04 Q1020 NOSIG,1,0.0,0,9999,0,0,0,
2026-03-19 17:30:00,METAR ZSPD 191730Z 15001MPS CAVOK 08/04 Q1020 NOSIG,1,0.0,0,9999,0,0,0,
2026-03-19 17:00:00,METAR ZSPD 191700Z 07002MPS CAVOK 08/03 Q1021 NOSIG,1,0.0,0,9999,0,0,0,
2026-03-19 16:30:00,METAR ZSPD 191630Z 11002MPS CAVOK 08/04 Q1021 NOSIG,1,0.0,0,9999,0,0,0,
2026-03-19 16:00:00,METAR ZSPD 191600Z 12002MPS CAVOK 08/03 Q1021 NOSIG,1,0.0,0,9999,0,0,0,
2026-03-19 15:30:00,METAR ZSPD 191530Z 10003MPS CAVOK 08/03 Q1021 NOSIG,1,0.0,0,9999,0,0,0,
2026-03-19 14:30:00,METAR ZSPD 191430Z 07003MPS 360V100 CAVOK 09/02 Q1022 NOSIG,1,0.0,0,9999,0,0,0,
2026-03-19 14:00:00,METAR ZSPD 191400Z 07003MPS 010V110 CAVOK 09/03 Q1022 NOSIG,1,0.0,0,9999,0,0,0,
2026-03-19 13:30:00,METAR ZSPD 191330Z 08003MPS 030V110 CAVOK 09/02 Q1022 NOSIG,1,0.0,0,9999,0,0,0,
2026-03-19 13:00:00,METAR ZSPD 191300Z 07003MPS 010V090 CAVOK 09/02 Q1022 NOSIG,1,0.0,0,9999,0,0,0,
2026-03-19 12:30:00,METAR ZSPD 191230Z 07003MPS 030V100 CAVOK 09/03 Q1021 NOSIG,1,0.0,0,9999,0,0,0,
2026-03-19 12:00:00,METAR ZSPD 191200Z 07003MPS 020V090 CAVOK 09/03 Q1021 NOSIG,1,0.0,0,9999,0,0,0,
2026-03-19 11:30:00,METAR ZSPD 191130Z 05003MPS 010V090 CAVOK 09/03 Q1021 NOSIG,1,0.0,0,9999,0,0,0,
2026-03-19 11:00:00,METAR ZSPD 191100Z 06004MPS 010V090 CAVOK 09/03 Q1021 NOSIG,1,0.0,0,9999,0,0,0,
2026-03-19 10:30:00,METAR ZSPD 191030Z 06004MPS 020V080 CAVOK 10/04 Q1020 NOSIG,1,0.0,0,9999,0,0,0,
2026-03-19 10:00:00,METAR ZSPD 191000Z 06004MPS 030V090 CAVOK 10/04 Q1020 NOSIG,1,0.0,0,9999,0,0,0,
2026-03-19 09:30:00,METAR ZSPD 190930Z 06003MPS 010V100 CAVOK 10/04 Q1020 NOSIG,1,0.0,0,9999,0,0,0,
2026-03-19 09:00:00,METAR ZSPD 190900Z 06003MPS 360V090 CAVOK 11/04 Q1020 NOSIG,1,0.0,0,9999,0,0,0,
2026-03-19 08:30:00,METAR ZSPD 190830Z 03003MPS 010V080 9999 SCT030 11/04 Q1020 NOSIG,0,3.0,0,10000,0,0,0,
2026-03-19 08:00:00,METAR ZSPD 190800Z 04003MPS 330V070 9999 SCT030 11/04 Q1020 NOSIG,0,3.0,0,10000,0,0,0,
2026-03-19 07:30:00,METAR ZSPD 190730Z 04003MPS 340V090 9999 SCT030 11/04 Q1020 NOSIG,0,3.0,0,10000,0,0,0,
2026-03-19 07:00:00,METAR ZSPD 190700Z 03003MPS 330V070 9999 SCT030 11/04 Q1020 NOSIG,0,3.0,0,10000,0,0,0,
2026-03-19 06:30:00,METAR ZSPD 190630Z 03004MPS 340V100 9999 SCT030 11/04 Q1020 NOSIG,0,4.0,0,10000,0,0,0,
2026-03-19 06:00:00,METAR ZSPD 190600Z 03004MPS 330V070 9999 SCT030 11/05 Q1020 NOSIG,0,4.0,0,10000,0,0,0,
2026-03-19 05:30:00,METAR ZSPD 190530Z 03003MPS 350V100 9999 SCT030 12/05 Q1021 NOSIG,0,3.0,0,10000,0,0,0,
2026-03-19 05:00:00,METAR ZSPD 190500Z 04005MPS 360V070 9999 SCT030 12/05 Q1021 NOSIG,0,5.0,0,10000,0,0,0,
2026-03-19 04:30:00,METAR ZSPD 190430Z 05005MPS 360V090 9999 BKN030 12/05 Q1022 NOSIG,0,5.0,0,10000,0,0,0,
2026-03-19 04:00:00,METAR ZSPD 190400Z 04004MPS 340V080 9999 BKN030 11/05 Q1022 NOSIG,0,4.0,0,10000,0,0,0,
2026-03-19 03:30:00,METAR ZSPD 190330Z 02005MPS 9999 BKN030 11/05 Q1022 NOSIG,0,5.0,0,10000,0,0,0,
2026-03-19 03:00:00,METAR ZSPD 190300Z 02005MPS 340V050 9999 SCT020 11/05 Q1022 NOSIG,0,5.0,0,10000,0,0,0,
2026-03-19 02:30:00,METAR ZSPD 190230Z 02005MPS 350V050 9999 SCT020 11/06 Q1022 NOSIG,0,5.0,0,10000,0,0,0,
2026-03-19 02:00:00,METAR ZSPD 190200Z 03004MPS 340V080 9999 SCT020 11/06 Q1023 NOSIG,0,4.0,0,10000,0,0,0,
2026-03-19 01:30:00,METAR ZSPD 190130Z 35005MPS 9999 SCT016 10/06 Q1022 NOSIG,0,5.0,0,10000,0,0,0,
2026-03-19 01:00:00,METAR ZSPD 190100Z 02005MPS 9999 SCT016 10/06 Q1023 NOSIG,0,5.0,0,10000,0,0,0,
2026-03-19 00:30:00,METAR ZSPD 190030Z 36006MPS 9999 SCT016 10/06 Q1022 NOSIG,0,6.0,0,10000,0,0,0,
2026-03-19 00:00:00,METAR ZSPD 190000Z 36005MPS 9999 SCT016 09/06 Q1022 NOSIG,0,5.0,0,10000,0,0,0,
2026-03-18 23:30:00,METAR ZSPD 182330Z 36005MPS 9999 FEW016 09/06 Q1022 NOSIG,0,5.0,0,10000,0,0,0,
2026-03-18 23:00:00,METAR ZSPD 182300Z 36005MPS 9999 FEW016 09/05 Q1022 NOSIG,0,5.0,0,10000,0,0,0,
2026-03-18 22:30:00,METAR ZSPD 182230Z 36004MPS CAVOK 08/05 Q1021 NOSIG,1,0.0,0,9999,0,0,0,
2026-03-18 22:00:00,METAR ZSPD 182200Z 01005MPS CAVOK 09/05 Q1021 NOSIG,1,0.0,0,9999,0,0,0,
2026-03-18 21:30:00,METAR ZSPD 182130Z 36004MPS CAVOK 08/06 Q1021 NOSIG,1,0.0,0,9999,0,0,0,
2026-03-18 21:00:00,METAR ZSPD 182100Z 34005MPS CAVOK 08/06 Q1021 NOSIG,1,0.0,0,9999,0,0,0,
2026-03-18 20:30:00,METAR ZSPD 182030Z 34005MPS 9999 SCT016 08/06 Q1021 NOSIG,0,5.0,0,10000,0,0,0,
2026-03-18 20:00:00,METAR ZSPD 182000Z 35004MPS 9999 SCT016 08/06 Q1021 NOSIG,0,4.0,0,10000,0,0,0,
2026-03-18 19:30:00,METAR ZSPD 181930Z 35005MPS 9999 BKN016 08/06 Q1021 NOSIG,0,5.0,0,10000,0,0,0,
2026-03-18 19:00:00,METAR ZSPD 181900Z 35005MPS 9999 BKN016 08/06 Q1021 NOSIG,0,5.0,0,10000,0,0,0,
2026-03-18 18:30:00,METAR ZSPD 181830Z 35005MPS 9999 BKN016 08/06 Q1021 NOSIG,0,5.0,0,10000,0,0,0,
2026-03-18 18:00:00,METAR ZSPD 181800Z 34006MPS 9999 BKN016 08/06 Q1021 NOSIG,0,6.0,0,10000,0,0,0,
2026-03-18 17:30:00,METAR ZSPD 181730Z 34005MPS 9999 BKN016 08/07 Q1021 NOSIG,0,5.0,0,10000,0,0,0,
2026-03-18 16:30:00,METAR ZSPD 181630Z 34005MPS 9999 BKN020 08/07 Q1022 NOSIG,0,5.0,0,10000,0,0,0,
2026-03-18 16:00:00,METAR ZSPD 181600Z 35006MPS 9999 BKN013 08/06 Q1022 BECMG TL1630 BKN015,0,6.0,0,10000,0,0,0,
2026-03-18 15:30:00,METAR ZSPD 181530Z 34005MPS 9999 BKN013 08/07 Q1022 NOSIG,0,5.0,0,10000,0,0,0,
2026-03-18 15:00:00,METAR ZSPD 181500Z 34005MPS 9999 BKN013 08/07 Q1022 NOSIG,0,5.0,0,10000,0,0,0,
2026-03-18 14:30:00,METAR ZSPD 181430Z 36004MPS 9999 BKN013 08/07 Q1021 NOSIG,0,4.0,0,10000,0,0,0,
2026-03-18 14:00:00,METAR ZSPD 181400Z 01004MPS 9999 SCT013 09/06 Q1021 BECMG TL1440 BKN013,0,4.0,0,10000,0,0,0,
2026-03-18 13:30:00,METAR ZSPD 181330Z 01005MPS 9999 FEW013 08/07 Q1021 NOSIG,0,5.0,0,10000,0,0,0,
2026-03-18 13:00:00,METAR ZSPD 181300Z 01004MPS 9999 -RA FEW013 08/07 Q1021 NOSIG,0,4.0,0,10000,0,0,0,-RA
2026-03-18 12:30:00,METAR ZSPD 181230Z 36004MPS 9999 -RA BKN013 08/08 Q1021 NOSIG,0,4.0,0,10000,0,0,0,-RA
2026-03-18 12:00:00,METAR ZSPD 181200Z 01005MPS 9999 -RA BKN013 09/08 Q1020 NOSIG,0,5.0,0,10000,0,0,0,-RA
2026-03-18 11:30:00,METAR ZSPD 181130Z 36006MPS 9999 -RA BKN013 09/08 Q1020 NOSIG,0,6.0,0,10000,0,0,0,-RA
2026-03-18 10:30:00,METAR ZSPD 181030Z 02007MPS 9999 -RA BKN011 OVC033 09/08 Q1019 NOSIG,0,7.0,0,10000,0,0,0,-RA
2026-03-18 10:00:00,METAR ZSPD 181000Z 02007MPS 9999 -RA BKN009 OVC033 09/09 Q1019 BECMG TL1030 BKN010,0,7.0,0,10000,0,0,0,-RA
2026-03-18 09:30:00,METAR ZSPD 180930Z 36007MPS 9999 -RA BKN009 OVC033 09/09 Q1019 NOSIG,0,7.0,0,10000,0,0,0,-RA
2026-03-18 09:00:00,METAR ZSPD 180900Z 35008MPS 7000 -RA BKN013 OVC033 09/09 Q1018 NOSIG,0,8.0,0,7000,0,0,0,-RA
2026-03-18 08:30:00,METAR ZSPD 180830Z 01007MPS 7000 -RA BKN013 10/10 Q1018 NOSIG,0,7.0,0,7000,0,0,0,-RA
2026-03-18 08:00:00,METAR ZSPD 180800Z 35006MPS 4000 -RA BR BKN010 10/10 Q1018 BECMG TL0850 BKN007,0,6.0,0,4000,0,0,1,"-RA,BR"
2026-03-18 07:30:00,METAR ZSPD 180730Z 34005MPS 5000 -RA BR BKN012 10/10 Q1018 NOSIG,0,5.0,0,5000,0,0,1,"-RA,BR"
2026-03-18 07:00:00,METAR ZSPD 180700Z 33006MPS 5000 -RA BR BKN012 10/10 Q1017 NOSIG,0,6.0,0,5000,0,0,1,"-RA,BR"
2026-03-18 06:30:00,METAR ZSPD 180630Z 35007MPS 5000 -RA BR BKN012 10/10 Q1017 NOSIG,0,7.0,0,5000,0,0,1,"-RA,BR"
2026-03-18 06:00:00,METAR ZSPD 180600Z 34008MPS 3000 -RA BR BKN009 10/10 Q1016 BECMG TL0730 BKN010,0,8.0,0,3000,0,0,1,"-RA,BR"
2026-03-18 05:30:00,METAR ZSPD 180530Z 34006MPS 3000 -RA BR BKN009 10/10 Q1017 NOSIG,0,6.0,0,3000,0,0,1,"-RA,BR"
2026-03-18 05:00:00,METAR ZSPD 180500Z 33007MPS 2800 -RA BR BKN009 11/11 Q1017 BECMG TL0530 3000 BKN010,0,7.0,0,2800,0,0,1,"-RA,BR"
2026-03-18 04:30:00,METAR ZSPD 180430Z 33005MPS 4000 -RA BR BKN009 11/11 Q1017 NOSIG,0,5.0,0,4000,0,0,1,"-RA,BR"
2026-03-18 04:00:00,METAR ZSPD 180400Z 33006MPS 4000 -RA BR BKN011 11/11 Q1017 BECMG TL0430 2800 BKN009,0,6.0,0,4000,0,0,1,"-RA,BR"
2026-03-18 03:30:00,METAR ZSPD 180330Z 32006MPS 8000 BKN013 11/09 Q1017 NOSIG,0,6.0,0,8000,0,0,0,
2026-03-18 03:00:00,METAR ZSPD 180300Z 34009MPS 7000 BKN015 11/10 Q1017 BECMG TL0330 BKN013,0,9.0,0,7000,0,0,0,
2026-03-18 02:30:00,METAR ZSPD 180230Z 32006MPS 4000 BR BKN015 OVC033 12/10 Q1016 NOSIG,0,6.0,0,4000,0,0,1,BR
2026-03-18 02:00:00,METAR ZSPD 180200Z 32006MPS 4000 BR BKN011 OVC033 12/10 Q1016 BECMG TL0250 BKN015,0,6.0,0,4000,0,0,1,BR
2026-03-18 01:30:00,METAR ZSPD 180130Z 32006MPS 4000 BR BKN011 OVC033 12/11 Q1016 NOSIG,0,6.0,0,4000,0,0,1,BR
2026-03-18 01:00:00,METAR ZSPD 180100Z 31004MPS 4000 BR BKN011 OVC033 13/12 Q1016 NOSIG,0,4.0,0,4000,0,0,1,BR
2026-03-18 00:30:00,METAR ZSPD 180030Z 30005MPS 4500 -RA BR BKN011 OVC033 13/13 Q1016 NOSIG,0,5.0,0,4500,0,0,1,"-RA,BR"
2026-03-18 00:00:00,METAR ZSPD 180000Z 30004MPS 4500 -RA BR BKN011 OVC033 13/13 Q1015 NOSIG,0,4.0,0,4500,0,0,1,"-RA,BR"
2026-03-17 23:30:00,METAR ZSPD 172330Z 30004MPS 4500 -RA BR BKN011 OVC033 13/13 Q1015 NOSIG,0,4.0,0,4500,0,0,1,"-RA,BR"
2026-03-17 23:00:00,METAR ZSPD 172300Z 30004MPS 4000 BR BKN009 OVC026 13/13 Q1014 BECMG TL2330 BKN010,0,4.0,0,4000,0,0,1,BR
2026-03-17 22:30:00,METAR ZSPD 172230Z 29003MPS 3000 BR BKN008 OVC026 13/13 Q1014 NOSIG,0,3.0,0,3000,0,0,1,BR
2026-03-17 22:00:00,METAR ZSPD 172200Z 25003MPS 2500 -RA BR FEW003 OVC026 13/13 Q1014 BECMG TL2250 3000,0,3.0,0,2500,0,0,1,"-RA,BR"
2026-03-17 21:30:00,METAR ZSPD 172130Z 25003MPS 230V290 2500 -RA BR FEW003 OVC026 13/13 Q1013 BECMG TL2230 3000,0,3.0,0,2500,0,0,1,"-RA,BR"
2026-03-17 21:00:00,METAR ZSPD 172100Z 26003MPS 2500 -RA BR SCT003 13/13 Q1013 BECMG TL2220 3000,0,3.0,0,2500,0,0,1,"-RA,BR"
2026-03-17 20:30:00,METAR ZSPD 172030Z 27002MPS 2000 -RA BR SCT003 13/13 Q1013 NOSIG,0,2.0,0,2000,0,0,1,"-RA,BR"
2026-03-17 20:00:00,METAR ZSPD 172000Z 27003MPS 2500 -RA BR SCT003 13/13 Q1013 BECMG TL2040 BKN003,0,3.0,0,2500,0,0,1,"-RA,BR"
2026-03-17 19:30:00,METAR ZSPD 171930Z 27002MPS 230V290 2500 -RA BR FEW005 13/13 Q1013 NOSIG,0,2.0,0,2500,0,0,1,"-RA,BR"
2026-03-17 19:00:00,METAR ZSPD 171900Z VRB01MPS 3000 -RA BR FEW005 13/13 Q1013 BECMG TL1940 2800,0,1.0,0,3000,0,0,1,"-RA,BR"
2026-03-17 18:30:00,METAR ZSPD 171830Z 19002MPS 140V240 3000 -RA BR BKN005 13/13 Q1013 NOSIG,0,2.0,0,3000,0,0,1,"-RA,BR"
2026-03-17 18:00:00,METAR ZSPD 171800Z 24001MPS 3000 -RA BR BKN005 12/12 Q1014 BECMG TL1920 SCT005,0,1.0,0,3000,0,0,1,"-RA,BR"
2026-03-17 17:30:00,METAR ZSPD 171730Z 19001MPS 4000 -RA BR SCT006 12/12 Q1014 NOSIG,0,1.0,0,4000,0,0,1,"-RA,BR"
2026-03-17 17:00:00,METAR ZSPD 171700Z VRB01MPS 4000 -RA BR SCT006 12/12 Q1014 BECMG TL1840 BKN006,0,1.0,0,4000,0,0,1,"-RA,BR"
2026-03-17 16:30:00,METAR ZSPD 171630Z 15002MPS 120V180 4000 -RA BR SCT010 12/12 Q1014 NOSIG,0,2.0,0,4000,0,0,1,"-RA,BR"
2026-03-17 16:00:00,METAR ZSPD 171600Z 12003MPS 4000 -RA BR BKN011 12/12 Q1015 BECMG TL1640 SCT011,0,3.0,0,4000,0,0,1,"-RA,BR"
2026-03-17 15:30:00,METAR ZSPD 171530Z 11002MPS 090V170 4000 -RA BR BKN011 12/12 Q1015 NOSIG,0,2.0,0,4000,0,0,1,"-RA,BR"
2026-03-17 15:00:00,METAR ZSPD 171500Z VRB01MPS 6000 -RA BKN013 12/12 Q1016 NOSIG,0,1.0,0,6000,0,0,0,-RA
2026-03-17 14:30:00,METAR ZSPD 171430Z 14003MPS 8000 -RA BKN013 12/12 Q1016 NOSIG,0,3.0,0,8000,0,0,0,-RA
2026-03-17 14:00:00,METAR ZSPD 171400Z 14004MPS 9999 BKN016 12/12 Q1016 BECMG TL1530 BKN014,0,4.0,0,10000,0,0,0,
2026-03-17 13:30:00,METAR ZSPD 171330Z 13004MPS 9999 BKN016 12/12 Q1016 NOSIG,0,4.0,0,10000,0,0,0,
2026-03-17 13:00:00,METAR ZSPD 171300Z 12004MPS 9999 BKN020 12/12 Q1016 NOSIG,0,4.0,0,10000,0,0,0,
2026-03-17 12:30:00,METAR ZSPD 171230Z 12005MPS 9999 BKN020 12/11 Q1016 NOSIG,0,5.0,0,10000,0,0,0,
2026-03-17 12:00:00,METAR ZSPD 171200Z 13005MPS 9999 BKN020 12/11 Q1016 NOSIG,0,5.0,0,10000,0,0,0,
2026-03-17 11:30:00,METAR ZSPD 171130Z 13005MPS 9999 BKN020 12/11 Q1016 NOSIG,0,5.0,0,10000,0,0,0,
2026-03-17 11:00:00,METAR ZSPD 171100Z 13006MPS 9999 BKN020 11/10 Q1016 NOSIG,0,6.0,0,10000,0,0,0,
2026-03-17 10:30:00,METAR ZSPD 171030Z 13006MPS 9999 BKN021 11/10 Q1016 NOSIG,0,6.0,0,10000,0,0,0,
2026-03-17 10:00:00,METAR ZSPD 171000Z 13006MPS 8000 BKN021 11/10 Q1016 NOSIG,0,6.0,0,8000,0,0,0,
2026-03-17 09:30:00,METAR ZSPD 170930Z 12006MPS 8000 BKN016 11/10 Q1016 NOSIG,0,6.0,0,8000,0,0,0,
2026-03-17 09:00:00,METAR ZSPD 170900Z 13005MPS 8000 BKN016 11/10 Q1016 NOSIG,0,5.0,0,8000,0,0,0,
2026-03-17 08:30:00,METAR ZSPD 170830Z 12005MPS 8000 BKN016 11/10 Q1016 NOSIG,0,5.0,0,8000,0,0,0,
2026-03-17 08:00:00,METAR ZSPD 170800Z 12005MPS 6000 -RA BKN013 11/10 Q1017 BECMG TL0830 BKN015,0,5.0,0,6000,0,0,0,-RA
2026-03-17 07:30:00,METAR ZSPD 170730Z 12005MPS 6000 -RA BKN013 11/10 Q1017 NOSIG,0,5.0,0,6000,0,0,0,-RA
2026-03-17 07:00:00,METAR ZSPD 170700Z 12005MPS 6000 -RA BKN009 11/10 Q1017 BECMG TL0740 BKN010,0,5.0,0,6000,0,0,0,-RA
2026-03-17 06:30:00,METAR ZSPD 170630Z 12005MPS 6000 -RA BKN009 11/10 Q1018 NOSIG,0,5.0,0,6000,0,0,0,-RA
2026-03-17 06:00:00,METAR ZSPD 170600Z 12005MPS 6000 BKN009 11/10 Q1018 NOSIG,0,5.0,0,6000,0,0,0,
2026-03-17 05:30:00,METAR ZSPD 170530Z 11006MPS 5000 BR BKN009 10/10 Q1019 NOSIG,0,6.0,0,5000,0,0,1,BR
2026-03-17 05:00:00,METAR ZSPD 170500Z 12006MPS 090V180 4500 BR BKN007 10/10 Q1019 NOSIG,0,6.0,0,4500,0,0,1,BR
2026-03-17 04:30:00,METAR ZSPD 170430Z 12006MPS 3500 BR BKN007 10/10 Q1019 NOSIG,0,6.0,0,3500,0,0,1,BR
2026-03-17 04:00:00,METAR ZSPD 170400Z 11006MPS 2500 BR BKN005 10/10 Q1020 BECMG TL0450 3000,0,6.0,0,2500,0,0,1,BR
2026-03-17 03:30:00,METAR ZSPD 170330Z 11005MPS 2500 -RA BR BKN005 10/10 Q1020 NOSIG,0,5.0,0,2500,0,0,1,"-RA,BR"
2026-03-17 03:00:00,METAR ZSPD 170300Z 11006MPS 2500 -RA BR BKN005 10/10 Q1021 NOSIG,0,6.0,0,2500,0,0,1,"-RA,BR"
2026-03-17 02:30:00,METAR ZSPD 170230Z 11006MPS 2500 -RA BR BKN005 09/09 Q1021 NOSIG,0,6.0,0,2500,0,0,1,"-RA,BR"
2026-03-17 02:00:00,METAR ZSPD 170200Z 11006MPS 3000 -RA BR BKN005 09/09 Q1021 BECMG TL0240 2500,0,6.0,0,3000,0,0,1,"-RA,BR"
2026-03-17 01:30:00,METAR ZSPD 170130Z 11006MPS 3000 -RA BR BKN005 09/09 Q1022 NOSIG,0,6.0,0,3000,0,0,1,"-RA,BR"
2026-03-17 01:00:00,METAR ZSPD 170100Z 10006MPS 3000 -RA BR BKN007 09/09 Q1022 NOSIG,0,6.0,0,3000,0,0,1,"-RA,BR"
2026-03-17 00:30:00,METAR ZSPD 170030Z 10007MPS 3000 -RA BR BKN007 10/10 Q1021 NOSIG,0,7.0,0,3000,0,0,1,"-RA,BR"
2026-03-17 00:00:00,METAR ZSPD 170000Z 10007MPS 3000 -RA BR BKN007 10/10 Q1021 NOSIG,0,7.0,0,3000,0,0,1,"-RA,BR"
2026-03-16 23:30:00,METAR ZSPD 162330Z 10006MPS 3000 -RA BR BKN008 09/09 Q1021 NOSIG,0,6.0,0,3000,0,0,1,"-RA,BR"
2026-03-16 23:00:00,METAR ZSPD 162300Z 10006MPS 4000 -RA BR BKN011 09/09 Q1021 BECMG TL2340 BKN009,0,6.0,0,4000,0,0,1,"-RA,BR"
2026-03-16 22:30:00,METAR ZSPD 162230Z 09005MPS 060V160 4000 -RA BR BKN011 09/09 Q1021 NOSIG,0,5.0,0,4000,0,0,1,"-RA,BR"
2026-03-16 22:00:00,METAR ZSPD 162200Z 09005MPS 5000 -RA BR BKN012 10/10 Q1021 NOSIG,0,5.0,0,5000,0,0,1,"-RA,BR"
2026-03-16 21:30:00,METAR ZSPD 162130Z 10005MPS 070V200 6000 -RA BKN012 09/09 Q1020 NOSIG,0,5.0,0,6000,0,0,0,-RA
2026-03-16 21:00:00,METAR ZSPD 162100Z 10005MPS 6000 -RA BKN013 09/09 Q1020 NOSIG,0,5.0,0,6000,0,0,0,-RA
2026-03-16 20:30:00,METAR ZSPD 162030Z 10005MPS 6000 -RA BKN013 09/09 Q1020 NOSIG,0,5.0,0,6000,0,0,0,-RA
2026-03-16 20:00:00,METAR ZSPD 162000Z 09005MPS 9999 -RA BKN016 09/09 Q1020 BECMG TL2040 BKN013,0,5.0,0,10000,0,0,0,-RA
2026-03-16 19:30:00,METAR ZSPD 161930Z 10004MPS 6000 -RA BKN020 10/10 Q1020 NOSIG,0,4.0,0,6000,0,0,0,-RA
2026-03-16 19:00:00,METAR ZSPD 161900Z 10004MPS 6000 -RA BKN020 10/08 Q1021 NOSIG,0,4.0,0,6000,0,0,0,-RA
2026-03-16 18:30:00,METAR ZSPD 161830Z 10004MPS 6000 -RA BKN020 10/08 Q1021 NOSIG,0,4.0,0,6000,0,0,0,-RA
2026-03-16 18:00:00,METAR ZSPD 161800Z 10004MPS 7000 -RA BKN016 10/08 Q1021 BECMG TL1900 BKN013,0,4.0,0,7000,0,0,0,-RA
2026-03-16 17:30:00,METAR ZSPD 161730Z 10004MPS 6000 -RA BKN013 10/08 Q1021 BECMG TL1800 BKN015,0,4.0,0,6000,0,0,0,-RA
2026-03-16 17:00:00,METAR ZSPD 161700Z 10004MPS 080V190 6000 -RA BKN016 10/08 Q1022 BECMG TL1830 BKN013,0,4.0,0,6000,0,0,0,-RA
2026-03-16 16:30:00,METAR ZSPD 161630Z 10004MPS 6000 -RA BKN016 09/08 Q1022 NOSIG,0,4.0,0,6000,0,0,0,-RA
2026-03-16 16:00:00,METAR ZSPD 161600Z 10004MPS 6000 -RA BKN013 09/08 Q1022 NOSIG,0,4.0,0,6000,0,0,0,-RA
2026-03-16 15:30:00,METAR ZSPD 161530Z 10004MPS 6000 -RA BKN013 09/08 Q1022 NOSIG,0,4.0,0,6000,0,0,0,-RA
2026-03-16 15:00:00,METAR ZSPD 161500Z 10004MPS 6000 -RA BKN016 09/08 Q1022 BECMG TL1530 BKN013,0,4.0,0,6000,0,0,0,-RA
2026-03-16 14:30:00,METAR ZSPD 161430Z 10005MPS 6000 -RA BKN016 10/08 Q1023 NOSIG,0,5.0,0,6000,0,0,0,-RA
2026-03-16 14:00:00,METAR ZSPD 161400Z 10004MPS 7000 -RA BKN013 10/08 Q1023 BECMG TL1440 BKN015,0,4.0,0,7000,0,0,0,-RA
2026-03-16 13:30:00,METAR ZSPD 161330Z 10005MPS 7000 -RA BKN015 10/08 Q1023 BECMG TL1400 BKN013,0,5.0,0,7000,0,0,0,-RA
2026-03-16 13:00:00,METAR ZSPD 161300Z 10004MPS 7000 -RA BKN015 10/08 Q1023 NOSIG,0,4.0,0,7000,0,0,0,-RA
2026-03-16 12:30:00,METAR ZSPD 161230Z 10005MPS 7000 -RA BKN015 10/08 Q1023 NOSIG,0,5.0,0,7000,0,0,0,-RA
2026-03-16 12:00:00,METAR ZSPD 161200Z 09005MPS 9999 -RA BKN015 10/08 Q1023 BECMG TL1330 BKN013,0,5.0,0,10000,0,0,0,-RA
2026-03-16 11:30:00,METAR ZSPD 161130Z 08005MPS 7000 -RA BKN013 10/07 Q1022 NOSIG,0,5.0,0,7000,0,0,0,-RA
2026-03-16 11:00:00,METAR ZSPD 161100Z 09005MPS 7000 -RA BKN013 10/08 Q1022 BECMG TL1150 BKN015,0,5.0,0,7000,0,0,0,-RA
2026-03-16 10:30:00,METAR ZSPD 161030Z 08006MPS 7000 -RA BKN013 10/07 Q1022 NOSIG,0,6.0,0,7000,0,0,0,-RA
2026-03-16 10:00:00,METAR ZSPD 161000Z 08005MPS 6000 -RA BKN015 10/08 Q1022 BECMG TL1040 BKN013,0,5.0,0,6000,0,0,0,-RA
2026-03-16 09:30:00,METAR ZSPD 160930Z 08006MPS 8000 -RA SCT016 10/07 Q1022 NOSIG,0,6.0,0,8000,0,0,0,-RA
2026-03-16 09:00:00,METAR ZSPD 160900Z 08006MPS 8000 -RA SCT016 10/08 Q1022 NOSIG,0,6.0,0,8000,0,0,0,-RA
2026-03-16 08:30:00,METAR ZSPD 160830Z 08007MPS 9999 -RA BKN040 11/07 Q1021 NOSIG,0,7.0,0,10000,0,0,0,-RA
2026-03-16 08:00:00,METAR ZSPD 160800Z 07006MPS 9999 BKN040 11/07 Q1021 NOSIG,0,6.0,0,10000,0,0,0,
2026-03-16 07:30:00,METAR ZSPD 160730Z 08006MPS 9999 BKN040 11/07 Q1022 NOSIG,0,6.0,0,10000,0,0,0,
2026-03-16 07:00:00,METAR ZSPD 160700Z 08006MPS 9999 BKN040 11/07 Q1021 NOSIG,0,6.0,0,10000,0,0,0,
2026-03-16 06:30:00,METAR ZSPD 160630Z 09006MPS 9999 BKN040 11/07 Q1022 NOSIG,0,6.0,0,10000,0,0,0,
2026-03-16 06:00:00,METAR ZSPD 160600Z 09007MPS 9999 SCT040 12/08 Q1022 NOSIG,0,7.0,0,10000,0,0,0,
2026-03-16 05:30:00,METAR ZSPD 160530Z 09006MPS CAVOK 12/07 Q1022 NOSIG,1,0.0,0,9999,0,0,0,
2026-03-16 05:00:00,METAR ZSPD 160500Z 08005MPS 040V100 CAVOK 12/07 Q1022 NOSIG,1,0.0,0,9999,0,0,0,
2026-03-16 04:30:00,METAR ZSPD 160430Z 09005MPS CAVOK 12/07 Q1023 NOSIG,1,0.0,0,9999,0,0,0,
2026-03-16 04:00:00,METAR ZSPD 160400Z 10004MPS CAVOK 12/07 Q1023 NOSIG,1,0.0,0,9999,0,0,0,
2026-03-16 03:30:00,METAR ZSPD 160330Z 10005MPS 9999 FEW026 12/07 Q1024 NOSIG,0,5.0,0,10000,0,0,0,
2026-03-16 03:00:00,METAR ZSPD 160300Z 10005MPS 9999 FEW026 12/07 Q1024 NOSIG,0,5.0,0,10000,0,0,0,
2026-03-16 02:30:00,METAR ZSPD 160230Z 12005MPS 9999 FEW026 12/07 Q1024 NOSIG,0,5.0,0,10000,0,0,0,
2026-03-16 02:00:00,METAR ZSPD 160200Z 10004MPS CAVOK 12/07 Q1025 NOSIG,1,0.0,0,9999,0,0,0,
2026-03-16 01:30:00,METAR ZSPD 160130Z 10004MPS 080V150 CAVOK 12/07 Q1025 NOSIG,1,0.0,0,9999,0,0,0,
2026-03-16 01:00:00,METAR ZSPD 160100Z 11004MPS CAVOK 11/07 Q1025 NOSIG,1,0.0,0,9999,0,0,0,
2026-03-16 00:30:00,METAR ZSPD 160030Z 11004MPS CAVOK 11/07 Q1025 NOSIG,1,0.0,0,9999,0,0,0,
2026-03-16 00:00:00,METAR ZSPD 160000Z 11003MPS 9999 SCT013 11/07 Q1025 NOSIG,0,3.0,0,10000,0,0,0,
2026-03-15 23:30:00,METAR ZSPD 152330Z 11004MPS 9999 SCT013 11/08 Q1024 NOSIG,0,4.0,0,10000,0,0,0,
2026-03-15 23:00:00,METAR ZSPD 152300Z 10004MPS 9999 SCT013 11/08 Q1024 NOSIG,0,4.0,0,10000,0,0,0,
2026-03-15 22:30:00,METAR ZSPD 152230Z 11003MPS 9999 SCT023 10/08 Q1024 NOSIG,0,3.0,0,10000,0,0,0,
2026-03-15 22:00:00,METAR ZSPD 152200Z 10003MPS 070V150 9999 SCT023 10/07 Q1024 NOSIG,0,3.0,0,10000,0,0,0,
2026-03-15 21:30:00,METAR ZSPD 152130Z 09003MPS 9999 SCT023 11/07 Q1024 NOSIG,0,3.0,0,10000,0,0,0,
2026-03-15 21:00:00,METAR ZSPD 152100Z 10003MPS 9999 SCT023 10/07 Q1024 NOSIG,0,3.0,0,10000,0,0,0,
2026-03-15 20:30:00,METAR ZSPD 152030Z 12003MPS 090V220 9999 SCT023 10/08 Q1024 NOSIG,0,3.0,0,10000,0,0,0,
2026-03-15 20:00:00,METAR ZSPD 152000Z 10003MPS 9999 SCT023 10/08 Q1024 NOSIG,0,3.0,0,10000,0,0,0,
2026-03-15 19:30:00,METAR ZSPD 151930Z 10004MPS CAVOK 11/08 Q1024 NOSIG,1,0.0,0,9999,0,0,0,
2026-03-15 19:00:00,METAR ZSPD 151900Z 09004MPS 010V120 9999 BKN030 11/07 Q1025 NOSIG,0,4.0,0,10000,0,0,0,
2026-03-15 18:30:00,METAR ZSPD 151830Z 09004MPS 010V110 9999 BKN030 11/07 Q1025 NOSIG,0,4.0,0,10000,0,0,0,
2026-03-15 18:00:00,METAR ZSPD 151800Z 08004MPS 020V100 9999 SCT030 11/07 Q1025 NOSIG,0,4.0,0,10000,0,0,0,
2026-03-15 17:30:00,METAR ZSPD 151730Z 06003MPS 010V090 9999 FEW040 11/07 Q1026 NOSIG,0,3.0,0,10000,0,0,0,
2026-03-15 17:00:00,METAR ZSPD 151700Z 07003MPS 010V100 CAVOK 11/07 Q1026 NOSIG,1,0.0,0,9999,0,0,0,
2026-03-15 16:30:00,METAR ZSPD 151630Z 06004MPS 010V090 CAVOK 11/07 Q1026 NOSIG,1,0.0,0,9999,0,0,0,
2026-03-15 16:00:00,METAR ZSPD 151600Z 07003MPS CAVOK 11/08 Q1026 NOSIG,1,0.0,0,9999,0,0,0,
2026-03-15 15:30:00,METAR ZSPD 151530Z 05004MPS 360V090 CAVOK 12/08 Q1026 NOSIG,1,0.0,0,9999,0,0,0,
2026-03-15 15:00:00,METAR ZSPD 151500Z 06004MPS 360V090 9999 SCT030 11/08 Q1026 NOSIG,0,4.0,0,10000,0,0,0,
2026-03-15 14:30:00,METAR ZSPD 151430Z 07003MPS 030V100 9999 FEW016 BKN030 12/08 Q1027 NOSIG,0,3.0,0,10000,0,0,0,
2026-03-15 14:00:00,METAR ZSPD 151400Z 07004MPS 010V100 9999 FEW016 BKN040 12/08 Q1027 NOSIG,0,4.0,0,10000,0,0,0,
2026-03-15 13:30:00,METAR ZSPD 151330Z 07004MPS 030V090 9999 BKN040 12/08 Q1027 NOSIG,0,4.0,0,10000,0,0,0,
2026-03-15 13:00:00,METAR ZSPD 151300Z 06004MPS 020V090 CAVOK 12/08 Q1026 NOSIG,1,0.0,0,9999,0,0,0,
2026-03-15 12:30:00,METAR ZSPD 151230Z 07004MPS CAVOK 12/08 Q1026 NOSIG,1,0.0,0,9999,0,0,0,
2026-03-15 12:00:00,METAR ZSPD 151200Z 08004MPS 9999 SCT040 12/08 Q1026 NOSIG,0,4.0,0,10000,0,0,0,
2026-03-15 11:30:00,METAR ZSPD 151130Z 08004MPS CAVOK 12/08 Q1026 NOSIG,1,0.0,0,9999,0,0,0,
2026-03-15 11:00:00,METAR ZSPD 151100Z 07004MPS CAVOK 12/08 Q1025 NOSIG,1,0.0,0,9999,0,0,0,
2026-03-15 10:30:00,METAR ZSPD 151030Z 07005MPS CAVOK 12/08 Q1025 NOSIG,1,0.0,0,9999,0,0,0,
2026-03-15 10:00:00,METAR ZSPD 151000Z 09005MPS CAVOK 12/08 Q1025 NOSIG,1,0.0,0,9999,0,0,0,
2026-03-15 09:30:00,METAR ZSPD 150930Z 10006MPS CAVOK 12/07 Q1025 NOSIG,1,0.0,0,9999,0,0,0,
2026-03-15 09:00:00,METAR ZSPD 150900Z 10005MPS CAVOK 13/08 Q1025 NOSIG,1,0.0,0,9999,0,0,0,
2026-03-15 08:30:00,METAR ZSPD 150830Z 09005MPS 9999 SCT030 13/07 Q1025 NOSIG,0,5.0,0,10000,0,0,0,
2026-03-15 08:00:00,METAR ZSPD 150800Z 10004MPS 070V130 9999 SCT030 13/07 Q1025 NOSIG,0,4.0,0,10000,0,0,0,
