Time_recorded,METAR,is_cavok,wind_speed,is_gust,visibility_meters,has_thunderstorm,has_heavy_rain,has_low_vis_fog,other_phenomenon
2026-05-02 14:45:00,METAR MMSD 021445Z 00000KT 10SM SKC 25/14 A2993 RMK SLP115 52020 917,0,0,0,16090,0,0,0,
2026-05-02 13:45:00,METAR MMSD 021345Z 00000KT 10SM SKC 21/15 A2989,0,0,0,16090,0,0,0,
2026-05-02 12:48:00,METAR MMSD 021248Z 28004KT 10SM SKC 19/14 A2988,0,4,0,16090,0,0,0,
2026-05-02 12:12:00,METAR MMSD 021212Z RTD 00000KT 10SM SKC 19/14 A2987 RMK RTS,0,0,0,16090,1,0,0,TS
2026-05-02 08:46:00,METAR MMSD 020846Z 00000KT 10SM SKC 21/16 A2987,0,0,0,16090,0,0,0,
2026-05-02 07:47:00,METAR MMSD 020747Z 00000KT 10SM SKC 22/17 A2989,0,0,0,16090,0,0,0,
2026-05-02 06:46:00,METAR MMSD 020646Z 00000KT 10SM SKC 21/17 A2990,0,0,0,16090,0,0,0,
2026-05-02 05:48:00,METAR MMSD 020548Z 00000KT 10SM SKC 24/18 A2991,0,0,0,16090,0,0,0,
2026-05-02 04:40:00,METAR MMSD 020440Z 00000KT 10SM SKC 23/17 A2989,0,0,0,16090,0,0,0,
2026-05-02 03:45:00,METAR MMSD 020345Z 18004KT 10SM SKC 24/17 A2988,0,4,0,16090,0,0,0,
2026-05-02 02:40:00,METAR MMSD 020240Z 00000KT 10SM SKC 24/18 A2986 RMK SLP091 52013 912 SC/AC,0,0,0,16090,0,0,0,
2026-05-02 01:44:00,METAR MMSD 020144Z 15008KT 10SM SKC 25/18 A2984 RMK ISOL CU/AC,0,8,0,16090,0,0,0,
2026-05-02 00:44:00,METAR MMSD 020044Z 15010KT 10SM FEW120 26/17 A2983 RMK 8/030 SC/CI,0,10,0,16090,0,0,0,
2026-05-01 23:45:00,METAR MMSD 012345Z 14012KT 10SM SKC 27/17 A2982 RMK SLP077 57010 918 ISOL SC,0,12,0,16090,0,0,0,
2026-05-01 22:54:00,METAR MMSD 012254Z 12012KT 10SM SKC 28/17 A2983 RMK CU,0,12,0,16090,0,0,0,
2026-05-01 21:45:00,METAR MMSD 012145Z 15014KT 10SM SKC 28/17 A2984 RMK ISOL CU,0,14,0,16090,0,0,0,
2026-05-01 20:54:00,METAR MMSD 012054Z 15016KT 10SM SKC 29/17 A2985 RMK SLP088 57010 922 ISOL CU/CI,0,16,0,16090,0,0,0,
2026-05-01 19:55:00,METAR MMSD 011955Z 14015KT 10SM SKC 29/17 A2986 RMK CU/CI,0,15,0,16090,0,0,0,
2026-05-01 18:48:00,METAR MMSD 011848Z 15012KT 10SM SKC 30/17 A2987 RMK CU/CI,0,12,0,16090,0,0,0,
2026-05-01 17:44:00,METAR MMSD 011744Z 15012KT 10SM SKC 31/13 A2987 RMK SLP096 54000 917 AC,0,12,0,16090,0,0,0,
2026-05-01 16:44:00,METAR MMSD 011644Z 00000KT 10SM SKC 32/10 A2988 RMK AC,0,0,0,16090,0,0,0,
2026-05-01 15:48:00,METAR MMSD 011548Z 28008KT 10SM FEW120 30/11 A2988 RMK 8/030,0,8,0,16090,0,0,0,
2026-05-01 14:54:00,METAR MMSD 011454Z 35008KT 10SM FEW120 29/11 A2988 RMK SLP097 52017 914 8/030,0,8,0,16090,0,0,0,
2026-05-01 13:48:00,METAR MMSD 011348Z 00000KT 10SM BKN120 24/09 A2987 RMK 8/030,0,0,0,16090,0,0,0,
2026-05-01 12:48:00,METAR MMSD 011248Z 00000KT 10SM SCT120 BKN250 24/09 A2984 RMK 8/028,0,0,0,16090,0,0,0,
2026-05-01 11:41:00,METAR MMSD 011141Z 00000KT 10SM BKN250 23/09 A2983 RMK SLP078 57004 902 8/008,0,0,0,16090,0,0,0,
2026-05-01 10:41:00,METAR MMSD 011041Z 34002KT 10SM BKN250 23/09 A2982 RMK 8/008,0,2,0,16090,0,0,0,
2026-05-01 09:40:00,METAR MMSD 010940Z 02002KT 10SM BKN250 23/09 A2983 RMK 8/008,0,2,0,16090,0,0,0,
2026-05-01 08:40:00,METAR MMSD 010840Z 00000KT 10SM SCT250 24/09 A2984 RMK 8/004,0,0,0,16090,0,0,0,
2026-05-01 07:41:00,METAR MMSD 010741Z 35002KT 10SM FEW250 23/10 A2985 RMK 8/001,0,2,0,16090,0,0,0,
2026-05-01 06:41:00,METAR MMSD 010641Z 33002KT 10SM SKC 25/10 A2987 RMK CI,0,2,0,16090,0,0,0,
2026-05-01 05:43:00,METAR MMSD 010543Z 00000KT 10SM SKC 26/10 A2986 RMK SLP089 52013 959 CI,0,0,0,16090,0,0,0,
2026-05-01 04:46:00,METAR MMSD 010446Z 25005KT 10SM SKC 25/10 A2986 RMK CI,0,5,0,16090,0,0,0,
2026-05-01 03:40:00,METAR MMSD 010340Z 31003KT 10SM FEW250 27/10 A2984 RMK 8/004,0,3,0,16090,0,0,0,
2026-05-01 02:42:00,METAR MMSD 010242Z 31004KT 10SM SCT250 27/10 A2982 RMK SLP078 52018 963 8/004,0,4,0,16090,0,0,0,
2026-05-01 01:41:00,METAR MMSD 010141Z 13005KT 10SM SCT250 29/09 A2980 RMK 8/004,0,5,0,16090,0,0,0,
2026-05-01 00:45:00,METAR MMSD 010045Z 15009KT 10SM SCT250 29/11 A2978 RMK 8/004,0,9,0,16090,0,0,0,
2026-04-30 23:47:00,METAR MMSD 302347Z 12014KT 10SM SCT250 30/11 A2977 RMK SLP060 57006 978 8/008,0,14,0,16090,0,0,0,
2026-04-30 22:44:00,METAR MMSD 302244Z 14015KT 10SM BKN250 31/12 A2977 RMK 8/008,0,15,0,16090,0,0,0,
2026-04-30 21:44:00,METAR MMSD 302144Z 15018KT 10SM BKN250 31/12 A2978 RMK 8/008,0,18,0,16090,0,0,0,
2026-04-30 20:40:00,METAR MMSD 302040Z 15016KT 10SM BKN250 33/11 A2979 RMK SLP065 56013 987 8/008,0,16,0,16090,0,0,0,
2026-04-30 19:48:00,METAR MMSD 301948Z 15012KT 10SM BKN250 33/10 A2979 RMK 8/008,0,12,0,16090,0,0,0,
2026-04-30 18:48:00,METAR MMSD 301848Z 36008KT 10SM BKN250 37/04 A2980 RMK 8/008,0,8,0,16090,0,0,0,
2026-04-30 17:47:00,METAR MMSD 301747Z 35008KT 10SM BKN250 35/03 A2982 RMK SLP078 58007 984 8/008,0,8,0,16090,0,0,0,
2026-04-30 16:46:00,METAR MMSD 301646Z 29005KT 10SM BKN250 33/03 A2983 RMK 8/008,0,5,0,16090,0,0,0,
2026-04-30 14:52:00,METAR MMSD 301452Z 00000KT 10SM SCT120 BKN250 24/08 A2984 RMK SLP084 52007 988 8/028,0,0,0,16090,0,0,0,
2026-04-30 13:42:00,METAR MMSD 301342Z 00000KT 10SM BKN120 BKN250 22/09 A2983 RMK 8/028,0,0,0,16090,0,0,0,
2026-04-30 12:45:00,METAR MMSD 301245Z 35005KT 10SM SCT120 BKN250 20/11 A2982 RMK 8/028,0,5,0,16090,0,0,0,
2026-04-30 11:40:00,METAR MMSD 301140Z 34002KT 10SM BKN250 21/12 A2982 RMK SLP077 57012 983 8/008,0,2,0,16090,0,0,0,
2026-04-30 10:43:00,METAR MMSD 301043Z 36005KT 10SM BKN250 21/12 A2983 RMK 8/008,0,5,0,16090,0,0,0,
2026-04-30 09:48:00,METAR MMSD 300948Z 36003KT 10SM BKN250 21/12 A2983 RMK 8/008,0,3,0,16090,0,0,0,
2026-04-30 08:41:00,METAR MMSD 300841Z 28005KT 10SM BKN250 24/13 A2986 RMK 8/008,0,5,0,16090,0,0,0,
2026-04-30 07:40:00,METAR MMSD 300740Z 30006KT 10SM BKN250 24/10 A2987 RMK 8/008,0,6,0,16090,0,0,0,
2026-04-30 06:41:00,METAR MMSD 300641Z 31004KT 10SM BKN250 23/12 A2988 RMK 8/008,0,4,0,16090,0,0,0,
2026-04-30 05:41:00,METAR MMSD 300541Z 33003KT 10SM BKN250 23/09 A2989 RMK SLP099 52009 9// 8/008,0,3,0,16090,0,0,0,
2026-04-30 04:40:00,METAR MMSD 300440Z 00000KT 10SM BKN250 23/10 A2989 RMK 8/008,0,0,0,16090,0,0,0,
2026-04-30 03:40:00,METAR MMSD 300340Z 23003KT 10SM SCT250 24/09 A2988 RMK 8/004,0,3,0,16090,0,0,0,
2026-04-30 02:40:00,METAR MMSD 300240Z 00000KT 10SM SCT250 25/07 A2986 RMK SLP091 52003 978 8/004,0,0,0,16090,0,0,0,
2026-04-30 01:41:00,METAR MMSD 300141Z 18002KT 10SM BKN250 27/07 A2986 RMK 8/008,0,2,0,16090,0,0,0,
2026-04-30 01:10:00,METAR MMSD 300110Z RTD 15004KT 10SM BKN250 28/07 A2985 RMK 8/008,0,4,0,16090,0,0,0,
2026-04-29 23:45:00,METAR MMSD 292345Z 10008KT 10SM OVC250 28/15 A2985 RMK SLP088 57015 975 8/007 BINOVC,0,8,0,16090,0,0,0,VC
2026-04-29 22:40:00,METAR MMSD 292240Z 14015KT 10SM OVC250 28/17 A2986 RMK 8/007 BINOVC,0,15,0,16090,0,0,0,VC
2026-04-29 21:45:00,METAR MMSD 292145Z 15014KT 10SM BKN250 29/19 A2987 RMK 8/008,0,14,0,16090,0,0,0,
2026-04-29 20:44:00,METAR MMSD 292044Z 12012KT 10SM BKN250 29/19 A2990 RMK SLP104 57007 954 8/008,0,12,0,16090,0,0,0,
2026-04-29 19:41:00,METAR MMSD 291941Z 12012KT 10SM BKN250 29/19 A2991 RMK 8/008,0,12,0,16090,0,0,0,
2026-04-29 18:47:00,METAR MMSD 291847Z 15012KT 10SM BKN250 30/19 A2992 RMK 8/008,0,12,0,16090,0,0,0,
2026-04-29 17:48:00,METAR MMSD 291748Z 15008KT 10SM BKN250 32/13 A2993 RMK SLP114 57007 957 8/008,0,8,0,16090,0,0,0,
2026-04-29 16:45:00,METAR MMSD 291645Z 00000KT 10SM BKN250 30/14 A2994 RMK 8/008,0,0,0,16090,0,0,0,
2026-04-29 15:42:00,METAR MMSD 291542Z 00000KT 10SM OVC250 27/15 A2995 RMK 8/007,0,0,0,16090,0,0,0,
2026-04-29 14:43:00,METAR MMSD 291443Z 00000KT 10SM OVC250 25/17 A2995 RMK SLP122 52010 954 8/007,0,0,0,16090,0,0,0,
2026-04-29 13:44:00,METAR MMSD 291344Z 00000KT 10SM OVC250 21/14 A2995 RMK 8/007 ISOL AS,0,0,0,16090,0,0,0,
2026-04-29 12:48:00,METAR MMSD 291248Z 28005KT 10SM SCT120 SCT250 21/15 A2993 RMK 8/028,0,5,0,16090,0,0,0,
2026-04-29 11:40:00,METAR MMSD 291140Z 33005KT 10SM SCT250 21/14 A2993 RMK SLP111 5//// 901 8/008,0,5,0,16090,0,0,0,
2026-04-29 10:41:00,METAR MMSD 291041Z 25006KT 10SM SCT250 21/14 A2993 RMK 8/008,0,6,0,16090,0,0,0,
2026-04-29 09:41:00,METAR MMSD 290941Z 00000KT 10SM SCT250 21/15 A2995 RMK 8/008,0,0,0,16090,0,0,0,
2026-04-29 08:50:00,METAR MMSD 290850Z 00000KT 10SM SCT250 21/14 A2995 RMK 8/008,0,0,0,16090,0,0,0,
2026-04-29 07:49:00,METAR MMSD 290749Z 00000KT 10SM SCT250 22/15 A2996 RMK 8/008,0,0,0,16090,0,0,0,
2026-04-29 06:40:00,METAR MMSD 290640Z 30005KT 10SM SCT250 23/15 A2996 RMK 8/008,0,5,0,16090,0,0,0,
2026-04-29 05:49:00,METAR MMSD 290549Z 30005KT 10SM SCT250 24/16 A2997 RMK 8/008,0,5,0,16090,0,0,0,
2026-04-29 04:44:00,METAR MMSD 290444Z 31005KT 10SM SCT250 24/17 A2997 RMK 8/008,0,5,0,16090,0,0,0,
2026-04-29 03:55:00,METAR MMSD 290355Z 00000KT 10SM FEW160 SCT250 24/17 A2996 RMK 8/038 SC,0,0,0,16090,0,0,0,
2026-04-29 02:49:00,METAR MMSD 290249Z 09005KT 10SM FEW040 SCT160 BKN250 26/18 A2995 RMK SLP119 51006 909 8/538,0,5,0,16090,0,0,0,
2026-04-29 01:51:00,METAR MMSD 290151Z 12006KT 10SM BKN250 26/15 A2993 RMK 8/008,0,6,0,16090,0,0,0,
2026-04-29 00:46:00,METAR MMSD 290046Z 14010KT 10SM BKN250 27/15 A2991 RMK 8/008,0,10,0,16090,0,0,0,
2026-04-28 23:55:00,METAR MMSD 282355Z 14005KT 10SM BKN250 30/14 A2991 RMK 8/008,0,5,0,16090,0,0,0,
2026-04-28 22:43:00,METAR MMSD 282243Z 11011KT 10SM BKN250 31/12 A2990 RMK 8/008,0,11,0,16090,0,0,0,
2026-04-28 21:42:00,METAR MMSD 282142Z 14017KT 10SM OVC250 30/12 A2992 RMK 8/007 BINOVC,0,17,0,16090,0,0,0,VC
2026-04-28 20:45:00,METAR MMSD 282045Z 13018KT 10SM OVC250 31/13 A2991 RMK SLP107 57011 912 8/007 BINOVC,0,18,0,16090,0,0,0,VC
2026-04-28 19:48:00,METAR MMSD 281948Z 15014KT 10SM BKN250 32/15 A2993 RMK 8/008,0,14,0,16090,0,0,0,
2026-04-28 18:45:00,METAR MMSD 281845Z 15012KT 10SM BKN250 33/15 A2993 RMK 8/008,0,12,0,16090,0,0,0,
2026-04-28 17:48:00,METAR MMSD 281748Z 36009KT 10SM BKN250 33/10 A2995 RMK SLP119 57006 912 8/008,0,9,0,16090,0,0,0,
2026-04-28 16:51:00,METAR MMSD 281651Z 36009KT 10SM BKN250 31/13 A2996 RMK 8/008,0,9,0,16090,0,0,0,
2026-04-28 15:44:00,METAR MMSD 281544Z 34008KT 10SM BKN250 27/17 A2997 RMK 8/008,0,8,0,16090,0,0,0,
2026-04-28 14:48:00,METAR MMSD 281448Z 32008KT 10SM BKN250 25/18 A2996 RMK SLP126 52017 916 8/008,0,8,0,16090,0,0,0,
2026-04-28 14:02:00,METAR MMSD 281402Z RTD 30005KT 10SM BKN250 23/18 A2995 RMK 8/008,0,5,0,16090,0,0,0,
2026-04-28 12:45:00,METAR MMSD 281245Z 28005KT 10SM SCT250 21/16 A2993 RMK 8/008 AS,0,5,0,16090,0,0,0,
2026-04-28 11:54:00,METAR MMSD 281154Z 00000KT 10SM SCT250 20/16 A2992 RMK SLP110 5//// 907 8/008 SC RTS,0,0,0,16090,1,0,0,TS
2026-04-28 06:40:00,METAR MMSD 280640Z 00000KT 10SM SCT250 23/18 A2993 RMK 8/008,0,0,0,16090,0,0,0,
2026-04-28 05:46:00,METAR MMSD 280546Z 31004KT 10SM SCT250 23/18 A2993 RMK 8/008,0,4,0,16090,0,0,0,
2026-04-28 04:40:00,METAR MMSD 280440Z 27002KT 10SM SCT250 23/19 A2993 RMK 8/008,0,2,0,16090,0,0,0,
2026-04-28 03:51:00,METAR MMSD 280351Z 21004KT 10SM SCT250 24/19 A2992 RMK 8/008,0,4,0,16090,0,0,0,
2026-04-28 02:55:00,METAR MMSD 280255Z 15004KT 10SM BKN250 24/19 A2991 RMK SLP110 52020 909 8/008,0,4,0,16090,0,0,0,
2026-04-28 01:49:00,METAR MMSD 280149Z 13008KT 10SM BKN250 25/19 A2989 RMK 8/008,0,8,0,16090,0,0,0,
2026-04-28 00:40:00,METAR MMSD 280040Z 13010KT 10SM SCT250 27/18 A2987 RMK 8/008,0,10,0,16090,0,0,0,
2026-04-27 23:43:00,METAR MMSD 272343Z 14010KT 10SM SCT250 28/17 A2986 RMK SLP090 56006 906 8/008,0,10,0,16090,0,0,0,
2026-04-27 22:50:00,METAR MMSD 272250Z COR 15015KT 10SM SCT250 29/15 A2987 RMK 8/008,0,15,0,16090,0,0,0,
2026-04-27 21:40:00,METAR MMSD 272140Z 13016KT 10SM SKC 30/13 A2988 RMK CU CI,0,16,0,16090,0,0,0,
2026-04-27 20:45:00,METAR MMSD 272045Z 16014KT 10SM SKC 31/13 A2988 RMK SLP096 57011 906,0,14,0,16090,0,0,0,
2026-04-27 19:44:00,METAR MMSD 271944Z 15013KT 10SM SKC 32/14 A2988,0,13,0,16090,0,0,0,
2026-04-27 18:42:00,METAR MMSD 271842Z 16006KT 10SM SKC 33/15 A2989 RMK CI,0,6,0,16090,0,0,0,
2026-04-27 17:46:00,METAR MMSD 271746Z 36005KT 10SM FEW250 31/13 A2991 RMK SLP106 57002 904 8/002,0,5,0,16090,0,0,0,
2026-04-27 16:45:00,METAR MMSD 271645Z 36007KT 10SM SCT250 29/16 A2993 RMK 8/004,0,7,0,16090,0,0,0,
2026-04-27 15:42:00,METAR MMSD 271542Z 33009KT 10SM SCT250 27/17 A2993 RMK 8/004 AC,0,9,0,16090,0,0,0,
2026-04-27 14:40:00,METAR MMSD 271440Z 33009KT 10SM SCT250 25/18 A2992 RMK SLP110 52007 912 8/004 SC,0,9,0,16090,0,0,0,
2026-04-27 13:42:00,METAR MMSD 271342Z 30007KT 10SM FEW250 23/18 A2991 RMK 8/002 SC,0,7,0,16090,0,0,0,
2026-04-27 12:40:00,METAR MMSD 271240Z 31004KT 10SM FEW250 21/16 A2989 RMK 8/001 AC,0,4,0,16090,0,0,0,
2026-04-27 11:50:00,METAR MMSD 271150Z 29008KT 10SM FEW250 21/14 A2989 RMK SLP102 5//// 918 8/001 AC,0,8,0,16090,0,0,0,
2026-04-27 10:43:00,METAR MMSD 271043Z 31003KT 10SM SKC 19/14 A2987,0,3,0,16090,0,0,0,
2026-04-27 09:40:00,METAR MMSD 270940Z 35002KT 10SM SKC 20/14 A2986,0,2,0,16090,0,0,0,
2026-04-27 08:41:00,METAR MMSD 270841Z 00000KT 10SM SKC 20/13 A2987,0,0,0,16090,0,0,0,
2026-04-27 07:42:00,METAR MMSD 270742Z 00000KT 10SM SKC 20/15 A2989,0,0,0,16090,0,0,0,
2026-04-27 06:43:00,METAR MMSD 270643Z 00000KT 10SM SKC 21/17 A2990,0,0,0,16090,0,0,0,
2026-04-27 05:42:00,METAR MMSD 270542Z 00000KT 10SM SKC 23/17 A2989,0,0,0,16090,0,0,0,
2026-04-27 04:40:00,METAR MMSD 270440Z 00000KT 10SM SKC 22/17 A2989,0,0,0,16090,0,0,0,
2026-04-27 03:40:00,METAR MMSD 270340Z 00000KT 10SM SKC 24/19 A2988,0,0,0,16090,0,0,0,
2026-04-27 02:42:00,METAR MMSD 270242Z 16005KT 10SM SKC 25/19 A2987 RMK AC-CI,0,5,0,16090,0,0,0,
2026-04-27 01:50:00,METAR MMSD 270150Z 16005KT 10SM SKC 26/18 A2986 RMK AC-CI,0,5,0,16090,0,0,0,
2026-04-27 00:40:00,METAR MMSD 270040Z 18005KT 10SM SKC 29/14 A2985 RMK AC,0,5,0,16090,0,0,0,
2026-04-26 23:53:00,METAR MMSD 262353Z 16008KT 10SM SKC 29/15 A2984 RMK SLP085 56006 905,0,8,0,16090,0,0,0,
2026-04-26 22:40:00,METAR MMSD 262240Z 16008KT 10SM SKC 30/16 A2984,0,8,0,16090,0,0,0,
2026-04-26 21:40:00,METAR MMSD 262140Z 14006KT 10SM SKC 32/13 A2985 RMK CI,0,6,0,16090,0,0,0,
2026-04-26 20:51:00,METAR MMSD 262051Z 09010KT 10SM SKC 32/12 A2986 RMK SLP089 57013 900 CI,0,10,0,16090,0,0,0,
2026-04-26 19:42:00,METAR MMSD 261942Z 16010KT 10SM SKC 30/18 A2989 RMK CI,0,10,0,16090,0,0,0,
2026-04-26 18:45:00,METAR MMSD 261845Z 14013KT 10SM SKC 30/19 A2989 RMK CI,0,13,0,16090,0,0,0,
2026-04-26 17:42:00,METAR MMSD 261742Z 17013KT 10SM FEW250 30/18 A2990 RMK SLP102 52006 900 8/001,0,13,0,16090,0,0,0,
2026-04-26 16:40:00,METAR MMSD 261640Z 14006KT 10SM SCT250 31/11 A2990 RMK 8/004,0,6,0,16090,0,0,0,
2026-04-26 15:40:00,METAR MMSD 261540Z 09002KT 10SM FEW250 30/08 A2989 RMK 8/004,0,2,0,16090,0,0,0,
2026-04-26 14:41:00,METAR MMSD 261441Z 36002KT 10SM SKC 25/08 A2988 RMK SLP097 52013 959,0,2,0,16090,0,0,0,
2026-04-26 13:45:00,METAR MMSD 261345Z 34005KT 10SM SKC 21/08 A2987,0,5,0,16090,0,0,0,
2026-04-26 12:40:00,METAR MMSD 261240Z 31004KT 10SM SKC 18/10 A2986,0,4,0,16090,0,0,0,
2026-04-26 11:51:00,METAR MMSD 261151Z 30005KT 10SM SKC 18/11 A2984 RMK SLP085 5//// 956,0,5,0,16090,0,0,0,
2026-04-26 10:40:00,METAR MMSD 261040Z 32004KT 10SM SCT250 19/12 A2983 RMK 8/008,0,4,0,16090,0,0,0,
2026-04-26 09:40:00,METAR MMSD 260940Z 00000KT 10SM SCT250 19/12 A2984 RMK 8/008,0,0,0,16090,0,0,0,
2026-04-26 08:40:00,METAR MMSD 260840Z 00000KT 10SM SKC 21/12 A2985,0,0,0,16090,0,0,0,
2026-04-26 07:51:00,METAR MMSD 260751Z 00000KT 10SM FEW250 22/14 A2987 RMK 8/008,0,0,0,16090,0,0,0,
2026-04-26 06:47:00,METAR MMSD 260647Z 00000KT 10SM SCT250 22/13 A2988 RMK 8/008,0,0,0,16090,0,0,0,
2026-04-26 05:40:00,METAR MMSD 260540Z 32004KT 10SM SKC 23/13 A2989,0,4,0,16090,0,0,0,
2026-04-26 04:57:00,METAR MMSD 260457Z RTD 35005KT 10SM SCT250 24/13 A2989 RMK 8/008,0,5,0,16090,0,0,0,
2026-04-26 03:44:00,METAR MMSD 260344Z 24005KT 10SM SCT250 24/19 A2988 RMK 8/008,0,5,0,16090,0,0,0,
2026-04-26 02:50:00,METAR MMSD 260250Z 18005KT 10SM SCT250 25/20 A2987 RMK SLP092 52013 958 8/008,0,5,0,16090,0,0,0,
2026-04-26 01:47:00,METAR MMSD 260147Z 16005KT 10SM SCT250 26/19 A2984 RMK 8/008,0,5,0,16090,0,0,0,
2026-04-26 00:44:00,METAR MMSD 260044Z 17010KT 10SM SCT250 29/05 A2983 RMK 8/008,0,10,0,16090,0,0,0,
2026-04-25 23:50:00,METAR MMSD 252350Z 18015KT 10SM SCT250 30/07 A2982 RMK SLP079 57011 957 8/001,0,15,0,16090,0,0,0,
2026-04-25 22:55:00,METAR MMSD 252255Z 19012KT 10SM FEW250 31/12 A2982 RMK 8/001,0,12,0,16090,0,0,0,
2026-04-25 21:45:00,METAR MMSD 252145Z 15012KT 10SM SKC 31/12 A2984,0,12,0,16090,0,0,0,
2026-04-25 20:45:00,METAR MMSD 252045Z 15014KT 10SM SKC 30/15 A2986 RMK SLP091 57013 900,0,14,0,16090,0,0,0,
2026-04-25 19:45:00,METAR MMSD 251945Z 15012KT 10SM SKC 30/15 A2988,0,12,0,16090,0,0,0,
2026-04-25 18:45:00,METAR MMSD 251845Z 15015KT 10SM SKC 30/17 A2988,0,15,0,16090,0,0,0,
2026-04-25 17:45:00,METAR MMSD 251745Z 15012KT 10SM SKC 31/17 A2989 RMK SLP104 58003 953,0,12,0,16090,0,0,0,
2026-04-25 16:45:00,METAR MMSD 251645Z 35005KT 10SM SKC 31/11 A2991,0,5,0,16090,0,0,0,
2026-04-25 15:45:00,METAR MMSD 251545Z 32008KT 10SM SKC 29/15 A2991,0,8,0,16090,0,0,0,
2026-04-25 14:45:00,METAR MMSD 251445Z 00000KT 10SM SKC 25/11 A2991 RMK SLP107 52017 982,0,0,0,16090,0,0,0,
2026-04-25 13:45:00,METAR MMSD 251345Z 00000KT 10SM SKC 22/12 A2989,0,0,0,16090,0,0,0,
2026-04-25 12:45:00,METAR MMSD 251245Z 00000KT 10SM SKC 18/13 A2988,0,0,0,16090,0,0,0,
2026-04-25 11:50:00,METAR MMSD 251150Z 29005KT 10SM SCT250 19/14 A2986 RMK SLP090 5//// 991 8/008 SC,0,5,0,16090,0,0,0,
2026-04-25 08:51:00,METAR MMSD 250851Z 31002KT 10SM SKC 22/15 A2985,0,2,0,16090,0,0,0,
2026-04-25 07:42:00,METAR MMSD 250742Z 26004KT 10SM SKC 21/15 A2987,0,4,0,16090,0,0,0,
2026-04-25 06:47:00,METAR MMSD 250647Z 20005KT 10SM SKC 23/16 A2989,0,5,0,16090,0,0,0,
2026-04-25 05:40:00,METAR MMSD 250540Z 17005KT 10SM SKC 23/18 A2989,0,5,0,16090,0,0,0,
2026-04-25 04:41:00,METAR MMSD 250441Z 17005KT 10SM SKC 24/17 A2989 RMK CI,0,5,0,16090,0,0,0,
2026-04-25 03:50:00,METAR MMSD 250350Z 17005KT 10SM FEW250 25/17 A2989 RMK 8/001,0,5,0,16090,0,0,0,
2026-04-25 02:50:00,METAR MMSD 250250Z 15006KT 10SM FEW040 SCT250 26/17 A2987 RMK SLP100 52012 956 8/401,0,6,0,16090,0,0,0,
2026-04-25 01:40:00,METAR MMSD 250140Z 09007KT 10SM FEW040 SCT250 27/16 A2985 RMK 8/501,0,7,0,16090,0,0,0,
2026-04-25 00:45:00,METAR MMSD 250045Z 12005KT 10SM FEW035 SCT250 27/16 A2985 RMK 8/101,0,5,0,16090,0,0,0,
2026-04-24 23:52:00,METAR MMSD 242352Z 12015KT 10SM SKC 31/11 A2985 RMK SLP088 56004 957 SC,0,15,0,16090,0,0,0,
2026-04-24 22:55:00,METAR MMSD 242255Z 12015KT 10SM FEW030 31/11 A2985 RMK 8/100,0,15,0,16090,0,0,0,
2026-04-24 21:50:00,METAR MMSD 242150Z 13008KT 10SM FEW030 31/10 A2985 RMK 8/500,0,8,0,16090,0,0,0,
2026-04-24 20:40:00,METAR MMSD 242040Z 15014KT 10SM SKC 31/13 A2987 RMK SLP093 57017 967 CU,0,14,0,16090,0,0,0,
2026-04-24 19:44:00,METAR MMSD 241944Z 15014KT 10SM SKC 32/11 A2988,0,14,0,16090,0,0,0,
2026-04-24 18:48:00,METAR MMSD 241848Z 15012KT 10SM SKC 32/12 A2989,0,12,0,16090,0,0,0,
2026-04-24 17:48:00,METAR MMSD 241748Z 15012KT 10SM SKC 32/14 A2991 RMK SLP105 50000 968,0,12,0,16090,0,0,0,
2026-04-24 16:48:00,METAR MMSD 241648Z 00000KT 10SM SKC 31/13 A2992,0,0,0,16090,0,0,0,
2026-04-24 15:45:00,METAR MMSD 241545Z 10004KT 10SM SKC 29/12 A2993,0,4,0,16090,0,0,0,
2026-04-24 14:48:00,METAR MMSD 241448Z 00000KT 10SM SKC 26/14 A2991 RMK SLP139 57007 912,0,0,0,16090,0,0,0,
2026-04-24 13:51:00,METAR MMSD 241351Z 31006KT 10SM SKC 25/14 A2991,0,6,0,16090,0,0,0,
2026-04-24 12:47:00,METAR MMSD 241247Z 00000KT 10SM SKC 22/14 A2989,0,0,0,16090,0,0,0,
2026-04-24 11:41:00,METAR MMSD 241141Z 00000KT 10SM SKC 21/17 A2998 RMK SLP132 52017 921 CI,0,0,0,16090,0,0,0,
2026-04-24 10:55:00,METAR MMSD 241055Z 00000KT 10SM SKC 22/13 A2993,0,0,0,16090,0,0,0,
2026-04-24 09:42:00,METAR MMSD 240942Z 00000KT 10SM SKC 23/14 A2993,0,0,0,16090,0,0,0,
2026-04-24 08:40:00,METAR MMSD 240840Z 00000KT 10SM SKC 23/14 A2993,0,0,0,16090,0,0,0,
2026-04-24 07:40:00,METAR MMSD 240740Z 00000KT 10SM SKC 23/14 A2993,0,0,0,16090,0,0,0,
2026-04-24 06:40:00,METAR MMSD 240640Z 00000KT 10SM SKC 23/14 A2993,0,0,0,16090,0,0,0,
2026-04-24 05:45:00,METAR MMSD 240545Z 00000KT 10SM SKC 23/14 A2993 RMK SLP115 52008 960,0,0,0,16090,0,0,0,
2026-04-24 04:44:00,METAR MMSD 240444Z 18002KT 10SM SKC 23/14 A2993,0,2,0,16090,0,0,0,
2026-04-24 03:40:00,METAR MMSD 240340Z 20003KT 10SM SKC 24/14 A2992,0,3,0,16090,0,0,0,
2026-04-24 02:44:00,METAR MMSD 240244Z 13006KT 10SM SKC 26/13 A2991 RMK SLP106 52011 964,0,6,0,16090,0,0,0,
2026-04-24 01:42:00,METAR MMSD 240142Z 11009KT 10SM SKC 26/13 A2989 RMK CU,0,9,0,16090,0,0,0,
2026-04-24 00:44:00,METAR MMSD 240044Z 13011KT 10SM SKC 27/14 A2988 RMK CU,0,11,0,16090,0,0,0,
2026-04-23 23:52:00,METAR MMSD 232352Z 14015KT 10SM FEW040 28/16 A2987 RMK SLP095 57013 968 8/200,0,15,0,16090,0,0,0,
2026-04-23 22:40:00,METAR MMSD 232240Z 13010KT 10SM FEW040TCU 29/17 A2988 RMK 8/200,0,10,0,16090,0,0,0,
2026-04-23 21:48:00,METAR MMSD 232148Z 15012KT 10SM FEW030TCU 29/18 A2989 RMK 8/200,0,12,0,16090,0,0,0,
2026-04-23 20:50:00,METAR MMSD 232050Z 15012KT 10SM FEW030TCU 30/18 A2991 RMK SLP109 57017 973 8/200,0,12,0,16090,0,0,0,
2026-04-23 19:44:00,METAR MMSD 231944Z 15012KT 10SM FEW030 29/19 A2992 RMK 8/100,0,12,0,16090,0,0,0,
2026-04-23 18:55:00,METAR MMSD 231855Z 15012KT 10SM FEW030 29/19 A2994 RMK 8/500,0,12,0,16090,0,0,0,
2026-04-23 17:45:00,METAR MMSD 231745Z 15014KT 10SM SKC 29/20 A2996 RMK SLP125 58003 968 ISOL CU,0,14,0,16090,0,0,0,
2026-04-23 17:05:00,METAR MMSD 231705Z 14012KT 10SM SKC 29/19 A2996 RMK ISOL CU,0,12,0,16090,0,0,0,
2026-04-23 16:40:00,METAR MMSD 231640Z 00000KT 10SM SKC 28/17 A2997 RMK CI,0,0,0,16090,0,0,0,
2026-04-23 15:43:00,METAR MMSD 231543Z 00000KT 10SM SKC 27/18 A2997 RMK CI,0,0,0,16090,0,0,0,
2026-04-23 14:45:00,METAR MMSD 231445Z 00000KT 10SM SKC 24/18 A2997 RMK SLP127 52017 967,0,0,0,16090,0,0,0,
2026-04-23 13:45:00,METAR MMSD 231345Z 00000KT 10SM SKC 21/17 A2995 RMK CI,0,0,0,16090,0,0,0,
2026-04-23 12:50:00,METAR MMSD 231250Z 00000KT 10SM SKC 21/18 A2993 RMK CI,0,0,0,16090,0,0,0,
2026-04-23 11:41:00,METAR MMSD 231141Z 28006KT 10SM SKC 21/17 A2992 RMK SLP110 57002 976 CI,0,6,0,16090,0,0,0,
2026-04-23 10:40:00,METAR MMSD 231040Z 25002KT 10SM SKC 20/16 A2991 RMK CI,0,2,0,16090,0,0,0,
2026-04-23 09:41:00,METAR MMSD 230941Z 00000KT 10SM SKC 20/16 A2991 RMK CI,0,0,0,16090,0,0,0,
2026-04-23 08:45:00,METAR MMSD 230845Z 33002KT 10SM SKC 21/17 A2992,0,2,0,16090,0,0,0,
2026-04-23 07:41:00,METAR MMSD 230741Z 18003KT 10SM SKC 21/17 A2993,0,3,0,16090,0,0,0,
2026-04-23 06:40:00,METAR MMSD 230640Z 19003KT 10SM SKC 22/17 A2995,0,3,0,16090,0,0,0,
2026-04-23 05:40:00,METAR MMSD 230540Z 00000KT 10SM SKC 23/17 A2996 RMK SLP124 52004 9// CI,0,0,0,16090,0,0,0,
2026-04-23 04:40:00,METAR MMSD 230440Z 00000KT 10SM SKC 23/18 A2997 RMK CI,0,0,0,16090,0,0,0,
2026-04-23 03:41:00,METAR MMSD 230341Z 19002KT 10SM SKC 24/18 A2997 RMK CI,0,2,0,16090,0,0,0,
2026-04-23 02:40:00,METAR MMSD 230240Z 17004KT 10SM SKC 25/18 A2995 RMK SLP121 52007 958 SC CI,0,4,0,16090,0,0,0,
2026-04-23 01:41:00,METAR MMSD 230141Z 15005KT 10SM FEW250 26/17 A2994 RMK 8/001 CU,0,5,0,16090,0,0,0,
2026-04-23 00:47:00,METAR MMSD 230047Z 16007KT 10SM FEW250 27/16 A2993 RMK 8/001 CU,0,7,0,16090,0,0,0,
2026-04-22 23:45:00,METAR MMSD 222345Z 15012KT 10SM FEW250 29/17 A2993 RMK SLP114 57018 957 8/001 CU,0,12,0,16090,0,0,0,
2026-04-22 22:49:00,METAR MMSD 222249Z 16009KT 10SM FEW250 30/15 A2994 RMK 8/001 CU,0,9,0,16090,0,0,0,
2026-04-22 21:45:00,METAR MMSD 222145Z 15014KT 10SM SKC 30/16 A2996,0,14,0,16090,0,0,0,
2026-04-22 20:48:00,METAR MMSD 222048Z 12012KT 10SM SKC 30/14 A2998 RMK SLP132 57010 900,0,12,0,16090,0,0,0,
2026-04-22 19:48:00,METAR MMSD 221948Z 15015KT 10SM SKC 30/13 A2999,0,15,0,16090,0,0,0,
2026-04-22 18:47:00,METAR MMSD 221847Z 15015KT 10SM SKC 31/09 A3000,0,15,0,16090,0,0,0,
2026-04-22 17:48:00,METAR MMSD 221748Z 12012KT 10SM SKC 31/11 A3001 RMK SLP143 58003 900,0,12,0,16090,0,0,0,
2026-04-22 17:12:00,SPECI MMSD 221712Z 15012KT 10SM SKC 30/15 A3002,0,12,0,16090,0,0,0,
2026-04-22 16:48:00,METAR MMSD 221648Z 00000KT 10SM SKC 30/13 A3002,0,0,0,16090,0,0,0,
2026-04-22 15:45:00,METAR MMSD 221545Z 36005KT 10SM SKC 29/13 A3002,0,5,0,16090,0,0,0,
2026-04-22 14:41:00,METAR MMSD 221441Z 34008KT 10SM SKC 25/19 A3002 RMK SLP147 52007 903,0,8,0,16090,0,0,0,
2026-04-22 13:47:00,METAR MMSD 221347Z 28005KT 10SM SKC 22/19 A3002,0,5,0,16090,0,0,0,
2026-04-22 12:48:00,METAR MMSD 221248Z 32005KT 10SM SKC 22/19 A3001,0,5,0,16090,0,0,0,
2026-04-22 11:56:00,METAR MMSD 221156Z 00000KT 10SM SKC 21/16 A3000 RMK SLP137 5//// 910,0,0,0,16090,0,0,0,
2026-04-22 10:40:00,METAR MMSD 221040Z 28004KT 10SM SKC 20/16 A2999,0,4,0,16090,0,0,0,
2026-04-22 09:40:00,METAR MMSD 220940Z 32002KT 10SM SKC 21/17 A2999,0,2,0,16090,0,0,0,
2026-04-22 07:40:00,METAR MMSD 220740Z 32004KT 10SM SKC 22/19 A3000,0,4,0,16090,0,0,0,
2026-04-22 06:43:00,METAR MMSD 220643Z 31005KT 10SM SKC 23/18 A3000,0,5,0,16090,0,0,0,
2026-04-22 05:44:00,METAR MMSD 220544Z 30005KT 10SM SKC 24/19 A3001,0,5,0,16090,0,0,0,
2026-04-22 04:40:00,METAR MMSD 220440Z 30006KT 10SM SKC 25/17 A3001,0,6,0,16090,0,0,0,
2026-04-22 03:54:00,METAR MMSD 220354Z 33005KT 10SM SKC 25/16 A3001,0,5,0,16090,0,0,0,
2026-04-22 02:40:00,METAR MMSD 220240Z 29005KT 10SM SKC 27/11 A2997 RMK SLP129 51008 907,0,5,0,16090,0,0,0,
2026-04-22 01:40:00,METAR MMSD 220140Z 08004KT 10SM SKC 28/10 A2996,0,4,0,16090,0,0,0,
2026-04-22 00:40:00,METAR MMSD 220040Z 11005KT 10SM SKC 29/10 A2995,0,5,0,16090,0,0,0,
2026-04-21 23:40:00,METAR MMSD 212340Z 13010KT 10SM SKC 29/09 A2995 RMK SLP120 57011 905 SC,0,10,0,16090,0,0,0,
2026-04-21 22:42:00,METAR MMSD 212242Z 13012KT 10SM SKC 29/10 A2996,0,12,0,16090,0,0,0,
2026-04-21 21:55:00,METAR MMSD 212155Z 10016KT 10SM SKC 29/12 A2997 RMK CU,0,16,0,16090,0,0,0,
2026-04-21 20:48:00,METAR MMSD 212048Z 13018KT 10SM FEW040 29/16 A2998 RMK SLP132 57009 905 8/100,0,18,0,16090,0,0,0,
2026-04-21 19:49:00,METAR MMSD 211949Z 14016KT 10SM SKC 29/18 A2999 RMK CU,0,16,0,16090,0,0,0,
2026-04-21 18:45:00,METAR MMSD 211845Z 16012KT 10SM SKC 30/18 A3001 RMK CU CI,0,12,0,16090,0,0,0,
2026-04-21 17:45:00,METAR MMSD 211745Z 14013KT 10SM SKC 31/16 A3001 RMK SLP140 54000 908 CI,0,13,0,16090,0,0,0,
2026-04-21 16:42:00,METAR MMSD 211642Z 01003KT 10SM SKC 29/14 A3001 RMK CI,0,3,0,16090,0,0,0,
2026-04-21 15:43:00,METAR MMSD 211543Z 00000KT 10SM SKC 26/16 A3002 RMK ISOL CI,0,0,0,16090,0,0,0,
2026-04-21 14:49:00,METAR MMSD 211449Z 32004KT 10SM SCT250 24/17 A3001 RMK SLP141 52013 912 8/008,0,4,0,16090,0,0,0,
2026-04-21 13:45:00,METAR MMSD 211345Z 00000KT 10SM SCT120 BKN250 22/16 A3000 RMK 8/028,0,0,0,16090,0,0,0,
2026-04-21 12:48:00,METAR MMSD 211248Z 28004KT 10SM BKN120 BKN250 20/15 A2998 RMK 8/028,0,4,0,16090,0,0,0,
2026-04-21 11:51:00,METAR MMSD 211151Z 00000KT 10SM SCT250 20/15 A2997 RMK SLP128 5//// 908 8/008,0,0,0,16090,0,0,0,
2026-04-21 08:55:00,METAR MMSD 210855Z 00000KT 10SM SCT250 21/16 A2997 RMK 8/008,0,0,0,16090,0,0,0,
2026-04-21 07:40:00,METAR MMSD 210740Z 32005KT 10SM SCT250 23/16 A2998 RMK 8/008,0,5,0,16090,0,0,0,
2026-04-21 06:54:00,METAR MMSD 210654Z 34005KT 10SM SCT250 23/18 A2998 RMK 8/008,0,5,0,16090,0,0,0,
2026-04-21 05:43:00,METAR MMSD 210543Z 28005KT 10SM SCT250 24/16 A2999 RMK 8/008,0,5,0,16090,0,0,0,
2026-04-21 04:40:00,METAR MMSD 210440Z 28004KT 10SM SCT250 24/15 A2998 RMK 8/008,0,4,0,16090,0,0,0,
2026-04-21 03:40:00,METAR MMSD 210340Z 36005KT 10SM SCT250 25/14 A2996 RMK 8/008,0,5,0,16090,0,0,0,
2026-04-21 02:57:00,METAR MMSD 210257Z 30004KT 10SM SKC 25/14 A2995 RMK SLP122 51006 911 CI,0,4,0,16090,0,0,0,
2026-04-21 01:40:00,METAR MMSD 210140Z 12004KT 10SM SCT250 27/14 A2993 RMK 8/001,0,4,0,16090,0,0,0,
2026-04-21 00:40:00,METAR MMSD 210040Z 14010KT 10SM FEW250 27/15 A2993 RMK 8/001,0,10,0,16090,0,0,0,
2026-04-20 23:55:00,METAR MMSD 202355Z 13010KT 10SM FEW250 27/16 A2993 RMK SLP116 52011 918 8/001,0,10,0,16090,0,0,0,
2026-04-20 22:40:00,METAR MMSD 202240Z 13012KT 10SM FEW250 28/17 A2994 RMK 8/001,0,12,0,16090,0,0,0,
2026-04-20 21:45:00,METAR MMSD 202145Z 14013KT 10SM SCT250 29/16 A2995 RMK 8/004 CU,0,13,0,16090,0,0,0,
2026-04-20 20:47:00,METAR MMSD 202047Z 14013KT 10SM SCT250 28/17 A2996 RMK SLP128 57006 911 8/004 CU,0,13,0,16090,0,0,0,
2026-04-20 19:48:00,METAR MMSD 201948Z 16009G21KT 10SM SKC 29/17 A2997 RMK CU CI,0,9,1,16090,0,0,0,
2026-04-20 18:44:00,METAR MMSD 201844Z 07005KT 10SM SCT250 30/14 A2998 RMK 8/004,0,5,0,16090,0,0,0,
2026-04-20 17:43:00,METAR MMSD 201743Z 29004KT 10SM FEW250 30/14 A2998 RMK SLP133 52004 912 8/004,0,4,0,16090,0,0,0,
2026-04-20 16:40:00,METAR MMSD 201640Z 31006KT 10SM FEW250 28/15 A2998 RMK 8/001,0,6,0,16090,0,0,0,
2026-04-20 15:42:00,METAR MMSD 201542Z 34011KT 10SM SKC 26/16 A2998 RMK CI,0,11,0,16090,0,0,0,
2026-04-20 14:42:00,METAR MMSD 201442Z 31012KT 10SM SKC 24/17 A2997 RMK SLP130 52010 908 SC CI,0,12,0,16090,0,0,0,
2026-04-20 13:40:00,METAR MMSD 201340Z 30008KT 10SM SKC 22/18 A2996 RMK LWR SC,0,8,0,16090,0,0,0,
2026-04-20 12:40:00,METAR MMSD 201240Z 29008KT 10SM SKC 21/16 A2995,0,8,0,16090,0,0,0,
2026-04-20 12:12:00,METAR MMSD 201212Z RTD 27009KT 10SM SKC 19/15 A2994 RMK SLP119 5//// 912,0,9,0,16090,0,0,0,
2026-04-20 10:49:00,METAR MMSD 201049Z 20020KT 12SM SKC 20/15 A2992,0,20,0,19308,0,0,0,
2026-04-20 09:46:00,METAR MMSD 200946Z 30003KT 12SM SKC 21/15 A2991,0,3,0,19308,0,0,0,
2026-04-20 08:45:00,METAR MMSD 200845Z 35003KT 12SM SKC 20/15 A2992,0,3,0,19308,0,0,0,
2026-04-20 07:43:00,METAR MMSD 200743Z 35004KT 12SM SKC 21/16 A2993,0,4,0,19308,0,0,0,
2026-04-20 06:40:00,METAR MMSD 200640Z 29006KT 12SM SKC 22/17 A2994,0,6,0,19308,0,0,0,
2026-04-20 05:41:00,METAR MMSD 200541Z 30006KT 12SM SKC 22/15 A2995,0,6,0,19308,0,0,0,
2026-04-20 04:41:00,METAR MMSD 200441Z 31004KT 10SM SKC 22/15 A2995,0,4,0,16090,0,0,0,
2026-04-20 03:40:00,METAR MMSD 200340Z 00000KT 10SM SKC 23/15 A2993,0,0,0,16090,0,0,0,
2026-04-20 02:53:00,METAR MMSD 200253Z 05002KT 10SM SKC 24/16 A2992 RMK SLP111 52013 910,0,2,0,16090,0,0,0,
2026-04-20 01:41:00,METAR MMSD 200141Z 15005KT 10SM SKC 25/15 A2990,0,5,0,16090,0,0,0,
2026-04-20 00:51:00,METAR MMSD 200051Z 14006KT 10SM SKC 26/15 A2989,0,6,0,16090,0,0,0,
2026-04-19 23:51:00,METAR MMSD 192351Z 14010KT 10SM SKC 27/16 A2988 RMK SLP098 57018 907 SC,0,10,0,16090,0,0,0,
2026-04-19 22:40:00,METAR MMSD 192240Z 17008KT 10SM SKC 28/16 A2989 RMK SC,0,8,0,16090,0,0,0,
2026-04-19 21:43:00,METAR MMSD 192143Z 12018KT 10SM FEW040 27/16 A2991 RMK 8/100,0,18,0,16090,0,0,0,
2026-04-19 20:49:00,METAR MMSD 192049Z 13016KT 10SM FEW040 28/16 A2993 RMK SLP117 57005 909 8/100,0,16,0,16090,0,0,0,
2026-04-19 19:45:00,METAR MMSD 191945Z 16013KT 10SM FEW040 27/17 A2995 RMK 8/100,0,13,0,16090,0,0,0,
2026-04-19 18:42:00,METAR MMSD 191842Z 13012KT 10SM SKC 28/17 A2994 RMK CU,0,12,0,16090,0,0,0,
2026-04-19 17:57:00,METAR MMSD 191757Z RTD 16011KT 10SM SKC 28/16 A2995 RMK SLP121 54000 905 CU,0,11,0,16090,0,0,0,
2026-04-19 16:46:00,METAR MMSD 191646Z 08004KT 10SM FEW040 26/15 A2996 RMK 8/100,0,4,0,16090,0,0,0,
2026-04-19 15:49:00,METAR MMSD 191549Z 07004KT 10SM FEW040 25/16 A2996 RMK 8/100,0,4,0,16090,0,0,0,
2026-04-19 14:50:00,METAR MMSD 191450Z 02002KT 10SM FEW040 24/16 A2995 RMK SLP122 52014 907 8/100,0,2,0,16090,0,0,0,
2026-04-19 13:42:00,METAR MMSD 191342Z 36004KT 10SM SKC 20/15 A2993 RMK LWR SC,0,4,0,16090,0,0,0,
2026-04-19 12:40:00,METAR MMSD 191240Z 36004KT 10SM SKC 19/14 A2991 RMK CI,0,4,0,16090,0,0,0,
2026-04-19 11:53:00,METAR MMSD 191153Z 33005KT 10SM SKC 20/14 A2991 RMK SLP107 5//// 909,0,5,0,16090,0,0,0,
2026-04-19 10:40:00,METAR MMSD 191040Z 32002KT 10SM SKC 19/14 A2989,0,2,0,16090,0,0,0,
2026-04-19 09:40:00,METAR MMSD 190940Z 32004KT 10SM SKC 19/13 A2989,0,4,0,16090,0,0,0,
2026-04-19 08:43:00,METAR MMSD 190843Z 28005KT 10SM SKC 19/14 A2989,0,5,0,16090,0,0,0,
2026-04-19 07:40:00,METAR MMSD 190740Z 33005KT 10SM SKC 21/14 A2990,0,5,0,16090,0,0,0,
2026-04-19 06:46:00,METAR MMSD 190646Z 31005KT 10SM SKC 21/14 A2991,0,5,0,16090,0,0,0,
2026-04-19 05:52:00,METAR MMSD 190552Z 30004KT 10SM SKC 21/14 A2992,0,4,0,16090,0,0,0,
2026-04-19 04:40:00,METAR MMSD 190440Z 32002KT 10SM SKC 22/14 A2991,0,2,0,16090,0,0,0,
2026-04-19 03:46:00,METAR MMSD 190346Z 17002KT 10SM SKC 23/13 A2991,0,2,0,16090,0,0,0,
2026-04-19 02:41:00,METAR MMSD 190241Z 13010KT 10SM SKC 23/15 A2989 RMK SLP101 52010 953,0,10,0,16090,0,0,0,
2026-04-19 01:41:00,METAR MMSD 190141Z 13012KT 10SM SKC 24/16 A2987,0,12,0,16090,0,0,0,
2026-04-19 00:50:00,METAR MMSD 190050Z 11010KT 10SM SKC 25/16 A2987 RMK SC-CI,0,10,0,16090,0,0,0,
2026-04-18 23:51:00,METAR MMSD 182351Z 14010KT 10SM SKC 25/16 A2986 RMK SLP091 57016 900 SC,0,10,0,16090,0,0,0,
2026-04-18 21:45:00,METAR MMSD 182145Z 15014KT 10SM SKC 27/15 A2988 RMK CU,0,14,0,16090,0,0,0,
2026-04-18 20:43:00,METAR MMSD 182043Z 15014KT 10SM SKC 27/15 A2991 RMK SLP106 57010 900 ISOL CU,0,14,0,16090,0,0,0,
2026-04-18 19:45:00,METAR MMSD 181945Z 15012KT 10SM SKC 28/13 A2992 RMK CU,0,12,0,16090,0,0,0,
2026-04-18 18:45:00,METAR MMSD 181845Z 12012KT 10SM SKC 28/14 A2993,0,12,0,16090,0,0,0,
2026-04-18 17:43:00,METAR MMSD 181743Z 36005KT 10SM SKC 28/11 A2993 RMK SLP115 54000 900,0,5,0,16090,0,0,0,
2026-04-18 16:46:00,METAR MMSD 181646Z 32006KT 10SM SKC 27/13 A2993,0,6,0,16090,0,0,0,
2026-04-18 14:46:00,METAR MMSD 181446Z 34005KT 10SM SCT030 24/13 A2993 RMK SLP114 52017 900 8/500,0,5,0,16090,0,0,0,
2026-04-18 13:45:00,METAR MMSD 181345Z 35006KT 10SM BKN030 22/13 A2991 RMK 8/500,0,6,0,16090,0,0,0,
2026-04-18 12:55:00,METAR MMSD 181255Z 35008KT 10SM OVC030 22/14 A2989 RMK 8/5//,0,8,0,16090,0,0,0,
2026-04-18 11:54:00,METAR MMSD 181154Z 31004KT 10SM SCT250 22/15 A2988 RMK SLP097 5//// 900 8/008 RTS,0,4,0,16090,1,0,0,TS
2026-04-18 07:53:00,METAR MMSD 180753Z 00000KT 10SM SCT250 22/17 A2991 RMK 8/008,0,0,0,16090,0,0,0,
2026-04-18 06:40:00,METAR MMSD 180640Z 12005KT 10SM SCT250 23/18 A2992 RMK 8/008,0,5,0,16090,0,0,0,
2026-04-18 05:48:00,METAR MMSD 180548Z 13010KT 10SM SCT250 23/19 A2993 RMK 8/008,0,10,0,16090,0,0,0,
2026-04-18 04:40:00,METAR MMSD 180440Z 13010KT 10SM SCT250 24/18 A2992 RMK 8/008,0,10,0,16090,0,0,0,
2026-04-18 03:40:00,METAR MMSD 180340Z 13005KT 10SM SCT250 24/18 A2991 RMK 8/008,0,5,0,16090,0,0,0,
2026-04-18 02:42:00,METAR MMSD 180242Z 13010KT 10SM FEW040 BKN250 24/18 A2990 RMK SLP103 52013 954 8/508 AS,0,10,0,16090,0,0,0,
2026-04-18 01:49:00,METAR MMSD 180149Z 15010KT 10SM SCT040 SCT160 BKN250 25/18 A2988 RMK 8/578,0,10,0,16090,0,0,0,
2026-04-18 00:55:00,METAR MMSD 180055Z 16008KT 10SM SCT040 BKN250 26/18 A2986 RMK 8/408,0,8,0,16090,0,0,0,
2026-04-17 23:55:00,METAR MMSD 172355Z 15012KT 10SM SCT040 BKN250 27/18 A2986 RMK SLP091 57016 957 8/408,0,12,0,16090,0,0,0,
2026-04-17 22:51:00,METAR MMSD 172251Z 13010KT 10SM SCT035 BKN250 28/18 A2987 RMK 8/108,0,10,0,16090,0,0,0,
2026-04-17 21:52:00,METAR MMSD 172152Z 15010KT 10SM SCT040 OVC250 28/18 A2988 RMK 8/207 AC/BINOVC,0,10,0,16090,0,0,0,VC
2026-04-17 20:48:00,METAR MMSD 172048Z 15010KT 10SM SCT050 BKN250 29/17 A2990 RMK SLP107 57007 900 8/508,0,10,0,16090,0,0,0,
2026-04-17 19:54:00,METAR MMSD 171954Z 15015KT 10SM BKN250 30/17 A2992 RMK 8/008 ISOL CU,0,15,0,16090,0,0,0,
2026-04-17 18:45:00,METAR MMSD 171845Z 15012KT 10SM FEW250 30/17 A2993 RMK 8/008 ISOL CU,0,12,0,16090,0,0,0,
2026-04-17 17:45:00,METAR MMSD 171745Z 15012KT 10SM FEW250 31/18 A2993 RMK SLP114 50000 964 8/008,0,12,0,16090,0,0,0,
2026-04-17 16:47:00,METAR MMSD 171647Z 15005KT 10SM FEW250 31/12 A2994 RMK 8/008,0,5,0,16090,0,0,0,
2026-04-17 15:51:00,METAR MMSD 171551Z 11006KT 10SM FEW250 28/16 A2995 RMK 8/005,0,6,0,16090,0,0,0,
2026-04-17 14:54:00,METAR MMSD 171454Z 36005KT 10SM FEW250 26/16 A2993 RMK SLP116 52017 960 8/005,0,5,0,16090,0,0,0,
2026-04-17 13:51:00,METAR MMSD 171351Z 31004KT 10SM FEW250 22/16 A2992 RMK 8/005,0,4,0,16090,0,0,0,
2026-04-17 12:47:00,METAR MMSD 171247Z 00000KT 10SM SKC 20/17 A2989 RMK AS CI,0,0,0,16090,0,0,0,
2026-04-17 11:40:00,METAR MMSD 171140Z 22003KT 10SM SCT250 21/18 A2988 RMK SLP097 57007 959 8/004,0,3,0,16090,0,0,0,
2026-04-17 10:45:00,METAR MMSD 171045Z 25003KT 10SM SCT250 21/18 A2988 RMK 8/004,0,3,0,16090,0,0,0,
2026-04-17 09:47:00,METAR MMSD 170947Z 12002KT 10SM SCT250 22/19 A2989 RMK 8/004,0,2,0,16090,0,0,0,
2026-04-17 08:42:00,METAR MMSD 170842Z 28003KT 10SM SCT250 20/17 A2990 RMK 8/004,0,3,0,16090,0,0,0,
2026-04-17 07:40:00,METAR MMSD 170740Z 31003KT 10SM SCT250 22/18 A2991 RMK 8/004,0,3,0,16090,0,0,0,
2026-04-17 06:41:00,METAR MMSD 170641Z 00000KT 10SM SCT250 23/19 A2992 RMK 8/004,0,0,0,16090,0,0,0,
2026-04-17 05:42:00,METAR MMSD 170542Z 00000KT 10SM FEW250 23/18 A2994 RMK SLP116 52009 962 8/001,0,0,0,16090,0,0,0,
2026-04-17 04:40:00,METAR MMSD 170440Z 16002KT 10SM SKC 24/19 A2993 RMK CI,0,2,0,16090,0,0,0,
2026-04-17 02:43:00,METAR MMSD 170243Z 14004KT 10SM FEW250 25/19 A2991 RMK SLP108 52010 958 8/004,0,4,0,16090,0,0,0,
2026-04-17 01:41:00,METAR MMSD 170141Z 16004KT 10SM SCT250 26/19 A2989 RMK 8/004,0,4,0,16090,0,0,0,
2026-04-17 00:50:00,METAR MMSD 170050Z 16003KT 10SM FEW250 27/18 A2988 RMK 8/001,0,3,0,16090,0,0,0,
2026-04-16 23:54:00,METAR MMSD 162354Z 15005KT 10SM SKC 28/18 A2988 RMK SLP098 57012 955 CU,0,5,0,16090,0,0,0,
2026-04-16 22:44:00,METAR MMSD 162244Z 14014KT 10SM SKC 28/18 A2989 RMK CU,0,14,0,16090,0,0,0,
2026-04-16 21:40:00,METAR MMSD 162140Z 12012KT 10SM SKC 29/17 A2990 RMK ISOL CU,0,12,0,16090,0,0,0,
2026-04-16 20:41:00,METAR MMSD 162041Z 12012KT 10SM SKC 30/17 A2992 RMK SLP118 52017 955 ISOL CU,0,12,0,16090,0,0,0,
2026-04-16 19:47:00,METAR MMSD 161947Z 14016KT 10SM SKC 29/18 A2993,0,16,0,16090,0,0,0,
2026-04-16 18:45:00,METAR MMSD 161845Z 15014KT 10SM SKC 29/18 A2996,0,14,0,16090,0,0,0,
2026-04-16 17:44:00,METAR MMSD 161744Z 12014KT 10SM SKC 29/17 A2997 RMK SLP128 50003 907,0,14,0,16090,0,0,0,
2026-04-16 16:45:00,METAR MMSD 161645Z 15010KT 10SM SKC 29/15 A2998,0,10,0,16090,0,0,0,
2026-04-16 15:49:00,METAR MMSD 161549Z 00000KT 10SM SKC 26/16 A2998,0,0,0,16090,0,0,0,
2026-04-16 14:48:00,METAR MMSD 161448Z 00000KT 10SM SKC 23/15 A2996 RMK SLP127 52020 910,0,0,0,16090,0,0,0,
2026-04-16 13:40:00,METAR MMSD 161340Z 00000KT 10SM SKC 21/15 A2994,0,0,0,16090,0,0,0,
2026-04-16 12:45:00,METAR MMSD 161245Z 00000KT 10SM SKC 19/15 A2992,0,0,0,16090,0,0,0,
2026-04-16 11:40:00,METAR MMSD 161140Z 00000KT 10SM SKC 19/15 A2991 RMK SLP107 57006 9// CI,0,0,0,16090,0,0,0,
2026-04-16 10:40:00,METAR MMSD 161040Z 31004KT 10SM SKC 20/17 A2989,0,4,0,16090,0,0,0,
2026-04-16 09:42:00,METAR MMSD 160942Z 27003KT 10SM SKC 19/17 A2991,0,3,0,16090,0,0,0,
2026-04-16 08:40:00,METAR MMSD 160840Z 30005KT 10SM SKC 20/17 A2992,0,5,0,16090,0,0,0,
2026-04-16 07:40:00,METAR MMSD 160740Z 27003KT 10SM SKC 21/17 A2994,0,3,0,16090,0,0,0,
2026-04-16 06:40:00,METAR MMSD 160640Z 31003KT 10SM SKC 22/18 A2996,0,3,0,16090,0,0,0,
2026-04-16 05:40:00,METAR MMSD 160540Z 00000KT 10SM SKC 23/18 A2997 RMK SLP128 52013 9//,0,0,0,16090,0,0,0,
2026-04-16 04:40:00,METAR MMSD 160440Z 17004KT 10SM SKC 24/18 A2997,0,4,0,16090,0,0,0,
2026-04-16 03:40:00,METAR MMSD 160340Z 16004KT 10SM SKC 24/18 A2996,0,4,0,16090,0,0,0,
2026-04-16 02:47:00,METAR MMSD 160247Z 15010KT 10SM SKC 24/18 A2993 RMK SLP117 52013 902 CI,0,10,0,16090,0,0,0,
2026-04-16 01:52:00,METAR MMSD 160152Z 14011KT 10SM SKC 25/17 A2992,0,11,0,16090,0,0,0,
2026-04-16 00:43:00,METAR MMSD 160043Z 15011KT 10SM SKC 27/17 A2990 RMK CI,0,11,0,16090,0,0,0,
2026-04-15 23:50:00,METAR MMSD 152350Z 13012KT 10SM SKC 27/17 A2989 RMK SLP103 57012 900 CU CI,0,12,0,16090,0,0,0,
2026-04-15 22:40:00,METAR MMSD 152240Z 14015KT 10SM SKC 28/18 A2991 RMK CU CI,0,15,0,16090,0,0,0,
2026-04-15 21:44:00,METAR MMSD 152144Z 15014KT 10SM SKC 28/18 A2992,0,14,0,16090,0,0,0,
2026-04-15 20:48:00,METAR MMSD 152048Z 15014KT 10SM SKC 29/18 A2993 RMK SLP115 58007 905,0,14,0,16090,0,0,0,
2026-04-15 19:48:00,METAR MMSD 151948Z 15014KT 10SM SKC 29/17 A2994,0,14,0,16090,0,0,0,
2026-04-15 18:40:00,METAR MMSD 151840Z 14015KT 10SM SKC 29/18 A2995,0,15,0,16090,0,0,0,
2026-04-15 17:47:00,METAR MMSD 151747Z 00000KT 10SM SKC 31/12 A2995 RMK SLP121 51003 900,0,0,0,16090,0,0,0,
2026-04-15 16:44:00,METAR MMSD 151644Z 35004KT 10SM SKC 29/15 A2995,0,4,0,16090,0,0,0,
2026-04-15 15:43:00,METAR MMSD 151543Z 34012KT 10SM SKC 27/18 A2995,0,12,0,16090,0,0,0,
2026-04-15 14:40:00,METAR MMSD 151440Z 35010KT 10SM SKC 25/18 A2995 RMK SLP116 5//// 914,0,10,0,16090,0,0,0,
2026-04-15 13:45:00,METAR MMSD 151345Z 28006KT 10SM SKC 23/17 A2994,0,6,0,16090,0,0,0,
2026-04-15 12:48:00,METAR MMSD 151248Z 00000KT 10SM SKC 20/14 A2991 RMK ISOL AC,0,0,0,16090,0,0,0,
2026-04-15 11:45:00,METAR MMSD 151145Z 29005KT 10SM SKC 20/11 A2989,0,5,0,16090,0,0,0,
2026-04-15 10:43:00,METAR MMSD 151043Z 00000KT 10SM SKC 20/10 A2988,0,0,0,16090,0,0,0,
2026-04-15 09:44:00,METAR MMSD 150944Z 30003KT 10SM SKC 21/14 A2989,0,3,0,16090,0,0,0,
2026-04-15 08:45:00,METAR MMSD 150845Z 28003KT 10SM SKC 22/14 A2989,0,3,0,16090,0,0,0,
2026-04-15 07:44:00,METAR MMSD 150744Z 31005KT 10SM SKC 23/12 A2992,0,5,0,16090,0,0,0,
2026-04-15 06:43:00,METAR MMSD 150643Z 32005KT 10SM SKC 25/11 A2994,0,5,0,16090,0,0,0,
2026-04-15 05:43:00,METAR MMSD 150543Z 31005KT 10SM SKC 25/10 A2995,0,5,0,16090,0,0,0,
2026-04-15 04:45:00,METAR MMSD 150445Z 27005KT 10SM SCT250 24/10 A2995 RMK 8/008,0,5,0,16090,0,0,0,
2026-04-15 03:42:00,METAR MMSD 150342Z 24005KT 10SM SCT250 25/08 A2994 RMK 8/008,0,5,0,16090,0,0,0,
2026-04-15 02:49:00,METAR MMSD 150249Z 33006KT 10SM FEW160 SCT250 27/09 A2992 RMK SLP112 52011 959 8/038,0,6,0,16090,0,0,0,
2026-04-15 01:41:00,METAR MMSD 150141Z 19005KT 10SM FEW160 SCT250 27/12 A2991 RMK 8/038,0,5,0,16090,0,0,0,
2026-04-15 00:44:00,METAR MMSD 150044Z 15008KT 10SM SCT160 SCT250 29/12 A2991 RMK 8/038,0,8,0,16090,0,0,0,
2026-04-14 23:44:00,METAR MMSD 142344Z 16006KT 10SM FEW160 SCT250 32/12 A2989 RMK SLP100 56007 954 8/038,0,6,0,16090,0,0,0,
2026-04-14 22:40:00,METAR MMSD 142240Z 36008KT 10SM SCT250 34/04 A2991 RMK 8/001,0,8,0,16090,0,0,0,
2026-04-14 21:45:00,METAR MMSD 142145Z 35015KT 10SM BKN250 35/05 A2990 RMK 8/008,0,15,0,16090,0,0,0,
2026-04-14 20:48:00,METAR MMSD 142048Z 03006KT 10SM BKN250 35/04 A2992 RMK SLP108 57013 955 8/008,0,6,0,16090,0,0,0,
2026-04-14 19:48:00,METAR MMSD 141948Z 15012KT 10SM BKN250 34/08 A2993 RMK 8/008,0,12,0,16090,0,0,0,
2026-04-14 18:54:00,METAR MMSD 141854Z 15014KT 10SM BKN250 34/08 A2995 RMK 8/008,0,14,0,16090,0,0,0,
2026-04-14 17:47:00,METAR MMSD 141747Z 10010KT 10SM BKN250 36/01 A2995 RMK SLP121 58007 900 8/008,0,10,0,16090,0,0,0,
2026-04-14 16:45:00,METAR MMSD 141645Z 00000KT 10SM BKN250 34/01 A2997 RMK 8/008 AS,0,0,0,16090,0,0,0,
2026-04-14 15:45:00,METAR MMSD 141545Z 00000KT 10SM BKN250 31/02 A2997 RMK 8/008,0,0,0,16090,0,0,0,
2026-04-14 14:49:00,METAR MMSD 141449Z COR 28004KT 10SM SCT250 29/02 A2997 RMK SLP128 52007 955 8/008,0,4,0,16090,0,0,0,
2026-04-14 13:48:00,METAR MMSD 141348Z 28004KT 10SM SCT250 22/03 A2997 RMK 8/008,0,4,0,16090,0,0,0,
2026-04-14 12:47:00,METAR MMSD 141247Z 00000KT 10SM SKC 21/03 A2995 RMK AS CI,0,0,0,16090,0,0,0,
2026-04-14 12:18:00,METAR MMSD 141218Z RTD 00000KT 10SM SKC 20/04 A2994,0,0,0,16090,0,0,0,
2026-04-14 10:02:00,METAR MMSD 141002Z RTD 32003KT 12SM SKC 22/04 A2992,0,3,0,19308,0,0,0,
2026-04-14 08:59:00,METAR MMSD 140859Z RTD 30002KT 12SM SKC 22/04 A2993 RMK RTS,0,2,0,19308,1,0,0,TS
2026-04-14 05:44:00,METAR MMSD 140544Z 32004KT 12SM SKC 25/04 A2997,0,4,0,19308,0,0,0,
2026-04-14 04:41:00,METAR MMSD 140441Z 28005KT 10SM SCT250 26/04 A2997 RMK 8/008,0,5,0,16090,0,0,0,
2026-04-14 03:40:00,METAR MMSD 140340Z 30008KT 10SM SCT250 29/03 A2997 RMK 8/008,0,8,0,16090,0,0,0,
2026-04-14 02:40:00,METAR MMSD 140240Z 28004KT 10SM SCT250 29/09 A2996 RMK SLP122 52016 958 8/008,0,4,0,16090,0,0,0,
2026-04-14 01:40:00,METAR MMSD 140140Z 05005KT 10SM SKC 31/09 A2993 RMK CI,0,5,0,16090,0,0,0,
2026-04-14 00:40:00,METAR MMSD 140040Z 02006KT 10SM SKC 34/03 A2992 RMK CI,0,6,0,16090,0,0,0,
2026-04-13 23:44:00,METAR MMSD 132344Z 12010KT 10SM SKC 34/06 A2991 RMK SLP104 56008 966 CI,0,10,0,16090,0,0,0,
2026-04-13 22:46:00,METAR MMSD 132246Z 13015KT 10SM FEW250 35/06 A2990 RMK 8/001,0,15,0,16090,0,0,0,
2026-04-13 21:40:00,METAR MMSD 132140Z 03005KT 10SM SCT250 37/01 A2992 RMK 8/001,0,5,0,16090,0,0,0,
2026-04-13 20:49:00,METAR MMSD 132049Z 02009G19KT 10SM BKN250 37/01 A2993 RMK SLP112 57010 964 8/001,0,9,1,16090,0,0,0,
2026-04-13 19:45:00,METAR MMSD 131945Z 35018KT 10SM SCT250 38/01 A2995 RMK 8/008,0,18,0,16090,0,0,0,
2026-04-13 19:01:00,METAR MMSD 131901Z RTD 01019KT 10SM FEW250 37/01 A2996 RMK 8/001,0,19,0,16090,0,0,0,
2026-04-13 17:49:00,METAR MMSD 131749Z 36012KT 10SM SCT250 36/02 A2999 RMK 8/008,0,12,0,16090,0,0,0,
2026-04-13 16:47:00,METAR MMSD 131647Z 35012KT 10SM SCT250 34/02 A3001 RMK 8/008,0,12,0,16090,0,0,0,
2026-04-13 15:42:00,METAR MMSD 131542Z 33012KT 10SM SCT250 32/01 A3002 RMK 8/008,0,12,0,16090,0,0,0,
2026-04-13 14:41:00,METAR MMSD 131441Z 00000KT 10SM SCT250 26/04 A3001 RMK SLP144 5//// 904 8/008,0,0,0,16090,0,0,0,
2026-04-13 13:48:00,METAR MMSD 131348Z 00000KT 10SM FEW160 SCT250 23/03 A3001 RMK 8/078,0,0,0,16090,0,0,0,
2026-04-13 12:44:00,METAR MMSD 131244Z 00000KT 10SM SCT250 22/03 A3000 RMK 8/008,0,0,0,16090,0,0,0,
2026-04-13 11:45:00,METAR MMSD 131145Z 29007KT 10SM SCT250 26/02 A2998 RMK 8/001,0,7,0,16090,0,0,0,
2026-04-13 10:52:00,METAR MMSD 131052Z 30006KT 10SM SKC 24/03 A2997,0,6,0,16090,0,0,0,
2026-04-13 08:50:00,METAR MMSD 130850Z 27006KT 10SM SKC 24/04 A2999,0,6,0,16090,0,0,0,
2026-04-13 07:51:00,METAR MMSD 130751Z 30006KT 10SM SKC 24/03 A3001,0,6,0,16090,0,0,0,
2026-04-13 06:45:00,METAR MMSD 130645Z 28007KT 10SM SKC 24/04 A3001,0,7,0,16090,0,0,0,
2026-04-13 05:47:00,METAR MMSD 130547Z 29007KT 10SM SKC 25/04 A3002,0,7,0,16090,0,0,0,
2026-04-13 04:40:00,METAR MMSD 130440Z 00000KT 10SM SKC 25/04 A3002,0,0,0,16090,0,0,0,
2026-04-13 03:45:00,METAR MMSD 130345Z 30005KT 10SM SKC 26/06 A3001,0,5,0,16090,0,0,0,
2026-04-13 02:47:00,METAR MMSD 130247Z 00000KT 10SM SKC 27/09 A2999 RMK AC,0,0,0,16090,0,0,0,
2026-04-13 01:40:00,METAR MMSD 130140Z 12005KT 10SM SCT160 28/07 A2997 RMK 8/030,0,5,0,16090,0,0,0,
2026-04-13 00:40:00,METAR MMSD 130040Z 13010KT 10SM FEW160 29/09 A2996 RMK 8/030,0,10,0,16090,0,0,0,
2026-04-12 23:40:00,METAR MMSD 122340Z 15010KT 10SM SKC 31/11 A2995 RMK SLP122 56006 909 SC,0,10,0,16090,0,0,0,
2026-04-12 22:40:00,METAR MMSD 122240Z 13008KT 10SM FEW040 32/13 A2996 RMK 8/500,0,8,0,16090,0,0,0,
2026-04-12 21:40:00,METAR MMSD 122140Z 15010KT 10SM SKC 31/13 A2997 RMK SC,0,10,0,16090,0,0,0,
2026-04-12 20:41:00,METAR MMSD 122041Z COR 13012KT 10SM SKC 30/14 A2998 RMK SLP128 56001 955 SC-CI,0,12,0,16090,0,0,0,
2026-04-12 19:40:00,METAR MMSD 121940Z 15012KT 10SM SKC 30/16 A2998 RMK SC-CI,0,12,0,16090,0,0,0,
2026-04-12 18:47:00,METAR MMSD 121847Z 16005KT 10SM SKC 32/13 A3000,0,5,0,16090,0,0,0,
2026-04-12 17:41:00,METAR MMSD 121741Z 01008KT 10SM SKC 35/02 A3000 RMK SLP138 51003 913,0,8,0,16090,0,0,0,
2026-04-12 16:40:00,METAR MMSD 121640Z 36010KT 10SM SKC 33/03 A3001,0,10,0,16090,0,0,0,
2026-04-12 15:55:00,METAR MMSD 121555Z 03008KT 10SM SKC 30/07 A3002,0,8,0,16090,0,0,0,
2026-04-12 14:48:00,METAR MMSD 121448Z COR 00000KT 10SM SKC 26/10 A3001 RMK SLP142 5//// 932,0,0,0,16090,0,0,0,
2026-04-12 13:42:00,METAR MMSD 121342Z 29010KT 10SM SKC 18/09 A2999,0,10,0,16090,0,0,0,
2026-04-12 12:56:00,METAR MMSD 121256Z 29006KT 10SM SKC 19/08 A2998,0,6,0,16090,0,0,0,
2026-04-12 12:32:00,METAR MMSD 121232Z RTD 31005KT 10SM SKC 18/07 A2998,0,5,0,16090,0,0,0,
2026-04-12 09:45:00,METAR MMSD 120945Z 02002KT 12SM SCT250 20/08 A2996 RMK 8/008,0,2,0,19308,0,0,0,
2026-04-12 09:08:00,METAR MMSD 120908Z RTD 35003KT 12SM SCT250 20/09 A2996 RMK 8/008,0,3,0,19308,0,0,0,
2026-04-12 07:41:00,METAR MMSD 120741Z 31002KT 12SM SCT250 21/10 A2997 RMK 8/008,0,2,0,19308,0,0,0,
2026-04-12 06:42:00,METAR MMSD 120642Z 27003KT 12SM SCT250 22/11 A2998 RMK 8/008,0,3,0,19308,0,0,0,
2026-04-12 05:49:00,METAR MMSD 120549Z 32003KT 12SM SCT250 22/12 A2999 RMK 8/008,0,3,0,19308,0,0,0,
2026-04-12 04:49:00,METAR MMSD 120449Z 29005KT 10SM SCT250 22/14 A2999 RMK 8/008,0,5,0,16090,0,0,0,
2026-04-12 03:40:00,METAR MMSD 120340Z 00000KT 10SM SCT250 23/15 A2999 RMK 8/008,0,0,0,16090,0,0,0,
2026-04-12 02:43:00,METAR MMSD 120243Z 17005KT 10SM SCT250 25/15 A2997 RMK SLP129 52015 920 8/008,0,5,0,16090,0,0,0,
2026-04-12 01:48:00,METAR MMSD 120148Z 16004KT 10SM SCT250 26/16 A2996 RMK 8/001,0,4,0,16090,0,0,0,
2026-04-12 00:59:00,METAR MMSD 120059Z RTD 17010KT 10SM SCT250 27/18 A2994 RMK 8/008,0,10,0,16090,0,0,0,
2026-04-11 23:52:00,METAR MMSD 112352Z 15010KT 10SM FEW160 SCT250 28/15 A2993 RMK SLP113 56005 921 8/038,0,10,0,16090,0,0,0,
2026-04-11 22:50:00,METAR MMSD 112250Z 16010KT 10SM SCT250 30/14 A2992 RMK 8/008,0,10,0,16090,0,0,0,
2026-04-11 21:48:00,METAR MMSD 112148Z 15014KT 10SM SCT060 31/14 A2993 RMK 8/800,0,14,0,16090,0,0,0,
2026-04-11 20:55:00,METAR MMSD 112055Z 15015KT 10SM FEW060 32/12 A2993 RMK SLP118 57017 917 8/100,0,15,0,16090,0,0,0,
2026-04-11 19:53:00,METAR MMSD 111953Z 15012KT 10SM SKC 32/14 A2996 RMK ISOL CU/AC,0,12,0,16090,0,0,0,
2026-04-11 18:48:00,METAR MMSD 111848Z 12012KT 10SM SCT250 31/15 A2997 RMK 8/008 ISOL CU/AC,0,12,0,16090,0,0,0,
2026-04-11 17:45:00,METAR MMSD 111745Z 00000KT 10SM SCT250 31/12 A3000 RMK SLP133 5007 920 8/002 ISOL AS,0,0,0,16090,0,0,0,
2026-04-11 16:54:00,METAR MMSD 111654Z 35008KT 10SM SCT120 BKN250 28/16 A3000 RMK 8/028,0,8,0,16090,0,0,0,
2026-04-11 15:45:00,METAR MMSD 111545Z 31010KT 10SM SCT120 BKN250 26/19 A2999 RMK 8/028,0,10,0,16090,0,0,0,
2026-04-11 14:53:00,METAR MMSD 111453Z 28010KT 10SM OVC120 24/19 A2997 RMK SLP127 52010 910 8/02/ BINOVC,0,10,0,16090,0,0,0,VC
2026-04-11 13:45:00,METAR MMSD 111345Z 28008KT 10SM OVC120 24/18 A2997 RMK 8/02/ BINOVC,0,8,0,16090,0,0,0,VC
2026-04-11 12:53:00,METAR MMSD 111253Z 30006KT 10SM FEW040 OVC120 24/17 A2995 RMK 8/52/ BINOVC,0,6,0,16090,0,0,0,VC
2026-04-11 11:47:00,METAR MMSD 111147Z 30006KT 10SM SCT250 24/17 A2992 RMK SLP109 5//// 9// 8/008 RTS,0,6,0,16090,1,0,0,TS
2026-04-11 07:44:00,METAR MMSD 110744Z 34005KT 10SM SCT250 24/04 A2993 RMK 8/008,0,5,0,16090,0,0,0,
2026-04-11 06:40:00,METAR MMSD 110640Z 32004KT 10SM SCT250 25/04 A2993 RMK 8/008,0,4,0,16090,0,0,0,
2026-04-11 05:56:00,METAR MMSD 110556Z 32005KT 10SM SCT250 23/03 A2994 RMK 8/008,0,5,0,16090,0,0,0,
2026-04-11 04:45:00,METAR MMSD 110445Z 26005KT 10SM SCT250 23/03 A2992 RMK 8/008,0,5,0,16090,0,0,0,
2026-04-11 03:40:00,METAR MMSD 110340Z 28004KT 10SM SCT250 25/03 A2991 RMK 8/008,0,4,0,16090,0,0,0,
2026-04-11 02:40:00,METAR MMSD 110240Z 33002KT 10SM SCT250 27/04 A2990 RMK SLP109 52016 906 8/008,0,2,0,16090,0,0,0,
2026-04-11 01:54:00,METAR MMSD 110154Z 04005KT 10SM BKN250 28/02 A2989 RMK 8/001,0,5,0,16090,0,0,0,
2026-04-11 00:55:00,METAR MMSD 110055Z 07006KT 10SM FEW250 29/03 A2987 RMK 8/001 SC,0,6,0,16090,0,0,0,
2026-04-10 23:40:00,METAR MMSD 102340Z 11010KT 10SM FEW250 29/05 A2987 RMK SLP092 57010 955 8/008 SC-AC,0,10,0,16090,0,0,0,
2026-04-10 22:55:00,METAR MMSD 102255Z 12016KT 10SM FEW160 SCT250 29/06 A2987 RMK 8/038,0,16,0,16090,0,0,0,
2026-04-10 21:48:00,METAR MMSD 102148Z 12012KT 10SM BKN250 29/13 A2989 RMK 8/008 ISOL AS,0,12,0,16090,0,0,0,
2026-04-10 20:43:00,METAR MMSD 102043Z 15014KT 10SM BKN250 30/12 A2989 RMK SLP101 57013 900 8/002,0,14,0,16090,0,0,0,
2026-04-10 19:48:00,METAR MMSD 101948Z 15014KT 10SM FEW250 30/12 A2991 RMK 8/002,0,14,0,16090,0,0,0,
2026-04-10 18:48:00,METAR MMSD 101848Z COR 15014KT 10SM FEW250 30/15 A2992 RMK 8/009,0,14,0,16090,0,0,0,
2026-04-10 17:47:00,METAR MMSD 101747Z 12012KT 10SM SKC 30/15 A2993 RMK SLP113 50000 900,0,12,0,16090,0,0,0,
2026-04-10 16:45:00,METAR MMSD 101645Z 15008KT 10SM SKC 30/12 A2994,0,8,0,16090,0,0,0,
2026-04-10 15:43:00,METAR MMSD 101543Z COR 00000KT 10SM SKC 28/12 A2994,0,0,0,16090,0,0,0,
2026-04-08 14:46:00,METAR MMSD 081446Z 00000KT 10SM SKC 22/02 A2991 RMK SLP109 52020 955 AC/CI,0,0,0,16090,0,0,0,
2026-04-08 13:45:00,METAR MMSD 081345Z 28008KT 10SM SKC 19/02 A2989 RMK CI,0,8,0,16090,0,0,0,
2026-04-08 12:52:00,METAR MMSD 081252Z 28005KT 10SM SKC 18/02 A2987 RMK CI,0,5,0,16090,0,0,0,
2026-04-08 11:42:00,METAR MMSD 081142Z 34006KT 10SM SKC 20/03 A2985,0,6,0,16090,0,0,0,
2026-04-08 10:51:00,METAR MMSD 081051Z 34006KT 10SM SKC 20/03 A2985,0,6,0,16090,0,0,0,
2026-04-08 09:48:00,METAR MMSD 080948Z 31006KT 10SM SKC 20/03 A2986,0,6,0,16090,0,0,0,
2026-04-08 08:53:00,METAR MMSD 080853Z 31006KT 10SM SKC 20/03 A2987,0,6,0,16090,0,0,0,
2026-04-08 07:53:00,METAR MMSD 080753Z 35006KT 10SM SKC 22/03 A2988,0,6,0,16090,0,0,0,
2026-04-08 06:51:00,METAR MMSD 080651Z 30006KT 10SM SKC 24/03 A2989,0,6,0,16090,0,0,0,
2026-04-08 05:35:00,SPECI MMSD 080535Z 32006KT 10SM SKC 25/04 A2990,0,6,0,16090,0,0,0,
2026-04-08 04:40:00,METAR MMSD 080440Z 32004KT 10SM SCT250 26/03 A2990 RMK 8/008,0,4,0,16090,0,0,0,
2026-04-08 03:40:00,METAR MMSD 080340Z 29005KT 10SM SCT250 27/02 A2988 RMK 8/008,0,5,0,16090,0,0,0,
2026-04-08 02:42:00,METAR MMSD 080242Z 31005KT 10SM SCT250 28/03 A2987 RMK SLP092 52014 962 8/008,0,5,0,16090,0,0,0,
2026-04-08 01:53:00,METAR MMSD 080153Z 00000KT 10SM BKN250 30/06 A2985 RMK 8/008,0,0,0,16090,0,0,0,
2026-04-08 00:53:00,METAR MMSD 080053Z 12010KT 10SM BKN250 32/03 A2983 RMK 8/008,0,10,0,16090,0,0,0,
2026-04-07 23:52:00,METAR MMSD 072352Z 11012KT 10SM BKN250 33/01 A2982 RMK SLP077 57022 973 8/008,0,12,0,16090,0,0,0,
2026-04-07 22:48:00,METAR MMSD 072248Z 11015KT 10SM BKN250 34/01 A2983 RMK 8/008,0,15,0,16090,0,0,0,
2026-04-07 21:48:00,METAR MMSD 072148Z 14015KT 10SM BKN250 34/01 A2984 RMK 8/008,0,15,0,16090,0,0,0,
2026-04-07 20:40:00,METAR MMSD 072040Z 12014KT 10SM BKN250 34/01 A2985 RMK SLP088 57020 970 8/008,0,14,0,16090,0,0,0,
2026-04-07 19:47:00,METAR MMSD 071947Z 12012KT 10SM BKN250 34/02 A2987 RMK 8/008,0,12,0,16090,0,0,0,
2026-04-07 18:45:00,METAR MMSD 071845Z 15012KT 10SM BKN250 33/05 A2989 RMK 8/008,0,12,0,16090,0,0,0,
2026-04-07 17:46:00,METAR MMSD 071746Z 12012KT 10SM BKN250 33/06 A2992 RMK SLP121 57003 958 8/008,0,12,0,16090,0,0,0,
2026-04-07 16:48:00,METAR MMSD 071648Z 00000KT 10SM BKN250 32/02 A2993 RMK 8/008,0,0,0,16090,0,0,0,
2026-04-07 15:43:00,METAR MMSD 071543Z 36005KT 10SM BKN250 27/04 A2993 RMK 8/008,0,5,0,16090,0,0,0,
2026-04-07 14:44:00,METAR MMSD 071444Z 00000KT 10SM BKN250 24/02 A2993 RMK SLP114 52013 970 8/008,0,0,0,16090,0,0,0,
2026-04-07 13:50:00,METAR MMSD 071350Z 00000KT 10SM BKN250 20/03 A2991 RMK 8/008,0,0,0,16090,0,0,0,
2026-04-07 12:48:00,METAR MMSD 071248Z 00000KT 10SM SKC 19/02 A2989,0,0,0,16090,0,0,0,
2026-04-07 11:41:00,METAR MMSD 071141Z 33005KT 10SM SKC 21/03 A2989,0,5,0,16090,0,0,0,
2026-04-07 10:42:00,METAR MMSD 071042Z 33005KT 10SM SKC 20/03 A2989,0,5,0,16090,0,0,0,
2026-04-07 09:41:00,METAR MMSD 070941Z 00000KT 10SM SKC 20/03 A2990,0,0,0,16090,0,0,0,
2026-04-07 08:40:00,METAR MMSD 070840Z 00000KT 10SM SKC 21/03 A2991 RMK CI,0,0,0,16090,0,0,0,
2026-04-07 07:41:00,METAR MMSD 070741Z 00000KT 10SM SKC 22/03 A2991 RMK CI,0,0,0,16090,0,0,0,
2026-04-07 06:40:00,METAR MMSD 070640Z 27005KT 10SM SKC 24/03 A2992 RMK CI,0,5,0,16090,0,0,0,
2026-04-07 05:40:00,METAR MMSD 070540Z 28005KT 10SM SKC 23/02 A2992 RMK CI,0,5,0,16090,0,0,0,
2026-04-07 04:42:00,METAR MMSD 070442Z 26004KT 10SM SKC 24/03 A2992 RMK CI,0,4,0,16090,0,0,0,
2026-04-07 03:41:00,METAR MMSD 070341Z 28005KT 10SM SKC 24/02 A2992 RMK CI,0,5,0,16090,0,0,0,
2026-04-07 02:45:00,METAR MMSD 070245Z 00000KT 10SM FEW250 27/02 A2991 RMK SLP104 51003 9// 8/001,0,0,0,16090,0,0,0,
2026-04-07 01:49:00,METAR MMSD 070149Z 06005KT 10SM SCT250 28/01 A2990 RMK 8/008,0,5,0,16090,0,0,0,
2026-04-07 00:52:00,METAR MMSD 070052Z 05008KT 10SM FEW250 30/02 A2989 RMK 8/008,0,8,0,16090,0,0,0,
2026-04-06 23:49:00,METAR MMSD 062349Z 09010KT 10SM SCT250 32/05 A2989 RMK SLP100 56009 902 8/008,0,10,0,16090,0,0,0,
2026-04-06 22:41:00,METAR MMSD 062241Z 06010KT 10SM SCT250 32/07 A2989 RMK 8/008,0,10,0,16090,0,0,0,
2026-04-06 21:40:00,METAR MMSD 062140Z 07010KT 10SM SCT250 32/08 A2990 RMK 8/008,0,10,0,16090,0,0,0,
2026-04-06 20:48:00,METAR MMSD 062048Z 14012KT 10SM SCT250 32/07 A2992 RMK SLP110 56008 9// 8/008,0,12,0,16090,0,0,0,
2026-04-06 19:53:00,METAR MMSD 061953Z 14010KT 10SM BKN250 31/10 A2993 RMK 8/008,0,10,0,16090,0,0,0,
2026-04-06 18:56:00,METAR MMSD 061856Z 13012G22KT 10SM BKN250 32/10 A2994 RMK 8/008,0,12,1,16090,0,0,0,
2026-04-06 17:56:00,METAR MMSD 061756Z 09004KT 10SM SCT250 33/06 A2997 RMK 8/008,0,4,0,16090,0,0,0,
2026-04-06 16:56:00,METAR MMSD 061656Z 00000KT 10SM SCT250 30/09 A2998 RMK 8/008 AS,0,0,0,16090,0,0,0,
2026-04-06 15:46:00,METAR MMSD 061546Z 05002KT 10SM FEW160 BKN250 25/14 A2999 RMK 8/038,0,2,0,16090,0,0,0,
2026-04-06 14:56:00,METAR MMSD 061456Z 36005KT 10SM SCT160 BKN250 23/12 A2998 RMK SLP133 5//// 905 8/038,0,5,0,16090,0,0,0,
2026-04-06 13:43:00,METAR MMSD 061343Z 00000KT 10SM SCT250 19/11 A2997 RMK 8/008,0,0,0,16090,0,0,0,
2026-04-06 12:03:00,METAR MMSD 061203Z RTD 30005KT 10SM SCT250 19/10 A2995 RMK 8/008,0,5,0,16090,0,0,0,
2026-04-06 10:10:00,METAR MMSD 061010Z RTD 00000KT 10SM SCT230 18/08 A2995 RMK 8/008,0,0,0,16090,0,0,0,
2026-04-06 07:53:00,METAR MMSD 060753Z 25003KT 10SM SCT250 20/09 A2994 RMK 8/008,0,3,0,16090,0,0,0,
2026-04-06 06:54:00,METAR MMSD 060654Z 29002KT 12SM SCT230 20/09 A2997 RMK 8/008,0,2,0,19308,0,0,0,
2026-04-06 05:47:00,METAR MMSD 060547Z 28005KT 10SM SKC 23/10 A2996,0,5,0,16090,0,0,0,
2026-04-06 04:40:00,METAR MMSD 060440Z 28008KT 10SM SKC 23/12 A2995,0,8,0,16090,0,0,0,
2026-04-06 03:50:00,METAR MMSD 060350Z 24005KT 10SM SKC 24/12 A2994,0,5,0,16090,0,0,0,
2026-04-06 02:43:00,METAR MMSD 060243Z 05004KT 10SM SKC 26/13 A2993,0,4,0,16090,0,0,0,
2026-04-06 01:40:00,METAR MMSD 060140Z 04005KT 10SM SKC 27/13 A2991,0,5,0,16090,0,0,0,
2026-04-06 00:41:00,METAR MMSD 060041Z 00000KT 10SM SKC 29/13 A2990,0,0,0,16090,0,0,0,
2026-04-05 23:53:00,METAR MMSD 052353Z 15006KT 10SM SKC 30/13 A2989 RMK SLP103 56005 901,0,6,0,16090,0,0,0,
2026-04-05 22:48:00,METAR MMSD 052248Z 13014KT 10SM SKC 29/16 A2989,0,14,0,16090,0,0,0,
2026-04-05 21:40:00,METAR MMSD 052140Z 12015KT 10SM SKC 32/10 A2989,0,15,0,16090,0,0,0,
2026-04-05 20:49:00,METAR MMSD 052049Z 13012KT 10SM SKC 31/12 A2991 RMK SLP107 57020 966,0,12,0,16090,0,0,0,
2026-04-05 19:40:00,METAR MMSD 051940Z 15010KT 10SM SKC 30/11 A2994,0,10,0,16090,0,0,0,
2026-04-05 18:45:00,METAR MMSD 051845Z 17010KT 10SM SKC 29/14 A2996,0,10,0,16090,0,0,0,
2026-04-05 18:14:00,METAR MMSD 051814Z 14012KT 10SM SKC 29/13 A2997 RMK ACFT MSHP RWY16,0,12,0,16090,0,0,0,
2026-04-05 17:45:00,METAR MMSD 051745Z 00000KT 10SM SKC 32/02 A2997 RMK SLP128 51001 906 CI,0,0,0,16090,0,0,0,
2026-04-05 16:42:00,METAR MMSD 051642Z 31005KT 10SM SKC 29/05 A2997 RMK CI,0,5,0,16090,0,0,0,
2026-04-05 15:55:00,METAR MMSD 051555Z 35006KT 10SM SKC 27/07 A2998 RMK CI,0,6,0,16090,0,0,0,
2026-04-05 12:53:00,METAR MMSD 051253Z 33005KT 10SM SKC 18/14 A2995 RMK CI,0,5,0,16090,0,0,0,
2026-04-05 11:45:00,METAR MMSD 051145Z 00000KT 10SM SKC 18/15 A2992,0,0,0,16090,0,0,0,
2026-04-05 10:46:00,METAR MMSD 051046Z 00000KT 10SM SKC 19/15 A2992,0,0,0,16090,0,0,0,
2026-04-05 09:45:00,METAR MMSD 050945Z 00000KT 10SM SKC 19/16 A2992,0,0,0,16090,0,0,0,
2026-04-05 08:47:00,METAR MMSD 050847Z 00000KT 10SM SKC 19/16 A2994,0,0,0,16090,0,0,0,
2026-04-05 07:45:00,METAR MMSD 050745Z 30006KT 10SM SKC 20/17 A2995,0,6,0,16090,0,0,0,
2026-04-05 06:48:00,METAR MMSD 050648Z 30006KT 10SM SKC 20/17 A2996,0,6,0,16090,0,0,0,
2026-04-05 05:47:00,METAR MMSD 050547Z 29006KT 10SM SKC 21/17 A2996,0,6,0,16090,0,0,0,
2026-04-05 04:46:00,METAR MMSD 050446Z 05002KT 10SM FEW250 23/18 A2995 RMK 8/008,0,2,0,16090,0,0,0,
2026-04-05 03:40:00,METAR MMSD 050340Z 17004KT 10SM SCT250 23/18 A2994 RMK 8/008,0,4,0,16090,0,0,0,
2026-04-05 02:42:00,METAR MMSD 050242Z 14005KT 10SM SCT250 24/18 A2994 RMK SLP115 52018 905 8/008,0,5,0,16090,0,0,0,
2026-04-05 01:40:00,METAR MMSD 050140Z 13010KT 10SM BKN250 24/19 A2992 RMK 8/008,0,10,0,16090,0,0,0,
2026-04-05 00:54:00,METAR MMSD 050054Z 13010KT 10SM BKN250 25/18 A2991 RMK 8/008,0,10,0,16090,0,0,0,
2026-04-04 23:40:00,METAR MMSD 042340Z 12015KT 10SM SCT250 27/14 A2989 RMK SLP103 56008 902 8/008,0,15,0,16090,0,0,0,
2026-04-04 22:40:00,METAR MMSD 042240Z 12012KT 10SM SCT250 28/12 A2989 RMK 8/008,0,12,0,16090,0,0,0,
2026-04-04 21:45:00,METAR MMSD 042145Z 15016KT 10SM BKN250 29/10 A2991 RMK 8/008,0,16,0,16090,0,0,0,
2026-04-04 20:45:00,METAR MMSD 042045Z 15018KT 10SM BKN250 30/10 A2992 RMK SLP110 57014 910 8/002,0,18,0,16090,0,0,0,
2026-04-04 19:54:00,METAR MMSD 041954Z 15014KT 10SM SCT250 30/10 A2993 RMK 8/008,0,14,0,16090,0,0,0,
2026-04-04 18:48:00,METAR MMSD 041848Z 18010KT 10SM SCT250 32/05 A2994 RMK 8/008 AS,0,10,0,16090,0,0,0,
2026-04-04 17:48:00,METAR MMSD 041748Z 34005KT 10SM BKN250 31/06 A2996 RMK SLP124 51000 914 8/002,0,5,0,16090,0,0,0,
2026-04-04 16:45:00,METAR MMSD 041645Z 32010KT 10SM BKN250 28/09 A2997 RMK 8/002,0,10,0,16090,0,0,0,
2026-04-04 15:43:00,METAR MMSD 041543Z 35010KT 10SM BKN250 26/12 A2997 RMK 8/002,0,10,0,16090,0,0,0,
2026-04-04 14:45:00,METAR MMSD 041445Z 28008KT 10SM FEW120 BKN250 23/16 A2996 RMK SLP124 52010 910 8/022,0,8,0,16090,0,0,0,
2026-04-04 13:48:00,METAR MMSD 041348Z 28010KT 10SM SCT120 BKN250 21/17 A2995 RMK 8/028,0,10,0,16090,0,0,0,
2026-04-04 12:45:00,METAR MMSD 041245Z 28010KT 10SM SKC 21/17 A2994,0,10,0,16090,0,0,0,
2026-04-04 11:55:00,METAR MMSD 041155Z 29010KT 10SM SKC 21/18 A2993 RMK SLP114 5//// 9// RTS,0,10,0,16090,1,0,0,TS
2026-04-04 07:40:00,METAR MMSD 040740Z 00000KT 10SM SKC 21/13 A2995,0,0,0,16090,0,0,0,
2026-04-04 06:40:00,METAR MMSD 040640Z 26005KT 10SM SKC 21/13 A2997,0,5,0,16090,0,0,0,
2026-04-04 05:55:00,METAR MMSD 040555Z 28004KT 10SM SKC 21/13 A2997,0,4,0,16090,0,0,0,
2026-04-04 04:40:00,METAR MMSD 040440Z 28005KT 10SM SKC 22/13 A2997,0,5,0,16090,0,0,0,
2026-04-04 03:50:00,METAR MMSD 040350Z 29005KT 10SM SKC 24/14 A2995,0,5,0,16090,0,0,0,
2026-04-04 02:44:00,METAR MMSD 040244Z 14010KT 10SM SKC 25/13 A2993 RMK SLP114 52013 912 CI,0,10,0,16090,0,0,0,
2026-04-04 01:40:00,METAR MMSD 040140Z 14008KT 10SM FEW250 25/15 A2991 RMK 8/008,0,8,0,16090,0,0,0,
2026-04-04 00:40:00,METAR MMSD 040040Z 15010KT 10SM SCT250 26/17 A2989 RMK 8/008,0,10,0,16090,0,0,0,
2026-04-03 23:42:00,METAR MMSD 032342Z 16010KT 10SM SCT250 28/16 A2987 RMK SLP101 56008 912 8/008,0,10,0,16090,0,0,0,
2026-04-03 22:40:00,METAR MMSD 032240Z 14010KT 10SM SCT250 29/13 A2987 RMK 8/008,0,10,0,16090,0,0,0,
2026-04-03 21:45:00,METAR MMSD 032145Z 15012KT 10SM FEW250 29/13 A2988 RMK 8/008 SC,0,12,0,16090,0,0,0,
2026-04-03 20:43:00,METAR MMSD 032043Z 15012KT 10SM FEW250 29/16 A2989 RMK SLP102 57014 900 8/008,0,12,0,16090,0,0,0,
2026-04-03 19:44:00,METAR MMSD 031944Z 15012KT 10SM FEW250 30/14 A2990 RMK 8/008,0,12,0,16090,0,0,0,
2026-04-03 18:45:00,METAR MMSD 031845Z 15014KT 10SM FEW250 31/12 A2992 RMK 8/008,0,14,0,16090,0,0,0,
2026-04-03 17:48:00,METAR MMSD 031748Z 12012KT 10SM FEW250 30/13 A2992 RMK SLP111 58003 953 8/008,0,12,0,16090,0,0,0,
2026-04-03 16:45:00,METAR MMSD 031645Z 08005KT 10SM SKC 29/11 A2993 RMK CI,0,5,0,16090,0,0,0,
2026-04-03 15:45:00,METAR MMSD 031545Z 00000KT 10SM SKC 27/11 A2993 RMK CI,0,0,0,16090,0,0,0,
2026-04-03 14:46:00,METAR MMSD 031446Z 32004KT 10SM SKC 24/11 A2992 RMK SLP114 52017 902 CI,0,4,0,16090,0,0,0,
2026-04-03 13:45:00,METAR MMSD 031345Z 32003KT 10SM SKC 20/10 A2991 RMK CI,0,3,0,16090,0,0,0,
2026-04-03 12:45:00,METAR MMSD 031245Z 32004KT 10SM SKC 19/11 A2988,0,4,0,16090,0,0,0,
2026-04-03 11:43:00,METAR MMSD 031143Z 29005KT 10SM SKC 19/12 A2997,0,5,0,16090,0,0,0,
2026-04-03 10:45:00,METAR MMSD 031045Z 28007KT 10SM SKC 20/13 A2986,0,7,0,16090,0,0,0,
2026-04-03 09:46:00,METAR MMSD 030946Z 28007KT 10SM SKC 20/14 A2987,0,7,0,16090,0,0,0,
2026-04-03 08:43:00,METAR MMSD 030843Z 29007KT 10SM SKC 20/14 A2987,0,7,0,16090,0,0,0,
2026-04-03 07:44:00,METAR MMSD 030744Z 29007KT 10SM SKC 22/14 A2988,0,7,0,16090,0,0,0,
2026-04-03 06:43:00,METAR MMSD 030643Z 29007KT 10SM SKC 21/15 A2989,0,7,0,16090,0,0,0,
2026-04-03 05:49:00,METAR MMSD 030549Z 30007KT 10SM SKC 22/15 A2990,0,7,0,16090,0,0,0,
2026-04-03 04:40:00,METAR MMSD 030440Z 31005KT 10SM SKC 23/15 A2990,0,5,0,16090,0,0,0,
2026-04-03 03:45:00,METAR MMSD 030345Z 00000KT 10SM SKC 24/16 A2990,0,0,0,16090,0,0,0,
2026-04-03 02:40:00,METAR MMSD 030240Z 00000KT 10SM SKC 25/15 A2989 RMK SLP102 52013 957,0,0,0,16090,0,0,0,
2026-04-03 01:50:00,METAR MMSD 030150Z 10006KT 10SM SKC 25/15 A2988,0,6,0,16090,0,0,0,
2026-04-03 00:44:00,METAR MMSD 030044Z 12008KT 10SM SKC 26/16 A2987 RMK SC/AS,0,8,0,16090,0,0,0,
2026-04-02 23:48:00,METAR MMSD 022348Z 12014KT 10SM FEW040 SCT120 27/16 A2986 RMK SLP090 53012 960 8/520,0,14,0,16090,0,0,0,
2026-04-02 22:55:00,METAR MMSD 022255Z 15015KT 10SM FEW040 SCT120 28/15 A2985 RMK 8/520 CI,0,15,0,16090,0,0,0,
2026-04-02 21:48:00,METAR MMSD 022148Z 12014KT 10SM FEW040 28/16 A2987 RMK 8/500 CI,0,14,0,16090,0,0,0,
2026-04-02 20:50:00,METAR MMSD 022050Z 15012KT 10SM FEW040 28/16 A2989 RMK SLP101 57013 967 8/500 CI,0,12,0,16090,0,0,0,
2026-04-02 19:45:00,METAR MMSD 021945Z 14014KT 10SM SKC 28/17 A2991 RMK CU/CI,0,14,0,16090,0,0,0,
2026-04-02 18:45:00,METAR MMSD 021845Z 15014KT 10SM SKC 28/17 A2992 RMK CU/CI,0,14,0,16090,0,0,0,
2026-04-02 17:47:00,METAR MMSD 021747Z 15014KT 10SM SKC 29/15 A2993 RMK SLP114 51003 976 CI,0,14,0,16090,0,0,0,
2026-04-02 16:48:00,METAR MMSD 021648Z 10005KT 10SM SKC 28/14 A2993,0,5,0,16090,0,0,0,
2026-04-02 16:00:00,METAR MMSD 021600Z RTD 00000KT 10SM SKC 27/14 A2993 RMK CI,0,0,0,16090,0,0,0,
2026-04-02 14:44:00,METAR MMSD 021444Z 28005KT 10SM SKC 24/15 A2992 RMK SLP112 5//// 980,0,5,0,16090,0,0,0,
2026-04-02 13:50:00,METAR MMSD 021350Z 25005KT 10SM SKC 21/12 A2992,0,5,0,16090,0,0,0,
2026-04-02 12:55:00,METAR MMSD 021255Z 25006KT 10SM SKC 20/12 A2989,0,6,0,16090,0,0,0,
2026-04-02 12:28:00,METAR MMSD 021228Z RTD 28004KT 10SM SKC 18/12 A2988,0,4,0,16090,0,0,0,
2026-04-02 09:42:00,METAR MMSD 020942Z 27003KT 10SM SKC 20/14 A2988,0,3,0,16090,0,0,0,
2026-04-02 08:42:00,METAR MMSD 020842Z 28004KT 10SM SKC 20/14 A2990,0,4,0,16090,0,0,0,
2026-04-02 06:40:00,METAR MMSD 020640Z 00000KT 10SM SKC 21/15 A2991,0,0,0,16090,0,0,0,
2026-04-02 05:44:00,METAR MMSD 020544Z 25004KT 10SM SKC 23/17 A2992,0,4,0,16090,0,0,0,
2026-04-02 04:40:00,METAR MMSD 020440Z 31005KT 10SM SKC 24/15 A2993,0,5,0,16090,0,0,0,
2026-04-02 03:44:00,METAR MMSD 020344Z 00000KT 10SM SKC 24/17 A2993 RMK AS,0,0,0,16090,0,0,0,
2026-04-02 02:40:00,METAR MMSD 020240Z 00000KT 10SM SKC 24/17 A2991 RMK SLP108 52010 9.3 AS/CI,0,0,0,16090,0,0,0,
2026-04-02 01:40:00,METAR MMSD 020140Z 18006KT 10SM SKC 25/17 A2989 RMK ISOL AS/CI,0,6,0,16090,0,0,0,
2026-04-02 00:44:00,METAR MMSD 020044Z 16010KT 10SM SCT250 27/16 A2989 RMK 8/008,0,10,0,16090,0,0,0,
2026-04-01 23:48:00,METAR MMSD 012348Z 15010KT 10SM SCT250 29/13 A2988 RMK SLP098 57017 960 8/008,0,10,0,16090,0,0,0,
2026-04-01 22:44:00,METAR MMSD 012244Z 15015KT 10SM SCT250 30/13 A2989 RMK 8/008,0,15,0,16090,0,0,0,
2026-04-01 21:45:00,METAR MMSD 012145Z 12014KT 10SM SKC 29/14 A2992,0,14,0,16090,0,0,0,
2026-04-01 20:45:00,METAR MMSD 012045Z 14018KT 10SM SKC 29/15 A2994 RMK SLP116 57023 956,0,18,0,16090,0,0,0,
2026-04-01 19:45:00,METAR MMSD 011945Z 15016KT 10SM SKC 29/15 A2996,0,16,0,16090,0,0,0,
2026-04-01 18:40:00,METAR MMSD 011840Z 14015KT 10SM SKC 30/14 A3000,0,15,0,16090,0,0,0,
2026-04-01 17:52:00,METAR MMSD 011752Z 15015KT 10SM SKC 30/12 A3001 RMK SLP139 54000 900,0,15,0,16090,0,0,0,
2026-04-01 16:45:00,METAR MMSD 011645Z 15010KT 10SM SKC 30/09 A3000,0,10,0,16090,0,0,0,
2026-04-01 15:43:00,METAR MMSD 011543Z 00000KT 10SM SKC 28/05 A3001,0,0,0,16090,0,0,0,
2026-04-01 14:55:00,METAR MMSD 011455Z 00000KT 10SM SKC 27/04 A3001,0,0,0,16090,0,0,0,
2026-04-01 13:54:00,METAR MMSD 011354Z 00000KT 10SM SKC 22/05 A2998 RMK MSGTX MMMX,0,0,0,16090,0,0,0,
2026-04-01 12:58:00,METAR MMSD 011258Z RTD 00000KT 10SM SKC 21/04 A2997 RMK MSGTX MMMX,0,0,0,16090,0,0,0,
2026-04-01 11:41:00,METAR MMSD 011141Z 32005KT 10SM SKC 20/06 A2994 RMK SLP116 5//// 9//,0,5,0,16090,0,0,0,
2026-04-01 10:40:00,METAR MMSD 011040Z 02004KT 10SM SKC 21/04 A2993,0,4,0,16090,0,0,0,
2026-04-01 09:43:00,METAR MMSD 010943Z 25005KT 10SM SKC 21/04 A2993,0,5,0,16090,0,0,0,
2026-04-01 08:52:00,METAR MMSD 010852Z 28005KT 10SM SKC 21/05 A2995,0,5,0,16090,0,0,0,
2026-04-01 07:42:00,METAR MMSD 010742Z 28005KT 10SM SKC 23/06 A2997,0,5,0,16090,0,0,0,
2026-04-01 06:40:00,METAR MMSD 010640Z 00000KT 10SM SKC 24/07 A2997,0,0,0,16090,0,0,0,
2026-04-01 05:57:00,METAR MMSD 010557Z RTD 00000KT 10SM SKC 23/07 A2997,0,0,0,16090,0,0,0,
2026-04-01 04:54:00,METAR MMSD 010454Z 00000KT 10SM SKC 24/07 A2997,0,0,0,16090,0,0,0,
2026-04-01 03:56:00,METAR MMSD 010356Z 26004KT 10SM SKC 25/07 A2996,0,4,0,16090,0,0,0,
2026-04-01 02:50:00,METAR MMSD 010250Z 27005KT 10SM SKC 27/04 A2994 RMK SLP123 52013 956,0,5,0,16090,0,0,0,
2026-04-01 01:40:00,METAR MMSD 010140Z 07005KT 10SM SKC 29/03 A2992,0,5,0,16090,0,0,0,
2026-04-01 00:50:00,METAR MMSD 010050Z 11005KT 10SM SKC 30/06 A2992,0,5,0,16090,0,0,0,
2026-03-31 23:52:00,METAR MMSD 312352Z 11005KT 10SM SKC 31/06 A2991 RMK SLP108 57014 951 SC,0,5,0,16090,0,0,0,
2026-03-31 22:40:00,METAR MMSD 312240Z 14012KT 10SM SKC 31/09 A2992 RMK SC,0,12,0,16090,0,0,0,
2026-03-31 21:40:00,METAR MMSD 312140Z 15012KT 10SM SKC 31/10 A2993 RMK CU,0,12,0,16090,0,0,0,
2026-03-31 20:46:00,METAR MMSD 312046Z 15014KT 10SM SKC 31/13 A2996 RMK SLP123 57018 954,0,14,0,16090,0,0,0,
2026-03-31 19:40:00,METAR MMSD 311940Z 14012KT 10SM SKC 31/13 A2999,0,12,0,16090,0,0,0,
2026-03-31 18:40:00,METAR MMSD 311840Z 16012KT 10SM SKC 30/12 A3001 RMK CU,0,12,0,16090,0,0,0,
2026-03-31 17:42:00,METAR MMSD 311742Z 15013KT 10SM SKC 31/11 A3001 RMK SLP140 52003 955,0,13,0,16090,0,0,0,
2026-03-31 16:40:00,METAR MMSD 311640Z 13007KT 10SM SKC 30/11 A3001 RMK CI,0,7,0,16090,0,0,0,
2026-03-31 15:43:00,METAR MMSD 311543Z 00000KT 10SM SKC 28/11 A3001,0,0,0,16090,0,0,0,
2026-03-31 14:50:00,METAR MMSD 311450Z 00000KT 10SM SKC 24/11 A3000 RMK SLP138 5//// 955,0,0,0,16090,0,0,0,
2026-03-31 13:45:00,METAR MMSD 311345Z 28005KT 10SM SKC 20/12 A2999,0,5,0,16090,0,0,0,
2026-03-31 12:52:00,METAR MMSD 311252Z 00000KT 10SM SKC 20/12 A2997,0,0,0,16090,0,0,0,
2026-03-31 11:50:00,METAR MMSD 311150Z 01006KT 10SM SKC 20/12 A2997,0,6,0,16090,0,0,0,
2026-03-31 10:46:00,METAR MMSD 311046Z 29006KT 10SM SKC 20/14 A2997,0,6,0,16090,0,0,0,
2026-03-31 09:45:00,METAR MMSD 310945Z 34006KT 10SM SKC 20/14 A2997,0,6,0,16090,0,0,0,
2026-03-31 08:48:00,METAR MMSD 310848Z 27006KT 10SM SKC 21/16 A3000,0,6,0,16090,0,0,0,
2026-03-31 07:44:00,METAR MMSD 310744Z 33005KT 10SM SKC 22/15 A3001,0,5,0,16090,0,0,0,
2026-03-31 06:56:00,METAR MMSD 310656Z 10005KT 10SM SKC 21/16 A3002,0,5,0,16090,0,0,0,
2026-03-31 06:06:00,METAR MMSD 310606Z RTD 00000KT 10SM SKC 22/16 A3003,0,0,0,16090,0,0,0,
2026-03-31 04:40:00,METAR MMSD 310440Z 31005KT 10SM SKC 24/16 A3001,0,5,0,16090,0,0,0,
2026-03-31 03:43:00,METAR MMSD 310343Z 32004KT 10SM SKC 25/16 A2998,0,4,0,16090,0,0,0,
2026-03-31 02:45:00,METAR MMSD 310245Z 31005KT 10SM SKC 26/15 A2997 RMK SLP128 52018 906,0,5,0,16090,0,0,0,
2026-03-31 01:49:00,METAR MMSD 310149Z 30005KT 10SM SKC 26/18 A2994,0,5,0,16090,0,0,0,
2026-03-31 00:40:00,METAR MMSD 310040Z 09005KT 10SM SKC 27/17 A2992 RMK CI,0,5,0,16090,0,0,0,
2026-03-30 23:42:00,METAR MMSD 302342Z 10005KT 10SM SKC 29/16 A2991 RMK SLP109 57017 912,0,5,0,16090,0,0,0,
2026-03-30 22:40:00,METAR MMSD 302240Z 13005KT 10SM SKC 29/16 A2992,0,5,0,16090,0,0,0,
2026-03-30 21:40:00,METAR MMSD 302140Z 16010KT 10SM SKC 27/17 A2994 RMK CU CI,0,10,0,16090,0,0,0,
2026-03-30 20:47:00,METAR MMSD 302047Z 14012KT 10SM FEW250 27/19 A2997 RMK SLP127 57019 908 8/001 CU DSNT TCU NW,0,12,0,16090,0,0,0,DS
2026-03-30 19:41:00,METAR MMSD 301941Z 11015KT 10SM FEW250 27/18 A2999 RMK 8/001 CU DSNT TCU NW,0,15,0,16090,0,0,0,DS
2026-03-30 18:45:00,METAR MMSD 301845Z 14018KT 10SM FEW250 28/18 A3001 RMK 8/004,0,18,0,16090,0,0,0,
2026-03-30 17:41:00,METAR MMSD 301741Z 16007KT 10SM SCT250 30/17 A3002 RMK SLP145 52003 912 8/004,0,7,0,16090,0,0,0,
2026-03-30 16:40:00,METAR MMSD 301640Z 36004KT 10SM SCT250 29/14 A3003 RMK 8/004,0,4,0,16090,0,0,0,
2026-03-30 15:42:00,METAR MMSD 301542Z 35009KT 10SM SCT250 28/15 A3003 RMK 8/008,0,9,0,16090,0,0,0,
2026-03-30 14:50:00,METAR MMSD 301450Z 29003KT 10SM BKN200 24/18 A3001 RMK SLP143 52012 915 8/008,0,3,0,16090,0,0,0,
2026-03-30 13:42:00,METAR MMSD 301342Z 35004KT 10SM BKN250 21/18 A3000 RMK 8/008,0,4,0,16090,0,0,0,
2026-03-30 12:46:00,METAR MMSD 301246Z 31004KT 10SM SCT200 21/18 A2998 RMK 8/002,0,4,0,16090,0,0,0,
2026-03-30 11:46:00,METAR MMSD 301146Z 32005KT 10SM SKC 21/18 A2998 RMK SLP131 57007 940 CI,0,5,0,16090,0,0,0,
2026-03-30 10:43:00,METAR MMSD 301043Z 30005KT 10SM SKC 22/17 A2998,0,5,0,16090,0,0,0,
2026-03-30 09:45:00,METAR MMSD 300945Z 27005KT 10SM SKC 23/17 A2999,0,5,0,16090,0,0,0,
2026-03-30 08:45:00,METAR MMSD 300845Z 30010KT 10SM SKC 23/16 A3000,0,10,0,16090,0,0,0,
2026-03-30 07:45:00,METAR MMSD 300745Z 30006KT 10SM SKC 23/16 A3001,0,6,0,16090,0,0,0,
2026-03-30 06:45:00,METAR MMSD 300645Z 33008KT 10SM SKC 24/16 A3001,0,8,0,16090,0,0,0,
2026-03-30 05:42:00,METAR MMSD 300542Z 32008KT 10SM SKC 24/17 A3002,0,8,0,16090,0,0,0,
2026-03-30 04:45:00,METAR MMSD 300445Z 30005KT 10SM SKC 25/18 A3001,0,5,0,16090,0,0,0,
2026-03-30 03:43:00,METAR MMSD 300343Z 30006KT 10SM SKC 26/17 A2997,0,6,0,16090,0,0,0,
2026-03-30 02:40:00,METAR MMSD 300240Z 32005KT 10SM SKC 27/15 A2993,0,5,0,16090,0,0,0,
2026-03-30 01:43:00,METAR MMSD 300143Z 00000KT 10SM FEW250 29/14 A2989 RMK 8/001,0,0,0,16090,0,0,0,
2026-03-30 00:50:00,METAR MMSD 300050Z 02004KT 10SM SCT250 32/10 A2988 RMK 8/008,0,4,0,16090,0,0,0,
2026-03-29 23:48:00,METAR MMSD 292348Z 10004KT 10SM SCT250 31/13 A2988 RMK SLP096 57021 906 8/008 AS,0,4,0,16090,0,0,0,
2026-03-29 22:40:00,METAR MMSD 292240Z 12012KT 10SM FEW160 SCT250 32/11 A2989 RMK 8/038,0,12,0,16090,0,0,0,
2026-03-29 21:43:00,METAR MMSD 292143Z 11010KT 10SM FEW160 SCT250 31/13 A2991 RMK 8/038,0,10,0,16090,0,0,0,
2026-03-29 20:51:00,METAR MMSD 292051Z 12016KT 10SM BKN250 30/14 A2993 RMK SLP117 57015 914 8/008,0,16,0,16090,0,0,0,
2026-03-29 19:40:00,METAR MMSD 291940Z 10010G20KT 10SM SCT250 28/15 A2997 RMK 8/008,0,10,1,16090,0,0,0,
2026-03-29 18:40:00,METAR MMSD 291840Z 12010G20KT 10SM SCT250 28/15 A2998 RMK 8/008,0,10,1,16090,0,0,0,
2026-03-29 17:40:00,METAR MMSD 291740Z 12008KT 10SM SCT250 29/15 A2999 RMK SLP133 52016 908 8/008,0,8,0,16090,0,0,0,
2026-03-29 16:40:00,METAR MMSD 291640Z 11012KT 10SM FEW200 27/16 A3000 RMK 8/004 AC,0,12,0,16090,0,0,0,
2026-03-29 14:48:00,METAR MMSD 291448Z 36004KT 10SM SKC 23/18 A2997 RMK SLP129 5//// 901 CI,0,4,0,16090,0,0,0,
2026-03-29 13:43:00,METAR MMSD 291343Z 29004KT 10SM SKC 21/18 A2996 RMK AC CI,0,4,0,16090,0,0,0,
2026-03-29 12:41:00,METAR MMSD 291241Z 10003KT 10SM SKC 22/18 A2994 RMK SC AC,0,3,0,16090,0,0,0,
2026-03-29 11:49:00,METAR MMSD 291149Z 27008KT 10SM SKC 21/18 A2993,0,8,0,16090,0,0,0,
2026-03-29 10:50:00,METAR MMSD 291050Z 29008KT 10SM SKC 22/19 A2992,0,8,0,16090,0,0,0,
2026-03-29 09:43:00,METAR MMSD 290943Z 31010KT 10SM SKC 23/19 A2993,0,10,0,16090,0,0,0,
2026-03-29 08:59:00,METAR MMSD 290859Z RTD 32010KT 10SM SKC 23/18 A2996,0,10,0,16090,0,0,0,
2026-03-29 07:44:00,METAR MMSD 290744Z 33013KT 10SM SKC 23/16 A2998,0,13,0,16090,0,0,0,
2026-03-29 06:41:00,METAR MMSD 290641Z 30008KT 10SM SKC 24/15 A2997,0,8,0,16090,0,0,0,
2026-03-29 05:49:00,METAR MMSD 290549Z 31007KT 10SM SKC 24/15 A2995,0,7,0,16090,0,0,0,
2026-03-29 04:40:00,METAR MMSD 290440Z 31005KT 10SM SKC 24/16 A2994,0,5,0,16090,0,0,0,
2026-03-29 03:43:00,METAR MMSD 290343Z 33005KT 10SM SKC 24/16 A2993,0,5,0,16090,0,0,0,
2026-03-29 02:54:00,METAR MMSD 290254Z 03005KT 10SM SKC 25/16 A2991 RMK SLP184 52022 931,0,5,0,16090,0,0,0,
2026-03-29 01:49:00,METAR MMSD 290149Z 11006KT 10SM SKC 28/13 A2989,0,6,0,16090,0,0,0,
2026-03-29 00:40:00,METAR MMSD 290040Z 10010KT 10SM SKC 30/10 A2986 RMK CI,0,10,0,16090,0,0,0,
2026-03-28 23:53:00,METAR MMSD 282353Z 12010KT 10SM FEW250 31/11 A2986 RMK SLP091 57013 920 8/001,0,10,0,16090,0,0,0,
2026-03-28 23:04:00,METAR MMSD 282304Z RTD 11015KT 10SM SKC 31/11 A2986 RMK ISOL CI,0,15,0,16090,0,0,0,
2026-03-28 22:56:00,METAR MMSD 282256Z 12007G17KT 10SM SKC 31/12 A2986 RMK CI,0,7,1,16090,0,0,0,
2026-03-28 21:41:00,METAR MMSD 282141Z 14015KT 10SM SKC 30/13 A2988 RMK ISOL CI,0,15,0,16090,0,0,0,
2026-03-28 20:45:00,METAR MMSD 282045Z 15015KT 10SM SCT250 30/15 A2990 RMK SLP105 57021 914 8/008,0,15,0,16090,0,0,0,
2026-03-28 19:55:00,METAR MMSD 281955Z 15014KT 10SM SCT250 29/16 A2992 RMK 8/008,0,14,0,16090,0,0,0,
2026-03-28 18:48:00,METAR MMSD 281848Z 15010KT 10SM SCT250 30/17 A2995 RMK 8/008,0,10,0,16090,0,0,0,
2026-03-28 17:50:00,METAR MMSD 281750Z 15010KT 10SM SCT250 30/17 A2997 RMK SLP126 54000 910 8/008 ISOL AC,0,10,0,16090,0,0,0,
2026-03-28 16:48:00,METAR MMSD 281648Z 05004KT 10SM SCT250 29/15 A2997 RMK 8/008,0,4,0,16090,0,0,0,
2026-03-28 15:48:00,METAR MMSD 281548Z 28005KT 10SM SCT250 27/16 A2997 RMK 8/008,0,5,0,16090,0,0,0,
2026-03-28 14:45:00,METAR MMSD 281445Z 35005KT 10SM SCT250 25/19 A2997 RMK SLP127 52025 912 8/008,0,5,0,16090,0,0,0,
2026-03-28 13:45:00,METAR MMSD 281345Z 28008KT 10SM SCT120 22/16 A2996 RMK 8/020,0,8,0,16090,0,0,0,
2026-03-28 12:45:00,METAR MMSD 281245Z 08004KT 10SM SKC 21/16 A2993,0,4,0,16090,0,0,0,
2026-03-28 11:47:00,METAR MMSD 281147Z 00000KT 10SM SKC 21/16 A2991 RMK SLP 5 9,0,0,0,16090,0,0,0,
2026-03-28 09:53:00,METAR MMSD 280953Z 00000KT 10SM SKC 22/18 A2988,0,0,0,16090,0,0,0,
2026-03-28 08:40:00,METAR MMSD 280840Z 30005KT 10SM SKC 22/18 A2989,0,5,0,16090,0,0,0,
2026-03-28 08:02:00,METAR MMSD 280802Z RTD 36004KT 10SM SKC 23/18 A2990,0,4,0,16090,0,0,0,
2026-03-28 06:56:00,METAR MMSD 280656Z 27005KT 10SM SKC 23/18 A2992,0,5,0,16090,0,0,0,
2026-03-28 05:48:00,METAR MMSD 280548Z 34006KT 10SM SKC 24/18 A2992,0,6,0,16090,0,0,0,
2026-03-28 04:40:00,METAR MMSD 280440Z 29008KT 10SM SKC 25/14 A2992,0,8,0,16090,0,0,0,
2026-03-28 03:45:00,METAR MMSD 280345Z 33006KT 10SM SKC 26/12 A2989,0,6,0,16090,0,0,0,
2026-03-28 02:42:00,METAR MMSD 280242Z 08004KT 10SM SKC 28/15 A2983,0,4,0,16090,0,0,0,
2026-03-28 01:44:00,METAR MMSD 280144Z 00000KT 10SM SKC 28/15 A2983 RMK CI,0,0,0,16090,0,0,0,
2026-03-28 00:59:00,METAR MMSD 280059Z RTD 09005KT 10SM FEW250 29/13 A2982 RMK 8/001,0,5,0,16090,0,0,0,
2026-03-27 23:48:00,METAR MMSD 272348Z 09010KT 10SM SKC 32/10 A2980 RMK SLP069 57019 953,0,10,0,16090,0,0,0,
2026-03-27 22:41:00,METAR MMSD 272241Z 14010KT 10SM SKC 32/11 A2981,0,10,0,16090,0,0,0,
2026-03-27 21:53:00,METAR MMSD 272153Z 15014KT 10SM SKC 32/11 A2982,0,14,0,16090,0,0,0,
2026-03-27 20:48:00,METAR MMSD 272048Z 15014KT 10SM SKC 31/12 A2985 RMK SLP090 57025 967,0,14,0,16090,0,0,0,
2026-03-27 19:54:00,METAR MMSD 271954Z 12014KT 10SM SKC 30/13 A2988,0,14,0,16090,0,0,0,
2026-03-27 18:45:00,METAR MMSD 271845Z 15012KT 10SM FEW200 30/17 A2992 RMK 8/008,0,12,0,16090,0,0,0,
2026-03-27 17:55:00,METAR MMSD 271755Z 15012KT 10SM FEW200 30/16 A2993 RMK SLP115 5//// 903 8/008,0,12,0,16090,0,0,0,
2026-03-27 16:50:00,METAR MMSD 271650Z 25005KT 10SM FEW200 30/14 A2994 RMK 8/008,0,5,0,16090,0,0,0,
2026-03-25 14:47:00,METAR MMSD 251447Z 34002KT 10SM SKC 24/15 A2998 RMK SLP133 52018 956,0,2,0,16090,0,0,0,
2026-03-25 13:40:00,METAR MMSD 251340Z 24002KT 10SM SKC 19/15 A2996 RMK CI,0,2,0,16090,0,0,0,
2026-03-25 12:40:00,METAR MMSD 251240Z 00000KT 10SM SKC 19/15 A2994 RMK CI,0,0,0,16090,0,0,0,
2026-03-25 11:41:00,METAR MMSD 251141Z 00000KT 10SM SKC 20/16 A2993 RMK SLP115 5//// 960,0,0,0,16090,0,0,0,
2026-03-25 10:40:00,METAR MMSD 251040Z 33005KT 10SM SKC 19/15 A2993,0,5,0,16090,0,0,0,
2026-03-25 09:40:00,METAR MMSD 250940Z 27006KT 10SM SKC 20/16 A2995,0,6,0,16090,0,0,0,
2026-03-25 09:19:00,METAR MMSD 250919Z RTD 31005KT 10SM SKC 21/16 A2996,0,5,0,16090,0,0,0,
2026-03-25 07:40:00,METAR MMSD 250740Z 00000KT 10SM SKC 22/17 A2997,0,0,0,16090,0,0,0,
2026-03-25 06:40:00,METAR MMSD 250640Z 30006KT 10SM SKC 23/17 A2998,0,6,0,16090,0,0,0,
2026-03-25 05:41:00,METAR MMSD 250541Z 28008KT 10SM SKC 23/16 A2999,0,8,0,16090,0,0,0,
2026-03-25 04:41:00,METAR MMSD 250441Z 27005KT 10SM SKC 23/16 A2998,0,5,0,16090,0,0,0,
2026-03-25 03:40:00,METAR MMSD 250340Z 32005KT 10SM SKC 24/16 A2994,0,5,0,16090,0,0,0,
2026-03-25 02:49:00,METAR MMSD 250249Z 00000KT 10SM SKC 25/16 A2993 RMK SLP113 51006 974,0,0,0,16090,0,0,0,
2026-03-25 01:40:00,METAR MMSD 250140Z 13005KT 10SM SKC 25/16 A2992,0,5,0,16090,0,0,0,
2026-03-25 00:53:00,METAR MMSD 250053Z 13005KT 10SM SKC 26/16 A2991,0,5,0,16090,0,0,0,
2026-03-24 23:52:00,METAR MMSD 242352Z 11010KT 10SM SKC 26/17 A2991 RMK SLP071 56008 953,0,10,0,16090,0,0,0,
2026-03-24 22:40:00,METAR MMSD 242240Z 13015KT 10SM SKC 27/17 A2992,0,15,0,16090,0,0,0,
2026-03-24 21:41:00,METAR MMSD 242141Z 11013KT 10SM SKC 27/17 A2993,0,13,0,16090,0,0,0,
2026-03-24 20:40:00,METAR MMSD 242040Z 12016KT 10SM SKC 27/18 A2993 RMK SLP116 57018 951,0,16,0,16090,0,0,0,
2026-03-24 19:40:00,METAR MMSD 241940Z 13010KT 10SM SKC 29/18 A2995,0,10,0,16090,0,0,0,
2026-03-24 18:40:00,METAR MMSD 241840Z 11008KT 10SM SKC 28/18 A2997,0,8,0,16090,0,0,0,
2026-03-24 17:48:00,METAR MMSD 241748Z 09010KT 10SM SKC 28/18 A2998 RMK SLP134 57006 957,0,10,0,16090,0,0,0,
2026-03-24 15:40:00,METAR MMSD 241540Z 31009KT 10SM SKC 25/17 A3000,0,9,0,16090,0,0,0,
2026-03-24 14:43:00,METAR MMSD 241443Z 31006KT 10SM SKC 22/16 A3000 RMK SLP140 52014 907 CI,0,6,0,16090,0,0,0,
2026-03-24 13:43:00,METAR MMSD 241343Z 31007KT 10SM SKC 19/16 A2998,0,7,0,16090,0,0,0,
2026-03-24 12:40:00,METAR MMSD 241240Z 29004KT 10SM SKC 19/16 A2997,0,4,0,16090,0,0,0,
2026-03-24 11:48:00,METAR MMSD 241148Z 29005KT 10SM SKC 18/15 A2996 RMK SLP126 5//// 910,0,5,0,16090,0,0,0,
2026-03-24 10:54:00,METAR MMSD 241054Z 28004KT 10SM SKC 19/16 A2996,0,4,0,16090,0,0,0,
2026-03-24 09:41:00,METAR MMSD 240941Z 30005KT 10SM SKC 19/15 A2995,0,5,0,16090,0,0,0,
2026-03-24 08:56:00,METAR MMSD 240856Z 00000KT 10SM SKC 19/15 A2996,0,0,0,16090,0,0,0,
2026-03-24 07:40:00,METAR MMSD 240740Z 00000KT 10SM SKC 20/16 A2998,0,0,0,16090,0,0,0,
2026-03-24 06:40:00,METAR MMSD 240640Z 00000KT 10SM SKC 21/16 A2999,0,0,0,16090,0,0,0,
2026-03-24 05:48:00,METAR MMSD 240548Z 28005KT 10SM SKC 21/16 A3000,0,5,0,16090,0,0,0,
2026-03-24 04:40:00,METAR MMSD 240440Z 29005KT 10SM SKC 22/16 A3000,0,5,0,16090,0,0,0,
2026-03-24 03:40:00,METAR MMSD 240340Z 11005KT 10SM SKC 23/16 A2997,0,5,0,16090,0,0,0,
2026-03-24 02:41:00,METAR MMSD 240241Z 19002KT 10SM SKC 23/16 A2995,0,2,0,16090,0,0,0,
2026-03-24 01:45:00,METAR MMSD 240145Z 12010KT 10SM SKC 24/16 A2993,0,10,0,16090,0,0,0,
2026-03-24 00:56:00,METAR MMSD 240056Z 13015KT 10SM SKC 25/17 A2992,0,15,0,16090,0,0,0,
2026-03-23 23:40:00,METAR MMSD 232340Z 15017KT 10SM SKC 27/16 A2992 RMK SLP110 57006 923,0,17,0,16090,0,0,0,
2026-03-23 22:40:00,METAR MMSD 232240Z 14016KT 10SM SKC 26/16 A2992,0,16,0,16090,0,0,0,
2026-03-23 21:46:00,METAR MMSD 232146Z 13018KT 10SM SKC 26/16 A2993,0,18,0,16090,0,0,0,
2026-03-23 20:46:00,METAR MMSD 232046Z 13016KT 10SM SKC 26/16 A2993 RMK SLP117 57024 920 HZY,0,16,0,16090,0,0,0,
2026-03-23 19:42:00,METAR MMSD 231942Z 13019KT 10SM SKC 26/16 A2996,0,19,0,16090,0,0,0,
2026-03-23 18:44:00,METAR MMSD 231844Z 13013KT 10SM SKC 27/16 A2998,0,13,0,16090,0,0,0,
2026-03-23 17:43:00,METAR MMSD 231743Z 12014KT 10SM SKC 26/17 A3001 RMK SLP141 52008 920 CU,0,14,0,16090,0,0,0,
2026-03-23 16:43:00,METAR MMSD 231643Z 13011KT 10SM FEW050 25/17 A3000 RMK 8/100 AC,0,11,0,16090,0,0,0,
2026-03-23 15:40:00,METAR MMSD 231540Z 12007KT 10SM FEW100 23/16 A3000 RMK 8/030,0,7,0,16090,0,0,0,
2026-03-23 14:40:00,METAR MMSD 231440Z 36003KT 10SM SKC 19/16 A2998 RMK SLP134 52017 925 HZY AC,0,3,0,16090,0,0,0,
2026-03-23 13:50:00,METAR MMSD 231350Z 30003KT 10SM SKC 17/15 A2996 RMK HZY AC,0,3,0,16090,0,0,0,
2026-03-23 12:43:00,METAR MMSD 231243Z 29004KT 10SM SKC 18/15 A2994 RMK LWR SC / AC,0,4,0,16090,0,0,0,
2026-03-23 11:44:00,METAR MMSD 231144Z 16006KT 10SM SKC 18/16 A2993 RMK SLP117 5//// 919 LWR SC,0,6,0,16090,0,0,0,
2026-03-23 10:52:00,METAR MMSD 231052Z 11006KT 10SM SKC 19/16 A2993,0,6,0,16090,0,0,0,
2026-03-23 09:51:00,METAR MMSD 230951Z 00000KT 10SM SKC 18/15 A2992,0,0,0,16090,0,0,0,
2026-03-23 07:52:00,METAR MMSD 230752Z 11006KT 10SM SKC 20/16 A2994,0,6,0,16090,0,0,0,
2026-03-23 06:51:00,METAR MMSD 230651Z 10005KT 10SM SKC 19/16 A2995,0,5,0,16090,0,0,0,
2026-03-23 05:50:00,METAR MMSD 230550Z 12006KT 10SM SKC 19/16 A2995,0,6,0,16090,0,0,0,
2026-03-23 04:44:00,METAR MMSD 230444Z 36005KT 10SM SKC 20/16 A2994,0,5,0,16090,0,0,0,
2026-03-23 03:40:00,METAR MMSD 230340Z 30005KT 10SM SKC 21/16 A2991,0,5,0,16090,0,0,0,
2026-03-23 02:50:00,METAR MMSD 230250Z 15005KT 10SM SKC 22/16 A2988 RMK SLP098 52011 918,0,5,0,16090,0,0,0,
2026-03-23 01:40:00,METAR MMSD 230140Z 12010KT 10SM SKC 22/17 A2985,0,10,0,16090,0,0,0,
2026-03-23 00:40:00,METAR MMSD 230040Z 14012KT 10SM SKC 24/17 A2985,0,12,0,16090,0,0,0,
2026-03-22 23:48:00,METAR MMSD 222348Z 12012KT 10SM SKC 24/17 A2985 RMK SLP087 51009 914,0,12,0,16090,0,0,0,
2026-03-22 22:40:00,METAR MMSD 222240Z 13019KT 10SM SKC 25/17 A2985,0,19,0,16090,0,0,0,
2026-03-22 21:40:00,METAR MMSD 222140Z 12016KT 10SM SKC 25/17 A2986,0,16,0,16090,0,0,0,
2026-03-22 20:40:00,METAR MMSD 222040Z 12015KT 10SM SKC 25/17 A2987 RMK SLP096 57014 916,0,15,0,16090,0,0,0,
2026-03-22 19:40:00,METAR MMSD 221940Z 13016KT 10SM SKC 25/16 A2989,0,16,0,16090,0,0,0,
2026-03-22 18:40:00,METAR MMSD 221840Z 13010KT 10SM SKC 24/16 A2993,0,10,0,16090,0,0,0,
2026-03-22 17:40:00,METAR MMSD 221740Z 11015KT 10SM SKC 24/16 A2995 RMK SLP119 52013 915,0,15,0,16090,0,0,0,
2026-03-22 16:40:00,METAR MMSD 221640Z 12008KT 10SM SKC 24/17 A2993,0,8,0,16090,0,0,0,
2026-03-22 16:07:00,METAR MMSD 221607Z RTD 13007KT 10SM SKC 23/17 A2994,0,7,0,16090,0,0,0,
2026-03-22 14:46:00,METAR MMSD 221446Z 13004KT 10SM SKC 22/18 A2991 RMK SLP107 52011 952 LWR SC,0,4,0,16090,0,0,0,
2026-03-22 13:45:00,METAR MMSD 221345Z 08002KT 10SM SKC 20/17 A2989 RMK LWR SC,0,2,0,16090,0,0,0,
2026-03-22 12:40:00,METAR MMSD 221240Z 00000KT 10SM SKC 21/17 A2988 RMK LWR SC,0,0,0,16090,0,0,0,
2026-03-22 12:11:00,METAR MMSD 221211Z RTD 00000KT 10SM SKC 21/18 A2987 RMK SLP095 5//// 951 LWR CU,0,0,0,16090,0,0,0,
2026-03-22 09:40:00,METAR MMSD 220940Z 12004KT 12SM SKC 22/19 A2987,0,4,0,19308,0,0,0,
2026-03-22 08:42:00,METAR MMSD 220842Z 18002KT 12SM SKC 21/15 A2988,0,2,0,19308,0,0,0,
2026-03-22 07:41:00,METAR MMSD 220741Z 00000KT 12SM SKC 23/03 A2988,0,0,0,19308,0,0,0,
2026-03-22 06:40:00,METAR MMSD 220640Z 30003KT 12SM SKC 22/15 A2988,0,3,0,19308,0,0,0,
2026-03-22 05:41:00,METAR MMSD 220541Z 30002KT 12SM SKC 23/18 A2988,0,2,0,19308,0,0,0,
2026-03-22 04:40:00,METAR MMSD 220440Z 27005KT 10SM SKC 22/18 A2986,0,5,0,16090,0,0,0,
2026-03-22 03:40:00,METAR MMSD 220340Z 00000KT 10SM SKC 23/18 A2983,0,0,0,16090,0,0,0,
2026-03-22 02:48:00,METAR MMSD 220248Z 00000KT 10SM SKC 23/18 A2983 RMK SLP080 51007 962,0,0,0,16090,0,0,0,
2026-03-22 01:40:00,METAR MMSD 220140Z 16005KT 10SM SKC 24/18 A2982,0,5,0,16090,0,0,0,
2026-03-22 00:40:00,METAR MMSD 220040Z 14008KT 10SM SKC 26/18 A2981,0,8,0,16090,0,0,0,
2026-03-21 23:43:00,METAR MMSD 212343Z 16010KT 10SM SKC 28/17 A2980 RMK SLP073 56008 962,0,10,0,16090,0,0,0,
2026-03-21 22:46:00,METAR MMSD 212246Z 13010KT 10SM SKC 28/17 A2981,0,10,0,16090,0,0,0,
2026-03-21 21:45:00,METAR MMSD 212145Z 13010KT 10SM SKC 28/18 A2983,0,10,0,16090,0,0,0,
2026-03-21 20:49:00,METAR MMSD 212049Z 15012KT 10SM SKC 29/16 A2984 RMK SLP081 57024 961,0,12,0,16090,0,0,0,
2026-03-21 19:40:00,METAR MMSD 211940Z 16009KT 10SM SKC 32/12 A2985,0,9,0,16090,0,0,0,
2026-03-21 18:40:00,METAR MMSD 211840Z 14009KT 10SM SKC 32/14 A2988,0,9,0,16090,0,0,0,
2026-03-21 17:46:00,METAR MMSD 211746Z 15008KT 10SM SKC 31/14 A2990 RMK SLP103 57004 966,0,8,0,16090,0,0,0,
2026-03-21 16:40:00,METAR MMSD 211640Z 09005KT 10SM SKC 30/06 A2992,0,5,0,16090,0,0,0,
2026-03-21 15:40:00,METAR MMSD 211540Z 10005KT 10SM SKC 27/09 A2993,0,5,0,16090,0,0,0,
2026-03-21 14:41:00,METAR MMSD 211441Z 35002KT 10SM SKC 22/05 A2991 RMK SLP109 52012 968,0,2,0,16090,0,0,0,
2026-03-21 13:45:00,METAR MMSD 211345Z 34003KT 10SM SKC 20/05 A2989,0,3,0,16090,0,0,0,
2026-03-21 12:40:00,METAR MMSD 211240Z 33004KT 10SM SKC 19/05 A2987,0,4,0,16090,0,0,0,
2026-03-21 11:52:00,METAR MMSD 211152Z 00000KT 10SM SKC 19/05 A2988 RMK SLP096 5//// 973 RTS,0,0,0,16090,1,0,0,TS
2026-03-21 07:47:00,METAR MMSD 210747Z 02004KT 10SM SKC 23/04 A2991,0,4,0,16090,0,0,0,
2026-03-21 06:40:00,METAR MMSD 210640Z 34005KT 10SM SKC 23/05 A2992,0,5,0,16090,0,0,0,
2026-03-21 05:46:00,METAR MMSD 210546Z 25005KT 10SM SKC 24/06 A2991,0,5,0,16090,0,0,0,
2026-03-21 05:35:00,METAR MMSD 210535Z RTD 27005KT 10SM SKC 25/06 A2991,0,5,0,16090,0,0,0,
2026-03-21 03:40:00,METAR MMSD 210340Z 08004KT 10SM SKC 27/06 A2987,0,4,0,16090,0,0,0,
2026-03-21 02:56:00,METAR MMSD 210256Z 26006KT 10SM SKC 26/06 A2985 RMK SLP091 57007 978,0,6,0,16090,0,0,0,
2026-03-21 01:48:00,METAR MMSD 210148Z 00000KT 10SM SKC 29/06 A2986,0,0,0,16090,0,0,0,
2026-03-21 00:41:00,METAR MMSD 210041Z 09006KT 10SM SKC 32/05 A2985,0,6,0,16090,0,0,0,
2026-03-20 23:46:00,METAR MMSD 202346Z 15008KT 10SM SKC 32/07 A2984 RMK SLP084 56007 976,0,8,0,16090,0,0,0,
2026-03-20 22:40:00,METAR MMSD 202240Z 15010KT 10SM SKC 32/05 A2984,0,10,0,16090,0,0,0,
2026-03-20 21:50:00,METAR MMSD 202150Z 15012KT 10SM SKC 33/06 A2986,0,12,0,16090,0,0,0,
2026-03-20 20:52:00,METAR MMSD 202052Z 16010KT 10SM SKC 33/05 A2988 RMK SLP091 57029 983,0,10,0,16090,0,0,0,
2026-03-20 19:40:00,METAR MMSD 201940Z 13012KT 10SM SKC 34/04 A2991,0,12,0,16090,0,0,0,
2026-03-20 18:40:00,METAR MMSD 201840Z 16011KT 10SM SKC 34/05 A2993,0,11,0,16090,0,0,0,
2026-03-20 17:43:00,METAR MMSD 201743Z 14008KT 10SM SKC 33/04 A2995 RMK SLP119 57006 975,0,8,0,16090,0,0,0,
2026-03-20 16:40:00,METAR MMSD 201640Z 13005KT 10SM SKC 32/05 A2997,0,5,0,16090,0,0,0,
2026-03-20 15:40:00,METAR MMSD 201540Z 01002KT 10SM SKC 26/05 A2997,0,2,0,16090,0,0,0,
2026-03-20 14:42:00,METAR MMSD 201442Z 33002KT 10SM SKC 24/05 A2997 RMK SLP127 52007 970,0,2,0,16090,0,0,0,
2026-03-20 13:42:00,METAR MMSD 201342Z 32004KT 10SM SKC 19/05 A2996,0,4,0,16090,0,0,0,
2026-03-20 12:40:00,METAR MMSD 201240Z 36004KT 10SM SKC 18/05 A2995,0,4,0,16090,0,0,0,
2026-03-20 12:08:00,METAR MMSD 201208Z RTD 30002KT 10SM SKC 19/05 A2995 RMK SLP119 5//// 962,0,2,0,16090,0,0,0,
2026-03-20 10:40:00,METAR MMSD 201040Z 32003KT 10SM SKC 21/05 A2993,0,3,0,16090,0,0,0,
2026-03-20 10:26:00,METAR MMSD 201026Z RTD 34005KT 10SM SKC 20/05 A2993,0,5,0,16090,0,0,0,
2026-03-20 07:41:00,METAR MMSD 200741Z 28008KT 10SM SKC 24/05 A2998,0,8,0,16090,0,0,0,
2026-03-20 06:40:00,METAR MMSD 200640Z 28007KT 10SM SKC 23/04 A2999,0,7,0,16090,0,0,0,
2026-03-20 05:51:00,METAR MMSD 200551Z 00000KT 10SM SKC 23/03 A2997,0,0,0,16090,0,0,0,
2026-03-20 04:40:00,METAR MMSD 200440Z 26006KT 10SM SKC 24/03 A2997,0,6,0,16090,0,0,0,
2026-03-20 03:40:00,METAR MMSD 200340Z 29005KT 10SM SKC 25/02 A2996,0,5,0,16090,0,0,0,
2026-03-20 02:45:00,METAR MMSD 200245Z 30003KT 10SM SKC 26/03 A2995 RMK SLP121 52009 970,0,3,0,16090,0,0,0,
2026-03-20 01:40:00,METAR MMSD 200140Z 09002KT 10SM SKC 28/03 A2993,0,2,0,16090,0,0,0,
2026-03-20 00:40:00,METAR MMSD 200040Z 12009KT 10SM SKC 29/03 A2992,0,9,0,16090,0,0,0,
2026-03-19 23:47:00,METAR MMSD 192347Z 13011KT 10SM SKC 30/00 A2992 RMK SLP111 57014 964,0,11,0,16090,0,0,0,
2026-03-19 22:41:00,METAR MMSD 192241Z 14013KT 10SM SKC 30/02 A2993,0,13,0,16090,0,0,0,
2026-03-19 21:47:00,METAR MMSD 192147Z 14018KT 10SM SKC 32/02 A2994,0,18,0,16090,0,0,0,
2026-03-19 20:48:00,METAR MMSD 192048Z 12014KT 10SM SKC 32/03 A2996 RMK SLP124 57021 957,0,14,0,16090,0,0,0,
2026-03-19 19:45:00,METAR MMSD 191945Z 12014KT 10SM SKC 32/01 A2998,0,14,0,16090,0,0,0,
2026-03-19 18:48:00,METAR MMSD 191848Z 15014KT 10SM SKC 31/03 A3001,0,14,0,16090,0,0,0,
2026-03-19 17:43:00,METAR MMSD 191743Z 15012KT 10SM SKC 31/02 A3002 RMK SLP145 51000 959,0,12,0,16090,0,0,0,
2026-03-19 16:45:00,METAR MMSD 191645Z 00000KT 10SM SKC 30/02 A3003,0,0,0,16090,0,0,0,
2026-03-19 15:45:00,METAR MMSD 191545Z 00000KT 10SM SKC 24/02 A3004,0,0,0,16090,0,0,0,
2026-03-19 14:48:00,METAR MMSD 191448Z 00000KT 10SM SKC 21/03 A3003 RMK SLP148 52017 958,0,0,0,16090,0,0,0,
2026-03-19 13:45:00,METAR MMSD 191345Z 00000KT 10SM SKC 19/03 A3001,0,0,0,16090,0,0,0,
2026-03-19 12:45:00,METAR MMSD 191245Z 31006KT 10SM SKC 17/03 A2999,0,6,0,16090,0,0,0,
2026-03-19 11:42:00,METAR MMSD 191142Z 27003KT 10SM SKC 18/02 A2998 RMK SLP133 57013 900,0,3,0,16090,0,0,0,
2026-03-19 10:45:00,METAR MMSD 191045Z 34003KT 10SM SKC 16/02 A2998,0,3,0,16090,0,0,0,
2026-03-19 09:53:00,METAR MMSD 190953Z 32003KT 10SM SKC 18/02 A3000,0,3,0,16090,0,0,0,
2026-03-19 08:42:00,METAR MMSD 190842Z 34004KT 10SM SKC 18/02 A3002,0,4,0,16090,0,0,0,
2026-03-19 07:41:00,METAR MMSD 190741Z 34005KT 10SM SKC 18/02 A3003,0,5,0,16090,0,0,0,
2026-03-19 06:40:00,METAR MMSD 190640Z 26007KT 10SM SKC 20/02 A3004,0,7,0,16090,0,0,0,
2026-03-19 05:40:00,METAR MMSD 190540Z 25006KT 10SM SKC 21/02 A3005 RMK SLP155 52015 9//,0,6,0,16090,0,0,0,
2026-03-19 04:40:00,METAR MMSD 190440Z 31002KT 10SM SKC 21/02 A3004,0,2,0,16090,0,0,0,
2026-03-19 03:40:00,METAR MMSD 190340Z 25004KT 10SM SKC 21/05 A3002,0,4,0,16090,0,0,0,
2026-03-19 02:43:00,METAR MMSD 190243Z 29003KT 10SM SKC 23/08 A3001 RMK SLP141 52015 912,0,3,0,16090,0,0,0,
2026-03-19 01:43:00,METAR MMSD 190143Z 16004KT 10SM SKC 25/07 A2999,0,4,0,16090,0,0,0,
2026-03-19 00:40:00,METAR MMSD 190040Z 14009KT 10SM SKC 28/02 A2997,0,9,0,16090,0,0,0,
2026-03-18 23:47:00,METAR MMSD 182347Z 13010KT 10SM SKC 29/01 A2996 RMK SLP126 57007 915,0,10,0,16090,0,0,0,
2026-03-18 22:52:00,METAR MMSD 182252Z 15011KT 10SM SKC 30/00 A2995,0,11,0,16090,0,0,0,
2026-03-18 21:45:00,METAR MMSD 182145Z 12012KT 10SM SKC 30/06 A2997,0,12,0,16090,0,0,0,
2026-03-18 20:55:00,METAR MMSD 182055Z 12012KT 10SM SKC 30/10 A2998 RMK SLP131 57023 917,0,12,0,16090,0,0,0,
2026-03-18 19:47:00,METAR MMSD 181947Z 18012KT 10SM SKC 31/01 A3001,0,12,0,16090,0,0,0,
2026-03-18 18:40:00,METAR MMSD 181840Z 12012KT 10SM SKC 31/04 A3003,0,12,0,16090,0,0,0,
2026-03-18 17:47:00,METAR MMSD 181747Z 00000KT 10SM SKC 31/01 A3005 RMK SLP154 50000 927,0,0,0,16090,0,0,0,
2026-03-18 16:45:00,METAR MMSD 181645Z 35010KT 10SM SKC 30/02 A3006,0,10,0,16090,0,0,0,
2026-03-18 15:43:00,METAR MMSD 181543Z 00000KT 10SM SKC 25/03 A3006,0,0,0,16090,0,0,0,
2026-03-18 14:54:00,METAR MMSD 181454Z 00000KT 10SM SKC 20/02 A3005 RMK SLP156 52023 928,0,0,0,16090,0,0,0,
2026-03-18 13:44:00,METAR MMSD 181344Z 00000KT 10SM SKC 16/02 A3002,0,0,0,16090,0,0,0,
2026-03-18 12:45:00,METAR MMSD 181245Z 34005KT 10SM SKC 16/01 A3000,0,5,0,16090,0,0,0,
2026-03-18 11:40:00,METAR MMSD 181140Z 32005KT 10SM SKC 17/02 A2998 RMK SLP133 5//// 927,0,5,0,16090,0,0,0,
2026-03-18 10:54:00,METAR MMSD 181054Z 36005KT 10SM SKC 15/02 A2997,0,5,0,16090,0,0,0,
2026-03-18 09:43:00,METAR MMSD 180943Z 00000KT 10SM SKC 18/02 A2998,0,0,0,16090,0,0,0,
2026-03-18 08:40:00,METAR MMSD 180840Z 30005KT 10SM SKC 17/03 A2999,0,5,0,16090,0,0,0,
2026-03-18 07:40:00,METAR MMSD 180740Z 33005KT 10SM SKC 19/02 A3000,0,5,0,16090,0,0,0,
2026-03-18 06:40:00,METAR MMSD 180640Z 30005KT 10SM SKC 21/03 A3000,0,5,0,16090,0,0,0,
2026-03-18 05:56:00,METAR MMSD 180556Z 31005KT 10SM SKC 20/02 A3001,0,5,0,16090,0,0,0,
2026-03-18 04:44:00,METAR MMSD 180444Z 28005KT 10SM SKC 21/04 A3001,0,5,0,16090,0,0,0,
2026-03-18 03:40:00,METAR MMSD 180340Z 29005KT 10SM SKC 21/05 A3000,0,5,0,16090,0,0,0,
2026-03-18 02:45:00,METAR MMSD 180245Z 07005KT 10SM SKC 25/07 A2997 RMK SLP129 52018 923,0,5,0,16090,0,0,0,
2026-03-18 01:40:00,METAR MMSD 180140Z 12010KT 10SM SKC 27/04 A2994,0,10,0,16090,0,0,0,
2026-03-18 00:50:00,METAR MMSD 180050Z 12010KT 10SM SKC 28/02 A2992,0,10,0,16090,0,0,0,
2026-03-17 23:40:00,METAR MMSD 172340Z 13015KT 10SM SKC 29/00 A2991 RMK SLP110 56005,0,15,0,16090,0,0,0,
2026-03-17 22:40:00,METAR MMSD 172240Z 15013KT 10SM SKC 30/00 A2991,0,13,0,16090,0,0,0,
2026-03-17 21:44:00,METAR MMSD 172144Z 12015KT 10SM SKC 31/01 A2991,0,15,0,16090,0,0,0,
2026-03-17 20:42:00,METAR MMSD 172042Z 13013KT 10SM SKC 30/01 A2993 RMK SLP116 57013 930,0,13,0,16090,0,0,0,
2026-03-17 19:43:00,METAR MMSD 171943Z 13015KT 10SM SKC 30/07 A2995,0,15,0,16090,0,0,0,
2026-03-17 18:40:00,METAR MMSD 171840Z 13014KT 10SM SKC 29/04 A2997,0,14,0,16090,0,0,0,
2026-03-17 17:42:00,METAR MMSD 171742Z 13010KT 10SM SKC 30/03 A2997 RMK SLP128 52001 914,0,10,0,16090,0,0,0,
2026-03-17 16:40:00,METAR MMSD 171640Z 05003KT 10SM SKC 28/02 A2997,0,3,0,16090,0,0,0,
2026-03-17 15:43:00,METAR MMSD 171543Z 00000KT 10SM SKC 24/03 A2998,0,0,0,16090,0,0,0,
2026-03-17 14:48:00,METAR MMSD 171448Z 00000KT 10SM SKC 19/02 A2997 RMK SLP128 52023 917,0,0,0,16090,0,0,0,
2026-03-17 13:52:00,METAR MMSD 171352Z 35005KT 10SM SKC 16/02 A2995,0,5,0,16090,0,0,0,
2026-03-17 12:45:00,METAR MMSD 171245Z 28005KT 10SM SKC 16/02 A2992,0,5,0,16090,0,0,0,
2026-03-17 11:40:00,METAR MMSD 171140Z 34005KT 10SM SKC 16/03 A2991 RMK SLP105 5//// 904,0,5,0,16090,0,0,0,
2026-03-17 10:41:00,METAR MMSD 171041Z 28005KT 10SM SKC 16/03 A2990,0,5,0,16090,0,0,0,
2026-03-17 09:43:00,METAR MMSD 170943Z 03005KT 10SM SKC 17/03 A2991,0,5,0,16090,0,0,0,
2026-03-17 08:46:00,METAR MMSD 170846Z 35005KT 10SM SKC 17/02 A2991,0,5,0,16090,0,0,0,
2026-03-17 07:43:00,METAR MMSD 170743Z 26005KT 10SM SKC 18/03 A2992,0,5,0,16090,0,0,0,
2026-03-17 06:44:00,METAR MMSD 170644Z 00000KT 10SM SKC 20/02 A2993,0,0,0,16090,0,0,0,
2026-03-17 05:52:00,METAR MMSD 170552Z 29005KT 10SM SKC 22/03 A2993,0,5,0,16090,0,0,0,
2026-03-17 04:40:00,METAR MMSD 170440Z 00000KT 10SM SKC 21/03 A2992,0,0,0,16090,0,0,0,
2026-03-17 03:40:00,METAR MMSD 170340Z 28004KT 10SM SKC 24/02 A2992,0,4,0,16090,0,0,0,
2026-03-17 02:52:00,METAR MMSD 170252Z 31004KT 10SM SKC 25/02 A2990 RMK SLP106 52018 960,0,4,0,16090,0,0,0,
2026-03-17 01:53:00,METAR MMSD 170153Z 03005KT 10SM SKC 27/05 A2988,0,5,0,16090,0,0,0,
2026-03-17 00:44:00,METAR MMSD 170044Z 07010KT 10SM SKC 28/06 A2985,0,10,0,16090,0,0,0,
2026-03-16 23:55:00,METAR MMSD 162355Z 09010KT 10SM SKC 30/02 A2984 RMK SLP087 51002 968,0,10,0,16090,0,0,0,
2026-03-16 22:40:00,METAR MMSD 162240Z 11011KT 10SM SKC 31/00 A2983,0,11,0,16090,0,0,0,
2026-03-16 21:40:00,METAR MMSD 162140Z 11016KT 10SM SKC 31/00 A2984,0,16,0,16090,0,0,0,
2026-03-16 20:52:00,METAR MMSD 162052Z 14010G20KT 10SM SKC 31/01 A2985 RMK SLP085 57029 981,0,10,1,16090,0,0,0,
2026-03-16 19:40:00,METAR MMSD 161940Z 10010KT 10SM SKC 31/04 A2988,0,10,0,16090,0,0,0,
2026-03-16 18:40:00,METAR MMSD 161840Z 06006KT 10SM SKC 32/M01 A2990,0,6,0,16090,0,0,0,
2026-03-16 17:40:00,METAR MMSD 161740Z 00000KT 10SM SKC 31/00 A2993 RMK SLP113 56003 970,0,0,0,16090,0,0,0,
2026-03-16 16:40:00,METAR MMSD 161640Z 02002KT 10SM SKC 28/M01 A2994,0,2,0,16090,0,0,0,
2026-03-16 15:42:00,METAR MMSD 161542Z 03003KT 10SM SKC 24/M03 A2993,0,3,0,16090,0,0,0,
2026-03-16 14:40:00,METAR MMSD 161440Z 36004KT 10SM SKC 18/M05 A2992 RMK SLP112 52010 972,0,4,0,16090,0,0,0,
2026-03-16 13:49:00,METAR MMSD 161349Z 34002KT 10SM SKC 17/M04 A2992,0,2,0,16090,0,0,0,
2026-03-16 12:40:00,METAR MMSD 161240Z 32005KT 10SM SKC 15/M03 A2989,0,5,0,16090,0,0,0,
2026-03-16 12:13:00,METAR MMSD 161213Z RTD 35004KT 10SM SKC 15/M03 A2989 RMK SLP101 5//// 968 CI RTS,0,4,0,16090,1,0,0,TS
2026-03-16 09:04:00,METAR MMSD 160904Z RTD 28003KT 12SM SKC 18/02 A2988,0,3,0,19308,0,0,0,
2026-03-16 07:47:00,METAR MMSD 160747Z 00000KT 12SM SKC 17/08 A2991,0,0,0,19308,0,0,0,
2026-03-16 06:43:00,METAR MMSD 160643Z 30004KT 12SM SKC 19/08 A2992,0,4,0,19308,0,0,0,
2026-03-16 05:41:00,METAR MMSD 160541Z 31003KT 12SM SKC 19/09 A2994,0,3,0,19308,0,0,0,
2026-03-16 04:40:00,METAR MMSD 160440Z 31003KT 10SM SKC 19/12 A2994,0,3,0,16090,0,0,0,
2026-03-16 03:41:00,METAR MMSD 160341Z 15004KT 10SM SKC 22/13 A2993,0,4,0,16090,0,0,0,
2026-03-16 02:46:00,METAR MMSD 160246Z 14006KT 10SM SKC 24/13 A2993 RMK SLP116 52010 963 CI,0,6,0,16090,0,0,0,
2026-03-16 01:40:00,METAR MMSD 160140Z 16007KT 10SM SKC 25/09 A2992 RMK CI,0,7,0,16090,0,0,0,
2026-03-16 00:40:00,METAR MMSD 160040Z 16006KT 10SM SKC 27/12 A2991 RMK CI,0,6,0,16090,0,0,0,
2026-03-15 23:42:00,METAR MMSD 152342Z 12009KT 10SM SKC 29/09 A2990 RMK SLP105 57011 960 CI,0,9,0,16090,0,0,0,
2026-03-15 22:40:00,METAR MMSD 152240Z 11010KT 10SM SKC 30/06 A2991 RMK CI,0,10,0,16090,0,0,0,
2026-03-15 21:40:00,METAR MMSD 152140Z 08004KT 10SM FEW250 30/07 A2993 RMK 8/001,0,4,0,16090,0,0,0,
2026-03-15 20:44:00,METAR MMSD 152044Z 16010KT 10SM SCT250 30/05 A2993 RMK SLP116 57018 955 8/001,0,10,0,16090,0,0,0,
2026-03-15 19:41:00,METAR MMSD 151941Z 13015KT 10SM SCT250 31/03 A2995 RMK 8/001,0,15,0,16090,0,0,0,
2026-03-15 18:40:00,METAR MMSD 151840Z 17008KT 10SM FEW250 32/04 A2997 RMK 8/001,0,8,0,16090,0,0,0,
2026-03-15 17:40:00,METAR MMSD 151740Z 12008KT 10SM FEW250 32/02 A2999 RMK SLP134 52011 954 8/001,0,8,0,16090,0,0,0,
2026-03-15 16:40:00,METAR MMSD 151640Z 13002KT 10SM FEW160 30/03 A3001 RMK 8/030,0,2,0,16090,0,0,0,
2026-03-15 15:40:00,METAR MMSD 151540Z 36003KT 10SM SKC 25/04 A3001,0,3,0,16090,0,0,0,
2026-03-15 14:42:00,METAR MMSD 151442Z 05002KT 10SM SKC 20/03 A2998 RMK SLP134 52014 951,0,2,0,16090,0,0,0,
2026-03-15 13:45:00,METAR MMSD 151345Z 36004KT 10SM SKC 16/04 A2997,0,4,0,16090,0,0,0,
2026-03-15 12:56:00,METAR MMSD 151256Z 29006KT 10SM SKC 16/03 A2996,0,6,0,16090,0,0,0,
2026-03-15 11:44:00,METAR MMSD 151144Z 31003KT 10SM SKC 17/03 A2994 RMK SLP119 5//// 9//,0,3,0,16090,0,0,0,
2026-03-15 10:44:00,METAR MMSD 151044Z 34004KT 10SM SKC 17/04 A2993,0,4,0,16090,0,0,0,
2026-03-15 09:43:00,METAR MMSD 150943Z 32003KT 10SM SKC 17/05 A2994,0,3,0,16090,0,0,0,
2026-03-15 08:43:00,METAR MMSD 150843Z 33003KT 10SM SKC 18/07 A2996,0,3,0,16090,0,0,0,
