Time_recorded,METAR,is_cavok,wind_speed,is_gust,visibility_meters,has_thunderstorm,has_heavy_rain,has_low_vis_fog,other_phenomenon
2026-05-02 14:54:00,METAR KBOS 021454Z VRB03KT 10SM FEW025 SCT060 BKN080 BKN250 11/07 A2989 RMK AO2 SLP120 60001 T01110067 58000,0,3.0,0,16090,0,0,0,
2026-05-02 13:54:00,METAR KBOS 021354Z VRB03KT 10SM FEW025 SCT055 BKN075 BKN250 10/06 A2989 RMK AO2 RAB00E53 SLP122 P0001 T01000061,0,3.0,0,16090,0,0,0,RA
2026-05-02 12:54:00,METAR KBOS 021254Z 28008G17KT 10SM FEW023 SCT060 BKN075 BKN250 11/06 A2991 RMK AO2 RAE04B32E49 SLP128 P0000 T01060061,0,8.0,1,16090,0,0,0,RA
2026-05-02 11:54:00,METAR KBOS 021154Z 22008KT 10SM -RA FEW055 SCT070 BKN090 BKN250 10/06 A2989 RMK AO2 RAE35B54 SLP120 P0000 60000 T01000061 10111 20089 53008,0,8.0,0,16090,0,0,0,"-RA,RA"
2026-05-02 10:54:00,METAR KBOS 021054Z 21008KT 10SM -RA FEW070 BKN090 BKN250 10/06 A2989 RMK AO2 RAB49 SLP120 P0000 T01000056,0,8.0,0,16090,0,0,0,-RA
2026-05-02 09:54:00,METAR KBOS 020954Z 28003KT 10SM SCT060 BKN080 BKN250 11/05 A2986 RMK AO2 RAB08E29 SLP110 P0000 T01060050,0,3.0,0,16090,0,0,0,RA
2026-05-02 08:54:00,METAR KBOS 020854Z 20007KT 10SM BKN080 10/04 A2986 RMK AO2 SLP112 60000 T01000039 55003,0,7.0,0,16090,0,0,0,
2026-05-02 07:54:00,METAR KBOS 020754Z 22008KT 10SM SCT080 10/04 A2986 RMK AO2 RAB18E28 SLP110 P0000 T01000039,0,8.0,0,16090,0,0,0,RA
2026-05-02 06:54:00,METAR KBOS 020654Z 22008KT 10SM SCT090 BKN120 10/03 A2987 RMK AO2 SLP115 T01000028,0,8.0,0,16090,0,0,0,
2026-05-02 05:54:00,METAR KBOS 020554Z 00000KT 10SM SCT085 11/02 A2987 RMK AO2 SLP115 T01060017 10161 20094 58000,0,0.0,0,16090,0,0,0,
2026-05-02 04:54:00,METAR KBOS 020454Z 25006KT 10SM SCT085 12/01 A2988 RMK AO2 SLP116 T01170006 401830083,0,6.0,0,16090,0,0,0,
2026-05-02 03:54:00,METAR KBOS 020354Z 19005KT 10SM BKN085 11/03 A2988 RMK AO2 SLP117 T01110028,0,5.0,0,16090,0,0,0,
2026-05-02 02:54:00,METAR KBOS 020254Z 17005KT 10SM SCT150 10/04 A2987 RMK AO2 SLP115 T01000044 51016,0,5.0,0,16090,0,0,0,
2026-05-02 01:54:00,METAR KBOS 020154Z 12006KT 10SM CLR 11/04 A2987 RMK AO2 SLP115 T01110039,0,6.0,0,16090,0,0,0,
2026-05-02 00:54:00,METAR KBOS 020054Z 01004KT 10SM CLR 14/M03 A2986 RMK AO2 SLP109 T01391028,0,4.0,0,16090,0,0,0,
2026-05-01 23:54:00,METAR KBOS 012354Z 31006KT 10SM FEW075 16/M04 A2983 RMK AO2 SLP100 T01611039 10183 20156 53017,0,6.0,0,16090,0,0,0,
2026-05-01 22:54:00,METAR KBOS 012254Z 32011KT 10SM FEW080 17/M03 A2980 RMK AO2 SLP091 T01671033,0,11.0,0,16090,0,0,0,
2026-05-01 21:54:00,METAR KBOS 012154Z 28009G19KT 10SM FEW085 17/M03 A2979 RMK AO2 SLP087 T01721033,0,9.0,1,16090,0,0,0,
2026-05-01 20:54:00,METAR KBOS 012054Z 23016G26KT 10SM FEW080 18/M02 A2978 RMK AO2 PK WND 23026/2054 SLP082 T01781022 56008,0,16.0,1,16090,0,0,0,
2026-05-01 19:54:00,METAR KBOS 011954Z 31010G23KT 10SM SCT075 17/M02 A2978 RMK AO2 SLP083 T01721017,0,10.0,1,16090,0,0,0,
2026-05-01 18:54:00,METAR KBOS 011854Z 29016G21KT 10SM SCT070 17/M02 A2979 RMK AO2 SLP086 T01671017,0,16.0,1,16090,0,0,0,
2026-05-01 17:54:00,METAR KBOS 011754Z 27011G20KT 10SM FEW055 16/M01 A2980 RMK AO2 SLP090 T01561011 10161 20094 56010,0,11.0,1,16090,0,0,0,
2026-05-01 16:54:00,METAR KBOS 011654Z 28011G19KT 10SM FEW055 14/M01 A2981 RMK AO2 SLP093 T01441006,0,11.0,1,16090,0,0,0,
2026-05-01 15:54:00,METAR KBOS 011554Z 26009G22KT 220V290 10SM SCT055 14/01 A2982 RMK AO2 SLP097 T01390006,0,9.0,1,16090,0,0,0,
2026-05-01 14:54:00,METAR KBOS 011454Z 29011G19KT 10SM SCT049 12/00 A2983 RMK AO2 SLP100 T01220000 51004,0,11.0,1,16090,0,0,0,
2026-05-01 13:54:00,METAR KBOS 011354Z 29015G27KT 10SM FEW055 12/M01 A2983 RMK AO2 PK WND 32027/1351 SLP100 T01221006,0,15.0,1,16090,0,0,0,
2026-05-01 12:54:00,METAR KBOS 011254Z 31016G23KT 10SM FEW055 11/01 A2983 RMK AO2 SLP099 T01060011,0,16.0,1,16090,0,0,0,
2026-05-01 11:54:00,METAR KBOS 011154Z 30015G22KT 10SM BKN055 09/02 A2982 RMK AO2 SLP097 70010 T00940017 10111 20083 52013,0,15.0,1,16090,0,0,0,
2026-05-01 10:54:00,METAR KBOS 011054Z 30011KT 10SM SCT048 08/02 A2981 RMK AO2 SLP093 T00830022,0,11.0,0,16090,0,0,0,
2026-05-01 09:54:00,METAR KBOS 010954Z 30013G21KT 10SM BKN048 09/03 A2979 RMK AO2 SLP087 T00890028,0,13.0,1,16090,0,0,0,
2026-05-01 08:54:00,METAR KBOS 010854Z 30008G18KT 10SM BKN050 09/03 A2978 RMK AO2 SLP084 T00890028 53009,0,8.0,1,16090,0,0,0,
2026-05-01 07:54:00,METAR KBOS 010754Z 30013G19KT 10SM OVC050 09/03 A2977 RMK AO2 SLP079 T00940028,0,13.0,1,16090,0,0,0,
2026-05-01 06:54:00,METAR KBOS 010654Z 31016G26KT 10SM FEW020 OVC045 11/05 A2975 RMK AO2 PK WND 31026/0654 SLP074 T01060050,0,16.0,1,16090,0,0,0,
2026-05-01 06:15:00,SPECI KBOS 010615Z 32008KT 10SM SCT018 OVC036 11/07 A2975 RMK AO2 T01110072,0,8.0,0,16090,0,0,0,
2026-05-01 05:54:00,METAR KBOS 010554Z 32006KT 10SM BKN016 BKN036 OVC046 09/08 A2975 RMK AO2 SLP075 T00940083 10128 20089 53008,0,6.0,0,16090,0,0,0,
2026-05-01 04:54:00,METAR KBOS 010454Z 03005KT 10SM BKN013 BKN020 OVC027 09/08 A2974 RMK AO2 SLP072 T00940083 401330078,0,5.0,0,16090,0,0,0,
2026-05-01 03:54:00,METAR KBOS 010354Z 09005KT 10SM FEW016 BKN027 OVC075 09/08 A2973 RMK AO2 SLP067 T00890083,0,5.0,0,16090,0,0,0,
2026-05-01 02:54:00,METAR KBOS 010254Z 09004KT 10SM FEW018 BKN030 OVC060 10/08 A2973 RMK AO2 SLP066 T01000083 50005,0,4.0,0,16090,0,0,0,
2026-05-01 01:54:00,METAR KBOS 010154Z 31005KT 10SM OVC030 12/09 A2974 RMK AO2 SLP069 T01220089,0,5.0,0,16090,0,0,0,
2026-05-01 00:54:00,METAR KBOS 010054Z 29005KT 10SM SCT020 OVC032 12/09 A2973 RMK AO2 SLP065 T01220089,0,5.0,0,16090,0,0,0,
2026-05-01 00:27:00,SPECI KBOS 010027Z 31005KT 10SM BKN032 BKN040 12/09 A2972 RMK AO2 T01220089,0,5.0,0,16090,0,0,0,
2026-04-30 23:54:00,METAR KBOS 302354Z 29005KT 10SM BKN025 BKN043 13/09 A2971 RMK AO2 SLP061 60000 T01280089 10133 20100 53008,0,5.0,0,16090,0,0,0,
2026-04-30 23:30:00,SPECI KBOS 302330Z 30006KT 10SM BKN026 BKN038 13/09 A2971 RMK AO2 T01280089,0,6.0,0,16090,0,0,0,
2026-04-30 22:54:00,METAR KBOS 302254Z 30007KT 10SM FEW025 OVC041 13/09 A2970 RMK SLP058 T01280089,0,7.0,0,16090,0,0,0,
2026-04-30 22:45:00,SPECI KBOS 302245Z 29005KT 10SM FEW027 OVC041 13/09 A2970 RMK AO2 T01280089,0,5.0,0,16090,0,0,0,
2026-04-30 21:54:00,METAR KBOS 302154Z 30006KT 10SM FEW019 OVC029 13/09 A2969 RMK AO2 SLP054 T01280089,0,6.0,0,16090,0,0,0,
2026-04-30 20:54:00,METAR KBOS 302054Z 27005KT 10SM SCT016 OVC023 12/09 A2969 RMK AO2 CIG 017 E SLP053 60000 T01220089 56012,0,5.0,0,16090,0,0,0,
2026-04-30 19:54:00,METAR KBOS 301954Z 17003KT 10SM OVC016 12/09 A2970 RMK AO2 SLP055 T01170089,0,3.0,0,16090,0,0,0,
2026-04-30 19:30:00,SPECI KBOS 301930Z 15003KT 10SM OVC014 11/09 A2970 RMK AO2 T01110089,0,3.0,0,16090,0,0,0,
2026-04-30 18:54:00,METAR KBOS 301854Z 15004KT 10SM BKN015 OVC035 11/09 A2971 RMK AO2 RAE08 SLP059 P0000 T01060089,0,4.0,0,16090,0,0,0,
2026-04-30 18:29:00,SPECI KBOS 301829Z 13005KT 10SM FEW010 BKN017 OVC035 11/09 A2971 RMK AO2 RAE08 P0000 T01060094,0,5.0,0,16090,0,0,0,
2026-04-30 17:54:00,METAR KBOS 301754Z 16003KT 10SM -RA SCT007 OVC039 11/09 A2972 RMK AO2 RAE25B54 SLP065 P0001 60010 T01060094 10106 20083 58011,0,3.0,0,16090,0,0,0,"-RA,RA"
2026-04-30 17:35:00,SPECI KBOS 301735Z 17004KT 10SM BKN007 OVC044 11/09 A2973 RMK AO2 RAE25 P0001 T01060089,0,4.0,0,16090,0,0,0,
2026-04-30 17:02:00,SPECI KBOS 301702Z 19003KT 5SM -RA BR SCT009 BKN018 OVC055 10/09 A2974 RMK AO2 P0001 T01000089,0,3.0,0,8045,0,0,1,"-RA,BR"
2026-04-30 16:54:00,METAR KBOS 301654Z 00000KT 5SM -RA BR SCT008 SCT015 OVC035 09/09 A2974 RMK AO2 SLP071 P0004 T00940089,0,0.0,0,8045,0,0,1,"-RA,BR"
2026-04-30 15:54:00,METAR KBOS 301554Z 00000KT 7SM -RA FEW008 OVC034 09/08 A2974 RMK AO2 SLP071 P0002 T00940083,0,0.0,0,11263,0,0,0,-RA
2026-04-30 14:54:00,METAR KBOS 301454Z 00000KT 8SM -RA FEW008 OVC032 09/08 A2976 RMK AO2 RAE29B46 SLP076 P0001 60003 T00890078 58009,0,0.0,0,12872,0,0,0,"-RA,RA"
2026-04-30 13:54:00,METAR KBOS 301354Z 07003KT 3SM -RA BR SCT009 BKN060 OVC075 09/07 A2977 RMK AO2 SFC VIS 6 RAB25 SLP079 P0002 T00890072,0,3.0,0,4827,0,0,1,"-RA,BR,FC"
2026-04-30 12:54:00,METAR KBOS 301254Z 08003KT 10SM OVC008 08/07 A2978 RMK AO2 SLP082 T00830072,0,3.0,0,16090,0,0,0,
2026-04-30 11:54:00,METAR KBOS 301154Z 03005KT 10SM OVC009 08/07 A2978 RMK AO2 SLP085 60005 70007 T00830072 10083 20078 53001 $,0,5.0,0,16090,0,0,0,
2026-04-30 10:54:00,METAR KBOS 301054Z 02007KT 10SM BKN007 OVC080 08/07 A2976 RMK AO2 RAE45 SLP077 P0002 T00830072 $,0,7.0,0,16090,0,0,0,
2026-04-30 10:13:00,SPECI KBOS 301013Z 36005KT 10SM -RA BKN009 BKN060 OVC080 08/07 A2977 RMK AO2 P0002 T00780072 $,0,5.0,0,16090,0,0,0,-RA
2026-04-30 09:54:00,METAR KBOS 300954Z 33004KT 10SM -RA SCT007 SCT065 OVC080 08/07 A2977 RMK AO2 SLP081 P0001 T00780072 $,0,4.0,0,16090,0,0,0,-RA
2026-04-30 09:16:00,SPECI KBOS 300916Z 35005KT 7SM -RA SCT007 BKN032 BKN090 OVC250 08/07 A2977 RMK AO2 P0000 T00780072 $,0,5.0,0,11263,0,0,0,-RA
2026-04-30 09:06:00,SPECI KBOS 300906Z 35006KT 6SM -RA BR BKN007 BKN033 OVC100 08/07 A2977 RMK AO2 P0000 T00780072 $,0,6.0,0,9654,0,0,1,"-RA,BR"
2026-04-30 08:54:00,METAR KBOS 300854Z 34003KT 6SM -RA BR SCT007 OVC013 08/07 A2978 RMK AO2 DZE24RAB50 SLP084 P0000 60002 T00780072 56014 $,0,3.0,0,9654,0,0,1,"-RA,BR,DZ"
2026-04-30 08:51:00,SPECI KBOS 300851Z 35004KT 6SM -RA BR SCT007 OVC013 08/07 A2978 RMK AO2 DZE24RAB50 P0000 $,0,4.0,0,9654,0,0,1,"-RA,BR,DZ"
2026-04-30 08:26:00,SPECI KBOS 300826Z 32005KT 6SM BR BKN006 OVC014 08/07 A2979 RMK AO2 DZE24 P0000 T00780072 $,0,5.0,0,9654,0,0,1,BR
2026-04-30 08:04:00,SPECI KBOS 300804Z 30004KT 3SM -DZ BR BKN008 OVC013 08/07 A2980 RMK AO2 P0000 T00780072 $,0,4.0,0,4827,0,0,1,"BR,DZ"
2026-04-30 07:54:00,METAR KBOS 300754Z 29004KT 1 1/2SM -DZ BR BKN008 OVC013 08/07 A2981 RMK AO2 SLP094 P0001 T00780072 $,0,4.0,0,2414,0,0,1,"BR,DZ"
2026-04-30 06:54:00,METAR KBOS 300654Z 34004KT 1 1/2SM -DZ BR BKN007 OVC013 08/07 A2982 RMK AO2 SLP098 P0001 T00780072 $,0,4.0,0,2414,0,0,1,"BR,DZ"
2026-04-30 06:17:00,SPECI KBOS 300617Z 02004KT 1 1/2SM -DZ BR SCT007 OVC013 08/07 A2982 RMK AO2 P0001 T00780072 $,0,4.0,0,2414,0,0,1,"BR,DZ"
2026-04-30 05:54:00,METAR KBOS 300554Z 02005KT 1 1/2SM -DZ BR BKN004 OVC009 08/07 A2983 RMK AO2 DZE17B50RAB17E26 SLP101 P0001 60002 T00780072 10078 20072 56021 $,0,5.0,0,2414,0,0,1,"BR,DZ"
2026-04-30 04:54:00,METAR KBOS 300454Z 03003KT 1 1/2SM -DZ BR BKN004 OVC013 08/07 A2985 RMK AO2 DZB25 SLP108 P0000 T00780072 401000072 $,0,3.0,0,2414,0,0,1,"BR,DZ"
2026-04-30 04:31:00,SPECI KBOS 300431Z 04005KT 1 1/2SM -DZ BR BKN004 OVC013 08/07 A2985 RMK AO2 DZB25 P0000 T00780072 $,0,5.0,0,2414,0,0,1,"BR,DZ"
2026-04-30 04:19:00,SPECI KBOS 300419Z 03007KT 2SM BR OVC004 08/07 A2985 RMK AO2 T00780072 $,0,7.0,0,3218,0,0,1,BR
2026-04-30 03:54:00,METAR KBOS 300354Z 04005KT 1 1/2SM BR OVC004 08/07 A2987 RMK AO2 SLP114 T00780072 $,0,5.0,0,2414,0,0,1,BR
2026-04-30 02:54:00,METAR KBOS 300254Z 05006KT 1 1/2SM BR OVC004 07/07 A2989 RMK AO2 DZB14E28 SLP122 P0001 60001 T00720072 58011 $,0,6.0,0,2414,0,0,1,"BR,DZ"
2026-04-30 01:54:00,METAR KBOS 300154Z 05008KT 1 1/2SM BR OVC004 07/07 A2991 RMK AO2 SLP129 T00720067 $,0,8.0,0,2414,0,0,1,BR
2026-04-30 01:46:00,SPECI KBOS 300146Z 05007KT 1 1/2SM BR OVC004 07/07 A2992 RMK AO2 T00720067 $,0,7.0,0,2414,0,0,1,BR
2026-04-30 01:05:00,SPECI KBOS 300105Z 05009KT 2SM BR OVC004 07/07 A2992 RMK AO2 T00720067,0,9.0,0,3218,0,0,1,BR
2026-04-30 00:54:00,METAR KBOS 300054Z 06007KT 1 1/2SM BR OVC004 07/07 A2993 RMK AO2 SLP133 T00720067 $,0,7.0,0,2414,0,0,1,BR
2026-04-30 00:18:00,SPECI KBOS 300018Z 05010KT 2SM BR BKN004 OVC014 07/07 A2992 RMK AO2 T00720067 $,0,10.0,0,3218,0,0,1,BR
2026-04-30 00:08:00,SPECI KBOS 300008Z 06011KT 2SM BR FEW004 BKN007 OVC018 07/07 A2992 RMK AO2 T00720067 $,0,11.0,0,3218,0,0,1,BR
2026-04-29 23:54:00,METAR KBOS 292354Z 07011KT 1SM R04R/P6000FT BR BKN005 OVC013 07/07 A2993 RMK AO2 SLP133 T00720067 10100 20072 58005 $,0,11.0,0,1609,0,0,1,BR
2026-04-29 22:54:00,METAR KBOS 292254Z 07010KT 3/4SM R04R/P6000FT BR FEW004 OVC007 08/07 A2994 RMK AO2 SLP138 VIS SW-NW 3 T00780067 $,0,10.0,0,1207,0,0,1,BR
2026-04-29 22:48:00,SPECI KBOS 292248Z 07010KT 1SM R04R/P6000FT BR FEW004 OVC007 08/07 A2994 RMK AO2 VIS SW-NW 3,0,10.0,0,1609,0,0,1,BR
2026-04-29 22:44:00,SPECI KBOS 292244Z 06011KT 5SM BR OVC007 08/06 A2993 RMK AO2 VIS E-S 1 T00780061,0,11.0,0,8045,0,0,1,BR
2026-04-29 22:09:00,SPECI KBOS 292209Z 06011KT 10SM FEW005 BKN009 OVC220 08/06 A2994 RMK AO2 T00830061,0,11.0,0,16090,0,0,0,
2026-04-29 21:54:00,METAR KBOS 292154Z 07011KT 10SM SCT007 BKN011 OVC220 08/06 A2994 RMK AO2 SLP139 T00830061,0,11.0,0,16090,0,0,0,
2026-04-29 21:36:00,SPECI KBOS 292136Z 06012KT 10SM FEW007 BKN013 OVC230 09/07 A2994 RMK AO2 T00890067,0,12.0,0,16090,0,0,0,
2026-04-29 20:54:00,METAR KBOS 292054Z 07013KT 10SM FEW007 BKN018 OVC230 09/07 A2994 RMK AO2 SLP138 T00890067 56017,0,13.0,0,16090,0,0,0,
2026-04-29 19:54:00,METAR KBOS 291954Z COR 08012KT 10SM FEW007 SCT021 SCT110 BKN230 09/07 A2996 RMK AO2 SLP145 T00890067,0,12.0,0,16090,0,0,0,
2026-04-29 19:49:00,SPECI KBOS 291949Z 08012KT 10SM FEW008 SCT021 SCT110 BKN250 09/06 A2996 RMK AO2,0,12.0,0,16090,0,0,0,
2026-04-29 18:54:00,METAR KBOS 291854Z 08013KT 10SM FEW007 BKN023 BKN250 09/07 A2999 RMK AO2 SLP155 T00940067,0,13.0,0,16090,0,0,0,
2026-04-29 18:31:00,SPECI KBOS 291831Z 09013KT 10SM SCT007 BKN023 BKN250 09/07 A3000 RMK AO2 T00940067,0,13.0,0,16090,0,0,0,
2026-04-29 17:54:00,METAR KBOS 291754Z 08011KT 10SM BKN006 BKN015 OVC250 09/07 A3001 RMK AO2 SLP160 T00940067 10100 20078 56017,0,11.0,0,16090,0,0,0,
2026-04-29 17:07:00,SPECI KBOS 291707Z 08010KT 10SM BKN007 BKN015 BKN250 09/07 A3001 RMK AO2 T00890067,0,10.0,0,16090,0,0,0,
2026-04-29 16:54:00,METAR KBOS 291654Z 07010KT 10SM SCT007 BKN015 BKN250 09/06 A3001 RMK AO2 SLP162 T00890061,0,10.0,0,16090,0,0,0,
2026-04-29 16:42:00,SPECI KBOS 291642Z 08010KT 10SM FEW007 OVC015 09/07 A3001 RMK AO2 T00940067,0,10.0,0,16090,0,0,0,
2026-04-29 15:54:00,METAR KBOS 291554Z 08011KT 10SM OVC014 09/06 A3001 RMK AO2 SLP162 BINOVC T00940061,0,11.0,0,16090,0,0,0,VC
2026-04-29 15:24:00,SPECI KBOS 291524Z 08011KT 10SM BKN011 OVC016 09/07 A3003 RMK AO2 T00940067,0,11.0,0,16090,0,0,0,
2026-04-29 14:54:00,METAR KBOS 291454Z 08012KT 10SM OVC006 09/07 A3005 RMK AO2 SLP176 T00890067 58007,0,12.0,0,16090,0,0,0,
2026-04-29 13:54:00,METAR KBOS 291354Z 07011KT 3SM BR OVC005 08/07 A3007 RMK AO2 SLP183 T00780067,0,11.0,0,4827,0,0,1,BR
2026-04-29 12:54:00,METAR KBOS 291254Z 03008KT 2SM BR OVC007 08/07 A3008 RMK AO2 SLP185 T00780067,0,8.0,0,3218,0,0,1,BR
2026-04-29 12:41:00,SPECI KBOS 291241Z 04008KT 2 1/2SM BR OVC008 08/07 A3008 RMK AO2 T00780067,0,8.0,0,4022,0,0,1,BR
2026-04-29 11:54:00,METAR KBOS 291154Z 03009KT 8SM OVC007 08/06 A3008 RMK AO2 SLP184 T00780061 10083 20078 53008,0,9.0,0,12872,0,0,0,
2026-04-29 10:54:00,METAR KBOS 291054Z 36007KT 5SM BR OVC008 08/06 A3007 RMK AO2 SLP182 T00780061,0,7.0,0,8045,0,0,1,BR
2026-04-29 10:04:00,SPECI KBOS 291004Z 02008KT 10SM OVC008 08/06 A3006 RMK AO2 T00780061,0,8.0,0,16090,0,0,0,
2026-04-29 09:54:00,METAR KBOS 290954Z 02008KT 10SM OVC010 08/06 A3005 RMK AO2 SLP174 T00780061,0,8.0,0,16090,0,0,0,
2026-04-29 08:54:00,METAR KBOS 290854Z 02008KT 7SM OVC014 08/06 A3005 RMK AO2 CIG 010 E SLP176 T00780056 56018,0,8.0,0,11263,0,0,0,
2026-04-29 07:54:00,METAR KBOS 290754Z 36009KT 10SM OVC014 08/04 A3007 RMK AO2 SLP181 T00780039,0,9.0,0,16090,0,0,0,
2026-04-29 07:52:00,SPECI KBOS 290752Z 35008KT 10SM OVC014 08/04 A3007 RMK AO2,0,8.0,0,16090,0,0,0,
2026-04-29 06:54:00,METAR KBOS 290654Z 33006KT 10SM OVC017 08/04 A3011 RMK AO2 SLP194 T00830039,0,6.0,0,16090,0,0,0,
2026-04-29 06:25:00,SPECI KBOS 290625Z 34007KT 10SM OVC015 08/04 A3010 RMK AO2 T00830039,0,7.0,0,16090,0,0,0,
2026-04-29 05:54:00,METAR KBOS 290554Z 01006KT 10SM OVC014 08/05 A3010 RMK AO2 SLP192 T00830050 10083 20072 55004,0,6.0,0,16090,0,0,0,
2026-04-29 05:46:00,SPECI KBOS 290546Z 03006KT 10SM OVC014 08/05 A3009 RMK AO2 T00780050,0,6.0,0,16090,0,0,0,
2026-04-29 04:54:00,METAR KBOS 290454Z 04008KT 10SM OVC016 08/04 A3009 RMK AO2 SLP187 T00780039 401110061,0,8.0,0,16090,0,0,0,
2026-04-29 03:54:00,METAR KBOS 290354Z 05006KT 10SM OVC016 08/04 A3010 RMK AO2 SLP191 T00780039,0,6.0,0,16090,0,0,0,
2026-04-29 03:18:00,SPECI KBOS 290318Z 06011KT 10SM BKN016 BKN250 08/03 A3010 RMK AO2 T00780033,0,11.0,0,16090,0,0,0,
2026-04-29 02:54:00,METAR KBOS 290254Z 06011KT 10SM SCT016 BKN250 08/03 A3011 RMK AO2 SLP196 T00780033 58009,0,11.0,0,16090,0,0,0,
2026-04-29 01:54:00,METAR KBOS 290154Z 06010KT 10SM SCT016 BKN250 07/03 A3014 RMK AO2 SLP207 T00720028,0,10.0,0,16090,0,0,0,
2026-04-29 00:54:00,METAR KBOS 290054Z 06010KT 10SM OVC250 08/03 A3014 RMK AO2 SLP207 T00780028,0,10.0,0,16090,0,0,0,
2026-04-28 23:54:00,METAR KBOS 282354Z 06011KT 10SM SCT200 BKN250 08/04 A3014 RMK AO2 SLP205 T00780039 10111 20078 58010,0,11.0,0,16090,0,0,0,
2026-04-28 22:54:00,METAR KBOS 282254Z 06013KT 10SM FEW035 BKN200 BKN250 08/03 A3014 RMK AO2 SLP206 T00780028,0,13.0,0,16090,0,0,0,
2026-04-28 21:54:00,METAR KBOS 282154Z 07012KT 10SM FEW035 FEW200 BKN250 09/03 A3017 RMK AO2 SLP215 T00890028,0,12.0,0,16090,0,0,0,
2026-04-28 20:54:00,METAR KBOS 282054Z 07012KT 10SM BKN250 10/M02 A3017 RMK AO2 SLP215 T01001017 56013,0,12.0,0,16090,0,0,0,
2026-04-28 19:54:00,METAR KBOS 281954Z 08012KT 10SM SCT250 11/M01 A3018 RMK AO2 SLP219 T01111006,0,12.0,0,16090,0,0,0,
2026-04-28 18:54:00,METAR KBOS 281854Z 08012KT 10SM FEW020 SCT250 11/04 A3019 RMK AO2 SLP223 T01060039,0,12.0,0,16090,0,0,0,
2026-04-28 17:54:00,METAR KBOS 281754Z 08010KT 10SM FEW020 FEW250 11/05 A3021 RMK AO2 SLP228 T01060050 10111 20078 56010,0,10.0,0,16090,0,0,0,
2026-04-28 16:54:00,METAR KBOS 281654Z 08011KT 10SM FEW012 FEW250 11/06 A3021 RMK AO2 SLP230 T01060061,0,11.0,0,16090,0,0,0,
2026-04-28 15:54:00,METAR KBOS 281554Z 07011KT 10SM FEW008 FEW250 11/06 A3023 RMK AO2 SLP235 T01060061,0,11.0,0,16090,0,0,0,
2026-04-28 14:54:00,METAR KBOS 281454Z 09008KT 10SM FEW008 FEW250 10/05 A3024 RMK AO2 SLP239 T01000050 53002,0,8.0,0,16090,0,0,0,
2026-04-28 13:54:00,METAR KBOS 281354Z 08009KT 10SM FEW008 FEW250 10/05 A3023 RMK AO2 SLP236 T01000050,0,9.0,0,16090,0,0,0,
2026-04-28 12:54:00,METAR KBOS 281254Z 05007KT 10SM FEW008 09/06 A3023 RMK AO2 SLP237 T00890056,0,7.0,0,16090,0,0,0,
2026-04-28 11:54:00,METAR KBOS 281154Z 05008KT 10SM FEW008 08/06 A3023 RMK AO2 SLP237 T00830061 10094 20061 50005,0,8.0,0,16090,0,0,0,
2026-04-28 11:32:00,SPECI KBOS 281132Z 05007KT 10SM SCT008 08/06 A3023 RMK AO2 T00780056,0,7.0,0,16090,0,0,0,
2026-04-28 11:18:00,SPECI KBOS 281118Z 05009KT 10SM BKN009 08/06 A3023 RMK AO2 T00780061,0,9.0,0,16090,0,0,0,
2026-04-28 10:54:00,METAR KBOS 281054Z 06007KT 10SM FEW008 FEW050 08/06 A3024 RMK AO2 SLP239 T00780056 $,0,7.0,0,16090,0,0,0,
2026-04-28 09:54:00,METAR KBOS 280954Z 03004KT 10SM FEW060 07/05 A3022 RMK AO2 SLP234 T00670050 $,0,4.0,0,16090,0,0,0,
2026-04-28 08:54:00,METAR KBOS 280854Z 05006KT 10SM CLR 07/04 A3022 RMK AO2 SLP232 T00670044 55002 $,0,6.0,0,16090,0,0,0,
2026-04-28 07:54:00,METAR KBOS 280754Z 05004KT 10SM CLR 07/05 A3021 RMK AO2 SLP230 T00670050 $,0,4.0,0,16090,0,0,0,
2026-04-28 06:54:00,METAR KBOS 280654Z 02005KT 10SM CLR 07/04 A3021 RMK AO2 SLP228 T00720044 $,0,5.0,0,16090,0,0,0,
2026-04-28 05:54:00,METAR KBOS 280554Z 00000KT 10SM CLR 09/03 A3023 RMK AO2 SLP234 T00890033 10106 20078 58010 $,0,0.0,0,16090,0,0,0,
2026-04-28 04:54:00,METAR KBOS 280454Z 00000KT 10SM CLR 09/04 A3024 RMK AO2 SLP239 T00890039 401440067 $,0,0.0,0,16090,0,0,0,
2026-04-28 03:54:00,METAR KBOS 280354Z 11003KT 10SM CLR 09/04 A3025 RMK AO2 SLP244 T00890044 $,0,3.0,0,16090,0,0,0,
2026-04-28 02:54:00,METAR KBOS 280254Z 11006KT 10SM CLR 09/04 A3025 RMK AO2 SLP244 T00940039 58002 $,0,6.0,0,16090,0,0,0,
2026-04-28 01:54:00,METAR KBOS 280154Z 13006KT 10SM CLR 10/04 A3026 RMK AO2 SLP247 T01000044 $,0,6.0,0,16090,0,0,0,
2026-04-28 00:54:00,METAR KBOS 280054Z 12007KT 10SM CLR 11/04 A3026 RMK AO2 SLP245 T01060039 $,0,7.0,0,16090,0,0,0,
2026-04-27 23:54:00,METAR KBOS 272354Z 12004KT 10SM CLR 11/03 A3026 RMK AO2 SLP246 T01060033 10139 20106 50000 $,0,4.0,0,16090,0,0,0,
2026-04-27 22:54:00,METAR KBOS 272254Z 12005KT 10SM CLR 12/03 A3027 RMK AO2 SLP248 T01170033 $,0,5.0,0,16090,0,0,0,
2026-04-27 21:54:00,METAR KBOS 272154Z 12005KT 10SM FEW050 13/03 A3027 RMK AO2 SLP251 T01280033 $,0,5.0,0,16090,0,0,0,
2026-04-27 20:54:00,METAR KBOS 272054Z 11007KT 10SM FEW050 13/03 A3026 RMK AO2 SLP247 T01330033 55007 $,0,7.0,0,16090,0,0,0,
2026-04-27 19:54:00,METAR KBOS 271954Z 11008KT 10SM FEW050 14/04 A3026 RMK AO2 SLP246 T01390044 $,0,8.0,0,16090,0,0,0,
2026-04-27 18:54:00,METAR KBOS 271854Z COR 12007KT 10SM FEW050 13/05 A3027 RMK AO2 SLP250 T01330050 $,0,7.0,0,16090,0,0,0,
2026-04-27 17:54:00,METAR KBOS 271754Z 13007KT 10SM FEW050 13/05 A3028 RMK AO2 SLP254 T01330050 10144 20106 58003 $,0,7.0,0,16090,0,0,0,
2026-04-27 16:54:00,METAR KBOS 271654Z 10011KT 10SM FEW045 FEW250 14/03 A3029 RMK AO2 SLP255 T01390033 $,0,11.0,0,16090,0,0,0,
2026-04-27 15:54:00,METAR KBOS 271554Z 08010KT 10SM FEW250 13/04 A3029 RMK AO2 SLP258 T01330039 $,0,10.0,0,16090,0,0,0,
2026-04-27 14:54:00,METAR KBOS 271454Z 09009KT 10SM FEW250 13/03 A3029 RMK AO2 SLP257 T01330033 51009 $,0,9.0,0,16090,0,0,0,
2026-04-27 13:54:00,METAR KBOS 271354Z 06010KT 10SM FEW250 13/02 A3029 RMK AO2 SLP255 T01280017 $,0,10.0,0,16090,0,0,0,
2026-04-27 12:54:00,METAR KBOS 271254Z 05008KT 10SM FEW050 FEW250 12/01 A3027 RMK AO2 SLP251 T01220011 $,0,8.0,0,16090,0,0,0,
2026-04-27 11:54:00,METAR KBOS 271154Z 05004KT 10SM FEW150 FEW250 11/01 A3026 RMK AO2 SLP247 T01060011 10106 20067 51017 $,0,4.0,0,16090,0,0,0,
2026-04-27 10:54:00,METAR KBOS 271054Z 00000KT 10SM FEW150 FEW250 08/02 A3025 RMK AO2 SLP243 T00830022 $,0,0.0,0,16090,0,0,0,
2026-04-27 09:54:00,METAR KBOS 270954Z 00000KT 10SM FEW150 FEW250 07/01 A3023 RMK AO2 SLP236 T00720006 $,0,0.0,0,16090,0,0,0,
2026-04-27 08:54:00,METAR KBOS 270854Z 32003KT 10SM FEW150 SCT250 08/01 A3021 RMK AO2 SLP231 T00780006 53012 $,0,3.0,0,16090,0,0,0,
2026-04-27 07:54:00,METAR KBOS 270754Z 04004KT 10SM FEW150 SCT250 07/01 A3020 RMK AO2 SLP224 T00720006 $,0,4.0,0,16090,0,0,0,
2026-04-27 06:54:00,METAR KBOS 270654Z 34004KT 10SM FEW150 SCT250 09/00 A3018 RMK AO2 SLP220 T00890000 $,0,4.0,0,16090,0,0,0,
2026-04-27 05:54:00,METAR KBOS 270554Z 34005KT 10SM FEW250 09/M01 A3018 RMK AO2 SLP219 T00941006 10111 20083 58002 $,0,5.0,0,16090,0,0,0,
2026-04-27 04:54:00,METAR KBOS 270454Z 33003KT 10SM FEW150 SCT250 10/01 A3019 RMK AO2 SLP223 T01000006 401280061 $,0,3.0,0,16090,0,0,0,
2026-04-27 03:54:00,METAR KBOS 270354Z 01003KT 10SM FEW150 SCT250 09/02 A3019 RMK AO2 SLP222 T00940017 $,0,3.0,0,16090,0,0,0,
2026-04-27 02:54:00,METAR KBOS 270254Z 00000KT 10SM FEW150 BKN250 10/01 A3019 RMK AO2 SLP221 T01000011 51009 $,0,0.0,0,16090,0,0,0,
2026-04-27 01:54:00,METAR KBOS 270154Z 07003KT 10SM SCT250 10/02 A3018 RMK AO2 SLP220 T01000022 $,0,3.0,0,16090,0,0,0,
2026-04-27 00:54:00,METAR KBOS 270054Z 00000KT 10SM FEW140 FEW250 09/02 A3017 RMK AO2 SLP217 T00940017 $,0,0.0,0,16090,0,0,0,
2026-04-26 23:54:00,METAR KBOS 262354Z 12003KT 10SM FEW250 11/02 A3016 RMK AO2 SLP211 T01060017 10128 20106 51006 $,0,3.0,0,16090,0,0,0,
2026-04-26 22:54:00,METAR KBOS 262254Z 11004KT 10SM FEW250 12/M01 A3015 RMK AO2 SLP209 T01221011 $,0,4.0,0,16090,0,0,0,
2026-04-26 21:54:00,METAR KBOS 262154Z 12003KT 10SM FEW250 12/M01 A3015 RMK AO2 SLP208 T01221011 $,0,3.0,0,16090,0,0,0,
2026-04-26 20:54:00,METAR KBOS 262054Z 13006KT 10SM FEW130 SCT250 12/00 A3014 RMK AO2 SLP205 T01220000 58004 $,0,6.0,0,16090,0,0,0,
2026-04-26 19:54:00,METAR KBOS 261954Z 13006KT 10SM FEW130 SCT250 12/M02 A3015 RMK AO2 SLP207 T01221017 $,0,6.0,0,16090,0,0,0,
2026-04-26 18:54:00,METAR KBOS 261854Z 09004KT 10SM SCT130 BKN250 12/00 A3015 RMK SLP208 T01220000,0,4.0,0,16090,0,0,0,
2026-04-26 17:54:00,METAR KBOS 261754Z 12003KT 10SM SCT110 BKN130 BKN250 11/M01 A3015 RMK AO2 SLP210 T01061011 10111 20078 50000 $,0,3.0,0,16090,0,0,0,
2026-04-26 16:54:00,METAR KBOS 261654Z 12004KT 10SM FEW110 BKN130 BKN250 11/01 A3016 RMK AO2 SLP211 T01060011 $,0,4.0,0,16090,0,0,0,
2026-04-26 15:54:00,METAR KBOS 261554Z 13005KT 10SM FEW110 BKN130 BKN250 11/01 A3016 RMK AO2 SLP211 T01060011 $,0,5.0,0,16090,0,0,0,
2026-04-26 14:54:00,METAR KBOS 261454Z 14005KT 10SM FEW120 BKN130 BKN250 11/02 A3015 RMK AO2 SLP210 T01060017 51013 $,0,5.0,0,16090,0,0,0,
2026-04-26 13:54:00,METAR KBOS 261354Z VRB03KT 10SM BKN130 BKN250 09/01 A3015 RMK AO2 SLP207 T00890011 $,0,3.0,0,16090,0,0,0,
2026-04-26 12:54:00,METAR KBOS 261254Z 14005KT 10SM BKN130 BKN250 09/02 A3013 RMK AO2 SLP201 T00890022 $,0,5.0,0,16090,0,0,0,
2026-04-26 11:54:00,METAR KBOS 261154Z 16004KT 10SM BKN130 BKN250 08/02 A3011 RMK AO2 SLP197 T00830022 10083 20061 51013 $,0,4.0,0,16090,0,0,0,
2026-04-26 10:54:00,METAR KBOS 261054Z 18003KT 10SM BKN130 BKN250 07/03 A3011 RMK AO2 SLP194 T00720028 $,0,3.0,0,16090,0,0,0,
2026-04-26 08:54:00,METAR KBOS 260854Z 19003KT 10SM OVC130 07/02 A3008 RMK AO2 SLP184 T00720017 53001 $,0,3.0,0,16090,0,0,0,
2026-04-26 07:54:00,METAR KBOS 260754Z 19004KT 10SM OVC130 07/02 A3007 RMK AO2 SLP182 T00670017 $,0,4.0,0,16090,0,0,0,
2026-04-26 06:54:00,METAR KBOS 260654Z 20004KT 10SM OVC130 07/02 A3007 RMK AO2 SLP182 T00720017 $,0,4.0,0,16090,0,0,0,
2026-04-26 05:54:00,METAR KBOS 260554Z 20005KT 10SM OVC130 07/01 A3007 RMK AO2 SLP183 T00720011 10089 20072 58001 $,0,5.0,0,16090,0,0,0,
2026-04-26 04:54:00,METAR KBOS 260454Z 21006KT 10SM OVC130 08/01 A3009 RMK AO2 SLP188 T00780011 400940028 $,0,6.0,0,16090,0,0,0,
2026-04-26 03:54:00,METAR KBOS 260354Z 21006KT 10SM OVC130 08/01 A3008 RMK AO2 SLP185 T00780006 $,0,6.0,0,16090,0,0,0,
2026-04-26 02:54:00,METAR KBOS 260254Z 21006KT 10SM OVC130 08/M01 A3008 RMK AO2 SLP184 T00781006 50006 $,0,6.0,0,16090,0,0,0,
2026-04-26 01:54:00,METAR KBOS 260154Z 16007KT 10SM OVC130 08/M01 A3009 RMK AO2 SLP189 T00781006 $,0,7.0,0,16090,0,0,0,
2026-04-26 00:54:00,METAR KBOS 260054Z 13009KT 10SM OVC130 08/M01 A3008 RMK AO2 SLP186 T00831011 $,0,9.0,0,16090,0,0,0,
2026-04-25 23:54:00,METAR KBOS 252354Z 12006KT 10SM OVC130 09/M02 A3006 RMK AO2 SLP178 T00891017 10094 20078 53003 $,0,6.0,0,16090,0,0,0,
2026-04-25 22:54:00,METAR KBOS 252254Z 11005KT 10SM OVC140 08/M02 A3005 RMK AO2 SLP175 T00831017 $,0,5.0,0,16090,0,0,0,
2026-04-25 21:54:00,METAR KBOS 252154Z 13007KT 10SM OVC140 08/M02 A3005 RMK AO2 SLP176 T00831022 $,0,7.0,0,16090,0,0,0,
2026-04-25 20:54:00,METAR KBOS 252054Z 11007KT 10SM BKN150 OVC220 09/M04 A3005 RMK AO2 SLP175 T00891039 57008 $,0,7.0,0,16090,0,0,0,
2026-04-25 19:54:00,METAR KBOS 251954Z 12008KT 10SM R04R/3500VP6000FT BKN150 OVC220 08/M03 A3006 RMK AO2 SLP178 T00831033 $,0,8.0,0,16090,0,0,0,
2026-04-25 18:54:00,METAR KBOS 251854Z 11009KT 10SM SCT180 OVC220 09/M04 A3007 RMK AO2 SLP181 T00891039 $,0,9.0,0,16090,0,0,0,
2026-04-25 17:54:00,METAR KBOS 251754Z 12011KT 10SM BKN180 OVC220 08/M01 A3008 RMK AO2 SLP184 T00831011 10094 20061 58006 $,0,11.0,0,16090,0,0,0,
2026-04-25 16:54:00,METAR KBOS 251654Z 11009KT 10SM FEW045 SCT220 BKN250 09/M03 A3008 RMK AO2 SLP187 T00891028 $,0,9.0,0,16090,0,0,0,
2026-04-25 15:54:00,METAR KBOS 251554Z 13009KT 10SM FEW045 SCT220 BKN250 09/M02 A3009 RMK AO2 SLP190 T00891017 $,0,9.0,0,16090,0,0,0,
2026-04-25 14:54:00,METAR KBOS 251454Z 09009KT 10SM FEW045 BKN250 09/M03 A3009 RMK AO2 SLP190 T00891028 57003 $,0,9.0,0,16090,0,0,0,
2026-04-25 13:54:00,METAR KBOS 251354Z 07008KT 10SM FEW045 BKN250 08/M03 A3009 RMK AO2 SLP190 T00781028 $,0,8.0,0,16090,0,0,0,
2026-04-25 12:54:00,METAR KBOS 251254Z VRB03KT 10SM FEW045 SCT250 07/M04 A3010 RMK AO2 SLP193 T00721044 $,0,3.0,0,16090,0,0,0,
2026-04-25 11:54:00,METAR KBOS 251154Z 36004KT 10SM FEW045 SCT250 06/00 A3010 RMK AO2 SLP193 T00610000 10067 20028 53014 $,0,4.0,0,16090,0,0,0,
2026-04-25 10:54:00,METAR KBOS 251054Z 36004KT 10SM FEW045 FEW250 04/01 A3008 RMK AO2 SLP187 T00440006 $,0,4.0,0,16090,0,0,0,
2026-04-25 09:54:00,METAR KBOS 250954Z 00000KT 10SM FEW045 FEW250 04/00 A3007 RMK AO2 SLP181 T00390000 $,0,0.0,0,16090,0,0,0,
2026-04-25 08:54:00,METAR KBOS 250854Z 00000KT 10SM FEW065 04/M01 A3006 RMK AO2 SLP179 T00391006 53007 $,0,0.0,0,16090,0,0,0,
2026-04-25 07:54:00,METAR KBOS 250754Z 35004KT 10SM FEW065 05/00 A3005 RMK AO2 SLP175 T00500000 $,0,4.0,0,16090,0,0,0,
2026-04-25 06:54:00,METAR KBOS 250654Z 00000KT 10SM FEW065 04/M01 A3004 RMK AO2 SLP172 T00441006 $,0,0.0,0,16090,0,0,0,
2026-04-25 05:54:00,METAR KBOS 250554Z 06005KT 10SM FEW065 05/M01 A3004 RMK AO2 SLP172 T00501006 10078 20050 51012 $,0,5.0,0,16090,0,0,0,
2026-04-25 04:54:00,METAR KBOS 250454Z 10007KT 10SM SCT065 06/M01 A3004 RMK AO2 SLP171 T00561011 401000044 $,0,7.0,0,16090,0,0,0,
2026-04-25 03:54:00,METAR KBOS 250354Z 09008KT 10SM BKN070 06/00 A3002 RMK AO2 SLP166 T00610000 $,0,8.0,0,16090,0,0,0,
2026-04-25 02:54:00,METAR KBOS 250254Z 09004KT 10SM FEW090 06/M03 A3001 RMK AO2 SLP161 T00611028 51023 $,0,4.0,0,16090,0,0,0,
2026-04-25 01:54:00,METAR KBOS 250154Z 13005KT 10SM SCT090 07/M02 A2999 RMK AO2 SLP154 T00671017 $,0,5.0,0,16090,0,0,0,
2026-04-25 00:54:00,METAR KBOS 250054Z 11006KT 10SM BKN090 07/M03 A2998 RMK AO2 SLP150 T00721028 $,0,6.0,0,16090,0,0,0,
2026-04-24 23:54:00,METAR KBOS 242354Z 13007KT 10SM BKN090 07/M02 A2994 RMK AO2 SLP138 T00721017 10094 20067 53027,0,7.0,0,16090,0,0,0,
2026-04-24 22:54:00,METAR KBOS 242254Z 09008KT 10SM BKN090 07/01 A2991 RMK AO2 SLP128 T00670011,0,8.0,0,16090,0,0,0,
2026-04-24 21:54:00,METAR KBOS 242154Z 09013KT 10SM SCT085 07/01 A2988 RMK AO2 SLP118 T00720011,0,13.0,0,16090,0,0,0,
2026-04-24 20:54:00,METAR KBOS 242054Z 09014KT 10SM SCT085 08/01 A2986 RMK AO2 SLP111 T00830006 53006,0,14.0,0,16090,0,0,0,
2026-04-24 19:54:00,METAR KBOS 241954Z 10012KT 10SM SCT080 08/01 A2984 RMK AO2 SLP105 T00830006,0,12.0,0,16090,0,0,0,
2026-04-24 18:54:00,METAR KBOS 241854Z 11012KT 10SM SCT080 09/01 A2984 RMK AO2 SLP104 T00890006,0,12.0,0,16090,0,0,0,
2026-04-24 17:54:00,METAR KBOS 241754Z 11013KT 10SM FEW075 09/M01 A2984 RMK AO2 SLP104 T00941006 10100 20072 57006,0,13.0,0,16090,0,0,0,
2026-04-24 16:54:00,METAR KBOS 241654Z 10013KT 10SM FEW055 09/M01 A2985 RMK AO2 SLP106 T00891006,0,13.0,0,16090,0,0,0,
2026-04-24 15:54:00,METAR KBOS 241554Z 09013KT 10SM FEW050 09/M02 A2986 RMK AO2 SLP109 T00941022,0,13.0,0,16090,0,0,0,
2026-04-24 14:54:00,METAR KBOS 241454Z 02011G17KT 10SM FEW030 10/M04 A2986 RMK AO2 SLP111 T01001039 58002,0,11.0,1,16090,0,0,0,
2026-04-24 13:54:00,METAR KBOS 241354Z 36009KT 10SM FEW030 08/M06 A2987 RMK AO2 SLP114 T00831056,0,9.0,0,16090,0,0,0,
2026-04-24 12:54:00,METAR KBOS 241254Z 34011G19KT 10SM FEW030 FEW080 08/M05 A2987 RMK AO2 SLP114 T00781050,0,11.0,1,16090,0,0,0,
2026-04-24 11:54:00,METAR KBOS 241154Z 34011G19KT 10SM FEW025 FEW080 07/M03 A2987 RMK AO2 SLP113 T00721033 10072 20044 51008,0,11.0,1,16090,0,0,0,
2026-04-24 10:54:00,METAR KBOS 241054Z 29007KT 10SM FEW080 06/00 A2986 RMK AO2 SLP111 T00610000,0,7.0,0,16090,0,0,0,
2026-04-24 09:54:00,METAR KBOS 240954Z 30008KT 10SM FEW080 05/00 A2985 RMK AO2 SLP108 T00500000,0,8.0,0,16090,0,0,0,
2026-04-24 08:54:00,METAR KBOS 240854Z 32006KT 10SM FEW080 05/00 A2984 RMK AO2 SLP105 T00500000 55003,0,6.0,0,16090,0,0,0,
2026-04-24 07:54:00,METAR KBOS 240754Z 18003KT 10SM FEW080 05/01 A2983 RMK AO2 SLP099 T00500011,0,3.0,0,16090,0,0,0,
2026-04-24 06:54:00,METAR KBOS 240654Z 16004KT 10SM SCT080 05/01 A2984 RMK AO2 SLP104 T00500011,0,4.0,0,16090,0,0,0,
2026-04-24 05:54:00,METAR KBOS 240554Z 15005KT 10SM SCT090 BKN200 06/02 A2985 RMK AO2 SLP108 T00560017 10078 20056 58010,0,5.0,0,16090,0,0,0,
2026-04-24 04:54:00,METAR KBOS 240454Z 14005KT 10SM FEW250 06/01 A2987 RMK AO2 SLP114 T00560011 401890056,0,5.0,0,16090,0,0,0,
2026-04-24 03:54:00,METAR KBOS 240354Z 14005KT 10SM FEW250 07/02 A2988 RMK AO2 SLP118 T00670017,0,5.0,0,16090,0,0,0,
2026-04-24 02:54:00,METAR KBOS 240254Z 12008KT 10SM FEW250 07/02 A2988 RMK AO2 SLP119 T00670017 50009,0,8.0,0,16090,0,0,0,
2026-04-24 01:54:00,METAR KBOS 240154Z 12007KT 10SM SCT250 07/02 A2989 RMK AO2 SLP121 T00720022,0,7.0,0,16090,0,0,0,
2026-04-24 00:54:00,METAR KBOS 240054Z 10006KT 10SM SCT250 07/02 A2988 RMK AO2 SLP117 T00720017,0,6.0,0,16090,0,0,0,
2026-04-23 23:54:00,METAR KBOS 232354Z 09007KT 10SM SCT250 08/02 A2986 RMK AO2 SLP109 T00780022 10189 20078 51025,0,7.0,0,16090,0,0,0,
2026-04-23 22:54:00,METAR KBOS 232254Z 11008KT 10SM FEW060 SCT250 09/03 A2984 RMK AO2 SLP103 T00890028,0,8.0,0,16090,0,0,0,
2026-04-23 21:54:00,METAR KBOS 232154Z 09015G25KT 10SM FEW060 SCT250 10/03 A2982 RMK AO2 PK WND 34029/2058 WSHFT 2104 SLP096 T01000028,0,15.0,1,16090,0,0,0,
2026-04-23 21:24:00,SPECI KBOS 232124Z 10014G25KT 10SM FEW060 SCT250 11/04 A2980 RMK AO2 PK WND 34029/2058 WSHFT 2104 T01110039,0,14.0,1,16090,0,0,0,
2026-04-23 20:54:00,METAR KBOS 232054Z 32015G30KT 10SM FEW060 FEW250 18/M11 A2978 RMK AO2 PK WND 32035/2001 SLP084 T01831106 55012,0,15.0,1,16090,0,0,0,
2026-04-23 19:54:00,METAR KBOS 231954Z 31013G26KT 10SM FEW060 FEW250 18/M07 A2978 RMK AO2 PK WND 30032/1902 SLP083 T01831072,0,13.0,1,16090,0,0,0,
2026-04-23 18:54:00,METAR KBOS 231854Z 33018G28KT 10SM FEW060 FEW250 18/M06 A2979 RMK AO2 PK WND 33032/1826 SLP088 T01831056,0,18.0,1,16090,0,0,0,
2026-04-23 17:54:00,METAR KBOS 231754Z 32018G34KT 10SM FEW060 FEW250 17/M05 A2982 RMK AO2 PK WND 30034/1751 SLP096 T01721050 10178 20094 58011,0,18.0,1,16090,0,0,0,
2026-04-23 16:54:00,METAR KBOS 231654Z 31018G32KT 10SM FEW060 FEW250 17/M04 A2983 RMK AO2 PK WND 35036/1608 SLP099 T01721044,0,18.0,1,16090,0,0,0,
2026-04-23 15:54:00,METAR KBOS 231554Z 29020G28KT 10SM FEW055 FEW250 16/M02 A2984 RMK AO2 PK WND 30034/1517 SLP104 T01611022,0,20.0,1,16090,0,0,0,
2026-04-23 14:54:00,METAR KBOS 231454Z 30013G23KT 10SM FEW055 16/01 A2985 RMK AO2 SLP107 T01560006 58013,0,13.0,1,16090,0,0,0,
2026-04-23 13:54:00,METAR KBOS 231354Z 31012G20KT 10SM FEW050 FEW090 FEW250 14/04 A2986 RMK AO2 SLP111 T01390039,0,12.0,1,16090,0,0,0,
2026-04-23 12:54:00,METAR KBOS 231254Z 31010KT 10SM FEW090 BKN250 11/05 A2988 RMK AO2 SLP118 T01110050,0,10.0,0,16090,0,0,0,
2026-04-23 11:54:00,METAR KBOS 231154Z 26007KT 240V320 10SM FEW090 SCT250 09/05 A2989 RMK AO2 SLP120 60000 T00940050 10094 20056 58012,0,7.0,0,16090,0,0,0,
2026-04-23 10:54:00,METAR KBOS 231054Z 22007KT 10SM FEW090 FEW250 07/05 A2990 RMK AO2 SLP125 T00720050,0,7.0,0,16090,0,0,0,
2026-04-23 09:54:00,METAR KBOS 230954Z 21007KT 10SM FEW015 FEW090 06/04 A2991 RMK AO2 SLP128 T00610044,0,7.0,0,16090,0,0,0,
2026-04-23 09:19:00,SPECI KBOS 230919Z 20006KT 10SM FEW012 SCT018 06/04 A2991 RMK AO2 T00610044,0,6.0,0,16090,0,0,0,
2026-04-23 08:54:00,METAR KBOS 230854Z 21006KT 10SM FEW012 OVC018 07/04 A2992 RMK AO2 SLP131 60000 T00720044 56020,0,6.0,0,16090,0,0,0,
2026-04-23 08:33:00,SPECI KBOS 230833Z 22006KT 10SM OVC016 07/04 A2993 RMK AO2 T00720044,0,6.0,0,16090,0,0,0,
2026-04-23 07:54:00,METAR KBOS 230754Z 21007KT 10SM OVC013 07/04 A2994 RMK AO2 SLP136 T00720044,0,7.0,0,16090,0,0,0,
2026-04-23 06:54:00,METAR KBOS 230654Z 21005KT 10SM BKN013 OVC021 07/04 A2995 RMK AO2 RAB0556E10 SLP141 P0000 T00670044,0,5.0,0,16090,0,0,0,RA
2026-04-23 05:54:00,METAR KBOS 230554Z 20005KT 10SM OVC015 07/04 A2998 RMK AO2 SLP151 60000 T00720039 10078 20067 58017,0,5.0,0,16090,0,0,0,
2026-04-23 04:54:00,METAR KBOS 230454Z 19006KT 10SM OVC021 07/04 A3000 RMK AO2 RAB16E32 SLP157 P0000 T00670044 400830033,0,6.0,0,16090,0,0,0,RA
2026-04-23 03:54:00,METAR KBOS 230354Z 19006KT 10SM OVC022 07/04 A3001 RMK AO2 RAE0258 SLP163 P0000 T00720039,0,6.0,0,16090,0,0,0,RA
2026-04-23 03:15:00,SPECI KBOS 230315Z 20006KT 10SM OVC022 07/04 A3003 RMK AO2 RAE0258 P0000 T00720039,0,6.0,0,16090,0,0,0,RA
2026-04-23 02:54:00,METAR KBOS 230254Z 20008KT 10SM -RA OVC022 07/04 A3003 RMK AO2 RAB48 SLP168 P0000 60000 T00720039 58005,0,8.0,0,16090,0,0,0,-RA
2026-04-23 01:54:00,METAR KBOS 230154Z 19009KT 10SM OVC023 07/04 A3004 RMK AO2 SLP171 T00720039,0,9.0,0,16090,0,0,0,
2026-04-23 00:54:00,METAR KBOS 230054Z 20008KT 10SM OVC027 08/04 A3006 RMK AO2 SLP178 T00780039,0,8.0,0,16090,0,0,0,
2026-04-23 00:16:00,SPECI KBOS 230016Z 19008KT 10SM BKN028 OVC040 08/04 A3005 RMK AO2 T00780039,0,8.0,0,16090,0,0,0,
2026-04-22 23:54:00,METAR KBOS 222354Z 19008KT 10SM FEW019 OVC038 08/04 A3004 RMK AO2 SLP173 60000 T00780044 10083 20072 55009,0,8.0,0,16090,0,0,0,
2026-04-22 23:43:00,SPECI KBOS 222343Z 19010KT 10SM SCT019 OVC042 08/04 A3004 RMK AO2 T00780044,0,10.0,0,16090,0,0,0,
2026-04-22 22:54:00,METAR KBOS 222254Z 19007KT 10SM BKN021 OVC044 08/04 A3004 RMK AO2 SLP172 T00780039,0,7.0,0,16090,0,0,0,
2026-04-22 21:54:00,METAR KBOS 222154Z 20011KT 10SM OVC022 08/04 A3006 RMK AO2 RAB15E31 SLP178 P0000 T00780039,0,11.0,0,16090,0,0,0,RA
2026-04-22 20:54:00,METAR KBOS 222054Z 20012KT 10SM OVC024 08/03 A3007 RMK AO2 RAB02E19 SLP182 P0000 60000 T00780033 56012,0,12.0,0,16090,0,0,0,RA
2026-04-22 19:54:00,METAR KBOS 221954Z 20010KT 10SM OVC028 08/03 A3009 RMK AO2 RAB06E30 SLP187 P0000 T00780028,0,10.0,0,16090,0,0,0,RA
2026-04-22 19:51:00,SPECI KBOS 221951Z 19009KT 10SM OVC029 08/02 A3009 RMK AO2 RAB06E30 P0000,0,9.0,0,16090,0,0,0,RA
2026-04-22 18:54:00,METAR KBOS 221854Z 19012KT 10SM FEW016 SCT030 OVC050 08/02 A3011 RMK AO2 RAE06B40E49 SLP194 P0000 T00830017,0,12.0,0,16090,0,0,0,RA
2026-04-22 18:06:00,SPECI KBOS 221806Z 20013KT 10SM FEW018 FEW038 OVC050 08/02 A3013 RMK AO2 RAE06 P0000 T00780017,0,13.0,0,16090,0,0,0,
2026-04-22 17:54:00,METAR KBOS 221754Z 20012KT 10SM -RA FEW018 FEW035 OVC048 08/01 A3013 RMK AO2 RAB53 SLP203 PCPN VRY LGT P0000 60000 T00780011 10083 20061 58015,0,12.0,0,16090,0,0,0,-RA
2026-04-22 16:54:00,METAR KBOS 221654Z 20015KT 10SM FEW031 OVC040 08/01 A3015 RMK AO2 SLP209 T00780006,0,15.0,0,16090,0,0,0,
2026-04-22 15:54:00,METAR KBOS 221554Z 21014G20KT 10SM BKN041 OVC060 07/02 A3017 RMK AO2 SLP216 T00720017,0,14.0,1,16090,0,0,0,
2026-04-22 14:54:00,METAR KBOS 221454Z 20010KT 10SM FEW033 OVC047 07/01 A3018 RMK AO2 SLP218 T00720006 56008,0,10.0,0,16090,0,0,0,
2026-04-22 13:54:00,METAR KBOS 221354Z 21012KT 10SM FEW025 BKN039 OVC060 07/01 A3018 RMK AO2 SLP219 T00720011,0,12.0,0,16090,0,0,0,
2026-04-22 12:54:00,METAR KBOS 221254Z 21012KT 10SM BKN043 OVC060 07/01 A3019 RMK AO2 SLP222 T00670011,0,12.0,0,16090,0,0,0,
2026-04-22 11:54:00,METAR KBOS 221154Z 20012G18KT 10SM FEW050 BKN100 OVC200 06/02 A3020 RMK AO2 SLP226 T00610017 10061 20033 58003,0,12.0,1,16090,0,0,0,
2026-04-22 10:54:00,METAR KBOS 221054Z 20012G19KT 10SM BKN048 BKN110 06/01 A3021 RMK AO2 SLP228 T00560011,0,12.0,1,16090,0,0,0,
2026-04-22 09:54:00,METAR KBOS 220954Z 20010KT 10SM BKN140 BKN200 04/01 A3021 RMK AO2 SLP229 T00440006,0,10.0,0,16090,0,0,0,
2026-04-22 08:54:00,METAR KBOS 220854Z 20007KT 10SM SCT200 04/00 A3021 RMK AO2 SLP229 T00390000 56009,0,7.0,0,16090,0,0,0,
2026-04-22 07:54:00,METAR KBOS 220754Z 21008KT 10SM SCT200 03/M01 A3021 RMK AO2 SLP230 T00331006,0,8.0,0,16090,0,0,0,
2026-04-22 06:54:00,METAR KBOS 220654Z 21009KT 10SM FEW200 03/M01 A3023 RMK AO2 SLP235 T00331011,0,9.0,0,16090,0,0,0,
2026-04-22 05:54:00,METAR KBOS 220554Z 21010KT 10SM CLR 04/M01 A3024 RMK AO2 SLP239 T00391011 10056 20039 58008,0,10.0,0,16090,0,0,0,
2026-04-22 04:54:00,METAR KBOS 220454Z 21010KT 10SM CLR 04/M02 A3026 RMK AO2 SLP248 T00391017 400720006,0,10.0,0,16090,0,0,0,
2026-04-22 03:54:00,METAR KBOS 220354Z 21010KT 10SM CLR 04/M02 A3027 RMK AO2 SLP250 T00441017,0,10.0,0,16090,0,0,0,
2026-04-22 02:54:00,METAR KBOS 220254Z 20013KT 10SM CLR 04/M02 A3026 RMK AO2 SLP247 T00441017 50003,0,13.0,0,16090,0,0,0,
2026-04-22 01:54:00,METAR KBOS 220154Z 18014KT 10SM CLR 04/M02 A3027 RMK AO2 SLP248 T00441022,0,14.0,0,16090,0,0,0,
2026-04-22 00:54:00,METAR KBOS 220054Z 17014KT 10SM CLR 05/M02 A3026 RMK AO2 SLP247 T00501022,0,14.0,0,16090,0,0,0,
2026-04-21 23:54:00,METAR KBOS 212354Z 15014G22KT 10SM FEW250 06/M03 A3025 RMK AO2 SLP244 T00561028 10072 20056 55003,0,14.0,1,16090,0,0,0,
2026-04-21 22:54:00,METAR KBOS 212254Z 13015KT 10SM FEW060 SCT250 06/M04 A3025 RMK AO2 SLP243 T00611039,0,15.0,0,16090,0,0,0,
2026-04-21 21:54:00,METAR KBOS 212154Z 12015KT 10SM FEW060 FEW250 07/M03 A3025 RMK AO2 SLP244 T00671028,0,15.0,0,16090,0,0,0,
2026-04-21 20:54:00,METAR KBOS 212054Z 11017KT 10SM FEW060 FEW120 FEW250 07/M03 A3026 RMK AO2 SLP247 T00671033 56015,0,17.0,0,16090,0,0,0,
2026-04-21 19:54:00,METAR KBOS 211954Z 11017KT 10SM FEW060 FEW120 SCT250 07/M03 A3027 RMK AO2 SLP250 T00671033,0,17.0,0,16090,0,0,0,
2026-04-21 18:54:00,METAR KBOS 211854Z 12017KT 10SM FEW060 SCT160 BKN250 07/M04 A3029 RMK AO2 SLP256 T00671044 $,0,17.0,0,16090,0,0,0,
2026-04-21 17:54:00,METAR KBOS 211754Z 08012KT 10SM FEW060 FEW250 07/M06 A3031 RMK AO2 SLP262 T00671056 10072 20039 58020 $,0,12.0,0,16090,0,0,0,
2026-04-21 16:54:00,METAR KBOS 211654Z 12010KT 10SM FEW060 FEW250 07/M08 A3033 RMK AO2 SLP268 T00671078 $,0,10.0,0,16090,0,0,0,
2026-04-21 15:54:00,METAR KBOS 211554Z 12008KT 10SM FEW060 FEW250 06/M08 A3035 RMK AO2 SLP277 T00611083 $,0,8.0,0,16090,0,0,0,
2026-04-21 14:54:00,METAR KBOS 211454Z 12011KT 10SM FEW060 FEW250 06/M08 A3037 RMK AO2 SLP282 T00611078 58006 $,0,11.0,0,16090,0,0,0,
2026-04-21 13:54:00,METAR KBOS 211354Z 03005KT 10SM FEW050 06/M12 A3038 RMK AO2 SLP287 T00611122 $,0,5.0,0,16090,0,0,0,
2026-04-21 12:54:00,METAR KBOS 211254Z 06006KT 10SM FEW050 FEW090 05/M10 A3038 RMK AO2 SLP288 T00501100 $,0,6.0,0,16090,0,0,0,
2026-04-21 11:54:00,METAR KBOS 211154Z 36005KT 10SM FEW050 FEW090 04/M05 A3038 RMK AO2 SLP288 T00391050 10039 20006 51016 $,0,5.0,0,16090,0,0,0,
2026-04-21 10:54:00,METAR KBOS 211054Z 35005KT 10SM FEW050 FEW090 02/M05 A3038 RMK AO2 SLP285 T00221050 $,0,5.0,0,16090,0,0,0,
2026-04-21 09:54:00,METAR KBOS 210954Z 35006KT 10SM FEW045 FEW090 01/M06 A3035 RMK AO2 SLP278 T00111056 $,0,6.0,0,16090,0,0,0,
2026-04-21 08:54:00,METAR KBOS 210854Z 36007KT 10SM FEW070 FEW250 01/M06 A3034 RMK AO2 SLP272 T00061056 53007 $,0,7.0,0,16090,0,0,0,
2026-04-21 07:54:00,METAR KBOS 210754Z 36008KT 10SM FEW070 SCT250 02/M07 A3033 RMK AO2 SLP269 T00221067 $,0,8.0,0,16090,0,0,0,
2026-04-21 06:54:00,METAR KBOS 210654Z 01008KT 10SM FEW070 03/M06 A3032 RMK AO2 SLP265 T00281061,0,8.0,0,16090,0,0,0,
2026-04-21 05:54:00,METAR KBOS 210554Z 02009KT 10SM CLR 03/M06 A3032 RMK AO2 SLP265 T00331061 10067 20033 51013,0,9.0,0,16090,0,0,0,
2026-04-21 04:54:00,METAR KBOS 210454Z 01008KT 10SM SCT065 OVC100 04/M07 A3031 RMK AO2 SLP263 T00391067 401331017,0,8.0,0,16090,0,0,0,
2026-04-21 03:54:00,METAR KBOS 210354Z 36011KT 10SM BKN065 BKN080 OVC100 05/M07 A3030 RMK AO2 SLP259 T00501067,0,11.0,0,16090,0,0,0,
2026-04-21 02:54:00,METAR KBOS 210254Z 03004G23KT 10SM BKN041 OVC055 05/M06 A3028 RMK AO2 SLP252 T00501056 51026,0,4.0,1,16090,0,0,0,
2026-04-21 01:54:00,METAR KBOS 210154Z 35008KT 10SM SCT070 BKN090 06/M06 A3026 RMK AO2 SLP246 T00611056,0,8.0,0,16090,0,0,0,
2026-04-21 00:54:00,METAR KBOS 210054Z 36006KT 10SM FEW043 BKN065 BKN090 06/M01 A3024 RMK AO2 SLP238 T00611011,0,6.0,0,16090,0,0,0,
2026-04-20 23:54:00,METAR KBOS 202354Z 09005KT 10SM SCT070 BKN090 06/02 A3020 RMK AO2 SLP226 T00610017 10133 20061 53029,0,5.0,0,16090,0,0,0,
2026-04-20 22:54:00,METAR KBOS 202254Z 02007G19KT 10SM BKN080 BKN090 08/M03 A3017 RMK AO2 SLP214 T00781033,0,7.0,1,16090,0,0,0,
2026-04-20 21:54:00,METAR KBOS 202154Z 01007KT 10SM SCT070 BKN090 11/M06 A3013 RMK AO2 SLP204 T01061056,0,7.0,0,16090,0,0,0,
2026-04-20 20:54:00,METAR KBOS 202054Z 32008G18KT 10SM SCT075 BKN090 12/M04 A3012 RMK AO2 SLP197 T01171039 53001,0,8.0,1,16090,0,0,0,
2026-04-20 19:54:00,METAR KBOS 201954Z 00000KT 10SM SCT070 SCT090 13/M03 A3009 RMK AO2 SLP190 T01331028,0,0.0,0,16090,0,0,0,
2026-04-20 18:54:00,METAR KBOS 201854Z 29008KT 10SM FEW060 SCT075 BKN090 12/M03 A3011 RMK AO2 SLP194 T01221028,0,8.0,0,16090,0,0,0,
2026-04-20 17:54:00,METAR KBOS 201754Z 28013KT 10SM FEW060 SCT075 BKN095 11/M03 A3011 RMK AO2 SLP196 VIRGA E-S T01111028 10111 20050 55005,0,13.0,0,16090,0,0,0,
2026-04-20 16:54:00,METAR KBOS 201654Z 31010KT 10SM SCT055 BKN070 10/M03 A3011 RMK AO2 SLP195 T01001033,0,10.0,0,16090,0,0,0,
2026-04-20 15:54:00,METAR KBOS 201554Z 26014G20KT 10SM FEW040 SCT055 BKN100 09/M03 A3012 RMK AO2 SLP197 T00941033,0,14.0,1,16090,0,0,0,
2026-04-20 14:54:00,METAR KBOS 201454Z 28011G19KT 10SM SCT030 SCT250 09/M03 A3013 RMK AO2 SLP201 T00891028 51006,0,11.0,1,16090,0,0,0,
2026-04-20 13:54:00,METAR KBOS 201354Z 26009G16KT 10SM FEW025 SCT250 07/M02 A3012 RMK AO2 SLP199 T00721017,0,9.0,1,16090,0,0,0,
2026-04-20 12:54:00,METAR KBOS 201254Z 28011G20KT 10SM FEW250 06/M02 A3012 RMK AO2 SLP198 T00611017,0,11.0,1,16090,0,0,0,
2026-04-20 11:54:00,METAR KBOS 201154Z 28011KT 10SM FEW250 05/M02 A3011 RMK AO2 SLP195 70019 T00501022 10050 20033 53022,0,11.0,0,16090,0,0,0,
2026-04-20 10:54:00,METAR KBOS 201054Z 25008KT 10SM FEW250 04/M02 A3009 RMK AO2 SLP187 T00391017,0,8.0,0,16090,0,0,0,
2026-04-20 09:54:00,METAR KBOS 200954Z 25012KT 10SM FEW250 04/M02 A3006 RMK AO2 SLP178 T00391022,0,12.0,0,16090,0,0,0,
2026-04-20 08:54:00,METAR KBOS 200854Z 26011KT 10SM FEW250 04/M02 A3004 RMK AO2 SLP172 T00391022 53005,0,11.0,0,16090,0,0,0,
2026-04-20 07:54:00,METAR KBOS 200754Z 26010KT 10SM FEW250 04/M02 A3003 RMK AO2 SLP170 T00391017,0,10.0,0,16090,0,0,0,
2026-04-20 06:54:00,METAR KBOS 200654Z 26011G19KT 10SM CLR 04/M02 A3003 RMK AO2 SLP168 T00391017,0,11.0,1,16090,0,0,0,
2026-04-20 05:54:00,METAR KBOS 200554Z 26009KT 10SM CLR 04/00 A3003 RMK AO2 SLP168 T00440000 10044 20039 53016,0,9.0,0,16090,0,0,0,
2026-04-20 04:54:00,METAR KBOS 200454Z 26011KT 10SM FEW250 04/01 A3001 RMK AO2 SLP163 T00440006 401110039,0,11.0,0,16090,0,0,0,
2026-04-20 03:54:00,METAR KBOS 200354Z 27012KT 10SM FEW250 04/01 A3000 RMK AO2 SLP157 T00440006,0,12.0,0,16090,0,0,0,
2026-04-20 02:54:00,METAR KBOS 200254Z 28007KT 10SM FEW065 FEW250 04/01 A2998 RMK AO2 SLP152 T00390006 51027,0,7.0,0,16090,0,0,0,
2026-04-20 01:54:00,METAR KBOS 200154Z 28011KT 10SM FEW025 FEW065 SCT250 04/01 A2996 RMK AO2 SLP146 T00440011,0,11.0,0,16090,0,0,0,
2026-04-20 00:54:00,METAR KBOS 200054Z 30011KT 10SM FEW009 FEW023 SCT065 04/02 A2994 RMK AO2 SLP138 T00390017,0,11.0,0,16090,0,0,0,
2026-04-19 23:54:00,METAR KBOS 192354Z 30012KT 10SM FEW014 SCT023 BKN065 04/01 A2990 RMK AO2 RAE14 SLP124 P0000 60015 T00440011 10100 20039 52034,0,12.0,0,16090,0,0,0,
2026-04-19 23:35:00,SPECI KBOS 192335Z 31011G21KT 10SM FEW014 SCT023 BKN065 04/02 A2989 RMK AO2 RAE14 P0000 T00440017,0,11.0,1,16090,0,0,0,
2026-04-19 23:23:00,SPECI KBOS 192323Z 30012G21KT 10SM SCT014 BKN025 OVC065 04/02 A2988 RMK AO2 RAE14 P0000 T00440022,0,12.0,1,16090,0,0,0,
2026-04-19 23:13:00,SPECI KBOS 192313Z 33012G20KT 10SM -RA BKN014 BKN021 OVC065 04/02 A2987 RMK AO2 P0000 T00440022,0,12.0,1,16090,0,0,0,-RA
2026-04-19 22:54:00,METAR KBOS 192254Z 32014G24KT 3SM -RA BR BKN015 OVC021 04/02 A2987 RMK AO2 PK WND 32026/2232 SLP115 P0005 T00440022,0,14.0,1,4827,0,0,1,"-RA,BR"
2026-04-19 21:54:00,METAR KBOS 192154Z 32012G19KT 4SM -RA BR BKN019 OVC024 06/04 A2983 RMK AO2 SLP100 P0001 T00610039,0,12.0,1,6436,0,0,1,"-RA,BR"
2026-04-19 20:54:00,METAR KBOS 192054Z 31012G19KT 4SM -RA BKN021 BKN032 OVC060 07/04 A2980 RMK AO2 PK WND 33027/2012 RAE01B34 SLP091 P0000 60009 T00720039 53017,0,12.0,1,6436,0,0,0,"-RA,RA"
2026-04-19 20:04:00,SPECI KBOS 192004Z 32013G25KT 10SM BKN018 OVC027 08/05 A2975 RMK AO2 RAE01 VIS SE-SW 3 P0000 T00780050,0,13.0,1,16090,0,0,0,
2026-04-19 19:54:00,METAR KBOS 191954Z 31017G28KT 6SM -RA BKN014 OVC018 08/05 A2976 RMK AO2 PK WND 33028/1909 RAE23B51 PRESRR SLP077 VIS SE-SW 3 P0000 T00780050,0,17.0,1,9654,0,0,0,"-RA,RA"
2026-04-19 19:17:00,SPECI KBOS 191917Z 32019G28KT 6SM -RA BR BKN014 OVC018 08/06 A2974 RMK AO2 PK WND 33028/1909 LTG DSNT E AND SE VIS SE-SW 3 P0000 T00830061,0,19.0,1,9654,0,0,1,"-RA,BR,DS"
2026-04-19 18:54:00,METAR KBOS 191854Z COR 31016G24KT 5SM -RA BR BKN015 OVC027 09/07 A2972 RMK AO2 LTG DSNT NE-SE PK WND 31028/1826 TSB18E22B24E51 SLP063 TS MOV E P0009 T00890072,0,16.0,1,8045,1,0,1,"-RA,BR,DS,TS"
2026-04-19 18:40:00,SPECI KBOS 191840Z 29014G20KT 6SM -TSRA BR BKN015 BKN019 OVC027CB 09/07 A2973 RMK AO2 PK WND 31028/1826 TSB18E22B24 OCNL LTGICCCCG S-SE TS S-SE MOV NE P0009 T00940072,0,14.0,1,9654,1,0,1,"BR,RA,TS"
2026-04-19 18:28:00,SPECI KBOS 191828Z 31016G28KT 2 1/2SM R04R/4500VP6000FT TSRA BKN015 BKN021 OVC030CB 09/07 A2972 RMK AO2 PK WND 31028/1826 TSB18E22B24 OCNL LTGICCCCG S TS S MOV NE P0005 T00940072,0,16.0,1,4022,1,0,0,"RA,TS"
2026-04-19 17:54:00,METAR KBOS 191754Z 30017G27KT 6SM -RA BR FEW009 BKN018 OVC026 10/08 A2975 RMK AO2 PK WND 30027/1753 LTG DSNT N SLP073 P0002 60004 T01000083 10111 20072 55003,0,17.0,1,9654,0,0,1,"-RA,BR,DS"
2026-04-19 16:54:00,METAR KBOS 191654Z 26006KT 10SM -RA FEW008 BKN010 OVC016 11/09 A2973 RMK AO2 RAB53 SLP066 P0000 T01060094,0,6.0,0,16090,0,0,0,-RA
2026-04-19 15:54:00,METAR KBOS 191554Z 23004KT 3SM BR BKN006 OVC011 09/09 A2974 RMK AO2 RAE18 SLP070 P0001 T00940094,0,4.0,0,4827,0,0,1,BR
2026-04-19 15:18:00,SPECI KBOS 191518Z 18003KT 3SM BR BKN006 BKN010 OVC024 09/09 A2974 RMK AO2 RAE18 P0001 T00940089,0,3.0,0,4827,0,0,1,BR
2026-04-19 15:06:00,SPECI KBOS 191506Z 27004KT 1/2SM R04R/5000VP6000FT -RA BR BKN007 BKN012 OVC017 09/09 A2975 RMK AO2 SFC VIS 2 P0001 T00890089,0,4.0,0,804,0,0,1,"-RA,BR,FC"
2026-04-19 14:54:00,METAR KBOS 191454Z VRB03KT 1/2SM R04R/5000VP6000FT -RA BR BKN004 OVC010 09/09 A2976 RMK AO2 SFC VIS 1 3/4 RAB01 SLP077 P0001 60001 T00940089 56011,0,3.0,0,804,0,0,1,"-RA,BR,FC"
2026-04-19 13:54:00,METAR KBOS 191354Z 18003KT 1/2SM R04R/3000V3500FT BR OVC002 08/08 A2976 RMK AO2 SFC VIS 1 1/2 RAB28E50 SLP077 P0000 T00780078,0,3.0,0,804,0,0,1,"BR,FC,RA"
2026-04-19 13:19:00,SPECI KBOS 191319Z 07004KT 1/4SM R04R/2000V3000FT FG VV002 08/08 A2975 RMK AO2 TWR VIS 1/2 T00780078,0,4.0,0,402,0,0,1,FG
2026-04-19 12:54:00,METAR KBOS 191254Z 10004KT 1/4SM R04R/1600FT FG VV002 07/07 A2976 RMK AO2 TWR VIS 1/2 SLP078 T00720072,0,4.0,0,402,0,0,1,FG
2026-04-19 12:37:00,SPECI KBOS 191237Z 11003KT 1/4SM R04R/1600V1800FT FG VV002 08/07 A2978 RMK AO2 TWR VIS 1/2 T00780072,0,3.0,0,402,0,0,1,FG
2026-04-19 12:25:00,SPECI KBOS 191225Z 11006KT 1/2SM R04R/2200V3500FT BR OVC004 08/07 A2977 RMK AO2 SFC VIS 3/4 T00780072,0,6.0,0,804,0,0,1,"BR,FC"
2026-04-19 11:54:00,METAR KBOS 191154Z 12005KT 3SM BR OVC004 08/07 A2979 RMK AO2 SLP088 60000 T00780072 10078 20067 58019,0,5.0,0,4827,0,0,1,BR
2026-04-19 10:54:00,METAR KBOS 191054Z 14005KT 3SM BR OVC003 07/07 A2982 RMK AO2 SLP098 T00720072,0,5.0,0,4827,0,0,1,BR
2026-04-19 10:38:00,SPECI KBOS 191038Z 14005KT 3SM BR OVC002 07/07 A2982 RMK AO2 T00720072,0,5.0,0,4827,0,0,1,BR
2026-04-19 10:21:00,SPECI KBOS 191021Z 13006KT 1 1/4SM BR OVC002 07/07 A2983 RMK AO2 T00720072,0,6.0,0,2011,0,0,1,BR
2026-04-19 09:54:00,METAR KBOS 190954Z 14005KT 3/4SM R04R/P6000FT BR VV003 07/07 A2984 RMK AO2 TWR VIS 2 SLP103 T00720072,0,5.0,0,1207,0,0,1,BR
2026-04-19 09:15:00,SPECI KBOS 190915Z 13005KT 3/4SM R04R/3500V5500FT BR VV002 07/07 A2984 RMK AO2 TWR VIS 2 T00720067,0,5.0,0,1207,0,0,1,BR
2026-04-19 09:04:00,SPECI KBOS 190904Z 12005KT 1SM R04R/5000VP6000FT BR VV003 07/07 A2985 RMK AO2 TWR VIS 2 T00720067,0,5.0,0,1609,0,0,1,BR
2026-04-19 08:54:00,METAR KBOS 190854Z 13005KT 1/2SM R04R/4500V6000FT FG VV003 07/07 A2985 RMK AO2 TWR VIS 2 DZE37 SLP107 P0000 60000 T00720067 58029,0,5.0,0,804,0,0,1,FG
2026-04-19 08:37:00,SPECI KBOS 190837Z 13004KT 1/2SM R04R/5500VP6000FT FG OVC003 07/07 A2986 RMK AO2 TWR VIS 2 DZE37 P0000 T00670067,0,4.0,0,804,0,0,1,FG
2026-04-19 08:28:00,SPECI KBOS 190828Z 00000KT 1 1/2SM R04R/5000VP6000FT -DZ BR OVC003 07/07 A2987 RMK AO2 TWR VIS 2 P0000 T00670067,0,0.0,0,2414,0,0,1,"BR,DZ"
2026-04-19 07:54:00,METAR KBOS 190754Z 00000KT 2SM -DZ BR OVC003 07/07 A2990 RMK AO2 SFC VIS 5 SLP123 P0000 T00670067,0,0.0,0,3218,0,0,1,"BR,DZ,FC"
2026-04-19 06:54:00,METAR KBOS 190654Z 11003KT 2SM -DZ BR OVC004 07/06 A2991 RMK AO2 SFC VIS 4 SLP129 P0000 T00670061,0,3.0,0,3218,0,0,1,"BR,DZ,FC"
2026-04-19 05:54:00,METAR KBOS 190554Z 09004KT 2SM -DZ BR OVC004 07/06 A2994 RMK AO2 SFC VIS 3 SLP136 P0000 60000 T00670061 10067 20067 58019,0,4.0,0,3218,0,0,1,"BR,DZ,FC"
2026-04-19 04:54:00,METAR KBOS 190454Z 07003KT 2SM -DZ BR OVC003 07/06 A2996 RMK AO2 SFC VIS 3 SLP145 P0000 T00670061 401060067,0,3.0,0,3218,0,0,1,"BR,DZ,FC"
2026-04-19 04:02:00,SPECI KBOS 190402Z 09006KT 2SM -DZ BR OVC003 07/06 A2997 RMK AO2 SFC VIS 2 1/2 P0000 T00670061,0,6.0,0,3218,0,0,1,"BR,DZ,FC"
2026-04-19 03:54:00,METAR KBOS 190354Z 08005KT 1 3/4SM -DZ BR OVC002 07/06 A2997 RMK AO2 TWR VIS 2 SLP149 P0000 T00670061,0,5.0,0,2816,0,0,1,"BR,DZ"
2026-04-19 03:12:00,SPECI KBOS 190312Z 06007KT 1 1/2SM -DZ BR OVC002 07/06 A2999 RMK AO2 TWR VIS 2 P0000 T00670061,0,7.0,0,2414,0,0,1,"BR,DZ"
2026-04-19 02:54:00,METAR KBOS 190254Z 07007KT 2SM -DZ BR OVC002 07/06 A2999 RMK AO2 SFC VIS 4 SLP155 P0000 60000 T00670061 58014,0,7.0,0,3218,0,0,1,"BR,DZ,FC"
2026-04-19 01:54:00,METAR KBOS 190154Z 06007KT 2SM -DZ BR OVC004 07/06 A3002 RMK AO2 SFC VIS 6 SLP165 P0000 T00670061,0,7.0,0,3218,0,0,1,"BR,DZ,FC"
2026-04-19 00:54:00,METAR KBOS 190054Z 06009KT 2SM -DZ BR OVC004 07/06 A3003 RMK AO2 SFC VIS 6 SLP168 P0000 T00670061,0,9.0,0,3218,0,0,1,"BR,DZ,FC"
2026-04-18 23:54:00,METAR KBOS 182354Z 06009KT 2SM -DZ BR OVC004 07/06 A3003 RMK AO2 SFC VIS 6 DZB49 SLP169 P0000 60000 T00670061 10094 20067 58014,0,9.0,0,3218,0,0,1,"BR,DZ,FC"
2026-04-18 23:31:00,SPECI KBOS 182331Z 06009KT 2SM BR OVC004 07/06 A3004 RMK AO2 T00670061,0,9.0,0,3218,0,0,1,BR
2026-04-18 22:54:00,METAR KBOS 182254Z 06009KT 1 1/2SM BR OVC003 07/06 A3005 RMK AO2 TWR VIS 2 SLP175 T00670061,0,9.0,0,2414,0,0,1,BR
2026-04-18 22:43:00,SPECI KBOS 182243Z 06011KT 1 1/2SM BR OVC003 07/06 A3005 RMK AO2 TWR VIS 2 T00670061,0,11.0,0,2414,0,0,1,BR
2026-04-18 22:41:00,SPECI KBOS 182241Z 07011KT 1SM R04R/P6000FT BR OVC003 07/06 A3005 RMK AO2 TWR VIS 2 T00670061,0,11.0,0,1609,0,0,1,BR
2026-04-18 22:31:00,SPECI KBOS 182231Z 07010KT 3/4SM R04R/P6000FT BR OVC003 07/06 A3005 RMK AO2 SFC VIS 1 T00670061,0,10.0,0,1207,0,0,1,"BR,FC"
2026-04-18 22:00:00,SPECI KBOS 182200Z 06011KT 1 1/4SM BR BKN003 OVC008 07/06 A3006 RMK AO2 T00670061,0,11.0,0,2011,0,0,1,BR
2026-04-18 21:54:00,METAR KBOS 182154Z 07009KT 1 1/2SM BR BKN005 OVC008 07/06 A3007 RMK AO2 SLP181 T00720061,0,9.0,0,2414,0,0,1,BR
2026-04-18 21:48:00,SPECI KBOS 182148Z 07009KT 2SM BR BKN005 BKN008 OVC013 07/06 A3007 RMK AO2,0,9.0,0,3218,0,0,1,BR
2026-04-18 20:54:00,METAR KBOS 182054Z 07011KT 6SM BR BKN006 OVC016 08/06 A3009 RMK AO2 SLP187 T00780056 58015,0,11.0,0,9654,0,0,1,BR
2026-04-18 20:41:00,SPECI KBOS 182041Z 07011KT 9SM BR BKN006 OVC016 08/06 A3009 RMK AO2 T00780061,0,11.0,0,14481,0,0,1,BR
2026-04-18 19:54:00,METAR KBOS 181954Z 08013KT 10SM FEW008 OVC024 09/06 A3010 RMK AO2 SLP191 T00890061,0,13.0,0,16090,0,0,0,
2026-04-18 18:54:00,METAR KBOS 181854Z 07013KT 10SM OVC027 09/06 A3012 RMK AO2 SLP200 T00890061,0,13.0,0,16090,0,0,0,
2026-04-18 18:30:00,SPECI KBOS 181830Z 07011KT 10SM OVC027 09/06 A3013 RMK AO2 T00890056,0,11.0,0,16090,0,0,0,
2026-04-18 17:54:00,METAR KBOS 181754Z 06015KT 10SM SCT027 OVC041 09/06 A3013 RMK AO2 SLP203 BINOVC NW T00940056 10106 20083 58013,0,15.0,0,16090,0,0,0,VC
2026-04-18 17:43:00,SPECI KBOS 181743Z 07015G23KT 10SM SCT024 OVC041 09/06 A3013 RMK AO2 CIG 032 E T00940061,0,15.0,1,16090,0,0,0,
2026-04-18 17:01:00,SPECI KBOS 181701Z 07015KT 10SM OVC022 09/06 A3015 RMK AO2 T00940061,0,15.0,0,16090,0,0,0,
2026-04-18 16:54:00,METAR KBOS 181654Z 06015KT 10SM FEW008 FEW015 BKN035 09/06 A3015 RMK AO2 SLP209 T00940061,0,15.0,0,16090,0,0,0,
2026-04-18 15:54:00,METAR KBOS 181554Z 06014KT 10SM FEW006 SCT013 BKN030 10/07 A3017 RMK AO2 SLP214 T01000067,0,14.0,0,16090,0,0,0,
2026-04-18 15:06:00,SPECI KBOS 181506Z 06014KT 10SM SCT003 OVC013 09/07 A3017 RMK AO2 T00940072,0,14.0,0,16090,0,0,0,
2026-04-18 14:54:00,METAR KBOS 181454Z 05013KT 10SM BKN003 OVC013 09/08 A3017 RMK AO2 SLP215 T00890078 53012,0,13.0,0,16090,0,0,0,
2026-04-18 13:54:00,METAR KBOS 181354Z 05013KT 3SM BR OVC003 09/08 A3016 RMK AO2 SLP211 T00890083,0,13.0,0,4827,0,0,1,BR
2026-04-18 12:54:00,METAR KBOS 181254Z 05012KT 3SM BR BKN003 OVC006 09/08 A3014 RMK AO2 SLP204 T00890083,0,12.0,0,4827,0,0,1,BR
2026-04-18 11:54:00,METAR KBOS 181154Z 05013KT 3SM BR BKN003 OVC006 09/09 A3013 RMK AO2 SLP203 P0001 60001 70001 T00940089 10100 20078 50014,0,13.0,0,4827,0,0,1,BR
2026-04-18 11:52:00,SPECI KBOS 181152Z 05012KT 3SM BR BKN003 OVC006 09/09 A3013 RMK AO2 P0001,0,12.0,0,4827,0,0,1,BR
2026-04-18 10:54:00,METAR KBOS 181054Z 04009KT 2SM BR BKN007 OVC010 10/09 A3014 RMK AO2 RAB13E18 SLP205 P0000 T01000094,0,9.0,0,3218,0,0,1,"BR,RA"
2026-04-18 10:34:00,SPECI KBOS 181034Z 02007KT 2SM BR FEW007 OVC009 10/09 A3014 RMK AO2 RAB13E18 P0000 T01000094,0,7.0,0,3218,0,0,1,"BR,RA"
2026-04-18 10:15:00,SPECI KBOS 181015Z 36006KT 2 1/2SM -RA BR FEW007 OVC012 10/09 A3013 RMK AO2 RAB13 P0000 T01000089,0,6.0,0,4022,0,0,1,"-RA,BR"
2026-04-18 09:54:00,METAR KBOS 180954Z 35006KT 10SM OVC013 10/09 A3011 RMK AO2 SLP196 T01000089,0,6.0,0,16090,0,0,0,
2026-04-18 09:08:00,SPECI KBOS 180908Z 01006KT 6SM BR BKN010 OVC015 09/08 A3009 RMK AO2 T00940083,0,6.0,0,9654,0,0,1,BR
2026-04-18 08:54:00,METAR KBOS 180854Z 03007KT 10SM OVC016 09/08 A3009 RMK AO2 SLP189 T00940083 53008,0,7.0,0,16090,0,0,0,
2026-04-18 08:44:00,SPECI KBOS 180844Z 06008KT 10SM BKN016 09/08 A3009 RMK AO2 PRESRR T00890078,0,8.0,0,16090,0,0,0,
2026-04-18 07:54:00,METAR KBOS 180754Z 05004KT 10SM CLR 08/07 A3004 RMK SLP170 T00780067,0,4.0,0,16090,0,0,0,
2026-04-18 06:54:00,METAR KBOS 180654Z 33007KT 10SM CLR 10/08 A3007 RMK AO2 SLP183 T01000083,0,7.0,0,16090,0,0,0,
2026-04-18 05:54:00,METAR KBOS 180554Z 33004KT 10SM CLR 09/08 A3007 RMK SLP181 T00940083 10111 20083 51005,0,4.0,0,16090,0,0,0,
2026-04-18 04:54:00,METAR KBOS 180454Z 00000KT 10SM CLR 09/08 A3006 RMK AO2 SLP179 T00890083 401390083,0,0.0,0,16090,0,0,0,
2026-04-18 03:54:00,METAR KBOS 180354Z 09004KT 10SM CLR 09/08 A3006 RMK AO2 SLP178 T00940083,0,4.0,0,16090,0,0,0,
2026-04-18 02:54:00,METAR KBOS 180254Z 11003KT 10SM CLR 10/08 A3005 RMK AO2 SLP176 T01000078 51016,0,3.0,0,16090,0,0,0,
2026-04-18 01:54:00,METAR KBOS 180154Z 00000KT 10SM CLR 11/08 A3005 RMK AO2 SLP174 T01060083,0,0.0,0,16090,0,0,0,
2026-04-18 00:54:00,METAR KBOS 180054Z 00000KT 10SM CLR 10/08 A3003 RMK AO2 SLP170 T01000083,0,0.0,0,16090,0,0,0,
2026-04-17 23:54:00,METAR KBOS 172354Z 14003KT 10SM FEW100 11/09 A3000 RMK AO2 SLP160 60000 T01060089 10139 20106 51016,0,3.0,0,16090,0,0,0,
2026-04-17 22:54:00,METAR KBOS 172254Z 14003KT 10SM FEW070 SCT100 SCT220 11/09 A2999 RMK AO2 SLP154 T01110089,0,3.0,0,16090,0,0,0,
2026-04-17 21:54:00,METAR KBOS 172154Z 13003KT 10SM FEW070 BKN090 BKN150 12/09 A2997 RMK AO2 RAB06E16 SLP149 P0000 T01170089,0,3.0,0,16090,0,0,0,RA
2026-04-17 20:54:00,METAR KBOS 172054Z 08007KT 10SM FEW070 BKN100 BKN150 12/09 A2996 RMK AO2 SLP143 T01170094 53014,0,7.0,0,16090,0,0,0,
2026-04-17 20:43:00,SPECI KBOS 172043Z 08007KT 10SM FEW070 BKN100 BKN150 12/09 A2995 RMK AO2 T01170094,0,7.0,0,16090,0,0,0,
2026-04-17 20:13:00,SPECI KBOS 172013Z 12006KT 10SM BKN022 BKN065 BKN095 BKN200 12/09 A2994 RMK AO2 T01220094,0,6.0,0,16090,0,0,0,
2026-04-17 19:54:00,METAR KBOS 171954Z 09003KT 10SM FEW015 BKN060 BKN200 13/10 A2993 RMK AO2 SLP136 T01330100,0,3.0,0,16090,0,0,0,
2026-04-17 19:16:00,SPECI KBOS 171916Z 06009KT 10SM BKN015 BKN042 OVC049 13/10 A2993 RMK AO2 T01330100,0,9.0,0,16090,0,0,0,
2026-04-17 18:54:00,METAR KBOS 171854Z 05009KT 3SM BR OVC014 13/11 A2993 RMK AO2 SLP134 T01280106,0,9.0,0,4827,0,0,1,BR
2026-04-17 18:36:00,SPECI KBOS 171836Z 04008KT 2SM BR BKN012 OVC031 13/11 A2992 RMK AO2 T01330111,0,8.0,0,3218,0,0,1,BR
2026-04-17 18:04:00,SPECI KBOS 171804Z 04010KT 3SM OVC010 13/11 A2992 RMK AO2 SFC VIS 8 T01280111,0,10.0,0,4827,0,0,0,FC
2026-04-17 17:57:00,SPECI KBOS 171757Z 03011KT 3SM BR BKN009 OVC017 13/11 A2992 RMK AO2 T01330111,0,11.0,0,4827,0,0,1,BR
2026-04-17 17:54:00,METAR KBOS 171754Z 03011KT 2 1/2SM BR BKN009 OVC017 13/11 A2991 RMK AO2 TWR VIS 3 SLP129 60000 T01280111 10139 20106 51021,0,11.0,0,4022,0,0,1,BR
2026-04-17 17:34:00,SPECI KBOS 171734Z 03010KT 2SM BR OVC009 12/11 A2991 RMK AO2 TWR VIS 3 T01220106,0,10.0,0,3218,0,0,1,BR
2026-04-17 17:24:00,SPECI KBOS 171724Z 02008KT 1 1/2SM BR OVC009 12/11 A2991 RMK AO2 T01170106,0,8.0,0,2414,0,0,1,BR
2026-04-17 16:54:00,METAR KBOS 171654Z 04008KT 6SM BR OVC009 13/11 A2990 RMK AO2 SLP124 T01280111,0,8.0,0,9654,0,0,1,BR
2026-04-17 16:16:00,SPECI KBOS 171616Z VRB04KT 10SM OVC008 13/11 A2989 RMK AO2 T01280111,0,4.0,0,16090,0,0,0,
2026-04-17 15:54:00,METAR KBOS 171554Z 05009KT 9SM OVC013 12/10 A2988 RMK AO2 SLP118 T01170100,0,9.0,0,14481,0,0,0,
2026-04-17 15:45:00,SPECI KBOS 171545Z 06009KT 9SM OVC014 11/10 A2988 RMK AO2 T01110100,0,9.0,0,14481,0,0,0,
2026-04-17 14:54:00,METAR KBOS 171454Z 08004KT 6SM BR BKN021 OVC026 13/12 A2985 RMK AO2 SLP108 60000 T01330117 51020,0,4.0,0,9654,0,0,1,BR
2026-04-17 13:54:00,METAR KBOS 171354Z 14005KT 10SM BKN022 OVC029 11/10 A2985 RMK AO2 RAB1258E00 SLP106 P0000 T01110100,0,5.0,0,16090,0,0,0,RA
2026-04-17 13:36:00,SPECI KBOS 171336Z 00000KT 10SM BKN024 OVC029 13/11 A2983 RMK AO2 RAB1258E00 P0000 T01330111,0,0.0,0,16090,0,0,0,RA
2026-04-17 12:54:00,METAR KBOS 171254Z 00000KT 10SM FEW027 BKN160 OVC200 12/11 A2981 RMK AO2 RAE01B20E31 SLP093 BINOVC P0000 T01170106,0,0.0,0,16090,0,0,0,"RA,VC"
2026-04-17 11:54:00,METAR KBOS 171154Z 11004KT 8SM -RA FEW080 OVC100 11/09 A2979 RMK AO2 SLP088 P0008 60008 70008 T01060094 10111 20083 50016,0,4.0,0,12872,0,0,0,-RA
2026-04-17 10:54:00,METAR KBOS 171054Z 00000KT 9SM -RA FEW080 OVC110 10/08 A2980 RMK AO2 RAB16 SLP090 P0000 T01000083,0,0.0,0,14481,0,0,0,-RA
2026-04-17 09:54:00,METAR KBOS 170954Z 03003KT 10SM FEW070 OVC110 09/08 A2976 RMK AO2 SLP076 T00890078,0,3.0,0,16090,0,0,0,
2026-04-17 08:54:00,METAR KBOS 170854Z 11003KT 10SM FEW070 09/08 A2975 RMK AO2 SLP072 T00890078 58004,0,3.0,0,16090,0,0,0,
2026-04-17 07:54:00,METAR KBOS 170754Z 10007KT 6SM BR SCT070 09/08 A2976 RMK AO2 SLP076 T00890078,0,7.0,0,9654,0,0,1,BR
2026-04-17 06:54:00,METAR KBOS 170654Z 10006KT 6SM BR FEW003 10/09 A2975 RMK AO2 SLP074 T01000089,0,6.0,0,9654,0,0,1,BR
2026-04-17 05:54:00,METAR KBOS 170554Z 14004KT 6SM BR FEW003 FEW120 11/09 A2976 RMK AO2 SLP076 T01110089 10128 20072 53013,0,4.0,0,9654,0,0,1,BR
2026-04-17 04:54:00,METAR KBOS 170454Z 34006G22KT 5SM BR FEW003 11/09 A2976 RMK AO2 SLP076 T01060094 401220072,0,6.0,1,8045,0,0,1,BR
2026-04-17 03:54:00,METAR KBOS 170354Z 00000KT 5SM BR SCT003 07/07 A2971 RMK AO2 SLP061 T00720072,0,0.0,0,8045,0,0,1,BR
2026-04-17 03:25:00,SPECI KBOS 170325Z 00000KT 3SM R04R/3500VP6000FT BR SCT002 07/07 A2972 RMK AO2 T00720072,0,0.0,0,4827,0,0,1,BR
2026-04-17 03:17:00,SPECI KBOS 170317Z 00000KT 1SM R04R/4000VP6000FT BR SCT002 07/07 A2972 RMK AO2 SFC VIS 3 T00720072,0,0.0,0,1609,0,0,1,"BR,FC"
2026-04-17 02:54:00,METAR KBOS 170254Z 00000KT 1SM R04R/4500VP6000FT BR BKN002 07/07 A2972 RMK AO2 SFC VIS 2 SLP064 VIS E 1 T00720072 58017,0,0.0,0,1609,0,0,1,"BR,FC"
2026-04-17 01:54:00,METAR KBOS 170154Z 08004KT 1SM R04R/P6000FT BR OVC002 08/07 A2976 RMK AO2 SFC VIS 2 SLP075 T00780072,0,4.0,0,1609,0,0,1,"BR,FC"
2026-04-17 00:54:00,METAR KBOS 170054Z 02008KT 1/2SM R04R/P6000FT BR OVC002 07/07 A2977 RMK AO2 SFC VIS 1 SLP081 T00720072,0,8.0,0,804,0,0,1,"BR,FC"
2026-04-16 23:54:00,METAR KBOS 162354Z 07009KT 1/2SM R04R/2800V5000FT FG VV002 07/07 A2977 RMK AO2 SLP080 T00720072 10117 20072 55013,0,9.0,0,804,0,0,1,FG
2026-04-16 22:54:00,METAR KBOS 162254Z 09012KT 1/2SM R04R/6000VP6000FT FG OVC002 08/07 A2977 RMK AO2 SLP079 T00780072,0,12.0,0,804,0,0,1,FG
2026-04-16 21:54:00,METAR KBOS 162154Z 08009KT 1/2SM R04R/P6000FT BR OVC003 08/08 A2979 RMK AO2 SFC VIS 3/4 SLP087 T00830078,0,9.0,0,804,0,0,1,"BR,FC"
2026-04-16 21:07:00,SPECI KBOS 162107Z 08009KT 1/2SM R04R/4000VP6000FT BR OVC002 09/08 A2981 RMK AO2 SFC VIS 2 VIS NE-SE 3/4 T00890078,0,9.0,0,804,0,0,1,"BR,FC"
2026-04-16 20:54:00,METAR KBOS 162054Z 08009KT 1 1/4SM BR OVC002 09/08 A2981 RMK AO2 SFC VIS 2 SLP093 VIS NE-SE 1 T00890078 56022,0,9.0,0,2011,0,0,1,"BR,FC"
2026-04-16 20:10:00,SPECI KBOS 162010Z 07009KT 1 1/4SM R04R/3500VP6000FT BR OVC003 09/08 A2982 RMK AO2 SFC VIS 2 VIS NE-SE 3/4 T00940083,0,9.0,0,2011,0,0,1,"BR,FC"
2026-04-16 19:54:00,METAR KBOS 161954Z 07009KT 1/4SM R04R/P6000FT BR OVC004 10/09 A2982 RMK AO2 SFC VIS 3/4 SLP097 T01000089,0,9.0,0,402,0,0,1,"BR,FC"
2026-04-16 19:42:00,SPECI KBOS 161942Z 08009KT 1/4SM R04R/P6000FT BR OVC004 10/08 A2982 RMK AO2 SFC VIS 3/4 T01000083,0,9.0,0,402,0,0,1,"BR,FC"
2026-04-16 19:17:00,SPECI KBOS 161917Z 08009KT 3/4SM R04R/P6000FT BR OVC003 12/09 A2984 RMK AO2 SFC VIS 2 T01170094,0,9.0,0,1207,0,0,1,"BR,FC"
2026-04-16 19:08:00,SPECI KBOS 161908Z 09010KT 2SM BR OVC004 11/09 A2984 RMK AO2 T01110094,0,10.0,0,3218,0,0,1,BR
2026-04-16 18:54:00,METAR KBOS 161854Z 10011KT 4SM BR BKN004 BKN250 11/09 A2985 RMK AO2 SLP107 VIS NE-SE-SW 2 T01110089,0,11.0,0,6436,0,0,1,BR
2026-04-16 17:54:00,METAR KBOS 161754Z 08008KT 5SM BR BKN004 BKN250 11/09 A2987 RMK AO2 SLP115 VIS NE-SE-SW 1 T01110089 10122 20089 58016,0,8.0,0,8045,0,0,1,BR
2026-04-16 17:34:00,SPECI KBOS 161734Z 09009KT 6SM BR BKN004 BKN250 11/09 A2988 RMK AO2 VIS NE-S 1 T01110089,0,9.0,0,9654,0,0,1,BR
2026-04-16 16:54:00,METAR KBOS 161654Z 07010KT 6SM BR FEW002 FEW013 FEW120 FEW250 12/10 A2989 RMK AO2 SLP120 T01170100,0,10.0,0,9654,0,0,1,BR
2026-04-16 16:27:00,SPECI KBOS 161627Z COR 09008KT 1 1/2SM BR FEW002 SCT013 SCT090 SCT250 11/09 A2990 RMK AO2 SFC VIS 6 VIS NE-SE 2 1/2 T01110094,0,8.0,0,2414,0,0,1,"BR,FC"
2026-04-16 15:54:00,METAR KBOS 161554Z 07007KT 3/4SM R04R/P6000FT BR BKN004 BKN013 BKN090 BKN250 11/09 A2991 RMK AO2 SFC VIS 6 SLP128 VIS NE-SE 3/4 T01110094,0,7.0,0,1207,0,0,1,"BR,FC"
2026-04-16 15:32:00,SPECI KBOS 161532Z 09005KT 3/4SM R04R/3500VP6000FT BR BKN004 BKN010 BKN090 11/09 A2992 RMK AO2 SFC VIS 6 VIS NE-SE 1 T01110094,0,5.0,0,1207,0,0,1,"BR,FC"
2026-04-16 14:54:00,METAR KBOS 161454Z 12006KT 1 1/4SM BR BKN004 OVC010 10/09 A2992 RMK AO2 SFC VIS 6 SLP132 VIS NE-SE 1 1/2 T01000089 50003,0,6.0,0,2011,0,0,1,"BR,FC"
2026-04-16 14:39:00,SPECI KBOS 161439Z VRB05KT 2SM BR BKN004 OVC010 11/09 A2993 RMK AO2 SFC VIS 6 VIS NE-SE 1 3/4 T01060089,0,5.0,0,3218,0,0,1,"BR,FC"
2026-04-16 14:33:00,SPECI KBOS 161433Z 13006KT 10SM FEW006 OVC010 11/09 A2992 RMK AO2 T01060089,0,6.0,0,16090,0,0,0,
2026-04-16 13:54:00,METAR KBOS 161354Z 12004KT 10SM OVC007 09/08 A2992 RMK AO2 SLP132 T00940083,0,4.0,0,16090,0,0,0,
2026-04-16 12:54:00,METAR KBOS 161254Z 12004KT 10SM OVC006 09/08 A2992 RMK AO2 SLP131 T00940083,0,4.0,0,16090,0,0,0,
2026-04-16 11:54:00,METAR KBOS 161154Z 09004KT 10SM OVC008 09/08 A2991 RMK AO2 SLP129 60029 70029 T00940083 10100 20083 51013,0,4.0,0,16090,0,0,0,
2026-04-16 10:54:00,METAR KBOS 161054Z 03004KT 10SM BKN006 OVC012 09/08 A2991 RMK AO2 SLP128 T00940083 $,0,4.0,0,16090,0,0,0,
2026-04-16 10:25:00,SPECI KBOS 161025Z 02005KT 10SM FEW005 OVC012 09/08 A2988 RMK AO2 T00940083 $,0,5.0,0,16090,0,0,0,
2026-04-16 09:54:00,METAR KBOS 160954Z 02005KT 10SM FEW005 BKN110 OVC150 09/08 A2988 RMK AO2 RAE50 SLP116 P0001 T00940083 $,0,5.0,0,16090,0,0,0,
2026-04-16 08:54:00,METAR KBOS 160854Z 10006KT 7SM -RA FEW008 OVC100 09/09 A2987 RMK AO2 SLP112 P0012 60028 T00940089 58023 $,0,6.0,0,11263,0,0,0,-RA
2026-04-16 08:10:00,SPECI KBOS 160810Z VRB04KT 5SM -RA BR SCT007 SCT060 OVC090 09/09 A2995 RMK AO2 LTG DSNT SE AND S P0003 T00940089 $,0,4.0,0,8045,0,0,1,"-RA,BR,DS"
2026-04-16 07:54:00,METAR KBOS 160754Z 35010KT 6SM -RA BR BKN006 OVC090 09/08 A2991 RMK AO2 WSHFT 0700 LTG DSNT S RAE26B30 SLP129 P0006 T00940083 $,0,10.0,0,9654,0,0,1,"-RA,BR,DS,RA"
2026-04-16 07:44:00,SPECI KBOS 160744Z 31007KT 6SM -RA BR SCT004 BKN009 OVC085 09/08 A2994 RMK AO2 WSHFT 0700 LTG DSNT SW RAE26B30 P0006 T00940083 $,0,7.0,0,9654,0,0,1,"-RA,BR,DS,RA"
2026-04-16 07:28:00,SPECI KBOS 160728Z 04012KT 5SM BR BKN003 OVC090 09/08 A2990 RMK AO2 WSHFT 0700 RAE26 PRESRR P0006 T00890083 $,0,12.0,0,8045,0,0,1,BR
2026-04-16 07:16:00,SPECI KBOS 160716Z 04012G21KT 4SM -RA BR FEW003 OVC100 08/08 A2984 RMK AO2 WSHFT 0700 P0006 T00830078 $,0,12.0,1,6436,0,0,1,"-RA,BR"
2026-04-16 06:54:00,METAR KBOS 160654Z 12010KT 2 1/2SM +RA BR SCT009 OVC080 08/08 A2990 RMK AO2 LTG DSNT SE PRESFR SLP125 P0010 T00830083 $,0,10.0,0,4022,0,1,1,"+RA,BR,DS"
2026-04-16 06:47:00,SPECI KBOS 160647Z 13008KT 3SM +RA BR SCT009 OVC080 08/08 A2992 RMK AO2 LTG DSNT SE PRESFR P0007 T00830078 $,0,8.0,0,4827,0,1,1,"+RA,BR,DS"
2026-04-16 05:54:00,METAR KBOS 160554Z 32005KT 6SM -RA BR FEW003 OVC008 09/08 A2993 RMK AO2 LTG DSNT SW RAB32 SLP136 P0000 60000 T00940083 10094 20078 53001 $,0,5.0,0,9654,0,0,1,"-RA,BR,DS"
2026-04-16 04:54:00,METAR KBOS 160454Z 03008KT 4SM BR FEW002 OVC005 09/08 A2992 RMK AO2 SLP131 T00890078 402280078 $,0,8.0,0,6436,0,0,1,BR
2026-04-16 04:17:00,SPECI KBOS 160417Z 07007KT 5SM BR BKN006 OVC011 09/08 A2991 RMK AO2 T00890078 $,0,7.0,0,8045,0,0,1,BR
2026-04-16 03:54:00,METAR KBOS 160354Z 08004KT 3SM BR BKN003 OVC011 08/08 A2993 RMK AO2 SLP133 T00830078 $,0,4.0,0,4827,0,0,1,BR
2026-04-16 03:11:00,SPECI KBOS 160311Z 07003KT 3SM BR BKN004 OVC011 08/08 A2993 RMK AO2 VIS E-SE 1 1/2 T00830078 $,0,3.0,0,4827,0,0,1,BR
2026-04-16 02:54:00,METAR KBOS 160254Z 09004KT 1 1/2SM BR BKN002 OVC008 08/08 A2993 RMK AO2 SLP134 T00830078 50005 $,0,4.0,0,2414,0,0,1,BR
2026-04-16 02:28:00,SPECI KBOS 160228Z 03004KT 1SM R04R/P6000FT BR BKN002 OVC008 08/08 A2994 RMK AO2 VIS SW-NW 2 T00830078 $,0,4.0,0,1609,0,0,1,BR
2026-04-16 01:54:00,METAR KBOS 160154Z 04007KT 1/2SM R04R/P6000FT FG OVC002 08/08 A2994 RMK AO2 SLP138 T00780078 $,0,7.0,0,804,0,0,1,FG
2026-04-16 00:54:00,METAR KBOS 160054Z 05005KT 1/2SM R04R/P6000FT FG OVC002 08/08 A2993 RMK AO2 SLP135 T00830078 $,0,5.0,0,804,0,0,1,FG
2026-04-16 00:20:00,SPECI KBOS 160020Z 03008KT 1/2SM R04R/P6000FT FG OVC003 08/08 A2993 RMK AO2 T00830078 $,0,8.0,0,804,0,0,1,FG
2026-04-15 23:54:00,METAR KBOS 152354Z 03009KT 1SM R04R/P6000FT BR FEW001 OVC003 08/07 A2992 RMK AO2 SLP129 VIS E-SE 1 1/2 T00830072 10111 20083 53004 $,0,9.0,0,1609,0,0,1,BR
2026-04-15 23:34:00,SPECI KBOS 152334Z 05008KT 1SM R04R/P6000FT BR FEW001 OVC003 08/07 A2991 RMK AO2 T00830072 $,0,8.0,0,1609,0,0,1,BR
2026-04-15 23:15:00,SPECI KBOS 152315Z 05008KT 3/4SM R04R/P6000FT BR FEW001 OVC003 08/08 A2991 RMK AO2 T00830078 $,0,8.0,0,1207,0,0,1,BR
2026-04-15 22:54:00,METAR KBOS 152254Z 05010KT 1SM R04R/P6000FT BR OVC002 08/08 A2991 RMK AO2 SLP129 T00830078,0,10.0,0,1609,0,0,1,BR
2026-04-15 22:29:00,SPECI KBOS 152229Z 06010KT 2SM BR BKN003 OVC011 09/08 A2991 RMK AO2 TWR VIS 3 VIS NW 4 T00890078 $,0,10.0,0,3218,0,0,1,BR
2026-04-15 22:10:00,SPECI KBOS 152210Z 05009KT 6SM BR BKN003 OVC011 09/08 A2991 RMK AO2 VIS E-S 1 T00890078,0,9.0,0,9654,0,0,1,BR
2026-04-15 21:43:00,SPECI KBOS 152143Z 06010KT 3/4SM R04R/P6000FT BR BKN003 OVC011 09/08 A2990 RMK AO2 VIS W-NW 5 T00940083,0,10.0,0,1207,0,0,1,BR
2026-04-15 20:54:00,METAR KBOS 152054Z 03010KT 1 1/2SM BR BKN003 OVC011 10/09 A2990 RMK AO2 SLP125 VIS W-NW 3 T01000089 55009,0,10.0,0,2414,0,0,1,BR
2026-04-15 20:46:00,SPECI KBOS 152046Z 04009KT 1 1/2SM BR BKN003 OVC011 10/09 A2990 RMK AO2 VIS W-NW 4 T01000094,0,9.0,0,2414,0,0,1,BR
2026-04-15 20:12:00,SPECI KBOS 152012Z 04009KT 5SM BR BKN003 OVC011 11/09 A2989 RMK AO2 VIS NE-SE 2 T01060089,0,9.0,0,8045,0,0,1,BR
2026-04-15 20:01:00,SPECI KBOS 152001Z 06009KT 2SM BR BKN002 OVC009 10/09 A2989 RMK AO2 VIS SW-NW 5 T01000089,0,9.0,0,3218,0,0,1,BR
2026-04-15 19:54:00,METAR KBOS 151954Z 05010KT 1SM R04R/P6000FT BR BKN002 OVC008 11/09 A2990 RMK AO2 SLP123 T01060089,0,10.0,0,1609,0,0,1,BR
2026-04-15 19:36:00,SPECI KBOS 151936Z 06009KT 1/2SM R04R/P6000FT FG OVC002 10/09 A2990 RMK AO2 T01000089,0,9.0,0,804,0,0,1,FG
2026-04-15 19:25:00,SPECI KBOS 151925Z 06008KT 1/4SM R04R/P6000FT FG OVC002 11/09 A2990 RMK AO2 T01060094,0,8.0,0,402,0,0,1,FG
2026-04-15 19:15:00,SPECI KBOS 151915Z 09009KT 1/2SM R04R/1800VP6000FT FG OVC003 11/09 A2990 RMK AO2 T01060094,0,9.0,0,804,0,0,1,FG
2026-04-15 19:03:00,SPECI KBOS 151903Z 10009KT 1/2SM R04R/1000V1400FT FG OVC003 11/09 A2990 RMK AO2 T01060089,0,9.0,0,804,0,0,1,FG
2026-04-15 18:54:00,METAR KBOS 151854Z 11013KT 1/2SM R04R/1200V2400FT FG OVC003 11/09 A2990 RMK AO2 SLP124 T01110094,0,13.0,0,804,0,0,1,FG
2026-04-15 18:26:00,SPECI KBOS 151826Z 09013KT 1/4SM R04R/2400V4500FT FG OVC002 12/11 A2990 RMK AO2 T01220106,0,13.0,0,402,0,0,1,FG
2026-04-15 17:54:00,METAR KBOS 151754Z 12010KT 1/2SM R04R/2000V2800FT FG OVC003 10/09 A2993 RMK AO2 SLP134 T01000089 10228 20100 50003,0,10.0,0,804,0,0,1,FG
2026-04-15 16:54:00,METAR KBOS 151654Z 09010KT 1/2SM R04R/P6000FT FG OVC002 11/09 A2993 RMK AO2 SLP136 VIS SW-NW 10 T01110094,0,10.0,0,804,0,0,1,FG
2026-04-15 16:27:00,SPECI KBOS 151627Z 07012KT 1SM R04R/P6000FT BR BKN002 BKN200 BKN250 11/09 A2993 RMK AO2 VIS SW-NW 10 T01110094,0,12.0,0,1609,0,0,1,BR
2026-04-15 16:19:00,SPECI KBOS 151619Z 06013KT 1 1/2SM BR SCT003 SCT050 BKN200 BKN250 12/09 A2993 RMK AO2 VIS SW-NW 10 T01170094,0,13.0,0,2414,0,0,1,BR
2026-04-15 15:54:00,METAR KBOS 151554Z 06016KT 10SM FEW001 FEW050 SCT200 BKN250 12/10 A2992 RMK AO2 SLP133 VIS NE-SE 1 3/4 T01170100,0,16.0,0,16090,0,0,0,
2026-04-15 15:47:00,SPECI KBOS 151547Z 06016KT 10SM FEW001 FEW050 SCT200 BKN250 12/09 A2992 RMK AO2 VIS NE-SE 1 3/4 T01170094,0,16.0,0,16090,0,0,0,
2026-04-15 14:54:00,METAR KBOS 151454Z 11004KT 10SM FEW050 BKN250 19/13 A2992 RMK AO2 SLP132 T01940128 53009,0,4.0,0,16090,0,0,0,
2026-04-15 13:54:00,METAR KBOS 151354Z 30007KT 10SM FEW050 SCT250 22/13 A2990 RMK AO2 SLP126 T02220133,0,7.0,0,16090,0,0,0,
2026-04-15 12:54:00,METAR KBOS 151254Z 25006KT 10SM SCT250 21/13 A2988 RMK AO2 SLP116 T02110133,0,6.0,0,16090,0,0,0,
2026-04-15 11:54:00,METAR KBOS 151154Z 00000KT 10SM BKN250 16/12 A2989 RMK AO2 SLP122 70020 T01560122 10194 20106 51025,0,0.0,0,16090,0,0,0,
2026-04-15 10:54:00,METAR KBOS 151054Z 08004KT 10SM FEW120 BKN220 12/10 A2989 RMK AO2 SLP120 T01170100,0,4.0,0,16090,0,0,0,
2026-04-15 09:54:00,METAR KBOS 150954Z 26009KT 10SM SCT200 19/13 A2984 RMK AO2 SLP105 T01940133,0,9.0,0,16090,0,0,0,
2026-04-15 08:54:00,METAR KBOS 150854Z 27008KT 10SM FEW200 19/14 A2982 RMK AO2 SLP097 T01890144 58000,0,8.0,0,16090,0,0,0,
2026-04-15 07:54:00,METAR KBOS 150754Z 27008KT 10SM FEW070 SCT200 19/15 A2983 RMK AO2 SLP099 T01890150,0,8.0,0,16090,0,0,0,
2026-04-15 06:54:00,METAR KBOS 150654Z 27009KT 10SM FEW070 SCT200 19/15 A2982 RMK AO2 SLP097 T01890150,0,9.0,0,16090,0,0,0,
2026-04-15 05:54:00,METAR KBOS 150554Z 25011KT 10SM SCT070 19/15 A2982 RMK AO2 SLP097 60020 T01890150 10211 20139 56005,0,11.0,0,16090,0,0,0,
2026-04-15 04:54:00,METAR KBOS 150454Z 23010KT 10SM SCT070 18/16 A2983 RMK AO2 SLP100 T01780156 402560139,0,10.0,0,16090,0,0,0,
2026-04-15 03:54:00,METAR KBOS 150354Z 12004KT 7SM FEW040 BKN080 14/14 A2983 RMK AO2 SLP099 T01440139,0,4.0,0,11263,0,0,0,
2026-04-15 02:54:00,METAR KBOS 150254Z 20006KT 10SM SCT040 BKN070 BKN095 16/15 A2984 RMK AO2 RAE01 SLP103 P0000 60020 T01610150 51023,0,6.0,0,16090,0,0,0,
2026-04-15 01:54:00,METAR KBOS 150154Z COR 15010KT 6SM -RA BR SCT040 BKN095 OVC110 15/14 A2983 RMK AO2 WSHFT 0041 SLP102 P0016 T01500139,0,10.0,0,9654,0,0,1,"-RA,BR"
2026-04-15 01:13:00,SPECI KBOS 150113Z 26008KT 5SM -RA BR SCT043 BKN055 OVC110 18/17 A2988 RMK AO2 WSHFT 0041 P0011 T01830167,0,8.0,0,8045,0,0,1,"-RA,BR"
2026-04-15 01:01:00,SPECI KBOS 150101Z 30007G20KT 2 1/2SM +RA BR BKN042 BKN055 OVC080 19/16 A2988 RMK AO2 WSHFT 0041 P0005 T01890161,0,7.0,1,4022,0,1,1,"+RA,BR"
2026-04-15 00:54:00,METAR KBOS 150054Z 32013G22KT 2SM +RA BR SCT040 BKN050 OVC110 19/16 A2989 RMK AO2 WSHFT 0039 RAB44 SLP121 P0004 T01940156,0,13.0,1,3218,0,1,1,"+RA,BR"
2026-04-14 23:54:00,METAR KBOS 142354Z 19013KT 10SM FEW060 BKN160 BKN250 19/12 A2977 RMK AO2 SLP080 T01890122 10256 20156 55002,0,13.0,0,16090,0,0,0,
2026-04-14 22:54:00,METAR KBOS 142254Z 19014G22KT 10SM FEW065 FEW110 SCT220 BKN250 21/12 A2976 RMK AO2 SLP076 T02110122,0,14.0,1,16090,0,0,0,
2026-04-14 21:54:00,METAR KBOS 142154Z 19020G28KT 10SM FEW065 FEW100 BKN250 22/13 A2977 RMK AO2 PK WND 18031/2132 SLP080 T02220128,0,20.0,1,16090,0,0,0,
2026-04-14 20:54:00,METAR KBOS 142054Z 19020G31KT 10SM FEW065 FEW100 BKN250 24/13 A2978 RMK AO2 PK WND 19031/2047 SLP082 T02440133 58039,0,20.0,1,16090,0,0,0,
2026-04-14 19:54:00,METAR KBOS 141954Z 11011KT 10SM FEW065 SCT090 BKN250 17/11 A2982 RMK AO2 PK WND 10031/1900 SLP099 T01670106,0,11.0,0,16090,0,0,0,
2026-04-14 18:54:00,METAR KBOS 141854Z 11022KT 10SM SCT065 BKN080 18/12 A2986 RMK AO2 PK WND 11028/1843 SLP111 T01780117,0,22.0,0,16090,0,0,0,
2026-04-14 17:54:00,METAR KBOS 141754Z 10018KT 10SM FEW050 FEW120 SCT250 19/12 A2989 RMK AO2 SLP122 T01940122 10244 20189 56030,0,18.0,0,16090,0,0,0,
2026-04-14 16:54:00,METAR KBOS 141654Z 11010KT 10SM CLR 24/13 A2991 RMK AO2 SLP129 T02440133,0,10.0,0,16090,0,0,0,
2026-04-14 15:54:00,METAR KBOS 141554Z 00000KT 10SM FEW050 FEW120 BKN250 24/12 A2995 RMK AO2 SLP143 T02390122,0,0.0,0,16090,0,0,0,
2026-04-14 14:54:00,METAR KBOS 141454Z 26007KT 10SM FEW080 BKN250 23/13 A2998 RMK AO2 SLP151 T02280128 50003,0,7.0,0,16090,0,0,0,
2026-04-14 13:54:00,METAR KBOS 141354Z 29009KT 10SM FEW120 BKN250 22/12 A2998 RMK AO2 SLP152 T02220122,0,9.0,0,16090,0,0,0,
2026-04-14 12:54:00,METAR KBOS 141254Z 28007KT 10SM BKN250 21/13 A2998 RMK AO2 SLP153 T02110133,0,7.0,0,16090,0,0,0,
2026-04-14 11:54:00,METAR KBOS 141154Z 26008KT 10SM BKN220 19/13 A2997 RMK AO2 SLP148 T01940133 10194 20172 51015,0,8.0,0,16090,0,0,0,
2026-04-14 10:54:00,METAR KBOS 141054Z 26006KT 10SM BKN220 18/13 A2996 RMK AO2 SLP146 T01830133,0,6.0,0,16090,0,0,0,
2026-04-14 09:54:00,METAR KBOS 140954Z 27007KT 10SM FEW140 BKN250 18/13 A2994 RMK AO2 SLP139 T01780128,0,7.0,0,16090,0,0,0,
2026-04-14 08:54:00,METAR KBOS 140854Z 27010KT 10SM FEW120 BKN250 18/13 A2993 RMK AO2 SLP133 T01830128 53004,0,10.0,0,16090,0,0,0,
2026-04-14 07:54:00,METAR KBOS 140754Z 26011KT 10SM FEW250 18/13 A2992 RMK AO2 SLP130 T01830133,0,11.0,0,16090,0,0,0,
2026-04-14 06:54:00,METAR KBOS 140654Z 26013KT 10SM CLR 19/13 A2990 RMK AO2 SLP126 T01890128,0,13.0,0,16090,0,0,0,
2026-04-14 05:54:00,METAR KBOS 140554Z 26013G19KT 10SM CLR 19/13 A2992 RMK AO2 SLP129 T01940133 10206 20167 50006,0,13.0,1,16090,0,0,0,
2026-04-14 04:54:00,METAR KBOS 140454Z 23011KT 10SM FEW250 18/13 A2992 RMK AO2 SLP130 T01780128 402220067,0,11.0,0,16090,0,0,0,
2026-04-14 03:54:00,METAR KBOS 140354Z 21010KT 10SM FEW070 17/13 A2991 RMK AO2 SLP127 T01670128,0,10.0,0,16090,0,0,0,
2026-04-14 02:54:00,METAR KBOS 140254Z 22012KT 10SM FEW070 17/12 A2990 RMK AO2 SLP123 T01720122 50016,0,12.0,0,16090,0,0,0,
2026-04-14 01:54:00,METAR KBOS 140154Z 21010KT 10SM FEW065 17/12 A2990 RMK AO2 SLP124 T01720122,0,10.0,0,16090,0,0,0,
2026-04-14 00:54:00,METAR KBOS 140054Z 20010KT 10SM FEW080 17/12 A2988 RMK AO2 SLP119 T01670117,0,10.0,0,16090,0,0,0,
2026-04-13 23:54:00,METAR KBOS 132354Z 22009KT 10SM FEW110 21/12 A2985 RMK AO2 SLP108 T02060122 10222 20178 53015,0,9.0,0,16090,0,0,0,
2026-04-13 22:54:00,METAR KBOS 132254Z 24011KT 10SM FEW140 FEW250 22/12 A2982 RMK AO2 PK WND 26029/2215 SLP098 T02170117,0,11.0,0,16090,0,0,0,
2026-04-13 21:54:00,METAR KBOS 132154Z 22013KT 10SM SCT140 BKN250 21/12 A2981 RMK AO2 SLP093 T02110117,0,13.0,0,16090,0,0,0,
2026-04-13 20:54:00,METAR KBOS 132054Z 21015G24KT 10SM FEW070 FEW110 BKN140 BKN250 20/12 A2981 RMK AO2 SLP093 T02000117 56026,0,15.0,1,16090,0,0,0,
2026-04-13 19:54:00,METAR KBOS 131954Z 22014G22KT 10SM BKN110 OVC180 20/12 A2983 RMK AO2 SLP099 BINOVC T02000117,0,14.0,1,16090,0,0,0,VC
2026-04-13 18:54:00,METAR KBOS 131854Z 21016G26KT 10SM FEW030 BKN140 BKN180 19/12 A2985 RMK AO2 PK WND 22030/1803 SLP107 T01890117,0,16.0,1,16090,0,0,0,
2026-04-13 17:54:00,METAR KBOS 131754Z 21018G25KT 10SM FEW030 BKN150 18/12 A2988 RMK AO2 PK WND 23029/1702 SLP119 T01780117 10183 20111 58042,0,18.0,1,16090,0,0,0,
2026-04-13 16:54:00,METAR KBOS 131654Z 21020G29KT 10SM FEW021 BKN150 OVC200 17/12 A2993 RMK AO2 PK WND 21029/1651 SLP133 T01670117,0,20.0,1,16090,0,0,0,
2026-04-13 15:54:00,METAR KBOS 131554Z 22018G25KT 10SM SCT021 OVC150 17/11 A2997 RMK AO2 PK WND 21028/1530 SLP148 T01670111,0,18.0,1,16090,0,0,0,
2026-04-13 15:14:00,SPECI KBOS 131514Z 22018G26KT 10SM SCT019 BKN190 BKN200 16/11 A2998 RMK AO2 PK WND 23028/1502 T01610106,0,18.0,1,16090,0,0,0,
2026-04-13 14:54:00,METAR KBOS 131454Z 22018G25KT 10SM BKN019 OVC035 15/11 A3001 RMK AO2 PK WND 22030/1426 SLP161 T01500106 58032,0,18.0,1,16090,0,0,0,
2026-04-13 13:54:00,METAR KBOS 131354Z 22019G29KT 10SM BKN017 OVC030 13/09 A3005 RMK AO2 PK WND 22034/1318 SLP174 T01330089,0,19.0,1,16090,0,0,0,
2026-04-13 12:54:00,METAR KBOS 131254Z 21022G33KT 10SM BKN021 BKN032 OVC200 12/08 A3007 RMK AO2 PK WND 20033/1253 SLP181 T01220078,0,22.0,1,16090,0,0,0,
2026-04-13 11:54:00,METAR KBOS 131154Z 21018G27KT 10SM BKN025 OVC030 11/06 A3010 RMK AO2 PK WND 21027/1146 SLP193 60000 70003 T01060061 10111 20067 56016,0,18.0,1,16090,0,0,0,
2026-04-13 11:50:00,SPECI KBOS 131150Z 21016G27KT 10SM BKN025 OVC030 11/06 A3011 RMK AO2 PK WND 21027/1146,0,16.0,1,16090,0,0,0,
2026-04-13 10:54:00,METAR KBOS 131054Z 21015G23KT 10SM FEW023 OVC030 10/05 A3013 RMK AO2 SLP201 T01000050,0,15.0,1,16090,0,0,0,
2026-04-13 10:43:00,SPECI KBOS 131043Z 21017KT 10SM SCT023 OVC032 10/05 A3014 RMK AO2 T01000050,0,17.0,0,16090,0,0,0,
2026-04-13 09:54:00,METAR KBOS 130954Z 20014G25KT 10SM OVC025 09/04 A3015 RMK AO2 SLP209 T00940039,0,14.0,1,16090,0,0,0,
2026-04-13 08:54:00,METAR KBOS 130854Z 19012KT 10SM FEW025 OVC032 08/04 A3019 RMK AO2 SLP223 60000 T00830044 56035,0,12.0,0,16090,0,0,0,
2026-04-13 07:54:00,METAR KBOS 130754Z 19012KT 10SM BKN037 OVC095 08/06 A3023 RMK AO2 SLP235 T00830056,0,12.0,0,16090,0,0,0,
2026-04-13 06:54:00,METAR KBOS 130654Z 17010KT 10SM OVC100 07/06 A3025 RMK AO2 RAE37 SLP244 P0000 T00720056,0,10.0,0,16090,0,0,0,
2026-04-13 06:31:00,SPECI KBOS 130631Z 18010KT 10SM -RA SCT015 SCT080 OVC100 07/05 A3027 RMK AO2 CIG 015 E P0000 T00720050,0,10.0,0,16090,0,0,0,-RA
2026-04-13 05:54:00,METAR KBOS 130554Z 18010KT 10SM -RA BKN017 OVC075 07/04 A3029 RMK AO2 RAB47 SLP258 P0000 60003 T00670044 10089 20061 58027,0,10.0,0,16090,0,0,0,-RA
2026-04-13 05:28:00,SPECI KBOS 130528Z 18010KT 10SM BKN018 OVC075 07/04 A3031 RMK AO2 T00670039,0,10.0,0,16090,0,0,0,
2026-04-13 04:54:00,METAR KBOS 130454Z 19007KT 10SM FEW019 OVC075 07/04 A3034 RMK AO2 SLP272 T00670039 401000044,0,7.0,0,16090,0,0,0,
2026-04-13 03:54:00,METAR KBOS 130354Z 18011KT 10SM OVC075 06/03 A3035 RMK AO2 RAE15 SLP277 P0001 T00610028,0,11.0,0,16090,0,0,0,
2026-04-13 02:54:00,METAR KBOS 130254Z 20011KT 10SM -RA OVC075 07/03 A3038 RMK AO2 SLP285 P0002 60002 T00670028 50002,0,11.0,0,16090,0,0,0,-RA
2026-04-13 01:54:00,METAR KBOS 130154Z 21013G20KT 10SM -RA OVC085 07/02 A3038 RMK AO2 RAB27 SLP286 P0000 T00720017,0,13.0,1,16090,0,0,0,-RA
2026-04-13 00:54:00,METAR KBOS 130054Z 20012KT 10SM OVC110 08/M01 A3038 RMK AO2 SLP286 T00781011,0,12.0,0,16090,0,0,0,
2026-04-12 23:54:00,METAR KBOS 122354Z 19017KT 10SM FEW080 OVC110 08/M02 A3037 RMK AO2 SLP283 T00831017 10100 20067 55012,0,17.0,0,16090,0,0,0,
2026-04-12 22:54:00,METAR KBOS 122254Z 19015KT 10SM FEW080 BKN110 OVC170 09/M01 A3037 RMK AO2 SLP282 T00941006,0,15.0,0,16090,0,0,0,
2026-04-12 21:54:00,METAR KBOS 122154Z 12010KT 10SM FEW090 BKN120 OVC200 07/01 A3040 RMK AO2 SLP293 VIRGA ALQDS T00720011,0,10.0,0,16090,0,0,0,DS
2026-04-12 20:54:00,METAR KBOS 122054Z 11012KT 10SM FEW080 BKN110 BKN140 OVC200 08/M04 A3041 RMK AO2 SLP295 T00781039 56026,0,12.0,0,16090,0,0,0,
2026-04-12 19:54:00,METAR KBOS 121954Z 11014KT 10SM FEW080 BKN130 OVC220 08/M02 A3043 RMK AO2 SLP304 T00831022,0,14.0,0,16090,0,0,0,
2026-04-12 18:54:00,METAR KBOS 121854Z 11012KT 10SM FEW080 SCT140 OVC250 09/M04 A3045 RMK AO2 SLP310 T00891039,0,12.0,0,16090,0,0,0,
2026-04-12 17:54:00,METAR KBOS 121754Z 12010KT 10SM FEW200 BKN250 09/M06 A3048 RMK AO2 SLP321 T00891056 10100 20061 58018,0,10.0,0,16090,0,0,0,
2026-04-12 16:54:00,METAR KBOS 121654Z 09008G16KT 10SM FEW220 BKN250 09/M06 A3050 RMK AO2 SLP328 T00941056,0,8.0,1,16090,0,0,0,
2026-04-12 15:54:00,METAR KBOS 121554Z 07008KT 10SM FEW220 BKN250 09/M07 A3053 RMK AO2 SLP336 T00941067,0,8.0,0,16090,0,0,0,
2026-04-12 14:54:00,METAR KBOS 121454Z 13007KT 10SM FEW250 08/M06 A3054 RMK AO2 SLP339 T00831061 51007,0,7.0,0,16090,0,0,0,
2026-04-12 13:54:00,METAR KBOS 121354Z 07009KT 10SM FEW250 08/M06 A3054 RMK AO2 SLP339 T00831061,0,9.0,0,16090,0,0,0,
2026-04-12 12:54:00,METAR KBOS 121254Z 08004KT 10SM FEW250 08/M06 A3053 RMK AO2 SLP337 T00781061,0,4.0,0,16090,0,0,0,
2026-04-12 11:54:00,METAR KBOS 121154Z 35007KT 10SM FEW250 06/M06 A3052 RMK AO2 SLP332 T00611056 10067 20044 53024,0,7.0,0,16090,0,0,0,
2026-04-12 10:54:00,METAR KBOS 121054Z 34008KT 10SM FEW250 04/M06 A3049 RMK AO2 SLP324 T00441056,0,8.0,0,16090,0,0,0,
2026-04-12 09:54:00,METAR KBOS 120954Z 33008KT 10SM CLR 04/M06 A3046 RMK AO2 SLP313 T00441056,0,8.0,0,16090,0,0,0,
2026-04-12 08:54:00,METAR KBOS 120854Z 31010KT 10SM CLR 05/M06 A3045 RMK AO2 SLP309 T00501056 53009,0,10.0,0,16090,0,0,0,
2026-04-12 07:54:00,METAR KBOS 120754Z 31009KT 10SM CLR 06/M06 A3043 RMK AO2 SLP304 T00561056,0,9.0,0,16090,0,0,0,
2026-04-12 06:54:00,METAR KBOS 120654Z 32006KT 10SM CLR 06/M06 A3043 RMK AO2 SLP302 T00611061,0,6.0,0,16090,0,0,0,
2026-04-12 05:54:00,METAR KBOS 120554Z 32010KT 10SM CLR 07/M06 A3042 RMK AO2 SLP300 T00671061 10128 20067 51021,0,10.0,0,16090,0,0,0,
2026-04-12 04:54:00,METAR KBOS 120454Z 32012G19KT 10SM CLR 07/M06 A3041 RMK AO2 PK WND 35026/0359 SLP295 T00671056 401560067,0,12.0,1,16090,0,0,0,
2026-04-12 03:54:00,METAR KBOS 120354Z 34014G25KT 10SM CLR 07/M06 A3039 RMK AO2 SLP289 T00721056,0,14.0,1,16090,0,0,0,
2026-04-12 02:54:00,METAR KBOS 120254Z 33011KT 10SM CLR 09/M06 A3035 RMK AO2 SLP278 T00941056 51036,0,11.0,0,16090,0,0,0,
2026-04-12 01:54:00,METAR KBOS 120154Z 34012KT 10SM CLR 11/M06 A3032 RMK AO2 SLP266 T01061056,0,12.0,0,16090,0,0,0,
2026-04-12 00:54:00,METAR KBOS 120054Z 32011KT 10SM CLR 12/M06 A3029 RMK AO2 SLP256 T01171056,0,11.0,0,16090,0,0,0,
2026-04-11 23:54:00,METAR KBOS 112354Z 33012KT 10SM CLR 13/M06 A3025 RMK AO2 PK WND 33026/2316 SLP242 T01281056 10156 20128 53031,0,12.0,0,16090,0,0,0,
2026-04-11 22:54:00,METAR KBOS 112254Z 33010G25KT 10SM FEW075 14/M05 A3022 RMK AO2 SLP231 T01391050,0,10.0,1,16090,0,0,0,
2026-04-11 21:54:00,METAR KBOS 112154Z 32014G21KT 10SM FEW080 14/M05 A3018 RMK AO2 SLP219 T01441050,0,14.0,1,16090,0,0,0,
2026-04-11 20:54:00,METAR KBOS 112054Z 32012KT 10SM SCT080 15/M04 A3016 RMK AO2 PK WND 32026/2004 SLP211 T01501039 53003,0,12.0,0,16090,0,0,0,
2026-04-11 19:54:00,METAR KBOS 111954Z 32018G25KT 10SM SCT080 16/M04 A3014 RMK AO2 SLP207 T01561039,0,18.0,1,16090,0,0,0,
2026-04-11 18:54:00,METAR KBOS 111854Z 33012G23KT 10SM FEW080 15/M03 A3015 RMK AO2 PK WND 31028/1836 SLP207 T01501033,0,12.0,1,16090,0,0,0,
2026-04-11 17:54:00,METAR KBOS 111754Z 32012G23KT 10SM FEW065 14/M03 A3015 RMK AO2 SLP208 T01441028 10150 20106 56005,0,12.0,1,16090,0,0,0,
2026-04-11 16:54:00,METAR KBOS 111654Z 31013G20KT 10SM FEW035 FEW055 14/M02 A3015 RMK AO2 PK WND 32030/1631 SLP208 T01391022,0,13.0,1,16090,0,0,0,
2026-04-11 15:54:00,METAR KBOS 111554Z 31017G28KT 10SM FEW035 FEW055 13/M02 A3016 RMK AO2 PK WND 31028/1547 SLP211 T01331022,0,17.0,1,16090,0,0,0,
2026-04-11 14:54:00,METAR KBOS 111454Z 32012G25KT 10SM FEW045 12/M02 A3016 RMK AO2 PK WND 31029/1404 SLP213 T01221022 50015,0,12.0,1,16090,0,0,0,
2026-04-11 13:54:00,METAR KBOS 111354Z 31014G25KT 10SM FEW045 11/M02 A3016 RMK AO2 PK WND 33028/1331 SLP214 T01111017,0,14.0,1,16090,0,0,0,
2026-04-11 12:54:00,METAR KBOS 111254Z 32017G28KT 10SM FEW035 FEW045 11/M01 A3014 RMK AO2 PK WND 33031/1224 SLP206 T01111006,0,17.0,1,16090,0,0,0,
2026-04-11 11:54:00,METAR KBOS 111154Z 34015G24KT 10SM SCT031 BKN041 11/03 A3012 RMK AO2 SLP198 60000 T01110028 10122 20111 53033,0,15.0,1,16090,0,0,0,
2026-04-11 10:54:00,METAR KBOS 111054Z 31014G22KT 10SM SCT037 12/05 A3008 RMK AO2 SLP186 T01170050,0,14.0,1,16090,0,0,0,
2026-04-11 09:54:00,METAR KBOS 110954Z 28010KT 10SM FEW040 SCT080 12/04 A3003 RMK AO2 SLP170 T01220044,0,10.0,0,16090,0,0,0,
2026-04-11 08:54:00,METAR KBOS 110854Z 26009KT 10SM OVC041 12/03 A3002 RMK AO2 RAB01E18 SLP165 P0000 60000 T01220028 55003,0,9.0,0,16090,0,0,0,RA
2026-04-11 07:54:00,METAR KBOS 110754Z 24011KT 10SM FEW070 BKN100 OVC110 12/02 A3001 RMK AO2 SLP161 T01170022,0,11.0,0,16090,0,0,0,
2026-04-11 06:54:00,METAR KBOS 110654Z 23008KT 10SM FEW060 BKN095 OVC120 12/02 A3001 RMK AO2 SLP160 T01170017,0,8.0,0,16090,0,0,0,
2026-04-11 05:54:00,METAR KBOS 110554Z 24011KT 10SM SCT055 BKN085 OVC110 12/00 A3003 RMK AO2 SLP168 60000 T01170000 10133 20111 56022,0,11.0,0,16090,0,0,0,
2026-04-11 04:54:00,METAR KBOS 110454Z 22014KT 10SM FEW060 BKN090 OVC120 12/M02 A3004 RMK AO2 RAB04E27 SLP173 P0000 T01171017 402060028,0,14.0,0,16090,0,0,0,RA
2026-04-11 03:54:00,METAR KBOS 110354Z COR 21015KT 10SM SCT095 SCT110 BKN160 11/M03 A3006 RMK AO2 SLP177 T01111028,0,15.0,0,16090,0,0,0,
2026-04-11 02:54:00,METAR KBOS 110254Z 23013KT 10SM SCT120 BKN170 OVC220 12/M02 A3009 RMK AO2 SLP190 T01171022 53000,0,13.0,0,16090,0,0,0,
2026-04-11 01:54:00,METAR KBOS 110154Z 22017KT 10SM BKN160 OVC250 11/M01 A3009 RMK AO2 PK WND 21026/0059 SLP189 T01111006,0,17.0,0,16090,0,0,0,
2026-04-11 00:54:00,METAR KBOS 110054Z 21018G25KT 10SM BKN220 OVC250 12/00 A3009 RMK AO2 PK WND 22027/0043 SLP188 T01170000,0,18.0,1,16090,0,0,0,
2026-04-10 23:54:00,METAR KBOS 102354Z 21013G23KT 10SM BKN220 OVC250 13/00 A3009 RMK AO2 SLP190 T01280000 10206 20122 55001,0,13.0,1,16090,0,0,0,
2026-04-10 22:54:00,METAR KBOS 102254Z 20014KT 10SM BKN220 BKN250 14/M01 A3008 RMK AO2 PK WND 19026/2224 SLP186 T01391006,0,14.0,0,16090,0,0,0,
2026-04-10 21:54:00,METAR KBOS 102154Z 19017G23KT 10SM FEW220 OVC250 16/02 A3008 RMK AO2 SLP187 T01610017,0,17.0,1,16090,0,0,0,
2026-04-10 20:54:00,METAR KBOS 102054Z 19017KT 10SM FEW250 18/03 A3010 RMK AO2 SLP190 T01780033 56030,0,17.0,0,16090,0,0,0,
2026-04-10 19:54:00,METAR KBOS 101954Z 20016KT 10SM FEW250 20/04 A3013 RMK AO2 SLP201 T02000039,0,16.0,0,16090,0,0,0,
2026-04-10 18:54:00,METAR KBOS 101854Z 19014KT 10SM FEW250 20/04 A3015 RMK AO2 SLP210 T02000044,0,14.0,0,16090,0,0,0,
2026-04-10 17:54:00,METAR KBOS 101754Z 18013KT 10SM SCT250 19/03 A3019 RMK AO2 SLP221 T01890033 10189 20056 58033,0,13.0,0,16090,0,0,0,
2026-04-10 16:54:00,METAR KBOS 101654Z 19013KT 10SM SCT250 18/03 A3022 RMK AO2 SLP232 T01780028,0,13.0,0,16090,0,0,0,
2026-04-10 15:54:00,METAR KBOS 101554Z 21010KT 10SM SCT250 16/02 A3025 RMK AO2 SLP244 T01610022,0,10.0,0,16090,0,0,0,
2026-04-10 14:54:00,METAR KBOS 101454Z 18012KT 10SM FEW250 13/03 A3028 RMK AO2 SLP254 T01330028 58025,0,12.0,0,16090,0,0,0,
2026-04-10 13:54:00,METAR KBOS 101354Z 20008KT 10SM CLR 12/01 A3031 RMK AO2 SLP263 T01170011,0,8.0,0,16090,0,0,0,
2026-04-10 12:54:00,METAR KBOS 101254Z 22012KT 10SM FEW120 09/02 A3033 RMK AO2 SLP270 T00890017,0,12.0,0,16090,0,0,0,
2026-04-10 11:54:00,METAR KBOS 101154Z 21006KT 10SM FEW120 06/02 A3036 RMK AO2 SLP279 T00560017 10056 20028 58009,0,6.0,0,16090,0,0,0,
2026-04-10 10:54:00,METAR KBOS 101054Z 21007KT 10SM FEW120 FEW250 04/01 A3037 RMK AO2 SLP283 T00390011,0,7.0,0,16090,0,0,0,
2026-04-10 09:54:00,METAR KBOS 100954Z 21008KT 10SM FEW120 FEW250 03/01 A3038 RMK AO2 SLP285 T00330011,0,8.0,0,16090,0,0,0,
2026-04-10 08:54:00,METAR KBOS 100854Z 22009KT 10SM FEW120 SCT250 03/01 A3038 RMK AO2 SLP288 T00330006 56020,0,9.0,0,16090,0,0,0,
2026-04-10 07:54:00,METAR KBOS 100754Z 21008KT 10SM SCT250 03/01 A3038 RMK AO2 SLP288 T00330011,0,8.0,0,16090,0,0,0,
2026-04-10 06:54:00,METAR KBOS 100654Z 19011KT 10SM SCT250 03/01 A3039 RMK AO2 SLP290 T00280011,0,11.0,0,16090,0,0,0,
2026-04-10 05:54:00,METAR KBOS 100554Z 22011KT 10SM SCT250 03/01 A3044 RMK AO2 SLP308 T00330006 10067 20033 58007,0,11.0,0,16090,0,0,0,
2026-04-10 04:54:00,METAR KBOS 100454Z 22008KT 10SM SCT250 03/01 A3046 RMK AO2 SLP314 T00330006 401441006,0,8.0,0,16090,0,0,0,
2026-04-10 03:54:00,METAR KBOS 100354Z 19008KT 10SM FEW250 03/00 A3046 RMK AO2 SLP312 T00330000,0,8.0,0,16090,0,0,0,
2026-04-10 02:54:00,METAR KBOS 100254Z 21010KT 10SM FEW250 04/M02 A3046 RMK AO2 SLP315 T00391017 58003,0,10.0,0,16090,0,0,0,
2026-04-10 01:54:00,METAR KBOS 100154Z 20013KT 10SM SCT250 05/M03 A3047 RMK AO2 SLP316 T00501028,0,13.0,0,16090,0,0,0,
2026-04-10 00:54:00,METAR KBOS 100054Z 19013KT 10SM SCT250 06/M04 A3048 RMK AO2 SLP320 T00561044,0,13.0,0,16090,0,0,0,
2026-04-09 23:54:00,METAR KBOS 092354Z 19016KT 10SM FEW180 BKN250 07/M08 A3047 RMK AO2 SLP318 T00721083 10144 20072 56000,0,16.0,0,16090,0,0,0,
2026-04-09 22:54:00,METAR KBOS 092254Z 19017KT 10SM FEW180 BKN250 08/M11 A3048 RMK AO2 SLP319 T00831106,0,17.0,0,16090,0,0,0,
2026-04-09 21:54:00,METAR KBOS 092154Z 18014KT 10SM FEW180 SCT250 11/M07 A3047 RMK AO2 SLP316 T01111072,0,14.0,0,16090,0,0,0,
2026-04-09 20:54:00,METAR KBOS 092054Z 20017KT 10SM FEW200 SCT250 12/M09 A3047 RMK AO2 SLP319 T01221089 56019,0,17.0,0,16090,0,0,0,
2026-04-09 19:54:00,METAR KBOS 091954Z 20016KT 10SM FEW200 SCT250 13/M11 A3049 RMK AO2 SLP323 T01331106,0,16.0,0,16090,0,0,0,
2026-04-09 18:54:00,METAR KBOS 091854Z 21016KT 10SM FEW200 SCT250 14/M11 A3051 RMK AO2 SLP329 T01441111,0,16.0,0,16090,0,0,0,
2026-04-09 17:54:00,METAR KBOS 091754Z 18014KT 10SM FEW250 14/M06 A3053 RMK AO2 WSHFT 1709 SLP337 T01391056 10139 20028 56028,0,14.0,0,16090,0,0,0,
2026-04-09 17:24:00,SPECI KBOS 091724Z 18012G19KT 10SM FEW250 13/M06 A3054 RMK AO2 WSHFT 1709 T01331061,0,12.0,1,16090,0,0,0,
2026-04-09 16:54:00,METAR KBOS 091654Z 11010KT 10SM FEW250 10/00 A3056 RMK AO2 SLP346 T01000000,0,10.0,0,16090,0,0,0,
2026-04-09 15:54:00,METAR KBOS 091554Z 09012KT 10SM FEW250 08/01 A3059 RMK AO2 SLP356 T00780011,0,12.0,0,16090,0,0,0,
2026-04-09 14:54:00,METAR KBOS 091454Z 13008KT 10SM FEW250 08/M02 A3061 RMK AO2 SLP366 T00781017 58012,0,8.0,0,16090,0,0,0,
2026-04-09 13:54:00,METAR KBOS 091354Z VRB04KT 10SM FEW250 06/M04 A3063 RMK AO2 SLP371 T00611039,0,4.0,0,16090,0,0,0,
2026-04-09 12:54:00,METAR KBOS 091254Z 21005KT 10SM FEW250 05/M02 A3064 RMK AO2 SLP374 T00501017,0,5.0,0,16090,0,0,0,
2026-04-09 11:54:00,METAR KBOS 091154Z 22006KT 10SM CLR 03/M01 A3065 RMK AO2 SLP377 T00281011 10028 21006 53010,0,6.0,0,16090,0,0,0,
2026-04-09 10:54:00,METAR KBOS 091054Z 22006KT 10SM CLR 01/M02 A3064 RMK AO2 SLP374 T00111017,0,6.0,0,16090,0,0,0,
2026-04-09 09:54:00,METAR KBOS 090954Z 22006KT 10SM CLR 01/M02 A3062 RMK AO2 SLP368 T00061022,0,6.0,0,16090,0,0,0,
2026-04-09 08:54:00,METAR KBOS 090854Z 23006KT 10SM CLR 01/M02 A3062 RMK AO2 SLP367 T00061022 55000,0,6.0,0,16090,0,0,0,
2026-04-09 07:54:00,METAR KBOS 090754Z 21005KT 10SM CLR 00/M03 A3062 RMK AO2 SLP367 T00001033,0,5.0,0,16090,0,0,0,
2026-04-09 06:54:00,METAR KBOS 090654Z 20007KT 10SM CLR 00/M04 A3061 RMK AO2 SLP366 T00001039,0,7.0,0,16090,0,0,0,
2026-04-09 05:54:00,METAR KBOS 090554Z 22006KT 10SM CLR 01/M04 A3062 RMK AO2 SLP367 T00061044 10028 20006 58001,0,6.0,0,16090,0,0,0,
2026-04-09 04:54:00,METAR KBOS 090454Z 21006KT 10SM CLR 01/M04 A3062 RMK AO2 SLP369 T00111044 400441017,0,6.0,0,16090,0,0,0,
2026-04-09 03:54:00,METAR KBOS 090354Z 22004KT 10SM CLR 02/M04 A3063 RMK AO2 SLP370 T00171044,0,4.0,0,16090,0,0,0,
2026-04-09 02:54:00,METAR KBOS 090254Z 18009KT 10SM CLR 02/M05 A3062 RMK AO2 SLP368 T00171050 50012,0,9.0,0,16090,0,0,0,
2026-04-09 01:54:00,METAR KBOS 090154Z 18012KT 10SM CLR 02/M05 A3063 RMK AO2 SLP370 T00171050,0,12.0,0,16090,0,0,0,
2026-04-09 00:54:00,METAR KBOS 090054Z 17010KT 10SM FEW220 02/M05 A3061 RMK AO2 SLP365 T00221050,0,10.0,0,16090,0,0,0,
2026-04-08 23:54:00,METAR KBOS 082354Z 14009KT 10SM FEW220 03/M04 A3059 RMK AO2 SLP356 T00281044 10044 20028 55002,0,9.0,0,16090,0,0,0,
2026-04-08 22:54:00,METAR KBOS 082254Z 11012KT 10SM FEW220 03/M04 A3058 RMK AO2 SLP354 T00281044,0,12.0,0,16090,0,0,0,
2026-04-08 21:54:00,METAR KBOS 082154Z 10011KT 10SM FEW250 03/M05 A3059 RMK AO2 SLP357 T00331050,0,11.0,0,16090,0,0,0,
2026-04-08 20:54:00,METAR KBOS 082054Z 11012KT 10SM CLR 03/M07 A3059 RMK AO2 SLP358 T00331067 57013,0,12.0,0,16090,0,0,0,
2026-04-08 19:54:00,METAR KBOS 081954Z 10010KT 10SM CLR 04/M07 A3060 RMK AO2 SLP362 T00391067,0,10.0,0,16090,0,0,0,
2026-04-08 18:54:00,METAR KBOS 081854Z 10010KT 10SM CLR 04/M08 A3062 RMK AO2 SLP367 T00391083,0,10.0,0,16090,0,0,0,
2026-04-08 17:54:00,METAR KBOS 081754Z 08010KT 10SM CLR 04/M08 A3063 RMK AO2 SLP371 T00391078 10039 21006 58012,0,10.0,0,16090,0,0,0,
2026-04-08 16:54:00,METAR KBOS 081654Z 07010KT 10SM CLR 04/M08 A3064 RMK AO2 SLP375 T00391078,0,10.0,0,16090,0,0,0,
2026-04-08 15:54:00,METAR KBOS 081554Z 07009KT 10SM FEW060 03/M07 A3066 RMK AO2 SLP380 T00281067,0,9.0,0,16090,0,0,0,
2026-04-08 14:54:00,METAR KBOS 081454Z 08009KT 10SM FEW060 02/M07 A3066 RMK AO2 SLP383 T00221067 51012,0,9.0,0,16090,0,0,0,
2026-04-08 13:54:00,METAR KBOS 081354Z 06008KT 10SM FEW070 02/M09 A3066 RMK AO2 SLP381 T00221089,0,8.0,0,16090,0,0,0,
2026-04-08 12:54:00,METAR KBOS 081254Z 36009KT 10SM FEW070 01/M10 A3064 RMK AO2 SLP375 T00111100,0,9.0,0,16090,0,0,0,
2026-04-08 11:54:00,METAR KBOS 081154Z 34009KT 10SM FEW060 00/M10 A3063 RMK AO2 SLP370 70007 T00001100 10000 21017 53032,0,9.0,0,16090,0,0,0,
2026-04-08 10:54:00,METAR KBOS 081054Z 35009KT 10SM FEW060 M01/M09 A3059 RMK AO2 SLP358 T10111094,0,9.0,0,16090,0,0,0,
2026-04-08 09:54:00,METAR KBOS 080954Z 34007KT 10SM FEW050 FEW250 M02/M09 A3056 RMK AO2 SLP348 T10171094,0,7.0,0,16090,0,0,0,
2026-04-08 08:54:00,METAR KBOS 080854Z 33008KT 10SM CLR M01/M09 A3053 RMK AO2 SLP339 T10111089 53024,0,8.0,0,16090,0,0,0,
2026-04-08 07:54:00,METAR KBOS 080754Z 32014KT 10SM CLR M01/M09 A3050 RMK AO2 SLP326 T10111089,0,14.0,0,16090,0,0,0,
2026-04-08 06:54:00,METAR KBOS 080654Z 32015G24KT 10SM CLR M01/M09 A3048 RMK AO2 SLP320 T10061089,0,15.0,1,16090,0,0,0,
2026-04-08 05:54:00,METAR KBOS 080554Z 32012G22KT 10SM CLR 00/M09 A3046 RMK AO2 PK WND 32026/0524 SLP314 T00001089 10044 20000 51028,0,12.0,1,16090,0,0,0,
2026-04-08 04:54:00,METAR KBOS 080454Z 32016G30KT 10SM CLR 01/M08 A3044 RMK AO2 PK WND 32030/0451 SLP306 T00061083 400780006,0,16.0,1,16090,0,0,0,
2026-04-08 03:54:00,METAR KBOS 080354Z 31016G21KT 10SM CLR 02/M07 A3041 RMK AO2 SLP297 T00171067,0,16.0,1,16090,0,0,0,
2026-04-08 02:54:00,METAR KBOS 080254Z 30012KT 10SM CLR 02/M06 A3038 RMK AO2 SLP286 T00221061 51036,0,12.0,0,16090,0,0,0,
2026-04-08 01:54:00,METAR KBOS 080154Z 29011KT 10SM CLR 03/M07 A3035 RMK AO2 SLP277 T00281072,0,11.0,0,16090,0,0,0,
2026-04-08 00:54:00,METAR KBOS 080054Z 29010G20KT 10SM FEW070 04/M08 A3032 RMK AO2 SLP267 T00391083,0,10.0,1,16090,0,0,0,
2026-04-07 23:54:00,METAR KBOS 072354Z 29013KT 10SM FEW070 04/M09 A3027 RMK AO2 SLP251 60001 T00441094 10078 20044 53037,0,13.0,0,16090,0,0,0,
2026-04-07 22:54:00,METAR KBOS 072254Z 29016G26KT 10SM FEW065 05/M10 A3024 RMK AO2 PK WND 28029/2242 SLP238 T00501100,0,16.0,1,16090,0,0,0,
2026-04-07 21:54:00,METAR KBOS 072154Z 30016G23KT 10SM FEW040 SCT049 BKN065 07/M05 A3019 RMK AO2 SLP222 T00671050,0,16.0,1,16090,0,0,0,
2026-04-07 19:54:00,METAR KBOS 071954Z 28010KT 10SM SCT029 BKN046 OVC060 06/02 A3014 RMK AO2 PK WND 32029/1913 WSHFT 1908 RAB02E36 SLP206 P0001 T00610022,0,10.0,0,16090,0,0,0,RA
2026-04-07 19:28:00,SPECI KBOS 071928Z 32010G19KT 10SM -RA FEW016 BKN023 OVC030 06/02 A3013 RMK AO2 PK WND 32029/1913 WSHFT 1908 RAB02 P0000 T00560017,0,10.0,1,16090,0,0,0,-RA
2026-04-07 19:16:00,SPECI KBOS 071916Z 32019G29KT 8SM RA FEW019 BKN028 OVC034 06/02 A3013 RMK AO2 PK WND 32029/1913 RAB02 P0000 T00610017,0,19.0,1,12872,0,0,0,RA
2026-04-07 18:54:00,METAR KBOS 071854Z 07008KT 10SM BKN031 BKN038 OVC050 07/03 A3011 RMK AO2 SLP196 BINOVC T00670028,0,8.0,0,16090,0,0,0,VC
2026-04-07 18:25:00,SPECI KBOS 071825Z 09009KT 10SM SCT027 BKN032 BKN110 07/03 A3011 RMK AO2 T00720028,0,9.0,0,16090,0,0,0,
2026-04-07 17:54:00,METAR KBOS 071754Z 03005KT 10SM SCT018 BKN023 BKN030 07/03 A3011 RMK AO2 SLP196 60006 T00720033 10072 20017 56013,0,5.0,0,16090,0,0,0,
2026-04-07 17:12:00,SPECI KBOS 071712Z 03005KT 10SM FEW014 SCT049 06/03 A3012 RMK AO2 T00610028,0,5.0,0,16090,0,0,0,
2026-04-07 16:54:00,METAR KBOS 071654Z 03005KT 10SM BKN014 BKN050 06/03 A3012 RMK AO2 SLP199 T00560028,0,5.0,0,16090,0,0,0,
2026-04-07 16:17:00,SPECI KBOS 071617Z 13006KT 10SM SCT021 BKN037 BKN060 05/02 A3012 RMK AO2 T00500022,0,6.0,0,16090,0,0,0,
2026-04-07 15:54:00,METAR KBOS 071554Z 11004KT 10SM SCT019 BKN025 BKN035 04/02 A3013 RMK AO2 RAE35 SLP202 P0002 T00440017,0,4.0,0,16090,0,0,0,
2026-04-07 15:35:00,SPECI KBOS 071535Z 11006KT 10SM OVC027 04/02 A3014 RMK AO2 RAE35 P0002 T00440017,0,6.0,0,16090,0,0,0,
2026-04-07 15:06:00,SPECI KBOS 071506Z 10010KT 6SM -RA BR SCT022 OVC030 03/02 A3015 RMK AO2 CIG 024 E P0002 T00330022,0,10.0,0,9654,0,0,1,"-RA,BR"
2026-04-07 14:54:00,METAR KBOS 071454Z 12011KT 3SM RA BR FEW013 OVC028 03/02 A3015 RMK AO2 WSHFT 1420 RAB26 SLP209 P0000 60004 T00330017 55006,0,11.0,0,4827,0,0,1,"BR,RA"
2026-04-07 14:40:00,SPECI KBOS 071440Z 15013KT 9SM -RA FEW013 OVC028 04/01 A3015 RMK AO2 WSHFT 1420 RAB26 P0000 T00440011,0,13.0,0,14481,0,0,0,-RA
2026-04-07 14:23:00,SPECI KBOS 071423Z 11011KT 10SM FEW013 OVC028 04/01 A3015 RMK AO2 T00390011,0,11.0,0,16090,0,0,0,
2026-04-07 13:54:00,METAR KBOS 071354Z 07009KT 10SM FEW013 BKN035 BKN050 03/02 A3015 RMK AO2 RAE09SNE09 SLP207 P0001 T00330017,0,9.0,0,16090,0,0,0,RA
2026-04-07 13:13:00,SPECI KBOS 071313Z 09007KT 10SM SCT013 OVC029 02/01 A3015 RMK AO2 RAE09SNE09 P0001 T00220006,0,7.0,0,16090,0,0,0,RA
2026-04-07 13:04:00,SPECI KBOS 071304Z 12006KT 7SM -SNRA BKN013 OVC031 02/01 A3015 RMK AO2 P0001 T00170006,0,6.0,0,11263,0,0,0,RA
2026-04-07 12:54:00,METAR KBOS 071254Z 13008KT 2 1/2SM -SNRA BR OVC013 02/00 A3016 RMK AO2 SLP211 VIS SW-NW 1 1/2 P0003 T00170000,0,8.0,0,4022,0,0,1,"BR,RA"
2026-04-07 12:50:00,SPECI KBOS 071250Z 13007KT 3SM -SNRA BR OVC013 02/00 A3016 RMK AO2 VIS SW-NW 1 1/2 P0002,0,7.0,0,4827,0,0,1,"BR,RA"
2026-04-07 12:35:00,SPECI KBOS 071235Z 00000KT 2SM -SNRA BR BKN017 02/00 A3017 RMK AO2 P0001 T00220000,0,0.0,0,3218,0,0,1,"BR,RA"
2026-04-07 11:54:00,METAR KBOS 071154Z 15005KT 10SM -RASN BKN027 OVC034 03/M02 A3017 RMK AO2 RAB25SNB32 SLP215 P0000 60000 T00331017 10044 20028 53010,0,5.0,0,16090,0,0,0,"-RA,RA,SN"
2026-04-07 11:32:00,SPECI KBOS 071132Z 11006KT 10SM -RASN BKN029 OVC046 04/M02 A3015 RMK AO2 RAB25SNB32 P0000 T00391022,0,6.0,0,16090,0,0,0,"-RA,RA,SN"
2026-04-07 10:54:00,METAR KBOS 071054Z 13005KT 10SM BKN050 OVC070 04/M02 A3014 RMK AO2 SLP207 T00391022,0,5.0,0,16090,0,0,0,
2026-04-07 09:54:00,METAR KBOS 070954Z 19005KT 10SM OVC055 03/M03 A3015 RMK AO2 SLP207 T00331028,0,5.0,0,16090,0,0,0,
2026-04-07 08:54:00,METAR KBOS 070854Z 20007KT 10SM OVC065 03/M02 A3014 RMK AO2 SLP204 T00281022 53003,0,7.0,0,16090,0,0,0,
2026-04-07 07:54:00,METAR KBOS 070754Z 00000KT 10SM OVC090 03/M02 A3012 RMK AO2 SLP198 T00331022,0,0.0,0,16090,0,0,0,
2026-04-07 06:54:00,METAR KBOS 070654Z 00000KT 10SM OVC090 03/M03 A3012 RMK AO2 SLP197 T00331028,0,0.0,0,16090,0,0,0,
2026-04-07 05:54:00,METAR KBOS 070554Z 00000KT 10SM BKN090 03/M03 A3013 RMK AO2 SLP202 T00281033 10072 20022 53005,0,0.0,0,16090,0,0,0,
2026-04-07 04:54:00,METAR KBOS 070454Z 28004KT 10SM CLR 04/M06 A3012 RMK AO2 SLP198 T00391061 401060033,0,4.0,0,16090,0,0,0,
2026-04-07 03:54:00,METAR KBOS 070354Z 27005KT 10SM CLR 04/M06 A3012 RMK AO2 SLP199 T00391056,0,5.0,0,16090,0,0,0,
2026-04-07 02:54:00,METAR KBOS 070254Z 28006KT 10SM CLR 04/M05 A3011 RMK AO2 SLP196 T00441050 51028,0,6.0,0,16090,0,0,0,
2026-04-07 01:54:00,METAR KBOS 070154Z 29010KT 10SM CLR 05/M05 A3010 RMK AO2 SLP192 T00501050,0,10.0,0,16090,0,0,0,
2026-04-07 00:54:00,METAR KBOS 070054Z 31013G20KT 10SM FEW060 06/M04 A3008 RMK AO2 SLP186 T00611044,0,13.0,1,16090,0,0,0,
2026-04-06 23:54:00,METAR KBOS 062354Z 28016G25KT 10SM FEW060 07/M07 A3003 RMK AO2 SLP168 T00671067 10106 20067 53039,0,16.0,1,16090,0,0,0,
2026-04-06 22:54:00,METAR KBOS 062254Z 29016G25KT 10SM SCT060 08/M07 A2998 RMK AO2 PK WND 25027/2222 SLP150 T00781067,0,16.0,1,16090,0,0,0,
2026-04-06 21:54:00,METAR KBOS 062154Z 27017G30KT 10SM SCT060 09/M07 A2994 RMK AO2 PK WND 29030/2154 SLP138 T00891067,0,17.0,1,16090,0,0,0,
2026-04-06 20:54:00,METAR KBOS 062054Z 28013G28KT 10SM SCT065 09/M07 A2991 RMK AO2 PK WND 26034/2008 SLP129 T00941067 53006,0,13.0,1,16090,0,0,0,
2026-04-06 19:54:00,METAR KBOS 061954Z 27017G29KT 10SM BKN065 09/M06 A2990 RMK AO2 PK WND 27033/1912 SLP124 T00941061,0,17.0,1,16090,0,0,0,
2026-04-06 18:54:00,METAR KBOS 061854Z 27022G32KT 10SM BKN065 10/M06 A2989 RMK AO2 PK WND 26032/1854 SLP121 T01001061,0,22.0,1,16090,0,0,0,
2026-04-06 17:54:00,METAR KBOS 061754Z 26016G27KT 10SM BKN060 09/M06 A2990 RMK AO2 PK WND 29027/1658 SLP123 T00941056 10106 20056 58005,0,16.0,1,16090,0,0,0,
2026-04-06 16:54:00,METAR KBOS 061654Z 26014G23KT 10SM BKN060 09/M04 A2990 RMK AO2 PK WND 30030/1611 SLP125 T00941044,0,14.0,1,16090,0,0,0,
2026-04-06 15:54:00,METAR KBOS 061554Z 28016G23KT 10SM BKN060 08/M05 A2991 RMK AO2 PK WND 29027/1509 SLP129 T00781050,0,16.0,1,16090,0,0,0,
2026-04-06 14:54:00,METAR KBOS 061454Z 27016G27KT 10SM BKN050 08/M04 A2991 RMK AO2 PK WND 27029/1413 SLP127 T00781044 51008 $,0,16.0,1,16090,0,0,0,
2026-04-06 13:54:00,METAR KBOS 061354Z 27015G26KT 10SM BKN050 07/M05 A2990 RMK AO2 PK WND 27028/1337 SLP125 T00671050 $,0,15.0,1,16090,0,0,0,
2026-04-06 12:54:00,METAR KBOS 061254Z 29019G30KT 10SM FEW035 SCT050 06/M04 A2990 RMK AO2 PK WND 28035/1236 SLP124 T00611044 $,0,19.0,1,16090,0,0,0,
2026-04-06 11:54:00,METAR KBOS 061154Z 27013G25KT 10SM FEW050 06/M04 A2989 RMK AO2 SLP120 70012 T00561044 10078 20044 53024 $,0,13.0,1,16090,0,0,0,
2026-04-06 10:54:00,METAR KBOS 061054Z 27015G24KT 10SM SCT050 05/M05 A2986 RMK AO2 PK WND 28031/0959 SLP110 T00501050 $,0,15.0,1,16090,0,0,0,
2026-04-06 09:54:00,METAR KBOS 060954Z 27020G30KT 10SM SCT055 06/M06 A2983 RMK AO2 PK WND 27035/0942 SLP102 T00561056 $,0,20.0,1,16090,0,0,0,
2026-04-06 08:54:00,METAR KBOS 060854Z 27024G31KT 10SM SCT060 06/M04 A2982 RMK AO2 PK WND 27031/0854 SLP096 T00611044 53007 $,0,24.0,1,16090,0,0,0,
2026-04-06 07:54:00,METAR KBOS 060754Z 27016G20KT 10SM FEW047 BKN065 07/M02 A2980 RMK AO2 SLP091 T00671017 $,0,16.0,1,16090,0,0,0,
2026-04-06 06:54:00,METAR KBOS 060654Z 27011G22KT 10SM FEW055 07/M02 A2980 RMK AO2 SLP089 T00721022 $,0,11.0,1,16090,0,0,0,
2026-04-06 05:54:00,METAR KBOS 060554Z 28009KT 10SM BKN055 08/M02 A2979 RMK AO2 SLP089 T00781017 10117 20072 51005 $,0,9.0,0,16090,0,0,0,
2026-04-06 04:54:00,METAR KBOS 060454Z 29016G24KT 10SM BKN060 08/M02 A2979 RMK AO2 PK WND 29028/0444 SLP088 T00831017 401390044 $,0,16.0,1,16090,0,0,0,
2026-04-06 03:54:00,METAR KBOS 060354Z 29013G23KT 10SM OVC065 08/M01 A2980 RMK AO2 SLP090 T00831006 $,0,13.0,1,16090,0,0,0,
2026-04-06 02:54:00,METAR KBOS 060254Z 30018G28KT 10SM FEW030 OVC060 09/01 A2978 RMK AO2 PK WND 29030/0157 SLP084 T00890011 50017 $,0,18.0,1,16090,0,0,0,
2026-04-06 01:54:00,METAR KBOS 060154Z 28015G28KT 10SM FEW030 OVC043 09/02 A2980 RMK AO2 PK WND 27030/0144 SLP091 T00940022 $,0,15.0,1,16090,0,0,0,
2026-04-06 00:54:00,METAR KBOS 060054Z 29016G25KT 10SM SCT020 BKN031 OVC044 11/06 A2978 RMK AO2 SLP083 T01060061 $,0,16.0,1,16090,0,0,0,
2026-04-06 00:01:00,SPECI KBOS 060001Z 28013G22KT 10SM SCT019 BKN031 OVC044 12/08 A2974 RMK AO2 T01170078 $,0,13.0,1,16090,0,0,0,
2026-04-05 23:54:00,METAR KBOS 052354Z 29011KT 10SM SCT018 BKN027 OVC045 12/08 A2973 RMK AO2 PK WND 29035/2317 SLP067 60006 T01170078 10139 20072 53015 $,0,11.0,0,16090,0,0,0,
2026-04-05 23:22:00,SPECI KBOS 052322Z 30017G35KT 10SM SCT015 BKN022 OVC035 13/09 A2972 RMK AO2 PK WND 29035/2317 PRESRR T01280089 $,0,17.0,1,16090,0,0,0,
2026-04-05 22:54:00,METAR KBOS 052254Z 27013G24KT 10SM FEW014 BKN031 OVC046 14/11 A2970 RMK AO2 RAE14 SLP057 P0001 T01390106 $,0,13.0,1,16090,0,0,0,
2026-04-05 21:54:00,METAR KBOS 052154Z 23007KT 6SM -RA BR FEW007 SCT015 OVC060 12/11 A2969 RMK AO2 PRESRR SLP052 P0003 T01170111 $,0,7.0,0,9654,0,0,1,"-RA,BR"
2026-04-05 21:10:00,SPECI KBOS 052110Z 15004KT 5SM -RA BR FEW003 SCT015 OVC035 10/09 A2968 RMK AO2 VIS E-SE 2 1/2 P0000 T01000094,0,4.0,0,8045,0,0,1,"-RA,BR"
2026-04-05 20:54:00,METAR KBOS 052054Z 00000KT 3SM -RA BR SCT002 BKN007 OVC040 09/08 A2969 RMK AO2 RAB26E33B43 SLP052 P0000 60002 T00890083 56027,0,0.0,0,4827,0,0,1,"-RA,BR,RA"
2026-04-05 20:42:00,SPECI KBOS 052042Z 00000KT 2 1/2SM BR BKN002 BKN006 OVC040 08/08 A2969 RMK AO2 RAB26E33 P0000 T00780078,0,0.0,0,4022,0,0,1,"BR,RA"
2026-04-05 20:18:00,SPECI KBOS 052018Z 15003KT 1SM R04R/P6000FT BR OVC003 08/08 A2968 RMK AO2 SFC VIS 2 1/2 T00830078,0,3.0,0,1609,0,0,1,"BR,FC"
2026-04-05 19:54:00,METAR KBOS 051954Z 12005KT 1SM R04R/P6000FT BR BKN002 OVC006 08/08 A2969 RMK AO2 SFC VIS 2 RAE08 SLP053 P0000 T00780078,0,5.0,0,1609,0,0,1,"BR,FC"
2026-04-05 19:26:00,SPECI KBOS 051926Z 14007KT 2 1/2SM BR BKN002 BKN006 OVC040 07/07 A2972 RMK AO2 RAE08 VIS E-SE 1 3/4 P0000 T00720067,0,7.0,0,4022,0,0,1,BR
2026-04-05 19:08:00,SPECI KBOS 051908Z 14006KT 3SM BR BKN006 OVC040 08/08 A2973 RMK AO2 RAE08 VIS E-SE 1 3/4 P0000 T00830078,0,6.0,0,4827,0,0,1,BR
2026-04-05 18:54:00,METAR KBOS 051854Z 12005KT 3SM R04R/4500VP6000FT -RA BR OVC006 09/09 A2973 RMK AO2 RAE14B37DZB14E37 SLP066 P0002 T00940089,0,5.0,0,4827,0,0,1,"-RA,BR,RA"
2026-04-05 18:15:00,SPECI KBOS 051815Z 28005KT 4SM -DZ BR OVC006 09/09 A2976 RMK AO2 RAE14DZB14 P0000 T00940089,0,5.0,0,6436,0,0,1,"BR,DZ,RA"
2026-04-05 17:54:00,METAR KBOS 051754Z 28005KT 2 1/2SM -RA BR OVC005 09/08 A2977 RMK AO2 DZB21E51RAB51 SLP079 P0000 60006 T00940083 10094 20050 58015,0,5.0,0,4022,0,0,1,"-RA,BR,DZ"
2026-04-05 17:23:00,SPECI KBOS 051723Z 27004KT 3SM -DZ BR OVC005 09/08 A2977 RMK AO2 DZB21 P0000 T00890078,0,4.0,0,4827,0,0,1,"BR,DZ"
2026-04-05 16:54:00,METAR KBOS 051654Z 31005KT 7SM OVC005 09/08 A2978 RMK AO2 RAE12B19E37 SLP084 P0005 T00890078,0,5.0,0,11263,0,0,0,RA
2026-04-05 16:31:00,SPECI KBOS 051631Z 30004KT 4SM -RA BR OVC005 08/08 A2978 RMK AO2 RAE12B19 P0005 T00830078,0,4.0,0,6436,0,0,1,"-RA,BR,RA"
2026-04-05 16:24:00,SPECI KBOS 051624Z 31004KT 1 3/4SM R04R/4500VP6000FT +RA BR OVC005 08/08 A2979 RMK AO2 RAE12B19 P0002 T00830078,0,4.0,0,2816,0,1,1,"+RA,BR,RA"
2026-04-05 16:16:00,SPECI KBOS 051616Z 32005KT 10SM OVC005 08/07 A2979 RMK AO2 RAE12 P0001 T00830072,0,5.0,0,16090,0,0,0,
2026-04-05 15:54:00,METAR KBOS 051554Z 31006KT 6SM -RA BR OVC004 08/07 A2980 RMK AO2 RAE09B50 SLP092 P0000 T00780072,0,6.0,0,9654,0,0,1,"-RA,BR,RA"
2026-04-05 15:37:00,SPECI KBOS 051537Z 31007KT 3SM BR OVC004 08/07 A2982 RMK AO2 RAE09 P0000 T00780072,0,7.0,0,4827,0,0,1,BR
2026-04-05 14:54:00,METAR KBOS 051454Z 23005KT 2SM -RA BR OVC003 08/08 A2981 RMK AO2 RAB41 SLP094 P0000 60001 T00780078 56044,0,5.0,0,3218,0,0,1,"-RA,BR"
2026-04-05 13:08:00,SPECI KBOS 051308Z 28003KT 2 1/2SM BR OVC004 06/06 A2989 RMK AO2 T00610056,0,3.0,0,4022,0,0,1,BR
2026-04-05 12:54:00,METAR KBOS 051254Z 00000KT 2SM R04R/6000VP6000FT BR OVC005 06/06 A2989 RMK AO2 VIS 1 1/4 E SLP120 T00560056,0,0.0,0,3218,0,0,1,BR
2026-04-05 12:36:00,SPECI KBOS 051236Z 00000KT 1 1/2SM R04R/5000VP6000FT BR OVC005 06/05 A2990 RMK AO2 T00560050,0,0.0,0,2414,0,0,1,BR
2026-04-05 12:20:00,SPECI KBOS 051220Z 00000KT 2SM R04R/5000VP6000FT BR OVC005 05/05 A2992 RMK AO2 T00500050,0,0.0,0,3218,0,0,1,BR
2026-04-05 12:17:00,SPECI KBOS 051217Z 33003KT 1 3/4SM R04R/5000VP6000FT BR OVC004 05/05 A2993 RMK AO2 T00500050,0,3.0,0,2816,0,0,1,BR
2026-04-05 12:02:00,SPECI KBOS 051202Z 00000KT 1 3/4SM BR OVC005 05/05 A2993 RMK AO2 T00500050,0,0.0,0,2816,0,0,1,BR
2026-04-05 11:54:00,METAR KBOS 051154Z 17004KT 1SM R04R/6000VP6000FT BR OVC003 05/04 A2994 RMK AO2 SLP138 P0001 60002 70002 T00500044 10050 20044 57043,0,4.0,0,1609,0,0,1,BR
2026-04-05 10:54:00,METAR KBOS 051054Z 11004KT 1SM R04R/5500V6000FT BR OVC003 04/04 A2997 RMK AO2 RAE39 SLP148 P0000 T00440044,0,4.0,0,1609,0,0,1,BR
2026-04-05 10:45:00,SPECI KBOS 051045Z 13004KT 1 1/4SM R04R/6000FT BR OVC004 04/04 A2998 RMK AO2 VIS 1V1 3/4 RAE39 P0000 T00440044,0,4.0,0,2011,0,0,1,BR
2026-04-05 09:54:00,METAR KBOS 050954Z 00000KT 2SM -RA BR OVC004 04/04 A3004 RMK AO2 RAB32 SLP171 P0000 T00440039,0,0.0,0,3218,0,0,1,"-RA,BR"
2026-04-05 09:37:00,SPECI KBOS 050937Z 13005KT 2 1/2SM -RA BR OVC004 04/04 A3004 RMK AO2 RAB32 P0000 T00440039,0,5.0,0,4022,0,0,1,"-RA,BR"
2026-04-05 09:17:00,SPECI KBOS 050917Z 13006KT 2 1/2SM BR OVC005 04/04 A3005 RMK AO2 T00440039,0,6.0,0,4022,0,0,1,BR
2026-04-05 08:54:00,METAR KBOS 050854Z 12007KT 4SM BR OVC005 04/04 A3007 RMK AO2 DZE24RAB24E43 SLP181 P0001 60001 T00440039 56059,0,7.0,0,6436,0,0,1,"BR,DZ"
2026-04-05 07:54:00,METAR KBOS 050754Z 13013KT 4SM -DZ BR OVC007 04/03 A3012 RMK AO2 DZB50 SLP198 P0000 T00440033,0,13.0,0,6436,0,0,1,"BR,DZ"
2026-04-05 06:54:00,METAR KBOS 050654Z 10013KT 8SM OVC009 04/03 A3017 RMK AO2 DZB19E51 PRESFR SLP216 P0000 T00440033,0,13.0,0,12872,0,0,0,DZ
2026-04-05 06:34:00,SPECI KBOS 050634Z 11011KT 4SM -DZ BR OVC009 04/03 A3020 RMK AO2 DZB19 P0000 T00440033,0,11.0,0,6436,0,0,1,"BR,DZ"
2026-04-05 05:54:00,METAR KBOS 050554Z 13010KT 7SM OVC011 04/03 A3024 RMK AO2 SLP240 T00440028 10044 20033 57033,0,10.0,0,11263,0,0,0,
2026-04-05 05:17:00,SPECI KBOS 050517Z 12014KT 10SM OVC014 04/02 A3026 RMK AO2 T00440022,0,14.0,0,16090,0,0,0,
2026-04-05 05:05:00,SPECI KBOS 050505Z 12016KT 10SM OVC015 04/02 A3027 RMK AO2 T00440022,0,16.0,0,16090,0,0,0,
2026-04-05 04:54:00,METAR KBOS 050454Z 12015KT 10SM OVC013 04/02 A3027 RMK AO2 SLP249 T00440022 401670033,0,15.0,0,16090,0,0,0,
2026-04-05 03:54:00,METAR KBOS 050354Z 10011KT 10SM OVC013 04/02 A3031 RMK AO2 SLP264 T00440022,0,11.0,0,16090,0,0,0,
2026-04-05 02:54:00,METAR KBOS 050254Z 10014KT 10SM OVC012 04/02 A3034 RMK AO2 SLP273 T00390017 58018,0,14.0,0,16090,0,0,0,
2026-04-05 01:54:00,METAR KBOS 050154Z 09013KT 10SM OVC011 04/02 A3037 RMK AO2 SLP284 T00390017,0,13.0,0,16090,0,0,0,
2026-04-05 01:01:00,SPECI KBOS 050101Z 10013KT 10SM OVC014 04/01 A3039 RMK AO2 T00390011,0,13.0,0,16090,0,0,0,
2026-04-05 00:54:00,METAR KBOS 050054Z 10014KT 10SM OVC015 03/01 A3039 RMK AO2 SLP291 T00330006,0,14.0,0,16090,0,0,0,
2026-04-04 23:54:00,METAR KBOS 042354Z 09014G23KT 10SM OVC017 04/00 A3039 RMK AO2 SLP290 T00390000 10061 20039 58003,0,14.0,1,16090,0,0,0,
2026-04-04 22:54:00,METAR KBOS 042254Z 09014KT 10SM OVC021 04/00 A3040 RMK AO2 SLP293 T00390000,0,14.0,0,16090,0,0,0,
2026-04-04 21:54:00,METAR KBOS 042154Z 08014KT 10SM BKN020 OVC047 04/01 A3040 RMK AO2 SLP293 T00440006,0,14.0,0,16090,0,0,0,
2026-04-04 21:20:00,SPECI KBOS 042120Z 07013KT 10SM BKN020 OVC046 04/01 A3039 RMK AO2 T00440006,0,13.0,0,16090,0,0,0,
2026-04-04 21:11:00,SPECI KBOS 042111Z 08017KT 10SM SCT020 OVC046 05/01 A3039 RMK AO2 T00500006,0,17.0,0,16090,0,0,0,
2026-04-04 20:54:00,METAR KBOS 042054Z 07015KT 10SM OVC019 05/01 A3040 RMK AO2 SLP293 T00500006 50004,0,15.0,0,16090,0,0,0,
2026-04-04 19:54:00,METAR KBOS 041954Z 08019KT 10SM OVC017 05/01 A3041 RMK AO2 SLP296 T00500006,0,19.0,0,16090,0,0,0,
2026-04-04 18:54:00,METAR KBOS 041854Z 08018KT 10SM BKN017 OVC036 06/01 A3041 RMK AO2 SLP296 T00560011,0,18.0,0,16090,0,0,0,
2026-04-04 18:33:00,SPECI KBOS 041833Z 08018G24KT 10SM BKN016 BKN021 OVC034 06/02 A3040 RMK AO2 T00560017,0,18.0,1,16090,0,0,0,
2026-04-04 18:19:00,SPECI KBOS 041819Z 08016KT 10SM SCT018 OVC034 06/02 A3040 RMK AO2 T00610017,0,16.0,0,16090,0,0,0,
2026-04-04 17:54:00,METAR KBOS 041754Z 07016KT 10SM OVC016 06/02 A3039 RMK AO2 SLP289 T00610022 10144 20061 51027,0,16.0,0,16090,0,0,0,
2026-04-04 17:27:00,SPECI KBOS 041727Z 07015KT 10SM BKN016 OVC041 07/03 A3038 RMK AO2 T00670028,0,15.0,0,16090,0,0,0,
2026-04-04 16:54:00,METAR KBOS 041654Z 07017KT 10SM FEW020 BKN040 BKN090 07/03 A3036 RMK AO2 SLP281 T00670028,0,17.0,0,16090,0,0,0,
2026-04-04 15:54:00,METAR KBOS 041554Z 06016G25KT 10SM FEW021 OVC040 07/03 A3033 RMK AO2 PK WND 06032/1455 SLP271 T00720033,0,16.0,1,16090,0,0,0,
2026-04-04 14:54:00,METAR KBOS 041454Z 06023G31KT 10SM BKN034 BKN090 08/03 A3031 RMK AO2 PK WND 05031/1454 SLP262 T00830033 53041,0,23.0,1,16090,0,0,0,
2026-04-04 13:54:00,METAR KBOS 041354Z 07011KT 10SM SCT043 BKN090 BKN250 14/06 A3026 RMK AO2 SLP247 T01390056,0,11.0,0,16090,0,0,0,
2026-04-04 12:54:00,METAR KBOS 041254Z 35009G19KT 10SM FEW028 SCT090 BKN250 14/05 A3021 RMK AO2 SLP230 T01440050,0,9.0,1,16090,0,0,0,
2026-04-04 11:54:00,METAR KBOS 041154Z 35012KT 10SM FEW025 SCT032 SCT180 BKN250 14/07 A3018 RMK AO2 SLP220 T01390072 10167 20133 53050,0,12.0,0,16090,0,0,0,
2026-04-04 10:54:00,METAR KBOS 041054Z 31012KT 10SM FEW018 FEW028 SCT150 BKN250 16/11 A3012 RMK AO2 SLP200 T01610106,0,12.0,0,16090,0,0,0,
2026-04-04 09:54:00,METAR KBOS 040954Z 28008KT 10SM FEW180 BKN250 17/12 A3008 RMK AO2 SLP184 T01670117,0,8.0,0,16090,0,0,0,
2026-04-04 08:54:00,METAR KBOS 040854Z 27009G19KT 10SM FEW180 BKN250 17/12 A3003 RMK AO2 SLP170 T01670117 53013,0,9.0,1,16090,0,0,0,
2026-04-04 07:54:00,METAR KBOS 040754Z 24008KT 10SM SCT250 15/12 A3001 RMK AO2 SLP161 T01500117,0,8.0,0,16090,0,0,0,
2026-04-04 06:54:00,METAR KBOS 040654Z 23011KT 10SM CLR 15/12 A3000 RMK AO2 SLP158 T01500117,0,11.0,0,16090,0,0,0,
2026-04-04 05:54:00,METAR KBOS 040554Z 22013KT 10SM CLR 15/11 A3000 RMK AO2 SLP157 T01500111 10172 20144 58004,0,13.0,0,16090,0,0,0,
2026-04-04 04:54:00,METAR KBOS 040454Z 22015KT 10SM FEW120 SCT250 15/11 A3000 RMK AO2 SLP159 T01500111 402000033,0,15.0,0,16090,0,0,0,
2026-04-04 03:54:00,METAR KBOS 040354Z 23013KT 10SM SCT120 BKN250 16/11 A3000 RMK AO2 SLP160 T01560106,0,13.0,0,16090,0,0,0,
2026-04-04 02:54:00,METAR KBOS 040254Z 23015KT 10SM FEW120 BKN250 14/11 A3001 RMK AO2 SLP161 T01440106 51004,0,15.0,0,16090,0,0,0,
2026-04-04 01:54:00,METAR KBOS 040154Z 22016G24KT 10SM FEW110 SCT250 15/10 A3001 RMK AO2 SLP161 T01500100,0,16.0,1,16090,0,0,0,
2026-04-04 00:54:00,METAR KBOS 040054Z 22015KT 10SM FEW220 SCT250 16/11 A3001 RMK AO2 SLP163 T01560106,0,15.0,0,16090,0,0,0,
2026-04-03 23:54:00,METAR KBOS 032354Z 21015KT 10SM SCT220 SCT250 18/11 A3000 RMK AO2 SLP157 T01780106 10200 20094 57013,0,15.0,0,16090,0,0,0,
2026-04-03 22:54:00,METAR KBOS 032254Z 21009KT 10SM FEW120 SCT220 OVC250 19/11 A3001 RMK AO2 SLP162 T01890111,0,9.0,0,16090,0,0,0,
2026-04-03 21:54:00,METAR KBOS 032154Z 00000KT 10SM SCT120 SCT220 BKN250 14/09 A3002 RMK AO2 SLP166 T01440094,0,0.0,0,16090,0,0,0,
2026-04-03 20:54:00,METAR KBOS 032054Z 08006KT 10SM FEW150 SCT220 BKN250 09/07 A3004 RMK AO2 SLP171 T00940067 56036,0,6.0,0,16090,0,0,0,
2026-04-03 19:54:00,METAR KBOS 031954Z 07006KT 10SM FEW100 SCT220 BKN250 11/08 A3006 RMK AO2 SLP180 T01060078 $,0,6.0,0,16090,0,0,0,
2026-04-03 18:54:00,METAR KBOS 031854Z 11006KT 10SM SCT015 SCT220 BKN250 12/08 A3009 RMK AO2 PRESFR SLP190 T01170083 $,0,6.0,0,16090,0,0,0,
2026-04-03 18:16:00,SPECI KBOS 031816Z 12006KT 10SM BKN015 BKN250 11/08 A3014 RMK AO2 T01060083 $,0,6.0,0,16090,0,0,0,
2026-04-03 17:54:00,METAR KBOS 031754Z 18007KT 10SM OVC011 12/09 A3014 RMK AO2 SLP207 60000 T01170089 10117 20044 56045 $,0,7.0,0,16090,0,0,0,
2026-04-03 17:07:00,SPECI KBOS 031707Z 19006KT 10SM OVC010 09/08 A3018 RMK AO2 T00940078 $,0,6.0,0,16090,0,0,0,
2026-04-03 16:54:00,METAR KBOS 031654Z 18008KT 10SM OVC009 09/07 A3018 RMK AO2 SLP220 T00940072 $,0,8.0,0,16090,0,0,0,
2026-04-03 15:54:00,METAR KBOS 031554Z 20006KT 8SM OVC008 08/07 A3023 RMK AO2 DZE12 SLP235 P0000 T00780067 $,0,6.0,0,12872,0,0,0,
2026-04-03 15:42:00,SPECI KBOS 031542Z 22008KT 5SM BR OVC007 08/06 A3024 RMK AO2 DZE12 P0000 T00780061 $,0,8.0,0,8045,0,0,1,BR
2026-04-03 15:15:00,SPECI KBOS 031515Z 21006KT 2SM BR OVC007 07/06 A3026 RMK AO2 DZE12 P0000 T00720061 $,0,6.0,0,3218,0,0,1,BR
2026-04-03 14:54:00,METAR KBOS 031454Z 23006KT 1 1/2SM -DZ BR OVC007 07/06 A3028 RMK AO2 SLP251 P0000 60000 T00670056 58022 $,0,6.0,0,2414,0,0,1,"BR,DZ"
2026-04-03 13:54:00,METAR KBOS 031354Z 21003KT 1 1/4SM -DZ BR BKN006 OVC011 06/05 A3030 RMK AO2 SLP260 P0000 T00560050 $,0,3.0,0,2011,0,0,1,"BR,DZ"
2026-04-03 13:25:00,SPECI KBOS 031325Z 17003KT 1SM R04R/6000VP6000FT -DZ BR OVC006 05/05 A3032 RMK AO2 P0000 T00500050 $,0,3.0,0,1609,0,0,1,"BR,DZ"
2026-04-03 13:12:00,SPECI KBOS 031312Z 16004KT 3/4SM R04R/4500V6000FT -DZ BR OVC007 05/04 A3032 RMK AO2 P0000 T00500044 $,0,4.0,0,1207,0,0,1,"BR,DZ"
2026-04-03 12:54:00,METAR KBOS 031254Z 00000KT 3/4SM R04R/6000VP6000FT -DZ BR BKN003 OVC007 04/04 A3033 RMK AO2 SLP269 P0000 T00440044 $,0,0.0,0,1207,0,0,1,"BR,DZ"
2026-04-03 12:23:00,SPECI KBOS 031223Z 00000KT 3/4SM R04R/4500V5000FT -DZ BR BKN004 OVC007 04/04 A3033 RMK AO2 P0000 T00440039 $,0,0.0,0,1207,0,0,1,"BR,DZ"
2026-04-03 12:02:00,SPECI KBOS 031202Z 14003KT 1 1/4SM R04R/5500VP6000FT -DZ BR BKN003 OVC007 04/04 A3034 RMK AO2 P0000 T00440039 $,0,3.0,0,2011,0,0,1,"BR,DZ"
2026-04-03 11:54:00,METAR KBOS 031154Z 14004KT 1 1/4SM -DZ BR OVC005 04/04 A3034 RMK AO2 SLP273 P0000 60001 70006 T00440039 10044 20033 58012 $,0,4.0,0,2011,0,0,1,"BR,DZ"
2026-04-03 11:21:00,SPECI KBOS 031121Z 13005KT 1 1/4SM R04R/6000VP6000FT -DZ BR SCT004 OVC008 04/04 A3035 RMK AO2 CIG 004 E P0000 T00440039 $,0,5.0,0,2011,0,0,1,"BR,DZ"
2026-04-03 08:54:00,METAR KBOS 030854Z 11010KT 2 1/2SM -DZ BR BKN004 OVC007 04/03 A3039 RMK AO2 SLP290 P0001 60001 T00390033 58035,0,10.0,0,4022,0,0,1,"BR,DZ"
2026-04-03 08:27:00,SPECI KBOS 030827Z 10009KT 3SM -DZ BR FEW003 BKN005 OVC009 04/03 A3042 RMK AO2 P0001 T00390033,0,9.0,0,4827,0,0,1,"BR,DZ"
2026-04-03 08:25:00,SPECI KBOS 030825Z 11009KT 2 1/2SM -DZ BR OVC005 04/03 A3042 RMK AO2 P0001 T00390033,0,9.0,0,4022,0,0,1,"BR,DZ"
2026-04-03 06:19:00,SPECI KBOS 030619Z 09008KT 2SM -DZ BR BKN004 OVC009 03/03 A3049 RMK AO2 P0000 T00330028,0,8.0,0,3218,0,0,1,"BR,DZ"
2026-04-03 05:54:00,METAR KBOS 030554Z 08009KT 2 1/2SM -DZ BR OVC008 03/03 A3049 RMK AO2 SLP324 P0000 60000 T00330028 10033 20028 58012,0,9.0,0,4022,0,0,1,"BR,DZ"
2026-04-03 04:54:00,METAR KBOS 030454Z 07009KT 5SM -DZ BR OVC008 03/03 A3051 RMK AO2 DZB51 SLP329 P0000 T00330028 400560028,0,9.0,0,8045,0,0,1,"BR,DZ"
2026-04-03 03:54:00,METAR KBOS 030354Z 08009KT 10SM OVC009 03/02 A3052 RMK AO2 SLP335 T00330022,0,9.0,0,16090,0,0,0,
2026-04-03 02:54:00,METAR KBOS 030254Z 08012KT 10SM OVC011 03/02 A3053 RMK AO2 SLP336 60000 T00330017 58012,0,12.0,0,16090,0,0,0,
2026-04-03 01:54:00,METAR KBOS 030154Z 08011KT 10SM FEW008 BKN012 OVC017 03/02 A3055 RMK AO2 RAB0057E24 SLP343 P0000 T00330017,0,11.0,0,16090,0,0,0,RA
2026-04-03 01:11:00,SPECI KBOS 030111Z 09012KT 8SM -RA FEW009 BKN012 OVC019 03/02 A3055 RMK AO2 RAB0057 P0000 T00330017,0,12.0,0,12872,0,0,0,"-RA,RA"
2026-04-03 00:54:00,METAR KBOS 030054Z 08015KT 10SM BKN013 BKN019 OVC035 03/02 A3055 RMK AO2 RAE11 SLP345 P0000 T00330017,0,15.0,0,16090,0,0,0,
2026-04-02 23:54:00,METAR KBOS 022354Z 08012KT 6SM -RA BR OVC012 03/02 A3056 RMK AO2 RAB14 SLP348 P0001 60001 T00330017 10039 20028 53002,0,12.0,0,9654,0,0,1,"-RA,BR"
2026-04-02 22:54:00,METAR KBOS 022254Z 06013KT 10SM OVC013 03/01 A3055 RMK AO2 RAB2155E11 SLP344 P0000 T00330011,0,13.0,0,16090,0,0,0,RA
2026-04-02 22:28:00,SPECI KBOS 022228Z 06013KT 10SM OVC013 03/01 A3055 RMK AO2 RAB2155E11 P0000 T00330011,0,13.0,0,16090,0,0,0,RA
2026-04-02 21:54:00,METAR KBOS 022154Z 06014KT 10SM OVC013 03/01 A3056 RMK AO2 SLP348 T00330011,0,14.0,0,16090,0,0,0,
2026-04-02 20:54:00,METAR KBOS 022054Z 06014G23KT 10SM BKN013 OVC018 03/01 A3055 RMK AO2 RAE22DZB22E49 SLP345 P0000 60000 T00280011 58004,0,14.0,1,16090,0,0,0,RA
2026-04-02 19:54:00,METAR KBOS 021954Z 06015KT 5SM -RA BR BKN012 OVC019 03/01 A3055 RMK AO2 RAE24B35 SLP345 P0000 T00330011,0,15.0,0,8045,0,0,1,"-RA,BR,RA"
2026-04-02 19:26:00,SPECI KBOS 021926Z 05016G23KT 4SM BR FEW011 BKN015 OVC019 03/01 A3056 RMK AO2 RAE24 P0000 T00280011,0,16.0,1,6436,0,0,1,BR
2026-04-02 18:54:00,METAR KBOS 021854Z 05014G23KT 4SM -RA BR BKN011 OVC018 03/01 A3057 RMK AO2 RAB48 SLP350 P0000 T00330011,0,14.0,1,6436,0,0,1,"-RA,BR"
2026-04-02 18:50:00,SPECI KBOS 021850Z 06016G23KT 4SM -RA BR BKN013 BKN022 OVC040 03/01 A3057 RMK AO2 RAB48 P0000,0,16.0,1,6436,0,0,1,"-RA,BR"
2026-04-02 17:54:00,METAR KBOS 021754Z 05017KT 10SM OVC017 04/01 A3057 RMK AO2 SLP352 60004 T00390006 10044 20033 53001,0,17.0,0,16090,0,0,0,
2026-04-02 16:54:00,METAR KBOS 021654Z 06016G25KT 10SM OVC015 04/02 A3057 RMK AO2 SLP350 T00390017,0,16.0,1,16090,0,0,0,
2026-04-02 15:54:00,METAR KBOS 021554Z 06016G24KT 10SM OVC015 04/02 A3058 RMK AO2 RAE06 SLP353 P0000 T00390017,0,16.0,1,16090,0,0,0,
2026-04-02 14:54:00,METAR KBOS 021454Z 05013KT 10SM -RA SCT013 OVC020 04/02 A3057 RMK AO2 SLP351 P0001 60004 T00390022 51023,0,13.0,0,16090,0,0,0,-RA
2026-04-02 14:42:00,SPECI KBOS 021442Z 05015KT 10SM -RA SCT013 OVC020 04/02 A3057 RMK AO2 CIG 015 E P0001 T00390022,0,15.0,0,16090,0,0,0,-RA
2026-04-02 13:54:00,METAR KBOS 021354Z 04014KT 8SM -RA BKN011 OVC019 03/02 A3056 RMK AO2 SLP347 P0002 T00330022,0,14.0,0,12872,0,0,0,-RA
2026-04-02 12:54:00,METAR KBOS 021254Z 04014G19KT 6SM -RA BR BKN012 OVC017 03/02 A3053 RMK AO2 RAB00 SLP338 P0001 T00330022 $,0,14.0,1,9654,0,0,1,"-RA,BR"
2026-04-02 12:06:00,SPECI KBOS 021206Z 05014KT 10SM -RA BKN013 OVC018 03/02 A3051 RMK AO2 RAB00 P0000 T00330017 $,0,14.0,0,16090,0,0,0,-RA
2026-04-02 11:54:00,METAR KBOS 021154Z 06015KT 10SM BKN015 BKN022 OVC034 03/02 A3050 RMK AO2 RAE53 SLP328 P0000 60015 70022 T00330017 10050 20033 53022 $,0,15.0,0,16090,0,0,0,
2026-04-02 10:54:00,METAR KBOS 021054Z 06015KT 10SM -RA SCT011 SCT015 OVC023 03/02 A3048 RMK AO2 SLP321 P0003 T00330022 $,0,15.0,0,16090,0,0,0,-RA
2026-04-02 10:40:00,SPECI KBOS 021040Z 06017KT 10SM -RA SCT011 OVC018 03/02 A3048 RMK AO2 PRESRR P0003 T00330022 $,0,17.0,0,16090,0,0,0,-RA
2026-04-02 09:54:00,METAR KBOS 020954Z 05013KT 5SM RA BR OVC006 04/03 A3045 RMK AO2 SLP309 P0006 T00390028 $,0,13.0,0,8045,0,0,1,"BR,RA"
2026-04-02 09:10:00,SPECI KBOS 020910Z 05018KT 10SM -RA BKN008 OVC013 04/02 A3045 RMK AO2 P0000 T00390022 $,0,18.0,0,16090,0,0,0,-RA
2026-04-02 08:54:00,METAR KBOS 020854Z 05015G27KT 10SM -RA FEW008 OVC012 04/02 A3044 RMK AO2 PK WND 06028/0823 SLP306 P0003 60006 T00390022 51009 $,0,15.0,1,16090,0,0,0,-RA
2026-04-02 08:46:00,SPECI KBOS 020846Z 05021G27KT 10SM -RA FEW008 OVC014 04/02 A3043 RMK AO2 PK WND 06028/0823 P0003 T00390022 $,0,21.0,1,16090,0,0,0,-RA
2026-04-02 07:54:00,METAR KBOS 020754Z 05018G24KT 9SM -RA FEW009 OVC017 04/02 A3043 RMK AO2 SLP304 P0003 T00390017 $,0,18.0,1,14481,0,0,0,-RA
2026-04-02 06:54:00,METAR KBOS 020654Z 04015KT 10SM -RA FEW009 OVC020 04/02 A3044 RMK AO2 PK WND 06026/0555 SLP305 P0000 T00440022 $,0,15.0,0,16090,0,0,0,-RA
2026-04-02 05:54:00,METAR KBOS 020554Z 05018G24KT 10SM -RA FEW009 BKN017 OVC024 05/03 A3041 RMK AO2 RAE05B50 SLP297 P0000 60000 T00500028 10067 20050 51014 $,0,18.0,1,16090,0,0,0,"-RA,RA"
2026-04-02 04:54:00,METAR KBOS 020454Z 04014G21KT 10SM -RA FEW009 OVC029 06/02 A3040 RMK AO2 RAE04B51 SLP295 P0000 T00560017 402170044 $,0,14.0,1,16090,0,0,0,"-RA,RA"
2026-04-02 04:16:00,SPECI KBOS 020416Z 03015G23KT 10SM FEW009 OVC029 06/02 A3039 RMK AO2 RAE04 P0000 T00610017 $,0,15.0,1,16090,0,0,0,
2026-04-02 03:54:00,METAR KBOS 020354Z 03015KT 10SM -RA FEW009 OVC038 06/03 A3039 RMK AO2 RAB52 SLP289 PCPN VRY LGT P0000 T00610028 $,0,15.0,0,16090,0,0,0,-RA
2026-04-02 02:54:00,METAR KBOS 020254Z 03009KT 10SM FEW009 OVC037 06/04 A3037 RMK AO2 SLP283 60000 T00610044 51031 $,0,9.0,0,16090,0,0,0,
2026-04-02 01:54:00,METAR KBOS 020154Z 05005KT 10SM FEW009 BKN033 OVC110 07/05 A3034 RMK AO2 SLP275 T00670050 $,0,5.0,0,16090,0,0,0,
2026-04-02 01:08:00,SPECI KBOS 020108Z 05009KT 10SM SCT009 BKN033 OVC100 06/04 A3032 RMK AO2 T00610044 $,0,9.0,0,16090,0,0,0,
2026-04-02 00:54:00,METAR KBOS 020054Z 03009KT 10SM BKN008 BKN040 OVC110 06/05 A3032 RMK AO2 RAB2356E43 SLP265 P0000 T00610050 $,0,9.0,0,16090,0,0,0,RA
2026-04-02 00:42:00,SPECI KBOS 020042Z 03008KT 10SM -RA BKN008 BKN040 OVC110 06/05 A3032 RMK AO2 RAB2356 P0000 T00610050 $,0,8.0,0,16090,0,0,0,"-RA,RA"
2026-04-01 23:54:00,METAR KBOS 012354Z 04008KT 10SM FEW008 SCT035 OVC085 06/05 A3028 RMK AO2 RAE46 SLP252 P0001 60007 T00610050 10217 20061 51036 $,0,8.0,0,16090,0,0,0,
2026-04-01 22:54:00,METAR KBOS 012254Z 02009KT 8SM -RA FEW008 BKN035 OVC110 06/05 A3025 RMK AO2 SLP243 P0002 T00610050 $,0,9.0,0,12872,0,0,0,-RA
2026-04-01 22:09:00,SPECI KBOS 012209Z 05009KT 8SM -RA FEW008 SCT016 OVC033 06/05 A3023 RMK AO2 P0001 T00610050 $,0,9.0,0,12872,0,0,0,-RA
2026-04-01 21:54:00,METAR KBOS 012154Z 05009KT 6SM -RA BR FEW008 BKN015 OVC024 06/05 A3022 RMK AO2 SLP233 P0001 T00610050 $,0,9.0,0,9654,0,0,1,"-RA,BR"
2026-04-01 21:15:00,SPECI KBOS 012115Z 05010KT 3SM -RA BR FEW009 BKN015 OVC021 07/06 A3019 RMK AO2 P0001 T00670056 $,0,10.0,0,4827,0,0,1,"-RA,BR"
2026-04-01 21:04:00,SPECI KBOS 012104Z 06010KT 2SM -RA BR FEW009 BKN015 OVC021 07/06 A3018 RMK AO2 P0001 T00670056 $,0,10.0,0,3218,0,0,1,"-RA,BR"
2026-04-01 20:54:00,METAR KBOS 012054Z 08009KT 1 1/2SM RA BR FEW008 BKN015 OVC028 07/06 A3017 RMK AO2 RAB09 SLP216 P0003 60003 T00720061 52056 $,0,9.0,0,2414,0,0,1,"BR,RA"
2026-04-01 20:45:00,SPECI KBOS 012045Z 08009KT 2SM RA BR BKN017 OVC028 07/06 A3017 RMK AO2 RAB09 P0001 T00720061 $,0,9.0,0,3218,0,0,1,"BR,RA"
2026-04-01 20:23:00,SPECI KBOS 012023Z 06006KT 5SM -RA BR BKN027 OVC040 08/07 A3015 RMK AO2 RAB09 P0000 T00830067 $,0,6.0,0,8045,0,0,1,"-RA,BR"
2026-04-01 19:54:00,METAR KBOS 011954Z 04009KT 10SM OVC041 08/06 A3012 RMK AO2 RAB15E23 SLP197 P0000 T00830061 $,0,9.0,0,16090,0,0,0,RA
2026-04-01 18:54:00,METAR KBOS 011854Z 05016G21KT 10SM BKN041 OVC090 11/08 A3007 RMK AO2 SLP180 T01110078 $,0,16.0,1,16090,0,0,0,
2026-04-01 17:54:00,METAR KBOS 011754Z 13003KT 10SM FEW044 BKN095 22/14 A3001 RMK AO2 SLP161 60000 T02170144 10217 20133 51012 $,0,3.0,0,16090,0,0,0,
2026-04-01 16:54:00,METAR KBOS 011654Z 13004KT 10SM FEW055 BKN090 18/13 A3000 RMK AO2 SLP156 T01780128 $,0,4.0,0,16090,0,0,0,
2026-04-01 15:54:00,METAR KBOS 011554Z 22008KT 10SM FEW060 OVC095 19/13 A2999 RMK AO2 SLP154 BINOVC T01940133 $,0,8.0,0,16090,0,0,0,VC
2026-04-01 14:54:00,METAR KBOS 011454Z 21005KT 10SM FEW055 BKN095 BKN250 17/13 A2997 RMK AO2 SLP150 60000 T01720133 51022 $,0,5.0,0,16090,0,0,0,
2026-04-01 13:54:00,METAR KBOS 011354Z 21008KT 10SM BKN090 BKN120 BKN250 16/12 A2996 RMK AO2 RAB29E41 SLP145 P0000 T01610122 $,0,8.0,0,16090,0,0,0,RA
2026-04-01 12:54:00,METAR KBOS 011254Z 23011KT 10SM BKN120 OVC170 16/12 A2993 RMK AO2 SLP135 T01560117 $,0,11.0,0,16090,0,0,0,
2026-04-01 11:54:00,METAR KBOS 011154Z 23007KT 10SM FEW090 OVC160 13/11 A2991 RMK AO2 SLP128 60001 70006 T01330106 10133 20050 53024 $,0,7.0,0,16090,0,0,0,
2026-04-01 10:54:00,METAR KBOS 011054Z 19004KT 9SM FEW080 SCT110 BKN200 10/08 A2988 RMK AO2 SLP117 T01000083 $,0,4.0,0,14481,0,0,0,
2026-04-01 09:54:00,METAR KBOS 010954Z 12003KT 10SM FEW080 BKN110 OVC140 09/07 A2986 RMK AO2 RAB43E53 SLP111 P0000 T00890072 $,0,3.0,0,16090,0,0,0,RA
2026-04-01 08:54:00,METAR KBOS 010854Z 23007KT 10SM FEW080 SCT090 BKN110 09/08 A2984 RMK AO2 RAB16E51 SLP103 P0001 60001 T00890078 55014 $,0,7.0,0,16090,0,0,0,RA
2026-04-01 07:54:00,METAR KBOS 010754Z 22012KT 9SM FEW005 OVC180 07/06 A2983 RMK AO2 SLP101 T00720061 $,0,12.0,0,14481,0,0,0,
2026-04-01 07:42:00,SPECI KBOS 010742Z 23007KT 8SM SCT006 OVC180 07/06 A2983 RMK AO2 T00670056 $,0,7.0,0,12872,0,0,0,
2026-04-01 07:07:00,SPECI KBOS 010707Z 20006KT 6SM BR OVC005 06/05 A2984 RMK AO2 T00560050 $,0,6.0,0,9654,0,0,1,BR
2026-04-01 06:54:00,METAR KBOS 010654Z 20007KT 6SM BR OVC004 06/05 A2984 RMK AO2 SLP104 T00560050 $,0,7.0,0,9654,0,0,1,BR
2026-04-01 05:54:00,METAR KBOS 010554Z 19006KT 4SM BR OVC002 05/04 A2988 RMK AO2 SLP117 T00500044 10050 20044 56043 $,0,6.0,0,6436,0,0,1,BR
2026-04-01 05:46:00,SPECI KBOS 010546Z 18007KT 3SM BR OVC002 05/04 A2988 RMK AO2 T00500044 $,0,7.0,0,4827,0,0,1,BR
2026-04-01 05:10:00,SPECI KBOS 010510Z 20004KT 1 3/4SM R04R/5000VP6000FT BR OVC002 04/04 A2990 RMK AO2 VIS 1 E T00440039 $,0,4.0,0,2816,0,0,1,BR
2026-04-01 04:54:00,METAR KBOS 010454Z 15006KT 5SM BR OVC004 04/04 A2991 RMK AO2 SLP128 T00440039 401330044 $,0,6.0,0,8045,0,0,1,BR
2026-04-01 03:54:00,METAR KBOS 010354Z 00000KT 8SM OVC004 04/04 A2996 RMK AO2 SLP144 T00440039 $,0,0.0,0,12872,0,0,0,
2026-04-01 03:21:00,SPECI KBOS 010321Z 35007KT 7SM OVC004 04/04 A2997 RMK AO2 PRESFR T00440039 $,0,7.0,0,11263,0,0,0,
2026-04-01 02:54:00,METAR KBOS 010254Z 32009G18KT 1/4SM R04R/5500VP6000FT BR OVC002 04/04 A3001 RMK AO2 SFC VIS 3/4 SLP160 T00440044 53005 $,0,9.0,1,402,0,0,1,"BR,FC"
2026-04-01 01:54:00,METAR KBOS 010154Z 05006KT 1/4SM R04R/3000VP6000FT BR OVC002 04/04 A2998 RMK AO2 SFC VIS 3/4 SLP151 T00440039 $,0,6.0,0,402,0,0,1,"BR,FC"
2026-04-01 01:44:00,SPECI KBOS 010144Z 06004KT 1/4SM R04R/4000VP6000FT BR OVC002 04/04 A2998 RMK AO2 SFC VIS 1 T00440039 $,0,4.0,0,402,0,0,1,"BR,FC"
2026-04-01 00:54:00,METAR KBOS 010054Z 06007KT 2SM BR OVC003 04/04 A2997 RMK AO2 SLP148 T00440039 $,0,7.0,0,3218,0,0,1,BR
2026-04-01 00:05:00,SPECI KBOS 010005Z 06007KT 5SM BR OVC004 04/04 A2999 RMK AO2 T00440039 $,0,7.0,0,8045,0,0,1,BR
2026-03-31 23:54:00,METAR KBOS 312354Z 05006KT 7SM OVC005 04/03 A2999 RMK AO2 SLP155 60000 T00440033 10106 20044 51009 $,0,6.0,0,11263,0,0,0,
2026-03-31 22:54:00,METAR KBOS 312254Z 07008KT 9SM OVC007 05/03 A2999 RMK AO2 SLP154 T00500033 $,0,8.0,0,14481,0,0,0,
2026-03-31 21:54:00,METAR KBOS 312154Z 06010KT 10SM OVC007 05/03 A2998 RMK AO2 SLP151 T00500033 $,0,10.0,0,16090,0,0,0,
2026-03-31 20:54:00,METAR KBOS 312054Z 05009KT 10SM OVC008 06/04 A2997 RMK AO2 SLP146 60000 T00610039 53006 $,0,9.0,0,16090,0,0,0,
2026-03-31 19:54:00,METAR KBOS 311954Z 03013KT 10SM OVC008 08/06 A2996 RMK AO2 SLP143 T00780056 $,0,13.0,0,16090,0,0,0,
2026-03-31 19:18:00,SPECI KBOS 311918Z 03011KT 10SM BKN009 OVC100 08/06 A2996 RMK AO2 PRESRR T00830061 $,0,11.0,0,16090,0,0,0,
2026-03-31 18:54:00,METAR KBOS 311854Z 04012KT 10SM SCT009 SCT050 OVC100 09/07 A2994 RMK AO2 RAE27B43E50 SLP138 P0000 T00940072 $,0,12.0,0,16090,0,0,0,RA
2026-03-31 17:54:00,METAR KBOS 311754Z 05009KT 10SM -RA FEW007 SCT016 OVC100 11/08 A2995 RMK AO2 RAB19 SLP141 P0000 60005 T01060083 10133 20078 58001 $,0,9.0,0,16090,0,0,0,-RA
2026-03-31 17:34:00,SPECI KBOS 311734Z 08006KT 10SM -RA SCT007 BKN022 OVC100 10/08 A2994 RMK AO2 RAB19 P0000 T01000083 $,0,6.0,0,16090,0,0,0,-RA
2026-03-31 17:19:00,SPECI KBOS 311719Z 06008KT 10SM -RA BKN007 BKN017 OVC100 08/07 A2995 RMK AO2 RAB19 P0000 T00830067 $,0,8.0,0,16090,0,0,0,-RA
2026-03-31 16:54:00,METAR KBOS 311654Z 06009KT 8SM FEW005 SCT017 BKN110 OVC150 08/07 A2996 RMK AO2 SLP143 T00780067 $,0,9.0,0,12872,0,0,0,
2026-03-31 15:54:00,METAR KBOS 311554Z 13006KT 7SM FEW026 SCT100 OVC150 12/11 A2995 RMK AO2 RAE37 SLP141 P0001 T01170106 $,0,6.0,0,11263,0,0,0,
2026-03-31 14:54:00,METAR KBOS 311454Z 31006KT 10SM -RA SCT014 OVC050 13/11 A2998 RMK AO2 SLP152 P0004 60004 T01280111 53001 $,0,6.0,0,16090,0,0,0,-RA
2026-03-31 13:54:00,METAR KBOS 311354Z 19007KT 10SM -RA FEW012 BKN060 OVC120 12/10 A2994 RMK AO2 RAB46 SLP138 P0000 T01170100 $,0,7.0,0,16090,0,0,0,-RA
2026-03-31 12:54:00,METAR KBOS 311254Z 19010KT 10SM FEW049 BKN095 OVC120 11/09 A2997 RMK AO2 RAE02 SLP146 P0000 T01060094 $,0,10.0,0,16090,0,0,0,
2026-03-31 11:54:00,METAR KBOS 311154Z 19004KT 7SM -RA BKN060 OVC090 10/09 A2998 RMK AO2 SLP151 P0004 60005 70005 T01000089 10128 20089 50001 $,0,4.0,0,11263,0,0,0,-RA
2026-03-31 10:54:00,METAR KBOS 311054Z 21011KT 9SM -RA FEW060 OVC090 11/09 A2999 RMK AO2 RAB01E12B33 SLP154 P0001 T01110089 $,0,11.0,0,14481,0,0,0,"-RA,RA"
2026-03-31 09:54:00,METAR KBOS 310954Z 00000KT 10SM OVC100 11/08 A2998 RMK AO2 SLP150 T01060078 $,0,0.0,0,16090,0,0,0,
2026-03-31 08:54:00,METAR KBOS 310854Z 13004KT 10SM BKN110 OVC250 09/07 A2998 RMK AO2 SLP150 T00890067 56010 $,0,4.0,0,16090,0,0,0,
2026-03-31 07:54:00,METAR KBOS 310754Z 18004KT 10SM SCT100 BKN250 11/07 A2998 RMK AO2 SLP152 T01060072,0,4.0,0,16090,0,0,0,
2026-03-31 06:54:00,METAR KBOS 310654Z 22010KT 10SM FEW120 BKN250 13/08 A2999 RMK AO2 SLP156 T01280078,0,10.0,0,16090,0,0,0,
2026-03-31 05:54:00,METAR KBOS 310554Z 22010KT 10SM FEW120 BKN250 13/07 A3001 RMK AO2 SLP160 T01280072 10144 20122 58001,0,10.0,0,16090,0,0,0,
2026-03-31 04:54:00,METAR KBOS 310454Z 23013KT 10SM SCT120 12/07 A3001 RMK AO2 SLP162 T01220067 401940044,0,13.0,0,16090,0,0,0,
2026-03-31 03:54:00,METAR KBOS 310354Z 23014KT 10SM FEW110 12/07 A3001 RMK AO2 SLP162 T01220067,0,14.0,0,16090,0,0,0,
2026-03-31 02:54:00,METAR KBOS 310254Z 21014KT 10SM FEW200 12/07 A3001 RMK AO2 SLP161 T01220067 50005,0,14.0,0,16090,0,0,0,
2026-03-31 01:54:00,METAR KBOS 310154Z 21014KT 10SM FEW200 13/06 A3001 RMK AO2 SLP161 T01280061,0,14.0,0,16090,0,0,0,
2026-03-31 00:54:00,METAR KBOS 310054Z 21010G20KT 10SM FEW200 14/06 A3000 RMK AO2 SLP160 T01390061,0,10.0,1,16090,0,0,0,
2026-03-30 23:54:00,METAR KBOS 302354Z 20013KT 10SM FEW090 SCT200 SCT250 13/06 A2999 RMK AO2 SLP156 T01280061 10194 20128 53014,0,13.0,0,16090,0,0,0,
2026-03-30 22:54:00,METAR KBOS 302254Z 21014KT 10SM FEW040 FEW120 SCT200 BKN250 16/06 A2997 RMK AO2 PK WND 21027/2233 SLP149 T01610056,0,14.0,0,16090,0,0,0,
2026-03-30 21:54:00,METAR KBOS 302154Z 21018G25KT 10SM FEW040 FEW120 BKN200 OVC250 18/05 A2997 RMK AO2 PK WND 21027/2103 SLP147 T01780050,0,18.0,1,16090,0,0,0,
2026-03-30 20:54:00,METAR KBOS 302054Z 22019G28KT 10SM FEW040 FEW120 BKN200 BKN250 19/04 A2995 RMK AO2 PK WND 24028/2004 SLP142 T01940044 56015,0,19.0,1,16090,0,0,0,
2026-03-30 19:54:00,METAR KBOS 301954Z 23019G26KT 10SM FEW040 FEW110 BKN160 OVC250 19/04 A2995 RMK AO2 PK WND 23030/1855 SLP142 T01890039,0,19.0,1,16090,0,0,0,
2026-03-30 18:54:00,METAR KBOS 301854Z 22016G25KT 10SM FEW040 FEW110 BKN200 OVC250 19/04 A2996 RMK A02 PK WND 22027/1830 SLP146 T01940039,0,16.0,1,16090,0,0,0,
2026-03-30 17:54:00,METAR KBOS 301754Z 22016G24KT 10SM FEW031 SCT110 BKN180 BKN250 19/04 A3000 RMK AO2 PK WND 22028/1736 SLP157 T01890039 10189 20072 56034,0,16.0,1,16090,0,0,0,
2026-03-30 16:54:00,METAR KBOS 301654Z 20019KT 10SM FEW030 BKN110 BKN250 16/04 A3002 RMK AO2 PK WND 24027/1637 SLP166 T01610039,0,19.0,0,16090,0,0,0,
2026-03-30 15:54:00,METAR KBOS 301554Z 23019G24KT 10SM FEW030 BKN100 BKN250 13/04 A3007 RMK AO2 PK WND 22028/1535 SLP181 T01330039,0,19.0,1,16090,0,0,0,
2026-03-30 14:54:00,METAR KBOS 301454Z 23019G27KT 10SM FEW025 BKN110 OVC220 12/04 A3010 RMK AO2 PK WND 22029/1415 SLP191 T01170039 56027,0,19.0,1,16090,0,0,0,
2026-03-30 13:54:00,METAR KBOS 301354Z 22019KT 10SM FEW025 BKN120 BKN250 10/04 A3012 RMK AO2 PK WND 21028/1332 SLP199 T01000044,0,19.0,0,16090,0,0,0,
2026-03-30 12:54:00,METAR KBOS 301254Z 22017KT 10SM SCT100 BKN180 BKN250 08/04 A3015 RMK AO2 SLP207 T00830044,0,17.0,0,16090,0,0,0,
2026-03-30 11:54:00,METAR KBOS 301154Z 20013KT 10SM SCT130 BKN180 BKN220 07/04 A3018 RMK AO2 SLP217 T00720039 10072 20044 56024,0,13.0,0,16090,0,0,0,
2026-03-30 10:54:00,METAR KBOS 301054Z 20010KT 10SM SCT130 BKN180 BKN250 07/03 A3020 RMK AO2 SLP226 T00670033,0,10.0,0,16090,0,0,0,
2026-03-30 09:54:00,METAR KBOS 300954Z 20013KT 10SM BKN130 BKN180 06/02 A3022 RMK AO2 SLP232 T00610017,0,13.0,0,16090,0,0,0,
2026-03-30 08:54:00,METAR KBOS 300854Z 20011KT 10SM BKN120 OVC220 06/00 A3025 RMK AO2 SLP241 T00610000 56033,0,11.0,0,16090,0,0,0,
2026-03-30 07:54:00,METAR KBOS 300754Z 20010KT 10SM BKN120 BKN250 05/M01 A3027 RMK AO2 SLP251 T00501006,0,10.0,0,16090,0,0,0,
2026-03-30 06:54:00,METAR KBOS 300654Z 19008KT 10SM BKN120 BKN250 04/M01 A3031 RMK AO2 SLP262 T00441006,0,8.0,0,16090,0,0,0,
2026-03-30 05:54:00,METAR KBOS 300554Z 21008KT 10SM BKN120 BKN250 05/M02 A3034 RMK AO2 SLP274 T00501022 10067 20044 58010,0,8.0,0,16090,0,0,0,
2026-03-30 04:54:00,METAR KBOS 300454Z 21009KT 10SM BKN120 BKN250 05/M03 A3036 RMK AO2 SLP278 T00501028 401061017,0,9.0,0,16090,0,0,0,
2026-03-30 02:54:00,METAR KBOS 300254Z 19009KT 10SM CLR 05/M03 A3037 RMK AO2 SLP284 T00501033 58003,0,9.0,0,16090,0,0,0,
2026-03-30 01:54:00,METAR KBOS 300154Z 18011KT 10SM FEW180 BKN250 05/M03 A3038 RMK AO2 SLP286 T00501033,0,11.0,0,16090,0,0,0,
2026-03-30 00:54:00,METAR KBOS 300054Z 17010KT 10SM FEW250 05/M03 A3039 RMK AO2 SLP289 T00501033,0,10.0,0,16090,0,0,0,
2026-03-29 23:54:00,METAR KBOS 292354Z 20014KT 10SM FEW180 FEW250 06/M03 A3038 RMK AO2 PK WND 23026/2300 SLP287 T00611033 10106 20061 53004,0,14.0,0,16090,0,0,0,
2026-03-29 22:54:00,METAR KBOS 292254Z 21017G28KT 10SM FEW180 FEW250 08/M04 A3037 RMK AO2 PK WND 21028/2252 SLP284 T00781039,0,17.0,1,16090,0,0,0,
2026-03-29 21:54:00,METAR KBOS 292154Z 20019G25KT 10SM FEW050 FEW100 SCT140 SCT250 09/M04 A3037 RMK AO2 SLP283 T00891044,0,19.0,1,16090,0,0,0,
2026-03-29 20:54:00,METAR KBOS 292054Z 22018G24KT 10SM FEW060 FEW140 SCT250 09/M08 A3037 RMK AO2 PK WND 22033/2026 SLP283 T00941083 56026,0,18.0,1,16090,0,0,0,
2026-03-29 19:54:00,METAR KBOS 291954Z 23019G26KT 10SM FEW060 FEW140 SCT250 11/M08 A3038 RMK AO2 PK WND 24029/1911 SLP286 T01061083,0,19.0,1,16090,0,0,0,
2026-03-29 18:54:00,METAR KBOS 291854Z 22011G21KT 10SM FEW050 FEW140 FEW250 09/M09 A3040 RMK AO2 PK WND 25027/1827 WSHFT 1819 SLP293 T00941089,0,11.0,1,16090,0,0,0,
2026-03-29 18:34:00,SPECI KBOS 291834Z 23013G27KT 10SM FEW050 FEW140 FEW250 09/M09 A3041 RMK AO2 PK WND 25027/1827 WSHFT 1819 T00941094,0,13.0,1,16090,0,0,0,
2026-03-29 17:54:00,METAR KBOS 291754Z 22013G24KT 10SM FEW050 FEW130 SCT250 09/M09 A3045 RMK AO2 PK WND 23030/1728 SLP309 T00891089 10089 20000 58034,0,13.0,1,16090,0,0,0,
2026-03-29 16:54:00,METAR KBOS 291654Z 22014G22KT 10SM FEW045 FEW070 FEW160 SCT250 07/M10 A3048 RMK AO2 PK WND 23027/1643 SLP322 T00721100,0,14.0,1,16090,0,0,0,
2026-03-29 15:54:00,METAR KBOS 291554Z 26010G18KT 10SM FEW070 FEW250 06/M09 A3052 RMK AO2 SLP334 T00611094,0,10.0,1,16090,0,0,0,
2026-03-29 14:54:00,METAR KBOS 291454Z 22009KT 10SM FEW070 FEW250 04/M09 A3055 RMK AO2 SLP343 T00441094 58008,0,9.0,0,16090,0,0,0,
2026-03-29 13:54:00,METAR KBOS 291354Z 25013G24KT 10SM SCT080 SCT250 03/M09 A3058 RMK AO2 SLP354 T00281094,0,13.0,1,16090,0,0,0,
2026-03-29 12:54:00,METAR KBOS 291254Z 25010KT 10SM FEW030 SCT100 02/M09 A3058 RMK AO2 SLP353 T00221094,0,10.0,0,16090,0,0,0,
2026-03-29 11:54:00,METAR KBOS 291154Z 23009KT 10SM FEW030 BKN095 00/M11 A3057 RMK AO2 SLP351 T00001106 10000 21017 51014,0,9.0,0,16090,0,0,0,
2026-03-29 10:54:00,METAR KBOS 291054Z 24010KT 10SM FEW030 FEW090 M01/M12 A3056 RMK AO2 SLP348 T10111117,0,10.0,0,16090,0,0,0,
2026-03-29 09:54:00,METAR KBOS 290954Z 22006KT 10SM FEW030 M02/M12 A3054 RMK AO2 SLP341 T10171117,0,6.0,0,16090,0,0,0,
2026-03-29 08:54:00,METAR KBOS 290854Z 27007KT 10SM CLR M01/M12 A3053 RMK AO2 SLP337 T10111122 53007,0,7.0,0,16090,0,0,0,
2026-03-29 07:54:00,METAR KBOS 290754Z 28009KT 10SM CLR M01/M13 A3052 RMK AO2 SLP333 T10061133,0,9.0,0,16090,0,0,0,
2026-03-29 06:54:00,METAR KBOS 290654Z 28009KT 10SM CLR M01/M13 A3052 RMK AO2 SLP332 T10061128,0,9.0,0,16090,0,0,0,
2026-03-29 05:54:00,METAR KBOS 290554Z 28009KT 10SM CLR M01/M13 A3051 RMK AO2 SLP329 T10061128 10022 21006 51015,0,9.0,0,16090,0,0,0,
2026-03-29 04:54:00,METAR KBOS 290454Z 27011KT 10SM CLR 00/M13 A3050 RMK AO2 SLP326 T00001128 400331028,0,11.0,0,16090,0,0,0,
2026-03-29 03:54:00,METAR KBOS 290354Z 28011KT 10SM CLR 00/M12 A3049 RMK AO2 SLP323 T00001117,0,11.0,0,16090,0,0,0,
2026-03-29 02:54:00,METAR KBOS 290254Z 29013G20KT 10SM CLR 02/M12 A3046 RMK AO2 SLP315 T00171117 51021,0,13.0,1,16090,0,0,0,
2026-03-29 01:54:00,METAR KBOS 290154Z 28010G18KT 10SM CLR 02/M12 A3046 RMK AO2 SLP312 T00171117,0,10.0,1,16090,0,0,0,
2026-03-29 00:54:00,METAR KBOS 290054Z 31010KT 10SM FEW090 02/M12 A3043 RMK AO2 SLP303 T00171122,0,10.0,0,16090,0,0,0,
2026-03-28 23:54:00,METAR KBOS 282354Z 27014G24KT 10SM FEW075 SCT095 02/M13 A3040 RMK AO2 SLP294 T00221128 10033 20000 53015,0,14.0,1,16090,0,0,0,
2026-03-28 22:54:00,METAR KBOS 282254Z 32009KT 10SM SCT060 SCT085 02/M13 A3038 RMK AO2 SLP287 T00171133,0,9.0,0,16090,0,0,0,
2026-03-28 21:54:00,METAR KBOS 282154Z VRB06KT 10SM SCT080 BKN095 02/M10 A3037 RMK AO2 SLP283 T00221100,0,6.0,0,16090,0,0,0,
2026-03-28 20:54:00,METAR KBOS 282054Z 35010G18KT 10SM BKN090 BKN220 03/M15 A3036 RMK AO2 SLP279 T00331150 55004,0,10.0,1,16090,0,0,0,
2026-03-28 19:54:00,METAR KBOS 281954Z VRB06G18KT 10SM BKN085 BKN220 03/M14 A3035 RMK AO2 SLP276 T00281139,0,6.0,1,16090,0,0,0,
2026-03-28 18:54:00,METAR KBOS 281854Z 32006KT 10SM BKN080 BKN220 03/M15 A3035 RMK AO2 SLP276 T00281150,0,6.0,0,16090,0,0,0,
2026-03-28 17:54:00,METAR KBOS 281754Z 31010G21KT 10SM SCT080 02/M17 A3037 RMK AO2 SLP283 T00221172 10028 21028 56009,0,10.0,1,16090,0,0,0,
2026-03-28 16:54:00,METAR KBOS 281654Z 10SM FEW055 FEW100 SCT250 01/M15 A3038 RMK AO2 SLP286 T00111150,0,,0,16090,0,0,0,
2026-03-28 15:54:00,METAR KBOS 281554Z 29006G18KT 10SM FEW055 FEW100 SCT250 01/M15 A3039 RMK AO2 SLP289 T00061150,0,6.0,1,16090,0,0,0,
2026-03-28 14:54:00,METAR KBOS 281454Z 33008G14KT 10SM FEW050 FEW110 SCT250 01/M13 A3040 RMK AO2 SLP293 T00061133 51018,0,8.0,1,16090,0,0,0,
2026-03-28 13:54:00,METAR KBOS 281354Z 33006KT 10SM FEW050 FEW110 FEW250 M01/M14 A3039 RMK AO2 SLP290 T10111139,0,6.0,0,16090,0,0,0,
2026-03-28 12:54:00,METAR KBOS 281254Z 33010KT 10SM SCT250 M02/M13 A3037 RMK AO2 SLP282 T10171133,0,10.0,0,16090,0,0,0,
2026-03-28 11:54:00,METAR KBOS 281154Z 33010KT 10SM FEW040 BKN070 M03/M13 A3035 RMK AO2 SLP275 T10281133 11006 21028 53027,0,10.0,0,16090,0,0,0,
2026-03-28 10:54:00,METAR KBOS 281054Z 34011KT 10SM FEW030 BKN070 M03/M13 A3032 RMK AO2 SLP265 T10281133,0,11.0,0,16090,0,0,0,
2026-03-28 09:54:00,METAR KBOS 280954Z 35011KT 10SM BKN075 M02/M13 A3030 RMK AO2 SLP258 T10221128,0,11.0,0,16090,0,0,0,
2026-03-28 08:54:00,METAR KBOS 280854Z 34009KT 10SM OVC075 M02/M14 A3027 RMK AO2 SLP248 T10171139 53008,0,9.0,0,16090,0,0,0,
2026-03-28 07:54:00,METAR KBOS 280754Z 35009KT 10SM OVC070 M02/M14 A3025 RMK AO2 SLP243 T10171139,0,9.0,0,16090,0,0,0,
2026-03-28 06:54:00,METAR KBOS 280654Z 34009KT 10SM BKN075 BKN250 M01/M14 A3025 RMK AO2 SLP243 T10111139,0,9.0,0,16090,0,0,0,
2026-03-28 03:54:00,METAR KBOS 280354Z 34009KT 10SM FEW250 01/M14 A3020 RMK AO2 SLP226 T00061144,0,9.0,0,16090,0,0,0,
2026-03-28 02:54:00,METAR KBOS 280254Z 35009KT 10SM FEW250 02/M13 A3019 RMK AO2 SLP222 T00171128 51014,0,9.0,0,16090,0,0,0,
2026-03-28 01:54:00,METAR KBOS 280154Z 36010KT 10SM CLR 02/M11 A3018 RMK AO2 SLP217 T00221111,0,10.0,0,16090,0,0,0,
2026-03-28 00:54:00,METAR KBOS 280054Z 05006KT 10SM FEW250 02/M04 A3017 RMK AO2 SLP215 T00221039,0,6.0,0,16090,0,0,0,
2026-03-27 23:54:00,METAR KBOS 272354Z 10008KT 10SM FEW220 SCT250 03/M03 A3015 RMK AO2 SLP207 T00281033 10067 20028 53028,0,8.0,0,16090,0,0,0,
2026-03-27 22:54:00,METAR KBOS 272254Z 35006KT 10SM FEW150 FEW220 SCT250 05/M13 A3011 RMK AO2 SLP195 T00501133,0,6.0,0,16090,0,0,0,
2026-03-27 21:54:00,METAR KBOS 272154Z 35012KT 10SM FEW220 SCT250 06/M13 A3007 RMK AO2 SLP182 T00611133,0,12.0,0,16090,0,0,0,
2026-03-27 20:54:00,METAR KBOS 272054Z 31007G16KT 10SM BKN220 BKN250 06/M11 A3006 RMK AO2 SLP179 T00611111 51003,0,7.0,1,16090,0,0,0,
2026-03-27 19:54:00,METAR KBOS 271954Z 35006KT 10SM FEW180 BKN220 OVC250 06/M11 A3006 RMK AO2 SLP179 T00561106,0,6.0,0,16090,0,0,0,
2026-03-27 18:54:00,METAR KBOS 271854Z 33010KT 10SM SCT150 BKN220 OVC250 06/M10 A3006 RMK AO2 PK WND 34028/1816 SLP180 T00561100,0,10.0,0,16090,0,0,0,
2026-03-27 17:54:00,METAR KBOS 271754Z 33015G25KT 10SM FEW028 FEW044 BKN220 OVC250 06/M12 A3005 RMK AO2 PK WND 30027/1742 SLP176 T00561117 10078 20056 51022,0,15.0,1,16090,0,0,0,
2026-03-27 16:54:00,METAR KBOS 271654Z 31011G21KT 10SM FEW028 SCT044 BKN220 06/M06 A3004 RMK AO2 SLP172 T00611061,0,11.0,1,16090,0,0,0,
2026-03-27 15:54:00,METAR KBOS 271554Z 34012G23KT 10SM SCT038 SCT090 BKN220 06/M03 A3001 RMK AO2 SLP163 T00611028,0,12.0,1,16090,0,0,0,
2026-03-25 14:54:00,METAR KBOS 251454Z 10SM BKN250 07/M07 A3037 RMK AO2 SLP282 T00671067 58001 $,0,,0,16090,0,0,0,
2026-03-25 13:54:00,METAR KBOS 251354Z 27007KT 10SM BKN250 06/M07 A3038 RMK AO2 SLP286 T00561067 $,0,7.0,0,16090,0,0,0,
2026-03-25 12:54:00,METAR KBOS 251254Z 26010G18KT 10SM BKN250 04/M06 A3037 RMK AO2 SLP285 T00441056 $,0,10.0,1,16090,0,0,0,
2026-03-25 11:54:00,METAR KBOS 251154Z 26011G21KT 10SM BKN250 03/M06 A3037 RMK AO2 SLP283 T00331061 10033 20011 51019 $,0,11.0,1,16090,0,0,0,
2026-03-25 10:54:00,METAR KBOS 251054Z 26011G19KT 10SM BKN250 03/M06 A3036 RMK AO2 SLP279 T00281061 $,0,11.0,1,16090,0,0,0,
2026-03-25 09:54:00,METAR KBOS 250954Z 24008KT 10SM SCT250 02/M06 A3033 RMK AO2 SLP271 T00171056 $,0,8.0,0,16090,0,0,0,
2026-03-25 08:54:00,METAR KBOS 250854Z 23011KT 10SM FEW250 01/M05 A3031 RMK AO2 SLP264 T00111050 53009 $,0,11.0,0,16090,0,0,0,
2026-03-25 07:54:00,METAR KBOS 250754Z 23013KT 10SM FEW250 02/M06 A3029 RMK AO2 SLP255 T00171056 $,0,13.0,0,16090,0,0,0,
2026-03-25 06:54:00,METAR KBOS 250654Z 23014KT 10SM BKN250 02/M06 A3028 RMK AO2 SLP252 T00171056 $,0,14.0,0,16090,0,0,0,
2026-03-25 05:54:00,METAR KBOS 250554Z 24017KT 10SM SCT250 02/M06 A3029 RMK AO2 SLP255 T00221056 10039 20022 53001 $,0,17.0,0,16090,0,0,0,
2026-03-25 04:54:00,METAR KBOS 250454Z 23014KT 10SM BKN250 02/M05 A3028 RMK AO2 SLP252 T00221050 400610000 $,0,14.0,0,16090,0,0,0,
2026-03-25 03:54:00,METAR KBOS 250354Z COR 23013KT 10SM FEW150 SCT250 02/M04 A3027 RMK AO2 SLP250 T00221039 $,0,13.0,0,16090,0,0,0,
2026-03-25 02:54:00,METAR KBOS 250254Z 22014KT 10SM SCT140 02/M03 A3028 RMK AO2 SLP253 T00221028 58001 $,0,14.0,0,16090,0,0,0,
2026-03-25 01:54:00,METAR KBOS 250154Z 21014KT 10SM CLR 02/M03 A3029 RMK AO2 PK WND 22026/0107 SLP256 T00221028 $,0,14.0,0,16090,0,0,0,
2026-03-25 00:54:00,METAR KBOS 250054Z 21013KT 10SM CLR 03/M03 A3029 RMK AO2 SLP258 T00331028 $,0,13.0,0,16090,0,0,0,
2026-03-24 23:54:00,METAR KBOS 242354Z 19016KT 10SM FEW180 FEW250 04/M03 A3028 RMK AO2 SLP254 T00391028 10056 20039 53004 $,0,16.0,0,16090,0,0,0,
2026-03-24 22:54:00,METAR KBOS 242254Z 14012KT 10SM FEW070 FEW250 04/M02 A3027 RMK AO2 SLP250 T00441022 $,0,12.0,0,16090,0,0,0,
2026-03-24 21:54:00,METAR KBOS 242154Z 12013KT 10SM FEW070 FEW250 05/M01 A3027 RMK AO2 SLP249 T00501011 $,0,13.0,0,16090,0,0,0,
2026-03-24 20:54:00,METAR KBOS 242054Z 11014KT 10SM FEW060 FEW250 05/M01 A3027 RMK AO2 SLP250 T00501011 56015 $,0,14.0,0,16090,0,0,0,
2026-03-24 19:54:00,METAR KBOS 241954Z 11013KT 10SM CLR 06/M02 A3028 RMK AO2 SLP253 T00561022 $,0,13.0,0,16090,0,0,0,
2026-03-24 18:54:00,METAR KBOS 241854Z 12012KT 10SM FEW055 05/M02 A3030 RMK AO2 SLP261 T00501022 $,0,12.0,0,16090,0,0,0,
2026-03-24 17:54:00,METAR KBOS 241754Z 12011KT 10SM SCT050 05/M03 A3032 RMK AO2 SLP266 T00501028 10061 20006 58013 $,0,11.0,0,16090,0,0,0,
2026-03-24 16:54:00,METAR KBOS 241654Z 34008KT 10SM SCT046 05/M06 A3035 RMK AO2 SLP275 T00501056 $,0,8.0,0,16090,0,0,0,
2026-03-24 15:54:00,METAR KBOS 241554Z 36005KT 10SM BKN040 04/M05 A3035 RMK AO2 SLP276 T00441050 $,0,5.0,0,16090,0,0,0,
2026-03-24 14:54:00,METAR KBOS 241454Z 35007KT 10SM SCT035 03/M04 A3036 RMK AO2 SLP279 T00331044 53018 $,0,7.0,0,16090,0,0,0,
2026-03-24 13:54:00,METAR KBOS 241354Z 33008G18KT 10SM FEW025 FEW040 03/M04 A3034 RMK AO2 SLP271 T00331039 $,0,8.0,1,16090,0,0,0,
2026-03-24 12:54:00,METAR KBOS 241254Z 32009KT 10SM FEW022 SCT040 02/M03 A3032 RMK AO2 SLP265 T00171033 $,0,9.0,0,16090,0,0,0,
2026-03-24 11:54:00,METAR KBOS 241154Z 31008KT 10SM FEW025 BKN041 01/M03 A3030 RMK AO2 SLP261 60000 70003 T00061033 10006 20000 51034 $,0,8.0,0,16090,0,0,0,
2026-03-24 10:54:00,METAR KBOS 241054Z 34006KT 10SM FEW023 BKN037 00/M04 A3028 RMK AO2 SLP252 T00001039 $,0,6.0,0,16090,0,0,0,
2026-03-24 10:19:00,SPECI KBOS 241019Z 34008KT 10SM FEW023 SCT027 OVC041 00/M03 A3026 RMK AO2 T00001033 $,0,8.0,0,16090,0,0,0,
2026-03-24 09:54:00,METAR KBOS 240954Z 33007KT 10SM OVC021 00/M03 A3024 RMK AO2 SLP239 T00001028 $,0,7.0,0,16090,0,0,0,
2026-03-24 09:09:00,SPECI KBOS 240909Z 34013KT 10SM SCT021 OVC031 01/M03 A3021 RMK AO2 T00061033 $,0,13.0,0,16090,0,0,0,
2026-03-24 08:54:00,METAR KBOS 240854Z 33010G18KT 10SM BKN024 OVC033 01/M03 A3020 RMK AO2 SNE23 SLP226 P0000 60000 T00061033 53018 $,0,10.0,1,16090,0,0,0,
2026-03-24 08:23:00,SPECI KBOS 240823Z 33011G17KT 10SM OVC026 01/M03 A3019 RMK AO2 SNE23 P0000 T00061033 $,0,11.0,1,16090,0,0,0,
2026-03-24 07:54:00,METAR KBOS 240754Z 32009KT 9SM -SN FEW013 OVC028 01/M03 A3018 RMK AO2 SLP218 P0000 T00061033 $,0,9.0,0,14481,0,0,0,SN
2026-03-24 06:54:00,METAR KBOS 240654Z 34010KT 9SM -SN FEW013 OVC022 00/M03 A3017 RMK AO2 SLP215 P0000 T00001028 $,0,10.0,0,14481,0,0,0,SN
2026-03-24 05:54:00,METAR KBOS 240554Z 33011G18KT 7SM -SN FEW009 BKN021 OVC034 01/M03 A3015 RMK AO2 SLP209 P0000 60000 T00061028 10017 20000 51018 $,0,11.0,1,11263,0,0,0,SN
2026-03-24 05:35:00,SPECI KBOS 240535Z 33009KT 3SM -SN BR FEW007 BKN017 OVC030 00/M02 A3015 RMK AO2 P0000 T00001017 $,0,9.0,0,4827,0,0,1,"BR,SN"
2026-03-24 04:55:00,SPECI KBOS 240455Z 31011KT 1SM R04R/P6000FT -SN BR FEW008 BKN023 OVC030 01/M01 A3014 RMK AO2 P0000 T00061011 $,0,11.0,0,1609,0,0,1,"BR,SN"
2026-03-24 04:54:00,METAR KBOS 240454Z 31010KT 2 1/2SM -SN BR FEW011 BKN023 OVC032 01/M01 A3014 RMK AO2 SLP205 P0000 T00061011 400330006 $,0,10.0,0,4022,0,0,1,"BR,SN"
2026-03-24 04:48:00,SPECI KBOS 240448Z 32007KT 2 1/2SM -SN BR FEW013 BKN023 OVC032 01/M01 A3014 RMK AO2 P0000 $,0,7.0,0,4022,0,0,1,"BR,SN"
2026-03-24 04:22:00,SPECI KBOS 240422Z 33009KT 8SM -SN FEW013 BKN023 OVC033 01/M02 A3012 RMK AO2 P0000 T00111017 $,0,9.0,0,12872,0,0,0,SN
2026-03-24 03:54:00,METAR KBOS 240354Z 32008KT 5SM -SN FEW015 OVC035 01/M02 A3012 RMK AO2 SLP199 P0000 T00111017 $,0,8.0,0,8045,0,0,0,SN
2026-03-24 02:54:00,METAR KBOS 240254Z 33009KT 10SM -SN FEW011 OVC038 01/M02 A3010 RMK AO2 SNB50 SLP191 P0000 60000 T00111017 51022 $,0,9.0,0,16090,0,0,0,SN
2026-03-24 01:54:00,METAR KBOS 240154Z 36007KT 10SM FEW025 OVC043 01/M02 A3008 RMK AO2 SLP186 T00111017 $,0,7.0,0,16090,0,0,0,
2026-03-24 00:54:00,METAR KBOS 240054Z 36009KT 10SM FEW025 SCT049 OVC070 01/M02 A3007 RMK AO2 SLP180 T00111017 $,0,9.0,0,16090,0,0,0,
2026-03-23 23:54:00,METAR KBOS 232354Z 34009KT 10SM FEW009 SCT021 OVC033 01/M01 A3003 RMK AO2 RAE13DZB13E28SNE11 SLP170 P0000 60000 T00111006 10028 20011 53034 $,0,9.0,0,16090,0,0,0,RA
2026-03-23 23:29:00,SPECI KBOS 232329Z 34010KT 7SM FEW009 SCT021 OVC033 02/M01 A3002 RMK AO2 RAE13DZB13E28SNE11 P0000 T00171006 $,0,10.0,0,11263,0,0,0,RA
2026-03-23 23:14:00,SPECI KBOS 232314Z 34008KT 6SM -DZ BR FEW009 SCT018 OVC025 01/M01 A3001 RMK AO2 RAE13DZB13SNE11 P0000 T00111006 $,0,8.0,0,9654,0,0,1,"BR,DZ,RA"
2026-03-23 22:54:00,METAR KBOS 232254Z 34013KT 6SM -RASN BR FEW009 BKN015 OVC029 02/M01 A3000 RMK AO2 DZB04E36RAB36SNB36 SLP158 P0000 T00171006 $,0,13.0,0,9654,0,0,1,"-RA,BR,DZ,SN"
2026-03-23 22:38:00,SPECI KBOS 232238Z 35012KT 6SM -RASN BR FEW009 BKN015 OVC029 02/M01 A2999 RMK AO2 DZB04E36RAB36SNB36 VIS NE-SE 3 P0000 T00171006,0,12.0,0,9654,0,0,1,"-RA,BR,DZ,SN"
2026-03-23 21:54:00,METAR KBOS 232154Z 36014KT 10SM SCT012 BKN020 OVC045 02/M01 A2996 RMK AO2 DZE12RAB20E30 SLP145 P0000 T00221006,0,14.0,0,16090,0,0,0,DZ
2026-03-23 21:47:00,SPECI KBOS 232147Z 35013KT 10SM SCT012 BKN020 OVC045 02/M01 A2996 RMK AO2 DZE12RAB20E30 P0000 T00221006,0,13.0,0,16090,0,0,0,DZ
2026-03-23 21:18:00,SPECI KBOS 232118Z 35012KT 10SM BKN012 BKN021 OVC045 02/00 A2994 RMK AO2 DZE12 P0000 T00220000,0,12.0,0,16090,0,0,0,
2026-03-23 20:54:00,METAR KBOS 232054Z 35012KT 10SM -DZ SCT015 BKN029 OVC041 03/00 A2993 RMK AO2 SLP135 P0000 60000 T00280000 53018,0,12.0,0,16090,0,0,0,DZ
2026-03-23 20:25:00,SPECI KBOS 232025Z 36012KT 9SM FEW011 BKN017 OVC026 02/00 A2993 RMK AO2 P0000 T00220000,0,12.0,0,14481,0,0,0,
2026-03-23 19:54:00,METAR KBOS 231954Z 36011KT 9SM -SN FEW011 OVC018 02/00 A2992 RMK AO2 PRESRR SLP131 P0000 T00220000,0,11.0,0,14481,0,0,0,SN
2026-03-23 19:34:00,SPECI KBOS 231934Z 01017KT 9SM -SN OVC018 02/M01 A2990 RMK AO2 P0000 T00221006,0,17.0,0,14481,0,0,0,SN
2026-03-23 18:54:00,METAR KBOS 231854Z 01014KT 10SM SCT011 BKN016 OVC025 02/00 A2988 RMK AO2 SLP119 T00220000,0,14.0,0,16090,0,0,0,
2026-03-23 18:20:00,SPECI KBOS 231820Z 01014KT 10SM SCT011 BKN017 OVC025 02/00 A2989 RMK AO2 T00220000,0,14.0,0,16090,0,0,0,
2026-03-23 17:54:00,METAR KBOS 231754Z 36014KT 9SM FEW009 BKN012 OVC025 02/01 A2988 RMK AO2 SLP118 60003 T00170006 10022 20017 53008,0,14.0,0,14481,0,0,0,
2026-03-23 17:36:00,SPECI KBOS 231736Z 02015KT 10SM SCT009 BKN017 OVC025 02/00 A2987 RMK AO2 T00220000,0,15.0,0,16090,0,0,0,
2026-03-23 16:54:00,METAR KBOS 231654Z 01017KT 10SM SCT009 BKN012 OVC018 02/01 A2987 RMK AO2 SLP113 T00220006,0,17.0,0,16090,0,0,0,
2026-03-23 15:54:00,METAR KBOS 231554Z 02016KT 10SM SCT009 OVC012 02/01 A2986 RMK AO2 DZB04E27SNB04E27 SLP109 P0000 T00220006,0,16.0,0,16090,0,0,0,DZ
2026-03-23 15:27:00,SPECI KBOS 231527Z 02015KT 3SM BR OVC009 02/01 A2986 RMK AO2 DZB04E27SNB04E27 P0000 T00170006,0,15.0,0,4827,0,0,1,"BR,DZ"
2026-03-23 15:04:00,SPECI KBOS 231504Z 01015KT 4SM -DZSN BR OVC009 02/01 A2985 RMK AO2 DZB04SNB04 P0000 T00170011,0,15.0,0,6436,0,0,1,"BR,DZ,SN"
2026-03-23 14:54:00,METAR KBOS 231454Z 01015KT 5SM BR BKN008 OVC012 02/01 A2986 RMK AO2 SLP110 RAE 15 P0000 60003 T00170006 53009,0,15.0,0,8045,0,0,1,"BR,RA"
2026-03-23 13:54:00,METAR KBOS 231354Z 01014KT 4SM -RA BR BKN008 OVC013 02/01 A2985 RMK AO2 RAE28B36SNE28 SLP106 P0000 T00170011 $,0,14.0,0,6436,0,0,1,"-RA,BR,RA"
2026-03-23 13:28:00,SPECI KBOS 231328Z 36013KT 10SM BKN008 OVC013 02/01 A2984 RMK AO2 RAE28SNE28 P0000 T00170011 $,0,13.0,0,16090,0,0,0,RA
2026-03-23 12:54:00,METAR KBOS 231254Z 01012G20KT 7SM -RASN BKN008 OVC018 02/01 A2983 RMK AO2 PLE09 SLP100 P0003 T00170011 $,0,12.0,1,11263,0,0,0,"-RA,SN"
2026-03-23 12:10:00,SPECI KBOS 231210Z 03013KT 7SM -RASN BKN008 OVC018 02/01 A2983 RMK AO2 PLE09 P0001 T00170011 $,0,13.0,0,11263,0,0,0,"-RA,SN"
2026-03-23 11:54:00,METAR KBOS 231154Z 03011KT 5SM -RAPLSN BR BKN008 OVC012 02/01 A2983 RMK AO2 PLE11B51SNB11 SLP100 P0008 60035 70071 T00170006 10028 20017 51007 $,0,11.0,0,8045,1,0,1,"-RA,BR,PL,SN"
2026-03-23 11:22:00,SPECI KBOS 231122Z 03013KT 8SM -RASN BKN008 OVC010 02/02 A2983 RMK AO2 PLE11SNB11 P0003 T00220017 $,0,13.0,0,12872,0,0,0,"-RA,PL,SN"
2026-03-23 11:15:00,SPECI KBOS 231115Z 03014KT 8SM -RASN OVC010 02/02 A2983 RMK AO2 PLE11SNB11 P0002 T00220017 $,0,14.0,0,12872,0,0,0,"-RA,PL,SN"
2026-03-23 10:54:00,METAR KBOS 231054Z 03012KT 8SM -PLRA BKN008 OVC011 02/01 A2982 RMK AO2 PLB46 SLP097 P0005 T00220011 $,0,12.0,0,12872,1,0,0,RA
2026-03-23 10:47:00,SPECI KBOS 231047Z 03011KT 8SM -PLRA BKN008 OVC011 02/01 A2982 RMK AO2 PLB46 P0005 T00220011 $,0,11.0,0,12872,1,0,0,RA
2026-03-23 09:54:00,METAR KBOS 230954Z 02014KT 8SM -RA BKN008 OVC011 02/01 A2982 RMK AO2 SLP098 P0004 T00220011 $,0,14.0,0,12872,0,0,0,-RA
2026-03-23 08:54:00,METAR KBOS 230854Z 01013KT 10SM -RA BKN008 OVC011 02/02 A2981 RMK AO2 SLP093 P0008 60018 T00220017 55003 $,0,13.0,0,16090,0,0,0,-RA
2026-03-23 07:54:00,METAR KBOS 230754Z 01014KT 8SM RA OVC007 02/02 A2981 RMK AO2 SLP092 P0003 T00220017 $,0,14.0,0,12872,0,0,0,RA
2026-03-23 06:54:00,METAR KBOS 230654Z 01011KT 6SM -RA BR OVC007 03/02 A2982 RMK AO2 SLP096 P0007 T00280017 $,0,11.0,0,9654,0,0,1,"-RA,BR"
2026-03-23 05:54:00,METAR KBOS 230554Z 35010KT 10SM -RA OVC007 03/02 A2982 RMK AO2 SLP096 P0002 60021 T00280017 10083 20028 53000 $,0,10.0,0,16090,0,0,0,-RA
2026-03-23 04:54:00,METAR KBOS 230454Z 35011KT 10SM -RA OVC008 03/02 A2980 RMK AO2 SLP091 P0004 T00330022 400830028 $,0,11.0,0,16090,0,0,0,-RA
2026-03-23 03:54:00,METAR KBOS 230354Z 34007KT 8SM -RA OVC007 04/03 A2982 RMK AO2 SLP099 P0004 T00440033 $,0,7.0,0,12872,0,0,0,-RA
2026-03-23 02:54:00,METAR KBOS 230254Z 36005KT 6SM RA BR OVC007 05/04 A2982 RMK AO2 SLP096 P0006 60011 T00500039 51025 $,0,5.0,0,9654,0,0,1,"BR,RA"
2026-03-23 00:54:00,METAR KBOS 230054Z 01006KT 9SM -RA SCT011 BKN050 OVC100 08/07 A2975 RMK AO2 RAB17 SLP075 P0000 T00830072 $,0,6.0,0,14481,0,0,0,-RA
2026-03-23 00:08:00,SPECI KBOS 230008Z 27004KT 10SM SCT009 BKN070 OVC110 08/07 A2975 RMK AO2 T00830067 $,0,4.0,0,16090,0,0,0,
2026-03-22 23:54:00,METAR KBOS 222354Z 27005KT 10SM BKN009 BKN012 OVC075 08/07 A2974 RMK AO2 RAE47 SLP071 P0001 60015 T00830072 10083 20056 53018 $,0,5.0,0,16090,0,0,0,
2026-03-22 22:54:00,METAR KBOS 222254Z 24004KT 8SM -RA OVC008 08/07 A2971 RMK AO2 RAB27 SLP058 P0000 T00780067 $,0,4.0,0,12872,0,0,0,-RA
2026-03-22 21:54:00,METAR KBOS 222154Z 24008KT 10SM OVC008 08/06 A2969 RMK AO2 RAE36B39E54 SLP053 P0003 T00780061 $,0,8.0,0,16090,0,0,0,RA
2026-03-22 21:37:00,SPECI KBOS 222137Z 22008KT 10SM BKN009 OVC075 08/06 A2967 RMK AO2 RAE36 P0002 T00780061 $,0,8.0,0,16090,0,0,0,
2026-03-22 21:15:00,SPECI KBOS 222115Z 21013KT 7SM -RA SCT009 BKN026 OVC075 07/06 A2968 RMK AO2 P0002 T00720061 $,0,13.0,0,11263,0,0,0,-RA
2026-03-22 20:54:00,METAR KBOS 222054Z 20012KT 5SM -RA BR SCT009 BKN030 OVC075 07/06 A2969 RMK AO2 SLP053 P0008 60011 T00670056 58026 $,0,12.0,0,8045,0,0,1,"-RA,BR"
2026-03-22 20:52:00,SPECI KBOS 222052Z 20012KT 5SM -RA BR SCT009 BKN030 OVC075 07/06 A2969 RMK AO2 P0008 $,0,12.0,0,8045,0,0,1,"-RA,BR"
2026-03-22 20:39:00,SPECI KBOS 222039Z 20011KT 9SM -RA SCT013 BKN060 OVC095 07/06 A2970 RMK AO2 P0007 T00670056 $,0,11.0,0,14481,0,0,0,-RA
2026-03-22 19:54:00,METAR KBOS 221954Z 25009KT 6SM -RA BR FEW008 OVC011 07/05 A2975 RMK AO2 RAB1859 SLP072 P0002 T00670050 $,0,9.0,0,9654,0,0,1,"-RA,BR,RA"
2026-03-22 19:33:00,SPECI KBOS 221933Z 22010KT 5SM -RA BR FEW008 OVC011 07/05 A2972 RMK AO2 RAB1859 P0002 T00670050 $,0,10.0,0,8045,0,0,1,"-RA,BR,RA"
2026-03-22 18:54:00,METAR KBOS 221854Z 22009G22KT 10SM OVC012 06/04 A2974 RMK AO2 RAE53 SLP071 P0001 T00610044 $,0,9.0,1,16090,0,0,0,
2026-03-22 17:54:00,METAR KBOS 221754Z 19019G26KT 10SM -RA OVC024 07/02 A2977 RMK AO2 PK WND 19026/1753 RAB28 PRESFR SLP079 P0000 60000 T00670022 10072 20028 58038 $,0,19.0,1,16090,0,0,0,-RA
2026-03-22 16:54:00,METAR KBOS 221654Z 20015G24KT 10SM OVC027 07/01 A2983 RMK AO2 PK WND 19026/1627 SLP099 T00670006 $,0,15.0,1,16090,0,0,0,
2026-03-22 16:44:00,SPECI KBOS 221644Z 19015G25KT 10SM OVC029 07/01 A2981 RMK AO2 PK WND 19026/1627 T00670006 $,0,15.0,1,16090,0,0,0,
2026-03-22 15:54:00,METAR KBOS 221554Z 18014G26KT 10SM OVC032 06/01 A2984 RMK AO2 PK WND 18026/1548 RAB01E30 SLP104 P0000 T00610006 $,0,14.0,1,16090,0,0,0,RA
2026-03-22 14:54:00,METAR KBOS 221454Z 19012KT 10SM FEW024 OVC034 06/01 A2988 RMK AO2 SLP117 T00560011 57030 $,0,12.0,0,16090,0,0,0,
2026-03-22 13:54:00,METAR KBOS 221354Z 17010KT 10SM FEW025 OVC037 04/00 A2991 RMK AO2 SLP127 T00390000 $,0,10.0,0,16090,0,0,0,
2026-03-22 13:36:00,SPECI KBOS 221336Z 16011KT 10SM SCT024 OVC037 04/00 A2991 RMK AO2 T00390000 $,0,11.0,0,16090,0,0,0,
2026-03-22 13:15:00,SPECI KBOS 221315Z 16010KT 10SM BKN025 OVC039 04/M01 A2993 RMK AO2 T00391006 $,0,10.0,0,16090,0,0,0,
2026-03-22 12:54:00,METAR KBOS 221254Z 15010KT 10SM OVC038 03/M01 A2994 RMK AO2 SLP137 T00331011 $,0,10.0,0,16090,0,0,0,
2026-03-22 11:54:00,METAR KBOS 221154Z 15010G18KT 10SM OVC042 03/M02 A2997 RMK AO2 SLP147 60000 T00331017 10033 20028 56010 $,0,10.0,1,16090,0,0,0,
2026-03-22 10:14:00,SPECI KBOS 221014Z 14009KT 9SM BKN042 BKN050 OVC070 03/M03 A2998 RMK AO2 SNE13 P0000 T00281028 $,0,9.0,0,14481,0,0,0,
2026-03-22 09:54:00,METAR KBOS 220954Z 15010KT 10SM -SN BKN050 OVC070 03/M03 A2998 RMK AO2 SNB50 SLP153 P0000 T00281028 $,0,10.0,0,16090,0,0,0,SN
2026-03-22 08:54:00,METAR KBOS 220854Z 15008KT 10SM FEW110 OVC130 03/M03 A3000 RMK AO2 SLP158 T00281028 56016 $,0,8.0,0,16090,0,0,0,
2026-03-22 07:54:00,METAR KBOS 220754Z 12009KT 10SM BKN110 OVC130 03/M03 A3002 RMK AO2 SLP164 T00281028 $,0,9.0,0,16090,0,0,0,
2026-03-22 06:54:00,METAR KBOS 220654Z 07009KT 10SM OVC100 03/M03 A3002 RMK AO2 PRESFR SLP164 T00281033 $,0,9.0,0,16090,0,0,0,
2026-03-22 05:54:00,METAR KBOS 220554Z 04009KT 10SM OVC110 03/M04 A3005 RMK AO2 SLP174 T00281044 10061 20028 53009 $,0,9.0,0,16090,0,0,0,
2026-03-22 04:54:00,METAR KBOS 220454Z 03008KT 10SM OVC110 03/M06 A3004 RMK AO2 PRESRR SLP172 T00331056 401170033 $,0,8.0,0,16090,0,0,0,
2026-03-22 03:54:00,METAR KBOS 220354Z 03007KT 10SM SCT110 OVC130 03/M06 A3001 RMK AO2 SLP161 T00331056 $,0,7.0,0,16090,0,0,0,
2026-03-22 02:54:00,METAR KBOS 220254Z 02010KT 10SM FEW120 OVC130 04/M06 A3002 RMK AO2 SLP165 T00391056 50003 $,0,10.0,0,16090,0,0,0,
2026-03-22 01:54:00,METAR KBOS 220154Z 36007KT 10SM BKN220 BKN250 04/M06 A3002 RMK AO2 SLP166 T00391056 $,0,7.0,0,16090,0,0,0,
2026-03-22 00:54:00,METAR KBOS 220054Z 34007KT 10SM SCT220 OVC250 06/M07 A3001 RMK AO2 SLP163 T00561067 $,0,7.0,0,16090,0,0,0,
2026-03-21 23:54:00,METAR KBOS 212354Z 33011KT 10SM BKN220 OVC250 06/M07 A3001 RMK AO2 SLP161 T00611072 10111 20061 51034 $,0,11.0,0,16090,0,0,0,
2026-03-21 22:54:00,METAR KBOS 212254Z 33010KT 10SM BKN150 BKN220 07/M08 A2999 RMK AO2 SLP154 T00671078 $,0,10.0,0,16090,0,0,0,
2026-03-21 21:54:00,METAR KBOS 212154Z 33013G20KT 10SM SCT220 BKN250 08/M07 A2995 RMK AO2 SLP140 T00781067 $,0,13.0,1,16090,0,0,0,
2026-03-21 20:54:00,METAR KBOS 212054Z 32011G22KT 10SM FEW055 FEW220 09/M06 A2991 RMK AO2 SLP128 T00941061 53018 $,0,11.0,1,16090,0,0,0,
2026-03-21 19:54:00,METAR KBOS 211954Z 33017G24KT 10SM FEW055 10/M04 A2990 RMK AO2 PK WND 27027/1920 SLP123 T01001039 $,0,17.0,1,16090,0,0,0,
2026-03-21 18:54:00,METAR KBOS 211854Z 30017G23KT 10SM SCT050 11/M03 A2987 RMK AO2 SLP114 T01061028 $,0,17.0,1,16090,0,0,0,
2026-03-21 17:54:00,METAR KBOS 211754Z 31013G23KT 10SM SCT047 11/M02 A2986 RMK AO2 SLP110 T01111022 10117 20056 55001 $,0,13.0,1,16090,0,0,0,
2026-03-21 16:54:00,METAR KBOS 211654Z 29010G19KT 10SM FEW035 SCT050 SCT250 12/01 A2985 RMK AO2 SLP106 T01170006 $,0,10.0,1,16090,0,0,0,
2026-03-21 15:54:00,METAR KBOS 211554Z 28012G18KT 10SM SCT036 SCT250 11/01 A2984 RMK AO2 SLP102 T01110006 $,0,12.0,1,16090,0,0,0,
2026-03-21 14:54:00,METAR KBOS 211454Z 33007KT 10SM BKN027 09/03 A2986 RMK AO2 SLP111 T00890028 51023 $,0,7.0,0,16090,0,0,0,
2026-03-21 13:54:00,METAR KBOS 211354Z 05006KT 7SM BKN017 BKN050 07/05 A2984 RMK AO2 SLP104 T00670050 $,0,6.0,0,11263,0,0,0,
2026-03-21 12:54:00,METAR KBOS 211254Z 33005KT 10SM OVC015 07/04 A2982 RMK AO2 SLP096 T00720044 $,0,5.0,0,16090,0,0,0,
2026-03-21 12:24:00,SPECI KBOS 211224Z 34011G18KT 10SM BKN014 OVC019 07/04 A2980 RMK AO2 T00720044 $,0,11.0,1,16090,0,0,0,
2026-03-21 11:54:00,METAR KBOS 211154Z 33009KT 10SM BKN018 OVC050 07/05 A2979 RMK AO2 SLP088 70012 T00720050 10078 20072 53028 $,0,9.0,0,16090,0,0,0,
2026-03-21 10:54:00,METAR KBOS 211054Z 31008KT 10SM OVC055 07/05 A2974 RMK AO2 SLP071 T00720050 $,0,8.0,0,16090,0,0,0,
2026-03-21 09:54:00,METAR KBOS 210954Z 30008KT 10SM FEW017 OVC050 07/05 A2972 RMK AO2 SLP063 T00720050,0,8.0,0,16090,0,0,0,
2026-03-21 08:54:00,METAR KBOS 210854Z 23005KT 10SM FEW015 OVC065 07/05 A2971 RMK AO2 SLP059 T00720050 56015,0,5.0,0,16090,0,0,0,
2026-03-21 07:54:00,METAR KBOS 210754Z 24007KT 10SM SCT011 OVC055 07/06 A2972 RMK AO2 SLP063 T00720056,0,7.0,0,16090,0,0,0,
2026-03-21 07:46:00,SPECI KBOS 210746Z 24008KT 10SM SCT011 OVC055 07/06 A2972 RMK AO2 T00720056,0,8.0,0,16090,0,0,0,
2026-03-21 06:54:00,METAR KBOS 210654Z 23009KT 10SM OVC013 08/06 A2973 RMK AO2 SLP068 T00780056,0,9.0,0,16090,0,0,0,
2026-03-21 05:54:00,METAR KBOS 210554Z 23007KT 10SM BKN013 OVC050 08/06 A2975 RMK AO2 SLP074 60011 T00780056 10083 20072 56017,0,7.0,0,16090,0,0,0,
2026-03-21 04:54:00,METAR KBOS 210454Z 22012KT 10SM BKN012 OVC045 08/06 A2975 RMK AO2 SLP075 T00780056 401330011,0,12.0,0,16090,0,0,0,
2026-03-21 03:54:00,METAR KBOS 210354Z 21014KT 10SM BKN012 BKN050 OVC085 07/06 A2977 RMK AO2 RAE08 SLP081 P0000 T00720056,0,14.0,0,16090,0,0,0,
2026-03-21 03:10:00,SPECI KBOS 210310Z 21012G20KT 10SM SCT013 BKN050 OVC085 07/06 A2979 RMK AO2 RAE08 P0000 T00720056,0,12.0,1,16090,0,0,0,
2026-03-21 02:54:00,METAR KBOS 210254Z 21012KT 10SM -RA FEW012 BKN019 OVC050 07/06 A2980 RMK AO2 SLP090 P0002 60011 T00720056 58011,0,12.0,0,16090,0,0,0,-RA
2026-03-21 02:26:00,SPECI KBOS 210226Z 22014KT 8SM -RA FEW011 SCT018 OVC050 07/06 A2982 RMK AO2 P0001 T00720056,0,14.0,0,12872,0,0,0,-RA
2026-03-21 01:54:00,METAR KBOS 210154Z 22014KT 8SM -RA FEW030 OVC055 07/05 A2982 RMK AO2 SLP098 P0003 T00720050,0,14.0,0,12872,0,0,0,-RA
2026-03-21 00:54:00,METAR KBOS 210054Z 21013G21KT 10SM -RA OVC055 07/04 A2983 RMK AO2 SLP101 P0006 T00720044,0,13.0,1,16090,0,0,0,-RA
2026-03-20 23:54:00,METAR KBOS 202354Z 22014KT 10SM -RA OVC060 08/03 A2983 RMK AO2 PK WND 19029/2258 RAB2256 SLP101 P0001 60001 T00830033 10128 20083 53010,0,14.0,0,16090,0,0,0,"-RA,RA"
2026-03-20 22:54:00,METAR KBOS 202254Z 19019G28KT 10SM BKN060 BKN080 OVC100 09/01 A2978 RMK AO2 PK WND 19030/2236 SLP085 T00890011,0,19.0,1,16090,0,0,0,
2026-03-20 21:54:00,METAR KBOS 202154Z 20015G23KT 10SM FEW075 SCT100 OVC220 09/M01 A2979 RMK AO2 PK WND 20030/2058 SLP088 T00891006,0,15.0,1,16090,0,0,0,
2026-03-20 20:54:00,METAR KBOS 202054Z 20017G32KT 10SM FEW080 OVC220 10/01 A2980 RMK AO2 PK WND 20032/2046 SLP091 T01000006 56045,0,17.0,1,16090,0,0,0,
2026-03-20 19:54:00,METAR KBOS 201954Z 19018G26KT 10SM SCT055 OVC220 11/02 A2982 RMK AO2 PK WND 18026/1951 PRESFR SLP097 T01060017,0,18.0,1,16090,0,0,0,
2026-03-20 18:54:00,METAR KBOS 201854Z 19018G25KT 10SM FEW055 OVC220 12/02 A2987 RMK AO2 PK WND 22026/1804 SLP115 T01220017,0,18.0,1,16090,0,0,0,
2026-03-20 17:54:00,METAR KBOS 201754Z 20016G24KT 10SM FEW035 SCT220 13/01 A2993 RMK AO2 PK WND 22026/1740 WSHFT 1721 SLP135 T01330011 10133 20033 58050,0,16.0,1,16090,0,0,0,
2026-03-20 17:38:00,SPECI KBOS 201738Z 20015G24KT 10SM FEW035 SCT220 13/01 A2994 RMK AO2 WSHFT 1721 T01280011,0,15.0,1,16090,0,0,0,
2026-03-20 16:54:00,METAR KBOS 201654Z 10011KT 10SM FEW035 FEW220 09/01 A2999 RMK AO2 SLP153 T00890006,0,11.0,0,16090,0,0,0,
2026-03-20 15:54:00,METAR KBOS 201554Z 12010KT 10SM FEW220 09/M01 A3004 RMK AO2 SLP172 T00891006,0,10.0,0,16090,0,0,0,
2026-03-20 14:54:00,METAR KBOS 201454Z 13006KT 10SM CLR 07/M01 A3008 RMK AO2 SLP186 T00671011 58019,0,6.0,0,16090,0,0,0,
2026-03-20 13:54:00,METAR KBOS 201354Z VRB04KT 10SM FEW070 06/M02 A3011 RMK AO2 SLP194 T00611022,0,4.0,0,16090,0,0,0,
2026-03-20 12:54:00,METAR KBOS 201254Z VRB03KT 10SM CLR 05/M03 A3012 RMK AO2 SLP198 T00501033,0,3.0,0,16090,0,0,0,
2026-03-20 11:54:00,METAR KBOS 201154Z 25007KT 10SM FEW065 03/M03 A3014 RMK AO2 SLP205 T00331033 10033 20011 53013,0,7.0,0,16090,0,0,0,
2026-03-20 10:54:00,METAR KBOS 201054Z 25005KT 10SM FEW065 01/M03 A3013 RMK AO2 SLP201 T00111028,0,5.0,0,16090,0,0,0,
2026-03-20 09:54:00,METAR KBOS 200954Z 24007KT 10SM SCT070 02/M03 A3011 RMK AO2 SLP196 T00221028,0,7.0,0,16090,0,0,0,
2026-03-20 08:54:00,METAR KBOS 200854Z 23009KT 10SM BKN065 02/M03 A3010 RMK AO2 SLP192 T00221028 56019,0,9.0,0,16090,0,0,0,
2026-03-20 07:54:00,METAR KBOS 200754Z 22011KT 10SM OVC070 03/M02 A3011 RMK AO2 SLP195 T00281022,0,11.0,0,16090,0,0,0,
2026-03-20 06:54:00,METAR KBOS 200654Z 23008KT 10SM FEW055 OVC075 03/M02 A3013 RMK AO2 SLP203 T00281017,0,8.0,0,16090,0,0,0,
2026-03-20 05:54:00,METAR KBOS 200554Z 23010KT 10SM FEW055 OVC075 03/M02 A3016 RMK AO2 SLP212 T00281017 10033 20017 58008,0,10.0,0,16090,0,0,0,
2026-03-20 04:54:00,METAR KBOS 200454Z 23012KT 10SM OVC080 03/M02 A3018 RMK AO2 SLP217 T00281017 400441028,0,12.0,0,16090,0,0,0,
2026-03-20 03:54:00,METAR KBOS 200354Z 24009KT 10SM OVC075 03/M02 A3018 RMK AO2 SLP220 T00281022,0,9.0,0,16090,0,0,0,
2026-03-20 02:54:00,METAR KBOS 200254Z 22008KT 10SM FEW050 OVC075 02/M03 A3018 RMK AO2 SLP220 T00171028 58005,0,8.0,0,16090,0,0,0,
2026-03-20 01:54:00,METAR KBOS 200154Z 21009KT 10SM FEW040 SCT070 02/M03 A3020 RMK AO2 SLP226 T00171028,0,9.0,0,16090,0,0,0,
2026-03-20 00:54:00,METAR KBOS 200054Z 22011KT 10SM FEW035 BKN045 OVC070 03/M03 A3020 RMK AO2 SLP227 T00281028,0,11.0,0,16090,0,0,0,
2026-03-19 23:54:00,METAR KBOS 192354Z 20009KT 10SM FEW035 SCT050 OVC065 03/M03 A3020 RMK AO2 SLP225 T00281028 10044 20022 53002,0,9.0,0,16090,0,0,0,
2026-03-19 22:54:00,METAR KBOS 192254Z 21011KT 10SM FEW035 OVC055 03/M04 A3019 RMK AO2 SLP222 T00331039,0,11.0,0,16090,0,0,0,
2026-03-19 21:54:00,METAR KBOS 192154Z 20009KT 10SM SCT035 BKN055 OVC075 03/M03 A3019 RMK AO2 SLP221 T00331033,0,9.0,0,16090,0,0,0,
2026-03-19 20:54:00,METAR KBOS 192054Z 21009KT 10SM BKN042 BKN055 OVC075 04/M04 A3019 RMK AO2 SLP223 T00391044 58026,0,9.0,0,16090,0,0,0,
2026-03-19 19:54:00,METAR KBOS 191954Z 12005KT 10SM BKN060 OVC090 03/M04 A3022 RMK AO2 SLP231 T00331044,0,5.0,0,16090,0,0,0,
2026-03-19 18:54:00,METAR KBOS 191854Z 10007KT 10SM FEW045 BKN060 OVC085 03/M06 A3025 RMK AO2 SLP242 T00281056,0,7.0,0,16090,0,0,0,
2026-03-19 17:54:00,METAR KBOS 191754Z 11009KT 10SM FEW050 BKN070 OVC085 02/M05 A3027 RMK AO2 SLP249 T00221050 10028 21006 58025,0,9.0,0,16090,0,0,0,
2026-03-19 16:54:00,METAR KBOS 191654Z 10008KT 10SM FEW050 OVC085 02/M06 A3030 RMK AO2 SLP259 T00171056,0,8.0,0,16090,0,0,0,
2026-03-19 15:54:00,METAR KBOS 191554Z 11005KT 10SM FEW050 BKN090 02/M08 A3032 RMK AO2 SLP266 T00171078,0,5.0,0,16090,0,0,0,
2026-03-19 14:54:00,METAR KBOS 191454Z 12006KT 10SM FEW060 BKN100 01/M08 A3034 RMK AO2 SLP274 T00111078 56008,0,6.0,0,16090,0,0,0,
2026-03-19 13:54:00,METAR KBOS 191354Z 17006KT 10SM FEW050 BKN100 01/M08 A3035 RMK AO2 SLP276 T00111078,0,6.0,0,16090,0,0,0,
2026-03-19 12:54:00,METAR KBOS 191254Z 18005KT 10SM BKN100 BKN250 00/M08 A3036 RMK AO2 SLP280 T00001083,0,5.0,0,16090,0,0,0,
2026-03-19 11:54:00,METAR KBOS 191154Z 19004KT 10SM BKN110 BKN250 M01/M08 A3037 RMK AO2 SLP282 T10061078 11006 21022 58002,0,4.0,0,16090,0,0,0,
2026-03-19 10:54:00,METAR KBOS 191054Z 18005KT 10SM BKN140 BKN250 M02/M08 A3037 RMK AO2 SLP282 T10221078,0,5.0,0,16090,0,0,0,
2026-03-19 09:54:00,METAR KBOS 190954Z 19004KT 10SM BKN110 OVC160 M02/M07 A3038 RMK AO2 SLP286 T10221072,0,4.0,0,16090,0,0,0,
2026-03-19 08:54:00,METAR KBOS 190854Z 21004KT 10SM BKN160 M02/M08 A3037 RMK AO2 SLP284 T10221083 55008,0,4.0,0,16090,0,0,0,
2026-03-19 07:54:00,METAR KBOS 190754Z 21006KT 10SM BKN160 M02/M08 A3037 RMK AO2 SLP284 T10171083,0,6.0,0,16090,0,0,0,
2026-03-19 06:54:00,METAR KBOS 190654Z 19007KT 10SM BKN160 M02/M08 A3039 RMK AO2 SLP289 T10221083,0,7.0,0,16090,0,0,0,
2026-03-19 05:54:00,METAR KBOS 190554Z 18007KT 10SM BKN170 M02/M09 A3040 RMK AO2 SLP292 T10221089 11006 21028 58009,0,7.0,0,16090,0,0,0,
2026-03-19 04:54:00,METAR KBOS 190454Z 18006KT 10SM FEW190 M02/M09 A3040 RMK AO2 SLP294 T10221089 400221039,0,6.0,0,16090,0,0,0,
2026-03-19 03:54:00,METAR KBOS 190354Z 18008KT 10SM BKN190 M02/M09 A3042 RMK AO2 SLP300 T10221089,0,8.0,0,16090,0,0,0,
2026-03-19 02:54:00,METAR KBOS 190254Z 19009KT 10SM BKN190 M02/M09 A3042 RMK AO2 SLP301 T10171089 51007,0,9.0,0,16090,0,0,0,
2026-03-19 01:54:00,METAR KBOS 190154Z 18010KT 10SM CLR M02/M09 A3042 RMK AO2 SLP300 T10171094,0,10.0,0,16090,0,0,0,
2026-03-19 00:54:00,METAR KBOS 190054Z 20014KT 10SM CLR M01/M10 A3042 RMK AO2 SLP299 T10061100,0,14.0,0,16090,0,0,0,
2026-03-18 23:54:00,METAR KBOS 182354Z 15013KT 10SM FEW200 M01/M08 A3040 RMK AO2 SLP294 T10061078 10022 21006 50004,0,13.0,0,16090,0,0,0,
2026-03-18 22:54:00,METAR KBOS 182254Z 11013KT 10SM FEW050 FEW120 SCT200 M01/M09 A3041 RMK AO2 SLP296 T10061094,0,13.0,0,16090,0,0,0,
2026-03-18 21:54:00,METAR KBOS 182154Z 11015KT 10SM FEW045 SCT120 BKN180 01/M11 A3040 RMK AO2 WSHFT 2111 SLP295 T00061111,0,15.0,0,16090,0,0,0,
2026-03-18 20:54:00,METAR KBOS 182054Z 13006KT 10SM FEW045 SCT120 BKN180 02/M14 A3039 RMK AO2 SLP290 T00171139 53009,0,6.0,0,16090,0,0,0,
2026-03-18 19:54:00,METAR KBOS 181954Z 13010KT 10SM SCT130 BKN190 01/M13 A3038 RMK AO2 SLP288 T00111128,0,10.0,0,16090,0,0,0,
2026-03-18 18:54:00,METAR KBOS 181854Z 18005KT 10SM SCT130 BKN230 01/M16 A3036 RMK AO2 SLP281 T00111156,0,5.0,0,16090,0,0,0,
2026-03-18 17:54:00,METAR KBOS 181754Z VRB03KT 10SM BKN150 OVC230 00/M17 A3036 RMK AO2 SLP281 T00001167 10006 21033 58018,0,3.0,0,16090,0,0,0,
2026-03-18 16:54:00,METAR KBOS 181654Z 33009G19KT 10SM OVC220 01/M16 A3038 RMK AO2 SLP285 T00061161 VISNO E $,0,9.0,1,16090,0,0,0,
2026-03-18 15:54:00,METAR KBOS 181554Z 27008KT 10SM BKN180 BKN250 M01/M16 A3041 RMK AO2 SLP295 T10061156 $,0,8.0,0,16090,0,0,0,
2026-03-18 14:54:00,METAR KBOS 181454Z 30012KT 10SM FEW050 BKN250 M01/M16 A3042 RMK AO2 SLP299 T10111156 51027,0,12.0,0,16090,0,0,0,
2026-03-18 13:54:00,METAR KBOS 181354Z 25007KT 10SM FEW050 BKN250 M02/M14 A3040 RMK AO2 SLP293 T10171139,0,7.0,0,16090,0,0,0,
2026-03-18 12:54:00,METAR KBOS 181254Z 29012G19KT 10SM FEW050 SCT250 M03/M15 A3038 RMK AO2 PRESRR SLP285 T10281150,0,12.0,1,16090,0,0,0,
2026-03-18 11:54:00,METAR KBOS 181154Z 29013G19KT 10SM FEW050 M03/M14 A3034 RMK AO2 SLP271 T10331144 11022 21039 53036,0,13.0,1,16090,0,0,0,
2026-03-18 10:54:00,METAR KBOS 181054Z 29010KT 10SM FEW050 M04/M13 A3030 RMK AO2 SLP259 T10391133,0,10.0,0,16090,0,0,0,
2026-03-18 09:54:00,METAR KBOS 180954Z 28011KT 10SM CLR M03/M13 A3027 RMK AO2 SLP248 T10331133,0,11.0,0,16090,0,0,0,
2026-03-18 08:54:00,METAR KBOS 180854Z 29011KT 10SM CLR M03/M14 A3023 RMK AO2 SLP236 T10331139 52031,0,11.0,0,16090,0,0,0,
2026-03-18 07:54:00,METAR KBOS 180754Z 28011KT 10SM CLR M03/M13 A3020 RMK AO2 SLP224 T10331133,0,11.0,0,16090,0,0,0,
2026-03-18 06:54:00,METAR KBOS 180654Z 29013KT 10SM CLR M03/M14 A3017 RMK AO2 SLP216 T10281139,0,13.0,0,16090,0,0,0,
2026-03-18 05:54:00,METAR KBOS 180554Z 28014G27KT 10SM CLR M02/M14 A3014 RMK AO2 PK WND 26031/0507 SLP205 T10221144 10022 21022 53027,0,14.0,1,16090,0,0,0,
2026-03-18 04:54:00,METAR KBOS 180454Z 29016G22KT 10SM CLR M02/M14 A3011 RMK AO2 PK WND 29037/0412 SLP195 T10221144 401671022,0,16.0,1,16090,0,0,0,
2026-03-18 03:54:00,METAR KBOS 180354Z 28016G26KT 10SM CLR M02/M15 A3008 RMK AO2 PK WND 29031/0336 SLP184 T10171150,0,16.0,1,16090,0,0,0,
2026-03-18 02:54:00,METAR KBOS 180254Z 28015G24KT 10SM CLR M01/M14 A3006 RMK AO2 PK WND 27029/0219 SLP177 T10111144 51046,0,15.0,1,16090,0,0,0,
2026-03-18 01:54:00,METAR KBOS 180154Z 28016G26KT 10SM FEW070 M01/M14 A3002 RMK AO2 PK WND 28026/0151 SLP165 T10061139,0,16.0,1,16090,0,0,0,
2026-03-18 00:54:00,METAR KBOS 180054Z 28016G25KT 10SM FEW070 01/M13 A2997 RMK AO2 PK WND 29033/0039 SLP147 T00111133,0,16.0,1,16090,0,0,0,
2026-03-17 23:54:00,METAR KBOS 172354Z 29015G24KT 10SM FEW070 02/M13 A2992 RMK AO2 PK WND 28028/2257 SLP131 T00221133 10067 20022 53052,0,15.0,1,16090,0,0,0,
2026-03-17 22:54:00,METAR KBOS 172254Z 28015G27KT 10SM FEW070 FEW250 03/M13 A2987 RMK AO2 PK WND 26030/2229 SLP113 T00281128,0,15.0,1,16090,0,0,0,
2026-03-17 21:54:00,METAR KBOS 172154Z 28018G29KT 10SM FEW070 FEW250 04/M13 A2981 RMK AO2 PK WND 30031/2136 SLP094 T00391128,0,18.0,1,16090,0,0,0,
2026-03-17 20:54:00,METAR KBOS 172054Z 28012G28KT 10SM FEW065 FEW180 FEW250 06/M11 A2977 RMK AO2 PK WND 28029/2042 SLP079 T00561111 53022,0,12.0,1,16090,0,0,0,
2026-03-17 19:54:00,METAR KBOS 171954Z 27015G29KT 10SM FEW065 FEW250 06/M10 A2974 RMK AO2 PK WND 27031/1938 SLP069 T00611100,0,15.0,1,16090,0,0,0,
2026-03-17 18:54:00,METAR KBOS 171854Z 27015G26KT 10SM FEW065 FEW250 06/M09 A2971 RMK AO2 PK WND 27030/1755 SLP061 T00611089,0,15.0,1,16090,0,0,0,
2026-03-17 17:54:00,METAR KBOS 171754Z 26014G29KT 10SM FEW065 FEW250 07/M08 A2970 RMK AO2 PK WND 25029/1754 SLP057 60000 T00671083 10072 20039 51018,0,14.0,1,16090,0,0,0,
2026-03-17 16:54:00,METAR KBOS 171654Z 28019G28KT 10SM FEW060 FEW250 07/M08 A2969 RMK AO2 PK WND 26032/1605 SLP052 T00671083,0,19.0,1,16090,0,0,0,
2026-03-17 15:54:00,METAR KBOS 171554Z 28016G27KT 10SM FEW040 FEW250 06/M08 A2966 RMK AO2 PK WND 23040/1534 SLP044 T00611083,0,16.0,1,16090,0,0,0,
2026-03-17 14:54:00,METAR KBOS 171454Z 25015G26KT 10SM FEW033 FEW250 05/M04 A2965 RMK AO2 PK WND 23032/1358 RAB26E43 SLP039 P0000 60000 T00501039 51040,0,15.0,1,16090,0,0,0,RA
2026-03-17 13:54:00,METAR KBOS 171354Z 24022G34KT 10SM SCT035 SCT250 04/M02 A2963 RMK AO2 PK WND 24034/1343 SLP033 T00441017,0,22.0,1,16090,0,0,0,
2026-03-17 12:54:00,METAR KBOS 171254Z 27015G25KT 10SM FEW037 BKN044 BKN250 06/M03 A2959 RMK AO2 PK WND 26038/1208 SLP020 T00561028,0,15.0,1,16090,0,0,0,
2026-03-17 11:54:00,METAR KBOS 171154Z 26016G26KT 10SM FEW026 BKN042 BKN250 06/M01 A2953 RMK AO2 PK WND 27028/1120 SLP998 60000 70067 T00561011 10167 20056 53065,0,16.0,1,16090,0,0,0,
2026-03-17 10:54:00,METAR KBOS 171054Z 27019G32KT 10SM FEW030 FEW100 BKN250 07/02 A2946 RMK AO2 PK WND 28038/1040 PRESRR SLP976 T00720022 $,0,19.0,1,16090,0,0,0,
2026-03-17 09:54:00,METAR KBOS 170954Z 22024G32KT 10SM FEW035 BKN060 OVC100 12/05 A2937 RMK AO2 PK WND 22039/0913 RAE26 SLP946 P0000 T01170050 $,0,24.0,1,16090,0,0,0,
2026-03-17 09:24:00,SPECI KBOS 170924Z 22024G38KT 7SM -RA SCT024 OVC034 12/08 A2936 RMK AO2 PK WND 22039/0913 P0000 T01220083 $,0,24.0,1,11263,0,0,0,-RA
2026-03-17 09:11:00,SPECI KBOS 170911Z 23029G38KT 5SM -RA FEW018 BKN027 OVC042 13/10 A2935 RMK AO2 PK WND 23038/0910 P0000 T01280100 $,0,29.0,1,8045,0,0,0,-RA
2026-03-17 08:54:00,METAR KBOS 170854Z 22019G27KT 10SM -RA SCT025 BKN038 OVC150 14/11 A2934 RMK AO2 PK WND 20039/0756 RAB52 SLP934 P0000 60000 T01390106 53016,0,19.0,1,16090,0,0,0,-RA
2026-03-17 08:16:00,SPECI KBOS 170816Z 21026G37KT 10SM SCT017 SCT050 14/11 A2930 RMK AO2 PK WND 20039/0756 T01390111,0,26.0,1,16090,0,0,0,
2026-03-17 07:54:00,METAR KBOS 170754Z 21031G46KT 10SM BKN017 OVC024 14/12 A2929 RMK AO2 PK WND 19059/0701 RAB02E26 SLP919 P0000 T01440117,0,31.0,1,16090,0,0,0,RA
2026-03-17 06:54:00,METAR KBOS 170654Z 19031G53KT 10SM FEW022 BKN027 OVC090 16/13 A2929 RMK AO2 PK WND 19054/0644 RAE08B38E49 SLP916 P0000 T01610128,0,31.0,1,16090,0,0,0,RA
2026-03-17 05:54:00,METAR KBOS 170554Z 19029G54KT 10SM -RA SCT024 BKN031 OVC100 16/13 A2931 RMK AO2 PK WND 19054/0545 RAB00E09B33 SLP925 P0000 60028 T01610133 10167 20144 56032,0,29.0,1,16090,0,0,0,"-RA,RA"
2026-03-17 05:09:00,SPECI KBOS 170509Z 18024G40KT 10SM SCT016 BKN030 OVC110 15/13 A2934 RMK AO2 PK WND 17040/0502 RAB00E09 P0000 T01500133,0,24.0,1,16090,0,0,0,RA
2026-03-17 04:54:00,METAR KBOS 170454Z 18028G41KT 10SM BKN015 OVC024 16/13 A2934 RMK AO2 PK WND 18048/0429 RAE45 SLP936 P0001 T01560133 401670033,0,28.0,1,16090,0,0,0,
2026-03-17 04:51:00,SPECI KBOS 170451Z 18028G43KT 10SM BKN015 OVC024 16/14 A2934 RMK AO2 PK WND 18048/0429 RAE45 PRESFR P0001,0,28.0,1,16090,0,0,0,
2026-03-17 03:54:00,METAR KBOS 170354Z 19017G28KT 9SM -RA BKN013 OVC021 15/14 A2941 RMK AO2 PK WND 18040/0336 PRESFR SLP957 P0003 T01500139,0,17.0,1,14481,0,0,0,-RA
2026-03-17 02:54:00,METAR KBOS 170254Z 20022G33KT 8SM -RA BKN016 BKN036 OVC110 16/14 A2947 RMK AO2 PK WND 19041/0217 SLP978 P0008 60024 T01560139 56039,0,22.0,1,12872,0,0,0,-RA
2026-03-17 02:29:00,SPECI KBOS 170229Z 19021G37KT 5SM +RA BR SCT012 OVC018 17/15 A2947 RMK AO2 PK WND 19041/0217 P0005 T01670150,0,21.0,1,8045,0,1,1,"+RA,BR"
2026-03-17 01:54:00,METAR KBOS 170154Z 18024G34KT 5SM -RA BR BKN013 OVC028 16/14 A2949 RMK AO2 PK WND 18037/0138 SLP986 P0009 T01610144,0,24.0,1,8045,0,0,1,"-RA,BR"
2026-03-17 01:15:00,SPECI KBOS 170115Z 19017G30KT 4SM RA BR BKN014 OVC025 16/14 A2953 RMK AO2 PK WND 19035/0056 P0005 T01560144,0,17.0,1,6436,0,0,1,"BR,RA"
2026-03-17 00:54:00,METAR KBOS 170054Z 18020G30KT 6SM RA BR BKN016 OVC029 16/14 A2955 RMK AO2 PK WND 18039/0011 SLP007 P0007 T01560139,0,20.0,1,9654,0,0,1,"BR,RA"
2026-03-17 00:17:00,SPECI KBOS 170017Z 18026G39KT 6SM -RA BR FEW009 BKN016 OVC038 17/15 A2957 RMK AO2 PK WND 18039/0011 P0007 T01670150,0,26.0,1,9654,0,0,1,"-RA,BR"
2026-03-16 23:54:00,METAR KBOS 162354Z 19018KT 3SM +RA BR FEW008 BKN014 OVC080 16/14 A2958 RMK AO2 PK WND 20035/2301 SLP017 P0007 60010 T01560144 10167 20150 56029,0,18.0,0,4827,0,1,1,"+RA,BR"
2026-03-16 23:28:00,SPECI KBOS 162328Z 18017KT 9SM -RA FEW008 BKN014 OVC025 16/14 A2960 RMK AO2 PK WND 20035/2301 P0002 T01560144,0,17.0,0,14481,0,0,0,-RA
2026-03-16 23:12:00,SPECI KBOS 162312Z 18017G28KT 8SM -RA SCT016 BKN028 BKN095 OVC150 15/14 A2961 RMK AO2 PK WND 20035/2301 P0000 T01500139,0,17.0,1,12872,0,0,0,-RA
2026-03-16 22:54:00,METAR KBOS 162254Z 18014G25KT 9SM -RA SCT016 SCT050 BKN090 OVC150 15/13 A2962 RMK AO2 PK WND 19038/2156 RAB2156 SLP029 P0001 T01500133,0,14.0,1,14481,0,0,0,"-RA,RA"
2026-03-16 22:48:00,SPECI KBOS 162248Z 19017G28KT 9SM -RA FEW009 SCT016 BKN090 OVC150 16/14 A2961 RMK AO2 PK WND 19038/2156 RAB2156 P0000,0,17.0,1,14481,0,0,0,"-RA,RA"
2026-03-16 22:46:00,SPECI KBOS 162246Z 19018G29KT 0SM R04R/P6000FT -RA FG FEW009 SCT016 BKN090 OVC150 16/14 A2961 RMK AO2 PK WND 19038/2156 RAB2156 P0000 T01610139,0,18.0,1,0,0,0,1,"-RA,FG,RA"
2026-03-16 22:10:00,SPECI KBOS 162210Z 20023G38KT 9SM -RA SCT009 BKN018 OVC050 16/14 A2963 RMK AO2 PK WND 19038/2156 RAB2156 P0000 T01610144,0,23.0,1,14481,0,0,0,"-RA,RA"
2026-03-16 21:54:00,METAR KBOS 162154Z 20026G43KT 9SM BKN009 OVC018 16/15 A2964 RMK AO2 PK WND 19043/2145 RAE39 SLP035 P0000 T01610150,0,26.0,1,14481,0,0,0,
2026-03-16 20:54:00,METAR KBOS 162054Z 19015G28KT 6SM -RA BR BKN009 OVC013 16/14 A2967 RMK AO2 PK WND 21031/1958 RAB47 SLP047 P0001 60002 T01560144 56021,0,15.0,1,9654,0,0,1,"-RA,BR"
2026-03-16 20:47:00,SPECI KBOS 162047Z 20018G26KT 6SM -RA BR BKN009 OVC013 16/14 A2968 RMK AO2 PK WND 21031/1958 RAB47 P0001 T01560144,0,18.0,1,9654,0,0,1,"-RA,BR"
2026-03-16 20:13:00,SPECI KBOS 162013Z 20019G30KT 10SM SCT009 OVC014 17/15 A2968 RMK AO2 PK WND 21031/1958 P0001 T01670150,0,19.0,1,16090,0,0,0,
2026-03-16 19:54:00,METAR KBOS 161954Z 19020G30KT 9SM BKN009 OVC016 16/14 A2969 RMK AO2 PK WND 20030/1952 RAB09E39 SLP055 P0000 T01610144,0,20.0,1,14481,0,0,0,RA
2026-03-16 19:26:00,SPECI KBOS 161926Z 19016KT 7SM -RA BKN007 OVC011 16/15 A2970 RMK AO2 PK WND 20029/1902 RAB09 P0000 T01610150,0,16.0,0,11263,0,0,0,-RA
2026-03-16 19:14:00,SPECI KBOS 161914Z 19018KT 7SM -RA OVC010 16/15 A2971 RMK AO2 PK WND 20029/1902 RAB09 P0000 T01610150,0,18.0,0,11263,0,0,0,-RA
2026-03-16 18:54:00,METAR KBOS 161854Z 20018G27KT 10SM OVC008 16/15 A2970 RMK AO2 PK WND 20027/1850 RAE45 SLP058 P0001 T01610150,0,18.0,1,16090,0,0,0,
2026-03-16 17:54:00,METAR KBOS 161754Z 18010KT 9SM -RA BKN008 OVC012 14/14 A2973 RMK AO2 RAB1656 SLP068 P0000 60029 T01440139 10144 20061 58035,0,10.0,0,14481,0,0,0,"-RA,RA"
2026-03-16 16:54:00,METAR KBOS 161654Z 17011KT 9SM OVC009 13/13 A2977 RMK AO2 RAE25 SLP081 P0001 T01330128,0,11.0,0,14481,0,0,0,
2026-03-16 15:54:00,METAR KBOS 161554Z 17013KT 6SM -RA BR OVC009 13/12 A2982 RMK AO2 RAE00B49 SLP096 P0000 T01280117 $,0,13.0,0,9654,0,0,1,"-RA,BR,RA"
2026-03-16 14:54:00,METAR KBOS 161454Z 16012KT 6SM -RA BR BKN009 OVC015 12/11 A2984 RMK AO2 RAB37 SLP104 P0000 60028 T01170111 58043 $,0,12.0,0,9654,0,0,1,"-RA,BR"
2026-03-16 13:54:00,METAR KBOS 161354Z 17013KT 6SM BR BKN007 OVC012 11/11 A2989 RMK AO2 RAE31 SLP121 P0004 T01060106 $,0,13.0,0,9654,0,0,1,BR
2026-03-16 12:54:00,METAR KBOS 161254Z 07006KT 1 1/2SM R04R/4000VP6000FT +RA BR OVC009 06/06 A2993 RMK AO2 SLP135 P0024 T00610056 $,0,6.0,0,2414,0,1,1,"+RA,BR"
2026-03-16 11:54:00,METAR KBOS 161154Z 10009KT 1 3/4SM +RA BR OVC009 07/06 A2997 RMK AO2 PRESFR SLP147 P0024 60035 70035 T00670061 10067 20039 58049 $,0,9.0,0,2816,0,1,1,"+RA,BR"
2026-03-16 11:04:00,SPECI KBOS 161104Z 09011KT 3SM -RA BR OVC009 05/04 A3001 RMK AO2 P0003 T00500044 $,0,11.0,0,4827,0,0,1,"-RA,BR"
2026-03-16 10:54:00,METAR KBOS 161054Z 09013KT 2 1/2SM +RA BR OVC011 05/04 A3002 RMK AO2 CIG 008V012 SLP164 P0011 T00500044 $,0,13.0,0,4022,0,1,1,"+RA,BR"
2026-03-16 10:38:00,SPECI KBOS 161038Z 07006KT 2 1/2SM +RA BR OVC012 05/04 A3004 RMK AO2 P0006 T00500044 $,0,6.0,0,4022,0,1,1,"+RA,BR"
2026-03-16 10:26:00,SPECI KBOS 161026Z 09008KT 4SM -RA BR OVC013 06/04 A3005 RMK AO2 P0000 T00560044,0,8.0,0,6436,0,0,1,"-RA,BR"
2026-03-16 09:54:00,METAR KBOS 160954Z 09010KT 10SM -RA OVC016 05/04 A3008 RMK AO2 RAB51 SLP185 P0000 T00500039,0,10.0,0,16090,0,0,0,-RA
2026-03-16 08:54:00,METAR KBOS 160854Z 08012KT 10SM OVC019 04/03 A3011 RMK AO2 SLP196 T00390028 58049,0,12.0,0,16090,0,0,0,
2026-03-16 07:54:00,METAR KBOS 160754Z 09008KT 10SM OVC019 04/03 A3016 RMK AO2 SLP212 T00440028,0,8.0,0,16090,0,0,0,
2026-03-16 06:54:00,METAR KBOS 160654Z 11006KT 10SM BKN016 OVC027 04/02 A3022 RMK AO2 SLP233 T00440022,0,6.0,0,16090,0,0,0,
2026-03-16 05:54:00,METAR KBOS 160554Z 11007KT 10SM OVC028 04/02 A3026 RMK AO2 SLP245 T00440017 10044 20028 56044,0,7.0,0,16090,0,0,0,
2026-03-16 05:45:00,SPECI KBOS 160545Z 11005KT 10SM OVC028 04/02 A3026 RMK AO2 T00390017,0,5.0,0,16090,0,0,0,
2026-03-16 04:54:00,METAR KBOS 160454Z 13005KT 10SM FEW025 SCT100 SCT120 BKN250 03/01 A3030 RMK AO2 SLP260 T00330011 400440006,0,5.0,0,16090,0,0,0,
2026-03-16 03:54:00,METAR KBOS 160354Z 12008KT 10SM FEW025 SCT080 SCT250 03/00 A3034 RMK AO2 SLP274 T00280000,0,8.0,0,16090,0,0,0,
2026-03-16 02:54:00,METAR KBOS 160254Z 13009KT 10SM FEW025 SCT080 SCT250 03/M01 A3039 RMK AO2 SLP289 T00281006 58023,0,9.0,0,16090,0,0,0,
2026-03-16 01:54:00,METAR KBOS 160154Z 14009KT 10SM FEW025 SCT080 03/M01 A3042 RMK AO2 SLP299 T00331006,0,9.0,0,16090,0,0,0,
2026-03-16 00:54:00,METAR KBOS 160054Z 15010KT 10SM FEW023 BKN055 OVC080 04/M01 A3044 RMK AO2 SLP308 T00391006,0,10.0,0,16090,0,0,0,
2026-03-15 23:54:00,METAR KBOS 152354Z 17012KT 10SM FEW030 BKN055 OVC080 04/M02 A3046 RMK AO2 SLP312 T00391017 10044 20028 56002,0,12.0,0,16090,0,0,0,
2026-03-15 22:54:00,METAR KBOS 152254Z 12009KT 10SM OVC060 04/M02 A3046 RMK AO2 SLP312 T00391022,0,9.0,0,16090,0,0,0,
2026-03-15 21:54:00,METAR KBOS 152154Z 11014KT 10SM BKN065 OVC085 03/M03 A3045 RMK AO2 SLP311 T00331033,0,14.0,0,16090,0,0,0,
2026-03-15 20:54:00,METAR KBOS 152054Z 10016KT 10SM OVC065 03/M04 A3046 RMK AO2 SLP315 T00281039 56017,0,16.0,0,16090,0,0,0,
2026-03-15 19:54:00,METAR KBOS 151954Z 09013KT 10SM FEW055 OVC070 03/M05 A3048 RMK AO2 SLP319 T00281050,0,13.0,0,16090,0,0,0,
2026-03-15 18:54:00,METAR KBOS 151854Z 07010KT 10SM FEW050 OVC075 03/M06 A3049 RMK AO2 SLP324 T00281056,0,10.0,0,16090,0,0,0,
2026-03-15 17:54:00,METAR KBOS 151754Z 10007KT 10SM FEW050 OVC080 03/M07 A3051 RMK AO2 SLP331 T00331067 10033 20006 58007,0,7.0,0,16090,0,0,0,
2026-03-15 16:54:00,METAR KBOS 151654Z 10009KT 10SM FEW060 FEW100 SCT130 OVC200 03/M08 A3052 RMK AO2 SLP334 T00281083,0,9.0,0,16090,0,0,0,
2026-03-15 15:54:00,METAR KBOS 151554Z 07005KT 10SM FEW060 BKN090 BKN200 03/M08 A3054 RMK AO2 SLP339 T00281083,0,5.0,0,16090,0,0,0,
2026-03-15 14:54:00,METAR KBOS 151454Z 07005KT 10SM FEW090 BKN130 BKN180 03/M08 A3053 RMK AO2 SLP338 T00281078 51019,0,5.0,0,16090,0,0,0,
2026-03-15 13:54:00,METAR KBOS 151354Z 02003KT 10SM FEW030 BKN100 BKN250 02/M08 A3053 RMK AO2 SLP338 T00221078,0,3.0,0,16090,0,0,0,
2026-03-15 12:54:00,METAR KBOS 151254Z VRB04KT 10SM FEW030 BKN110 BKN250 02/M07 A3052 RMK AO2 SLP334 T00171067,0,4.0,0,16090,0,0,0,
2026-03-15 11:54:00,METAR KBOS 151154Z 36004KT 10SM FEW030 BKN150 BKN250 01/M07 A3048 RMK AO2 SLP319 T00061067 10017 20006 51029,0,4.0,0,16090,0,0,0,
2026-03-15 10:54:00,METAR KBOS 151054Z 32008KT 10SM FEW030 BKN150 BKN250 01/M07 A3047 RMK AO2 SLP315 T00061072,0,8.0,0,16090,0,0,0,
2026-03-15 09:54:00,METAR KBOS 150954Z 27007G17KT 10SM OVC150 01/M07 A3044 RMK AO2 PRESRR SLP308 T00061072,0,7.0,1,16090,0,0,0,
2026-03-15 08:54:00,METAR KBOS 150854Z 29011KT 10SM OVC140 01/M07 A3039 RMK AO2 SLP289 T00111072 51024,0,11.0,0,16090,0,0,0,
