Time_recorded,METAR,is_cavok,wind_speed,is_gust,visibility_meters,has_thunderstorm,has_heavy_rain,has_low_vis_fog,other_phenomenon
2026-05-02 15:30:00,METAR VVCI 021530Z 12004KT 9999 FEW014 SCT019 OVC031 27/25 Q1010 NOSIG,0,4,0,10000,0,0,0,
2026-05-02 15:00:00,METAR VVCI 021500Z 11004KT 090V150 9999 FEW014 BKN029 27/25 Q1009 NOSIG,0,4,0,10000,0,0,0,
2026-05-02 14:30:00,METAR VVCI 021430Z 16005KT 130V190 9999 FEW019 27/25 Q1009 NOSIG,0,5,0,10000,0,0,0,
2026-05-02 14:00:00,METAR VVCI 021400Z 14005KT 9999 SCT030 27/25 Q1009 NOSIG,0,5,0,10000,0,0,0,
2026-05-02 13:30:00,METAR VVCI 021330Z 14009KT 9999 FEW017 27/25 Q1009 NOSIG,0,9,0,10000,0,0,0,
2026-05-02 13:00:00,METAR VVCI 021300Z 14006KT 110V170 9999 FEW012 BKN031 27/25 Q1009 NOSIG,0,6,0,10000,0,0,0,
2026-05-02 12:30:00,METAR VVCI 021230Z 12005KT 9999 SCT012 BKN027 27/25 Q1008 NOSIG,0,5,0,10000,0,0,0,
2026-05-02 12:00:00,METAR VVCI 021200Z 14008KT 110V180 9999 FEW013 SCT015 BKN027 27/24 Q1007 NOSIG,0,8,0,10000,0,0,0,
2026-05-02 11:30:00,METAR VVCI 021130Z 14009KT 100V160 9999 FEW015 BKN032 28/24 Q1006 NOSIG,0,9,0,10000,0,0,0,
2026-05-02 11:00:00,METAR VVCI 021100Z 15010KT 9999 FEW012 BKN017 BKN023 28/25 Q1005 NOSIG,0,10,0,10000,0,0,0,
2026-05-02 10:30:00,METAR VVCI 021030Z 16009KT 9999 FEW014 SCT016 BKN024 28/24 Q1006 NOSIG,0,9,0,10000,0,0,0,
2026-05-02 10:00:00,METAR VVCI 021000Z 17010KT 130V190 9999 SCT017 SCT030 29/24 Q1006 NOSIG,0,10,0,10000,0,0,0,
2026-05-02 09:30:00,METAR VVCI 020930Z 17011KT 9999 FEW018 SCT021 29/24 Q1006 NOSIG,0,11,0,10000,0,0,0,
2026-05-02 09:00:00,METAR VVCI 020900Z 17010KT 9999 BKN018 29/24 Q1006 NOSIG,0,10,0,10000,0,0,0,
2026-05-02 08:30:00,METAR VVCI 020830Z 17011KT 140V200 9999 BKN019 29/25 Q1007 NOSIG,0,11,0,10000,0,0,0,
2026-05-02 08:00:00,METAR VVCI 020800Z 19011KT 160V220 9999 FEW019 BKN045 30/25 Q1007 NOSIG,0,11,0,10000,0,0,0,
2026-05-02 07:30:00,METAR VVCI 020730Z 19011KT 160V220 9999 FEW019 BKN045 30/25 Q1007 NOSIG,0,11,0,10000,0,0,0,
2026-05-02 07:00:00,METAR VVCI 020700Z 17011KT 150V210 9999 SCT020 SCT039 30/25 Q1008 NOSIG,0,11,0,10000,0,0,0,
2026-05-02 06:30:00,METAR VVCI 020630Z 17011KT 150V210 9999 SCT020 SCT039 30/25 Q1008 NOSIG,0,11,0,10000,0,0,0,
2026-05-02 06:00:00,METAR VVCI 020600Z 18012KT 9999 BKN019 BKN045 30/24 Q1009 NOSIG,0,12,0,10000,0,0,0,
2026-05-02 05:30:00,METAR VVCI 020530Z 19008KT 140V220 9999 SCT016 BKN048 30/24 Q1010 NOSIG,0,8,0,10000,0,0,0,
2026-05-02 05:00:00,METAR VVCI 020500Z 20008KT 160V240 9999 BKN017 BKN022 OVC025 28/24 Q1010 NOSIG,0,8,0,10000,0,0,0,
2026-05-02 04:30:00,METAR VVCI 020430Z 19009KT 9999 BKN017 OVC038 29/24 Q1010 NOSIG,0,9,0,10000,0,0,0,
2026-05-02 04:00:00,METAR VVCI 020400Z 20009KT 160V220 9999 BKN018 OVC038 29/24 Q1011 NOSIG,0,9,0,10000,0,0,0,
2026-05-02 03:30:00,METAR VVCI 020330Z 19009KT 160V220 9999 SCT017 OVC021 29/24 Q1011 NOSIG,0,9,0,10000,0,0,0,
2026-05-02 03:00:00,METAR VVCI 020300Z 18007KT 150V210 9999 SCT015 BKN017 OVC023 28/24 Q1011 NOSIG,0,7,0,10000,0,0,0,
2026-05-02 02:30:00,METAR VVCI 020230Z 19008KT 9999 SCT017 BKN020 BKN037 28/23 Q1011 NOSIG,0,8,0,10000,0,0,0,
2026-05-02 02:00:00,METAR VVCI 020200Z 18007KT 150V220 9999 BKN016 BKN019 OVC037 28/24 Q1011 NOSIG,0,7,0,10000,0,0,0,
2026-05-02 01:30:00,METAR VVCI 020130Z 20007KT 9999 BKN015 BKN025 OVC029 27/24 Q1011 NOSIG,0,7,0,10000,0,0,0,
2026-05-02 01:00:00,METAR VVCI 020100Z 20006KT 9999 FEW015 BKN020 OVC028 27/24 Q1011 NOSIG,0,6,0,10000,0,0,0,
2026-05-02 00:30:00,METAR VVCI 020030Z 19004KT 150V220 9999 SCT017 BKN021 OVC024 27/24 Q1010 NOSIG,0,4,0,10000,0,0,0,
2026-05-02 00:00:00,METAR VVCI 020000Z 21006KT 9999 BKN017 OVC022 27/23 Q1010 NOSIG,0,6,0,10000,0,0,0,
2026-05-01 23:30:00,METAR VVCI 012330Z 19005KT 130V220 9999 SCT017 BKN020 OVC038 27/23 Q1010 NOSIG,0,5,0,10000,0,0,0,
2026-05-01 23:00:00,METAR VVCI 012300Z 15004KT 9999 OVC037 26/23 Q1009 NOSIG,0,4,0,10000,0,0,0,
2026-05-01 22:30:00,METAR VVCI 012230Z 16005KT 9999 FEW018 OVC038 26/23 Q1009 NOSIG,0,5,0,10000,0,0,0,
2026-05-01 22:00:00,METAR VVCI 012200Z 17006KT 9999 FEW017 OVC039 26/23 Q1009 NOSIG,0,6,0,10000,0,0,0,
2026-05-01 21:30:00,METAR VVCI 012130Z 17007KT 9999 FEW018 SCT023 OVC035 26/23 Q1009 NOSIG,0,7,0,10000,0,0,0,
2026-05-01 21:00:00,METAR VVCI 012100Z 16008KT 9999 SCT019 OVC037 27/23 Q1009 NOSIG,0,8,0,10000,0,0,0,
2026-05-01 20:30:00,METAR VVCI 012030Z 16006KT 9999 SCT013 BKN018 OVC038 26/24 Q1009 NOSIG,0,6,0,10000,0,0,0,
2026-05-01 20:00:00,METAR VVCI 012000Z 15007KT 120V180 9999 FEW011 BKN013 OVC022 26/24 Q1009 NOSIG,0,7,0,10000,0,0,0,
2026-05-01 19:30:00,METAR VVCI 011930Z 14006KT 110V180 9999 -RA BKN015 OVC022 26/23 Q1009 NOSIG,0,6,0,10000,0,0,0,-RA
2026-05-01 19:00:00,METAR VVCI 011900Z 12007KT 9999 OVC015 26/23 Q1009 NOSIG,0,7,0,10000,0,0,0,
2026-05-01 18:30:00,METAR VVCI 011830Z 13008KT 9999 SCT017 BKN022 OVC040 26/23 Q1010 NOSIG,0,8,0,10000,0,0,0,
2026-05-01 18:00:00,METAR VVCI 011800Z 12007KT 9999 FEW019 OVC040 26/22 Q1010 NOSIG,0,7,0,10000,0,0,0,
2026-05-01 17:30:00,METAR VVCI 011730Z 12006KT 9999 FEW021 BKN030 OVC044 26/22 Q1010 NOSIG,0,6,0,10000,0,0,0,
2026-05-01 17:00:00,METAR VVCI 011700Z 12006KT 9999 BKN024 OVC032 26/21 Q1011 NOSIG,0,6,0,10000,0,0,0,
2026-05-01 16:30:00,METAR VVCI 011630Z 12005KT 9999 FEW024 OVC030 26/21 Q1011 NOSIG,0,5,0,10000,0,0,0,
2026-05-01 16:00:00,METAR VVCI 011600Z 11006KT 9999 OVC031 26/21 Q1011 NOSIG,0,6,0,10000,0,0,0,
2026-05-01 15:30:00,METAR VVCI 011530Z 11006KT 9999 OVC034 26/20 Q1011 NOSIG,0,6,0,10000,0,0,0,
2026-05-01 15:00:00,METAR VVCI 011500Z 11005KT 9999 OVC034 26/20 Q1012 NOSIG,0,5,0,10000,0,0,0,
2026-05-01 14:30:00,METAR VVCI 011430Z 12007KT 9999 OVC033 26/21 Q1011 NOSIG,0,7,0,10000,0,0,0,
2026-05-01 14:00:00,METAR VVCI 011400Z 12007KT 9999 BKN033 26/21 Q1010 NOSIG,0,7,0,10000,0,0,0,
2026-05-01 13:30:00,METAR VVCI 011330Z 12008KT 9999 BKN035 25/21 Q1010 NOSIG,0,8,0,10000,0,0,0,
2026-05-01 13:00:00,METAR VVCI 011300Z 13008KT 9999 BKN043 26/21 Q1010 NOSIG,0,8,0,10000,0,0,0,
2026-05-01 12:30:00,METAR VVCI 011230Z 12008KT 9999 BKN044 26/21 Q1010 NOSIG,0,8,0,10000,0,0,0,
2026-05-01 12:00:00,METAR VVCI 011200Z 12008KT CAVOK 25/21 Q1010 NOSIG,1,0,0,9999,0,0,0,
2026-05-01 11:30:00,METAR VVCI 011130Z 12009KT CAVOK 25/21 Q1009 NOSIG,1,0,0,9999,0,0,0,
2026-05-01 11:00:00,METAR VVCI 011100Z 13010KT 9999 FEW019 26/21 Q1009 NOSIG,0,10,0,10000,0,0,0,
2026-05-01 10:30:00,METAR VVCI 011030Z 14010KT 9999 FEW019 26/21 Q1009 NOSIG,0,10,0,10000,0,0,0,
2026-05-01 10:00:00,METAR VVCI 011000Z 15010KT 9999 FEW023 27/21 Q1009 NOSIG,0,10,0,10000,0,0,0,
2026-05-01 09:30:00,METAR VVCI 010930Z 14010KT 110V170 CAVOK 26/21 Q1009 NOSIG,1,0,0,9999,0,0,0,
2026-05-01 09:00:00,METAR VVCI 010900Z 14009KT 9999 FEW027 26/21 Q1009 NOSIG,0,9,0,10000,0,0,0,
2026-05-01 08:30:00,METAR VVCI 010830Z 13009KT 9999 FEW027 27/21 Q1010 NOSIG,0,9,0,10000,0,0,0,
2026-05-01 08:00:00,METAR VVCI 010800Z 14010KT 9999 FEW025 28/21 Q1010 NOSIG,0,10,0,10000,0,0,0,
2026-05-01 07:30:00,METAR VVCI 010730Z 13010KT 9999 FEW025 28/21 Q1010 NOSIG,0,10,0,10000,0,0,0,
2026-05-01 07:00:00,METAR VVCI 010700Z 14010KT 9999 FEW030 27/20 Q1011 NOSIG,0,10,0,10000,0,0,0,
2026-05-01 06:30:00,METAR VVCI 010630Z 13010KT 9999 FEW030 28/21 Q1011 NOSIG,0,10,0,10000,0,0,0,
2026-05-01 06:00:00,METAR VVCI 010600Z 14010KT 9999 FEW039 28/21 Q1012 NOSIG,0,10,0,10000,0,0,0,
2026-05-01 05:30:00,METAR VVCI 010530Z 14011KT 9999 FEW027 28/20 Q1012 NOSIG,0,11,0,10000,0,0,0,
2026-05-01 05:00:00,METAR VVCI 010500Z 15011KT 9999 FEW027 28/20 Q1013 NOSIG,0,11,0,10000,0,0,0,
2026-05-01 04:30:00,METAR VVCI 010430Z 14009KT 100V160 9999 FEW027 28/20 Q1013 NOSIG,0,9,0,10000,0,0,0,
2026-05-01 04:00:00,METAR VVCI 010400Z 13009KT 100V170 9999 FEW025 28/21 Q1013 NOSIG,0,9,0,10000,0,0,0,
2026-05-01 03:30:00,METAR VVCI 010330Z 13008KT 100V170 9999 FEW026 27/20 Q1013 NOSIG,0,8,0,10000,0,0,0,
2026-05-01 03:00:00,METAR VVCI 010300Z 13009KT 110V170 9999 FEW026 27/20 Q1014 NOSIG,0,9,0,10000,0,0,0,
2026-05-01 02:30:00,METAR VVCI 010230Z 13010KT 100V160 9999 FEW026 27/20 Q1014 NOSIG,0,10,0,10000,0,0,0,
2026-05-01 02:00:00,METAR VVCI 010200Z 13008KT CAVOK 26/20 Q1014 NOSIG,1,0,0,9999,0,0,0,
2026-05-01 01:30:00,METAR VVCI 010130Z 13007KT CAVOK 26/19 Q1014 NOSIG,1,0,0,9999,0,0,0,
2026-05-01 01:00:00,METAR VVCI 010100Z 13006KT 090V160 CAVOK 26/19 Q1014 NOSIG,1,0,0,9999,0,0,0,
2026-05-01 00:30:00,METAR VVCI 010030Z 10003KT 040V170 CAVOK 25/19 Q1014 NOSIG,1,0,0,9999,0,0,0,
2026-05-01 00:00:00,METAR VVCI 010000Z 04003KT 020V080 CAVOK 25/20 Q1014 NOSIG,1,0,0,9999,0,0,0,
2026-04-30 23:30:00,METAR VVCI 302330Z 05003KT 020V080 CAVOK 23/19 Q1013 NOSIG,1,0,0,9999,0,0,0,
2026-04-30 23:00:00,METAR VVCI 302300Z 03003KT CAVOK 22/19 Q1013 NOSIG,1,0,0,9999,0,0,0,
2026-04-30 22:30:00,METAR VVCI 302230Z 05003KT CAVOK 22/19 Q1012 NOSIG,1,0,0,9999,0,0,0,
2026-04-30 22:00:00,METAR VVCI 302200Z 05004KT CAVOK 22/19 Q1012 NOSIG,1,0,0,9999,0,0,0,
2026-04-30 21:30:00,METAR VVCI 302130Z 08002KT CAVOK 22/19 Q1012 NOSIG,1,0,0,9999,0,0,0,
2026-04-30 21:00:00,METAR VVCI 302100Z 12002KT CAVOK 23/19 Q1012 NOSIG,1,0,0,9999,0,0,0,
2026-04-30 20:30:00,METAR VVCI 302030Z 13001KT CAVOK 23/19 Q1012 NOSIG,1,0,0,9999,0,0,0,
2026-04-30 20:00:00,METAR VVCI 302000Z VRB01KT CAVOK 22/18 Q1012 NOSIG,1,0,0,9999,0,0,0,
2026-04-30 19:30:00,METAR VVCI 301930Z 28003KT CAVOK 22/19 Q1013 NOSIG,1,0,0,9999,0,0,0,
2026-04-30 19:00:00,METAR VVCI 301900Z 00000KT CAVOK 22/19 Q1013 NOSIG,1,0,0,9999,0,0,0,
2026-04-30 18:30:00,METAR VVCI 301830Z 00000KT CAVOK 22/18 Q1014 NOSIG,1,0,0,9999,0,0,0,
2026-04-30 18:00:00,METAR VVCI 301800Z 08002KT CAVOK 22/18 Q1014 NOSIG,1,0,0,9999,0,0,0,
2026-04-30 17:30:00,METAR VVCI 301730Z 07002KT CAVOK 23/18 Q1014 NOSIG,1,0,0,9999,0,0,0,
2026-04-30 17:00:00,METAR VVCI 301700Z 05003KT CAVOK 23/18 Q1014 NOSIG,1,0,0,9999,0,0,0,
2026-04-30 16:30:00,METAR VVCI 301630Z 05003KT CAVOK 23/18 Q1014 NOSIG,1,0,0,9999,0,0,0,
2026-04-30 16:00:00,METAR VVCI 301600Z 09003KT CAVOK 23/18 Q1015 NOSIG,1,0,0,9999,0,0,0,
2026-04-30 15:00:00,METAR VVCI 301500Z 09004KT CAVOK 23/18 Q1015 NOSIG,1,0,0,9999,0,0,0,
2026-04-30 14:30:00,METAR VVCI 301430Z 11004KT CAVOK 23/18 Q1015 NOSIG,1,0,0,9999,0,0,0,
2026-04-30 14:00:00,METAR VVCI 301400Z 11005KT CAVOK 24/18 Q1014 NOSIG,1,0,0,9999,0,0,0,
2026-04-30 13:30:00,METAR VVCI 301330Z 12007KT CAVOK 24/18 Q1014 NOSIG,1,0,0,9999,0,0,0,
2026-04-30 13:00:00,METAR VVCI 301300Z 13006KT 100V160 CAVOK 24/18 Q1014 NOSIG,1,0,0,9999,0,0,0,
2026-04-30 12:30:00,METAR VVCI 301230Z 14008KT CAVOK 24/18 Q1013 NOSIG,1,0,0,9999,0,0,0,
2026-04-30 12:00:00,METAR VVCI 301200Z 14007KT CAVOK 24/18 Q1013 NOSIG,1,0,0,9999,0,0,0,
2026-04-30 11:30:00,METAR VVCI 301130Z 13007KT CAVOK 24/18 Q1013 NOSIG,1,0,0,9999,0,0,0,
2026-04-30 11:00:00,METAR VVCI 301100Z 17007KT CAVOK 25/18 Q1013 NOSIG,1,0,0,9999,0,0,0,
2026-04-30 10:30:00,METAR VVCI 301030Z 17007KT 120V180 CAVOK 25/18 Q1013 NOSIG,1,0,0,9999,0,0,0,
2026-04-30 10:00:00,METAR VVCI 301000Z 17007KT CAVOK 25/18 Q1013 NOSIG,1,0,0,9999,0,0,0,
2026-04-30 09:30:00,METAR VVCI 300930Z 17009KT 140V200 CAVOK 25/18 Q1013 NOSIG,1,0,0,9999,0,0,0,
2026-04-30 09:00:00,METAR VVCI 300900Z 16009KT CAVOK 25/18 Q1012 NOSIG,1,0,0,9999,0,0,0,
2026-04-30 08:30:00,METAR VVCI 300830Z 14009KT CAVOK 25/18 Q1013 NOSIG,1,0,0,9999,0,0,0,
2026-04-30 08:00:00,METAR VVCI 300800Z 14010KT 120V180 CAVOK 26/18 Q1013 NOSIG,1,0,0,9999,0,0,0,
2026-04-30 07:30:00,METAR VVCI 300730Z 14009KT CAVOK 27/18 Q1013 NOSIG,1,0,0,9999,0,0,0,
2026-04-30 07:00:00,METAR VVCI 300700Z 14009KT 110V170 CAVOK 28/17 Q1013 NOSIG,1,0,0,9999,0,0,0,
2026-04-30 06:30:00,METAR VVCI 300630Z 13007KT 080V170 CAVOK 29/14 Q1014 NOSIG,1,0,0,9999,0,0,0,
2026-04-30 06:00:00,METAR VVCI 300600Z VRB05KT CAVOK 29/14 Q1014 NOSIG,1,0,0,9999,0,0,0,
2026-04-30 05:30:00,METAR VVCI 300530Z 12005KT 360V160 CAVOK 29/15 Q1015 NOSIG,1,0,0,9999,0,0,0,
2026-04-30 05:00:00,METAR VVCI 300500Z VRB04KT CAVOK 28/14 Q1015 NOSIG,1,0,0,9999,0,0,0,
2026-04-30 04:30:00,METAR VVCI 300430Z 04006KT 350V120 CAVOK 28/14 Q1016 NOSIG,1,0,0,9999,0,0,0,
2026-04-30 04:00:00,METAR VVCI 300400Z 36005KT 300V060 CAVOK 28/14 Q1017 NOSIG,1,0,0,9999,0,0,0,
2026-04-30 03:30:00,METAR VVCI 300330Z 02007KT 320V050 CAVOK 28/14 Q1017 NOSIG,1,0,0,9999,0,0,0,
2026-04-30 03:00:00,METAR VVCI 300300Z 03007KT 350V060 CAVOK 27/15 Q1017 NOSIG,1,0,0,9999,0,0,0,
2026-04-30 02:30:00,METAR VVCI 300230Z 03007KT 350V070 CAVOK 27/14 Q1017 NOSIG,1,0,0,9999,0,0,0,
2026-04-30 02:00:00,METAR VVCI 300200Z 03007KT 360V070 CAVOK 26/14 Q1017 NOSIG,1,0,0,9999,0,0,0,
2026-04-30 01:30:00,METAR VVCI 300130Z 03007KT 360V060 CAVOK 25/14 Q1017 NOSIG,1,0,0,9999,0,0,0,
2026-04-30 01:00:00,METAR VVCI 300100Z 02006KT 350V070 CAVOK 25/14 Q1017 NOSIG,1,0,0,9999,0,0,0,
2026-04-30 00:30:00,METAR VVCI 300030Z 02007KT 350V050 CAVOK 24/13 Q1017 NOSIG,1,0,0,9999,0,0,0,
2026-04-30 00:00:00,METAR VVCI 300000Z 04006KT 360V060 CAVOK 23/13 Q1016 NOSIG,1,0,0,9999,0,0,0,
2026-04-29 23:30:00,METAR VVCI 292330Z 03005KT 350V070 CAVOK 23/13 Q1016 NOSIG,1,0,0,9999,0,0,0,
2026-04-29 23:00:00,METAR VVCI 292300Z 36008KT CAVOK 22/13 Q1016 NOSIG,1,0,0,9999,0,0,0,
2026-04-29 22:30:00,METAR VVCI 292230Z 36008KT CAVOK 22/13 Q1015 NOSIG,1,0,0,9999,0,0,0,
2026-04-29 22:00:00,METAR VVCI 292200Z 01006KT 330V030 CAVOK 22/13 Q1015 NOSIG,1,0,0,9999,0,0,0,
2026-04-29 21:30:00,METAR VVCI 292130Z 01007KT CAVOK 22/14 Q1014 NOSIG,1,0,0,9999,0,0,0,
2026-04-29 21:00:00,METAR VVCI 292100Z 02007KT 360V070 CAVOK 22/14 Q1013 NOSIG,1,0,0,9999,0,0,0,
2026-04-29 20:30:00,METAR VVCI 292030Z 01007KT 340V040 CAVOK 23/14 Q1014 NOSIG,1,0,0,9999,0,0,0,
2026-04-29 20:00:00,METAR VVCI 292000Z 36005KT CAVOK 23/15 Q1014 NOSIG,1,0,0,9999,0,0,0,
2026-04-29 19:30:00,METAR VVCI 291930Z 04005KT CAVOK 23/15 Q1014 NOSIG,1,0,0,9999,0,0,0,
2026-04-29 19:00:00,METAR VVCI 291900Z 02006KT 360V060 CAVOK 23/16 Q1015 NOSIG,1,0,0,9999,0,0,0,
2026-04-29 18:30:00,METAR VVCI 291830Z 02005KT CAVOK 23/16 Q1015 NOSIG,1,0,0,9999,0,0,0,
2026-04-29 18:00:00,METAR VVCI 291800Z 03005KT 350V060 CAVOK 23/17 Q1015 NOSIG,1,0,0,9999,0,0,0,
2026-04-29 17:30:00,METAR VVCI 291730Z 04005KT CAVOK 23/16 Q1015 NOSIG,1,0,0,9999,0,0,0,
2026-04-29 17:00:00,METAR VVCI 291700Z 04006KT CAVOK 24/16 Q1015 NOSIG,1,0,0,9999,0,0,0,
2026-04-29 16:30:00,METAR VVCI 291630Z 04005KT CAVOK 24/16 Q1016 NOSIG,1,0,0,9999,0,0,0,
2026-04-29 16:00:00,METAR VVCI 291600Z 05006KT CAVOK 24/16 Q1016 NOSIG,1,0,0,9999,0,0,0,
2026-04-29 15:30:00,METAR VVCI 291530Z 03005KT CAVOK 24/17 Q1015 NOSIG,1,0,0,9999,0,0,0,
2026-04-29 15:00:00,METAR VVCI 291500Z 04005KT CAVOK 24/16 Q1015 NOSIG,1,0,0,9999,0,0,0,
2026-04-29 14:30:00,METAR VVCI 291430Z 05005KT 020V080 CAVOK 24/17 Q1015 NOSIG,1,0,0,9999,0,0,0,
2026-04-29 14:00:00,METAR VVCI 291400Z 06005KT 020V080 CAVOK 25/17 Q1014 NOSIG,1,0,0,9999,0,0,0,
2026-04-29 13:30:00,METAR VVCI 291330Z 07007KT CAVOK 25/17 Q1014 NOSIG,1,0,0,9999,0,0,0,
2026-04-29 13:00:00,METAR VVCI 291300Z 07006KT CAVOK 25/17 Q1014 NOSIG,1,0,0,9999,0,0,0,
2026-04-29 12:30:00,METAR VVCI 291230Z 06005KT 020V080 CAVOK 25/17 Q1013 NOSIG,1,0,0,9999,0,0,0,
2026-04-29 12:00:00,METAR VVCI 291200Z 04008KT 010V070 CAVOK 25/16 Q1013 NOSIG,1,0,0,9999,0,0,0,
2026-04-29 11:30:00,METAR VVCI 291130Z 04008KT CAVOK 26/17 Q1012 NOSIG,1,0,0,9999,0,0,0,
2026-04-29 11:00:00,METAR VVCI 291100Z 04011KT CAVOK 27/17 Q1011 NOSIG,1,0,0,9999,0,0,0,
2026-04-29 10:30:00,METAR VVCI 291030Z 04010KT 360V080 9999 BKN047 27/18 Q1011 NOSIG,0,10,0,10000,0,0,0,
2026-04-29 10:00:00,METAR VVCI 291000Z 05007KT 010V080 9999 OVC049 28/18 Q1010 NOSIG,0,7,0,10000,0,0,0,
2026-04-29 09:30:00,METAR VVCI 290930Z 03008KT 360V100 9999 OVC049 28/18 Q1010 NOSIG,0,8,0,10000,0,0,0,
2026-04-29 09:00:00,METAR VVCI 290900Z 35005KT 320V040 CAVOK 28/19 Q1010 NOSIG,1,0,0,9999,0,0,0,
2026-04-29 08:30:00,METAR VVCI 290830Z 36005KT 320V060 9999 SCT049 29/18 Q1010 NOSIG,0,5,0,10000,0,0,0,
2026-04-29 08:00:00,METAR VVCI 290800Z 03005KT 320V080 9999 FEW048 29/18 Q1011 NOSIG,0,5,0,10000,0,0,0,
2026-04-29 07:30:00,METAR VVCI 290730Z 04008KT 360V070 CAVOK 30/19 Q1011 NOSIG,1,0,0,9999,0,0,0,
2026-04-29 07:00:00,METAR VVCI 290700Z 04008KT 360V070 CAVOK 30/19 Q1011 NOSIG,1,0,0,9999,0,0,0,
2026-04-29 06:30:00,METAR VVCI 290630Z 05009KT 010V080 9999 FEW045 29/18 Q1011 NOSIG,0,9,0,10000,0,0,0,
2026-04-29 06:00:00,METAR VVCI 290600Z 05009KT 010V080 9999 FEW045 29/18 Q1011 NOSIG,0,9,0,10000,0,0,0,
2026-04-29 05:30:00,METAR VVCI 290530Z 35008KT 310V020 9999 FEW048 29/19 Q1012 NOSIG,0,8,0,10000,0,0,0,
2026-04-29 05:00:00,METAR VVCI 290500Z 01007KT 330V060 9999 SCT048 29/19 Q1012 NOSIG,0,7,0,10000,0,0,0,
2026-04-29 04:30:00,METAR VVCI 290430Z 01007KT 330V050 9999 BKN047 29/19 Q1013 NOSIG,0,7,0,10000,0,0,0,
2026-04-29 04:00:00,METAR VVCI 290400Z 36007KT 330V040 9999 OVC046 27/19 Q1013 NOSIG,0,7,0,10000,0,0,0,
2026-04-29 03:30:00,METAR VVCI 290330Z 03006KT 010V070 9999 SCT045 27/20 Q1013 NOSIG,0,6,0,10000,0,0,0,
2026-04-29 03:00:00,METAR VVCI 290300Z 36007KT 330V040 9999 BKN045 25/20 Q1013 NOSIG,0,7,0,10000,0,0,0,
2026-04-29 02:30:00,METAR VVCI 290230Z 36007KT 330V040 9999 BKN045 25/20 Q1013 NOSIG,0,7,0,10000,0,0,0,
2026-04-29 02:00:00,METAR VVCI 290200Z 36007KT 330V040 9999 FEW026 BKN044 24/20 Q1012 NOSIG,0,7,0,10000,0,0,0,
2026-04-29 01:30:00,METAR VVCI 290130Z 01008KT 340V040 9999 FEW044 24/20 Q1011 NOSIG,0,8,0,10000,0,0,0,
2026-04-29 01:00:00,METAR VVCI 290100Z 03010KT 360V060 9999 FEW042 24/21 Q1011 NOSIG,0,10,0,10000,0,0,0,
2026-04-29 00:30:00,METAR VVCI 290030Z 01008KT CAVOK 24/22 Q1010 NOSIG,1,0,0,9999,0,0,0,
2026-04-29 00:00:00,METAR VVCI 290000Z 36004KT 9999 FEW022 FEW025TCU 24/23 Q1010 NOSIG,0,4,0,10000,0,0,0,
2026-04-28 23:30:00,METAR VVCI 282330Z 04005KT 340V100 9999 VCTS SCT026 FEW028CB 23/22 Q1009 NOSIG,0,5,0,10000,1,0,0,"TS,VC"
2026-04-28 23:00:00,METAR VVCI 282300Z 05010KT 020V080 3900 TSRA BKN005 BKN015 BKN027CB 23/22 Q1009 BECMG TL2330 6000 -RA,0,10,0,3900,1,0,0,"-RA,RA,TS"
2026-04-28 22:30:00,METAR VVCI 282230Z 07005KT 9999 FEW017 BKN025 FEW027TCU BKN046 26/24 Q1008 TEMPO 3500 SHRA,0,5,0,10000,0,0,0,"RA,SH"
2026-04-28 22:00:00,METAR VVCI 282200Z VRB01KT 9999 FEW020 25/24 Q1008 NOSIG,0,1,0,10000,0,0,0,
2026-04-28 21:30:00,METAR VVCI 282130Z 02003KT 330V060 9999 FEW022 26/24 Q1007 NOSIG,0,3,0,10000,0,0,0,
2026-04-28 21:00:00,METAR VVCI 282100Z VRB04KT 9999 -RA FEW009 SCT023 BKN027 26/25 Q1007 NOSIG,0,4,0,10000,0,0,0,-RA
2026-04-28 20:30:00,METAR VVCI 282030Z 04005KT 9000 -RA SCT009 BKN011 26/25 Q1006 NOSIG,0,5,0,9000,0,0,0,-RA
2026-04-28 20:00:00,METAR VVCI 282000Z 10003KT 070V130 9000 FEW010 26/25 Q1006 NOSIG,0,3,0,9000,0,0,0,
2026-04-28 19:30:00,METAR VVCI 281930Z 09005KT 9000 SCT009 26/25 Q1006 NOSIG,0,5,0,9000,0,0,0,
2026-04-28 19:00:00,METAR VVCI 281900Z 11004KT 080V140 9999 -RA FEW015 26/25 Q1006 NOSIG,0,4,0,10000,0,0,0,-RA
2026-04-28 18:30:00,METAR VVCI 281830Z 13005KT 9999 FEW022 26/25 Q1006 NOSIG,0,5,0,10000,0,0,0,
2026-04-28 18:00:00,METAR VVCI 281800Z 12004KT 090V150 9999 -RA FEW025 26/25 Q1006 NOSIG,0,4,0,10000,0,0,0,-RA
2026-04-28 17:30:00,METAR VVCI 281730Z 11004KT 9999 -RA SCT025 27/25 Q1006 TEMPO 4000 SHRA FEW027CB,0,4,0,10000,0,0,0,"-RA,RA,SH"
2026-04-28 17:00:00,METAR VVCI 281700Z 29003KT 260V320 9999 FEW011 BKN018 BKN039 26/25 Q1007 TEMPO 4000 SHRA FEW027CB,0,3,0,10000,0,0,0,"RA,SH"
2026-04-28 16:30:00,METAR VVCI 281630Z 24004KT 190V290 9999 BKN010 27/24 Q1008 TEMPO FM1700 4000 TSRA BKN010 FEW027CB,0,4,0,10000,1,0,0,"RA,TS"
2026-04-28 16:00:00,METAR VVCI 281600Z 13005KT 9999 FEW011 27/25 Q1007 NOSIG,0,5,0,10000,0,0,0,
2026-04-28 15:30:00,METAR VVCI 281530Z 14005KT 9999 FEW011 27/25 Q1007 NOSIG,0,5,0,10000,0,0,0,
2026-04-28 15:00:00,METAR VVCI 281500Z 13005KT 9999 FEW012 27/25 Q1007 NOSIG,0,5,0,10000,0,0,0,
2026-04-28 14:30:00,METAR VVCI 281430Z 13005KT 9999 FEW013 27/24 Q1007 NOSIG,0,5,0,10000,0,0,0,
2026-04-28 14:00:00,METAR VVCI 281400Z 13003KT 090V150 9999 FEW014 27/24 Q1007 NOSIG,0,3,0,10000,0,0,0,
2026-04-28 13:30:00,METAR VVCI 281330Z 13004KT 100V170 CAVOK 27/24 Q1006 NOSIG,1,0,0,9999,0,0,0,
2026-04-28 13:00:00,METAR VVCI 281300Z 15006KT CAVOK 27/24 Q1006 NOSIG,1,0,0,9999,0,0,0,
2026-04-28 12:30:00,METAR VVCI 281230Z 16005KT 120V180 CAVOK 27/24 Q1006 NOSIG,1,0,0,9999,0,0,0,
2026-04-28 12:00:00,METAR VVCI 281200Z 16009KT 9999 FEW014 27/24 Q1005 NOSIG,0,9,0,10000,0,0,0,
2026-04-28 11:30:00,METAR VVCI 281130Z 16008KT 9999 FEW014 27/24 Q1004 NOSIG,0,8,0,10000,0,0,0,
2026-04-28 11:00:00,METAR VVCI 281100Z 16010KT 9999 FEW017 27/23 Q1003 NOSIG,0,10,0,10000,0,0,0,
2026-04-28 10:30:00,METAR VVCI 281030Z 13010KT 9999 FEW016 28/24 Q1003 NOSIG,0,10,0,10000,0,0,0,
2026-04-28 10:00:00,METAR VVCI 281000Z 12008KT CAVOK 28/24 Q1003 NOSIG,1,0,0,9999,0,0,0,
2026-04-28 09:30:00,METAR VVCI 280930Z 13008KT 100V160 9999 FEW017 28/24 Q1003 NOSIG,0,8,0,10000,0,0,0,
2026-04-28 09:00:00,METAR VVCI 280900Z 13009KT 9999 SCT014 28/24 Q1004 NOSIG,0,9,0,10000,0,0,0,
2026-04-28 08:30:00,METAR VVCI 280830Z 12008KT 9999 SCT012 SCT015 28/24 Q1004 NOSIG,0,8,0,10000,0,0,0,
2026-04-28 08:00:00,METAR VVCI 280800Z 12010KT 9999 FEW011 SCT013 29/25 Q1005 NOSIG,0,10,0,10000,0,0,0,
2026-04-28 07:30:00,METAR VVCI 280730Z 13011KT 9999 FEW013 29/24 Q1005 NOSIG,0,11,0,10000,0,0,0,
2026-04-28 07:00:00,METAR VVCI 280700Z 12010KT 9999 FEW014 29/24 Q1006 NOSIG,0,10,0,10000,0,0,0,
2026-04-28 06:30:00,METAR VVCI 280630Z 13009KT 9999 FEW015 29/25 Q1006 NOSIG,0,9,0,10000,0,0,0,
2026-04-28 06:00:00,METAR VVCI 280600Z 12010KT 090V160 9999 FEW016 29/24 Q1006 NOSIG,0,10,0,10000,0,0,0,
2026-04-28 05:30:00,METAR VVCI 280530Z 13010KT 9999 SCT016 29/24 Q1006 NOSIG,0,10,0,10000,0,0,0,
2026-04-28 05:00:00,METAR VVCI 280500Z 11009KT 090V150 9999 FEW014 BKN032 29/25 Q1007 NOSIG,0,9,0,10000,0,0,0,
2026-04-28 04:30:00,METAR VVCI 280430Z 12007KT 090V150 9999 SCT018 BKN026 29/25 Q1007 NOSIG,0,7,0,10000,0,0,0,
2026-04-28 04:00:00,METAR VVCI 280400Z 12008KT 9999 FEW014 SCT019 BKN023 29/24 Q1007 NOSIG,0,8,0,10000,0,0,0,
2026-04-28 03:30:00,METAR VVCI 280330Z 13008KT 9999 FEW026 29/24 Q1008 NOSIG,0,8,0,10000,0,0,0,
2026-04-28 03:00:00,METAR VVCI 280300Z 15009KT 9999 FEW011 28/24 Q1008 NOSIG,0,9,0,10000,0,0,0,
2026-04-28 02:30:00,METAR VVCI 280230Z 16007KT 130V190 7000 -RA SCT010 BKN021 BKN038 27/25 Q1008 NOSIG,0,7,0,7000,0,0,0,-RA
2026-04-28 02:00:00,METAR VVCI 280200Z 18005KT 140V220 9999 VCTS BKN012 BKN019 FEW025CB 27/25 Q1008 TEMPO TL0230 4000 TSRA,0,5,0,10000,1,0,0,"RA,TS,VC"
2026-04-28 01:30:00,METAR VVCI 280130Z 17006KT 130V190 9999 -RA FEW016 SCT023 BKN036 27/25 Q1008 NOSIG,0,6,0,10000,0,0,0,-RA
2026-04-28 01:00:00,METAR VVCI 280100Z 17006KT 150V210 9999 -RA FEW010 BKN015 BKN019 26/24 Q1008 NOSIG,0,6,0,10000,0,0,0,-RA
2026-04-28 00:30:00,METAR VVCI 280030Z 19008KT 8000 -RA FEW011 BKN015 26/25 Q1008 NOSIG,0,8,0,8000,0,0,0,-RA
2026-04-28 00:00:00,METAR VVCI 280000Z 17006KT 140V200 9999 -RA SCT009 BKN012 BKN014 27/25 Q1007 NOSIG,0,6,0,10000,0,0,0,-RA
2026-04-27 23:30:00,METAR VVCI 272330Z 14005KT 110V170 9999 SCT011 BKN017 OVC036 27/25 Q1007 NOSIG,0,5,0,10000,0,0,0,
2026-04-27 23:00:00,METAR VVCI 272300Z 14005KT 110V170 9999 SCT011 BKN019 OVC036 27/25 Q1007 NOSIG,0,5,0,10000,0,0,0,
2026-04-27 22:30:00,METAR VVCI 272230Z 17006KT 9999 FEW010 BKN012 BKN023 27/25 Q1007 NOSIG,0,6,0,10000,0,0,0,
2026-04-27 22:00:00,METAR VVCI 272200Z 17006KT 9999 FEW010 BKN012 BKN023 27/25 Q1007 NOSIG,0,6,0,10000,0,0,0,
2026-04-27 21:30:00,METAR VVCI 272130Z 18005KT 150V210 9999 BKN012 BKN023 BKN034 27/25 Q1007 NOSIG,0,5,0,10000,0,0,0,
2026-04-27 21:00:00,METAR VVCI 272100Z 18005KT 150V210 9999 BKN012 BKN023 BKN034 27/25 Q1007 NOSIG,0,5,0,10000,0,0,0,
2026-04-27 20:30:00,METAR VVCI 272030Z 18007KT 9999 SCT013 BKN015 BKN036 27/24 Q1007 NOSIG,0,7,0,10000,0,0,0,
2026-04-27 20:00:00,METAR VVCI 272000Z 19007KT 9999 SCT013 BKN015 BKN036 27/24 Q1007 NOSIG,0,7,0,10000,0,0,0,
2026-04-27 19:30:00,METAR VVCI 271930Z 12003KT 9999 SCT011 BKN013 BKN016 26/25 Q1007 NOSIG,0,3,0,10000,0,0,0,
2026-04-27 19:00:00,METAR VVCI 271900Z 14004KT 9999 -RA BKN012 OVC036 26/25 Q1007 NOSIG,0,4,0,10000,0,0,0,-RA
2026-04-27 18:30:00,METAR VVCI 271830Z 13007KT 9999 -RA BKN012 BKN016 OVC036 26/24 Q1007 NOSIG,0,7,0,10000,0,0,0,-RA
2026-04-27 17:00:00,METAR VVCI 271700Z 11004KT CAVOK 25/23 Q1008 NOSIG,1,0,0,9999,0,0,0,
2026-04-27 16:30:00,METAR VVCI 271630Z 11005KT 9999 FEW031 25/23 Q1008 NOSIG,0,5,0,10000,0,0,0,
2026-04-27 16:00:00,METAR VVCI 271600Z 12007KT 9999 FEW013 SCT015 25/23 Q1009 NOSIG,0,7,0,10000,0,0,0,
2026-04-27 15:30:00,METAR VVCI 271530Z 14011KT 9999 -RA FEW013 26/23 Q1009 NOSIG,0,11,0,10000,0,0,0,-RA
2026-04-27 15:00:00,METAR VVCI 271500Z 11007KT 100V160 9999 -RA FEW013 SCT028 26/24 Q1009 NOSIG,0,7,0,10000,0,0,0,-RA
2026-04-27 14:30:00,METAR VVCI 271430Z 11008KT 9999 -RA FEW011 SCT020 26/24 Q1009 NOSIG,0,8,0,10000,0,0,0,-RA
2026-04-27 14:00:00,METAR VVCI 271400Z 11005KT 8000 -RA FEW015 SCT017 BKN047 26/25 Q1009 NOSIG,0,5,0,8000,0,0,0,-RA
2026-04-27 13:30:00,METAR VVCI 271330Z 19005KT 150V230 8000 -TSRA BKN015 FEW027CB 27/24 Q1009 TEMPO 25015G25KT 2500 +TSRA,0,5,0,8000,1,0,0,RA
2026-04-27 13:00:00,METAR VVCI 271300Z COR 14007KT 9999 -TSRA FEW016 FEW027CB 27/24 Q1008 TEMPO FM1330 3000 TSRA,0,7,0,10000,1,0,0,"RA,TS"
2026-04-27 12:30:00,METAR VVCI 271230Z 14006KT 9999 FEW017 27/24 Q1008 NOSIG,0,6,0,10000,0,0,0,
2026-04-27 12:00:00,METAR VVCI 271200Z 15008KT CAVOK 27/24 Q1007 NOSIG,1,0,0,9999,0,0,0,
2026-04-27 11:30:00,METAR VVCI 271130Z 15007KT CAVOK 27/23 Q1007 NOSIG,1,0,0,9999,0,0,0,
2026-04-27 11:00:00,METAR VVCI 271100Z 17010KT 120V210 CAVOK 28/22 Q1007 NOSIG,1,0,0,9999,0,0,0,
2026-04-27 10:30:00,METAR VVCI 271030Z 17009KT CAVOK 28/22 Q1006 NOSIG,1,0,0,9999,0,0,0,
2026-04-27 10:00:00,METAR VVCI 271000Z 17009KT 9999 FEW017 28/24 Q1006 NOSIG,0,9,0,10000,0,0,0,
2026-04-27 09:30:00,METAR VVCI 270930Z 16012KT 9999 FEW017 BKN020 BKN031 28/24 Q1005 NOSIG,0,12,0,10000,0,0,0,
2026-04-27 09:00:00,METAR VVCI 270900Z 17011KT 9999 BKN018 29/24 Q1006 NOSIG,0,11,0,10000,0,0,0,
2026-04-27 08:30:00,METAR VVCI 270830Z 17010KT 9999 FEW022 30/24 Q1006 NOSIG,0,10,0,10000,0,0,0,
2026-04-27 08:00:00,METAR VVCI 270800Z 18011KT 150V210 9999 FEW023 30/24 Q1006 NOSIG,0,11,0,10000,0,0,0,
2026-04-27 07:30:00,METAR VVCI 270730Z 17013KT 9999 FEW024 30/24 Q1006 NOSIG,0,13,0,10000,0,0,0,
2026-04-27 07:00:00,METAR VVCI 270700Z 16010KT 140V200 9999 FEW024 SCT047 30/24 Q1006 NOSIG,0,10,0,10000,0,0,0,
2026-04-27 06:30:00,METAR VVCI 270630Z 19011KT 9999 FEW025 BKN041 29/24 Q1007 NOSIG,0,11,0,10000,0,0,0,
2026-04-27 06:00:00,METAR VVCI 270600Z 20012KT 160V220 9999 FEW026 BKN044 30/24 Q1007 NOSIG,0,12,0,10000,0,0,0,
2026-04-27 05:30:00,METAR VVCI 270530Z 19011KT 160V240 9999 FEW026 SCT031 BKN043 31/24 Q1007 NOSIG,0,11,0,10000,0,0,0,
2026-04-27 05:00:00,METAR VVCI 270500Z 18012KT 9999 FEW023 SCT027 30/24 Q1008 NOSIG,0,12,0,10000,0,0,0,
2026-04-27 04:30:00,METAR VVCI 270430Z 20008KT 9999 SCT023 SCT032 BKN049 30/24 Q1009 NOSIG,0,8,0,10000,0,0,0,
2026-04-27 04:00:00,METAR VVCI 270400Z 22009KT 9999 SCT022 BKN027 29/24 Q1009 NOSIG,0,9,0,10000,0,0,0,
2026-04-27 03:30:00,METAR VVCI 270330Z 22009KT 190V250 9999 SCT020 BKN040 30/24 Q1009 NOSIG,0,9,0,10000,0,0,0,
2026-04-27 03:00:00,METAR VVCI 270300Z 21008KT 9999 FEW017 SCT021 30/25 Q1010 NOSIG,0,8,0,10000,0,0,0,
2026-04-27 02:30:00,METAR VVCI 270230Z 22006KT 190V260 9999 BKN014 BKN019 28/24 Q1010 NOSIG,0,6,0,10000,0,0,0,
2026-04-27 02:00:00,METAR VVCI 270200Z 24006KT 180V270 9999 FEW012 BKN014 28/24 Q1010 NOSIG,0,6,0,10000,0,0,0,
2026-04-27 01:30:00,METAR VVCI 270130Z 23006KT 200V260 9999 FEW012 SCT025 28/24 Q1010 NOSIG,0,6,0,10000,0,0,0,
2026-04-27 01:00:00,METAR VVCI 270100Z 27005KT 240V300 9999 FEW009 SCT017 27/25 Q1010 NOSIG,0,5,0,10000,0,0,0,
2026-04-27 00:30:00,METAR VVCI 270030Z VRB02KT 7000 FEW009 SCT026 BKN034 26/25 Q1010 NOSIG,0,2,0,7000,0,0,0,
2026-04-27 00:00:00,METAR VVCI 270000Z 22003KT 200V260 7000 FEW010 SCT012 26/25 Q1010 NOSIG,0,3,0,7000,0,0,0,
2026-04-26 23:30:00,METAR VVCI 262330Z 21005KT 7000 FEW011 SCT014 26/25 Q1009 NOSIG,0,5,0,7000,0,0,0,
2026-04-26 23:00:00,METAR VVCI 262300Z 21005KT 7000 FEW012 SCT016 26/25 Q1009 NOSIG,0,5,0,7000,0,0,0,
2026-04-26 22:30:00,METAR VVCI 262230Z 16004KT 9999 -RA SCT011 BKN030 26/24 Q1008 NOSIG,0,4,0,10000,0,0,0,-RA
2026-04-26 22:00:00,METAR VVCI 262200Z 16004KT 9999 -RA FEW011 BKN030 26/24 Q1008 NOSIG,0,4,0,10000,0,0,0,-RA
2026-04-26 21:30:00,METAR VVCI 262130Z 16005KT 9999 SCT010 BKN042 26/24 Q1008 NOSIG,0,5,0,10000,0,0,0,
2026-04-26 21:00:00,METAR VVCI 262100Z 16005KT 9999 SCT010 BKN041 26/24 Q1008 NOSIG,0,5,0,10000,0,0,0,
2026-04-26 20:30:00,METAR VVCI 262030Z 12006KT 9999 FEW011 26/24 Q1008 NOSIG,0,6,0,10000,0,0,0,
2026-04-26 20:00:00,METAR VVCI 262000Z 13005KT 110V170 9999 SCT011 BKN045 26/24 Q1008 NOSIG,0,5,0,10000,0,0,0,
2026-04-26 19:30:00,METAR VVCI 261930Z 14007KT 9999 SCT010 BKN025 26/24 Q1008 NOSIG,0,7,0,10000,0,0,0,
2026-04-26 19:00:00,METAR VVCI 261900Z 12005KT 090V150 9999 FEW009 BKN011 26/24 Q1008 NOSIG,0,5,0,10000,0,0,0,
2026-04-26 18:30:00,METAR VVCI 261830Z 11007KT 9999 BKN010 26/24 Q1008 NOSIG,0,7,0,10000,0,0,0,
2026-04-26 18:00:00,METAR VVCI 261800Z 11006KT 9999 FEW010 BKN014 26/24 Q1009 NOSIG,0,6,0,10000,0,0,0,
2026-04-26 17:30:00,METAR VVCI 261730Z 11006KT 9999 SCT011 BKN016 26/23 Q1009 NOSIG,0,6,0,10000,0,0,0,
2026-04-26 17:00:00,METAR VVCI 261700Z 12008KT 9999 BKN012 26/23 Q1010 NOSIG,0,8,0,10000,0,0,0,
2026-04-26 16:30:00,METAR VVCI 261630Z 13008KT 9999 SCT011 26/23 Q1010 NOSIG,0,8,0,10000,0,0,0,
2026-04-26 16:00:00,METAR VVCI 261600Z 13009KT 9999 SCT012 26/23 Q1010 NOSIG,0,9,0,10000,0,0,0,
2026-04-26 15:30:00,METAR VVCI 261530Z 13008KT 9999 SCT012 26/23 Q1011 NOSIG,0,8,0,10000,0,0,0,
2026-04-26 15:00:00,METAR VVCI 261500Z 13008KT 9999 FEW012 26/23 Q1011 NOSIG,0,8,0,10000,0,0,0,
2026-04-26 14:30:00,METAR VVCI 261430Z 13008KT 9999 FEW012 26/23 Q1011 NOSIG,0,8,0,10000,0,0,0,
2026-04-26 14:00:00,METAR VVCI 261400Z 14009KT CAVOK 26/23 Q1011 NOSIG,1,0,0,9999,0,0,0,
2026-04-26 13:30:00,METAR VVCI 261330Z 12007KT 9999 -RA FEW013 26/23 Q1010 NOSIG,0,7,0,10000,0,0,0,-RA
2026-04-26 13:00:00,METAR VVCI 261300Z 12006KT 9999 -RA NSC 26/23 Q1010 NOSIG,0,6,0,10000,0,0,0,-RA
2026-04-26 12:30:00,METAR VVCI 261230Z 14007KT 9999 -RA NSC 26/23 Q1010 NOSIG,0,7,0,10000,0,0,0,-RA
2026-04-26 12:00:00,METAR VVCI 261200Z 15006KT CAVOK 26/23 Q1010 NOSIG,1,0,0,9999,0,0,0,
2026-04-26 11:30:00,METAR VVCI 261130Z 13008KT CAVOK 27/22 Q1009 NOSIG,1,0,0,9999,0,0,0,
2026-04-26 11:00:00,METAR VVCI 261100Z 14008KT CAVOK 27/23 Q1009 NOSIG,1,0,0,9999,0,0,0,
2026-04-26 10:30:00,METAR VVCI 261030Z 14007KT CAVOK 27/23 Q1009 NOSIG,1,0,0,9999,0,0,0,
2026-04-26 10:00:00,METAR VVCI 261000Z 13008KT CAVOK 27/23 Q1009 NOSIG,1,0,0,9999,0,0,0,
2026-04-26 09:30:00,METAR VVCI 260930Z 13009KT CAVOK 27/23 Q1009 NOSIG,1,0,0,9999,0,0,0,
2026-04-26 09:00:00,METAR VVCI 260900Z 14009KT CAVOK 28/23 Q1009 NOSIG,1,0,0,9999,0,0,0,
2026-04-26 08:30:00,METAR VVCI 260830Z 14009KT CAVOK 28/22 Q1009 NOSIG,1,0,0,9999,0,0,0,
2026-04-26 08:00:00,METAR VVCI 260800Z 13008KT 110V170 CAVOK 28/22 Q1010 NOSIG,1,0,0,9999,0,0,0,
2026-04-26 07:30:00,METAR VVCI 260730Z 13008KT CAVOK 28/22 Q1010 NOSIG,1,0,0,9999,0,0,0,
2026-04-26 07:00:00,METAR VVCI 260700Z 15008KT 120V180 9999 FEW044 28/22 Q1011 NOSIG,0,8,0,10000,0,0,0,
2026-04-26 06:30:00,METAR VVCI 260630Z 15008KT 120V180 9999 FEW044 28/22 Q1011 NOSIG,0,8,0,10000,0,0,0,
2026-04-26 06:00:00,METAR VVCI 260600Z 14009KT 9999 SCT043 28/22 Q1012 NOSIG,0,9,0,10000,0,0,0,
2026-04-26 05:30:00,METAR VVCI 260530Z 14009KT 9999 SCT043 28/22 Q1012 NOSIG,0,9,0,10000,0,0,0,
2026-04-26 05:00:00,METAR VVCI 260500Z 14008KT 110V180 CAVOK 29/22 Q1013 NOSIG,1,0,0,9999,0,0,0,
2026-04-26 04:30:00,METAR VVCI 260430Z 15008KT 110V190 CAVOK 29/22 Q1013 NOSIG,1,0,0,9999,0,0,0,
2026-04-26 04:00:00,METAR VVCI 260400Z 14009KT 9999 FEW025 29/22 Q1013 NOSIG,0,9,0,10000,0,0,0,
2026-04-26 03:30:00,METAR VVCI 260330Z 13008KT 100V170 9999 FEW023 28/22 Q1013 NOSIG,0,8,0,10000,0,0,0,
2026-04-26 03:00:00,METAR VVCI 260300Z 15006KT 110V170 9999 SCT023 28/23 Q1013 NOSIG,0,6,0,10000,0,0,0,
2026-04-26 02:30:00,METAR VVCI 260230Z 15007KT 9999 SCT022 SCT028 28/22 Q1014 NOSIG,0,7,0,10000,0,0,0,
2026-04-26 02:00:00,METAR VVCI 260200Z 10005KT 070V140 9999 SCT020 27/22 Q1013 NOSIG,0,5,0,10000,0,0,0,
2026-04-26 01:30:00,METAR VVCI 260130Z 06004KT 010V090 9999 FEW019 27/22 Q1013 NOSIG,0,4,0,10000,0,0,0,
2026-04-26 01:00:00,METAR VVCI 260100Z 08003KT 050V120 CAVOK 26/22 Q1013 NOSIG,1,0,0,9999,0,0,0,
2026-04-26 00:30:00,METAR VVCI 260030Z 08003KT 040V120 CAVOK 26/22 Q1013 NOSIG,1,0,0,9999,0,0,0,
2026-04-26 00:00:00,METAR VVCI 260000Z 05003KT 020V080 CAVOK 25/22 Q1013 NOSIG,1,0,0,9999,0,0,0,
2026-04-25 23:30:00,METAR VVCI 252330Z 05004KT 8000 NSC 24/21 Q1012 NOSIG,0,4,0,8000,0,0,0,
2026-04-25 23:00:00,METAR VVCI 252300Z 05004KT 7000 NSC 23/21 Q1012 NOSIG,0,4,0,7000,0,0,0,
2026-04-25 22:30:00,METAR VVCI 252230Z 05003KT 6000 NSC 23/21 Q1012 NOSIG,0,3,0,6000,0,0,0,
2026-04-25 22:00:00,METAR VVCI 252200Z 06003KT 8000 NSC 23/21 Q1012 NOSIG,0,3,0,8000,0,0,0,
2026-04-25 21:30:00,METAR VVCI 252130Z 07003KT 8000 NSC 23/21 Q1011 NOSIG,0,3,0,8000,0,0,0,
2026-04-25 21:00:00,METAR VVCI 252100Z 07003KT CAVOK 23/21 Q1011 NOSIG,1,0,0,9999,0,0,0,
2026-04-25 20:30:00,METAR VVCI 252030Z 07003KT CAVOK 23/21 Q1011 NOSIG,1,0,0,9999,0,0,0,
2026-04-25 20:00:00,METAR VVCI 252000Z 02003KT CAVOK 23/20 Q1011 NOSIG,1,0,0,9999,0,0,0,
2026-04-25 19:30:00,METAR VVCI 251930Z 02003KT 350V050 CAVOK 23/20 Q1012 NOSIG,1,0,0,9999,0,0,0,
2026-04-25 19:00:00,METAR VVCI 251900Z 35002KT CAVOK 23/20 Q1012 NOSIG,1,0,0,9999,0,0,0,
2026-04-25 18:30:00,METAR VVCI 251830Z 34001KT CAVOK 23/22 Q1012 NOSIG,1,0,0,9999,0,0,0,
2026-04-25 18:00:00,METAR VVCI 251800Z 00000KT CAVOK 24/21 Q1012 NOSIG,1,0,0,9999,0,0,0,
2026-04-25 17:30:00,METAR VVCI 251730Z VRB02KT CAVOK 24/21 Q1013 NOSIG,1,0,0,9999,0,0,0,
2026-04-25 17:00:00,METAR VVCI 251700Z 00000KT CAVOK 24/20 Q1013 NOSIG,1,0,0,9999,0,0,0,
2026-04-25 16:30:00,METAR VVCI 251630Z 13002KT CAVOK 25/20 Q1013 NOSIG,1,0,0,9999,0,0,0,
2026-04-25 16:00:00,METAR VVCI 251600Z 17004KT CAVOK 25/20 Q1014 NOSIG,1,0,0,9999,0,0,0,
2026-04-25 15:30:00,METAR VVCI 251530Z 17003KT 140V210 CAVOK 25/20 Q1014 NOSIG,1,0,0,9999,0,0,0,
2026-04-25 15:00:00,METAR VVCI 251500Z 14004KT CAVOK 25/19 Q1014 NOSIG,1,0,0,9999,0,0,0,
2026-04-25 14:30:00,METAR VVCI 251430Z 13004KT CAVOK 25/19 Q1014 NOSIG,1,0,0,9999,0,0,0,
2026-04-25 14:00:00,METAR VVCI 251400Z 15004KT 110V180 CAVOK 25/20 Q1014 NOSIG,1,0,0,9999,0,0,0,
2026-04-25 13:30:00,METAR VVCI 251330Z 16004KT 130V200 CAVOK 25/20 Q1013 NOSIG,1,0,0,9999,0,0,0,
2026-04-25 13:00:00,METAR VVCI 251300Z 17005KT CAVOK 25/20 Q1013 NOSIG,1,0,0,9999,0,0,0,
2026-04-25 12:30:00,METAR VVCI 251230Z 16006KT CAVOK 25/20 Q1013 NOSIG,1,0,0,9999,0,0,0,
2026-04-25 12:00:00,METAR VVCI 251200Z 17006KT CAVOK 25/21 Q1012 NOSIG,1,0,0,9999,0,0,0,
2026-04-25 11:30:00,METAR VVCI 251130Z 17007KT 140V200 CAVOK 26/21 Q1012 NOSIG,1,0,0,9999,0,0,0,
2026-04-25 11:00:00,METAR VVCI 251100Z 16006KT CAVOK 26/21 Q1012 NOSIG,1,0,0,9999,0,0,0,
2026-04-25 10:30:00,METAR VVCI 251030Z 15007KT 130V190 CAVOK 27/21 Q1012 NOSIG,1,0,0,9999,0,0,0,
2026-04-25 10:00:00,METAR VVCI 251000Z 15007KT 110V170 CAVOK 27/21 Q1011 NOSIG,1,0,0,9999,0,0,0,
2026-04-25 09:30:00,METAR VVCI 250930Z 14009KT CAVOK 27/21 Q1011 NOSIG,1,0,0,9999,0,0,0,
2026-04-25 09:00:00,METAR VVCI 250900Z 14010KT CAVOK 28/22 Q1012 NOSIG,1,0,0,9999,0,0,0,
2026-04-25 08:30:00,METAR VVCI 250830Z 14009KT 110V170 CAVOK 29/21 Q1012 NOSIG,1,0,0,9999,0,0,0,
2026-04-25 08:00:00,METAR VVCI 250800Z 14009KT 110V170 CAVOK 29/20 Q1012 NOSIG,1,0,0,9999,0,0,0,
2026-04-25 07:30:00,METAR VVCI 250730Z 15007KT 120V180 CAVOK 30/20 Q1012 NOSIG,1,0,0,9999,0,0,0,
2026-04-25 07:00:00,METAR VVCI 250700Z 12005KT 050V160 CAVOK 30/19 Q1013 NOSIG,1,0,0,9999,0,0,0,
2026-04-25 06:30:00,METAR VVCI 250630Z 11007KT CAVOK 30/19 Q1013 NOSIG,1,0,0,9999,0,0,0,
2026-04-25 06:00:00,METAR VVCI 250600Z 16005KT 070V190 CAVOK 30/19 Q1014 NOSIG,1,0,0,9999,0,0,0,
2026-04-25 05:30:00,METAR VVCI 250530Z VRB03KT 9999 FEW046 30/19 Q1014 NOSIG,0,3,0,10000,0,0,0,
2026-04-25 05:00:00,METAR VVCI 250500Z 08005KT 010V150 CAVOK 31/20 Q1015 NOSIG,1,0,0,9999,0,0,0,
2026-04-25 04:30:00,METAR VVCI 250430Z 07006KT 040V120 CAVOK 29/19 Q1015 NOSIG,1,0,0,9999,0,0,0,
2026-04-25 04:00:00,METAR VVCI 250400Z 09007KT 030V130 CAVOK 29/19 Q1015 NOSIG,1,0,0,9999,0,0,0,
2026-04-25 03:30:00,METAR VVCI 250330Z 08007KT 040V130 CAVOK 29/18 Q1016 NOSIG,1,0,0,9999,0,0,0,
2026-04-25 03:00:00,METAR VVCI 250300Z 09008KT CAVOK 28/20 Q1016 NOSIG,1,0,0,9999,0,0,0,
2026-04-25 02:30:00,METAR VVCI 250230Z 07005KT 010V130 CAVOK 28/20 Q1016 NOSIG,1,0,0,9999,0,0,0,
2026-04-25 02:00:00,METAR VVCI 250200Z 05005KT 350V090 9999 FEW025 28/20 Q1016 NOSIG,0,5,0,10000,0,0,0,
2026-04-25 01:30:00,METAR VVCI 250130Z 03004KT 360V100 CAVOK 27/21 Q1016 NOSIG,1,0,0,9999,0,0,0,
2026-04-25 01:00:00,METAR VVCI 250100Z 05005KT 010V080 CAVOK 26/21 Q1016 NOSIG,1,0,0,9999,0,0,0,
2026-04-25 00:30:00,METAR VVCI 250030Z 04005KT CAVOK 26/21 Q1016 NOSIG,1,0,0,9999,0,0,0,
2026-04-25 00:00:00,METAR VVCI 250000Z 02004KT CAVOK 24/21 Q1015 NOSIG,1,0,0,9999,0,0,0,
2026-04-24 23:30:00,METAR VVCI 242330Z 03004KT CAVOK 23/21 Q1015 NOSIG,1,0,0,9999,0,0,0,
2026-04-24 23:00:00,METAR VVCI 242300Z 01003KT CAVOK 22/20 Q1015 NOSIG,1,0,0,9999,0,0,0,
2026-04-24 22:30:00,METAR VVCI 242230Z 06003KT CAVOK 23/20 Q1014 NOSIG,1,0,0,9999,0,0,0,
2026-04-24 22:00:00,METAR VVCI 242200Z 08003KT CAVOK 23/20 Q1014 NOSIG,1,0,0,9999,0,0,0,
2026-04-24 21:30:00,METAR VVCI 242130Z 05003KT CAVOK 23/20 Q1014 NOSIG,1,0,0,9999,0,0,0,
2026-04-24 21:00:00,METAR VVCI 242100Z 05003KT CAVOK 23/20 Q1013 NOSIG,1,0,0,9999,0,0,0,
2026-04-24 20:30:00,METAR VVCI 242030Z 08003KT CAVOK 23/20 Q1013 NOSIG,1,0,0,9999,0,0,0,
2026-04-24 20:00:00,METAR VVCI 242000Z 04003KT CAVOK 23/20 Q1013 NOSIG,1,0,0,9999,0,0,0,
2026-04-24 19:30:00,METAR VVCI 241930Z 02003KT 350V050 CAVOK 23/21 Q1013 NOSIG,1,0,0,9999,0,0,0,
2026-04-24 19:00:00,METAR VVCI 241900Z 03004KT CAVOK 23/21 Q1013 NOSIG,1,0,0,9999,0,0,0,
2026-04-24 18:30:00,METAR VVCI 241830Z 03002KT CAVOK 24/20 Q1013 NOSIG,1,0,0,9999,0,0,0,
2026-04-24 18:00:00,METAR VVCI 241800Z 36002KT CAVOK 23/20 Q1013 NOSIG,1,0,0,9999,0,0,0,
2026-04-24 17:30:00,METAR VVCI 241730Z 00000KT CAVOK 23/21 Q1013 NOSIG,1,0,0,9999,0,0,0,
2026-04-24 17:00:00,METAR VVCI 241700Z VRB01KT 9999 FEW049 24/21 Q1013 NOSIG,0,1,0,10000,0,0,0,
2026-04-24 16:30:00,METAR VVCI 241630Z 00000KT CAVOK 24/21 Q1014 NOSIG,1,0,0,9999,0,0,0,
2026-04-24 16:00:00,METAR VVCI 241600Z 07002KT CAVOK 24/20 Q1014 NOSIG,1,0,0,9999,0,0,0,
2026-04-24 15:30:00,METAR VVCI 241530Z 02003KT CAVOK 24/20 Q1014 NOSIG,1,0,0,9999,0,0,0,
2026-04-24 15:00:00,METAR VVCI 241500Z 05003KT CAVOK 25/20 Q1013 NOSIG,1,0,0,9999,0,0,0,
2026-04-24 14:30:00,METAR VVCI 241430Z 08003KT CAVOK 24/19 Q1013 NOSIG,1,0,0,9999,0,0,0,
2026-04-24 14:00:00,METAR VVCI 241400Z VRB02KT CAVOK 25/19 Q1013 NOSIG,1,0,0,9999,0,0,0,
2026-04-24 13:30:00,METAR VVCI 241330Z 10002KT CAVOK 25/19 Q1013 NOSIG,1,0,0,9999,0,0,0,
2026-04-24 13:00:00,METAR VVCI 241300Z 08004KT CAVOK 25/19 Q1012 NOSIG,1,0,0,9999,0,0,0,
2026-04-24 12:30:00,METAR VVCI 241230Z 11003KT 090V160 CAVOK 26/20 Q1012 NOSIG,1,0,0,9999,0,0,0,
2026-04-24 12:00:00,METAR VVCI 241200Z 10005KT 9999 SCT036 26/19 Q1012 NOSIG,0,5,0,10000,0,0,0,
2026-04-24 11:30:00,METAR VVCI 241130Z 08006KT 9999 SCT034 26/19 Q1011 NOSIG,0,6,0,10000,0,0,0,
2026-04-24 11:00:00,METAR VVCI 241100Z 05005KT CAVOK 26/19 Q1011 NOSIG,1,0,0,9999,0,0,0,
2026-04-24 10:30:00,METAR VVCI 241030Z 04004KT 340V070 9999 FEW028 27/19 Q1011 NOSIG,0,4,0,10000,0,0,0,
2026-04-24 10:00:00,METAR VVCI 241000Z 25003KT 210V280 9999 BKN029 26/21 Q1010 NOSIG,0,3,0,10000,0,0,0,
2026-04-24 09:30:00,METAR VVCI 240930Z 23005KT 9999 BKN031 27/21 Q1011 NOSIG,0,5,0,10000,0,0,0,
2026-04-24 09:00:00,METAR VVCI 240900Z 18004KT 140V240 9999 FEW032 27/21 Q1010 NOSIG,0,4,0,10000,0,0,0,
2026-04-24 08:30:00,METAR VVCI 240830Z 20006KT 9999 SCT032 BKN038 27/21 Q1010 NOSIG,0,6,0,10000,0,0,0,
2026-04-24 08:00:00,METAR VVCI 240800Z 11004KT 060V150 9999 BKN033 BKN042 27/20 Q1010 NOSIG,0,4,0,10000,0,0,0,
2026-04-24 07:30:00,METAR VVCI 240730Z 13004KT 050V180 9999 FEW037 28/20 Q1011 NOSIG,0,4,0,10000,0,0,0,
2026-04-24 07:00:00,METAR VVCI 240700Z 13005KT 090V190 CAVOK 28/21 Q1011 NOSIG,1,0,0,9999,0,0,0,
2026-04-24 06:30:00,METAR VVCI 240630Z 13005KT 100V160 9999 FEW030 28/21 Q1011 NOSIG,0,5,0,10000,0,0,0,
2026-04-24 06:00:00,METAR VVCI 240600Z 16004KT 130V200 9999 SCT030 28/21 Q1011 NOSIG,0,4,0,10000,0,0,0,
2026-04-24 05:30:00,METAR VVCI 240530Z VRB02KT 9999 FEW026 SCT032 28/21 Q1012 NOSIG,0,2,0,10000,0,0,0,
2026-04-24 05:00:00,METAR VVCI 240500Z VRB03KT 9999 FEW019 28/21 Q1012 NOSIG,0,3,0,10000,0,0,0,
2026-04-24 04:30:00,METAR VVCI 240430Z 16004KT 110V210 CAVOK 27/21 Q1012 NOSIG,1,0,0,9999,0,0,0,
2026-04-24 04:00:00,METAR VVCI 240400Z VRB02KT 9999 FEW018 26/21 Q1012 NOSIG,0,2,0,10000,0,0,0,
2026-04-24 03:30:00,METAR VVCI 240330Z VRB02KT 9999 FEW017 26/21 Q1012 NOSIG,0,2,0,10000,0,0,0,
2026-04-24 03:00:00,METAR VVCI 240300Z VRB02KT 9999 FEW017 BKN049 25/21 Q1012 NOSIG,0,2,0,10000,0,0,0,
2026-04-24 02:30:00,METAR VVCI 240230Z VRB01KT CAVOK 25/22 Q1012 NOSIG,1,0,0,9999,0,0,0,
2026-04-24 02:00:00,METAR VVCI 240200Z 30003KT CAVOK 24/21 Q1011 NOSIG,1,0,0,9999,0,0,0,
2026-04-24 01:30:00,METAR VVCI 240130Z 17004KT 110V240 9999 BKN047 24/21 Q1011 NOSIG,0,4,0,10000,0,0,0,
2026-04-24 01:00:00,METAR VVCI 240100Z 24004KT 9999 BKN048 24/21 Q1011 NOSIG,0,4,0,10000,0,0,0,
2026-04-24 00:30:00,METAR VVCI 240030Z VRB01KT 9999 BKN048 23/21 Q1011 NOSIG,0,1,0,10000,0,0,0,
2026-04-24 00:00:00,METAR VVCI 240000Z 31004KT 9999 OVC047 23/21 Q1011 NOSIG,0,4,0,10000,0,0,0,
2026-04-23 23:30:00,METAR VVCI 232330Z VRB02KT 9999 OVC049 23/21 Q1010 NOSIG,0,2,0,10000,0,0,0,
2026-04-23 23:00:00,METAR VVCI 232300Z VRB02KT 9999 OVC049 23/21 Q1010 NOSIG,0,2,0,10000,0,0,0,
2026-04-23 22:30:00,METAR VVCI 232230Z 04003KT 9999 BKN043 23/20 Q1010 NOSIG,0,3,0,10000,0,0,0,
2026-04-23 22:00:00,METAR VVCI 232200Z 04004KT 010V070 9999 BKN043 23/20 Q1010 NOSIG,0,4,0,10000,0,0,0,
2026-04-23 21:30:00,METAR VVCI 232130Z 03005KT 360V060 9999 OVC044 23/20 Q1010 NOSIG,0,5,0,10000,0,0,0,
2026-04-23 21:00:00,METAR VVCI 232100Z 07005KT 9999 OVC043 23/20 Q1009 NOSIG,0,5,0,10000,0,0,0,
2026-04-23 20:30:00,METAR VVCI 232030Z 05005KT 9999 OVC041 23/21 Q1009 NOSIG,0,5,0,10000,0,0,0,
2026-04-23 19:30:00,METAR VVCI 231930Z 05004KT 9999 OVC040 23/21 Q1009 NOSIG,0,4,0,10000,0,0,0,
2026-04-23 19:00:00,METAR VVCI 231900Z 03003KT 350V060 9999 OVC041 23/21 Q1009 NOSIG,0,3,0,10000,0,0,0,
2026-04-23 18:30:00,METAR VVCI 231830Z 03002KT 9999 OVC039 23/21 Q1009 NOSIG,0,2,0,10000,0,0,0,
2026-04-23 18:00:00,METAR VVCI 231800Z 05003KT 9999 OVC039 23/22 Q1009 NOSIG,0,3,0,10000,0,0,0,
2026-04-23 17:30:00,METAR VVCI 231730Z VRB02KT 9999 OVC038 23/21 Q1010 NOSIG,0,2,0,10000,0,0,0,
2026-04-23 17:00:00,METAR VVCI 231700Z 07001KT 9999 FEW027 BKN031 OVC039 23/22 Q1010 NOSIG,0,1,0,10000,0,0,0,
2026-04-23 16:30:00,METAR VVCI 231630Z 02002KT 7000 BKN028 OVC040 23/22 Q1010 NOSIG,0,2,0,7000,0,0,0,
2026-04-23 16:00:00,METAR VVCI 231600Z VRB02KT 8000 FEW014 SCT028 OVC037 23/22 Q1010 NOSIG,0,2,0,8000,0,0,0,
2026-04-23 15:30:00,METAR VVCI 231530Z VRB02KT 6000 FEW014 BKN020 OVC028 23/22 Q1011 NOSIG,0,2,0,6000,0,0,0,
2026-04-23 15:00:00,METAR VVCI 231500Z 22002KT 6000 SCT015 SCT020 OVC028 23/21 Q1011 NOSIG,0,2,0,6000,0,0,0,
2026-04-23 14:30:00,METAR VVCI 231430Z 20004KT 150V220 9999 SCT015 OVC019 23/21 Q1011 NOSIG,0,4,0,10000,0,0,0,
2026-04-23 14:00:00,METAR VVCI 231400Z 15004KT 090V190 9999 OVC015 23/21 Q1010 NOSIG,0,4,0,10000,0,0,0,
2026-04-23 13:30:00,METAR VVCI 231330Z VRB02KT 9999 OVC014 23/21 Q1009 NOSIG,0,2,0,10000,0,0,0,
2026-04-23 13:00:00,METAR VVCI 231300Z 00000KT 9999 FEW015 SCT020 OVC026 23/21 Q1008 NOSIG,0,0,0,10000,0,0,0,
2026-04-23 12:30:00,METAR VVCI 231230Z 00000KT 9999 FEW020 OVC027 23/21 Q1008 NOSIG,0,0,0,10000,0,0,0,
2026-04-23 12:00:00,METAR VVCI 231200Z 00000KT 9999 FEW014 OVC026 23/21 Q1008 NOSIG,0,0,0,10000,0,0,0,
2026-04-23 11:30:00,METAR VVCI 231130Z 13003KT 9999 BKN022 23/21 Q1007 NOSIG,0,3,0,10000,0,0,0,
2026-04-23 11:00:00,METAR VVCI 231100Z VRB02KT 9999 OVC023 23/21 Q1007 NOSIG,0,2,0,10000,0,0,0,
2026-04-23 10:30:00,METAR VVCI 231030Z 23002KT 9999 BKN024 23/21 Q1007 NOSIG,0,2,0,10000,0,0,0,
2026-04-23 10:00:00,METAR VVCI 231000Z 23004KT 140V250 9999 BKN024 23/21 Q1007 NOSIG,0,4,0,10000,0,0,0,
2026-04-23 09:30:00,METAR VVCI 230930Z 24005KT 9000 SCT025 23/21 Q1007 NOSIG,0,5,0,9000,0,0,0,
2026-04-23 09:00:00,METAR VVCI 230900Z 27004KT 250V310 9999 FEW026 23/21 Q1007 NOSIG,0,4,0,10000,0,0,0,
2026-04-23 08:30:00,METAR VVCI 230830Z 24005KT CAVOK 23/20 Q1006 NOSIG,1,0,0,9999,0,0,0,
2026-04-23 08:00:00,METAR VVCI 230800Z 32005KT 290V350 CAVOK 23/21 Q1007 NOSIG,1,0,0,9999,0,0,0,
2026-04-23 07:30:00,METAR VVCI 230730Z 35003KT CAVOK 23/21 Q1007 NOSIG,1,0,0,9999,0,0,0,
2026-04-23 07:00:00,METAR VVCI 230700Z VRB02KT 9999 FEW042 22/21 Q1007 NOSIG,0,2,0,10000,0,0,0,
2026-04-23 06:30:00,METAR VVCI 230630Z 05003KT 360V080 CAVOK 22/21 Q1007 NOSIG,1,0,0,9999,0,0,0,
2026-04-23 06:00:00,METAR VVCI 230600Z 03003KT 340V070 9999 FEW027 21/20 Q1008 NOSIG,0,3,0,10000,0,0,0,
2026-04-23 05:30:00,METAR VVCI 230530Z 03006KT 360V060 9999 -RA FEW041 21/20 Q1008 NOSIG,0,6,0,10000,0,0,0,-RA
2026-04-23 05:00:00,METAR VVCI 230500Z 04008KT 010V070 9999 -RA NSC 21/20 Q1008 NOSIG,0,8,0,10000,0,0,0,-RA
2026-04-23 04:30:00,METAR VVCI 230430Z 07006KT 9999 -RA NSC 21/20 Q1009 NOSIG,0,6,0,10000,0,0,0,-RA
2026-04-23 04:00:00,METAR VVCI 230400Z 09006KT 060V120 9999 -RA VCTS FEW008 FEW027CB BKN048 21/20 Q1009 NOSIG,0,6,0,10000,1,0,0,"-RA,TS,VC"
2026-04-23 03:30:00,METAR VVCI 230330Z 01009KT 4000 RA FEW006 FEW027CB BKN035 21/20 Q1010 BECMG FM0346 6000 -RA,0,9,0,4000,0,0,0,"-RA,RA"
2026-04-23 03:00:00,METAR VVCI 230300Z 04008KT 010V080 9999 -RA FEW006 BKN038 21/20 Q1009 NOSIG,0,8,0,10000,0,0,0,-RA
2026-04-23 02:30:00,METAR VVCI 230230Z 04006KT 350V080 2500 +RA VCTS FEW004 SCT008 BKN024 FEW027CB 21/21 Q1009 BECMG TL0245 3500 TSRA,0,6,0,2500,1,1,0,"+RA,RA,TS,VC"
2026-04-23 02:00:00,METAR VVCI 230200Z 03012KT 1000 R07/1200D +TSRA SCT004 SCT012 BKN018 FEW027CB 22/21 Q1009 BECMG TL0230 2500 +TSRA,0,12,0,1000,1,0,0,RA
2026-04-23 01:30:00,METAR VVCI 230130Z 01005KT 340V050 1900 +TSRA FEW005 SCT009 OVC016 FEW027CB 22/22 Q1008 BECMG TL0140 3500 TSRA,0,5,0,1900,1,0,0,"RA,TS"
2026-04-23 01:00:00,METAR VVCI 230100Z 35015KT 0900 R07/0750D +TSRA FEW007 SCT011 OVC016 FEW027CB 22/21 Q1007 BECMG TL0115 2000 +TSRA,0,15,0,1448100,1,0,0,RA
2026-04-23 00:30:00,METAR VVCI 230030Z 01011KT 1000 R07/1300D +RA BKN005 OVC015 FEW027CB 22/21 Q1008 BECMG TL0100 2500 +RA,0,11,0,1000,0,1,0,+RA
2026-04-23 00:00:00,METAR VVCI 230000Z 01012KT 6000 -RA VCTS FEW006 BKN013 FEW027CB 25/22 Q1008 NOSIG,0,12,0,6000,1,0,0,"-RA,TS,VC"
2026-04-22 23:30:00,METAR VVCI 222330Z 23004KT 160V280 9999 TS FEW014 FEW027CB OVC033 27/24 Q1006 NOSIG,0,4,0,10000,1,0,0,TS
2026-04-22 23:00:00,METAR VVCI 222300Z 20005KT 150V270 9999 TS FEW014 FEW027CB OVC033 27/24 Q1006 NOSIG,0,5,0,10000,1,0,0,TS
2026-04-22 22:30:00,METAR VVCI 222230Z 13006KT 9999 FEW018 BKN026 BKN033 27/24 Q1006 NOSIG,0,6,0,10000,0,0,0,
2026-04-22 22:00:00,METAR VVCI 222200Z 13006KT 9999 FEW018 BKN026 BKN033 27/24 Q1006 NOSIG,0,6,0,10000,0,0,0,
2026-04-22 21:30:00,METAR VVCI 222130Z VRB02KT 9999 SCT016 BKN028 BKN033 27/24 Q1005 NOSIG,0,2,0,10000,0,0,0,
2026-04-22 21:00:00,METAR VVCI 222100Z VRB02KT 9999 SCT016 BKN028 BKN033 27/24 Q1005 NOSIG,0,2,0,10000,0,0,0,
2026-04-22 20:30:00,METAR VVCI 222030Z 13003KT 9999 FEW010 SCT016 BKN028 27/25 Q1005 NOSIG,0,3,0,10000,0,0,0,
2026-04-22 20:00:00,METAR VVCI 222000Z 13003KT 9999 FEW010 SCT016 BKN028 27/25 Q1005 NOSIG,0,3,0,10000,0,0,0,
2026-04-22 19:30:00,METAR VVCI 221930Z 10004KT 9999 FEW011 OVC026 27/25 Q1005 NOSIG,0,4,0,10000,0,0,0,
2026-04-22 19:00:00,METAR VVCI 221900Z 10004KT 9999 FEW011 OVC026 27/25 Q1005 NOSIG,0,4,0,10000,0,0,0,
2026-04-22 18:30:00,METAR VVCI 221830Z 10005KT 9999 FEW015 SCT017 OVC025 27/24 Q1005 NOSIG,0,5,0,10000,0,0,0,
2026-04-22 18:00:00,METAR VVCI 221800Z 10005KT 9999 FEW015 SCT017 OVC025 27/24 Q1005 NOSIG,0,5,0,10000,0,0,0,
2026-04-22 17:30:00,METAR VVCI 221730Z 09004KT 9999 FEW016 BKN023 OVC026 27/24 Q1006 NOSIG,0,4,0,10000,0,0,0,
2026-04-22 17:00:00,METAR VVCI 221700Z 09004KT 9999 BKN019 OVC024 27/24 Q1007 NOSIG,0,4,0,10000,0,0,0,
2026-04-22 16:30:00,METAR VVCI 221630Z 09004KT 9999 FEW018 BKN021 27/24 Q1007 NOSIG,0,4,0,10000,0,0,0,
2026-04-22 16:00:00,METAR VVCI 221600Z 09005KT 9999 FEW016 OVC019 27/25 Q1007 NOSIG,0,5,0,10000,0,0,0,
2026-04-22 15:30:00,METAR VVCI 221530Z 09003KT 9999 FEW016 BKN018 27/25 Q1007 NOSIG,0,3,0,10000,0,0,0,
2026-04-22 15:00:00,METAR VVCI 221500Z 10006KT 9999 BKN014 BKN016 27/25 Q1006 NOSIG,0,6,0,10000,0,0,0,
2026-04-22 14:30:00,METAR VVCI 221430Z 09006KT 9999 BKN014 27/25 Q1006 NOSIG,0,6,0,10000,0,0,0,
2026-04-22 14:00:00,METAR VVCI 221400Z 13007KT 9999 SCT013 BKN015 BKN019 27/25 Q1005 NOSIG,0,7,0,10000,0,0,0,
2026-04-22 13:30:00,METAR VVCI 221330Z 12007KT 9999 FEW013 BKN016 27/25 Q1005 NOSIG,0,7,0,10000,0,0,0,
2026-04-22 13:00:00,METAR VVCI 221300Z 12006KT 9999 FEW013 BKN016 27/25 Q1005 NOSIG,0,6,0,10000,0,0,0,
2026-04-22 12:30:00,METAR VVCI 221230Z 12006KT 9999 FEW013 BKN015 OVC018 28/25 Q1004 NOSIG,0,6,0,10000,0,0,0,
2026-04-22 12:00:00,METAR VVCI 221200Z 12006KT 9999 FEW013 OVC015 27/25 Q1004 NOSIG,0,6,0,10000,0,0,0,
2026-04-22 11:30:00,METAR VVCI 221130Z 12007KT 9999 FEW012 BKN014 28/25 Q1003 NOSIG,0,7,0,10000,0,0,0,
2026-04-22 11:00:00,METAR VVCI 221100Z 12008KT 9999 FEW012 BKN016 28/25 Q1003 NOSIG,0,8,0,10000,0,0,0,
2026-04-22 10:30:00,METAR VVCI 221030Z 13008KT 9999 FEW012 BKN021 28/25 Q1003 NOSIG,0,8,0,10000,0,0,0,
2026-04-22 10:00:00,METAR VVCI 221000Z 12008KT 9999 SCT014 BKN016 OVC020 28/25 Q1003 NOSIG,0,8,0,10000,0,0,0,
2026-04-22 09:30:00,METAR VVCI 220930Z 14008KT 110V170 9999 BKN015 OVC023 28/25 Q1003 NOSIG,0,8,0,10000,0,0,0,
2026-04-22 09:00:00,METAR VVCI 220900Z 17010KT 9999 FEW015 OVC021 29/25 Q1003 NOSIG,0,10,0,10000,0,0,0,
2026-04-22 08:30:00,METAR VVCI 220830Z 15011KT 9999 FEW013 OVC027 29/25 Q1003 NOSIG,0,11,0,10000,0,0,0,
2026-04-22 08:00:00,METAR VVCI 220800Z 16010KT 130V190 9999 BKN015 BKN017 OVC025 29/25 Q1003 NOSIG,0,10,0,10000,0,0,0,
2026-04-22 07:30:00,METAR VVCI 220730Z 17009KT 140V200 9999 FEW013 BKN015 OVC023 29/25 Q1004 NOSIG,0,9,0,10000,0,0,0,
2026-04-22 07:00:00,METAR VVCI 220700Z 16011KT 9999 SCT015 BKN017 BKN031 29/25 Q1004 NOSIG,0,11,0,10000,0,0,0,
2026-04-22 06:30:00,METAR VVCI 220630Z 17009KT 130V190 9999 BKN015 BKN024 OVC034 30/25 Q1005 NOSIG,0,9,0,10000,0,0,0,
2026-04-22 06:00:00,METAR VVCI 220600Z 16009KT 130V190 9999 BKN014 OVC021 29/25 Q1005 NOSIG,0,9,0,10000,0,0,0,
2026-04-22 05:30:00,METAR VVCI 220530Z 17011KT 9999 BKN014 OVC020 29/25 Q1006 NOSIG,0,11,0,10000,0,0,0,
2026-04-22 05:00:00,METAR VVCI 220500Z 17011KT 9999 OVC015 29/25 Q1006 NOSIG,0,11,0,10000,0,0,0,
2026-04-22 04:30:00,METAR VVCI 220430Z 17009KT 9999 SCT014 BKN017 OVC021 28/25 Q1007 NOSIG,0,9,0,10000,0,0,0,
2026-04-22 04:00:00,METAR VVCI 220400Z 17008KT 140V200 9999 FEW013 SCT016 OVC019 28/25 Q1007 NOSIG,0,8,0,10000,0,0,0,
2026-04-22 03:30:00,METAR VVCI 220330Z 17008KT 140V200 9999 FEW013 OVC016 28/25 Q1007 NOSIG,0,8,0,10000,0,0,0,
2026-04-22 03:00:00,METAR VVCI 220300Z 18007KT 130V210 9999 BKN014 OVC019 28/25 Q1007 NOSIG,0,7,0,10000,0,0,0,
2026-04-22 02:30:00,METAR VVCI 220230Z 18006KT 140V210 9999 SCT014 BKN017 OVC021 28/25 Q1008 NOSIG,0,6,0,10000,0,0,0,
2026-04-22 02:00:00,METAR VVCI 220200Z 18010KT 160V220 9999 OVC014 28/24 Q1007 NOSIG,0,10,0,10000,0,0,0,
2026-04-22 01:30:00,METAR VVCI 220130Z 18007KT 150V210 9999 SCT014 BKN016 OVC021 28/24 Q1007 NOSIG,0,7,0,10000,0,0,0,
2026-04-22 01:00:00,METAR VVCI 220100Z 16007KT 9999 FEW014 BKN017 OVC023 28/24 Q1007 NOSIG,0,7,0,10000,0,0,0,
2026-04-22 00:30:00,METAR VVCI 220030Z 15007KT 130V190 9999 FEW015 OVC022 27/24 Q1006 NOSIG,0,7,0,10000,0,0,0,
2026-04-22 00:00:00,METAR VVCI 220000Z 15006KT 9999 BKN015 OVC020 27/24 Q1006 NOSIG,0,6,0,10000,0,0,0,
2026-04-21 23:30:00,METAR VVCI 212330Z 13004KT 9999 OVC017 27/24 Q1006 NOSIG,0,4,0,10000,0,0,0,
2026-04-21 23:00:00,METAR VVCI 212300Z 13004KT 9999 BKN018 OVC022 27/24 Q1006 NOSIG,0,4,0,10000,0,0,0,
2026-04-21 22:30:00,METAR VVCI 212230Z 11003KT 9999 SCT016 BKN019 BKN024 27/24 Q1005 NOSIG,0,3,0,10000,0,0,0,
2026-04-21 22:00:00,METAR VVCI 212200Z 12004KT 9999 BKN017 27/24 Q1005 NOSIG,0,4,0,10000,0,0,0,
2026-04-21 21:30:00,METAR VVCI 212130Z 13004KT 9999 BKN016 BKN023 26/24 Q1005 NOSIG,0,4,0,10000,0,0,0,
2026-04-21 21:00:00,METAR VVCI 212100Z 13004KT 9999 BKN016 OVC023 26/24 Q1005 NOSIG,0,4,0,10000,0,0,0,
2026-04-21 20:30:00,METAR VVCI 212030Z 13005KT 9999 BKN017 26/24 Q1004 NOSIG,0,5,0,10000,0,0,0,
2026-04-21 20:00:00,METAR VVCI 212000Z 13005KT 9999 BKN017 26/24 Q1004 NOSIG,0,5,0,10000,0,0,0,
2026-04-21 19:30:00,METAR VVCI 211930Z 13004KT 9999 OVC017 26/24 Q1005 NOSIG,0,4,0,10000,0,0,0,
2026-04-21 19:00:00,METAR VVCI 211900Z 13003KT 100V180 9999 BKN017 26/24 Q1005 NOSIG,0,3,0,10000,0,0,0,
2026-04-21 18:30:00,METAR VVCI 211830Z 13003KT 9999 SCT016 BKN019 26/24 Q1005 NOSIG,0,3,0,10000,0,0,0,
2026-04-21 18:00:00,METAR VVCI 211800Z 15004KT 110V180 9999 BKN016 26/24 Q1006 NOSIG,0,4,0,10000,0,0,0,
2026-04-21 17:30:00,METAR VVCI 211730Z 18005KT 9999 BKN016 26/24 Q1006 NOSIG,0,5,0,10000,0,0,0,
2026-04-21 17:00:00,METAR VVCI 211700Z 18005KT 9999 BKN017 26/24 Q1006 NOSIG,0,5,0,10000,0,0,0,
2026-04-21 16:30:00,METAR VVCI 211630Z 14003KT 090V190 9999 BKN017 26/24 Q1007 NOSIG,0,3,0,10000,0,0,0,
2026-04-21 16:00:00,METAR VVCI 211600Z 18003KT 130V200 9999 BKN017 BKN024 27/24 Q1007 NOSIG,0,3,0,10000,0,0,0,
2026-04-21 15:30:00,METAR VVCI 211530Z 20003KT 160V230 9999 BKN018 27/24 Q1007 NOSIG,0,3,0,10000,0,0,0,
2026-04-21 15:00:00,METAR VVCI 211500Z 15005KT 9999 OVC018 27/24 Q1007 NOSIG,0,5,0,10000,0,0,0,
2026-04-21 14:30:00,METAR VVCI 211430Z 15004KT 9999 BKN018 27/24 Q1007 NOSIG,0,4,0,10000,0,0,0,
2026-04-21 13:30:00,METAR VVCI 211330Z 15007KT 9999 BKN017 27/24 Q1006 NOSIG,0,7,0,10000,0,0,0,
2026-04-21 13:00:00,METAR VVCI 211300Z 16007KT 9999 BKN016 27/24 Q1005 NOSIG,0,7,0,10000,0,0,0,
2026-04-21 12:30:00,METAR VVCI 211230Z 16007KT 9999 BKN015 BKN017 27/24 Q1005 NOSIG,0,7,0,10000,0,0,0,
2026-04-21 12:00:00,METAR VVCI 211200Z 15008KT 9999 BKN017 27/24 Q1005 NOSIG,0,8,0,10000,0,0,0,
2026-04-21 11:30:00,METAR VVCI 211130Z 16009KT 9999 BKN018 27/23 Q1005 NOSIG,0,9,0,10000,0,0,0,
2026-04-21 11:00:00,METAR VVCI 211100Z 15009KT 9999 BKN018 BKN023 27/23 Q1004 NOSIG,0,9,0,10000,0,0,0,
2026-04-21 10:30:00,METAR VVCI 211030Z 15011KT 9999 SCT016 BKN021 28/23 Q1004 NOSIG,0,11,0,10000,0,0,0,
2026-04-21 10:00:00,METAR VVCI 211000Z 15011KT 9999 BKN017 BKN020 OVC023 28/24 Q1004 NOSIG,0,11,0,10000,0,0,0,
2026-04-21 09:30:00,METAR VVCI 210930Z 16012KT 9999 SCT016 OVC022 28/24 Q1004 NOSIG,0,12,0,10000,0,0,0,
2026-04-21 09:00:00,METAR VVCI 210900Z 16013KT 9999 BKN016 OVC021 28/24 Q1004 NOSIG,0,13,0,10000,0,0,0,
2026-04-21 08:30:00,METAR VVCI 210830Z 16011KT 9999 BKN016 OVC022 28/24 Q1005 NOSIG,0,11,0,10000,0,0,0,
2026-04-21 08:00:00,METAR VVCI 210800Z 16012KT 9999 SCT017 BKN020 OVC024 28/24 Q1005 NOSIG,0,12,0,10000,0,0,0,
2026-04-21 07:30:00,METAR VVCI 210730Z 16012KT 9999 BKN017 OVC024 28/24 Q1005 NOSIG,0,12,0,10000,0,0,0,
2026-04-21 07:00:00,METAR VVCI 210700Z 16011KT 9999 SCT018 OVC025 28/24 Q1006 NOSIG,0,11,0,10000,0,0,0,
2026-04-21 06:30:00,METAR VVCI 210630Z 16011KT 9999 SCT018 OVC025 28/24 Q1006 NOSIG,0,11,0,10000,0,0,0,
2026-04-21 06:00:00,METAR VVCI 210600Z 16014KT 9999 BKN019 BKN024 29/23 Q1007 NOSIG,0,14,0,10000,0,0,0,
2026-04-21 05:30:00,METAR VVCI 210530Z 16013KT 9999 BKN019 BKN024 28/24 Q1007 NOSIG,0,13,0,10000,0,0,0,
2026-04-21 05:00:00,METAR VVCI 210500Z 16014KT 9999 BKN019 BKN026 29/23 Q1008 NOSIG,0,14,0,10000,0,0,0,
2026-04-21 04:30:00,METAR VVCI 210430Z 17012KT 9999 BKN019 OVC026 28/23 Q1008 NOSIG,0,12,0,10000,0,0,0,
2026-04-21 04:00:00,METAR VVCI 210400Z 16013KT 9999 BKN020 OVC027 28/23 Q1008 NOSIG,0,13,0,10000,0,0,0,
2026-04-21 03:30:00,METAR VVCI 210330Z 17015KT 9999 FEW018 BKN022 BKN025 29/23 Q1009 NOSIG,0,15,0,10000,0,0,0,
2026-04-21 03:00:00,METAR VVCI 210300Z 17013KT 9999 FEW015 BKN018 BKN025 28/23 Q1008 NOSIG,0,13,0,10000,0,0,0,
2026-04-21 02:30:00,METAR VVCI 210230Z 16012KT 9999 BKN016 28/24 Q1009 NOSIG,0,12,0,10000,0,0,0,
2026-04-21 02:00:00,METAR VVCI 210200Z 16011KT 9999 BKN016 28/24 Q1009 NOSIG,0,11,0,10000,0,0,0,
2026-04-21 01:30:00,METAR VVCI 210130Z 16010KT 9999 BKN014 BKN043 27/24 Q1009 NOSIG,0,10,0,10000,0,0,0,
2026-04-21 01:00:00,METAR VVCI 210100Z 15007KT 130V190 9999 27/24 Q1009 NOSIG,0,7,0,10000,0,0,0,
2026-04-21 00:30:00,METAR VVCI 210030Z 16007KT 9999 SCT016 SCT028 OVC043 27/24 Q1008 NOSIG,0,7,0,10000,0,0,0,
2026-04-21 00:00:00,METAR VVCI 210000Z 16007KT 9999 FEW014 BKN043 27/24 Q1008 NOSIG,0,7,0,10000,0,0,0,
2026-04-20 23:30:00,METAR VVCI 202330Z 16007KT 9999 FEW014 BKN018 BKN044 27/24 Q1008 NOSIG,0,7,0,10000,0,0,0,
2026-04-20 23:00:00,METAR VVCI 202300Z 15006KT 9999 FEW014 BKN016 OVC044 27/24 Q1008 NOSIG,0,6,0,10000,0,0,0,
2026-04-20 22:30:00,METAR VVCI 202230Z 16007KT 9999 SCT014 BKN045 26/24 Q1007 NOSIG,0,7,0,10000,0,0,0,
2026-04-20 22:00:00,METAR VVCI 202200Z 15006KT 9999 SCT014 BKN045 26/24 Q1007 NOSIG,0,6,0,10000,0,0,0,
2026-04-20 21:30:00,METAR VVCI 202130Z 14007KT 9999 SCT014 BKN017 26/24 Q1007 NOSIG,0,7,0,10000,0,0,0,
2026-04-20 21:00:00,METAR VVCI 202100Z 14005KT 9999 FEW014 SCT018 BKN030 26/24 Q1007 NOSIG,0,5,0,10000,0,0,0,
2026-04-20 20:30:00,METAR VVCI 202030Z 14005KT 9999 SCT016 BKN028 26/24 Q1007 NOSIG,0,5,0,10000,0,0,0,
2026-04-20 20:00:00,METAR VVCI 202000Z 14005KT 9999 FEW015 BKN025 26/24 Q1007 NOSIG,0,5,0,10000,0,0,0,
2026-04-20 19:30:00,METAR VVCI 201930Z 15005KT 9999 FEW016 BKN029 26/24 Q1007 NOSIG,0,5,0,10000,0,0,0,
2026-04-20 19:00:00,METAR VVCI 201900Z 15005KT 9999 FEW014 SCT018 BKN028 26/24 Q1007 NOSIG,0,5,0,10000,0,0,0,
2026-04-20 18:30:00,METAR VVCI 201830Z 17006KT 140V200 9999 SCT014 BKN026 26/24 Q1008 NOSIG,0,6,0,10000,0,0,0,
2026-04-20 18:00:00,METAR VVCI 201800Z 17004KT 130V200 9999 SCT017 BKN026 26/24 Q1008 NOSIG,0,4,0,10000,0,0,0,
2026-04-20 17:30:00,METAR VVCI 201730Z 16005KT 9999 SCT017 SCT029 26/24 Q1008 NOSIG,0,5,0,10000,0,0,0,
2026-04-20 17:00:00,METAR VVCI 201700Z 16004KT 9999 SCT019 BKN029 26/24 Q1009 NOSIG,0,4,0,10000,0,0,0,
2026-04-20 16:30:00,METAR VVCI 201630Z 17006KT 9999 FEW021 SCT027 26/24 Q1009 NOSIG,0,6,0,10000,0,0,0,
2026-04-20 16:00:00,METAR VVCI 201600Z 18008KT 9999 FEW044 26/24 Q1009 NOSIG,0,8,0,10000,0,0,0,
2026-04-20 15:30:00,METAR VVCI 201530Z 17008KT 9999 FEW017 BKN042 27/24 Q1009 NOSIG,0,8,0,10000,0,0,0,
2026-04-20 15:00:00,METAR VVCI 201500Z 18008KT 9999 FEW015 OVC039 27/24 Q1010 NOSIG,0,8,0,10000,0,0,0,
2026-04-20 14:30:00,METAR VVCI 201430Z 17009KT 9999 FEW014 SCT034 BKN039 27/24 Q1009 NOSIG,0,9,0,10000,0,0,0,
2026-04-20 14:00:00,METAR VVCI 201400Z 16009KT 9999 SCT015 BKN034 BKN040 27/24 Q1009 NOSIG,0,9,0,10000,0,0,0,
2026-04-20 13:30:00,METAR VVCI 201330Z 17010KT 9999 FEW015 BKN030 BKN043 27/24 Q1008 NOSIG,0,10,0,10000,0,0,0,
2026-04-20 13:00:00,METAR VVCI 201300Z 16009KT 9999 FEW014 BKN041 27/24 Q1008 NOSIG,0,9,0,10000,0,0,0,
2026-04-20 12:30:00,METAR VVCI 201230Z 16010KT 9999 BKN015 BKN032 27/24 Q1007 NOSIG,0,10,0,10000,0,0,0,
2026-04-20 12:00:00,METAR VVCI 201200Z 16009KT 9999 BKN015 BKN039 27/24 Q1007 NOSIG,0,9,0,10000,0,0,0,
2026-04-20 11:30:00,METAR VVCI 201130Z 15011KT 9999 FEW014 SCT021 BKN038 27/24 Q1007 NOSIG,0,11,0,10000,0,0,0,
2026-04-20 11:00:00,METAR VVCI 201100Z 16010KT 9999 SCT014 BKN023 27/24 Q1006 NOSIG,0,10,0,10000,0,0,0,
2026-04-20 10:30:00,METAR VVCI 201030Z 16010KT 9999 SCT015 BKN027 OVC038 27/24 Q1006 NOSIG,0,10,0,10000,0,0,0,
2026-04-20 10:00:00,METAR VVCI 201000Z COR 17012KT 9999 BKN015 BKN018 27/24 Q1006 NOSIG,0,12,0,10000,0,0,0,
2026-04-20 09:30:00,METAR VVCI 200930Z 16012KT 130V190 9999 BKN015 BKN024 28/24 Q1006 NOSIG,0,12,0,10000,0,0,0,
2026-04-20 09:00:00,METAR VVCI 200900Z 16011KT 9999 BKN015 BKN027 28/24 Q1006 NOSIG,0,11,0,10000,0,0,0,
2026-04-20 08:30:00,METAR VVCI 200830Z 17012KT 9999 BKN016 BKN023 27/24 Q1007 NOSIG,0,12,0,10000,0,0,0,
2026-04-20 08:00:00,METAR VVCI 200800Z 17010KT 9999 BKN014 BKN021 27/24 Q1007 NOSIG,0,10,0,10000,0,0,0,
2026-04-20 07:30:00,METAR VVCI 200730Z 16011KT 130V190 9999 BKN016 27/24 Q1007 NOSIG,0,11,0,10000,0,0,0,
2026-04-20 07:00:00,METAR VVCI 200700Z 16009KT 9999 -RA BKN015 FEW024TCU 27/24 Q1008 NOSIG,0,9,0,10000,0,0,0,-RA
2026-04-20 06:30:00,METAR VVCI 200630Z 18011KT 9999 BKN016 FEW024TCU 27/24 Q1008 NOSIG,0,11,0,10000,0,0,0,
2026-04-20 06:00:00,METAR VVCI 200600Z 16010KT 9999 FEW016 BKN020 OVC029 28/24 Q1009 NOSIG,0,10,0,10000,0,0,0,
2026-04-20 05:30:00,METAR VVCI 200530Z 17009KT 9999 BKN016 FEW025TCU 27/24 Q1009 NOSIG,0,9,0,10000,0,0,0,
2026-04-20 05:00:00,METAR VVCI 200500Z 16010KT 9999 BKN016 BKN029 27/24 Q1010 NOSIG,0,10,0,10000,0,0,0,
2026-04-20 04:30:00,METAR VVCI 200430Z 16011KT 9999 FEW015 BKN018 27/23 Q1010 NOSIG,0,11,0,10000,0,0,0,
2026-04-20 04:00:00,METAR VVCI 200400Z 15009KT 9999 BKN014 BKN019 28/24 Q1010 NOSIG,0,9,0,10000,0,0,0,
2026-04-20 03:30:00,METAR VVCI 200330Z 16009KT 9999 FEW011 BKN014 OVC031 27/24 Q1010 NOSIG,0,9,0,10000,0,0,0,
2026-04-20 03:00:00,METAR VVCI 200300Z 16008KT 130V190 9999 FEW011 BKN013 27/24 Q1010 NOSIG,0,8,0,10000,0,0,0,
2026-04-20 02:30:00,METAR VVCI 200230Z 16010KT 130V190 9999 FEW013 SCT021 BKN027 27/23 Q1010 NOSIG,0,10,0,10000,0,0,0,
2026-04-20 02:00:00,METAR VVCI 200200Z 14008KT 9999 FEW011 SCT016 26/24 Q1010 NOSIG,0,8,0,10000,0,0,0,
2026-04-20 01:30:00,METAR VVCI 200130Z 13005KT 9999 FEW014 SCT024 26/24 Q1010 NOSIG,0,5,0,10000,0,0,0,
2026-04-20 01:00:00,METAR VVCI 200100Z VRB01KT 8000 -RA SCT009 BKN028 26/24 Q1010 NOSIG,0,1,0,8000,0,0,0,-RA
2026-04-20 00:30:00,METAR VVCI 200030Z VRB01KT 6000 RA FEW008 SCT012 OVC015 25/24 Q1010 NOSIG,0,1,0,6000,0,0,0,RA
2026-04-20 00:00:00,METAR VVCI 200000Z VRB02KT 9999 FEW014 OVC042 25/23 Q1010 NOSIG,0,2,0,10000,0,0,0,
2026-04-19 23:30:00,METAR VVCI 192330Z VRB01KT 9999 FEW016 OVC046 25/23 Q1009 NOSIG,0,1,0,10000,0,0,0,
2026-04-19 23:00:00,METAR VVCI 192300Z VRB02KT 9999 SCT017 BKN043 25/23 Q1009 NOSIG,0,2,0,10000,0,0,0,
2026-04-19 22:30:00,METAR VVCI 192230Z 04002KT 9999 BKN016 BKN023 25/23 Q1009 NOSIG,0,2,0,10000,0,0,0,
2026-04-19 22:00:00,METAR VVCI 192200Z VRB02KT 9999 SCT016 BKN041 24/23 Q1008 NOSIG,0,2,0,10000,0,0,0,
2026-04-19 21:30:00,METAR VVCI 192130Z 08004KT 9999 BKN014 BKN040 25/23 Q1008 NOSIG,0,4,0,10000,0,0,0,
2026-04-19 21:00:00,METAR VVCI 192100Z 04003KT 9999 BKN013 BKN040 24/22 Q1008 NOSIG,0,3,0,10000,0,0,0,
2026-04-19 20:30:00,METAR VVCI 192030Z 07004KT 9999 OVC014 24/22 Q1008 NOSIG,0,4,0,10000,0,0,0,
2026-04-19 20:00:00,METAR VVCI 192000Z 07003KT 9999 BKN016 24/22 Q1008 NOSIG,0,3,0,10000,0,0,0,
2026-04-19 19:30:00,METAR VVCI 191930Z 08002KT 9999 SCT019 BKN041 24/22 Q1008 NOSIG,0,2,0,10000,0,0,0,
2026-04-19 19:00:00,METAR VVCI 191900Z 06003KT 9999 SCT021 BKN038 24/22 Q1009 NOSIG,0,3,0,10000,0,0,0,
2026-04-19 18:30:00,METAR VVCI 191830Z 07003KT 9999 SCT022 BKN036 24/22 Q1009 NOSIG,0,3,0,10000,0,0,0,
2026-04-19 18:00:00,METAR VVCI 191800Z 06004KT CAVOK 24/22 Q1010 NOSIG,1,0,0,9999,0,0,0,
2026-04-19 17:30:00,METAR VVCI 191730Z 11003KT 9999 FEW014 24/22 Q1010 NOSIG,0,3,0,10000,0,0,0,
2026-04-19 17:00:00,METAR VVCI 191700Z 11004KT 9999 SCT015 24/22 Q1010 NOSIG,0,4,0,10000,0,0,0,
2026-04-19 16:30:00,METAR VVCI 191630Z 11003KT 9999 FEW017 SCT021 25/22 Q1011 NOSIG,0,3,0,10000,0,0,0,
2026-04-19 16:00:00,METAR VVCI 191600Z 15003KT 9999 BKN019 BKN022 25/22 Q1011 NOSIG,0,3,0,10000,0,0,0,
2026-04-19 15:30:00,METAR VVCI 191530Z 13004KT 9999 BKN020 24/22 Q1011 NOSIG,0,4,0,10000,0,0,0,
2026-04-19 15:00:00,METAR VVCI 191500Z 14004KT 9999 SCT021 25/22 Q1011 NOSIG,0,4,0,10000,0,0,0,
2026-04-19 14:30:00,METAR VVCI 191430Z 14003KT CAVOK 25/22 Q1011 NOSIG,1,0,0,9999,0,0,0,
2026-04-19 14:00:00,METAR VVCI 191400Z 12003KT CAVOK 25/22 Q1010 NOSIG,1,0,0,9999,0,0,0,
2026-04-19 13:30:00,METAR VVCI 191330Z 10003KT CAVOK 24/21 Q1009 NOSIG,1,0,0,9999,0,0,0,
2026-04-19 13:00:00,METAR VVCI 191300Z 15004KT 110V190 CAVOK 25/21 Q1009 NOSIG,1,0,0,9999,0,0,0,
2026-04-19 12:30:00,METAR VVCI 191230Z 18006KT CAVOK 25/22 Q1009 NOSIG,1,0,0,9999,0,0,0,
2026-04-19 12:00:00,METAR VVCI 191200Z 18007KT 140V200 9999 FEW024 25/22 Q1008 NOSIG,0,7,0,10000,0,0,0,
2026-04-19 11:30:00,METAR VVCI 191130Z 19007KT 9999 -RA SCT016 SCT025 26/22 Q1008 NOSIG,0,7,0,10000,0,0,0,-RA
2026-04-19 11:00:00,METAR VVCI 191100Z 20007KT 9999 -RA BKN016 BKN026 26/22 Q1008 NOSIG,0,7,0,10000,0,0,0,-RA
2026-04-19 10:30:00,METAR VVCI 191030Z 18008KT 9999 -RA SCT016 BKN049 26/23 Q1008 NOSIG,0,8,0,10000,0,0,0,-RA
2026-04-19 10:00:00,METAR VVCI 191000Z 15007KT CAVOK 26/22 Q1007 NOSIG,1,0,0,9999,0,0,0,
2026-04-19 09:30:00,METAR VVCI 190930Z 16008KT 140V200 9999 FEW013 SCT024 26/23 Q1008 NOSIG,0,8,0,10000,0,0,0,
2026-04-19 09:00:00,METAR VVCI 190900Z 18007KT 9999 -RA SCT013 BKN018 26/23 Q1008 NOSIG,0,7,0,10000,0,0,0,-RA
2026-04-19 08:30:00,METAR VVCI 190830Z 20008KT 9999 FEW014 26/23 Q1008 NOSIG,0,8,0,10000,0,0,0,
2026-04-19 08:00:00,METAR VVCI 190800Z 21008KT CAVOK 26/23 Q1008 NOSIG,1,0,0,9999,0,0,0,
2026-04-19 07:30:00,METAR VVCI 190730Z 21007KT 9999 FEW037 26/23 Q1008 NOSIG,0,7,0,10000,0,0,0,
2026-04-19 07:00:00,METAR VVCI 190700Z 20010KT 9999 -RA SCT011 BKN014 BKN017 26/24 Q1010 NOSIG,0,10,0,10000,0,0,0,-RA
2026-04-19 06:30:00,METAR VVCI 190630Z 20010KT 9999 -RA BKN014 BKN038 26/24 Q1009 NOSIG,0,10,0,10000,0,0,0,-RA
2026-04-19 06:00:00,METAR VVCI 190600Z 12005KT 9000 -RA FEW015 BKN034 OVC046 26/24 Q1010 NOSIG,0,5,0,9000,0,0,0,-RA
2026-04-19 05:30:00,METAR VVCI 190530Z 12003KT 7000 -RA FEW016 SCT036 BKN047 26/24 Q1011 NOSIG,0,3,0,7000,0,0,0,-RA
2026-04-19 05:00:00,METAR VVCI 190500Z VRB02KT 9000 -RA VCTS SCT022 FEW027CB BKN047 26/23 Q1011 TEMPO 3500 TSRA,0,2,0,9000,1,0,0,"-RA,RA,TS,VC"
2026-04-19 04:30:00,METAR VVCI 190430Z VRB02KT 9999 -RA VCTS SCT022 FEW027CB BKN047 26/24 Q1011 TEMPO 3500 TSRA,0,2,0,10000,1,0,0,"-RA,RA,TS,VC"
2026-04-19 04:00:00,METAR VVCI 190400Z VRB02KT 9999 FEW027TCU FEW039 26/24 Q1012 TEMPO 3500 SHRA,0,2,0,10000,0,0,0,"RA,SH"
2026-04-19 03:30:00,METAR VVCI 190330Z 13003KT 100V160 8000 -RA FEW042 26/24 Q1012 NOSIG,0,3,0,8000,0,0,0,-RA
2026-04-19 03:00:00,METAR VVCI 190300Z 12006KT 9999 SCT016 BKN021 27/23 Q1011 TEMPO 4000 TSRA BKN010 FEW027CB,0,6,0,10000,1,0,0,"RA,TS"
2026-04-19 02:30:00,METAR VVCI 190230Z 12006KT 9999 SCT016 BKN020 27/23 Q1011 TEMPO 4000 TSRA BKN010 FEW027CB,0,6,0,10000,1,0,0,"RA,TS"
2026-04-19 02:00:00,METAR VVCI 190200Z 11005KT 9999 SCT016 BKN019 BKN022 27/23 Q1011 TEMPO FM0230 24015G25KT 2500 +TSRA BKN010 FEW027CB,0,5,0,10000,1,0,0,RA
2026-04-19 01:30:00,METAR VVCI 190130Z 12005KT 9999 BKN018 BKN021 BKN025 27/23 Q1011 NOSIG,0,5,0,10000,0,0,0,
2026-04-19 01:00:00,METAR VVCI 190100Z 11006KT 9999 SCT014 BKN021 27/23 Q1010 NOSIG,0,6,0,10000,0,0,0,
2026-04-19 00:30:00,METAR VVCI 190030Z 09005KT 9999 FEW014 BKN021 26/23 Q1010 NOSIG,0,5,0,10000,0,0,0,
2026-04-19 00:00:00,METAR VVCI 190000Z 08003KT 9000 SCT020 SCT023 BKN026 26/23 Q1010 NOSIG,0,3,0,9000,0,0,0,
2026-04-18 23:30:00,METAR VVCI 182330Z 05003KT 020V080 9000 FEW020 BKN023 25/23 Q1010 NOSIG,0,3,0,9000,0,0,0,
2026-04-18 23:00:00,METAR VVCI 182300Z 05003KT 360V080 7000 FEW020 25/23 Q1010 NOSIG,0,3,0,7000,0,0,0,
2026-04-18 22:30:00,METAR VVCI 182230Z 09003KT 8000 NSC 25/23 Q1009 NOSIG,0,3,0,8000,0,0,0,
2026-04-18 22:00:00,METAR VVCI 182200Z 07004KT 9999 FEW019 25/23 Q1009 NOSIG,0,4,0,10000,0,0,0,
2026-04-18 21:30:00,METAR VVCI 182130Z 08005KT 9999 FEW016 SCT018 BKN036 25/22 Q1009 NOSIG,0,5,0,10000,0,0,0,
2026-04-18 21:00:00,METAR VVCI 182100Z 07004KT 9999 SCT014 BKN019 BKN031 25/23 Q1009 NOSIG,0,4,0,10000,0,0,0,
2026-04-18 20:30:00,METAR VVCI 182030Z 07004KT 9999 FEW014 SCT019 BKN022 25/23 Q1009 NOSIG,0,4,0,10000,0,0,0,
2026-04-18 20:00:00,METAR VVCI 182000Z 10003KT 9999 FEW014 SCT022 25/23 Q1009 NOSIG,0,3,0,10000,0,0,0,
2026-04-18 19:30:00,METAR VVCI 181930Z VRB02KT 9999 FEW016 BKN040 26/23 Q1010 NOSIG,0,2,0,10000,0,0,0,
2026-04-18 19:00:00,METAR VVCI 181900Z 12003KT 090V150 CAVOK 26/23 Q1010 NOSIG,1,0,0,9999,0,0,0,
2026-04-18 18:30:00,METAR VVCI 181830Z 13005KT CAVOK 26/23 Q1010 NOSIG,1,0,0,9999,0,0,0,
2026-04-18 18:00:00,METAR VVCI 181800Z 12006KT CAVOK 26/23 Q1010 NOSIG,1,0,0,9999,0,0,0,
2026-04-18 17:30:00,METAR VVCI 181730Z 12006KT CAVOK 26/23 Q1010 NOSIG,1,0,0,9999,0,0,0,
2026-04-18 17:00:00,METAR VVCI 181700Z 13007KT CAVOK 26/23 Q1011 NOSIG,1,0,0,9999,0,0,0,
2026-04-18 16:30:00,METAR VVCI 181630Z 12006KT CAVOK 26/23 Q1011 NOSIG,1,0,0,9999,0,0,0,
2026-04-18 16:00:00,METAR VVCI 181600Z 12004KT CAVOK 26/22 Q1012 NOSIG,1,0,0,9999,0,0,0,
2026-04-18 15:00:00,METAR VVCI 181500Z 12007KT CAVOK 26/22 Q1011 NOSIG,1,0,0,9999,0,0,0,
2026-04-18 14:30:00,METAR VVCI 181430Z 11007KT CAVOK 26/22 Q1011 NOSIG,1,0,0,9999,0,0,0,
2026-04-18 14:00:00,METAR VVCI 181400Z 12007KT 9999 FEW048 26/23 Q1011 NOSIG,0,7,0,10000,0,0,0,
2026-04-18 13:30:00,METAR VVCI 181330Z 12008KT 9999 FEW015 26/22 Q1011 NOSIG,0,8,0,10000,0,0,0,
2026-04-18 13:00:00,METAR VVCI 181300Z 12008KT 9999 FEW034 26/23 Q1010 NOSIG,0,8,0,10000,0,0,0,
2026-04-18 12:30:00,METAR VVCI 181230Z 13010KT 9999 FEW015 SCT044 26/22 Q1010 NOSIG,0,10,0,10000,0,0,0,
2026-04-18 12:00:00,METAR VVCI 181200Z 13009KT 9999 BKN042 26/22 Q1009 NOSIG,0,9,0,10000,0,0,0,
2026-04-18 11:30:00,METAR VVCI 181130Z 14010KT 9999 BKN035 BKN043 26/23 Q1009 NOSIG,0,10,0,10000,0,0,0,
2026-04-18 11:00:00,METAR VVCI 181100Z 14009KT 9999 BKN035 26/23 Q1009 NOSIG,0,9,0,10000,0,0,0,
2026-04-18 10:30:00,METAR VVCI 181030Z 13010KT 9999 FEW034 26/23 Q1008 NOSIG,0,10,0,10000,0,0,0,
2026-04-18 10:00:00,METAR VVCI 181000Z 13013KT CAVOK 27/23 Q1008 NOSIG,1,0,0,9999,0,0,0,
2026-04-18 09:30:00,METAR VVCI 180930Z 14012KT CAVOK 27/23 Q1008 NOSIG,1,0,0,9999,0,0,0,
2026-04-18 09:00:00,METAR VVCI 180900Z 13012KT CAVOK 27/23 Q1008 NOSIG,1,0,0,9999,0,0,0,
2026-04-18 08:30:00,METAR VVCI 180830Z 14011KT CAVOK 28/23 Q1008 NOSIG,1,0,0,9999,0,0,0,
2026-04-18 08:00:00,METAR VVCI 180800Z 13011KT 9999 FEW027 28/23 Q1009 NOSIG,0,11,0,10000,0,0,0,
2026-04-18 07:30:00,METAR VVCI 180730Z 15007KT 9999 SCT040 29/22 Q1009 NOSIG,0,7,0,10000,0,0,0,
2026-04-18 07:00:00,METAR VVCI 180700Z 15008KT 9999 BKN041 28/22 Q1010 NOSIG,0,8,0,10000,0,0,0,
2026-04-18 06:30:00,METAR VVCI 180630Z 14007KT 9999 BKN033 BKN040 28/22 Q1010 NOSIG,0,7,0,10000,0,0,0,
2026-04-18 06:00:00,METAR VVCI 180600Z 13007KT 9999 FEW024 BKN035 28/23 Q1011 NOSIG,0,7,0,10000,0,0,0,
2026-04-18 05:30:00,METAR VVCI 180530Z 14008KT 110V170 9999 FEW024 BKN028 29/22 Q1011 NOSIG,0,8,0,10000,0,0,0,
2026-04-18 05:00:00,METAR VVCI 180500Z 11006KT 060V170 9999 BKN023 BKN031 29/23 Q1011 NOSIG,0,6,0,10000,0,0,0,
2026-04-18 04:30:00,METAR VVCI 180430Z 13006KT 080V170 9999 SCT024 BKN027 29/22 Q1012 NOSIG,0,6,0,10000,0,0,0,
2026-04-18 04:00:00,METAR VVCI 180400Z 09007KT 050V120 9999 SCT022 29/23 Q1012 NOSIG,0,7,0,10000,0,0,0,
2026-04-18 03:30:00,METAR VVCI 180330Z 07007KT 040V110 9999 FEW029 28/22 Q1012 NOSIG,0,7,0,10000,0,0,0,
2026-04-18 03:00:00,METAR VVCI 180300Z 06007KT 030V090 9999 FEW023 27/22 Q1013 NOSIG,0,7,0,10000,0,0,0,
2026-04-18 02:30:00,METAR VVCI 180230Z 08007KT 9999 FEW026 SCT040 26/22 Q1013 NOSIG,0,7,0,10000,0,0,0,
2026-04-18 02:00:00,METAR VVCI 180200Z 06005KT 030V090 9999 FEW024 SCT033 BKN041 26/22 Q1013 NOSIG,0,5,0,10000,0,0,0,
2026-04-18 01:30:00,METAR VVCI 180130Z 04006KT 9999 -RA FEW023 OVC036 25/23 Q1013 NOSIG,0,6,0,10000,0,0,0,-RA
2026-04-18 01:00:00,METAR VVCI 180100Z 05006KT 9999 -RA FEW018 BKN022 OVC036 25/23 Q1012 NOSIG,0,6,0,10000,0,0,0,-RA
2026-04-18 00:30:00,METAR VVCI 180030Z 10004KT 9999 FEW023 BKN035 26/22 Q1012 NOSIG,0,4,0,10000,0,0,0,
2026-04-18 00:00:00,METAR VVCI 180000Z 10003KT 9999 BKN035 BKN043 26/22 Q1011 NOSIG,0,3,0,10000,0,0,0,
2026-04-17 23:30:00,METAR VVCI 172330Z VRB01KT 9999 BKN036 25/22 Q1011 NOSIG,0,1,0,10000,0,0,0,
2026-04-17 23:00:00,METAR VVCI 172300Z VRB02KT 9999 FEW040 25/22 Q1010 NOSIG,0,2,0,10000,0,0,0,
2026-04-17 22:30:00,METAR VVCI 172230Z 12003KT 9999 FEW017 OVC036 25/22 Q1010 NOSIG,0,3,0,10000,0,0,0,
2026-04-17 22:00:00,METAR VVCI 172200Z VRB02KT 9999 BKN017 25/22 Q1010 NOSIG,0,2,0,10000,0,0,0,
2026-04-17 21:30:00,METAR VVCI 172130Z 11003KT 080V140 9999 SCT017 25/22 Q1010 NOSIG,0,3,0,10000,0,0,0,
2026-04-17 21:00:00,METAR VVCI 172100Z 11003KT 080V140 9999 BKN017 25/22 Q1010 NOSIG,0,3,0,10000,0,0,0,
2026-04-17 20:30:00,METAR VVCI 172030Z 08008KT 9999 FEW036 25/21 Q1010 NOSIG,0,8,0,10000,0,0,0,
2026-04-17 20:00:00,METAR VVCI 172000Z 10005KT 9999 FEW037 BKN042 25/21 Q1010 NOSIG,0,5,0,10000,0,0,0,
2026-04-17 19:30:00,METAR VVCI 171930Z 10005KT 9999 FEW036 BKN043 25/21 Q1010 NOSIG,0,5,0,10000,0,0,0,
2026-04-17 19:00:00,METAR VVCI 171900Z 12005KT 9999 SCT033 BKN041 26/21 Q1010 NOSIG,0,5,0,10000,0,0,0,
2026-04-17 18:30:00,METAR VVCI 171830Z 10005KT 9999 BKN034 26/21 Q1010 NOSIG,0,5,0,10000,0,0,0,
2026-04-17 18:00:00,METAR VVCI 171800Z 09009KT 9999 BKN034 26/21 Q1010 NOSIG,0,9,0,10000,0,0,0,
2026-04-17 17:30:00,METAR VVCI 171730Z 10009KT 9999 BKN034 26/21 Q1011 NOSIG,0,9,0,10000,0,0,0,
2026-04-17 17:00:00,METAR VVCI 171700Z 09007KT 9999 SCT034 26/21 Q1011 NOSIG,0,7,0,10000,0,0,0,
2026-04-17 16:30:00,METAR VVCI 171630Z 10007KT 9999 SCT034 26/22 Q1012 NOSIG,0,7,0,10000,0,0,0,
2026-04-17 16:00:00,METAR VVCI 171600Z 10007KT CAVOK 26/22 Q1012 NOSIG,1,0,0,9999,0,0,0,
2026-04-17 15:30:00,METAR VVCI 171530Z 11007KT 9999 BKN036 26/22 Q1012 NOSIG,0,7,0,10000,0,0,0,
2026-04-17 15:00:00,METAR VVCI 171500Z 12008KT 9999 BKN036 26/22 Q1012 NOSIG,0,8,0,10000,0,0,0,
2026-04-17 14:30:00,METAR VVCI 171430Z 10010KT 9999 BKN039 26/22 Q1012 NOSIG,0,10,0,10000,0,0,0,
2026-04-17 14:00:00,METAR VVCI 171400Z 11008KT 9999 OVC041 26/22 Q1011 NOSIG,0,8,0,10000,0,0,0,
2026-04-17 13:30:00,METAR VVCI 171330Z 11006KT 080V140 9999 OVC040 26/22 Q1011 NOSIG,0,6,0,10000,0,0,0,
2026-04-17 13:00:00,METAR VVCI 171300Z 11009KT 9999 FEW040 26/21 Q1010 NOSIG,0,9,0,10000,0,0,0,
2026-04-17 12:30:00,METAR VVCI 171230Z 12007KT CAVOK 26/21 Q1010 NOSIG,1,0,0,9999,0,0,0,
2026-04-17 12:00:00,METAR VVCI 171200Z 12007KT CAVOK 26/21 Q1010 NOSIG,1,0,0,9999,0,0,0,
2026-04-17 11:30:00,METAR VVCI 171130Z 11009KT 9999 FEW034 SCT043 26/21 Q1009 NOSIG,0,9,0,10000,0,0,0,
2026-04-17 11:00:00,METAR VVCI 171100Z 13008KT 9999 BKN040 BKN045 27/22 Q1009 NOSIG,0,8,0,10000,0,0,0,
2026-04-17 10:30:00,METAR VVCI 171030Z 13008KT 9999 BKN040 27/22 Q1009 NOSIG,0,8,0,10000,0,0,0,
2026-04-17 10:00:00,METAR VVCI 171000Z 13006KT 9999 SCT038 28/22 Q1008 NOSIG,0,6,0,10000,0,0,0,
2026-04-17 09:30:00,METAR VVCI 170930Z 13004KT CAVOK 28/21 Q1008 NOSIG,1,0,0,9999,0,0,0,
2026-04-17 09:00:00,METAR VVCI 170900Z 13003KT 090V150 CAVOK 29/21 Q1008 NOSIG,1,0,0,9999,0,0,0,
2026-04-17 08:30:00,METAR VVCI 170830Z VRB01KT CAVOK 29/21 Q1008 NOSIG,1,0,0,9999,0,0,0,
2026-04-17 08:00:00,METAR VVCI 170800Z VRB02KT 9999 FEW016 29/21 Q1008 NOSIG,0,2,0,10000,0,0,0,
2026-04-17 07:30:00,METAR VVCI 170730Z 36003KT 280V070 CAVOK 30/21 Q1008 NOSIG,1,0,0,9999,0,0,0,
2026-04-17 07:00:00,METAR VVCI 170700Z 35005KT 310V030 CAVOK 30/21 Q1008 NOSIG,1,0,0,9999,0,0,0,
2026-04-17 06:30:00,METAR VVCI 170630Z 33006KT 300V010 9999 FEW044 30/21 Q1008 NOSIG,0,6,0,10000,0,0,0,
2026-04-17 06:00:00,METAR VVCI 170600Z 36005KT 320V040 9999 SCT044 28/22 Q1009 NOSIG,0,5,0,10000,0,0,0,
2026-04-17 05:30:00,METAR VVCI 170530Z 06004KT 350V120 9999 SCT043 26/22 Q1010 NOSIG,0,4,0,10000,0,0,0,
2026-04-17 05:00:00,METAR VVCI 170500Z 08008KT 050V110 9999 FEW046 25/21 Q1011 NOSIG,0,8,0,10000,0,0,0,
2026-04-17 04:30:00,METAR VVCI 170430Z 09006KT 030V110 9999 FEW032 25/22 Q1012 NOSIG,0,6,0,10000,0,0,0,
2026-04-17 04:00:00,METAR VVCI 170400Z 05006KT 340V120 9999 -RA OVC025 23/21 Q1012 NOSIG,0,6,0,10000,0,0,0,-RA
2026-04-17 03:30:00,METAR VVCI 170330Z 36013KT 330V030 9999 -RA FEW017 BKN020 FEW027CB 24/20 Q1013 TEMPO FM0400 33015G25KT 4000 TSRA,0,13,0,10000,1,0,0,"-RA,RA,TS"
2026-04-17 03:00:00,METAR VVCI 170300Z 34004KT 220V360 9999 BKN030 27/24 Q1013 TEMPO FM0400 33015G25KT 3500 TSRA SCT010 FEW027CB,0,4,0,10000,1,0,0,"RA,TS"
2026-04-17 02:30:00,METAR VVCI 170230Z VRB02KT 9999 FEW019 BKN023 BKN031 27/24 Q1012 NOSIG,0,2,0,10000,0,0,0,
2026-04-17 02:00:00,METAR VVCI 170200Z 16005KT 9999 SCT019 BKN023 OVC028 27/24 Q1012 NOSIG,0,5,0,10000,0,0,0,
2026-04-17 01:30:00,METAR VVCI 170130Z 16005KT 120V190 9999 FEW020 BKN025 OVC029 26/24 Q1011 NOSIG,0,5,0,10000,0,0,0,
2026-04-17 01:00:00,METAR VVCI 170100Z 16008KT 9999 FEW015 BKN018 OVC032 26/23 Q1010 NOSIG,0,8,0,10000,0,0,0,
2026-04-17 00:30:00,METAR VVCI 170030Z 16008KT 9999 -RA SCT019 BKN024 OVC031 27/23 Q1010 NOSIG,0,8,0,10000,0,0,0,-RA
2026-04-17 00:00:00,METAR VVCI 170000Z 16005KT 9999 OVC025 27/23 Q1009 NOSIG,0,5,0,10000,0,0,0,
2026-04-16 23:30:00,METAR VVCI 162330Z 17006KT 9999 OVC025 27/23 Q1009 NOSIG,0,6,0,10000,0,0,0,
2026-04-16 23:00:00,METAR VVCI 162300Z 17006KT 9999 OVC025 27/23 Q1009 NOSIG,0,6,0,10000,0,0,0,
2026-04-16 22:30:00,METAR VVCI 162230Z 15007KT 9999 OVC027 27/24 Q1008 NOSIG,0,7,0,10000,0,0,0,
2026-04-16 22:00:00,METAR VVCI 162200Z 15007KT 9999 OVC027 27/24 Q1008 NOSIG,0,7,0,10000,0,0,0,
2026-04-16 21:30:00,METAR VVCI 162130Z 16004KT 9999 FEW015 BKN024 BKN032 27/24 Q1008 NOSIG,0,4,0,10000,0,0,0,
2026-04-16 21:00:00,METAR VVCI 162100Z 16004KT 9999 FEW015 BKN024 BKN032 27/24 Q1008 NOSIG,0,4,0,10000,0,0,0,
2026-04-16 20:30:00,METAR VVCI 162030Z 13004KT 9999 FEW014 BKN028 26/25 Q1008 NOSIG,0,4,0,10000,0,0,0,
2026-04-16 20:00:00,METAR VVCI 162000Z 13004KT 9999 FEW014 BKN028 26/25 Q1008 NOSIG,0,4,0,10000,0,0,0,
2026-04-16 19:30:00,METAR VVCI 161930Z 13006KT 9999 FEW021 BKN029 BKN035 26/25 Q1008 NOSIG,0,6,0,10000,0,0,0,
2026-04-16 19:00:00,METAR VVCI 161900Z 13006KT 9999 FEW019 BKN027 BKN035 26/25 Q1008 NOSIG,0,6,0,10000,0,0,0,
2026-04-16 18:30:00,METAR VVCI 161830Z VRB02KT 8000 -RA BKN012 BKN021 OVC030 26/25 Q1009 NOSIG,0,2,0,8000,0,0,0,-RA
2026-04-16 18:00:00,METAR VVCI 161800Z VRB02KT 8000 -RA BKN012 BKN021 OVC030 26/25 Q1009 NOSIG,0,2,0,8000,0,0,0,-RA
2026-04-16 17:30:00,METAR VVCI 161730Z 13004KT 9999 SCT018 BKN022 OVC037 27/24 Q1009 NOSIG,0,4,0,10000,0,0,0,
2026-04-16 17:00:00,METAR VVCI 161700Z 13004KT 9999 SCT018 BKN022 OVC037 27/24 Q1009 NOSIG,0,4,0,10000,0,0,0,
2026-04-16 16:30:00,METAR VVCI 161630Z 15005KT 9999 BKN021 BKN028 OVC034 27/24 Q1009 NOSIG,0,5,0,10000,0,0,0,
2026-04-16 16:00:00,METAR VVCI 161600Z 15005KT 120V180 9999 FEW020 BKN023 OVC034 27/24 Q1009 NOSIG,0,5,0,10000,0,0,0,
2026-04-16 15:30:00,METAR VVCI 161530Z 15005KT 120V180 9999 FEW015 OVC036 27/24 Q1009 NOSIG,0,5,0,10000,0,0,0,
2026-04-16 15:00:00,METAR VVCI 161500Z 14007KT 9999 SCT016 SCT024 OVC035 27/24 Q1009 NOSIG,0,7,0,10000,0,0,0,
2026-04-16 14:30:00,METAR VVCI 161430Z 14008KT 9999 BKN032 OVC038 27/24 Q1009 NOSIG,0,8,0,10000,0,0,0,
2026-04-16 14:00:00,METAR VVCI 161400Z 13008KT 9999 FEW017 BKN039 27/24 Q1008 NOSIG,0,8,0,10000,0,0,0,
2026-04-16 13:30:00,METAR VVCI 161330Z 13008KT 9999 FEW016 OVC040 27/24 Q1008 NOSIG,0,8,0,10000,0,0,0,
2026-04-16 13:00:00,METAR VVCI 161300Z 12007KT 9999 FEW015 OVC038 27/24 Q1008 NOSIG,0,7,0,10000,0,0,0,
2026-04-16 12:30:00,METAR VVCI 161230Z 14009KT 9999 SCT014 OVC037 27/24 Q1007 NOSIG,0,9,0,10000,0,0,0,
2026-04-16 12:00:00,METAR VVCI 161200Z 14009KT 9999 SCT014 OVC037 27/24 Q1007 NOSIG,0,9,0,10000,0,0,0,
2026-04-16 11:30:00,METAR VVCI 161130Z 13009KT 9999 BKN014 BKN022 OVC039 27/24 Q1006 NOSIG,0,9,0,10000,0,0,0,
2026-04-16 11:00:00,METAR VVCI 161100Z 13010KT 9999 BKN014 BKN022 BKN040 27/24 Q1006 NOSIG,0,10,0,10000,0,0,0,
2026-04-16 10:30:00,METAR VVCI 161030Z 14010KT 9999 SCT016 SCT022 OVC025 27/24 Q1006 NOSIG,0,10,0,10000,0,0,0,
2026-04-16 10:00:00,METAR VVCI 161000Z 14010KT 110V170 9999 SCT017 BKN023 28/24 Q1006 NOSIG,0,10,0,10000,0,0,0,
2026-04-16 09:30:00,METAR VVCI 160930Z 15009KT 9999 FEW013 SCT015 OVC023 28/24 Q1006 NOSIG,0,9,0,10000,0,0,0,
2026-04-16 09:00:00,METAR VVCI 160900Z 15010KT 120V180 9999 -RA SCT012 BKN014 BKN027 27/24 Q1006 NOSIG,0,10,0,10000,0,0,0,-RA
2026-04-16 08:30:00,METAR VVCI 160830Z 14010KT 9999 BKN012 BKN020 BKN044 28/25 Q1006 NOSIG,0,10,0,10000,0,0,0,
2026-04-16 08:00:00,METAR VVCI 160800Z 13010KT 9999 BKN013 OVC044 28/25 Q1006 NOSIG,0,10,0,10000,0,0,0,
2026-04-16 07:30:00,METAR VVCI 160730Z 13010KT 9999 SCT013 BKN016 OVC018 28/24 Q1007 NOSIG,0,10,0,10000,0,0,0,
2026-04-16 07:00:00,METAR VVCI 160700Z 13008KT 9999 BKN015 OVC021 27/24 Q1007 NOSIG,0,8,0,10000,0,0,0,
2026-04-16 06:30:00,METAR VVCI 160630Z 13009KT 9999 BKN013 OVC022 28/24 Q1008 NOSIG,0,9,0,10000,0,0,0,
2026-04-16 06:00:00,METAR VVCI 160600Z 13009KT 9999 -RA SCT014 OVC017 27/24 Q1008 NOSIG,0,9,0,10000,0,0,0,-RA
2026-04-16 05:30:00,METAR VVCI 160530Z 16009KT 9999 BKN014 OVC025 28/24 Q1009 NOSIG,0,9,0,10000,0,0,0,
2026-04-16 05:00:00,METAR VVCI 160500Z 16009KT 130V190 9999 SCT014 BKN023 OVC031 28/24 Q1009 NOSIG,0,9,0,10000,0,0,0,
2026-04-16 04:30:00,METAR VVCI 160430Z 16011KT 9999 SCT013 BKN027 OVC033 28/24 Q1009 NOSIG,0,11,0,10000,0,0,0,
2026-04-16 04:00:00,METAR VVCI 160400Z 16009KT 140V210 9999 BKN016 BKN025 OVC030 28/24 Q1010 NOSIG,0,9,0,10000,0,0,0,
2026-04-16 03:30:00,METAR VVCI 160330Z 17006KT 9999 FEW015 BKN017 OVC027 28/24 Q1010 NOSIG,0,6,0,10000,0,0,0,
2026-04-16 03:00:00,METAR VVCI 160300Z 16007KT 130V190 9999 FEW017 BKN028 OVC033 28/24 Q1010 NOSIG,0,7,0,10000,0,0,0,
2026-04-16 02:30:00,METAR VVCI 160230Z 16008KT 9999 SCT017 BKN028 OVC034 28/24 Q1010 NOSIG,0,8,0,10000,0,0,0,
2026-04-16 02:00:00,METAR VVCI 160200Z 16006KT 9999 SCT016 BKN029 OVC034 28/24 Q1010 NOSIG,0,6,0,10000,0,0,0,
2026-04-16 01:30:00,METAR VVCI 160130Z 15005KT 110V180 9999 SCT016 SCT018 OVC025 27/24 Q1010 NOSIG,0,5,0,10000,0,0,0,
2026-04-16 01:00:00,METAR VVCI 160100Z 15005KT 120V180 9999 FEW015 BKN026 28/24 Q1009 NOSIG,0,5,0,10000,0,0,0,
2026-04-16 00:30:00,METAR VVCI 160030Z 14004KT 9999 FEW014 BKN030 27/24 Q1009 NOSIG,0,4,0,10000,0,0,0,
2026-04-16 00:00:00,METAR VVCI 160000Z 13005KT 9999 FEW015 OVC028 27/24 Q1008 NOSIG,0,5,0,10000,0,0,0,
2026-04-15 23:30:00,METAR VVCI 152330Z 13004KT 9999 FEW014 BKN026 BKN030 26/24 Q1007 NOSIG,0,4,0,10000,0,0,0,
2026-04-15 23:00:00,METAR VVCI 152300Z 13004KT 9999 FEW014 BKN026 BKN030 26/24 Q1007 NOSIG,0,4,0,10000,0,0,0,
2026-04-15 22:30:00,METAR VVCI 152230Z 13003KT 9999 FEW015 SCT019 BKN025 26/24 Q1006 NOSIG,0,3,0,10000,0,0,0,
2026-04-15 22:00:00,METAR VVCI 152200Z 13003KT 9999 FEW015 SCT019 BKN025 26/24 Q1006 NOSIG,0,3,0,10000,0,0,0,
2026-04-15 21:30:00,METAR VVCI 152130Z 15003KT 9999 SCT019 26/24 Q1005 NOSIG,0,3,0,10000,0,0,0,
2026-04-15 21:00:00,METAR VVCI 152100Z 15003KT 9999 SCT019 26/24 Q1005 NOSIG,0,3,0,10000,0,0,0,
2026-04-15 20:30:00,METAR VVCI 152030Z 13003KT 090V160 9999 FEW016 SCT018 26/24 Q1005 NOSIG,0,3,0,10000,0,0,0,
2026-04-15 20:00:00,METAR VVCI 152000Z 13003KT 090V160 9999 FEW016 SCT018 26/24 Q1005 NOSIG,0,3,0,10000,0,0,0,
2026-04-15 19:30:00,METAR VVCI 151930Z 14004KT 9999 SCT018 BKN022 26/24 Q1006 NOSIG,0,4,0,10000,0,0,0,
2026-04-15 19:00:00,METAR VVCI 151900Z 14004KT 9999 BKN018 26/24 Q1006 NOSIG,0,4,0,10000,0,0,0,
2026-04-15 18:30:00,METAR VVCI 151830Z 11003KT 9999 FEW015 26/24 Q1006 NOSIG,0,3,0,10000,0,0,0,
2026-04-15 18:00:00,METAR VVCI 151800Z 11003KT 9999 FEW015 26/24 Q1006 NOSIG,0,3,0,10000,0,0,0,
2026-04-15 17:30:00,METAR VVCI 151730Z 14004KT 9999 SCT014 BKN017 BKN028 27/25 Q1007 NOSIG,0,4,0,10000,0,0,0,
2026-04-15 17:00:00,METAR VVCI 151700Z 14004KT 9999 SCT014 BKN016 BKN028 27/25 Q1007 NOSIG,0,4,0,10000,0,0,0,
2026-04-15 16:30:00,METAR VVCI 151630Z 15005KT 9999 BKN032 27/25 Q1008 NOSIG,0,5,0,10000,0,0,0,
2026-04-15 16:00:00,METAR VVCI 151600Z 15007KT 9999 FEW013 OVC032 27/25 Q1008 NOSIG,0,7,0,10000,0,0,0,
2026-04-15 15:30:00,METAR VVCI 151530Z 14004KT 120V180 9999 FEW012 BKN014 OVC030 27/25 Q1008 NOSIG,0,4,0,10000,0,0,0,
2026-04-15 15:00:00,METAR VVCI 151500Z 14005KT 9999 FEW015 OVC027 27/25 Q1007 NOSIG,0,5,0,10000,0,0,0,
2026-04-15 14:30:00,METAR VVCI 151430Z 15006KT 9999 FEW013 OVC030 27/25 Q1007 NOSIG,0,6,0,10000,0,0,0,
2026-04-15 14:00:00,METAR VVCI 151400Z 14005KT 9999 BKN013 OVC029 27/25 Q1007 NOSIG,0,5,0,10000,0,0,0,
2026-04-15 13:30:00,METAR VVCI 151330Z 13008KT 9999 SCT012 BKN017 OVC029 27/25 Q1006 NOSIG,0,8,0,10000,0,0,0,
2026-04-15 13:00:00,METAR VVCI 151300Z 14008KT 9999 SCT014 BKN024 OVC028 27/25 Q1006 NOSIG,0,8,0,10000,0,0,0,
2026-04-15 12:30:00,METAR VVCI 151230Z 13007KT 9999 SCT014 BKN024 OVC028 27/25 Q1006 NOSIG,0,7,0,10000,0,0,0,
2026-04-15 12:00:00,METAR VVCI 151200Z 13008KT 9999 BKN014 OVC019 27/24 Q1005 NOSIG,0,8,0,10000,0,0,0,
2026-04-15 11:30:00,METAR VVCI 151130Z 13009KT 9999 SCT013 BKN016 OVC029 27/24 Q1005 NOSIG,0,9,0,10000,0,0,0,
2026-04-15 11:00:00,METAR VVCI 151100Z 13010KT 9999 BKN015 BKN030 28/24 Q1004 NOSIG,0,10,0,10000,0,0,0,
2026-04-15 10:30:00,METAR VVCI 151030Z 13011KT 9999 SCT014 BKN020 OVC029 28/24 Q1004 NOSIG,0,11,0,10000,0,0,0,
2026-04-15 10:00:00,METAR VVCI 151000Z 14012KT 9999 SCT013 BKN021 BKN032 28/25 Q1004 NOSIG,0,12,0,10000,0,0,0,
2026-04-15 09:30:00,METAR VVCI 150930Z 14012KT 9999 SCT013 OVC029 28/24 Q1004 NOSIG,0,12,0,10000,0,0,0,
2026-04-15 09:00:00,METAR VVCI 150900Z 14013KT 9999 FEW013 SCT015 OVC034 28/25 Q1004 NOSIG,0,13,0,10000,0,0,0,
2026-04-15 08:30:00,METAR VVCI 150830Z 14014KT 9999 FEW014 SCT019 OVC036 28/24 Q1004 NOSIG,0,14,0,10000,0,0,0,
2026-04-15 08:00:00,METAR VVCI 150800Z 14015KT 9999 FEW019 BKN038 29/24 Q1005 NOSIG,0,15,0,10000,0,0,0,
2026-04-15 07:30:00,METAR VVCI 150730Z 16015KT 9999 FEW020 BKN029 BKN039 29/24 Q1005 NOSIG,0,15,0,10000,0,0,0,
2026-04-15 07:00:00,METAR VVCI 150700Z 17012KT 9999 FEW020 BKN028 OVC035 29/24 Q1005 NOSIG,0,12,0,10000,0,0,0,
2026-04-15 06:30:00,METAR VVCI 150630Z 18013KT 9999 FEW013 BKN023 OVC033 29/24 Q1006 NOSIG,0,13,0,10000,0,0,0,
2026-04-15 06:00:00,METAR VVCI 150600Z 17010KT 9999 -RA SCT011 BKN014 OVC019 28/25 Q1007 NOSIG,0,10,0,10000,0,0,0,-RA
2026-04-15 05:30:00,METAR VVCI 150530Z 15012KT 9999 OVC014 28/25 Q1007 NOSIG,0,12,0,10000,0,0,0,
2026-04-15 05:00:00,METAR VVCI 150500Z 17009KT 9999 FEW013 SCT015 OVC023 28/25 Q1008 NOSIG,0,9,0,10000,0,0,0,
2026-04-15 04:30:00,METAR VVCI 150430Z 17009KT 9999 SCT016 BKN020 OVC030 28/24 Q1008 NOSIG,0,9,0,10000,0,0,0,
2026-04-15 04:00:00,METAR VVCI 150400Z 16007KT 130V190 9999 BKN015 OVC021 28/24 Q1009 NOSIG,0,7,0,10000,0,0,0,
2026-04-15 03:30:00,METAR VVCI 150330Z 16008KT 130V190 9999 FEW014 BKN016 OVC022 28/24 Q1009 NOSIG,0,8,0,10000,0,0,0,
2026-04-15 03:00:00,METAR VVCI 150300Z 14008KT 9999 FEW014 BKN016 OVC023 28/24 Q1009 NOSIG,0,8,0,10000,0,0,0,
2026-04-15 02:30:00,METAR VVCI 150230Z 14007KT 9999 SCT014 BKN023 OVC029 28/24 Q1009 NOSIG,0,7,0,10000,0,0,0,
2026-04-15 02:00:00,METAR VVCI 150200Z 13008KT 9999 SCT013 BKN016 OVC030 28/25 Q1009 NOSIG,0,8,0,10000,0,0,0,
2026-04-15 01:30:00,METAR VVCI 150130Z 13007KT 080V160 9999 SCT013 BKN026 OVC030 28/25 Q1008 NOSIG,0,7,0,10000,0,0,0,
2026-04-15 01:00:00,METAR VVCI 150100Z 14008KT 9999 FEW013 SCT015 OVC027 28/25 Q1008 NOSIG,0,8,0,10000,0,0,0,
2026-04-15 00:30:00,METAR VVCI 150030Z 13006KT 9999 SCT017 OVC025 27/24 Q1007 NOSIG,0,6,0,10000,0,0,0,
2026-04-15 00:00:00,METAR VVCI 150000Z 13006KT 9999 FEW018 BKN025 27/25 Q1007 NOSIG,0,6,0,10000,0,0,0,
2026-04-14 23:30:00,METAR VVCI 142330Z 14007KT 9999 FEW010 BKN021 BKN025 27/24 Q1006 NOSIG,0,7,0,10000,0,0,0,
2026-04-14 23:00:00,METAR VVCI 142300Z 12005KT 9999 FEW010 SCT012 BKN019 27/25 Q1006 NOSIG,0,5,0,10000,0,0,0,
2026-04-14 22:30:00,METAR VVCI 142230Z 13005KT 100V160 9999 FEW012 BKN024 27/25 Q1006 NOSIG,0,5,0,10000,0,0,0,
2026-04-14 22:00:00,METAR VVCI 142200Z 14005KT 9999 FEW013 SCT015 BKN021 27/25 Q1005 NOSIG,0,5,0,10000,0,0,0,
2026-04-14 21:30:00,METAR VVCI 142130Z 13005KT 9999 FEW014 BKN016 BKN023 27/25 Q1005 NOSIG,0,5,0,10000,0,0,0,
2026-04-14 21:00:00,METAR VVCI 142100Z 13004KT 9999 FEW011 SCT014 OVC019 27/25 Q1005 NOSIG,0,4,0,10000,0,0,0,
2026-04-14 20:30:00,METAR VVCI 142030Z 12004KT 9999 SCT012 BKN022 BKN025 27/25 Q1005 NOSIG,0,4,0,10000,0,0,0,
2026-04-14 20:00:00,METAR VVCI 142000Z 12004KT 9999 FEW011 SCT013 OVC025 27/25 Q1005 NOSIG,0,4,0,10000,0,0,0,
2026-04-14 19:30:00,METAR VVCI 141930Z 13004KT 9999 SCT012 SCT014 OVC026 27/25 Q1005 NOSIG,0,4,0,10000,0,0,0,
2026-04-14 19:00:00,METAR VVCI 141900Z 13004KT 9999 SCT011 BKN019 OVC026 27/25 Q1006 NOSIG,0,4,0,10000,0,0,0,
2026-04-14 18:30:00,METAR VVCI 141830Z 12004KT 9999 SCT014 OVC024 27/25 Q1006 NOSIG,0,4,0,10000,0,0,0,
2026-04-14 18:00:00,METAR VVCI 141800Z 13006KT 9999 FEW019 OVC025 27/25 Q1006 NOSIG,0,6,0,10000,0,0,0,
2026-04-14 17:30:00,METAR VVCI 141730Z 13004KT 9999 FEW013 SCT021 OVC024 27/25 Q1007 NOSIG,0,4,0,10000,0,0,0,
2026-04-14 17:00:00,METAR VVCI 141700Z 12005KT 9999 SCT014 SCT018 BKN021 27/25 Q1007 NOSIG,0,5,0,10000,0,0,0,
2026-04-14 16:30:00,METAR VVCI 141630Z 12004KT 9999 SCT013 BKN019 BKN022 27/25 Q1007 NOSIG,0,4,0,10000,0,0,0,
2026-04-14 16:00:00,METAR VVCI 141600Z 14005KT 9999 FEW014 BKN016 OVC022 27/25 Q1007 NOSIG,0,5,0,10000,0,0,0,
2026-04-14 15:30:00,METAR VVCI 141530Z 13006KT 9999 FEW015 BKN021 27/25 Q1007 NOSIG,0,6,0,10000,0,0,0,
2026-04-14 15:00:00,METAR VVCI 141500Z 13006KT 9999 FEW013 SCT015 BKN019 27/25 Q1007 NOSIG,0,6,0,10000,0,0,0,
2026-04-14 14:30:00,METAR VVCI 141430Z 13006KT 090V160 9999 FEW013 SCT016 BKN021 28/25 Q1007 NOSIG,0,6,0,10000,0,0,0,
2026-04-14 14:00:00,METAR VVCI 141400Z 13006KT 9999 FEW013 BKN018 BKN022 27/25 Q1007 NOSIG,0,6,0,10000,0,0,0,
2026-04-14 13:30:00,METAR VVCI 141330Z 13007KT 9999 SCT015 BKN018 BKN021 28/25 Q1006 NOSIG,0,7,0,10000,0,0,0,
2026-04-14 13:00:00,METAR VVCI 141300Z 12007KT 9999 BKN015 27/25 Q1006 NOSIG,0,7,0,10000,0,0,0,
2026-04-14 12:30:00,METAR VVCI 141230Z 12009KT 9999 BKN015 OVC018 28/25 Q1006 NOSIG,0,9,0,10000,0,0,0,
2026-04-14 12:00:00,METAR VVCI 141200Z 12008KT 9999 FEW013 BKN015 BKN021 28/25 Q1005 NOSIG,0,8,0,10000,0,0,0,
2026-04-14 11:30:00,METAR VVCI 141130Z 12010KT 9999 FEW012 BKN014 OVC022 28/25 Q1005 NOSIG,0,10,0,10000,0,0,0,
2026-04-14 11:00:00,METAR VVCI 141100Z 12009KT 9999 SCT011 BKN020 28/25 Q1005 NOSIG,0,9,0,10000,0,0,0,
2026-04-14 10:30:00,METAR VVCI 141030Z 12009KT 9999 SCT011 BKN021 28/25 Q1005 NOSIG,0,9,0,10000,0,0,0,
2026-04-14 10:00:00,METAR VVCI 141000Z 13010KT 100V160 9999 BKN012 BKN020 28/25 Q1004 NOSIG,0,10,0,10000,0,0,0,
2026-04-14 09:30:00,METAR VVCI 140930Z 13009KT 9999 SCT012 BKN017 OVC025 28/25 Q1005 NOSIG,0,9,0,10000,0,0,0,
2026-04-14 09:00:00,METAR VVCI 140900Z 13009KT 9999 SCT012 BKN014 OVC025 28/25 Q1005 NOSIG,0,9,0,10000,0,0,0,
2026-04-14 08:30:00,METAR VVCI 140830Z 13011KT 9999 SCT012 BKN014 OVC021 28/25 Q1005 NOSIG,0,11,0,10000,0,0,0,
2026-04-14 08:00:00,METAR VVCI 140800Z 13009KT 9999 SCT012 BKN019 OVC026 28/25 Q1005 NOSIG,0,9,0,10000,0,0,0,
2026-04-14 07:30:00,METAR VVCI 140730Z 13009KT 9999 FEW013 BKN020 BKN026 28/25 Q1006 NOSIG,0,9,0,10000,0,0,0,
2026-04-14 07:00:00,METAR VVCI 140700Z 12009KT 9999 FEW014 BKN026 29/25 Q1006 NOSIG,0,9,0,10000,0,0,0,
2026-04-14 06:30:00,METAR VVCI 140630Z 13008KT 9999 FEW013 BKN016 OVC023 29/25 Q1006 NOSIG,0,8,0,10000,0,0,0,
2026-04-14 06:00:00,METAR VVCI 140600Z 15008KT 100V180 9999 FEW015 SCT017 OVC025 28/25 Q1007 NOSIG,0,8,0,10000,0,0,0,
2026-04-14 05:30:00,METAR VVCI 140530Z 15008KT 9999 FEW012 SCT017 BKN024 29/25 Q1008 NOSIG,0,8,0,10000,0,0,0,
2026-04-14 05:00:00,METAR VVCI 140500Z 14008KT 9999 FEW012 BKN015 OVC026 28/25 Q1008 NOSIG,0,8,0,10000,0,0,0,
2026-04-14 04:30:00,METAR VVCI 140430Z 14008KT 100V170 9999 FEW013 SCT016 OVC026 29/25 Q1009 NOSIG,0,8,0,10000,0,0,0,
2026-04-14 04:00:00,METAR VVCI 140400Z 14009KT 110V170 9999 FEW012 SCT014 BKN024 29/25 Q1009 NOSIG,0,9,0,10000,0,0,0,
2026-04-14 03:30:00,METAR VVCI 140330Z 14008KT 9999 FEW012 BKN014 BKN025 29/25 Q1009 NOSIG,0,8,0,10000,0,0,0,
2026-04-14 03:00:00,METAR VVCI 140300Z 13008KT 9999 SCT013 BKN017 BKN022 29/25 Q1009 NOSIG,0,8,0,10000,0,0,0,
2026-04-14 02:30:00,METAR VVCI 140230Z 13007KT 9999 BKN014 BKN023 29/25 Q1009 NOSIG,0,7,0,10000,0,0,0,
2026-04-14 02:00:00,METAR VVCI 140200Z 12007KT 9999 BKN014 BKN019 28/25 Q1009 NOSIG,0,7,0,10000,0,0,0,
2026-04-14 01:30:00,METAR VVCI 140130Z 13008KT 9999 SCT013 BKN021 OVC025 28/25 Q1009 NOSIG,0,8,0,10000,0,0,0,
2026-04-14 01:00:00,METAR VVCI 140100Z 12007KT 9999 FEW013 BKN015 BKN023 28/25 Q1009 NOSIG,0,7,0,10000,0,0,0,
2026-04-14 00:30:00,METAR VVCI 140030Z 12006KT 9999 SCT014 BKN018 28/25 Q1008 NOSIG,0,6,0,10000,0,0,0,
2026-04-14 00:00:00,METAR VVCI 140000Z 12005KT 9999 FEW013 SCT016 BKN019 27/25 Q1008 NOSIG,0,5,0,10000,0,0,0,
2026-04-13 23:30:00,METAR VVCI 132330Z 10006KT 9999 BKN014 BKN020 27/25 Q1007 NOSIG,0,6,0,10000,0,0,0,
2026-04-13 23:00:00,METAR VVCI 132300Z 10006KT 9999 BKN014 BKN020 27/25 Q1007 NOSIG,0,6,0,10000,0,0,0,
2026-04-13 22:30:00,METAR VVCI 132230Z 10006KT 9999 FEW011 BKN014 BKN020 27/25 Q1007 NOSIG,0,6,0,10000,0,0,0,
2026-04-13 22:00:00,METAR VVCI 132200Z 10006KT 9999 FEW011 BKN014 BKN020 27/25 Q1007 NOSIG,0,6,0,10000,0,0,0,
2026-04-13 21:30:00,METAR VVCI 132130Z 13005KT 9999 SCT010 SCT016 BKN021 27/25 Q1006 NOSIG,0,5,0,10000,0,0,0,
2026-04-13 21:00:00,METAR VVCI 132100Z 13005KT 9999 SCT010 SCT016 BKN021 27/25 Q1006 NOSIG,0,5,0,10000,0,0,0,
2026-04-13 20:30:00,METAR VVCI 132030Z 14007KT 9999 SCT010 BKN019 BKN022 27/25 Q1006 NOSIG,0,7,0,10000,0,0,0,
2026-04-13 20:00:00,METAR VVCI 132000Z 14007KT 9999 SCT010 BKN019 BKN022 27/25 Q1006 NOSIG,0,7,0,10000,0,0,0,
2026-04-13 19:30:00,METAR VVCI 131930Z 13007KT 9999 BKN012 BKN019 27/25 Q1006 NOSIG,0,7,0,10000,0,0,0,
2026-04-13 19:00:00,METAR VVCI 131900Z 13005KT 100V160 9999 BKN013 BKN015 27/25 Q1007 NOSIG,0,5,0,10000,0,0,0,
2026-04-13 18:30:00,METAR VVCI 131830Z 12005KT 9999 FEW013 BKN016 OVC020 27/25 Q1007 NOSIG,0,5,0,10000,0,0,0,
2026-04-13 18:00:00,METAR VVCI 131800Z 12005KT 9999 FEW013 BKN016 OVC020 27/25 Q1007 NOSIG,0,5,0,10000,0,0,0,
2026-04-13 17:30:00,METAR VVCI 131730Z 12006KT 9999 SCT014 OVC020 27/25 Q1007 NOSIG,0,6,0,10000,0,0,0,
2026-04-13 17:00:00,METAR VVCI 131700Z 12006KT 9999 SCT014 BKN021 27/25 Q1007 NOSIG,0,6,0,10000,0,0,0,
2026-04-13 16:30:00,METAR VVCI 131630Z 12005KT 9999 FEW012 BKN015 27/25 Q1008 NOSIG,0,5,0,10000,0,0,0,
2026-04-13 16:00:00,METAR VVCI 131600Z 11006KT 9999 FEW012 BKN014 27/25 Q1008 NOSIG,0,6,0,10000,0,0,0,
2026-04-13 15:30:00,METAR VVCI 131530Z 11006KT 9999 BKN014 27/25 Q1008 NOSIG,0,6,0,10000,0,0,0,
2026-04-13 15:00:00,METAR VVCI 131500Z 11006KT 9999 BKN013 BKN017 27/25 Q1007 NOSIG,0,6,0,10000,0,0,0,
2026-04-13 14:30:00,METAR VVCI 131430Z 12006KT 9999 BKN013 BKN017 28/25 Q1007 NOSIG,0,6,0,10000,0,0,0,
2026-04-13 14:00:00,METAR VVCI 131400Z 11007KT 9999 BKN014 BKN017 28/25 Q1007 NOSIG,0,7,0,10000,0,0,0,
2026-04-13 13:30:00,METAR VVCI 131330Z 11007KT 9999 SCT013 BKN016 27/25 Q1006 NOSIG,0,7,0,10000,0,0,0,
2026-04-13 13:00:00,METAR VVCI 131300Z 12007KT 9999 BKN014 28/25 Q1006 NOSIG,0,7,0,10000,0,0,0,
2026-04-13 12:30:00,METAR VVCI 131230Z 11007KT 9999 FEW013 SCT015 27/25 Q1005 NOSIG,0,7,0,10000,0,0,0,
2026-04-13 12:00:00,METAR VVCI 131200Z 11006KT 9999 SCT014 27/25 Q1005 NOSIG,0,6,0,10000,0,0,0,
2026-04-13 11:30:00,METAR VVCI 131130Z 13008KT 9999 SCT015 BKN017 28/25 Q1005 NOSIG,0,8,0,10000,0,0,0,
2026-04-13 11:00:00,METAR VVCI 131100Z 14009KT 9999 BKN014 28/25 Q1005 NOSIG,0,9,0,10000,0,0,0,
2026-04-13 10:30:00,METAR VVCI 131030Z 13009KT 9999 BKN014 28/25 Q1004 NOSIG,0,9,0,10000,0,0,0,
2026-04-13 10:00:00,METAR VVCI 131000Z 13009KT 9999 BKN015 28/25 Q1004 NOSIG,0,9,0,10000,0,0,0,
2026-04-13 09:30:00,METAR VVCI 130930Z 13009KT 9999 BKN015 BKN021 28/25 Q1004 NOSIG,0,9,0,10000,0,0,0,
2026-04-13 09:00:00,METAR VVCI 130900Z 13009KT 9999 SCT015 BKN020 29/25 Q1004 NOSIG,0,9,0,10000,0,0,0,
2026-04-13 08:30:00,METAR VVCI 130830Z 13009KT 100V160 9999 SCT015 BKN018 29/25 Q1005 NOSIG,0,9,0,10000,0,0,0,
2026-04-13 08:00:00,METAR VVCI 130800Z 13008KT 9999 BKN016 BKN018 BKN024 29/25 Q1005 NOSIG,0,8,0,10000,0,0,0,
2026-04-13 07:30:00,METAR VVCI 130730Z 13009KT 9999 BKN015 BKN024 29/25 Q1005 NOSIG,0,9,0,10000,0,0,0,
2026-04-13 07:00:00,METAR VVCI 130700Z 12009KT 9999 SCT014 BKN022 BKN027 29/25 Q1005 NOSIG,0,9,0,10000,0,0,0,
2026-04-13 06:30:00,METAR VVCI 130630Z 13009KT 9999 BKN015 OVC025 29/25 Q1006 NOSIG,0,9,0,10000,0,0,0,
2026-04-13 06:00:00,METAR VVCI 130600Z 13010KT 100V160 9999 SCT015 BKN018 OVC021 29/25 Q1006 NOSIG,0,10,0,10000,0,0,0,
2026-04-13 05:30:00,METAR VVCI 130530Z 13009KT 9999 BKN015 OVC022 29/25 Q1007 NOSIG,0,9,0,10000,0,0,0,
2026-04-13 05:00:00,METAR VVCI 130500Z 13009KT 9999 SCT015 OVC022 29/25 Q1007 NOSIG,0,9,0,10000,0,0,0,
2026-04-13 04:30:00,METAR VVCI 130430Z 13009KT 9999 FEW015 OVC017 30/25 Q1008 NOSIG,0,9,0,10000,0,0,0,
2026-04-13 04:00:00,METAR VVCI 130400Z 13008KT 9999 SCT015 BKN017 BKN024 29/25 Q1008 NOSIG,0,8,0,10000,0,0,0,
2026-04-13 03:30:00,METAR VVCI 130330Z 13008KT 9999 BKN015 OVC022 29/25 Q1008 NOSIG,0,8,0,10000,0,0,0,
2026-04-13 03:00:00,METAR VVCI 130300Z 13007KT 110V170 9999 SCT015 BKN020 29/25 Q1008 NOSIG,0,7,0,10000,0,0,0,
2026-04-13 02:30:00,METAR VVCI 130230Z 13007KT 110V170 9999 SCT015 BKN019 BKN022 29/25 Q1008 NOSIG,0,7,0,10000,0,0,0,
2026-04-13 02:00:00,METAR VVCI 130200Z 13006KT 110V180 9999 BKN016 BKN019 OVC022 29/25 Q1008 NOSIG,0,6,0,10000,0,0,0,
2026-04-13 01:30:00,METAR VVCI 130130Z 14007KT 9999 FEW015 BKN017 BKN020 29/25 Q1008 NOSIG,0,7,0,10000,0,0,0,
2026-04-13 01:00:00,METAR VVCI 130100Z 12007KT 9999 SCT014 BKN017 28/25 Q1008 NOSIG,0,7,0,10000,0,0,0,
2026-04-13 00:30:00,METAR VVCI 130030Z 12007KT 9999 BKN016 28/25 Q1007 NOSIG,0,7,0,10000,0,0,0,
2026-04-13 00:00:00,METAR VVCI 130000Z 11006KT 9999 FEW014 BKN016 BKN021 28/25 Q1007 NOSIG,0,6,0,10000,0,0,0,
2026-04-12 23:30:00,METAR VVCI 122330Z 11006KT 9999 FEW014 BKN016 BKN021 28/25 Q1007 NOSIG,0,6,0,10000,0,0,0,
2026-04-12 23:00:00,METAR VVCI 122300Z 11006KT 9999 FEW013 BKN015 BKN019 27/25 Q1006 NOSIG,0,6,0,10000,0,0,0,
2026-04-12 22:30:00,METAR VVCI 122230Z 11006KT 9999 FEW013 BKN015 BKN019 27/25 Q1006 NOSIG,0,6,0,10000,0,0,0,
2026-04-12 22:00:00,METAR VVCI 122200Z 11005KT 9999 BKN014 BKN018 27/25 Q1005 NOSIG,0,5,0,10000,0,0,0,
2026-04-12 21:30:00,METAR VVCI 122130Z 11005KT 9999 BKN014 BKN018 27/25 Q1005 NOSIG,0,5,0,10000,0,0,0,
2026-04-12 21:00:00,METAR VVCI 122100Z 12006KT 9999 BKN013 27/25 Q1004 NOSIG,0,6,0,10000,0,0,0,
2026-04-12 20:30:00,METAR VVCI 122030Z 12006KT 9999 BKN013 27/25 Q1004 NOSIG,0,6,0,10000,0,0,0,
2026-04-12 20:00:00,METAR VVCI 122000Z 13006KT 9999 FEW012 BKN014 27/25 Q1004 NOSIG,0,6,0,10000,0,0,0,
2026-04-12 19:30:00,METAR VVCI 121930Z 13006KT 9999 FEW012 BKN014 27/25 Q1004 NOSIG,0,6,0,10000,0,0,0,
2026-04-12 19:00:00,METAR VVCI 121900Z 14007KT 9999 BKN012 28/25 Q1004 NOSIG,0,7,0,10000,0,0,0,
2026-04-12 18:30:00,METAR VVCI 121830Z 14007KT 9999 BKN012 28/25 Q1004 NOSIG,0,7,0,10000,0,0,0,
2026-04-12 18:00:00,METAR VVCI 121800Z 13006KT 9999 SCT012 27/25 Q1004 NOSIG,0,6,0,10000,0,0,0,
2026-04-12 17:30:00,METAR VVCI 121730Z 13006KT 9999 SCT012 27/25 Q1004 NOSIG,0,6,0,10000,0,0,0,
2026-04-12 17:00:00,METAR VVCI 121700Z 14006KT 9999 FEW016 28/25 Q1005 NOSIG,0,6,0,10000,0,0,0,
2026-04-12 16:30:00,METAR VVCI 121630Z 15007KT 9999 FEW016 28/25 Q1005 NOSIG,0,7,0,10000,0,0,0,
2026-04-12 16:00:00,METAR VVCI 121600Z 14007KT CAVOK 28/25 Q1005 NOSIG,1,0,0,9999,0,0,0,
2026-04-12 15:00:00,METAR VVCI 121500Z 12006KT 100V160 CAVOK 28/25 Q1004 NOSIG,1,0,0,9999,0,0,0,
2026-04-12 14:30:00,METAR VVCI 121430Z 12008KT CAVOK 28/25 Q1004 NOSIG,1,0,0,9999,0,0,0,
2026-04-12 14:00:00,METAR VVCI 121400Z 12007KT CAVOK 28/25 Q1004 NOSIG,1,0,0,9999,0,0,0,
2026-04-12 13:30:00,METAR VVCI 121330Z 12006KT CAVOK 28/25 Q1003 NOSIG,1,0,0,9999,0,0,0,
2026-04-12 13:00:00,METAR VVCI 121300Z 12006KT CAVOK 28/25 Q1003 NOSIG,1,0,0,9999,0,0,0,
2026-04-12 12:30:00,METAR VVCI 121230Z 12007KT CAVOK 28/25 Q1003 NOSIG,1,0,0,9999,0,0,0,
2026-04-12 12:00:00,METAR VVCI 121200Z 13007KT CAVOK 28/25 Q1002 NOSIG,1,0,0,9999,0,0,0,
2026-04-12 11:30:00,METAR VVCI 121130Z 12006KT CAVOK 28/25 Q1002 NOSIG,1,0,0,9999,0,0,0,
2026-04-12 11:00:00,METAR VVCI 121100Z 12007KT 9999 FEW048 29/25 Q1002 NOSIG,0,7,0,10000,0,0,0,
2026-04-12 10:30:00,METAR VVCI 121030Z 12008KT 9999 FEW045 29/25 Q1002 NOSIG,0,8,0,10000,0,0,0,
2026-04-12 10:00:00,METAR VVCI 121000Z 13008KT 9999 FEW042 29/25 Q1001 NOSIG,0,8,0,10000,0,0,0,
2026-04-12 09:30:00,METAR VVCI 120930Z 12008KT 9999 FEW042 29/25 Q1001 NOSIG,0,8,0,10000,0,0,0,
2026-04-12 09:00:00,METAR VVCI 120900Z 14009KT 9999 FEW043 30/25 Q1001 NOSIG,0,9,0,10000,0,0,0,
2026-04-12 08:30:00,METAR VVCI 120830Z 14009KT 110V180 9999 FEW041 30/25 Q1001 NOSIG,0,9,0,10000,0,0,0,
2026-04-12 08:00:00,METAR VVCI 120800Z 16009KT 130V190 9999 FEW041 31/25 Q1002 NOSIG,0,9,0,10000,0,0,0,
2026-04-12 07:30:00,METAR VVCI 120730Z 15010KT 9999 FEW018 31/24 Q1002 NOSIG,0,10,0,10000,0,0,0,
2026-04-12 07:00:00,METAR VVCI 120700Z 16009KT 9999 FEW038 31/25 Q1002 NOSIG,0,9,0,10000,0,0,0,
2026-04-12 06:30:00,METAR VVCI 120630Z 17009KT 130V200 9999 FEW019 31/25 Q1003 NOSIG,0,9,0,10000,0,0,0,
2026-04-12 06:00:00,METAR VVCI 120600Z 17009KT 120V190 9999 FEW019 31/24 Q1003 NOSIG,0,9,0,10000,0,0,0,
2026-04-12 05:30:00,METAR VVCI 120530Z 16009KT 9999 FEW018 SCT021 31/25 Q1004 NOSIG,0,9,0,10000,0,0,0,
2026-04-12 05:00:00,METAR VVCI 120500Z 15009KT 9999 SCT018 BKN028 31/25 Q1004 NOSIG,0,9,0,10000,0,0,0,
2026-04-12 04:30:00,METAR VVCI 120430Z 15009KT 9999 FEW016 BKN020 31/25 Q1005 NOSIG,0,9,0,10000,0,0,0,
2026-04-12 04:00:00,METAR VVCI 120400Z 15008KT 110V170 9999 SCT018 BKN021 31/25 Q1005 NOSIG,0,8,0,10000,0,0,0,
2026-04-12 03:30:00,METAR VVCI 120330Z 14008KT 100V160 9999 FEW016 SCT020 BKN028 31/25 Q1005 NOSIG,0,8,0,10000,0,0,0,
2026-04-12 03:00:00,METAR VVCI 120300Z 12009KT 9999 FEW014 SCT017 BKN033 30/25 Q1005 NOSIG,0,9,0,10000,0,0,0,
2026-04-12 02:30:00,METAR VVCI 120230Z 13008KT 9999 SCT015 BKN032 30/25 Q1005 NOSIG,0,8,0,10000,0,0,0,
2026-04-12 02:00:00,METAR VVCI 120200Z 13006KT 9999 FEW015 BKN034 29/25 Q1005 NOSIG,0,6,0,10000,0,0,0,
2026-04-12 01:30:00,METAR VVCI 120130Z 13007KT 090V180 9999 SCT014 BKN033 29/25 Q1005 NOSIG,0,7,0,10000,0,0,0,
2026-04-12 01:00:00,METAR VVCI 120100Z 12006KT 090V150 9999 FEW012 SCT014 BKN034 28/25 Q1005 NOSIG,0,6,0,10000,0,0,0,
2026-04-12 00:30:00,METAR VVCI 120030Z 11005KT 6000 FEW013 BKN036 27/25 Q1004 NOSIG,0,5,0,6000,0,0,0,
2026-04-12 00:00:00,METAR VVCI 120000Z 09005KT 7000 SCT013 OVC035 27/25 Q1004 NOSIG,0,5,0,7000,0,0,0,
2026-04-11 23:30:00,METAR VVCI 112330Z 09005KT 5000 BR FEW013 OVC038 26/25 Q1004 NOSIG,0,5,0,5000,0,0,1,BR
2026-04-11 23:00:00,METAR VVCI 112300Z 11004KT 7000 FEW013 OVC042 26/25 Q1003 NOSIG,0,4,0,7000,0,0,0,
2026-04-11 22:30:00,METAR VVCI 112230Z 10005KT 8000 SCT014 BKN047 26/25 Q1003 NOSIG,0,5,0,8000,0,0,0,
2026-04-11 22:00:00,METAR VVCI 112200Z 10003KT 9000 FEW013 SCT042 26/25 Q1003 NOSIG,0,3,0,9000,0,0,0,
2026-04-11 21:30:00,METAR VVCI 112130Z 12005KT 9999 SCT014 BKN048 27/24 Q1003 NOSIG,0,5,0,10000,0,0,0,
2026-04-11 21:00:00,METAR VVCI 112100Z 11004KT 9999 BKN014 BKN044 27/24 Q1003 NOSIG,0,4,0,10000,0,0,0,
2026-04-11 20:30:00,METAR VVCI 112030Z 14004KT 9999 SCT014 SCT047 27/25 Q1003 NOSIG,0,4,0,10000,0,0,0,
2026-04-11 20:00:00,METAR VVCI 112000Z 13004KT 9999 SCT014 27/25 Q1003 NOSIG,0,4,0,10000,0,0,0,
2026-04-11 19:30:00,METAR VVCI 111930Z 14006KT 9999 BKN013 27/25 Q1003 NOSIG,0,6,0,10000,0,0,0,
2026-04-11 19:00:00,METAR VVCI 111900Z 14005KT 100V170 9999 BKN015 27/25 Q1003 NOSIG,0,5,0,10000,0,0,0,
2026-04-11 18:30:00,METAR VVCI 111830Z 13004KT 9999 SCT014 27/25 Q1003 NOSIG,0,4,0,10000,0,0,0,
2026-04-11 18:00:00,METAR VVCI 111800Z 15004KT 9999 BKN013 27/25 Q1003 NOSIG,0,4,0,10000,0,0,0,
2026-04-11 17:30:00,METAR VVCI 111730Z 15006KT 9999 BKN013 BKN019 27/25 Q1004 NOSIG,0,6,0,10000,0,0,0,
2026-04-11 17:00:00,METAR VVCI 111700Z 14004KT 110V180 9999 BKN013 27/25 Q1004 NOSIG,0,4,0,10000,0,0,0,
2026-04-11 16:30:00,METAR VVCI 111630Z 16004KT 100V200 9999 SCT013 28/25 Q1004 NOSIG,0,4,0,10000,0,0,0,
2026-04-11 16:00:00,METAR VVCI 111600Z 16007KT CAVOK 28/25 Q1004 NOSIG,1,0,0,9999,0,0,0,
2026-04-11 15:30:00,METAR VVCI 111530Z 15007KT 110V180 CAVOK 28/25 Q1004 NOSIG,1,0,0,9999,0,0,0,
2026-04-11 15:00:00,METAR VVCI 111500Z 12006KT CAVOK 28/25 Q1004 NOSIG,1,0,0,9999,0,0,0,
2026-04-11 14:30:00,METAR VVCI 111430Z 10004KT CAVOK 28/25 Q1003 NOSIG,1,0,0,9999,0,0,0,
2026-04-11 14:00:00,METAR VVCI 111400Z 10005KT CAVOK 28/25 Q1003 NOSIG,1,0,0,9999,0,0,0,
2026-04-11 13:30:00,METAR VVCI 111330Z 11004KT CAVOK 28/25 Q1002 NOSIG,1,0,0,9999,0,0,0,
2026-04-11 13:00:00,METAR VVCI 111300Z 10005KT CAVOK 28/25 Q1002 NOSIG,1,0,0,9999,0,0,0,
2026-04-11 12:30:00,METAR VVCI 111230Z 11005KT CAVOK 28/25 Q1002 NOSIG,1,0,0,9999,0,0,0,
2026-04-11 12:00:00,METAR VVCI 111200Z 12006KT CAVOK 28/25 Q1001 NOSIG,1,0,0,9999,0,0,0,
2026-04-11 11:30:00,METAR VVCI 111130Z 11006KT CAVOK 28/25 Q1001 NOSIG,1,0,0,9999,0,0,0,
2026-04-11 11:00:00,METAR VVCI 111100Z 13007KT 9999 BKN048 28/25 Q1001 NOSIG,0,7,0,10000,0,0,0,
2026-04-11 10:30:00,METAR VVCI 111030Z 13007KT 9999 FEW044 29/25 Q1001 NOSIG,0,7,0,10000,0,0,0,
2026-04-11 10:00:00,METAR VVCI 111000Z 14009KT 110V170 9999 FEW043 29/25 Q1000 NOSIG,0,9,0,10000,0,0,0,
2026-04-11 09:30:00,METAR VVCI 110930Z 16010KT CAVOK 30/25 Q1001 NOSIG,1,0,0,9999,0,0,0,
2026-04-11 09:00:00,METAR VVCI 110900Z 16009KT CAVOK 30/24 Q1001 NOSIG,1,0,0,9999,0,0,0,
2026-04-11 08:30:00,METAR VVCI 110830Z 15010KT 9999 FEW041 31/24 Q1001 NOSIG,0,10,0,10000,0,0,0,
2026-04-11 08:00:00,METAR VVCI 110800Z 16011KT CAVOK 31/24 Q1001 NOSIG,1,0,0,9999,0,0,0,
2026-04-11 07:30:00,METAR VVCI 110730Z 14011KT CAVOK 31/25 Q1001 NOSIG,1,0,0,9999,0,0,0,
2026-04-11 07:00:00,METAR VVCI 110700Z 14010KT 9999 FEW017 32/25 Q1002 NOSIG,0,10,0,10000,0,0,0,
2026-04-11 06:30:00,METAR VVCI 110630Z 13009KT 9999 FEW016 31/25 Q1002 NOSIG,0,9,0,10000,0,0,0,
2026-04-11 06:00:00,METAR VVCI 110600Z 14009KT 110V190 9999 FEW016 31/25 Q1003 NOSIG,0,9,0,10000,0,0,0,
2026-04-11 05:30:00,METAR VVCI 110530Z 14009KT 9999 FEW018 31/25 Q1004 NOSIG,0,9,0,10000,0,0,0,
2026-04-11 05:00:00,METAR VVCI 110500Z 15009KT 120V190 9999 FEW015 31/25 Q1004 NOSIG,0,9,0,10000,0,0,0,
2026-04-11 04:30:00,METAR VVCI 110430Z 13009KT 110V170 9999 FEW015 31/25 Q1005 NOSIG,0,9,0,10000,0,0,0,
2026-04-11 04:00:00,METAR VVCI 110400Z 17008KT 130V200 9999 FEW015 30/25 Q1005 NOSIG,0,8,0,10000,0,0,0,
2026-04-11 03:30:00,METAR VVCI 110330Z 16008KT 130V190 9999 FEW015 30/25 Q1006 NOSIG,0,8,0,10000,0,0,0,
2026-04-11 03:00:00,METAR VVCI 110300Z 16008KT 9999 FEW014 30/25 Q1006 NOSIG,0,8,0,10000,0,0,0,
2026-04-11 02:30:00,METAR VVCI 110230Z 14007KT 110V180 9999 FEW015 29/25 Q1006 NOSIG,0,7,0,10000,0,0,0,
2026-04-11 02:00:00,METAR VVCI 110200Z 15008KT 110V170 9999 SCT014 29/25 Q1006 NOSIG,0,8,0,10000,0,0,0,
2026-04-11 01:30:00,METAR VVCI 110130Z 14008KT 110V170 9999 BKN013 28/25 Q1006 NOSIG,0,8,0,10000,0,0,0,
2026-04-11 01:00:00,METAR VVCI 110100Z 14006KT 080V170 9999 SCT010 28/25 Q1006 NOSIG,0,6,0,10000,0,0,0,
2026-04-11 00:30:00,METAR VVCI 110030Z 13007KT 8000 SCT010 SCT016 27/25 Q1006 NOSIG,0,7,0,8000,0,0,0,
2026-04-11 00:00:00,METAR VVCI 110000Z 12005KT 7000 FEW014 27/25 Q1005 NOSIG,0,5,0,7000,0,0,0,
2026-04-10 23:30:00,METAR VVCI 102330Z 11004KT 7000 FEW010 27/25 Q1005 NOSIG,0,4,0,7000,0,0,0,
2026-04-10 23:00:00,METAR VVCI 102300Z 13007KT 110V180 8000 FEW011 SCT046 27/24 Q1005 NOSIG,0,7,0,8000,0,0,0,
2026-04-10 22:30:00,METAR VVCI 102230Z 12005KT 8000 FEW010 BKN012 OVC037 27/25 Q1004 NOSIG,0,5,0,8000,0,0,0,
2026-04-10 22:00:00,METAR VVCI 102200Z 12004KT 8000 OVC012 27/25 Q1004 NOSIG,0,4,0,8000,0,0,0,
2026-04-10 21:30:00,METAR VVCI 102130Z 11004KT 8000 OVC011 27/25 Q1004 NOSIG,0,4,0,8000,0,0,0,
2026-04-10 21:00:00,METAR VVCI 102100Z 11004KT 090V150 8000 OVC011 27/25 Q1004 NOSIG,0,4,0,8000,0,0,0,
2026-04-10 20:30:00,METAR VVCI 102030Z 11004KT 9000 BKN011 27/25 Q1004 NOSIG,0,4,0,9000,0,0,0,
2026-04-10 20:00:00,METAR VVCI 102000Z 13005KT 9999 BKN012 27/25 Q1004 NOSIG,0,5,0,10000,0,0,0,
2026-04-10 19:30:00,METAR VVCI 101930Z 13003KT 110V170 9999 BKN012 27/25 Q1004 NOSIG,0,3,0,10000,0,0,0,
2026-04-10 19:00:00,METAR VVCI 101900Z 15004KT 120V180 9999 BKN012 27/25 Q1004 NOSIG,0,4,0,10000,0,0,0,
2026-04-10 18:30:00,METAR VVCI 101830Z 15005KT 9999 BKN012 27/25 Q1004 NOSIG,0,5,0,10000,0,0,0,
2026-04-10 18:00:00,METAR VVCI 101800Z 15006KT 120V180 9999 OVC010 27/25 Q1005 NOSIG,0,6,0,10000,0,0,0,
2026-04-10 17:30:00,METAR VVCI 101730Z 12006KT 9999 BKN012 27/25 Q1005 NOSIG,0,6,0,10000,0,0,0,
2026-04-10 17:00:00,METAR VVCI 101700Z 13007KT 9999 FEW012 27/25 Q1005 NOSIG,0,7,0,10000,0,0,0,
2026-04-10 16:30:00,METAR VVCI 101630Z 12007KT 9999 FEW013 27/25 Q1005 NOSIG,0,7,0,10000,0,0,0,
2026-04-10 16:00:00,METAR VVCI 101600Z 12007KT CAVOK 27/25 Q1005 NOSIG,1,0,0,9999,0,0,0,
2026-04-10 15:30:00,METAR VVCI 101530Z 11006KT CAVOK 27/24 Q1005 NOSIG,1,0,0,9999,0,0,0,
2026-04-10 15:00:00,METAR VVCI 101500Z 12006KT CAVOK 27/24 Q1005 NOSIG,1,0,0,9999,0,0,0,
2026-04-10 14:30:00,METAR VVCI 101430Z 11005KT CAVOK 27/24 Q1005 NOSIG,1,0,0,9999,0,0,0,
2026-04-10 14:00:00,METAR VVCI 101400Z 10005KT CAVOK 27/24 Q1005 NOSIG,1,0,0,9999,0,0,0,
2026-04-10 13:30:00,METAR VVCI 101330Z 10005KT CAVOK 27/24 Q1004 NOSIG,1,0,0,9999,0,0,0,
2026-04-10 13:00:00,METAR VVCI 101300Z 11007KT CAVOK 27/24 Q1004 NOSIG,1,0,0,9999,0,0,0,
2026-04-10 12:30:00,METAR VVCI 101230Z 12007KT 9999 FEW049 27/25 Q1004 NOSIG,0,7,0,10000,0,0,0,
2026-04-10 12:00:00,METAR VVCI 101200Z 11007KT CAVOK 27/25 Q1004 NOSIG,1,0,0,9999,0,0,0,
2026-04-10 11:30:00,METAR VVCI 101130Z 12008KT 9999 SCT011 BKN013 BKN042 27/25 Q1003 NOSIG,0,8,0,10000,0,0,0,
2026-04-10 11:00:00,METAR VVCI 101100Z 12007KT 9999 BKN012 28/25 Q1003 NOSIG,0,7,0,10000,0,0,0,
2026-04-10 10:30:00,METAR VVCI 101030Z 12009KT 9999 BKN013 28/24 Q1003 NOSIG,0,9,0,10000,0,0,0,
2026-04-10 10:00:00,METAR VVCI 101000Z 12009KT 9999 BKN014 28/24 Q1003 NOSIG,0,9,0,10000,0,0,0,
2026-04-10 09:30:00,METAR VVCI 100930Z 12010KT 9999 BKN014 29/25 Q1003 NOSIG,0,10,0,10000,0,0,0,
2026-04-10 09:00:00,METAR VVCI 100900Z 12010KT 9999 BKN015 29/25 Q1003 NOSIG,0,10,0,10000,0,0,0,
2026-04-10 08:30:00,METAR VVCI 100830Z 12009KT 9999 BKN016 30/25 Q1004 NOSIG,0,9,0,10000,0,0,0,
2026-04-10 08:00:00,METAR VVCI 100800Z 12009KT 9999 BKN016 30/25 Q1004 NOSIG,0,9,0,10000,0,0,0,
2026-04-10 07:30:00,METAR VVCI 100730Z 13010KT 9999 SCT016 BKN019 29/25 Q1004 NOSIG,0,10,0,10000,0,0,0,
2026-04-10 07:00:00,METAR VVCI 100700Z 12010KT 9999 BKN016 BKN018 30/25 Q1005 NOSIG,0,10,0,10000,0,0,0,
2026-04-10 06:30:00,METAR VVCI 100630Z 12010KT 9999 BKN016 BKN018 30/25 Q1005 NOSIG,0,10,0,10000,0,0,0,
2026-04-10 06:00:00,METAR VVCI 100600Z 14008KT 9999 SCT015 BKN019 30/25 Q1006 NOSIG,0,8,0,10000,0,0,0,
2026-04-10 05:30:00,METAR VVCI 100530Z 15008KT 120V180 9999 SCT015 BKN018 30/25 Q1007 NOSIG,0,8,0,10000,0,0,0,
2026-04-10 05:00:00,METAR VVCI 100500Z 15007KT 120V190 9999 SCT015 BKN017 BKN023 29/25 Q1007 NOSIG,0,7,0,10000,0,0,0,
2026-04-10 04:30:00,METAR VVCI 100430Z 16008KT 9999 FEW015 BKN017 BKN022 29/25 Q1007 NOSIG,0,8,0,10000,0,0,0,
2026-04-10 04:00:00,METAR VVCI 100400Z 17007KT 130V190 9999 FEW013 OVC016 29/24 Q1008 NOSIG,0,7,0,10000,0,0,0,
2026-04-10 03:30:00,METAR VVCI 100330Z 16009KT 9999 BKN015 OVC019 29/24 Q1008 NOSIG,0,9,0,10000,0,0,0,
2026-04-10 03:00:00,METAR VVCI 100300Z 15008KT 9999 OVC015 28/25 Q1008 NOSIG,0,8,0,10000,0,0,0,
2026-04-10 02:30:00,METAR VVCI 100230Z 15007KT 120V180 9999 OVC014 28/25 Q1008 NOSIG,0,7,0,10000,0,0,0,
2026-04-10 02:00:00,METAR VVCI 100200Z 15008KT 9999 OVC014 28/25 Q1008 NOSIG,0,8,0,10000,0,0,0,
2026-04-10 01:30:00,METAR VVCI 100130Z 14006KT 9999 BKN014 OVC019 27/25 Q1008 NOSIG,0,6,0,10000,0,0,0,
2026-04-10 01:00:00,METAR VVCI 100100Z 14005KT 110V170 9999 BKN014 OVC016 27/24 Q1008 NOSIG,0,5,0,10000,0,0,0,
2026-04-10 00:30:00,METAR VVCI 100030Z 15006KT 9999 OVC014 27/24 Q1007 NOSIG,0,6,0,10000,0,0,0,
2026-04-10 00:00:00,METAR VVCI 100000Z 13005KT 9999 BKN014 27/24 Q1007 NOSIG,0,5,0,10000,0,0,0,
2026-04-09 23:30:00,METAR VVCI 092330Z 14006KT 9999 SCT012 BKN014 27/24 Q1006 NOSIG,0,6,0,10000,0,0,0,
2026-04-09 23:00:00,METAR VVCI 092300Z 13004KT 9999 SCT013 BKN015 26/24 Q1006 NOSIG,0,4,0,10000,0,0,0,
2026-04-09 22:30:00,METAR VVCI 092230Z 14004KT 9999 FEW012 BKN014 OVC016 26/24 Q1006 NOSIG,0,4,0,10000,0,0,0,
2026-04-09 22:00:00,METAR VVCI 092200Z 13004KT 9999 BKN013 BKN015 26/24 Q1006 NOSIG,0,4,0,10000,0,0,0,
2026-04-09 21:30:00,METAR VVCI 092130Z 14004KT 9999 BKN013 26/24 Q1005 NOSIG,0,4,0,10000,0,0,0,
2026-04-09 21:00:00,METAR VVCI 092100Z 16005KT 120V190 9999 BKN014 27/24 Q1005 NOSIG,0,5,0,10000,0,0,0,
2026-04-09 20:30:00,METAR VVCI 092030Z 16005KT 9999 BKN013 BKN015 27/24 Q1005 NOSIG,0,5,0,10000,0,0,0,
2026-04-09 20:00:00,METAR VVCI 092000Z 15005KT 120V190 9999 OVC012 27/24 Q1005 NOSIG,0,5,0,10000,0,0,0,
2026-04-09 19:30:00,METAR VVCI 091930Z 15005KT 120V180 9999 OVC012 27/24 Q1005 NOSIG,0,5,0,10000,0,0,0,
2026-04-09 19:00:00,METAR VVCI 091900Z 17006KT 140V200 9999 BKN011 27/24 Q1006 NOSIG,0,6,0,10000,0,0,0,
2026-04-09 18:30:00,METAR VVCI 091830Z 18008KT 9999 SCT012 BKN016 27/24 Q1006 NOSIG,0,8,0,10000,0,0,0,
2026-04-09 18:00:00,METAR VVCI 091800Z 18008KT 150V210 9999 BKN013 BKN019 27/24 Q1007 NOSIG,0,8,0,10000,0,0,0,
2026-04-09 17:30:00,METAR VVCI 091730Z 18006KT 150V210 9999 SCT013 BKN016 27/24 Q1007 NOSIG,0,6,0,10000,0,0,0,
2026-04-09 17:00:00,METAR VVCI 091700Z 18008KT 9999 SCT013 BKN019 27/25 Q1007 NOSIG,0,8,0,10000,0,0,0,
2026-04-09 16:30:00,METAR VVCI 091630Z 18007KT 9999 BKN012 OVC020 27/25 Q1007 NOSIG,0,7,0,10000,0,0,0,
2026-04-09 16:00:00,METAR VVCI 091600Z 18006KT 9999 BKN012 27/25 Q1007 NOSIG,0,6,0,10000,0,0,0,
2026-04-09 15:30:00,METAR VVCI 091530Z 16006KT 9999 BKN011 27/25 Q1007 NOSIG,0,6,0,10000,0,0,0,
2026-04-09 15:00:00,METAR VVCI 091500Z 14004KT 120V180 9999 BKN012 27/25 Q1007 NOSIG,0,4,0,10000,0,0,0,
2026-04-09 14:30:00,METAR VVCI 091430Z 14006KT 9999 BKN012 27/25 Q1007 NOSIG,0,6,0,10000,0,0,0,
2026-04-09 14:00:00,METAR VVCI 091400Z 14007KT 110V170 9999 FEW012 27/25 Q1006 NOSIG,0,7,0,10000,0,0,0,
2026-04-09 13:30:00,METAR VVCI 091330Z 12004KT 100V160 9999 SCT013 27/25 Q1006 NOSIG,0,4,0,10000,0,0,0,
2026-04-09 13:00:00,METAR VVCI 091300Z 13004KT 100V160 9999 SCT012 SCT014 27/25 Q1006 NOSIG,0,4,0,10000,0,0,0,
2026-04-09 12:30:00,METAR VVCI 091230Z 13005KT 9999 BKN012 27/24 Q1005 NOSIG,0,5,0,10000,0,0,0,
2026-04-09 12:00:00,METAR VVCI 091200Z 12005KT 9999 BKN012 27/24 Q1005 NOSIG,0,5,0,10000,0,0,0,
2026-04-09 11:30:00,METAR VVCI 091130Z 13006KT 9999 FEW012 27/24 Q1005 NOSIG,0,6,0,10000,0,0,0,
2026-04-09 11:00:00,METAR VVCI 091100Z 13006KT 100V160 9999 SCT013 27/24 Q1005 NOSIG,0,6,0,10000,0,0,0,
2026-04-09 10:30:00,METAR VVCI 091030Z 14008KT 9999 SCT014 28/24 Q1005 NOSIG,0,8,0,10000,0,0,0,
2026-04-09 10:00:00,METAR VVCI 091000Z 13008KT 9999 SCT014 28/25 Q1005 NOSIG,0,8,0,10000,0,0,0,
2026-04-09 09:30:00,METAR VVCI 090930Z 13008KT 100V170 9999 FEW014 SCT018 29/25 Q1004 NOSIG,0,8,0,10000,0,0,0,
2026-04-09 09:00:00,METAR VVCI 090900Z 15009KT 120V180 9999 SCT015 BKN018 29/24 Q1005 NOSIG,0,9,0,10000,0,0,0,
2026-04-09 08:30:00,METAR VVCI 090830Z 16009KT 9999 BKN017 29/24 Q1005 NOSIG,0,9,0,10000,0,0,0,
2026-04-09 08:00:00,METAR VVCI 090800Z 15007KT 110V180 9999 BKN017 30/25 Q1005 NOSIG,0,7,0,10000,0,0,0,
2026-04-09 07:30:00,METAR VVCI 090730Z 15008KT 9999 FEW016 BKN019 BKN025 30/25 Q1005 NOSIG,0,8,0,10000,0,0,0,
2026-04-09 07:00:00,METAR VVCI 090700Z 16009KT 9999 SCT017 BKN023 30/25 Q1006 NOSIG,0,9,0,10000,0,0,0,
2026-04-09 06:30:00,METAR VVCI 090630Z 16008KT 130V190 9999 SCT017 SCT020 OVC023 31/25 Q1006 NOSIG,0,8,0,10000,0,0,0,
2026-04-09 06:00:00,METAR VVCI 090600Z 15009KT 120V180 9999 BKN017 BKN024 BKN027 30/24 Q1007 NOSIG,0,9,0,10000,0,0,0,
2026-04-09 05:30:00,METAR VVCI 090530Z 15010KT 9999 FEW017 BKN021 BKN026 30/25 Q1007 NOSIG,0,10,0,10000,0,0,0,
2026-04-09 05:00:00,METAR VVCI 090500Z 17009KT 120V200 9999 SCT017 BKN027 OVC035 30/25 Q1008 NOSIG,0,9,0,10000,0,0,0,
2026-04-09 04:30:00,METAR VVCI 090430Z 17009KT 9999 BKN017 OVC025 29/25 Q1008 NOSIG,0,9,0,10000,0,0,0,
2026-04-09 04:00:00,METAR VVCI 090400Z 19009KT 9999 OVC018 29/25 Q1009 NOSIG,0,9,0,10000,0,0,0,
2026-04-09 03:30:00,METAR VVCI 090330Z 18008KT 150V220 9999 BKN018 29/24 Q1009 NOSIG,0,8,0,10000,0,0,0,
2026-04-09 03:00:00,METAR VVCI 090300Z 16010KT 9999 BKN017 29/24 Q1009 NOSIG,0,10,0,10000,0,0,0,
2026-04-09 02:30:00,METAR VVCI 090230Z 16007KT 130V190 9999 BKN017 BKN022 29/24 Q1009 NOSIG,0,7,0,10000,0,0,0,
2026-04-09 02:00:00,METAR VVCI 090200Z 16010KT 9999 OVC017 29/24 Q1009 NOSIG,0,10,0,10000,0,0,0,
2026-04-09 01:30:00,METAR VVCI 090130Z 16007KT 9999 OVC017 28/24 Q1009 NOSIG,0,7,0,10000,0,0,0,
2026-04-09 01:00:00,METAR VVCI 090100Z 14006KT 9999 BKN016 OVC019 28/24 Q1008 NOSIG,0,6,0,10000,0,0,0,
2026-04-09 00:00:00,METAR VVCI 090000Z 14005KT 100V180 9999 BKN016 27/24 Q1007 NOSIG,0,5,0,10000,0,0,0,
2026-04-08 23:30:00,METAR VVCI 082330Z 14005KT 100V180 9999 BKN016 27/24 Q1007 NOSIG,0,5,0,10000,0,0,0,
2026-04-08 23:00:00,METAR VVCI 082300Z 15006KT 9999 BKN016 OVC018 27/24 Q1007 NOSIG,0,6,0,10000,0,0,0,
2026-04-08 22:30:00,METAR VVCI 082230Z 15006KT 9999 BKN016 OVC018 27/24 Q1007 NOSIG,0,6,0,10000,0,0,0,
2026-04-08 22:00:00,METAR VVCI 082200Z 14006KT 9999 FEW011 BKN013 OVC020 27/24 Q1006 NOSIG,0,6,0,10000,0,0,0,
2026-04-08 21:30:00,METAR VVCI 082130Z 14006KT 9999 FEW011 BKN013 OVC020 27/24 Q1006 NOSIG,0,6,0,10000,0,0,0,
2026-04-08 21:00:00,METAR VVCI 082100Z 13006KT 9999 OVC013 27/24 Q1006 NOSIG,0,6,0,10000,0,0,0,
2026-04-08 20:30:00,METAR VVCI 082030Z 13006KT 9999 OVC013 27/24 Q1006 NOSIG,0,6,0,10000,0,0,0,
2026-04-08 20:00:00,METAR VVCI 082000Z 15008KT 9999 FEW011 BKN014 OVC019 27/25 Q1006 NOSIG,0,8,0,10000,0,0,0,
2026-04-08 19:30:00,METAR VVCI 081930Z 15008KT 9999 FEW011 BKN014 OVC019 27/25 Q1006 NOSIG,0,8,0,10000,0,0,0,
2026-04-08 19:00:00,METAR VVCI 081900Z 15007KT 9999 BKN012 OVC018 27/25 Q1006 NOSIG,0,7,0,10000,0,0,0,
2026-04-08 18:30:00,METAR VVCI 081830Z 15007KT 9999 BKN012 OVC018 27/25 Q1006 NOSIG,0,7,0,10000,0,0,0,
2026-04-08 18:00:00,METAR VVCI 081800Z 14008KT 9999 FEW010 BKN012 OVC018 27/25 Q1006 NOSIG,0,8,0,10000,0,0,0,
2026-04-08 17:30:00,METAR VVCI 081730Z 14008KT 9999 FEW010 BKN012 OVC018 27/25 Q1006 NOSIG,0,8,0,10000,0,0,0,
2026-04-08 17:00:00,METAR VVCI 081700Z 12007KT 9999 BKN012 OVC014 27/25 Q1007 NOSIG,0,7,0,10000,0,0,0,
2026-04-08 16:30:00,METAR VVCI 081630Z 12008KT 9999 BKN013 27/25 Q1007 NOSIG,0,8,0,10000,0,0,0,
2026-04-08 16:00:00,METAR VVCI 081600Z 11006KT 9999 SCT012 BKN014 27/25 Q1007 NOSIG,0,6,0,10000,0,0,0,
2026-04-08 15:30:00,METAR VVCI 081530Z 12008KT 9999 FEW012 27/24 Q1006 NOSIG,0,8,0,10000,0,0,0,
2026-04-08 15:00:00,METAR VVCI 081500Z 10008KT 9999 FEW012 27/24 Q1006 NOSIG,0,8,0,10000,0,0,0,
2026-04-08 14:30:00,METAR VVCI 081430Z 11009KT 9999 FEW013 27/24 Q1006 NOSIG,0,9,0,10000,0,0,0,
2026-04-08 14:00:00,METAR VVCI 081400Z 10008KT 9999 FEW013 27/24 Q1006 NOSIG,0,8,0,10000,0,0,0,
2026-04-08 13:30:00,METAR VVCI 081330Z 12008KT 9999 FEW014 27/24 Q1005 NOSIG,0,8,0,10000,0,0,0,
2026-04-08 13:00:00,METAR VVCI 081300Z 12009KT CAVOK 27/24 Q1005 NOSIG,1,0,0,9999,0,0,0,
2026-04-08 12:30:00,METAR VVCI 081230Z 12008KT 080V140 CAVOK 28/24 Q1005 NOSIG,1,0,0,9999,0,0,0,
2026-04-08 12:00:00,METAR VVCI 081200Z 12009KT CAVOK 28/24 Q1005 NOSIG,1,0,0,9999,0,0,0,
2026-04-08 11:30:00,METAR VVCI 081130Z 12010KT CAVOK 28/24 Q1005 NOSIG,1,0,0,9999,0,0,0,
2026-04-08 11:00:00,METAR VVCI 081100Z 12010KT CAVOK 28/24 Q1004 NOSIG,1,0,0,9999,0,0,0,
2026-04-08 10:30:00,METAR VVCI 081030Z 13011KT 9999 FEW017 28/24 Q1004 NOSIG,0,11,0,10000,0,0,0,
2026-04-08 10:00:00,METAR VVCI 081000Z 13011KT 9999 FEW017 29/24 Q1004 NOSIG,0,11,0,10000,0,0,0,
2026-04-08 09:30:00,METAR VVCI 080930Z 12010KT CAVOK 29/24 Q1004 NOSIG,1,0,0,9999,0,0,0,
2026-04-08 09:00:00,METAR VVCI 080900Z 13010KT 9999 FEW018 29/24 Q1004 NOSIG,0,10,0,10000,0,0,0,
2026-04-08 08:30:00,METAR VVCI 080830Z 13010KT 9999 FEW018 30/24 Q1004 NOSIG,0,10,0,10000,0,0,0,
2026-04-08 08:00:00,METAR VVCI 080800Z 13009KT 100V160 9999 FEW018 30/24 Q1005 NOSIG,0,9,0,10000,0,0,0,
2026-04-08 07:30:00,METAR VVCI 080730Z 12010KT 090V160 9999 FEW017 30/25 Q1005 NOSIG,0,10,0,10000,0,0,0,
2026-04-08 07:00:00,METAR VVCI 080700Z 13010KT 9999 FEW017 30/24 Q1005 NOSIG,0,10,0,10000,0,0,0,
2026-04-08 06:30:00,METAR VVCI 080630Z 13011KT 9999 FEW018 30/25 Q1006 NOSIG,0,11,0,10000,0,0,0,
2026-04-08 06:00:00,METAR VVCI 080600Z 13011KT 9999 FEW019 30/25 Q1006 NOSIG,0,11,0,10000,0,0,0,
2026-04-08 05:30:00,METAR VVCI 080530Z 13012KT CAVOK 30/25 Q1007 NOSIG,1,0,0,9999,0,0,0,
2026-04-08 05:00:00,METAR VVCI 080500Z 13011KT 100V160 9999 FEW019 30/24 Q1007 NOSIG,0,11,0,10000,0,0,0,
2026-04-08 04:30:00,METAR VVCI 080430Z 13010KT 090V150 9999 FEW021 30/24 Q1008 NOSIG,0,10,0,10000,0,0,0,
2026-04-08 04:00:00,METAR VVCI 080400Z 13010KT 9999 FEW025 30/25 Q1008 NOSIG,0,10,0,10000,0,0,0,
2026-04-08 03:30:00,METAR VVCI 080330Z 13010KT 100V160 9999 FEW021 30/24 Q1008 NOSIG,0,10,0,10000,0,0,0,
2026-04-08 03:00:00,METAR VVCI 080300Z 13009KT 100V160 CAVOK 30/24 Q1008 NOSIG,1,0,0,9999,0,0,0,
2026-04-08 02:30:00,METAR VVCI 080230Z 12010KT CAVOK 30/23 Q1008 NOSIG,1,0,0,9999,0,0,0,
2026-04-08 02:00:00,METAR VVCI 080200Z 12009KT CAVOK 29/23 Q1008 NOSIG,1,0,0,9999,0,0,0,
2026-04-08 01:30:00,METAR VVCI 080130Z 12008KT CAVOK 29/24 Q1008 NOSIG,1,0,0,9999,0,0,0,
2026-04-08 01:00:00,METAR VVCI 080100Z 10005KT CAVOK 28/24 Q1007 NOSIG,1,0,0,9999,0,0,0,
2026-04-08 00:30:00,METAR VVCI 080030Z 09005KT CAVOK 28/24 Q1007 NOSIG,1,0,0,9999,0,0,0,
2026-04-08 00:00:00,METAR VVCI 080000Z 08007KT CAVOK 27/24 Q1007 NOSIG,1,0,0,9999,0,0,0,
2026-04-07 23:30:00,METAR VVCI 072330Z 07005KT CAVOK 27/24 Q1006 NOSIG,1,0,0,9999,0,0,0,
2026-04-07 23:00:00,METAR VVCI 072300Z 09006KT CAVOK 26/24 Q1006 NOSIG,1,0,0,9999,0,0,0,
2026-04-07 22:30:00,METAR VVCI 072230Z 10005KT CAVOK 26/23 Q1006 NOSIG,1,0,0,9999,0,0,0,
2026-04-07 22:00:00,METAR VVCI 072200Z 10006KT CAVOK 27/23 Q1005 NOSIG,1,0,0,9999,0,0,0,
2026-04-07 21:30:00,METAR VVCI 072130Z 10006KT CAVOK 27/24 Q1005 NOSIG,1,0,0,9999,0,0,0,
2026-04-07 21:00:00,METAR VVCI 072100Z 11007KT CAVOK 27/24 Q1005 NOSIG,1,0,0,9999,0,0,0,
2026-04-07 20:30:00,METAR VVCI 072030Z 10006KT CAVOK 27/24 Q1005 NOSIG,1,0,0,9999,0,0,0,
2026-04-07 20:00:00,METAR VVCI 072000Z 11005KT CAVOK 27/24 Q1005 NOSIG,1,0,0,9999,0,0,0,
2026-04-07 19:30:00,METAR VVCI 071930Z 11006KT CAVOK 27/24 Q1005 NOSIG,1,0,0,9999,0,0,0,
2026-04-07 19:00:00,METAR VVCI 071900Z 12006KT CAVOK 27/24 Q1005 NOSIG,1,0,0,9999,0,0,0,
2026-04-07 18:30:00,METAR VVCI 071830Z 12007KT CAVOK 27/24 Q1005 NOSIG,1,0,0,9999,0,0,0,
2026-04-07 18:00:00,METAR VVCI 071800Z 10006KT CAVOK 27/24 Q1005 NOSIG,1,0,0,9999,0,0,0,
2026-04-07 17:30:00,METAR VVCI 071730Z 11006KT CAVOK 27/24 Q1005 NOSIG,1,0,0,9999,0,0,0,
2026-04-07 17:00:00,METAR VVCI 071700Z 08006KT CAVOK 27/24 Q1005 NOSIG,1,0,0,9999,0,0,0,
2026-04-07 16:30:00,METAR VVCI 071630Z 08007KT CAVOK 26/24 Q1005 NOSIG,1,0,0,9999,0,0,0,
2026-04-07 16:00:00,METAR VVCI 071600Z 10006KT CAVOK 27/24 Q1005 NOSIG,1,0,0,9999,0,0,0,
2026-04-07 15:30:00,METAR VVCI 071530Z 09006KT CAVOK 27/24 Q1005 NOSIG,1,0,0,9999,0,0,0,
2026-04-07 15:00:00,METAR VVCI 071500Z 08006KT CAVOK 27/24 Q1005 NOSIG,1,0,0,9999,0,0,0,
2026-04-07 14:30:00,METAR VVCI 071430Z 09005KT CAVOK 27/24 Q1005 NOSIG,1,0,0,9999,0,0,0,
2026-04-07 14:00:00,METAR VVCI 071400Z 09006KT CAVOK 27/24 Q1005 NOSIG,1,0,0,9999,0,0,0,
2026-04-07 13:30:00,METAR VVCI 071330Z 10006KT CAVOK 27/24 Q1004 NOSIG,1,0,0,9999,0,0,0,
2026-04-07 13:00:00,METAR VVCI 071300Z 11007KT CAVOK 28/23 Q1004 NOSIG,1,0,0,9999,0,0,0,
2026-04-07 12:30:00,METAR VVCI 071230Z 11007KT CAVOK 28/23 Q1004 NOSIG,1,0,0,9999,0,0,0,
2026-04-07 12:00:00,METAR VVCI 071200Z 12006KT CAVOK 29/23 Q1003 NOSIG,1,0,0,9999,0,0,0,
2026-04-07 11:30:00,METAR VVCI 071130Z 12007KT CAVOK 29/23 Q1003 NOSIG,1,0,0,9999,0,0,0,
2026-04-07 11:00:00,METAR VVCI 071100Z 12008KT CAVOK 29/23 Q1003 NOSIG,1,0,0,9999,0,0,0,
2026-04-07 10:30:00,METAR VVCI 071030Z 12008KT CAVOK 29/23 Q1003 NOSIG,1,0,0,9999,0,0,0,
2026-04-07 10:00:00,METAR VVCI 071000Z 12008KT CAVOK 29/23 Q1003 NOSIG,1,0,0,9999,0,0,0,
2026-04-07 09:30:00,METAR VVCI 070930Z 13008KT CAVOK 30/23 Q1002 NOSIG,1,0,0,9999,0,0,0,
2026-04-07 09:00:00,METAR VVCI 070900Z 11008KT CAVOK 29/24 Q1002 NOSIG,1,0,0,9999,0,0,0,
2026-04-07 08:30:00,METAR VVCI 070830Z 12009KT CAVOK 30/24 Q1002 NOSIG,1,0,0,9999,0,0,0,
2026-04-07 08:00:00,METAR VVCI 070800Z 11008KT CAVOK 30/24 Q1003 NOSIG,1,0,0,9999,0,0,0,
2026-04-07 07:30:00,METAR VVCI 070730Z 11008KT 080V140 CAVOK 30/24 Q1003 NOSIG,1,0,0,9999,0,0,0,
2026-04-07 07:00:00,METAR VVCI 070700Z 13008KT CAVOK 30/24 Q1003 NOSIG,1,0,0,9999,0,0,0,
2026-04-07 06:30:00,METAR VVCI 070630Z 12008KT 090V150 CAVOK 30/24 Q1004 NOSIG,1,0,0,9999,0,0,0,
2026-04-07 06:00:00,METAR VVCI 070600Z 12007KT CAVOK 30/25 Q1004 NOSIG,1,0,0,9999,0,0,0,
2026-04-07 05:30:00,METAR VVCI 070530Z 12009KT CAVOK 30/25 Q1005 NOSIG,1,0,0,9999,0,0,0,
2026-04-07 05:00:00,METAR VVCI 070500Z 12009KT 100V160 CAVOK 30/24 Q1005 NOSIG,1,0,0,9999,0,0,0,
2026-04-07 04:30:00,METAR VVCI 070430Z 12009KT CAVOK 30/24 Q1005 NOSIG,1,0,0,9999,0,0,0,
2026-04-07 04:00:00,METAR VVCI 070400Z 12008KT CAVOK 29/24 Q1006 NOSIG,1,0,0,9999,0,0,0,
2026-04-07 03:30:00,METAR VVCI 070330Z 12008KT CAVOK 29/24 Q1006 NOSIG,1,0,0,9999,0,0,0,
2026-04-07 03:00:00,METAR VVCI 070300Z 13008KT 100V160 CAVOK 29/24 Q1006 NOSIG,1,0,0,9999,0,0,0,
2026-04-07 02:30:00,METAR VVCI 070230Z 13008KT 9999 FEW042 29/24 Q1006 NOSIG,0,8,0,10000,0,0,0,
2026-04-07 02:00:00,METAR VVCI 070200Z 12007KT CAVOK 29/24 Q1006 NOSIG,1,0,0,9999,0,0,0,
2026-04-07 01:30:00,METAR VVCI 070130Z 10007KT 9999 FEW015 28/24 Q1006 NOSIG,0,7,0,10000,0,0,0,
2026-04-07 01:00:00,METAR VVCI 070100Z 10008KT 9999 FEW015 28/24 Q1006 NOSIG,0,8,0,10000,0,0,0,
2026-04-07 00:30:00,METAR VVCI 070030Z 10008KT 9999 FEW039 27/24 Q1006 NOSIG,0,8,0,10000,0,0,0,
2026-04-07 00:00:00,METAR VVCI 070000Z 10006KT 8000 FEW043 27/24 Q1005 NOSIG,0,6,0,8000,0,0,0,
2026-04-06 23:30:00,METAR VVCI 062330Z 10006KT 8000 BKN045 26/24 Q1005 NOSIG,0,6,0,8000,0,0,0,
2026-04-06 23:00:00,METAR VVCI 062300Z 09006KT 6000 BKN044 26/24 Q1004 NOSIG,0,6,0,6000,0,0,0,
2026-04-06 22:30:00,METAR VVCI 062230Z 09005KT 7000 BKN048 25/24 Q1004 NOSIG,0,5,0,7000,0,0,0,
2026-04-06 22:00:00,METAR VVCI 062200Z 10005KT 8000 NSC 26/24 Q1003 NOSIG,0,5,0,8000,0,0,0,
2026-04-06 21:30:00,METAR VVCI 062130Z 10005KT 8000 NSC 26/24 Q1003 NOSIG,0,5,0,8000,0,0,0,
2026-04-06 21:00:00,METAR VVCI 062100Z 08006KT 7000 NSC 26/24 Q1003 NOSIG,0,6,0,7000,0,0,0,
2026-04-06 20:30:00,METAR VVCI 062030Z 10004KT 8000 NSC 26/24 Q1003 NOSIG,0,4,0,8000,0,0,0,
2026-04-06 20:00:00,METAR VVCI 062000Z 10004KT 8000 NSC 26/24 Q1002 NOSIG,0,4,0,8000,0,0,0,
2026-04-06 19:30:00,METAR VVCI 061930Z 08005KT 8000 NSC 26/24 Q1003 NOSIG,0,5,0,8000,0,0,0,
2026-04-06 19:00:00,METAR VVCI 061900Z 09005KT 8000 NSC 26/25 Q1003 NOSIG,0,5,0,8000,0,0,0,
2026-04-06 18:30:00,METAR VVCI 061830Z 08005KT 060V120 8000 NSC 26/24 Q1003 NOSIG,0,5,0,8000,0,0,0,
2026-04-06 18:00:00,METAR VVCI 061800Z 11005KT 9000 NSC 27/24 Q1003 NOSIG,0,5,0,9000,0,0,0,
2026-04-06 17:30:00,METAR VVCI 061730Z 10006KT 9000 NSC 27/24 Q1003 NOSIG,0,6,0,9000,0,0,0,
2026-04-06 17:00:00,METAR VVCI 061700Z 11005KT CAVOK 27/24 Q1004 NOSIG,1,0,0,9999,0,0,0,
2026-04-06 16:30:00,METAR VVCI 061630Z 11005KT CAVOK 27/24 Q1004 NOSIG,1,0,0,9999,0,0,0,
2026-04-06 16:00:00,METAR VVCI 061600Z 11005KT CAVOK 27/24 Q1004 NOSIG,1,0,0,9999,0,0,0,
2026-04-06 15:30:00,METAR VVCI 061530Z 11006KT CAVOK 27/24 Q1004 NOSIG,1,0,0,9999,0,0,0,
2026-04-06 15:00:00,METAR VVCI 061500Z 12006KT 090V150 CAVOK 27/24 Q1004 NOSIG,1,0,0,9999,0,0,0,
2026-04-06 14:30:00,METAR VVCI 061430Z 12004KT 090V150 CAVOK 27/24 Q1004 NOSIG,1,0,0,9999,0,0,0,
2026-04-06 14:00:00,METAR VVCI 061400Z 11005KT CAVOK 27/24 Q1003 NOSIG,1,0,0,9999,0,0,0,
2026-04-06 13:30:00,METAR VVCI 061330Z 10006KT CAVOK 27/24 Q1003 NOSIG,1,0,0,9999,0,0,0,
2026-04-06 13:00:00,METAR VVCI 061300Z 12006KT 090V150 CAVOK 27/24 Q1002 NOSIG,1,0,0,9999,0,0,0,
2026-04-06 12:30:00,METAR VVCI 061230Z 12005KT CAVOK 27/24 Q1002 NOSIG,1,0,0,9999,0,0,0,
2026-04-06 12:00:00,METAR VVCI 061200Z 13007KT 9999 FEW029 27/25 Q1002 NOSIG,0,7,0,10000,0,0,0,
2026-04-06 11:30:00,METAR VVCI 061130Z 12006KT CAVOK 28/24 Q1001 NOSIG,1,0,0,9999,0,0,0,
2026-04-06 11:00:00,METAR VVCI 061100Z 13008KT CAVOK 28/24 Q1001 NOSIG,1,0,0,9999,0,0,0,
2026-04-06 10:30:00,METAR VVCI 061030Z 13008KT CAVOK 28/25 Q1001 NOSIG,1,0,0,9999,0,0,0,
2026-04-06 10:00:00,METAR VVCI 061000Z 11007KT CAVOK 29/25 Q1001 NOSIG,1,0,0,9999,0,0,0,
2026-04-06 09:30:00,METAR VVCI 060930Z 13007KT CAVOK 29/25 Q1001 NOSIG,1,0,0,9999,0,0,0,
2026-04-06 09:00:00,METAR VVCI 060900Z 12007KT CAVOK 29/25 Q1001 NOSIG,1,0,0,9999,0,0,0,
2026-04-06 08:30:00,METAR VVCI 060830Z 13008KT CAVOK 30/26 Q1001 NOSIG,1,0,0,9999,0,0,0,
2026-04-06 08:00:00,METAR VVCI 060800Z 13009KT CAVOK 30/25 Q1001 NOSIG,1,0,0,9999,0,0,0,
2026-04-06 07:30:00,METAR VVCI 060730Z 12008KT CAVOK 31/26 Q1002 NOSIG,1,0,0,9999,0,0,0,
2026-04-06 07:00:00,METAR VVCI 060700Z 12007KT 9999 FEW021 30/26 Q1002 NOSIG,0,7,0,10000,0,0,0,
2026-04-06 06:30:00,METAR VVCI 060630Z 12007KT 9999 FEW021 31/26 Q1002 NOSIG,0,7,0,10000,0,0,0,
2026-04-06 06:00:00,METAR VVCI 060600Z 12007KT CAVOK 31/26 Q1003 NOSIG,1,0,0,9999,0,0,0,
2026-04-06 05:30:00,METAR VVCI 060530Z 13006KT 110V180 9999 FEW016 31/25 Q1003 NOSIG,0,6,0,10000,0,0,0,
2026-04-06 05:00:00,METAR VVCI 060500Z VRB04KT CAVOK 30/25 Q1004 NOSIG,1,0,0,9999,0,0,0,
2026-04-06 04:30:00,METAR VVCI 060430Z 15004KT 060V200 CAVOK 30/25 Q1004 NOSIG,1,0,0,9999,0,0,0,
2026-04-06 04:00:00,METAR VVCI 060400Z 16006KT 130V190 CAVOK 30/25 Q1004 NOSIG,1,0,0,9999,0,0,0,
2026-04-06 03:30:00,METAR VVCI 060330Z 18007KT 150V210 9999 FEW012 30/25 Q1005 NOSIG,0,7,0,10000,0,0,0,
2026-04-06 03:00:00,METAR VVCI 060300Z 15006KT 120V180 9999 FEW011 29/25 Q1005 NOSIG,0,6,0,10000,0,0,0,
2026-04-06 02:30:00,METAR VVCI 060230Z 14007KT 9999 FEW012 28/25 Q1005 NOSIG,0,7,0,10000,0,0,0,
2026-04-06 02:00:00,METAR VVCI 060200Z 13007KT 9999 SCT014 28/24 Q1005 NOSIG,0,7,0,10000,0,0,0,
2026-04-06 01:30:00,METAR VVCI 060130Z 14006KT 100V170 9999 FEW013 28/24 Q1005 NOSIG,0,6,0,10000,0,0,0,
2026-04-06 01:00:00,METAR VVCI 060100Z 13005KT 8000 SCT013 27/24 Q1005 NOSIG,0,5,0,8000,0,0,0,
2026-04-06 00:30:00,METAR VVCI 060030Z 09007KT 6000 BKN015 26/24 Q1005 NOSIG,0,7,0,6000,0,0,0,
2026-04-06 00:00:00,METAR VVCI 060000Z 09007KT 6000 FEW013 BKN015 26/24 Q1004 NOSIG,0,7,0,6000,0,0,0,
2026-04-05 23:30:00,METAR VVCI 052330Z 13003KT 060V210 5000 BR SCT013 BKN015 26/24 Q1004 NOSIG,0,3,0,5000,0,0,1,BR
2026-04-05 23:00:00,METAR VVCI 052300Z 09006KT 4400 BR SCT014 25/24 Q1004 NOSIG,0,6,0,4400,0,0,1,BR
2026-04-05 22:30:00,METAR VVCI 052230Z 08007KT 7000 SCT014 BKN017 25/24 Q1003 NOSIG,0,7,0,7000,0,0,0,
2026-04-05 22:00:00,METAR VVCI 052200Z 13004KT 7000 FEW014 26/24 Q1003 NOSIG,0,4,0,7000,0,0,0,
2026-04-05 21:30:00,METAR VVCI 052130Z 13004KT 7000 FEW014 25/24 Q1003 NOSIG,0,4,0,7000,0,0,0,
2026-04-05 21:00:00,METAR VVCI 052100Z 09005KT 7000 FEW013 25/24 Q1003 NOSIG,0,5,0,7000,0,0,0,
2026-04-05 20:30:00,METAR VVCI 052030Z 09005KT 7000 FEW017 25/24 Q1002 NOSIG,0,5,0,7000,0,0,0,
2026-04-05 20:00:00,METAR VVCI 052000Z 11005KT 7000 FEW012 26/24 Q1002 NOSIG,0,5,0,7000,0,0,0,
2026-04-05 19:30:00,METAR VVCI 051930Z 10006KT 6000 FEW014 26/24 Q1003 NOSIG,0,6,0,6000,0,0,0,
2026-04-05 19:00:00,METAR VVCI 051900Z 10006KT 6000 FEW014 26/24 Q1003 NOSIG,0,6,0,6000,0,0,0,
2026-04-05 18:30:00,METAR VVCI 051830Z 10005KT 7000 FEW013 26/24 Q1003 NOSIG,0,5,0,7000,0,0,0,
2026-04-05 18:00:00,METAR VVCI 051800Z 08006KT 7000 BKN014 26/24 Q1003 NOSIG,0,6,0,7000,0,0,0,
2026-04-05 17:30:00,METAR VVCI 051730Z 10004KT 6000 NSC 26/24 Q1003 NOSIG,0,4,0,6000,0,0,0,
2026-04-05 17:00:00,METAR VVCI 051700Z 10004KT 7000 NSC 26/24 Q1003 NOSIG,0,4,0,7000,0,0,0,
2026-04-05 16:30:00,METAR VVCI 051630Z 10004KT 7000 NSC 26/24 Q1003 NOSIG,0,4,0,7000,0,0,0,
2026-04-05 16:00:00,METAR VVCI 051600Z 11004KT 7000 NSC 26/24 Q1003 NOSIG,0,4,0,7000,0,0,0,
2026-04-05 15:30:00,METAR VVCI 051530Z 10005KT 6000 SCT007 26/25 Q1003 NOSIG,0,5,0,6000,0,0,0,
2026-04-05 15:00:00,METAR VVCI 051500Z 09005KT 6000 SCT008 26/25 Q1003 NOSIG,0,5,0,6000,0,0,0,
2026-04-05 13:00:00,METAR VVCI 051300Z 12006KT 6000 SCT007 26/24 Q1002 NOSIG,0,6,0,6000,0,0,0,
2026-04-05 12:30:00,METAR VVCI 051230Z 12005KT 6000 FEW007 26/24 Q1001 NOSIG,0,5,0,6000,0,0,0,
2026-04-05 12:00:00,METAR VVCI 051200Z 12006KT 6000 SCT015 26/24 Q1001 NOSIG,0,6,0,6000,0,0,0,
2026-04-05 11:30:00,METAR VVCI 051130Z 12005KT 6000 SCT011 BKN014 26/24 Q1001 NOSIG,0,5,0,6000,0,0,0,
2026-04-05 11:00:00,METAR VVCI 051100Z 11006KT 6000 BKN010 26/24 Q1001 NOSIG,0,6,0,6000,0,0,0,
2026-04-05 10:30:00,METAR VVCI 051030Z 11006KT 6000 OVC011 26/24 Q1001 NOSIG,0,6,0,6000,0,0,0,
2026-04-05 10:00:00,METAR VVCI 051000Z 14006KT 8000 SCT009 OVC012 27/24 Q1000 NOSIG,0,6,0,8000,0,0,0,
2026-04-05 09:30:00,METAR VVCI 050930Z 13007KT 8000 FEW008 OVC010 26/24 Q1000 NOSIG,0,7,0,8000,0,0,0,
2026-04-05 09:00:00,METAR VVCI 050900Z 13008KT 110V170 9000 FEW009 OVC012 27/24 Q1001 NOSIG,0,8,0,9000,0,0,0,
2026-04-05 08:30:00,METAR VVCI 050830Z 12007KT 9000 OVC010 27/24 Q1001 NOSIG,0,7,0,9000,0,0,0,
2026-04-05 08:00:00,METAR VVCI 050800Z 13009KT 9000 BKN010 27/24 Q1001 NOSIG,0,9,0,9000,0,0,0,
2026-04-05 07:30:00,METAR VVCI 050730Z 12008KT 8000 BKN009 27/24 Q1001 NOSIG,0,8,0,8000,0,0,0,
2026-04-05 07:00:00,METAR VVCI 050700Z 12008KT 9000 SCT009 OVC015 27/24 Q1002 NOSIG,0,8,0,9000,0,0,0,
2026-04-05 06:30:00,METAR VVCI 050630Z 13008KT 090V160 9000 SCT011 OVC013 27/24 Q1002 NOSIG,0,8,0,9000,0,0,0,
2026-04-05 06:00:00,METAR VVCI 050600Z 12007KT 9999 SCT010 BKN012 OVC014 27/24 Q1003 NOSIG,0,7,0,10000,0,0,0,
2026-04-05 05:30:00,METAR VVCI 050530Z 12008KT 9000 SCT011 OVC014 26/24 Q1003 NOSIG,0,8,0,9000,0,0,0,
2026-04-05 05:00:00,METAR VVCI 050500Z 13008KT 9999 SCT011 OVC015 27/23 Q1004 NOSIG,0,8,0,10000,0,0,0,
2026-04-05 04:30:00,METAR VVCI 050430Z 12009KT 9999 OVC011 26/23 Q1004 NOSIG,0,9,0,10000,0,0,0,
2026-04-05 04:00:00,METAR VVCI 050400Z 14007KT 100V170 9999 OVC012 27/23 Q1005 NOSIG,0,7,0,10000,0,0,0,
2026-04-05 03:30:00,METAR VVCI 050330Z 14007KT 9999 OVC012 27/23 Q1005 NOSIG,0,7,0,10000,0,0,0,
2026-04-05 03:00:00,METAR VVCI 050300Z 13006KT 100V160 9999 BKN012 OVC017 27/23 Q1005 NOSIG,0,6,0,10000,0,0,0,
2026-04-05 02:30:00,METAR VVCI 050230Z 13006KT 9999 OVC011 26/23 Q1006 NOSIG,0,6,0,10000,0,0,0,
2026-04-05 02:00:00,METAR VVCI 050200Z 11005KT 9000 BKN009 OVC013 26/23 Q1006 NOSIG,0,5,0,9000,0,0,0,
2026-04-05 01:30:00,METAR VVCI 050130Z 12006KT 9999 BKN010 OVC012 26/23 Q1006 NOSIG,0,6,0,10000,0,0,0,
2026-04-05 01:00:00,METAR VVCI 050100Z 11005KT 090V150 9999 OVC010 26/23 Q1006 NOSIG,0,5,0,10000,0,0,0,
2026-04-05 00:30:00,METAR VVCI 050030Z 12004KT 090V150 9999 BKN009 26/23 Q1005 NOSIG,0,4,0,10000,0,0,0,
2026-04-05 00:00:00,METAR VVCI 050000Z 14006KT 9999 SCT010 OVC021 25/23 Q1005 NOSIG,0,6,0,10000,0,0,0,
2026-04-04 23:30:00,METAR VVCI 042330Z 14004KT 9999 SCT011 OVC022 25/23 Q1005 NOSIG,0,4,0,10000,0,0,0,
2026-04-04 23:00:00,METAR VVCI 042300Z 12005KT 9999 SCT017 BKN020 OVC023 25/22 Q1004 NOSIG,0,5,0,10000,0,0,0,
2026-04-04 22:30:00,METAR VVCI 042230Z 13004KT 9999 OVC023 25/22 Q1004 NOSIG,0,4,0,10000,0,0,0,
2026-04-04 22:00:00,METAR VVCI 042200Z 13005KT 9999 FEW013 BKN024 25/22 Q1003 NOSIG,0,5,0,10000,0,0,0,
2026-04-04 21:30:00,METAR VVCI 042130Z 13004KT 9999 OVC023 25/22 Q1003 NOSIG,0,4,0,10000,0,0,0,
2026-04-04 21:00:00,METAR VVCI 042100Z 13005KT 9999 OVC022 25/22 Q1003 NOSIG,0,5,0,10000,0,0,0,
2026-04-04 20:30:00,METAR VVCI 042030Z 12005KT 9999 OVC021 25/22 Q1003 NOSIG,0,5,0,10000,0,0,0,
2026-04-04 20:00:00,METAR VVCI 042000Z 12004KT 9999 OVC021 25/22 Q1004 NOSIG,0,4,0,10000,0,0,0,
2026-04-04 19:30:00,METAR VVCI 041930Z 12003KT 9999 OVC021 25/22 Q1004 NOSIG,0,3,0,10000,0,0,0,
2026-04-04 19:00:00,METAR VVCI 041900Z 14004KT 9999 BKN022 24/22 Q1004 NOSIG,0,4,0,10000,0,0,0,
2026-04-04 18:30:00,METAR VVCI 041830Z 12003KT 9999 SCT026 24/21 Q1004 NOSIG,0,3,0,10000,0,0,0,
2026-04-04 18:00:00,METAR VVCI 041800Z 12003KT 9999 FEW028 24/21 Q1004 NOSIG,0,3,0,10000,0,0,0,
2026-04-04 17:30:00,METAR VVCI 041730Z 12004KT CAVOK 25/21 Q1005 NOSIG,1,0,0,9999,0,0,0,
2026-04-04 17:00:00,METAR VVCI 041700Z 13005KT 9999 FEW026 25/21 Q1005 NOSIG,0,5,0,10000,0,0,0,
2026-04-04 16:30:00,METAR VVCI 041630Z 13005KT 9999 SCT027 25/21 Q1005 NOSIG,0,5,0,10000,0,0,0,
2026-04-04 16:00:00,METAR VVCI 041600Z 14005KT 100V160 9999 FEW028 25/21 Q1006 NOSIG,0,5,0,10000,0,0,0,
2026-04-04 15:30:00,METAR VVCI 041530Z 15004KT 9999 SCT029 25/21 Q1006 NOSIG,0,4,0,10000,0,0,0,
2026-04-04 15:00:00,METAR VVCI 041500Z 14006KT CAVOK 25/21 Q1006 NOSIG,1,0,0,9999,0,0,0,
2026-04-04 14:30:00,METAR VVCI 041430Z 15007KT CAVOK 25/21 Q1005 NOSIG,1,0,0,9999,0,0,0,
2026-04-04 14:00:00,METAR VVCI 041400Z 15006KT CAVOK 25/21 Q1005 NOSIG,1,0,0,9999,0,0,0,
2026-04-04 13:30:00,METAR VVCI 041330Z 13005KT CAVOK 25/21 Q1005 NOSIG,1,0,0,9999,0,0,0,
2026-04-04 13:00:00,METAR VVCI 041300Z 14005KT CAVOK 26/21 Q1004 NOSIG,1,0,0,9999,0,0,0,
2026-04-04 12:30:00,METAR VVCI 041230Z 15006KT CAVOK 26/21 Q1004 NOSIG,1,0,0,9999,0,0,0,
2026-04-04 12:00:00,METAR VVCI 041200Z 15005KT CAVOK 26/22 Q1004 NOSIG,1,0,0,9999,0,0,0,
2026-04-04 11:30:00,METAR VVCI 041130Z 15005KT CAVOK 26/22 Q1004 NOSIG,1,0,0,9999,0,0,0,
2026-04-04 11:00:00,METAR VVCI 041100Z 16007KT 9999 SCT048 26/21 Q1003 NOSIG,0,7,0,10000,0,0,0,
2026-04-04 10:30:00,METAR VVCI 041030Z 15007KT 9999 SCT048 26/21 Q1003 NOSIG,0,7,0,10000,0,0,0,
2026-04-04 10:00:00,METAR VVCI 041000Z 14007KT 9999 FEW048 27/22 Q1003 NOSIG,0,7,0,10000,0,0,0,
2026-04-04 09:30:00,METAR VVCI 040930Z 13008KT 9999 FEW046 27/22 Q1003 NOSIG,0,8,0,10000,0,0,0,
2026-04-04 09:00:00,METAR VVCI 040900Z 13007KT 9999 FEW023 SCT028 BKN045 28/22 Q1003 NOSIG,0,7,0,10000,0,0,0,
2026-04-04 08:30:00,METAR VVCI 040830Z 13006KT 9999 BKN033 BKN041 28/23 Q1003 NOSIG,0,6,0,10000,0,0,0,
2026-04-04 08:00:00,METAR VVCI 040800Z 14005KT 9999 SCT020 OVC032 27/23 Q1004 NOSIG,0,5,0,10000,0,0,0,
2026-04-04 07:30:00,METAR VVCI 040730Z 14005KT 9999 SCT020 OVC032 27/23 Q1004 NOSIG,0,5,0,10000,0,0,0,
2026-04-04 07:00:00,METAR VVCI 040700Z 12004KT 100V160 9999 FEW023 SCT030 BKN034 29/22 Q1004 NOSIG,0,4,0,10000,0,0,0,
2026-04-04 06:30:00,METAR VVCI 040630Z 12004KT 100V160 9999 FEW023 SCT030 BKN034 29/22 Q1004 NOSIG,0,4,0,10000,0,0,0,
2026-04-04 06:00:00,METAR VVCI 040600Z VRB02KT 9999 FEW025 BKN034 BKN039 29/23 Q1006 NOSIG,0,2,0,10000,0,0,0,
2026-04-04 05:30:00,METAR VVCI 040530Z 12004KT 080V160 9999 FEW024 SCT031 29/23 Q1006 NOSIG,0,4,0,10000,0,0,0,
2026-04-04 05:00:00,METAR VVCI 040500Z 06003KT 010V150 9999 BKN034 29/22 Q1007 NOSIG,0,3,0,10000,0,0,0,
2026-04-04 04:30:00,METAR VVCI 040430Z VRB02KT 9999 OVC034 29/23 Q1007 NOSIG,0,2,0,10000,0,0,0,
2026-04-04 04:00:00,METAR VVCI 040400Z VRB02KT 9999 OVC033 29/23 Q1007 NOSIG,0,2,0,10000,0,0,0,
2026-04-04 03:30:00,METAR VVCI 040330Z VRB02KT 9999 OVC032 29/23 Q1008 NOSIG,0,2,0,10000,0,0,0,
2026-04-04 03:00:00,METAR VVCI 040300Z 01004KT 340V050 9999 BKN031 28/24 Q1008 NOSIG,0,4,0,10000,0,0,0,
2026-04-04 02:30:00,METAR VVCI 040230Z 36005KT 9999 BKN030 OVC035 27/24 Q1008 NOSIG,0,5,0,10000,0,0,0,
2026-04-04 02:00:00,METAR VVCI 040200Z 01004KT 9999 BKN033 26/23 Q1008 NOSIG,0,4,0,10000,0,0,0,
2026-04-04 01:30:00,METAR VVCI 040130Z 35004KT 7000 BKN030 OVC037 25/24 Q1007 NOSIG,0,4,0,7000,0,0,0,
2026-04-04 01:00:00,METAR VVCI 040100Z 34003KT 310V010 8000 OVC026 25/24 Q1007 NOSIG,0,3,0,8000,0,0,0,
2026-04-04 00:30:00,METAR VVCI 040030Z 36004KT 8000 OVC025 25/24 Q1007 NOSIG,0,4,0,8000,0,0,0,
2026-04-04 00:00:00,METAR VVCI 040000Z 01004KT 8000 OVC023 24/23 Q1006 NOSIG,0,4,0,8000,0,0,0,
2026-04-03 23:30:00,METAR VVCI 032330Z 12004KT 080V140 6000 BKN017 BKN021 OVC028 24/23 Q1006 NOSIG,0,4,0,6000,0,0,0,
2026-04-03 23:00:00,METAR VVCI 032300Z 08004KT 040V110 3300 -RA BR SCT005 BKN009 OVC016 24/24 Q1006 NOSIG,0,4,0,3300,0,0,1,"-RA,BR"
2026-04-03 22:30:00,METAR VVCI 032230Z 09003KT 060V130 3600 -RA BR FEW005 SCT007 OVC009 25/24 Q1006 NOSIG,0,3,0,3600,0,0,1,"-RA,BR"
2026-04-03 22:00:00,METAR VVCI 032200Z 07005KT 4400 -RA BR BKN011 OVC015 25/23 Q1005 NOSIG,0,5,0,4400,0,0,1,"-RA,BR"
2026-04-03 21:30:00,METAR VVCI 032130Z 06004KT 9999 OVC017 26/23 Q1005 NOSIG,0,4,0,10000,0,0,0,
2026-04-03 21:00:00,METAR VVCI 032100Z 07004KT 9999 OVC020 26/23 Q1004 NOSIG,0,4,0,10000,0,0,0,
2026-04-03 20:30:00,METAR VVCI 032030Z 06004KT 9999 BKN020 OVC024 26/23 Q1004 NOSIG,0,4,0,10000,0,0,0,
2026-04-03 20:00:00,METAR VVCI 032000Z 07004KT 040V100 9999 BKN019 OVC024 25/23 Q1004 NOSIG,0,4,0,10000,0,0,0,
2026-04-03 19:30:00,METAR VVCI 031930Z 06004KT 9999 FEW018 OVC021 25/23 Q1004 NOSIG,0,4,0,10000,0,0,0,
2026-04-03 19:00:00,METAR VVCI 031900Z 07004KT 9999 SCT017 BKN021 OVC027 25/23 Q1005 NOSIG,0,4,0,10000,0,0,0,
2026-04-03 18:30:00,METAR VVCI 031830Z 06004KT 9999 OVC019 25/23 Q1005 NOSIG,0,4,0,10000,0,0,0,
2026-04-03 18:00:00,METAR VVCI 031800Z 08004KT 9999 BKN019 25/23 Q1005 NOSIG,0,4,0,10000,0,0,0,
2026-04-03 17:30:00,METAR VVCI 031730Z 10003KT 9999 FEW020 25/23 Q1006 NOSIG,0,3,0,10000,0,0,0,
2026-04-03 17:00:00,METAR VVCI 031700Z 08004KT 9999 FEW020 25/23 Q1006 NOSIG,0,4,0,10000,0,0,0,
2026-04-03 16:30:00,METAR VVCI 031630Z 08005KT 9999 FEW020 25/23 Q1006 NOSIG,0,5,0,10000,0,0,0,
2026-04-03 16:00:00,METAR VVCI 031600Z 08005KT 9999 FEW019 25/23 Q1006 NOSIG,0,5,0,10000,0,0,0,
2026-04-03 15:30:00,METAR VVCI 031530Z 08004KT 9999 FEW019 25/23 Q1006 NOSIG,0,4,0,10000,0,0,0,
2026-04-03 15:00:00,METAR VVCI 031500Z 08005KT 9999 SCT017 25/23 Q1006 NOSIG,0,5,0,10000,0,0,0,
2026-04-03 14:30:00,METAR VVCI 031430Z 07003KT 9999 BKN017 26/23 Q1006 NOSIG,0,3,0,10000,0,0,0,
2026-04-03 14:00:00,METAR VVCI 031400Z COR 09005KT 9999 FEW020 25/23 Q1006 NOSIG,0,5,0,10000,0,0,0,
2026-04-03 13:30:00,METAR VVCI 031330Z 10003KT 9000 FEW034 25/23 Q1005 NOSIG,0,3,0,9000,0,0,0,
2026-04-03 13:00:00,METAR VVCI 031300Z 12004KT 9999 FEW019 26/23 Q1005 NOSIG,0,4,0,10000,0,0,0,
2026-04-03 12:30:00,METAR VVCI 031230Z 12004KT 9999 FEW019 SCT032 26/23 Q1004 NOSIG,0,4,0,10000,0,0,0,
2026-04-03 12:00:00,METAR VVCI 031200Z 12005KT 9999 BKN021 26/23 Q1004 NOSIG,0,5,0,10000,0,0,0,
2026-04-03 11:30:00,METAR VVCI 031130Z 12006KT 9999 SCT021 BKN025 26/23 Q1004 NOSIG,0,6,0,10000,0,0,0,
2026-04-03 11:00:00,METAR VVCI 031100Z 13008KT 9999 FEW022 BKN027 26/23 Q1003 NOSIG,0,8,0,10000,0,0,0,
2026-04-03 10:30:00,METAR VVCI 031030Z 13006KT 9999 OVC028 27/23 Q1003 NOSIG,0,6,0,10000,0,0,0,
2026-04-03 10:00:00,METAR VVCI 031000Z 12006KT 9999 FEW016 OVC029 27/23 Q1003 NOSIG,0,6,0,10000,0,0,0,
2026-04-03 09:30:00,METAR VVCI 030930Z 12007KT 9999 SCT015 OVC030 27/23 Q1003 NOSIG,0,7,0,10000,0,0,0,
2026-04-03 09:00:00,METAR VVCI 030900Z 11007KT 9999 SCT016 SCT019 OVC031 27/23 Q1003 NOSIG,0,7,0,10000,0,0,0,
2026-04-03 08:30:00,METAR VVCI 030830Z 14007KT 110V180 9999 FEW015 OVC028 27/24 Q1003 NOSIG,0,7,0,10000,0,0,0,
2026-04-03 08:00:00,METAR VVCI 030800Z 16006KT 130V190 9999 SCT015 BKN020 OVC028 27/23 Q1003 NOSIG,0,6,0,10000,0,0,0,
2026-04-03 07:30:00,METAR VVCI 030730Z 16009KT 9999 SCT016 BKN018 OVC022 27/23 Q1003 NOSIG,0,9,0,10000,0,0,0,
2026-04-03 07:00:00,METAR VVCI 030700Z 18008KT 150V210 9999 BKN015 OVC027 27/23 Q1004 NOSIG,0,8,0,10000,0,0,0,
2026-04-03 06:30:00,METAR VVCI 030630Z 18012KT 150V210 9999 SCT015 BKN018 OVC023 27/24 Q1004 NOSIG,0,12,0,10000,0,0,0,
2026-04-03 06:00:00,METAR VVCI 030600Z 18011KT 9999 SCT015 BKN024 OVC028 28/23 Q1005 NOSIG,0,11,0,10000,0,0,0,
2026-04-03 05:30:00,METAR VVCI 030530Z 18013KT 9999 SCT014 SCT022 OVC025 28/24 Q1005 NOSIG,0,13,0,10000,0,0,0,
2026-04-03 05:00:00,METAR VVCI 030500Z 19011KT 9999 BKN013 BKN019 27/24 Q1006 NOSIG,0,11,0,10000,0,0,0,
2026-04-03 04:30:00,METAR VVCI 030430Z 18011KT 9999 OVC012 27/24 Q1007 NOSIG,0,11,0,10000,0,0,0,
2026-04-03 04:00:00,METAR VVCI 030400Z 18009KT 150V210 9999 OVC013 27/24 Q1007 NOSIG,0,9,0,10000,0,0,0,
2026-04-03 03:30:00,METAR VVCI 030330Z 17010KT 140V200 9999 OVC013 27/24 Q1007 NOSIG,0,10,0,10000,0,0,0,
2026-04-03 03:00:00,METAR VVCI 030300Z 17008KT 130V200 9999 OVC013 26/23 Q1008 NOSIG,0,8,0,10000,0,0,0,
2026-04-03 02:30:00,METAR VVCI 030230Z 18004KT 140V220 9999 OVC012 26/23 Q1008 NOSIG,0,4,0,10000,0,0,0,
2026-04-03 02:00:00,METAR VVCI 030200Z VRB02KT 9999 SCT012 OVC014 26/23 Q1008 NOSIG,0,2,0,10000,0,0,0,
2026-04-03 01:30:00,METAR VVCI 030130Z 16004KT 130V200 9999 OVC013 26/23 Q1008 NOSIG,0,4,0,10000,0,0,0,
2026-04-03 01:00:00,METAR VVCI 030100Z 16003KT 9999 OVC014 26/23 Q1008 NOSIG,0,3,0,10000,0,0,0,
2026-04-03 00:30:00,METAR VVCI 030030Z 14003KT 100V190 9999 BKN013 OVC020 26/23 Q1008 NOSIG,0,3,0,10000,0,0,0,
2026-04-03 00:00:00,METAR VVCI 030000Z 15003KT 120V200 9999 SCT013 BKN015 OVC018 26/23 Q1007 NOSIG,0,3,0,10000,0,0,0,
2026-04-02 23:30:00,METAR VVCI 022330Z 16005KT 9999 SCT013 BKN016 OVC018 26/23 Q1007 NOSIG,0,5,0,10000,0,0,0,
2026-04-02 23:00:00,METAR VVCI 022300Z 17007KT 9999 BKN013 OVC019 26/23 Q1007 NOSIG,0,7,0,10000,0,0,0,
2026-04-02 22:30:00,METAR VVCI 022230Z 16005KT 120V190 9999 FEW012 OVC014 26/23 Q1007 NOSIG,0,5,0,10000,0,0,0,
2026-04-02 22:00:00,METAR VVCI 022200Z 17005KT 110V210 9999 BKN011 OVC014 25/23 Q1006 NOSIG,0,5,0,10000,0,0,0,
2026-04-02 21:30:00,METAR VVCI 022130Z 13003KT 100V170 9999 SCT011 BKN013 25/23 Q1006 NOSIG,0,3,0,10000,0,0,0,
2026-04-02 21:00:00,METAR VVCI 022100Z 19004KT 160V220 9999 BKN014 25/23 Q1006 NOSIG,0,4,0,10000,0,0,0,
2026-04-02 20:30:00,METAR VVCI 022030Z 18005KT 150V220 9999 SCT015 BKN017 25/23 Q1006 NOSIG,0,5,0,10000,0,0,0,
2026-04-02 20:00:00,METAR VVCI 022000Z 14006KT 9999 SCT014 SCT021 25/23 Q1006 NOSIG,0,6,0,10000,0,0,0,
2026-04-02 19:30:00,METAR VVCI 021930Z 14005KT 9999 BKN016 25/23 Q1007 NOSIG,0,5,0,10000,0,0,0,
2026-04-02 19:00:00,METAR VVCI 021900Z 07003KT 050V120 9000 FEW014 BKN016 25/23 Q1008 NOSIG,0,3,0,9000,0,0,0,
2026-04-02 18:30:00,METAR VVCI 021830Z 07003KT 050V110 9999 BKN016 25/23 Q1008 NOSIG,0,3,0,10000,0,0,0,
2026-04-02 18:00:00,METAR VVCI 021800Z 14003KT 100V160 9999 BKN016 25/23 Q1008 NOSIG,0,3,0,10000,0,0,0,
2026-04-02 17:30:00,METAR VVCI 021730Z 15004KT 120V180 9999 FEW015 SCT017 25/23 Q1008 NOSIG,0,4,0,10000,0,0,0,
2026-04-02 17:00:00,METAR VVCI 021700Z 12004KT 9999 SCT017 25/23 Q1008 NOSIG,0,4,0,10000,0,0,0,
2026-04-02 16:30:00,METAR VVCI 021630Z 09003KT 9999 BKN016 25/23 Q1009 NOSIG,0,3,0,10000,0,0,0,
2026-04-02 16:00:00,METAR VVCI 021600Z 10003KT 080V140 9999 BKN016 25/23 Q1009 NOSIG,0,3,0,10000,0,0,0,
2026-04-02 15:30:00,METAR VVCI 021530Z 14004KT 9999 FEW016 SCT019 25/23 Q1009 NOSIG,0,4,0,10000,0,0,0,
2026-04-02 15:00:00,METAR VVCI 021500Z 11004KT 9000 SCT021 SCT025 25/23 Q1009 NOSIG,0,4,0,9000,0,0,0,
2026-04-02 14:30:00,METAR VVCI 021430Z 13004KT 9000 NSC 25/23 Q1009 NOSIG,0,4,0,9000,0,0,0,
2026-04-02 14:00:00,METAR VVCI 021400Z 14004KT 100V170 9999 SCT013 25/23 Q1009 NOSIG,0,4,0,10000,0,0,0,
2026-04-02 13:30:00,METAR VVCI 021330Z 15006KT 9999 BKN013 BKN015 BKN024 25/23 Q1009 NOSIG,0,6,0,10000,0,0,0,
2026-04-02 13:00:00,METAR VVCI 021300Z 13004KT 100V160 8000 FEW009 BKN012 OVC024 25/23 Q1008 NOSIG,0,4,0,8000,0,0,0,
2026-04-02 12:30:00,METAR VVCI 021230Z 12005KT 7000 -RA SCT009 BKN011 OVC015 25/23 Q1008 TEMPO 4500 -RA BR,0,5,0,7000,0,0,1,"-RA,BR"
2026-04-02 12:00:00,METAR VVCI 021200Z 14006KT 100V160 7000 -RA OVC011 25/23 Q1007 NOSIG,0,6,0,7000,0,0,0,-RA
2026-04-02 11:30:00,METAR VVCI 021130Z 13005KT 100V160 9999 BKN012 OVC016 25/23 Q1007 NOSIG,0,5,0,10000,0,0,0,
2026-04-02 11:00:00,METAR VVCI 021100Z 12006KT 9999 SCT011 BKN014 OVC019 25/23 Q1007 NOSIG,0,6,0,10000,0,0,0,
2026-04-02 10:30:00,METAR VVCI 021030Z 13007KT 9999 FEW010 BKN020 OVC027 25/23 Q1007 NOSIG,0,7,0,10000,0,0,0,
2026-04-02 10:00:00,METAR VVCI 021000Z 12008KT 9999 SCT011 OVC029 25/22 Q1006 NOSIG,0,8,0,10000,0,0,0,
2026-04-02 09:30:00,METAR VVCI 020930Z 13009KT 9999 FEW011 SCT013 OVC027 26/22 Q1006 NOSIG,0,9,0,10000,0,0,0,
2026-04-02 09:00:00,METAR VVCI 020900Z 13009KT 100V160 9999 FEW014 OVC029 26/22 Q1006 NOSIG,0,9,0,10000,0,0,0,
2026-04-02 08:30:00,METAR VVCI 020830Z 12007KT 9999 FEW014 OVC028 26/22 Q1007 NOSIG,0,7,0,10000,0,0,0,
2026-04-02 08:00:00,METAR VVCI 020800Z 13008KT 9999 SCT013 BKN017 BKN029 26/22 Q1007 NOSIG,0,8,0,10000,0,0,0,
2026-04-02 07:30:00,METAR VVCI 020730Z 14009KT 9999 SCT014 BKN018 BKN028 26/22 Q1007 NOSIG,0,9,0,10000,0,0,0,
2026-04-02 02:30:00,METAR VVCI 020230Z 10004KT 050V140 7000 SCT008 BKN012 OVC027 25/22 Q1012 NOSIG,0,4,0,7000,0,0,0,
2026-04-02 02:00:00,METAR VVCI 020200Z 12003KT 070V180 7000 BKN007 OVC025 24/22 Q1012 NOSIG,0,3,0,7000,0,0,0,
2026-04-02 01:30:00,METAR VVCI 020130Z 10004KT 5000 -RA SCT007 BKN015 OVC018 24/22 Q1012 NOSIG,0,4,0,5000,0,0,0,-RA
2026-04-02 01:00:00,METAR VVCI 020100Z 14006KT 6000 -RA FEW010 BKN013 OVC018 24/21 Q1012 NOSIG,0,6,0,6000,0,0,0,-RA
2026-04-02 00:30:00,METAR VVCI 020030Z 13005KT 090V170 8000 -RA FEW013 OVC016 24/21 Q1012 NOSIG,0,5,0,8000,0,0,0,-RA
2026-04-02 00:00:00,METAR VVCI 020000Z VRB02KT 9999 FEW018 BKN021 OVC025 24/20 Q1011 NOSIG,0,2,0,10000,0,0,0,
2026-04-01 23:30:00,METAR VVCI 012330Z 12005KT 9999 FEW018 OVC027 24/20 Q1011 NOSIG,0,5,0,10000,0,0,0,
2026-04-01 23:00:00,METAR VVCI 012300Z 14005KT 9999 SCT019 OVC027 24/21 Q1010 NOSIG,0,5,0,10000,0,0,0,
2026-04-01 22:30:00,METAR VVCI 012230Z 14005KT 9999 FEW019 OVC027 24/21 Q1010 NOSIG,0,5,0,10000,0,0,0,
2026-04-01 22:00:00,METAR VVCI 012200Z 14005KT 9999 BKN018 OVC028 24/21 Q1010 NOSIG,0,5,0,10000,0,0,0,
2026-04-01 21:30:00,METAR VVCI 012130Z 14005KT 9999 BKN018 OVC028 24/21 Q1010 NOSIG,0,5,0,10000,0,0,0,
2026-04-01 21:00:00,METAR VVCI 012100Z 15006KT 120V180 9999 OVC021 24/20 Q1010 NOSIG,0,6,0,10000,0,0,0,
2026-04-01 20:30:00,METAR VVCI 012030Z 15005KT 9999 OVC020 24/20 Q1010 NOSIG,0,5,0,10000,0,0,0,
2026-04-01 20:00:00,METAR VVCI 012000Z 14005KT 9999 OVC020 24/20 Q1010 NOSIG,0,5,0,10000,0,0,0,
2026-04-01 19:30:00,METAR VVCI 011930Z 12004KT 9999 OVC021 24/20 Q1010 NOSIG,0,4,0,10000,0,0,0,
2026-04-01 19:00:00,METAR VVCI 011900Z 12005KT 9999 OVC021 24/20 Q1011 NOSIG,0,5,0,10000,0,0,0,
2026-04-01 18:30:00,METAR VVCI 011830Z VRB02KT 9999 SCT020 OVC023 24/20 Q1011 NOSIG,0,2,0,10000,0,0,0,
2026-04-01 18:00:00,METAR VVCI 011800Z 00000KT 9999 OVC022 24/20 Q1011 NOSIG,0,0,0,10000,0,0,0,
2026-04-01 17:30:00,METAR VVCI 011730Z 35003KT 310V070 9999 BKN023 24/20 Q1012 NOSIG,0,3,0,10000,0,0,0,
2026-04-01 17:00:00,METAR VVCI 011700Z 11005KT CAVOK 24/20 Q1011 NOSIG,1,0,0,9999,0,0,0,
2026-04-01 16:30:00,METAR VVCI 011630Z 11004KT 9999 FEW024 24/20 Q1012 NOSIG,0,4,0,10000,0,0,0,
2026-04-01 16:00:00,METAR VVCI 011600Z COR 12003KT 9999 FEW045 24/20 Q1012 NOSIG,0,3,0,10000,0,0,0,
2026-04-01 15:30:00,METAR VVCI 011530Z 13004KT 9999 FEW044 24/21 Q1012 NOSIG,0,4,0,10000,0,0,0,
2026-04-01 15:00:00,METAR VVCI 011500Z 13006KT 9999 FEW040 25/21 Q1012 NOSIG,0,6,0,10000,0,0,0,
2026-04-01 14:00:00,METAR VVCI 011400Z 14006KT 9999 BKN024 OVC039 25/21 Q1011 NOSIG,0,6,0,10000,0,0,0,
2026-04-01 13:30:00,METAR VVCI 011330Z 14007KT 110V170 9999 OVC023 25/21 Q1011 NOSIG,0,7,0,10000,0,0,0,
2026-04-01 13:00:00,METAR VVCI 011300Z 15008KT 9999 OVC024 25/21 Q1011 NOSIG,0,8,0,10000,0,0,0,
2026-04-01 12:30:00,METAR VVCI 011230Z 14008KT 9999 OVC024 25/21 Q1010 NOSIG,0,8,0,10000,0,0,0,
2026-04-01 12:00:00,METAR VVCI 011200Z 14006KT 9999 SCT025 OVC041 25/20 Q1010 NOSIG,0,6,0,10000,0,0,0,
2026-04-01 11:30:00,METAR VVCI 011130Z 14006KT 9999 OVC042 25/20 Q1009 NOSIG,0,6,0,10000,0,0,0,
2026-04-01 11:00:00,METAR VVCI 011100Z 13008KT 9999 BKN041 26/19 Q1009 NOSIG,0,8,0,10000,0,0,0,
2026-04-01 10:30:00,METAR VVCI 011030Z 16008KT 9999 FEW042 26/19 Q1009 NOSIG,0,8,0,10000,0,0,0,
2026-04-01 10:00:00,METAR VVCI 011000Z 15008KT 9999 FEW042 26/19 Q1009 NOSIG,0,8,0,10000,0,0,0,
2026-04-01 09:30:00,METAR VVCI 010930Z 13007KT 9999 SCT042 26/19 Q1009 NOSIG,0,7,0,10000,0,0,0,
2026-04-01 09:00:00,METAR VVCI 010900Z 14008KT 9999 SCT043 26/19 Q1009 NOSIG,0,8,0,10000,0,0,0,
2026-04-01 08:30:00,METAR VVCI 010830Z 14008KT 9999 BKN045 27/20 Q1009 NOSIG,0,8,0,10000,0,0,0,
2026-04-01 08:00:00,METAR VVCI 010800Z 15008KT 9999 OVC043 27/19 Q1009 NOSIG,0,8,0,10000,0,0,0,
2026-04-01 07:30:00,METAR VVCI 010730Z 15008KT 9999 BKN043 28/19 Q1010 NOSIG,0,8,0,10000,0,0,0,
2026-04-01 07:00:00,METAR VVCI 010700Z 15003KT 080V210 9999 FEW043 28/19 Q1010 NOSIG,0,3,0,10000,0,0,0,
2026-04-01 06:30:00,METAR VVCI 010630Z VRB04KT CAVOK 29/18 Q1011 NOSIG,1,0,0,9999,0,0,0,
2026-04-01 06:00:00,METAR VVCI 010600Z 10005KT 040V210 CAVOK 29/18 Q1011 NOSIG,1,0,0,9999,0,0,0,
2026-04-01 05:30:00,METAR VVCI 010530Z 09005KT 020V130 CAVOK 28/17 Q1012 NOSIG,1,0,0,9999,0,0,0,
2026-04-01 05:00:00,METAR VVCI 010500Z 10005KT 010V120 CAVOK 28/17 Q1013 NOSIG,1,0,0,9999,0,0,0,
2026-04-01 04:30:00,METAR VVCI 010430Z 08006KT 030V130 CAVOK 28/17 Q1013 NOSIG,1,0,0,9999,0,0,0,
2026-04-01 04:00:00,METAR VVCI 010400Z 11006KT 080V140 9999 FEW036 27/18 Q1013 NOSIG,0,6,0,10000,0,0,0,
2026-04-01 03:30:00,METAR VVCI 010330Z 07004KT 010V160 9999 FEW035 27/17 Q1014 NOSIG,0,4,0,10000,0,0,0,
2026-04-01 03:00:00,METAR VVCI 010300Z 11005KT 080V150 9999 BKN034 27/18 Q1014 NOSIG,0,5,0,10000,0,0,0,
2026-04-01 02:30:00,METAR VVCI 010230Z 04003KT 350V100 CAVOK 27/19 Q1014 NOSIG,1,0,0,9999,0,0,0,
2026-04-01 02:00:00,METAR VVCI 010200Z 05004KT 020V090 CAVOK 27/19 Q1014 NOSIG,1,0,0,9999,0,0,0,
2026-04-01 01:30:00,METAR VVCI 010130Z 05006KT 020V080 CAVOK 26/18 Q1013 NOSIG,1,0,0,9999,0,0,0,
2026-04-01 01:00:00,METAR VVCI 010100Z 04007KT 010V080 CAVOK 25/18 Q1013 NOSIG,1,0,0,9999,0,0,0,
2026-04-01 00:30:00,METAR VVCI 010030Z 06009KT CAVOK 25/18 Q1012 NOSIG,1,0,0,9999,0,0,0,
2026-04-01 00:00:00,METAR VVCI 010000Z 08006KT CAVOK 24/18 Q1012 NOSIG,1,0,0,9999,0,0,0,
2026-03-31 23:30:00,METAR VVCI 312330Z 08008KT CAVOK 24/17 Q1011 NOSIG,1,0,0,9999,0,0,0,
2026-03-31 23:00:00,METAR VVCI 312300Z 06005KT CAVOK 25/17 Q1011 NOSIG,1,0,0,9999,0,0,0,
2026-03-31 22:30:00,METAR VVCI 312230Z 06005KT CAVOK 25/17 Q1011 NOSIG,1,0,0,9999,0,0,0,
2026-03-31 22:00:00,METAR VVCI 312200Z 09006KT CAVOK 25/19 Q1010 NOSIG,1,0,0,9999,0,0,0,
2026-03-31 21:30:00,METAR VVCI 312130Z 09006KT CAVOK 25/19 Q1010 NOSIG,1,0,0,9999,0,0,0,
2026-03-31 21:00:00,METAR VVCI 312100Z 04003KT 010V070 CAVOK 25/19 Q1010 NOSIG,1,0,0,9999,0,0,0,
2026-03-31 20:30:00,METAR VVCI 312030Z 04003KT 010V070 CAVOK 25/19 Q1010 NOSIG,1,0,0,9999,0,0,0,
2026-03-31 20:00:00,METAR VVCI 312000Z 07006KT CAVOK 25/19 Q1009 NOSIG,1,0,0,9999,0,0,0,
2026-03-31 19:30:00,METAR VVCI 311930Z 07006KT CAVOK 25/19 Q1009 NOSIG,1,0,0,9999,0,0,0,
2026-03-31 19:00:00,METAR VVCI 311900Z 07008KT CAVOK 26/19 Q1009 NOSIG,1,0,0,9999,0,0,0,
2026-03-31 18:30:00,METAR VVCI 311830Z 07008KT CAVOK 26/19 Q1009 NOSIG,1,0,0,9999,0,0,0,
2026-03-31 18:00:00,METAR VVCI 311800Z 08009KT CAVOK 26/20 Q1009 NOSIG,1,0,0,9999,0,0,0,
2026-03-31 17:00:00,METAR VVCI 311700Z 09009KT CAVOK 26/19 Q1009 NOSIG,1,0,0,9999,0,0,0,
2026-03-31 16:30:00,METAR VVCI 311630Z 08011KT CAVOK 26/21 Q1009 NOSIG,1,0,0,9999,0,0,0,
2026-03-31 16:00:00,METAR VVCI 311600Z 08012KT 9999 FEW016 26/22 Q1009 NOSIG,0,12,0,9999,0,0,0,
2026-03-31 15:30:00,METAR VVCI 311530Z 09012KT CAVOK 27/23 Q1008 NOSIG,1,0,0,9999,0,0,0,
2026-03-31 15:00:00,METAR VVCI 311500Z 08009KT CAVOK 27/23 Q1008 NOSIG,1,0,0,9999,0,0,0,
2026-03-31 14:30:00,METAR VVCI 311430Z 10005KT CAVOK 27/23 Q1008 NOSIG,1,0,0,9999,0,0,0,
2026-03-31 14:00:00,METAR VVCI 311400Z 09006KT CAVOK 26/23 Q1008 NOSIG,1,0,0,9999,0,0,0,
2026-03-31 13:30:00,METAR VVCI 311330Z 11005KT CAVOK 27/24 Q1007 NOSIG,1,0,0,9999,0,0,0,
2026-03-31 13:00:00,METAR VVCI 311300Z 11006KT CAVOK 27/23 Q1007 NOSIG,1,0,0,9999,0,0,0,
2026-03-31 12:30:00,METAR VVCI 311230Z 09005KT CAVOK 26/23 Q1006 NOSIG,1,0,0,9999,0,0,0,
2026-03-31 12:00:00,METAR VVCI 311200Z 09005KT CAVOK 27/23 Q1006 NOSIG,1,0,0,9999,0,0,0,
2026-03-31 11:30:00,METAR VVCI 311130Z 11004KT CAVOK 27/23 Q1006 NOSIG,1,0,0,9999,0,0,0,
2026-03-31 11:00:00,METAR VVCI 311100Z 10005KT CAVOK 27/23 Q1005 NOSIG,1,0,0,9999,0,0,0,
2026-03-31 10:30:00,METAR VVCI 311030Z 11005KT 080V140 CAVOK 27/24 Q1005 NOSIG,1,0,0,9999,0,0,0,
2026-03-31 10:00:00,METAR VVCI 311000Z 11005KT 9999 FEW014 28/23 Q1005 NOSIG,0,5,0,9999,0,0,0,
2026-03-31 09:30:00,METAR VVCI 310930Z 10006KT 9999 FEW013 28/24 Q1004 NOSIG,0,6,0,9999,0,0,0,
2026-03-31 09:00:00,METAR VVCI 310900Z 11006KT 9999 BKN014 28/24 Q1004 NOSIG,0,6,0,9999,0,0,0,
2026-03-31 08:30:00,METAR VVCI 310830Z 10007KT 9999 FEW012 SCT014 28/24 Q1004 NOSIG,0,7,0,9999,0,0,0,
2026-03-31 08:00:00,METAR VVCI 310800Z 11006KT 070V140 9999 SCT013 SCT015 28/24 Q1004 NOSIG,0,6,0,9999,0,0,0,
2026-03-31 07:30:00,METAR VVCI 310730Z 12007KT 9999 SCT013 BKN016 28/25 Q1005 NOSIG,0,7,0,9999,0,0,0,
2026-03-31 07:00:00,METAR VVCI 310700Z 13007KT 100V160 9999 FEW011 SCT014 28/25 Q1005 NOSIG,0,7,0,9999,0,0,0,
2026-03-31 06:30:00,METAR VVCI 310630Z 16009KT 120V190 9999 SCT015 BKN018 28/24 Q1006 NOSIG,0,9,0,9999,0,0,0,
2026-03-31 05:30:00,METAR VVCI 310530Z 15009KT 9999 SCT012 BKN014 29/24 Q1007 NOSIG,0,9,0,9999,0,0,0,
2026-03-31 05:00:00,METAR VVCI 310500Z 17009KT 140V200 9999 FEW011 BKN013 28/24 Q1007 NOSIG,0,9,0,9999,0,0,0,
2026-03-31 04:30:00,METAR VVCI 310430Z 15008KT 9999 SCT012 BKN014 28/24 Q1007 NOSIG,0,8,0,9999,0,0,0,
2026-03-31 04:00:00,METAR VVCI 310400Z 16008KT 130V190 9999 SCT011 BKN014 28/24 Q1008 NOSIG,0,8,0,9999,0,0,0,
2026-03-31 03:30:00,METAR VVCI 310330Z 16009KT 130V190 9999 BKN013 28/24 Q1008 NOSIG,0,9,0,9999,0,0,0,
2026-03-31 03:00:00,METAR VVCI 310300Z 16007KT 120V190 9999 BKN014 BKN017 27/24 Q1009 NOSIG,0,7,0,9999,0,0,0,
2026-03-31 02:30:00,METAR VVCI 310230Z 13006KT 9999 BKN012 BKN014 27/24 Q1009 NOSIG,0,6,0,9999,0,0,0,
2026-03-31 02:00:00,METAR VVCI 310200Z 12008KT 9999 SCT012 BKN014 27/24 Q1009 NOSIG,0,8,0,9999,0,0,0,
2026-03-31 01:30:00,METAR VVCI 310130Z 13006KT 100V160 9999 OVC012 27/24 Q1009 NOSIG,0,6,0,9999,0,0,0,
2026-03-31 01:00:00,METAR VVCI 310100Z 13007KT 9999 OVC011 26/24 Q1008 NOSIG,0,7,0,9999,0,0,0,
2026-03-31 00:30:00,METAR VVCI 310030Z 13006KT 9999 BKN012 26/24 Q1008 NOSIG,0,6,0,9999,0,0,0,
2026-03-31 00:00:00,METAR VVCI 310000Z 14006KT 9999 OVC012 26/24 Q1007 NOSIG,0,6,0,9999,0,0,0,
2026-03-30 23:30:00,METAR VVCI 302330Z 13006KT 9999 SCT011 BKN013 26/24 Q1007 NOSIG,0,6,0,10000,0,0,0,
2026-03-30 23:00:00,METAR VVCI 302300Z 13006KT 9999 FEW010 BKN012 25/24 Q1007 NOSIG,0,6,0,10000,0,0,0,
2026-03-30 22:30:00,METAR VVCI 302230Z 12005KT 9999 BKN012 25/24 Q1006 NOSIG,0,5,0,10000,0,0,0,
2026-03-30 22:00:00,METAR VVCI 302200Z 12005KT 9999 FEW010 BKN012 25/24 Q1006 NOSIG,0,5,0,10000,0,0,0,
2026-03-30 21:30:00,METAR VVCI 302130Z 12005KT 9999 SCT011 SCT013 25/24 Q1006 NOSIG,0,5,0,10000,0,0,0,
2026-03-30 21:00:00,METAR VVCI 302100Z 13005KT 9999 FEW012 25/23 Q1006 NOSIG,0,5,0,10000,0,0,0,
2026-03-30 20:30:00,METAR VVCI 302030Z 13005KT 9999 SCT012 25/23 Q1006 NOSIG,0,5,0,10000,0,0,0,
2026-03-30 20:00:00,METAR VVCI 302000Z 13004KT 9999 BKN014 25/23 Q1006 NOSIG,0,4,0,10000,0,0,0,
2026-03-30 19:30:00,METAR VVCI 301930Z 15005KT 9999 BKN013 26/23 Q1006 NOSIG,0,5,0,10000,0,0,0,
2026-03-30 19:00:00,METAR VVCI 301900Z 15005KT 9999 BKN012 BKN016 26/23 Q1006 NOSIG,0,5,0,10000,0,0,0,
2026-03-30 18:30:00,METAR VVCI 301830Z 15006KT 9999 FEW011 BKN013 26/24 Q1007 NOSIG,0,6,0,10000,0,0,0,
2026-03-30 18:00:00,METAR VVCI 301800Z 14006KT 110V170 9999 BKN011 BKN018 26/24 Q1007 NOSIG,0,6,0,10000,0,0,0,
2026-03-30 17:30:00,METAR VVCI 301730Z 15005KT 9999 BKN012 BKN016 26/23 Q1007 NOSIG,0,5,0,10000,0,0,0,
2026-03-30 17:00:00,METAR VVCI 301700Z 15007KT 9999 BKN014 26/24 Q1007 NOSIG,0,7,0,10000,0,0,0,
2026-03-30 16:30:00,METAR VVCI 301630Z 14005KT 9999 BKN014 BKN020 26/24 Q1008 NOSIG,0,5,0,10000,0,0,0,
2026-03-30 16:00:00,METAR VVCI 301600Z 14004KT 100V170 9999 OVC013 26/24 Q1008 NOSIG,0,4,0,10000,0,0,0,
2026-03-30 15:30:00,METAR VVCI 301530Z 12004KT 9999 BKN013 26/24 Q1008 NOSIG,0,4,0,10000,0,0,0,
2026-03-30 15:00:00,METAR VVCI 301500Z 12004KT 9999 BKN012 26/24 Q1007 NOSIG,0,4,0,10000,0,0,0,
2026-03-30 14:30:00,METAR VVCI 301430Z 12004KT 9999 BKN012 26/24 Q1007 NOSIG,0,4,0,10000,0,0,0,
2026-03-30 14:00:00,METAR VVCI 301400Z 12004KT 9999 BKN012 26/24 Q1007 NOSIG,0,4,0,10000,0,0,0,
2026-03-30 13:30:00,METAR VVCI 301330Z 12005KT 9999 BKN012 26/24 Q1006 NOSIG,0,5,0,10000,0,0,0,
2026-03-30 13:00:00,METAR VVCI 301300Z 13004KT 100V160 9999 BKN012 26/24 Q1006 NOSIG,0,4,0,10000,0,0,0,
2026-03-30 12:30:00,METAR VVCI 301230Z 15006KT 120V180 9999 BKN013 26/24 Q1006 NOSIG,0,6,0,10000,0,0,0,
2026-03-30 12:00:00,METAR VVCI 301200Z 16007KT 9999 BKN013 26/24 Q1005 NOSIG,0,7,0,10000,0,0,0,
2026-03-30 11:30:00,METAR VVCI 301130Z 16007KT 9999 BKN013 26/23 Q1005 NOSIG,0,7,0,10000,0,0,0,
2026-03-30 11:00:00,METAR VVCI 301100Z 15008KT 130V190 9999 OVC013 26/23 Q1005 NOSIG,0,8,0,10000,0,0,0,
2026-03-30 10:30:00,METAR VVCI 301030Z 15009KT 130V190 9999 SCT012 BKN014 26/23 Q1005 NOSIG,0,9,0,10000,0,0,0,
2026-03-30 10:00:00,METAR VVCI 301000Z 15009KT 9999 BKN013 OVC018 27/23 Q1004 NOSIG,0,9,0,10000,0,0,0,
2026-03-30 09:30:00,METAR VVCI 300930Z 15011KT 9999 SCT012 BKN016 OVC019 27/23 Q1004 NOSIG,0,11,0,10000,0,0,0,
2026-03-30 09:00:00,METAR VVCI 300900Z 16010KT 130V190 9999 BKN014 BKN016 27/24 Q1004 NOSIG,0,10,0,10000,0,0,0,
2026-03-30 08:30:00,METAR VVCI 300830Z 16011KT 9999 BKN014 BKN018 BKN021 27/24 Q1005 NOSIG,0,11,0,10000,0,0,0,
2026-03-30 08:00:00,METAR VVCI 300800Z 16012KT 9999 BKN013 OVC019 27/24 Q1005 NOSIG,0,12,0,10000,0,0,0,
2026-03-30 07:30:00,METAR VVCI 300730Z 16012KT 9999 BKN013 OVC019 27/24 Q1005 NOSIG,0,12,0,10000,0,0,0,
2026-03-30 07:00:00,METAR VVCI 300700Z 16011KT 9999 SCT011 BKN013 OVC020 27/24 Q1006 NOSIG,0,11,0,10000,0,0,0,
2026-03-30 06:30:00,METAR VVCI 300630Z 16011KT 9999 SCT011 BKN013 OVC020 27/24 Q1006 NOSIG,0,11,0,10000,0,0,0,
2026-03-30 06:00:00,METAR VVCI 300600Z 17012KT 140V200 9999 BKN014 BKN018 27/24 Q1007 NOSIG,0,12,0,10000,0,0,0,
2026-03-30 05:30:00,METAR VVCI 300530Z 17014KT 140V200 9999 BKN013 BKN018 28/24 Q1008 NOSIG,0,14,0,10000,0,0,0,
2026-03-30 05:00:00,METAR VVCI 300500Z 17014KT 9999 FEW011 BKN013 28/24 Q1008 NOSIG,0,14,0,10000,0,0,0,
2026-03-30 04:30:00,METAR VVCI 300430Z 16014KT 130V190 9999 SCT010 BKN013 BKN017 28/24 Q1009 NOSIG,0,14,0,10000,0,0,0,
2026-03-30 04:00:00,METAR VVCI 300400Z 16012KT 9999 SCT010 BKN014 BKN017 28/24 Q1009 NOSIG,0,12,0,10000,0,0,0,
2026-03-30 03:30:00,METAR VVCI 300330Z 14013KT 9999 SCT010 BKN012 BKN018 27/24 Q1009 NOSIG,0,13,0,10000,0,0,0,
2026-03-30 03:00:00,METAR VVCI 300300Z 13011KT 9999 BKN011 BKN015 27/24 Q1009 NOSIG,0,11,0,10000,0,0,0,
2026-03-30 02:30:00,METAR VVCI 300230Z 12011KT 9999 SCT011 BKN017 27/24 Q1009 NOSIG,0,11,0,10000,0,0,0,
2026-03-30 02:00:00,METAR VVCI 300200Z 10006KT 9999 SCT011 BKN017 BKN025 26/24 Q1010 NOSIG,0,6,0,10000,0,0,0,
2026-03-30 01:30:00,METAR VVCI 300130Z 13006KT 9999 FEW011 SCT013 26/24 Q1009 NOSIG,0,6,0,10000,0,0,0,
2026-03-30 01:00:00,METAR VVCI 300100Z 10005KT 9999 FEW011 26/24 Q1009 NOSIG,0,5,0,10000,0,0,0,
2026-03-30 00:30:00,METAR VVCI 300030Z 11005KT 080V140 8000 FEW014 26/24 Q1008 NOSIG,0,5,0,8000,0,0,0,
2026-03-30 00:00:00,METAR VVCI 300000Z 11005KT 060V140 6000 FEW013 SCT024 25/24 Q1007 NOSIG,0,5,0,6000,0,0,0,
2026-03-29 23:30:00,METAR VVCI 292330Z 06003KT 9000 BKN026 25/24 Q1008 NOSIG,0,3,0,9000,0,0,0,
2026-03-29 23:00:00,METAR VVCI 292300Z 16004KT 140V200 9999 SCT026 25/23 Q1007 NOSIG,0,4,0,10000,0,0,0,
2026-03-29 22:30:00,METAR VVCI 292230Z 17001KT 9999 FEW024 25/23 Q1007 NOSIG,0,1,0,10000,0,0,0,
2026-03-29 22:00:00,METAR VVCI 292200Z 19005KT 9999 FEW018 BKN021 25/23 Q1007 NOSIG,0,5,0,10000,0,0,0,
2026-03-29 21:30:00,METAR VVCI 292130Z VRB02KT 9999 FEW012 BKN015 BKN018 26/23 Q1007 NOSIG,0,2,0,10000,0,0,0,
2026-03-29 21:00:00,METAR VVCI 292100Z 30010KT 260V320 9999 FEW012 26/23 Q1007 NOSIG,0,10,0,10000,0,0,0,
2026-03-29 20:30:00,METAR VVCI 292030Z 18013KT CAVOK 25/23 Q1005 NOSIG,1,0,0,9999,0,0,0,
2026-03-29 20:00:00,METAR VVCI 292000Z 16012KT CAVOK 25/24 Q1005 NOSIG,1,0,0,9999,0,0,0,
2026-03-29 19:30:00,METAR VVCI 291930Z 17008KT 140V200 9999 FEW009 25/24 Q1006 NOSIG,0,8,0,10000,0,0,0,
2026-03-29 19:00:00,METAR VVCI 291900Z 23007KT 210V270 9000 -RA SCT010 BKN018 OVC022 26/24 Q1008 NOSIG,0,7,0,9000,0,0,0,-RA
2026-03-29 18:30:00,METAR VVCI 291830Z 16007KT 130V190 9999 FEW011 SCT014 BKN018 26/24 Q1007 NOSIG,0,7,0,10000,0,0,0,
2026-03-29 18:00:00,METAR VVCI 291800Z 19005KT 9999 BKN010 BKN017 26/24 Q1008 NOSIG,0,5,0,10000,0,0,0,
2026-03-29 17:30:00,METAR VVCI 291730Z 17006KT 140V210 9999 BKN010 BKN018 26/24 Q1007 NOSIG,0,6,0,10000,0,0,0,
2026-03-29 17:00:00,METAR VVCI 291700Z 17009KT 9999 SCT010 BKN017 26/24 Q1007 NOSIG,0,9,0,10000,0,0,0,
2026-03-29 16:30:00,METAR VVCI 291630Z 18009KT 9999 SCT010 BKN017 26/24 Q1007 NOSIG,0,9,0,10000,0,0,0,
2026-03-29 16:00:00,METAR VVCI 291600Z 18006KT 9999 SCT010 BKN018 26/24 Q1008 NOSIG,0,6,0,10000,0,0,0,
2026-03-29 15:30:00,METAR VVCI 291530Z 16009KT 130V190 9999 FEW011 BKN018 26/24 Q1008 NOSIG,0,9,0,10000,0,0,0,
2026-03-29 15:00:00,METAR VVCI 291500Z 17010KT 9999 FEW012 BKN014 26/24 Q1008 NOSIG,0,10,0,10000,0,0,0,
2026-03-29 14:30:00,METAR VVCI 291430Z 16008KT 130V200 9999 BKN012 26/23 Q1008 NOSIG,0,8,0,10000,0,0,0,
2026-03-29 14:00:00,METAR VVCI 291400Z 16009KT 9999 FEW009 BKN015 26/24 Q1007 NOSIG,0,9,0,10000,0,0,0,
2026-03-29 13:30:00,METAR VVCI 291330Z 13007KT 9999 FEW010 BKN012 BKN018 26/24 Q1007 NOSIG,0,7,0,10000,0,0,0,
2026-03-29 13:00:00,METAR VVCI 291300Z 14007KT 100V160 9999 FEW010 BKN012 26/24 Q1007 NOSIG,0,7,0,10000,0,0,0,
2026-03-29 12:30:00,METAR VVCI 291230Z 15010KT 120V180 9999 -RA SCT011 BKN018 FEW025TCU 26/24 Q1007 NOSIG,0,10,0,10000,0,0,0,-RA
2026-03-29 12:00:00,METAR VVCI 291200Z 14009KT 9999 BKN012 26/24 Q1007 NOSIG,0,9,0,10000,0,0,0,
2026-03-29 11:30:00,METAR VVCI 291130Z 14009KT 110V170 9999 BKN012 26/23 Q1006 NOSIG,0,9,0,10000,0,0,0,
2026-03-29 11:00:00,METAR VVCI 291100Z 13011KT 9999 BKN013 26/23 Q1006 NOSIG,0,11,0,10000,0,0,0,
2026-03-29 10:30:00,METAR VVCI 291030Z 14011KT 9999 BKN014 26/23 Q1006 NOSIG,0,11,0,10000,0,0,0,
2026-03-29 10:00:00,METAR VVCI 291000Z 12011KT 9999 BKN016 26/23 Q1005 NOSIG,0,11,0,10000,0,0,0,
2026-03-29 09:30:00,METAR VVCI 290930Z 14012KT 9999 FEW019 26/22 Q1006 NOSIG,0,12,0,10000,0,0,0,
2026-03-29 09:00:00,METAR VVCI 290900Z 14013KT 9999 FEW019 27/23 Q1006 NOSIG,0,13,0,10000,0,0,0,
2026-03-29 08:30:00,METAR VVCI 290830Z 13014KT 9999 SCT017 28/23 Q1006 NOSIG,0,14,0,10000,0,0,0,
2026-03-29 08:00:00,METAR VVCI 290800Z 14013KT 110V170 9999 FEW013 SCT017 27/23 Q1006 NOSIG,0,13,0,10000,0,0,0,
2026-03-29 07:30:00,METAR VVCI 290730Z 14014KT 9999 FEW014 SCT020 OVC034 27/23 Q1007 NOSIG,0,14,0,10000,0,0,0,
2026-03-29 07:00:00,METAR VVCI 290700Z 16015KT 9999 SCT018 BKN027 28/23 Q1007 NOSIG,0,15,0,10000,0,0,0,
2026-03-29 06:30:00,METAR VVCI 290630Z 16016KT 9999 SCT015 OVC028 28/23 Q1008 NOSIG,0,16,0,10000,0,0,0,
2026-03-29 06:00:00,METAR VVCI 290600Z 16011KT 120V200 9999 SCT013 BKN021 OVC025 27/23 Q1009 NOSIG,0,11,0,10000,0,0,0,
2026-03-29 05:30:00,METAR VVCI 290530Z 17010KT 150V210 9999 BKN013 27/23 Q1010 NOSIG,0,10,0,10000,0,0,0,
2026-03-29 05:00:00,METAR VVCI 290500Z 17011KT 140V200 9999 -RA BKN014 OVC028 26/24 Q1010 NOSIG,0,11,0,10000,0,0,0,-RA
2026-03-29 04:30:00,METAR VVCI 290430Z 18011KT 9999 FEW014 BKN016 FEW022TCU OVC030 26/23 Q1010 NOSIG,0,11,0,10000,0,0,0,
2026-03-29 04:00:00,METAR VVCI 290400Z 16012KT 9999 SCT012 BKN015 FEW022TCU OVC026 27/23 Q1010 NOSIG,0,12,0,10000,0,0,0,
2026-03-29 03:30:00,METAR VVCI 290330Z 17012KT 9999 SCT013 BKN021 OVC031 27/23 Q1010 NOSIG,0,12,0,10000,0,0,0,
2026-03-29 03:00:00,METAR VVCI 290300Z 16013KT 9999 SCT012 OVC031 27/23 Q1011 NOSIG,0,13,0,10000,0,0,0,
2026-03-29 02:30:00,METAR VVCI 290230Z 16012KT 9999 FEW009 SCT012 OVC029 26/23 Q1011 NOSIG,0,12,0,10000,0,0,0,
2026-03-29 02:00:00,METAR VVCI 290200Z 15008KT 9999 FEW010 SCT014 OVC028 26/23 Q1011 NOSIG,0,8,0,10000,0,0,0,
2026-03-29 01:30:00,METAR VVCI 290130Z 14008KT 9999 FEW010 OVC028 26/23 Q1010 NOSIG,0,8,0,10000,0,0,0,
2026-03-29 01:00:00,METAR VVCI 290100Z 14008KT 9999 SCT010 OVC025 26/23 Q1010 NOSIG,0,8,0,10000,0,0,0,
2026-03-29 00:30:00,METAR VVCI 290030Z 15009KT 110V170 9999 -RA BKN011 OVC023 26/23 Q1009 NOSIG,0,9,0,10000,0,0,0,-RA
2026-03-29 00:00:00,METAR VVCI 290000Z 14009KT 9999 FEW010 BKN013 OVC028 26/23 Q1009 NOSIG,0,9,0,10000,0,0,0,
2026-03-28 23:30:00,METAR VVCI 282330Z 14007KT 9999 FEW009 SCT011 OVC027 26/23 Q1009 NOSIG,0,7,0,10000,0,0,0,
2026-03-28 23:00:00,METAR VVCI 282300Z 12007KT 9999 BKN011 OVC029 26/23 Q1008 NOSIG,0,7,0,10000,0,0,0,
2026-03-28 22:30:00,METAR VVCI 282230Z 12007KT 9999 BKN011 OVC028 26/23 Q1008 NOSIG,0,7,0,10000,0,0,0,
2026-03-28 22:00:00,METAR VVCI 282200Z 13009KT 9999 SCT012 OVC028 26/23 Q1008 NOSIG,0,9,0,10000,0,0,0,
2026-03-28 21:30:00,METAR VVCI 282130Z 13009KT 9999 SCT013 OVC029 26/23 Q1007 NOSIG,0,9,0,10000,0,0,0,
2026-03-28 21:00:00,METAR VVCI 282100Z 12006KT 9999 SCT015 BKN018 OVC030 26/22 Q1007 NOSIG,0,6,0,10000,0,0,0,
2026-03-28 20:30:00,METAR VVCI 282030Z 11007KT 9999 SCT015 BKN021 BKN031 26/22 Q1007 NOSIG,0,7,0,10000,0,0,0,
2026-03-28 20:00:00,METAR VVCI 282000Z 12007KT 9999 FEW020 OVC024 26/22 Q1007 NOSIG,0,7,0,10000,0,0,0,
2026-03-28 19:30:00,METAR VVCI 281930Z 12009KT 9999 SCT019 BKN024 OVC028 26/22 Q1007 NOSIG,0,9,0,10000,0,0,0,
2026-03-28 19:00:00,METAR VVCI 281900Z 12008KT 9999 FEW020 OVC028 26/22 Q1007 NOSIG,0,8,0,10000,0,0,0,
2026-03-28 18:30:00,METAR VVCI 281830Z 12008KT 9999 FEW019 OVC026 26/22 Q1008 NOSIG,0,8,0,10000,0,0,0,
2026-03-28 18:00:00,METAR VVCI 281800Z 13008KT 9999 BKN022 OVC027 26/22 Q1008 NOSIG,0,8,0,10000,0,0,0,
2026-03-28 17:30:00,METAR VVCI 281730Z 14007KT 9999 BKN025 OVC036 25/22 Q1008 NOSIG,0,7,0,10000,0,0,0,
2026-03-28 17:00:00,METAR VVCI 281700Z 14008KT 9999 BKN033 BKN042 25/23 Q1009 NOSIG,0,8,0,10000,0,0,0,
2026-03-28 16:30:00,METAR VVCI 281630Z 14012KT 9999 FEW033 25/22 Q1008 NOSIG,0,12,0,10000,0,0,0,
2026-03-28 16:00:00,METAR VVCI 281600Z 11010KT 9999 FEW030 26/22 Q1008 NOSIG,0,10,0,10000,0,0,0,
2026-03-28 15:30:00,METAR VVCI 281530Z 14006KT 120V180 9999 SCT022 OVC030 26/23 Q1009 NOSIG,0,6,0,10000,0,0,0,
2026-03-28 15:00:00,METAR VVCI 281500Z 14003KT 110V230 9999 FEW025 OVC030 26/23 Q1010 NOSIG,0,3,0,10000,0,0,0,
2026-03-28 14:30:00,METAR VVCI 281430Z 14007KT 9999 FEW016 OVC029 26/23 Q1010 NOSIG,0,7,0,10000,0,0,0,
2026-03-28 14:00:00,METAR VVCI 281400Z 14007KT 110V170 9999 FEW015 OVC028 26/23 Q1010 NOSIG,0,7,0,10000,0,0,0,
2026-03-28 13:30:00,METAR VVCI 281330Z 15007KT 9999 SCT012 OVC030 26/23 Q1008 NOSIG,0,7,0,10000,0,0,0,
2026-03-28 13:00:00,METAR VVCI 281300Z 14008KT 9999 FEW012 SCT014 OVC030 26/23 Q1008 NOSIG,0,8,0,10000,0,0,0,
2026-03-28 12:30:00,METAR VVCI 281230Z 16006KT 130V190 9999 FEW014 OVC030 26/23 Q1008 NOSIG,0,6,0,10000,0,0,0,
2026-03-28 12:00:00,METAR VVCI 281200Z 15007KT 9999 SCT014 OVC030 26/23 Q1007 NOSIG,0,7,0,10000,0,0,0,
2026-03-28 11:30:00,METAR VVCI 281130Z 14007KT 110V170 9999 BKN015 BKN031 26/23 Q1007 NOSIG,0,7,0,10000,0,0,0,
2026-03-28 11:00:00,METAR VVCI 281100Z 15008KT 9999 BKN016 OVC028 26/23 Q1007 NOSIG,0,8,0,10000,0,0,0,
2026-03-28 10:30:00,METAR VVCI 281030Z 14006KT 9999 SCT017 BKN025 OVC030 26/23 Q1007 NOSIG,0,6,0,10000,0,0,0,
2026-03-28 10:00:00,METAR VVCI 281000Z 14008KT 9999 SCT017 BKN030 BKN044 26/23 Q1007 NOSIG,0,8,0,10000,0,0,0,
2026-03-28 09:30:00,METAR VVCI 280930Z 15008KT 9999 FEW016 BKN019 BKN030 27/23 Q1007 NOSIG,0,8,0,10000,0,0,0,
2026-03-28 09:00:00,METAR VVCI 280900Z 14009KT 9999 FEW017 BKN020 BKN046 27/23 Q1007 NOSIG,0,9,0,10000,0,0,0,
2026-03-28 08:30:00,METAR VVCI 280830Z 14010KT 110V170 9999 SCT020 BKN031 BKN044 27/22 Q1007 NOSIG,0,10,0,10000,0,0,0,
2026-03-28 08:00:00,METAR VVCI 280800Z 15009KT 9999 BKN019 BKN026 OVC032 27/22 Q1007 NOSIG,0,9,0,10000,0,0,0,
2026-03-28 07:30:00,METAR VVCI 280730Z 14009KT 9999 SCT019 OVC046 27/22 Q1008 NOSIG,0,9,0,10000,0,0,0,
2026-03-28 07:00:00,METAR VVCI 280700Z 13008KT 9999 FEW019 OVC028 27/23 Q1008 NOSIG,0,8,0,10000,0,0,0,
2026-03-28 06:30:00,METAR VVCI 280630Z 16011KT 130V190 9999 SCT023 OVC031 27/22 Q1008 NOSIG,0,11,0,10000,0,0,0,
2026-03-28 06:00:00,METAR VVCI 280600Z 16010KT 120V190 9999 FEW025 OVC031 27/22 Q1009 NOSIG,0,10,0,10000,0,0,0,
2026-03-28 05:30:00,METAR VVCI 280530Z 16010KT 9999 FEW025 OVC030 28/22 Q1009 NOSIG,0,10,0,10000,0,0,0,
2026-03-28 05:00:00,METAR VVCI 280500Z 17011KT 130V190 9999 SCT022 OVC030 28/22 Q1010 NOSIG,0,11,0,10000,0,0,0,
2026-03-28 04:30:00,METAR VVCI 280430Z 17010KT 9999 FEW019 BKN022 OVC028 27/22 Q1011 NOSIG,0,10,0,10000,0,0,0,
2026-03-28 04:00:00,METAR VVCI 280400Z 17010KT 9999 SCT019 BKN028 BKN034 28/23 Q1011 NOSIG,0,10,0,10000,0,0,0,
2026-03-28 03:30:00,METAR VVCI 280330Z 19004KT 150V230 9999 FEW017 BKN025 OVC032 26/23 Q1011 NOSIG,0,4,0,10000,0,0,0,
2026-03-28 03:00:00,METAR VVCI 280300Z 16005KT 9999 -RA FEW011 BKN020 OVC025 25/23 Q1011 NOSIG,0,5,0,10000,0,0,0,-RA
2026-03-28 02:30:00,METAR VVCI 280230Z 15004KT 120V180 8000 -RA FEW010 BKN014 OVC024 25/23 Q1012 NOSIG,0,4,0,8000,0,0,0,-RA
2026-03-28 02:00:00,METAR VVCI 280200Z 15004KT 120V180 8000 -RA SCT013 BKN015 OVC025 25/23 Q1012 NOSIG,0,4,0,8000,0,0,0,-RA
2026-03-28 01:30:00,METAR VVCI 280130Z 12005KT 9999 FEW015 OVC028 26/23 Q1011 NOSIG,0,5,0,10000,0,0,0,
2026-03-28 01:00:00,METAR VVCI 280100Z 12005KT 9999 FEW015 SCT025 OVC029 26/23 Q1011 NOSIG,0,5,0,10000,0,0,0,
2026-03-28 00:30:00,METAR VVCI 280030Z 13003KT 100V160 9999 FEW024 OVC030 26/23 Q1011 NOSIG,0,3,0,10000,0,0,0,
2026-03-28 00:00:00,METAR VVCI 280000Z 13005KT 9999 OVC030 25/23 Q1010 NOSIG,0,5,0,10000,0,0,0,
2026-03-27 23:00:00,METAR VVCI 272300Z 11005KT 9999 SCT017 SCT024 OVC032 25/22 Q1009 NOSIG,0,5,0,10000,0,0,0,
2026-03-27 22:30:00,METAR VVCI 272230Z 10004KT 9999 FEW015 BKN032 25/22 Q1009 NOSIG,0,4,0,10000,0,0,0,
2026-03-27 22:00:00,METAR VVCI 272200Z 10005KT 9999 FEW019 OVC031 25/22 Q1008 NOSIG,0,5,0,10000,0,0,0,
2026-03-27 21:30:00,METAR VVCI 272130Z 09003KT 9999 FEW021 BKN027 25/22 Q1008 NOSIG,0,3,0,10000,0,0,0,
2026-03-27 21:00:00,METAR VVCI 272100Z 09003KT 9999 FEW021 OVC027 25/22 Q1008 NOSIG,0,3,0,10000,0,0,0,
2026-03-27 20:30:00,METAR VVCI 272030Z 11004KT 9999 FEW024 BKN032 25/22 Q1008 NOSIG,0,4,0,10000,0,0,0,
2026-03-27 20:00:00,METAR VVCI 272000Z 12004KT 9999 FEW026 BKN031 25/22 Q1008 NOSIG,0,4,0,10000,0,0,0,
2026-03-27 19:30:00,METAR VVCI 271930Z 12004KT 9999 FEW026 BKN032 25/22 Q1008 NOSIG,0,4,0,10000,0,0,0,
2026-03-27 18:30:00,METAR VVCI 271830Z 11005KT 9999 SCT028 SCT032 25/23 Q1009 NOSIG,0,5,0,10000,0,0,0,
2026-03-27 18:00:00,METAR VVCI 271800Z 12005KT 9999 FEW028 SCT032 25/23 Q1009 NOSIG,0,5,0,10000,0,0,0,
2026-03-27 17:30:00,METAR VVCI 271730Z 12005KT 9999 FEW009 SCT029 BKN034 25/23 Q1009 NOSIG,0,5,0,10000,0,0,0,
2026-03-27 17:00:00,METAR VVCI 271700Z 13006KT 9999 FEW010 BKN034 25/23 Q1009 NOSIG,0,6,0,10000,0,0,0,
2026-03-27 16:30:00,METAR VVCI 271630Z 13006KT 9999 BKN029 BKN035 25/23 Q1010 NOSIG,0,6,0,10000,0,0,0,
2026-03-27 16:00:00,METAR VVCI 271600Z 14005KT 110V170 9999 FEW010 OVC035 25/23 Q1010 NOSIG,0,5,0,10000,0,0,0,
2026-03-25 15:00:00,METAR VVCI 251500Z 15004KT 9999 FEW012 25/22 Q1012 NOSIG,0,4,0,10000,0,0,0,
2026-03-25 14:30:00,METAR VVCI 251430Z 16005KT 9999 FEW013 25/22 Q1012 NOSIG,0,5,0,10000,0,0,0,
2026-03-25 14:00:00,METAR VVCI 251400Z 16005KT 130V190 9999 FEW012 SCT026 25/22 Q1011 NOSIG,0,5,0,10000,0,0,0,
2026-03-25 13:30:00,METAR VVCI 251330Z 16004KT 130V190 9999 FEW013 25/22 Q1011 NOSIG,0,4,0,10000,0,0,0,
2026-03-25 13:00:00,METAR VVCI 251300Z 15007KT 9999 FEW015 25/22 Q1011 NOSIG,0,7,0,10000,0,0,0,
2026-03-25 12:30:00,METAR VVCI 251230Z 14007KT 9999 FEW015 25/21 Q1010 NOSIG,0,7,0,10000,0,0,0,
2026-03-25 12:00:00,METAR VVCI 251200Z 14008KT 9999 FEW015 SCT017 25/22 Q1010 NOSIG,0,8,0,10000,0,0,0,
2026-03-25 11:30:00,METAR VVCI 251130Z 14008KT 110V170 CAVOK 25/22 Q1010 NOSIG,1,0,0,9999,0,0,0,
2026-03-25 11:00:00,METAR VVCI 251100Z 14008KT 110V170 9999 FEW026 25/22 Q1010 NOSIG,0,8,0,10000,0,0,0,
2026-03-25 10:30:00,METAR VVCI 251030Z 13008KT 9999 FEW025 26/21 Q1010 NOSIG,0,8,0,10000,0,0,0,
2026-03-25 10:00:00,METAR VVCI 251000Z 14009KT 110V170 9999 FEW026 26/21 Q1010 NOSIG,0,9,0,10000,0,0,0,
2026-03-25 09:30:00,METAR VVCI 250930Z 14010KT 9999 FEW026 27/21 Q1010 NOSIG,0,10,0,10000,0,0,0,
2026-03-25 09:00:00,METAR VVCI 250900Z 13009KT CAVOK 27/21 Q1010 NOSIG,1,0,0,9999,0,0,0,
2026-03-25 08:00:00,METAR VVCI 250800Z 12009KT 9999 SCT022 BKN042 27/21 Q1011 NOSIG,0,9,0,10000,0,0,0,
2026-03-25 07:30:00,METAR VVCI 250730Z 13009KT 9999 FEW022 SCT027 27/21 Q1011 NOSIG,0,9,0,10000,0,0,0,
2026-03-25 07:00:00,METAR VVCI 250700Z 13009KT 9999 FEW022 SCT027 27/21 Q1011 NOSIG,0,9,0,10000,0,0,0,
2026-03-25 06:30:00,METAR VVCI 250630Z 13009KT 9999 SCT022 BKN030 BKN036 28/22 Q1012 NOSIG,0,9,0,10000,0,0,0,
2026-03-25 06:00:00,METAR VVCI 250600Z 13008KT 080V170 9999 FEW021 SCT026 BKN031 27/21 Q1012 NOSIG,0,8,0,10000,0,0,0,
2026-03-25 05:30:00,METAR VVCI 250530Z 13010KT 9999 SCT020 SCT027 BKN036 28/22 Q1012 NOSIG,0,10,0,10000,0,0,0,
2026-03-25 05:00:00,METAR VVCI 250500Z 13009KT 9999 SCT022 SCT032 28/21 Q1012 NOSIG,0,9,0,10000,0,0,0,
2026-03-25 04:30:00,METAR VVCI 250430Z 14010KT 9999 FEW021 SCT026 28/21 Q1012 NOSIG,0,10,0,10000,0,0,0,
2026-03-25 04:00:00,METAR VVCI 250400Z 13011KT 100V160 9999 FEW023 SCT028 28/21 Q1013 NOSIG,0,11,0,10000,0,0,0,
2026-03-25 03:30:00,METAR VVCI 250330Z 13010KT 9999 FEW020 28/22 Q1013 NOSIG,0,10,0,10000,0,0,0,
2026-03-25 03:00:00,METAR VVCI 250300Z 13009KT 9999 FEW034 28/22 Q1013 NOSIG,0,9,0,10000,0,0,0,
2026-03-25 02:30:00,METAR VVCI 250230Z 14009KT 9999 FEW037 27/22 Q1013 NOSIG,0,9,0,10000,0,0,0,
2026-03-25 02:00:00,METAR VVCI 250200Z 13007KT 9999 FEW023 27/22 Q1013 NOSIG,0,7,0,10000,0,0,0,
2026-03-25 01:30:00,METAR VVCI 250130Z 13005KT 9999 FEW035 BKN040 26/21 Q1013 NOSIG,0,5,0,10000,0,0,0,
2026-03-25 01:00:00,METAR VVCI 250100Z 12005KT 9999 SCT035 BKN040 26/22 Q1013 NOSIG,0,5,0,10000,0,0,0,
2026-03-25 00:30:00,METAR VVCI 250030Z 12004KT 9999 SCT037 25/22 Q1012 NOSIG,0,4,0,10000,0,0,0,
2026-03-25 00:00:00,METAR VVCI 250000Z 14004KT 9999 FEW037 24/22 Q1012 NOSIG,0,4,0,10000,0,0,0,
2026-03-24 23:30:00,METAR VVCI 242330Z 12004KT CAVOK 24/22 Q1012 NOSIG,1,0,0,9999,0,0,0,
2026-03-24 23:00:00,METAR VVCI 242300Z 12003KT CAVOK 24/22 Q1011 NOSIG,1,0,0,9999,0,0,0,
2026-03-24 22:30:00,METAR VVCI 242230Z 13004KT 9999 FEW011 24/22 Q1011 NOSIG,0,4,0,10000,0,0,0,
2026-03-24 22:00:00,METAR VVCI 242200Z 12005KT 9999 FEW010 24/22 Q1010 NOSIG,0,5,0,10000,0,0,0,
2026-03-24 21:30:00,METAR VVCI 242130Z 13005KT 9999 FEW010 24/22 Q1010 NOSIG,0,5,0,10000,0,0,0,
2026-03-24 21:00:00,METAR VVCI 242100Z 14006KT 9999 SCT010 BKN034 24/22 Q1010 NOSIG,0,6,0,10000,0,0,0,
2026-03-24 20:30:00,METAR VVCI 242030Z 14006KT 9999 FEW011 BKN032 BKN039 24/22 Q1010 NOSIG,0,6,0,10000,0,0,0,
2026-03-24 20:00:00,METAR VVCI 242000Z 13005KT 9999 FEW011 SCT028 BKN033 24/22 Q1010 NOSIG,0,5,0,10000,0,0,0,
2026-03-24 19:30:00,METAR VVCI 241930Z 13006KT 9999 SCT010 BKN032 24/22 Q1010 NOSIG,0,6,0,10000,0,0,0,
2026-03-24 19:00:00,METAR VVCI 241900Z 14007KT 9999 FEW009 SCT011 BKN031 24/22 Q1011 NOSIG,0,7,0,10000,0,0,0,
2026-03-24 18:30:00,METAR VVCI 241830Z 14006KT 9999 SCT010 BKN017 OVC031 25/22 Q1011 NOSIG,0,6,0,10000,0,0,0,
2026-03-24 18:00:00,METAR VVCI 241800Z 13005KT 9999 SCT010 BKN030 25/23 Q1011 NOSIG,0,5,0,10000,0,0,0,
2026-03-24 17:30:00,METAR VVCI 241730Z 14005KT 9999 SCT011 OVC030 25/22 Q1011 NOSIG,0,5,0,10000,0,0,0,
2026-03-24 17:00:00,METAR VVCI 241700Z 15005KT 9999 SCT011 BKN018 OVC027 25/22 Q1011 NOSIG,0,5,0,10000,0,0,0,
2026-03-24 16:30:00,METAR VVCI 241630Z 15005KT 9999 SCT011 OVC032 25/22 Q1012 NOSIG,0,5,0,10000,0,0,0,
2026-03-24 16:00:00,METAR VVCI 241600Z 14006KT 9999 SCT011 OVC029 25/22 Q1011 NOSIG,0,6,0,10000,0,0,0,
2026-03-24 15:30:00,METAR VVCI 241530Z 15006KT 120V190 9999 FEW011 BKN027 OVC033 25/22 Q1012 NOSIG,0,6,0,10000,0,0,0,
2026-03-24 15:00:00,METAR VVCI 241500Z 15005KT 9999 FEW011 OVC030 25/22 Q1011 NOSIG,0,5,0,10000,0,0,0,
2026-03-24 14:30:00,METAR VVCI 241430Z 14007KT 9999 BKN011 OVC028 25/22 Q1011 NOSIG,0,7,0,10000,0,0,0,
2026-03-24 14:00:00,METAR VVCI 241400Z 14008KT 9999 SCT011 OVC027 25/23 Q1011 NOSIG,0,8,0,10000,0,0,0,
2026-03-24 13:30:00,METAR VVCI 241330Z 14006KT 9999 SCT011 BKN016 OVC026 25/22 Q1011 NOSIG,0,6,0,10000,0,0,0,
2026-03-24 13:00:00,METAR VVCI 241300Z 14008KT 9999 SCT011 BKN013 BKN025 25/22 Q1010 NOSIG,0,8,0,10000,0,0,0,
2026-03-24 12:30:00,METAR VVCI 241230Z 14008KT 9999 BKN011 BKN025 25/22 Q1010 NOSIG,0,8,0,10000,0,0,0,
2026-03-24 12:00:00,METAR VVCI 241200Z 14007KT 9999 BKN011 25/22 Q1009 NOSIG,0,7,0,10000,0,0,0,
2026-03-24 11:30:00,METAR VVCI 241130Z 16008KT 9999 FEW011 25/22 Q1009 NOSIG,0,8,0,10000,0,0,0,
2026-03-24 11:00:00,METAR VVCI 241100Z 16008KT 9999 FEW014 25/22 Q1009 NOSIG,0,8,0,10000,0,0,0,
2026-03-24 10:30:00,METAR VVCI 241030Z 15010KT 9999 FEW016 26/22 Q1009 NOSIG,0,10,0,10000,0,0,0,
2026-03-24 10:00:00,METAR VVCI 241000Z 15010KT 9999 FEW019 26/22 Q1009 NOSIG,0,10,0,10000,0,0,0,
2026-03-24 09:30:00,METAR VVCI 240930Z 16009KT 9999 FEW018 27/22 Q1009 NOSIG,0,9,0,10000,0,0,0,
2026-03-24 09:00:00,METAR VVCI 240900Z 16011KT 9999 FEW016 SCT033 27/22 Q1009 NOSIG,0,11,0,10000,0,0,0,
2026-03-24 08:30:00,METAR VVCI 240830Z 17009KT 150V210 9999 SCT016 BKN031 27/22 Q1009 NOSIG,0,9,0,10000,0,0,0,
2026-03-24 08:00:00,METAR VVCI 240800Z 18010KT 9999 FEW019 BKN028 BKN033 27/21 Q1009 NOSIG,0,10,0,10000,0,0,0,
2026-03-24 07:30:00,METAR VVCI 240730Z 17009KT 140V200 9999 FEW018 BKN027 28/21 Q1009 NOSIG,0,9,0,10000,0,0,0,
2026-03-24 07:00:00,METAR VVCI 240700Z 18009KT 140V210 9999 FEW019 BKN026 28/21 Q1010 NOSIG,0,9,0,10000,0,0,0,
2026-03-24 06:30:00,METAR VVCI 240630Z 17009KT 140V210 9999 FEW019 BKN029 28/21 Q1010 NOSIG,0,9,0,10000,0,0,0,
2026-03-24 06:00:00,METAR VVCI 240600Z 18009KT 150V220 9999 SCT019 SCT025 BKN037 28/21 Q1010 NOSIG,0,9,0,10000,0,0,0,
2026-03-24 05:30:00,METAR VVCI 240530Z 17008KT 120V210 9999 FEW023 BKN038 28/22 Q1011 NOSIG,0,8,0,10000,0,0,0,
2026-03-24 05:00:00,METAR VVCI 240500Z 12007KT 100V170 9999 FEW024 SCT036 28/22 Q1011 NOSIG,0,7,0,10000,0,0,0,
2026-03-24 04:30:00,METAR VVCI 240430Z 15008KT 110V180 9999 FEW020 SCT023 BKN036 27/22 Q1012 NOSIG,0,8,0,10000,0,0,0,
2026-03-24 04:00:00,METAR VVCI 240400Z 17009KT 130V220 9999 FEW017 BKN022 28/23 Q1012 NOSIG,0,9,0,10000,0,0,0,
2026-03-24 03:30:00,METAR VVCI 240330Z 17010KT 140V200 9999 FEW018 SCT040 28/22 Q1013 NOSIG,0,10,0,10000,0,0,0,
2026-03-24 03:00:00,METAR VVCI 240300Z 14009KT 110V190 9999 FEW014 SCT020 28/22 Q1013 NOSIG,0,9,0,10000,0,0,0,
2026-03-24 02:30:00,METAR VVCI 240230Z 13009KT 9999 FEW013 27/22 Q1013 NOSIG,0,9,0,10000,0,0,0,
2026-03-24 02:00:00,METAR VVCI 240200Z 13009KT 9999 FEW049 27/22 Q1013 NOSIG,0,9,0,10000,0,0,0,
2026-03-24 01:30:00,METAR VVCI 240130Z 15010KT 9999 SCT049 26/21 Q1012 NOSIG,0,10,0,10000,0,0,0,
2026-03-24 01:00:00,METAR VVCI 240100Z 14007KT 110V170 CAVOK 25/22 Q1012 NOSIG,1,0,0,9999,0,0,0,
2026-03-24 00:30:00,METAR VVCI 240030Z 13007KT CAVOK 25/22 Q1012 NOSIG,1,0,0,9999,0,0,0,
2026-03-24 00:00:00,METAR VVCI 240000Z 13006KT 9999 FEW034 24/22 Q1012 NOSIG,0,6,0,10000,0,0,0,
2026-03-23 23:30:00,METAR VVCI 232330Z 13006KT 9999 FEW014 SCT032 24/22 Q1011 NOSIG,0,6,0,10000,0,0,0,
2026-03-23 23:00:00,METAR VVCI 232300Z 13004KT 9999 FEW014 BKN049 24/22 Q1011 NOSIG,0,4,0,10000,0,0,0,
2026-03-23 22:30:00,METAR VVCI 232230Z 14005KT 9999 SCT015 SCT031 OVC049 24/22 Q1010 NOSIG,0,5,0,10000,0,0,0,
2026-03-23 22:00:00,METAR VVCI 232200Z 14005KT 9999 FEW015 SCT029 OVC049 24/22 Q1010 NOSIG,0,5,0,10000,0,0,0,
2026-03-23 21:30:00,METAR VVCI 232130Z 13003KT 9999 FEW017 BKN026 24/22 Q1010 NOSIG,0,3,0,10000,0,0,0,
2026-03-23 21:00:00,METAR VVCI 232100Z 13003KT 9999 SCT016 BKN030 24/22 Q1010 NOSIG,0,3,0,10000,0,0,0,
2026-03-23 20:30:00,METAR VVCI 232030Z 15005KT 9999 BKN015 24/21 Q1010 NOSIG,0,5,0,10000,0,0,0,
2026-03-23 20:00:00,METAR VVCI 232000Z 14004KT 9999 BKN016 BKN026 BKN049 24/22 Q1010 NOSIG,0,4,0,10000,0,0,0,
2026-03-23 19:30:00,METAR VVCI 231930Z 13003KT 100V190 9999 SCT014 BKN016 BKN026 24/22 Q1010 NOSIG,0,3,0,10000,0,0,0,
2026-03-23 19:00:00,METAR VVCI 231900Z 11004KT 9999 BKN013 OVC025 24/22 Q1010 NOSIG,0,4,0,10000,0,0,0,
2026-03-23 18:30:00,METAR VVCI 231830Z 11004KT 080V140 9999 BKN012 BKN014 BKN025 24/22 Q1011 NOSIG,0,4,0,10000,0,0,0,
2026-03-23 18:00:00,METAR VVCI 231800Z 11004KT 080V140 9999 FEW011 SCT014 BKN028 24/22 Q1011 NOSIG,0,4,0,10000,0,0,0,
2026-03-23 17:30:00,METAR VVCI 231730Z 12004KT 9999 FEW011 BKN013 24/22 Q1011 NOSIG,0,4,0,10000,0,0,0,
2026-03-23 17:00:00,METAR VVCI 231700Z 12004KT 090V150 9999 BKN013 BKN017 24/22 Q1011 NOSIG,0,4,0,10000,0,0,0,
2026-03-23 16:30:00,METAR VVCI 231630Z 12005KT 9999 FEW012 BKN029 24/22 Q1012 NOSIG,0,5,0,10000,0,0,0,
2026-03-23 16:00:00,METAR VVCI 231600Z 12006KT 9999 FEW011 SCT024 BKN027 24/22 Q1012 NOSIG,0,6,0,10000,0,0,0,
2026-03-23 15:30:00,METAR VVCI 231530Z 11006KT 9999 SCT011 BKN013 24/22 Q1012 NOSIG,0,6,0,10000,0,0,0,
2026-03-23 15:00:00,METAR VVCI 231500Z 13005KT 9999 FEW010 BKN012 BKN018 24/22 Q1012 NOSIG,0,5,0,10000,0,0,0,
2026-03-23 14:30:00,METAR VVCI 231430Z 14006KT 9999 SCT011 BKN035 24/22 Q1012 NOSIG,0,6,0,10000,0,0,0,
2026-03-23 14:00:00,METAR VVCI 231400Z 13006KT 100V160 9999 BKN010 BKN035 24/22 Q1012 NOSIG,0,6,0,10000,0,0,0,
2026-03-23 13:30:00,METAR VVCI 231330Z 13007KT 9999 SCT011 BKN035 24/22 Q1011 NOSIG,0,7,0,10000,0,0,0,
2026-03-23 13:00:00,METAR VVCI 231300Z 14007KT 9999 BKN036 24/22 Q1011 NOSIG,0,7,0,10000,0,0,0,
2026-03-23 12:30:00,METAR VVCI 231230Z 14007KT 9999 BKN035 24/22 Q1011 NOSIG,0,7,0,10000,0,0,0,
2026-03-23 12:00:00,METAR VVCI 231200Z 14008KT 9999 FEW012 BKN035 OVC041 24/22 Q1011 NOSIG,0,8,0,10000,0,0,0,
2026-03-23 11:30:00,METAR VVCI 231130Z 13007KT 9999 FEW012 SCT041 24/22 Q1010 NOSIG,0,7,0,10000,0,0,0,
2026-03-23 11:00:00,METAR VVCI 231100Z 14012KT 9999 FEW013 25/21 Q1009 NOSIG,0,12,0,10000,0,0,0,
2026-03-23 10:30:00,METAR VVCI 231030Z 14014KT 9999 FEW017 25/21 Q1009 NOSIG,0,14,0,10000,0,0,0,
2026-03-23 10:00:00,METAR VVCI 231000Z 13011KT 9999 FEW017 BKN038 25/22 Q1010 NOSIG,0,11,0,10000,0,0,0,
2026-03-23 09:30:00,METAR VVCI 230930Z 13011KT 9999 FEW012 SCT015 BKN039 25/22 Q1010 NOSIG,0,11,0,10000,0,0,0,
2026-03-23 09:00:00,METAR VVCI 230900Z 13010KT 9999 FEW012 OVC041 26/22 Q1010 NOSIG,0,10,0,10000,0,0,0,
2026-03-23 08:30:00,METAR VVCI 230830Z 15009KT 110V170 9999 FEW016 BKN041 26/22 Q1010 NOSIG,0,9,0,10000,0,0,0,
2026-03-23 08:00:00,METAR VVCI 230800Z 17011KT 9999 FEW017 SCT020 OVC042 26/21 Q1010 NOSIG,0,11,0,10000,0,0,0,
2026-03-23 07:30:00,METAR VVCI 230730Z 16010KT 130V190 9999 SCT018 BKN024 BKN043 27/22 Q1010 NOSIG,0,10,0,10000,0,0,0,
2026-03-23 07:00:00,METAR VVCI 230700Z 16011KT 9999 SCT018 BKN043 27/21 Q1011 NOSIG,0,11,0,10000,0,0,0,
2026-03-23 06:30:00,METAR VVCI 230630Z 18013KT 9999 SCT016 BKN021 OVC043 27/21 Q1011 NOSIG,0,13,0,10000,0,0,0,
2026-03-23 06:00:00,METAR VVCI 230600Z 18013KT 9999 FEW013 BKN017 OVC045 27/21 Q1012 NOSIG,0,13,0,10000,0,0,0,
2026-03-23 05:30:00,METAR VVCI 230530Z 17012KT 130V200 9999 FEW013 BKN017 BKN044 26/22 Q1012 NOSIG,0,12,0,10000,0,0,0,
2026-03-23 05:00:00,METAR VVCI 230500Z 16010KT 130V190 9999 FEW012 BKN019 BKN046 26/22 Q1012 NOSIG,0,10,0,10000,0,0,0,
2026-03-23 04:30:00,METAR VVCI 230430Z 16013KT 9999 SCT019 27/22 Q1013 NOSIG,0,13,0,10000,0,0,0,
2026-03-23 04:00:00,METAR VVCI 230400Z 16011KT 130V190 9999 BKN020 27/22 Q1013 NOSIG,0,11,0,10000,0,0,0,
2026-03-23 03:30:00,METAR VVCI 230330Z 14010KT 9999 SCT016 26/22 Q1014 NOSIG,0,10,0,10000,0,0,0,
2026-03-23 03:00:00,METAR VVCI 230300Z 14010KT 9999 FEW014 SCT016 26/22 Q1014 NOSIG,0,10,0,10000,0,0,0,
2026-03-23 02:30:00,METAR VVCI 230230Z 13009KT 9999 FEW014 BKN021 26/21 Q1014 NOSIG,0,9,0,10000,0,0,0,
2026-03-23 02:00:00,METAR VVCI 230200Z 14008KT 100V160 9999 BKN015 BKN044 25/22 Q1014 NOSIG,0,8,0,10000,0,0,0,
2026-03-23 01:30:00,METAR VVCI 230130Z 13006KT 9999 SCT013 BKN015 OVC049 25/21 Q1014 NOSIG,0,6,0,10000,0,0,0,
2026-03-23 01:00:00,METAR VVCI 230100Z 12006KT 100V160 9999 SCT013 BKN019 OVC049 25/21 Q1014 NOSIG,0,6,0,10000,0,0,0,
2026-03-23 00:30:00,METAR VVCI 230030Z 13005KT 9999 SCT014 OVC046 25/22 Q1013 NOSIG,0,5,0,10000,0,0,0,
2026-03-23 00:00:00,METAR VVCI 230000Z 12005KT 9999 FEW014 BKN043 24/21 Q1013 NOSIG,0,5,0,10000,0,0,0,
2026-03-22 23:30:00,METAR VVCI 222330Z 12006KT 9999 FEW013 SCT041 23/21 Q1012 NOSIG,0,6,0,10000,0,0,0,
2026-03-22 23:00:00,METAR VVCI 222300Z 13006KT 9999 FEW013 BKN041 23/21 Q1012 NOSIG,0,6,0,10000,0,0,0,
2026-03-22 22:30:00,METAR VVCI 222230Z 13005KT 9999 FEW013 BKN040 23/21 Q1012 NOSIG,0,5,0,10000,0,0,0,
2026-03-22 22:00:00,METAR VVCI 222200Z 13005KT 9999 FEW012 BKN040 23/21 Q1012 NOSIG,0,5,0,10000,0,0,0,
2026-03-22 21:00:00,METAR VVCI 222100Z 11005KT 9999 FEW011 SCT016 BKN026 23/21 Q1011 NOSIG,0,5,0,10000,0,0,0,
2026-03-22 20:30:00,METAR VVCI 222030Z 11005KT 9999 FEW011 SCT017 BKN026 23/21 Q1011 NOSIG,0,5,0,10000,0,0,0,
2026-03-22 20:00:00,METAR VVCI 222000Z 08004KT 9999 BKN012 BKN020 23/21 Q1012 NOSIG,0,4,0,10000,0,0,0,
2026-03-22 19:30:00,METAR VVCI 221930Z 08004KT 9999 FEW012 SCT014 BKN020 23/21 Q1012 NOSIG,0,4,0,10000,0,0,0,
2026-03-22 19:00:00,METAR VVCI 221900Z 08004KT 9999 FEW012 SCT014 BKN020 23/21 Q1012 NOSIG,0,4,0,10000,0,0,0,
2026-03-22 18:30:00,METAR VVCI 221830Z 09003KT 9999 FEW011 BKN014 BKN020 23/21 Q1013 NOSIG,0,3,0,10000,0,0,0,
2026-03-22 18:00:00,METAR VVCI 221800Z 12004KT 9999 FEW009 BKN017 24/21 Q1013 NOSIG,0,4,0,10000,0,0,0,
2026-03-22 17:30:00,METAR VVCI 221730Z 09004KT 060V130 9999 FEW008 BKN016 23/22 Q1013 NOSIG,0,4,0,10000,0,0,0,
2026-03-22 17:00:00,METAR VVCI 221700Z 12006KT 9999 FEW008 24/22 Q1013 NOSIG,0,6,0,10000,0,0,0,
2026-03-22 16:30:00,METAR VVCI 221630Z 13005KT 9999 FEW009 SCT018 24/22 Q1014 NOSIG,0,5,0,10000,0,0,0,
2026-03-22 16:00:00,METAR VVCI 221600Z 13005KT 9999 FEW012 SCT018 24/22 Q1014 NOSIG,0,5,0,10000,0,0,0,
2026-03-22 15:30:00,METAR VVCI 221530Z 14006KT CAVOK 24/22 Q1014 NOSIG,1,0,0,9999,0,0,0,
2026-03-22 15:00:00,METAR VVCI 221500Z 13005KT 100V160 CAVOK 24/22 Q1013 NOSIG,1,0,0,9999,0,0,0,
2026-03-22 14:30:00,METAR VVCI 221430Z 13005KT CAVOK 24/21 Q1013 NOSIG,1,0,0,9999,0,0,0,
2026-03-22 14:00:00,METAR VVCI 221400Z 12006KT CAVOK 24/21 Q1013 NOSIG,1,0,0,9999,0,0,0,
2026-03-22 13:30:00,METAR VVCI 221330Z 12005KT CAVOK 24/21 Q1013 NOSIG,1,0,0,9999,0,0,0,
2026-03-22 12:30:00,METAR VVCI 221230Z 13006KT CAVOK 24/22 Q1013 NOSIG,1,0,0,9999,0,0,0,
2026-03-22 11:30:00,METAR VVCI 221130Z 14005KT 9999 FEW008 24/22 Q1013 NOSIG,0,5,0,10000,0,0,0,
2026-03-22 11:00:00,METAR VVCI 221100Z 12008KT 9999 FEW010 24/22 Q1012 NOSIG,0,8,0,10000,0,0,0,
2026-03-22 10:30:00,METAR VVCI 221030Z 13008KT 9999 FEW013 24/22 Q1012 NOSIG,0,8,0,10000,0,0,0,
2026-03-22 10:00:00,METAR VVCI 221000Z 16010KT 130V190 9999 FEW019 SCT024 26/22 Q1012 NOSIG,0,10,0,10000,0,0,0,
2026-03-22 09:30:00,METAR VVCI 220930Z 16010KT 9999 SCT019 BKN024 26/21 Q1012 NOSIG,0,10,0,10000,0,0,0,
2026-03-22 08:30:00,METAR VVCI 220830Z 14010KT 9999 FEW019 BKN025 25/22 Q1012 NOSIG,0,10,0,10000,0,0,0,
2026-03-22 08:00:00,METAR VVCI 220800Z 16012KT 130V190 9999 SCT019 BKN032 BKN042 26/22 Q1012 NOSIG,0,12,0,10000,0,0,0,
2026-03-22 07:30:00,METAR VVCI 220730Z 17011KT 9999 BKN020 BKN038 27/22 Q1012 NOSIG,0,11,0,10000,0,0,0,
2026-03-22 06:30:00,METAR VVCI 220630Z 17012KT 9999 FEW018 BKN021 BKN040 27/21 Q1012 NOSIG,0,12,0,10000,0,0,0,
2026-03-22 06:00:00,METAR VVCI 220600Z 18011KT 9999 BKN021 BKN032 BKN043 28/22 Q1013 NOSIG,0,11,0,10000,0,0,0,
2026-03-22 05:30:00,METAR VVCI 220530Z 16011KT 9999 BKN020 BKN041 26/22 Q1014 NOSIG,0,11,0,10000,0,0,0,
2026-03-22 05:00:00,METAR VVCI 220500Z 16010KT 9999 BKN020 BKN029 26/22 Q1014 NOSIG,0,10,0,10000,0,0,0,
2026-03-22 04:30:00,METAR VVCI 220430Z 16007KT 120V220 9999 FEW019 BKN023 BKN034 26/21 Q1014 NOSIG,0,7,0,10000,0,0,0,
2026-03-22 04:00:00,METAR VVCI 220400Z 16010KT 120V200 9999 SCT019 BKN024 26/22 Q1015 NOSIG,0,10,0,10000,0,0,0,
2026-03-22 03:30:00,METAR VVCI 220330Z 13008KT 9999 FEW013 SCT015 BKN022 26/22 Q1015 NOSIG,0,8,0,10000,0,0,0,
2026-03-22 03:00:00,METAR VVCI 220300Z 13008KT 110V170 9999 SCT014 SCT017 26/22 Q1015 NOSIG,0,8,0,10000,0,0,0,
2026-03-22 02:30:00,METAR VVCI 220230Z 14009KT 9999 SCT012 26/22 Q1015 NOSIG,0,9,0,10000,0,0,0,
2026-03-22 02:00:00,METAR VVCI 220200Z 14007KT 9999 SCT012 BKN046 25/22 Q1015 NOSIG,0,7,0,10000,0,0,0,
2026-03-22 01:30:00,METAR VVCI 220130Z 12008KT 9999 FEW013 SCT018 BKN042 25/22 Q1015 NOSIG,0,8,0,10000,0,0,0,
2026-03-22 01:00:00,METAR VVCI 220100Z 12006KT 9999 FEW014 BKN020 BKN042 24/21 Q1014 NOSIG,0,6,0,10000,0,0,0,
2026-03-22 00:30:00,METAR VVCI 220030Z 12004KT 9999 BKN014 OVC022 24/21 Q1014 NOSIG,0,4,0,10000,0,0,0,
2026-03-22 00:00:00,METAR VVCI 220000Z 12003KT 9999 BKN016 BKN026 24/21 Q1014 NOSIG,0,3,0,10000,0,0,0,
2026-03-21 23:30:00,METAR VVCI 212330Z 08004KT 9000 SCT015 SCT028 BKN039 23/21 Q1013 NOSIG,0,4,0,9000,0,0,0,
2026-03-21 23:00:00,METAR VVCI 212300Z 08004KT 9000 SCT015 SCT028 BKN039 23/21 Q1013 NOSIG,0,4,0,9000,0,0,0,
2026-03-21 22:30:00,METAR VVCI 212230Z 09003KT 9000 FEW016 BKN038 23/21 Q1012 NOSIG,0,3,0,9000,0,0,0,
2026-03-21 22:00:00,METAR VVCI 212200Z 09003KT 9000 FEW016 BKN038 23/21 Q1012 NOSIG,0,3,0,9000,0,0,0,
2026-03-21 21:30:00,METAR VVCI 212130Z 09003KT 9000 BKN016 BKN037 23/21 Q1011 NOSIG,0,3,0,9000,0,0,0,
2026-03-21 21:00:00,METAR VVCI 212100Z 09003KT 9000 BKN016 BKN037 23/21 Q1011 NOSIG,0,3,0,9000,0,0,0,
2026-03-21 20:30:00,METAR VVCI 212030Z 08005KT 9000 BKN017 22/21 Q1011 NOSIG,0,5,0,9000,0,0,0,
2026-03-21 19:30:00,METAR VVCI 211930Z 08006KT 9999 SCT035 23/21 Q1012 NOSIG,0,6,0,10000,0,0,0,
2026-03-21 19:00:00,METAR VVCI 211900Z 08006KT 9999 SCT035 23/21 Q1012 NOSIG,0,6,0,10000,0,0,0,
2026-03-21 18:30:00,METAR VVCI 211830Z 07004KT 9999 FEW013 SCT018 23/21 Q1013 NOSIG,0,4,0,10000,0,0,0,
2026-03-21 18:00:00,METAR VVCI 211800Z 07004KT 9999 FEW013 SCT018 23/21 Q1013 NOSIG,0,4,0,10000,0,0,0,
2026-03-21 17:30:00,METAR VVCI 211730Z 02003KT 9999 BKN014 BKN020 OVC028 23/21 Q1014 NOSIG,0,3,0,10000,0,0,0,
2026-03-21 17:00:00,METAR VVCI 211700Z 07002KT 9999 BKN015 OVC017 23/21 Q1014 NOSIG,0,2,0,10000,0,0,0,
2026-03-21 16:30:00,METAR VVCI 211630Z 08005KT 9999 FEW011 SCT013 BKN016 23/21 Q1013 NOSIG,0,5,0,10000,0,0,0,
2026-03-21 16:00:00,METAR VVCI 211600Z 11004KT 9999 SCT014 BKN021 BKN027 23/21 Q1014 NOSIG,0,4,0,10000,0,0,0,
2026-03-21 15:30:00,METAR VVCI 211530Z 11004KT 9999 FEW009 SCT016 BKN024 23/21 Q1014 NOSIG,0,4,0,10000,0,0,0,
2026-03-21 14:30:00,METAR VVCI 211430Z 12005KT CAVOK 23/21 Q1014 NOSIG,1,0,0,9999,0,0,0,
2026-03-21 14:00:00,METAR VVCI 211400Z 13006KT CAVOK 23/21 Q1014 NOSIG,1,0,0,9999,0,0,0,
2026-03-21 13:30:00,METAR VVCI 211330Z 13005KT CAVOK 23/21 Q1013 NOSIG,1,0,0,9999,0,0,0,
2026-03-21 13:00:00,METAR VVCI 211300Z 13007KT 9999 FEW036 23/21 Q1013 NOSIG,0,7,0,10000,0,0,0,
2026-03-21 12:30:00,METAR VVCI 211230Z 13006KT 9999 SCT034 23/21 Q1013 NOSIG,0,6,0,10000,0,0,0,
2026-03-21 12:00:00,METAR VVCI 211200Z 13008KT 9999 BKN031 23/21 Q1012 NOSIG,0,8,0,10000,0,0,0,
2026-03-21 11:30:00,METAR VVCI 211130Z 13009KT 9999 FEW011 BKN031 23/21 Q1013 NOSIG,0,9,0,10000,0,0,0,
2026-03-21 11:00:00,METAR VVCI 211100Z 14010KT 9999 BKN014 BKN030 24/21 Q1013 NOSIG,0,10,0,10000,0,0,0,
2026-03-21 10:30:00,METAR VVCI 211030Z 14009KT 9999 BKN030 24/21 Q1012 NOSIG,0,9,0,10000,0,0,0,
2026-03-21 10:00:00,METAR VVCI 211000Z 13009KT 9999 SCT029 25/21 Q1012 NOSIG,0,9,0,10000,0,0,0,
2026-03-21 09:30:00,METAR VVCI 210930Z 13011KT CAVOK 25/21 Q1012 NOSIG,1,0,0,9999,0,0,0,
2026-03-21 09:00:00,METAR VVCI 210900Z 13012KT CAVOK 25/21 Q1012 NOSIG,1,0,0,9999,0,0,0,
2026-03-21 08:30:00,METAR VVCI 210830Z 14011KT CAVOK 25/21 Q1012 NOSIG,1,0,0,9999,0,0,0,
2026-03-21 08:00:00,METAR VVCI 210800Z 14010KT CAVOK 26/21 Q1013 NOSIG,1,0,0,9999,0,0,0,
2026-03-21 07:30:00,METAR VVCI 210730Z 15010KT 9999 FEW020 BKN029 27/21 Q1013 NOSIG,0,10,0,10000,0,0,0,
2026-03-21 07:00:00,METAR VVCI 210700Z 16010KT 120V180 9999 FEW019 BKN029 26/21 Q1014 NOSIG,0,10,0,10000,0,0,0,
2026-03-21 06:30:00,METAR VVCI 210630Z 14009KT 9999 SCT018 27/21 Q1014 NOSIG,0,9,0,10000,0,0,0,
2026-03-21 06:00:00,METAR VVCI 210600Z 13008KT 9999 SCT017 26/21 Q1014 NOSIG,0,8,0,10000,0,0,0,
2026-03-21 05:30:00,METAR VVCI 210530Z 13008KT 9999 SCT016 26/21 Q1015 NOSIG,0,8,0,10000,0,0,0,
2026-03-21 04:30:00,METAR VVCI 210430Z 13006KT 9999 SCT015 BKN035 25/21 Q1016 NOSIG,0,6,0,10000,0,0,0,
2026-03-21 04:00:00,METAR VVCI 210400Z 14009KT 9999 SCT015 BKN038 25/21 Q1016 NOSIG,0,9,0,10000,0,0,0,
2026-03-21 03:30:00,METAR VVCI 210330Z 14007KT 9999 SCT017 BKN041 25/21 Q1016 NOSIG,0,7,0,10000,0,0,0,
2026-03-21 03:00:00,METAR VVCI 210300Z 13007KT 100V160 9999 SCT018 BKN042 26/21 Q1016 NOSIG,0,7,0,10000,0,0,0,
2026-03-21 02:30:00,METAR VVCI 210230Z 11007KT 9999 SCT017 25/21 Q1016 NOSIG,0,7,0,10000,0,0,0,
2026-03-21 02:00:00,METAR VVCI 210200Z 12007KT 9999 FEW016 SCT040 25/21 Q1016 NOSIG,0,7,0,10000,0,0,0,
2026-03-21 01:30:00,METAR VVCI 210130Z 12007KT 9999 FEW016 SCT040 25/21 Q1016 NOSIG,0,7,0,10000,0,0,0,
2026-03-21 01:00:00,METAR VVCI 210100Z 11006KT 9999 FEW040 24/21 Q1015 NOSIG,0,6,0,10000,0,0,0,
2026-03-21 00:30:00,METAR VVCI 210030Z 10005KT CAVOK 24/21 Q1015 NOSIG,1,0,0,9999,0,0,0,
2026-03-21 00:00:00,METAR VVCI 210000Z 09007KT CAVOK 24/20 Q1015 NOSIG,1,0,0,9999,0,0,0,
2026-03-20 23:30:00,METAR VVCI 202330Z 08005KT CAVOK 24/20 Q1014 NOSIG,1,0,0,9999,0,0,0,
2026-03-20 23:00:00,METAR VVCI 202300Z 08006KT CAVOK 24/20 Q1014 NOSIG,1,0,0,9999,0,0,0,
2026-03-20 22:30:00,METAR VVCI 202230Z 08005KT CAVOK 24/20 Q1013 NOSIG,1,0,0,9999,0,0,0,
2026-03-20 21:30:00,METAR VVCI 202130Z 09006KT CAVOK 24/20 Q1013 NOSIG,1,0,0,9999,0,0,0,
2026-03-20 21:00:00,METAR VVCI 202100Z 08007KT CAVOK 24/20 Q1013 NOSIG,1,0,0,9999,0,0,0,
2026-03-20 20:30:00,METAR VVCI 202030Z 08005KT CAVOK 23/20 Q1013 NOSIG,1,0,0,9999,0,0,0,
2026-03-20 19:30:00,METAR VVCI 201930Z VRB02KT CAVOK 24/21 Q1013 NOSIG,1,0,0,9999,0,0,0,
2026-03-20 18:30:00,METAR VVCI 201830Z 10004KT CAVOK 24/20 Q1014 NOSIG,1,0,0,9999,0,0,0,
2026-03-20 18:00:00,METAR VVCI 201800Z 10004KT CAVOK 24/20 Q1014 NOSIG,1,0,0,9999,0,0,0,
2026-03-20 17:30:00,METAR VVCI 201730Z 11004KT CAVOK 24/20 Q1014 NOSIG,1,0,0,9999,0,0,0,
2026-03-20 16:30:00,METAR VVCI 201630Z 11005KT CAVOK 24/21 Q1015 NOSIG,1,0,0,9999,0,0,0,
2026-03-20 16:00:00,METAR VVCI 201600Z 11006KT 9999 BKN039 24/20 Q1015 NOSIG,0,6,0,10000,0,0,0,
2026-03-20 15:30:00,METAR VVCI 201530Z 11005KT 9999 OVC037 24/20 Q1015 NOSIG,0,5,0,10000,0,0,0,
2026-03-20 15:00:00,METAR VVCI 201500Z 11005KT 9999 FEW025 BKN035 24/20 Q1015 NOSIG,0,5,0,10000,0,0,0,
2026-03-20 14:30:00,METAR VVCI 201430Z 11007KT 9999 FEW022 BKN029 OVC036 24/20 Q1014 NOSIG,0,7,0,10000,0,0,0,
2026-03-20 14:00:00,METAR VVCI 201400Z 12006KT 9999 FEW022 BKN027 25/20 Q1014 NOSIG,0,6,0,10000,0,0,0,
2026-03-20 13:30:00,METAR VVCI 201330Z 12005KT 100V160 9999 FEW022 BKN030 24/20 Q1014 NOSIG,0,5,0,10000,0,0,0,
2026-03-20 12:30:00,METAR VVCI 201230Z 11005KT 9999 SCT022 OVC029 25/20 Q1013 NOSIG,0,5,0,10000,0,0,0,
2026-03-20 11:30:00,METAR VVCI 201130Z 11007KT 9999 BKN021 OVC028 25/20 Q1011 NOSIG,0,7,0,10000,0,0,0,
2026-03-20 10:30:00,METAR VVCI 201030Z 13008KT 9999 FEW018 OVC026 25/20 Q1011 NOSIG,0,8,0,10000,0,0,0,
2026-03-20 10:00:00,METAR VVCI 201000Z 12008KT 9999 OVC026 25/21 Q1011 NOSIG,0,8,0,10000,0,0,0,
2026-03-20 09:30:00,METAR VVCI 200930Z 13009KT 9999 SCT011 BKN017 OVC026 24/21 Q1011 NOSIG,0,9,0,10000,0,0,0,
2026-03-20 09:00:00,METAR VVCI 200900Z 13009KT 9999 FEW010 SCT017 OVC026 25/21 Q1011 NOSIG,0,9,0,10000,0,0,0,
2026-03-20 08:30:00,METAR VVCI 200830Z 13008KT 9999 FEW013 SCT015 OVC026 24/21 Q1011 NOSIG,0,8,0,10000,0,0,0,
2026-03-20 08:00:00,METAR VVCI 200800Z 14009KT 9999 FEW016 BKN027 OVC032 25/21 Q1011 NOSIG,0,9,0,10000,0,0,0,
2026-03-20 07:30:00,METAR VVCI 200730Z 14009KT 9999 FEW016 BKN027 OVC032 25/21 Q1011 NOSIG,0,9,0,10000,0,0,0,
2026-03-20 06:30:00,METAR VVCI 200630Z 14009KT 9999 FEW016 SCT024 OVC028 25/21 Q1013 NOSIG,0,9,0,10000,0,0,0,
2026-03-20 06:00:00,METAR VVCI 200600Z 14009KT 9999 FEW016 SCT025 OVC029 25/21 Q1013 NOSIG,0,9,0,10000,0,0,0,
2026-03-20 05:30:00,METAR VVCI 200530Z 14008KT 9999 FEW015 OVC034 25/21 Q1013 NOSIG,0,8,0,10000,0,0,0,
2026-03-20 05:00:00,METAR VVCI 200500Z 14009KT 9999 FEW014 SCT017 OVC031 25/21 Q1013 NOSIG,0,9,0,10000,0,0,0,
2026-03-20 04:30:00,METAR VVCI 200430Z 13009KT 9999 FEW016 SCT024 OVC032 25/21 Q1014 NOSIG,0,9,0,10000,0,0,0,
2026-03-20 03:30:00,METAR VVCI 200330Z 12007KT 9999 FEW015 BKN018 OVC033 25/21 Q1014 NOSIG,0,7,0,10000,0,0,0,
2026-03-20 03:00:00,METAR VVCI 200300Z 13006KT 9999 SCT016 BKN019 OVC028 25/21 Q1014 NOSIG,0,6,0,10000,0,0,0,
2026-03-20 02:30:00,METAR VVCI 200230Z 13006KT 9999 FEW015 SCT017 OVC032 25/21 Q1014 NOSIG,0,6,0,10000,0,0,0,
2026-03-20 02:00:00,METAR VVCI 200200Z 12007KT 9999 BKN015 OVC031 24/21 Q1014 NOSIG,0,7,0,10000,0,0,0,
2026-03-20 01:30:00,METAR VVCI 200130Z 11006KT 9999 FEW012 SCT014 BKN033 24/21 Q1014 NOSIG,0,6,0,10000,0,0,0,
2026-03-20 01:00:00,METAR VVCI 200100Z 09005KT 9999 FEW010 SCT013 BKN032 24/21 Q1013 NOSIG,0,5,0,10000,0,0,0,
2026-03-20 00:30:00,METAR VVCI 200030Z 09005KT 9999 FEW010 BKN015 BKN034 24/21 Q1013 NOSIG,0,5,0,10000,0,0,0,
2026-03-20 00:00:00,METAR VVCI 200000Z 09005KT 9999 SCT014 BKN030 23/21 Q1013 NOSIG,0,5,0,10000,0,0,0,
2026-03-19 23:30:00,METAR VVCI 192330Z VRB01KT 9999 SCT013 BKN024 BKN029 23/21 Q1012 NOSIG,0,1,0,10000,0,0,0,
2026-03-19 23:00:00,METAR VVCI 192300Z 09004KT 9999 BKN013 23/21 Q1011 NOSIG,0,4,0,10000,0,0,0,
2026-03-19 22:30:00,METAR VVCI 192230Z 11005KT 9999 SCT011 BKN015 BKN021 23/21 Q1011 NOSIG,0,5,0,10000,0,0,0,
2026-03-19 22:00:00,METAR VVCI 192200Z 11005KT 9999 BKN014 23/21 Q1011 NOSIG,0,5,0,10000,0,0,0,
2026-03-19 21:30:00,METAR VVCI 192130Z 12005KT 9999 FEW011 BKN014 BKN018 23/21 Q1011 NOSIG,0,5,0,10000,0,0,0,
2026-03-19 21:00:00,METAR VVCI 192100Z 11005KT 9999 SCT011 BKN013 BKN018 23/21 Q1011 NOSIG,0,5,0,10000,0,0,0,
2026-03-19 20:30:00,METAR VVCI 192030Z 12006KT 9999 SCT013 BKN018 BKN030 23/21 Q1010 NOSIG,0,6,0,10000,0,0,0,
2026-03-19 20:00:00,METAR VVCI 192000Z 12006KT 9999 FEW012 BKN014 BKN027 23/21 Q1010 NOSIG,0,6,0,10000,0,0,0,
2026-03-19 19:30:00,METAR VVCI 191930Z 12005KT 9999 SCT011 BKN026 BKN046 23/21 Q1011 NOSIG,0,5,0,10000,0,0,0,
2026-03-19 19:00:00,METAR VVCI 191900Z 12005KT 9999 BKN011 BKN026 BKN046 23/21 Q1011 NOSIG,0,5,0,10000,0,0,0,
2026-03-19 18:30:00,METAR VVCI 191830Z 11006KT 9999 SCT012 BKN015 BKN019 23/21 Q1011 NOSIG,0,6,0,10000,0,0,0,
2026-03-19 18:00:00,METAR VVCI 191800Z 12006KT 9999 SCT013 BKN022 23/21 Q1011 NOSIG,0,6,0,10000,0,0,0,
2026-03-19 17:30:00,METAR VVCI 191730Z 12005KT 9999 SCT012 BKN024 23/21 Q1012 NOSIG,0,5,0,10000,0,0,0,
2026-03-19 17:00:00,METAR VVCI 191700Z 12005KT 9999 BKN011 BKN019 23/21 Q1012 NOSIG,0,5,0,10000,0,0,0,
2026-03-19 16:30:00,METAR VVCI 191630Z 12005KT 9999 FEW011 BKN013 23/21 Q1012 NOSIG,0,5,0,10000,0,0,0,
2026-03-19 16:00:00,METAR VVCI 191600Z 12006KT 9999 SCT011 BKN013 23/21 Q1012 NOSIG,0,6,0,10000,0,0,0,
2026-03-19 15:30:00,METAR VVCI 191530Z 11005KT 080V140 9999 SCT012 23/21 Q1012 NOSIG,0,5,0,10000,0,0,0,
2026-03-19 14:30:00,METAR VVCI 191430Z 13004KT 9999 SCT012 SCT014 23/21 Q1012 NOSIG,0,4,0,10000,0,0,0,
2026-03-19 14:00:00,METAR VVCI 191400Z 14005KT 9999 FEW012 SCT015 24/21 Q1012 NOSIG,0,5,0,10000,0,0,0,
2026-03-19 13:30:00,METAR VVCI 191330Z 14006KT 110V170 9999 BKN013 24/21 Q1011 NOSIG,0,6,0,10000,0,0,0,
2026-03-19 13:00:00,METAR VVCI 191300Z 12006KT 9999 BKN013 24/21 Q1011 NOSIG,0,6,0,10000,0,0,0,
2026-03-19 12:30:00,METAR VVCI 191230Z 12007KT 9999 SCT013 BKN015 24/21 Q1011 NOSIG,0,7,0,10000,0,0,0,
2026-03-19 12:00:00,METAR VVCI 191200Z 13007KT 9999 SCT011 SCT013 BKN015 24/21 Q1010 NOSIG,0,7,0,10000,0,0,0,
2026-03-19 11:30:00,METAR VVCI 191130Z 14009KT 9999 SCT011 BKN016 BKN019 24/21 Q1010 NOSIG,0,9,0,10000,0,0,0,
2026-03-19 11:00:00,METAR VVCI 191100Z 13008KT 9999 SCT011 BKN013 BKN018 24/21 Q1010 NOSIG,0,8,0,10000,0,0,0,
2026-03-19 10:30:00,METAR VVCI 191030Z 13009KT 9999 BKN012 24/21 Q1010 NOSIG,0,9,0,10000,0,0,0,
2026-03-19 10:00:00,METAR VVCI 191000Z 13009KT 9999 SCT011 BKN014 24/21 Q1010 NOSIG,0,9,0,10000,0,0,0,
2026-03-19 09:30:00,METAR VVCI 190930Z 13011KT 9999 FEW011 SCT013 24/21 Q1010 NOSIG,0,11,0,10000,0,0,0,
2026-03-19 09:00:00,METAR VVCI 190900Z 13012KT 9999 FEW010 24/21 Q1010 NOSIG,0,12,0,10000,0,0,0,
2026-03-19 08:30:00,METAR VVCI 190830Z 14010KT 9999 FEW010 BKN047 25/21 Q1010 NOSIG,0,10,0,10000,0,0,0,
2026-03-19 08:00:00,METAR VVCI 190800Z 15010KT 120V180 9999 SCT018 OVC048 25/21 Q1010 NOSIG,0,10,0,10000,0,0,0,
2026-03-19 07:30:00,METAR VVCI 190730Z 15010KT 9999 FEW020 25/21 Q1011 NOSIG,0,10,0,10000,0,0,0,
2026-03-19 07:00:00,METAR VVCI 190700Z 14010KT 9999 FEW013 BKN023 26/21 Q1011 NOSIG,0,10,0,10000,0,0,0,
2026-03-19 06:30:00,METAR VVCI 190630Z 14010KT 110V170 9999 FEW013 SCT019 BKN026 26/21 Q1012 NOSIG,0,10,0,10000,0,0,0,
2026-03-19 06:00:00,METAR VVCI 190600Z 15011KT 9999 FEW014 SCT019 26/21 Q1012 NOSIG,0,11,0,10000,0,0,0,
2026-03-19 05:30:00,METAR VVCI 190530Z 13010KT 9999 FEW014 SCT018 BKN028 25/20 Q1013 NOSIG,0,10,0,10000,0,0,0,
2026-03-19 05:00:00,METAR VVCI 190500Z 12009KT 9999 FEW014 SCT022 BKN046 25/20 Q1014 NOSIG,0,9,0,10000,0,0,0,
2026-03-19 04:30:00,METAR VVCI 190430Z 12010KT 090V150 9999 SCT017 SCT020 OVC046 25/20 Q1014 NOSIG,0,10,0,10000,0,0,0,
2026-03-19 04:00:00,METAR VVCI 190400Z 14009KT 9999 SCT018 26/21 Q1015 NOSIG,0,9,0,10000,0,0,0,
2026-03-19 03:30:00,METAR VVCI 190330Z 14010KT 110V170 9999 FEW012 SCT014 BKN048 25/21 Q1015 NOSIG,0,10,0,10000,0,0,0,
2026-03-19 03:00:00,METAR VVCI 190300Z 14009KT 9999 SCT012 BKN048 25/21 Q1015 NOSIG,0,9,0,10000,0,0,0,
2026-03-19 02:30:00,METAR VVCI 190230Z 13008KT 9999 FEW011 OVC045 24/20 Q1015 NOSIG,0,8,0,10000,0,0,0,
2026-03-19 02:00:00,METAR VVCI 190200Z 13008KT 9999 FEW010 OVC044 23/20 Q1015 NOSIG,0,8,0,10000,0,0,0,
2026-03-19 01:30:00,METAR VVCI 190130Z 12006KT 9999 BKN011 OVC043 23/20 Q1015 NOSIG,0,6,0,10000,0,0,0,
2026-03-19 01:00:00,METAR VVCI 190100Z 12006KT 9999 BKN010 OVC044 23/20 Q1015 NOSIG,0,6,0,10000,0,0,0,
2026-03-19 00:30:00,METAR VVCI 190030Z 12005KT 9999 BKN009 OVC043 23/20 Q1015 NOSIG,0,5,0,10000,0,0,0,
2026-03-19 00:00:00,METAR VVCI 190000Z 11004KT 9999 SCT009 OVC043 22/21 Q1014 NOSIG,0,4,0,10000,0,0,0,
2026-03-18 23:30:00,METAR VVCI 182330Z 12003KT 9999 BKN009 BKN044 22/20 Q1014 NOSIG,0,3,0,10000,0,0,0,
2026-03-18 23:00:00,METAR VVCI 182300Z VRB01KT 9000 SCT009 21/20 Q1013 NOSIG,0,1,0,9000,0,0,0,
2026-03-18 22:30:00,METAR VVCI 182230Z 13003KT 9999 FEW009 21/20 Q1013 NOSIG,0,3,0,10000,0,0,0,
2026-03-18 22:00:00,METAR VVCI 182200Z 11003KT 9999 SCT010 22/20 Q1012 NOSIG,0,3,0,10000,0,0,0,
2026-03-18 21:30:00,METAR VVCI 182130Z 10001KT 9999 SCT010 21/20 Q1012 NOSIG,0,1,0,10000,0,0,0,
2026-03-18 20:30:00,METAR VVCI 182030Z 12002KT CAVOK 22/20 Q1012 NOSIG,1,0,0,9999,0,0,0,
2026-03-18 20:00:00,METAR VVCI 182000Z 13002KT CAVOK 22/20 Q1012 NOSIG,1,0,0,9999,0,0,0,
2026-03-18 19:30:00,METAR VVCI 181930Z 09002KT CAVOK 22/20 Q1013 NOSIG,1,0,0,9999,0,0,0,
2026-03-18 19:00:00,METAR VVCI 181900Z 09003KT 9999 FEW011 21/20 Q1013 NOSIG,0,3,0,10000,0,0,0,
2026-03-18 18:30:00,METAR VVCI 181830Z 08003KT CAVOK 22/19 Q1013 NOSIG,1,0,0,9999,0,0,0,
2026-03-18 18:00:00,METAR VVCI 181800Z 11002KT CAVOK 22/19 Q1013 NOSIG,1,0,0,9999,0,0,0,
2026-03-18 17:30:00,METAR VVCI 181730Z 12003KT CAVOK 22/19 Q1014 NOSIG,1,0,0,9999,0,0,0,
2026-03-18 16:30:00,METAR VVCI 181630Z 13004KT 9999 FEW016 22/20 Q1015 NOSIG,0,4,0,10000,0,0,0,
2026-03-18 15:30:00,METAR VVCI 181530Z 12004KT CAVOK 23/20 Q1015 NOSIG,1,0,0,9999,0,0,0,
2026-03-18 15:00:00,METAR VVCI 181500Z 13004KT CAVOK 23/20 Q1015 NOSIG,1,0,0,9999,0,0,0,
2026-03-18 14:30:00,METAR VVCI 181430Z 13005KT CAVOK 23/20 Q1015 NOSIG,1,0,0,9999,0,0,0,
2026-03-18 14:00:00,METAR VVCI 181400Z 13006KT CAVOK 23/20 Q1015 NOSIG,1,0,0,9999,0,0,0,
2026-03-18 13:30:00,METAR VVCI 181330Z 13007KT 9999 FEW015 23/20 Q1014 NOSIG,0,7,0,10000,0,0,0,
2026-03-18 13:00:00,METAR VVCI 181300Z 12006KT 9999 FEW014 23/20 Q1014 NOSIG,0,6,0,10000,0,0,0,
2026-03-18 12:30:00,METAR VVCI 181230Z 13007KT 9999 FEW014 23/20 Q1014 NOSIG,0,7,0,10000,0,0,0,
2026-03-18 12:00:00,METAR VVCI 181200Z 12008KT 9999 FEW014 SCT020 23/20 Q1013 NOSIG,0,8,0,10000,0,0,0,
2026-03-18 11:30:00,METAR VVCI 181130Z 12007KT 090V150 9999 FEW014 BKN019 23/20 Q1013 NOSIG,0,7,0,10000,0,0,0,
2026-03-18 10:30:00,METAR VVCI 181030Z 13010KT 9999 SCT013 BKN019 24/20 Q1012 NOSIG,0,10,0,10000,0,0,0,
2026-03-18 10:00:00,METAR VVCI 181000Z 14009KT 9999 FEW013 24/20 Q1012 NOSIG,0,9,0,10000,0,0,0,
2026-03-18 09:30:00,METAR VVCI 180930Z 13007KT 9999 FEW013 SCT045 24/20 Q1012 NOSIG,0,7,0,10000,0,0,0,
2026-03-18 09:00:00,METAR VVCI 180900Z 14009KT 9999 FEW012 SCT043 24/21 Q1012 NOSIG,0,9,0,10000,0,0,0,
2026-03-18 08:30:00,METAR VVCI 180830Z 13012KT 9999 FEW018 BKN045 24/20 Q1012 NOSIG,0,12,0,10000,0,0,0,
2026-03-18 08:00:00,METAR VVCI 180800Z 14010KT 9999 FEW018 BKN045 25/20 Q1012 NOSIG,0,10,0,10000,0,0,0,
2026-03-18 07:30:00,METAR VVCI 180730Z 14010KT 9999 FEW018 25/20 Q1013 NOSIG,0,10,0,10000,0,0,0,
2026-03-18 07:00:00,METAR VVCI 180700Z 14009KT 9999 FEW017 25/20 Q1013 NOSIG,0,9,0,10000,0,0,0,
2026-03-18 06:30:00,METAR VVCI 180630Z 14010KT 9999 FEW023 25/20 Q1013 NOSIG,0,10,0,10000,0,0,0,
2026-03-18 06:00:00,METAR VVCI 180600Z 14009KT 9999 SCT021 OVC048 25/21 Q1014 NOSIG,0,9,0,10000,0,0,0,
2026-03-18 05:30:00,METAR VVCI 180530Z 14009KT 9999 SCT020 OVC049 26/21 Q1014 NOSIG,0,9,0,10000,0,0,0,
2026-03-18 05:00:00,METAR VVCI 180500Z 14010KT 9999 SCT022 BKN042 26/21 Q1015 NOSIG,0,10,0,10000,0,0,0,
2026-03-18 04:30:00,METAR VVCI 180430Z 12009KT 9999 FEW019 SCT023 BKN034 27/21 Q1016 NOSIG,0,9,0,10000,0,0,0,
2026-03-18 04:00:00,METAR VVCI 180400Z 14008KT 9999 SCT022 BKN043 25/20 Q1016 NOSIG,0,8,0,10000,0,0,0,
2026-03-18 03:30:00,METAR VVCI 180330Z 13007KT 100V160 9999 SCT022 BKN040 25/21 Q1017 NOSIG,0,7,0,10000,0,0,0,
2026-03-18 03:00:00,METAR VVCI 180300Z 13008KT 110V170 9999 FEW015 SCT019 BKN039 25/20 Q1017 NOSIG,0,8,0,10000,0,0,0,
2026-03-18 02:30:00,METAR VVCI 180230Z 13007KT 9999 SCT017 BKN039 26/21 Q1016 NOSIG,0,7,0,10000,0,0,0,
2026-03-18 02:00:00,METAR VVCI 180200Z 14007KT 100V160 9999 SCT014 BKN041 24/20 Q1016 NOSIG,0,7,0,10000,0,0,0,
2026-03-18 01:30:00,METAR VVCI 180130Z 13006KT 100V160 9999 SCT013 BKN040 24/21 Q1016 NOSIG,0,6,0,10000,0,0,0,
2026-03-18 01:00:00,METAR VVCI 180100Z 12007KT 9999 BKN011 BKN032 24/21 Q1015 NOSIG,0,7,0,10000,0,0,0,
2026-03-18 00:30:00,METAR VVCI 180030Z 11004KT 9999 FEW013 BKN016 BKN029 23/20 Q1015 NOSIG,0,4,0,10000,0,0,0,
2026-03-18 00:00:00,METAR VVCI 180000Z 09004KT 9999 SCT015 BKN032 BKN037 22/20 Q1014 NOSIG,0,4,0,10000,0,0,0,
2026-03-17 23:30:00,METAR VVCI 172330Z 09005KT 9999 FEW010 BKN036 22/20 Q1014 NOSIG,0,5,0,10000,0,0,0,
2026-03-17 23:00:00,METAR VVCI 172300Z 08003KT 9999 FEW011 BKN033 21/20 Q1014 NOSIG,0,3,0,10000,0,0,0,
2026-03-17 22:30:00,METAR VVCI 172230Z 08004KT 9999 FEW013 21/20 Q1013 NOSIG,0,4,0,10000,0,0,0,
2026-03-17 22:00:00,METAR VVCI 172200Z 10003KT 070V140 9999 SCT009 BKN029 22/20 Q1013 NOSIG,0,3,0,10000,0,0,0,
2026-03-17 21:30:00,METAR VVCI 172130Z VRB02KT 9999 BKN010 BKN020 22/20 Q1013 NOSIG,0,2,0,10000,0,0,0,
2026-03-17 21:00:00,METAR VVCI 172100Z 09003KT 9999 SCT011 BKN025 22/20 Q1012 NOSIG,0,3,0,10000,0,0,0,
2026-03-17 20:30:00,METAR VVCI 172030Z 10002KT 9999 SCT010 BKN013 22/20 Q1012 NOSIG,0,2,0,10000,0,0,0,
2026-03-17 20:00:00,METAR VVCI 172000Z 09006KT 9999 BKN010 BKN020 22/20 Q1012 NOSIG,0,6,0,10000,0,0,0,
2026-03-17 19:30:00,METAR VVCI 171930Z 09007KT 9999 FEW010 BKN013 BKN017 22/20 Q1012 NOSIG,0,7,0,10000,0,0,0,
2026-03-17 19:00:00,METAR VVCI 171900Z 12005KT 9999 FEW013 BKN016 BKN020 22/20 Q1012 NOSIG,0,5,0,10000,0,0,0,
2026-03-17 18:30:00,METAR VVCI 171830Z 12004KT 9999 BKN013 BKN018 22/20 Q1013 NOSIG,0,4,0,10000,0,0,0,
2026-03-17 18:00:00,METAR VVCI 171800Z 12002KT 9999 FEW014 BKN018 22/20 Q1014 NOSIG,0,2,0,10000,0,0,0,
2026-03-17 17:30:00,METAR VVCI 171730Z 12004KT 9999 SCT014 BKN017 BKN020 22/20 Q1014 NOSIG,0,4,0,10000,0,0,0,
2026-03-17 17:00:00,METAR VVCI 171700Z 10003KT 9999 BKN014 BKN021 22/20 Q1015 NOSIG,0,3,0,10000,0,0,0,
2026-03-17 16:30:00,METAR VVCI 171630Z 12004KT 090V150 9999 FEW012 BKN015 BKN022 23/20 Q1015 NOSIG,0,4,0,10000,0,0,0,
2026-03-17 16:00:00,METAR VVCI 171600Z 11004KT 070V140 9999 SCT012 BKN017 23/20 Q1015 NOSIG,0,4,0,10000,0,0,0,
2026-03-17 15:30:00,METAR VVCI 171530Z 12006KT 9999 SCT012 BKN015 BKN019 23/20 Q1015 NOSIG,0,6,0,10000,0,0,0,
2026-03-17 15:00:00,METAR VVCI 171500Z 12006KT 9999 FEW012 BKN014 BKN017 23/20 Q1014 NOSIG,0,6,0,10000,0,0,0,
2026-03-17 14:30:00,METAR VVCI 171430Z 13007KT 9999 FEW014 23/20 Q1014 NOSIG,0,7,0,10000,0,0,0,
2026-03-17 14:00:00,METAR VVCI 171400Z 13005KT 9999 FEW013 23/20 Q1014 NOSIG,0,5,0,10000,0,0,0,
2026-03-17 13:30:00,METAR VVCI 171330Z 13006KT 9999 FEW012 23/20 Q1014 NOSIG,0,6,0,10000,0,0,0,
2026-03-17 13:00:00,METAR VVCI 171300Z 12004KT 080V140 9999 FEW012 23/20 Q1014 NOSIG,0,4,0,10000,0,0,0,
2026-03-17 12:30:00,METAR VVCI 171230Z 13005KT 9999 FEW015 23/20 Q1013 NOSIG,0,5,0,10000,0,0,0,
2026-03-17 12:00:00,METAR VVCI 171200Z 13006KT 9999 FEW014 SCT023 23/20 Q1013 NOSIG,0,6,0,10000,0,0,0,
2026-03-17 11:30:00,METAR VVCI 171130Z 14007KT 9999 SCT014 BKN016 23/20 Q1013 NOSIG,0,7,0,10000,0,0,0,
2026-03-17 11:00:00,METAR VVCI 171100Z 13009KT 9999 BKN013 BKN015 BKN018 23/20 Q1012 NOSIG,0,9,0,10000,0,0,0,
2026-03-17 10:30:00,METAR VVCI 171030Z 13010KT 9999 BKN013 BKN020 BKN042 23/20 Q1012 NOSIG,0,10,0,10000,0,0,0,
2026-03-17 10:00:00,METAR VVCI 171000Z 13010KT 9999 SCT017 BKN033 BKN040 24/20 Q1012 NOSIG,0,10,0,10000,0,0,0,
2026-03-17 09:30:00,METAR VVCI 170930Z 14010KT 9999 SCT016 SCT019 BKN036 24/20 Q1012 NOSIG,0,10,0,10000,0,0,0,
2026-03-17 09:00:00,METAR VVCI 170900Z 14009KT 110V170 9999 FEW020 BKN027 24/20 Q1012 NOSIG,0,9,0,10000,0,0,0,
2026-03-17 08:30:00,METAR VVCI 170830Z 17012KT 9999 SCT021 25/20 Q1012 NOSIG,0,12,0,10000,0,0,0,
2026-03-17 08:00:00,METAR VVCI 170800Z 17012KT 140V200 9999 SCT021 SCT046 25/20 Q1012 NOSIG,0,12,0,10000,0,0,0,
2026-03-17 07:30:00,METAR VVCI 170730Z 16011KT 9999 FEW020 BKN047 25/19 Q1012 NOSIG,0,11,0,10000,0,0,0,
2026-03-17 07:00:00,METAR VVCI 170700Z 16012KT 9999 SCT024 BKN039 BKN046 25/19 Q1013 NOSIG,0,12,0,10000,0,0,0,
2026-03-17 06:30:00,METAR VVCI 170630Z 18013KT 9999 FEW020 BKN023 BKN026 26/19 Q1014 NOSIG,0,13,0,10000,0,0,0,
2026-03-17 06:00:00,METAR VVCI 170600Z 17013KT 9999 SCT020 BKN024 27/19 Q1014 NOSIG,0,13,0,10000,0,0,0,
2026-03-17 05:30:00,METAR VVCI 170530Z 17012KT 140V200 9999 SCT020 SCT024 BKN029 26/19 Q1014 NOSIG,0,12,0,10000,0,0,0,
2026-03-17 05:00:00,METAR VVCI 170500Z 18011KT 150V210 9999 FEW022 BKN025 25/20 Q1015 NOSIG,0,11,0,10000,0,0,0,
2026-03-17 04:30:00,METAR VVCI 170430Z 17010KT 130V190 9999 BKN021 25/19 Q1015 NOSIG,0,10,0,10000,0,0,0,
2026-03-17 04:00:00,METAR VVCI 170400Z 13006KT 110V190 9999 BKN019 BKN028 BKN032 25/20 Q1016 NOSIG,0,6,0,10000,0,0,0,
2026-03-17 03:30:00,METAR VVCI 170330Z 13009KT 9999 SCT019 BKN027 BKN034 25/19 Q1016 NOSIG,0,9,0,10000,0,0,0,
2026-03-17 03:00:00,METAR VVCI 170300Z 14008KT 110V170 9999 SCT020 BKN033 BKN041 25/19 Q1016 NOSIG,0,8,0,10000,0,0,0,
2026-03-17 02:30:00,METAR VVCI 170230Z 12007KT 9999 FEW023 BKN032 OVC040 24/19 Q1016 NOSIG,0,7,0,10000,0,0,0,
2026-03-17 02:00:00,METAR VVCI 170200Z 12006KT 9999 FEW021 OVC032 23/19 Q1016 NOSIG,0,6,0,10000,0,0,0,
2026-03-17 01:30:00,METAR VVCI 170130Z 12006KT 9999 SCT026 OVC034 23/19 Q1016 NOSIG,0,6,0,10000,0,0,0,
2026-03-17 01:00:00,METAR VVCI 170100Z 11007KT 9999 FEW011 BKN026 22/19 Q1015 NOSIG,0,7,0,10000,0,0,0,
2026-03-17 00:30:00,METAR VVCI 170030Z 11006KT 9999 FEW011 SCT025 22/19 Q1015 NOSIG,0,6,0,10000,0,0,0,
2026-03-17 00:00:00,METAR VVCI 170000Z 10005KT 9999 FEW017 21/19 Q1014 NOSIG,0,5,0,10000,0,0,0,
2026-03-16 23:30:00,METAR VVCI 162330Z 10005KT 9999 FEW017 21/19 Q1014 NOSIG,0,5,0,10000,0,0,0,
2026-03-16 23:00:00,METAR VVCI 162300Z 11004KT 9999 FEW018 SCT030 BKN037 21/19 Q1014 NOSIG,0,4,0,10000,0,0,0,
2026-03-16 22:00:00,METAR VVCI 162200Z 12004KT 9999 SCT022 21/19 Q1013 NOSIG,0,4,0,10000,0,0,0,
2026-03-16 21:30:00,METAR VVCI 162130Z 13003KT 9999 SCT019 21/19 Q1013 NOSIG,0,3,0,10000,0,0,0,
2026-03-16 21:00:00,METAR VVCI 162100Z 11002KT 9999 BKN020 21/19 Q1013 NOSIG,0,2,0,10000,0,0,0,
2026-03-16 20:30:00,METAR VVCI 162030Z 11002KT 9999 BKN020 21/19 Q1013 NOSIG,0,2,0,10000,0,0,0,
2026-03-16 20:00:00,METAR VVCI 162000Z 09003KT 9999 BKN019 21/19 Q1014 NOSIG,0,3,0,10000,0,0,0,
2026-03-16 19:30:00,METAR VVCI 161930Z 09003KT 9999 BKN019 21/19 Q1014 NOSIG,0,3,0,10000,0,0,0,
2026-03-16 19:00:00,METAR VVCI 161900Z 09003KT 030V120 9999 FEW020 21/19 Q1014 NOSIG,0,3,0,10000,0,0,0,
2026-03-16 18:30:00,METAR VVCI 161830Z 09003KT 030V120 9999 FEW020 21/19 Q1014 NOSIG,0,3,0,10000,0,0,0,
2026-03-16 18:00:00,METAR VVCI 161800Z 08003KT 9999 FEW020 21/19 Q1015 NOSIG,0,3,0,10000,0,0,0,
2026-03-16 17:30:00,METAR VVCI 161730Z 07003KT 9999 FEW020 21/19 Q1015 NOSIG,0,3,0,10000,0,0,0,
2026-03-16 17:00:00,METAR VVCI 161700Z 08004KT CAVOK 21/19 Q1015 NOSIG,1,0,0,9999,0,0,0,
2026-03-16 16:30:00,METAR VVCI 161630Z 11005KT CAVOK 22/19 Q1015 NOSIG,1,0,0,9999,0,0,0,
2026-03-16 16:00:00,METAR VVCI 161600Z 12004KT CAVOK 22/19 Q1016 NOSIG,1,0,0,9999,0,0,0,
2026-03-16 15:30:00,METAR VVCI 161530Z 11005KT CAVOK 22/19 Q1016 NOSIG,1,0,0,9999,0,0,0,
2026-03-16 15:00:00,METAR VVCI 161500Z 11005KT CAVOK 22/19 Q1016 NOSIG,1,0,0,9999,0,0,0,
2026-03-16 14:30:00,METAR VVCI 161430Z 12006KT CAVOK 22/19 Q1015 NOSIG,1,0,0,9999,0,0,0,
2026-03-16 14:00:00,METAR VVCI 161400Z 13006KT CAVOK 22/19 Q1015 NOSIG,1,0,0,9999,0,0,0,
2026-03-16 13:30:00,METAR VVCI 161330Z 13006KT CAVOK 22/19 Q1014 NOSIG,1,0,0,9999,0,0,0,
2026-03-16 13:00:00,METAR VVCI 161300Z 13006KT CAVOK 22/19 Q1014 NOSIG,1,0,0,9999,0,0,0,
2026-03-16 12:30:00,METAR VVCI 161230Z 13006KT CAVOK 22/19 Q1014 NOSIG,1,0,0,9999,0,0,0,
2026-03-16 12:00:00,METAR VVCI 161200Z 14006KT 110V170 CAVOK 22/19 Q1014 NOSIG,1,0,0,9999,0,0,0,
2026-03-16 11:30:00,METAR VVCI 161130Z 14007KT CAVOK 22/19 Q1013 NOSIG,1,0,0,9999,0,0,0,
2026-03-16 11:00:00,METAR VVCI 161100Z 13008KT CAVOK 23/19 Q1013 NOSIG,1,0,0,9999,0,0,0,
2026-03-16 10:30:00,METAR VVCI 161030Z 14008KT 110V170 CAVOK 23/19 Q1013 NOSIG,1,0,0,9999,0,0,0,
2026-03-16 10:00:00,METAR VVCI 161000Z 16007KT 9999 BKN048 24/19 Q1014 NOSIG,0,7,0,10000,0,0,0,
2026-03-16 09:30:00,METAR VVCI 160930Z 16006KT 130V200 9999 FEW044 24/18 Q1014 NOSIG,0,6,0,10000,0,0,0,
2026-03-16 09:00:00,METAR VVCI 160900Z 17008KT 130V190 9999 SCT045 24/18 Q1014 NOSIG,0,8,0,10000,0,0,0,
2026-03-16 08:30:00,METAR VVCI 160830Z 19007KT 9999 BKN040 24/18 Q1014 NOSIG,0,7,0,10000,0,0,0,
2026-03-16 08:00:00,METAR VVCI 160800Z 18009KT 9999 OVC039 24/19 Q1014 NOSIG,0,9,0,10000,0,0,0,
2026-03-16 07:30:00,METAR VVCI 160730Z 18009KT 150V210 9999 FEW011 SCT016 OVC043 23/19 Q1015 NOSIG,0,9,0,10000,0,0,0,
2026-03-16 07:00:00,METAR VVCI 160700Z 19011KT 9999 FEW011 BKN015 24/20 Q1015 NOSIG,0,11,0,10000,0,0,0,
2026-03-16 06:30:00,METAR VVCI 160630Z 18010KT 150V210 9999 FEW025 25/19 Q1016 NOSIG,0,10,0,10000,0,0,0,
2026-03-16 06:00:00,METAR VVCI 160600Z 15009KT 110V170 9999 FEW023 SCT030 25/20 Q1016 NOSIG,0,9,0,10000,0,0,0,
2026-03-16 05:30:00,METAR VVCI 160530Z 13010KT 9999 BKN049 25/19 Q1016 NOSIG,0,10,0,10000,0,0,0,
2026-03-16 05:00:00,METAR VVCI 160500Z 14009KT 100V160 9999 FEW049 26/19 Q1017 NOSIG,0,9,0,10000,0,0,0,
2026-03-16 04:30:00,METAR VVCI 160430Z 13009KT 100V170 9999 FEW046 26/19 Q1017 NOSIG,0,9,0,10000,0,0,0,
2026-03-16 04:00:00,METAR VVCI 160400Z 13007KT 100V180 9999 FEW028 26/19 Q1018 NOSIG,0,7,0,10000,0,0,0,
2026-03-16 03:30:00,METAR VVCI 160330Z 15007KT 110V170 9999 FEW023 25/19 Q1018 NOSIG,0,7,0,10000,0,0,0,
2026-03-16 03:00:00,METAR VVCI 160300Z 13003KT 070V200 9999 FEW021 25/18 Q1018 NOSIG,0,3,0,10000,0,0,0,
2026-03-16 02:30:00,METAR VVCI 160230Z 13005KT 100V170 9999 FEW019 24/19 Q1018 NOSIG,0,5,0,10000,0,0,0,
2026-03-16 02:00:00,METAR VVCI 160200Z 10007KT 9999 FEW018 24/19 Q1018 NOSIG,0,7,0,10000,0,0,0,
2026-03-16 01:30:00,METAR VVCI 160130Z 07005KT 360V110 CAVOK 24/19 Q1018 NOSIG,1,0,0,9999,0,0,0,
2026-03-16 01:00:00,METAR VVCI 160100Z 11008KT CAVOK 24/19 Q1017 NOSIG,1,0,0,9999,0,0,0,
2026-03-16 00:30:00,METAR VVCI 160030Z 10006KT 9999 FEW036 SCT045 22/18 Q1017 NOSIG,0,6,0,10000,0,0,0,
2026-03-16 00:00:00,METAR VVCI 160000Z 08005KT 9999 FEW016 BKN039 22/19 Q1017 NOSIG,0,5,0,10000,0,0,0,
2026-03-15 23:30:00,METAR VVCI 152330Z 09005KT 9999 FEW016 SCT025 BKN039 21/18 Q1017 NOSIG,0,5,0,10000,0,0,0,
2026-03-15 23:00:00,METAR VVCI 152300Z 09004KT 9999 FEW016 BKN026 21/18 Q1016 NOSIG,0,4,0,10000,0,0,0,
2026-03-15 22:30:00,METAR VVCI 152230Z 08005KT 9999 FEW020 OVC025 21/18 Q1016 NOSIG,0,5,0,10000,0,0,0,
2026-03-15 22:00:00,METAR VVCI 152200Z 08005KT 9999 FEW018 BKN022 BKN033 21/18 Q1016 NOSIG,0,5,0,10000,0,0,0,
2026-03-15 21:30:00,METAR VVCI 152130Z 09006KT 9999 SCT022 BKN044 21/18 Q1015 NOSIG,0,6,0,10000,0,0,0,
2026-03-15 21:00:00,METAR VVCI 152100Z 08006KT 9999 FEW020 OVC045 22/18 Q1015 NOSIG,0,6,0,10000,0,0,0,
2026-03-15 20:30:00,METAR VVCI 152030Z 11005KT 9999 SCT019 BKN024 OVC047 22/18 Q1016 NOSIG,0,5,0,10000,0,0,0,
2026-03-15 20:00:00,METAR VVCI 152000Z 12005KT 9999 SCT020 BKN024 22/18 Q1016 NOSIG,0,5,0,10000,0,0,0,
2026-03-15 19:30:00,METAR VVCI 151930Z 11005KT 9999 BKN021 22/18 Q1016 NOSIG,0,5,0,10000,0,0,0,
2026-03-15 19:00:00,METAR VVCI 151900Z 11003KT 9999 FEW022 SCT040 BKN048 22/18 Q1017 NOSIG,0,3,0,10000,0,0,0,
2026-03-15 18:30:00,METAR VVCI 151830Z 13003KT 100V160 9999 FEW040 SCT048 22/18 Q1017 NOSIG,0,3,0,10000,0,0,0,
2026-03-15 18:00:00,METAR VVCI 151800Z 09003KT 9999 SCT039 22/18 Q1017 NOSIG,0,3,0,10000,0,0,0,
2026-03-15 17:30:00,METAR VVCI 151730Z VRB02KT 9999 FEW038 22/18 Q1018 NOSIG,0,2,0,10000,0,0,0,
2026-03-15 17:00:00,METAR VVCI 151700Z 12002KT CAVOK 22/18 Q1018 NOSIG,1,0,0,9999,0,0,0,
2026-03-15 16:30:00,METAR VVCI 151630Z VRB02KT 9999 FEW038 22/18 Q1018 NOSIG,0,2,0,10000,0,0,0,
2026-03-15 16:00:00,METAR VVCI 151600Z 00000KT CAVOK 22/18 Q1019 NOSIG,1,0,0,9999,0,0,0,
2026-03-15 15:30:00,METAR VVCI 151530Z 10003KT CAVOK 22/18 Q1018 NOSIG,1,0,0,9999,0,0,0,
2026-03-15 15:00:00,METAR VVCI 151500Z 12006KT CAVOK 22/18 Q1018 NOSIG,1,0,0,9999,0,0,0,
2026-03-15 14:30:00,METAR VVCI 151430Z 10008KT CAVOK 22/18 Q1018 NOSIG,1,0,0,9999,0,0,0,
2026-03-15 14:00:00,METAR VVCI 151400Z 12006KT CAVOK 22/18 Q1018 NOSIG,1,0,0,9999,0,0,0,
2026-03-15 13:30:00,METAR VVCI 151330Z 13005KT 090V160 CAVOK 22/18 Q1018 NOSIG,1,0,0,9999,0,0,0,
2026-03-15 13:00:00,METAR VVCI 151300Z 13005KT CAVOK 22/18 Q1018 NOSIG,1,0,0,9999,0,0,0,
2026-03-15 12:30:00,METAR VVCI 151230Z 13007KT CAVOK 22/18 Q1018 NOSIG,1,0,0,9999,0,0,0,
2026-03-15 12:00:00,METAR VVCI 151200Z 15008KT CAVOK 22/19 Q1017 NOSIG,1,0,0,9999,0,0,0,
2026-03-15 11:30:00,METAR VVCI 151130Z 15008KT CAVOK 22/19 Q1017 NOSIG,1,0,0,9999,0,0,0,
2026-03-15 11:00:00,METAR VVCI 151100Z 13009KT CAVOK 23/18 Q1017 NOSIG,1,0,0,9999,0,0,0,
2026-03-15 10:30:00,METAR VVCI 151030Z 14011KT CAVOK 23/18 Q1017 NOSIG,1,0,0,9999,0,0,0,
2026-03-15 10:00:00,METAR VVCI 151000Z 14011KT CAVOK 23/18 Q1017 NOSIG,1,0,0,9999,0,0,0,
2026-03-15 09:30:00,METAR VVCI 150930Z 14012KT CAVOK 24/18 Q1016 NOSIG,1,0,0,9999,0,0,0,
2026-03-15 09:00:00,METAR VVCI 150900Z 13013KT CAVOK 24/18 Q1016 NOSIG,1,0,0,9999,0,0,0,
2026-03-15 08:30:00,METAR VVCI 150830Z 14012KT CAVOK 24/18 Q1017 NOSIG,1,0,0,9999,0,0,0,
2026-03-15 08:00:00,METAR VVCI 150800Z 13013KT CAVOK 25/18 Q1017 NOSIG,1,0,0,9999,0,0,0,
