Time_recorded,METAR,is_cavok,wind_speed,is_gust,visibility_meters,has_thunderstorm,has_heavy_rain,has_low_vis_fog,other_phenomenon
2026-05-02 15:20:00,METAR EGGW 021520Z AUTO 14004KT 090V210 9999 NCD 20/08 Q1013,0,4,0,10000,0,0,0,
2026-05-02 14:50:00,METAR EGGW 021450Z AUTO 22006KT 170V260 9999 NCD 21/07 Q1013,0,6,0,10000,0,0,0,
2026-05-02 14:20:00,METAR EGGW 021420Z AUTO 21005KT 150V260 9999 NCD 21/07 Q1014,0,5,0,10000,0,0,0,
2026-05-02 13:50:00,METAR EGGW 021350Z AUTO 19005KT 110V260 9999 NCD 21/07 Q1014,0,5,0,10000,0,0,0,
2026-05-02 13:20:00,METAR EGGW 021320Z AUTO 17006KT 100V230 9999 NCD 20/07 Q1015,0,6,0,10000,0,0,0,
2026-05-02 12:50:00,METAR EGGW 021250Z AUTO 19006KT 140V240 9999 NCD 19/08 Q1015,0,6,0,10000,0,0,0,
2026-05-02 12:20:00,METAR EGGW 021220Z AUTO 19005KT 120V250 9999 NCD 19/07 Q1015,0,5,0,10000,0,0,0,
2026-05-02 11:50:00,METAR EGGW 021150Z AUTO VRB04KT 9999 NCD 18/08 Q1016,0,4,0,10000,0,0,0,
2026-05-02 11:20:00,METAR EGGW 021120Z AUTO 18006KT 140V230 9999 NCD 18/07 Q1016,0,6,0,10000,0,0,0,
2026-05-02 10:50:00,METAR EGGW 021050Z AUTO 24006KT 150V290 9999 NCD 17/06 Q1016,0,6,0,10000,0,0,0,
2026-05-02 10:20:00,METAR EGGW 021020Z AUTO VRB04KT 9999 NCD 17/07 Q1017,0,4,0,10000,0,0,0,
2026-05-02 09:50:00,METAR EGGW 020950Z AUTO 19004KT 130V250 9999 SCT030 17/07 Q1017,0,4,0,10000,0,0,0,
2026-05-02 09:20:00,METAR EGGW 020920Z AUTO VRB03KT 9999 FEW024 16/09 Q1017,0,3,0,10000,0,0,0,
2026-05-02 08:50:00,METAR EGGW 020850Z AUTO 20003KT 150V260 9999 NCD 16/10 Q1017,0,3,0,10000,0,0,0,
2026-05-02 08:20:00,METAR EGGW 020820Z AUTO 20003KT 130V240 9999 NCD 14/10 Q1018,0,3,0,10000,0,0,0,
2026-05-02 07:50:00,METAR EGGW 020750Z AUTO 21004KT 160V220 9999 NCD 12/10 Q1018,0,4,0,10000,0,0,0,
2026-05-02 07:20:00,METAR EGGW 020720Z AUTO 22004KT 190V250 9999 NCD 12/09 Q1018,0,4,0,10000,0,0,0,
2026-05-02 06:50:00,METAR EGGW 020650Z AUTO 23004KT 9999 NCD 11/09 Q1018,0,4,0,10000,0,0,0,
2026-05-02 06:20:00,METAR EGGW 020620Z AUTO 19003KT 9999 NCD 10/09 Q1018,0,3,0,10000,0,0,0,
2026-05-02 05:50:00,METAR EGGW 020550Z AUTO 22003KT 8000 NCD 09/08 Q1018,0,3,0,8000,0,0,0,
2026-05-02 05:20:00,METAR EGGW 020520Z AUTO VRB02KT 8000 NCD 09/08 Q1017,0,2,0,8000,0,0,0,
2026-05-02 04:50:00,METAR EGGW 020450Z AUTO 25006KT 9999 FEW007 08/08 Q1017,0,6,0,10000,0,0,0,
2026-05-02 04:20:00,METAR EGGW 020420Z AUTO 24006KT 9000 NCD 08/08 Q1017,0,6,0,9000,0,0,0,
2026-05-02 03:50:00,METAR EGGW 020350Z AUTO 24005KT 9999 NCD 09/08 Q1018,0,5,0,10000,0,0,0,
2026-05-02 03:20:00,METAR EGGW 020320Z AUTO 24005KT 9999 NCD 09/08 Q1018,0,5,0,10000,0,0,0,
2026-05-02 02:50:00,METAR EGGW 020250Z AUTO 24006KT 9999 NCD 10/08 Q1018,0,6,0,10000,0,0,0,
2026-05-02 02:20:00,METAR EGGW 020220Z AUTO 26006KT 9999 NCD 10/08 Q1018,0,6,0,10000,0,0,0,
2026-05-02 01:50:00,METAR EGGW 020150Z AUTO 27006KT 9999 FEW036 10/08 Q1018,0,6,0,10000,0,0,0,
2026-05-02 01:20:00,METAR EGGW 020120Z AUTO 23005KT 9999 SCT035 11/09 Q1018,0,5,0,10000,0,0,0,
2026-05-02 00:50:00,METAR EGGW 020050Z AUTO 20004KT 170V230 9999 BKN032 12/10 Q1019,0,4,0,10000,0,0,0,
2026-05-02 00:20:00,METAR EGGW 020020Z AUTO 21004KT 9999 BKN031 12/10 Q1019,0,4,0,10000,0,0,0,
2026-05-01 23:50:00,METAR EGGW 012350Z AUTO 21004KT 9999 SCT032 12/10 Q1019,0,4,0,10000,0,0,0,
2026-05-01 23:20:00,METAR EGGW 012320Z AUTO 19004KT 9999 FEW028 BKN033 13/10 Q1019,0,4,0,10000,0,0,0,
2026-05-01 22:50:00,METAR EGGW 012250Z AUTO 21003KT 9999 NCD 12/10 Q1019,0,3,0,10000,0,0,0,
2026-05-01 22:20:00,METAR EGGW 012220Z AUTO 23004KT 9999 NCD 13/10 Q1019,0,4,0,10000,0,0,0,
2026-05-01 21:50:00,METAR EGGW 012150Z AUTO 23005KT 9999 NCD 14/10 Q1019,0,5,0,10000,0,0,0,
2026-05-01 21:20:00,METAR EGGW 012120Z AUTO 21006KT 170V230 9999 NCD 15/11 Q1019,0,6,0,10000,0,0,0,
2026-05-01 20:50:00,METAR EGGW 012050Z AUTO 21005KT 9999 NCD 15/11 Q1019,0,5,0,10000,0,0,0,
2026-05-01 20:20:00,METAR EGGW 012020Z AUTO 21005KT 9999 NCD 15/11 Q1019,0,5,0,10000,0,0,0,
2026-05-01 19:50:00,METAR EGGW 011950Z AUTO 22006KT 9999 NCD 17/11 Q1019,0,6,0,10000,0,0,0,
2026-05-01 19:20:00,METAR EGGW 011920Z AUTO 23009KT 9999 NCD 17/12 Q1018,0,9,0,10000,0,0,0,
2026-05-01 18:50:00,METAR EGGW 011850Z AUTO 22008KT 9999 NCD 18/12 Q1018,0,8,0,10000,0,0,0,
2026-05-01 18:20:00,METAR EGGW 011820Z AUTO 22006KT 9999 FEW043 19/12 Q1018,0,6,0,10000,0,0,0,
2026-05-01 17:50:00,METAR EGGW 011750Z AUTO 21008KT 180V250 9999 NCD 20/12 Q1018,0,8,0,10000,0,0,0,
2026-05-01 17:20:00,METAR EGGW 011720Z AUTO 21009KT 9999 NCD 20/12 Q1018,0,9,0,10000,0,0,0,
2026-05-01 16:50:00,METAR EGGW 011650Z AUTO 22011KT 9999 NCD 21/11 Q1018,0,11,0,10000,0,0,0,
2026-05-01 16:20:00,METAR EGGW 011620Z AUTO 19007KT 140V230 9999 NCD 23/11 Q1018,0,7,0,10000,0,0,0,
2026-05-01 15:50:00,METAR EGGW 011550Z AUTO 19008KT 150V230 9999 NCD 23/10 Q1018,0,8,0,10000,0,0,0,
2026-05-01 15:20:00,METAR EGGW 011520Z AUTO 21010KT 170V230 9999 NCD 23/09 Q1018,0,10,0,10000,0,0,0,
2026-05-01 14:50:00,METAR EGGW 011450Z AUTO 17008KT 130V210 9999 NCD 23/08 Q1018,0,8,0,10000,0,0,0,
2026-05-01 14:20:00,METAR EGGW 011420Z AUTO 21010KT 9999 NCD 24/08 Q1019,0,10,0,10000,0,0,0,
2026-05-01 13:50:00,METAR EGGW 011350Z AUTO 15011KT 130V200 9999 NCD 23/07 Q1019,0,11,0,10000,0,0,0,
2026-05-01 13:20:00,METAR EGGW 011320Z AUTO 15011KT 120V190 9999 NCD 22/06 Q1019,0,11,0,10000,0,0,0,
2026-05-01 12:50:00,METAR EGGW 011250Z AUTO 15010KT 120V200 9999 NCD 23/06 Q1019,0,10,0,10000,0,0,0,
2026-05-01 12:20:00,METAR EGGW 011220Z AUTO 16010KT 130V210 9999 NCD 22/06 Q1019,0,10,0,10000,0,0,0,
2026-05-01 11:50:00,METAR EGGW 011150Z AUTO 16008KT 120V180 9999 NCD 21/05 Q1020,0,8,0,10000,0,0,0,
2026-05-01 11:20:00,METAR EGGW 011120Z AUTO 12010KT 9999 NCD 21/05 Q1020,0,10,0,10000,0,0,0,
2026-05-01 10:50:00,METAR EGGW 011050Z AUTO 12009KT 090V150 9999 NCD 20/05 Q1020,0,9,0,10000,0,0,0,
2026-05-01 10:20:00,METAR EGGW 011020Z AUTO 12007KT 090V170 9999 NCD 20/06 Q1020,0,7,0,10000,0,0,0,
2026-05-01 09:50:00,METAR EGGW 010950Z AUTO 12008KT 090V150 9999 NCD 18/05 Q1020,0,8,0,10000,0,0,0,
2026-05-01 09:20:00,METAR EGGW 010920Z AUTO 13008KT 9999 NCD 17/04 Q1020,0,8,0,10000,0,0,0,
2026-05-01 08:50:00,METAR EGGW 010850Z AUTO 14008KT 110V170 9999 NCD 16/04 Q1021,0,8,0,10000,0,0,0,
2026-05-01 08:20:00,METAR EGGW 010820Z AUTO 15007KT 120V180 9999 NCD 15/04 Q1021,0,7,0,10000,0,0,0,
2026-05-01 07:50:00,METAR EGGW 010750Z AUTO 15006KT 9999 NCD 14/03 Q1021,0,6,0,10000,0,0,0,
2026-05-01 07:20:00,METAR EGGW 010720Z AUTO 12007KT 9999 NCD 13/03 Q1020,0,7,0,10000,0,0,0,
2026-05-01 06:50:00,METAR EGGW 010650Z AUTO 13008KT 9999 NCD 11/03 Q1020,0,8,0,10000,0,0,0,
2026-05-01 06:20:00,METAR EGGW 010620Z AUTO 13008KT 9999 NCD 10/02 Q1020,0,8,0,10000,0,0,0,
2026-05-01 05:50:00,METAR EGGW 010550Z AUTO 12007KT 9999 NCD 09/02 Q1020,0,7,0,10000,0,0,0,
2026-05-01 05:20:00,METAR EGGW 010520Z AUTO 12006KT 9999 NCD 08/02 Q1020,0,6,0,10000,0,0,0,
2026-05-01 04:50:00,METAR EGGW 010450Z AUTO 12007KT 9999 NCD 08/02 Q1020,0,7,0,10000,0,0,0,
2026-05-01 04:20:00,METAR EGGW 010420Z AUTO 12007KT 9999 NCD 07/02 Q1020,0,7,0,10000,0,0,0,
2026-05-01 03:50:00,METAR EGGW 010350Z AUTO 12006KT 9999 NCD 07/03 Q1020,0,6,0,10000,0,0,0,
2026-05-01 03:20:00,METAR EGGW 010320Z AUTO 13006KT 9999 NCD 08/03 Q1020,0,6,0,10000,0,0,0,
2026-05-01 02:50:00,METAR EGGW 010250Z AUTO 13008KT 9999 NCD 09/03 Q1020,0,8,0,10000,0,0,0,
2026-05-01 02:20:00,METAR EGGW 010220Z AUTO 13007KT 9999 NCD 09/03 Q1020,0,7,0,10000,0,0,0,
2026-05-01 01:50:00,METAR EGGW 010150Z AUTO 13006KT 9999 NCD 08/03 Q1021,0,6,0,10000,0,0,0,
2026-05-01 01:20:00,METAR EGGW 010120Z AUTO 13007KT 9999 NCD 09/03 Q1021,0,7,0,10000,0,0,0,
2026-05-01 00:50:00,METAR EGGW 010050Z AUTO 13007KT 9999 NCD 08/03 Q1021,0,7,0,10000,0,0,0,
2026-05-01 00:20:00,METAR EGGW 010020Z AUTO 13006KT 9999 NCD 09/03 Q1021,0,6,0,10000,0,0,0,
2026-04-30 23:50:00,METAR EGGW 302350Z AUTO 12005KT 9999 NCD 09/02 Q1021,0,5,0,10000,0,0,0,
2026-04-30 23:20:00,METAR EGGW 302320Z AUTO 11005KT 9999 NCD 09/02 Q1021,0,5,0,10000,0,0,0,
2026-04-30 22:50:00,METAR EGGW 302250Z AUTO 11005KT 9999 NCD 10/02 Q1021,0,5,0,10000,0,0,0,
2026-04-30 22:20:00,METAR EGGW 302220Z AUTO 10008KT 9999 NCD 11/01 Q1021,0,8,0,10000,0,0,0,
2026-04-30 21:50:00,METAR EGGW 302150Z AUTO 11007KT 9999 NCD 11/01 Q1021,0,7,0,10000,0,0,0,
2026-04-30 21:20:00,METAR EGGW 302120Z AUTO 10008KT 9999 NCD 11/00 Q1021,0,8,0,10000,0,0,0,
2026-04-30 20:50:00,METAR EGGW 302050Z AUTO 11006KT 9999 NCD 11/00 Q1021,0,6,0,10000,0,0,0,
2026-04-30 20:20:00,METAR EGGW 302020Z AUTO 10007KT 9999 NCD 12/00 Q1021,0,7,0,10000,0,0,0,
2026-04-30 19:50:00,METAR EGGW 301950Z AUTO 10009KT 9999 NCD 13/00 Q1021,0,9,0,10000,0,0,0,
2026-04-30 19:20:00,METAR EGGW 301920Z AUTO 10006KT 9999 NCD 12/00 Q1021,0,6,0,10000,0,0,0,
2026-04-30 18:50:00,METAR EGGW 301850Z AUTO 11006KT 9999 NCD 14/M00 Q1021,0,6,0,10000,0,0,0,
2026-04-30 18:20:00,METAR EGGW 301820Z AUTO 11010KT 9999 NCD 16/M01 Q1021,0,10,0,10000,0,0,0,
2026-04-30 17:50:00,METAR EGGW 301750Z AUTO 10014KT 9999 NCD 16/M02 Q1021,0,14,0,10000,0,0,0,
2026-04-30 17:20:00,METAR EGGW 301720Z AUTO 10012KT 9999 NCD 17/M01 Q1021,0,12,0,10000,0,0,0,
2026-04-30 16:50:00,METAR EGGW 301650Z AUTO 11012KT 080V140 9999 NCD 17/M01 Q1021,0,12,0,10000,0,0,0,
2026-04-30 16:20:00,METAR EGGW 301620Z AUTO 10011KT 9999 NCD 18/01 Q1021,0,11,0,10000,0,0,0,
2026-04-30 14:50:00,METAR EGGW 301450Z AUTO 12016KT 090V150 9999 NCD 18/00 Q1021,0,16,0,10000,0,0,0,
2026-04-30 14:20:00,METAR EGGW 301420Z AUTO 11018KT 080V140 9999 NCD 19/M01 Q1021,0,18,0,10000,0,0,0,
2026-04-30 13:50:00,METAR EGGW 301350Z AUTO 12016KT 9999 NCD 19/00 Q1022,0,16,0,10000,0,0,0,
2026-04-30 13:20:00,METAR EGGW 301320Z AUTO 10014KT 9999 NCD 19/02 Q1022,0,14,0,10000,0,0,0,
2026-04-30 12:50:00,METAR EGGW 301250Z AUTO 12016KT 9999 NCD 18/02 Q1022,0,16,0,10000,0,0,0,
2026-04-30 12:20:00,METAR EGGW 301220Z AUTO 11016KT 9999 NCD 18/02 Q1022,0,16,0,10000,0,0,0,
2026-04-30 11:50:00,METAR EGGW 301150Z AUTO 12015KT 9999 NCD 18/02 Q1022,0,15,0,10000,0,0,0,
2026-04-30 11:20:00,METAR EGGW 301120Z AUTO 10014KT 9999 NCD 18/04 Q1022,0,14,0,10000,0,0,0,
2026-04-30 10:50:00,METAR EGGW 301050Z AUTO 11013KT 9999 NCD 17/04 Q1022,0,13,0,10000,0,0,0,
2026-04-30 10:20:00,METAR EGGW 301020Z AUTO 10013KT 070V130 9999 NCD 17/04 Q1023,0,13,0,10000,0,0,0,
2026-04-30 09:50:00,METAR EGGW 300950Z AUTO 11013KT 9999 NCD 16/04 Q1023,0,13,0,10000,0,0,0,
2026-04-30 09:20:00,METAR EGGW 300920Z AUTO 10012KT 9999 NCD 15/05 Q1023,0,12,0,10000,0,0,0,
2026-04-30 08:50:00,METAR EGGW 300850Z AUTO 10012KT 9999 NCD 15/05 Q1023,0,12,0,10000,0,0,0,
2026-04-30 08:20:00,METAR EGGW 300820Z AUTO 10013KT 9999 NCD 14/05 Q1023,0,13,0,10000,0,0,0,
2026-04-30 07:50:00,METAR EGGW 300750Z AUTO 10012KT 9999 NCD 13/05 Q1023,0,12,0,10000,0,0,0,
2026-04-30 07:20:00,METAR EGGW 300720Z AUTO 10012KT 9999 NCD 12/05 Q1023,0,12,0,10000,0,0,0,
2026-04-30 06:50:00,METAR EGGW 300650Z AUTO 10011KT 9999 NCD 11/05 Q1023,0,11,0,10000,0,0,0,
2026-04-30 06:20:00,METAR EGGW 300620Z AUTO 10008KT 9999 NCD 10/04 Q1023,0,8,0,10000,0,0,0,
2026-04-30 05:50:00,METAR EGGW 300550Z AUTO 10008KT 9999 NCD 09/04 Q1023,0,8,0,10000,0,0,0,
2026-04-30 05:20:00,METAR EGGW 300520Z AUTO 09007KT 9999 NCD 08/03 Q1023,0,7,0,10000,0,0,0,
2026-04-30 04:50:00,METAR EGGW 300450Z AUTO 09009KT 9999 NCD 08/03 Q1023,0,9,0,10000,0,0,0,
2026-04-30 04:20:00,METAR EGGW 300420Z AUTO 09008KT 9999 NCD 08/03 Q1023,0,8,0,10000,0,0,0,
2026-04-30 03:50:00,METAR EGGW 300350Z AUTO 09009KT 9999 NCD 08/03 Q1023,0,9,0,10000,0,0,0,
2026-04-30 03:20:00,METAR EGGW 300320Z AUTO 09009KT 9999 NCD 08/03 Q1023,0,9,0,10000,0,0,0,
2026-04-30 02:50:00,METAR EGGW 300250Z AUTO 08009KT 9999 NCD 08/03 Q1023,0,9,0,10000,0,0,0,
2026-04-30 02:20:00,METAR EGGW 300220Z AUTO 08008KT 9999 NCD 08/03 Q1023,0,8,0,10000,0,0,0,
2026-04-30 01:50:00,METAR EGGW 300150Z AUTO 08008KT 9999 NCD 08/04 Q1024,0,8,0,10000,0,0,0,
2026-04-30 01:20:00,METAR EGGW 300120Z AUTO 08008KT 9999 NCD 08/04 Q1024,0,8,0,10000,0,0,0,
2026-04-30 00:50:00,METAR EGGW 300050Z AUTO 08009KT 9999 NCD 08/04 Q1024,0,9,0,10000,0,0,0,
2026-04-30 00:20:00,METAR EGGW 300020Z AUTO 08010KT 9999 NCD 08/04 Q1024,0,10,0,10000,0,0,0,
2026-04-29 23:50:00,METAR EGGW 292350Z AUTO 08009KT 9999 NCD 08/04 Q1024,0,9,0,10000,0,0,0,
2026-04-29 23:20:00,METAR EGGW 292320Z AUTO 08011KT 9999 NCD 08/04 Q1024,0,11,0,10000,0,0,0,
2026-04-29 22:50:00,METAR EGGW 292250Z AUTO 07013KT 9999 NCD 09/04 Q1024,0,13,0,10000,0,0,0,
2026-04-29 22:20:00,METAR EGGW 292220Z AUTO 07013KT 9999 NCD 09/03 Q1024,0,13,0,10000,0,0,0,
2026-04-29 21:50:00,METAR EGGW 292150Z AUTO 07013KT 9999 NCD 09/03 Q1024,0,13,0,10000,0,0,0,
2026-04-29 21:20:00,METAR EGGW 292120Z AUTO 06012KT 9999 NCD 09/03 Q1024,0,12,0,10000,0,0,0,
2026-04-29 20:50:00,METAR EGGW 292050Z AUTO 07015KT 9999 NCD 10/02 Q1024,0,15,0,10000,0,0,0,
2026-04-29 20:20:00,METAR EGGW 292020Z AUTO 07015KT 9999 NCD 10/02 Q1024,0,15,0,10000,0,0,0,
2026-04-29 19:50:00,METAR EGGW 291950Z AUTO 07015KT 9999 NCD 11/01 Q1024,0,15,0,10000,0,0,0,
2026-04-29 19:20:00,METAR EGGW 291920Z AUTO 07014KT 9999 NCD 11/01 Q1024,0,14,0,10000,0,0,0,
2026-04-29 18:50:00,METAR EGGW 291850Z AUTO 07016KT 9999 NCD 12/01 Q1023,0,16,0,10000,0,0,0,
2026-04-29 18:20:00,METAR EGGW 291820Z AUTO 08016KT 9999 NCD 13/01 Q1023,0,16,0,10000,0,0,0,
2026-04-29 17:50:00,METAR EGGW 291750Z AUTO 08017KT 060V120 9999 NCD 13/01 Q1023,0,17,0,10000,0,0,0,
2026-04-29 17:20:00,METAR EGGW 291720Z AUTO 08015KT 9999 NCD 14/01 Q1023,0,15,0,10000,0,0,0,
2026-04-29 16:50:00,METAR EGGW 291650Z AUTO 08014KT 050V110 9999 NCD 14/01 Q1023,0,14,0,10000,0,0,0,
2026-04-29 16:20:00,METAR EGGW 291620Z AUTO 08013KT 9999 NCD 14/M01 Q1024,0,13,0,10000,0,0,0,
2026-04-29 15:50:00,METAR EGGW 291550Z AUTO 08014KT 9999 NCD 14/M01 Q1024,0,14,0,10000,0,0,0,
2026-04-29 15:20:00,METAR EGGW 291520Z AUTO 08016KT 9999 NCD 15/M01 Q1024,0,16,0,10000,0,0,0,
2026-04-29 14:50:00,METAR EGGW 291450Z AUTO 09013KT 050V130 9999 NCD 16/M02 Q1024,0,13,0,10000,0,0,0,
2026-04-29 14:20:00,METAR EGGW 291420Z AUTO 07016KT 9999 NCD 16/M00 Q1024,0,16,0,10000,0,0,0,
2026-04-29 13:50:00,METAR EGGW 291350Z AUTO 08015KT 9999 NCD 16/M00 Q1024,0,15,0,10000,0,0,0,
2026-04-29 13:20:00,METAR EGGW 291320Z AUTO 07017KT 040V100 9999 NCD 17/M01 Q1024,0,17,0,10000,0,0,0,
2026-04-29 12:50:00,METAR EGGW 291250Z AUTO 10017KT 9999 NCD 17/M01 Q1024,0,17,0,10000,0,0,0,
2026-04-29 12:20:00,METAR EGGW 291220Z AUTO 09017KT 9999 NCD 16/M02 Q1025,0,17,0,10000,0,0,0,
2026-04-29 11:50:00,METAR EGGW 291150Z AUTO 10014KT 060V130 9999 NCD 16/00 Q1025,0,14,0,10000,0,0,0,
2026-04-29 11:20:00,METAR EGGW 291120Z AUTO 08017KT 060V120 9999 NCD 16/01 Q1025,0,17,0,10000,0,0,0,
2026-04-29 10:50:00,METAR EGGW 291050Z AUTO 09016KT 060V120 9999 NCD 16/01 Q1025,0,16,0,10000,0,0,0,
2026-04-29 10:20:00,METAR EGGW 291020Z AUTO 08018KT 9999 NCD 15/01 Q1025,0,18,0,10000,0,0,0,
2026-04-29 09:50:00,METAR EGGW 290950Z AUTO 09016KT 060V120 9999 NCD 15/02 Q1025,0,16,0,10000,0,0,0,
2026-04-29 09:20:00,METAR EGGW 290920Z AUTO 09017G27KT 9999 NCD 14/02 Q1025,0,17,1,10000,0,0,0,
2026-04-29 08:50:00,METAR EGGW 290850Z AUTO 08018KT 9999 NCD 14/03 Q1025,0,18,0,10000,0,0,0,
2026-04-29 08:20:00,METAR EGGW 290820Z AUTO 08016KT 9999 NCD 13/03 Q1025,0,16,0,10000,0,0,0,
2026-04-29 07:50:00,METAR EGGW 290750Z AUTO 07013KT 9999 NCD 12/04 Q1025,0,13,0,10000,0,0,0,
2026-04-29 07:20:00,METAR EGGW 290720Z AUTO 06013KT 9999 NCD 10/04 Q1025,0,13,0,10000,0,0,0,
2026-04-29 06:50:00,METAR EGGW 290650Z AUTO 04010KT 9999 NCD 08/05 Q1025,0,10,0,10000,0,0,0,
2026-04-29 06:20:00,METAR EGGW 290620Z AUTO 04010KT 9999 NCD 07/05 Q1024,0,10,0,10000,0,0,0,
2026-04-29 05:50:00,METAR EGGW 290550Z AUTO 04011KT 020V080 9999 NCD 06/04 Q1024,0,11,0,10000,0,0,0,
2026-04-29 05:20:00,METAR EGGW 290520Z AUTO 04010G20KT 010V080 9999 NCD 05/04 Q1024,0,10,1,10000,0,0,0,
2026-04-29 04:50:00,METAR EGGW 290450Z AUTO 04009KT 9999 NCD 05/04 Q1024,0,9,0,10000,0,0,0,
2026-04-29 04:20:00,METAR EGGW 290420Z AUTO 03010KT 9999 NCD 05/04 Q1024,0,10,0,10000,0,0,0,
2026-04-29 03:50:00,METAR EGGW 290350Z AUTO 03010KT 9999 NCD 04/04 Q1024,0,10,0,10000,0,0,0,
2026-04-29 03:20:00,METAR EGGW 290320Z AUTO 03010KT 9999 NCD 04/03 Q1024,0,10,0,10000,0,0,0,
2026-04-29 02:50:00,METAR EGGW 290250Z AUTO 03011KT 9999 NCD 05/03 Q1024,0,11,0,10000,0,0,0,
2026-04-29 02:20:00,METAR EGGW 290220Z AUTO 03011KT 9999 NCD 05/03 Q1024,0,11,0,10000,0,0,0,
2026-04-29 01:50:00,METAR EGGW 290150Z AUTO 03012KT 9999 NCD 05/03 Q1024,0,12,0,10000,0,0,0,
2026-04-29 01:20:00,METAR EGGW 290120Z AUTO 04012KT 9999 NCD 05/03 Q1025,0,12,0,10000,0,0,0,
2026-04-29 00:50:00,METAR EGGW 290050Z 03011KT CAVOK 05/03 Q1025,1,0,0,9999,0,0,0,
2026-04-29 00:20:00,METAR EGGW 290020Z AUTO 03012KT 9999 NCD 05/03 Q1025,0,12,0,10000,0,0,0,
2026-04-28 23:50:00,METAR EGGW 282350Z AUTO 03013KT 9999 NCD 05/03 Q1025,0,13,0,10000,0,0,0,
2026-04-28 23:20:00,METAR EGGW 282320Z AUTO 03014KT 9999 NCD 06/02 Q1025,0,14,0,10000,0,0,0,
2026-04-28 22:50:00,METAR EGGW 282250Z AUTO 03013KT 9999 NCD 06/02 Q1025,0,13,0,10000,0,0,0,
2026-04-28 22:20:00,METAR EGGW 282220Z AUTO 03014KT 9999 NCD 06/02 Q1025,0,14,0,10000,0,0,0,
2026-04-28 21:50:00,METAR EGGW 282150Z AUTO 03014KT 9999 NCD 07/01 Q1025,0,14,0,10000,0,0,0,
2026-04-28 21:20:00,METAR EGGW 282120Z AUTO 03011KT 9999 NCD 07/00 Q1025,0,11,0,10000,0,0,0,
2026-04-28 20:50:00,METAR EGGW 282050Z AUTO 02011KT 9999 NCD 07/M00 Q1025,0,11,0,10000,0,0,0,
2026-04-28 20:20:00,METAR EGGW 282020Z AUTO 03010KT 010V070 9999 NCD 08/M01 Q1025,0,10,0,10000,0,0,0,
2026-04-28 19:50:00,METAR EGGW 281950Z AUTO 03010KT 9999 NCD 09/M01 Q1025,0,10,0,10000,0,0,0,
2026-04-28 19:20:00,METAR EGGW 281920Z AUTO 03012KT 360V070 9999 NCD 10/M01 Q1025,0,12,0,10000,0,0,0,
2026-04-28 18:50:00,METAR EGGW 281850Z AUTO 03012KT 9999 NCD 11/M00 Q1024,0,12,0,10000,0,0,0,
2026-04-28 18:20:00,METAR EGGW 281820Z AUTO 05017KT 9999 NCD 12/M01 Q1024,0,17,0,10000,0,0,0,
2026-04-28 17:50:00,METAR EGGW 281750Z AUTO 05016KT 9999 NCD 13/M01 Q1024,0,16,0,10000,0,0,0,
2026-04-28 17:20:00,METAR EGGW 281720Z AUTO 04014G24KT 020V080 9999 NCD 14/M00 Q1024,0,14,1,10000,0,0,0,
2026-04-28 16:50:00,METAR EGGW 281650Z AUTO 04017G28KT 9999 NCD 14/M00 Q1024,0,17,1,10000,0,0,0,
2026-04-28 16:20:00,METAR EGGW 281620Z AUTO 04015KT 9999 NCD 15/02 Q1024,0,15,0,10000,0,0,0,
2026-04-28 15:50:00,METAR EGGW 281550Z AUTO 04015KT 9999 NCD 15/03 Q1024,0,15,0,10000,0,0,0,
2026-04-28 15:20:00,METAR EGGW 281520Z AUTO 04017KT 010V070 9999 NCD 15/02 Q1024,0,17,0,10000,0,0,0,
2026-04-28 14:50:00,METAR EGGW 281450Z AUTO 03018KT 010V080 9999 NCD 15/03 Q1024,0,18,0,10000,0,0,0,
2026-04-28 14:20:00,METAR EGGW 281420Z AUTO 03016KT 9999 SCT042 15/04 Q1024,0,16,0,10000,0,0,0,
2026-04-28 13:50:00,METAR EGGW 281350Z AUTO 04015KT 010V070 9999 SCT040 15/04 Q1024,0,15,0,10000,0,0,0,
2026-04-28 13:20:00,METAR EGGW 281320Z AUTO 04015KT 9999 BKN037 14/05 Q1024,0,15,0,10000,0,0,0,
2026-04-28 12:50:00,METAR EGGW 281250Z AUTO 03016KT 9999 BKN034 13/05 Q1025,0,16,0,10000,0,0,0,
2026-04-28 12:20:00,METAR EGGW 281220Z AUTO 05015KT 010V090 9999 SCT029 SCT035 13/05 Q1025,0,15,0,10000,0,0,0,
2026-04-28 11:50:00,METAR EGGW 281150Z AUTO 03014KT 9999 BKN023 BKN028 11/05 Q1025,0,14,0,10000,0,0,0,
2026-04-28 11:20:00,METAR EGGW 281120Z AUTO 03015G25KT 9999 BKN020 OVC026 10/06 Q1026,0,15,1,10000,0,0,0,
2026-04-28 10:50:00,METAR EGGW 281050Z AUTO 04014KT 9999 BKN018 09/05 Q1026,0,14,0,10000,0,0,0,
2026-04-28 10:20:00,METAR EGGW 281020Z AUTO 05013KT 010V080 9999 BKN016 08/06 Q1025,0,13,0,10000,0,0,0,
2026-04-28 09:50:00,METAR EGGW 280950Z AUTO 05016KT 9999 FEW010 SCT015 BKN022 09/05 Q1025,0,16,0,10000,0,0,0,
2026-04-28 09:20:00,METAR EGGW 280920Z AUTO 04013KT 9999 BKN008 OVC013 08/07 Q1025,0,13,0,10000,0,0,0,
2026-04-28 08:50:00,METAR EGGW 280850Z AUTO 05013KT 9999 BKN009 OVC014 08/07 Q1025,0,13,0,10000,0,0,0,
2026-04-28 08:20:00,METAR EGGW 280820Z AUTO 04012KT 9999 OVC009 08/07 Q1025,0,12,0,10000,0,0,0,
2026-04-28 07:50:00,METAR EGGW 280750Z AUTO 04011KT 020V080 9999 BKN009 OVC013 08/07 Q1025,0,11,0,10000,0,0,0,
2026-04-28 07:20:00,METAR EGGW 280720Z AUTO 05010KT 9999 BKN006 BKN010 08/07 Q1025,0,10,0,10000,0,0,0,
2026-04-28 06:50:00,METAR EGGW 280650Z AUTO 04013KT 7000 OVC004 08/07 Q1025,0,13,0,7000,0,0,0,
2026-04-28 06:20:00,METAR EGGW 280620Z AUTO 04012KT 9999 OVC005 08/07 Q1025,0,12,0,10000,0,0,0,
2026-04-28 05:50:00,METAR EGGW 280550Z AUTO 03012KT 9999 BKN007 08/07 Q1024,0,12,0,10000,0,0,0,
2026-04-28 05:20:00,METAR EGGW 280520Z AUTO 04010KT 9999 FEW007 SCT011 OVC038 08/07 Q1024,0,10,0,10000,0,0,0,
2026-04-28 04:50:00,METAR EGGW 280450Z AUTO 05013KT 7000 -RA SCT003 BKN008 08/07 Q1024 RERA,0,13,0,7000,0,0,0,"-RA,RA"
2026-04-28 04:20:00,METAR EGGW 280420Z AUTO 04010KT 6000 OVC003 08/08 Q1023,0,10,0,6000,0,0,0,
2026-04-28 03:50:00,METAR EGGW 280350Z AUTO 02008KT 4600 -DZ OVC003 08/08 Q1023,0,8,0,4600,0,0,0,DZ
2026-04-28 03:20:00,METAR EGGW 280320Z AUTO 01007KT 5000 -DZ OVC003 08/07 Q1023,0,7,0,5000,0,0,0,DZ
2026-04-28 02:50:00,METAR EGGW 280250Z AUTO 36008KT 3100 DZ BKN003 08/07 Q1023 RERA,0,8,0,3100,0,0,0,"DZ,RA"
2026-04-28 02:20:00,METAR EGGW 280220Z AUTO 36008KT 4500 HZ BKN005 OVC009 08/07 Q1024,0,8,0,4500,0,0,0,
2026-04-28 01:50:00,METAR EGGW 280150Z AUTO 36009KT 330V040 9999 SCT011 SCT015 OVC020 08/06 Q1024,0,9,0,10000,0,0,0,
2026-04-28 01:20:00,METAR EGGW 280120Z AUTO 01008KT 9999 BKN010 BKN014 08/06 Q1024,0,8,0,10000,0,0,0,
2026-04-28 00:50:00,METAR EGGW 280050Z AUTO 03010KT 9999 OVC011 08/06 Q1024,0,10,0,10000,0,0,0,
2026-04-28 00:20:00,METAR EGGW 280020Z AUTO 01011KT 9999 OVC014 08/06 Q1024,0,11,0,10000,0,0,0,
2026-04-27 23:50:00,METAR EGGW 272350Z AUTO 01012KT 9999 FEW007 BKN013 08/06 Q1024,0,12,0,10000,0,0,0,
2026-04-27 23:20:00,METAR EGGW 272320Z AUTO 02010KT 9000 BKN006 08/07 Q1024,0,10,0,9000,0,0,0,
2026-04-27 22:50:00,METAR EGGW 272250Z AUTO 02009KT 7000 BKN005 08/07 Q1024,0,9,0,7000,0,0,0,
2026-04-27 22:20:00,METAR EGGW 272220Z AUTO 01007KT 8000 FEW006 09/08 Q1024,0,7,0,8000,0,0,0,
2026-04-27 21:50:00,METAR EGGW 272150Z AUTO 02010KT 9000 NCD 09/08 Q1024,0,10,0,9000,0,0,0,
2026-04-27 21:20:00,METAR EGGW 272120Z AUTO 02011KT 9999 -RA NCD 10/08 Q1024,0,11,0,10000,0,0,0,-RA
2026-04-27 20:50:00,METAR EGGW 272050Z AUTO 01009KT 9999 -RA NCD 11/08 Q1024,0,9,0,10000,0,0,0,-RA
2026-04-27 20:20:00,METAR EGGW 272020Z AUTO 02012KT 9999 //////TCU 11/07 Q1024,0,12,0,10000,0,0,0,
2026-04-27 19:50:00,METAR EGGW 271950Z AUTO 03009KT 010V130 9999 -RA FEW046/// //////CB 12/08 Q1023,0,9,0,10000,0,0,0,-RA
2026-04-27 19:20:00,METAR EGGW 271920Z AUTO 03011KT 9999 FEW048 12/07 Q1023,0,11,0,10000,0,0,0,
2026-04-27 18:50:00,METAR EGGW 271850Z AUTO 05010KT 020V080 9999 //////CB 13/08 Q1023,0,10,0,10000,0,0,0,
2026-04-27 18:20:00,METAR EGGW 271820Z 02015G26KT 9999 VCSH FEW043CB 14/08 Q1023,0,15,1,10000,0,0,0,"SH,VC"
2026-04-27 17:50:00,METAR EGGW 271750Z AUTO 02008KT 9999 NCD 16/08 Q1022,0,8,0,10000,0,0,0,
2026-04-27 17:20:00,METAR EGGW 271720Z AUTO 03010KT 9999 NCD 17/07 Q1022,0,10,0,10000,0,0,0,
2026-04-27 16:50:00,METAR EGGW 271650Z AUTO 04007KT 350V110 9999 NCD 18/07 Q1022,0,7,0,10000,0,0,0,
2026-04-27 16:20:00,METAR EGGW 271620Z AUTO 04011KT 9999 NCD 17/06 Q1022,0,11,0,10000,0,0,0,
2026-04-27 15:50:00,METAR EGGW 271550Z AUTO 01008KT 9999 NCD 18/05 Q1022,0,8,0,10000,0,0,0,
2026-04-27 15:20:00,METAR EGGW 271520Z AUTO 36007KT 320V040 9999 NCD 19/05 Q1022,0,7,0,10000,0,0,0,
2026-04-27 14:50:00,METAR EGGW 271450Z AUTO 01008KT 9999 NCD 19/04 Q1022,0,8,0,10000,0,0,0,
2026-04-27 14:20:00,METAR EGGW 271420Z AUTO 02006KT 310V080 9999 NCD 19/03 Q1022,0,6,0,10000,0,0,0,
2026-04-27 13:50:00,METAR EGGW 271350Z AUTO 34006KT 280V060 9999 NCD 20/03 Q1023,0,6,0,10000,0,0,0,
2026-04-27 13:20:00,METAR EGGW 271320Z AUTO 01007KT 300V110 9999 NCD 20/02 Q1023,0,7,0,10000,0,0,0,
2026-04-27 12:50:00,METAR EGGW 271250Z AUTO 01005KT 320V120 9999 NCD 20/02 Q1023,0,5,0,10000,0,0,0,
2026-04-27 12:20:00,METAR EGGW 271220Z AUTO 34006KT 300V050 9999 NCD 19/02 Q1024,0,6,0,10000,0,0,0,
2026-04-27 11:50:00,METAR EGGW 271150Z AUTO VRB05KT 9999 NCD 19/03 Q1024,0,5,0,10000,0,0,0,
2026-04-27 11:20:00,METAR EGGW 271120Z AUTO VRB04KT 9999 NCD 18/02 Q1024,0,4,0,10000,0,0,0,
2026-04-27 10:50:00,METAR EGGW 271050Z AUTO 01006G17KT 300V060 9999 NCD 18/03 Q1024,0,6,1,10000,0,0,0,
2026-04-27 10:20:00,METAR EGGW 271020Z AUTO VRB03KT 9999 NCD 18/05 Q1024,0,3,0,10000,0,0,0,
2026-04-27 09:50:00,METAR EGGW 270950Z AUTO 15003KT 090V260 9999 NCD 17/04 Q1024,0,3,0,10000,0,0,0,
2026-04-27 09:20:00,METAR EGGW 270920Z AUTO 12003KT 040V170 9999 NCD 16/05 Q1025,0,3,0,10000,0,0,0,
2026-04-27 08:50:00,METAR EGGW 270850Z AUTO VRB02KT 9999 NCD 16/05 Q1025,0,2,0,10000,0,0,0,
2026-04-27 08:20:00,METAR EGGW 270820Z AUTO VRB02KT 9999 NCD 15/04 Q1025,0,2,0,10000,0,0,0,
2026-04-27 07:50:00,METAR EGGW 270750Z AUTO VRB02KT 9999 NCD 14/05 Q1025,0,2,0,10000,0,0,0,
2026-04-27 07:20:00,METAR EGGW 270720Z AUTO VRB01KT 9999 NCD 13/03 Q1025,0,1,0,10000,0,0,0,
2026-04-27 06:50:00,METAR EGGW 270650Z AUTO 32003KT 260V350 9999 NCD 11/06 Q1025,0,3,0,10000,0,0,0,
2026-04-27 06:20:00,METAR EGGW 270620Z AUTO 00000KT 9999 NCD 09/07 Q1024,0,0,0,10000,0,0,0,
2026-04-27 05:50:00,METAR EGGW 270550Z AUTO VRB02KT 9000 NCD 08/06 Q1024,0,2,0,9000,0,0,0,
2026-04-27 05:20:00,METAR EGGW 270520Z AUTO 29003KT 260V350 9999 NCD 06/05 Q1024,0,3,0,10000,0,0,0,
2026-04-27 04:50:00,METAR EGGW 270450Z AUTO VRB02KT 9000 NCD 05/04 Q1024,0,2,0,9000,0,0,0,
2026-04-27 04:20:00,METAR EGGW 270420Z AUTO 21002KT 7000 NCD 06/05 Q1024,0,2,0,7000,0,0,0,
2026-04-27 03:50:00,METAR EGGW 270350Z AUTO 20001KT 7000 NCD 06/05 Q1024,0,1,0,7000,0,0,0,
2026-04-27 03:20:00,METAR EGGW 270320Z AUTO 15002KT 8000 NCD 06/05 Q1024,0,2,0,8000,0,0,0,
2026-04-27 02:50:00,METAR EGGW 270250Z AUTO 18002KT 9000 NCD 07/05 Q1024,0,2,0,9000,0,0,0,
2026-04-27 02:20:00,METAR EGGW 270220Z AUTO 17003KT 9000 NCD 07/06 Q1024,0,3,0,9000,0,0,0,
2026-04-27 01:50:00,METAR EGGW 270150Z AUTO 18003KT 9999 NCD 07/06 Q1024,0,3,0,10000,0,0,0,
2026-04-27 01:20:00,METAR EGGW 270120Z AUTO 17003KT 9999 NCD 08/06 Q1024,0,3,0,10000,0,0,0,
2026-04-27 00:50:00,METAR EGGW 270050Z AUTO 15003KT 9000 NCD 08/06 Q1025,0,3,0,9000,0,0,0,
2026-04-27 00:20:00,METAR EGGW 270020Z AUTO 14002KT 9999 NCD 08/06 Q1025,0,2,0,10000,0,0,0,
2026-04-26 23:50:00,METAR EGGW 262350Z AUTO 15003KT 120V190 9999 NCD 08/06 Q1025,0,3,0,10000,0,0,0,
2026-04-26 23:20:00,METAR EGGW 262320Z AUTO 16003KT 9999 NCD 08/06 Q1025,0,3,0,10000,0,0,0,
2026-04-26 22:50:00,METAR EGGW 262250Z AUTO 15003KT 9999 NCD 09/06 Q1025,0,3,0,10000,0,0,0,
2026-04-26 22:20:00,METAR EGGW 262220Z AUTO 14005KT 9999 NCD 09/06 Q1024,0,5,0,10000,0,0,0,
2026-04-26 21:50:00,METAR EGGW 262150Z AUTO 14004KT 100V180 9999 NCD 09/06 Q1024,0,4,0,10000,0,0,0,
2026-04-26 21:20:00,METAR EGGW 262120Z AUTO 14005KT 9999 NCD 10/07 Q1024,0,5,0,10000,0,0,0,
2026-04-26 20:50:00,METAR EGGW 262050Z AUTO 13007KT 9999 NCD 11/07 Q1024,0,7,0,10000,0,0,0,
2026-04-26 20:20:00,METAR EGGW 262020Z AUTO 13007KT 9999 NCD 11/07 Q1024,0,7,0,10000,0,0,0,
2026-04-26 19:50:00,METAR EGGW 261950Z AUTO 12006KT 9999 NCD 12/07 Q1024,0,6,0,10000,0,0,0,
2026-04-26 19:20:00,METAR EGGW 261920Z AUTO 12008KT 9999 NCD 12/07 Q1024,0,8,0,10000,0,0,0,
2026-04-26 18:50:00,METAR EGGW 261850Z AUTO 12008KT 9999 NCD 13/07 Q1024,0,8,0,10000,0,0,0,
2026-04-26 18:20:00,METAR EGGW 261820Z AUTO 12010KT 9999 NCD 14/07 Q1024,0,10,0,10000,0,0,0,
2026-04-26 17:50:00,METAR EGGW 261750Z AUTO 12009KT 9999 NCD 15/07 Q1024,0,9,0,10000,0,0,0,
2026-04-26 17:20:00,METAR EGGW 261720Z AUTO 12010KT 9999 NCD 16/07 Q1024,0,10,0,10000,0,0,0,
2026-04-26 16:50:00,METAR EGGW 261650Z AUTO 11007KT 9999 NCD 16/07 Q1024,0,7,0,10000,0,0,0,
2026-04-26 16:20:00,METAR EGGW 261620Z AUTO 11006KT 080V160 9999 NCD 17/06 Q1024,0,6,0,10000,0,0,0,
2026-04-26 15:50:00,METAR EGGW 261550Z AUTO 12004KT 050V180 9999 NCD 17/05 Q1024,0,4,0,10000,0,0,0,
2026-04-26 15:20:00,METAR EGGW 261520Z AUTO 13005KT 040V170 9999 NCD 18/05 Q1024,0,5,0,10000,0,0,0,
2026-04-26 14:50:00,METAR EGGW 261450Z AUTO 12005KT 080V150 9999 NCD 17/06 Q1024,0,5,0,10000,0,0,0,
2026-04-26 14:20:00,METAR EGGW 261420Z AUTO 12005KT 050V200 9999 NCD 18/06 Q1024,0,5,0,10000,0,0,0,
2026-04-26 13:50:00,METAR EGGW 261350Z AUTO 09006KT 040V150 9999 NCD 18/06 Q1024,0,6,0,10000,0,0,0,
2026-04-26 13:20:00,METAR EGGW 261320Z AUTO VRB04KT 9999 NCD 17/06 Q1025,0,4,0,10000,0,0,0,
2026-04-26 12:50:00,METAR EGGW 261250Z AUTO 12005KT 050V170 9999 NCD 17/06 Q1025,0,5,0,10000,0,0,0,
2026-04-26 12:20:00,METAR EGGW 261220Z AUTO 13004KT 080V170 9999 NCD 16/06 Q1025,0,4,0,10000,0,0,0,
2026-04-26 11:50:00,METAR EGGW 261150Z AUTO 12006KT 070V140 9999 NCD 16/07 Q1025,0,6,0,10000,0,0,0,
2026-04-26 11:20:00,METAR EGGW 261120Z AUTO 13004KT 080V190 9999 NCD 15/06 Q1025,0,4,0,10000,0,0,0,
2026-04-26 10:50:00,METAR EGGW 261050Z AUTO 12005KT 080V150 9999 NCD 15/07 Q1025,0,5,0,10000,0,0,0,
2026-04-26 10:20:00,METAR EGGW 261020Z AUTO 13006KT 090V170 9999 NCD 13/07 Q1025,0,6,0,10000,0,0,0,
2026-04-26 09:50:00,METAR EGGW 260950Z AUTO 13006KT 090V170 9999 NCD 12/06 Q1025,0,6,0,10000,0,0,0,
2026-04-26 09:20:00,METAR EGGW 260920Z AUTO 12007KT 9999 NCD 12/07 Q1025,0,7,0,10000,0,0,0,
2026-04-26 08:50:00,METAR EGGW 260850Z AUTO 12007KT 090V150 9999 NCD 11/07 Q1025,0,7,0,10000,0,0,0,
2026-04-26 08:20:00,METAR EGGW 260820Z AUTO 11007KT 9999 SCT008 09/06 Q1025,0,7,0,10000,0,0,0,
2026-04-26 07:50:00,METAR EGGW 260750Z AUTO 12008KT 9000 OVC006 08/06 Q1026,0,8,0,9000,0,0,0,
2026-04-26 07:20:00,METAR EGGW 260720Z AUTO 13007KT 100V160 7000 OVC004 07/06 Q1025,0,7,0,7000,0,0,0,
2026-04-26 06:50:00,METAR EGGW 260650Z AUTO 11007KT 6000 OVC003 06/06 Q1025,0,7,0,6000,0,0,0,
2026-04-26 06:20:00,METAR EGGW 260620Z AUTO 11009KT 070V140 3500 BR OVC002 05/05 Q1025,0,9,0,3500,0,0,1,BR
2026-04-26 05:50:00,METAR EGGW 260550Z AUTO 10007KT 1500 BR OVC001 05/05 Q1025,0,7,0,1500,0,0,1,BR
2026-04-26 05:20:00,METAR EGGW 260520Z AUTO 10007KT 0750 R07/1500N FG OVC001 05/05 Q1025,0,7,0,1206750,0,0,1,FG
2026-04-26 04:50:00,METAR EGGW 260450Z AUTO 09006KT 0350 R07/0750N FG OVC001 05/05 Q1024,0,6,0,563150,0,0,1,FG
2026-04-26 04:20:00,METAR EGGW 260420Z AUTO 07006KT 0300 R07/1100N FG BKN002 05/04 Q1024,0,6,0,482700,0,0,1,FG
2026-04-26 03:50:00,METAR EGGW 260350Z AUTO 06006KT 9000 BKN003 04/03 Q1024,0,6,0,9000,0,0,0,
2026-04-26 03:20:00,METAR EGGW 260320Z AUTO 05004KT 9999 FEW004 04/02 Q1024,0,4,0,10000,0,0,0,
2026-04-26 02:50:00,METAR EGGW 260250Z AUTO 07004KT 9999 NCD 05/02 Q1024,0,4,0,10000,0,0,0,
2026-04-26 02:20:00,METAR EGGW 260220Z AUTO 07004KT 9999 NCD 05/02 Q1024,0,4,0,10000,0,0,0,
2026-04-26 01:50:00,METAR EGGW 260150Z AUTO 10005KT 9999 NCD 06/02 Q1024,0,5,0,10000,0,0,0,
2026-04-26 01:20:00,METAR EGGW 260120Z AUTO 05004KT 9999 NCD 06/03 Q1024,0,4,0,10000,0,0,0,
2026-04-26 00:50:00,METAR EGGW 260050Z AUTO 03005KT 9999 NCD 07/03 Q1023,0,5,0,10000,0,0,0,
2026-04-26 00:20:00,METAR EGGW 260020Z AUTO 05004KT 9999 NCD 08/03 Q1023,0,4,0,10000,0,0,0,
2026-04-25 23:50:00,METAR EGGW 252350Z AUTO 05005KT 9999 NCD 08/02 Q1023,0,5,0,10000,0,0,0,
2026-04-25 23:20:00,METAR EGGW 252320Z AUTO 06004KT 9999 NCD 09/03 Q1023,0,4,0,10000,0,0,0,
2026-04-25 22:50:00,METAR EGGW 252250Z AUTO 08003KT 9999 NCD 09/02 Q1023,0,3,0,10000,0,0,0,
2026-04-25 22:20:00,METAR EGGW 252220Z AUTO 11003KT 090V150 9999 NCD 10/03 Q1023,0,3,0,10000,0,0,0,
2026-04-25 21:50:00,METAR EGGW 252150Z AUTO 08007KT 9999 NCD 10/03 Q1022,0,7,0,10000,0,0,0,
2026-04-25 21:20:00,METAR EGGW 252120Z AUTO 06005KT 030V090 9999 NCD 12/04 Q1022,0,5,0,10000,0,0,0,
2026-04-25 20:50:00,METAR EGGW 252050Z AUTO 04005KT 9999 NCD 12/02 Q1022,0,5,0,10000,0,0,0,
2026-04-25 20:20:00,METAR EGGW 252020Z AUTO 04005KT 010V070 9999 NCD 14/M02 Q1022,0,5,0,10000,0,0,0,
2026-04-25 19:50:00,METAR EGGW 251950Z AUTO 08005KT 9999 NCD 15/M03 Q1021,0,5,0,10000,0,0,0,
2026-04-25 19:20:00,METAR EGGW 251920Z AUTO 05003KT 9999 NCD 16/M02 Q1021,0,3,0,10000,0,0,0,
2026-04-25 18:50:00,METAR EGGW 251850Z AUTO 05004KT 010V080 9999 NCD 17/M03 Q1021,0,4,0,10000,0,0,0,
2026-04-25 18:20:00,METAR EGGW 251820Z AUTO 04005KT 9999 NCD 18/M02 Q1021,0,5,0,10000,0,0,0,
2026-04-25 17:50:00,METAR EGGW 251750Z AUTO 03005KT 360V070 9999 NCD 18/M03 Q1021,0,5,0,10000,0,0,0,
2026-04-25 17:20:00,METAR EGGW 251720Z AUTO 04005KT 360V090 9999 NCD 19/M03 Q1021,0,5,0,10000,0,0,0,
2026-04-25 16:50:00,METAR EGGW 251650Z AUTO 03004KT 340V100 9999 NCD 19/M04 Q1020,0,4,0,10000,0,0,0,
2026-04-25 16:20:00,METAR EGGW 251620Z AUTO 09003KT 030V140 9999 NCD 20/M03 Q1020,0,3,0,10000,0,0,0,
2026-04-25 15:50:00,METAR EGGW 251550Z AUTO 07004KT 010V160 9999 NCD 19/M05 Q1020,0,4,0,10000,0,0,0,
2026-04-25 15:20:00,METAR EGGW 251520Z AUTO VRB02KT 9999 NCD 20/M06 Q1020,0,2,0,10000,0,0,0,
2026-04-25 14:50:00,METAR EGGW 251450Z AUTO VRB04KT 9999 NCD 19/M05 Q1020,0,4,0,10000,0,0,0,
2026-04-25 14:20:00,METAR EGGW 251420Z AUTO VRB03KT 9999 NCD 19/M05 Q1021,0,3,0,10000,0,0,0,
2026-04-25 13:50:00,METAR EGGW 251350Z AUTO VRB04KT 9999 NCD 19/M06 Q1021,0,4,0,10000,0,0,0,
2026-04-25 13:20:00,METAR EGGW 251320Z AUTO 13004KT 060V160 9999 NCD 18/M06 Q1021,0,4,0,10000,0,0,0,
2026-04-25 12:50:00,METAR EGGW 251250Z AUTO VRB03KT 9999 NCD 18/M06 Q1021,0,3,0,10000,0,0,0,
2026-04-25 12:20:00,METAR EGGW 251220Z AUTO VRB03KT 9999 NCD 18/M05 Q1021,0,3,0,10000,0,0,0,
2026-04-25 11:50:00,METAR EGGW 251150Z AUTO VRB02KT 9999 NCD 18/M06 Q1021,0,2,0,10000,0,0,0,
2026-04-25 11:20:00,METAR EGGW 251120Z AUTO VRB03KT 9999 NCD 17/M06 Q1021,0,3,0,10000,0,0,0,
2026-04-25 10:50:00,METAR EGGW 251050Z AUTO VRB02KT 9999 NCD 16/M07 Q1022,0,2,0,10000,0,0,0,
2026-04-25 10:20:00,METAR EGGW 251020Z AUTO 14003KT 090V220 9999 NCD 16/M03 Q1022,0,3,0,10000,0,0,0,
2026-04-25 09:50:00,METAR EGGW 250950Z AUTO VRB02KT 9999 NCD 15/M02 Q1022,0,2,0,10000,0,0,0,
2026-04-25 09:20:00,METAR EGGW 250920Z AUTO VRB02KT 9999 NCD 14/M03 Q1021,0,2,0,10000,0,0,0,
2026-04-25 08:50:00,METAR EGGW 250850Z AUTO 14003KT 080V190 9999 NCD 13/M01 Q1021,0,3,0,10000,0,0,0,
2026-04-25 08:20:00,METAR EGGW 250820Z AUTO 12003KT 090V190 9999 NCD 12/00 Q1021,0,3,0,10000,0,0,0,
2026-04-25 07:50:00,METAR EGGW 250750Z AUTO VRB02KT 9999 NCD 11/01 Q1021,0,2,0,10000,0,0,0,
2026-04-25 07:20:00,METAR EGGW 250720Z AUTO VRB02KT 9999 NCD 10/05 Q1021,0,2,0,10000,0,0,0,
2026-04-25 06:50:00,METAR EGGW 250650Z AUTO VRB02KT 9999 NCD 09/04 Q1021,0,2,0,10000,0,0,0,
2026-04-25 06:20:00,METAR EGGW 250620Z AUTO 10002KT 9999 NCD 07/03 Q1021,0,2,0,10000,0,0,0,
2026-04-25 05:50:00,METAR EGGW 250550Z AUTO 00000KT 9999 NCD 05/03 Q1021,0,0,0,10000,0,0,0,
2026-04-25 05:20:00,METAR EGGW 250520Z AUTO 25002KT 9999 NCD 04/01 Q1021,0,2,0,10000,0,0,0,
2026-04-25 04:50:00,METAR EGGW 250450Z AUTO VRB01KT 9999 NCD 03/02 Q1021,0,1,0,10000,0,0,0,
2026-04-25 04:20:00,METAR EGGW 250420Z AUTO 22002KT 9999 NCD 03/02 Q1021,0,2,0,10000,0,0,0,
2026-04-25 03:50:00,METAR EGGW 250350Z AUTO 22002KT 9999 NCD 04/03 Q1021,0,2,0,10000,0,0,0,
2026-04-25 03:20:00,METAR EGGW 250320Z AUTO 21002KT 9999 NCD 03/02 Q1021,0,2,0,10000,0,0,0,
2026-04-25 02:50:00,METAR EGGW 250250Z AUTO 17002KT 9999 NCD 04/03 Q1021,0,2,0,10000,0,0,0,
2026-04-25 02:20:00,METAR EGGW 250220Z AUTO 17002KT 9999 NCD 04/03 Q1021,0,2,0,10000,0,0,0,
2026-04-25 01:50:00,METAR EGGW 250150Z AUTO 16002KT 9999 NCD 04/02 Q1022,0,2,0,10000,0,0,0,
2026-04-25 01:20:00,METAR EGGW 250120Z AUTO 17003KT 9999 NCD 04/02 Q1022,0,3,0,10000,0,0,0,
2026-04-25 00:50:00,METAR EGGW 250050Z AUTO 17002KT 8000 NCD 05/02 Q1022,0,2,0,8000,0,0,0,
2026-04-25 00:20:00,METAR EGGW 250020Z AUTO 15004KT 9999 NCD 05/01 Q1022,0,4,0,10000,0,0,0,
2026-04-24 23:50:00,METAR EGGW 242350Z AUTO 14004KT 9999 NCD 05/01 Q1022,0,4,0,10000,0,0,0,
2026-04-24 23:20:00,METAR EGGW 242320Z AUTO 15004KT 9999 NCD 06/01 Q1023,0,4,0,10000,0,0,0,
2026-04-24 22:50:00,METAR EGGW 242250Z AUTO 15004KT 9999 NCD 07/01 Q1023,0,4,0,10000,0,0,0,
2026-04-24 22:20:00,METAR EGGW 242220Z AUTO 16005KT 130V200 9999 NCD 07/01 Q1023,0,5,0,10000,0,0,0,
2026-04-24 21:50:00,METAR EGGW 242150Z AUTO 15005KT 9999 NCD 08/00 Q1023,0,5,0,10000,0,0,0,
2026-04-24 21:20:00,METAR EGGW 242120Z AUTO 13004KT 9999 NCD 08/00 Q1023,0,4,0,10000,0,0,0,
2026-04-24 20:50:00,METAR EGGW 242050Z AUTO 13005KT 9999 NCD 09/01 Q1023,0,5,0,10000,0,0,0,
2026-04-24 20:20:00,METAR EGGW 242020Z AUTO 14006KT 9999 NCD 10/01 Q1023,0,6,0,10000,0,0,0,
2026-04-24 19:50:00,METAR EGGW 241950Z AUTO 13006KT 9999 NCD 11/02 Q1023,0,6,0,10000,0,0,0,
2026-04-24 19:20:00,METAR EGGW 241920Z AUTO 13006KT 9999 NCD 12/02 Q1023,0,6,0,10000,0,0,0,
2026-04-24 18:50:00,METAR EGGW 241850Z AUTO 13005KT 9999 NCD 13/03 Q1023,0,5,0,10000,0,0,0,
2026-04-24 18:20:00,METAR EGGW 241820Z AUTO 13006KT 100V160 9999 NCD 15/03 Q1023,0,6,0,10000,0,0,0,
2026-04-24 17:50:00,METAR EGGW 241750Z AUTO 10004KT 9999 NCD 17/01 Q1022,0,4,0,10000,0,0,0,
2026-04-24 17:20:00,METAR EGGW 241720Z AUTO 08006KT 9999 NCD 17/01 Q1023,0,6,0,10000,0,0,0,
2026-04-24 16:50:00,METAR EGGW 241650Z AUTO 07007KT 030V100 9999 NCD 17/01 Q1023,0,7,0,10000,0,0,0,
2026-04-24 16:20:00,METAR EGGW 241620Z AUTO 10007KT 060V130 9999 NCD 18/00 Q1023,0,7,0,10000,0,0,0,
2026-04-24 15:50:00,METAR EGGW 241550Z AUTO 11007KT 070V150 9999 NCD 18/01 Q1023,0,7,0,10000,0,0,0,
2026-04-24 15:20:00,METAR EGGW 241520Z AUTO 12009KT 080V150 9999 NCD 18/M00 Q1023,0,9,0,10000,0,0,0,
2026-04-24 14:50:00,METAR EGGW 241450Z AUTO 10009KT 060V130 9999 NCD 18/M00 Q1024,0,9,0,10000,0,0,0,
2026-04-24 14:20:00,METAR EGGW 241420Z AUTO 07009KT 030V120 9999 NCD 18/M00 Q1024,0,9,0,10000,0,0,0,
2026-04-24 13:50:00,METAR EGGW 241350Z AUTO 11009KT 070V130 9999 NCD 17/M00 Q1024,0,9,0,10000,0,0,0,
2026-04-24 13:20:00,METAR EGGW 241320Z AUTO 09008KT 9999 NCD 17/01 Q1025,0,8,0,10000,0,0,0,
2026-04-24 12:50:00,METAR EGGW 241250Z AUTO 09007KT 050V120 9999 NCD 16/01 Q1025,0,7,0,10000,0,0,0,
2026-04-24 12:20:00,METAR EGGW 241220Z AUTO 09008KT 040V130 9999 NCD 16/00 Q1026,0,8,0,10000,0,0,0,
2026-04-24 11:50:00,METAR EGGW 241150Z AUTO 08006KT 030V130 9999 NCD 16/00 Q1026,0,6,0,10000,0,0,0,
2026-04-24 11:20:00,METAR EGGW 241120Z AUTO 10006KT 060V140 9999 NCD 14/01 Q1026,0,6,0,10000,0,0,0,
2026-04-24 10:50:00,METAR EGGW 241050Z AUTO 06006KT 020V130 9999 NCD 14/02 Q1026,0,6,0,10000,0,0,0,
2026-04-24 10:20:00,METAR EGGW 241020Z AUTO 06006KT 010V100 9999 NCD 12/03 Q1027,0,6,0,10000,0,0,0,
2026-04-24 09:50:00,METAR EGGW 240950Z AUTO 06006KT 040V130 9999 NCD 10/02 Q1027,0,6,0,10000,0,0,0,
2026-04-24 09:20:00,METAR EGGW 240920Z AUTO 07006KT 030V110 9999 NCD 09/02 Q1027,0,6,0,10000,0,0,0,
2026-04-24 08:50:00,METAR EGGW 240850Z AUTO 06004KT 360V110 9999 NCD 08/02 Q1027,0,4,0,10000,0,0,0,
2026-04-24 08:20:00,METAR EGGW 240820Z AUTO 05004KT 360V090 9999 NCD 06/02 Q1027,0,4,0,10000,0,0,0,
2026-04-24 07:50:00,METAR EGGW 240750Z AUTO 03004KT 340V070 9999 NCD 04/03 Q1027,0,4,0,10000,0,0,0,
2026-04-24 07:20:00,METAR EGGW 240720Z 05007KT 360V070 9999 FEW001 03/02 Q1027,0,7,0,10000,0,0,0,
2026-04-24 06:50:00,METAR EGGW 240650Z 04006KT 020V080 9999 1500E PRFG 01/01 Q1027,0,6,0,10000,0,0,1,FG
2026-04-24 06:20:00,METAR EGGW 240620Z 04007KT 360V080 9999 1500E PRFG 01/01 Q1027,0,7,0,10000,0,0,1,FG
2026-04-24 05:50:00,METAR EGGW 240550Z 02006KT 340V120 9999 1500E PRFG 01/01 Q1027,0,6,0,10000,0,0,1,FG
2026-04-24 05:20:00,METAR EGGW 240520Z COR 03006KT 360V080 8000 BCFG SCT001 01/01 Q1027,0,6,0,8000,0,0,1,"BC,FG"
2026-04-24 04:50:00,METAR EGGW 240450Z AUTO 02008KT 2700 BR BKN001 01/01 Q1026,0,8,0,2700,0,0,1,BR
2026-04-24 04:20:00,METAR EGGW 240420Z AUTO 03009KT 360V080 1600 BR BKN001 01/01 Q1027,0,9,0,1600,0,0,1,BR
2026-04-24 03:50:00,METAR EGGW 240350Z AUTO 03007KT 0750 R07/1500N FG OVC001 01/01 Q1027,0,7,0,1206750,0,0,1,FG
2026-04-24 03:20:00,METAR EGGW 240320Z AUTO 03005KT 0800 R25/0550N FG BKN001 01/01 Q1027,0,5,0,1287200,0,0,1,FG
2026-04-24 02:50:00,METAR EGGW 240250Z AUTO 03005KT 9999 NCD 02/01 Q1027,0,5,0,10000,0,0,0,
2026-04-24 02:20:00,METAR EGGW 240220Z AUTO 02005KT 9999 NCD 02/01 Q1027,0,5,0,10000,0,0,0,
2026-04-24 01:50:00,METAR EGGW 240150Z AUTO 02005KT 9999 NCD 02/01 Q1027,0,5,0,10000,0,0,0,
2026-04-24 01:20:00,METAR EGGW 240120Z AUTO 05004KT 9999 NCD 03/01 Q1027,0,4,0,10000,0,0,0,
2026-04-24 00:50:00,METAR EGGW 240050Z AUTO 04004KT 9999 NCD 03/01 Q1028,0,4,0,10000,0,0,0,
2026-04-24 00:20:00,METAR EGGW 240020Z AUTO 04004KT 9999 NCD 04/02 Q1028,0,4,0,10000,0,0,0,
2026-04-23 23:50:00,METAR EGGW 232350Z AUTO 03004KT 9999 NCD 04/02 Q1028,0,4,0,10000,0,0,0,
2026-04-23 23:20:00,METAR EGGW 232320Z AUTO 04006KT 9999 NCD 05/02 Q1028,0,6,0,10000,0,0,0,
2026-04-23 22:50:00,METAR EGGW 232250Z AUTO 06006KT 9999 NCD 05/02 Q1028,0,6,0,10000,0,0,0,
2026-04-23 22:20:00,METAR EGGW 232220Z AUTO 06006KT 9999 NCD 06/03 Q1028,0,6,0,10000,0,0,0,
2026-04-23 21:50:00,METAR EGGW 232150Z AUTO 07006KT 9999 NCD 06/03 Q1028,0,6,0,10000,0,0,0,
2026-04-23 21:20:00,METAR EGGW 232120Z AUTO 07007KT 9999 NCD 07/03 Q1028,0,7,0,10000,0,0,0,
2026-04-23 20:50:00,METAR EGGW 232050Z AUTO 09005KT 9999 NCD 08/03 Q1028,0,5,0,10000,0,0,0,
2026-04-23 20:20:00,METAR EGGW 232020Z AUTO 10006KT 9999 NCD 09/04 Q1028,0,6,0,10000,0,0,0,
2026-04-23 19:50:00,METAR EGGW 231950Z AUTO 08006KT 9999 NCD 10/05 Q1028,0,6,0,10000,0,0,0,
2026-04-23 19:20:00,METAR EGGW 231920Z AUTO 09005KT 9999 NCD 11/03 Q1028,0,5,0,10000,0,0,0,
2026-04-23 18:50:00,METAR EGGW 231850Z AUTO 07008KT 9999 NCD 13/03 Q1028,0,8,0,10000,0,0,0,
2026-04-23 18:20:00,METAR EGGW 231820Z AUTO 07008KT 9999 NCD 14/02 Q1028,0,8,0,10000,0,0,0,
2026-04-23 17:50:00,METAR EGGW 231750Z AUTO 09009KT 9999 NCD 15/02 Q1028,0,9,0,10000,0,0,0,
2026-04-23 17:20:00,METAR EGGW 231720Z AUTO 08009KT 050V120 9999 NCD 16/02 Q1028,0,9,0,10000,0,0,0,
2026-04-23 16:50:00,METAR EGGW 231650Z AUTO 08010KT 050V120 9999 NCD 17/02 Q1028,0,10,0,10000,0,0,0,
2026-04-23 16:20:00,METAR EGGW 231620Z AUTO 09009KT 9999 NCD 17/03 Q1028,0,9,0,10000,0,0,0,
2026-04-23 15:50:00,METAR EGGW 231550Z AUTO 09011KT 9999 NCD 17/03 Q1028,0,11,0,10000,0,0,0,
2026-04-23 15:20:00,METAR EGGW 231520Z AUTO 08010KT 9999 NCD 17/03 Q1029,0,10,0,10000,0,0,0,
2026-04-23 14:50:00,METAR EGGW 231450Z AUTO 09010KT 9999 NCD 17/04 Q1029,0,10,0,10000,0,0,0,
2026-04-23 14:20:00,METAR EGGW 231420Z AUTO 07011KT 9999 NCD 17/04 Q1029,0,11,0,10000,0,0,0,
2026-04-23 13:50:00,METAR EGGW 231350Z AUTO 06011KT 9999 NCD 17/04 Q1030,0,11,0,10000,0,0,0,
2026-04-23 13:20:00,METAR EGGW 231320Z AUTO 07010KT 040V100 9999 NCD 17/05 Q1030,0,10,0,10000,0,0,0,
2026-04-23 12:50:00,METAR EGGW 231250Z AUTO 06012KT 9999 NCD 16/04 Q1030,0,12,0,10000,0,0,0,
2026-04-23 12:20:00,METAR EGGW 231220Z AUTO 06012KT 9999 NCD 16/05 Q1030,0,12,0,10000,0,0,0,
2026-04-23 11:50:00,METAR EGGW 231150Z AUTO 08011KT 050V110 9999 NCD 15/04 Q1030,0,11,0,10000,0,0,0,
2026-04-23 11:20:00,METAR EGGW 231120Z AUTO 10009KT 060V120 9999 NCD 15/05 Q1031,0,9,0,10000,0,0,0,
2026-04-23 10:50:00,METAR EGGW 231050Z AUTO 08009KT 050V110 9999 NCD 14/06 Q1031,0,9,0,10000,0,0,0,
2026-04-23 10:20:00,METAR EGGW 231020Z AUTO 09010KT 9999 NCD 13/06 Q1031,0,10,0,10000,0,0,0,
2026-04-23 09:50:00,METAR EGGW 230950Z AUTO 06009KT 030V090 9999 NCD 12/06 Q1031,0,9,0,10000,0,0,0,
2026-04-23 09:20:00,METAR EGGW 230920Z AUTO 05009KT 020V090 9999 NCD 10/06 Q1031,0,9,0,10000,0,0,0,
2026-04-23 08:50:00,METAR EGGW 230850Z AUTO 06009KT 020V090 9999 FEW009 09/06 Q1031,0,9,0,10000,0,0,0,
2026-04-23 08:20:00,METAR EGGW 230820Z AUTO 04009G19KT 010V070 9999 SCT006 08/05 Q1031,0,9,1,10000,0,0,0,
2026-04-23 07:50:00,METAR EGGW 230750Z AUTO 04010KT 010V110 9999 BKN004 06/05 Q1031,0,10,0,10000,0,0,0,
2026-04-23 07:20:00,METAR EGGW 230720Z AUTO 05010G20KT 020V080 7000 BKN003 05/05 Q1031,0,10,1,7000,0,0,0,
2026-04-23 06:50:00,METAR EGGW 230650Z 04009KT 9000 1600E BKN002 05/05 Q1031,0,9,0,9000,0,0,0,
2026-04-23 06:20:00,METAR EGGW 230620Z 05010KT 020V080 8000 1500E BKN002 05/04 Q1030,0,10,0,8000,0,0,0,
2026-04-23 05:50:00,METAR EGGW 230550Z 05009KT 020V090 3100 BR BKN001 04/04 Q1030,0,9,0,3100,0,0,1,BR
2026-04-23 05:20:00,METAR EGGW 230520Z AUTO 05009KT 030V090 2300 BR OVC001 04/04 Q1030,0,9,0,2300,0,0,1,BR
2026-04-23 04:50:00,METAR EGGW 230450Z AUTO 04008KT 0500 R07/1200N FG OVC001 04/04 Q1030,0,8,0,804500,0,0,1,FG
2026-04-23 04:20:00,METAR EGGW 230420Z AUTO 04008KT 0500 R07/1500N FG OVC001 04/04 Q1029,0,8,0,804500,0,0,1,FG
2026-04-23 03:50:00,METAR EGGW 230350Z AUTO 03007KT 0650 R07/1400N FG OVC001 04/03 Q1029,0,7,0,1045850,0,0,1,FG
2026-04-23 03:20:00,METAR EGGW 230320Z AUTO 03007KT 0650 R07/P1500N FG BKN001 03/03 Q1029,0,7,0,1045850,0,0,1,FG
2026-04-23 02:50:00,METAR EGGW 230250Z AUTO 03006KT 8000 NCD 03/03 Q1029,0,6,0,8000,0,0,0,
2026-04-23 02:20:00,METAR EGGW 230220Z AUTO 02005KT 9999 NCD 03/02 Q1029,0,5,0,10000,0,0,0,
2026-04-23 01:50:00,METAR EGGW 230150Z AUTO 02004KT 9999 NCD 04/02 Q1029,0,4,0,10000,0,0,0,
2026-04-23 01:20:00,METAR EGGW 230120Z AUTO 03005KT 9999 NCD 04/02 Q1029,0,5,0,10000,0,0,0,
2026-04-23 00:50:00,METAR EGGW 230050Z AUTO 03005KT 9999 NCD 05/02 Q1029,0,5,0,10000,0,0,0,
2026-04-23 00:20:00,METAR EGGW 230020Z AUTO 05005KT 9999 NCD 05/02 Q1029,0,5,0,10000,0,0,0,
2026-04-22 23:50:00,METAR EGGW 222350Z AUTO 04005KT 9999 NCD 05/02 Q1028,0,5,0,10000,0,0,0,
2026-04-22 23:20:00,METAR EGGW 222320Z AUTO 06006KT 9999 NCD 05/02 Q1028,0,6,0,10000,0,0,0,
2026-04-22 22:50:00,METAR EGGW 222250Z AUTO 07008KT 9999 NCD 06/02 Q1028,0,8,0,10000,0,0,0,
2026-04-22 22:20:00,METAR EGGW 222220Z AUTO 07010KT 9999 NCD 06/02 Q1028,0,10,0,10000,0,0,0,
2026-04-22 21:50:00,METAR EGGW 222150Z AUTO 07009KT 9999 NCD 07/03 Q1028,0,9,0,10000,0,0,0,
2026-04-22 21:20:00,METAR EGGW 222120Z AUTO 07009KT 9999 NCD 07/02 Q1028,0,9,0,10000,0,0,0,
2026-04-22 20:50:00,METAR EGGW 222050Z AUTO 07009KT 9999 NCD 08/01 Q1028,0,9,0,10000,0,0,0,
2026-04-22 20:20:00,METAR EGGW 222020Z AUTO 07008KT 9999 NCD 08/01 Q1027,0,8,0,10000,0,0,0,
2026-04-22 19:50:00,METAR EGGW 221950Z AUTO 07009KT 9999 NCD 08/01 Q1027,0,9,0,10000,0,0,0,
2026-04-22 19:20:00,METAR EGGW 221920Z AUTO 07007KT 9999 NCD 09/01 Q1027,0,7,0,10000,0,0,0,
2026-04-22 18:50:00,METAR EGGW 221850Z AUTO 07009KT 9999 NCD 10/01 Q1027,0,9,0,10000,0,0,0,
2026-04-22 18:20:00,METAR EGGW 221820Z AUTO 10011KT 060V120 9999 NCD 12/M01 Q1026,0,11,0,10000,0,0,0,
2026-04-22 17:50:00,METAR EGGW 221750Z AUTO 10010KT 9999 NCD 13/M00 Q1026,0,10,0,10000,0,0,0,
2026-04-22 17:20:00,METAR EGGW 221720Z AUTO 10010KT 9999 NCD 14/M00 Q1026,0,10,0,10000,0,0,0,
2026-04-22 16:50:00,METAR EGGW 221650Z AUTO 10011KT 9999 NCD 14/M00 Q1026,0,11,0,10000,0,0,0,
2026-04-22 16:20:00,METAR EGGW 221620Z AUTO 09012KT 060V120 9999 NCD 15/00 Q1026,0,12,0,10000,0,0,0,
2026-04-22 15:50:00,METAR EGGW 221550Z AUTO 10014KT 9999 NCD 15/00 Q1026,0,14,0,10000,0,0,0,
2026-04-22 15:20:00,METAR EGGW 221520Z AUTO 10013KT 9999 NCD 15/00 Q1026,0,13,0,10000,0,0,0,
2026-04-22 14:50:00,METAR EGGW 221450Z AUTO 10013KT 070V130 9999 NCD 15/M00 Q1026,0,13,0,10000,0,0,0,
2026-04-22 14:20:00,METAR EGGW 221420Z AUTO 09015KT 060V120 9999 NCD 15/00 Q1026,0,15,0,10000,0,0,0,
2026-04-22 13:50:00,METAR EGGW 221350Z AUTO 07017KT 9999 NCD 15/00 Q1026,0,17,0,10000,0,0,0,
2026-04-22 13:20:00,METAR EGGW 221320Z AUTO 10015KT 9999 NCD 15/00 Q1026,0,15,0,10000,0,0,0,
2026-04-22 12:50:00,METAR EGGW 221250Z AUTO 09015KT 060V130 9999 NCD 15/01 Q1026,0,15,0,10000,0,0,0,
2026-04-22 12:20:00,METAR EGGW 221220Z AUTO 09015KT 050V120 9999 NCD 15/01 Q1026,0,15,0,10000,0,0,0,
2026-04-22 11:50:00,METAR EGGW 221150Z AUTO 10014KT 9999 NCD 15/02 Q1026,0,14,0,10000,0,0,0,
2026-04-22 11:20:00,METAR EGGW 221120Z AUTO 10015KT 060V130 9999 NCD 15/02 Q1026,0,15,0,10000,0,0,0,
2026-04-22 10:50:00,METAR EGGW 221050Z AUTO 11016KT 9999 NCD 14/02 Q1026,0,16,0,10000,0,0,0,
2026-04-22 10:20:00,METAR EGGW 221020Z AUTO 09013KT 9999 NCD 13/04 Q1026,0,13,0,10000,0,0,0,
2026-04-22 09:50:00,METAR EGGW 220950Z AUTO 09013KT 060V120 9999 NCD 13/03 Q1026,0,13,0,10000,0,0,0,
2026-04-22 09:20:00,METAR EGGW 220920Z AUTO 09014KT 060V120 9999 NCD 12/03 Q1026,0,14,0,10000,0,0,0,
2026-04-22 08:50:00,METAR EGGW 220850Z AUTO 09012KT 9999 NCD 11/03 Q1026,0,12,0,10000,0,0,0,
2026-04-22 08:20:00,METAR EGGW 220820Z AUTO 08010KT 060V120 9999 NCD 11/05 Q1026,0,10,0,10000,0,0,0,
2026-04-22 07:50:00,METAR EGGW 220750Z AUTO 07011KT 9999 NCD 10/06 Q1026,0,11,0,10000,0,0,0,
2026-04-22 07:20:00,METAR EGGW 220720Z AUTO 07009KT 9999 NCD 08/06 Q1026,0,9,0,10000,0,0,0,
2026-04-22 06:50:00,METAR EGGW 220650Z AUTO 06008KT 9999 NCD 07/05 Q1026,0,8,0,10000,0,0,0,
2026-04-22 06:20:00,METAR EGGW 220620Z AUTO 03006KT 360V080 9000 NCD 05/04 Q1026,0,6,0,9000,0,0,0,
2026-04-22 05:50:00,METAR EGGW 220550Z AUTO 03006KT 010V070 8000 FEW007 04/04 Q1026,0,6,0,8000,0,0,0,
2026-04-22 05:20:00,METAR EGGW 220520Z AUTO 03007KT 360V080 6000 FEW004 03/03 Q1026,0,7,0,6000,0,0,0,
2026-04-22 04:50:00,METAR EGGW 220450Z AUTO 05006KT 3500 BR FEW007 03/02 Q1025,0,6,0,3500,0,0,1,BR
2026-04-22 04:20:00,METAR EGGW 220420Z 05006KT 6000 FEW003 SCT007 03/03 Q1025,0,6,0,6000,0,0,0,
2026-04-22 03:50:00,METAR EGGW 220350Z COR 04004KT 7000 SCT006 02/02 Q1025,0,4,0,7000,0,0,0,
2026-04-22 03:20:00,METAR EGGW 220320Z AUTO 03005KT 7000 NCD 02/02 Q1025,0,5,0,7000,0,0,0,
2026-04-22 02:50:00,METAR EGGW 220250Z AUTO 04004KT 8000 NCD 02/01 Q1025,0,4,0,8000,0,0,0,
2026-04-22 02:20:00,METAR EGGW 220220Z AUTO 03005KT 9999 NCD 03/02 Q1025,0,5,0,10000,0,0,0,
2026-04-22 01:50:00,METAR EGGW 220150Z AUTO 04005KT 9999 NCD 03/02 Q1025,0,5,0,10000,0,0,0,
2026-04-22 01:20:00,METAR EGGW 220120Z AUTO 04007KT 9999 NCD 03/01 Q1025,0,7,0,10000,0,0,0,
2026-04-22 00:50:00,METAR EGGW 220050Z AUTO 04007KT 9999 NCD 03/01 Q1025,0,7,0,10000,0,0,0,
2026-04-22 00:20:00,METAR EGGW 220020Z AUTO 04006KT 9999 NCD 03/01 Q1026,0,6,0,10000,0,0,0,
2026-04-21 23:50:00,METAR EGGW 212350Z AUTO 04007KT 9999 NCD 04/01 Q1026,0,7,0,10000,0,0,0,
2026-04-21 23:20:00,METAR EGGW 212320Z AUTO 04008KT 9999 NCD 04/01 Q1026,0,8,0,10000,0,0,0,
2026-04-21 22:50:00,METAR EGGW 212250Z AUTO 04008KT 9999 NCD 04/02 Q1026,0,8,0,10000,0,0,0,
2026-04-21 22:20:00,METAR EGGW 212220Z AUTO 05008KT 9999 NCD 05/01 Q1026,0,8,0,10000,0,0,0,
2026-04-21 21:50:00,METAR EGGW 212150Z AUTO 04008KT 9999 NCD 05/01 Q1026,0,8,0,10000,0,0,0,
2026-04-21 21:20:00,METAR EGGW 212120Z AUTO 04008KT 9999 NCD 05/00 Q1026,0,8,0,10000,0,0,0,
2026-04-21 20:50:00,METAR EGGW 212050Z AUTO 06009KT 9999 NCD 06/00 Q1026,0,9,0,10000,0,0,0,
2026-04-21 20:20:00,METAR EGGW 212020Z AUTO 06011KT 9999 NCD 06/00 Q1026,0,11,0,10000,0,0,0,
2026-04-21 19:50:00,METAR EGGW 211950Z AUTO 06011KT 9999 NCD 07/M00 Q1026,0,11,0,10000,0,0,0,
2026-04-21 19:20:00,METAR EGGW 211920Z AUTO 06010KT 9999 NCD 08/M00 Q1025,0,10,0,10000,0,0,0,
2026-04-21 18:50:00,METAR EGGW 211850Z AUTO 07013KT 9999 NCD 09/M01 Q1025,0,13,0,10000,0,0,0,
2026-04-21 18:20:00,METAR EGGW 211820Z AUTO 07014KT 9999 NCD 10/M00 Q1025,0,14,0,10000,0,0,0,
2026-04-21 17:50:00,METAR EGGW 211750Z AUTO 07013KT 9999 NCD 11/00 Q1025,0,13,0,10000,0,0,0,
2026-04-21 17:20:00,METAR EGGW 211720Z AUTO 06016KT 9999 NCD 11/M01 Q1024,0,16,0,10000,0,0,0,
2026-04-21 16:50:00,METAR EGGW 211650Z AUTO 06016KT 030V090 9999 NCD 12/M02 Q1024,0,16,0,10000,0,0,0,
2026-04-21 16:20:00,METAR EGGW 211620Z AUTO 07015KT 050V110 9999 NCD 12/00 Q1025,0,15,0,10000,0,0,0,
2026-04-21 15:50:00,METAR EGGW 211550Z AUTO 08014KT 9999 SCT045 13/02 Q1025,0,14,0,10000,0,0,0,
2026-04-21 15:20:00,METAR EGGW 211520Z AUTO 06015KT 9999 BKN041 12/03 Q1025,0,15,0,10000,0,0,0,
2026-04-21 14:50:00,METAR EGGW 211450Z AUTO 08014KT 050V110 9999 BKN042 13/04 Q1025,0,14,0,10000,0,0,0,
2026-04-21 14:20:00,METAR EGGW 211420Z AUTO 08015KT 9999 BKN040 BKN046 13/04 Q1025,0,15,0,10000,0,0,0,
2026-04-21 13:50:00,METAR EGGW 211350Z AUTO 09013KT 9999 BKN038 BKN047 12/04 Q1025,0,13,0,10000,0,0,0,
2026-04-21 13:20:00,METAR EGGW 211320Z AUTO 07016KT 9999 BKN041 12/04 Q1025,0,16,0,10000,0,0,0,
2026-04-21 12:50:00,METAR EGGW 211250Z AUTO 07014KT 9999 BKN040/// 14/04 Q1025,0,14,0,10000,0,0,0,
2026-04-21 12:20:00,METAR EGGW 211220Z AUTO 09016KT 9999 SCT040 13/03 Q1025,0,16,0,10000,0,0,0,
2026-04-21 11:50:00,METAR EGGW 211150Z AUTO 07013KT 040V110 9999 FEW037 12/02 Q1025,0,13,0,10000,0,0,0,
2026-04-21 11:20:00,METAR EGGW 211120Z AUTO 06015KT 9999 SCT035 12/03 Q1025,0,15,0,10000,0,0,0,
2026-04-21 10:50:00,METAR EGGW 211050Z COR 06012KT 030V100 9999 SCT035 12/03 Q1025,0,12,0,10000,0,0,0,
2026-04-21 10:20:00,METAR EGGW 211020Z AUTO 07015KT 9999 SCT030 11/03 Q1025,0,15,0,10000,0,0,0,
2026-04-21 09:50:00,METAR EGGW 210950Z AUTO 05012KT 020V080 9999 SCT027 09/03 Q1026,0,12,0,10000,0,0,0,
2026-04-21 09:20:00,METAR EGGW 210920Z AUTO 05013KT 9999 FEW025 09/03 Q1025,0,13,0,10000,0,0,0,
2026-04-21 08:50:00,METAR EGGW 210850Z AUTO 04013KT 020V080 9999 BKN025 09/03 Q1026,0,13,0,10000,0,0,0,
2026-04-21 08:20:00,METAR EGGW 210820Z AUTO 04013KT 9999 SCT021 BKN027 08/03 Q1025,0,13,0,10000,0,0,0,
2026-04-21 07:50:00,METAR EGGW 210750Z 05013KT 020V080 9999 SCT015 07/04 Q1025,0,13,0,10000,0,0,0,
2026-04-21 07:20:00,METAR EGGW 210720Z COR 04011KT 9999 FEW012 07/04 Q1025,0,11,0,10000,0,0,0,
2026-04-21 06:50:00,METAR EGGW 210650Z AUTO 04011KT 010V080 9999 FEW007 06/04 Q1025,0,11,0,10000,0,0,0,
2026-04-21 06:20:00,METAR EGGW 210620Z AUTO 04011G22KT 010V090 9999 BKN006 06/04 Q1025,0,11,1,10000,0,0,0,
2026-04-21 05:50:00,METAR EGGW 210550Z AUTO 04010KT 9999 OVC006 06/05 Q1025,0,10,0,10000,0,0,0,
2026-04-21 05:20:00,METAR EGGW 210520Z AUTO 04008KT 9999 BKN005 05/04 Q1025,0,8,0,10000,0,0,0,
2026-04-21 04:50:00,METAR EGGW 210450Z AUTO 04008KT 020V090 9999 SCT005 SCT019 BKN024 05/04 Q1025,0,8,0,10000,0,0,0,
2026-04-21 04:20:00,METAR EGGW 210420Z AUTO 03007KT 010V070 9999 BKN004 BKN017 05/04 Q1025,0,7,0,10000,0,0,0,
2026-04-21 03:50:00,METAR EGGW 210350Z AUTO 04007KT 9999 BKN004 BKN043 05/04 Q1025,0,7,0,10000,0,0,0,
2026-04-21 03:20:00,METAR EGGW 210320Z AUTO 03007KT 9999 BKN016 BKN043 04/03 Q1025,0,7,0,10000,0,0,0,
2026-04-21 02:50:00,METAR EGGW 210250Z AUTO 03008KT 9999 FEW018 OVC041 04/03 Q1025,0,8,0,10000,0,0,0,
2026-04-21 02:20:00,METAR EGGW 210220Z AUTO 03008KT 9999 OVC040 04/03 Q1025,0,8,0,10000,0,0,0,
2026-04-21 01:50:00,METAR EGGW 210150Z 03007KT 9999 SCT013 BKN019 04/03 Q1025,0,7,0,10000,0,0,0,
2026-04-21 01:20:00,METAR EGGW 210120Z AUTO 03007KT 9999 BKN019 OVC024 04/03 Q1025,0,7,0,10000,0,0,0,
2026-04-21 00:50:00,METAR EGGW 210050Z AUTO 03005KT 9999 BKN021 04/03 Q1025,0,5,0,10000,0,0,0,
2026-04-20 22:50:00,METAR EGGW 202250Z AUTO 04007KT 9999 NCD 05/03 Q1025,0,7,0,10000,0,0,0,
2026-04-20 22:20:00,METAR EGGW 202220Z AUTO 05007KT 9999 NCD 05/03 Q1025,0,7,0,10000,0,0,0,
2026-04-20 21:50:00,METAR EGGW 202150Z AUTO 05007KT 9999 NCD 05/03 Q1025,0,7,0,10000,0,0,0,
2026-04-20 21:20:00,METAR EGGW 202120Z AUTO 05008KT 9999 NCD 05/02 Q1024,0,8,0,10000,0,0,0,
2026-04-20 20:50:00,METAR EGGW 202050Z AUTO 03006KT 010V110 9999 NCD 06/01 Q1024,0,6,0,10000,0,0,0,
2026-04-20 20:20:00,METAR EGGW 202020Z AUTO 03006KT 9999 NCD 06/01 Q1024,0,6,0,10000,0,0,0,
2026-04-20 19:50:00,METAR EGGW 201950Z AUTO 03006KT 010V070 9999 NCD 07/01 Q1024,0,6,0,10000,0,0,0,
2026-04-20 19:20:00,METAR EGGW 201920Z AUTO 04009KT 9999 NCD 08/01 Q1024,0,9,0,10000,0,0,0,
2026-04-20 18:50:00,METAR EGGW 201850Z AUTO 05011KT 030V090 9999 NCD 09/01 Q1023,0,11,0,10000,0,0,0,
2026-04-20 18:20:00,METAR EGGW 201820Z AUTO 05012KT 9999 NCD 10/01 Q1023,0,12,0,10000,0,0,0,
2026-04-20 17:50:00,METAR EGGW 201750Z AUTO 04011KT 020V080 9999 NCD 10/01 Q1023,0,11,0,10000,0,0,0,
2026-04-20 17:20:00,METAR EGGW 201720Z AUTO 05011KT 030V090 9999 NCD 10/01 Q1023,0,11,0,10000,0,0,0,
2026-04-20 16:50:00,METAR EGGW 201650Z AUTO 04010KT 010V070 9999 NCD 11/01 Q1023,0,10,0,10000,0,0,0,
2026-04-20 16:20:00,METAR EGGW 201620Z AUTO 05006KT 9999 NCD 11/01 Q1023,0,6,0,10000,0,0,0,
2026-04-20 15:50:00,METAR EGGW 201550Z AUTO 05010KT 020V090 9999 NCD 11/01 Q1023,0,10,0,10000,0,0,0,
2026-04-20 15:20:00,METAR EGGW 201520Z AUTO 03009KT 010V070 9999 NCD 11/01 Q1023,0,9,0,10000,0,0,0,
2026-04-20 14:50:00,METAR EGGW 201450Z AUTO 06008KT 020V090 9999 NCD 11/02 Q1023,0,8,0,10000,0,0,0,
2026-04-20 14:20:00,METAR EGGW 201420Z AUTO 05007KT 030V090 9999 FEW039 11/03 Q1023,0,7,0,10000,0,0,0,
2026-04-20 13:50:00,METAR EGGW 201350Z AUTO 06009KT 030V090 9999 FEW043 11/01 Q1023,0,9,0,10000,0,0,0,
2026-04-20 13:20:00,METAR EGGW 201320Z AUTO 05011KT 9999 NCD 12/02 Q1023,0,11,0,10000,0,0,0,
2026-04-20 12:50:00,METAR EGGW 201250Z AUTO 06009KT 030V090 9999 FEW045 12/01 Q1023,0,9,0,10000,0,0,0,
2026-04-20 12:20:00,METAR EGGW 201220Z AUTO 05009KT 9999 FEW038 11/03 Q1024,0,9,0,10000,0,0,0,
2026-04-20 11:50:00,METAR EGGW 201150Z 07010KT 030V090 9999 SCT040 12/03 Q1024,0,10,0,10000,0,0,0,
2026-04-20 11:20:00,METAR EGGW 201120Z COR 05010KT 020V090 9999 SCT040 11/02 Q1024,0,10,0,10000,0,0,0,
2026-04-20 10:50:00,METAR EGGW 201050Z AUTO 04011KT 010V070 9999 SCT033 12/03 Q1024,0,11,0,10000,0,0,0,
2026-04-20 10:20:00,METAR EGGW 201020Z AUTO 08011KT 9999 FEW033 11/03 Q1024,0,11,0,10000,0,0,0,
2026-04-20 09:50:00,METAR EGGW 200950Z AUTO 07009KT 030V100 9999 NCD 11/02 Q1024,0,9,0,10000,0,0,0,
2026-04-20 09:20:00,METAR EGGW 200920Z AUTO 06010KT 030V090 9999 NCD 10/02 Q1024,0,10,0,10000,0,0,0,
2026-04-20 08:50:00,METAR EGGW 200850Z AUTO 04007KT 360V080 9999 FEW049 09/03 Q1024,0,7,0,10000,0,0,0,
2026-04-20 08:20:00,METAR EGGW 200820Z AUTO 04008KT 020V090 9999 SCT049 08/02 Q1024,0,8,0,10000,0,0,0,
2026-04-20 07:50:00,METAR EGGW 200750Z AUTO 02007G17KT 360V140 9999 NCD 07/04 Q1024,0,7,1,10000,0,0,0,
2026-04-20 07:20:00,METAR EGGW 200720Z AUTO 04006KT 010V090 9999 NCD 07/04 Q1024,0,6,0,10000,0,0,0,
2026-04-20 06:50:00,METAR EGGW 200650Z AUTO 04004KT 360V090 9999 NCD 06/04 Q1024,0,4,0,10000,0,0,0,
2026-04-20 06:20:00,METAR EGGW 200620Z AUTO 03003KT 350V080 9999 NCD 05/03 Q1024,0,3,0,10000,0,0,0,
2026-04-20 05:50:00,METAR EGGW 200550Z AUTO 04005KT 010V070 9999 NCD 04/02 Q1024,0,5,0,10000,0,0,0,
2026-04-20 05:20:00,METAR EGGW 200520Z AUTO 04005KT 360V080 9999 NCD 04/02 Q1024,0,5,0,10000,0,0,0,
2026-04-20 04:50:00,METAR EGGW 200450Z AUTO 02003KT 9999 NCD 04/03 Q1024,0,3,0,10000,0,0,0,
2026-04-20 04:20:00,METAR EGGW 200420Z AUTO 02003KT 350V060 9999 NCD 04/04 Q1024,0,3,0,10000,0,0,0,
2026-04-20 03:50:00,METAR EGGW 200350Z AUTO 36003KT 9999 NCD 04/03 Q1024,0,3,0,10000,0,0,0,
2026-04-20 03:20:00,METAR EGGW 200320Z AUTO 01004KT 9999 NCD 04/03 Q1024,0,4,0,10000,0,0,0,
2026-04-20 02:50:00,METAR EGGW 200250Z AUTO 01003KT 9999 NCD 05/04 Q1024,0,3,0,10000,0,0,0,
2026-04-20 02:20:00,METAR EGGW 200220Z AUTO 36002KT 9999 NCD 05/04 Q1024,0,2,0,10000,0,0,0,
2026-04-20 01:50:00,METAR EGGW 200150Z 32001KT CAVOK 05/04 Q1024,1,0,0,9999,0,0,0,
2026-04-20 01:20:00,METAR EGGW 200120Z 21001KT CAVOK 05/04 Q1024,1,0,0,9999,0,0,0,
2026-04-20 00:50:00,METAR EGGW 200050Z AUTO 20001KT 9999 NCD 05/04 Q1024,0,1,0,10000,0,0,0,
2026-04-20 00:20:00,METAR EGGW 200020Z AUTO 17001KT 9999 NCD 06/05 Q1024,0,1,0,10000,0,0,0,
2026-04-19 23:50:00,METAR EGGW 192350Z AUTO 15002KT 9999 NCD 06/05 Q1025,0,2,0,10000,0,0,0,
2026-04-19 23:20:00,METAR EGGW 192320Z AUTO VRB01KT 9999 NCD 06/05 Q1025,0,1,0,10000,0,0,0,
2026-04-19 22:50:00,METAR EGGW 192250Z AUTO VRB02KT 9999 NCD 07/05 Q1025,0,2,0,10000,0,0,0,
2026-04-19 22:20:00,METAR EGGW 192220Z AUTO 11004KT 9999 NCD 06/05 Q1025,0,4,0,10000,0,0,0,
2026-04-19 21:50:00,METAR EGGW 192150Z AUTO 10005KT 9999 NCD 07/04 Q1025,0,5,0,10000,0,0,0,
2026-04-19 21:20:00,METAR EGGW 192120Z AUTO 09005KT 9999 NCD 08/03 Q1025,0,5,0,10000,0,0,0,
2026-04-19 20:50:00,METAR EGGW 192050Z AUTO 07004KT 9999 NCD 08/02 Q1025,0,4,0,10000,0,0,0,
2026-04-19 20:20:00,METAR EGGW 192020Z AUTO 06005KT 030V100 9999 NCD 09/02 Q1025,0,5,0,10000,0,0,0,
2026-04-19 19:50:00,METAR EGGW 191950Z AUTO 06004KT 040V100 9999 NCD 09/01 Q1025,0,4,0,10000,0,0,0,
2026-04-19 19:20:00,METAR EGGW 191920Z AUTO 04005KT 360V070 9999 NCD 10/01 Q1025,0,5,0,10000,0,0,0,
2026-04-19 18:50:00,METAR EGGW 191850Z AUTO 04006KT 360V110 9999 NCD 10/M00 Q1024,0,6,0,10000,0,0,0,
2026-04-19 18:20:00,METAR EGGW 191820Z AUTO 02005KT 320V080 9999 NCD 11/M00 Q1024,0,5,0,10000,0,0,0,
2026-04-19 17:50:00,METAR EGGW 191750Z AUTO 04007KT 010V110 9999 NCD 11/M00 Q1024,0,7,0,10000,0,0,0,
2026-04-19 17:20:00,METAR EGGW 191720Z AUTO 03006KT 9999 NCD 12/00 Q1024,0,6,0,10000,0,0,0,
2026-04-19 16:50:00,METAR EGGW 191650Z AUTO 36007KT 9999 NCD 12/M00 Q1024,0,7,0,10000,0,0,0,
2026-04-19 16:20:00,METAR EGGW 191620Z AUTO 02008KT 360V090 9999 NCD 12/M01 Q1024,0,8,0,10000,0,0,0,
2026-04-19 15:50:00,METAR EGGW 191550Z AUTO 34005KT 290V050 9999 NCD 12/M01 Q1024,0,5,0,10000,0,0,0,
2026-04-19 15:20:00,METAR EGGW 191520Z AUTO 02008G18KT 9999 NCD 12/M01 Q1024,0,8,1,10000,0,0,0,
2026-04-19 14:50:00,METAR EGGW 191450Z AUTO 01009KT 340V070 9999 NCD 12/M01 Q1025,0,9,0,10000,0,0,0,
2026-04-19 14:20:00,METAR EGGW 191420Z AUTO 01009KT 9999 NCD 12/M00 Q1025,0,9,0,10000,0,0,0,
2026-04-19 13:50:00,METAR EGGW 191350Z AUTO 01006KT 340V060 9999 NCD 12/00 Q1025,0,6,0,10000,0,0,0,
2026-04-19 13:20:00,METAR EGGW 191320Z AUTO 03008KT 350V100 9999 NCD 13/00 Q1025,0,8,0,10000,0,0,0,
2026-04-19 12:50:00,METAR EGGW 191250Z AUTO 01008KT 320V050 9999 NCD 12/M00 Q1025,0,8,0,10000,0,0,0,
2026-04-19 12:20:00,METAR EGGW 191220Z AUTO 02007G19KT 330V070 9999 NCD 12/00 Q1025,0,7,1,10000,0,0,0,
2026-04-19 11:50:00,METAR EGGW 191150Z AUTO 33011KT 9999 SCT047 13/01 Q1026,0,11,0,10000,0,0,0,
2026-04-19 11:20:00,METAR EGGW 191120Z AUTO 34008KT 310V020 9999 FEW045 12/01 Q1026,0,8,0,10000,0,0,0,
2026-04-19 10:50:00,METAR EGGW 191050Z AUTO 32009KT 9999 FEW042 11/01 Q1026,0,9,0,10000,0,0,0,
2026-04-19 10:20:00,METAR EGGW 191020Z AUTO 33009KT 9999 NCD 11/01 Q1026,0,9,0,10000,0,0,0,
2026-04-19 09:50:00,METAR EGGW 190950Z AUTO 34011KT 9999 NCD 11/02 Q1026,0,11,0,10000,0,0,0,
2026-04-19 09:20:00,METAR EGGW 190920Z AUTO 32012KT 9999 NCD 10/02 Q1026,0,12,0,10000,0,0,0,
2026-04-19 08:50:00,METAR EGGW 190850Z AUTO 33009KT 300V020 9999 NCD 10/02 Q1026,0,9,0,10000,0,0,0,
2026-04-19 08:20:00,METAR EGGW 190820Z AUTO 34008KT 300V010 9999 NCD 09/02 Q1025,0,8,0,10000,0,0,0,
2026-04-19 07:50:00,METAR EGGW 190750Z AUTO 33010KT 300V360 9999 NCD 09/03 Q1025,0,10,0,10000,0,0,0,
2026-04-19 07:20:00,METAR EGGW 190720Z AUTO 33009KT 290V360 9999 NCD 08/03 Q1025,0,9,0,10000,0,0,0,
2026-04-19 06:50:00,METAR EGGW 190650Z AUTO 33010KT 9999 NCD 06/03 Q1025,0,10,0,10000,0,0,0,
2026-04-19 06:20:00,METAR EGGW 190620Z AUTO 33009KT 290V350 9999 NCD 06/03 Q1025,0,9,0,10000,0,0,0,
2026-04-19 05:50:00,METAR EGGW 190550Z AUTO 32009KT 9999 NCD 05/02 Q1025,0,9,0,10000,0,0,0,
2026-04-19 05:20:00,METAR EGGW 190520Z AUTO 32010KT 9999 NCD 05/02 Q1025,0,10,0,10000,0,0,0,
2026-04-19 04:50:00,METAR EGGW 190450Z AUTO 33009KT 9999 NCD 04/02 Q1025,0,9,0,10000,0,0,0,
2026-04-19 04:20:00,METAR EGGW 190420Z AUTO 33008KT 9999 NCD 04/02 Q1024,0,8,0,10000,0,0,0,
2026-04-19 03:50:00,METAR EGGW 190350Z AUTO 32010KT 9999 NCD 05/02 Q1024,0,10,0,10000,0,0,0,
2026-04-19 03:20:00,METAR EGGW 190320Z AUTO 32009KT 9999 NCD 05/02 Q1025,0,9,0,10000,0,0,0,
2026-04-19 02:50:00,METAR EGGW 190250Z AUTO 32008KT 9999 NCD 05/02 Q1024,0,8,0,10000,0,0,0,
2026-04-19 02:20:00,METAR EGGW 190220Z AUTO 32008KT 9999 NCD 05/02 Q1024,0,8,0,10000,0,0,0,
2026-04-19 01:50:00,METAR EGGW 190150Z AUTO 32007KT 9999 NCD 06/02 Q1024,0,7,0,10000,0,0,0,
2026-04-19 01:20:00,METAR EGGW 190120Z AUTO 33009KT 9999 NCD 06/02 Q1024,0,9,0,10000,0,0,0,
2026-04-19 00:50:00,METAR EGGW 190050Z AUTO 33009KT 9999 NCD 06/03 Q1024,0,9,0,10000,0,0,0,
2026-04-19 00:20:00,METAR EGGW 190020Z AUTO 33010KT 9999 NCD 07/03 Q1024,0,10,0,10000,0,0,0,
2026-04-18 23:50:00,METAR EGGW 182350Z AUTO 33010KT 9999 NCD 07/03 Q1024,0,10,0,10000,0,0,0,
2026-04-18 23:20:00,METAR EGGW 182320Z AUTO 32010KT 9999 NCD 08/03 Q1024,0,10,0,10000,0,0,0,
2026-04-18 22:50:00,METAR EGGW 182250Z AUTO 32010KT 9999 NCD 08/04 Q1024,0,10,0,10000,0,0,0,
2026-04-18 22:20:00,METAR EGGW 182220Z AUTO 32009KT 9999 NCD 09/05 Q1024,0,9,0,10000,0,0,0,
2026-04-18 21:50:00,METAR EGGW 182150Z AUTO 32008KT 9999 NCD 09/05 Q1024,0,8,0,10000,0,0,0,
2026-04-18 21:20:00,METAR EGGW 182120Z AUTO 33009KT 9999 NCD 10/05 Q1023,0,9,0,10000,0,0,0,
2026-04-18 20:50:00,METAR EGGW 182050Z AUTO 32010KT 9999 NCD 11/06 Q1024,0,10,0,10000,0,0,0,
2026-04-18 20:20:00,METAR EGGW 182020Z AUTO 31010KT 9999 NCD 10/06 Q1023,0,10,0,10000,0,0,0,
2026-04-18 19:50:00,METAR EGGW 181950Z AUTO 32011KT 9999 NCD 11/05 Q1023,0,11,0,10000,0,0,0,
2026-04-18 19:20:00,METAR EGGW 181920Z AUTO 31011KT 9999 NCD 11/05 Q1023,0,11,0,10000,0,0,0,
2026-04-18 18:50:00,METAR EGGW 181850Z AUTO 32012KT 9999 FEW046 12/04 Q1022,0,12,0,10000,0,0,0,
2026-04-18 18:20:00,METAR EGGW 181820Z AUTO 32014KT 9999 NCD 12/04 Q1022,0,14,0,10000,0,0,0,
2026-04-18 17:50:00,METAR EGGW 181750Z AUTO 33011KT 9999 NCD 13/03 Q1022,0,11,0,10000,0,0,0,
2026-04-18 17:20:00,METAR EGGW 181720Z AUTO 34009KT 300V010 9999 NCD 14/03 Q1022,0,9,0,10000,0,0,0,
2026-04-18 16:50:00,METAR EGGW 181650Z AUTO 32012KT 9999 NCD 14/01 Q1021,0,12,0,10000,0,0,0,
2026-04-18 16:20:00,METAR EGGW 181620Z AUTO 32012KT 9999 NCD 15/02 Q1021,0,12,0,10000,0,0,0,
2026-04-18 15:50:00,METAR EGGW 181550Z AUTO 30014KT 9999 NCD 14/01 Q1021,0,14,0,10000,0,0,0,
2026-04-18 15:20:00,METAR EGGW 181520Z AUTO 30011KT 260V330 9999 NCD 15/03 Q1021,0,11,0,10000,0,0,0,
2026-04-18 14:50:00,METAR EGGW 181450Z AUTO 29014KT 9999 NCD 14/03 Q1021,0,14,0,10000,0,0,0,
2026-04-18 14:20:00,METAR EGGW 181420Z AUTO 28010KT 9999 NCD 14/03 Q1021,0,10,0,10000,0,0,0,
2026-04-18 13:50:00,METAR EGGW 181350Z AUTO 31011KT 9999 BKN048 15/03 Q1021,0,11,0,10000,0,0,0,
2026-04-18 13:20:00,METAR EGGW 181320Z AUTO 29012KT 220V310 9999 FEW046 16/03 Q1021,0,12,0,10000,0,0,0,
2026-04-18 12:50:00,METAR EGGW 181250Z AUTO 26012KT 9999 NCD 16/04 Q1021,0,12,0,10000,0,0,0,
2026-04-18 12:20:00,METAR EGGW 181220Z AUTO 30012KT 9999 FEW041 14/05 Q1021,0,12,0,10000,0,0,0,
2026-04-18 11:50:00,METAR EGGW 181150Z AUTO 30008KT 260V350 9999 FEW037 SCT047 14/05 Q1021,0,8,0,10000,0,0,0,
2026-04-18 11:20:00,METAR EGGW 181120Z AUTO 28009KT 230V310 9999 SCT034 BKN045 13/05 Q1021,0,9,0,10000,0,0,0,
2026-04-18 10:50:00,METAR EGGW 181050Z AUTO 27010KT 230V320 9999 FEW032 13/05 Q1021,0,10,0,10000,0,0,0,
2026-04-18 10:20:00,METAR EGGW 181020Z AUTO 29010KT 9999 SCT028 SCT035 13/06 Q1021,0,10,0,10000,0,0,0,
2026-04-18 09:50:00,METAR EGGW 180950Z AUTO 27010KT 9999 FEW025 12/06 Q1021,0,10,0,10000,0,0,0,
2026-04-18 09:20:00,METAR EGGW 180920Z AUTO 29012KT 250V320 9999 SCT023 11/05 Q1021,0,12,0,10000,0,0,0,
2026-04-18 08:50:00,METAR EGGW 180850Z AUTO 29010KT 9999 NCD 12/06 Q1021,0,10,0,10000,0,0,0,
2026-04-18 08:20:00,METAR EGGW 180820Z AUTO 27010KT 9999 NCD 11/06 Q1021,0,10,0,10000,0,0,0,
2026-04-18 07:50:00,METAR EGGW 180750Z AUTO 26009KT 230V290 9999 NCD 10/07 Q1021,0,9,0,10000,0,0,0,
2026-04-18 07:20:00,METAR EGGW 180720Z AUTO 26009KT 9999 NCD 09/07 Q1021,0,9,0,10000,0,0,0,
2026-04-18 06:50:00,METAR EGGW 180650Z AUTO 26009KT 9999 FEW009 09/07 Q1021,0,9,0,10000,0,0,0,
2026-04-18 06:20:00,METAR EGGW 180620Z AUTO 24006KT 9999 FEW009 08/06 Q1021,0,6,0,10000,0,0,0,
2026-04-18 05:50:00,METAR EGGW 180550Z AUTO 24005KT 9999 NCD 07/06 Q1020,0,5,0,10000,0,0,0,
2026-04-18 05:20:00,METAR EGGW 180520Z AUTO 24005KT 9999 NCD 06/05 Q1020,0,5,0,10000,0,0,0,
2026-04-18 04:50:00,METAR EGGW 180450Z AUTO 26004KT 9999 NCD 06/05 Q1020,0,4,0,10000,0,0,0,
2026-04-18 04:20:00,METAR EGGW 180420Z AUTO 26004KT 9999 NCD 07/06 Q1020,0,4,0,10000,0,0,0,
2026-04-18 03:50:00,METAR EGGW 180350Z AUTO 24004KT 9999 NCD 07/06 Q1020,0,4,0,10000,0,0,0,
2026-04-18 03:20:00,METAR EGGW 180320Z AUTO 24007KT 9999 NCD 07/06 Q1020,0,7,0,10000,0,0,0,
2026-04-18 02:50:00,METAR EGGW 180250Z AUTO 25008KT 9999 NCD 07/06 Q1020,0,8,0,10000,0,0,0,
2026-04-18 02:20:00,METAR EGGW 180220Z AUTO 25008KT 9999 NCD 08/06 Q1020,0,8,0,10000,0,0,0,
2026-04-18 01:50:00,METAR EGGW 180150Z AUTO 26008KT 230V290 9999 OVC033 10/07 Q1020,0,8,0,10000,0,0,0,
2026-04-18 01:20:00,METAR EGGW 180120Z AUTO 25009KT 9999 OVC032 10/07 Q1020,0,9,0,10000,0,0,0,
2026-04-18 00:50:00,METAR EGGW 180050Z AUTO 26009KT 9999 BKN031 10/07 Q1020,0,9,0,10000,0,0,0,
2026-04-18 00:20:00,METAR EGGW 180020Z AUTO 26008KT 9999 OVC028 10/07 Q1020,0,8,0,10000,0,0,0,
2026-04-17 23:50:00,METAR EGGW 172350Z AUTO 24005KT 9999 OVC026 10/07 Q1020,0,5,0,10000,0,0,0,
2026-04-17 23:20:00,METAR EGGW 172320Z AUTO 24006KT 9999 OVC024 10/07 Q1020,0,6,0,10000,0,0,0,
2026-04-17 22:50:00,METAR EGGW 172250Z AUTO 23006KT 9999 OVC020 10/07 Q1019,0,6,0,10000,0,0,0,
2026-04-17 22:20:00,METAR EGGW 172220Z AUTO 24007KT 9999 BKN016 OVC020 10/07 Q1019,0,7,0,10000,0,0,0,
2026-04-17 21:50:00,METAR EGGW 172150Z AUTO 27012KT 9999 BKN012 OVC018 10/08 Q1019,0,12,0,10000,0,0,0,
2026-04-17 21:20:00,METAR EGGW 172120Z AUTO 28013KT 9999 BKN010 OVC022 11/08 Q1019,0,13,0,10000,0,0,0,
2026-04-17 20:50:00,METAR EGGW 172050Z AUTO 28009KT 9999 FEW009 OVC025 11/09 Q1019,0,9,0,10000,0,0,0,
2026-04-17 20:20:00,METAR EGGW 172020Z AUTO 27010KT 9999 OVC028 12/09 Q1019,0,10,0,10000,0,0,0,
2026-04-17 19:50:00,METAR EGGW 171950Z AUTO 27010KT 9999 OVC030 12/09 Q1019,0,10,0,10000,0,0,0,
2026-04-17 19:20:00,METAR EGGW 171920Z AUTO 22008KT 190V250 9999 OVC034 14/08 Q1018,0,8,0,10000,0,0,0,
2026-04-17 18:50:00,METAR EGGW 171850Z AUTO 22010KT 9999 BKN041 OVC048 14/08 Q1018,0,10,0,10000,0,0,0,
2026-04-17 18:20:00,METAR EGGW 171820Z AUTO 21011KT 9999 SCT043 14/08 Q1018,0,11,0,10000,0,0,0,
2026-04-17 17:50:00,METAR EGGW 171750Z AUTO 21011KT 180V240 9999 FEW043 15/07 Q1018,0,11,0,10000,0,0,0,
2026-04-17 17:20:00,METAR EGGW 171720Z AUTO 22011KT 180V240 9999 NCD 15/07 Q1018,0,11,0,10000,0,0,0,
2026-04-17 16:50:00,METAR EGGW 171650Z AUTO 22013KT 9999 SCT041 15/07 Q1018,0,13,0,10000,0,0,0,
2026-04-17 16:20:00,METAR EGGW 171620Z AUTO 23014KT 9999 FEW040 16/07 Q1017,0,14,0,10000,0,0,0,
2026-04-17 15:50:00,METAR EGGW 171550Z AUTO 22013KT 9999 BKN038 16/08 Q1018,0,13,0,10000,0,0,0,
2026-04-17 15:20:00,METAR EGGW 171520Z AUTO 21012KT 180V240 9999 BKN039 16/08 Q1018,0,12,0,10000,0,0,0,
2026-04-17 14:50:00,METAR EGGW 171450Z AUTO 21011KT 180V240 9999 BKN040 16/08 Q1018,0,11,0,10000,0,0,0,
2026-04-17 14:20:00,METAR EGGW 171420Z AUTO 20013KT 170V230 9999 SCT036 BKN043 16/08 Q1018,0,13,0,10000,0,0,0,
2026-04-17 13:50:00,METAR EGGW 171350Z AUTO 21013KT 9999 FEW037 BKN044 16/08 Q1018,0,13,0,10000,0,0,0,
2026-04-17 13:20:00,METAR EGGW 171320Z AUTO 21012KT 180V240 9999 BKN033 OVC048 15/08 Q1018,0,12,0,10000,0,0,0,
2026-04-17 12:50:00,METAR EGGW 171250Z AUTO 21014KT 9999 SCT035 OVC044 15/07 Q1018,0,14,0,10000,0,0,0,
2026-04-17 12:20:00,METAR EGGW 171220Z AUTO 20012KT 170V230 9999 BKN033 BKN043 15/08 Q1018,0,12,0,10000,0,0,0,
2026-04-17 11:50:00,METAR EGGW 171150Z AUTO 21013G23KT 170V230 9999 SCT032 BKN045 15/08 Q1018,0,13,1,10000,0,0,0,
2026-04-17 11:20:00,METAR EGGW 171120Z AUTO 21014KT 170V240 9999 FEW027 SCT031 15/08 Q1018,0,14,0,10000,0,0,0,
2026-04-17 10:50:00,METAR EGGW 171050Z AUTO 22012KT 9999 FEW025 SCT034 14/08 Q1019,0,12,0,10000,0,0,0,
2026-04-17 10:20:00,METAR EGGW 171020Z AUTO 21014KT 170V230 9999 FEW023 14/08 Q1019,0,14,0,10000,0,0,0,
2026-04-17 09:50:00,METAR EGGW 170950Z AUTO 21014G24KT 9999 FEW021 13/09 Q1019,0,14,1,10000,0,0,0,
2026-04-17 09:20:00,METAR EGGW 170920Z AUTO 21011KT 9999 FEW019 13/09 Q1019,0,11,0,10000,0,0,0,
2026-04-17 08:50:00,METAR EGGW 170850Z AUTO 21011KT 170V230 9999 NCD 13/09 Q1019,0,11,0,10000,0,0,0,
2026-04-17 08:20:00,METAR EGGW 170820Z AUTO 21011KT 9999 FEW013 12/09 Q1019,0,11,0,10000,0,0,0,
2026-04-17 07:50:00,METAR EGGW 170750Z AUTO 20009KT 150V230 9999 SCT012 12/09 Q1019,0,9,0,10000,0,0,0,
2026-04-17 07:20:00,METAR EGGW 170720Z AUTO 20007KT 160V230 9999 NCD 11/09 Q1019,0,7,0,10000,0,0,0,
2026-04-17 06:50:00,METAR EGGW 170650Z AUTO 18006KT 140V210 9999 NCD 10/09 Q1019,0,6,0,10000,0,0,0,
2026-04-17 06:20:00,METAR EGGW 170620Z AUTO 19005KT 150V220 9999 NCD 09/08 Q1019,0,5,0,10000,0,0,0,
2026-04-17 05:50:00,METAR EGGW 170550Z AUTO 17004KT 140V200 9999 NCD 09/08 Q1019,0,4,0,10000,0,0,0,
2026-04-17 05:20:00,METAR EGGW 170520Z AUTO 18004KT 150V210 9999 NCD 09/08 Q1018,0,4,0,10000,0,0,0,
2026-04-17 04:50:00,METAR EGGW 170450Z AUTO 20006KT 160V220 9999 NCD 09/08 Q1018,0,6,0,10000,0,0,0,
2026-04-17 04:20:00,METAR EGGW 170420Z AUTO 19006KT 140V230 9999 NCD 09/08 Q1018,0,6,0,10000,0,0,0,
2026-04-17 03:50:00,METAR EGGW 170350Z AUTO 19005KT 160V230 9999 FEW006 09/08 Q1019,0,5,0,10000,0,0,0,
2026-04-17 03:20:00,METAR EGGW 170320Z AUTO 19007KT 150V220 9000 SCT006 09/08 Q1019,0,7,0,9000,0,0,0,
2026-04-17 02:50:00,METAR EGGW 170250Z AUTO 19007KT 160V220 9000 NCD 09/08 Q1019,0,7,0,9000,0,0,0,
2026-04-17 02:20:00,METAR EGGW 170220Z AUTO 19007KT 160V220 9999 NCD 09/08 Q1019,0,7,0,10000,0,0,0,
2026-04-17 01:50:00,METAR EGGW 170150Z AUTO 20007KT 9999 NCD 09/08 Q1019,0,7,0,10000,0,0,0,
2026-04-17 01:20:00,METAR EGGW 170120Z AUTO 19006KT 160V220 9999 NCD 09/08 Q1019,0,6,0,10000,0,0,0,
2026-04-17 00:50:00,METAR EGGW 170050Z AUTO 19005KT 150V220 9999 NCD 09/08 Q1019,0,5,0,10000,0,0,0,
2026-04-17 00:20:00,METAR EGGW 170020Z AUTO 20006KT 150V230 9999 NCD 09/08 Q1019,0,6,0,10000,0,0,0,
2026-04-16 23:50:00,METAR EGGW 162350Z AUTO 20007KT 160V230 9999 NCD 10/08 Q1019,0,7,0,10000,0,0,0,
2026-04-16 23:20:00,METAR EGGW 162320Z AUTO 20006KT 170V230 9999 NCD 10/08 Q1019,0,6,0,10000,0,0,0,
2026-04-16 22:50:00,METAR EGGW 162250Z AUTO 19006KT 160V220 9999 NCD 10/08 Q1019,0,6,0,10000,0,0,0,
2026-04-16 22:20:00,METAR EGGW 162220Z AUTO 20006KT 160V230 9999 NCD 11/08 Q1019,0,6,0,10000,0,0,0,
2026-04-16 21:50:00,METAR EGGW 162150Z AUTO 19007KT 150V230 9999 NCD 11/08 Q1019,0,7,0,10000,0,0,0,
2026-04-16 21:20:00,METAR EGGW 162120Z AUTO 20008KT 170V230 9999 NCD 11/08 Q1019,0,8,0,10000,0,0,0,
2026-04-16 20:50:00,METAR EGGW 162050Z AUTO 21008KT 9999 NCD 11/08 Q1019,0,8,0,10000,0,0,0,
2026-04-16 20:20:00,METAR EGGW 162020Z AUTO 21009KT 9999 NCD 12/08 Q1019,0,9,0,10000,0,0,0,
2026-04-16 19:50:00,METAR EGGW 161950Z AUTO 21008KT 170V240 9999 NCD 12/08 Q1019,0,8,0,10000,0,0,0,
2026-04-16 19:20:00,METAR EGGW 161920Z AUTO 22009KT 9999 NCD 12/08 Q1019,0,9,0,10000,0,0,0,
2026-04-16 18:50:00,METAR EGGW 161850Z AUTO 21008KT 9999 NCD 13/08 Q1019,0,8,0,10000,0,0,0,
2026-04-16 18:20:00,METAR EGGW 161820Z AUTO 21007KT 9999 NCD 13/08 Q1018,0,7,0,10000,0,0,0,
2026-04-16 17:50:00,METAR EGGW 161750Z AUTO 20007KT 170V230 9999 NCD 14/08 Q1018,0,7,0,10000,0,0,0,
2026-04-16 17:20:00,METAR EGGW 161720Z AUTO 20009KT 160V230 9999 FEW031 SCT041 14/08 Q1018,0,9,0,10000,0,0,0,
2026-04-16 16:50:00,METAR EGGW 161650Z AUTO 21008KT 150V230 9999 FEW038 14/08 Q1018,0,8,0,10000,0,0,0,
2026-04-16 16:20:00,METAR EGGW 161620Z AUTO 21010KT 9999 SCT044 15/08 Q1018,0,10,0,10000,0,0,0,
2026-04-16 15:50:00,METAR EGGW 161550Z AUTO 23008KT 200V260 9999 FEW043 16/07 Q1018,0,8,0,10000,0,0,0,
2026-04-16 14:50:00,METAR EGGW 161450Z AUTO 26011KT 9999 NCD 17/07 Q1018,0,11,0,10000,0,0,0,
2026-04-16 14:20:00,METAR EGGW 161420Z AUTO 23011KT 200V270 9999 FEW045 16/06 Q1018,0,11,0,10000,0,0,0,
2026-04-16 13:50:00,METAR EGGW 161350Z AUTO 24012KT 9999 NCD 16/06 Q1019,0,12,0,10000,0,0,0,
2026-04-16 13:20:00,METAR EGGW 161320Z AUTO 26012KT 9999 FEW042 16/07 Q1019,0,12,0,10000,0,0,0,
2026-04-16 12:50:00,METAR EGGW 161250Z AUTO 26013KT 9999 BKN041 BKN049 15/06 Q1019,0,13,0,10000,0,0,0,
2026-04-16 12:20:00,METAR EGGW 161220Z AUTO 23013KT 9999 NCD 16/06 Q1018,0,13,0,10000,0,0,0,
2026-04-16 11:50:00,METAR EGGW 161150Z AUTO 25014KT 220V280 9999 FEW041 14/06 Q1018,0,14,0,10000,0,0,0,
2026-04-16 11:20:00,METAR EGGW 161120Z AUTO 24015KT 9999 FEW039 15/06 Q1018,0,15,0,10000,0,0,0,
2026-04-16 10:50:00,METAR EGGW 161050Z AUTO 25011KT 9999 BKN030 BKN039 BKN049 14/08 Q1018,0,11,0,10000,0,0,0,
2026-04-16 10:20:00,METAR EGGW 161020Z AUTO 26011KT 9999 SCT027 SCT032 BKN043 14/08 Q1018,0,11,0,10000,0,0,0,
2026-04-16 09:50:00,METAR EGGW 160950Z AUTO 24013KT 9999 FEW025 BKN031 BKN041 13/07 Q1018,0,13,0,10000,0,0,0,
2026-04-16 09:20:00,METAR EGGW 160920Z AUTO 25012KT 9999 BKN023 BKN031 OVC041 13/08 Q1018,0,12,0,10000,0,0,0,
2026-04-16 08:50:00,METAR EGGW 160850Z AUTO 24010KT 200V270 9999 BKN020 BKN026 OVC046 13/09 Q1018,0,10,0,10000,0,0,0,
2026-04-16 08:20:00,METAR EGGW 160820Z AUTO 22011KT 190V250 9999 FEW015 SCT020 12/09 Q1017,0,11,0,10000,0,0,0,
2026-04-16 07:50:00,METAR EGGW 160750Z AUTO 21010KT 9999 SCT015 11/09 Q1017,0,10,0,10000,0,0,0,
2026-04-16 07:20:00,METAR EGGW 160720Z AUTO 22009KT 9999 BKN016 BKN020 OVC024 11/09 Q1017,0,9,0,10000,0,0,0,
2026-04-16 06:50:00,METAR EGGW 160650Z AUTO 21010KT 160V240 9999 SCT012 BKN018 OVC038 10/09 Q1017,0,10,0,10000,0,0,0,
2026-04-16 06:20:00,METAR EGGW 160620Z AUTO 20009KT 170V230 9999 SCT011 OVC039 10/08 Q1017,0,9,0,10000,0,0,0,
2026-04-16 05:50:00,METAR EGGW 160550Z AUTO 20009KT 150V230 9999 FEW012 BKN039 09/08 Q1016,0,9,0,10000,0,0,0,
2026-04-16 05:20:00,METAR EGGW 160520Z AUTO 20009KT 160V230 9999 SCT012 09/08 Q1016,0,9,0,10000,0,0,0,
2026-04-16 04:50:00,METAR EGGW 160450Z AUTO 21009KT 9000 BKN012 09/08 Q1016,0,9,0,9000,0,0,0,
2026-04-16 04:20:00,METAR EGGW 160420Z AUTO 21009KT 9999 BKN012 BKN029 OVC042 09/08 Q1016,0,9,0,10000,0,0,0,
2026-04-16 03:50:00,METAR EGGW 160350Z AUTO 21009KT 9999 FEW012 BKN041 09/08 Q1016,0,9,0,10000,0,0,0,
2026-04-16 03:20:00,METAR EGGW 160320Z AUTO 21010KT 9999 BKN012 09/07 Q1016,0,10,0,10000,0,0,0,
2026-04-16 02:50:00,METAR EGGW 160250Z AUTO 20008KT 170V230 9999 BKN013 09/07 Q1016,0,8,0,10000,0,0,0,
2026-04-16 02:20:00,METAR EGGW 160220Z AUTO 20010KT 9999 SCT013 09/07 Q1016,0,10,0,10000,0,0,0,
2026-04-16 01:50:00,METAR EGGW 160150Z AUTO 21009KT 170V230 9999 BKN013 09/07 Q1016,0,9,0,10000,0,0,0,
2026-04-16 01:20:00,METAR EGGW 160120Z AUTO 21010KT 9999 BKN011 09/07 Q1016,0,10,0,10000,0,0,0,
2026-04-16 00:50:00,METAR EGGW 160050Z AUTO 21012KT 9999 SCT010 09/07 Q1016,0,12,0,10000,0,0,0,
2026-04-16 00:20:00,METAR EGGW 160020Z AUTO 20011KT 9999 FEW009 09/07 Q1016,0,11,0,10000,0,0,0,
2026-04-15 23:50:00,METAR EGGW 152350Z AUTO 21010KT 9999 NCD 09/07 Q1016,0,10,0,10000,0,0,0,
2026-04-15 23:20:00,METAR EGGW 152320Z AUTO 21009KT 9999 NCD 09/07 Q1016,0,9,0,10000,0,0,0,
2026-04-15 22:50:00,METAR EGGW 152250Z AUTO 21011KT 9999 NCD 09/07 Q1016,0,11,0,10000,0,0,0,
2026-04-15 22:20:00,METAR EGGW 152220Z AUTO 22011KT 9999 NCD 09/07 Q1015,0,11,0,10000,0,0,0,
2026-04-15 21:50:00,METAR EGGW 152150Z AUTO 21008KT 9999 NCD 09/07 Q1015,0,8,0,10000,0,0,0,
2026-04-15 21:20:00,METAR EGGW 152120Z AUTO 21009KT 180V240 9999 NCD 10/07 Q1015,0,9,0,10000,0,0,0,
2026-04-15 20:50:00,METAR EGGW 152050Z AUTO 21010KT 180V240 9999 NCD 10/07 Q1015,0,10,0,10000,0,0,0,
2026-04-15 20:20:00,METAR EGGW 152020Z AUTO 22011KT 9999 NCD 10/07 Q1015,0,11,0,10000,0,0,0,
2026-04-15 19:50:00,METAR EGGW 151950Z AUTO 22010KT 9999 NCD 11/07 Q1015,0,10,0,10000,0,0,0,
2026-04-15 19:20:00,METAR EGGW 151920Z AUTO 21010KT 9999 NCD 11/07 Q1014,0,10,0,10000,0,0,0,
2026-04-15 18:50:00,METAR EGGW 151850Z AUTO 21014G24KT 9999 NCD 12/07 Q1014,0,14,1,10000,0,0,0,
2026-04-15 18:20:00,METAR EGGW 151820Z AUTO 22013G24KT 9999 FEW032/// //////CB 12/08 Q1013,0,13,1,10000,0,0,0,
2026-04-15 17:50:00,METAR EGGW 151750Z AUTO 21014KT 170V230 9999 FEW025 SCT033 13/09 Q1013,0,14,0,10000,0,0,0,
2026-04-15 17:20:00,METAR EGGW 151720Z AUTO 21014KT 170V230 9999 SCT017 BKN022 13/09 Q1013,0,14,0,10000,0,0,0,
2026-04-15 16:50:00,METAR EGGW 151650Z AUTO 20013KT 170V240 9999 BKN013 13/11 Q1013,0,13,0,10000,0,0,0,
2026-04-15 16:20:00,METAR EGGW 151620Z AUTO 20014G24KT 7000 -RA BKN013 BKN018 OVC023 12/11 Q1013,0,14,1,7000,0,0,0,-RA
2026-04-15 15:50:00,METAR EGGW 151550Z AUTO 20014KT 150V230 9999 SCT022 BKN026 BKN031 14/10 Q1013,0,14,0,10000,0,0,0,
2026-04-15 15:20:00,METAR EGGW 151520Z AUTO 21013KT 160V240 9999 -RA FEW024/// BKN031/// //////TCU 14/09 Q1013,0,13,0,10000,0,0,0,-RA
2026-04-15 14:50:00,METAR EGGW 151450Z AUTO 21015G29KT 170V240 9999 BKN033 BKN039 14/09 Q1013,0,15,1,10000,0,0,0,
2026-04-15 14:20:00,METAR EGGW 151420Z AUTO 21016KT 9999 FEW037 BKN047 15/08 Q1013,0,16,0,10000,0,0,0,
2026-04-15 13:50:00,METAR EGGW 151350Z AUTO 21016KT 9999 FEW027 SCT047 15/10 Q1013,0,16,0,10000,0,0,0,
2026-04-15 13:20:00,METAR EGGW 151320Z AUTO 20014KT 170V230 9999 FEW024 BKN036 BKN044 14/10 Q1013,0,14,0,10000,0,0,0,
2026-04-15 12:50:00,METAR EGGW 151250Z AUTO 20010KT 9999 FEW020 SCT027 BKN036 14/11 Q1013,0,10,0,10000,0,0,0,
2026-04-15 12:20:00,METAR EGGW 151220Z AUTO 21011KT 170V230 9999 FEW016/// SCT020/// BKN040/// //////TCU 14/11 Q1014,0,11,0,10000,0,0,0,
2026-04-15 11:50:00,METAR EGGW 151150Z AUTO 21012KT 160V230 9999 -RA SCT011/// SCT018/// BKN026/// //////CB 14/12 Q1014,0,12,0,10000,0,0,0,-RA
2026-04-15 11:20:00,METAR EGGW 151120Z AUTO 20011KT 9999 -RA BKN010 BKN014 14/12 Q1014,0,11,0,10000,0,0,0,-RA
2026-04-15 10:50:00,METAR EGGW 151050Z AUTO 17009KT 140V210 9999 OVC010 14/12 Q1014,0,9,0,10000,0,0,0,
2026-04-15 10:20:00,METAR EGGW 151020Z AUTO 17010KT 140V200 9999 OVC010 14/11 Q1014,0,10,0,10000,0,0,0,
2026-04-15 09:50:00,METAR EGGW 150950Z AUTO 19012KT 150V220 9999 BKN009 14/11 Q1014,0,12,0,10000,0,0,0,
2026-04-15 09:20:00,METAR EGGW 150920Z AUTO 19009KT 150V220 9999 BKN009 13/11 Q1014,0,9,0,10000,0,0,0,
2026-04-15 08:50:00,METAR EGGW 150850Z AUTO 19009KT 150V220 9999 OVC007 13/11 Q1015,0,9,0,10000,0,0,0,
2026-04-15 08:20:00,METAR EGGW 150820Z AUTO 17009KT 9999 BKN007 OVC011 13/11 Q1015,0,9,0,10000,0,0,0,
2026-04-15 07:50:00,METAR EGGW 150750Z AUTO 18008KT 140V200 8000 BKN006 OVC009 12/11 Q1015,0,8,0,8000,0,0,0,
2026-04-15 07:20:00,METAR EGGW 150720Z AUTO 19009KT 7000 BKN005 OVC008 12/11 Q1015,0,9,0,7000,0,0,0,
2026-04-15 06:50:00,METAR EGGW 150650Z AUTO 20008KT 160V220 9000 BKN005 12/11 Q1015,0,8,0,9000,0,0,0,
2026-04-15 06:20:00,METAR EGGW 150620Z AUTO 20009KT 170V230 4200 BR OVC004 12/11 Q1015,0,9,0,4200,0,0,1,BR
2026-04-15 05:50:00,METAR EGGW 150550Z AUTO 18009KT 150V220 9000 OVC004 12/11 Q1015,0,9,0,9000,0,0,0,
2026-04-15 05:20:00,METAR EGGW 150520Z AUTO 16008KT 140V200 7000 OVC003 11/11 Q1015,0,8,0,7000,0,0,0,
2026-04-15 04:50:00,METAR EGGW 150450Z AUTO 16008KT 140V200 6000 OVC005 11/11 Q1015,0,8,0,6000,0,0,0,
2026-04-15 04:20:00,METAR EGGW 150420Z AUTO 17008KT 140V200 8000 BKN006 12/11 Q1015,0,8,0,8000,0,0,0,
2026-04-15 03:50:00,METAR EGGW 150350Z AUTO 17007KT 140V210 9000 OVC006 12/10 Q1015,0,7,0,9000,0,0,0,
2026-04-15 03:20:00,METAR EGGW 150320Z AUTO 17010KT 130V190 9000 BKN007 12/10 Q1015,0,10,0,9000,0,0,0,
2026-04-15 02:50:00,METAR EGGW 150250Z AUTO 18007KT 9999 OVC008 12/10 Q1015,0,7,0,10000,0,0,0,
2026-04-15 02:20:00,METAR EGGW 150220Z AUTO 18008KT 9999 OVC009 12/10 Q1016,0,8,0,10000,0,0,0,
2026-04-15 01:50:00,METAR EGGW 150150Z AUTO 18008KT 150V210 9999 OVC010 12/10 Q1016,0,8,0,10000,0,0,0,
2026-04-15 01:20:00,METAR EGGW 150120Z AUTO 17008KT 150V220 9999 OVC011 12/10 Q1016,0,8,0,10000,0,0,0,
2026-04-15 00:50:00,METAR EGGW 150050Z AUTO 17008KT 9999 OVC011 11/10 Q1016,0,8,0,10000,0,0,0,
2026-04-15 00:20:00,METAR EGGW 150020Z AUTO 17007KT 150V210 9999 OVC010 11/10 Q1016,0,7,0,10000,0,0,0,
2026-04-14 23:50:00,METAR EGGW 142350Z AUTO 17008KT 140V200 9999 OVC010 11/10 Q1017,0,8,0,10000,0,0,0,
2026-04-14 23:20:00,METAR EGGW 142320Z AUTO 17009KT 140V210 9999 OVC012 11/09 Q1017,0,9,0,10000,0,0,0,
2026-04-14 22:50:00,METAR EGGW 142250Z AUTO 18009KT 150V210 9000 SCT015 BKN021 OVC030 12/08 Q1017,0,9,0,9000,0,0,0,
2026-04-14 22:20:00,METAR EGGW 142220Z AUTO 18006KT 9999 BKN016 11/08 Q1017,0,6,0,10000,0,0,0,
2026-04-14 21:50:00,METAR EGGW 142150Z AUTO 17008KT 140V200 8000 OVC016 12/08 Q1017,0,8,0,8000,0,0,0,
2026-04-14 21:20:00,METAR EGGW 142120Z AUTO 17008KT 9999 OVC017 12/08 Q1017,0,8,0,10000,0,0,0,
2026-04-14 20:50:00,METAR EGGW 142050Z AUTO 17009KT 9999 OVC018 12/08 Q1017,0,9,0,10000,0,0,0,
2026-04-14 20:20:00,METAR EGGW 142020Z AUTO 17009KT 130V200 9999 OVC020 12/08 Q1017,0,9,0,10000,0,0,0,
2026-04-14 19:50:00,METAR EGGW 141950Z AUTO 18010KT 140V220 9999 OVC021 12/07 Q1017,0,10,0,10000,0,0,0,
2026-04-14 19:20:00,METAR EGGW 141920Z AUTO 17008KT 150V210 9999 BKN024 OVC028 12/07 Q1017,0,8,0,10000,0,0,0,
2026-04-14 18:50:00,METAR EGGW 141850Z AUTO 17010KT 9999 OVC023 12/07 Q1017,0,10,0,10000,0,0,0,
2026-04-14 18:20:00,METAR EGGW 141820Z AUTO 18009KT 140V220 9999 OVC023 12/07 Q1017,0,9,0,10000,0,0,0,
2026-04-14 17:50:00,METAR EGGW 141750Z AUTO 18010KT 140V220 9999 OVC024 12/07 Q1017,0,10,0,10000,0,0,0,
2026-04-14 17:20:00,METAR EGGW 141720Z AUTO 18012KT 160V220 9999 OVC024 12/07 Q1017,0,12,0,10000,0,0,0,
2026-04-14 16:50:00,METAR EGGW 141650Z AUTO 20011KT 170V240 9999 BKN027 OVC031 13/07 Q1017,0,11,0,10000,0,0,0,
2026-04-14 16:20:00,METAR EGGW 141620Z AUTO 19012KT 150V220 9999 OVC033 14/06 Q1017,0,12,0,10000,0,0,0,
2026-04-14 15:50:00,METAR EGGW 141550Z AUTO 17011KT 9999 BKN033 14/05 Q1016,0,11,0,10000,0,0,0,
2026-04-14 15:20:00,METAR EGGW 141520Z AUTO 18011KT 150V220 9999 OVC038 15/04 Q1016,0,11,0,10000,0,0,0,
2026-04-14 14:50:00,METAR EGGW 141450Z AUTO 18011G21KT 140V220 9999 BKN041 15/04 Q1016,0,11,1,10000,0,0,0,
2026-04-14 14:20:00,METAR EGGW 141420Z AUTO 18010KT 150V220 9999 NCD 15/04 Q1017,0,10,0,10000,0,0,0,
2026-04-14 13:50:00,METAR EGGW 141350Z AUTO 18012KT 150V210 9999 NCD 14/04 Q1017,0,12,0,10000,0,0,0,
2026-04-14 13:20:00,METAR EGGW 141320Z AUTO 19011G21KT 160V220 9999 FEW043 15/05 Q1017,0,11,1,10000,0,0,0,
2026-04-14 12:50:00,METAR EGGW 141250Z AUTO 19013KT 9999 FEW045 15/04 Q1017,0,13,0,10000,0,0,0,
2026-04-14 12:20:00,METAR EGGW 141220Z AUTO 17010KT 140V210 9999 FEW045 15/05 Q1017,0,10,0,10000,0,0,0,
2026-04-14 11:50:00,METAR EGGW 141150Z AUTO 17011KT 140V210 9999 FEW039 15/05 Q1017,0,11,0,10000,0,0,0,
2026-04-14 11:20:00,METAR EGGW 141120Z AUTO 18012KT 150V210 9999 FEW039 14/05 Q1017,0,12,0,10000,0,0,0,
2026-04-14 10:50:00,METAR EGGW 141050Z AUTO 17010KT 150V210 9999 NCD 14/04 Q1017,0,10,0,10000,0,0,0,
2026-04-14 10:20:00,METAR EGGW 141020Z AUTO 19010KT 160V220 9999 SCT033 13/05 Q1017,0,10,0,10000,0,0,0,
2026-04-14 09:50:00,METAR EGGW 140950Z AUTO 18010KT 150V220 9999 FEW031 12/05 Q1017,0,10,0,10000,0,0,0,
2026-04-14 09:20:00,METAR EGGW 140920Z AUTO 16009KT 130V210 9999 NCD 12/05 Q1017,0,9,0,10000,0,0,0,
2026-04-14 08:50:00,METAR EGGW 140850Z AUTO 17008KT 130V210 9999 NCD 11/06 Q1017,0,8,0,10000,0,0,0,
2026-04-14 08:20:00,METAR EGGW 140820Z AUTO 15007KT 120V190 9999 NCD 10/06 Q1017,0,7,0,10000,0,0,0,
2026-04-14 07:50:00,METAR EGGW 140750Z AUTO 16006KT 140V200 9999 NCD 08/06 Q1017,0,6,0,10000,0,0,0,
2026-04-14 07:20:00,METAR EGGW 140720Z AUTO 16007KT 9999 NCD 07/05 Q1017,0,7,0,10000,0,0,0,
2026-04-14 06:50:00,METAR EGGW 140650Z AUTO 16005KT 9999 NCD 06/05 Q1017,0,5,0,10000,0,0,0,
2026-04-14 06:20:00,METAR EGGW 140620Z AUTO 17004KT 8000 NCD 04/04 Q1017,0,4,0,8000,0,0,0,
2026-04-14 05:50:00,METAR EGGW 140550Z AUTO 18004KT 7000 NCD 03/02 Q1016,0,4,0,7000,0,0,0,
2026-04-14 05:20:00,METAR EGGW 140520Z AUTO 17003KT 3800 BR NCD 02/02 Q1016,0,3,0,3800,0,0,1,BR
2026-04-14 04:50:00,METAR EGGW 140450Z AUTO 18004KT 5000 BR NCD 02/02 Q1016,0,4,0,5000,0,0,1,BR
2026-04-14 04:20:00,METAR EGGW 140420Z AUTO 20003KT 9000 NCD 02/02 Q1016,0,3,0,9000,0,0,0,
2026-04-14 03:50:00,METAR EGGW 140350Z AUTO 19004KT 8000 NCD 03/02 Q1016,0,4,0,8000,0,0,0,
2026-04-14 03:20:00,METAR EGGW 140320Z AUTO 18003KT 9000 NCD 03/02 Q1016,0,3,0,9000,0,0,0,
2026-04-14 02:50:00,METAR EGGW 140250Z AUTO 21004KT 9999 NCD 03/02 Q1015,0,4,0,10000,0,0,0,
2026-04-14 02:20:00,METAR EGGW 140220Z AUTO 21005KT 9999 NCD 03/02 Q1015,0,5,0,10000,0,0,0,
2026-04-14 01:50:00,METAR EGGW 140150Z AUTO 21005KT 9999 NCD 04/02 Q1015,0,5,0,10000,0,0,0,
2026-04-14 01:20:00,METAR EGGW 140120Z AUTO 21006KT 9999 NCD 04/02 Q1015,0,6,0,10000,0,0,0,
2026-04-14 00:50:00,METAR EGGW 140050Z AUTO 21006KT 9999 NCD 04/03 Q1015,0,6,0,10000,0,0,0,
2026-04-14 00:20:00,METAR EGGW 140020Z AUTO 21006KT 9999 NCD 04/02 Q1015,0,6,0,10000,0,0,0,
2026-04-13 23:50:00,METAR EGGW 132350Z AUTO 20005KT 9999 NCD 04/03 Q1015,0,5,0,10000,0,0,0,
2026-04-13 23:20:00,METAR EGGW 132320Z AUTO 21006KT 9999 NCD 05/03 Q1015,0,6,0,10000,0,0,0,
2026-04-13 22:50:00,METAR EGGW 132250Z AUTO 19004KT 9999 NCD 05/03 Q1015,0,4,0,10000,0,0,0,
2026-04-13 22:20:00,METAR EGGW 132220Z AUTO 17003KT 9999 NCD 06/04 Q1015,0,3,0,10000,0,0,0,
2026-04-13 21:50:00,METAR EGGW 132150Z AUTO 18005KT 9999 NCD 06/04 Q1015,0,5,0,10000,0,0,0,
2026-04-13 21:20:00,METAR EGGW 132120Z AUTO 17003KT 9999 NCD 06/04 Q1015,0,3,0,10000,0,0,0,
2026-04-13 20:50:00,METAR EGGW 132050Z AUTO 15006KT 9999 NCD 07/04 Q1014,0,6,0,10000,0,0,0,
2026-04-13 20:20:00,METAR EGGW 132020Z AUTO 15004KT 9999 NCD 07/03 Q1014,0,4,0,10000,0,0,0,
2026-04-13 19:50:00,METAR EGGW 131950Z AUTO 20004KT 9999 NCD 07/03 Q1014,0,4,0,10000,0,0,0,
2026-04-13 19:20:00,METAR EGGW 131920Z AUTO 18003KT 9999 NCD 08/03 Q1014,0,3,0,10000,0,0,0,
2026-04-13 18:50:00,METAR EGGW 131850Z AUTO 19003KT 160V220 9999 NCD 09/04 Q1013,0,3,0,10000,0,0,0,
2026-04-13 18:20:00,METAR EGGW 131820Z AUTO 21003KT 160V240 9999 NCD 10/04 Q1013,0,3,0,10000,0,0,0,
2026-04-13 17:50:00,METAR EGGW 131750Z AUTO 25006KT 9999 NCD 10/04 Q1013,0,6,0,10000,0,0,0,
2026-04-13 17:20:00,METAR EGGW 131720Z AUTO 25005KT 9999 NCD 10/04 Q1013,0,5,0,10000,0,0,0,
2026-04-13 16:50:00,METAR EGGW 131650Z AUTO 25006KT 9999 NCD 10/04 Q1013,0,6,0,10000,0,0,0,
2026-04-13 16:20:00,METAR EGGW 131620Z AUTO 28006KT 230V320 9999 NCD 11/04 Q1013,0,6,0,10000,0,0,0,
2026-04-13 15:50:00,METAR EGGW 131550Z AUTO 26011KT 9999 FEW039 12/05 Q1013,0,11,0,10000,0,0,0,
2026-04-13 15:20:00,METAR EGGW 131520Z AUTO 23010KT 200V270 9999 FEW040 11/02 Q1013,0,10,0,10000,0,0,0,
2026-04-13 14:50:00,METAR EGGW 131450Z AUTO 23007KT 180V270 9999 NCD 12/02 Q1013,0,7,0,10000,0,0,0,
2026-04-13 14:20:00,METAR EGGW 131420Z AUTO 21008KT 170V230 9999 //////CB 10/02 Q1013,0,8,0,10000,0,0,0,
2026-04-13 13:50:00,METAR EGGW 131350Z AUTO VRB03KT 9999 FEW042/// //////TCU 10/03 Q1013,0,3,0,10000,0,0,0,
2026-04-13 13:20:00,METAR EGGW 131320Z AUTO 17007KT 140V210 9999 FEW041 SCT049 10/03 Q1013,0,7,0,10000,0,0,0,
2026-04-13 12:50:00,METAR EGGW 131250Z AUTO 22005KT 180V250 9999 //////TCU 11/02 Q1013,0,5,0,10000,0,0,0,
2026-04-13 12:20:00,METAR EGGW 131220Z AUTO 17004KT 130V220 9999 NCD 11/01 Q1013,0,4,0,10000,0,0,0,
2026-04-13 11:50:00,METAR EGGW 131150Z AUTO 20006KT 150V270 9999 FEW042 12/02 Q1012,0,6,0,10000,0,0,0,
2026-04-13 11:20:00,METAR EGGW 131120Z AUTO VRB04KT 9999 SCT036 12/02 Q1012,0,4,0,10000,0,0,0,
2026-04-13 10:50:00,METAR EGGW 131050Z AUTO 17003KT 120V230 9999 FEW033 11/03 Q1013,0,3,0,10000,0,0,0,
2026-04-13 10:20:00,METAR EGGW 131020Z AUTO 14005KT 040V180 9999 FEW033 11/04 Q1013,0,5,0,10000,0,0,0,
2026-04-13 09:50:00,METAR EGGW 130950Z AUTO 17004KT 140V200 9999 FEW024 10/04 Q1013,0,4,0,10000,0,0,0,
2026-04-13 09:20:00,METAR EGGW 130920Z AUTO 20003KT 150V270 9999 FEW025 09/02 Q1013,0,3,0,10000,0,0,0,
2026-04-13 08:50:00,METAR EGGW 130850Z AUTO VRB02KT 9999 NCD 10/04 Q1013,0,2,0,10000,0,0,0,
2026-04-13 08:20:00,METAR EGGW 130820Z AUTO 18003KT 140V240 9999 NCD 09/04 Q1013,0,3,0,10000,0,0,0,
2026-04-13 07:50:00,METAR EGGW 130750Z AUTO VRB02KT 9999 NCD 08/05 Q1013,0,2,0,10000,0,0,0,
2026-04-13 07:20:00,METAR EGGW 130720Z AUTO VRB02KT 9999 NCD 07/05 Q1013,0,2,0,10000,0,0,0,
2026-04-13 06:50:00,METAR EGGW 130650Z AUTO VRB02KT 9999 NCD 05/05 Q1013,0,2,0,10000,0,0,0,
2026-04-13 06:20:00,METAR EGGW 130620Z AUTO 26003KT 230V290 9999 NCD 03/03 Q1013,0,3,0,10000,0,0,0,
2026-04-13 05:50:00,METAR EGGW 130550Z AUTO 22003KT 5000 BR NCD 02/02 Q1013,0,3,0,5000,0,0,1,BR
2026-04-13 05:20:00,METAR EGGW 130520Z 22004KT 1500 BCFG NSC 03/02 Q1012,0,4,0,1500,0,0,1,"BC,FG"
2026-04-13 04:50:00,METAR EGGW 130450Z AUTO 24004KT 9000 NCD 02/02 Q1012,0,4,0,9000,0,0,0,
2026-04-13 04:20:00,METAR EGGW 130420Z AUTO 20004KT 9000 NCD 03/03 Q1012,0,4,0,9000,0,0,0,
2026-04-13 03:50:00,METAR EGGW 130350Z AUTO 22004KT 9999 NCD 03/02 Q1012,0,4,0,10000,0,0,0,
2026-04-13 03:20:00,METAR EGGW 130320Z AUTO 22004KT 9999 NCD 03/03 Q1012,0,4,0,10000,0,0,0,
2026-04-13 02:50:00,METAR EGGW 130250Z AUTO 21005KT 9999 NCD 03/03 Q1012,0,5,0,10000,0,0,0,
2026-04-13 02:20:00,METAR EGGW 130220Z AUTO 22004KT 9000 NCD 03/03 Q1012,0,4,0,9000,0,0,0,
2026-04-13 01:50:00,METAR EGGW 130150Z AUTO 19004KT 9999 NCD 04/03 Q1012,0,4,0,10000,0,0,0,
2026-04-13 01:20:00,METAR EGGW 130120Z AUTO 21005KT 9999 NCD 04/03 Q1012,0,5,0,10000,0,0,0,
2026-04-13 00:50:00,METAR EGGW 130050Z AUTO 20005KT 9999 NCD 04/03 Q1012,0,5,0,10000,0,0,0,
2026-04-13 00:20:00,METAR EGGW 130020Z AUTO 21005KT 9999 NCD 03/03 Q1012,0,5,0,10000,0,0,0,
2026-04-12 23:50:00,METAR EGGW 122350Z AUTO 19005KT 9999 NCD 04/03 Q1012,0,5,0,10000,0,0,0,
2026-04-12 23:20:00,METAR EGGW 122320Z AUTO 18005KT 9999 NCD 04/03 Q1012,0,5,0,10000,0,0,0,
2026-04-12 22:50:00,METAR EGGW 122250Z AUTO 21006KT 9999 NCD 05/03 Q1012,0,6,0,10000,0,0,0,
2026-04-12 22:20:00,METAR EGGW 122220Z AUTO 22005KT 9999 NCD 05/03 Q1012,0,5,0,10000,0,0,0,
2026-04-12 21:50:00,METAR EGGW 122150Z AUTO 20005KT 9999 NCD 05/03 Q1012,0,5,0,10000,0,0,0,
2026-04-12 21:20:00,METAR EGGW 122120Z AUTO 20005KT 9999 NCD 06/03 Q1012,0,5,0,10000,0,0,0,
2026-04-12 20:50:00,METAR EGGW 122050Z AUTO 19005KT 150V220 9999 -RA FEW048 07/04 Q1012,0,5,0,10000,0,0,0,-RA
2026-04-12 20:20:00,METAR EGGW 122020Z AUTO 21007KT 170V230 9999 FEW040 07/05 Q1012,0,7,0,10000,0,0,0,
2026-04-12 19:50:00,METAR EGGW 121950Z AUTO 18005KT 160V220 9999 FEW037 08/06 Q1012,0,5,0,10000,0,0,0,
2026-04-12 19:20:00,METAR EGGW 121920Z AUTO 19005KT 150V220 9999 SCT034 08/06 Q1011,0,5,0,10000,0,0,0,
2026-04-12 18:50:00,METAR EGGW 121850Z AUTO 19005KT 9999 //////TCU 09/06 Q1011,0,5,0,10000,0,0,0,
2026-04-12 18:20:00,METAR EGGW 121820Z AUTO 19006KT 130V220 9999 SCT037/// BKN045/// //////TCU 09/05 Q1011,0,6,0,10000,0,0,0,
2026-04-12 17:50:00,METAR EGGW 121750Z AUTO 20006KT 170V230 9999 SCT036 BKN045 10/05 Q1011,0,6,0,10000,0,0,0,
2026-04-12 17:20:00,METAR EGGW 121720Z AUTO 17006KT 9999 BKN037 BKN045 09/04 Q1010,0,6,0,10000,0,0,0,
2026-04-12 16:50:00,METAR EGGW 121650Z AUTO 17008KT 140V200 9999 SCT039/// BKN047/// //////CB 10/04 Q1010,0,8,0,10000,0,0,0,
2026-04-12 16:20:00,METAR EGGW 121620Z AUTO 24009KT 9999 -RA //////CB 11/04 Q1010,0,9,0,10000,0,0,0,-RA
2026-04-12 15:50:00,METAR EGGW 121550Z AUTO 28015KT 9999 //////CB 10/04 Q1010,0,15,0,10000,0,0,0,
2026-04-12 14:50:00,METAR EGGW 121450Z AUTO 25015KT 9999 SCT048 12/02 Q1009,0,15,0,10000,0,0,0,
2026-04-12 14:20:00,METAR EGGW 121420Z AUTO 23017KT 9999 FEW049/// //////CB 13/01 Q1009,0,17,0,10000,0,0,0,
2026-04-12 13:50:00,METAR EGGW 121350Z COR 24018KT 210V270 9999 FEW046CB 13/03 Q1009,0,18,0,10000,0,0,0,
2026-04-12 13:20:00,METAR EGGW 121320Z AUTO 25016KT 210V270 9999 -RA FEW041/// //////CB 13/05 Q1009,0,16,0,10000,0,0,0,-RA
2026-04-12 12:50:00,METAR EGGW 121250Z AUTO 24021G31KT 9999 SCT042 11/03 Q1009,0,21,1,10000,0,0,0,
2026-04-12 12:20:00,METAR EGGW 121220Z AUTO 22012KT 180V260 9999 SCT040 SCT048 13/05 Q1009,0,12,0,10000,0,0,0,
2026-04-12 11:50:00,METAR EGGW 121150Z AUTO 23010KT 9999 FEW037 11/05 Q1009,0,10,0,10000,0,0,0,
2026-04-12 11:20:00,METAR EGGW 121120Z AUTO 22016KT 9999 -RA FEW027 SCT039 11/05 Q1009,0,16,0,10000,0,0,0,-RA
2026-04-12 10:50:00,METAR EGGW 121050Z AUTO 22016KT 9999 FEW037 11/03 Q1009,0,16,0,10000,0,0,0,
2026-04-12 10:20:00,METAR EGGW 121020Z AUTO 22015KT 9999 FEW036 BKN046 11/03 Q1009,0,15,0,10000,0,0,0,
2026-04-12 09:50:00,METAR EGGW 120950Z AUTO 22015KT 9999 BKN039 11/03 Q1009,0,15,0,10000,0,0,0,
2026-04-12 09:20:00,METAR EGGW 120920Z AUTO 22013KT 9999 SCT031 11/04 Q1009,0,13,0,10000,0,0,0,
2026-04-12 08:50:00,METAR EGGW 120850Z AUTO 22016KT 170V240 9999 FEW028 10/03 Q1009,0,16,0,10000,0,0,0,
2026-04-12 08:20:00,METAR EGGW 120820Z AUTO 21013G24KT 170V240 9999 FEW025 SCT031 10/04 Q1009,0,13,1,10000,0,0,0,
2026-04-12 07:50:00,METAR EGGW 120750Z 21013KT 180V240 9999 FEW022 09/04 Q1009,0,13,0,10000,0,0,0,
2026-04-12 07:20:00,METAR EGGW 120720Z AUTO 21011KT 170V230 9999 FEW022 09/04 Q1009,0,11,0,10000,0,0,0,
2026-04-12 06:50:00,METAR EGGW 120650Z AUTO 21012KT 170V230 9999 NCD 08/04 Q1008,0,12,0,10000,0,0,0,
2026-04-12 06:20:00,METAR EGGW 120620Z 21011KT 170V230 CAVOK 07/04 Q1008,1,0,0,9999,0,0,0,
2026-04-12 05:50:00,METAR EGGW 120550Z COR 20007KT 140V230 CAVOK 07/04 Q1008,1,0,0,9999,0,0,0,
2026-04-12 05:20:00,METAR EGGW 120520Z AUTO 21009KT 160V230 9999 BKN024 06/04 Q1008,0,9,0,10000,0,0,0,
2026-04-12 04:50:00,METAR EGGW 120450Z AUTO 20011KT 9999 BKN030 06/04 Q1007,0,11,0,10000,0,0,0,
2026-04-12 04:20:00,METAR EGGW 120420Z AUTO 21012KT 180V240 9999 OVC032 07/04 Q1007,0,12,0,10000,0,0,0,
2026-04-12 03:50:00,METAR EGGW 120350Z AUTO 21012KT 9999 FEW034 06/04 Q1007,0,12,0,10000,0,0,0,
2026-04-12 03:20:00,METAR EGGW 120320Z AUTO 21013KT 9999 FEW023 SCT029 06/03 Q1007,0,13,0,10000,0,0,0,
2026-04-12 02:50:00,METAR EGGW 120250Z AUTO 21013KT 9999 SCT037 07/03 Q1007,0,13,0,10000,0,0,0,
2026-04-12 02:20:00,METAR EGGW 120220Z AUTO 21013KT 9999 NCD 07/03 Q1007,0,13,0,10000,0,0,0,
2026-04-12 01:50:00,METAR EGGW 120150Z AUTO 22015G26KT 9999 NCD 07/03 Q1007,0,15,1,10000,0,0,0,
2026-04-12 01:20:00,METAR EGGW 120120Z AUTO 21019G30KT 180V240 9999 NCD 07/03 Q1006,0,19,1,10000,0,0,0,
2026-04-12 00:50:00,METAR EGGW 120050Z AUTO 22017G31KT 9999 NCD 07/03 Q1007,0,17,1,10000,0,0,0,
2026-04-12 00:20:00,METAR EGGW 120020Z AUTO 22018G28KT 9999 NCD 07/03 Q1007,0,18,1,10000,0,0,0,
2026-04-11 23:50:00,METAR EGGW 112350Z AUTO 21015KT 9999 FEW026 07/03 Q1007,0,15,0,10000,0,0,0,
2026-04-11 23:20:00,METAR EGGW 112320Z AUTO 21017KT 9999 NCD 07/03 Q1007,0,17,0,10000,0,0,0,
2026-04-11 22:50:00,METAR EGGW 112250Z AUTO 20015KT 160V230 9999 NCD 07/03 Q1007,0,15,0,10000,0,0,0,
2026-04-11 22:20:00,METAR EGGW 112220Z AUTO 20014KT 9999 NCD 07/03 Q1006,0,14,0,10000,0,0,0,
2026-04-11 21:50:00,METAR EGGW 112150Z AUTO 20014KT 9999 NCD 07/03 Q1007,0,14,0,10000,0,0,0,
2026-04-11 21:20:00,METAR EGGW 112120Z AUTO 20012G22KT 9999 FEW032 07/02 Q1007,0,12,1,10000,0,0,0,
2026-04-11 20:50:00,METAR EGGW 112050Z AUTO 20013KT 9999 NCD 07/01 Q1007,0,13,0,10000,0,0,0,
2026-04-11 20:20:00,METAR EGGW 112020Z AUTO 20013KT 9999 NCD 07/01 Q1007,0,13,0,10000,0,0,0,
2026-04-11 19:50:00,METAR EGGW 111950Z AUTO 21012KT 9999 NCD 08/M01 Q1007,0,12,0,10000,0,0,0,
2026-04-11 19:20:00,METAR EGGW 111920Z AUTO 21011KT 9999 NCD 08/M01 Q1007,0,11,0,10000,0,0,0,
2026-04-11 18:50:00,METAR EGGW 111850Z AUTO 21014G24KT 9999 NCD 08/M01 Q1007,0,14,1,10000,0,0,0,
2026-04-11 18:20:00,METAR EGGW 111820Z AUTO 21015KT 9999 NCD 09/M02 Q1006,0,15,0,10000,0,0,0,
2026-04-11 17:50:00,METAR EGGW 111750Z AUTO 21015KT 9999 NCD 09/M02 Q1006,0,15,0,10000,0,0,0,
2026-04-11 17:20:00,METAR EGGW 111720Z AUTO 21012KT 170V230 9999 NCD 09/M01 Q1006,0,12,0,10000,0,0,0,
2026-04-11 16:50:00,METAR EGGW 111650Z AUTO 22015G25KT 190V250 9999 NCD 09/M02 Q1006,0,15,1,10000,0,0,0,
2026-04-11 16:20:00,METAR EGGW 111620Z AUTO 24021KT 9999 //////TCU 09/M01 Q1006,0,21,0,10000,0,0,0,
2026-04-11 15:50:00,METAR EGGW 111550Z AUTO 23025G38KT 9999 -RA FEW040/// //////TCU 08/01 Q1006,0,25,1,10000,0,0,0,-RA
2026-04-11 15:20:00,METAR EGGW 111520Z AUTO 25013KT 9999 NCD 10/00 Q1006,0,13,0,10000,0,0,0,
2026-04-11 14:50:00,METAR EGGW 111450Z AUTO 26016KT 9999 NCD 08/M00 Q1006,0,16,0,10000,0,0,0,
2026-04-11 14:20:00,METAR EGGW 111420Z AUTO 21019KT 9999 NCD 10/M01 Q1006,0,19,0,10000,0,0,0,
2026-04-11 13:50:00,METAR EGGW 111350Z AUTO 24021G32KT 9999 NCD 12/M03 Q1005,0,21,1,10000,0,0,0,
2026-04-11 13:20:00,METAR EGGW 111320Z AUTO 24019KT 9999 NCD 11/M02 Q1005,0,19,0,10000,0,0,0,
2026-04-11 12:50:00,METAR EGGW 111250Z AUTO 24022KT 9999 NCD 11/M03 Q1005,0,22,0,10000,0,0,0,
2026-04-11 12:20:00,METAR EGGW 111220Z AUTO 25017KT 9999 FEW047 11/00 Q1005,0,17,0,10000,0,0,0,
2026-04-11 11:50:00,METAR EGGW 111150Z AUTO 27019KT 9999 FEW035 10/00 Q1005,0,19,0,10000,0,0,0,
2026-04-11 11:20:00,METAR EGGW 111120Z AUTO 25018KT 9999 SCT029 BKN034 09/02 Q1005,0,18,0,10000,0,0,0,
2026-04-11 10:50:00,METAR EGGW 111050Z AUTO 25015KT 9999 FEW025 08/03 Q1004,0,15,0,10000,0,0,0,
2026-04-11 10:20:00,METAR EGGW 111020Z AUTO 27018KT 9999 NCD 07/03 Q1004,0,18,0,10000,0,0,0,
2026-04-11 09:50:00,METAR EGGW 110950Z AUTO 27014KT 9999 NCD 07/03 Q1003,0,14,0,10000,0,0,0,
2026-04-11 09:20:00,METAR EGGW 110920Z AUTO 27015KT 9999 FEW009 OVC044 07/04 Q1003,0,15,0,10000,0,0,0,
2026-04-11 08:50:00,METAR EGGW 110850Z COR 26018KT 5000 -RA BKN008 BKN016 OVC035 06/05 Q1003,0,18,0,5000,0,0,0,-RA
2026-04-11 08:20:00,METAR EGGW 110820Z AUTO 27016KT 4000 -DZ BKN007 BKN014 OVC021 07/06 Q1003,0,16,0,4000,0,0,0,DZ
2026-04-11 07:50:00,METAR EGGW 110750Z AUTO 20008KT 170V230 9999 OVC016 10/06 Q1002,0,8,0,10000,0,0,0,
2026-04-11 07:20:00,METAR EGGW 110720Z AUTO 18008KT 150V220 9999 OVC019 10/06 Q1002,0,8,0,10000,0,0,0,
2026-04-11 06:50:00,METAR EGGW 110650Z AUTO 17009KT 9999 SCT021 BKN026 OVC040 10/05 Q1002,0,9,0,10000,0,0,0,
2026-04-11 06:20:00,METAR EGGW 110620Z AUTO 17008KT 150V210 9999 OVC042 10/05 Q1002,0,8,0,10000,0,0,0,
2026-04-11 05:50:00,METAR EGGW 110550Z AUTO 16011KT 9999 BKN044 10/04 Q1002,0,11,0,10000,0,0,0,
2026-04-11 05:20:00,METAR EGGW 110520Z AUTO 17010KT 140V200 9999 BKN032 10/04 Q1002,0,10,0,10000,0,0,0,
2026-04-11 04:50:00,METAR EGGW 110450Z AUTO 16009KT 9999 BKN038 09/04 Q1002,0,9,0,10000,0,0,0,
2026-04-11 04:20:00,METAR EGGW 110420Z AUTO 15007KT 9999 SCT037 08/03 Q1003,0,7,0,10000,0,0,0,
2026-04-11 03:50:00,METAR EGGW 110350Z AUTO 14009KT 9999 NCD 08/03 Q1003,0,9,0,10000,0,0,0,
2026-04-11 03:20:00,METAR EGGW 110320Z AUTO 14009KT 9999 NCD 08/03 Q1004,0,9,0,10000,0,0,0,
2026-04-11 02:50:00,METAR EGGW 110250Z AUTO 14010KT 9999 NCD 08/03 Q1004,0,10,0,10000,0,0,0,
2026-04-11 02:20:00,METAR EGGW 110220Z AUTO 14009KT 9999 NCD 08/03 Q1005,0,9,0,10000,0,0,0,
2026-04-11 01:50:00,METAR EGGW 110150Z AUTO 14010KT 9999 NCD 07/03 Q1006,0,10,0,10000,0,0,0,
2026-04-11 01:20:00,METAR EGGW 110120Z AUTO 14012KT 9999 NCD 07/03 Q1006,0,12,0,10000,0,0,0,
2026-04-11 00:50:00,METAR EGGW 110050Z AUTO 14012KT 9999 NCD 07/03 Q1007,0,12,0,10000,0,0,0,
2026-04-11 00:20:00,METAR EGGW 110020Z AUTO 14013KT 9999 NCD 07/02 Q1008,0,13,0,10000,0,0,0,
2026-04-10 23:50:00,METAR EGGW 102350Z AUTO 14013KT 9999 NCD 07/01 Q1008,0,13,0,10000,0,0,0,
2026-04-10 23:20:00,METAR EGGW 102320Z AUTO 15010KT 9999 NCD 07/00 Q1009,0,10,0,10000,0,0,0,
2026-04-10 22:50:00,METAR EGGW 102250Z AUTO 14009KT 9999 NCD 07/M01 Q1009,0,9,0,10000,0,0,0,
2026-04-10 22:20:00,METAR EGGW 102220Z AUTO 15010KT 9999 NCD 07/M02 Q1010,0,10,0,10000,0,0,0,
2026-04-10 21:50:00,METAR EGGW 102150Z AUTO 16008KT 9999 NCD 08/M02 Q1011,0,8,0,10000,0,0,0,
2026-04-10 21:20:00,METAR EGGW 102120Z AUTO 16010KT 9999 NCD 08/M03 Q1011,0,10,0,10000,0,0,0,
2026-04-10 20:50:00,METAR EGGW 102050Z AUTO 17009KT 140V200 9999 NCD 08/M03 Q1011,0,9,0,10000,0,0,0,
2026-04-10 20:20:00,METAR EGGW 102020Z AUTO 17007KT 140V210 9999 NCD 08/M02 Q1012,0,7,0,10000,0,0,0,
2026-04-10 19:50:00,METAR EGGW 101950Z AUTO 16006KT 9999 NCD 08/M01 Q1012,0,6,0,10000,0,0,0,
2026-04-10 19:20:00,METAR EGGW 101920Z AUTO 16007KT 130V190 9999 NCD 09/M01 Q1012,0,7,0,10000,0,0,0,
2026-04-10 18:50:00,METAR EGGW 101850Z AUTO 16009KT 9999 NCD 09/M00 Q1012,0,9,0,10000,0,0,0,
2026-04-10 18:20:00,METAR EGGW 101820Z AUTO 16008KT 9999 NCD 09/M01 Q1012,0,8,0,10000,0,0,0,
2026-04-10 17:50:00,METAR EGGW 101750Z AUTO 17007KT 9999 NCD 10/M01 Q1013,0,7,0,10000,0,0,0,
2026-04-10 17:20:00,METAR EGGW 101720Z AUTO 16008KT 9999 NCD 10/M02 Q1013,0,8,0,10000,0,0,0,
2026-04-10 16:50:00,METAR EGGW 101650Z AUTO 19007KT 150V220 9999 NCD 10/M01 Q1014,0,7,0,10000,0,0,0,
2026-04-10 16:20:00,METAR EGGW 101620Z AUTO 19007KT 150V220 9999 NCD 11/M01 Q1015,0,7,0,10000,0,0,0,
2026-04-10 15:50:00,METAR EGGW 101550Z AUTO 19007KT 150V220 9999 NCD 11/M01 Q1015,0,7,0,10000,0,0,0,
2026-04-10 15:20:00,METAR EGGW 101520Z AUTO 19008KT 140V220 9999 NCD 11/M01 Q1016,0,8,0,10000,0,0,0,
2026-04-10 14:50:00,METAR EGGW 101450Z AUTO 21006KT 170V250 9999 NCD 11/M01 Q1016,0,6,0,10000,0,0,0,
2026-04-10 14:20:00,METAR EGGW 101420Z AUTO 21010KT 170V240 9999 NCD 11/M01 Q1017,0,10,0,10000,0,0,0,
2026-04-10 13:50:00,METAR EGGW 101350Z AUTO 17008KT 140V220 9999 NCD 12/M00 Q1017,0,8,0,10000,0,0,0,
2026-04-10 13:20:00,METAR EGGW 101320Z AUTO 21007KT 130V250 9999 FEW049 12/00 Q1017,0,7,0,10000,0,0,0,
2026-04-10 12:50:00,METAR EGGW 101250Z AUTO 22007KT 140V260 9999 NCD 11/00 Q1018,0,7,0,10000,0,0,0,
2026-04-10 12:20:00,METAR EGGW 101220Z AUTO 23008KT 200V260 9999 NCD 10/M00 Q1018,0,8,0,10000,0,0,0,
2026-04-10 11:50:00,METAR EGGW 101150Z AUTO 20007KT 140V240 9999 SCT039 10/01 Q1019,0,7,0,10000,0,0,0,
2026-04-10 11:20:00,METAR EGGW 101120Z AUTO 23009KT 9999 NCD 09/00 Q1019,0,9,0,10000,0,0,0,
2026-04-10 10:50:00,METAR EGGW 101050Z AUTO 22007KT 170V250 9999 NCD 09/00 Q1020,0,7,0,10000,0,0,0,
2026-04-10 10:20:00,METAR EGGW 101020Z AUTO 21005KT 140V260 9999 NCD 09/01 Q1020,0,5,0,10000,0,0,0,
2026-04-10 09:50:00,METAR EGGW 100950Z AUTO 24006KT 200V280 9999 NCD 08/01 Q1020,0,6,0,10000,0,0,0,
2026-04-10 09:20:00,METAR EGGW 100920Z AUTO 24005KT 180V270 9999 NCD 08/00 Q1020,0,5,0,10000,0,0,0,
2026-04-10 08:50:00,METAR EGGW 100850Z AUTO 29006KT 260V320 9999 NCD 07/00 Q1020,0,6,0,10000,0,0,0,
2026-04-10 08:20:00,METAR EGGW 100820Z AUTO 31006KT 270V350 9999 NCD 07/01 Q1020,0,6,0,10000,0,0,0,
2026-04-10 07:50:00,METAR EGGW 100750Z AUTO 28005KT 250V320 9999 NCD 06/01 Q1020,0,5,0,10000,0,0,0,
2026-04-10 07:20:00,METAR EGGW 100720Z AUTO 28008KT 9999 NCD 06/01 Q1020,0,8,0,10000,0,0,0,
2026-04-10 06:50:00,METAR EGGW 100650Z AUTO 02008KT 330V050 9999 NCD 05/01 Q1019,0,8,0,10000,0,0,0,
2026-04-10 06:20:00,METAR EGGW 100620Z AUTO 31007KT 280V340 9999 NCD 05/01 Q1020,0,7,0,10000,0,0,0,
2026-04-10 05:50:00,METAR EGGW 100550Z AUTO 26007KT 230V290 9999 NCD 05/01 Q1020,0,7,0,10000,0,0,0,
2026-04-10 05:20:00,METAR EGGW 100520Z AUTO 29006KT 9999 NCD 05/00 Q1020,0,6,0,10000,0,0,0,
2026-04-10 04:50:00,METAR EGGW 100450Z AUTO 32006KT 9999 NCD 05/00 Q1020,0,6,0,10000,0,0,0,
2026-04-10 04:20:00,METAR EGGW 100420Z AUTO 31008KT 9999 NCD 05/00 Q1020,0,8,0,10000,0,0,0,
2026-04-10 03:50:00,METAR EGGW 100350Z AUTO 32008KT 9999 NCD 05/00 Q1020,0,8,0,10000,0,0,0,
2026-04-10 03:20:00,METAR EGGW 100320Z AUTO 30009KT 9999 NCD 05/00 Q1021,0,9,0,10000,0,0,0,
2026-04-10 02:50:00,METAR EGGW 100250Z AUTO 28012KT 9999 NCD 05/00 Q1022,0,12,0,10000,0,0,0,
2026-04-10 02:20:00,METAR EGGW 100220Z AUTO 27012KT 9999 NCD 05/00 Q1022,0,12,0,10000,0,0,0,
2026-04-10 01:50:00,METAR EGGW 100150Z AUTO 27013KT 9999 NCD 05/00 Q1022,0,13,0,10000,0,0,0,
2026-04-10 01:20:00,METAR EGGW 100120Z AUTO 27015KT 9999 NCD 05/M00 Q1022,0,15,0,10000,0,0,0,
2026-04-10 00:50:00,METAR EGGW 100050Z AUTO 26014KT 9999 NCD 05/M00 Q1022,0,14,0,10000,0,0,0,
2026-04-10 00:20:00,METAR EGGW 100020Z AUTO 26012KT 9999 NCD 05/M00 Q1022,0,12,0,10000,0,0,0,
2026-04-09 23:50:00,METAR EGGW 092350Z AUTO 25011KT 9999 NCD 05/M00 Q1021,0,11,0,10000,0,0,0,
2026-04-09 23:20:00,METAR EGGW 092320Z AUTO 25011KT 9999 NCD 05/M00 Q1021,0,11,0,10000,0,0,0,
2026-04-09 22:50:00,METAR EGGW 092250Z AUTO 27010KT 9999 NCD 05/M00 Q1020,0,10,0,10000,0,0,0,
2026-04-09 22:20:00,METAR EGGW 092220Z AUTO 25010KT 9999 NCD 05/M00 Q1020,0,10,0,10000,0,0,0,
2026-04-09 21:50:00,METAR EGGW 092150Z AUTO 29011KT 9999 NCD 06/M01 Q1019,0,11,0,10000,0,0,0,
2026-04-09 21:20:00,METAR EGGW 092120Z AUTO 30011KT 9999 NCD 07/M01 Q1019,0,11,0,10000,0,0,0,
2026-04-09 20:50:00,METAR EGGW 092050Z AUTO 30010KT 9999 NCD 07/M01 Q1019,0,10,0,10000,0,0,0,
2026-04-09 20:20:00,METAR EGGW 092020Z AUTO 30015KT 9999 NCD 08/00 Q1019,0,15,0,10000,0,0,0,
2026-04-09 19:50:00,METAR EGGW 091950Z AUTO 30013KT 9999 NCD 08/01 Q1019,0,13,0,10000,0,0,0,
2026-04-09 19:20:00,METAR EGGW 091920Z AUTO 30014KT 9999 NCD 09/02 Q1018,0,14,0,10000,0,0,0,
2026-04-09 18:50:00,METAR EGGW 091850Z 30020G30KT 9999 FEW035 10/03 Q1017,0,20,1,10000,0,0,0,
2026-04-09 18:20:00,METAR EGGW 091820Z AUTO 30020KT 9999 BKN041 11/03 Q1017,0,20,0,10000,0,0,0,
2026-04-09 17:50:00,METAR EGGW 091750Z AUTO 29018KT 9999 BKN037 12/04 Q1016,0,18,0,10000,0,0,0,
2026-04-09 17:20:00,METAR EGGW 091720Z AUTO 26014KT 9999 SCT032 SCT038 12/06 Q1016,0,14,0,10000,0,0,0,
2026-04-09 16:50:00,METAR EGGW 091650Z AUTO 27015KT 9999 BKN047 12/07 Q1015,0,15,0,10000,0,0,0,
2026-04-09 16:20:00,METAR EGGW 091620Z AUTO 27016KT 9999 FEW020 SCT026 BKN033 11/07 Q1015,0,16,0,10000,0,0,0,
2026-04-09 15:50:00,METAR EGGW 091550Z AUTO 25018KT 9999 BKN024 13/08 Q1015,0,18,0,10000,0,0,0,
2026-04-09 15:20:00,METAR EGGW 091520Z AUTO 25014KT 9999 NCD 14/07 Q1015,0,14,0,10000,0,0,0,
2026-04-09 14:50:00,METAR EGGW 091450Z AUTO 24012KT 9999 NCD 14/06 Q1015,0,12,0,10000,0,0,0,
2026-04-09 14:20:00,METAR EGGW 091420Z AUTO 26016KT 9999 NCD 14/06 Q1016,0,16,0,10000,0,0,0,
2026-04-09 13:50:00,METAR EGGW 091350Z AUTO 25016KT 9999 NCD 15/05 Q1016,0,16,0,10000,0,0,0,
2026-04-09 13:20:00,METAR EGGW 091320Z AUTO 25016KT 9999 NCD 15/04 Q1016,0,16,0,10000,0,0,0,
2026-04-09 12:50:00,METAR EGGW 091250Z AUTO 26015KT 9999 NCD 16/08 Q1016,0,15,0,10000,0,0,0,
2026-04-09 12:20:00,METAR EGGW 091220Z AUTO 23014KT 9999 NCD 17/09 Q1016,0,14,0,10000,0,0,0,
2026-04-09 11:50:00,METAR EGGW 091150Z AUTO 25014KT 9999 NCD 18/10 Q1016,0,14,0,10000,0,0,0,
2026-04-09 11:20:00,METAR EGGW 091120Z AUTO 25013KT 9999 NCD 17/11 Q1016,0,13,0,10000,0,0,0,
2026-04-09 10:50:00,METAR EGGW 091050Z AUTO 25013KT 9999 NCD 17/10 Q1017,0,13,0,10000,0,0,0,
2026-04-09 10:20:00,METAR EGGW 091020Z AUTO 26013KT 9999 NCD 17/10 Q1017,0,13,0,10000,0,0,0,
2026-04-09 09:50:00,METAR EGGW 090950Z AUTO 27011KT 9999 NCD 18/11 Q1017,0,11,0,10000,0,0,0,
2026-04-09 09:20:00,METAR EGGW 090920Z AUTO 24008KT 9999 NCD 18/11 Q1017,0,8,0,10000,0,0,0,
2026-04-09 08:50:00,METAR EGGW 090850Z AUTO 23007KT 200V260 9999 NCD 17/11 Q1017,0,7,0,10000,0,0,0,
2026-04-09 08:20:00,METAR EGGW 090820Z AUTO 21004KT 180V240 9999 NCD 15/12 Q1017,0,4,0,10000,0,0,0,
2026-04-09 07:50:00,METAR EGGW 090750Z AUTO 23007KT 9999 NCD 15/12 Q1017,0,7,0,10000,0,0,0,
2026-04-09 07:20:00,METAR EGGW 090720Z AUTO 22005KT 9999 NCD 14/11 Q1017,0,5,0,10000,0,0,0,
2026-04-09 06:50:00,METAR EGGW 090650Z AUTO 21006KT 9999 NCD 13/11 Q1017,0,6,0,10000,0,0,0,
2026-04-09 06:20:00,METAR EGGW 090620Z AUTO 20004KT 9999 NCD 12/10 Q1017,0,4,0,10000,0,0,0,
2026-04-09 05:50:00,METAR EGGW 090550Z AUTO 21003KT 9999 NCD 12/10 Q1018,0,3,0,10000,0,0,0,
2026-04-09 05:20:00,METAR EGGW 090520Z AUTO 23003KT 9999 NCD 12/10 Q1018,0,3,0,10000,0,0,0,
2026-04-09 04:50:00,METAR EGGW 090450Z AUTO 26002KT 9999 NCD 13/10 Q1018,0,2,0,10000,0,0,0,
2026-04-09 04:20:00,METAR EGGW 090420Z AUTO VRB02KT 9999 NCD 12/10 Q1018,0,2,0,10000,0,0,0,
2026-04-09 03:50:00,METAR EGGW 090350Z AUTO 29003KT 9999 NCD 13/10 Q1018,0,3,0,10000,0,0,0,
2026-04-09 03:20:00,METAR EGGW 090320Z AUTO 30005KT 9999 NCD 14/10 Q1018,0,5,0,10000,0,0,0,
2026-04-09 02:50:00,METAR EGGW 090250Z AUTO 29009KT 9999 NCD 14/10 Q1019,0,9,0,10000,0,0,0,
2026-04-09 02:20:00,METAR EGGW 090220Z AUTO 29007KT 9999 NCD 14/11 Q1019,0,7,0,10000,0,0,0,
2026-04-09 01:50:00,METAR EGGW 090150Z AUTO 28007KT 9999 NCD 13/10 Q1019,0,7,0,10000,0,0,0,
2026-04-09 01:20:00,METAR EGGW 090120Z AUTO 26009KT 9999 NCD 13/10 Q1019,0,9,0,10000,0,0,0,
2026-04-09 00:50:00,METAR EGGW 090050Z AUTO 26007KT 9999 NCD 14/10 Q1020,0,7,0,10000,0,0,0,
2026-04-09 00:20:00,METAR EGGW 090020Z AUTO 24007KT 9999 NCD 14/10 Q1020,0,7,0,10000,0,0,0,
2026-04-08 23:50:00,METAR EGGW 082350Z AUTO 25006KT 9999 NCD 14/11 Q1020,0,6,0,10000,0,0,0,
2026-04-08 23:20:00,METAR EGGW 082320Z AUTO 24005KT 9999 NCD 16/11 Q1020,0,5,0,10000,0,0,0,
2026-04-08 22:50:00,METAR EGGW 082250Z AUTO 21005KT 9999 NCD 15/12 Q1020,0,5,0,10000,0,0,0,
2026-04-08 22:20:00,METAR EGGW 082220Z AUTO 22005KT 9999 NCD 15/11 Q1020,0,5,0,10000,0,0,0,
2026-04-08 21:50:00,METAR EGGW 082150Z AUTO 21004KT 9999 NCD 16/12 Q1020,0,4,0,10000,0,0,0,
2026-04-08 21:20:00,METAR EGGW 082120Z AUTO 18005KT 9999 NCD 17/12 Q1020,0,5,0,10000,0,0,0,
2026-04-08 20:50:00,METAR EGGW 082050Z AUTO 14003KT 110V200 9999 NCD 16/12 Q1021,0,3,0,10000,0,0,0,
2026-04-08 20:20:00,METAR EGGW 082020Z AUTO 27002KT 9999 NCD 18/12 Q1021,0,2,0,10000,0,0,0,
2026-04-08 19:50:00,METAR EGGW 081950Z AUTO 27003KT 9999 NCD 17/11 Q1021,0,3,0,10000,0,0,0,
2026-04-08 19:20:00,METAR EGGW 081920Z AUTO 26003KT 9999 NCD 18/11 Q1021,0,3,0,10000,0,0,0,
2026-04-08 18:50:00,METAR EGGW 081850Z AUTO 30003KT 260V320 9999 NCD 20/12 Q1021,0,3,0,10000,0,0,0,
2026-04-08 18:20:00,METAR EGGW 081820Z AUTO 31005KT 9999 NCD 20/12 Q1021,0,5,0,10000,0,0,0,
2026-04-08 17:50:00,METAR EGGW 081750Z AUTO 31006KT 9999 NCD 21/12 Q1021,0,6,0,10000,0,0,0,
2026-04-08 17:20:00,METAR EGGW 081720Z AUTO 29007KT 9999 NCD 22/12 Q1021,0,7,0,10000,0,0,0,
2026-04-08 16:50:00,METAR EGGW 081650Z AUTO 29009KT 9999 NCD 22/13 Q1021,0,9,0,10000,0,0,0,
2026-04-08 16:20:00,METAR EGGW 081620Z AUTO 29010KT 9999 NCD 23/12 Q1021,0,10,0,10000,0,0,0,
2026-04-08 15:50:00,METAR EGGW 081550Z AUTO 23008KT 200V260 9999 NCD 23/12 Q1021,0,8,0,10000,0,0,0,
2026-04-08 15:20:00,METAR EGGW 081520Z AUTO 22006KT 150V280 9999 NCD 23/11 Q1021,0,6,0,10000,0,0,0,
2026-04-08 14:50:00,METAR EGGW 081450Z AUTO 24009KT 9999 NCD 23/11 Q1021,0,9,0,10000,0,0,0,
2026-04-08 14:20:00,METAR EGGW 081420Z AUTO 19007KT 130V230 9999 NCD 23/11 Q1021,0,7,0,10000,0,0,0,
2026-04-08 13:50:00,METAR EGGW 081350Z AUTO 21007KT 140V240 9999 NCD 23/11 Q1021,0,7,0,10000,0,0,0,
2026-04-08 13:20:00,METAR EGGW 081320Z AUTO 19007KT 130V220 9999 NCD 23/10 Q1022,0,7,0,10000,0,0,0,
2026-04-08 12:50:00,METAR EGGW 081250Z AUTO 17007KT 140V220 9999 NCD 23/11 Q1022,0,7,0,10000,0,0,0,
2026-04-08 12:20:00,METAR EGGW 081220Z AUTO 16008KT 9999 NCD 22/10 Q1022,0,8,0,10000,0,0,0,
2026-04-08 11:50:00,METAR EGGW 081150Z AUTO 19005KT 120V230 9999 NCD 21/11 Q1022,0,5,0,10000,0,0,0,
2026-04-08 11:20:00,METAR EGGW 081120Z AUTO 16007KT 130V220 9999 NCD 20/11 Q1022,0,7,0,10000,0,0,0,
2026-04-08 10:50:00,METAR EGGW 081050Z AUTO 20006KT 150V250 9999 NCD 19/10 Q1023,0,6,0,10000,0,0,0,
2026-04-08 10:20:00,METAR EGGW 081020Z AUTO 18005KT 140V230 9999 NCD 18/09 Q1023,0,5,0,10000,0,0,0,
2026-04-08 09:50:00,METAR EGGW 080950Z AUTO 17005KT 140V220 9999 NCD 17/09 Q1023,0,5,0,10000,0,0,0,
2026-04-08 09:20:00,METAR EGGW 080920Z AUTO 19003KT 110V230 9999 NCD 16/08 Q1023,0,3,0,10000,0,0,0,
2026-04-08 08:50:00,METAR EGGW 080850Z AUTO 16003KT 130V200 9999 NCD 14/08 Q1023,0,3,0,10000,0,0,0,
2026-04-08 08:20:00,METAR EGGW 080820Z AUTO 11004KT 070V130 9999 NCD 13/07 Q1023,0,4,0,10000,0,0,0,
2026-04-08 07:50:00,METAR EGGW 080750Z AUTO 12004KT 9999 NCD 11/07 Q1023,0,4,0,10000,0,0,0,
2026-04-08 07:20:00,METAR EGGW 080720Z AUTO 12005KT 9999 NCD 10/06 Q1023,0,5,0,10000,0,0,0,
2026-04-08 06:50:00,METAR EGGW 080650Z AUTO 13006KT 9999 NCD 09/06 Q1022,0,6,0,10000,0,0,0,
2026-04-08 06:20:00,METAR EGGW 080620Z AUTO 13005KT 9000 NCD 08/05 Q1022,0,5,0,9000,0,0,0,
2026-04-08 05:50:00,METAR EGGW 080550Z AUTO 13005KT 9000 NCD 08/05 Q1022,0,5,0,9000,0,0,0,
2026-04-08 05:20:00,METAR EGGW 080520Z AUTO 12003KT 9000 NCD 07/05 Q1022,0,3,0,9000,0,0,0,
2026-04-08 04:50:00,METAR EGGW 080450Z AUTO 13006KT 9999 NCD 08/05 Q1022,0,6,0,10000,0,0,0,
2026-04-08 04:20:00,METAR EGGW 080420Z AUTO 13006KT 9999 NCD 08/05 Q1022,0,6,0,10000,0,0,0,
2026-04-08 03:50:00,METAR EGGW 080350Z AUTO 13005KT 9999 NCD 07/05 Q1022,0,5,0,10000,0,0,0,
2026-04-08 03:20:00,METAR EGGW 080320Z AUTO 12005KT 9000 NCD 07/05 Q1022,0,5,0,9000,0,0,0,
2026-04-08 02:50:00,METAR EGGW 080250Z AUTO 12004KT 9999 NCD 07/05 Q1022,0,4,0,10000,0,0,0,
2026-04-08 02:20:00,METAR EGGW 080220Z AUTO 13006KT 9999 NCD 08/05 Q1022,0,6,0,10000,0,0,0,
2026-04-08 01:50:00,METAR EGGW 080150Z AUTO 13008KT 9999 NCD 08/05 Q1022,0,8,0,10000,0,0,0,
2026-04-08 01:20:00,METAR EGGW 080120Z AUTO 14009KT 9999 NCD 08/05 Q1022,0,9,0,10000,0,0,0,
2026-04-08 00:50:00,METAR EGGW 080050Z AUTO 13008KT 9999 NCD 08/05 Q1022,0,8,0,10000,0,0,0,
2026-04-08 00:20:00,METAR EGGW 080020Z AUTO 13007KT 9999 NCD 08/05 Q1022,0,7,0,10000,0,0,0,
2026-04-07 23:50:00,METAR EGGW 072350Z AUTO 14007KT 9999 NCD 09/05 Q1022,0,7,0,10000,0,0,0,
2026-04-07 23:20:00,METAR EGGW 072320Z AUTO 14007KT 9999 NCD 09/04 Q1022,0,7,0,10000,0,0,0,
2026-04-07 22:50:00,METAR EGGW 072250Z AUTO 14007KT 9999 NCD 09/04 Q1022,0,7,0,10000,0,0,0,
2026-04-07 22:20:00,METAR EGGW 072220Z AUTO 14007KT 9999 NCD 09/04 Q1022,0,7,0,10000,0,0,0,
2026-04-07 21:50:00,METAR EGGW 072150Z AUTO 14008KT 9999 NCD 09/04 Q1022,0,8,0,10000,0,0,0,
2026-04-07 21:20:00,METAR EGGW 072120Z AUTO 13008KT 9999 NCD 09/04 Q1022,0,8,0,10000,0,0,0,
2026-04-07 20:50:00,METAR EGGW 072050Z AUTO 13009KT 9999 NCD 10/05 Q1022,0,9,0,10000,0,0,0,
2026-04-07 20:20:00,METAR EGGW 072020Z AUTO 13009KT 9999 NCD 10/04 Q1022,0,9,0,10000,0,0,0,
2026-04-07 19:50:00,METAR EGGW 071950Z AUTO 12009KT 9999 NCD 10/05 Q1022,0,9,0,10000,0,0,0,
2026-04-07 19:20:00,METAR EGGW 071920Z AUTO 11008KT 9999 NCD 11/05 Q1022,0,8,0,10000,0,0,0,
2026-04-07 18:50:00,METAR EGGW 071850Z AUTO 12008KT 9999 NCD 12/05 Q1022,0,8,0,10000,0,0,0,
2026-04-07 18:20:00,METAR EGGW 071820Z AUTO 12009KT 9999 NCD 13/05 Q1022,0,9,0,10000,0,0,0,
2026-04-07 17:50:00,METAR EGGW 071750Z AUTO 13013KT 9999 NCD 14/05 Q1022,0,13,0,10000,0,0,0,
2026-04-07 17:20:00,METAR EGGW 071720Z AUTO 12011KT 9999 NCD 15/05 Q1022,0,11,0,10000,0,0,0,
2026-04-07 16:50:00,METAR EGGW 071650Z AUTO 12013KT 9999 NCD 16/05 Q1021,0,13,0,10000,0,0,0,
2026-04-07 16:20:00,METAR EGGW 071620Z AUTO 12013KT 9999 NCD 16/04 Q1022,0,13,0,10000,0,0,0,
2026-04-07 15:50:00,METAR EGGW 071550Z AUTO 12015KT 9999 NCD 16/04 Q1021,0,15,0,10000,0,0,0,
2026-04-07 15:20:00,METAR EGGW 071520Z AUTO 12016KT 9999 NCD 17/04 Q1021,0,16,0,10000,0,0,0,
2026-04-07 14:50:00,METAR EGGW 071450Z AUTO 11015KT 9999 NCD 17/04 Q1022,0,15,0,10000,0,0,0,
2026-04-07 14:20:00,METAR EGGW 071420Z AUTO 12013KT 9999 NCD 17/05 Q1022,0,13,0,10000,0,0,0,
2026-04-07 13:50:00,METAR EGGW 071350Z AUTO 11014KT 9999 NCD 17/04 Q1022,0,14,0,10000,0,0,0,
2026-04-07 13:20:00,METAR EGGW 071320Z AUTO 12014KT 9999 NCD 17/05 Q1022,0,14,0,10000,0,0,0,
2026-04-07 12:50:00,METAR EGGW 071250Z AUTO 11014KT 9999 NCD 17/05 Q1022,0,14,0,10000,0,0,0,
2026-04-07 12:20:00,METAR EGGW 071220Z AUTO 12014KT 9999 NCD 17/05 Q1022,0,14,0,10000,0,0,0,
2026-04-07 11:50:00,METAR EGGW 071150Z AUTO 12016KT 9999 NCD 16/05 Q1023,0,16,0,10000,0,0,0,
2026-04-07 11:20:00,METAR EGGW 071120Z AUTO 12015KT 9999 NCD 16/05 Q1023,0,15,0,10000,0,0,0,
2026-04-07 10:50:00,METAR EGGW 071050Z AUTO 12013KT 100V160 9999 NCD 16/05 Q1023,0,13,0,10000,0,0,0,
2026-04-07 10:20:00,METAR EGGW 071020Z AUTO 13013KT 9999 NCD 15/05 Q1023,0,13,0,10000,0,0,0,
2026-04-07 09:50:00,METAR EGGW 070950Z AUTO 12015KT 9999 NCD 14/05 Q1023,0,15,0,10000,0,0,0,
2026-04-07 09:20:00,METAR EGGW 070920Z AUTO 12012KT 9999 NCD 13/05 Q1023,0,12,0,10000,0,0,0,
2026-04-07 08:50:00,METAR EGGW 070850Z AUTO 13010KT 9999 NCD 12/06 Q1023,0,10,0,10000,0,0,0,
2026-04-07 08:20:00,METAR EGGW 070820Z AUTO 13013KT 9999 NCD 10/05 Q1023,0,13,0,10000,0,0,0,
2026-04-07 07:50:00,METAR EGGW 070750Z AUTO 13010KT 9999 NCD 09/05 Q1023,0,10,0,10000,0,0,0,
2026-04-07 07:20:00,METAR EGGW 070720Z AUTO 13009KT 9999 NCD 08/05 Q1023,0,9,0,10000,0,0,0,
2026-04-07 06:50:00,METAR EGGW 070650Z AUTO 13008KT 9999 NCD 07/05 Q1023,0,8,0,10000,0,0,0,
2026-04-07 06:20:00,METAR EGGW 070620Z AUTO 13007KT 9999 NCD 06/04 Q1023,0,7,0,10000,0,0,0,
2026-04-07 05:50:00,METAR EGGW 070550Z AUTO 13008KT 9999 NCD 05/04 Q1023,0,8,0,10000,0,0,0,
2026-04-07 05:20:00,METAR EGGW 070520Z AUTO 14009KT 9999 NCD 05/04 Q1023,0,9,0,10000,0,0,0,
2026-04-07 04:50:00,METAR EGGW 070450Z AUTO 13008KT 8000 NCD 05/04 Q1023,0,8,0,8000,0,0,0,
2026-04-07 04:20:00,METAR EGGW 070420Z AUTO 12008KT 9000 NCD 05/04 Q1023,0,8,0,9000,0,0,0,
2026-04-07 03:50:00,METAR EGGW 070350Z AUTO 13008KT 8000 NCD 05/04 Q1023,0,8,0,8000,0,0,0,
2026-04-07 03:20:00,METAR EGGW 070320Z AUTO 13009KT 9000 NCD 05/04 Q1023,0,9,0,9000,0,0,0,
2026-04-07 02:50:00,METAR EGGW 070250Z AUTO 13008KT 9999 NCD 05/04 Q1023,0,8,0,10000,0,0,0,
2026-04-07 02:20:00,METAR EGGW 070220Z AUTO 12007KT 9999 NCD 05/04 Q1023,0,7,0,10000,0,0,0,
2026-04-07 01:50:00,METAR EGGW 070150Z AUTO 13007KT 9999 NCD 05/03 Q1024,0,7,0,10000,0,0,0,
2026-04-07 01:20:00,METAR EGGW 070120Z AUTO 12007KT 9999 NCD 05/04 Q1024,0,7,0,10000,0,0,0,
2026-04-07 00:50:00,METAR EGGW 070050Z AUTO 12008KT 9999 NCD 04/03 Q1024,0,8,0,10000,0,0,0,
2026-04-07 00:20:00,METAR EGGW 070020Z AUTO 13007KT 9999 NCD 05/03 Q1024,0,7,0,10000,0,0,0,
2026-04-06 23:50:00,METAR EGGW 062350Z AUTO 13007KT 9999 NCD 05/03 Q1024,0,7,0,10000,0,0,0,
2026-04-06 23:20:00,METAR EGGW 062320Z AUTO 13007KT 9999 NCD 06/02 Q1024,0,7,0,10000,0,0,0,
2026-04-06 22:50:00,METAR EGGW 062250Z AUTO 13008KT 9999 NCD 06/02 Q1024,0,8,0,10000,0,0,0,
2026-04-06 22:20:00,METAR EGGW 062220Z AUTO 13007KT 9999 NCD 06/02 Q1024,0,7,0,10000,0,0,0,
2026-04-06 21:50:00,METAR EGGW 062150Z AUTO 13008KT 9999 NCD 06/02 Q1024,0,8,0,10000,0,0,0,
2026-04-06 21:20:00,METAR EGGW 062120Z AUTO 13008KT 9999 NCD 07/M00 Q1024,0,8,0,10000,0,0,0,
2026-04-06 20:50:00,METAR EGGW 062050Z AUTO 13006KT 9999 NCD 08/M01 Q1024,0,6,0,10000,0,0,0,
2026-04-06 20:20:00,METAR EGGW 062020Z AUTO 14007KT 9999 NCD 09/M02 Q1024,0,7,0,10000,0,0,0,
2026-04-06 19:50:00,METAR EGGW 061950Z AUTO 14007KT 9999 NCD 10/M02 Q1024,0,7,0,10000,0,0,0,
2026-04-06 19:20:00,METAR EGGW 061920Z AUTO 14008KT 9999 NCD 10/M01 Q1024,0,8,0,10000,0,0,0,
2026-04-06 18:50:00,METAR EGGW 061850Z AUTO 15006KT 9999 NCD 11/M00 Q1024,0,6,0,10000,0,0,0,
2026-04-06 18:20:00,METAR EGGW 061820Z AUTO 15007KT 9999 NCD 12/00 Q1024,0,7,0,10000,0,0,0,
2026-04-06 17:50:00,METAR EGGW 061750Z AUTO 15008KT 9999 NCD 13/00 Q1024,0,8,0,10000,0,0,0,
2026-04-06 17:20:00,METAR EGGW 061720Z AUTO 15008KT 120V180 9999 NCD 14/00 Q1024,0,8,0,10000,0,0,0,
2026-04-06 16:50:00,METAR EGGW 061650Z AUTO 16009KT 140V200 9999 NCD 14/M00 Q1024,0,9,0,10000,0,0,0,
2026-04-06 16:20:00,METAR EGGW 061620Z AUTO 14008KT 110V170 9999 NCD 14/M01 Q1024,0,8,0,10000,0,0,0,
2026-04-06 15:50:00,METAR EGGW 061550Z AUTO 16008KT 120V200 9999 NCD 14/M00 Q1024,0,8,0,10000,0,0,0,
2026-04-06 14:50:00,METAR EGGW 061450Z AUTO 14010KT 100V160 9999 NCD 14/M00 Q1025,0,10,0,10000,0,0,0,
2026-04-06 14:20:00,METAR EGGW 061420Z AUTO 17007KT 090V220 9999 NCD 14/00 Q1025,0,7,0,10000,0,0,0,
2026-04-06 13:50:00,METAR EGGW 061350Z AUTO 17007KT 130V220 9999 NCD 14/00 Q1025,0,7,0,10000,0,0,0,
2026-04-06 13:20:00,METAR EGGW 061320Z AUTO 18007KT 140V230 9999 NCD 14/M00 Q1025,0,7,0,10000,0,0,0,
2026-04-06 12:50:00,METAR EGGW 061250Z AUTO 19008KT 140V250 9999 NCD 13/00 Q1026,0,8,0,10000,0,0,0,
2026-04-06 12:20:00,METAR EGGW 061220Z AUTO 17006KT 120V220 9999 NCD 13/02 Q1026,0,6,0,10000,0,0,0,
2026-04-06 11:50:00,METAR EGGW 061150Z AUTO 18007KT 130V220 9999 NCD 13/02 Q1026,0,7,0,10000,0,0,0,
2026-04-06 11:20:00,METAR EGGW 061120Z AUTO 18007KT 140V220 9999 NCD 12/01 Q1026,0,7,0,10000,0,0,0,
2026-04-06 10:50:00,METAR EGGW 061050Z AUTO 16007KT 130V210 9999 NCD 11/02 Q1026,0,7,0,10000,0,0,0,
2026-04-06 10:20:00,METAR EGGW 061020Z AUTO 16006KT 120V220 9999 NCD 11/03 Q1027,0,6,0,10000,0,0,0,
2026-04-06 09:50:00,METAR EGGW 060950Z AUTO 16005KT 110V220 9999 NCD 10/02 Q1027,0,5,0,10000,0,0,0,
2026-04-06 09:20:00,METAR EGGW 060920Z AUTO 15007KT 9999 NCD 09/02 Q1027,0,7,0,10000,0,0,0,
2026-04-06 08:50:00,METAR EGGW 060850Z AUTO 16005KT 120V220 9999 NCD 08/03 Q1027,0,5,0,10000,0,0,0,
2026-04-06 08:20:00,METAR EGGW 060820Z AUTO 18003KT 130V220 9999 NCD 07/03 Q1027,0,3,0,10000,0,0,0,
2026-04-06 07:50:00,METAR EGGW 060750Z AUTO 19004KT 150V210 9999 NCD 05/02 Q1027,0,4,0,10000,0,0,0,
2026-04-06 07:20:00,METAR EGGW 060720Z AUTO 19003KT 160V220 9999 NCD 04/02 Q1027,0,3,0,10000,0,0,0,
2026-04-06 06:50:00,METAR EGGW 060650Z AUTO 19004KT 160V220 9999 NCD 03/01 Q1026,0,4,0,10000,0,0,0,
2026-04-06 06:20:00,METAR EGGW 060620Z AUTO 20004KT 9999 NCD 02/01 Q1026,0,4,0,10000,0,0,0,
2026-04-06 05:50:00,METAR EGGW 060550Z AUTO 18004KT 9999 NCD 02/00 Q1026,0,4,0,10000,0,0,0,
2026-04-06 05:20:00,METAR EGGW 060520Z AUTO VRB02KT 9999 NCD 01/M00 Q1026,0,2,0,10000,0,0,0,
2026-04-06 04:50:00,METAR EGGW 060450Z AUTO 18003KT 9999 NCD 02/00 Q1026,0,3,0,10000,0,0,0,
2026-04-06 04:20:00,METAR EGGW 060420Z AUTO 15003KT 120V190 9999 NCD 02/M00 Q1026,0,3,0,10000,0,0,0,
2026-04-06 03:50:00,METAR EGGW 060350Z AUTO VRB01KT 9999 NCD 02/00 Q1025,0,1,0,10000,0,0,0,
2026-04-06 03:20:00,METAR EGGW 060320Z AUTO 27007KT 9999 NCD 02/00 Q1025,0,7,0,10000,0,0,0,
2026-04-06 02:50:00,METAR EGGW 060250Z AUTO 27007KT 9999 NCD 03/00 Q1025,0,7,0,10000,0,0,0,
2026-04-06 02:20:00,METAR EGGW 060220Z AUTO 25006KT 9999 NCD 03/00 Q1025,0,6,0,10000,0,0,0,
2026-04-06 01:50:00,METAR EGGW 060150Z AUTO 26006KT 9999 NCD 03/00 Q1025,0,6,0,10000,0,0,0,
2026-04-06 01:20:00,METAR EGGW 060120Z AUTO 26008KT 9999 NCD 03/01 Q1025,0,8,0,10000,0,0,0,
2026-04-06 00:50:00,METAR EGGW 060050Z AUTO 27009KT 9999 NCD 04/01 Q1025,0,9,0,10000,0,0,0,
2026-04-06 00:20:00,METAR EGGW 060020Z AUTO 26009KT 9999 NCD 04/00 Q1025,0,9,0,10000,0,0,0,
2026-04-05 23:50:00,METAR EGGW 052350Z AUTO 27009KT 9999 NCD 04/00 Q1025,0,9,0,10000,0,0,0,
2026-04-05 23:20:00,METAR EGGW 052320Z AUTO 27008KT 9999 NCD 04/00 Q1025,0,8,0,10000,0,0,0,
2026-04-05 22:50:00,METAR EGGW 052250Z AUTO 28007KT 9999 NCD 04/00 Q1024,0,7,0,10000,0,0,0,
2026-04-05 22:20:00,METAR EGGW 052220Z AUTO 25007KT 9999 NCD 04/M00 Q1024,0,7,0,10000,0,0,0,
2026-04-05 21:50:00,METAR EGGW 052150Z AUTO 26007KT 9999 NCD 04/M00 Q1024,0,7,0,10000,0,0,0,
2026-04-05 21:20:00,METAR EGGW 052120Z AUTO 26008KT 9999 NCD 05/00 Q1024,0,8,0,10000,0,0,0,
2026-04-05 20:50:00,METAR EGGW 052050Z AUTO 26008KT 9999 NCD 05/M00 Q1024,0,8,0,10000,0,0,0,
2026-04-05 20:20:00,METAR EGGW 052020Z AUTO 26007KT 9999 NCD 05/M00 Q1023,0,7,0,10000,0,0,0,
2026-04-05 19:50:00,METAR EGGW 051950Z AUTO 25008KT 9999 NCD 06/M00 Q1023,0,8,0,10000,0,0,0,
2026-04-05 19:20:00,METAR EGGW 051920Z AUTO 27012KT 9999 NCD 08/M00 Q1022,0,12,0,10000,0,0,0,
2026-04-05 18:50:00,METAR EGGW 051850Z AUTO 26009KT 9999 NCD 08/M02 Q1022,0,9,0,10000,0,0,0,
2026-04-05 18:20:00,METAR EGGW 051820Z AUTO 28011KT 9999 NCD 09/M03 Q1021,0,11,0,10000,0,0,0,
2026-04-05 17:50:00,METAR EGGW 051750Z AUTO 29013KT 9999 NCD 10/M03 Q1021,0,13,0,10000,0,0,0,
2026-04-05 17:20:00,METAR EGGW 051720Z AUTO 29015KT 260V320 9999 NCD 10/M03 Q1020,0,15,0,10000,0,0,0,
2026-04-05 16:50:00,METAR EGGW 051650Z AUTO 29016KT 9999 NCD 11/M02 Q1020,0,16,0,10000,0,0,0,
2026-04-05 16:20:00,METAR EGGW 051620Z AUTO 28018KT 9999 NCD 11/M03 Q1020,0,18,0,10000,0,0,0,
2026-04-05 15:50:00,METAR EGGW 051550Z AUTO 27019KT 9999 NCD 11/M03 Q1019,0,19,0,10000,0,0,0,
2026-04-05 15:20:00,METAR EGGW 051520Z AUTO 28020KT 9999 NCD 11/M04 Q1019,0,20,0,10000,0,0,0,
2026-04-05 14:50:00,METAR EGGW 051450Z AUTO 29019KT 9999 NCD 12/M03 Q1019,0,19,0,10000,0,0,0,
2026-04-05 12:50:00,METAR EGGW 051250Z AUTO 26020KT 9999 NCD 12/01 Q1017,0,20,0,10000,0,0,0,
2026-04-05 12:20:00,METAR EGGW 051220Z AUTO 28017KT 9999 SCT048 11/01 Q1017,0,17,0,10000,0,0,0,
2026-04-05 11:50:00,METAR EGGW 051150Z 28019KT 9999 BKN035 10/02 Q1017,0,19,0,10000,0,0,0,
2026-04-05 11:20:00,METAR EGGW 051120Z COR 27023KT 9999 BKN028 10/03 Q1016,0,23,0,10000,0,0,0,
2026-04-05 10:50:00,METAR EGGW 051050Z AUTO 27013KT 9999 FEW033 SCT040 09/06 Q1016 RERA,0,13,0,10000,0,0,0,RA
2026-04-05 10:20:00,METAR EGGW 051020Z AUTO 27019KT 9999 FEW043 10/02 Q1015,0,19,0,10000,0,0,0,
2026-04-05 09:50:00,METAR EGGW 050950Z AUTO 27018KT 240V300 9999 FEW028 SCT035 BKN049 10/04 Q1014,0,18,0,10000,0,0,0,
2026-04-05 09:20:00,METAR EGGW 050920Z AUTO 26022KT 9999 SCT025 BKN032 09/03 Q1014,0,22,0,10000,0,0,0,
2026-04-05 08:50:00,METAR EGGW 050850Z AUTO 25018KT 9999 BKN024 09/04 Q1013,0,18,0,10000,0,0,0,
2026-04-05 08:20:00,METAR EGGW 050820Z AUTO 24018KT 9999 FEW048 09/04 Q1013,0,18,0,10000,0,0,0,
2026-04-05 07:50:00,METAR EGGW 050750Z AUTO 24014KT 9999 FEW021/// BKN036/// //////TCU 07/03 Q1013,0,14,0,10000,0,0,0,
2026-04-05 07:20:00,METAR EGGW 050720Z AUTO 22010KT 9999 -RA FEW026/// BKN034/// BKN041/// //////TCU 07/03 Q1012,0,10,0,10000,0,0,0,-RA
2026-04-05 06:50:00,METAR EGGW 050650Z AUTO 22009KT 9999 SCT035 BKN048 07/03 Q1012,0,9,0,10000,0,0,0,
2026-04-05 06:20:00,METAR EGGW 050620Z AUTO 22011KT 9999 NCD 06/02 Q1011,0,11,0,10000,0,0,0,
2026-04-05 05:50:00,METAR EGGW 050550Z AUTO 24011KT 9999 NCD 06/02 Q1011,0,11,0,10000,0,0,0,
2026-04-05 05:20:00,METAR EGGW 050520Z AUTO 24010KT 9999 NCD 06/02 Q1010,0,10,0,10000,0,0,0,
2026-04-05 04:50:00,METAR EGGW 050450Z AUTO 26012KT 9999 NCD 06/01 Q1010,0,12,0,10000,0,0,0,
2026-04-05 04:20:00,METAR EGGW 050420Z AUTO 27015KT 9999 NCD 07/02 Q1009,0,15,0,10000,0,0,0,
2026-04-05 03:50:00,METAR EGGW 050350Z AUTO 26016KT 9999 BKN025 08/04 Q1008,0,16,0,10000,0,0,0,
2026-04-05 03:20:00,METAR EGGW 050320Z AUTO 25017KT 9999 SCT026 BKN033 08/04 Q1008,0,17,0,10000,0,0,0,
2026-04-05 02:50:00,METAR EGGW 050250Z AUTO 25019KT 9999 NCD 08/04 Q1007,0,19,0,10000,0,0,0,
2026-04-05 02:20:00,METAR EGGW 050220Z AUTO 25020G30KT 9999 SCT031 09/04 Q1007,0,20,1,10000,0,0,0,
2026-04-05 01:50:00,METAR EGGW 050150Z AUTO 24023G33KT 9999 BKN035 09/03 Q1006,0,23,1,10000,0,0,0,
2026-04-05 01:20:00,METAR EGGW 050120Z AUTO 25027G40KT 9999 OVC036 09/03 Q1005,0,27,1,10000,0,0,0,
2026-04-05 00:50:00,METAR EGGW 050050Z AUTO 24022G34KT 9999 BKN032 BKN038 09/04 Q1005,0,22,1,10000,0,0,0,
2026-04-05 00:20:00,METAR EGGW 050020Z AUTO 25027G44KT 9999 FEW041 10/03 Q1005,0,27,1,10000,0,0,0,
2026-04-04 23:50:00,METAR EGGW 042350Z AUTO 24025KT 9999 -RA BKN018/// OVC025/// //////TCU 11/08 Q1004,0,25,0,10000,0,0,0,-RA
2026-04-04 23:20:00,METAR EGGW 042320Z AUTO 22023G34KT 9999 BKN017/// OVC021/// //////TCU 11/08 Q1003,0,23,1,10000,0,0,0,
2026-04-04 22:50:00,METAR EGGW 042250Z AUTO 21018KT 9999 BKN018 OVC024 10/08 Q1003,0,18,0,10000,0,0,0,
2026-04-04 22:20:00,METAR EGGW 042220Z AUTO 21020KT 9999 OVC019 11/07 Q1004,0,20,0,10000,0,0,0,
2026-04-04 21:50:00,METAR EGGW 042150Z AUTO 21021G36KT 9999 OVC022 11/06 Q1004,0,21,1,10000,0,0,0,
2026-04-04 21:20:00,METAR EGGW 042120Z AUTO 21019G29KT 9999 OVC024 11/06 Q1005,0,19,1,10000,0,0,0,
2026-04-04 20:50:00,METAR EGGW 042050Z AUTO 21019KT 9999 BKN026 OVC030 11/06 Q1005,0,19,0,10000,0,0,0,
2026-04-04 20:20:00,METAR EGGW 042020Z AUTO 21018G30KT 9999 BKN028 BKN032 10/06 Q1005,0,18,1,10000,0,0,0,
2026-04-04 19:50:00,METAR EGGW 041950Z AUTO 22022G35KT 9999 SCT028 BKN032 11/06 Q1006,0,22,1,10000,0,0,0,
2026-04-04 19:20:00,METAR EGGW 041920Z AUTO 21020G32KT 180V240 9999 SCT027 SCT031 11/06 Q1006,0,20,1,10000,0,0,0,
2026-04-04 18:50:00,METAR EGGW 041850Z AUTO 21017G29KT 170V230 9999 SCT026 11/07 Q1006,0,17,1,10000,0,0,0,
2026-04-04 18:20:00,METAR EGGW 041820Z AUTO 21019G33KT 9999 BKN023 BKN028 12/08 Q1007,0,19,1,10000,0,0,0,
2026-04-04 17:50:00,METAR EGGW 041750Z AUTO 20016G26KT 170V230 9999 BKN022 OVC028 12/08 Q1007,0,16,1,10000,0,0,0,
2026-04-04 17:20:00,METAR EGGW 041720Z AUTO 20012G23KT 9999 BKN021 12/08 Q1008,0,12,1,10000,0,0,0,
2026-04-04 16:50:00,METAR EGGW 041650Z AUTO 21016KT 180V240 9999 OVC021 12/08 Q1009,0,16,0,10000,0,0,0,
2026-04-04 16:20:00,METAR EGGW 041620Z AUTO 20017KT 170V230 9999 BKN023 OVC027 12/08 Q1009,0,17,0,10000,0,0,0,
2026-04-04 15:50:00,METAR EGGW 041550Z AUTO 21015G32KT 9999 OVC024 12/08 Q1010,0,15,1,10000,0,0,0,
2026-04-04 15:20:00,METAR EGGW 041520Z AUTO 21016KT 9999 BKN025 OVC029 12/07 Q1011,0,16,0,10000,0,0,0,
2026-04-04 14:50:00,METAR EGGW 041450Z AUTO 21020G31KT 9999 BKN029 13/07 Q1011,0,20,1,10000,0,0,0,
2026-04-04 14:20:00,METAR EGGW 041420Z AUTO 20017G32KT 160V220 9999 BKN029 14/07 Q1012,0,17,1,10000,0,0,0,
2026-04-04 13:50:00,METAR EGGW 041350Z AUTO 20015KT 160V230 9999 BKN025 13/07 Q1012,0,15,0,10000,0,0,0,
2026-04-04 13:20:00,METAR EGGW 041320Z AUTO 19016KT 160V220 9999 BKN023 BKN028 12/07 Q1013,0,16,0,10000,0,0,0,
2026-04-04 12:50:00,METAR EGGW 041250Z AUTO 20015KT 160V230 9999 BKN023 BKN029 13/09 Q1013,0,15,0,10000,0,0,0,
2026-04-04 12:20:00,METAR EGGW 041220Z AUTO 20014G25KT 170V230 9999 FEW016 BKN022 BKN029 14/09 Q1014,0,14,1,10000,0,0,0,
2026-04-04 11:50:00,METAR EGGW 041150Z AUTO 20012KT 160V230 9999 SCT012 BKN017 BKN023 13/10 Q1014,0,12,0,10000,0,0,0,
2026-04-04 11:20:00,METAR EGGW 041120Z AUTO 19008KT 150V220 9999 BKN011 OVC016 12/10 Q1015,0,8,0,10000,0,0,0,
2026-04-04 10:50:00,METAR EGGW 041050Z COR 20008KT 160V230 9999 VCSH OVC008 11/09 Q1015,0,8,0,10000,0,0,0,"SH,VC"
2026-04-04 10:20:00,METAR EGGW 041020Z AUTO 20009KT 160V230 9999 BKN008 10/08 Q1016,0,9,0,10000,0,0,0,
2026-04-04 09:50:00,METAR EGGW 040950Z AUTO 19009KT 150V230 9999 SCT012 BKN016 OVC030 10/08 Q1016,0,9,0,10000,0,0,0,
2026-04-04 09:20:00,METAR EGGW 040920Z AUTO 20009KT 9999 SCT017 SCT021 BKN036 10/07 Q1016,0,9,0,10000,0,0,0,
2026-04-04 08:50:00,METAR EGGW 040850Z AUTO 21007KT 170V240 9999 SCT023 BKN028 BKN034 10/07 Q1016,0,7,0,10000,0,0,0,
2026-04-04 08:20:00,METAR EGGW 040820Z AUTO 19006KT 150V220 9999 OVC031 08/07 Q1017,0,6,0,10000,0,0,0,
2026-04-04 07:50:00,METAR EGGW 040750Z AUTO 20005KT 160V220 9999 BKN038 08/06 Q1017,0,5,0,10000,0,0,0,
2026-04-04 07:20:00,METAR EGGW 040720Z AUTO 21007KT 170V230 9999 NCD 07/06 Q1017,0,7,0,10000,0,0,0,
2026-04-04 06:50:00,METAR EGGW 040650Z AUTO 19005KT 150V220 9999 NCD 07/06 Q1017,0,5,0,10000,0,0,0,
2026-04-04 06:20:00,METAR EGGW 040620Z AUTO 19004KT 9999 FEW011 06/05 Q1016,0,4,0,10000,0,0,0,
2026-04-04 05:50:00,METAR EGGW 040550Z AUTO 19004KT 160V220 9999 BKN011 06/05 Q1016,0,4,0,10000,0,0,0,
2026-04-04 05:20:00,METAR EGGW 040520Z AUTO 24007KT 9999 BKN010 07/06 Q1016,0,7,0,10000,0,0,0,
2026-04-04 04:50:00,METAR EGGW 040450Z AUTO 24007KT 9999 SCT011 07/06 Q1016,0,7,0,10000,0,0,0,
2026-04-04 04:20:00,METAR EGGW 040420Z AUTO 25009KT 9999 SCT011 07/06 Q1016,0,9,0,10000,0,0,0,
2026-04-04 03:50:00,METAR EGGW 040350Z AUTO 25009KT 9999 SCT012 SCT042 07/06 Q1016,0,9,0,10000,0,0,0,
2026-04-04 03:20:00,METAR EGGW 040320Z AUTO 24008KT 9999 NCD 07/06 Q1016,0,8,0,10000,0,0,0,
2026-04-04 02:50:00,METAR EGGW 040250Z AUTO 24008KT 9999 NCD 07/06 Q1016,0,8,0,10000,0,0,0,
2026-04-04 02:20:00,METAR EGGW 040220Z AUTO 25010KT 9999 NCD 07/06 Q1016,0,10,0,10000,0,0,0,
2026-04-04 01:50:00,METAR EGGW 040150Z AUTO 25010KT 9999 NCD 07/06 Q1015,0,10,0,10000,0,0,0,
2026-04-04 01:20:00,METAR EGGW 040120Z AUTO 25011KT 9999 NCD 08/07 Q1015,0,11,0,10000,0,0,0,
2026-04-04 00:50:00,METAR EGGW 040050Z AUTO 24011KT 9999 FEW045 08/07 Q1015,0,11,0,10000,0,0,0,
2026-04-04 00:20:00,METAR EGGW 040020Z AUTO 25013KT 9999 NCD 09/07 Q1015,0,13,0,10000,0,0,0,
2026-04-03 23:50:00,METAR EGGW 032350Z AUTO 25012KT 9999 FEW028 BKN040 09/07 Q1015,0,12,0,10000,0,0,0,
2026-04-03 23:20:00,METAR EGGW 032320Z AUTO 24012KT 9999 BKN043 09/07 Q1014,0,12,0,10000,0,0,0,
2026-04-03 22:50:00,METAR EGGW 032250Z AUTO 25011KT 9999 BKN042 10/07 Q1014,0,11,0,10000,0,0,0,
2026-04-03 22:20:00,METAR EGGW 032220Z AUTO 25012KT 9999 SCT042 10/07 Q1013,0,12,0,10000,0,0,0,
2026-04-03 21:50:00,METAR EGGW 032150Z AUTO 25013KT 9999 BKN038 OVC045 10/07 Q1013,0,13,0,10000,0,0,0,
2026-04-03 21:20:00,METAR EGGW 032120Z AUTO 25014G24KT 9999 OVC045 10/07 Q1012,0,14,1,10000,0,0,0,
2026-04-03 20:50:00,METAR EGGW 032050Z AUTO 24015KT 9999 NCD 10/07 Q1012,0,15,0,10000,0,0,0,
2026-04-03 20:20:00,METAR EGGW 032020Z AUTO 25015KT 9999 NCD 10/07 Q1011,0,15,0,10000,0,0,0,
2026-04-03 19:50:00,METAR EGGW 031950Z AUTO 25016G27KT 9999 NCD 11/07 Q1011,0,16,1,10000,0,0,0,
2026-04-03 19:20:00,METAR EGGW 031920Z AUTO 25018KT 9999 NCD 11/07 Q1010,0,18,0,10000,0,0,0,
2026-04-03 18:50:00,METAR EGGW 031850Z AUTO 25017KT 9999 SCT023 12/08 Q1010,0,17,0,10000,0,0,0,
2026-04-03 18:20:00,METAR EGGW 031820Z COR 25021KT 9999 BKN022 12/08 Q1009,0,21,0,10000,0,0,0,
2026-04-03 17:50:00,METAR EGGW 031750Z AUTO 25022G33KT 9999 BKN021 13/09 Q1008,0,22,1,10000,0,0,0,
2026-04-03 17:20:00,METAR EGGW 031720Z AUTO 24020G33KT 9999 BKN021 13/09 Q1008,0,20,1,10000,0,0,0,
2026-04-03 16:50:00,METAR EGGW 031650Z AUTO 24022KT 9999 BKN021 13/09 Q1008,0,22,0,10000,0,0,0,
2026-04-03 16:20:00,METAR EGGW 031620Z AUTO 24016KT 9999 BKN021 14/10 Q1008,0,16,0,10000,0,0,0,
2026-04-03 15:50:00,METAR EGGW 031550Z AUTO 24021KT 9999 BKN022 14/09 Q1008,0,21,0,10000,0,0,0,
2026-04-03 15:20:00,METAR EGGW 031520Z AUTO 24024G40KT 9999 BKN023 14/10 Q1008,0,24,1,10000,0,0,0,
2026-04-03 14:50:00,METAR EGGW 031450Z AUTO 24019G30KT 9999 BKN022 BKN026 14/10 Q1008,0,19,1,10000,0,0,0,
2026-04-03 14:20:00,METAR EGGW 031420Z AUTO 24023KT 9999 BKN021 BKN027 14/10 Q1008,0,23,0,10000,0,0,0,
2026-04-03 13:50:00,METAR EGGW 031350Z AUTO 25024G38KT 9999 BKN021 OVC027 14/10 Q1008,0,24,1,10000,0,0,0,
2026-04-03 13:20:00,METAR EGGW 031320Z AUTO 24018KT 9999 BKN022 BKN026 OVC030 14/10 Q1008,0,18,0,10000,0,0,0,
2026-04-03 12:50:00,METAR EGGW 031250Z AUTO 23016KT 9999 OVC022 14/10 Q1008,0,16,0,10000,0,0,0,
2026-04-03 12:20:00,METAR EGGW 031220Z AUTO 22011KT 9999 OVC019 13/10 Q1008,0,11,0,10000,0,0,0,
2026-04-03 11:50:00,METAR EGGW 031150Z AUTO 21012KT 9999 OVC016 13/10 Q1009,0,12,0,10000,0,0,0,
2026-04-03 11:20:00,METAR EGGW 031120Z AUTO 22012KT 180V240 9999 OVC012 12/10 Q1009,0,12,0,10000,0,0,0,
2026-04-03 10:50:00,METAR EGGW 031050Z AUTO 21012KT 9999 OVC010 11/10 Q1009,0,12,0,10000,0,0,0,
2026-04-03 10:20:00,METAR EGGW 031020Z AUTO 21013KT 9999 OVC007 11/10 Q1009,0,13,0,10000,0,0,0,
2026-04-03 09:50:00,METAR EGGW 030950Z AUTO 21013KT 180V240 9999 OVC005 10/09 Q1009,0,13,0,10000,0,0,0,
2026-04-03 09:20:00,METAR EGGW 030920Z AUTO 21012KT 9999 OVC005 10/09 Q1009,0,12,0,10000,0,0,0,
2026-04-03 08:50:00,METAR EGGW 030850Z AUTO 20012KT 9999 OVC005 09/09 Q1009,0,12,0,10000,0,0,0,
2026-04-03 08:20:00,METAR EGGW 030820Z AUTO 20011KT 9999 -RA OVC005 09/08 Q1010,0,11,0,10000,0,0,0,-RA
2026-04-03 07:50:00,METAR EGGW 030750Z AUTO 21012KT 6000 -RA OVC004 09/08 Q1010,0,12,0,6000,0,0,0,-RA
2026-04-03 07:20:00,METAR EGGW 030720Z AUTO 20010KT 2700 BR OVC004 08/08 Q1010,0,10,0,2700,0,0,1,BR
2026-04-03 06:50:00,METAR EGGW 030650Z AUTO 20011KT 160V220 4800 RADZ OVC004 08/07 Q1011,0,11,0,4800,0,0,0,"DZ,RA"
2026-04-03 06:20:00,METAR EGGW 030620Z COR 20010KT 5000 -RA OVC005 08/07 Q1011,0,10,0,5000,0,0,0,-RA
2026-04-03 05:50:00,METAR EGGW 030550Z AUTO 20010KT 9999 OVC008 07/06 Q1011,0,10,0,10000,0,0,0,
2026-04-03 05:20:00,METAR EGGW 030520Z 20011KT 160V220 9999 OVC009 07/06 Q1011,0,11,0,10000,0,0,0,
2026-04-03 04:50:00,METAR EGGW 030450Z AUTO 20010KT 160V220 9999 BKN008 07/06 Q1012,0,10,0,10000,0,0,0,
2026-04-03 04:20:00,METAR EGGW 030420Z AUTO 20011KT 7000 -RA SCT009 BKN012 BKN024 07/06 Q1012,0,11,0,7000,0,0,0,-RA
2026-04-03 03:50:00,METAR EGGW 030350Z AUTO 20011KT 7000 -RA FEW013 SCT018 BKN035 07/05 Q1012,0,11,0,7000,0,0,0,-RA
2026-04-03 03:20:00,METAR EGGW 030320Z AUTO 21011KT 7000 -RA SCT029 SCT046 07/05 Q1013,0,11,0,7000,0,0,0,-RA
2026-04-03 02:50:00,METAR EGGW 030250Z AUTO 20009KT 150V220 9999 -RA FEW026 SCT032 BKN040 07/05 Q1013,0,9,0,10000,0,0,0,-RA
2026-04-03 02:20:00,METAR EGGW 030220Z AUTO 20010KT 9999 SCT038 07/05 Q1014,0,10,0,10000,0,0,0,
2026-04-03 01:50:00,METAR EGGW 030150Z AUTO 20009KT 9999 -RA FEW038 07/05 Q1014,0,9,0,10000,0,0,0,-RA
2026-04-03 01:20:00,METAR EGGW 030120Z AUTO 20009KT 9999 FEW022 BKN045 07/05 Q1014,0,9,0,10000,0,0,0,
2026-04-03 00:50:00,METAR EGGW 030050Z AUTO 21009KT 170V230 9999 BKN018 07/05 Q1015,0,9,0,10000,0,0,0,
2026-04-03 00:20:00,METAR EGGW 030020Z AUTO 21009KT 9999 NCD 07/04 Q1016,0,9,0,10000,0,0,0,
2026-04-02 23:50:00,METAR EGGW 022350Z AUTO 22008KT 9999 NCD 07/04 Q1016,0,8,0,10000,0,0,0,
2026-04-02 23:20:00,METAR EGGW 022320Z AUTO 22009KT 9999 NCD 07/04 Q1016,0,9,0,10000,0,0,0,
2026-04-02 22:50:00,METAR EGGW 022250Z AUTO 21008KT 170V230 9999 NCD 07/04 Q1016,0,8,0,10000,0,0,0,
2026-04-02 22:20:00,METAR EGGW 022220Z AUTO 20007KT 160V220 9999 NCD 08/03 Q1017,0,7,0,10000,0,0,0,
2026-04-02 21:50:00,METAR EGGW 022150Z AUTO 20006KT 160V240 9999 NCD 08/03 Q1017,0,6,0,10000,0,0,0,
2026-04-02 21:20:00,METAR EGGW 022120Z AUTO 19006KT 150V220 9999 NCD 07/02 Q1018,0,6,0,10000,0,0,0,
2026-04-02 20:50:00,METAR EGGW 022050Z AUTO 19006KT 160V230 9999 FEW040 08/01 Q1018,0,6,0,10000,0,0,0,
2026-04-02 20:20:00,METAR EGGW 022020Z AUTO 19003KT 160V220 9999 NCD 07/01 Q1018,0,3,0,10000,0,0,0,
2026-04-02 19:50:00,METAR EGGW 021950Z AUTO 20003KT 9999 NCD 07/01 Q1018,0,3,0,10000,0,0,0,
2026-04-02 19:20:00,METAR EGGW 021920Z AUTO 22005KT 9999 NCD 07/01 Q1019,0,5,0,10000,0,0,0,
2026-04-02 18:50:00,METAR EGGW 021850Z AUTO 22004KT 9999 NCD 07/01 Q1019,0,4,0,10000,0,0,0,
2026-04-02 18:20:00,METAR EGGW 021820Z AUTO 21004KT 170V230 9999 NCD 08/01 Q1019,0,4,0,10000,0,0,0,
2026-04-02 17:50:00,METAR EGGW 021750Z AUTO 18003KT 150V210 9999 NCD 09/01 Q1019,0,3,0,10000,0,0,0,
2026-04-02 17:20:00,METAR EGGW 021720Z AUTO 23005KT 210V270 9999 NCD 10/01 Q1019,0,5,0,10000,0,0,0,
2026-04-02 16:50:00,METAR EGGW 021650Z AUTO 19006KT 140V230 9999 NCD 10/01 Q1019,0,6,0,10000,0,0,0,
2026-04-02 16:20:00,METAR EGGW 021620Z AUTO 26005KT 200V300 9999 NCD 11/01 Q1019,0,5,0,10000,0,0,0,
2026-04-02 15:50:00,METAR EGGW 021550Z AUTO 24005KT 160V330 9999 NCD 11/01 Q1020,0,5,0,10000,0,0,0,
2026-04-02 15:20:00,METAR EGGW 021520Z AUTO 28003KT 240V310 9999 NCD 10/M00 Q1020,0,3,0,10000,0,0,0,
2026-04-02 14:50:00,METAR EGGW 021450Z AUTO 26006KT 230V290 9999 FEW041 10/00 Q1020,0,6,0,10000,0,0,0,
2026-04-02 14:20:00,METAR EGGW 021420Z AUTO VRB03KT 9999 FEW040 10/01 Q1021,0,3,0,10000,0,0,0,
2026-04-02 13:50:00,METAR EGGW 021350Z AUTO 01003KT 290V070 9999 SCT037 10/00 Q1021,0,3,0,10000,0,0,0,
2026-04-02 13:20:00,METAR EGGW 021320Z AUTO VRB04KT 9999 BKN035 10/01 Q1021,0,4,0,10000,0,0,0,
2026-04-02 12:50:00,METAR EGGW 021250Z AUTO 32005KT 270V040 9999 SCT033 09/01 Q1021,0,5,0,10000,0,0,0,
2026-04-02 12:20:00,METAR EGGW 021220Z AUTO 33006KT 300V020 9999 SCT030 08/01 Q1021,0,6,0,10000,0,0,0,
2026-04-02 11:50:00,METAR EGGW 021150Z AUTO 03006KT 300V070 9999 BKN028 09/01 Q1021,0,6,0,10000,0,0,0,
2026-04-02 11:20:00,METAR EGGW 021120Z AUTO 01006KT 300V070 9999 SCT025 OVC030 08/02 Q1021,0,6,0,10000,0,0,0,
2026-04-02 10:50:00,METAR EGGW 021050Z AUTO 36008KT 330V030 9999 OVC026 07/01 Q1022,0,8,0,10000,0,0,0,
2026-04-02 10:20:00,METAR EGGW 021020Z AUTO 01008KT 330V030 9999 BKN020 OVC026 06/02 Q1022,0,8,0,10000,0,0,0,
2026-04-02 09:50:00,METAR EGGW 020950Z AUTO 36008KT 9999 OVC022 06/01 Q1021,0,8,0,10000,0,0,0,
2026-04-02 09:20:00,METAR EGGW 020920Z AUTO 01010KT 9999 OVC019 05/02 Q1022,0,10,0,10000,0,0,0,
2026-04-02 08:50:00,METAR EGGW 020850Z AUTO 36008KT 310V030 9999 OVC017 05/02 Q1021,0,8,0,10000,0,0,0,
2026-04-02 08:20:00,METAR EGGW 020820Z AUTO 36008KT 290V030 9999 OVC017 05/02 Q1021,0,8,0,10000,0,0,0,
2026-04-02 07:50:00,METAR EGGW 020750Z AUTO 36008KT 310V030 9999 BKN017 05/02 Q1021,0,8,0,10000,0,0,0,
2026-04-02 07:20:00,METAR EGGW 020720Z AUTO 35008KT 310V020 9999 OVC022 05/02 Q1021,0,8,0,10000,0,0,0,
2026-04-02 06:50:00,METAR EGGW 020650Z AUTO 35007KT 9999 OVC018 04/02 Q1020,0,7,0,10000,0,0,0,
2026-04-02 06:20:00,METAR EGGW 020620Z AUTO 35010KT 310V010 9999 OVC014 04/02 Q1020,0,10,0,10000,0,0,0,
2026-04-02 05:50:00,METAR EGGW 020550Z AUTO 33011KT 300V010 9999 BKN012 BKN029 04/02 Q1020,0,11,0,10000,0,0,0,
2026-04-02 05:20:00,METAR EGGW 020520Z AUTO 32010KT 9999 SCT028 04/01 Q1020,0,10,0,10000,0,0,0,
2026-04-02 04:50:00,METAR EGGW 020450Z AUTO 32010KT 9999 NCD 04/01 Q1019,0,10,0,10000,0,0,0,
2026-04-02 04:20:00,METAR EGGW 020420Z AUTO 32011KT 9999 NCD 04/01 Q1019,0,11,0,10000,0,0,0,
2026-04-02 03:50:00,METAR EGGW 020350Z AUTO 33013KT 9999 NCD 04/01 Q1019,0,13,0,10000,0,0,0,
2026-04-02 03:20:00,METAR EGGW 020320Z AUTO 32015KT 9999 NCD 05/01 Q1019,0,15,0,10000,0,0,0,
2026-04-02 02:50:00,METAR EGGW 020250Z AUTO 32016KT 9999 NCD 06/00 Q1019,0,16,0,10000,0,0,0,
2026-04-02 02:20:00,METAR EGGW 020220Z AUTO 32016KT 9999 NCD 07/01 Q1019,0,16,0,10000,0,0,0,
2026-04-02 01:50:00,METAR EGGW 020150Z AUTO 32014KT 9999 SCT026 07/01 Q1019,0,14,0,10000,0,0,0,
2026-04-02 01:20:00,METAR EGGW 020120Z AUTO 31011KT 9999 SCT009 BKN014 BKN021 09/07 Q1019,0,11,0,10000,0,0,0,
2026-04-02 00:50:00,METAR EGGW 020050Z AUTO 28010KT 9999 BKN016 OVC027 09/07 Q1019,0,10,0,10000,0,0,0,
2026-04-02 00:20:00,METAR EGGW 020020Z AUTO 27006KT 9999 BKN027 08/06 Q1019,0,6,0,10000,0,0,0,
2026-04-01 23:50:00,METAR EGGW 012350Z AUTO 28008KT 9999 FEW026 SCT037 BKN044 08/07 Q1019,0,8,0,10000,0,0,0,
2026-04-01 23:20:00,METAR EGGW 012320Z AUTO 28011KT 9999 FEW022 SCT030 OVC039 09/07 Q1019,0,11,0,10000,0,0,0,
2026-04-01 22:50:00,METAR EGGW 012250Z AUTO 27009KT 9999 SCT039 BKN046 09/06 Q1019,0,9,0,10000,0,0,0,
2026-04-01 22:20:00,METAR EGGW 012220Z AUTO 26009KT 9999 OVC040 09/06 Q1019,0,9,0,10000,0,0,0,
2026-04-01 21:50:00,METAR EGGW 012150Z AUTO 27010KT 9999 OVC040 10/06 Q1020,0,10,0,10000,0,0,0,
2026-04-01 21:20:00,METAR EGGW 012120Z AUTO 25008KT 9999 OVC042 09/05 Q1020,0,8,0,10000,0,0,0,
2026-04-01 20:50:00,METAR EGGW 012050Z AUTO 24006KT 9999 OVC040 09/05 Q1020,0,6,0,10000,0,0,0,
2026-04-01 20:20:00,METAR EGGW 012020Z AUTO 24005KT 9999 OVC040 09/05 Q1020,0,5,0,10000,0,0,0,
2026-04-01 19:50:00,METAR EGGW 011950Z AUTO 25006KT 9999 OVC038 10/05 Q1020,0,6,0,10000,0,0,0,
2026-04-01 19:20:00,METAR EGGW 011920Z AUTO 26008KT 9999 OVC038 10/05 Q1020,0,8,0,10000,0,0,0,
2026-04-01 18:50:00,METAR EGGW 011850Z AUTO 26008KT 9999 OVC039 10/05 Q1021,0,8,0,10000,0,0,0,
2026-04-01 18:20:00,METAR EGGW 011820Z AUTO 27008KT 9999 OVC040 10/05 Q1021,0,8,0,10000,0,0,0,
2026-04-01 17:50:00,METAR EGGW 011750Z AUTO 25005KT 9999 FEW036 OVC045 10/06 Q1021,0,5,0,10000,0,0,0,
2026-04-01 17:20:00,METAR EGGW 011720Z AUTO 24006KT 9999 BKN038 OVC046 10/06 Q1021,0,6,0,10000,0,0,0,
2026-04-01 16:50:00,METAR EGGW 011650Z AUTO 25006KT 9999 OVC046 11/06 Q1021,0,6,0,10000,0,0,0,
2026-04-01 16:20:00,METAR EGGW 011620Z AUTO 26007KT 230V290 9999 FEW034 OVC045 11/06 Q1021,0,7,0,10000,0,0,0,
2026-04-01 15:50:00,METAR EGGW 011550Z AUTO 25006KT 9999 OVC041 11/05 Q1021,0,6,0,10000,0,0,0,
2026-04-01 15:20:00,METAR EGGW 011520Z AUTO 27009KT 9999 OVC036 11/04 Q1022,0,9,0,10000,0,0,0,
2026-04-01 14:50:00,METAR EGGW 011450Z AUTO 27010KT 9999 OVC038 11/06 Q1022,0,10,0,10000,0,0,0,
2026-04-01 13:50:00,METAR EGGW 011350Z AUTO VRB01KT 9999 OVC042 12/03 Q1022,0,1,0,10000,0,0,0,
2026-04-01 13:20:00,METAR EGGW 011320Z AUTO 32004KT 230V010 9999 FEW037 OVC046 12/03 Q1023,0,4,0,10000,0,0,0,
2026-04-01 12:50:00,METAR EGGW 011250Z AUTO 30003KT 210V010 9999 FEW033 OVC045 12/04 Q1023,0,3,0,10000,0,0,0,
2026-04-01 12:20:00,METAR EGGW 011220Z AUTO 30005KT 240V020 9999 FEW035 OVC045 12/03 Q1023,0,5,0,10000,0,0,0,
2026-04-01 11:50:00,METAR EGGW 011150Z AUTO 31003KT 200V010 9999 FEW032 OVC044 11/04 Q1024,0,3,0,10000,0,0,0,
2026-04-01 11:20:00,METAR EGGW 011120Z AUTO 24004KT 220V280 9999 OVC042 11/06 Q1024,0,4,0,10000,0,0,0,
2026-04-01 10:50:00,METAR EGGW 011050Z AUTO 23004KT 9999 OVC040 10/07 Q1024,0,4,0,10000,0,0,0,
2026-04-01 10:20:00,METAR EGGW 011020Z AUTO 27005KT 9999 OVC037 10/07 Q1025,0,5,0,10000,0,0,0,
2026-04-01 09:50:00,METAR EGGW 010950Z AUTO 27005KT 9999 OVC037 10/06 Q1025,0,5,0,10000,0,0,0,
2026-04-01 09:20:00,METAR EGGW 010920Z AUTO 27005KT 9999 OVC038 10/06 Q1025,0,5,0,10000,0,0,0,
2026-04-01 08:50:00,METAR EGGW 010850Z AUTO 26005KT 9999 OVC038 10/06 Q1025,0,5,0,10000,0,0,0,
2026-04-01 08:20:00,METAR EGGW 010820Z AUTO 28005KT 240V310 9999 OVC039 10/05 Q1025,0,5,0,10000,0,0,0,
2026-04-01 07:50:00,METAR EGGW 010750Z AUTO 27005KT 9999 OVC039 09/06 Q1025,0,5,0,10000,0,0,0,
2026-04-01 07:20:00,METAR EGGW 010720Z AUTO 29005KT 260V320 9999 OVC040 09/06 Q1025,0,5,0,10000,0,0,0,
2026-04-01 06:50:00,METAR EGGW 010650Z AUTO 30005KT 9999 OVC040 09/06 Q1026,0,5,0,10000,0,0,0,
2026-04-01 06:20:00,METAR EGGW 010620Z AUTO 29005KT 9999 OVC041 09/05 Q1026,0,5,0,10000,0,0,0,
2026-04-01 05:50:00,METAR EGGW 010550Z AUTO 29004KT 250V310 9999 OVC042 09/05 Q1026,0,4,0,10000,0,0,0,
2026-04-01 05:20:00,METAR EGGW 010520Z AUTO 31005KT 9999 OVC043 09/04 Q1026,0,5,0,10000,0,0,0,
2026-04-01 04:50:00,METAR EGGW 010450Z AUTO 33005KT 9999 OVC043 08/04 Q1026,0,5,0,10000,0,0,0,
2026-04-01 04:20:00,METAR EGGW 010420Z AUTO 35003KT 290V010 9999 BKN042 08/04 Q1026,0,3,0,10000,0,0,0,
2026-04-01 03:50:00,METAR EGGW 010350Z AUTO 34004KT 9999 BKN042 08/04 Q1026,0,4,0,10000,0,0,0,
2026-04-01 03:20:00,METAR EGGW 010320Z AUTO 34005KT 9999 BKN041 08/04 Q1026,0,5,0,10000,0,0,0,
2026-04-01 02:50:00,METAR EGGW 010250Z AUTO 36005KT 9999 BKN042 08/04 Q1026,0,5,0,10000,0,0,0,
2026-04-01 02:20:00,METAR EGGW 010220Z AUTO 35006KT 9999 NCD 08/05 Q1027,0,6,0,10000,0,0,0,
2026-04-01 01:50:00,METAR EGGW 010150Z AUTO 33007KT 9999 BKN046 09/06 Q1027,0,7,0,10000,0,0,0,
2026-04-01 01:20:00,METAR EGGW 010120Z AUTO 32006KT 9999 FEW039 OVC047 09/07 Q1028,0,6,0,10000,0,0,0,
2026-04-01 00:50:00,METAR EGGW 010050Z AUTO 33007KT 9999 FEW036 BKN046 10/07 Q1028,0,7,0,10000,0,0,0,
2026-04-01 00:20:00,METAR EGGW 010020Z AUTO 35005KT 310V020 9999 FEW040 10/07 Q1028,0,5,0,10000,0,0,0,
2026-03-31 23:50:00,METAR EGGW 312350Z AUTO 33006KT 9999 NCD 10/08 Q1028,0,6,0,9999,0,0,0,
2026-03-31 23:20:00,METAR EGGW 312320Z AUTO 30008KT 9999 SCT031 11/08 Q1028,0,8,0,9999,0,0,0,
2026-03-31 22:50:00,METAR EGGW 312250Z AUTO 34003KT 9999 SCT031 10/07 Q1028,0,3,0,9999,0,0,0,
2026-03-31 22:20:00,METAR EGGW 312220Z AUTO 22003KT 180V290 9999 NCD 10/07 Q1028,0,3,0,9999,0,0,0,
2026-03-31 21:50:00,METAR EGGW 312150Z AUTO VRB01KT 9999 NCD 11/07 Q1028,0,1,0,9999,0,0,0,
2026-03-31 21:20:00,METAR EGGW 312120Z AUTO VRB01KT 9999 BKN040 11/08 Q1028,0,1,0,9999,0,0,0,
2026-03-31 20:50:00,METAR EGGW 312050Z AUTO VRB02KT 9999 BKN038 BKN048 12/08 Q1028,0,2,0,9999,0,0,0,
2026-03-31 20:20:00,METAR EGGW 312020Z AUTO 33003KT 280V020 9999 FEW041 13/08 Q1029,0,3,0,9999,0,0,0,
2026-03-31 19:50:00,METAR EGGW 311950Z AUTO VRB01KT 9999 SCT043 13/08 Q1029,0,1,0,9999,0,0,0,
2026-03-31 19:20:00,METAR EGGW 311920Z AUTO 05003KT 350V110 9999 SCT045 14/08 Q1028,0,3,0,9999,0,0,0,
2026-03-31 18:50:00,METAR EGGW 311850Z AUTO 05004KT 350V070 9999 FEW042 14/08 Q1028,0,4,0,9999,0,0,0,
2026-03-31 18:20:00,METAR EGGW 311820Z AUTO 04004KT 300V070 9999 BKN043 14/08 Q1028,0,4,0,9999,0,0,0,
2026-03-31 17:50:00,METAR EGGW 311750Z AUTO 36004KT 330V030 9999 BKN043 15/08 Q1028,0,4,0,9999,0,0,0,
2026-03-31 17:20:00,METAR EGGW 311720Z AUTO 35007KT 290V030 9999 SCT047 16/08 Q1028,0,7,0,9999,0,0,0,
2026-03-31 16:50:00,METAR EGGW 311650Z AUTO 33007KT 9999 NCD 16/07 Q1028,0,7,0,9999,0,0,0,
2026-03-31 16:20:00,METAR EGGW 311620Z AUTO 35009KT 300V020 9999 NCD 16/07 Q1028,0,9,0,9999,0,0,0,
2026-03-31 15:50:00,METAR EGGW 311550Z AUTO 32008G18KT 9999 FEW037 16/08 Q1028,0,8,1,9999,0,0,0,
2026-03-31 15:20:00,METAR EGGW 311520Z AUTO 31008KT 9999 FEW038 16/09 Q1028,0,8,0,9999,0,0,0,
2026-03-31 14:50:00,METAR EGGW 311450Z AUTO 34010KT 310V020 9999 FEW038 16/09 Q1028,0,10,0,9999,0,0,0,
2026-03-31 14:20:00,METAR EGGW 311420Z AUTO 33011KT 9999 SCT032 BKN039 16/09 Q1028,0,11,0,9999,0,0,0,
2026-03-31 13:50:00,METAR EGGW 311350Z AUTO 33011KT 290V010 9999 FEW025 BKN032 BKN040 16/10 Q1029,0,11,0,9999,0,0,0,
2026-03-31 13:20:00,METAR EGGW 311320Z AUTO 33007KT 290V010 9999 SCT022 BKN027 BKN032 15/10 Q1029,0,7,0,9999,0,0,0,
2026-03-31 12:50:00,METAR EGGW 311250Z AUTO 31007KT 270V350 9999 SCT021 BKN026 BKN031 15/10 Q1029,0,7,0,9999,0,0,0,
2026-03-31 12:20:00,METAR EGGW 311220Z AUTO 34006KT 300V010 9999 BKN022 OVC028 13/09 Q1029,0,6,0,9999,0,0,0,
2026-03-31 11:50:00,METAR EGGW 311150Z AUTO 34009KT 300V360 9999 OVC021 13/09 Q1030,0,9,0,9999,0,0,0,
2026-03-31 11:20:00,METAR EGGW 311120Z AUTO 34012KT 9999 BKN018 13/09 Q1030,0,12,0,9999,0,0,0,
2026-03-31 10:50:00,METAR EGGW 311050Z AUTO 33012KT 9999 SCT015 13/09 Q1030,0,12,0,9999,0,0,0,
2026-03-31 10:20:00,METAR EGGW 311020Z AUTO 33010KT 9999 OVC012 12/09 Q1030,0,10,0,9999,0,0,0,
2026-03-31 09:50:00,METAR EGGW 310950Z AUTO 32009KT 9999 OVC011 11/08 Q1030,0,9,0,9999,0,0,0,
2026-03-31 09:20:00,METAR EGGW 310920Z AUTO 31010KT 9999 OVC011 10/08 Q1030,0,10,0,9999,0,0,0,
2026-03-31 08:50:00,METAR EGGW 310850Z AUTO 30013KT 9999 OVC012 10/07 Q1029,0,13,0,9999,0,0,0,
2026-03-31 08:20:00,METAR EGGW 310820Z AUTO 29013KT 9999 OVC013 10/07 Q1029,0,13,0,9999,0,0,0,
2026-03-31 07:50:00,METAR EGGW 310750Z AUTO 28009KT 250V310 9999 OVC013 09/06 Q1029,0,9,0,9999,0,0,0,
2026-03-31 07:20:00,METAR EGGW 310720Z AUTO 28010KT 9999 OVC011 09/06 Q1029,0,10,0,9999,0,0,0,
2026-03-31 06:50:00,METAR EGGW 310650Z AUTO 28011KT 9999 BKN014 BKN019 08/06 Q1029,0,11,0,9999,0,0,0,
2026-03-31 06:20:00,METAR EGGW 310620Z AUTO 27011KT 9999 BKN015 BKN042 08/05 Q1029,0,11,0,9999,0,0,0,
2026-03-31 05:50:00,METAR EGGW 310550Z AUTO 28009KT 9999 OVC015 08/05 Q1029,0,9,0,9999,0,0,0,
2026-03-31 05:20:00,METAR EGGW 310520Z AUTO 28010KT 9999 BKN017 OVC033 08/05 Q1029,0,10,0,9999,0,0,0,
2026-03-31 04:50:00,METAR EGGW 310450Z AUTO 28008KT 9999 BKN022 OVC029 08/05 Q1028,0,8,0,9999,0,0,0,
2026-03-31 04:20:00,METAR EGGW 310420Z AUTO 28009KT 9999 SCT016 OVC026 07/04 Q1028,0,9,0,9999,0,0,0,
2026-03-31 03:50:00,METAR EGGW 310350Z AUTO 27009KT 9999 BKN018 OVC038 07/04 Q1028,0,9,0,9999,0,0,0,
2026-03-31 03:20:00,METAR EGGW 310320Z AUTO 28008KT 9999 OVC041 07/04 Q1028,0,8,0,9999,0,0,0,
2026-03-31 02:50:00,METAR EGGW 310250Z AUTO 29009KT 9999 FEW025 BKN030 BKN036 07/04 Q1029,0,9,0,9999,0,0,0,
2026-03-31 02:20:00,METAR EGGW 310220Z AUTO 29008KT 9999 FEW033 OVC048 07/04 Q1029,0,8,0,9999,0,0,0,
2026-03-31 01:50:00,METAR EGGW 310150Z AUTO 29008KT 9999 SCT032 07/03 Q1029,0,8,0,9999,0,0,0,
2026-03-31 01:20:00,METAR EGGW 310120Z AUTO 29009KT 9999 BKN033 08/03 Q1029,0,9,0,9999,0,0,0,
2026-03-31 00:50:00,METAR EGGW 310050Z AUTO 29009KT 9999 OVC033 08/03 Q1029,0,9,0,9999,0,0,0,
2026-03-31 00:20:00,METAR EGGW 310020Z AUTO 29009KT 9999 OVC031 08/03 Q1029,0,9,0,9999,0,0,0,
2026-03-30 23:50:00,METAR EGGW 302350Z AUTO 29009KT 9999 OVC032 08/03 Q1028,0,9,0,10000,0,0,0,
2026-03-30 23:20:00,METAR EGGW 302320Z AUTO 30008KT 9999 OVC036 08/03 Q1028,0,8,0,10000,0,0,0,
2026-03-30 22:50:00,METAR EGGW 302250Z AUTO 29007KT 9999 BKN042 08/03 Q1028,0,7,0,10000,0,0,0,
2026-03-30 22:20:00,METAR EGGW 302220Z AUTO 30009KT 9999 FEW048 07/02 Q1028,0,9,0,10000,0,0,0,
2026-03-30 21:50:00,METAR EGGW 302150Z AUTO 32009KT 9999 NCD 08/02 Q1028,0,9,0,10000,0,0,0,
2026-03-30 21:20:00,METAR EGGW 302120Z AUTO 30008KT 9999 NCD 07/02 Q1028,0,8,0,10000,0,0,0,
2026-03-30 20:50:00,METAR EGGW 302050Z AUTO 32011KT 9999 NCD 08/02 Q1028,0,11,0,10000,0,0,0,
2026-03-30 20:20:00,METAR EGGW 302020Z AUTO 32013KT 9999 NCD 08/02 Q1027,0,13,0,10000,0,0,0,
2026-03-30 19:50:00,METAR EGGW 301950Z AUTO 33012KT 9999 NCD 09/01 Q1027,0,12,0,10000,0,0,0,
2026-03-30 19:20:00,METAR EGGW 301920Z AUTO 32014KT 9999 NCD 08/01 Q1026,0,14,0,10000,0,0,0,
2026-03-30 18:50:00,METAR EGGW 301850Z AUTO 32015KT 9999 NCD 09/01 Q1026,0,15,0,10000,0,0,0,
2026-03-30 18:20:00,METAR EGGW 301820Z AUTO 33014KT 9999 NCD 09/01 Q1026,0,14,0,10000,0,0,0,
2026-03-30 17:50:00,METAR EGGW 301750Z AUTO 32016KT 9999 NCD 09/01 Q1026,0,16,0,10000,0,0,0,
2026-03-30 17:20:00,METAR EGGW 301720Z AUTO 32019KT 9999 NCD 10/01 Q1026,0,19,0,10000,0,0,0,
2026-03-30 16:50:00,METAR EGGW 301650Z AUTO 32018KT 9999 NCD 10/01 Q1025,0,18,0,10000,0,0,0,
2026-03-30 16:20:00,METAR EGGW 301620Z AUTO 33017KT 9999 NCD 10/01 Q1025,0,17,0,10000,0,0,0,
2026-03-30 15:50:00,METAR EGGW 301550Z AUTO 32019G29KT 9999 NCD 11/01 Q1025,0,19,1,10000,0,0,0,
2026-03-30 15:20:00,METAR EGGW 301520Z AUTO 32022KT 9999 FEW047 11/01 Q1024,0,22,0,10000,0,0,0,
2026-03-30 14:50:00,METAR EGGW 301450Z AUTO 32020KT 9999 FEW042 10/01 Q1024,0,20,0,10000,0,0,0,
2026-03-30 14:20:00,METAR EGGW 301420Z AUTO 31017KT 9999 SCT040 11/02 Q1024,0,17,0,10000,0,0,0,
2026-03-30 13:50:00,METAR EGGW 301350Z AUTO 32020KT 9999 FEW038 10/03 Q1024,0,20,0,10000,0,0,0,
2026-03-30 13:20:00,METAR EGGW 301320Z AUTO 32021G33KT 9999 -RA BKN036 BKN046 09/02 Q1024,0,21,1,10000,0,0,0,-RA
2026-03-30 12:50:00,METAR EGGW 301250Z AUTO 31021KT 9999 FEW040 10/01 Q1024,0,21,0,10000,0,0,0,
2026-03-30 12:20:00,METAR EGGW 301220Z AUTO 31018KT 9999 SCT037 SCT047 09/03 Q1023,0,18,0,10000,0,0,0,
2026-03-30 11:50:00,METAR EGGW 301150Z AUTO 33014KT 9999 -RA SCT035 SCT045 09/05 Q1023,0,14,0,10000,0,0,0,-RA
2026-03-30 11:20:00,METAR EGGW 301120Z AUTO 31018KT 9999 SCT036 BKN044 11/02 Q1023,0,18,0,10000,0,0,0,
2026-03-30 10:50:00,METAR EGGW 301050Z AUTO 30015KT 9999 SCT034 BKN046 09/03 Q1023,0,15,0,10000,0,0,0,
2026-03-30 10:20:00,METAR EGGW 301020Z AUTO 31014KT 280V340 9999 SCT033 BKN043 09/03 Q1023,0,14,0,10000,0,0,0,
2026-03-30 09:50:00,METAR EGGW 300950Z AUTO 31020KT 9999 SCT032 SCT040 08/03 Q1023,0,20,0,10000,0,0,0,
2026-03-30 09:20:00,METAR EGGW 300920Z AUTO 31017G27KT 9999 BKN034 09/02 Q1022,0,17,1,10000,0,0,0,
2026-03-30 08:50:00,METAR EGGW 300850Z AUTO 29018KT 9999 BKN044 08/03 Q1022,0,18,0,10000,0,0,0,
2026-03-30 08:20:00,METAR EGGW 300820Z AUTO 28014KT 9999 BKN040 BKN046 07/03 Q1022,0,14,0,10000,0,0,0,
2026-03-30 07:50:00,METAR EGGW 300750Z AUTO 28013KT 9999 BKN040 07/03 Q1022,0,13,0,10000,0,0,0,
2026-03-30 07:20:00,METAR EGGW 300720Z AUTO 27012KT 9999 FEW045 06/03 Q1021,0,12,0,10000,0,0,0,
2026-03-30 06:50:00,METAR EGGW 300650Z AUTO 28013KT 9999 NCD 06/03 Q1021,0,13,0,10000,0,0,0,
2026-03-30 06:20:00,METAR EGGW 300620Z AUTO 28015KT 9999 FEW038 06/02 Q1021,0,15,0,10000,0,0,0,
2026-03-30 05:50:00,METAR EGGW 300550Z AUTO 28012KT 9999 SCT036 05/02 Q1021,0,12,0,10000,0,0,0,
2026-03-30 05:20:00,METAR EGGW 300520Z AUTO 29014KT 9999 NCD 06/02 Q1021,0,14,0,10000,0,0,0,
2026-03-30 04:50:00,METAR EGGW 300450Z AUTO 28011KT 9999 BKN042 05/01 Q1020,0,11,0,10000,0,0,0,
2026-03-30 04:20:00,METAR EGGW 300420Z AUTO 28015KT 9999 BKN040 05/02 Q1020,0,15,0,10000,0,0,0,
2026-03-30 03:50:00,METAR EGGW 300350Z AUTO 27013KT 9999 BKN037 05/02 Q1020,0,13,0,10000,0,0,0,
2026-03-30 03:20:00,METAR EGGW 300320Z AUTO 27012KT 9999 OVC049 05/02 Q1020,0,12,0,10000,0,0,0,
2026-03-30 02:50:00,METAR EGGW 300250Z AUTO 28009KT 9999 NCD 05/02 Q1020,0,9,0,10000,0,0,0,
2026-03-30 02:20:00,METAR EGGW 300220Z AUTO 28011KT 9999 NCD 06/03 Q1020,0,11,0,10000,0,0,0,
2026-03-30 01:50:00,METAR EGGW 300150Z AUTO 29014KT 9999 NCD 07/04 Q1020,0,14,0,10000,0,0,0,
2026-03-30 01:20:00,METAR EGGW 300120Z AUTO 28012KT 9999 NCD 07/04 Q1020,0,12,0,10000,0,0,0,
2026-03-30 00:50:00,METAR EGGW 300050Z AUTO 27013KT 9999 NCD 07/05 Q1019,0,13,0,10000,0,0,0,
2026-03-30 00:20:00,METAR EGGW 300020Z AUTO 27013KT 9999 NCD 07/05 Q1020,0,13,0,10000,0,0,0,
2026-03-29 23:50:00,METAR EGGW 292350Z AUTO 28012KT 9999 NCD 07/05 Q1020,0,12,0,10000,0,0,0,
2026-03-29 23:20:00,METAR EGGW 292320Z AUTO 27011KT 9999 FEW046 07/06 Q1019,0,11,0,10000,0,0,0,
2026-03-29 22:50:00,METAR EGGW 292250Z AUTO 27012KT 9999 FEW041 08/06 Q1019,0,12,0,10000,0,0,0,
2026-03-29 22:20:00,METAR EGGW 292220Z AUTO 27013KT 9999 NCD 08/06 Q1019,0,13,0,10000,0,0,0,
2026-03-29 21:50:00,METAR EGGW 292150Z AUTO 26015KT 9999 NCD 08/06 Q1019,0,15,0,10000,0,0,0,
2026-03-29 21:20:00,METAR EGGW 292120Z AUTO 26017KT 9999 FEW024 08/07 Q1019,0,17,0,10000,0,0,0,
2026-03-29 20:50:00,METAR EGGW 292050Z AUTO 26017KT 220V280 9999 SCT014 09/07 Q1019,0,17,0,10000,0,0,0,
2026-03-29 20:20:00,METAR EGGW 292020Z AUTO 25015KT 9999 FEW016 08/06 Q1019,0,15,0,10000,0,0,0,
2026-03-29 19:50:00,METAR EGGW 291950Z AUTO 25017KT 9999 BKN012 BKN025 08/07 Q1019,0,17,0,10000,0,0,0,
2026-03-29 19:20:00,METAR EGGW 291920Z AUTO 25018KT 9999 BKN011 08/07 Q1019,0,18,0,10000,0,0,0,
2026-03-29 18:50:00,METAR EGGW 291850Z AUTO 24018G29KT 9999 BKN010 08/07 Q1019,0,18,1,10000,0,0,0,
2026-03-29 18:20:00,METAR EGGW 291820Z 24018KT 6000 -RA OVC011 08/07 Q1020,0,18,0,6000,0,0,0,-RA
2026-03-29 17:50:00,METAR EGGW 291750Z 23014KT 9000 -RA OVC012 08/06 Q1020,0,14,0,9000,0,0,0,-RA
2026-03-29 17:20:00,METAR EGGW 291720Z AUTO 23014KT 9999 -RADZ OVC013 07/06 Q1021 REDZ,0,14,0,10000,0,0,0,"-RA,DZ"
2026-03-29 16:50:00,METAR EGGW 291650Z AUTO 22015KT 8000 -RA OVC016 07/06 Q1021,0,15,0,8000,0,0,0,-RA
2026-03-29 16:20:00,METAR EGGW 291620Z AUTO 23017G28KT 9999 -RA OVC017 07/05 Q1021,0,17,1,10000,0,0,0,-RA
2026-03-29 15:20:00,METAR EGGW 291520Z AUTO 23016KT 9999 OVC017 07/05 Q1022,0,16,0,10000,0,0,0,
2026-03-29 14:50:00,METAR EGGW 291450Z AUTO 22018KT 9999 SCT018 BKN026 07/05 Q1023,0,18,0,10000,0,0,0,
2026-03-29 14:20:00,METAR EGGW 291420Z AUTO 23016KT 9999 -RA SCT020 BKN029 07/05 Q1024,0,16,0,10000,0,0,0,-RA
2026-03-29 13:50:00,METAR EGGW 291350Z AUTO 24018G28KT 9000 -RA OVC024 07/04 Q1025,0,18,1,9000,0,0,0,-RA
2026-03-29 13:20:00,METAR EGGW 291320Z AUTO 23015KT 9999 BKN026 08/03 Q1025,0,15,0,10000,0,0,0,
2026-03-29 12:50:00,METAR EGGW 291250Z AUTO 24016KT 9999 OVC029 08/03 Q1026,0,16,0,10000,0,0,0,
2026-03-29 12:20:00,METAR EGGW 291220Z AUTO 23014KT 200V260 9999 OVC037 08/02 Q1026,0,14,0,10000,0,0,0,
2026-03-29 11:50:00,METAR EGGW 291150Z AUTO 24014KT 9999 FEW035 BKN044 08/02 Q1027,0,14,0,10000,0,0,0,
2026-03-29 11:20:00,METAR EGGW 291120Z AUTO 24015KT 9999 FEW029 08/02 Q1027,0,15,0,10000,0,0,0,
2026-03-29 10:50:00,METAR EGGW 291050Z AUTO 24016KT 9999 FEW028 08/03 Q1028,0,16,0,10000,0,0,0,
2026-03-29 10:20:00,METAR EGGW 291020Z AUTO 25011G22KT 220V280 9999 NCD 08/02 Q1028,0,11,1,10000,0,0,0,
2026-03-29 09:50:00,METAR EGGW 290950Z AUTO 23010KT 9999 NCD 07/02 Q1029,0,10,0,10000,0,0,0,
2026-03-29 09:20:00,METAR EGGW 290920Z AUTO 22010KT 9999 NCD 06/02 Q1029,0,10,0,10000,0,0,0,
2026-03-29 08:50:00,METAR EGGW 290850Z AUTO 22008KT 9999 NCD 06/02 Q1029,0,8,0,10000,0,0,0,
2026-03-29 08:20:00,METAR EGGW 290820Z AUTO 22007KT 9999 NCD 05/02 Q1029,0,7,0,10000,0,0,0,
2026-03-29 07:50:00,METAR EGGW 290750Z AUTO 22005KT 9999 NCD 05/02 Q1029,0,5,0,10000,0,0,0,
2026-03-29 07:20:00,METAR EGGW 290720Z AUTO 25007KT 9999 NCD 06/02 Q1030,0,7,0,10000,0,0,0,
2026-03-29 06:50:00,METAR EGGW 290650Z AUTO 27011KT 9999 NCD 05/01 Q1030,0,11,0,10000,0,0,0,
2026-03-29 06:20:00,METAR EGGW 290620Z AUTO 25008KT 9999 NCD 03/00 Q1029,0,8,0,10000,0,0,0,
2026-03-29 05:50:00,METAR EGGW 290550Z AUTO 27012KT 9999 NCD 03/00 Q1030,0,12,0,10000,0,0,0,
2026-03-29 05:20:00,METAR EGGW 290520Z AUTO 28008KT 9999 NCD 02/M00 Q1030,0,8,0,10000,0,0,0,
2026-03-29 04:50:00,METAR EGGW 290450Z AUTO 27009KT 9999 NCD 02/M00 Q1030,0,9,0,10000,0,0,0,
2026-03-29 04:20:00,METAR EGGW 290420Z AUTO 28009KT 9999 NCD 02/M00 Q1030,0,9,0,10000,0,0,0,
2026-03-29 03:50:00,METAR EGGW 290350Z AUTO 28010KT 9999 NCD 02/M00 Q1030,0,10,0,10000,0,0,0,
2026-03-29 03:20:00,METAR EGGW 290320Z AUTO 29011KT 9999 NCD 03/M00 Q1030,0,11,0,10000,0,0,0,
2026-03-29 02:50:00,METAR EGGW 290250Z AUTO 29010KT 9999 NCD 03/M00 Q1030,0,10,0,10000,0,0,0,
2026-03-29 02:20:00,METAR EGGW 290220Z AUTO 29009KT 9999 NCD 02/M00 Q1030,0,9,0,10000,0,0,0,
2026-03-29 01:50:00,METAR EGGW 290150Z AUTO 28009KT 9999 NCD 02/M00 Q1030,0,9,0,10000,0,0,0,
2026-03-29 01:20:00,METAR EGGW 290120Z AUTO 29008KT 9999 NCD 03/M00 Q1030,0,8,0,10000,0,0,0,
2026-03-29 00:50:00,METAR EGGW 290050Z AUTO 30010KT 9999 NCD 03/M00 Q1030,0,10,0,10000,0,0,0,
2026-03-29 00:20:00,METAR EGGW 290020Z AUTO 29009KT 9999 NCD 03/M00 Q1030,0,9,0,10000,0,0,0,
2026-03-28 23:50:00,METAR EGGW 282350Z AUTO 30011KT 9999 NCD 03/M00 Q1030,0,11,0,10000,0,0,0,
2026-03-28 23:20:00,METAR EGGW 282320Z AUTO 30012KT 9999 NCD 03/M00 Q1030,0,12,0,10000,0,0,0,
2026-03-28 22:50:00,METAR EGGW 282250Z AUTO 30011KT 9999 NCD 03/M00 Q1029,0,11,0,10000,0,0,0,
2026-03-28 22:20:00,METAR EGGW 282220Z AUTO 30012KT 9999 NCD 04/M01 Q1029,0,12,0,10000,0,0,0,
2026-03-28 21:50:00,METAR EGGW 282150Z AUTO 29013KT 9999 NCD 04/M00 Q1029,0,13,0,10000,0,0,0,
2026-03-28 21:20:00,METAR EGGW 282120Z AUTO 30010KT 9999 NCD 04/M00 Q1029,0,10,0,10000,0,0,0,
2026-03-28 20:50:00,METAR EGGW 282050Z AUTO 31012KT 9999 NCD 05/M01 Q1029,0,12,0,10000,0,0,0,
2026-03-28 20:20:00,METAR EGGW 282020Z AUTO 31013KT 9999 NCD 05/M01 Q1029,0,13,0,10000,0,0,0,
2026-03-28 19:50:00,METAR EGGW 281950Z AUTO 31015KT 9999 NCD 05/M01 Q1028,0,15,0,10000,0,0,0,
2026-03-28 19:20:00,METAR EGGW 281920Z AUTO 31014KT 9999 NCD 06/M01 Q1028,0,14,0,10000,0,0,0,
2026-03-28 18:50:00,METAR EGGW 281850Z AUTO 32015KT 9999 NCD 06/M01 Q1027,0,15,0,10000,0,0,0,
2026-03-28 18:20:00,METAR EGGW 281820Z AUTO 32014KT 9999 FEW047 06/M00 Q1027,0,14,0,10000,0,0,0,
2026-03-28 17:50:00,METAR EGGW 281750Z AUTO 32014KT 9999 NCD 06/00 Q1027,0,14,0,10000,0,0,0,
2026-03-28 17:20:00,METAR EGGW 281720Z AUTO 32016KT 9999 -RA FEW036 06/01 Q1026,0,16,0,10000,0,0,0,-RA
2026-03-28 16:50:00,METAR EGGW 281650Z 32022KT 9999 -SHRA FEW045 07/M02 Q1026,0,22,0,10000,0,0,0,RA
2026-03-28 16:20:00,METAR EGGW 281620Z AUTO 32020KT 9999 NCD 09/M03 Q1025,0,20,0,10000,0,0,0,
2026-03-28 15:50:00,METAR EGGW 281550Z AUTO 33019KT 9999 NCD 09/M02 Q1025,0,19,0,10000,0,0,0,
2026-03-28 15:20:00,METAR EGGW 281520Z AUTO 32018KT 9999 //////TCU 10/M03 Q1024,0,18,0,10000,0,0,0,
2026-03-28 14:50:00,METAR EGGW 281450Z AUTO 31021KT 9999 NCD 09/M02 Q1024,0,21,0,10000,0,0,0,
2026-03-28 14:20:00,METAR EGGW 281420Z AUTO 32018KT 9999 //////CB 10/M03 Q1024,0,18,0,10000,0,0,0,
2026-03-28 13:50:00,METAR EGGW 281350Z AUTO 31017KT 9999 NCD 10/M02 Q1024,0,17,0,10000,0,0,0,
2026-03-28 13:20:00,METAR EGGW 281320Z AUTO 30017KT 9999 NCD 10/M02 Q1024,0,17,0,10000,0,0,0,
2026-03-28 12:50:00,METAR EGGW 281250Z AUTO 31018KT 9999 NCD 09/M03 Q1024,0,18,0,10000,0,0,0,
2026-03-28 12:20:00,METAR EGGW 281220Z AUTO 32016KT 9999 SCT048 09/M02 Q1024,0,16,0,10000,0,0,0,
2026-03-28 11:50:00,METAR EGGW 281150Z AUTO 32018KT 9999 SCT046 08/M02 Q1024,0,18,0,10000,0,0,0,
2026-03-28 11:20:00,METAR EGGW 281120Z AUTO 30017KT 9999 BKN041 09/M01 Q1024,0,17,0,10000,0,0,0,
2026-03-28 10:50:00,METAR EGGW 281050Z AUTO 30018KT 9999 BKN038 BKN047 08/M01 Q1023,0,18,0,10000,0,0,0,
2026-03-28 10:20:00,METAR EGGW 281020Z AUTO 32018KT 290V350 9999 SCT038 08/M01 Q1023,0,18,0,10000,0,0,0,
2026-03-28 09:50:00,METAR EGGW 280950Z AUTO 31017KT 9999 SCT036 08/M00 Q1023,0,17,0,10000,0,0,0,
2026-03-28 09:20:00,METAR EGGW 280920Z AUTO 30018KT 9999 FEW031 07/M00 Q1023,0,18,0,10000,0,0,0,
2026-03-28 08:50:00,METAR EGGW 280850Z AUTO 29016KT 9999 NCD 06/01 Q1023,0,16,0,10000,0,0,0,
2026-03-28 08:20:00,METAR EGGW 280820Z AUTO 28014KT 9999 NCD 05/01 Q1022,0,14,0,10000,0,0,0,
2026-03-28 07:50:00,METAR EGGW 280750Z AUTO 28013KT 9999 NCD 04/00 Q1022,0,13,0,10000,0,0,0,
2026-03-28 07:20:00,METAR EGGW 280720Z AUTO 29013KT 9999 NCD 04/00 Q1022,0,13,0,10000,0,0,0,
2026-03-28 06:50:00,METAR EGGW 280650Z AUTO 28014KT 9999 NCD 03/M00 Q1022,0,14,0,10000,0,0,0,
2026-03-28 06:20:00,METAR EGGW 280620Z AUTO 27012KT 9999 NCD 03/M00 Q1021,0,12,0,10000,0,0,0,
2026-03-28 05:50:00,METAR EGGW 280550Z AUTO 28010KT 9999 NCD 02/M01 Q1021,0,10,0,10000,0,0,0,
2026-03-28 05:20:00,METAR EGGW 280520Z AUTO 29010KT 9999 NCD 02/M01 Q1021,0,10,0,10000,0,0,0,
2026-03-28 04:50:00,METAR EGGW 280450Z AUTO 28010KT 9999 NCD 03/M01 Q1021,0,10,0,10000,0,0,0,
2026-03-28 04:20:00,METAR EGGW 280420Z AUTO 29011KT 9999 NCD 03/M00 Q1021,0,11,0,10000,0,0,0,
2026-03-28 03:50:00,METAR EGGW 280350Z AUTO 29011KT 9999 NCD 03/M00 Q1021,0,11,0,10000,0,0,0,
2026-03-28 03:20:00,METAR EGGW 280320Z AUTO 30014KT 9999 NCD 04/00 Q1020,0,14,0,10000,0,0,0,
2026-03-28 02:50:00,METAR EGGW 280250Z AUTO 30011KT 9999 NCD 04/01 Q1020,0,11,0,10000,0,0,0,
2026-03-28 02:20:00,METAR EGGW 280220Z AUTO 30012KT 9999 NCD 05/02 Q1020,0,12,0,10000,0,0,0,
2026-03-28 01:50:00,METAR EGGW 280150Z AUTO 29009KT 9999 NCD 05/02 Q1020,0,9,0,10000,0,0,0,
2026-03-28 01:20:00,METAR EGGW 280120Z AUTO 31009KT 9999 NCD 05/02 Q1020,0,9,0,10000,0,0,0,
2026-03-28 00:50:00,METAR EGGW 280050Z AUTO 32011KT 9999 NCD 05/02 Q1020,0,11,0,10000,0,0,0,
2026-03-28 00:20:00,METAR EGGW 280020Z AUTO 31010KT 9999 NCD 06/02 Q1019,0,10,0,10000,0,0,0,
2026-03-27 23:50:00,METAR EGGW 272350Z AUTO 31009KT 9999 NCD 06/02 Q1019,0,9,0,10000,0,0,0,
2026-03-27 23:20:00,METAR EGGW 272320Z AUTO 31011KT 9999 FEW040 SCT047 06/03 Q1019,0,11,0,10000,0,0,0,
2026-03-27 22:50:00,METAR EGGW 272250Z AUTO 31012KT 9999 FEW045 06/03 Q1019,0,12,0,10000,0,0,0,
2026-03-27 22:20:00,METAR EGGW 272220Z AUTO 29010KT 9999 NCD 07/04 Q1018,0,10,0,10000,0,0,0,
2026-03-27 21:50:00,METAR EGGW 272150Z AUTO 30010KT 9999 NCD 07/05 Q1018,0,10,0,10000,0,0,0,
2026-03-27 21:20:00,METAR EGGW 272120Z AUTO 30009KT 9999 NCD 07/05 Q1018,0,9,0,10000,0,0,0,
2026-03-27 20:50:00,METAR EGGW 272050Z AUTO 32009KT 9999 NCD 07/04 Q1018,0,9,0,10000,0,0,0,
2026-03-27 20:20:00,METAR EGGW 272020Z AUTO 31009KT 9999 BKN044 07/05 Q1018,0,9,0,10000,0,0,0,
2026-03-27 19:50:00,METAR EGGW 271950Z AUTO 31009KT 9999 FEW025 BKN045 08/06 Q1018,0,9,0,10000,0,0,0,
2026-03-27 19:20:00,METAR EGGW 271920Z AUTO 31010KT 9999 FEW021 BKN041 08/07 Q1017,0,10,0,10000,0,0,0,
2026-03-27 18:50:00,METAR EGGW 271850Z AUTO 33009KT 9999 FEW008 SCT012 BKN019 08/07 Q1017,0,9,0,10000,0,0,0,
2026-03-27 18:20:00,METAR EGGW 271820Z AUTO 32011KT 9999 SCT011 OVC017 09/08 Q1017,0,11,0,10000,0,0,0,
2026-03-27 17:50:00,METAR EGGW 271750Z AUTO 33015KT 9999 BKN008/// BKN013/// OVC020/// //////TCU 10/08 Q1016,0,15,0,10000,0,0,0,
2026-03-27 17:20:00,METAR EGGW 271720Z 24010KT 4400 -RADZ BKN008 11/10 Q1016,0,10,0,4400,0,0,0,"-RA,DZ"
2026-03-27 16:50:00,METAR EGGW 271650Z 23007KT 5000 -DZ OVC008 11/10 Q1016,0,7,0,5000,0,0,0,DZ
2026-03-27 16:20:00,METAR EGGW 271620Z COR 23009KT 7000 -RA OVC009 11/10 Q1016,0,9,0,7000,0,0,0,-RA
2026-03-25 14:50:00,METAR EGGW 251450Z AUTO 30017KT 9999 NCD 06/M01 Q1010,0,17,0,10000,0,0,0,
2026-03-25 14:20:00,METAR EGGW 251420Z COR 31023G35KT 9999 VCSH FEW036 07/M01 Q1010,0,23,1,10000,0,0,0,"SH,VC"
2026-03-25 13:50:00,METAR EGGW 251350Z 30020KT 9999 VCSH SCT034TCU 07/M00 Q1010,0,20,0,10000,0,0,0,"SH,VC"
2026-03-25 13:20:00,METAR EGGW 251320Z COR 31019KT 9999 VCSH FEW049TCU 06/M00 Q1010,0,19,0,10000,0,0,0,"SH,VC"
2026-03-25 12:50:00,METAR EGGW 251250Z COR 32021G37KT 9999 -RA SCT041TCU 04/M01 Q1009,0,21,1,10000,0,0,0,-RA
2026-03-25 12:20:00,METAR EGGW 251220Z COR 29018G33KT 9999 VCSH FEW035CB SCT047 07/01 Q1008,0,18,1,10000,0,0,0,"SH,VC"
2026-03-25 11:50:00,METAR EGGW 251150Z COR 32020G31KT 9999 -RA SCT035TCU BKN044 04/01 Q1009,0,20,1,10000,0,0,0,-RA
2026-03-25 11:20:00,METAR EGGW 251120Z AUTO 31025KT 9999 FEW036 07/M01 Q1008,0,25,0,10000,0,0,0,
2026-03-25 10:50:00,METAR EGGW 251050Z AUTO 32022KT 9999 FEW028 SCT033 BKN039 06/01 Q1008,0,22,0,10000,0,0,0,
2026-03-25 10:20:00,METAR EGGW 251020Z AUTO 30020KT 9999 FEW021 SCT026 05/01 Q1008,0,20,0,10000,0,0,0,
2026-03-25 09:50:00,METAR EGGW 250950Z AUTO 30022G32KT 9999 FEW020 BKN025 BKN030 05/02 Q1007,0,22,1,10000,0,0,0,
2026-03-25 09:20:00,METAR EGGW 250920Z AUTO 30017KT 9999 SCT020/// SCT025/// //////TCU 05/02 Q1007,0,17,0,10000,0,0,0,
2026-03-25 08:50:00,METAR EGGW 250850Z AUTO 30015KT 9999 -RA FEW014/// SCT022/// BKN032/// //////TCU 04/02 Q1007,0,15,0,10000,0,0,0,-RA
2026-03-25 08:20:00,METAR EGGW 250820Z COR 32018KT 9000 -RA BKN015 BKN020 OVC027 03/02 Q1007 RERA,0,18,0,9000,0,0,0,"-RA,RA"
2026-03-25 07:50:00,METAR EGGW 250750Z AUTO 29017KT 8000 -RA SCT017 05/02 Q1006,0,17,0,8000,0,0,0,-RA
2026-03-25 07:20:00,METAR EGGW 250720Z AUTO 30014KT 9999 NCD 05/02 Q1005,0,14,0,10000,0,0,0,
2026-03-25 06:50:00,METAR EGGW 250650Z AUTO 30014KT 9999 SCT049 05/02 Q1005,0,14,0,10000,0,0,0,
2026-03-25 06:20:00,METAR EGGW 250620Z AUTO 30014KT 9999 SCT022 BKN030 05/02 Q1004,0,14,0,10000,0,0,0,
2026-03-25 05:50:00,METAR EGGW 250550Z AUTO 30017KT 9999 BKN018/// //////TCU 05/02 Q1003,0,17,0,10000,0,0,0,
2026-03-25 05:20:00,METAR EGGW 250520Z AUTO 29016KT 9999 -RA BKN022 05/02 Q1003,0,16,0,10000,0,0,0,-RA
2026-03-25 04:50:00,METAR EGGW 250450Z AUTO 28016KT 9999 SCT036 05/02 Q1002,0,16,0,10000,0,0,0,
2026-03-25 04:20:00,METAR EGGW 250420Z AUTO 28018KT 9999 FEW027 05/01 Q1002,0,18,0,10000,0,0,0,
2026-03-25 03:50:00,METAR EGGW 250350Z AUTO 28019KT 9999 BKN027 05/02 Q1002,0,19,0,10000,0,0,0,
2026-03-25 03:20:00,METAR EGGW 250320Z AUTO 27018KT 9999 SCT030 05/02 Q1002,0,18,0,10000,0,0,0,
2026-03-25 02:50:00,METAR EGGW 250250Z AUTO 27019KT 9999 FEW030 05/02 Q1001,0,19,0,10000,0,0,0,
2026-03-25 02:20:00,METAR EGGW 250220Z AUTO 26018KT 9999 FEW032 05/02 Q1001,0,18,0,10000,0,0,0,
2026-03-25 01:50:00,METAR EGGW 250150Z AUTO 26019KT 9999 FEW030 05/02 Q1001,0,19,0,10000,0,0,0,
2026-03-25 01:20:00,METAR EGGW 250120Z AUTO 26020KT 9999 SCT033 BKN045 06/02 Q1001,0,20,0,10000,0,0,0,
2026-03-25 00:50:00,METAR EGGW 250050Z AUTO 25019KT 9999 BKN039 06/02 Q1001,0,19,0,10000,0,0,0,
2026-03-25 00:20:00,METAR EGGW 250020Z AUTO 26018KT 9999 FEW038 06/02 Q1001,0,18,0,10000,0,0,0,
2026-03-24 23:50:00,METAR EGGW 242350Z AUTO 26022G33KT 9999 FEW034 07/02 Q1001,0,22,1,10000,0,0,0,
2026-03-24 23:20:00,METAR EGGW 242320Z AUTO 26021KT 9999 SCT025 SCT032 BKN039 07/04 Q1001,0,21,0,10000,0,0,0,
2026-03-24 22:50:00,METAR EGGW 242250Z AUTO 26024KT 9999 NCD 08/05 Q1001,0,24,0,10000,0,0,0,
2026-03-24 22:20:00,METAR EGGW 242220Z AUTO 26025G37KT 9999 FEW022 08/05 Q1000,0,25,1,10000,0,0,0,
2026-03-24 21:50:00,METAR EGGW 242150Z AUTO 25026G41KT 9999 SCT021 BKN026 09/06 Q1000 RERA,0,26,1,10000,0,0,0,RA
2026-03-24 21:20:00,METAR EGGW 242120Z 24026G38KT 9999 RA BKN015CB BKN020 BKN030 10/07 Q1000 RERA,0,26,1,10000,0,0,0,RA
2026-03-24 20:50:00,METAR EGGW 242050Z AUTO 22020G30KT 9999 BKN015/// OVC022/// //////TCU 10/08 Q1000,0,20,1,10000,0,0,0,
2026-03-24 20:20:00,METAR EGGW 242020Z AUTO 22018G29KT 9999 OVC017 10/08 Q1001,0,18,1,10000,0,0,0,
2026-03-24 19:50:00,METAR EGGW 241950Z AUTO 22019KT 9999 BKN016 BKN020 OVC025 10/08 Q1002,0,19,0,10000,0,0,0,
2026-03-24 19:20:00,METAR EGGW 241920Z AUTO 21020G30KT 9999 BKN014 BKN019 10/08 Q1003,0,20,1,10000,0,0,0,
2026-03-24 18:50:00,METAR EGGW 241850Z AUTO 22020G31KT 9999 BKN012 OVC016 10/08 Q1003,0,20,1,10000,0,0,0,
2026-03-24 18:20:00,METAR EGGW 241820Z AUTO 22018KT 9999 OVC011 10/09 Q1004,0,18,0,10000,0,0,0,
2026-03-24 17:50:00,METAR EGGW 241750Z 22017KT 9999 BKN012 10/09 Q1005,0,17,0,10000,0,0,0,
2026-03-24 17:20:00,METAR EGGW 241720Z 22018G29KT 9000 VCSH OVC013 11/08 Q1005,0,18,1,9000,0,0,0,"SH,VC"
2026-03-24 16:50:00,METAR EGGW 241650Z AUTO 22020G32KT 9999 BKN012 OVC016 11/08 Q1006,0,20,1,10000,0,0,0,
2026-03-24 16:20:00,METAR EGGW 241620Z AUTO 22017G31KT 9999 OVC013 11/09 Q1007,0,17,1,10000,0,0,0,
2026-03-24 15:50:00,METAR EGGW 241550Z AUTO 22019KT 9999 OVC012 11/08 Q1008,0,19,0,10000,0,0,0,
2026-03-24 15:20:00,METAR EGGW 241520Z AUTO 22015G25KT 9999 OVC012 11/08 Q1009,0,15,1,10000,0,0,0,
2026-03-24 14:50:00,METAR EGGW 241450Z AUTO 21017KT 9999 OVC013 11/08 Q1009,0,17,0,10000,0,0,0,
2026-03-24 14:20:00,METAR EGGW 241420Z AUTO 21015KT 9999 OVC012 11/08 Q1010,0,15,0,10000,0,0,0,
2026-03-24 13:50:00,METAR EGGW 241350Z AUTO 22017KT 9999 OVC012 11/08 Q1010,0,17,0,10000,0,0,0,
2026-03-24 13:20:00,METAR EGGW 241320Z AUTO 22015G28KT 9999 OVC011 11/09 Q1011,0,15,1,10000,0,0,0,
2026-03-24 12:50:00,METAR EGGW 241250Z AUTO 22015KT 9999 OVC011 11/08 Q1012,0,15,0,10000,0,0,0,
2026-03-24 12:20:00,METAR EGGW 241220Z AUTO 22013KT 170V250 9999 OVC012 11/08 Q1012,0,13,0,10000,0,0,0,
2026-03-24 11:50:00,METAR EGGW 241150Z AUTO 22014KT 9999 OVC013 11/08 Q1013,0,14,0,10000,0,0,0,
2026-03-24 11:20:00,METAR EGGW 241120Z AUTO 22012KT 9999 OVC013 11/08 Q1013,0,12,0,10000,0,0,0,
2026-03-24 10:50:00,METAR EGGW 241050Z AUTO 22013KT 9999 OVC014 11/08 Q1014,0,13,0,10000,0,0,0,
2026-03-24 10:20:00,METAR EGGW 241020Z AUTO 22010KT 190V250 9999 OVC013 11/08 Q1014,0,10,0,10000,0,0,0,
2026-03-24 09:50:00,METAR EGGW 240950Z AUTO 21010KT 9999 OVC010 10/08 Q1014,0,10,0,10000,0,0,0,
2026-03-24 09:20:00,METAR EGGW 240920Z AUTO 21009KT 9999 OVC010 10/08 Q1015,0,9,0,10000,0,0,0,
2026-03-24 08:50:00,METAR EGGW 240850Z AUTO 22011KT 9999 OVC010 09/08 Q1015,0,11,0,10000,0,0,0,
2026-03-24 08:20:00,METAR EGGW 240820Z AUTO 22010KT 9999 OVC009 09/07 Q1015,0,10,0,10000,0,0,0,
2026-03-24 07:50:00,METAR EGGW 240750Z AUTO 22012KT 8000 OVC010 09/07 Q1015,0,12,0,8000,0,0,0,
2026-03-24 07:20:00,METAR EGGW 240720Z AUTO 21010KT 6000 OVC010 08/07 Q1015,0,10,0,6000,0,0,0,
2026-03-24 06:50:00,METAR EGGW 240650Z AUTO 22010KT 5000 HZ OVC010 08/07 Q1015,0,10,0,5000,0,0,0,
2026-03-24 06:20:00,METAR EGGW 240620Z AUTO 22010KT 7000 OVC011 08/06 Q1015,0,10,0,7000,0,0,0,
2026-03-24 05:50:00,METAR EGGW 240550Z AUTO 22011KT 9000 SCT011 08/06 Q1015,0,11,0,9000,0,0,0,
2026-03-24 05:20:00,METAR EGGW 240520Z AUTO 24011KT 9000 FEW012 08/06 Q1016,0,11,0,9000,0,0,0,
2026-03-24 04:50:00,METAR EGGW 240450Z 22007KT 190V250 8000 FEW013 08/06 Q1015,0,7,0,8000,0,0,0,
2026-03-24 04:20:00,METAR EGGW 240420Z 22007KT 8000 NSC 08/06 Q1016,0,7,0,8000,0,0,0,
2026-03-24 03:50:00,METAR EGGW 240350Z 23008KT 7000 NSC 08/06 Q1016,0,8,0,7000,0,0,0,
2026-03-24 03:20:00,METAR EGGW 240320Z AUTO 23007KT 200V270 8000 SCT013 08/06 Q1016,0,7,0,8000,0,0,0,
2026-03-24 02:50:00,METAR EGGW 240250Z AUTO 23007KT 6000 NCD 08/06 Q1016,0,7,0,6000,0,0,0,
2026-03-24 02:20:00,METAR EGGW 240220Z AUTO 20004KT 140V230 7000 NCD 08/06 Q1016,0,4,0,7000,0,0,0,
2026-03-24 01:50:00,METAR EGGW 240150Z AUTO 22005KT 6000 NCD 08/06 Q1017,0,5,0,6000,0,0,0,
2026-03-24 01:20:00,METAR EGGW 240120Z AUTO 21007KT //// NCD 08/06 Q1017,0,7,0,10000,0,0,0,
2026-03-24 00:50:00,METAR EGGW 240050Z AUTO 21008KT 180V240 //// NCD 08/06 Q1017,0,8,0,10000,0,0,0,
2026-03-24 00:20:00,METAR EGGW 240020Z AUTO 22007KT 180V240 //// NCD 09/06 Q1018,0,7,0,10000,0,0,0,
2026-03-23 23:50:00,METAR EGGW 232350Z AUTO 22008KT 6000 NCD 09/06 Q1018,0,8,0,6000,0,0,0,
2026-03-23 23:20:00,METAR EGGW 232320Z AUTO 22009KT 6000 NCD 09/07 Q1018,0,9,0,6000,0,0,0,
2026-03-23 22:50:00,METAR EGGW 232250Z AUTO 21008KT 6000 NCD 09/07 Q1018,0,8,0,6000,0,0,0,
2026-03-23 22:20:00,METAR EGGW 232220Z AUTO 21008KT 7000 NCD 09/07 Q1018,0,8,0,7000,0,0,0,
2026-03-23 21:50:00,METAR EGGW 232150Z AUTO 22007KT 8000 NCD 09/06 Q1019,0,7,0,8000,0,0,0,
2026-03-23 21:20:00,METAR EGGW 232120Z AUTO 22008KT 9000 NCD 10/06 Q1019,0,8,0,9000,0,0,0,
2026-03-23 20:50:00,METAR EGGW 232050Z AUTO 21005KT 9999 NCD 10/06 Q1019,0,5,0,10000,0,0,0,
2026-03-23 20:20:00,METAR EGGW 232020Z AUTO 21004KT 9000 NCD 10/06 Q1019,0,4,0,9000,0,0,0,
2026-03-23 19:50:00,METAR EGGW 231950Z AUTO 23005KT 9000 NCD 10/06 Q1019,0,5,0,9000,0,0,0,
2026-03-23 19:20:00,METAR EGGW 231920Z AUTO 22005KT 9000 NCD 10/06 Q1019,0,5,0,9000,0,0,0,
2026-03-23 18:50:00,METAR EGGW 231850Z AUTO 22005KT 9999 NCD 11/06 Q1019,0,5,0,10000,0,0,0,
2026-03-23 18:20:00,METAR EGGW 231820Z AUTO 24006KT 9999 NCD 11/06 Q1019,0,6,0,10000,0,0,0,
2026-03-23 17:50:00,METAR EGGW 231750Z AUTO 23005KT 9999 NCD 12/07 Q1019,0,5,0,10000,0,0,0,
2026-03-23 17:20:00,METAR EGGW 231720Z AUTO 24008KT 9999 FEW032 12/06 Q1019,0,8,0,10000,0,0,0,
2026-03-23 16:50:00,METAR EGGW 231650Z AUTO 25008KT 230V290 9999 BKN032 12/07 Q1019,0,8,0,10000,0,0,0,
2026-03-23 16:20:00,METAR EGGW 231620Z AUTO 23008KT 200V270 9000 BKN032 13/06 Q1019,0,8,0,9000,0,0,0,
2026-03-23 15:50:00,METAR EGGW 231550Z AUTO 23008KT 190V260 9000 SCT032 13/07 Q1019,0,8,0,9000,0,0,0,
2026-03-23 15:20:00,METAR EGGW 231520Z AUTO 23008KT 9000 BKN034 13/06 Q1019,0,8,0,9000,0,0,0,
2026-03-23 14:50:00,METAR EGGW 231450Z AUTO 22006KT 190V250 9000 BKN032 13/06 Q1020,0,6,0,9000,0,0,0,
2026-03-23 14:20:00,METAR EGGW 231420Z AUTO 23007KT 8000 BKN030 13/07 Q1020,0,7,0,8000,0,0,0,
2026-03-23 13:50:00,METAR EGGW 231350Z AUTO 23006KT 190V260 9000 OVC032 13/06 Q1020,0,6,0,9000,0,0,0,
2026-03-23 13:20:00,METAR EGGW 231320Z AUTO 23006KT 200V280 9000 SCT034 13/06 Q1020,0,6,0,9000,0,0,0,
2026-03-23 12:50:00,METAR EGGW 231250Z AUTO 23007KT 150V280 8000 BKN026 BKN031 13/06 Q1020,0,7,0,8000,0,0,0,
2026-03-23 12:20:00,METAR EGGW 231220Z 23005KT 140V270 8000 SCT023 SCT027 12/07 Q1020,0,5,0,8000,0,0,0,
2026-03-23 11:50:00,METAR EGGW 231150Z 23003KT 110V270 5000 HZ FEW019 SCT025 12/07 Q1020,0,3,0,5000,0,0,0,
2026-03-23 11:20:00,METAR EGGW 231120Z 21004KT 160V240 5000 HZ SCT012 11/07 Q1021,0,4,0,5000,0,0,0,
2026-03-23 10:50:00,METAR EGGW 231050Z AUTO 14004KT 110V190 8000 NCD 11/08 Q1021,0,4,0,8000,0,0,0,
2026-03-23 10:20:00,METAR EGGW 231020Z VRB02KT 7000 FEW007 10/08 Q1021,0,2,0,7000,0,0,0,
2026-03-23 09:50:00,METAR EGGW 230950Z COR VRB02KT 5000 BR BKN015 09/07 Q1020,0,2,0,5000,0,0,1,BR
2026-03-23 09:20:00,METAR EGGW 230920Z VRB03KT 3900 BR BKN003 08/07 Q1020,0,3,0,3900,0,0,1,BR
2026-03-23 08:50:00,METAR EGGW 230850Z 02004KT 330V070 3900 BR BKN003 08/07 Q1020,0,4,0,3900,0,0,1,BR
2026-03-23 08:20:00,METAR EGGW 230820Z 01004KT 300V050 4500 BR BKN004 07/06 Q1020,0,4,0,4500,0,0,1,BR
2026-03-23 07:50:00,METAR EGGW 230750Z AUTO 35005KT 300V040 4000 HZ FEW035 07/06 Q1020,0,5,0,4000,0,0,0,
2026-03-23 07:20:00,METAR EGGW 230720Z AUTO 34006KT 280V010 3300 HZ NCD 06/05 Q1020,0,6,0,3300,0,0,0,
2026-03-23 06:50:00,METAR EGGW 230650Z AUTO 31005KT 280V350 2700 HZ FEW034 05/04 Q1020,0,5,0,2700,0,0,0,
2026-03-23 06:20:00,METAR EGGW 230620Z AUTO 33005KT 280V360 3200 HZ NCD 06/05 Q1019,0,5,0,3200,0,0,0,
2026-03-23 05:50:00,METAR EGGW 230550Z AUTO 32006KT 2700 BR FEW032 04/04 Q1019,0,6,0,2700,0,0,1,BR
2026-03-23 05:20:00,METAR EGGW 230520Z AUTO 32005KT 2600 HZ NCD 05/04 Q1019,0,5,0,2600,0,0,0,
2026-03-23 04:50:00,METAR EGGW 230450Z AUTO 32006KT 3700 HZ NCD 04/04 Q1019,0,6,0,3700,0,0,0,
2026-03-23 04:20:00,METAR EGGW 230420Z AUTO 32004KT 5000 HZ NCD 04/03 Q1018,0,4,0,5000,0,0,0,
2026-03-23 03:50:00,METAR EGGW 230350Z AUTO 33004KT 5000 HZ NCD 04/03 Q1018,0,4,0,5000,0,0,0,
2026-03-23 03:20:00,METAR EGGW 230320Z AUTO 31005KT 5000 HZ NCD 05/03 Q1018,0,5,0,5000,0,0,0,
2026-03-23 02:50:00,METAR EGGW 230250Z AUTO 31005KT 8000 NCD 05/03 Q1018,0,5,0,8000,0,0,0,
2026-03-23 02:20:00,METAR EGGW 230220Z AUTO 31004KT 9999 NCD 05/03 Q1018,0,4,0,10000,0,0,0,
2026-03-23 01:50:00,METAR EGGW 230150Z AUTO 00000KT 9999 NCD 05/02 Q1018,0,0,0,10000,0,0,0,
2026-03-23 01:20:00,METAR EGGW 230120Z AUTO 30004KT 9999 NCD 05/02 Q1018,0,4,0,10000,0,0,0,
2026-03-23 00:50:00,METAR EGGW 230050Z AUTO 28002KT 9999 NCD 06/02 Q1018,0,2,0,10000,0,0,0,
2026-03-23 00:20:00,METAR EGGW 230020Z AUTO 33002KT 9999 FEW032 07/01 Q1018,0,2,0,10000,0,0,0,
2026-03-22 23:50:00,METAR EGGW 222350Z AUTO 35002KT 9999 FEW028 BKN032 07/02 Q1018,0,2,0,10000,0,0,0,
2026-03-22 23:20:00,METAR EGGW 222320Z AUTO VRB02KT 9999 BKN030 07/02 Q1018,0,2,0,10000,0,0,0,
2026-03-22 22:50:00,METAR EGGW 222250Z AUTO 33004KT 9999 NCD 07/02 Q1018,0,4,0,10000,0,0,0,
2026-03-22 22:20:00,METAR EGGW 222220Z AUTO 32005KT 290V020 9999 NCD 08/02 Q1018,0,5,0,10000,0,0,0,
2026-03-22 21:50:00,METAR EGGW 222150Z AUTO 35003KT 9999 NCD 08/02 Q1017,0,3,0,10000,0,0,0,
2026-03-22 21:20:00,METAR EGGW 222120Z AUTO 36003KT 9999 NCD 08/02 Q1017,0,3,0,10000,0,0,0,
2026-03-22 20:50:00,METAR EGGW 222050Z AUTO 01004KT 310V030 9999 NCD 08/03 Q1017,0,4,0,10000,0,0,0,
2026-03-22 20:20:00,METAR EGGW 222020Z AUTO 01004KT 320V040 9999 NCD 08/03 Q1017,0,4,0,10000,0,0,0,
2026-03-22 19:50:00,METAR EGGW 221950Z AUTO 01003KT 340V090 9999 NCD 09/02 Q1017,0,3,0,10000,0,0,0,
2026-03-22 19:20:00,METAR EGGW 221920Z AUTO 35004KT 9999 NCD 08/02 Q1017,0,4,0,10000,0,0,0,
2026-03-22 18:50:00,METAR EGGW 221850Z AUTO 36003KT 300V050 9999 NCD 09/01 Q1016,0,3,0,10000,0,0,0,
2026-03-22 18:20:00,METAR EGGW 221820Z AUTO 03003KT 340V070 9999 NCD 09/M00 Q1016,0,3,0,10000,0,0,0,
2026-03-22 17:50:00,METAR EGGW 221750Z AUTO 36003KT 330V060 9999 NCD 09/M01 Q1016,0,3,0,10000,0,0,0,
2026-03-22 17:20:00,METAR EGGW 221720Z AUTO 01004KT 350V050 9999 NCD 09/M01 Q1016,0,4,0,10000,0,0,0,
2026-03-22 16:50:00,METAR EGGW 221650Z AUTO 01005KT 9999 NCD 10/01 Q1016,0,5,0,10000,0,0,0,
2026-03-22 16:20:00,METAR EGGW 221620Z AUTO 36005KT 9999 NCD 10/01 Q1015,0,5,0,10000,0,0,0,
2026-03-22 15:50:00,METAR EGGW 221550Z AUTO 34006KT 270V010 9999 NCD 10/01 Q1015,0,6,0,10000,0,0,0,
2026-03-22 15:20:00,METAR EGGW 221520Z AUTO 01005G15KT 350V110 9999 NCD 11/03 Q1015,0,5,1,10000,0,0,0,
2026-03-22 14:50:00,METAR EGGW 221450Z AUTO 01005KT 340V050 9999 NCD 11/03 Q1015,0,5,0,10000,0,0,0,
2026-03-22 14:20:00,METAR EGGW 221420Z AUTO VRB02KT 9999 NCD 11/02 Q1015,0,2,0,10000,0,0,0,
2026-03-22 13:50:00,METAR EGGW 221350Z AUTO VRB02KT 9999 NCD 11/02 Q1016,0,2,0,10000,0,0,0,
2026-03-22 13:20:00,METAR EGGW 221320Z AUTO 11003KT 030V180 9999 NCD 10/02 Q1016,0,3,0,10000,0,0,0,
2026-03-22 12:50:00,METAR EGGW 221250Z AUTO VRB02KT 9999 NCD 10/03 Q1016,0,2,0,10000,0,0,0,
2026-03-22 12:20:00,METAR EGGW 221220Z AUTO 11004KT 060V180 9999 NCD 09/03 Q1016,0,4,0,10000,0,0,0,
2026-03-22 11:50:00,METAR EGGW 221150Z AUTO VRB04KT 9999 NCD 09/03 Q1016,0,4,0,10000,0,0,0,
2026-03-22 11:20:00,METAR EGGW 221120Z AUTO VRB04KT 9999 FEW014 08/04 Q1016,0,4,0,10000,0,0,0,
2026-03-22 10:50:00,METAR EGGW 221050Z AUTO 10005KT 060V140 9000 BKN009 06/04 Q1016,0,5,0,9000,0,0,0,
2026-03-22 10:20:00,METAR EGGW 221020Z AUTO 11004KT 050V170 5000 BR BKN003 BKN007 05/05 Q1016,0,4,0,5000,0,0,1,BR
2026-03-22 09:50:00,METAR EGGW 220950Z VRB03KT 2900 BCFG OVC003 04/04 Q1017,0,3,0,2900,0,0,1,"BC,FG"
2026-03-22 09:20:00,METAR EGGW 220920Z VRB02KT 2900 BCFG BKN002 03/03 Q1017,0,2,0,2900,0,0,1,"BC,FG"
2026-03-22 08:50:00,METAR EGGW 220850Z 05004KT 350V140 0800 R07/0900U FG BKN001 03/03 Q1016,0,4,0,1287200,0,0,1,FG
2026-03-22 08:20:00,METAR EGGW 220820Z AUTO 09003KT 0100 R07/0275N FG OVC001 02/02 Q1016,0,3,0,160900,0,0,1,FG
2026-03-22 07:50:00,METAR EGGW 220750Z AUTO 04003KT 330V090 0100 R07/0225N FG OVC001 02/02 Q1016,0,3,0,160900,0,0,1,FG
2026-03-22 07:20:00,METAR EGGW 220720Z AUTO 01004KT 330V030 0600 R07/0900U FG OVC001 01/01 Q1016,0,4,0,965400,0,0,1,FG
2026-03-22 06:50:00,METAR EGGW 220650Z AUTO 06003KT 010V080 0100 R07/0250N FG OVC001 01/01 Q1016,0,3,0,160900,0,0,1,FG
2026-03-22 06:20:00,METAR EGGW 220620Z AUTO VRB01KT 0050 R07/0225N FG OVC001 01/01 Q1016,0,1,0,80450,0,0,1,FG
2026-03-22 05:50:00,METAR EGGW 220550Z AUTO 05003KT 360V090 0050 R07/0275N FG OVC001 01/01 Q1016,0,3,0,80450,0,0,1,FG
2026-03-22 05:20:00,METAR EGGW 220520Z AUTO 07003KT 0100 R07/0350N FG OVC001 00/M00 Q1016,0,3,0,160900,0,0,1,FG
2026-03-22 04:50:00,METAR EGGW 220450Z AUTO 09004KT 0100 R07/0375N FZFG BKN001 M01/M01 Q1016,0,4,0,160900,0,0,1,FG
2026-03-22 04:20:00,METAR EGGW 220420Z AUTO 33003KT 310V100 6000 BCFG NCD 02/01 Q1016,0,3,0,6000,0,0,1,"BC,FG"
2026-03-22 03:50:00,METAR EGGW 220350Z AUTO 00000KT 1500 BR NCD 02/02 Q1016,0,0,0,1500,0,0,1,BR
2026-03-22 03:20:00,METAR EGGW 220320Z AUTO 29001KT 3000 R25/1400U BR NCD 02/02 Q1016,0,1,0,3000,0,0,1,BR
2026-03-22 02:50:00,METAR EGGW 220250Z AUTO 29002KT 5000 BCFG NCD 03/02 Q1016,0,2,0,5000,0,0,1,"BC,FG"
2026-03-22 02:20:00,METAR EGGW 220220Z AUTO 19002KT 0200 R25/0500D FG NCD 02/02 Q1016,0,2,0,321800,0,0,1,FG
2026-03-22 01:50:00,METAR EGGW 220150Z AUTO 18001KT 0700 FG FEW001 03/02 Q1016,0,1,0,1126300,0,0,1,FG
2026-03-22 01:20:00,METAR EGGW 220120Z AUTO 17003KT 4200 BR NCD 03/02 Q1016,0,3,0,4200,0,0,1,BR
2026-03-22 00:50:00,METAR EGGW 220050Z AUTO 15005KT 8000 NCD 03/02 Q1017,0,5,0,8000,0,0,0,
2026-03-22 00:20:00,METAR EGGW 220020Z AUTO 15003KT 9999 NCD 03/02 Q1017,0,3,0,10000,0,0,0,
2026-03-21 23:50:00,METAR EGGW 212350Z AUTO 13003KT 9999 NCD 03/01 Q1017,0,3,0,10000,0,0,0,
2026-03-21 23:20:00,METAR EGGW 212320Z AUTO 13004KT 9999 NCD 04/01 Q1017,0,4,0,10000,0,0,0,
2026-03-21 22:50:00,METAR EGGW 212250Z AUTO 12003KT 9999 NCD 04/01 Q1017,0,3,0,10000,0,0,0,
2026-03-21 22:20:00,METAR EGGW 212220Z AUTO 07003KT 9999 NCD 05/01 Q1017,0,3,0,10000,0,0,0,
2026-03-21 21:50:00,METAR EGGW 212150Z AUTO 03003KT 9999 NCD 07/01 Q1017,0,3,0,10000,0,0,0,
2026-03-21 21:20:00,METAR EGGW 212120Z AUTO 01004KT 320V070 9999 NCD 07/01 Q1018,0,4,0,10000,0,0,0,
2026-03-21 20:50:00,METAR EGGW 212050Z AUTO 01003KT 9999 NCD 07/M01 Q1018,0,3,0,10000,0,0,0,
2026-03-21 20:20:00,METAR EGGW 212020Z AUTO 36004KT 9999 NCD 07/M01 Q1018,0,4,0,10000,0,0,0,
2026-03-21 19:50:00,METAR EGGW 211950Z AUTO 06002KT 9999 NCD 07/M01 Q1017,0,2,0,10000,0,0,0,
2026-03-21 19:20:00,METAR EGGW 211920Z AUTO 01003KT 260V060 9999 NCD 08/M01 Q1018,0,3,0,10000,0,0,0,
2026-03-21 18:50:00,METAR EGGW 211850Z AUTO 01004KT 9999 NCD 08/M00 Q1018,0,4,0,10000,0,0,0,
2026-03-21 18:20:00,METAR EGGW 211820Z AUTO 03004KT 350V060 9999 NCD 09/M01 Q1018,0,4,0,10000,0,0,0,
2026-03-21 17:50:00,METAR EGGW 211750Z AUTO 03005KT 9999 NCD 09/M01 Q1018,0,5,0,10000,0,0,0,
2026-03-21 17:20:00,METAR EGGW 211720Z AUTO 02006KT 320V130 9999 NCD 11/M02 Q1017,0,6,0,10000,0,0,0,
2026-03-21 16:50:00,METAR EGGW 211650Z COR 02006KT 350V070 CAVOK 11/M01 Q1018,1,0,0,9999,0,0,0,
2026-03-21 16:20:00,METAR EGGW 211620Z 03006KT 280V070 CAVOK 11/M00 Q1018,1,0,0,9999,0,0,0,
2026-03-21 15:50:00,METAR EGGW 211550Z 01006KT 330V050 CAVOK 11/00 Q1018,1,0,0,9999,0,0,0,
2026-03-21 14:50:00,METAR EGGW 211450Z VRB05KT CAVOK 12/M00 Q1018,1,0,0,9999,0,0,0,
2026-03-21 14:20:00,METAR EGGW 211420Z 03005KT 340V070 CAVOK 12/01 Q1018,1,0,0,9999,0,0,0,
2026-03-21 13:50:00,METAR EGGW 211350Z VRB03KT CAVOK 12/M01 Q1018,1,0,0,9999,0,0,0,
2026-03-21 13:20:00,METAR EGGW 211320Z VRB04KT CAVOK 11/01 Q1019,1,0,0,9999,0,0,0,
2026-03-21 12:50:00,METAR EGGW 211250Z COR 06004KT 340V140 9999 NSC 10/02 Q1019,0,4,0,10000,0,0,0,
2026-03-21 12:20:00,METAR EGGW 211220Z AUTO 02005KT 320V070 9999 NCD 09/03 Q1019,0,5,0,10000,0,0,0,
2026-03-21 11:50:00,METAR EGGW 211150Z AUTO 03007KT 350V060 9999 NCD 09/03 Q1020,0,7,0,10000,0,0,0,
2026-03-21 11:20:00,METAR EGGW 211120Z AUTO 03007KT 350V060 9999 NCD 08/03 Q1020,0,7,0,10000,0,0,0,
2026-03-21 10:50:00,METAR EGGW 211050Z AUTO 04007KT 9999 NCD 07/03 Q1020,0,7,0,10000,0,0,0,
2026-03-21 10:20:00,METAR EGGW 211020Z AUTO 05006KT 360V090 9999 NCD 06/03 Q1020,0,6,0,10000,0,0,0,
2026-03-21 09:50:00,METAR EGGW 210950Z AUTO 04006KT 360V120 9999 NCD 06/03 Q1020,0,6,0,10000,0,0,0,
2026-03-21 09:20:00,METAR EGGW 210920Z 05005KT 360V080 CAVOK 04/04 Q1020,1,0,0,9999,0,0,0,
2026-03-21 08:50:00,METAR EGGW 210850Z 03004KT 360V060 9999 BCFG SCT002 04/03 Q1020,0,4,0,10000,0,0,1,"BC,FG"
2026-03-21 08:20:00,METAR EGGW 210820Z AUTO 01005KT 280V060 9999 BCFG BKN001 03/03 Q1020,0,5,0,10000,0,0,1,"BC,FG"
2026-03-21 07:50:00,METAR EGGW 210750Z AUTO 03004KT 350V070 1500 R07/1000U BR OVC001 03/03 Q1020,0,4,0,1500,0,0,1,BR
2026-03-21 07:20:00,METAR EGGW 210720Z AUTO 04006KT 360V090 0200 R07/0325N FG OVC001 03/02 Q1020,0,6,0,321800,0,0,1,FG
2026-03-21 06:50:00,METAR EGGW 210650Z AUTO 05005KT 0550 R07/0700D FG OVC002 02/02 Q1020,0,5,0,884950,0,0,1,FG
2026-03-21 06:20:00,METAR EGGW 210620Z AUTO 05005KT 010V080 9000 SCT003 02/01 Q1020,0,5,0,9000,0,0,0,
2026-03-21 05:50:00,METAR EGGW 210550Z AUTO 02004KT 9999 NCD 02/01 Q1020,0,4,0,10000,0,0,0,
2026-03-21 05:20:00,METAR EGGW 210520Z AUTO 36005KT 9999 NCD 02/01 Q1020,0,5,0,10000,0,0,0,
2026-03-21 04:50:00,METAR EGGW 210450Z AUTO 04004KT 9999 NCD 02/01 Q1020,0,4,0,10000,0,0,0,
2026-03-21 04:20:00,METAR EGGW 210420Z AUTO 05004KT 9999 NCD 03/02 Q1020,0,4,0,10000,0,0,0,
2026-03-21 03:50:00,METAR EGGW 210350Z AUTO 04004KT 9999 NCD 03/02 Q1020,0,4,0,10000,0,0,0,
2026-03-21 03:20:00,METAR EGGW 210320Z AUTO 03002KT 9999 NCD 03/02 Q1020,0,2,0,10000,0,0,0,
2026-03-21 02:50:00,METAR EGGW 210250Z AUTO 09002KT 9999 NCD 03/01 Q1020,0,2,0,10000,0,0,0,
2026-03-21 02:20:00,METAR EGGW 210220Z AUTO 07004KT 9999 NCD 02/01 Q1020,0,4,0,10000,0,0,0,
2026-03-21 01:50:00,METAR EGGW 210150Z AUTO 00000KT 9999 NCD 04/02 Q1020,0,0,0,10000,0,0,0,
2026-03-21 01:20:00,METAR EGGW 210120Z AUTO 09001KT 9999 NCD 04/02 Q1020,0,1,0,10000,0,0,0,
2026-03-21 00:50:00,METAR EGGW 210050Z AUTO VRB02KT 9999 NCD 03/02 Q1020,0,2,0,10000,0,0,0,
2026-03-21 00:20:00,METAR EGGW 210020Z AUTO 10002KT 9999 NCD 04/02 Q1020,0,2,0,10000,0,0,0,
2026-03-20 23:50:00,METAR EGGW 202350Z AUTO 12002KT 9999 NCD 04/02 Q1020,0,2,0,10000,0,0,0,
2026-03-20 23:20:00,METAR EGGW 202320Z AUTO 11002KT 9999 NCD 04/02 Q1021,0,2,0,10000,0,0,0,
2026-03-20 22:50:00,METAR EGGW 202250Z AUTO 11004KT 9999 NCD 05/02 Q1021,0,4,0,10000,0,0,0,
2026-03-20 22:20:00,METAR EGGW 202220Z AUTO 11003KT 9999 NCD 05/02 Q1021,0,3,0,10000,0,0,0,
2026-03-20 21:50:00,METAR EGGW 202150Z AUTO 11005KT 9999 NCD 06/03 Q1021,0,5,0,10000,0,0,0,
2026-03-20 21:20:00,METAR EGGW 202120Z AUTO 12006KT 9999 FEW026 07/03 Q1021,0,6,0,10000,0,0,0,
2026-03-20 20:50:00,METAR EGGW 202050Z AUTO 10004KT 9999 BKN027 07/05 Q1021,0,4,0,10000,0,0,0,
2026-03-20 20:20:00,METAR EGGW 202020Z AUTO 11005KT 9999 OVC024 09/05 Q1021,0,5,0,10000,0,0,0,
2026-03-20 19:50:00,METAR EGGW 201950Z AUTO 07005KT 7000 BKN019 BKN024 08/06 Q1021,0,5,0,7000,0,0,0,
2026-03-20 19:20:00,METAR EGGW 201920Z AUTO 01004KT 330V060 9999 NCD 08/06 Q1020,0,4,0,10000,0,0,0,
2026-03-20 18:50:00,METAR EGGW 201850Z AUTO 36004KT 330V030 9999 NCD 09/06 Q1020,0,4,0,10000,0,0,0,
2026-03-20 18:20:00,METAR EGGW 201820Z AUTO 03003KT 290V060 9999 NCD 09/06 Q1020,0,3,0,10000,0,0,0,
2026-03-20 17:50:00,METAR EGGW 201750Z AUTO 02004KT 9999 NCD 10/06 Q1020,0,4,0,10000,0,0,0,
2026-03-20 17:20:00,METAR EGGW 201720Z AUTO 04006KT 360V060 9999 NCD 10/06 Q1020,0,6,0,10000,0,0,0,
2026-03-20 16:50:00,METAR EGGW 201650Z AUTO 05006KT 010V090 9999 NCD 11/06 Q1020,0,6,0,10000,0,0,0,
2026-03-20 16:20:00,METAR EGGW 201620Z AUTO 04006KT 360V090 9999 NCD 11/06 Q1020,0,6,0,10000,0,0,0,
2026-03-20 15:50:00,METAR EGGW 201550Z AUTO 05007KT 010V080 9999 NCD 11/05 Q1021,0,7,0,10000,0,0,0,
2026-03-20 15:20:00,METAR EGGW 201520Z AUTO 05007KT 020V080 9999 NCD 12/04 Q1021,0,7,0,10000,0,0,0,
2026-03-20 14:50:00,METAR EGGW 201450Z AUTO 04007KT 360V100 9999 NCD 11/05 Q1021,0,7,0,10000,0,0,0,
2026-03-20 14:20:00,METAR EGGW 201420Z AUTO 03007KT 330V060 9999 NCD 12/05 Q1021,0,7,0,10000,0,0,0,
2026-03-20 13:50:00,METAR EGGW 201350Z AUTO 04007KT 010V070 9999 NCD 11/05 Q1021,0,7,0,10000,0,0,0,
2026-03-20 13:20:00,METAR EGGW 201320Z AUTO 03007KT 350V060 9999 NCD 11/05 Q1022,0,7,0,10000,0,0,0,
2026-03-20 12:50:00,METAR EGGW 201250Z AUTO 05006KT 010V090 9999 NCD 10/06 Q1022,0,6,0,10000,0,0,0,
2026-03-20 12:20:00,METAR EGGW 201220Z AUTO 01007KT 350V050 9999 NCD 09/06 Q1022,0,7,0,10000,0,0,0,
2026-03-20 11:50:00,METAR EGGW 201150Z AUTO 03006KT 340V070 9999 NCD 07/05 Q1023,0,6,0,10000,0,0,0,
2026-03-20 11:20:00,METAR EGGW 201120Z AUTO 01005KT 340V110 9999 FEW006 06/05 Q1023,0,5,0,10000,0,0,0,
2026-03-20 10:50:00,METAR EGGW 201050Z AUTO VRB06G19KT 7000 BKN005 06/06 Q1023,0,6,1,7000,0,0,0,
2026-03-20 10:20:00,METAR EGGW 201020Z 03007KT 340V090 5000 BR BKN003 05/05 Q1023,0,7,0,5000,0,0,1,BR
2026-03-20 09:50:00,METAR EGGW 200950Z AUTO 02007KT 350V060 4100 BR BKN002 05/05 Q1024,0,7,0,4100,0,0,1,BR
2026-03-20 09:20:00,METAR EGGW 200920Z AUTO VRB07KT 2300 R07/1400D BR OVC002 04/04 Q1024,0,7,0,2300,0,0,1,BR
2026-03-20 08:50:00,METAR EGGW 200850Z AUTO 03006KT 0300 R07/0450N FG OVC001 04/04 Q1023,0,6,0,482700,0,0,1,FG
2026-03-20 08:20:00,METAR EGGW 200820Z AUTO 03008KT 0200 R07/0375N FG OVC001 03/03 Q1023,0,8,0,321800,0,0,1,FG
2026-03-20 07:50:00,METAR EGGW 200750Z AUTO 03008KT 0150 R07/0325N FG OVC001 03/03 Q1023,0,8,0,241350,0,0,1,FG
2026-03-20 07:20:00,METAR EGGW 200720Z AUTO 02007KT 0100 R07/0225N FG OVC001 03/03 Q1023,0,7,0,160900,0,0,1,FG
2026-03-20 06:50:00,METAR EGGW 200650Z AUTO 36006KT 0300 R07/0450D FG BKN001 02/02 Q1023,0,6,0,482700,0,0,1,FG
2026-03-20 06:20:00,METAR EGGW 200620Z COR VRB06KT 1300 R07/1500N BR OVC001 02/01 Q1023,0,6,0,1300,0,0,1,BR
2026-03-20 05:50:00,METAR EGGW 200550Z AUTO 33004KT 2800 BR NCD 01/01 Q1023,0,4,0,2800,0,0,1,BR
2026-03-20 05:20:00,METAR EGGW 200520Z AUTO 36004KT 2700 BR SCT001 02/01 Q1023,0,4,0,2700,0,0,1,BR
2026-03-20 04:50:00,METAR EGGW 200450Z AUTO 03006KT 4000 BR NCD 02/02 Q1023,0,6,0,4000,0,0,1,BR
2026-03-20 04:20:00,METAR EGGW 200420Z AUTO 02005KT 4500 BR NCD 03/02 Q1023,0,5,0,4500,0,0,1,BR
2026-03-20 03:50:00,METAR EGGW 200350Z AUTO 02006KT 3900 HZ NCD 03/02 Q1023,0,6,0,3900,0,0,0,
2026-03-20 03:20:00,METAR EGGW 200320Z AUTO 36004KT 6000 NCD 03/02 Q1023,0,4,0,6000,0,0,0,
2026-03-20 02:50:00,METAR EGGW 200250Z AUTO 36005KT 6000 NCD 03/02 Q1023,0,5,0,6000,0,0,0,
2026-03-20 02:20:00,METAR EGGW 200220Z AUTO 02004KT 7000 NCD 03/02 Q1024,0,4,0,7000,0,0,0,
2026-03-20 01:50:00,METAR EGGW 200150Z AUTO 04005KT 9000 NCD 04/02 Q1024,0,5,0,9000,0,0,0,
2026-03-20 01:20:00,METAR EGGW 200120Z AUTO 03003KT 3600 HZ NCD 06/02 Q1024,0,3,0,3600,0,0,0,
2026-03-20 00:50:00,METAR EGGW 200050Z AUTO 02004KT 9999 NCD 05/02 Q1024,0,4,0,10000,0,0,0,
2026-03-20 00:20:00,METAR EGGW 200020Z AUTO 02005KT 9999 NCD 05/03 Q1024,0,5,0,10000,0,0,0,
2026-03-19 23:50:00,METAR EGGW 192350Z AUTO 02005KT 9999 NCD 06/03 Q1025,0,5,0,10000,0,0,0,
2026-03-19 23:20:00,METAR EGGW 192320Z AUTO 01004KT 9999 NCD 06/03 Q1025,0,4,0,10000,0,0,0,
2026-03-19 22:50:00,METAR EGGW 192250Z AUTO 02006KT 9999 NCD 06/03 Q1025,0,6,0,10000,0,0,0,
2026-03-19 22:20:00,METAR EGGW 192220Z AUTO 03004KT 340V070 9999 NCD 08/04 Q1025,0,4,0,10000,0,0,0,
2026-03-19 21:50:00,METAR EGGW 192150Z AUTO 04003KT 9999 NCD 07/04 Q1025,0,3,0,10000,0,0,0,
2026-03-19 21:20:00,METAR EGGW 192120Z AUTO 04003KT 010V080 9999 NCD 08/04 Q1025,0,3,0,10000,0,0,0,
2026-03-19 20:50:00,METAR EGGW 192050Z AUTO 05004KT 020V080 9999 NCD 08/04 Q1025,0,4,0,10000,0,0,0,
2026-03-19 20:20:00,METAR EGGW 192020Z AUTO 04005KT 360V090 8000 NCD 09/04 Q1025,0,5,0,8000,0,0,0,
2026-03-19 19:50:00,METAR EGGW 191950Z AUTO 03005KT 010V070 9999 NCD 09/04 Q1025,0,5,0,10000,0,0,0,
2026-03-19 19:20:00,METAR EGGW 191920Z AUTO 02007KT 9999 NCD 10/05 Q1025,0,7,0,10000,0,0,0,
2026-03-19 18:50:00,METAR EGGW 191850Z AUTO 03008KT 010V090 9999 NCD 11/04 Q1025,0,8,0,10000,0,0,0,
2026-03-19 18:20:00,METAR EGGW 191820Z AUTO 05006KT 020V080 9999 NCD 13/03 Q1025,0,6,0,10000,0,0,0,
2026-03-19 17:50:00,METAR EGGW 191750Z AUTO 04007KT 010V070 9999 NCD 13/03 Q1025,0,7,0,10000,0,0,0,
2026-03-19 17:20:00,METAR EGGW 191720Z AUTO 05007KT 9999 NCD 14/03 Q1025,0,7,0,10000,0,0,0,
2026-03-19 16:50:00,METAR EGGW 191650Z AUTO 07008KT 9999 NCD 14/03 Q1025,0,8,0,10000,0,0,0,
2026-03-19 16:20:00,METAR EGGW 191620Z AUTO 06009KT 020V090 9999 NCD 15/03 Q1025,0,9,0,10000,0,0,0,
2026-03-19 15:50:00,METAR EGGW 191550Z AUTO 06007KT 030V120 9999 NCD 15/03 Q1025,0,7,0,10000,0,0,0,
2026-03-19 15:20:00,METAR EGGW 191520Z AUTO 07006KT 030V110 9999 NCD 15/03 Q1025,0,6,0,10000,0,0,0,
2026-03-19 14:50:00,METAR EGGW 191450Z AUTO 08007KT 060V120 9999 NCD 15/03 Q1025,0,7,0,10000,0,0,0,
2026-03-19 14:20:00,METAR EGGW 191420Z AUTO 11009KT 060V140 9999 NCD 15/04 Q1025,0,9,0,10000,0,0,0,
2026-03-19 13:50:00,METAR EGGW 191350Z AUTO 09008KT 070V130 9999 NCD 15/03 Q1026,0,8,0,10000,0,0,0,
2026-03-19 13:20:00,METAR EGGW 191320Z AUTO 12009KT 080V150 9999 NCD 15/03 Q1026,0,9,0,10000,0,0,0,
2026-03-19 12:50:00,METAR EGGW 191250Z AUTO 11008KT 070V140 9999 NCD 15/03 Q1026,0,8,0,10000,0,0,0,
2026-03-19 12:20:00,METAR EGGW 191220Z AUTO 08008KT 9999 NCD 15/04 Q1027,0,8,0,10000,0,0,0,
2026-03-19 11:50:00,METAR EGGW 191150Z AUTO 09008KT 9999 NCD 14/03 Q1027,0,8,0,10000,0,0,0,
2026-03-19 11:20:00,METAR EGGW 191120Z AUTO 07007KT 040V110 9999 NCD 14/05 Q1027,0,7,0,10000,0,0,0,
2026-03-19 10:50:00,METAR EGGW 191050Z AUTO 04006KT 9999 NCD 12/06 Q1027,0,6,0,10000,0,0,0,
2026-03-19 10:20:00,METAR EGGW 191020Z AUTO 05006KT 020V080 9999 NCD 12/06 Q1027,0,6,0,10000,0,0,0,
2026-03-19 09:50:00,METAR EGGW 190950Z AUTO 05005KT 020V090 9999 NCD 11/05 Q1027,0,5,0,10000,0,0,0,
2026-03-19 09:20:00,METAR EGGW 190920Z AUTO 05006KT 030V090 9999 NCD 11/05 Q1027,0,6,0,10000,0,0,0,
2026-03-19 08:50:00,METAR EGGW 190850Z AUTO 06005KT 020V090 9999 NCD 09/04 Q1027,0,5,0,10000,0,0,0,
2026-03-19 08:20:00,METAR EGGW 190820Z AUTO 08003KT 050V120 9999 NCD 07/04 Q1027,0,3,0,10000,0,0,0,
2026-03-19 07:50:00,METAR EGGW 190750Z AUTO 03006KT 360V060 9999 NCD 07/03 Q1027,0,6,0,10000,0,0,0,
2026-03-19 07:20:00,METAR EGGW 190720Z AUTO 09004KT 9999 NCD 06/03 Q1027,0,4,0,10000,0,0,0,
2026-03-19 06:50:00,METAR EGGW 190650Z AUTO 06003KT 9999 NCD 04/02 Q1027,0,3,0,10000,0,0,0,
2026-03-19 06:20:00,METAR EGGW 190620Z AUTO 05006KT 010V090 9999 NCD 04/01 Q1026,0,6,0,10000,0,0,0,
2026-03-19 05:50:00,METAR EGGW 190550Z AUTO 02005KT 9999 NCD 03/01 Q1026,0,5,0,10000,0,0,0,
2026-03-19 05:20:00,METAR EGGW 190520Z AUTO 03005KT 9999 NCD 03/01 Q1026,0,5,0,10000,0,0,0,
2026-03-19 04:50:00,METAR EGGW 190450Z AUTO 02006KT 9999 NCD 03/01 Q1026,0,6,0,10000,0,0,0,
2026-03-19 04:20:00,METAR EGGW 190420Z AUTO 03005KT 9999 NCD 03/01 Q1025,0,5,0,10000,0,0,0,
2026-03-19 03:50:00,METAR EGGW 190350Z AUTO 03005KT 9999 NCD 03/01 Q1025,0,5,0,10000,0,0,0,
2026-03-19 03:20:00,METAR EGGW 190320Z AUTO 02005KT 9999 NCD 04/01 Q1025,0,5,0,10000,0,0,0,
2026-03-19 02:50:00,METAR EGGW 190250Z AUTO 05004KT 020V090 9999 NCD 04/01 Q1025,0,4,0,10000,0,0,0,
2026-03-19 02:20:00,METAR EGGW 190220Z AUTO 10004KT 9999 NCD 05/01 Q1025,0,4,0,10000,0,0,0,
2026-03-19 01:50:00,METAR EGGW 190150Z AUTO 07003KT 030V100 9999 NCD 05/01 Q1026,0,3,0,10000,0,0,0,
2026-03-19 01:20:00,METAR EGGW 190120Z AUTO 11004KT 9999 NCD 06/01 Q1025,0,4,0,10000,0,0,0,
2026-03-19 00:50:00,METAR EGGW 190050Z AUTO 11006KT 9999 NCD 06/02 Q1025,0,6,0,10000,0,0,0,
2026-03-19 00:20:00,METAR EGGW 190020Z AUTO 10006KT 9999 NCD 06/02 Q1026,0,6,0,10000,0,0,0,
2026-03-18 23:50:00,METAR EGGW 182350Z AUTO 09006KT 9999 NCD 06/01 Q1025,0,6,0,10000,0,0,0,
2026-03-18 23:20:00,METAR EGGW 182320Z AUTO 10007KT 9999 NCD 07/01 Q1025,0,7,0,10000,0,0,0,
2026-03-18 22:50:00,METAR EGGW 182250Z AUTO 10007KT 9999 NCD 06/01 Q1025,0,7,0,10000,0,0,0,
2026-03-18 22:20:00,METAR EGGW 182220Z AUTO 09006KT 9999 NCD 06/01 Q1025,0,6,0,10000,0,0,0,
2026-03-18 21:50:00,METAR EGGW 182150Z AUTO 09006KT 9999 NCD 07/02 Q1025,0,6,0,10000,0,0,0,
2026-03-18 21:20:00,METAR EGGW 182120Z AUTO 10009KT 9999 NCD 07/02 Q1024,0,9,0,10000,0,0,0,
2026-03-18 20:50:00,METAR EGGW 182050Z AUTO 10009KT 9999 NCD 08/02 Q1024,0,9,0,10000,0,0,0,
2026-03-18 20:20:00,METAR EGGW 182020Z AUTO 11008KT 9999 NCD 08/02 Q1024,0,8,0,10000,0,0,0,
2026-03-18 19:50:00,METAR EGGW 181950Z AUTO 11007KT 9999 NCD 08/02 Q1024,0,7,0,10000,0,0,0,
2026-03-18 19:20:00,METAR EGGW 181920Z AUTO 12008KT 9999 NCD 09/02 Q1023,0,8,0,10000,0,0,0,
2026-03-18 18:50:00,METAR EGGW 181850Z AUTO 11009KT 9999 NCD 09/03 Q1023,0,9,0,10000,0,0,0,
2026-03-18 18:20:00,METAR EGGW 181820Z AUTO 11011KT 9999 NCD 10/03 Q1023,0,11,0,10000,0,0,0,
2026-03-18 17:50:00,METAR EGGW 181750Z AUTO 10009KT 9999 NCD 12/05 Q1022,0,9,0,10000,0,0,0,
2026-03-18 17:20:00,METAR EGGW 181720Z AUTO 10011KT 9999 NCD 13/06 Q1022,0,11,0,10000,0,0,0,
2026-03-18 16:50:00,METAR EGGW 181650Z AUTO 09008KT 9999 NCD 15/08 Q1022,0,8,0,10000,0,0,0,
2026-03-18 16:20:00,METAR EGGW 181620Z AUTO 09008KT 9999 NCD 16/08 Q1021,0,8,0,10000,0,0,0,
2026-03-18 15:50:00,METAR EGGW 181550Z AUTO 12010KT 9999 NCD 16/06 Q1021,0,10,0,10000,0,0,0,
2026-03-18 15:20:00,METAR EGGW 181520Z AUTO 13009KT 090V150 9999 NCD 17/06 Q1021,0,9,0,10000,0,0,0,
2026-03-18 14:50:00,METAR EGGW 181450Z AUTO 12008KT 9999 NCD 17/07 Q1021,0,8,0,10000,0,0,0,
2026-03-18 14:20:00,METAR EGGW 181420Z AUTO 13010KT 9999 NCD 17/06 Q1021,0,10,0,10000,0,0,0,
2026-03-18 13:50:00,METAR EGGW 181350Z AUTO 15009KT 110V170 9999 NCD 17/06 Q1021,0,9,0,10000,0,0,0,
2026-03-18 13:20:00,METAR EGGW 181320Z AUTO 14009KT 110V170 9999 NCD 17/07 Q1021,0,9,0,10000,0,0,0,
2026-03-18 12:50:00,METAR EGGW 181250Z AUTO 14009KT 9999 NCD 16/06 Q1021,0,9,0,10000,0,0,0,
2026-03-18 12:20:00,METAR EGGW 181220Z AUTO 13009KT 9999 NCD 16/07 Q1021,0,9,0,10000,0,0,0,
2026-03-18 11:50:00,METAR EGGW 181150Z AUTO 14009KT 100V180 9999 NCD 15/07 Q1021,0,9,0,10000,0,0,0,
2026-03-18 11:20:00,METAR EGGW 181120Z AUTO 13008KT 9999 NCD 15/08 Q1021,0,8,0,10000,0,0,0,
2026-03-18 10:50:00,METAR EGGW 181050Z AUTO 14009KT 120V190 9999 NCD 14/08 Q1021,0,9,0,10000,0,0,0,
2026-03-18 10:20:00,METAR EGGW 181020Z AUTO 14009KT 110V170 9999 NCD 13/07 Q1021,0,9,0,10000,0,0,0,
2026-03-18 09:50:00,METAR EGGW 180950Z AUTO 13009KT 9999 NCD 13/08 Q1021,0,9,0,10000,0,0,0,
2026-03-18 09:20:00,METAR EGGW 180920Z AUTO 14007KT 110V170 9999 NCD 12/08 Q1020,0,7,0,10000,0,0,0,
2026-03-18 08:50:00,METAR EGGW 180850Z AUTO 13007KT 9999 NCD 10/07 Q1020,0,7,0,10000,0,0,0,
2026-03-18 08:20:00,METAR EGGW 180820Z AUTO 13007KT 9999 NCD 09/07 Q1020,0,7,0,10000,0,0,0,
2026-03-18 07:50:00,METAR EGGW 180750Z AUTO 13006KT 9999 NCD 08/07 Q1020,0,6,0,10000,0,0,0,
2026-03-18 07:20:00,METAR EGGW 180720Z AUTO 12006KT 9999 NCD 07/06 Q1019,0,6,0,10000,0,0,0,
2026-03-18 06:50:00,METAR EGGW 180650Z AUTO 12004KT 9999 NCD 06/05 Q1019,0,4,0,10000,0,0,0,
2026-03-18 06:20:00,METAR EGGW 180620Z AUTO 13005KT 9000 NCD 06/05 Q1018,0,5,0,9000,0,0,0,
2026-03-18 05:50:00,METAR EGGW 180550Z AUTO 14006KT 9999 NCD 06/06 Q1018,0,6,0,10000,0,0,0,
2026-03-18 05:20:00,METAR EGGW 180520Z AUTO 13003KT 9999 NCD 06/05 Q1018,0,3,0,10000,0,0,0,
2026-03-18 04:50:00,METAR EGGW 180450Z AUTO 12003KT 9999 NCD 05/04 Q1017,0,3,0,10000,0,0,0,
2026-03-18 04:20:00,METAR EGGW 180420Z AUTO VRB02KT 9999 NCD 06/05 Q1017,0,2,0,10000,0,0,0,
2026-03-18 03:50:00,METAR EGGW 180350Z AUTO 15003KT 9999 NCD 07/05 Q1017,0,3,0,10000,0,0,0,
2026-03-18 03:20:00,METAR EGGW 180320Z AUTO 16003KT 9999 NCD 07/06 Q1016,0,3,0,10000,0,0,0,
2026-03-18 02:50:00,METAR EGGW 180250Z AUTO 15004KT 9999 NCD 07/06 Q1016,0,4,0,10000,0,0,0,
2026-03-18 02:20:00,METAR EGGW 180220Z AUTO 14003KT 9999 NCD 06/05 Q1016,0,3,0,10000,0,0,0,
2026-03-18 01:50:00,METAR EGGW 180150Z AUTO 11002KT 9999 NCD 07/05 Q1016,0,2,0,10000,0,0,0,
2026-03-18 01:20:00,METAR EGGW 180120Z AUTO 16003KT 9999 NCD 07/05 Q1016,0,3,0,10000,0,0,0,
2026-03-18 00:50:00,METAR EGGW 180050Z AUTO 17004KT 9999 NCD 08/05 Q1015,0,4,0,10000,0,0,0,
2026-03-18 00:20:00,METAR EGGW 180020Z AUTO 18004KT 150V210 9999 NCD 08/06 Q1015,0,4,0,10000,0,0,0,
2026-03-17 23:50:00,METAR EGGW 172350Z AUTO 17006KT 9999 NCD 08/05 Q1015,0,6,0,10000,0,0,0,
2026-03-17 23:20:00,METAR EGGW 172320Z AUTO 16005KT 9999 NCD 08/06 Q1015,0,5,0,10000,0,0,0,
2026-03-17 22:50:00,METAR EGGW 172250Z AUTO 15005KT 9999 NCD 07/05 Q1015,0,5,0,10000,0,0,0,
2026-03-17 22:20:00,METAR EGGW 172220Z AUTO 16005KT 9999 NCD 08/06 Q1015,0,5,0,10000,0,0,0,
2026-03-17 21:50:00,METAR EGGW 172150Z AUTO 17006KT 9999 NCD 09/06 Q1015,0,6,0,10000,0,0,0,
2026-03-17 21:20:00,METAR EGGW 172120Z AUTO 17006KT 140V200 9999 NCD 09/06 Q1015,0,6,0,10000,0,0,0,
2026-03-17 20:50:00,METAR EGGW 172050Z AUTO 17005KT 9999 NCD 09/06 Q1015,0,5,0,10000,0,0,0,
2026-03-17 20:20:00,METAR EGGW 172020Z AUTO 17006KT 9999 NCD 09/06 Q1015,0,6,0,10000,0,0,0,
2026-03-17 19:50:00,METAR EGGW 171950Z AUTO 17007KT 9999 NCD 10/06 Q1015,0,7,0,10000,0,0,0,
2026-03-17 19:20:00,METAR EGGW 171920Z AUTO 17007KT 9999 NCD 10/06 Q1014,0,7,0,10000,0,0,0,
2026-03-17 18:50:00,METAR EGGW 171850Z AUTO 17007KT 140V200 9999 NCD 10/05 Q1014,0,7,0,10000,0,0,0,
2026-03-17 18:20:00,METAR EGGW 171820Z AUTO 17007KT 9999 NCD 11/05 Q1014,0,7,0,10000,0,0,0,
2026-03-17 17:50:00,METAR EGGW 171750Z AUTO 19008KT 150V220 9999 NCD 11/05 Q1014,0,8,0,10000,0,0,0,
2026-03-17 17:20:00,METAR EGGW 171720Z AUTO 18010KT 150V210 9999 NCD 12/06 Q1014,0,10,0,10000,0,0,0,
2026-03-17 16:50:00,METAR EGGW 171650Z AUTO 19012KT 9999 NCD 13/06 Q1013,0,12,0,10000,0,0,0,
2026-03-17 16:20:00,METAR EGGW 171620Z AUTO 18011KT 150V230 9999 NCD 13/06 Q1013,0,11,0,10000,0,0,0,
2026-03-17 15:50:00,METAR EGGW 171550Z AUTO 17012KT 150V210 9999 NCD 14/06 Q1013,0,12,0,10000,0,0,0,
2026-03-17 14:50:00,METAR EGGW 171450Z AUTO 17013KT 9999 NCD 14/07 Q1013,0,13,0,10000,0,0,0,
2026-03-17 14:20:00,METAR EGGW 171420Z AUTO 18011KT 150V210 9999 NCD 14/08 Q1014,0,11,0,10000,0,0,0,
2026-03-17 13:50:00,METAR EGGW 171350Z AUTO 19011KT 150V230 9999 NCD 14/08 Q1014,0,11,0,10000,0,0,0,
2026-03-17 13:20:00,METAR EGGW 171320Z AUTO 19010KT 150V220 9999 NCD 13/08 Q1014,0,10,0,10000,0,0,0,
2026-03-17 12:50:00,METAR EGGW 171250Z AUTO 17012KT 9999 NCD 12/07 Q1014,0,12,0,10000,0,0,0,
2026-03-17 12:20:00,METAR EGGW 171220Z 19010KT 160V220 9999 FEW017 12/07 Q1014,0,10,0,10000,0,0,0,
2026-03-17 11:50:00,METAR EGGW 171150Z COR 19012KT 150V210 9999 FEW016 11/07 Q1015,0,12,0,10000,0,0,0,
2026-03-17 11:20:00,METAR EGGW 171120Z AUTO 19011KT 160V220 9999 BKN014 10/07 Q1015,0,11,0,10000,0,0,0,
2026-03-17 10:50:00,METAR EGGW 171050Z AUTO 20012KT 150V220 9999 OVC012 10/07 Q1015,0,12,0,10000,0,0,0,
2026-03-17 10:20:00,METAR EGGW 171020Z AUTO 20011G21KT 150V220 9999 OVC011 09/07 Q1015,0,11,1,10000,0,0,0,
2026-03-17 09:50:00,METAR EGGW 170950Z AUTO 20010KT 160V220 9999 BKN009 09/07 Q1015,0,10,0,10000,0,0,0,
2026-03-17 09:20:00,METAR EGGW 170920Z AUTO 20011KT 160V230 9999 OVC009 09/07 Q1015,0,11,0,10000,0,0,0,
2026-03-17 08:50:00,METAR EGGW 170850Z AUTO 21009KT 170V230 9999 OVC009 09/07 Q1015,0,9,0,10000,0,0,0,
2026-03-17 08:20:00,METAR EGGW 170820Z AUTO 20012KT 160V220 9999 OVC007 08/07 Q1015,0,12,0,10000,0,0,0,
2026-03-17 07:50:00,METAR EGGW 170750Z AUTO 21010KT 9999 OVC007 08/07 Q1015,0,10,0,10000,0,0,0,
2026-03-17 07:20:00,METAR EGGW 170720Z AUTO 21011KT 9999 OVC008 08/07 Q1015,0,11,0,10000,0,0,0,
2026-03-17 06:50:00,METAR EGGW 170650Z AUTO 20012KT 160V230 9999 OVC007 08/07 Q1015,0,12,0,10000,0,0,0,
2026-03-17 06:20:00,METAR EGGW 170620Z AUTO 20010KT 150V230 4800 HZ BKN006 OVC011 08/07 Q1014,0,10,0,4800,0,0,0,
2026-03-17 05:50:00,METAR EGGW 170550Z AUTO 20011KT 160V230 6000 BKN007 OVC013 08/07 Q1014,0,11,0,6000,0,0,0,
2026-03-17 05:20:00,METAR EGGW 170520Z AUTO 21011KT 170V230 9000 BKN006 OVC011 08/07 Q1014,0,11,0,9000,0,0,0,
2026-03-17 04:50:00,METAR EGGW 170450Z AUTO 21010KT 3600 BR OVC005 08/08 Q1014 REDZ,0,10,0,3600,0,0,1,"BR,DZ"
2026-03-17 04:20:00,METAR EGGW 170420Z AUTO 21009KT 170V230 9999 OVC011 09/07 Q1014,0,9,0,10000,0,0,0,
2026-03-17 03:50:00,METAR EGGW 170350Z AUTO 20010KT 170V230 9999 OVC010 09/07 Q1014,0,10,0,10000,0,0,0,
2026-03-17 03:20:00,METAR EGGW 170320Z AUTO 21012KT 9999 OVC009 09/08 Q1014,0,12,0,10000,0,0,0,
2026-03-17 02:50:00,METAR EGGW 170250Z AUTO 21009KT 9999 OVC008 09/08 Q1015,0,9,0,10000,0,0,0,
2026-03-17 02:20:00,METAR EGGW 170220Z AUTO 21009KT 9999 OVC010 09/08 Q1015,0,9,0,10000,0,0,0,
2026-03-17 01:50:00,METAR EGGW 170150Z AUTO 21009KT 9999 OVC009 09/08 Q1015,0,9,0,10000,0,0,0,
2026-03-17 01:20:00,METAR EGGW 170120Z AUTO 22011KT 9999 BKN006 OVC009 09/08 Q1015,0,11,0,10000,0,0,0,
2026-03-17 00:50:00,METAR EGGW 170050Z AUTO 22011KT 6000 BKN007 OVC012 09/08 Q1015,0,11,0,6000,0,0,0,
2026-03-17 00:20:00,METAR EGGW 170020Z AUTO 22011KT 4800 HZ OVC007 09/08 Q1015,0,11,0,4800,0,0,0,
2026-03-16 23:50:00,METAR EGGW 162350Z AUTO 22008KT 6000 OVC009 09/08 Q1015,0,8,0,6000,0,0,0,
2026-03-16 23:20:00,METAR EGGW 162320Z AUTO 22010KT 9000 OVC010 09/08 Q1015,0,10,0,9000,0,0,0,
2026-03-16 22:50:00,METAR EGGW 162250Z AUTO 23010KT 9999 OVC011 09/07 Q1016,0,10,0,10000,0,0,0,
2026-03-16 22:20:00,METAR EGGW 162220Z AUTO 22011KT 9999 OVC012 09/07 Q1015,0,11,0,10000,0,0,0,
2026-03-16 21:50:00,METAR EGGW 162150Z AUTO 22012KT 9999 BKN013 09/07 Q1015,0,12,0,10000,0,0,0,
2026-03-16 21:20:00,METAR EGGW 162120Z AUTO 21012KT 9999 BKN014 09/07 Q1015,0,12,0,10000,0,0,0,
2026-03-16 20:50:00,METAR EGGW 162050Z AUTO 20007KT 160V230 9999 SCT014 BKN040 09/07 Q1015,0,7,0,10000,0,0,0,
2026-03-16 20:20:00,METAR EGGW 162020Z AUTO 21008KT 180V240 9999 FEW045 09/06 Q1015,0,8,0,10000,0,0,0,
2026-03-16 19:50:00,METAR EGGW 161950Z AUTO 22009KT 9999 BKN022 BKN044 09/06 Q1015,0,9,0,10000,0,0,0,
2026-03-16 19:20:00,METAR EGGW 161920Z AUTO 21008KT 9999 OVC024 09/06 Q1015,0,8,0,10000,0,0,0,
2026-03-16 18:50:00,METAR EGGW 161850Z AUTO 20006KT 160V230 9999 OVC028 09/06 Q1015,0,6,0,10000,0,0,0,
2026-03-16 18:20:00,METAR EGGW 161820Z AUTO 21008KT 9999 BKN030 09/06 Q1015,0,8,0,10000,0,0,0,
2026-03-16 17:50:00,METAR EGGW 161750Z AUTO 23010KT 9999 FEW024 SCT044 10/06 Q1015,0,10,0,10000,0,0,0,
2026-03-16 17:20:00,METAR EGGW 161720Z AUTO 24012KT 9999 NCD 10/06 Q1015,0,12,0,10000,0,0,0,
2026-03-16 16:50:00,METAR EGGW 161650Z AUTO 23009KT 9999 -RA //////TCU 10/06 Q1015,0,9,0,10000,0,0,0,-RA
2026-03-16 16:20:00,METAR EGGW 161620Z AUTO 24013KT 9999 -RA //////TCU 09/06 Q1015,0,13,0,10000,0,0,0,-RA
2026-03-16 15:50:00,METAR EGGW 161550Z AUTO 25013KT 9999 -RA NCD 09/06 Q1015,0,13,0,10000,0,0,0,-RA
2026-03-16 15:20:00,METAR EGGW 161520Z AUTO 25015KT 9999 BKN021 BKN026 BKN031 10/06 Q1015,0,15,0,10000,0,0,0,
2026-03-16 14:50:00,METAR EGGW 161450Z AUTO 25014KT 9999 BKN033 10/05 Q1015,0,14,0,10000,0,0,0,
2026-03-16 14:20:00,METAR EGGW 161420Z AUTO 25017KT 9999 FEW026 BKN040 10/05 Q1015,0,17,0,10000,0,0,0,
2026-03-16 13:50:00,METAR EGGW 161350Z AUTO 25014KT 9999 SCT024 10/05 Q1015,0,14,0,10000,0,0,0,
2026-03-16 13:20:00,METAR EGGW 161320Z AUTO 24016KT 9999 SCT026 10/05 Q1015,0,16,0,10000,0,0,0,
2026-03-16 12:50:00,METAR EGGW 161250Z AUTO 25019KT 9999 FEW028 10/04 Q1015,0,19,0,10000,0,0,0,
2026-03-16 12:20:00,METAR EGGW 161220Z 24013KT 9999 FEW025 10/04 Q1015,0,13,0,10000,0,0,0,
2026-03-16 11:50:00,METAR EGGW 161150Z COR 24013KT 9999 FEW025 10/04 Q1015,0,13,0,10000,0,0,0,
2026-03-16 11:20:00,METAR EGGW 161120Z AUTO 24013KT 9999 FEW024 10/05 Q1015,0,13,0,10000,0,0,0,
2026-03-16 10:50:00,METAR EGGW 161050Z AUTO 24015KT 9999 FEW028 09/04 Q1015,0,15,0,10000,0,0,0,
2026-03-16 10:20:00,METAR EGGW 161020Z AUTO 25017KT 9999 NCD 09/03 Q1014,0,17,0,10000,0,0,0,
2026-03-16 09:50:00,METAR EGGW 160950Z AUTO 25017KT 9999 NCD 08/03 Q1014,0,17,0,10000,0,0,0,
2026-03-16 09:20:00,METAR EGGW 160920Z AUTO 23010KT 9999 NCD 08/04 Q1014,0,10,0,10000,0,0,0,
2026-03-16 08:50:00,METAR EGGW 160850Z AUTO 22007KT 190V250 9999 NCD 06/04 Q1014,0,7,0,10000,0,0,0,
2026-03-16 08:20:00,METAR EGGW 160820Z AUTO 20005KT 170V230 9999 NCD 05/03 Q1014,0,5,0,10000,0,0,0,
2026-03-16 07:50:00,METAR EGGW 160750Z AUTO 20004KT 9999 NCD 05/03 Q1013,0,4,0,10000,0,0,0,
2026-03-16 07:20:00,METAR EGGW 160720Z AUTO 21007KT 9999 NCD 04/02 Q1013,0,7,0,10000,0,0,0,
2026-03-16 06:50:00,METAR EGGW 160650Z AUTO 20005KT 160V230 9999 NCD 03/02 Q1013,0,5,0,10000,0,0,0,
2026-03-16 06:20:00,METAR EGGW 160620Z AUTO 24009KT 9999 NCD 04/02 Q1013,0,9,0,10000,0,0,0,
2026-03-16 05:50:00,METAR EGGW 160550Z AUTO 25011KT 9999 NCD 04/01 Q1013,0,11,0,10000,0,0,0,
2026-03-16 05:20:00,METAR EGGW 160520Z AUTO 26010KT 9999 NCD 04/01 Q1012,0,10,0,10000,0,0,0,
2026-03-16 04:50:00,METAR EGGW 160450Z AUTO 25014KT 9999 NCD 04/01 Q1012,0,14,0,10000,0,0,0,
2026-03-16 04:20:00,METAR EGGW 160420Z AUTO 26012KT 9999 NCD 03/01 Q1011,0,12,0,10000,0,0,0,
2026-03-16 03:50:00,METAR EGGW 160350Z AUTO 25011KT 9999 NCD 03/01 Q1011,0,11,0,10000,0,0,0,
2026-03-16 03:20:00,METAR EGGW 160320Z AUTO 26011KT 9999 NCD 03/01 Q1011,0,11,0,10000,0,0,0,
2026-03-16 02:50:00,METAR EGGW 160250Z AUTO 26012KT 9999 NCD 04/01 Q1011,0,12,0,10000,0,0,0,
2026-03-16 02:20:00,METAR EGGW 160220Z AUTO 26013KT 9999 NCD 04/01 Q1011,0,13,0,10000,0,0,0,
2026-03-16 01:50:00,METAR EGGW 160150Z AUTO 25012KT 9999 NCD 04/02 Q1011,0,12,0,10000,0,0,0,
2026-03-16 01:20:00,METAR EGGW 160120Z AUTO 25010KT 9999 NCD 04/01 Q1011,0,10,0,10000,0,0,0,
2026-03-16 00:50:00,METAR EGGW 160050Z AUTO 26010KT 9999 NCD 04/02 Q1010,0,10,0,10000,0,0,0,
2026-03-16 00:20:00,METAR EGGW 160020Z AUTO 26013KT 9999 NCD 04/02 Q1010,0,13,0,10000,0,0,0,
2026-03-15 23:50:00,METAR EGGW 152350Z AUTO 26016KT 9999 NCD 05/03 Q1010,0,16,0,10000,0,0,0,
2026-03-15 23:20:00,METAR EGGW 152320Z AUTO 26015KT 9999 NCD 05/03 Q1010,0,15,0,10000,0,0,0,
2026-03-15 22:50:00,METAR EGGW 152250Z AUTO 25017KT 9999 NCD 05/03 Q1009,0,17,0,10000,0,0,0,
2026-03-15 22:20:00,METAR EGGW 152220Z AUTO 26014KT 9999 NCD 05/04 Q1009,0,14,0,10000,0,0,0,
2026-03-15 21:50:00,METAR EGGW 152150Z AUTO 26020KT 9999 FEW047 06/03 Q1009,0,20,0,10000,0,0,0,
2026-03-15 21:20:00,METAR EGGW 152120Z AUTO 25015KT 9999 NCD 06/04 Q1009,0,15,0,10000,0,0,0,
2026-03-15 20:50:00,METAR EGGW 152050Z AUTO 26017KT 9999 NCD 06/04 Q1008,0,17,0,10000,0,0,0,
2026-03-15 20:20:00,METAR EGGW 152020Z AUTO 26015KT 9999 NCD 06/04 Q1008,0,15,0,10000,0,0,0,
2026-03-15 19:50:00,METAR EGGW 151950Z AUTO 27014KT 9999 NCD 06/04 Q1008,0,14,0,10000,0,0,0,
2026-03-15 19:20:00,METAR EGGW 151920Z AUTO 27014KT 9999 NCD 06/04 Q1007,0,14,0,10000,0,0,0,
2026-03-15 18:50:00,METAR EGGW 151850Z AUTO 27017KT 9999 //////TCU 07/04 Q1007,0,17,0,10000,0,0,0,
2026-03-15 18:20:00,METAR EGGW 151820Z AUTO 26019KT 9999 SCT013/// SCT020/// //////TCU 08/06 Q1007,0,19,0,10000,0,0,0,
2026-03-15 17:50:00,METAR EGGW 151750Z AUTO 24014KT 9999 BKN013/// BKN017/// //////CB 08/07 Q1006,0,14,0,10000,0,0,0,
2026-03-15 17:20:00,METAR EGGW 151720Z AUTO 24013KT 210V270 7000 -RA SCT005/// SCT010/// BKN014/// //////CB 08/07 Q1006 RERA,0,13,0,7000,0,0,0,"-RA,RA"
2026-03-15 16:50:00,METAR EGGW 151650Z AUTO 22012KT 3900 -DZ BKN006/// //////TCU 08/07 Q1006,0,12,0,3900,0,0,0,DZ
2026-03-15 16:20:00,METAR EGGW 151620Z AUTO 21012KT 3700 RADZ BKN009 BKN013 08/07 Q1006 RERA REDZ,0,12,0,3700,0,0,0,"DZ,RA"
2026-03-15 15:50:00,METAR EGGW 151550Z AUTO 21017G29KT 170V240 4300 -RADZ BKN014 OVC018 09/07 Q1006,0,17,1,4300,0,0,0,"-RA,DZ"
2026-03-15 15:20:00,METAR EGGW 151520Z AUTO 20016KT 170V230 9999 OVC019 09/06 Q1006,0,16,0,10000,0,0,0,
2026-03-15 14:50:00,METAR EGGW 151450Z AUTO 21016G26KT 180V240 7000 -RA BKN023 BKN027 09/06 Q1007,0,16,1,7000,0,0,0,-RA
2026-03-15 14:20:00,METAR EGGW 151420Z AUTO 21020KT 9999 BKN031 OVC044 11/04 Q1007,0,20,0,10000,0,0,0,
2026-03-15 13:50:00,METAR EGGW 151350Z AUTO 21018KT 9999 BKN034 11/04 Q1008,0,18,0,10000,0,0,0,
2026-03-15 13:20:00,METAR EGGW 151320Z AUTO 22019G31KT 9999 FEW036 BKN044 11/04 Q1008,0,19,1,10000,0,0,0,
2026-03-15 12:50:00,METAR EGGW 151250Z AUTO 22019G29KT 9999 FEW047 11/03 Q1009,0,19,1,10000,0,0,0,
2026-03-15 12:20:00,METAR EGGW 151220Z AUTO 21017G28KT 180V240 9999 FEW034 11/03 Q1009,0,17,1,10000,0,0,0,
2026-03-15 11:50:00,METAR EGGW 151150Z AUTO 21018KT 150V240 9999 FEW032 10/03 Q1010,0,18,0,10000,0,0,0,
2026-03-15 11:20:00,METAR EGGW 151120Z AUTO 22018KT 9999 FEW029 09/03 Q1010,0,18,0,10000,0,0,0,
2026-03-15 10:50:00,METAR EGGW 151050Z AUTO 21015KT 170V240 9999 FEW027 09/03 Q1010,0,15,0,10000,0,0,0,
2026-03-15 10:20:00,METAR EGGW 151020Z AUTO 22015KT 9999 SCT022 09/04 Q1011,0,15,0,10000,0,0,0,
2026-03-15 09:50:00,METAR EGGW 150950Z AUTO 22014G24KT 9999 FEW020 07/03 Q1012,0,14,1,10000,0,0,0,
2026-03-15 09:20:00,METAR EGGW 150920Z COR 22013KT 9999 FEW016 08/04 Q1012,0,13,0,10000,0,0,0,
2026-03-15 08:50:00,METAR EGGW 150850Z AUTO 21010KT 9999 NCD 05/03 Q1012,0,10,0,10000,0,0,0,
2026-03-15 08:20:00,METAR EGGW 150820Z AUTO 21010KT 9999 NCD 05/03 Q1011,0,10,0,10000,0,0,0,
