Time_recorded,METAR,is_cavok,wind_speed,is_gust,visibility_meters,has_thunderstorm,has_heavy_rain,has_low_vis_fog,other_phenomenon
2026-05-02 15:00:00,METAR RPLL 021500Z 13008KT 090V160 9999 FEW025 29/23 Q1011 NOSIG RMK A2985,0,8,0,10000,0,0,0,
2026-05-02 14:00:00,METAR RPLL 021400Z 12006KT 070V140 9999 FEW025 30/23 Q1010 NOSIG RMK A2983,0,6,0,10000,0,0,0,
2026-05-02 13:00:00,METAR RPLL 021300Z 11006KT 070V140 9999 FEW025 30/23 Q1010 NOSIG RMK A2983,0,6,0,10000,0,0,0,
2026-05-02 12:00:00,METAR RPLL 021200Z 12009KT 080V150 9999 FEW025 30/24 Q1010 NOSIG RMK A2983,0,9,0,10000,0,0,0,
2026-05-02 11:00:00,METAR RPLL 021100Z 11011KT 070V140 9999 FEW025 31/24 Q1009 NOSIG RMK A2980,0,11,0,10000,0,0,0,
2026-05-02 10:00:00,METAR RPLL 021000Z 11011KT 070V150 9999 FEW025 32/24 Q1008 NOSIG RMK A2977,0,11,0,10000,0,0,0,
2026-05-02 09:00:00,METAR RPLL 020900Z 11013G24KT 080V160 9999 FEW025 33/24 Q1007 NOSIG RMK A2974,0,13,1,10000,0,0,0,
2026-05-02 08:00:00,METAR RPLL 020800Z 12010G21KT 080V180 9999 FEW025 35/23 Q1007 NOSIG RMK A2974,0,10,1,10000,0,0,0,
2026-05-02 07:00:00,METAR RPLL 020700Z 13010KT 070V180 9999 FEW025 36/24 Q1007 NOSIG RMK A2974,0,10,0,10000,0,0,0,
2026-05-02 06:00:00,METAR RPLL 020600Z 13011G21KT 070V170 9999 FEW025 36/23 Q1008 NOSIG RMK A2977,0,11,1,10000,0,0,0,
2026-05-02 05:00:00,METAR RPLL 020500Z 13010KT 080V200 9999 FEW025 35/23 Q1009 NOSIG RMK A2980,0,10,0,10000,0,0,0,
2026-05-02 04:00:00,METAR RPLL 020400Z 12006KT 070V190 9999 SCT025 35/23 Q1010 NOSIG RMK A2983,0,6,0,10000,0,0,0,
2026-05-02 03:00:00,METAR RPLL 020300Z 27005KT 220V310 9999 SCT025 33/23 Q1011 NOSIG RMK A2985,0,5,0,10000,0,0,0,
2026-05-02 02:00:00,METAR RPLL 020200Z VRB04KT 9999 FEW025 34/22 Q1011 NOSIG RMK A2985,0,4,0,10000,0,0,0,
2026-05-02 01:00:00,METAR RPLL 020100Z 12005KT 050V220 9999 FEW025 33/22 Q1011 NOSIG RMK A2985,0,5,0,10000,0,0,0,
2026-05-02 00:00:00,METAR RPLL 020000Z 09005KT 030V160 9999 FEW025 32/22 Q1011 NOSIG RMK A2985,0,5,0,10000,0,0,0,
2026-05-01 23:00:00,METAR RPLL 012300Z 13003KT 080V200 9999 FEW025 30/22 Q1011 NOSIG RMK A2985,0,3,0,10000,0,0,0,
2026-05-01 22:00:00,METAR RPLL 012200Z 13003KT 090V160 9999 FEW025 28/23 Q1011 NOSIG RMK A2985,0,3,0,10000,0,0,0,
2026-05-01 21:00:00,METAR RPLL 012100Z 17003KT 130V190 9999 FEW025 BKN100 29/22 Q1010 NOSIG RMK A2983,0,3,0,10000,0,0,0,
2026-05-01 20:00:00,METAR RPLL 012000Z 08003KT 9999 FEW025 28/21 Q1010 NOSIG RMK A2983,0,3,0,10000,0,0,0,
2026-05-01 19:00:00,METAR RPLL 011900Z 09004KT 060V130 9999 FEW025 29/21 Q1009 NOSIG RMK A2980,0,4,0,10000,0,0,0,
2026-05-01 18:00:00,METAR RPLL 011800Z VRB02KT 9999 FEW025 29/21 Q1010 NOSIG RMK A2983,0,2,0,10000,0,0,0,
2026-05-01 17:00:00,METAR RPLL 011700Z VRB02KT 9999 FEW025 29/21 Q1010 NOSIG RMK A2983,0,2,0,10000,0,0,0,
2026-05-01 16:00:00,METAR RPLL 011600Z COR 10004KT 040V150 9999 FEW025 29/22 Q1011 NOSIG RMK A2985,0,4,0,10000,0,0,0,
2026-05-01 15:00:00,METAR RPLL 011500Z 11005KT 070V150 9999 FEW025 30/21 Q1011 NOSIG RMK A2985,0,5,0,10000,0,0,0,
2026-05-01 14:00:00,METAR RPLL 011400Z 12007KT 090V170 9999 FEW025 30/22 Q1011 NOSIG RMK A2985,0,7,0,10000,0,0,0,
2026-05-01 13:00:00,METAR RPLL 011300Z 12006KT 090V160 9999 FEW025 30/23 Q1010 NOSIG RMK A2983,0,6,0,10000,0,0,0,
2026-05-01 12:00:00,METAR RPLL 011200Z 12006KT 070V160 9999 FEW025 31/23 Q1010 NOSIG RMK A2983,0,6,0,10000,0,0,0,
2026-05-01 11:00:00,METAR RPLL 011100Z 11007KT 070V140 9999 FEW025 SCT100 32/23 Q1010 NOSIG RMK A2983,0,7,0,10000,0,0,0,
2026-05-01 10:00:00,METAR RPLL 011000Z 11011KT 080V140 9999 FEW025 33/21 Q1009 NOSIG RMK A2980,0,11,0,10000,0,0,0,
2026-05-01 09:00:00,METAR RPLL 010900Z 12012KT 9999 FEW025 33/22 Q1008 NOSIG RMK A2977,0,12,0,10000,0,0,0,
2026-05-01 08:00:00,METAR RPLL 010800Z 13010KT 090V190 9999 SCT025 BKN100 34/24 Q1008 NOSIG RMK A2977,0,10,0,10000,0,0,0,
2026-05-01 07:00:00,METAR RPLL 010700Z 13012KT 090V180 9999 FEW025 35/23 Q1008 NOSIG RMK A2977,0,12,0,10000,0,0,0,
2026-05-01 06:00:00,METAR RPLL 010600Z 13012KT 090V180 9999 FEW025 35/23 Q1009 NOSIG RMK A2980 FU SW,0,12,0,10000,0,0,0,
2026-05-01 05:00:00,METAR RPLL 010500Z 13011KT 070V180 9999 FEW025 35/22 Q1010 NOSIG RMK A2983,0,11,0,10000,0,0,0,
2026-05-01 04:00:00,METAR RPLL 010400Z 13011KT 080V190 9999 FEW025 34/24 Q1011 NOSIG RMK A2985,0,11,0,10000,0,0,0,
2026-05-01 03:00:00,METAR RPLL 010300Z 13009G19KT 080V170 9999 FEW025 SCT100 33/24 Q1011 NOSIG RMK A2985,0,9,1,10000,0,0,0,
2026-05-01 02:00:00,METAR RPLL 010200Z 13008KT 080V170 9999 SCT025 BKN100 32/25 Q1012 NOSIG RMK A2988,0,8,0,10000,0,0,0,
2026-05-01 01:00:00,METAR RPLL 010100Z 11006KT 060V150 9999 SCT025 BKN100 31/24 Q1012 NOSIG RMK A2988,0,6,0,10000,0,0,0,
2026-05-01 00:00:00,METAR RPLL 010000Z COR 08006KT 060V120 9999 SCT025 BKN100 30/24 Q1012 NOSIG RMK A2988,0,6,0,10000,0,0,0,
2026-04-30 23:00:00,METAR RPLL 302300Z 09004KT 060V130 9999 FEW025 SCT100 29/24 Q1012 NOSIG RMK A2988,0,4,0,10000,0,0,0,
2026-04-30 22:00:00,METAR RPLL 302200Z 07005KT 9999 FEW025 SCT100 28/24 Q1011 NOSIG RMK A2985,0,5,0,10000,0,0,0,
2026-04-30 21:00:00,METAR RPLL 302100Z 10005KT 9999 FEW025 BKN100 29/23 Q1010 NOSIG RMK A2983,0,5,0,10000,0,0,0,
2026-04-30 20:00:00,METAR RPLL 302000Z 10006KT 060V140 9999 FEW025 29/23 Q1010 NOSIG RMK A2983,0,6,0,10000,0,0,0,
2026-04-30 19:00:00,METAR RPLL 301900Z 12005KT 060V160 9999 FEW025 29/23 Q1010 NOSIG RMK A2983,0,5,0,10000,0,0,0,
2026-04-30 18:00:00,METAR RPLL 301800Z 13004KT 090V170 9999 FEW025 29/23 Q1011 NOSIG RMK A2985,0,4,0,10000,0,0,0,
2026-04-30 17:00:00,METAR RPLL 301700Z 12006KT 080V150 9999 FEW025 29/22 Q1011 NOSIG RMK A2985,0,6,0,10000,0,0,0,
2026-04-30 16:00:00,METAR RPLL 301600Z 12004KT 090V160 9999 FEW025 29/22 Q1012 NOSIG RMK A2988,0,4,0,10000,0,0,0,
2026-04-30 15:00:00,METAR RPLL 301500Z 12006KT 090V150 9999 FEW025 30/21 Q1012 NOSIG RMK A2988,0,6,0,10000,0,0,0,
2026-04-30 14:00:00,METAR RPLL 301400Z 11006KT 070V150 9999 FEW025 30/22 Q1012 NOSIG RMK A2988,0,6,0,10000,0,0,0,
2026-04-30 13:00:00,METAR RPLL 301300Z 13007KT 9999 FEW025 30/22 Q1011 NOSIG RMK A2985,0,7,0,10000,0,0,0,
2026-04-30 12:00:00,METAR RPLL 301200Z 12007KT 080V170 9999 FEW025 31/23 Q1011 NOSIG RMK A2985,0,7,0,10000,0,0,0,
2026-04-30 11:00:00,METAR RPLL 301100Z 14007KT 090V190 9999 FEW025 31/24 Q1010 NOSIG RMK A2983,0,7,0,10000,0,0,0,
2026-04-30 10:00:00,METAR RPLL 301000Z 16008KT 100V200 9999 FEW025 32/24 Q1009 NOSIG RMK A2980,0,8,0,10000,0,0,0,
2026-04-30 09:00:00,METAR RPLL 300900Z 15010G22KT 120V200 9999 FEW025 34/22 Q1008 NOSIG RMK A2977,0,10,1,10000,0,0,0,
2026-04-30 08:00:00,METAR RPLL 300800Z 15010KT 080V200 9999 FEW025 35/22 Q1009 NOSIG RMK A2980,0,10,0,10000,0,0,0,
2026-04-30 07:00:00,METAR RPLL 300700Z 13008KT 070V210 9999 FEW025 35/23 Q1009 NOSIG RMK A2980,0,8,0,10000,0,0,0,
2026-04-30 06:00:00,METAR RPLL 300600Z 16009KT 110V210 9999 FEW025 35/22 Q1009 NOSIG RMK A2980,0,9,0,10000,0,0,0,
2026-04-30 05:00:00,METAR RPLL 300500Z VRB07KT 9999 FEW025 35/23 Q1010 NOSIG RMK A2983,0,7,0,10000,0,0,0,
2026-04-30 04:00:00,METAR RPLL 300400Z VRB06KT 9999 FEW025 35/23 Q1011 NOSIG RMK A2985,0,6,0,10000,0,0,0,
2026-04-30 03:00:00,METAR RPLL 300300Z VRB05KT 9999 FEW025 34/23 Q1011 NOSIG RMK A2985,0,5,0,10000,0,0,0,
2026-04-30 02:00:00,METAR RPLL 300200Z 10006KT 040V170 9999 FEW025 34/22 Q1012 NOSIG RMK A2988,0,6,0,10000,0,0,0,
2026-04-30 01:00:00,METAR RPLL 300100Z VRB03KT 9999 FEW025 32/21 Q1012 NOSIG RMK A2988,0,3,0,10000,0,0,0,
2026-04-30 00:00:00,METAR RPLL 300000Z 07004KT 020V140 9999 FEW025 32/20 Q1012 NOSIG RMK A2988,0,4,0,10000,0,0,0,
2026-04-29 23:00:00,METAR RPLL 292300Z 00000KT 9999 FEW025 30/19 Q1012 NOSIG RMK A2988,0,0,0,10000,0,0,0,
2026-04-29 22:00:00,METAR RPLL 292200Z VRB02KT 9999 FEW025 27/19 Q1012 NOSIG RMK A2988,0,2,0,10000,0,0,0,
2026-04-29 21:00:00,METAR RPLL 292100Z 09003KT 060V120 9999 FEW025 27/19 Q1011 NOSIG RMK A2985,0,3,0,10000,0,0,0,
2026-04-29 20:00:00,METAR RPLL 292000Z VRB02KT 9999 FEW025 28/20 Q1011 NOSIG RMK A2985,0,2,0,10000,0,0,0,
2026-04-29 19:00:00,METAR RPLL 291900Z 07004KT 9999 FEW025 26/21 Q1011 NOSIG RMK A2985,0,4,0,10000,0,0,0,
2026-04-29 18:00:00,METAR RPLL 291800Z 09005KT 9999 FEW025 28/21 Q1012 NOSIG RMK A2988,0,5,0,10000,0,0,0,
2026-04-29 17:00:00,METAR RPLL 291700Z 11003KT 070V140 9999 FEW025 29/21 Q1012 NOSIG RMK A2988,0,3,0,10000,0,0,0,
2026-04-29 16:00:00,METAR RPLL 291600Z 12008KT 080V140 9999 FEW025 29/21 Q1012 NOSIG RMK A2988,0,8,0,10000,0,0,0,
2026-04-29 15:00:00,METAR RPLL 291500Z 12008KT 090V160 9999 FEW025 29/21 Q1013 NOSIG RMK A2991,0,8,0,10000,0,0,0,
2026-04-29 14:00:00,METAR RPLL 291400Z 12006KT 090V160 9999 FEW025 29/22 Q1012 NOSIG RMK A2988,0,6,0,10000,0,0,0,
2026-04-29 13:00:00,METAR RPLL 291300Z 12008KT 100V160 9999 FEW025 30/22 Q1011 NOSIG RMK A2985,0,8,0,10000,0,0,0,
2026-04-29 12:00:00,METAR RPLL 291200Z 12008KT 080V170 9999 FEW025 31/22 Q1011 NOSIG RMK A2985,0,8,0,10000,0,0,0,
2026-04-29 11:00:00,METAR RPLL 291100Z COR 12008KT 090V170 9999 FEW025 31/22 Q1010 NOSIG RMK A2983,0,8,0,10000,0,0,0,
2026-04-29 10:00:00,METAR RPLL 291000Z 12008KT 080V180 9999 FEW025 32/22 Q1009 NOSIG RMK A2980,0,8,0,10000,0,0,0,
2026-04-29 09:00:00,METAR RPLL 290900Z 13008KT 080V180 9999 FEW025 34/22 Q1009 NOSIG RMK A2980,0,8,0,10000,0,0,0,
2026-04-29 08:00:00,METAR RPLL 290800Z 13011KT 090V170 9999 FEW025 35/21 Q1009 NOSIG RMK A2980,0,11,0,10000,0,0,0,
2026-04-29 07:00:00,METAR RPLL 290700Z 13008KT 050V190 9999 FEW025 37/22 Q1009 NOSIG RMK A2980,0,8,0,10000,0,0,0,
2026-04-29 06:00:00,METAR RPLL 290600Z 12010KT 080V160 9999 FEW025 35/22 Q1009 NOSIG RMK A2980,0,10,0,10000,0,0,0,
2026-04-29 05:00:00,METAR RPLL 290500Z 14009KT 090V210 9999 FEW025 36/23 Q1010 NOSIG RMK A2983,0,9,0,10000,0,0,0,
2026-04-29 04:00:00,METAR RPLL 290400Z 13008KT 080V190 9999 FEW025 35/23 Q1011 NOSIG RMK A2985,0,8,0,10000,0,0,0,
2026-04-29 03:00:00,METAR RPLL 290300Z 13008KT 080V170 9999 FEW025 34/24 Q1012 NOSIG RMK A2988,0,8,0,10000,0,0,0,
2026-04-29 02:00:00,METAR RPLL 290200Z 11008KT 060V170 9999 FEW025 33/24 Q1012 NOSIG RMK A2988,0,8,0,10000,0,0,0,
2026-04-29 01:00:00,METAR RPLL 290100Z 11009KT 070V150 9999 FEW025 32/24 Q1012 NOSIG RMK A2988,0,9,0,10000,0,0,0,
2026-04-29 00:00:00,METAR RPLL 290000Z 10008KT 070V140 9999 FEW025 31/24 Q1012 NOSIG RMK A2988,0,8,0,10000,0,0,0,
2026-04-28 23:00:00,METAR RPLL 282300Z 12007KT 090V160 9999 FEW025 30/24 Q1011 NOSIG RMK A2985,0,7,0,10000,0,0,0,
2026-04-28 22:00:00,METAR RPLL 282200Z 12004KT 080V190 9999 SCT025 29/25 Q1011 NOSIG RMK A2985,0,4,0,10000,0,0,0,
2026-04-28 21:00:00,METAR RPLL 282100Z 14005KT 100V190 9999 FEW025 29/24 Q1010 NOSIG RMK A2983,0,5,0,10000,0,0,0,
2026-04-28 20:00:00,METAR RPLL 282000Z 12004KT 080V150 9999 FEW025 29/23 Q1009 NOSIG RMK A2980,0,4,0,10000,0,0,0,
2026-04-28 19:00:00,METAR RPLL 281900Z 12007KT 090V160 9999 FEW025 29/23 Q1009 NOSIG RMK A2980,0,7,0,10000,0,0,0,
2026-04-28 18:00:00,METAR RPLL 281800Z 11005KT 050V160 9999 FEW025 SCT100 29/24 Q1010 NOSIG RMK A2983,0,5,0,10000,0,0,0,
2026-04-28 17:00:00,METAR RPLL 281700Z 12005KT 090V160 9999 FEW025 30/24 Q1010 NOSIG RMK A2983,0,5,0,10000,0,0,0,
2026-04-28 16:00:00,METAR RPLL 281600Z 13006KT 090V170 9999 FEW025 SCT100 30/24 Q1011 NOSIG RMK A2985,0,6,0,10000,0,0,0,
2026-04-28 15:00:00,METAR RPLL 281500Z 11007KT 080V140 9999 FEW025 SCT100 30/24 Q1012 NOSIG RMK A2988,0,7,0,10000,0,0,0,
2026-04-28 14:00:00,METAR RPLL 281400Z 12006KT 070V170 9999 FEW025 30/24 Q1011 NOSIG RMK A2985 DSNT OCNL LTG SE,0,6,0,10000,0,0,0,DS
2026-04-28 13:00:00,METAR RPLL 281300Z 12005KT 070V160 9999 FEW025 BKN100 30/24 Q1011 NOSIG RMK A2985,0,5,0,10000,0,0,0,
2026-04-28 12:00:00,METAR RPLL 281200Z 12009KT 080V160 9999 FEW025 31/24 Q1010 NOSIG RMK A2983,0,9,0,10000,0,0,0,
2026-04-28 11:00:00,METAR RPLL 281100Z 13008KT 070V210 9999 FEW025 31/23 Q1009 NOSIG RMK A2980,0,8,0,10000,0,0,0,
2026-04-28 10:00:00,METAR RPLL 281000Z 13008KT 050V170 9999 SCT025 BKN100 32/24 Q1009 NOSIG RMK A2980,0,8,0,10000,0,0,0,
2026-04-28 09:00:00,METAR RPLL 280900Z 12011KT 090V170 9999 SCT025 33/23 Q1008 NOSIG RMK A2977,0,11,0,10000,0,0,0,
2026-04-28 08:00:00,METAR RPLL 280800Z 11010KT 070V140 9999 SCT025 35/22 Q1007 NOSIG RMK A2974,0,10,0,10000,0,0,0,
2026-04-28 07:00:00,METAR RPLL 280700Z 10009KT 070V150 9999 SCT025 35/22 Q1008 NOSIG RMK A2977,0,9,0,10000,0,0,0,
2026-04-28 06:00:00,METAR RPLL 280600Z 12009KT 080V160 9999 FEW025 35/23 Q1008 NOSIG RMK A2977,0,9,0,10000,0,0,0,
2026-04-28 05:00:00,METAR RPLL 280500Z 10012KT 070V140 9999 FEW025 35/23 Q1009 NOSIG RMK A2980,0,12,0,10000,0,0,0,
2026-04-28 04:00:00,METAR RPLL 280400Z 10012KT 050V120 9999 FEW025 34/23 Q1010 NOSIG RMK A2983,0,12,0,10000,0,0,0,
2026-04-28 03:00:00,METAR RPLL 280300Z 10009KT 070V130 9999 FEW025 34/24 Q1011 NOSIG RMK A2985,0,9,0,10000,0,0,0,
2026-04-28 02:00:00,METAR RPLL 280200Z 10011KT 070V150 9999 FEW025 32/23 Q1011 NOSIG RMK A2985,0,11,0,10000,0,0,0,
2026-04-28 01:00:00,METAR RPLL 280100Z 10010KT 070V140 9999 FEW025 SCT100 31/23 Q1012 NOSIG RMK A2988,0,10,0,10000,0,0,0,
2026-04-28 00:00:00,METAR RPLL 280000Z 10008KT 070V140 9999 FEW025 31/24 Q1011 NOSIG RMK A2985,0,8,0,10000,0,0,0,
2026-04-27 23:00:00,METAR RPLL 272300Z 11006KT 080V150 9999 FEW025 30/23 Q1011 NOSIG RMK A2985,0,6,0,10000,0,0,0,
2026-04-27 22:00:00,METAR RPLL 272200Z 10004KT 070V130 9999 FEW025 29/24 Q1010 NOSIG RMK A2983,0,4,0,10000,0,0,0,
2026-04-27 21:00:00,METAR RPLL 272100Z 10005KT 060V130 9999 SCT025 29/23 Q1010 NOSIG RMK A2983,0,5,0,10000,0,0,0,
2026-04-27 20:00:00,METAR RPLL 272000Z 12006KT 080V150 9999 FEW025 SCT100 29/23 Q1009 NOSIG RMK A2980,0,6,0,10000,0,0,0,
2026-04-27 19:00:00,METAR RPLL 271900Z 11006KT 9999 FEW025 29/23 Q1009 NOSIG RMK A2980,0,6,0,10000,0,0,0,
2026-04-27 18:00:00,METAR RPLL 271800Z 10006KT 9999 SCT025 29/23 Q1009 NOSIG RMK A2980,0,6,0,10000,0,0,0,
2026-04-27 17:00:00,METAR RPLL 271700Z 10005KT 070V140 9999 FEW025 SCT100 29/23 Q1010 NOSIG RMK A2983,0,5,0,10000,0,0,0,
2026-04-27 16:00:00,METAR RPLL 271600Z 10007KT 070V140 9999 FEW025 29/23 Q1010 NOSIG RMK A2983,0,7,0,10000,0,0,0,
2026-04-27 15:00:00,METAR RPLL 271500Z 11009KT 080V140 9999 FEW025 30/23 Q1010 NOSIG RMK A2983,0,9,0,10000,0,0,0,
2026-04-27 14:00:00,METAR RPLL 271400Z 11008KT 080V150 9999 FEW025 30/23 Q1010 NOSIG RMK A2983,0,8,0,10000,0,0,0,
2026-04-27 13:00:00,METAR RPLL 271300Z 11009KT 080V140 9999 FEW025 30/23 Q1010 NOSIG RMK A2983,0,9,0,10000,0,0,0,
2026-04-27 12:00:00,METAR RPLL 271200Z 11011KT 090V160 9999 FEW025 30/23 Q1010 NOSIG RMK A2983,0,11,0,10000,0,0,0,
2026-04-27 11:00:00,METAR RPLL 271100Z 11013G23KT 9999 FEW025 31/23 Q1009 NOSIG RMK A2980,0,13,1,10000,0,0,0,
2026-04-27 10:00:00,METAR RPLL 271000Z 12011KT 090V170 9999 FEW025 32/24 Q1008 NOSIG RMK A2977,0,11,0,10000,0,0,0,
2026-04-27 09:00:00,METAR RPLL 270900Z 13011G21KT 080V200 9999 FEW025TCU 33/24 Q1007 NOSIG RMK A2974 TCU W-NW,0,11,1,10000,0,0,0,
2026-04-27 08:00:00,METAR RPLL 270800Z 12012KT 080V170 9999 FEW025TCU 35/24 Q1007 NOSIG RMK A2974 TCU NW,0,12,0,10000,0,0,0,
2026-04-27 07:00:00,METAR RPLL 270700Z 13013G24KT 090V160 9999 FEW025 35/23 Q1007 NOSIG RMK A2974,0,13,1,10000,0,0,0,
2026-04-27 06:00:00,METAR RPLL 270600Z 14011KT 090V170 9999 FEW025 36/23 Q1008 NOSIG RMK A2977,0,11,0,10000,0,0,0,
2026-04-27 05:00:00,METAR RPLL 270500Z 12010G21KT 070V170 9999 FEW025 35/23 Q1009 NOSIG RMK A2980,0,10,1,10000,0,0,0,
2026-04-27 04:00:00,METAR RPLL 270400Z 12010KT 080V200 9999 FEW025 35/23 Q1010 NOSIG RMK A2983,0,10,0,10000,0,0,0,
2026-04-27 03:00:00,METAR RPLL 270300Z VRB06KT 9999 FEW025 35/24 Q1011 NOSIG RMK A2985,0,6,0,10000,0,0,0,
2026-04-27 02:00:00,METAR RPLL 270200Z 13007KT 060V210 9999 FEW025 33/24 Q1011 NOSIG RMK A2985,0,7,0,10000,0,0,0,
2026-04-27 01:00:00,METAR RPLL 270100Z VRB05KT 9999 FEW025 33/23 Q1012 NOSIG RMK A2988,0,5,0,10000,0,0,0,
2026-04-27 00:00:00,METAR RPLL 270000Z 10005KT 050V130 9999 FEW025 32/22 Q1011 NOSIG RMK A2985,0,5,0,10000,0,0,0,
2026-04-26 23:00:00,METAR RPLL 262300Z 06004KT 020V120 9999 FEW025 30/23 Q1011 NOSIG RMK A2985,0,4,0,10000,0,0,0,
2026-04-26 22:00:00,METAR RPLL 262200Z VRB01KT 9999 FEW025 28/22 Q1010 NOSIG RMK A2983,0,1,0,10000,0,0,0,
2026-04-26 21:00:00,METAR RPLL 262100Z 11003KT 080V140 9999 FEW025 29/22 Q1010 NOSIG RMK A2983,0,3,0,10000,0,0,0,
2026-04-26 20:00:00,METAR RPLL 262000Z VRB02KT 9999 FEW025 29/22 Q1009 NOSIG RMK A2980,0,2,0,10000,0,0,0,
2026-04-26 19:00:00,METAR RPLL 261900Z 10003KT 9999 FEW025 29/23 Q1009 NOSIG RMK A2980,0,3,0,10000,0,0,0,
2026-04-26 18:00:00,METAR RPLL 261800Z 09005KT 9999 FEW025 29/23 Q1010 NOSIG RMK A2983,0,5,0,10000,0,0,0,
2026-04-26 17:00:00,METAR RPLL 261700Z 11005KT 070V160 9999 FEW025 30/23 Q1010 NOSIG RMK A2983,0,5,0,10000,0,0,0,
2026-04-26 16:00:00,METAR RPLL 261600Z 12005KT 070V150 9999 FEW025 SCT100 30/23 Q1010 NOSIG RMK A2983,0,5,0,10000,0,0,0,
2026-04-26 15:00:00,METAR RPLL 261500Z 12005KT 080V170 9999 FEW025 SCT100 30/23 Q1011 NOSIG RMK A2985,0,5,0,10000,0,0,0,
2026-04-26 14:00:00,METAR RPLL 261400Z 12007KT 070V150 9999 FEW025 SCT100 30/23 Q1011 NOSIG RMK A2985,0,7,0,10000,0,0,0,
2026-04-26 13:00:00,METAR RPLL 261300Z 13006KT 090V180 9999 FEW025 BKN100 31/25 Q1011 NOSIG RMK A2985,0,6,0,10000,0,0,0,
2026-04-26 12:00:00,METAR RPLL 261200Z COR 13008KT 100V170 9999 FEW025 SCT100 31/24 Q1010 NOSIG RMK A2983 DSNT FRQ LTG NW,0,8,0,10000,0,0,0,DS
2026-04-26 11:00:00,METAR RPLL 261100Z 12010KT 080V150 9999 FEW025 32/24 Q1009 NOSIG RMK A2980,0,10,0,10000,0,0,0,
2026-04-26 10:00:00,METAR RPLL 261000Z 13007KT 070V190 9999 FEW025 SCT100 33/24 Q1008 NOSIG RMK A2977,0,7,0,10000,0,0,0,
2026-04-26 09:00:00,METAR RPLL 260900Z 13008KT 080V190 9999 FEW025 SCT100 35/21 Q1007 NOSIG RMK A2974,0,8,0,10000,0,0,0,
2026-04-26 08:00:00,METAR RPLL 260800Z 12009KT 080V160 9999 FEW025 35/21 Q1007 NOSIG RMK A2974,0,9,0,10000,0,0,0,
2026-04-26 07:00:00,METAR RPLL 260700Z 12008KT 070V170 9999 FEW025 36/22 Q1007 NOSIG RMK A2974,0,8,0,10000,0,0,0,
2026-04-26 06:00:00,METAR RPLL 260600Z 11008KT 080V160 9999 FEW025 36/22 Q1008 NOSIG RMK A2977,0,8,0,10000,0,0,0,
2026-04-26 05:00:00,METAR RPLL 260500Z 13008KT 070V210 9999 FEW025 35/23 Q1009 NOSIG RMK A2980,0,8,0,10000,0,0,0,
2026-04-26 04:00:00,METAR RPLL 260400Z 13007KT 080V170 9999 FEW025 35/23 Q1010 NOSIG RMK A2983,0,7,0,10000,0,0,0,
2026-04-26 03:00:00,METAR RPLL 260300Z 13006KT 050V190 9999 FEW025 34/23 Q1011 NOSIG RMK A2985,0,6,0,10000,0,0,0,
2026-04-26 02:00:00,METAR RPLL 260200Z 13005KT 060V180 9999 FEW025 33/22 Q1012 NOSIG RMK A2988,0,5,0,10000,0,0,0,
2026-04-26 01:00:00,METAR RPLL 260100Z VRB03KT 9999 FEW025 32/23 Q1012 NOSIG RMK A2988,0,3,0,10000,0,0,0,
2026-04-26 00:00:00,METAR RPLL 260000Z 16005KT 120V220 9999 FEW025 31/23 Q1012 NOSIG RMK A2988,0,5,0,10000,0,0,0,
2026-04-25 23:00:00,METAR RPLL 252300Z VRB02KT 9000 FEW025 30/23 Q1012 NOSIG RMK A2988,0,2,0,9000,0,0,0,
2026-04-25 22:00:00,METAR RPLL 252200Z VRB02KT 9000 FEW025 BKN100 28/23 Q1011 NOSIG RMK A2985,0,2,0,9000,0,0,0,
2026-04-25 21:00:00,METAR RPLL 252100Z VRB02KT 9999 FEW025 28/22 Q1010 NOSIG RMK A2983,0,2,0,10000,0,0,0,
2026-04-25 20:00:00,METAR RPLL 252000Z VRB02KT 9999 FEW025 29/22 Q1010 NOSIG RMK A2983,0,2,0,10000,0,0,0,
2026-04-25 19:00:00,METAR RPLL 251900Z VRB02KT 9999 FEW025 29/22 Q1010 NOSIG RMK A2983,0,2,0,10000,0,0,0,
2026-04-25 18:00:00,METAR RPLL 251800Z VRB01KT 9999 FEW025 29/22 Q1010 NOSIG RMK A2983,0,1,0,10000,0,0,0,
2026-04-25 17:00:00,METAR RPLL 251700Z 13004KT 090V180 9999 FEW025 29/22 Q1011 NOSIG RMK A2985,0,4,0,10000,0,0,0,
2026-04-25 16:00:00,METAR RPLL 251600Z 11004KT 070V140 9999 FEW025 30/22 Q1012 NOSIG RMK A2988,0,4,0,10000,0,0,0,
2026-04-25 15:00:00,METAR RPLL 251500Z 12007KT 070V150 9999 FEW025 30/22 Q1012 NOSIG RMK A2988,0,7,0,10000,0,0,0,
2026-04-25 14:00:00,METAR RPLL 251400Z VRB07KT 9999 FEW025 30/22 Q1012 NOSIG RMK A2988,0,7,0,10000,0,0,0,
2026-04-25 13:00:00,METAR RPLL 251300Z 12008KT 080V160 9999 FEW025 30/23 Q1012 NOSIG RMK A2988,0,8,0,10000,0,0,0,
2026-04-25 12:00:00,METAR RPLL 251200Z 12008KT 070V150 9999 FEW025 31/23 Q1011 NOSIG RMK A2985,0,8,0,10000,0,0,0,
2026-04-25 11:00:00,METAR RPLL 251100Z 11008KT 080V150 9999 FEW025 32/23 Q1011 NOSIG RMK A2985,0,8,0,10000,0,0,0,
2026-04-25 10:00:00,METAR RPLL 251000Z 13010KT 080V170 9999 FEW025 32/23 Q1010 NOSIG RMK A2983,0,10,0,10000,0,0,0,
2026-04-25 09:00:00,METAR RPLL 250900Z 12012KT 090V160 9999 FEW025 34/22 Q1009 NOSIG RMK A2980,0,12,0,10000,0,0,0,
2026-04-25 08:00:00,METAR RPLL 250800Z 12011KT 090V160 9999 FEW025 35/22 Q1008 NOSIG RMK A2977,0,11,0,10000,0,0,0,
2026-04-25 07:00:00,METAR RPLL 250700Z COR 13012KT 100V170 9999 FEW025 35/23 Q1008 NOSIG RMK A2977,0,12,0,10000,0,0,0,
2026-04-25 06:00:00,METAR RPLL 250600Z 14011KT 080V190 9999 FEW025 35/23 Q1009 NOSIG RMK A2980,0,11,0,10000,0,0,0,
2026-04-25 05:00:00,METAR RPLL 250500Z 14009KT 100V190 9999 FEW025 36/23 Q1010 NOSIG RMK A2983,0,9,0,10000,0,0,0,
2026-04-25 04:00:00,METAR RPLL 250400Z 14009KT 080V240 9999 FEW025 35/23 Q1011 NOSIG RMK A2985,0,9,0,10000,0,0,0,
2026-04-25 03:00:00,METAR RPLL 250300Z 13008KT 080V170 9999 FEW025 34/23 Q1012 NOSIG RMK A2988,0,8,0,10000,0,0,0,
2026-04-25 02:00:00,METAR RPLL 250200Z 11006KT 050V180 9000 FEW025 33/22 Q1013 NOSIG RMK A2991,0,6,0,9000,0,0,0,
2026-04-25 01:00:00,METAR RPLL 250100Z 12005KT 060V190 9000 FEW025 32/22 Q1014 NOSIG RMK A2994,0,5,0,9000,0,0,0,
2026-04-25 00:00:00,METAR RPLL 250000Z 13005KT 070V170 9000 FEW025 30/22 Q1014 NOSIG RMK A2994,0,5,0,9000,0,0,0,
2026-04-24 23:00:00,METAR RPLL 242300Z 11003KT 070V160 9000 FEW025 30/21 Q1013 NOSIG RMK A2991,0,3,0,9000,0,0,0,
2026-04-24 22:00:00,METAR RPLL 242200Z VRB02KT 9999 FEW025 28/21 Q1012 NOSIG RMK A2988,0,2,0,10000,0,0,0,
2026-04-24 21:00:00,METAR RPLL 242100Z 13003KT 090V170 9999 FEW025 28/23 Q1012 NOSIG RMK A2988,0,3,0,10000,0,0,0,
2026-04-24 20:00:00,METAR RPLL 242000Z 12005KT 090V150 9999 FEW025 28/23 Q1012 NOSIG RMK A2988,0,5,0,10000,0,0,0,
2026-04-24 19:00:00,METAR RPLL 241900Z 12003KT 090V150 9999 FEW025 29/21 Q1011 NOSIG RMK A2985,0,3,0,10000,0,0,0,
2026-04-24 18:00:00,METAR RPLL 241800Z 12003KT 080V140 9000 FEW025 SCT100 29/21 Q1012 NOSIG RMK A2988,0,3,0,9000,0,0,0,
2026-04-24 17:00:00,METAR RPLL 241700Z 11003KT 070V150 9000 FEW025 29/23 Q1012 NOSIG RMK A2988,0,3,0,9000,0,0,0,
2026-04-24 16:00:00,METAR RPLL 241600Z 14004KT 080V190 9999 FEW025 29/23 Q1012 NOSIG RMK A2988,0,4,0,10000,0,0,0,
2026-04-24 15:00:00,METAR RPLL 241500Z 14005KT 080V210 9999 FEW025 30/22 Q1013 NOSIG RMK A2991,0,5,0,10000,0,0,0,
2026-04-24 14:00:00,METAR RPLL 241400Z 14004KT 080V200 9999 FEW025 30/23 Q1012 NOSIG RMK A2988,0,4,0,10000,0,0,0,
2026-04-24 13:00:00,METAR RPLL 241300Z 14005KT 100V200 9999 FEW025 30/23 Q1012 NOSIG RMK A2988,0,5,0,10000,0,0,0,
2026-04-24 12:00:00,METAR RPLL 241200Z 13007KT 090V170 9999 FEW025 31/23 Q1011 NOSIG RMK A2985,0,7,0,10000,0,0,0,
2026-04-24 11:00:00,METAR RPLL 241100Z 12007KT 080V150 9999 FEW025 32/21 Q1010 NOSIG RMK A2983,0,7,0,10000,0,0,0,
2026-04-24 10:00:00,METAR RPLL 241000Z 12008KT 080V160 9999 FEW025 33/20 Q1009 NOSIG RMK A2980,0,8,0,10000,0,0,0,
2026-04-24 09:00:00,METAR RPLL 240900Z 11010KT 070V150 9999 FEW025 34/19 Q1008 NOSIG RMK A2977,0,10,0,10000,0,0,0,
2026-04-24 08:00:00,METAR RPLL 240800Z 11009KT 080V160 9999 FEW025 35/20 Q1008 NOSIG RMK A2977,0,9,0,10000,0,0,0,
2026-04-24 07:00:00,METAR RPLL 240700Z 11008KT 080V160 9999 FEW025 36/20 Q1008 NOSIG RMK A2977,0,8,0,10000,0,0,0,
2026-04-24 06:00:00,METAR RPLL 240600Z 13007KT 060V200 9999 FEW025 36/18 Q1009 NOSIG RMK A2980,0,7,0,10000,0,0,0,
2026-04-24 05:00:00,METAR RPLL 240500Z 14008KT 070V200 9999 FEW025 36/16 Q1010 NOSIG RMK A2983,0,8,0,10000,0,0,0,
2026-04-24 04:00:00,METAR RPLL 240400Z 12006KT 070V210 9999 FEW025 35/22 Q1012 NOSIG RMK A2988,0,6,0,10000,0,0,0,
2026-04-24 03:00:00,METAR RPLL 240300Z 13006KT 080V190 9999 FEW025 34/21 Q1012 NOSIG RMK A2988,0,6,0,10000,0,0,0,
2026-04-24 02:00:00,METAR RPLL 240200Z 12007KT 090V170 9999 FEW025 32/22 Q1013 NOSIG RMK A2991,0,7,0,10000,0,0,0,
2026-04-24 01:00:00,METAR RPLL 240100Z 14006KT 080V220 9000 FEW025 31/23 Q1013 NOSIG RMK A2991,0,6,0,9000,0,0,0,
2026-04-24 00:00:00,METAR RPLL 240000Z 13006KT 080V200 9000 FEW025 30/23 Q1013 NOSIG RMK A2991,0,6,0,9000,0,0,0,
2026-04-23 23:00:00,METAR RPLL 232300Z 13004KT 100V180 9000 FEW025 29/23 Q1012 NOSIG RMK A2988,0,4,0,9000,0,0,0,
2026-04-23 22:00:00,METAR RPLL 232200Z 15003KT 080V210 9999 FEW025 28/23 Q1010 RMK A2983,0,3,0,10000,0,0,0,
2026-04-23 21:00:00,METAR RPLL 232100Z 13003KT 090V170 9999 FEW025 28/23 Q1011 NOSIG RMK A2985,0,3,0,10000,0,0,0,
2026-04-23 20:00:00,METAR RPLL 232000Z 12003KT 080V160 9999 FEW025 28/24 Q1010 NOSIG RMK A2983,0,3,0,10000,0,0,0,
2026-04-23 19:00:00,METAR RPLL 231900Z VRB02KT 9999 FEW025 28/24 Q1010 NOSIG RMK A2983,0,2,0,10000,0,0,0,
2026-04-23 18:00:00,METAR RPLL 231800Z 15003KT 110V190 9000 FEW025 28/23 Q1010 NOSIG RMK A2983,0,3,0,9000,0,0,0,
2026-04-23 17:00:00,METAR RPLL 231700Z 15003KT 100V200 9000 FEW025 29/24 Q1010 NOSIG RMK A2983,0,3,0,9000,0,0,0,
2026-04-23 16:00:00,METAR RPLL 231600Z 14003KT 090V200 9000 FEW025 29/23 Q1011 NOSIG RMK A2985,0,3,0,9000,0,0,0,
2026-04-23 15:00:00,METAR RPLL 231500Z 12004KT 050V170 9000 FEW025 29/23 Q1011 NOSIG RMK A2985,0,4,0,9000,0,0,0,
2026-04-23 14:00:00,METAR RPLL 231400Z 11005KT 070V150 9999 FEW025 29/23 Q1011 NOSIG RMK A2985,0,5,0,10000,0,0,0,
2026-04-23 13:00:00,METAR RPLL 231300Z 14004KT 090V220 9999 FEW025 30/23 Q1010 NOSIG RMK A2983,0,4,0,10000,0,0,0,
2026-04-23 12:00:00,METAR RPLL 231200Z 12007KT 060V200 9999 FEW025 31/22 Q1009 NOSIG RMK A2980,0,7,0,10000,0,0,0,
2026-04-23 11:00:00,METAR RPLL 231100Z 12006KT 070V160 9999 FEW025 32/22 Q1008 NOSIG RMK A2977,0,6,0,10000,0,0,0,
2026-04-23 10:00:00,METAR RPLL 231000Z 11007KT 080V160 9999 FEW025 33/22 Q1007 NOSIG RMK A2974,0,7,0,10000,0,0,0,
2026-04-23 09:00:00,METAR RPLL 230900Z 11008KT 080V160 9999 FEW025 34/21 Q1007 NOSIG RMK A2974,0,8,0,10000,0,0,0,
2026-04-23 08:00:00,METAR RPLL 230800Z 13007KT 090V170 9999 FEW025 36/21 Q1006 NOSIG RMK A2971,0,7,0,10000,0,0,0,
2026-04-23 07:00:00,METAR RPLL 230700Z 12007KT 090V180 9999 FEW025 36/17 Q1006 NOSIG RMK A2971,0,7,0,10000,0,0,0,
2026-04-23 06:00:00,METAR RPLL 230600Z 15006KT 090V240 9999 FEW025 36/16 Q1007 NOSIG RMK A2974,0,6,0,10000,0,0,0,
2026-04-23 05:00:00,METAR RPLL 230500Z 13008KT 080V180 9999 FEW025 35/21 Q1008 NOSIG RMK A2977,0,8,0,10000,0,0,0,
2026-04-23 04:00:00,METAR RPLL 230400Z 15007KT 080V200 9999 FEW025 34/21 Q1010 NOSIG RMK A2983,0,7,0,10000,0,0,0,
2026-04-23 03:00:00,METAR RPLL 230300Z 14005KT 070V230 9999 FEW025 33/21 Q1010 NOSIG RMK A2983,0,5,0,10000,0,0,0,
2026-04-23 02:00:00,METAR RPLL 230200Z 13007KT 060V180 9999 FEW025 32/21 Q1011 NOSIG RMK A2985,0,7,0,10000,0,0,0,
2026-04-23 01:00:00,METAR RPLL 230100Z 12006KT 080V170 9999 FEW025 31/22 Q1011 NOSIG RMK A2985,0,6,0,10000,0,0,0,
2026-04-23 00:00:00,METAR RPLL 230000Z 11006KT 070V200 9999 FEW025 29/22 Q1011 NOSIG RMK A2985,0,6,0,10000,0,0,0,
2026-04-22 23:00:00,METAR RPLL 222300Z 11006KT 080V150 9999 FEW025 28/23 Q1011 NOSIG RMK A2985,0,6,0,10000,0,0,0,
2026-04-22 22:00:00,METAR RPLL 222200Z 11004KT 080V140 9999 FEW025 27/23 Q1010 NOSIG RMK A2983,0,4,0,10000,0,0,0,
2026-04-22 21:00:00,METAR RPLL 222100Z 06003KT 9000 FEW025 26/21 Q1010 NOSIG RMK A2983,0,3,0,9000,0,0,0,
2026-04-22 20:00:00,METAR RPLL 222000Z VRB02KT 9000 FEW025 27/21 Q1009 NOSIG RMK A2980,0,2,0,9000,0,0,0,
2026-04-22 19:00:00,METAR RPLL 221900Z VRB02KT 9999 FEW025 28/21 Q1009 NOSIG RMK A2980,0,2,0,10000,0,0,0,
2026-04-22 18:00:00,METAR RPLL 221800Z 08005KT 9999 FEW025 27/23 Q1010 NOSIG RMK A2983,0,5,0,10000,0,0,0,
2026-04-22 17:00:00,METAR RPLL 221700Z 10005KT 070V150 9999 FEW025 28/23 Q1010 NOSIG RMK A2983,0,5,0,10000,0,0,0,
2026-04-22 16:00:00,METAR RPLL 221600Z 13006KT 110V190 9999 FEW025 29/23 Q1010 NOSIG RMK A2983,0,6,0,10000,0,0,0,
2026-04-22 15:00:00,METAR RPLL 221500Z 14004KT 070V170 9999 FEW025 29/23 Q1011 NOSIG RMK A2985,0,4,0,10000,0,0,0,
2026-04-22 14:00:00,METAR RPLL 221400Z 12006KT 080V150 9999 FEW025 29/22 Q1010 NOSIG RMK A2983,0,6,0,10000,0,0,0,
2026-04-22 13:00:00,METAR RPLL 221300Z 11006KT 080V160 9000 FEW025 30/23 Q1010 NOSIG RMK A2983,0,6,0,9000,0,0,0,
2026-04-22 12:00:00,METAR RPLL 221200Z 13007KT 090V180 9000 FEW025 30/23 Q1009 NOSIG RMK A2980,0,7,0,9000,0,0,0,
2026-04-22 11:00:00,METAR RPLL 221100Z 12007KT 090V160 9000 FEW025 31/22 Q1008 NOSIG RMK A2977,0,7,0,9000,0,0,0,
2026-04-22 10:00:00,METAR RPLL 221000Z 12008KT 090V160 9000 FEW025 32/21 Q1008 NOSIG RMK A2977,0,8,0,9000,0,0,0,
2026-04-22 09:00:00,METAR RPLL 220900Z 13007KT 090V170 9000 FEW025 34/19 Q1007 NOSIG RMK A2974,0,7,0,9000,0,0,0,
2026-04-22 08:00:00,METAR RPLL 220800Z 11009KT 070V140 9999 FEW025 35/18 Q1007 NOSIG RMK A2974,0,9,0,10000,0,0,0,
2026-04-22 07:00:00,METAR RPLL 220700Z 12010KT 090V170 9999 FEW025 35/18 Q1008 NOSIG RMK A2977,0,10,0,10000,0,0,0,
2026-04-22 06:00:00,METAR RPLL 220600Z 12010KT 080V180 9999 FEW025 34/19 Q1008 NOSIG RMK A2977,0,10,0,10000,0,0,0,
2026-04-22 05:00:00,METAR RPLL 220500Z 14009KT 080V200 9999 FEW025 35/20 Q1009 NOSIG RMK A2980,0,9,0,10000,0,0,0,
2026-04-22 04:00:00,METAR RPLL 220400Z 13011KT 100V190 9999 FEW025 34/21 Q1010 NOSIG RMK A2983,0,11,0,10000,0,0,0,
2026-04-22 03:00:00,METAR RPLL 220300Z 13012KT 090V170 9999 FEW025 32/22 Q1011 NOSIG RMK A2985,0,12,0,10000,0,0,0,
2026-04-22 02:00:00,METAR RPLL 220200Z 13007KT 090V200 9999 FEW025 32/22 Q1011 NOSIG RMK A2985,0,7,0,10000,0,0,0,
2026-04-22 01:00:00,METAR RPLL 220100Z 12009KT 080V160 9999 FEW025 31/22 Q1012 NOSIG RMK A2988,0,9,0,10000,0,0,0,
2026-04-22 00:00:00,METAR RPLL 220000Z 10007KT 070V140 9999 FEW025 30/21 Q1012 NOSIG RMK A2988,0,7,0,10000,0,0,0,
2026-04-21 23:00:00,METAR RPLL 212300Z 12006KT 070V160 9999 FEW025 29/22 Q1011 NOSIG RMK A2985,0,6,0,10000,0,0,0,
2026-04-21 22:00:00,METAR RPLL 212200Z 11004KT 060V140 9999 FEW025 27/21 Q1010 NOSIG RMK A2983,0,4,0,10000,0,0,0,
2026-04-21 21:00:00,METAR RPLL 212100Z 11004KT 080V150 9999 FEW025 27/22 Q1010 NOSIG RMK A2983,0,4,0,10000,0,0,0,
2026-04-21 20:00:00,METAR RPLL 212000Z 11003KT 070V140 9999 FEW025 27/22 Q1010 NOSIG RMK A2983,0,3,0,10000,0,0,0,
2026-04-21 19:00:00,METAR RPLL 211900Z 11004KT 070V140 9999 FEW025 28/22 Q1010 NOSIG RMK A2983,0,4,0,10000,0,0,0,
2026-04-21 18:00:00,METAR RPLL 211800Z 10004KT 070V150 9999 FEW025 28/22 Q1010 NOSIG RMK A2983,0,4,0,10000,0,0,0,
2026-04-21 17:00:00,METAR RPLL 211700Z 11005KT 080V150 9999 FEW025 29/21 Q1011 NOSIG RMK A2985,0,5,0,10000,0,0,0,
2026-04-21 16:00:00,METAR RPLL 211600Z 10005KT 9999 FEW025 29/22 Q1011 NOSIG RMK A2985,0,5,0,10000,0,0,0,
2026-04-21 15:00:00,METAR RPLL 211500Z 11006KT 080V140 9999 FEW025 29/22 Q1011 NOSIG RMK A2985,0,6,0,10000,0,0,0,
2026-04-21 14:00:00,METAR RPLL 211400Z 12007KT 090V150 9999 FEW025 29/23 Q1011 NOSIG RMK A2985,0,7,0,10000,0,0,0,
2026-04-21 13:00:00,METAR RPLL 211300Z 12006KT 080V160 9999 FEW025 30/22 Q1010 NOSIG RMK A2983,0,6,0,10000,0,0,0,
2026-04-21 12:00:00,METAR RPLL 211200Z 11007KT 070V150 9000 FEW025 30/22 Q1010 NOSIG RMK A2983,0,7,0,9000,0,0,0,
2026-04-21 11:00:00,METAR RPLL 211100Z 12008KT 090V160 9000 FEW025 31/21 Q1009 NOSIG RMK A2980,0,8,0,9000,0,0,0,
2026-04-21 10:00:00,METAR RPLL 211000Z 12009KT 080V150 9000 FEW025 32/22 Q1008 NOSIG RMK A2977,0,9,0,9000,0,0,0,
2026-04-21 09:00:00,METAR RPLL 210900Z 13008KT 070V180 9000 FEW025 33/22 Q1008 NOSIG RMK A2977,0,8,0,9000,0,0,0,
2026-04-21 08:00:00,METAR RPLL 210800Z 13009KT 070V170 9000 FEW025 34/21 Q1007 NOSIG RMK A2974,0,9,0,9000,0,0,0,
2026-04-21 07:00:00,METAR RPLL 210700Z 12011KT 080V180 9000 FEW025 34/21 Q1008 NOSIG RMK A2977,0,11,0,9000,0,0,0,
2026-04-21 06:00:00,METAR RPLL 210600Z 13011G21KT 090V170 9999 FEW025 34/21 Q1008 NOSIG RMK A2977,0,11,1,10000,0,0,0,
2026-04-21 05:00:00,METAR RPLL 210500Z 12012KT 090V160 9999 FEW025 34/22 Q1010 NOSIG RMK A2983,0,12,0,10000,0,0,0,
2026-04-21 04:00:00,METAR RPLL 210400Z 14010KT 080V190 9999 FEW025 34/23 Q1011 NOSIG RMK A2985,0,10,0,10000,0,0,0,
2026-04-21 03:00:00,METAR RPLL 210300Z 12011KT 090V160 9999 FEW025 33/22 Q1012 NOSIG RMK A2988,0,11,0,10000,0,0,0,
2026-04-21 02:00:00,METAR RPLL 210200Z 12007KT 050V180 9999 FEW025 32/23 Q1012 NOSIG RMK A2988,0,7,0,10000,0,0,0,
2026-04-21 01:00:00,METAR RPLL 210100Z 11009KT 070V160 9999 FEW025 30/23 Q1013 NOSIG RMK A2991,0,9,0,10000,0,0,0,
2026-04-21 00:00:00,METAR RPLL 210000Z COR 11008KT 070V140 9000 FEW025 30/23 Q1012 NOSIG RMK A2988,0,8,0,9000,0,0,0,
2026-04-20 23:00:00,METAR RPLL 202300Z 09004KT 050V140 9000 FEW025 29/21 Q1012 NOSIG RMK A2988,0,4,0,9000,0,0,0,
2026-04-20 22:00:00,METAR RPLL 202200Z COR 10003KT 060V130 8000 FEW025 27/22 Q1011 NOSIG RMK A2985,0,3,0,8000,0,0,0,
2026-04-20 21:00:00,METAR RPLL 202100Z 09003KT 050V120 9999 FEW025 27/21 Q1011 NOSIG RMK A2985,0,3,0,10000,0,0,0,
2026-04-20 20:00:00,METAR RPLL 202000Z VRB02KT 9999 FEW025 27/21 Q1010 NOSIG RMK A2983,0,2,0,10000,0,0,0,
2026-04-20 19:00:00,METAR RPLL 201900Z 14003KT 110V170 9999 FEW025 28/21 Q1011 NOSIG RMK A2985,0,3,0,10000,0,0,0,
2026-04-20 18:00:00,METAR RPLL 201800Z VRB02KT 9999 FEW025 28/21 Q1011 NOSIG RMK A2985,0,2,0,10000,0,0,0,
2026-04-20 17:00:00,METAR RPLL 201700Z VRB02KT 9999 FEW025 SCT100 28/21 Q1011 NOSIG RMK A2985,0,2,0,10000,0,0,0,
2026-04-20 16:00:00,METAR RPLL 201600Z 11004KT 080V140 9999 FEW025 SCT100 28/21 Q1012 NOSIG RMK A2988,0,4,0,10000,0,0,0,
2026-04-20 15:00:00,METAR RPLL 201500Z 11006KT 070V140 9000 FEW025 29/21 Q1012 NOSIG RMK A2988,0,6,0,9000,0,0,0,
2026-04-20 14:00:00,METAR RPLL 201400Z 12006KT 080V150 9000 FEW025 29/22 Q1012 NOSIG RMK A2988,0,6,0,9000,0,0,0,
2026-04-20 13:00:00,METAR RPLL 201300Z 12005KT 080V150 9000 FEW025 30/23 Q1011 NOSIG RMK A2985,0,5,0,9000,0,0,0,
2026-04-20 12:00:00,METAR RPLL 201200Z 13006KT 090V190 9000 FEW025 31/22 Q1010 NOSIG RMK A2983,0,6,0,9000,0,0,0,
2026-04-20 11:00:00,METAR RPLL 201100Z 11007KT 070V140 9000 FEW025 32/21 Q1009 NOSIG RMK A2980,0,7,0,9000,0,0,0,
2026-04-20 10:00:00,METAR RPLL 201000Z 14008KT 090V170 9000 FEW025 SCT100 32/22 Q1009 NOSIG RMK A2980,0,8,0,9000,0,0,0,
2026-04-20 09:00:00,METAR RPLL 200900Z 13009KT 090V170 9000 FEW025 SCT100 33/21 Q1008 NOSIG RMK A2977,0,9,0,9000,0,0,0,
2026-04-20 08:00:00,METAR RPLL 200800Z 13008KT 080V170 9000 FEW025 34/21 Q1008 NOSIG RMK A2977,0,8,0,9000,0,0,0,
2026-04-20 07:00:00,METAR RPLL 200700Z 13008KT 090V200 9000 FEW025 SCT100 35/21 Q1009 NOSIG RMK A2980,0,8,0,9000,0,0,0,
2026-04-20 06:00:00,METAR RPLL 200600Z 13007KT 090V210 9000 FEW025 35/22 Q1009 NOSIG RMK A2980,0,7,0,9000,0,0,0,
2026-04-20 05:00:00,METAR RPLL 200500Z 16007KT 080V210 9000 FEW025 35/22 Q1010 NOSIG RMK A2983,0,7,0,9000,0,0,0,
2026-04-20 04:00:00,METAR RPLL 200400Z 15007KT 080V220 9000 FEW025 34/22 Q1011 NOSIG RMK A2985,0,7,0,9000,0,0,0,
2026-04-20 03:00:00,METAR RPLL 200300Z 11006KT 060V210 9000 FEW025 32/21 Q1012 NOSIG RMK A2988,0,6,0,9000,0,0,0,
2026-04-20 02:00:00,METAR RPLL 200200Z 14006KT 100V210 9000 FEW025 32/21 Q1013 NOSIG RMK A2991,0,6,0,9000,0,0,0,
2026-04-20 01:00:00,METAR RPLL 200100Z 12006KT 070V170 9000 FEW025 31/23 Q1013 NOSIG RMK A2991,0,6,0,9000,0,0,0,
2026-04-20 00:00:00,METAR RPLL 200000Z 13005KT 090V200 9000 FEW025 30/23 Q1012 NOSIG RMK A2988,0,5,0,9000,0,0,0,
2026-04-19 23:00:00,METAR RPLL 192300Z 12004KT 080V250 9000 FEW025 29/23 Q1012 NOSIG RMK A2988,0,4,0,9000,0,0,0,
2026-04-19 22:00:00,METAR RPLL 192200Z 15003KT 100V220 8000 FEW025 SCT100 28/24 Q1011 NOSIG RMK A2985,0,3,0,8000,0,0,0,
2026-04-19 21:00:00,METAR RPLL 192100Z VRB02KT 9000 FEW025 SCT100 28/24 Q1011 NOSIG RMK A2985,0,2,0,9000,0,0,0,
2026-04-19 20:00:00,METAR RPLL 192000Z 15004KT 100V210 9999 FEW025 BKN100 28/23 Q1010 NOSIG RMK A2983,0,4,0,10000,0,0,0,
2026-04-19 19:00:00,METAR RPLL 191900Z 12003KT 070V160 9999 FEW025 BKN100 29/23 Q1010 NOSIG RMK A2983,0,3,0,10000,0,0,0,
2026-04-19 18:00:00,METAR RPLL 191800Z 14003KT 100V180 9999 FEW025 SCT100 29/24 Q1010 NOSIG RMK A2983,0,3,0,10000,0,0,0,
2026-04-19 17:00:00,METAR RPLL 191700Z 15004KT 110V210 9999 FEW025 SCT100 29/24 Q1011 NOSIG RMK A2985,0,4,0,10000,0,0,0,
2026-04-19 16:00:00,METAR RPLL 191600Z VRB04KT 9999 FEW025 29/24 Q1011 NOSIG RMK A2985,0,4,0,10000,0,0,0,
2026-04-19 15:00:00,METAR RPLL 191500Z 13004KT 100V180 9999 FEW025 29/24 Q1012 NOSIG RMK A2988,0,4,0,10000,0,0,0,
2026-04-19 14:00:00,METAR RPLL 191400Z 18005KT 140V230 9999 FEW025 SCT100 29/24 Q1012 NOSIG RMK A2988,0,5,0,10000,0,0,0,
2026-04-19 13:00:00,METAR RPLL 191300Z 22005KT 180V250 8000 FEW025 30/23 Q1011 NOSIG RMK A2985,0,5,0,8000,0,0,0,
2026-04-19 12:00:00,METAR RPLL 191200Z 23004KT 8000 FEW025 30/22 Q1009 NOSIG RMK A2980,0,4,0,8000,0,0,0,
2026-04-19 11:00:00,METAR RPLL 191100Z 23006KT 8000 FEW025 SCT100 30/22 Q1009 NOSIG RMK A2980,0,6,0,8000,0,0,0,
2026-04-19 10:00:00,METAR RPLL 191000Z 23010KT 8000 FEW025 BKN100 31/22 Q1009 NOSIG RMK A2980,0,10,0,8000,0,0,0,
2026-04-19 09:00:00,METAR RPLL 190900Z 26011KT 9000 FEW025 BKN100 32/22 Q1008 NOSIG RMK A2977,0,11,0,9000,0,0,0,
2026-04-19 08:00:00,METAR RPLL 190800Z 25013KT 9000 FEW025 SCT100 32/25 Q1008 NOSIG RMK A2977,0,13,0,9000,0,0,0,
2026-04-19 07:00:00,METAR RPLL 190700Z 11004KT 030V200 9000 FEW025 35/20 Q1008 NOSIG RMK A2977,0,4,0,9000,0,0,0,
2026-04-19 06:00:00,METAR RPLL 190600Z 12008KT 080V160 9999 FEW025 34/21 Q1008 NOSIG RMK A2977,0,8,0,10000,0,0,0,
2026-04-19 05:00:00,METAR RPLL 190500Z 12008KT 080V170 9999 FEW025 34/21 Q1009 NOSIG RMK A2980,0,8,0,10000,0,0,0,
2026-04-19 04:00:00,METAR RPLL 190400Z 14006KT 060V220 9999 FEW025 34/22 Q1011 NOSIG RMK A2985,0,6,0,10000,0,0,0,
2026-04-19 03:00:00,METAR RPLL 190300Z 11006KT 070V160 9999 FEW025 33/21 Q1011 NOSIG RMK A2985,0,6,0,10000,0,0,0,
2026-04-19 02:00:00,METAR RPLL 190200Z 10006KT 050V190 9999 FEW025 32/21 Q1012 NOSIG RMK A2988,0,6,0,10000,0,0,0,
2026-04-19 01:00:00,METAR RPLL 190100Z 14005KT 060V210 9000 FEW025 31/22 Q1012 NOSIG RMK A2988,0,5,0,9000,0,0,0,
2026-04-19 00:00:00,METAR RPLL 190000Z 18003KT 100V250 9000 FEW025 29/23 Q1011 NOSIG RMK A2985,0,3,0,9000,0,0,0,
2026-04-18 23:00:00,METAR RPLL 182300Z VRB02KT 9999 FEW025 28/23 Q1011 NOSIG RMK A2985,0,2,0,10000,0,0,0,
2026-04-18 22:00:00,METAR RPLL 182200Z VRB02KT 9999 FEW025 27/23 Q1010 NOSIG RMK A2983,0,2,0,10000,0,0,0,
2026-04-18 21:00:00,METAR RPLL 182100Z 34003KT 310V020 9999 FEW025 27/22 Q1010 NOSIG RMK A2983,0,3,0,10000,0,0,0,
2026-04-18 20:00:00,METAR RPLL 182000Z 01005KT 320V060 9999 FEW025 28/21 Q1009 NOSIG RMK A2980,0,5,0,10000,0,0,0,
2026-04-18 19:00:00,METAR RPLL 181900Z 36005KT 340V040 9999 FEW025 28/21 Q1009 NOSIG RMK A2980,0,5,0,10000,0,0,0,
2026-04-18 18:00:00,METAR RPLL 181800Z 23003KT 9000 FEW025 28/24 Q1010 NOSIG RMK A2983,0,3,0,9000,0,0,0,
2026-04-18 17:00:00,METAR RPLL 181700Z VRB02KT 9000 FEW025 SCT100 28/24 Q1010 NOSIG RMK A2983,0,2,0,9000,0,0,0,
2026-04-18 16:00:00,METAR RPLL 181600Z 19005KT 170V230 9000 FEW025 29/24 Q1011 NOSIG RMK A2985,0,5,0,9000,0,0,0,
2026-04-18 15:00:00,METAR RPLL 181500Z VRB03KT 9000 FEW025 29/24 Q1011 NOSIG RMK A2985,0,3,0,9000,0,0,0,
2026-04-18 14:00:00,METAR RPLL 181400Z 17003KT 120V210 9000 FEW025 29/24 Q1011 NOSIG RMK A2985,0,3,0,9000,0,0,0,
2026-04-18 13:00:00,METAR RPLL 181300Z 10003KT 060V130 9000 FEW025 30/24 Q1011 NOSIG RMK A2985,0,3,0,9000,0,0,0,
2026-04-18 12:00:00,METAR RPLL 181200Z 19005KT 150V250 9000 FEW025 31/22 Q1010 NOSIG RMK A2983,0,5,0,9000,0,0,0,
2026-04-18 11:00:00,METAR RPLL 181100Z 23006KT 9000 FEW025 31/22 Q1009 NOSIG RMK A2980,0,6,0,9000,0,0,0,
2026-04-18 10:00:00,METAR RPLL 181000Z 24008KT 9000 FEW025 31/22 Q1008 NOSIG RMK A2977,0,8,0,9000,0,0,0,
2026-04-18 09:00:00,METAR RPLL 180900Z 25010KT 9000 FEW025 32/24 Q1008 NOSIG RMK A2977,0,10,0,9000,0,0,0,
2026-04-18 08:00:00,METAR RPLL 180800Z 27007KT 250V310 9000 FEW025 35/21 Q1007 NOSIG RMK A2974,0,7,0,9000,0,0,0,
2026-04-18 07:00:00,METAR RPLL 180700Z 27008KT 240V330 9000 FEW025 35/22 Q1008 NOSIG RMK A2977,0,8,0,9000,0,0,0,
2026-04-18 06:00:00,METAR RPLL 180600Z VRB05KT 9000 FEW025 35/20 Q1008 NOSIG RMK A2977,0,5,0,9000,0,0,0,
2026-04-18 05:00:00,METAR RPLL 180500Z VRB05KT 9000 FEW025 35/22 Q1009 NOSIG RMK A2980,0,5,0,9000,0,0,0,
2026-04-18 04:00:00,METAR RPLL 180400Z VRB04KT 9000 FEW025 SCT100 34/22 Q1010 NOSIG RMK A2985,0,4,0,9000,0,0,0,
2026-04-18 03:00:00,METAR RPLL 180300Z 13006KT 070V190 9000 FEW025 SCT100 33/22 Q1011 NOSIG RMK A2985,0,6,0,9000,0,0,0,
2026-04-18 02:00:00,METAR RPLL 180200Z 10006KT 050V190 9000 SCT025 32/23 Q1012 NOSIG RMK A2988,0,6,0,9000,0,0,0,
2026-04-18 01:00:00,METAR RPLL 180100Z VRB03KT 9999 FEW025 31/24 Q1012 NOSIG RMK A2988,0,3,0,10000,0,0,0,
2026-04-18 00:00:00,METAR RPLL 180000Z 14004KT 070V180 9000 SCT025TCU 29/24 Q1012 NOSIG RMK A2988 TCU NE,0,4,0,9000,0,0,0,
2026-04-17 23:00:00,METAR RPLL 172300Z 16004KT 120V200 9000 FEW025 28/24 Q1011 NOSIG RMK A2985,0,4,0,9000,0,0,0,
2026-04-17 22:00:00,METAR RPLL 172200Z 16003KT 110V220 9000 FEW025 27/25 Q1011 NOSIG RMK A2985,0,3,0,9000,0,0,0,
2026-04-17 21:00:00,METAR RPLL 172100Z VRB02KT 9999 FEW025 27/24 Q1010 NOSIG RMK A2983,0,2,0,10000,0,0,0,
2026-04-17 20:00:00,METAR RPLL 172000Z VRB02KT 9999 FEW025 27/24 Q1010 NOSIG RMK A2983,0,2,0,10000,0,0,0,
2026-04-17 19:00:00,METAR RPLL 171900Z 18004KT 150V210 9999 FEW025 28/25 Q1010 NOSIG RMK A2983,0,4,0,10000,0,0,0,
2026-04-17 18:00:00,METAR RPLL 171800Z VRB02KT 9999 FEW025 28/24 Q1011 NOSIG RMK A2985,0,2,0,10000,0,0,0,
2026-04-17 17:00:00,METAR RPLL 171700Z VRB02KT 9999 FEW025 28/24 Q1011 NOSIG RMK A2985,0,2,0,10000,0,0,0,
2026-04-17 16:00:00,METAR RPLL 171600Z VRB02KT 9999 FEW025 29/24 Q1011 NOSIG RMK A2985,0,2,0,10000,0,0,0,
2026-04-17 15:00:00,METAR RPLL 171500Z 17003KT 120V230 9999 FEW025 29/24 Q1011 NOSIG RMK A2985,0,3,0,10000,0,0,0,
2026-04-17 14:00:00,METAR RPLL 171400Z 18005KT 150V220 9999 FEW025 29/23 Q1011 NOSIG RMK A2985,0,5,0,10000,0,0,0,
2026-04-17 13:00:00,METAR RPLL 171300Z 22005KT 180V240 9999 FEW025 30/22 Q1010 NOSIG RMK A2983,0,5,0,10000,0,0,0,
2026-04-17 12:00:00,METAR RPLL 171200Z 23006KT 200V260 9999 FEW025 30/22 Q1010 NOSIG RMK A2983,0,6,0,10000,0,0,0,
2026-04-17 11:00:00,METAR RPLL 171100Z 24006KT 9999 SCT025 31/22 Q1009 NOSIG RMK A2980,0,6,0,10000,0,0,0,
2026-04-17 10:00:00,METAR RPLL 171000Z 24007KT 9999 FEW025 SCT100 32/20 Q1009 NOSIG RMK A2980,0,7,0,10000,0,0,0,
2026-04-17 09:00:00,METAR RPLL 170900Z 27011KT 9999 FEW025 32/22 Q1008 NOSIG RMK A2977,0,11,0,10000,0,0,0,
2026-04-17 08:00:00,METAR RPLL 170800Z VRB05KT 9999 FEW025 35/20 Q1008 NOSIG RMK A2977,0,5,0,10000,0,0,0,
2026-04-17 07:00:00,METAR RPLL 170700Z VRB04KT 9999 FEW025 35/20 Q1008 NOSIG RMK A2977,0,4,0,10000,0,0,0,
2026-04-17 06:00:00,METAR RPLL 170600Z 19006KT 130V280 9999 FEW025 35/23 Q1009 NOSIG RMK A2980,0,6,0,10000,0,0,0,
2026-04-17 05:00:00,METAR RPLL 170500Z VRB05KT 9999 FEW025 35/23 Q1010 NOSIG RMK A2983,0,5,0,10000,0,0,0,
2026-04-17 04:00:00,METAR RPLL 170400Z VRB06KT 9999 FEW025 34/21 Q1011 NOSIG RMK A2985,0,6,0,10000,0,0,0,
2026-04-17 03:00:00,METAR RPLL 170300Z VRB05KT 9999 FEW025 33/21 Q1012 NOSIG RMK A2988,0,5,0,10000,0,0,0,
2026-04-17 02:00:00,METAR RPLL 170200Z 13006KT 060V230 9999 FEW025 32/23 Q1012 NOSIG RMK A2988,0,6,0,10000,0,0,0,
2026-04-17 01:00:00,METAR RPLL 170100Z 16003KT 9999 FEW025 31/22 Q1012 NOSIG RMK A2988,0,3,0,10000,0,0,0,
2026-04-17 00:00:00,METAR RPLL 170000Z VRB03KT 9000 FEW025 30/24 Q1012 NOSIG RMK A2988,0,3,0,9000,0,0,0,
2026-04-16 23:00:00,METAR RPLL 162300Z 16003KT 100V210 9000 FEW025 28/24 Q1012 NOSIG RMK A2988,0,3,0,9000,0,0,0,
2026-04-16 22:00:00,METAR RPLL 162200Z VRB02KT 9000 FEW025 26/24 Q1011 NOSIG RMK A2985,0,2,0,9000,0,0,0,
2026-04-16 21:00:00,METAR RPLL 162100Z VRB02KT 9000 FEW025 26/24 Q1010 NOSIG RMK A2983,0,2,0,9000,0,0,0,
2026-04-16 20:00:00,METAR RPLL 162000Z 17003KT 140V220 9000 FEW025 27/24 Q1010 NOSIG RMK A2983,0,3,0,9000,0,0,0,
2026-04-16 19:00:00,METAR RPLL 161900Z 17003KT 130V210 9999 FEW025 27/24 Q1010 NOSIG RMK A2983,0,3,0,10000,0,0,0,
2026-04-16 18:00:00,METAR RPLL 161800Z VRB01KT 9999 FEW025 28/23 Q1010 NOSIG RMK A2983,0,1,0,10000,0,0,0,
2026-04-16 17:00:00,METAR RPLL 161700Z VRB02KT 9999 FEW025 28/23 Q1010 NOSIG RMK A2983,0,2,0,10000,0,0,0,
2026-04-16 16:00:00,METAR RPLL 161600Z VRB02KT 9999 FEW025 29/23 Q1011 NOSIG RMK A2985,0,2,0,10000,0,0,0,
2026-04-16 15:00:00,METAR RPLL 161500Z 13003KT 090V180 9999 FEW025 29/23 Q1012 NOSIG RMK A2988,0,3,0,10000,0,0,0,
2026-04-16 14:00:00,METAR RPLL 161400Z 16003KT 070V220 9999 FEW025 29/23 Q1012 NOSIG RMK A2988,0,3,0,10000,0,0,0,
2026-04-16 13:00:00,METAR RPLL 161300Z 17005KT 130V210 9999 FEW025 30/22 Q1011 NOSIG RMK A2985,0,5,0,10000,0,0,0,
2026-04-16 12:00:00,METAR RPLL 161200Z 24006KT 9999 FEW025 30/20 Q1010 NOSIG RMK A2983,0,6,0,10000,0,0,0,
2026-04-16 11:00:00,METAR RPLL 161100Z 24006KT 210V270 9999 FEW025 31/19 Q1010 NOSIG RMK A2983,0,6,0,10000,0,0,0,
2026-04-16 10:00:00,METAR RPLL 161000Z 26011KT 9999 FEW025 31/20 Q1009 NOSIG RMK A2980,0,11,0,10000,0,0,0,
2026-04-16 09:00:00,METAR RPLL 160900Z 26013KT 9999 FEW025 32/21 Q1009 NOSIG RMK A2980,0,13,0,10000,0,0,0,
2026-04-16 08:00:00,METAR RPLL 160800Z 26014KT 9999 FEW025 33/22 Q1008 NOSIG RMK A2977,0,14,0,10000,0,0,0,
2026-04-16 07:00:00,METAR RPLL 160700Z 26013KT 210V300 9999 FEW025 34/23 Q1009 NOSIG RMK A2980,0,13,0,10000,0,0,0,
2026-04-16 06:00:00,METAR RPLL 160600Z VRB06KT 9999 FEW025 35/20 Q1009 NOSIG RMK A2980,0,6,0,10000,0,0,0,
2026-04-16 05:00:00,METAR RPLL 160500Z VRB06KT 9999 FEW025 35/19 Q1010 NOSIG RMK A2983,0,6,0,10000,0,0,0,
2026-04-16 04:00:00,METAR RPLL 160400Z 15006KT 050V210 9999 FEW025 34/18 Q1011 NOSIG RMK A2985,0,6,0,10000,0,0,0,
2026-04-16 03:00:00,METAR RPLL 160300Z VRB04KT 9999 FEW025 34/21 Q1012 NOSIG RMK A2988,0,4,0,10000,0,0,0,
2026-04-16 02:00:00,METAR RPLL 160200Z VRB05KT 9999 FEW025 31/22 Q1012 NOSIG RMK A2988,0,5,0,10000,0,0,0,
2026-04-16 01:00:00,METAR RPLL 160100Z 13006KT 090V190 9999 FEW025 30/21 Q1012 NOSIG RMK A2988,0,6,0,10000,0,0,0,
2026-04-16 00:00:00,METAR RPLL 160000Z 14006KT 070V200 9999 FEW025 29/22 Q1012 NOSIG RMK A2988,0,6,0,10000,0,0,0,
2026-04-15 23:00:00,METAR RPLL 152300Z 13004KT 060V170 9999 FEW025 28/21 Q1011 NOSIG RMK A2985,0,4,0,10000,0,0,0,
2026-04-15 22:00:00,METAR RPLL 152200Z 14003KT 090V190 9999 FEW025 27/22 Q1010 NOSIG RMK A2983,0,3,0,10000,0,0,0,
2026-04-15 21:00:00,METAR RPLL 152100Z 10004KT 060V130 9999 FEW025 27/22 Q1010 NOSIG RMK A2983,0,4,0,10000,0,0,0,
2026-04-15 20:00:00,METAR RPLL 152000Z 11004KT 060V140 9999 FEW025 27/21 Q1009 NOSIG RMK A2980,0,4,0,10000,0,0,0,
2026-04-15 19:00:00,METAR RPLL 151900Z 11003KT 080V150 9999 FEW025 27/21 Q1009 NOSIG RMK A2980,0,3,0,10000,0,0,0,
2026-04-15 18:00:00,METAR RPLL 151800Z 09004KT 9999 FEW025 27/21 Q1010 NOSIG RMK A2983,0,4,0,10000,0,0,0,
2026-04-15 17:00:00,METAR RPLL 151700Z 13005KT 090V170 9999 FEW025 28/22 Q1010 NOSIG RMK A2983,0,5,0,10000,0,0,0,
2026-04-15 16:00:00,METAR RPLL 151600Z 11004KT 070V140 9999 FEW025 28/23 Q1010 NOSIG RMK A2983,0,4,0,10000,0,0,0,
2026-04-15 15:00:00,METAR RPLL 151500Z 15005KT 110V190 9999 FEW025 28/23 Q1010 NOSIG RMK A2983,0,5,0,10000,0,0,0,
2026-04-15 14:00:00,METAR RPLL 151400Z 15004KT 100V210 9999 FEW025 29/23 Q1010 NOSIG RMK A2983,0,4,0,10000,0,0,0,
2026-04-15 13:00:00,METAR RPLL 151300Z 14007KT 090V200 9999 FEW025 29/22 Q1010 NOSIG RMK A2983,0,7,0,10000,0,0,0,
2026-04-15 12:00:00,METAR RPLL 151200Z 16004KT 090V210 9999 FEW025 30/21 Q1009 NOSIG RMK A2980,0,4,0,10000,0,0,0,
2026-04-15 11:00:00,METAR RPLL 151100Z 12006KT 080V170 9999 FEW025 31/19 Q1009 NOSIG RMK A2980,0,6,0,10000,0,0,0,
2026-04-15 10:00:00,METAR RPLL 151000Z 12007KT 100V160 9999 FEW025 33/18 Q1008 NOSIG RMK A2977,0,7,0,10000,0,0,0,
2026-04-15 09:00:00,METAR RPLL 150900Z 11008KT 070V140 9999 FEW025 34/18 Q1007 NOSIG RMK A2974,0,8,0,10000,0,0,0,
2026-04-15 08:00:00,METAR RPLL 150800Z 12007KT 080V170 9999 FEW025 35/17 Q1007 NOSIG RMK A2974,0,7,0,10000,0,0,0,
2026-04-15 07:00:00,METAR RPLL 150700Z 13008KT 090V180 9999 FEW025 35/18 Q1008 NOSIG RMK A2977,0,8,0,10000,0,0,0,
2026-04-15 06:00:00,METAR RPLL 150600Z 13010KT 080V190 9999 FEW025 34/19 Q1009 NOSIG RMK A2980,0,10,0,10000,0,0,0,
2026-04-15 05:00:00,METAR RPLL 150500Z 15009G20KT 080V200 9999 FEW025 33/19 Q1010 NOSIG RMK A2983,0,9,1,10000,0,0,0,
2026-04-15 04:00:00,METAR RPLL 150400Z VRB07KT 9999 FEW025 33/18 Q1011 NOSIG RMK A2985,0,7,0,10000,0,0,0,
2026-04-15 03:00:00,METAR RPLL 150300Z VRB08KT 9999 FEW025 31/20 Q1012 NOSIG RMK A2988,0,8,0,10000,0,0,0,
2026-04-15 02:00:00,METAR RPLL 150200Z 14007KT 080V180 9999 FEW025 31/21 Q1012 NOSIG RMK A2988,0,7,0,10000,0,0,0,
2026-04-15 01:00:00,METAR RPLL 150100Z 13007KT 070V190 9999 FEW025 30/22 Q1012 NOSIG RMK A2988,0,7,0,10000,0,0,0,
2026-04-15 00:00:00,METAR RPLL 150000Z 12008KT 080V150 9999 FEW025 29/21 Q1012 NOSIG RMK A2988,0,8,0,10000,0,0,0,
2026-04-14 23:00:00,METAR RPLL 142300Z 13005KT 070V200 9999 FEW025 28/22 Q1011 NOSIG RMK A2985,0,5,0,10000,0,0,0,
2026-04-14 22:00:00,METAR RPLL 142200Z 10003KT 060V130 9999 FEW025 26/22 Q1010 NOSIG RMK A2983,0,3,0,10000,0,0,0,
2026-04-14 21:00:00,METAR RPLL 142100Z 11003KT 070V150 9999 FEW025 27/22 Q1010 NOSIG RMK A2983,0,3,0,10000,0,0,0,
2026-04-14 20:00:00,METAR RPLL 142000Z 12005KT 090V150 9999 FEW025 27/22 Q1009 NOSIG RMK A2980,0,5,0,10000,0,0,0,
2026-04-14 19:00:00,METAR RPLL 141900Z 12005KT 9999 FEW025 27/22 Q1009 NOSIG RMK A2980,0,5,0,10000,0,0,0,
2026-04-14 18:00:00,METAR RPLL 141800Z 12005KT 060V140 9999 FEW025 28/21 Q1009 NOSIG RMK A2980,0,5,0,10000,0,0,0,
2026-04-14 17:00:00,METAR RPLL 141700Z 12005KT 080V140 9999 FEW025 28/21 Q1010 NOSIG RMK A2983,0,5,0,10000,0,0,0,
2026-04-14 16:00:00,METAR RPLL 141600Z 13004KT 090V170 9999 FEW025 28/22 Q1010 NOSIG RMK A2983,0,4,0,10000,0,0,0,
2026-04-14 15:00:00,METAR RPLL 141500Z 11005KT 070V140 9999 FEW025 28/22 Q1011 NOSIG RMK A2985,0,5,0,10000,0,0,0,
2026-04-14 14:00:00,METAR RPLL 141400Z 13005KT 070V190 9999 FEW025 29/22 Q1011 NOSIG RMK A2985,0,5,0,10000,0,0,0,
2026-04-14 13:00:00,METAR RPLL 141300Z 13006KT 080V180 9999 FEW025 29/22 Q1010 NOSIG RMK A2983,0,6,0,10000,0,0,0,
2026-04-14 12:00:00,METAR RPLL 141200Z 14008KT 100V190 9999 FEW025 29/23 Q1009 NOSIG RMK A2980,0,8,0,10000,0,0,0,
2026-04-14 11:00:00,METAR RPLL 141100Z 13009KT 100V170 9999 FEW025 30/23 Q1009 NOSIG RMK A2980,0,9,0,10000,0,0,0,
2026-04-14 10:00:00,METAR RPLL 141000Z 13009KT 070V170 9999 FEW025 31/22 Q1009 NOSIG RMK A2980,0,9,0,10000,0,0,0,
2026-04-14 09:00:00,METAR RPLL 140900Z 13010KT 090V180 9999 FEW025 33/22 Q1008 NOSIG RMK A2977,0,10,0,10000,0,0,0,
2026-04-14 08:00:00,METAR RPLL 140800Z 13009KT 080V240 9999 FEW025 34/22 Q1008 NOSIG RMK A2977,0,9,0,10000,0,0,0,
2026-04-14 07:00:00,METAR RPLL 140700Z 14006KT 040V210 9999 FEW025 35/21 Q1009 NOSIG RMK A2980,0,6,0,10000,0,0,0,
2026-04-14 06:00:00,METAR RPLL 140600Z 15007KT 100V210 9999 FEW025 35/21 Q1010 NOSIG RMK A2983,0,7,0,10000,0,0,0,
2026-04-14 05:00:00,METAR RPLL 140500Z 13007KT 070V180 9999 FEW025 35/21 Q1011 NOSIG RMK A2985,0,7,0,10000,0,0,0,
2026-04-14 04:00:00,METAR RPLL 140400Z 15006KT 060V220 9999 FEW025 34/21 Q1012 NOSIG RMK A2988,0,6,0,10000,0,0,0,
2026-04-14 03:00:00,METAR RPLL 140300Z 12007KT 070V180 9999 FEW025 33/21 Q1013 NOSIG RMK A2991,0,7,0,10000,0,0,0,
2026-04-14 02:00:00,METAR RPLL 140200Z VRB05KT 9999 FEW025 32/21 Q1013 NOSIG RMK A2991,0,5,0,10000,0,0,0,
2026-04-14 01:00:00,METAR RPLL 140100Z VRB03KT 9999 FEW025 31/21 Q1014 NOSIG RMK A2994,0,3,0,10000,0,0,0,
2026-04-14 00:00:00,METAR RPLL 140000Z 07004KT 070V180 9999 FEW025 30/22 Q1013 NOSIG RMK A2991,0,4,0,10000,0,0,0,
2026-04-13 23:00:00,METAR RPLL 132300Z VRB02KT 9999 FEW025 29/24 Q1013 NOSIG RMK A2991,0,2,0,10000,0,0,0,
2026-04-13 22:00:00,METAR RPLL 132200Z 33003KT 250V020 9999 SCT025 SCT100 28/23 Q1012 NOSIG RMK A2988,0,3,0,10000,0,0,0,
2026-04-13 21:00:00,METAR RPLL 132100Z VRB02KT 9999 SCT025 28/24 Q1012 NOSIG RMK A2988,0,2,0,10000,0,0,0,
2026-04-13 20:00:00,METAR RPLL 132000Z 17003KT 110V210 9999 FEW025 27/24 Q1011 NOSIG RMK A2985,0,3,0,10000,0,0,0,
2026-04-13 19:00:00,METAR RPLL 131900Z 20003KT 100V250 9999 FEW025 27/24 Q1011 NOSIG RMK A2985,0,3,0,10000,0,0,0,
2026-04-13 18:00:00,METAR RPLL 131800Z 19003KT 140V230 9999 FEW025 28/24 Q1012 NOSIG RMK A2988,0,3,0,10000,0,0,0,
2026-04-13 17:00:00,METAR RPLL 131700Z 16003KT 120V210 9999 FEW025 28/24 Q1012 NOSIG RMK A2988,0,3,0,10000,0,0,0,
2026-04-13 16:00:00,METAR RPLL 131600Z 14003KT 100V230 9999 FEW025 SCT100 29/23 Q1012 NOSIG RMK A2988,0,3,0,10000,0,0,0,
2026-04-13 15:00:00,METAR RPLL 131500Z 16005KT 120V210 9999 FEW025 29/24 Q1013 NOSIG RMK A2991,0,5,0,10000,0,0,0,
2026-04-13 14:00:00,METAR RPLL 131400Z 13005KT 090V210 9999 FEW025 29/24 Q1013 NOSIG RMK A2991,0,5,0,10000,0,0,0,
2026-04-13 13:00:00,METAR RPLL 131300Z 13005KT 090V170 9999 FEW025 30/23 Q1012 NOSIG RMK A2988,0,5,0,10000,0,0,0,
2026-04-13 12:00:00,METAR RPLL 131200Z 17006KT 110V200 9999 FEW025 30/23 Q1012 NOSIG RMK A2988,0,6,0,10000,0,0,0,
2026-04-13 11:00:00,METAR RPLL 131100Z 14005KT 090V210 9999 FEW025 SCT100 32/22 Q1011 NOSIG RMK A2985,0,5,0,10000,0,0,0,
2026-04-13 10:00:00,METAR RPLL 131000Z 12007KT 090V160 9999 FEW025 33/19 Q1010 NOSIG RMK A2983,0,7,0,10000,0,0,0,
2026-04-13 09:00:00,METAR RPLL 130900Z 13007KT 090V190 9999 FEW025 35/20 Q1010 NOSIG RMK A2983,0,7,0,10000,0,0,0,
2026-04-13 08:00:00,METAR RPLL 130800Z 11005KT 060V180 9999 FEW025 35/20 Q1009 NOSIG RMK A2980,0,5,0,10000,0,0,0,
2026-04-13 07:00:00,METAR RPLL 130700Z 32005KT 280V020 9999 FEW025 34/22 Q1009 NOSIG RMK A2980,0,5,0,10000,0,0,0,
2026-04-13 06:00:00,METAR RPLL 130600Z VRB04KT 9999 FEW025 34/22 Q1010 NOSIG RMK A2983,0,4,0,10000,0,0,0,
2026-04-13 05:00:00,METAR RPLL 130500Z VRB04KT 9999 FEW025 34/22 Q1011 NOSIG RMK A2985,0,4,0,10000,0,0,0,
2026-04-13 04:00:00,METAR RPLL 130400Z VRB05G15KT 9999 FEW025 32/21 Q1012 NOSIG RMK A2988,0,5,1,10000,0,0,0,
2026-04-13 03:00:00,METAR RPLL 130300Z 13005KT 070V210 9999 FEW025 33/21 Q1013 NOSIG RMK A2991,0,5,0,10000,0,0,0,
2026-04-13 02:00:00,METAR RPLL 130200Z 15005KT 090V230 9999 FEW025 32/21 Q1013 NOSIG RMK A2991,0,5,0,10000,0,0,0,
2026-04-13 01:00:00,METAR RPLL 130100Z 11006KT 070V140 9999 FEW025 30/21 Q1014 NOSIG RMK A2994,0,6,0,10000,0,0,0,
2026-04-13 00:00:00,METAR RPLL 130000Z 13007KT 080V170 9999 FEW025 30/21 Q1013 NOSIG RMK A2991,0,7,0,10000,0,0,0,
2026-04-12 23:00:00,METAR RPLL 122300Z 12005KT 090V170 9999 FEW025 28/22 Q1013 NOSIG RMK A2991,0,5,0,10000,0,0,0,
2026-04-12 22:00:00,METAR RPLL 122200Z 12005KT 080V160 9999 FEW025 27/21 Q1012 NOSIG RMK A2988,0,5,0,10000,0,0,0,
2026-04-12 21:00:00,METAR RPLL 122100Z 13005KT 070V170 9999 FEW025 27/21 Q1011 NOSIG RMK A2985,0,5,0,10000,0,0,0,
2026-04-12 20:00:00,METAR RPLL 122000Z 13005KT 070V160 9999 FEW025 27/21 Q1011 NOSIG RMK A2985,0,5,0,10000,0,0,0,
2026-04-12 19:00:00,METAR RPLL 121900Z 12006KT 090V170 9999 FEW025 28/21 Q1011 NOSIG RMK A2985,0,6,0,10000,0,0,0,
2026-04-12 18:00:00,METAR RPLL 121800Z 11006KT 070V140 9999 FEW025 28/20 Q1011 Q1011 NOSIG RMK A2985,0,6,0,10000,0,0,0,
2026-04-12 17:00:00,METAR RPLL 121700Z 12007KT 090V150 9999 FEW025 28/21 Q1011 Q1011 NOSIG RMK A2985,0,7,0,10000,0,0,0,
2026-04-12 16:00:00,METAR RPLL 121600Z 12008KT 9999 FEW025 28/20 Q1012 NOSIG RMK A2988,0,8,0,10000,0,0,0,
2026-04-12 15:00:00,METAR RPLL 121500Z 14006KT 100V190 9999 FEW025 29/21 Q1012 NOSIG RMK A2988,0,6,0,10000,0,0,0,
2026-04-12 14:00:00,METAR RPLL 121400Z 15005KT 110V220 9999 FEW025 29/22 Q1012 NOSIG RMK A2988,0,5,0,10000,0,0,0,
2026-04-12 13:00:00,METAR RPLL 121300Z 14006KT 090V180 9999 FEW025 29/21 Q1011 NOSIG RMK A2985,0,6,0,10000,0,0,0,
2026-04-12 12:00:00,METAR RPLL 121200Z 15005KT 100V190 9999 FEW025 30/21 Q1010 NOSIG RMK A2983,0,5,0,10000,0,0,0,
2026-04-12 11:00:00,METAR RPLL 121100Z 14007KT 100V170 9999 FEW025 30/21 Q1010 NOSIG RMK A2983,0,7,0,10000,0,0,0,
2026-04-12 10:00:00,METAR RPLL 121000Z 12007KT 070V190 9999 FEW025 32/21 Q1009 NOSIG RMK A2980,0,7,0,10000,0,0,0,
2026-04-12 09:00:00,METAR RPLL 120900Z 12008KT 060V150 9999 FEW025 33/21 Q1009 NOSIG RMK A2980,0,8,0,10000,0,0,0,
2026-04-12 08:00:00,METAR RPLL 120800Z 13007KT 080V160 9999 FEW025 34/20 Q1009 NOSIG RMK A2980,0,7,0,10000,0,0,0,
2026-04-12 07:00:00,METAR RPLL 120700Z 13007KT 070V220 9999 FEW025 34/20 Q1009 NOSIG RMK A2980,0,7,0,10000,0,0,0,
2026-04-12 06:00:00,METAR RPLL 120600Z 15006KT 080V210 9999 FEW025 34/22 Q1009 NOSIG RMK A2980,0,6,0,10000,0,0,0,
2026-04-12 05:00:00,METAR RPLL 120500Z VRB05KT 9999 FEW025 34/22 Q1010 NOSIG RMK A2983,0,5,0,10000,0,0,0,
2026-04-12 04:00:00,METAR RPLL 120400Z 15006KT 080V230 9999 FEW025 33/22 Q1011 NOSIG RMK A2985,0,6,0,10000,0,0,0,
2026-04-12 03:00:00,METAR RPLL 120300Z 14005KT 080V220 9999 FEW025 32/22 Q1012 NOSIG RMK A2988,0,5,0,10000,0,0,0,
2026-04-12 02:00:00,METAR RPLL 120200Z VRB05KT 9999 FEW025 31/22 Q1012 NOSIG RMK A2988,0,5,0,10000,0,0,0,
2026-04-12 01:00:00,METAR RPLL 120100Z 14006KT 080V180 9999 FEW025 30/22 Q1013 NOSIG RMK A2991,0,6,0,10000,0,0,0,
2026-04-12 00:00:00,METAR RPLL 120000Z 13007KT 090V180 9999 FEW025 29/22 Q1012 NOSIG RMK A2988,0,7,0,10000,0,0,0,
2026-04-11 23:00:00,METAR RPLL 112300Z 11006KT 060V180 9999 FEW025 28/22 Q1012 NOSIG RMK A2988,0,6,0,10000,0,0,0,
2026-04-11 22:00:00,METAR RPLL 112200Z 13004KT 090V170 9999 FEW025 27/22 Q1011 NOSIG RMK A2985,0,4,0,10000,0,0,0,
2026-04-11 21:00:00,METAR RPLL 112100Z 14005KT 100V190 9999 FEW025 SCT100 27/22 Q1010 NOSIG RMK A2983,0,5,0,10000,0,0,0,
2026-04-11 20:00:00,METAR RPLL 112000Z 14005KT 080V200 9999 FEW025 SCT100 27/23 Q1010 NOSIG RMK A2983,0,5,0,10000,0,0,0,
2026-04-11 19:00:00,METAR RPLL 111900Z 14005KT 100V170 9999 FEW025 SCT100 28/22 Q1010 NOSIG RMK A2983,0,5,0,10000,0,0,0,
2026-04-11 18:00:00,METAR RPLL 111800Z 13005KT 060V180 9999 FEW025 SCT100 28/23 Q1011 NOSIG RMK A2985,0,5,0,10000,0,0,0,
2026-04-11 17:00:00,METAR RPLL 111700Z 14004KT 100V200 9999 FEW025 BKN100 28/23 Q1011 NOSIG RMK A2985,0,4,0,10000,0,0,0,
2026-04-11 16:00:00,METAR RPLL 111600Z 14005KT 090V180 9999 FEW025 BKN100 28/23 Q1012 NOSIG RMK A2988,0,5,0,10000,0,0,0,
2026-04-11 15:00:00,METAR RPLL 111500Z 13006KT 070V180 9999 FEW025 BKN100 29/23 Q1012 NOSIG RMK A2988,0,6,0,10000,0,0,0,
2026-04-11 14:00:00,METAR RPLL 111400Z 13006KT 090V180 9999 FEW025 29/24 Q1011 NOSIG RMK A2985,0,6,0,10000,0,0,0,
2026-04-11 13:00:00,METAR RPLL 111300Z 13006KT 100V180 9999 FEW025 29/24 Q1011 NOSIG RMK A2983,0,6,0,10000,0,0,0,
2026-04-11 12:00:00,METAR RPLL 111200Z 17006KT 130V200 9999 FEW025 30/24 Q1010 NOSIG RMK A2983,0,6,0,10000,0,0,0,
2026-04-11 11:00:00,METAR RPLL 111100Z 16005KT 070V220 9999 FEW025 31/24 Q1010 NOSIG RMK A2983,0,5,0,10000,0,0,0,
2026-04-11 10:00:00,METAR RPLL 111000Z 24007KT 8000 FEW025 31/23 Q1009 NOSIG RMK A2980,0,7,0,8000,0,0,0,
2026-04-11 09:00:00,METAR RPLL 110900Z 27012KT 8000 FEW025 32/24 Q1008 NOSIG RMK A2977,0,12,0,8000,0,0,0,
2026-04-11 08:00:00,METAR RPLL 110800Z 28012KT 9999 FEW025 33/22 Q1008 NOSIG RMK A2977,0,12,0,10000,0,0,0,
2026-04-11 07:00:00,METAR RPLL 110700Z 27006KT 240V310 9999 FEW025 35/23 Q1008 NOSIG RMK A2977,0,6,0,10000,0,0,0,
2026-04-11 06:00:00,METAR RPLL 110600Z 30007KT 260V330 9999 FEW025 35/23 Q1009 NOSIG RMK A2980,0,7,0,10000,0,0,0,
2026-04-11 05:00:00,METAR RPLL 110500Z 28007KT 250V310 9999 FEW025 34/24 Q1010 NOSIG RMK A2983,0,7,0,10000,0,0,0,
2026-04-11 04:00:00,METAR RPLL 110400Z 28007KT 210V330 9999 FEW025 33/24 Q1011 NOSIG RMK A2985,0,7,0,10000,0,0,0,
2026-04-11 03:00:00,METAR RPLL 110300Z 27006KT 240V320 9999 SCT025 32/24 Q1012 NOSIG RMK A2988,0,6,0,10000,0,0,0,
2026-04-11 02:00:00,METAR RPLL 110200Z 27006KT 220V320 9999 SCT025 31/24 Q1013 NOSIG RMK A2991,0,6,0,10000,0,0,0,
2026-04-11 01:00:00,METAR RPLL 110100Z VRB02KT 9999 SCT025 30/24 Q1013 NOSIG RMK A2991,0,2,0,10000,0,0,0,
2026-04-11 00:00:00,METAR RPLL 110000Z VRB02KT 9999 SCT025 30/23 Q1012 NOSIG RMK A2988,0,2,0,10000,0,0,0,
2026-04-10 23:00:00,METAR RPLL 102300Z 08003KT 040V130 9999 FEW025 28/25 Q1012 NOSIG RMK A2988,0,3,0,10000,0,0,0,
2026-04-10 22:00:00,METAR RPLL 102200Z 13003KT 100V160 9999 FEW025 27/25 Q1011 NOSIG RMK A2985,0,3,0,10000,0,0,0,
2026-04-10 21:00:00,METAR RPLL 102100Z 16003KT 120V200 9999 FEW025 28/25 Q1011 NOSIG RMK A2985,0,3,0,10000,0,0,0,
2026-04-10 20:00:00,METAR RPLL 102000Z 16003KT 110V210 9999 FEW025 28/25 Q1011 NOSIG RMK A2985,0,3,0,10000,0,0,0,
2026-04-10 19:00:00,METAR RPLL 101900Z 16005KT 120V240 9999 FEW025 28/25 Q1010 NOSIG RMK A2983,0,5,0,10000,0,0,0,
2026-04-10 18:00:00,METAR RPLL 101800Z 16004KT 100V200 9999 FEW025 28/25 Q1011 NOSIG RMK A2985,0,4,0,10000,0,0,0,
2026-04-10 17:00:00,METAR RPLL 101700Z 18004KT 130V220 9999 FEW025 SCT100 29/24 Q1011 NOSIG RMK A2985,0,4,0,10000,0,0,0,
2026-04-10 16:00:00,METAR RPLL 101600Z 14005KT 090V190 9999 FEW025 29/24 Q1012 NOSIG RMK A2988,0,5,0,10000,0,0,0,
2026-04-10 15:00:00,METAR RPLL 101500Z 14003KT 070V210 9999 FEW025 30/23 Q1012 NOSIG RMK A2988,0,3,0,10000,0,0,0,
2026-04-10 14:00:00,METAR RPLL 101400Z 11004KT 060V160 9999 FEW025 30/23 Q1012 NOSIG RMK A2988,0,4,0,10000,0,0,0,
2026-04-10 13:00:00,METAR RPLL 101300Z 14005KT 100V190 9999 FEW025 30/23 Q1011 NOSIG RMK A2985,0,5,0,10000,0,0,0,
2026-04-10 12:00:00,METAR RPLL 101200Z 24005KT 9999 FEW025 30/24 Q1011 NOSIG RMK A2985,0,5,0,10000,0,0,0,
2026-04-10 11:00:00,METAR RPLL 101100Z 22006KT 180V260 9999 FEW025 30/23 Q1011 NOSIG RMK A2985,0,6,0,10000,0,0,0,
2026-04-10 10:00:00,METAR RPLL 101000Z 26010KT 220V280 9999 FEW025 31/24 Q1010 NOSIG RMK A2983,0,10,0,10000,0,0,0,
2026-04-10 09:00:00,METAR RPLL 100900Z 26013KT 9999 FEW025 32/24 Q1009 NOSIG RMK A2980,0,13,0,10000,0,0,0,
2026-04-10 08:00:00,METAR RPLL 100800Z 28009KT 240V320 9999 FEW025 34/24 Q1009 NOSIG RMK A2980,0,9,0,10000,0,0,0,
2026-04-10 07:00:00,METAR RPLL 100700Z 29007KT 250V320 9999 FEW025 36/20 Q1009 NOSIG RMK A2980,0,7,0,10000,0,0,0,
2026-04-10 06:00:00,METAR RPLL 100600Z 29005KT 250V340 9999 FEW025 35/22 Q1010 NOSIG RMK A2983,0,5,0,10000,0,0,0,
2026-04-10 05:00:00,METAR RPLL 100500Z 29006KT 250V340 9000 FEW025 34/24 Q1011 NOSIG RMK A2985,0,6,0,9000,0,0,0,
2026-04-10 04:00:00,METAR RPLL 100400Z 30007KT 250V350 9000 FEW025 SCT100 33/23 Q1012 NOSIG RMK A2988,0,7,0,9000,0,0,0,
2026-04-10 03:00:00,METAR RPLL 100300Z 29004KT 250V340 9000 FEW025 SCT100 32/24 Q1013 NOSIG RMK A2991,0,4,0,9000,0,0,0,
2026-04-10 02:00:00,METAR RPLL 100200Z 27004KT 230V330 9000 FEW025 BKN100 30/23 Q1014 NOSIG RMK A2994,0,4,0,9000,0,0,0,
2026-04-10 01:00:00,METAR RPLL 100100Z 30005KT 260V350 9999 FEW025 BKN100 30/23 Q1014 NOSIG RMK A2994,0,5,0,10000,0,0,0,
2026-04-10 00:00:00,METAR RPLL 100000Z VRB03KT 9999 FEW025 SCT100 30/22 Q1014 NOSIG RMK A2994,0,3,0,10000,0,0,0,
2026-04-09 23:00:00,METAR RPLL 092300Z 15003KT 090V210 9999 FEW025 BKN100 29/22 Q1013 NOSIG RMK A2991,0,3,0,10000,0,0,0,
2026-04-09 22:00:00,METAR RPLL 092200Z 14003KT 100V170 9999 FEW025 27/21 Q1012 NOSIG RMK A2988,0,3,0,10000,0,0,0,
2026-04-09 21:00:00,METAR RPLL 092100Z 13004KT 100V160 9999 FEW025 28/21 Q1011 NOSIG RMK A2985,0,4,0,10000,0,0,0,
2026-04-09 20:00:00,METAR RPLL 092000Z 13004KT 080V160 9999 FEW025 28/21 Q1011 NOSIG RMK A2985,0,4,0,10000,0,0,0,
2026-04-09 19:00:00,METAR RPLL 091900Z 14003KT 090V260 9999 FEW025 SCT100 28/21 Q1011 NOSIG RMK A2985,0,3,0,10000,0,0,0,
2026-04-09 18:00:00,METAR RPLL 091800Z 12006KT 070V150 9999 FEW025 BKN100 28/21 Q1011 NOSIG RMK A2985,0,6,0,10000,0,0,0,
2026-04-09 17:00:00,METAR RPLL 091700Z 12005KT 070V150 9999 FEW025 28/22 Q1012 NOSIG RMK A2988,0,5,0,10000,0,0,0,
2026-04-09 16:00:00,METAR RPLL 091600Z 13007KT 090V170 9999 FEW025 28/22 Q1012 NOSIG RMK A2988,0,7,0,10000,0,0,0,
2026-04-09 15:00:00,METAR RPLL 091500Z 12007KT 080V170 9999 FEW025 29/23 Q1012 NOSIG RMK A2988,0,7,0,10000,0,0,0,
2026-04-09 14:00:00,METAR RPLL 091400Z 14006KT 090V190 9999 FEW025 SCT100 29/23 Q1012 NOSIG RMK A2988,0,6,0,10000,0,0,0,
2026-04-09 13:00:00,METAR RPLL 091300Z 13006KT 060V200 9999 FEW025 SCT100 29/23 Q1012 NOSIG RMK A2988,0,6,0,10000,0,0,0,
2026-04-09 12:00:00,METAR RPLL 091200Z 13007KT 080V190 9999 FEW025 30/23 Q1011 NOSIG RMK A2985,0,7,0,10000,0,0,0,
2026-04-09 11:00:00,METAR RPLL 091100Z 15006KT 100V210 9999 FEW025 30/24 Q1011 NOSIG RMK A2985,0,6,0,10000,0,0,0,
2026-04-09 10:00:00,METAR RPLL 091000Z 12008KT 090V150 9999 FEW025 32/23 Q1010 NOSIG RMK A2983,0,8,0,10000,0,0,0,
2026-04-09 09:00:00,METAR RPLL 090900Z 13009KT 090V160 9999 FEW025 SCT100 34/22 Q1010 NOSIG RMK A2983,0,9,0,10000,0,0,0,
2026-04-09 08:00:00,METAR RPLL 090800Z 13007KT 080V200 9999 FEW025 35/21 Q1010 NOSIG RMK A2983,0,7,0,10000,0,0,0,
2026-04-09 07:00:00,METAR RPLL 090700Z 12010KT 070V180 9999 FEW025 35/22 Q1010 NOSIG RMK A2983,0,10,0,10000,0,0,0,
2026-04-09 06:00:00,METAR RPLL 090600Z 12009KT 070V180 9999 FEW025 35/22 Q1010 NOSIG RMK A2983,0,9,0,10000,0,0,0,
2026-04-09 05:00:00,METAR RPLL 090500Z 11010KT 060V160 9999 FEW025 34/21 Q1011 NOSIG RMK A2985,0,10,0,10000,0,0,0,
2026-04-09 04:00:00,METAR RPLL 090400Z 11008KT 070V170 9999 FEW025 33/22 Q1013 NOSIG RMK A2991,0,8,0,10000,0,0,0,
2026-04-09 03:00:00,METAR RPLL 090300Z 13005KT 060V230 9999 FEW025 33/21 Q1013 NOSIG RMK A2991,0,5,0,10000,0,0,0,
2026-04-09 02:00:00,METAR RPLL 090200Z VRB03KT 9999 FEW025 32/20 Q1014 NOSIG RMK A2994,0,3,0,10000,0,0,0,
2026-04-09 01:00:00,METAR RPLL 090100Z VRB03KT 9999 FEW025 31/18 Q1014 NOSIG RMK A2994,0,3,0,10000,0,0,0,
2026-04-09 00:00:00,METAR RPLL 090000Z VRB02KT 9999 FEW025 30/16 Q1014 NOSIG RMK A2994,0,2,0,10000,0,0,0,
2026-04-08 23:00:00,METAR RPLL 082300Z 08003KT 020V120 9999 FEW025 28/17 Q1013 NOSIG RMK A2991,0,3,0,10000,0,0,0,
2026-04-08 22:00:00,METAR RPLL 082200Z 03004KT 350V060 9999 FEW025 26/16 Q1013 NOSIG RMK A2991,0,4,0,10000,0,0,0,
2026-04-08 21:00:00,METAR RPLL 082100Z 06006KT 9999 FEW025 24/18 Q1012 NOSIG RMK A2988,0,6,0,10000,0,0,0,
2026-04-08 20:00:00,METAR RPLL 082000Z 11005KT 9999 FEW025 27/20 Q1012 NOSIG RMK A2988,0,5,0,10000,0,0,0,
2026-04-08 19:00:00,METAR RPLL 081900Z 11005KT 070V150 9999 FEW025 27/21 Q1012 NOSIG RMK A2988,0,5,0,10000,0,0,0,
2026-04-08 18:00:00,METAR RPLL 081800Z 11006KT 070V140 9999 FEW025 27/21 Q1012 NOSIG RMK A2988,0,6,0,10000,0,0,0,
2026-04-08 17:00:00,METAR RPLL 081700Z 12007KT 080V150 9999 FEW025 28/21 Q1012 NOSIG RMK A2988,0,7,0,10000,0,0,0,
2026-04-08 16:00:00,METAR RPLL 081600Z 12007KT 070V180 9999 FEW025 28/19 Q1012 NOSIG RMK A2988,0,7,0,10000,0,0,0,
2026-04-08 15:00:00,METAR RPLL 081500Z 13007KT 080V180 9999 FEW025 28/20 Q1013 NOSIG RMK A2991,0,7,0,10000,0,0,0,
2026-04-08 14:00:00,METAR RPLL 081400Z 13006KT 090V170 9999 FEW025 29/20 Q1013 NOSIG RMK A2991,0,6,0,10000,0,0,0,
2026-04-08 13:00:00,METAR RPLL 081300Z 13006KT 090V210 9999 FEW025 29/20 Q1012 NOSIG RMK A2988,0,6,0,10000,0,0,0,
2026-04-08 12:00:00,METAR RPLL 081200Z 13005KT 080V170 9999 FEW025 30/21 Q1012 NOSIG RMK A2988,0,5,0,10000,0,0,0,
2026-04-08 11:00:00,METAR RPLL 081100Z 14005KT 090V200 9999 FEW025 31/22 Q1011 NOSIG RMK A2985,0,5,0,10000,0,0,0,
2026-04-08 10:00:00,METAR RPLL 081000Z 14007KT 060V190 9999 FEW025 32/21 Q1010 NOSIG RMK A2983,0,7,0,10000,0,0,0,
2026-04-08 09:00:00,METAR RPLL 080900Z 14010KT 080V200 9999 FEW025 33/20 Q1010 NOSIG RMK A2983,0,10,0,10000,0,0,0,
2026-04-08 08:00:00,METAR RPLL 080800Z 13011KT 090V200 9999 FEW025 34/20 Q1010 NOSIG RMK A2983,0,11,0,10000,0,0,0,
2026-04-08 07:00:00,METAR RPLL 080700Z 15011KT 100V190 9999 FEW025 35/18 Q1010 NOSIG RMK A2983,0,11,0,10000,0,0,0,
2026-04-08 06:00:00,METAR RPLL 080600Z 16009KT 120V200 9999 FEW025 34/19 Q1011 NOSIG RMK A2985,0,9,0,10000,0,0,0,
2026-04-08 05:00:00,METAR RPLL 080500Z 15010KT 100V220 9999 FEW025 34/19 Q1012 NOSIG RMK A2988,0,10,0,10000,0,0,0,
2026-04-08 04:00:00,METAR RPLL 080400Z 12010KT 090V190 9999 FEW025 34/20 Q1013 NOSIG RMK A2991,0,10,0,10000,0,0,0,
2026-04-08 03:00:00,METAR RPLL 080300Z 14009KT 090V200 9999 FEW025 33/21 Q1013 NOSIG RMK A2991,0,9,0,10000,0,0,0,
2026-04-08 02:00:00,METAR RPLL 080200Z 12007KT 080V170 9999 FEW025 33/22 Q1014 NOSIG RMK A2994,0,7,0,10000,0,0,0,
2026-04-08 01:00:00,METAR RPLL 080100Z 10007KT 060V150 9999 FEW025 31/22 Q1014 NOSIG RMK A2994,0,7,0,10000,0,0,0,
2026-04-08 00:00:00,METAR RPLL 080000Z 14004KT 100V220 9999 FEW025 30/23 Q1014 NOSIG RMK A2994,0,4,0,10000,0,0,0,
2026-04-07 23:00:00,METAR RPLL 072300Z VRB03KT 9999 FEW025 28/23 Q1013 NOSIG RMK A2991,0,3,0,10000,0,0,0,
2026-04-07 22:00:00,METAR RPLL 072200Z VRB02KT 9999 SCT025 27/24 Q1012 NOSIG RMK A2988,0,2,0,10000,0,0,0,
2026-04-07 21:00:00,METAR RPLL 072100Z VRB01KT 9999 SCT025 27/25 Q1012 NOSIG RMK A2988,0,1,0,10000,0,0,0,
2026-04-07 20:00:00,METAR RPLL 072000Z VRB02KT 9999 FEW025 28/25 Q1011 NOSIG RMK A2985,0,2,0,10000,0,0,0,
2026-04-07 19:00:00,METAR RPLL 071900Z 17003KT 120V210 9999 FEW025 28/25 Q1011 NOSIG RMK A2985,0,3,0,10000,0,0,0,
2026-04-07 18:00:00,METAR RPLL 071800Z 17004KT 120V20 9999 FEW025 28/25 Q1011 NOSIG RMK A2985,0,4,0,9999,0,0,0,
2026-04-07 17:00:00,METAR RPLL 071700Z 14003KT 090V220 9999 FEW025 29/24 Q1012 NOSIG RMK A2988,0,3,0,10000,0,0,0,
2026-04-07 16:00:00,METAR RPLL 071600Z 14004KT 080V200 9999 FEW025 29/23 Q1012 NOSIG RMK A2988,0,4,0,10000,0,0,0,
2026-04-07 15:00:00,METAR RPLL 071500Z 21003KT 170V240 9999 FEW025 30/22 Q1012 NOSIG RMK A2988,0,3,0,10000,0,0,0,
2026-04-07 14:00:00,METAR RPLL 071400Z 25004KT 9999 FEW025 29/23 Q1012 NOSIG RMK A2988,0,4,0,10000,0,0,0,
2026-04-07 13:00:00,METAR RPLL 071300Z 26004KT 9999 FEW025 29/23 Q1011 NOSIG RMK A2985,0,4,0,10000,0,0,0,
2026-04-07 12:00:00,METAR RPLL 071200Z 22005KT 170V240 9999 FEW025 30/23 Q1011 NOSIG RMK A2985,0,5,0,10000,0,0,0,
2026-04-07 11:00:00,METAR RPLL 071100Z 26008KT 230V300 9999 FEW025 30/23 Q1010 NOSIG RMK A2983,0,8,0,10000,0,0,0,
2026-04-07 10:00:00,METAR RPLL 071000Z 26007KT 9999 FEW025 31/24 Q1009 NOSIG RMK A2980,0,7,0,10000,0,0,0,
2026-04-07 09:00:00,METAR RPLL 070900Z 27010KT 260V340 9999 FEW025 32/24 Q1009 NOSIG RMK A2980,0,10,0,10000,0,0,0,
2026-04-07 08:00:00,METAR RPLL 070800Z 30009KT 260V340 9999 FEW025 36/15 Q1009 NOSIG RMK A2980,0,9,0,10000,0,0,0,
2026-04-07 07:00:00,METAR RPLL 070700Z 18004KT 120V240 9999 FEW025 37/16 Q1009 NOSIG RMK A2980,0,4,0,10000,0,0,0,
2026-04-07 06:00:00,METAR RPLL 070600Z VRB04KT 9999 FEW025 36/16 Q1010 NOSIG RMK A2983,0,4,0,10000,0,0,0,
2026-04-07 05:00:00,METAR RPLL 070500Z 12006KT 030V180 9999 FEW025 35/19 Q1011 NOSIG RMK A2985,0,6,0,10000,0,0,0,
2026-04-07 04:00:00,METAR RPLL 070400Z 12006KT 060V160 9999 FEW025 34/22 Q1012 NOSIG RMK A2988,0,6,0,10000,0,0,0,
2026-04-07 03:00:00,METAR RPLL 070300Z 12006KT 060V170 9999 FEW025 33/22 Q1012 NOSIG RMK A2988,0,6,0,10000,0,0,0,
2026-04-07 02:00:00,METAR RPLL 070200Z 12005KT 9999 FEW025 33/21 Q1013 NOSIG RMK A2991,0,5,0,10000,0,0,0,
2026-04-07 01:00:00,METAR RPLL 070100Z VRB02KT 9999 FEW025 31/21 Q1013 NOSIG RMK A2991,0,2,0,10000,0,0,0,
2026-04-07 00:00:00,METAR RPLL 070000Z VRB02KT 9999 FEW025 30/22 Q1012 NOSIG RMK A2988,0,2,0,10000,0,0,0,
2026-04-06 23:00:00,METAR RPLL 062300Z VRB02KT 9999 FEW025 28/22 Q1012 NOSIG RMK A2988,0,2,0,10000,0,0,0,
2026-04-06 22:00:00,METAR RPLL 062200Z VRB02KT 9999 FEW025 27/23 Q1011 NOSIG RMK A2985,0,2,0,10000,0,0,0,
2026-04-06 21:00:00,METAR RPLL 062100Z 10003KT 070V130 9999 FEW025 27/22 Q1011 NOSIG RMK A2985,0,3,0,10000,0,0,0,
2026-04-06 20:00:00,METAR RPLL 062000Z 12005KT 080V150 9999 FEW025 27/22 Q1010 NOSIG RMK A2983,0,5,0,10000,0,0,0,
2026-04-06 19:00:00,METAR RPLL 061900Z 12005KT 070V160 9999 FEW025 28/22 Q1010 NOSIG RMK A2983,0,5,0,10000,0,0,0,
2026-04-06 18:00:00,METAR RPLL 061800Z 14005KT 100V190 9999 FEW025 28/23 Q1010 NOSIG RMK A2983,0,5,0,10000,0,0,0,
2026-04-06 17:00:00,METAR RPLL 061700Z 15005KT 080V190 9999 FEW025 28/24 Q1011 NOSIG RMK A2985,0,5,0,10000,0,0,0,
2026-04-06 16:00:00,METAR RPLL 061600Z VRB04KT 9999 FEW025 28/23 Q1011 NOSIG RMK A2985,0,4,0,10000,0,0,0,
2026-04-06 15:00:00,METAR RPLL 061500Z 13005KT 090V200 9999 FEW025 29/23 Q1011 NOSIG RMK A2985,0,5,0,10000,0,0,0,
2026-04-06 14:00:00,METAR RPLL 061400Z 12006KT 070V150 9999 FEW025 29/23 Q1012 NOSIG RMK A2988,0,6,0,10000,0,0,0,
2026-04-06 13:00:00,METAR RPLL 061300Z 13005KT 090V190 9999 FEW025 29/23 Q1011 NOSIG RMK A2985,0,5,0,10000,0,0,0,
2026-04-06 12:00:00,METAR RPLL 061200Z 14006KT 070V190 9999 FEW025 30/24 Q1010 NOSIG RMK A2983,0,6,0,10000,0,0,0,
2026-04-06 11:00:00,METAR RPLL 061100Z 12007KT 080V170 9999 FEW025 31/22 Q1010 NOSIG RMK A2983,0,7,0,10000,0,0,0,
2026-04-06 10:00:00,METAR RPLL 061000Z 11007KT 080V140 9999 FEW025 32/22 Q1009 NOSIG RMK A2980,0,7,0,10000,0,0,0,
2026-04-06 09:00:00,METAR RPLL 060900Z 12007KT 070V160 9999 FEW025 34/21 Q1009 NOSIG RMK A2980,0,7,0,10000,0,0,0,
2026-04-06 08:00:00,METAR RPLL 060800Z 12007KT 060V180 9999 FEW025 35/21 Q1009 NOSIG RMK A2980,0,7,0,10000,0,0,0,
2026-04-06 07:00:00,METAR RPLL 060700Z 11008KT 070V160 9999 FEW025 35/20 Q1009 NOSIG RMK A2980,0,8,0,10000,0,0,0,
2026-04-06 06:00:00,METAR RPLL 060600Z 12008KT 070V200 9999 FEW025 35/20 Q1009 NOSIG RMK A2980,0,8,0,10000,0,0,0,
2026-04-06 05:00:00,METAR RPLL 060500Z 12008KT 070V170 9999 FEW025 35/21 Q1011 NOSIG RMK A2985,0,8,0,10000,0,0,0,
2026-04-06 04:00:00,METAR RPLL 060400Z 10008KT 060V160 9999 FEW025 34/21 Q1011 NOSIG RMK A2985,0,8,0,10000,0,0,0,
2026-04-06 03:00:00,METAR RPLL 060300Z 10008KT 060V180 9999 FEW025 33/22 Q1012 NOSIG RMK A2988,0,8,0,10000,0,0,0,
2026-04-06 02:00:00,METAR RPLL 060200Z 12006KT 070V180 9999 FEW025 32/22 Q1013 NOSIG RMK A2991,0,6,0,10000,0,0,0,
2026-04-06 01:00:00,METAR RPLL 060100Z 12006KT 060V200 9999 FEW025 31/22 Q1013 NOSIG RMK A2991,0,6,0,10000,0,0,0,
2026-04-06 00:00:00,METAR RPLL 060000Z 12007KT 070V140 9999 FEW025 30/22 Q1013 NOSIG RMK A2991,0,7,0,10000,0,0,0,
2026-04-05 23:00:00,METAR RPLL 052300Z 11005KT 070V140 9999 FEW025 29/21 Q1012 NOSIG RMK A2988,0,5,0,10000,0,0,0,
2026-04-05 22:00:00,METAR RPLL 052200Z VRB02KT 9999 FEW025 26/21 Q1011 NOSIG RMK A2985,0,2,0,10000,0,0,0,
2026-04-05 21:00:00,METAR RPLL 052100Z 11003KT 070V150 9999 FEW025 27/21 Q1011 NOSIG RMK A2985,0,3,0,10000,0,0,0,
2026-04-05 20:00:00,METAR RPLL 052000Z 12004KT 090V160 9999 FEW025 27/21 Q1010 NOSIG RMK A2983,0,4,0,10000,0,0,0,
2026-04-05 19:00:00,METAR RPLL 051900Z 11005KT 070V150 9999 FEW025 28/21 Q1010 NOSIG RMK A2983,0,5,0,10000,0,0,0,
2026-04-05 18:00:00,METAR RPLL 051800Z 12005KT 070V150 9999 FEW025 28/22 Q1010 NOSIG RMK A2983,0,5,0,10000,0,0,0,
2026-04-05 17:00:00,METAR RPLL 051700Z 13005KT 9999 FEW025 28/22 Q1011 NOSIG RMK A2985,0,5,0,10000,0,0,0,
2026-04-05 16:00:00,METAR RPLL 051600Z 13006KT 080V170 9999 FEW025 29/23 Q1011 NOSIG RMK A2985,0,6,0,10000,0,0,0,
2026-04-05 15:00:00,METAR RPLL 051500Z 13007KT 110V160 9999 FEW025 29/23 Q1011 NOSIG RMK A2985,0,7,0,10000,0,0,0,
2026-04-05 13:00:00,METAR RPLL 051300Z 14005KT 090V190 9999 FEW025 29/22 Q1010 NOSIG RMK A2983,0,5,0,10000,0,0,0,
2026-04-05 12:00:00,METAR RPLL 051200Z 14005KT 080V190 9999 FEW025 30/21 Q1010 NOSIG RMK A2983,0,5,0,10000,0,0,0,
2026-04-05 11:00:00,METAR RPLL 051100Z 12007KT 080V160 9999 FEW025 SCT100 31/21 Q1009 NOSIG RMK A2980,0,7,0,10000,0,0,0,
2026-04-05 10:00:00,METAR RPLL 051000Z 11009KT 070V140 9999 FEW025 33/20 Q1009 NOSIG RMK A2980,0,9,0,10000,0,0,0,
2026-04-05 09:00:00,METAR RPLL 050900Z 13007KT 080V170 9999 FEW025 35/19 Q1008 NOSIG RMK A2977,0,7,0,10000,0,0,0,
2026-04-05 08:00:00,METAR RPLL 050800Z 13007KT 090V180 9999 FEW025 36/18 Q1007 NOSIG RMK A2974,0,7,0,10000,0,0,0,
2026-04-05 07:00:00,METAR RPLL 050700Z 12007KT 070V210 9999 FEW025 36/12 Q1008 NOSIG RMK A2977,0,7,0,10000,0,0,0,
2026-04-05 06:00:00,METAR RPLL 050600Z VRB07KT 9999 FEW025 36/18 Q1008 NOSIG RMK A2977,0,7,0,10000,0,0,0,
2026-04-05 05:00:00,METAR RPLL 050500Z 09007KT 060V140 9999 FEW025 35/19 Q1009 NOSIG RMK A2980,0,7,0,10000,0,0,0,
2026-04-05 04:00:00,METAR RPLL 050400Z 11007KT 060V160 9999 FEW025 34/20 Q1010 NOSIG RMK A2983,0,7,0,10000,0,0,0,
2026-04-05 03:00:00,METAR RPLL 050300Z 12006KT 060V230 9000 FEW025 32/21 Q1011 NOSIG RMK A2985,0,6,0,9000,0,0,0,
2026-04-05 02:00:00,METAR RPLL 050200Z 06004KT 360V110 9000 FEW025 31/21 Q1012 NOSIG RMK A2988,0,4,0,9000,0,0,0,
2026-04-05 01:00:00,METAR RPLL 050100Z 12004KT 060V180 9000 FEW025 30/23 Q1012 NOSIG RMK A2988,0,4,0,9000,0,0,0,
2026-04-05 00:00:00,METAR RPLL 050000Z 09003KT 040V130 8000 FEW025 28/24 Q1012 NOSIG RMK A2988,0,3,0,8000,0,0,0,
2026-04-04 23:00:00,METAR RPLL 042300Z 16003KT 100V200 9000 FEW025 27/23 Q1011 NOSIG RMK A2985,0,3,0,9000,0,0,0,
2026-04-04 22:00:00,METAR RPLL 042200Z 17003KT 120V190 9000 FEW025 26/23 Q1010 NOSIG RMK A2983,0,3,0,9000,0,0,0,
2026-04-04 21:00:00,METAR RPLL 042100Z 00000KT 9000 FEW025 26/23 Q1010 NOSIG RMK A2983,0,0,0,9000,0,0,0,
2026-04-04 20:00:00,METAR RPLL 042000Z 00000KT 9000 FEW025 25/23 Q1010 NOSIG RMK A2983,0,0,0,9000,0,0,0,
2026-04-04 19:00:00,METAR RPLL 041900Z VRB02KT 9999 FEW025 26/23 Q1009 NOSIG RMK A2980,0,2,0,10000,0,0,0,
2026-04-04 18:00:00,METAR RPLL 041800Z VRB02KT 9999 FEW025 27/22 Q1010 NOSIG RMK A2983,0,2,0,10000,0,0,0,
2026-04-04 17:00:00,METAR RPLL 041700Z VRB02KT 9999 FEW025 27/21 Q1010 NOSIG RMK A2983,0,2,0,10000,0,0,0,
2026-04-04 16:00:00,METAR RPLL 041600Z VRB01KT 9999 FEW025 27/20 Q1011 NOSIG RMK A2985,0,1,0,10000,0,0,0,
2026-04-04 15:00:00,METAR RPLL 041500Z VRB02KT 9999 FEW025 28/20 Q1011 NOSIG RMK A2985,0,2,0,10000,0,0,0,
2026-04-04 14:00:00,METAR RPLL 041400Z VRB02KT 9999 FEW025 28/19 Q1011 NOSIG RMK A2985,0,2,0,10000,0,0,0,
2026-04-04 13:00:00,METAR RPLL 041300Z 17003KT 110V210 9999 FEW025 28/22 Q1010 NOSIG RMK A2983,0,3,0,10000,0,0,0,
2026-04-04 12:00:00,METAR RPLL 041200Z 25008KT 9999 FEW025 29/22 Q1009 NOSIG RMK A2980,0,8,0,10000,0,0,0,
2026-04-04 11:00:00,METAR RPLL 041100Z 24008KT 9999 FEW025 30/20 Q1009 NOSIG RMK A2980,0,8,0,10000,0,0,0,
2026-04-04 10:00:00,METAR RPLL 041000Z 26010KT 9999 FEW025 30/20 Q1008 NOSIG RMK A2977,0,10,0,10000,0,0,0,
2026-04-04 09:00:00,METAR RPLL 040900Z 27012KT 9999 FEW025 31/21 Q1008 NOSIG RMK A2977,0,12,0,10000,0,0,0,
2026-04-04 08:00:00,METAR RPLL 040800Z 28010KT 9999 FEW025 32/21 Q1007 NOSIG RMK A2974,0,10,0,10000,0,0,0,
2026-04-04 07:00:00,METAR RPLL 040700Z 29009KT 250V310 9999 FEW025 33/19 Q1007 NOSIG RMK A2974,0,9,0,10000,0,0,0,
2026-04-04 06:00:00,METAR RPLL 040600Z 30009KT 260V320 9999 FEW025 34/20 Q1008 NOSIG RMK A2977,0,9,0,10000,0,0,0,
2026-04-04 05:00:00,METAR RPLL 040500Z 30009KT 260V350 9999 FEW025 34/21 Q1009 NOSIG RMK A2980,0,9,0,10000,0,0,0,
2026-04-04 04:00:00,METAR RPLL 040400Z 09007KT 030V170 9999 FEW025 34/19 Q1010 NOSIG RMK A2983,0,7,0,10000,0,0,0,
2026-04-04 03:00:00,METAR RPLL 040300Z 18005KT 100V260 9999 FEW025 32/20 Q1011 NOSIG RMK A2985,0,5,0,10000,0,0,0,
2026-04-04 02:00:00,METAR RPLL 040200Z 12005KT 050V190 9999 FEW025 30/21 Q1012 NOSIG RMK A2988,0,5,0,10000,0,0,0,
2026-04-04 01:00:00,METAR RPLL 040100Z 13006KT 090V170 9999 FEW025 29/21 Q1012 NOSIG RMK A2988,0,6,0,10000,0,0,0,
2026-04-04 00:00:00,METAR RPLL 040000Z 10006KT 060V150 9999 FEW025 28/21 Q1012 NOSIG RMK A2988,0,6,0,10000,0,0,0,
2026-04-03 23:00:00,METAR RPLL 032300Z 12004KT 070V170 9999 FEW025 27/22 Q1011 NOSIG RMK A2985,0,4,0,10000,0,0,0,
2026-04-03 22:00:00,METAR RPLL 032200Z 09003KT 070V130 9999 FEW025 26/22 Q1010 NOSIG RMK A2983,0,3,0,10000,0,0,0,
2026-04-03 21:00:00,METAR RPLL 032100Z 11003KT 070V160 9999 FEW025 26/22 Q1010 NOSIG RMK A2983,0,3,0,10000,0,0,0,
2026-04-03 20:00:00,METAR RPLL 032000Z VRB02KT 9999 FEW025 26/22 Q1010 NOSIG RMK A2983,0,2,0,10000,0,0,0,
2026-04-03 19:00:00,METAR RPLL 031900Z 11003KT 070V150 9999 FEW025 26/22 Q1010 NOSIG RMK A2983,0,3,0,10000,0,0,0,
2026-04-03 18:00:00,METAR RPLL 031800Z 13004KT 090V190 9999 FEW025 26/22 Q1010 NOSIG RMK A2983,0,4,0,10000,0,0,0,
2026-04-03 17:00:00,METAR RPLL 031700Z 12005KT 060V160 9999 FEW025 27/22 Q1011 NOSIG RMK A2985,0,5,0,10000,0,0,0,
2026-04-03 16:00:00,METAR RPLL 031600Z 12005KT 080V170 9999 FEW025 27/21 Q1011 NOSIG RMK A2985,0,5,0,10000,0,0,0,
2026-04-03 15:00:00,METAR RPLL 031500Z 12005KT 070V150 9999 FEW025 27/21 Q1011 NOSIG RMK A2985,0,5,0,10000,0,0,0,
2026-04-03 14:00:00,METAR RPLL 031400Z 13005KT 080V170 9999 FEW025 28/21 Q1011 NOSIG RMK A2985,0,5,0,10000,0,0,0,
2026-04-03 13:00:00,METAR RPLL 031300Z 12006KT 070V170 9999 FEW025 28/21 Q1011 NOSIG RMK A2985,0,6,0,10000,0,0,0,
2026-04-03 12:00:00,METAR RPLL 031200Z 12007KT 070V160 9999 FEW025 29/22 Q1010 NOSIG RMK A2983,0,7,0,10000,0,0,0,
2026-04-03 11:00:00,METAR RPLL 031100Z 11008KT 070V180 9999 FEW025 30/21 Q1009 NOSIG RMK A2980,0,8,0,10000,0,0,0,
2026-04-03 10:00:00,METAR RPLL 031000Z 12008KT 080V150 9999 FEW025 31/21 Q1009 NOSIG RMK A2980,0,8,0,10000,0,0,0,
2026-04-03 09:00:00,METAR RPLL 030900Z 13009KT 100V180 9999 FEW025 32/21 Q1008 NOSIG RMK A2977,0,9,0,10000,0,0,0,
2026-04-03 08:00:00,METAR RPLL 030800Z 13008KT 080V190 9999 FEW025 34/19 Q1008 NOSIG RMK A2977,0,8,0,10000,0,0,0,
2026-04-03 07:00:00,METAR RPLL 030700Z 13009KT 090V190 9999 FEW025 33/19 Q1008 NOSIG RMK A2977,0,9,0,10000,0,0,0,
2026-04-03 06:00:00,METAR RPLL 030600Z 13008KT 080V170 9999 FEW025 34/19 Q1009 NOSIG RMK A2980,0,8,0,10000,0,0,0,
2026-04-03 05:00:00,METAR RPLL 030500Z 14009KT 080V210 9999 FEW025 33/18 Q1010 NOSIG RMK A2983,0,9,0,10000,0,0,0,
2026-04-03 04:00:00,METAR RPLL 030400Z 12009KT 080V160 9999 FEW025 33/19 Q1012 NOSIG RMK A2988,0,9,0,10000,0,0,0,
2026-04-03 03:00:00,METAR RPLL 030300Z 11008KT 060V190 9999 FEW025 32/19 Q1013 NOSIG RMK A2991,0,8,0,10000,0,0,0,
2026-04-03 02:00:00,METAR RPLL 030200Z 10007KT 060V150 9999 FEW025 31/20 Q1013 NOSIG RMK A2991,0,7,0,10000,0,0,0,
2026-04-03 01:00:00,METAR RPLL 030100Z 09007KT 050V140 9999 FEW025 30/19 Q1014 NOSIG RMK A2994,0,7,0,10000,0,0,0,
2026-04-03 00:00:00,METAR RPLL 030000Z 10004KT 040V170 9999 FEW025 29/19 Q1013 NOSIG RMK A2991,0,4,0,10000,0,0,0,
2026-04-02 23:00:00,METAR RPLL 022300Z 10003KT 050V140 9999 FEW025 27/20 Q1013 NOSIG RMK A2991,0,3,0,10000,0,0,0,
2026-04-02 22:00:00,METAR RPLL 022200Z 00000KT 9999 FEW025 24/20 Q1012 NOSIG RMK A2988,0,0,0,10000,0,0,0,
2026-04-02 21:00:00,METAR RPLL 022100Z VRB01KT 9999 FEW025 25/20 Q1012 NOSIG RMK A2988,0,1,0,10000,0,0,0,
2026-04-02 20:00:00,METAR RPLL 022000Z VRB02KT 9999 FEW025 25/20 Q1011 NOSIG RMK A2985,0,2,0,10000,0,0,0,
2026-04-02 19:00:00,METAR RPLL 021900Z 09004KT 9999 FEW025 26/20 Q1011 NOSIG RMK A2985,0,4,0,10000,0,0,0,
2026-04-02 18:00:00,METAR RPLL 021800Z 09006KT 060V120 9999 FEW025 26/20 Q1012 NOSIG RMK A2988,0,6,0,10000,0,0,0,
2026-04-02 17:00:00,METAR RPLL 021700Z 10008KT 070V140 9999 FEW025 27/20 Q1012 NOSIG RMK A2988,0,8,0,10000,0,0,0,
2026-04-02 16:00:00,METAR RPLL 021600Z 11007KT 060V150 9999 FEW025 27/20 Q1013 NOSIG RMK A2991,0,7,0,10000,0,0,0,
2026-04-02 15:00:00,METAR RPLL 021500Z 10009KT 070V130 9999 FEW025 27/20 Q1013 NOSIG RMK A2991,0,9,0,10000,0,0,0,
2026-04-02 14:00:00,METAR RPLL 021400Z 12009KT 070V150 9999 FEW025 28/20 Q1013 NOSIG RMK A2991,0,9,0,10000,0,0,0,
2026-04-02 13:00:00,METAR RPLL 021300Z 12008KT 080V160 9999 FEW025 28/20 Q1012 NOSIG RMK A2988,0,8,0,10000,0,0,0,
2026-04-02 12:00:00,METAR RPLL 021200Z 12011KT 090V150 9999 FEW025 28/20 Q1012 NOSIG RMK A2988,0,11,0,10000,0,0,0,
2026-04-02 11:00:00,METAR RPLL 021100Z 11008KT 070V150 9999 FEW025 29/20 Q1011 NOSIG RMK A2985,0,8,0,10000,0,0,0,
2026-04-02 10:00:00,METAR RPLL 021000Z 11011KT 9999 FEW025 31/18 Q1011 NOSIG RMK A2985,0,11,0,10000,0,0,0,
2026-04-02 09:00:00,METAR RPLL 020900Z 12011KT 070V160 9999 FEW025 32/19 Q1010 NOSIG RMK A2983,0,11,0,10000,0,0,0,
2026-04-02 08:00:00,METAR RPLL 020800Z 12012KT 080V170 9999 FEW025 32/20 Q1010 NOSIG RMK A2983,0,12,0,10000,0,0,0,
2026-04-02 07:00:00,METAR RPLL 020700Z 13013G23KT 100V160 9999 FEW025 33/19 Q1010 NOSIG RMK A2983,0,13,1,10000,0,0,0,
2026-04-02 06:00:00,METAR RPLL 020600Z 13013KT 080V170 9999 FEW025 33/19 Q1011 NOSIG RMK A2985,0,13,0,10000,0,0,0,
2026-04-02 05:00:00,METAR RPLL 020500Z 13011G21KT 090V180 9999 FEW025 33/19 Q1012 NOSIG RMK A2988,0,11,1,10000,0,0,0,
2026-04-02 04:00:00,METAR RPLL 020400Z 14010KT 090V200 9999 FEW025 32/20 Q1013 NOSIG RMK A2991,0,10,0,10000,0,0,0,
2026-04-02 03:00:00,METAR RPLL 020300Z 12009KT 070V180 9999 FEW025 31/20 Q1014 NOSIG RMK A2994,0,9,0,10000,0,0,0,
2026-04-02 02:00:00,METAR RPLL 020200Z 12010KT 080V170 9999 FEW025 30/20 Q1014 NOSIG RMK A2994,0,10,0,10000,0,0,0,
2026-04-02 01:00:00,METAR RPLL 020100Z 11007KT 070V180 9999 FEW025 30/20 Q1014 NOSIG RMK A2994,0,7,0,10000,0,0,0,
2026-04-02 00:00:00,METAR RPLL 020000Z 11007KT 070V160 9999 FEW025 28/21 Q1014 NOSIG RMK A2994,0,7,0,10000,0,0,0,
2026-04-01 23:00:00,METAR RPLL 012300Z 10007KT 060V150 9999 FEW025 27/21 Q1013 NOSIG RMK A2991,0,7,0,10000,0,0,0,
2026-04-01 22:00:00,METAR RPLL 012200Z COR 13004KT 090V160 9999 FEW025 25/21 Q1012 NOSIG RMK A2988,0,4,0,10000,0,0,0,
2026-04-01 21:00:00,METAR RPLL 012100Z 10006KT 070V130 9999 FEW025 SCT100 26/21 Q1012 NOSIG RMK A2988,0,6,0,10000,0,0,0,
2026-04-01 20:00:00,METAR RPLL 012000Z 09006KT 9999 FEW025 SCT100 26/21 Q1012 NOSIG RMK A2988,0,6,0,10000,0,0,0,
2026-04-01 19:00:00,METAR RPLL 011900Z 10005KT 070V130 9999 FEW025 26/21 Q1012 NOSIG RMK A2988,0,5,0,10000,0,0,0,
2026-04-01 18:00:00,METAR RPLL 011800Z 11004KT 070V130 9999 FEW025 27/22 Q1012 NOSIG RMK A2988,0,4,0,10000,0,0,0,
2026-04-01 17:00:00,METAR RPLL 011700Z 12005KT 090V160 9999 FEW025 27/21 Q1013 NOSIG RMK A2991,0,5,0,10000,0,0,0,
2026-04-01 16:00:00,METAR RPLL 011600Z 13006KT 070V160 9999 FEW025 27/22 Q1013 NOSIG RMK A2991,0,6,0,10000,0,0,0,
2026-04-01 15:00:00,METAR RPLL 011500Z 12005KT 060V200 9999 FEW025 28/22 Q1013 NOSIG RMK A2991,0,5,0,10000,0,0,0,
2026-04-01 14:00:00,METAR RPLL 011400Z 14005KT 100V180 9999 FEW025 28/22 Q1012 NOSIG RMK A2988,0,5,0,10000,0,0,0,
2026-04-01 13:00:00,METAR RPLL 011300Z 12007KT 090V160 9999 FEW025 29/21 Q1012 NOSIG RMK A2988,0,7,0,10000,0,0,0,
2026-04-01 12:00:00,METAR RPLL 011200Z 13007KT 090V170 9999 FEW025 29/21 Q1011 NOSIG RMK A2985,0,7,0,10000,0,0,0,
2026-04-01 11:00:00,METAR RPLL 011100Z 13006KT 090V190 9999 FEW025 30/22 Q1010 NOSIG RMK A2983,0,6,0,10000,0,0,0,
2026-04-01 10:00:00,METAR RPLL 011000Z 11008KT 080V150 9999 FEW025 31/21 Q1010 NOSIG RMK A2983,0,8,0,10000,0,0,0,
2026-04-01 09:00:00,METAR RPLL 010900Z 11008KT 080V140 9999 FEW025 33/21 Q1010 NOSIG RMK A2983,0,8,0,10000,0,0,0,
2026-04-01 08:00:00,METAR RPLL 010800Z VRB07KT 9999 FEW025 34/20 Q1010 NOSIG RMK A2983,0,7,0,10000,0,0,0,
2026-04-01 07:00:00,METAR RPLL 010700Z 17008KT 100V210 9999 FEW025 34/20 Q1010 NOSIG RMK A2983,0,8,0,10000,0,0,0,
2026-04-01 06:00:00,METAR RPLL 010600Z 14007KT 070V210 9999 FEW025 34/20 Q1011 NOSIG RMK A2985,0,7,0,10000,0,0,0,
2026-04-01 05:00:00,METAR RPLL 010500Z 14008KT 070V210 9999 FEW025 33/20 Q1012 NOSIG RMK A2988,0,8,0,10000,0,0,0,
2026-04-01 04:00:00,METAR RPLL 010400Z 13005KT 070V210 9999 FEW025 33/20 Q1013 NOSIG RMK A2991,0,5,0,10000,0,0,0,
2026-04-01 03:00:00,METAR RPLL 010300Z 15007KT 100V200 9999 FEW025 32/19 Q1014 NOSIG RMK A2994,0,7,0,10000,0,0,0,
2026-04-01 02:00:00,METAR RPLL 010200Z VRB03KT 9999 FEW025 32/20 Q1014 NOSIG RMK A2994,0,3,0,10000,0,0,0,
2026-04-01 01:00:00,METAR RPLL 010100Z 17005KT 120V210 9999 FEW025 29/21 Q1014 NOSIG RMK A2994,0,5,0,10000,0,0,0,
2026-04-01 00:00:00,METAR RPLL 010000Z 12007KT 070V190 9999 FEW025 28/21 Q1013 NOSIG RMK A2991,0,7,0,10000,0,0,0,
2026-03-31 23:00:00,METAR RPLL 312300Z 11005KT 9999 FEW025 27/20 Q1013 NOSIG RMK A2991,0,5,0,9999,0,0,0,
2026-03-31 22:00:00,METAR RPLL 312200Z VRB02KT 9999 FEW025 26/22 Q1012 NOSIG RMK A2988,0,2,0,9999,0,0,0,
2026-03-31 21:00:00,METAR RPLL 312100Z VRB02KT 9999 FEW025 26/21 Q1011 NOSIG RMK A2985,0,2,0,9999,0,0,0,
2026-03-31 20:00:00,METAR RPLL 312000Z VRB02KT 9999 FEW025 26/21 Q1011 NOSIG RMK A2985,0,2,0,9999,0,0,0,
2026-03-31 19:00:00,METAR RPLL 311900Z 12003KT 050V170 9999 FEW025 26/22 Q1011 NOSIG RMK A2985,0,3,0,9999,0,0,0,
2026-03-31 18:00:00,METAR RPLL 311800Z 13004KT 090V180 9999 FEW025 27/22 Q1011 NOSIG RMK A2985,0,4,0,9999,0,0,0,
2026-03-31 17:00:00,METAR RPLL 311700Z 13005KT 090V170 9999 FEW025 27/22 Q1011 NOSIG RMK A2985,0,5,0,9999,0,0,0,
2026-03-31 16:00:00,METAR RPLL 311600Z 13004KT 070V180 9999 FEW025 28/22 Q1012 NOSIG RMK A2988,0,4,0,9999,0,0,0,
2026-03-31 15:00:00,METAR RPLL 311500Z 14005KT 080V180 9999 FEW025 28/22 Q1012 NOSIG RMK A2988,0,5,0,9999,0,0,0,
2026-03-31 14:00:00,METAR RPLL 311400Z 13007KT 090V170 9999 FEW025 28/23 Q1011 NOSIG RMK A2985,0,7,0,9999,0,0,0,
2026-03-31 13:00:00,METAR RPLL 311300Z 13007KT 090V170 9999 FEW025 28/23 Q1011 NOSIG RMK A2985,0,7,0,9999,0,0,0,
2026-03-31 12:00:00,METAR RPLL 311200Z 13008KT 090V170 9999 FEW025 29/22 Q1010 NOSIG RMK A2983,0,8,0,9999,0,0,0,
2026-03-31 11:00:00,METAR RPLL 311100Z 11007KT 070V140 9999 FEW025 30/22 Q1010 NOSIG RMK A2983,0,7,0,9999,0,0,0,
2026-03-31 10:00:00,METAR RPLL 311000Z 11009KT 080V150 9999 FEW025 31/20 Q1009 NOSIG RMK A2980,0,9,0,9999,0,0,0,
2026-03-31 09:00:00,METAR RPLL 310900Z 11010KT 070V150 9999 FEW025 33/19 Q1009 NOSIG RMK A2980,0,10,0,9999,0,0,0,
2026-03-31 08:00:00,METAR RPLL 310800Z 12009KT 080V170 9999 FEW025 34/19 Q1009 NOSIG RMK A2980,0,9,0,9999,0,0,0,
2026-03-31 07:00:00,METAR RPLL 310700Z 13010KT 080V170 9999 FEW025 34/19 Q1009 NOSIG RMK A2980,0,10,0,9999,0,0,0,
2026-03-31 06:00:00,METAR RPLL 310600Z 14010KT 080V200 9999 FEW025 34/20 Q1010 NOSIG RMK A2983,0,10,0,9999,0,0,0,
2026-03-31 05:00:00,METAR RPLL 310500Z 11009KT 060V150 9999 FEW025 33/21 Q1011 NOSIG RMK A2985,0,9,0,9999,0,0,0,
2026-03-31 04:00:00,METAR RPLL 310400Z 13006KT 050V210 9999 SCT025 32/22 Q1013 NOSIG RMK A2991,0,6,0,9999,0,0,0,
2026-03-31 03:00:00,METAR RPLL 310300Z 14006KT 050V220 9999 SCT025 32/22 Q1013 NOSIG RMK A2991,0,6,0,9999,0,0,0,
2026-03-31 02:00:00,METAR RPLL 310200Z 10005KT 030V180 9999 FEW025 31/22 Q1014 NOSIG RMK A2994,0,5,0,9999,0,0,0,
2026-03-31 01:00:00,METAR RPLL 310100Z 09007KT 060V140 9999 FEW025 30/22 Q1013 NOSIG RMK A2991,0,7,0,9999,0,0,0,
2026-03-31 00:00:00,METAR RPLL 310000Z 09007KT 060V140 9999 FEW025 29/23 Q1013 NOSIG RMK A2991,0,7,0,9999,0,0,0,
2026-03-30 23:00:00,METAR RPLL 302300Z 12006KT 080V160 9000 FEW025 27/23 Q1012 NOSIG RMK A2988,0,6,0,9000,0,0,0,
2026-03-30 22:00:00,METAR RPLL 302200Z 12005KT 090V160 9000 FEW025 27/22 Q1011 NOSIG RMK A2985,0,5,0,9000,0,0,0,
2026-03-30 21:00:00,METAR RPLL 302100Z 13006KT 080V190 9999 FEW025 27/22 Q1011 NOSIG RMK A2985,0,6,0,10000,0,0,0,
2026-03-30 20:00:00,METAR RPLL 302000Z 12006KT 090V150 9999 FEW025 27/23 Q1011 NOSIG RMK A2985,0,6,0,10000,0,0,0,
2026-03-30 19:00:00,METAR RPLL 301900Z 13005KT 080V190 9999 FEW025 27/23 Q1011 NOSIG RMK A2985,0,5,0,10000,0,0,0,
2026-03-30 18:00:00,METAR RPLL 301800Z 11006KT 070V160 9999 FEW025 SCT100 28/22 Q1011 NOSIG RMK A2985,0,6,0,10000,0,0,0,
2026-03-30 17:00:00,METAR RPLL 301700Z 12007KT 070V150 9999 FEW025 SCT100 28/22 Q1012 NOSIG RMK A2988,0,7,0,10000,0,0,0,
2026-03-30 16:00:00,METAR RPLL 301600Z 12007KT 080V170 9999 FEW025 28/22 Q1012 NOSIG RMK A2988,0,7,0,10000,0,0,0,
2026-03-30 15:00:00,METAR RPLL 301500Z 11006KT 070V160 9999 FEW025 28/22 Q1013 NOSIG RMK A2991,0,6,0,10000,0,0,0,
2026-03-30 14:00:00,METAR RPLL 301400Z 12007KT 080V150 9999 FEW025 28/22 Q1012 NOSIG RMK A2988,0,7,0,10000,0,0,0,
2026-03-30 13:00:00,METAR RPLL 301300Z 12008KT 090V150 9000 FEW025 28/23 Q1011 NOSIG RMK A2985,0,8,0,9000,0,0,0,
2026-03-30 12:00:00,METAR RPLL 301200Z 14008KT 100V190 9000 FEW025 29/23 Q1011 NOSIG RMK A2985,0,8,0,9000,0,0,0,
2026-03-30 11:00:00,METAR RPLL 301100Z 14006KT 090V170 9000 FEW025 30/23 Q1010 NOSIG RMK A2983,0,6,0,9000,0,0,0,
2026-03-30 10:00:00,METAR RPLL 301000Z 12008KT 080V170 9000 FEW025 30/23 Q1009 NOSIG RMK A2980,0,8,0,9000,0,0,0,
2026-03-30 09:00:00,METAR RPLL 300900Z 12009KT 090V180 9000 FEW025 32/21 Q1009 NOSIG RMK A2980,0,9,0,9000,0,0,0,
2026-03-30 08:00:00,METAR RPLL 300800Z 13009KT 090V170 9999 FEW025 33/21 Q1009 NOSIG RMK A2980,0,9,0,10000,0,0,0,
2026-03-30 07:00:00,METAR RPLL 300700Z 14010KT 100V190 9999 FEW025 34/21 Q1009 NOSIG RMK A2980,0,10,0,10000,0,0,0,
2026-03-30 06:00:00,METAR RPLL 300600Z VRB08KT 9999 FEW025 34/21 Q1010 NOSIG RMK A2983,0,8,0,10000,0,0,0,
2026-03-30 05:00:00,METAR RPLL 300500Z 15008KT 100V200 9999 FEW025 34/21 Q1011 NOSIG RMK A2985,0,8,0,10000,0,0,0,
2026-03-30 04:00:00,METAR RPLL 300400Z 12007KT 070V190 9999 FEW025 33/22 Q1012 NOSIG RMK A2988,0,7,0,10000,0,0,0,
2026-03-30 03:00:00,METAR RPLL 300300Z 11006KT 060V210 9999 FEW025 32/21 Q1013 NOSIG RMK A2991,0,6,0,10000,0,0,0,
2026-03-30 02:00:00,METAR RPLL 300200Z 12004KT 060V220 9999 FEW025 32/21 Q1013 NOSIG RMK A2991,0,4,0,10000,0,0,0,
2026-03-30 01:00:00,METAR RPLL 300100Z VRB04KT 9999 FEW025 30/20 Q1013 NOSIG RMK A2991,0,4,0,10000,0,0,0,
2026-03-30 00:00:00,METAR RPLL 300000Z 13005KT 090V190 9999 FEW025 29/21 Q1013 NOSIG RMK A2991,0,5,0,10000,0,0,0,
2026-03-29 23:00:00,METAR RPLL 292300Z 11005KT 060V150 9999 FEW025 27/22 Q1012 NOSIG RMK A2988,0,5,0,10000,0,0,0,
2026-03-29 22:00:00,METAR RPLL 292200Z 11003KT 070V220 9999 FEW025 SCT100 26/22 Q1012 NOSIG RMK A2988,0,3,0,10000,0,0,0,
2026-03-29 21:00:00,METAR RPLL 292100Z 11005KT 060V160 9999 FEW025 SCT100 27/22 Q1011 NOSIG RMK A2985,0,5,0,10000,0,0,0,
2026-03-29 20:00:00,METAR RPLL 292000Z 13005KT 090V180 9999 FEW025 27/21 Q1011 NOSIG RMK A2985,0,5,0,10000,0,0,0,
2026-03-29 19:00:00,METAR RPLL 291900Z 13003KT 080V190 9999 FEW025 27/21 Q1011 NOSIG RMK A2985,0,3,0,10000,0,0,0,
2026-03-29 18:00:00,METAR RPLL 291800Z 13005KT 090V170 9999 FEW025 BKN100 27/21 Q1011 NOSIG RMK A2985,0,5,0,10000,0,0,0,
2026-03-29 17:00:00,METAR RPLL 291700Z 16004KT 100V210 9999 FEW025 27/23 Q1011 NOSIG RMK A2985,0,4,0,10000,0,0,0,
2026-03-29 16:00:00,METAR RPLL 291600Z 13004KT 090V190 9999 FEW025 BKN100 28/21 Q1012 NOSIG RMK A2988,0,4,0,10000,0,0,0,
2026-03-29 15:00:00,METAR RPLL 291500Z 14005KT 070V210 9999 FEW025 SCT100 28/22 Q1012 NOSIG RMK A2988,0,5,0,10000,0,0,0,
2026-03-29 14:00:00,METAR RPLL 291400Z 12007KT 080V150 9999 FEW025 28/22 Q1012 NOSIG RMK A2988,0,7,0,10000,0,0,0,
2026-03-29 13:00:00,METAR RPLL 291300Z 13006KT 100V180 9999 FEW025 28/22 Q1011 NOSIG RMK A2985,0,6,0,10000,0,0,0,
2026-03-29 12:00:00,METAR RPLL 291200Z 13007KT 080V190 9999 FEW025 SCT100 29/22 Q1011 NOSIG RMK A2985,0,7,0,10000,0,0,0,
2026-03-29 11:00:00,METAR RPLL 291100Z 14008KT 080V200 9999 FEW025 SCT100 29/22 Q1010 NOSIG RMK A2983,0,8,0,10000,0,0,0,
2026-03-29 10:00:00,METAR RPLL 291000Z 14008KT 060V190 9999 FEW025 30/22 Q1009 NOSIG RMK A2980,0,8,0,10000,0,0,0,
2026-03-29 09:00:00,METAR RPLL 290900Z 13009KT 090V180 9999 FEW025 SCT100 31/22 Q1008 NOSIG RMK A2977,0,9,0,10000,0,0,0,
2026-03-29 08:00:00,METAR RPLL 290800Z 13009KT 090V190 9999 FEW025 SCT100 32/22 Q1008 NOSIG RMK A2977,0,9,0,10000,0,0,0,
2026-03-29 07:00:00,METAR RPLL 290700Z 14008KT 040V190 9999 FEW025 SCT100 33/22 Q1009 NOSIG RMK A2980,0,8,0,10000,0,0,0,
2026-03-29 06:00:00,METAR RPLL 290600Z 13009KT 080V200 9999 FEW025 33/22 Q1009 NOSIG RMK A2980,0,9,0,10000,0,0,0,
2026-03-29 05:00:00,METAR RPLL 290500Z 14009KT 080V230 9999 FEW025 32/22 Q1010 NOSIG RMK A2983,0,9,0,10000,0,0,0,
2026-03-29 04:00:00,METAR RPLL 290400Z 13008KT 060V200 9999 FEW025 32/22 Q1011 NOSIG RMK A2985,0,8,0,10000,0,0,0,
2026-03-29 03:00:00,METAR RPLL 290300Z 14007KT 080V190 9999 FEW025 32/21 Q1012 NOSIG RMK A2988,0,7,0,10000,0,0,0,
2026-03-29 02:00:00,METAR RPLL 290200Z 13007KT 080V190 9999 FEW025 31/22 Q1012 NOSIG RMK A2988,0,7,0,10000,0,0,0,
2026-03-29 01:00:00,METAR RPLL 290100Z 12006KT 080V180 9999 FEW025 BKN100 29/22 Q1012 NOSIG RMK A2988,0,6,0,10000,0,0,0,
2026-03-29 00:00:00,METAR RPLL 290000Z 11008KT 070V150 9999 FEW025 28/22 Q1012 NOSIG RMK A2988,0,8,0,10000,0,0,0,
2026-03-28 23:00:00,METAR RPLL 282300Z 11005KT 070V150 9999 FEW025 SCT100 27/22 Q1011 NOSIG RMK A2985,0,5,0,10000,0,0,0,
2026-03-28 22:00:00,METAR RPLL 282200Z 11005KT 080V150 9999 FEW025 27/22 Q1010 NOSIG RMK A2983,0,5,0,10000,0,0,0,
2026-03-28 21:00:00,METAR RPLL 282100Z 13006KT 080V170 9999 FEW025 27/22 Q1009 NOSIG RMK A2980,0,6,0,10000,0,0,0,
2026-03-28 20:00:00,METAR RPLL 282000Z 13006KT 100V170 9999 FEW025 27/22 Q1009 NOSIG RMK A2980,0,6,0,10000,0,0,0,
2026-03-28 19:00:00,METAR RPLL 281900Z 13005KT 100V160 9999 FEW025 27/23 Q1009 NOSIG RMK A2980,0,5,0,10000,0,0,0,
2026-03-28 18:00:00,METAR RPLL 281800Z 13005KT 080V180 9999 FEW025 27/23 Q1010 NOSIG RMK A2983,0,5,0,10000,0,0,0,
2026-03-28 17:00:00,METAR RPLL 281700Z VRB04KT 9999 FEW025 27/24 Q1010 NOSIG RMK A2983,0,4,0,10000,0,0,0,
2026-03-28 16:00:00,METAR RPLL 281600Z 16003KT 130V210 9999 FEW025 27/24 Q1011 NOSIG RMK A2985,0,3,0,10000,0,0,0,
2026-03-28 15:00:00,METAR RPLL 281500Z 17004KT 120V210 9999 FEW025 28/24 Q1011 NOSIG RMK A2985,0,4,0,10000,0,0,0,
2026-03-28 14:00:00,METAR RPLL 281400Z 15005KT 070V200 9999 FEW025 28/22 Q1011 NOSIG RMK A2985,0,5,0,10000,0,0,0,
2026-03-28 13:00:00,METAR RPLL 281300Z 14004KT 090V190 9999 FEW025 29/22 Q1010 NOSIG RMK A2983,0,4,0,10000,0,0,0,
2026-03-28 12:00:00,METAR RPLL 281200Z 14004KT 090V190 9999 FEW025 29/22 Q1010 NOSIG RMK A2983,0,4,0,10000,0,0,0,
2026-03-28 11:00:00,METAR RPLL 281100Z 15003KT 090V210 9999 FEW025 30/22 Q1009 NOSIG RMK A2980,0,3,0,10000,0,0,0,
2026-03-28 10:00:00,METAR RPLL 281000Z 12006KT 070V200 9000 FEW025 31/22 Q1008 NOSIG RMK A2977,0,6,0,9000,0,0,0,
2026-03-28 09:00:00,METAR RPLL 280900Z 13008KT 090V190 9999 FEW025 33/22 Q1008 NOSIG RMK A2977,0,8,0,10000,0,0,0,
2026-03-28 08:00:00,METAR RPLL 280800Z 12007KT 080V160 9999 FEW025 34/20 Q1008 NOSIG RMK A2977,0,7,0,10000,0,0,0,
2026-03-28 07:00:00,METAR RPLL 280700Z 15006KT 070V190 9999 FEW025 34/21 Q1008 NOSIG RMK A2977,0,6,0,10000,0,0,0,
2026-03-28 06:00:00,METAR RPLL 280600Z VRB05KT 9999 FEW025 35/22 Q1009 NOSIG RMK A2980,0,5,0,10000,0,0,0,
2026-03-28 05:00:00,METAR RPLL 280500Z 14006KT 090V190 9999 FEW025 33/22 Q1010 NOSIG RMK A2983,0,6,0,10000,0,0,0,
2026-03-28 04:00:00,METAR RPLL 280400Z 10007KT 060V140 9999 FEW025 32/22 Q1011 NOSIG RMK A2985,0,7,0,10000,0,0,0,
2026-03-28 03:00:00,METAR RPLL 280300Z 15006KT 100V190 9999 FEW025 31/22 Q1012 NOSIG RMK A2988,0,6,0,10000,0,0,0,
2026-03-28 02:00:00,METAR RPLL 280200Z 13007KT 080V180 9999 FEW025 30/22 Q1013 NOSIG RMK A2991,0,7,0,10000,0,0,0,
2026-03-28 01:00:00,METAR RPLL 280100Z 12007KT 080V150 9999 FEW025 29/22 Q1013 NOSIG RMK A2991,0,7,0,10000,0,0,0,
2026-03-28 00:00:00,METAR RPLL 280000Z 12008KT 080V170 9999 FEW025 28/22 Q1013 NOSIG RMK A2991,0,8,0,10000,0,0,0,
2026-03-27 23:00:00,METAR RPLL 272300Z 11007KT 070V150 9999 FEW025 26/22 Q1012 NOSIG RMK A2988,0,7,0,10000,0,0,0,
2026-03-27 22:00:00,METAR RPLL 272200Z 12005KT 060V170 9999 FEW025 26/23 Q1011 NOSIG RMK A2985,0,5,0,10000,0,0,0,
2026-03-27 21:00:00,METAR RPLL 272100Z 13004KT 090V190 9999 FEW025 26/23 Q1011 NOSIG RMK A2985,0,4,0,10000,0,0,0,
2026-03-27 20:00:00,METAR RPLL 272000Z 13005KT 090V170 9999 FEW025 SCT100 26/23 Q1010 NOSIG RMK A2983,0,5,0,10000,0,0,0,
2026-03-27 19:00:00,METAR RPLL 271900Z 13003KT 090V180 9999 FEW025 26/22 Q1010 NOSIG RMK A2983,0,3,0,10000,0,0,0,
2026-03-27 18:00:00,METAR RPLL 271800Z 14005KT 080V180 9999 FEW025 SCT100 27/22 Q1010 NOSIG RMK A2983,0,5,0,10000,0,0,0,
2026-03-27 17:00:00,METAR RPLL 271700Z 14005KT 070V180 9999 FEW025 SCT100 27/22 Q1011 NOSIG RMK A2985,0,5,0,10000,0,0,0,
2026-03-27 16:00:00,METAR RPLL 271600Z 13006KT 100V170 9999 FEW025 SCT100 27/22 Q1011 NOSIG RMK A2985,0,6,0,10000,0,0,0,
2026-03-25 15:00:00,METAR RPLL 251500Z 13006KT 090V160 9999 FEW025 BKN100 28/22 Q1012 NOSIG RMK A2988,0,6,0,10000,0,0,0,
2026-03-25 14:00:00,METAR RPLL 251400Z 13005KT 090V180 9999 FEW025 BKN100 28/22 Q1011 NOSIG RMK A2985,0,5,0,10000,0,0,0,
2026-03-25 13:00:00,METAR RPLL 251300Z COR 12007KT 090V180 9999 FEW025 29/22 Q1011 NOSIG RMK A2985,0,7,0,10000,0,0,0,
2026-03-25 12:00:00,METAR RPLL 251200Z 14009KT 090V180 9999 FEW025 29/23 Q1010 NOSIG RMK A2983,0,9,0,10000,0,0,0,
2026-03-25 11:00:00,METAR RPLL 251100Z 16007KT 120V200 9999 FEW025 29/23 Q1010 NOSIG RMK A2983,0,7,0,10000,0,0,0,
2026-03-25 10:00:00,METAR RPLL 251000Z 16006KT 100V240 9999 FEW025 30/22 Q1009 NOSIG RMK A2980,0,6,0,10000,0,0,0,
2026-03-25 09:00:00,METAR RPLL 250900Z 16007KT 090V220 9999 FEW025 32/22 Q1009 NOSIG RMK A2980,0,7,0,10000,0,0,0,
2026-03-25 08:00:00,METAR RPLL 250800Z 16006KT 080V220 9999 SCT025 33/23 Q1009 NOSIG RMK A2980,0,6,0,10000,0,0,0,
2026-03-25 07:00:00,METAR RPLL 250700Z VRB05KT 9999 SCT025 34/23 Q1009 NOSIG RMK A2980,0,5,0,10000,0,0,0,
2026-03-25 06:00:00,METAR RPLL 250600Z VRB03KT 9999 SCT025 33/22 Q1009 NOSIG RMK A2980,0,3,0,10000,0,0,0,
2026-03-25 05:00:00,METAR RPLL 250500Z 29008KT 220V330 9999 SCT025 33/21 Q1010 NOSIG RMK A2983,0,8,0,10000,0,0,0,
2026-03-25 04:00:00,METAR RPLL 250400Z 30006KT 9999 FEW025 31/20 Q1011 NOSIG RMK A2985,0,6,0,10000,0,0,0,
2026-03-25 03:00:00,METAR RPLL 250300Z 27009KT 9999 FEW025 30/20 Q1012 NOSIG RMK A2988,0,9,0,10000,0,0,0,
2026-03-25 02:00:00,METAR RPLL 250200Z 31007KT 260V340 9999 FEW025 30/21 Q1012 NOSIG RMK A2988,0,7,0,10000,0,0,0,
2026-03-25 01:00:00,METAR RPLL 250100Z 29006KT 230V330 9999 FEW025 28/21 Q1012 NOSIG RMK A2988,0,6,0,10000,0,0,0,
2026-03-25 00:00:00,METAR RPLL 250000Z VRB02KT 9999 FEW025 28/20 Q1012 NOSIG RMK A2988,0,2,0,10000,0,0,0,
2026-03-24 23:00:00,METAR RPLL 242300Z 21003KT 170V250 9999 FEW025 26/20 Q1012 NOSIG RMK A2988,0,3,0,10000,0,0,0,
2026-03-24 22:00:00,METAR RPLL 242200Z 00000KT 9999 FEW025 25/19 Q1011 NOSIG RMK A2985,0,0,0,10000,0,0,0,
2026-03-24 21:00:00,METAR RPLL 242100Z 06003KT 9999 FEW025 24/19 Q1010 NOSIG RMK A2983,0,3,0,10000,0,0,0,
2026-03-24 20:00:00,METAR RPLL 242000Z VRB02KT 9999 FEW025 25/20 Q1010 NOSIG RMK A2983,0,2,0,10000,0,0,0,
2026-03-24 19:00:00,METAR RPLL 241900Z 11004KT 060V150 9999 FEW025 26/19 Q1010 NOSIG RMK A2983,0,4,0,10000,0,0,0,
2026-03-24 18:00:00,METAR RPLL 241800Z 12005KT 080V160 9999 FEW025 26/19 Q1010 NOSIG RMK A2983,0,5,0,10000,0,0,0,
2026-03-24 17:00:00,METAR RPLL 241700Z 14004KT 070V200 9999 FEW025 26/19 Q1011 NOSIG RMK A2985,0,4,0,10000,0,0,0,
2026-03-24 16:00:00,METAR RPLL 241600Z 13005KT 100V170 9999 FEW025 26/18 Q1011 NOSIG RMK A2985,0,5,0,10000,0,0,0,
2026-03-24 15:00:00,METAR RPLL 241500Z 14005KT 110V180 9999 FEW025 27/18 Q1011 NOSIG RMK A2985,0,5,0,10000,0,0,0,
2026-03-24 14:00:00,METAR RPLL 241400Z 13005KT 100V160 9999 FEW025 27/18 Q1011 NOSIG RMK A2985,0,5,0,10000,0,0,0,
2026-03-24 13:00:00,METAR RPLL 241300Z 13005KT 090V170 9999 FEW025 27/19 Q1011 NOSIG RMK A2985,0,5,0,10000,0,0,0,
2026-03-24 12:00:00,METAR RPLL 241200Z 13006KT 100V170 9999 FEW025 28/20 Q1010 NOSIG RMK A2983,0,6,0,10000,0,0,0,
2026-03-24 11:00:00,METAR RPLL 241100Z 14004KT 080V190 9999 FEW025 29/20 Q1010 NOSIG RMK A2983,0,4,0,10000,0,0,0,
2026-03-24 10:00:00,METAR RPLL 241000Z 13008KT 100V170 9999 FEW025 30/19 Q1009 NOSIG RMK A2980,0,8,0,10000,0,0,0,
2026-03-24 09:00:00,METAR RPLL 240900Z 13008KT 080V180 9999 FEW025 31/18 Q1008 NOSIG RMK A2977,0,8,0,10000,0,0,0,
2026-03-24 08:00:00,METAR RPLL 240800Z 14010KT 080V190 9999 FEW025 32/18 Q1008 NOSIG RMK A2977,0,10,0,10000,0,0,0,
2026-03-24 07:00:00,METAR RPLL 240700Z 15009KT 100V220 9999 FEW025 32/19 Q1008 NOSIG RMK A2977,0,9,0,10000,0,0,0,
2026-03-24 06:00:00,METAR RPLL 240600Z 17008KT 110V210 9999 FEW025 32/18 Q1009 NOSIG RMK A2980,0,8,0,10000,0,0,0,
2026-03-24 05:00:00,METAR RPLL 240500Z 15007KT 080V210 9999 FEW025 31/19 Q1010 NOSIG RMK A2983,0,7,0,10000,0,0,0,
2026-03-24 04:00:00,METAR RPLL 240400Z 16008KT 100V210 9999 FEW025 31/19 Q1011 NOSIG RMK A2985,0,8,0,10000,0,0,0,
2026-03-24 03:00:00,METAR RPLL 240300Z 14006KT 070V210 9999 FEW025 31/19 Q1012 NOSIG RMK A2988,0,6,0,10000,0,0,0,
2026-03-24 02:00:00,METAR RPLL 240200Z 12008KT 070V160 9999 FEW025 29/20 Q1013 NOSIG RMK A2991,0,8,0,10000,0,0,0,
2026-03-24 01:00:00,METAR RPLL 240100Z 10009KT 060V140 9999 FEW025 28/20 Q1013 NOSIG RMK A2991,0,9,0,10000,0,0,0,
2026-03-24 00:00:00,METAR RPLL 240000Z 13007KT 080V180 9999 FEW025 27/20 Q1013 NOSIG RMK A2991,0,7,0,10000,0,0,0,
2026-03-23 23:00:00,METAR RPLL 232300Z 11005KT 070V140 9999 FEW025 BKN100 26/20 Q1012 NOSIG RMK A2988,0,5,0,10000,0,0,0,
2026-03-23 22:00:00,METAR RPLL 232200Z 12003KT 9999 FEW025 24/19 Q1011 NOSIG RMK A2985,0,3,0,10000,0,0,0,
2026-03-23 21:00:00,METAR RPLL 232100Z VRB02KT 9999 FEW025 24/19 Q1011 NOSIG RMK A2985,0,2,0,10000,0,0,0,
2026-03-23 20:00:00,METAR RPLL 232000Z 14003KT 100V190 9999 FEW025 24/19 Q1011 NOSIG RMK A2985,0,3,0,10000,0,0,0,
2026-03-23 19:00:00,METAR RPLL 231900Z VRB02KT 9999 FEW025 25/18 Q1011 NOSIG RMK A2985,0,2,0,10000,0,0,0,
2026-03-23 18:00:00,METAR RPLL 231800Z 10003KT 070V130 9999 FEW025 25/18 Q1011 NOSIG RMK A2985,0,3,0,10000,0,0,0,
2026-03-23 17:00:00,METAR RPLL 231700Z 15004KT 110V180 9999 FEW025 25/19 Q1012 NOSIG RMK A2988,0,4,0,10000,0,0,0,
2026-03-23 16:00:00,METAR RPLL 231600Z 11004KT 080V140 9999 FEW025 25/19 Q1012 NOSIG RMK A2988,0,4,0,10000,0,0,0,
2026-03-23 15:00:00,METAR RPLL 231500Z 11005KT 070V150 9999 FEW025 26/19 Q1012 NOSIG RMK A2988,0,5,0,10000,0,0,0,
2026-03-23 14:00:00,METAR RPLL 231400Z 13006KT 090V170 9999 FEW025 27/20 Q1012 NOSIG RMK A2988,0,6,0,10000,0,0,0,
2026-03-23 13:00:00,METAR RPLL 231300Z 13007KT 090V170 9999 FEW025 27/19 Q1012 NOSIG RMK A2988,0,7,0,10000,0,0,0,
2026-03-23 12:00:00,METAR RPLL 231200Z 13006KT 090V160 9999 FEW025 28/19 Q1011 NOSIG RMK A2985,0,6,0,10000,0,0,0,
2026-03-23 11:00:00,METAR RPLL 231100Z 12006KT 070V170 9999 FEW025 29/19 Q1010 NOSIG RMK A2983,0,6,0,10000,0,0,0,
2026-03-23 10:00:00,METAR RPLL 231000Z 12008KT 080V170 9999 FEW025 30/19 Q1010 NOSIG RMK A2983,0,8,0,10000,0,0,0,
2026-03-23 09:00:00,METAR RPLL 230900Z 13009KT 090V170 9999 FEW025 30/20 Q1009 NOSIG RMK A2980,0,9,0,10000,0,0,0,
2026-03-23 08:00:00,METAR RPLL 230800Z 15009KT 110V190 9999 FEW025 31/20 Q1009 NOSIG RMK A2980,0,9,0,10000,0,0,0,
2026-03-23 07:00:00,METAR RPLL 230700Z 14011KT 090V180 9999 FEW025 32/19 Q1009 NOSIG RMK A2980,0,11,0,10000,0,0,0,
2026-03-23 06:00:00,METAR RPLL 230600Z 14009KT 090V180 9999 FEW025 33/19 Q1010 NOSIG RMK A2983,0,9,0,10000,0,0,0,
2026-03-23 05:00:00,METAR RPLL 230500Z 14010KT 090V190 9999 FEW025 32/19 Q1011 NOSIG RMK A2985,0,10,0,10000,0,0,0,
2026-03-23 04:00:00,METAR RPLL 230400Z 13009KT 080V190 9999 FEW025 31/19 Q1012 NOSIG RMK A2988,0,9,0,10000,0,0,0,
2026-03-23 03:00:00,METAR RPLL 230300Z 10005KT 060V210 9999 FEW025 30/19 Q1013 NOSIG RMK A2991,0,5,0,10000,0,0,0,
2026-03-23 02:00:00,METAR RPLL 230200Z VRB04KT 9999 FEW025 29/19 Q1014 NOSIG RMK A2994,0,4,0,10000,0,0,0,
2026-03-23 01:00:00,METAR RPLL 230100Z 07006KT 030V120 9999 FEW025 29/18 Q1014 NOSIG RMK A2994,0,6,0,10000,0,0,0,
2026-03-23 00:00:00,METAR RPLL 230000Z 11003KT 9999 FEW025 27/18 Q1014 NOSIG RMK A2994,0,3,0,10000,0,0,0,
2026-03-22 23:00:00,METAR RPLL 222300Z 09002KT 9000 FEW025 25/20 Q1014 NOSIG RMK A2994,0,2,0,9000,0,0,0,
2026-03-22 22:00:00,METAR RPLL 222200Z 07003KT 9000 FEW025 23/20 Q1013 NOSIG RMK A2991,0,3,0,9000,0,0,0,
2026-03-22 21:00:00,METAR RPLL 222100Z VRB02KT 9999 FEW025 24/19 Q1012 NOSIG RMK A2988,0,2,0,10000,0,0,0,
2026-03-22 20:00:00,METAR RPLL 222000Z 09003KT 040V120 9999 FEW025 24/19 Q1012 NOSIG RMK A2988,0,3,0,10000,0,0,0,
2026-03-22 19:00:00,METAR RPLL 221900Z 12003KT 090V170 9999 FEW025 SCT100 25/19 Q1012 NOSIG RMK A2988,0,3,0,10000,0,0,0,
2026-03-22 18:00:00,METAR RPLL 221800Z 11004KT 080V140 9999 FEW025 BKN100 25/20 Q1012 NOSIG RMK A2988,0,4,0,10000,0,0,0,
2026-03-22 17:00:00,METAR RPLL 221700Z 12004KT 090V150 9999 FEW025 SCT100 25/20 Q1013 NOSIG RMK A2991,0,4,0,10000,0,0,0,
2026-03-22 16:00:00,METAR RPLL 221600Z 10005KT 070V140 9999 FEW025 25/20 Q1013 NOSIG RMK A2991,0,5,0,10000,0,0,0,
2026-03-22 15:00:00,METAR RPLL 221500Z 11005KT 070V150 9999 FEW025 26/19 Q1013 NOSIG RMK A2991,0,5,0,10000,0,0,0,
2026-03-22 14:00:00,METAR RPLL 221400Z 12006KT 080V150 9999 FEW025 26/19 Q1013 NOSIG RMK A2991,0,6,0,10000,0,0,0,
2026-03-22 12:00:00,METAR RPLL 221200Z 11006KT 070V170 9999 FEW025 27/19 Q1012 NOSIG RMK A2988,0,6,0,10000,0,0,0,
2026-03-22 09:00:00,METAR RPLL 220900Z 11010G20KT 080V160 9999 FEW025 30/20 Q1011 NOSIG RMK A2985,0,10,1,10000,0,0,0,
2026-03-22 08:00:00,METAR RPLL 220800Z 12009KT 090V170 9999 FEW025 SCT100 31/20 Q1011 NOSIG RMK A2985,0,9,0,10000,0,0,0,
2026-03-22 07:00:00,METAR RPLL 220700Z 13010KT 080V170 9999 FEW025 SCT100 31/21 Q1011 NOSIG RMK A2985,0,10,0,10000,0,0,0,
2026-03-22 06:00:00,METAR RPLL 220600Z 13010KT 090V170 9999 FEW025 SCT100 31/21 Q1012 NOSIG RMK A2988,0,10,0,10000,0,0,0,
2026-03-22 05:00:00,METAR RPLL 220500Z 12011KT 080V180 9999 FEW025 SCT100 31/20 Q1012 NOSIG RMK A2988,0,11,0,10000,0,0,0,
2026-03-22 04:00:00,METAR RPLL 220400Z 10009KT 070V150 9999 FEW025 SCT100 30/21 Q1013 NOSIG RMK A2991,0,9,0,10000,0,0,0,
2026-03-22 03:00:00,METAR RPLL 220300Z 11007KT 080V160 9999 VCSH FEW025 BKN100 29/20 Q1014 NOSIG RMK A2994 VCSH N,0,7,0,10000,0,0,0,"SH,VC"
2026-03-22 02:00:00,METAR RPLL 220200Z 12007KT 070V170 9999 FEW025 BKN100 28/21 Q1014 NOSIG RMK A2994,0,7,0,10000,0,0,0,
2026-03-22 01:00:00,METAR RPLL 220100Z 10007KT 060V140 9999 FEW025 BKN100 27/22 Q1014 NOSIG RMK A2994,0,7,0,10000,0,0,0,
2026-03-22 00:00:00,METAR RPLL 220000Z 11008KT 070V140 9999 FEW025 BKN100 26/21 Q1014 NOSIG RMK A2994,0,8,0,10000,0,0,0,
2026-03-21 23:00:00,METAR RPLL 212300Z 11006KT 070V140 9999 FEW025 BKN100 26/21 Q1013 NOSIG RMK A2991,0,6,0,10000,0,0,0,
2026-03-21 22:00:00,METAR RPLL 212200Z 08006KT 9999 FEW025 BKN100 25/22 Q1013 NOSIG RMK A2991,0,6,0,10000,0,0,0,
2026-03-21 21:00:00,METAR RPLL 212100Z 08003KT 9999 FEW025 BKN100 25/21 Q1012 NOSIG RMK A2988,0,3,0,10000,0,0,0,
2026-03-21 20:00:00,METAR RPLL 212000Z 09003KT 060V140 9999 FEW025 25/21 Q1012 NOSIG RMK A2988,0,3,0,10000,0,0,0,
2026-03-21 19:00:00,METAR RPLL 211900Z 08002KT 9999 FEW025 25/20 Q1012 NOSIG RMK A2988,0,2,0,10000,0,0,0,
2026-03-21 18:00:00,METAR RPLL 211800Z VRB02KT 9999 FEW025 25/20 Q1012 NOSIG RMK A2988,0,2,0,10000,0,0,0,
2026-03-21 17:00:00,METAR RPLL 211700Z 12003KT 070V160 9999 FEW025 26/20 Q1013 NOSIG RMK A2991,0,3,0,10000,0,0,0,
2026-03-21 16:00:00,METAR RPLL 211600Z 12005KT 090V150 9999 FEW025 26/21 Q1013 NOSIG RMK A2991,0,5,0,10000,0,0,0,
2026-03-21 15:00:00,METAR RPLL 211500Z 12006KT 080V180 9999 FEW025 26/20 Q1014 NOSIG RMK A2994,0,6,0,10000,0,0,0,
2026-03-21 14:00:00,METAR RPLL 211400Z 12006KT 080V180 9999 FEW025 26/20 Q1014 NOSIG RMK A2994,0,6,0,10000,0,0,0,
2026-03-21 13:00:00,METAR RPLL 211300Z 12006KT 090V150 9999 FEW025 27/20 Q1013 NOSIG RMK A2991,0,6,0,10000,0,0,0,
2026-03-21 12:00:00,METAR RPLL 211200Z 12008KT 080V140 9999 FEW025 27/20 Q1012 NOSIG RMK A2988,0,8,0,10000,0,0,0,
2026-03-21 11:00:00,METAR RPLL 211100Z 12008KT 090V160 9999 FEW025 28/19 Q1012 NOSIG RMK A2988,0,8,0,10000,0,0,0,
2026-03-21 10:00:00,METAR RPLL 211000Z 13009KT 080V170 9999 FEW025 29/19 Q1011 NOSIG RMK A2985,0,9,0,10000,0,0,0,
2026-03-21 09:00:00,METAR RPLL 210900Z 13009KT 100V170 9999 FEW025 30/19 Q1011 NOSIG RMK A2985,0,9,0,10000,0,0,0,
2026-03-21 08:00:00,METAR RPLL 210800Z 12010G21KT 050V180 9999 FEW025 32/18 Q1011 NOSIG RMK A2985,0,10,1,10000,0,0,0,
2026-03-21 07:00:00,METAR RPLL 210700Z 15009KT 070V200 9999 FEW025 32/18 Q1011 NOSIG RMK A2985,0,9,0,10000,0,0,0,
2026-03-21 06:00:00,METAR RPLL 210600Z 14008KT 090V210 9999 FEW025 32/18 Q1012 NOSIG RMK A2988,0,8,0,10000,0,0,0,
2026-03-21 05:00:00,METAR RPLL 210500Z 13008KT 070V190 9999 FEW025 32/18 Q1013 NOSIG RMK A2991,0,8,0,10000,0,0,0,
2026-03-21 04:00:00,METAR RPLL 210400Z 16006KT 090V220 9999 FEW025 32/19 Q1014 NOSIG RMK A2994,0,6,0,10000,0,0,0,
2026-03-21 03:00:00,METAR RPLL 210300Z 14007KT 080V210 9999 FEW025 30/19 Q1015 NOSIG RMK A2997,0,7,0,10000,0,0,0,
2026-03-21 02:00:00,METAR RPLL 210200Z 13008KT 060V190 9999 FEW025 29/19 Q1015 NOSIG RMK A2997,0,8,0,10000,0,0,0,
2026-03-21 01:00:00,METAR RPLL 210100Z 11007KT 060V150 9999 FEW025 28/19 Q1015 NOSIG RMK A2997,0,7,0,10000,0,0,0,
2026-03-21 00:00:00,METAR RPLL 210000Z 13006KT 080V210 9999 FEW025 27/20 Q1015 NOSIG RMK A2997,0,6,0,10000,0,0,0,
2026-03-20 23:00:00,METAR RPLL 202300Z 11003KT 080V150 9999 FEW025 26/20 Q1014 NOSIG RMK A2994,0,3,0,10000,0,0,0,
2026-03-20 22:00:00,METAR RPLL 202200Z VRB02KT 9999 FEW025 25/20 Q1014 NOSIG RMK A2994,0,2,0,10000,0,0,0,
2026-03-20 21:00:00,METAR RPLL 202100Z 12003KT 090V150 9999 FEW025 25/20 Q1013 NOSIG RMK A2991,0,3,0,10000,0,0,0,
2026-03-20 20:00:00,METAR RPLL 202000Z 11003KT 080V160 9999 FEW025 25/20 Q1013 NOSIG RMK A2991,0,3,0,10000,0,0,0,
2026-03-20 19:00:00,METAR RPLL 201900Z 12004KT 090V150 9999 FEW025 SCT100 25/20 Q1012 NOSIG RMK A2988,0,4,0,10000,0,0,0,
2026-03-20 18:00:00,METAR RPLL 201800Z 12005KT 080V180 9999 FEW025 25/20 Q1013 NOSIG RMK A2991,0,5,0,10000,0,0,0,
2026-03-20 17:00:00,METAR RPLL 201700Z 12005KT 070V170 9999 FEW025 BKN100 26/20 Q1013 NOSIG RMK A2991,0,5,0,10000,0,0,0,
2026-03-20 15:00:00,METAR RPLL 201500Z 11006KT 080V140 9999 FEW025 BKN100 26/20 Q1014 NOSIG RMK A2994,0,6,0,10000,0,0,0,
2026-03-20 14:00:00,METAR RPLL 201400Z 12006KT 080V160 9999 FEW025 26/20 Q1014 NOSIG RMK A2994,0,6,0,10000,0,0,0,
2026-03-20 12:00:00,METAR RPLL 201200Z 12010KT 080V180 9999 FEW025 27/20 Q1013 NOSIG RMK A2991,0,10,0,10000,0,0,0,
2026-03-20 11:00:00,METAR RPLL 201100Z 13007KT 100V190 9999 FEW025 27/21 Q1012 NOSIG RMK A2988,0,7,0,10000,0,0,0,
2026-03-20 10:00:00,METAR RPLL 201000Z 13007KT 090V190 9999 FEW025 29/21 Q1011 NOSIG RMK A2985,0,7,0,10000,0,0,0,
2026-03-20 09:00:00,METAR RPLL 200900Z 12010KT 090V170 9999 FEW025 SCT100 29/21 Q1011 NOSIG RMK A2985,0,10,0,10000,0,0,0,
2026-03-20 08:00:00,METAR RPLL 200800Z 13011KT 090V180 9999 FEW025 SCT100 30/21 Q1011 NOSIG RMK A2985,0,11,0,10000,0,0,0,
2026-03-20 07:00:00,METAR RPLL 200700Z 14009G19KT 090V200 9999 FEW025 SCT100 32/22 Q1011 NOSIG RMK A2985,0,9,1,10000,0,0,0,
2026-03-20 06:00:00,METAR RPLL 200600Z 13010KT 080V170 9999 SCT025 BKN100 31/20 Q1011 NOSIG RMK A2985,0,10,0,10000,0,0,0,
2026-03-20 05:00:00,METAR RPLL 200500Z 14010KT 060V200 9999 FEW025 32/20 Q1012 NOSIG RMK A2988,0,10,0,10000,0,0,0,
2026-03-20 04:00:00,METAR RPLL 200400Z 11007KT 070V180 9999 FEW025 32/20 Q1013 NOSIG RMK A2991,0,7,0,10000,0,0,0,
2026-03-20 03:00:00,METAR RPLL 200300Z 10006KT 040V150 9999 FEW025 SCT100 31/21 Q1014 NOSIG RMK A2994,0,6,0,10000,0,0,0,
2026-03-20 02:00:00,METAR RPLL 200200Z 12006KT 070V190 9999 FEW025 BKN100 29/20 Q1015 NOSIG RMK A2997,0,6,0,10000,0,0,0,
2026-03-20 01:00:00,METAR RPLL 200100Z 10007KT 050V140 9999 FEW025 28/19 Q1015 NOSIG RMK A2997,0,7,0,10000,0,0,0,
2026-03-20 00:00:00,METAR RPLL 200000Z 08006KT 050V120 9999 FEW025 27/20 Q1014 NOSIG RMK A2994,0,6,0,10000,0,0,0,
2026-03-19 23:00:00,METAR RPLL 192300Z 10005KT 070V140 9999 FEW025 25/21 Q1013 NOSIG RMK A2991,0,5,0,10000,0,0,0,
2026-03-19 22:00:00,METAR RPLL 192200Z 09004KT 9999 FEW025 24/21 Q1012 NOSIG RMK A2988,0,4,0,10000,0,0,0,
2026-03-19 21:00:00,METAR RPLL 192100Z 09003KT 050V140 9999 FEW025 25/20 Q1012 NOSIG RMK A2988,0,3,0,10000,0,0,0,
2026-03-19 20:00:00,METAR RPLL 192000Z 11004KT 080V140 9999 FEW025 25/20 Q1012 NOSIG RMK A2988,0,4,0,10000,0,0,0,
2026-03-19 19:00:00,METAR RPLL 191900Z 14005KT 100V190 9999 FEW025 25/20 Q1012 NOSIG RMK A2988,0,5,0,10000,0,0,0,
2026-03-19 18:00:00,METAR RPLL 191800Z 13004KT 070V180 9999 FEW025 26/20 Q1012 NOSIG RMK A2988,0,4,0,10000,0,0,0,
2026-03-19 17:00:00,METAR RPLL 191700Z 12005KT 090V150 9999 FEW025 26/20 Q1012 NOSIG RMK A2988,0,5,0,10000,0,0,0,
2026-03-19 16:00:00,METAR RPLL 191600Z 12006KT 080V150 9999 FEW025 26/20 Q1013 NOSIG RMK A2991,0,6,0,10000,0,0,0,
2026-03-19 15:00:00,METAR RPLL 191500Z 12007KT 070V150 9999 FEW025 26/20 Q1013 NOSIG RMK A2991,0,7,0,10000,0,0,0,
2026-03-19 14:00:00,METAR RPLL 191400Z 12007KT 010V170 9999 FEW025 27/20 Q1013 NOSIG RMK A2991,0,7,0,10000,0,0,0,
2026-03-19 13:00:00,METAR RPLL 191300Z 13008KT 090V170 9999 FEW025 27/20 Q1013 NOSIG RMK A2991,0,8,0,10000,0,0,0,
2026-03-19 12:00:00,METAR RPLL 191200Z 13007KT 080V180 9999 FEW025 27/20 Q1012 NOSIG RMK A2988,0,7,0,10000,0,0,0,
2026-03-19 11:00:00,METAR RPLL 191100Z 13008KT 090V160 9999 FEW025 SCT100 28/20 Q1011 NOSIG RMK A2985,0,8,0,10000,0,0,0,
2026-03-19 10:00:00,METAR RPLL 191000Z 12010KT 070V160 9999 FEW025 SCT100 29/20 Q1010 NOSIG RMK A2983,0,10,0,10000,0,0,0,
2026-03-19 09:00:00,METAR RPLL 190900Z 14009KT 100V180 9999 FEW025 SCT100 30/21 Q1010 NOSIG RMK A2983,0,9,0,10000,0,0,0,
2026-03-19 08:00:00,METAR RPLL 190800Z 14010KT 090V200 9999 FEW025 SCT100 31/20 Q1010 NOSIG RMK A2983,0,10,0,10000,0,0,0,
2026-03-19 07:00:00,METAR RPLL 190700Z 14010KT 090V200 9999 FEW025 31/20 Q1010 NOSIG RMK A2983,0,10,0,10000,0,0,0,
2026-03-19 06:00:00,METAR RPLL 190600Z 13010G20KT 100V190 9999 FEW025 32/19 Q1011 NOSIG RMK A2985,0,10,1,10000,0,0,0,
2026-03-19 05:00:00,METAR RPLL 190500Z 14010KT 100V210 9999 FEW025 32/19 Q1012 NOSIG RMK A2988,0,10,0,10000,0,0,0,
2026-03-19 04:00:00,METAR RPLL 190400Z 14011KT 100V190 9999 FEW025 31/20 Q1013 NOSIG RMK A2991,0,11,0,10000,0,0,0,
2026-03-19 03:00:00,METAR RPLL 190300Z 13008KT 090V200 9999 FEW025 30/20 Q1014 NOSIG RMK A2994,0,8,0,10000,0,0,0,
2026-03-19 02:00:00,METAR RPLL 190200Z 13008KT 080V180 9999 FEW025 SCT100 30/20 Q1015 NOSIG RMK A2997,0,8,0,10000,0,0,0,
2026-03-19 01:00:00,METAR RPLL 190100Z 14006KT 100V180 9999 FEW025 SCT100 29/19 Q1015 NOSIG RMK A2997,0,6,0,10000,0,0,0,
2026-03-19 00:00:00,METAR RPLL 190000Z 12005KT 070V190 9999 FEW025 BKN100 29/20 Q1014 NOSIG RMK A2994,0,5,0,10000,0,0,0,
2026-03-18 23:00:00,METAR RPLL 182300Z 12004KT 090V180 9999 FEW025 BKN100 27/20 Q1014 NOSIG RMK A2994,0,4,0,10000,0,0,0,
2026-03-18 22:00:00,METAR RPLL 182200Z 11003KT 090V150 9999 FEW025 BKN100 26/20 Q1013 NOSIG RMK A2991,0,3,0,10000,0,0,0,
2026-03-18 21:00:00,METAR RPLL 182100Z 11004KT 080V150 9999 FEW025 BKN100 26/20 Q1012 NOSIG RMK A2988,0,4,0,10000,0,0,0,
2026-03-18 20:00:00,METAR RPLL 182000Z 09005KT 050V130 9999 FEW025 BKN100 26/20 Q1012 NOSIG RMK A2988,0,5,0,10000,0,0,0,
2026-03-18 19:00:00,METAR RPLL 181900Z 11005KT 080V140 9999 FEW025 BKN100 26/20 Q1012 NOSIG RMK A2988,0,5,0,10000,0,0,0,
2026-03-18 18:00:00,METAR RPLL 181800Z 12004KT 9999 FEW025 BKN100 26/21 Q1012 NOSIG RMK A2988,0,4,0,10000,0,0,0,
2026-03-18 17:00:00,METAR RPLL 181700Z 11005KT 080V150 9999 FEW025 BKN100 27/21 Q1013 NOSIG RMK A2991,0,5,0,10000,0,0,0,
2026-03-18 16:00:00,METAR RPLL 181600Z 12005KT 080V160 9999 FEW025 BKN100 27/21 Q1014 NOSIG RMK A2994,0,5,0,10000,0,0,0,
2026-03-18 15:00:00,METAR RPLL 181500Z 12006KT 080V170 9999 FEW025 BKN100 27/21 Q1014 NOSIG RMK A2994,0,6,0,10000,0,0,0,
2026-03-18 14:00:00,METAR RPLL 181400Z 12005KT 080V180 9999 FEW025 BKN100 27/21 Q1014 NOSIG RMK A2994,0,5,0,10000,0,0,0,
2026-03-18 13:00:00,METAR RPLL 181300Z 12008KT 080V150 9999 FEW025 27/21 Q1013 NOSIG RMK A2991,0,8,0,10000,0,0,0,
2026-03-18 12:00:00,METAR RPLL 181200Z 12006KT 070V170 9999 FEW025 28/21 Q1013 NOSIG RMK A2991,0,6,0,10000,0,0,0,
2026-03-18 11:00:00,METAR RPLL 181100Z 12008KT 080V160 9999 FEW025 28/22 Q1012 NOSIG RMK A2988,0,8,0,10000,0,0,0,
2026-03-18 10:00:00,METAR RPLL 181000Z 13007KT 080V170 9999 FEW025 29/21 Q1012 NOSIG RMK A2988,0,7,0,10000,0,0,0,
2026-03-18 09:00:00,METAR RPLL 180900Z 12011KT 080V160 9999 FEW025 30/21 Q1011 NOSIG RMK A2985,0,11,0,10000,0,0,0,
2026-03-18 08:00:00,METAR RPLL 180800Z 13010KT 070V160 9999 FEW025 BKN100 31/20 Q1011 NOSIG RMK A2985,0,10,0,10000,0,0,0,
2026-03-18 07:00:00,METAR RPLL 180700Z 11008KT 060V210 9999 SCT025 BKN100 32/20 Q1011 NOSIG RMK A2985,0,8,0,10000,0,0,0,
2026-03-18 06:00:00,METAR RPLL 180600Z 14007KT 070V220 9999 FEW025 BKN100 32/20 Q1012 NOSIG RMK A2988,0,7,0,10000,0,0,0,
2026-03-18 05:00:00,METAR RPLL 180500Z VRB07KT 9999 FEW025 BKN100 31/20 Q1013 NOSIG RMK A2991,0,7,0,10000,0,0,0,
2026-03-18 04:00:00,METAR RPLL 180400Z 11009KT 060V150 9999 FEW025 BKN100 31/20 Q1014 NOSIG RMK A2994,0,9,0,10000,0,0,0,
2026-03-18 03:00:00,METAR RPLL 180300Z 13008KT 090V180 9999 FEW025 BKN100 30/21 Q1015 NOSIG RMK A2997,0,8,0,10000,0,0,0,
2026-03-18 02:00:00,METAR RPLL 180200Z 13006KT 080V200 9999 FEW025 BKN100 28/21 Q1015 NOSIG RMK A2997,0,6,0,10000,0,0,0,
2026-03-18 01:00:00,METAR RPLL 180100Z 09008KT 050V160 9999 FEW025 28/19 Q1015 NOSIG RMK A2997,0,8,0,10000,0,0,0,
2026-03-18 00:00:00,METAR RPLL 180000Z 08006KT 050V120 9999 FEW025 27/19 Q1014 NOSIG RMK A2994,0,6,0,10000,0,0,0,
2026-03-17 23:00:00,METAR RPLL 172300Z 10004KT 070V140 9999 FEW025 SCT100 26/20 Q1014 NOSIG RMK A2994,0,4,0,10000,0,0,0,
2026-03-17 22:00:00,METAR RPLL 172200Z VRB02KT 9999 FEW025 BKN100 26/20 Q1013 NOSIG RMK A2991,0,2,0,10000,0,0,0,
2026-03-17 21:00:00,METAR RPLL 172100Z VRB02KT 9999 FEW025 BKN100 25/21 Q1013 NOSIG RMK A2991,0,2,0,10000,0,0,0,
2026-03-17 20:00:00,METAR RPLL 172000Z 10003KT 9999 FEW025 BKN100 26/20 Q1013 NOSIG RMK A2991,0,3,0,10000,0,0,0,
2026-03-17 19:00:00,METAR RPLL 171900Z 10003KT 070V130 9999 FEW025 BKN100 26/21 Q1013 NOSIG RMK A2991,0,3,0,10000,0,0,0,
2026-03-17 18:00:00,METAR RPLL 171800Z 08003KT 050V120 9999 FEW025 25/20 Q1013 NOSIG RMK A2991,0,3,0,10000,0,0,0,
2026-03-17 17:00:00,METAR RPLL 171700Z VRB02KT 9999 FEW025 25/21 Q1013 NOSIG RMK A2991,0,2,0,10000,0,0,0,
2026-03-17 16:00:00,METAR RPLL 171600Z VRB02KT 9999 FEW025 SCT100 26/20 Q1014 NOSIG RMK A2994,0,2,0,10000,0,0,0,
2026-03-17 15:00:00,METAR RPLL 171500Z 10003KT 060V140 9999 FEW025 SCT100 26/21 Q1014 NOSIG RMK A2994,0,3,0,10000,0,0,0,
2026-03-17 14:00:00,METAR RPLL 171400Z 12003KT 080V200 9999 FEW025 SCT100 26/21 Q1014 NOSIG RMK A2994,0,3,0,10000,0,0,0,
2026-03-17 13:00:00,METAR RPLL 171300Z 11005KT 080V140 9999 FEW025 BKN100 26/21 Q1014 NOSIG RMK A2994,0,5,0,10000,0,0,0,
2026-03-17 12:00:00,METAR RPLL 171200Z 11005KT 080V160 9999 FEW025 BKN100 27/21 Q1013 NOSIG RMK A2991,0,5,0,10000,0,0,0,
2026-03-17 11:00:00,METAR RPLL 171100Z 10005KT 070V130 9999 FEW025 BKN100 27/20 Q1012 NOSIG RMK A2988,0,5,0,10000,0,0,0,
2026-03-17 10:00:00,METAR RPLL 171000Z 10006KT 080V140 9999 SCT025 BKN100 28/21 Q1012 NOSIG RMK A2988,0,6,0,10000,0,0,0,
2026-03-17 09:00:00,METAR RPLL 170900Z 11008KT 070V140 9999 FEW025 BKN100 29/21 Q1011 NOSIG RMK A2985,0,8,0,10000,0,0,0,
2026-03-17 08:00:00,METAR RPLL 170800Z 10007KT 070V130 9999 FEW025 BKN100 30/21 Q1011 NOSIG RMK A2985,0,7,0,10000,0,0,0,
2026-03-17 07:00:00,METAR RPLL 170700Z 04008KT 010V070 9999 SCT025 BKN100 29/21 Q1011 NOSIG RMK A2985,0,8,0,10000,0,0,0,
2026-03-17 06:00:00,METAR RPLL 170600Z 33008KT 9999 SCT025 BKN100 29/21 Q1011 NOSIG RMK A2985,0,8,0,10000,0,0,0,
2026-03-17 05:00:00,METAR RPLL 170500Z VRB09G20KT 9999 SCT025 29/20 Q1012 NOSIG RMK A2988,0,9,1,10000,0,0,0,
2026-03-17 04:00:00,METAR RPLL 170400Z 30009KT 230V340 9999 SCT025 28/20 Q1013 NOSIG RMK A2991,0,9,0,10000,0,0,0,
2026-03-17 03:00:00,METAR RPLL 170300Z 29008KT 250V320 9999 FEW025 SCT100 28/21 Q1014 NOSIG RMK A2994,0,8,0,10000,0,0,0,
2026-03-17 02:00:00,METAR RPLL 170200Z 31005KT 220V030 9999 FEW025 SCT100 27/20 Q1015 NOSIG RMK A2997,0,5,0,10000,0,0,0,
2026-03-17 01:00:00,METAR RPLL 170100Z 29003KT 230V350 9999 FEW025 BKN100 26/19 Q1015 NOSIG RMK A2997,0,3,0,10000,0,0,0,
2026-03-17 00:00:00,METAR RPLL 170000Z VRB02KT 9999 FEW025 SCT100 25/21 Q1015 NOSIG RMK A2997,0,2,0,10000,0,0,0,
2026-03-16 23:00:00,METAR RPLL 162300Z VRB02KT 9999 FEW025 24/21 Q1014 NOSIG RMK A2994,0,2,0,10000,0,0,0,
2026-03-16 22:00:00,METAR RPLL 162200Z 07002KT 9999 FEW025 BKN100 23/20 Q1013 NOSIG RMK A2991,0,2,0,10000,0,0,0,
2026-03-16 21:00:00,METAR RPLL 162100Z VRB02KT 9999 FEW025 SCT100 23/19 Q1013 NOSIG RMK A2991,0,2,0,10000,0,0,0,
2026-03-16 20:00:00,METAR RPLL 162000Z 12003KT 070V160 9999 FEW025 BKN100 24/20 Q1013 NOSIG RMK A2991,0,3,0,10000,0,0,0,
2026-03-16 19:00:00,METAR RPLL 161900Z VRB02KT 9999 FEW025 24/20 Q1013 NOSIG RMK A2991,0,2,0,10000,0,0,0,
2026-03-16 18:00:00,METAR RPLL 161800Z VRB02KT 9999 FEW025 23/20 Q1014 NOSIG RMK A2994,0,2,0,10000,0,0,0,
2026-03-16 17:00:00,METAR RPLL 161700Z VRB02KT 9999 FEW025 24/20 Q1014 NOSIG RMK A2994,0,2,0,10000,0,0,0,
2026-03-16 16:00:00,METAR RPLL 161600Z 11004KT 080V140 9999 FEW025 24/20 Q1015 NOSIG RMK A2994,0,4,0,10000,0,0,0,
2026-03-16 15:00:00,METAR RPLL 161500Z 11004KT 070V150 9999 FEW025 SCT100 24/19 Q1015 NOSIG RMK A2997,0,4,0,10000,0,0,0,
2026-03-16 14:00:00,METAR RPLL 161400Z 11005KT 080V150 9999 FEW025 SCT100 25/19 Q1014 NOSIG RMK A2994,0,5,0,10000,0,0,0,
2026-03-16 13:00:00,METAR RPLL 161300Z 11003KT 070V150 9999 FEW025 25/19 Q1014 NOSIG RMK A2994,0,3,0,10000,0,0,0,
2026-03-16 12:00:00,METAR RPLL 161200Z 10004KT 060V140 9999 FEW025 25/19 Q1014 NOSIG RMK A2994,0,4,0,10000,0,0,0,
2026-03-16 11:00:00,METAR RPLL 161100Z 11006KT 070V130 9999 FEW025 26/18 Q1013 NOSIG RMK A2991,0,6,0,10000,0,0,0,
2026-03-16 10:00:00,METAR RPLL 161000Z 12007KT 090V170 9999 FEW025 SCT100 26/19 Q1012 NOSIG RMK A2988,0,7,0,10000,0,0,0,
2026-03-16 09:00:00,METAR RPLL 160900Z 09013KT 9999 SCT025 BKN100 28/18 Q1012 NOSIG RMK A2988,0,13,0,10000,0,0,0,
2026-03-16 08:00:00,METAR RPLL 160800Z 12009KT 070V170 9999 SCT025 29/18 Q1011 NOSIG RMK A2985,0,9,0,10000,0,0,0,
2026-03-16 07:00:00,METAR RPLL 160700Z 12008KT 060V210 9999 SCT025 31/17 Q1011 NOSIG RMK A2985,0,8,0,10000,0,0,0,
2026-03-16 06:00:00,METAR RPLL 160600Z 14008KT 070V210 9999 SCT025 29/17 Q1012 NOSIG RMK A2988,0,8,0,10000,0,0,0,
2026-03-16 05:00:00,METAR RPLL 160500Z 09008KT 020V150 9999 SCT025 29/16 Q1013 NOSIG RMK A2991,0,8,0,10000,0,0,0,
2026-03-16 04:00:00,METAR RPLL 160400Z 09007KT 030V160 9999 SCT025 29/17 Q1014 NOSIG RMK A2994,0,7,0,10000,0,0,0,
2026-03-16 03:00:00,METAR RPLL 160300Z 14007KT 070V200 9999 FEW025 BKN100 27/17 Q1015 NOSIG RMK A2997,0,7,0,10000,0,0,0,
2026-03-16 02:00:00,METAR RPLL 160200Z 08007KT 030V140 9999 SCT025 28/16 Q1015 NOSIG RMK A2997,0,7,0,10000,0,0,0,
2026-03-16 01:00:00,METAR RPLL 160100Z 11006KT 050V150 9999 FEW025 BKN100 26/16 Q1016 NOSIG RMK A3000,0,6,0,10000,0,0,0,
2026-03-16 00:00:00,METAR RPLL 160000Z 06007KT 9999 FEW025 26/16 Q1015 NOSIG RMK A2997,0,7,0,10000,0,0,0,
2026-03-15 23:00:00,METAR RPLL 152300Z 05006KT 350V070 9999 FEW025 24/16 Q1015 NOSIG RMK A2997,0,6,0,10000,0,0,0,
2026-03-15 22:00:00,METAR RPLL 152200Z 07006KT 9999 FEW025 23/16 Q1015 NOSIG RMK A2997,0,6,0,10000,0,0,0,
2026-03-15 21:00:00,METAR RPLL 152100Z 06008KT 9999 FEW025 22/16 Q1014 NOSIG RMK A2994,0,8,0,10000,0,0,0,
2026-03-15 20:00:00,METAR RPLL 152000Z 05009KT 9999 FEW025 SCT100 23/16 Q1014 NOSIG RMK A2994,0,9,0,10000,0,0,0,
2026-03-15 19:00:00,METAR RPLL 151900Z 07008KT 9999 FEW025 23/16 Q1014 NOSIG RMK A2994,0,8,0,10000,0,0,0,
2026-03-15 18:00:00,METAR RPLL 151800Z 09004KT 010V140 9999 FEW025 23/16 Q1015 NOSIG RMK A2997,0,4,0,10000,0,0,0,
2026-03-15 17:00:00,METAR RPLL 151700Z 09008KT 9999 FEW025 24/17 Q1015 NOSIG RMK A2997,0,8,0,10000,0,0,0,
2026-03-15 16:00:00,METAR RPLL 151600Z 08007KT 9999 FEW025 24/15 Q1016 NOSIG RMK A3000,0,7,0,10000,0,0,0,
2026-03-15 15:00:00,METAR RPLL 151500Z 08007KT 9999 FEW025 SCT100 24/15 Q1016 NOSIG RMK A3000,0,7,0,10000,0,0,0,
2026-03-15 14:00:00,METAR RPLL 151400Z 09006KT 9999 FEW025 SCT100 25/15 Q1016 NOSIG RMK A3000,0,6,0,10000,0,0,0,
2026-03-15 13:00:00,METAR RPLL 151300Z 10006KT 070V130 9999 FEW025 SCT100 25/16 Q1016 NOSIG RMK A3000,0,6,0,10000,0,0,0,
2026-03-15 12:00:00,METAR RPLL 151200Z 10006KT 060V140 9999 FEW025 25/16 Q1015 NOSIG RMK A2997,0,6,0,10000,0,0,0,
2026-03-15 11:00:00,METAR RPLL 151100Z 09007KT 070V130 9999 FEW025 25/16 Q1015 NOSIG RMK A2996,0,7,0,10000,0,0,0,
2026-03-15 10:00:00,METAR RPLL 151000Z 10009KT 9999 FEW025 SCT100 26/16 Q1014 NOSIG RMK A2994,0,9,0,10000,0,0,0,
2026-03-15 09:00:00,METAR RPLL 150900Z 09010KT 9999 FEW025 SCT100 27/16 Q1014 NOSIG RMK A2994,0,10,0,10000,0,0,0,
2026-03-15 08:00:00,METAR RPLL 150800Z 09012KT 9999 FEW025 SCT100 28/16 Q1013 NOSIG RMK A2991,0,12,0,10000,0,0,0,
