Time_recorded,METAR,is_cavok,wind_speed,is_gust,visibility_meters,has_thunderstorm,has_heavy_rain,has_low_vis_fog,other_phenomenon
2026-05-02 14:53:00,METAR KDAL 021453Z 30004KT 10SM CLR 18/09 A3018 RMK AO2 SLP217 T01780089 51018,0,4,0,16090,0,0,0,
2026-05-02 13:53:00,METAR KDAL 021353Z 33006KT 10SM CLR 16/11 A3017 RMK AO2 SLP213 T01560106,0,6,0,16090,0,0,0,
2026-05-02 12:53:00,METAR KDAL 021253Z 31004KT 10SM FEW160 13/10 A3016 RMK AO2 SLP210 T01280100,0,4,0,16090,0,0,0,
2026-05-02 11:53:00,METAR KDAL 021153Z 00000KT 10SM FEW160 11/09 A3013 RMK AO2 SLP198 T01110089 10139 20100 53014,0,0,0,16090,0,0,0,
2026-05-02 10:53:00,METAR KDAL 021053Z 00000KT 10SM FEW250 11/09 A3010 RMK AO2 SLP190 T01110089,0,0,0,16090,0,0,0,
2026-05-02 09:53:00,METAR KDAL 020953Z 36003KT 10SM CLR 11/09 A3009 RMK AO2 SLP186 T01110089,0,3,0,16090,0,0,0,
2026-05-02 08:53:00,METAR KDAL 020853Z 33003KT 10SM CLR 11/08 A3009 RMK AO2 SLP185 T01060083 58002,0,3,0,16090,0,0,0,
2026-05-02 07:53:00,METAR KDAL 020753Z 00000KT 10SM CLR 12/09 A3009 RMK AO2 SLP186 T01170089,0,0,0,16090,0,0,0,
2026-05-02 06:53:00,METAR KDAL 020653Z 00000KT 10SM FEW160 13/09 A3010 RMK AO2 SLP188 T01330089,0,0,0,16090,0,0,0,
2026-05-02 05:53:00,METAR KDAL 020553Z 00000KT 10SM SCT180 13/09 A3009 RMK AO2 SLP187 T01330089 10172 20133 401830133 50006,0,0,0,16090,0,0,0,
2026-05-02 04:53:00,METAR KDAL 020453Z 00000KT 10SM FEW065 FEW140 15/08 A3009 RMK AO2 SLP187 T01500078,0,0,0,16090,0,0,0,
2026-05-02 03:53:00,METAR KDAL 020353Z VRB03KT 10SM SCT065 BKN130 16/08 A3008 RMK AO2 SLP184 T01560083,0,3,0,16090,0,0,0,
2026-05-02 02:53:00,METAR KDAL 020253Z 11003KT 10SM SCT060 BKN100 16/09 A3007 RMK AO2 SLP180 T01610089 53024,0,3,0,16090,0,0,0,
2026-05-02 01:53:00,METAR KDAL 020153Z 13004KT 10SM FEW075 OVC100 16/08 A3005 RMK AO2 SLP174 T01610083,0,4,0,16090,0,0,0,
2026-05-02 00:53:00,METAR KDAL 020053Z 11005KT 10SM BKN100 OVC130 17/08 A3002 RMK AO2 SLP161 T01670083,0,5,0,16090,0,0,0,
2026-05-01 23:53:00,METAR KDAL 012353Z 11005KT 10SM FEW075 BKN100 OVC130 17/08 A3000 RMK AO2 SLP156 T01720078 10183 20172 53005,0,5,0,16090,0,0,0,
2026-05-01 22:53:00,METAR KDAL 012253Z 08005KT 10SM FEW045 BKN090 OVC130 18/07 A2998 RMK AO2 SLP148 T01780072,0,5,0,16090,0,0,0,
2026-05-01 21:53:00,METAR KDAL 012153Z 06006KT 10SM BKN090 OVC140 18/07 A2998 RMK AO2 SLP148 T01780067,0,6,0,16090,0,0,0,
2026-05-01 20:53:00,METAR KDAL 012053Z 05005KT 10SM FEW060 BKN085 OVC140 18/07 A2999 RMK AO2 SLP151 T01780067 58009,0,5,0,16090,0,0,0,
2026-05-01 19:53:00,METAR KDAL 011953Z 05009G19KT 020V090 10SM FEW047 SCT070 BKN090 OVC140 18/06 A3001 RMK AO2 PRESRR SLP157 T01830056,0,9,1,16090,0,0,0,
2026-05-01 18:53:00,METAR KDAL 011853Z 07010G17KT 10SM FEW043 BKN065 BKN095 OVC140 18/06 A2999 RMK AO2 SLP153 T01780061,0,10,1,16090,0,0,0,
2026-05-01 17:53:00,METAR KDAL 011753Z 08011G20KT 10SM FEW042 BKN060 BKN090 OVC140 18/06 A3001 RMK AO2 SLP160 60000 T01780056 10183 20144 58004,0,11,1,16090,0,0,0,
2026-05-01 16:53:00,METAR KDAL 011653Z 09012G19KT 10SM FEW035 FEW065 SCT090 BKN130 BKN250 17/07 A3003 RMK AO2 SLP165 T01720067,0,12,1,16090,0,0,0,
2026-05-01 15:53:00,METAR KDAL 011553Z 07009KT 10SM FEW050 BKN065 OVC080 16/06 A3004 RMK AO2 SLP169 T01560061,0,9,0,16090,0,0,0,
2026-05-01 14:53:00,METAR KDAL 011453Z VRB05KT 10SM FEW050 SCT070 BKN095 OVC150 15/07 A3002 RMK AO2 SLP163 60000 T01500072 50014,0,5,0,16090,0,0,0,
2026-05-01 13:53:00,METAR KDAL 011353Z COR 04003KT 10SM FEW017 BKN065 OVC085 15/11 A3003 RMK AO2 RAB29E39 SLP165 P0000 T01500106,0,3,0,16090,0,0,0,RA
2026-05-01 12:53:00,METAR KDAL 011253Z 07005KT 10SM FEW016 BKN060 OVC110 14/10 A3004 RMK AO2 SLP168 T01440100,0,5,0,16090,0,0,0,
2026-05-01 11:53:00,METAR KDAL 011153Z 04006KT 10SM BKN055 BKN110 OVC150 14/11 A2998 RMK AO2 RAB21E30 SLP150 P0000 60000 70004 T01440106 10161 20144 50001,0,6,0,16090,0,0,0,RA
2026-05-01 10:53:00,METAR KDAL 011053Z 09003KT 10SM BKN050 OVC100 15/11 A2999 RMK AO2 RAB0956E44 SLP151 P0000 T01500111,0,3,0,16090,0,0,0,RA
2026-05-01 09:53:00,METAR KDAL 010953Z 08004KT 10SM OVC047 15/11 A2999 RMK AO2 SLP152 T01500106,0,4,0,16090,0,0,0,
2026-05-01 08:53:00,METAR KDAL 010853Z 07006KT 10SM BKN045 BKN085 OVC120 15/10 A2998 RMK AO2 RAE08 PRESRR SLP148 P0000 60000 T01500100 56009,0,6,0,16090,0,0,0,
2026-05-01 07:53:00,METAR KDAL 010753Z 04008KT 10SM -RA OVC037 14/11 A2998 RMK AO2 SLP148 P0000 T01440111,0,8,0,16090,0,0,0,-RA
2026-05-01 06:53:00,METAR KDAL 010653Z 07003KT 10SM -RA OVC035 16/11 A3000 RMK AO2 RAB31 SLP157 P0000 T01560106,0,3,0,16090,0,0,0,-RA
2026-05-01 05:53:00,METAR KDAL 010553Z 08007KT 060V120 10SM OVC034 16/11 A3001 RMK AO2 PK WND 23026/0459 SLP158 60000 T01610106 10172 20161 401780156 50012,0,7,0,16090,0,0,0,
2026-05-01 04:53:00,METAR KDAL 010453Z VRB04KT 10SM OVC033 16/11 A3002 RMK AO2 SLP163 T01610111,0,4,0,16090,0,0,0,
2026-05-01 03:53:00,METAR KDAL 010353Z 05009G17KT 10SM OVC031 16/11 A3000 RMK AO2 SLP156 T01610106,0,9,1,16090,0,0,0,
2026-05-01 03:41:00,SPECI KDAL 010341Z 06007G16KT 10SM OVC030 17/11 A3000 RMK AO2 T01670106,0,7,1,16090,0,0,0,
2026-05-01 02:53:00,METAR KDAL 010253Z 06010KT 10SM OVC029 17/11 A2997 RMK AO2 SLP146 60000 T01670111 51014,0,10,0,16090,0,0,0,
2026-05-01 01:53:00,METAR KDAL 010153Z 08006KT 10SM OVC028 17/11 A2997 RMK AO2 SLP144 T01670111,0,6,0,16090,0,0,0,
2026-05-01 00:53:00,METAR KDAL 010053Z 05006KT 10SM FEW021 OVC027 17/11 A2996 RMK AO2 RAB23E43 SLP141 P0000 T01670111,0,6,0,16090,0,0,0,RA
2026-04-30 23:53:00,METAR KDAL 302353Z 07008KT 040V100 10SM FEW021 BKN027 OVC034 17/11 A2993 RMK AO2 SLP132 T01720111 10172 20161 53000,0,8,0,16090,0,0,0,
2026-04-30 22:53:00,METAR KDAL 302253Z 08008KT 030V240 10SM FEW018 BKN027 OVC034 17/12 A2991 RMK AO2 SLP124 T01720117,0,8,0,16090,0,0,0,
2026-04-30 21:53:00,METAR KDAL 302153Z 06006KT 10SM BKN027 OVC032 17/12 A2993 RMK AO2 SLP132 T01720122,0,6,0,16090,0,0,0,
2026-04-30 21:07:00,SPECI KDAL 302107Z 09007KT 060V140 10SM FEW025 OVC030 17/12 A2994 RMK AO2 T01720117,0,7,0,16090,0,0,0,
2026-04-30 20:53:00,METAR KDAL 302053Z 08011G18KT 10SM FEW020 OVC029 17/12 A2992 RMK AO2 SLP128 T01670117 53007,0,11,1,16090,0,0,0,
2026-04-30 19:53:00,METAR KDAL 301953Z 04007KT 10SM SCT015 OVC020 17/13 A2994 RMK AO2 SLP136 T01670128,0,7,0,16090,0,0,0,
2026-04-30 19:06:00,SPECI KDAL 301906Z 07009G17KT 040V100 10SM BKN015 OVC020 17/13 A2992 RMK AO2 PRESRR T01670133,0,9,1,16090,0,0,0,
2026-04-30 18:53:00,METAR KDAL 301853Z 11010G19KT 10SM BKN012 OVC018 16/14 A2987 RMK AO2 SLP112 T01610144,0,10,1,16090,0,0,0,
2026-04-30 18:30:00,SPECI KDAL 301830Z 05009G14KT 10SM OVC011 16/14 A2992 RMK AO2 T01610144,0,9,1,16090,0,0,0,
2026-04-30 17:53:00,METAR KDAL 301753Z 08012G25KT 9SM BKN009 BKN015 OVC110 16/15 A2990 RMK AO2 RAE50 SLP120 P0003 60004 T01610150 10172 20156 58024,0,12,1,14481,0,0,0,
2026-04-30 17:51:00,SPECI KDAL 301751Z 08011G25KT 9SM BKN009 BKN015 OVC110 16/15 A2990 RMK AO2 RAE50 P0003,0,11,1,14481,0,0,0,
2026-04-30 17:37:00,SPECI KDAL 301737Z 11012G19KT 9SM -RA SCT009 BKN015 OVC110 16/15 A2991 RMK AO2 PRESFR P0003 T01610150,0,12,1,14481,0,0,0,-RA
2026-04-30 16:53:00,METAR KDAL 301653Z 07005KT 6SM -RA BR SCT013 BKN022 OVC100 17/15 A3000 RMK AO2 SLP156 P0001 T01670150,0,5,0,9654,0,0,1,"-RA,BR"
2026-04-30 15:59:00,SPECI KDAL 301559Z 06005KT 3SM -RA BR BKN019 OVC031 16/15 A2999 RMK AO2 VIS W 4 OCNL LTGIC CB DSNT S MOV E P0000 T01610150,0,5,0,4827,0,0,1,"-RA,BR,DS"
2026-04-30 15:53:00,METAR KDAL 301553Z 07006KT 2 1/2SM -RA BR OVC019 16/14 A2999 RMK AO2 RAB34 PRESFR SLP152 OCNL LTGIC CB DSNT SW MOV E P0000 T01610144,0,6,0,4022,0,0,1,"-RA,BR,DS"
2026-04-30 14:53:00,METAR KDAL 301453Z VRB06KT 10SM OVC016 17/14 A2997 RMK AO2 SLP144 T01720139 53013,0,6,0,16090,0,0,0,
2026-04-30 13:53:00,METAR KDAL 301353Z 08009G18KT 10SM BKN017 OVC031 17/14 A2994 RMK AO2 SLP135 T01670139,0,9,1,16090,0,0,0,
2026-04-30 13:20:00,SPECI KDAL 301320Z VRB05KT 10SM BKN017 BKN200 OVC250 17/14 A2994 RMK AO2 T01670139,0,5,0,16090,0,0,0,
2026-04-30 12:53:00,METAR KDAL 301253Z 07011G20KT 10SM SCT015 BKN200 OVC250 16/13 A2994 RMK AO2 SLP134 T01610133,0,11,1,16090,0,0,0,
2026-04-30 12:23:00,SPECI KDAL 301223Z 08008G17KT 10SM SCT015 BKN200 OVC250 16/13 A2994 RMK AO2 SCT V BKN T01610133,0,8,1,16090,0,0,0,
2026-04-30 12:15:00,SPECI KDAL 301215Z 07009G17KT 10SM BKN015 BKN250 16/13 A2994 RMK AO2 T01560133,0,9,1,16090,0,0,0,
2026-04-30 11:53:00,METAR KDAL 301153Z 08007KT 10SM SCT016 BKN240 16/13 A2993 RMK AO2 SLP132 70027 T01560133 10178 20156 58002,0,7,0,16090,0,0,0,
2026-04-30 10:53:00,METAR KDAL 301053Z 07006KT 10SM FEW017 SCT250 16/13 A2994 RMK AO2 SLP133 T01610133,0,6,0,16090,0,0,0,
2026-04-30 10:23:00,SPECI KDAL 301023Z 06007KT 10SM SCT017 BKN250 16/13 A2994 RMK AO2 T01610133,0,7,0,16090,0,0,0,
2026-04-30 09:53:00,METAR KDAL 300953Z 06008KT 10SM BKN020 BKN250 17/13 A2994 RMK AO2 SLP133 T01670133,0,8,0,16090,0,0,0,
2026-04-30 09:35:00,SPECI KDAL 300935Z 04006KT 10SM BKN019 BKN250 17/14 A2993 RMK AO2 T01670139,0,6,0,16090,0,0,0,
2026-04-30 09:17:00,SPECI KDAL 300917Z VRB06KT 10SM SCT018 SCT060 BKN250 17/14 A2994 RMK AO2 T01670139,0,6,0,16090,0,0,0,
2026-04-30 08:53:00,METAR KDAL 300853Z 07009KT 10SM BKN018 BKN060 17/14 A2994 RMK AO2 SLP133 T01720139 55010,0,9,0,16090,0,0,0,
2026-04-30 08:45:00,SPECI KDAL 300845Z 06006KT 10SM BKN018 BKN060 17/14 A2994 RMK AO2 T01720139,0,6,0,16090,0,0,0,
2026-04-30 08:43:00,SPECI KDAL 300843Z 06007KT 10SM BKN019 OVC060 17/14 A2993 RMK AO2 T01720139,0,7,0,16090,0,0,0,
2026-04-30 07:53:00,METAR KDAL 300753Z 06007KT 10SM SCT020 BKN043 BKN060 18/14 A2994 RMK AO2 SLP132 T01780139,0,7,0,16090,0,0,0,
2026-04-30 07:35:00,SPECI KDAL 300735Z 06006KT 10SM BKN025 BKN040 OVC065 18/14 A2993 RMK AO2 T01780139,0,6,0,16090,0,0,0,
2026-04-30 06:53:00,METAR KDAL 300653Z 04006KT 10SM FEW019 OVC038 18/13 A2995 RMK AO2 SLP138 T01780133,0,6,0,16090,0,0,0,
2026-04-30 05:53:00,METAR KDAL 300553Z 05005KT 10SM OVC033 18/13 A2997 RMK AO2 SLP144 T01780133 10183 20172 402170156 50002,0,5,0,16090,0,0,0,
2026-04-30 05:35:00,SPECI KDAL 300535Z 04006KT 10SM OVC030 18/13 A2997 RMK AO2 T01830133,0,6,0,16090,0,0,0,
2026-04-30 04:53:00,METAR KDAL 300453Z 06003KT 10SM OVC029 18/13 A2999 RMK AO2 SLP151 T01780133,0,3,0,16090,0,0,0,
2026-04-30 04:03:00,SPECI KDAL 300403Z 05006KT 10SM OVC029 18/13 A2998 RMK AO2 T01780128,0,6,0,16090,0,0,0,
2026-04-30 03:53:00,METAR KDAL 300353Z 03006KT 10SM OVC031 18/13 A2998 RMK AO2 SLP147 T01780128,0,6,0,16090,0,0,0,
2026-04-30 02:53:00,METAR KDAL 300253Z 01005KT 10SM OVC030 18/13 A2996 RMK AO2 SLP142 T01780128 51024,0,5,0,16090,0,0,0,
2026-04-30 02:18:00,SPECI KDAL 300218Z 36008KT 10SM BKN028 OVC038 17/13 A2995 RMK AO2 T01720128,0,8,0,16090,0,0,0,
2026-04-30 01:53:00,METAR KDAL 300153Z 01004KT 10SM BKN030 OVC037 17/13 A2993 RMK AO2 SLP132 T01720128,0,4,0,16090,0,0,0,
2026-04-30 00:53:00,METAR KDAL 300053Z 36006KT 10SM SCT028 OVC034 17/13 A2993 RMK AO2 SLP130 T01720128,0,6,0,16090,0,0,0,
2026-04-29 23:53:00,METAR KDAL 292353Z 04009KT 10SM FEW015 BKN023 OVC036 17/13 A2989 RMK AO2 SLP117 OCNL LTGIC CB DSNT S MOV E 60027 T01720128 10194 20156 58004,0,9,0,16090,0,0,0,DS
2026-04-29 22:53:00,METAR KDAL 292253Z 35006KT 10SM BKN022 OVC030 18/13 A2992 RMK AO2 PK WND 25026/2226 SLP128 OCNL LTGIC CB DSNT S-SW MOV E T01780133,0,6,0,16090,0,0,0,DS
2026-04-29 21:53:00,METAR KDAL 292153Z 04006KT 10SM FEW010 BKN023 OVC028 18/13 A2990 RMK AO2 SLP121 FU FEW010 DSNT W T01830133,0,6,0,16090,0,0,0,DS
2026-04-29 20:53:00,METAR KDAL 292053Z 01010G18KT 10SM SCT022 BKN029 BKN250 19/14 A2990 RMK AO2 RAE1954 SLP120 P0000 60027 T01890139 58031,0,10,1,16090,0,0,0,RA
2026-04-29 19:53:00,METAR KDAL 291953Z 36007KT 10SM -RA FEW014 BKN022 BKN040 OVC250 18/15 A2996 RMK AO2 TSE51 SLP139 OCNL LTGICCG DSNT E-S TS MOVD E CB DSNT E-S MOV NE P0003 T01780150 $,0,7,0,16090,1,0,0,"-RA,DS,TS"
2026-04-29 19:36:00,SPECI KDAL 291936Z VRB06KT 4SM R13L/2600VP6000FT TSRA BR BKN020CB BKN040 BKN250 17/14 A2995 RMK AO2 OCNL LTGICCG TS OHD-E-S MOV NE P0002 T01670144 $,0,6,0,6436,1,0,1,"BR,RA,TS"
2026-04-29 18:53:00,METAR KDAL 291853Z 02009KT 10SM -TSRA BKN020CB OVC028 16/14 A2994 RMK AO2 RAB02 TSB13 SLP135 OCNL LTGICCG TS OHD-ALQDS MOV E P0024 T01610144 $,0,9,0,16090,1,0,0,"DS,RA,TS"
2026-04-29 18:36:00,SPECI KDAL 291836Z VRB03KT 5SM R13L/2800VP6000FT -TSRA BR BKN022CB OVC031 16/14 A2996 RMK AO2 RAB02 TSB13 VIS NE 2 FRQ LTGICCG TS OHD-ALQDS MOV E P0024 T01560139 $,0,3,0,8045,1,0,1,"BR,DS,RA,TS"
2026-04-29 18:27:00,SPECI KDAL 291827Z 34008G15KT 2SM R13L/4000VP6000FT +TSRA BR OVC023CB 16/13 A2997 RMK AO2 RAB02 TSB13 FRQ LTGICCG TS OHD-ALQDS MOV E P0009 T01560133 $,0,8,1,3218,1,0,1,"BR,DS,RA,TS"
2026-04-29 18:13:00,SPECI KDAL 291813Z 36006KT 10SM -TSRA OVC023CB 17/12 A2998 RMK AO2 RAB02 TSB13 OCNL LTGICCG TS OHD MOV E P0000 T01670122 $,0,6,0,16090,1,0,0,"RA,TS"
2026-04-29 17:53:00,METAR KDAL 291753Z 03005KT 10SM OVC021 17/12 A2999 RMK AO2 SLP151 OCNL LTGIC CB DSNT SW MOV E T01670122 10172 20161 53003 $,0,5,0,16090,0,0,0,DS
2026-04-29 16:53:00,METAR KDAL 291653Z 04006KT 10SM FEW020 OVC025 17/12 A2998 RMK AO2 PRESFR SLP146 OCNL LTGIC CB DSNT N MOV NE T01670122 $,0,6,0,16090,0,0,0,DS
2026-04-29 15:53:00,METAR KDAL 291553Z 02008G19KT 10SM FEW018 OVC025 17/12 A2998 RMK AO2 SLP147 OCNL LTGIC CB DSNT NE-E MOV E T01670117 $,0,8,1,16090,0,0,0,DS
2026-04-29 14:53:00,METAR KDAL 291453Z 03008KT 10SM OVC024 16/12 A2998 RMK AO2 SLP147 T01610117 51014 $,0,8,0,16090,0,0,0,
2026-04-29 13:53:00,METAR KDAL 291353Z 03005KT 10SM OVC025 16/11 A2998 RMK AO2 SLP147 T01610111 $,0,5,0,16090,0,0,0,
2026-04-29 12:53:00,METAR KDAL 291253Z 36009KT 320V030 10SM OVC024 17/11 A2997 RMK AO2 SLP143 T01670111 $,0,9,0,16090,0,0,0,
2026-04-29 11:53:00,METAR KDAL 291153Z 03008KT 10SM OVC023 17/11 A2994 RMK AO2 SLP134 70002 T01720111 10217 20172 53010 $,0,8,0,16090,0,0,0,
2026-04-29 10:53:00,METAR KDAL 291053Z 02011G17KT 10SM BKN021 OVC033 18/12 A2992 RMK AO2 SLP128 T01780117 $,0,11,1,16090,0,0,0,
2026-04-29 09:53:00,METAR KDAL 290953Z 01006KT 10SM OVC021 19/15 A2992 RMK AO2 SLP126 T01940150 $,0,6,0,16090,0,0,0,
2026-04-29 08:53:00,METAR KDAL 290853Z 02004KT 10SM OVC018 20/16 A2991 RMK AO2 SLP123 T02000156 53004 $,0,4,0,16090,0,0,0,
2026-04-29 07:53:00,METAR KDAL 290753Z 03006KT 10SM OVC016 20/16 A2989 RMK AO2 SLP116 T02000161 $,0,6,0,16090,0,0,0,
2026-04-29 07:03:00,SPECI KDAL 290703Z 03007KT 10SM OVC015 21/17 A2991 RMK AO2 T02060167 $,0,7,0,16090,0,0,0,
2026-04-29 06:53:00,METAR KDAL 290653Z 04006KT 10SM OVC014 21/17 A2991 RMK AO2 SLP120 T02060167 $,0,6,0,16090,0,0,0,
2026-04-29 05:53:00,METAR KDAL 290553Z 03010G18KT 10SM OVC011 22/18 A2990 RMK AO2 WSHFT 0535 SLP119 T02170178 10267 20217 402890217 53009 $,0,10,1,16090,0,0,0,
2026-04-29 05:28:00,SPECI KDAL 290528Z 30007KT 7SM BKN010 BKN014 BKN037 24/22 A2990 RMK AO2 T02390217 $,0,7,0,11263,0,0,0,
2026-04-29 04:53:00,METAR KDAL 290453Z 01004KT 6SM BR FEW018 FEW024 SCT032 24/23 A2988 RMK AO2 SLP112 T02440233 $,0,4,0,9654,0,0,1,BR
2026-04-29 04:39:00,SPECI KDAL 290439Z 00000KT 6SM BR FEW019 FEW024 SCT034 24/23 A2988 RMK AO2 T02440233 $,0,0,0,9654,0,0,1,BR
2026-04-29 03:53:00,METAR KDAL 290353Z 00000KT 5SM BR SCT024 BKN029 BKN100 BKN250 25/23 A2987 RMK AO2 SLP110 T02500233 $,0,0,0,8045,0,0,1,BR
2026-04-29 02:53:00,METAR KDAL 290253Z 02005KT 5SM BR FEW018 BKN100 BKN250 24/23 A2985 RMK AO2 SLP102 T02440233 53018 $,0,5,0,8045,0,0,1,BR
2026-04-29 01:53:00,METAR KDAL 290153Z 03006KT 5SM BR FEW080 FEW200 SCT250 25/23 A2980 RMK AO2 SLP085 FRQ LTGIC CB DSNT S MOV SE T02500233 $,0,6,0,8045,0,0,1,"BR,DS"
2026-04-29 00:53:00,METAR KDAL 290053Z 15007KT 6SM HZ FEW045 FEW080 SCT210 BKN250 26/23 A2976 RMK AO2 PRESFR SLP070 OCNL LTGIC CB DSNT S-SW MOV SE T02610233 $,0,7,0,9654,0,0,0,DS
2026-04-28 23:53:00,METAR KDAL 282353Z 17009G18KT 6SM HZ FEW041 FEW070 SCT080 BKN210 BKN250 27/23 A2980 RMK AO2 RAE10 TSE43 SLP084 OCNL LTGIC DSNT S-SW TS DSIPTD CB DSNT S-SW MOV SE P0002 60002 T02670233 10289 20256 58002 $,0,9,1,9654,1,0,0,"DS,TS"
2026-04-28 23:44:00,SPECI KDAL 282344Z 19008KT 7SM FEW043 SCT075 BKN170 BKN250 27/23 A2980 RMK AO2 RAE10 TSE43 OCNL LTGIC DSNT SW-W TS DSIPTD CB DSNT SW-W MOV SE P0002 T02670233 $,0,8,0,11263,1,0,0,"DS,TS"
2026-04-28 22:53:00,METAR KDAL 282253Z 10006KT 4SM -TSRA FEW023 SCT050CB BKN090 OVC200 27/23 A2981 RMK AO2 RAB33 TSB34 SLP087 FRQ LTGICCCCG TS SW-NW-N MOV SE P0000 T02670233 $,0,6,0,6436,1,0,0,"RA,TS"
2026-04-28 22:34:00,SPECI KDAL 282234Z 10006KT 6SM -TSRA FEW025 SCT040CB BKN200 OVC250 27/23 A2982 RMK AO2 RAB33 TSB34 FRQ LTGICCCCG TS SW-NW-N MOV SE P0000 T02670228 $,0,6,0,9654,1,0,0,"RA,TS"
2026-04-28 21:53:00,METAR KDAL 282153Z 15005KT 6SM HZ FEW024 FEW050 OVC250 27/23 A2982 RMK AO2 SLP090 OCNL LTGIC CB DSNT W-N MOV SE T02720228 $,0,5,0,9654,0,0,0,DS
2026-04-28 20:53:00,METAR KDAL 282053Z 18011G21KT 7SM SCT024 BKN030 BKN250 27/23 A2981 RMK AO2 SLP086 SCT V BKN T02720228 56022 $,0,11,1,11263,0,0,0,
2026-04-28 19:53:00,METAR KDAL 281953Z 17010G21KT 7SM SCT020 BKN050 OVC250 28/23 A2981 RMK AO2 SLP088 BINOVC T02830228,0,10,1,11263,0,0,0,VC
2026-04-28 18:59:00,SPECI KDAL 281859Z 16013G21KT 7SM BKN020 BKN030 BKN050 OVC220 28/23 A2985 RMK AO2 T02780228,0,13,1,11263,0,0,0,
2026-04-28 18:53:00,METAR KDAL 281853Z 17009KT 7SM SCT020 BKN055 OVC220 28/23 A2985 RMK AO2 SLP101 SCT V BKN T02780228,0,9,0,11263,0,0,0,
2026-04-28 17:53:00,METAR KDAL 281753Z 18010KT 6SM HZ FEW018 SCT024 BKN060 BKN250 27/23 A2987 RMK AO2 SLP108 T02720228 10272 20250 58002,0,10,0,9654,0,0,0,
2026-04-28 17:22:00,SPECI KDAL 281722Z 17011KT 6SM HZ FEW015 SCT022 BKN055 OVC250 27/23 A2989 RMK AO2 T02670228,0,11,0,9654,0,0,0,
2026-04-28 16:53:00,METAR KDAL 281653Z 18008KT 6SM HZ SCT016 BKN020 OVC055 26/22 A2989 RMK AO2 SLP116 T02610222,0,8,0,9654,0,0,0,
2026-04-28 15:53:00,METAR KDAL 281553Z 19007KT 6SM HZ BKN016 BKN050 OVC250 26/22 A2990 RMK AO2 SLP117 T02610222,0,7,0,9654,0,0,0,
2026-04-28 15:39:00,SPECI KDAL 281539Z 18010KT 6SM HZ BKN016 BKN055 OVC250 26/23 A2989 RMK AO2 T02610228,0,10,0,9654,0,0,0,
2026-04-28 14:53:00,METAR KDAL 281453Z COR 18010G18KT 6SM HZ BKN014 OVC049 26/23 A2988 RMK AO2 SLP111 OCNL LTGIC CB DSNT E MOV NE T02560228 50013,0,10,1,9654,0,0,0,DS
2026-04-28 14:38:00,SPECI KDAL 281438Z COR 19008G17KT 6SM HZ BKN014 OVC049 26/23 A2988 RMK AO2 T02560228,0,8,1,9654,0,0,0,
2026-04-28 14:00:00,SPECI KDAL 281400Z 18008KT 7SM OVC016 25/22 A2988 RMK AO2 T02500222,0,8,0,11263,0,0,0,
2026-04-28 13:53:00,METAR KDAL 281353Z 18007KT 7SM BKN014 OVC021 25/22 A2988 RMK AO2 SLP112 T02500222,0,7,0,11263,0,0,0,
2026-04-28 13:13:00,SPECI KDAL 281313Z 18006KT 6SM HZ BKN014 OVC028 25/22 A2987 RMK AO2 T02500222,0,6,0,9654,0,0,0,
2026-04-28 12:53:00,METAR KDAL 281253Z 16007KT 6SM HZ BKN015 BKN028 OVC250 25/22 A2987 RMK AO2 SLP106 T02500222,0,7,0,9654,0,0,0,
2026-04-28 12:39:00,SPECI KDAL 281239Z 17006KT 6SM HZ SCT015 BKN028 BKN180 OVC250 25/22 A2986 RMK AO2 T02500222,0,6,0,9654,0,0,0,
2026-04-28 12:29:00,SPECI KDAL 281229Z 17009G16KT 140V210 6SM HZ SCT015 SCT025 SCT033 BKN180 OVC250 25/22 A2985 RMK AO2 T02500222,0,9,1,9654,0,0,0,
2026-04-28 11:53:00,METAR KDAL 281153Z 18010G17KT 6SM HZ BKN018 OVC025 25/22 A2984 RMK AO2 SLP098 70096 T02500222 10261 20250 51007,0,10,1,9654,0,0,0,
2026-04-28 10:53:00,METAR KDAL 281053Z 17009G18KT 9SM BKN021 OVC250 25/22 A2982 RMK AO2 SLP092 T02500217,0,9,1,14481,0,0,0,
2026-04-28 09:53:00,METAR KDAL 280953Z 19006KT 8SM OVC017 25/22 A2984 RMK AO2 SLP098 T02500222,0,6,0,12872,0,0,0,
2026-04-28 08:53:00,METAR KDAL 280853Z 18007G17KT 8SM OVC016 25/22 A2982 RMK AO2 SLP091 T02500222 56005,0,7,1,12872,0,0,0,
2026-04-28 07:53:00,METAR KDAL 280753Z 18010KT 6SM HZ BKN017 OVC250 25/22 A2983 RMK AO2 SLP094 T02500222,0,10,0,9654,0,0,0,
2026-04-28 06:53:00,METAR KDAL 280653Z 17009G17KT 6SM HZ FEW020 OVC250 26/23 A2983 RMK AO2 SLP092 T02560228,0,9,1,9654,0,0,0,
2026-04-28 05:53:00,METAR KDAL 280553Z 16012G18KT 5SM HZ OVC250 26/23 A2984 RMK AO2 SLP096 60096 T02610233 10311 20239 403390239 50002,0,12,1,8045,0,0,0,
2026-04-28 04:53:00,METAR KDAL 280453Z 16010G16KT 6SM HZ OVC250 26/23 A2984 RMK AO2 SLP097 T02610228,0,10,1,9654,0,0,0,
2026-04-28 04:33:00,SPECI KDAL 280433Z 14009KT 6SM HZ SCT027 OVC250 26/22 A2985 RMK AO2 T02610222,0,9,0,9654,0,0,0,
2026-04-28 04:12:00,SPECI KDAL 280412Z 13006KT 8SM BKN028 OVC250 26/22 A2985 RMK AO2 T02560222,0,6,0,12872,0,0,0,
2026-04-28 03:53:00,METAR KDAL 280353Z 13006KT 9SM FEW200 OVC250 24/22 A2985 RMK AO2 SLP100 T02440217,0,6,0,14481,0,0,0,
2026-04-28 02:53:00,METAR KDAL 280253Z 10007KT 8SM FEW033 FEW055 SCT250 25/23 A2983 RMK AO2 SLP096 60096 T02500233 51038,0,7,0,12872,0,0,0,
2026-04-28 01:53:00,METAR KDAL 280153Z 08005KT 8SM SCT048TCU BKN060 BKN140 26/23 A2979 RMK AO2 RAE12 TSE29 SLP082 FRQ LTGIC DSNT N-E TS MOVD NE CB DSNT N-E MOV NE TCU E-SE W-NW P0010 T02610233,0,5,0,12872,1,0,0,"DS,TS"
2026-04-28 01:29:00,SPECI KDAL 280129Z VRB04KT 7SM BKN039 BKN048 BKN110 26/24 A2978 RMK AO2 RAE12 TSE29 FRQ LTGICCCCG DSNT NE-E TS MOVD NE CB DSNT NE-E MOV NE TCU DSNT W-N P0010 T02610239,0,4,0,11263,1,0,0,"DS,TS"
2026-04-28 00:53:00,METAR KDAL 280053Z 30006KT 4SM R13L/6000VP6000FT +TSRA SCT028 BKN039CB OVC110 26/22 A2976 RMK AO2 RAB00GRB04E16 SLP072 VIS NW-NE 1 1/2 FRQ LTGICCCCG TS ALQDS MOV NE P0086 T02560222,0,6,0,6436,1,0,0,"DS,RA,TS"
2026-04-28 00:44:00,SPECI KDAL 280044Z VRB03KT 7SM -TSRA SCT028 BKN042CB BKN100 BKN250 26/23 A2976 RMK AO2 RAB00GRB04E16 OCNL LTGICCCCG TS NE-SE-SW-W MOV NE P0082 T02610228,0,3,0,11263,1,0,0,"RA,TS"
2026-04-28 00:18:00,SPECI KDAL 280018Z 02009KT 5SM R13L/2600VP6000FT +TSRA SCT030CB BKN070 BKN110 BKN250 25/19 A2975 RMK AO2 RAB00GRB04E16 FRQ LTGICCCCG TS N-E-S-SW MOV NE P0030 T02500189,0,9,0,8045,1,0,0,"RA,TS"
2026-04-28 00:06:00,SPECI KDAL 280006Z 21010G25KT 1SM R13L/1600VP6000FT +TSGRRA BKN038CB BKN070 OVC110 28/23 A2977 RMK AO2 RAB00GRB04 PRESRR OCNL LTGIC TS ALQDS MOV NE GR LESS THAN 1/4 P0001 T02830233,0,10,1,1609,1,0,0,"DS,GR,RA,SS,TS"
2026-04-28 00:04:00,SPECI KDAL 280004Z 18014G25KT 4SM R13L/4000VP6000FT +TSGRRA BKN080CB BKN120 BKN250 29/23 A2975 RMK AO2 RAB00GRB04 PRESRR OCNL LTGIC TS ALQDS MOV NE GR LESS THAN 1/4 P0000 T02940228,0,14,1,6436,1,0,0,"DS,GR,RA,SS,TS"
2026-04-27 23:53:00,METAR KDAL 272353Z 16014G21KT 9SM TS BKN080CB BKN120 BKN250 31/22 A2972 RMK AO2 TSB50 PRESFR SLP057 OCNL LTGIC TS ALQDS MOV NE T03110217 10339 20306 58007,0,14,1,14481,1,0,0,"DS,TS"
2026-04-27 22:53:00,METAR KDAL 272253Z 17009KT 10SM SCT070TCU SCT090 33/20 A2974 RMK AO2 SLP062 TCU E SE-SW-W AND DSNT N-NE T03280200,0,9,0,16090,0,0,0,DS
2026-04-27 21:53:00,METAR KDAL 272153Z 21008KT 10SM FEW070TCU FEW090 SCT200 33/20 A2973 RMK AO2 SLP060 TCU E T03280200,0,8,0,16090,0,0,0,
2026-04-27 20:53:00,METAR KDAL 272053Z 22006KT 10SM FEW050 FEW070 SCT220 33/18 A2974 RMK AO2 SLP063 T03330183 58010,0,6,0,16090,0,0,0,
2026-04-27 19:53:00,METAR KDAL 271953Z 22005KT 10SM FEW040 FEW220 33/18 A2975 RMK AO2 SLP067 T03280183,0,5,0,16090,0,0,0,
2026-04-27 18:53:00,METAR KDAL 271853Z 17006KT 9SM FEW034 FEW220 32/21 A2976 RMK AO2 SLP071 T03220211,0,6,0,14481,0,0,0,
2026-04-27 17:53:00,METAR KDAL 271753Z 19010KT 8SM FEW032 FEW250 31/22 A2977 RMK AO2 SLP073 T03060217 10311 20244 50004,0,10,0,12872,0,0,0,
2026-04-27 16:53:00,METAR KDAL 271653Z 21011G18KT 7SM FEW027 SCT032 29/22 A2978 RMK AO2 SLP075 T02940222,0,11,1,11263,0,0,0,
2026-04-27 16:00:00,SPECI KDAL 271600Z 20012G21KT 7SM SCT027 28/22 A2978 RMK AO2 T02830217,0,12,1,11263,0,0,0,
2026-04-27 15:53:00,METAR KDAL 271553Z 21014G21KT 7SM BKN027 28/22 A2977 RMK AO2 SLP074 BKN V SCT T02830217,0,14,1,11263,0,0,0,
2026-04-27 15:27:00,SPECI KDAL 271527Z 20014G23KT 7SM BKN026 BKN035 28/22 A2977 RMK AO2 T02780217,0,14,1,11263,0,0,0,
2026-04-27 14:53:00,METAR KDAL 271453Z 20010G20KT 7SM FEW024 SCT035 27/22 A2976 RMK AO2 SLP069 T02720217 51007,0,10,1,11263,0,0,0,
2026-04-27 13:53:00,METAR KDAL 271353Z 18007G18KT 6SM HZ SCT022 SCT028 BKN035 26/21 A2975 RMK AO2 SLP067 T02560211,0,7,1,9654,0,0,0,
2026-04-27 12:53:00,METAR KDAL 271253Z 18012G19KT 6SM HZ FEW023 SCT029 SCT035 25/21 A2975 RMK AO2 SLP065 T02500206,0,12,1,9654,0,0,0,
2026-04-27 12:43:00,SPECI KDAL 271243Z 18009G19KT 6SM HZ FEW023 SCT029 OVC035 25/21 A2974 RMK AO2 SCT V BKN T02500206,0,9,1,9654,0,0,0,
2026-04-27 11:53:00,METAR KDAL 271153Z 17008KT 7SM BKN025 OVC033 24/21 A2974 RMK AO2 SLP062 T02440206 10250 20239 53015,0,8,0,11263,0,0,0,
2026-04-27 10:53:00,METAR KDAL 271053Z 20011G21KT 8SM OVC020 24/21 A2971 RMK AO2 SLP051 T02440206,0,11,1,12872,0,0,0,
2026-04-27 09:53:00,METAR KDAL 270953Z 19007G21KT 7SM OVC017 24/21 A2969 RMK AO2 SLP047 T02440211,0,7,1,11263,0,0,0,
2026-04-27 08:53:00,METAR KDAL 270853Z 18012G21KT 7SM BKN018 24/21 A2969 RMK AO2 SLP048 T02390211 55003,0,12,1,11263,0,0,0,
2026-04-27 08:15:00,SPECI KDAL 270815Z 18014G23KT 7SM BKN016 24/21 A2969 RMK AO2 T02390211,0,14,1,11263,0,0,0,
2026-04-27 07:53:00,METAR KDAL 270753Z 18015G23KT 7SM SCT015 24/21 A2968 RMK AO2 SLP044 T02390211,0,15,1,11263,0,0,0,
2026-04-27 06:53:00,METAR KDAL 270653Z 18012G21KT 7SM FEW020 25/22 A2969 RMK AO2 SLP047 T02500217,0,12,1,11263,0,0,0,
2026-04-27 05:53:00,METAR KDAL 270553Z 18011G20KT 8SM FEW020 25/22 A2970 RMK AO2 SLP050 T02500217 10294 20250 403000211 57003,0,11,1,12872,0,0,0,
2026-04-27 04:53:00,METAR KDAL 270453Z 17010G21KT 8SM FEW035 26/22 A2970 RMK AO2 SLP051 T02560217,0,10,1,12872,0,0,0,
2026-04-27 03:53:00,METAR KDAL 270353Z 17011G17KT 9SM CLR 26/21 A2971 RMK AO2 SLP054 T02610211,0,11,1,14481,0,0,0,
2026-04-27 02:53:00,METAR KDAL 270253Z 16008KT 10SM FEW250 27/21 A2971 RMK AO2 SLP054 T02670211 53013,0,8,0,16090,0,0,0,
2026-04-27 01:53:00,METAR KDAL 270153Z 15008KT 10SM FEW250 27/21 A2968 RMK AO2 SLP045 T02720206,0,8,0,16090,0,0,0,
2026-04-27 00:53:00,METAR KDAL 270053Z 16010G20KT 10SM FEW055 FEW250 28/21 A2966 RMK AO2 SLP038 T02830206 $,0,10,1,16090,0,0,0,
2026-04-26 23:53:00,METAR KDAL 262353Z 17012G19KT 8SM FEW045 FEW055 29/21 A2967 RMK AO2 SLP040 T02940211 10300 20261 56016 $,0,12,1,12872,0,0,0,
2026-04-26 22:53:00,METAR KDAL 262253Z 17012G20KT 9SM FEW037 SCT050 29/21 A2967 RMK AO2 SLP042 T02940211 $,0,12,1,14481,0,0,0,
2026-04-26 21:53:00,METAR KDAL 262153Z 17011G20KT 8SM SCT033 SCT048 29/21 A2969 RMK AO2 SLP047 T02890211 $,0,11,1,12872,0,0,0,
2026-04-26 20:53:00,METAR KDAL 262053Z 17011G20KT 7SM FEW031 FEW049 SCT250 28/21 A2972 RMK AO2 SLP056 T02830211 56019 $,0,11,1,11263,0,0,0,
2026-04-26 19:53:00,METAR KDAL 261953Z 18011G19KT 7SM SCT027 SCT040 BKN250 28/21 A2973 RMK AO2 SLP061 T02830211 $,0,11,1,11263,0,0,0,
2026-04-26 18:53:00,METAR KDAL 261853Z 18010G19KT 8SM SCT028 OVC040 27/21 A2975 RMK AO2 SLP069 T02670206 $,0,10,1,12872,0,0,0,
2026-04-26 18:37:00,SPECI KDAL 261837Z 18012G19KT 8SM SCT028 OVC040 27/21 A2976 RMK AO2 T02670206 $,0,12,1,12872,0,0,0,
2026-04-26 17:53:00,METAR KDAL 261753Z 17013G20KT 7SM BKN026 OVC037 27/21 A2978 RMK AO2 SLP076 T02670206 10267 20228 56009 $,0,13,1,11263,0,0,0,
2026-04-26 17:09:00,SPECI KDAL 261709Z 18008G19KT 150V220 7SM SCT023 BKN035 BKN250 26/21 A2979 RMK AO2 T02610206 $,0,8,1,11263,0,0,0,
2026-04-26 16:53:00,METAR KDAL 261653Z 17014G20KT 7SM BKN025 BKN033 26/21 A2979 RMK AO2 SLP080 T02560206 $,0,14,1,11263,0,0,0,
2026-04-26 15:53:00,METAR KDAL 261553Z 15012G20KT 7SM BKN020 BKN035 OVC250 26/21 A2978 RMK AO2 SLP078 T02560211 $,0,12,1,11263,0,0,0,
2026-04-26 15:30:00,SPECI KDAL 261530Z 15012G19KT 7SM SCT016 SCT027 BKN250 26/21 A2979 RMK AO2 T02560211 $,0,12,1,11263,0,0,0,
2026-04-26 15:08:00,SPECI KDAL 261508Z 13013G20KT 7SM SCT015 BKN026 BKN250 24/21 A2979 RMK AO2 T02440211 $,0,13,1,11263,0,0,0,
2026-04-26 14:53:00,METAR KDAL 261453Z 16012G19KT 6SM HZ SCT015 SCT028 BKN055 BKN250 25/21 A2980 RMK AO2 SLP084 T02500211 50017 $,0,12,1,9654,0,0,0,
2026-04-26 14:04:00,SPECI KDAL 261404Z 14009G18KT 5SM BR SCT012 SCT030 BKN055 BKN250 23/22 A2980 RMK AO2 T02330217 $,0,9,1,8045,0,0,1,BR
2026-04-26 13:53:00,METAR KDAL 261353Z 14011KT 5SM BR BKN011 BKN032 BKN055 BKN250 23/21 A2980 RMK AO2 SLP086 T02330211 $,0,11,0,8045,0,0,1,BR
2026-04-26 13:35:00,SPECI KDAL 261335Z 13009KT 5SM BR BKN011 BKN025 OVC055 23/21 A2980 RMK AO2 T02280211 $,0,9,0,8045,0,0,1,BR
2026-04-26 13:19:00,SPECI KDAL 261319Z 12009KT 5SM BR SCT012 SCT025 OVC060 23/21 A2980 RMK AO2 T02280211 $,0,9,0,8045,0,0,1,BR
2026-04-26 12:53:00,METAR KDAL 261253Z 11009KT 5SM BR FEW015 BKN023 BKN055 OVC250 23/21 A2979 RMK AO2 SLP080 T02280211,0,9,0,8045,0,0,1,BR
2026-04-26 11:53:00,METAR KDAL 261153Z 15007KT 4SM BR FEW015 SCT250 22/21 A2975 RMK AO2 SLP067 CB DSNT NE MOV SE 60021 70033 T02220211 10256 20211 51016,0,7,0,6436,0,0,1,"BR,DS"
2026-04-26 10:53:00,METAR KDAL 261053Z 09004KT 5SM BR FEW045 SCT250 22/21 A2974 RMK AO2 SLP064 T02220211,0,4,0,8045,0,0,1,BR
2026-04-26 09:53:00,METAR KDAL 260953Z 19004KT 7SM FEW024 FEW250 22/21 A2972 RMK AO2 SLP057 T02220206,0,4,0,11263,0,0,0,
2026-04-26 08:53:00,METAR KDAL 260853Z 16006KT 10SM FEW024 FEW110 FEW250 22/19 A2970 RMK AO2 SLP051 60021 T02170189 50005,0,6,0,16090,0,0,0,
2026-04-26 07:53:00,METAR KDAL 260753Z 16010KT 10SM FEW030 SCT100 SCT250 22/16 A2970 RMK AO2 PK WND 16031/0700 TSE37 SLP052 CONS LTGICC DSNT N SE TS MOVD E CB DSNT N SE MOV E T02220156,0,10,0,16090,1,0,0,"DS,TS"
2026-04-26 07:37:00,SPECI KDAL 260737Z 16010G17KT 10SM FEW030 SCT100 SCT250 21/16 A2970 RMK AO2 PK WND 16031/0700 TSE37 CONS LTGICC DSNT N SE TS MOVD E CB DSNT N SE MOV E T02110161,0,10,1,16090,1,0,0,"DS,TS"
2026-04-26 06:53:00,METAR KDAL 260653Z 16018G28KT 9SM TS SCT036CB BKN120 BKN250 23/20 A2971 RMK AO2 PK WND 17033/0608 RAE50 SLP055 CONS LTGICCCCGCA TS SE-S MOV E P0021 T02280200,0,18,1,14481,1,0,0,TS
2026-04-26 05:53:00,METAR KDAL 260553Z 16021G30KT 4SM TSRA SCT050CB BKN070 OVC100 25/22 A2969 RMK AO2 PK WND 16032/0535 PRESFR SLP045 CONS LTGICCCCGCA TS ALQDS MOV E P0012 60012 T02500217 10289 20244 403060217 58001,0,21,1,6436,1,0,0,"DS,RA,TS"
2026-04-26 04:53:00,METAR KDAL 260453Z 16010G15KT 7SM -TSRA SCT045CB BKN095 OVC120 27/21 A2972 RMK AO2 SLP055 RAB40 TSB09 FRQ LTGICCCCA SW-NW TS SW-NW MOV SE P0000 T02670206,0,10,1,11263,1,0,0,"RA,TS"
2026-04-26 03:53:00,METAR KDAL 260353Z 12004KT 10SM -TSRA FEW048CB BKN100 BKN140 OVC200 27/20 A2975 RMK AO2 SLP066 RAB40 TSB09 FRQ LTGICCCCA S-W-NW TS SW-W-NW MOV SE P0000 T02720200,0,4,0,16090,1,0,0,"RA,TS"
2026-04-26 03:09:00,SPECI KDAL 260309Z 10005KT 10SM TS FEW045CB FEW090 SCT140 BKN200 OVC250 27/21 A2972 RMK AO2 TSB09 OCNL LTGICCCCA W-NW TS W-NW MOV SE T02720206,0,5,0,16090,1,0,0,TS
2026-04-26 02:53:00,METAR KDAL 260253Z 13007KT 10SM FEW045 FEW130 BKN200 OVC250 28/21 A2969 RMK AO2 TSE39 SLP047 OCNL LTGICCA DSNT W-NW CB DSNT W-NW MOV SE T02780206 53012,0,7,0,16090,1,0,0,DS
2026-04-26 02:39:00,SPECI KDAL 260239Z 14010KT 10SM FEW045 FEW130 BKN200 OVC250 28/21 A2967 RMK AO2 TSE39 OCNL LTGIC DSNT W-NW TS DSIPTD CB DSNT W-NW MOV SE T02780206,0,10,0,16090,1,0,0,"DS,TS"
2026-04-26 01:53:00,METAR KDAL 260153Z 12007KT 10SM TS BKN045CB BKN130 BKN200 OVC250 28/21 A2968 RMK AO2 TSB16 SLP043 OCNL LTGICCCCG W-NW TS W-NW MOV SE T02830206,0,7,0,16090,1,0,0,TS
2026-04-26 01:16:00,SPECI KDAL 260116Z COR 14008KT 10SM TS FEW045CB BKN200 BKN250 29/20 A2966 RMK AO2 TSB16 FRQ LTGICCCCG NW TS NW MOV SE T02890200,0,8,0,16090,1,0,0,TS
2026-04-26 00:53:00,METAR KDAL 260053Z 14010KT 10SM FEW041 BKN200 BKN250 29/20 A2965 RMK AO2 SLP034 OCNL LTGIC DSNT NW CB DSNT NW MOV SE T02890200,0,10,0,16090,0,0,0,DS
2026-04-25 23:53:00,METAR KDAL 252353Z 16010G17KT 10SM FEW044 BKN250 29/20 A2966 RMK AO2 SLP036 T02890200 10306 20283 55005,0,10,1,16090,0,0,0,
2026-04-25 22:53:00,METAR KDAL 252253Z 17012G23KT 10SM FEW046 BKN250 29/20 A2964 RMK AO2 SLP030 T02940200,0,12,1,16090,0,0,0,
2026-04-25 21:53:00,METAR KDAL 252153Z 18010G18KT 150V220 9SM SCT038 SCT049 BKN250 30/21 A2966 RMK AO2 PK WND 19026/2121 SLP037 T03000206,0,10,1,14481,0,0,0,
2026-04-25 20:53:00,METAR KDAL 252053Z 17016G21KT 8SM SCT041 BKN250 30/21 A2967 RMK AO2 SLP040 T03000206 56020,0,16,1,12872,0,0,0,
2026-04-25 19:53:00,METAR KDAL 251953Z 17011G20KT 8SM SCT038 BKN250 30/21 A2969 RMK AO2 SLP047 T03000211,0,11,1,12872,0,0,0,
2026-04-25 18:53:00,METAR KDAL 251853Z 17013G20KT 8SM SCT034 BKN250 29/21 A2971 RMK AO2 SLP053 T02940211,0,13,1,12872,0,0,0,
2026-04-25 17:53:00,METAR KDAL 251753Z 20011G18KT 10SM BKN032 BKN250 29/21 A2973 RMK AO2 SLP061 T02890206 10289 20222 58004,0,11,1,16090,0,0,0,
2026-04-25 17:21:00,SPECI KDAL 251721Z 19008KT 160V220 10SM BKN031 BKN250 28/21 A2975 RMK AO2 T02780206,0,8,0,16090,0,0,0,
2026-04-25 16:53:00,METAR KDAL 251653Z 18008KT 10SM BKN027 BKN250 28/21 A2976 RMK AO2 SLP069 T02780211,0,8,0,16090,0,0,0,
2026-04-25 15:53:00,METAR KDAL 251553Z 18010KT 10SM BKN023 BKN032 BKN250 27/21 A2975 RMK AO2 SLP068 T02670211,0,10,0,16090,0,0,0,
2026-04-25 14:53:00,METAR KDAL 251453Z 17013G19KT 8SM BKN016 BKN250 26/22 A2974 RMK AO2 SLP064 T02560217 50005,0,13,1,12872,0,0,0,
2026-04-25 13:53:00,METAR KDAL 251353Z 17011KT 7SM BKN010 BKN016 24/22 A2975 RMK AO2 SLP067 T02390217,0,11,0,11263,0,0,0,
2026-04-25 13:45:00,SPECI KDAL 251345Z 17010KT 6SM BR BKN010 BKN016 24/22 A2975 RMK AO2 T02390217,0,10,0,9654,0,0,1,BR
2026-04-25 12:53:00,METAR KDAL 251253Z 15010G16KT 5SM HZ BKN008 OVC015 23/21 A2975 RMK AO2 SLP066 T02280211,0,10,1,8045,0,0,0,
2026-04-25 12:13:00,SPECI KDAL 251213Z 13007KT 5SM HZ BKN009 22/21 A2973 RMK AO2 T02220206,0,7,0,8045,0,0,0,
2026-04-25 11:53:00,METAR KDAL 251153Z 13010KT 6SM HZ SCT012 BKN023 22/21 A2973 RMK AO2 SLP059 T02220206 10228 20217 53009,0,10,0,9654,0,0,0,
2026-04-25 11:15:00,SPECI KDAL 251115Z 13009KT 7SM FEW014 BKN025 22/20 A2972 RMK AO2 T02220200,0,9,0,11263,0,0,0,
2026-04-25 10:53:00,METAR KDAL 251053Z COR 13008KT 10SM FEW025 SCT032 22/19 A2972 RMK AO2 SLP055 T02220194,0,8,0,16090,0,0,0,
2026-04-25 09:53:00,METAR KDAL 250953Z 12007KT 10SM FEW025 22/19 A2970 RMK AO2 SLP049 T02220189,0,7,0,16090,0,0,0,
2026-04-25 08:53:00,METAR KDAL 250853Z 14009KT 10SM FEW025 FEW035 23/19 A2970 RMK AO2 SLP050 T02280189 58004,0,9,0,16090,0,0,0,
2026-04-25 07:53:00,METAR KDAL 250753Z 13009KT 10SM FEW030 FEW250 23/19 A2970 RMK AO2 SLP051 T02280194,0,9,0,16090,0,0,0,
2026-04-25 06:53:00,METAR KDAL 250653Z 09007KT 10SM FEW035 SCT250 22/18 A2972 RMK AO2 SLP057 T02170183,0,7,0,16090,0,0,0,
2026-04-25 05:53:00,METAR KDAL 250553Z 07009G16KT 10SM FEW045 BKN250 22/17 A2971 RMK AO2 SLP055 CONS LTGICCC DSNT E CB DSNT E MOV SE T02220172 10317 20222 403280222 53016,0,9,1,16090,0,0,0,DS
2026-04-25 04:53:00,METAR KDAL 250453Z 06006KT 10SM FEW045 FEW120 BKN250 24/15 A2970 RMK AO2 SLP049 CONS LTGICCC DSNT E CB DSNT E MOV E T02390150,0,6,0,16090,0,0,0,DS
2026-04-25 03:53:00,METAR KDAL 250353Z 00000KT 10SM FEW045 FEW120 BKN250 24/13 A2968 RMK AO2 SLP044 CONS LTGICCCCG DSNT E CB DSNT E MOV SE T02440133,0,0,0,16090,0,0,0,DS
2026-04-25 02:53:00,METAR KDAL 250253Z 21003KT 10SM FEW050 SCT120 BKN250 28/12 A2967 RMK AO2 SLP038 CONS LTGICCCCG DSNT NE CB DSNT NE MOV SE T02830117 53017,0,3,0,16090,0,0,0,DS
2026-04-25 01:53:00,METAR KDAL 250153Z 34008KT 10SM FEW060 BKN250 28/13 A2965 RMK AO2 SLP033 CB DSNT NW MOV E T02780128,0,8,0,16090,0,0,0,DS
2026-04-25 00:53:00,METAR KDAL 250053Z 23005KT 10SM FEW060 SCT250 31/16 A2962 RMK AO2 SLP023 CB DSNT NE MOV E T03060161,0,5,0,16090,0,0,0,DS
2026-04-24 23:53:00,METAR KDAL 242353Z 21008KT 10SM FEW065 FEW250 32/16 A2962 RMK AO2 SLP021 T03170161 10328 20283 55007,0,8,0,16090,0,0,0,
2026-04-24 22:53:00,METAR KDAL 242253Z 20006KT 10SM FEW065 FEW250 32/16 A2961 RMK AO2 SLP020 T03220161,0,6,0,16090,0,0,0,
2026-04-24 21:53:00,METAR KDAL 242153Z 20010G18KT 10SM FEW060 FEW250 32/17 A2961 RMK AO2 SLP020 T03170172,0,10,1,16090,0,0,0,
2026-04-24 20:53:00,METAR KDAL 242053Z 22008KT 10SM FEW055 FEW250 32/18 A2964 RMK AO2 SLP028 T03170178 58020,0,8,0,16090,0,0,0,
2026-04-24 19:53:00,METAR KDAL 241953Z 21007G18KT 10SM SCT049 SCT250 31/19 A2966 RMK AO2 SLP035 T03110194,0,7,1,16090,0,0,0,
2026-04-24 18:53:00,METAR KDAL 241853Z 22008KT 10SM SCT043 BKN250 30/19 A2968 RMK AO2 SLP041 T03000194,0,8,0,16090,0,0,0,
2026-04-24 17:53:00,METAR KDAL 241753Z 20009KT 10SM SCT038 BKN048 BKN250 29/19 A2969 RMK AO2 SLP047 T02890194 10289 20222 58003,0,9,0,16090,0,0,0,
2026-04-24 16:53:00,METAR KDAL 241653Z 21008G17KT 10SM FEW025 BKN038 28/21 A2971 RMK AO2 SLP054 T02780206,0,8,1,16090,0,0,0,
2026-04-24 16:21:00,SPECI KDAL 241621Z 21010G17KT 10SM SCT023 BKN034 BKN042 27/20 A2971 RMK AO2 T02670200,0,10,1,16090,0,0,0,
2026-04-24 15:53:00,METAR KDAL 241553Z 20010G17KT 10SM BKN027 BKN040 26/20 A2971 RMK AO2 SLP054 BKN027 V SCT T02560200,0,10,1,16090,0,0,0,
2026-04-24 15:15:00,SPECI KDAL 241515Z 21010G16KT 10SM BKN024 BKN035 BKN048 25/21 A2970 RMK AO2 BKN024 V SCT T02500206,0,10,1,16090,0,0,0,
2026-04-24 14:53:00,METAR KDAL 241453Z 18007KT 10SM FEW019 SCT027 BKN035 BKN250 25/21 A2970 RMK AO2 SLP051 T02500206 51007,0,7,0,16090,0,0,0,
2026-04-24 14:07:00,SPECI KDAL 241407Z 18011G18KT 10SM SCT017 BKN027 OVC042 23/20 A2971 RMK AO2 T02330200,0,11,1,16090,0,0,0,
2026-04-24 13:53:00,METAR KDAL 241353Z 18011G19KT 10SM FEW019 BKN031 BKN046 23/20 A2970 RMK AO2 SLP051 T02330200,0,11,1,16090,0,0,0,
2026-04-24 13:12:00,SPECI KDAL 241312Z 18011G18KT 10SM FEW018 SCT026 BKN041 23/20 A2969 RMK AO2 T02280200,0,11,1,16090,0,0,0,
2026-04-24 12:53:00,METAR KDAL 241253Z 18012G23KT 10SM FEW017 BKN026 BKN040 BKN200 BKN250 23/19 A2969 RMK AO2 SLP048 T02280194,0,12,1,16090,0,0,0,
2026-04-24 12:15:00,SPECI KDAL 241215Z 18008G18KT 10SM SCT018 BKN026 BKN037 BKN200 BKN250 23/19 A2969 RMK AO2 T02280194,0,8,1,16090,0,0,0,
2026-04-24 11:53:00,METAR KDAL 241153Z 18009KT 10SM SCT018 BKN040 BKN200 BKN250 22/19 A2968 RMK AO2 SLP044 T02220194 10239 20222 51002,0,9,0,16090,0,0,0,
2026-04-24 11:00:00,SPECI KDAL 241100Z 16013G20KT 10SM SCT022 BKN033 BKN048 OVC250 23/19 A2968 RMK AO2 T02280189,0,13,1,16090,0,0,0,
2026-04-24 10:53:00,METAR KDAL 241053Z 17009G20KT 10SM SCT022 BKN027 BKN048 OVC250 23/19 A2968 RMK AO2 SLP043 T02280189,0,9,1,16090,0,0,0,
2026-04-24 09:53:00,METAR KDAL 240953Z 19009G24KT 10SM OVC021 23/19 A2968 RMK AO2 SLP044 T02280189,0,9,1,16090,0,0,0,
2026-04-24 08:53:00,METAR KDAL 240853Z 18017G28KT 10SM BKN022 BKN250 23/19 A2967 RMK AO2 PK WND 17028/0851 SLP042 T02330189 56008,0,17,1,16090,0,0,0,
2026-04-24 07:53:00,METAR KDAL 240753Z 18016G25KT 10SM BKN023 BKN250 23/19 A2968 RMK AO2 SLP043 T02330189,0,16,1,16090,0,0,0,
2026-04-24 06:53:00,METAR KDAL 240653Z 17013G23KT 10SM BKN023 BKN250 23/19 A2969 RMK AO2 PK WND 17026/0610 SLP048 T02330194,0,13,1,16090,0,0,0,
2026-04-24 06:43:00,SPECI KDAL 240643Z 17011G22KT 10SM BKN023 BKN250 23/19 A2970 RMK AO2 PK WND 17026/0610 T02330194,0,11,1,16090,0,0,0,
2026-04-24 05:53:00,METAR KDAL 240553Z 17011G21KT 10SM BKN250 24/19 A2970 RMK AO2 PK WND 18026/0515 SLP050 T02390194 10261 20239 402720206 58003,0,11,1,16090,0,0,0,
2026-04-24 04:53:00,METAR KDAL 240453Z 18013G23KT 10SM BKN250 24/19 A2970 RMK AO2 SLP051 T02440194,0,13,1,16090,0,0,0,
2026-04-24 03:53:00,METAR KDAL 240353Z 18012KT 10SM FEW060 BKN250 24/19 A2971 RMK AO2 SLP056 T02440189,0,12,0,16090,0,0,0,
2026-04-24 02:53:00,METAR KDAL 240253Z 17010KT 10SM BKN250 24/19 A2971 RMK AO2 SLP054 T02440189 53000,0,10,0,16090,0,0,0,
2026-04-24 01:53:00,METAR KDAL 240153Z 16013G18KT 10SM BKN250 25/19 A2970 RMK AO2 SLP052 T02500189,0,13,1,16090,0,0,0,
2026-04-24 00:53:00,METAR KDAL 240053Z 17010G20KT 10SM FEW060 BKN250 26/18 A2970 RMK AO2 SLP051 T02610183,0,10,1,16090,0,0,0,
2026-04-23 23:53:00,METAR KDAL 232353Z 16012G21KT 10SM FEW047 BKN060 BKN250 26/19 A2971 RMK AO2 SLP052 T02610189 10272 20233 56015,0,12,1,16090,0,0,0,
2026-04-23 22:53:00,METAR KDAL 232253Z 17012G18KT 10SM FEW038 BKN050 BKN250 27/18 A2971 RMK AO2 SLP055 T02670183,0,12,1,16090,0,0,0,
2026-04-23 21:53:00,METAR KDAL 232153Z 18013G23KT 10SM SCT036 BKN050 BKN250 27/18 A2972 RMK AO2 SLP057 T02720183,0,13,1,16090,0,0,0,
2026-04-23 20:53:00,METAR KDAL 232053Z 18017G27KT 10SM FEW034 SCT043 BKN050 BKN250 26/18 A2975 RMK AO2 PK WND 21028/2039 SLP069 T02610183 58024,0,17,1,16090,0,0,0,
2026-04-23 19:53:00,METAR KDAL 231953Z 18012G19KT 10SM SCT028 BKN034 BKN046 26/18 A2979 RMK AO2 SLP081 T02560183,0,12,1,16090,0,0,0,
2026-04-23 18:53:00,METAR KDAL 231853Z 17012G20KT 10SM FEW023 BKN028 OVC034 24/18 A2980 RMK AO2 SLP087 T02390183,0,12,1,16090,0,0,0,
2026-04-23 18:39:00,SPECI KDAL 231839Z 19011G20KT 10SM FEW023 BKN028 OVC034 24/18 A2981 RMK AO2 T02390178,0,11,1,16090,0,0,0,
2026-04-23 18:00:00,SPECI KDAL 231800Z 17010G21KT 10SM FEW021 SCT028 OVC034 23/18 A2982 RMK AO2 T02330183,0,10,1,16090,0,0,0,
2026-04-23 17:53:00,METAR KDAL 231753Z 16015G21KT 10SM FEW021 BKN028 OVC034 24/18 A2982 RMK AO2 SLP094 BKN V SCT T02390183 10239 20206 58019,0,15,1,16090,0,0,0,
2026-04-23 17:00:00,SPECI KDAL 231700Z 18014G22KT 10SM FEW021 BKN026 OVC034 23/18 A2985 RMK AO2 T02280178,0,14,1,16090,0,0,0,
2026-04-23 16:53:00,METAR KDAL 231653Z 18012G21KT 10SM FEW021 SCT026 OVC034 23/18 A2986 RMK AO2 SLP104 SCT V BKN T02280178,0,12,1,16090,0,0,0,
2026-04-23 16:27:00,SPECI KDAL 231627Z 17012G21KT 10SM FEW020 SCT028 OVC034 23/18 A2986 RMK AO2 T02280178,0,12,1,16090,0,0,0,
2026-04-23 15:53:00,METAR KDAL 231553Z 17012G20KT 10SM FEW018 BKN025 OVC032 22/18 A2987 RMK AO2 SLP108 T02220178,0,12,1,16090,0,0,0,
2026-04-23 14:53:00,METAR KDAL 231453Z 18008G17KT 10SM OVC021 22/18 A2988 RMK AO2 SLP113 T02170178 51010,0,8,1,16090,0,0,0,
2026-04-23 13:53:00,METAR KDAL 231353Z 18009G15KT 10SM OVC020 21/18 A2987 RMK AO2 SLP110 T02110178,0,9,1,16090,0,0,0,
2026-04-23 12:53:00,METAR KDAL 231253Z 18011KT 10SM OVC018 21/18 A2986 RMK AO2 SLP105 T02110178,0,11,0,16090,0,0,0,
2026-04-23 11:53:00,METAR KDAL 231153Z 18009G21KT 10SM OVC017 21/18 A2985 RMK AO2 SLP103 T02110178 10217 20206 53004,0,9,1,16090,0,0,0,
2026-04-23 10:53:00,METAR KDAL 231053Z 17012G21KT 10SM OVC019 21/18 A2984 RMK AO2 SLP100 T02110178,0,12,1,16090,0,0,0,
2026-04-23 09:53:00,METAR KDAL 230953Z 18013G21KT 10SM OVC017 21/18 A2985 RMK AO2 SLP101 T02110178,0,13,1,16090,0,0,0,
2026-04-23 08:53:00,METAR KDAL 230853Z 17007KT 10SM BKN016 21/18 A2984 RMK AO2 SLP099 T02060183 56014,0,7,0,16090,0,0,0,
2026-04-23 07:53:00,METAR KDAL 230753Z 18012G18KT 10SM OVC016 21/18 A2985 RMK AO2 SLP103 T02110183,0,12,1,16090,0,0,0,
2026-04-23 06:53:00,METAR KDAL 230653Z 17009KT 10SM BKN016 21/18 A2987 RMK AO2 SLP108 T02060183,0,9,0,16090,0,0,0,
2026-04-23 06:29:00,SPECI KDAL 230629Z 17008KT 10SM BKN016 21/18 A2988 RMK AO2 T02110183,0,8,0,16090,0,0,0,
2026-04-23 05:53:00,METAR KDAL 230553Z 17010KT 10SM SCT015 SCT250 22/18 A2988 RMK AO2 SLP114 T02170183 10250 20217 402610156 58004,0,10,0,16090,0,0,0,
2026-04-23 04:53:00,METAR KDAL 230453Z 16012G17KT 10SM FEW050 FEW250 22/19 A2989 RMK AO2 SLP115 T02220189,0,12,1,16090,0,0,0,
2026-04-23 03:53:00,METAR KDAL 230353Z 15008KT 10SM SCT050 SCT250 23/19 A2989 RMK AO2 SLP117 T02330189,0,8,0,16090,0,0,0,
2026-04-23 02:53:00,METAR KDAL 230253Z 14011G19KT 10SM SCT044 BKN250 23/19 A2990 RMK AO2 SLP119 T02330189 53002,0,11,1,16090,0,0,0,
2026-04-23 01:53:00,METAR KDAL 230153Z 14010KT 10SM SCT035 23/19 A2989 RMK AO2 SLP116 T02330194,0,10,0,16090,0,0,0,
2026-04-23 00:53:00,METAR KDAL 230053Z 14007KT 10SM FEW033 FEW050 SCT250 24/19 A2988 RMK AO2 SLP113 TCU DSNT W T02390194,0,7,0,16090,0,0,0,DS
2026-04-22 23:53:00,METAR KDAL 222353Z 15010KT 10SM FEW033 SCT045 25/19 A2989 RMK AO2 SLP116 TCU DSNT SW-NW-N T02500194 10261 20200 56022,0,10,0,16090,0,0,0,DS
2026-04-22 22:53:00,METAR KDAL 222253Z 12007KT 10SM SCT025 BKN039 BKN250 25/19 A2990 RMK AO2 SLP120 MDT CU E-S AND DSNT N-E-S-SW T02500194,0,7,0,16090,0,0,0,DS
2026-04-22 21:53:00,METAR KDAL 222153Z 19006KT 10SM SCT025 BKN037 BKN250 25/19 A2992 RMK AO2 SLP128 MDT CU N-NE E-SE S-SW T02500194,0,6,0,16090,0,0,0,
2026-04-22 21:35:00,SPECI KDAL 222135Z 18008KT 10SM SCT020 BKN037 BKN250 24/19 A2993 RMK AO2 MDT CU NE-SE T02440194,0,8,0,16090,0,0,0,
2026-04-22 20:53:00,METAR KDAL 222053Z 17005KT 9SM SCT014 BKN017 BKN028 BKN250 23/19 A2996 RMK AO2 SLP139 T02330194 58026,0,5,0,14481,0,0,0,
2026-04-22 20:31:00,SPECI KDAL 222031Z 14004KT 8SM SCT012 BKN015 OVC023 23/19 A2997 RMK AO2 BINOVC T02280189,0,4,0,12872,0,0,0,VC
2026-04-22 19:53:00,METAR KDAL 221953Z 13007KT 7SM BKN012 OVC015 22/19 A2999 RMK AO2 SLP152 T02170189,0,7,0,11263,0,0,0,
2026-04-22 18:53:00,METAR KDAL 221853Z 16005KT 6SM HZ OVC010 21/18 A3001 RMK AO2 SLP159 T02110183,0,5,0,9654,0,0,0,
2026-04-22 18:30:00,SPECI KDAL 221830Z 16007KT 6SM BR OVC010 21/18 A3002 RMK AO2 T02060183,0,7,0,9654,0,0,1,BR
2026-04-22 17:53:00,METAR KDAL 221753Z 17008KT 5SM BR OVC007 20/18 A3003 RMK AO2 SLP165 60000 T02000178 10200 20156 58013,0,8,0,8045,0,0,1,BR
2026-04-22 16:53:00,METAR KDAL 221653Z 12008KT 3SM BR OVC006 18/17 A3006 RMK AO2 SLP176 VIS NE 2 1/2 T01830172,0,8,0,4827,0,0,1,BR
2026-04-22 16:48:00,SPECI KDAL 221648Z 14007KT 3SM BR OVC006 18/17 A3006 RMK AO2 VIS NE 2 1/2,0,7,0,4827,0,0,1,BR
2026-04-22 16:00:00,SPECI KDAL 221600Z 13007KT 2SM BR OVC004 17/17 A3007 RMK AO2 T01720167,0,7,0,3218,0,0,1,BR
2026-04-22 15:53:00,METAR KDAL 221553Z 13006KT 1 3/4SM BR OVC004 17/17 A3007 RMK AO2 SLP178 VIS SE 2 T01720167,0,6,0,2816,0,0,1,BR
2026-04-22 14:53:00,METAR KDAL 221453Z 13006KT 1 1/2SM BR OVC004 16/16 A3007 RMK AO2 SLP179 60000 T01610161 50001,0,6,0,2414,0,0,1,BR
2026-04-22 14:28:00,SPECI KDAL 221428Z 13004KT 1 1/2SM BR OVC004 16/16 A3007 RMK AO2 T01610156,0,4,0,2414,0,0,1,BR
2026-04-22 13:53:00,METAR KDAL 221353Z 15004KT 2SM BR OVC006 16/16 A3008 RMK AO2 RAB41E53 SLP181 VIS NE 1 3/4 P0000 T01610156,0,4,0,3218,0,0,1,"BR,RA"
2026-04-22 13:27:00,SPECI KDAL 221327Z 14007KT 2SM BR OVC006 16/15 A3008 RMK AO2 T01560150,0,7,0,3218,0,0,1,BR
2026-04-22 12:53:00,METAR KDAL 221253Z 13008KT 4SM BR OVC006 16/15 A3007 RMK AO2 SLP179 VIS NE 2 1/2 T01560150,0,8,0,6436,0,0,1,BR
2026-04-22 11:53:00,METAR KDAL 221153Z 12005KT 6SM BR OVC008 16/15 A3007 RMK AO2 RAB21E42 CIG 006V011 SLP178 P0001 60010 70087 T01560150 10161 20156 53000,0,5,0,9654,0,0,1,"BR,RA"
2026-04-22 10:53:00,METAR KDAL 221053Z 12006KT 8SM BKN007 OVC015 16/15 A3007 RMK AO2 RAB15E51 SLP178 P0009 T01560150,0,6,0,12872,0,0,0,RA
2026-04-22 09:53:00,METAR KDAL 220953Z 12006KT 7SM BKN007 OVC012 16/15 A3006 RMK AO2 RAE10 SLP177 P0000 T01560150,0,6,0,11263,0,0,0,
2026-04-22 08:53:00,METAR KDAL 220853Z 13006KT 5SM -RA BR BKN007 OVC016 16/15 A3007 RMK AO2 RAE0758B27 SLP178 P0000 60000 T01560150 58013,0,6,0,8045,0,0,1,"-RA,BR,RA"
2026-04-22 08:24:00,SPECI KDAL 220824Z COR 11006KT 8SM BKN009 BKN012 OVC020 16/14 A3007 RMK AO2 RAE0758 P0000 T01560144,0,6,0,12872,0,0,0,RA
2026-04-22 07:53:00,METAR KDAL 220753Z 12005KT 8SM -RA FEW008 BKN012 OVC020 16/14 A3008 RMK AO2 RAB06 SLP183 P0000 T01560144,0,5,0,12872,0,0,0,-RA
2026-04-22 06:53:00,METAR KDAL 220653Z 11005KT 10SM SCT009 BKN013 OVC020 16/14 A3010 RMK AO2 RAB17E34 SLP189 P0000 T01560144,0,5,0,16090,0,0,0,RA
2026-04-22 06:09:00,SPECI KDAL 220609Z 12004KT 10SM BKN013 BKN018 OVC075 16/14 A3011 RMK AO2 T01610144,0,4,0,16090,0,0,0,
2026-04-22 05:53:00,METAR KDAL 220553Z 12006KT 10SM FEW011 BKN019 OVC070 16/14 A3011 RMK AO2 SLP191 T01610144 10167 20161 401780139 56009,0,6,0,16090,0,0,0,
2026-04-22 05:47:00,SPECI KDAL 220547Z 12005KT 10SM FEW011 BKN019 OVC070 16/14 A3011 RMK AO2,0,5,0,16090,0,0,0,
2026-04-22 05:34:00,SPECI KDAL 220534Z 13006KT 10SM FEW011 FEW016 BKN065 16/14 A3010 RMK AO2 T01610144,0,6,0,16090,0,0,0,
2026-04-22 05:12:00,SPECI KDAL 220512Z 15007KT 10SM FEW010 SCT013 BKN019 16/14 A3011 RMK AO2 T01610144,0,7,0,16090,0,0,0,
2026-04-22 04:53:00,METAR KDAL 220453Z 15009KT 10SM FEW010 BKN013 OVC021 16/14 A3012 RMK AO2 SLP195 T01610144,0,9,0,16090,0,0,0,
2026-04-22 03:53:00,METAR KDAL 220353Z 13009KT 10SM FEW010 OVC013 17/14 A3013 RMK AO2 SLP201 T01670139,0,9,0,16090,0,0,0,
2026-04-22 02:53:00,METAR KDAL 220253Z 13007KT 10SM FEW011 OVC014 17/14 A3014 RMK AO2 SLP201 T01670139 53002,0,7,0,16090,0,0,0,
2026-04-22 01:53:00,METAR KDAL 220153Z 15009KT 10SM OVC013 17/14 A3013 RMK AO2 SLP198 T01670139,0,9,0,16090,0,0,0,
2026-04-22 00:53:00,METAR KDAL 220053Z 15009KT 10SM OVC014 17/14 A3013 RMK AO2 SLP198 T01670139,0,9,0,16090,0,0,0,
2026-04-21 23:53:00,METAR KDAL 212353Z 13007KT 10SM OVC014 17/14 A3013 RMK AO2 SLP199 60001 T01670139 10178 20144 55005,0,7,0,16090,0,0,0,
2026-04-21 23:22:00,SPECI KDAL 212322Z 13008KT 10SM OVC014 17/14 A3013 RMK AO2 T01670139,0,8,0,16090,0,0,0,
2026-04-21 22:53:00,METAR KDAL 212253Z 14009KT 10SM OVC015 17/14 A3013 RMK AO2 SLP199 T01670139,0,9,0,16090,0,0,0,
2026-04-21 21:53:00,METAR KDAL 212153Z 14011G17KT 10SM SCT015 OVC018 17/13 A3013 RMK AO2 SLP200 T01670133,0,11,1,16090,0,0,0,
2026-04-21 20:53:00,METAR KDAL 212053Z 15012G17KT 10SM FEW015 OVC018 17/13 A3015 RMK AO2 SLP205 60001 T01720133 58009,0,12,1,16090,0,0,0,
2026-04-21 20:25:00,SPECI KDAL 212025Z 16011G20KT 10SM BKN015 OVC018 17/13 A3016 RMK AO2 T01670128,0,11,1,16090,0,0,0,
2026-04-21 19:53:00,METAR KDAL 211953Z 14010G16KT 10SM SCT008 OVC014 16/13 A3017 RMK AO2 RAB23E32 SLP212 P0000 T01610133,0,10,1,16090,0,0,0,RA
2026-04-21 19:38:00,SPECI KDAL 211938Z 15008G16KT 10SM SCT008 OVC012 16/14 A3017 RMK AO2 RAB23E32 P0000 T01610139,0,8,1,16090,0,0,0,RA
2026-04-21 18:53:00,METAR KDAL 211853Z 15013G21KT 10SM BKN008 OVC013 16/14 A3018 RMK AO2 RAE17 SLP218 P0001 T01560139,0,13,1,16090,0,0,0,
2026-04-21 17:53:00,METAR KDAL 211753Z 14013G21KT 6SM -RA BR BKN008 BKN050 OVC095 14/13 A3017 RMK AO2 PRESFR SLP214 P0006 60076 T01440133 10144 20139 58016,0,13,1,9654,0,0,1,"-RA,BR"
2026-04-21 16:53:00,METAR KDAL 211653Z 13008KT 3SM RA BR OVC009 14/14 A3024 RMK AO2 CIG 006V013 SLP237 P0017 T01440139,0,8,0,4827,0,0,1,"BR,RA"
2026-04-21 16:28:00,SPECI KDAL 211628Z 11007KT 4SM RA BR OVC009 14/13 A3024 RMK AO2 P0011 T01390133,0,7,0,6436,0,0,1,"BR,RA"
2026-04-21 16:10:00,SPECI KDAL 211610Z 12005KT 2 1/2SM R13L/5000VP6000FT +RA BR BKN007 OVC011 14/13 A3024 RMK AO2 P0003 T01390133,0,5,0,4022,0,1,1,"+RA,BR"
2026-04-21 15:53:00,METAR KDAL 211553Z VRB06KT 5SM R13L/6000VP6000FT -RA BR BKN007 BKN021 OVC038 14/13 A3024 RMK AO2 SLP235 P0015 T01440133,0,6,0,8045,0,0,1,"-RA,BR"
2026-04-21 15:49:00,SPECI KDAL 211549Z 12004KT 5SM -RA BR BKN007 BKN021 OVC038 14/13 A3024 RMK AO2 P0015,0,4,0,8045,0,0,1,"-RA,BR"
2026-04-21 15:36:00,SPECI KDAL 211536Z 12005KT 4SM -RA BR SCT009 BKN025 OVC038 14/13 A3023 RMK AO2 P0014 T01390133,0,5,0,6436,0,0,1,"-RA,BR"
2026-04-21 15:14:00,SPECI KDAL 211514Z 13007KT 2 1/2SM RA BR SCT028 BKN036 OVC050 14/13 A3022 RMK AO2 P0010 T01390133,0,7,0,4022,0,0,1,"BR,RA"
2026-04-21 14:53:00,METAR KDAL 211453Z 13005KT 1 3/4SM R13L/4000VP6000FT +RA BR SCT021 BKN028 OVC050 14/13 A3022 RMK AO2 SLP230 P0018 60038 T01390133 51011,0,5,0,2816,0,1,1,"+RA,BR"
2026-04-21 14:32:00,SPECI KDAL 211432Z 14005KT 1 3/4SM RA BR BKN023 BKN028 OVC042 14/13 A3022 RMK AO2 P0001 T01390128,0,5,0,2816,0,0,1,"BR,RA"
2026-04-21 13:53:00,METAR KDAL 211353Z 14005KT 5SM -RA BR OVC026 14/13 A3022 RMK AO2 SLP230 P0018 T01390128,0,5,0,8045,0,0,1,"-RA,BR"
2026-04-21 13:33:00,SPECI KDAL 211333Z 13003KT 4SM +RA BR BKN024 BKN030 OVC055 14/12 A3022 RMK AO2 P0013 T01390122,0,3,0,6436,0,1,1,"+RA,BR"
2026-04-21 12:53:00,METAR KDAL 211253Z 14007KT 5SM -RA SCT020 BKN038 OVC070 14/12 A3020 RMK AO2 RAB11 SLP224 P0002 T01440117,0,7,0,8045,0,0,0,-RA
2026-04-21 12:12:00,SPECI KDAL 211212Z 12005KT 10SM -RA SCT020 OVC030 14/12 A3019 RMK AO2 RAB11 P0000 T01440122,0,5,0,16090,0,0,0,-RA
2026-04-21 11:53:00,METAR KDAL 211153Z 10003KT 10SM SCT020 OVC029 14/12 A3019 RMK AO2 RAB1054E45 SLP218 P0002 60003 70003 T01440122 10167 20139 55002,0,3,0,16090,0,0,0,RA
2026-04-21 11:26:00,SPECI KDAL 211126Z 13004KT 10SM -RA SCT021 OVC028 14/12 A3018 RMK AO2 RAB1054 P0002 T01390117,0,4,0,16090,0,0,0,"-RA,RA"
2026-04-21 10:53:00,METAR KDAL 211053Z 16004KT 10SM OVC031 15/11 A3018 RMK AO2 RAB24E51 SLP216 P0001 T01500111,0,4,0,16090,0,0,0,RA
2026-04-21 09:53:00,METAR KDAL 210953Z 17005KT 10SM OVC035 16/10 A3019 RMK AO2 RAE27 SLP218 P0000 T01560100,0,5,0,16090,0,0,0,
2026-04-21 08:53:00,METAR KDAL 210853Z VRB04KT 10SM -RA BKN045 OVC050 15/11 A3019 RMK AO2 RAB16 SLP220 P0000 60000 T01500106 56013,0,4,0,16090,0,0,0,-RA
2026-04-21 07:53:00,METAR KDAL 210753Z 18005KT 10SM SCT060 OVC095 16/09 A3020 RMK AO2 SLP223 T01610094,0,5,0,16090,0,0,0,
2026-04-21 06:53:00,METAR KDAL 210653Z 18005KT 10SM OVC130 16/09 A3022 RMK AO2 SLP228 T01610089,0,5,0,16090,0,0,0,
2026-04-21 05:53:00,METAR KDAL 210553Z COR 19005KT 10SM OVC120 17/09 A3023 RMK AO2 SLP232 T01670089 10206 20167 402170122 51008,0,5,0,16090,0,0,0,
2026-04-21 04:53:00,METAR KDAL 210453Z 19005KT 10SM BKN140 OVC250 17/08 A3022 RMK AO2 SLP230 T01720083,0,5,0,16090,0,0,0,
2026-04-21 03:53:00,METAR KDAL 210353Z VRB03KT 10SM BKN140 BKN250 18/08 A3022 RMK AO2 SLP228 T01780083,0,3,0,16090,0,0,0,
2026-04-21 02:53:00,METAR KDAL 210253Z 21006KT 10SM BKN140 BKN250 19/06 A3021 RMK AO2 SLP224 T01890061 53004,0,6,0,16090,0,0,0,
2026-04-21 01:53:00,METAR KDAL 210153Z 16008KT 10SM FEW070 BKN140 BKN250 19/07 A3019 RMK AO2 SLP220 T01940067,0,8,0,16090,0,0,0,
2026-04-21 00:53:00,METAR KDAL 210053Z 16005KT 10SM FEW090 FEW140 SCT210 SCT250 19/06 A3018 RMK AO2 SLP218 T01940056,0,5,0,16090,0,0,0,
2026-04-20 23:53:00,METAR KDAL 202353Z 18009KT 10SM FEW060 FEW090 SCT220 SCT250 21/06 A3020 RMK AO2 SLP222 T02060056 10217 20206 58009,0,9,0,16090,0,0,0,
2026-04-20 22:53:00,METAR KDAL 202253Z 17008G14KT 10SM FEW090 SCT220 BKN250 21/05 A3020 RMK AO2 SLP224 T02110050,0,8,1,16090,0,0,0,
2026-04-20 21:53:00,METAR KDAL 202153Z VRB04KT 10SM FEW090 FEW150 BKN220 BKN250 21/06 A3022 RMK AO2 SLP230 T02060056,0,4,0,16090,0,0,0,
2026-04-20 20:53:00,METAR KDAL 202053Z 14009KT 10SM FEW060 FEW110 SCT200 BKN250 21/05 A3022 RMK AO2 SLP231 T02110050 56026,0,9,0,16090,0,0,0,
2026-04-20 19:53:00,METAR KDAL 201953Z 13006KT 10SM FEW060 FEW120 SCT200 BKN250 21/06 A3024 RMK AO2 SLP238 T02060056,0,6,0,16090,0,0,0,
2026-04-20 18:53:00,METAR KDAL 201853Z 17007KT 10SM FEW060 FEW180 BKN250 21/05 A3028 RMK AO2 SLP249 T02060050,0,7,0,16090,0,0,0,
2026-04-20 17:53:00,METAR KDAL 201753Z 17008G18KT 10SM FEW060 SCT250 21/05 A3030 RMK AO2 SLP256 T02110050 10211 20133 50001,0,8,1,16090,0,0,0,
2026-04-20 16:53:00,METAR KDAL 201653Z 16012G19KT 10SM FEW060 BKN250 19/04 A3031 RMK AO2 SLP260 T01940044,0,12,1,16090,0,0,0,
2026-04-20 15:53:00,METAR KDAL 201553Z 15009G20KT 10SM FEW060 OVC250 18/05 A3030 RMK AO2 SLP258 T01830050,0,9,1,16090,0,0,0,
2026-04-20 14:53:00,METAR KDAL 201453Z 13008KT 10SM FEW055 OVC250 16/06 A3030 RMK AO2 SLP256 T01610061 51009,0,8,0,16090,0,0,0,
2026-04-20 13:53:00,METAR KDAL 201353Z 13009KT 10SM FEW055 OVC250 15/06 A3030 RMK AO2 SLP256 T01500061,0,9,0,16090,0,0,0,
2026-04-20 12:53:00,METAR KDAL 201253Z 13008KT 10SM FEW055 OVC250 14/06 A3029 RMK AO2 SLP253 T01390061,0,8,0,16090,0,0,0,
2026-04-20 11:53:00,METAR KDAL 201153Z 13006KT 10SM BKN250 13/06 A3027 RMK AO2 SLP246 T01330056 10139 20122 50005,0,6,0,16090,0,0,0,
2026-04-20 10:53:00,METAR KDAL 201053Z 12003KT 10SM BKN250 13/06 A3027 RMK AO2 SLP248 T01280056,0,3,0,16090,0,0,0,
2026-04-20 09:53:00,METAR KDAL 200953Z 13004KT 10SM SCT200 BKN250 13/05 A3027 RMK AO2 SLP245 T01280050,0,4,0,16090,0,0,0,
2026-04-20 08:53:00,METAR KDAL 200853Z 12006KT 10SM FEW200 BKN250 13/06 A3025 RMK AO2 SLP240 T01280056 58004,0,6,0,16090,0,0,0,
2026-04-20 07:53:00,METAR KDAL 200753Z 10006KT 10SM BKN250 13/06 A3025 RMK AO2 SLP241 T01330056,0,6,0,16090,0,0,0,
2026-04-20 06:53:00,METAR KDAL 200653Z 12004KT 10SM FEW200 BKN250 13/06 A3027 RMK AO2 SLP246 T01330056,0,4,0,16090,0,0,0,
2026-04-20 05:53:00,METAR KDAL 200553Z 11004KT 10SM SCT200 BKN250 14/06 A3026 RMK AO2 SLP245 T01390056 10206 20139 402220056 51003,0,4,0,16090,0,0,0,
2026-04-20 04:53:00,METAR KDAL 200453Z 10004KT 10SM BKN250 15/06 A3026 RMK AO2 SLP245 T01500056,0,4,0,16090,0,0,0,
2026-04-20 03:53:00,METAR KDAL 200353Z 12004KT 10SM BKN250 16/06 A3027 RMK AO2 SLP246 T01560061,0,4,0,16090,0,0,0,
2026-04-20 02:53:00,METAR KDAL 200253Z 00000KT 10SM BKN250 16/05 A3026 RMK AO2 SLP242 T01610050 53006,0,0,0,16090,0,0,0,
2026-04-20 01:53:00,METAR KDAL 200153Z 08004KT 10SM BKN250 18/04 A3024 RMK AO2 SLP237 T01780039,0,4,0,16090,0,0,0,
2026-04-20 00:53:00,METAR KDAL 200053Z 10004KT 10SM BKN250 19/03 A3023 RMK AO2 SLP233 T01940033,0,4,0,16090,0,0,0,
2026-04-19 23:53:00,METAR KDAL 192353Z 10010KT 10SM BKN250 21/02 A3024 RMK AO2 SLP236 T02060022 10222 20200 56019,0,10,0,16090,0,0,0,
2026-04-19 22:53:00,METAR KDAL 192253Z 10008G19KT 070V130 10SM BKN250 22/01 A3025 RMK AO2 SLP241 T02170011,0,8,1,16090,0,0,0,
2026-04-19 21:53:00,METAR KDAL 192153Z 12007G17KT 10SM BKN250 22/M01 A3027 RMK AO2 SLP246 T02171011,0,7,1,16090,0,0,0,
2026-04-19 20:53:00,METAR KDAL 192053Z 10010G18KT 060V130 10SM SCT250 22/M04 A3029 RMK AO2 SLP254 T02221039 56024,0,10,1,16090,0,0,0,
2026-04-19 19:53:00,METAR KDAL 191953Z 11009G17KT 10SM FEW250 22/01 A3031 RMK AO2 SLP261 T02170011,0,9,1,16090,0,0,0,
2026-04-19 18:53:00,METAR KDAL 191853Z 08012G20KT 10SM FEW250 21/00 A3034 RMK AO2 SLP271 T02110000,0,12,1,16090,0,0,0,
2026-04-19 17:53:00,METAR KDAL 191753Z 08005KT 10SM FEW250 20/03 A3036 RMK AO2 SLP279 60000 T02000028 10200 20061 58003,0,5,0,16090,0,0,0,
2026-04-19 16:53:00,METAR KDAL 191653Z 14006KT 10SM FEW250 18/02 A3038 RMK AO2 SLP286 T01780017,0,6,0,16090,0,0,0,
2026-04-19 15:53:00,METAR KDAL 191553Z 11004KT 10SM FEW250 16/03 A3039 RMK AO2 SLP289 T01610028,0,4,0,16090,0,0,0,
2026-04-19 14:53:00,METAR KDAL 191453Z 11006KT 10SM FEW250 15/03 A3037 RMK AO2 SLP283 P0000 60000 T01500028 51012,0,6,0,16090,0,0,0,
2026-04-19 13:53:00,METAR KDAL 191353Z 00000KT 10SM SCT250 12/06 A3037 RMK AO2 SLP282 T01170061,0,0,0,16090,0,0,0,
2026-04-19 12:53:00,METAR KDAL 191253Z 00000KT 10SM VCFG FEW000 SCT250 09/04 A3036 RMK AO2 SLP277 FG FEW000 T00890044,0,0,0,16090,0,0,1,"FG,VC"
2026-04-19 11:53:00,METAR KDAL 191153Z 00000KT 10SM VCFG FEW000 FEW250 06/03 A3034 RMK AO2 SLP272 FG FEW000 70031 T00610033 10089 20056 51004,0,0,0,16090,0,0,1,"FG,VC"
2026-04-19 10:53:00,METAR KDAL 191053Z 00000KT 10SM SCT250 06/03 A3034 RMK AO2 SLP272 T00610033,0,0,0,16090,0,0,0,
2026-04-19 09:53:00,METAR KDAL 190953Z 00000KT 10SM FEW200 BKN250 07/04 A3034 RMK AO2 SLP273 T00670039,0,0,0,16090,0,0,0,
2026-04-19 08:53:00,METAR KDAL 190853Z 00000KT 10SM FEW200 BKN250 07/04 A3033 RMK AO2 SLP269 T00720044 51003,0,0,0,16090,0,0,0,
2026-04-19 07:53:00,METAR KDAL 190753Z 00000KT 10SM FEW200 SCT250 07/04 A3033 RMK AO2 SLP268 T00670044,0,0,0,16090,0,0,0,
2026-04-19 06:53:00,METAR KDAL 190653Z 00000KT 10SM FEW200 SCT250 07/05 A3033 RMK AO2 SLP269 T00720050,0,0,0,16090,0,0,0,
2026-04-19 05:53:00,METAR KDAL 190553Z 00000KT 10SM SCT200 SCT250 09/05 A3032 RMK AO2 SLP266 T00890050 10156 20083 402390083 51017,0,0,0,16090,0,0,0,
2026-04-19 04:53:00,METAR KDAL 190453Z 00000KT 10SM FEW200 BKN250 09/04 A3031 RMK AO2 SLP263 T00940044,0,0,0,16090,0,0,0,
2026-04-19 03:53:00,METAR KDAL 190353Z 02004KT 10SM SCT150 BKN250 11/05 A3030 RMK AO2 SLP258 T01060050,0,4,0,16090,0,0,0,
2026-04-19 02:53:00,METAR KDAL 190253Z 01003KT 10SM FEW140 BKN250 12/05 A3027 RMK AO2 SLP249 T01170050 53021,0,3,0,16090,0,0,0,
2026-04-19 01:53:00,METAR KDAL 190153Z 02004KT 10SM FEW140 BKN250 13/04 A3024 RMK AO2 SLP237 T01330039,0,4,0,16090,0,0,0,
2026-04-19 00:53:00,METAR KDAL 190053Z 00000KT 10SM SCT140 BKN250 15/05 A3022 RMK AO2 SLP231 T01500050,0,0,0,16090,0,0,0,
2026-04-18 23:53:00,METAR KDAL 182353Z VRB05KT 10SM FEW100 FEW120 BKN250 16/04 A3021 RMK AO2 SLP225 60002 T01560039 10156 20106 55004,0,5,0,16090,0,0,0,
2026-04-18 22:53:00,METAR KDAL 182253Z 02006KT 10SM FEW100 FEW120 BKN140 BKN250 15/04 A3018 RMK AO2 SLP215 T01500039,0,6,0,16090,0,0,0,
2026-04-18 21:53:00,METAR KDAL 182153Z VRB05KT 10SM FEW110 BKN140 OVC250 15/05 A3018 RMK AO2 PRESRR SLP215 T01500050,0,5,0,16090,0,0,0,
2026-04-18 20:53:00,METAR KDAL 182053Z 33007KT 10SM FEW060 FEW085 OVC120 14/06 A3022 RMK AO2 SLP229 60002 T01390056 51033,0,7,0,16090,0,0,0,
2026-04-18 19:53:00,METAR KDAL 181953Z 34004KT 10SM FEW055 FEW075 OVC120 13/07 A3020 RMK AO2 RAB29E47 SLP223 P0000 T01280067,0,4,0,16090,0,0,0,RA
2026-04-18 18:53:00,METAR KDAL 181853Z 35008KT 10SM FEW041 FEW080 OVC130 11/08 A3017 RMK AO2 RAE39 TSB1758E24 SLP213 TS DSIPTD P0002 T01110078,0,8,0,16090,1,0,0,"DS,TS"
2026-04-18 18:27:00,SPECI KDAL 181827Z 34007KT 10SM -RA FEW037 BKN050 OVC110 11/08 A3016 RMK AO2 TSB1758E24 TS DSIPTD P0002 T01060078,0,7,0,16090,1,0,0,"-RA,DS,TS"
2026-04-18 18:04:00,SPECI KDAL 181804Z 01007KT 10SM -TSRA SCT050 BKN075CB OVC110 11/07 A3014 RMK AO2 TSB1758 OCNL LTGICCG NW AND DSNT SW-W TS NW MOV NE CB DSNT SW-W MOV NE P0001 T01060072,0,7,0,16090,1,0,0,"DS,RA,TS"
2026-04-18 17:53:00,METAR KDAL 181753Z 03008G14KT 7SM RA SCT065 BKN090 OVC110 10/07 A3012 RMK AO2 PK WND 25032/1711 WSHFT 1713 SLP196 OCNL LTGIC DSNT SW-W CB DSNT SW-W MOV NE P0003 60029 T01000067 10139 20094 53002,0,8,1,11263,0,0,0,"DS,RA"
2026-04-18 17:41:00,SPECI KDAL 181741Z 02007KT 10SM -RA BKN090 OVC110 11/07 A3016 RMK AO2 PK WND 25032/1711 WSHFT 1713 P0001 T01060072,0,7,0,16090,0,0,0,-RA
2026-04-18 17:33:00,SPECI KDAL 181733Z VRB05G22KT 10SM -RA FEW028 FEW041 SCT095 OVC130 10/07 A3020 RMK AO2 PK WND 25032/1711 WSHFT 1713 P0001 T01000072,0,5,1,16090,0,0,0,-RA
2026-04-18 17:20:00,SPECI KDAL 181720Z 30010G32KT 10SM -RA FEW028 SCT041 SCT085 OVC130 10/07 A3025 RMK AO2 PK WND 25032/1711 P0000 T01000072,0,10,1,16090,0,0,0,-RA
2026-04-18 16:53:00,METAR KDAL 181653Z 02013G25KT 10SM -RA SCT048 BKN090 OVC110 09/07 A3004 RMK AO2 PK WND 03029/1635 SLP168 P0011 T00940072,0,13,1,16090,0,0,0,-RA
2026-04-18 15:53:00,METAR KDAL 181553Z 34009G18KT 10SM -RA FEW050 SCT090 BKN110 11/08 A3015 RMK AO2 RAE11B42 TSE07 SLP204 P0001 T01060078,0,9,1,16090,1,0,0,"-RA,RA"
2026-04-18 15:12:00,SPECI KDAL 181512Z VRB04KT 10SM SCT039 SCT070 BKN120 OVC150 11/08 A3008 RMK AO2 RAE11 TSE07 OCNL LTGIC DSNT NE-SE W TS MOVD NE CB DSNT NE-SE W MOV NE P0001 T01060078,0,4,0,16090,1,0,0,"DS,TS"
2026-04-18 14:53:00,METAR KDAL 181453Z 34008G17KT 8SM TSRA SCT065CB BKN090 OVC120 10/07 A3011 RMK AO2 PK WND 33030/1412 TSB1354E40B43 SLP192 OCNL LTGIC OHD DSNT NE-SE TS OHD MOV NE CB DSNT NE-SE MOV NE P0011 60014 T01000072 51054,0,8,1,12872,1,0,0,"DS,RA,TS"
2026-04-18 13:57:00,SPECI KDAL 181357Z 35017G27KT 7SM TSRA FEW017 BKN046CB OVC110 10/06 A3007 RMK AO2 TSB54 PRESRR OCNL LTGIC N AND DSNT S-SW TS N MOV NE CB DSNT S-SW MOV NE P0002 T01000061,0,17,1,11263,1,0,0,"DS,RA,TS"
2026-04-18 13:53:00,METAR KDAL 181353Z 36019G27KT 6SM -RA FEW046 FEW080 OVC110 11/07 A3004 RMK AO2 PK WND 35033/1328 RAB1258 TSE07 SLP168 OCNL LTGIC DSNT SE CB DSNT SE MOV NE P0000 T01060067,0,19,1,9654,1,0,0,"-RA,DS,RA"
2026-04-18 13:42:00,SPECI KDAL 181342Z 01012G24KT 10SM -RA SCT017 BKN085 OVC110 11/08 A3002 RMK AO2 PK WND 35033/1328 RAB1258 TSE07 OCNL LTGIC DSNT SE CB DSNT SE MOV NE P0000 T01060083,0,12,1,16090,1,0,0,"-RA,DS,RA"
2026-04-18 13:13:00,SPECI KDAL 181313Z 34016G29KT 10SM -RA OVC015 12/10 A3002 RMK AO2 PK WND 33029/1306 RAB1258 TSE07 OCNL LTGICCC DSNT NE-SE TS MOVD NE CB DSNT NE-SE MOV NE CIG 012V017 P0000 T01170100,0,16,1,16090,1,0,0,"-RA,DS,RA,TS"
2026-04-18 12:53:00,METAR KDAL 181253Z 33008KT 10SM TS BKN015 OVC039CB 13/11 A3004 RMK AO2 RAE38 TSE22B42 SLP169 OCNL LTGICCCCG E-S AND DSNT SE-S TS E-S MOV NE CB DSNT SE-S MOV NE P0003 T01280111,0,8,0,16090,1,0,0,"DS,TS"
2026-04-18 12:46:00,SPECI KDAL 181246Z VRB05G22KT 10SM TS BKN015 BKN039CB BKN110 OVC250 13/11 A3005 RMK AO2 RAE38 TSE22B42 PRESRR OCNL LTGICCCCG SE-S AND DSNT S TS SE-S MOV NE CB DSNT S MOV NE P0003 T01280111,0,5,1,16090,1,0,0,"DS,TS"
2026-04-18 12:24:00,SPECI KDAL 181224Z COR 05011G22KT 10SM -RA SCT012 BKN018 BKN042 BKN130 BKN250 13/12 A2994 RMK AO2 TSE22 OCNL LTGICCC DSNT E-S-W TS MOVD E CB DSNT E-S-W MOV E P0003 T01330122,0,11,1,16090,1,0,0,"-RA,DS,TS"
2026-04-18 11:53:00,METAR KDAL 181153Z 36016G28KT 6SM TSRA BR FEW008 BKN013CB OVC065 14/13 A2995 RMK AO2 PK WND 33028/1149 WSHFT 1127 TSE19B39 SLP137 OCNL LTGICCC OHD ALQDS AND DSNT NE SW-W TS OHD ALQDS MOV NE CB DSNT NE SW-W MOV NE P0006 60022 7,0,16,1,9654,1,0,1,"BR,DS,RA,TS"
2026-04-18 11:41:00,SPECI KDAL 181141Z 32015G23KT 6SM R13L/3500VP6000FT TSRA BR FEW008 BKN013CB OVC065 15/13 A3000 RMK AO2 WSHFT 1127 TSE19B39 OCNL LTGICCC SW AND DSNT SW-W TS SW MOV NE CB DSNT SW-W MOV NE P0002 T01500133,0,15,1,9654,1,0,1,"BR,DS,RA,TS"
2026-04-18 11:24:00,SPECI KDAL 181124Z 36012G17KT 10SM -RA FEW008 BKN013 OVC065 15/14 A2990 RMK AO2 TSE19 OCNL LTGICCC DSNT NE AND W TS MOVD NE CB DSNT NE AND W MOV NE P0001 T01500144,0,12,1,16090,1,0,0,"-RA,DS,TS"
2026-04-18 11:05:00,SPECI KDAL 181105Z COR 36010G19KT 10SM -TSRA FEW009 BKN015CB OVC050 16/14 A2991 RMK AO2 OCNL LTGICCC NE AND DSNT NW TS NE MOV NE CB DSNT NW MOV NE P0001 T01560144,0,10,1,16090,1,0,0,"DS,RA,TS"
2026-04-18 10:53:00,METAR KDAL 181053Z 01008G17KT 7SM R13L/5500VP6000FT TSRA SCT030CB OVC065 16/14 A2992 RMK AO2 PK WND 36036/1014 WSHFT 1015 TSB47 PRESRR SLP126 OCNL LTGICCC OHD AND DSNT NE NW TS OHD MOV NE CB DSNT NE NW MOV NE P0012 T01560144,0,8,1,11263,1,0,0,"DS,RA,TS"
2026-04-18 10:47:00,SPECI KDAL 181047Z 02011G17KT 4SM R13L/5500VP6000FT +TSRA BR SCT030CB BKN042 OVC055 16/14 A2990 RMK AO2 PK WND 36036/1014 WSHFT 1015 TSB47 PRESRR OCNL LTGICCC OHD AND DSNT NE NW TS OHD MOV NE CB DSNT NE NW MOV NE P0001,0,11,1,6436,1,0,1,"BR,DS,RA,TS"
2026-04-18 10:29:00,SPECI KDAL 181029Z 06014G23KT 7SM -RA SCT012 OVC032 16/14 A2985 RMK AO2 PK WND 36036/1014 WSHFT 1015 PRESFR OCNL LTGICCC CB DSNT N-NE MOV NE P0000 T01560139,0,14,1,11263,0,0,0,"-RA,DS"
2026-04-18 10:26:00,SPECI KDAL 181026Z 04010G25KT 7SM -RA SCT012 BKN029 OVC037 16/14 A2986 RMK AO2 PK WND 36036/1014 OCNL LTGICCC CB DSNT N-NE MOV NE P0000 T01560139,0,10,1,11263,0,0,0,"-RA,DS"
2026-04-18 10:01:00,SPECI KDAL 181001Z 01009G22KT 10SM -RA BKN010 OVC037 17/16 A2987 RMK AO2 OCNL LTGICCC DSNT NW-N BKN010 V SCT CB DSNT NW-N MOV NE P0000 T01720156,0,9,1,16090,0,0,0,"-RA,DS"
2026-04-18 09:53:00,METAR KDAL 180953Z COR 01015G26KT 10SM -RA SCT010 BKN017 OVC037 17/16 A2985 RMK AO2 PK WND 32035/0927 WSHFT 0924 FROPA RAB21 SLP103 OCNL LTGICCC CB DSNT NW-N MOV NE P0004 T01720161,0,15,1,16090,0,0,0,"-RA,DS"
2026-04-18 09:40:00,SPECI KDAL 180940Z COR 01016G32KT 7SM -RA FEW012 BKN019 OVC037 17/16 A2985 RMK AO2 PK WND 32035/0927 WSHFT 0924 FROPA RAB21 OCNL LTGICCC CB DSNT N MOV NE P0004 T01720161,0,16,1,11263,0,0,0,"-RA,DS"
2026-04-18 09:30:00,SPECI KDAL 180930Z 35021G35KT 4SM RA BR FEW014 BKN019 OVC043 19/18 A2984 RMK AO2 PK WND 32035/0927 RAB21 OCNL LTGICCC CB DSNT N MOV NE P0001 T01940178,0,21,1,6436,0,0,1,"BR,DS,RA"
2026-04-18 09:26:00,SPECI KDAL 180926Z 32024G32KT 2 1/2SM RA OVC019 22/19 A2983 RMK AO2 PK WND 32032/0926 RAB21 OCNL LTGICCC CB DSNT N MOV NE P0000 T02220194,0,24,1,4022,0,0,0,"DS,RA"
2026-04-18 08:53:00,METAR KDAL 180853Z 19005G20KT 10SM OVC022 23/19 A2976 RMK AO2 SLP072 T02280189 55009,0,5,1,16090,0,0,0,
2026-04-18 07:53:00,METAR KDAL 180753Z 18014G22KT 10SM BKN022 BKN250 23/19 A2974 RMK AO2 SLP064 BKN022 V SCT T02280189,0,14,1,16090,0,0,0,
2026-04-18 07:22:00,SPECI KDAL 180722Z 18010G25KT 10SM BKN022 BKN250 23/19 A2976 RMK AO2 BKN022 V SCT T02330189,0,10,1,16090,0,0,0,
2026-04-18 06:53:00,METAR KDAL 180653Z 19010G23KT 10SM SCT025 BKN250 23/19 A2977 RMK AO2 PK WND 20028/0607 SLP074 T02330189,0,10,1,16090,0,0,0,
2026-04-18 05:53:00,METAR KDAL 180553Z 19014G25KT 10SM FEW035 BKN250 24/19 A2979 RMK AO2 PK WND 20028/0525 SLP081 T02390189 10278 20239 402830206 50004,0,14,1,16090,0,0,0,
2026-04-18 04:53:00,METAR KDAL 180453Z 18015G24KT 10SM FEW035 FEW200 BKN250 25/19 A2979 RMK AO2 SLP082 T02500194,0,15,1,16090,0,0,0,
2026-04-18 03:53:00,METAR KDAL 180353Z 17017G26KT 10SM BKN250 26/19 A2979 RMK AO2 PK WND 16026/0353 SLP080 T02560189,0,17,1,16090,0,0,0,
2026-04-18 02:53:00,METAR KDAL 180253Z 17011G20KT 10SM FEW075 SCT140 BKN250 26/18 A2978 RMK AO2 SLP078 T02610183 53010,0,11,1,16090,0,0,0,
2026-04-18 01:53:00,METAR KDAL 180153Z 17008G18KT 10SM BKN075 OVC140 27/18 A2976 RMK AO2 SLP071 T02670183,0,8,1,16090,0,0,0,
2026-04-18 00:53:00,METAR KDAL 180053Z COR 15009KT 10SM BKN075 BKN140 BKN250 27/18 A2975 RMK AO2 SLP068 T02720183,0,9,0,16090,0,0,0,
2026-04-17 23:53:00,METAR KDAL 172353Z 16012G22KT 10SM BKN075 OVC140 28/18 A2975 RMK AO2 SLP068 T02780178 10283 20261 56016,0,12,1,16090,0,0,0,
2026-04-17 22:53:00,METAR KDAL 172253Z 17018G27KT 10SM FEW044 FEW055 BKN070 OVC150 28/18 A2976 RMK AO2 PK WND 17028/2158 SLP070 T02830178,0,18,1,16090,0,0,0,
2026-04-17 21:53:00,METAR KDAL 172153Z 17015G25KT 10SM FEW043 SCT049 BKN060 BKN150 OVC250 28/18 A2977 RMK AO2 PK WND 18026/2105 SLP076 T02830178,0,15,1,16090,0,0,0,
2026-04-17 20:53:00,METAR KDAL 172053Z 17017G26KT 10SM FEW038 SCT055 BKN150 27/18 A2980 RMK AO2 PK WND 17026/2052 SLP083 T02720183 58023,0,17,1,16090,0,0,0,
2026-04-17 19:53:00,METAR KDAL 171953Z 17012G20KT 10SM SCT038 BKN047 BKN055 OVC150 27/18 A2984 RMK AO2 SLP097 T02670183,0,12,1,16090,0,0,0,
2026-04-17 18:53:00,METAR KDAL 171853Z 16016G26KT 10SM SCT035 BKN043 BKN050 BKN150 BKN250 27/18 A2985 RMK AO2 PK WND 16029/1807 SLP101 T02670183,0,16,1,16090,0,0,0,
2026-04-17 17:53:00,METAR KDAL 171753Z 17015G22KT 10SM BKN033 OVC045 26/18 A2987 RMK AO2 PK WND 18027/1711 SLP107 T02610183 10261 20206 58007,0,15,1,16090,0,0,0,
2026-04-17 17:44:00,SPECI KDAL 171744Z 17012G23KT 10SM BKN032 OVC045 26/18 A2987 RMK AO2 PK WND 18027/1711 T02560178 $,0,12,1,16090,0,0,0,
2026-04-17 16:53:00,METAR KDAL 171653Z 17014G20KT 10SM BKN029 BKN039 OVC150 26/18 A2989 RMK AO2 SLP116 T02560183,0,14,1,16090,0,0,0,
2026-04-17 15:53:00,METAR KDAL 171553Z 19012G20KT 10SM BKN025 BKN032 BKN180 BKN250 24/18 A2989 RMK AO2 SLP116 T02440183,0,12,1,16090,0,0,0,
2026-04-17 15:03:00,SPECI KDAL 171503Z 18013G21KT 10SM BKN026 BKN032 BKN180 BKN250 23/18 A2989 RMK AO2 T02330183,0,13,1,16090,0,0,0,
2026-04-17 14:53:00,METAR KDAL 171453Z 18011G19KT 10SM SCT023 BKN030 BKN180 BKN250 23/18 A2989 RMK AO2 SLP114 T02330183 57004,0,11,1,16090,0,0,0,
2026-04-17 14:50:00,SPECI KDAL 171450Z 17011G19KT 10SM SCT023 BKN030 BKN180 BKN250 23/18 A2989 RMK AO2,0,11,1,16090,0,0,0,
2026-04-17 13:58:00,SPECI KDAL 171358Z 17013G21KT 10SM BKN016 BKN024 BKN180 BKN280 22/19 A2990 RMK AO2 T02220189,0,13,1,16090,0,0,0,
2026-04-17 13:53:00,METAR KDAL 171353Z 17012G20KT 10SM SCT016 BKN180 BKN280 22/18 A2990 RMK AO2 SLP118 T02220183,0,12,1,16090,0,0,0,
2026-04-17 13:00:00,SPECI KDAL 171300Z 16010KT 10SM SCT016 SCT250 21/18 A2990 RMK AO2 T02110183,0,10,0,16090,0,0,0,
2026-04-17 12:53:00,METAR KDAL 171253Z 16011KT 10SM BKN016 BKN250 21/18 A2990 RMK AO2 SLP118 BKN016 V SCT T02110183,0,11,0,16090,0,0,0,
2026-04-17 11:56:00,SPECI KDAL 171156Z 17008G15KT 10SM BKN016 BKN250 21/18 A2988 RMK AO2 T02110183,0,8,1,16090,0,0,0,
2026-04-17 11:53:00,METAR KDAL 171153Z 18008G16KT 10SM SCT016 BKN250 21/18 A2988 RMK AO2 SLP111 T02110183 10244 20211 53008,0,8,1,16090,0,0,0,
2026-04-17 11:42:00,SPECI KDAL 171142Z 18011G19KT 10SM SCT016 BKN250 21/18 A2988 RMK AO2 T02110178,0,11,1,16090,0,0,0,
2026-04-17 10:53:00,METAR KDAL 171053Z 18011G23KT 10SM BKN018 21/18 A2987 RMK AO2 SLP108 T02110178,0,11,1,16090,0,0,0,
2026-04-17 09:53:00,METAR KDAL 170953Z 18011KT 10SM FEW020 21/18 A2986 RMK AO2 SLP103 T02110178,0,11,0,16090,0,0,0,
2026-04-17 08:53:00,METAR KDAL 170853Z 17010KT 10SM CLR 22/18 A2985 RMK AO2 SLP102 T02220178 58008,0,10,0,16090,0,0,0,
2026-04-17 07:53:00,METAR KDAL 170753Z 18010G19KT 10SM FEW250 23/18 A2986 RMK AO2 SLP106 T02280183,0,10,1,16090,0,0,0,
2026-04-17 06:53:00,METAR KDAL 170653Z 17012G22KT 10SM FEW250 24/18 A2987 RMK AO2 SLP109 T02390183,0,12,1,16090,0,0,0,
2026-04-17 05:53:00,METAR KDAL 170553Z 17011G19KT 10SM FEW250 24/18 A2988 RMK AO2 SLP111 T02440178 10289 20244 403000200 55000,0,11,1,16090,0,0,0,
2026-04-17 04:53:00,METAR KDAL 170453Z 16013KT 10SM FEW250 25/18 A2987 RMK AO2 SLP106 T02500178,0,13,0,16090,0,0,0,
2026-04-17 03:53:00,METAR KDAL 170353Z 16011G22KT 10SM SCT250 26/18 A2987 RMK AO2 SLP106 T02560178,0,11,1,16090,0,0,0,
2026-04-17 02:53:00,METAR KDAL 170253Z 17009G17KT 10SM SCT250 26/18 A2988 RMK AO2 SLP111 T02610183 53003,0,9,1,16090,0,0,0,
2026-04-17 01:53:00,METAR KDAL 170153Z 17008KT 10SM BKN250 27/18 A2987 RMK AO2 SLP109 T02670183,0,8,0,16090,0,0,0,
2026-04-17 00:53:00,METAR KDAL 170053Z 17011G17KT 10SM FEW055 SCT250 28/18 A2987 RMK AO2 SLP107 T02780178,0,11,1,16090,0,0,0,
2026-04-16 23:53:00,METAR KDAL 162353Z 19012G21KT 10SM FEW050 SCT250 29/17 A2987 RMK AO2 SLP108 T02890172 10300 20272 56009,0,12,1,16090,0,0,0,
2026-04-16 22:53:00,METAR KDAL 162253Z 18010G22KT 10SM FEW048 SCT060 BKN250 29/17 A2988 RMK AO2 SLP111 T02890172,0,10,1,16090,0,0,0,
2026-04-16 21:53:00,METAR KDAL 162153Z 17016G24KT 10SM FEW046 SCT055 29/18 A2988 RMK AO2 SLP112 T02940178,0,16,1,16090,0,0,0,
2026-04-16 20:53:00,METAR KDAL 162053Z 18011G23KT 10SM SCT044 BKN065 29/19 A2990 RMK AO2 SLP117 T02890189 56022,0,11,1,16090,0,0,0,
2026-04-16 19:53:00,METAR KDAL 161953Z 19011G20KT 10SM SCT043 BKN050 29/19 A2992 RMK AO2 SLP125 T02940189,0,11,1,16090,0,0,0,
2026-04-16 18:53:00,METAR KDAL 161853Z 20011G19KT 10SM SCT037 SCT050 BKN150 28/19 A2994 RMK AO2 SLP132 T02830189,0,11,1,16090,0,0,0,
2026-04-16 17:53:00,METAR KDAL 161753Z COR 18010KT 10SM BKN033 BKN050 BKN170 28/19 A2997 RMK AO2 SLP140 T02780189 10278 20200 58004,0,10,0,16090,0,0,0,
2026-04-16 16:53:00,METAR KDAL 161653Z 18009KT 10SM SCT026 BKN049 BKN170 BKN240 26/19 A2998 RMK AO2 SLP145 T02610189,0,9,0,16090,0,0,0,
2026-04-16 15:53:00,METAR KDAL 161553Z COR 19008G16KT 10SM SCT018 BKN050 BKN170 BKN240 24/19 A2998 RMK AO2 SLP144 T02440189,0,8,1,16090,0,0,0,
2026-04-16 14:53:00,METAR KDAL 161453Z 18009KT 10SM BKN018 BKN050 BKN080 23/19 A2998 RMK AO2 SLP144 BKN018 V SCT T02330189 50011,0,9,0,16090,0,0,0,
2026-04-16 14:02:00,SPECI KDAL 161402Z 19009KT 10SM BKN016 BKN030 BKN080 22/18 A2998 RMK AO2 T02170183,0,9,0,16090,0,0,0,
2026-04-16 13:53:00,METAR KDAL 161353Z 18009G17KT 10SM BKN014 BKN028 BKN080 22/18 A2998 RMK AO2 SLP146 T02170183,0,9,1,16090,0,0,0,
2026-04-16 13:14:00,SPECI KDAL 161314Z 18008G18KT 10SM BKN011 BKN034 21/18 A2997 RMK AO2 T02060183,0,8,1,16090,0,0,0,
2026-04-16 12:53:00,METAR KDAL 161253Z 16008KT 10SM SCT011 BKN034 21/18 A2996 RMK AO2 SLP141 T02060183,0,8,0,16090,0,0,0,
2026-04-16 11:53:00,METAR KDAL 161153Z 16007KT 10SM FEW014 FEW250 20/18 A2994 RMK AO2 SLP134 T02000178 10239 20200 53012,0,7,0,16090,0,0,0,
2026-04-16 10:53:00,METAR KDAL 161053Z 17007KT 10SM FEW020 21/18 A2993 RMK AO2 SLP130 T02060178,0,7,0,16090,0,0,0,
2026-04-16 09:53:00,METAR KDAL 160953Z 18009KT 10SM FEW020 21/17 A2991 RMK AO2 SLP123 T02110172,0,9,0,16090,0,0,0,
2026-04-16 08:53:00,METAR KDAL 160853Z 17008KT 10SM CLR 22/18 A2991 RMK AO2 SLP121 T02170178 53000,0,8,0,16090,0,0,0,
2026-04-16 07:53:00,METAR KDAL 160753Z 17009G18KT 10SM FEW020 22/18 A2990 RMK AO2 SLP118 T02220183,0,9,1,16090,0,0,0,
2026-04-16 06:53:00,METAR KDAL 160653Z 17010KT 10SM FEW200 FEW250 23/18 A2989 RMK AO2 SLP116 T02330183,0,10,0,16090,0,0,0,
2026-04-16 05:53:00,METAR KDAL 160553Z 18012G19KT 10SM BKN200 BKN250 24/19 A2991 RMK AO2 SLP120 60000 T02390189 10250 20239 402610217 53004,0,12,1,16090,0,0,0,
2026-04-16 04:53:00,METAR KDAL 160453Z 17009KT 10SM BKN250 24/19 A2989 RMK AO2 SLP115 T02390194,0,9,0,16090,0,0,0,
2026-04-16 03:53:00,METAR KDAL 160353Z 18005KT 10SM FEW085 SCT250 24/20 A2990 RMK AO2 SLP117 T02390200,0,5,0,16090,0,0,0,
2026-04-16 02:53:00,METAR KDAL 160253Z 18007KT 10SM SCT085 BKN250 24/20 A2989 RMK AO2 SLP117 OCNL LTGIC CB DSNT N-NE MOV NE 60000 T02390200 53004,0,7,0,16090,0,0,0,DS
2026-04-16 01:53:00,METAR KDAL 160153Z 18008KT 10SM BKN060 24/20 A2988 RMK AO2 RAB15E26 TSB11E31 SLP113 FRQ LTGICCC DSNT NW-NE TS MOVD NE CB DSNT NW-NE MOV NE P0000 T02390200,0,8,0,16090,1,0,0,"DS,RA,TS"
2026-04-16 01:31:00,SPECI KDAL 160131Z 18007KT 10SM BKN055 24/20 A2988 RMK AO2 RAB15E26 TSB11E31 FRQ LTGICCCCG DSNT W-N-NE TS MOVD NE CB DSNT W-N-NE MOV NE P0000 T02390200,0,7,0,16090,1,0,0,"DS,RA,TS"
2026-04-16 01:11:00,SPECI KDAL 160111Z 18008KT 10SM TS BKN049CB BKN060 BKN250 24/19 A2988 RMK AO2 TSB11 OCNL LTGIC N-NE AND DSNT W-N TS N-NE MOV NE CB DSNT W-N MOV NE T02440194,0,8,0,16090,1,0,0,"DS,TS"
2026-04-16 00:53:00,METAR KDAL 160053Z 18008KT 150V220 10SM FEW030 BKN049 OVC060 24/19 A2988 RMK AO2 SLP111 OCNL LTGIC CB DSNT W-N MOV NE T02440194,0,8,0,16090,0,0,0,DS
2026-04-15 23:53:00,METAR KDAL 152353Z 20008G16KT 10SM FEW030 BKN050 OVC150 25/19 A2988 RMK AO2 PK WND 17026/2322 SLP113 OCNL LTGIC CB DSNT NW MOV NE T02500189 10261 20250 55008,0,8,1,16090,0,0,0,DS
2026-04-15 22:53:00,METAR KDAL 152253Z 19014G25KT 10SM FEW029 SCT045 BKN070 BKN250 26/19 A2988 RMK AO2 SLP111 T02560189,0,14,1,16090,0,0,0,
2026-04-15 21:53:00,METAR KDAL 152153Z 17014G23KT 10SM SCT031 BKN070 BKN170 BKN250 26/19 A2988 RMK AO2 SLP111 T02560189,0,14,1,16090,0,0,0,
2026-04-15 20:53:00,METAR KDAL 152053Z 18011G19KT 10SM BKN036 OVC065 26/19 A2991 RMK AO2 SLP121 MDT CU SW-NW T02610189 58009,0,11,1,16090,0,0,0,
2026-04-15 19:53:00,METAR KDAL 151953Z 18009G23KT 10SM BKN035 OVC065 26/18 A2993 RMK AO2 PK WND 21026/1942 SLP128 T02560183,0,9,1,16090,0,0,0,
2026-04-15 18:53:00,METAR KDAL 151853Z 18011G25KT 10SM SCT028 BKN032 BKN040 BKN170 OVC220 26/18 A2992 RMK AO2 SLP127 T02560183,0,11,1,16090,0,0,0,
2026-04-15 17:53:00,METAR KDAL 151753Z 17012G25KT 10SM SCT027 BKN034 BKN170 OVC220 25/18 A2994 RMK AO2 SLP130 60000 T02500183 10256 20217 58004,0,12,1,16090,0,0,0,
2026-04-15 16:53:00,METAR KDAL 151653Z 17014G22KT 10SM SCT028 BKN039 BKN180 OVC250 24/18 A2996 RMK AO2 SLP137 T02440183,0,14,1,16090,0,0,0,
2026-04-15 15:53:00,METAR KDAL 151553Z 19011G18KT 10SM FEW018 SCT028 BKN041 OVC180 23/18 A2996 RMK AO2 SLP137 T02330183,0,11,1,16090,0,0,0,
2026-04-15 14:53:00,METAR KDAL 151453Z 16005KT 9SM SCT028 BKN043 OVC050 22/19 A2995 RMK AO2 RAB04E30 SLP135 P0000 60000 T02170189 53013,0,5,0,14481,0,0,0,RA
2026-04-15 14:49:00,SPECI KDAL 151449Z 17007KT 9SM SCT028 BKN043 OVC050 22/19 A2995 RMK AO2 RAB04E30 P0000,0,7,0,14481,0,0,0,RA
2026-04-15 14:05:00,SPECI KDAL 151405Z 17009G15KT 8SM -RA BKN029 OVC035 22/19 A2994 RMK AO2 RAB04 P0000 T02170189,0,9,1,12872,0,0,0,-RA
2026-04-15 13:53:00,METAR KDAL 151353Z 17008G16KT 9SM SCT025 BKN033 OVC042 22/18 A2994 RMK AO2 RAE46 SLP132 P0000 T02170183,0,8,1,14481,0,0,0,
2026-04-15 12:53:00,METAR KDAL 151253Z 16010KT 8SM -RA SCT028 OVC035 22/18 A2991 RMK AO2 RAE06B52 SLP121 P0000 T02170183,0,10,0,12872,0,0,0,"-RA,RA"
2026-04-15 12:33:00,SPECI KDAL 151233Z 16007KT 7SM FEW024 OVC035 22/19 A2991 RMK AO2 RAE06 P0000 T02170189,0,7,0,11263,0,0,0,
2026-04-15 11:53:00,METAR KDAL 151153Z 18006KT 7SM -RA OVC019 22/19 A2991 RMK AO2 RAB52 SLP121 P0000 60000 T02170189 10233 20217 55000,0,6,0,11263,0,0,0,-RA
2026-04-15 10:53:00,METAR KDAL 151053Z 17009KT 10SM FEW019 BKN023 OVC027 22/18 A2989 RMK AO2 SLP115 T02220183,0,9,0,16090,0,0,0,
2026-04-15 09:53:00,METAR KDAL 150953Z 17010KT 10SM FEW019 BKN022 OVC029 22/18 A2990 RMK AO2 SLP119 T02220183,0,10,0,16090,0,0,0,
2026-04-15 08:53:00,METAR KDAL 150853Z 19009G18KT 10SM BKN023 BKN160 OVC250 22/18 A2991 RMK AO2 SLP121 T02220183 55004,0,9,1,16090,0,0,0,
2026-04-15 08:42:00,SPECI KDAL 150842Z 18014KT 10SM BKN021 BKN160 OVC250 22/18 A2991 RMK AO2 T02220183,0,14,0,16090,0,0,0,
2026-04-15 07:53:00,METAR KDAL 150753Z 16011G19KT 10SM SCT019 BKN180 OVC250 22/19 A2989 RMK AO2 SLP116 T02220189,0,11,1,16090,0,0,0,
2026-04-15 06:53:00,METAR KDAL 150653Z 16011G18KT 10SM FEW020 FEW160 OVC250 23/19 A2990 RMK AO2 SLP117 T02280189,0,11,1,16090,0,0,0,
2026-04-15 05:53:00,METAR KDAL 150553Z 16009KT 10SM FEW040 SCT170 OVC250 23/19 A2992 RMK AO2 SLP125 T02330194 10261 20233 402670222 50004,0,9,0,16090,0,0,0,
2026-04-15 04:53:00,METAR KDAL 150453Z 16010G22KT 10SM BKN190 OVC250 24/19 A2992 RMK AO2 SLP126 T02390194,0,10,1,16090,0,0,0,
2026-04-15 03:53:00,METAR KDAL 150353Z 14013G19KT 10SM FEW070 BKN220 OVC250 24/19 A2992 RMK AO2 SLP126 T02390194,0,13,1,16090,0,0,0,
2026-04-15 02:53:00,METAR KDAL 150253Z 15012G19KT 10SM FEW045 FEW070 BKN250 25/19 A2991 RMK AO2 SLP122 T02500189 50006,0,12,1,16090,0,0,0,
2026-04-15 01:53:00,METAR KDAL 150153Z 17007KT 10SM FEW070 SCT200 BKN250 25/19 A2992 RMK AO2 SLP125 T02500189,0,7,0,16090,0,0,0,
2026-04-15 00:53:00,METAR KDAL 150053Z 16014G17KT 10SM FEW070 FEW200 BKN250 26/19 A2989 RMK AO2 SLP115 T02560194,0,14,1,16090,0,0,0,
2026-04-14 23:53:00,METAR KDAL 142353Z 17010G22KT 10SM FEW035 FEW070 SCT200 BKN250 26/19 A2989 RMK AO2 SLP116 T02610189 10267 20244 56016,0,10,1,16090,0,0,0,
2026-04-14 22:53:00,METAR KDAL 142253Z 17010G21KT 10SM FEW033 BKN060 BKN075 BKN250 27/19 A2991 RMK AO2 SLP120 T02670194,0,10,1,16090,0,0,0,
2026-04-14 21:53:00,METAR KDAL 142153Z 18012G18KT 10SM BKN035 OVC050 27/19 A2992 RMK AO2 SLP124 T02670189,0,12,1,16090,0,0,0,
2026-04-14 20:53:00,METAR KDAL 142053Z 18014G26KT 10SM FEW028 BKN035 OVC049 26/19 A2994 RMK AO2 PK WND 17026/2049 SLP132 T02610189 56019,0,14,1,16090,0,0,0,
2026-04-14 19:53:00,METAR KDAL 141953Z 20009G19KT 10SM SCT026 BKN034 OVC045 26/19 A2996 RMK AO2 SLP137 T02560194,0,9,1,16090,0,0,0,
2026-04-14 17:53:00,METAR KDAL 141753Z 18011G18KT 10SM SCT022 BKN029 OVC040 24/19 A3000 RMK AO2 SLP151 T02440194 10244 20222 58008,0,11,1,16090,0,0,0,
2026-04-14 16:53:00,METAR KDAL 141653Z 18012G18KT 10SM BKN026 OVC036 24/19 A3001 RMK AO2 SLP157 T02390194,0,12,1,16090,0,0,0,
2026-04-14 16:26:00,SPECI KDAL 141626Z 20012G21KT 10SM SCT024 BKN029 OVC036 24/19 A3002 RMK AO2 T02390189,0,12,1,16090,0,0,0,
2026-04-14 16:12:00,SPECI KDAL 141612Z 18011KT 10SM SCT025 OVC034 24/19 A3002 RMK AO2 T02390189,0,11,0,16090,0,0,0,
2026-04-14 15:53:00,METAR KDAL 141553Z 18009G18KT 10SM BKN025 OVC037 24/19 A3002 RMK AO2 SLP161 T02390189,0,9,1,16090,0,0,0,
2026-04-14 14:53:00,METAR KDAL 141453Z 19010G15KT 10SM SCT021 BKN026 OVC037 23/19 A3002 RMK AO2 SLP159 T02330189 51015,0,10,1,16090,0,0,0,
2026-04-14 13:53:00,METAR KDAL 141353Z 19007G17KT 10SM SCT019 BKN025 OVC035 22/19 A3001 RMK AO2 SLP157 BKN V SCT T02220189,0,7,1,16090,0,0,0,
2026-04-14 12:53:00,METAR KDAL 141253Z 18012G21KT 10SM BKN018 BKN024 OVC029 22/19 A2999 RMK AO2 PK WND 16026/1157 SLP150 T02220189,0,12,1,16090,0,0,0,
2026-04-14 12:42:00,SPECI KDAL 141242Z 18013G22KT 10SM BKN018 OVC029 22/19 A2999 RMK AO2 PK WND 16026/1157 T02220189,0,13,1,16090,0,0,0,
2026-04-14 12:03:00,SPECI KDAL 141203Z 19006G26KT 10SM SCT015 OVC030 22/19 A2998 RMK AO2 PK WND 16026/1157 T02220194,0,6,1,16090,0,0,0,
2026-04-14 11:53:00,METAR KDAL 141153Z 18010G18KT 10SM SCT016 OVC029 22/19 A2998 RMK AO2 SLP144 T02220194 10233 20222 53003,0,10,1,16090,0,0,0,
2026-04-14 10:53:00,METAR KDAL 141053Z 18014G23KT 10SM OVC024 23/19 A2997 RMK AO2 SLP141 T02280189,0,14,1,16090,0,0,0,
2026-04-14 09:53:00,METAR KDAL 140953Z 18014G25KT 10SM OVC019 23/19 A2997 RMK AO2 SLP141 T02280189,0,14,1,16090,0,0,0,
2026-04-14 08:53:00,METAR KDAL 140853Z 17017G26KT 10SM OVC019 23/19 A2996 RMK AO2 PK WND 19027/0811 SLP140 T02280189 58007,0,17,1,16090,0,0,0,
2026-04-14 08:03:00,SPECI KDAL 140803Z 18014G22KT 10SM BKN017 BKN250 23/19 A2997 RMK AO2 T02280194,0,14,1,16090,0,0,0,
2026-04-14 07:53:00,METAR KDAL 140753Z 18015G25KT 10SM SCT017 BKN250 23/19 A2997 RMK AO2 PK WND 18026/0736 SLP142 T02280194,0,15,1,16090,0,0,0,
2026-04-14 07:43:00,SPECI KDAL 140743Z 18012G26KT 10SM SCT019 BKN250 23/19 A2997 RMK AO2 PK WND 18026/0736 T02280194,0,12,1,16090,0,0,0,
2026-04-14 07:18:00,SPECI KDAL 140718Z 18017G25KT 10SM BKN020 BKN250 23/19 A2998 RMK AO2 T02330194,0,17,1,16090,0,0,0,
2026-04-14 06:53:00,METAR KDAL 140653Z 18012G25KT 10SM SCT019 BKN250 23/20 A2998 RMK AO2 PK WND 18027/0630 SLP147 T02330200,0,12,1,16090,0,0,0,
2026-04-14 05:53:00,METAR KDAL 140553Z 17011G20KT 10SM FEW019 BKN250 23/21 A2999 RMK AO2 SLP147 T02330206 10278 20233 402940194 51001,0,11,1,16090,0,0,0,
2026-04-14 04:53:00,METAR KDAL 140453Z 16010G22KT 10SM FEW025 BKN250 24/21 A2998 RMK AO2 SLP146 T02440206,0,10,1,16090,0,0,0,
2026-04-14 03:53:00,METAR KDAL 140353Z 16012G19KT 10SM BKN250 25/21 A2999 RMK AO2 SLP148 T02500206,0,12,1,16090,0,0,0,
2026-04-14 02:53:00,METAR KDAL 140253Z 16009KT 10SM FEW200 BKN250 26/21 A2998 RMK AO2 SLP146 T02560206 53013,0,9,0,16090,0,0,0,
2026-04-14 01:53:00,METAR KDAL 140153Z 17010KT 10SM FEW200 BKN250 26/21 A2996 RMK AO2 SLP140 T02610206,0,10,0,16090,0,0,0,
2026-04-14 00:53:00,METAR KDAL 140053Z 17008KT 10SM FEW200 BKN250 27/21 A2995 RMK AO2 SLP136 T02670206,0,8,0,16090,0,0,0,
2026-04-13 23:53:00,METAR KDAL 132353Z 17010G21KT 10SM FEW050 BKN250 27/20 A2994 RMK AO2 SLP133 T02720200 10294 20267 56010,0,10,1,16090,0,0,0,
2026-04-13 22:53:00,METAR KDAL 132253Z 18011G21KT 10SM FEW042 SCT050 BKN250 28/20 A2994 RMK AO2 SLP133 MDT CU DSNT NE-E T02780200,0,11,1,16090,0,0,0,DS
2026-04-13 21:53:00,METAR KDAL 132153Z 17012G22KT 10SM FEW039 BKN050 BKN250 28/19 A2995 RMK AO2 PK WND 17027/2102 SLP136 MDT CU DSNT E T02830189,0,12,1,16090,0,0,0,DS
2026-04-13 20:53:00,METAR KDAL 132053Z 18015G24KT 10SM SCT035 BKN047 28/19 A2997 RMK AO2 SLP143 T02830194 57024,0,15,1,16090,0,0,0,
2026-04-13 19:53:00,METAR KDAL 131953Z 20009G20KT 150V220 10SM BKN036 BKN050 BKN250 28/20 A3000 RMK AO2 SLP152 T02780200,0,9,1,16090,0,0,0,
2026-04-13 18:53:00,METAR KDAL 131853Z 20011G22KT 10SM SCT032 BKN055 BKN250 28/20 A3002 RMK AO2 SLP160 T02780200,0,11,1,16090,0,0,0,
2026-04-13 17:53:00,METAR KDAL 131753Z 21013G19KT 10SM SCT028 BKN048 BKN250 27/20 A3005 RMK AO2 SLP168 T02670200 10267 20217 58007,0,13,1,16090,0,0,0,
2026-04-13 16:53:00,METAR KDAL 131653Z 18012G18KT 10SM SCT022 SCT027 BKN042 25/21 A3006 RMK AO2 SLP175 T02500206,0,12,1,16090,0,0,0,
2026-04-13 16:34:00,SPECI KDAL 131634Z 17014G23KT 10SM SCT022 SCT027 BKN035 26/21 A3006 RMK AO2 T02560206,0,14,1,16090,0,0,0,
2026-04-13 15:53:00,METAR KDAL 131553Z 18008G22KT 10SM BKN018 BKN024 25/21 A3007 RMK AO2 SLP176 T02500206,0,8,1,16090,0,0,0,
2026-04-13 14:53:00,METAR KDAL 131453Z 18012G20KT 10SM OVC018 23/20 A3007 RMK AO2 SLP177 T02330200 50012,0,12,1,16090,0,0,0,
2026-04-13 14:32:00,SPECI KDAL 131432Z 18009G18KT 10SM BKN016 OVC022 23/20 A3007 RMK AO2 T02330200,0,9,1,16090,0,0,0,
2026-04-13 13:53:00,METAR KDAL 131353Z 18009G18KT 10SM OVC014 22/20 A3007 RMK AO2 SLP178 T02220200,0,9,1,16090,0,0,0,
2026-04-13 12:53:00,METAR KDAL 131253Z 17008G19KT 10SM OVC011 22/20 A3006 RMK AO2 SLP173 T02170200,0,8,1,16090,0,0,0,
2026-04-13 11:53:00,METAR KDAL 131153Z 18012G21KT 10SM OVC014 22/19 A3003 RMK AO2 SLP165 70006 T02170194 10217 20194 53003,0,12,1,16090,0,0,0,
2026-04-13 11:45:00,SPECI KDAL 131145Z 18012G19KT 10SM OVC014 22/19 A3003 RMK AO2 T02170194,0,12,1,16090,0,0,0,
2026-04-13 11:16:00,SPECI KDAL 131116Z 17011G18KT 10SM BKN015 OVC036 22/19 A3003 RMK AO2 T02170194,0,11,1,16090,0,0,0,
2026-04-13 10:53:00,METAR KDAL 131053Z COR 18014G22KT 10SM BKN015 BKN030 OVC035 22/19 A3002 RMK AO2 SLP161 T02170194,0,14,1,16090,0,0,0,
2026-04-13 09:53:00,METAR KDAL 130953Z 18009KT 10SM BKN018 BKN022 OVC028 21/19 A3003 RMK AO2 SLP162 T02110189,0,9,0,16090,0,0,0,
2026-04-13 08:53:00,METAR KDAL 130853Z 17010KT 10SM FEW014 OVC026 20/18 A3003 RMK AO2 SLP162 T02000183 58007,0,10,0,16090,0,0,0,
2026-04-13 08:29:00,SPECI KDAL 130829Z 17010KT 10SM FEW014 BKN026 BKN250 20/18 A3003 RMK AO2 T02000178,0,10,0,16090,0,0,0,
2026-04-13 08:17:00,SPECI KDAL 130817Z 17010G19KT 10SM SCT014 SCT024 BKN250 19/18 A3003 RMK AO2 T01940178,0,10,1,16090,0,0,0,
2026-04-13 08:15:00,SPECI KDAL 130815Z 17010G19KT 10SM SCT014 BKN024 20/18 A3003 RMK AO2 T02000178,0,10,1,16090,0,0,0,
2026-04-13 07:53:00,METAR KDAL 130753Z 18010G18KT 10SM OVC014 20/18 A3003 RMK AO2 SLP164 T02000178,0,10,1,16090,0,0,0,
2026-04-13 06:53:00,METAR KDAL 130653Z 17008KT 10SM OVC018 20/17 A3005 RMK AO2 SLP169 T02000172,0,8,0,16090,0,0,0,
2026-04-13 06:31:00,SPECI KDAL 130631Z 19009G18KT 10SM BKN020 BKN250 21/17 A3005 RMK AO2 T02060172,0,9,1,16090,0,0,0,
2026-04-13 05:53:00,METAR KDAL 130553Z 18015G21KT 10SM FEW018 FEW050 SCT250 21/18 A3005 RMK AO2 PK WND 18032/0528 SLP170 T02110178 10228 20211 402280189 51010,0,15,1,16090,0,0,0,
2026-04-13 04:53:00,METAR KDAL 130453Z 18011G27KT 10SM FEW018 SCT050 BKN250 21/19 A3004 RMK AO2 PK WND 19027/0447 SLP166 T02110189,0,11,1,16090,0,0,0,
2026-04-13 03:53:00,METAR KDAL 130353Z 18011G21KT 10SM FEW015 FEW025 SCT055 BKN250 22/19 A3004 RMK AO2 PK WND 17026/0258 SLP165 CB DSNT E-S MOV NE T02170194,0,11,1,16090,0,0,0,DS
2026-04-13 03:22:00,SPECI KDAL 130322Z 17011G23KT 10SM FEW015 SCT026 SCT045 BKN200 22/19 A3003 RMK AO2 PK WND 17026/0258 OCNL LTGIC CB DSNT E-SE MOV NE T02170194,0,11,1,16090,0,0,0,DS
2026-04-13 02:53:00,METAR KDAL 130253Z 15014G21KT 10SM FEW020 BKN026 BKN045 OVC200 21/19 A3002 RMK AO2 SLP161 OCNL LTGIC CB DSNT E-SE MOV NE T02110189 53019,0,14,1,16090,0,0,0,DS
2026-04-13 02:34:00,SPECI KDAL 130234Z 17015G24KT 10SM BKN027 BKN210 BKN250 22/18 A3001 RMK AO2 OCNL LTGICCC CB DSNT E-S MOV NE T02170183,0,15,1,16090,0,0,0,DS
2026-04-13 01:53:00,METAR KDAL 130153Z 18013G21KT 10SM FEW018 SCT045 BKN210 BKN250 22/19 A2998 RMK AO2 PK WND 17027/0114 SLP146 FRQ LTGICCC CB DSNT SE-S MOV NE T02220194,0,13,1,16090,0,0,0,DS
2026-04-13 00:53:00,METAR KDAL 130053Z 18014G23KT 10SM SCT020 SCT100 BKN190CB BKN250 23/19 A2997 RMK AO2 SLP144 OCNL LTGIC CB DSNT S-SW MOV NE CBMAM N-E MOV NE T02280194,0,14,1,16090,0,0,0,DS
2026-04-12 23:53:00,METAR KDAL 122353Z COR 17012G21KT 10SM FEW013 SCT018 BKN190CB BKN250 23/20 A2996 RMK AO2 CBMAM N-E-OHD-S MOV NE SLP141 60000 T02280200 10228 20200 56011,0,12,1,16090,0,0,0,
2026-04-12 23:43:00,SPECI KDAL 122343Z 18012G21KT 10SM SCT013 BKN016 BKN150 BKN250 23/20 A2996 RMK AO2 BKN016 V SCT T02280200,0,12,1,16090,0,0,0,
2026-04-12 22:53:00,METAR KDAL 122253Z 16012G19KT 10SM SCT009 BKN011 OVC016 22/21 A2997 RMK AO2 RAE41 SLP142 P0000 T02220206,0,12,1,16090,0,0,0,
2026-04-12 22:43:00,SPECI KDAL 122243Z 17010G18KT 10SM SCT009 BKN011 OVC016 22/21 A2997 RMK AO2 RAE41 P0000 T02220206,0,10,1,16090,0,0,0,
2026-04-12 21:53:00,METAR KDAL 122153Z 16010G17KT 9SM -RA OVC009 22/20 A2999 RMK AO2 RAB53 SLP149 P0000 T02170200,0,10,1,14481,0,0,0,-RA
2026-04-12 20:53:00,METAR KDAL 122053Z 16009KT 10SM OVC010 22/19 A3000 RMK AO2 SLP152 60000 T02170194 58019,0,9,0,16090,0,0,0,
2026-04-12 19:53:00,METAR KDAL 121953Z 15012G21KT 10SM BKN010 OVC015 21/19 A3002 RMK AO2 RAE00 SLP161 P0000 T02110189,0,12,1,16090,0,0,0,
2026-04-12 18:53:00,METAR KDAL 121853Z 17005KT 10SM -RA BKN013 OVC020 20/19 A3005 RMK AO2 RAE28B50 SLP169 P0000 T02000189,0,5,0,16090,0,0,0,"-RA,RA"
2026-04-12 17:53:00,METAR KDAL 121753Z 15005KT 10SM -RA FEW007 BKN015 OVC029 21/18 A3005 RMK AO2 RAB53 SLP170 P0000 60006 T02060183 10206 20189 58004,0,5,0,16090,0,0,0,-RA
2026-04-12 17:19:00,SPECI KDAL 121719Z 16007KT 10SM FEW014 BKN026 BKN037 20/18 A3006 RMK AO2 T02000183,0,7,0,16090,0,0,0,
2026-04-12 16:53:00,METAR KDAL 121653Z 17007KT 10SM SCT012 SCT038 BKN050 BKN250 20/18 A3006 RMK AO2 RAB1555E18 SLP174 OCNL LTGIC DSNT E S CB DSNT E S MOV NE P0006 T02000178,0,7,0,16090,0,0,0,"DS,RA"
2026-04-12 16:18:00,SPECI KDAL 121618Z 17008G19KT 10SM SCT009 BKN049 BKN100 BKN250 19/18 A3006 RMK AO2 RAB1555E18 P0006 T01940178,0,8,1,16090,0,0,0,RA
2026-04-12 15:53:00,METAR KDAL 121553Z 18008KT 150V210 10SM BKN013 BKN060 19/17 A3007 RMK AO2 RAB10E23 SLP177 VCSH P0000 T01940172,0,8,0,16090,0,0,0,"RA,SH,VC"
2026-04-12 14:53:00,METAR KDAL 121453Z 18005KT 10SM BKN012 OVC060 19/17 A3006 RMK AO2 SLP175 T01890172 53018,0,5,0,16090,0,0,0,
2026-04-12 14:30:00,SPECI KDAL 121430Z 20005KT 10SM BKN013 BKN060 BKN100 19/17 A3006 RMK AO2 T01890167,0,5,0,16090,0,0,0,
2026-04-12 13:53:00,METAR KDAL 121353Z 18007KT 10SM SCT011 BKN055 BKN110 BKN150 BKN210 19/17 A3004 RMK AO2 SLP167 T01890167,0,7,0,16090,0,0,0,
2026-04-12 13:10:00,SPECI KDAL 121310Z 18013G19KT 10SM SCT011 SCT023 BKN060 BKN150 OVC210 20/17 A3003 RMK AO2 T02000172,0,13,1,16090,0,0,0,
2026-04-12 12:53:00,METAR KDAL 121253Z 19008G15KT 160V220 10SM BKN010 BKN021 BKN060 OVC150 20/18 A3002 RMK AO2 SLP160 T02000183,0,8,1,16090,0,0,0,
2026-04-12 11:53:00,METAR KDAL 121153Z 18008KT 10SM BKN013 BKN050 OVC150 20/18 A3001 RMK AO2 RAE22 SLP156 P0001 60006 70009 T02000183 10217 20200 55004,0,8,0,16090,0,0,0,
2026-04-12 11:29:00,SPECI KDAL 121129Z 21008KT 10SM BKN012 BKN050 BKN120 OVC150 20/18 A3001 RMK AO2 RAE22 PRESRR P0001 T02000183,0,8,0,16090,0,0,0,
2026-04-12 10:53:00,METAR KDAL 121053Z 15015G24KT 10SM -RA FEW012 BKN110 20/18 A2995 RMK AO2 PK WND 15031/1013 SLP136 P0005 T02000183,0,15,1,16090,0,0,0,-RA
2026-04-12 10:02:00,SPECI KDAL 121002Z 15015G29KT 8SM -RA SCT017 BKN043 OVC120 21/18 A2997 RMK AO2 PK WND 15029/0959 PRESFR P0001 T02060183,0,15,1,12872,0,0,0,-RA
2026-04-12 09:53:00,METAR KDAL 120953Z 16017G27KT 7SM RA BKN017 BKN041 OVC070 21/18 A2999 RMK AO2 PK WND 15029/0939 RAB39 SLP149 P0000 T02060183,0,17,1,11263,0,0,0,RA
2026-04-12 08:53:00,METAR KDAL 120853Z 16012G25KT 10SM OVC018 21/18 A3002 RMK AO2 PK WND 16026/0759 SLP160 T02110178 58005,0,12,1,16090,0,0,0,
2026-04-12 07:53:00,METAR KDAL 120753Z 17014G25KT 10SM BKN019 OVC038 22/18 A3003 RMK AO2 SLP164 T02170183,0,14,1,16090,0,0,0,
2026-04-12 06:53:00,METAR KDAL 120653Z 16015G24KT 10SM BKN020 OVC055 22/18 A3004 RMK AO2 SLP167 T02170183,0,15,1,16090,0,0,0,
2026-04-12 05:53:00,METAR KDAL 120553Z 15011G24KT 10SM FEW015 FEW050 BKN095 OVC250 22/18 A3004 RMK AO2 SLP166 60000 T02170183 10261 20217 402670189 58011,0,11,1,16090,0,0,0,
2026-04-12 04:53:00,METAR KDAL 120453Z 14009KT 10SM FEW020 BKN050 OVC250 22/18 A3005 RMK AO2 SLP171 T02170183,0,9,0,16090,0,0,0,
2026-04-12 03:53:00,METAR KDAL 120353Z 14010KT 10SM BKN080 BKN120 OVC250 22/18 A3007 RMK AO2 SLP177 T02170178,0,10,0,16090,0,0,0,
2026-04-12 02:53:00,METAR KDAL 120253Z 14012G18KT 10SM SCT085 BKN120 BKN250 22/17 A3007 RMK AO2 SLP177 60000 T02170172 51006,0,12,1,16090,0,0,0,
2026-04-12 01:53:00,METAR KDAL 120153Z 15011G17KT 10SM BKN085 BKN140 BKN250 22/17 A3007 RMK AO2 PK WND 17028/0054 SLP175 T02170172,0,11,1,16090,0,0,0,
2026-04-12 00:53:00,METAR KDAL 120053Z 15018G26KT 10SM SCT041 BKN080 BKN140 BKN250 23/17 A3006 RMK AO2 PK WND 14032/0018 RAB23E35 SLP174 P0000 T02280167,0,18,1,16090,0,0,0,RA
2026-04-11 23:53:00,METAR KDAL 112353Z 14009G19KT 10SM FEW042 SCT080 BKN130 BKN250 26/16 A3005 RMK AO2 SLP170 60003 T02610161 10267 20233 56019,0,9,1,16090,0,0,0,
2026-04-11 22:53:00,METAR KDAL 112253Z 14009KT 10SM FEW055 SCT090 BKN130 BKN250 27/17 A3005 RMK AO2 SLP171 T02670172,0,9,0,16090,0,0,0,
2026-04-11 21:53:00,METAR KDAL 112153Z 13007KT 090V160 10SM FEW055 FEW090 BKN140 BKN250 26/19 A3007 RMK AO2 SLP177 T02610189,0,7,0,16090,0,0,0,
2026-04-11 20:53:00,METAR KDAL 112053Z 12013KT 10SM FEW055 SCT090 BKN140 BKN250 24/19 A3011 RMK AO2 RAB1955E23 SLP189 P0003 60003 T02440189 56030,0,13,0,16090,0,0,0,RA
2026-04-11 19:53:00,METAR KDAL 111953Z 12011G15KT 10SM SCT028 SCT045 BKN070 BKN140 25/18 A3014 RMK AO2 SLP199 T02500183,0,11,1,16090,0,0,0,
2026-04-11 19:08:00,SPECI KDAL 111908Z 14009KT 10SM SCT028 SCT045 BKN075 BKN140 25/18 A3016 RMK AO2 T02500178,0,9,0,16090,0,0,0,
2026-04-11 18:53:00,METAR KDAL 111853Z 14010KT 10SM BKN028 BKN075 BKN140 26/18 A3016 RMK AO2 RAB15E27 SLP209 P0000 T02560183,0,10,0,16090,0,0,0,RA
2026-04-11 17:53:00,METAR KDAL 111753Z 15007KT 10SM SCT023 BKN040 BKN055 BKN140 24/18 A3020 RMK AO2 SLP220 60000 T02440183 10244 20194 58008,0,7,0,16090,0,0,0,
2026-04-11 17:19:00,SPECI KDAL 111719Z 16010KT 10SM SCT022 BKN041 BKN070 BKN140 24/18 A3021 RMK AO2 T02390183,0,10,0,16090,0,0,0,
2026-04-11 16:53:00,METAR KDAL 111653Z 15010KT 10SM BKN022 BKN055 BKN070 23/18 A3023 RMK AO2 SLP230 T02330183,0,10,0,16090,0,0,0,
2026-04-11 15:53:00,METAR KDAL 111553Z 16010KT 10SM SCT014 BKN033 OVC050 22/19 A3023 RMK AO2 RAE15 SLP232 P0000 T02220189,0,10,0,16090,0,0,0,
2026-04-11 15:41:00,SPECI KDAL 111541Z 16007KT 10SM SCT014 BKN022 BKN041 22/19 A3023 RMK AO2 RAE15 P0000 T02170189,0,7,0,16090,0,0,0,
2026-04-11 14:53:00,METAR KDAL 111453Z 16006KT 7SM -RA BKN014 OVC020 21/18 A3022 RMK AO2 RAB51 SLP229 P0000 60000 T02110183 53012,0,6,0,11263,0,0,0,-RA
2026-04-11 13:53:00,METAR KDAL 111353Z 15004KT 8SM BKN013 BKN028 BKN140 21/18 A3021 RMK AO2 SLP224 T02110183,0,4,0,12872,0,0,0,
2026-04-11 13:28:00,SPECI KDAL 111328Z 12006KT 8SM SCT015 BKN028 BKN140 21/18 A3020 RMK AO2 T02060183,0,6,0,12872,0,0,0,
2026-04-11 12:53:00,METAR KDAL 111253Z 15006KT 10SM BKN011 OVC020 20/18 A3020 RMK AO2 SLP221 CIG 009V013 BKN011 V SCT T02000183,0,6,0,16090,0,0,0,
2026-04-11 12:26:00,SPECI KDAL 111226Z 16006KT 8SM BKN011 OVC019 19/18 A3020 RMK AO2 CIG 009V013 T01940183,0,6,0,12872,0,0,0,
2026-04-11 11:53:00,METAR KDAL 111153Z 19007KT 8SM OVC008 19/18 A3019 RMK AO2 SLP217 T01940178 10200 20189 53006,0,7,0,12872,0,0,0,
2026-04-11 10:53:00,METAR KDAL 111053Z 17003KT 10SM OVC007 19/18 A3017 RMK AO2 SLP210 T01940183,0,3,0,16090,0,0,0,
2026-04-11 09:53:00,METAR KDAL 110953Z 17006KT 10SM BKN007 OVC250 19/18 A3016 RMK AO2 SLP206 T01940183,0,6,0,16090,0,0,0,
2026-04-11 08:53:00,METAR KDAL 110853Z 16007KT 10SM SCT009 BKN120 BKN250 19/18 A3017 RMK AO2 SLP210 T01890178 56008,0,7,0,16090,0,0,0,
2026-04-11 07:53:00,METAR KDAL 110753Z 16007KT 10SM FEW015 FEW120 BKN250 19/18 A3017 RMK AO2 SLP210 T01940178,0,7,0,16090,0,0,0,
2026-04-11 06:53:00,METAR KDAL 110653Z 17009KT 10SM FEW015 SCT120 BKN250 20/18 A3019 RMK AO2 SLP217 T02000178,0,9,0,16090,0,0,0,
2026-04-11 05:53:00,METAR KDAL 110553Z 18006KT 10SM FEW030 SCT110 BKN250 20/18 A3019 RMK AO2 SLP218 60000 T02000178 10267 20200 402780183 55002,0,6,0,16090,0,0,0,
2026-04-11 04:53:00,METAR KDAL 110453Z 15007KT 10SM BKN120 OVC250 21/18 A3018 RMK AO2 RAE41 SLP213 P0000 T02060183,0,7,0,16090,0,0,0,
2026-04-11 03:53:00,METAR KDAL 110353Z 16010KT 10SM -RA SCT090 BKN110 OVC250 21/18 A3020 RMK AO2 RAB46 SLP220 P0000 T02110178,0,10,0,16090,0,0,0,-RA
2026-04-11 02:53:00,METAR KDAL 110253Z 15012G20KT 10SM FEW048 BKN060 BKN110 BKN250 23/16 A3020 RMK AO2 PK WND 16027/0226 SLP220 CB DSNT NW MOV NW TCU DSNT SE AND SW T02280161 53026,0,12,1,16090,0,0,0,DS
2026-04-11 01:53:00,METAR KDAL 110153Z COR 12005KT 10SM FEW050 FEW090 SCT110 BKN250 25/16 A3015 RMK AO2 SLP203 CB DSNT S-SW MOV NW T02500156,0,5,0,16090,0,0,0,DS
2026-04-11 00:53:00,METAR KDAL 110053Z 12009KT 10SM FEW060 SCT110 SCT250 26/16 A3013 RMK AO2 SLP196 CB DSNT SE-S-SW MOV N TCU DSNT E T02610156,0,9,0,16090,0,0,0,DS
2026-04-10 22:53:00,METAR KDAL 102253Z 12010KT 090V160 10SM FEW055 27/15 A3011 RMK AO2 SLP191 T02720150,0,10,0,16090,0,0,0,
2026-04-10 21:53:00,METAR KDAL 102153Z 15011G17KT 10SM SCT050 28/15 A3011 RMK AO2 SLP191 T02780150,0,11,1,16090,0,0,0,
2026-04-10 20:53:00,METAR KDAL 102053Z 16010G15KT 10SM SCT048 27/16 A3012 RMK AO2 SLP194 T02720156 56025,0,10,1,16090,0,0,0,
2026-04-10 19:53:00,METAR KDAL 101953Z 17009KT 10SM FEW043 SCT055 27/16 A3015 RMK AO2 SLP203 T02670161,0,9,0,16090,0,0,0,
2026-04-10 18:53:00,METAR KDAL 101853Z 18010G17KT 10SM BKN038 BKN048 27/17 A3017 RMK AO2 SLP212 T02670167,0,10,1,16090,0,0,0,
2026-04-10 17:53:00,METAR KDAL 101753Z 18009KT 10SM SCT030 SCT036 SCT080 25/17 A3020 RMK AO2 SLP221 T02500167 10256 20183 58003,0,9,0,16090,0,0,0,
2026-04-10 16:53:00,METAR KDAL 101653Z 16010KT 10SM SCT027 BKN032 BKN080 24/17 A3021 RMK AO2 SLP225 T02440172,0,10,0,16090,0,0,0,
2026-04-10 16:49:00,SPECI KDAL 101649Z 18012G17KT 10SM SCT027 BKN032 BKN080 24/17 A3021 RMK AO2,0,12,1,16090,0,0,0,
2026-04-10 16:17:00,SPECI KDAL 101617Z 18006G16KT 10SM BKN022 BKN032 BKN080 23/17 A3021 RMK AO2 T02330172,0,6,1,16090,0,0,0,
2026-04-10 15:53:00,METAR KDAL 101553Z 16011G16KT 10SM SCT020 BKN030 BKN080 23/17 A3021 RMK AO2 SLP223 SCT V BKN T02280172,0,11,1,16090,0,0,0,
2026-04-10 15:37:00,SPECI KDAL 101537Z 17010KT 10SM SCT020 BKN030 BKN080 22/17 A3021 RMK AO2 SCT V BKN T02220172,0,10,0,16090,0,0,0,
2026-04-10 15:02:00,SPECI KDAL 101502Z 16008KT 10SM BKN016 BKN026 BKN075 22/17 A3021 RMK AO2 T02170172,0,8,0,16090,0,0,0,
2026-04-10 14:53:00,METAR KDAL 101453Z 17008KT 10SM FEW016 SCT026 SCT070 21/17 A3021 RMK AO2 SLP225 T02110172 51015,0,8,0,16090,0,0,0,
2026-04-10 13:53:00,METAR KDAL 101353Z 14007KT 9SM FEW015 FEW030 FEW060 20/17 A3020 RMK AO2 SLP220 T02000167,0,7,0,14481,0,0,0,
2026-04-10 13:46:00,SPECI KDAL 101346Z 13008KT 8SM FEW015 FEW030 FEW060 20/17 A3019 RMK AO2 T02000167,0,8,0,12872,0,0,0,
2026-04-10 12:53:00,METAR KDAL 101253Z 17005KT 8SM FEW015 BKN025 BKN060 19/17 A3018 RMK AO2 SLP216 T01890172,0,5,0,12872,0,0,0,
2026-04-10 12:50:00,SPECI KDAL 101250Z 17006KT 8SM FEW015 BKN025 BKN060 19/17 A3018 RMK AO2,0,6,0,12872,0,0,0,
2026-04-10 12:24:00,SPECI KDAL 101224Z 16007KT 8SM FEW015 SCT021 SCT060 19/17 A3017 RMK AO2 T01890167,0,7,0,12872,0,0,0,
2026-04-10 11:53:00,METAR KDAL 101153Z 17005KT 8SM SCT015 BKN021 BKN027 19/17 A3016 RMK AO2 SLP209 T01890172 10206 20183 53014,0,5,0,12872,0,0,0,
2026-04-10 11:39:00,SPECI KDAL 101139Z 16007KT 10SM SCT015 BKN023 BKN060 19/17 A3016 RMK AO2 T01890167,0,7,0,16090,0,0,0,
2026-04-10 10:53:00,METAR KDAL 101053Z 16005KT 10SM FEW016 SCT060 BKN250 18/16 A3014 RMK AO2 SLP202 T01830161,0,5,0,16090,0,0,0,
2026-04-10 09:53:00,METAR KDAL 100953Z 15007KT 10SM FEW016 SCT060 BKN250 19/16 A3013 RMK AO2 SLP198 T01890161,0,7,0,16090,0,0,0,
2026-04-10 08:53:00,METAR KDAL 100853Z 16006KT 10SM FEW030 BKN065 BKN250 20/17 A3012 RMK AO2 SLP195 T02000167 53003,0,6,0,16090,0,0,0,
2026-04-10 07:53:00,METAR KDAL 100753Z 17005KT 10SM FEW035 BKN060 BKN250 20/16 A3012 RMK AO2 SLP193 T02000156,0,5,0,16090,0,0,0,
2026-04-10 06:53:00,METAR KDAL 100653Z 17004KT 10SM FEW055 SCT250 20/14 A3011 RMK AO2 SLP192 T02000144,0,4,0,16090,0,0,0,
2026-04-10 05:53:00,METAR KDAL 100553Z 16008KT 10SM FEW050 SCT250 21/13 A3011 RMK AO2 SLP191 T02060133 10261 20206 402670167 53004,0,8,0,16090,0,0,0,
2026-04-10 04:53:00,METAR KDAL 100453Z 14011KT 10SM BKN065 BKN250 22/13 A3010 RMK AO2 SLP188 T02170128,0,11,0,16090,0,0,0,
2026-04-10 03:53:00,METAR KDAL 100353Z 13008G15KT 10SM FEW070 BKN250 22/13 A3011 RMK AO2 SLP190 T02220128,0,8,1,16090,0,0,0,
2026-04-10 02:53:00,METAR KDAL 100253Z 12008KT 10SM FEW090 BKN250 23/13 A3010 RMK AO2 SLP187 T02280128 53010,0,8,0,16090,0,0,0,
2026-04-10 01:53:00,METAR KDAL 100153Z 15009KT 10SM FEW060 FEW090 BKN250 24/12 A3008 RMK AO2 SLP181 T02440117,0,9,0,16090,0,0,0,
2026-04-10 00:53:00,METAR KDAL 100053Z 12008KT 10SM FEW090 BKN250 25/12 A3007 RMK AO2 SLP177 T02500122,0,8,0,16090,0,0,0,
2026-04-09 23:53:00,METAR KDAL 092353Z 14013G20KT 10SM FEW080 BKN250 26/12 A3007 RMK AO2 SLP177 T02610122 10267 20233 56009,0,13,1,16090,0,0,0,
2026-04-09 22:53:00,METAR KDAL 092253Z 14012KT 10SM FEW070 BKN250 26/13 A3007 RMK AO2 SLP178 T02610128,0,12,0,16090,0,0,0,
2026-04-09 21:53:00,METAR KDAL 092153Z 18009G19KT 10SM FEW055 BKN250 26/13 A3008 RMK AO2 SLP181 T02610128,0,9,1,16090,0,0,0,
2026-04-09 20:53:00,METAR KDAL 092053Z 17010G19KT 10SM SCT055 BKN250 26/13 A3010 RMK AO2 SLP186 T02560133 57023,0,10,1,16090,0,0,0,
2026-04-09 19:53:00,METAR KDAL 091953Z 18010G17KT 10SM SCT055 SCT250 26/14 A3012 RMK AO2 SLP194 T02560139,0,10,1,16090,0,0,0,
2026-04-09 18:53:00,METAR KDAL 091853Z 17008KT 120V200 10SM FEW043 SCT050 24/14 A3014 RMK AO2 SLP202 T02440139,0,8,0,16090,0,0,0,
2026-04-09 17:53:00,METAR KDAL 091753Z 15009KT 10SM SCT034 BKN044 24/16 A3017 RMK AO2 SLP210 T02390156 10239 20167 58005,0,9,0,16090,0,0,0,
2026-04-09 16:53:00,METAR KDAL 091653Z 17008KT 10SM SCT025 BKN036 23/16 A3019 RMK AO2 SLP216 T02280156,0,8,0,16090,0,0,0,
2026-04-09 15:53:00,METAR KDAL 091553Z 19010G18KT 9SM SCT019 BKN024 21/16 A3019 RMK AO2 SLP218 T02110156,0,10,1,14481,0,0,0,
2026-04-09 15:35:00,SPECI KDAL 091535Z 17008G17KT 9SM BKN015 BKN021 20/16 A3019 RMK AO2 T02000156,0,8,1,14481,0,0,0,
2026-04-09 14:53:00,METAR KDAL 091453Z 18009KT 7SM FEW008 BKN012 18/16 A3018 RMK AO2 SLP215 T01830156 51019,0,9,0,11263,0,0,0,
2026-04-09 13:53:00,METAR KDAL 091353Z 14007KT 8SM FEW009 BKN012 BKN022 18/16 A3017 RMK AO2 SLP210 T01830156,0,7,0,12872,0,0,0,
2026-04-09 13:32:00,SPECI KDAL 091332Z 13007KT 8SM SCT009 BKN012 17/15 A3017 RMK AO2 T01720150,0,7,0,12872,0,0,0,
2026-04-09 12:53:00,METAR KDAL 091253Z 15006KT 10SM FEW008 SCT011 17/16 A3015 RMK AO2 SLP205 T01720156,0,6,0,16090,0,0,0,
2026-04-09 11:53:00,METAR KDAL 091153Z 17007KT 10SM FEW007 17/14 A3013 RMK AO2 SLP196 T01670139 10206 20167 51004,0,7,0,16090,0,0,0,
2026-04-09 11:48:00,SPECI KDAL 091148Z 17007KT 10SM FEW007 17/14 A3012 RMK AO2,0,7,0,16090,0,0,0,
2026-04-09 10:53:00,METAR KDAL 091053Z 15006KT 10SM CLR 17/13 A3012 RMK AO2 SLP194 T01670133,0,6,0,16090,0,0,0,
2026-04-09 09:53:00,METAR KDAL 090953Z 16008KT 10SM FEW060 18/13 A3011 RMK AO2 SLP191 T01780133,0,8,0,16090,0,0,0,
2026-04-09 08:53:00,METAR KDAL 090853Z 18008KT 10SM FEW060 19/13 A3010 RMK AO2 SLP188 T01890133 51005,0,8,0,16090,0,0,0,
2026-04-09 07:53:00,METAR KDAL 090753Z 16007KT 10SM CLR 19/12 A3010 RMK AO2 SLP187 T01940122,0,7,0,16090,0,0,0,
2026-04-09 06:53:00,METAR KDAL 090653Z 17008KT 10SM CLR 20/11 A3009 RMK AO2 SLP185 T02000111,0,8,0,16090,0,0,0,
2026-04-09 05:53:00,METAR KDAL 090553Z 16006KT 10SM FEW110 20/11 A3009 RMK AO2 SLP183 T02000111 10250 20189 402560150 51006,0,6,0,16090,0,0,0,
2026-04-09 04:53:00,METAR KDAL 090453Z 13003KT 10SM FEW110 19/11 A3009 RMK AO2 SLP183 T01940111,0,3,0,16090,0,0,0,
2026-04-09 03:53:00,METAR KDAL 090353Z 17006KT 10SM FEW120 22/11 A3008 RMK AO2 SLP182 T02170106,0,6,0,16090,0,0,0,
2026-04-09 02:53:00,METAR KDAL 090253Z 17005KT 10SM FEW120 22/10 A3007 RMK AO2 SLP177 T02220100 53015,0,5,0,16090,0,0,0,
2026-04-09 01:53:00,METAR KDAL 090153Z 16005KT 10SM FEW120 23/09 A3004 RMK AO2 SLP169 T02280094,0,5,0,16090,0,0,0,
2026-04-09 00:53:00,METAR KDAL 090053Z 15010KT 10SM FEW120 24/09 A3003 RMK AO2 SLP165 T02390089,0,10,0,16090,0,0,0,
2026-04-08 23:53:00,METAR KDAL 082353Z 14010G18KT 10SM FEW120 25/09 A3002 RMK AO2 SLP162 T02500089 10256 20233 55006,0,10,1,16090,0,0,0,
2026-04-08 22:53:00,METAR KDAL 082253Z 15016G21KT 10SM FEW065 BKN120 25/08 A3002 RMK AO2 SLP160 T02500083,0,16,1,16090,0,0,0,
2026-04-08 21:53:00,METAR KDAL 082153Z 19012G19KT 10SM FEW065 FEW120 26/08 A3003 RMK AO2 SLP163 T02560078,0,12,1,16090,0,0,0,
2026-04-08 20:53:00,METAR KDAL 082053Z 16013G18KT 10SM FEW065 SCT120 26/09 A3004 RMK AO2 SLP167 T02560089 56023,0,13,1,16090,0,0,0,
2026-04-08 19:53:00,METAR KDAL 081953Z 17011G21KT 10SM FEW060 FEW110 24/09 A3006 RMK AO2 SLP176 T02440089,0,11,1,16090,0,0,0,
2026-04-08 18:53:00,METAR KDAL 081853Z 17006G22KT 10SM FEW055 FEW100 SCT220 24/09 A3008 RMK AO2 SLP181 T02390089,0,6,1,16090,0,0,0,
2026-04-08 17:53:00,METAR KDAL 081753Z COR 16006G16KT 10SM FEW055 BKN100 BKN170 24/07 A3011 RMK AO2 SLP191 T02390072 10244 20150 58005,0,6,1,16090,0,0,0,
2026-04-08 16:53:00,METAR KDAL 081653Z 12006KT 10SM FEW050 BKN110 BKN170 BKN250 22/08 A3013 RMK AO2 SLP197 T02220078,0,6,0,16090,0,0,0,
2026-04-08 15:53:00,METAR KDAL 081553Z 15005KT 10SM FEW100 SCT170 SCT250 22/08 A3013 RMK AO2 SLP198 T02170083,0,5,0,16090,0,0,0,
2026-04-08 14:53:00,METAR KDAL 081453Z 21005KT 10SM FEW120 BKN170 BKN250 19/07 A3013 RMK AO2 SLP197 T01940072 51009,0,5,0,16090,0,0,0,
2026-04-08 13:53:00,METAR KDAL 081353Z 11005KT 10SM FEW120 BKN170 BKN250 17/08 A3012 RMK AO2 SLP196 T01670083,0,5,0,16090,0,0,0,
2026-04-08 12:53:00,METAR KDAL 081253Z COR 11004KT 10SM SCT140 BKN170 BKN250 15/08 A3011 RMK AO2 SLP192 T01500078,0,4,0,16090,0,0,0,
2026-04-08 11:53:00,METAR KDAL 081153Z 09003KT 10SM FEW140 BKN180 BKN250 15/07 A3010 RMK AO2 SLP187 T01500072 10167 20150 53004,0,3,0,16090,0,0,0,
2026-04-08 10:53:00,METAR KDAL 081053Z 11006KT 10SM BKN170 OVC250 16/07 A3009 RMK AO2 SLP184 T01560067,0,6,0,16090,0,0,0,
2026-04-08 09:53:00,METAR KDAL 080953Z 10004KT 10SM BKN170 OVC250 16/07 A3009 RMK AO2 SLP184 T01560067,0,4,0,16090,0,0,0,
2026-04-08 08:53:00,METAR KDAL 080853Z 11005KT 10SM BKN170 BKN250 16/07 A3009 RMK AO2 SLP183 T01560067 56006,0,5,0,16090,0,0,0,
2026-04-08 07:53:00,METAR KDAL 080753Z 11003KT 10SM BKN160 BKN250 16/07 A3009 RMK AO2 SLP184 T01560067,0,3,0,16090,0,0,0,
2026-04-08 06:53:00,METAR KDAL 080653Z 11003KT 10SM BKN170 OVC200 17/06 A3010 RMK AO2 SLP188 T01670061,0,3,0,16090,0,0,0,
2026-04-08 05:53:00,METAR KDAL 080553Z 11003KT 10SM BKN150 BKN200 BKN250 17/06 A3010 RMK AO2 SLP190 T01670056 10217 20167 402220122 51005,0,3,0,16090,0,0,0,
2026-04-08 04:53:00,METAR KDAL 080453Z 13005KT 10SM BKN170 BKN250 18/05 A3009 RMK AO2 SLP186 T01780050,0,5,0,16090,0,0,0,
2026-04-08 03:53:00,METAR KDAL 080353Z 11005KT 10SM BKN160 BKN250 18/05 A3010 RMK AO2 SLP189 T01830050,0,5,0,16090,0,0,0,
2026-04-08 02:53:00,METAR KDAL 080253Z 11003KT 10SM BKN150 BKN250 18/05 A3009 RMK AO2 SLP184 T01830050 53007,0,3,0,16090,0,0,0,
2026-04-08 01:53:00,METAR KDAL 080153Z 10003KT 10SM SCT160 BKN250 19/04 A3007 RMK AO2 SLP178 T01940044,0,3,0,16090,0,0,0,
2026-04-08 00:53:00,METAR KDAL 080053Z 13007KT 10SM SCT160 BKN250 21/03 A3007 RMK AO2 SLP178 T02110028,0,7,0,16090,0,0,0,
2026-04-07 23:53:00,METAR KDAL 072353Z 14005KT 10SM BKN160 BKN250 22/03 A3007 RMK AO2 SLP177 T02170028 10222 20200 56009,0,5,0,16090,0,0,0,
2026-04-07 22:53:00,METAR KDAL 072253Z 15006KT 10SM SCT190 BKN250 22/03 A3007 RMK AO2 SLP177 T02170033,0,6,0,16090,0,0,0,
2026-04-07 21:53:00,METAR KDAL 072153Z 10008KT 10SM FEW200 BKN250 22/02 A3007 RMK AO2 SLP178 T02220017,0,8,0,16090,0,0,0,
2026-04-07 20:53:00,METAR KDAL 072053Z 11008KT 10SM FEW200 BKN250 22/02 A3009 RMK AO2 SLP186 T02220022 56028,0,8,0,16090,0,0,0,
2026-04-07 19:53:00,METAR KDAL 071953Z 12005KT 10SM SCT200 BKN250 21/02 A3011 RMK AO2 SLP192 T02110017,0,5,0,16090,0,0,0,
2026-04-07 18:53:00,METAR KDAL 071853Z COR 15006G16KT 10SM FEW200 BKN250 22/02 A3015 RMK AO2 SLP204 T02170017,0,6,1,16090,0,0,0,
2026-04-07 17:53:00,METAR KDAL 071753Z 15012G19KT 10SM BKN250 21/01 A3018 RMK AO2 SLP216 T02060011 10211 20122 58010,0,12,1,16090,0,0,0,
2026-04-07 16:53:00,METAR KDAL 071653Z 15009G18KT 10SM BKN250 19/02 A3019 RMK AO2 SLP221 T01940017,0,9,1,16090,0,0,0,
2026-04-07 15:53:00,METAR KDAL 071553Z 15011G15KT 10SM BKN250 19/03 A3021 RMK AO2 SLP227 T01890033,0,11,1,16090,0,0,0,
2026-04-07 14:53:00,METAR KDAL 071453Z 14012KT 10SM BKN250 17/03 A3021 RMK AO2 SLP225 T01670028 51014,0,12,0,16090,0,0,0,
2026-04-07 13:53:00,METAR KDAL 071353Z 13008KT 10SM BKN250 15/04 A3020 RMK AO2 SLP224 T01500039,0,8,0,16090,0,0,0,
2026-04-07 12:53:00,METAR KDAL 071253Z 12006KT 10SM BKN250 13/04 A3018 RMK AO2 SLP217 T01280039,0,6,0,16090,0,0,0,
2026-04-07 11:53:00,METAR KDAL 071153Z 11006KT 10SM BKN250 12/03 A3017 RMK AO2 SLP212 T01220033 10150 20122 53005,0,6,0,16090,0,0,0,
2026-04-07 10:53:00,METAR KDAL 071053Z 12005KT 10SM SCT250 12/04 A3016 RMK AO2 SLP208 T01220039,0,5,0,16090,0,0,0,
2026-04-07 09:53:00,METAR KDAL 070953Z 11005KT 10SM BKN250 13/04 A3015 RMK AO2 SLP205 T01280039,0,5,0,16090,0,0,0,
2026-04-07 08:53:00,METAR KDAL 070853Z 12004KT 10SM BKN250 14/04 A3015 RMK AO2 SLP206 T01390039 56010,0,4,0,16090,0,0,0,
2026-04-07 07:53:00,METAR KDAL 070753Z 12005KT 10SM BKN250 14/04 A3015 RMK AO2 SLP207 T01390039,0,5,0,16090,0,0,0,
2026-04-07 06:53:00,METAR KDAL 070653Z 10005KT 10SM BKN250 14/06 A3017 RMK AO2 SLP211 T01390056,0,5,0,16090,0,0,0,
2026-04-07 05:53:00,METAR KDAL 070553Z 12003KT 10SM BKN250 13/06 A3018 RMK AO2 SLP217 T01330061 10211 20133 402330089 56003,0,3,0,16090,0,0,0,
2026-04-07 04:53:00,METAR KDAL 070453Z 10003KT 10SM BKN250 15/06 A3018 RMK AO2 SLP218 T01500056,0,3,0,16090,0,0,0,
2026-04-07 03:53:00,METAR KDAL 070353Z 08004KT 10SM BKN250 16/05 A3018 RMK AO2 SLP217 T01610050,0,4,0,16090,0,0,0,
2026-04-07 02:53:00,METAR KDAL 070253Z 07004KT 10SM R13L/4500VP6000FT SCT250 17/04 A3019 RMK AO2 SLP220 T01670039 53006,0,4,0,16090,0,0,0,
2026-04-07 01:53:00,METAR KDAL 070153Z 10003KT 10SM BKN250 18/04 A3018 RMK AO2 SLP215 T01780039,0,3,0,16090,0,0,0,
2026-04-07 00:53:00,METAR KDAL 070053Z 11004KT 10SM SCT250 20/03 A3017 RMK AO2 SLP214 T02000028,0,4,0,16090,0,0,0,
2026-04-06 23:53:00,METAR KDAL 062353Z 12004KT 10SM SCT250 22/01 A3017 RMK AO2 SLP214 T02170011 10233 20194 56011,0,4,0,16090,0,0,0,
2026-04-06 22:53:00,METAR KDAL 062253Z 11007KT 070V140 10SM FEW250 22/00 A3018 RMK AO2 SLP217 T02220000,0,7,0,16090,0,0,0,
2026-04-06 21:53:00,METAR KDAL 062153Z 14006KT 10SM FEW250 22/01 A3019 RMK AO2 SLP219 T02220006,0,6,0,16090,0,0,0,
2026-04-06 20:53:00,METAR KDAL 062053Z COR 13008KT 100V170 10SM FEW250 22/M01 A3021 RMK AO2 SLP225 T02221011 56033,0,8,0,16090,0,0,0,
2026-04-06 19:53:00,METAR KDAL 061953Z 06005KT 10SM FEW250 22/01 A3024 RMK AO2 SLP235 T02220011,0,5,0,16090,0,0,0,
2026-04-06 18:53:00,METAR KDAL 061853Z VRB04KT 10SM FEW010 FEW250 21/02 A3027 RMK AO2 SLP246 FU FEW010 W T02110017,0,4,0,16090,0,0,0,
2026-04-06 17:53:00,METAR KDAL 061753Z 10006KT 10SM FEW250 20/03 A3030 RMK AO2 SLP259 T02000028 10206 20089 58016,0,6,0,16090,0,0,0,
2026-04-06 16:53:00,METAR KDAL 061653Z 00000KT 10SM FEW250 19/03 A3033 RMK AO2 SLP269 T01890033,0,0,0,16090,0,0,0,
2026-04-06 15:53:00,METAR KDAL 061553Z 14005KT 10SM FEW250 18/04 A3035 RMK AO2 SLP273 T01780039,0,5,0,16090,0,0,0,
2026-04-06 14:53:00,METAR KDAL 061453Z VRB04KT 10SM FEW250 16/04 A3035 RMK AO2 SLP275 T01560039 51008,0,4,0,16090,0,0,0,
2026-04-06 13:53:00,METAR KDAL 061353Z 08008KT 10SM FEW015 FEW250 14/04 A3035 RMK AO2 SLP273 FU FEW015 DSNT W T01390039,0,8,0,16090,0,0,0,DS
2026-04-06 12:53:00,METAR KDAL 061253Z 00000KT 10SM FEW015 FEW250 11/04 A3035 RMK AO2 SLP272 FU FEW015 W T01110039,0,0,0,16090,0,0,0,
2026-04-06 11:53:00,METAR KDAL 061153Z 00000KT 10SM FEW250 09/03 A3033 RMK AO2 SLP267 T00890033 10144 20089 53002,0,0,0,16090,0,0,0,
2026-04-06 10:53:00,METAR KDAL 061053Z 36004KT 10SM FEW250 10/04 A3032 RMK AO2 SLP264 T01000039,0,4,0,16090,0,0,0,
2026-04-06 09:53:00,METAR KDAL 060953Z 00000KT 10SM FEW250 10/04 A3032 RMK AO2 SLP262 T01000039,0,0,0,16090,0,0,0,
2026-04-06 08:53:00,METAR KDAL 060853Z 02003KT 10SM SCT250 12/03 A3032 RMK AO2 SLP265 T01170033 53003,0,3,0,16090,0,0,0,
2026-04-06 07:53:00,METAR KDAL 060753Z 00000KT 10SM SCT250 13/03 A3032 RMK AO2 SLP263 T01330028,0,0,0,16090,0,0,0,
2026-04-06 06:53:00,METAR KDAL 060653Z 07003KT 10SM BKN250 14/02 A3031 RMK AO2 SLP262 T01390022,0,3,0,16090,0,0,0,
2026-04-06 05:53:00,METAR KDAL 060553Z 05004KT 10SM SCT250 14/02 A3031 RMK AO2 SLP261 T01390022 10200 20139 402110094 51003,0,4,0,16090,0,0,0,
2026-04-06 04:53:00,METAR KDAL 060453Z 02004KT 10SM SCT250 15/02 A3031 RMK AO2 SLP261 T01500017,0,4,0,16090,0,0,0,
2026-04-06 03:53:00,METAR KDAL 060353Z 04005KT 10SM SCT250 16/02 A3031 RMK AO2 SLP261 T01610022,0,5,0,16090,0,0,0,
2026-04-06 02:53:00,METAR KDAL 060253Z VRB04KT 10SM BKN250 17/03 A3030 RMK AO2 SLP258 T01670033 53008,0,4,0,16090,0,0,0,
2026-04-06 01:53:00,METAR KDAL 060153Z 04005KT 10SM BKN250 18/03 A3029 RMK AO2 SLP254 T01780028,0,5,0,16090,0,0,0,
2026-04-06 00:53:00,METAR KDAL 060053Z 04005KT 10SM FEW200 BKN250 19/02 A3029 RMK AO2 SLP254 T01890022,0,5,0,16090,0,0,0,
2026-04-05 23:53:00,METAR KDAL 052353Z 03009G16KT 10SM FEW200 BKN250 20/02 A3028 RMK AO2 SLP250 T02000022 10211 20194 56011,0,9,1,16090,0,0,0,
2026-04-05 22:53:00,METAR KDAL 052253Z 06008G16KT 10SM FEW200 BKN250 21/03 A3028 RMK AO2 SLP250 T02060033,0,8,1,16090,0,0,0,
2026-04-05 21:53:00,METAR KDAL 052153Z 02011G22KT 360V060 10SM FEW190 BKN250 21/03 A3029 RMK AO2 SLP253 T02110033,0,11,1,16090,0,0,0,
2026-04-05 20:53:00,METAR KDAL 052053Z 03010G20KT 10SM FEW180 BKN250 21/03 A3031 RMK AO2 SLP262 T02060028 56020,0,10,1,16090,0,0,0,
2026-04-05 19:53:00,METAR KDAL 051953Z 02014G22KT 10SM FEW180 BKN250 21/02 A3033 RMK AO2 SLP268 T02060022,0,14,1,16090,0,0,0,
2026-04-05 18:53:00,METAR KDAL 051853Z 01010KT 10SM FEW170 BKN250 20/02 A3035 RMK AO2 SLP274 T02000022,0,10,0,16090,0,0,0,
2026-04-05 17:53:00,METAR KDAL 051753Z 05007G23KT 10SM FEW170 FEW210 BKN250 19/01 A3037 RMK AO2 SLP281 T01940011 10194 20094 58005,0,7,1,16090,0,0,0,
2026-04-05 16:53:00,METAR KDAL 051653Z 04011G21KT 10SM FEW210 BKN250 18/01 A3039 RMK AO2 SLP289 T01830006,0,11,1,16090,0,0,0,
2026-04-05 15:53:00,METAR KDAL 051553Z 04011G20KT 10SM SCT210 BKN250 17/01 A3039 RMK AO2 SLP289 T01720006,0,11,1,16090,0,0,0,
2026-04-05 14:53:00,METAR KDAL 051453Z 04009G18KT 10SM BKN200 BKN250 15/02 A3039 RMK AO2 SLP286 T01500017 51017,0,9,1,16090,0,0,0,
2026-04-05 12:53:00,METAR KDAL 051253Z 02003KT 10SM SCT200 BKN250 10/03 A3036 RMK AO2 SLP279 T01000033,0,3,0,16090,0,0,0,
2026-04-05 11:53:00,METAR KDAL 051153Z VRB04KT 10SM SCT200 BKN250 11/03 A3034 RMK AO2 SLP269 70154 T01060028 10144 20100 51015,0,4,0,16090,0,0,0,
2026-04-05 10:53:00,METAR KDAL 051053Z 06005KT 10SM BKN250 12/02 A3032 RMK AO2 SLP263 T01170022,0,5,0,16090,0,0,0,
2026-04-05 09:53:00,METAR KDAL 050953Z 04005KT 10SM SCT250 12/02 A3031 RMK AO2 SLP261 T01220022,0,5,0,16090,0,0,0,
2026-04-05 08:53:00,METAR KDAL 050853Z 06008G14KT 10SM SCT250 13/02 A3029 RMK AO2 SLP254 T01280017 53005,0,8,1,16090,0,0,0,
2026-04-05 07:53:00,METAR KDAL 050753Z 04005KT 10SM FEW250 14/01 A3028 RMK AO2 SLP251 T01390011,0,5,0,16090,0,0,0,
2026-04-05 06:53:00,METAR KDAL 050653Z 02010KT 10SM FEW250 14/02 A3028 RMK AO2 SLP249 T01390017,0,10,0,16090,0,0,0,
2026-04-05 05:53:00,METAR KDAL 050553Z 02009G17KT 10SM FEW200 SCT250 14/02 A3027 RMK AO2 SLP248 T01440022 10200 20139 402330117 51012,0,9,1,16090,0,0,0,
2026-04-05 04:53:00,METAR KDAL 050453Z 01005KT 10SM SCT200 SCT250 14/04 A3026 RMK AO2 SLP245 T01390044,0,5,0,16090,0,0,0,
2026-04-05 03:53:00,METAR KDAL 050353Z 02004KT 10SM FEW150 SCT250 14/05 A3026 RMK AO2 SLP244 T01440050,0,4,0,16090,0,0,0,
2026-04-05 02:53:00,METAR KDAL 050253Z 01004KT 10SM SCT250 15/06 A3024 RMK AO2 SLP237 T01500056 53025,0,4,0,16090,0,0,0,
2026-04-05 02:20:00,SPECI KDAL 050220Z 03004KT 10SM SCT250 17/06 A3022 RMK AO2 T01670056,0,4,0,16090,0,0,0,
2026-04-05 01:53:00,METAR KDAL 050153Z VRB05G17KT 10SM FEW200 SCT250 17/05 A3019 RMK AO2 SLP221 T01720050,0,5,1,16090,0,0,0,
2026-04-05 00:53:00,METAR KDAL 050053Z 36008G25KT 10SM FEW200 SCT250 18/04 A3017 RMK AO2 SLP212 T01830044,0,8,1,16090,0,0,0,
2026-04-04 23:53:00,METAR KDAL 042353Z 36011KT 10SM FEW050 FEW200 SCT250 20/06 A3016 RMK AO2 SLP208 60000 T02000061 10217 20139 53002,0,11,0,16090,0,0,0,
2026-04-04 22:53:00,METAR KDAL 042253Z 36013G18KT 10SM FEW050 FEW200 SCT250 21/07 A3014 RMK AO2 SLP202 T02110072,0,13,1,16090,0,0,0,
2026-04-04 21:53:00,METAR KDAL 042153Z 35012G20KT 10SM FEW006 FEW050 FEW200 BKN250 21/08 A3013 RMK AO2 SLP199 FU FEW006 DSNT NE T02110083,0,12,1,16090,0,0,0,DS
2026-04-04 20:53:00,METAR KDAL 042053Z 36013G20KT 10SM FEW050 FEW200 BKN250 21/09 A3015 RMK AO2 SLP206 60000 T02060089 58007,0,13,1,16090,0,0,0,
2026-04-04 19:53:00,METAR KDAL 041953Z 35015G22KT 10SM FEW035 FEW050 SCT200 BKN250 18/09 A3016 RMK AO2 PK WND 02027/1907 SLP208 T01830089,0,15,1,16090,0,0,0,
2026-04-04 18:53:00,METAR KDAL 041853Z 36012G21KT 10SM BKN042 BKN060 BKN250 16/10 A3018 RMK AO2 PK WND 32027/1758 RAE16 SLP216 P0000 T01560100,0,12,1,16090,0,0,0,
2026-04-04 17:53:00,METAR KDAL 041753Z 34011G23KT 10SM -RA BKN033 14/10 A3018 RMK AO2 RAE17B41 SLP214 P0000 60154 T01390100 10206 20117 51030,0,11,1,16090,0,0,0,"-RA,RA"
2026-04-04 17:09:00,SPECI KDAL 041709Z 35013G22KT 10SM -RA FEW008 OVC031 13/11 A3016 RMK AO2 P0000 T01330106,0,13,1,16090,0,0,0,-RA
2026-04-04 16:53:00,METAR KDAL 041653Z 01014G23KT 10SM -RA FEW008 OVC029 13/10 A3014 RMK AO2 PK WND 36029/1613 SLP202 P0000 T01280100,0,14,1,16090,0,0,0,-RA
2026-04-04 15:53:00,METAR KDAL 041553Z 01012G27KT 10SM -RA SCT014 OVC025 13/11 A3013 RMK AO2 PK WND 02027/1548 SLP197 P0001 T01280111,0,12,1,16090,0,0,0,-RA
2026-04-04 15:08:00,SPECI KDAL 041508Z 36013G24KT 10SM -RA SCT009 BKN014 OVC055 12/11 A3009 RMK AO2 P0001 T01220106,0,13,1,16090,0,0,0,-RA
2026-04-04 14:53:00,METAR KDAL 041453Z 36014G24KT 8SM -RA BKN009 BKN045 OVC095 12/11 A3009 RMK AO2 PK WND 36029/1437 SLP184 P0017 60153 T01220111 51039,0,14,1,12872,0,0,0,-RA
2026-04-04 13:53:00,METAR KDAL 041353Z 34012G25KT 6SM -RA BR BKN009 BKN024 OVC050 14/13 A3007 RMK AO2 PK WND 34032/1302 TSE06 PRESRR SLP177 OCNL LTGIC DSNT E-S TS MOVD E CB DSNT E-S MOV NE P0018 T01390133,0,12,1,9654,1,0,1,"-RA,BR,DS,TS"
2026-04-04 13:07:00,SPECI KDAL 041307Z COR 34022G32KT 4SM +RA BR BKN009 OVC016 15/14 A3002 RMK AO2 PK WND 34032/1302 TSE06 PRESRR VIS SE 2 1/2 OCNL LTGIC DSNT NE-SE-S TS MOVD E CB DSNT NE-SE-S MOV E P0005 T01500144,0,22,1,6436,1,1,1,"+RA,BR,DS,TS"
2026-04-04 12:53:00,METAR KDAL 041253Z 33016G27KT 4SM TSRA BR BKN009 BKN014 OVC023CB 17/17 A3001 RMK AO2 PK WND 34028/1154 WSHFT 1150 SLP155 OCNL LTGICCG OHD-NE-E TS OHD-NE-E MOV E P0118 T01720167,0,16,1,6436,1,0,1,"BR,RA,TS"
2026-04-04 12:46:00,SPECI KDAL 041246Z 33013G24KT 4SM TSRA BR BKN009 BKN014 OVC023CB 18/17 A2999 RMK AO2 PK WND 34028/1154 WSHFT 1150 OCNL LTGICCG OHD-NE TS OHD-NE MOV E P0116 T01780172,0,13,1,6436,1,0,1,"BR,RA,TS"
2026-04-04 12:33:00,SPECI KDAL 041233Z 32014KT 2 1/2SM TSRA BR FEW007 OVC020CB 18/17 A2997 RMK AO2 PK WND 34028/1154 WSHFT 1150 FRQ LTGICCG OHD-N-E TS OHD-N-E MOV E P0103 T01780172,0,14,0,4022,1,0,1,"BR,RA,TS"
2026-04-04 12:17:00,SPECI KDAL 041217Z 34014KT 1 3/4SM R13L/2800V4000FT +TSRA BR FEW007 OVC018CB 18/18 A2996 RMK AO2 PK WND 34028/1154 WSHFT 1150 FRQ LTGICCG OHD AND ALQDS TS OHD AND ALQDS MOV E P0058 T01780178,0,14,0,2816,1,0,1,"BR,DS,RA,TS"
2026-04-04 12:07:00,SPECI KDAL 041207Z 33019G25KT 2 1/2SM R13L/2200V6000FT +TSRA BR FEW007 BKN018 OVC030CB 18/18 A2997 RMK AO2 PK WND 34028/1154 WSHFT 1150 FRQ LTGICCG ALQDS TS ALQDS MOV E P0038 T01830178,0,19,1,4022,1,0,1,"BR,DS,RA,TS"
2026-04-04 11:57:00,SPECI KDAL 041157Z 32019G29KT 1 1/4SM R13L/1600VP6000FT +TSRA BR FEW007 BKN018 OVC030CB 19/18 A2998 RMK AO2 PK WND 34028/1154 LTG DSNT ALQDS PRESRR OCNL LTGICCG ALQDS TS ALQDS MOV E P0003 T01940183,0,19,1,2011,1,0,1,"BR,DS,RA,TS"
2026-04-04 11:53:00,METAR KDAL 041153Z 32022G29KT 2SM R13L/1600VP6000FT +TSRA BR FEW007 BKN020 OVC030CB 21/20 A2997 RMK AO2 PK WND 33029/1153 RAB04 PRESRR SLP142 OCNL LTGICCG ALQDS TS ALQDS MOV E P0028 60028 70028 T02110200 10233 20211 53019,0,22,1,3218,1,0,1,"BR,DS,RA,TS"
2026-04-04 11:27:00,SPECI KDAL 041127Z 20004KT 6SM TSRA OVC020CB 22/19 A2994 RMK AO2 RAB04 FRQ LTGICCCCG S-W-N AND DSNT NE TS S-W-N MOV NE CB DSNT NE MOV NE P0003 T02220194,0,4,0,9654,1,0,0,"DS,RA,TS"
2026-04-04 10:53:00,METAR KDAL 041053Z 18008KT 7SM TS FEW020 SCT050CB BKN095 OVC160 22/19 A2992 RMK AO2 RAB02E11B29E39 TSB49 PRESRR SLP126 OCNL LTGICCC SW-NW-N TS SW-NW-N MOV E P0000 T02220194,0,8,0,11263,1,0,0,"RA,TS"
2026-04-04 09:53:00,METAR KDAL 040953Z 16013G20KT 10SM FEW022 BKN100 BKN160 OVC250 23/19 A2988 RMK AO2 SLP111 OCNL LTGICCC CB DSNT W NW MOV NE T02280189,0,13,1,16090,0,0,0,DS
2026-04-04 09:41:00,SPECI KDAL 040941Z 16010G19KT 10SM SCT022 BKN160 OVC250 23/19 A2989 RMK AO2 OCNL LTGICCC CB DSNT W NW MOV NE T02280189,0,10,1,16090,0,0,0,DS
2026-04-04 08:53:00,METAR KDAL 040853Z 16011KT 10SM BKN021 BKN170 OVC250 22/19 A2992 RMK AO2 SLP123 OCNL LTGICCC CB DSNT S-SW MOV NE T02220194 55008,0,11,0,16090,0,0,0,DS
2026-04-04 08:31:00,SPECI KDAL 040831Z 17009G16KT 10SM SCT017 BKN023 BKN170 BKN250 22/19 A2991 RMK AO2 OCNL LTGICCC CB DSNT S-SW MOV NE T02220194,0,9,1,16090,0,0,0,DS
2026-04-04 07:53:00,METAR KDAL 040753Z 16011G22KT 10SM SCT016 BKN170 BKN250 22/19 A2990 RMK AO2 PK WND 16026/0656 SLP119 OCNL LTGICCC DSNT SW SCT V BKN CB DSNT SW MOV NE T02220194,0,11,1,16090,0,0,0,DS
2026-04-04 06:53:00,METAR KDAL 040653Z 18011G22KT 10SM FEW030 SCT170 BKN250 23/19 A2992 RMK AO2 SLP126 T02280194,0,11,1,16090,0,0,0,
2026-04-04 05:53:00,METAR KDAL 040553Z 17012G21KT 10SM FEW030 BKN170 BKN250 23/19 A2994 RMK AO2 RAE07 SLP132 P0000 60000 T02330194 10278 20233 402890211 50002,0,12,1,16090,0,0,0,
2026-04-04 04:53:00,METAR KDAL 040453Z 16011G19KT 10SM -RA FEW060 BKN100 OVC180 24/19 A2996 RMK AO2 RAB0356 SLP140 P0000 T02440194,0,11,1,16090,0,0,0,"-RA,RA"
2026-04-04 03:53:00,METAR KDAL 040353Z 17010KT 10SM FEW040 BKN120 OVC250 25/19 A2997 RMK AO2 SLP143 T02500194,0,10,0,16090,0,0,0,
2026-04-04 02:53:00,METAR KDAL 040253Z 16010G19KT 10SM FEW050 BKN170 OVC250 25/19 A2993 RMK AO2 SLP130 T02500194 53020,0,10,1,16090,0,0,0,
2026-04-04 01:53:00,METAR KDAL 040153Z 17012G19KT 10SM FEW050 FEW080 BKN170 BKN250 26/18 A2989 RMK AO2 SLP114 T02610183,0,12,1,16090,0,0,0,
2026-04-04 00:53:00,METAR KDAL 040053Z 17008G20KT 10SM FEW050 SCT080 BKN170 BKN250 27/18 A2988 RMK AO2 SLP113 T02670178,0,8,1,16090,0,0,0,
2026-04-03 23:53:00,METAR KDAL 032353Z 18012G21KT 10SM SCT050 SCT075 BKN250 28/18 A2987 RMK AO2 SLP109 T02780178 10289 20256 55005,0,12,1,16090,0,0,0,
2026-04-03 22:53:00,METAR KDAL 032253Z 17013G24KT 10SM FEW050 BKN070 BKN180 BKN250 28/18 A2987 RMK AO2 PK WND 17028/2208 SLP107 T02830178,0,13,1,16090,0,0,0,
2026-04-03 21:53:00,METAR KDAL 032153Z 17015G26KT 10SM FEW050 BKN060 BKN180 BKN250 28/18 A2987 RMK AO2 PK WND 17030/2134 SLP106 T02830178,0,15,1,16090,0,0,0,
2026-04-03 20:53:00,METAR KDAL 032053Z 17012G21KT 10SM FEW039 FEW080 SCT160 BKN250 28/19 A2989 RMK AO2 PK WND 18027/2026 SLP114 T02780194 58018,0,12,1,16090,0,0,0,
2026-04-03 19:53:00,METAR KDAL 031953Z 18012G20KT 10SM FEW034 SCT080 BKN160 BKN250 27/18 A2991 RMK AO2 SLP121 T02720183,0,12,1,16090,0,0,0,
2026-04-03 18:53:00,METAR KDAL 031853Z 17012G21KT 10SM SCT032 BKN070 BKN160 OVC250 27/19 A2993 RMK AO2 PK WND 15026/1809 SLP128 T02670189,0,12,1,16090,0,0,0,
2026-04-03 17:53:00,METAR KDAL 031753Z 17015G24KT 10SM SCT032 BKN037 BKN060 BKN160 BKN250 27/18 A2994 RMK AO2 PK WND 17026/1730 SLP132 T02670183 10267 20211 58002,0,15,1,16090,0,0,0,
2026-04-03 17:00:00,SPECI KDAL 031700Z 18011G21KT 10SM SCT027 BKN033 BKN041 BKN250 26/19 A2995 RMK AO2 T02560189,0,11,1,16090,0,0,0,
2026-04-03 16:53:00,METAR KDAL 031653Z 17014G20KT 10SM BKN027 BKN033 OVC041 26/19 A2995 RMK AO2 SLP134 BKN027 V SCT T02610189,0,14,1,16090,0,0,0,
2026-04-03 15:53:00,METAR KDAL 031553Z 17011G18KT 10SM SCT019 BKN027 OVC055 24/19 A2995 RMK AO2 SLP136 SCT V BKN T02390194,0,11,1,16090,0,0,0,
2026-04-03 15:48:00,SPECI KDAL 031548Z 17010KT 10SM SCT019 BKN027 OVC055 24/19 A2995 RMK AO2 SCT V BKN,0,10,0,16090,0,0,0,
2026-04-03 15:29:00,SPECI KDAL 031529Z 17010KT 10SM SCT019 BKN035 OVC055 24/20 A2995 RMK AO2 SCT V BKN T02390200,0,10,0,16090,0,0,0,
2026-04-03 14:53:00,METAR KDAL 031453Z 17012G21KT 10SM BKN017 BKN025 OVC046 23/19 A2995 RMK AO2 SLP135 T02280194 51017,0,12,1,16090,0,0,0,
2026-04-03 13:53:00,METAR KDAL 031353Z 17009G19KT 10SM SCT014 BKN019 OVC046 22/19 A2994 RMK AO2 SLP131 SCT V BKN T02220194,0,9,1,16090,0,0,0,
2026-04-03 13:34:00,SPECI KDAL 031334Z 16010G19KT 10SM BKN016 BKN021 OVC046 22/19 A2993 RMK AO2 T02170194,0,10,1,16090,0,0,0,
2026-04-03 12:53:00,METAR KDAL 031253Z 16009KT 10SM BKN013 BKN019 OVC040 21/19 A2992 RMK AO2 SLP126 T02110194,0,9,0,16090,0,0,0,
2026-04-03 12:37:00,SPECI KDAL 031237Z 17010KT 10SM BKN013 OVC040 21/19 A2992 RMK AO2 T02110189,0,10,0,16090,0,0,0,
2026-04-03 12:00:00,SPECI KDAL 031200Z 16012G18KT 10SM SCT013 SCT022 BKN040 BKN250 21/19 A2990 RMK AO2 T02110189,0,12,1,16090,0,0,0,
2026-04-03 11:53:00,METAR KDAL 031153Z 16011G21KT 10SM SCT013 BKN029 BKN040 BKN250 21/19 A2989 RMK AO2 SLP116 T02110189 10222 20211 53002,0,11,1,16090,0,0,0,
2026-04-03 08:53:00,METAR KDAL 030853Z 16011G18KT 10SM BKN021 OVC031 21/18 A2988 RMK AO2 SLP113 T02110183 53000,0,11,1,16090,0,0,0,
2026-04-03 05:53:00,METAR KDAL 030553Z 17008G17KT 10SM SCT250 22/18 A2988 RMK AO2 SLP112 T02220183 10267 20222 402830183 53014,0,8,1,16090,0,0,0,
2026-04-03 04:53:00,METAR KDAL 030453Z 16009KT 10SM SCT250 23/19 A2986 RMK AO2 SLP107 T02280189,0,9,0,16090,0,0,0,
2026-04-03 03:53:00,METAR KDAL 030353Z 15013G19KT 10SM FEW250 23/19 A2985 RMK AO2 SLP102 T02330189,0,13,1,16090,0,0,0,
2026-04-03 02:53:00,METAR KDAL 030253Z 16010G19KT 10SM FEW035 FEW250 24/19 A2984 RMK AO2 SLP099 T02390189 53015,0,10,1,16090,0,0,0,
2026-04-03 01:53:00,METAR KDAL 030153Z 16009G21KT 10SM SCT030 25/19 A2982 RMK AO2 SLP093 T02500189,0,9,1,16090,0,0,0,
2026-04-03 00:53:00,METAR KDAL 030053Z 17011G22KT 10SM FEW033 26/19 A2980 RMK AO2 PK WND 18027/2355 SLP086 T02560189,0,11,1,16090,0,0,0,
2026-04-02 23:53:00,METAR KDAL 022353Z 17012G25KT 10SM SCT041 27/19 A2980 RMK AO2 SLP084 T02670194 10283 20261 56006,0,12,1,16090,0,0,0,
2026-04-02 22:53:00,METAR KDAL 022253Z 17015G24KT 10SM SCT047 27/19 A2980 RMK AO2 PK WND 18026/2229 SLP085 T02720189,0,15,1,16090,0,0,0,
2026-04-02 21:53:00,METAR KDAL 022153Z 18013G28KT 10SM SCT040 28/18 A2980 RMK AO2 PK WND 16028/2149 SLP084 T02780183,0,13,1,16090,0,0,0,
2026-04-02 20:53:00,METAR KDAL 022053Z 18012G24KT 10SM SCT040 BKN065 27/18 A2982 RMK AO2 PK WND 18029/2043 SLP090 T02670178 56016,0,12,1,16090,0,0,0,
2026-04-02 19:53:00,METAR KDAL 021953Z 18012G21KT 10SM SCT039 BKN050 27/18 A2983 RMK AO2 SLP096 T02720183,0,12,1,16090,0,0,0,
2026-04-02 18:53:00,METAR KDAL 021853Z 19010G21KT 10SM FEW043 FEW055 FEW070 SCT250 27/17 A2984 RMK AO2 SLP099 T02720167,0,10,1,16090,0,0,0,
2026-04-02 17:53:00,METAR KDAL 021753Z 19012G25KT 10SM FEW035 FEW070 SCT250 26/16 A2986 RMK AO2 SLP105 60000 T02610161 10261 20189 51015,0,12,1,16090,0,0,0,
2026-04-02 16:53:00,METAR KDAL 021653Z 21011G20KT 10SM BKN250 24/17 A2986 RMK AO2 SLP105 T02390167,0,11,1,16090,0,0,0,
2026-04-02 15:53:00,METAR KDAL 021553Z 21006KT 10SM FEW210 BKN250 22/18 A2983 RMK AO2 SLP095 T02220178,0,6,0,16090,0,0,0,
2026-04-02 14:53:00,METAR KDAL 021453Z 22005KT 10SM FEW150 FEW210 BKN250 21/17 A2982 RMK AO2 SLP091 60000 T02060172 51014,0,5,0,16090,0,0,0,
2026-04-02 13:53:00,METAR KDAL 021353Z 21005KT 10SM FEW110 FEW150 SCT210 BKN250 20/17 A2981 RMK AO2 SLP087 T02000167,0,5,0,16090,0,0,0,
2026-04-02 12:53:00,METAR KDAL 021253Z 18004KT 10SM FEW050 FEW110 BKN150 BKN210 19/17 A2980 RMK AO2 RAE08 SLP085 P0000 T01940167,0,4,0,16090,0,0,0,
2026-04-02 11:53:00,METAR KDAL 021153Z 15012G20KT 10SM -RA FEW050 SCT085 BKN110 OVC140 19/17 A2977 RMK AO2 PRESFR SLP076 P0001 60074 70074 T01890167 10233 20183 58025,0,12,1,16090,0,0,0,-RA
2026-04-02 10:53:00,METAR KDAL 021053Z 15011G20KT 9SM -RA OVC100 18/17 A2981 RMK AO2 SLP087 P0011 T01830172,0,11,1,14481,0,0,0,-RA
2026-04-02 09:53:00,METAR KDAL 020953Z 21009G19KT 9SM -RA FEW060 BKN090 OVC110 19/17 A2986 RMK AO2 PK WND 20028/0910 TSB0859E51 SLP104 OCNL LTGICCC DSNT E-S TS MOVD E CB DSNT E-S MOV NE P0052 T01890172,0,9,1,14481,1,0,0,"-RA,DS,TS"
2026-04-02 09:27:00,SPECI KDAL 020927Z 21011G24KT 4SM TSRA BR FEW029 BKN042CB OVC070 19/18 A2985 RMK AO2 PK WND 20028/0910 TSB0859 OCNL LTGICCC N-E-S TS N-E-S MOV NE P0045 T01940183,0,11,1,6436,1,0,1,"BR,RA,TS"
2026-04-02 09:16:00,SPECI KDAL 020916Z COR 19012G28KT 2 1/2SM R13L/4000VP6000FT +TSRA BR OVC034CB 20/19 A2985 RMK AO2 PK WND 20028/0910 TSB0859 OCNL LTGICCC N-OHD-S TS N-OHD-S MOV NE P0035 T02000189,0,12,1,4022,1,0,1,"BR,RA,TS"
2026-04-02 09:06:00,SPECI KDAL 020906Z 20011G20KT 1 1/4SM R13L/4500VP6000FT +TSRA BR BKN027 OVC034CB 20/19 A2985 RMK AO2 TSB0859 OCNL LTGICCC S-W TS S-W MOV NE P0012 T02000189,0,11,1,2011,1,0,1,"BR,RA,TS"
2026-04-02 09:02:00,SPECI KDAL 020902Z 22008KT 1 3/4SM R13L/5500VP6000FT +TSRA BR FEW027 OVC036CB 21/19 A2986 RMK AO2 TSB0859 OCNL LTGICCC S-W TS S-W MOV NE P0007 T02060189,0,8,0,2816,1,0,1,"BR,RA,TS"
2026-04-02 08:59:00,SPECI KDAL 020859Z 22009KT 2SM +TSRA BR FEW027 OVC036CB 21/19 A2986 RMK AO2 TSB59 OCNL LTGICCC S-W TS S-W MOV NE P0004 T02060189,0,9,0,3218,1,0,1,"BR,RA,TS"
2026-04-02 08:53:00,METAR KDAL 020853Z 21005KT 3SM RA BR SCT029 OVC036 21/19 A2985 RMK AO2 SLP101 OCNL LTGICCC CB DSNT SW MOV NE P0009 60010 T02060189 51024,0,5,0,4827,0,0,1,"BR,DS,RA"
2026-04-02 07:53:00,METAR KDAL 020753Z 19009G17KT 8SM -RA FEW028 BKN038 BKN060 22/18 A2983 RMK AO2 RAB24 SLP096 OCNL LTGICCC CB DSNT SW-NW MOV NE P0001 T02220178,0,9,1,12872,0,0,0,"-RA,DS"
2026-04-02 06:53:00,METAR KDAL 020653Z 20011G21KT 10SM BKN031 OVC140 23/17 A2982 RMK AO2 PK WND 18027/0642 RAB11E25 SLP092 P0000 T02330167,0,11,1,16090,0,0,0,RA
2026-04-02 05:53:00,METAR KDAL 020553Z 17014G26KT 10SM FEW030 BKN140 OVC190 23/16 A2978 RMK AO2 PK WND 17031/0500 PRESRR SLP076 T02330161 10294 20233 403000211 53007,0,14,1,16090,0,0,0,
2026-04-02 04:53:00,METAR KDAL 020453Z 17015G32KT 10SM FEW150 BKN190 OVC250 24/16 A2974 RMK AO2 PK WND 19032/0447 SLP064 T02440156,0,15,1,16090,0,0,0,
2026-04-02 03:53:00,METAR KDAL 020353Z 16018G29KT 10SM OVC250 25/16 A2977 RMK AO2 PK WND 15037/0254 SLP073 T02500161,0,18,1,16090,0,0,0,
2026-04-02 02:53:00,METAR KDAL 020253Z 16016G31KT 10SM FEW060 BKN210 OVC250 26/18 A2975 RMK AO2 PK WND 15037/0230 SLP068 T02610178 53006,0,16,1,16090,0,0,0,
2026-04-02 01:53:00,METAR KDAL 020153Z 17013G28KT 10SM OVC250 27/17 A2973 RMK AO2 PK WND 16029/0137 SLP061 T02720172,0,13,1,16090,0,0,0,
2026-04-02 00:53:00,METAR KDAL 020053Z 15013G26KT 10SM BKN250 28/16 A2971 RMK AO2 PK WND 16027/2358 SLP055 T02830156,0,13,1,16090,0,0,0,
2026-04-01 23:53:00,METAR KDAL 012353Z 16015G22KT 10SM OVC250 29/15 A2974 RMK AO2 SLP062 T02940150 10300 20267 56031,0,15,1,16090,0,0,0,
2026-04-01 22:53:00,METAR KDAL 012253Z 16014G27KT 10SM FEW055 OVC250 30/16 A2976 RMK AO2 PK WND 18027/2250 SLP070 T03000156,0,14,1,16090,0,0,0,
2026-04-01 21:53:00,METAR KDAL 012153Z 16014G26KT 10SM FEW050 OVC250 29/17 A2980 RMK AO2 PK WND 17027/2103 SLP084 T02940167,0,14,1,16090,0,0,0,
2026-04-01 20:53:00,METAR KDAL 012053Z 16017G27KT 10SM FEW046 BKN250 29/17 A2983 RMK AO2 PK WND 18030/2026 SLP094 T02940172 58029,0,17,1,16090,0,0,0,
2026-04-01 19:53:00,METAR KDAL 011953Z 15017G27KT 10SM SCT043 OVC250 28/18 A2986 RMK AO2 PK WND 16029/1938 SLP105 T02830178,0,17,1,16090,0,0,0,
2026-04-01 18:53:00,METAR KDAL 011853Z 16017G24KT 10SM SCT039 OVC250 28/18 A2989 RMK AO2 PK WND 18026/1811 SLP116 T02830178,0,17,1,16090,0,0,0,
2026-04-01 17:53:00,METAR KDAL 011753Z 18014G22KT 10SM BKN034 OVC250 27/18 A2991 RMK AO2 PK WND 17028/1726 SLP123 T02670178 10272 20211 58009,0,14,1,16090,0,0,0,
2026-04-01 16:53:00,METAR KDAL 011653Z 16018G26KT 10SM BKN030 BKN034 BKN180 BKN250 26/18 A2994 RMK AO2 PK WND 17026/1652 SLP132 T02560178,0,18,1,16090,0,0,0,
2026-04-01 16:10:00,SPECI KDAL 011610Z 18014G22KT 10SM BKN030 BKN180 BKN250 24/18 A2994 RMK AO2 T02440178,0,14,1,16090,0,0,0,
2026-04-01 15:53:00,METAR KDAL 011553Z 18011G21KT 10SM BKN029 BKN180 OVC250 24/18 A2994 RMK AO2 SLP133 T02390178,0,11,1,16090,0,0,0,
2026-04-01 14:53:00,METAR KDAL 011453Z 18008G20KT 10SM OVC023 23/18 A2994 RMK AO2 SLP133 OCNL BINOVC T02280178 53018 $,0,8,1,16090,0,0,0,VC
2026-04-01 13:53:00,METAR KDAL 011353Z 19010G17KT 10SM BKN020 BKN180 OVC250 22/18 A2993 RMK AO2 SLP129 T02170178 $,0,10,1,16090,0,0,0,
2026-04-01 12:59:00,SPECI KDAL 011259Z 18011KT 10SM SCT018 BKN025 BKN180 OVC250 21/18 A2991 RMK AO2 SCT V BKN T02110178 $,0,11,0,16090,0,0,0,
2026-04-01 12:53:00,METAR KDAL 011253Z 17010KT 10SM SCT018 SCT024 BKN180 OVC250 21/18 A2990 RMK AO2 PK WND 18026/1156 SLP117 SCT018 V BKN T02110178 $,0,10,0,16090,0,0,0,
2026-04-01 12:13:00,SPECI KDAL 011213Z 18013G23KT 10SM SCT024 BKN180 OVC250 21/17 A2989 RMK AO2 PK WND 18026/1156 T02110172 $,0,13,1,16090,0,0,0,
2026-04-01 11:53:00,METAR KDAL 011153Z 18014G25KT 10SM BKN023 BKN180 OVC250 21/17 A2989 RMK AO2 SLP114 T02110172 10239 20211 58016 $,0,14,1,16090,0,0,0,
2026-04-01 10:53:00,METAR KDAL 011053Z 19008G18KT 160V220 10SM OVC020 21/17 A2993 RMK AO2 SLP129 T02110172 $,0,8,1,16090,0,0,0,
2026-04-01 10:02:00,SPECI KDAL 011002Z 25007KT 10SM BKN020 BKN075 OVC200 22/17 A2997 RMK AO2 T02170172 $,0,7,0,16090,0,0,0,
2026-04-01 09:53:00,METAR KDAL 010953Z 26007G15KT 10SM FEW020 BKN075 BKN200 OVC250 22/17 A2997 RMK AO2 PRESRR SLP143 T02170172 $,0,7,1,16090,0,0,0,
2026-04-01 08:53:00,METAR KDAL 010853Z 18010G21KT 10SM FEW070 FEW090 OVC250 22/17 A2994 RMK AO2 SLP131 T02220167 58003 $,0,10,1,16090,0,0,0,
2026-04-01 07:53:00,METAR KDAL 010753Z 17010KT 10SM FEW065 SCT090 OVC250 23/16 A2995 RMK AO2 SLP135 T02280161 $,0,10,0,16090,0,0,0,
2026-04-01 06:53:00,METAR KDAL 010653Z 17007G16KT 10SM FEW065 SCT080 BKN090 OVC250 23/16 A2995 RMK AO2 SLP136 T02330161 $,0,7,1,16090,0,0,0,
2026-04-01 05:53:00,METAR KDAL 010553Z 17012G19KT 10SM BKN070 OVC250 24/16 A2994 RMK AO2 SLP133 T02390161 10289 20239 402940189 53016 $,0,12,1,16090,0,0,0,
2026-04-01 04:53:00,METAR KDAL 010453Z 17012G22KT 10SM OVC250 25/16 A2992 RMK AO2 SLP126 T02500161 $,0,12,1,16090,0,0,0,
2026-04-01 03:53:00,METAR KDAL 010353Z 16011G23KT 10SM OVC250 26/16 A2991 RMK AO2 SLP123 T02560161 $,0,11,1,16090,0,0,0,
2026-04-01 02:53:00,METAR KDAL 010253Z 17011G21KT 10SM BKN250 26/16 A2990 RMK AO2 SLP117 T02610156 53014 $,0,11,1,16090,0,0,0,
2026-04-01 01:53:00,METAR KDAL 010153Z 16013G19KT 10SM BKN250 27/14 A2987 RMK AO2 SLP108 T02670144 $,0,13,1,16090,0,0,0,
2026-04-01 00:53:00,METAR KDAL 010053Z 17009G18KT 10SM BKN250 28/14 A2985 RMK AO2 PK WND 16027/2357 SLP102 T02780139 $,0,9,1,16090,0,0,0,
2026-03-31 23:53:00,METAR KDAL 312353Z 16017G28KT 10SM SCT250 29/13 A2985 RMK AO2 PK WND 18029/2305 SLP102 T02890133 10294 20261 56021 $,0,17,1,16090,0,0,0,
2026-03-31 22:53:00,METAR KDAL 312253Z 16016G26KT 10SM FEW055 SCT250 29/13 A2987 RMK AO2 PK WND 16033/2211 SLP108 T02890133 $,0,16,1,16090,0,0,0,
2026-03-31 21:53:00,METAR KDAL 312153Z 16015G31KT 10SM FEW050 FEW250 29/14 A2989 RMK AO2 PK WND 19031/2147 SLP113 T02890139 $,0,15,1,16090,0,0,0,
2026-03-31 20:53:00,METAR KDAL 312053Z 17011G20KT 10SM FEW050 BKN250 29/14 A2991 RMK AO2 PK WND 15027/2000 SLP123 T02940144 58029 $,0,11,1,16090,0,0,0,
2026-03-31 19:53:00,METAR KDAL 311953Z 17014G22KT 10SM FEW050 BKN250 28/14 A2994 RMK AO2 SLP132 T02830144 $,0,14,1,16090,0,0,0,
2026-03-31 18:53:00,METAR KDAL 311853Z 18017G26KT 10SM FEW047 BKN250 27/14 A2997 RMK AO2 PK WND 16029/1816 SLP144 T02670139 $,0,17,1,16090,0,0,0,
2026-03-31 17:53:00,METAR KDAL 311753Z 19013G23KT 10SM FEW042 OVC250 26/14 A3000 RMK AO2 SLP152 T02610144 10261 20189 58003 $,0,13,1,16090,0,0,0,
2026-03-31 16:53:00,METAR KDAL 311653Z 17019G27KT 10SM SCT036 BKN250 25/15 A3001 RMK AO2 PK WND 17027/1652 SLP156 T02500150 $,0,19,1,16090,0,0,0,
2026-03-31 16:00:00,SPECI KDAL 311600Z COR 19010G22KT 10SM SCT032 BKN250 23/15 A3002 RMK AO2 T02330150 $,0,10,1,16090,0,0,0,
2026-03-31 14:53:00,METAR KDAL 311453Z COR 18012G24KT 10SM BKN023 BKN250 22/16 A3001 RMK AO2 SLP156 T02170161 50003 $,0,12,1,16090,0,0,0,
2026-03-31 13:53:00,METAR KDAL 311353Z 18011G16KT 10SM BKN019 BKN026 BKN250 21/17 A3001 RMK AO2 SLP157 T02060167 $,0,11,1,16090,0,0,0,
2026-03-31 13:38:00,SPECI KDAL 311338Z 16008KT 10SM BKN019 BKN026 20/17 A3001 RMK AO2 T02000167 $,0,8,0,16090,0,0,0,
2026-03-31 12:53:00,METAR KDAL 311253Z 16010KT 10SM FEW015 FEW027 BKN250 19/16 A3000 RMK AO2 SLP155 T01940161 $,0,10,0,16090,0,0,0,
2026-03-31 11:53:00,METAR KDAL 311153Z 17008KT 10SM FEW027 SCT250 19/16 A3000 RMK AO2 SLP154 T01890161 10222 20189 53009 $,0,8,0,16090,0,0,0,
2026-03-31 10:53:00,METAR KDAL 311053Z 17008KT 10SM FEW020 SCT250 19/16 A2999 RMK AO2 SLP150 T01940156 $,0,8,0,16090,0,0,0,
2026-03-31 09:53:00,METAR KDAL 310953Z 18011G23KT 10SM SCT021 BKN250 19/16 A2998 RMK AO2 SLP144 T01940156 $,0,11,1,16090,0,0,0,
2026-03-31 09:47:00,SPECI KDAL 310947Z 18015G25KT 10SM SCT021 BKN250 19/16 A2998 RMK AO2 $,0,15,1,16090,0,0,0,
2026-03-31 09:24:00,SPECI KDAL 310924Z 17011G21KT 10SM BKN020 BKN250 19/16 A2999 RMK AO2 T01940156 $,0,11,1,16090,0,0,0,
2026-03-31 08:53:00,METAR KDAL 310853Z 16010KT 10SM FEW018 BKN250 20/14 A2999 RMK AO2 SLP148 T02000144 58001 $,0,10,0,16090,0,0,0,
2026-03-31 07:53:00,METAR KDAL 310753Z 17008KT 10SM BKN250 21/13 A3001 RMK AO2 SLP155 T02060133 $,0,8,0,16090,0,0,0,
2026-03-31 06:53:00,METAR KDAL 310653Z 17007KT 10SM BKN250 21/13 A3000 RMK AO2 SLP154 T02110133 $,0,7,0,16090,0,0,0,
2026-03-31 05:53:00,METAR KDAL 310553Z 17008G21KT 10SM BKN250 22/13 A2999 RMK AO2 SLP149 T02220133 10278 20222 402890178 50006 $,0,8,1,16090,0,0,0,
2026-03-31 04:53:00,METAR KDAL 310453Z 16009KT 10SM BKN250 23/13 A2999 RMK AO2 SLP149 T02280128 $,0,9,0,16090,0,0,0,
2026-03-31 03:53:00,METAR KDAL 310353Z 15011KT 10SM BKN250 24/13 A2998 RMK AO2 SLP146 T02440128 $,0,11,0,16090,0,0,0,
2026-03-31 02:53:00,METAR KDAL 310253Z 16012G22KT 10SM BKN250 25/13 A2997 RMK AO2 SLP144 T02500128 53006 $,0,12,1,16090,0,0,0,
2026-03-31 01:53:00,METAR KDAL 310153Z 16014G22KT 10SM SCT250 26/13 A2995 RMK AO2 SLP137 T02560133 $,0,14,1,16090,0,0,0,
2026-03-31 00:53:00,METAR KDAL 310053Z 16011G20KT 10SM SCT250 26/14 A2995 RMK AO2 SLP137 T02610139 $,0,11,1,16090,0,0,0,
2026-03-30 23:53:00,METAR KDAL 302353Z 16012G21KT 10SM FEW060 SCT250 28/14 A2995 RMK AO2 PK WND 14026/2326 SLP136 T02780139 10289 20250 56011 $,0,12,1,16090,0,0,0,
2026-03-30 22:53:00,METAR KDAL 302253Z 16012G26KT 10SM FEW060 SCT250 28/14 A2995 RMK AO2 PK WND 17026/2244 SLP136 T02830144 $,0,12,1,16090,0,0,0,
2026-03-30 21:53:00,METAR KDAL 302153Z 15012G20KT 10SM FEW055 SCT250 28/15 A2996 RMK AO2 PK WND 15027/2124 SLP141 T02830150 $,0,12,1,16090,0,0,0,
2026-03-30 20:53:00,METAR KDAL 302053Z 17015G25KT 10SM FEW047 FEW250 28/15 A2999 RMK AO2 PK WND 18029/2017 SLP148 T02780150 58027 $,0,15,1,16090,0,0,0,
2026-03-30 19:53:00,METAR KDAL 301953Z 18014G24KT 10SM FEW040 FEW250 27/16 A3002 RMK AO2 PK WND 15027/1941 SLP159 T02670156 $,0,14,1,16090,0,0,0,
2026-03-30 18:53:00,METAR KDAL 301853Z 18013G23KT 10SM FEW042 FEW250 27/15 A3005 RMK AO2 PK WND 18026/1758 SLP168 T02670150 $,0,13,1,16090,0,0,0,
2026-03-30 17:53:00,METAR KDAL 301753Z 17016G28KT 10SM FEW037 FEW250 25/15 A3007 RMK AO2 PK WND 17028/1750 SLP176 T02500150 10250 20194 58012 $,0,16,1,16090,0,0,0,
2026-03-30 16:53:00,METAR KDAL 301653Z 17014G24KT 10SM FEW032 24/16 A3009 RMK AO2 PK WND 17027/1620 SLP183 T02440156 $,0,14,1,16090,0,0,0,
2026-03-30 16:19:00,SPECI KDAL 301619Z 16016G24KT 10SM SCT028 23/16 A3010 RMK AO2 SCT V BKN T02330156 $,0,16,1,16090,0,0,0,
2026-03-30 15:53:00,METAR KDAL 301553Z 18014G24KT 10SM BKN025 22/16 A3010 RMK AO2 SLP188 BKN V SCT T02220156,0,14,1,16090,0,0,0,
2026-03-30 15:51:00,SPECI KDAL 301551Z 18015G24KT 10SM BKN025 22/16 A3010 RMK AO2 BKN V SCT,0,15,1,16090,0,0,0,
2026-03-30 15:23:00,SPECI KDAL 301523Z 17009G18KT 10SM SCT021 SCT250 22/16 A3010 RMK AO2 T02170161,0,9,1,16090,0,0,0,
2026-03-30 14:53:00,METAR KDAL 301453Z 17010KT 10SM OVC022 21/16 A3010 RMK AO2 SLP189 BINOVC SW T02060161 50004,0,10,0,16090,0,0,0,VC
2026-03-30 13:53:00,METAR KDAL 301353Z 18009KT 10SM OVC024 20/16 A3011 RMK AO2 SLP189 T02000156,0,9,0,16090,0,0,0,
2026-03-30 12:53:00,METAR KDAL 301253Z 18011G18KT 10SM OVC024 20/15 A3010 RMK AO2 SLP186 BINOVC SW T02000150,0,11,1,16090,0,0,0,VC
2026-03-30 11:53:00,METAR KDAL 301153Z 19007G18KT 10SM OVC021 19/15 A3009 RMK AO2 SLP184 T01940150 10217 20178 53013,0,7,1,16090,0,0,0,
2026-03-30 10:53:00,METAR KDAL 301053Z 17010G17KT 10SM BKN018 19/15 A3007 RMK AO2 SLP178 T01890150,0,10,1,16090,0,0,0,
2026-03-30 10:28:00,SPECI KDAL 301028Z 18011G16KT 10SM BKN018 BKN250 18/15 A3006 RMK AO2 T01830150,0,11,1,16090,0,0,0,
2026-03-30 09:53:00,METAR KDAL 300953Z 16011KT 10SM FEW015 FEW250 18/14 A3005 RMK AO2 SLP171 T01830144,0,11,0,16090,0,0,0,
2026-03-30 08:53:00,METAR KDAL 300853Z 17009KT 10SM FEW250 19/14 A3005 RMK AO2 SLP172 T01890139 50001,0,9,0,16090,0,0,0,
2026-03-30 07:53:00,METAR KDAL 300753Z 17007KT 10SM FEW250 20/13 A3006 RMK AO2 SLP172 T02000133,0,7,0,16090,0,0,0,
2026-03-30 06:53:00,METAR KDAL 300653Z 18011G17KT 10SM FEW250 21/13 A3006 RMK AO2 SLP174 T02060133,0,11,1,16090,0,0,0,
2026-03-30 05:53:00,METAR KDAL 300553Z 17010G18KT 10SM FEW250 22/13 A3005 RMK AO2 SLP170 T02170133 10267 20217 402780106 50002,0,10,1,16090,0,0,0,
2026-03-30 04:53:00,METAR KDAL 300453Z 16008G18KT 10SM FEW250 22/13 A3006 RMK AO2 SLP172 T02170128,0,8,1,16090,0,0,0,
2026-03-30 03:53:00,METAR KDAL 300353Z 17010KT 10SM FEW250 23/12 A3005 RMK AO2 SLP171 T02280117,0,10,0,16090,0,0,0,
2026-03-30 02:53:00,METAR KDAL 300253Z 17010KT 10SM FEW250 24/12 A3005 RMK AO2 SLP170 T02390117 53006,0,10,0,16090,0,0,0,
2026-03-30 01:53:00,METAR KDAL 300153Z 17008KT 10SM FEW250 24/12 A3003 RMK AO2 SLP165 T02440117,0,8,0,16090,0,0,0,
2026-03-30 00:53:00,METAR KDAL 300053Z 19010G20KT 10SM FEW250 26/11 A3003 RMK AO2 SLP164 T02610106,0,10,1,16090,0,0,0,
2026-03-29 23:53:00,METAR KDAL 292353Z 18007G20KT 10SM FEW250 27/11 A3003 RMK AO2 SLP163 T02670106 10278 20244 56011,0,7,1,16090,0,0,0,
2026-03-29 22:53:00,METAR KDAL 292253Z 19009G23KT 160V230 10SM FEW250 28/11 A3004 RMK AO2 PK WND 17028/2207 SLP167 T02780106,0,9,1,16090,0,0,0,
2026-03-29 21:53:00,METAR KDAL 292153Z 19013G25KT 10SM FEW250 28/11 A3005 RMK AO2 SLP170 T02780106,0,13,1,16090,0,0,0,
2026-03-29 20:53:00,METAR KDAL 292053Z 17011G23KT 10SM FEW250 27/11 A3006 RMK AO2 SLP175 T02720106 58034,0,11,1,16090,0,0,0,
2026-03-29 19:53:00,METAR KDAL 291953Z 18014G28KT 10SM FEW250 27/11 A3010 RMK AO2 PK WND 18028/1950 SLP187 T02670111,0,14,1,16090,0,0,0,
2026-03-29 18:53:00,METAR KDAL 291853Z 18011G25KT 10SM FEW250 26/11 A3013 RMK AO2 SLP197 T02610111,0,11,1,16090,0,0,0,
2026-03-29 17:53:00,METAR KDAL 291753Z 17012G18KT 10SM FEW250 24/11 A3016 RMK AO2 SLP209 T02440106 10250 20106 58021,0,12,1,16090,0,0,0,
2026-03-29 16:53:00,METAR KDAL 291653Z 18009G17KT 10SM FEW250 22/09 A3019 RMK AO2 SLP220 T02220094,0,9,1,16090,0,0,0,
2026-03-29 15:53:00,METAR KDAL 291553Z 18011G18KT 10SM FEW250 20/08 A3021 RMK AO2 SLP228 T02000078,0,11,1,16090,0,0,0,
2026-03-29 14:53:00,METAR KDAL 291453Z 16008KT 10SM FEW250 16/06 A3023 RMK AO2 SLP232 T01610061 51004,0,8,0,16090,0,0,0,
2026-03-29 13:53:00,METAR KDAL 291353Z 16008KT 10SM FEW100 14/06 A3022 RMK AO2 SLP232 T01390056,0,8,0,16090,0,0,0,
2026-03-29 12:53:00,METAR KDAL 291253Z 14003KT 10SM FEW100 11/05 A3022 RMK AO2 SLP231 T01110050,0,3,0,16090,0,0,0,
2026-03-29 11:53:00,METAR KDAL 291153Z 12005KT 10SM FEW100 11/05 A3021 RMK AO2 SLP228 T01060050 10128 20106 55005,0,5,0,16090,0,0,0,
2026-03-29 10:53:00,METAR KDAL 291053Z 13005KT 10SM FEW100 11/04 A3021 RMK AO2 SLP228 T01060044,0,5,0,16090,0,0,0,
2026-03-29 09:53:00,METAR KDAL 290953Z 12005KT 10SM FEW100 11/04 A3021 RMK AO2 SLP229 T01110044,0,5,0,16090,0,0,0,
2026-03-29 08:53:00,METAR KDAL 290853Z 12004KT 10SM FEW100 11/04 A3023 RMK AO2 SLP233 T01110039 57012,0,4,0,16090,0,0,0,
2026-03-29 07:53:00,METAR KDAL 290753Z 12007KT 10SM FEW095 12/03 A3023 RMK AO2 SLP236 T01170033,0,7,0,16090,0,0,0,
2026-03-29 06:53:00,METAR KDAL 290653Z 12007KT 10SM FEW090 12/03 A3025 RMK AO2 SLP242 T01220028,0,7,0,16090,0,0,0,
2026-03-29 05:53:00,METAR KDAL 290553Z 13007KT 10SM FEW100 13/02 A3026 RMK AO2 SLP245 T01280022 10139 20122 401440117 58015,0,7,0,16090,0,0,0,
2026-03-29 04:53:00,METAR KDAL 290453Z 12004KT 10SM FEW110 12/03 A3028 RMK AO2 SLP250 T01220033,0,4,0,16090,0,0,0,
2026-03-29 03:53:00,METAR KDAL 290353Z 11005KT 10SM FEW035 SCT110 12/03 A3029 RMK AO2 SLP256 T01220033,0,5,0,16090,0,0,0,
2026-03-29 02:53:00,METAR KDAL 290253Z 14004KT 10SM FEW040 SCT090 BKN110 13/03 A3031 RMK AO2 SLP260 T01330033 56010,0,4,0,16090,0,0,0,
2026-03-29 01:53:00,METAR KDAL 290153Z 12004KT 10SM SCT040 BKN100 13/03 A3031 RMK AO2 SLP261 T01330028,0,4,0,16090,0,0,0,
2026-03-29 00:53:00,METAR KDAL 290053Z 11004KT 10SM BKN040 BKN110 14/02 A3032 RMK AO2 SLP263 T01390022,0,4,0,16090,0,0,0,
2026-03-28 23:53:00,METAR KDAL 282353Z 15006KT 10SM BKN040 BKN060 14/02 A3034 RMK AO2 SLP270 60000 T01390022 10144 20122 56020,0,6,0,16090,0,0,0,
2026-03-28 22:53:00,METAR KDAL 282253Z 11005KT 10SM BKN041 BKN060 14/02 A3035 RMK AO2 RAE2154 SLP274 P0000 T01390022,0,5,0,16090,0,0,0,RA
2026-03-28 21:53:00,METAR KDAL 282153Z 00000KT 10SM -RA BKN045 OVC055 12/03 A3037 RMK AO2 RAE20B40 SLP283 P0000 T01220033,0,0,0,16090,0,0,0,"-RA,RA"
2026-03-28 20:53:00,METAR KDAL 282053Z 10005KT 9SM -RA BKN042 OVC050 13/04 A3039 RMK AO2 RAB48 SLP290 P0000 60000 T01280039 58031,0,5,0,14481,0,0,0,-RA
2026-03-28 19:53:00,METAR KDAL 281953Z 08004KT 10SM BKN041 OVC048 14/03 A3043 RMK AO2 SLP303 T01390028,0,4,0,16090,0,0,0,
2026-03-28 18:53:00,METAR KDAL 281853Z 12007KT 10SM FEW030 OVC042 13/04 A3046 RMK AO2 SLP313 T01330044,0,7,0,16090,0,0,0,
2026-03-28 17:53:00,METAR KDAL 281753Z VRB06KT 10SM FEW033 OVC044 13/03 A3049 RMK AO2 SLP322 60000 T01330033 10133 20117 58009,0,6,0,16090,0,0,0,
2026-03-28 16:53:00,METAR KDAL 281653Z 07007KT 10SM FEW030 BKN046 OVC055 12/06 A3051 RMK AO2 RAE04 SLP329 P0000 T01220056,0,7,0,16090,0,0,0,
2026-03-28 15:53:00,METAR KDAL 281553Z 05007KT 10SM -RA FEW025 OVC047 12/05 A3052 RMK AO2 RAB43 SLP332 P0000 T01220050,0,7,0,16090,0,0,0,-RA
2026-03-28 14:53:00,METAR KDAL 281453Z 07007KT 10SM FEW025 OVC050 12/04 A3051 RMK AO2 SLP331 60000 T01220044 51010,0,7,0,16090,0,0,0,
2026-03-28 13:53:00,METAR KDAL 281353Z 08008G15KT 10SM FEW020 OVC047 12/04 A3051 RMK AO2 PK WND 07028/1320 SLP330 T01220039,0,8,1,16090,0,0,0,
2026-03-28 12:53:00,METAR KDAL 281253Z 07008KT 10SM FEW028 BKN046 OVC060 12/04 A3050 RMK AO2 RAB03E33 SLP326 P0000 T01170044,0,8,0,16090,0,0,0,RA
2026-03-28 11:53:00,METAR KDAL 281153Z 06007G17KT 10SM BKN047 OVC060 12/04 A3048 RMK AO2 SLP321 T01220039 10133 20122 53006,0,7,1,16090,0,0,0,
2026-03-28 10:53:00,METAR KDAL 281053Z 05009G19KT 10SM OVC047 12/04 A3048 RMK AO2 SLP318 T01220039,0,9,1,16090,0,0,0,
2026-03-28 09:53:00,METAR KDAL 280953Z 04008G17KT 10SM OVC046 13/03 A3047 RMK AO2 SLP315 T01280028,0,8,1,16090,0,0,0,
2026-03-28 08:53:00,METAR KDAL 280853Z 05008G18KT 10SM OVC043 13/02 A3047 RMK AO2 SLP314 T01330022 50005,0,8,1,16090,0,0,0,
2026-03-28 07:53:00,METAR KDAL 280753Z 05012G17KT 10SM OVC043 13/03 A3047 RMK AO2 SLP315 T01330028,0,12,1,16090,0,0,0,
2026-03-28 06:53:00,METAR KDAL 280653Z 05009G24KT 10SM OVC045 13/03 A3046 RMK AO2 SLP312 T01330033,0,9,1,16090,0,0,0,
2026-03-28 05:53:00,METAR KDAL 280553Z 03015G26KT 10SM OVC046 13/04 A3045 RMK AO2 PK WND 04026/0552 SLP308 T01330039 10144 20133 402390133 51006,0,15,1,16090,0,0,0,
2026-03-28 04:53:00,METAR KDAL 280453Z 03011KT 10SM OVC043 13/04 A3045 RMK AO2 SLP308 T01330044,0,11,0,16090,0,0,0,
2026-03-28 03:53:00,METAR KDAL 280353Z 02014G20KT 10SM OVC038 14/05 A3045 RMK AO2 PK WND 06026/0300 SLP305 T01390050,0,14,1,16090,0,0,0,
2026-03-28 03:31:00,SPECI KDAL 280331Z 04008G21KT 10SM SCT027 OVC036 14/07 A3044 RMK AO2 PK WND 06026/0300 T01440072,0,8,1,16090,0,0,0,
2026-03-28 02:53:00,METAR KDAL 280253Z 03009G18KT 10SM FEW023 BKN027 OVC033 14/07 A3044 RMK AO2 PK WND 04026/0210 SLP302 T01390072 52034,0,9,1,16090,0,0,0,
2026-03-28 01:53:00,METAR KDAL 280153Z 01013G19KT 10SM BKN023 OVC031 13/09 A3040 RMK AO2 SLP290 T01330089,0,13,1,16090,0,0,0,
2026-03-28 00:53:00,METAR KDAL 280053Z 03015G21KT 10SM OVC025 14/08 A3037 RMK AO2 PK WND 07029/0024 SLP281 T01390083,0,15,1,16090,0,0,0,
2026-03-27 23:53:00,METAR KDAL 272353Z 36014G20KT 10SM OVC026 14/08 A3033 RMK AO2 PK WND 36026/2328 SLP268 60000 T01440083 10217 20144 53026,0,14,1,16090,0,0,0,
2026-03-27 22:53:00,METAR KDAL 272253Z 01013G22KT 10SM OVC023 15/09 A3029 RMK AO2 SLP255 T01500094,0,13,1,16090,0,0,0,
2026-03-27 21:53:00,METAR KDAL 272153Z 01012G22KT 10SM OVC023 15/10 A3028 RMK AO2 PK WND 36028/2117 SLP248 T01500100,0,12,1,16090,0,0,0,
2026-03-27 20:53:00,METAR KDAL 272053Z 36014G27KT 10SM BKN025 OVC033 16/11 A3025 RMK AO2 PK WND 01029/2028 SLP240 60000 T01610106 51022,0,14,1,16090,0,0,0,
2026-03-27 20:06:00,SPECI KDAL 272006Z 36010G21KT 10SM BKN027 OVC033 18/11 A3023 RMK AO2 T01780111,0,10,1,16090,0,0,0,
2026-03-27 19:53:00,METAR KDAL 271953Z 01010G22KT 10SM SCT025 OVC033 18/11 A3023 RMK AO2 SLP232 T01830111,0,10,1,16090,0,0,0,
2026-03-27 19:43:00,SPECI KDAL 271943Z 01012G20KT 10SM SCT025 OVC033 18/11 A3023 RMK AO2 T01830111,0,12,1,16090,0,0,0,
2026-03-27 18:53:00,METAR KDAL 271853Z 02012G22KT 7SM SCT019 OVC026 17/13 A3022 RMK AO2 PK WND 36027/1806 RAB09E42 SLP228 P0000 T01720128,0,12,1,11263,0,0,0,RA
2026-03-27 17:53:00,METAR KDAL 271753Z 36010KT 10SM BKN023 OVC029 22/17 A3019 RMK AO2 SLP217 T02170167 10239 20183 51033,0,10,0,16090,0,0,0,
2026-03-27 16:53:00,METAR KDAL 271653Z 36007G17KT 10SM OVC024 22/17 A3018 RMK AO2 SLP214 T02170167,0,7,1,16090,0,0,0,
2026-03-27 15:53:00,METAR KDAL 271553Z 25004KT 10SM OVC024 22/16 A3015 RMK AO2 SLP206 T02220161,0,4,0,16090,0,0,0,
2026-03-25 14:53:00,METAR KDAL 251453Z 18013G20KT 10SM OVC017 21/17 A3006 RMK AO2 SLP174 OCNL BINOVC T02110172 51004,0,13,1,16090,0,0,0,VC
2026-03-25 14:50:00,SPECI KDAL 251450Z 20011G20KT 10SM BKN017 BKN250 22/17 A3006 RMK AO2,0,11,1,16090,0,0,0,
2026-03-25 13:53:00,METAR KDAL 251353Z COR 16007KT 10SM FEW016 BKN250 20/17 A3006 RMK AO2 SLP174 T02000167,0,7,0,16090,0,0,0,
2026-03-25 12:53:00,METAR KDAL 251253Z 16007KT 10SM FEW014 BKN250 19/16 A3005 RMK AO2 SLP170 T01890161 $,0,7,0,16090,0,0,0,
2026-03-25 12:04:00,SPECI KDAL 251204Z 18008KT 10SM SCT014 BKN250 19/16 A3003 RMK AO2 T01890161 $,0,8,0,16090,0,0,0,
2026-03-25 11:53:00,METAR KDAL 251153Z 18007KT 10SM BKN014 OVC250 19/16 A3003 RMK AO2 SLP164 T01890161 10222 20189 53004 $,0,7,0,16090,0,0,0,
2026-03-25 11:29:00,SPECI KDAL 251129Z 19008KT 10SM BKN014 OVC250 19/16 A3003 RMK AO2 T01890161 $,0,8,0,16090,0,0,0,
2026-03-25 10:53:00,METAR KDAL 251053Z 17007KT 10SM FEW015 OVC250 19/16 A3002 RMK AO2 SLP161 T01890156 $,0,7,0,16090,0,0,0,
2026-03-25 09:53:00,METAR KDAL 250953Z 17007KT 10SM BKN250 19/14 A3001 RMK AO2 SLP157 T01940144 $,0,7,0,16090,0,0,0,
2026-03-25 08:53:00,METAR KDAL 250853Z 17006KT 10SM BKN250 20/14 A3002 RMK AO2 SLP158 T02000139 50002 $,0,6,0,16090,0,0,0,
2026-03-25 07:53:00,METAR KDAL 250753Z 17007KT 10SM BKN250 21/14 A3002 RMK AO2 SLP159 T02060139 $,0,7,0,16090,0,0,0,
2026-03-25 06:53:00,METAR KDAL 250653Z 15009G17KT 10SM BKN250 22/14 A3002 RMK AO2 SLP158 T02170139 $,0,9,1,16090,0,0,0,
2026-03-25 05:53:00,METAR KDAL 250553Z 14008KT 10SM SCT250 22/14 A3001 RMK AO2 SLP157 T02220139 10272 20222 402830161 50002 $,0,8,0,16090,0,0,0,
2026-03-25 04:53:00,METAR KDAL 250453Z 13010KT 10SM FEW250 23/14 A3002 RMK AO2 SLP160 T02280139 $,0,10,0,16090,0,0,0,
2026-03-25 03:53:00,METAR KDAL 250353Z 14011KT 10SM SCT250 24/14 A3001 RMK AO2 SLP158 T02390139 $,0,11,0,16090,0,0,0,
2026-03-25 02:53:00,METAR KDAL 250253Z 14011KT 10SM BKN250 24/14 A3001 RMK AO2 SLP155 T02440139 53008 $,0,11,0,16090,0,0,0,
2026-03-25 01:53:00,METAR KDAL 250153Z 14008KT 10SM SCT250 25/14 A3000 RMK AO2 SLP152 T02500139 $,0,8,0,16090,0,0,0,
2026-03-25 00:53:00,METAR KDAL 250053Z 16007KT 10SM FEW250 26/12 A2998 RMK AO2 SLP148 T02610122 $,0,7,0,16090,0,0,0,
2026-03-24 23:53:00,METAR KDAL 242353Z 15011KT 10SM FEW250 27/11 A2998 RMK AO2 SLP147 T02720111 10283 20250 56008 $,0,11,0,16090,0,0,0,
2026-03-24 22:53:00,METAR KDAL 242253Z 15011KT 10SM FEW250 28/12 A2998 RMK AO2 SLP148 T02780122 $,0,11,0,16090,0,0,0,
2026-03-24 21:53:00,METAR KDAL 242153Z 16011G18KT 10SM FEW050 FEW250 28/12 A2999 RMK AO2 SLP149 T02830117 $,0,11,1,16090,0,0,0,
2026-03-24 20:53:00,METAR KDAL 242053Z 17009G18KT 10SM FEW050 FEW250 28/13 A3001 RMK AO2 SLP155 T02780128 56024 $,0,9,1,16090,0,0,0,
2026-03-24 19:53:00,METAR KDAL 241953Z 16010G16KT 10SM FEW047 FEW250 27/13 A3002 RMK AO2 SLP160 T02720133 $,0,10,1,16090,0,0,0,
2026-03-24 18:53:00,METAR KDAL 241853Z 16012G18KT 10SM FEW047 FEW210 FEW250 27/13 A3004 RMK AO2 PRESFR SLP168 T02720133 $,0,12,1,16090,0,0,0,
2026-03-24 17:53:00,METAR KDAL 241753Z 16009G16KT 10SM FEW220 FEW250 24/14 A3008 RMK AO2 SLP180 T02440139 10244 20161 58010 $,0,9,1,16090,0,0,0,
2026-03-24 16:53:00,METAR KDAL 241653Z 11008G16KT 10SM FEW220 FEW250 23/14 A3009 RMK AO2 SLP185 T02280139 $,0,8,1,16090,0,0,0,
2026-03-24 15:53:00,METAR KDAL 241553Z COR 13009G15KT 10SM FEW220 FEW250 21/12 A3011 RMK AO2 SLP189 VIRGA S T02110122 $,0,9,1,16090,0,0,0,
2026-03-24 14:53:00,METAR KDAL 241453Z 14009KT 10SM BKN210 BKN250 19/11 A3011 RMK AO2 SLP190 T01890106 53007,0,9,0,16090,0,0,0,
2026-03-24 13:53:00,METAR KDAL 241353Z 13010KT 10SM BKN210 BKN250 17/08 A3010 RMK AO2 SLP187 T01670083,0,10,0,16090,0,0,0,
2026-03-24 12:53:00,METAR KDAL 241253Z 12007KT 10SM BKN200 OVC250 16/07 A3010 RMK AO2 SLP185 T01610072,0,7,0,16090,0,0,0,
2026-03-24 11:53:00,METAR KDAL 241153Z 10010KT 10SM BKN200 OVC250 16/07 A3009 RMK AO2 SLP183 T01610067 10194 20161 51006,0,10,0,16090,0,0,0,
2026-03-24 10:53:00,METAR KDAL 241053Z 10008KT 10SM BKN210 OVC250 17/07 A3009 RMK AO2 SLP182 T01670072,0,8,0,16090,0,0,0,
2026-03-24 09:53:00,METAR KDAL 240953Z 10008G16KT 10SM BKN210 OVC250 17/08 A3007 RMK AO2 SLP178 T01720083,0,8,1,16090,0,0,0,
2026-03-24 08:53:00,METAR KDAL 240853Z 09008KT 10SM BKN250 18/10 A3007 RMK AO2 SLP176 T01780100 58002,0,8,0,16090,0,0,0,
2026-03-24 07:53:00,METAR KDAL 240753Z 08006KT 10SM BKN250 19/12 A3008 RMK AO2 SLP180 T01890117,0,6,0,16090,0,0,0,
2026-03-24 06:53:00,METAR KDAL 240653Z 09007KT 10SM BKN250 19/14 A3006 RMK AO2 SLP174 T01940139,0,7,0,16090,0,0,0,
2026-03-24 05:53:00,METAR KDAL 240553Z 04003KT 10SM BKN250 19/13 A3007 RMK AO2 SLP178 T01890128 10256 20183 402670150 50002,0,3,0,16090,0,0,0,
2026-03-24 04:53:00,METAR KDAL 240453Z 00000KT 10SM BKN250 19/13 A3008 RMK AO2 SLP181 T01940128,0,0,0,16090,0,0,0,
2026-03-24 03:53:00,METAR KDAL 240353Z 00000KT 10SM BKN250 21/13 A3008 RMK AO2 SLP179 T02060128,0,0,0,16090,0,0,0,
2026-03-24 02:53:00,METAR KDAL 240253Z 00000KT 10SM SCT250 23/12 A3007 RMK AO2 SLP176 T02280122 53008,0,0,0,16090,0,0,0,
2026-03-24 01:53:00,METAR KDAL 240153Z 17004KT 10SM FEW250 24/12 A3006 RMK AO2 SLP172 T02390117,0,4,0,16090,0,0,0,
2026-03-24 00:53:00,METAR KDAL 240053Z 14005KT 10SM FEW250 24/12 A3005 RMK AO2 SLP171 T02440117,0,5,0,16090,0,0,0,
2026-03-23 23:53:00,METAR KDAL 232353Z 11006KT 10SM FEW055 SCT250 26/12 A3004 RMK AO2 SLP168 T02560122 10267 20228 55005,0,6,0,16090,0,0,0,
2026-03-23 22:53:00,METAR KDAL 232253Z VRB04KT 10SM FEW050 FEW250 26/12 A3003 RMK AO2 SLP164 T02610122,0,4,0,16090,0,0,0,
2026-03-23 21:53:00,METAR KDAL 232153Z COR VRB04KT 10SM FEW050 FEW250 27/12 A3005 RMK AO2 SLP169 T02670122,0,4,0,16090,0,0,0,
2026-03-23 20:53:00,METAR KDAL 232053Z 00000KT 10SM FEW049 SCT250 26/12 A3006 RMK AO2 SLP173 T02610117 56026,0,0,0,16090,0,0,0,
2026-03-23 19:53:00,METAR KDAL 231953Z VRB03KT 10SM FEW045 SCT250 26/11 A3008 RMK AO2 SLP180 T02560111,0,3,0,16090,0,0,0,
2026-03-23 18:53:00,METAR KDAL 231853Z 04004KT 10SM FEW210 BKN250 24/11 A3011 RMK AO2 SLP192 T02390106,0,4,0,16090,0,0,0,
2026-03-23 17:53:00,METAR KDAL 231753Z VRB05KT 10SM FEW210 BKN250 23/10 A3014 RMK AO2 SLP199 T02280100 10228 20150 50005,0,5,0,16090,0,0,0,
2026-03-23 16:53:00,METAR KDAL 231653Z 36009G20KT 310V030 10SM SCT250 22/09 A3014 RMK AO2 SLP201 T02170089,0,9,1,16090,0,0,0,
2026-03-23 15:53:00,METAR KDAL 231553Z COR 01008KT 10SM FEW210 FEW280 20/08 A3014 RMK AO2 SLP201 T02000078,0,8,0,16090,0,0,0,
2026-03-23 14:53:00,METAR KDAL 231453Z 01009KT 10SM FEW210 FEW280 18/07 A3012 RMK AO2 SLP194 T01830072 53024,0,9,0,16090,0,0,0,
2026-03-23 13:53:00,METAR KDAL 231353Z COR 01007G15KT 290V100 10SM FEW210 FEW250 17/07 A3010 RMK AO2 SLP187 T01670067,0,7,1,16090,0,0,0,
2026-03-23 12:53:00,METAR KDAL 231253Z 36006KT 10SM FEW210 SCT250 16/07 A3007 RMK AO2 SLP177 T01560072,0,6,0,16090,0,0,0,
2026-03-23 11:53:00,METAR KDAL 231153Z 02007KT 10SM SCT250 16/07 A3005 RMK AO2 SLP169 T01610072 10233 20161 53017,0,7,0,16090,0,0,0,
2026-03-23 10:53:00,METAR KDAL 231053Z 04007KT 10SM BKN250 17/08 A3003 RMK AO2 SLP161 T01670078,0,7,0,16090,0,0,0,
2026-03-23 09:53:00,METAR KDAL 230953Z 03007KT 10SM BKN250 17/08 A3001 RMK AO2 SLP156 T01720078,0,7,0,16090,0,0,0,
2026-03-23 08:53:00,METAR KDAL 230853Z 02006KT 10SM BKN250 18/08 A3000 RMK AO2 SLP152 T01830083 53016,0,6,0,16090,0,0,0,
2026-03-23 07:53:00,METAR KDAL 230753Z 05009G17KT 10SM BKN250 21/09 A2998 RMK AO2 SLP146 T02060089,0,9,1,16090,0,0,0,
2026-03-23 06:53:00,METAR KDAL 230653Z 06007G18KT 10SM BKN250 22/10 A2996 RMK AO2 SLP139 T02220100,0,7,1,16090,0,0,0,
2026-03-23 05:53:00,METAR KDAL 230553Z 03005KT 10SM BKN250 23/11 A2995 RMK AO2 SLP135 T02280106 10322 20228 403390183 51023,0,5,0,16090,0,0,0,
2026-03-23 04:53:00,METAR KDAL 230453Z VRB05KT 10SM BKN250 24/10 A2994 RMK AO2 SLP132 T02390100,0,5,0,16090,0,0,0,
2026-03-23 03:53:00,METAR KDAL 230353Z 00000KT 10SM FEW250 25/09 A2992 RMK AO2 SLP124 T02500094,0,0,0,16090,0,0,0,
2026-03-23 02:53:00,METAR KDAL 230253Z 24003KT 10SM FEW250 27/09 A2988 RMK AO2 SLP113 T02720094 53031,0,3,0,16090,0,0,0,
2026-03-23 01:53:00,METAR KDAL 230153Z 17008KT 10SM SCT250 29/08 A2983 RMK AO2 SLP095 T02890083,0,8,0,16090,0,0,0,
2026-03-23 00:53:00,METAR KDAL 230053Z 17011G18KT 10SM BKN250 31/08 A2981 RMK AO2 SLP086 T03060078,0,11,1,16090,0,0,0,
2026-03-22 23:53:00,METAR KDAL 222353Z 17011G19KT 10SM BKN250 32/08 A2979 RMK AO2 PK WND 21026/2309 SLP082 T03220083 10339 20306 53006,0,11,1,16090,0,0,0,
2026-03-22 22:53:00,METAR KDAL 222253Z 19011G22KT 10SM SCT250 33/07 A2977 RMK AO2 SLP072 T03330072,0,11,1,16090,0,0,0,
2026-03-22 21:53:00,METAR KDAL 222153Z 20013G22KT 10SM SCT250 34/07 A2977 RMK AO2 PK WND 19028/2122 SLP073 T03390072,0,13,1,16090,0,0,0,
2026-03-22 20:53:00,METAR KDAL 222053Z 19010G21KT 10SM SCT250 34/07 A2977 RMK AO2 PK WND 22027/1954 SLP075 T03390072 56017,0,10,1,16090,0,0,0,
2026-03-22 19:53:00,METAR KDAL 221953Z 21015G27KT 10SM SCT250 33/08 A2979 RMK AO2 PK WND 20027/1948 SLP080 T03280078,0,15,1,16090,0,0,0,
2026-03-22 18:53:00,METAR KDAL 221853Z 20011G24KT 10SM SCT250 32/08 A2981 RMK AO2 PK WND 19026/1810 SLP085 T03220083,0,11,1,16090,0,0,0,
2026-03-22 17:53:00,METAR KDAL 221753Z 18011G23KT 10SM FEW250 31/08 A2982 RMK AO2 SLP091 T03060083 10306 20183 58007,0,11,1,16090,0,0,0,
2026-03-22 16:53:00,METAR KDAL 221653Z 18014G23KT 10SM FEW250 28/09 A2984 RMK AO2 SLP096 T02780089,0,14,1,16090,0,0,0,
2026-03-22 15:53:00,METAR KDAL 221553Z 21012G21KT 10SM FEW250 26/09 A2985 RMK AO2 SLP100 T02610094,0,12,1,16090,0,0,0,
2026-03-22 14:53:00,METAR KDAL 221453Z 17008KT 10SM FEW250 22/12 A2984 RMK AO2 SLP099 T02220117 53011,0,8,0,16090,0,0,0,
2026-03-22 13:53:00,METAR KDAL 221353Z 17010KT 10SM FEW250 19/11 A2983 RMK AO2 SLP096 T01940111,0,10,0,16090,0,0,0,
2026-03-22 12:53:00,METAR KDAL 221253Z 16009KT 10SM FEW250 18/11 A2982 RMK AO2 SLP091 T01830111,0,9,0,16090,0,0,0,
2026-03-22 11:53:00,METAR KDAL 221153Z 16008KT 10SM CLR 19/11 A2981 RMK AO2 SLP088 T01890111 10244 20189 53001,0,8,0,16090,0,0,0,
2026-03-22 10:53:00,METAR KDAL 221053Z 16008KT 10SM CLR 19/11 A2981 RMK AO2 SLP086 T01940111,0,8,0,16090,0,0,0,
2026-03-22 09:53:00,METAR KDAL 220953Z 16009KT 10SM CLR 21/12 A2980 RMK AO2 SLP082 T02060117,0,9,0,16090,0,0,0,
2026-03-22 08:53:00,METAR KDAL 220853Z 18009KT 10SM CLR 22/12 A2981 RMK AO2 SLP086 T02170122 58009,0,9,0,16090,0,0,0,
2026-03-22 07:53:00,METAR KDAL 220753Z 17009KT 10SM CLR 23/13 A2982 RMK AO2 SLP091 T02280128,0,9,0,16090,0,0,0,
2026-03-22 06:53:00,METAR KDAL 220653Z 18011G19KT 10SM CLR 23/13 A2983 RMK AO2 SLP095 T02330133,0,11,1,16090,0,0,0,
2026-03-22 05:53:00,METAR KDAL 220553Z 18010G18KT 10SM CLR 24/13 A2984 RMK AO2 SLP095 T02390128 10317 20239 403280167 53003,0,10,1,16090,0,0,0,
2026-03-22 04:53:00,METAR KDAL 220453Z 17008KT 10SM CLR 25/12 A2983 RMK AO2 SLP095 T02500122,0,8,0,16090,0,0,0,
2026-03-22 03:53:00,METAR KDAL 220353Z 17010KT 10SM CLR 26/13 A2982 RMK AO2 SLP093 T02610128,0,10,0,16090,0,0,0,
2026-03-22 02:53:00,METAR KDAL 220253Z 17011KT 10SM CLR 27/13 A2983 RMK AO2 SLP093 T02720128 53004,0,11,0,16090,0,0,0,
2026-03-22 01:53:00,METAR KDAL 220153Z 16008KT 10SM CLR 28/12 A2982 RMK AO2 SLP093 T02830122,0,8,0,16090,0,0,0,
2026-03-22 00:53:00,METAR KDAL 220053Z 17009KT 10SM CLR 30/12 A2982 RMK AO2 SLP091 T03000122,0,9,0,16090,0,0,0,
2026-03-21 23:53:00,METAR KDAL 212353Z 17014G20KT 10SM CLR 32/12 A2982 RMK AO2 SLP090 T03170117 10328 20294 56010,0,14,1,16090,0,0,0,
2026-03-21 22:53:00,METAR KDAL 212253Z 18011G17KT 10SM CLR 33/13 A2982 RMK AO2 SLP090 T03280128,0,11,1,16090,0,0,0,
2026-03-21 21:53:00,METAR KDAL 212153Z 17014G21KT 10SM CLR 32/14 A2983 RMK AO2 SLP094 T03220144,0,14,1,16090,0,0,0,
2026-03-21 20:53:00,METAR KDAL 212053Z 18009KT 10SM CLR 33/13 A2984 RMK AO2 SLP098 T03280128 56025,0,9,0,16090,0,0,0,
2026-03-21 19:53:00,METAR KDAL 211953Z 19008G17KT 10SM CLR 32/12 A2987 RMK AO2 SLP106 T03170117,0,8,1,16090,0,0,0,
2026-03-21 18:53:00,METAR KDAL 211853Z 18008KT 10SM CLR 31/12 A2989 RMK AO2 SLP116 T03060122,0,8,0,16090,0,0,0,
2026-03-21 17:53:00,METAR KDAL 211753Z 23009G15KT 10SM CLR 29/11 A2992 RMK AO2 SLP125 T02940106 10294 20167 58012,0,9,1,16090,0,0,0,
2026-03-21 16:53:00,METAR KDAL 211653Z 16009KT 10SM CLR 27/13 A2994 RMK AO2 SLP132 T02720128,0,9,0,16090,0,0,0,
2026-03-21 15:53:00,METAR KDAL 211553Z 16008KT 10SM CLR 23/14 A2995 RMK AO2 SLP135 T02330144,0,8,0,16090,0,0,0,
2026-03-21 14:53:00,METAR KDAL 211453Z 19008G15KT 10SM CLR 20/14 A2996 RMK AO2 SLP139 T02000144 53006,0,8,1,16090,0,0,0,
2026-03-21 13:53:00,METAR KDAL 211353Z 17006KT 10SM CLR 18/14 A2995 RMK AO2 SLP137 T01780144,0,6,0,16090,0,0,0,
2026-03-21 12:53:00,METAR KDAL 211253Z 17006KT 10SM CLR 17/14 A2994 RMK AO2 SLP133 T01670139,0,6,0,16090,0,0,0,
2026-03-21 11:53:00,METAR KDAL 211153Z 16006KT 10SM CLR 17/14 A2994 RMK AO2 SLP132 T01720139 10222 20172 55001,0,6,0,16090,0,0,0,
2026-03-21 10:53:00,METAR KDAL 211053Z 17008KT 10SM CLR 18/13 A2993 RMK AO2 SLP130 T01780133,0,8,0,16090,0,0,0,
2026-03-21 09:53:00,METAR KDAL 210953Z 17010G16KT 10SM CLR 19/13 A2993 RMK AO2 SLP129 T01890133,0,10,1,16090,0,0,0,
2026-03-21 08:53:00,METAR KDAL 210853Z 17007KT 10SM CLR 20/13 A2994 RMK AO2 SLP133 T02000133 58001,0,7,0,16090,0,0,0,
2026-03-21 07:53:00,METAR KDAL 210753Z 18008G18KT 10SM CLR 21/13 A2995 RMK AO2 SLP135 T02110133,0,8,1,16090,0,0,0,
2026-03-21 06:53:00,METAR KDAL 210653Z 17009KT 10SM CLR 22/13 A2995 RMK AO2 SLP134 T02170128,0,9,0,16090,0,0,0,
2026-03-21 05:53:00,METAR KDAL 210553Z 17010KT 10SM CLR 22/13 A2995 RMK AO2 SLP134 T02220128 10300 20222 403220156 50003,0,10,0,16090,0,0,0,
2026-03-21 04:53:00,METAR KDAL 210453Z 17008KT 10SM CLR 23/12 A2995 RMK AO2 SLP134 T02330122,0,8,0,16090,0,0,0,
2026-03-21 03:53:00,METAR KDAL 210353Z 16010KT 10SM CLR 25/12 A2994 RMK AO2 SLP132 T02500117,0,10,0,16090,0,0,0,
2026-03-21 02:53:00,METAR KDAL 210253Z 17008KT 10SM CLR 26/12 A2994 RMK AO2 SLP131 T02560117 51005,0,8,0,16090,0,0,0,
2026-03-21 01:53:00,METAR KDAL 210153Z 16009KT 10SM CLR 27/11 A2993 RMK AO2 SLP129 T02720111,0,9,0,16090,0,0,0,
2026-03-21 00:53:00,METAR KDAL 210053Z 18008G16KT 10SM FEW250 29/11 A2993 RMK AO2 SLP128 T02890106,0,8,1,16090,0,0,0,
2026-03-20 23:53:00,METAR KDAL 202353Z 18012G19KT 10SM FEW250 30/11 A2992 RMK AO2 SLP126 T03000111 10322 20272 56012,0,12,1,16090,0,0,0,
2026-03-20 22:53:00,METAR KDAL 202253Z COR 21011KT 10SM FEW250 31/10 A2992 RMK AO2 SLP126 T03110100,0,11,0,16090,0,0,0,
2026-03-20 21:53:00,METAR KDAL 202153Z 21010KT 10SM FEW250 32/11 A2994 RMK AO2 SLP131 T03170106,0,10,0,16090,0,0,0,
2026-03-20 20:53:00,METAR KDAL 202053Z 20009KT 10SM FEW250 31/10 A2995 RMK AO2 SLP136 T03060100 56024,0,9,0,16090,0,0,0,
2026-03-20 19:53:00,METAR KDAL 201953Z 20007KT 160V220 10SM FEW250 30/11 A2997 RMK AO2 SLP142 T03000106,0,7,0,16090,0,0,0,
2026-03-20 18:53:00,METAR KDAL 201853Z 24010KT 10SM FEW250 28/10 A3000 RMK AO2 SLP154 T02830100,0,10,0,16090,0,0,0,
2026-03-20 17:53:00,METAR KDAL 201753Z 23010G17KT 10SM FEW250 28/09 A3002 RMK AO2 SLP160 T02780089 10278 20156 58013,0,10,1,16090,0,0,0,
2026-03-20 16:53:00,METAR KDAL 201653Z 18007KT 10SM CLR 26/11 A3005 RMK AO2 SLP168 T02560106,0,7,0,16090,0,0,0,
2026-03-20 15:53:00,METAR KDAL 201553Z 17009KT 10SM CLR 22/11 A3005 RMK AO2 SLP171 T02220106,0,9,0,16090,0,0,0,
2026-03-20 14:53:00,METAR KDAL 201453Z 18010KT 10SM CLR 19/11 A3006 RMK AO2 SLP175 T01940106 53008,0,10,0,16090,0,0,0,
2026-03-20 13:53:00,METAR KDAL 201353Z 17006KT 10SM CLR 17/11 A3005 RMK AO2 SLP171 T01670106 $,0,6,0,16090,0,0,0,
2026-03-20 12:53:00,METAR KDAL 201253Z 16005KT 10SM FEW250 16/11 A3005 RMK AO2 SLP169 T01560106 $,0,5,0,16090,0,0,0,
2026-03-20 11:53:00,METAR KDAL 201153Z 16006KT 10SM FEW250 16/11 A3004 RMK AO2 SLP166 T01610106 10211 20161 53004 $,0,6,0,16090,0,0,0,
2026-03-20 10:53:00,METAR KDAL 201053Z 16007KT 10SM CLR 17/11 A3002 RMK AO2 SLP161 T01670106 $,0,7,0,16090,0,0,0,
2026-03-20 09:53:00,METAR KDAL 200953Z 16007KT 10SM CLR 17/11 A3002 RMK AO2 SLP158 T01720106 $,0,7,0,16090,0,0,0,
2026-03-20 08:53:00,METAR KDAL 200853Z 15009KT 10SM CLR 18/10 A3003 RMK AO2 SLP161 T01830100 58004 $,0,9,0,16090,0,0,0,
2026-03-20 07:53:00,METAR KDAL 200753Z 16008KT 10SM CLR 19/10 A3003 RMK AO2 SLP164 T01890100 $,0,8,0,16090,0,0,0,
2026-03-20 06:53:00,METAR KDAL 200653Z 16009KT 10SM CLR 20/10 A3003 RMK AO2 SLP165 T02000100 $,0,9,0,16090,0,0,0,
2026-03-20 05:53:00,METAR KDAL 200553Z 16008KT 10SM CLR 21/09 A3004 RMK AO2 SLP165 T02110094 10283 20211 403000128 53002 $,0,8,0,16090,0,0,0,
2026-03-20 04:53:00,METAR KDAL 200453Z 16007KT 10SM CLR 22/09 A3003 RMK AO2 SLP164 T02220094 $,0,7,0,16090,0,0,0,
2026-03-20 03:53:00,METAR KDAL 200353Z 16008G16KT 10SM CLR 23/10 A3003 RMK AO2 SLP162 T02330100 $,0,8,1,16090,0,0,0,
2026-03-20 02:53:00,METAR KDAL 200253Z 16007KT 10SM CLR 24/10 A3003 RMK AO2 SLP164 T02390100 53009 $,0,7,0,16090,0,0,0,
2026-03-20 01:53:00,METAR KDAL 200153Z 17010KT 10SM CLR 26/10 A3001 RMK AO2 SLP159 T02610100 /,0,10,0,16090,0,0,0,
2026-03-20 00:53:00,METAR KDAL 200053Z 18009KT 10SM FEW250 27/10 A3001 RMK AO2 SLP157 T02720100 $,0,9,0,16090,0,0,0,
2026-03-19 23:53:00,METAR KDAL 192353Z 17012G19KT 10SM FEW250 28/09 A3000 RMK AO2 SLP154 T02830094 10300 20250 56014 $,0,12,1,16090,0,0,0,
2026-03-19 22:53:00,METAR KDAL 192253Z 19009G17KT 10SM FEW250 29/09 A3000 RMK AO2 SLP155 T02940089 $,0,9,1,16090,0,0,0,
2026-03-19 21:53:00,METAR KDAL 192153Z 21008G21KT 10SM FEW250 30/08 A3002 RMK AO2 SLP161 T03000083 $,0,8,1,16090,0,0,0,
2026-03-19 20:53:00,METAR KDAL 192053Z 18012G19KT 10SM FEW250 29/09 A3004 RMK AO2 SLP167 T02890094 58030 $,0,12,1,16090,0,0,0,
2026-03-19 19:53:00,METAR KDAL 191953Z 19009G15KT 10SM FEW250 28/10 A3008 RMK AO2 SLP179 T02780100 $,0,9,1,16090,0,0,0,
2026-03-19 18:53:00,METAR KDAL 191853Z 23008KT 10SM CLR 27/10 A3011 RMK AO2 SLP190 T02670100 $,0,8,0,16090,0,0,0,
2026-03-19 17:53:00,METAR KDAL 191753Z 22005KT 10SM FEW250 24/09 A3013 RMK AO2 SLP198 T02440094 10250 20128 58008 $,0,5,0,16090,0,0,0,
2026-03-19 16:53:00,METAR KDAL 191653Z 21006KT 10SM FEW250 22/09 A3015 RMK AO2 SLP203 T02220094 $,0,6,0,16090,0,0,0,
2026-03-19 15:53:00,METAR KDAL 191553Z 21008G17KT 10SM FEW250 20/09 A3016 RMK AO2 SLP208 T02000094 $,0,8,1,16090,0,0,0,
2026-03-19 14:53:00,METAR KDAL 191453Z 16006KT 10SM FEW005 SCT250 16/09 A3016 RMK AO2 SLP207 FU FEW005 DSNT W-NW T01610094 53014 $,0,6,0,16090,0,0,0,DS
2026-03-19 13:53:00,METAR KDAL 191353Z 16006KT 10SM FEW005 SCT250 14/09 A3014 RMK AO2 SLP201 FU FEW005 DSNT W T01390089 $,0,6,0,16090,0,0,0,DS
2026-03-19 12:53:00,METAR KDAL 191253Z 16008KT 10SM SCT250 13/08 A3012 RMK AO2 SLP196 T01280083 $,0,8,0,16090,0,0,0,
2026-03-19 11:53:00,METAR KDAL 191153Z 16006KT 10SM BKN250 13/08 A3012 RMK AO2 SLP194 T01330083 10183 20133 53001 $,0,6,0,16090,0,0,0,
2026-03-19 10:53:00,METAR KDAL 191053Z 17007KT 10SM BKN250 14/08 A3011 RMK AO2 SLP191 T01390083 $,0,7,0,16090,0,0,0,
2026-03-19 09:53:00,METAR KDAL 190953Z 16005KT 10SM FEW250 14/08 A3011 RMK AO2 SLP192 T01440083 $,0,5,0,16090,0,0,0,
2026-03-19 08:53:00,METAR KDAL 190853Z 16005KT 10SM FEW250 16/08 A3011 RMK AO2 SLP192 T01560078 50001 $,0,5,0,16090,0,0,0,
2026-03-19 07:53:00,METAR KDAL 190753Z 00000KT 10SM FEW250 14/07 A3012 RMK AO2 SLP193 T01390067 $,0,0,0,16090,0,0,0,
2026-03-19 06:53:00,METAR KDAL 190653Z 00000KT 10SM SCT250 16/06 A3012 RMK AO2 SLP194 T01610061 $,0,0,0,16090,0,0,0,
2026-03-19 05:53:00,METAR KDAL 190553Z 17005KT 10SM SCT250 18/06 A3011 RMK AO2 SLP192 T01830056 10222 20183 402390083 51007 $,0,5,0,16090,0,0,0,
2026-03-19 04:53:00,METAR KDAL 190453Z 18008KT 10SM BKN250 19/06 A3010 RMK AO2 SLP189 T01890056 $,0,8,0,16090,0,0,0,
2026-03-19 03:53:00,METAR KDAL 190353Z 18008KT 10SM BKN250 19/06 A3010 RMK AO2 SLP190 T01940056 $,0,8,0,16090,0,0,0,
2026-03-19 02:53:00,METAR KDAL 190253Z 19007G16KT 10SM BKN250 19/06 A3009 RMK AO2 SLP186 T01940056 55001 $,0,7,1,16090,0,0,0,
2026-03-19 01:53:00,METAR KDAL 190153Z 18011G17KT 10SM SCT250 21/05 A3008 RMK AO2 SLP182 T02060050 $,0,11,1,16090,0,0,0,
2026-03-19 00:53:00,METAR KDAL 190053Z 18008KT 10SM SCT250 21/06 A3008 RMK AO2 SLP182 T02110056 $,0,8,0,16090,0,0,0,
2026-03-18 23:53:00,METAR KDAL 182353Z 18009KT 10SM BKN250 22/06 A3009 RMK AO2 SLP187 T02220056 10239 20183 55004 $,0,9,0,16090,0,0,0,
2026-03-18 22:53:00,METAR KDAL 182253Z 18010KT 10SM BKN250 23/06 A3009 RMK AO2 SLP185 T02280056 $,0,10,0,16090,0,0,0,
2026-03-18 21:53:00,METAR KDAL 182153Z 19007KT 10SM BKN250 23/06 A3010 RMK AO2 SLP187 T02330056 $,0,7,0,16090,0,0,0,
2026-03-18 20:53:00,METAR KDAL 182053Z 17008KT 10SM BKN250 23/05 A3010 RMK AO2 SLP190 T02330050 56029 $,0,8,0,16090,0,0,0,
2026-03-18 19:53:00,METAR KDAL 181953Z 21010G18KT 10SM BKN250 22/05 A3012 RMK AO2 SLP196 T02170050 $,0,10,1,16090,0,0,0,
2026-03-18 18:53:00,METAR KDAL 181853Z 23010G18KT 10SM BKN250 20/04 A3016 RMK AO2 SLP211 T02000044 $,0,10,1,16090,0,0,0,
2026-03-18 17:53:00,METAR KDAL 181753Z 23013G20KT 10SM BKN250 18/04 A3019 RMK AO2 SLP220 T01830039 10189 20083 50001 $,0,13,1,16090,0,0,0,
2026-03-18 16:53:00,METAR KDAL 181653Z 22009G20KT 10SM BKN250 17/04 A3020 RMK AO2 SLP223 T01720039 $,0,9,1,16090,0,0,0,
2026-03-18 15:53:00,METAR KDAL 181553Z 21015G22KT 10SM FEW150 BKN250 15/03 A3019 RMK AO2 SLP219 T01500028 $,0,15,1,16090,0,0,0,
2026-03-18 14:53:00,METAR KDAL 181453Z 18010KT 10SM FEW005 FEW140 BKN250 12/03 A3019 RMK AO2 SLP221 FU FEW005 DSNT W T01170028 53013 $,0,10,0,16090,0,0,0,DS
2026-03-18 13:53:00,METAR KDAL 181353Z 17009KT 10SM BKN140 BKN250 09/02 A3018 RMK AO2 SLP216 T00940017 $,0,9,0,16090,0,0,0,
2026-03-18 12:53:00,METAR KDAL 181253Z 17009KT 10SM BKN130 BKN250 08/00 A3016 RMK AO2 SLP211 T00830000 $,0,9,0,16090,0,0,0,
2026-03-18 11:53:00,METAR KDAL 181153Z 16008KT 10SM BKN130 BKN250 09/M01 A3015 RMK AO2 SLP208 T00891006 10117 20089 53019 $,0,8,0,16090,0,0,0,
2026-03-18 10:53:00,METAR KDAL 181053Z 17007KT 10SM BKN250 09/M02 A3013 RMK AO2 SLP199 T00891022 $,0,7,0,16090,0,0,0,
2026-03-18 09:53:00,METAR KDAL 180953Z 17008KT 10SM BKN250 09/M04 A3010 RMK AO2 SLP189 T00941039 $,0,8,0,16090,0,0,0,
2026-03-18 08:53:00,METAR KDAL 180853Z 18008KT 10SM BKN250 10/M04 A3010 RMK AO2 SLP189 T01001044 58010 $,0,8,0,16090,0,0,0,
2026-03-18 07:53:00,METAR KDAL 180753Z 18011KT 10SM BKN250 11/M04 A3012 RMK AO2 SLP196 T01061044 $,0,11,0,16090,0,0,0,
2026-03-18 06:53:00,METAR KDAL 180653Z 18009G18KT 10SM BKN250 12/M06 A3012 RMK AO2 SLP196 T01171056 $,0,9,1,16090,0,0,0,
2026-03-18 05:53:00,METAR KDAL 180553Z 17006KT 10SM BKN250 12/M06 A3013 RMK AO2 SLP199 T01171056 10167 20117 401720011 51009 $,0,6,0,16090,0,0,0,
2026-03-18 04:53:00,METAR KDAL 180453Z 17009KT 10SM BKN250 12/M06 A3012 RMK AO2 SLP198 T01221056 $,0,9,0,16090,0,0,0,
2026-03-18 03:53:00,METAR KDAL 180353Z 16013G21KT 10SM BKN250 13/M06 A3011 RMK AO2 SLP195 T01331061 $,0,13,1,16090,0,0,0,
2026-03-18 02:53:00,METAR KDAL 180253Z 16010G19KT 10SM FEW250 14/M07 A3010 RMK AO2 SLP191 T01391072 55004 $,0,10,1,16090,0,0,0,
2026-03-18 01:53:00,METAR KDAL 180153Z 17010KT 10SM BKN250 14/M08 A3010 RMK AO2 SLP191 T01441078 $,0,10,0,16090,0,0,0,
2026-03-18 00:53:00,METAR KDAL 180053Z 17009G19KT 10SM SCT250 16/M08 A3010 RMK AO2 SLP192 T01561083 $,0,9,1,16090,0,0,0,
2026-03-17 23:53:00,METAR KDAL 172353Z 18009G21KT 10SM SCT250 17/M08 A3011 RMK AO2 SLP194 T01671083 10172 20133 55014 $,0,9,1,16090,0,0,0,
2026-03-17 22:53:00,METAR KDAL 172253Z 18012G24KT 10SM SCT250 17/M09 A3011 RMK AO2 SLP194 T01721089 $,0,12,1,16090,0,0,0,
2026-03-17 21:53:00,METAR KDAL 172153Z 21013G30KT 10SM BKN250 17/M09 A3011 RMK AO2 PK WND 18030/2145 SLP195 T01671089 $,0,13,1,16090,0,0,0,
2026-03-17 20:53:00,METAR KDAL 172053Z 21014G20KT 10SM BKN250 16/M09 A3015 RMK AO2 SLP208 T01611089 58041 $,0,14,1,16090,0,0,0,
2026-03-17 19:53:00,METAR KDAL 171953Z 18013G20KT 10SM BKN250 16/M09 A3020 RMK AO2 SLP224 T01561089 $,0,13,1,16090,0,0,0,
2026-03-17 18:53:00,METAR KDAL 171853Z COR 18011G20KT 10SM BKN250 14/M09 A3024 RMK AO2 SLP239 T01441094 $,0,11,1,16090,0,0,0,
2026-03-17 17:53:00,METAR KDAL 171753Z 17013G22KT 10SM BKN250 13/M09 A3027 RMK AO2 SLP251 T01331089 10133 20044 58018 $,0,13,1,16090,0,0,0,
2026-03-17 16:53:00,METAR KDAL 171653Z 18010KT 10SM BKN250 12/M11 A3031 RMK AO2 SLP263 T01171106 $,0,10,0,16090,0,0,0,
2026-03-17 15:53:00,METAR KDAL 171553Z 18009KT 10SM BKN250 10/M10 A3032 RMK AO2 SLP267 T01001100 $,0,9,0,16090,0,0,0,
2026-03-17 14:53:00,METAR KDAL 171453Z 17008KT 10SM FEW008 BKN250 08/M08 A3033 RMK AO2 SLP270 FU FEW008 DSNT W-NW T00781083 53015 $,0,8,0,16090,0,0,0,DS
2026-03-17 13:53:00,METAR KDAL 171353Z 16004KT 10SM FEW008 FEW180 BKN250 06/M08 A3032 RMK AO2 SLP268 FU FEW008 DSNT NW T00561083 $,0,4,0,16090,0,0,0,DS
2026-03-17 12:53:00,METAR KDAL 171253Z 16005KT 10SM FEW180 BKN250 04/M09 A3029 RMK AO2 SLP257 T00441089 $,0,5,0,16090,0,0,0,
2026-03-17 11:53:00,METAR KDAL 171153Z 00000KT 10SM BKN180 BKN250 04/M08 A3028 RMK AO2 SLP256 T00441078 10044 20011 55007 $,0,0,0,16090,0,0,0,
2026-03-17 10:53:00,METAR KDAL 171053Z 22005KT 10SM BKN180 BKN210 04/M07 A3028 RMK AO2 SLP253 T00391067 $,0,5,0,16090,0,0,0,
2026-03-17 10:05:00,SPECI KDAL 171005Z 24003KT 10SM BKN210 OVC250 04/M07 A3029 RMK AO2 T00391072 $,0,3,0,16090,0,0,0,
2026-03-17 09:53:00,METAR KDAL 170953Z COR 23003KT 10SM BKN210021 OVC250 04/M07 A3029 RMK AO2 SLP257 T00441072 $,0,3,0,16090,0,0,0,
2026-03-17 08:53:00,METAR KDAL 170853Z 00000KT 10SM BKN250 03/M06 A3031 RMK AO2 SLP262 T00281056 58002 $,0,0,0,16090,0,0,0,
2026-03-17 07:53:00,METAR KDAL 170753Z 14003KT 10SM BKN250 03/M08 A3031 RMK AO2 SLP264 T00281078 $,0,3,0,16090,0,0,0,
2026-03-17 06:53:00,METAR KDAL 170653Z 18003KT 10SM FEW250 04/M11 A3031 RMK AO2 SLP264 T00441106 $,0,3,0,16090,0,0,0,
2026-03-17 05:53:00,METAR KDAL 170553Z 00000KT 10SM CLR 03/M08 A3031 RMK AO2 SLP265 T00331083 10067 20022 400890017 58003 $,0,0,0,16090,0,0,0,
2026-03-17 04:53:00,METAR KDAL 170453Z 00000KT 10SM CLR 03/M07 A3033 RMK AO2 SLP270 T00281072 $,0,0,0,16090,0,0,0,
2026-03-17 03:53:00,METAR KDAL 170353Z 00000KT 10SM CLR 03/M09 A3033 RMK AO2 SLP271 T00331094 $,0,0,0,16090,0,0,0,
2026-03-17 02:53:00,METAR KDAL 170253Z 00000KT 10SM CLR 05/M12 A3032 RMK AO2 SLP268 T00501117 53015 $,0,0,0,16090,0,0,0,
2026-03-17 01:53:00,METAR KDAL 170153Z 35004KT 10SM SCT250 06/M14 A3031 RMK AO2 SLP263 T00561139 $,0,4,0,16090,0,0,0,
2026-03-17 00:53:00,METAR KDAL 170053Z VRB05KT 10SM BKN250 06/M14 A3029 RMK AO2 SLP257 T00611144 $,0,5,0,16090,0,0,0,
2026-03-16 23:53:00,METAR KDAL 162353Z 34012KT 10SM SCT210 BKN250 07/M15 A3028 RMK AO2 SLP254 T00671150 10089 20056 56008 $,0,12,0,16090,0,0,0,
2026-03-16 22:53:00,METAR KDAL 162253Z 34015G21KT 10SM FEW210 BKN250 08/M15 A3028 RMK AO2 PK WND 35026/2225 SLP254 T00781150 $,0,15,1,16090,0,0,0,
2026-03-16 21:53:00,METAR KDAL 162153Z 33013G27KT 10SM FEW210 BKN250 08/M15 A3029 RMK AO2 PK WND 02027/2142 SLP259 T00831150 $,0,13,1,16090,0,0,0,
2026-03-16 20:53:00,METAR KDAL 162053Z 32018G27KT 10SM FEW210 BKN250 09/M15 A3030 RMK AO2 PK WND 30032/2002 SLP261 T00891150 58026 $,0,18,1,16090,0,0,0,
2026-03-16 19:53:00,METAR KDAL 161953Z 33016G25KT 10SM FEW210 BKN250 07/M14 A3034 RMK AO2 SLP274 T00721144 $,0,16,1,16090,0,0,0,
2026-03-16 18:53:00,METAR KDAL 161853Z 32015G25KT 10SM FEW200 BKN250 06/M13 A3037 RMK AO2 PK WND 36030/1810 SLP285 T00611133,0,15,1,16090,0,0,0,
2026-03-16 17:53:00,METAR KDAL 161753Z 33019G26KT 10SM SCT200 BKN250 06/M15 A3038 RMK AO2 PK WND 34032/1654 SLP288 T00611150 10072 20017 50004,0,19,1,16090,0,0,0,
2026-03-16 16:53:00,METAR KDAL 161653Z 33018G25KT 10SM SCT200 BKN250 06/M13 A3039 RMK AO2 PK WND 01032/1630 SLP289 T00561128,0,18,1,16090,0,0,0,
2026-03-16 15:53:00,METAR KDAL 161553Z 34019G29KT 10SM BKN250 04/M13 A3038 RMK AO2 PK WND 36030/1506 SLP286 T00441133,0,19,1,16090,0,0,0,
2026-03-16 14:53:00,METAR KDAL 161453Z 34016G29KT 10SM BKN250 04/M13 A3037 RMK AO2 PK WND 34033/1429 SLP284 T00391128 51012,0,16,1,16090,0,0,0,
2026-03-16 13:53:00,METAR KDAL 161353Z 33017G32KT 10SM SCT250 03/M11 A3036 RMK AO2 PK WND 01032/1348 SLP281 T00281111,0,17,1,16090,0,0,0,
2026-03-16 12:53:00,METAR KDAL 161253Z 33014G24KT 10SM FEW180 FEW250 02/M11 A3035 RMK AO2 SLP277 T00171106,0,14,1,16090,0,0,0,
2026-03-16 11:53:00,METAR KDAL 161153Z 34013G22KT 10SM FEW250 02/M09 A3034 RMK AO2 PK WND 02030/1124 SLP272 T00171094 10061 20017 51020,0,13,1,16090,0,0,0,
2026-03-16 10:53:00,METAR KDAL 161053Z 33014G23KT 10SM FEW230 02/M09 A3032 RMK AO2 PK WND 34029/0957 SLP267 T00221089,0,14,1,16090,0,0,0,
2026-03-16 09:53:00,METAR KDAL 160953Z 35017G29KT 10SM FEW230 03/M09 A3030 RMK AO2 PK WND 33038/0939 SLP258 T00281094,0,17,1,16090,0,0,0,
2026-03-16 08:53:00,METAR KDAL 160853Z 35022G30KT 10SM FEW170 FEW230 03/M09 A3028 RMK AO2 PK WND 35031/0756 SLP250 T00331089 51042,0,22,1,16090,0,0,0,
2026-03-16 07:53:00,METAR KDAL 160753Z COR 36017G29KT 10SM FEW170 SCT230 04/M09 A3026 RMK AO2 PK WND 35037/0657 SLP244 T00391089,0,17,1,16090,0,0,0,
2026-03-16 06:53:00,METAR KDAL 160653Z 35024G37KT 10SM BKN170 BKN200 OVC250 05/M09 A3022 RMK AO2 PK WND 32037/0647 SLP228 T00501089,0,24,1,16090,0,0,0,
2026-03-16 05:53:00,METAR KDAL 160553Z 36020G33KT 10SM FEW160 BKN190 BKN250 06/M09 A3015 RMK AO2 PK WND 36040/0521 SLP205 T00611089 10150 20061 403060061 51031,0,20,1,16090,0,0,0,
2026-03-16 04:53:00,METAR KDAL 160453Z 34022G31KT 10SM BKN190 OVC250 08/M08 A3015 RMK AO2 PK WND 35037/0413 SLP206 T00781078,0,22,1,16090,0,0,0,
2026-03-16 03:53:00,METAR KDAL 160353Z 35021G40KT 10SM BKN200 BKN250 09/M08 A3011 RMK AO2 PK WND 33040/0344 SLP191 T00891078,0,21,1,16090,0,0,0,
2026-03-16 02:53:00,METAR KDAL 160253Z 35011G27KT 10SM BKN250 09/M05 A3006 RMK AO2 PK WND 35031/0204 SLP174 T00941050 51051,0,11,1,16090,0,0,0,
2026-03-16 01:53:00,METAR KDAL 160153Z 36015G28KT 10SM BKN250 10/M04 A3002 RMK AO2 PK WND 35039/0102 SLP163 T01001044,0,15,1,16090,0,0,0,
2026-03-16 00:53:00,METAR KDAL 160053Z 35023G39KT 10SM BKN250 11/M04 A2998 RMK AO2 PK WND 36039/0051 SLP147 T01111039,0,23,1,16090,0,0,0,
2026-03-15 23:53:00,METAR KDAL 152353Z 34017G41KT 10SM BKN250 15/M01 A2990 RMK AO2 PK WND 33043/2326 SLP121 T01501011 10306 20150 53059,0,17,1,16090,0,0,0,
2026-03-15 22:53:00,METAR KDAL 152253Z 33023G36KT 9SM BKN250 17/00 A2983 RMK AO2 PK WND 32048/2223 SLP098 T01720000,0,23,1,14481,0,0,0,
2026-03-15 21:53:00,METAR KDAL 152153Z 34023G42KT 8SM BKN250 19/01 A2978 RMK AO2 PK WND 36045/2120 SLP079 T01940006,0,23,1,12872,0,0,0,
2026-03-15 20:53:00,METAR KDAL 152053Z COR 33031G44KT 8SM FEW050 BKN250 20/01 A2973 RMK AO2 PK WND 32046/2003 SLP061 CB DSNT E MOV NE 60000 T02000011 53060,0,31,1,12872,0,0,0,DS
2026-03-15 19:53:00,METAR KDAL 151953Z 33031G47KT 7SM SCT250 23/03 A2966 RMK AO2 PK WND 33047/1941 PRESRR SLP038 T02280028,0,31,1,11263,0,0,0,
2026-03-15 18:53:00,METAR KDAL 151853Z 31021G32KT 10SM FEW050 FEW250 29/03 A2956 RMK AO2 PK WND 30034/1837 SLP004 T02940028,0,21,1,16090,0,0,0,
2026-03-15 17:53:00,METAR KDAL 151753Z 25011G23KT 10SM FEW040 FEW250 29/14 A2955 RMK AO2 SLP998 T02890139 10289 20206 53002,0,11,1,16090,0,0,0,
2026-03-15 16:53:00,METAR KDAL 151653Z 21013G25KT 10SM FEW030 FEW250 26/16 A2952 RMK AO2 PK WND 22028/1639 SLP991 T02610156,0,13,1,16090,0,0,0,
2026-03-15 15:53:00,METAR KDAL 151553Z 20013G28KT 10SM FEW032 SCT250 24/16 A2954 RMK AO2 PK WND 21028/1544 SLP996 T02390161,0,13,1,16090,0,0,0,
2026-03-15 14:53:00,METAR KDAL 151453Z 18016G28KT 10SM SCT025 SCT200 SCT250 22/16 A2954 RMK AO2 PK WND 17028/1453 SLP997 T02170161 58004,0,16,1,16090,0,0,0,
2026-03-15 14:23:00,SPECI KDAL 151423Z 19010G26KT 10SM SCT024 SCT200 SCT250 21/16 A2955 RMK AO2 PK WND 18026/1416 T02110161,0,10,1,16090,0,0,0,
2026-03-15 13:53:00,METAR KDAL 151353Z 18016G27KT 10SM BKN021 BKN200 BKN250 21/16 A2955 RMK AO2 PK WND 21027/1348 SLP999 T02060161,0,16,1,16090,0,0,0,
2026-03-15 12:53:00,METAR KDAL 151253Z 18012G24KT 10SM BKN022 BKN250 21/16 A2955 RMK AO2 SLP001 T02060161,0,12,1,16090,0,0,0,
2026-03-15 11:53:00,METAR KDAL 151153Z 18015G25KT 10SM OVC022 21/16 A2955 RMK AO2 PK WND 17030/1138 SLP001 T02060161 10211 20194 56019,0,15,1,16090,0,0,0,
2026-03-15 10:53:00,METAR KDAL 151053Z 18014G27KT 10SM OVC022 21/16 A2957 RMK AO2 PK WND 17030/0954 SLP007 T02060161,0,14,1,16090,0,0,0,
2026-03-15 09:53:00,METAR KDAL 150953Z 18017G29KT 10SM OVC020 20/16 A2959 RMK AO2 PK WND 18031/0902 SLP012 T02000161,0,17,1,16090,0,0,0,
2026-03-15 08:53:00,METAR KDAL 150853Z 18017G33KT 10SM OVC020 20/16 A2961 RMK AO2 PK WND 18036/0832 SLP021 T02000156 58019,0,17,1,16090,0,0,0,
2026-03-15 08:00:00,SPECI KDAL 150800Z 18018G32KT 10SM BKN021 BKN250 19/16 A2964 RMK AO2 PK WND 19030/0754 T01940156,0,18,1,16090,0,0,0,
