Time_recorded,METAR,is_cavok,wind_speed,is_gust,visibility_meters,has_thunderstorm,has_heavy_rain,has_low_vis_fog,other_phenomenon
2026-05-02 15:20:00,METAR EGKB 021520Z 16010KT 120V190 CAVOK 20/09 Q1013,1,0,0,9999,0,0,0,
2026-05-02 14:50:00,METAR EGKB 021450Z 17009KT 120V230 9999 FEW049 20/09 Q1014,0,9,0,10000,0,0,0,
2026-05-02 14:20:00,METAR EGKB 021420Z 14007KT 050V170 CAVOK 21/09 Q1014,1,0,0,9999,0,0,0,
2026-05-02 13:50:00,METAR EGKB 021350Z 12006KT 080V160 CAVOK 20/08 Q1015,1,0,0,9999,0,0,0,
2026-05-02 13:20:00,METAR EGKB 021320Z 20007KT 120V250 CAVOK 20/09 Q1015,1,0,0,9999,0,0,0,
2026-05-02 12:50:00,METAR EGKB 021250Z 18007KT 140V220 CAVOK 19/07 Q1016,1,0,0,9999,0,0,0,
2026-05-02 12:20:00,METAR EGKB 021220Z VRB05KT CAVOK 19/07 Q1016,1,0,0,9999,0,0,0,
2026-05-02 11:50:00,METAR EGKB 021150Z 19006KT 120V250 CAVOK 19/06 Q1016,1,0,0,9999,0,0,0,
2026-05-02 11:20:00,METAR EGKB 021120Z 12006KT 030V190 CAVOK 18/07 Q1017,1,0,0,9999,0,0,0,
2026-05-02 10:50:00,METAR EGKB 021050Z VRB04KT CAVOK 17/07 Q1017,1,0,0,9999,0,0,0,
2026-05-02 10:20:00,METAR EGKB 021020Z 24005KT 170V280 CAVOK 17/09 Q1017,1,0,0,9999,0,0,0,
2026-05-02 09:50:00,METAR EGKB 020950Z 20004KT 100V270 CAVOK 15/09 Q1018,1,0,0,9999,0,0,0,
2026-05-02 09:20:00,METAR EGKB 020920Z VRB04KT CAVOK 15/09 Q1018,1,0,0,9999,0,0,0,
2026-05-02 08:50:00,METAR EGKB 020850Z 23003KT 180V280 CAVOK 14/10 Q1018,1,0,0,9999,0,0,0,
2026-05-02 08:20:00,METAR EGKB 020820Z 19004KT 150V230 CAVOK 14/10 Q1018,1,0,0,9999,0,0,0,
2026-05-02 07:50:00,METAR EGKB 020750Z 24003KT 200V290 9000 NSC 12/09 Q1018,0,3,0,9000,0,0,0,
2026-05-02 07:20:00,METAR EGKB 020720Z 22005KT 8000 NSC 11/09 Q1018,0,5,0,8000,0,0,0,
2026-05-02 06:50:00,METAR EGKB 020650Z 21006KT 6000 NSC 10/09 Q1018,0,6,0,6000,0,0,0,
2026-05-02 06:20:00,METAR EGKB 020620Z AUTO 21006KT 9999 NCD 10/09 Q1018,0,6,0,10000,0,0,0,
2026-05-02 05:50:00,METAR EGKB 020550Z AUTO 20005KT 8000 NCD 09/08 Q1018,0,5,0,8000,0,0,0,
2026-05-02 05:20:00,METAR EGKB 020520Z AUTO 21005KT 7000 NCD 09/08 Q1018,0,5,0,7000,0,0,0,
2026-05-02 04:50:00,METAR EGKB 020450Z AUTO 21006KT 5000 BR FEW002/// 09/08 Q1018,0,6,0,5000,0,0,1,BR
2026-05-02 04:20:00,METAR EGKB 020420Z AUTO 21006KT 3300 BR BKN002/// 09/08 Q1018,0,6,0,3300,0,0,1,BR
2026-05-02 03:50:00,METAR EGKB 020350Z AUTO 21006KT 1500 BR VV/// 09/09 Q1018,0,6,0,1500,0,0,1,BR
2026-05-02 03:20:00,METAR EGKB 020320Z AUTO 20007KT 1900 BR BKN002/// 09/09 Q1019,0,7,0,1900,0,0,1,BR
2026-05-02 02:50:00,METAR EGKB 020250Z AUTO 19006KT 2400 BR OVC002/// 09/09 Q1019,0,6,0,2400,0,0,1,BR
2026-05-02 02:20:00,METAR EGKB 020220Z AUTO 19006KT 4400 BR SCT002/// 10/09 Q1019,0,6,0,4400,0,0,1,BR
2026-05-02 01:50:00,METAR EGKB 020150Z AUTO 19005KT 9000 NCD 09/08 Q1019,0,5,0,9000,0,0,0,
2026-05-02 01:20:00,METAR EGKB 020120Z AUTO 21003KT 8000 NCD 10/08 Q1019,0,3,0,8000,0,0,0,
2026-05-02 00:50:00,METAR EGKB 020050Z AUTO 20004KT 170V230 9999 NCD 10/08 Q1019,0,4,0,10000,0,0,0,
2026-05-02 00:20:00,METAR EGKB 020020Z AUTO 22006KT 9999 NCD 10/08 Q1020,0,6,0,10000,0,0,0,
2026-05-01 23:50:00,METAR EGKB 012350Z AUTO 20006KT 170V230 9999 NCD 11/09 Q1020,0,6,0,10000,0,0,0,
2026-05-01 23:20:00,METAR EGKB 012320Z AUTO 19008KT 160V220 9999 NCD 12/10 Q1020,0,8,0,10000,0,0,0,
2026-05-01 22:50:00,METAR EGKB 012250Z AUTO 19006KT 160V220 9999 NCD 13/09 Q1020,0,6,0,10000,0,0,0,
2026-05-01 22:20:00,METAR EGKB 012220Z AUTO 20008KT 9999 NCD 13/10 Q1020,0,8,0,10000,0,0,0,
2026-05-01 21:50:00,METAR EGKB 012150Z 21007KT 180V240 CAVOK 14/10 Q1020,1,0,0,9999,0,0,0,
2026-05-01 21:20:00,METAR EGKB 012120Z 21006KT 170V230 CAVOK 15/11 Q1020,1,0,0,9999,0,0,0,
2026-05-01 20:50:00,METAR EGKB 012050Z 21006KT CAVOK 15/11 Q1020,1,0,0,9999,0,0,0,
2026-05-01 20:20:00,METAR EGKB 012020Z 23004KT CAVOK 16/11 Q1020,1,0,0,9999,0,0,0,
2026-05-01 19:50:00,METAR EGKB 011950Z 21005KT CAVOK 16/12 Q1020,1,0,0,9999,0,0,0,
2026-05-01 19:20:00,METAR EGKB 011920Z 21006KT 9999 FEW042 17/12 Q1020,0,6,0,10000,0,0,0,
2026-05-01 18:50:00,METAR EGKB 011850Z 21006KT 180V240 9999 FEW042 17/12 Q1019,0,6,0,10000,0,0,0,
2026-05-01 18:20:00,METAR EGKB 011820Z 21008KT 180V240 9999 -SHRA FEW030 18/12 Q1020,0,8,0,10000,0,0,0,RA
2026-05-01 17:50:00,METAR EGKB 011750Z 22008KT 9999 FEW030 19/12 Q1019,0,8,0,10000,0,0,0,
2026-05-01 17:20:00,METAR EGKB 011720Z 22009KT 180V250 9999 FEW030 19/12 Q1019,0,9,0,10000,0,0,0,
2026-05-01 16:50:00,METAR EGKB 011650Z 22009KT 180V250 9999 FEW025 19/12 Q1019,0,9,0,10000,0,0,0,
2026-05-01 16:20:00,METAR EGKB 011620Z 19010KT 170V230 9999 FEW025 19/13 Q1020,0,10,0,10000,0,0,0,
2026-05-01 15:50:00,METAR EGKB 011550Z 18012KT 150V220 9999 FEW027 20/13 Q1020,0,12,0,10000,0,0,0,
2026-05-01 15:20:00,METAR EGKB 011520Z 20011KT 150V240 9999 FEW040 21/13 Q1020,0,11,0,10000,0,0,0,
2026-05-01 14:50:00,METAR EGKB 011450Z 19011KT 150V220 9999 FEW040 22/12 Q1020,0,11,0,10000,0,0,0,
2026-05-01 14:20:00,METAR EGKB 011420Z 19009KT 150V230 CAVOK 22/12 Q1020,1,0,0,9999,0,0,0,
2026-05-01 13:50:00,METAR EGKB 011350Z 21012KT 150V250 CAVOK 22/10 Q1020,1,0,0,9999,0,0,0,
2026-05-01 13:20:00,METAR EGKB 011320Z 19010KT 150V220 CAVOK 22/08 Q1020,1,0,0,9999,0,0,0,
2026-05-01 12:50:00,METAR EGKB 011250Z 16009KT 130V200 CAVOK 22/07 Q1020,1,0,0,9999,0,0,0,
2026-05-01 12:20:00,METAR EGKB 011220Z 17009KT 140V200 CAVOK 21/07 Q1020,1,0,0,9999,0,0,0,
2026-05-01 11:50:00,METAR EGKB 011150Z 14008KT 100V200 CAVOK 21/07 Q1020,1,0,0,9999,0,0,0,
2026-05-01 11:20:00,METAR EGKB 011120Z 14008KT 100V170 CAVOK 21/06 Q1020,1,0,0,9999,0,0,0,
2026-05-01 10:50:00,METAR EGKB 011050Z 13006KT 090V190 CAVOK 20/06 Q1021,1,0,0,9999,0,0,0,
2026-05-01 10:20:00,METAR EGKB 011020Z 14007KT 100V170 CAVOK 19/06 Q1021,1,0,0,9999,0,0,0,
2026-05-01 09:50:00,METAR EGKB 010950Z 12007KT 090V170 CAVOK 19/05 Q1021,1,0,0,9999,0,0,0,
2026-05-01 09:20:00,METAR EGKB 010920Z 13007KT 100V160 CAVOK 18/04 Q1021,1,0,0,9999,0,0,0,
2026-05-01 08:50:00,METAR EGKB 010850Z 13004KT 100V160 CAVOK 17/04 Q1021,1,0,0,9999,0,0,0,
2026-05-01 08:20:00,METAR EGKB 010820Z 14006KT 110V170 CAVOK 16/03 Q1021,1,0,0,9999,0,0,0,
2026-05-01 07:50:00,METAR EGKB 010750Z 16007KT 130V190 CAVOK 15/02 Q1021,1,0,0,9999,0,0,0,
2026-05-01 07:20:00,METAR EGKB 010720Z 16011KT CAVOK 14/02 Q1021,1,0,0,9999,0,0,0,
2026-05-01 06:50:00,METAR EGKB 010650Z 16011KT CAVOK 13/01 Q1021,1,0,0,9999,0,0,0,
2026-05-01 06:20:00,METAR EGKB 010620Z 15011KT CAVOK 13/01 Q1021,1,0,0,9999,0,0,0,
2026-05-01 05:50:00,METAR EGKB 010550Z 14014KT CAVOK 12/M00 Q1020,1,0,0,9999,0,0,0,
2026-05-01 05:20:00,METAR EGKB 010520Z 14014KT CAVOK 11/M00 Q1020,1,0,0,9999,0,0,0,
2026-05-01 04:50:00,METAR EGKB 010450Z AUTO 14012KT 9999 NCD 11/M00 Q1020,0,12,0,10000,0,0,0,
2026-05-01 04:20:00,METAR EGKB 010420Z AUTO 14012KT 9999 NCD 11/00 Q1020,0,12,0,10000,0,0,0,
2026-05-01 03:50:00,METAR EGKB 010350Z AUTO 14012KT 9999 NCD 11/01 Q1020,0,12,0,10000,0,0,0,
2026-05-01 03:20:00,METAR EGKB 010320Z AUTO 14013KT 9999 NCD 12/M00 Q1020,0,13,0,10000,0,0,0,
2026-05-01 02:50:00,METAR EGKB 010250Z AUTO 15012KT 9999 NCD 12/M01 Q1020,0,12,0,10000,0,0,0,
2026-05-01 02:20:00,METAR EGKB 010220Z AUTO 14013KT 9999 NCD 13/M00 Q1021,0,13,0,10000,0,0,0,
2026-05-01 01:50:00,METAR EGKB 010150Z AUTO 14012KT 9999 NCD 12/00 Q1021,0,12,0,10000,0,0,0,
2026-05-01 01:20:00,METAR EGKB 010120Z AUTO 14012KT 9999 NCD 12/01 Q1021,0,12,0,10000,0,0,0,
2026-05-01 00:50:00,METAR EGKB 010050Z AUTO 14010KT 9999 NCD 12/01 Q1021,0,10,0,10000,0,0,0,
2026-05-01 00:20:00,METAR EGKB 010020Z AUTO 14009KT 9999 NCD 12/01 Q1021,0,9,0,10000,0,0,0,
2026-04-30 23:50:00,METAR EGKB 302350Z AUTO 14011KT 9999 NCD 13/01 Q1021,0,11,0,10000,0,0,0,
2026-04-30 23:20:00,METAR EGKB 302320Z AUTO 13009KT 9999 NCD 12/01 Q1021,0,9,0,10000,0,0,0,
2026-04-30 22:50:00,METAR EGKB 302250Z AUTO 12007KT 9999 NCD 12/02 Q1021,0,7,0,10000,0,0,0,
2026-04-30 22:20:00,METAR EGKB 302220Z AUTO 11006KT 9999 NCD 11/02 Q1021,0,6,0,10000,0,0,0,
2026-04-30 21:50:00,METAR EGKB 302150Z 10004KT CAVOK 12/02 Q1021,1,0,0,9999,0,0,0,
2026-04-30 21:20:00,METAR EGKB 302120Z VRB02KT CAVOK 10/04 Q1021,1,0,0,9999,0,0,0,
2026-04-30 20:50:00,METAR EGKB 302050Z 09005KT CAVOK 10/04 Q1021,1,0,0,9999,0,0,0,
2026-04-30 20:20:00,METAR EGKB 302020Z 08006KT CAVOK 10/04 Q1021,1,0,0,9999,0,0,0,
2026-04-30 19:50:00,METAR EGKB 301950Z 06007KT CAVOK 11/04 Q1021,1,0,0,9999,0,0,0,
2026-04-30 19:20:00,METAR EGKB 301920Z 06005KT CAVOK 12/04 Q1021,1,0,0,9999,0,0,0,
2026-04-30 18:50:00,METAR EGKB 301850Z 07006KT CAVOK 14/04 Q1021,1,0,0,9999,0,0,0,
2026-04-30 18:20:00,METAR EGKB 301820Z 06008KT CAVOK 15/04 Q1021,1,0,0,9999,0,0,0,
2026-04-30 17:50:00,METAR EGKB 301750Z 07009KT CAVOK 16/03 Q1021,1,0,0,9999,0,0,0,
2026-04-30 17:20:00,METAR EGKB 301720Z 06010KT 030V090 CAVOK 16/03 Q1021,1,0,0,9999,0,0,0,
2026-04-30 16:50:00,METAR EGKB 301650Z 07011KT CAVOK 17/04 Q1021,1,0,0,9999,0,0,0,
2026-04-30 16:20:00,METAR EGKB 301620Z 07013KT CAVOK 17/04 Q1021,1,0,0,9999,0,0,0,
2026-04-30 14:50:00,METAR EGKB 301450Z 07014KT CAVOK 18/05 Q1021,1,0,0,9999,0,0,0,
2026-04-30 14:20:00,METAR EGKB 301420Z 06015KT 020V090 CAVOK 18/05 Q1021,1,0,0,9999,0,0,0,
2026-04-30 13:50:00,METAR EGKB 301350Z 06015KT CAVOK 18/06 Q1021,1,0,0,9999,0,0,0,
2026-04-30 13:20:00,METAR EGKB 301320Z 06014KT 030V090 CAVOK 18/06 Q1022,1,0,0,9999,0,0,0,
2026-04-30 12:50:00,METAR EGKB 301250Z 07011KT 030V110 CAVOK 18/06 Q1022,1,0,0,9999,0,0,0,
2026-04-30 12:20:00,METAR EGKB 301220Z 09009KT 040V160 CAVOK 19/06 Q1022,1,0,0,9999,0,0,0,
2026-04-30 11:50:00,METAR EGKB 301150Z 07012KT 040V120 CAVOK 19/03 Q1022,1,0,0,9999,0,0,0,
2026-04-30 11:20:00,METAR EGKB 301120Z 08011KT 040V130 CAVOK 19/03 Q1022,1,0,0,9999,0,0,0,
2026-04-30 10:50:00,METAR EGKB 301050Z 11012KT CAVOK 19/02 Q1022,1,0,0,9999,0,0,0,
2026-04-30 10:20:00,METAR EGKB 301020Z 08012KT CAVOK 18/02 Q1022,1,0,0,9999,0,0,0,
2026-04-30 09:50:00,METAR EGKB 300950Z 08012KT CAVOK 17/01 Q1022,1,0,0,9999,0,0,0,
2026-04-30 09:20:00,METAR EGKB 300920Z 08013KT CAVOK 16/02 Q1023,1,0,0,9999,0,0,0,
2026-04-30 08:50:00,METAR EGKB 300850Z 09012KT CAVOK 15/02 Q1023,1,0,0,9999,0,0,0,
2026-04-30 08:20:00,METAR EGKB 300820Z 10011KT 070V130 CAVOK 14/02 Q1023,1,0,0,9999,0,0,0,
2026-04-30 07:50:00,METAR EGKB 300750Z 09012KT 060V120 CAVOK 13/02 Q1023,1,0,0,9999,0,0,0,
2026-04-30 07:20:00,METAR EGKB 300720Z 10012KT CAVOK 12/01 Q1023,1,0,0,9999,0,0,0,
2026-04-30 06:50:00,METAR EGKB 300650Z 10010KT CAVOK 11/02 Q1023,1,0,0,9999,0,0,0,
2026-04-30 06:20:00,METAR EGKB 300620Z 09009KT CAVOK 11/02 Q1023,1,0,0,9999,0,0,0,
2026-04-30 05:50:00,METAR EGKB 300550Z 09007KT CAVOK 10/02 Q1023,1,0,0,9999,0,0,0,
2026-04-30 05:20:00,METAR EGKB 300520Z 09007KT CAVOK 09/02 Q1023,1,0,0,9999,0,0,0,
2026-04-30 04:50:00,METAR EGKB 300450Z AUTO 09007KT 9999 NCD 08/02 Q1023,0,7,0,10000,0,0,0,
2026-04-30 04:20:00,METAR EGKB 300420Z AUTO 08006KT 060V130 9999 NCD 08/02 Q1023,0,6,0,10000,0,0,0,
2026-04-30 03:50:00,METAR EGKB 300350Z AUTO 07005KT 9999 NCD 07/02 Q1023,0,5,0,10000,0,0,0,
2026-04-30 03:20:00,METAR EGKB 300320Z AUTO 06006KT 9999 NCD 06/02 Q1023,0,6,0,10000,0,0,0,
2026-04-30 02:50:00,METAR EGKB 300250Z AUTO 06007KT 9999 NCD 06/02 Q1023,0,7,0,10000,0,0,0,
2026-04-30 02:20:00,METAR EGKB 300220Z AUTO 05007KT 9999 NCD 06/03 Q1023,0,7,0,10000,0,0,0,
2026-04-30 01:50:00,METAR EGKB 300150Z AUTO 06006KT 9999 NCD 07/04 Q1023,0,6,0,10000,0,0,0,
2026-04-30 01:20:00,METAR EGKB 300120Z AUTO 06007KT 9999 NCD 07/04 Q1023,0,7,0,10000,0,0,0,
2026-04-30 00:50:00,METAR EGKB 300050Z AUTO 06007KT 9999 NCD 08/05 Q1023,0,7,0,10000,0,0,0,
2026-04-30 00:20:00,METAR EGKB 300020Z AUTO 04007KT 9999 NCD 07/05 Q1023,0,7,0,10000,0,0,0,
2026-04-29 23:50:00,METAR EGKB 292350Z AUTO 05004KT 020V080 9999 NCD 08/06 Q1024,0,4,0,10000,0,0,0,
2026-04-29 23:20:00,METAR EGKB 292320Z AUTO 05007KT 9999 NCD 08/06 Q1023,0,7,0,10000,0,0,0,
2026-04-29 22:50:00,METAR EGKB 292250Z AUTO 05009KT 9999 NCD 08/06 Q1024,0,9,0,10000,0,0,0,
2026-04-29 22:20:00,METAR EGKB 292220Z AUTO 05009KT 9999 NCD 08/06 Q1024,0,9,0,10000,0,0,0,
2026-04-29 21:50:00,METAR EGKB 292150Z 05011KT CAVOK 09/06 Q1023,1,0,0,9999,0,0,0,
2026-04-29 21:20:00,METAR EGKB 292120Z 06014KT CAVOK 09/06 Q1023,1,0,0,9999,0,0,0,
2026-04-29 20:50:00,METAR EGKB 292050Z 06014KT CAVOK 09/05 Q1023,1,0,0,9999,0,0,0,
2026-04-29 20:20:00,METAR EGKB 292020Z 06014KT CAVOK 10/05 Q1023,1,0,0,9999,0,0,0,
2026-04-29 19:50:00,METAR EGKB 291950Z 06012KT CAVOK 10/05 Q1023,1,0,0,9999,0,0,0,
2026-04-29 19:20:00,METAR EGKB 291920Z 06015KT CAVOK 10/04 Q1023,1,0,0,9999,0,0,0,
2026-04-29 18:50:00,METAR EGKB 291850Z 06019KT CAVOK 11/04 Q1023,1,0,0,9999,0,0,0,
2026-04-29 18:20:00,METAR EGKB 291820Z 06017KT CAVOK 11/04 Q1022,1,0,0,9999,0,0,0,
2026-04-29 17:50:00,METAR EGKB 291750Z 06016G27KT CAVOK 12/04 Q1022,1,0,0,9999,0,0,0,
2026-04-29 17:20:00,METAR EGKB 291720Z 06019KT CAVOK 12/04 Q1023,1,0,0,9999,0,0,0,
2026-04-29 16:50:00,METAR EGKB 291650Z 06020G32KT CAVOK 12/04 Q1023,1,0,0,9999,0,0,0,
2026-04-29 16:20:00,METAR EGKB 291620Z 06020G31KT CAVOK 13/04 Q1023,1,0,0,9999,0,0,0,
2026-04-29 15:50:00,METAR EGKB 291550Z 06019KT 030V090 CAVOK 13/04 Q1023,1,0,0,9999,0,0,0,
2026-04-29 15:20:00,METAR EGKB 291520Z 06022G32KT CAVOK 14/03 Q1023,1,0,0,9999,0,0,0,
2026-04-29 14:50:00,METAR EGKB 291450Z 06020KT CAVOK 14/03 Q1023,1,0,0,9999,0,0,0,
2026-04-29 14:20:00,METAR EGKB 291420Z 07022G33KT CAVOK 14/03 Q1024,1,0,0,9999,0,0,0,
2026-04-29 13:50:00,METAR EGKB 291350Z 06021KT 030V090 CAVOK 14/03 Q1024,1,0,0,9999,0,0,0,
2026-04-29 13:20:00,METAR EGKB 291320Z 06020KT 030V090 CAVOK 14/03 Q1024,1,0,0,9999,0,0,0,
2026-04-29 12:50:00,METAR EGKB 291250Z 06019KT 030V090 CAVOK 13/03 Q1024,1,0,0,9999,0,0,0,
2026-04-29 12:20:00,METAR EGKB 291220Z 06020KT CAVOK 14/04 Q1024,1,0,0,9999,0,0,0,
2026-04-29 11:50:00,METAR EGKB 291150Z 07016G26KT 030V100 CAVOK 14/02 Q1024,1,0,0,9999,0,0,0,
2026-04-29 11:20:00,METAR EGKB 291120Z 06020G32KT CAVOK 14/02 Q1024,1,0,0,9999,0,0,0,
2026-04-29 10:50:00,METAR EGKB 291050Z 07017G30KT 030V090 CAVOK 14/02 Q1024,1,0,0,9999,0,0,0,
2026-04-29 10:20:00,METAR EGKB 291020Z 06021KT 030V090 CAVOK 14/02 Q1024,1,0,0,9999,0,0,0,
2026-04-29 09:50:00,METAR EGKB 290950Z 06019G32KT 020V080 CAVOK 13/03 Q1024,1,0,0,9999,0,0,0,
2026-04-29 09:20:00,METAR EGKB 290920Z 06021KT 030V090 CAVOK 13/03 Q1024,1,0,0,9999,0,0,0,
2026-04-29 08:50:00,METAR EGKB 290850Z 06017KT CAVOK 13/04 Q1024,1,0,0,9999,0,0,0,
2026-04-29 08:20:00,METAR EGKB 290820Z 06018KT 030V090 CAVOK 12/04 Q1024,1,0,0,9999,0,0,0,
2026-04-29 07:50:00,METAR EGKB 290750Z 05018KT CAVOK 12/04 Q1024,1,0,0,9999,0,0,0,
2026-04-29 07:20:00,METAR EGKB 290720Z 05015KT CAVOK 11/05 Q1023,1,0,0,9999,0,0,0,
2026-04-29 06:50:00,METAR EGKB 290650Z 06016KT CAVOK 10/05 Q1023,1,0,0,9999,0,0,0,
2026-04-29 06:20:00,METAR EGKB 290620Z 05018KT CAVOK 10/05 Q1023,1,0,0,9999,0,0,0,
2026-04-29 05:50:00,METAR EGKB 290550Z 06015KT CAVOK 09/05 Q1023,1,0,0,9999,0,0,0,
2026-04-29 05:20:00,METAR EGKB 290520Z 06013KT CAVOK 08/05 Q1023,1,0,0,9999,0,0,0,
2026-04-29 04:50:00,METAR EGKB 290450Z AUTO 05012KT 9999 NCD 07/05 Q1023,0,12,0,10000,0,0,0,
2026-04-29 04:20:00,METAR EGKB 290420Z AUTO 06012KT 9999 NCD 07/05 Q1023,0,12,0,10000,0,0,0,
2026-04-29 03:50:00,METAR EGKB 290350Z AUTO 05012KT 9999 NCD 07/05 Q1023,0,12,0,10000,0,0,0,
2026-04-29 03:20:00,METAR EGKB 290320Z AUTO 06012KT 9999 NCD 07/05 Q1023,0,12,0,10000,0,0,0,
2026-04-29 02:50:00,METAR EGKB 290250Z AUTO 05010KT 9999 NCD 06/04 Q1023,0,10,0,10000,0,0,0,
2026-04-29 02:20:00,METAR EGKB 290220Z AUTO 05012KT 9999 NCD 06/04 Q1023,0,12,0,10000,0,0,0,
2026-04-29 01:50:00,METAR EGKB 290150Z AUTO 05011KT 9999 NCD 06/04 Q1023,0,11,0,10000,0,0,0,
2026-04-29 01:20:00,METAR EGKB 290120Z AUTO 04011KT 9999 NCD 06/04 Q1024,0,11,0,10000,0,0,0,
2026-04-29 00:50:00,METAR EGKB 290050Z AUTO 03011KT 9999 NCD 06/04 Q1024,0,11,0,10000,0,0,0,
2026-04-29 00:20:00,METAR EGKB 290020Z AUTO 03011KT 9999 NCD 06/03 Q1024,0,11,0,10000,0,0,0,
2026-04-28 23:50:00,METAR EGKB 282350Z AUTO 03012KT 9999 NCD 06/03 Q1024,0,12,0,10000,0,0,0,
2026-04-28 23:20:00,METAR EGKB 282320Z AUTO 03012KT 9999 NCD 06/03 Q1024,0,12,0,10000,0,0,0,
2026-04-28 22:50:00,METAR EGKB 282250Z AUTO 03014KT 9999 NCD 07/03 Q1024,0,14,0,10000,0,0,0,
2026-04-28 22:20:00,METAR EGKB 282220Z AUTO 03016KT 9999 NCD 07/03 Q1024,0,16,0,10000,0,0,0,
2026-04-28 21:50:00,METAR EGKB 282150Z 03015KT CAVOK 07/03 Q1024,1,0,0,9999,0,0,0,
2026-04-28 21:20:00,METAR EGKB 282120Z 04014KT CAVOK 08/02 Q1024,1,0,0,9999,0,0,0,
2026-04-28 20:50:00,METAR EGKB 282050Z 04014KT CAVOK 08/02 Q1024,1,0,0,9999,0,0,0,
2026-04-28 20:20:00,METAR EGKB 282020Z 03016KT CAVOK 09/01 Q1024,1,0,0,9999,0,0,0,
2026-04-28 19:50:00,METAR EGKB 281950Z 04013KT CAVOK 10/M01 Q1024,1,0,0,9999,0,0,0,
2026-04-28 19:20:00,METAR EGKB 281920Z 04012KT CAVOK 10/M00 Q1023,1,0,0,9999,0,0,0,
2026-04-28 18:50:00,METAR EGKB 281850Z 05014G24KT CAVOK 11/01 Q1023,1,0,0,9999,0,0,0,
2026-04-28 18:20:00,METAR EGKB 281820Z 05014KT CAVOK 12/02 Q1023,1,0,0,9999,0,0,0,
2026-04-28 17:50:00,METAR EGKB 281750Z 05014KT CAVOK 12/02 Q1023,1,0,0,9999,0,0,0,
2026-04-28 17:20:00,METAR EGKB 281720Z 05016KT CAVOK 13/03 Q1023,1,0,0,9999,0,0,0,
2026-04-28 16:50:00,METAR EGKB 281650Z 05016G27KT CAVOK 14/03 Q1023,1,0,0,9999,0,0,0,
2026-04-28 16:20:00,METAR EGKB 281620Z 05016KT CAVOK 14/03 Q1023,1,0,0,9999,0,0,0,
2026-04-28 15:50:00,METAR EGKB 281550Z 05016KT 020V080 CAVOK 14/03 Q1023,1,0,0,9999,0,0,0,
2026-04-28 15:20:00,METAR EGKB 281520Z 05015KT 010V080 CAVOK 14/01 Q1023,1,0,0,9999,0,0,0,
2026-04-28 14:50:00,METAR EGKB 281450Z 05018KT 020V090 CAVOK 14/M01 Q1023,1,0,0,9999,0,0,0,
2026-04-28 14:20:00,METAR EGKB 281420Z 05018KT 9999 FEW040 15/00 Q1023,0,18,0,10000,0,0,0,
2026-04-28 13:50:00,METAR EGKB 281350Z 04017KT 010V080 9999 FEW038 14/03 Q1023,0,17,0,10000,0,0,0,
2026-04-28 13:20:00,METAR EGKB 281320Z 05015KT 9999 FEW045 15/04 Q1023,0,15,0,10000,0,0,0,
2026-04-28 12:50:00,METAR EGKB 281250Z 05017KT 020V080 9999 FEW045 14/04 Q1023,0,17,0,10000,0,0,0,
2026-04-28 12:20:00,METAR EGKB 281220Z 04019KT 9999 FEW037 14/05 Q1024,0,19,0,10000,0,0,0,
2026-04-28 11:50:00,METAR EGKB 281150Z 05018KT 9999 FEW023 13/04 Q1024,0,18,0,10000,0,0,0,
2026-04-28 11:20:00,METAR EGKB 281120Z 03017KT 9999 FEW021 12/06 Q1024,0,17,0,10000,0,0,0,
2026-04-28 10:50:00,METAR EGKB 281050Z 03014KT 9999 BKN018 10/07 Q1025,0,14,0,10000,0,0,0,
2026-04-28 10:20:00,METAR EGKB 281020Z 05012KT 9999 BKN013 09/06 Q1025,0,12,0,10000,0,0,0,
2026-04-28 09:50:00,METAR EGKB 280950Z 04015KT 9999 BKN014 09/06 Q1025,0,15,0,10000,0,0,0,
2026-04-28 09:20:00,METAR EGKB 280920Z 05013KT 9999 BKN016 09/06 Q1024,0,13,0,10000,0,0,0,
2026-04-28 08:50:00,METAR EGKB 280850Z 04011KT 9999 BKN013 09/07 Q1024,0,11,0,10000,0,0,0,
2026-04-28 08:20:00,METAR EGKB 280820Z 05012KT 9999 BKN009 09/07 Q1024,0,12,0,10000,0,0,0,
2026-04-28 07:50:00,METAR EGKB 280750Z 04012KT 9999 BKN009 09/07 Q1024,0,12,0,10000,0,0,0,
2026-04-28 07:20:00,METAR EGKB 280720Z 03011KT 9000 BKN009 08/07 Q1024,0,11,0,9000,0,0,0,
2026-04-28 06:50:00,METAR EGKB 280650Z 03013KT 8000 BKN010 08/07 Q1024,0,13,0,8000,0,0,0,
2026-04-28 06:20:00,METAR EGKB 280620Z 03011KT 8000 BKN010 08/07 Q1024,0,11,0,8000,0,0,0,
2026-04-28 05:50:00,METAR EGKB 280550Z 04011KT 8000 BKN010 08/06 Q1024,0,11,0,8000,0,0,0,
2026-04-28 05:20:00,METAR EGKB 280520Z 04012KT 8000 BKN007 08/07 Q1023,0,12,0,8000,0,0,0,
2026-04-28 04:50:00,METAR EGKB 280450Z AUTO 03010KT 9999 OVC003/// 08/07 Q1023,0,10,0,10000,0,0,0,
2026-04-28 04:20:00,METAR EGKB 280420Z AUTO 02010KT 9000 -DZ OVC005/// 08/07 Q1023,0,10,0,9000,0,0,0,DZ
2026-04-28 03:50:00,METAR EGKB 280350Z AUTO 02011KT 9999 OVC009/// 08/06 Q1023,0,11,0,10000,0,0,0,
2026-04-28 03:20:00,METAR EGKB 280320Z AUTO 01012KT 9999 OVC010/// 08/06 Q1023,0,12,0,10000,0,0,0,
2026-04-28 02:50:00,METAR EGKB 280250Z AUTO 36011KT 9999 OVC010/// 08/06 Q1023,0,11,0,10000,0,0,0,
2026-04-28 02:20:00,METAR EGKB 280220Z AUTO 36011KT 9999 OVC011/// 08/06 Q1023,0,11,0,10000,0,0,0,
2026-04-28 01:50:00,METAR EGKB 280150Z AUTO 02008KT 9999 OVC011/// 08/07 Q1023,0,8,0,10000,0,0,0,
2026-04-28 01:20:00,METAR EGKB 280120Z AUTO 03009KT 9999 OVC009/// 08/07 Q1024,0,9,0,10000,0,0,0,
2026-04-28 00:50:00,METAR EGKB 280050Z AUTO 02013KT 9999 OVC007/// 08/07 Q1024,0,13,0,10000,0,0,0,
2026-04-28 00:20:00,METAR EGKB 280020Z AUTO 01012KT 9999 BKN006/// 08/07 Q1024,0,12,0,10000,0,0,0,
2026-04-27 23:50:00,METAR EGKB 272350Z AUTO 02009KT 9999 NCD 09/07 Q1023,0,9,0,10000,0,0,0,
2026-04-27 23:20:00,METAR EGKB 272320Z AUTO 36007KT 9999 NCD 10/07 Q1023,0,7,0,10000,0,0,0,
2026-04-27 22:50:00,METAR EGKB 272250Z AUTO 01008KT 9999 FEW040/// 10/08 Q1023,0,8,0,10000,0,0,0,
2026-04-27 22:20:00,METAR EGKB 272220Z AUTO 02005KT 9999 NCD 10/07 Q1023,0,5,0,10000,0,0,0,
2026-04-27 21:50:00,METAR EGKB 272150Z 04005KT CAVOK 10/07 Q1023,1,0,0,9999,0,0,0,
2026-04-27 21:20:00,METAR EGKB 272120Z 05007KT 9999 -RA FEW039 BKN045 11/07 Q1023,0,7,0,10000,0,0,0,-RA
2026-04-27 20:50:00,METAR EGKB 272050Z 06008KT 9999 VCSH BKN049 12/05 Q1023,0,8,0,10000,0,0,0,"SH,VC"
2026-04-27 20:20:00,METAR EGKB 272020Z 05010KT 9999 BKN044 13/04 Q1023,0,10,0,10000,0,0,0,
2026-04-27 19:50:00,METAR EGKB 271950Z 04006KT CAVOK 14/06 Q1023,1,0,0,9999,0,0,0,
2026-04-27 19:20:00,METAR EGKB 271920Z 05005KT CAVOK 15/06 Q1022,1,0,0,9999,0,0,0,
2026-04-27 18:50:00,METAR EGKB 271850Z 07005KT CAVOK 15/06 Q1022,1,0,0,9999,0,0,0,
2026-04-27 18:20:00,METAR EGKB 271820Z 04003KT 010V110 CAVOK 16/06 Q1022,1,0,0,9999,0,0,0,
2026-04-27 17:50:00,METAR EGKB 271750Z 13006KT 090V170 CAVOK 17/06 Q1022,1,0,0,9999,0,0,0,
2026-04-27 17:20:00,METAR EGKB 271720Z 07005KT 9999 VCSH NSC 17/06 Q1022,0,5,0,10000,0,0,0,"SH,VC"
2026-04-27 16:50:00,METAR EGKB 271650Z 07006KT CAVOK 17/06 Q1022,1,0,0,9999,0,0,0,
2026-04-27 16:20:00,METAR EGKB 271620Z 08006KT 050V110 CAVOK 18/06 Q1022,1,0,0,9999,0,0,0,
2026-04-27 15:50:00,METAR EGKB 271550Z 11005KT 040V160 CAVOK 18/06 Q1022,1,0,0,9999,0,0,0,
2026-04-27 15:20:00,METAR EGKB 271520Z 10006KT 040V160 CAVOK 18/05 Q1022,1,0,0,9999,0,0,0,
2026-04-27 14:50:00,METAR EGKB 271450Z 04007KT 360V090 CAVOK 19/06 Q1023,1,0,0,9999,0,0,0,
2026-04-27 14:20:00,METAR EGKB 271420Z 35005KT 290V050 CAVOK 18/05 Q1023,1,0,0,9999,0,0,0,
2026-04-27 13:50:00,METAR EGKB 271350Z 03007KT 360V080 CAVOK 18/05 Q1023,1,0,0,9999,0,0,0,
2026-04-27 13:20:00,METAR EGKB 271320Z 06008KT 030V100 9999 FEW048 19/05 Q1024,0,8,0,10000,0,0,0,
2026-04-27 12:50:00,METAR EGKB 271250Z 05007KT 360V100 9999 FEW048 18/04 Q1024,0,7,0,10000,0,0,0,
2026-04-27 12:20:00,METAR EGKB 271220Z 04008KT 350V110 9999 FEW045 18/05 Q1024,0,8,0,10000,0,0,0,
2026-04-27 11:50:00,METAR EGKB 271150Z 04007KT 330V080 CAVOK 17/05 Q1024,1,0,0,9999,0,0,0,
2026-04-27 11:20:00,METAR EGKB 271120Z 06008KT 010V090 CAVOK 17/04 Q1024,1,0,0,9999,0,0,0,
2026-04-27 10:50:00,METAR EGKB 271050Z 04007KT 010V080 CAVOK 16/04 Q1025,1,0,0,9999,0,0,0,
2026-04-27 10:20:00,METAR EGKB 271020Z 02008KT CAVOK 16/03 Q1025,1,0,0,9999,0,0,0,
2026-04-27 09:50:00,METAR EGKB 270950Z 04007KT 010V080 CAVOK 15/04 Q1025,1,0,0,9999,0,0,0,
2026-04-27 09:20:00,METAR EGKB 270920Z 02006KT 340V090 CAVOK 14/05 Q1025,1,0,0,9999,0,0,0,
2026-04-27 08:50:00,METAR EGKB 270850Z VRB04KT CAVOK 13/05 Q1025,1,0,0,9999,0,0,0,
2026-04-27 08:20:00,METAR EGKB 270820Z 04004KT 010V070 CAVOK 12/06 Q1025,1,0,0,9999,0,0,0,
2026-04-27 07:50:00,METAR EGKB 270750Z 04004KT 360V070 CAVOK 10/07 Q1025,1,0,0,9999,0,0,0,
2026-04-27 07:20:00,METAR EGKB 270720Z 03004KT CAVOK 09/07 Q1025,1,0,0,9999,0,0,0,
2026-04-27 06:50:00,METAR EGKB 270650Z 05003KT 020V080 9000 NSC 08/07 Q1025,0,3,0,9000,0,0,0,
2026-04-27 06:20:00,METAR EGKB 270620Z 05003KT 9000 NSC 07/06 Q1025,0,3,0,9000,0,0,0,
2026-04-27 05:50:00,METAR EGKB 270550Z 06002KT 7000 MIFG NSC 06/05 Q1025,0,2,0,7000,0,0,1,FG
2026-04-27 05:20:00,METAR EGKB 270520Z VRB01KT CAVOK 05/04 Q1025,1,0,0,9999,0,0,0,
2026-04-27 04:50:00,METAR EGKB 270450Z AUTO 00000KT 7000 NCD 05/04 Q1024,0,0,0,7000,0,0,0,
2026-04-27 04:20:00,METAR EGKB 270420Z AUTO 00000KT 9000 NCD 05/05 Q1024,0,0,0,9000,0,0,0,
2026-04-27 03:50:00,METAR EGKB 270350Z AUTO VRB02KT 9999 NCD 06/05 Q1024,0,2,0,10000,0,0,0,
2026-04-27 03:20:00,METAR EGKB 270320Z AUTO 09003KT 9999 NCD 06/05 Q1024,0,3,0,10000,0,0,0,
2026-04-27 02:50:00,METAR EGKB 270250Z AUTO 03003KT 9999 NCD 06/05 Q1025,0,3,0,10000,0,0,0,
2026-04-27 02:20:00,METAR EGKB 270220Z AUTO 07003KT 350V120 9999 NCD 06/05 Q1025,0,3,0,10000,0,0,0,
2026-04-27 01:50:00,METAR EGKB 270150Z AUTO VRB02KT 9999 NCD 06/05 Q1025,0,2,0,10000,0,0,0,
2026-04-27 01:20:00,METAR EGKB 270120Z AUTO 06004KT 9999 NCD 06/05 Q1025,0,4,0,10000,0,0,0,
2026-04-27 00:50:00,METAR EGKB 270050Z AUTO 05003KT 9999 NCD 06/05 Q1025,0,3,0,10000,0,0,0,
2026-04-27 00:20:00,METAR EGKB 270020Z AUTO 05003KT 9999 NCD 06/05 Q1025,0,3,0,10000,0,0,0,
2026-04-26 23:50:00,METAR EGKB 262350Z AUTO VRB01KT 9999 NCD 07/05 Q1025,0,1,0,10000,0,0,0,
2026-04-26 23:20:00,METAR EGKB 262320Z AUTO 09002KT 9999 NCD 07/05 Q1025,0,2,0,10000,0,0,0,
2026-04-26 22:50:00,METAR EGKB 262250Z AUTO 11003KT 9999 NCD 07/05 Q1025,0,3,0,10000,0,0,0,
2026-04-26 22:20:00,METAR EGKB 262220Z AUTO 12003KT 090V150 9999 NCD 07/05 Q1025,0,3,0,10000,0,0,0,
2026-04-26 21:50:00,METAR EGKB 262150Z AUTO 08004KT 9999 NCD 08/05 Q1025,0,4,0,10000,0,0,0,
2026-04-26 21:20:00,METAR EGKB 262120Z AUTO 07005KT 9999 NCD 07/05 Q1025,0,5,0,10000,0,0,0,
2026-04-26 20:50:00,METAR EGKB 262050Z 07005KT CAVOK 08/05 Q1025,1,0,0,9999,0,0,0,
2026-04-26 20:20:00,METAR EGKB 262020Z 07006KT CAVOK 08/05 Q1025,1,0,0,9999,0,0,0,
2026-04-26 19:50:00,METAR EGKB 261950Z 07006KT CAVOK 08/05 Q1025,1,0,0,9999,0,0,0,
2026-04-26 19:20:00,METAR EGKB 261920Z 06005KT CAVOK 09/05 Q1025,1,0,0,9999,0,0,0,
2026-04-26 18:50:00,METAR EGKB 261850Z 06006KT CAVOK 10/06 Q1024,1,0,0,9999,0,0,0,
2026-04-26 18:20:00,METAR EGKB 261820Z 06007KT CAVOK 11/07 Q1024,1,0,0,9999,0,0,0,
2026-04-26 17:50:00,METAR EGKB 261750Z 06009KT CAVOK 12/07 Q1024,1,0,0,9999,0,0,0,
2026-04-26 17:20:00,METAR EGKB 261720Z 06010KT CAVOK 14/08 Q1024,1,0,0,9999,0,0,0,
2026-04-26 16:50:00,METAR EGKB 261650Z 07009KT CAVOK 15/07 Q1024,1,0,0,9999,0,0,0,
2026-04-26 16:20:00,METAR EGKB 261620Z 06009KT CAVOK 15/07 Q1024,1,0,0,9999,0,0,0,
2026-04-26 15:50:00,METAR EGKB 261550Z 06010KT CAVOK 15/06 Q1024,1,0,0,9999,0,0,0,
2026-04-26 15:20:00,METAR EGKB 261520Z 07009KT CAVOK 16/06 Q1024,1,0,0,9999,0,0,0,
2026-04-26 14:50:00,METAR EGKB 261450Z 04010KT CAVOK 17/07 Q1024,1,0,0,9999,0,0,0,
2026-04-26 14:20:00,METAR EGKB 261420Z 05010KT CAVOK 17/07 Q1024,1,0,0,9999,0,0,0,
2026-04-26 13:50:00,METAR EGKB 261350Z 04008KT 010V080 CAVOK 17/07 Q1025,1,0,0,9999,0,0,0,
2026-04-26 13:20:00,METAR EGKB 261320Z 04007KT 330V090 CAVOK 17/06 Q1025,1,0,0,9999,0,0,0,
2026-04-26 12:50:00,METAR EGKB 261250Z 06007KT 010V150 CAVOK 17/07 Q1025,1,0,0,9999,0,0,0,
2026-04-26 12:20:00,METAR EGKB 261220Z 06008KT 030V090 CAVOK 17/07 Q1025,1,0,0,9999,0,0,0,
2026-04-26 11:50:00,METAR EGKB 261150Z 03007KT 350V080 CAVOK 16/07 Q1025,1,0,0,9999,0,0,0,
2026-04-26 11:20:00,METAR EGKB 261120Z 04007KT 360V090 CAVOK 16/07 Q1025,1,0,0,9999,0,0,0,
2026-04-26 10:50:00,METAR EGKB 261050Z 05006KT 340V120 CAVOK 15/07 Q1025,1,0,0,9999,0,0,0,
2026-04-26 10:20:00,METAR EGKB 261020Z 07006KT 020V120 CAVOK 15/07 Q1026,1,0,0,9999,0,0,0,
2026-04-26 09:50:00,METAR EGKB 260950Z 05006KT 350V150 CAVOK 14/07 Q1026,1,0,0,9999,0,0,0,
2026-04-26 09:20:00,METAR EGKB 260920Z VRB05KT CAVOK 13/08 Q1026,1,0,0,9999,0,0,0,
2026-04-26 08:50:00,METAR EGKB 260850Z 09005KT 040V160 CAVOK 13/06 Q1026,1,0,0,9999,0,0,0,
2026-04-26 08:20:00,METAR EGKB 260820Z 05006KT 020V120 CAVOK 11/07 Q1026,1,0,0,9999,0,0,0,
2026-04-26 07:50:00,METAR EGKB 260750Z 08008KT 050V110 9999 FEW007 10/07 Q1026,0,8,0,10000,0,0,0,
2026-04-26 07:20:00,METAR EGKB 260720Z 07007KT 040V100 7000 FEW004 09/08 Q1026,0,7,0,7000,0,0,0,
2026-04-26 06:50:00,METAR EGKB 260650Z COR 08008KT 050V110 2000 BR BKN002 08/07 Q1025,0,8,0,2000,0,0,1,BR
2026-04-26 06:20:00,METAR EGKB 260620Z AUTO 07006KT 0650 FG VV/// 07/07 Q1025,0,6,0,1045850,0,0,1,FG
2026-04-26 05:50:00,METAR EGKB 260550Z AUTO 06006KT 3700 BR OVC002/// 07/07 Q1025,0,6,0,3700,0,0,1,BR
2026-04-26 05:20:00,METAR EGKB 260520Z AUTO 07005KT 4700 BR OVC002/// 07/07 Q1025,0,5,0,4700,0,0,1,BR
2026-04-26 04:50:00,METAR EGKB 260450Z AUTO 04005KT 2000 OVC002/// 06/06 Q1025,0,5,0,2000,0,0,0,
2026-04-26 04:20:00,METAR EGKB 260420Z AUTO 06005KT 2100 BR VV/// 06/06 Q1024,0,5,0,2100,0,0,1,BR
2026-04-26 03:50:00,METAR EGKB 260350Z AUTO 06004KT 5000 SCT002/// 05/04 Q1024,0,4,0,5000,0,0,0,
2026-04-26 03:20:00,METAR EGKB 260320Z AUTO 05003KT 9999 NCD 06/03 Q1024,0,3,0,10000,0,0,0,
2026-04-26 02:50:00,METAR EGKB 260250Z AUTO 08004KT 9999 NCD 05/02 Q1024,0,4,0,10000,0,0,0,
2026-04-26 02:20:00,METAR EGKB 260220Z AUTO VRB02KT 9999 NCD 05/M02 Q1024,0,2,0,10000,0,0,0,
2026-04-26 01:50:00,METAR EGKB 260150Z AUTO 09004KT 9999 NCD 07/M02 Q1024,0,4,0,10000,0,0,0,
2026-04-26 01:20:00,METAR EGKB 260120Z AUTO VRB02KT 9999 NCD 08/M03 Q1024,0,2,0,10000,0,0,0,
2026-04-26 00:50:00,METAR EGKB 260050Z AUTO 20002KT 9999 NCD 08/M02 Q1024,0,2,0,10000,0,0,0,
2026-04-26 00:20:00,METAR EGKB 260020Z AUTO VRB01KT 9999 NCD 07/M02 Q1023,0,1,0,10000,0,0,0,
2026-04-25 23:50:00,METAR EGKB 252350Z AUTO VRB03KT 9999 NCD 07/M01 Q1023,0,3,0,10000,0,0,0,
2026-04-25 23:20:00,METAR EGKB 252320Z AUTO 05004KT 010V080 9999 NCD 08/M02 Q1023,0,4,0,10000,0,0,0,
2026-04-25 22:50:00,METAR EGKB 252250Z AUTO 16006KT 9999 NCD 11/M06 Q1023,0,6,0,10000,0,0,0,
2026-04-25 22:20:00,METAR EGKB 252220Z AUTO 17007KT 9999 NCD 11/M03 Q1023,0,7,0,10000,0,0,0,
2026-04-25 21:50:00,METAR EGKB 252150Z AUTO 17006KT 9999 NCD 11/M01 Q1023,0,6,0,10000,0,0,0,
2026-04-25 21:20:00,METAR EGKB 252120Z AUTO 17006KT 9999 NCD 12/01 Q1022,0,6,0,10000,0,0,0,
2026-04-25 20:50:00,METAR EGKB 252050Z 18005KT CAVOK 12/02 Q1022,1,0,0,9999,0,0,0,
2026-04-25 20:20:00,METAR EGKB 252020Z 17006KT CAVOK 13/02 Q1022,1,0,0,9999,0,0,0,
2026-04-25 19:50:00,METAR EGKB 251950Z 13005KT CAVOK 12/02 Q1022,1,0,0,9999,0,0,0,
2026-04-25 19:20:00,METAR EGKB 251920Z 13005KT CAVOK 13/M03 Q1022,1,0,0,9999,0,0,0,
2026-04-25 18:50:00,METAR EGKB 251850Z 12006KT CAVOK 15/M03 Q1022,1,0,0,9999,0,0,0,
2026-04-25 18:20:00,METAR EGKB 251820Z 09005KT CAVOK 16/M01 Q1021,1,0,0,9999,0,0,0,
2026-04-25 17:50:00,METAR EGKB 251750Z 06008KT CAVOK 17/M01 Q1021,1,0,0,9999,0,0,0,
2026-04-25 17:20:00,METAR EGKB 251720Z 06006KT 040V100 CAVOK 18/M01 Q1021,1,0,0,9999,0,0,0,
2026-04-25 16:50:00,METAR EGKB 251650Z 04007KT 360V070 CAVOK 19/00 Q1021,1,0,0,9999,0,0,0,
2026-04-25 16:20:00,METAR EGKB 251620Z 02005KT 320V070 CAVOK 19/M03 Q1021,1,0,0,9999,0,0,0,
2026-04-25 15:50:00,METAR EGKB 251550Z 05005KT 340V100 CAVOK 19/M02 Q1021,1,0,0,9999,0,0,0,
2026-04-25 15:20:00,METAR EGKB 251520Z VRB04KT CAVOK 19/M02 Q1021,1,0,0,9999,0,0,0,
2026-04-25 14:50:00,METAR EGKB 251450Z VRB04KT CAVOK 19/M02 Q1021,1,0,0,9999,0,0,0,
2026-04-25 14:20:00,METAR EGKB 251420Z 07004KT 350V160 CAVOK 19/M01 Q1021,1,0,0,9999,0,0,0,
2026-04-25 13:50:00,METAR EGKB 251350Z 01005KT 280V080 CAVOK 19/M01 Q1021,1,0,0,9999,0,0,0,
2026-04-25 13:20:00,METAR EGKB 251320Z 36005KT 310V040 CAVOK 18/01 Q1021,1,0,0,9999,0,0,0,
2026-04-25 12:50:00,METAR EGKB 251250Z 32004KT 250V020 CAVOK 18/00 Q1021,1,0,0,9999,0,0,0,
2026-04-25 12:20:00,METAR EGKB 251220Z 33005KT 270V040 CAVOK 18/02 Q1021,1,0,0,9999,0,0,0,
2026-04-25 11:50:00,METAR EGKB 251150Z 33005KT 270V020 CAVOK 17/01 Q1022,1,0,0,9999,0,0,0,
2026-04-25 11:20:00,METAR EGKB 251120Z 03006KT 340V100 CAVOK 16/03 Q1022,1,0,0,9999,0,0,0,
2026-04-25 10:50:00,METAR EGKB 251050Z VRB03KT CAVOK 16/03 Q1022,1,0,0,9999,0,0,0,
2026-04-25 10:20:00,METAR EGKB 251020Z VRB05KT CAVOK 15/04 Q1022,1,0,0,9999,0,0,0,
2026-04-25 09:50:00,METAR EGKB 250950Z 04004KT 320V080 CAVOK 13/04 Q1022,1,0,0,9999,0,0,0,
2026-04-25 09:20:00,METAR EGKB 250920Z 04005KT 360V090 CAVOK 11/04 Q1022,1,0,0,9999,0,0,0,
2026-04-25 08:50:00,METAR EGKB 250850Z 05004KT 020V080 CAVOK 10/06 Q1022,1,0,0,9999,0,0,0,
2026-04-25 08:20:00,METAR EGKB 250820Z 06004KT 010V090 CAVOK 08/06 Q1022,1,0,0,9999,0,0,0,
2026-04-25 07:50:00,METAR EGKB 250750Z 04004KT 360V080 9999 FEW002 06/05 Q1022,0,4,0,10000,0,0,0,
2026-04-25 07:20:00,METAR EGKB 250720Z 05003KT 020V100 9999 1000N R21/1200U PRFG NSC 05/04 Q1022,0,3,0,10000,0,0,1,FG
2026-04-25 06:50:00,METAR EGKB 250650Z 06004KT 030V090 9999 0700N PRFG NSC 04/03 Q1022,0,4,0,10000,0,0,1,FG
2026-04-25 06:20:00,METAR EGKB 250620Z AUTO 06003KT 8000 NCD 03/03 Q1022,0,3,0,8000,0,0,0,
2026-04-25 05:50:00,METAR EGKB 250550Z AUTO 10002KT 2600 FEW003/// 01/01 Q1022,0,2,0,2600,0,0,0,
2026-04-25 05:20:00,METAR EGKB 250520Z AUTO 11003KT 080V150 0200 FZFG VV/// M00/M01 Q1021,0,3,0,321800,0,0,1,FG
2026-04-25 04:50:00,METAR EGKB 250450Z AUTO 07003KT 0600 FG SCT002/// 00/M00 Q1021,0,3,0,965400,0,0,1,FG
2026-04-25 04:20:00,METAR EGKB 250420Z AUTO VRB02KT 0750 FG VV/// 00/00 Q1021,0,2,0,1206750,0,0,1,FG
2026-04-25 03:50:00,METAR EGKB 250350Z AUTO 10003KT 0300 FG VV/// 01/01 Q1021,0,3,0,482700,0,0,1,FG
2026-04-25 03:20:00,METAR EGKB 250320Z AUTO 06004KT 0300 FG VV/// 01/01 Q1021,0,4,0,482700,0,0,1,FG
2026-04-25 02:50:00,METAR EGKB 250250Z AUTO VRB01KT 0300 FG VV/// 01/01 Q1021,0,1,0,482700,0,0,1,FG
2026-04-25 02:20:00,METAR EGKB 250220Z AUTO VRB02KT 0600 FG FEW003/// 03/03 Q1021,0,2,0,965400,0,0,1,FG
2026-04-25 01:50:00,METAR EGKB 250150Z AUTO VRB01KT 1800 BR NCD 04/03 Q1022,0,1,0,1800,0,0,1,BR
2026-04-25 01:20:00,METAR EGKB 250120Z AUTO VRB01KT 7000 NCD 04/03 Q1022,0,1,0,7000,0,0,0,
2026-04-25 00:50:00,METAR EGKB 250050Z AUTO 10004KT 9999 NCD 04/03 Q1022,0,4,0,10000,0,0,0,
2026-04-25 00:20:00,METAR EGKB 250020Z AUTO 10003KT 9999 NCD 05/04 Q1022,0,3,0,10000,0,0,0,
2026-04-24 23:50:00,METAR EGKB 242350Z AUTO 07004KT 9999 NCD 03/03 Q1023,0,4,0,10000,0,0,0,
2026-04-24 23:20:00,METAR EGKB 242320Z AUTO 09005KT 9999 NCD 05/04 Q1023,0,5,0,10000,0,0,0,
2026-04-24 22:50:00,METAR EGKB 242250Z AUTO 08007KT 9999 NCD 05/04 Q1023,0,7,0,10000,0,0,0,
2026-04-24 22:20:00,METAR EGKB 242220Z AUTO 08006KT 9999 NCD 05/03 Q1023,0,6,0,10000,0,0,0,
2026-04-24 21:50:00,METAR EGKB 242150Z 09005KT CAVOK 05/02 Q1024,1,0,0,9999,0,0,0,
2026-04-24 21:20:00,METAR EGKB 242120Z 07006KT CAVOK 05/01 Q1023,1,0,0,9999,0,0,0,
2026-04-24 20:50:00,METAR EGKB 242050Z 06006KT CAVOK 06/M00 Q1024,1,0,0,9999,0,0,0,
2026-04-24 20:20:00,METAR EGKB 242020Z 07006KT CAVOK 07/M01 Q1024,1,0,0,9999,0,0,0,
2026-04-24 19:50:00,METAR EGKB 241950Z 07006KT CAVOK 08/M02 Q1023,1,0,0,9999,0,0,0,
2026-04-24 19:20:00,METAR EGKB 241920Z 06007KT CAVOK 08/M04 Q1023,1,0,0,9999,0,0,0,
2026-04-24 18:50:00,METAR EGKB 241850Z 04007KT CAVOK 09/M05 Q1023,1,0,0,9999,0,0,0,
2026-04-24 18:20:00,METAR EGKB 241820Z 05008KT CAVOK 12/M04 Q1023,1,0,0,9999,0,0,0,
2026-04-24 17:50:00,METAR EGKB 241750Z 08009KT 050V110 CAVOK 14/M00 Q1023,1,0,0,9999,0,0,0,
2026-04-24 17:20:00,METAR EGKB 241720Z 08010KT CAVOK 14/M05 Q1023,1,0,0,9999,0,0,0,
2026-04-24 16:50:00,METAR EGKB 241650Z 06010KT 040V110 CAVOK 14/M06 Q1023,1,0,0,9999,0,0,0,
2026-04-24 16:20:00,METAR EGKB 241620Z 07012KT CAVOK 14/M05 Q1023,1,0,0,9999,0,0,0,
2026-04-24 15:50:00,METAR EGKB 241550Z 06012KT CAVOK 15/M05 Q1024,1,0,0,9999,0,0,0,
2026-04-24 15:20:00,METAR EGKB 241520Z 05012KT CAVOK 15/M05 Q1024,1,0,0,9999,0,0,0,
2026-04-24 14:50:00,METAR EGKB 241450Z 06012KT CAVOK 16/M02 Q1024,1,0,0,9999,0,0,0,
2026-04-24 14:20:00,METAR EGKB 241420Z 07012KT 040V100 CAVOK 16/M01 Q1024,1,0,0,9999,0,0,0,
2026-04-24 13:50:00,METAR EGKB 241350Z 06012KT 030V090 CAVOK 16/M01 Q1025,1,0,0,9999,0,0,0,
2026-04-24 13:20:00,METAR EGKB 241320Z 05012KT 020V080 CAVOK 16/M01 Q1025,1,0,0,9999,0,0,0,
2026-04-24 12:50:00,METAR EGKB 241250Z 06011KT 030V090 CAVOK 16/00 Q1025,1,0,0,9999,0,0,0,
2026-04-24 12:20:00,METAR EGKB 241220Z 06010KT 010V110 CAVOK 15/02 Q1026,1,0,0,9999,0,0,0,
2026-04-24 11:50:00,METAR EGKB 241150Z 07008KT 040V100 CAVOK 15/05 Q1026,1,0,0,9999,0,0,0,
2026-04-24 11:20:00,METAR EGKB 241120Z 05009KT 010V090 CAVOK 15/04 Q1026,1,0,0,9999,0,0,0,
2026-04-24 10:50:00,METAR EGKB 241050Z 06008KT 010V090 CAVOK 13/06 Q1026,1,0,0,9999,0,0,0,
2026-04-24 10:20:00,METAR EGKB 241020Z 05009KT 020V090 CAVOK 13/05 Q1027,1,0,0,9999,0,0,0,
2026-04-24 09:50:00,METAR EGKB 240950Z 05008KT 020V090 CAVOK 11/05 Q1027,1,0,0,9999,0,0,0,
2026-04-24 09:20:00,METAR EGKB 240920Z 06008KT 020V090 CAVOK 10/05 Q1027,1,0,0,9999,0,0,0,
2026-04-24 08:50:00,METAR EGKB 240850Z 09005KT CAVOK 10/05 Q1027,1,0,0,9999,0,0,0,
2026-04-24 08:20:00,METAR EGKB 240820Z 06008KT 9999 FEW010 08/06 Q1027,0,8,0,10000,0,0,0,
2026-04-24 07:50:00,METAR EGKB 240750Z 07008KT 9999 FEW006 06/06 Q1027,0,8,0,10000,0,0,0,
2026-04-24 07:20:00,METAR EGKB 240720Z 05008KT 9999 SCT006 05/05 Q1027,0,8,0,10000,0,0,0,
2026-04-24 06:50:00,METAR EGKB 240650Z 06007KT 7000 BKN005 05/05 Q1027,0,7,0,7000,0,0,0,
2026-04-24 06:20:00,METAR EGKB 240620Z 07008KT 040V110 4000 BR BKN002 05/05 Q1027,0,8,0,4000,0,0,1,BR
2026-04-24 05:50:00,METAR EGKB 240550Z 06011KT 0600 R03/1500 FG BKN002 05/05 Q1027,0,11,0,965400,0,0,1,FG
2026-04-24 05:20:00,METAR EGKB 240520Z 06012KT 1000 R03/P1500 FG BKN002 05/05 Q1026,0,12,0,1000,0,0,1,FG
2026-04-24 04:50:00,METAR EGKB 240450Z AUTO 06009KT 2000 BR BKN002/// 05/05 Q1026,0,9,0,2000,0,0,1,BR
2026-04-24 04:20:00,METAR EGKB 240420Z AUTO 06010KT 0900 FG VV/// 05/05 Q1026,0,10,0,1448100,0,0,1,FG
2026-04-24 03:50:00,METAR EGKB 240350Z AUTO 06008KT 1700 BR VV/// 05/05 Q1026,0,8,0,1700,0,0,1,BR
2026-04-24 03:20:00,METAR EGKB 240320Z AUTO 07008KT 1200 BR VV/// 05/05 Q1026,0,8,0,1200,0,0,1,BR
2026-04-24 02:50:00,METAR EGKB 240250Z AUTO 06009KT 5000 BR BKN002/// 05/05 Q1027,0,9,0,5000,0,0,1,BR
2026-04-24 02:20:00,METAR EGKB 240220Z AUTO 06009KT 7000 BKN002/// 05/05 Q1027,0,9,0,7000,0,0,0,
2026-04-24 01:50:00,METAR EGKB 240150Z AUTO 06010KT 2600 BR OVC002/// 06/05 Q1027,0,10,0,2600,0,0,1,BR
2026-04-24 01:20:00,METAR EGKB 240120Z AUTO 06009KT 5000 BR BKN002/// 06/05 Q1027,0,9,0,5000,0,0,1,BR
2026-04-24 00:50:00,METAR EGKB 240050Z AUTO 06009KT 3200 BR OVC002/// 06/06 Q1027,0,9,0,3200,0,0,1,BR
2026-04-24 00:20:00,METAR EGKB 240020Z AUTO 08008KT 7000 OVC002/// 06/06 Q1028,0,8,0,7000,0,0,0,
2026-04-23 23:50:00,METAR EGKB 232350Z AUTO 07009KT 9000 OVC003/// 06/06 Q1028,0,9,0,9000,0,0,0,
2026-04-23 23:20:00,METAR EGKB 232320Z AUTO 07010KT 9999 BKN004/// 06/06 Q1028,0,10,0,10000,0,0,0,
2026-04-23 22:50:00,METAR EGKB 232250Z AUTO 07011KT 9999 BKN004/// 06/06 Q1028,0,11,0,10000,0,0,0,
2026-04-23 22:20:00,METAR EGKB 232220Z AUTO 06009KT 9999 BKN004/// 05/05 Q1028,0,9,0,10000,0,0,0,
2026-04-23 21:50:00,METAR EGKB 232150Z 08008KT 9999 SCT007 06/06 Q1028,0,8,0,10000,0,0,0,
2026-04-23 21:20:00,METAR EGKB 232120Z 07009KT 9999 SCT006 06/06 Q1028,0,9,0,10000,0,0,0,
2026-04-23 20:50:00,METAR EGKB 232050Z 07009KT 9999 SCT006 06/05 Q1028,0,9,0,10000,0,0,0,
2026-04-23 20:20:00,METAR EGKB 232020Z 06012KT CAVOK 06/05 Q1028,1,0,0,9999,0,0,0,
2026-04-23 19:50:00,METAR EGKB 231950Z 07010KT CAVOK 06/04 Q1028,1,0,0,9999,0,0,0,
2026-04-23 19:20:00,METAR EGKB 231920Z 07011KT CAVOK 07/05 Q1028,1,0,0,9999,0,0,0,
2026-04-23 18:50:00,METAR EGKB 231850Z 07009KT CAVOK 08/04 Q1028,1,0,0,9999,0,0,0,
2026-04-23 18:20:00,METAR EGKB 231820Z 06009KT CAVOK 10/04 Q1028,1,0,0,9999,0,0,0,
2026-04-23 17:50:00,METAR EGKB 231750Z 07011KT CAVOK 11/01 Q1028,1,0,0,9999,0,0,0,
2026-04-23 17:20:00,METAR EGKB 231720Z 07014KT CAVOK 13/00 Q1028,1,0,0,9999,0,0,0,
2026-04-23 16:50:00,METAR EGKB 231650Z 07014KT CAVOK 13/00 Q1028,1,0,0,9999,0,0,0,
2026-04-23 16:20:00,METAR EGKB 231620Z 06014KT CAVOK 14/M01 Q1028,1,0,0,9999,0,0,0,
2026-04-23 15:50:00,METAR EGKB 231550Z 07012KT 030V100 CAVOK 14/M00 Q1029,1,0,0,9999,0,0,0,
2026-04-23 15:20:00,METAR EGKB 231520Z 06013KT 030V090 CAVOK 14/01 Q1029,1,0,0,9999,0,0,0,
2026-04-23 14:50:00,METAR EGKB 231450Z 07013KT CAVOK 15/03 Q1029,1,0,0,9999,0,0,0,
2026-04-23 14:20:00,METAR EGKB 231420Z 07013KT 040V100 CAVOK 14/03 Q1030,1,0,0,9999,0,0,0,
2026-04-23 13:50:00,METAR EGKB 231350Z 08014KT CAVOK 15/04 Q1030,1,0,0,9999,0,0,0,
2026-04-23 13:20:00,METAR EGKB 231320Z 06014KT CAVOK 15/05 Q1030,1,0,0,9999,0,0,0,
2026-04-23 12:50:00,METAR EGKB 231250Z 06015KT CAVOK 14/04 Q1030,1,0,0,9999,0,0,0,
2026-04-23 12:20:00,METAR EGKB 231220Z 08015KT 050V110 CAVOK 14/07 Q1030,1,0,0,9999,0,0,0,
2026-04-23 11:50:00,METAR EGKB 231150Z 06015KT CAVOK 14/07 Q1030,1,0,0,9999,0,0,0,
2026-04-23 11:20:00,METAR EGKB 231120Z 05013KT 020V090 9999 FEW020 14/08 Q1030,0,13,0,10000,0,0,0,
2026-04-23 10:50:00,METAR EGKB 231050Z 06012KT 9999 FEW020 13/07 Q1030,0,12,0,10000,0,0,0,
2026-04-23 10:20:00,METAR EGKB 231020Z 06015KT 9999 FEW018 13/07 Q1030,0,15,0,10000,0,0,0,
2026-04-23 09:50:00,METAR EGKB 230950Z 07014KT 9999 FEW018 13/08 Q1030,0,14,0,10000,0,0,0,
2026-04-23 09:20:00,METAR EGKB 230920Z 05013KT 9999 FEW018 12/07 Q1031,0,13,0,10000,0,0,0,
2026-04-23 08:50:00,METAR EGKB 230850Z 06012KT 030V090 9999 FEW010 11/08 Q1030,0,12,0,10000,0,0,0,
2026-04-23 08:20:00,METAR EGKB 230820Z 06012KT 9000 SCT007 10/08 Q1030,0,12,0,9000,0,0,0,
2026-04-23 07:50:00,METAR EGKB 230750Z 06012KT 030V090 8000 BKN005 09/08 Q1030,0,12,0,8000,0,0,0,
2026-04-23 07:20:00,METAR EGKB 230720Z 06010KT 040V100 3000 BR BKN003 08/08 Q1030,0,10,0,3000,0,0,1,BR
2026-04-23 06:50:00,METAR EGKB 230650Z 04007KT 020V080 1800 BR OVC002 07/07 Q1030,0,7,0,1800,0,0,1,BR
2026-04-23 06:20:00,METAR EGKB 230620Z 04007KT 0500 R03/1200U FG VV/// 07/07 Q1030,0,7,0,804500,0,0,1,FG
2026-04-23 05:50:00,METAR EGKB 230550Z 04007KT 0400 R03/1000D FG VV/// 07/06 Q1030,0,7,0,643600,0,0,1,FG
2026-04-23 05:20:00,METAR EGKB 230520Z 06013KT 0400 R03/1200 FG VV/// 08/05 Q1027,0,13,0,643600,0,0,1,FG
2026-04-23 04:50:00,METAR EGKB 230450Z AUTO 04007KT 1900 BR OVC002/// 06/06 Q1029,0,7,0,1900,0,0,1,BR
2026-04-23 04:20:00,METAR EGKB 230420Z AUTO 04006KT 2400 BR OVC002/// 06/06 Q1029,0,6,0,2400,0,0,1,BR
2026-04-23 03:50:00,METAR EGKB 230350Z AUTO 04005KT 1900 BR OVC002/// 06/06 Q1029,0,5,0,1900,0,0,1,BR
2026-04-23 03:20:00,METAR EGKB 230320Z AUTO 05005KT 1900 BR OVC002/// 06/06 Q1029,0,5,0,1900,0,0,1,BR
2026-04-23 02:50:00,METAR EGKB 230250Z AUTO 04004KT 2700 BR OVC002/// 06/06 Q1029,0,4,0,2700,0,0,1,BR
2026-04-23 02:20:00,METAR EGKB 230220Z AUTO 04004KT 5000 BR OVC003/// 06/05 Q1029,0,4,0,5000,0,0,1,BR
2026-04-23 01:50:00,METAR EGKB 230150Z AUTO 05005KT 5000 BR FEW006/// 05/05 Q1028,0,5,0,5000,0,0,1,BR
2026-04-23 01:20:00,METAR EGKB 230120Z AUTO 06006KT 7000 NCD 06/05 Q1028,0,6,0,7000,0,0,0,
2026-04-23 00:50:00,METAR EGKB 230050Z AUTO 06007KT 9000 FEW004/// 07/06 Q1028,0,7,0,9000,0,0,0,
2026-04-23 00:20:00,METAR EGKB 230020Z AUTO 06007KT 9999 SCT005/// 07/06 Q1028,0,7,0,10000,0,0,0,
2026-04-22 23:50:00,METAR EGKB 222350Z AUTO 07008KT 9999 SCT006/// 07/06 Q1028,0,8,0,10000,0,0,0,
2026-04-22 23:20:00,METAR EGKB 222320Z AUTO 07009KT 9999 NCD 07/06 Q1028,0,9,0,10000,0,0,0,
2026-04-22 22:50:00,METAR EGKB 222250Z AUTO 07011KT 9999 NCD 07/06 Q1027,0,11,0,10000,0,0,0,
2026-04-22 22:20:00,METAR EGKB 222220Z AUTO 06013KT 9999 NCD 07/06 Q1027,0,13,0,10000,0,0,0,
2026-04-22 21:50:00,METAR EGKB 222150Z 06013KT CAVOK 08/05 Q1027,1,0,0,9999,0,0,0,
2026-04-22 21:20:00,METAR EGKB 222120Z 06013KT CAVOK 08/04 Q1027,1,0,0,9999,0,0,0,
2026-04-22 20:50:00,METAR EGKB 222050Z 06012KT CAVOK 08/04 Q1027,1,0,0,9999,0,0,0,
2026-04-22 20:20:00,METAR EGKB 222020Z 06014KT CAVOK 08/04 Q1027,1,0,0,9999,0,0,0,
2026-04-22 19:50:00,METAR EGKB 221950Z 05013KT CAVOK 09/03 Q1027,1,0,0,9999,0,0,0,
2026-04-22 19:20:00,METAR EGKB 221920Z 06013KT CAVOK 09/02 Q1027,1,0,0,9999,0,0,0,
2026-04-22 18:50:00,METAR EGKB 221850Z 06012KT CAVOK 10/02 Q1026,1,0,0,9999,0,0,0,
2026-04-22 18:20:00,METAR EGKB 221820Z 06010KT CAVOK 10/02 Q1026,1,0,0,9999,0,0,0,
2026-04-22 17:50:00,METAR EGKB 221750Z 07017KT CAVOK 11/M00 Q1026,1,0,0,9999,0,0,0,
2026-04-22 17:20:00,METAR EGKB 221720Z 07015KT CAVOK 11/00 Q1026,1,0,0,9999,0,0,0,
2026-04-22 16:50:00,METAR EGKB 221650Z 08016KT 050V110 CAVOK 12/00 Q1026,1,0,0,9999,0,0,0,
2026-04-22 16:20:00,METAR EGKB 221620Z 07017KT CAVOK 12/00 Q1026,1,0,0,9999,0,0,0,
2026-04-22 15:50:00,METAR EGKB 221550Z 07016KT CAVOK 13/01 Q1026,1,0,0,9999,0,0,0,
2026-04-22 15:20:00,METAR EGKB 221520Z 07017KT 040V110 CAVOK 13/01 Q1026,1,0,0,9999,0,0,0,
2026-04-22 14:50:00,METAR EGKB 221450Z 07019KT 030V090 CAVOK 13/00 Q1026,1,0,0,9999,0,0,0,
2026-04-22 14:20:00,METAR EGKB 221420Z 08018KT CAVOK 13/01 Q1026,1,0,0,9999,0,0,0,
2026-04-22 13:50:00,METAR EGKB 221350Z 09016KT CAVOK 13/00 Q1026,1,0,0,9999,0,0,0,
2026-04-22 13:20:00,METAR EGKB 221320Z 07019KT 040V110 CAVOK 13/M01 Q1025,1,0,0,9999,0,0,0,
2026-04-22 12:50:00,METAR EGKB 221250Z 07020KT CAVOK 14/M00 Q1025,1,0,0,9999,0,0,0,
2026-04-22 12:20:00,METAR EGKB 221220Z 07020KT CAVOK 14/00 Q1025,1,0,0,9999,0,0,0,
2026-04-22 11:50:00,METAR EGKB 221150Z 06019KT CAVOK 14/01 Q1025,1,0,0,9999,0,0,0,
2026-04-22 11:20:00,METAR EGKB 221120Z 07019G29KT CAVOK 13/01 Q1025,1,0,0,9999,0,0,0,
2026-04-22 10:50:00,METAR EGKB 221050Z 07019KT 9999 FEW038 14/02 Q1025,0,19,0,10000,0,0,0,
2026-04-22 10:20:00,METAR EGKB 221020Z 08016KT 050V110 9999 FEW030 13/04 Q1025,0,16,0,10000,0,0,0,
2026-04-22 09:50:00,METAR EGKB 220950Z 07016KT 9999 FEW030 13/04 Q1025,0,16,0,10000,0,0,0,
2026-04-22 09:20:00,METAR EGKB 220920Z 06013KT 9999 FEW036 13/04 Q1026,0,13,0,10000,0,0,0,
2026-04-22 08:50:00,METAR EGKB 220850Z 06014KT 9999 FEW025 12/04 Q1026,0,14,0,10000,0,0,0,
2026-04-22 08:20:00,METAR EGKB 220820Z 07010KT 040V100 9999 FEW025 11/05 Q1026,0,10,0,10000,0,0,0,
2026-04-22 07:50:00,METAR EGKB 220750Z 07010KT 9999 FEW018 10/06 Q1026,0,10,0,10000,0,0,0,
2026-04-22 07:20:00,METAR EGKB 220720Z 05005KT 020V090 8000 NSC 08/07 Q1026,0,5,0,8000,0,0,0,
2026-04-22 06:50:00,METAR EGKB 220650Z 05006KT 3500 BR SCT002 07/06 Q1025,0,6,0,3500,0,0,1,BR
2026-04-22 06:20:00,METAR EGKB 220620Z 06008KT 0900 R03/1500U FG VV/// 06/06 Q1025,0,8,0,1448100,0,0,1,FG
2026-04-22 05:50:00,METAR EGKB 220550Z 06008KT 0450 R03/1200D FG VV/// 06/05 Q1025,0,8,0,724050,0,0,1,FG
2026-04-22 05:20:00,METAR EGKB 220520Z 06008KT 1000 R21/P2000 FG VV/// 05/05 Q1025,0,8,0,1000,0,0,1,FG
2026-04-22 04:50:00,METAR EGKB 220450Z AUTO 06009KT 3800 BR OVC002/// 05/05 Q1024,0,9,0,3800,0,0,1,BR
2026-04-22 04:20:00,METAR EGKB 220420Z AUTO 07008KT 6000 OVC003/// 05/05 Q1024,0,8,0,6000,0,0,0,
2026-04-22 03:50:00,METAR EGKB 220350Z AUTO 06006KT 8000 OVC004/// 05/04 Q1024,0,6,0,8000,0,0,0,
2026-04-22 03:20:00,METAR EGKB 220320Z AUTO 06006KT 9999 SCT005/// 04/03 Q1024,0,6,0,10000,0,0,0,
2026-04-22 02:50:00,METAR EGKB 220250Z AUTO 05006KT 9999 NCD 03/03 Q1024,0,6,0,10000,0,0,0,
2026-04-22 02:20:00,METAR EGKB 220220Z AUTO 05007KT 9999 NCD 03/03 Q1024,0,7,0,10000,0,0,0,
2026-04-22 01:50:00,METAR EGKB 220150Z AUTO 05006KT 9999 NCD 03/03 Q1024,0,6,0,10000,0,0,0,
2026-04-22 01:20:00,METAR EGKB 220120Z AUTO 05008KT 9999 NCD 04/03 Q1025,0,8,0,10000,0,0,0,
2026-04-22 00:50:00,METAR EGKB 220050Z AUTO 05009KT 9999 NCD 04/04 Q1025,0,9,0,10000,0,0,0,
2026-04-22 00:20:00,METAR EGKB 220020Z AUTO 06008KT 9999 NCD 04/04 Q1025,0,8,0,10000,0,0,0,
2026-04-21 23:50:00,METAR EGKB 212350Z AUTO 05009KT 9999 NCD 04/03 Q1025,0,9,0,10000,0,0,0,
2026-04-21 23:20:00,METAR EGKB 212320Z AUTO 05008KT 9999 NCD 04/03 Q1025,0,8,0,10000,0,0,0,
2026-04-21 22:50:00,METAR EGKB 212250Z AUTO 05008KT 9999 NCD 05/03 Q1025,0,8,0,10000,0,0,0,
2026-04-21 22:20:00,METAR EGKB 212220Z AUTO 05008KT 9999 NCD 05/03 Q1025,0,8,0,10000,0,0,0,
2026-04-21 21:50:00,METAR EGKB 212150Z 05010KT CAVOK 05/03 Q1025,1,0,0,9999,0,0,0,
2026-04-21 21:20:00,METAR EGKB 212120Z 05010KT CAVOK 06/03 Q1025,1,0,0,9999,0,0,0,
2026-04-21 20:50:00,METAR EGKB 212050Z 05010KT CAVOK 06/03 Q1025,1,0,0,9999,0,0,0,
2026-04-21 20:20:00,METAR EGKB 212020Z 05012KT CAVOK 06/03 Q1025,1,0,0,9999,0,0,0,
2026-04-21 19:50:00,METAR EGKB 211950Z 06012KT CAVOK 07/03 Q1025,1,0,0,9999,0,0,0,
2026-04-21 19:20:00,METAR EGKB 211920Z 05016KT CAVOK 07/03 Q1025,1,0,0,9999,0,0,0,
2026-04-21 18:50:00,METAR EGKB 211850Z 06015KT CAVOK 08/02 Q1025,1,0,0,9999,0,0,0,
2026-04-21 18:20:00,METAR EGKB 211820Z 06015KT CAVOK 08/01 Q1024,1,0,0,9999,0,0,0,
2026-04-21 17:50:00,METAR EGKB 211750Z 06017KT CAVOK 09/01 Q1024,1,0,0,9999,0,0,0,
2026-04-21 17:20:00,METAR EGKB 211720Z 06015KT CAVOK 09/02 Q1024,1,0,0,9999,0,0,0,
2026-04-21 16:50:00,METAR EGKB 211650Z 06017KT CAVOK 10/02 Q1024,1,0,0,9999,0,0,0,
2026-04-21 16:20:00,METAR EGKB 211620Z 07017KT 040V100 9999 FEW033 10/03 Q1024,0,17,0,10000,0,0,0,
2026-04-21 15:50:00,METAR EGKB 211550Z 06021KT 9999 FEW025 11/03 Q1024,0,21,0,10000,0,0,0,
2026-04-21 15:20:00,METAR EGKB 211520Z 07018G28KT 040V100 9999 FEW032 11/04 Q1024,0,18,1,10000,0,0,0,
2026-04-21 14:50:00,METAR EGKB 211450Z 07017G28KT 040V100 9999 FEW024 11/05 Q1024,0,17,1,10000,0,0,0,
2026-04-21 14:20:00,METAR EGKB 211420Z 06015KT 030V090 9999 FEW021 10/06 Q1024,0,15,0,10000,0,0,0,
2026-04-21 13:50:00,METAR EGKB 211350Z 06016KT 030V090 9999 BKN023 10/05 Q1025,0,16,0,10000,0,0,0,
2026-04-21 13:20:00,METAR EGKB 211320Z 06016KT 030V090 9999 BKN022 09/05 Q1025,0,16,0,10000,0,0,0,
2026-04-21 12:50:00,METAR EGKB 211250Z 06016KT 9999 BKN030 10/05 Q1025,0,16,0,10000,0,0,0,
2026-04-21 12:20:00,METAR EGKB 211220Z 06014KT 9999 BKN025 10/06 Q1025,0,14,0,10000,0,0,0,
2026-04-21 11:50:00,METAR EGKB 211150Z 07016KT 030V100 9999 BKN025 11/05 Q1025,0,16,0,10000,0,0,0,
2026-04-21 11:20:00,METAR EGKB 211120Z 06015KT 9999 BKN028 11/05 Q1025,0,15,0,10000,0,0,0,
2026-04-21 10:50:00,METAR EGKB 211050Z 04015KT 010V070 9999 SCT029 11/04 Q1025,0,15,0,10000,0,0,0,
2026-04-21 10:20:00,METAR EGKB 211020Z 05015KT 020V080 9999 FEW026 10/04 Q1025,0,15,0,10000,0,0,0,
2026-04-21 09:50:00,METAR EGKB 210950Z 04014KT 010V080 9999 FEW025 10/04 Q1025,0,14,0,10000,0,0,0,
2026-04-21 09:20:00,METAR EGKB 210920Z 04013KT 010V070 9999 FEW025 10/04 Q1025,0,13,0,10000,0,0,0,
2026-04-21 08:50:00,METAR EGKB 210850Z 05014KT 9999 FEW025 09/03 Q1025,0,14,0,10000,0,0,0,
2026-04-21 08:20:00,METAR EGKB 210820Z 04015KT 9999 FEW020 09/04 Q1025,0,15,0,10000,0,0,0,
2026-04-21 07:50:00,METAR EGKB 210750Z 05014KT 9999 SCT020 08/05 Q1025,0,14,0,10000,0,0,0,
2026-04-21 07:20:00,METAR EGKB 210720Z 04011KT 010V070 9999 SCT014 07/05 Q1025,0,11,0,10000,0,0,0,
2026-04-21 06:50:00,METAR EGKB 210650Z 04010KT 9999 FEW011 SCT029 07/06 Q1024,0,10,0,10000,0,0,0,
2026-04-21 06:20:00,METAR EGKB 210620Z 04010KT 9999 SCT008 SCT025 06/06 Q1024,0,10,0,10000,0,0,0,
2026-04-21 05:50:00,METAR EGKB 210550Z 04010KT 9999 BKN005 06/05 Q1024,0,10,0,10000,0,0,0,
2026-04-21 05:20:00,METAR EGKB 210520Z 04009KT 9999 4000S -DZ OVC005 06/05 Q1024,0,9,0,10000,0,0,0,DZ
2026-04-21 04:50:00,METAR EGKB 210450Z AUTO 03008KT 9999 -RA OVC004/// 05/05 Q1024,0,8,0,10000,0,0,0,-RA
2026-04-21 04:20:00,METAR EGKB 210420Z AUTO 04008KT 9999 OVC005/// 05/05 Q1024,0,8,0,10000,0,0,0,
2026-04-21 03:50:00,METAR EGKB 210350Z AUTO 04007KT 9999 OVC006/// 05/04 Q1024,0,7,0,10000,0,0,0,
2026-04-21 03:20:00,METAR EGKB 210320Z AUTO 03008KT 9999 OVC007/// 05/04 Q1024,0,8,0,10000,0,0,0,
2026-04-21 02:50:00,METAR EGKB 210250Z AUTO 03008KT 9999 FEW012/// BKN043/// 04/04 Q1024,0,8,0,10000,0,0,0,
2026-04-21 02:20:00,METAR EGKB 210220Z AUTO 02006KT 9999 FEW008/// SCT011/// BKN024/// 04/03 Q1024,0,6,0,10000,0,0,0,
2026-04-21 01:50:00,METAR EGKB 210150Z AUTO 04006KT 9999 BKN009/// 04/03 Q1024,0,6,0,10000,0,0,0,
2026-04-21 01:20:00,METAR EGKB 210120Z AUTO 04005KT 9999 FEW010/// SCT030/// 03/02 Q1024,0,5,0,10000,0,0,0,
2026-04-21 00:50:00,METAR EGKB 210050Z AUTO 05004KT 9999 SCT030/// 03/02 Q1025,0,4,0,10000,0,0,0,
2026-04-20 22:50:00,METAR EGKB 202250Z AUTO 05009KT 9999 NCD 04/03 Q1024,0,9,0,10000,0,0,0,
2026-04-20 22:20:00,METAR EGKB 202220Z AUTO 05009KT 9999 FEW021/// 05/03 Q1024,0,9,0,10000,0,0,0,
2026-04-20 21:50:00,METAR EGKB 202150Z 05009KT 9999 SCT020 06/04 Q1024,0,9,0,10000,0,0,0,
2026-04-20 21:20:00,METAR EGKB 202120Z 06006KT 9999 SCT017 06/04 Q1024,0,6,0,10000,0,0,0,
2026-04-20 20:50:00,METAR EGKB 202050Z 06010KT 9999 BKN019 07/04 Q1024,0,10,0,10000,0,0,0,
2026-04-20 20:20:00,METAR EGKB 202020Z 06008KT 9999 BKN020 07/05 Q1024,0,8,0,10000,0,0,0,
2026-04-20 19:50:00,METAR EGKB 201950Z 07005KT 9999 BKN020 07/05 Q1024,0,5,0,10000,0,0,0,
2026-04-20 19:20:00,METAR EGKB 201920Z 07003KT CAVOK 07/04 Q1023,1,0,0,9999,0,0,0,
2026-04-20 18:50:00,METAR EGKB 201850Z 07006KT CAVOK 07/04 Q1023,1,0,0,9999,0,0,0,
2026-04-20 18:20:00,METAR EGKB 201820Z 05008KT 9999 FEW035 10/05 Q1023,0,8,0,10000,0,0,0,
2026-04-20 17:50:00,METAR EGKB 201750Z 05007KT 9999 FEW035 09/04 Q1023,0,7,0,10000,0,0,0,
2026-04-20 17:20:00,METAR EGKB 201720Z 05007KT 020V080 9999 FEW035 10/04 Q1023,0,7,0,10000,0,0,0,
2026-04-20 16:50:00,METAR EGKB 201650Z 05009KT 9999 FEW034 10/03 Q1023,0,9,0,10000,0,0,0,
2026-04-20 16:20:00,METAR EGKB 201620Z 04007KT 010V090 9999 FEW028 10/03 Q1023,0,7,0,10000,0,0,0,
2026-04-20 15:50:00,METAR EGKB 201550Z 04008KT CAVOK 10/03 Q1023,1,0,0,9999,0,0,0,
2026-04-20 15:20:00,METAR EGKB 201520Z 05009KT CAVOK 10/03 Q1023,1,0,0,9999,0,0,0,
2026-04-20 14:50:00,METAR EGKB 201450Z 06011KT CAVOK 10/03 Q1023,1,0,0,9999,0,0,0,
2026-04-20 14:20:00,METAR EGKB 201420Z 05009KT 9999 FEW032 11/02 Q1023,0,9,0,10000,0,0,0,
2026-04-20 13:50:00,METAR EGKB 201350Z 05010KT 010V080 9999 FEW032 11/03 Q1023,0,10,0,10000,0,0,0,
2026-04-20 13:20:00,METAR EGKB 201320Z 06010KT 020V080 9999 FEW040 11/03 Q1023,0,10,0,10000,0,0,0,
2026-04-20 12:50:00,METAR EGKB 201250Z 05012KT 010V090 9999 SCT037 12/02 Q1023,0,12,0,10000,0,0,0,
2026-04-20 12:20:00,METAR EGKB 201220Z 05010KT 020V080 9999 SCT037 11/02 Q1024,0,10,0,10000,0,0,0,
2026-04-20 11:50:00,METAR EGKB 201150Z 06011KT 030V090 9999 FEW040 11/02 Q1024,0,11,0,10000,0,0,0,
2026-04-20 11:20:00,METAR EGKB 201120Z 07013KT 030V100 9999 FEW040 10/01 Q1024,0,13,0,10000,0,0,0,
2026-04-20 10:50:00,METAR EGKB 201050Z 06011KT 020V100 9999 FEW040 11/01 Q1024,0,11,0,10000,0,0,0,
2026-04-20 10:20:00,METAR EGKB 201020Z 06012KT 030V090 9999 FEW040 10/01 Q1024,0,12,0,10000,0,0,0,
2026-04-20 09:50:00,METAR EGKB 200950Z 05011KT 010V090 9999 FEW039 10/01 Q1024,0,11,0,10000,0,0,0,
2026-04-20 09:20:00,METAR EGKB 200920Z 04010KT 9999 FEW035 10/02 Q1024,0,10,0,10000,0,0,0,
2026-04-20 08:50:00,METAR EGKB 200850Z 05009KT 9999 FEW025 09/02 Q1024,0,9,0,10000,0,0,0,
2026-04-20 08:20:00,METAR EGKB 200820Z 05008KT 360V090 9999 FEW016 08/02 Q1024,0,8,0,10000,0,0,0,
2026-04-20 07:50:00,METAR EGKB 200750Z 05007KT 010V080 9999 FEW016 07/04 Q1024,0,7,0,10000,0,0,0,
2026-04-20 07:20:00,METAR EGKB 200720Z 05006KT CAVOK 06/04 Q1024,1,0,0,9999,0,0,0,
2026-04-20 06:50:00,METAR EGKB 200650Z 05005KT CAVOK 06/04 Q1024,1,0,0,9999,0,0,0,
2026-04-20 06:20:00,METAR EGKB 200620Z 02004KT 9999 FEW015 05/04 Q1024,0,4,0,10000,0,0,0,
2026-04-20 05:50:00,METAR EGKB 200550Z VRB01KT 9999 FEW015 05/04 Q1024,0,1,0,10000,0,0,0,
2026-04-20 05:20:00,METAR EGKB 200520Z 02002KT 9999 MIFG FEW015 04/04 Q1024,0,2,0,10000,0,0,1,FG
2026-04-20 04:50:00,METAR EGKB 200450Z AUTO 05003KT 9999 FEW012/// 03/03 Q1024,0,3,0,10000,0,0,0,
2026-04-20 04:20:00,METAR EGKB 200420Z AUTO 04002KT 9999 NCD 04/03 Q1024,0,2,0,10000,0,0,0,
2026-04-20 03:50:00,METAR EGKB 200350Z AUTO 05002KT 9999 NCD 04/03 Q1024,0,2,0,10000,0,0,0,
2026-04-20 03:20:00,METAR EGKB 200320Z AUTO 00000KT 9999 NCD 04/03 Q1024,0,0,0,10000,0,0,0,
2026-04-20 02:50:00,METAR EGKB 200250Z AUTO VRB01KT 9999 NCD 04/03 Q1024,0,1,0,10000,0,0,0,
2026-04-20 02:20:00,METAR EGKB 200220Z AUTO 08002KT 9999 NCD 04/04 Q1024,0,2,0,10000,0,0,0,
2026-04-20 01:50:00,METAR EGKB 200150Z AUTO VRB02KT 9999 NCD 05/03 Q1024,0,2,0,10000,0,0,0,
2026-04-20 01:20:00,METAR EGKB 200120Z AUTO 12002KT 9999 NCD 05/04 Q1024,0,2,0,10000,0,0,0,
2026-04-20 00:50:00,METAR EGKB 200050Z AUTO 12003KT 9999 NCD 05/04 Q1024,0,3,0,10000,0,0,0,
2026-04-20 00:20:00,METAR EGKB 200020Z AUTO 10004KT 9999 NCD 05/03 Q1025,0,4,0,10000,0,0,0,
2026-04-19 23:50:00,METAR EGKB 192350Z AUTO 11004KT 9999 NCD 05/04 Q1025,0,4,0,10000,0,0,0,
2026-04-19 23:20:00,METAR EGKB 192320Z AUTO 10004KT 9999 NCD 05/04 Q1025,0,4,0,10000,0,0,0,
2026-04-19 22:50:00,METAR EGKB 192250Z AUTO 10005KT 9999 NCD 05/04 Q1025,0,5,0,10000,0,0,0,
2026-04-19 22:20:00,METAR EGKB 192220Z AUTO 10005KT 9999 NCD 06/04 Q1025,0,5,0,10000,0,0,0,
2026-04-19 21:50:00,METAR EGKB 192150Z AUTO 09006KT 9999 NCD 06/05 Q1025,0,6,0,10000,0,0,0,
2026-04-19 21:20:00,METAR EGKB 192120Z AUTO 09006KT 9999 NCD 07/05 Q1025,0,6,0,10000,0,0,0,
2026-04-19 20:50:00,METAR EGKB 192050Z 07008KT CAVOK 07/06 Q1025,1,0,0,9999,0,0,0,
2026-04-19 20:20:00,METAR EGKB 192020Z 06008KT CAVOK 08/06 Q1025,1,0,0,9999,0,0,0,
2026-04-19 19:50:00,METAR EGKB 191950Z 06005KT CAVOK 08/02 Q1025,1,0,0,9999,0,0,0,
2026-04-19 19:20:00,METAR EGKB 191920Z 04007KT CAVOK 09/01 Q1025,1,0,0,9999,0,0,0,
2026-04-19 18:50:00,METAR EGKB 191850Z 05010KT CAVOK 10/00 Q1024,1,0,0,9999,0,0,0,
2026-04-19 18:20:00,METAR EGKB 191820Z 05006KT CAVOK 11/M00 Q1024,1,0,0,9999,0,0,0,
2026-04-19 17:50:00,METAR EGKB 191750Z 05008KT CAVOK 11/00 Q1024,1,0,0,9999,0,0,0,
2026-04-19 17:20:00,METAR EGKB 191720Z 04008KT 010V070 CAVOK 12/00 Q1024,1,0,0,9999,0,0,0,
2026-04-19 16:50:00,METAR EGKB 191650Z 04006KT CAVOK 13/M00 Q1024,1,0,0,9999,0,0,0,
2026-04-19 16:20:00,METAR EGKB 191620Z 02007KT 360V080 CAVOK 13/M01 Q1024,1,0,0,9999,0,0,0,
2026-04-19 15:50:00,METAR EGKB 191550Z 01005KT 310V070 CAVOK 13/M01 Q1024,1,0,0,9999,0,0,0,
2026-04-19 15:20:00,METAR EGKB 191520Z 34006KT 290V060 CAVOK 14/M00 Q1024,1,0,0,9999,0,0,0,
2026-04-19 14:50:00,METAR EGKB 191450Z 03009KT 360V080 CAVOK 13/M01 Q1025,1,0,0,9999,0,0,0,
2026-04-19 14:20:00,METAR EGKB 191420Z 34008KT 290V030 CAVOK 14/M01 Q1025,1,0,0,9999,0,0,0,
2026-04-19 13:50:00,METAR EGKB 191350Z 01009KT 340V040 CAVOK 14/M02 Q1025,1,0,0,9999,0,0,0,
2026-04-19 13:20:00,METAR EGKB 191320Z 01012KT 330V040 CAVOK 14/M01 Q1025,1,0,0,9999,0,0,0,
2026-04-19 12:50:00,METAR EGKB 191250Z 35012KT 330V030 CAVOK 13/M02 Q1025,1,0,0,9999,0,0,0,
2026-04-19 12:20:00,METAR EGKB 191220Z 35009KT 320V040 CAVOK 13/M03 Q1025,1,0,0,9999,0,0,0,
2026-04-19 11:50:00,METAR EGKB 191150Z 33008KT 260V030 9999 FEW040 12/M02 Q1026,0,8,0,10000,0,0,0,
2026-04-19 11:20:00,METAR EGKB 191120Z 01009KT 320V050 9999 FEW035 13/M01 Q1026,0,9,0,10000,0,0,0,
2026-04-19 10:50:00,METAR EGKB 191050Z 34006KT 270V050 9999 FEW035 12/M00 Q1026,0,6,0,10000,0,0,0,
2026-04-19 10:20:00,METAR EGKB 191020Z 35007KT 290V060 CAVOK 12/M00 Q1026,1,0,0,9999,0,0,0,
2026-04-19 09:50:00,METAR EGKB 190950Z 36008KT 330V050 CAVOK 11/00 Q1026,1,0,0,9999,0,0,0,
2026-04-19 09:20:00,METAR EGKB 190920Z 35010KT CAVOK 10/M00 Q1026,1,0,0,9999,0,0,0,
2026-04-19 08:50:00,METAR EGKB 190850Z 34009KT 310V010 CAVOK 10/01 Q1026,1,0,0,9999,0,0,0,
2026-04-19 08:20:00,METAR EGKB 190820Z 36009KT 330V030 CAVOK 09/02 Q1026,1,0,0,9999,0,0,0,
2026-04-19 07:50:00,METAR EGKB 190750Z 34008KT 310V010 CAVOK 08/02 Q1026,1,0,0,9999,0,0,0,
2026-04-19 07:20:00,METAR EGKB 190720Z 35008KT CAVOK 08/02 Q1026,1,0,0,9999,0,0,0,
2026-04-19 06:50:00,METAR EGKB 190650Z 36008KT CAVOK 07/02 Q1025,1,0,0,9999,0,0,0,
2026-04-19 06:20:00,METAR EGKB 190620Z AUTO 34006KT 9999 NCD 06/02 Q1025,0,6,0,10000,0,0,0,
2026-04-19 05:50:00,METAR EGKB 190550Z AUTO 34007KT 9999 NCD 06/01 Q1025,0,7,0,10000,0,0,0,
2026-04-19 05:20:00,METAR EGKB 190520Z AUTO 34006KT 9999 NCD 05/01 Q1025,0,6,0,10000,0,0,0,
2026-04-19 04:50:00,METAR EGKB 190450Z AUTO 33006KT 9999 NCD 06/01 Q1025,0,6,0,10000,0,0,0,
2026-04-19 04:20:00,METAR EGKB 190420Z AUTO 34006KT 9999 NCD 06/01 Q1025,0,6,0,10000,0,0,0,
2026-04-19 03:50:00,METAR EGKB 190350Z AUTO 34006KT 9999 NCD 06/01 Q1025,0,6,0,10000,0,0,0,
2026-04-19 03:20:00,METAR EGKB 190320Z AUTO 34006KT 9999 NCD 06/02 Q1025,0,6,0,10000,0,0,0,
2026-04-19 02:50:00,METAR EGKB 190250Z AUTO 33005KT 9999 NCD 07/02 Q1025,0,5,0,10000,0,0,0,
2026-04-19 02:20:00,METAR EGKB 190220Z AUTO 34003KT 300V010 9999 NCD 07/02 Q1025,0,3,0,10000,0,0,0,
2026-04-19 01:50:00,METAR EGKB 190150Z AUTO 35006KT 320V020 9999 NCD 07/02 Q1024,0,6,0,10000,0,0,0,
2026-04-19 01:20:00,METAR EGKB 190120Z AUTO 34006KT 9999 NCD 08/03 Q1024,0,6,0,10000,0,0,0,
2026-04-19 00:50:00,METAR EGKB 190050Z AUTO 34006KT 9999 NCD 08/04 Q1024,0,6,0,10000,0,0,0,
2026-04-19 00:20:00,METAR EGKB 190020Z AUTO 34006KT 9999 NCD 08/04 Q1024,0,6,0,10000,0,0,0,
2026-04-18 23:50:00,METAR EGKB 182350Z AUTO 33005KT 9999 NCD 09/05 Q1024,0,5,0,10000,0,0,0,
2026-04-18 23:20:00,METAR EGKB 182320Z AUTO 32006KT 9999 NCD 09/05 Q1024,0,6,0,10000,0,0,0,
2026-04-18 22:50:00,METAR EGKB 182250Z AUTO 33004KT 9999 NCD 09/05 Q1024,0,4,0,10000,0,0,0,
2026-04-18 22:20:00,METAR EGKB 182220Z AUTO 32003KT 9999 NCD 10/05 Q1024,0,3,0,10000,0,0,0,
2026-04-18 21:50:00,METAR EGKB 182150Z AUTO 32003KT 290V360 9999 NCD 10/04 Q1024,0,3,0,10000,0,0,0,
2026-04-18 21:20:00,METAR EGKB 182120Z AUTO 33005KT 9999 NCD 10/04 Q1024,0,5,0,10000,0,0,0,
2026-04-18 20:50:00,METAR EGKB 182050Z 33005KT CAVOK 10/04 Q1024,1,0,0,9999,0,0,0,
2026-04-18 20:20:00,METAR EGKB 182020Z 33004KT CAVOK 11/02 Q1023,1,0,0,9999,0,0,0,
2026-04-18 19:50:00,METAR EGKB 181950Z 34004KT CAVOK 11/01 Q1023,1,0,0,9999,0,0,0,
2026-04-18 19:20:00,METAR EGKB 181920Z 34005KT CAVOK 12/00 Q1023,1,0,0,9999,0,0,0,
2026-04-18 18:50:00,METAR EGKB 181850Z 32007KT 280V010 CAVOK 13/M00 Q1022,1,0,0,9999,0,0,0,
2026-04-18 18:20:00,METAR EGKB 181820Z 33008KT 300V360 CAVOK 13/01 Q1022,1,0,0,9999,0,0,0,
2026-04-18 17:50:00,METAR EGKB 181750Z 32011KT 290V350 CAVOK 14/01 Q1022,1,0,0,9999,0,0,0,
2026-04-18 17:20:00,METAR EGKB 181720Z 30009KT 250V330 CAVOK 15/01 Q1022,1,0,0,9999,0,0,0,
2026-04-18 16:50:00,METAR EGKB 181650Z 30008KT 270V350 CAVOK 14/02 Q1022,1,0,0,9999,0,0,0,
2026-04-18 16:20:00,METAR EGKB 181620Z 31007KT 270V350 CAVOK 15/03 Q1022,1,0,0,9999,0,0,0,
2026-04-18 15:50:00,METAR EGKB 181550Z 31007KT 280V340 CAVOK 14/02 Q1022,1,0,0,9999,0,0,0,
2026-04-18 15:20:00,METAR EGKB 181520Z 30008KT 260V340 CAVOK 15/03 Q1021,1,0,0,9999,0,0,0,
2026-04-18 14:50:00,METAR EGKB 181450Z 32010KT 290V360 CAVOK 15/02 Q1022,1,0,0,9999,0,0,0,
2026-04-18 14:20:00,METAR EGKB 181420Z 34010KT 300V010 CAVOK 15/04 Q1022,1,0,0,9999,0,0,0,
2026-04-18 13:50:00,METAR EGKB 181350Z 29008KT 260V320 9999 SCT046 15/02 Q1022,0,8,0,10000,0,0,0,
2026-04-18 13:20:00,METAR EGKB 181320Z 27009KT 240V300 9999 SCT046 15/02 Q1022,0,9,0,10000,0,0,0,
2026-04-18 12:50:00,METAR EGKB 181250Z 27010KT 220V320 9999 FEW045 16/04 Q1022,0,10,0,10000,0,0,0,
2026-04-18 12:20:00,METAR EGKB 181220Z 27008KT 190V310 9999 FEW045 15/03 Q1022,0,8,0,10000,0,0,0,
2026-04-18 11:50:00,METAR EGKB 181150Z 30011KT 9999 SCT042 14/03 Q1022,0,11,0,10000,0,0,0,
2026-04-18 11:20:00,METAR EGKB 181120Z 29009KT 250V320 9999 SCT035 14/04 Q1022,0,9,0,10000,0,0,0,
2026-04-18 10:50:00,METAR EGKB 181050Z 28008KT 250V340 9999 SCT030 13/05 Q1022,0,8,0,10000,0,0,0,
2026-04-18 10:20:00,METAR EGKB 181020Z 30008KT 260V340 9999 SCT030 12/05 Q1022,0,8,0,10000,0,0,0,
2026-04-18 09:50:00,METAR EGKB 180950Z 29009KT 240V350 9999 SCT027 12/05 Q1022,0,9,0,10000,0,0,0,
2026-04-18 09:20:00,METAR EGKB 180920Z 29008KT 250V320 9999 FEW021 11/05 Q1022,0,8,0,10000,0,0,0,
2026-04-18 08:50:00,METAR EGKB 180850Z 29007G17KT 240V330 9999 FEW016 11/06 Q1022,0,7,1,10000,0,0,0,
2026-04-18 08:20:00,METAR EGKB 180820Z 29008KT 260V320 9999 FEW016 11/07 Q1022,0,8,0,10000,0,0,0,
2026-04-18 07:50:00,METAR EGKB 180750Z 27008KT 240V320 9999 FEW013 10/07 Q1022,0,8,0,10000,0,0,0,
2026-04-18 07:20:00,METAR EGKB 180720Z 29006KT 250V320 9999 FEW013 10/07 Q1022,0,6,0,10000,0,0,0,
2026-04-18 06:50:00,METAR EGKB 180650Z 28005KT 250V310 9999 FEW015 09/07 Q1022,0,5,0,10000,0,0,0,
2026-04-18 06:20:00,METAR EGKB 180620Z AUTO 26004KT 9999 NCD 08/08 Q1022,0,4,0,10000,0,0,0,
2026-04-18 05:50:00,METAR EGKB 180550Z AUTO 28005KT 250V320 9999 FEW006/// 08/08 Q1021,0,5,0,10000,0,0,0,
2026-04-18 05:20:00,METAR EGKB 180520Z AUTO 27003KT 230V310 9999 FEW008/// 09/08 Q1021,0,3,0,10000,0,0,0,
2026-04-18 04:50:00,METAR EGKB 180450Z AUTO 27005KT 9999 FEW008/// 09/08 Q1021,0,5,0,10000,0,0,0,
2026-04-18 04:20:00,METAR EGKB 180420Z AUTO 28005KT 9999 FEW048/// 09/09 Q1021,0,5,0,10000,0,0,0,
2026-04-18 03:50:00,METAR EGKB 180350Z AUTO 26004KT 230V290 9999 FEW031/// BKN043/// 09/09 Q1021,0,4,0,10000,0,0,0,
2026-04-18 03:20:00,METAR EGKB 180320Z AUTO 23002KT 9999 OVC022/// 09/09 Q1021,0,2,0,10000,0,0,0,
2026-04-18 02:50:00,METAR EGKB 180250Z AUTO 22003KT 9999 OVC014/// 09/09 Q1021,0,3,0,10000,0,0,0,
2026-04-18 02:20:00,METAR EGKB 180220Z AUTO 27004KT 240V310 9999 OVC004/// 09/09 Q1021,0,4,0,10000,0,0,0,
2026-04-18 01:50:00,METAR EGKB 180150Z AUTO 30005KT 280V340 5000 -DZ OVC003/// 09/09 Q1020,0,5,0,5000,0,0,0,DZ
2026-04-18 01:20:00,METAR EGKB 180120Z AUTO 28007KT 230V330 9999 -RA OVC004/// 10/10 Q1021,0,7,0,10000,0,0,0,-RA
2026-04-18 00:50:00,METAR EGKB 180050Z AUTO 22007KT 9999 OVC007/// 10/10 Q1020,0,7,0,10000,0,0,0,
2026-04-18 00:20:00,METAR EGKB 180020Z AUTO 22007KT 9999 OVC007/// 10/10 Q1020,0,7,0,10000,0,0,0,
2026-04-17 23:50:00,METAR EGKB 172350Z AUTO 22009KT 9999 BKN007/// BKN012/// 10/10 Q1020,0,9,0,10000,0,0,0,
2026-04-17 23:20:00,METAR EGKB 172320Z AUTO 22008KT 9999 FEW007/// 10/09 Q1020,0,8,0,10000,0,0,0,
2026-04-17 22:50:00,METAR EGKB 172250Z AUTO 22009KT 9999 NCD 10/09 Q1020,0,9,0,10000,0,0,0,
2026-04-17 22:20:00,METAR EGKB 172220Z AUTO 22010KT 9999 NCD 10/09 Q1020,0,10,0,10000,0,0,0,
2026-04-17 21:50:00,METAR EGKB 172150Z 21008KT CAVOK 10/09 Q1020,1,0,0,9999,0,0,0,
2026-04-17 21:20:00,METAR EGKB 172120Z 19010KT CAVOK 10/09 Q1020,1,0,0,9999,0,0,0,
2026-04-17 20:50:00,METAR EGKB 172050Z 19008KT CAVOK 10/09 Q1020,1,0,0,9999,0,0,0,
2026-04-17 20:20:00,METAR EGKB 172020Z 20008KT CAVOK 10/09 Q1020,1,0,0,9999,0,0,0,
2026-04-17 19:50:00,METAR EGKB 171950Z 20009KT CAVOK 11/08 Q1020,1,0,0,9999,0,0,0,
2026-04-17 19:20:00,METAR EGKB 171920Z 21007KT 170V230 CAVOK 12/08 Q1020,1,0,0,9999,0,0,0,
2026-04-17 18:50:00,METAR EGKB 171850Z 21008KT 180V240 CAVOK 12/08 Q1020,1,0,0,9999,0,0,0,
2026-04-17 18:20:00,METAR EGKB 171820Z 22011KT CAVOK 13/08 Q1020,1,0,0,9999,0,0,0,
2026-04-17 17:50:00,METAR EGKB 171750Z 21012KT 180V240 9999 FEW035 14/07 Q1019,0,12,0,10000,0,0,0,
2026-04-17 17:20:00,METAR EGKB 171720Z 22013KT 9999 FEW035 15/07 Q1019,0,13,0,10000,0,0,0,
2026-04-17 16:50:00,METAR EGKB 171650Z 22012KT 190V260 9999 FEW037 15/07 Q1019,0,12,0,10000,0,0,0,
2026-04-17 16:20:00,METAR EGKB 171620Z 21013KT 9999 SCT037 15/07 Q1019,0,13,0,10000,0,0,0,
2026-04-17 15:50:00,METAR EGKB 171550Z 21013KT 180V240 9999 SCT037 16/07 Q1019,0,13,0,10000,0,0,0,
2026-04-17 15:20:00,METAR EGKB 171520Z 21012KT 190V250 9999 SCT038 15/07 Q1019,0,12,0,10000,0,0,0,
2026-04-17 14:50:00,METAR EGKB 171450Z 22014KT 9999 SCT040 15/06 Q1019,0,14,0,10000,0,0,0,
2026-04-17 14:20:00,METAR EGKB 171420Z 22013KT 180V250 9999 SCT040 15/07 Q1019,0,13,0,10000,0,0,0,
2026-04-17 13:50:00,METAR EGKB 171350Z 21014KT 180V240 9999 FEW035 BKN045 15/06 Q1020,0,14,0,10000,0,0,0,
2026-04-17 13:20:00,METAR EGKB 171320Z 21013KT 180V240 9999 SCT038 15/07 Q1020,0,13,0,10000,0,0,0,
2026-04-17 12:50:00,METAR EGKB 171250Z 21012KT 180V240 9999 SCT035 15/07 Q1020,0,12,0,10000,0,0,0,
2026-04-17 12:20:00,METAR EGKB 171220Z 22012KT 190V250 9999 SCT033 15/07 Q1020,0,12,0,10000,0,0,0,
2026-04-17 11:50:00,METAR EGKB 171150Z 21013KT 9999 SCT027 14/08 Q1020,0,13,0,10000,0,0,0,
2026-04-17 11:20:00,METAR EGKB 171120Z 20011KT 170V230 9999 SCT029 14/08 Q1020,0,11,0,10000,0,0,0,
2026-04-17 10:50:00,METAR EGKB 171050Z 20011KT 160V220 9999 FEW025 14/09 Q1020,0,11,0,10000,0,0,0,
2026-04-17 10:20:00,METAR EGKB 171020Z 20011KT 170V240 9999 SCT021 13/09 Q1020,0,11,0,10000,0,0,0,
2026-04-17 09:50:00,METAR EGKB 170950Z 21011KT 9999 FEW015 13/09 Q1020,0,11,0,10000,0,0,0,
2026-04-17 09:20:00,METAR EGKB 170920Z 21012KT 9999 FEW015 13/09 Q1020,0,12,0,10000,0,0,0,
2026-04-17 08:50:00,METAR EGKB 170850Z 20012KT 180V240 9999 FEW015 13/09 Q1020,0,12,0,10000,0,0,0,
2026-04-17 08:20:00,METAR EGKB 170820Z 21010KT 180V240 9999 FEW015 12/09 Q1020,0,10,0,10000,0,0,0,
2026-04-17 07:50:00,METAR EGKB 170750Z 22010KT 9999 FEW015 12/09 Q1020,0,10,0,10000,0,0,0,
2026-04-17 07:20:00,METAR EGKB 170720Z 21006KT 9999 FEW015 11/09 Q1020,0,6,0,10000,0,0,0,
2026-04-17 06:50:00,METAR EGKB 170650Z 21005KT 9999 FEW010 11/09 Q1020,0,5,0,10000,0,0,0,
2026-04-17 06:20:00,METAR EGKB 170620Z 19005KT 9999 SCT045 10/09 Q1020,0,5,0,10000,0,0,0,
2026-04-17 05:50:00,METAR EGKB 170550Z 18004KT 160V220 9999 SCT045 10/08 Q1020,0,4,0,10000,0,0,0,
2026-04-17 05:20:00,METAR EGKB 170520Z 18004KT 150V220 9999 BKN037 10/08 Q1020,0,4,0,10000,0,0,0,
2026-04-17 04:50:00,METAR EGKB 170450Z AUTO 18004KT 160V220 9999 OVC033/// 10/08 Q1020,0,4,0,10000,0,0,0,
2026-04-17 04:20:00,METAR EGKB 170420Z AUTO 18004KT 9999 BKN032/// 10/08 Q1020,0,4,0,10000,0,0,0,
2026-04-17 03:50:00,METAR EGKB 170350Z AUTO 18005KT 9999 SCT030/// BKN047/// 10/09 Q1020,0,5,0,10000,0,0,0,
2026-04-17 03:20:00,METAR EGKB 170320Z AUTO 18004KT 9999 BKN032/// 09/09 Q1020,0,4,0,10000,0,0,0,
2026-04-17 02:50:00,METAR EGKB 170250Z AUTO 17006KT 150V210 9999 OVC031/// 09/09 Q1020,0,6,0,10000,0,0,0,
2026-04-17 02:20:00,METAR EGKB 170220Z AUTO 17007KT 9999 -RA OVC031/// 09/09 Q1020,0,7,0,10000,0,0,0,-RA
2026-04-17 01:50:00,METAR EGKB 170150Z AUTO 17008KT 9999 BKN036/// 10/09 Q1020,0,8,0,10000,0,0,0,
2026-04-17 01:20:00,METAR EGKB 170120Z AUTO 17008KT 9999 BKN041/// 09/09 Q1020,0,8,0,10000,0,0,0,
2026-04-17 00:50:00,METAR EGKB 170050Z AUTO 17008KT 9999 SCT037/// 09/09 Q1020,0,8,0,10000,0,0,0,
2026-04-17 00:20:00,METAR EGKB 170020Z AUTO 18006KT 140V210 9999 FEW045/// 09/08 Q1021,0,6,0,10000,0,0,0,
2026-04-16 23:50:00,METAR EGKB 162350Z AUTO 20006KT 9999 NCD 09/08 Q1021,0,6,0,10000,0,0,0,
2026-04-16 23:20:00,METAR EGKB 162320Z AUTO 19006KT 9999 FEW046/// 09/09 Q1021,0,6,0,10000,0,0,0,
2026-04-16 22:50:00,METAR EGKB 162250Z AUTO 18008KT 9999 FEW047/// 09/09 Q1020,0,8,0,10000,0,0,0,
2026-04-16 22:20:00,METAR EGKB 162220Z AUTO 18007KT 9999 NCD 09/09 Q1020,0,7,0,10000,0,0,0,
2026-04-16 21:50:00,METAR EGKB 162150Z 19008KT CAVOK 10/09 Q1021,1,0,0,9999,0,0,0,
2026-04-16 21:20:00,METAR EGKB 162120Z 19010KT CAVOK 10/09 Q1021,1,0,0,9999,0,0,0,
2026-04-16 20:50:00,METAR EGKB 162050Z 19009KT CAVOK 10/09 Q1021,1,0,0,9999,0,0,0,
2026-04-16 20:20:00,METAR EGKB 162020Z 19009KT CAVOK 10/09 Q1021,1,0,0,9999,0,0,0,
2026-04-16 19:50:00,METAR EGKB 161950Z 19009KT 150V210 CAVOK 11/08 Q1021,1,0,0,9999,0,0,0,
2026-04-16 19:20:00,METAR EGKB 161920Z 20008KT CAVOK 11/08 Q1020,1,0,0,9999,0,0,0,
2026-04-16 18:50:00,METAR EGKB 161850Z 19009KT CAVOK 12/08 Q1020,1,0,0,9999,0,0,0,
2026-04-16 18:20:00,METAR EGKB 161820Z 21010KT 9999 FEW022 12/08 Q1020,0,10,0,10000,0,0,0,
2026-04-16 17:50:00,METAR EGKB 161750Z 21012KT 180V250 9999 FEW027 13/08 Q1020,0,12,0,10000,0,0,0,
2026-04-16 17:20:00,METAR EGKB 161720Z 21013KT 9999 FEW027 14/08 Q1020,0,13,0,10000,0,0,0,
2026-04-16 16:50:00,METAR EGKB 161650Z 21014KT 9999 FEW027 14/08 Q1020,0,14,0,10000,0,0,0,
2026-04-16 16:20:00,METAR EGKB 161620Z 21014KT 170V230 9999 SCT027 14/08 Q1020,0,14,0,10000,0,0,0,
2026-04-16 15:50:00,METAR EGKB 161550Z 20013KT 170V230 9999 SCT027 15/09 Q1020,0,13,0,10000,0,0,0,
2026-04-16 14:50:00,METAR EGKB 161450Z 22012KT 190V250 9999 SCT034 16/08 Q1020,0,12,0,10000,0,0,0,
2026-04-16 14:20:00,METAR EGKB 161420Z 21013KT 170V230 9999 SCT029 16/09 Q1020,0,13,0,10000,0,0,0,
2026-04-16 13:50:00,METAR EGKB 161350Z 21012KT 180V240 9999 SCT029 15/08 Q1020,0,12,0,10000,0,0,0,
2026-04-16 13:20:00,METAR EGKB 161320Z 22012KT 9999 VCSH SCT029 14/08 Q1020,0,12,0,10000,0,0,0,"SH,VC"
2026-04-16 12:50:00,METAR EGKB 161250Z 22012KT 190V250 9999 SCT034 15/08 Q1020,0,12,0,10000,0,0,0,
2026-04-16 12:20:00,METAR EGKB 161220Z 20014KT 9999 SCT023 15/09 Q1020,0,14,0,10000,0,0,0,
2026-04-16 11:50:00,METAR EGKB 161150Z 21013KT 180V240 9999 FEW023 14/09 Q1020,0,13,0,10000,0,0,0,
2026-04-16 11:20:00,METAR EGKB 161120Z 22012KT 180V240 9999 FEW023 14/09 Q1020,0,12,0,10000,0,0,0,
2026-04-16 10:50:00,METAR EGKB 161050Z 22012KT 190V250 9999 FEW022 13/10 Q1020,0,12,0,10000,0,0,0,
2026-04-16 10:20:00,METAR EGKB 161020Z 23013KT 9999 SCT020 12/09 Q1020,0,13,0,10000,0,0,0,
2026-04-16 09:50:00,METAR EGKB 160950Z 22014KT 9999 SCT017 13/09 Q1019,0,14,0,10000,0,0,0,
2026-04-16 09:20:00,METAR EGKB 160920Z 23014KT 190V250 9999 SCT018 11/09 Q1019,0,14,0,10000,0,0,0,
2026-04-16 08:50:00,METAR EGKB 160850Z 22011KT 190V250 9999 BKN015 12/10 Q1019,0,11,0,10000,0,0,0,
2026-04-16 08:20:00,METAR EGKB 160820Z 23012KT 190V250 9999 BKN015 BKN023 11/10 Q1019,0,12,0,10000,0,0,0,
2026-04-16 07:50:00,METAR EGKB 160750Z 22012KT 9999 SCT013 11/09 Q1019,0,12,0,10000,0,0,0,
2026-04-16 07:20:00,METAR EGKB 160720Z 23011KT 9999 BKN011 10/09 Q1019,0,11,0,10000,0,0,0,
2026-04-16 06:50:00,METAR EGKB 160650Z 22012KT 9999 -DZ SCT009 10/09 Q1018,0,12,0,10000,0,0,0,DZ
2026-04-16 06:20:00,METAR EGKB 160620Z 21009KT 180V240 3000 -DZ BR BKN006 10/09 Q1018,0,9,0,3000,0,0,1,"BR,DZ"
2026-04-16 05:50:00,METAR EGKB 160550Z 22012KT 9000 FEW010 BKN030 10/08 Q1018,0,12,0,9000,0,0,0,
2026-04-16 05:20:00,METAR EGKB 160520Z 21010KT 9000 SCT023 09/08 Q1018,0,10,0,9000,0,0,0,
2026-04-16 04:50:00,METAR EGKB 160450Z AUTO 21012KT 9999 FEW011/// 09/08 Q1018,0,12,0,10000,0,0,0,
2026-04-16 04:20:00,METAR EGKB 160420Z AUTO 21014KT 9999 FEW044/// 09/08 Q1018,0,14,0,10000,0,0,0,
2026-04-16 03:50:00,METAR EGKB 160350Z AUTO 21012KT 9999 FEW009/// 09/08 Q1018,0,12,0,10000,0,0,0,
2026-04-16 03:20:00,METAR EGKB 160320Z AUTO 21012KT 9999 SCT010/// 09/08 Q1018,0,12,0,10000,0,0,0,
2026-04-16 02:50:00,METAR EGKB 160250Z AUTO 23011KT 9999 NCD 09/08 Q1018,0,11,0,10000,0,0,0,
2026-04-16 02:20:00,METAR EGKB 160220Z AUTO 22012KT 9999 NCD 09/08 Q1017,0,12,0,10000,0,0,0,
2026-04-16 01:50:00,METAR EGKB 160150Z AUTO 22010KT 9999 SCT009/// 09/08 Q1017,0,10,0,10000,0,0,0,
2026-04-16 01:20:00,METAR EGKB 160120Z AUTO 22009KT 9999 FEW010/// 09/08 Q1017,0,9,0,10000,0,0,0,
2026-04-16 00:50:00,METAR EGKB 160050Z AUTO 21012KT 9999 NCD 09/08 Q1017,0,12,0,10000,0,0,0,
2026-04-16 00:20:00,METAR EGKB 160020Z AUTO 21012KT 9999 FEW011/// 09/08 Q1017,0,12,0,10000,0,0,0,
2026-04-15 23:50:00,METAR EGKB 152350Z AUTO 21013KT 9999 SCT011/// 09/08 Q1017,0,13,0,10000,0,0,0,
2026-04-15 23:20:00,METAR EGKB 152320Z AUTO 22009KT 9999 NCD 09/08 Q1017,0,9,0,10000,0,0,0,
2026-04-15 22:50:00,METAR EGKB 152250Z AUTO 22010KT 9999 NCD 09/08 Q1017,0,10,0,10000,0,0,0,
2026-04-15 22:20:00,METAR EGKB 152220Z AUTO 23010KT 9999 NCD 09/08 Q1017,0,10,0,10000,0,0,0,
2026-04-15 21:50:00,METAR EGKB 152150Z 22011KT CAVOK 09/08 Q1017,1,0,0,9999,0,0,0,
2026-04-15 21:20:00,METAR EGKB 152120Z 21012KT CAVOK 10/08 Q1017,1,0,0,9999,0,0,0,
2026-04-15 20:50:00,METAR EGKB 152050Z 21011KT CAVOK 10/08 Q1017,1,0,0,9999,0,0,0,
2026-04-15 20:20:00,METAR EGKB 152020Z 22012KT CAVOK 10/08 Q1017,1,0,0,9999,0,0,0,
2026-04-15 19:50:00,METAR EGKB 151950Z 22012KT CAVOK 10/08 Q1017,1,0,0,9999,0,0,0,
2026-04-15 19:20:00,METAR EGKB 151920Z 22013KT 9999 FEW022 11/08 Q1016,0,13,0,10000,0,0,0,
2026-04-15 18:50:00,METAR EGKB 151850Z 22013KT 9999 FEW024 11/08 Q1016,0,13,0,10000,0,0,0,
2026-04-15 18:20:00,METAR EGKB 151820Z 22013KT 190V270 9999 FEW025 12/08 Q1016,0,13,0,10000,0,0,0,
2026-04-15 17:50:00,METAR EGKB 151750Z 22015KT 9999 FEW019 12/09 Q1015,0,15,0,10000,0,0,0,
2026-04-15 17:20:00,METAR EGKB 151720Z 22012KT 190V250 9999 SCT015 12/10 Q1015,0,12,0,10000,0,0,0,
2026-04-15 16:50:00,METAR EGKB 151650Z 22016KT 9999 VCSH BKN015 12/11 Q1015,0,16,0,10000,0,0,0,"SH,VC"
2026-04-15 16:20:00,METAR EGKB 151620Z 21015KT 9999 BKN012 12/11 Q1015,0,15,0,10000,0,0,0,
2026-04-15 15:50:00,METAR EGKB 151550Z 21017G27KT 170V240 9999 -RA BKN020 14/09 Q1015,0,17,1,10000,0,0,0,-RA
2026-04-15 15:20:00,METAR EGKB 151520Z 21016G26KT 9999 BKN035 14/09 Q1015,0,16,1,10000,0,0,0,
2026-04-15 14:50:00,METAR EGKB 151450Z 21016G26KT 9999 BKN030 14/08 Q1015,0,16,1,10000,0,0,0,
2026-04-15 14:20:00,METAR EGKB 151420Z 22019G30KT 9999 FEW032 BKN045 14/09 Q1015,0,19,1,10000,0,0,0,
2026-04-15 13:50:00,METAR EGKB 151350Z 22019G30KT 9999 SCT025 14/09 Q1015,0,19,1,10000,0,0,0,
2026-04-15 13:20:00,METAR EGKB 151320Z 21018G30KT 9999 SCT020 15/10 Q1015,0,18,1,10000,0,0,0,
2026-04-15 12:50:00,METAR EGKB 151250Z 20012KT 170V240 9999 BKN015 14/11 Q1015,0,12,0,10000,0,0,0,
2026-04-15 12:20:00,METAR EGKB 151220Z 20012KT 170V230 9999 SCT010 15/13 Q1015,0,12,0,10000,0,0,0,
2026-04-15 11:50:00,METAR EGKB 151150Z 20011KT 170V230 9000 -DZ BKN008 13/13 Q1016,0,11,0,9000,0,0,0,DZ
2026-04-15 11:20:00,METAR EGKB 151120Z 18010KT 150V220 3000 DZ BR BKN006 13/12 Q1016,0,10,0,3000,0,0,1,"BR,DZ"
2026-04-15 10:50:00,METAR EGKB 151050Z 19012KT 7000 -DZ BKN008 13/12 Q1016,0,12,0,7000,0,0,0,DZ
2026-04-15 10:20:00,METAR EGKB 151020Z 19010KT 150V210 9999 -DZ BKN006 13/11 Q1016,0,10,0,10000,0,0,0,DZ
2026-04-15 09:50:00,METAR EGKB 150950Z 18010KT 9999 BKN007 13/11 Q1016,0,10,0,10000,0,0,0,
2026-04-15 09:20:00,METAR EGKB 150920Z 19012KT 9999 FEW007 BKN010 13/12 Q1016,0,12,0,10000,0,0,0,
2026-04-15 08:50:00,METAR EGKB 150850Z 19011KT 150V220 9999 BKN005 12/12 Q1016,0,11,0,10000,0,0,0,
2026-04-15 08:20:00,METAR EGKB 150820Z 18009KT 9000 BKN004 12/11 Q1016,0,9,0,9000,0,0,0,
2026-04-15 07:50:00,METAR EGKB 150750Z 19008KT 150V210 4500 BR BKN005 11/11 Q1016,0,8,0,4500,0,0,1,BR
2026-04-15 07:20:00,METAR EGKB 150720Z 18008KT 150V210 4500 BR BKN005 11/11 Q1016,0,8,0,4500,0,0,1,BR
2026-04-15 06:50:00,METAR EGKB 150650Z 18009KT 150V210 4500 BR OVC004 11/11 Q1016,0,9,0,4500,0,0,1,BR
2026-04-15 06:20:00,METAR EGKB 150620Z 18010KT 4500 BR OVC005 11/11 Q1016,0,10,0,4500,0,0,1,BR
2026-04-15 05:50:00,METAR EGKB 150550Z 18013KT 5000 BR OVC005 11/11 Q1016,0,13,0,5000,0,0,1,BR
2026-04-15 05:20:00,METAR EGKB 150520Z 18011KT 5000 BR OVC005 11/11 Q1016,0,11,0,5000,0,0,1,BR
2026-04-15 04:50:00,METAR EGKB 150450Z AUTO 19010KT 150V220 9999 OVC006/// 11/11 Q1016,0,10,0,10000,0,0,0,
2026-04-15 04:20:00,METAR EGKB 150420Z AUTO 19009KT 150V220 9999 OVC006/// 11/11 Q1016,0,9,0,10000,0,0,0,
2026-04-15 03:50:00,METAR EGKB 150350Z AUTO 18010KT 150V210 9999 OVC007/// 11/11 Q1016,0,10,0,10000,0,0,0,
2026-04-15 03:20:00,METAR EGKB 150320Z AUTO 19011KT 9999 OVC008/// 12/11 Q1016,0,11,0,10000,0,0,0,
2026-04-15 02:50:00,METAR EGKB 150250Z AUTO 18010KT 9999 OVC009/// 12/10 Q1017,0,10,0,10000,0,0,0,
2026-04-15 02:20:00,METAR EGKB 150220Z AUTO 19010KT 150V210 9999 OVC010/// 12/10 Q1017,0,10,0,10000,0,0,0,
2026-04-15 01:50:00,METAR EGKB 150150Z AUTO 19011KT 160V220 9999 OVC011/// 12/10 Q1017,0,11,0,10000,0,0,0,
2026-04-15 01:20:00,METAR EGKB 150120Z AUTO 20009KT 160V230 9999 OVC013/// 12/10 Q1017,0,9,0,10000,0,0,0,
2026-04-15 00:50:00,METAR EGKB 150050Z AUTO 19011KT 160V220 9999 OVC014/// 12/10 Q1018,0,11,0,10000,0,0,0,
2026-04-15 00:20:00,METAR EGKB 150020Z AUTO 18009KT 9999 OVC016/// 12/09 Q1018,0,9,0,10000,0,0,0,
2026-04-14 23:50:00,METAR EGKB 142350Z AUTO 18008KT 9999 OVC017/// 12/09 Q1018,0,8,0,10000,0,0,0,
2026-04-14 23:20:00,METAR EGKB 142320Z AUTO 17008KT 140V200 9999 BKN023/// OVC037/// 12/08 Q1018,0,8,0,10000,0,0,0,
2026-04-14 22:50:00,METAR EGKB 142250Z AUTO 17008KT 9999 OVC026/// 12/08 Q1018,0,8,0,10000,0,0,0,
2026-04-14 22:20:00,METAR EGKB 142220Z AUTO 16008KT 9999 OVC025/// 12/07 Q1018,0,8,0,10000,0,0,0,
2026-04-14 21:50:00,METAR EGKB 142150Z 16008KT 9999 BKN026 12/06 Q1018,0,8,0,10000,0,0,0,
2026-04-14 21:20:00,METAR EGKB 142120Z 16007KT 9999 BKN036 12/06 Q1018,0,7,0,10000,0,0,0,
2026-04-14 20:50:00,METAR EGKB 142050Z 15009KT 9999 BKN026 12/05 Q1018,0,9,0,10000,0,0,0,
2026-04-14 20:20:00,METAR EGKB 142020Z 16009KT 9999 BKN030 12/05 Q1018,0,9,0,10000,0,0,0,
2026-04-14 19:50:00,METAR EGKB 141950Z 14010KT 9999 BKN031 12/05 Q1018,0,10,0,10000,0,0,0,
2026-04-14 19:20:00,METAR EGKB 141920Z 15009KT 9999 BKN032 12/05 Q1018,0,9,0,10000,0,0,0,
2026-04-14 18:50:00,METAR EGKB 141850Z 16009KT 9999 BKN035 12/06 Q1018,0,9,0,10000,0,0,0,
2026-04-14 18:20:00,METAR EGKB 141820Z 16010KT 9999 BKN025 12/05 Q1018,0,10,0,10000,0,0,0,
2026-04-14 17:50:00,METAR EGKB 141750Z 17012KT 9999 BKN027 12/05 Q1018,0,12,0,10000,0,0,0,
2026-04-14 17:20:00,METAR EGKB 141720Z 19010KT 160V220 9999 BKN025 13/05 Q1018,0,10,0,10000,0,0,0,
2026-04-14 16:50:00,METAR EGKB 141650Z 19013KT 150V220 9999 BKN035 13/04 Q1018,0,13,0,10000,0,0,0,
2026-04-14 16:20:00,METAR EGKB 141620Z 18011KT 150V220 9999 BKN032 13/06 Q1018,0,11,0,10000,0,0,0,
2026-04-14 15:50:00,METAR EGKB 141550Z 18012KT 150V210 9999 BKN037 13/04 Q1018,0,12,0,10000,0,0,0,
2026-04-14 15:20:00,METAR EGKB 141520Z 19011KT 150V230 9999 BKN044 13/04 Q1018,0,11,0,10000,0,0,0,
2026-04-14 14:50:00,METAR EGKB 141450Z 19014KT 160V220 CAVOK 14/05 Q1018,1,0,0,9999,0,0,0,
2026-04-14 14:20:00,METAR EGKB 141420Z 20014KT 170V230 CAVOK 14/04 Q1018,1,0,0,9999,0,0,0,
2026-04-14 13:50:00,METAR EGKB 141350Z 19015KT 150V220 CAVOK 14/03 Q1018,1,0,0,9999,0,0,0,
2026-04-14 13:20:00,METAR EGKB 141320Z 19012KT 150V220 9999 FEW036 14/03 Q1018,0,12,0,10000,0,0,0,
2026-04-14 12:50:00,METAR EGKB 141250Z 18012KT 140V210 9999 FEW036 13/04 Q1018,0,12,0,10000,0,0,0,
2026-04-14 12:20:00,METAR EGKB 141220Z 20014KT 9999 FEW036 13/04 Q1018,0,14,0,10000,0,0,0,
2026-04-14 11:50:00,METAR EGKB 141150Z 19013KT 140V220 9999 FEW036 14/05 Q1018,0,13,0,10000,0,0,0,
2026-04-14 11:20:00,METAR EGKB 141120Z 18012KT 140V210 9999 FEW038 13/05 Q1018,0,12,0,10000,0,0,0,
2026-04-14 10:50:00,METAR EGKB 141050Z 17012KT 140V210 9999 FEW032 13/04 Q1018,0,12,0,10000,0,0,0,
2026-04-14 10:20:00,METAR EGKB 141020Z 18013KT 140V220 9999 FEW028 12/04 Q1018,0,13,0,10000,0,0,0,
2026-04-14 09:50:00,METAR EGKB 140950Z 17011KT 130V200 9999 FEW030 12/05 Q1018,0,11,0,10000,0,0,0,
2026-04-14 09:20:00,METAR EGKB 140920Z 18011KT 150V210 9999 FEW020 11/07 Q1018,0,11,0,10000,0,0,0,
2026-04-14 08:50:00,METAR EGKB 140850Z 17010KT CAVOK 11/06 Q1018,1,0,0,9999,0,0,0,
2026-04-14 08:20:00,METAR EGKB 140820Z 16009KT 130V200 CAVOK 10/07 Q1018,1,0,0,9999,0,0,0,
2026-04-14 07:50:00,METAR EGKB 140750Z 16011KT CAVOK 09/06 Q1018,1,0,0,9999,0,0,0,
2026-04-14 07:20:00,METAR EGKB 140720Z 17009KT CAVOK 08/06 Q1018,1,0,0,9999,0,0,0,
2026-04-14 06:50:00,METAR EGKB 140650Z 16006KT CAVOK 07/06 Q1018,1,0,0,9999,0,0,0,
2026-04-14 06:20:00,METAR EGKB 140620Z 16006KT CAVOK 06/05 Q1018,1,0,0,9999,0,0,0,
2026-04-14 05:50:00,METAR EGKB 140550Z 15005KT CAVOK 05/04 Q1017,1,0,0,9999,0,0,0,
2026-04-14 05:20:00,METAR EGKB 140520Z 17005KT CAVOK 05/04 Q1017,1,0,0,9999,0,0,0,
2026-04-14 04:50:00,METAR EGKB 140450Z AUTO 17005KT 9999 NCD 05/04 Q1017,0,5,0,10000,0,0,0,
2026-04-14 04:20:00,METAR EGKB 140420Z AUTO 18005KT 9999 NCD 05/04 Q1017,0,5,0,10000,0,0,0,
2026-04-14 03:50:00,METAR EGKB 140350Z AUTO 18005KT 9999 NCD 04/04 Q1017,0,5,0,10000,0,0,0,
2026-04-14 03:20:00,METAR EGKB 140320Z AUTO 19004KT 9999 NCD 04/04 Q1016,0,4,0,10000,0,0,0,
2026-04-14 02:50:00,METAR EGKB 140250Z AUTO 19004KT 9999 NCD 05/04 Q1016,0,4,0,10000,0,0,0,
2026-04-14 02:20:00,METAR EGKB 140220Z AUTO 20005KT 9999 NCD 05/04 Q1016,0,5,0,10000,0,0,0,
2026-04-14 01:50:00,METAR EGKB 140150Z AUTO 22005KT 9999 NCD 04/04 Q1016,0,5,0,10000,0,0,0,
2026-04-14 01:20:00,METAR EGKB 140120Z AUTO 22005KT 9999 NCD 05/04 Q1016,0,5,0,10000,0,0,0,
2026-04-14 00:50:00,METAR EGKB 140050Z AUTO 21005KT 9999 NCD 05/04 Q1016,0,5,0,10000,0,0,0,
2026-04-14 00:20:00,METAR EGKB 140020Z AUTO 20005KT 9999 NCD 05/03 Q1016,0,5,0,10000,0,0,0,
2026-04-13 23:50:00,METAR EGKB 132350Z AUTO 20005KT 9999 NCD 05/03 Q1016,0,5,0,10000,0,0,0,
2026-04-13 23:20:00,METAR EGKB 132320Z AUTO 19006KT 9999 NCD 05/04 Q1016,0,6,0,10000,0,0,0,
2026-04-13 22:50:00,METAR EGKB 132250Z AUTO 18004KT 9999 NCD 05/04 Q1016,0,4,0,10000,0,0,0,
2026-04-13 22:20:00,METAR EGKB 132220Z AUTO 19005KT 9999 NCD 05/04 Q1016,0,5,0,10000,0,0,0,
2026-04-13 21:50:00,METAR EGKB 132150Z 18005KT CAVOK 06/04 Q1016,1,0,0,9999,0,0,0,
2026-04-13 21:20:00,METAR EGKB 132120Z 20004KT 160V230 CAVOK 06/04 Q1016,1,0,0,9999,0,0,0,
2026-04-13 20:50:00,METAR EGKB 132050Z 18006KT 9999 FEW030 06/05 Q1015,0,6,0,10000,0,0,0,
2026-04-13 20:20:00,METAR EGKB 132020Z 15005KT 9999 SCT030 06/05 Q1015,0,5,0,10000,0,0,0,
2026-04-13 19:50:00,METAR EGKB 131950Z 12005KT 9999 BKN031 06/05 Q1015 RESHRA,0,5,0,10000,0,0,0,RA
2026-04-13 19:20:00,METAR EGKB 131920Z 11005KT 080V140 9999 VCSH BKN030 07/06 Q1015 RESHRA,0,5,0,10000,0,0,0,"RA,SH,VC"
2026-04-13 18:50:00,METAR EGKB 131850Z VRB05KT 9999 SHRA BKN026CB 08/04 Q1014,0,5,0,10000,0,0,0,"RA,SH"
2026-04-13 18:20:00,METAR EGKB 131820Z 15004KT 130V200 9999 -SHRA SCT025 09/05 Q1014,0,4,0,10000,0,0,0,RA
2026-04-13 17:50:00,METAR EGKB 131750Z 15005KT 9999 SCT035 10/05 Q1014,0,5,0,10000,0,0,0,
2026-04-13 17:20:00,METAR EGKB 131720Z VRB01KT 9999 FEW030 10/04 Q1014,0,1,0,10000,0,0,0,
2026-04-13 16:50:00,METAR EGKB 131650Z 19004KT 120V250 9999 FEW030 10/04 Q1013,0,4,0,10000,0,0,0,
2026-04-13 16:20:00,METAR EGKB 131620Z VRB02KT 9999 FEW039 11/04 Q1013,0,2,0,10000,0,0,0,
2026-04-13 15:50:00,METAR EGKB 131550Z VRB02KT 9999 VCSH SCT039 10/04 Q1013,0,2,0,10000,0,0,0,"SH,VC"
2026-04-13 15:20:00,METAR EGKB 131520Z 23003KT 170V270 9999 VCSH SCT035 09/05 Q1014,0,3,0,10000,0,0,0,"SH,VC"
2026-04-13 14:50:00,METAR EGKB 131450Z 20007KT 170V230 9999 -DZ SCT040 09/04 Q1013,0,7,0,10000,0,0,0,DZ
2026-04-13 14:20:00,METAR EGKB 131420Z 19007KT 9999 VCSH FEW040 10/04 Q1013,0,7,0,10000,0,0,0,"SH,VC"
2026-04-13 13:50:00,METAR EGKB 131350Z 17004KT 130V240 9999 VCSH FEW020 SCT032 11/05 Q1013,0,4,0,10000,0,0,0,"SH,VC"
2026-04-13 13:20:00,METAR EGKB 131320Z 25003KT 200V330 9999 VCSH FEW020 SCT032 10/04 Q1013,0,3,0,10000,0,0,0,"SH,VC"
2026-04-13 12:50:00,METAR EGKB 131250Z COR 22010KT 180V250 9999 -RA FEW032 SCT043 09/04 Q1014,0,10,0,10000,0,0,0,-RA
2026-04-13 12:20:00,METAR EGKB 131220Z 14007KT 110V170 9999 VCSH SCT032 09/05 Q1013,0,7,0,10000,0,0,0,"SH,VC"
2026-04-13 11:50:00,METAR EGKB 131150Z 20008KT 160V250 9999 VCSH SCT040 10/02 Q1013,0,8,0,10000,0,0,0,"SH,VC"
2026-04-13 11:20:00,METAR EGKB 131120Z 15005KT 070V220 9999 FEW040 12/04 Q1013,0,5,0,10000,0,0,0,
2026-04-13 10:50:00,METAR EGKB 131050Z 18006KT 130V240 9999 FEW043 12/03 Q1013,0,6,0,10000,0,0,0,
2026-04-13 10:20:00,METAR EGKB 131020Z 23005KT 190V260 9999 FEW040 10/02 Q1013,0,5,0,10000,0,0,0,
2026-04-13 09:50:00,METAR EGKB 130950Z 20005KT 180V250 9999 SCT028 10/03 Q1013,0,5,0,10000,0,0,0,
2026-04-13 09:20:00,METAR EGKB 130920Z 20006KT 160V240 9999 SCT029 10/04 Q1013,0,6,0,10000,0,0,0,
2026-04-13 08:50:00,METAR EGKB 130850Z 21005KT 140V270 9999 SCT020 10/05 Q1013,0,5,0,10000,0,0,0,
2026-04-13 08:20:00,METAR EGKB 130820Z 17005KT 130V220 9999 FEW020 09/05 Q1013,0,5,0,10000,0,0,0,
2026-04-13 07:50:00,METAR EGKB 130750Z 19004KT 9999 FEW020 08/05 Q1013,0,4,0,10000,0,0,0,
2026-04-13 07:20:00,METAR EGKB 130720Z 19004KT CAVOK 08/05 Q1013,1,0,0,9999,0,0,0,
2026-04-13 06:50:00,METAR EGKB 130650Z 18004KT 140V200 CAVOK 07/05 Q1013,1,0,0,9999,0,0,0,
2026-04-13 06:20:00,METAR EGKB 130620Z 18003KT CAVOK 05/04 Q1013,1,0,0,9999,0,0,0,
2026-04-13 05:50:00,METAR EGKB 130550Z 19004KT CAVOK 05/04 Q1013,1,0,0,9999,0,0,0,
2026-04-13 05:20:00,METAR EGKB 130520Z 19004KT CAVOK 05/04 Q1013,1,0,0,9999,0,0,0,
2026-04-13 04:50:00,METAR EGKB 130450Z AUTO 19004KT 9999 NCD 05/04 Q1013,0,4,0,10000,0,0,0,
2026-04-13 04:20:00,METAR EGKB 130420Z AUTO 19003KT 9999 NCD 05/04 Q1013,0,3,0,10000,0,0,0,
2026-04-13 03:50:00,METAR EGKB 130350Z AUTO 19004KT 9999 NCD 05/04 Q1013,0,4,0,10000,0,0,0,
2026-04-13 03:20:00,METAR EGKB 130320Z AUTO 19004KT 9999 NCD 05/04 Q1013,0,4,0,10000,0,0,0,
2026-04-13 02:50:00,METAR EGKB 130250Z AUTO 18004KT 9999 NCD 04/03 Q1013,0,4,0,10000,0,0,0,
2026-04-13 02:20:00,METAR EGKB 130220Z AUTO 17004KT 9999 NCD 04/03 Q1013,0,4,0,10000,0,0,0,
2026-04-13 01:50:00,METAR EGKB 130150Z AUTO 19003KT 9999 NCD 04/03 Q1013,0,3,0,10000,0,0,0,
2026-04-13 01:20:00,METAR EGKB 130120Z AUTO 19005KT 9999 NCD 05/04 Q1013,0,5,0,10000,0,0,0,
2026-04-13 00:50:00,METAR EGKB 130050Z AUTO 20004KT 9999 NCD 05/04 Q1013,0,4,0,10000,0,0,0,
2026-04-13 00:20:00,METAR EGKB 130020Z AUTO 19005KT 9999 NCD 05/04 Q1013,0,5,0,10000,0,0,0,
2026-04-12 23:50:00,METAR EGKB 122350Z AUTO 19005KT 9999 NCD 05/04 Q1013,0,5,0,10000,0,0,0,
2026-04-12 23:20:00,METAR EGKB 122320Z AUTO 18005KT 9999 NCD 05/04 Q1013,0,5,0,10000,0,0,0,
2026-04-12 22:50:00,METAR EGKB 122250Z AUTO 18004KT 9999 NCD 05/04 Q1013,0,4,0,10000,0,0,0,
2026-04-12 22:20:00,METAR EGKB 122220Z AUTO 19004KT 9999 NCD 06/04 Q1013,0,4,0,10000,0,0,0,
2026-04-12 21:50:00,METAR EGKB 122150Z AUTO 19004KT 9999 NCD 06/04 Q1013,0,4,0,10000,0,0,0,
2026-04-12 21:20:00,METAR EGKB 122120Z AUTO 21005KT 9999 NCD 06/04 Q1013,0,5,0,10000,0,0,0,
2026-04-12 20:50:00,METAR EGKB 122050Z 19005KT 160V220 CAVOK 06/03 Q1013,1,0,0,9999,0,0,0,
2026-04-12 20:20:00,METAR EGKB 122020Z 22004KT CAVOK 06/03 Q1013,1,0,0,9999,0,0,0,
2026-04-12 19:50:00,METAR EGKB 121950Z 22005KT CAVOK 07/03 Q1013,1,0,0,9999,0,0,0,
2026-04-12 19:20:00,METAR EGKB 121920Z 23005KT CAVOK 08/03 Q1013,1,0,0,9999,0,0,0,
2026-04-12 18:50:00,METAR EGKB 121850Z 22009KT CAVOK 09/04 Q1012,1,0,0,9999,0,0,0,
2026-04-12 18:20:00,METAR EGKB 121820Z 20009KT 170V230 CAVOK 09/04 Q1012,1,0,0,9999,0,0,0,
2026-04-12 17:50:00,METAR EGKB 121750Z 21012KT CAVOK 09/04 Q1012,1,0,0,9999,0,0,0,
2026-04-12 17:20:00,METAR EGKB 121720Z 21012KT CAVOK 10/03 Q1011,1,0,0,9999,0,0,0,
2026-04-12 16:50:00,METAR EGKB 121650Z 21013KT 9999 FEW036 11/03 Q1011,0,13,0,10000,0,0,0,
2026-04-12 16:20:00,METAR EGKB 121620Z 22015KT 9999 FEW040 11/03 Q1011,0,15,0,10000,0,0,0,
2026-04-12 15:50:00,METAR EGKB 121550Z 21014KT 180V240 9999 FEW039 12/03 Q1011,0,14,0,10000,0,0,0,
2026-04-12 14:50:00,METAR EGKB 121450Z 21016KT 9999 FEW040 12/03 Q1011,0,16,0,10000,0,0,0,
2026-04-12 14:20:00,METAR EGKB 121420Z 21014KT 9999 SCT035 12/04 Q1011,0,14,0,10000,0,0,0,
2026-04-12 13:50:00,METAR EGKB 121350Z 21015G27KT 9999 VCSH SCT035 12/05 Q1011,0,15,1,10000,0,0,0,"SH,VC"
2026-04-12 13:20:00,METAR EGKB 121320Z 21015KT 170V240 9999 SCT040 12/04 Q1011,0,15,0,10000,0,0,0,
2026-04-12 12:50:00,METAR EGKB 121250Z 21016KT 9999 SCT040 13/03 Q1011,0,16,0,10000,0,0,0,
2026-04-12 12:20:00,METAR EGKB 121220Z 21015KT 9999 FEW040 12/03 Q1011,0,15,0,10000,0,0,0,
2026-04-12 11:50:00,METAR EGKB 121150Z 23016KT 9999 FEW040 12/02 Q1011,0,16,0,10000,0,0,0,
2026-04-12 11:20:00,METAR EGKB 121120Z 21014G24KT 180V240 9999 FEW035 12/03 Q1011,0,14,1,10000,0,0,0,
2026-04-12 10:50:00,METAR EGKB 121050Z 22015KT 9999 SCT035 11/04 Q1011,0,15,0,10000,0,0,0,
2026-04-12 10:20:00,METAR EGKB 121020Z 22013KT 190V250 9999 SCT034 11/03 Q1011,0,13,0,10000,0,0,0,
2026-04-12 09:50:00,METAR EGKB 120950Z 21014KT 9999 FEW032 11/05 Q1011,0,14,0,10000,0,0,0,
2026-04-12 09:20:00,METAR EGKB 120920Z 22013KT 9999 SCT025 10/04 Q1011,0,13,0,10000,0,0,0,
2026-04-12 08:50:00,METAR EGKB 120850Z 21014KT 9999 SCT025 09/04 Q1011,0,14,0,10000,0,0,0,
2026-04-12 08:20:00,METAR EGKB 120820Z 22013KT 9999 FEW025 09/05 Q1011,0,13,0,10000,0,0,0,
2026-04-12 07:50:00,METAR EGKB 120750Z 21012KT 9999 FEW035 08/05 Q1011,0,12,0,10000,0,0,0,
2026-04-12 07:20:00,METAR EGKB 120720Z 21014KT CAVOK 08/05 Q1011,1,0,0,9999,0,0,0,
2026-04-12 06:50:00,METAR EGKB 120650Z 21010KT CAVOK 07/05 Q1010,1,0,0,9999,0,0,0,
2026-04-12 06:20:00,METAR EGKB 120620Z AUTO 23018G30KT 7000 RA SCT019/// 06/04 Q1011,0,18,1,7000,0,0,0,RA
2026-04-12 05:50:00,METAR EGKB 120550Z AUTO 20011KT 9999 FEW020/// 06/04 Q1010,0,11,0,10000,0,0,0,
2026-04-12 05:20:00,METAR EGKB 120520Z AUTO 21014KT 9999 FEW019/// 06/03 Q1010,0,14,0,10000,0,0,0,
2026-04-12 04:50:00,METAR EGKB 120450Z AUTO 21016KT 9999 NCD 07/03 Q1010,0,16,0,10000,0,0,0,
2026-04-12 04:20:00,METAR EGKB 120420Z AUTO 21017G28KT 9999 -RA FEW018/// 08/04 Q1009,0,17,1,10000,0,0,0,-RA
2026-04-12 03:50:00,METAR EGKB 120350Z AUTO 21015KT 9999 FEW024/// 08/05 Q1009,0,15,0,10000,0,0,0,
2026-04-12 03:20:00,METAR EGKB 120320Z AUTO 21014KT 180V240 9999 NCD 07/05 Q1009,0,14,0,10000,0,0,0,
2026-04-12 02:50:00,METAR EGKB 120250Z AUTO 22015KT 180V240 9999 FEW020/// 07/04 Q1009,0,15,0,10000,0,0,0,
2026-04-12 02:20:00,METAR EGKB 120220Z AUTO 22015KT 190V250 9999 -RA BKN020/// 08/05 Q1009,0,15,0,10000,0,0,0,-RA
2026-04-12 01:50:00,METAR EGKB 120150Z AUTO 22016KT 190V250 9999 BKN024/// 08/04 Q1009,0,16,0,10000,0,0,0,
2026-04-12 01:20:00,METAR EGKB 120120Z AUTO 21017G28KT 9999 BKN023/// 08/04 Q1009,0,17,1,10000,0,0,0,
2026-04-12 00:50:00,METAR EGKB 120050Z AUTO 21016G27KT 9999 BKN023/// 08/04 Q1009,0,16,1,10000,0,0,0,
2026-04-12 00:20:00,METAR EGKB 120020Z AUTO 21014KT 9999 BKN025/// 08/04 Q1009,0,14,0,10000,0,0,0,
2026-04-11 23:50:00,METAR EGKB 112350Z AUTO 22015G28KT 9999 NCD 08/03 Q1009,0,15,1,10000,0,0,0,
2026-04-11 23:20:00,METAR EGKB 112320Z AUTO 22019KT 9999 FEW027/// 08/03 Q1009,0,19,0,10000,0,0,0,
2026-04-11 22:50:00,METAR EGKB 112250Z AUTO 21019G29KT 9999 FEW026/// 08/03 Q1009,0,19,1,10000,0,0,0,
2026-04-11 22:20:00,METAR EGKB 112220Z AUTO 21017KT 9999 FEW027/// 08/03 Q1009,0,17,0,10000,0,0,0,
2026-04-11 21:50:00,METAR EGKB 112150Z AUTO 21017G29KT 170V230 9999 SCT033/// 08/03 Q1009,0,17,1,10000,0,0,0,
2026-04-11 21:20:00,METAR EGKB 112120Z AUTO 21014KT 9999 FEW030/// 07/03 Q1010,0,14,0,10000,0,0,0,
2026-04-11 20:50:00,METAR EGKB 112050Z 20014KT 9999 FEW035 07/02 Q1009,0,14,0,10000,0,0,0,
2026-04-11 20:20:00,METAR EGKB 112020Z 20015KT 9999 FEW032 07/02 Q1009,0,15,0,10000,0,0,0,
2026-04-11 19:50:00,METAR EGKB 111950Z 20012KT 9999 FEW044 07/01 Q1009,0,12,0,10000,0,0,0,
2026-04-11 19:20:00,METAR EGKB 111920Z 21013KT CAVOK 07/00 Q1009,1,0,0,9999,0,0,0,
2026-04-11 18:50:00,METAR EGKB 111850Z 22015G25KT 9999 FEW044 08/M01 Q1009,0,15,1,10000,0,0,0,
2026-04-11 18:20:00,METAR EGKB 111820Z 22014KT 9999 FEW025 08/M00 Q1009,0,14,0,10000,0,0,0,
2026-04-11 17:50:00,METAR EGKB 111750Z 23017KT CAVOK 09/M02 Q1009,1,0,0,9999,0,0,0,
2026-04-11 17:20:00,METAR EGKB 111720Z 22016KT CAVOK 09/M01 Q1008,1,0,0,9999,0,0,0,
2026-04-11 16:50:00,METAR EGKB 111650Z 23019G30KT 200V270 9999 FEW035 10/M04 Q1008,0,19,1,10000,0,0,0,
2026-04-11 16:20:00,METAR EGKB 111620Z 22019G31KT 190V250 9999 FEW048 10/M03 Q1008,0,19,1,10000,0,0,0,
2026-04-11 15:50:00,METAR EGKB 111550Z 22018G28KT 180V250 9999 VCSH NSC 10/M02 Q1008,0,18,1,10000,0,0,0,"SH,VC"
2026-04-11 15:20:00,METAR EGKB 111520Z 22018G28KT 190V250 9999 VCSH NSC 11/M02 Q1007,0,18,1,10000,0,0,0,"SH,VC"
2026-04-11 14:50:00,METAR EGKB 111450Z 22018G32KT 190V250 CAVOK 10/M01 Q1007,1,0,0,9999,0,0,0,
2026-04-11 14:20:00,METAR EGKB 111420Z 23017KT CAVOK 11/M02 Q1007,1,0,0,9999,0,0,0,
2026-04-11 13:50:00,METAR EGKB 111350Z 24016G26KT 220V280 CAVOK 12/M03 Q1007,1,0,0,9999,0,0,0,
2026-04-11 13:20:00,METAR EGKB 111320Z 25013G23KT 220V280 9999 FEW048 12/M02 Q1007,0,13,1,10000,0,0,0,
2026-04-11 12:50:00,METAR EGKB 111250Z 25017KT 210V280 9999 FEW047 11/M02 Q1006,0,17,0,10000,0,0,0,
2026-04-11 12:20:00,METAR EGKB 111220Z 26014KT 230V300 9999 FEW044 11/M01 Q1006,0,14,0,10000,0,0,0,
2026-04-11 11:50:00,METAR EGKB 111150Z 25013KT 210V270 9999 FEW044 10/M01 Q1006,0,13,0,10000,0,0,0,
2026-04-11 11:20:00,METAR EGKB 111120Z 24012KT 220V280 9999 SCT027 10/02 Q1006,0,12,0,10000,0,0,0,
2026-04-11 10:50:00,METAR EGKB 111050Z 26013KT 240V300 9999 SCT023 08/03 Q1006,0,13,0,10000,0,0,0,
2026-04-11 10:20:00,METAR EGKB 111020Z 27010G20KT 240V320 9999 FEW023 08/03 Q1005,0,10,1,10000,0,0,0,
2026-04-11 09:50:00,METAR EGKB 110950Z 27010KT 250V310 9999 FEW022 BKN041 07/04 Q1005,0,10,0,10000,0,0,0,
2026-04-11 09:20:00,METAR EGKB 110920Z 27012G22KT 9000 -DZ BKN007 07/06 Q1004,0,12,1,9000,0,0,0,DZ
2026-04-11 08:50:00,METAR EGKB 110850Z 25013G23KT 220V290 9999 -RA BKN010 10/07 Q1004,0,13,1,10000,0,0,0,-RA
2026-04-11 08:20:00,METAR EGKB 110820Z 22011KT 9999 BKN013 10/08 Q1003,0,11,0,10000,0,0,0,
2026-04-11 07:50:00,METAR EGKB 110750Z 21008KT 180V250 9999 BKN015 10/07 Q1003,0,8,0,10000,0,0,0,
2026-04-11 07:20:00,METAR EGKB 110720Z 19009KT 9999 SCT019 BKN030 10/07 Q1003,0,9,0,10000,0,0,0,
2026-04-11 06:50:00,METAR EGKB 110650Z 18009KT 150V220 9999 BKN023 10/06 Q1003,0,9,0,10000,0,0,0,
2026-04-11 06:20:00,METAR EGKB 110620Z AUTO 17009KT 9999 BKN030/// BKN042/// 10/06 Q1003,0,9,0,10000,0,0,0,
2026-04-11 05:50:00,METAR EGKB 110550Z AUTO 17012KT 9999 BKN039/// 10/05 Q1003,0,12,0,10000,0,0,0,
2026-04-11 05:20:00,METAR EGKB 110520Z AUTO 16013KT 9999 BKN038/// 09/05 Q1003,0,13,0,10000,0,0,0,
2026-04-11 04:50:00,METAR EGKB 110450Z AUTO 16013KT 9999 FEW038/// 09/04 Q1003,0,13,0,10000,0,0,0,
2026-04-11 04:20:00,METAR EGKB 110420Z AUTO 15012KT 9999 BKN038/// 09/04 Q1004,0,12,0,10000,0,0,0,
2026-04-11 03:50:00,METAR EGKB 110350Z AUTO 15012KT 9999 FEW039/// 09/03 Q1005,0,12,0,10000,0,0,0,
2026-04-11 03:20:00,METAR EGKB 110320Z AUTO 14012KT 9999 NCD 09/03 Q1005,0,12,0,10000,0,0,0,
2026-04-11 02:50:00,METAR EGKB 110250Z AUTO 14012KT 9999 NCD 08/03 Q1006,0,12,0,10000,0,0,0,
2026-04-11 02:20:00,METAR EGKB 110220Z AUTO 14012KT 110V170 9999 NCD 08/03 Q1006,0,12,0,10000,0,0,0,
2026-04-11 01:50:00,METAR EGKB 110150Z AUTO 14013KT 9999 NCD 08/03 Q1007,0,13,0,10000,0,0,0,
2026-04-11 01:20:00,METAR EGKB 110120Z AUTO 14010KT 9999 NCD 08/03 Q1007,0,10,0,10000,0,0,0,
2026-04-11 00:50:00,METAR EGKB 110050Z AUTO 14012KT 9999 NCD 08/03 Q1008,0,12,0,10000,0,0,0,
2026-04-11 00:20:00,METAR EGKB 110020Z AUTO 14009KT 9999 NCD 07/03 Q1009,0,9,0,10000,0,0,0,
2026-04-10 23:50:00,METAR EGKB 102350Z AUTO 13011KT 9999 NCD 08/03 Q1010,0,11,0,10000,0,0,0,
2026-04-10 23:20:00,METAR EGKB 102320Z AUTO 14011KT 9999 NCD 08/03 Q1010,0,11,0,10000,0,0,0,
2026-04-10 22:50:00,METAR EGKB 102250Z AUTO 12009KT 9999 NCD 07/02 Q1011,0,9,0,10000,0,0,0,
2026-04-10 22:20:00,METAR EGKB 102220Z AUTO 14009KT 9999 NCD 07/02 Q1011,0,9,0,10000,0,0,0,
2026-04-10 21:50:00,METAR EGKB 102150Z 16010KT CAVOK 07/01 Q1012,1,0,0,9999,0,0,0,
2026-04-10 21:20:00,METAR EGKB 102120Z 16011KT CAVOK 08/01 Q1012,1,0,0,9999,0,0,0,
2026-04-10 20:50:00,METAR EGKB 102050Z 15008KT 120V180 CAVOK 07/00 Q1013,1,0,0,9999,0,0,0,
2026-04-10 20:20:00,METAR EGKB 102020Z 17008KT 130V200 CAVOK 07/00 Q1013,1,0,0,9999,0,0,0,
2026-04-10 19:50:00,METAR EGKB 101950Z 17009KT 140V200 CAVOK 07/00 Q1013,1,0,0,9999,0,0,0,
2026-04-10 19:20:00,METAR EGKB 101920Z 16010KT 130V190 CAVOK 07/00 Q1013,1,0,0,9999,0,0,0,
2026-04-10 18:50:00,METAR EGKB 101850Z 15008KT 120V180 CAVOK 08/M02 Q1013,1,0,0,9999,0,0,0,
2026-04-10 18:20:00,METAR EGKB 101820Z 14008KT CAVOK 08/M01 Q1013,1,0,0,9999,0,0,0,
2026-04-10 17:50:00,METAR EGKB 101750Z 18007KT 140V200 CAVOK 09/M01 Q1014,1,0,0,9999,0,0,0,
2026-04-10 17:20:00,METAR EGKB 101720Z 18007KT CAVOK 09/M02 Q1015,1,0,0,9999,0,0,0,
2026-04-10 16:50:00,METAR EGKB 101650Z 20008KT 170V230 CAVOK 09/M01 Q1015,1,0,0,9999,0,0,0,
2026-04-10 16:20:00,METAR EGKB 101620Z 20009KT 170V230 CAVOK 09/M01 Q1016,1,0,0,9999,0,0,0,
2026-04-10 15:50:00,METAR EGKB 101550Z 21009KT 170V240 CAVOK 10/M01 Q1017,1,0,0,9999,0,0,0,
2026-04-10 15:20:00,METAR EGKB 101520Z 22010KT 190V250 CAVOK 10/M01 Q1017,1,0,0,9999,0,0,0,
2026-04-10 14:50:00,METAR EGKB 101450Z 20011KT 9999 FEW044 10/M01 Q1017,0,11,0,10000,0,0,0,
2026-04-10 14:20:00,METAR EGKB 101420Z 22011KT 180V240 9999 FEW044 11/M01 Q1018,0,11,0,10000,0,0,0,
2026-04-10 13:50:00,METAR EGKB 101350Z 20009KT 180V250 9999 FEW044 11/M01 Q1018,0,9,0,10000,0,0,0,
2026-04-10 13:20:00,METAR EGKB 101320Z 19009KT 150V250 9999 FEW044 11/M01 Q1018,0,9,0,10000,0,0,0,
2026-04-10 12:50:00,METAR EGKB 101250Z 19007KT 140V250 9999 FEW044 10/M00 Q1019,0,7,0,10000,0,0,0,
2026-04-10 12:20:00,METAR EGKB 101220Z 22009KT 180V250 9999 FEW045 10/M01 Q1019,0,9,0,10000,0,0,0,
2026-04-10 11:50:00,METAR EGKB 101150Z 23008KT 180V280 9999 FEW039 10/00 Q1020,0,8,0,10000,0,0,0,
2026-04-10 11:20:00,METAR EGKB 101120Z 23007KT 160V270 9999 FEW030 09/01 Q1020,0,7,0,10000,0,0,0,
2026-04-10 10:50:00,METAR EGKB 101050Z 22008KT 180V250 9999 FEW030 09/01 Q1021,0,8,0,10000,0,0,0,
2026-04-10 10:20:00,METAR EGKB 101020Z 20008KT 160V240 9999 FEW030 08/01 Q1021,0,8,0,10000,0,0,0,
2026-04-10 09:50:00,METAR EGKB 100950Z 19007KT 160V220 9999 FEW030 08/00 Q1021,0,7,0,10000,0,0,0,
2026-04-10 09:20:00,METAR EGKB 100920Z 17007KT 130V210 9999 FEW030 08/01 Q1021,0,7,0,10000,0,0,0,
2026-04-10 08:50:00,METAR EGKB 100850Z 22005KT 180V260 CAVOK 08/00 Q1021,1,0,0,9999,0,0,0,
2026-04-10 08:20:00,METAR EGKB 100820Z VRB02KT CAVOK 07/M00 Q1021,1,0,0,9999,0,0,0,
2026-04-10 07:50:00,METAR EGKB 100750Z VRB02KT CAVOK 06/M00 Q1021,1,0,0,9999,0,0,0,
2026-04-10 07:20:00,METAR EGKB 100720Z 35003KT 310V040 CAVOK 06/M00 Q1021,1,0,0,9999,0,0,0,
2026-04-10 06:50:00,METAR EGKB 100650Z 34003KT CAVOK 06/M00 Q1020,1,0,0,9999,0,0,0,
2026-04-10 06:20:00,METAR EGKB 100620Z VRB02KT CAVOK 06/M01 Q1020,1,0,0,9999,0,0,0,
2026-04-10 05:50:00,METAR EGKB 100550Z VRB02KT CAVOK 05/M01 Q1021,1,0,0,9999,0,0,0,
2026-04-10 05:20:00,METAR EGKB 100520Z 34004KT 9999 FEW025 05/M01 Q1020,0,4,0,10000,0,0,0,
2026-04-10 04:50:00,METAR EGKB 100450Z AUTO 34005KT 9999 NCD 05/M01 Q1020,0,5,0,10000,0,0,0,
2026-04-10 04:20:00,METAR EGKB 100420Z AUTO 34007KT 9999 NCD 06/M01 Q1021,0,7,0,10000,0,0,0,
2026-04-10 03:50:00,METAR EGKB 100350Z AUTO 32008KT 9999 NCD 06/M01 Q1021,0,8,0,10000,0,0,0,
2026-04-10 03:20:00,METAR EGKB 100320Z AUTO 32010KT 9999 NCD 06/M01 Q1021,0,10,0,10000,0,0,0,
2026-04-10 02:50:00,METAR EGKB 100250Z AUTO 32013KT 280V350 9999 NCD 06/M01 Q1021,0,13,0,10000,0,0,0,
2026-04-10 02:20:00,METAR EGKB 100220Z AUTO 31011KT 280V340 9999 NCD 06/M01 Q1021,0,11,0,10000,0,0,0,
2026-04-10 01:50:00,METAR EGKB 100150Z AUTO 30012KT 270V340 9999 NCD 06/M01 Q1022,0,12,0,10000,0,0,0,
2026-04-10 01:20:00,METAR EGKB 100120Z AUTO 30016KT 9999 NCD 06/M01 Q1022,0,16,0,10000,0,0,0,
2026-04-10 00:50:00,METAR EGKB 100050Z AUTO 27011KT 9999 NCD 07/M01 Q1023,0,11,0,10000,0,0,0,
2026-04-10 00:20:00,METAR EGKB 100020Z AUTO 26010KT 230V290 9999 NCD 07/M01 Q1023,0,10,0,10000,0,0,0,
2026-04-09 23:50:00,METAR EGKB 092350Z AUTO 26009KT 9999 NCD 06/M01 Q1022,0,9,0,10000,0,0,0,
2026-04-09 23:20:00,METAR EGKB 092320Z AUTO 26009KT 230V290 9999 NCD 07/M01 Q1022,0,9,0,10000,0,0,0,
2026-04-09 22:50:00,METAR EGKB 092250Z AUTO 27011KT 9999 NCD 07/M01 Q1021,0,11,0,10000,0,0,0,
2026-04-09 22:20:00,METAR EGKB 092220Z AUTO 27010KT 240V310 9999 NCD 08/M01 Q1021,0,10,0,10000,0,0,0,
2026-04-09 21:50:00,METAR EGKB 092150Z 28009KT CAVOK 08/M01 Q1020,1,0,0,9999,0,0,0,
2026-04-09 21:20:00,METAR EGKB 092120Z 30008KT CAVOK 08/00 Q1020,1,0,0,9999,0,0,0,
2026-04-09 20:50:00,METAR EGKB 092050Z 32012KT CAVOK 09/00 Q1019,1,0,0,9999,0,0,0,
2026-04-09 20:20:00,METAR EGKB 092020Z 31016KT 270V340 CAVOK 09/M00 Q1019,1,0,0,9999,0,0,0,
2026-04-09 19:50:00,METAR EGKB 091950Z 31016G26KT 270V350 9999 FEW035 10/02 Q1019,0,16,1,10000,0,0,0,
2026-04-09 19:20:00,METAR EGKB 091920Z 28011KT 250V310 9999 SCT030 10/04 Q1018,0,11,0,10000,0,0,0,
2026-04-09 18:50:00,METAR EGKB 091850Z 28012KT 240V300 9999 SCT046 11/03 Q1018,0,12,0,10000,0,0,0,
2026-04-09 18:20:00,METAR EGKB 091820Z 27013KT 9999 SCT046 11/02 Q1017,0,13,0,10000,0,0,0,
2026-04-09 17:50:00,METAR EGKB 091750Z 28011KT 240V310 9999 SCT036 BKN047 12/03 Q1017,0,11,0,10000,0,0,0,
2026-04-09 17:20:00,METAR EGKB 091720Z 27014KT 9999 BKN037 12/03 Q1017,0,14,0,10000,0,0,0,
2026-04-09 16:50:00,METAR EGKB 091650Z 28018G31KT 9999 BKN024 12/06 Q1017,0,18,1,10000,0,0,0,
2026-04-09 16:20:00,METAR EGKB 091620Z 27013KT 240V310 CAVOK 15/06 Q1016,1,0,0,9999,0,0,0,
2026-04-09 15:50:00,METAR EGKB 091550Z 25010KT 220V280 CAVOK 15/04 Q1016,1,0,0,9999,0,0,0,
2026-04-09 15:20:00,METAR EGKB 091520Z 27014KT 240V300 CAVOK 16/07 Q1016,1,0,0,9999,0,0,0,
2026-04-09 14:50:00,METAR EGKB 091450Z 27014KT CAVOK 17/08 Q1016,1,0,0,9999,0,0,0,
2026-04-09 14:20:00,METAR EGKB 091420Z 28012KT 250V310 CAVOK 18/10 Q1016,1,0,0,9999,0,0,0,
2026-04-09 13:50:00,METAR EGKB 091350Z 27013KT 240V300 CAVOK 19/09 Q1016,1,0,0,9999,0,0,0,
2026-04-09 13:20:00,METAR EGKB 091320Z 26013KT 230V290 CAVOK 20/10 Q1016,1,0,0,9999,0,0,0,
2026-04-09 12:50:00,METAR EGKB 091250Z 24011G22KT 200V270 9999 FEW041 21/10 Q1016,0,11,1,10000,0,0,0,
2026-04-09 12:20:00,METAR EGKB 091220Z 22010KT 190V250 CAVOK 20/12 Q1017,1,0,0,9999,0,0,0,
2026-04-09 11:50:00,METAR EGKB 091150Z 23010KT 200V260 CAVOK 20/11 Q1017,1,0,0,9999,0,0,0,
2026-04-09 11:20:00,METAR EGKB 091120Z 22010KT 190V250 CAVOK 20/11 Q1017,1,0,0,9999,0,0,0,
2026-04-09 10:50:00,METAR EGKB 091050Z 22011KT CAVOK 20/11 Q1017,1,0,0,9999,0,0,0,
2026-04-09 10:20:00,METAR EGKB 091020Z 22010KT 180V250 CAVOK 20/11 Q1018,1,0,0,9999,0,0,0,
2026-04-09 09:50:00,METAR EGKB 090950Z 25007KT 220V280 CAVOK 19/11 Q1018,1,0,0,9999,0,0,0,
2026-04-09 09:20:00,METAR EGKB 090920Z 25009KT CAVOK 19/10 Q1018,1,0,0,9999,0,0,0,
2026-04-09 08:50:00,METAR EGKB 090850Z 23006KT 200V270 CAVOK 18/11 Q1018,1,0,0,9999,0,0,0,
2026-04-09 08:20:00,METAR EGKB 090820Z 23004KT 190V280 CAVOK 18/11 Q1018,1,0,0,9999,0,0,0,
2026-04-09 07:50:00,METAR EGKB 090750Z 24004KT CAVOK 17/12 Q1018,1,0,0,9999,0,0,0,
2026-04-09 07:20:00,METAR EGKB 090720Z 22004KT CAVOK 16/12 Q1018,1,0,0,9999,0,0,0,
2026-04-09 06:50:00,METAR EGKB 090650Z 23004KT CAVOK 14/11 Q1018,1,0,0,9999,0,0,0,
2026-04-09 06:20:00,METAR EGKB 090620Z 21003KT CAVOK 13/10 Q1018,1,0,0,9999,0,0,0,
2026-04-09 05:50:00,METAR EGKB 090550Z 20004KT CAVOK 13/10 Q1018,1,0,0,9999,0,0,0,
2026-04-09 05:20:00,METAR EGKB 090520Z 22004KT 180V250 CAVOK 13/10 Q1019,1,0,0,9999,0,0,0,
2026-04-09 04:50:00,METAR EGKB 090450Z AUTO 24004KT 9999 NCD 14/09 Q1019,0,4,0,10000,0,0,0,
2026-04-09 04:20:00,METAR EGKB 090420Z AUTO 21004KT 9999 NCD 14/09 Q1019,0,4,0,10000,0,0,0,
2026-04-09 03:50:00,METAR EGKB 090350Z AUTO 22003KT 9999 NCD 14/09 Q1019,0,3,0,10000,0,0,0,
2026-04-09 03:20:00,METAR EGKB 090320Z AUTO 23004KT 9999 NCD 14/09 Q1020,0,4,0,10000,0,0,0,
2026-04-09 02:50:00,METAR EGKB 090250Z AUTO 23003KT 9999 NCD 14/09 Q1020,0,3,0,10000,0,0,0,
2026-04-09 02:20:00,METAR EGKB 090220Z AUTO 22004KT 9999 NCD 14/09 Q1020,0,4,0,10000,0,0,0,
2026-04-09 01:50:00,METAR EGKB 090150Z AUTO 23004KT 9999 NCD 15/10 Q1020,0,4,0,10000,0,0,0,
2026-04-09 01:20:00,METAR EGKB 090120Z AUTO 22005KT 9999 NCD 15/10 Q1020,0,5,0,10000,0,0,0,
2026-04-09 00:50:00,METAR EGKB 090050Z AUTO 21005KT 9999 NCD 15/10 Q1020,0,5,0,10000,0,0,0,
2026-04-09 00:20:00,METAR EGKB 090020Z AUTO 22004KT 9999 NCD 16/10 Q1021,0,4,0,10000,0,0,0,
2026-04-08 23:50:00,METAR EGKB 082350Z AUTO 22005KT 9999 NCD 16/09 Q1021,0,5,0,10000,0,0,0,
2026-04-08 23:20:00,METAR EGKB 082320Z AUTO 21004KT 9999 NCD 16/08 Q1021,0,4,0,10000,0,0,0,
2026-04-08 22:50:00,METAR EGKB 082250Z AUTO 20005KT 9999 NCD 16/08 Q1021,0,5,0,10000,0,0,0,
2026-04-08 22:20:00,METAR EGKB 082220Z AUTO 19006KT 9999 NCD 16/07 Q1021,0,6,0,10000,0,0,0,
2026-04-08 21:50:00,METAR EGKB 082150Z 19006KT CAVOK 16/07 Q1021,1,0,0,9999,0,0,0,
2026-04-08 21:20:00,METAR EGKB 082120Z 19006KT CAVOK 17/07 Q1021,1,0,0,9999,0,0,0,
2026-04-08 20:50:00,METAR EGKB 082050Z 19006KT CAVOK 17/07 Q1021,1,0,0,9999,0,0,0,
2026-04-08 20:20:00,METAR EGKB 082020Z 19006KT CAVOK 17/06 Q1022,1,0,0,9999,0,0,0,
2026-04-08 19:50:00,METAR EGKB 081950Z 18006KT CAVOK 18/06 Q1022,1,0,0,9999,0,0,0,
2026-04-08 19:20:00,METAR EGKB 081920Z 18006KT CAVOK 18/06 Q1022,1,0,0,9999,0,0,0,
2026-04-08 18:50:00,METAR EGKB 081850Z 19005KT CAVOK 19/05 Q1021,1,0,0,9999,0,0,0,
2026-04-08 18:20:00,METAR EGKB 081820Z 21004KT CAVOK 20/05 Q1021,1,0,0,9999,0,0,0,
2026-04-08 17:50:00,METAR EGKB 081750Z 22005KT CAVOK 21/06 Q1021,1,0,0,9999,0,0,0,
2026-04-08 17:20:00,METAR EGKB 081720Z 21007KT CAVOK 22/08 Q1021,1,0,0,9999,0,0,0,
2026-04-08 16:50:00,METAR EGKB 081650Z 20007KT 170V230 CAVOK 23/09 Q1021,1,0,0,9999,0,0,0,
2026-04-08 16:20:00,METAR EGKB 081620Z 22007KT 190V270 CAVOK 23/09 Q1021,1,0,0,9999,0,0,0,
2026-04-08 15:50:00,METAR EGKB 081550Z 23007KT 190V250 CAVOK 23/08 Q1022,1,0,0,9999,0,0,0,
2026-04-08 15:20:00,METAR EGKB 081520Z 20006KT 140V240 CAVOK 24/07 Q1022,1,0,0,9999,0,0,0,
2026-04-08 14:50:00,METAR EGKB 081450Z 20007KT 150V250 CAVOK 24/06 Q1022,1,0,0,9999,0,0,0,
2026-04-08 14:20:00,METAR EGKB 081420Z 18007KT 130V220 CAVOK 23/08 Q1022,1,0,0,9999,0,0,0,
2026-04-08 13:50:00,METAR EGKB 081350Z 19007KT 150V240 CAVOK 24/09 Q1022,1,0,0,9999,0,0,0,
2026-04-08 13:20:00,METAR EGKB 081320Z 17007KT 130V220 CAVOK 23/09 Q1022,1,0,0,9999,0,0,0,
2026-04-08 12:50:00,METAR EGKB 081250Z 15009KT 110V180 CAVOK 23/09 Q1023,1,0,0,9999,0,0,0,
2026-04-08 12:20:00,METAR EGKB 081220Z 15008KT 120V210 CAVOK 22/10 Q1023,1,0,0,9999,0,0,0,
2026-04-08 11:50:00,METAR EGKB 081150Z 15007KT CAVOK 22/09 Q1023,1,0,0,9999,0,0,0,
2026-04-08 11:20:00,METAR EGKB 081120Z 16007KT 130V220 CAVOK 21/08 Q1023,1,0,0,9999,0,0,0,
2026-04-08 10:50:00,METAR EGKB 081050Z 17006KT 140V220 CAVOK 21/08 Q1023,1,0,0,9999,0,0,0,
2026-04-08 10:20:00,METAR EGKB 081020Z VRB04KT CAVOK 21/07 Q1024,1,0,0,9999,0,0,0,
2026-04-08 09:50:00,METAR EGKB 080950Z 20004KT 110V280 CAVOK 20/07 Q1024,1,0,0,9999,0,0,0,
2026-04-08 09:20:00,METAR EGKB 080920Z 19004KT 150V220 CAVOK 19/08 Q1024,1,0,0,9999,0,0,0,
2026-04-08 08:50:00,METAR EGKB 080850Z 16006KT 120V200 CAVOK 18/06 Q1023,1,0,0,9999,0,0,0,
2026-04-08 08:20:00,METAR EGKB 080820Z 14005KT 100V190 CAVOK 18/06 Q1023,1,0,0,9999,0,0,0,
2026-04-08 07:50:00,METAR EGKB 080750Z 17007KT 130V200 CAVOK 16/06 Q1023,1,0,0,9999,0,0,0,
2026-04-08 07:20:00,METAR EGKB 080720Z 20005KT 160V230 CAVOK 15/05 Q1023,1,0,0,9999,0,0,0,
2026-04-08 06:50:00,METAR EGKB 080650Z 16008KT CAVOK 15/05 Q1023,1,0,0,9999,0,0,0,
2026-04-08 06:20:00,METAR EGKB 080620Z 18008KT CAVOK 14/05 Q1023,1,0,0,9999,0,0,0,
2026-04-08 05:50:00,METAR EGKB 080550Z 15011KT CAVOK 14/05 Q1022,1,0,0,9999,0,0,0,
2026-04-08 05:20:00,METAR EGKB 080520Z 16010KT CAVOK 13/04 Q1022,1,0,0,9999,0,0,0,
2026-04-08 04:50:00,METAR EGKB 080450Z AUTO 16009KT 9999 NCD 12/04 Q1022,0,9,0,10000,0,0,0,
2026-04-08 04:20:00,METAR EGKB 080420Z AUTO 14007KT 9999 NCD 11/04 Q1022,0,7,0,10000,0,0,0,
2026-04-08 03:50:00,METAR EGKB 080350Z AUTO VRB02KT 9999 NCD 11/04 Q1022,0,2,0,10000,0,0,0,
2026-04-08 03:20:00,METAR EGKB 080320Z AUTO 14007KT 9999 NCD 11/04 Q1022,0,7,0,10000,0,0,0,
2026-04-08 02:50:00,METAR EGKB 080250Z AUTO 13006KT 9999 NCD 11/04 Q1022,0,6,0,10000,0,0,0,
2026-04-08 02:20:00,METAR EGKB 080220Z AUTO 12006KT 090V150 9999 NCD 12/04 Q1022,0,6,0,10000,0,0,0,
2026-04-08 01:50:00,METAR EGKB 080150Z AUTO 13007KT 9999 NCD 12/04 Q1023,0,7,0,10000,0,0,0,
2026-04-08 01:20:00,METAR EGKB 080120Z AUTO 14008KT 9999 NCD 12/04 Q1023,0,8,0,10000,0,0,0,
2026-04-08 00:50:00,METAR EGKB 080050Z AUTO 13009KT 9999 NCD 13/04 Q1022,0,9,0,10000,0,0,0,
2026-04-08 00:20:00,METAR EGKB 080020Z AUTO 14008KT 9999 NCD 13/04 Q1023,0,8,0,10000,0,0,0,
2026-04-07 23:50:00,METAR EGKB 072350Z AUTO 15007KT 9999 NCD 13/04 Q1023,0,7,0,10000,0,0,0,
2026-04-07 23:20:00,METAR EGKB 072320Z AUTO 13010KT 9999 NCD 13/04 Q1022,0,10,0,10000,0,0,0,
2026-04-07 22:50:00,METAR EGKB 072250Z AUTO 12009KT 9999 NCD 13/04 Q1022,0,9,0,10000,0,0,0,
2026-04-07 22:20:00,METAR EGKB 072220Z AUTO 11007KT 9999 NCD 12/04 Q1023,0,7,0,10000,0,0,0,
2026-04-07 21:50:00,METAR EGKB 072150Z 11008KT CAVOK 11/05 Q1022,1,0,0,9999,0,0,0,
2026-04-07 21:20:00,METAR EGKB 072120Z 09006KT 070V130 CAVOK 10/05 Q1022,1,0,0,9999,0,0,0,
2026-04-07 20:50:00,METAR EGKB 072050Z 10006KT CAVOK 10/05 Q1023,1,0,0,9999,0,0,0,
2026-04-07 20:20:00,METAR EGKB 072020Z 08005KT CAVOK 09/05 Q1023,1,0,0,9999,0,0,0,
2026-04-07 19:50:00,METAR EGKB 071950Z 08006KT CAVOK 09/06 Q1023,1,0,0,9999,0,0,0,
2026-04-07 19:20:00,METAR EGKB 071920Z 07007KT CAVOK 10/06 Q1023,1,0,0,9999,0,0,0,
2026-04-07 18:50:00,METAR EGKB 071850Z 05006KT CAVOK 11/06 Q1022,1,0,0,9999,0,0,0,
2026-04-07 18:20:00,METAR EGKB 071820Z 06005KT CAVOK 12/06 Q1022,1,0,0,9999,0,0,0,
2026-04-07 17:50:00,METAR EGKB 071750Z 07008KT CAVOK 14/07 Q1022,1,0,0,9999,0,0,0,
2026-04-07 17:20:00,METAR EGKB 071720Z 07006KT CAVOK 16/08 Q1022,1,0,0,9999,0,0,0,
2026-04-07 16:50:00,METAR EGKB 071650Z 11012KT 080V140 CAVOK 17/04 Q1022,1,0,0,9999,0,0,0,
2026-04-07 16:20:00,METAR EGKB 071620Z 11010KT 080V140 CAVOK 18/04 Q1022,1,0,0,9999,0,0,0,
2026-04-07 15:50:00,METAR EGKB 071550Z 12012KT CAVOK 18/04 Q1022,1,0,0,9999,0,0,0,
2026-04-07 15:20:00,METAR EGKB 071520Z 12011KT 080V140 CAVOK 19/02 Q1022,1,0,0,9999,0,0,0,
2026-04-07 14:50:00,METAR EGKB 071450Z 12010KT 090V150 CAVOK 19/03 Q1022,1,0,0,9999,0,0,0,
2026-04-07 14:20:00,METAR EGKB 071420Z 12010KT 080V150 CAVOK 19/02 Q1022,1,0,0,9999,0,0,0,
2026-04-07 13:50:00,METAR EGKB 071350Z 11011KT 070V160 CAVOK 19/03 Q1022,1,0,0,9999,0,0,0,
2026-04-07 13:20:00,METAR EGKB 071320Z 10011KT 060V160 CAVOK 19/02 Q1022,1,0,0,9999,0,0,0,
2026-04-07 12:50:00,METAR EGKB 071250Z 12011KT 080V160 CAVOK 18/02 Q1023,1,0,0,9999,0,0,0,
2026-04-07 12:20:00,METAR EGKB 071220Z 12009KT 080V150 CAVOK 18/03 Q1023,1,0,0,9999,0,0,0,
2026-04-07 11:50:00,METAR EGKB 071150Z 09012KT 070V140 CAVOK 18/03 Q1023,1,0,0,9999,0,0,0,
2026-04-07 11:20:00,METAR EGKB 071120Z 11011KT 080V150 CAVOK 17/03 Q1023,1,0,0,9999,0,0,0,
2026-04-07 10:50:00,METAR EGKB 071050Z 12011KT 080V150 CAVOK 17/03 Q1023,1,0,0,9999,0,0,0,
2026-04-07 10:20:00,METAR EGKB 071020Z 13011KT 090V150 CAVOK 15/04 Q1023,1,0,0,9999,0,0,0,
2026-04-07 09:50:00,METAR EGKB 070950Z 12014KT CAVOK 15/02 Q1023,1,0,0,9999,0,0,0,
2026-04-07 09:20:00,METAR EGKB 070920Z 11011KT CAVOK 14/02 Q1023,1,0,0,9999,0,0,0,
2026-04-07 08:50:00,METAR EGKB 070850Z 11009KT 080V140 CAVOK 14/03 Q1023,1,0,0,9999,0,0,0,
2026-04-07 08:20:00,METAR EGKB 070820Z 10009KT 070V130 CAVOK 12/03 Q1024,1,0,0,9999,0,0,0,
2026-04-07 07:50:00,METAR EGKB 070750Z 11009KT CAVOK 12/03 Q1023,1,0,0,9999,0,0,0,
2026-04-07 07:20:00,METAR EGKB 070720Z 11008KT CAVOK 11/02 Q1023,1,0,0,9999,0,0,0,
2026-04-07 06:50:00,METAR EGKB 070650Z 11008KT CAVOK 09/02 Q1023,1,0,0,9999,0,0,0,
2026-04-07 06:20:00,METAR EGKB 070620Z 12008KT CAVOK 08/01 Q1023,1,0,0,9999,0,0,0,
2026-04-07 05:50:00,METAR EGKB 070550Z 12009KT CAVOK 07/01 Q1023,1,0,0,9999,0,0,0,
2026-04-07 05:20:00,METAR EGKB 070520Z 12008KT CAVOK 07/02 Q1023,1,0,0,9999,0,0,0,
2026-04-07 04:50:00,METAR EGKB 070450Z AUTO 12010KT 9999 NCD 07/02 Q1023,0,10,0,10000,0,0,0,
2026-04-07 04:20:00,METAR EGKB 070420Z AUTO 12008KT 9999 NCD 07/02 Q1023,0,8,0,10000,0,0,0,
2026-04-07 03:50:00,METAR EGKB 070350Z AUTO 12010KT 9999 NCD 07/02 Q1023,0,10,0,10000,0,0,0,
2026-04-07 03:20:00,METAR EGKB 070320Z AUTO 11008KT 9999 NCD 07/02 Q1023,0,8,0,10000,0,0,0,
2026-04-07 02:50:00,METAR EGKB 070250Z AUTO 12008KT 9999 NCD 07/02 Q1024,0,8,0,10000,0,0,0,
2026-04-07 02:20:00,METAR EGKB 070220Z AUTO 11007KT 9999 NCD 07/02 Q1024,0,7,0,10000,0,0,0,
2026-04-07 01:50:00,METAR EGKB 070150Z AUTO 11007KT 9999 NCD 07/02 Q1024,0,7,0,10000,0,0,0,
2026-04-07 01:20:00,METAR EGKB 070120Z AUTO 12008KT 9999 NCD 08/02 Q1024,0,8,0,10000,0,0,0,
2026-04-07 00:50:00,METAR EGKB 070050Z AUTO 11007KT 9999 NCD 07/02 Q1024,0,7,0,10000,0,0,0,
2026-04-07 00:20:00,METAR EGKB 070020Z AUTO 11006KT 9999 NCD 07/02 Q1024,0,6,0,10000,0,0,0,
2026-04-06 23:50:00,METAR EGKB 062350Z AUTO 12008KT 9999 NCD 07/02 Q1024,0,8,0,10000,0,0,0,
2026-04-06 23:20:00,METAR EGKB 062320Z AUTO 12007KT 9999 NCD 07/02 Q1024,0,7,0,10000,0,0,0,
2026-04-06 22:50:00,METAR EGKB 062250Z AUTO 11006KT 9999 NCD 06/01 Q1024,0,6,0,10000,0,0,0,
2026-04-06 22:20:00,METAR EGKB 062220Z AUTO 10006KT 9999 NCD 06/01 Q1024,0,6,0,10000,0,0,0,
2026-04-06 20:50:00,METAR EGKB 062050Z 10005KT CAVOK 07/00 Q1025,1,0,0,9999,0,0,0,
2026-04-06 20:20:00,METAR EGKB 062020Z 10005KT CAVOK 07/M00 Q1025,1,0,0,9999,0,0,0,
2026-04-06 19:50:00,METAR EGKB 061950Z 11003KT 070V130 CAVOK 08/M01 Q1025,1,0,0,9999,0,0,0,
2026-04-06 19:20:00,METAR EGKB 061920Z 12004KT CAVOK 08/M01 Q1025,1,0,0,9999,0,0,0,
2026-04-06 18:50:00,METAR EGKB 061850Z 13005KT CAVOK 09/M02 Q1025,1,0,0,9999,0,0,0,
2026-04-06 18:20:00,METAR EGKB 061820Z 13006KT CAVOK 10/M02 Q1024,1,0,0,9999,0,0,0,
2026-04-06 17:50:00,METAR EGKB 061750Z 13008KT CAVOK 11/M02 Q1025,1,0,0,9999,0,0,0,
2026-04-06 17:20:00,METAR EGKB 061720Z 14008KT CAVOK 12/M01 Q1025,1,0,0,9999,0,0,0,
2026-04-06 16:50:00,METAR EGKB 061650Z 14008KT 110V170 CAVOK 13/00 Q1025,1,0,0,9999,0,0,0,
2026-04-06 16:20:00,METAR EGKB 061620Z 14008KT 100V200 CAVOK 13/M00 Q1025,1,0,0,9999,0,0,0,
2026-04-06 15:50:00,METAR EGKB 061550Z 15009KT 120V180 CAVOK 13/M00 Q1025,1,0,0,9999,0,0,0,
2026-04-06 14:50:00,METAR EGKB 061450Z 15007KT 090V220 CAVOK 14/01 Q1026,1,0,0,9999,0,0,0,
2026-04-06 14:20:00,METAR EGKB 061420Z 14007KT 100V210 CAVOK 13/01 Q1026,1,0,0,9999,0,0,0,
2026-04-06 13:50:00,METAR EGKB 061350Z 15007KT 100V210 CAVOK 13/01 Q1026,1,0,0,9999,0,0,0,
2026-04-06 13:20:00,METAR EGKB 061320Z 17006KT 120V230 CAVOK 14/01 Q1026,1,0,0,9999,0,0,0,
2026-04-06 12:50:00,METAR EGKB 061250Z VRB06KT CAVOK 13/01 Q1026,1,0,0,9999,0,0,0,
2026-04-06 12:20:00,METAR EGKB 061220Z 18007KT 140V280 CAVOK 13/M00 Q1027,1,0,0,9999,0,0,0,
2026-04-06 11:50:00,METAR EGKB 061150Z 17007KT 120V220 CAVOK 12/00 Q1027,1,0,0,9999,0,0,0,
2026-04-06 11:20:00,METAR EGKB 061120Z 18007KT 140V220 CAVOK 12/01 Q1027,1,0,0,9999,0,0,0,
2026-04-06 10:50:00,METAR EGKB 061050Z 15007KT 100V210 CAVOK 11/01 Q1027,1,0,0,9999,0,0,0,
2026-04-06 10:20:00,METAR EGKB 061020Z 15006KT 110V200 CAVOK 11/M02 Q1027,1,0,0,9999,0,0,0,
2026-04-06 09:50:00,METAR EGKB 060950Z 17007KT 130V200 CAVOK 10/M02 Q1027,1,0,0,9999,0,0,0,
2026-04-06 09:20:00,METAR EGKB 060920Z 15007KT 100V200 CAVOK 10/00 Q1028,1,0,0,9999,0,0,0,
2026-04-06 08:50:00,METAR EGKB 060850Z 15008KT CAVOK 09/00 Q1027,1,0,0,9999,0,0,0,
2026-04-06 08:20:00,METAR EGKB 060820Z 15006KT 120V180 CAVOK 09/02 Q1027,1,0,0,9999,0,0,0,
2026-04-06 07:50:00,METAR EGKB 060750Z 13007KT CAVOK 08/02 Q1027,1,0,0,9999,0,0,0,
2026-04-06 07:20:00,METAR EGKB 060720Z 19003KT 150V210 CAVOK 06/02 Q1027,1,0,0,9999,0,0,0,
2026-04-06 06:50:00,METAR EGKB 060650Z 14003KT CAVOK 05/02 Q1027,1,0,0,9999,0,0,0,
2026-04-06 04:50:00,METAR EGKB 060450Z AUTO VRB02KT 9999 NCD 02/M00 Q1026,0,2,0,10000,0,0,0,
2026-04-06 04:20:00,METAR EGKB 060420Z AUTO VRB02KT 9999 NCD 03/00 Q1026,0,2,0,10000,0,0,0,
2026-04-06 03:50:00,METAR EGKB 060350Z AUTO VRB02KT 9999 NCD 03/M00 Q1026,0,2,0,10000,0,0,0,
2026-04-06 03:20:00,METAR EGKB 060320Z AUTO VRB02KT 9999 NCD 04/M00 Q1026,0,2,0,10000,0,0,0,
2026-04-06 02:50:00,METAR EGKB 060250Z AUTO 20003KT 9999 NCD 04/00 Q1026,0,3,0,10000,0,0,0,
2026-04-06 02:20:00,METAR EGKB 060220Z AUTO 20004KT 170V230 9999 NCD 05/00 Q1026,0,4,0,10000,0,0,0,
2026-04-06 01:50:00,METAR EGKB 060150Z AUTO VRB02KT 9999 NCD 05/00 Q1026,0,2,0,10000,0,0,0,
2026-04-06 01:20:00,METAR EGKB 060120Z AUTO 23003KT 200V280 9999 NCD 04/00 Q1026,0,3,0,10000,0,0,0,
2026-04-06 00:50:00,METAR EGKB 060050Z AUTO 24004KT 9999 NCD 04/M00 Q1026,0,4,0,10000,0,0,0,
2026-04-06 00:20:00,METAR EGKB 060020Z AUTO 24003KT 190V280 9999 NCD 04/M00 Q1026,0,3,0,10000,0,0,0,
2026-04-05 23:50:00,METAR EGKB 052350Z AUTO 26004KT 210V290 9999 NCD 05/M01 Q1026,0,4,0,10000,0,0,0,
2026-04-05 23:20:00,METAR EGKB 052320Z AUTO 26006KT 9999 NCD 05/M01 Q1026,0,6,0,10000,0,0,0,
2026-04-05 22:50:00,METAR EGKB 052250Z AUTO 26005KT 9999 NCD 05/M01 Q1025,0,5,0,10000,0,0,0,
2026-04-05 22:20:00,METAR EGKB 052220Z AUTO 24003KT 210V270 9999 NCD 05/M02 Q1025,0,3,0,10000,0,0,0,
2026-04-05 21:50:00,METAR EGKB 052150Z AUTO 25004KT 9999 NCD 06/M02 Q1025,0,4,0,10000,0,0,0,
2026-04-05 21:20:00,METAR EGKB 052120Z AUTO 24004KT 210V270 9999 NCD 06/M03 Q1025,0,4,0,10000,0,0,0,
2026-04-05 20:50:00,METAR EGKB 052050Z 24005KT CAVOK 06/M03 Q1025,1,0,0,9999,0,0,0,
2026-04-05 20:20:00,METAR EGKB 052020Z 25005KT CAVOK 07/M03 Q1024,1,0,0,9999,0,0,0,
2026-04-05 19:50:00,METAR EGKB 051950Z 25006KT CAVOK 08/M03 Q1024,1,0,0,9999,0,0,0,
2026-04-05 19:20:00,METAR EGKB 051920Z 26009KT CAVOK 08/M04 Q1023,1,0,0,9999,0,0,0,
2026-04-05 18:50:00,METAR EGKB 051850Z 25010KT CAVOK 09/M04 Q1023,1,0,0,9999,0,0,0,
2026-04-05 18:20:00,METAR EGKB 051820Z 26010KT CAVOK 10/M03 Q1022,1,0,0,9999,0,0,0,
2026-04-05 17:50:00,METAR EGKB 051750Z 28008KT 250V310 CAVOK 11/M01 Q1022,1,0,0,9999,0,0,0,
2026-04-05 17:20:00,METAR EGKB 051720Z 29009KT 250V320 CAVOK 10/M01 Q1021,1,0,0,9999,0,0,0,
2026-04-05 16:50:00,METAR EGKB 051650Z 29011KT 260V330 CAVOK 11/M02 Q1021,1,0,0,9999,0,0,0,
2026-04-05 16:20:00,METAR EGKB 051620Z 26013KT 230V290 CAVOK 12/M03 Q1020,1,0,0,9999,0,0,0,
2026-04-05 15:50:00,METAR EGKB 051550Z 26013KT CAVOK 12/M03 Q1020,1,0,0,9999,0,0,0,
2026-04-05 15:20:00,METAR EGKB 051520Z 26014KT 230V290 CAVOK 13/M02 Q1020,1,0,0,9999,0,0,0,
2026-04-05 14:50:00,METAR EGKB 051450Z 26015KT CAVOK 12/M02 Q1020,1,0,0,9999,0,0,0,
2026-04-05 12:50:00,METAR EGKB 051250Z 26016KT CAVOK 11/M02 Q1018,1,0,0,9999,0,0,0,
2026-04-05 12:20:00,METAR EGKB 051220Z 27016KT CAVOK 10/M02 Q1018,1,0,0,9999,0,0,0,
2026-04-05 11:50:00,METAR EGKB 051150Z 27015KT 220V310 9999 SCT040 11/M01 Q1018,0,15,0,10000,0,0,0,
2026-04-05 11:20:00,METAR EGKB 051120Z 26017KT 220V290 9999 BKN040 11/01 Q1017,0,17,0,10000,0,0,0,
2026-04-05 10:50:00,METAR EGKB 051050Z 25016KT 220V290 9999 SCT040 11/02 Q1017,0,16,0,10000,0,0,0,
2026-04-05 10:20:00,METAR EGKB 051020Z 25016KT 220V290 9999 SCT040 10/02 Q1016,0,16,0,10000,0,0,0,
2026-04-05 09:50:00,METAR EGKB 050950Z 26016KT 230V290 9999 SCT032 10/03 Q1016,0,16,0,10000,0,0,0,
2026-04-05 09:20:00,METAR EGKB 050920Z 25016KT 220V280 9999 BKN030 09/03 Q1016,0,16,0,10000,0,0,0,
2026-04-05 08:50:00,METAR EGKB 050850Z 26016KT 9999 BKN026 09/03 Q1015,0,16,0,10000,0,0,0,
2026-04-05 08:20:00,METAR EGKB 050820Z 24014KT 210V270 9999 BKN025 08/04 Q1015,0,14,0,10000,0,0,0,
2026-04-05 07:50:00,METAR EGKB 050750Z 24010KT 9999 SCT025 08/04 Q1014,0,10,0,10000,0,0,0,
2026-04-05 07:20:00,METAR EGKB 050720Z COR 22011KT 9999 FEW030 08/04 Q1014,0,11,0,10000,0,0,0,
2026-04-05 06:50:00,METAR EGKB 050650Z 22011KT 9999 FEW030 07/04 Q1013,0,11,0,10000,0,0,0,
2026-04-05 06:20:00,METAR EGKB 050620Z AUTO 23007KT 9999 FEW034/// BKN044/// 07/04 Q1013,0,7,0,10000,0,0,0,
2026-04-05 05:50:00,METAR EGKB 050550Z AUTO 25012KT 9999 NCD 07/03 Q1012,0,12,0,10000,0,0,0,
2026-04-05 05:20:00,METAR EGKB 050520Z AUTO 25010KT 9999 NCD 07/02 Q1012,0,10,0,10000,0,0,0,
2026-04-05 04:50:00,METAR EGKB 050450Z AUTO 25013KT 220V280 9999 NCD 08/03 Q1011,0,13,0,10000,0,0,0,
2026-04-05 04:20:00,METAR EGKB 050420Z AUTO 25014KT 220V280 9999 FEW030/// 08/03 Q1011,0,14,0,10000,0,0,0,
2026-04-05 03:50:00,METAR EGKB 050350Z AUTO 25015KT 220V280 9999 NCD 08/03 Q1010,0,15,0,10000,0,0,0,
2026-04-05 03:20:00,METAR EGKB 050320Z AUTO 25015KT 210V270 9999 FEW031/// 08/04 Q1010,0,15,0,10000,0,0,0,
2026-04-05 02:50:00,METAR EGKB 050250Z AUTO 25018KT 9999 FEW032/// 09/04 Q1009,0,18,0,10000,0,0,0,
2026-04-05 02:20:00,METAR EGKB 050220Z AUTO 24017G29KT 9999 BKN030/// 09/04 Q1009,0,17,1,10000,0,0,0,
2026-04-05 01:50:00,METAR EGKB 050150Z AUTO 25014KT 9999 FEW032/// 09/04 Q1008,0,14,0,10000,0,0,0,
2026-04-05 01:20:00,METAR EGKB 050120Z AUTO 24017KT 210V270 9999 NCD 09/05 Q1008,0,17,0,10000,0,0,0,
2026-04-05 00:50:00,METAR EGKB 050050Z AUTO 24017G28KT 9999 -RA SCT012/// BKN044/// 10/08 Q1007,0,17,1,10000,0,0,0,-RA
2026-04-05 00:20:00,METAR EGKB 050020Z AUTO 22023G36KT 9999 -RA OVC014/// 10/09 Q1007,0,23,1,10000,0,0,0,-RA
2026-04-04 23:50:00,METAR EGKB 042350Z AUTO 22021G32KT 9999 -RA OVC016/// 11/08 Q1007,0,21,1,10000,0,0,0,-RA
2026-04-04 23:20:00,METAR EGKB 042320Z AUTO 22022G36KT 9999 -RA OVC017/// 10/07 Q1007,0,22,1,10000,0,0,0,-RA
2026-04-04 22:50:00,METAR EGKB 042250Z AUTO 22023G35KT 9999 OVC020/// 11/07 Q1007,0,23,1,10000,0,0,0,
2026-04-04 22:20:00,METAR EGKB 042220Z AUTO 22021G33KT 9999 OVC027/// 10/06 Q1007,0,21,1,10000,0,0,0,
2026-04-04 21:50:00,METAR EGKB 042150Z AUTO 22019KT 9999 FEW032/// 10/07 Q1007,0,19,0,10000,0,0,0,
2026-04-04 21:20:00,METAR EGKB 042120Z AUTO 22022G35KT 9999 FEW029/// 10/07 Q1008,0,22,1,10000,0,0,0,
2026-04-04 20:50:00,METAR EGKB 042050Z 22023G38KT CAVOK 10/07 Q1008,1,0,0,9999,0,0,0,
2026-04-04 20:20:00,METAR EGKB 042020Z 22022G33KT CAVOK 10/07 Q1008,1,0,0,9999,0,0,0,
2026-04-04 19:50:00,METAR EGKB 041950Z 22021G32KT CAVOK 10/07 Q1009,1,0,0,9999,0,0,0,
2026-04-04 19:20:00,METAR EGKB 041920Z 22020KT CAVOK 11/08 Q1009,1,0,0,9999,0,0,0,
2026-04-04 18:50:00,METAR EGKB 041850Z 21022KT 9999 FEW022 12/08 Q1009,0,22,0,10000,0,0,0,
2026-04-04 18:20:00,METAR EGKB 041820Z 21018KT 9999 FEW022 13/08 Q1009,0,18,0,10000,0,0,0,
2026-04-04 17:50:00,METAR EGKB 041750Z 20017KT 160V220 9999 FEW022 13/09 Q1010,0,17,0,10000,0,0,0,
2026-04-04 17:20:00,METAR EGKB 041720Z 19017KT 9999 FEW022 13/09 Q1010,0,17,0,10000,0,0,0,
2026-04-04 16:50:00,METAR EGKB 041650Z 20017KT 9999 FEW022 13/09 Q1011,0,17,0,10000,0,0,0,
2026-04-04 16:20:00,METAR EGKB 041620Z 20016KT 170V230 9999 SCT021 13/09 Q1012,0,16,0,10000,0,0,0,
2026-04-04 15:50:00,METAR EGKB 041550Z 20016KT 170V230 9999 BKN021 12/08 Q1012,0,16,0,10000,0,0,0,
2026-04-04 15:20:00,METAR EGKB 041520Z 21014KT 9999 BKN020 11/08 Q1013,0,14,0,10000,0,0,0,
2026-04-04 14:50:00,METAR EGKB 041450Z 20014KT 9999 BKN020 11/07 Q1014,0,14,0,10000,0,0,0,
2026-04-04 14:20:00,METAR EGKB 041420Z 20019G30KT 170V230 9999 SCT021 12/07 Q1014,0,19,1,10000,0,0,0,
2026-04-04 13:50:00,METAR EGKB 041350Z 20020KT 9999 SCT019 12/07 Q1015,0,20,0,10000,0,0,0,
2026-04-04 13:20:00,METAR EGKB 041320Z COR 21020KT 9999 BKN018 11/07 Q1015,0,20,0,10000,0,0,0,
2026-04-04 12:50:00,METAR EGKB 041250Z 21019G31KT 180V240 9999 BKN014 11/09 Q1016,0,19,1,10000,0,0,0,
2026-04-04 12:20:00,METAR EGKB 041220Z 21017KT 9999 BKN014 11/09 Q1016,0,17,0,10000,0,0,0,
2026-04-04 11:50:00,METAR EGKB 041150Z 20014KT 160V240 9999 BKN012 11/09 Q1016,0,14,0,10000,0,0,0,
2026-04-04 11:20:00,METAR EGKB 041120Z 21014KT 180V250 9999 BKN012 11/10 Q1017,0,14,0,10000,0,0,0,
2026-04-04 10:50:00,METAR EGKB 041050Z 21012KT 180V240 9999 BKN014 12/10 Q1017,0,12,0,10000,0,0,0,
2026-04-04 10:20:00,METAR EGKB 041020Z 22012KT 9999 BKN010 11/10 Q1017,0,12,0,10000,0,0,0,
2026-04-04 09:50:00,METAR EGKB 040950Z 20012KT 9999 BKN006 11/10 Q1017,0,12,0,10000,0,0,0,
2026-04-04 09:20:00,METAR EGKB 040920Z 20009KT 4000 -DZ BR BKN007 BKN022 10/10 Q1018,0,9,0,4000,0,0,1,"BR,DZ"
2026-04-04 08:50:00,METAR EGKB 040850Z 20011KT 170V230 9999 SCT035 BKN040 10/08 Q1018,0,11,0,10000,0,0,0,
2026-04-04 08:20:00,METAR EGKB 040820Z 21011KT 9999 BKN035 10/07 Q1018,0,11,0,10000,0,0,0,
2026-04-04 07:50:00,METAR EGKB 040750Z 22007KT 190V250 9999 BKN035 09/07 Q1018,0,7,0,10000,0,0,0,
2026-04-04 07:20:00,METAR EGKB 040720Z 23008KT 9999 BKN045 08/06 Q1018,0,8,0,10000,0,0,0,
2026-04-04 06:50:00,METAR EGKB 040650Z 22009KT 9999 BKN045 08/07 Q1018,0,9,0,10000,0,0,0,
2026-04-04 06:20:00,METAR EGKB 040620Z AUTO 22007KT 9999 NCD 07/06 Q1018,0,7,0,10000,0,0,0,
2026-04-04 05:50:00,METAR EGKB 040550Z AUTO 22007KT 9999 NCD 07/06 Q1018,0,7,0,10000,0,0,0,
2026-04-04 05:20:00,METAR EGKB 040520Z AUTO 22006KT 9999 NCD 07/05 Q1017,0,6,0,10000,0,0,0,
2026-04-04 04:50:00,METAR EGKB 040450Z AUTO 23006KT 9999 NCD 07/05 Q1017,0,6,0,10000,0,0,0,
2026-04-04 04:20:00,METAR EGKB 040420Z AUTO 23005KT 9999 NCD 07/05 Q1017,0,5,0,10000,0,0,0,
2026-04-04 03:50:00,METAR EGKB 040350Z AUTO 22005KT 9999 NCD 07/05 Q1017,0,5,0,10000,0,0,0,
2026-04-04 03:20:00,METAR EGKB 040320Z AUTO 23006KT 9999 NCD 07/06 Q1017,0,6,0,10000,0,0,0,
2026-04-04 02:50:00,METAR EGKB 040250Z AUTO 23007KT 9999 NCD 07/06 Q1017,0,7,0,10000,0,0,0,
2026-04-04 02:20:00,METAR EGKB 040220Z AUTO 23006KT 210V270 9999 NCD 08/05 Q1017,0,6,0,10000,0,0,0,
2026-04-04 01:50:00,METAR EGKB 040150Z AUTO 25008KT 9999 NCD 08/05 Q1017,0,8,0,10000,0,0,0,
2026-04-04 01:20:00,METAR EGKB 040120Z AUTO 24009KT 9999 NCD 08/05 Q1016,0,9,0,10000,0,0,0,
2026-04-04 00:50:00,METAR EGKB 040050Z AUTO 25009KT 220V280 9999 NCD 09/05 Q1016,0,9,0,10000,0,0,0,
2026-04-04 00:20:00,METAR EGKB 040020Z AUTO 25010KT 220V280 9999 NCD 09/05 Q1016,0,10,0,10000,0,0,0,
2026-04-03 23:50:00,METAR EGKB 032350Z AUTO 25012KT 9999 NCD 09/05 Q1016,0,12,0,10000,0,0,0,
2026-04-03 23:20:00,METAR EGKB 032320Z AUTO 26011KT 230V290 9999 NCD 10/05 Q1016,0,11,0,10000,0,0,0,
2026-04-03 22:50:00,METAR EGKB 032250Z AUTO 25011KT 9999 NCD 10/05 Q1015,0,11,0,10000,0,0,0,
2026-04-03 22:20:00,METAR EGKB 032220Z AUTO 25014KT 9999 NCD 10/05 Q1014,0,14,0,10000,0,0,0,
2026-04-03 20:50:00,METAR EGKB 032050Z 27016KT 230V290 9999 BKN028 12/08 Q1013,0,16,0,10000,0,0,0,
2026-04-03 20:20:00,METAR EGKB 032020Z 24011KT 9999 BKN012 11/10 Q1013,0,11,0,10000,0,0,0,
2026-04-03 19:50:00,METAR EGKB 031950Z 23015KT 9999 FEW019 BKN040 11/10 Q1012,0,15,0,10000,0,0,0,
2026-04-03 19:20:00,METAR EGKB 031920Z 23012G24KT 9999 SCT011 SCT026 12/10 Q1012,0,12,1,10000,0,0,0,
2026-04-03 18:50:00,METAR EGKB 031850Z 22015KT 9999 SCT016 SCT026 12/10 Q1011,0,15,0,10000,0,0,0,
2026-04-03 18:20:00,METAR EGKB 031820Z 22016KT 9999 BKN015 12/11 Q1011,0,16,0,10000,0,0,0,
2026-04-03 17:50:00,METAR EGKB 031750Z 23016KT 9999 BKN016 13/10 Q1011,0,16,0,10000,0,0,0,
2026-04-03 17:20:00,METAR EGKB 031720Z 23014KT 9999 BKN014 13/11 Q1010,0,14,0,10000,0,0,0,
2026-04-03 16:50:00,METAR EGKB 031650Z 22014KT 9999 SCT013 13/11 Q1010,0,14,0,10000,0,0,0,
2026-04-03 16:20:00,METAR EGKB 031620Z 22015KT 200V260 9999 BKN014 13/11 Q1010,0,15,0,10000,0,0,0,
2026-04-03 15:50:00,METAR EGKB 031550Z 23015KT 9999 BKN015 13/11 Q1010,0,15,0,10000,0,0,0,
2026-04-03 15:20:00,METAR EGKB 031520Z 22015KT 9999 BKN014 13/11 Q1010,0,15,0,10000,0,0,0,
2026-04-03 14:50:00,METAR EGKB 031450Z 23014KT 9999 BKN014 13/11 Q1010,0,14,0,10000,0,0,0,
2026-04-03 14:20:00,METAR EGKB 031420Z 23013KT 9999 -DZ BKN015 13/11 Q1010,0,13,0,10000,0,0,0,DZ
2026-04-03 13:50:00,METAR EGKB 031350Z 22014KT 9999 BKN011 13/11 Q1010,0,14,0,10000,0,0,0,
2026-04-03 13:20:00,METAR EGKB 031320Z 21013KT 180V240 9999 BKN010 12/11 Q1010,0,13,0,10000,0,0,0,
2026-04-03 12:50:00,METAR EGKB 031250Z 22013KT 9999 SCT011 BKN015 11/11 Q1011,0,13,0,10000,0,0,0,
2026-04-03 12:20:00,METAR EGKB 031220Z 22013KT 9999 BKN007 11/11 Q1011,0,13,0,10000,0,0,0,
2026-04-03 11:50:00,METAR EGKB 031150Z 22015KT 190V250 9000 4000S BKN005 11/11 Q1011,0,15,0,9000,0,0,0,
2026-04-03 11:20:00,METAR EGKB 031120Z 21015KT 5000 BKN004 11/11 Q1011,0,15,0,5000,0,0,0,
2026-04-03 10:50:00,METAR EGKB 031050Z 21017KT 9999 3500S -DZ BKN004 10/10 Q1011,0,17,0,10000,0,0,0,DZ
2026-04-03 10:20:00,METAR EGKB 031020Z 21017KT 9000 3500S -DZ BKN005 10/10 Q1011,0,17,0,9000,0,0,0,DZ
2026-04-03 09:50:00,METAR EGKB 030950Z 21016KT 180V240 4000 -DZ BR BKN005 10/10 Q1011,0,16,0,4000,0,0,1,"BR,DZ"
2026-04-03 09:20:00,METAR EGKB 030920Z 21012KT 6000 -DZ BKN005 10/09 Q1012,0,12,0,6000,0,0,0,DZ
2026-04-03 08:50:00,METAR EGKB 030850Z 21014KT 4500 -RADZ BKN005 09/09 Q1012,0,14,0,4500,0,0,0,"-RA,DZ"
2026-04-03 08:20:00,METAR EGKB 030820Z 21016KT 8000 3500S -RA BKN005 09/09 Q1012,0,16,0,8000,0,0,0,-RA
2026-04-03 07:50:00,METAR EGKB 030750Z 21015KT 9999 4000S -RA BKN006 09/08 Q1012,0,15,0,10000,0,0,0,-RA
2026-04-03 07:20:00,METAR EGKB 030720Z 20015KT 170V230 9999 4000S -RA BKN005 08/08 Q1012,0,15,0,10000,0,0,0,-RA
2026-04-03 06:50:00,METAR EGKB 030650Z 20014KT 3500 -DZ BKN005 08/08 Q1013,0,14,0,3500,0,0,0,DZ
2026-04-03 04:50:00,METAR EGKB 030450Z AUTO 21014KT 9999 -RA FEW013/// OVC039/// 07/06 Q1014,0,14,0,10000,0,0,0,-RA
2026-04-03 04:20:00,METAR EGKB 030420Z AUTO 20013KT 9999 FEW030/// OVC041/// 07/05 Q1014,0,13,0,10000,0,0,0,
2026-04-03 03:50:00,METAR EGKB 030350Z AUTO 20011KT 9999 -RA OVC031/// 07/05 Q1014,0,11,0,10000,0,0,0,-RA
2026-04-03 03:20:00,METAR EGKB 030320Z AUTO 20012KT 9999 SCT039/// 07/05 Q1015,0,12,0,10000,0,0,0,
2026-04-03 02:50:00,METAR EGKB 030250Z AUTO 20011KT 9999 NCD 07/05 Q1015,0,11,0,10000,0,0,0,
2026-04-03 02:20:00,METAR EGKB 030220Z AUTO 20011KT 9999 NCD 07/05 Q1015,0,11,0,10000,0,0,0,
2026-04-03 01:50:00,METAR EGKB 030150Z AUTO 20010KT 9999 NCD 07/05 Q1016,0,10,0,10000,0,0,0,
2026-04-03 01:20:00,METAR EGKB 030120Z AUTO 20010KT 9999 NCD 07/05 Q1016,0,10,0,10000,0,0,0,
2026-04-03 00:50:00,METAR EGKB 030050Z AUTO 21010KT 9999 NCD 07/05 Q1017,0,10,0,10000,0,0,0,
2026-04-03 00:20:00,METAR EGKB 030020Z AUTO 20008KT 9999 NCD 06/05 Q1017,0,8,0,10000,0,0,0,
2026-04-02 23:50:00,METAR EGKB 022350Z AUTO 20007KT 9999 NCD 06/05 Q1017,0,7,0,10000,0,0,0,
2026-04-02 23:20:00,METAR EGKB 022320Z AUTO 20009KT 9999 NCD 06/04 Q1018,0,9,0,10000,0,0,0,
2026-04-02 22:50:00,METAR EGKB 022250Z AUTO 21010KT 9999 NCD 06/04 Q1018,0,10,0,10000,0,0,0,
2026-04-02 22:20:00,METAR EGKB 022220Z AUTO 21009KT 9999 NCD 06/04 Q1018,0,9,0,10000,0,0,0,
2026-04-02 21:50:00,METAR EGKB 022150Z 21011KT CAVOK 07/04 Q1019,1,0,0,9999,0,0,0,
2026-04-02 21:20:00,METAR EGKB 022120Z 21010KT CAVOK 07/04 Q1019,1,0,0,9999,0,0,0,
2026-04-02 20:50:00,METAR EGKB 022050Z 22009KT CAVOK 06/03 Q1019,1,0,0,9999,0,0,0,
2026-04-02 20:20:00,METAR EGKB 022020Z 21008KT CAVOK 06/03 Q1019,1,0,0,9999,0,0,0,
2026-04-02 19:50:00,METAR EGKB 021950Z 21006KT CAVOK 06/02 Q1020,1,0,0,9999,0,0,0,
2026-04-02 19:20:00,METAR EGKB 021920Z 18004KT CAVOK 07/00 Q1020,1,0,0,9999,0,0,0,
2026-04-02 18:50:00,METAR EGKB 021850Z 22004KT CAVOK 08/00 Q1020,1,0,0,9999,0,0,0,
2026-04-02 18:20:00,METAR EGKB 021820Z 22006KT 190V260 CAVOK 08/00 Q1020,1,0,0,9999,0,0,0,
2026-04-02 17:50:00,METAR EGKB 021750Z 20004KT 160V240 CAVOK 09/00 Q1020,1,0,0,9999,0,0,0,
2026-04-02 17:20:00,METAR EGKB 021720Z 25004KT 160V310 CAVOK 10/00 Q1020,1,0,0,9999,0,0,0,
2026-04-02 16:50:00,METAR EGKB 021650Z 27003KT 180V330 9999 FEW040 11/M01 Q1020,0,3,0,10000,0,0,0,
2026-04-02 16:20:00,METAR EGKB 021620Z VRB02KT 9999 FEW040 10/M00 Q1020,0,2,0,10000,0,0,0,
2026-04-02 15:50:00,METAR EGKB 021550Z VRB04KT 9999 FEW040 10/01 Q1020,0,4,0,10000,0,0,0,
2026-04-02 15:20:00,METAR EGKB 021520Z VRB03KT 9999 FEW040 09/00 Q1021,0,3,0,10000,0,0,0,
2026-04-02 14:50:00,METAR EGKB 021450Z 36005KT 280V050 9999 FEW040 09/01 Q1021,0,5,0,10000,0,0,0,
2026-04-02 14:20:00,METAR EGKB 021420Z 31006KT 220V010 9999 FEW035 09/00 Q1021,0,6,0,10000,0,0,0,
2026-04-02 13:50:00,METAR EGKB 021350Z VRB03KT 9999 FEW035 09/01 Q1021,0,3,0,10000,0,0,0,
2026-04-02 13:20:00,METAR EGKB 021320Z VRB06KT 9999 FEW031 09/01 Q1021,0,6,0,10000,0,0,0,
2026-04-02 12:50:00,METAR EGKB 021250Z 01007KT 320V060 9999 SCT030 08/01 Q1022,0,7,0,10000,0,0,0,
2026-04-02 12:20:00,METAR EGKB 021220Z 36008KT 320V050 9999 BKN025 08/01 Q1021,0,8,0,10000,0,0,0,
2026-04-02 11:50:00,METAR EGKB 021150Z 02010KT 9999 BKN020 08/02 Q1021,0,10,0,10000,0,0,0,
2026-04-02 11:20:00,METAR EGKB 021120Z 35009KT 9999 BKN025 07/01 Q1022,0,9,0,10000,0,0,0,
2026-04-02 10:50:00,METAR EGKB 021050Z 35011KT 9999 BKN025 07/01 Q1022,0,11,0,10000,0,0,0,
2026-04-02 10:20:00,METAR EGKB 021020Z 36011KT 310V040 9999 BKN025 07/02 Q1022,0,11,0,10000,0,0,0,
2026-04-02 09:50:00,METAR EGKB 020950Z 35011KT 9999 BKN025 06/01 Q1022,0,11,0,10000,0,0,0,
2026-04-02 09:20:00,METAR EGKB 020920Z 34009KT 320V020 9999 BKN020 06/01 Q1022,0,9,0,10000,0,0,0,
2026-04-02 08:50:00,METAR EGKB 020850Z 35012KT 310V010 9999 BKN020 06/01 Q1022,0,12,0,10000,0,0,0,
2026-04-02 08:20:00,METAR EGKB 020820Z 34011KT 300V020 9999 BKN014 05/02 Q1021,0,11,0,10000,0,0,0,
2026-04-02 07:50:00,METAR EGKB 020750Z 35010KT 9999 BKN014 05/02 Q1021,0,10,0,10000,0,0,0,
2026-04-02 07:20:00,METAR EGKB 020720Z 34009KT 9999 BKN014 05/02 Q1021,0,9,0,10000,0,0,0,
2026-04-02 06:50:00,METAR EGKB 020650Z 34011KT 9999 FEW015 05/02 Q1020,0,11,0,10000,0,0,0,
2026-04-02 06:20:00,METAR EGKB 020620Z 35008KT 9999 SCT020 05/02 Q1020,0,8,0,10000,0,0,0,
2026-04-02 05:50:00,METAR EGKB 020550Z 33009KT 9999 SCT025 05/01 Q1020,0,9,0,10000,0,0,0,
2026-04-02 05:20:00,METAR EGKB 020520Z 33010KT 9999 FEW025 06/01 Q1020,0,10,0,10000,0,0,0,
2026-04-02 04:50:00,METAR EGKB 020450Z AUTO 33007KT 9999 FEW022/// 06/01 Q1019,0,7,0,10000,0,0,0,
2026-04-02 04:20:00,METAR EGKB 020420Z AUTO 33007KT 9999 -RA OVC029/// 06/01 Q1019,0,7,0,10000,0,0,0,-RA
2026-04-02 03:50:00,METAR EGKB 020350Z AUTO 32011KT 290V350 9999 -RA BKN026/// OVC041/// 07/00 Q1019,0,11,0,10000,0,0,0,-RA
2026-04-02 03:20:00,METAR EGKB 020320Z AUTO 32012KT 9999 -RA OVC008/// 08/03 Q1019,0,12,0,10000,0,0,0,-RA
2026-04-02 02:50:00,METAR EGKB 020250Z AUTO 29010KT 9999 -RA OVC009/// 09/07 Q1019,0,10,0,10000,0,0,0,-RA
2026-04-02 02:20:00,METAR EGKB 020220Z AUTO 29007KT 260V320 9999 OVC023/// 09/07 Q1019,0,7,0,10000,0,0,0,
2026-04-02 01:50:00,METAR EGKB 020150Z AUTO 29007KT 9999 OVC027/// 09/07 Q1019,0,7,0,10000,0,0,0,
2026-04-02 01:20:00,METAR EGKB 020120Z AUTO 28007KT 9999 OVC033/// 09/06 Q1019,0,7,0,10000,0,0,0,
2026-04-02 00:50:00,METAR EGKB 020050Z AUTO 27005KT 9999 OVC035/// 09/06 Q1019,0,5,0,10000,0,0,0,
2026-04-02 00:20:00,METAR EGKB 020020Z AUTO 26005KT 9999 OVC036/// 09/06 Q1020,0,5,0,10000,0,0,0,
2026-04-01 23:50:00,METAR EGKB 012350Z AUTO 26004KT 9999 OVC035/// 09/05 Q1020,0,4,0,10000,0,0,0,
2026-04-01 23:20:00,METAR EGKB 012320Z AUTO 28006KT 9999 OVC041/// 10/05 Q1020,0,6,0,10000,0,0,0,
2026-04-01 22:50:00,METAR EGKB 012250Z AUTO 26005KT 230V300 9999 OVC043/// 10/05 Q1020,0,5,0,10000,0,0,0,
2026-04-01 22:20:00,METAR EGKB 012220Z AUTO 27005KT 230V290 9999 OVC041/// 10/05 Q1020,0,5,0,10000,0,0,0,
2026-04-01 21:50:00,METAR EGKB 012150Z 26003KT 9999 BKN043 10/05 Q1020,0,3,0,10000,0,0,0,
2026-04-01 21:20:00,METAR EGKB 012120Z 26004KT 9999 BKN045 10/05 Q1021,0,4,0,10000,0,0,0,
2026-04-01 20:50:00,METAR EGKB 012050Z 27004KT 9999 BKN045 10/05 Q1021,0,4,0,10000,0,0,0,
2026-04-01 20:20:00,METAR EGKB 012020Z 27004KT 9999 BKN045 10/05 Q1021,0,4,0,10000,0,0,0,
2026-04-01 19:50:00,METAR EGKB 011950Z 27005KT 250V310 9999 FEW037 BKN049 10/05 Q1021,0,5,0,10000,0,0,0,
2026-04-01 19:20:00,METAR EGKB 011920Z 27007KT 9999 BKN026 10/05 Q1021,0,7,0,10000,0,0,0,
2026-04-01 18:50:00,METAR EGKB 011850Z 28006KT 250V310 9999 BKN043 11/04 Q1021,0,6,0,10000,0,0,0,
2026-04-01 18:20:00,METAR EGKB 011820Z 27005KT 250V310 9999 BKN045 11/04 Q1021,0,5,0,10000,0,0,0,
2026-04-01 17:50:00,METAR EGKB 011750Z 29006KT 9999 BKN045 11/04 Q1021,0,6,0,10000,0,0,0,
2026-04-01 17:20:00,METAR EGKB 011720Z 27008KT 9999 BKN040 11/04 Q1021,0,8,0,10000,0,0,0,
2026-04-01 16:50:00,METAR EGKB 011650Z 30006KT 270V330 CAVOK 12/03 Q1022,1,0,0,9999,0,0,0,
2026-04-01 16:20:00,METAR EGKB 011620Z 27007KT 240V330 9999 BKN043 12/03 Q1021,0,7,0,10000,0,0,0,
2026-04-01 15:50:00,METAR EGKB 011550Z 26008KT 240V300 9999 BKN049 12/03 Q1022,0,8,0,10000,0,0,0,
2026-04-01 15:20:00,METAR EGKB 011520Z 27008KT 240V320 9999 SCT042 13/04 Q1022,0,8,0,10000,0,0,0,
2026-04-01 14:50:00,METAR EGKB 011450Z 31006KT 260V350 9999 BKN040 12/03 Q1022,0,6,0,10000,0,0,0,
2026-04-01 13:50:00,METAR EGKB 011350Z 32007KT 280V360 9999 SCT045 13/03 Q1023,0,7,0,10000,0,0,0,
2026-04-01 13:20:00,METAR EGKB 011320Z 29005KT 230V010 9999 BKN039 12/03 Q1023,0,5,0,10000,0,0,0,
2026-04-01 12:50:00,METAR EGKB 011250Z 28006KT 200V350 9999 BKN042 12/03 Q1024,0,6,0,10000,0,0,0,
2026-04-01 12:20:00,METAR EGKB 011220Z 31007KT 280V340 9999 BKN035 12/04 Q1024,0,7,0,10000,0,0,0,
2026-04-01 11:50:00,METAR EGKB 011150Z 30007KT 260V330 9999 BKN045 12/04 Q1024,0,7,0,10000,0,0,0,
2026-04-01 11:20:00,METAR EGKB 011120Z 32005KT 270V360 9999 FEW035 BKN045 12/05 Q1024,0,5,0,10000,0,0,0,
2026-04-01 10:50:00,METAR EGKB 011050Z 36006KT 330V030 CAVOK 12/04 Q1025,1,0,0,9999,0,0,0,
2026-04-01 10:20:00,METAR EGKB 011020Z 02007KT 9999 BKN045 11/05 Q1025,0,7,0,10000,0,0,0,
2026-04-01 09:50:00,METAR EGKB 010950Z 02006KT 9999 BKN045 11/05 Q1025,0,6,0,10000,0,0,0,
2026-04-01 09:20:00,METAR EGKB 010920Z 35006KT 9999 BKN045 10/06 Q1025,0,6,0,10000,0,0,0,
2026-04-01 08:50:00,METAR EGKB 010850Z 36006KT 9999 BKN045 10/06 Q1026,0,6,0,10000,0,0,0,
2026-04-01 08:20:00,METAR EGKB 010820Z 36004KT 9999 BKN030 10/07 Q1026,0,4,0,10000,0,0,0,
2026-04-01 07:50:00,METAR EGKB 010750Z 36003KT 330V030 9999 BKN030 09/07 Q1026,0,3,0,10000,0,0,0,
2026-04-01 07:20:00,METAR EGKB 010720Z 35003KT 310V020 9999 BKN045 08/07 Q1026,0,3,0,10000,0,0,0,
2026-04-01 06:50:00,METAR EGKB 010650Z VRB01KT 9999 BKN026 08/07 Q1026,0,1,0,10000,0,0,0,
2026-04-01 06:20:00,METAR EGKB 010620Z VRB02KT 9999 BKN025 07/07 Q1026,0,2,0,10000,0,0,0,
2026-04-01 05:50:00,METAR EGKB 010550Z 27003KT 9999 BKN025 07/06 Q1026,0,3,0,10000,0,0,0,
2026-04-01 05:20:00,METAR EGKB 010520Z 30002KT 9999 BKN025 07/07 Q1026,0,2,0,10000,0,0,0,
2026-04-01 04:50:00,METAR EGKB 010450Z AUTO 32003KT 9999 BKN041/// 07/07 Q1026,0,3,0,10000,0,0,0,
2026-04-01 04:20:00,METAR EGKB 010420Z AUTO 32004KT 9999 NCD 07/07 Q1026,0,4,0,10000,0,0,0,
2026-04-01 03:50:00,METAR EGKB 010350Z AUTO 32004KT 9999 NCD 08/07 Q1027,0,4,0,10000,0,0,0,
2026-04-01 03:20:00,METAR EGKB 010320Z AUTO 30003KT 9999 NCD 08/07 Q1027,0,3,0,10000,0,0,0,
2026-04-01 02:50:00,METAR EGKB 010250Z AUTO 30004KT 9999 NCD 08/07 Q1027,0,4,0,10000,0,0,0,
2026-04-01 02:20:00,METAR EGKB 010220Z AUTO 26006KT 9999 NCD 08/07 Q1027,0,6,0,10000,0,0,0,
2026-04-01 01:50:00,METAR EGKB 010150Z AUTO 29005KT 9999 NCD 09/06 Q1027,0,5,0,10000,0,0,0,
2026-04-01 01:20:00,METAR EGKB 010120Z AUTO 25005KT 9999 NCD 09/07 Q1027,0,5,0,10000,0,0,0,
2026-04-01 00:50:00,METAR EGKB 010050Z AUTO 26004KT 9999 NCD 10/07 Q1028,0,4,0,10000,0,0,0,
2026-04-01 00:20:00,METAR EGKB 010020Z AUTO VRB02KT 9999 NCD 10/07 Q1028,0,2,0,10000,0,0,0,
2026-03-31 23:50:00,METAR EGKB 312350Z AUTO 21003KT 9999 NCD 11/07 Q1028,0,3,0,9999,0,0,0,
2026-03-31 23:20:00,METAR EGKB 312320Z AUTO 18003KT 150V210 9999 NCD 11/08 Q1028,0,3,0,9999,0,0,0,
2026-03-31 22:50:00,METAR EGKB 312250Z AUTO 20004KT 9999 NCD 11/08 Q1028,0,4,0,9999,0,0,0,
2026-03-31 22:20:00,METAR EGKB 312220Z AUTO 19005KT 9999 NCD 11/08 Q1029,0,5,0,9999,0,0,0,
2026-03-31 21:50:00,METAR EGKB 312150Z 18004KT 160V220 CAVOK 12/08 Q1029,1,0,0,9999,0,0,0,
2026-03-31 21:20:00,METAR EGKB 312120Z 18004KT 9999 BKN035 12/08 Q1029,0,4,0,9999,0,0,0,
2026-03-31 20:50:00,METAR EGKB 312050Z 20005KT 170V230 9999 BKN040 12/09 Q1029,0,5,0,9999,0,0,0,
2026-03-31 20:20:00,METAR EGKB 312020Z 19004KT 160V220 9999 SCT040 12/09 Q1029,0,4,0,9999,0,0,0,
2026-03-31 19:50:00,METAR EGKB 311950Z 19005KT 9999 FEW045 12/09 Q1029,0,5,0,9999,0,0,0,
2026-03-31 19:20:00,METAR EGKB 311920Z 19005KT CAVOK 12/08 Q1029,1,0,0,9999,0,0,0,
2026-03-31 18:50:00,METAR EGKB 311850Z 20003KT CAVOK 13/09 Q1029,1,0,0,9999,0,0,0,
2026-03-31 18:20:00,METAR EGKB 311820Z 16003KT CAVOK 13/08 Q1029,1,0,0,9999,0,0,0,
2026-03-31 17:50:00,METAR EGKB 311750Z 15003KT 9999 FEW049 13/09 Q1029,0,3,0,9999,0,0,0,
2026-03-31 17:20:00,METAR EGKB 311720Z 10003KT 9999 FEW032 14/09 Q1029,0,3,0,9999,0,0,0,
2026-03-31 16:50:00,METAR EGKB 311650Z VRB02KT 9999 FEW032 14/09 Q1029,0,2,0,9999,0,0,0,
2026-03-31 16:20:00,METAR EGKB 311620Z VRB02KT 9999 FEW029 14/09 Q1029,0,2,0,9999,0,0,0,
2026-03-31 15:50:00,METAR EGKB 311550Z 33003KT 270V020 9999 FEW030 14/09 Q1029,0,3,0,9999,0,0,0,
2026-03-31 15:20:00,METAR EGKB 311520Z 32005KT 280V340 9999 SCT032 14/08 Q1029,0,5,0,9999,0,0,0,
2026-03-31 14:50:00,METAR EGKB 311450Z 32005KT 260V010 9999 SCT031 14/08 Q1029,0,5,0,9999,0,0,0,
2026-03-31 14:20:00,METAR EGKB 311420Z 34006KT 280V030 9999 FEW028 15/09 Q1029,0,6,0,9999,0,0,0,
2026-03-31 13:50:00,METAR EGKB 311350Z 33005KT 280V020 9999 FEW028 14/09 Q1030,0,5,0,9999,0,0,0,
2026-03-31 13:20:00,METAR EGKB 311320Z 32006KT 9999 SCT036 13/08 Q1030,0,6,0,9999,0,0,0,
2026-03-31 12:50:00,METAR EGKB 311250Z 32007KT 270V350 9999 BKN020 14/08 Q1030,0,7,0,9999,0,0,0,
2026-03-31 12:20:00,METAR EGKB 311220Z 32007KT 280V360 9999 BKN017 13/09 Q1030,0,7,0,9999,0,0,0,
2026-03-31 11:50:00,METAR EGKB 311150Z 31006KT 9999 BKN020 12/08 Q1030,0,6,0,9999,0,0,0,
2026-03-31 11:20:00,METAR EGKB 311120Z 31007KT 280V340 9999 BKN015 11/08 Q1031,0,7,0,9999,0,0,0,
2026-03-31 10:50:00,METAR EGKB 311050Z 33007KT 290V360 9999 BKN014 11/08 Q1030,0,7,0,9999,0,0,0,
2026-03-31 10:20:00,METAR EGKB 311020Z 29007KT 260V320 9999 BKN014 11/08 Q1030,0,7,0,9999,0,0,0,
2026-03-31 09:50:00,METAR EGKB 310950Z 29009KT 260V340 9999 BKN014 10/07 Q1030,0,9,0,9999,0,0,0,
2026-03-31 09:20:00,METAR EGKB 310920Z 29006KT 270V330 9999 BKN014 10/07 Q1030,0,6,0,9999,0,0,0,
2026-03-31 08:50:00,METAR EGKB 310850Z 29006KT 260V330 9999 OVC011 09/07 Q1030,0,6,0,9999,0,0,0,
2026-03-31 08:20:00,METAR EGKB 310820Z 29008KT 260V330 9999 OVC011 09/06 Q1030,0,8,0,9999,0,0,0,
2026-03-31 07:50:00,METAR EGKB 310750Z 27008KT 220V300 9999 BKN015 08/05 Q1030,0,8,0,9999,0,0,0,
2026-03-31 07:20:00,METAR EGKB 310720Z 27005KT 240V300 9999 BKN013 08/05 Q1030,0,5,0,9999,0,0,0,
2026-03-31 06:50:00,METAR EGKB 310650Z 29006KT 260V320 9999 BKN015 07/05 Q1030,0,6,0,9999,0,0,0,
2026-03-31 06:20:00,METAR EGKB 310620Z 29006KT 260V320 9999 BKN018 08/04 Q1030,0,6,0,9999,0,0,0,
2026-03-31 05:50:00,METAR EGKB 310550Z 29006KT 260V320 9999 BKN020 08/04 Q1029,0,6,0,9999,0,0,0,
2026-03-31 05:20:00,METAR EGKB 310520Z 28007KT 240V310 9999 BKN020 08/04 Q1029,0,7,0,9999,0,0,0,
2026-03-31 04:50:00,METAR EGKB 310450Z AUTO 27007KT 240V310 9999 BKN024/// 07/04 Q1029,0,7,0,9999,0,0,0,
2026-03-31 04:20:00,METAR EGKB 310420Z AUTO 28006KT 250V320 9999 OVC028/// 07/04 Q1029,0,6,0,9999,0,0,0,
2026-03-31 03:50:00,METAR EGKB 310350Z AUTO 28007KT 9999 -RA OVC029/// 07/03 Q1029,0,7,0,9999,0,0,0,-RA
2026-03-31 03:20:00,METAR EGKB 310320Z AUTO 29007KT 260V320 9999 BKN025/// 08/03 Q1029,0,7,0,9999,0,0,0,
2026-03-31 02:50:00,METAR EGKB 310250Z AUTO 30006KT 260V320 9999 OVC034/// 08/03 Q1029,0,6,0,9999,0,0,0,
2026-03-31 02:20:00,METAR EGKB 310220Z AUTO 29008KT 260V320 9999 -RA OVC035/// 08/03 Q1029,0,8,0,9999,0,0,0,-RA
2026-03-31 01:50:00,METAR EGKB 310150Z AUTO 29008KT 250V310 9999 OVC030/// 08/02 Q1029,0,8,0,9999,0,0,0,
2026-03-31 01:20:00,METAR EGKB 310120Z AUTO 29006KT 260V320 9999 OVC030/// 08/02 Q1029,0,6,0,9999,0,0,0,
2026-03-31 00:50:00,METAR EGKB 310050Z AUTO 29006KT 9999 OVC034/// 08/02 Q1029,0,6,0,9999,0,0,0,
2026-03-31 00:20:00,METAR EGKB 310020Z AUTO 29005KT 9999 OVC038/// 08/02 Q1029,0,5,0,9999,0,0,0,
2026-03-30 23:50:00,METAR EGKB 302350Z AUTO 29005KT 260V320 9999 SCT044/// 07/02 Q1029,0,5,0,10000,0,0,0,
2026-03-30 23:20:00,METAR EGKB 302320Z AUTO 31007KT 9999 NCD 08/02 Q1029,0,7,0,10000,0,0,0,
2026-03-30 22:50:00,METAR EGKB 302250Z AUTO 32007KT 300V010 9999 NCD 08/02 Q1029,0,7,0,10000,0,0,0,
2026-03-30 22:20:00,METAR EGKB 302220Z AUTO 32008KT 290V350 9999 NCD 08/01 Q1029,0,8,0,10000,0,0,0,
2026-03-30 21:50:00,METAR EGKB 302150Z 32009KT 290V350 CAVOK 08/01 Q1029,1,0,0,9999,0,0,0,
2026-03-30 21:20:00,METAR EGKB 302120Z 32008KT 290V360 CAVOK 08/01 Q1029,1,0,0,9999,0,0,0,
2026-03-30 20:50:00,METAR EGKB 302050Z 32009KT CAVOK 08/00 Q1028,1,0,0,9999,0,0,0,
2026-03-30 20:20:00,METAR EGKB 302020Z 34007KT CAVOK 08/00 Q1027,1,0,0,9999,0,0,0,
2026-03-30 19:50:00,METAR EGKB 301950Z 34010KT CAVOK 08/00 Q1027,1,0,0,9999,0,0,0,
2026-03-30 19:20:00,METAR EGKB 301920Z 34013KT 310V010 CAVOK 09/M00 Q1027,1,0,0,9999,0,0,0,
2026-03-30 18:50:00,METAR EGKB 301850Z 32012KT 290V360 CAVOK 09/M00 Q1027,1,0,0,9999,0,0,0,
2026-03-30 18:20:00,METAR EGKB 301820Z 32016KT 290V360 CAVOK 10/M00 Q1026,1,0,0,9999,0,0,0,
2026-03-30 17:50:00,METAR EGKB 301750Z 33012G23KT 290V360 CAVOK 10/M00 Q1026,1,0,0,9999,0,0,0,
2026-03-30 17:20:00,METAR EGKB 301720Z 32015KT CAVOK 10/M01 Q1026,1,0,0,9999,0,0,0,
2026-03-30 16:50:00,METAR EGKB 301650Z 32015KT 290V350 9999 SCT049 10/M01 Q1025,0,15,0,10000,0,0,0,
2026-03-30 16:20:00,METAR EGKB 301620Z 32014KT 290V350 9999 SCT049 11/00 Q1025,0,14,0,10000,0,0,0,
2026-03-30 15:50:00,METAR EGKB 301550Z 31018G29KT 280V350 9999 FEW045 11/00 Q1025,0,18,1,10000,0,0,0,
2026-03-30 15:20:00,METAR EGKB 301520Z 32014KT 280V350 9999 SCT047 10/01 Q1025,0,14,0,10000,0,0,0,
2026-03-30 14:50:00,METAR EGKB 301450Z 32016KT 280V360 9999 SCT044 11/01 Q1024,0,16,0,10000,0,0,0,
2026-03-30 14:20:00,METAR EGKB 301420Z 31014G25KT 290V350 9999 VCSH SCT041 09/02 Q1024,0,14,1,10000,0,0,0,"SH,VC"
2026-03-30 13:50:00,METAR EGKB 301350Z 32015KT 280V350 9999 SCT045 10/01 Q1024,0,15,0,10000,0,0,0,
2026-03-30 13:20:00,METAR EGKB 301320Z 33017KT 9999 SCT040 10/01 Q1024,0,17,0,10000,0,0,0,
2026-03-30 12:50:00,METAR EGKB 301250Z 31017KT 280V350 9999 VCSH SCT040 10/01 Q1024,0,17,0,10000,0,0,0,"SH,VC"
2026-03-30 12:20:00,METAR EGKB 301220Z 32012KT 290V350 9999 VCSH SCT035 09/04 Q1024,0,12,0,10000,0,0,0,"SH,VC"
2026-03-30 11:50:00,METAR EGKB 301150Z 31016KT 270V340 9999 -RA SCT045 10/01 Q1024,0,16,0,10000,0,0,0,-RA
2026-03-30 11:20:00,METAR EGKB 301120Z 31013KT 280V340 9999 SCT038 10/02 Q1023,0,13,0,10000,0,0,0,
2026-03-30 10:50:00,METAR EGKB 301050Z 32015KT 280V340 9999 -RA BKN034 09/02 Q1024,0,15,0,10000,0,0,0,-RA
2026-03-30 10:20:00,METAR EGKB 301020Z 32013KT 280V350 9999 BKN034 09/02 Q1024,0,13,0,10000,0,0,0,
2026-03-30 09:50:00,METAR EGKB 300950Z 30016G26KT 270V330 9999 BKN039 09/02 Q1023,0,16,1,10000,0,0,0,
2026-03-30 09:20:00,METAR EGKB 300920Z 29017KT 260V330 9999 BKN030 08/02 Q1024,0,17,0,10000,0,0,0,
2026-03-30 08:50:00,METAR EGKB 300850Z 29012KT 260V320 CAVOK 08/03 Q1023,1,0,0,9999,0,0,0,
2026-03-30 08:20:00,METAR EGKB 300820Z 27013KT 240V320 CAVOK 07/03 Q1022,1,0,0,9999,0,0,0,
2026-03-30 07:50:00,METAR EGKB 300750Z 27013KT 240V320 9999 SCT035 07/03 Q1022,0,13,0,10000,0,0,0,
2026-03-30 07:20:00,METAR EGKB 300720Z 28012KT 250V310 9999 SCT035 06/03 Q1022,0,12,0,10000,0,0,0,
2026-03-30 06:50:00,METAR EGKB 300650Z 28012KT 240V300 CAVOK 06/03 Q1022,1,0,0,9999,0,0,0,
2026-03-30 06:20:00,METAR EGKB 300620Z 28011KT CAVOK 06/03 Q1022,1,0,0,9999,0,0,0,
2026-03-30 05:50:00,METAR EGKB 300550Z 28010KT CAVOK 06/03 Q1022,1,0,0,9999,0,0,0,
2026-03-30 05:20:00,METAR EGKB 300520Z 27009KT 9999 FEW043 06/03 Q1021,0,9,0,10000,0,0,0,
2026-03-30 04:50:00,METAR EGKB 300450Z AUTO 28009KT 9999 NCD 06/03 Q1021,0,9,0,10000,0,0,0,
2026-03-30 04:20:00,METAR EGKB 300420Z AUTO 27010KT 240V300 9999 NCD 06/04 Q1021,0,10,0,10000,0,0,0,
2026-03-30 03:50:00,METAR EGKB 300350Z AUTO 27009KT 9999 NCD 06/05 Q1021,0,9,0,10000,0,0,0,
2026-03-30 03:20:00,METAR EGKB 300320Z AUTO 28009KT 9999 NCD 06/05 Q1021,0,9,0,10000,0,0,0,
2026-03-30 02:50:00,METAR EGKB 300250Z AUTO 28010KT 9999 NCD 07/05 Q1021,0,10,0,10000,0,0,0,
2026-03-30 02:20:00,METAR EGKB 300220Z AUTO 28010KT 9999 NCD 07/05 Q1021,0,10,0,10000,0,0,0,
2026-03-30 01:50:00,METAR EGKB 300150Z AUTO 27010KT 240V300 9999 NCD 07/06 Q1020,0,10,0,10000,0,0,0,
2026-03-30 01:20:00,METAR EGKB 300120Z AUTO 27010KT 9999 NCD 07/06 Q1021,0,10,0,10000,0,0,0,
2026-03-30 00:50:00,METAR EGKB 300050Z AUTO 27011KT 240V300 9999 NCD 08/06 Q1021,0,11,0,10000,0,0,0,
2026-03-30 00:20:00,METAR EGKB 300020Z AUTO 26011KT 240V300 9999 NCD 08/06 Q1020,0,11,0,10000,0,0,0,
2026-03-29 23:50:00,METAR EGKB 292350Z AUTO 26012KT 9999 NCD 08/07 Q1020,0,12,0,10000,0,0,0,
2026-03-29 23:20:00,METAR EGKB 292320Z AUTO 25014KT 9999 NCD 08/07 Q1020,0,14,0,10000,0,0,0,
2026-03-29 22:50:00,METAR EGKB 292250Z AUTO 25013KT 9999 FEW012/// 08/07 Q1020,0,13,0,10000,0,0,0,
2026-03-29 22:20:00,METAR EGKB 292220Z AUTO 25013KT 9999 SCT012/// SCT014/// 08/07 Q1020,0,13,0,10000,0,0,0,
2026-03-29 21:50:00,METAR EGKB 292150Z AUTO 25013KT 9999 BKN012/// 08/07 Q1021,0,13,0,10000,0,0,0,
2026-03-29 21:20:00,METAR EGKB 292120Z AUTO 25014G24KT 9999 BKN011/// 08/07 Q1020,0,14,1,10000,0,0,0,
2026-03-29 20:50:00,METAR EGKB 292050Z 24013KT 210V270 9999 BKN010 08/07 Q1021,0,13,0,10000,0,0,0,
2026-03-29 20:20:00,METAR EGKB 292020Z 25015KT 220V290 9999 BKN010 08/07 Q1021,0,15,0,10000,0,0,0,
2026-03-29 19:50:00,METAR EGKB 291950Z 24016G26KT 9999 BKN012 08/07 Q1021,0,16,1,10000,0,0,0,
2026-03-29 19:20:00,METAR EGKB 291920Z 23016KT 9999 -DZ BKN010 07/07 Q1021,0,16,0,10000,0,0,0,DZ
2026-03-29 18:50:00,METAR EGKB 291850Z 23014KT 200V260 6000 -DZ SCT006 BKN010 07/07 Q1022,0,14,0,6000,0,0,0,DZ
2026-03-29 18:20:00,METAR EGKB 291820Z 23015KT 4000 -DZ BKN010 07/06 Q1022,0,15,0,4000,0,0,0,DZ
2026-03-29 17:50:00,METAR EGKB 291750Z 23017KT 6000 -RA FEW018 BKN025 08/06 Q1022,0,17,0,6000,0,0,0,-RA
2026-03-29 17:20:00,METAR EGKB 291720Z 23017KT 9999 FEW023 BKN030 08/05 Q1023,0,17,0,10000,0,0,0,
2026-03-29 16:50:00,METAR EGKB 291650Z 23019G32KT 9999 FEW015 BKN025 08/05 Q1023,0,19,1,10000,0,0,0,
2026-03-29 16:20:00,METAR EGKB 291620Z 23018KT 9999 SCT020 BKN029 08/05 Q1023,0,18,0,10000,0,0,0,
2026-03-29 15:20:00,METAR EGKB 291520Z 23013KT 9999 -RA SCT025 BKN035 07/05 Q1025,0,13,0,10000,0,0,0,-RA
2026-03-29 14:50:00,METAR EGKB 291450Z 23013KT 200V260 9999 -RA BKN027 08/04 Q1025,0,13,0,10000,0,0,0,-RA
2026-03-29 14:20:00,METAR EGKB 291420Z 22015KT 9999 BKN029 08/03 Q1026,0,15,0,10000,0,0,0,
2026-03-29 13:50:00,METAR EGKB 291350Z 23013KT 200V260 9999 BKN036 09/02 Q1027,0,13,0,10000,0,0,0,
2026-03-29 13:20:00,METAR EGKB 291320Z 22012KT 200V260 9999 SCT036 09/02 Q1027,0,12,0,10000,0,0,0,
2026-03-29 12:50:00,METAR EGKB 291250Z 23013KT 200V280 9999 SCT040 09/01 Q1028,0,13,0,10000,0,0,0,
2026-03-29 12:20:00,METAR EGKB 291220Z 25013KT 200V270 9999 FEW040 09/M00 Q1028,0,13,0,10000,0,0,0,
2026-03-29 11:50:00,METAR EGKB 291150Z 24013KT 190V270 9999 FEW040 09/00 Q1029,0,13,0,10000,0,0,0,
2026-03-29 11:20:00,METAR EGKB 291120Z 22012KT 190V250 9999 FEW028 08/01 Q1029,0,12,0,10000,0,0,0,
2026-03-29 10:50:00,METAR EGKB 291050Z 23010KT CAVOK 08/01 Q1030,1,0,0,9999,0,0,0,
2026-03-29 10:20:00,METAR EGKB 291020Z 22010KT 180V250 CAVOK 08/01 Q1030,1,0,0,9999,0,0,0,
2026-03-29 09:50:00,METAR EGKB 290950Z 23009KT CAVOK 07/01 Q1030,1,0,0,9999,0,0,0,
2026-03-29 09:20:00,METAR EGKB 290920Z 22009KT CAVOK 07/01 Q1030,1,0,0,9999,0,0,0,
2026-03-29 08:50:00,METAR EGKB 290850Z 22008KT CAVOK 07/01 Q1030,1,0,0,9999,0,0,0,
2026-03-29 08:20:00,METAR EGKB 290820Z 24006KT 200V270 CAVOK 07/01 Q1031,1,0,0,9999,0,0,0,
2026-03-29 07:50:00,METAR EGKB 290750Z 22004KT 190V250 CAVOK 06/02 Q1031,1,0,0,9999,0,0,0,
2026-03-29 07:20:00,METAR EGKB 290720Z 25005KT CAVOK 04/00 Q1031,1,0,0,9999,0,0,0,
2026-03-29 06:50:00,METAR EGKB 290650Z 21004KT CAVOK 03/M00 Q1031,1,0,0,9999,0,0,0,
2026-03-29 06:20:00,METAR EGKB 290620Z AUTO 21004KT 170V230 9999 NCD 02/M01 Q1031,0,4,0,10000,0,0,0,
2026-03-29 05:50:00,METAR EGKB 290550Z AUTO 22003KT 9999 NCD 02/M01 Q1031,0,3,0,10000,0,0,0,
2026-03-29 05:20:00,METAR EGKB 290520Z AUTO 24004KT 210V270 9999 NCD 02/M01 Q1031,0,4,0,10000,0,0,0,
2026-03-29 04:50:00,METAR EGKB 290450Z AUTO 25005KT 9999 NCD 02/M01 Q1031,0,5,0,10000,0,0,0,
2026-03-29 04:20:00,METAR EGKB 290420Z AUTO 26005KT 230V290 9999 NCD 02/M01 Q1031,0,5,0,10000,0,0,0,
2026-03-29 03:50:00,METAR EGKB 290350Z AUTO 26005KT 9999 NCD 02/M01 Q1031,0,5,0,10000,0,0,0,
2026-03-29 03:20:00,METAR EGKB 290320Z AUTO 26005KT 9999 NCD 02/M01 Q1031,0,5,0,10000,0,0,0,
2026-03-29 02:50:00,METAR EGKB 290250Z AUTO 25004KT 9999 NCD 02/M01 Q1031,0,4,0,10000,0,0,0,
2026-03-29 02:20:00,METAR EGKB 290220Z AUTO 27006KT 250V310 9999 NCD 02/M01 Q1031,0,6,0,10000,0,0,0,
2026-03-29 01:50:00,METAR EGKB 290150Z AUTO 27005KT 9999 NCD 02/M01 Q1031,0,5,0,10000,0,0,0,
2026-03-29 01:20:00,METAR EGKB 290120Z AUTO 25004KT 9999 NCD 02/M01 Q1031,0,4,0,10000,0,0,0,
2026-03-29 00:50:00,METAR EGKB 290050Z AUTO 26004KT 220V300 9999 NCD 03/M01 Q1031,0,4,0,10000,0,0,0,
2026-03-29 00:20:00,METAR EGKB 290020Z AUTO 30008KT 9999 NCD 04/M01 Q1031,0,8,0,10000,0,0,0,
2026-03-28 23:50:00,METAR EGKB 282350Z AUTO 29006KT 9999 NCD 04/M01 Q1031,0,6,0,10000,0,0,0,
2026-03-28 23:20:00,METAR EGKB 282320Z AUTO 30008KT 9999 NCD 04/M01 Q1030,0,8,0,10000,0,0,0,
2026-03-28 22:50:00,METAR EGKB 282250Z AUTO 31006KT 9999 NCD 04/M01 Q1030,0,6,0,10000,0,0,0,
2026-03-28 22:20:00,METAR EGKB 282220Z AUTO 30008KT 270V330 9999 NCD 04/M02 Q1030,0,8,0,10000,0,0,0,
2026-03-28 21:50:00,METAR EGKB 282150Z 32009KT CAVOK 05/M02 Q1030,1,0,0,9999,0,0,0,
2026-03-28 21:20:00,METAR EGKB 282120Z 32009KT CAVOK 05/M02 Q1030,1,0,0,9999,0,0,0,
2026-03-28 20:50:00,METAR EGKB 282050Z 31011KT CAVOK 06/M03 Q1030,1,0,0,9999,0,0,0,
2026-03-28 20:20:00,METAR EGKB 282020Z 30009KT 270V340 CAVOK 06/M02 Q1029,1,0,0,9999,0,0,0,
2026-03-28 19:50:00,METAR EGKB 281950Z 31009KT CAVOK 06/M02 Q1029,1,0,0,9999,0,0,0,
2026-03-28 19:20:00,METAR EGKB 281920Z 31011KT 280V340 CAVOK 06/M02 Q1028,1,0,0,9999,0,0,0,
2026-03-28 18:50:00,METAR EGKB 281850Z 32010KT 290V350 9999 FEW045 07/M02 Q1028,0,10,0,10000,0,0,0,
2026-03-28 18:20:00,METAR EGKB 281820Z 32015KT 9999 FEW045 07/M02 Q1028,0,15,0,10000,0,0,0,
2026-03-28 17:50:00,METAR EGKB 281750Z 32015KT 290V350 9999 VCSH NSC 08/M04 Q1027,0,15,0,10000,0,0,0,"SH,VC"
2026-03-28 17:20:00,METAR EGKB 281720Z 30015G25KT 270V330 9999 VCSH FEW040 08/M02 Q1026,0,15,1,10000,0,0,0,"SH,VC"
2026-03-28 16:50:00,METAR EGKB 281650Z 31016KT 270V330 CAVOK 09/M03 Q1026,1,0,0,9999,0,0,0,
2026-03-28 16:20:00,METAR EGKB 281620Z 32015KT 280V360 CAVOK 08/M04 Q1025,1,0,0,9999,0,0,0,
2026-03-28 15:50:00,METAR EGKB 281550Z 30016KT 9999 VCSH NSC 09/M04 Q1025,0,16,0,10000,0,0,0,"SH,VC"
2026-03-28 15:20:00,METAR EGKB 281520Z 28014KT 250V330 9999 VCSH FEW050CB 07/M02 Q1025,0,14,0,10000,0,0,0,"SH,VC"
2026-03-28 14:50:00,METAR EGKB 281450Z 31014KT 260V350 9999 VCSH FEW040TCU 09/M04 Q1024,0,14,0,10000,0,0,0,"SH,VC"
2026-03-28 14:20:00,METAR EGKB 281420Z 32011KT 280V360 9999 VCSH NSC 09/M03 Q1024,0,11,0,10000,0,0,0,"SH,VC"
2026-03-28 13:50:00,METAR EGKB 281350Z 32014KT 280V360 9999 VCSH NSC 10/M03 Q1024,0,14,0,10000,0,0,0,"SH,VC"
2026-03-28 13:20:00,METAR EGKB 281320Z 30015KT 9999 VCSH FEW050CB 08/M04 Q1024,0,15,0,10000,0,0,0,"SH,VC"
2026-03-28 12:50:00,METAR EGKB 281250Z 29014KT 260V350 CAVOK 09/M03 Q1024,1,0,0,9999,0,0,0,
2026-03-28 12:20:00,METAR EGKB 281220Z 31014KT 280V340 9999 SCT048 08/M03 Q1024,0,14,0,10000,0,0,0,
2026-03-28 11:50:00,METAR EGKB 281150Z 31012G23KT 270V350 9999 SCT048 08/M03 Q1024,0,12,1,10000,0,0,0,
2026-03-28 11:20:00,METAR EGKB 281120Z 29013KT 260V330 9999 SCT048 08/M02 Q1024,0,13,0,10000,0,0,0,
2026-03-28 10:50:00,METAR EGKB 281050Z 30012KT 280V340 9999 SCT040 07/M02 Q1024,0,12,0,10000,0,0,0,
2026-03-28 10:20:00,METAR EGKB 281020Z 32013KT 290V350 9999 SCT037 07/M01 Q1024,0,13,0,10000,0,0,0,
2026-03-28 09:50:00,METAR EGKB 280950Z 30011KT 270V330 9999 SCT030 07/M00 Q1024,0,11,0,10000,0,0,0,
2026-03-28 09:20:00,METAR EGKB 280920Z 30013KT 270V340 9999 FEW027 06/00 Q1024,0,13,0,10000,0,0,0,
2026-03-28 08:50:00,METAR EGKB 280850Z 30013KT 270V330 CAVOK 06/00 Q1024,1,0,0,9999,0,0,0,
2026-03-28 08:20:00,METAR EGKB 280820Z 28010KT 240V340 CAVOK 05/01 Q1023,1,0,0,9999,0,0,0,
2026-03-28 07:50:00,METAR EGKB 280750Z 28011KT 250V320 CAVOK 04/00 Q1023,1,0,0,9999,0,0,0,
2026-03-28 07:20:00,METAR EGKB 280720Z AUTO 27010KT 240V300 9999 NCD 04/00 Q1023,0,10,0,10000,0,0,0,
2026-03-28 06:50:00,METAR EGKB 280650Z AUTO 27008KT 9999 NCD 03/M00 Q1023,0,8,0,10000,0,0,0,
2026-03-28 06:20:00,METAR EGKB 280620Z AUTO 26005KT 9999 NCD 03/M00 Q1023,0,5,0,10000,0,0,0,
2026-03-28 05:50:00,METAR EGKB 280550Z AUTO 28005KT 9999 NCD 03/M01 Q1022,0,5,0,10000,0,0,0,
2026-03-28 05:20:00,METAR EGKB 280520Z AUTO 29007KT 9999 NCD 03/M00 Q1022,0,7,0,10000,0,0,0,
2026-03-28 04:50:00,METAR EGKB 280450Z AUTO 30008KT 270V330 9999 NCD 04/M00 Q1022,0,8,0,10000,0,0,0,
2026-03-28 04:20:00,METAR EGKB 280420Z AUTO 30007KT 270V330 9999 NCD 04/00 Q1022,0,7,0,10000,0,0,0,
2026-03-28 03:50:00,METAR EGKB 280350Z AUTO 30009KT 270V330 9999 NCD 04/01 Q1021,0,9,0,10000,0,0,0,
2026-03-28 03:20:00,METAR EGKB 280320Z AUTO 29010KT 9999 NCD 05/01 Q1021,0,10,0,10000,0,0,0,
2026-03-28 02:50:00,METAR EGKB 280250Z AUTO 28007KT 9999 NCD 05/02 Q1021,0,7,0,10000,0,0,0,
2026-03-28 02:20:00,METAR EGKB 280220Z AUTO 30008KT 270V330 9999 NCD 06/02 Q1021,0,8,0,10000,0,0,0,
2026-03-28 01:50:00,METAR EGKB 280150Z AUTO 31008KT 9999 NCD 06/02 Q1020,0,8,0,10000,0,0,0,
2026-03-28 01:20:00,METAR EGKB 280120Z AUTO 29007KT 9999 NCD 05/02 Q1020,0,7,0,10000,0,0,0,
2026-03-28 00:50:00,METAR EGKB 280050Z AUTO 29005KT 9999 NCD 06/02 Q1020,0,5,0,10000,0,0,0,
2026-03-28 00:20:00,METAR EGKB 280020Z AUTO 31007KT 9999 NCD 06/02 Q1020,0,7,0,10000,0,0,0,
2026-03-27 23:50:00,METAR EGKB 272350Z AUTO 30009KT 270V330 9999 NCD 07/02 Q1020,0,9,0,10000,0,0,0,
2026-03-27 23:20:00,METAR EGKB 272320Z AUTO 29007KT 260V320 9999 BKN048/// 07/03 Q1019,0,7,0,10000,0,0,0,
2026-03-27 22:50:00,METAR EGKB 272250Z 30006KT 9999 BKN042 08/04 Q1019,0,6,0,10000,0,0,0,
2026-03-27 22:20:00,METAR EGKB 272220Z 31006KT 9999 SCT035 08/05 Q1019,0,6,0,10000,0,0,0,
2026-03-27 21:50:00,METAR EGKB 272150Z 31009KT 9999 SCT025 08/04 Q1019,0,9,0,10000,0,0,0,
2026-03-27 21:20:00,METAR EGKB 272120Z 30008KT 270V340 9999 BKN035 08/05 Q1018,0,8,0,10000,0,0,0,
2026-03-27 20:50:00,METAR EGKB 272050Z 28008KT 9999 SCT015 08/07 Q1018,0,8,0,10000,0,0,0,
2026-03-27 20:20:00,METAR EGKB 272020Z COR 28007KT 240V320 9999 -DZ BKN015 09/08 Q1018,0,7,0,10000,0,0,0,DZ
2026-03-27 19:50:00,METAR EGKB 271950Z 31010KT 290V350 7000 -RADZ BKN008 09/08 Q1018,0,10,0,7000,0,0,0,"-RA,DZ"
2026-03-27 19:20:00,METAR EGKB 271920Z 24008KT 9999 SCT010 10/10 Q1017,0,8,0,10000,0,0,0,
2026-03-27 18:50:00,METAR EGKB 271850Z 24009KT 9999 SCT010 10/10 Q1017,0,9,0,10000,0,0,0,
2026-03-27 18:20:00,METAR EGKB 271820Z 23009KT 9999 SCT010 SCT025 10/10 Q1017,0,9,0,10000,0,0,0,
2026-03-27 17:50:00,METAR EGKB 271750Z 23009KT 9999 BKN010 10/10 Q1017,0,9,0,10000,0,0,0,
2026-03-27 17:20:00,METAR EGKB 271720Z 23012KT 9999 BKN006 10/10 Q1017,0,12,0,10000,0,0,0,
2026-03-27 16:50:00,METAR EGKB 271650Z 23012KT 9000 BKN007 10/10 Q1017,0,12,0,9000,0,0,0,
2026-03-27 16:20:00,METAR EGKB 271620Z 22012KT 6000 -RA BKN010 10/09 Q1017,0,12,0,6000,0,0,0,-RA
2026-03-25 14:50:00,METAR EGKB 251450Z 29018G31KT 250V330 9999 VCSH FEW010CB 03/01 Q1011 RESHRA SHGS,0,18,1,9999,0,0,0,"GS,RA,SH,VC"
2026-03-25 14:20:00,METAR EGKB 251420Z 31017G28KT 260V330 9999 VCSH NSC 08/M06 Q1010,0,17,1,10000,0,0,0,"SH,VC"
2026-03-25 13:50:00,METAR EGKB 251350Z 30016G29KT 270V330 9999 VCSH NSC 08/M05 Q1010,0,16,1,10000,0,0,0,"SH,VC"
2026-03-25 13:20:00,METAR EGKB 251320Z 31015G25KT 270V340 9999 VCSH SCT045 08/M04 Q1009,0,15,1,10000,0,0,0,"SH,VC"
2026-03-25 12:50:00,METAR EGKB 251250Z 30019G30KT 260V330 9999 VCSH SCT045 08/M04 Q1009,0,19,1,10000,0,0,0,"SH,VC"
2026-03-25 12:20:00,METAR EGKB 251220Z 30017G28KT 270V330 9999 SCT045 08/M03 Q1009,0,17,1,10000,0,0,0,
2026-03-25 11:50:00,METAR EGKB 251150Z 31019G29KT 270V350 9999 SCT045 07/M03 Q1009,0,19,1,10000,0,0,0,
2026-03-25 11:20:00,METAR EGKB 251120Z 30018KT 9999 SCT034 07/M01 Q1009,0,18,0,10000,0,0,0,
2026-03-25 10:50:00,METAR EGKB 251050Z 30016G27KT 270V330 9999 VCSH BKN030 06/00 Q1009,0,16,1,10000,0,0,0,"SH,VC"
2026-03-25 10:20:00,METAR EGKB 251020Z 31021G33KT 270V340 9999 VCSH BKN028 06/01 Q1009,0,21,1,10000,0,0,0,"SH,VC"
2026-03-25 09:50:00,METAR EGKB 250950Z 30014KT 260V350 9999 VCSH BKN020 06/02 Q1008,0,14,0,10000,0,0,0,"SH,VC"
2026-03-25 09:20:00,METAR EGKB 250920Z 28015G27KT 240V320 9999 -SHRA SCT010 BKN022 05/02 Q1008 RESHRA,0,15,1,10000,0,0,0,RA
2026-03-25 08:50:00,METAR EGKB 250850Z 29014KT 260V330 9999 SHRA BKN017 05/02 Q1007,0,14,0,10000,0,0,0,"RA,SH"
2026-03-25 08:20:00,METAR EGKB 250820Z 30014KT 9999 VCSH BKN018 06/02 Q1007,0,14,0,10000,0,0,0,"SH,VC"
2026-03-25 07:50:00,METAR EGKB 250750Z 30010KT 270V340 9999 VCSH BKN020 05/03 Q1006,0,10,0,10000,0,0,0,"SH,VC"
2026-03-25 07:20:00,METAR EGKB 250720Z 28012KT 260V330 9999 -DZ BKN020 05/03 Q1006,0,12,0,10000,0,0,0,DZ
2026-03-25 06:50:00,METAR EGKB 250650Z 27010KT 9999 -DZ BKN020 05/03 Q1005,0,10,0,10000,0,0,0,DZ
2026-03-25 06:20:00,METAR EGKB 250620Z 27012KT 9999 BKN030 05/02 Q1005,0,12,0,10000,0,0,0,
2026-03-25 05:50:00,METAR EGKB 250550Z AUTO 26012KT 230V290 9999 OVC024/// 05/02 Q1004,0,12,0,10000,0,0,0,
2026-03-25 05:20:00,METAR EGKB 250520Z AUTO 27012KT 240V310 9999 BKN024/// 05/02 Q1004,0,12,0,10000,0,0,0,
2026-03-25 04:50:00,METAR EGKB 250450Z AUTO 26013KT 230V290 9999 BKN030/// 05/02 Q1004,0,13,0,10000,0,0,0,
2026-03-25 04:20:00,METAR EGKB 250420Z AUTO 26015KT 9999 SCT030/// 05/02 Q1003,0,15,0,10000,0,0,0,
2026-03-25 03:50:00,METAR EGKB 250350Z AUTO 26014KT 9999 SCT036/// 05/02 Q1003,0,14,0,10000,0,0,0,
2026-03-25 03:20:00,METAR EGKB 250320Z AUTO 25014KT 9999 NCD 06/02 Q1003,0,14,0,10000,0,0,0,
2026-03-25 02:50:00,METAR EGKB 250250Z AUTO 26014KT 9999 NCD 06/02 Q1003,0,14,0,10000,0,0,0,
2026-03-25 02:20:00,METAR EGKB 250220Z AUTO 26015KT 9999 NCD 06/02 Q1003,0,15,0,10000,0,0,0,
2026-03-25 01:50:00,METAR EGKB 250150Z AUTO 26015KT 9999 NCD 06/02 Q1003,0,15,0,10000,0,0,0,
2026-03-25 01:20:00,METAR EGKB 250120Z AUTO 26017G28KT 9999 NCD 06/02 Q1003,0,17,1,10000,0,0,0,
2026-03-25 00:50:00,METAR EGKB 250050Z AUTO 25018KT 9999 NCD 07/01 Q1003,0,18,0,10000,0,0,0,
2026-03-25 00:20:00,METAR EGKB 250020Z AUTO 26019G32KT 9999 NCD 07/02 Q1003,0,19,1,10000,0,0,0,
2026-03-24 23:50:00,METAR EGKB 242350Z AUTO 26022G35KT 9999 NCD 07/02 Q1003,0,22,1,10000,0,0,0,
2026-03-24 23:20:00,METAR EGKB 242320Z AUTO 25019G29KT 9999 FEW023/// 08/05 Q1003,0,19,1,10000,0,0,0,
2026-03-24 22:50:00,METAR EGKB 242250Z 25020G35KT 9999 FEW024 08/06 Q1002,0,20,1,10000,0,0,0,
2026-03-24 22:20:00,METAR EGKB 242220Z 25023G38KT 9999 SCT007 09/06 Q1003,0,23,1,10000,0,0,0,
2026-03-24 21:50:00,METAR EGKB 242150Z 22020G33KT 7000 -RADZ BKN007 10/09 Q1002,0,20,1,7000,0,0,0,"-RA,DZ"
2026-03-24 21:20:00,METAR EGKB 242120Z 22021G32KT 190V250 6000 -RA BKN007 09/09 Q1003,0,21,1,6000,0,0,0,-RA
2026-03-24 20:50:00,METAR EGKB 242050Z 22020KT 6000 -RADZ BKN008 09/09 Q1004,0,20,0,6000,0,0,0,"-RA,DZ"
2026-03-24 20:20:00,METAR EGKB 242020Z 22021G34KT 9999 -RADZ BKN012 09/08 Q1004,0,21,1,10000,0,0,0,"-RA,DZ"
2026-03-24 19:50:00,METAR EGKB 241950Z 22024G36KT 9999 -RADZ BKN009 09/08 Q1005,0,24,1,10000,0,0,0,"-RA,DZ"
2026-03-24 19:20:00,METAR EGKB 241920Z 22021G34KT 9000 -RADZ BKN008 09/09 Q1006,0,21,1,9000,0,0,0,"-RA,DZ"
2026-03-24 18:50:00,METAR EGKB 241850Z 22025G36KT 9000 -RADZ BKN008 09/09 Q1006,0,25,1,9000,0,0,0,"-RA,DZ"
2026-03-24 18:20:00,METAR EGKB 241820Z 23023G35KT 8000 -DZ BKN008 09/09 Q1007,0,23,1,8000,0,0,0,DZ
2026-03-24 17:50:00,METAR EGKB 241750Z 22019G30KT 200V260 9000 4000S -DZ BKN007 10/09 Q1008,0,19,1,9000,0,0,0,DZ
2026-03-24 17:20:00,METAR EGKB 241720Z 22019KT 190V250 9999 4000S -DZ BKN009 10/09 Q1008,0,19,0,10000,0,0,0,DZ
2026-03-24 16:50:00,METAR EGKB 241650Z 22022G36KT 180V240 9999 BKN011 10/08 Q1009,0,22,1,10000,0,0,0,
2026-03-24 16:20:00,METAR EGKB 241620Z 22018KT 190V250 9999 BKN010 10/08 Q1010,0,18,0,10000,0,0,0,
2026-03-24 15:50:00,METAR EGKB 241550Z 21021G33KT 190V250 9999 BKN008 10/08 Q1010,0,21,1,10000,0,0,0,
2026-03-24 15:20:00,METAR EGKB 241520Z 21020G34KT 9999 BKN009 10/08 Q1011,0,20,1,10000,0,0,0,
2026-03-24 14:50:00,METAR EGKB 241450Z 22020G34KT 9999 BKN011 10/08 Q1011,0,20,1,10000,0,0,0,
2026-03-24 14:20:00,METAR EGKB 241420Z 22018G28KT 9999 BKN011 10/08 Q1012,0,18,1,10000,0,0,0,
2026-03-24 13:50:00,METAR EGKB 241350Z 22017KT 9999 BKN011 11/08 Q1013,0,17,0,10000,0,0,0,
2026-03-24 13:20:00,METAR EGKB 241320Z 22017KT 180V240 9999 BKN011 11/08 Q1013,0,17,0,10000,0,0,0,
2026-03-24 12:50:00,METAR EGKB 241250Z 22013G24KT 9999 BKN014 11/08 Q1014,0,13,1,10000,0,0,0,
2026-03-24 12:20:00,METAR EGKB 241220Z 22016G26KT 9999 BKN015 11/08 Q1014,0,16,1,10000,0,0,0,
2026-03-24 11:50:00,METAR EGKB 241150Z 22015KT 9999 BKN012 11/08 Q1015,0,15,0,10000,0,0,0,
2026-03-24 11:20:00,METAR EGKB 241120Z 22015KT 9999 BKN012 11/08 Q1015,0,15,0,10000,0,0,0,
2026-03-24 10:50:00,METAR EGKB 241050Z 23015KT 9999 BKN014 11/08 Q1016,0,15,0,10000,0,0,0,
2026-03-24 10:20:00,METAR EGKB 241020Z 22014KT 190V250 9999 BKN014 11/08 Q1016,0,14,0,10000,0,0,0,
2026-03-24 09:50:00,METAR EGKB 240950Z 23016KT 9999 BKN012 10/08 Q1016,0,16,0,10000,0,0,0,
2026-03-24 09:20:00,METAR EGKB 240920Z 22016KT 9999 BKN011 10/08 Q1016,0,16,0,10000,0,0,0,
2026-03-24 08:50:00,METAR EGKB 240850Z 22013G23KT 190V250 9999 SCT011 10/07 Q1017,0,13,1,10000,0,0,0,
2026-03-24 08:20:00,METAR EGKB 240820Z 22014KT 9000 SCT010 09/07 Q1017,0,14,0,9000,0,0,0,
2026-03-24 07:50:00,METAR EGKB 240750Z 22013KT 180V240 7000 SCT009 09/07 Q1017,0,13,0,7000,0,0,0,
2026-03-24 07:20:00,METAR EGKB 240720Z 22012KT 5000 BKN008 08/07 Q1017,0,12,0,5000,0,0,0,
2026-03-24 06:50:00,METAR EGKB 240650Z 21013KT 180V240 3000 BR BKN007 08/07 Q1017,0,13,0,3000,0,0,1,BR
2026-03-24 06:20:00,METAR EGKB 240620Z 22010KT 2500 BR BKN010 08/07 Q1017,0,10,0,2500,0,0,1,BR
2026-03-24 05:50:00,METAR EGKB 240550Z AUTO 23009KT 200V270 6000 OVC006/// 08/07 Q1017,0,9,0,6000,0,0,0,
2026-03-24 05:20:00,METAR EGKB 240520Z AUTO 21010KT 6000 OVC006/// 08/07 Q1017,0,10,0,6000,0,0,0,
2026-03-24 04:50:00,METAR EGKB 240450Z AUTO 21012KT 6000 BKN006/// 08/07 Q1017,0,12,0,6000,0,0,0,
2026-03-24 04:20:00,METAR EGKB 240420Z AUTO 22011KT 5000 BR BKN006/// 08/07 Q1018,0,11,0,5000,0,0,1,BR
2026-03-24 03:50:00,METAR EGKB 240350Z AUTO 21011KT 5000 BR FEW006/// 08/07 Q1018,0,11,0,5000,0,0,1,BR
2026-03-24 03:20:00,METAR EGKB 240320Z AUTO 22011KT 5000 BR NCD 08/07 Q1018,0,11,0,5000,0,0,1,BR
2026-03-24 02:50:00,METAR EGKB 240250Z AUTO 23010KT 6000 FEW007/// 08/07 Q1018,0,10,0,6000,0,0,0,
2026-03-24 02:20:00,METAR EGKB 240220Z AUTO 22012KT 6000 NCD 08/07 Q1018,0,12,0,6000,0,0,0,
2026-03-24 01:50:00,METAR EGKB 240150Z AUTO 22012KT 6000 NCD 08/07 Q1019,0,12,0,6000,0,0,0,
2026-03-24 01:20:00,METAR EGKB 240120Z AUTO 22011KT 7000 NCD 08/06 Q1019,0,11,0,7000,0,0,0,
2026-03-24 00:50:00,METAR EGKB 240050Z AUTO 22012KT 7000 NCD 08/06 Q1019,0,12,0,7000,0,0,0,
2026-03-24 00:20:00,METAR EGKB 240020Z AUTO 23011KT 7000 NCD 08/06 Q1019,0,11,0,7000,0,0,0,
2026-03-23 23:50:00,METAR EGKB 232350Z AUTO 23010KT 200V260 8000 NCD 08/06 Q1019,0,10,0,8000,0,0,0,
2026-03-23 23:20:00,METAR EGKB 232320Z AUTO 22010KT 9000 NCD 08/06 Q1019,0,10,0,9000,0,0,0,
2026-03-23 22:50:00,METAR EGKB 232250Z 21008KT 8000 NSC 08/06 Q1020,0,8,0,8000,0,0,0,
2026-03-23 22:20:00,METAR EGKB 232220Z 22010KT CAVOK 08/05 Q1020,1,0,0,9999,0,0,0,
2026-03-23 21:50:00,METAR EGKB 232150Z 21009KT CAVOK 09/06 Q1020,1,0,0,9999,0,0,0,
2026-03-23 21:20:00,METAR EGKB 232120Z 22008KT CAVOK 09/06 Q1020,1,0,0,9999,0,0,0,
2026-03-23 20:50:00,METAR EGKB 232050Z 22008KT CAVOK 09/06 Q1020,1,0,0,9999,0,0,0,
2026-03-23 20:20:00,METAR EGKB 232020Z 21008KT CAVOK 09/05 Q1020,1,0,0,9999,0,0,0,
2026-03-23 19:50:00,METAR EGKB 231950Z 21008KT CAVOK 09/05 Q1020,1,0,0,9999,0,0,0,
2026-03-23 19:20:00,METAR EGKB 231920Z 20008KT CAVOK 09/04 Q1020,1,0,0,9999,0,0,0,
2026-03-23 18:50:00,METAR EGKB 231850Z 20008KT 170V230 CAVOK 10/04 Q1020,1,0,0,9999,0,0,0,
2026-03-23 18:20:00,METAR EGKB 231820Z 20008KT 9000 NSC 10/04 Q1020,0,8,0,9000,0,0,0,
2026-03-23 17:50:00,METAR EGKB 231750Z 20008KT 9000 NSC 10/04 Q1020,0,8,0,9000,0,0,0,
2026-03-23 17:20:00,METAR EGKB 231720Z 19009KT 9000 NSC 11/05 Q1020,0,9,0,9000,0,0,0,
2026-03-23 16:50:00,METAR EGKB 231650Z 21008KT 9000 NSC 12/05 Q1020,0,8,0,9000,0,0,0,
2026-03-23 16:20:00,METAR EGKB 231620Z 22007KT 190V250 9000 NSC 12/04 Q1020,0,7,0,9000,0,0,0,
2026-03-23 15:50:00,METAR EGKB 231550Z 23007KT 9000 NSC 13/04 Q1020,0,7,0,9000,0,0,0,
2026-03-23 15:20:00,METAR EGKB 231520Z 23007KT 200V270 9000 NSC 13/05 Q1020,0,7,0,9000,0,0,0,
2026-03-23 14:50:00,METAR EGKB 231450Z 23008KT 200V260 CAVOK 13/03 Q1020,1,0,0,9999,0,0,0,
2026-03-23 14:20:00,METAR EGKB 231420Z 23007KT 190V270 CAVOK 13/05 Q1020,1,0,0,9999,0,0,0,
2026-03-23 13:50:00,METAR EGKB 231350Z 22006KT 170V260 9000 NSC 13/04 Q1020,0,6,0,9000,0,0,0,
2026-03-23 13:20:00,METAR EGKB 231320Z 22006KT 170V280 8000 NSC 13/05 Q1021,0,6,0,8000,0,0,0,
2026-03-23 12:50:00,METAR EGKB 231250Z VRB05KT 8000 NSC 12/03 Q1021,0,5,0,8000,0,0,0,
2026-03-23 12:20:00,METAR EGKB 231220Z 23006KT 160V260 8000 NSC 12/03 Q1021,0,6,0,8000,0,0,0,
2026-03-23 11:50:00,METAR EGKB 231150Z 22005KT 170V290 8000 NSC 12/04 Q1021,0,5,0,8000,0,0,0,
2026-03-23 11:20:00,METAR EGKB 231120Z VRB02KT 8000 NSC 11/04 Q1021,0,2,0,8000,0,0,0,
2026-03-23 10:50:00,METAR EGKB 231050Z VRB02KT 6000 NSC 11/05 Q1021,0,2,0,6000,0,0,0,
2026-03-23 10:20:00,METAR EGKB 231020Z VRB01KT 6000 NSC 10/04 Q1021,0,1,0,6000,0,0,0,
2026-03-23 09:50:00,METAR EGKB 230950Z VRB02KT 6000 NSC 09/05 Q1021,0,2,0,6000,0,0,0,
2026-03-23 09:20:00,METAR EGKB 230920Z VRB02KT 6000 NSC 08/05 Q1021,0,2,0,6000,0,0,0,
2026-03-23 08:50:00,METAR EGKB 230850Z VRB02KT 6000 NSC 08/05 Q1021,0,2,0,6000,0,0,0,
2026-03-23 08:20:00,METAR EGKB 230820Z 33003KT 7000 NSC 07/04 Q1021,0,3,0,7000,0,0,0,
2026-03-23 07:50:00,METAR EGKB 230750Z VRB01KT 7000 NSC 06/03 Q1021,0,1,0,7000,0,0,0,
2026-03-23 07:20:00,METAR EGKB 230720Z VRB01KT 5000 BR NSC 05/04 Q1020,0,1,0,5000,0,0,1,BR
2026-03-23 06:50:00,METAR EGKB 230650Z VRB01KT 5000 BR NSC 05/03 Q1020,0,1,0,5000,0,0,1,BR
2026-03-23 06:20:00,METAR EGKB 230620Z 25002KT 6000 BR NSC 04/03 Q1020,0,2,0,6000,0,0,1,BR
2026-03-23 05:50:00,METAR EGKB 230550Z AUTO 23002KT 4300 BR NCD 04/03 Q1019,0,2,0,4300,0,0,1,BR
2026-03-23 05:20:00,METAR EGKB 230520Z AUTO VRB02KT 6000 NCD 04/03 Q1019,0,2,0,6000,0,0,0,
2026-03-23 04:50:00,METAR EGKB 230450Z AUTO VRB02KT 5000 BR NCD 04/03 Q1019,0,2,0,5000,0,0,1,BR
2026-03-23 04:20:00,METAR EGKB 230420Z AUTO 23001KT 5000 BR NCD 04/03 Q1018,0,1,0,5000,0,0,1,BR
2026-03-23 03:50:00,METAR EGKB 230350Z AUTO VRB02KT 5000 BR NCD 05/03 Q1018,0,2,0,5000,0,0,1,BR
2026-03-23 03:20:00,METAR EGKB 230320Z AUTO VRB02KT 6000 NCD 05/04 Q1018,0,2,0,6000,0,0,0,
2026-03-23 02:50:00,METAR EGKB 230250Z AUTO 22002KT 5000 BR NCD 05/03 Q1018,0,2,0,5000,0,0,1,BR
2026-03-23 02:20:00,METAR EGKB 230220Z AUTO 21002KT 6000 NCD 04/03 Q1018,0,2,0,6000,0,0,0,
2026-03-23 01:50:00,METAR EGKB 230150Z AUTO 22002KT 6000 NCD 05/03 Q1018,0,2,0,6000,0,0,0,
2026-03-23 01:20:00,METAR EGKB 230120Z AUTO 24002KT 7000 NCD 05/03 Q1019,0,2,0,7000,0,0,0,
2026-03-23 00:50:00,METAR EGKB 230050Z AUTO 03001KT 8000 NCD 05/03 Q1019,0,1,0,8000,0,0,0,
2026-03-23 00:20:00,METAR EGKB 230020Z AUTO VRB02KT 8000 NCD 05/03 Q1018,0,2,0,8000,0,0,0,
2026-03-22 23:50:00,METAR EGKB 222350Z AUTO 07002KT 8000 NCD 06/04 Q1018,0,2,0,8000,0,0,0,
2026-03-22 23:20:00,METAR EGKB 222320Z AUTO 31002KT 9999 NCD 07/04 Q1018,0,2,0,10000,0,0,0,
2026-03-22 22:50:00,METAR EGKB 222250Z AUTO 23002KT 9999 NCD 07/04 Q1018,0,2,0,10000,0,0,0,
2026-03-22 22:20:00,METAR EGKB 222220Z AUTO VRB01KT 9999 NCD 07/04 Q1018,0,1,0,10000,0,0,0,
2026-03-22 21:50:00,METAR EGKB 222150Z 08002KT CAVOK 07/04 Q1017,1,0,0,9999,0,0,0,
2026-03-22 21:20:00,METAR EGKB 222120Z VRB02KT CAVOK 08/04 Q1017,1,0,0,9999,0,0,0,
2026-03-22 20:50:00,METAR EGKB 222050Z VRB01KT CAVOK 08/04 Q1017,1,0,0,9999,0,0,0,
2026-03-22 20:20:00,METAR EGKB 222020Z 00000KT CAVOK 08/04 Q1017,1,0,0,9999,0,0,0,
2026-03-22 19:50:00,METAR EGKB 221950Z 08003KT CAVOK 08/04 Q1017,1,0,0,9999,0,0,0,
2026-03-22 19:20:00,METAR EGKB 221920Z 10004KT CAVOK 08/04 Q1016,1,0,0,9999,0,0,0,
2026-03-22 18:50:00,METAR EGKB 221850Z 09003KT CAVOK 09/04 Q1016,1,0,0,9999,0,0,0,
2026-03-22 18:20:00,METAR EGKB 221820Z 07003KT CAVOK 09/04 Q1016,1,0,0,9999,0,0,0,
2026-03-22 17:50:00,METAR EGKB 221750Z 07004KT CAVOK 10/04 Q1016,1,0,0,9999,0,0,0,
2026-03-22 17:20:00,METAR EGKB 221720Z 06004KT CAVOK 10/05 Q1016,1,0,0,9999,0,0,0,
2026-03-22 16:50:00,METAR EGKB 221650Z 02006KT 350V050 CAVOK 10/04 Q1016,1,0,0,9999,0,0,0,
2026-03-22 16:20:00,METAR EGKB 221620Z 36005KT 320V040 CAVOK 11/02 Q1015,1,0,0,9999,0,0,0,
2026-03-22 15:50:00,METAR EGKB 221550Z 36005KT 310V030 CAVOK 11/03 Q1015,1,0,0,9999,0,0,0,
2026-03-22 15:20:00,METAR EGKB 221520Z 35006KT 310V010 CAVOK 11/02 Q1015,1,0,0,9999,0,0,0,
2026-03-22 14:50:00,METAR EGKB 221450Z 34006KT 300V060 9999 FEW035 11/02 Q1015,0,6,0,10000,0,0,0,
2026-03-22 14:20:00,METAR EGKB 221420Z 03005KT 350V050 9999 FEW032 11/03 Q1015,0,5,0,10000,0,0,0,
2026-03-22 13:50:00,METAR EGKB 221350Z 05006KT 350V100 CAVOK 11/04 Q1015,1,0,0,9999,0,0,0,
2026-03-22 13:20:00,METAR EGKB 221320Z 05005KT 330V110 CAVOK 11/04 Q1015,1,0,0,9999,0,0,0,
2026-03-22 12:50:00,METAR EGKB 221250Z VRB04KT CAVOK 11/04 Q1016,1,0,0,9999,0,0,0,
2026-03-22 12:20:00,METAR EGKB 221220Z 03004KT 340V090 CAVOK 10/05 Q1016,1,0,0,9999,0,0,0,
2026-03-22 11:50:00,METAR EGKB 221150Z 06006KT 360V150 9999 FEW030 09/03 Q1016,0,6,0,10000,0,0,0,
2026-03-22 11:20:00,METAR EGKB 221120Z 05005KT 360V110 9999 FEW020 08/03 Q1016,0,5,0,10000,0,0,0,
2026-03-22 10:50:00,METAR EGKB 221050Z 03005KT 350V050 9000 SCT019 09/04 Q1016,0,5,0,9000,0,0,0,
2026-03-22 10:20:00,METAR EGKB 221020Z 09007KT 050V110 6000 SCT010 07/03 Q1016,0,7,0,6000,0,0,0,
2026-03-22 09:50:00,METAR EGKB 220950Z COR 05004KT 360V090 6000 BKN005 07/05 Q1017,0,4,0,6000,0,0,0,
2026-03-22 09:20:00,METAR EGKB 220920Z 02005KT 350V050 3000 BR BKN003 05/04 Q1017,0,5,0,3000,0,0,1,BR
2026-03-22 08:50:00,METAR EGKB 220850Z 36004KT 330V050 1800 BR BKN003 05/04 Q1017,0,4,0,1800,0,0,1,BR
2026-03-22 08:20:00,METAR EGKB 220820Z 36004KT 320V030 1800 BR BKN003 04/04 Q1016,0,4,0,1800,0,0,1,BR
2026-03-22 07:50:00,METAR EGKB 220750Z 01003KT 330V050 2000 BR BKN003 03/03 Q1016,0,3,0,2000,0,0,1,BR
2026-03-22 07:20:00,METAR EGKB 220720Z AUTO VRB02KT 5000 BR BKN003/// 03/03 Q1016,0,2,0,5000,0,0,1,BR
2026-03-22 06:50:00,METAR EGKB 220650Z AUTO 02005KT 5000 BR OVC002/// 03/02 Q1016,0,5,0,5000,0,0,1,BR
2026-03-22 06:20:00,METAR EGKB 220620Z AUTO 06005KT 020V090 0650 FG VV/// 02/02 Q1016,0,5,0,1045850,0,0,1,FG
2026-03-22 05:50:00,METAR EGKB 220550Z AUTO 06004KT 030V090 0600 FG VV/// 02/02 Q1016,0,4,0,965400,0,0,1,FG
2026-03-22 05:20:00,METAR EGKB 220520Z AUTO 05004KT 1000 FG VV/// 02/02 Q1016,0,4,0,1000,0,0,1,FG
2026-03-22 04:50:00,METAR EGKB 220450Z AUTO 01003KT 320V050 0650 FG VV/// 02/02 Q1016,0,3,0,1045850,0,0,1,FG
2026-03-22 04:20:00,METAR EGKB 220420Z AUTO 04005KT 3000 BR OVC002/// 03/03 Q1016,0,5,0,3000,0,0,1,BR
2026-03-22 03:50:00,METAR EGKB 220350Z AUTO 03005KT 010V070 2700 BR OVC002/// 03/03 Q1016,0,5,0,2700,0,0,1,BR
2026-03-22 03:20:00,METAR EGKB 220320Z AUTO 04005KT 4600 BR BKN002/// 03/02 Q1016,0,5,0,4600,0,0,1,BR
2026-03-22 02:50:00,METAR EGKB 220250Z AUTO 02005KT 360V060 2700 BR OVC002/// 03/02 Q1016,0,5,0,2700,0,0,1,BR
2026-03-22 02:20:00,METAR EGKB 220220Z AUTO 04002KT 4100 BR BKN002/// 03/02 Q1016,0,2,0,4100,0,0,1,BR
2026-03-22 01:50:00,METAR EGKB 220150Z AUTO 01003KT 330V030 7000 BKN003/// 03/02 Q1016,0,3,0,7000,0,0,0,
2026-03-22 01:20:00,METAR EGKB 220120Z AUTO 03004KT 7000 BKN003/// 03/02 Q1017,0,4,0,7000,0,0,0,
2026-03-22 00:50:00,METAR EGKB 220050Z AUTO 08004KT 040V120 9000 BKN004/// 03/03 Q1017,0,4,0,9000,0,0,0,
2026-03-22 00:20:00,METAR EGKB 220020Z AUTO VRB01KT 8000 BKN003/// 03/03 Q1017,0,1,0,8000,0,0,0,
2026-03-21 23:50:00,METAR EGKB 212350Z AUTO 05003KT 350V080 9000 BKN003/// 03/03 Q1017,0,3,0,9000,0,0,0,
2026-03-21 23:20:00,METAR EGKB 212320Z AUTO 10004KT 9999 NCD 04/03 Q1017,0,4,0,10000,0,0,0,
2026-03-21 22:50:00,METAR EGKB 212250Z AUTO 08005KT 050V110 9999 NCD 03/02 Q1017,0,5,0,10000,0,0,0,
2026-03-21 22:20:00,METAR EGKB 212220Z AUTO 09003KT 9999 NCD 04/03 Q1018,0,3,0,10000,0,0,0,
2026-03-21 21:50:00,METAR EGKB 212150Z 07004KT CAVOK 04/03 Q1018,1,0,0,9999,0,0,0,
2026-03-21 21:20:00,METAR EGKB 212120Z 07005KT CAVOK 05/03 Q1018,1,0,0,9999,0,0,0,
2026-03-21 20:50:00,METAR EGKB 212050Z 08006KT CAVOK 05/03 Q1018,1,0,0,9999,0,0,0,
2026-03-21 20:20:00,METAR EGKB 212020Z 07005KT CAVOK 06/02 Q1018,1,0,0,9999,0,0,0,
2026-03-21 19:50:00,METAR EGKB 211950Z 09005KT CAVOK 06/01 Q1018,1,0,0,9999,0,0,0,
2026-03-21 19:20:00,METAR EGKB 211920Z 07004KT CAVOK 07/01 Q1018,1,0,0,9999,0,0,0,
2026-03-21 18:50:00,METAR EGKB 211850Z 06005KT CAVOK 08/01 Q1018,1,0,0,9999,0,0,0,
2026-03-21 18:20:00,METAR EGKB 211820Z 06005KT CAVOK 08/00 Q1018,1,0,0,9999,0,0,0,
2026-03-21 17:50:00,METAR EGKB 211750Z 06006KT CAVOK 09/M01 Q1018,1,0,0,9999,0,0,0,
2026-03-21 17:20:00,METAR EGKB 211720Z 07007KT CAVOK 10/M01 Q1017,1,0,0,9999,0,0,0,
2026-03-21 16:50:00,METAR EGKB 211650Z 05009KT CAVOK 10/01 Q1018,1,0,0,9999,0,0,0,
2026-03-21 16:20:00,METAR EGKB 211620Z 05009KT 020V090 CAVOK 11/00 Q1018,1,0,0,9999,0,0,0,
2026-03-21 15:50:00,METAR EGKB 211550Z 06007KT 030V110 CAVOK 11/M01 Q1018,1,0,0,9999,0,0,0,
2026-03-21 14:50:00,METAR EGKB 211450Z 05008KT 010V080 CAVOK 11/M02 Q1018,1,0,0,9999,0,0,0,
2026-03-21 14:20:00,METAR EGKB 211420Z 07009KT 020V100 CAVOK 11/M02 Q1018,1,0,0,9999,0,0,0,
2026-03-21 13:50:00,METAR EGKB 211350Z 05007KT 010V100 CAVOK 11/01 Q1018,1,0,0,9999,0,0,0,
2026-03-21 13:20:00,METAR EGKB 211320Z 07008KT 030V110 CAVOK 10/01 Q1019,1,0,0,9999,0,0,0,
2026-03-21 12:50:00,METAR EGKB 211250Z 07008KT 030V100 CAVOK 09/01 Q1019,1,0,0,9999,0,0,0,
2026-03-21 12:20:00,METAR EGKB 211220Z 06006KT 010V140 CAVOK 09/03 Q1019,1,0,0,9999,0,0,0,
2026-03-21 11:50:00,METAR EGKB 211150Z 05007KT 360V130 9999 FEW016 08/03 Q1020,0,7,0,10000,0,0,0,
2026-03-21 11:20:00,METAR EGKB 211120Z 04007KT 010V070 9999 FEW010 07/03 Q1020,0,7,0,10000,0,0,0,
2026-03-21 10:50:00,METAR EGKB 211050Z 02008KT 9999 SCT007 06/04 Q1020,0,8,0,10000,0,0,0,
2026-03-21 10:20:00,METAR EGKB 211020Z COR 05007KT 9000 BKN007 05/05 Q1020,0,7,0,9000,0,0,0,
2026-03-21 09:50:00,METAR EGKB 210950Z 03006KT 340V080 1800 BR BKN002 05/04 Q1020,0,6,0,1800,0,0,1,BR
2026-03-21 09:20:00,METAR EGKB 210920Z 04007KT 0400 R21/1000D FG OVC002 04/04 Q1020,0,7,0,643600,0,0,1,FG
2026-03-21 08:50:00,METAR EGKB 210850Z 05007KT 0300 R21/0600N FG VV/// 04/04 Q1020,0,7,0,482700,0,0,1,FG
2026-03-21 08:20:00,METAR EGKB 210820Z 03006KT 0300 R21/0550N FG VV/// 03/03 Q1020,0,6,0,482700,0,0,1,FG
2026-03-21 07:50:00,METAR EGKB 210750Z 03006KT 0250 R21/0350N FG VV/// 03/03 Q1020,0,6,0,402250,0,0,1,FG
2026-03-21 07:20:00,METAR EGKB 210720Z AUTO 02005KT 0250 FG VV/// 03/02 Q1020,0,5,0,402250,0,0,1,FG
2026-03-21 06:50:00,METAR EGKB 210650Z AUTO 04003KT 0300 FG VV/// 02/02 Q1020,0,3,0,482700,0,0,1,FG
2026-03-21 06:20:00,METAR EGKB 210620Z AUTO 04002KT 0500 FG VV/// 02/02 Q1020,0,2,0,804500,0,0,1,FG
2026-03-21 05:50:00,METAR EGKB 210550Z AUTO 00000KT 0700 FG VV/// 02/01 Q1020,0,0,0,1126300,0,0,1,FG
2026-03-21 05:20:00,METAR EGKB 210520Z AUTO 02003KT 3800 NCD 01/01 Q1019,0,3,0,3800,0,0,0,
2026-03-21 04:50:00,METAR EGKB 210450Z AUTO 35003KT 9999 NCD 02/02 Q1019,0,3,0,10000,0,0,0,
2026-03-21 04:20:00,METAR EGKB 210420Z AUTO 05002KT 9999 NCD 02/02 Q1019,0,2,0,10000,0,0,0,
2026-03-21 03:50:00,METAR EGKB 210350Z AUTO 09002KT 9999 NCD 02/02 Q1019,0,2,0,10000,0,0,0,
2026-03-21 03:20:00,METAR EGKB 210320Z AUTO 08003KT 9000 NCD 02/02 Q1019,0,3,0,9000,0,0,0,
2026-03-21 02:50:00,METAR EGKB 210250Z AUTO 05001KT 6000 NCD 02/02 Q1020,0,1,0,6000,0,0,0,
2026-03-21 02:20:00,METAR EGKB 210220Z AUTO 05003KT 7000 NCD 03/03 Q1020,0,3,0,7000,0,0,0,
2026-03-21 01:50:00,METAR EGKB 210150Z AUTO 05004KT 8000 NCD 03/03 Q1020,0,4,0,8000,0,0,0,
2026-03-21 01:20:00,METAR EGKB 210120Z AUTO 05003KT 8000 NCD 03/03 Q1020,0,3,0,8000,0,0,0,
2026-03-21 00:50:00,METAR EGKB 210050Z AUTO 06005KT 9999 NCD 04/03 Q1020,0,5,0,10000,0,0,0,
2026-03-21 00:20:00,METAR EGKB 210020Z AUTO 06005KT 9999 NCD 04/03 Q1020,0,5,0,10000,0,0,0,
2026-03-20 23:50:00,METAR EGKB 202350Z AUTO 07006KT 9999 NCD 04/04 Q1020,0,6,0,10000,0,0,0,
2026-03-20 23:20:00,METAR EGKB 202320Z AUTO 06006KT 9999 NCD 05/04 Q1020,0,6,0,10000,0,0,0,
2026-03-20 22:50:00,METAR EGKB 202250Z 06008KT CAVOK 05/04 Q1020,1,0,0,9999,0,0,0,
2026-03-20 22:20:00,METAR EGKB 202220Z 07006KT CAVOK 05/05 Q1021,1,0,0,9999,0,0,0,
2026-03-20 21:50:00,METAR EGKB 202150Z 08004KT CAVOK 05/04 Q1021,1,0,0,9999,0,0,0,
2026-03-20 21:20:00,METAR EGKB 202120Z 08005KT CAVOK 06/04 Q1021,1,0,0,9999,0,0,0,
2026-03-20 20:50:00,METAR EGKB 202050Z 08005KT CAVOK 06/05 Q1021,1,0,0,9999,0,0,0,
2026-03-20 20:20:00,METAR EGKB 202020Z 07005KT CAVOK 06/05 Q1021,1,0,0,9999,0,0,0,
2026-03-20 19:50:00,METAR EGKB 201950Z 07004KT CAVOK 07/04 Q1021,1,0,0,9999,0,0,0,
2026-03-20 19:20:00,METAR EGKB 201920Z 05005KT CAVOK 07/03 Q1021,1,0,0,9999,0,0,0,
2026-03-20 18:50:00,METAR EGKB 201850Z 06006KT CAVOK 08/02 Q1021,1,0,0,9999,0,0,0,
2026-03-20 18:20:00,METAR EGKB 201820Z 07006KT CAVOK 09/01 Q1021,1,0,0,9999,0,0,0,
2026-03-20 17:50:00,METAR EGKB 201750Z 07008KT CAVOK 09/01 Q1020,1,0,0,9999,0,0,0,
2026-03-20 17:20:00,METAR EGKB 201720Z 06008KT CAVOK 10/03 Q1020,1,0,0,9999,0,0,0,
2026-03-20 16:50:00,METAR EGKB 201650Z 07009KT CAVOK 11/05 Q1020,1,0,0,9999,0,0,0,
2026-03-20 16:20:00,METAR EGKB 201620Z 05010KT CAVOK 11/05 Q1020,1,0,0,9999,0,0,0,
2026-03-20 15:50:00,METAR EGKB 201550Z 05011KT CAVOK 11/05 Q1021,1,0,0,9999,0,0,0,
2026-03-20 15:20:00,METAR EGKB 201520Z 08010KT CAVOK 11/05 Q1021,1,0,0,9999,0,0,0,
2026-03-20 14:50:00,METAR EGKB 201450Z 08009KT CAVOK 11/05 Q1021,1,0,0,9999,0,0,0,
2026-03-20 14:20:00,METAR EGKB 201420Z 07009KT CAVOK 12/05 Q1021,1,0,0,9999,0,0,0,
2026-03-20 13:50:00,METAR EGKB 201350Z 06008KT 030V100 CAVOK 11/04 Q1021,1,0,0,9999,0,0,0,
2026-03-20 13:20:00,METAR EGKB 201320Z 05010KT CAVOK 11/05 Q1022,1,0,0,9999,0,0,0,
2026-03-20 12:50:00,METAR EGKB 201250Z 04008KT 360V080 CAVOK 11/05 Q1022,1,0,0,9999,0,0,0,
2026-03-20 12:20:00,METAR EGKB 201220Z 05008KT 020V090 CAVOK 11/05 Q1022,1,0,0,9999,0,0,0,
2026-03-20 11:50:00,METAR EGKB 201150Z 03008KT 360V070 9000 NSC 10/05 Q1023,0,8,0,9000,0,0,0,
2026-03-20 11:20:00,METAR EGKB 201120Z 05008KT 9000 NSC 09/04 Q1023,0,8,0,9000,0,0,0,
2026-03-20 10:50:00,METAR EGKB 201050Z 04007KT 360V080 9000 NSC 09/05 Q1023,0,7,0,9000,0,0,0,
2026-03-20 10:20:00,METAR EGKB 201020Z 05007KT 9000 NSC 08/05 Q1023,0,7,0,9000,0,0,0,
2026-03-20 09:50:00,METAR EGKB 200950Z 04006KT 020V080 9000 NSC 08/05 Q1023,0,6,0,9000,0,0,0,
2026-03-20 09:20:00,METAR EGKB 200920Z 04006KT 9000 NSC 07/05 Q1023,0,6,0,9000,0,0,0,
2026-03-20 08:50:00,METAR EGKB 200850Z 04006KT 9000 NSC 06/04 Q1023,0,6,0,9000,0,0,0,
2026-03-20 08:20:00,METAR EGKB 200820Z 04006KT 8000 NSC 05/04 Q1023,0,6,0,8000,0,0,0,
2026-03-20 07:50:00,METAR EGKB 200750Z VRB02KT 8000 NSC 05/03 Q1023,0,2,0,8000,0,0,0,
2026-03-20 07:20:00,METAR EGKB 200720Z 16002KT 8000 NSC 03/01 Q1023,0,2,0,8000,0,0,0,
2026-03-20 06:50:00,METAR EGKB 200650Z VRB01KT 8000 NSC 03/01 Q1023,0,1,0,8000,0,0,0,
2026-03-20 06:20:00,METAR EGKB 200620Z 04001KT 8000 NSC 02/01 Q1023,0,1,0,8000,0,0,0,
2026-03-20 05:50:00,METAR EGKB 200550Z AUTO 04003KT 8000 NCD 02/01 Q1023,0,3,0,8000,0,0,0,
2026-03-20 05:20:00,METAR EGKB 200520Z AUTO 00000KT 8000 NCD 03/01 Q1023,0,0,0,8000,0,0,0,
2026-03-20 04:50:00,METAR EGKB 200450Z AUTO 05002KT 8000 NCD 02/00 Q1023,0,2,0,8000,0,0,0,
2026-03-20 04:20:00,METAR EGKB 200420Z AUTO 04002KT 9000 NCD 03/01 Q1023,0,2,0,9000,0,0,0,
2026-03-20 03:50:00,METAR EGKB 200350Z AUTO 00000KT 8000 NCD 04/01 Q1023,0,0,0,8000,0,0,0,
2026-03-20 03:20:00,METAR EGKB 200320Z AUTO 00000KT 9000 NCD 04/02 Q1023,0,0,0,9000,0,0,0,
2026-03-20 02:50:00,METAR EGKB 200250Z AUTO 00000KT 9999 NCD 04/01 Q1023,0,0,0,10000,0,0,0,
2026-03-20 02:20:00,METAR EGKB 200220Z AUTO VRB02KT 9999 NCD 03/01 Q1023,0,2,0,10000,0,0,0,
2026-03-20 01:50:00,METAR EGKB 200150Z AUTO 10002KT 9999 NCD 04/02 Q1024,0,2,0,10000,0,0,0,
2026-03-20 01:20:00,METAR EGKB 200120Z AUTO 08003KT 9999 NCD 05/02 Q1024,0,3,0,10000,0,0,0,
2026-03-20 00:50:00,METAR EGKB 200050Z AUTO 09003KT 9999 NCD 05/02 Q1024,0,3,0,10000,0,0,0,
2026-03-20 00:20:00,METAR EGKB 200020Z AUTO 06005KT 9000 NCD 05/03 Q1024,0,5,0,9000,0,0,0,
2026-03-19 23:50:00,METAR EGKB 192350Z AUTO 07005KT 9000 NCD 06/03 Q1025,0,5,0,9000,0,0,0,
2026-03-19 23:20:00,METAR EGKB 192320Z AUTO 07005KT 9999 NCD 06/03 Q1025,0,5,0,10000,0,0,0,
2026-03-19 22:50:00,METAR EGKB 192250Z 04007KT CAVOK 06/03 Q1025,1,0,0,9999,0,0,0,
2026-03-19 22:20:00,METAR EGKB 192220Z 06004KT CAVOK 07/02 Q1025,1,0,0,9999,0,0,0,
2026-03-19 21:50:00,METAR EGKB 192150Z 06004KT CAVOK 07/02 Q1025,1,0,0,9999,0,0,0,
2026-03-19 21:20:00,METAR EGKB 192120Z 06004KT CAVOK 08/02 Q1025,1,0,0,9999,0,0,0,
2026-03-19 20:50:00,METAR EGKB 192050Z 08005KT CAVOK 08/02 Q1025,1,0,0,9999,0,0,0,
2026-03-19 20:20:00,METAR EGKB 192020Z 07006KT CAVOK 08/02 Q1025,1,0,0,9999,0,0,0,
2026-03-19 19:50:00,METAR EGKB 191950Z 07006KT CAVOK 08/02 Q1025,1,0,0,9999,0,0,0,
2026-03-19 19:20:00,METAR EGKB 191920Z 07006KT CAVOK 09/02 Q1025,1,0,0,9999,0,0,0,
2026-03-19 18:50:00,METAR EGKB 191850Z 06006KT CAVOK 09/01 Q1025,1,0,0,9999,0,0,0,
2026-03-19 18:20:00,METAR EGKB 191820Z 07005KT CAVOK 11/01 Q1025,1,0,0,9999,0,0,0,
2026-03-19 17:50:00,METAR EGKB 191750Z 08006KT CAVOK 11/01 Q1025,1,0,0,9999,0,0,0,
2026-03-19 17:20:00,METAR EGKB 191720Z 07010KT CAVOK 12/01 Q1025,1,0,0,9999,0,0,0,
2026-03-19 16:50:00,METAR EGKB 191650Z 06011KT 030V090 CAVOK 13/02 Q1025,1,0,0,9999,0,0,0,
2026-03-19 16:20:00,METAR EGKB 191620Z 06010KT 030V100 CAVOK 13/02 Q1025,1,0,0,9999,0,0,0,
2026-03-19 15:50:00,METAR EGKB 191550Z 04013KT CAVOK 13/01 Q1025,1,0,0,9999,0,0,0,
2026-03-19 15:20:00,METAR EGKB 191520Z 07009KT 040V110 CAVOK 14/02 Q1025,1,0,0,9999,0,0,0,
2026-03-19 14:50:00,METAR EGKB 191450Z 07009KT CAVOK 15/02 Q1025,1,0,0,9999,0,0,0,
2026-03-19 14:20:00,METAR EGKB 191420Z 06011KT CAVOK 15/02 Q1025,1,0,0,9999,0,0,0,
2026-03-19 13:50:00,METAR EGKB 191350Z 07010KT 040V100 CAVOK 15/03 Q1025,1,0,0,9999,0,0,0,
2026-03-19 13:20:00,METAR EGKB 191320Z 07009KT 030V110 CAVOK 15/03 Q1026,1,0,0,9999,0,0,0,
2026-03-19 12:50:00,METAR EGKB 191250Z 06010KT 030V090 CAVOK 14/04 Q1026,1,0,0,9999,0,0,0,
2026-03-19 12:20:00,METAR EGKB 191220Z 05012KT CAVOK 15/05 Q1027,1,0,0,9999,0,0,0,
2026-03-19 11:50:00,METAR EGKB 191150Z 06011KT 030V090 CAVOK 14/06 Q1027,1,0,0,9999,0,0,0,
2026-03-19 11:20:00,METAR EGKB 191120Z 04010KT 010V070 CAVOK 13/06 Q1027,1,0,0,9999,0,0,0,
2026-03-19 10:50:00,METAR EGKB 191050Z 04008KT 010V080 CAVOK 13/07 Q1027,1,0,0,9999,0,0,0,
2026-03-19 10:20:00,METAR EGKB 191020Z 05007KT 030V090 CAVOK 12/06 Q1027,1,0,0,9999,0,0,0,
2026-03-19 09:50:00,METAR EGKB 190950Z 06005KT 010V090 CAVOK 11/06 Q1027,1,0,0,9999,0,0,0,
2026-03-19 09:20:00,METAR EGKB 190920Z 05006KT 020V080 CAVOK 09/06 Q1027,1,0,0,9999,0,0,0,
2026-03-19 08:50:00,METAR EGKB 190850Z 07006KT 050V110 CAVOK 08/06 Q1027,1,0,0,9999,0,0,0,
2026-03-19 08:20:00,METAR EGKB 190820Z 05006KT 9000 NSC 07/05 Q1027,0,6,0,9000,0,0,0,
2026-03-19 07:50:00,METAR EGKB 190750Z 04005KT 7000 NSC 06/04 Q1027,0,5,0,7000,0,0,0,
2026-03-19 07:20:00,METAR EGKB 190720Z 01006KT CAVOK 05/04 Q1027,1,0,0,9999,0,0,0,
2026-03-19 06:50:00,METAR EGKB 190650Z 09005KT CAVOK 06/04 Q1026,1,0,0,9999,0,0,0,
2026-03-19 06:20:00,METAR EGKB 190620Z 10006KT CAVOK 05/03 Q1026,1,0,0,9999,0,0,0,
2026-03-19 05:50:00,METAR EGKB 190550Z AUTO 08006KT 9999 NCD 05/03 Q1026,0,6,0,10000,0,0,0,
2026-03-19 05:20:00,METAR EGKB 190520Z AUTO 08004KT 9999 NCD 05/04 Q1026,0,4,0,10000,0,0,0,
2026-03-19 04:50:00,METAR EGKB 190450Z AUTO 08004KT 9000 NCD 05/04 Q1025,0,4,0,9000,0,0,0,
2026-03-19 04:20:00,METAR EGKB 190420Z AUTO 05003KT 9999 NCD 05/03 Q1025,0,3,0,10000,0,0,0,
2026-03-19 03:50:00,METAR EGKB 190350Z AUTO 09003KT 9999 NCD 05/03 Q1025,0,3,0,10000,0,0,0,
2026-03-19 03:20:00,METAR EGKB 190320Z AUTO 09004KT 8000 NCD 05/04 Q1025,0,4,0,8000,0,0,0,
2026-03-19 02:50:00,METAR EGKB 190250Z AUTO 08005KT 8000 NCD 05/05 Q1025,0,5,0,8000,0,0,0,
2026-03-19 02:20:00,METAR EGKB 190220Z AUTO 09005KT 7000 NCD 05/04 Q1025,0,5,0,7000,0,0,0,
2026-03-19 01:50:00,METAR EGKB 190150Z AUTO 07006KT 8000 NCD 05/05 Q1025,0,6,0,8000,0,0,0,
2026-03-19 01:20:00,METAR EGKB 190120Z AUTO 06005KT 9999 NCD 05/04 Q1025,0,5,0,10000,0,0,0,
2026-03-19 00:50:00,METAR EGKB 190050Z AUTO 05005KT 9999 NCD 05/04 Q1025,0,5,0,10000,0,0,0,
2026-03-19 00:20:00,METAR EGKB 190020Z AUTO 09005KT 9999 NCD 06/04 Q1025,0,5,0,10000,0,0,0,
2026-03-18 23:50:00,METAR EGKB 182350Z AUTO 08005KT 9999 NCD 06/04 Q1025,0,5,0,10000,0,0,0,
2026-03-18 23:20:00,METAR EGKB 182320Z AUTO 07005KT 9999 NCD 06/04 Q1025,0,5,0,10000,0,0,0,
2026-03-18 22:50:00,METAR EGKB 182250Z 07005KT CAVOK 06/03 Q1025,1,0,0,9999,0,0,0,
2026-03-18 22:20:00,METAR EGKB 182220Z 07004KT CAVOK 07/03 Q1025,1,0,0,9999,0,0,0,
2026-03-18 21:50:00,METAR EGKB 182150Z 07005KT CAVOK 07/04 Q1025,1,0,0,9999,0,0,0,
2026-03-18 21:20:00,METAR EGKB 182120Z 08007KT CAVOK 07/03 Q1024,1,0,0,9999,0,0,0,
2026-03-18 20:50:00,METAR EGKB 182050Z 07009KT CAVOK 07/03 Q1024,1,0,0,9999,0,0,0,
2026-03-18 20:20:00,METAR EGKB 182020Z 06007KT CAVOK 08/03 Q1024,1,0,0,9999,0,0,0,
2026-03-18 19:50:00,METAR EGKB 181950Z 07006KT CAVOK 08/02 Q1024,1,0,0,9999,0,0,0,
2026-03-18 19:20:00,METAR EGKB 181920Z 08006KT CAVOK 09/03 Q1024,1,0,0,9999,0,0,0,
2026-03-18 18:50:00,METAR EGKB 181850Z 06006KT CAVOK 09/03 Q1023,1,0,0,9999,0,0,0,
2026-03-18 18:20:00,METAR EGKB 181820Z 05007KT CAVOK 09/03 Q1023,1,0,0,9999,0,0,0,
2026-03-18 17:50:00,METAR EGKB 181750Z 05008KT CAVOK 11/04 Q1023,1,0,0,9999,0,0,0,
2026-03-18 17:20:00,METAR EGKB 181720Z 05009KT CAVOK 12/04 Q1022,1,0,0,9999,0,0,0,
2026-03-18 16:50:00,METAR EGKB 181650Z 06010KT CAVOK 13/05 Q1022,1,0,0,9999,0,0,0,
2026-03-18 16:20:00,METAR EGKB 181620Z 06011KT CAVOK 14/07 Q1021,1,0,0,9999,0,0,0,
2026-03-18 15:50:00,METAR EGKB 181550Z 05010KT CAVOK 14/07 Q1021,1,0,0,9999,0,0,0,
2026-03-18 15:20:00,METAR EGKB 181520Z 07009KT 030V120 CAVOK 15/07 Q1021,1,0,0,9999,0,0,0,
2026-03-18 14:50:00,METAR EGKB 181450Z 12010KT CAVOK 16/05 Q1021,1,0,0,9999,0,0,0,
2026-03-18 14:20:00,METAR EGKB 181420Z 12010KT 080V140 CAVOK 16/04 Q1021,1,0,0,9999,0,0,0,
2026-03-18 13:50:00,METAR EGKB 181350Z 12009KT 090V150 CAVOK 15/03 Q1021,1,0,0,9999,0,0,0,
2026-03-18 13:20:00,METAR EGKB 181320Z 12008KT 080V150 CAVOK 16/04 Q1021,1,0,0,9999,0,0,0,
2026-03-18 12:50:00,METAR EGKB 181250Z 15007KT 090V180 CAVOK 15/04 Q1021,1,0,0,9999,0,0,0,
2026-03-18 12:20:00,METAR EGKB 181220Z 14009KT 090V170 CAVOK 15/06 Q1021,1,0,0,9999,0,0,0,
2026-03-18 11:50:00,METAR EGKB 181150Z 13010KT CAVOK 15/05 Q1021,1,0,0,9999,0,0,0,
2026-03-18 11:20:00,METAR EGKB 181120Z 14012KT 100V170 CAVOK 14/05 Q1021,1,0,0,9999,0,0,0,
2026-03-18 10:50:00,METAR EGKB 181050Z 13012KT CAVOK 14/05 Q1021,1,0,0,9999,0,0,0,
2026-03-18 10:20:00,METAR EGKB 181020Z 15010KT CAVOK 13/06 Q1021,1,0,0,9999,0,0,0,
2026-03-18 09:50:00,METAR EGKB 180950Z 15013KT CAVOK 12/06 Q1021,1,0,0,9999,0,0,0,
2026-03-18 09:20:00,METAR EGKB 180920Z 14012KT CAVOK 12/06 Q1021,1,0,0,9999,0,0,0,
2026-03-18 08:50:00,METAR EGKB 180850Z 15011KT CAVOK 11/07 Q1020,1,0,0,9999,0,0,0,
2026-03-18 08:20:00,METAR EGKB 180820Z 14012KT CAVOK 10/06 Q1020,1,0,0,9999,0,0,0,
2026-03-18 07:50:00,METAR EGKB 180750Z 14013KT CAVOK 10/07 Q1020,1,0,0,9999,0,0,0,
2026-03-18 07:20:00,METAR EGKB 180720Z 14012KT CAVOK 09/06 Q1020,1,0,0,9999,0,0,0,
2026-03-18 06:50:00,METAR EGKB 180650Z 14010KT CAVOK 08/06 Q1019,1,0,0,9999,0,0,0,
2026-03-18 06:20:00,METAR EGKB 180620Z 13010KT CAVOK 08/06 Q1019,1,0,0,9999,0,0,0,
2026-03-18 05:50:00,METAR EGKB 180550Z AUTO 13009KT 9999 NCD 08/06 Q1018,0,9,0,10000,0,0,0,
2026-03-18 05:20:00,METAR EGKB 180520Z AUTO 12009KT 9999 NCD 07/06 Q1018,0,9,0,10000,0,0,0,
2026-03-18 04:50:00,METAR EGKB 180450Z AUTO 12008KT 9999 NCD 08/06 Q1018,0,8,0,10000,0,0,0,
2026-03-18 04:20:00,METAR EGKB 180420Z AUTO 13006KT 9999 NCD 08/06 Q1017,0,6,0,10000,0,0,0,
2026-03-18 03:50:00,METAR EGKB 180350Z AUTO 11003KT 070V170 9999 NCD 09/05 Q1017,0,3,0,10000,0,0,0,
2026-03-18 03:20:00,METAR EGKB 180320Z AUTO 10003KT 070V150 9999 NCD 09/05 Q1017,0,3,0,10000,0,0,0,
2026-03-18 02:50:00,METAR EGKB 180250Z AUTO 08004KT 050V120 9999 NCD 09/06 Q1017,0,4,0,10000,0,0,0,
2026-03-18 02:20:00,METAR EGKB 180220Z AUTO 13003KT 070V170 9999 NCD 09/06 Q1017,0,3,0,10000,0,0,0,
2026-03-18 01:50:00,METAR EGKB 180150Z AUTO 14003KT 080V220 9999 NCD 09/06 Q1016,0,3,0,10000,0,0,0,
2026-03-18 01:20:00,METAR EGKB 180120Z AUTO 08003KT 040V120 9999 NCD 09/05 Q1016,0,3,0,10000,0,0,0,
2026-03-18 00:50:00,METAR EGKB 180050Z AUTO 03003KT 9999 NCD 09/06 Q1016,0,3,0,10000,0,0,0,
2026-03-18 00:20:00,METAR EGKB 180020Z AUTO VRB02KT 9999 NCD 09/06 Q1016,0,2,0,10000,0,0,0,
2026-03-17 23:50:00,METAR EGKB 172350Z AUTO VRB02KT 9999 NCD 10/06 Q1016,0,2,0,10000,0,0,0,
2026-03-17 23:20:00,METAR EGKB 172320Z AUTO VRB02KT 9999 NCD 10/06 Q1016,0,2,0,10000,0,0,0,
2026-03-17 22:50:00,METAR EGKB 172250Z 12003KT 070V160 CAVOK 10/06 Q1016,1,0,0,9999,0,0,0,
2026-03-17 22:20:00,METAR EGKB 172220Z 09003KT 050V150 CAVOK 10/06 Q1016,1,0,0,9999,0,0,0,
2026-03-17 21:50:00,METAR EGKB 172150Z 17006KT 140V210 CAVOK 10/06 Q1015,1,0,0,9999,0,0,0,
2026-03-17 21:20:00,METAR EGKB 172120Z 17006KT 140V210 CAVOK 10/06 Q1015,1,0,0,9999,0,0,0,
2026-03-17 20:50:00,METAR EGKB 172050Z 17009KT 140V210 CAVOK 10/06 Q1015,1,0,0,9999,0,0,0,
2026-03-17 20:20:00,METAR EGKB 172020Z 17010KT CAVOK 10/06 Q1015,1,0,0,9999,0,0,0,
2026-03-17 19:50:00,METAR EGKB 171950Z 16008KT CAVOK 10/05 Q1015,1,0,0,9999,0,0,0,
2026-03-17 19:20:00,METAR EGKB 171920Z 15005KT CAVOK 10/06 Q1015,1,0,0,9999,0,0,0,
2026-03-17 18:50:00,METAR EGKB 171850Z 13005KT CAVOK 10/06 Q1015,1,0,0,9999,0,0,0,
2026-03-17 18:20:00,METAR EGKB 171820Z 19005KT 150V230 CAVOK 10/06 Q1015,1,0,0,9999,0,0,0,
2026-03-17 17:50:00,METAR EGKB 171750Z 17007KT 140V200 CAVOK 11/06 Q1015,1,0,0,9999,0,0,0,
2026-03-17 17:20:00,METAR EGKB 171720Z 19010KT CAVOK 11/06 Q1015,1,0,0,9999,0,0,0,
2026-03-17 16:50:00,METAR EGKB 171650Z 19010KT 160V230 CAVOK 12/06 Q1015,1,0,0,9999,0,0,0,
2026-03-17 16:20:00,METAR EGKB 171620Z 19007KT 120V240 CAVOK 12/05 Q1015,1,0,0,9999,0,0,0,
2026-03-17 15:50:00,METAR EGKB 171550Z 18011KT 150V220 CAVOK 12/05 Q1015,1,0,0,9999,0,0,0,
2026-03-17 14:50:00,METAR EGKB 171450Z 19012KT 140V220 CAVOK 13/06 Q1015,1,0,0,9999,0,0,0,
2026-03-17 14:20:00,METAR EGKB 171420Z 19012KT 160V220 CAVOK 13/07 Q1015,1,0,0,9999,0,0,0,
2026-03-17 13:50:00,METAR EGKB 171350Z 20012KT CAVOK 12/07 Q1015,1,0,0,9999,0,0,0,
2026-03-17 13:20:00,METAR EGKB 171320Z 18014KT 150V210 CAVOK 13/07 Q1016,1,0,0,9999,0,0,0,
2026-03-17 12:50:00,METAR EGKB 171250Z 20012KT 9999 FEW022 12/07 Q1016,0,12,0,10000,0,0,0,
2026-03-17 12:20:00,METAR EGKB 171220Z 19013KT 160V230 9999 FEW016 12/07 Q1016,0,13,0,10000,0,0,0,
2026-03-17 11:50:00,METAR EGKB 171150Z 19012KT 160V230 9999 SCT016 11/07 Q1016,0,12,0,10000,0,0,0,
2026-03-17 11:20:00,METAR EGKB 171120Z 20012KT 170V230 9999 SCT016 11/07 Q1016,0,12,0,10000,0,0,0,
2026-03-17 10:50:00,METAR EGKB 171050Z 20012KT 150V230 9999 BKN014 10/07 Q1016,0,12,0,10000,0,0,0,
2026-03-17 10:20:00,METAR EGKB 171020Z 20009G19KT 150V240 9999 BKN013 09/07 Q1017,0,9,1,10000,0,0,0,
2026-03-17 09:50:00,METAR EGKB 170950Z 20011KT 9000 BKN011 09/07 Q1016,0,11,0,9000,0,0,0,
2026-03-17 09:20:00,METAR EGKB 170920Z 20010KT 170V230 9000 BKN014 08/07 Q1017,0,10,0,9000,0,0,0,
2026-03-17 08:50:00,METAR EGKB 170850Z 20010KT 9000 BKN006 08/07 Q1017,0,10,0,9000,0,0,0,
2026-03-17 08:20:00,METAR EGKB 170820Z 21012KT 8000 BKN007 08/07 Q1016,0,12,0,8000,0,0,0,
2026-03-17 07:50:00,METAR EGKB 170750Z 20013KT 8000 BKN007 08/07 Q1016,0,13,0,8000,0,0,0,
2026-03-17 07:20:00,METAR EGKB 170720Z 20012KT 170V230 9000 3000S -DZ BKN006 08/07 Q1016,0,12,0,9000,0,0,0,DZ
2026-03-17 06:50:00,METAR EGKB 170650Z 21012KT 9000 3000S -DZ BR BKN006 08/07 Q1016,0,12,0,9000,0,0,1,"BR,DZ"
2026-03-17 06:20:00,METAR EGKB 170620Z 21014KT 170V230 8000 -DZ BKN006 08/07 Q1016,0,14,0,8000,0,0,0,DZ
2026-03-17 05:50:00,METAR EGKB 170550Z AUTO 21015KT 9999 -RA OVC007/// 08/07 Q1016,0,15,0,10000,0,0,0,-RA
2026-03-17 05:20:00,METAR EGKB 170520Z AUTO 21015KT 9999 OVC009/// 08/07 Q1016,0,15,0,10000,0,0,0,
2026-03-17 04:50:00,METAR EGKB 170450Z AUTO 22016KT 9999 OVC010/// 08/07 Q1016,0,16,0,10000,0,0,0,
2026-03-17 04:20:00,METAR EGKB 170420Z AUTO 22014G24KT 9999 BKN010/// 08/07 Q1016,0,14,1,10000,0,0,0,
2026-03-17 03:50:00,METAR EGKB 170350Z AUTO 22012KT 9999 -RA OVC009/// 08/07 Q1016,0,12,0,10000,0,0,0,-RA
2026-03-17 03:20:00,METAR EGKB 170320Z AUTO 22011KT 190V250 9999 OVC009/// 09/07 Q1016,0,11,0,10000,0,0,0,
2026-03-17 02:50:00,METAR EGKB 170250Z AUTO 22013KT 9999 OVC008/// 09/07 Q1016,0,13,0,10000,0,0,0,
2026-03-17 02:20:00,METAR EGKB 170220Z AUTO 22012KT 190V250 9999 -RA OVC007/// 09/08 Q1017,0,12,0,10000,0,0,0,-RA
2026-03-17 01:50:00,METAR EGKB 170150Z AUTO 22011KT 180V240 9999 -RA OVC007/// 09/08 Q1017,0,11,0,10000,0,0,0,-RA
2026-03-17 01:20:00,METAR EGKB 170120Z AUTO 23014KT 9999 -RA OVC009/// 09/07 Q1017,0,14,0,10000,0,0,0,-RA
2026-03-17 00:50:00,METAR EGKB 170050Z AUTO 23013KT 200V260 9999 -RA OVC008/// 09/07 Q1017,0,13,0,10000,0,0,0,-RA
2026-03-17 00:20:00,METAR EGKB 170020Z AUTO 22015KT 190V250 9999 -RA OVC007/// 09/08 Q1017,0,15,0,10000,0,0,0,-RA
2026-03-16 23:50:00,METAR EGKB 162350Z AUTO 23014KT 190V250 9999 -RA OVC007/// 09/08 Q1017,0,14,0,10000,0,0,0,-RA
2026-03-16 23:20:00,METAR EGKB 162320Z AUTO 22013KT 9999 OVC007/// 09/08 Q1017,0,13,0,10000,0,0,0,
2026-03-16 22:50:00,METAR EGKB 162250Z 20012KT 9999 BKN007 09/08 Q1017,0,12,0,10000,0,0,0,
2026-03-16 22:20:00,METAR EGKB 162220Z 21011KT 9999 BKN009 09/07 Q1017,0,11,0,10000,0,0,0,
2026-03-16 21:50:00,METAR EGKB 162150Z 21012KT 9999 BKN010 09/07 Q1017,0,12,0,10000,0,0,0,
2026-03-16 21:20:00,METAR EGKB 162120Z 22009KT 9999 BKN012 09/07 Q1017,0,9,0,10000,0,0,0,
2026-03-16 20:50:00,METAR EGKB 162050Z 22013KT 9999 BKN014 09/07 Q1017,0,13,0,10000,0,0,0,
2026-03-16 20:20:00,METAR EGKB 162020Z 22013KT 9999 SCT015 09/07 Q1017,0,13,0,10000,0,0,0,
2026-03-16 19:50:00,METAR EGKB 161950Z 21012KT 9999 SCT020 09/06 Q1017,0,12,0,10000,0,0,0,
2026-03-16 19:20:00,METAR EGKB 161920Z 22011KT 9999 FEW017 09/06 Q1017,0,11,0,10000,0,0,0,
2026-03-16 18:50:00,METAR EGKB 161850Z 21009KT 180V250 9999 FEW045 09/06 Q1017,0,9,0,10000,0,0,0,
2026-03-16 18:20:00,METAR EGKB 161820Z 22011KT 9999 FEW026 10/06 Q1017,0,11,0,10000,0,0,0,
2026-03-16 17:50:00,METAR EGKB 161750Z 21008KT 9999 FEW020 10/05 Q1017,0,8,0,10000,0,0,0,
2026-03-16 17:20:00,METAR EGKB 161720Z 24007KT 200V260 9999 FEW030 10/05 Q1017,0,7,0,10000,0,0,0,
2026-03-16 16:50:00,METAR EGKB 161650Z 23007KT 200V260 9999 BKN027 10/05 Q1017,0,7,0,10000,0,0,0,
2026-03-16 16:20:00,METAR EGKB 161620Z 24007KT 9999 BKN028 10/05 Q1017,0,7,0,10000,0,0,0,
2026-03-16 15:50:00,METAR EGKB 161550Z 25010KT 9999 BKN029 10/05 Q1017,0,10,0,10000,0,0,0,
2026-03-16 15:20:00,METAR EGKB 161520Z 25010KT 9999 BKN031 11/05 Q1017,0,10,0,10000,0,0,0,
2026-03-16 14:50:00,METAR EGKB 161450Z 25012KT 210V290 9999 BKN030 11/05 Q1017,0,12,0,10000,0,0,0,
2026-03-16 14:20:00,METAR EGKB 161420Z 25011KT 220V280 9999 BKN031 10/04 Q1016,0,11,0,10000,0,0,0,
2026-03-16 13:50:00,METAR EGKB 161350Z 26014KT 9999 BKN033 11/04 Q1016,0,14,0,10000,0,0,0,
2026-03-16 13:20:00,METAR EGKB 161320Z 26014KT 220V280 9999 SCT029 10/03 Q1016,0,14,0,10000,0,0,0,
2026-03-16 12:50:00,METAR EGKB 161250Z 26014KT 9999 SCT030 10/03 Q1016,0,14,0,10000,0,0,0,
2026-03-16 12:20:00,METAR EGKB 161220Z 24012KT 9999 FEW024 10/05 Q1016,0,12,0,10000,0,0,0,
2026-03-16 11:50:00,METAR EGKB 161150Z 24013KT 9999 SCT024 09/05 Q1016,0,13,0,10000,0,0,0,
2026-03-16 11:20:00,METAR EGKB 161120Z 24014KT 210V270 9999 SCT021 09/04 Q1016,0,14,0,10000,0,0,0,
2026-03-16 10:50:00,METAR EGKB 161050Z 25012KT 210V280 9999 SCT020 09/04 Q1016,0,12,0,10000,0,0,0,
2026-03-16 10:20:00,METAR EGKB 161020Z 24010KT 210V270 9999 FEW020 08/04 Q1016,0,10,0,10000,0,0,0,
2026-03-16 09:50:00,METAR EGKB 160950Z 24011KT 210V270 CAVOK 08/04 Q1016,1,0,0,9999,0,0,0,
2026-03-16 09:20:00,METAR EGKB 160920Z 24013KT CAVOK 08/05 Q1015,1,0,0,9999,0,0,0,
2026-03-16 08:50:00,METAR EGKB 160850Z 24011KT CAVOK 07/04 Q1015,1,0,0,9999,0,0,0,
2026-03-16 08:20:00,METAR EGKB 160820Z 23011KT CAVOK 06/03 Q1015,1,0,0,9999,0,0,0,
2026-03-16 07:50:00,METAR EGKB 160750Z 24010KT CAVOK 06/03 Q1015,1,0,0,9999,0,0,0,
2026-03-16 07:20:00,METAR EGKB 160720Z 23009KT CAVOK 05/03 Q1015,1,0,0,9999,0,0,0,
2026-03-16 06:50:00,METAR EGKB 160650Z 23009KT CAVOK 05/03 Q1015,1,0,0,9999,0,0,0,
2026-03-16 06:20:00,METAR EGKB 160620Z 24009KT 210V270 CAVOK 05/02 Q1014,1,0,0,9999,0,0,0,
2026-03-16 05:50:00,METAR EGKB 160550Z AUTO 24009KT 9999 NCD 05/02 Q1014,0,9,0,10000,0,0,0,
2026-03-16 05:20:00,METAR EGKB 160520Z AUTO 24009KT 210V270 9999 NCD 05/02 Q1014,0,9,0,10000,0,0,0,
2026-03-16 04:50:00,METAR EGKB 160450Z AUTO 24009KT 9999 NCD 05/02 Q1013,0,9,0,10000,0,0,0,
2026-03-16 04:20:00,METAR EGKB 160420Z AUTO 24009KT 210V270 9999 FEW031/// 05/01 Q1013,0,9,0,10000,0,0,0,
2026-03-16 03:50:00,METAR EGKB 160350Z AUTO 26011KT 9999 NCD 05/01 Q1013,0,11,0,10000,0,0,0,
2026-03-16 03:20:00,METAR EGKB 160320Z AUTO 25010KT 210V270 9999 NCD 05/01 Q1012,0,10,0,10000,0,0,0,
2026-03-16 02:50:00,METAR EGKB 160250Z AUTO 25010KT 9999 NCD 05/02 Q1012,0,10,0,10000,0,0,0,
2026-03-16 02:20:00,METAR EGKB 160220Z AUTO 26013KT 9999 NCD 05/02 Q1012,0,13,0,10000,0,0,0,
2026-03-16 01:50:00,METAR EGKB 160150Z AUTO 26013KT 9999 NCD 05/02 Q1012,0,13,0,10000,0,0,0,
2026-03-16 01:20:00,METAR EGKB 160120Z AUTO 25014KT 9999 NCD 06/02 Q1012,0,14,0,10000,0,0,0,
2026-03-16 00:50:00,METAR EGKB 160050Z AUTO 25013KT 9999 NCD 06/02 Q1012,0,13,0,10000,0,0,0,
2026-03-16 00:20:00,METAR EGKB 160020Z AUTO 25011KT 9999 NCD 06/03 Q1012,0,11,0,10000,0,0,0,
2026-03-15 23:50:00,METAR EGKB 152350Z AUTO 25014KT 9999 NCD 06/03 Q1012,0,14,0,10000,0,0,0,
2026-03-15 23:20:00,METAR EGKB 152320Z AUTO 25015G29KT 210V290 9999 -RA BKN040/// 06/04 Q1011,0,15,1,10000,0,0,0,-RA
2026-03-15 22:50:00,METAR EGKB 152250Z AUTO 25011KT 9999 NCD 06/03 Q1011,0,11,0,10000,0,0,0,
2026-03-15 22:20:00,METAR EGKB 152220Z AUTO 26014KT 9999 SCT044/// 06/03 Q1011,0,14,0,10000,0,0,0,
2026-03-15 21:50:00,METAR EGKB 152150Z 25012KT CAVOK 06/03 Q1011,1,0,0,9999,0,0,0,
2026-03-15 21:20:00,METAR EGKB 152120Z 24010KT 9999 FEW020 06/04 Q1010,0,10,0,10000,0,0,0,
2026-03-15 20:50:00,METAR EGKB 152050Z 25010KT 9999 SCT020 07/04 Q1010,0,10,0,10000,0,0,0,
2026-03-15 20:20:00,METAR EGKB 152020Z 25011KT 9999 FEW020 SCT040 07/04 Q1010,0,11,0,10000,0,0,0,
2026-03-15 19:50:00,METAR EGKB 151950Z 25013KT 9999 BKN023 07/05 Q1010,0,13,0,10000,0,0,0,
2026-03-15 19:20:00,METAR EGKB 151920Z 25014KT 9999 BKN025 08/05 Q1009,0,14,0,10000,0,0,0,
2026-03-15 18:50:00,METAR EGKB 151850Z 25014KT 9999 SCT020 08/05 Q1009,0,14,0,10000,0,0,0,
2026-03-15 18:20:00,METAR EGKB 151820Z 24013KT 9999 -RADZ SCT005 SCT040 08/06 Q1008,0,13,0,10000,0,0,0,"-RA,DZ"
2026-03-15 17:50:00,METAR EGKB 151750Z 21018KT 3000 BR BKN006 08/07 Q1008 RERA,0,18,0,3000,0,0,1,"BR,RA"
2026-03-15 17:20:00,METAR EGKB 151720Z 21016KT 3000 RA BR BKN007 08/07 Q1008,0,16,0,3000,0,0,1,"BR,RA"
2026-03-15 16:50:00,METAR EGKB 151650Z 21019KT 5000 -RA BR BKN010 08/06 Q1008,0,19,0,5000,0,0,1,"-RA,BR"
2026-03-15 16:20:00,METAR EGKB 151620Z 20020KT 9999 -DZ BKN014 08/06 Q1008,0,20,0,10000,0,0,0,DZ
2026-03-15 15:50:00,METAR EGKB 151550Z 20019G32KT 9999 BKN015 08/05 Q1008,0,19,1,10000,0,0,0,
2026-03-15 15:20:00,METAR EGKB 151520Z 20019G29KT 8000 -DZ BKN019 08/06 Q1009,0,19,1,8000,0,0,0,DZ
2026-03-15 14:50:00,METAR EGKB 151450Z 21020G31KT 180V240 9999 -DZ BKN020 09/05 Q1010,0,20,1,10000,0,0,0,DZ
2026-03-15 14:20:00,METAR EGKB 151420Z 21019G29KT 9999 BKN025 09/04 Q1010,0,19,1,10000,0,0,0,
2026-03-15 13:50:00,METAR EGKB 151350Z 21020G31KT 180V240 9999 BKN029 10/04 Q1011,0,20,1,10000,0,0,0,
2026-03-15 13:20:00,METAR EGKB 151320Z 21019KT 9999 BKN032 10/03 Q1011,0,19,0,10000,0,0,0,
2026-03-15 12:50:00,METAR EGKB 151250Z 22020G33KT 190V250 9999 SCT035 10/03 Q1011,0,20,1,10000,0,0,0,
2026-03-15 12:20:00,METAR EGKB 151220Z 21020G31KT 9999 SCT032 10/03 Q1011,0,20,1,10000,0,0,0,
2026-03-15 11:50:00,METAR EGKB 151150Z 21019KT 9999 SCT032 10/03 Q1012,0,19,0,10000,0,0,0,
2026-03-15 11:20:00,METAR EGKB 151120Z 21016KT 180V240 9999 SCT026 10/04 Q1012,0,16,0,10000,0,0,0,
2026-03-15 10:50:00,METAR EGKB 151050Z 22015KT 9999 SCT020 09/03 Q1013,0,15,0,10000,0,0,0,
2026-03-15 10:20:00,METAR EGKB 151020Z 22015KT 9999 SCT020 08/03 Q1013,0,15,0,10000,0,0,0,
2026-03-15 09:50:00,METAR EGKB 150950Z 20013KT 9999 SCT020 09/03 Q1013,0,13,0,10000,0,0,0,
2026-03-15 09:20:00,METAR EGKB 150920Z 19012KT 9999 FEW013 08/04 Q1013,0,12,0,10000,0,0,0,
2026-03-15 08:50:00,METAR EGKB 150850Z 20010KT 9999 FEW014 07/03 Q1013,0,10,0,10000,0,0,0,
2026-03-15 08:20:00,METAR EGKB 150820Z 21011KT 9999 FEW020 06/02 Q1013,0,11,0,10000,0,0,0,
