Time_recorded,METAR,is_cavok,wind_speed,is_gust,visibility_meters,has_thunderstorm,has_heavy_rain,has_low_vis_fog,other_phenomenon
2026-05-02 14:56:00,METAR KEGE 021456Z 00000KT 10SM CLR 05/M05 A3032 RMK AO2 SLP243 T00501050 51007,0,0.0,0,16090,0,0,0,
2026-05-02 13:56:00,METAR KEGE 021356Z 33003KT 10SM CLR 02/M06 A3032 RMK AO2 SLP242 T00171056,0,3.0,0,16090,0,0,0,
2026-05-02 12:56:00,METAR KEGE 021256Z 00000KT 10SM CLR M02/M06 A3031 RMK AO2 SLP246 T10171056,0,0.0,0,16090,0,0,0,
2026-05-02 11:56:00,METAR KEGE 021156Z AUTO 11004KT 10SM CLR M02/M06 A3030 RMK AO2 SLP240 T10221061 10039 21022 51009 FZRANO,0,4.0,0,16090,0,0,0,
2026-05-02 10:56:00,METAR KEGE 021056Z AUTO 00000KT 10SM CLR M01/M05 A3030 RMK AO2 SLP237 T10111050 FZRANO,0,0.0,0,16090,0,0,0,
2026-05-02 09:56:00,METAR KEGE 020956Z AUTO 11004KT 10SM CLR M01/M06 A3028 RMK AO2 SLP228 T10111056 FZRANO,0,4.0,0,16090,0,0,0,
2026-05-02 08:56:00,METAR KEGE 020856Z AUTO 00000KT 10SM CLR M01/M05 A3027 RMK AO2 SLP226 T10061050 51006 FZRANO,0,0.0,0,16090,0,0,0,
2026-05-02 07:56:00,METAR KEGE 020756Z AUTO 07003KT 10SM CLR 01/M06 A3026 RMK AO2 SLP221 T00111056 FZRANO,0,3.0,0,16090,0,0,0,
2026-05-02 06:56:00,METAR KEGE 020656Z AUTO 13003KT 10SM CLR 03/M06 A3026 RMK AO2 SLP219 T00281056,0,3.0,0,16090,0,0,0,
2026-05-02 05:56:00,METAR KEGE 020556Z AUTO 00000KT 10SM CLR 04/M06 A3024 RMK AO2 SLP215 T00441056 10150 20044 401611006 51021,0,0.0,0,16090,0,0,0,
2026-05-02 04:56:00,METAR KEGE 020456Z AUTO 06005KT 10SM CLR 05/M06 A3022 RMK AO2 SLP211 T00501056,0,5.0,0,16090,0,0,0,
2026-05-02 03:56:00,METAR KEGE 020356Z AUTO 15003KT 10SM CLR 08/M07 A3020 RMK AO2 SLP203 T00781072,0,3.0,0,16090,0,0,0,
2026-05-02 02:56:00,METAR KEGE 020256Z AUTO 06003KT 10SM CLR 09/M08 A3017 RMK AO2 SLP191 T00941083 53018,0,3.0,0,16090,0,0,0,
2026-05-02 01:56:00,METAR KEGE 020156Z AUTO 02009KT 10SM CLR 12/M11 A3014 RMK AO2 SLP176 T01221106,0,9.0,0,16090,0,0,0,
2026-05-02 00:56:00,METAR KEGE 020056Z AUTO 06004KT 10SM CLR 14/M08 A3011 RMK AO2 SLP164 T01391078,0,4.0,0,16090,0,0,0,
2026-05-01 23:56:00,METAR KEGE 012356Z 04007G16KT 10SM SCT090 14/M08 A3011 RMK AO2 WSHFT 2324 SLP163 T01441078 10161 20094 53002,0,7.0,1,16090,0,0,0,
2026-05-01 23:49:00,SPECI KEGE 012349Z 02010G17KT 10SM OVC090 14/M07 A3011 RMK AO2 WSHFT 2324,0,10.0,1,16090,0,0,0,
2026-05-01 22:56:00,METAR KEGE 012256Z 35014G19KT 10SM FEW100 14/M07 A3009 RMK AO2 SLP160 T01441067,0,14.0,1,16090,0,0,0,
2026-05-01 21:56:00,METAR KEGE 012156Z 01007KT 10SM CLR 15/M11 A3010 RMK AO2 SLP160 T01501111,0,7.0,0,16090,0,0,0,
2026-05-01 20:56:00,METAR KEGE 012056Z 14004KT 10SM BKN080 13/M11 A3012 RMK AO2 SLP172 T01331106 56018,0,4.0,0,16090,0,0,0,
2026-05-01 19:56:00,METAR KEGE 011956Z 24007KT 10SM FEW060 SCT090 13/M05 A3013 RMK AO2 SLP180 T01281050,0,7.0,0,16090,0,0,0,
2026-05-01 18:56:00,METAR KEGE 011856Z VRB04KT 10SM CLR 12/M04 A3015 RMK AO2 SLP184 T01171039,0,4.0,0,16090,0,0,0,
2026-05-01 17:56:00,METAR KEGE 011756Z VRB03KT 10SM CLR 09/M03 A3018 RMK AO2 SLP200 T00941033 10094 20000 58006,0,3.0,0,16090,0,0,0,
2026-05-01 16:56:00,METAR KEGE 011656Z 30006KT 10SM BKN044 08/M02 A3019 RMK AO2 SLP208 T00781017,0,6.0,0,16090,0,0,0,
2026-05-01 15:56:00,METAR KEGE 011556Z VRB03KT 10SM BKN046 06/M01 A3019 RMK AO2 SLP211 T00561011,0,3.0,0,16090,0,0,0,
2026-05-01 14:56:00,METAR KEGE 011456Z 00000KT 10SM OVC046 04/M01 A3020 RMK AO2 SLP215 T00391006 51008,0,0.0,0,16090,0,0,0,
2026-05-01 13:56:00,METAR KEGE 011356Z 00000KT 10SM OVC046 02/01 A3019 RMK AO2 SLP216 T00220006,0,0.0,0,16090,0,0,0,
2026-05-01 12:56:00,METAR KEGE 011256Z 11004KT 10SM OVC046 01/M01 A3018 RMK AO2 SLP210 T00111006,0,4.0,0,16090,0,0,0,
2026-05-01 11:56:00,METAR KEGE 011156Z AUTO 06003KT 10SM OVC044 01/M01 A3017 RMK AO2 SLP200 70002 T00061011 10011 21006 53002 FZRANO,0,3.0,0,16090,0,0,0,
2026-05-01 10:56:00,METAR KEGE 011056Z AUTO 10004KT 10SM OVC042 00/M01 A3017 RMK AO2 SLP197 T00001011 FZRANO,0,4.0,0,16090,0,0,0,
2026-05-01 09:56:00,METAR KEGE 010956Z AUTO 07003KT 10SM BKN036 OVC047 00/M01 A3016 RMK AO2 SLP198 T00001011 FZRANO,0,3.0,0,16090,0,0,0,
2026-05-01 08:56:00,METAR KEGE 010856Z AUTO 10004KT 10SM BKN034 00/M01 A3016 RMK AO2 SLP195 T00001011 58003 FZRANO,0,4.0,0,16090,0,0,0,
2026-05-01 07:56:00,METAR KEGE 010756Z AUTO 07004KT 10SM FEW048 M01/M02 A3018 RMK AO2 SLP200 T10061017 FZRANO,0,4.0,0,16090,0,0,0,
2026-05-01 07:39:00,SPECI KEGE 010739Z AUTO 09004KT 10SM FEW018 BKN048 00/M01 A3018 RMK AO2 FZRANO,0,4.0,0,16090,0,0,0,
2026-05-01 07:18:00,SPECI KEGE 010718Z AUTO 08003KT 10SM BKN018 BKN046 OVC100 01/M01 A3018 RMK AO2 FZRANO,0,3.0,0,16090,0,0,0,
2026-05-01 06:56:00,METAR KEGE 010656Z AUTO 12004KT 10SM OVC100 01/M01 A3018 RMK AO2 SLP197 T00111006 FZRANO,0,4.0,0,16090,0,0,0,
2026-05-01 05:56:00,METAR KEGE 010556Z AUTO 08007KT 10SM BKN110 01/00 A3017 RMK AO2 SLP199 60002 T00110000 10089 20011 401171022 51007 FZRANO,0,7.0,0,16090,0,0,0,
2026-05-01 04:56:00,METAR KEGE 010456Z AUTO 17004KT 10SM CLR 02/01 A3017 RMK AO2 SLP197 T00220006 FZRANO,0,4.0,0,16090,0,0,0,
2026-05-01 03:56:00,METAR KEGE 010356Z AUTO 15003KT 10SM SCT095 03/02 A3017 RMK AO2 SLP201 T00280017,0,3.0,0,16090,0,0,0,
2026-05-01 02:56:00,METAR KEGE 010256Z AUTO 32003KT 10SM FEW025 OVC090 04/02 A3015 RMK AO2 RAE11 SLP201 P0000 60002 T00390017 51025,0,3.0,0,16090,0,0,0,
2026-05-01 01:56:00,METAR KEGE 010156Z AUTO 17005KT 10SM -RA FEW017 BKN023 OVC036 04/02 A3013 RMK AO2 RAB19 SLP193 P0002 T00440017,0,5.0,0,16090,0,0,0,-RA
2026-05-01 00:56:00,METAR KEGE 010056Z AUTO 18011KT 10SM OVC050 07/01 A3009 RMK AO2 RAB34E56 SLP183 P0000 T00670006,0,11.0,0,16090,0,0,0,RA
2026-04-30 23:56:00,METAR KEGE 302356Z 10011G22KT 10SM BKN050 OVC060 09/M01 A3006 RMK AO2 SLP166 60000 T00891011 10117 20078 55001,0,11.0,1,16090,0,0,0,
2026-04-30 22:56:00,METAR KEGE 302256Z 10017G22KT 10SM BKN055 11/M01 A3004 RMK AO2 WSHFT 2237 SLP150 T01111006,0,17.0,1,16090,0,0,0,
2026-04-30 21:56:00,METAR KEGE 302156Z 34008KT 10SM FEW055 BKN075 10/M02 A3006 RMK AO2 SLP161 T01001022,0,8.0,0,16090,0,0,0,
2026-04-30 20:56:00,METAR KEGE 302056Z 03010KT 10SM SCT034 BKN047 OVC055 11/00 A3006 RMK AO2 WSHFT 2016 RAB27E55 SLP156 P0000 60000 T01060000 55004,0,10.0,0,16090,0,0,0,RA
2026-04-30 20:41:00,SPECI KEGE 302041Z 35008KT 10SM -RA OVC055 08/01 A3007 RMK AO2 WSHFT 2016 RAB27 P0000,0,8.0,0,16090,0,0,0,-RA
2026-04-30 19:56:00,METAR KEGE 301956Z 13009KT 10SM BKN065 BKN085 11/M02 A3006 RMK AO2 WSHFT 1918 SLP148 T01111022,0,9.0,0,16090,0,0,0,
2026-04-30 19:43:00,SPECI KEGE 301943Z 12011KT 10SM SCT085 09/M02 A3006 RMK AO2 WSHFT 1918,0,11.0,0,16090,0,0,0,
2026-04-30 18:56:00,METAR KEGE 301856Z 10019KT 10SM SCT090 11/M02 A3006 RMK AO2 WSHFT 1839 SLP148 T01061017,0,19.0,0,16090,0,0,0,
2026-04-30 17:56:00,METAR KEGE 301756Z 30010G14KT 10SM CLR 10/M04 A3008 RMK AO2 RAB18E41 SLP151 P0000 60000 T01001039 10100 21017 56017,0,10.0,1,16090,0,0,0,RA
2026-04-30 16:56:00,METAR KEGE 301656Z 23004KT 10SM CLR 09/M02 A3009 RMK AO2 SLP159 T00891022,0,4.0,0,16090,0,0,0,
2026-04-30 15:56:00,METAR KEGE 301556Z 28004KT 10SM BKN080 06/M01 A3012 RMK AO2 SLP175 T00561011,0,4.0,0,16090,0,0,0,
2026-04-30 14:56:00,METAR KEGE 301456Z 00000KT 10SM OVC100 03/M02 A3014 RMK AO2 SLP189 T00281017 50003,0,0.0,0,16090,0,0,0,
2026-04-30 13:56:00,METAR KEGE 301356Z 00000KT 10SM BKN100 03/01 A3015 RMK AO2 SLP193 T00280011,0,0.0,0,16090,0,0,0,
2026-04-30 12:56:00,METAR KEGE 301256Z 14003KT 10SM SCT050 M01/M03 A3014 RMK AO2 SLP197 T10111028,0,3.0,0,16090,0,0,0,
2026-04-30 11:56:00,METAR KEGE 301156Z AUTO 14004KT 10SM CLR M02/M03 A3013 RMK AO2 SLP193 70001 T10171028 10056 21022 56002 FZRANO,0,4.0,0,16090,0,0,0,
2026-04-30 10:56:00,METAR KEGE 301056Z AUTO 00000KT 10SM CLR M01/M02 A3013 RMK AO2 SLP183 T10061022 FZRANO,0,0.0,0,16090,0,0,0,
2026-04-30 09:56:00,METAR KEGE 300956Z AUTO 12004KT 10SM CLR 00/M02 A3013 RMK AO2 SLP180 T00001017 FZRANO,0,4.0,0,16090,0,0,0,
2026-04-30 08:56:00,METAR KEGE 300856Z AUTO 10003KT 10SM CLR 01/M01 A3013 RMK AO2 SLP176 T00111011 58003 FZRANO,0,3.0,0,16090,0,0,0,
2026-04-30 07:56:00,METAR KEGE 300756Z AUTO 07003KT 10SM SCT065 03/M01 A3014 RMK AO2 SLP175 T00281011,0,3.0,0,16090,0,0,0,
2026-04-30 06:56:00,METAR KEGE 300656Z AUTO 00000KT 10SM BKN065 04/01 A3015 RMK AO2 SLP177 T00440006,0,0.0,0,16090,0,0,0,
2026-04-30 05:56:00,METAR KEGE 300556Z AUTO 00000KT 10SM BKN055 OVC070 06/01 A3015 RMK AO2 RAE12 SLP173 P0000 60000 T00610006 10083 20061 401330000 50000,0,0.0,0,16090,0,0,0,
2026-04-30 04:56:00,METAR KEGE 300456Z AUTO 09005KT 10SM -RA OVC070 06/00 A3017 RMK AO2 RAB55 SLP183 P0000 T00610000,0,5.0,0,16090,0,0,0,-RA
2026-04-30 03:56:00,METAR KEGE 300356Z AUTO 10007KT 10SM OVC065 07/01 A3018 RMK AO2 SLP191 T00670006,0,7.0,0,16090,0,0,0,
2026-04-30 02:56:00,METAR KEGE 300256Z AUTO 08006KT 10SM SCT047 BKN100 BKN120 07/01 A3015 RMK AO2 SLP186 60000 T00670006 53012,0,6.0,0,16090,0,0,0,
2026-04-30 01:56:00,METAR KEGE 300156Z AUTO 10008KT 10SM BKN046 OVC100 07/00 A3013 RMK AO2 SLP185 T00720000,0,8.0,0,16090,0,0,0,
2026-04-30 00:56:00,METAR KEGE 300056Z AUTO 08014KT 10SM BKN080 07/01 A3010 RMK AO2 RAB06E18 SLP182 P0000 T00720011,0,14.0,0,16090,0,0,0,RA
2026-04-29 23:56:00,METAR KEGE 292356Z 09015KT 10SM OVC075 08/02 A3010 RMK AO2 RAB19E38 SLP179 P0000 60001 T00780017 10133 20078 53013,0,15.0,0,16090,0,0,0,RA
2026-04-29 22:56:00,METAR KEGE 292256Z 11011G14KT 10SM SCT070 OVC100 11/M01 A3007 RMK AO2 TSE06RAE13 SLP157 P0001 T01111006,0,11.0,1,16090,1,0,0,TS
2026-04-29 22:17:00,SPECI KEGE 292217Z 22014KT 10SM BKN070 OVC095 10/00 A3006 RMK AO2 TSE06RAE13 P0001,0,14.0,0,16090,1,0,0,TS
2026-04-29 21:56:00,METAR KEGE 292156Z 23011G18KT 10SM VCTS -RA OVC090 12/M01 A3006 RMK AO2 TSB51RAB53 SLP150 P0000 T01171011,0,11.0,1,16090,1,0,0,"-RA,TS,VC"
2026-04-29 20:56:00,METAR KEGE 292056Z 32011G18KT 10SM FEW070 SCT090 13/M05 A3006 RMK AO2 RAB39E50 SLP146 P0000 60000 T01281050 56020,0,11.0,1,16090,0,0,0,RA
2026-04-29 19:56:00,METAR KEGE 291956Z 29008G16KT 260V330 10SM FEW090 12/M04 A3007 RMK AO2 SLP153 T01221044,0,8.0,1,16090,0,0,0,
2026-04-29 18:56:00,METAR KEGE 291856Z VRB03KT 10SM CLR 12/M03 A3010 RMK AO2 SLP163 T01171033,0,3.0,0,16090,0,0,0,
2026-04-29 17:56:00,METAR KEGE 291756Z VRB05KT 10SM FEW065 SCT085 11/M02 A3013 RMK AO2 WSHFT 1700 SLP174 T01111017 10117 20000 56012,0,5.0,0,16090,0,0,0,
2026-04-29 17:25:00,SPECI KEGE 291725Z 34011G19KT 10SM FEW085 10/M02 A3014 RMK AO2 WSHFT 1700,0,11.0,1,16090,0,0,0,
2026-04-29 16:56:00,METAR KEGE 291656Z 27006KT 10SM CLR 10/M02 A3014 RMK AO2 SLP176 T01001017,0,6.0,0,16090,0,0,0,
2026-04-29 15:56:00,METAR KEGE 291556Z VRB03KT 10SM CLR 08/M02 A3015 RMK AO2 SLP180 T00781022,0,3.0,0,16090,0,0,0,
2026-04-29 14:56:00,METAR KEGE 291456Z 10SM CLR 05/M01 A3017 RMK AO2 SLP192 T00501011 50000,0,,0,16090,0,0,0,
2026-04-29 13:56:00,METAR KEGE 291356Z 00000KT 10SM SCT085 03/M01 A3019 RMK AO2 SLP198 T00281011,0,0.0,0,16090,0,0,0,
2026-04-29 12:56:00,METAR KEGE 291256Z AUTO 09006KT 10SM FEW070 SCT090 01/M02 A3018 RMK AO2 SLP199 T00061017 FZRANO,0,6.0,0,16090,0,0,0,
2026-04-29 11:56:00,METAR KEGE 291156Z AUTO 00000KT 10SM BKN075 BKN090 01/M02 A3017 RMK AO2 SLP195 70005 T00111017 10039 20011 55003 FZRANO,0,0.0,0,16090,0,0,0,
2026-04-29 10:56:00,METAR KEGE 291056Z AUTO 25003KT 10SM FEW085 01/M02 A3017 RMK AO2 SLP192 T00111017 FZRANO,0,3.0,0,16090,0,0,0,
2026-04-29 09:56:00,METAR KEGE 290956Z AUTO 00000KT 10SM SCT075 BKN090 02/M02 A3018 RMK AO2 SLP194 T00221017 FZRANO,0,0.0,0,16090,0,0,0,
2026-04-29 08:56:00,METAR KEGE 290856Z AUTO 00000KT 10SM FEW042 SCT050 OVC070 02/M02 A3018 RMK AO2 SLP193 T00221017 58004 FZRANO,0,0.0,0,16090,0,0,0,
2026-04-29 07:56:00,METAR KEGE 290756Z AUTO 10004KT 10SM OVC090 02/M02 A3020 RMK AO2 SLP205 T00221017 FZRANO,0,4.0,0,16090,0,0,0,
2026-04-29 06:56:00,METAR KEGE 290656Z AUTO 00000KT 10SM BKN090 03/M02 A3020 RMK AO2 SLP203 T00281022,0,0.0,0,16090,0,0,0,
2026-04-29 05:56:00,METAR KEGE 290556Z AUTO 00000KT 10SM SCT090 03/M02 A3020 RMK AO2 SLP205 T00331017 10117 20033 401220000 51010,0,0.0,0,16090,0,0,0,
2026-04-29 04:56:00,METAR KEGE 290456Z AUTO 00000KT 10SM FEW090 05/M02 A3020 RMK AO2 SLP201 T00501017,0,0.0,0,16090,0,0,0,
2026-04-29 03:56:00,METAR KEGE 290356Z AUTO 18005KT 10SM CLR 07/M02 A3019 RMK AO2 SLP198 T00721022,0,5.0,0,16090,0,0,0,
2026-04-29 02:56:00,METAR KEGE 290256Z AUTO 33006KT 10SM OVC060 08/M03 A3016 RMK AO2 SLP191 T00831028 53015,0,6.0,0,16090,0,0,0,
2026-04-29 01:56:00,METAR KEGE 290156Z AUTO 26007KT 10SM CLR 10/M03 A3013 RMK AO2 SLP178 T01001033,0,7.0,0,16090,0,0,0,
2026-04-29 00:56:00,METAR KEGE 290056Z 29012G17KT 10SM CLR 11/M03 A3012 RMK AO2 SLP178 T01111033,0,12.0,1,16090,0,0,0,
2026-04-28 23:56:00,METAR KEGE 282356Z 28010KT 10SM CLR 11/M04 A3011 RMK AO2 SLP172 T01111039 10122 20083 55001,0,10.0,0,16090,0,0,0,
2026-04-28 22:56:00,METAR KEGE 282256Z 26016G24KT 10SM CLR 12/M04 A3010 RMK AO2 SLP165 T01171039,0,16.0,1,16090,0,0,0,
2026-04-28 21:56:00,METAR KEGE 282156Z 25011G21KT 10SM BKN060 11/M01 A3012 RMK AO2 SLP167 T01061011,0,11.0,1,16090,0,0,0,
2026-04-28 20:56:00,METAR KEGE 282056Z 28010G24KT 10SM BKN095 12/M02 A3011 RMK AO2 PK WND 25027/2004 SLP166 T01171022 53002,0,10.0,1,16090,0,0,0,
2026-04-28 19:56:00,METAR KEGE 281956Z 23020G23KT 10SM FEW055 OVC070 10/M04 A3011 RMK AO2 SLP167 T01001039,0,20.0,1,16090,0,0,0,
2026-04-28 18:56:00,METAR KEGE 281856Z 24014G23KT 10SM FEW070 11/M02 A3011 RMK AO2 PK WND 22027/1833 SLP161 T01061022,0,14.0,1,16090,0,0,0,
2026-04-28 17:56:00,METAR KEGE 281756Z 23020G25KT 10SM FEW047 BKN085 08/M01 A3011 RMK AO2 PK WND 24027/1717 SLP166 60005 T00831011 10089 20000 56003,0,20.0,1,16090,0,0,0,
2026-04-28 16:56:00,METAR KEGE 281656Z 25018KT 10SM SCT028 OVC041 08/M02 A3011 RMK AO2 SLP166 T00781017,0,18.0,0,16090,0,0,0,
2026-04-28 15:56:00,METAR KEGE 281556Z 00000KT 10SM FEW008 OVC060 06/01 A3011 RMK AO2 SLP175 T00560011,0,0.0,0,16090,0,0,0,
2026-04-28 15:08:00,SPECI KEGE 281508Z 07003KT 10SM FEW008 OVC060 04/02 A3012 RMK AO2,0,3.0,0,16090,0,0,0,
2026-04-28 14:56:00,METAR KEGE 281456Z 09004KT 10SM BKN007 BKN060 BKN100 04/04 A3012 RMK AO2 SLP179 60005 T00390039 51013,0,4.0,0,16090,0,0,0,
2026-04-28 14:19:00,SPECI KEGE 281419Z 00000KT 10SM BKN007 BKN060 BKN100 03/02 A3012 RMK AO2,0,0.0,0,16090,0,0,0,
2026-04-28 13:56:00,METAR KEGE 281356Z 00000KT 10SM FEW009 BKN100 03/03 A3010 RMK AO2 SLP175 P0004 T00330028,0,0.0,0,16090,0,0,0,
2026-04-28 13:51:00,SPECI KEGE 281351Z 00000KT 10SM FEW009 BKN100 03/03 A3010 RMK AO2 P0003,0,0.0,0,16090,0,0,0,
2026-04-28 12:56:00,METAR KEGE 281256Z 07007KT 10SM FEW010 SCT016 BKN095 00/M01 A3007 RMK AO2 RAE14UPB14E15B39E43SNB15E39 SLP165 P0001 T00001006,0,7.0,0,16090,0,0,0,RA
2026-04-28 12:44:00,SPECI KEGE 281244Z AUTO 08006KT 10SM BKN012 OVC018 00/M01 A3006 RMK AO2 RAE14UPB14E15B39E43SNB15E39 P0001 FZRANO,0,6.0,0,16090,0,0,0,RA
2026-04-28 12:32:00,SPECI KEGE 281232Z AUTO 07005KT 5SM -SN BR SCT010 OVC018 00/M01 A3005 RMK AO2 RAE14UPB14E15SNB15 P0001 FZRANO,0,5.0,0,8045,0,0,1,"BR,RA,SN"
2026-04-28 12:20:00,SPECI KEGE 281220Z AUTO 07005KT 2 1/2SM -SN BR OVC010 01/00 A3006 RMK AO2 VIS 1 1/2V5 RAE14UPB14E15SNB15 CIG 007V012 P0000 FZRANO,0,5.0,0,4022,0,0,1,"BR,RA,SN"
2026-04-28 11:56:00,METAR KEGE 281156Z AUTO 00000KT 10SM -RA BKN010 OVC014 01/01 A3006 RMK AO2 RAE32B53UPB49E53SNB32E49 CIG 006V013 SLP156 P0006 60010 70014 T00110006 10061 20011 51022 FZRANO,0,0.0,0,16090,0,0,0,"-RA,RA"
2026-04-28 11:10:00,SPECI KEGE 281110Z AUTO 18005KT 10SM -RA BKN013 OVC018 02/01 A3005 RMK AO2 P0001 FZRANO,0,5.0,0,16090,0,0,0,-RA
2026-04-28 10:56:00,METAR KEGE 281056Z AUTO 23005KT 10SM -RA BKN015 OVC024 02/01 A3005 RMK AO2 RAB0958UPB49E55 SLP149 P0004 T00220006 FZRANO,0,5.0,0,16090,0,0,0,"-RA,RA"
2026-04-28 10:32:00,SPECI KEGE 281032Z AUTO 30014G21KT 10SM -RA SCT024 BKN029 OVC034 03/M01 A3002 RMK AO2 RAB0958 P0002,0,14.0,1,16090,0,0,0,"-RA,RA"
2026-04-28 09:56:00,METAR KEGE 280956Z AUTO 25003KT 10SM OVC038 04/01 A3000 RMK AO2 RAB03E24 SLP120 P0000 T00440011,0,3.0,0,16090,0,0,0,RA
2026-04-28 08:56:00,METAR KEGE 280856Z AUTO 06004KT 10SM FEW043 BKN055 OVC075 03/01 A2998 RMK AO2 RAB23E34 SLP123 P0000 60000 T00330006 50000,0,4.0,0,16090,0,0,0,RA
2026-04-28 07:56:00,METAR KEGE 280756Z AUTO 11003KT 10SM BKN090 04/00 A2999 RMK AO2 SLP124 T00440000,0,3.0,0,16090,0,0,0,
2026-04-28 06:56:00,METAR KEGE 280656Z AUTO 12005KT 10SM SCT055 BKN070 06/01 A2998 RMK AO2 SLP118 T00560006,0,5.0,0,16090,0,0,0,
2026-04-28 05:56:00,METAR KEGE 280556Z AUTO 06003KT 10SM FEW070 BKN090 OVC100 06/01 A2998 RMK AO2 SLP120 60000 T00560006 10111 20056 401390022 51009,0,3.0,0,16090,0,0,0,
2026-04-28 04:56:00,METAR KEGE 280456Z AUTO 00000KT 10SM SCT060 BKN080 OVC095 06/00 A2998 RMK AO2 RAB25E36 SLP125 P0000 T00610000,0,0.0,0,16090,0,0,0,RA
2026-04-28 03:56:00,METAR KEGE 280356Z AUTO 10007KT 10SM SCT100 06/01 A2997 RMK AO2 SLP128 T00610006,0,7.0,0,16090,0,0,0,
2026-04-28 02:56:00,METAR KEGE 280256Z AUTO 05003KT 10SM SCT090 BKN110 07/01 A2995 RMK AO2 SLP119 60000 T00670006 50010,0,3.0,0,16090,0,0,0,
2026-04-28 01:56:00,METAR KEGE 280156Z AUTO 25003KT 10SM BKN060 08/01 A2995 RMK AO2 SLP120 T00780006,0,3.0,0,16090,0,0,0,
2026-04-28 00:56:00,METAR KEGE 280056Z AUTO 31007KT 10SM FEW055 10/00 A2992 RMK AO2 RAB02E19 SLP102 P0000 T01000000,0,7.0,0,16090,0,0,0,RA
2026-04-27 23:56:00,METAR KEGE 272356Z 28013G19KT 10SM CLR 11/M01 A2991 RMK AO2 PK WND 29026/2257 SLP097 T01061006 10139 20089 53001,0,13.0,1,16090,0,0,0,
2026-04-27 22:56:00,METAR KEGE 272256Z 28021G28KT 10SM BKN070 OVC100 11/M01 A2989 RMK AO2 PK WND 29028/2251 WSHFT 2146 SLP089 T01111006,0,21.0,1,16090,0,0,0,
2026-04-27 22:11:00,SPECI KEGE 272211Z 21013G18KT 10SM BKN070 BKN085 14/M02 A2988 RMK AO2 WSHFT 2146,0,13.0,1,16090,0,0,0,
2026-04-27 21:56:00,METAR KEGE 272156Z 19015G27KT 10SM SCT060 BKN085 13/M03 A2988 RMK AO2 PK WND 23027/2148 SLP083 T01281028,0,15.0,1,16090,0,0,0,
2026-04-27 20:56:00,METAR KEGE 272056Z VRB04KT 10SM FEW050 SCT060 BKN080 11/M01 A2991 RMK AO2 SLP095 T01111006 58012,0,4.0,0,16090,0,0,0,
2026-04-27 19:56:00,METAR KEGE 271956Z 18009KT 10SM BKN055 OVC070 09/M01 A2993 RMK AO2 WSHFT 1936 SLP111 T00941006,0,9.0,0,16090,0,0,0,
2026-04-27 18:56:00,METAR KEGE 271856Z 25010G19KT 10SM CLR 11/00 A2994 RMK AO2 SLP105 T01060000,0,10.0,1,16090,0,0,0,
2026-04-27 18:08:00,SPECI KEGE 271808Z 24012G17KT 10SM FEW023 BKN034 OVC044 10/01 A2994 RMK AO2,0,12.0,1,16090,0,0,0,
2026-04-27 17:56:00,METAR KEGE 271756Z 25012G15KT 10SM BKN026 BKN038 OVC060 09/01 A2995 RMK AO2 SLP114 60004 T00940011 10094 20028 56004,0,12.0,1,16090,0,0,0,
2026-04-27 16:56:00,METAR KEGE 271656Z 07008KT 10SM BKN050 BKN060 OVC080 07/04 A2996 RMK AO2 RAE04 SLP124 P0000 T00670039,0,8.0,0,16090,0,0,0,
2026-04-27 16:27:00,SPECI KEGE 271627Z 33005KT 10SM FEW024 SCT030 OVC044 05/02 A2997 RMK AO2 RAE04 P0000,0,5.0,0,16090,0,0,0,
2026-04-27 15:56:00,METAR KEGE 271556Z 33005KT 10SM -RA BKN015 OVC032 03/02 A2996 RMK AO2 SLP135 P0002 T00330017,0,5.0,0,16090,0,0,0,-RA
2026-04-27 14:56:00,METAR KEGE 271456Z 22008KT 10SM -RA BKN015 BKN019 OVC035 04/02 A2996 RMK AO2 RAB34 SLP130 P0001 60002 T00390017 51014,0,8.0,0,16090,0,0,0,-RA
2026-04-27 13:56:00,METAR KEGE 271356Z 06005KT 10SM SCT015 BKN034 OVC080 03/02 A2994 RMK AO2 RAB32E45 SLP128 P0000 T00330022,0,5.0,0,16090,0,0,0,RA
2026-04-27 13:10:00,SPECI KEGE 271310Z 07005KT 10SM FEW017 SCT041 OVC060 03/02 A2992 RMK AO2,0,5.0,0,16090,0,0,0,
2026-04-27 12:56:00,METAR KEGE 271256Z 07006KT 10SM BKN020 BKN039 OVC055 03/02 A2992 RMK AO2 RAE50 SLP119 P0001 T00280022,0,6.0,0,16090,0,0,0,
2026-04-27 12:31:00,SPECI KEGE 271231Z AUTO 00000KT 10SM -RA BKN023 BKN030 OVC038 03/02 A2992 RMK AO2 P0001,0,0.0,0,16090,0,0,0,-RA
2026-04-27 11:56:00,METAR KEGE 271156Z AUTO 34003KT 10SM -RA FEW017 SCT037 OVC046 03/02 A2991 RMK AO2 RAE04B45UPB20E40 SLP112 P0001 60001 70030 T00330022 10039 20022 53012,0,3.0,0,16090,0,0,0,"-RA,RA"
2026-04-27 10:56:00,METAR KEGE 271056Z AUTO 09004KT 10SM -RA FEW033 SCT055 OVC110 03/02 A2988 RMK AO2 RAB0958E27B43UPB33E43 SLP101 P0000 T00280022,0,4.0,0,16090,0,0,0,"-RA,RA"
2026-04-27 09:56:00,METAR KEGE 270956Z AUTO 12003KT 10SM OVC044 03/02 A2987 RMK AO2 SLP083 T00280017,0,3.0,0,16090,0,0,0,
2026-04-27 08:56:00,METAR KEGE 270856Z AUTO 00000KT 10SM SCT048 OVC110 03/02 A2986 RMK AO2 RAE03 SLP085 P0000 60000 T00280022 51000,0,0.0,0,16090,0,0,0,
2026-04-27 07:56:00,METAR KEGE 270756Z AUTO 00000KT 10SM -RA BKN046 OVC060 03/02 A2986 RMK AO2 RAB40 SLP093 P0000 T00280017,0,0.0,0,16090,0,0,0,-RA
2026-04-27 06:56:00,METAR KEGE 270656Z AUTO VRB04KT 10SM FEW036 BKN046 OVC120 03/02 A2987 RMK AO2 SLP090 T00330017,0,4.0,0,16090,0,0,0,
2026-04-27 05:56:00,METAR KEGE 270556Z AUTO 00000KT 10SM FEW029 BKN036 OVC050 04/01 A2986 RMK AO2 RAB18E55 SLP091 P0001 60006 T00390011 10044 20033 401110033 51007,0,0.0,0,16090,0,0,0,RA
2026-04-27 04:56:00,METAR KEGE 270456Z AUTO 00000KT 10SM BKN065 03/01 A2985 RMK AO2 SLP087 T00330011,0,0.0,0,16090,0,0,0,
2026-04-27 03:56:00,METAR KEGE 270356Z AUTO 14005KT 10SM OVC065 03/02 A2985 RMK AO2 SLP086 T00330022,0,5.0,0,16090,0,0,0,
2026-04-27 02:56:00,METAR KEGE 270256Z AUTO 00000KT 10SM BKN039 BKN048 03/02 A2984 RMK AO2 SLP082 60005 T00330022 53009,0,0.0,0,16090,0,0,0,
2026-04-27 01:56:00,METAR KEGE 270156Z AUTO 09006KT 10SM OVC055 03/02 A2981 RMK AO2 RAE16 SLP074 P0000 T00330022,0,6.0,0,16090,0,0,0,
2026-04-27 01:32:00,SPECI KEGE 270132Z AUTO 06004KT 10SM FEW021 OVC055 04/02 A2981 RMK AO2 RAE16 P0000,0,4.0,0,16090,0,0,0,
2026-04-27 00:56:00,METAR KEGE 270056Z 31004KT 10SM -RA BKN021 BKN035 OVC045 03/02 A2980 RMK AO2 SLP069 P0005 T00330017,0,4.0,0,16090,0,0,0,-RA
2026-04-27 00:52:00,SPECI KEGE 270052Z 28005KT 10SM -RA BKN021 OVC045 03/02 A2980 RMK AO2 P0005,0,5.0,0,16090,0,0,0,-RA
2026-04-27 00:14:00,SPECI KEGE 270014Z 29004KT 10SM -RA FEW021 BKN030 OVC060 04/02 A2979 RMK AO2 P0000,0,4.0,0,16090,0,0,0,-RA
2026-04-26 23:56:00,METAR KEGE 262356Z 31005KT 6SM -RA BR BKN021 BKN030 OVC041 04/02 A2977 RMK AO2 PK WND 20026/2318 WSHFT 2243 SLP059 P0007 60011 T00390017 10111 20033 53017,0,5.0,0,9654,0,0,1,"-RA,BR"
2026-04-26 23:08:00,SPECI KEGE 262308Z 21019KT 10SM -RA OVC040 06/02 A2975 RMK AO2 WSHFT 2243 P0000,0,19.0,0,16090,0,0,0,-RA
2026-04-26 22:56:00,METAR KEGE 262256Z 20014KT 10SM -RA BKN039 OVC047 06/02 A2974 RMK AO2 PK WND 29026/2222 WSHFT 2242 TSB11E26RAB00 SLP040 P0003 T00560022,0,14.0,0,16090,1,0,0,"-RA,TS"
2026-04-26 22:37:00,SPECI KEGE 262237Z 28007KT 10SM -RA BKN044 OVC060 06/02 A2972 RMK AO2 PK WND 29026/2222 WSHFT 2208 LTG DSNT NE TSB11E26RAB00 P0002,0,7.0,0,16090,1,0,0,"-RA,DS,TS"
2026-04-26 22:22:00,SPECI KEGE 262222Z 28022G25KT 10SM VCTS OVC060 07/02 A2970 RMK AO2 PK WND 29026/2222 WSHFT 2208 TSB11RAB00E11 P0000,0,22.0,1,16090,1,0,0,"TS,VC"
2026-04-26 21:56:00,METAR KEGE 262156Z 24016G22KT 10SM BKN041 OVC050 11/01 A2969 RMK AO2 RAB05E15 SLP012 P0000 T01110006,0,16.0,1,16090,0,0,0,RA
2026-04-26 20:56:00,METAR KEGE 262056Z 32005KT 10SM FEW028 09/02 A2971 RMK AO2 RAE05 SLP022 P0000 60001 T00940022 56016,0,5.0,0,16090,0,0,0,
2026-04-26 19:56:00,METAR KEGE 261956Z 26009G23KT 9SM -RA OVC030 06/03 A2973 RMK AO2 RAB08 SLP037 P0001 T00610033,0,9.0,1,14481,0,0,0,-RA
2026-04-26 18:56:00,METAR KEGE 261856Z 33004KT 10SM FEW027 SCT034 08/03 A2973 RMK AO2 RAB02E26 SLP028 P0000 T00780028,0,4.0,0,16090,0,0,0,RA
2026-04-26 17:56:00,METAR KEGE 261756Z 25008KT 10SM SCT028 SCT035 OVC070 06/02 A2977 RMK AO2 WSHFT 1646 RAE49 SLP042 P0003 60012 T00610022 10083 20056 53008,0,8.0,0,16090,0,0,0,
2026-04-26 17:08:00,SPECI KEGE 261708Z 22004KT 10SM -RA FEW021 BKN026 OVC035 06/03 A2975 RMK AO2 WSHFT 1646 P0002,0,4.0,0,16090,0,0,0,-RA
2026-04-26 16:56:00,METAR KEGE 261656Z 27012KT 5SM RA FEW022 BKN036 OVC047 06/03 A2976 RMK AO2 RAB38 SLP036 P0004 T00610033,0,12.0,0,8045,0,0,0,RA
2026-04-26 16:28:00,SPECI KEGE 261628Z VRB05KT 10SM SCT025 BKN050 OVC090 08/04 A2975 RMK AO2,0,5.0,0,16090,0,0,0,
2026-04-26 15:56:00,METAR KEGE 261556Z 08006KT 10SM BKN021 OVC046 07/04 A2974 RMK AO2 RAB23E47 SLP024 P0002 T00720039,0,6.0,0,16090,0,0,0,RA
2026-04-26 15:54:00,SPECI KEGE 261554Z 09004KT 10SM BKN021 OVC046 07/04 A2974 RMK AO2 RAB23E47 P0002,0,4.0,0,16090,0,0,0,RA
2026-04-26 14:56:00,METAR KEGE 261456Z 10004KT 6SM HZ FEW025 BKN040 OVC055 07/03 A2976 RMK AO2 RAE44 SLP028 P0002 60003 T00670033 58003,0,4.0,0,9654,0,0,0,
2026-04-26 14:21:00,SPECI KEGE 261421Z 31003KT 6SM -RA BR BKN027 OVC035 06/04 A2978 RMK AO2 P0002,0,3.0,0,9654,0,0,1,"-RA,BR"
2026-04-26 13:56:00,METAR KEGE 261356Z VRB03KT 10SM -RA SCT032 BKN044 OVC065 06/03 A2978 RMK AO2 RAB39 SLP039 P0001 T00610033,0,3.0,0,16090,0,0,0,-RA
2026-04-26 12:56:00,METAR KEGE 261256Z 00000KT 10SM FEW045 OVC055 06/04 A2976 RMK AO2 RAE08 SLP030 P0000 T00610039,0,0.0,0,16090,0,0,0,
2026-04-26 11:56:00,METAR KEGE 261156Z AUTO 16003KT 10SM -RA FEW026 BKN047 OVC055 06/03 A2977 RMK AO2 RAB37 SLP029 P0000 60000 T00610033 10111 20061 58007,0,3.0,0,16090,0,0,0,-RA
2026-04-26 10:56:00,METAR KEGE 261056Z AUTO 22004KT 10SM FEW037 BKN070 OVC085 06/03 A2979 RMK AO2 RAE55 SLP033 P0000 T00610028,0,4.0,0,16090,0,0,0,
2026-04-26 09:56:00,METAR KEGE 260956Z AUTO 25003KT 10SM -RA FEW044 BKN065 OVC080 07/03 A2980 RMK AO2 SLP038 P0000 T00670033,0,3.0,0,16090,0,0,0,-RA
2026-04-26 08:56:00,METAR KEGE 260856Z AUTO 31003KT 10SM -RA SCT049 OVC070 07/03 A2980 RMK AO2 RAB20 SLP034 P0000 60000 T00670028 58002,0,3.0,0,16090,0,0,0,-RA
2026-04-26 07:56:00,METAR KEGE 260756Z AUTO 30012KT 10SM BKN080 OVC110 07/02 A2981 RMK AO2 SLP044 T00720022,0,12.0,0,16090,0,0,0,
2026-04-26 06:56:00,METAR KEGE 260656Z AUTO 25016KT 10SM OVC085 09/00 A2982 RMK AO2 SLP040 T00890000,0,16.0,0,16090,0,0,0,
2026-04-26 05:56:00,METAR KEGE 260556Z AUTO 28005KT 10SM BKN095 OVC110 11/M04 A2981 RMK AO2 SLP034 T01061039 10156 20100 401780044 58001,0,5.0,0,16090,0,0,0,
2026-04-26 04:56:00,METAR KEGE 260456Z AUTO 23007KT 10SM SCT100 BKN110 12/M05 A2981 RMK AO2 SLP033 T01171050,0,7.0,0,16090,0,0,0,
2026-04-26 03:56:00,METAR KEGE 260356Z AUTO 26010KT 10SM OVC090 13/M06 A2982 RMK AO2 SLP035 T01281056,0,10.0,0,16090,0,0,0,
2026-04-26 02:56:00,METAR KEGE 260256Z AUTO 26007KT 10SM OVC095 14/M07 A2981 RMK AO2 SLP033 T01391067 53006,0,7.0,0,16090,0,0,0,
2026-04-26 01:56:00,METAR KEGE 260156Z AUTO 28004KT 10SM OVC100 14/M08 A2979 RMK AO2 SLP027 T01391078,0,4.0,0,16090,0,0,0,
2026-04-26 00:56:00,METAR KEGE 260056Z AUTO 25011KT 10SM OVC100 15/M08 A2979 RMK AO2 SLP029 T01501083,0,11.0,0,16090,0,0,0,
2026-04-25 23:56:00,METAR KEGE 252356Z 25015G27KT 10SM FEW110 16/M09 A2979 RMK AO2 PK WND 25028/2337 SLP025 T01561089 10178 20144 55001,0,15.0,1,16090,0,0,0,
2026-04-25 22:56:00,METAR KEGE 252256Z 26016G23KT 10SM BKN110 17/M09 A2978 RMK AO2 PK WND 25026/2233 SLP020 T01671094,0,16.0,1,16090,0,0,0,
2026-04-25 21:56:00,METAR KEGE 252156Z 25018G24KT 10SM OVC100 16/M09 A2978 RMK AO2 PK WND 25030/2127 SLP030 T01611094,0,18.0,1,16090,0,0,0,
2026-04-25 20:56:00,METAR KEGE 252056Z 23016G26KT 10SM BKN100 BKN120 17/M09 A2979 RMK AO2 PK WND 24026/2051 SLP033 T01721089 58010,0,16.0,1,16090,0,0,0,
2026-04-25 19:56:00,METAR KEGE 251956Z 26014KT 10SM BKN085 15/M08 A2981 RMK AO2 PK WND 25036/1910 SLP047 T01501083,0,14.0,0,16090,0,0,0,
2026-04-25 18:56:00,METAR KEGE 251856Z 22014G20KT 10SM FEW100 15/M09 A2981 RMK AO2 PK WND 21026/1845 SLP047 T01501094,0,14.0,1,16090,0,0,0,
2026-04-25 17:56:00,METAR KEGE 251756Z 24022G25KT 10SM BKN100 15/M09 A2983 RMK AO2 SLP048 T01501094 10150 20100 56004,0,22.0,1,16090,0,0,0,
2026-04-25 16:56:00,METAR KEGE 251656Z 28012G20KT 10SM FEW090 15/M09 A2983 RMK AO2 WSHFT 1626 SLP048 T01501094,0,12.0,1,16090,0,0,0,
2026-04-25 16:51:00,SPECI KEGE 251651Z 26014G20KT 10SM FEW090 14/M09 A2983 RMK AO2 WSHFT 1626,0,14.0,1,16090,0,0,0,
2026-04-25 15:56:00,METAR KEGE 251556Z 24020G25KT 10SM FEW090 14/M09 A2984 RMK AO2 SLP049 T01391089,0,20.0,1,16090,0,0,0,
2026-04-25 14:56:00,METAR KEGE 251456Z 22016G20KT 10SM CLR 13/M09 A2985 RMK AO2 SLP049 T01281089 50003,0,16.0,1,16090,0,0,0,
2026-04-25 13:56:00,METAR KEGE 251356Z 24016KT 10SM FEW090 12/M09 A2985 RMK AO2 PK WND 23027/1321 SLP048 T01221094,0,16.0,0,16090,0,0,0,
2026-04-25 12:56:00,METAR KEGE 251256Z 23013G21KT 10SM CLR 10/M08 A2984 RMK AO2 SLP047 T01001083,0,13.0,1,16090,0,0,0,
2026-04-25 11:56:00,METAR KEGE 251156Z AUTO 23013KT 10SM FEW080 BKN110 11/M08 A2984 RMK AO2 SLP043 T01061078 10111 20044 53008,0,13.0,0,16090,0,0,0,
2026-04-25 10:56:00,METAR KEGE 251056Z AUTO 26017G23KT 10SM OVC100 11/M08 A2983 RMK AO2 PK WND 23027/1046 SLP037 T01061078,0,17.0,1,16090,0,0,0,
2026-04-25 09:56:00,METAR KEGE 250956Z AUTO 03005KT 10SM FEW060 SCT080 OVC100 07/M09 A2981 RMK AO2 SLP038 T00671094,0,5.0,0,16090,0,0,0,
2026-04-25 08:56:00,METAR KEGE 250856Z AUTO 21006KT 10SM FEW110 06/M11 A2981 RMK AO2 SLP040 T00611106 58003,0,6.0,0,16090,0,0,0,
2026-04-25 07:56:00,METAR KEGE 250756Z AUTO 09006KT 10SM CLR 05/M09 A2982 RMK AO2 SLP046 T00501094,0,6.0,0,16090,0,0,0,
2026-04-25 06:56:00,METAR KEGE 250656Z AUTO 09006KT 10SM FEW120 06/M09 A2981 RMK AO2 SLP047 T00561094,0,6.0,0,16090,0,0,0,
2026-04-25 05:56:00,METAR KEGE 250556Z AUTO 08008KT 10SM FEW120 07/M10 A2982 RMK AO2 SLP046 T00721100 10161 20072 401781039 50002,0,8.0,0,16090,0,0,0,
2026-04-25 04:56:00,METAR KEGE 250456Z AUTO 09006KT 10SM FEW120 08/M11 A2983 RMK AO2 SLP052 T00831111,0,6.0,0,16090,0,0,0,
2026-04-25 03:56:00,METAR KEGE 250356Z AUTO 00000KT 10SM FEW120 11/M09 A2983 RMK AO2 SLP056 T01061094,0,0.0,0,16090,0,0,0,
2026-04-25 02:56:00,METAR KEGE 250256Z AUTO 20005KT 10SM FEW110 13/M12 A2981 RMK AO2 SLP056 T01281117 53015,0,5.0,0,16090,0,0,0,
2026-04-25 01:56:00,METAR KEGE 250156Z AUTO 25011KT 10SM BKN110 14/M11 A2978 RMK AO2 SLP052 T01391111,0,11.0,0,16090,0,0,0,
2026-04-25 00:56:00,METAR KEGE 250056Z 26010KT 10SM FEW120 16/M12 A2977 RMK AO2 SLP053 T01561122,0,10.0,0,16090,0,0,0,
2026-04-24 23:56:00,METAR KEGE 242356Z 28013KT 10SM CLR 16/M14 A2976 RMK AO2 PK WND 25027/2300 SLP045 T01611139 10178 20139 56009,0,13.0,0,16090,0,0,0,
2026-04-24 22:56:00,METAR KEGE 242256Z 25017G26KT 10SM CLR 17/M14 A2976 RMK AO2 PK WND 25029/2225 SLP041 T01721144,0,17.0,1,16090,0,0,0,
2026-04-24 22:28:00,SPECI KEGE 242228Z 27017G29KT 230V300 10SM FEW002 17/M16 A2977 RMK AO2 PK WND 25029/2225,0,17.0,1,16090,0,0,0,
2026-04-24 21:56:00,METAR KEGE 242156Z 26012G22KT 10SM CLR 18/M16 A2977 RMK AO2 PK WND 25030/2111 SLP043 T01781156,0,12.0,1,16090,0,0,0,
2026-04-24 20:56:00,METAR KEGE 242056Z 28018G27KT 10SM SCT110 17/M16 A2979 RMK AO2 PK WND 27030/2035 SLP051 T01671161 56024,0,18.0,1,16090,0,0,0,
2026-04-24 19:56:00,METAR KEGE 241956Z 29019G24KT 10SM CLR 17/M15 A2981 RMK AO2 PK WND 30029/1929 WSHFT 1849 SLP056 T01671150,0,19.0,1,16090,0,0,0,
2026-04-24 19:14:00,SPECI KEGE 241914Z 27018G26KT 9SM SCT110 16/M15 A2982 RMK AO2 PK WND 28026/1912 WSHFT 1849,0,18.0,1,14481,0,0,0,
2026-04-24 18:56:00,METAR KEGE 241856Z 24015G21KT 10SM FEW110 16/M12 A2984 RMK AO2 PK WND 25028/1829 SLP069 T01561117,0,15.0,1,16090,0,0,0,
2026-04-24 17:56:00,METAR KEGE 241756Z 21015G22KT 10SM SCT100 14/M11 A2988 RMK AO2 SLP082 T01441111 10144 21039 56028,0,15.0,1,16090,0,0,0,
2026-04-24 16:56:00,METAR KEGE 241656Z 24011G17KT 10SM CLR 12/M12 A2991 RMK AO2 WSHFT 1616 SLP094 T01221117,0,11.0,1,16090,0,0,0,
2026-04-24 16:41:00,SPECI KEGE 241641Z 23014G20KT 10SM CLR 12/M11 A2991 RMK AO2 WSHFT 1616,0,14.0,1,16090,0,0,0,
2026-04-24 15:56:00,METAR KEGE 241556Z 00000KT 10SM CLR 08/M08 A2994 RMK AO2 SLP107 T00831083,0,0.0,0,16090,0,0,0,
2026-04-24 14:56:00,METAR KEGE 241456Z 00000KT 10SM CLR 03/M08 A2998 RMK AO2 SLP126 T00331083 58007,0,0.0,0,16090,0,0,0,
2026-04-24 13:56:00,METAR KEGE 241356Z 00000KT 10SM CLR 00/M08 A3000 RMK AO2 SLP142 T00001083,0,0.0,0,16090,0,0,0,
2026-04-24 12:56:00,METAR KEGE 241256Z 07003KT 10SM CLR M03/M08 A3000 RMK AO2 SLP147 T10331083,0,3.0,0,16090,0,0,0,
2026-04-24 11:56:00,METAR KEGE 241156Z 00000KT 10SM CLR M03/M09 A3000 RMK AO2 SLP143 T10331089 10017 21033 51001 FZRANO,0,0.0,0,16090,0,0,0,
2026-04-24 10:56:00,METAR KEGE 241056Z 09005KT 10SM FEW075 M02/M08 A3000 RMK AO2 SLP140 T10221083 FZRANO,0,5.0,0,16090,0,0,0,
2026-04-24 09:56:00,METAR KEGE 240956Z 00000KT 10SM CLR M02/M08 A3000 RMK AO2 SLP141 T10171083 FZRANO,0,0.0,0,16090,0,0,0,
2026-04-24 08:56:00,METAR KEGE 240856Z 15003KT 10SM CLR M01/M08 A3000 RMK AO2 SLP137 T10111078 50000 FZRANO,0,3.0,0,16090,0,0,0,
2026-04-24 07:56:00,METAR KEGE 240756Z 11004KT 10SM CLR 00/M08 A3000 RMK AO2 SLP135 T00001078 FZRANO,0,4.0,0,16090,0,0,0,
2026-04-24 06:56:00,METAR KEGE 240656Z 10007KT 10SM CLR 00/M09 A3000 RMK AO2 SLP135 T00001089 FZRANO,0,7.0,0,16090,0,0,0,
2026-04-24 05:56:00,METAR KEGE 240556Z 11006KT 10SM CLR 01/M08 A3000 RMK AO2 SLP134 T00111083 10117 20011 401330011 51011 FZRANO,0,6.0,0,16090,0,0,0,
2026-04-24 04:56:00,METAR KEGE 240456Z 08010KT 10SM CLR 03/M09 A2999 RMK AO2 SLP127 T00331089,0,10.0,0,16090,0,0,0,
2026-04-24 03:56:00,METAR KEGE 240356Z 06004KT 10SM CLR 06/M08 A2999 RMK AO2 SLP123 T00561083,0,4.0,0,16090,0,0,0,
2026-04-24 02:56:00,METAR KEGE 240256Z 21007KT 10SM FEW095 08/M09 A2996 RMK AO2 SLP112 T00831094 53007,0,7.0,0,16090,0,0,0,
2026-04-24 01:56:00,METAR KEGE 240156Z AUTO 25010KT 10SM BKN100 10/M09 A2995 RMK AO2 SLP108 T01001094,0,10.0,0,16090,0,0,0,
2026-04-24 00:56:00,METAR KEGE 240056Z AUTO 25015KT 10SM BKN100 11/M10 A2994 RMK AO2 SLP103 T01061100,0,15.0,0,16090,0,0,0,
2026-04-23 23:56:00,METAR KEGE 232356Z 29008G16KT 10SM OVC100 12/M10 A2993 RMK AO2 SLP100 T01171100 10133 20106 53006,0,8.0,1,16090,0,0,0,
2026-04-23 22:56:00,METAR KEGE 232256Z 25016KT 10SM OVC100 12/M10 A2991 RMK AO2 PK WND 25033/2227 SLP089 T01171100,0,16.0,0,16090,0,0,0,
2026-04-23 21:56:00,METAR KEGE 232156Z 25017G22KT 10SM BKN090 BKN110 12/M10 A2991 RMK AO2 PK WND 25031/2116 SLP088 T01171100,0,17.0,1,16090,0,0,0,
2026-04-23 20:56:00,METAR KEGE 232056Z 26015G20KT 9SM BKN100 BKN120 12/M12 A2991 RMK AO2 PK WND 27032/2012 SLP089 T01171117 56006,0,15.0,1,14481,0,0,0,
2026-04-23 19:56:00,METAR KEGE 231956Z 27016G32KT 10SM FEW110 12/M12 A2991 RMK AO2 PK WND 25034/1927 SLP087 T01221117,0,16.0,1,16090,0,0,0,
2026-04-23 18:56:00,METAR KEGE 231856Z 24021G31KT 10SM CLR 12/M14 A2992 RMK AO2 PK WND 25033/1815 SLP087 T01171139,0,21.0,1,16090,0,0,0,
2026-04-23 17:56:00,METAR KEGE 231756Z 26020G28KT 10SM CLR 11/M13 A2994 RMK AO2 PK WND 26029/1730 SLP092 T01111133 10111 20039 58001,0,20.0,1,16090,0,0,0,
2026-04-23 16:56:00,METAR KEGE 231656Z 26013G25KT 10SM CLR 09/M12 A2994 RMK AO2 PK WND 25028/1627 SLP096 T00941122,0,13.0,1,16090,0,0,0,
2026-04-23 15:56:00,METAR KEGE 231556Z 24020G27KT 10SM CLR 08/M12 A2995 RMK AO2 PK WND 24027/1556 SLP097 T00831122,0,20.0,1,16090,0,0,0,
2026-04-23 14:56:00,METAR KEGE 231456Z 27013G20KT 10SM CLR 07/M13 A2994 RMK AO2 SLP086 T00721128 50002,0,13.0,1,16090,0,0,0,
2026-04-23 13:56:00,METAR KEGE 231356Z 27007KT 10SM CLR 06/M11 A2996 RMK AO2 SLP095 T00561111,0,7.0,0,16090,0,0,0,
2026-04-23 12:56:00,METAR KEGE 231256Z 28010KT 10SM SCT120 05/M13 A2994 RMK AO2 SLP088 T00501128,0,10.0,0,16090,0,0,0,
2026-04-23 11:56:00,METAR KEGE 231156Z AUTO 24008KT 10SM SCT110 05/M12 A2993 RMK AO2 SLP083 T00501117 10089 20050 58002,0,8.0,0,16090,0,0,0,
2026-04-23 10:56:00,METAR KEGE 231056Z AUTO 24014G17KT 10SM SCT100 OVC110 06/M12 A2995 RMK AO2 SLP086 T00561122,0,14.0,1,16090,0,0,0,
2026-04-23 09:56:00,METAR KEGE 230956Z AUTO 23008KT 10SM OVC100 06/M11 A2994 RMK AO2 SLP080 T00611111,0,8.0,0,16090,0,0,0,
2026-04-23 08:56:00,METAR KEGE 230856Z AUTO 26008KT 10SM OVC085 06/M11 A2994 RMK AO2 SLP078 T00611106 51013,0,8.0,0,16090,0,0,0,
2026-04-23 07:56:00,METAR KEGE 230756Z AUTO 24009KT 10SM FEW120 07/M09 A2994 RMK AO2 SLP075 T00671094,0,9.0,0,16090,0,0,0,
2026-04-23 06:56:00,METAR KEGE 230656Z AUTO 28008KT 10SM SCT110 08/M11 A2992 RMK AO2 SLP069 T00831106,0,8.0,0,16090,0,0,0,
2026-04-23 05:56:00,METAR KEGE 230556Z AUTO 31018G24KT 10SM FEW045 09/M10 A2989 RMK AO2 PK WND 31026/0540 SLP060 T00891100 10178 20089 402110050 51026,0,18.0,1,16090,0,0,0,
2026-04-23 04:56:00,METAR KEGE 230456Z AUTO 31012G20KT 10SM SCT045 10/M09 A2987 RMK AO2 PK WND 30028/0404 SLP049 T01001089,0,12.0,1,16090,0,0,0,
2026-04-23 03:56:00,METAR KEGE 230356Z AUTO 32016G25KT 10SM BKN120 11/M08 A2985 RMK AO2 SLP043 T01111083,0,16.0,1,16090,0,0,0,
2026-04-23 02:56:00,METAR KEGE 230256Z AUTO 27015G20KT 10SM OVC110 16/M16 A2980 RMK AO2 SLP017 T01561156 53001,0,15.0,1,16090,0,0,0,
2026-04-23 01:56:00,METAR KEGE 230156Z AUTO 25021G36KT 10SM BKN110 16/M12 A2980 RMK AO2 PK WND 25046/0140 SLP019 T01611117,0,21.0,1,16090,0,0,0,
2026-04-23 00:56:00,METAR KEGE 230056Z 27017G40KT 10SM BKN110 17/M11 A2979 RMK AO2 PK WND 24040/0052 SLP015 T01671106,0,17.0,1,16090,0,0,0,
2026-04-22 23:56:00,METAR KEGE 222356Z 23026G36KT 10SM CLR 18/M12 A2980 RMK AO2 PK WND 23036/2352 SLP032 T01781122 10211 20178 58008,0,26.0,1,16090,0,0,0,
2026-04-22 22:56:00,METAR KEGE 222256Z 24025G34KT 10SM CLR 19/M13 A2980 RMK AO2 PK WND 24041/2203 SLP035 T01891128,0,25.0,1,16090,0,0,0,
2026-04-22 21:56:00,METAR KEGE 222156Z 23020G31KT 10SM CLR 19/M14 A2983 RMK AO2 PK WND 25038/2103 SLP042 T01941139,0,20.0,1,16090,0,0,0,
2026-04-22 20:56:00,METAR KEGE 222056Z 23023G31KT 10SM CLR 20/M15 A2982 RMK AO2 PK WND 24039/2040 SLP037 T02001150 56019,0,23.0,1,16090,0,0,0,
2026-04-22 19:56:00,METAR KEGE 221956Z 21022G36KT 10SM CLR 21/M14 A2982 RMK AO2 PK WND 24038/1916 SLP033 T02061139,0,22.0,1,16090,0,0,0,
2026-04-22 18:56:00,METAR KEGE 221856Z 23023G33KT 10SM CLR 21/M13 A2985 RMK AO2 PK WND 23037/1806 SLP042 T02061128,0,23.0,1,16090,0,0,0,
2026-04-22 17:56:00,METAR KEGE 221756Z 23026G37KT 10SM CLR 19/M12 A2989 RMK AO2 PK WND 22037/1755 SLP056 T01891122 10200 20061 56020,0,26.0,1,16090,0,0,0,
2026-04-22 16:56:00,METAR KEGE 221656Z 23023G32KT 10SM CLR 18/M11 A2992 RMK AO2 PK WND 24036/1604 SLP061 T01831111,0,23.0,1,16090,0,0,0,
2026-04-22 15:56:00,METAR KEGE 221556Z 25023G34KT 10SM CLR 17/M10 A2992 RMK AO2 PK WND 23034/1547 SLP061 T01721100,0,23.0,1,16090,0,0,0,
2026-04-22 14:56:00,METAR KEGE 221456Z 23018G33KT 10SM CLR 16/M08 A2996 RMK AO2 PK WND 25033/1450 SLP073 T01611083 58010,0,18.0,1,16090,0,0,0,
2026-04-22 13:56:00,METAR KEGE 221356Z 26008G20KT 10SM CLR 14/M09 A2999 RMK AO2 SLP081 T01441089,0,8.0,1,16090,0,0,0,
2026-04-22 12:56:00,METAR KEGE 221256Z 23009G15KT 10SM CLR 14/M09 A3000 RMK AO2 SLP079 T01391094,0,9.0,1,16090,0,0,0,
2026-04-22 11:56:00,METAR KEGE 221156Z AUTO 10007KT 070V200 10SM CLR 06/M02 A3000 RMK AO2 SLP092 T00611017 10100 20050 56002,0,7.0,0,16090,0,0,0,
2026-04-22 10:56:00,METAR KEGE 221056Z AUTO 12006KT 10SM CLR 05/M01 A3000 RMK AO2 SLP095 T00501011,0,6.0,0,16090,0,0,0,
2026-04-22 09:56:00,METAR KEGE 220956Z AUTO VRB03KT 10SM CLR 06/M01 A3000 RMK AO2 SLP093 T00561006,0,3.0,0,16090,0,0,0,
2026-04-22 08:56:00,METAR KEGE 220856Z AUTO 15005KT 10SM CLR 07/00 A3000 RMK AO2 SLP094 T00670000 58003,0,5.0,0,16090,0,0,0,
2026-04-22 07:56:00,METAR KEGE 220756Z AUTO 10006KT 10SM CLR 08/00 A3001 RMK AO2 SLP094 T00830000,0,6.0,0,16090,0,0,0,
2026-04-22 06:56:00,METAR KEGE 220656Z AUTO 14004KT 10SM CLR 08/01 A3001 RMK AO2 SLP098 T00830006,0,4.0,0,16090,0,0,0,
2026-04-22 05:56:00,METAR KEGE 220556Z AUTO 00000KT 10SM CLR 10/01 A3001 RMK AO2 SLP103 60000 T01000011 10239 20100 402501006 58011,0,0.0,0,16090,0,0,0,
2026-04-22 04:56:00,METAR KEGE 220456Z AUTO 08003KT 10SM FEW110 13/01 A3003 RMK AO2 SLP107 T01280011,0,3.0,0,16090,0,0,0,
2026-04-22 03:56:00,METAR KEGE 220356Z AUTO 10007KT 10SM FEW120 15/02 A3005 RMK AO2 SLP118 T01500017,0,7.0,0,16090,0,0,0,
2026-04-22 02:56:00,METAR KEGE 220256Z AUTO 14009KT 10SM BKN070 OVC090 17/02 A3005 RMK AO2 PK WND 17030/0228 RAB35E49 SLP126 P0000 60000 T01670017 53013,0,9.0,0,16090,0,0,0,RA
2026-04-22 01:56:00,METAR KEGE 220156Z AUTO 24003KT 10SM SCT120 19/M02 A3003 RMK AO2 SLP120 T01941017,0,3.0,0,16090,0,0,0,
2026-04-22 00:56:00,METAR KEGE 220056Z 27010KT 10SM BKN110 21/M02 A3002 RMK AO2 WSHFT 2356 SLP116 T02111022,0,10.0,0,16090,0,0,0,
2026-04-22 00:21:00,SPECI KEGE 220021Z 27014G18KT 10SM BKN110 22/M03 A3001 RMK AO2 WSHFT 2356,0,14.0,1,16090,0,0,0,
2026-04-21 23:56:00,METAR KEGE 212356Z 28012G17KT 240V300 10SM FEW120 24/M03 A3001 RMK AO2 PK WND 24036/2328 SLP107 T02391033 10250 20183 55013,0,12.0,1,16090,0,0,0,
2026-04-21 22:56:00,METAR KEGE 212256Z 25013KT 10SM FEW120 23/M05 A3001 RMK AO2 SLP106 T02331050,0,13.0,0,16090,0,0,0,
2026-04-21 21:56:00,METAR KEGE 212156Z 22009G14KT 170V260 10SM CLR 24/M05 A3002 RMK AO2 SLP107 T02391050,0,9.0,1,16090,0,0,0,
2026-04-21 20:56:00,METAR KEGE 212056Z 21008KT 10SM CLR 23/M05 A3005 RMK AO2 SLP119 T02281050 56031,0,8.0,0,16090,0,0,0,
2026-04-21 19:56:00,METAR KEGE 211956Z 31009G17KT 10SM CLR 22/M05 A3008 RMK AO2 SLP128 T02221050,0,9.0,1,16090,0,0,0,
2026-04-21 18:56:00,METAR KEGE 211856Z 26013KT 10SM CLR 22/M04 A3011 RMK AO2 SLP139 T02171044,0,13.0,0,16090,0,0,0,
2026-04-21 17:56:00,METAR KEGE 211756Z 00000KT 10SM CLR 18/M05 A3016 RMK AO2 SLP160 T01781050 10178 21006 58025,0,0.0,0,16090,0,0,0,
2026-04-21 16:56:00,METAR KEGE 211656Z 00000KT 10SM CLR 16/M06 A3021 RMK AO2 SLP178 T01561056,0,0.0,0,16090,0,0,0,
2026-04-21 15:56:00,METAR KEGE 211556Z 00000KT 10SM CLR 11/M05 A3023 RMK AO2 SLP190 T01061050,0,0.0,0,16090,0,0,0,
2026-04-21 14:56:00,METAR KEGE 211456Z 00000KT 10SM CLR 06/M05 A3025 RMK AO2 SLP205 T00611050 50001,0,0.0,0,16090,0,0,0,
2026-04-21 13:56:00,METAR KEGE 211356Z 00000KT 10SM CLR 03/M05 A3026 RMK AO2 SLP206 T00281050,0,0.0,0,16090,0,0,0,
2026-04-21 12:56:00,METAR KEGE 211256Z 00000KT 10SM CLR 01/M05 A3026 RMK AO2 SLP203 T00061050,0,0.0,0,16090,0,0,0,
2026-04-21 11:56:00,METAR KEGE 211156Z AUTO 00000KT 10SM CLR 01/M06 A3025 RMK AO2 SLP198 T00061056 10072 20006 51012 FZRANO,0,0.0,0,16090,0,0,0,
2026-04-21 10:56:00,METAR KEGE 211056Z AUTO 11003KT 10SM CLR 01/M06 A3023 RMK AO2 SLP191 T00111056 FZRANO,0,3.0,0,16090,0,0,0,
2026-04-21 09:56:00,METAR KEGE 210956Z AUTO 00000KT 10SM CLR 02/M04 A3022 RMK AO2 SLP183 T00221044 FZRANO,0,0.0,0,16090,0,0,0,
2026-04-21 08:56:00,METAR KEGE 210856Z AUTO 00000KT 10SM CLR 03/M05 A3021 RMK AO2 SLP175 T00331050 51007,0,0.0,0,16090,0,0,0,
2026-04-21 07:56:00,METAR KEGE 210756Z AUTO 11003KT 10SM CLR 04/M05 A3020 RMK AO2 SLP175 T00441050,0,3.0,0,16090,0,0,0,
2026-04-21 06:56:00,METAR KEGE 210656Z AUTO 14003KT 10SM CLR 05/M05 A3020 RMK AO2 SLP178 T00501050,0,3.0,0,16090,0,0,0,
2026-04-21 05:56:00,METAR KEGE 210556Z AUTO 00000KT 10SM CLR 07/M05 A3018 RMK AO2 SLP174 T00721050 10222 20072 402221022 51014,0,0.0,0,16090,0,0,0,
2026-04-21 04:56:00,METAR KEGE 210456Z AUTO 13003KT 10SM CLR 09/M06 A3017 RMK AO2 SLP177 T00891056,0,3.0,0,16090,0,0,0,
2026-04-21 03:56:00,METAR KEGE 210356Z AUTO 08007KT 10SM CLR 11/M06 A3016 RMK AO2 SLP177 T01111061,0,7.0,0,16090,0,0,0,
2026-04-21 02:56:00,METAR KEGE 210256Z AUTO 07003KT 10SM CLR 14/M07 A3013 RMK AO2 SLP167 T01391067 53010,0,3.0,0,16090,0,0,0,
2026-04-21 01:56:00,METAR KEGE 210156Z AUTO 21004KT 10SM CLR 18/M08 A3011 RMK AO2 SLP155 T01831078,0,4.0,0,16090,0,0,0,
2026-04-21 00:56:00,METAR KEGE 210056Z 26009KT 10SM CLR 21/M09 A3010 RMK AO2 SLP153 T02111089,0,9.0,0,16090,0,0,0,
2026-04-20 23:56:00,METAR KEGE 202356Z 29007KT 10SM CLR 22/M11 A3010 RMK AO2 SLP149 T02171106 10222 20150 56013,0,7.0,0,16090,0,0,0,
2026-04-20 22:56:00,METAR KEGE 202256Z 23012KT 10SM CLR 22/M12 A3011 RMK AO2 SLP151 T02171122,0,12.0,0,16090,0,0,0,
2026-04-20 21:56:00,METAR KEGE 202156Z 22010G16KT 10SM CLR 22/M14 A3012 RMK AO2 SLP156 T02171139,0,10.0,1,16090,0,0,0,
2026-04-20 20:56:00,METAR KEGE 202056Z 34008KT 10SM CLR 22/M13 A3014 RMK AO2 SLP159 T02171128 56027,0,8.0,0,16090,0,0,0,
2026-04-20 19:56:00,METAR KEGE 201956Z VRB03KT 10SM CLR 21/M13 A3016 RMK AO2 SLP166 T02111128,0,3.0,0,16090,0,0,0,
2026-04-20 18:56:00,METAR KEGE 201856Z 00000KT 10SM CLR 18/M09 A3020 RMK AO2 SLP183 T01781094,0,0.0,0,16090,0,0,0,
2026-04-20 17:56:00,METAR KEGE 201756Z 14004KT 10SM CLR 15/M10 A3024 RMK AO2 SLP199 T01501100 10150 21022 58021,0,4.0,0,16090,0,0,0,
2026-04-20 16:56:00,METAR KEGE 201656Z 00000KT 10SM CLR 11/M07 A3027 RMK AO2 SLP219 T01061072,0,0.0,0,16090,0,0,0,
2026-04-20 15:56:00,METAR KEGE 201556Z 00000KT 10SM CLR 07/M08 A3029 RMK AO2 SLP231 T00671083,0,0.0,0,16090,0,0,0,
2026-04-20 14:56:00,METAR KEGE 201456Z 00000KT 10SM CLR 03/M08 A3031 RMK AO2 SLP238 T00331083 50007,0,0.0,0,16090,0,0,0,
2026-04-20 13:56:00,METAR KEGE 201356Z 00000KT 10SM CLR 01/M07 A3032 RMK AO2 SLP236 T00061072,0,0.0,0,16090,0,0,0,
2026-04-20 12:56:00,METAR KEGE 201256Z AUTO 00000KT 10SM CLR M02/M07 A3030 RMK AO2 SLP234 T10221072 FZRANO,0,0.0,0,16090,0,0,0,
2026-04-20 11:56:00,METAR KEGE 201156Z AUTO 09006KT 10SM CLR M02/M07 A3028 RMK AO2 SLP225 T10221072 10044 21022 51010 FZRANO,0,6.0,0,16090,0,0,0,
2026-04-20 10:56:00,METAR KEGE 201056Z AUTO 11003KT 9SM CLR M01/M07 A3027 RMK AO2 SLP217 T10111072 FZRANO,0,3.0,0,14481,0,0,0,
2026-04-20 09:56:00,METAR KEGE 200956Z AUTO 00000KT 10SM CLR M01/M07 A3026 RMK AO2 SLP211 T10061072 FZRANO,0,0.0,0,16090,0,0,0,
2026-04-20 08:56:00,METAR KEGE 200856Z AUTO 12004KT 10SM CLR 00/M08 A3025 RMK AO2 SLP206 T00001078 50005 FZRANO,0,4.0,0,16090,0,0,0,
2026-04-20 07:56:00,METAR KEGE 200756Z AUTO 19003KT 10SM CLR 01/M08 A3025 RMK AO2 SLP207 T00111083 FZRANO,0,3.0,0,16090,0,0,0,
2026-04-20 06:56:00,METAR KEGE 200656Z AUTO 00000KT 10SM CLR 03/M08 A3024 RMK AO2 SLP206 T00281078,0,0.0,0,16090,0,0,0,
2026-04-20 05:56:00,METAR KEGE 200556Z AUTO 15003KT 10SM CLR 05/M08 A3023 RMK AO2 SLP201 T00501083 10183 20050 401891039 51011,0,3.0,0,16090,0,0,0,
2026-04-20 04:56:00,METAR KEGE 200456Z AUTO 11005KT 10SM CLR 06/M08 A3023 RMK AO2 SLP212 T00561078,0,5.0,0,16090,0,0,0,
2026-04-20 03:56:00,METAR KEGE 200356Z AUTO 08006KT 10SM CLR 07/M09 A3022 RMK AO2 SLP206 T00721089,0,6.0,0,16090,0,0,0,
2026-04-20 02:56:00,METAR KEGE 200256Z AUTO 07006KT 10SM CLR 11/M10 A3019 RMK AO2 SLP204 T01061100 53012,0,6.0,0,16090,0,0,0,
2026-04-20 01:56:00,METAR KEGE 200156Z AUTO 19006KT 10SM CLR 16/M14 A3016 RMK AO2 SLP183 T01561139,0,6.0,0,16090,0,0,0,
2026-04-20 00:56:00,METAR KEGE 200056Z AUTO 29011KT 10SM CLR 18/M14 A3014 RMK AO2 SLP178 T01781144,0,11.0,0,16090,0,0,0,
2026-04-19 23:56:00,METAR KEGE 192356Z 23013KT 10SM CLR 18/M16 A3015 RMK AO2 SLP178 T01831161 10189 20117 56012,0,13.0,0,16090,0,0,0,
2026-04-19 22:56:00,METAR KEGE 192256Z 23013KT 10SM CLR 19/M16 A3015 RMK AO2 SLP177 T01891156,0,13.0,0,16090,0,0,0,
2026-04-19 21:56:00,METAR KEGE 192156Z 29011KT 10SM CLR 19/M17 A3017 RMK AO2 SLP180 T01891172,0,11.0,0,16090,0,0,0,
2026-04-19 20:56:00,METAR KEGE 192056Z 29013G19KT 10SM CLR 18/M17 A3019 RMK AO2 SLP188 T01831167 56021,0,13.0,1,16090,0,0,0,
2026-04-19 19:56:00,METAR KEGE 191956Z 27012G17KT 10SM CLR 17/M19 A3021 RMK AO2 SLP193 T01721189,0,12.0,1,16090,0,0,0,
2026-04-19 18:56:00,METAR KEGE 191856Z 19003KT 10SM CLR 15/M15 A3023 RMK AO2 SLP207 T01501150,0,3.0,0,16090,0,0,0,
2026-04-19 17:56:00,METAR KEGE 191756Z VRB03KT 10SM CLR 12/M09 A3027 RMK AO2 SLP226 T01221089 10122 21039 58021,0,3.0,0,16090,0,0,0,
2026-04-19 16:56:00,METAR KEGE 191656Z 00000KT 10SM CLR 08/M10 A3030 RMK AO2 SLP245 T00781100,0,0.0,0,16090,0,0,0,
2026-04-19 15:56:00,METAR KEGE 191556Z 00000KT 10SM CLR 07/M08 A3032 RMK AO2 SLP253 T00671078,0,0.0,0,16090,0,0,0,
2026-04-19 14:56:00,METAR KEGE 191456Z 00000KT 10SM CLR 01/M06 A3034 RMK AO2 SLP272 T00061061 50003,0,0.0,0,16090,0,0,0,
2026-04-19 13:56:00,METAR KEGE 191356Z 00000KT 10SM CLR M02/M06 A3035 RMK AO2 SLP273 T10171056,0,0.0,0,16090,0,0,0,
2026-04-19 12:56:00,METAR KEGE 191256Z 00000KT 10SM CLR M04/M07 A3034 RMK AO2 SLP269 T10391067,0,0.0,0,16090,0,0,0,
2026-04-19 11:56:00,METAR KEGE 191156Z AUTO 17003KT 10SM CLR M03/M06 A3033 RMK AO2 SLP264 T10331061 10011 21033 50003 FZRANO,0,3.0,0,16090,0,0,0,
2026-04-19 10:56:00,METAR KEGE 191056Z AUTO 18003KT 10SM CLR M02/M06 A3033 RMK AO2 SLP259 T10221056 FZRANO,0,3.0,0,16090,0,0,0,
2026-04-19 09:56:00,METAR KEGE 190956Z AUTO 00000KT 10SM CLR M01/M06 A3033 RMK AO2 SLP258 T10111056 FZRANO,0,0.0,0,16090,0,0,0,
2026-04-19 08:56:00,METAR KEGE 190856Z AUTO 00000KT 10SM CLR M01/M04 A3032 RMK AO2 SLP255 T10061044 50002 FZRANO,0,0.0,0,16090,0,0,0,
2026-04-19 07:56:00,METAR KEGE 190756Z AUTO 00000KT 10SM CLR 00/M05 A3032 RMK AO2 SLP262 T00001050 FZRANO,0,0.0,0,16090,0,0,0,
2026-04-19 06:56:00,METAR KEGE 190656Z AUTO 00000KT 10SM CLR 01/M06 A3032 RMK AO2 SLP260 T00061056 FZRANO,0,0.0,0,16090,0,0,0,
2026-04-19 05:56:00,METAR KEGE 190556Z AUTO 16003KT 10SM CLR 01/M06 A3031 RMK AO2 SLP264 T00111056 10100 20011 401111072 50005 FZRANO,0,3.0,0,16090,0,0,0,
2026-04-19 04:56:00,METAR KEGE 190456Z AUTO 10003KT 10SM CLR 02/M06 A3032 RMK AO2 SLP263 T00221061 FZRANO,0,3.0,0,16090,0,0,0,
2026-04-19 03:56:00,METAR KEGE 190356Z AUTO 09005KT 10SM CLR 03/M05 A3032 RMK AO2 SLP268 T00281050,0,5.0,0,16090,0,0,0,
2026-04-19 02:56:00,METAR KEGE 190256Z AUTO 09006KT 10SM CLR 05/M06 A3029 RMK AO2 SLP261 T00501061 53007,0,6.0,0,16090,0,0,0,
2026-04-19 01:56:00,METAR KEGE 190156Z AUTO 22004KT 10SM CLR 08/M07 A3028 RMK AO2 SLP256 T00831072,0,4.0,0,16090,0,0,0,
2026-04-19 00:56:00,METAR KEGE 190056Z 33005KT 10SM CLR 10/M11 A3028 RMK AO2 SLP254 T01001106,0,5.0,0,16090,0,0,0,
2026-04-18 23:56:00,METAR KEGE 182356Z 29008KT 10SM CLR 10/M11 A3027 RMK AO2 SLP250 T01001111 10111 20033 56008,0,8.0,0,16090,0,0,0,
2026-04-18 22:56:00,METAR KEGE 182256Z 00000KT 10SM CLR 11/M12 A3027 RMK AO2 SLP247 T01061122,0,0.0,0,16090,0,0,0,
2026-04-18 21:56:00,METAR KEGE 182156Z 06007KT 10SM CLR 09/M11 A3028 RMK AO2 SLP251 T00941106,0,7.0,0,16090,0,0,0,
2026-04-18 20:56:00,METAR KEGE 182056Z VRB06KT 10SM CLR 09/M11 A3030 RMK AO2 SLP261 T00891106 56019,0,6.0,0,16090,0,0,0,
2026-04-18 19:56:00,METAR KEGE 181956Z 00000KT 10SM CLR 07/M12 A3033 RMK AO2 SLP275 T00671122,0,0.0,0,16090,0,0,0,
2026-04-18 18:56:00,METAR KEGE 181856Z 00000KT 10SM CLR 06/M12 A3034 RMK AO2 SLP284 T00611122,0,0.0,0,16090,0,0,0,
2026-04-18 17:56:00,METAR KEGE 181756Z VRB03KT 10SM CLR 03/M14 A3037 RMK AO2 SLP300 T00331144 10044 21072 58001,0,3.0,0,16090,0,0,0,
2026-04-18 16:56:00,METAR KEGE 181656Z 03004KT 10SM CLR 03/M11 A3037 RMK AO2 SLP298 T00331111,0,4.0,0,16090,0,0,0,
2026-04-18 15:56:00,METAR KEGE 181556Z 07004KT 10SM CLR 00/M09 A3037 RMK AO2 SLP303 T00001094,0,4.0,0,16090,0,0,0,
2026-04-18 14:56:00,METAR KEGE 181456Z 09005KT 10SM CLR M02/M07 A3037 RMK AO2 SLP306 T10221072 51016,0,5.0,0,16090,0,0,0,
2026-04-18 13:56:00,METAR KEGE 181356Z 07007KT 10SM CLR M05/M08 A3036 RMK AO2 SLP308 T10501083,0,7.0,0,16090,0,0,0,
2026-04-18 12:56:00,METAR KEGE 181256Z 08003KT 10SM CLR M07/M09 A3034 RMK AO2 SLP298 T10671089,0,3.0,0,16090,0,0,0,
2026-04-18 11:56:00,METAR KEGE 181156Z 12003KT 10SM OVC075 M06/M08 A3031 RMK AO2 SLP283 60000 70011 T10561083 11044 21056 53015 FZRANO,0,3.0,0,16090,0,0,0,
2026-04-18 10:56:00,METAR KEGE 181056Z 09004KT 10SM SCT070 M05/M08 A3029 RMK AO2 SLP277 T10501078 FZRANO,0,4.0,0,16090,0,0,0,
2026-04-18 09:56:00,METAR KEGE 180956Z 08006KT 10SM SCT055 OVC075 M04/M08 A3027 RMK AO2 SLP272 T10441083 FZRANO,0,6.0,0,16090,0,0,0,
2026-04-18 08:56:00,METAR KEGE 180856Z 08005KT 10SM OVC070 M04/M08 A3026 RMK AO2 SNB29E42 SLP270 P0000 60000 T10441078 51011 FZRANO,0,5.0,0,16090,0,0,0,SN
2026-04-18 07:56:00,METAR KEGE 180756Z 11004KT 10SM FEW050 OVC060 M05/M09 A3025 RMK AO2 SLP271 T10501089 FZRANO,0,4.0,0,16090,0,0,0,
2026-04-18 06:56:00,METAR KEGE 180656Z 07005KT 10SM BKN080 OVC100 M06/M09 A3023 RMK AO2 SLP261 T10561094 FZRANO,0,5.0,0,16090,0,0,0,
2026-04-18 05:56:00,METAR KEGE 180556Z 09003KT 10SM BKN090 M04/M08 A3022 RMK AO2 SLP256 T10441083 10028 21056 401111056 51012 FZRANO,0,3.0,0,16090,0,0,0,
2026-04-18 04:56:00,METAR KEGE 180456Z 09004KT 10SM CLR M04/M08 A3020 RMK AO2 SLP256 T10391083 FZRANO,0,4.0,0,16090,0,0,0,
2026-04-18 03:56:00,METAR KEGE 180356Z 09006KT 10SM OVC100 M03/M08 A3020 RMK AO2 SLP252 T10281083 FZRANO,0,6.0,0,16090,0,0,0,
2026-04-18 02:56:00,METAR KEGE 180256Z 11004KT 10SM CLR M02/M08 A3018 RMK AO2 SLP241 T10171078 53013 FZRANO,0,4.0,0,16090,0,0,0,
2026-04-18 01:56:00,METAR KEGE 180156Z 29005KT 10SM CLR 00/M09 A3016 RMK AO2 SLP231 T00001089 FZRANO,0,5.0,0,16090,0,0,0,
2026-04-18 00:56:00,METAR KEGE 180056Z 27011KT 10SM SCT080 02/M12 A3015 RMK AO2 SLP220 T00221117 FZRANO,0,11.0,0,16090,0,0,0,
2026-04-17 23:56:00,METAR KEGE 172356Z 26013KT 10SM BKN050 OVC075 03/M10 A3013 RMK AO2 SLP203 60011 T00281100 10033 21017 56001,0,13.0,0,16090,0,0,0,
2026-04-17 22:56:00,METAR KEGE 172256Z 02004KT 10SM FEW046 SCT055 BKN070 01/M08 A3013 RMK AO2 SNE03 SLP206 P0000 T00111083,0,4.0,0,16090,0,0,0,
2026-04-17 21:56:00,METAR KEGE 172156Z 01004KT 10SM -SN FEW055 BKN070 OVC080 01/M09 A3012 RMK AO2 RAB45E52SNB52 SLP204 P0000 T00061094,0,4.0,0,16090,0,0,0,"RA,SN"
2026-04-17 20:56:00,METAR KEGE 172056Z 15003KT 10SM BKN060 00/M08 A3014 RMK AO2 SLP203 60011 T00001078 50004,0,3.0,0,16090,0,0,0,
2026-04-17 20:42:00,SPECI KEGE 172042Z 00000KT 10SM FEW015 BKN065 00/M08 A3014 RMK AO2,0,0.0,0,16090,0,0,0,
2026-04-17 20:26:00,SPECI KEGE 172026Z VRB03KT 10SM FEW015 BKN021 OVC065 00/M07 A3014 RMK AO2,0,3.0,0,16090,0,0,0,
2026-04-17 19:56:00,METAR KEGE 171956Z 00000KT 5SM HZ OVC060 M01/M08 A3015 RMK AO2 SLP200 T10111078,0,0.0,0,8045,0,0,0,
2026-04-17 19:26:00,SPECI KEGE 171926Z 00000KT 10SM SCT019 OVC055 01/M07 A3014 RMK AO2,0,0.0,0,16090,0,0,0,
2026-04-17 18:56:00,METAR KEGE 171856Z 00000KT 10SM FEW015 BKN029 OVC055 01/M06 A3014 RMK AO2 UPB06E34SNE06 SLP186 P0011 T00061056,0,0.0,0,16090,0,0,0,UP
2026-04-17 18:02:00,SPECI KEGE 171802Z 14003KT 3SM -SN BKN016 OVC022 01/M05 A3012 RMK AO2 P0000,0,3.0,0,4827,0,0,0,SN
2026-04-17 17:56:00,METAR KEGE 171756Z 00000KT 1 3/4SM -SN OVC016 M01/M04 A3012 RMK AO2 SLP181 P0000 60000 T10061039 11006 21039 53030,0,0.0,0,2816,0,0,0,SN
2026-04-17 17:42:00,SPECI KEGE 171742Z 24003KT 1 3/4SM -SN SCT009 OVC016 M02/M05 A3012 RMK AO2 P0000,0,3.0,0,2816,0,0,0,SN
2026-04-17 17:31:00,SPECI KEGE 171731Z 29005KT 1 3/4SM -SN FEW004 BKN009 OVC016 M02/M06 A3011 RMK AO2 CIG 006V012 P0000,0,5.0,0,2816,0,0,0,SN
2026-04-17 17:21:00,SPECI KEGE 171721Z 33004KT 3SM -SN OVC007 M02/M06 A3010 RMK AO2 CIG 003V009 PRESRR P0000,0,4.0,0,4827,0,0,0,SN
2026-04-17 17:16:00,SPECI KEGE 171716Z 34006KT 1 3/4SM -SN OVC007 M03/M06 A3010 RMK AO2 CIG 003V009 PRESRR P0000,0,6.0,0,2816,0,0,0,SN
2026-04-17 16:56:00,METAR KEGE 171656Z 27010KT 1/2SM -SN FZFG OVC005 M03/M05 A3007 RMK AO2 CIG 003V008 SLP167 P0000 T10281050 RVRNO,0,10.0,0,804,0,0,1,"FG,SN"
2026-04-17 15:56:00,METAR KEGE 171556Z 06006KT 1/2SM SN FZFG OVC007 M03/M04 A3004 RMK AO2 CIG 005V012 SLP151 P0000 T10281044 RVRNO,0,6.0,0,804,0,0,1,"FG,SN"
2026-04-17 15:37:00,SPECI KEGE 171537Z 06006KT 1/2SM -SN FZFG OVC007 M03/M04 A3003 RMK AO2 CIG 005V010 P0000 RVRNO,0,6.0,0,804,0,0,1,"FG,SN"
2026-04-17 15:21:00,SPECI KEGE 171521Z 06005KT 1/2SM SN FZFG BKN005 OVC009 M03/M04 A3002 RMK AO2 P0000 RVRNO,0,5.0,0,804,0,0,1,"FG,SN"
2026-04-17 14:56:00,METAR KEGE 171456Z 00000KT 1/4SM SN FZFG OVC005 M03/M04 A3001 RMK AO2 SLP142 P0000 60000 T10281039 51037 RVRNO,0,0.0,0,402,0,0,1,"FG,SN"
2026-04-17 14:16:00,SPECI KEGE 171416Z 27009KT 1/2SM SN FZFG BKN005 OVC012 M04/M04 A2998 RMK AO2 P0000 RVRNO,0,9.0,0,804,0,0,1,"FG,SN"
2026-04-17 13:56:00,METAR KEGE 171356Z 26009KT 3/4SM -SN BR FEW005 BKN012 OVC017 M04/M05 A2997 RMK AO2 SLP131 P0000 T10391050 RVRNO,0,9.0,0,1207,0,0,1,"BR,SN"
2026-04-17 13:54:00,SPECI KEGE 171354Z 26009KT 3/4SM -SN BR BKN012 OVC017 M04/M05 A2997 RMK AO2 P0000 RVRNO,0,9.0,0,1207,0,0,1,"BR,SN"
2026-04-17 13:10:00,SPECI KEGE 171310Z 26010KT 1 3/4SM -SN BR OVC015 M03/M05 A2993 RMK AO2 P0000,0,10.0,0,2816,0,0,1,"BR,SN"
2026-04-17 12:56:00,METAR KEGE 171256Z 25016KT 3SM -SN BR BKN017 OVC034 M03/M05 A2993 RMK AO2 RAE1158UPB1158E1159SNB1159 SLP110 P0000 T10331050,0,16.0,0,4827,0,0,1,"BR,RA,SN"
2026-04-17 12:51:00,SPECI KEGE 171251Z AUTO 25012KT 2 1/2SM -SN BR FEW012 BKN017 OVC034 M03/M05 A2993 RMK AO2 RAE1158UPB1158E1159SNB1159 P0000 FZRANO,0,12.0,0,4022,0,0,1,"BR,RA,SN"
2026-04-17 12:33:00,SPECI KEGE 171233Z AUTO 26007KT 1 1/2SM -SN BR OVC034 M03/M05 A2991 RMK AO2 RAE1158UPB1158E1159SNB1159 P0000 FZRANO,0,7.0,0,2414,0,0,1,"BR,RA,SN"
2026-04-17 11:56:00,METAR KEGE 171156Z AUTO 31011KT 10SM -RA OVC060 00/M08 A2988 RMK AO2 RAB56 SLP085 P0000 60000 T00001083 10117 20000 53019 FZRANO,0,11.0,0,16090,0,0,0,-RA
2026-04-17 10:56:00,METAR KEGE 171056Z AUTO 33005KT 10SM BKN075 OVC085 01/M08 A2985 RMK AO2 SLP069 T00111083 FZRANO,0,5.0,0,16090,0,0,0,
2026-04-17 09:56:00,METAR KEGE 170956Z AUTO 29011KT 10SM FEW075 OVC090 02/M08 A2983 RMK AO2 SLP058 T00171078 FZRANO,0,11.0,0,16090,0,0,0,
2026-04-17 08:56:00,METAR KEGE 170856Z AUTO 31012G18KT 10SM BKN100 04/M07 A2981 RMK AO2 SLP047 T00391072 53016,0,12.0,1,16090,0,0,0,
2026-04-17 07:56:00,METAR KEGE 170756Z AUTO 29008KT 10SM BKN100 08/M08 A2978 RMK AO2 SLP026 T00781083,0,8.0,0,16090,0,0,0,
2026-04-17 06:56:00,METAR KEGE 170656Z AUTO 27010KT 10SM FEW110 10/M10 A2977 RMK AO2 SLP016 T01001100,0,10.0,0,16090,0,0,0,
2026-04-17 05:56:00,METAR KEGE 170556Z AUTO 26005KT 10SM OVC120 12/M12 A2976 RMK AO2 SLP012 T01171122 10156 20111 401831017 58005,0,5.0,0,16090,0,0,0,
2026-04-17 04:56:00,METAR KEGE 170456Z AUTO 29004KT 10SM FEW120 12/M12 A2978 RMK AO2 SLP022 T01171122,0,4.0,0,16090,0,0,0,
2026-04-17 03:56:00,METAR KEGE 170356Z AUTO 22013G16KT 10SM CLR 13/M14 A2979 RMK AO2 SLP029 T01331139,0,13.0,1,16090,0,0,0,
2026-04-17 02:56:00,METAR KEGE 170256Z AUTO 23013G24KT 10SM CLR 14/M12 A2978 RMK AO2 SLP039 T01391117 53002,0,13.0,1,16090,0,0,0,
2026-04-17 01:56:00,METAR KEGE 170156Z AUTO 23011G20KT 10SM CLR 14/M11 A2976 RMK AO2 SLP036 T01391106,0,11.0,1,16090,0,0,0,
2026-04-17 00:56:00,METAR KEGE 170056Z AUTO 23015G27KT 10SM CLR 15/M10 A2976 RMK AO2 PK WND 23031/0001 SLP043 T01501100,0,15.0,1,16090,0,0,0,
2026-04-16 23:56:00,METAR KEGE 162356Z 23020G27KT 10SM CLR 16/M11 A2977 RMK AO2 PK WND 22035/2307 SLP046 T01561111 10183 20156 58009,0,20.0,1,16090,0,0,0,
2026-04-16 22:56:00,METAR KEGE 162256Z 22025G33KT 10SM CLR 17/M12 A2979 RMK AO2 PK WND 24035/2159 SLP048 T01671122,0,25.0,1,16090,0,0,0,
2026-04-16 21:56:00,METAR KEGE 162156Z 24023G35KT 10SM CLR 17/M12 A2979 RMK AO2 PK WND 25040/2146 SLP047 T01721117,0,23.0,1,16090,0,0,0,
2026-04-16 20:56:00,METAR KEGE 162056Z 23018G27KT 10SM FEW110 17/M08 A2980 RMK AO2 PK WND 24031/2021 SLP050 T01721078 56021,0,18.0,1,16090,0,0,0,
2026-04-16 19:56:00,METAR KEGE 161956Z 24023G30KT 10SM CLR 18/M08 A2981 RMK AO2 PK WND 25033/1903 SLP048 T01781078,0,23.0,1,16090,0,0,0,
2026-04-16 18:56:00,METAR KEGE 161856Z 23027G36KT 10SM CLR 17/M07 A2984 RMK AO2 PK WND 22036/1855 SLP059 T01721067,0,27.0,1,16090,0,0,0,
2026-04-16 17:56:00,METAR KEGE 161756Z 21022G28KT 10SM CLR 16/M07 A2988 RMK AO2 PK WND 21032/1728 SLP071 T01611072 10161 21017 56029,0,22.0,1,16090,0,0,0,
2026-04-16 16:56:00,METAR KEGE 161656Z 23018G30KT 10SM CLR 14/M07 A2990 RMK AO2 PK WND 23032/1622 WSHFT 1607 SLP083 T01441072,0,18.0,1,16090,0,0,0,
2026-04-16 16:32:00,SPECI KEGE 161632Z 23020G25KT 10SM CLR 14/M07 A2991 RMK AO2 PK WND 23032/1622 WSHFT 1607,0,20.0,1,16090,0,0,0,
2026-04-16 15:56:00,METAR KEGE 161556Z VRB04KT 10SM CLR 12/M04 A2993 RMK AO2 SLP092 T01221044,0,4.0,0,16090,0,0,0,
2026-04-16 14:56:00,METAR KEGE 161456Z 26003KT 10SM CLR 04/M03 A2998 RMK AO2 SLP124 T00441028 58004,0,3.0,0,16090,0,0,0,
2026-04-16 13:56:00,METAR KEGE 161356Z 00000KT 10SM CLR 02/M03 A3000 RMK AO2 SLP132 T00221033,0,0.0,0,16090,0,0,0,
2026-04-16 12:56:00,METAR KEGE 161256Z 28003KT 10SM CLR M01/M04 A3000 RMK AO2 SLP134 T10111039,0,3.0,0,16090,0,0,0,
2026-04-16 11:56:00,METAR KEGE 161156Z AUTO 11003KT 10SM CLR M01/M04 A2999 RMK AO2 SLP131 T10111039 10033 21017 58007 FZRANO,0,3.0,0,16090,0,0,0,
2026-04-16 10:56:00,METAR KEGE 161056Z AUTO VRB03KT 10SM BKN085 M01/M04 A3000 RMK AO2 SLP133 T10061039 FZRANO,0,3.0,0,16090,0,0,0,
2026-04-16 09:56:00,METAR KEGE 160956Z AUTO 00000KT 10SM FEW085 00/M04 A3002 RMK AO2 SLP138 T00001039 FZRANO,0,0.0,0,16090,0,0,0,
2026-04-16 08:56:00,METAR KEGE 160856Z AUTO 10006KT 10SM FEW080 00/M04 A3002 RMK AO2 SLP138 T00001039 58008 FZRANO,0,6.0,0,16090,0,0,0,
2026-04-16 07:56:00,METAR KEGE 160756Z AUTO 13003KT 10SM CLR 02/M03 A3004 RMK AO2 SLP142 T00171033 FZRANO,0,3.0,0,16090,0,0,0,
2026-04-16 06:56:00,METAR KEGE 160656Z AUTO 09005KT 10SM CLR 02/M03 A3005 RMK AO2 SLP149 T00221033 FZRANO,0,5.0,0,16090,0,0,0,
2026-04-16 05:56:00,METAR KEGE 160556Z AUTO 08008KT 10SM CLR 03/M03 A3005 RMK AO2 SLP149 T00331033 10133 20033 401390000 50006,0,8.0,0,16090,0,0,0,
2026-04-16 04:56:00,METAR KEGE 160456Z AUTO 09008KT 10SM CLR 04/M03 A3005 RMK AO2 SLP150 T00441033,0,8.0,0,16090,0,0,0,
2026-04-16 03:56:00,METAR KEGE 160356Z AUTO 10007KT 10SM CLR 06/M03 A3005 RMK AO2 SLP150 T00611028,0,7.0,0,16090,0,0,0,
2026-04-16 02:56:00,METAR KEGE 160256Z AUTO 24004KT 10SM CLR 09/M03 A3003 RMK AO2 SLP141 T00891028 53006,0,4.0,0,16090,0,0,0,
2026-04-16 01:56:00,METAR KEGE 160156Z AUTO 24005KT 10SM CLR 11/M04 A3001 RMK AO2 SLP134 T01061039,0,5.0,0,16090,0,0,0,
2026-04-16 00:56:00,METAR KEGE 160056Z 29010KT 10SM CLR 13/M04 A3001 RMK AO2 SLP134 T01281039,0,10.0,0,16090,0,0,0,
2026-04-15 23:56:00,METAR KEGE 152356Z 29016G22KT 10SM CLR 13/M04 A3001 RMK AO2 SLP130 T01281039 10139 20100 56009,0,16.0,1,16090,0,0,0,
2026-04-15 22:56:00,METAR KEGE 152256Z 29013G21KT 10SM CLR 13/M04 A3001 RMK AO2 SLP131 T01331044,0,13.0,1,16090,0,0,0,
2026-04-15 21:56:00,METAR KEGE 152156Z 29017G22KT 8SM CLR 13/M04 A3002 RMK AO2 SLP139 T01331044,0,17.0,1,12872,0,0,0,
2026-04-15 20:56:00,METAR KEGE 152056Z 29014G19KT 10SM CLR 13/M07 A3004 RMK AO2 SLP142 T01281067 56014,0,14.0,1,16090,0,0,0,
2026-04-15 19:56:00,METAR KEGE 151956Z 22011G21KT 10SM BKN070 12/M07 A3006 RMK AO2 SLP146 T01221072,0,11.0,1,16090,0,0,0,
2026-04-15 18:56:00,METAR KEGE 151856Z 21010G19KT 10SM BKN070 11/M06 A3007 RMK AO2 SLP150 T01111061,0,10.0,1,16090,0,0,0,
2026-04-15 17:56:00,METAR KEGE 151756Z 25011G17KT 10SM CLR 10/M08 A3009 RMK AO2 SLP160 60000 T01001078 10100 20006 58006,0,11.0,1,16090,0,0,0,
2026-04-15 16:56:00,METAR KEGE 151656Z 25012G19KT 10SM BKN050 08/M04 A3010 RMK AO2 SLP168 T00831044,0,12.0,1,16090,0,0,0,
2026-04-15 15:56:00,METAR KEGE 151556Z VRB04KT 10SM CLR 07/M01 A3011 RMK AO2 SLP172 T00671006,0,4.0,0,16090,0,0,0,
2026-04-15 14:56:00,METAR KEGE 151456Z 00000KT 10SM CLR 04/01 A3011 RMK AO2 SLP181 60000 T00390006 51008,0,0.0,0,16090,0,0,0,
2026-04-15 13:56:00,METAR KEGE 151356Z 08003KT 10SM SCT075 02/00 A3011 RMK AO2 RAE11 SLP185 P0000 T00220000,0,3.0,0,16090,0,0,0,
2026-04-15 12:56:00,METAR KEGE 151256Z AUTO 00000KT 10SM -RA FEW024 BKN055 OVC080 01/M01 A3009 RMK AO2 RAB1159UPB28E36 SLP181 P0000 T00061006 FZRANO,0,0.0,0,16090,0,0,0,"-RA,RA"
2026-04-15 11:56:00,METAR KEGE 151156Z AUTO 00000KT 10SM OVC055 01/M01 A3008 RMK AO2 SLP176 70002 T00111011 10044 20000 53003 FZRANO,0,0.0,0,16090,0,0,0,
2026-04-15 10:56:00,METAR KEGE 151056Z AUTO 09005KT 10SM OVC060 01/M02 A3007 RMK AO2 SLP172 T00061017 FZRANO,0,5.0,0,16090,0,0,0,
2026-04-15 09:56:00,METAR KEGE 150956Z AUTO 08005KT 10SM OVC060 00/M02 A3007 RMK AO2 SLP173 T00001017 FZRANO,0,5.0,0,16090,0,0,0,
2026-04-15 08:56:00,METAR KEGE 150856Z AUTO 10007KT 10SM BKN060 BKN080 01/M02 A3007 RMK AO2 SLP173 T00111017 52002 FZRANO,0,7.0,0,16090,0,0,0,
2026-04-15 07:56:00,METAR KEGE 150756Z AUTO VRB04KT 10SM BKN055 03/M02 A3007 RMK AO2 SLP163 T00331017,0,4.0,0,16090,0,0,0,
2026-04-15 06:56:00,METAR KEGE 150656Z AUTO 27005KT 10SM OVC090 04/M01 A3006 RMK AO2 SLP153 T00391011,0,5.0,0,16090,0,0,0,
2026-04-15 05:56:00,METAR KEGE 150556Z AUTO 25007KT 10SM BKN048 OVC075 04/M01 A3006 RMK AO2 SLP159 T00441011 10056 20044 401000028 51008,0,7.0,0,16090,0,0,0,
2026-04-15 04:56:00,METAR KEGE 150456Z AUTO 25008KT 10SM SCT090 OVC110 04/M01 A3005 RMK AO2 SLP161 T00441011,0,8.0,0,16090,0,0,0,
2026-04-15 03:56:00,METAR KEGE 150356Z AUTO 21010KT 10SM OVC060 05/M02 A3004 RMK AO2 SLP156 T00501017,0,10.0,0,16090,0,0,0,
2026-04-15 02:56:00,METAR KEGE 150256Z AUTO 22010KT 10SM FEW050 OVC080 05/M02 A3003 RMK AO2 SLP154 T00501017 53009,0,10.0,0,16090,0,0,0,
2026-04-15 01:56:00,METAR KEGE 150156Z AUTO 23011KT 10SM SCT046 SCT085 OVC110 04/M01 A3001 RMK AO2 SLP150 T00441011,0,11.0,0,16090,0,0,0,
2026-04-15 00:56:00,METAR KEGE 150056Z AUTO 22012KT 10SM BKN055 BKN070 OVC085 06/M02 A3001 RMK AO2 SLP145 T00561017,0,12.0,0,16090,0,0,0,
2026-04-14 23:56:00,METAR KEGE 142356Z 22017G25KT 10SM FEW055 06/M02 A3000 RMK AO2 PK WND 23031/2332 SLP142 60000 T00561017 10100 20044 53009,0,17.0,1,16090,0,0,0,
2026-04-14 22:56:00,METAR KEGE 142256Z 21009KT 10SM SCT050 06/M02 A2998 RMK AO2 PK WND 22035/2231 WSHFT 2152 RAB38E49 SLP134 P0000 T00561017,0,9.0,0,16090,0,0,0,RA
2026-04-14 22:17:00,SPECI KEGE 142217Z 21021G25KT 10SM BKN044 BKN055 08/M02 A2996 RMK AO2 WSHFT 2152,0,21.0,1,16090,0,0,0,
2026-04-14 21:56:00,METAR KEGE 142156Z 29013G18KT 10SM FEW055 07/M02 A2997 RMK AO2 PK WND 28028/2104 SLP128 T00671017,0,13.0,1,16090,0,0,0,
2026-04-14 20:56:00,METAR KEGE 142056Z 27021G31KT 10SM FEW037 05/M01 A2997 RMK AO2 PK WND 28031/2050 RAE03 SLP131 P0000 60000 T00501011 53006,0,21.0,1,16090,0,0,0,
2026-04-14 19:56:00,METAR KEGE 141956Z 28016G27KT 10SM -RA FEW110 07/M02 A2995 RMK AO2 PK WND 25033/1944 RAB49 PRESRR SLP116 P0000 T00721022,0,16.0,1,16090,0,0,0,-RA
2026-04-14 18:56:00,METAR KEGE 141856Z 27013G26KT 230V300 10SM FEW120 09/M01 A2992 RMK AO2 PK WND 24026/1854 SLP099 T00941011,0,13.0,1,16090,0,0,0,
2026-04-14 17:56:00,METAR KEGE 141756Z VRB06KT 10SM BKN043 BKN060 OVC075 06/M02 A2995 RMK AO2 SLP110 60002 T00611022 10061 20028 50005,0,6.0,0,16090,0,0,0,
2026-04-14 17:12:00,SPECI KEGE 141712Z 26012KT 10SM FEW015 OVC070 06/01 A2995 RMK AO2,0,12.0,0,16090,0,0,0,
2026-04-14 16:56:00,METAR KEGE 141656Z 31005KT 10SM FEW013 BKN018 OVC070 04/01 A2995 RMK AO2 RAE32 SLP114 P0001 T00440011,0,5.0,0,16090,0,0,0,
2026-04-14 16:28:00,SPECI KEGE 141628Z 27004KT 10SM -RA SCT010 BKN020 OVC028 04/01 A2994 RMK AO2 P0001,0,4.0,0,16090,0,0,0,-RA
2026-04-14 15:56:00,METAR KEGE 141556Z 25005KT 10SM -RA BKN010 OVC035 04/02 A2994 RMK AO2 RAB53 SLP110 P0000 T00440022,0,5.0,0,16090,0,0,0,-RA
2026-04-14 14:56:00,METAR KEGE 141456Z 20005KT 10SM OVC010 04/02 A2993 RMK AO2 SLP103 60001 T00390017 56003,0,5.0,0,16090,0,0,0,
2026-04-14 14:08:00,SPECI KEGE 141408Z 27003KT 10SM OVC008 03/02 A2993 RMK AO2 CIG 007V010,0,3.0,0,16090,0,0,0,
2026-04-14 13:56:00,METAR KEGE 141356Z 24003KT 10SM BKN010 OVC014 03/02 A2993 RMK AO2 SLP099 T00330022,0,3.0,0,16090,0,0,0,
2026-04-14 13:16:00,SPECI KEGE 141316Z 00000KT 10SM BKN010 BKN023 OVC034 03/02 A2994 RMK AO2,0,0.0,0,16090,0,0,0,
2026-04-14 12:56:00,METAR KEGE 141256Z 00000KT 10SM SCT032 BKN040 OVC065 03/02 A2994 RMK AO2 RAB21E45 SLP099 P0001 T00280017,0,0.0,0,16090,0,0,0,RA
2026-04-14 12:32:00,SPECI KEGE 141232Z AUTO 01003KT 10SM -RA SCT018 SCT046 OVC065 03/02 A2994 RMK AO2 RAB21 P0001,0,3.0,0,16090,0,0,0,-RA
2026-04-14 12:20:00,SPECI KEGE 141220Z AUTO 03003KT 10SM FEW011 BKN018 OVC080 03/02 A2995 RMK AO2,0,3.0,0,16090,0,0,0,
2026-04-14 11:56:00,METAR KEGE 141156Z AUTO 11004KT 10SM SCT009 BKN070 OVC110 03/02 A2994 RMK AO2 RAE15 SLP099 P0000 60019 70019 T00280017 10083 20028 50000,0,4.0,0,16090,0,0,0,
2026-04-14 11:52:00,SPECI KEGE 141152Z AUTO 12004KT 10SM SCT009 SCT020 OVC110 03/02 A2994 RMK AO2 RAE15 P0000,0,4.0,0,16090,0,0,0,
2026-04-14 11:14:00,SPECI KEGE 141114Z AUTO 04003KT 10SM -RA BKN007 OVC017 03/02 A2995 RMK AO2 CIG 005V013 P0000,0,3.0,0,16090,0,0,0,-RA
2026-04-14 10:56:00,METAR KEGE 141056Z AUTO 00000KT 7SM -RA SCT007 BKN017 OVC050 03/02 A2995 RMK AO2 RAB17 SLP104 P0010 T00280017,0,0.0,0,11263,0,0,0,-RA
2026-04-14 10:49:00,SPECI KEGE 141049Z AUTO 00000KT 6SM RA BR FEW007 BKN019 OVC070 03/02 A2996 RMK AO2 RAB17 P0010,0,0.0,0,9654,0,0,1,"BR,RA"
2026-04-14 09:56:00,METAR KEGE 140956Z AUTO 28004KT 10SM CLR 03/03 A2994 RMK AO2 RAE07 SLP096 P0001 T00330028,0,4.0,0,16090,0,0,0,
2026-04-14 09:50:00,SPECI KEGE 140950Z AUTO 31004KT 10SM FEW023 03/02 A2993 RMK AO2 RAE07 P0001,0,4.0,0,16090,0,0,0,
2026-04-14 08:56:00,METAR KEGE 140856Z AUTO 07003KT 9SM -RA BKN025 OVC032 04/02 A2995 RMK AO2 RAE19B37 SLP101 P0003 60008 T00390022 58001,0,3.0,0,14481,0,0,0,"-RA,RA"
2026-04-14 08:41:00,SPECI KEGE 140841Z AUTO 08003KT 10SM -RA FEW022 BKN030 OVC070 04/02 A2997 RMK AO2 RAE19B37 P0002,0,3.0,0,16090,0,0,0,"-RA,RA"
2026-04-14 07:56:00,METAR KEGE 140756Z AUTO 30004KT 9SM -RA BKN028 BKN033 OVC040 05/03 A2997 RMK AO2 SLP104 P0005 T00500028,0,4.0,0,14481,0,0,0,-RA
2026-04-14 06:56:00,METAR KEGE 140656Z AUTO 26005KT 10SM -RA SCT037 BKN048 OVC070 06/02 A2997 RMK AO2 RAB12 SLP105 P0000 T00610017,0,5.0,0,16090,0,0,0,-RA
2026-04-14 05:56:00,METAR KEGE 140556Z AUTO 25008KT 10SM FEW055 BKN080 OVC110 08/M01 A2996 RMK AO2 SLP098 T00831011 10156 20078 401610072 50005,0,8.0,0,16090,0,0,0,
2026-04-14 04:56:00,METAR KEGE 140456Z AUTO 27004KT 10SM SCT039 BKN050 OVC080 08/M01 A2996 RMK AO2 PK WND 23028/0434 SLP102 T00831011,0,4.0,0,16090,0,0,0,
2026-04-14 03:56:00,METAR KEGE 140356Z AUTO 07006KT 10SM SCT090 09/M06 A2993 RMK AO2 SLP092 T00891061,0,6.0,0,16090,0,0,0,
2026-04-14 02:56:00,METAR KEGE 140256Z AUTO 17003KT 10SM SCT100 11/M07 A2994 RMK AO2 SLP091 T01061067 53008,0,3.0,0,16090,0,0,0,
2026-04-14 01:56:00,METAR KEGE 140156Z AUTO 23007KT 10SM FEW085 13/M09 A2992 RMK AO2 PK WND 25027/0141 SLP081 T01331089,0,7.0,0,16090,0,0,0,
2026-04-14 00:56:00,METAR KEGE 140056Z AUTO 23015G20KT 10SM SCT100 14/M08 A2991 RMK AO2 SLP079 T01441083,0,15.0,1,16090,0,0,0,
2026-04-13 23:56:00,METAR KEGE 132356Z VRB05KT 10SM SCT055 OVC090 15/M08 A2991 RMK AO2 RAB20E34 SLP076 P0000 60000 T01501078 10161 20128 56012,0,5.0,0,16090,0,0,0,RA
2026-04-13 22:56:00,METAR KEGE 132256Z 27007KT 10SM FEW085 BKN100 14/M08 A2991 RMK AO2 SLP077 T01441083,0,7.0,0,16090,0,0,0,
2026-04-13 21:56:00,METAR KEGE 132156Z 27013G22KT 10SM BKN090 15/M08 A2993 RMK AO2 PK WND 23028/2114 SLP076 T01501078,0,13.0,1,16090,0,0,0,
2026-04-13 20:56:00,METAR KEGE 132056Z 26008G20KT 10SM BKN100 15/M08 A2995 RMK AO2 PK WND 25032/1958 SLP088 T01501083 56014,0,8.0,1,16090,0,0,0,
2026-04-13 19:56:00,METAR KEGE 131956Z 25017G30KT 10SM BKN090 16/M09 A2997 RMK AO2 PK WND 25030/1953 SLP088 T01561089,0,17.0,1,16090,0,0,0,
2026-04-13 18:56:00,METAR KEGE 131856Z 22017G27KT 10SM BKN090 14/M09 A2998 RMK AO2 PK WND 23027/1854 SLP098 T01391094,0,17.0,1,16090,0,0,0,
2026-04-13 17:56:00,METAR KEGE 131756Z 27013G23KT 240V300 10SM CLR 13/M07 A3000 RMK AO2 SLP108 T01281072 10133 20072 58006,0,13.0,1,16090,0,0,0,
2026-04-13 16:56:00,METAR KEGE 131656Z 27012KT 10SM BKN060 OVC070 11/M06 A3002 RMK AO2 SLP117 T01111061,0,12.0,0,16090,0,0,0,
2026-04-13 15:56:00,METAR KEGE 131556Z 28013G18KT 10SM OVC070 11/M06 A3002 RMK AO2 PK WND 21026/1531 SLP118 T01111061,0,13.0,1,16090,0,0,0,
2026-04-13 14:56:00,METAR KEGE 131456Z 22016G22KT 10SM FEW070 11/M06 A3002 RMK AO2 PK WND 24026/1442 SLP118 T01061061 51011,0,16.0,1,16090,0,0,0,
2026-04-13 13:56:00,METAR KEGE 131356Z 25013KT 10SM FEW080 09/M07 A3002 RMK AO2 SLP115 T00891067,0,13.0,0,16090,0,0,0,
2026-04-13 12:56:00,METAR KEGE 131256Z 24015KT 10SM CLR 08/M07 A2999 RMK AO2 SLP105 T00781067,0,15.0,0,16090,0,0,0,
2026-04-13 11:56:00,METAR KEGE 131156Z AUTO 24011KT 10SM CLR 08/M07 A2998 RMK AO2 SLP097 T00831072 10117 20083 53008,0,11.0,0,16090,0,0,0,
2026-04-13 10:56:00,METAR KEGE 131056Z AUTO 24010KT 10SM CLR 08/M07 A2998 RMK AO2 SLP091 T00831072,0,10.0,0,16090,0,0,0,
2026-04-13 09:56:00,METAR KEGE 130956Z AUTO 24008G15KT 10SM CLR 10/M08 A2996 RMK AO2 SLP080 T01001083,0,8.0,1,16090,0,0,0,
2026-04-13 08:56:00,METAR KEGE 130856Z AUTO 24006KT 10SM CLR 09/M09 A2996 RMK AO2 SLP082 T00941089 51007,0,6.0,0,16090,0,0,0,
2026-04-13 07:56:00,METAR KEGE 130756Z AUTO 22005KT 10SM CLR 11/M10 A2995 RMK AO2 SLP078 T01111100,0,5.0,0,16090,0,0,0,
2026-04-13 06:56:00,METAR KEGE 130656Z AUTO 28005KT 10SM CLR 11/M07 A2995 RMK AO2 SLP081 T01061072,0,5.0,0,16090,0,0,0,
2026-04-13 05:56:00,METAR KEGE 130556Z AUTO 01004KT 10SM BKN100 10/M06 A2993 RMK AO2 SLP076 T01001061 10172 20089 401941017 51005,0,4.0,0,16090,0,0,0,
2026-04-13 04:56:00,METAR KEGE 130456Z AUTO 28005KT 10SM CLR 11/M06 A2993 RMK AO2 SLP076 T01111061,0,5.0,0,16090,0,0,0,
2026-04-13 03:56:00,METAR KEGE 130356Z AUTO VRB03KT 10SM CLR 11/M06 A2993 RMK AO2 SLP087 T01061056,0,3.0,0,16090,0,0,0,
2026-04-13 02:56:00,METAR KEGE 130256Z AUTO 27008KT 10SM CLR 12/M04 A2991 RMK AO2 PK WND 19033/0203 WSHFT 0213 SLP095 T01171044 50014,0,8.0,0,16090,0,0,0,
2026-04-13 02:38:00,SPECI KEGE 130238Z AUTO 29009KT 10SM SCT100 SCT120 12/M04 A2991 RMK AO2 PK WND 19033/0203 WSHFT 0213,0,9.0,0,16090,0,0,0,
2026-04-13 01:56:00,METAR KEGE 130156Z AUTO 21016G27KT 10SM FEW110 14/M05 A2992 RMK AO2 PK WND 21029/0144 SLP098 T01391050,0,16.0,1,16090,0,0,0,
2026-04-13 00:56:00,METAR KEGE 130056Z AUTO 24019G26KT 10SM FEW110 16/M08 A2988 RMK AO2 PK WND 23031/0026 SLP086 T01561083,0,19.0,1,16090,0,0,0,
2026-04-12 23:56:00,METAR KEGE 122356Z 23015G28KT 10SM FEW120 17/M11 A2986 RMK AO2 PK WND 25031/2333 SLP075 T01721111 10194 20161 55003,0,15.0,1,16090,0,0,0,
2026-04-12 22:56:00,METAR KEGE 122256Z 24015G25KT 10SM FEW110 18/M13 A2986 RMK AO2 PK WND 22033/2243 SLP070 T01781128,0,15.0,1,16090,0,0,0,
2026-04-12 21:56:00,METAR KEGE 122156Z 21015G23KT 10SM SCT120 19/M11 A2987 RMK AO2 PK WND 24034/2109 SLP067 T01891106,0,15.0,1,16090,0,0,0,
2026-04-12 20:56:00,METAR KEGE 122056Z 24011G17KT 10SM FEW120 18/M11 A2988 RMK AO2 PK WND 23028/2032 SLP073 T01781106 58014,0,11.0,1,16090,0,0,0,
2026-04-12 19:56:00,METAR KEGE 121956Z 25013G27KT 10SM SCT110 18/M09 A2989 RMK AO2 PK WND 22034/1933 SLP078 T01781094,0,13.0,1,16090,0,0,0,
2026-04-12 18:56:00,METAR KEGE 121856Z 23013G24KT 10SM CLR 17/M09 A2991 RMK AO2 PK WND 21038/1816 SLP082 T01721089,0,13.0,1,16090,0,0,0,
2026-04-12 17:56:00,METAR KEGE 121756Z 22020G29KT 10SM CLR 17/M09 A2993 RMK AO2 PK WND 21030/1722 SLP087 T01671094 10167 21017 58020,0,20.0,1,16090,0,0,0,
2026-04-12 16:56:00,METAR KEGE 121656Z 21021G26KT 10SM CLR 14/M07 A2995 RMK AO2 PK WND 24029/1605 SLP095 T01441072,0,21.0,1,16090,0,0,0,
2026-04-12 15:56:00,METAR KEGE 121556Z 00000KT 10SM FEW075 10/M01 A2998 RMK AO2 SLP112 T01001011,0,0.0,0,16090,0,0,0,
2026-04-12 14:56:00,METAR KEGE 121456Z 00000KT 10SM CLR 04/M02 A3000 RMK AO2 SLP127 T00391017 50002,0,0.0,0,16090,0,0,0,
2026-04-12 13:56:00,METAR KEGE 121356Z 04003KT 10SM CLR 02/M03 A3001 RMK AO2 SLP136 T00171028,0,3.0,0,16090,0,0,0,
2026-04-12 12:56:00,METAR KEGE 121256Z 12004KT 10SM FEW100 M02/M03 A3000 RMK AO2 SLP132 T10171033,0,4.0,0,16090,0,0,0,
2026-04-12 11:56:00,METAR KEGE 121156Z AUTO 11003KT 10SM CLR M01/M03 A2999 RMK AO2 SLP124 T10111028 10044 21011 53001 FZRANO,0,3.0,0,16090,0,0,0,
2026-04-12 10:56:00,METAR KEGE 121056Z AUTO 00000KT 10SM CLR M01/M02 A2999 RMK AO2 SLP127 T10061022 FZRANO,0,0.0,0,16090,0,0,0,
2026-04-12 09:56:00,METAR KEGE 120956Z AUTO 00000KT 10SM CLR 01/M02 A2998 RMK AO2 SLP125 T00061022 FZRANO,0,0.0,0,16090,0,0,0,
2026-04-12 08:56:00,METAR KEGE 120856Z AUTO 00000KT 10SM CLR 01/M02 A2998 RMK AO2 SLP128 T00111017 58005 FZRANO,0,0.0,0,16090,0,0,0,
2026-04-12 07:56:00,METAR KEGE 120756Z AUTO 12004KT 10SM CLR 02/M01 A2999 RMK AO2 SLP119 T00221011 FZRANO,0,4.0,0,16090,0,0,0,
2026-04-12 06:56:00,METAR KEGE 120656Z AUTO 00000KT 10SM CLR 03/M01 A3000 RMK AO2 SLP115 T00331011,0,0.0,0,16090,0,0,0,
2026-04-12 05:56:00,METAR KEGE 120556Z AUTO 10006KT 10SM CLR 04/00 A3000 RMK AO2 SLP113 60000 T00440000 10150 20044 401780033 50000,0,6.0,0,16090,0,0,0,
2026-04-12 04:56:00,METAR KEGE 120456Z AUTO 12003KT 10SM FEW100 07/01 A3000 RMK AO2 SLP104 T00670006,0,3.0,0,16090,0,0,0,
2026-04-12 03:56:00,METAR KEGE 120356Z AUTO 11006KT 10SM CLR 08/01 A3001 RMK AO2 SLP110 T00780011,0,6.0,0,16090,0,0,0,
2026-04-12 02:56:00,METAR KEGE 120256Z AUTO 30003KT 10SM OVC075 11/01 A3000 RMK AO2 RAB31E45 SLP113 P0000 60000 T01060011 53012,0,3.0,0,16090,0,0,0,RA
2026-04-12 01:56:00,METAR KEGE 120156Z AUTO 32006G18KT 10SM SCT055 OVC070 11/01 A2999 RMK AO2 PK WND 29029/0113 WSHFT 0107 RAB20E31 SLP118 P0000 T01110011,0,6.0,1,16090,0,0,0,RA
2026-04-12 01:32:00,SPECI KEGE 120132Z AUTO 29017G22KT 10SM SCT070 OVC090 12/01 A2999 RMK AO2 PK WND 29029/0113 WSHFT 0107 RAB20E31 P0000,0,17.0,1,16090,0,0,0,RA
2026-04-12 00:56:00,METAR KEGE 120056Z AUTO 23018G23KT 10SM BKN090 14/M04 A2996 RMK AO2 SLP103 T01441039,0,18.0,1,16090,0,0,0,
2026-04-11 23:56:00,METAR KEGE 112356Z 27013KT 10SM CLR 15/M02 A2996 RMK AO2 SLP100 60000 T01501022 10172 20106 56021,0,13.0,0,16090,0,0,0,
2026-04-11 22:56:00,METAR KEGE 112256Z 28014G20KT 10SM SCT080 14/00 A2997 RMK AO2 PK WND 25026/2225 SLP111 T01390000,0,14.0,1,16090,0,0,0,
2026-04-11 21:56:00,METAR KEGE 112156Z 22003KT 10SM FEW027 SCT045 BKN100 12/03 A3000 RMK AO2 RAE13 SLP121 P0000 T01220028,0,3.0,0,16090,0,0,0,
2026-04-11 20:56:00,METAR KEGE 112056Z 25020G30KT 10SM -RA FEW070 OVC090 11/04 A3003 RMK AO2 PK WND 25034/2046 RAB39 SLP131 P0000 60000 T01060044 53008,0,20.0,1,16090,0,0,0,-RA
2026-04-11 19:56:00,METAR KEGE 111956Z 00000KT 10SM FEW060 OVC090 16/M01 A2997 RMK AO2 WSHFT 1857 RAB21E43 SLP096 P0000 T01561011,0,0.0,0,16090,0,0,0,RA
2026-04-11 19:22:00,SPECI KEGE 111922Z 14012G18KT 10SM -RA FEW080 OVC100 15/M02 A2997 RMK AO2 WSHFT 1857 RAB21 P0000,0,12.0,1,16090,0,0,0,-RA
2026-04-11 18:56:00,METAR KEGE 111856Z 19012G18KT 10SM FEW070 SCT090 BKN110 17/M04 A2997 RMK AO2 LTG DSNT W RAB02E17 SLP093 P0000 T01671044,0,12.0,1,16090,0,0,0,"DS,RA"
2026-04-11 17:56:00,METAR KEGE 111756Z 20015G26KT 10SM FEW100 17/M05 A3000 RMK AO2 PK WND 24029/1726 SLP100 T01671050 10178 20033 56022,0,15.0,1,16090,0,0,0,
2026-04-11 16:56:00,METAR KEGE 111656Z 24022G25KT 10SM FEW080 18/M04 A3002 RMK AO2 PK WND 24027/1636 SLP100 T01781044,0,22.0,1,16090,0,0,0,
2026-04-11 15:56:00,METAR KEGE 111556Z VRB03KT 10SM CLR 15/M02 A3005 RMK AO2 SLP115 T01501017,0,3.0,0,16090,0,0,0,
2026-04-11 14:56:00,METAR KEGE 111456Z 09005KT 10SM FEW070 SCT100 11/M01 A3008 RMK AO2 SLP128 T01061006 50000,0,5.0,0,16090,0,0,0,
2026-04-11 13:56:00,METAR KEGE 111356Z 00000KT 10SM FEW110 05/M02 A3010 RMK AO2 SLP142 T00501022,0,0.0,0,16090,0,0,0,
2026-04-11 12:56:00,METAR KEGE 111256Z 11003KT 10SM CLR 04/M02 A3008 RMK AO2 SLP135 T00391022,0,3.0,0,16090,0,0,0,
2026-04-11 11:56:00,METAR KEGE 111156Z 07003KT 10SM OVC120 04/M03 A3008 RMK AO2 SLP130 T00441028 10100 20033 53001,0,3.0,0,16090,0,0,0,
2026-04-11 10:56:00,METAR KEGE 111056Z 00000KT 10SM CLR 04/M03 A3007 RMK AO2 SLP127 T00391033,0,0.0,0,16090,0,0,0,
2026-04-11 09:56:00,METAR KEGE 110956Z 10003KT 10SM CLR 06/M03 A3007 RMK AO2 SLP122 T00561028,0,3.0,0,16090,0,0,0,
2026-04-11 08:56:00,METAR KEGE 110856Z 00000KT 10SM CLR 07/M02 A3007 RMK AO2 SLP123 T00671022 50004,0,0.0,0,16090,0,0,0,
2026-04-11 07:56:00,METAR KEGE 110756Z 00000KT 10SM CLR 08/M02 A3007 RMK AO2 SLP124 T00781022,0,0.0,0,16090,0,0,0,
2026-04-11 06:56:00,METAR KEGE 110656Z 00000KT 10SM CLR 09/M02 A3007 RMK AO2 SLP118 T00891022,0,0.0,0,16090,0,0,0,
2026-04-11 05:56:00,METAR KEGE 110556Z 00000KT 10SM CLR 10/M03 A3006 RMK AO2 SLP121 T01001028 10206 20100 402220011 50000,0,0.0,0,16090,0,0,0,
2026-04-11 04:56:00,METAR KEGE 110456Z 14004KT 10SM CLR 12/M03 A3007 RMK AO2 SLP126 T01171028,0,4.0,0,16090,0,0,0,
2026-04-11 03:56:00,METAR KEGE 110356Z 09006KT 10SM CLR 12/M03 A3007 RMK AO2 SLP130 T01221033,0,6.0,0,16090,0,0,0,
2026-04-11 02:56:00,METAR KEGE 110256Z 00000KT 10SM CLR 16/M05 A3006 RMK AO2 SLP130 T01561050 52006,0,0.0,0,16090,0,0,0,
2026-04-11 01:56:00,METAR KEGE 110156Z 20005KT 10SM CLR 18/M06 A3005 RMK AO2 SLP130 T01781056,0,5.0,0,16090,0,0,0,
2026-04-11 00:56:00,METAR KEGE 110056Z 23014G19KT 10SM CLR 19/M07 A3005 RMK AO2 SLP129 T01941067,0,14.0,1,16090,0,0,0,
2026-04-10 23:56:00,METAR KEGE 102356Z 22017G23KT 10SM CLR 21/M08 A3004 RMK AO2 PK WND 23029/2305 SLP120 T02061078 10222 20167 53001,0,17.0,1,16090,0,0,0,
2026-04-10 22:56:00,METAR KEGE 102256Z 24021G28KT 10SM FEW120 21/M08 A3002 RMK AO2 PK WND 25028/2254 WSHFT 2235 SLP111 T02111083,0,21.0,1,16090,0,0,0,
2026-04-10 21:56:00,METAR KEGE 102156Z 28012G24KT 8SM FEW120 22/M06 A3002 RMK AO2 WSHFT 2057 SLP107 T02221061,0,12.0,1,12872,0,0,0,
2026-04-10 21:22:00,SPECI KEGE 102122Z 28012KT 10SM SCT120 22/M06 A3003 RMK AO2 WSHFT 2057,0,12.0,0,16090,0,0,0,
2026-04-10 20:56:00,METAR KEGE 102056Z 20015G19KT 10SM FEW120 21/M07 A3003 RMK AO2 WSHFT 1947 SLP111 T02111067 56026,0,15.0,1,16090,0,0,0,
2026-04-10 20:12:00,SPECI KEGE 102012Z 29007KT 10SM BKN110 20/M03 A3006 RMK AO2 WSHFT 1947,0,7.0,0,16090,0,0,0,
2026-04-10 19:56:00,METAR KEGE 101956Z 29012KT 10SM FEW110 19/M03 A3007 RMK AO2 SLP125 T01941033,0,12.0,0,16090,0,0,0,
2026-04-10 18:56:00,METAR KEGE 101856Z VRB03KT 10SM CLR 21/M03 A3008 RMK AO2 SLP129 T02111033,0,3.0,0,16090,0,0,0,
2026-04-10 17:56:00,METAR KEGE 101756Z 00000KT 10SM CLR 17/M01 A3013 RMK AO2 SLP151 T01671006 10167 20011 58024,0,0.0,0,16090,0,0,0,
2026-04-10 16:56:00,METAR KEGE 101656Z 00000KT 10SM SCT110 13/M01 A3016 RMK AO2 SLP165 T01331006,0,0.0,0,16090,0,0,0,
2026-04-10 15:56:00,METAR KEGE 101556Z 00000KT 10SM CLR 11/M01 A3018 RMK AO2 SLP180 T01061006,0,0.0,0,16090,0,0,0,
2026-04-10 14:56:00,METAR KEGE 101456Z 00000KT 10SM FEW110 07/M01 A3021 RMK AO2 SLP194 T00671006 50006,0,0.0,0,16090,0,0,0,
2026-04-10 13:56:00,METAR KEGE 101356Z 00000KT 10SM CLR 03/M01 A3021 RMK AO2 SLP194 T00331011,0,0.0,0,16090,0,0,0,
2026-04-10 12:56:00,METAR KEGE 101256Z 12004KT 10SM CLR 02/M02 A3020 RMK AO2 SLP190 T00171017,0,4.0,0,16090,0,0,0,
2026-04-10 11:56:00,METAR KEGE 101156Z AUTO 00000KT 10SM CLR 03/M01 A3019 RMK AO2 SLP181 T00281011 10067 20022 53007,0,0.0,0,16090,0,0,0,
2026-04-10 10:56:00,METAR KEGE 101056Z AUTO 10003KT 10SM CLR 03/M01 A3017 RMK AO2 SLP179 T00281006,0,3.0,0,16090,0,0,0,
2026-04-10 09:56:00,METAR KEGE 100956Z AUTO 12003KT 10SM CLR 04/M01 A3017 RMK AO2 SLP173 T00441006,0,3.0,0,16090,0,0,0,
2026-04-10 08:56:00,METAR KEGE 100856Z AUTO 00000KT 10SM BKN110 05/00 A3016 RMK AO2 SLP167 T00500000 58000,0,0.0,0,16090,0,0,0,
2026-04-10 07:56:00,METAR KEGE 100756Z AUTO 00000KT 10SM CLR 06/M01 A3017 RMK AO2 SLP160 T00561006,0,0.0,0,16090,0,0,0,
2026-04-10 06:56:00,METAR KEGE 100656Z AUTO 13006KT 10SM BKN110 05/M01 A3017 RMK AO2 SLP164 T00501006,0,6.0,0,16090,0,0,0,
2026-04-10 05:56:00,METAR KEGE 100556Z AUTO 10005KT 10SM CLR 06/M01 A3016 RMK AO2 SLP165 T00611006 10172 20061 402110022 51011,0,5.0,0,16090,0,0,0,
2026-04-10 04:56:00,METAR KEGE 100456Z AUTO 00000KT 10SM CLR 09/M01 A3016 RMK AO2 SLP163 T00891006,0,0.0,0,16090,0,0,0,
2026-04-10 03:56:00,METAR KEGE 100356Z AUTO 00000KT 10SM BKN120 09/M01 A3015 RMK AO2 SLP167 T00941006,0,0.0,0,16090,0,0,0,
2026-04-10 02:56:00,METAR KEGE 100256Z AUTO 15004KT 10SM SCT110 11/00 A3012 RMK AO2 SLP162 T01110000 53015,0,4.0,0,16090,0,0,0,
2026-04-10 01:56:00,METAR KEGE 100156Z AUTO 16005KT 10SM FEW120 14/M01 A3009 RMK AO2 SLP150 T01391006,0,5.0,0,16090,0,0,0,
2026-04-10 00:56:00,METAR KEGE 100056Z 08009KT 10SM CLR 16/M01 A3007 RMK AO2 SLP144 T01611006,0,9.0,0,16090,0,0,0,
2026-04-09 23:56:00,METAR KEGE 092356Z 09011KT 10SM CLR 17/M01 A3007 RMK AO2 SLP141 60000 T01721011 10211 20156 58001,0,11.0,0,16090,0,0,0,
2026-04-09 22:56:00,METAR KEGE 092256Z 06013KT 10SM CLR 16/00 A3009 RMK AO2 RAB2159E23 SLP148 P0000 T01610000,0,13.0,0,16090,0,0,0,RA
2026-04-09 21:56:00,METAR KEGE 092156Z 17008KT 10SM OVC100 17/M03 A3010 RMK AO2 SLP148 T01671028,0,8.0,0,16090,0,0,0,
2026-04-09 20:56:00,METAR KEGE 092056Z 33016G25KT 10SM FEW110 17/M03 A3008 RMK AO2 PK WND 31027/2043 WSHFT 2023 SLP139 T01671033 53003,0,16.0,1,16090,0,0,0,
2026-04-09 20:48:00,SPECI KEGE 092048Z 34015G27KT 10SM FEW110 18/M04 A3007 RMK AO2 PK WND 31027/2043 WSHFT 2023,0,15.0,1,16090,0,0,0,
2026-04-09 19:56:00,METAR KEGE 091956Z 24013G25KT 10SM CLR 21/M04 A3006 RMK AO2 PK WND 25028/1934 SLP125 T02061044,0,13.0,1,16090,0,0,0,
2026-04-09 18:56:00,METAR KEGE 091856Z 25019G28KT 10SM CLR 21/M06 A3007 RMK AO2 PK WND 26029/1834 WSHFT 1810 SLP123 T02061056,0,19.0,1,16090,0,0,0,
2026-04-09 18:35:00,SPECI KEGE 091835Z 27018G29KT 10SM FEW090 20/M05 A3008 RMK AO2 PK WND 26029/1834 WSHFT 1810 LTG DSNT NW,0,18.0,1,16090,0,0,0,DS
2026-04-09 17:56:00,METAR KEGE 091756Z VRB04KT 10SM BKN110 17/M04 A3010 RMK AO2 SLP138 T01721039 10172 20022 58009,0,4.0,0,16090,0,0,0,
2026-04-09 16:56:00,METAR KEGE 091656Z VRB03KT 10SM SCT080 BKN110 14/M03 A3013 RMK AO2 SLP151 T01441028,0,3.0,0,16090,0,0,0,
2026-04-09 15:56:00,METAR KEGE 091556Z VRB03KT 10SM CLR 11/M02 A3014 RMK AO2 SLP156 T01111022,0,3.0,0,16090,0,0,0,
2026-04-09 14:56:00,METAR KEGE 091456Z 00000KT 10SM BKN110 08/M03 A3013 RMK AO2 SLP157 T00781028 50004,0,0.0,0,16090,0,0,0,
2026-04-09 13:56:00,METAR KEGE 091356Z 00000KT 10SM CLR 04/M03 A3013 RMK AO2 SLP161 T00441028,0,0.0,0,16090,0,0,0,
2026-04-09 12:56:00,METAR KEGE 091256Z 19004KT 10SM SCT110 03/M03 A3012 RMK AO2 SLP155 T00281033,0,4.0,0,16090,0,0,0,
2026-04-09 11:56:00,METAR KEGE 091156Z AUTO 11004KT 10SM SCT110 03/M03 A3012 RMK AO2 SLP152 T00281028 10078 20022 50005,0,4.0,0,16090,0,0,0,
2026-04-09 10:56:00,METAR KEGE 091056Z AUTO 35006KT 10SM CLR 03/M03 A3012 RMK AO2 SLP154 T00281033,0,6.0,0,16090,0,0,0,
2026-04-09 09:56:00,METAR KEGE 090956Z AUTO 10006KT 10SM CLR 03/M03 A3011 RMK AO2 SLP148 T00331033,0,6.0,0,16090,0,0,0,
2026-04-09 08:56:00,METAR KEGE 090856Z AUTO 00000KT 10SM CLR 04/M03 A3010 RMK AO2 SLP143 T00441033 52005,0,0.0,0,16090,0,0,0,
2026-04-09 07:56:00,METAR KEGE 090756Z AUTO 00000KT 10SM CLR 05/M04 A3010 RMK AO2 SLP139 T00501039,0,0.0,0,16090,0,0,0,
2026-04-09 06:56:00,METAR KEGE 090656Z AUTO 11003KT 10SM CLR 06/M03 A3009 RMK AO2 SLP133 T00611033,0,3.0,0,16090,0,0,0,
2026-04-09 05:56:00,METAR KEGE 090556Z AUTO 00000KT 10SM CLR 08/M03 A3008 RMK AO2 SLP130 T00831028 10194 20078 402060000 51008,0,0.0,0,16090,0,0,0,
2026-04-09 04:56:00,METAR KEGE 090456Z AUTO 10006KT 10SM CLR 09/M03 A3007 RMK AO2 SLP131 T00941028,0,6.0,0,16090,0,0,0,
2026-04-09 03:56:00,METAR KEGE 090356Z AUTO 00000KT 10SM CLR 12/M03 A3007 RMK AO2 SLP138 T01171033,0,0.0,0,16090,0,0,0,
2026-04-09 02:56:00,METAR KEGE 090256Z AUTO 24003KT 10SM BKN110 14/M04 A3006 RMK AO2 SLP135 T01441044 53013,0,3.0,0,16090,0,0,0,
2026-04-09 01:56:00,METAR KEGE 090156Z AUTO 26011KT 10SM SCT110 16/M05 A3004 RMK AO2 SLP131 T01611050,0,11.0,0,16090,0,0,0,
2026-04-09 00:56:00,METAR KEGE 090056Z 24012KT 10SM BKN110 18/M07 A3002 RMK AO2 SLP123 T01781067,0,12.0,0,16090,0,0,0,
2026-04-08 23:56:00,METAR KEGE 082356Z 28008KT 10SM FEW095 19/M07 A3001 RMK AO2 PK WND 25026/2341 SLP116 T01941072 10206 20172 57001,0,8.0,0,16090,0,0,0,
2026-04-08 22:56:00,METAR KEGE 082256Z 26012KT 10SM FEW055 SCT110 19/M06 A3001 RMK AO2 PK WND 24028/2241 SLP113 T01941056,0,12.0,0,16090,0,0,0,
2026-04-08 21:56:00,METAR KEGE 082156Z 29009KT 10SM BKN120 19/M06 A3001 RMK AO2 SLP112 T01891061,0,9.0,0,16090,0,0,0,
2026-04-08 20:56:00,METAR KEGE 082056Z 22013G20KT 10SM BKN120 19/M07 A3001 RMK AO2 PK WND 23027/2018 SLP107 T01891067 56010,0,13.0,1,16090,0,0,0,
2026-04-08 19:56:00,METAR KEGE 081956Z 26013G26KT 10SM FEW110 19/M07 A3003 RMK AO2 PK WND 23031/1857 SLP108 T01941067,0,13.0,1,16090,0,0,0,
2026-04-08 18:56:00,METAR KEGE 081856Z 21018G32KT 10SM FEW100 19/M07 A3003 RMK AO2 PK WND 23032/1852 SLP109 T01891067,0,18.0,1,16090,0,0,0,
2026-04-08 17:56:00,METAR KEGE 081756Z 23020G28KT 10SM FEW100 18/M07 A3005 RMK AO2 PK WND 24028/1749 SLP120 T01781072 10178 20000 58020,0,20.0,1,16090,0,0,0,
2026-04-08 16:56:00,METAR KEGE 081656Z 27004KT 10SM CLR 14/M04 A3008 RMK AO2 SLP135 T01441044,0,4.0,0,16090,0,0,0,
2026-04-08 15:56:00,METAR KEGE 081556Z 30003KT 10SM CLR 09/M03 A3009 RMK AO2 SLP150 T00941033,0,3.0,0,16090,0,0,0,
2026-04-08 14:56:00,METAR KEGE 081456Z 00000KT 10SM CLR 05/M03 A3012 RMK AO2 SLP165 T00501033 50011,0,0.0,0,16090,0,0,0,
2026-04-08 13:56:00,METAR KEGE 081356Z 08003KT 10SM CLR 02/M04 A3012 RMK AO2 SLP167 T00221039,0,3.0,0,16090,0,0,0,
2026-04-08 12:56:00,METAR KEGE 081256Z AUTO 00000KT 10SM CLR 01/M04 A3010 RMK AO2 SLP160 T00061044 FZRANO,0,0.0,0,16090,0,0,0,
2026-04-08 11:56:00,METAR KEGE 081156Z AUTO 09003KT 10SM CLR 01/M04 A3008 RMK AO2 SLP146 T00111039 10078 20011 51009 FZRANO,0,3.0,0,16090,0,0,0,
2026-04-08 10:56:00,METAR KEGE 081056Z AUTO 11004KT 10SM CLR 02/M03 A3007 RMK AO2 SLP140 T00221033 FZRANO,0,4.0,0,16090,0,0,0,
2026-04-08 09:56:00,METAR KEGE 080956Z AUTO 00000KT 10SM CLR 04/M03 A3006 RMK AO2 SLP131 T00391028,0,0.0,0,16090,0,0,0,
2026-04-08 08:56:00,METAR KEGE 080856Z AUTO 00000KT 10SM OVC110 06/M03 A3005 RMK AO2 SLP119 T00611028 51003,0,0.0,0,16090,0,0,0,
2026-04-08 07:56:00,METAR KEGE 080756Z AUTO 10009KT 10SM OVC110 07/M03 A3004 RMK AO2 SLP120 T00671028,0,9.0,0,16090,0,0,0,
2026-04-08 06:56:00,METAR KEGE 080656Z AUTO 09006KT 10SM SCT120 07/M02 A3004 RMK AO2 SLP120 T00721022,0,6.0,0,16090,0,0,0,
2026-04-08 05:56:00,METAR KEGE 080556Z AUTO 11005KT 10SM FEW120 08/M03 A3003 RMK AO2 SLP117 T00781028 10178 20078 401890022 51007,0,5.0,0,16090,0,0,0,
2026-04-08 04:56:00,METAR KEGE 080456Z AUTO 10005KT 10SM OVC110 09/M03 A3003 RMK AO2 SLP118 T00891028,0,5.0,0,16090,0,0,0,
2026-04-08 03:56:00,METAR KEGE 080356Z AUTO 09007KT 10SM OVC110 09/M03 A3003 RMK AO2 SLP124 T00941033,0,7.0,0,16090,0,0,0,
2026-04-08 02:56:00,METAR KEGE 080256Z AUTO 34003KT 10SM CLR 12/M03 A3001 RMK AO2 SLP121 T01171033 53011,0,3.0,0,16090,0,0,0,
2026-04-08 01:56:00,METAR KEGE 080156Z AUTO 00000KT 10SM SCT120 14/M05 A2999 RMK AO2 SLP115 T01441050,0,0.0,0,16090,0,0,0,
2026-04-08 00:56:00,METAR KEGE 080056Z AUTO 24012KT 10SM CLR 16/M06 A2998 RMK AO2 SLP110 T01611061,0,12.0,0,16090,0,0,0,
2026-04-07 23:56:00,METAR KEGE 072356Z 28010KT 10SM SCT110 17/M06 A2997 RMK AO2 SLP105 T01721056 10189 20167 56005,0,10.0,0,16090,0,0,0,
2026-04-07 22:56:00,METAR KEGE 072256Z 28014G20KT 10SM CLR 17/M06 A2997 RMK AO2 SLP103 T01721061,0,14.0,1,16090,0,0,0,
2026-04-07 21:56:00,METAR KEGE 072156Z 25015KT 10SM CLR 18/M05 A2998 RMK AO2 PK WND 29027/2120 SLP101 T01781050,0,15.0,0,16090,0,0,0,
2026-04-07 20:56:00,METAR KEGE 072056Z 25016G19KT 10SM FEW110 19/M05 A2999 RMK AO2 PK WND 28030/2013 SLP101 T01891050 56018,0,16.0,1,16090,0,0,0,
2026-04-07 19:56:00,METAR KEGE 071956Z 25016KT 10SM FEW060 17/M05 A3001 RMK AO2 PK WND 24027/1930 SLP112 T01721050,0,16.0,0,16090,0,0,0,
2026-04-07 18:56:00,METAR KEGE 071856Z 25012G24KT 10SM CLR 17/M06 A3003 RMK AO2 PK WND 25026/1809 SLP118 T01721056,0,12.0,1,16090,0,0,0,
2026-04-07 17:56:00,METAR KEGE 071756Z 25016G25KT 10SM FEW095 17/M04 A3005 RMK AO2 SLP124 T01671044 10167 20022 58020,0,16.0,1,16090,0,0,0,
2026-04-07 16:56:00,METAR KEGE 071656Z 00000KT 10SM CLR 14/M04 A3008 RMK AO2 SLP139 T01391044,0,0.0,0,16090,0,0,0,
2026-04-07 15:56:00,METAR KEGE 071556Z 10004KT 10SM CLR 11/M04 A3010 RMK AO2 SLP151 T01061044,0,4.0,0,16090,0,0,0,
2026-04-07 14:56:00,METAR KEGE 071456Z 00000KT 10SM CLR 07/M04 A3013 RMK AO2 SLP160 T00671039 50000,0,0.0,0,16090,0,0,0,
2026-04-07 13:56:00,METAR KEGE 071356Z 28006KT 10SM CLR 03/M03 A3013 RMK AO2 SLP166 T00331028,0,6.0,0,16090,0,0,0,
2026-04-07 12:56:00,METAR KEGE 071256Z 11006KT 10SM BKN110 03/M03 A3012 RMK AO2 SLP157 T00281033,0,6.0,0,16090,0,0,0,
2026-04-07 11:56:00,METAR KEGE 071156Z AUTO 17003KT 10SM BKN100 03/M03 A3013 RMK AO2 SLP154 T00281033 10072 20028 53005,0,3.0,0,16090,0,0,0,
2026-04-07 10:56:00,METAR KEGE 071056Z AUTO 15003KT 10SM CLR 03/M03 A3011 RMK AO2 SLP147 T00331033,0,3.0,0,16090,0,0,0,
2026-04-07 09:56:00,METAR KEGE 070956Z AUTO 13003KT 10SM BKN100 04/M04 A3011 RMK AO2 SLP143 T00441039,0,3.0,0,16090,0,0,0,
2026-04-07 08:56:00,METAR KEGE 070856Z AUTO 31003KT 10SM OVC110 05/M03 A3011 RMK AO2 SLP143 T00501033 51003,0,3.0,0,16090,0,0,0,
2026-04-07 07:56:00,METAR KEGE 070756Z AUTO 12007KT 10SM FEW100 04/M03 A3010 RMK AO2 SLP143 T00441033,0,7.0,0,16090,0,0,0,
2026-04-07 06:56:00,METAR KEGE 070656Z AUTO 00000KT 10SM CLR 05/M04 A3011 RMK AO2 SLP149 T00501039,0,0.0,0,16090,0,0,0,
2026-04-07 05:56:00,METAR KEGE 070556Z AUTO 00000KT 10SM BKN120 07/M04 A3010 RMK AO2 SLP150 T00721044 10189 20067 401941028 51006,0,0.0,0,16090,0,0,0,
2026-04-07 04:56:00,METAR KEGE 070456Z AUTO 08005KT 10SM SCT110 08/M04 A3009 RMK AO2 SLP156 T00781039,0,5.0,0,16090,0,0,0,
2026-04-07 03:56:00,METAR KEGE 070356Z AUTO 10006KT 10SM CLR 09/M04 A3009 RMK AO2 SLP161 T00941039,0,6.0,0,16090,0,0,0,
2026-04-07 02:56:00,METAR KEGE 070256Z AUTO 00000KT 10SM FEW120 13/M06 A3008 RMK AO2 SLP155 T01281061 53005,0,0.0,0,16090,0,0,0,
2026-04-07 01:56:00,METAR KEGE 070156Z AUTO 26006KT 10SM CLR 15/M07 A3006 RMK AO2 SLP152 T01501072,0,6.0,0,16090,0,0,0,
2026-04-07 00:56:00,METAR KEGE 070056Z 27007KT 10SM CLR 18/M10 A3006 RMK AO2 SLP146 T01831100,0,7.0,0,16090,0,0,0,
2026-04-06 23:56:00,METAR KEGE 062356Z 26010KT 10SM CLR 19/M11 A3006 RMK AO2 SLP141 T01891111 10194 20122 56015,0,10.0,0,16090,0,0,0,
2026-04-06 22:56:00,METAR KEGE 062256Z 27010KT 10SM CLR 19/M13 A3008 RMK AO2 SLP146 T01941133,0,10.0,0,16090,0,0,0,
2026-04-06 21:56:00,METAR KEGE 062156Z 26016G22KT 10SM CLR 19/M12 A3009 RMK AO2 SLP149 T01941122,0,16.0,1,16090,0,0,0,
2026-04-06 20:56:00,METAR KEGE 062056Z 28012G25KT 10SM CLR 19/M12 A3012 RMK AO2 SLP158 T01891117 56034,0,12.0,1,16090,0,0,0,
2026-04-06 19:56:00,METAR KEGE 061956Z 28013KT 10SM CLR 18/M12 A3014 RMK AO2 SLP163 T01831117,0,13.0,0,16090,0,0,0,
2026-04-06 18:56:00,METAR KEGE 061856Z 29008KT 10SM CLR 17/M08 A3018 RMK AO2 SLP180 T01671083,0,8.0,0,16090,0,0,0,
2026-04-06 17:56:00,METAR KEGE 061756Z 00000KT 10SM CLR 12/M06 A3024 RMK AO2 SLP209 T01221061 10122 21028 58030,0,0.0,0,16090,0,0,0,
2026-04-06 16:56:00,METAR KEGE 061656Z 00000KT 10SM CLR 09/M05 A3028 RMK AO2 SLP227 T00891050,0,0.0,0,16090,0,0,0,
2026-04-06 15:56:00,METAR KEGE 061556Z 00000KT 10SM CLR 05/M05 A3032 RMK AO2 SLP249 T00501050,0,0.0,0,16090,0,0,0,
2026-04-06 14:56:00,METAR KEGE 061456Z 06003KT 10SM CLR 02/M04 A3034 RMK AO2 SLP259 T00171044 50001,0,3.0,0,16090,0,0,0,
2026-04-06 13:56:00,METAR KEGE 061356Z 00000KT 10SM CLR M02/M04 A3035 RMK AO2 SLP262 T10171044,0,0.0,0,16090,0,0,0,
2026-04-06 12:56:00,METAR KEGE 061256Z 00000KT 10SM CLR M03/M05 A3034 RMK AO2 SLP252 T10281050,0,0.0,0,16090,0,0,0,
2026-04-06 11:56:00,METAR KEGE 061156Z AUTO 00000KT 10SM CLR M02/M05 A3034 RMK AO2 SLP245 T10171050 10028 21022 55000 FZRANO,0,0.0,0,16090,0,0,0,
2026-04-06 10:56:00,METAR KEGE 061056Z AUTO 10003KT 10SM CLR M02/M04 A3033 RMK AO2 SLP241 T10171044 FZRANO,0,3.0,0,16090,0,0,0,
2026-04-06 09:56:00,METAR KEGE 060956Z AUTO 00000KT 10SM CLR M01/M05 A3033 RMK AO2 SLP242 T10061050 FZRANO,0,0.0,0,16090,0,0,0,
2026-04-06 08:56:00,METAR KEGE 060856Z AUTO 11005KT 10SM CLR 00/M04 A3034 RMK AO2 SLP243 T00001044 50003 FZRANO,0,5.0,0,16090,0,0,0,
2026-04-06 07:56:00,METAR KEGE 060756Z AUTO 11003KT 10SM CLR 01/M04 A3034 RMK AO2 SLP248 T00111044 FZRANO,0,3.0,0,16090,0,0,0,
2026-04-06 06:56:00,METAR KEGE 060656Z AUTO 11005KT 10SM CLR 02/M04 A3034 RMK AO2 SLP248 T00221044 FZRANO,0,5.0,0,16090,0,0,0,
2026-04-06 05:56:00,METAR KEGE 060556Z AUTO 10006KT 10SM CLR 03/M04 A3033 RMK AO2 SLP250 T00281044 10178 20028 401781039 51007,0,6.0,0,16090,0,0,0,
2026-04-06 04:56:00,METAR KEGE 060456Z AUTO 00000KT 10SM CLR 05/M04 A3032 RMK AO2 SLP248 T00501044,0,0.0,0,16090,0,0,0,
2026-04-06 03:56:00,METAR KEGE 060356Z AUTO 08006KT 10SM CLR 06/M05 A3032 RMK AO2 SLP251 T00611050,0,6.0,0,16090,0,0,0,
2026-04-06 02:56:00,METAR KEGE 060256Z AUTO VRB03KT 10SM CLR 09/M07 A3030 RMK AO2 SLP249 T00891072 53009,0,3.0,0,16090,0,0,0,
2026-04-06 01:56:00,METAR KEGE 060156Z AUTO 18004KT 10SM CLR 12/M08 A3027 RMK AO2 SLP225 T01221083,0,4.0,0,16090,0,0,0,
2026-04-06 00:56:00,METAR KEGE 060056Z 31008KT 10SM CLR 16/M13 A3026 RMK AO2 SLP226 T01611128,0,8.0,0,16090,0,0,0,
2026-04-05 23:56:00,METAR KEGE 052356Z 28006KT 10SM CLR 17/M11 A3027 RMK AO2 SLP223 T01721111 10178 20089 56013,0,6.0,0,16090,0,0,0,
2026-04-05 22:56:00,METAR KEGE 052256Z 26011KT 10SM CLR 18/M12 A3027 RMK AO2 SLP225 T01781122,0,11.0,0,16090,0,0,0,
2026-04-05 21:56:00,METAR KEGE 052156Z 29009G14KT 10SM CLR 17/M13 A3029 RMK AO2 SLP226 T01721128,0,9.0,1,16090,0,0,0,
2026-04-05 20:56:00,METAR KEGE 052056Z VRB04KT 10SM CLR 16/M07 A3032 RMK AO2 SLP237 T01611072 56031,0,4.0,0,16090,0,0,0,
2026-04-05 19:56:00,METAR KEGE 051956Z 00000KT 10SM CLR 14/M07 A3035 RMK AO2 SLP254 T01391067,0,0.0,0,16090,0,0,0,
2026-04-05 18:56:00,METAR KEGE 051856Z 00000KT 10SM CLR 12/M06 A3038 RMK AO2 SLP269 T01171056,0,0.0,0,16090,0,0,0,
2026-04-05 17:56:00,METAR KEGE 051756Z 00000KT 10SM CLR 09/M04 A3043 RMK AO2 SLP290 T00891044 10089 21039 58017,0,0.0,0,16090,0,0,0,
2026-04-05 16:56:00,METAR KEGE 051656Z 00000KT 10SM CLR 07/M04 A3045 RMK AO2 SLP303 T00671044,0,0.0,0,16090,0,0,0,
2026-04-05 15:56:00,METAR KEGE 051556Z 00000KT 10SM CLR 03/M04 A3047 RMK AO2 SLP311 T00331044,0,0.0,0,16090,0,0,0,
2026-04-05 14:56:00,METAR KEGE 051456Z 00000KT 10SM CLR 00/M03 A3049 RMK AO2 SLP323 T00001033 50004,0,0.0,0,16090,0,0,0,
2026-04-05 12:56:00,METAR KEGE 051256Z 00000KT 10SM CLR M04/M05 A3048 RMK AO2 SLP315 T10391050,0,0.0,0,16090,0,0,0,
2026-04-05 11:56:00,METAR KEGE 051156Z AUTO 12003KT 10SM CLR M03/M04 A3047 RMK AO2 SLP309 T10331044 10011 21033 53005 FZRANO,0,3.0,0,16090,0,0,0,
2026-04-05 10:56:00,METAR KEGE 051056Z AUTO 10003KT 10SM CLR M03/M05 A3046 RMK AO2 SLP305 T10331050 FZRANO,0,3.0,0,16090,0,0,0,
2026-04-05 09:56:00,METAR KEGE 050956Z AUTO 00000KT 10SM CLR M02/M04 A3045 RMK AO2 SLP302 T10221039 FZRANO,0,0.0,0,16090,0,0,0,
2026-04-05 08:56:00,METAR KEGE 050856Z AUTO 00000KT 10SM CLR M01/M03 A3045 RMK AO2 SLP302 T10111033 50003 FZRANO,0,0.0,0,16090,0,0,0,
2026-04-05 07:56:00,METAR KEGE 050756Z AUTO 11003KT 10SM CLR M01/M03 A3045 RMK AO2 SLP303 T10061028 FZRANO,0,3.0,0,16090,0,0,0,
2026-04-05 06:56:00,METAR KEGE 050656Z AUTO 11004KT 10SM CLR 01/M03 A3044 RMK AO2 SLP303 T00061028 FZRANO,0,4.0,0,16090,0,0,0,
2026-04-05 05:56:00,METAR KEGE 050556Z AUTO 12003KT 10SM CLR 01/M02 A3044 RMK AO2 SLP304 T00111022 10133 20011 401331056 51014 FZRANO,0,3.0,0,16090,0,0,0,
2026-04-05 04:56:00,METAR KEGE 050456Z AUTO 09005KT 10SM CLR 02/M02 A3043 RMK AO2 SLP304 T00221022 FZRANO,0,5.0,0,16090,0,0,0,
2026-04-05 03:56:00,METAR KEGE 050356Z AUTO 08004KT 10SM CLR 04/M03 A3042 RMK AO2 SLP300 T00441028,0,4.0,0,16090,0,0,0,
2026-04-05 02:56:00,METAR KEGE 050256Z AUTO 08005KT 10SM CLR 06/M02 A3039 RMK AO2 SLP294 T00561017 53015,0,5.0,0,16090,0,0,0,
2026-04-05 01:56:00,METAR KEGE 050156Z AUTO 11004KT 10SM CLR 09/M03 A3036 RMK AO2 SLP280 T00891028,0,4.0,0,16090,0,0,0,
2026-04-05 00:56:00,METAR KEGE 050056Z 00000KT 10SM CLR 12/M06 A3035 RMK AO2 SLP270 T01171061,0,0.0,0,16090,0,0,0,
2026-04-04 23:56:00,METAR KEGE 042356Z 27005KT 10SM CLR 12/M05 A3034 RMK AO2 SLP264 T01221050 10133 20056 56011,0,5.0,0,16090,0,0,0,
2026-04-04 22:56:00,METAR KEGE 042256Z 08005KT 10SM CLR 12/M04 A3034 RMK AO2 SLP267 T01171039,0,5.0,0,16090,0,0,0,
2026-04-04 21:56:00,METAR KEGE 042156Z 12006KT 10SM CLR 11/M04 A3036 RMK AO2 SLP276 T01061039,0,6.0,0,16090,0,0,0,
2026-04-04 20:56:00,METAR KEGE 042056Z 00000KT 10SM CLR 10/M05 A3038 RMK AO2 SLP281 T01001050 58019,0,0.0,0,16090,0,0,0,
2026-04-04 19:56:00,METAR KEGE 041956Z VRB05KT 10SM CLR 09/M04 A3040 RMK AO2 SLP290 T00941039,0,5.0,0,16090,0,0,0,
2026-04-04 18:56:00,METAR KEGE 041856Z 20006KT 10SM CLR 07/M05 A3042 RMK AO2 SLP304 T00671050,0,6.0,0,16090,0,0,0,
2026-04-04 17:56:00,METAR KEGE 041756Z 10004KT 10SM CLR 06/M07 A3044 RMK AO2 SLP311 T00561072 10061 21056 58012,0,4.0,0,16090,0,0,0,
2026-04-04 16:56:00,METAR KEGE 041656Z 00000KT 10SM CLR 03/M06 A3046 RMK AO2 SLP323 T00331061,0,0.0,0,16090,0,0,0,
2026-04-04 15:56:00,METAR KEGE 041556Z 00000KT 10SM CLR 01/M06 A3047 RMK AO2 SLP333 T00111061,0,0.0,0,16090,0,0,0,
2026-04-04 14:56:00,METAR KEGE 041456Z 09003KT 10SM CLR M02/M06 A3049 RMK AO2 SLP341 T10221056 51009,0,3.0,0,16090,0,0,0,
2026-04-04 13:56:00,METAR KEGE 041356Z 10004KT 10SM FEW060 M04/M06 A3048 RMK AO2 SLP343 T10441061,0,4.0,0,16090,0,0,0,
2026-04-04 12:56:00,METAR KEGE 041256Z 17003KT 10SM BKN060 M06/M07 A3047 RMK AO2 SLP338 T10561072,0,3.0,0,16090,0,0,0,
2026-04-04 11:56:00,METAR KEGE 041156Z AUTO 09003KT 10SM BKN060 M04/M06 A3045 RMK AO2 SLP330 70033 T10441061 11017 21050 53003 FZRANO,0,3.0,0,16090,0,0,0,
2026-04-04 10:56:00,METAR KEGE 041056Z AUTO 11007KT 10SM OVC065 M04/M07 A3045 RMK AO2 SLP327 T10441067 FZRANO,0,7.0,0,16090,0,0,0,
2026-04-04 09:56:00,METAR KEGE 040956Z AUTO 08005KT 10SM BKN065 M05/M07 A3045 RMK AO2 SLP327 T10501067 FZRANO,0,5.0,0,16090,0,0,0,
2026-04-04 08:56:00,METAR KEGE 040856Z AUTO 00000KT 10SM CLR M04/M06 A3044 RMK AO2 SLP326 T10391061 51008 FZRANO,0,0.0,0,16090,0,0,0,
2026-04-04 07:56:00,METAR KEGE 040756Z AUTO 11003KT 10SM SCT060 M03/M06 A3044 RMK AO2 SLP324 T10331056 FZRANO,0,3.0,0,16090,0,0,0,
2026-04-04 06:56:00,METAR KEGE 040656Z AUTO 15003KT 10SM OVC060 M03/M06 A3043 RMK AO2 SLP319 T10281056 FZRANO,0,3.0,0,16090,0,0,0,
2026-04-04 05:56:00,METAR KEGE 040556Z AUTO 00000KT 10SM OVC060 M02/M05 A3041 RMK AO2 SLP315 T10171050 10033 21022 400391061 51014 FZRANO,0,0.0,0,16090,0,0,0,
2026-04-04 04:56:00,METAR KEGE 040456Z AUTO 08004KT 10SM CLR M02/M04 A3041 RMK AO2 SLP315 T10171044 FZRANO,0,4.0,0,16090,0,0,0,
2026-04-04 03:56:00,METAR KEGE 040356Z AUTO 08007KT 10SM CLR M01/M04 A3039 RMK AO2 SLP309 T10111039 FZRANO,0,7.0,0,16090,0,0,0,
2026-04-04 02:56:00,METAR KEGE 040256Z AUTO 08006KT 10SM SCT085 01/M04 A3036 RMK AO2 SLP297 T00061039 53018 FZRANO,0,6.0,0,16090,0,0,0,
2026-04-04 01:56:00,METAR KEGE 040156Z AUTO 26006KT 10SM OVC075 02/M06 A3033 RMK AO2 SLP289 T00221056 FZRANO,0,6.0,0,16090,0,0,0,
2026-04-04 00:56:00,METAR KEGE 040056Z 25007KT 10SM SCT055 OVC075 03/M05 A3032 RMK AO2 SLP287 T00281050,0,7.0,0,16090,0,0,0,
2026-04-03 23:56:00,METAR KEGE 032356Z 22009KT 10SM OVC070 03/M07 A3030 RMK AO2 SLP274 60010 T00331067 10039 20011 53016,0,9.0,0,16090,0,0,0,
2026-04-03 22:56:00,METAR KEGE 032256Z 22013G18KT 10SM BKN050 OVC065 03/M06 A3027 RMK AO2 SLP265 T00331061,0,13.0,1,16090,0,0,0,
2026-04-03 21:56:00,METAR KEGE 032156Z 22012G20KT 10SM FEW042 BKN050 OVC060 03/M07 A3025 RMK AO2 SLP257 T00331067,0,12.0,1,16090,0,0,0,
2026-04-03 20:56:00,METAR KEGE 032056Z 23011G20KT 10SM BKN048 OVC055 03/M07 A3024 RMK AO2 SLP254 60010 T00281067 53008,0,11.0,1,16090,0,0,0,
2026-04-03 19:56:00,METAR KEGE 031956Z 21009G21KT 10SM OVC042 02/M08 A3023 RMK AO2 SLP246 T00221078,0,9.0,1,16090,0,0,0,
2026-04-03 18:56:00,METAR KEGE 031856Z 23016KT 10SM BKN045 BKN055 02/M07 A3021 RMK AO2 SLP239 P0010 T00221072,0,16.0,0,16090,0,0,0,
2026-04-03 17:56:00,METAR KEGE 031756Z 27005KT 10SM FEW047 01/M09 A3021 RMK AO2 SLP241 P0023 60023 T00061089 10011 21061 53007,0,5.0,0,16090,0,0,0,
2026-04-03 16:56:00,METAR KEGE 031656Z VRB03KT 10SM FEW065 M01/M06 A3020 RMK AO2 SLP239 T10111061,0,3.0,0,16090,0,0,0,
2026-04-03 15:56:00,METAR KEGE 031556Z 10005KT 10SM FEW070 00/M04 A3020 RMK AO2 SLP229 T00001044,0,5.0,0,16090,0,0,0,
2026-04-03 14:56:00,METAR KEGE 031456Z 06003KT 10SM CLR M02/M04 A3019 RMK AO2 UPB29E46 SLP221 P0000 60000 T10221039 51021,0,3.0,0,16090,0,0,0,UP
2026-04-03 13:56:00,METAR KEGE 031356Z 04003KT 10SM CLR M05/M06 A3017 RMK AO2 SLP211 T10501061,0,3.0,0,16090,0,0,0,
2026-04-03 12:56:00,METAR KEGE 031256Z 07004KT 10SM SCT044 M06/M07 A3014 RMK AO2 SNE02 SLP194 P0000 T10611067 FZRANO,0,4.0,0,16090,0,0,0,
2026-04-03 11:56:00,METAR KEGE 031156Z AUTO 00000KT 9SM -SN SCT013 BKN039 OVC095 M04/M06 A3011 RMK AO2 SNE02B29 SLP179 P0000 60000 70019 T10441056 11011 21050 53009 FZRANO,0,0.0,0,14481,0,0,0,SN
2026-04-03 08:56:00,METAR KEGE 030856Z AUTO 06004KT 1/2SM SN FZFG OVC006 M04/M04 A3008 RMK AO2 SLP167 P0000 60000 T10391044 51024 FZRANO RVRNO,0,4.0,0,804,0,0,1,"FG,SN"
2026-04-03 08:39:00,SPECI KEGE 030839Z AUTO 07006KT 1/2SM SN FZFG OVC004 M03/M04 A3007 RMK AO2 CIG 003V009 P0000 FZRANO RVRNO,0,6.0,0,804,0,0,1,"FG,SN"
2026-04-03 05:56:00,METAR KEGE 030556Z AUTO 09008KT 1/2SM SN FZFG OVC006 M01/M02 A2999 RMK AO2 CIG 003V009 SLP136 P0000 60019 T10111022 10139 21011 401611011 51030 FZRANO RVRNO,0,8.0,0,804,0,0,1,"FG,SN"
2026-04-03 05:49:00,SPECI KEGE 030549Z AUTO 09007KT 1/2SM SN FZFG OVC006 M01/M02 A2999 RMK AO2 CIG 003V009 P0000 401611011 FZRANO RVRNO,0,7.0,0,804,0,0,1,"FG,SN"
2026-04-03 05:18:00,SPECI KEGE 030518Z AUTO 07011KT 1SM -SN BR BKN006 OVC017 M01/M01 A2997 RMK AO2 P0000 FZRANO RVRNO,0,11.0,0,1609,0,0,1,"BR,SN"
2026-04-03 05:08:00,SPECI KEGE 030508Z AUTO 07006KT 1SM -SN BR OVC017 00/M01 A2996 RMK AO2 P0000 FZRANO RVRNO,0,6.0,0,1609,0,0,1,"BR,SN"
2026-04-03 04:56:00,METAR KEGE 030456Z AUTO 05005KT 2SM -SN BR SCT008 OVC019 00/M01 A2995 RMK AO2 RAE05SNB05 SLP120 P0002 T00001011 FZRANO,0,5.0,0,3218,0,0,1,"BR,RA,SN"
2026-04-03 04:53:00,SPECI KEGE 030453Z AUTO 08007KT 2 1/2SM -SN BR SCT008 OVC019 00/M01 A2995 RMK AO2 VIS 1 1/2V4 RAE05SNB05 P0002 FZRANO,0,7.0,0,4022,0,0,1,"BR,RA,SN"
2026-04-03 04:49:00,SPECI KEGE 030449Z AUTO VRB03KT 3SM -SN BR SCT008 BKN013 OVC019 00/M01 A2995 RMK AO2 RAE05SNB05 P0002 FZRANO,0,3.0,0,4827,0,0,1,"BR,RA,SN"
2026-04-03 04:40:00,SPECI KEGE 030440Z AUTO VRB05KT 2SM -SN BR BKN008 OVC013 00/M01 A2994 RMK AO2 RAE05SNB05 CIG 007V012 P0002 FZRANO,0,5.0,0,3218,0,0,1,"BR,RA,SN"
2026-04-03 04:29:00,SPECI KEGE 030429Z AUTO 28007KT 1 3/4SM -SN BR OVC012 01/M01 A2993 RMK AO2 VIS 1 1/2V3 RAE05SNB05 P0002 FZRANO,0,7.0,0,2816,0,0,1,"BR,RA,SN"
2026-04-03 03:56:00,METAR KEGE 030356Z AUTO 22005KT 9SM -RA OVC012 02/01 A2989 RMK AO2 PK WND 31030/0258 RAE27B51SNB27E51 SLP097 P0017 T00170006 FZRANO,0,5.0,0,14481,0,0,0,"-RA,RA"
2026-04-03 03:38:00,SPECI KEGE 030338Z AUTO VRB04G21KT 8SM -SN BKN010 BKN018 OVC060 02/01 A2987 RMK AO2 PK WND 31030/0258 RAE27SNB27 PRESRR P0014 FZRANO,0,4.0,1,12872,0,0,0,"RA,SN"
2026-04-03 02:56:00,METAR KEGE 030256Z AUTO 31018G31KT 10SM -RA BKN060 OVC070 07/02 A2977 RMK AO2 PK WND 30031/0249 RAB03E18B41 PRESRR SLP054 P0000 60000 T00670022 53026,0,18.0,1,16090,0,0,0,"-RA,RA"
2026-04-03 01:56:00,METAR KEGE 030156Z AUTO 28019G30KT 9SM OVC075 10/01 A2971 RMK AO2 PK WND 29030/0150 SLP027 T01000011,0,19.0,1,14481,0,0,0,
2026-04-03 00:56:00,METAR KEGE 030056Z 24013KT 10SM OVC080 14/M03 A2968 RMK AO2 SLP008 T01391033,0,13.0,0,16090,0,0,0,
2026-04-02 23:56:00,METAR KEGE 022356Z 25012G24KT 10SM OVC080 14/M03 A2968 RMK AO2 PK WND 25031/2331 SLP008 T01391033 10161 20117 56008,0,12.0,1,16090,0,0,0,
2026-04-02 22:56:00,METAR KEGE 022256Z 23022G30KT 10SM BKN085 15/M04 A2969 RMK AO2 PK WND 25034/2220 SLP007 T01501044,0,22.0,1,16090,0,0,0,
2026-04-02 21:56:00,METAR KEGE 022156Z 23017G25KT 10SM SCT070 BKN090 16/M03 A2970 RMK AO2 PK WND 23029/2059 SLP008 T01561028,0,17.0,1,16090,0,0,0,
2026-04-02 20:56:00,METAR KEGE 022056Z 22018G28KT 10SM BKN070 15/M03 A2971 RMK AO2 PK WND 24031/2014 SLP014 T01501028 56021,0,18.0,1,16090,0,0,0,
2026-04-02 19:56:00,METAR KEGE 021956Z 22016G31KT 10SM OVC060 14/M02 A2974 RMK AO2 PK WND 22031/1952 SLP024 T01391022,0,16.0,1,16090,0,0,0,
2026-04-02 18:56:00,METAR KEGE 021856Z 21020G28KT 10SM BKN065 12/M02 A2976 RMK AO2 PK WND 22034/1837 SLP033 T01221022,0,20.0,1,16090,0,0,0,
2026-04-02 17:56:00,METAR KEGE 021756Z 25016G26KT 10SM FEW055 BKN070 12/M01 A2979 RMK AO2 PK WND 24029/1705 SLP044 T01171011 10122 20028 58014,0,16.0,1,16090,0,0,0,
2026-04-02 16:56:00,METAR KEGE 021656Z 24021G28KT 10SM SCT070 11/00 A2982 RMK AO2 PK WND 25030/1622 SLP059 T01110000,0,21.0,1,16090,0,0,0,
2026-04-02 15:56:00,METAR KEGE 021556Z 25015G25KT 10SM FEW070 09/01 A2982 RMK AO2 SLP063 T00940006,0,15.0,1,16090,0,0,0,
2026-04-02 14:56:00,METAR KEGE 021456Z 08004KT 10SM BKN080 06/03 A2984 RMK AO2 SLP079 T00560028 58002,0,4.0,0,16090,0,0,0,
2026-04-02 13:56:00,METAR KEGE 021356Z 09006KT 10SM FEW050 BKN060 OVC085 03/02 A2985 RMK AO2 SLP086 T00330022,0,6.0,0,16090,0,0,0,
2026-04-02 12:56:00,METAR KEGE 021256Z 10004KT 10SM BKN049 OVC070 03/02 A2985 RMK AO2 SLP086 T00330022,0,4.0,0,16090,0,0,0,
2026-04-02 11:56:00,METAR KEGE 021156Z AUTO 14003KT 10SM OVC045 04/02 A2984 RMK AO2 SLP078 60004 70015 T00390022 10061 20039 56006,0,3.0,0,16090,0,0,0,
2026-04-02 10:56:00,METAR KEGE 021056Z AUTO 09004KT 10SM OVC036 04/03 A2985 RMK AO2 RAB23E42 SLP080 P0000 T00440028,0,4.0,0,16090,0,0,0,RA
2026-04-02 09:56:00,METAR KEGE 020956Z AUTO 00000KT 10SM SCT026 BKN036 OVC044 04/03 A2985 RMK AO2 RAB18E31 SLP085 P0000 T00440028,0,0.0,0,16090,0,0,0,RA
2026-04-02 08:56:00,METAR KEGE 020856Z AUTO 25006KT 10SM SCT023 BKN039 OVC070 05/02 A2986 RMK AO2 RAE22 SLP078 P0003 60004 T00500017 58003,0,6.0,0,16090,0,0,0,
2026-04-02 08:18:00,SPECI KEGE 020818Z AUTO 31005KT 10SM -RA BKN026 OVC035 04/03 A2987 RMK AO2 P0003,0,5.0,0,16090,0,0,0,-RA
2026-04-02 07:56:00,METAR KEGE 020756Z AUTO 28010KT 10SM -RA FEW028 BKN037 OVC080 05/03 A2988 RMK AO2 RAB44 SLP086 P0001 T00500028,0,10.0,0,16090,0,0,0,-RA
2026-04-02 06:56:00,METAR KEGE 020656Z AUTO 28007KT 10SM SCT040 OVC060 06/01 A2987 RMK AO2 SLP076 T00610011,0,7.0,0,16090,0,0,0,
2026-04-02 06:19:00,SPECI KEGE 020619Z AUTO 24014KT 10SM BKN032 OVC080 06/01 A2987 RMK AO2,0,14.0,0,16090,0,0,0,
2026-04-02 05:56:00,METAR KEGE 020556Z AUTO 26012KT 10SM BKN028 OVC080 06/02 A2987 RMK AO2 SLP079 60001 T00560017 10078 20050 401110050 51018,0,12.0,0,16090,0,0,0,
2026-04-02 05:41:00,SPECI KEGE 020541Z AUTO 25011KT 10SM BKN028 OVC080 06/01 A2986 RMK AO2,0,11.0,0,16090,0,0,0,
2026-04-02 04:56:00,METAR KEGE 020456Z AUTO 28008KT 10SM FEW029 OVC070 06/02 A2986 RMK AO2 SLP083 T00560017,0,8.0,0,16090,0,0,0,
2026-04-02 03:56:00,METAR KEGE 020356Z AUTO 24016KT 10SM BKN055 BKN070 BKN110 06/01 A2983 RMK AO2 SLP074 T00560011,0,16.0,0,16090,0,0,0,
2026-04-02 02:56:00,METAR KEGE 020256Z AUTO 26007KT 10SM FEW029 BKN065 OVC080 06/02 A2981 RMK AO2 SLP067 60001 T00560017 53010,0,7.0,0,16090,0,0,0,
2026-04-02 01:56:00,METAR KEGE 020156Z AUTO 21011KT 10SM OVC075 06/02 A2978 RMK AO2 SLP058 T00610017,0,11.0,0,16090,0,0,0,
2026-04-02 01:47:00,SPECI KEGE 020147Z AUTO 24010KT 10SM FEW026 BKN075 07/02 A2979 RMK AO2,0,10.0,0,16090,0,0,0,
2026-04-02 00:56:00,METAR KEGE 020056Z 22005KT 10SM BKN026 OVC033 07/03 A2977 RMK AO2 RAB18E41 SLP054 P0001 T00670028,0,5.0,0,16090,0,0,0,RA
2026-04-02 00:38:00,SPECI KEGE 020038Z 23009KT 10SM -RA BKN028 OVC039 07/03 A2977 RMK AO2 RAB18 P0001,0,9.0,0,16090,0,0,0,-RA
2026-04-01 23:56:00,METAR KEGE 012356Z 24016G21KT 10SM BKN044 OVC070 08/03 A2976 RMK AO2 SLP043 60003 T00780028 10111 20061 51014,0,16.0,1,16090,0,0,0,
2026-04-01 22:56:00,METAR KEGE 012256Z 29006KT 10SM SCT026 BKN055 OVC070 08/04 A2974 RMK AO2 RAE19 SLP037 P0000 T00780039,0,6.0,0,16090,0,0,0,
2026-04-01 21:56:00,METAR KEGE 012156Z 25012KT 8SM -RA FEW025 BKN030 06/03 A2974 RMK AO2 PK WND 25035/2139 RAB41 SLP038 P0003 T00610033,0,12.0,0,12872,0,0,0,-RA
2026-04-01 20:56:00,METAR KEGE 012056Z 23013KT 10SM FEW028 11/03 A2971 RMK AO2 SLP018 T01060028 56017,0,13.0,0,16090,0,0,0,
2026-04-01 19:56:00,METAR KEGE 011956Z 25012KT 10SM FEW030 BKN050 OVC060 09/03 A2973 RMK AO2 SLP028 T00940033,0,12.0,0,16090,0,0,0,
2026-04-01 18:56:00,METAR KEGE 011856Z 22016G20KT 10SM FEW028 BKN044 OVC070 11/03 A2974 RMK AO2 SLP027 T01060028,0,16.0,1,16090,0,0,0,
2026-04-01 17:56:00,METAR KEGE 011756Z VRB05KT 10SM BKN036 OVC060 11/03 A2977 RMK AO2 SLP037 60007 T01060033 10106 20056 58010,0,5.0,0,16090,0,0,0,
2026-04-01 16:56:00,METAR KEGE 011656Z 09005KT 10SM FEW046 OVC070 08/05 A2979 RMK AO2 SLP050 T00780050,0,5.0,0,16090,0,0,0,
2026-04-01 15:56:00,METAR KEGE 011556Z 09005KT 10SM FEW023 OVC060 06/04 A2981 RMK AO2 RAE44 SLP060 P0000 T00610044,0,5.0,0,16090,0,0,0,
2026-04-01 15:46:00,SPECI KEGE 011546Z 07005KT 10SM FEW023 OVC060 06/04 A2981 RMK AO2 RAE44 P0000,0,5.0,0,16090,0,0,0,
2026-04-01 14:56:00,METAR KEGE 011456Z 08004KT 10SM -RA BKN020 BKN030 OVC047 06/05 A2983 RMK AO2 SLP067 P0001 60007 T00610050 56008,0,4.0,0,16090,0,0,0,-RA
2026-04-01 13:59:00,SPECI KEGE 011359Z 00000KT 10SM -RA BKN024 BKN030 OVC039 06/05 A2983 RMK AO2 P0000,0,0.0,0,16090,0,0,0,-RA
2026-04-01 13:56:00,METAR KEGE 011356Z 00000KT 10SM -RA SCT024 SCT030 OVC039 06/05 A2983 RMK AO2 SLP070 P0003 T00560050,0,0.0,0,16090,0,0,0,-RA
2026-04-01 13:28:00,SPECI KEGE 011328Z 05003KT 10SM -RA BKN024 OVC045 06/05 A2983 RMK AO2 P0002,0,3.0,0,16090,0,0,0,-RA
2026-04-01 12:56:00,METAR KEGE 011256Z 00000KT 10SM -RA OVC032 06/05 A2984 RMK AO2 SLP072 P0003 T00560050,0,0.0,0,16090,0,0,0,-RA
2026-04-01 11:56:00,METAR KEGE 011156Z AUTO 09003KT 10SM -RA OVC036 06/06 A2985 RMK AO2 SLP075 P0004 60008 70010 T00610056 10083 20061 56016,0,3.0,0,16090,0,0,0,-RA
2026-04-01 10:56:00,METAR KEGE 011056Z AUTO 04003KT 10SM -RA OVC033 07/06 A2987 RMK AO2 SLP073 P0003 T00670056,0,3.0,0,16090,0,0,0,-RA
2026-04-01 09:56:00,METAR KEGE 010956Z AUTO 00000KT 10SM -RA BKN033 BKN043 OVC055 07/06 A2989 RMK AO2 RAE08B45 SLP081 P0000 T00670056,0,0.0,0,16090,0,0,0,"-RA,RA"
2026-04-01 09:23:00,SPECI KEGE 010923Z AUTO 10005KT 10SM FEW026 BKN037 OVC048 07/06 A2990 RMK AO2 RAE08 P0000,0,5.0,0,16090,0,0,0,
2026-04-01 08:56:00,METAR KEGE 010856Z AUTO 09004KT 10SM -RA BKN026 BKN037 OVC050 07/05 A2991 RMK AO2 RAB48 SLP082 P0000 60001 T00670050 58013,0,4.0,0,16090,0,0,0,-RA
2026-04-01 08:42:00,SPECI KEGE 010842Z AUTO 00000KT 10SM BKN026 OVC033 07/05 A2992 RMK AO2,0,0.0,0,16090,0,0,0,
2026-04-01 07:56:00,METAR KEGE 010756Z AUTO 10003KT 10SM OVC060 07/05 A2994 RMK AO2 RAE31 SLP080 P0000 T00720050,0,3.0,0,16090,0,0,0,
2026-04-01 06:56:00,METAR KEGE 010656Z AUTO 00000KT 10SM -RA BKN043 OVC055 08/04 A2996 RMK AO2 RAB18 SLP090 P0001 T00780044,0,0.0,0,16090,0,0,0,-RA
2026-04-01 05:56:00,METAR KEGE 010556Z AUTO 12004KT 10SM OVC065 08/04 A2996 RMK AO2 RAE17 SLP088 P0000 60000 T00830039 10100 20078 401830011 58006,0,4.0,0,16090,0,0,0,
2026-04-01 04:56:00,METAR KEGE 010456Z AUTO 09004KT 10SM -RA BKN055 OVC070 08/04 A2997 RMK AO2 RAB46 SLP104 P0000 T00830039,0,4.0,0,16090,0,0,0,-RA
2026-04-01 03:56:00,METAR KEGE 010356Z AUTO 09005KT 10SM OVC065 08/04 A2999 RMK AO2 SLP122 T00830044,0,5.0,0,16090,0,0,0,
2026-04-01 02:56:00,METAR KEGE 010256Z AUTO 14005KT 10SM BKN080 BKN090 08/05 A2998 RMK AO2 SLP124 T00830050 55003,0,5.0,0,16090,0,0,0,
2026-04-01 01:56:00,METAR KEGE 010156Z AUTO 12007KT 10SM OVC080 08/05 A2998 RMK AO2 SLP125 T00830050,0,7.0,0,16090,0,0,0,
2026-04-01 00:56:00,METAR KEGE 010056Z 11008KT 10SM BKN080 BKN100 09/06 A2998 RMK AO2 SLP130 T00890056,0,8.0,0,16090,0,0,0,
2026-03-31 23:56:00,METAR KEGE 312356Z 04004KT 10SM FEW049 BKN065 OVC080 09/06 A2999 RMK AO2 RAE40 SLP134 P0002 60002 T00940056 10183 20089 51005,0,4.0,0,16090,0,0,0,
2026-03-31 22:56:00,METAR KEGE 312256Z 31006KT 10SM -RA OVC065 11/04 A2999 RMK AO2 SLP127 P0000 T01110039,0,6.0,0,16090,0,0,0,-RA
2026-03-31 21:56:00,METAR KEGE 312156Z 26009G19KT 10SM -RA OVC055 11/04 A3003 RMK AO2 PK WND 23029/2132 RAB37 SLP141 P0000 T01060044,0,9.0,1,16090,0,0,0,-RA
2026-03-31 20:56:00,METAR KEGE 312056Z 19019G26KT 10SM FEW038 SCT060 OVC080 14/00 A2998 RMK AO2 PK WND 22037/2024 SLP109 T01390000 55009,0,19.0,1,16090,0,0,0,
2026-03-31 19:56:00,METAR KEGE 311956Z 24015G23KT 10SM OVC095 18/M05 A2995 RMK AO2 SLP086 T01781050,0,15.0,1,16090,0,0,0,
2026-03-31 18:56:00,METAR KEGE 311856Z 25011G24KT 10SM FEW070 BKN090 17/M05 A2999 RMK AO2 PK WND 24030/1834 SLP102 T01671050,0,11.0,1,16090,0,0,0,
2026-03-31 17:56:00,METAR KEGE 311756Z 23015G23KT 10SM CLR 17/M07 A3001 RMK AO2 SLP103 T01671067 10172 20017 58016,0,15.0,1,16090,0,0,0,
2026-03-31 16:56:00,METAR KEGE 311656Z 00000KT 10SM CLR 11/M06 A3003 RMK AO2 SLP122 T01111061,0,0.0,0,16090,0,0,0,
2026-03-31 15:56:00,METAR KEGE 311556Z 00000KT 9SM CLR 07/M08 A3006 RMK AO2 SLP138 T00721078,0,0.0,0,14481,0,0,0,
2026-03-31 14:56:00,METAR KEGE 311456Z 00000KT 8SM BKN110 04/M08 A3007 RMK AO2 SLP136 T00441078 50006,0,0.0,0,12872,0,0,0,
2026-03-31 13:56:00,METAR KEGE 311356Z 00000KT 10SM CLR 03/M08 A3007 RMK AO2 SLP138 T00331083,0,0.0,0,16090,0,0,0,
2026-03-31 12:56:00,METAR KEGE 311256Z 00000KT 10SM CLR 02/M08 A3006 RMK AO2 SLP132 T00171083,0,0.0,0,16090,0,0,0,
2026-03-31 11:56:00,METAR KEGE 311156Z AUTO 10004KT 10SM CLR 02/M09 A3004 RMK AO2 SLP125 T00171089 10100 20011 53003 FZRANO,0,4.0,0,16090,0,0,0,
2026-03-31 10:56:00,METAR KEGE 311056Z AUTO 00000KT 10SM CLR 02/M09 A3003 RMK AO2 SLP116 T00221094 FZRANO,0,0.0,0,16090,0,0,0,
2026-03-31 09:56:00,METAR KEGE 310956Z AUTO 00000KT 10SM CLR 03/M09 A3002 RMK AO2 SLP113 T00281094,0,0.0,0,16090,0,0,0,
2026-03-31 08:56:00,METAR KEGE 310856Z AUTO 00000KT 10SM CLR 04/M09 A3003 RMK AO2 SLP112 T00441094 51003,0,0.0,0,16090,0,0,0,
2026-03-31 07:56:00,METAR KEGE 310756Z AUTO 13004KT 10SM CLR 06/M09 A3003 RMK AO2 SLP109 T00611089,0,4.0,0,16090,0,0,0,
2026-03-31 06:56:00,METAR KEGE 310656Z AUTO 13004KT 10SM CLR 08/M08 A3003 RMK AO2 SLP105 T00781083,0,4.0,0,16090,0,0,0,
2026-03-31 05:56:00,METAR KEGE 310556Z AUTO 10009KT 10SM CLR 10/M08 A3002 RMK AO2 SLP101 T01001083 10206 20094 402220006 50007,0,9.0,0,16090,0,0,0,
2026-03-31 04:56:00,METAR KEGE 310456Z AUTO 09004KT 10SM CLR 11/M08 A3003 RMK AO2 SLP112 T01061083,0,4.0,0,16090,0,0,0,
2026-03-31 03:56:00,METAR KEGE 310356Z AUTO 08007KT 10SM CLR 12/M09 A3001 RMK AO2 SLP117 T01171089,0,7.0,0,16090,0,0,0,
2026-03-31 02:56:00,METAR KEGE 310256Z AUTO 00000KT 10SM CLR 16/M11 A3000 RMK AO2 SLP112 T01611106 53009,0,0.0,0,16090,0,0,0,
2026-03-31 01:56:00,METAR KEGE 310156Z AUTO 25013KT 10SM CLR 18/M11 A2998 RMK AO2 SLP107 T01781106,0,13.0,0,16090,0,0,0,
2026-03-31 00:56:00,METAR KEGE 310056Z 27011KT 10SM CLR 20/M11 A2997 RMK AO2 SLP101 T02001106,0,11.0,0,16090,0,0,0,
2026-03-30 23:56:00,METAR KEGE 302356Z 27013G20KT 10SM CLR 21/M11 A2997 RMK AO2 SLP097 T02061106 10222 20194 55003,0,13.0,1,16090,0,0,0,
2026-03-30 22:56:00,METAR KEGE 302256Z 28014KT 10SM CLR 22/M09 A2996 RMK AO2 SLP091 T02171089,0,14.0,0,16090,0,0,0,
2026-03-30 21:56:00,METAR KEGE 302156Z 28019G23KT 10SM CLR 22/M07 A2996 RMK AO2 PK WND 29028/2114 SLP089 T02171072,0,19.0,1,16090,0,0,0,
2026-03-30 20:56:00,METAR KEGE 302056Z 30015G24KT 10SM CLR 22/M08 A2998 RMK AO2 PK WND 31030/2001 SLP092 T02171078 56022,0,15.0,1,16090,0,0,0,
2026-03-30 19:59:00,SPECI KEGE 301959Z 30016G27KT 10SM CLR 21/M08 A3001 RMK AO2,0,16.0,1,16090,0,0,0,
2026-03-30 19:56:00,METAR KEGE 301956Z 29019G28KT 5SM HZ CLR 21/M08 A3001 RMK AO2 PK WND 30029/1912 SLP101 T02111083,0,19.0,1,8045,0,0,0,
2026-03-30 19:27:00,SPECI KEGE 301927Z 30019G27KT 8SM FEW002 21/M09 A3002 RMK AO2 PK WND 30029/1912,0,19.0,1,12872,0,0,0,
2026-03-30 18:56:00,METAR KEGE 301856Z 28016G23KT 8SM CLR 21/M08 A3003 RMK AO2 SLP106 T02061083,0,16.0,1,12872,0,0,0,
2026-03-30 17:56:00,METAR KEGE 301756Z 28017G23KT 7SM CLR 19/M08 A3006 RMK AO2 SLP117 T01941078 10200 20006 58022,0,17.0,1,11263,0,0,0,
2026-03-30 16:56:00,METAR KEGE 301656Z 00000KT 10SM CLR 15/M06 A3009 RMK AO2 SLP135 T01501061,0,0.0,0,16090,0,0,0,
2026-03-30 15:56:00,METAR KEGE 301556Z 00000KT 10SM CLR 09/M05 A3012 RMK AO2 SLP156 T00891050,0,0.0,0,16090,0,0,0,
2026-03-30 14:56:00,METAR KEGE 301456Z 00000KT 10SM CLR 05/M06 A3013 RMK AO2 SLP165 T00501061 50003,0,0.0,0,16090,0,0,0,
2026-03-30 13:56:00,METAR KEGE 301356Z 10003KT 10SM CLR 02/M06 A3014 RMK AO2 SLP164 T00171061,0,3.0,0,16090,0,0,0,
2026-03-30 12:56:00,METAR KEGE 301256Z 00000KT 10SM CLR 01/M07 A3012 RMK AO2 SLP158 T00061067,0,0.0,0,16090,0,0,0,
2026-03-30 11:56:00,METAR KEGE 301156Z AUTO 11003KT 10SM CLR 02/M06 A3012 RMK AO2 SLP151 T00171061 10083 20017 55002 FZRANO,0,3.0,0,16090,0,0,0,
2026-03-30 10:56:00,METAR KEGE 301056Z AUTO 17003KT 10SM CLR 03/M07 A3012 RMK AO2 SLP147 T00281067,0,3.0,0,16090,0,0,0,
2026-03-30 09:56:00,METAR KEGE 300956Z AUTO 12005KT 10SM CLR 04/M06 A3012 RMK AO2 SLP144 T00391061,0,5.0,0,16090,0,0,0,
2026-03-30 08:56:00,METAR KEGE 300856Z AUTO 13003KT 10SM CLR 05/M06 A3013 RMK AO2 SLP144 T00501061 53001,0,3.0,0,16090,0,0,0,
2026-03-30 07:56:00,METAR KEGE 300756Z AUTO 00000KT 10SM CLR 06/M06 A3013 RMK AO2 SLP142 T00561061,0,0.0,0,16090,0,0,0,
2026-03-30 06:56:00,METAR KEGE 300656Z AUTO 12004KT 10SM CLR 07/M06 A3012 RMK AO2 SLP141 T00721061,0,4.0,0,16090,0,0,0,
2026-03-30 05:56:00,METAR KEGE 300556Z AUTO 17003KT 10SM CLR 08/M07 A3013 RMK AO2 SLP143 T00831067 10211 20083 402280011 51001,0,3.0,0,16090,0,0,0,
2026-03-30 04:56:00,METAR KEGE 300456Z AUTO 08006KT 10SM FEW100 10/M06 A3013 RMK AO2 SLP148 T01001061,0,6.0,0,16090,0,0,0,
2026-03-30 03:56:00,METAR KEGE 300356Z AUTO 14005KT 10SM CLR 11/M06 A3014 RMK AO2 SLP161 T01111056,0,5.0,0,16090,0,0,0,
2026-03-30 02:56:00,METAR KEGE 300256Z AUTO 11005KT 10SM CLR 14/M06 A3013 RMK AO2 SLP160 T01391061 53012,0,5.0,0,16090,0,0,0,
2026-03-30 01:56:00,METAR KEGE 300156Z AUTO 27004KT 10SM CLR 18/M06 A3010 RMK AO2 SLP146 T01831061,0,4.0,0,16090,0,0,0,
2026-03-30 00:56:00,METAR KEGE 300056Z 24010KT 10SM FEW120 20/M06 A3009 RMK AO2 SLP142 T02001061,0,10.0,0,16090,0,0,0,
2026-03-29 23:56:00,METAR KEGE 292356Z 31009G15KT 10SM SCT120 21/M06 A3009 RMK AO2 SLP135 T02111061 10228 20194 58004,0,9.0,1,16090,0,0,0,
2026-03-29 22:56:00,METAR KEGE 292256Z 26007KT 10SM FEW110 21/M07 A3009 RMK AO2 WSHFT 2150 SLP138 T02111072,0,7.0,0,16090,0,0,0,
2026-03-29 22:15:00,SPECI KEGE 292215Z 21015KT 10SM CLR 22/M07 A3010 RMK AO2 WSHFT 2150,0,15.0,0,16090,0,0,0,
2026-03-29 21:56:00,METAR KEGE 292156Z 22017G21KT 10SM FEW001 22/M07 A3010 RMK AO2 SLP134 T02221072,0,17.0,1,16090,0,0,0,
2026-03-29 21:50:00,SPECI KEGE 292150Z 26011G18KT 10SM FEW001 22/M08 A3010 RMK AO2,0,11.0,1,16090,0,0,0,
2026-03-29 20:56:00,METAR KEGE 292056Z 26017G22KT 10SM CLR 22/M10 A3012 RMK AO2 PK WND 22026/2043 SLP135 T02221100 56020,0,17.0,1,16090,0,0,0,
2026-03-29 19:56:00,METAR KEGE 291956Z 20013G25KT 10SM CLR 22/M08 A3013 RMK AO2 SLP142 T02171083,0,13.0,1,16090,0,0,0,
2026-03-29 18:56:00,METAR KEGE 291856Z 23013G24KT 10SM CLR 21/M07 A3015 RMK AO2 SLP149 T02061067,0,13.0,1,16090,0,0,0,
2026-03-29 17:56:00,METAR KEGE 291756Z 29008KT 10SM CLR 19/M04 A3019 RMK AO2 SLP163 T01941044 10194 20011 58012,0,8.0,0,16090,0,0,0,
2026-03-29 16:56:00,METAR KEGE 291656Z 00000KT 10SM CLR 16/M04 A3021 RMK AO2 SLP175 T01561044,0,0.0,0,16090,0,0,0,
2026-03-29 15:56:00,METAR KEGE 291556Z VRB03KT 10SM CLR 10/M05 A3022 RMK AO2 SLP189 T01001050,0,3.0,0,16090,0,0,0,
2026-03-29 14:56:00,METAR KEGE 291456Z 00000KT 10SM CLR 06/M06 A3023 RMK AO2 SLP195 T00611056 51008,0,0.0,0,16090,0,0,0,
2026-03-29 13:56:00,METAR KEGE 291356Z 00000KT 10SM CLR 03/M06 A3022 RMK AO2 SLP194 T00331061,0,0.0,0,16090,0,0,0,
2026-03-29 12:56:00,METAR KEGE 291256Z 12004KT 10SM CLR 02/M06 A3021 RMK AO2 SLP187 T00171061,0,4.0,0,16090,0,0,0,
2026-03-29 11:56:00,METAR KEGE 291156Z AUTO 15003KT 10SM CLR 03/M07 A3019 RMK AO2 SLP174 T00281067 10078 20022 53002,0,3.0,0,16090,0,0,0,
2026-03-29 10:56:00,METAR KEGE 291056Z AUTO 13003KT 10SM CLR 03/M06 A3018 RMK AO2 SLP166 T00331061,0,3.0,0,16090,0,0,0,
2026-03-29 09:56:00,METAR KEGE 290956Z AUTO 00000KT 10SM CLR 04/M07 A3018 RMK AO2 SLP163 T00441067,0,0.0,0,16090,0,0,0,
2026-03-29 08:56:00,METAR KEGE 290856Z AUTO 08003KT 10SM CLR 06/M06 A3019 RMK AO2 SLP161 T00611056 50003,0,3.0,0,16090,0,0,0,
2026-03-29 07:56:00,METAR KEGE 290756Z AUTO 10005KT 10SM OVC110 07/M05 A3019 RMK AO2 SLP162 T00671050,0,5.0,0,16090,0,0,0,
2026-03-29 06:56:00,METAR KEGE 290656Z AUTO 09003KT 10SM CLR 08/M05 A3019 RMK AO2 SLP159 T00781050,0,3.0,0,16090,0,0,0,
2026-03-29 05:56:00,METAR KEGE 290556Z AUTO 09009KT 10SM CLR 08/M05 A3017 RMK AO2 SLP164 T00781050 10211 20078 402331011 51009,0,9.0,0,16090,0,0,0,
2026-03-29 04:56:00,METAR KEGE 290456Z AUTO 12007KT 10SM CLR 09/M05 A3017 RMK AO2 SLP172 T00941050,0,7.0,0,16090,0,0,0,
2026-03-29 03:56:00,METAR KEGE 290356Z AUTO 08009KT 10SM CLR 11/M05 A3016 RMK AO2 SLP174 T01111050,0,9.0,0,16090,0,0,0,
2026-03-29 02:56:00,METAR KEGE 290256Z AUTO 34005KT 10SM CLR 14/M04 A3014 RMK AO2 SLP168 T01391039 53013,0,5.0,0,16090,0,0,0,
2026-03-29 01:56:00,METAR KEGE 290156Z AUTO 19005KT 10SM CLR 17/M05 A3011 RMK AO2 SLP159 T01671050,0,5.0,0,16090,0,0,0,
2026-03-29 00:56:00,METAR KEGE 290056Z 28012KT 10SM CLR 19/M06 A3010 RMK AO2 SLP152 T01941056,0,12.0,0,16090,0,0,0,
2026-03-28 23:56:00,METAR KEGE 282356Z 27015G23KT 10SM CLR 21/M07 A3010 RMK AO2 PK WND 26029/2302 SLP146 T02111067 10233 20178 55008,0,15.0,1,16090,0,0,0,
2026-03-28 22:56:00,METAR KEGE 282256Z 28016G22KT 10SM CLR 22/M07 A3009 RMK AO2 PK WND 24029/2224 SLP139 T02221072,0,16.0,1,16090,0,0,0,
2026-03-28 21:56:00,METAR KEGE 282156Z 26020G25KT 10SM CLR 23/M07 A3010 RMK AO2 SLP138 T02281067,0,20.0,1,16090,0,0,0,
2026-03-28 20:56:00,METAR KEGE 282056Z 25014G24KT 10SM CLR 23/M05 A3013 RMK AO2 SLP146 T02281050 56022,0,14.0,1,16090,0,0,0,
2026-03-28 19:56:00,METAR KEGE 281956Z 26013G25KT 10SM CLR 22/M04 A3015 RMK AO2 WSHFT 1906 SLP154 T02221039,0,13.0,1,16090,0,0,0,
2026-03-28 19:31:00,SPECI KEGE 281931Z 27014KT 10SM CLR 22/M04 A3016 RMK AO2 WSHFT 1906,0,14.0,0,16090,0,0,0,
2026-03-28 18:56:00,METAR KEGE 281856Z 23020G24KT 10SM CLR 22/M04 A3017 RMK AO2 SLP155 T02221044,0,20.0,1,16090,0,0,0,
2026-03-28 17:56:00,METAR KEGE 281756Z 00000KT 10SM CLR 18/M06 A3020 RMK AO2 SLP176 T01781061 10183 21011 58033,0,0.0,0,16090,0,0,0,
2026-03-28 16:56:00,METAR KEGE 281656Z 00000KT 10SM CLR 12/M08 A3025 RMK AO2 SLP204 T01171083,0,0.0,0,16090,0,0,0,
2026-03-28 15:56:00,METAR KEGE 281556Z 00000KT 10SM CLR 08/M08 A3028 RMK AO2 SLP221 T00781083,0,0.0,0,16090,0,0,0,
2026-03-28 14:56:00,METAR KEGE 281456Z 00000KT 10SM CLR 05/M09 A3032 RMK AO2 SLP234 T00501094 50000,0,0.0,0,16090,0,0,0,
2026-03-28 13:56:00,METAR KEGE 281356Z 00000KT 10SM CLR 01/M10 A3032 RMK AO2 SLP235 T00061100,0,0.0,0,16090,0,0,0,
2026-03-28 12:56:00,METAR KEGE 281256Z 11003KT 10SM CLR M01/M09 A3032 RMK AO2 SLP232 T10061094,0,3.0,0,16090,0,0,0,
2026-03-28 11:56:00,METAR KEGE 281156Z AUTO 00000KT 10SM CLR 00/M11 A3032 RMK AO2 SLP226 T00001106 10067 21006 55000 FZRANO,0,0.0,0,16090,0,0,0,
2026-03-28 10:56:00,METAR KEGE 281056Z AUTO 00000KT 10SM CLR 01/M11 A3032 RMK AO2 SLP225 T00061111 FZRANO,0,0.0,0,16090,0,0,0,
2026-03-28 09:56:00,METAR KEGE 280956Z AUTO 00000KT 10SM CLR 01/M12 A3031 RMK AO2 SLP220 T00111117 FZRANO,0,0.0,0,16090,0,0,0,
2026-03-28 08:56:00,METAR KEGE 280856Z AUTO 00000KT 10SM CLR 02/M12 A3032 RMK AO2 SLP223 T00221117 58002 FZRANO,0,0.0,0,16090,0,0,0,
2026-03-28 07:56:00,METAR KEGE 280756Z AUTO 00000KT 10SM CLR 03/M12 A3032 RMK AO2 SLP224 T00331122,0,0.0,0,16090,0,0,0,
2026-03-28 06:56:00,METAR KEGE 280656Z AUTO 13003KT 10SM CLR 05/M12 A3033 RMK AO2 SLP231 T00501117,0,3.0,0,16090,0,0,0,
2026-03-28 05:56:00,METAR KEGE 280556Z AUTO 08004KT 10SM CLR 06/M12 A3033 RMK AO2 SLP231 T00611117 10206 20061 402170000 51008,0,4.0,0,16090,0,0,0,
2026-03-28 04:56:00,METAR KEGE 280456Z AUTO 09006KT 10SM CLR 08/M12 A3033 RMK AO2 SLP233 T00831117,0,6.0,0,16090,0,0,0,
2026-03-28 03:56:00,METAR KEGE 280356Z AUTO 11008KT 10SM CLR 10/M12 A3032 RMK AO2 SLP233 T01001117,0,8.0,0,16090,0,0,0,
2026-03-28 02:56:00,METAR KEGE 280256Z AUTO 10007KT 10SM CLR 12/M14 A3030 RMK AO2 SLP229 T01221139 53016,0,7.0,0,16090,0,0,0,
2026-03-28 01:56:00,METAR KEGE 280156Z AUTO VRB04KT 10SM CLR 17/M14 A3027 RMK AO2 SLP219 T01671144,0,4.0,0,16090,0,0,0,
2026-03-28 00:56:00,METAR KEGE 280056Z 28010KT 10SM CLR 19/M14 A3026 RMK AO2 SLP208 T01891144,0,10.0,0,16090,0,0,0,
2026-03-27 23:56:00,METAR KEGE 272356Z 29014G22KT 10SM CLR 21/M15 A3024 RMK AO2 PK WND 28028/2312 SLP195 T02061150 10217 20133 56009,0,14.0,1,16090,0,0,0,
2026-03-27 22:56:00,METAR KEGE 272256Z 28022G28KT 10SM FEW002 21/M17 A3024 RMK AO2 PK WND 28028/2252 SLP193 T02061167,0,22.0,1,16090,0,0,0,
2026-03-27 21:56:00,METAR KEGE 272156Z 26011G22KT 10SM CLR 21/M12 A3025 RMK AO2 SLP194 T02111117,0,11.0,1,16090,0,0,0,
2026-03-27 20:56:00,METAR KEGE 272056Z VRB04KT 10SM CLR 20/M09 A3028 RMK AO2 SLP197 T02001089 57030,0,4.0,0,16090,0,0,0,
2026-03-27 19:56:00,METAR KEGE 271956Z 30005KT 10SM CLR 18/M08 A3031 RMK AO2 SLP208 T01831078,0,5.0,0,16090,0,0,0,
2026-03-27 18:56:00,METAR KEGE 271856Z 22004KT 10SM CLR 15/M07 A3035 RMK AO2 SLP222 T01501072,0,4.0,0,16090,0,0,0,
2026-03-27 17:56:00,METAR KEGE 271756Z VRB04KT 10SM CLR 14/M06 A3039 RMK AO2 SLP238 T01391056 10139 20000 58019,0,4.0,0,16090,0,0,0,
2026-03-27 16:56:00,METAR KEGE 271656Z 25005KT 10SM CLR 11/M09 A3042 RMK AO2 SLP251 T01061089,0,5.0,0,16090,0,0,0,
2026-03-27 15:56:00,METAR KEGE 271556Z 00000KT 10SM CLR 07/M09 A3044 RMK AO2 SLP261 T00721089,0,0.0,0,16090,0,0,0,
2026-03-25 14:56:00,METAR KEGE 251456Z 00000KT 10SM CLR 07/M01 A3031 RMK AO2 SLP214 T00721006 50008 $,0,0.0,0,16090,0,0,0,
2026-03-25 13:56:00,METAR KEGE 251356Z 09003KT 10SM CLR 03/M02 A3032 RMK AO2 SLP221 T00331017 $,0,3.0,0,16090,0,0,0,
2026-03-25 12:56:00,METAR KEGE 251256Z 13003KT 10SM CLR 03/M02 A3030 RMK AO2 SLP207 T00331017 $,0,3.0,0,16090,0,0,0,
2026-03-25 11:56:00,METAR KEGE 251156Z AUTO 00000KT 10SM CLR 04/M02 A3029 RMK AO2 SLP197 T00441017 10117 20039 53008 $,0,0.0,0,16090,0,0,0,
2026-03-25 10:56:00,METAR KEGE 251056Z AUTO 12004KT 10SM CLR 05/M01 A3027 RMK AO2 SLP189 T00501011 $,0,4.0,0,16090,0,0,0,
2026-03-25 09:56:00,METAR KEGE 250956Z AUTO 00000KT 10SM CLR 06/M01 A3027 RMK AO2 SLP184 T00611011 $,0,0.0,0,16090,0,0,0,
2026-03-25 08:56:00,METAR KEGE 250856Z AUTO 00000KT 10SM CLR 08/M01 A3026 RMK AO2 SLP182 T00781006 50005 $,0,0.0,0,16090,0,0,0,
2026-03-25 07:56:00,METAR KEGE 250756Z AUTO 00000KT 10SM OVC100 09/00 A3026 RMK AO2 SLP180 T00940000 $,0,0.0,0,16090,0,0,0,
2026-03-25 06:56:00,METAR KEGE 250656Z AUTO 10005KT 10SM OVC110 11/00 A3025 RMK AO2 SLP177 T01060000 $,0,5.0,0,16090,0,0,0,
2026-03-25 05:56:00,METAR KEGE 250556Z AUTO 12006KT 10SM OVC100 12/00 A3024 RMK AO2 SLP174 T01170000 10244 20117 402440050 51015 $,0,6.0,0,16090,0,0,0,
2026-03-25 04:56:00,METAR KEGE 250456Z AUTO 12007KT 10SM BKN100 12/00 A3023 RMK AO2 SLP181 T01220000 $,0,7.0,0,16090,0,0,0,
2026-03-25 03:56:00,METAR KEGE 250356Z AUTO 08010KT 10SM CLR 14/00 A3021 RMK AO2 SLP180 T01390000 $,0,10.0,0,16090,0,0,0,
2026-03-25 02:56:00,METAR KEGE 250256Z AUTO 00000KT 10SM CLR 18/00 A3019 RMK AO2 SLP169 T01780000 53019 $,0,0.0,0,16090,0,0,0,
2026-03-25 01:56:00,METAR KEGE 250156Z AUTO 24006KT 10SM CLR 20/00 A3016 RMK AO2 SLP158 T02000000 $,0,6.0,0,16090,0,0,0,
2026-03-25 00:56:00,METAR KEGE 250056Z 27010KT 10SM CLR 23/00 A3014 RMK AO2 SLP143 T02280000 $,0,10.0,0,16090,0,0,0,
2026-03-24 23:56:00,METAR KEGE 242356Z 25015G19KT 10SM CLR 24/01 A3012 RMK AO2 SLP133 T02440006 10244 20206 57005 $,0,15.0,1,16090,0,0,0,
2026-03-24 22:56:00,METAR KEGE 242256Z 23017G25KT 10SM CLR 24/01 A3013 RMK AO2 PK WND 24027/2204 SLP133 T02440006 $,0,17.0,1,16090,0,0,0,
2026-03-24 21:56:00,METAR KEGE 242156Z 25017G24KT 10SM CLR 24/01 A3014 RMK AO2 PK WND 25028/2144 SLP136 T02440006 $,0,17.0,1,16090,0,0,0,
2026-03-24 20:56:00,METAR KEGE 242056Z 24013G23KT 10SM CLR 23/00 A3014 RMK AO2 PK WND 25026/2039 SLP138 T02330000 57016 $,0,13.0,1,16090,0,0,0,
2026-03-24 19:56:00,METAR KEGE 241956Z 26013G17KT 10SM CLR 23/M01 A3016 RMK AO2 PK WND 25026/1900 SLP145 T02281006 $,0,13.0,1,16090,0,0,0,
2026-03-24 18:56:00,METAR KEGE 241856Z 24021G28KT 10SM CLR 21/M01 A3018 RMK AO2 PK WND 24029/1845 SLP156 T02111006 $,0,21.0,1,16090,0,0,0,
2026-03-24 17:56:00,METAR KEGE 241756Z 26011G19KT 230V290 10SM CLR 21/01 A3020 RMK AO2 SLP163 T02060006 10206 20050 58014 $,0,11.0,1,16090,0,0,0,
2026-03-24 16:56:00,METAR KEGE 241656Z 00000KT 10SM CLR 14/02 A3023 RMK AO2 SLP183 T01440022 $,0,0.0,0,16090,0,0,0,
2026-03-24 15:56:00,METAR KEGE 241556Z 00000KT 10SM CLR 10/02 A3024 RMK AO2 SLP196 T01000017 $,0,0.0,0,16090,0,0,0,
2026-03-24 14:56:00,METAR KEGE 241456Z 30003KT 10SM CLR 07/01 A3025 RMK AO2 SLP203 T00720011 53006 $,0,3.0,0,16090,0,0,0,
2026-03-24 13:56:00,METAR KEGE 241356Z 00000KT 10SM CLR 06/01 A3023 RMK AO2 SLP200 T00560006 $,0,0.0,0,16090,0,0,0,
2026-03-24 12:56:00,METAR KEGE 241256Z 18003KT 10SM SCT095 06/01 A3023 RMK AO2 SLP198 T00560006 $,0,3.0,0,16090,0,0,0,
2026-03-24 11:56:00,METAR KEGE 241156Z AUTO 02003KT 10SM OVC095 07/01 A3023 RMK AO2 SLP190 T00670011 10100 20067 53003 $,0,3.0,0,16090,0,0,0,
2026-03-24 10:56:00,METAR KEGE 241056Z AUTO 00000KT 10SM OVC100 07/01 A3020 RMK AO2 SLP175 T00720011 $,0,0.0,0,16090,0,0,0,
2026-03-24 09:56:00,METAR KEGE 240956Z AUTO 00000KT 10SM OVC100 08/01 A3020 RMK AO2 SLP172 T00780011 $,0,0.0,0,16090,0,0,0,
2026-03-24 08:56:00,METAR KEGE 240856Z AUTO 00000KT 10SM OVC100 08/01 A3021 RMK AO2 SLP176 T00830011 53002 $,0,0.0,0,16090,0,0,0,
2026-03-24 07:56:00,METAR KEGE 240756Z AUTO 00000KT 10SM OVC100 09/01 A3020 RMK AO2 SLP167 T00890011 $,0,0.0,0,16090,0,0,0,
2026-03-24 06:56:00,METAR KEGE 240656Z AUTO 10003KT 10SM OVC100 09/02 A3021 RMK AO2 SLP170 T00890017 $,0,3.0,0,16090,0,0,0,
2026-03-24 05:56:00,METAR KEGE 240556Z AUTO 00000KT 10SM BKN100 09/02 A3021 RMK AO2 SLP177 60000 T00940017 10156 20094 402000067 50001 $,0,0.0,0,16090,0,0,0,
2026-03-24 04:56:00,METAR KEGE 240456Z AUTO 00000KT 10SM OVC100 11/02 A3021 RMK AO2 SLP182 T01060017 $,0,0.0,0,16090,0,0,0,
2026-03-24 03:56:00,METAR KEGE 240356Z AUTO 00000KT 10SM OVC100 12/02 A3021 RMK AO2 SLP186 T01220017 $,0,0.0,0,16090,0,0,0,
2026-03-24 02:56:00,METAR KEGE 240256Z AUTO 34003KT 10SM SCT110 13/02 A3020 RMK AO2 SLP184 60000 T01280017 51007 $,0,3.0,0,16090,0,0,0,
2026-03-24 01:56:00,METAR KEGE 240156Z AUTO 14004KT 10SM SCT065 OVC110 13/02 A3019 RMK AO2 RAB08E22 SLP182 P0000 T01330017 $,0,4.0,0,16090,0,0,0,RA
2026-03-24 00:56:00,METAR KEGE 240056Z 23008KT 10SM OVC070 14/01 A3021 RMK AO2 PK WND 22026/0004 SLP184 T01440011 $,0,8.0,0,16090,0,0,0,
2026-03-23 23:56:00,METAR KEGE 232356Z 23019G29KT 10SM OVC085 16/01 A3018 RMK AO2 PK WND 23029/2348 SLP170 T01560006 10200 20144 53016 $,0,19.0,1,16090,0,0,0,
2026-03-23 22:56:00,METAR KEGE 232256Z 28018G25KT 10SM OVC090 18/M02 A3015 RMK AO2 PK WND 25027/2235 SLP153 T01781022 $,0,18.0,1,16090,0,0,0,
2026-03-23 21:56:00,METAR KEGE 232156Z 24015G24KT 10SM BKN095 18/M02 A3014 RMK AO2 PK WND 23029/2113 SLP151 T01831022 $,0,15.0,1,16090,0,0,0,
2026-03-23 20:56:00,METAR KEGE 232056Z 22018G27KT 10SM OVC100 18/M03 A3012 RMK AO2 PK WND 24030/2042 SLP143 T01831033 57017 $,0,18.0,1,16090,0,0,0,
2026-03-23 19:56:00,METAR KEGE 231956Z 26016G23KT 10SM FEW100 20/M04 A3014 RMK AO2 PK WND 25026/1917 SLP143 T02001039 $,0,16.0,1,16090,0,0,0,
2026-03-23 19:18:00,SPECI KEGE 231918Z 26019G26KT 10SM CLR 19/M04 A3015 RMK AO2 PK WND 25026/1917 $,0,19.0,1,16090,0,0,0,
2026-03-23 18:56:00,METAR KEGE 231856Z 30004KT 10SM CLR 18/M03 A3017 RMK AO2 SLP156 T01831033 $,0,4.0,0,16090,0,0,0,
2026-03-23 17:56:00,METAR KEGE 231756Z 07006KT 10SM BKN100 14/M03 A3018 RMK AO2 SLP166 T01441033 10144 20067 58002 $,0,6.0,0,16090,0,0,0,
2026-03-23 16:56:00,METAR KEGE 231656Z 14004KT 10SM BKN110 11/M04 A3022 RMK AO2 SLP185 T01111044 $,0,4.0,0,16090,0,0,0,
2026-03-23 15:56:00,METAR KEGE 231556Z 32003KT 10SM OVC100 09/M04 A3021 RMK AO2 SLP184 T00891044 $,0,3.0,0,16090,0,0,0,
2026-03-23 14:56:00,METAR KEGE 231456Z 34003KT 10SM OVC110 08/M04 A3019 RMK AO2 SLP173 T00781044 51007 $,0,3.0,0,16090,0,0,0,
2026-03-23 13:56:00,METAR KEGE 231356Z 00000KT 10SM FEW120 07/M05 A3018 RMK AO2 SLP172 T00671050 $,0,0.0,0,16090,0,0,0,
2026-03-23 12:56:00,METAR KEGE 231256Z AUTO 00000KT 10SM OVC110 07/M06 A3017 RMK AO2 SLP157 T00721056 $,0,0.0,0,16090,0,0,0,
2026-03-23 11:56:00,METAR KEGE 231156Z AUTO 00000KT 10SM BKN110 07/M06 A3016 RMK AO2 SLP151 T00721061 10106 20072 56009 $,0,0.0,0,16090,0,0,0,
2026-03-23 10:56:00,METAR KEGE 231056Z AUTO 00000KT 10SM FEW120 08/M06 A3017 RMK AO2 SLP150 T00781061 $,0,0.0,0,16090,0,0,0,
2026-03-23 09:56:00,METAR KEGE 230956Z AUTO 00000KT 10SM BKN120 07/M07 A3018 RMK AO2 SLP155 T00721072 $,0,0.0,0,16090,0,0,0,
2026-03-23 08:56:00,METAR KEGE 230856Z AUTO 00000KT 10SM CLR 08/M07 A3019 RMK AO2 SLP158 T00781067 52001 $,0,0.0,0,16090,0,0,0,
2026-03-23 07:56:00,METAR KEGE 230756Z AUTO 13004KT 10SM CLR 09/M07 A3019 RMK AO2 SLP160 T00891067 $,0,4.0,0,16090,0,0,0,
2026-03-23 06:56:00,METAR KEGE 230656Z AUTO 12003KT 10SM CLR 09/M07 A3019 RMK AO2 SLP157 T00941072 $,0,3.0,0,16090,0,0,0,
2026-03-23 05:56:00,METAR KEGE 230556Z AUTO 00000KT 10SM CLR 11/M07 A3019 RMK AO2 SLP159 T01061072 10217 20106 402330061 51008 $,0,0.0,0,16090,0,0,0,
2026-03-23 04:56:00,METAR KEGE 230456Z AUTO 00000KT 10SM CLR 12/M08 A3018 RMK AO2 SLP160 T01171078 $,0,0.0,0,16090,0,0,0,
2026-03-23 03:56:00,METAR KEGE 230356Z AUTO 11003KT 10SM CLR 13/M08 A3018 RMK AO2 SLP160 T01281078 $,0,3.0,0,16090,0,0,0,
2026-03-23 02:56:00,METAR KEGE 230256Z AUTO 06004KT 10SM CLR 15/M09 A3016 RMK AO2 SLP156 T01501089 53013 $,0,4.0,0,16090,0,0,0,
2026-03-23 01:56:00,METAR KEGE 230156Z AUTO 00000KT 9SM CLR 17/M11 A3014 RMK AO2 SLP155 T01671106 $,0,0.0,0,14481,0,0,0,
2026-03-23 00:56:00,METAR KEGE 230056Z 28006KT 10SM CLR 20/M09 A3012 RMK AO2 SLP140 T02001094 $,0,6.0,0,16090,0,0,0,
2026-03-22 23:56:00,METAR KEGE 222356Z VRB06KT 10SM CLR 22/M09 A3011 RMK AO2 SLP135 T02171089 10233 20194 58004 $,0,6.0,0,16090,0,0,0,
2026-03-22 22:56:00,METAR KEGE 222256Z 28009KT 10SM CLR 23/M11 A3012 RMK AO2 SLP133 T02281111 $,0,9.0,0,16090,0,0,0,
2026-03-22 21:56:00,METAR KEGE 222156Z 28008G18KT 10SM CLR 23/M16 A3012 RMK AO2 SLP130 T02281156 $,0,8.0,1,16090,0,0,0,
2026-03-22 20:56:00,METAR KEGE 222056Z 27010KT 10SM SCT110 23/M09 A3013 RMK AO2 SLP133 T02281094 58018 $,0,10.0,0,16090,0,0,0,
2026-03-22 19:56:00,METAR KEGE 221956Z VRB03KT 10SM CLR 21/M07 A3016 RMK AO2 SLP145 T02111067 $,0,3.0,0,16090,0,0,0,
2026-03-22 18:56:00,METAR KEGE 221856Z VRB06KT 10SM CLR 21/M06 A3017 RMK AO2 SLP146 T02111056 $,0,6.0,0,16090,0,0,0,
2026-03-22 17:56:00,METAR KEGE 221756Z 00000KT 10SM CLR 19/M06 A3019 RMK AO2 SLP156 T01941056 10194 20061 58005 $,0,0.0,0,16090,0,0,0,
2026-03-22 16:56:00,METAR KEGE 221656Z 20005KT 10SM CLR 17/M06 A3021 RMK AO2 SLP164 T01721056 $,0,5.0,0,16090,0,0,0,
2026-03-22 15:56:00,METAR KEGE 221556Z 00000KT 10SM CLR 14/M06 A3021 RMK AO2 SLP168 T01441061 $,0,0.0,0,16090,0,0,0,
2026-03-22 14:56:00,METAR KEGE 221456Z 00000KT 10SM FEW110 12/M05 A3021 RMK AO2 SLP165 T01171050 51021 $,0,0.0,0,16090,0,0,0,
2026-03-22 13:56:00,METAR KEGE 221356Z 09008KT 10SM BKN120 07/M06 A3019 RMK AO2 SLP166 T00671056 $,0,8.0,0,16090,0,0,0,
2026-03-22 12:56:00,METAR KEGE 221256Z AUTO 10004KT 10SM BKN110 07/M06 A3017 RMK AO2 SLP154 T00671056 $,0,4.0,0,16090,0,0,0,
2026-03-22 11:56:00,METAR KEGE 221156Z AUTO 00000KT 10SM FEW110 07/M07 A3014 RMK AO2 SLP137 T00721067 10122 20067 53012 $,0,0.0,0,16090,0,0,0,
2026-03-22 10:56:00,METAR KEGE 221056Z AUTO 00000KT 10SM CLR 08/M07 A3010 RMK AO2 SLP120 T00781072 $,0,0.0,0,16090,0,0,0,
2026-03-22 09:56:00,METAR KEGE 220956Z AUTO 00000KT 10SM CLR 09/M07 A3010 RMK AO2 SLP115 T00891072 $,0,0.0,0,16090,0,0,0,
2026-03-22 08:56:00,METAR KEGE 220856Z AUTO 00000KT 10SM CLR 09/M07 A3010 RMK AO2 SLP115 T00941067 51005 $,0,0.0,0,16090,0,0,0,
2026-03-22 07:56:00,METAR KEGE 220756Z AUTO 11005KT 10SM CLR 09/M07 A3009 RMK AO2 SLP113 T00941067 $,0,5.0,0,16090,0,0,0,
2026-03-22 06:56:00,METAR KEGE 220656Z AUTO 12004KT 10SM CLR 12/M08 A3009 RMK AO2 SLP120 T01171078 $,0,4.0,0,16090,0,0,0,
2026-03-22 05:56:00,METAR KEGE 220556Z AUTO 10006KT 10SM CLR 12/M07 A3008 RMK AO2 SLP123 T01221072 10244 20122 402671017 50004 $,0,6.0,0,16090,0,0,0,
2026-03-22 04:56:00,METAR KEGE 220456Z AUTO 09010KT 10SM CLR 13/M08 A3008 RMK AO2 SLP131 T01331078 $,0,10.0,0,16090,0,0,0,
2026-03-22 03:56:00,METAR KEGE 220356Z AUTO 10004KT 10SM CLR 15/M08 A3008 RMK AO2 SLP138 T01501083 $,0,4.0,0,16090,0,0,0,
2026-03-22 02:56:00,METAR KEGE 220256Z AUTO 30003KT 10SM CLR 19/M11 A3007 RMK AO2 SLP131 T01941106 53015 $,0,3.0,0,16090,0,0,0,
2026-03-22 01:56:00,METAR KEGE 220156Z AUTO 21005KT 10SM CLR 21/M09 A3005 RMK AO2 SLP133 T02061094 $,0,5.0,0,16090,0,0,0,
2026-03-22 00:56:00,METAR KEGE 220056Z 25006KT 10SM CLR 22/M09 A3002 RMK AO2 SLP117 T02221094 $,0,6.0,0,16090,0,0,0,
2026-03-21 23:56:00,METAR KEGE 212356Z 28015G22KT 10SM CLR 24/M10 A3001 RMK AO2 SLP109 T02441100 10267 20172 56013 $,0,15.0,1,16090,0,0,0,
2026-03-21 22:56:00,METAR KEGE 212256Z 28015G25KT 10SM CLR 26/M10 A3002 RMK AO2 PK WND 28027/2236 SLP104 T02611100 $,0,15.0,1,16090,0,0,0,
2026-03-21 21:56:00,METAR KEGE 212156Z 28019G26KT 10SM CLR 27/M11 A3004 RMK AO2 PK WND 29029/2112 SLP108 T02671106 $,0,19.0,1,16090,0,0,0,
2026-03-21 21:11:00,SPECI KEGE 212111Z 28019G26KT 8SM FEW003 26/M12 A3005 RMK AO2 PK WND 28028/2101 $,0,19.0,1,12872,0,0,0,
2026-03-21 20:56:00,METAR KEGE 212056Z 26016G29KT 8SM CLR 26/M12 A3006 RMK AO2 PK WND 25037/2032 SLP115 T02611117 56038 $,0,16.0,1,12872,0,0,0,
2026-03-21 19:56:00,METAR KEGE 211956Z 28017G28KT 9SM CLR 26/M11 A3010 RMK AO2 PK WND 28028/1951 SLP126 T02561106 $,0,17.0,1,14481,0,0,0,
2026-03-21 18:56:00,METAR KEGE 211856Z 00000KT 10SM CLR 21/M08 A3014 RMK AO2 SLP152 T02061078 $,0,0.0,0,16090,0,0,0,
2026-03-21 17:56:00,METAR KEGE 211756Z 00000KT 10SM CLR 17/M09 A3019 RMK AO2 SLP175 T01671089 10167 21017 58034 $,0,0.0,0,16090,0,0,0,
2026-03-21 16:56:00,METAR KEGE 211656Z 00000KT 10SM CLR 12/M08 A3025 RMK AO2 SLP202 T01171078 $,0,0.0,0,16090,0,0,0,
2026-03-21 15:56:00,METAR KEGE 211556Z 00000KT 10SM CLR 07/M08 A3028 RMK AO2 SLP218 T00721083 $,0,0.0,0,16090,0,0,0,
2026-03-21 14:56:00,METAR KEGE 211456Z 00000KT 10SM CLR 03/M08 A3031 RMK AO2 SLP230 T00331083 58001 $,0,0.0,0,16090,0,0,0,
2026-03-21 13:56:00,METAR KEGE 211356Z 00000KT 10SM CLR M01/M08 A3032 RMK AO2 SLP233 T10061083 $,0,0.0,0,16090,0,0,0,
2026-03-21 12:56:00,METAR KEGE 211256Z 00000KT 10SM CLR M01/M09 A3032 RMK AO2 SLP224 T10061089 $,0,0.0,0,16090,0,0,0,
2026-03-21 11:56:00,METAR KEGE 211156Z AUTO 12004KT 10SM CLR 00/M08 A3032 RMK AO2 SLP214 T00001078 10067 20000 55003 FZRANO $,0,4.0,0,16090,0,0,0,
2026-03-21 10:56:00,METAR KEGE 211056Z AUTO 00000KT 10SM CLR 01/M08 A3031 RMK AO2 SLP210 T00111083 FZRANO $,0,0.0,0,16090,0,0,0,
2026-03-21 09:56:00,METAR KEGE 210956Z AUTO 00000KT 10SM CLR 02/M09 A3031 RMK AO2 SLP212 T00171094 FZRANO $,0,0.0,0,16090,0,0,0,
2026-03-21 08:56:00,METAR KEGE 210856Z AUTO 10003KT 10SM CLR 03/M09 A3033 RMK AO2 SLP211 T00281094 51003 $,0,3.0,0,16090,0,0,0,
2026-03-21 07:56:00,METAR KEGE 210756Z AUTO 11004KT 10SM CLR 04/M09 A3033 RMK AO2 SLP213 T00391089 $,0,4.0,0,16090,0,0,0,
2026-03-21 06:56:00,METAR KEGE 210656Z AUTO 00000KT 10SM CLR 05/M10 A3032 RMK AO2 SLP220 T00501100 $,0,0.0,0,16090,0,0,0,
2026-03-21 05:56:00,METAR KEGE 210556Z AUTO 16003KT 10SM CLR 07/M10 A3032 RMK AO2 SLP222 T00671100 10250 20067 402611011 51007 $,0,3.0,0,16090,0,0,0,
2026-03-21 04:56:00,METAR KEGE 210456Z AUTO 12005KT 10SM CLR 08/M09 A3031 RMK AO2 SLP226 T00781094 $,0,5.0,0,16090,0,0,0,
2026-03-21 03:56:00,METAR KEGE 210356Z AUTO 10006KT 10SM CLR 11/M09 A3030 RMK AO2 SLP228 T01111089 $,0,6.0,0,16090,0,0,0,
2026-03-21 02:56:00,METAR KEGE 210256Z AUTO 09004KT 10SM CLR 14/M11 A3029 RMK AO2 SLP218 T01441106 53008 $,0,4.0,0,16090,0,0,0,
2026-03-21 01:56:00,METAR KEGE 210156Z AUTO 34003KT 10SM CLR 19/M12 A3027 RMK AO2 SLP214 T01891122 $,0,3.0,0,16090,0,0,0,
2026-03-21 00:56:00,METAR KEGE 210056Z 26008KT 10SM CLR 22/M12 A3027 RMK AO2 SLP203 T02221117 $,0,8.0,0,16090,0,0,0,
2026-03-20 23:56:00,METAR KEGE 202356Z 28011KT 10SM CLR 25/M12 A3027 RMK AO2 SLP196 T02501122 10261 20156 56015 $,0,11.0,0,16090,0,0,0,
2026-03-20 22:56:00,METAR KEGE 202256Z 27010KT 10SM CLR 26/M12 A3028 RMK AO2 SLP197 T02561117 $,0,10.0,0,16090,0,0,0,
2026-03-20 21:56:00,METAR KEGE 202156Z 28009KT 10SM CLR 25/M12 A3030 RMK AO2 SLP201 T02501117 $,0,9.0,0,16090,0,0,0,
2026-03-20 20:56:00,METAR KEGE 202056Z VRB03KT 10SM CLR 26/M09 A3032 RMK AO2 SLP207 T02561094 56035 $,0,3.0,0,16090,0,0,0,
2026-03-20 19:56:00,METAR KEGE 201956Z 00000KT 10SM CLR 23/M08 A3036 RMK AO2 SLP224 T02331078 $,0,0.0,0,16090,0,0,0,
2026-03-20 18:56:00,METAR KEGE 201856Z 00000KT 10SM CLR 19/M06 A3040 RMK AO2 SLP246 T01941061 $,0,0.0,0,16090,0,0,0,
2026-03-20 17:56:00,METAR KEGE 201756Z 00000KT 10SM CLR 16/M06 A3044 RMK AO2 SLP263 T01561061 10156 21011 58020 $,0,0.0,0,16090,0,0,0,
2026-03-20 16:56:00,METAR KEGE 201656Z 00000KT 10SM CLR 12/M05 A3048 RMK AO2 SLP282 T01171050 $,0,0.0,0,16090,0,0,0,
2026-03-20 15:56:00,METAR KEGE 201556Z 31003KT 10SM CLR 07/M05 A3050 RMK AO2 SLP296 T00671050 $,0,3.0,0,16090,0,0,0,
2026-03-20 14:56:00,METAR KEGE 201456Z 00000KT 10SM CLR 05/M05 A3051 RMK AO2 SLP299 T00501050 51007 $,0,0.0,0,16090,0,0,0,
2026-03-20 13:56:00,METAR KEGE 201356Z 00000KT 10SM CLR 00/M06 A3051 RMK AO2 SLP299 T00001056 $,0,0.0,0,16090,0,0,0,
2026-03-20 12:56:00,METAR KEGE 201256Z 28004KT 10SM CLR 00/M07 A3050 RMK AO2 SLP284 T00001067 $,0,4.0,0,16090,0,0,0,
2026-03-20 11:56:00,METAR KEGE 201156Z AUTO 11003KT 10SM CLR 00/M06 A3048 RMK AO2 SLP277 T00001061 10078 21006 53006 FZRANO $,0,3.0,0,16090,0,0,0,
2026-03-20 10:56:00,METAR KEGE 201056Z AUTO 00000KT 10SM CLR 01/M07 A3047 RMK AO2 SLP270 T00111067 FZRANO $,0,0.0,0,16090,0,0,0,
2026-03-20 09:56:00,METAR KEGE 200956Z AUTO 00000KT 10SM CLR 03/M07 A3046 RMK AO2 SLP261 T00281067 $,0,0.0,0,16090,0,0,0,
2026-03-20 08:56:00,METAR KEGE 200856Z AUTO 12003KT 10SM CLR 03/M07 A3046 RMK AO2 SLP265 T00281067 51011 $,0,3.0,0,16090,0,0,0,
2026-03-20 07:56:00,METAR KEGE 200756Z AUTO 12003KT 10SM CLR 04/M07 A3046 RMK AO2 SLP260 T00441067 $,0,3.0,0,16090,0,0,0,
2026-03-20 06:56:00,METAR KEGE 200656Z AUTO 00000KT 10SM CLR 05/M07 A3044 RMK AO2 SLP259 T00501067 $,0,0.0,0,16090,0,0,0,
2026-03-20 05:56:00,METAR KEGE 200556Z AUTO 12003KT 10SM CLR 07/M06 A3043 RMK AO2 SLP260 T00721061 10239 20067 402501017 51012 $,0,3.0,0,16090,0,0,0,
2026-03-20 04:56:00,METAR KEGE 200456Z AUTO 11004KT 10SM CLR 09/M06 A3042 RMK AO2 SLP265 T00891061 $,0,4.0,0,16090,0,0,0,
2026-03-20 03:56:00,METAR KEGE 200356Z AUTO 12005KT 10SM CLR 12/M06 A3041 RMK AO2 SLP266 T01171061 $,0,5.0,0,16090,0,0,0,
2026-03-20 02:56:00,METAR KEGE 200256Z AUTO 10006KT 10SM CLR 14/M07 A3039 RMK AO2 SLP259 T01391067 53016 $,0,6.0,0,16090,0,0,0,
2026-03-20 01:56:00,METAR KEGE 200156Z AUTO 29005KT 10SM CLR 18/M07 A3036 RMK AO2 SLP245 T01831067 $,0,5.0,0,16090,0,0,0,
2026-03-20 00:56:00,METAR KEGE 200056Z AUTO 24012KT 10SM CLR 23/M07 A3034 RMK AO2 SLP231 T02281072 $,0,12.0,0,16090,0,0,0,
2026-03-19 23:56:00,METAR KEGE 192356Z 24016G22KT 10SM CLR 24/M08 A3033 RMK AO2 SLP223 T02391083 10250 20150 56010 $,0,16.0,1,16090,0,0,0,
2026-03-19 22:56:00,METAR KEGE 192256Z 22017G21KT 10SM CLR 24/M08 A3034 RMK AO2 SLP222 T02441083 $,0,17.0,1,16090,0,0,0,
2026-03-19 21:56:00,METAR KEGE 192156Z 25015G20KT 10SM CLR 24/M09 A3036 RMK AO2 SLP227 T02441089 $,0,15.0,1,16090,0,0,0,
2026-03-19 20:56:00,METAR KEGE 192056Z 22013G21KT 10SM CLR 24/M09 A3037 RMK AO2 SLP232 T02391094 56031 $,0,13.0,1,16090,0,0,0,
2026-03-19 19:56:00,METAR KEGE 191956Z 27007KT 230V300 10SM CLR 23/M08 A3040 RMK AO2 SLP244 T02281078 $,0,7.0,0,16090,0,0,0,
2026-03-19 18:56:00,METAR KEGE 191856Z 00000KT 10SM CLR 20/M07 A3044 RMK AO2 SLP259 T02001067 $,0,0.0,0,16090,0,0,0,
2026-03-19 17:56:00,METAR KEGE 191756Z 00000KT 10SM CLR 15/M08 A3048 RMK AO2 SLP282 T01501078 10150 21017 58021 $,0,0.0,0,16090,0,0,0,
2026-03-19 16:56:00,METAR KEGE 191656Z 00000KT 10SM CLR 11/M07 A3052 RMK AO2 SLP297 T01111067 $,0,0.0,0,16090,0,0,0,
2026-03-19 15:56:00,METAR KEGE 191556Z 00000KT 10SM CLR 06/M07 A3054 RMK AO2 SLP318 T00561067 $,0,0.0,0,16090,0,0,0,
2026-03-19 14:56:00,METAR KEGE 191456Z 00000KT 10SM CLR 02/M07 A3055 RMK AO2 SLP328 T00221072 51013 $,0,0.0,0,16090,0,0,0,
2026-03-19 13:56:00,METAR KEGE 191356Z 00000KT 10SM CLR M01/M07 A3055 RMK AO2 SLP317 T10111067 $,0,0.0,0,16090,0,0,0,
2026-03-19 12:56:00,METAR KEGE 191256Z 00000KT 10SM CLR M02/M08 A3053 RMK AO2 SLP304 T10171078 FZRANO $,0,0.0,0,16090,0,0,0,
2026-03-19 11:56:00,METAR KEGE 191156Z AUTO 00000KT 10SM CLR M01/M07 A3051 RMK AO2 SLP293 T10111067 10061 21011 53009 FZRANO $,0,0.0,0,16090,0,0,0,
2026-03-19 10:56:00,METAR KEGE 191056Z AUTO 00000KT 10SM CLR 00/M07 A3048 RMK AO2 SLP279 T00001072 FZRANO $,0,0.0,0,16090,0,0,0,
2026-03-19 09:56:00,METAR KEGE 190956Z AUTO 12003KT 10SM CLR 01/M08 A3048 RMK AO2 SLP278 T00061078 FZRANO $,0,3.0,0,16090,0,0,0,
2026-03-19 08:56:00,METAR KEGE 190856Z AUTO 14003KT 10SM CLR 02/M08 A3047 RMK AO2 SLP272 T00171078 51010 FZRANO $,0,3.0,0,16090,0,0,0,
2026-03-19 07:56:00,METAR KEGE 190756Z AUTO 00000KT 10SM CLR 03/M08 A3046 RMK AO2 SLP269 T00281083 $,0,0.0,0,16090,0,0,0,
2026-03-19 06:56:00,METAR KEGE 190656Z AUTO 11004KT 10SM CLR 04/M07 A3045 RMK AO2 SLP266 T00441072 $,0,4.0,0,16090,0,0,0,
2026-03-19 05:56:00,METAR KEGE 190556Z AUTO 10004KT 10SM CLR 06/M08 A3044 RMK AO2 SLP267 T00611078 10222 20056 402331028 51020 $,0,4.0,0,16090,0,0,0,
2026-03-19 04:56:00,METAR KEGE 190456Z AUTO 12007KT 10SM CLR 08/M07 A3042 RMK AO2 SLP267 T00831072 $,0,7.0,0,16090,0,0,0,
2026-03-19 03:56:00,METAR KEGE 190356Z AUTO 11006KT 10SM CLR 09/M07 A3040 RMK AO2 SLP270 T00941072 $,0,6.0,0,16090,0,0,0,
2026-03-19 02:56:00,METAR KEGE 190256Z AUTO 08008KT 10SM CLR 11/M08 A3037 RMK AO2 SLP261 T01111078 53017 $,0,8.0,0,16090,0,0,0,
2026-03-19 01:56:00,METAR KEGE 190156Z AUTO 00000KT 10SM CLR 17/M09 A3033 RMK AO2 SLP242 T01721089 $,0,0.0,0,16090,0,0,0,
2026-03-19 00:56:00,METAR KEGE 190056Z AUTO 25009KT 10SM CLR 21/M09 A3031 RMK AO2 SLP229 T02061089 $,0,9.0,0,16090,0,0,0,
2026-03-18 23:56:00,METAR KEGE 182356Z 23013KT 10SM CLR 22/M09 A3031 RMK AO2 SLP221 T02221094 10233 20144 53002 $,0,13.0,0,16090,0,0,0,
2026-03-18 22:56:00,METAR KEGE 182256Z 23017G23KT 10SM CLR 23/M09 A3030 RMK AO2 SLP215 T02281094 $,0,17.0,1,16090,0,0,0,
2026-03-18 21:56:00,METAR KEGE 182156Z 25012KT 10SM CLR 23/M10 A3030 RMK AO2 PK WND 23026/2144 SLP213 T02281100 $,0,12.0,0,16090,0,0,0,
2026-03-18 20:56:00,METAR KEGE 182056Z 22011G18KT 10SM CLR 22/M11 A3030 RMK AO2 SLP212 T02221111 56026 $,0,11.0,1,16090,0,0,0,
2026-03-18 19:56:00,METAR KEGE 181956Z 29004KT 10SM CLR 21/M08 A3033 RMK AO2 SLP221 T02111083 $,0,4.0,0,16090,0,0,0,
2026-03-18 18:56:00,METAR KEGE 181856Z 31004KT 10SM CLR 19/M07 A3036 RMK AO2 SLP236 T01891072 $,0,4.0,0,16090,0,0,0,
2026-03-18 17:56:00,METAR KEGE 181756Z 30004KT 10SM CLR 14/M07 A3039 RMK AO2 SLP256 T01441072 10150 21028 58012 $,0,4.0,0,16090,0,0,0,
2026-03-18 16:56:00,METAR KEGE 181656Z 00000KT 10SM CLR 10/M06 A3042 RMK AO2 SLP270 T01001061 $,0,0.0,0,16090,0,0,0,
2026-03-18 15:56:00,METAR KEGE 181556Z 27003KT 10SM CLR 05/M06 A3043 RMK AO2 SLP286 T00501056 $,0,3.0,0,16090,0,0,0,
2026-03-18 14:56:00,METAR KEGE 181456Z 00000KT 10SM CLR 02/M06 A3043 RMK AO2 SLP288 T00171061 51012 $,0,0.0,0,16090,0,0,0,
2026-03-18 13:56:00,METAR KEGE 181356Z 13003KT 10SM CLR M02/M07 A3042 RMK AO2 SLP285 T10221067 $,0,3.0,0,16090,0,0,0,
2026-03-18 12:56:00,METAR KEGE 181256Z 11005KT 10SM CLR M03/M07 A3041 RMK AO2 SLP275 T10281067 $,0,5.0,0,16090,0,0,0,
2026-03-18 11:56:00,METAR KEGE 181156Z AUTO 00000KT 10SM CLR M02/M06 A3039 RMK AO2 SLP262 T10171061 10044 21017 53011 FZRANO $,0,0.0,0,16090,0,0,0,
2026-03-18 10:56:00,METAR KEGE 181056Z AUTO 12003KT 10SM CLR M01/M06 A3037 RMK AO2 SLP251 T10061061 FZRANO $,0,3.0,0,16090,0,0,0,
2026-03-18 09:56:00,METAR KEGE 180956Z AUTO 15004KT 10SM CLR 01/M06 A3036 RMK AO2 SLP247 T00061061 FZRANO $,0,4.0,0,16090,0,0,0,
2026-03-18 08:56:00,METAR KEGE 180856Z AUTO 00000KT 10SM CLR 01/M06 A3035 RMK AO2 SLP244 T00061061 53015 FZRANO $,0,0.0,0,16090,0,0,0,
2026-03-18 07:56:00,METAR KEGE 180756Z AUTO 00000KT 10SM CLR 02/M06 A3032 RMK AO2 SLP233 T00171061 FZRANO $,0,0.0,0,16090,0,0,0,
2026-03-18 06:56:00,METAR KEGE 180656Z AUTO 00000KT 10SM CLR 03/M06 A3032 RMK AO2 SLP230 T00281056 $,0,0.0,0,16090,0,0,0,
2026-03-18 05:56:00,METAR KEGE 180556Z AUTO 11006KT 10SM CLR 04/M06 A3030 RMK AO2 SLP225 T00391056 10178 20039 401830022 53017 $,0,6.0,0,16090,0,0,0,
2026-03-18 04:56:00,METAR KEGE 180456Z AUTO 09004KT 10SM CLR 06/M06 A3027 RMK AO2 SLP215 T00611056 $,0,4.0,0,16090,0,0,0,
2026-03-18 03:56:00,METAR KEGE 180356Z AUTO 12007KT 10SM CLR 07/M05 A3025 RMK AO2 SLP208 T00721050 $,0,7.0,0,16090,0,0,0,
2026-03-18 02:56:00,METAR KEGE 180256Z AUTO 09007KT 10SM CLR 10/M05 A3024 RMK AO2 SLP209 T01001050 53018 $,0,7.0,0,16090,0,0,0,
2026-03-18 01:56:00,METAR KEGE 180156Z AUTO 23006KT 10SM CLR 14/M06 A3020 RMK AO2 SLP195 T01391061 $,0,6.0,0,16090,0,0,0,
2026-03-18 00:56:00,METAR KEGE 180056Z 24006KT 10SM FEW100 17/M06 A3019 RMK AO2 SLP182 T01671056 $,0,6.0,0,16090,0,0,0,
2026-03-17 23:56:00,METAR KEGE 172356Z 28010G17KT 10SM CLR 18/M07 A3017 RMK AO2 SLP170 T01781067 10183 20139 51004 $,0,10.0,1,16090,0,0,0,
2026-03-17 22:56:00,METAR KEGE 172256Z 25014G21KT 10SM BKN100 18/M06 A3017 RMK AO2 SLP174 T01781056 $,0,14.0,1,16090,0,0,0,
2026-03-17 21:56:00,METAR KEGE 172156Z 22004KT 10SM BKN100 17/M06 A3017 RMK AO2 SLP170 T01721056 $,0,4.0,0,16090,0,0,0,
2026-03-17 20:56:00,METAR KEGE 172056Z 34007KT 10SM BKN100 17/M06 A3016 RMK AO2 SLP169 T01721056 58013 $,0,7.0,0,16090,0,0,0,
2026-03-17 19:56:00,METAR KEGE 171956Z 23014G17KT 10SM CLR 17/M06 A3018 RMK AO2 SLP178 T01671056 $,0,14.0,1,16090,0,0,0,
2026-03-17 18:56:00,METAR KEGE 171856Z 21011G17KT 10SM CLR 16/M06 A3020 RMK AO2 SLP187 T01561061 $,0,11.0,1,16090,0,0,0,
2026-03-17 17:56:00,METAR KEGE 171756Z 22015KT 10SM CLR 14/M05 A3020 RMK AO2 SLP192 T01391050 10139 20022 58013 $,0,15.0,0,16090,0,0,0,
2026-03-17 16:56:00,METAR KEGE 171656Z 00000KT 10SM CLR 12/M05 A3024 RMK AO2 SLP210 T01171050 $,0,0.0,0,16090,0,0,0,
2026-03-17 15:56:00,METAR KEGE 171556Z 00000KT 10SM CLR 10/M05 A3025 RMK AO2 SLP215 T01001050 $,0,0.0,0,16090,0,0,0,
2026-03-17 14:56:00,METAR KEGE 171456Z 10006KT 10SM CLR 06/M05 A3025 RMK AO2 SLP225 T00561050 53008 $,0,6.0,0,16090,0,0,0,
2026-03-17 13:56:00,METAR KEGE 171356Z 11004KT 10SM CLR 03/M05 A3024 RMK AO2 SLP226 T00281050 $,0,4.0,0,16090,0,0,0,
2026-03-17 12:56:00,METAR KEGE 171256Z AUTO 08008KT 10SM OVC060 03/M05 A3023 RMK AO2 SLP217 T00331050 $,0,8.0,0,16090,0,0,0,
2026-03-17 11:56:00,METAR KEGE 171156Z AUTO 09006KT 10SM OVC065 04/M04 A3022 RMK AO2 SLP212 T00391044 10044 20033 55002 $,0,6.0,0,16090,0,0,0,
2026-03-17 10:56:00,METAR KEGE 171056Z AUTO 09008KT 10SM FEW060 OVC070 03/M05 A3021 RMK AO2 SLP211 T00331050 $,0,8.0,0,16090,0,0,0,
2026-03-17 09:56:00,METAR KEGE 170956Z AUTO 13005KT 10SM OVC060 04/M05 A3021 RMK AO2 SLP210 T00441050 $,0,5.0,0,16090,0,0,0,
2026-03-17 08:56:00,METAR KEGE 170856Z AUTO 10004KT 10SM OVC060 04/M05 A3023 RMK AO2 SLP220 T00391050 57001 $,0,4.0,0,16090,0,0,0,
2026-03-17 07:56:00,METAR KEGE 170756Z AUTO 08006KT 10SM OVC065 03/M05 A3023 RMK AO2 SLP223 T00331050 $,0,6.0,0,16090,0,0,0,
2026-03-17 06:56:00,METAR KEGE 170656Z AUTO 00000KT 10SM OVC065 04/M05 A3023 RMK AO2 SLP227 T00391050 $,0,0.0,0,16090,0,0,0,
2026-03-17 05:56:00,METAR KEGE 170556Z AUTO 09004KT 10SM OVC065 04/M06 A3023 RMK AO2 SLP233 T00391056 10083 20039 400831083 50003 $,0,4.0,0,16090,0,0,0,
2026-03-17 04:56:00,METAR KEGE 170456Z AUTO 11007KT 10SM OVC065 04/M06 A3023 RMK AO2 SLP239 T00391056 $,0,7.0,0,16090,0,0,0,
2026-03-17 03:56:00,METAR KEGE 170356Z AUTO 13004KT 10SM OVC065 05/M06 A3023 RMK AO2 SLP244 T00501061 $,0,4.0,0,16090,0,0,0,
2026-03-17 02:56:00,METAR KEGE 170256Z AUTO 10005KT 10SM OVC075 06/M07 A3022 RMK AO2 SLP244 T00561067 53007 $,0,5.0,0,16090,0,0,0,
2026-03-17 01:56:00,METAR KEGE 170156Z AUTO 10004KT 10SM OVC070 06/M07 A3021 RMK AO2 SLP242 T00611072 $,0,4.0,0,16090,0,0,0,
2026-03-17 00:56:00,METAR KEGE 170056Z 00000KT 10SM OVC065 08/M08 A3020 RMK AO2 SLP237 T00781078 $,0,0.0,0,16090,0,0,0,
2026-03-16 23:56:00,METAR KEGE 162356Z 21007KT 10SM OVC060 08/M08 A3020 RMK AO2 SLP235 T00781078 10078 20011 58002 $,0,7.0,0,16090,0,0,0,
2026-03-16 22:56:00,METAR KEGE 162256Z 23010KT 10SM OVC060 08/M08 A3020 RMK AO2 SLP236 T00781078 $,0,10.0,0,16090,0,0,0,
2026-03-16 21:56:00,METAR KEGE 162156Z 23006KT 10SM OVC060 07/M09 A3021 RMK AO2 SLP239 T00721089 $,0,6.0,0,16090,0,0,0,
2026-03-16 20:56:00,METAR KEGE 162056Z 23009G15KT 10SM OVC055 06/M09 A3021 RMK AO2 SLP241 T00611089 58013 $,0,9.0,1,16090,0,0,0,
2026-03-16 19:56:00,METAR KEGE 161956Z 27008G15KT 10SM OVC060 06/M10 A3022 RMK AO2 SLP248 T00561100 $,0,8.0,1,16090,0,0,0,
2026-03-16 18:56:00,METAR KEGE 161856Z 00000KT 10SM OVC055 04/M13 A3024 RMK AO2 SLP254 T00391128 $,0,0.0,0,16090,0,0,0,
2026-03-16 17:56:00,METAR KEGE 161756Z 00000KT 10SM OVC050 01/M13 A3025 RMK AO2 SLP266 T00111133 10011 21083 58009 $,0,0.0,0,16090,0,0,0,
2026-03-16 16:56:00,METAR KEGE 161656Z 08005KT 10SM OVC055 M01/M13 A3026 RMK AO2 SLP272 T10061128 $,0,5.0,0,16090,0,0,0,
2026-03-16 15:56:00,METAR KEGE 161556Z 00000KT 10SM BKN055 OVC075 M04/M13 A3028 RMK AO2 SLP286 T10391133 $,0,0.0,0,16090,0,0,0,
2026-03-16 14:56:00,METAR KEGE 161456Z 00000KT 10SM FEW048 BKN060 OVC075 M06/M14 A3028 RMK AO2 SLP283 T10611144 53007 $,0,0.0,0,16090,0,0,0,
2026-03-16 13:56:00,METAR KEGE 161356Z 00000KT 10SM OVC060 M07/M14 A3026 RMK AO2 SLP275 T10721139 $,0,0.0,0,16090,0,0,0,
2026-03-16 12:56:00,METAR KEGE 161256Z 00000KT 10SM CLR M08/M14 A3024 RMK AO2 SLP273 T10831144 $,0,0.0,0,16090,0,0,0,
2026-03-16 11:56:00,METAR KEGE 161156Z AUTO 00000KT 10SM CLR M08/M14 A3025 RMK AO2 SLP274 T10831144 11056 21083 55009 FZRANO $,0,0.0,0,16090,0,0,0,
2026-03-16 10:56:00,METAR KEGE 161056Z AUTO 14003KT 10SM CLR M08/M15 A3024 RMK AO2 SLP267 T10781150 FZRANO $,0,3.0,0,16090,0,0,0,
2026-03-16 09:56:00,METAR KEGE 160956Z AUTO 09006KT 10SM CLR M08/M15 A3026 RMK AO2 SLP275 T10781150 FZRANO $,0,6.0,0,16090,0,0,0,
2026-03-16 08:56:00,METAR KEGE 160856Z AUTO 11004KT 10SM CLR M07/M16 A3029 RMK AO2 SLP283 T10721156 53002 FZRANO $,0,4.0,0,16090,0,0,0,
2026-03-16 07:56:00,METAR KEGE 160756Z AUTO 08005KT 10SM CLR M07/M16 A3027 RMK AO2 SLP279 T10671156 FZRANO $,0,5.0,0,16090,0,0,0,
2026-03-16 06:56:00,METAR KEGE 160656Z AUTO 00000KT 10SM CLR M06/M16 A3028 RMK AO2 SLP282 T10611161 FZRANO $,0,0.0,0,16090,0,0,0,
2026-03-16 05:56:00,METAR KEGE 160556Z AUTO 00000KT 10SM CLR M06/M16 A3028 RMK AO2 SLP281 T10561161 10017 21056 401061056 51018 FZRANO $,0,0.0,0,16090,0,0,0,
2026-03-16 04:56:00,METAR KEGE 160456Z AUTO 08005KT 10SM CLR M06/M16 A3026 RMK AO2 SLP278 T10561161 FZRANO $,0,5.0,0,16090,0,0,0,
2026-03-16 03:56:00,METAR KEGE 160356Z AUTO 07007KT 10SM CLR M04/M17 A3024 RMK AO2 SLP268 T10391167 FZRANO $,0,7.0,0,16090,0,0,0,
2026-03-16 02:56:00,METAR KEGE 160256Z AUTO 29005KT 10SM CLR M01/M18 A3022 RMK AO2 SLP251 T10061183 53011 FZRANO $,0,5.0,0,16090,0,0,0,
2026-03-16 01:56:00,METAR KEGE 160156Z AUTO 31005KT 10SM CLR 00/M18 A3020 RMK AO2 SLP241 T00001183 FZRANO $,0,5.0,0,16090,0,0,0,
2026-03-16 00:56:00,METAR KEGE 160056Z 31006KT 10SM CLR 01/M21 A3019 RMK AO2 SLP235 T00061206 $,0,6.0,0,16090,0,0,0,
2026-03-15 23:56:00,METAR KEGE 152356Z 27014G21KT 10SM CLR 02/M21 A3018 RMK AO2 SLP226 T00171206 10022 21006 50001 $,0,14.0,1,16090,0,0,0,
2026-03-15 22:56:00,METAR KEGE 152256Z 28015G24KT 10SM CLR 02/M21 A3019 RMK AO2 SLP226 T00171206 $,0,15.0,1,16090,0,0,0,
2026-03-15 21:56:00,METAR KEGE 152156Z 27015G23KT 10SM CLR 02/M21 A3018 RMK AO2 SLP221 T00171206 $,0,15.0,1,16090,0,0,0,
2026-03-15 20:56:00,METAR KEGE 152056Z 30011G19KT 10SM CLR 01/M20 A3017 RMK AO2 WSHFT 2017 SLP213 T00111200 58009 $,0,11.0,1,16090,0,0,0,
2026-03-15 20:42:00,SPECI KEGE 152042Z 29013G19KT 10SM CLR 02/M21 A3018 RMK AO2 WSHFT 2017 $,0,13.0,1,16090,0,0,0,
2026-03-15 19:56:00,METAR KEGE 151956Z 31011G18KT 10SM CLR 01/M21 A3020 RMK AO2 SLP215 T00061206 $,0,11.0,1,16090,0,0,0,
2026-03-15 18:56:00,METAR KEGE 151856Z 31015G24KT 10SM FEW080 00/M20 A3020 RMK AO2 SLP213 T00001200 $,0,15.0,1,16090,0,0,0,
2026-03-15 17:56:00,METAR KEGE 151756Z 30007G18KT 260V330 10SM CLR M01/M19 A3020 RMK AO2 SLP212 T10061189 11006 21028 50017 $,0,7.0,1,16090,0,0,0,
2026-03-15 16:56:00,METAR KEGE 151656Z 32009G15KT 10SM CLR M02/M19 A3021 RMK AO2 SLP213 T10171189 $,0,9.0,1,16090,0,0,0,
2026-03-15 15:56:00,METAR KEGE 151556Z 28010KT 10SM CLR M03/M14 A3019 RMK AO2 SLP209 T10281139 $,0,10.0,0,16090,0,0,0,
2026-03-15 14:56:00,METAR KEGE 151456Z 31014G21KT 10SM CLR M03/M14 A3014 RMK AO2 SLP190 T10281139 51042 $,0,14.0,1,16090,0,0,0,
2026-03-15 13:56:00,METAR KEGE 151356Z 29007KT 10SM CLR M03/M14 A3010 RMK AO2 SLP177 T10281139 $,0,7.0,0,16090,0,0,0,
2026-03-15 12:56:00,METAR KEGE 151256Z AUTO 27007G19KT 10SM CLR M02/M13 A3006 RMK AO2 SLP155 T10221133 $,0,7.0,1,16090,0,0,0,
2026-03-15 11:56:00,METAR KEGE 151156Z AUTO 30011G23KT 10SM CLR M01/M11 A2999 RMK AO2 PK WND 30030/1146 SLP129 T10111111 10106 21011 53046 $,0,11.0,1,16090,0,0,0,
2026-03-15 10:56:00,METAR KEGE 151056Z AUTO 31015G23KT 10SM BKN030 BKN037 00/M07 A2995 RMK AO2 PK WND 31026/1013 SLP108 T00001067 $,0,15.0,1,16090,0,0,0,
2026-03-15 09:56:00,METAR KEGE 150956Z AUTO 30017G22KT 10SM FEW045 BKN060 OVC080 02/M06 A2987 RMK AO2 PK WND 31030/0924 WSHFT 0916 SLP074 T00171056 $,0,17.0,1,16090,0,0,0,
2026-03-15 09:41:00,SPECI KEGE 150941Z AUTO 30017G26KT 10SM FEW042 BKN060 BKN080 02/M04 A2986 RMK AO2 PK WND 31030/0924 WSHFT 0916 $,0,17.0,1,16090,0,0,0,
2026-03-15 08:56:00,METAR KEGE 150856Z AUTO 24017KT 10SM SCT048 BKN080 OVC095 04/M02 A2983 RMK AO2 PK WND 25035/0844 SLP052 T00441017 53019 $,0,17.0,0,16090,0,0,0,
