Time_recorded,METAR
2026-05-02 14:53:00,METAR KRIL 021453Z AUTO 00000KT 10SM CLR 08/M03 A3025 RMK AO2 SLP212 T00831033 50009
2026-05-02 13:53:00,METAR KRIL 021353Z AUTO 02003KT 10SM CLR 04/M03 A3025 RMK AO2 SLP217 T00441028
2026-05-02 12:53:00,METAR KRIL 021253Z AUTO 17003KT 10SM CLR 02/M04 A3024 RMK AO2 SLP213 T00221044
2026-05-02 11:53:00,METAR KRIL 021153Z AUTO 18003KT 10SM CLR 02/M05 A3022 RMK AO2 SLP207 T00171050 10072 20011 50008
2026-05-02 10:53:00,METAR KRIL 021053Z AUTO 13004KT 10SM CLR 02/M05 A3022 RMK AO2 SLP208 T00221050
2026-05-02 09:53:00,METAR KRIL 020953Z AUTO 18003KT 10SM CLR 02/M05 A3020 RMK AO2 SLP201 T00221050
2026-05-02 08:53:00,METAR KRIL 020853Z AUTO 00000KT 10SM CLR 04/M04 A3019 RMK AO2 SLP193 T00441044 51007
2026-05-02 07:53:00,METAR KRIL 020753Z AUTO 13004KT 10SM CLR 04/M04 A3018 RMK AO2 SLP192 T00391044
2026-05-02 06:53:00,METAR KRIL 020653Z AUTO 00000KT 10SM CLR 05/M04 A3018 RMK AO2 SLP194 T00501044 401831011
2026-05-02 05:53:00,METAR KRIL 020553Z AUTO 10004KT 10SM CLR 07/M04 A3016 RMK AO2 SLP185 T00671039 10178 20067 51021
2026-05-02 04:53:00,METAR KRIL 020453Z AUTO 12009KT 10SM BKN110 08/M03 A3015 RMK AO2 SLP180 T00831033
2026-05-02 03:53:00,METAR KRIL 020353Z AUTO 07006KT 10SM FEW110 12/M08 A3012 RMK AO2 SLP170 T01221078
2026-05-02 02:53:00,METAR KRIL 020253Z AUTO 03004KT 10SM BKN110 14/M07 A3009 RMK AO2 SLP159 T01391072 53015
2026-05-02 01:53:00,METAR KRIL 020153Z AUTO 02005KT 10SM BKN100 16/M07 A3006 RMK AO2 SLP152 T01561067
2026-05-02 00:53:00,METAR KRIL 020053Z AUTO 05009KT 10SM FEW120 17/M06 A3004 RMK AO2 SLP148 T01671061
2026-05-01 23:53:00,METAR KRIL 012353Z AUTO 29008KT 10SM SCT110 17/M07 A3004 RMK AO2 SLP148 T01721067 10183 20128 55012
2026-05-01 22:53:00,METAR KRIL 012253Z AUTO 32010KT 10SM FEW090 FEW120 17/M05 A3003 RMK AO2 SLP146 T01671050
2026-05-01 21:53:00,METAR KRIL 012153Z AUTO 36008KT 10SM CLR 17/M05 A3005 RMK AO2 SLP149 T01671050
2026-05-01 20:53:00,METAR KRIL 012053Z AUTO 33007G18KT 290V360 10SM CLR 17/M03 A3008 RMK AO2 SLP159 T01671033 56012
2026-05-01 19:53:00,METAR KRIL 011953Z AUTO VRB03KT 10SM CLR 16/M05 A3008 RMK AO2 SLP158 T01611050
2026-05-01 18:53:00,METAR KRIL 011853Z AUTO 26004KT 10SM CLR 14/M04 A3010 RMK AO2 SLP168 T01391039
2026-05-01 17:53:00,METAR KRIL 011753Z AUTO 26004KT 10SM CLR 13/M02 A3012 RMK AO2 SLP172 T01281022 10133 21011 58007
2026-05-01 16:53:00,METAR KRIL 011653Z AUTO VRB04KT 10SM CLR 11/M02 A3013 RMK AO2 SLP183 T01111017
2026-05-01 15:53:00,METAR KRIL 011553Z AUTO VRB03KT 10SM CLR 08/M01 A3014 RMK AO2 SLP187 T00831011
2026-05-01 14:53:00,METAR KRIL 011453Z AUTO 00000KT 10SM CLR 06/M01 A3015 RMK AO2 SLP193 T00561006 50006
2026-05-01 13:53:00,METAR KRIL 011353Z AUTO 00000KT 10SM CLR 02/M01 A3015 RMK AO2 SLP196 T00221006
2026-05-01 12:53:00,METAR KRIL 011253Z AUTO 08005KT 10SM CLR M01/M02 A3014 RMK AO2 SLP194 T10061017
2026-05-01 11:53:00,METAR KRIL 011153Z AUTO 00000KT 10SM CLR M01/M02 A3012 RMK AO2 SLP188 70001 T10061017 10056 21006 53004
2026-05-01 10:53:00,METAR KRIL 011053Z AUTO 12004KT 10SM CLR M01/M02 A3012 RMK AO2 SLP187 T10061017
2026-05-01 09:53:00,METAR KRIL 010953Z AUTO 00000KT 10SM CLR 01/M01 A3011 RMK AO2 SLP176 T00111011
2026-05-01 08:53:00,METAR KRIL 010853Z AUTO 11004KT 10SM CLR 01/M01 A3011 RMK AO2 SLP175 T00111006 50001
2026-05-01 07:53:00,METAR KRIL 010753Z AUTO 00000KT 10SM CLR 03/00 A3011 RMK AO2 SLP173 T00280000
2026-05-01 06:53:00,METAR KRIL 010653Z AUTO 09004KT 10SM CLR 03/01 A3011 RMK AO2 SLP179 T00330006 401610006
2026-05-01 05:53:00,METAR KRIL 010553Z AUTO 00000KT 10SM SCT055 06/01 A3010 RMK AO2 SLP166 T00560011 10122 20050 50009
2026-05-01 04:53:00,METAR KRIL 010453Z AUTO 12003KT 10SM BKN050 06/01 A3011 RMK AO2 SLP172 T00560011
2026-05-01 03:53:00,METAR KRIL 010353Z AUTO 00000KT 10SM CLR 07/01 A3009 RMK AO2 SLP169 T00720011
2026-05-01 02:53:00,METAR KRIL 010253Z AUTO 10008KT 10SM SCT090 08/02 A3007 RMK AO2 SLP163 T00780017 53016
2026-05-01 01:53:00,METAR KRIL 010153Z AUTO 15010KT 10SM OVC100 09/01 A3004 RMK AO2 SLP155 T00940011
2026-05-01 00:53:00,METAR KRIL 010053Z AUTO 14011KT 10SM BKN090 11/01 A3002 RMK AO2 SLP148 T01110006
2026-04-30 23:53:00,METAR KRIL 302353Z AUTO 15010G15KT 10SM BKN070 OVC095 12/00 A3001 RMK AO2 PK WND 15027/2320 SLP146 60001 T01220000 10161 20106 53005
2026-04-30 22:53:00,METAR KRIL 302253Z AUTO 18015KT 10SM OVC070 12/M01 A3000 RMK AO2 SLP138 T01171011
2026-04-30 21:53:00,METAR KRIL 302153Z AUTO 11006KT 10SM BKN085 OVC110 14/M03 A2998 RMK AO2 WSHFT 2041 SLP129 T01391028
2026-04-30 21:01:00,SPECI KRIL 302101Z AUTO 05010KT 10SM BKN080 BKN110 14/M02 A2999 RMK AO2 WSHFT 2041 T01441017
2026-04-30 20:53:00,METAR KRIL 302053Z AUTO 05012G19KT 10SM SCT085 SCT110 14/M02 A3000 RMK AO2 SLP131 60001 T01391022 56010
2026-04-30 19:53:00,METAR KRIL 301953Z AUTO 03005KT 10SM CLR 14/M03 A3000 RMK AO2 RAE07 SLP129 P0000 T01441033
2026-04-30 18:53:00,METAR KRIL 301853Z AUTO 16011G21KT 8SM -RA BKN055 BKN070 11/M02 A3002 RMK AO2 PK WND 27028/1838 WSHFT 1835 RAB40 SLP144 P0001 T01061017
2026-04-30 17:53:00,METAR KRIL 301753Z AUTO VRB04KT 10SM SCT100 13/M04 A3003 RMK AO2 SLP139 T01331039 10133 20011 58017
2026-04-30 16:53:00,METAR KRIL 301653Z AUTO 25003KT 10SM CLR 11/M03 A3006 RMK AO2 SLP152 T01111028
2026-04-30 14:53:00,METAR KRIL 301453Z AUTO 00000KT 10SM SCT055 BKN075 OVC110 06/00 A3009 RMK AO2 SLP165 T00610000 50005
2026-04-30 13:53:00,METAR KRIL 301353Z AUTO 00000KT 10SM CLR 04/M01 A3010 RMK AO2 SLP170 T00391006
2026-04-30 12:53:00,METAR KRIL 301253Z AUTO 00000KT 10SM CLR 02/M01 A3009 RMK AO2 SLP167 T00171011
2026-04-30 11:53:00,METAR KRIL 301153Z AUTO 12005KT 10SM BKN100 BKN120 01/M01 A3007 RMK AO2 SLP161 70002 T00061011 10067 20006 50001
2026-04-30 10:53:00,METAR KRIL 301053Z AUTO 00000KT 10SM CLR 02/M01 A3008 RMK AO2 SLP157 T00221011
2026-04-30 09:53:00,METAR KRIL 300953Z AUTO 13006KT 10SM CLR 02/M01 A3008 RMK AO2 SLP157 T00221006
2026-04-30 08:53:00,METAR KRIL 300853Z AUTO 13003KT 10SM CLR 03/M01 A3007 RMK AO2 SLP157 T00331006 58005
2026-04-30 07:53:00,METAR KRIL 300753Z AUTO 00000KT 10SM CLR 05/00 A3008 RMK AO2 SLP152 T00500000
2026-04-30 06:53:00,METAR KRIL 300653Z AUTO 15006KT 10SM CLR 06/00 A3008 RMK AO2 SLP157 T00560000 401670022
2026-04-30 05:53:00,METAR KRIL 300553Z AUTO 20003KT 10SM SCT120 07/00 A3009 RMK AO2 SLP157 T00670000 10161 20067 50007
2026-04-30 04:53:00,METAR KRIL 300453Z AUTO 12003KT 10SM FEW100 07/01 A3010 RMK AO2 SLP161 T00720006
2026-04-30 03:53:00,METAR KRIL 300353Z AUTO 11003KT 10SM SCT100 09/01 A3009 RMK AO2 SLP160 T00940011
2026-04-30 02:53:00,METAR KRIL 300253Z AUTO 11005KT 10SM OVC090 11/01 A3006 RMK AO2 SLP152 T01110011 53013
2026-04-30 01:53:00,METAR KRIL 300153Z AUTO 16007KT 10SM OVC090 13/M01 A3004 RMK AO2 SLP145 T01281006
2026-04-30 00:53:00,METAR KRIL 300053Z AUTO 15010KT 10SM BKN085 14/M01 A3002 RMK AO2 SLP140 T01441006
2026-04-29 23:53:00,METAR KRIL 292353Z AUTO VRB03KT 10SM OVC085 16/M04 A3002 RMK AO2 SLP137 60002 T01611039 10167 20106 55006
2026-04-29 22:53:00,METAR KRIL 292253Z AUTO 31013G20KT 10SM FEW075 17/M03 A3001 RMK AO2 SLP130 T01671033
2026-04-29 21:53:00,METAR KRIL 292153Z AUTO 36010G15KT 10SM FEW120 16/M01 A3002 RMK AO2 PK WND 31033/2122 RAB22E31 SLP135 P0000 T01611011
2026-04-29 20:53:00,METAR KRIL 292053Z AUTO VRB06G18KT 10SM FEW110 14/M01 A3004 RMK AO2 PK WND 30034/2006 RAB07E25 SLP144 P0002 60002 T01441006 56017
2026-04-29 19:53:00,METAR KRIL 291953Z AUTO 32013G17KT 10SM FEW070 16/M02 A3005 RMK AO2 SLP145 T01561022
2026-04-29 18:53:00,METAR KRIL 291853Z AUTO 33005G16KT 10SM SCT060 14/M01 A3006 RMK AO2 SLP153 T01441011
2026-04-29 17:53:00,METAR KRIL 291753Z AUTO 36007KT 310V020 10SM CLR 14/M01 A3010 RMK AO2 SLP167 T01391011 10139 20022 58013
2026-04-29 16:53:00,METAR KRIL 291653Z AUTO VRB05KT 10SM SCT100 13/M01 A3012 RMK AO2 SLP175 T01281006
2026-04-29 15:53:00,METAR KRIL 291553Z AUTO 00000KT 10SM FEW120 10/M01 A3013 RMK AO2 SLP179 T01001011
2026-04-29 14:53:00,METAR KRIL 291453Z AUTO 00000KT 10SM SCT100 07/01 A3014 RMK AO2 SLP185 T00720006 51007
2026-04-29 13:53:00,METAR KRIL 291353Z AUTO 00000KT 10SM CLR 05/01 A3014 RMK AO2 SLP185 T00500006
2026-04-29 12:53:00,METAR KRIL 291253Z AUTO 21003KT 10SM BKN100 03/01 A3015 RMK AO2 SLP188 T00280006
2026-04-29 11:53:00,METAR KRIL 291153Z AUTO 00000KT 10SM BKN110 02/01 A3012 RMK AO2 SLP178 T00220006 10044 20022 53000
2026-04-29 10:53:00,METAR KRIL 291053Z AUTO 16006KT 10SM OVC110 04/01 A3011 RMK AO2 SLP173 T00390006
2026-04-29 09:53:00,METAR KRIL 290953Z AUTO 01003KT 10SM BKN110 03/01 A3011 RMK AO2 SLP177 T00330006
2026-04-29 08:53:00,METAR KRIL 290853Z AUTO 00000KT 10SM SCT095 BKN120 04/02 A3012 RMK AO2 SLP176 T00390017 58009
2026-04-29 07:53:00,METAR KRIL 290753Z AUTO 00000KT 10SM SCT085 OVC110 04/01 A3014 RMK AO2 SLP186 T00390011
2026-04-29 06:53:00,METAR KRIL 290653Z AUTO 10003KT 10SM OVC110 04/01 A3015 RMK AO2 SLP191 T00390011 401390033
2026-04-29 05:53:00,METAR KRIL 290553Z AUTO 10003KT 10SM CLR 04/01 A3015 RMK AO2 SLP194 T00390006 10133 20039 51009
2026-04-29 04:53:00,METAR KRIL 290453Z AUTO 09005KT 10SM CLR 05/01 A3015 RMK AO2 SLP193 T00500011
2026-04-29 03:53:00,METAR KRIL 290353Z AUTO 22005KT 10SM CLR 08/01 A3014 RMK AO2 SLP189 T00780006
2026-04-29 02:53:00,METAR KRIL 290253Z AUTO 00000KT 10SM CLR 09/00 A3012 RMK AO2 SLP180 T00940000 53011
2026-04-29 01:53:00,METAR KRIL 290153Z AUTO 32006KT 10SM CLR 11/M01 A3009 RMK AO2 SLP169 T01111011
2026-04-29 00:53:00,METAR KRIL 290053Z AUTO 34004KT 10SM FEW095 13/M02 A3008 RMK AO2 SLP164 T01281017
2026-04-28 23:53:00,METAR KRIL 282353Z AUTO 34010G17KT 10SM FEW070 FEW095 13/M01 A3008 RMK AO2 SLP162 T01281006 10139 20083 56007
2026-04-28 22:53:00,METAR KRIL 282253Z AUTO VRB04KT 10SM FEW095 13/M01 A3008 RMK AO2 SLP163 T01331011
2026-04-28 21:53:00,METAR KRIL 282153Z AUTO 35012G24KT 10SM FEW080 BKN090 12/01 A3009 RMK AO2 PK WND 31026/2143 SLP170 T01170006
2026-04-28 20:53:00,METAR KRIL 282053Z AUTO 35007G15KT 10SM CLR 13/01 A3010 RMK AO2 SLP168 T01280006 58004
2026-04-28 19:53:00,METAR KRIL 281953Z AUTO 32008G16KT 10SM FEW080 BKN090 BKN110 11/00 A3010 RMK AO2 SLP169 T01110000
2026-04-28 18:53:00,METAR KRIL 281853Z AUTO 29007KT 10SM FEW046 FEW065 BKN090 11/01 A3012 RMK AO2 SLP175 T01060011
2026-04-28 17:53:00,METAR KRIL 281753Z AUTO VRB04KT 10SM 09/01 A3012 RMK AO2 RAB1659E14 SLP176 P0000 60000 T00890011 10094 20033 50003
2026-04-28 16:53:00,METAR KRIL 281653Z AUTO VRB03KT 10SM 08/02 A3012 RMK AO2 SLP180 T00780022
2026-04-28 15:53:00,METAR KRIL 281553Z AUTO VRB03KT 10SM 06/02 A3012 RMK AO2 SLP180 T00610022
2026-04-28 14:53:00,METAR KRIL 281453Z AUTO 00000KT 10SM 05/02 A3011 RMK AO2 SLP180 T00500022 51020
2026-04-28 13:53:00,METAR KRIL 281353Z AUTO 02004KT 10SM 04/02 A3009 RMK AO2 SLP170 T00390022
2026-04-28 12:53:00,METAR KRIL 281253Z AUTO 00000KT 10SM 03/02 A3006 RMK AO2 SLP163 T00330022
2026-04-28 11:53:00,METAR KRIL 281153Z AUTO 16004KT 10SM 03/02 A3004 RMK AO2 RAE28 SLP148 P0001 60012 70017 T00330017 10078 20033 51009
2026-04-28 10:53:00,METAR KRIL 281053Z AUTO 14007KT 10SM -RA 03/02 A3003 RMK AO2 SLP146 P0002 T00330017
2026-04-28 09:53:00,METAR KRIL 280953Z AUTO 00000KT 4SM RA BR 04/02 A3002 RMK AO2 PK WND 33029/0854 LTG DSNT SE SLP145 P0006 T00390017
2026-04-28 08:53:00,METAR KRIL 280853Z AUTO 33015G29KT 6SM RA 04/01 A3001 RMK AO2 PK WND 34029/0851 RAE04B39 SLP139 P0003 60003 T00440006 51016
2026-04-28 07:53:00,METAR KRIL 280753Z AUTO 30011KT 10SM -RA 06/02 A2999 RMK AO2 PK WND 32032/0726 RAB0655E06B51 SLP130 P0000 T00610017
2026-04-28 06:53:00,METAR KRIL 280653Z AUTO 30012KT 10SM 07/02 A2997 RMK AO2 PK WND 31026/0603 RAB06E20 SLP122 P0000 T00720017 401330050
2026-04-28 05:53:00,METAR KRIL 280553Z AUTO 32016G26KT 10SM 08/01 A2995 RMK AO2 PK WND 32026/0552 SLP118 60000 T00780011 10128 20072 51018
2026-04-28 04:53:00,METAR KRIL 280453Z AUTO 32011G18KT 10SM 07/02 A2993 RMK AO2 SLP111 T00720017
2026-04-28 03:53:00,METAR KRIL 280353Z AUTO 32009KT 10SM 08/02 A2992 RMK AO2 SLP112 T00780022
2026-04-28 02:53:00,METAR KRIL 280253Z AUTO 04005KT 10SM 08/02 A2989 RMK AO2 LTG DSNT N SLP100 60000 T00830017 53006
2026-04-28 01:53:00,METAR KRIL 280153Z AUTO 15007KT 10SM 11/01 A2987 RMK AO2 LTG DSNT N SLP092 T01060006
2026-04-28 00:53:00,METAR KRIL 280053Z AUTO 11015KT 10SM 10/02 A2987 RMK AO2 WSHFT 0007 RAB27E40 SLP091 P0000 T01000022
2026-04-28 00:27:00,SPECI KRIL 280027Z AUTO 14017KT 10SM -RA 11/03 A2987 RMK AO2 WSHFT 0007 RAB27 P0000 T01060033
2026-04-27 23:53:00,METAR KRIL 272353Z AUTO 09004KT 10SM 13/02 A2987 RMK AO2 RAB08E22 SLP087 P0000 60002 T01280022 10133 20083 55003
2026-04-27 22:53:00,METAR KRIL 272253Z AUTO 28009KT 10SM 13/02 A2986 RMK AO2 RAE02 SLP085 P0000 T01280022
2026-04-27 21:53:00,METAR KRIL 272153Z AUTO 30005KT 7SM -RA 12/03 A2987 RMK AO2 RAB45 SLP089 P0002 T01170033
2026-04-27 20:53:00,METAR KRIL 272053Z AUTO 25005KT 10SM 11/03 A2988 RMK AO2 RAB06E20 SLP093 P0000 60000 T01110033 56015
2026-04-27 19:53:00,METAR KRIL 271953Z AUTO VRB06KT 10SM 11/02 A2988 RMK AO2 RAE06 SLP094 P0000 T01110022
2026-04-27 18:53:00,METAR KRIL 271853Z AUTO 01004KT 10SM -RA 10/02 A2991 RMK AO2 RAB03 SLP104 P0000 T01000022
2026-04-27 17:53:00,METAR KRIL 271753Z AUTO 00000KT 10SM 08/02 A2993 RMK AO2 RAB18E28 SLP119 P0000 60003 T00830022 10089 20050 58000
2026-04-27 16:53:00,METAR KRIL 271653Z AUTO 07004KT 10SM 08/03 A2994 RMK AO2 SLP122 T00780033
2026-04-27 15:53:00,METAR KRIL 271553Z AUTO 07004KT 10SM 07/04 A2994 RMK AO2 RAE27 SLP123 P0001 T00670039
2026-04-27 14:53:00,METAR KRIL 271453Z AUTO 17003KT 10SM -RA 06/03 A2994 RMK AO2 RAB19 SLP122 P0000 60002 T00610033 52015
2026-04-27 13:53:00,METAR KRIL 271353Z AUTO 15006KT 10SM 05/03 A2992 RMK AO2 RAE14 SLP118 P0000 T00500028
2026-04-27 12:53:00,METAR KRIL 271253Z AUTO 00000KT 10SM -RA 05/04 A2990 RMK AO2 RAB22 SLP108 P0002 T00500039
2026-04-27 11:53:00,METAR KRIL 271153Z AUTO 00000KT 10SM 05/04 A2988 RMK AO2 RAE22 SLP105 P0000 60001 70031 T00500039 10050 20050 51010
2026-04-27 10:53:00,METAR KRIL 271053Z AUTO 09003KT 10SM -RA 05/03 A2988 RMK AO2 RAE04B31 SLP098 P0000 T00500033
2026-04-27 09:53:00,METAR KRIL 270953Z AUTO 08003KT 10SM -RA 05/03 A2986 RMK AO2 RAB00 SLP083 P0001 T00500033
2026-04-27 08:53:00,METAR KRIL 270853Z AUTO 00000KT 10SM 05/03 A2985 RMK AO2 SLP082 T00500033 50002
2026-04-27 07:53:00,METAR KRIL 270753Z AUTO 12003KT 10SM 05/03 A2985 RMK AO2 SLP087 T00500033
2026-04-27 06:53:00,METAR KRIL 270653Z AUTO 09006KT 10SM 05/03 A2984 RMK AO2 SLP087 T00500033 401330050
2026-04-27 05:53:00,METAR KRIL 270553Z AUTO 09005KT 10SM 05/03 A2984 RMK AO2 SLP086 60005 T00500033 10078 20050 51016
2026-04-27 04:53:00,METAR KRIL 270453Z AUTO 13007KT 10SM 06/03 A2984 RMK AO2 RAE34 SLP083 P0000 T00560028
2026-04-27 04:00:00,SPECI KRIL 270400Z AUTO 25004KT 6SM -RA BR 06/03 A2983 RMK AO2 P0000 T00560033
2026-04-27 03:53:00,METAR KRIL 270353Z AUTO 23005G20KT 2 1/2SM +RA BR 06/03 A2983 RMK AO2 RAB44 SLP082 P0005 T00560033
2026-04-27 02:53:00,METAR KRIL 270253Z AUTO 06004KT 10SM 06/03 A2979 RMK AO2 SLP067 60000 T00610033 51015
2026-04-27 01:53:00,METAR KRIL 270153Z AUTO 09009KT 10SM 06/03 A2977 RMK AO2 SLP062 T00610033
2026-04-27 00:53:00,METAR KRIL 270053Z AUTO 09008KT 10SM 07/03 A2976 RMK AO2 RAE02 SLP055 P0000 T00670033
2026-04-26 23:53:00,METAR KRIL 262353Z AUTO 02004KT 10SM -RA 06/03 A2974 RMK AO2 PK WND 25042/2315 SLP047 P0006 60009 T00610033 10133 20056 53017
2026-04-26 22:53:00,METAR KRIL 262253Z AUTO 24028G36KT 6SM -RA 08/03 A2969 RMK AO2 PK WND 25036/2253 LTG DSNT S RAB49 PRESRR SLP025 P0001 T00830033
2026-04-26 21:53:00,METAR KRIL 262153Z AUTO 16016G23KT 10SM 13/02 A2965 RMK AO2 LTG DSNT W SLP005 T01280017
2026-04-26 20:53:00,METAR KRIL 262053Z AUTO 09003KT 10SM 11/03 A2968 RMK AO2 SLP014 60002 T01110033 58008
2026-04-26 19:53:00,METAR KRIL 261953Z AUTO VRB03KT 10SM 09/04 A2969 RMK AO2 PK WND 27039/1901 RAE21 SLP021 P0002 T00940044
2026-04-26 18:53:00,METAR KRIL 261853Z AUTO 29011G17KT 10SM -RA 08/05 A2972 RMK AO2 SLP034 P0000 T00830050
2026-04-26 17:53:00,METAR KRIL 261753Z AUTO 16008KT 7SM -RA 08/04 A2970 RMK AO2 RAB23 SLP020 P0005 60016 T00830044 10089 20067 56007
2026-04-26 16:53:00,METAR KRIL 261653Z AUTO 15005KT 10SM 08/05 A2971 RMK AO2 SLP019 T00830050
2026-04-26 15:53:00,METAR KRIL 261553Z AUTO 30004KT 10SM 08/04 A2971 RMK AO2 RAB17E42 SLP021 P0001 T00780039
2026-04-26 14:53:00,METAR KRIL 261453Z AUTO 28008KT 10SM 07/05 A2973 RMK AO2 RAE49 SLP026 P0003 60010 T00720050 50003
2026-04-26 13:53:00,METAR KRIL 261353Z AUTO 00000KT 4SM RA BR 07/06 A2974 RMK AO2 SLP031 P0007 T00720056
2026-04-26 12:53:00,METAR KRIL 261253Z AUTO 00000KT 10SM -RA 08/04 A2973 RMK AO2 RAB41 SLP022 P0000 T00780044
2026-04-26 11:53:00,METAR KRIL 261153Z AUTO 00000KT 10SM 08/04 A2972 RMK AO2 RAB02E27 SLP017 P0001 60002 70002 T00780039 10133 20072 56012
2026-04-26 10:53:00,METAR KRIL 261053Z AUTO 07007KT 10SM 08/05 A2973 RMK AO2 SLP023 T00780050
2026-04-26 09:53:00,METAR KRIL 260953Z AUTO 12008KT 10SM 08/05 A2974 RMK AO2 RAE19 SLP023 P0000 T00780050
2026-04-26 08:53:00,METAR KRIL 260853Z AUTO 08006KT 10SM -RA 09/04 A2976 RMK AO2 RAE22B47 SLP029 P0000 60001 T00890044 50005
2026-04-26 07:53:00,METAR KRIL 260753Z AUTO 18004KT 10SM -RA 09/05 A2977 RMK AO2 SLP036 P0001 T00890050
2026-04-26 06:53:00,METAR KRIL 260653Z AUTO 17021G30KT 9SM -RA 09/04 A2977 RMK AO2 PK WND 18030/0645 WSHFT 0603 RAB47 SLP032 P0000 T00940044 402060067
2026-04-26 06:23:00,SPECI KRIL 260623Z AUTO 19018G25KT 10SM 12/01 A2974 RMK AO2 PK WND 20028/0609 WSHFT 0603 T01220011
2026-04-26 05:53:00,METAR KRIL 260553Z AUTO 14013G22KT 10SM 13/M02 A2974 RMK AO2 SLP018 T01331017 10189 20133 55002
2026-04-26 04:53:00,METAR KRIL 260453Z AUTO 19005KT 10SM 15/M04 A2973 RMK AO2 SLP013 T01501044
2026-04-26 03:53:00,METAR KRIL 260353Z AUTO 22010KT 10SM 15/M05 A2974 RMK AO2 SLP020 T01501050
2026-04-26 02:53:00,METAR KRIL 260253Z AUTO 21012G24KT 10SM 16/M06 A2975 RMK AO2 SLP025 T01611056 53008
2026-04-26 01:53:00,METAR KRIL 260153Z AUTO 22006KT 10SM 16/M08 A2973 RMK AO2 SLP025 T01611083
2026-04-26 00:53:00,METAR KRIL 260053Z AUTO 20015G19KT 10SM 18/M09 A2973 RMK AO2 SLP023 T01781089
2026-04-25 23:53:00,METAR KRIL 252353Z AUTO 24013G22KT 10SM 19/M10 A2972 RMK AO2 PK WND 28026/2301 SLP015 T01891100 10206 20172 56007
2026-04-25 22:53:00,METAR KRIL 252253Z AUTO 28016G28KT 10SM 19/M09 A2972 RMK AO2 PK WND 26031/2220 SLP014 T01891094
2026-04-25 21:53:00,METAR KRIL 252153Z AUTO 27018G30KT 10SM 19/M09 A2972 RMK AO2 PK WND 28030/2149 SLP013 T01941094
2026-04-25 20:53:00,METAR KRIL 252053Z AUTO 27010G29KT 10SM 19/M09 A2975 RMK AO2 PK WND 28031/2026 SLP027 T01891089 56014
2026-04-25 19:53:00,METAR KRIL 251953Z AUTO 28017G29KT 10SM 18/M08 A2976 RMK AO2 PK WND 27033/1915 SLP031 T01781083
2026-04-25 18:53:00,METAR KRIL 251853Z AUTO 26016G28KT 10SM 18/M08 A2978 RMK AO2 PK WND 27032/1842 SLP037 T01781083
2026-04-25 17:53:00,METAR KRIL 251753Z AUTO 28021G32KT 10SM 17/M09 A2979 RMK AO2 PK WND 26032/1747 SLP044 T01671094 10178 20072 56008
2026-04-25 16:53:00,METAR KRIL 251653Z AUTO 26014G21KT 10SM 17/M11 A2980 RMK AO2 SLP043 T01671106
2026-04-25 15:53:00,METAR KRIL 251553Z AUTO 00000KT 10SM 14/M08 A2981 RMK AO2 SLP049 T01441083
2026-04-25 14:53:00,METAR KRIL 251453Z AUTO VRB03KT 10SM 12/M07 A2982 RMK AO2 SLP056 T01171072 51010
2026-04-25 13:53:00,METAR KRIL 251353Z AUTO 00000KT 10SM 08/M07 A2982 RMK AO2 SLP057 T00831067
2026-04-25 12:53:00,METAR KRIL 251253Z AUTO 28007KT 10SM 08/M07 A2980 RMK AO2 SLP048 T00781072
2026-04-25 11:53:00,METAR KRIL 251153Z AUTO 32004KT 10SM 08/M09 A2979 RMK AO2 SLP042 T00831089 10111 20067 51016
2026-04-25 10:53:00,METAR KRIL 251053Z AUTO 17006KT 10SM 10/M11 A2977 RMK AO2 SLP030 T01001106
2026-04-25 09:53:00,METAR KRIL 250953Z AUTO VRB05KT 10SM 10/M10 A2976 RMK AO2 SLP026 T01001100
2026-04-25 08:53:00,METAR KRIL 250853Z AUTO 24003KT 10SM 07/M06 A2973 RMK AO2 SLP023 T00721056 58004
2026-04-25 07:53:00,METAR KRIL 250753Z AUTO 23003KT 10SM 09/M08 A2975 RMK AO2 SLP025 T00891083
2026-04-25 06:53:00,METAR KRIL 250653Z AUTO 21003KT 10SM 09/M12 A2975 RMK AO2 SLP028 T00941117 402001033
2026-04-25 05:53:00,METAR KRIL 250553Z AUTO 10006KT 10SM 10/M11 A2975 RMK AO2 SLP029 T01001106 10178 20100 58000
2026-04-25 04:53:00,METAR KRIL 250453Z AUTO 16003KT 10SM 11/M13 A2976 RMK AO2 SLP035 T01111133
2026-04-25 03:53:00,METAR KRIL 250353Z AUTO 00000KT 10SM 13/M13 A2976 RMK AO2 SLP038 T01331133
2026-04-25 02:53:00,METAR KRIL 250253Z AUTO 21008KT 10SM 14/M13 A2975 RMK AO2 SLP040 T01391128 53008
2026-04-25 01:53:00,METAR KRIL 250153Z AUTO 23011KT 10SM 16/M13 A2973 RMK AO2 SLP038 T01611133
2026-04-25 00:53:00,METAR KRIL 250053Z AUTO 26011KT 10SM 17/M13 A2973 RMK AO2 SLP041 T01721128
2026-04-24 23:53:00,METAR KRIL 242353Z AUTO 27013G23KT 10SM 18/M11 A2972 RMK AO2 PK WND 25028/2304 SLP039 T01781111 10200 20156 56013
2026-04-24 22:53:00,METAR KRIL 242253Z AUTO 27022G30KT 10SM 19/M11 A2972 RMK AO2 PK WND 28032/2155 SLP033 T01941111
2026-04-24 21:53:00,METAR KRIL 242153Z AUTO 28024G33KT 10SM 19/M12 A2974 RMK AO2 PK WND 29035/2054 SLP036 T01941117
2026-04-24 20:53:00,METAR KRIL 242053Z AUTO 28020G32KT 10SM 19/M12 A2976 RMK AO2 PK WND 29034/2009 SLP044 T01941122 56027
2026-04-24 19:53:00,METAR KRIL 241953Z AUTO 28021G34KT 10SM 18/M12 A2980 RMK AO2 PK WND 28036/1937 SLP056 T01831117
2026-04-24 18:53:00,METAR KRIL 241853Z AUTO 28021G33KT 10SM 17/M12 A2982 RMK AO2 PK WND 27033/1845 SLP063 T01721122
2026-04-24 17:53:00,METAR KRIL 241753Z AUTO 29012G19KT 10SM 16/M08 A2986 RMK AO2 SLP079 T01561083 10156 21033 57027
2026-04-24 16:53:00,METAR KRIL 241653Z AUTO 31005KT 10SM 13/M08 A2989 RMK AO2 SLP093 T01281078
2026-04-24 15:53:00,METAR KRIL 241553Z AUTO 00000KT 10SM 09/M07 A2992 RMK AO2 SLP108 T00941072
2026-04-24 14:53:00,METAR KRIL 241453Z AUTO 06005KT 10SM 06/M07 A2996 RMK AO2 SLP119 T00561072 58002
2026-04-24 13:53:00,METAR KRIL 241353Z AUTO 00000KT 10SM 01/M07 A2997 RMK AO2 SLP130 T00111067
2026-04-24 12:53:00,METAR KRIL 241253Z AUTO 24003KT 10SM M01/M08 A2997 RMK AO2 SLP132 T10111083
2026-04-24 11:53:00,METAR KRIL 241153Z AUTO 08003KT 10SM M03/M09 A2996 RMK AO2 SLP131 T10281089 10050 21028 52001
2026-04-24 10:53:00,METAR KRIL 241053Z AUTO 21003KT 10SM M01/M08 A2996 RMK AO2 SLP128 T10061083
2026-04-24 09:53:00,METAR KRIL 240953Z AUTO 00000KT 10SM 01/M08 A2996 RMK AO2 SLP122 T00061083
2026-04-24 08:53:00,METAR KRIL 240853Z AUTO 00000KT 10SM 01/M08 A2996 RMK AO2 SLP122 T00111083 50002
2026-04-24 07:53:00,METAR KRIL 240753Z AUTO 26003KT 10SM 02/M06 A2996 RMK AO2 SLP123 T00171056
2026-04-24 06:53:00,METAR KRIL 240653Z AUTO 00000KT 10SM 03/M07 A2996 RMK AO2 SLP120 T00281067 401560028
2026-04-24 05:53:00,METAR KRIL 240553Z AUTO 12005KT 10SM 04/M08 A2995 RMK AO2 SLP116 T00441083 10150 20039 51011
2026-04-24 04:53:00,METAR KRIL 240453Z AUTO 12003KT 10SM 06/M09 A2994 RMK AO2 SLP111 T00611089
2026-04-24 03:53:00,METAR KRIL 240353Z AUTO 12007KT 10SM 07/M09 A2994 RMK AO2 SLP113 T00721089
2026-04-24 02:53:00,METAR KRIL 240253Z AUTO 22012KT 10SM 11/M09 A2991 RMK AO2 SLP100 T01111094 53004
2026-04-24 01:53:00,METAR KRIL 240153Z AUTO 24008KT 10SM 13/M09 A2991 RMK AO2 SLP100 T01281094
2026-04-24 00:53:00,METAR KRIL 240053Z AUTO 25014G17KT 10SM 13/M09 A2990 RMK AO2 SLP097 T01331089
2026-04-23 23:53:00,METAR KRIL 232353Z AUTO 28009KT 10SM 15/M09 A2990 RMK AO2 SLP095 T01501089 10156 20128 53001
2026-04-23 22:53:00,METAR KRIL 232253Z AUTO 28009G18KT 10SM 14/M09 A2990 RMK AO2 SLP094 T01391094
2026-04-23 21:53:00,METAR KRIL 232153Z AUTO 28011G20KT 10SM 14/M09 A2989 RMK AO2 PK WND 24030/2108 WSHFT 2113 SLP089 T01441094
2026-04-23 21:33:00,SPECI KRIL 232133Z AUTO 29014G22KT 10SM 14/M09 A2989 RMK AO2 PK WND 24030/2108 WSHFT 2113 T01391094
2026-04-23 20:53:00,METAR KRIL 232053Z AUTO 27019G26KT 10SM 14/M10 A2989 RMK AO2 PK WND 26026/2052 SLP091 T01441100 58009
2026-04-23 19:53:00,METAR KRIL 231953Z AUTO 24010G19KT 200V270 10SM 13/M09 A2991 RMK AO2 PK WND 30029/1937 SLP096 T01331089
2026-04-23 18:53:00,METAR KRIL 231853Z AUTO 26008G23KT 10SM 13/M10 A2992 RMK AO2 PK WND 26026/1801 SLP095 T01331100
2026-04-23 17:53:00,METAR KRIL 231753Z AUTO 25019G26KT 10SM 13/M10 A2993 RMK AO2 PK WND 26031/1722 SLP098 T01331100 10139 20028 58007
2026-04-23 16:53:00,METAR KRIL 231653Z AUTO 26015G25KT 10SM 12/M11 A2994 RMK AO2 SLP101 T01221106
2026-04-23 15:53:00,METAR KRIL 231553Z AUTO 28014KT 10SM 11/M11 A2994 RMK AO2 SLP104 T01061106
2026-04-23 14:53:00,METAR KRIL 231453Z AUTO 33003KT 10SM 08/M10 A2995 RMK AO2 SLP111 T00781100 50008
2026-04-23 13:53:00,METAR KRIL 231353Z AUTO 14005KT 10SM 05/M08 A2996 RMK AO2 SLP112 T00501083
2026-04-23 12:53:00,METAR KRIL 231253Z AUTO 00000KT 10SM 04/M09 A2994 RMK AO2 SLP102 T00441089
2026-04-23 11:53:00,METAR KRIL 231153Z AUTO 05004KT 10SM 04/M07 A2992 RMK AO2 SLP093 T00391072 10089 20039 50001
2026-04-23 10:53:00,METAR KRIL 231053Z AUTO 11005KT 10SM 04/M08 A2993 RMK AO2 SLP092 T00441083
2026-04-23 09:53:00,METAR KRIL 230953Z AUTO 17004KT 10SM 05/M10 A2992 RMK AO2 SLP085 T00501100
2026-04-23 08:53:00,METAR KRIL 230853Z AUTO 17006KT 10SM 05/M09 A2992 RMK AO2 SLP086 T00501094 50003
2026-04-23 07:53:00,METAR KRIL 230753Z AUTO 24003KT 10SM 07/M10 A2993 RMK AO2 SLP086 T00671100
2026-04-23 06:53:00,METAR KRIL 230653Z AUTO 32006KT 10SM 08/M10 A2993 RMK AO2 SLP083 T00831100 402330083
2026-04-23 05:53:00,METAR KRIL 230553Z AUTO 29010G17KT 10SM 09/M09 A2991 RMK AO2 SLP076 T00891094 10206 20089 51029
2026-04-23 04:53:00,METAR KRIL 230453Z AUTO 32013G24KT 10SM 11/M09 A2990 RMK AO2 PK WND 32028/0417 SLP067 T01061089
2026-04-23 03:53:00,METAR KRIL 230353Z AUTO 32011G33KT 9SM 12/M08 A2986 RMK AO2 PK WND 32043/0308 SLP059 T01171078
2026-04-23 02:53:00,METAR KRIL 230253Z AUTO 32027G39KT 6SM HZ 12/M08 A2981 RMK AO2 PK WND 31042/0201 WSHFT 0140 SLP041 T01221078 53019
2026-04-23 02:00:00,SPECI KRIL 230200Z AUTO 31021G40KT 6SM HZ 14/M07 A2977 RMK AO2 PK WND 32040/0200 WSHFT 0140 T01391072
2026-04-23 01:53:00,METAR KRIL 230153Z AUTO 32025G38KT 8SM 14/M07 A2976 RMK AO2 PK WND 32038/0153 WSHFT 0138 SLP026 T01441072
2026-04-23 00:53:00,METAR KRIL 230053Z AUTO 25025G33KT 10SM 19/M16 A2975 RMK AO2 PK WND 27040/0009 SLP014 T01891161
2026-04-22 23:53:00,METAR KRIL 222353Z AUTO 26019G35KT 10SM 21/M15 A2974 RMK AO2 PK WND 26040/2306 SLP008 T02061150 10233 20206 56013
2026-04-22 22:53:00,METAR KRIL 222253Z AUTO 24018G31KT 10SM 21/M15 A2974 RMK AO2 PK WND 20042/2213 SLP009 T02061150
2026-04-22 21:53:00,METAR KRIL 222153Z AUTO 22023G37KT 10SM 23/M12 A2977 RMK AO2 PK WND 21040/2119 SLP012 T02331117
2026-04-22 20:53:00,METAR KRIL 222053Z AUTO 19016G32KT 10SM 22/M13 A2979 RMK AO2 PK WND 25035/2008 SLP023 T02221128 58013
2026-04-22 19:53:00,METAR KRIL 221953Z AUTO 22018G32KT 10SM 23/M13 A2980 RMK AO2 PK WND 23039/1859 SLP026 T02281133
2026-04-22 18:53:00,METAR KRIL 221853Z AUTO 24022G38KT 10SM 22/M14 A2982 RMK AO2 PK WND 22042/1824 SLP035 T02221139
2026-04-22 17:53:00,METAR KRIL 221753Z AUTO 24021G37KT 10SM 22/M13 A2983 RMK AO2 PK WND 23039/1713 SLP034 T02221133 10222 20150 56018
2026-04-22 16:53:00,METAR KRIL 221653Z AUTO 24023G36KT 10SM 22/M13 A2985 RMK AO2 PK WND 24036/1651 SLP039 T02221133
2026-04-22 15:53:00,METAR KRIL 221553Z AUTO 19010G21KT 170V230 10SM 21/M11 A2987 RMK AO2 PK WND 17029/1515 SLP045 T02061111
2026-04-22 14:53:00,METAR KRIL 221453Z AUTO 20015G23KT 10SM 19/M08 A2990 RMK AO2 PK WND 16028/1427 SLP057 T01891083 58007
2026-04-22 13:53:00,METAR KRIL 221353Z AUTO 14011KT 120V180 10SM 17/M09 A2992 RMK AO2 SLP068 T01671094
2026-04-22 12:53:00,METAR KRIL 221253Z AUTO 15018G26KT 10SM 15/M10 A2992 RMK AO2 PK WND 14027/1205 SLP065 T01501100
2026-04-22 11:53:00,METAR KRIL 221153Z AUTO 13014KT 10SM 16/M09 A2992 RMK AO2 SLP062 T01611089 10172 20117 53009
2026-04-22 10:53:00,METAR KRIL 221053Z AUTO 13014KT 10SM 16/M07 A2991 RMK AO2 SLP060 T01611072
2026-04-22 09:53:00,METAR KRIL 220953Z AUTO 14012KT 10SM 17/M06 A2990 RMK AO2 SLP052 T01671061
2026-04-22 08:53:00,METAR KRIL 220853Z AUTO 15012KT 10SM 15/M03 A2989 RMK AO2 SLP054 T01501028 58005
2026-04-22 07:53:00,METAR KRIL 220753Z AUTO 10SM 16/M02 A2990 RMK AO2 SLP056 T01561017
2026-04-22 06:53:00,METAR KRIL 220653Z AUTO 07006KT 10SM 14/M01 A2991 RMK AO2 SLP063 T01441006 402670028
2026-04-22 05:53:00,METAR KRIL 220553Z AUTO 13013KT 10SM 18/M01 A2991 RMK AO2 SLP060 T01781011 10256 20172 58007
2026-04-22 04:53:00,METAR KRIL 220453Z AUTO 16013KT 10SM 18/M01 A2991 RMK AO2 SLP069 T01831011
2026-04-22 03:53:00,METAR KRIL 220353Z AUTO 18012KT 10SM 20/M02 A2993 RMK AO2 SLP078 T02001017
2026-04-22 02:53:00,METAR KRIL 220253Z AUTO 17015G20KT 10SM 21/M02 A2993 RMK AO2 SLP084 T02061022 55003
2026-04-22 01:53:00,METAR KRIL 220153Z AUTO 17007KT 10SM 21/M02 A2992 RMK AO2 SLP090 T02111022
2026-04-22 00:53:00,METAR KRIL 220053Z AUTO 22007KT 10SM 23/M03 A2994 RMK AO2 SLP091 T02331028
2026-04-21 23:53:00,METAR KRIL 212353Z AUTO 19014G20KT 10SM 26/M03 A2994 RMK AO2 PK WND 22030/2255 SLP089 T02561028 10267 20211 55014
2026-04-21 22:53:00,METAR KRIL 212253Z AUTO 22023G33KT 10SM 25/M04 A2993 RMK AO2 PK WND 22033/2253 WSHFT 2149 SLP087 T02501039
2026-04-21 22:09:00,SPECI KRIL 212209Z AUTO 23010G21KT 10SM 26/M03 A2995 RMK AO2 WSHFT 2149 T02561033
2026-04-21 21:53:00,METAR KRIL 212153Z AUTO 28011G22KT 10SM 26/M03 A2995 RMK AO2 PK WND 21027/2138 SLP090 T02611028
2026-04-21 20:53:00,METAR KRIL 212053Z AUTO 25013G21KT 10SM 24/M03 A2999 RMK AO2 SLP106 T02441028 56026
2026-04-21 19:53:00,METAR KRIL 211953Z AUTO 27011G20KT 10SM 25/M04 A3002 RMK AO2 SLP109 T02501039
2026-04-21 18:53:00,METAR KRIL 211853Z AUTO 26009KT 10SM 24/M03 A3004 RMK AO2 SLP119 T02441033
2026-04-21 17:53:00,METAR KRIL 211753Z AUTO VRB04KT 10SM 22/M04 A3008 RMK AO2 SLP132 T02171039 10217 20028 58019
2026-04-21 16:53:00,METAR KRIL 211653Z AUTO 13004KT 10SM 18/M03 A3011 RMK AO2 SLP147 T01831033
2026-04-21 15:53:00,METAR KRIL 211553Z AUTO 03003KT 10SM 14/M03 A3013 RMK AO2 SLP158 T01441028
2026-04-21 14:53:00,METAR KRIL 211453Z AUTO 00000KT 10SM 11/M03 A3015 RMK AO2 SLP165 T01061033 50002
2026-04-21 13:53:00,METAR KRIL 211353Z AUTO 00000KT 10SM 06/M01 A3015 RMK AO2 SLP171 T00561006
2026-04-21 12:53:00,METAR KRIL 211253Z AUTO 00000KT 10SM 04/M04 A3015 RMK AO2 SLP166 T00391039
2026-04-21 11:53:00,METAR KRIL 211153Z AUTO 17003KT 10SM 04/M04 A3014 RMK AO2 SLP162 T00391044 10117 20028 51007
2026-04-21 10:53:00,METAR KRIL 211053Z AUTO 11003KT 10SM 04/M04 A3013 RMK AO2 SLP156 T00441044
2026-04-21 09:53:00,METAR KRIL 210953Z AUTO 00000KT 10SM 06/M04 A3012 RMK AO2 SLP153 T00561044
2026-04-21 08:53:00,METAR KRIL 210853Z AUTO 11003KT 10SM 06/M04 A3011 RMK AO2 SLP150 T00561044 51005
2026-04-21 07:53:00,METAR KRIL 210753Z AUTO 00000KT 10SM 08/M04 A3011 RMK AO2 SLP147 T00831044
2026-04-21 06:53:00,METAR KRIL 210653Z AUTO 19003KT 10SM 08/M04 A3011 RMK AO2 SLP150 T00831039 402500000
2026-04-21 05:53:00,METAR KRIL 210553Z AUTO 14004KT 10SM 11/M03 A3010 RMK AO2 SLP146 T01111033 10244 20106 51015
2026-04-21 04:53:00,METAR KRIL 210453Z AUTO 11004KT 10SM 12/M04 A3008 RMK AO2 SLP142 T01221044
2026-04-21 03:53:00,METAR KRIL 210353Z AUTO 10006KT 10SM 13/M05 A3007 RMK AO2 SLP147 T01281050
2026-04-21 02:53:00,METAR KRIL 210253Z AUTO 22006KT 10SM 17/M06 A3004 RMK AO2 SLP136 T01721061 53004
2026-04-21 01:53:00,METAR KRIL 210153Z AUTO 24008KT 10SM 20/M06 A3003 RMK AO2 SLP132 T02001061
2026-04-21 00:53:00,METAR KRIL 210053Z AUTO 25010KT 10SM 23/M07 A3003 RMK AO2 SLP130 T02331067
2026-04-20 23:53:00,METAR KRIL 202353Z AUTO 24011KT 10SM 24/M07 A3003 RMK AO2 SLP129 T02391067 10250 20178 56013
2026-04-20 22:53:00,METAR KRIL 202253Z AUTO 25015G20KT 10SM 25/M07 A3004 RMK AO2 SLP131 T02501067
2026-04-20 21:53:00,METAR KRIL 202153Z AUTO 28016G24KT 10SM 24/M07 A3006 RMK AO2 PK WND 27026/2109 SLP134 T02441072
2026-04-20 20:53:00,METAR KRIL 202053Z AUTO 27016G22KT 10SM 24/M09 A3008 RMK AO2 SLP141 T02391089 56028
2026-04-20 19:53:00,METAR KRIL 201953Z AUTO 00000KT 10SM 22/M10 A3010 RMK AO2 SLP148 T02221100
2026-04-20 18:53:00,METAR KRIL 201853Z AUTO 31006KT 10SM 21/M09 A3014 RMK AO2 SLP165 T02061089
2026-04-20 17:53:00,METAR KRIL 201753Z AUTO 32004KT 10SM 18/M08 A3017 RMK AO2 SLP179 T01781078 10183 20000 58014
2026-04-20 16:53:00,METAR KRIL 201653Z AUTO VRB03KT 10SM 15/M07 A3020 RMK AO2 SLP190 T01501067
2026-04-20 15:53:00,METAR KRIL 201553Z AUTO 00000KT 10SM 11/M07 A3021 RMK AO2 SLP197 T01061067
2026-04-20 14:53:00,METAR KRIL 201453Z AUTO 00000KT 10SM 07/M06 A3022 RMK AO2 SLP205 T00671061 50007
2026-04-20 13:53:00,METAR KRIL 201353Z AUTO 00000KT 10SM 03/M06 A3023 RMK AO2 SLP209 T00281056
2026-04-20 12:53:00,METAR KRIL 201253Z AUTO 11006KT 10SM 01/M07 A3021 RMK AO2 SLP200 T00061067
2026-04-20 11:53:00,METAR KRIL 201153Z AUTO 00000KT 10SM 02/M07 A3020 RMK AO2 SLP194 T00171067 10083 20011 53008
2026-04-20 10:53:00,METAR KRIL 201053Z AUTO 00000KT 10SM 01/M06 A3019 RMK AO2 SLP191 T00111061
2026-04-20 09:53:00,METAR KRIL 200953Z AUTO 13003KT 10SM 03/M07 A3018 RMK AO2 SLP182 T00331067
2026-04-20 08:53:00,METAR KRIL 200853Z AUTO 00000KT 10SM 04/M07 A3017 RMK AO2 SLP181 T00391072 51004
2026-04-20 07:53:00,METAR KRIL 200753Z AUTO 20004KT 10SM 06/M07 A3017 RMK AO2 SLP177 T00561072
2026-04-20 06:53:00,METAR KRIL 200653Z AUTO 19003KT 10SM 06/M07 A3017 RMK AO2 SLP181 T00611072 402111028
2026-04-20 05:53:00,METAR KRIL 200553Z AUTO 00000KT 10SM 07/M08 A3016 RMK AO2 SLP181 T00721078 10206 20067 51010
2026-04-20 04:53:00,METAR KRIL 200453Z AUTO 09004KT 10SM 09/M08 A3015 RMK AO2 SLP180 T00891083
2026-04-20 03:53:00,METAR KRIL 200353Z AUTO 13006KT 10SM 11/M09 A3014 RMK AO2 SLP178 T01111094
2026-04-20 02:53:00,METAR KRIL 200253Z AUTO 10SM 14/M13 A3012 RMK AO2 SLP175 T01391128 53006
2026-04-20 01:53:00,METAR KRIL 200153Z AUTO 27010KT 10SM 16/M12 A3010 RMK AO2 SLP173 T01561122
2026-04-20 00:53:00,METAR KRIL 200053Z AUTO 28012KT 10SM 19/M15 A3010 RMK AO2 SLP166 T01941150
2026-04-19 23:53:00,METAR KRIL 192353Z AUTO 26015G23KT 10SM 21/M16 A3010 RMK AO2 SLP165 T02061156 10211 20139 56012
2026-04-19 22:53:00,METAR KRIL 192253Z AUTO 27017KT 10SM 21/M13 A3010 RMK AO2 PK WND 26027/2232 SLP163 T02061128
2026-04-19 21:53:00,METAR KRIL 192153Z AUTO 26022G28KT 10SM 21/M16 A3011 RMK AO2 PK WND 26028/2151 SLP166 T02061156
2026-04-19 20:53:00,METAR KRIL 192053Z AUTO 25011G18KT 10SM 20/M15 A3014 RMK AO2 SLP177 T02001150 56024
2026-04-19 19:53:00,METAR KRIL 191953Z AUTO 27013G21KT 10SM 19/M17 A3016 RMK AO2 SLP186 T01941172
2026-04-19 18:53:00,METAR KRIL 191853Z AUTO 10SM 17/M13 A3020 RMK AO2 SLP201 T01671128
2026-04-19 17:53:00,METAR KRIL 191753Z AUTO 00000KT 10SM 14/M09 A3022 RMK AO2 SLP214 T01391094 10139 21028 58016
2026-04-19 16:53:00,METAR KRIL 191653Z AUTO 00000KT 10SM 11/M09 A3024 RMK AO2 SLP225 T01061089
2026-04-19 15:53:00,METAR KRIL 191553Z AUTO 13004KT 10SM 08/M07 A3026 RMK AO2 SLP234 T00831067
2026-04-19 14:53:00,METAR KRIL 191453Z AUTO 11004KT 10SM 04/M08 A3028 RMK AO2 SLP243 T00391078 50004
2026-04-19 13:53:00,METAR KRIL 191353Z AUTO 00000KT 10SM 00/M07 A3029 RMK AO2 SLP249 T00001067
2026-04-19 12:53:00,METAR KRIL 191253Z AUTO 00000KT 10SM M02/M07 A3027 RMK AO2 SLP245 T10171072
2026-04-19 11:53:00,METAR KRIL 191153Z AUTO 00000KT 10SM M02/M07 A3027 RMK AO2 SLP243 T10171072 10028 21022 58000
2026-04-19 10:53:00,METAR KRIL 191053Z AUTO 00000KT 10SM M01/M07 A3027 RMK AO2 SLP241 T10111067
2026-04-19 09:53:00,METAR KRIL 190953Z AUTO 00000KT 10SM M01/M08 A3027 RMK AO2 SLP244 T10111078
2026-04-19 08:53:00,METAR KRIL 190853Z AUTO 00000KT 10SM M01/M08 A3027 RMK AO2 SLP243 T10061083 51003
2026-04-19 07:53:00,METAR KRIL 190753Z AUTO 15003KT 10SM 01/M09 A3027 RMK AO2 SLP241 T00061089
2026-04-19 06:53:00,METAR KRIL 190653Z AUTO 11003KT 10SM 01/M08 A3027 RMK AO2 SLP249 T00061083 401221039
2026-04-19 05:53:00,METAR KRIL 190553Z AUTO 16007KT 10SM 03/M09 A3026 RMK AO2 SLP243 T00281094 10122 20022 50003
2026-04-19 04:53:00,METAR KRIL 190453Z AUTO 13008KT 10SM 04/M08 A3026 RMK AO2 SLP244 T00391083
2026-04-19 03:53:00,METAR KRIL 190353Z AUTO 13005KT 10SM 05/M08 A3027 RMK AO2 SLP248 T00501078
2026-04-19 02:53:00,METAR KRIL 190253Z AUTO 17003KT 10SM 08/M08 A3025 RMK AO2 SLP236 T00781078 55001
2026-04-19 01:53:00,METAR KRIL 190153Z AUTO 07003KT 10SM 10/M11 A3024 RMK AO2 SLP234 T01001111
2026-04-19 00:53:00,METAR KRIL 190053Z AUTO 03003KT 10SM 12/M11 A3025 RMK AO2 SLP238 T01171111
2026-04-18 23:53:00,METAR KRIL 182353Z AUTO 00000KT 10SM 12/M14 A3025 RMK AO2 SLP237 T01171139 10122 20061 56012
2026-04-18 22:53:00,METAR KRIL 182253Z AUTO VRB03KT 10SM 12/M14 A3025 RMK AO2 SLP235 T01171139
2026-04-18 21:53:00,METAR KRIL 182153Z AUTO 00000KT 10SM 11/M15 A3027 RMK AO2 SLP242 T01111150
2026-04-18 20:53:00,METAR KRIL 182053Z AUTO 00000KT 10SM 10/M14 A3029 RMK AO2 SLP249 T01001144 56020
2026-04-18 19:53:00,METAR KRIL 181953Z AUTO VRB05KT 10SM 10/M14 A3032 RMK AO2 SLP257 T01001139
2026-04-18 18:53:00,METAR KRIL 181853Z AUTO VRB04KT 10SM 07/M16 A3034 RMK AO2 SLP271 T00721156
2026-04-18 17:53:00,METAR KRIL 181753Z AUTO 12003KT 10SM 06/M14 A3036 RMK AO2 SLP283 T00611144 10067 21039 53001
2026-04-18 16:53:00,METAR KRIL 181653Z AUTO 00000KT 10SM 04/M12 A3036 RMK AO2 SLP285 T00441122
2026-04-18 15:53:00,METAR KRIL 181553Z AUTO VRB03KT 10SM 03/M11 A3036 RMK AO2 SLP289 T00281106
2026-04-18 14:53:00,METAR KRIL 181453Z AUTO VRB05KT 10SM 02/M07 A3036 RMK AO2 SLP290 T00171067 51016
2026-04-18 13:53:00,METAR KRIL 181353Z AUTO 11008KT 10SM M01/M07 A3035 RMK AO2 SLP286 T10061072
2026-04-18 12:53:00,METAR KRIL 181253Z AUTO 14003KT 10SM M03/M06 A3032 RMK AO2 SLP281 T10331061
2026-04-18 11:53:00,METAR KRIL 181153Z AUTO 00000KT 10SM M02/M07 A3030 RMK AO2 SLP267 70002 T10171072 10011 21022 53013
2026-04-18 10:53:00,METAR KRIL 181053Z AUTO 00000KT 10SM M01/M07 A3028 RMK AO2 SLP260 T10061072
2026-04-18 09:53:00,METAR KRIL 180953Z AUTO 31004KT 10SM 00/M07 A3027 RMK AO2 SLP253 T00001072
2026-04-18 08:53:00,METAR KRIL 180853Z AUTO 31008KT 10SM 01/M06 A3026 RMK AO2 SLP250 T00061061 53013
2026-04-18 07:53:00,METAR KRIL 180753Z AUTO 29007KT 10SM 01/M07 A3024 RMK AO2 SLP245 T00061067
2026-04-18 06:53:00,METAR KRIL 180653Z AUTO 33007KT 10SM 01/M06 A3022 RMK AO2 SLP239 T00061061 400611033
2026-04-18 05:53:00,METAR KRIL 180553Z AUTO 00000KT 10SM 01/M08 A3021 RMK AO2 SLP244 T00061078 10061 21011 53017
2026-04-18 04:53:00,METAR KRIL 180453Z AUTO 14003KT 10SM 01/M08 A3019 RMK AO2 SLP237 T00061078
2026-04-18 03:53:00,METAR KRIL 180353Z AUTO 13004KT 10SM 00/M09 A3018 RMK AO2 SLP236 T00001089
2026-04-18 02:53:00,METAR KRIL 180253Z AUTO 17003KT 10SM 02/M10 A3015 RMK AO2 SLP228 T00171100 53006
2026-04-18 01:53:00,METAR KRIL 180153Z AUTO 00000KT 10SM 04/M12 A3013 RMK AO2 SLP216 T00391117
2026-04-18 00:53:00,METAR KRIL 180053Z AUTO 31006KT 10SM 06/M13 A3013 RMK AO2 SLP210 T00561133
2026-04-17 23:53:00,METAR KRIL 172353Z AUTO 35011G16KT 10SM 06/M14 A3013 RMK AO2 SLP210 T00561144 10061 20006 55003
2026-04-17 22:53:00,METAR KRIL 172253Z AUTO VRB03KT 10SM 04/M15 A3013 RMK AO2 SLP207 T00441150
2026-04-17 21:53:00,METAR KRIL 172153Z AUTO 32011G19KT 10SM 06/M16 A3013 RMK AO2 SLP205 T00561156
2026-04-17 20:53:00,METAR KRIL 172053Z AUTO VRB06G16KT 10SM 05/M13 A3014 RMK AO2 SLP206 T00501128 58001
2026-04-17 19:53:00,METAR KRIL 171953Z AUTO 27011G21KT 10SM 04/M10 A3014 RMK AO2 SLP207 T00441100
2026-04-17 18:53:00,METAR KRIL 171853Z AUTO 24014G21KT 10SM 03/M07 A3016 RMK AO2 SLP210 T00331067
2026-04-17 17:53:00,METAR KRIL 171753Z AUTO 25011G19KT 10SM 01/M08 A3015 RMK AO2 SLP207 60002 T00061078 10006 21033 51020
2026-04-17 16:53:00,METAR KRIL 171653Z AUTO 26012KT 10SM M01/M07 A3013 RMK AO2 SLP203 T10111067
2026-04-17 15:53:00,METAR KRIL 171553Z AUTO 27012KT 10SM M02/M06 A3009 RMK AO2 SNE22 SLP172 P0000 T10171061
2026-04-17 15:13:00,SPECI KRIL 171513Z AUTO 24006KT 3SM -SN M03/M06 A3008 RMK AO2 P0000 T10281061
2026-04-17 15:04:00,SPECI KRIL 171504Z AUTO 26011KT 1 1/4SM -SN BR M03/M05 A3008 RMK AO2 P0000 T10281050
2026-04-17 14:53:00,METAR KRIL 171453Z AUTO 27011KT 1/2SM -SN FZFG M03/M04 A3007 RMK AO2 SLP165 P0001 60002 T10281044 53030
2026-04-17 14:27:00,SPECI KRIL 171427Z AUTO 28012KT 1/4SM SN FZFG M03/M04 A3006 RMK AO2 P0001 T10281039
2026-04-17 13:53:00,METAR KRIL 171353Z AUTO 28007KT 3/4SM -SN BR M03/M03 A3003 RMK AO2 SLP149 P0001 T10281033
2026-04-17 12:57:00,SPECI KRIL 171257Z AUTO 31008KT 3/4SM -SN BR M03/M04 A3000 RMK AO2 P0000 T10331044 $
2026-04-17 12:50:00,METAR KRIL 171250Z AUTO 30009KT 1 1/4SM -SN BR M03/M04 A2999 RMK AO2 SLP136 P0000 T10331044 $
2026-04-17 12:49:00,SPECI KRIL 171249Z AUTO 31010KT 1 1/4SM -SN BR M03/M04 A2999 RMK AO2 P0000 $
2026-04-17 12:36:00,SPECI KRIL 171236Z AUTO 28010KT 3/4SM -SN BR M02/M03 A2999 RMK AO2 P0000 T10221033 $
2026-04-17 12:27:00,SPECI KRIL 171227Z AUTO 27011KT 1SM -SN BR M02/M03 A2999 RMK AO2 P0000 T10221033 $
2026-04-17 12:03:00,SPECI KRIL 171203Z AUTO 29012KT 2SM -SN M02/M05 A2997 RMK AO2 P0000 T10221050 $
2026-04-17 11:53:00,METAR KRIL 171153Z AUTO 28011KT 1 3/4SM -SN BR M03/M04 A2997 RMK AO2 PK WND 32029/1111 SNB19 SLP126 P0000 60000 T10281044 10056 21028 53018 $
2026-04-17 11:34:00,SPECI KRIL 171134Z AUTO 31016G25KT 1 3/4SM -SN M02/M05 A2997 RMK AO2 PK WND 32029/1111 SNB19 P0000 T10221050 $
2026-04-17 10:53:00,METAR KRIL 171053Z AUTO 31018G26KT 10SM 00/M09 A2994 RMK AO2 PK WND 30029/1005 SLP108 T00001089 $
2026-04-17 09:53:00,METAR KRIL 170953Z AUTO 31018G27KT 10SM 00/M08 A2992 RMK AO2 PK WND 31027/0922 SLP099 T00001078 $
2026-04-17 08:53:00,METAR KRIL 170853Z AUTO 31017G26KT 10SM 01/M07 A2991 RMK AO2 PK WND 31031/0821 SLP093 T00111067 51028 $
2026-04-17 07:53:00,METAR KRIL 170753Z AUTO 31022G30KT 10SM 02/M07 A2989 RMK AO2 PK WND 33032/0727 SLP084 T00221067 $
2026-04-17 06:53:00,METAR KRIL 170653Z AUTO 31017G31KT 10SM 03/M06 A2985 RMK AO2 PK WND 32035/0632 SLP069 T00331056 402110011 $
2026-04-17 05:53:00,METAR KRIL 170553Z AUTO 32013G22KT 10SM 06/M05 A2981 RMK AO2 PK WND 31043/0523 SLP056 T00561050 10183 20056 53029 $
2026-04-17 04:53:00,METAR KRIL 170453Z AUTO 32025G35KT 10SM 07/M06 A2977 RMK AO2 PK WND 32046/0431 WSHFT 0418 SLP044 T00721056 $
2026-04-17 04:38:00,SPECI KRIL 170438Z AUTO 32023G46KT 10SM 08/M06 A2977 RMK AO2 PK WND 32046/0431 WSHFT 0418 T00831056 $
2026-04-17 04:26:00,SPECI KRIL 170426Z AUTO 32027G40KT 10SM SCT120 09/M07 A2975 RMK AO2 PK WND 31040/0425 WSHFT 0406 T00941067
2026-04-17 03:53:00,METAR KRIL 170353Z AUTO 22014G25KT 10SM CLR 16/M14 A2972 RMK AO2 PK WND 22032/0327 SLP017 T01611139
2026-04-17 02:53:00,METAR KRIL 170253Z AUTO 22019G33KT 10SM CLR 17/M13 A2970 RMK AO2 PK WND 20036/0223 SLP018 T01671128 55002
2026-04-17 01:53:00,METAR KRIL 170153Z AUTO 22014G30KT 10SM CLR 17/M11 A2970 RMK AO2 PK WND 23030/0144 SLP019 T01671106
2026-04-17 00:53:00,METAR KRIL 170053Z AUTO 22014G21KT 10SM CLR 18/M09 A2969 RMK AO2 SLP020 T01781094
2026-04-16 23:53:00,METAR KRIL 162353Z AUTO 21011G24KT 10SM CLR 18/M10 A2971 RMK AO2 PK WND 21034/2310 SLP026 T01781100 10211 20161 58013
2026-04-16 22:53:00,METAR KRIL 162253Z AUTO 21023G32KT 10SM CLR 18/M12 A2975 RMK AO2 PK WND 21038/2220 SLP037 T01831117
2026-04-16 21:53:00,METAR KRIL 162153Z AUTO 19020G34KT 10SM CLR 20/M11 A2975 RMK AO2 PK WND 17042/2134 WSHFT 2044 SLP033 T02001111
2026-04-16 21:04:00,SPECI KRIL 162104Z AUTO 21017G42KT 10SM CLR 20/M12 A2975 RMK AO2 PK WND 21042/2056 WSHFT 2044 T02001117
2026-04-16 20:53:00,METAR KRIL 162053Z AUTO 19018G32KT 10SM CLR 20/M09 A2975 RMK AO2 PK WND 26043/2001 SLP036 T02001089 56025
2026-04-16 19:53:00,METAR KRIL 161953Z AUTO 21020G32KT 10SM FEW110 21/M08 A2978 RMK AO2 PK WND 25037/1940 SLP040 T02061078
2026-04-16 18:53:00,METAR KRIL 161853Z AUTO 24016G30KT 200V260 10SM CLR 21/M07 A2980 RMK AO2 PK WND 23030/1845 SLP046 T02061072
2026-04-16 17:53:00,METAR KRIL 161753Z AUTO 00000KT 10SM SCT100 16/M06 A2984 RMK AO2 SLP070 T01611056 10172 20011 56024
2026-04-16 16:53:00,METAR KRIL 161653Z AUTO 28006KT 10SM CLR 14/M04 A2987 RMK AO2 SLP082 T01441039
2026-04-16 15:53:00,METAR KRIL 161553Z AUTO 00000KT 10SM CLR 11/M01 A2989 RMK AO2 SLP093 T01061011
2026-04-16 14:53:00,METAR KRIL 161453Z AUTO 00000KT 10SM CLR 07/M01 A2992 RMK AO2 SLP108 T00671011 58001
2026-04-16 13:53:00,METAR KRIL 161353Z AUTO 00000KT 10SM CLR 04/M01 A2993 RMK AO2 SLP114 T00391006
2026-04-16 12:53:00,METAR KRIL 161253Z AUTO 00000KT 10SM CLR 02/M02 A2993 RMK AO2 SLP112 T00221017
2026-04-16 11:53:00,METAR KRIL 161153Z AUTO 00000KT 10SM CLR 02/M01 A2993 RMK AO2 SLP107 T00221006 10056 20011 58007
2026-04-16 10:53:00,METAR KRIL 161053Z AUTO 20004KT 10SM CLR 02/M01 A2993 RMK AO2 SLP108 T00221006
2026-04-16 09:53:00,METAR KRIL 160953Z AUTO 19004KT 10SM CLR 03/M01 A2995 RMK AO2 SLP113 T00281011
2026-04-16 08:53:00,METAR KRIL 160853Z AUTO 00000KT 10SM FEW095 03/M01 A2995 RMK AO2 SLP114 T00331011 58009
2026-04-16 07:53:00,METAR KRIL 160753Z AUTO 22005KT 10SM CLR 04/M01 A2998 RMK AO2 SLP124 T00441006
2026-04-16 06:53:00,METAR KRIL 160653Z AUTO 00000KT 10SM CLR 05/M01 A2998 RMK AO2 SLP126 T00501006 401560033
2026-04-16 05:53:00,METAR KRIL 160553Z AUTO 25003KT 10SM CLR 05/00 A2998 RMK AO2 SLP130 T00500000 10156 20050 50003
2026-04-16 04:53:00,METAR KRIL 160453Z AUTO 10006KT 10SM CLR 06/01 A2999 RMK AO2 SLP136 T00560006
2026-04-16 03:53:00,METAR KRIL 160353Z AUTO 14006KT 10SM CLR 08/00 A2999 RMK AO2 SLP134 T00780000
2026-04-16 02:53:00,METAR KRIL 160253Z AUTO 14006KT 10SM CLR 09/M01 A2997 RMK AO2 SLP127 T00941006 53002
2026-04-16 01:53:00,METAR KRIL 160153Z AUTO 26008KT 10SM CLR 12/M02 A2996 RMK AO2 SLP120 T01171017
2026-04-16 00:53:00,METAR KRIL 160053Z AUTO 28012G20KT 10SM CLR 14/M03 A2996 RMK AO2 SLP116 T01441028
2026-04-15 23:53:00,METAR KRIL 152353Z AUTO 27016G23KT 10SM CLR 16/M02 A2997 RMK AO2 PK WND 26028/2323 SLP116 T01561017 10156 20111 56015
2026-04-15 22:53:00,METAR KRIL 152253Z AUTO 27020G26KT 10SM CLR 16/M03 A2998 RMK AO2 PK WND 28026/2159 SLP121 T01561028
2026-04-15 21:53:00,METAR KRIL 152153Z AUTO 28019G27KT 10SM FEW075 16/M03 A3000 RMK AO2 PK WND 28027/2152 SLP128 T01561028
2026-04-15 20:53:00,METAR KRIL 152053Z AUTO 27015G21KT 10SM SCT070 BKN085 15/M03 A3002 RMK AO2 SLP135 T01501028 56018
2026-04-15 19:53:00,METAR KRIL 151953Z AUTO 15005KT 10SM FEW055 BKN065 13/M01 A3004 RMK AO2 SLP147 T01281006
2026-04-15 18:53:00,METAR KRIL 151853Z AUTO VRB04KT 10SM CLR 13/M03 A3005 RMK AO2 SLP151 T01281028
2026-04-15 17:53:00,METAR KRIL 151753Z AUTO 13003KT 10SM FEW075 11/02 A3008 RMK AO2 SLP164 T01110017 10117 20033 58003
2026-04-15 16:53:00,METAR KRIL 151653Z AUTO 29003KT 10SM CLR 09/02 A3009 RMK AO2 SLP171 T00890022
2026-04-15 15:53:00,METAR KRIL 151553Z AUTO 00000KT 10SM FEW021 07/02 A3010 RMK AO2 SLP175 T00720022
2026-04-15 15:29:00,SPECI KRIL 151529Z AUTO 06003KT 10SM SCT013 08/03 A3010 RMK AO2 T00780028 $
2026-04-15 15:20:00,SPECI KRIL 151520Z AUTO 00000KT 10SM BKN013 07/03 A3009 RMK AO2 T00670033 $
2026-04-15 15:11:00,SPECI KRIL 151511Z AUTO VRB03KT 10SM SCT011 07/03 A3010 RMK AO2 T00670033 $
2026-04-15 14:53:00,METAR KRIL 151453Z AUTO 11003KT 10SM CLR 06/03 A3009 RMK AO2 SLP177 T00610033 51011 $
2026-04-15 14:27:00,SPECI KRIL 151427Z AUTO 00000KT 10SM FEW024 BKN046 05/03 A3009 RMK AO2 T00500033
2026-04-15 13:53:00,METAR KRIL 151353Z AUTO 00000KT 10SM OVC022 04/03 A3009 RMK AO2 SLP176 T00440028
2026-04-15 12:53:00,METAR KRIL 151253Z AUTO 00000KT 10SM BKN019 BKN026 BKN085 04/03 A3007 RMK AO2 SLP168 T00440028
2026-04-15 11:53:00,METAR KRIL 151153Z AUTO 00000KT 10SM OVC020 04/03 A3005 RMK AO2 SLP163 60001 70007 T00440028 10056 20044 50000
2026-04-15 10:53:00,METAR KRIL 151053Z AUTO 23003KT 10SM BKN024 BKN044 OVC080 04/03 A3006 RMK AO2 SLP164 T00440028
2026-04-15 10:42:00,SPECI KRIL 151042Z AUTO 25004KT 10SM BKN026 BKN045 OVC080 04/03 A3006 RMK AO2 T00440028
2026-04-15 09:53:00,METAR KRIL 150953Z AUTO 25004KT 10SM SCT035 BKN045 OVC070 04/03 A3005 RMK AO2 RAB0858E29 SLP159 P0001 T00440028
2026-04-15 08:53:00,METAR KRIL 150853Z AUTO 00000KT 10SM BKN036 OVC060 05/03 A3005 RMK AO2 SLP163 T00500028 58002
2026-04-15 07:53:00,METAR KRIL 150753Z AUTO 00000KT 10SM FEW026 BKN033 BKN040 05/03 A3006 RMK AO2 SLP171 T00500028
2026-04-15 06:53:00,METAR KRIL 150653Z AUTO 24003KT 10SM OVC046 05/03 A3005 RMK AO2 SLP168 T00500028 400940039
2026-04-15 05:53:00,METAR KRIL 150553Z AUTO 13003KT 10SM SCT030 OVC044 06/03 A3006 RMK AO2 SLP165 60000 T00560028 10078 20050 51014
2026-04-15 04:53:00,METAR KRIL 150453Z AUTO 26004KT 10SM BKN048 BKN065 OVC080 06/03 A3005 RMK AO2 SLP160 T00560028
2026-04-15 03:53:00,METAR KRIL 150353Z AUTO 25003KT 10SM OVC033 06/03 A3004 RMK AO2 RAE0255 SLP159 P0000 T00560028
2026-04-15 02:53:00,METAR KRIL 150253Z AUTO 00000KT 10SM -RA SCT048 BKN080 OVC100 06/03 A3001 RMK AO2 SLP150 P0000 60000 T00610028 53007
2026-04-15 01:53:00,METAR KRIL 150153Z AUTO 00000KT 10SM -RA OVC044 07/01 A3000 RMK AO2 RAB45 SLP144 P0000 T00720011
2026-04-15 00:53:00,METAR KRIL 150053Z AUTO 10006KT 10SM FEW075 BKN100 BKN120 07/02 A2999 RMK AO2 SLP141 T00720017
2026-04-14 23:53:00,METAR KRIL 142353Z AUTO 22004KT 10SM SCT065 BKN080 08/01 A2999 RMK AO2 SLP140 60005 T00780006 10094 20039 53005
2026-04-14 22:53:00,METAR KRIL 142253Z AUTO 24008KT 10SM BKN060 OVC110 07/01 A2998 RMK AO2 PK WND 26028/2157 SLP136 T00720006
2026-04-14 21:53:00,METAR KRIL 142153Z AUTO 10SM FEW038 09/02 A2995 RMK AO2 SLP122 T00940022
2026-04-14 20:53:00,METAR KRIL 142053Z AUTO 00000KT 10SM FEW075 FEW110 07/01 A2997 RMK AO2 RAE18 SLP134 P0001 60005 T00670006 50011
2026-04-14 20:15:00,SPECI KRIL 142015Z AUTO 32005KT 10SM -RA BKN031 BKN045 OVC055 04/02 A2996 RMK AO2 P0001 T00440022
2026-04-14 19:53:00,METAR KRIL 141953Z AUTO 25016G27KT 3SM +RA SCT020 BKN029 OVC095 04/01 A2997 RMK AO2 PK WND 19029/1941 WSHFT 1934 RAB41 SLP138 P0004 T00390011
2026-04-14 19:48:00,SPECI KRIL 141948Z AUTO 24019G29KT 6SM RA FEW020 BKN029 OVC095 04/02 A2998 RMK AO2 PK WND 19029/1941 WSHFT 1934 LTG DSNT SE RAB41 P0001
2026-04-14 18:53:00,METAR KRIL 141853Z AUTO 28011KT 10SM BKN038 BKN055 OVC080 05/02 A2995 RMK AO2 PK WND 26041/1811 RAE47 SLP127 P0000 T00500022
2026-04-14 17:53:00,METAR KRIL 141753Z AUTO 00000KT 9SM -RA FEW034 BKN043 OVC065 07/02 A2993 RMK AO2 PK WND 22026/1737 RAB37 SLP109 P0001 60001 T00670017 10083 20039 52012
2026-04-14 16:53:00,METAR KRIL 141653Z AUTO 27014KT 10SM BKN060 BKN075 BKN110 08/03 A2991 RMK AO2 RAE01 SLP095 P0000 T00780033
2026-04-14 15:53:00,METAR KRIL 141553Z AUTO 27009KT 10SM -RA FEW016 BKN037 OVC060 06/04 A2992 RMK AO2 RAB1456E27B51 SLP103 P0000 T00610039
2026-04-14 14:53:00,METAR KRIL 141453Z AUTO 00000KT 10SM BKN050 OVC080 05/04 A2989 RMK AO2 SLP097 T00500039 53000
2026-04-14 13:53:00,METAR KRIL 141353Z AUTO 03004KT 10SM FEW070 OVC090 05/04 A2987 RMK AO2 SLP085 T00500039
2026-04-14 12:53:00,METAR KRIL 141253Z AUTO 05003KT 10SM SCT018 BKN080 OVC090 04/04 A2988 RMK AO2 SLP084 T00440039
2026-04-14 11:53:00,METAR KRIL 141153Z AUTO 00000KT 10SM FEW027 FEW065 BKN090 04/03 A2989 RMK AO2 SLP087 60021 70021 T00390033 10106 20039 56010
2026-04-14 11:42:00,SPECI KRIL 141142Z AUTO 29004KT 10SM SCT025 SCT030 BKN090 04/03 A2989 RMK AO2 T00390033
2026-04-14 10:53:00,METAR KRIL 141053Z AUTO 00000KT 10SM FEW010 BKN025 04/03 A2990 RMK AO2 SLP092 T00440033
2026-04-14 10:42:00,SPECI KRIL 141042Z AUTO 22003KT 10SM SCT010 BKN027 04/03 A2991 RMK AO2 T00440033
2026-04-14 10:30:00,SPECI KRIL 141030Z AUTO 22003KT 10SM BKN009 04/03 A2990 RMK AO2 CIG 008V012 T00440033
2026-04-14 10:17:00,SPECI KRIL 141017Z AUTO 00000KT 10SM SCT010 04/03 A2991 RMK AO2 T00440033
2026-04-14 09:53:00,METAR KRIL 140953Z AUTO 00000KT 10SM SCT025 BKN036 BKN110 04/03 A2991 RMK AO2 RAB27E53 SLP089 P0002 T00440033
2026-04-14 09:11:00,SPECI KRIL 140911Z AUTO 24004KT 10SM SCT012 OVC018 05/03 A2993 RMK AO2 T00500028
2026-04-14 09:06:00,SPECI KRIL 140906Z AUTO 00000KT 10SM BKN012 OVC018 05/03 A2992 RMK AO2 T00500028
2026-04-14 08:53:00,METAR KRIL 140853Z AUTO 00000KT 10SM BKN009 OVC018 05/03 A2992 RMK AO2 RAE27 CIG 007V013 SLP099 P0001 60019 T00500033 50003
2026-04-14 08:43:00,SPECI KRIL 140843Z AUTO 00000KT 10SM BKN009 OVC018 06/04 A2992 RMK AO2 RAE27 CIG 007V012 P0001 T00560039
2026-04-14 08:33:00,SPECI KRIL 140833Z AUTO 36005KT 10SM SCT009 OVC020 06/04 A2992 RMK AO2 LTG DSNT S RAE27 P0001 T00560044
2026-04-14 08:14:00,SPECI KRIL 140814Z AUTO 31003KT 10SM -RA BKN020 OVC030 06/04 A2993 RMK AO2 P0001 T00560039
2026-04-14 08:04:00,SPECI KRIL 140804Z AUTO 00000KT 9SM -RA SCT022 OVC031 06/04 A2993 RMK AO2 P0001 T00560044
2026-04-14 07:53:00,METAR KRIL 140753Z AUTO 00000KT 4SM RA BR BKN024 OVC028 06/04 A2994 RMK AO2 SLP105 P0006 T00610044
2026-04-14 07:01:00,SPECI KRIL 140701Z AUTO 00000KT 5SM -RA FEW021 BKN026 OVC036 07/03 A2994 RMK AO2 LTG DSNT S P0001 T00670033
2026-04-14 06:53:00,METAR KRIL 140653Z AUTO 00000KT 2 1/2SM +RA FEW015 BKN026 OVC036 07/03 A2995 RMK AO2 LTG DSNT S RAB05 SLP105 P0012 T00670028 401890067
2026-04-14 06:45:00,SPECI KRIL 140645Z AUTO 14006KT 4SM +RA FEW015 BKN028 OVC037 07/03 A2994 RMK AO2 RAB05 P0007 T00720028
2026-04-14 05:53:00,METAR KRIL 140553Z AUTO VRB05KT 10SM BKN060 OVC070 11/M01 A2991 RMK AO2 SLP090 T01061006 10172 20106 53013
2026-04-14 04:53:00,METAR KRIL 140453Z AUTO 00000KT 10SM FEW090 FEW120 12/M04 A2988 RMK AO2 SLP074 T01221044
2026-04-14 03:53:00,METAR KRIL 140353Z AUTO 29003KT 10SM BKN090 OVC110 11/M04 A2989 RMK AO2 SLP080 T01111044
2026-04-14 02:53:00,METAR KRIL 140253Z AUTO 27007KT 10SM FEW110 12/M06 A2987 RMK AO2 SLP078 T01171056 53000
2026-04-14 01:53:00,METAR KRIL 140153Z AUTO 25008KT 10SM SCT100 14/M07 A2986 RMK AO2 SLP073 T01391067
2026-04-14 00:53:00,METAR KRIL 140053Z AUTO 28009KT 10SM OVC100 16/M07 A2986 RMK AO2 SLP072 T01611072
2026-04-13 23:53:00,METAR KRIL 132353Z AUTO 23017G30KT 10SM SCT110 17/M08 A2987 RMK AO2 PK WND 26030/2348 SLP066 T01721078 10189 20139 56013
2026-04-13 22:53:00,METAR KRIL 132253Z AUTO 25007G16KT 210V280 10SM BKN100 17/M08 A2987 RMK AO2 PK WND 25026/2207 SLP066 T01671083
2026-04-13 21:53:00,METAR KRIL 132153Z AUTO 26014G19KT 10SM BKN100 18/M08 A2988 RMK AO2 PK WND 26032/2141 SLP066 T01831078
2026-04-13 20:53:00,METAR KRIL 132053Z AUTO 29010KT 10SM OVC100 16/M07 A2991 RMK AO2 SLP079 T01611072 58020
2026-04-13 19:53:00,METAR KRIL 131953Z AUTO 28010G21KT 10SM BKN100 OVC110 15/M07 A2994 RMK AO2 SLP089 T01501067
2026-04-13 18:53:00,METAR KRIL 131853Z AUTO 26013KT 10SM BKN100 15/M07 A2996 RMK AO2 SLP093 T01501067
2026-04-13 17:53:00,METAR KRIL 131753Z AUTO 27014KT 10SM BKN100 BKN120 14/M07 A2998 RMK AO2 SLP103 T01391072 10150 20078 58007
2026-04-13 16:53:00,METAR KRIL 131653Z AUTO 27012KT 10SM BKN100 13/M08 A3000 RMK AO2 SLP112 T01281078
2026-04-13 15:53:00,METAR KRIL 131553Z AUTO 28011KT 10SM OVC100 13/M07 A3000 RMK AO2 SLP114 T01281067
2026-04-13 14:53:00,METAR KRIL 131453Z AUTO 28006KT 10SM SCT100 11/M07 A3001 RMK AO2 SLP119 T01061072 51016
2026-04-13 13:53:00,METAR KRIL 131353Z AUTO 30003KT 10SM FEW090 OVC110 09/M07 A3000 RMK AO2 SLP115 T00891067
2026-04-13 12:53:00,METAR KRIL 131253Z AUTO 32003KT 10SM SCT100 08/M09 A2997 RMK AO2 SLP106 T00831089
2026-04-13 11:53:00,METAR KRIL 131153Z AUTO 24012KT 10SM CLR 11/M11 A2995 RMK AO2 PK WND 24029/1121 SLP093 T01111106 10161 20111 51017
2026-04-13 10:53:00,METAR KRIL 131053Z AUTO 23014G21KT 10SM CLR 12/M11 A2994 RMK AO2 PK WND 24028/0959 SLP084 T01171111
2026-04-13 09:53:00,METAR KRIL 130953Z AUTO 24022G36KT 10SM OVC085 13/M06 A2992 RMK AO2 PK WND 20050/0912 SLP073 T01281061
2026-04-13 08:53:00,METAR KRIL 130853Z AUTO 20033G51KT 10SM SCT100 BKN120 14/M08 A2990 RMK AO2 PK WND 20051/0844 SLP064 T01391078 53011
2026-04-13 07:53:00,METAR KRIL 130753Z AUTO 21023G31KT 10SM FEW110 15/M08 A2988 RMK AO2 PK WND 23037/0701 SLP059 T01501083
2026-04-13 06:53:00,METAR KRIL 130653Z AUTO 21021G32KT 10SM CLR 16/M09 A2987 RMK AO2 PK WND 24036/0623 SLP056 T01561089 402170006
2026-04-13 05:53:00,METAR KRIL 130553Z AUTO 22018G45KT 10SM FEW075 BKN090 BKN110 16/M07 A2986 RMK AO2 PK WND 25045/0545 SLP056 60000 T01561072 10183 20144 51010
2026-04-13 04:53:00,METAR KRIL 130453Z AUTO 18010KT 10SM FEW090 SCT120 15/M06 A2984 RMK AO2 SLP055 T01501061
2026-04-13 03:53:00,METAR KRIL 130353Z AUTO 00000KT 10SM FEW090 BKN110 15/M07 A2984 RMK AO2 SLP065 T01501067
2026-04-13 02:53:00,METAR KRIL 130253Z AUTO 18003KT 10SM FEW120 16/M07 A2982 RMK AO2 PK WND 21027/0159 SLP063 60000 T01561072 55001
2026-04-13 01:53:00,METAR KRIL 130153Z AUTO 18009KT 10SM FEW080 SCT095 BKN110 17/M07 A2982 RMK AO2 PK WND 15028/0108 WSHFT 0059 RAB29E38 SLP064 P0000 T01721072
2026-04-13 01:19:00,SPECI KRIL 130119Z AUTO 17012G25KT 10SM FEW090 OVC110 17/M06 A2982 RMK AO2 PK WND 15028/0108 WSHFT 0059 T01671056
2026-04-13 00:53:00,METAR KRIL 130053Z AUTO 25011KT 10SM SCT095 BKN110 18/M08 A2982 RMK AO2 PK WND 22043/0003 SLP068 T01781083
2026-04-13 00:09:00,SPECI KRIL 130009Z AUTO 24013G43KT 10SM SQ FEW060 SCT095 SCT110 17/M07 A2982 RMK AO2 PK WND 22043/0003 T01721067
2026-04-12 23:53:00,METAR KRIL 122353Z AUTO 18021G33KT 10SM FEW120 18/M08 A2982 RMK AO2 PK WND 23044/2324 SLP065 T01831083 10217 20161 55000
2026-04-12 22:53:00,METAR KRIL 122253Z AUTO 21020G34KT 10SM CLR 20/M12 A2980 RMK AO2 PK WND 25040/2209 SLP052 T02001122
2026-04-12 21:53:00,METAR KRIL 122153Z AUTO 23019G34KT 10SM CLR 22/M12 A2981 RMK AO2 PK WND 26039/2123 SLP051 T02171117
2026-04-12 20:53:00,METAR KRIL 122053Z AUTO 24023G32KT 10SM CLR 22/M11 A2982 RMK AO2 PK WND 22036/2043 SLP056 T02171106 56018
2026-04-12 19:53:00,METAR KRIL 121953Z AUTO 22019G32KT 10SM BKN120 21/M08 A2983 RMK AO2 PK WND 24032/1951 SLP058 T02061083
2026-04-12 18:53:00,METAR KRIL 121853Z AUTO 27015G19KT 10SM FEW110 19/M04 A2986 RMK AO2 SLP074 T01891044
2026-04-12 17:53:00,METAR KRIL 121753Z AUTO 28011KT 10SM SCT110 16/M03 A2989 RMK AO2 SLP083 T01611033 10161 20006 58018
2026-04-12 16:53:00,METAR KRIL 121653Z AUTO 31007KT 10SM CLR 13/01 A2991 RMK AO2 SLP096 T01330011
2026-04-12 15:53:00,METAR KRIL 121553Z AUTO 26003KT 10SM CLR 09/02 A2993 RMK AO2 SLP109 T00940022
2026-04-12 14:53:00,METAR KRIL 121453Z AUTO 00000KT 10SM CLR 05/03 A2995 RMK AO2 SLP122 T00500028 51008
2026-04-12 13:53:00,METAR KRIL 121353Z AUTO 00000KT 10SM CLR 02/01 A2994 RMK AO2 SLP122 T00220011
2026-04-12 12:53:00,METAR KRIL 121253Z AUTO 13003KT 10SM CLR 01/00 A2993 RMK AO2 SLP119 T00110000
2026-04-12 11:53:00,METAR KRIL 121153Z AUTO 00000KT 10SM CLR 02/01 A2992 RMK AO2 SLP107 70007 T00170006 10056 20006 52002
2026-04-12 10:53:00,METAR KRIL 121053Z AUTO 00000KT 10SM CLR 03/01 A2992 RMK AO2 SLP101 T00280011
2026-04-12 09:53:00,METAR KRIL 120953Z AUTO 29004KT 10SM CLR 03/02 A2992 RMK AO2 SLP103 T00330022
2026-04-12 08:53:00,METAR KRIL 120853Z AUTO 27003KT 10SM CLR 03/03 A2991 RMK AO2 SLP109 T00330028 57004
2026-04-12 07:53:00,METAR KRIL 120753Z AUTO 20003KT 10SM CLR 04/03 A2992 RMK AO2 SLP108 T00440028
2026-04-12 06:53:00,METAR KRIL 120653Z AUTO 00000KT 10SM CLR 04/03 A2992 RMK AO2 SLP107 T00440028 401890044
2026-04-12 05:53:00,METAR KRIL 120553Z AUTO 21004KT 10SM CLR 06/03 A2993 RMK AO2 SLP094 60005 T00560033 10144 20056 58003
2026-04-12 04:53:00,METAR KRIL 120453Z AUTO 11003KT 10SM BKN120 07/04 A2993 RMK AO2 SLP095 T00670044
2026-04-12 03:53:00,METAR KRIL 120353Z AUTO 22004KT 10SM SCT110 08/05 A2994 RMK AO2 SLP096 T00780050
2026-04-12 02:53:00,METAR KRIL 120253Z AUTO VRB03KT 10SM CLR 09/04 A2994 RMK AO2 SLP094 60005 T00940044 51005
2026-04-12 01:53:00,METAR KRIL 120153Z AUTO 09007KT 10SM FEW100 11/05 A2993 RMK AO2 RAE03 SLP098 P0000 T01060050
2026-04-12 00:53:00,METAR KRIL 120053Z AUTO VRB04KT 7SM -RA SCT031 BKN050 OVC085 12/05 A2994 RMK AO2 PK WND 28032/2358 RAE19B42 SLP101 P0005 T01170050
2026-04-11 23:53:00,METAR KRIL 112353Z AUTO 28016KT 10SM -RA BKN080 OVC100 14/04 A2992 RMK AO2 LTG DSNT N AND NW RAB53 PRESRR SLP089 P0001 60002 T01440039 10183 20100 55021
2026-04-11 22:53:00,METAR KRIL 112253Z AUTO VRB03KT 10SM FEW095 16/03 A2991 RMK AO2 LTG DSNT W SLP085 T01560033
2026-04-11 21:53:00,METAR KRIL 112153Z AUTO 35004KT 10SM FEW060 14/05 A2996 RMK AO2 SLP103 T01390050
2026-04-11 20:53:00,METAR KRIL 112053Z AUTO VRB04KT 10SM FEW047 FEW055 11/06 A2999 RMK AO2 RAE38 SLP119 P0001 60001 T01110056 50018
2026-04-11 19:53:00,METAR KRIL 111953Z AUTO 28015KT 10SM -RA BKN055 BKN075 OVC085 11/06 A3002 RMK AO2 PK WND 27036/1857 RAE1856B26 SLP131 P0000 T01060056
2026-04-11 18:53:00,METAR KRIL 111853Z AUTO 27020G30KT 10SM -RA FEW060 OVC090 12/04 A2999 RMK AO2 PK WND 24050/1833 WSHFT 1805 LTG DSNT NE RAB34 SLP116 P0000 T01220044
2026-04-11 18:42:00,SPECI KRIL 111842Z AUTO 25024G50KT 8SM VCTS -RA FEW060 BKN080 OVC100 12/04 A2999 RMK AO2 PK WND 24050/1833 WSHFT 1805 LTG DSNT NE RAB34 PRESRR P0000 T01220044
2026-04-11 18:25:00,SPECI KRIL 111825Z AUTO 25029G38KT 10SM OVC100 16/00 A2995 RMK AO2 PK WND 26038/1820 WSHFT 1805 LTG DSNT SW T01560000
2026-04-11 17:53:00,METAR KRIL 111753Z AUTO 19010G22KT 10SM BKN100 BKN120 18/M03 A2993 RMK AO2 SLP081 T01831033 10189 20083 58014
2026-04-11 16:53:00,METAR KRIL 111653Z AUTO 22006KT 10SM BKN090 BKN110 18/M02 A2997 RMK AO2 SLP095 T01781022
2026-04-11 15:53:00,METAR KRIL 111553Z AUTO 17015G22KT 10SM BKN100 OVC120 18/M02 A2997 RMK AO2 SLP092 T01781022
2026-04-11 14:53:00,METAR KRIL 111453Z AUTO 10SM BKN100 17/M01 A2998 RMK AO2 SLP091 T01671006 50001
2026-04-11 13:53:00,METAR KRIL 111353Z AUTO 01004KT 10SM OVC100 12/M01 A2999 RMK AO2 SLP104 T01221006
2026-04-11 12:53:00,METAR KRIL 111253Z AUTO 24005KT 10SM SCT095 BKN120 12/M02 A2999 RMK AO2 SLP099 T01171022
2026-04-11 11:53:00,METAR KRIL 111153Z AUTO 00000KT 10SM BKN110 11/M02 A2997 RMK AO2 SLP093 T01111017 10139 20089 55001
2026-04-11 10:53:00,METAR KRIL 111053Z AUTO 05007KT 10SM CLR 09/M01 A2997 RMK AO2 SLP093 T00941006
2026-04-11 09:53:00,METAR KRIL 110953Z AUTO 00000KT 10SM CLR 11/M03 A2997 RMK AO2 SLP093 T01111033
2026-04-11 08:53:00,METAR KRIL 110853Z AUTO VRB04KT 10SM CLR 12/M04 A2998 RMK AO2 SLP091 T01221039 50003
2026-04-11 07:53:00,METAR KRIL 110753Z AUTO 05005KT 10SM CLR 12/M03 A2998 RMK AO2 SLP094 T01171033
2026-04-11 06:53:00,METAR KRIL 110653Z AUTO 11003KT 10SM CLR 12/M03 A2998 RMK AO2 SLP097 T01221033 402440050
2026-04-11 05:53:00,METAR KRIL 110553Z AUTO 08007KT 10SM CLR 13/M04 A2997 RMK AO2 SLP095 T01331039 10228 20133 51003
2026-04-11 04:53:00,METAR KRIL 110453Z AUTO 07007KT 10SM CLR 14/M04 A2997 RMK AO2 SLP096 T01391044
2026-04-11 03:53:00,METAR KRIL 110353Z AUTO VRB05KT 10SM CLR 18/M06 A2997 RMK AO2 SLP095 T01781056
2026-04-11 02:53:00,METAR KRIL 110253Z AUTO 21010KT 10SM CLR 20/M07 A2996 RMK AO2 SLP094 T02001067 58002
2026-04-11 01:53:00,METAR KRIL 110153Z AUTO 23011KT 10SM CLR 20/M07 A2996 RMK AO2 SLP104 T02001067
2026-04-11 00:53:00,METAR KRIL 110053Z AUTO 24011KT 10SM CLR 21/M07 A2997 RMK AO2 PK WND 25030/2355 SLP103 T02111067
2026-04-10 23:53:00,METAR KRIL 102353Z AUTO 24014G26KT 10SM CLR 23/M08 A2996 RMK AO2 PK WND 23029/2307 SLP100 T02281083 10244 20183 55003
2026-04-10 22:53:00,METAR KRIL 102253Z AUTO 22014G28KT 10SM CLR 24/M08 A2996 RMK AO2 PK WND 22032/2239 WSHFT 2221 SLP096 T02391083
2026-04-10 22:41:00,SPECI KRIL 102241Z AUTO 22020G32KT 10SM CLR 24/M08 A2996 RMK AO2 PK WND 22032/2239 WSHFT 2221 T02391078
2026-04-10 21:53:00,METAR KRIL 102153Z AUTO 19011G22KT 10SM CLR 23/M08 A2996 RMK AO2 SLP096 T02331078
2026-04-10 20:53:00,METAR KRIL 102053Z AUTO 20012G19KT 10SM CLR 24/M10 A2998 RMK AO2 WSHFT 2009 SLP098 T02391100 56020
2026-04-10 20:29:00,SPECI KRIL 102029Z AUTO 19014G24KT 10SM CLR 24/M09 A2998 RMK AO2 WSHFT 2009 T02391089
2026-04-10 19:53:00,METAR KRIL 101953Z AUTO 23010G19KT 10SM SCT120 24/M04 A2999 RMK AO2 SLP100 T02391039
2026-04-10 18:53:00,METAR KRIL 101853Z AUTO 31008KT 10SM CLR 21/M03 A3002 RMK AO2 SLP112 T02111028
2026-04-10 17:53:00,METAR KRIL 101753Z AUTO 35003KT 10SM CLR 18/M01 A3004 RMK AO2 SLP125 T01831006 10183 20050 57011
2026-04-10 16:53:00,METAR KRIL 101653Z AUTO 00000KT 10SM FEW120 17/01 A3006 RMK AO2 SLP133 T01670011
2026-04-10 15:53:00,METAR KRIL 101553Z AUTO 00000KT 10SM FEW120 14/01 A3007 RMK AO2 SLP138 T01390006
2026-04-10 14:53:00,METAR KRIL 101453Z AUTO VRB04KT 10SM CLR 11/00 A3008 RMK AO2 SLP143 T01060000 51007
2026-04-10 13:53:00,METAR KRIL 101353Z AUTO 03003KT 10SM SCT120 07/02 A3008 RMK AO2 SLP150 T00670022
2026-04-10 12:53:00,METAR KRIL 101253Z AUTO 00000KT 10SM CLR 06/00 A3006 RMK AO2 SLP139 T00610000
2026-04-10 11:53:00,METAR KRIL 101153Z AUTO 23004KT 10SM CLR 06/M01 A3006 RMK AO2 SLP132 T00611006 10117 20050 53003
2026-04-10 10:53:00,METAR KRIL 101053Z AUTO 00000KT 10SM CLR 06/M01 A3005 RMK AO2 SLP130 T00561006
2026-04-10 09:53:00,METAR KRIL 100953Z AUTO 00000KT 10SM CLR 07/00 A3005 RMK AO2 SLP127 T00720000
2026-04-10 08:53:00,METAR KRIL 100853Z AUTO 00000KT 10SM CLR 08/01 A3005 RMK AO2 SLP125 T00780006 51003
2026-04-10 07:53:00,METAR KRIL 100753Z AUTO 17005KT 10SM SCT120 10/00 A3004 RMK AO2 SLP117 T01000000
2026-04-10 06:53:00,METAR KRIL 100653Z AUTO 25006KT 10SM FEW120 11/00 A3005 RMK AO2 SLP120 T01110000 402440050
2026-04-10 05:53:00,METAR KRIL 100553Z AUTO 16003KT 10SM FEW120 11/M01 A3004 RMK AO2 SLP121 T01111006 10228 20100 51010
2026-04-10 04:53:00,METAR KRIL 100453Z AUTO 03004KT 10SM CLR 12/01 A3003 RMK AO2 SLP123 T01170006
2026-04-10 03:53:00,METAR KRIL 100353Z AUTO 00000KT 10SM CLR 14/00 A3002 RMK AO2 SLP122 T01390000
2026-04-10 02:53:00,METAR KRIL 100253Z AUTO 29006KT 10SM CLR 17/M01 A3000 RMK AO2 SLP114 T01671011 53011
2026-04-10 01:53:00,METAR KRIL 100153Z AUTO 21005KT 10SM CLR 18/M03 A2996 RMK AO2 SLP103 T01781028
2026-04-10 00:53:00,METAR KRIL 100053Z AUTO 30004KT 10SM CLR 21/M04 A2996 RMK AO2 SLP099 T02061039
2026-04-09 23:53:00,METAR KRIL 092353Z AUTO 35007KT 10SM CLR 22/M04 A2996 RMK AO2 SLP097 T02221039 10244 20200 56007
2026-04-09 22:53:00,METAR KRIL 092253Z AUTO 30011G18KT 10SM CLR 23/M03 A2997 RMK AO2 PK WND 30026/2236 SLP101 T02281033
2026-04-09 21:53:00,METAR KRIL 092153Z AUTO 01007G16KT 340V040 10SM CLR 23/M03 A2997 RMK AO2 PK WND 36026/2106 SLP099 T02281033
2026-04-09 20:53:00,METAR KRIL 092053Z AUTO 34011G23KT 10SM CLR 23/M02 A2999 RMK AO2 PK WND 31030/2012 WSHFT 2005 SLP109 T02281022 56015
2026-04-09 20:25:00,SPECI KRIL 092025Z AUTO 35015G29KT 10SM CLR 22/M02 A3000 RMK AO2 PK WND 31030/2012 WSHFT 2005 T02171017
2026-04-09 19:53:00,METAR KRIL 091953Z AUTO 25016G29KT 10SM CLR 24/M07 A2999 RMK AO2 PK WND 24029/1948 SLP104 T02391067
2026-04-09 18:53:00,METAR KRIL 091853Z AUTO 30010KT 10SM CLR 22/M03 A3001 RMK AO2 SLP113 T02221033
2026-04-09 17:53:00,METAR KRIL 091753Z AUTO VRB05KT 10SM CLR 20/M01 A3004 RMK AO2 SLP125 T02001011 10200 20061 58008
2026-04-09 16:53:00,METAR KRIL 091653Z AUTO 00000KT 10SM CLR 17/M01 A3006 RMK AO2 SLP134 T01671011
2026-04-09 15:53:00,METAR KRIL 091553Z AUTO 00000KT 10SM SCT110 14/M02 A3006 RMK AO2 SLP136 T01391017
2026-04-09 14:53:00,METAR KRIL 091453Z AUTO 24004KT 10SM BKN110 11/M02 A3007 RMK AO2 SLP141 T01111017 53007
2026-04-09 13:53:00,METAR KRIL 091353Z AUTO 16005KT 10SM BKN120 09/M02 A3005 RMK AO2 SLP131 T00891017
2026-04-09 12:53:00,METAR KRIL 091253Z AUTO 00000KT 10SM BKN120 08/M02 A3004 RMK AO2 SLP127 T00781017
2026-04-09 11:53:00,METAR KRIL 091153Z AUTO 31006KT 10SM FEW060 SCT085 BKN110 07/M02 A3005 RMK AO2 SLP128 T00721017 10100 20050 51003
2026-04-09 10:53:00,METAR KRIL 091053Z AUTO 18006KT 10SM FEW120 06/M02 A3004 RMK AO2 SLP127 T00561017
2026-04-09 09:53:00,METAR KRIL 090953Z AUTO 23005KT 10SM SCT120 07/M02 A3004 RMK AO2 SLP123 T00721022
2026-04-09 08:53:00,METAR KRIL 090853Z AUTO 33004KT 10SM CLR 06/M02 A3003 RMK AO2 SLP124 T00611022 51008
2026-04-09 07:53:00,METAR KRIL 090753Z AUTO 19003KT 10SM FEW120 08/M03 A3003 RMK AO2 SLP117 T00781028
2026-04-09 06:53:00,METAR KRIL 090653Z AUTO 00000KT 10SM CLR 08/M03 A3001 RMK AO2 SLP115 T00831033 402390011
2026-04-09 05:53:00,METAR KRIL 090553Z AUTO 00000KT 10SM CLR 09/M04 A3000 RMK AO2 SLP118 T00941039 10217 20094 51010
2026-04-09 04:53:00,METAR KRIL 090453Z AUTO 09006KT 10SM CLR 12/M04 A2999 RMK AO2 SLP114 T01171044
2026-04-09 03:53:00,METAR KRIL 090353Z AUTO 16007KT 10SM CLR 13/M03 A2999 RMK AO2 SLP115 T01331033
2026-04-09 02:53:00,METAR KRIL 090253Z AUTO 20005KT 10SM CLR 15/M03 A2997 RMK AO2 SLP113 T01501028 53010
2026-04-09 01:53:00,METAR KRIL 090153Z AUTO 28005KT 10SM CLR 18/M04 A2995 RMK AO2 SLP107 T01831044
2026-04-09 00:53:00,METAR KRIL 090053Z AUTO 31012KT 10SM BKN110 21/M05 A2994 RMK AO2 PK WND 28040/0014 SLP102 T02111050
2026-04-08 23:53:00,METAR KRIL 082353Z AUTO 25012G17KT 10SM FEW120 22/M06 A2993 RMK AO2 SLP095 T02171056 10239 20178 56005
2026-04-08 22:53:00,METAR KRIL 082253Z AUTO 23007KT 10SM SCT110 22/M06 A2994 RMK AO2 PK WND 24026/2158 SLP097 T02171061
2026-04-08 21:53:00,METAR KRIL 082153Z AUTO 24012G21KT 10SM CLR 23/M06 A2994 RMK AO2 PK WND 25028/2137 SLP092 T02331056
2026-04-08 20:53:00,METAR KRIL 082053Z AUTO 24012G21KT 10SM CLR 22/M06 A2995 RMK AO2 PK WND 26029/2013 SLP096 T02221056 56018
2026-04-08 19:53:00,METAR KRIL 081953Z AUTO 25019G27KT 10SM FEW110 23/M05 A2996 RMK AO2 PK WND 25029/1923 SLP097 T02281050
2026-04-08 18:53:00,METAR KRIL 081853Z AUTO 25016G26KT 220V280 10SM CLR 22/M06 A2998 RMK AO2 PK WND 27026/1852 SLP100 T02171056
2026-04-08 17:53:00,METAR KRIL 081753Z AUTO 36004KT 10SM CLR 17/M03 A3001 RMK AO2 SLP117 T01721033 10172 20011 58017
2026-04-08 16:53:00,METAR KRIL 081653Z AUTO 00000KT 10SM CLR 14/M03 A3005 RMK AO2 SLP134 T01391028
2026-04-08 15:53:00,METAR KRIL 081553Z AUTO 31003KT 10SM CLR 11/M02 A3006 RMK AO2 SLP142 T01111022
2026-04-08 14:53:00,METAR KRIL 081453Z AUTO 00000KT 10SM CLR 07/M02 A3007 RMK AO2 SLP148 T00671022 51016
2026-04-08 13:53:00,METAR KRIL 081353Z AUTO 00000KT 10SM CLR 04/M02 A3007 RMK AO2 SLP150 T00391022
2026-04-08 12:53:00,METAR KRIL 081253Z AUTO 00000KT 10SM CLR 02/M03 A3004 RMK AO2 SLP142 T00221028
2026-04-08 11:53:00,METAR KRIL 081153Z AUTO 00000KT 10SM CLR 03/M03 A3002 RMK AO2 SLP129 7//// T00331028 10117 20022 53007
2026-04-08 10:53:00,METAR KRIL 081053Z AUTO 00000KT 10SM CLR 04/M02 A3001 RMK AO2 SLP121 T00391022
2026-04-08 09:53:00,METAR KRIL 080953Z AUTO 17003KT 10SM CLR 06/M02 A3000 RMK AO2 SLP117 T00561022
2026-04-08 08:53:00,METAR KRIL 080853Z AUTO 00000KT 10SM CLR 07/M02 A2999 RMK AO2 SLP111 T00671022 53005
2026-04-08 07:53:00,METAR KRIL 080753Z AUTO VRB05KT 10SM CLR 07/M02 A2998 RMK AO2 SLP111 T00671017
2026-04-08 06:53:00,METAR KRIL 080653Z AUTO 11006KT 10SM BKN100 10/M02 A2998 RMK AO2 SLP103 T01001022 402170033
2026-04-08 05:53:00,METAR KRIL 080553Z AUTO 18004KT 10SM SCT120 11/M03 A2998 RMK AO2 SLP102 T01111028 10211 20100 51012
2026-04-08 04:53:00,METAR KRIL 080453Z AUTO 00000KT 10SM FEW110 12/M02 A2996 RMK AO2 SLP101 T01171022
2026-04-08 03:53:00,METAR KRIL 080353Z AUTO 25003KT 10SM CLR 13/M03 A2996 RMK AO2 SLP102 T01331033
2026-04-08 02:53:00,METAR KRIL 080253Z AUTO 25003KT 10SM FEW120 17/M05 A2994 RMK AO2 SLP096 T01671050 53010
2026-04-08 01:53:00,METAR KRIL 080153Z AUTO 26005KT 10SM SCT120 17/M05 A2991 RMK AO2 SLP091 T01671050
2026-04-08 00:53:00,METAR KRIL 080053Z AUTO 25006KT 10SM CLR 18/M06 A2991 RMK AO2 SLP092 T01781056
2026-04-07 23:53:00,METAR KRIL 072353Z AUTO 26014KT 10SM FEW110 20/M06 A2990 RMK AO2 SLP086 6//// T02001056 10217 20183 56012
2026-04-07 22:53:00,METAR KRIL 072253Z AUTO 26012G20KT 10SM SCT110 21/M04 A2991 RMK AO2 SLP085 T02111044
2026-04-07 21:53:00,METAR KRIL 072153Z AUTO 24011G17KT 10SM FEW120 20/M04 A2992 RMK AO2 SLP087 T02001044
2026-04-07 20:53:00,METAR KRIL 072053Z AUTO 24018G27KT 10SM FEW080 FEW100 21/M03 A2994 RMK AO2 PK WND 25027/2044 RAB09E19 SLP090 P0000 6//// T02111028 56021
2026-04-07 19:53:00,METAR KRIL 071953Z AUTO 26016G24KT 10SM SCT100 20/M04 A2997 RMK AO2 SLP102 T02001039
2026-04-07 18:53:00,METAR KRIL 071853Z AUTO 25014G18KT 10SM FEW110 20/M02 A2999 RMK AO2 SLP108 T02001022
2026-04-07 17:53:00,METAR KRIL 071753Z AUTO CLR 19/M02 A3002 RMK AO2 SLP117 6//// T01891022 10189 20033 58015 PWINO PNO $
2026-04-07 16:53:00,METAR KRIL 071653Z AUTO 00000KT 10SM CLR 16/M03 A3005 RMK AO2 SLP130 T01561028
2026-04-07 15:53:00,METAR KRIL 071553Z AUTO VRB03KT 10SM CLR 13/M04 A3006 RMK AO2 SLP138 T01281039
2026-04-07 14:53:00,METAR KRIL 071453Z AUTO 00000KT 10SM BKN100 09/M03 A3007 RMK AO2 SLP144 T00891028 53005
2026-04-07 13:53:00,METAR KRIL 071353Z AUTO 12003KT 10SM OVC110 07/M02 A3006 RMK AO2 SLP140 T00721022
2026-04-07 12:53:00,METAR KRIL 071253Z AUTO 16007KT 10SM BKN110 05/M01 A3005 RMK AO2 SLP139 T00501011 $
2026-04-07 11:53:00,METAR KRIL 071153Z AUTO 00000KT 10SM OVC110 04/M02 A3005 RMK AO2 SLP135 7//// T00441022 10106 20039 53003 $
2026-04-07 10:53:00,METAR KRIL 071053Z AUTO 00000KT 10SM CLR 05/M03 A3005 RMK AO2 SLP132 T00501028 $
2026-04-07 09:53:00,METAR KRIL 070953Z AUTO 00000KT 10SM CLR 07/M03 A3004 RMK AO2 SLP126 T00671028 $
2026-04-07 08:53:00,METAR KRIL 070853Z AUTO 00000KT 10SM CLR 08/M03 A3004 RMK AO2 SLP123 T00831028 51005 $
2026-04-07 07:53:00,METAR KRIL 070753Z AUTO 34003KT 10SM BKN120 08/M01 A3003 RMK AO2 SLP124 T00781011 $
2026-04-07 06:53:00,METAR KRIL 070653Z AUTO 03003KT 10SM FEW120 08/M02 A3003 RMK AO2 SLP129 T00831022 402281017 $
2026-04-07 05:53:00,METAR KRIL 070553Z AUTO 17003KT 10SM BKN120 09/M02 A3002 RMK AO2 SLP129 T00941022 10211 20089 51006 $
2026-04-07 04:53:00,METAR KRIL 070453Z AUTO 00000KT 10SM CLR 12/M05 A3002 RMK AO2 SLP131 T01171050 $
2026-04-07 03:53:00,METAR KRIL 070353Z AUTO 12007KT 070V130 10SM CLR 13/M05 A3002 RMK AO2 SLP133 T01281050 $
2026-04-07 02:53:00,METAR KRIL 070253Z AUTO 26003KT 10SM CLR 15/M06 A3000 RMK AO2 SLP130 T01501061 53002 $
2026-04-07 01:53:00,METAR KRIL 070153Z AUTO 23008KT 10SM CLR 18/M08 A2998 RMK AO2 SLP126 T01781083 $
2026-04-07 00:53:00,METAR KRIL 070053Z AUTO 26010KT 10SM CLR 19/M08 A2999 RMK AO2 SLP128 T01891083 $
2026-04-06 23:53:00,METAR KRIL 062353Z AUTO 26012G18KT 10SM CLR 21/M10 A2999 RMK AO2 SLP121 6//// T02111100 10228 20150 56017 $
2026-04-06 22:53:00,METAR KRIL 062253Z AUTO 26005G18KT 10SM CLR 22/M10 A3000 RMK AO2 SLP122 T02171100 $
2026-04-06 21:53:00,METAR KRIL 062153Z AUTO 25013G17KT 10SM CLR 22/M09 A3002 RMK AO2 SLP130 T02171094 $
2026-04-06 20:53:00,METAR KRIL 062053Z AUTO 21013G22KT 10SM CLR 21/M11 A3005 RMK AO2 SLP138 6//// T02111106 $
2026-04-06 19:53:00,METAR KRIL 061953Z AUTO 28014G23KT 10SM 21/M12 A3008 RMK AO2 SLP148 T02111117 $
2026-04-06 18:53:00,METAR KRIL 061853Z AUTO VRB05KT 10SM CLR 18/M07 A3012 RMK AO2 SLP166 T01831067
2026-04-06 17:53:00,METAR KRIL 061753Z AUTO VRB03KT 10SM CLR 15/M04 A3017 RMK AO2 SLP187 T01501039 10150 21017 58025
2026-04-06 16:53:00,METAR KRIL 061653Z AUTO VRB04KT 10SM CLR 12/M04 A3021 RMK AO2 SLP203 T01221044
2026-04-06 15:53:00,METAR KRIL 061553Z AUTO 00000KT 10SM CLR 09/M03 A3024 RMK AO2 SLP214 T00891033
2026-04-06 14:53:00,METAR KRIL 061453Z AUTO 13003KT 10SM CLR 05/M03 A3026 RMK AO2 SLP229 T00501028 50004
2026-04-06 13:53:00,METAR KRIL 061353Z AUTO 00000KT 10SM CLR 01/M03 A3028 RMK AO2 SLP233 T00111028
2026-04-06 12:53:00,METAR KRIL 061253Z AUTO 13003KT 10SM CLR M01/M04 A3026 RMK AO2 SLP225 T10061039
2026-04-06 11:53:00,METAR KRIL 061153Z AUTO 00000KT 10SM CLR 01/M04 A3025 RMK AO2 SLP212 T00111044 10067 20006 58004
2026-04-06 10:53:00,METAR KRIL 061053Z AUTO 00000KT 10SM CLR 01/M04 A3025 RMK AO2 SLP216 T00061039
2026-04-06 09:53:00,METAR KRIL 060953Z AUTO VRB04KT 10SM CLR 01/M03 A3026 RMK AO2 SLP218 T00061033
2026-04-06 08:53:00,METAR KRIL 060853Z AUTO 00000KT 10SM CLR 02/M03 A3026 RMK AO2 SLP219 T00171028 50001
2026-04-06 07:53:00,METAR KRIL 060753Z AUTO 00000KT 10SM CLR 03/M03 A3027 RMK AO2 SLP223 T00281033
2026-04-06 06:53:00,METAR KRIL 060653Z AUTO 00000KT 10SM CLR 05/M03 A3026 RMK AO2 SLP223 T00501033 402001017
2026-04-06 05:53:00,METAR KRIL 060553Z AUTO 00000KT 10SM CLR 06/M03 A3026 RMK AO2 SLP220 T00611033 10194 20056 51010
2026-04-06 04:53:00,METAR KRIL 060453Z AUTO 18003KT 10SM CLR 07/M04 A3025 RMK AO2 SLP221 T00671039
2026-04-06 03:53:00,METAR KRIL 060353Z AUTO 10005KT 10SM CLR 10/M04 A3024 RMK AO2 SLP220 T01001044
2026-04-06 02:53:00,METAR KRIL 060253Z AUTO 13007KT 10SM CLR 11/M05 A3022 RMK AO2 SLP217 T01061050 53005
2026-04-06 01:53:00,METAR KRIL 060153Z AUTO 26006KT 10SM CLR 14/M09 A3020 RMK AO2 SLP207 T01441089
2026-04-06 00:53:00,METAR KRIL 060053Z AUTO 27011KT 10SM CLR 18/M12 A3020 RMK AO2 SLP203 T01831122
2026-04-05 23:53:00,METAR KRIL 052353Z AUTO 27015KT 10SM CLR 19/M13 A3021 RMK AO2 SLP203 T01941128 10200 20122 56017
2026-04-05 22:53:00,METAR KRIL 052253Z AUTO 26013KT 10SM CLR 19/M11 A3022 RMK AO2 SLP204 T01941106
2026-04-05 21:53:00,METAR KRIL 052153Z AUTO 29007KT 10SM CLR 19/M06 A3024 RMK AO2 SLP212 T01891056
2026-04-05 20:53:00,METAR KRIL 052053Z AUTO VRB04KT 10SM CLR 18/M06 A3027 RMK AO2 SLP221 T01781061 56028
2026-04-05 19:53:00,METAR KRIL 051953Z AUTO 00000KT 10SM CLR 16/M06 A3030 RMK AO2 SLP236 T01611061
2026-04-05 18:53:00,METAR KRIL 051853Z AUTO 00000KT 10SM CLR 14/M05 A3033 RMK AO2 SLP248 T01391050
2026-04-05 17:53:00,METAR KRIL 051753Z AUTO VRB03KT 10SM CLR 12/M02 A3036 RMK AO2 SLP263 T01221022 10122 21017 58014
2026-04-05 16:53:00,METAR KRIL 051653Z AUTO 00000KT 10SM CLR 09/M02 A3039 RMK AO2 SLP275 T00941017
2026-04-05 15:53:00,METAR KRIL 051553Z AUTO 00000KT 10SM CLR 07/M02 A3040 RMK AO2 SLP280 T00671017
2026-04-05 14:53:00,METAR KRIL 051453Z AUTO 00000KT 10SM CLR 03/M01 A3041 RMK AO2 SLP287 T00331011 51005
2026-04-05 12:53:00,METAR KRIL 051253Z AUTO 11004KT 10SM CLR M01/M03 A3040 RMK AO2 SLP283 T10111033
2026-04-05 11:53:00,METAR KRIL 051153Z AUTO 00000KT 10SM CLR M01/M03 A3040 RMK AO2 SLP281 T10111033 10044 21011 53005
2026-04-05 10:53:00,METAR KRIL 051053Z AUTO 00000KT 10SM CLR 00/M03 A3039 RMK AO2 SLP276 T00001028
2026-04-05 09:53:00,METAR KRIL 050953Z AUTO 00000KT 10SM CLR 01/M03 A3038 RMK AO2 SLP275 T00061028
2026-04-05 08:53:00,METAR KRIL 050853Z AUTO 00000KT 10SM CLR 02/M02 A3038 RMK AO2 SLP272 T00171022 50002
2026-04-05 07:53:00,METAR KRIL 050753Z AUTO 00000KT 10SM CLR 02/M02 A3038 RMK AO2 SLP275 T00171017
2026-04-05 06:53:00,METAR KRIL 050653Z AUTO 00000KT 10SM CLR 03/M02 A3037 RMK AO2 SLP272 T00331022 401441028
2026-04-05 05:53:00,METAR KRIL 050553Z AUTO 11004KT 10SM CLR 04/M02 A3037 RMK AO2 SLP274 T00391017 10144 20039 51013
2026-04-05 04:53:00,METAR KRIL 050453Z AUTO 14004KT 10SM CLR 04/M01 A3036 RMK AO2 SLP275 T00441006
2026-04-05 03:53:00,METAR KRIL 050353Z AUTO 00000KT 10SM CLR 07/M01 A3035 RMK AO2 SLP268 T00721006
2026-04-05 02:53:00,METAR KRIL 050253Z AUTO 00000KT 10SM CLR 10/M03 A3032 RMK AO2 SLP260 T01001028 53010
2026-04-05 01:53:00,METAR KRIL 050153Z AUTO 21005KT 10SM CLR 10/M01 A3030 RMK AO2 SLP256 T01001006
2026-04-05 00:53:00,METAR KRIL 050053Z AUTO 00000KT 10SM CLR 14/M05 A3029 RMK AO2 SLP247 T01391050
2026-04-04 23:53:00,METAR KRIL 042353Z AUTO 10SM CLR 14/M06 A3029 RMK AO2 SLP246 T01441056 10144 20078 56015
2026-04-04 22:53:00,METAR KRIL 042253Z AUTO 00000KT 10SM CLR 14/M06 A3030 RMK AO2 SLP250 T01391061
2026-04-04 21:53:00,METAR KRIL 042153Z AUTO 00000KT 10SM CLR 13/M04 A3032 RMK AO2 SLP258 T01281039
2026-04-04 20:53:00,METAR KRIL 042053Z AUTO VRB04KT 10SM CLR 12/M04 A3034 RMK AO2 SLP265 T01221039 56023
2026-04-04 19:53:00,METAR KRIL 041953Z AUTO VRB05KT 10SM CLR 12/M04 A3037 RMK AO2 SLP274 T01171044
2026-04-04 18:53:00,METAR KRIL 041853Z AUTO VRB03KT 10SM CLR 09/M06 A3040 RMK AO2 SLP288 T00941056
2026-04-04 17:53:00,METAR KRIL 041753Z AUTO 00000KT 10SM CLR 08/M04 A3042 RMK AO2 SLP300 T00781044 10078 21028 58010
2026-04-04 16:53:00,METAR KRIL 041653Z AUTO VRB03KT 10SM CLR 06/M04 A3044 RMK AO2 SLP311 T00561044
2026-04-04 15:53:00,METAR KRIL 041553Z AUTO 02004KT 10SM CLR 03/M04 A3045 RMK AO2 SLP317 T00331039
2026-04-04 14:53:00,METAR KRIL 041453Z AUTO 08004KT 10SM CLR 01/M04 A3046 RMK AO2 SLP323 T00061044 51007
2026-04-04 13:53:00,METAR KRIL 041353Z AUTO 00000KT 10SM CLR M02/M04 A3046 RMK AO2 SLP325 T10171039
2026-04-04 12:53:00,METAR KRIL 041253Z AUTO 00000KT 10SM CLR M02/M06 A3044 RMK AO2 SLP316 T10221056
2026-04-04 11:53:00,METAR KRIL 041153Z AUTO 18003KT 10SM CLR M02/M04 A3044 RMK AO2 SLP312 T10221044 10006 21022 53005
2026-04-04 10:53:00,METAR KRIL 041053Z AUTO 00000KT 10SM CLR M02/M04 A3043 RMK AO2 SLP308 T10171044
2026-04-04 09:53:00,METAR KRIL 040953Z AUTO 00000KT 10SM SCT075 M02/M03 A3042 RMK AO2 SLP307 T10171033
2026-04-04 08:53:00,METAR KRIL 040853Z AUTO 00000KT 10SM CLR M01/M03 A3042 RMK AO2 SLP302 T10061033 51008
2026-04-04 07:53:00,METAR KRIL 040753Z AUTO 11004KT 10SM CLR 00/M04 A3041 RMK AO2 SLP301 T00001039
2026-04-04 06:53:00,METAR KRIL 040653Z AUTO 10003KT 10SM CLR 00/M03 A3040 RMK AO2 SLP303 T00001033 400721072
2026-04-04 05:53:00,METAR KRIL 040553Z AUTO 10006KT 10SM CLR 01/M03 A3039 RMK AO2 SLP300 T00061033 10072 20000 51017
2026-04-04 04:53:00,METAR KRIL 040453Z AUTO 12006KT 10SM CLR 01/M02 A3038 RMK AO2 SLP302 T00111022
2026-04-04 03:53:00,METAR KRIL 040353Z AUTO 12005KT 10SM CLR 02/M01 A3036 RMK AO2 SLP297 T00221011
2026-04-04 02:53:00,METAR KRIL 040253Z AUTO 08007KT 10SM CLR 04/M03 A3033 RMK AO2 SLP288 T00391033 53020
2026-04-04 01:53:00,METAR KRIL 040153Z AUTO 08006KT 10SM BKN085 05/M04 A3030 RMK AO2 SLP281 T00501039
2026-04-04 00:53:00,METAR KRIL 040053Z AUTO 08008KT 10SM OVC090 07/M04 A3028 RMK AO2 SLP270 T00671039
2026-04-03 23:53:00,METAR KRIL 032353Z AUTO 14003KT 10SM OVC080 07/M06 A3026 RMK AO2 SLP259 T00721056 10072 20022 53009
2026-04-03 22:53:00,METAR KRIL 032253Z AUTO 00000KT 10SM OVC080 07/M07 A3025 RMK AO2 SLP250 T00671067
2026-04-03 21:53:00,METAR KRIL 032153Z AUTO 23005KT 10SM OVC080 07/M07 A3024 RMK AO2 SLP245 T00671067
2026-04-03 20:53:00,METAR KRIL 032053Z AUTO VRB04KT 10SM OVC075 07/M06 A3023 RMK AO2 SLP240 T00671061 51001
2026-04-03 19:53:00,METAR KRIL 031953Z AUTO VRB05KT 10SM SCT065 07/M07 A3023 RMK AO2 SLP240 T00671072
2026-04-03 18:53:00,METAR KRIL 031853Z AUTO VRB05KT 10SM CLR 04/M07 A3023 RMK AO2 SLP244 T00391072
2026-04-03 17:53:00,METAR KRIL 031753Z AUTO 12004KT 10SM CLR 02/M04 A3023 RMK AO2 SLP247 T00221044 10022 21072 50005
2026-04-03 16:53:00,METAR KRIL 031653Z AUTO 00000KT 10SM CLR M01/M04 A3024 RMK AO2 SLP255 T10061044
2026-04-03 15:53:00,METAR KRIL 031553Z AUTO 00000KT 10SM SCT085 M02/M04 A3022 RMK AO2 SLP253 T10171039
2026-04-03 14:53:00,METAR KRIL 031453Z AUTO 12005KT 10SM CLR M04/M07 A3021 RMK AO2 SLP245 T10441072 51024
2026-04-03 13:53:00,METAR KRIL 031353Z AUTO 13004KT 10SM CLR M07/M08 A3019 RMK AO2 SLP237 T10671083
2026-04-03 13:20:00,SPECI KRIL 031320Z AUTO 00000KT 10SM FEW028 M06/M08 A3017 RMK AO2 T10611078
2026-04-03 13:10:00,SPECI KRIL 031310Z AUTO 13007KT 1 1/4SM BR FEW001 M06/M08 A3017 RMK AO2 T10561078
2026-04-03 12:53:00,METAR KRIL 031253Z AUTO VRB04KT 10SM CLR M06/M08 A3016 RMK AO2 SLP211 T10611083
2026-04-03 11:53:00,METAR KRIL 031153Z AUTO 20006KT 6SM BR CLR M06/M06 A3012 RMK AO2 SLP192 60007 70025 I1001 I6001 T10561061 10000 21056 53012
2026-04-03 11:51:00,SPECI KRIL 031151Z AUTO 19005KT 3SM BR FEW003 M06/M06 A3012 RMK AO2 I1001
2026-04-03 11:47:00,SPECI KRIL 031147Z AUTO 19006KT 1 1/4SM BR FEW003 M05/M06 A3012 RMK AO2 I1001
2026-04-03 11:44:00,SPECI KRIL 031144Z AUTO 20006KT 3/4SM BR VV003 M05/M05 A3013 RMK AO2 I1001 T10501050
2026-04-03 11:37:00,SPECI KRIL 031137Z AUTO 00000KT 1/4SM FZFG VV003 M03/M04 A3012 RMK AO2 I1001 T10331039
2026-04-03 11:29:00,SPECI KRIL 031129Z AUTO 00000KT 1/2SM FZFG VV003 M04/M05 A3012 RMK AO2 I1000 T10391050
2026-04-03 11:18:00,SPECI KRIL 031118Z AUTO 00000KT 3/4SM BR CLR M04/M04 A3012 RMK AO2 VIS 1/4V5 I1000 T10391044
2026-04-03 11:15:00,SPECI KRIL 031115Z AUTO 00000KT 1 1/2SM BR FEW110 M03/M04 A3012 RMK AO2 VIS 1/4V5 I1000 T10331044
2026-04-03 08:53:00,METAR KRIL 030853Z AUTO 03003KT 10SM OVC085 M02/M02 A3008 RMK AO2 SNE01 SLP168 P0000 60007 T10171022 51017
2026-04-03 08:01:00,SPECI KRIL 030801Z AUTO 00000KT 7SM OVC043 M01/M02 A3007 RMK AO2 SNE01 P0000 T10111022
2026-04-03 06:28:00,SPECI KRIL 030628Z AUTO 27013KT 1/2SM SN FG VV010 00/M01 A3006 RMK AO2 P0003 T00001006
2026-04-03 06:15:00,SPECI KRIL 030615Z AUTO 30017G22KT 1/4SM +SN FG VV005 00/M01 A3004 RMK AO2 P0002 T00001006
2026-04-03 06:00:00,SPECI KRIL 030600Z AUTO 30016G21KT 1/4SM +SN FG VV004 00/00 A3003 RMK AO2 P0001 T00000000
2026-04-03 05:53:00,METAR KRIL 030553Z AUTO 30014KT 1/2SM SN FG VV004 00/00 A3002 RMK AO2 SLP156 P0007 60018 T00000000 10150 20000 50017
2026-04-03 05:50:00,SPECI KRIL 030550Z AUTO 29010KT 1/2SM SN FG VV004 00/00 A3002 RMK AO2 P0006
2026-04-03 04:53:00,METAR KRIL 030453Z AUTO 27008KT 1/2SM SN FG VV006 00/00 A2999 RMK AO2 SLP147 P0009 T00000000
2026-04-03 04:40:00,SPECI KRIL 030440Z AUTO 28007KT 1/2SM SN FG VV008 01/00 A2998 RMK AO2 P0006 T00060000
2026-04-03 04:32:00,SPECI KRIL 030432Z AUTO 25008KT 1SM -SN BR VV009 01/00 A2999 RMK AO2 P0004 T00060000
2026-04-03 04:13:00,SPECI KRIL 030413Z AUTO 27009KT 1 1/4SM -SN BR OVC010 01/00 A2997 RMK AO2 P0002 T00060000
2026-04-03 04:07:00,SPECI KRIL 030407Z AUTO 27007KT 1SM -SN BR VV009 01/00 A2997 RMK AO2 P0002 T00060000
2026-04-03 03:53:00,METAR KRIL 030353Z AUTO 29008KT 1 1/4SM -SN BR OVC013 01/00 A2996 RMK AO2 PK WND 32032/0258 RAE24SNB24 SLP140 P0002 T00060000
2026-04-03 03:50:00,SPECI KRIL 030350Z AUTO 29009G19KT 1 1/4SM -SN BR OVC013 01/00 A2996 RMK AO2 PK WND 32032/0258 RAE24SNB24 P0002
2026-04-03 03:46:00,SPECI KRIL 030346Z AUTO 30011KT 1 1/2SM -SN BR FEW011 OVC015 01/00 A2996 RMK AO2 PK WND 32032/0258 RAE24SNB24 P0002 T00110000
2026-04-03 03:41:00,SPECI KRIL 030341Z AUTO 30014G25KT 2 1/2SM -SN BR FEW011 OVC019 02/00 A2996 RMK AO2 PK WND 32032/0258 VIS 1 3/4V5 RAE24SNB24 PRESRR P0001 T00170000
2026-04-03 03:31:00,SPECI KRIL 030331Z AUTO 31015G30KT 5SM -SN BKN023 OVC044 03/M01 A2994 RMK AO2 PK WND 32032/0258 RAE24SNB24 PRESRR P0001 T00281006
2026-04-03 02:53:00,METAR KRIL 030253Z AUTO 31022G32KT 9SM -RA BKN032 OVC042 04/00 A2986 RMK AO2 PK WND 31048/0228 RAE14B22 TSB12E27 SLP097 P0000 60000 T00390000 53062
2026-04-03 02:33:00,SPECI KRIL 030233Z AUTO 31023G48KT 10SM -RA OVC043 05/M01 A2983 RMK AO2 PK WND 31048/0228 LTG DSNT S RAE14B22 TSB12E27 PRESRR P0000 T00501006
2026-04-03 02:18:00,SPECI KRIL 030218Z AUTO 32026G42KT 10SM TS OVC050 06/00 A2980 RMK AO2 PK WND 32042/0212 LTG DSNT S RAE14 TSB12 PRESRR P0000 T00560000
2026-04-03 02:11:00,SPECI KRIL 030211Z AUTO 32026G41KT 10SM VCTS -RA BKN050 OVC060 06/01 A2979 RMK AO2 PK WND 33041/0203 PRESRR P0000 T00560006
2026-04-03 01:53:00,METAR KRIL 030153Z AUTO 32025G47KT 9SM -RA OVC055 06/02 A2975 RMK AO2 PK WND 32048/0126 WSHFT 0120 SLP059 P0000 T00610017
2026-04-03 01:40:00,SPECI KRIL 030140Z AUTO 32033G45KT 10SM -RA BKN055 OVC070 08/01 A2974 RMK AO2 PK WND 32048/0126 WSHFT 0120 P0000 T00780011
2026-04-03 00:53:00,METAR KRIL 030053Z AUTO 23009G34KT 190V250 8SM -RA BKN048 BKN060 OVC075 13/02 A2966 RMK AO2 PK WND 26034/0046 RAB2358 SLP015 P0000 T01280022
2026-04-02 23:53:00,METAR KRIL 022353Z AUTO 24014KT 10SM FEW060 BKN080 OVC090 15/00 A2965 RMK AO2 RAB12E22 SLP003 P0000 60000 T01500000 10183 20100 55005
2026-04-02 22:53:00,METAR KRIL 022253Z AUTO 27009KT 10SM BKN090 OVC110 16/02 A2964 RMK AO2 SLP000 T01560017
2026-04-02 21:53:00,METAR KRIL 022153Z AUTO 25009G19KT 10SM BKN085 OVC100 17/00 A2965 RMK AO2 SLP000 T01670000
2026-04-02 20:53:00,METAR KRIL 022053Z AUTO 05004KT 10SM 16/01 A2966 RMK AO2 SLP006 T01560011 $
2026-04-02 19:53:00,METAR KRIL 021953Z AUTO 12006KT 10SM FEW075 SCT090 14/03 A2970 RMK AO2 SLP021 T01440028
2026-04-02 18:53:00,METAR KRIL 021853Z AUTO VRB04KT 10SM BKN065 BKN085 12/03 A2973 RMK AO2 SLP037 T01220028
2026-04-02 17:53:00,METAR KRIL 021753Z AUTO 00000KT 10SM BKN065 OVC080 10/04 A2977 RMK AO2 SLP055 60000 T01000039 10100 20050 58016
2026-04-02 16:53:00,METAR KRIL 021653Z AUTO 00000KT 10SM OVC065 08/05 A2980 RMK AO2 SLP069 T00830050
2026-04-02 15:53:00,METAR KRIL 021553Z AUTO 00000KT 10SM OVC070 07/05 A2981 RMK AO2 SLP074 T00720050
2026-04-02 14:53:00,METAR KRIL 021453Z AUTO 00000KT 10SM OVC060 07/05 A2983 RMK AO2 SLP081 60000 T00670050 53000
2026-04-02 13:53:00,METAR KRIL 021353Z AUTO 06004KT 10SM FEW060 05/04 A2981 RMK AO2 SLP077 T00500039
2026-04-02 12:53:00,METAR KRIL 021253Z AUTO 15006KT 10SM FEW050 OVC090 05/04 A2981 RMK AO2 RAE00 SLP079 P0000 T00500044
2026-04-02 11:53:00,METAR KRIL 021153Z AUTO 00000KT 10SM -RA FEW006 BKN070 OVC080 05/05 A2983 RMK AO2 RAB28 SLP083 P0000 60000 70035 T00500050 10072 20050 55003
2026-04-02 10:53:00,METAR KRIL 021053Z AUTO 00000KT 10SM OVC095 06/04 A2982 RMK AO2 SLP075 T00560039
2026-04-02 09:53:00,METAR KRIL 020953Z AUTO 00000KT 10SM FEW023 OVC100 06/04 A2983 RMK AO2 SLP081 T00560044
2026-04-02 09:37:00,SPECI KRIL 020937Z AUTO 20003KT 10SM SCT023 OVC095 06/05 A2984 RMK AO2 T00560050
2026-04-02 09:12:00,SPECI KRIL 020912Z AUTO 00000KT 10SM BKN024 06/05 A2984 RMK AO2 T00610050
2026-04-02 08:53:00,METAR KRIL 020853Z AUTO 00000KT 10SM SCT024 06/04 A2984 RMK AO2 SLP079 60000 T00610044 58005
2026-04-02 07:53:00,METAR KRIL 020753Z AUTO 07003KT 10SM BKN025 OVC034 06/05 A2985 RMK AO2 SLP085 T00610050
2026-04-02 07:39:00,SPECI KRIL 020739Z AUTO 00000KT 10SM BKN023 OVC035 06/04 A2986 RMK AO2 T00610044
2026-04-02 06:53:00,METAR KRIL 020653Z AUTO 00000KT 10SM FEW024 BKN034 OVC095 07/05 A2985 RMK AO2 RAB24E52 SLP084 P0000 T00670050 401060061
2026-04-02 06:48:00,SPECI KRIL 020648Z AUTO 00000KT 6SM -RA BR FEW024 BKN034 OVC042 07/05 A2985 RMK AO2 RAB24 P0000
2026-04-02 06:11:00,SPECI KRIL 020611Z AUTO 00000KT 10SM BKN024 BKN028 OVC080 07/04 A2985 RMK AO2 T00670044
2026-04-02 05:53:00,METAR KRIL 020553Z AUTO 13004KT 10SM FEW023 BKN070 OVC085 07/04 A2985 RMK AO2 SLP081 60009 T00670044 10072 20061 51013
2026-04-02 04:53:00,METAR KRIL 020453Z AUTO 09004KT 10SM BKN060 OVC090 06/04 A2985 RMK AO2 SLP082 T00610044
2026-04-02 03:53:00,METAR KRIL 020353Z AUTO 18005KT 10SM SCT017 SCT037 OVC050 07/04 A2984 RMK AO2 SLP079 T00670039
2026-04-02 02:53:00,METAR KRIL 020253Z AUTO 25008KT 10SM OVC055 07/04 A2981 RMK AO2 RAE20 SLP071 P0001 60009 T00670044 53011
2026-04-02 02:34:00,SPECI KRIL 020234Z AUTO 27007KT 10SM FEW025 BKN050 OVC055 07/04 A2980 RMK AO2 RAE20 P0001 T00670044
2026-04-02 02:16:00,SPECI KRIL 020216Z AUTO 00000KT 9SM -RA BKN028 OVC034 06/05 A2979 RMK AO2 P0001 T00610050
2026-04-02 01:53:00,METAR KRIL 020153Z AUTO 00000KT 10SM -RA FEW019 OVC033 07/04 A2979 RMK AO2 RAE18B49 SLP065 P0000 T00670044
2026-04-02 00:53:00,METAR KRIL 020053Z AUTO 02003KT 10SM -RA BKN049 OVC065 07/05 A2978 RMK AO2 SLP060 P0008 T00670050
2026-04-02 00:25:00,SPECI KRIL 020025Z AUTO 29004KT 5SM -RA BR FEW025 OVC037 07/05 A2978 RMK AO2 P0006 T00670050
2026-04-02 00:10:00,SPECI KRIL 020010Z AUTO 25008KT 2SM RA BR FEW025 OVC033 07/06 A2978 RMK AO2 LTG DSNT SE P0004 T00720056
2026-04-01 23:53:00,METAR KRIL 012353Z AUTO 27004KT 4SM -RA BR FEW018 BKN037 OVC047 07/06 A2977 RMK AO2 LTG DSNT SE RAB09 SLP055 P0008 60018 T00720056 10106 20072 51015
2026-04-01 23:50:00,SPECI KRIL 012350Z AUTO 00000KT 2SM -RA BR FEW018 BKN037 OVC047 07/06 A2976 RMK AO2 RAB09 P0008
2026-04-01 23:41:00,SPECI KRIL 012341Z AUTO 31004KT 5SM -RA BR FEW016 BKN032 OVC047 08/06 A2976 RMK AO2 LTG DSNT S RAB09 P0007 T00780056
2026-04-01 23:31:00,SPECI KRIL 012331Z AUTO 28005KT 2SM RA BR FEW014 BKN031 OVC045 07/05 A2975 RMK AO2 LTG DSNT S AND SW RAB09 P0007 T00720050
2026-04-01 23:25:00,SPECI KRIL 012325Z AUTO 26005KT 1 1/4SM RA BR SCT016 SCT024 OVC029 07/05 A2975 RMK AO2 LTG DSNT SW RAB09 P0006 T00720050
2026-04-01 23:17:00,SPECI KRIL 012317Z AUTO 27010KT 2SM -RA BR SCT016 BKN025 OVC035 08/06 A2975 RMK AO2 LTG DSNT SW RAB09 P0003 T00780061
2026-04-01 23:13:00,SPECI KRIL 012313Z AUTO 27011G16KT 4SM RA BR FEW013 SCT018 OVC037 08/06 A2975 RMK AO2 LTG DSNT SW RAB09 P0002 T00830061
2026-04-01 22:53:00,METAR KRIL 012253Z AUTO 04004KT 10SM SCT020 BKN027 OVC037 08/05 A2973 RMK AO2 LTG DSNT SW RAB03E50 SLP042 P0001 T00830050
2026-04-01 22:31:00,SPECI KRIL 012231Z AUTO 00000KT 10SM -RA FEW023 BKN029 OVC037 08/06 A2973 RMK AO2 RAB03 P0000 T00830056
2026-04-01 22:10:00,SPECI KRIL 012210Z AUTO 08005KT 8SM -RA BKN030 OVC036 08/06 A2973 RMK AO2 RAB03 P0000 T00830056
2026-04-01 21:53:00,METAR KRIL 012153Z AUTO 08005KT 10SM FEW014 SCT022 OVC027 08/06 A2972 RMK AO2 RAE46 SLP036 P0001 T00830061
2026-04-01 21:49:00,SPECI KRIL 012149Z AUTO 07005KT 10SM SCT014 BKN022 OVC027 08/06 A2972 RMK AO2 RAE46 P0001
2026-04-01 21:21:00,SPECI KRIL 012121Z AUTO 09007KT 10SM -RA BKN013 BKN021 OVC049 09/07 A2971 RMK AO2 P0001 T00890067
2026-04-01 21:13:00,SPECI KRIL 012113Z AUTO 09006KT 10SM -RA SCT013 BKN018 OVC060 09/07 A2972 RMK AO2 P0000 T00890067
2026-04-01 20:53:00,METAR KRIL 012053Z AUTO 24007KT 10SM -RA FEW016 BKN049 OVC070 09/06 A2971 RMK AO2 PK WND 27029/1957 SLP032 P0006 60008 T00890061 55006
2026-04-01 20:13:00,SPECI KRIL 012013Z AUTO 27008KT 3SM -RA BR FEW024 OVC035 08/06 A2971 RMK AO2 PK WND 27029/1957 P0006 T00780056
2026-04-01 20:01:00,SPECI KRIL 012001Z AUTO 26021G29KT 1 3/4SM +RA BR SCT024 BKN033 OVC042 08/06 A2971 RMK AO2 PK WND 27029/1957 P0003 T00780056
2026-04-01 19:53:00,METAR KRIL 011953Z AUTO 27018G25KT 4SM -RA BR FEW022 BKN033 OVC050 09/07 A2971 RMK AO2 RAB29 SLP032 P0002 T00890067
2026-04-01 18:53:00,METAR KRIL 011853Z AUTO 27008KT 10SM BKN049 OVC060 10/06 A2972 RMK AO2 RAE28 SLP032 P0000 T01000061
2026-04-01 17:53:00,METAR KRIL 011753Z AUTO 29006KT 10SM -RA OVC050 11/07 A2974 RMK AO2 RAE11B32 SLP035 P0000 60008 T01060067 10106 20072 58012
2026-04-01 16:53:00,METAR KRIL 011653Z AUTO 27005KT 10SM -RA OVC055 10/07 A2975 RMK AO2 RAB47 SLP038 P0000 T01000067
2026-04-01 15:53:00,METAR KRIL 011553Z AUTO 02003KT 10SM FEW047 OVC055 08/07 A2977 RMK AO2 RAE26 SLP045 P0002 T00830067
2026-04-01 14:53:00,METAR KRIL 011453Z AUTO 00000KT 10SM -RA OVC050 07/06 A2978 RMK AO2 SLP048 P0002 60006 T00720061 56007
2026-04-01 13:53:00,METAR KRIL 011353Z AUTO 09006KT 10SM -RA OVC048 07/06 A2979 RMK AO2 SLP049 P0001 T00720061
2026-04-01 12:53:00,METAR KRIL 011253Z AUTO 09007KT 10SM -RA FEW039 OVC050 07/06 A2979 RMK AO2 SLP048 P0003 T00720061
2026-04-01 11:53:00,METAR KRIL 011153Z AUTO 12007KT 7SM -RA BKN034 OVC041 08/07 A2980 RMK AO2 SLP051 P0006 60008 70009 T00780067 10089 20078 58013
2026-04-01 10:53:00,METAR KRIL 011053Z AUTO 25004KT 6SM -RA BR OVC045 08/07 A2982 RMK AO2 SLP058 P0002 T00780067
2026-04-01 09:53:00,METAR KRIL 010953Z AUTO 26003KT 10SM -RA BKN050 OVC060 08/06 A2983 RMK AO2 RAB51 SLP060 P0000 T00830056
2026-04-01 08:53:00,METAR KRIL 010853Z AUTO 08006KT 10SM BKN065 09/06 A2985 RMK AO2 SLP064 60000 T00890056 58021
2026-04-01 07:53:00,METAR KRIL 010753Z AUTO 07007KT 10SM BKN060 OVC095 09/06 A2988 RMK AO2 RAE0655 SLP072 P0000 T00890056
2026-04-01 06:53:00,METAR KRIL 010653Z AUTO 09006KT 10SM -RA SCT060 OVC080 09/06 A2990 RMK AO2 RAB0558E24B43 SLP076 P0000 T00890061 402060050
2026-04-01 05:53:00,METAR KRIL 010553Z AUTO 07005KT 10SM OVC060 09/07 A2992 RMK AO2 RAB10E45 SLP092 P0001 60001 T00890067 10167 20089 50008
2026-04-01 04:53:00,METAR KRIL 010453Z AUTO 28009KT 10SM BKN060 OVC075 11/04 A2993 RMK AO2 RAB27E36 SLP099 P0000 T01060044
2026-04-01 03:53:00,METAR KRIL 010353Z AUTO 19011KT 10SM OVC065 13/02 A2993 RMK AO2 PK WND 20026/0305 SLP098 T01280022
2026-04-01 02:53:00,METAR KRIL 010253Z AUTO 19016G28KT 10SM BKN070 OVC085 14/01 A2989 RMK AO2 PK WND 18028/0246 RAB00E09 SLP085 P0000 60000 T01390011 56001
2026-04-01 01:53:00,METAR KRIL 010153Z AUTO 16009G16KT 10SM OVC085 14/01 A2989 RMK AO2 RAB11E24 SLP089 P0000 T01440011
2026-04-01 00:53:00,METAR KRIL 010053Z AUTO 20017G23KT 10SM BKN070 OVC090 16/00 A2989 RMK AO2 WSHFT 0021 SLP086 T01560000
2026-04-01 00:41:00,SPECI KRIL 010041Z AUTO 18015G25KT 10SM BKN075 OVC090 16/M01 A2988 RMK AO2 WSHFT 0021 T01611006
2026-03-31 23:53:00,METAR KRIL 312353Z AUTO 18010G16KT 10SM FEW070 BKN085 16/01 A2989 RMK AO2 PK WND 21036/2315 RAB23E35 SLP086 P0000 60000 T01610006 10206 20150 56012
2026-03-31 22:53:00,METAR KRIL 312253Z AUTO 14013G21KT 10SM BKN085 17/02 A2989 RMK AO2 PK WND 17026/2203 SLP085 T01670017
2026-03-31 21:53:00,METAR KRIL 312153Z AUTO 18015G25KT 10SM OVC080 16/02 A2993 RMK AO2 PK WND 17033/2114 SLP098 T01560017
2026-03-31 20:53:00,METAR KRIL 312053Z AUTO 18021G28KT 10SM FEW090 SCT110 16/01 A2993 RMK AO2 PK WND 21043/1957 RAB1959E08 SLP099 P0000 60000 T01610011 55009
2026-03-31 18:53:00,METAR KRIL 311853Z AUTO 29010KT 10SM SCT110 19/M07 A2993 RMK AO2 SLP088 T01941067
2026-03-31 17:53:00,METAR KRIL 311753Z AUTO 00000KT 10SM CLR 16/M05 A2997 RMK AO2 SLP105 T01561050 10161 20050 58006
2026-03-31 16:53:00,METAR KRIL 311653Z AUTO 00000KT 10SM CLR 13/M05 A2998 RMK AO2 SLP109 T01281050
2026-03-31 15:53:00,METAR KRIL 311553Z AUTO 00000KT 10SM CLR 10/M03 A2999 RMK AO2 SLP112 T01001033
2026-03-31 14:53:00,METAR KRIL 311453Z AUTO 28003KT 10SM CLR 08/M04 A2999 RMK AO2 SLP112 T00831044 51006
2026-03-31 13:53:00,METAR KRIL 311353Z AUTO 00000KT 10SM CLR 06/M03 A2998 RMK AO2 SLP112 T00561028
2026-03-31 12:53:00,METAR KRIL 311253Z AUTO 00000KT 10SM CLR 05/M06 A2997 RMK AO2 SLP107 T00501056
2026-03-31 11:53:00,METAR KRIL 311153Z AUTO 00000KT 10SM CLR 06/M08 A2997 RMK AO2 SLP098 T00611078 10122 20056 53003
2026-03-31 10:53:00,METAR KRIL 311053Z AUTO 11005KT 10SM CLR 06/M08 A2996 RMK AO2 SLP094 T00611078
2026-03-31 09:53:00,METAR KRIL 310953Z AUTO 23003KT 10SM CLR 07/M08 A2995 RMK AO2 SLP089 T00721083
2026-03-31 08:53:00,METAR KRIL 310853Z AUTO 00000KT 10SM CLR 07/M09 A2995 RMK AO2 SLP090 T00721094 53004
2026-03-31 07:53:00,METAR KRIL 310753Z AUTO 00000KT 10SM CLR 08/M09 A2995 RMK AO2 SLP088 T00831089
2026-03-31 06:53:00,METAR KRIL 310653Z AUTO 00000KT 10SM CLR 09/M09 A2995 RMK AO2 SLP085 T00941089 402500033
2026-03-31 05:53:00,METAR KRIL 310553Z AUTO 00000KT 10SM CLR 11/M09 A2994 RMK AO2 SLP085 T01111094 10233 20111 50007
2026-03-31 04:53:00,METAR KRIL 310453Z AUTO 09003KT 10SM CLR 13/M08 A2994 RMK AO2 SLP094 T01331078
2026-03-31 03:53:00,METAR KRIL 310353Z AUTO 13003KT 10SM FEW120 16/M09 A2993 RMK AO2 SLP091 T01611089
2026-03-31 02:53:00,METAR KRIL 310253Z AUTO 33004KT 10SM FEW120 18/M09 A2992 RMK AO2 SLP084 T01831089 53003
2026-03-31 01:53:00,METAR KRIL 310153Z AUTO 23011KT 10SM CLR 20/M11 A2991 RMK AO2 SLP086 T02001106
2026-03-31 00:53:00,METAR KRIL 310053Z AUTO 25015G22KT 10SM CLR 22/M11 A2991 RMK AO2 PK WND 25026/2356 SLP085 T02171106
2026-03-30 23:53:00,METAR KRIL 302353Z AUTO 24018G25KT 10SM CLR 23/M11 A2991 RMK AO2 SLP079 T02331106 10250 20211 55008
2026-03-30 22:53:00,METAR KRIL 302253Z AUTO 26018G27KT 10SM CLR 24/M11 A2990 RMK AO2 PK WND 26029/2221 SLP074 T02391111
2026-03-30 21:53:00,METAR KRIL 302153Z AUTO 26021G29KT 10SM CLR 24/M11 A2992 RMK AO2 PK WND 27034/2100 SLP076 T02391111
2026-03-30 20:53:00,METAR KRIL 302053Z AUTO 26020G32KT 10SM CLR 24/M08 A2993 RMK AO2 PK WND 28034/2019 SLP079 T02441083 58022
2026-03-30 19:53:00,METAR KRIL 301953Z AUTO 27021G32KT 10SM CLR 24/M07 A2996 RMK AO2 PK WND 26032/1945 SLP090 T02391072
2026-03-30 18:53:00,METAR KRIL 301853Z AUTO 27022G31KT 10SM CLR 23/M07 A2999 RMK AO2 PK WND 27031/1844 SLP100 T02331067
2026-03-30 17:53:00,METAR KRIL 301753Z AUTO 26010G18KT 10SM CLR 21/M04 A3001 RMK AO2 SLP110 T02061044 10206 20033 58014
2026-03-30 16:53:00,METAR KRIL 301653Z AUTO 00000KT 10SM CLR 14/M04 A3004 RMK AO2 SLP128 T01441044
2026-03-30 15:53:00,METAR KRIL 301553Z AUTO VRB03KT 10SM CLR 11/M04 A3005 RMK AO2 SLP135 T01111039
2026-03-30 14:53:00,METAR KRIL 301453Z AUTO 31004KT 10SM CLR 09/M04 A3006 RMK AO2 SLP135 T00941039 53007
2026-03-30 13:53:00,METAR KRIL 301353Z AUTO 00000KT 10SM CLR 06/M05 A3005 RMK AO2 SLP135 T00561050
2026-03-30 12:53:00,METAR KRIL 301253Z AUTO 12003KT 10SM CLR 04/M06 A3004 RMK AO2 SLP133 T00391056
2026-03-30 11:53:00,METAR KRIL 301153Z AUTO 00000KT 10SM CLR 05/M06 A3003 RMK AO2 SLP124 T00501061 10122 20050 55004
2026-03-30 10:53:00,METAR KRIL 301053Z AUTO 14003KT 10SM CLR 07/M05 A3003 RMK AO2 SLP119 T00671050
2026-03-30 09:53:00,METAR KRIL 300953Z AUTO 23003KT 10SM CLR 09/M04 A3003 RMK AO2 SLP116 T00891044
2026-03-30 08:53:00,METAR KRIL 300853Z AUTO 00000KT 10SM CLR 09/M04 A3005 RMK AO2 SLP119 T00941044 53003
2026-03-30 07:53:00,METAR KRIL 300753Z AUTO 00000KT 10SM CLR 10/M05 A3004 RMK AO2 SLP117 T01001050
2026-03-30 06:53:00,METAR KRIL 300653Z AUTO 21004KT 10SM CLR 10/M05 A3004 RMK AO2 SLP117 T01001050 402560039
2026-03-30 05:53:00,METAR KRIL 300553Z AUTO 11004KT 10SM CLR 11/M06 A3004 RMK AO2 SLP121 T01111056 10239 20111 50001
2026-03-30 04:53:00,METAR KRIL 300453Z AUTO 14006KT 10SM CLR 13/M04 A3004 RMK AO2 SLP124 T01331044
2026-03-30 03:53:00,METAR KRIL 300353Z AUTO 00000KT 10SM CLR 15/M04 A3004 RMK AO2 SLP129 T01501044
2026-03-30 02:53:00,METAR KRIL 300253Z AUTO 00000KT 10SM CLR 18/M07 A3003 RMK AO2 SLP125 T01831067 53006
2026-03-30 01:53:00,METAR KRIL 300153Z AUTO 00000KT 10SM CLR 19/M05 A3002 RMK AO2 SLP127 T01941050
2026-03-30 00:53:00,METAR KRIL 300053Z AUTO 29006KT 10SM CLR 21/M05 A3002 RMK AO2 SLP124 T02111050
2026-03-29 23:53:00,METAR KRIL 292353Z AUTO 27017G24KT 10SM CLR 24/M09 A3001 RMK AO2 PK WND 28026/2343 SLP114 T02391094 10256 20194 56011
2026-03-29 22:53:00,METAR KRIL 292253Z AUTO 31007KT 10SM CLR 24/M06 A3002 RMK AO2 SLP116 T02391061
2026-03-29 21:53:00,METAR KRIL 292153Z AUTO 34009G20KT 10SM CLR 24/M04 A3003 RMK AO2 SLP117 T02441039
2026-03-29 20:53:00,METAR KRIL 292053Z AUTO 28013G24KT 10SM CLR 25/M07 A3005 RMK AO2 SLP118 T02501067 56024
2026-03-29 19:53:00,METAR KRIL 291953Z AUTO 28013G25KT 10SM CLR 24/M07 A3008 RMK AO2 PK WND 27026/1939 SLP127 T02441067
2026-03-29 18:53:00,METAR KRIL 291853Z AUTO 28007G16KT 10SM CLR 23/M04 A3010 RMK AO2 SLP138 T02281044
2026-03-29 17:53:00,METAR KRIL 291753Z AUTO 34004KT 10SM CLR 19/M04 A3013 RMK AO2 SLP153 T01941044 10194 20039 58010
2026-03-29 16:53:00,METAR KRIL 291653Z AUTO 05004KT 10SM CLR 16/M03 A3016 RMK AO2 SLP170 T01611033
2026-03-29 14:53:00,METAR KRIL 291453Z AUTO 03003KT 10SM CLR 09/M03 A3017 RMK AO2 SLP175 T00891033 51013
2026-03-29 13:53:00,METAR KRIL 291353Z AUTO 00000KT 10SM CLR 05/M03 A3016 RMK AO2 SLP176 T00501033
2026-03-29 12:53:00,METAR KRIL 291253Z AUTO 00000KT 10SM CLR 04/M05 A3014 RMK AO2 SLP163 T00441050
2026-03-29 11:53:00,METAR KRIL 291153Z AUTO 20003KT 10SM CLR 06/M04 A3012 RMK AO2 SLP157 T00561044 10128 20056 53004
2026-03-29 10:53:00,METAR KRIL 291053Z AUTO 00000KT 10SM CLR 06/M05 A3011 RMK AO2 SLP148 T00611050
2026-03-29 09:53:00,METAR KRIL 290953Z AUTO 00000KT 10SM CLR 07/M04 A3011 RMK AO2 SLP145 T00721044
2026-03-29 08:53:00,METAR KRIL 290853Z AUTO 00000KT 10SM FEW120 10/M03 A3011 RMK AO2 SLP142 T01001033 50003
2026-03-29 07:53:00,METAR KRIL 290753Z AUTO 19005KT 10SM FEW090 SCT110 11/M03 A3011 RMK AO2 SLP141 T01111028
2026-03-29 06:53:00,METAR KRIL 290653Z AUTO 00000KT 10SM BKN120 11/M03 A3011 RMK AO2 SLP143 T01061033 402440011
2026-03-29 05:53:00,METAR KRIL 290553Z AUTO 07006KT 10SM CLR 13/M04 A3010 RMK AO2 SLP141 T01281044 10228 20111 51012
2026-03-29 04:53:00,METAR KRIL 290453Z AUTO 10004KT 10SM CLR 12/M04 A3009 RMK AO2 SLP149 T01171039
2026-03-29 03:53:00,METAR KRIL 290353Z AUTO 09006KT 10SM CLR 14/M05 A3008 RMK AO2 SLP148 T01391050
2026-03-29 02:53:00,METAR KRIL 290253Z AUTO 27007KT 10SM CLR 17/M05 A3006 RMK AO2 SLP140 T01721050 53004
2026-03-29 01:53:00,METAR KRIL 290153Z AUTO 24010KT 10SM CLR 19/M05 A3004 RMK AO2 SLP135 T01941050
2026-03-29 00:53:00,METAR KRIL 290053Z AUTO 26012KT 10SM CLR 22/M04 A3004 RMK AO2 SLP135 T02171044
2026-03-28 23:53:00,METAR KRIL 282353Z AUTO 27014G25KT 10SM CLR 22/M04 A3004 RMK AO2 PK WND 27033/2302 SLP137 T02221039 10244 20194 56010
2026-03-28 22:53:00,METAR KRIL 282253Z AUTO 26021G33KT 10SM CLR 23/M05 A3005 RMK AO2 PK WND 26035/2209 SLP135 T02331050
2026-03-28 21:53:00,METAR KRIL 282153Z AUTO 26025G31KT 10SM CLR 24/M05 A3006 RMK AO2 PK WND 24033/2119 SLP136 T02391050
2026-03-28 20:53:00,METAR KRIL 282053Z AUTO 27025G35KT 10SM CLR 23/M05 A3008 RMK AO2 PK WND 27035/2053 SLP141 T02331050 56027
2026-03-28 19:53:00,METAR KRIL 281953Z AUTO 27022G32KT 10SM CLR 23/M06 A3010 RMK AO2 PK WND 27033/1939 SLP143 T02331056
2026-03-28 18:53:00,METAR KRIL 281853Z AUTO 26023G32KT 10SM CLR 22/M04 A3014 RMK AO2 PK WND 26032/1849 SLP158 T02221044
2026-03-28 17:53:00,METAR KRIL 281753Z AUTO 26018G24KT 10SM CLR 19/M04 A3017 RMK AO2 SLP172 T01941044 10194 20011 58021
2026-03-28 16:53:00,METAR KRIL 281653Z AUTO 24003KT 10SM CLR 14/M08 A3021 RMK AO2 SLP190 T01441078
2026-03-28 15:53:00,METAR KRIL 281553Z AUTO 00000KT 10SM CLR 11/M07 A3023 RMK AO2 SLP202 T01061067
2026-03-28 14:53:00,METAR KRIL 281453Z AUTO 00000KT 10SM CLR 07/M06 A3024 RMK AO2 SLP212 T00671056 53001
2026-03-28 13:53:00,METAR KRIL 281353Z AUTO 12003KT 10SM CLR 03/M07 A3025 RMK AO2 SLP212 T00331072
2026-03-28 12:53:00,METAR KRIL 281253Z AUTO 00000KT 10SM CLR 02/M09 A3024 RMK AO2 SLP207 T00221089
2026-03-28 11:53:00,METAR KRIL 281153Z AUTO 11004KT 10SM CLR 01/M09 A3024 RMK AO2 SLP204 T00111094 10089 20011 53002
2026-03-28 10:53:00,METAR KRIL 281053Z AUTO 22004KT 10SM CLR 03/M09 A3023 RMK AO2 SLP197 T00331089
2026-03-28 09:53:00,METAR KRIL 280953Z AUTO 11004KT 10SM CLR 03/M09 A3023 RMK AO2 SLP197 T00331094
2026-03-28 08:53:00,METAR KRIL 280853Z AUTO 14003KT 10SM CLR 04/M09 A3023 RMK AO2 SLP198 T00441094 58002
2026-03-28 07:53:00,METAR KRIL 280753Z AUTO 13003KT 10SM CLR 06/M10 A3025 RMK AO2 SLP204 T00611100
2026-03-28 06:53:00,METAR KRIL 280653Z AUTO 15003KT 10SM CLR 07/M10 A3024 RMK AO2 SLP201 T00721100 402330006
2026-03-28 05:53:00,METAR KRIL 280553Z AUTO 00000KT 10SM CLR 09/M10 A3024 RMK AO2 SLP206 T00891100 10228 20089 51004
2026-03-28 04:53:00,METAR KRIL 280453Z AUTO 14004KT 10SM CLR 11/M11 A3024 RMK AO2 SLP206 T01111111
2026-03-28 03:53:00,METAR KRIL 280353Z AUTO 00000KT 10SM CLR 12/M11 A3024 RMK AO2 SLP213 T01221106
2026-03-28 02:53:00,METAR KRIL 280253Z AUTO 20005KT 10SM CLR 14/M09 A3022 RMK AO2 SLP207 T01441094 53009
2026-03-28 01:53:00,METAR KRIL 280153Z AUTO VRB04KT 10SM CLR 18/M09 A3021 RMK AO2 SLP200 T01781094
2026-03-28 00:53:00,METAR KRIL 280053Z AUTO 32007KT 10SM CLR 20/M09 A3020 RMK AO2 SLP196 T02001089
2026-03-27 23:53:00,METAR KRIL 272353Z AUTO 26011KT 10SM CLR 23/M14 A3019 RMK AO2 SLP184 T02281144 10233 20144 56012
2026-03-27 22:53:00,METAR KRIL 272253Z AUTO 26013G22KT 10SM CLR 23/M15 A3020 RMK AO2 PK WND 26030/2215 SLP182 T02281150
2026-03-27 21:53:00,METAR KRIL 272153Z AUTO 27020G28KT 10SM CLR 23/M16 A3021 RMK AO2 PK WND 28028/2149 SLP185 T02281161
2026-03-27 20:53:00,METAR KRIL 272053Z AUTO VRB06KT 10SM CLR 22/M11 A3024 RMK AO2 SLP189 T02171106 56026
2026-03-27 19:53:00,METAR KRIL 271953Z AUTO VRB04KT 10SM CLR 19/M09 A3027 RMK AO2 SLP201 T01941089
2026-03-27 18:53:00,METAR KRIL 271853Z AUTO 30005KT 10SM CLR 18/M08 A3029 RMK AO2 SLP210 T01781083
2026-03-27 17:53:00,METAR KRIL 271753Z AUTO 00000KT 10SM CLR 14/M08 A3033 RMK AO2 SLP225 T01441083 10144 20006 58015
2026-03-27 16:53:00,METAR KRIL 271653Z AUTO 00000KT 10SM CLR 12/M09 A3036 RMK AO2 SLP239 T01221094
2026-03-25 14:53:00,METAR KRIL 251453Z AUTO 00000KT 10SM CLR 10/01 A3022 RMK AO2 SLP188 T01000006 50007
2026-03-25 13:53:00,METAR KRIL 251353Z AUTO 00000KT 10SM CLR 07/00 A3023 RMK AO2 SLP189 T00720000
2026-03-25 12:53:00,METAR KRIL 251253Z AUTO 00000KT 10SM CLR 05/M01 A3021 RMK AO2 SLP185 T00501011
2026-03-25 11:53:00,METAR KRIL 251153Z AUTO 00000KT 10SM CLR 06/M01 A3020 RMK AO2 SLP176 T00611006 10133 20056 53006
2026-03-25 10:53:00,METAR KRIL 251053Z AUTO 00000KT 10SM CLR 08/M01 A3019 RMK AO2 SLP167 T00781006
2026-03-25 09:53:00,METAR KRIL 250953Z AUTO 16003KT 10SM CLR 08/M01 A3018 RMK AO2 SLP166 T00781006
2026-03-25 08:53:00,METAR KRIL 250853Z AUTO 19003KT 10SM CLR 09/00 A3018 RMK AO2 SLP163 T00890000 51005
2026-03-25 07:53:00,METAR KRIL 250753Z AUTO 00000KT 10SM CLR 11/00 A3018 RMK AO2 SLP161 T01060000
2026-03-25 06:53:00,METAR KRIL 250653Z AUTO 10004KT 10SM CLR 12/M01 A3017 RMK AO2 SLP165 T01171006 402720044
2026-03-25 05:53:00,METAR KRIL 250553Z AUTO 00000KT 10SM FEW100 13/00 A3016 RMK AO2 SLP162 T01280000 10261 20128 51017
2026-03-25 04:53:00,METAR KRIL 250453Z AUTO 00000KT 10SM CLR 15/00 A3014 RMK AO2 SLP157 T01500000
2026-03-25 03:53:00,METAR KRIL 250353Z AUTO 17006KT 10SM CLR 17/00 A3012 RMK AO2 SLP153 T01720000
2026-03-25 02:53:00,METAR KRIL 250253Z AUTO 00000KT 10SM CLR 19/01 A3010 RMK AO2 SLP148 T01940006 53015
2026-03-25 01:53:00,METAR KRIL 250153Z AUTO 26008KT 10SM CLR 22/00 A3008 RMK AO2 SLP138 T02220000
2026-03-25 00:53:00,METAR KRIL 250053Z AUTO 26011KT 10SM CLR 25/00 A3006 RMK AO2 SLP131 T02500000
2026-03-24 23:53:00,METAR KRIL 242353Z AUTO 27014G23KT 10SM CLR 26/00 A3005 RMK AO2 SLP124 T02610000 10272 20189 56007
2026-03-24 22:53:00,METAR KRIL 242253Z AUTO 28017G23KT 10SM CLR 27/00 A3005 RMK AO2 SLP119 T02670000
2026-03-24 21:53:00,METAR KRIL 242153Z AUTO 25014G24KT 10SM CLR 26/00 A3007 RMK AO2 PK WND 27026/2127 SLP123 T02610000
2026-03-24 20:53:00,METAR KRIL 242053Z AUTO 28016G24KT 10SM CLR 26/00 A3008 RMK AO2 SLP124 T02610000 56024
2026-03-24 19:53:00,METAR KRIL 241953Z AUTO 28015G22KT 10SM CLR 26/00 A3010 RMK AO2 WSHFT 1935 SLP134 T02560000
2026-03-24 18:53:00,METAR KRIL 241853Z AUTO 29005KT 10SM CLR 22/01 A3013 RMK AO2 SLP150 T02170011
2026-03-24 17:53:00,METAR KRIL 241753Z AUTO 00000KT 10SM CLR 19/02 A3016 RMK AO2 SLP164 T01890017 10194 20044 58008
2026-03-24 16:53:00,METAR KRIL 241653Z AUTO 00000KT 10SM CLR 16/02 A3017 RMK AO2 SLP173 T01610022
2026-03-24 15:53:00,METAR KRIL 241553Z AUTO 00000KT 10SM CLR 13/02 A3018 RMK AO2 SLP178 T01280017
2026-03-24 14:53:00,METAR KRIL 241453Z AUTO 00000KT 10SM CLR 09/02 A3019 RMK AO2 SLP186 T00890022 51012
2026-03-24 13:53:00,METAR KRIL 241353Z AUTO 00000KT 10SM CLR 06/01 A3017 RMK AO2 SLP183 T00610006
2026-03-24 12:53:00,METAR KRIL 241253Z AUTO 15004KT 10SM CLR 05/00 A3017 RMK AO2 SLP180 T00500000 $
2026-03-24 11:53:00,METAR KRIL 241153Z AUTO 12003KT 10SM CLR 06/01 A3015 RMK AO2 SLP171 T00610006 10122 20061 53004 $
2026-03-24 10:53:00,METAR KRIL 241053Z AUTO 16003KT 10SM FEW100 09/02 A3013 RMK AO2 SLP157 T00890017 $
2026-03-24 09:53:00,METAR KRIL 240953Z AUTO 00000KT 10SM OVC110 11/02 A3012 RMK AO2 SLP152 T01060022 $
2026-03-24 08:53:00,METAR KRIL 240853Z AUTO 13003KT 10SM OVC120 11/02 A3013 RMK AO2 SLP154 T01110017 53006 $
2026-03-24 07:53:00,METAR KRIL 240753Z AUTO 11005KT 10SM OVC120 11/02 A3011 RMK AO2 SLP152 T01060017 $
2026-03-24 06:53:00,METAR KRIL 240653Z AUTO 13004KT 10SM FEW110 12/02 A3012 RMK AO2 SLP152 T01170017 402060067 $
2026-03-24 05:53:00,METAR KRIL 240553Z AUTO 12003KT 10SM OVC110 12/01 A3011 RMK AO2 SLP156 T01170011 10183 20117 51004 $
2026-03-24 04:53:00,METAR KRIL 240453Z AUTO 11007KT 10SM OVC110 12/01 A3011 RMK AO2 SLP157 T01220011 $
2026-03-24 03:53:00,METAR KRIL 240353Z AUTO 07007KT 10SM SCT110 14/03 A3011 RMK AO2 SLP156 T01440028 $
2026-03-24 02:53:00,METAR KRIL 240253Z AUTO 08009KT 10SM 16/01 A3010 RMK AO2 SLP155 T01560011 53008 $
2026-03-24 01:53:00,METAR KRIL 240153Z AUTO 11009KT 10SM CLR 17/01 A3008 RMK AO2 SLP149 T01670006
2026-03-24 00:53:00,METAR KRIL 240053Z AUTO 10011KT 10SM BKN110 18/01 A3007 RMK AO2 SLP143 T01780006
2026-03-23 23:53:00,METAR KRIL 232353Z AUTO 09006KT 10SM OVC100 18/M01 A3007 RMK AO2 SLP143 T01831006 10206 20150 50004
2026-03-23 22:53:00,METAR KRIL 232253Z AUTO 29006KT 10SM OVC095 19/M01 A3009 RMK AO2 PK WND 25042/2216 SLP148 T01941011
2026-03-23 21:53:00,METAR KRIL 232153Z AUTO 00000KT 10SM BKN110 20/M04 A3007 RMK AO2 SLP138 T02001039
2026-03-23 20:53:00,METAR KRIL 232053Z AUTO 00000KT 10SM BKN110 19/M04 A3006 RMK AO2 SLP133 T01941044 58018
2026-03-23 19:53:00,METAR KRIL 231953Z AUTO 00000KT 10SM BKN110 18/M05 A3009 RMK AO2 SLP144 T01831050
2026-03-23 18:53:00,METAR KRIL 231853Z AUTO 11004KT 10SM SCT120 17/M04 A3010 RMK AO2 SLP152 T01721044
2026-03-23 17:53:00,METAR KRIL 231753Z AUTO 00000KT 10SM FEW120 15/M03 A3012 RMK AO2 SLP160 T01501033 10150 20067 50002
2026-03-23 16:53:00,METAR KRIL 231653Z AUTO 10003KT 10SM FEW120 13/M04 A3014 RMK AO2 SLP165 T01281039
2026-03-23 15:53:00,METAR KRIL 231553Z AUTO 00000KT 10SM SCT120 11/M04 A3013 RMK AO2 SLP163 T01061039
2026-03-23 14:53:00,METAR KRIL 231453Z AUTO 00000KT 10SM CLR 09/M03 A3011 RMK AO2 SLP158 T00891028 53008
2026-03-23 13:53:00,METAR KRIL 231353Z AUTO 00000KT 10SM FEW120 07/M03 A3010 RMK AO2 SLP152 T00721033
2026-03-23 12:53:00,METAR KRIL 231253Z AUTO 00000KT 10SM CLR 08/M04 A3009 RMK AO2 SLP141 T00781044
2026-03-23 11:53:00,METAR KRIL 231153Z AUTO 18003KT 10SM FEW120 07/M04 A3008 RMK AO2 SLP136 T00721044 10111 20067 55006
2026-03-23 10:53:00,METAR KRIL 231053Z AUTO 07004KT 10SM CLR 07/M03 A3008 RMK AO2 SLP135 T00721033
2026-03-23 09:53:00,METAR KRIL 230953Z AUTO 18004KT 10SM CLR 09/M06 A3009 RMK AO2 SLP136 T00891056
2026-03-23 08:53:00,METAR KRIL 230853Z AUTO 32003KT 10SM CLR 08/M06 A3010 RMK AO2 SLP140 T00781056 53002
2026-03-23 07:53:00,METAR KRIL 230753Z AUTO 00000KT 10SM FEW120 09/M06 A3009 RMK AO2 SLP136 T00941061
2026-03-23 06:53:00,METAR KRIL 230653Z AUTO 21006KT 10SM CLR 09/M06 A3010 RMK AO2 SLP143 T00891061 402500056
2026-03-23 05:53:00,METAR KRIL 230553Z AUTO 18003KT 10SM CLR 11/M06 A3010 RMK AO2 SLP140 T01061056 10244 20106 51010
2026-03-23 04:53:00,METAR KRIL 230453Z AUTO 20003KT 10SM CLR 12/M05 A3009 RMK AO2 SLP143 T01221050
2026-03-23 03:53:00,METAR KRIL 230353Z AUTO 13006KT 10SM CLR 14/M07 A3008 RMK AO2 SLP140 T01441067
2026-03-23 02:53:00,METAR KRIL 230253Z AUTO 22005KT 10SM CLR 17/M07 A3006 RMK AO2 SLP138 T01671067 53008
2026-03-23 01:53:00,METAR KRIL 230153Z AUTO 26005KT 10SM CLR 19/M07 A3005 RMK AO2 SLP135 T01891072
2026-03-23 00:53:00,METAR KRIL 230053Z AUTO 00000KT 10SM CLR 22/M08 A3003 RMK AO2 SLP126 T02221078
2026-03-22 23:53:00,METAR KRIL 222353Z AUTO 30006KT 10SM CLR 24/M08 A3003 RMK AO2 SLP115 T02441083 10250 20217 58009
2026-03-22 22:53:00,METAR KRIL 222253Z AUTO VRB05KT 10SM CLR 24/M08 A3005 RMK AO2 SLP119 T02441083
2026-03-22 21:53:00,METAR KRIL 222153Z AUTO VRB03KT 10SM CLR 24/M08 A3006 RMK AO2 SLP124 T02391083
2026-03-22 20:53:00,METAR KRIL 222053Z AUTO 35007KT 10SM CLR 25/M07 A3007 RMK AO2 SLP124 T02501067 58019
2026-03-22 19:53:00,METAR KRIL 221953Z AUTO 00000KT 10SM CLR 23/M05 A3010 RMK AO2 SLP139 T02331050
2026-03-22 18:53:00,METAR KRIL 221853Z AUTO 31009G14KT 10SM CLR 23/M05 A3012 RMK AO2 SLP140 T02331050
2026-03-22 17:53:00,METAR KRIL 221753Z AUTO 27004KT 10SM CLR 22/M05 A3013 RMK AO2 SLP149 T02171050 10217 20056 58001
2026-03-22 16:53:00,METAR KRIL 221653Z AUTO 00000KT 10SM CLR 18/M04 A3015 RMK AO2 SLP156 T01781039
2026-03-22 15:53:00,METAR KRIL 221553Z AUTO 00000KT 10SM CLR 14/M03 A3014 RMK AO2 SLP158 T01391033
2026-03-22 14:53:00,METAR KRIL 221453Z AUTO 00000KT 10SM CLR 09/M03 A3014 RMK AO2 SLP162 T00941033 51023
2026-03-22 13:53:00,METAR KRIL 221353Z AUTO 09003KT 10SM CLR 06/M06 A3012 RMK AO2 SLP154 T00611056
2026-03-22 12:53:00,METAR KRIL 221253Z AUTO 08005KT 10SM CLR 06/M06 A3009 RMK AO2 SLP141 T00561056
2026-03-22 11:53:00,METAR KRIL 221153Z AUTO 16003KT 10SM CLR 08/M06 A3006 RMK AO2 SLP122 T00831056 10139 20078 53013
2026-03-22 10:53:00,METAR KRIL 221053Z AUTO 00000KT 10SM CLR 10/M06 A3002 RMK AO2 SLP105 T01001056
2026-03-22 09:53:00,METAR KRIL 220953Z AUTO 00000KT 10SM CLR 09/M06 A3002 RMK AO2 SLP104 T00941056
2026-03-22 08:53:00,METAR KRIL 220853Z AUTO 00000KT 10SM CLR 11/M07 A3001 RMK AO2 SLP099 T01061067 51003
2026-03-22 07:53:00,METAR KRIL 220753Z AUTO 10003KT 10SM CLR 11/M07 A3001 RMK AO2 SLP098 T01111067
2026-03-22 06:53:00,METAR KRIL 220653Z AUTO 00000KT 10SM CLR 13/M07 A3001 RMK AO2 SLP105 T01281067 402830011
2026-03-22 05:53:00,METAR KRIL 220553Z AUTO 00000KT 10SM CLR 13/M07 A3000 RMK AO2 SLP107 T01281072 10267 20128 51005
2026-03-22 04:53:00,METAR KRIL 220453Z AUTO 08003KT 10SM CLR 15/M07 A3000 RMK AO2 SLP107 T01501072
2026-03-22 03:53:00,METAR KRIL 220353Z AUTO 12006KT 10SM CLR 17/M08 A3000 RMK AO2 SLP111 T01671083
2026-03-22 02:53:00,METAR KRIL 220253Z AUTO 07005KT 10SM CLR 18/M10 A2999 RMK AO2 SLP113 T01831100 53009
2026-03-22 01:53:00,METAR KRIL 220153Z AUTO 31004KT 10SM CLR 23/M12 A2997 RMK AO2 SLP105 T02281122
2026-03-22 00:53:00,METAR KRIL 220053Z AUTO 24015KT 10SM CLR 24/M11 A2996 RMK AO2 SLP098 T02441111
2026-03-21 23:53:00,METAR KRIL 212353Z AUTO 26020KT 10SM CLR 26/M09 A2995 RMK AO2 PK WND 26026/2302 SLP093 T02611094 10283 20189 56015
2026-03-21 22:53:00,METAR KRIL 212253Z AUTO 27016G25KT 10SM CLR 27/M10 A2996 RMK AO2 PK WND 27031/2159 SLP094 T02721100
2026-03-21 21:53:00,METAR KRIL 212153Z AUTO 26016G28KT 10SM CLR 28/M11 A2998 RMK AO2 PK WND 26033/2124 SLP100 T02781111
2026-03-21 20:53:00,METAR KRIL 212053Z AUTO 27020G27KT 10SM CLR 28/M08 A3000 RMK AO2 PK WND 28030/2041 SLP102 T02831083 56033
2026-03-21 19:53:00,METAR KRIL 211953Z AUTO 28018G25KT 10SM CLR 27/M08 A3004 RMK AO2 SLP115 T02721083
2026-03-21 18:53:00,METAR KRIL 211853Z AUTO 05003KT 10SM CLR 23/M05 A3008 RMK AO2 SLP136 T02281050
2026-03-21 17:53:00,METAR KRIL 211753Z AUTO 00000KT 10SM CLR 19/M06 A3012 RMK AO2 SLP152 T01891056 10189 20011 58023
2026-03-21 16:53:00,METAR KRIL 211653Z AUTO VRB03KT 10SM CLR 16/M06 A3016 RMK AO2 SLP169 T01561056
2026-03-21 15:53:00,METAR KRIL 211553Z AUTO 04003KT 10SM CLR 12/M06 A3018 RMK AO2 SLP181 T01171061
2026-03-21 14:53:00,METAR KRIL 211453Z AUTO 00000KT 10SM CLR 07/M07 A3020 RMK AO2 SLP191 T00721072 57003
2026-03-21 13:53:00,METAR KRIL 211353Z AUTO 00000KT 10SM CLR 03/M08 A3020 RMK AO2 SLP191 T00331078
2026-03-21 12:53:00,METAR KRIL 211253Z AUTO 19003KT 10SM CLR 04/M08 A3021 RMK AO2 SLP185 T00391083
2026-03-21 11:53:00,METAR KRIL 211153Z AUTO 00000KT 10SM CLR 03/M08 A3021 RMK AO2 SLP181 T00331083 10100 20022 55006
2026-03-21 10:53:00,METAR KRIL 211053Z AUTO 09003KT 10SM CLR 04/M08 A3021 RMK AO2 SLP179 T00391083
2026-03-21 09:53:00,METAR KRIL 210953Z AUTO 00000KT 10SM CLR 04/M08 A3022 RMK AO2 SLP182 T00441083
2026-03-21 08:53:00,METAR KRIL 210853Z AUTO 00000KT 10SM CLR 07/M09 A3023 RMK AO2 SLP184 T00671089 50002
2026-03-21 07:53:00,METAR KRIL 210753Z AUTO 20005KT 10SM CLR 07/M09 A3023 RMK AO2 SLP189 T00671089
2026-03-21 06:53:00,METAR KRIL 210653Z AUTO 14004KT 10SM CLR 08/M09 A3023 RMK AO2 SLP189 T00831089 402830017
2026-03-21 05:53:00,METAR KRIL 210553Z AUTO 21004KT 10SM CLR 11/M09 A3022 RMK AO2 SLP187 T01061094 10272 20094 53007
2026-03-21 04:53:00,METAR KRIL 210453Z AUTO 14003KT 10SM CLR 12/M09 A3021 RMK AO2 SLP188 T01221089
2026-03-21 03:53:00,METAR KRIL 210353Z AUTO 11006KT 10SM CLR 14/M11 A3020 RMK AO2 SLP189 T01391106
2026-03-21 02:53:00,METAR KRIL 210253Z AUTO 15006KT 10SM CLR 17/M11 A3020 RMK AO2 SLP189 T01671111 53004
2026-03-21 01:53:00,METAR KRIL 210153Z AUTO 32004KT 10SM CLR 21/M08 A3018 RMK AO2 SLP187 T02061083
2026-03-21 00:53:00,METAR KRIL 210053Z AUTO 26008KT 10SM CLR 24/M08 A3018 RMK AO2 SLP176 T02441083
2026-03-20 23:53:00,METAR KRIL 202353Z AUTO 28012KT 10SM CLR 27/M09 A3018 RMK AO2 SLP172 T02721094 10283 20189 56018
2026-03-20 22:53:00,METAR KRIL 202253Z AUTO 27010G19KT 10SM CLR 28/M12 A3019 RMK AO2 SLP176 T02781122
2026-03-20 21:53:00,METAR KRIL 202153Z AUTO 27010KT 10SM CLR 28/M11 A3022 RMK AO2 SLP184 T02781111
2026-03-20 20:53:00,METAR KRIL 202053Z AUTO 31009KT 10SM CLR 27/M08 A3025 RMK AO2 SLP190 T02671083 56033
2026-03-20 19:53:00,METAR KRIL 201953Z AUTO 00000KT 10SM CLR 24/M07 A3028 RMK AO2 SLP206 T02441072
2026-03-20 18:53:00,METAR KRIL 201853Z AUTO 00000KT 10SM CLR 22/M04 A3032 RMK AO2 SLP219 T02171044
2026-03-20 17:53:00,METAR KRIL 201753Z AUTO 01004KT 10SM CLR 19/M04 A3036 RMK AO2 SLP236 T01891044 10194 20017 58014
2026-03-20 16:53:00,METAR KRIL 201653Z AUTO 00000KT 10SM CLR 15/M04 A3039 RMK AO2 SLP250 T01501039
2026-03-20 15:53:00,METAR KRIL 201553Z AUTO 00000KT 10SM CLR 12/M03 A3041 RMK AO2 SLP260 T01171033
2026-03-20 14:53:00,METAR KRIL 201453Z AUTO 00000KT 10SM CLR 07/M04 A3041 RMK AO2 SLP264 T00721039 51006
2026-03-20 13:53:00,METAR KRIL 201353Z AUTO 14004KT 10SM CLR 03/M06 A3041 RMK AO2 SLP263 T00281056
2026-03-20 12:53:00,METAR KRIL 201253Z AUTO 00000KT 10SM CLR 03/M06 A3040 RMK AO2 SLP256 T00281061
2026-03-20 11:53:00,METAR KRIL 201153Z AUTO 17003KT 10SM CLR 03/M06 A3039 RMK AO2 SLP246 T00331061 10111 20022 53004
2026-03-20 10:53:00,METAR KRIL 201053Z AUTO 13004KT 10SM CLR 03/M06 A3038 RMK AO2 SLP239 T00331056
2026-03-20 09:53:00,METAR KRIL 200953Z AUTO 20003KT 10SM CLR 04/M06 A3037 RMK AO2 SLP238 T00441061
2026-03-20 08:53:00,METAR KRIL 200853Z AUTO 00000KT 10SM CLR 06/M06 A3038 RMK AO2 SLP238 T00611061 51009
2026-03-20 07:53:00,METAR KRIL 200753Z AUTO 00000KT 10SM CLR 08/M06 A3037 RMK AO2 SLP236 T00781061
2026-03-20 06:53:00,METAR KRIL 200653Z AUTO 00000KT 10SM CLR 10/M06 A3036 RMK AO2 SLP233 T01001061 402720000
2026-03-20 05:53:00,METAR KRIL 200553Z AUTO 21003KT 10SM CLR 11/M06 A3034 RMK AO2 SLP232 T01111056 10267 20100 51013
2026-03-20 04:53:00,METAR KRIL 200453Z AUTO 11008KT 10SM CLR 13/M06 A3033 RMK AO2 SLP231 T01281061
2026-03-20 03:53:00,METAR KRIL 200353Z AUTO 20007KT 10SM CLR 15/M07 A3032 RMK AO2 SLP229 T01501067
2026-03-20 02:53:00,METAR KRIL 200253Z AUTO 12006KT 10SM CLR 17/M06 A3030 RMK AO2 SLP228 T01671061 53013
2026-03-20 01:53:00,METAR KRIL 200153Z AUTO 26011KT 10SM CLR 21/M07 A3027 RMK AO2 SLP218 T02111067
2026-03-20 00:53:00,METAR KRIL 200053Z AUTO 26011KT 10SM CLR 24/M06 A3025 RMK AO2 SLP210 T02391061
2026-03-19 23:53:00,METAR KRIL 192353Z AUTO 27010KT 10SM CLR 27/M07 A3025 RMK AO2 SLP201 T02671067 10272 20172 56013
2026-03-19 22:53:00,METAR KRIL 192253Z AUTO 26015G20KT 10SM CLR 27/M07 A3026 RMK AO2 SLP202 T02721072
2026-03-19 21:53:00,METAR KRIL 192153Z AUTO 23010G22KT 10SM CLR 27/M08 A3028 RMK AO2 SLP208 T02671083
2026-03-19 20:53:00,METAR KRIL 192053Z AUTO 26014G18KT 10SM CLR 26/M07 A3030 RMK AO2 SLP213 T02611067 58035
2026-03-19 19:53:00,METAR KRIL 191953Z AUTO VRB04KT 10SM CLR 23/M06 A3034 RMK AO2 SLP233 T02281056
2026-03-19 18:53:00,METAR KRIL 191853Z AUTO 00000KT 10SM CLR 21/M06 A3038 RMK AO2 SLP246 T02061056
2026-03-19 17:53:00,METAR KRIL 191753Z AUTO VRB03KT 10SM CLR 17/M06 A3042 RMK AO2 SLP263 T01721056 10172 20000 58014
2026-03-19 16:53:00,METAR KRIL 191653Z AUTO 08005KT 10SM CLR 14/M06 A3044 RMK AO2 SLP269 T01441056
2026-03-19 15:53:00,METAR KRIL 191553Z AUTO 00000KT 10SM CLR 10/M04 A3046 RMK AO2 SLP278 T01001044
2026-03-19 14:53:00,METAR KRIL 191453Z AUTO 00000KT 10SM CLR 06/M06 A3047 RMK AO2 SLP286 T00561056 53012
2026-03-19 13:53:00,METAR KRIL 191353Z AUTO 00000KT 10SM CLR 02/M06 A3045 RMK AO2 SLP285 T00221061
2026-03-19 12:53:00,METAR KRIL 191253Z AUTO 00000KT 10SM CLR 00/M07 A3044 RMK AO2 SLP277 T00001067
2026-03-19 11:53:00,METAR KRIL 191153Z AUTO 00000KT 10SM CLR 02/M07 A3043 RMK AO2 SLP268 T00171067 10094 20011 53008
2026-03-19 10:53:00,METAR KRIL 191053Z AUTO 00000KT 10SM CLR 02/M07 A3041 RMK AO2 SLP256 T00221067
2026-03-19 09:53:00,METAR KRIL 190953Z AUTO 00000KT 10SM CLR 03/M07 A3040 RMK AO2 SLP253 T00331067
2026-03-19 08:53:00,METAR KRIL 190853Z AUTO 00000KT 10SM CLR 04/M07 A3040 RMK AO2 SLP252 T00441067 51012
2026-03-19 07:53:00,METAR KRIL 190753Z AUTO 00000KT 10SM CLR 06/M06 A3039 RMK AO2 SLP253 T00561061
2026-03-19 06:53:00,METAR KRIL 190653Z AUTO 23003KT 10SM CLR 08/M06 A3038 RMK AO2 SLP249 T00831056 402501006
2026-03-19 05:53:00,METAR KRIL 190553Z AUTO 10004KT 10SM CLR 09/M07 A3036 RMK AO2 SLP246 T00891067 10239 20089 51020
2026-03-19 04:53:00,METAR KRIL 190453Z AUTO 15008KT 10SM CLR 13/M07 A3035 RMK AO2 SLP239 T01281067
2026-03-19 03:53:00,METAR KRIL 190353Z AUTO 15006KT 10SM CLR 16/M07 A3031 RMK AO2 SLP231 T01611067
2026-03-19 02:53:00,METAR KRIL 190253Z AUTO 18005KT 10SM CLR 17/M06 A3029 RMK AO2 SLP228 T01721056 53015
2026-03-19 01:53:00,METAR KRIL 190153Z AUTO 25013KT 10SM CLR 19/M05 A3025 RMK AO2 SLP218 T01891050
2026-03-19 00:53:00,METAR KRIL 190053Z AUTO 26013G23KT 10SM CLR 22/M06 A3024 RMK AO2 SLP207 T02171056
2026-03-18 23:53:00,METAR KRIL 182353Z AUTO 27016KT 10SM CLR 24/M09 A3024 RMK AO2 SLP201 T02391089 10250 20150 56008
2026-03-18 22:53:00,METAR KRIL 182253Z AUTO 26015KT 10SM CLR 25/M10 A3024 RMK AO2 SLP200 T02501100
2026-03-18 21:53:00,METAR KRIL 182153Z AUTO 27014G21KT 10SM CLR 25/M09 A3024 RMK AO2 SLP200 T02501089
2026-03-18 20:53:00,METAR KRIL 182053Z AUTO 24013KT 10SM CLR 24/M09 A3027 RMK AO2 SLP209 T02391094 58025
2026-03-18 19:53:00,METAR KRIL 181953Z AUTO 26006KT 10SM CLR 21/M07 A3030 RMK AO2 SLP223 T02111067
2026-03-18 18:53:00,METAR KRIL 181853Z AUTO 36003KT 10SM CLR 18/M07 A3033 RMK AO2 SLP237 T01781072
2026-03-18 17:53:00,METAR KRIL 181753Z AUTO 00000KT 10SM CLR 15/M06 A3035 RMK AO2 SLP248 T01501056 10150 21006 58007
2026-03-18 16:53:00,METAR KRIL 181653Z AUTO 05004KT 10SM CLR 12/M05 A3038 RMK AO2 SLP260 T01221050
2026-03-18 15:53:00,METAR KRIL 181553Z AUTO 00000KT 10SM CLR 07/M04 A3039 RMK AO2 SLP264 T00721044
2026-03-18 14:53:00,METAR KRIL 181453Z AUTO 00000KT 10SM CLR 04/M04 A3038 RMK AO2 SLP263 T00391044 51013
2026-03-18 13:53:00,METAR KRIL 181353Z AUTO 00000KT 10SM CLR 00/M06 A3037 RMK AO2 SLP266 T00001061
2026-03-18 12:53:00,METAR KRIL 181253Z AUTO 00000KT 10SM CLR 00/M07 A3035 RMK AO2 SLP252 T00001067
2026-03-18 11:53:00,METAR KRIL 181153Z AUTO 13004KT 10SM CLR 01/M06 A3033 RMK AO2 SLP240 T00111061 10072 21006 53013
2026-03-18 10:53:00,METAR KRIL 181053Z AUTO 12004KT 10SM CLR 01/M06 A3032 RMK AO2 SLP235 T00111061
2026-03-18 09:53:00,METAR KRIL 180953Z AUTO 00000KT 10SM CLR 03/M06 A3030 RMK AO2 SLP224 T00281056
2026-03-18 08:53:00,METAR KRIL 180853Z AUTO 00000KT 10SM CLR 02/M06 A3029 RMK AO2 SLP225 T00221061 51017
2026-03-18 07:53:00,METAR KRIL 180753Z AUTO 22003KT 10SM CLR 04/M06 A3028 RMK AO2 SLP222 T00441061
2026-03-18 06:53:00,METAR KRIL 180653Z AUTO 11005KT 10SM CLR 05/M06 A3026 RMK AO2 SLP217 T00501061 402171011
2026-03-18 05:53:00,METAR KRIL 180553Z AUTO 21004KT 10SM CLR 07/M07 A3023 RMK AO2 SLP209 T00721067 10206 20072 51019
2026-03-18 04:53:00,METAR KRIL 180453Z AUTO 00000KT 10SM CLR 08/M05 A3021 RMK AO2 SLP205 T00831050
2026-03-18 03:53:00,METAR KRIL 180353Z AUTO 15004KT 10SM CLR 12/M07 A3019 RMK AO2 SLP198 T01221067
2026-03-18 02:53:00,METAR KRIL 180253Z AUTO 00000KT 10SM CLR 15/M06 A3017 RMK AO2 SLP191 T01501056 53013
2026-03-18 01:53:00,METAR KRIL 180153Z AUTO 25008KT 10SM CLR 16/M05 A3015 RMK AO2 SLP188 T01561050
2026-03-18 00:53:00,METAR KRIL 180053Z AUTO 25009KT 10SM CLR 18/M06 A3013 RMK AO2 SLP177 T01831056
2026-03-17 23:53:00,METAR KRIL 172353Z AUTO 25011KT 10SM CLR 21/M07 A3012 RMK AO2 SLP166 T02061067 10217 20122 53002
2026-03-17 22:53:00,METAR KRIL 172253Z AUTO 28011KT 10SM CLR 21/M06 A3011 RMK AO2 SLP159 T02111061
2026-03-17 21:53:00,METAR KRIL 172153Z AUTO 27019G27KT 10SM FEW110 21/M06 A3011 RMK AO2 PK WND 25027/2144 SLP156 T02111061
2026-03-17 20:53:00,METAR KRIL 172053Z AUTO 25013G17KT 10SM SCT100 19/M04 A3012 RMK AO2 SLP162 T01941039 58031
2026-03-17 19:53:00,METAR KRIL 171953Z AUTO 24011KT 10SM CLR 17/M03 A3015 RMK AO2 SLP178 T01721028
2026-03-17 18:53:00,METAR KRIL 171853Z AUTO 26010KT 10SM CLR 15/M03 A3019 RMK AO2 SLP196 T01501033
2026-03-17 17:53:00,METAR KRIL 171753Z AUTO 26004KT 10SM SCT100 12/M06 A3022 RMK AO2 SLP209 T01221056 10122 21011 58010
2026-03-17 16:53:00,METAR KRIL 171653Z AUTO 00000KT 10SM CLR 09/M05 A3025 RMK AO2 SLP222 T00891050
2026-03-17 15:53:00,METAR KRIL 171553Z AUTO 00000KT 10SM CLR 06/M04 A3027 RMK AO2 SLP233 T00611044
2026-03-17 14:53:00,METAR KRIL 171453Z AUTO 10003KT 10SM CLR 03/M05 A3026 RMK AO2 SLP235 T00281050 51012
2026-03-17 13:53:00,METAR KRIL 171353Z AUTO 27003KT 10SM CLR 00/M07 A3025 RMK AO2 SLP237 T00001067
2026-03-17 12:53:00,METAR KRIL 171253Z AUTO 09004KT 10SM CLR 00/M07 A3023 RMK AO2 SLP227 T00001067
2026-03-17 11:53:00,METAR KRIL 171153Z AUTO 18004KT 10SM CLR 01/M06 A3022 RMK AO2 SLP219 T00111061 10061 20011 55000
2026-03-17 10:53:00,METAR KRIL 171053Z AUTO 00000KT 10SM FEW085 03/M05 A3020 RMK AO2 SLP209 T00281050
2026-03-17 09:53:00,METAR KRIL 170953Z AUTO 00000KT 10SM OVC090 04/M06 A3022 RMK AO2 SLP215 T00391056
2026-03-17 08:53:00,METAR KRIL 170853Z AUTO 00000KT 10SM BKN090 OVC110 03/M06 A3022 RMK AO2 SLP219 T00331056 53004
2026-03-17 07:53:00,METAR KRIL 170753Z AUTO 22004KT 10SM OVC100 04/M07 A3021 RMK AO2 SLP220 T00391067
2026-03-17 06:53:00,METAR KRIL 170653Z AUTO 00000KT 10SM CLR 04/M07 A3021 RMK AO2 SLP222 T00441067 401221072
2026-03-17 05:53:00,METAR KRIL 170553Z AUTO 23003KT 10SM BKN080 07/M07 A3021 RMK AO2 SLP218 T00671067 10117 20067 50007
2026-03-17 04:53:00,METAR KRIL 170453Z AUTO 00000KT 10SM OVC080 08/M07 A3021 RMK AO2 SLP222 T00831067
2026-03-17 03:53:00,METAR KRIL 170353Z AUTO 09003KT 10SM OVC080 08/M07 A3020 RMK AO2 SLP220 T00831067
2026-03-17 02:53:00,METAR KRIL 170253Z AUTO 00000KT 10SM OVC080 09/M08 A3018 RMK AO2 SLP217 T00941078 53009
2026-03-17 01:53:00,METAR KRIL 170153Z AUTO 09008KT 10SM OVC080 10/M08 A3017 RMK AO2 SLP215 T01001083
2026-03-17 00:53:00,METAR KRIL 170053Z AUTO 08006KT 10SM OVC080 11/M08 A3016 RMK AO2 SLP211 T01111083
2026-03-16 23:53:00,METAR KRIL 162353Z AUTO 08006KT 10SM OVC080 12/M09 A3015 RMK AO2 SLP208 T01171089 10122 20039 56008
2026-03-16 22:53:00,METAR KRIL 162253Z AUTO 04006KT 10SM OVC080 11/M09 A3015 RMK AO2 SLP213 T01111089
2026-03-16 21:53:00,METAR KRIL 162153Z AUTO 02005KT 10SM OVC080 11/M09 A3017 RMK AO2 SLP219 T01061094
2026-03-16 20:53:00,METAR KRIL 162053Z AUTO 00000KT 10SM OVC075 09/M11 A3018 RMK AO2 SLP224 T00941106 58024
2026-03-16 19:53:00,METAR KRIL 161953Z AUTO 14005KT 10SM OVC075 07/M13 A3021 RMK AO2 SLP241 T00721128
2026-03-16 18:53:00,METAR KRIL 161853Z AUTO VRB03KT 10SM BKN060 BKN085 06/M14 A3024 RMK AO2 SLP253 T00561139
2026-03-16 17:53:00,METAR KRIL 161753Z AUTO 00000KT 10SM OVC060 04/M12 A3026 RMK AO2 SLP261 T00441122 10044 21050 58004
2026-03-16 16:53:00,METAR KRIL 161653Z AUTO 00000KT 10SM OVC060 02/M16 A3026 RMK AO2 SLP267 T00171156
2026-03-16 15:53:00,METAR KRIL 161553Z AUTO 00000KT 10SM OVC065 00/M14 A3028 RMK AO2 SLP274 T00001144
2026-03-16 14:53:00,METAR KRIL 161453Z AUTO 00000KT 10SM OVC080 M02/M13 A3028 RMK AO2 SLP274 T10171133 53008
2026-03-16 13:53:00,METAR KRIL 161353Z AUTO 13006KT 10SM OVC080 M03/M14 A3025 RMK AO2 SLP265 T10331139
2026-03-16 12:53:00,METAR KRIL 161253Z AUTO 00000KT 10SM OVC085 M04/M13 A3024 RMK AO2 SLP258 T10441133
2026-03-16 11:53:00,METAR KRIL 161153Z AUTO 06004KT 10SM OVC090 M05/M14 A3025 RMK AO2 SLP259 T10501144 11039 21072 55012
2026-03-16 10:53:00,METAR KRIL 161053Z AUTO 12003KT 10SM FEW080 M06/M15 A3024 RMK AO2 SLP256 T10561150
2026-03-16 09:53:00,METAR KRIL 160953Z AUTO 14003KT 10SM CLR M07/M16 A3027 RMK AO2 SLP268 T10671156
2026-03-16 08:53:00,METAR KRIL 160853Z AUTO 00000KT 10SM CLR M06/M16 A3029 RMK AO2 SLP276 T10561156 53003
2026-03-16 07:53:00,METAR KRIL 160753Z AUTO 12003KT 10SM CLR M05/M16 A3027 RMK AO2 SLP273 T10501161
2026-03-16 06:53:00,METAR KRIL 160653Z AUTO 00000KT 10SM CLR M04/M17 A3028 RMK AO2 SLP274 T10441167 401111044
2026-03-16 05:53:00,METAR KRIL 160553Z AUTO 14003KT 10SM CLR M04/M16 A3028 RMK AO2 SLP275 T10391156 10050 21039 53023
2026-03-16 04:53:00,METAR KRIL 160453Z AUTO 10003KT 10SM CLR M03/M16 A3026 RMK AO2 SLP267 T10331161
2026-03-16 03:53:00,METAR KRIL 160353Z AUTO 20003KT 10SM CLR M02/M17 A3022 RMK AO2 SLP252 T10171167
2026-03-16 02:53:00,METAR KRIL 160253Z AUTO 13004KT 10SM CLR M01/M17 A3020 RMK AO2 SLP247 T10111167 53007
2026-03-16 01:53:00,METAR KRIL 160153Z AUTO 22006KT 10SM CLR 01/M17 A3019 RMK AO2 SLP234 T00111167
2026-03-16 00:53:00,METAR KRIL 160053Z AUTO 35007KT 10SM CLR 04/M18 A3017 RMK AO2 SLP222 T00391183
2026-03-15 23:53:00,METAR KRIL 152353Z AUTO 35006KT 10SM CLR 05/M18 A3017 RMK AO2 SLP217 T00501183 10056 20011 58011
2026-03-15 22:53:00,METAR KRIL 152253Z AUTO 02008G16KT 360V070 10SM CLR 06/M18 A3019 RMK AO2 SLP221 T00561183
2026-03-15 21:53:00,METAR KRIL 152153Z AUTO 34006G16KT 10SM CLR 05/M19 A3021 RMK AO2 PK WND 33027/2134 SLP218 T00501189
2026-03-15 20:53:00,METAR KRIL 152053Z AUTO 35009G17KT 320V030 10SM CLR 04/M20 A3021 RMK AO2 SLP220 T00391200 58012
2026-03-15 19:53:00,METAR KRIL 151953Z AUTO 10SM CLR 02/M18 A3025 RMK AO2 SLP231 T00221178
2026-03-15 18:53:00,METAR KRIL 151853Z AUTO 31012G22KT 10SM CLR 03/M17 A3025 RMK AO2 SLP229 T00281167
2026-03-15 17:53:00,METAR KRIL 151753Z AUTO 29012G21KT 10SM FEW065 01/M17 A3025 RMK AO2 PK WND 27027/1656 SLP234 T00111167 10017 21011 51012
2026-03-15 16:53:00,METAR KRIL 151653Z AUTO 29012KT 10SM CLR 01/M14 A3025 RMK AO2 PK WND 31026/1612 SLP232 T00061144
2026-03-15 15:53:00,METAR KRIL 151553Z AUTO 29014G20KT 10SM CLR 00/M13 A3023 RMK AO2 SLP226 T00001133
2026-03-15 14:53:00,METAR KRIL 151453Z AUTO 30013G20KT 10SM CLR M01/M13 A3021 RMK AO2 SLP218 T10111133 51048
2026-03-15 13:53:00,METAR KRIL 151353Z AUTO 33008G17KT 10SM CLR M01/M13 A3015 RMK AO2 PK WND 32027/1254 SLP196 T10061133
2026-03-15 12:53:00,METAR KRIL 151253Z AUTO 32022G30KT 10SM CLR 00/M14 A3011 RMK AO2 PK WND 33032/1231 SLP174 T00001139
2026-03-15 11:53:00,METAR KRIL 151153Z AUTO 33018G33KT 10SM CLR 01/M12 A3004 RMK AO2 PK WND 33035/1102 SLP145 60000 T00111122 10111 20011 53059
2026-03-15 10:53:00,METAR KRIL 151053Z AUTO 34010G26KT 10SM BKN070 02/M08 A2996 RMK AO2 PK WND 30037/1008 PRESRR SLP114 T00221083
2026-03-15 09:53:00,METAR KRIL 150953Z AUTO 33022G35KT 10SM FEW055 BKN070 BKN085 06/M04 A2988 RMK AO2 PK WND 32040/0911 SLP078 T00561039
2026-03-15 08:53:00,METAR KRIL 150853Z AUTO 33016G27KT 10SM BKN055 OVC070 07/M02 A2984 RMK AO2 PK WND 33033/0820 RAE26 SLP061 P0000 60000 T00721022 53020
