Time_recorded,METAR
2026-05-02 15:30:00,METAR LPFR 021530Z 25013KT 9999 FEW025 20/14 Q1016
2026-05-02 15:00:00,METAR LPFR 021500Z 25013KT 9999 FEW025 20/13 Q1016
2026-05-02 14:30:00,METAR LPFR 021430Z 25011KT 9999 FEW025 20/12 Q1017
2026-05-02 14:00:00,METAR LPFR 021400Z 24010KT 9999 FEW025 20/12 Q1017
2026-05-02 13:30:00,METAR LPFR 021330Z 24011KT 9999 FEW025 20/12 Q1017
2026-05-02 13:00:00,METAR LPFR 021300Z 24010KT 200V270 9999 FEW025 20/12 Q1017
2026-05-02 12:30:00,METAR LPFR 021230Z 23009KT 9999 FEW025 20/13 Q1018
2026-05-02 12:00:00,METAR LPFR 021200Z 22008KT 170V260 9999 FEW030 20/13 Q1018
2026-05-02 11:30:00,METAR LPFR 021130Z 19007KT 9999 FEW030 20/13 Q1018
2026-05-02 11:00:00,METAR LPFR 021100Z 17006KT 150V210 9999 FEW030 20/14 Q1018
2026-05-02 10:30:00,METAR LPFR 021030Z 21005KT 160V250 9999 FEW030 20/14 Q1018
2026-05-02 10:00:00,METAR LPFR 021000Z 17006KT 140V210 9999 FEW025 20/14 Q1018
2026-05-02 09:30:00,METAR LPFR 020930Z 12005KT 090V150 9999 FEW025 20/13 Q1018
2026-05-02 09:00:00,METAR LPFR 020900Z 06005KT 350V090 9999 FEW030 18/11 Q1018
2026-05-02 08:30:00,METAR LPFR 020830Z 04003KT 320V090 9999 FEW025 18/11 Q1018
2026-05-02 08:00:00,METAR LPFR 020800Z 04005KT 340V060 9999 FEW025 17/11 Q1017
2026-05-02 07:30:00,METAR LPFR 020730Z VRB02KT 9999 SCT030 17/11 Q1018
2026-05-02 07:00:00,METAR LPFR 020700Z 04005KT 9999 FEW030 17/10 Q1017
2026-05-02 06:30:00,METAR LPFR 020630Z 04006KT 020V090 9999 FEW030 16/10 Q1017
2026-05-02 06:00:00,METAR LPFR 020600Z 03006KT 9999 FEW035 16/10 Q1017
2026-05-02 05:30:00,METAR LPFR 020530Z 04005KT 010V090 CAVOK 16/10 Q1017
2026-05-02 05:00:00,METAR LPFR 020500Z 04005KT CAVOK 16/10 Q1017
2026-05-02 04:30:00,METAR LPFR 020430Z 36004KT CAVOK 16/10 Q1017
2026-05-02 04:00:00,METAR LPFR 020400Z 34003KT 310V010 CAVOK 16/11 Q1017
2026-05-02 03:30:00,METAR LPFR 020330Z VRB02KT CAVOK 17/12 Q1017
2026-05-02 03:00:00,METAR LPFR 020300Z 26003KT CAVOK 16/11 Q1017
2026-05-02 02:30:00,METAR LPFR 020230Z VRB02KT CAVOK 16/11 Q1017
2026-05-02 02:00:00,METAR LPFR 020200Z 04004KT CAVOK 17/11 Q1017
2026-05-02 01:30:00,METAR LPFR 020130Z 07003KT 360V100 CAVOK 17/10 Q1018
2026-05-02 01:00:00,METAR LPFR 020100Z 04003KT CAVOK 17/10 Q1018
2026-05-02 00:30:00,METAR LPFR 020030Z 05003KT CAVOK 17/10 Q1018
2026-05-02 00:00:00,METAR LPFR 020000Z 05007KT CAVOK 17/10 Q1018
2026-05-01 23:30:00,METAR LPFR 012330Z 03005KT CAVOK 18/10 Q1019
2026-05-01 23:00:00,METAR LPFR 012300Z 02004KT 330V070 CAVOK 18/09 Q1019
2026-05-01 22:30:00,METAR LPFR 012230Z 34005KT CAVOK 17/10 Q1019
2026-05-01 22:00:00,METAR LPFR 012200Z 33007KT CAVOK 17/10 Q1019
2026-05-01 21:30:00,METAR LPFR 012130Z 31007KT CAVOK 18/10 Q1019
2026-05-01 21:00:00,METAR LPFR 012100Z 30007KT CAVOK 18/10 Q1018
2026-05-01 20:30:00,METAR LPFR 012030Z 28010KT CAVOK 19/12 Q1018
2026-05-01 20:00:00,METAR LPFR 012000Z 27009KT CAVOK 18/13 Q1018
2026-05-01 19:30:00,METAR LPFR 011930Z 26009KT CAVOK 18/13 Q1018
2026-05-01 19:00:00,METAR LPFR 011900Z 27010KT CAVOK 18/13 Q1018
2026-05-01 18:30:00,METAR LPFR 011830Z 26012KT CAVOK 19/13 Q1018
2026-05-01 18:00:00,METAR LPFR 011800Z 26009KT CAVOK 19/12 Q1017
2026-05-01 17:30:00,METAR LPFR 011730Z 26010KT CAVOK 19/13 Q1018
2026-05-01 17:00:00,METAR LPFR 011700Z 26011KT CAVOK 20/13 Q1018
2026-05-01 16:30:00,METAR LPFR 011630Z 25011KT CAVOK 20/13 Q1018
2026-05-01 16:00:00,METAR LPFR 011600Z 26012KT CAVOK 20/13 Q1018
2026-05-01 15:30:00,METAR LPFR 011530Z 26013KT CAVOK 20/13 Q1018
2026-05-01 15:00:00,METAR LPFR 011500Z 25011KT CAVOK 20/13 Q1018
2026-05-01 14:30:00,METAR LPFR 011430Z 25012KT 9999 FEW025 20/12 Q1018
2026-05-01 14:00:00,METAR LPFR 011400Z 25012KT 9999 FEW025 20/14 Q1018
2026-05-01 13:30:00,METAR LPFR 011330Z 24010KT 9999 FEW025 20/13 Q1019
2026-05-01 13:00:00,METAR LPFR 011300Z 25009KT 210V270 9999 FEW025 20/13 Q1019
2026-05-01 12:30:00,METAR LPFR 011230Z 24009KT 9999 FEW025 20/13 Q1019
2026-05-01 12:00:00,METAR LPFR 011200Z 24009KT CAVOK 19/12 Q1019
2026-05-01 11:30:00,METAR LPFR 011130Z 23007KT 200V260 CAVOK 19/11 Q1019
2026-05-01 11:00:00,METAR LPFR 011100Z 22005KT 170V260 CAVOK 19/11 Q1019
2026-05-01 10:30:00,METAR LPFR 011030Z 22005KT 180V250 CAVOK 19/11 Q1019
2026-05-01 10:00:00,METAR LPFR 011000Z 18005KT 150V240 CAVOK 19/11 Q1019
2026-05-01 09:30:00,METAR LPFR 010930Z 17005KT 140V200 CAVOK 19/11 Q1019
2026-05-01 09:00:00,METAR LPFR 010900Z 20006KT 160V230 CAVOK 18/10 Q1019
2026-05-01 08:30:00,METAR LPFR 010830Z 18004KT 150V210 CAVOK 19/10 Q1019
2026-05-01 08:00:00,METAR LPFR 010800Z 17003KT 130V210 CAVOK 18/08 Q1019
2026-05-01 07:30:00,METAR LPFR 010730Z VRB02KT CAVOK 17/09 Q1018
2026-05-01 07:00:00,METAR LPFR 010700Z 04004KT 360V060 CAVOK 16/09 Q1018
2026-05-01 06:30:00,METAR LPFR 010630Z 03005KT 010V160 CAVOK 16/09 Q1018
2026-05-01 06:00:00,METAR LPFR 010600Z 02004KT CAVOK 15/08 Q1018
2026-05-01 05:30:00,METAR LPFR 010530Z VRB04KT CAVOK 15/08 Q1018
2026-05-01 05:00:00,METAR LPFR 010500Z 00000KT CAVOK 13/08 Q1018
2026-05-01 04:30:00,METAR LPFR 010430Z 06002KT CAVOK 15/07 Q1017
2026-05-01 04:00:00,METAR LPFR 010400Z 02003KT 360V060 CAVOK 15/07 Q1017
2026-05-01 03:30:00,METAR LPFR 010330Z VRB02KT CAVOK 14/07 Q1018
2026-05-01 03:00:00,METAR LPFR 010300Z 33003KT 300V010 CAVOK 14/07 Q1018
2026-05-01 02:30:00,METAR LPFR 010230Z 30004KT CAVOK 14/08 Q1018
2026-05-01 02:00:00,METAR LPFR 010200Z 31004KT CAVOK 15/08 Q1018
2026-05-01 01:30:00,METAR LPFR 010130Z 30006KT CAVOK 15/09 Q1018
2026-05-01 01:00:00,METAR LPFR 010100Z 30006KT CAVOK 15/09 Q1018
2026-05-01 00:30:00,METAR LPFR 010030Z 29007KT CAVOK 15/10 Q1019
2026-05-01 00:00:00,METAR LPFR 010000Z 29007KT CAVOK 15/09 Q1019
2026-04-30 23:30:00,METAR LPFR 302330Z 30007KT CAVOK 15/09 Q1018
2026-04-30 23:00:00,METAR LPFR 302300Z 30009KT CAVOK 16/09 Q1018
2026-04-30 22:30:00,METAR LPFR 302230Z 29008KT CAVOK 16/09 Q1018
2026-04-30 22:00:00,METAR LPFR 302200Z 29009KT CAVOK 17/09 Q1018
2026-04-30 21:30:00,METAR LPFR 302130Z 30010KT CAVOK 17/09 Q1018
2026-04-30 21:00:00,METAR LPFR 302100Z 29010KT CAVOK 18/09 Q1018
2026-04-30 20:30:00,METAR LPFR 302030Z 29012KT CAVOK 18/09 Q1017
2026-04-30 20:00:00,METAR LPFR 302000Z 26012KT CAVOK 18/13 Q1017
2026-04-30 19:30:00,METAR LPFR 301930Z 26014KT CAVOK 18/13 Q1017
2026-04-30 19:00:00,METAR LPFR 301900Z 25013KT CAVOK 18/13 Q1017
2026-04-30 18:30:00,METAR LPFR 301830Z 26013KT CAVOK 18/11 Q1016
2026-04-30 18:00:00,METAR LPFR 301800Z 25013KT 9999 FEW030 19/12 Q1016
2026-04-30 17:30:00,METAR LPFR 301730Z 25013KT 9999 FEW030 19/11 Q1016
2026-04-30 17:00:00,METAR LPFR 301700Z 24012KT 9999 FEW030 20/10 Q1016
2026-04-30 16:30:00,METAR LPFR 301630Z 24013KT 9999 FEW030 20/11 Q1017
2026-04-30 16:00:00,METAR LPFR 301600Z 24011KT 9999 FEW030 20/11 Q1016
2026-04-30 15:00:00,METAR LPFR 301500Z 24011KT 9999 FEW030 20/12 Q1017
2026-04-30 14:30:00,METAR LPFR 301430Z 22010KT 9999 FEW020 20/12 Q1017
2026-04-30 14:00:00,METAR LPFR 301400Z 22009KT 9999 FEW020 20/12 Q1017
2026-04-30 13:30:00,METAR LPFR 301330Z 22009KT 180V240 9999 FEW020 20/12 Q1017
2026-04-30 13:00:00,METAR LPFR 301300Z 21008KT 180V240 9999 FEW020 20/11 Q1017
2026-04-30 12:30:00,METAR LPFR 301230Z 22008KT 170V250 9999 FEW020 20/11 Q1017
2026-04-30 12:00:00,METAR LPFR 301200Z 20008KT 180V250 9999 FEW020 20/11 Q1017
2026-04-30 11:30:00,METAR LPFR 301130Z 20007KT 160V250 9999 FEW020 SCT045 19/12 Q1017
2026-04-30 11:00:00,METAR LPFR 301100Z 20007KT 170V240 9999 FEW020 SCT045 20/12 Q1017
2026-04-30 10:30:00,METAR LPFR 301030Z 18006KT 160V220 9999 FEW020 SCT045 19/12 Q1017
2026-04-30 10:00:00,METAR LPFR 301000Z VRB04KT 9999 FEW020 SCT048 19/12 Q1017
2026-04-30 09:30:00,METAR LPFR 300930Z 15005KT 110V180 9999 FEW020 19/11 Q1017
2026-04-30 09:00:00,METAR LPFR 300900Z 11003KT 060V160 9999 FEW020 19/10 Q1017
2026-04-30 08:30:00,METAR LPFR 300830Z VRB02KT 9999 FEW020 18/11 Q1016
2026-04-30 08:00:00,METAR LPFR 300800Z VRB03KT 9999 FEW020 18/12 Q1016
2026-04-30 07:30:00,METAR LPFR 300730Z 03004KT 330V060 9999 FEW020 17/11 Q1016
2026-04-30 07:00:00,METAR LPFR 300700Z 03005KT 9999 FEW020 16/11 Q1016
2026-04-30 06:30:00,METAR LPFR 300630Z 03006KT 9999 FEW020 14/10 Q1016
2026-04-30 06:00:00,METAR LPFR 300600Z 03005KT 340V040 9999 FEW030 13/10 Q1015
2026-04-30 05:30:00,METAR LPFR 300530Z 03006KT 340V040 9999 FEW020 13/10 Q1015
2026-04-30 05:00:00,METAR LPFR 300500Z 02005KT CAVOK 13/10 Q1015
2026-04-30 04:30:00,METAR LPFR 300430Z 02004KT CAVOK 13/10 Q1015
2026-04-30 04:00:00,METAR LPFR 300400Z 02005KT CAVOK 13/10 Q1015
2026-04-30 03:30:00,METAR LPFR 300330Z 02004KT CAVOK 13/10 Q1015
2026-04-30 03:00:00,METAR LPFR 300300Z 02003KT CAVOK 13/10 Q1015
2026-04-30 02:30:00,METAR LPFR 300230Z 02005KT CAVOK 13/10 Q1015
2026-04-30 02:00:00,METAR LPFR 300200Z 03006KT CAVOK 13/10 Q1015
2026-04-30 01:30:00,METAR LPFR 300130Z 03005KT CAVOK 14/10 Q1015
2026-04-30 01:00:00,METAR LPFR 300100Z 03006KT CAVOK 15/10 Q1015
2026-04-30 00:30:00,METAR LPFR 300030Z 02005KT CAVOK 15/10 Q1015
2026-04-30 00:00:00,METAR LPFR 300000Z 31004KT CAVOK 15/10 Q1015
2026-04-29 23:30:00,METAR LPFR 292330Z 31004KT CAVOK 15/10 Q1015
2026-04-29 23:00:00,METAR LPFR 292300Z 30006KT CAVOK 16/10 Q1014
2026-04-29 22:30:00,METAR LPFR 292230Z 29009KT CAVOK 17/10 Q1014
2026-04-29 22:00:00,METAR LPFR 292200Z 26011KT CAVOK 16/12 Q1014
2026-04-29 21:30:00,METAR LPFR 292130Z 26009KT CAVOK 16/12 Q1014
2026-04-29 21:00:00,METAR LPFR 292100Z 25009KT CAVOK 17/12 Q1013
2026-04-29 20:30:00,METAR LPFR 292030Z 25010KT CAVOK 17/12 Q1013
2026-04-29 20:00:00,METAR LPFR 292000Z 25010KT 9999 FEW020 17/12 Q1012
2026-04-29 19:30:00,METAR LPFR 291930Z 25010KT 9999 FEW020 17/13 Q1012
2026-04-29 19:00:00,METAR LPFR 291900Z 24011KT 9999 FEW020 17/13 Q1011
2026-04-29 18:30:00,METAR LPFR 291830Z 24011KT 9999 FEW020 18/13 Q1011
2026-04-29 18:00:00,METAR LPFR 291800Z 24013KT 9999 FEW020 18/13 Q1011
2026-04-29 17:30:00,METAR LPFR 291730Z 24014KT 9999 FEW020 18/12 Q1011
2026-04-29 17:00:00,METAR LPFR 291700Z 24013KT 9999 FEW020 19/12 Q1011
2026-04-29 16:30:00,METAR LPFR 291630Z 23013KT 9999 FEW020 19/13 Q1011
2026-04-29 16:00:00,METAR LPFR 291600Z 24012KT 9999 FEW020 19/13 Q1010
2026-04-29 15:30:00,METAR LPFR 291530Z 24012KT 9999 FEW020 19/12 Q1010
2026-04-29 15:00:00,METAR LPFR 291500Z 25014KT 9999 FEW020 19/12 Q1010
2026-04-29 14:30:00,METAR LPFR 291430Z 24015KT 9999 FEW020 20/12 Q1011
2026-04-29 14:00:00,METAR LPFR 291400Z 24014KT 9999 FEW020 19/13 Q1010
2026-04-29 13:30:00,METAR LPFR 291330Z 23013KT 200V260 9999 FEW020 19/12 Q1010
2026-04-29 13:00:00,METAR LPFR 291300Z 24014KT 9999 FEW020 19/12 Q1011
2026-04-29 12:30:00,METAR LPFR 291230Z 24014KT 9999 FEW020 20/12 Q1011
2026-04-29 12:00:00,METAR LPFR 291200Z 24013KT 9999 FEW020 19/11 Q1011
2026-04-29 11:30:00,METAR LPFR 291130Z 25013KT 9999 FEW020 19/10 Q1011
2026-04-29 11:00:00,METAR LPFR 291100Z 24013KT 9999 FEW020 19/11 Q1011
2026-04-29 10:30:00,METAR LPFR 291030Z 25012KT 9999 FEW020 19/11 Q1011
2026-04-29 10:00:00,METAR LPFR 291000Z 25011KT 9999 FEW020 SCT035 19/12 Q1010
2026-04-29 09:30:00,METAR LPFR 290930Z 26009KT 9999 FEW018 BKN033 18/11 Q1010
2026-04-29 09:00:00,METAR LPFR 290900Z 26008KT 9999 FEW015 BKN030 17/12 Q1010
2026-04-29 08:30:00,METAR LPFR 290830Z 27010KT 9999 FEW015 BKN028 17/12 Q1010
2026-04-29 08:00:00,METAR LPFR 290800Z 27009KT 9999 FEW013 BKN025 16/13 Q1010
2026-04-29 07:30:00,METAR LPFR 290730Z 26012KT 9999 SCT012 BKN025 16/13 Q1010
2026-04-29 07:00:00,METAR LPFR 290700Z 27007KT 9999 FEW012 BKN025 16/13 Q1009
2026-04-29 06:30:00,METAR LPFR 290630Z 29009KT 9999 FEW010 BKN022 16/14 Q1009
2026-04-29 06:00:00,METAR LPFR 290600Z 28011KT 9999 FEW010 BKN022 16/14 Q1009
2026-04-29 05:30:00,METAR LPFR 290530Z 27011KT 9999 FEW008 BKN020 16/14 Q1008
2026-04-29 05:00:00,METAR LPFR 290500Z 26012KT 9999 SCT008 BKN015 16/14 Q1008
2026-04-29 04:30:00,METAR LPFR 290430Z 29009KT 8000 SCT006 BKN015 16/15 Q1009
2026-04-29 04:00:00,METAR LPFR 290400Z 28010KT 8000 -DZ SCT006 BKN015 16/15 Q1009
2026-04-29 03:30:00,METAR LPFR 290330Z 26009KT 9999 SCT008 BKN018 16/15 Q1009
2026-04-29 03:00:00,METAR LPFR 290300Z 26010KT 9999 FEW010 BKN018 17/14 Q1008
2026-04-29 02:30:00,METAR LPFR 290230Z 26011KT 9999 SCT008 BKN018 17/14 Q1008
2026-04-29 02:00:00,METAR LPFR 290200Z 27012KT 9999 FEW008 BKN015 17/15 Q1008
2026-04-29 01:30:00,METAR LPFR 290130Z 26010KT 9999 FEW008 BKN015 17/15 Q1009
2026-04-29 01:00:00,METAR LPFR 290100Z 26010KT 9999 BKN012 17/15 Q1009
2026-04-29 00:30:00,METAR LPFR 290030Z 25009KT 9999 BKN012 17/14 Q1009
2026-04-29 00:00:00,METAR LPFR 290000Z 26010KT 9999 BKN012 17/14 Q1009
2026-04-28 23:30:00,METAR LPFR 282330Z 25008KT 9999 SCT012 BKN020 17/15 Q1009
2026-04-28 23:00:00,METAR LPFR 282300Z 26009KT 9999 FEW012 BKN022 17/15 Q1009
2026-04-28 22:30:00,METAR LPFR 282230Z 27009KT 9999 FEW020 BKN025 17/15 Q1010
2026-04-28 22:00:00,METAR LPFR 282200Z 26011KT 9999 BKN022 17/15 Q1010
2026-04-28 21:30:00,METAR LPFR 282130Z 26011KT 9999 BKN022 17/15 Q1010
2026-04-28 21:00:00,METAR LPFR 282100Z 25012KT 9999 BKN020 18/15 Q1009
2026-04-28 20:30:00,METAR LPFR 282030Z 26010KT 9999 FEW010 BKN018 18/15 Q1009
2026-04-28 20:00:00,METAR LPFR 282000Z 25009KT 9999 BKN016 18/16 Q1008
2026-04-28 19:30:00,METAR LPFR 281930Z 26009KT 9999 BKN016 18/16 Q1008
2026-04-28 19:00:00,METAR LPFR 281900Z 26008KT 9999 BKN015 19/16 Q1008
2026-04-28 18:30:00,METAR LPFR 281830Z 26008KT 9999 BKN012 19/16 Q1007
2026-04-28 18:00:00,METAR LPFR 281800Z 25007KT 9999 BKN010 19/16 Q1007
2026-04-28 17:30:00,METAR LPFR 281730Z VRB02KT 9999 FEW006 BKN010 19/17 Q1007
2026-04-28 17:00:00,METAR LPFR 281700Z 11007KT 9999 BKN012 20/17 Q1008
2026-04-28 16:30:00,METAR LPFR 281630Z 08008KT 040V100 9999 BKN012 20/16 Q1007
2026-04-28 16:00:00,METAR LPFR 281600Z 08009KT 9999 BKN012 20/16 Q1007
2026-04-28 15:30:00,METAR LPFR 281530Z 09012KT 9999 FEW013 22/16 Q1007
2026-04-28 15:00:00,METAR LPFR 281500Z 09013KT 9999 FEW015 22/16 Q1007
2026-04-28 14:30:00,METAR LPFR 281430Z 08011KT 050V110 9999 SCT018 22/16 Q1008
2026-04-28 14:00:00,METAR LPFR 281400Z 10013KT 9999 BKN020 21/16 Q1008
2026-04-28 13:30:00,METAR LPFR 281330Z 09011KT 9999 BKN020 22/16 Q1008
2026-04-28 13:00:00,METAR LPFR 281300Z 10013KT 9999 FEW020 BKN025 21/15 Q1008
2026-04-28 12:30:00,METAR LPFR 281230Z 09010KT 050V120 9999 FEW020 BKN025 22/15 Q1009
2026-04-28 12:00:00,METAR LPFR 281200Z 08010KT 9999 FEW020 BKN025 22/15 Q1009
2026-04-28 11:30:00,METAR LPFR 281130Z 09011KT 9999 BKN020 20/15 Q1009
2026-04-28 11:00:00,METAR LPFR 281100Z 09012KT 9999 BKN022 20/14 Q1009
2026-04-28 10:30:00,METAR LPFR 281030Z 09014KT 9999 BKN022 21/14 Q1009
2026-04-28 10:00:00,METAR LPFR 281000Z 09014KT 9999 BKN026 21/14 Q1009
2026-04-28 09:30:00,METAR LPFR 280930Z 09015KT 9999 BKN026 21/14 Q1009
2026-04-28 09:00:00,METAR LPFR 280900Z 09011KT 9999 SCT024 21/14 Q1009
2026-04-28 08:30:00,METAR LPFR 280830Z 09010KT 9999 SCT020 21/15 Q1009
2026-04-28 08:00:00,METAR LPFR 280800Z 08009KT 9999 SCT020 21/14 Q1009
2026-04-28 07:30:00,METAR LPFR 280730Z 07008KT CAVOK 21/14 Q1009
2026-04-28 07:00:00,METAR LPFR 280700Z 03005KT CAVOK 19/13 Q1009
2026-04-28 06:30:00,METAR LPFR 280630Z 03006KT CAVOK 18/13 Q1008
2026-04-28 06:00:00,METAR LPFR 280600Z 03006KT 020V080 CAVOK 17/13 Q1008
2026-04-28 05:30:00,METAR LPFR 280530Z 03006KT 340V080 CAVOK 17/13 Q1009
2026-04-28 05:00:00,METAR LPFR 280500Z 03006KT CAVOK 17/13 Q1009
2026-04-28 04:30:00,METAR LPFR 280430Z 02007KT CAVOK 17/13 Q1009
2026-04-28 04:00:00,METAR LPFR 280400Z 02006KT 9999 FEW020 17/13 Q1009
2026-04-28 03:30:00,METAR LPFR 280330Z 03005KT 9999 FEW015 17/13 Q1009
2026-04-28 03:00:00,METAR LPFR 280300Z 02004KT CAVOK 17/13 Q1009
2026-04-28 02:30:00,METAR LPFR 280230Z 08003KT 020V140 CAVOK 18/14 Q1010
2026-04-28 02:00:00,METAR LPFR 280200Z 08003KT 030V130 CAVOK 18/13 Q1010
2026-04-28 01:30:00,METAR LPFR 280130Z 04005KT CAVOK 16/12 Q1010
2026-04-28 01:00:00,METAR LPFR 280100Z 02005KT CAVOK 17/13 Q1010
2026-04-28 00:30:00,METAR LPFR 280030Z 01004KT CAVOK 18/14 Q1011
2026-04-28 00:00:00,METAR LPFR 280000Z VRB02KT CAVOK 18/16 Q1011
2026-04-27 23:30:00,METAR LPFR 272330Z 15004KT CAVOK 18/15 Q1011
2026-04-27 23:00:00,METAR LPFR 272300Z 11003KT CAVOK 18/14 Q1011
2026-04-27 22:30:00,METAR LPFR 272230Z 27003KT 240V300 CAVOK 19/15 Q1011
2026-04-27 22:00:00,METAR LPFR 272200Z 31004KT 280V360 CAVOK 19/14 Q1011
2026-04-27 21:30:00,METAR LPFR 272130Z 27004KT CAVOK 19/14 Q1011
2026-04-27 21:00:00,METAR LPFR 272100Z 24003KT CAVOK 19/14 Q1011
2026-04-27 20:30:00,METAR LPFR 272030Z 21004KT CAVOK 19/14 Q1011
2026-04-27 20:00:00,METAR LPFR 272000Z 22004KT CAVOK 18/14 Q1010
2026-04-27 19:30:00,METAR LPFR 271930Z 24004KT CAVOK 19/14 Q1010
2026-04-27 19:00:00,METAR LPFR 271900Z 26006KT CAVOK 20/13 Q1010
2026-04-27 18:30:00,METAR LPFR 271830Z 26006KT CAVOK 21/13 Q1010
2026-04-27 18:00:00,METAR LPFR 271800Z 25007KT CAVOK 21/13 Q1011
2026-04-27 17:30:00,METAR LPFR 271730Z 27008KT 9999 FEW040 21/13 Q1011
2026-04-27 17:00:00,METAR LPFR 271700Z 25008KT CAVOK 21/14 Q1010
2026-04-27 16:30:00,METAR LPFR 271630Z 25008KT CAVOK 21/14 Q1010
2026-04-27 16:00:00,METAR LPFR 271600Z 20007KT 160V240 CAVOK 22/13 Q1010
2026-04-27 15:30:00,METAR LPFR 271530Z 22007KT 170V260 CAVOK 23/14 Q1010
2026-04-27 15:00:00,METAR LPFR 271500Z 12008KT 090V150 9999 FEW045 24/13 Q1011
2026-04-27 14:30:00,METAR LPFR 271430Z 12010KT 9999 FEW040 24/14 Q1011
2026-04-27 14:00:00,METAR LPFR 271400Z 13011KT 9999 FEW040 23/14 Q1011
2026-04-27 13:30:00,METAR LPFR 271330Z 13010KT 9999 FEW035 23/13 Q1012
2026-04-27 13:00:00,METAR LPFR 271300Z 14009KT CAVOK 22/13 Q1012
2026-04-27 12:30:00,METAR LPFR 271230Z 12011KT CAVOK 22/13 Q1013
2026-04-27 12:00:00,METAR LPFR 271200Z 12010KT CAVOK 21/13 Q1013
2026-04-27 11:30:00,METAR LPFR 271130Z 12012KT CAVOK 21/13 Q1013
2026-04-27 11:00:00,METAR LPFR 271100Z 11010KT CAVOK 22/12 Q1013
2026-04-27 10:30:00,METAR LPFR 271030Z 09008KT CAVOK 22/13 Q1013
2026-04-27 10:00:00,METAR LPFR 271000Z 10013KT CAVOK 21/13 Q1014
2026-04-27 09:30:00,METAR LPFR 270930Z 10011KT 060V120 CAVOK 22/13 Q1013
2026-04-27 09:00:00,METAR LPFR 270900Z 08009KT CAVOK 22/11 Q1013
2026-04-27 08:30:00,METAR LPFR 270830Z 06010KT CAVOK 21/12 Q1013
2026-04-27 08:00:00,METAR LPFR 270800Z 08006KT 040V100 CAVOK 20/13 Q1013
2026-04-27 07:30:00,METAR LPFR 270730Z 04004KT 350V090 CAVOK 19/13 Q1013
2026-04-27 07:00:00,METAR LPFR 270700Z 03005KT 020V120 CAVOK 18/12 Q1013
2026-04-27 06:30:00,METAR LPFR 270630Z 02007KT CAVOK 17/12 Q1013
2026-04-27 06:00:00,METAR LPFR 270600Z 03005KT CAVOK 17/11 Q1013
2026-04-27 05:30:00,METAR LPFR 270530Z 03006KT 320V080 CAVOK 17/11 Q1013
2026-04-27 05:00:00,METAR LPFR 270500Z 02005KT CAVOK 17/12 Q1013
2026-04-27 04:30:00,METAR LPFR 270430Z 02006KT CAVOK 17/12 Q1013
2026-04-27 04:00:00,METAR LPFR 270400Z 02006KT CAVOK 17/13 Q1013
2026-04-27 03:30:00,METAR LPFR 270330Z 02007KT CAVOK 17/12 Q1013
2026-04-27 03:00:00,METAR LPFR 270300Z 03007KT CAVOK 17/12 Q1013
2026-04-27 02:30:00,METAR LPFR 270230Z 04005KT CAVOK 17/13 Q1014
2026-04-27 02:00:00,METAR LPFR 270200Z 09007KT 040V120 CAVOK 18/14 Q1014
2026-04-27 01:30:00,METAR LPFR 270130Z 05004KT 020V090 CAVOK 18/13 Q1014
2026-04-27 01:00:00,METAR LPFR 270100Z 09006KT CAVOK 18/12 Q1014
2026-04-27 00:30:00,METAR LPFR 270030Z 04005KT CAVOK 18/15 Q1015
2026-04-27 00:00:00,METAR LPFR 270000Z 03006KT CAVOK 18/16 Q1015
2026-04-26 23:30:00,METAR LPFR 262330Z 03005KT CAVOK 18/16 Q1015
2026-04-26 23:00:00,METAR LPFR 262300Z 16004KT CAVOK 18/16 Q1015
2026-04-26 22:30:00,METAR LPFR 262230Z 16009KT CAVOK 18/16 Q1015
2026-04-26 22:00:00,METAR LPFR 262200Z 16007KT CAVOK 18/17 Q1015
2026-04-26 21:30:00,METAR LPFR 262130Z 20006KT CAVOK 18/16 Q1014
2026-04-26 21:00:00,METAR LPFR 262100Z 21003KT 190V260 CAVOK 19/16 Q1014
2026-04-26 20:30:00,METAR LPFR 262030Z 29003KT CAVOK 19/15 Q1014
2026-04-26 20:00:00,METAR LPFR 262000Z 28007KT CAVOK 19/16 Q1014
2026-04-26 19:30:00,METAR LPFR 261930Z 27007KT CAVOK 19/15 Q1014
2026-04-26 19:00:00,METAR LPFR 261900Z 27007KT CAVOK 19/16 Q1014
2026-04-26 18:30:00,METAR LPFR 261830Z 27008KT CAVOK 20/15 Q1014
2026-04-26 18:00:00,METAR LPFR 261800Z 27009KT 9999 FEW035 20/15 Q1014
2026-04-26 17:30:00,METAR LPFR 261730Z 27010KT 9999 FEW030 21/14 Q1014
2026-04-26 17:00:00,METAR LPFR 261700Z 27010KT 9999 FEW030 22/14 Q1014
2026-04-26 16:30:00,METAR LPFR 261630Z 27009KT 240V300 9999 FEW030 22/14 Q1014
2026-04-26 16:00:00,METAR LPFR 261600Z 26007KT 210V320 9999 FEW030 21/14 Q1014
2026-04-26 15:30:00,METAR LPFR 261530Z 23005KT 190V270 9999 FEW025 21/15 Q1014
2026-04-26 15:00:00,METAR LPFR 261500Z 23006KT 200V270 9999 FEW025 22/16 Q1015
2026-04-26 14:30:00,METAR LPFR 261430Z 23008KT 190V260 9999 FEW025 21/16 Q1015
2026-04-26 14:00:00,METAR LPFR 261400Z 18009KT 9999 FEW025 22/16 Q1015
2026-04-26 13:30:00,METAR LPFR 261330Z 13011KT 9999 FEW025 23/14 Q1015
2026-04-26 13:00:00,METAR LPFR 261300Z 12012KT 9999 FEW030 22/14 Q1015
2026-04-26 12:30:00,METAR LPFR 261230Z 12011KT 9999 FEW030 22/14 Q1015
2026-04-26 12:00:00,METAR LPFR 261200Z 12011KT 9999 FEW030 22/15 Q1015
2026-04-26 11:30:00,METAR LPFR 261130Z 12011KT 9999 FEW025 21/14 Q1016
2026-04-26 11:00:00,METAR LPFR 261100Z 12011KT 9999 FEW025 21/14 Q1016
2026-04-26 10:30:00,METAR LPFR 261030Z 12010KT 9999 FEW018 21/15 Q1016
2026-04-26 10:00:00,METAR LPFR 261000Z 11010KT 9999 FEW018 20/15 Q1016
2026-04-26 09:30:00,METAR LPFR 260930Z 12009KT 9999 FEW018 20/15 Q1016
2026-04-26 09:00:00,METAR LPFR 260900Z 11008KT 9999 FEW015 20/15 Q1016
2026-04-26 08:30:00,METAR LPFR 260830Z 10007KT 070V130 9999 FEW015 20/15 Q1016
2026-04-26 08:00:00,METAR LPFR 260800Z 07007KT CAVOK 19/14 Q1016
2026-04-26 07:30:00,METAR LPFR 260730Z 04005KT 020V080 CAVOK 18/15 Q1016
2026-04-26 07:00:00,METAR LPFR 260700Z 05005KT 030V090 CAVOK 17/14 Q1016
2026-04-26 06:30:00,METAR LPFR 260630Z 02006KT CAVOK 16/14 Q1015
2026-04-26 06:00:00,METAR LPFR 260600Z 03004KT 350V060 CAVOK 16/14 Q1015
2026-04-26 05:30:00,METAR LPFR 260530Z 03005KT 290V080 CAVOK 16/14 Q1015
2026-04-26 05:00:00,METAR LPFR 260500Z 02004KT CAVOK 16/14 Q1015
2026-04-26 04:30:00,METAR LPFR 260430Z 09004KT CAVOK 16/15 Q1015
2026-04-26 04:00:00,METAR LPFR 260400Z 04004KT CAVOK 16/14 Q1014
2026-04-26 03:30:00,METAR LPFR 260330Z 04005KT CAVOK 16/14 Q1014
2026-04-26 03:00:00,METAR LPFR 260300Z 02006KT CAVOK 16/14 Q1015
2026-04-26 02:30:00,METAR LPFR 260230Z 03006KT CAVOK 17/14 Q1015
2026-04-26 02:00:00,METAR LPFR 260200Z 02006KT CAVOK 17/15 Q1015
2026-04-26 01:30:00,METAR LPFR 260130Z 03006KT CAVOK 17/15 Q1015
2026-04-26 01:00:00,METAR LPFR 260100Z 03005KT CAVOK 17/15 Q1015
2026-04-26 00:30:00,METAR LPFR 260030Z 05003KT 020V090 CAVOK 17/15 Q1015
2026-04-26 00:00:00,METAR LPFR 260000Z 13007KT CAVOK 18/16 Q1015
2026-04-25 23:30:00,METAR LPFR 252330Z 14007KT CAVOK 18/16 Q1015
2026-04-25 23:00:00,METAR LPFR 252300Z 13007KT CAVOK 18/16 Q1016
2026-04-25 22:30:00,METAR LPFR 252230Z 13006KT CAVOK 18/16 Q1015
2026-04-25 22:00:00,METAR LPFR 252200Z 17004KT 130V200 CAVOK 18/15 Q1015
2026-04-25 21:30:00,METAR LPFR 252130Z 15003KT 110V180 9999 FEW035 19/15 Q1015
2026-04-25 21:00:00,METAR LPFR 252100Z VRB02KT 9999 FEW035 19/15 Q1015
2026-04-25 20:30:00,METAR LPFR 252030Z VRB01KT 9999 FEW035 18/15 Q1015
2026-04-25 20:00:00,METAR LPFR 252000Z VRB02KT 9999 SCT035 19/15 Q1015
2026-04-25 19:30:00,METAR LPFR 251930Z 16005KT 9999 SCT035 19/15 Q1014
2026-04-25 19:00:00,METAR LPFR 251900Z 19004KT 160V220 9999 SCT035 19/15 Q1014
2026-04-25 18:30:00,METAR LPFR 251830Z 19005KT 9999 SCT035 19/15 Q1014
2026-04-25 18:00:00,METAR LPFR 251800Z 20006KT 9999 SCT035 20/15 Q1014
2026-04-25 17:30:00,METAR LPFR 251730Z 21006KT 9999 FEW045 20/15 Q1014
2026-04-25 17:00:00,METAR LPFR 251700Z 22008KT 9999 FEW045 21/14 Q1014
2026-04-25 16:30:00,METAR LPFR 251630Z 24009KT 9999 FEW045 22/12 Q1014
2026-04-25 16:00:00,METAR LPFR 251600Z 25010KT 9999 FEW025 21/14 Q1014
2026-04-25 15:30:00,METAR LPFR 251530Z 24007KT 9999 FEW025 21/15 Q1014
2026-04-25 15:00:00,METAR LPFR 251500Z 25010KT 9999 FEW025 21/13 Q1014
2026-04-25 14:30:00,METAR LPFR 251430Z 26011KT 9999 FEW025 21/13 Q1014
2026-04-25 14:00:00,METAR LPFR 251400Z 25012KT 9999 FEW025 20/14 Q1015
2026-04-25 13:30:00,METAR LPFR 251330Z 25010KT 9999 FEW025 20/15 Q1015
2026-04-25 13:00:00,METAR LPFR 251300Z 24011KT 9999 FEW025 20/16 Q1015
2026-04-25 12:30:00,METAR LPFR 251230Z 25008KT 9999 FEW025 20/16 Q1015
2026-04-25 12:00:00,METAR LPFR 251200Z 22006KT 190V270 9999 FEW025 20/15 Q1016
2026-04-25 11:30:00,METAR LPFR 251130Z 23009KT 9999 FEW025 19/15 Q1016
2026-04-25 11:00:00,METAR LPFR 251100Z 19007KT 9999 FEW025 20/16 Q1016
2026-04-25 10:30:00,METAR LPFR 251030Z 19007KT 140V210 CAVOK 20/16 Q1016
2026-04-25 10:00:00,METAR LPFR 251000Z 15006KT CAVOK 20/15 Q1016
2026-04-25 09:30:00,METAR LPFR 250930Z 16005KT 130V200 CAVOK 20/15 Q1016
2026-04-25 09:00:00,METAR LPFR 250900Z 17004KT 120V200 CAVOK 19/15 Q1016
2026-04-25 08:30:00,METAR LPFR 250830Z 16004KT CAVOK 19/14 Q1016
2026-04-25 08:00:00,METAR LPFR 250800Z VRB02KT CAVOK 19/14 Q1016
2026-04-25 07:30:00,METAR LPFR 250730Z 04005KT 350V060 CAVOK 17/12 Q1016
2026-04-25 07:00:00,METAR LPFR 250700Z 03004KT 350V050 CAVOK 17/12 Q1016
2026-04-25 06:30:00,METAR LPFR 250630Z 02003KT 330V050 CAVOK 15/12 Q1016
2026-04-25 06:00:00,METAR LPFR 250600Z 34003KT 300V040 CAVOK 13/11 Q1016
2026-04-25 05:30:00,METAR LPFR 250530Z 03004KT 330V040 CAVOK 15/12 Q1016
2026-04-25 05:00:00,METAR LPFR 250500Z 02005KT CAVOK 15/12 Q1016
2026-04-25 04:30:00,METAR LPFR 250430Z 01002KT CAVOK 16/12 Q1016
2026-04-25 04:00:00,METAR LPFR 250400Z 01002KT CAVOK 16/12 Q1016
2026-04-25 03:30:00,METAR LPFR 250330Z 05003KT 010V100 CAVOK 15/12 Q1016
2026-04-25 03:00:00,METAR LPFR 250300Z 34004KT CAVOK 16/12 Q1016
2026-04-25 02:30:00,METAR LPFR 250230Z 26004KT CAVOK 16/13 Q1016
2026-04-25 02:00:00,METAR LPFR 250200Z 26004KT CAVOK 17/13 Q1016
2026-04-25 01:30:00,METAR LPFR 250130Z 24004KT CAVOK 17/14 Q1017
2026-04-25 01:00:00,METAR LPFR 250100Z 26006KT CAVOK 16/13 Q1017
2026-04-25 00:30:00,METAR LPFR 250030Z 27006KT CAVOK 16/13 Q1017
2026-04-25 00:00:00,METAR LPFR 250000Z 29005KT CAVOK 17/12 Q1017
2026-04-24 23:30:00,METAR LPFR 242330Z 30007KT CAVOK 18/12 Q1018
2026-04-24 23:00:00,METAR LPFR 242300Z 32008KT CAVOK 18/12 Q1018
2026-04-24 22:30:00,METAR LPFR 242230Z 33007KT CAVOK 18/12 Q1018
2026-04-24 22:00:00,METAR LPFR 242200Z 30005KT CAVOK 18/14 Q1018
2026-04-24 21:30:00,METAR LPFR 242130Z 30007KT CAVOK 18/14 Q1018
2026-04-24 21:00:00,METAR LPFR 242100Z 30005KT CAVOK 18/14 Q1017
2026-04-24 20:30:00,METAR LPFR 242030Z 31006KT 9999 FEW045 18/14 Q1017
2026-04-24 20:00:00,METAR LPFR 242000Z 29006KT 9999 FEW030 19/14 Q1017
2026-04-24 19:30:00,METAR LPFR 241930Z 29008KT 9999 FEW030 19/14 Q1016
2026-04-24 19:00:00,METAR LPFR 241900Z 27008KT 9999 FEW045 19/14 Q1016
2026-04-24 18:30:00,METAR LPFR 241830Z 27008KT CAVOK 19/13 Q1016
2026-04-24 18:00:00,METAR LPFR 241800Z 26011KT CAVOK 20/14 Q1016
2026-04-24 17:30:00,METAR LPFR 241730Z 26012KT CAVOK 19/14 Q1016
2026-04-24 17:00:00,METAR LPFR 241700Z 25012KT 9999 FEW025 20/15 Q1016
2026-04-24 16:30:00,METAR LPFR 241630Z 25011KT 9999 FEW020 20/14 Q1016
2026-04-24 16:00:00,METAR LPFR 241600Z 26011KT 9999 FEW020 20/13 Q1016
2026-04-24 15:30:00,METAR LPFR 241530Z 25011KT 9999 FEW020 19/14 Q1017
2026-04-24 15:00:00,METAR LPFR 241500Z 22010KT 9999 FEW020 20/14 Q1017
2026-04-24 14:30:00,METAR LPFR 241430Z 23009KT 200V260 9999 FEW020 20/14 Q1016
2026-04-24 14:00:00,METAR LPFR 241400Z 22008KT 9999 FEW020 20/13 Q1017
2026-04-24 13:30:00,METAR LPFR 241330Z 21008KT 9999 FEW020 20/12 Q1017
2026-04-24 13:00:00,METAR LPFR 241300Z 22008KT 9999 FEW020 20/13 Q1017
2026-04-24 12:30:00,METAR LPFR 241230Z 22009KT 9999 FEW020 20/13 Q1017
2026-04-24 12:00:00,METAR LPFR 241200Z 22009KT 9999 FEW020 19/13 Q1017
2026-04-24 11:30:00,METAR LPFR 241130Z 22008KT 9999 FEW020 19/13 Q1017
2026-04-24 11:00:00,METAR LPFR 241100Z 21008KT 9999 FEW020 19/13 Q1017
2026-04-24 10:30:00,METAR LPFR 241030Z 22009KT 9999 FEW020 19/12 Q1017
2026-04-24 10:00:00,METAR LPFR 241000Z 18007KT 150V210 9999 FEW020 20/12 Q1017
2026-04-24 09:30:00,METAR LPFR 240930Z 35005KT 290V060 CAVOK 19/11 Q1017
2026-04-24 09:00:00,METAR LPFR 240900Z 36005KT 320V040 9999 FEW030 18/11 Q1017
2026-04-24 08:30:00,METAR LPFR 240830Z 33004KT 280V360 9999 FEW040 16/11 Q1018
2026-04-24 08:00:00,METAR LPFR 240800Z 35003KT 290V050 9999 FEW038 16/11 Q1018
2026-04-24 07:30:00,METAR LPFR 240730Z 02004KT 320V050 CAVOK 15/11 Q1017
2026-04-24 07:00:00,METAR LPFR 240700Z 02004KT 320V040 CAVOK 14/10 Q1017
2026-04-24 06:30:00,METAR LPFR 240630Z 36004KT 300V020 CAVOK 14/10 Q1016
2026-04-24 06:00:00,METAR LPFR 240600Z 29004KT 240V350 CAVOK 13/10 Q1016
2026-04-24 05:30:00,METAR LPFR 240530Z 32007KT CAVOK 13/10 Q1015
2026-04-24 05:00:00,METAR LPFR 240500Z 32005KT CAVOK 13/10 Q1015
2026-04-24 04:30:00,METAR LPFR 240430Z 34008KT CAVOK 14/10 Q1015
2026-04-24 04:00:00,METAR LPFR 240400Z 30006KT CAVOK 14/10 Q1015
2026-04-24 03:30:00,METAR LPFR 240330Z 31006KT CAVOK 14/10 Q1015
2026-04-24 03:00:00,METAR LPFR 240300Z 29005KT 9999 FEW040 14/10 Q1015
2026-04-24 02:30:00,METAR LPFR 240230Z 30003KT 9999 FEW040 14/10 Q1015
2026-04-24 02:00:00,METAR LPFR 240200Z 30005KT 9999 FEW040 15/10 Q1015
2026-04-24 01:30:00,METAR LPFR 240130Z 31006KT 9999 SCT040 15/10 Q1016
2026-04-24 01:00:00,METAR LPFR 240100Z 30006KT 9999 SCT040 16/10 Q1016
2026-04-24 00:30:00,METAR LPFR 240030Z 29005KT 9999 SCT040 16/10 Q1016
2026-04-24 00:00:00,METAR LPFR 240000Z 28006KT 9999 FEW040 15/10 Q1016
2026-04-23 23:30:00,METAR LPFR 232330Z 26005KT CAVOK 14/11 Q1015
2026-04-23 23:00:00,METAR LPFR 232300Z 28004KT CAVOK 15/11 Q1015
2026-04-23 22:30:00,METAR LPFR 232230Z 31006KT CAVOK 15/10 Q1015
2026-04-23 22:00:00,METAR LPFR 232200Z 32008KT CAVOK 16/10 Q1015
2026-04-23 21:30:00,METAR LPFR 232130Z 30008KT CAVOK 16/10 Q1015
2026-04-23 21:00:00,METAR LPFR 232100Z 30011KT CAVOK 17/11 Q1015
2026-04-23 20:30:00,METAR LPFR 232030Z 28014KT CAVOK 17/11 Q1014
2026-04-23 20:00:00,METAR LPFR 232000Z 26015KT CAVOK 17/12 Q1014
2026-04-23 19:30:00,METAR LPFR 231930Z 26015KT CAVOK 17/13 Q1014
2026-04-23 19:00:00,METAR LPFR 231900Z 25015KT CAVOK 17/12 Q1014
2026-04-23 18:30:00,METAR LPFR 231830Z 25015KT CAVOK 17/12 Q1013
2026-04-23 18:00:00,METAR LPFR 231800Z 25014KT CAVOK 17/12 Q1013
2026-04-23 17:30:00,METAR LPFR 231730Z 25015KT CAVOK 17/12 Q1013
2026-04-23 17:00:00,METAR LPFR 231700Z 25016KT CAVOK 18/12 Q1013
2026-04-23 16:30:00,METAR LPFR 231630Z 25016KT CAVOK 18/11 Q1013
2026-04-23 16:00:00,METAR LPFR 231600Z 26016KT CAVOK 18/11 Q1013
2026-04-23 15:30:00,METAR LPFR 231530Z 26015KT CAVOK 19/11 Q1013
2026-04-23 15:00:00,METAR LPFR 231500Z 26015KT CAVOK 19/12 Q1013
2026-04-23 14:30:00,METAR LPFR 231430Z 26016KT CAVOK 19/12 Q1014
2026-04-23 14:00:00,METAR LPFR 231400Z 25015KT 9999 FEW030 18/12 Q1014
2026-04-23 13:30:00,METAR LPFR 231330Z 25013KT 9999 FEW030 19/11 Q1014
2026-04-23 13:00:00,METAR LPFR 231300Z 25012KT 9999 FEW030 19/12 Q1014
2026-04-23 12:30:00,METAR LPFR 231230Z 24011KT 9999 FEW030 18/13 Q1014
2026-04-23 12:00:00,METAR LPFR 231200Z 23010KT 9999 FEW030 18/12 Q1015
2026-04-23 11:30:00,METAR LPFR 231130Z 23010KT 9999 FEW030 18/12 Q1015
2026-04-23 11:00:00,METAR LPFR 231100Z 23010KT 9999 FEW030 18/12 Q1015
2026-04-23 10:30:00,METAR LPFR 231030Z 24010KT 9999 FEW030 18/12 Q1015
2026-04-23 10:00:00,METAR LPFR 231000Z 24010KT 9999 FEW040 18/12 Q1015
2026-04-23 09:30:00,METAR LPFR 230930Z 27005KT 220V350 CAVOK 18/12 Q1014
2026-04-23 09:00:00,METAR LPFR 230900Z 29007KT 260V330 CAVOK 18/11 Q1014
2026-04-23 08:30:00,METAR LPFR 230830Z 31009KT CAVOK 16/11 Q1014
2026-04-23 08:00:00,METAR LPFR 230800Z 31007KT 9999 FEW035 15/11 Q1014
2026-04-23 07:30:00,METAR LPFR 230730Z 32007KT 9999 FEW035 15/11 Q1014
2026-04-23 07:00:00,METAR LPFR 230700Z 31006KT 9999 FEW030 13/10 Q1014
2026-04-23 06:30:00,METAR LPFR 230630Z 31006KT 9999 FEW035 12/10 Q1014
2026-04-23 06:00:00,METAR LPFR 230600Z 30006KT 260V330 CAVOK 12/10 Q1013
2026-04-23 05:30:00,METAR LPFR 230530Z 30008KT CAVOK 12/10 Q1013
2026-04-23 05:00:00,METAR LPFR 230500Z 31006KT CAVOK 12/10 Q1013
2026-04-23 04:30:00,METAR LPFR 230430Z 30008KT CAVOK 13/11 Q1013
2026-04-23 04:00:00,METAR LPFR 230400Z 29005KT CAVOK 13/11 Q1013
2026-04-23 03:30:00,METAR LPFR 230330Z 30006KT CAVOK 13/11 Q1013
2026-04-23 03:00:00,METAR LPFR 230300Z 29004KT CAVOK 13/11 Q1013
2026-04-23 02:30:00,METAR LPFR 230230Z 30005KT CAVOK 13/11 Q1013
2026-04-23 02:00:00,METAR LPFR 230200Z 29007KT CAVOK 14/11 Q1013
2026-04-23 01:30:00,METAR LPFR 230130Z 29007KT CAVOK 14/11 Q1013
2026-04-23 01:00:00,METAR LPFR 230100Z 29008KT CAVOK 15/11 Q1013
2026-04-23 00:30:00,METAR LPFR 230030Z 27007KT CAVOK 14/11 Q1014
2026-04-23 00:00:00,METAR LPFR 230000Z 26007KT CAVOK 14/11 Q1014
2026-04-22 23:30:00,METAR LPFR 222330Z 27008KT CAVOK 15/10 Q1013
2026-04-22 23:00:00,METAR LPFR 222300Z 28008KT CAVOK 15/10 Q1013
2026-04-22 22:30:00,METAR LPFR 222230Z 27009KT CAVOK 15/10 Q1013
2026-04-22 22:00:00,METAR LPFR 222200Z 29010KT CAVOK 16/10 Q1013
2026-04-22 21:30:00,METAR LPFR 222130Z 30009KT CAVOK 17/11 Q1013
2026-04-22 21:00:00,METAR LPFR 222100Z 27011KT CAVOK 17/13 Q1013
2026-04-22 20:30:00,METAR LPFR 222030Z 27010KT CAVOK 17/12 Q1013
2026-04-22 20:00:00,METAR LPFR 222000Z 27009KT CAVOK 16/12 Q1013
2026-04-22 19:30:00,METAR LPFR 221930Z 26009KT CAVOK 16/12 Q1013
2026-04-22 19:00:00,METAR LPFR 221900Z 27009KT CAVOK 17/11 Q1012
2026-04-22 18:30:00,METAR LPFR 221830Z 26008KT CAVOK 17/12 Q1012
2026-04-22 18:00:00,METAR LPFR 221800Z 25010KT CAVOK 18/11 Q1013
2026-04-22 17:30:00,METAR LPFR 221730Z 25009KT CAVOK 18/12 Q1013
2026-04-22 17:00:00,METAR LPFR 221700Z 25009KT 210V270 CAVOK 19/11 Q1013
2026-04-22 16:30:00,METAR LPFR 221630Z 25009KT CAVOK 19/12 Q1013
2026-04-22 16:00:00,METAR LPFR 221600Z 25009KT CAVOK 19/12 Q1013
2026-04-22 15:30:00,METAR LPFR 221530Z 24009KT CAVOK 19/12 Q1013
2026-04-22 15:00:00,METAR LPFR 221500Z 24009KT CAVOK 19/11 Q1013
2026-04-22 14:30:00,METAR LPFR 221430Z 23009KT 200V260 CAVOK 19/11 Q1014
2026-04-22 14:00:00,METAR LPFR 221400Z 22008KT 190V250 9999 FEW030 19/12 Q1014
2026-04-22 13:30:00,METAR LPFR 221330Z 22009KT 190V260 CAVOK 19/11 Q1014
2026-04-22 13:00:00,METAR LPFR 221300Z 22009KT 9999 FEW030 19/12 Q1014
2026-04-22 12:30:00,METAR LPFR 221230Z 22008KT 190V250 CAVOK 20/12 Q1014
2026-04-22 12:00:00,METAR LPFR 221200Z 22008KT 9999 FEW020 19/12 Q1014
2026-04-22 11:30:00,METAR LPFR 221130Z 23008KT 9999 FEW020 19/11 Q1014
2026-04-22 11:00:00,METAR LPFR 221100Z 23009KT 9999 FEW020 19/12 Q1014
2026-04-22 10:30:00,METAR LPFR 221030Z 24009KT 9999 FEW020 19/11 Q1014
2026-04-22 10:00:00,METAR LPFR 221000Z 25008KT 9999 FEW015 20/11 Q1014
2026-04-22 09:30:00,METAR LPFR 220930Z 22006KT 9999 FEW015 19/09 Q1014
2026-04-22 09:00:00,METAR LPFR 220900Z 22004KT 180V260 9999 FEW015 19/10 Q1014
2026-04-22 08:30:00,METAR LPFR 220830Z 25004KT 210V290 9999 FEW015 18/11 Q1014
2026-04-22 08:00:00,METAR LPFR 220800Z 30003KT 250V350 CAVOK 17/12 Q1014
2026-04-22 07:30:00,METAR LPFR 220730Z 31005KT 280V340 CAVOK 17/12 Q1013
2026-04-22 07:00:00,METAR LPFR 220700Z 30006KT CAVOK 16/12 Q1013
2026-04-22 06:30:00,METAR LPFR 220630Z 27005KT CAVOK 15/12 Q1013
2026-04-22 06:00:00,METAR LPFR 220600Z 25004KT 9999 FEW008 15/11 Q1013
2026-04-22 05:30:00,METAR LPFR 220530Z 24003KT 9999 SCT040 15/11 Q1012
2026-04-22 05:00:00,METAR LPFR 220500Z 32004KT 9999 BKN040 16/12 Q1012
2026-04-22 04:30:00,METAR LPFR 220430Z 32006KT 9999 BKN040 16/12 Q1012
2026-04-22 04:00:00,METAR LPFR 220400Z 30007KT 9999 BKN040 16/13 Q1012
2026-04-22 03:30:00,METAR LPFR 220330Z 29009KT 9999 BKN040 16/13 Q1012
2026-04-22 03:00:00,METAR LPFR 220300Z 28008KT 9999 BKN035 16/13 Q1011
2026-04-22 02:30:00,METAR LPFR 220230Z 27009KT 9999 FEW020 BKN035 16/13 Q1011
2026-04-22 02:00:00,METAR LPFR 220200Z 28008KT 9999 FEW020 BKN035 16/14 Q1011
2026-04-22 01:30:00,METAR LPFR 220130Z 28010KT 9999 FEW020 16/14 Q1011
2026-04-22 01:00:00,METAR LPFR 220100Z 27010KT 9999 FEW005 BKN020 16/15 Q1011
2026-04-22 00:30:00,METAR LPFR 220030Z 23007KT 200V270 9999 FEW005 SCT020 17/16 Q1011
2026-04-22 00:00:00,METAR LPFR 220000Z 19007KT 9999 FEW005 SCT045 17/16 Q1011
2026-04-21 23:30:00,METAR LPFR 212330Z 20008KT 9999 FEW005 SCT045 17/16 Q1011
2026-04-21 23:00:00,METAR LPFR 212300Z 20008KT 9999 FEW005 SCT012 17/17 Q1011
2026-04-21 22:30:00,METAR LPFR 212230Z 19006KT 9000 FEW005 BKN009 17/16 Q1011
2026-04-21 22:00:00,METAR LPFR 212200Z 19006KT 9999 SCT010 BKN045 17/16 Q1011
2026-04-21 21:30:00,METAR LPFR 212130Z 21006KT 9999 FEW005 SCT010 17/16 Q1011
2026-04-21 21:00:00,METAR LPFR 212100Z 21006KT 9000 SCT005 BKN010 17/16 Q1010
2026-04-21 20:30:00,METAR LPFR 212030Z 23006KT 210V270 9000 SCT007 SCT012 18/16 Q1010
2026-04-21 20:00:00,METAR LPFR 212000Z 23007KT 9000 SCT012 17/16 Q1009
2026-04-21 19:30:00,METAR LPFR 211930Z 22009KT 9000 FEW020 17/16 Q1008
2026-04-21 19:00:00,METAR LPFR 211900Z 22008KT 9000 FEW010 SCT020 18/16 Q1008
2026-04-21 18:30:00,METAR LPFR 211830Z 22009KT 9000 FEW010 SCT020 18/16 Q1008
2026-04-21 18:00:00,METAR LPFR 211800Z 23010KT 9000 FEW010 18/16 Q1007
2026-04-21 17:30:00,METAR LPFR 211730Z 23011KT 9999 FEW010 19/16 Q1007
2026-04-21 17:00:00,METAR LPFR 211700Z 24013KT 9999 FEW010 19/16 Q1007
2026-04-21 16:30:00,METAR LPFR 211630Z 24013KT 9999 FEW010 19/16 Q1007
2026-04-21 16:00:00,METAR LPFR 211600Z 25015KT 9999 FEW009 SCT020 20/16 Q1007
2026-04-21 15:30:00,METAR LPFR 211530Z 25016KT 9999 FEW010 SCT020 20/16 Q1007
2026-04-21 15:00:00,METAR LPFR 211500Z 25014KT 9999 FEW008 SCT012 20/16 Q1006
2026-04-21 14:30:00,METAR LPFR 211430Z 24011KT 9999 FEW008 20/16 Q1006
2026-04-21 14:00:00,METAR LPFR 211400Z 16006KT 120V200 9999 FEW025 21/16 Q1006
2026-04-21 13:30:00,METAR LPFR 211330Z 17008KT 140V210 9999 FEW022 21/16 Q1006
2026-04-21 13:00:00,METAR LPFR 211300Z 14014KT CAVOK 21/15 Q1006
2026-04-21 12:30:00,METAR LPFR 211230Z 13014KT CAVOK 21/14 Q1006
2026-04-21 12:00:00,METAR LPFR 211200Z 11015KT CAVOK 21/14 Q1005
2026-04-21 11:30:00,METAR LPFR 211130Z 12014KT CAVOK 22/13 Q1006
2026-04-21 11:00:00,METAR LPFR 211100Z 11015KT CAVOK 22/14 Q1006
2026-04-21 10:30:00,METAR LPFR 211030Z 10010KT 9999 FEW040 21/13 Q1006
2026-04-21 10:00:00,METAR LPFR 211000Z 11008KT 9999 FEW045 21/13 Q1006
2026-04-21 09:30:00,METAR LPFR 210930Z 10008KT 070V130 9999 FEW025 21/13 Q1005
2026-04-21 09:00:00,METAR LPFR 210900Z 07005KT 010V120 9999 FEW025 19/13 Q1005
2026-04-21 08:30:00,METAR LPFR 210830Z 09010KT 070V200 9999 FEW025 19/13 Q1006
2026-04-21 08:00:00,METAR LPFR 210800Z 09009KT 9999 FEW025 19/13 Q1005
2026-04-21 07:30:00,METAR LPFR 210730Z 08011KT 070V130 9999 FEW025 20/11 Q1005
2026-04-21 07:00:00,METAR LPFR 210700Z 07013KT CAVOK 19/10 Q1004
2026-04-21 06:30:00,METAR LPFR 210630Z 08014KT CAVOK 19/10 Q1004
2026-04-21 06:00:00,METAR LPFR 210600Z 07012KT CAVOK 19/10 Q1004
2026-04-21 05:30:00,METAR LPFR 210530Z 08013KT CAVOK 19/10 Q1004
2026-04-21 05:00:00,METAR LPFR 210500Z 07012KT CAVOK 19/10 Q1004
2026-04-21 04:30:00,METAR LPFR 210430Z 08013KT CAVOK 19/09 Q1004
2026-04-21 04:00:00,METAR LPFR 210400Z 08014KT CAVOK 20/09 Q1004
2026-04-21 03:30:00,METAR LPFR 210330Z 09013KT CAVOK 20/09 Q1005
2026-04-21 03:00:00,METAR LPFR 210300Z 08014KT CAVOK 20/09 Q1005
2026-04-21 02:30:00,METAR LPFR 210230Z 08011G22KT CAVOK 20/09 Q1005
2026-04-21 02:00:00,METAR LPFR 210200Z 08006KT CAVOK 20/09 Q1007
2026-04-21 01:30:00,METAR LPFR 210130Z 07008KT CAVOK 20/10 Q1007
2026-04-21 01:00:00,METAR LPFR 210100Z 07008KT CAVOK 20/10 Q1007
2026-04-21 00:30:00,METAR LPFR 210030Z 07007KT CAVOK 20/10 Q1007
2026-04-21 00:00:00,METAR LPFR 210000Z 07007KT CAVOK 20/11 Q1008
2026-04-20 23:30:00,METAR LPFR 202330Z 08007KT CAVOK 20/11 Q1008
2026-04-20 23:00:00,METAR LPFR 202300Z 09007KT CAVOK 19/11 Q1008
2026-04-20 22:30:00,METAR LPFR 202230Z 09005KT CAVOK 20/12 Q1008
2026-04-20 22:00:00,METAR LPFR 202200Z 08006KT CAVOK 20/11 Q1008
2026-04-20 21:30:00,METAR LPFR 202130Z 09007KT CAVOK 20/12 Q1008
2026-04-20 21:00:00,METAR LPFR 202100Z 09008KT CAVOK 20/12 Q1008
2026-04-20 20:30:00,METAR LPFR 202030Z 12007KT CAVOK 20/13 Q1008
2026-04-20 20:00:00,METAR LPFR 202000Z 08007KT CAVOK 22/09 Q1008
2026-04-20 19:30:00,METAR LPFR 201930Z 08009KT CAVOK 21/10 Q1007
2026-04-20 19:00:00,METAR LPFR 201900Z 08005KT CAVOK 22/10 Q1008
2026-04-20 18:30:00,METAR LPFR 201830Z 09005KT CAVOK 21/11 Q1009
2026-04-20 18:00:00,METAR LPFR 201800Z 09004KT 040V130 CAVOK 22/10 Q1009
2026-04-20 17:30:00,METAR LPFR 201730Z 09005KT 050V130 CAVOK 21/11 Q1009
2026-04-20 17:00:00,METAR LPFR 201700Z 09007KT CAVOK 22/12 Q1009
2026-04-20 16:30:00,METAR LPFR 201630Z 11009KT CAVOK 21/12 Q1009
2026-04-20 16:00:00,METAR LPFR 201600Z 11010KT CAVOK 22/11 Q1009
2026-04-20 15:30:00,METAR LPFR 201530Z 11012KT CAVOK 22/10 Q1009
2026-04-20 15:00:00,METAR LPFR 201500Z 11011KT CAVOK 23/10 Q1010
2026-04-20 14:30:00,METAR LPFR 201430Z 11012KT CAVOK 23/10 Q1010
2026-04-20 14:00:00,METAR LPFR 201400Z 09014KT CAVOK 24/09 Q1010
2026-04-20 13:30:00,METAR LPFR 201330Z 10013KT CAVOK 24/11 Q1010
2026-04-20 13:00:00,METAR LPFR 201300Z 10014KT CAVOK 23/12 Q1011
2026-04-20 12:30:00,METAR LPFR 201230Z 11014KT CAVOK 23/11 Q1011
2026-04-20 12:00:00,METAR LPFR 201200Z 11014KT CAVOK 23/12 Q1011
2026-04-20 11:30:00,METAR LPFR 201130Z 10012KT CAVOK 23/12 Q1012
2026-04-20 11:00:00,METAR LPFR 201100Z 11012KT CAVOK 22/12 Q1012
2026-04-20 10:30:00,METAR LPFR 201030Z 10013KT CAVOK 23/12 Q1012
2026-04-20 10:00:00,METAR LPFR 201000Z 10011KT CAVOK 22/11 Q1012
2026-04-20 09:30:00,METAR LPFR 200930Z 10011KT CAVOK 21/13 Q1012
2026-04-20 09:00:00,METAR LPFR 200900Z 08006KT CAVOK 23/08 Q1012
2026-04-20 08:30:00,METAR LPFR 200830Z 08007KT CAVOK 22/09 Q1012
2026-04-20 08:00:00,METAR LPFR 200800Z 10007KT CAVOK 19/12 Q1012
2026-04-20 07:30:00,METAR LPFR 200730Z 11007KT 060V120 CAVOK 17/13 Q1012
2026-04-20 07:00:00,METAR LPFR 200700Z 10006KT CAVOK 18/10 Q1012
2026-04-20 06:30:00,METAR LPFR 200630Z 03006KT 020V090 CAVOK 18/07 Q1012
2026-04-20 06:00:00,METAR LPFR 200600Z 02006KT CAVOK 18/07 Q1012
2026-04-20 05:30:00,METAR LPFR 200530Z 03006KT 010V110 CAVOK 18/07 Q1012
2026-04-20 05:00:00,METAR LPFR 200500Z 04007KT CAVOK 17/08 Q1012
2026-04-20 04:30:00,METAR LPFR 200430Z 04007KT CAVOK 17/08 Q1013
2026-04-20 04:00:00,METAR LPFR 200400Z 03007KT CAVOK 17/08 Q1013
2026-04-20 03:30:00,METAR LPFR 200330Z 04007KT CAVOK 17/09 Q1013
2026-04-20 03:00:00,METAR LPFR 200300Z 05006KT CAVOK 17/09 Q1013
2026-04-20 02:30:00,METAR LPFR 200230Z 03007KT CAVOK 17/09 Q1013
2026-04-20 02:00:00,METAR LPFR 200200Z 05004KT CAVOK 16/10 Q1014
2026-04-20 01:30:00,METAR LPFR 200130Z 03007KT CAVOK 17/10 Q1014
2026-04-20 01:00:00,METAR LPFR 200100Z 03006KT CAVOK 16/10 Q1014
2026-04-20 00:30:00,METAR LPFR 200030Z 02004KT CAVOK 15/13 Q1015
2026-04-20 00:00:00,METAR LPFR 200000Z VRB02KT CAVOK 15/11 Q1015
2026-04-19 23:30:00,METAR LPFR 192330Z 04004KT CAVOK 17/11 Q1015
2026-04-19 23:00:00,METAR LPFR 192300Z 04004KT CAVOK 17/12 Q1015
2026-04-19 22:30:00,METAR LPFR 192230Z 03004KT CAVOK 17/12 Q1015
2026-04-19 22:00:00,METAR LPFR 192200Z 03004KT 360V090 CAVOK 18/12 Q1015
2026-04-19 21:30:00,METAR LPFR 192130Z 04004KT 350V060 CAVOK 18/13 Q1015
2026-04-19 21:00:00,METAR LPFR 192100Z 03004KT CAVOK 17/13 Q1015
2026-04-19 20:30:00,METAR LPFR 192030Z 00000KT CAVOK 18/14 Q1015
2026-04-19 20:00:00,METAR LPFR 192000Z 11002KT CAVOK 19/14 Q1015
2026-04-19 19:30:00,METAR LPFR 191930Z 09003KT 050V110 CAVOK 18/14 Q1015
2026-04-19 19:00:00,METAR LPFR 191900Z 10005KT CAVOK 19/14 Q1014
2026-04-19 18:30:00,METAR LPFR 191830Z 11005KT CAVOK 19/14 Q1014
2026-04-19 18:00:00,METAR LPFR 191800Z 11005KT CAVOK 20/14 Q1014
2026-04-19 17:30:00,METAR LPFR 191730Z 11007KT CAVOK 21/14 Q1014
2026-04-19 17:00:00,METAR LPFR 191700Z 11007KT CAVOK 20/14 Q1014
2026-04-19 16:30:00,METAR LPFR 191630Z 10008KT CAVOK 21/13 Q1014
2026-04-19 16:00:00,METAR LPFR 191600Z 11009KT CAVOK 21/13 Q1014
2026-04-19 15:30:00,METAR LPFR 191530Z 11009KT CAVOK 21/13 Q1015
2026-04-19 15:00:00,METAR LPFR 191500Z 11009KT CAVOK 21/13 Q1015
2026-04-19 14:30:00,METAR LPFR 191430Z 11010KT CAVOK 21/12 Q1015
2026-04-19 14:00:00,METAR LPFR 191400Z 12011KT CAVOK 22/12 Q1015
2026-04-19 13:30:00,METAR LPFR 191330Z 11012KT CAVOK 22/12 Q1015
2026-04-19 13:00:00,METAR LPFR 191300Z 10011KT 060V140 CAVOK 22/11 Q1015
2026-04-19 12:30:00,METAR LPFR 191230Z 11012KT CAVOK 22/11 Q1016
2026-04-19 12:00:00,METAR LPFR 191200Z 12011KT CAVOK 22/10 Q1016
2026-04-19 11:30:00,METAR LPFR 191130Z 11012KT CAVOK 23/09 Q1016
2026-04-19 11:00:00,METAR LPFR 191100Z 09011KT CAVOK 23/09 Q1016
2026-04-19 10:30:00,METAR LPFR 191030Z 09010KT 060V130 CAVOK 23/09 Q1016
2026-04-19 10:00:00,METAR LPFR 191000Z 09010KT CAVOK 22/08 Q1016
2026-04-19 09:30:00,METAR LPFR 190930Z 10009KT CAVOK 21/09 Q1016
2026-04-19 09:00:00,METAR LPFR 190900Z 09010KT CAVOK 22/08 Q1016
2026-04-19 08:30:00,METAR LPFR 190830Z 08007KT 030V100 CAVOK 21/09 Q1016
2026-04-19 08:00:00,METAR LPFR 190800Z 08005KT 060V120 CAVOK 21/09 Q1016
2026-04-19 07:30:00,METAR LPFR 190730Z 07005KT CAVOK 19/09 Q1015
2026-04-19 07:00:00,METAR LPFR 190700Z 04007KT CAVOK 18/09 Q1015
2026-04-19 06:30:00,METAR LPFR 190630Z 04007KT CAVOK 16/09 Q1015
2026-04-19 06:00:00,METAR LPFR 190600Z 03007KT CAVOK 16/10 Q1015
2026-04-19 05:30:00,METAR LPFR 190530Z 03006KT 020V080 CAVOK 16/10 Q1015
2026-04-19 05:00:00,METAR LPFR 190500Z 03007KT CAVOK 16/11 Q1015
2026-04-19 04:30:00,METAR LPFR 190430Z 02006KT CAVOK 16/11 Q1015
2026-04-19 04:00:00,METAR LPFR 190400Z 03007KT CAVOK 16/11 Q1015
2026-04-19 03:30:00,METAR LPFR 190330Z 03007KT CAVOK 16/12 Q1015
2026-04-19 03:00:00,METAR LPFR 190300Z 04006KT CAVOK 16/12 Q1015
2026-04-19 02:30:00,METAR LPFR 190230Z 05005KT CAVOK 17/12 Q1015
2026-04-19 02:00:00,METAR LPFR 190200Z 04006KT CAVOK 17/12 Q1016
2026-04-19 01:30:00,METAR LPFR 190130Z 05005KT CAVOK 17/12 Q1016
2026-04-19 01:00:00,METAR LPFR 190100Z 04006KT CAVOK 17/12 Q1016
2026-04-19 00:30:00,METAR LPFR 190030Z 03004KT CAVOK 16/12 Q1016
2026-04-19 00:00:00,METAR LPFR 190000Z 05005KT CAVOK 14/12 Q1016
2026-04-18 23:30:00,METAR LPFR 182330Z 02006KT CAVOK 17/12 Q1016
2026-04-18 23:00:00,METAR LPFR 182300Z 04006KT CAVOK 17/13 Q1016
2026-04-18 22:30:00,METAR LPFR 182230Z 04004KT 350V060 CAVOK 17/13 Q1016
2026-04-18 22:00:00,METAR LPFR 182200Z 07003KT CAVOK 16/14 Q1016
2026-04-18 21:30:00,METAR LPFR 182130Z VRB02KT CAVOK 16/15 Q1016
2026-04-18 21:00:00,METAR LPFR 182100Z VRB02KT CAVOK 17/15 Q1016
2026-04-18 20:30:00,METAR LPFR 182030Z VRB02KT CAVOK 16/15 Q1016
2026-04-18 20:00:00,METAR LPFR 182000Z VRB01KT CAVOK 16/15 Q1016
2026-04-18 19:30:00,METAR LPFR 181930Z VRB01KT CAVOK 17/16 Q1015
2026-04-18 19:00:00,METAR LPFR 181900Z 10003KT 9999 FEW003 18/15 Q1015
2026-04-18 18:30:00,METAR LPFR 181830Z 12003KT 090V150 9999 FEW002 18/15 Q1016
2026-04-18 18:00:00,METAR LPFR 181800Z 13004KT 9999 FEW001 18/16 Q1016
2026-04-18 17:30:00,METAR LPFR 181730Z 13005KT 9999 FEW001 19/17 Q1016
2026-04-18 17:00:00,METAR LPFR 181700Z 12007KT CAVOK 20/16 Q1016
2026-04-18 16:30:00,METAR LPFR 181630Z 11009KT CAVOK 20/16 Q1016
2026-04-18 16:00:00,METAR LPFR 181600Z 10009KT CAVOK 21/15 Q1016
2026-04-18 15:00:00,METAR LPFR 181500Z 10010KT CAVOK 21/14 Q1016
2026-04-18 14:30:00,METAR LPFR 181430Z 10011KT CAVOK 21/13 Q1016
2026-04-18 14:00:00,METAR LPFR 181400Z 10012KT 060V120 CAVOK 22/12 Q1016
2026-04-18 13:30:00,METAR LPFR 181330Z 10012KT CAVOK 22/12 Q1016
2026-04-18 13:00:00,METAR LPFR 181300Z 10012KT CAVOK 22/11 Q1017
2026-04-18 12:30:00,METAR LPFR 181230Z 10013KT CAVOK 22/10 Q1017
2026-04-18 12:00:00,METAR LPFR 181200Z 10014KT CAVOK 23/09 Q1017
2026-04-18 11:30:00,METAR LPFR 181130Z 10013KT CAVOK 24/07 Q1017
2026-04-18 11:00:00,METAR LPFR 181100Z 09013KT CAVOK 23/07 Q1017
2026-04-18 10:30:00,METAR LPFR 181030Z 09015KT CAVOK 23/07 Q1017
2026-04-18 10:00:00,METAR LPFR 181000Z 09013KT CAVOK 23/08 Q1017
2026-04-18 09:30:00,METAR LPFR 180930Z 09011KT CAVOK 23/06 Q1016
2026-04-18 09:00:00,METAR LPFR 180900Z 09011KT 050V110 CAVOK 23/05 Q1016
2026-04-18 08:30:00,METAR LPFR 180830Z 09010KT CAVOK 22/05 Q1016
2026-04-18 08:00:00,METAR LPFR 180800Z 08007KT CAVOK 22/06 Q1016
2026-04-18 07:30:00,METAR LPFR 180730Z 08006KT CAVOK 21/06 Q1016
2026-04-18 07:00:00,METAR LPFR 180700Z 05006KT 020V090 CAVOK 19/06 Q1016
2026-04-18 06:30:00,METAR LPFR 180630Z 05006KT 030V100 CAVOK 19/06 Q1016
2026-04-18 06:00:00,METAR LPFR 180600Z 04006KT CAVOK 17/06 Q1016
2026-04-18 05:30:00,METAR LPFR 180530Z 04006KT 360V090 CAVOK 17/07 Q1016
2026-04-18 05:00:00,METAR LPFR 180500Z 03006KT CAVOK 17/07 Q1016
2026-04-18 04:30:00,METAR LPFR 180430Z 07007KT CAVOK 18/08 Q1016
2026-04-18 04:00:00,METAR LPFR 180400Z 05007KT CAVOK 18/07 Q1016
2026-04-18 03:30:00,METAR LPFR 180330Z 05007KT CAVOK 18/07 Q1016
2026-04-18 03:00:00,METAR LPFR 180300Z 05005KT CAVOK 18/07 Q1016
2026-04-18 02:30:00,METAR LPFR 180230Z 04005KT CAVOK 18/08 Q1016
2026-04-18 02:00:00,METAR LPFR 180200Z 04006KT CAVOK 18/08 Q1016
2026-04-18 01:30:00,METAR LPFR 180130Z 03006KT CAVOK 18/09 Q1016
2026-04-18 01:00:00,METAR LPFR 180100Z 02008KT CAVOK 18/09 Q1017
2026-04-18 00:30:00,METAR LPFR 180030Z 03006KT CAVOK 17/10 Q1017
2026-04-18 00:00:00,METAR LPFR 180000Z 01004KT CAVOK 17/10 Q1017
2026-04-17 23:30:00,METAR LPFR 172330Z 02006KT CAVOK 18/10 Q1017
2026-04-17 23:00:00,METAR LPFR 172300Z 03006KT CAVOK 18/10 Q1017
2026-04-17 22:30:00,METAR LPFR 172230Z VRB02KT CAVOK 19/10 Q1017
2026-04-17 22:00:00,METAR LPFR 172200Z VRB01KT CAVOK 18/11 Q1017
2026-04-17 21:30:00,METAR LPFR 172130Z 32003KT 220V020 CAVOK 19/10 Q1017
2026-04-17 21:00:00,METAR LPFR 172100Z 03005KT CAVOK 21/09 Q1016
2026-04-17 20:30:00,METAR LPFR 172030Z 06003KT 010V080 CAVOK 22/10 Q1016
2026-04-17 20:00:00,METAR LPFR 172000Z 09005KT 050V130 CAVOK 21/12 Q1016
2026-04-17 19:30:00,METAR LPFR 171930Z 08004KT 050V120 CAVOK 22/11 Q1016
2026-04-17 19:00:00,METAR LPFR 171900Z 07004KT 050V110 CAVOK 23/11 Q1015
2026-04-17 18:30:00,METAR LPFR 171830Z 11004KT 080V140 CAVOK 22/12 Q1016
2026-04-17 18:00:00,METAR LPFR 171800Z 12006KT CAVOK 23/12 Q1016
2026-04-17 17:30:00,METAR LPFR 171730Z 12006KT CAVOK 23/11 Q1016
2026-04-17 17:00:00,METAR LPFR 171700Z 13007KT CAVOK 23/11 Q1016
2026-04-17 16:30:00,METAR LPFR 171630Z 12007KT CAVOK 24/10 Q1016
2026-04-17 16:00:00,METAR LPFR 171600Z 12007KT CAVOK 24/11 Q1016
2026-04-17 15:30:00,METAR LPFR 171530Z 13007KT CAVOK 25/10 Q1016
2026-04-17 15:00:00,METAR LPFR 171500Z 12008KT CAVOK 24/10 Q1016
2026-04-17 14:30:00,METAR LPFR 171430Z 12009KT CAVOK 24/12 Q1016
2026-04-17 14:00:00,METAR LPFR 171400Z 12009KT CAVOK 25/11 Q1016
2026-04-17 13:30:00,METAR LPFR 171330Z 11010KT CAVOK 25/11 Q1016
2026-04-17 13:00:00,METAR LPFR 171300Z 10012KT CAVOK 25/11 Q1017
2026-04-17 12:30:00,METAR LPFR 171230Z 11011KT CAVOK 25/10 Q1017
2026-04-17 12:00:00,METAR LPFR 171200Z 10012KT CAVOK 26/11 Q1017
2026-04-17 11:30:00,METAR LPFR 171130Z 10012KT CAVOK 25/12 Q1017
2026-04-17 11:00:00,METAR LPFR 171100Z 10014KT CAVOK 25/10 Q1017
2026-04-17 10:30:00,METAR LPFR 171030Z 09013KT CAVOK 25/10 Q1017
2026-04-17 10:00:00,METAR LPFR 171000Z 09012KT CAVOK 25/10 Q1017
2026-04-17 09:30:00,METAR LPFR 170930Z 08012KT CAVOK 25/08 Q1017
2026-04-17 09:00:00,METAR LPFR 170900Z 08009KT 060V120 CAVOK 24/08 Q1017
2026-04-17 08:30:00,METAR LPFR 170830Z 08008KT CAVOK 23/08 Q1017
2026-04-17 08:00:00,METAR LPFR 170800Z 08005KT 050V110 CAVOK 22/09 Q1017
2026-04-17 07:30:00,METAR LPFR 170730Z 04005KT 020V100 CAVOK 21/08 Q1017
2026-04-17 07:00:00,METAR LPFR 170700Z 03008KT CAVOK 18/08 Q1017
2026-04-17 06:30:00,METAR LPFR 170630Z 02006KT CAVOK 18/07 Q1017
2026-04-17 06:00:00,METAR LPFR 170600Z 03005KT 360V060 CAVOK 18/07 Q1016
2026-04-17 05:30:00,METAR LPFR 170530Z 03006KT 360V090 CAVOK 18/07 Q1017
2026-04-17 05:00:00,METAR LPFR 170500Z 04006KT CAVOK 18/08 Q1017
2026-04-17 04:30:00,METAR LPFR 170430Z 03007KT CAVOK 18/08 Q1017
2026-04-17 04:00:00,METAR LPFR 170400Z 06007KT CAVOK 19/09 Q1017
2026-04-17 03:30:00,METAR LPFR 170330Z 03008KT CAVOK 18/10 Q1017
2026-04-17 03:00:00,METAR LPFR 170300Z 03007KT CAVOK 19/10 Q1017
2026-04-17 02:30:00,METAR LPFR 170230Z 03008KT CAVOK 19/10 Q1017
2026-04-17 02:00:00,METAR LPFR 170200Z 04006KT CAVOK 18/11 Q1017
2026-04-17 01:30:00,METAR LPFR 170130Z 03007KT CAVOK 19/11 Q1017
2026-04-17 01:00:00,METAR LPFR 170100Z 03008KT CAVOK 20/11 Q1017
2026-04-17 00:30:00,METAR LPFR 170030Z 03007KT CAVOK 20/11 Q1017
2026-04-17 00:00:00,METAR LPFR 170000Z 03007KT CAVOK 20/11 Q1018
2026-04-16 23:30:00,METAR LPFR 162330Z 03008KT CAVOK 20/12 Q1018
2026-04-16 23:00:00,METAR LPFR 162300Z 03008KT CAVOK 20/12 Q1018
2026-04-16 22:30:00,METAR LPFR 162230Z 03007KT 300V040 CAVOK 20/12 Q1018
2026-04-16 22:00:00,METAR LPFR 162200Z 01003KT 300V050 CAVOK 18/13 Q1018
2026-04-16 21:30:00,METAR LPFR 162130Z 02003KT 320V040 CAVOK 18/12 Q1018
2026-04-16 21:00:00,METAR LPFR 162100Z 31004KT CAVOK 18/12 Q1017
2026-04-16 20:30:00,METAR LPFR 162030Z 28005KT CAVOK 18/13 Q1017
2026-04-16 20:00:00,METAR LPFR 162000Z 28004KT CAVOK 18/12 Q1017
2026-04-16 19:30:00,METAR LPFR 161930Z 26005KT CAVOK 18/14 Q1017
2026-04-16 19:00:00,METAR LPFR 161900Z 26007KT CAVOK 19/13 Q1017
2026-04-16 18:30:00,METAR LPFR 161830Z 25007KT CAVOK 20/14 Q1017
2026-04-16 18:00:00,METAR LPFR 161800Z 25008KT CAVOK 21/13 Q1017
2026-04-16 17:30:00,METAR LPFR 161730Z 25007KT CAVOK 22/12 Q1017
2026-04-16 17:00:00,METAR LPFR 161700Z 26007KT CAVOK 22/12 Q1017
2026-04-16 16:30:00,METAR LPFR 161630Z 21005KT CAVOK 23/10 Q1018
2026-04-16 16:00:00,METAR LPFR 161600Z 18005KT 160V230 CAVOK 23/08 Q1018
2026-04-16 15:30:00,METAR LPFR 161530Z 16005KT CAVOK 22/12 Q1018
2026-04-16 15:00:00,METAR LPFR 161500Z 16007KT CAVOK 22/14 Q1018
2026-04-16 14:30:00,METAR LPFR 161430Z 14007KT CAVOK 22/13 Q1018
2026-04-16 14:00:00,METAR LPFR 161400Z 12008KT CAVOK 23/14 Q1019
2026-04-16 13:30:00,METAR LPFR 161330Z 12008KT CAVOK 24/13 Q1019
2026-04-16 13:00:00,METAR LPFR 161300Z 12008KT CAVOK 23/12 Q1019
2026-04-16 12:30:00,METAR LPFR 161230Z 12009KT CAVOK 24/12 Q1019
2026-04-16 12:00:00,METAR LPFR 161200Z 12011KT CAVOK 24/12 Q1019
2026-04-16 11:30:00,METAR LPFR 161130Z 12010KT CAVOK 23/12 Q1019
2026-04-16 11:00:00,METAR LPFR 161100Z 10011KT CAVOK 24/12 Q1020
2026-04-16 10:30:00,METAR LPFR 161030Z 11010KT CAVOK 23/12 Q1020
2026-04-16 10:00:00,METAR LPFR 161000Z 13004KT 090V160 CAVOK 23/14 Q1020
2026-04-16 09:30:00,METAR LPFR 160930Z 17003KT 140V220 CAVOK 20/14 Q1020
2026-04-16 09:00:00,METAR LPFR 160900Z 17004KT 150V220 CAVOK 20/14 Q1019
2026-04-16 08:30:00,METAR LPFR 160830Z 17003KT CAVOK 19/14 Q1019
2026-04-16 08:00:00,METAR LPFR 160800Z 12004KT CAVOK 19/12 Q1019
2026-04-16 07:30:00,METAR LPFR 160730Z 09004KT 050V120 CAVOK 19/11 Q1019
2026-04-16 07:00:00,METAR LPFR 160700Z 04007G17KT 030V140 CAVOK 15/12 Q1019
2026-04-16 06:30:00,METAR LPFR 160630Z VRB01KT CAVOK 15/10 Q1019
2026-04-16 06:00:00,METAR LPFR 160600Z VRB02KT CAVOK 14/10 Q1019
2026-04-16 05:30:00,METAR LPFR 160530Z 03005KT 350V160 CAVOK 15/10 Q1019
2026-04-16 05:00:00,METAR LPFR 160500Z VRB01KT CAVOK 15/10 Q1019
2026-04-16 04:30:00,METAR LPFR 160430Z 00000KT CAVOK 15/10 Q1019
2026-04-16 04:00:00,METAR LPFR 160400Z 25002KT CAVOK 15/11 Q1019
2026-04-16 03:30:00,METAR LPFR 160330Z VRB01KT CAVOK 15/11 Q1019
2026-04-16 03:00:00,METAR LPFR 160300Z 34002KT CAVOK 16/11 Q1019
2026-04-16 02:30:00,METAR LPFR 160230Z 36004KT CAVOK 17/10 Q1019
2026-04-16 02:00:00,METAR LPFR 160200Z 36006KT CAVOK 17/11 Q1019
2026-04-16 01:30:00,METAR LPFR 160130Z 36008KT CAVOK 18/11 Q1020
2026-04-16 01:00:00,METAR LPFR 160100Z 35006KT CAVOK 17/11 Q1020
2026-04-16 00:30:00,METAR LPFR 160030Z 35005KT CAVOK 16/11 Q1020
2026-04-16 00:00:00,METAR LPFR 160000Z 36003KT 330V030 CAVOK 16/11 Q1021
2026-04-15 23:30:00,METAR LPFR 152330Z 01005KT CAVOK 18/12 Q1021
2026-04-15 23:00:00,METAR LPFR 152300Z 36007KT CAVOK 18/12 Q1021
2026-04-15 22:30:00,METAR LPFR 152230Z 35005KT CAVOK 18/12 Q1021
2026-04-15 22:00:00,METAR LPFR 152200Z 30005KT CAVOK 17/12 Q1021
2026-04-15 21:30:00,METAR LPFR 152130Z 32007KT CAVOK 17/12 Q1021
2026-04-15 21:00:00,METAR LPFR 152100Z 32007KT CAVOK 17/14 Q1021
2026-04-15 20:30:00,METAR LPFR 152030Z VRB02KT CAVOK 17/14 Q1021
2026-04-15 20:00:00,METAR LPFR 152000Z 28004KT CAVOK 17/14 Q1021
2026-04-15 19:30:00,METAR LPFR 151930Z 27004KT CAVOK 17/14 Q1020
2026-04-15 19:00:00,METAR LPFR 151900Z 27006KT CAVOK 18/14 Q1020
2026-04-15 18:30:00,METAR LPFR 151830Z 26007KT CAVOK 19/14 Q1020
2026-04-15 18:00:00,METAR LPFR 151800Z 27007KT CAVOK 19/14 Q1020
2026-04-15 17:30:00,METAR LPFR 151730Z 25007KT CAVOK 20/14 Q1020
2026-04-15 17:00:00,METAR LPFR 151700Z 25008KT CAVOK 20/13 Q1021
2026-04-15 16:30:00,METAR LPFR 151630Z 26010KT CAVOK 20/13 Q1021
2026-04-15 16:00:00,METAR LPFR 151600Z 25011KT CAVOK 20/13 Q1021
2026-04-15 15:30:00,METAR LPFR 151530Z 26011KT CAVOK 20/13 Q1021
2026-04-15 15:00:00,METAR LPFR 151500Z 24008KT CAVOK 20/15 Q1021
2026-04-15 14:30:00,METAR LPFR 151430Z 22009KT 9999 FEW035 20/15 Q1022
2026-04-15 14:00:00,METAR LPFR 151400Z 22008KT CAVOK 20/13 Q1022
2026-04-15 13:30:00,METAR LPFR 151330Z 21009KT CAVOK 20/12 Q1022
2026-04-15 13:00:00,METAR LPFR 151300Z 21008KT CAVOK 21/14 Q1022
2026-04-15 12:30:00,METAR LPFR 151230Z 20009KT CAVOK 21/13 Q1022
2026-04-15 12:00:00,METAR LPFR 151200Z 20008KT CAVOK 21/12 Q1022
2026-04-15 11:30:00,METAR LPFR 151130Z 18008KT CAVOK 20/13 Q1023
2026-04-15 11:00:00,METAR LPFR 151100Z 19008KT CAVOK 21/11 Q1023
2026-04-15 10:30:00,METAR LPFR 151030Z 19007KT CAVOK 21/12 Q1023
2026-04-15 10:00:00,METAR LPFR 151000Z 21007KT CAVOK 21/11 Q1023
2026-04-15 09:30:00,METAR LPFR 150930Z 03008KT 340V060 CAVOK 21/12 Q1023
2026-04-15 09:00:00,METAR LPFR 150900Z 02007KT 320V060 CAVOK 21/10 Q1022
2026-04-15 08:30:00,METAR LPFR 150830Z 02009KT CAVOK 21/10 Q1022
2026-04-15 08:00:00,METAR LPFR 150800Z 01008KT CAVOK 19/09 Q1022
2026-04-15 07:30:00,METAR LPFR 150730Z 02003KT 300V070 CAVOK 18/10 Q1022
2026-04-15 07:00:00,METAR LPFR 150700Z 36005KT 320V030 CAVOK 17/10 Q1022
2026-04-15 06:30:00,METAR LPFR 150630Z 36006KT CAVOK 15/10 Q1022
2026-04-15 06:00:00,METAR LPFR 150600Z 36005KT 310V020 CAVOK 15/10 Q1021
2026-04-15 05:30:00,METAR LPFR 150530Z 35006KT 310V010 CAVOK 15/10 Q1021
2026-04-15 05:00:00,METAR LPFR 150500Z 01008KT CAVOK 15/10 Q1021
2026-04-15 04:30:00,METAR LPFR 150430Z 01007KT CAVOK 16/10 Q1021
2026-04-15 04:00:00,METAR LPFR 150400Z 01008KT CAVOK 16/11 Q1021
2026-04-15 03:30:00,METAR LPFR 150330Z 01007KT CAVOK 16/11 Q1021
2026-04-15 03:00:00,METAR LPFR 150300Z 36007KT CAVOK 16/11 Q1021
2026-04-15 02:30:00,METAR LPFR 150230Z 01009KT CAVOK 16/11 Q1021
2026-04-15 02:00:00,METAR LPFR 150200Z 35010KT CAVOK 16/11 Q1021
2026-04-15 01:30:00,METAR LPFR 150130Z 36010KT CAVOK 16/11 Q1022
2026-04-15 01:00:00,METAR LPFR 150100Z 35007KT CAVOK 16/12 Q1022
2026-04-15 00:30:00,METAR LPFR 150030Z 35007KT CAVOK 16/11 Q1022
2026-04-15 00:00:00,METAR LPFR 150000Z 34008KT CAVOK 16/11 Q1022
2026-04-14 23:30:00,METAR LPFR 142330Z 34009KT CAVOK 16/12 Q1022
2026-04-14 23:00:00,METAR LPFR 142300Z 33009KT CAVOK 16/12 Q1023
2026-04-14 22:30:00,METAR LPFR 142230Z 33009KT CAVOK 16/12 Q1023
2026-04-14 22:00:00,METAR LPFR 142200Z 33009KT CAVOK 17/12 Q1022
2026-04-14 21:30:00,METAR LPFR 142130Z 33008KT CAVOK 17/12 Q1022
2026-04-14 21:00:00,METAR LPFR 142100Z 34009KT CAVOK 17/12 Q1022
2026-04-14 20:30:00,METAR LPFR 142030Z 33009KT CAVOK 18/12 Q1022
2026-04-14 20:00:00,METAR LPFR 142000Z 34009KT CAVOK 18/12 Q1022
2026-04-14 19:30:00,METAR LPFR 141930Z 31007KT 260V020 CAVOK 19/13 Q1021
2026-04-14 19:00:00,METAR LPFR 141900Z 27005KT 9999 FEW040 18/14 Q1021
2026-04-14 18:30:00,METAR LPFR 141830Z 26008KT 9999 FEW040 18/14 Q1021
2026-04-14 18:00:00,METAR LPFR 141800Z 26008KT 9999 FEW040 18/14 Q1021
2026-04-14 17:30:00,METAR LPFR 141730Z 26009KT 9999 FEW040 19/15 Q1021
2026-04-14 17:00:00,METAR LPFR 141700Z 25010KT 9999 FEW030 18/14 Q1021
2026-04-14 16:30:00,METAR LPFR 141630Z 25010KT 9999 FEW030 19/14 Q1021
2026-04-14 16:00:00,METAR LPFR 141600Z 25009KT 9999 FEW030 SCT045 19/14 Q1021
2026-04-14 15:30:00,METAR LPFR 141530Z 25009KT 9999 FEW030 SCT040 17/14 Q1021
2026-04-14 15:00:00,METAR LPFR 141500Z 25010KT 9999 FEW030 SCT040 17/14 Q1022
2026-04-14 14:30:00,METAR LPFR 141430Z 25011KT 9999 FEW030 SCT040 17/14 Q1022
2026-04-14 14:00:00,METAR LPFR 141400Z 25009KT 9999 FEW030 SCT040 17/14 Q1022
2026-04-14 13:30:00,METAR LPFR 141330Z 24012KT 9999 FEW030 SCT040 17/14 Q1022
2026-04-14 13:00:00,METAR LPFR 141300Z 23011KT 9999 FEW030 BKN040 17/13 Q1022
2026-04-14 12:30:00,METAR LPFR 141230Z 23011KT 9999 SCT030 18/14 Q1022
2026-04-14 12:00:00,METAR LPFR 141200Z 25010KT 9999 SCT020 18/13 Q1022
2026-04-14 11:30:00,METAR LPFR 141130Z 25006KT 200V280 9999 FEW020 20/11 Q1023
2026-04-14 11:00:00,METAR LPFR 141100Z 34005KT 290V020 9999 FEW018 20/12 Q1023
2026-04-14 10:30:00,METAR LPFR 141030Z 34007KT 300V070 9999 FEW015 20/11 Q1023
2026-04-14 10:00:00,METAR LPFR 141000Z 33008KT 280V360 9999 FEW015 19/12 Q1023
2026-04-14 09:30:00,METAR LPFR 140930Z 31010KT CAVOK 18/12 Q1023
2026-04-14 09:00:00,METAR LPFR 140900Z 33014KT CAVOK 17/11 Q1023
2026-04-14 08:30:00,METAR LPFR 140830Z 31012KT CAVOK 15/11 Q1023
2026-04-14 08:00:00,METAR LPFR 140800Z 28006KT 260V320 CAVOK 15/11 Q1023
2026-04-14 07:30:00,METAR LPFR 140730Z 30004KT 220V010 CAVOK 15/10 Q1023
2026-04-14 07:00:00,METAR LPFR 140700Z 34005KT 230V030 CAVOK 13/10 Q1023
2026-04-14 06:30:00,METAR LPFR 140630Z 23004KT CAVOK 11/10 Q1023
2026-04-14 06:00:00,METAR LPFR 140600Z 32005KT CAVOK 12/10 Q1023
2026-04-14 05:30:00,METAR LPFR 140530Z 33007KT CAVOK 11/09 Q1023
2026-04-14 05:00:00,METAR LPFR 140500Z 34009KT CAVOK 12/09 Q1022
2026-04-14 04:30:00,METAR LPFR 140430Z 34009KT CAVOK 12/09 Q1022
2026-04-14 04:00:00,METAR LPFR 140400Z 35004KT 290V030 CAVOK 12/09 Q1023
2026-04-14 03:30:00,METAR LPFR 140330Z 35009KT CAVOK 12/09 Q1022
2026-04-14 03:00:00,METAR LPFR 140300Z 35010KT CAVOK 12/09 Q1023
2026-04-14 02:30:00,METAR LPFR 140230Z 35007KT CAVOK 12/09 Q1023
2026-04-14 02:00:00,METAR LPFR 140200Z 34006KT CAVOK 12/09 Q1023
2026-04-14 01:30:00,METAR LPFR 140130Z 32008KT CAVOK 12/09 Q1023
2026-04-14 01:00:00,METAR LPFR 140100Z 31005KT CAVOK 12/09 Q1023
2026-04-14 00:30:00,METAR LPFR 140030Z 29005KT CAVOK 12/09 Q1024
2026-04-14 00:00:00,METAR LPFR 140000Z 26005KT CAVOK 12/09 Q1024
2026-04-13 23:30:00,METAR LPFR 132330Z 31007KT 280V340 CAVOK 12/09 Q1023
2026-04-13 23:00:00,METAR LPFR 132300Z 31007KT CAVOK 13/09 Q1024
2026-04-13 22:30:00,METAR LPFR 132230Z 31009KT CAVOK 13/09 Q1024
2026-04-13 22:00:00,METAR LPFR 132200Z 31007KT CAVOK 13/09 Q1024
2026-04-13 21:30:00,METAR LPFR 132130Z 32009KT CAVOK 14/09 Q1024
2026-04-13 21:00:00,METAR LPFR 132100Z 32011KT CAVOK 14/08 Q1023
2026-04-13 20:30:00,METAR LPFR 132030Z 31011KT CAVOK 15/08 Q1023
2026-04-13 20:00:00,METAR LPFR 132000Z 31012KT CAVOK 15/08 Q1022
2026-04-13 19:30:00,METAR LPFR 131930Z 31013KT CAVOK 16/08 Q1022
2026-04-13 19:00:00,METAR LPFR 131900Z 31013KT 9999 FEW030 17/07 Q1021
2026-04-13 18:30:00,METAR LPFR 131830Z 31013KT 9999 FEW030 17/07 Q1021
2026-04-13 18:00:00,METAR LPFR 131800Z 30014KT 9999 FEW030 18/07 Q1021
2026-04-13 17:30:00,METAR LPFR 131730Z 32012KT 9999 FEW030 19/06 Q1021
2026-04-13 17:00:00,METAR LPFR 131700Z 30013KT 9999 SCT030 18/07 Q1021
2026-04-13 16:30:00,METAR LPFR 131630Z 32014KT 290V360 9999 SCT030 19/08 Q1020
2026-04-13 16:00:00,METAR LPFR 131600Z 33012KT 9999 SCT030 20/07 Q1021
2026-04-13 15:30:00,METAR LPFR 131530Z 32010KT 280V360 9999 SCT030 18/08 Q1021
2026-04-13 15:00:00,METAR LPFR 131500Z 31013KT 9999 SCT030 19/07 Q1021
2026-04-13 14:30:00,METAR LPFR 131430Z 32013KT 9999 FEW030 18/08 Q1021
2026-04-13 14:00:00,METAR LPFR 131400Z 31013KT 280V340 9999 SCT030 18/07 Q1021
2026-04-13 13:30:00,METAR LPFR 131330Z 30012KT 280V340 9999 SCT030 18/07 Q1021
2026-04-13 13:00:00,METAR LPFR 131300Z 31011KT 270V330 9999 SCT042 18/07 Q1022
2026-04-13 12:30:00,METAR LPFR 131230Z 31010KT 270V350 9999 SCT042 17/07 Q1022
2026-04-13 12:00:00,METAR LPFR 131200Z 31012KT 280V350 9999 FEW048 17/06 Q1022
2026-04-13 11:30:00,METAR LPFR 131130Z 32013KT 280V010 9999 SCT048 18/06 Q1022
2026-04-13 11:00:00,METAR LPFR 131100Z 33016KT 9999 SCT045 18/05 Q1022
2026-04-13 10:30:00,METAR LPFR 131030Z 32017KT 9999 SCT040 17/05 Q1022
2026-04-13 10:00:00,METAR LPFR 131000Z 33016KT 9999 FEW040 17/06 Q1022
2026-04-13 09:30:00,METAR LPFR 130930Z 33011KT 300V360 CAVOK 16/07 Q1022
2026-04-13 09:00:00,METAR LPFR 130900Z 32011KT CAVOK 16/07 Q1022
2026-04-13 08:30:00,METAR LPFR 130830Z 31008KT 260V010 CAVOK 14/07 Q1022
2026-04-13 08:00:00,METAR LPFR 130800Z 31009KT 280V340 CAVOK 13/07 Q1022
2026-04-13 07:30:00,METAR LPFR 130730Z 31010KT CAVOK 12/07 Q1021
2026-04-13 07:00:00,METAR LPFR 130700Z 31012KT CAVOK 11/07 Q1021
2026-04-13 06:30:00,METAR LPFR 130630Z 32012KT CAVOK 10/07 Q1021
2026-04-13 06:00:00,METAR LPFR 130600Z 31012KT CAVOK 11/06 Q1021
2026-04-13 05:30:00,METAR LPFR 130530Z 30013KT CAVOK 11/06 Q1021
2026-04-13 05:00:00,METAR LPFR 130500Z 31011KT CAVOK 10/06 Q1021
2026-04-13 04:30:00,METAR LPFR 130430Z 33010KT CAVOK 10/06 Q1021
2026-04-13 04:00:00,METAR LPFR 130400Z 32011KT CAVOK 11/06 Q1021
2026-04-13 03:30:00,METAR LPFR 130330Z 31012KT CAVOK 11/06 Q1020
2026-04-13 03:00:00,METAR LPFR 130300Z 30012KT CAVOK 11/06 Q1020
2026-04-13 02:30:00,METAR LPFR 130230Z 31010KT CAVOK 11/06 Q1020
2026-04-13 02:00:00,METAR LPFR 130200Z 32011KT CAVOK 11/05 Q1021
2026-04-13 01:30:00,METAR LPFR 130130Z 33012KT CAVOK 11/05 Q1020
2026-04-13 01:00:00,METAR LPFR 130100Z 34014KT CAVOK 12/05 Q1021
2026-04-13 00:30:00,METAR LPFR 130030Z 33017KT CAVOK 12/05 Q1021
2026-04-13 00:00:00,METAR LPFR 130000Z 34019KT CAVOK 12/05 Q1021
2026-04-12 23:30:00,METAR LPFR 122330Z 34016KT 310V010 CAVOK 12/04 Q1021
2026-04-12 23:00:00,METAR LPFR 122300Z 34017KT CAVOK 13/03 Q1020
2026-04-12 22:30:00,METAR LPFR 122230Z 34016KT CAVOK 13/03 Q1020
2026-04-12 22:00:00,METAR LPFR 122200Z 34018G30KT CAVOK 13/03 Q1020
2026-04-12 21:30:00,METAR LPFR 122130Z 34016KT CAVOK 14/03 Q1019
2026-04-12 21:00:00,METAR LPFR 122100Z 32016KT CAVOK 14/03 Q1019
2026-04-12 20:30:00,METAR LPFR 122030Z 32016KT CAVOK 15/03 Q1019
2026-04-12 20:00:00,METAR LPFR 122000Z 30010KT 270V330 CAVOK 15/04 Q1019
2026-04-12 19:30:00,METAR LPFR 121930Z 32016G26KT CAVOK 16/04 Q1018
2026-04-12 19:00:00,METAR LPFR 121900Z 32019KT CAVOK 17/02 Q1017
2026-04-12 18:30:00,METAR LPFR 121830Z 32014KT CAVOK 18/03 Q1017
2026-04-12 18:00:00,METAR LPFR 121800Z 31018KT CAVOK 18/03 Q1017
2026-04-12 17:30:00,METAR LPFR 121730Z 32019KT CAVOK 19/04 Q1016
2026-04-12 17:00:00,METAR LPFR 121700Z 32020KT CAVOK 19/04 Q1016
2026-04-12 16:30:00,METAR LPFR 121630Z 32020KT CAVOK 20/04 Q1016
2026-04-12 16:00:00,METAR LPFR 121600Z 33021KT 9999 FEW040 20/04 Q1016
2026-04-12 15:00:00,METAR LPFR 121500Z 33020KT 9999 FEW040 20/04 Q1016
2026-04-12 14:30:00,METAR LPFR 121430Z 31021KT 9999 FEW040 20/05 Q1016
2026-04-12 14:00:00,METAR LPFR 121400Z 32020KT 9999 FEW040 20/04 Q1016
2026-04-12 13:30:00,METAR LPFR 121330Z 33020KT 9999 FEW040 20/03 Q1016
2026-04-12 13:00:00,METAR LPFR 121300Z 33021KT 300V360 9999 FEW030 20/03 Q1016
2026-04-12 12:30:00,METAR LPFR 121230Z 32019KT CAVOK 19/03 Q1016
2026-04-12 12:00:00,METAR LPFR 121200Z 33021KT CAVOK 19/01 Q1016
2026-04-12 11:30:00,METAR LPFR 121130Z 34019KT CAVOK 18/02 Q1017
2026-04-12 11:00:00,METAR LPFR 121100Z 33019KT 300V360 CAVOK 18/03 Q1017
2026-04-12 10:30:00,METAR LPFR 121030Z 33019KT 300V010 CAVOK 18/02 Q1017
2026-04-12 10:00:00,METAR LPFR 121000Z 33021G31KT CAVOK 16/04 Q1017
2026-04-12 09:30:00,METAR LPFR 120930Z 33022KT CAVOK 16/04 Q1016
2026-04-12 09:00:00,METAR LPFR 120900Z 33021KT CAVOK 14/04 Q1016
2026-04-12 08:30:00,METAR LPFR 120830Z 33019KT CAVOK 13/03 Q1016
2026-04-12 08:00:00,METAR LPFR 120800Z 33020KT CAVOK 13/02 Q1016
2026-04-12 07:30:00,METAR LPFR 120730Z 33022KT CAVOK 12/02 Q1016
2026-04-12 07:00:00,METAR LPFR 120700Z 33019KT CAVOK 11/01 Q1015
2026-04-12 06:30:00,METAR LPFR 120630Z 33016KT CAVOK 11/01 Q1015
2026-04-12 06:00:00,METAR LPFR 120600Z 32015KT CAVOK 11/02 Q1015
2026-04-12 05:30:00,METAR LPFR 120530Z 32016KT CAVOK 11/02 Q1014
2026-04-12 05:00:00,METAR LPFR 120500Z 31011KT 290V360 CAVOK 11/03 Q1014
2026-04-12 04:30:00,METAR LPFR 120430Z 30005KT 240V010 CAVOK 11/03 Q1014
2026-04-12 04:00:00,METAR LPFR 120400Z 33008KT 290V010 CAVOK 11/03 Q1014
2026-04-12 03:30:00,METAR LPFR 120330Z 31009KT 280V340 CAVOK 11/04 Q1014
2026-04-12 03:00:00,METAR LPFR 120300Z 32011KT 280V350 CAVOK 12/04 Q1014
2026-04-12 02:30:00,METAR LPFR 120230Z 32013KT CAVOK 12/04 Q1014
2026-04-12 02:00:00,METAR LPFR 120200Z 32011KT CAVOK 12/04 Q1013
2026-04-12 01:30:00,METAR LPFR 120130Z 32011KT 280V340 CAVOK 12/05 Q1014
2026-04-12 01:00:00,METAR LPFR 120100Z 32010KT CAVOK 12/05 Q1014
2026-04-12 00:30:00,METAR LPFR 120030Z 30010KT 280V340 CAVOK 12/05 Q1014
2026-04-12 00:00:00,METAR LPFR 120000Z 31011KT CAVOK 13/06 Q1014
2026-04-11 23:30:00,METAR LPFR 112330Z 31012KT CAVOK 13/06 Q1014
2026-04-11 23:00:00,METAR LPFR 112300Z 33010KT 310V030 CAVOK 13/07 Q1014
2026-04-11 22:30:00,METAR LPFR 112230Z 31008KT 280V360 CAVOK 14/07 Q1014
2026-04-11 22:00:00,METAR LPFR 112200Z 31006KT 260V020 CAVOK 14/07 Q1014
2026-04-11 21:30:00,METAR LPFR 112130Z 33015KT CAVOK 15/07 Q1013
2026-04-11 21:00:00,METAR LPFR 112100Z 32019KT CAVOK 16/08 Q1013
2026-04-11 20:30:00,METAR LPFR 112030Z 32016KT CAVOK 16/08 Q1013
2026-04-11 20:00:00,METAR LPFR 112000Z 33016KT CAVOK 17/11 Q1012
2026-04-11 19:30:00,METAR LPFR 111930Z 33018KT CAVOK 18/11 Q1011
2026-04-11 19:00:00,METAR LPFR 111900Z 33014KT CAVOK 19/11 Q1011
2026-04-11 18:30:00,METAR LPFR 111830Z 32015KT CAVOK 20/12 Q1011
2026-04-11 18:00:00,METAR LPFR 111800Z 32016KT CAVOK 20/12 Q1010
2026-04-11 17:30:00,METAR LPFR 111730Z 31016KT CAVOK 22/13 Q1010
2026-04-11 17:00:00,METAR LPFR 111700Z 30015KT CAVOK 22/14 Q1010
2026-04-11 16:30:00,METAR LPFR 111630Z 33011KT 290V350 CAVOK 25/10 Q1010
2026-04-11 16:00:00,METAR LPFR 111600Z 34010KT CAVOK 25/11 Q1010
2026-04-11 15:30:00,METAR LPFR 111530Z 33013KT 310V010 CAVOK 25/11 Q1010
2026-04-11 15:00:00,METAR LPFR 111500Z VRB03KT CAVOK 24/14 Q1010
2026-04-11 14:30:00,METAR LPFR 111430Z 21007KT 170V230 9999 FEW030 21/16 Q1011
2026-04-11 14:00:00,METAR LPFR 111400Z 18009KT 9999 FEW030 21/15 Q1011
2026-04-11 13:30:00,METAR LPFR 111330Z 19008KT 9999 FEW030 20/15 Q1011
2026-04-11 13:00:00,METAR LPFR 111300Z 17008KT 9999 FEW030 19/15 Q1012
2026-04-11 12:30:00,METAR LPFR 111230Z 17006KT 9999 FEW030 19/14 Q1012
2026-04-11 12:00:00,METAR LPFR 111200Z 22006KT 9999 FEW030 20/15 Q1012
2026-04-11 11:30:00,METAR LPFR 111130Z 24006KT 200V280 9999 FEW025 19/15 Q1012
2026-04-11 11:00:00,METAR LPFR 111100Z 23007KT 170V270 9999 FEW025 18/15 Q1012
2026-04-11 10:30:00,METAR LPFR 111030Z 25007KT 9999 FEW020 18/15 Q1012
2026-04-11 10:00:00,METAR LPFR 111000Z VRB03KT 9999 FEW018 19/14 Q1012
2026-04-11 09:30:00,METAR LPFR 110930Z 31004KT 250V050 9999 FEW016 18/13 Q1012
2026-04-11 09:00:00,METAR LPFR 110900Z 29010KT 260V320 9999 FEW016 17/14 Q1012
2026-04-11 08:30:00,METAR LPFR 110830Z 29009KT 270V330 9999 FEW020 17/14 Q1012
2026-04-11 08:00:00,METAR LPFR 110800Z 28007KT 9999 FEW040 16/14 Q1012
2026-04-11 07:30:00,METAR LPFR 110730Z 31009KT 9999 FEW030 15/13 Q1012
2026-04-11 07:00:00,METAR LPFR 110700Z 30006KT 9999 FEW030 15/12 Q1012
2026-04-11 06:30:00,METAR LPFR 110630Z 29007KT 9999 FEW048 14/12 Q1012
2026-04-11 06:00:00,METAR LPFR 110600Z 26006KT 9999 FEW048 14/12 Q1011
2026-04-11 05:30:00,METAR LPFR 110530Z 27006KT 9999 FEW048 14/13 Q1011
2026-04-11 05:00:00,METAR LPFR 110500Z 27005KT 9999 FEW048 14/13 Q1012
2026-04-11 04:30:00,METAR LPFR 110430Z 27007KT 9999 FEW048 15/13 Q1011
2026-04-11 04:00:00,METAR LPFR 110400Z 27007KT 9999 FEW048 15/14 Q1012
2026-04-11 03:30:00,METAR LPFR 110330Z 26008KT 9999 FEW048 15/13 Q1012
2026-04-11 03:00:00,METAR LPFR 110300Z 26010KT CAVOK 15/13 Q1011
2026-04-11 02:30:00,METAR LPFR 110230Z 29008KT 9999 FEW048 16/12 Q1011
2026-04-11 02:00:00,METAR LPFR 110200Z 29008KT 9999 FEW048 15/13 Q1012
2026-04-11 01:30:00,METAR LPFR 110130Z 27006KT 9999 FEW048 15/13 Q1012
2026-04-11 01:00:00,METAR LPFR 110100Z 28006KT 9999 FEW048 15/13 Q1012
2026-04-11 00:30:00,METAR LPFR 110030Z 30009KT 9999 FEW048 15/13 Q1012
2026-04-11 00:00:00,METAR LPFR 110000Z 31011KT CAVOK 15/13 Q1013
2026-04-10 23:30:00,METAR LPFR 102330Z 31011KT CAVOK 15/12 Q1013
2026-04-10 23:00:00,METAR LPFR 102300Z 29009KT CAVOK 15/13 Q1013
2026-04-10 22:30:00,METAR LPFR 102230Z 28008KT CAVOK 16/14 Q1013
2026-04-10 22:00:00,METAR LPFR 102200Z 28011KT CAVOK 16/14 Q1013
2026-04-10 21:30:00,METAR LPFR 102130Z 27013KT CAVOK 16/15 Q1013
2026-04-10 21:00:00,METAR LPFR 102100Z 26013KT CAVOK 16/15 Q1013
2026-04-10 20:30:00,METAR LPFR 102030Z 26012KT CAVOK 16/15 Q1013
2026-04-10 20:00:00,METAR LPFR 102000Z 26010KT CAVOK 17/15 Q1012
2026-04-10 19:30:00,METAR LPFR 101930Z 25005KT 9999 FEW025 16/15 Q1012
2026-04-10 19:00:00,METAR LPFR 101900Z 26008KT 9999 FEW025 17/15 Q1012
2026-04-10 18:30:00,METAR LPFR 101830Z 26009KT 9999 FEW040 17/15 Q1012
2026-04-10 18:00:00,METAR LPFR 101800Z 24006KT 210V310 9999 FEW040 20/15 Q1012
2026-04-10 17:30:00,METAR LPFR 101730Z 27005KT 220V310 9999 FEW035 21/12 Q1011
2026-04-10 17:00:00,METAR LPFR 101700Z 26006KT 9999 FEW035 20/14 Q1011
2026-04-10 16:30:00,METAR LPFR 101630Z 28006KT 250V310 9999 FEW035 20/15 Q1011
2026-04-10 16:00:00,METAR LPFR 101600Z 27008KT 9999 FEW030 19/15 Q1012
2026-04-10 15:30:00,METAR LPFR 101530Z 26011KT 9999 FEW025 18/15 Q1012
2026-04-10 15:00:00,METAR LPFR 101500Z 26011KT 9999 FEW025 17/14 Q1012
2026-04-10 14:30:00,METAR LPFR 101430Z 26011KT 9999 FEW025 17/14 Q1013
2026-04-10 14:00:00,METAR LPFR 101400Z 27011KT 9999 FEW025 17/13 Q1013
2026-04-10 13:30:00,METAR LPFR 101330Z 26013KT 9999 FEW025 17/13 Q1013
2026-04-10 13:00:00,METAR LPFR 101300Z 26012KT 9999 FEW025 17/14 Q1013
2026-04-10 12:30:00,METAR LPFR 101230Z 25012KT 9999 FEW025 17/14 Q1013
2026-04-10 12:00:00,METAR LPFR 101200Z 26011KT 9999 FEW025 17/14 Q1013
2026-04-10 11:30:00,METAR LPFR 101130Z 25012KT 9999 FEW025 17/14 Q1013
2026-04-10 11:00:00,METAR LPFR 101100Z 26011KT 9999 FEW025 18/15 Q1013
2026-04-10 10:30:00,METAR LPFR 101030Z 26009KT 9999 FEW040 17/14 Q1013
2026-04-10 10:00:00,METAR LPFR 101000Z 28009KT 9999 FEW040 17/13 Q1013
2026-04-10 09:30:00,METAR LPFR 100930Z 29009KT 9999 FEW030 17/14 Q1013
2026-04-10 09:00:00,METAR LPFR 100900Z 28010KT 9999 FEW030 16/14 Q1013
2026-04-10 08:30:00,METAR LPFR 100830Z 28007KT 9999 FEW020 16/14 Q1013
2026-04-10 08:00:00,METAR LPFR 100800Z 28007KT 9999 FEW020 15/13 Q1013
2026-04-10 07:30:00,METAR LPFR 100730Z 29005KT 9999 FEW018 15/13 Q1013
2026-04-10 07:00:00,METAR LPFR 100700Z 30006KT 9999 FEW010 15/13 Q1013
2026-04-10 06:30:00,METAR LPFR 100630Z 28004KT 9999 FEW010 14/13 Q1013
2026-04-10 06:00:00,METAR LPFR 100600Z 28005KT 9999 FEW010 14/13 Q1013
2026-04-10 05:30:00,METAR LPFR 100530Z 28004KT CAVOK 14/13 Q1013
2026-04-10 05:00:00,METAR LPFR 100500Z 28003KT CAVOK 14/13 Q1013
2026-04-10 04:30:00,METAR LPFR 100430Z 31002KT CAVOK 14/13 Q1013
2026-04-10 04:00:00,METAR LPFR 100400Z 32005KT CAVOK 14/13 Q1013
2026-04-10 03:30:00,METAR LPFR 100330Z 31005KT CAVOK 14/13 Q1013
2026-04-10 03:00:00,METAR LPFR 100300Z 30004KT CAVOK 14/13 Q1013
2026-04-10 02:30:00,METAR LPFR 100230Z 29004KT CAVOK 14/13 Q1013
2026-04-10 02:00:00,METAR LPFR 100200Z 29004KT 9999 FEW012 15/13 Q1013
2026-04-10 01:30:00,METAR LPFR 100130Z 29005KT 9999 FEW010 15/13 Q1014
2026-04-10 01:00:00,METAR LPFR 100100Z 26006KT 9999 FEW010 15/13 Q1014
2026-04-10 00:30:00,METAR LPFR 100030Z 27008KT CAVOK 15/13 Q1014
2026-04-10 00:00:00,METAR LPFR 100000Z 26008KT 220V290 CAVOK 15/13 Q1014
2026-04-09 23:30:00,METAR LPFR 092330Z 24004KT CAVOK 16/13 Q1014
2026-04-09 23:00:00,METAR LPFR 092300Z 28004KT 220V320 CAVOK 16/14 Q1013
2026-04-09 22:30:00,METAR LPFR 092230Z 21010KT 9999 FEW015 16/14 Q1014
2026-04-09 22:00:00,METAR LPFR 092200Z 19011KT 140V220 9999 -RA FEW015 16/13 Q1014
2026-04-09 21:30:00,METAR LPFR 092130Z 01010KT 9999 -RA FEW020 16/13 Q1013
2026-04-09 21:00:00,METAR LPFR 092100Z 35009KT 9999 -RA FEW020 16/13 Q1013
2026-04-09 20:30:00,METAR LPFR 092030Z 31004KT 9999 FEW020 16/14 Q1014
2026-04-09 20:00:00,METAR LPFR 092000Z 31005KT 9999 -RA FEW020 16/14 Q1014
2026-04-09 19:30:00,METAR LPFR 091930Z 27008KT 9999 FEW020 16/13 Q1014
2026-04-09 19:00:00,METAR LPFR 091900Z 25008KT 9999 FEW022 16/14 Q1014
2026-04-09 18:30:00,METAR LPFR 091830Z 25008KT 9999 FEW022 16/13 Q1013
2026-04-09 18:00:00,METAR LPFR 091800Z 26010KT 9999 FEW022 16/12 Q1013
2026-04-09 17:30:00,METAR LPFR 091730Z 27011KT 9999 FEW022 17/13 Q1013
2026-04-09 17:00:00,METAR LPFR 091700Z 27010KT 9999 FEW022 17/13 Q1013
2026-04-09 16:30:00,METAR LPFR 091630Z 27010KT 9999 FEW022 17/12 Q1013
2026-04-09 16:00:00,METAR LPFR 091600Z 27009KT 9999 FEW018 17/13 Q1013
2026-04-09 15:30:00,METAR LPFR 091530Z 27009KT 240V300 9999 FEW030 SCT040 17/12 Q1013
2026-04-09 15:00:00,METAR LPFR 091500Z 26009KT 9999 FEW030 SCT040 16/12 Q1013
2026-04-09 14:30:00,METAR LPFR 091430Z 25009KT 9999 FEW030 16/12 Q1013
2026-04-09 14:00:00,METAR LPFR 091400Z 24010KT 9999 FEW025 16/12 Q1013
2026-04-09 13:30:00,METAR LPFR 091330Z 25011KT 9999 FEW022 16/12 Q1014
2026-04-09 13:00:00,METAR LPFR 091300Z 24011KT 9999 FEW018 16/12 Q1014
2026-04-09 12:30:00,METAR LPFR 091230Z 25011KT 9999 FEW015 16/12 Q1014
2026-04-09 12:00:00,METAR LPFR 091200Z 26009KT 9999 FEW015 16/12 Q1014
2026-04-09 11:30:00,METAR LPFR 091130Z 27008KT 9999 FEW015 16/12 Q1014
2026-04-09 11:00:00,METAR LPFR 091100Z 27007KT 9999 FEW015 15/12 Q1015
2026-04-09 10:30:00,METAR LPFR 091030Z 30006KT 260V320 9999 FEW015 15/12 Q1015
2026-04-09 10:00:00,METAR LPFR 091000Z 26006KT 230V320 9999 FEW015 15/12 Q1015
2026-04-09 09:30:00,METAR LPFR 090930Z 29005KT 260V320 9999 FEW013 14/12 Q1015
2026-04-09 09:00:00,METAR LPFR 090900Z 35003KT 240V040 9999 FEW012 13/12 Q1015
2026-04-09 08:30:00,METAR LPFR 090830Z 03005G15KT 320V110 9999 FEW012 13/11 Q1015
2026-04-09 08:00:00,METAR LPFR 090800Z 02005KT 9999 -RA FEW012 12/11 Q1016 RERA
2026-04-09 07:30:00,METAR LPFR 090730Z 04006KT 9999 -RA FEW012 12/11 Q1015 RERA
2026-04-09 07:00:00,METAR LPFR 090700Z 07006KT 6000 RA FEW048 12/10 Q1016
2026-04-09 06:30:00,METAR LPFR 090630Z 03009KT 9999 FEW020 13/09 Q1015
2026-04-09 06:00:00,METAR LPFR 090600Z 01009KT 350V070 9999 FEW020 13/09 Q1015
2026-04-09 05:30:00,METAR LPFR 090530Z 02004KT 300V090 9999 FEW020 13/07 Q1016
2026-04-09 05:00:00,METAR LPFR 090500Z 02005KT 9999 FEW020 SCT040 13/07 Q1016
2026-04-09 04:30:00,METAR LPFR 090430Z 02005KT 9999 SCT030 13/07 Q1016
2026-04-09 04:00:00,METAR LPFR 090400Z 02006KT 9999 FEW040 13/07 Q1016
2026-04-09 03:30:00,METAR LPFR 090330Z 03006KT 9999 FEW040 13/07 Q1016
2026-04-09 03:00:00,METAR LPFR 090300Z 03006KT 9999 FEW040 13/07 Q1016
2026-04-09 02:30:00,METAR LPFR 090230Z 03007KT CAVOK 13/06 Q1016
2026-04-09 02:00:00,METAR LPFR 090200Z 02006KT CAVOK 13/06 Q1017
2026-04-09 01:30:00,METAR LPFR 090130Z 02006KT 9999 FEW035 11/07 Q1017
2026-04-09 01:00:00,METAR LPFR 090100Z 01006KT 9999 FEW035 12/07 Q1018
2026-04-09 00:30:00,METAR LPFR 090030Z 03005KT 9999 FEW035 12/07 Q1018
2026-04-09 00:00:00,METAR LPFR 090000Z 03007KT 9999 FEW030 12/07 Q1018
2026-04-08 23:30:00,METAR LPFR 082330Z 03007KT 9999 FEW030 13/07 Q1018
2026-04-08 23:00:00,METAR LPFR 082300Z 03008KT CAVOK 13/07 Q1018
2026-04-08 22:30:00,METAR LPFR 082230Z 03007KT CAVOK 13/07 Q1018
2026-04-08 22:00:00,METAR LPFR 082200Z 02006KT CAVOK 13/08 Q1018
2026-04-08 21:30:00,METAR LPFR 082130Z 02006KT 010V130 CAVOK 13/08 Q1018
2026-04-08 21:00:00,METAR LPFR 082100Z 04005KT 360V090 9999 FEW030 14/08 Q1018
2026-04-08 20:30:00,METAR LPFR 082030Z 10006KT 9999 FEW030 14/08 Q1018
2026-04-08 20:00:00,METAR LPFR 082000Z 09007KT 9999 FEW030 14/08 Q1018
2026-04-08 19:30:00,METAR LPFR 081930Z 11010KT 9999 FEW030 15/08 Q1017
2026-04-08 19:00:00,METAR LPFR 081900Z 11009KT 9999 FEW030 15/08 Q1017
2026-04-08 18:30:00,METAR LPFR 081830Z 12009KT 9999 FEW030 15/08 Q1017
2026-04-08 18:00:00,METAR LPFR 081800Z 12009KT 9999 FEW030 16/08 Q1017
2026-04-08 17:30:00,METAR LPFR 081730Z 12010KT 9999 FEW030 16/08 Q1017
2026-04-08 17:00:00,METAR LPFR 081700Z 13010KT 100V160 9999 FEW028 17/08 Q1017
2026-04-08 16:30:00,METAR LPFR 081630Z 12010KT 9999 FEW025 16/07 Q1017
2026-04-08 16:00:00,METAR LPFR 081600Z 14010KT 100V160 9999 FEW025 17/09 Q1017
2026-04-08 15:30:00,METAR LPFR 081530Z 16010G21KT 130V190 9999 SCT025 16/08 Q1017
2026-04-08 15:00:00,METAR LPFR 081500Z 14010KT 9999 FEW015 SCT030 17/09 Q1017
2026-04-08 14:30:00,METAR LPFR 081430Z 15010KT 120V180 9999 FEW015 SCT030 16/08 Q1017
2026-04-08 14:00:00,METAR LPFR 081400Z 15011KT 130V190 9999 FEW015 SCT030 17/08 Q1017
2026-04-08 13:30:00,METAR LPFR 081330Z 15009KT 120V180 9999 FEW015 SCT030 17/09 Q1017
2026-04-08 13:00:00,METAR LPFR 081300Z 16010KT 130V200 9999 SCT030 16/09 Q1017
2026-04-08 12:30:00,METAR LPFR 081230Z 15009KT 110V180 9999 FEW030 16/09 Q1017
2026-04-08 12:00:00,METAR LPFR 081200Z 17008KT 9999 FEW028 16/09 Q1017
2026-04-08 11:30:00,METAR LPFR 081130Z 16008KT 140V200 9999 FEW020 16/09 Q1017
2026-04-08 11:00:00,METAR LPFR 081100Z 19009KT 160V220 9999 FEW020 16/10 Q1017
2026-04-08 10:30:00,METAR LPFR 081030Z 19010KT 160V220 9999 FEW012 FEW022TCU 16/09 Q1017
2026-04-08 10:00:00,METAR LPFR 081000Z 21009KT 180V250 9999 FEW012 FEW022TCU SCT032 15/10 Q1017
2026-04-08 09:30:00,METAR LPFR 080930Z 18007KT 100V240 9999 FEW012 FEW022CB SCT032 15/08 Q1017
2026-04-08 09:00:00,METAR LPFR 080900Z 12006KT 9999 VCSH FEW012 FEW020CB SCT030 13/10 Q1017
2026-04-08 08:30:00,METAR LPFR 080830Z 17010KT 140V220 9999 -SHRA FEW012 FEW020CB SCT028 13/08 Q1017
2026-04-08 08:00:00,METAR LPFR 080800Z 17004KT 9999 FEW012 FEW020CB SCT030 14/10 Q1016
2026-04-08 07:30:00,METAR LPFR 080730Z 22010KT 9999 -SHRA FEW015 FEW020CB SCT030 12/07 Q1016 RESHRA
2026-04-08 07:00:00,METAR LPFR 080700Z 13008KT 9999 FEW015 FEW020CB SCT030 13/10 Q1016
2026-04-08 06:30:00,METAR LPFR 080630Z 05005KT 9999 VCSH FEW015 FEW020CB 11/08 Q1016
2026-04-08 06:00:00,METAR LPFR 080600Z 04006KT 9999 VCSH FEW015 FEW020CB 11/08 Q1016
2026-04-08 05:30:00,METAR LPFR 080530Z 13006KT 9999 FEW020 12/09 Q1016
2026-04-08 05:00:00,METAR LPFR 080500Z 10006KT 9999 FEW020 SCT040 11/08 Q1016
2026-04-08 04:30:00,METAR LPFR 080430Z 16005KT 130V200 9999 -SHRA FEW020 BKN030 12/06 Q1016
2026-04-08 04:00:00,METAR LPFR 080400Z 19009KT 150V220 9999 FEW020 BKN030 13/07 Q1016
2026-04-08 03:30:00,METAR LPFR 080330Z 15005KT 9999 FEW020 12/08 Q1016
2026-04-08 03:00:00,METAR LPFR 080300Z VRB04KT 9999 FEW015 FEW020CB 11/09 Q1016
2026-04-08 02:30:00,METAR LPFR 080230Z 04006KT 9999 FEW015 FEW020CB 11/09 Q1016
2026-04-08 02:00:00,METAR LPFR 080200Z 17006KT 9999 FEW020 SCT045 13/09 Q1016
2026-04-08 01:30:00,METAR LPFR 080130Z 03004KT 360V060 9999 FEW022 SCT045 11/08 Q1017
2026-04-08 01:00:00,METAR LPFR 080100Z 05004KT 010V090 9999 FEW025 SCT045 11/08 Q1017
2026-04-08 00:30:00,METAR LPFR 080030Z VRB04KT 9999 FEW020 11/08 Q1017
2026-04-08 00:00:00,METAR LPFR 080000Z 03005KT 9999 FEW020 11/08 Q1017
2026-04-07 23:30:00,METAR LPFR 072330Z 02005KT 9999 FEW020 SCT030 11/08 Q1017
2026-04-07 23:00:00,METAR LPFR 072300Z 02006KT 9999 FEW020 SCT030 11/09 Q1017
2026-04-07 22:30:00,METAR LPFR 072230Z 03006KT 9999 SCT020 11/09 Q1017
2026-04-07 22:00:00,METAR LPFR 072200Z 02005KT 9999 FEW020 11/09 Q1017
2026-04-07 21:30:00,METAR LPFR 072130Z 21003KT 170V240 9999 FEW020 11/08 Q1017
2026-04-07 21:00:00,METAR LPFR 072100Z VRB02KT 9999 FEW020 SCT045 11/08 Q1017
2026-04-07 20:30:00,METAR LPFR 072030Z 29004KT 250V320 9999 FEW020 SCT035 12/09 Q1017
2026-04-07 20:00:00,METAR LPFR 072000Z 26004KT 9999 FEW018 SCT030 12/08 Q1016
2026-04-07 19:30:00,METAR LPFR 071930Z 24006KT 9999 FEW015 SCT022 12/08 Q1016
2026-04-07 19:00:00,METAR LPFR 071900Z VRB02KT 9999 -RA FEW016 11/08 Q1016
2026-04-07 18:30:00,METAR LPFR 071830Z 29004KT 250V320 9999 -SHRA SCT016 12/09 Q1017
2026-04-07 18:00:00,METAR LPFR 071800Z 30009KT 270V330 9999 FEW012 12/09 Q1015
2026-04-07 17:30:00,METAR LPFR 071730Z 27013KT 9999 FEW012 13/08 Q1016
2026-04-07 17:00:00,METAR LPFR 071700Z 28013KT 9999 SCT012 FEW018TCU 13/10 Q1016
2026-04-07 16:30:00,METAR LPFR 071630Z 29009KT 9999 SCT012 BKN048 13/10 Q1016
2026-04-07 16:00:00,METAR LPFR 071600Z 29011KT 9999 SCT012 BKN040 13/10 Q1016
2026-04-07 15:30:00,METAR LPFR 071530Z 29015KT 9999 SCT012 BKN030 13/10 Q1016
2026-04-07 15:00:00,METAR LPFR 071500Z 28018KT 9999 FEW010 BKN030 13/10 Q1016
2026-04-07 14:30:00,METAR LPFR 071430Z 27016KT 9999 FEW010 BKN026 14/09 Q1015
2026-04-07 14:00:00,METAR LPFR 071400Z 27016KT 9999 FEW010 BKN022 14/12 Q1015
2026-04-07 13:30:00,METAR LPFR 071330Z 26016KT 9999 FEW010 FEW018CB BKN020 14/12 Q1016 WS R28
2026-04-07 13:00:00,METAR LPFR 071300Z 26015KT 5000 -SHRA BR SCT012 FEW020TCU BKN025 14/13 Q1015
2026-04-07 12:30:00,METAR LPFR 071230Z 16014KT 9999 FEW015 FEW020TCU BKN032 18/14 Q1015
2026-04-07 12:00:00,METAR LPFR 071200Z 17011KT 9999 FEW018 SCT038 19/15 Q1016
2026-04-07 11:30:00,METAR LPFR 071130Z 18010KT 9999 FEW018 SCT035 18/14 Q1016
2026-04-07 11:00:00,METAR LPFR 071100Z 20010KT 9999 FEW015 SCT028 19/14 Q1016
2026-04-07 10:30:00,METAR LPFR 071030Z 20010KT 9999 SCT015 SCT030 18/13 Q1016
2026-04-07 10:00:00,METAR LPFR 071000Z 21008KT 9999 FEW015 BKN038 18/14 Q1015
2026-04-07 09:30:00,METAR LPFR 070930Z 24009KT 9999 FEW014 BKN035 17/14 Q1015
2026-04-07 09:00:00,METAR LPFR 070900Z 22007KT 9999 -RA SCT015 BKN030 17/15 Q1015
2026-04-07 08:30:00,METAR LPFR 070830Z 25007KT 9999 FEW015 BKN035 17/15 Q1014
2026-04-07 08:00:00,METAR LPFR 070800Z 25011KT 9999 FEW010 SCT030 17/15 Q1014
2026-04-07 07:30:00,METAR LPFR 070730Z 24013KT 9999 VCSH FEW008 SCT012 BKN025 17/15 Q1014
2026-04-07 07:00:00,METAR LPFR 070700Z 21008KT 6000 FEW012 SCT016 BKN025 17/16 Q1014
2026-04-07 06:30:00,METAR LPFR 070630Z 21008KT 7000 SCT010 BKN025 17/16 Q1013
2026-04-07 06:00:00,METAR LPFR 070600Z 21010KT 7000 SCT010 BKN018 17/16 Q1013
2026-04-07 05:30:00,METAR LPFR 070530Z 20010KT 9999 BKN012 17/16 Q1013
2026-04-07 05:00:00,METAR LPFR 070500Z 20010KT 9999 BKN015 18/16 Q1013
2026-04-07 04:30:00,METAR LPFR 070430Z 17013KT 9999 BKN015 18/15 Q1013
2026-04-07 04:00:00,METAR LPFR 070400Z 15008KT 120V180 9999 FEW030 17/15 Q1012
2026-04-07 03:30:00,METAR LPFR 070330Z 12009KT 9999 FEW030 17/14 Q1012
2026-04-07 03:00:00,METAR LPFR 070300Z 13006KT 090V160 9999 FEW030 17/14 Q1013
2026-04-07 02:30:00,METAR LPFR 070230Z 12010KT 9999 FEW030 17/14 Q1013
2026-04-07 02:00:00,METAR LPFR 070200Z 09013KT 9999 FEW030 17/13 Q1012
2026-04-07 01:30:00,METAR LPFR 070130Z 09012KT 9999 FEW030 17/13 Q1013
2026-04-07 01:00:00,METAR LPFR 070100Z 08013KT 9999 FEW030 17/13 Q1013
2026-04-07 00:30:00,METAR LPFR 070030Z 09014KT 9999 FEW030 18/13 Q1013
2026-04-07 00:00:00,METAR LPFR 070000Z 09011KT 9999 FEW030 17/13 Q1014
2026-04-06 23:30:00,METAR LPFR 062330Z 07012KT 9999 FEW030 17/13 Q1014
2026-04-06 23:00:00,METAR LPFR 062300Z 08011KT 9999 FEW030 17/14 Q1014
2026-04-06 22:30:00,METAR LPFR 062230Z 07011KT 9999 FEW030 17/14 Q1015
2026-04-06 22:00:00,METAR LPFR 062200Z 08011KT 9999 FEW020 17/14 Q1015
2026-04-06 21:30:00,METAR LPFR 062130Z 08010KT 9999 FEW020 17/14 Q1015
2026-04-06 21:00:00,METAR LPFR 062100Z 07011KT 9999 FEW030 17/14 Q1015
2026-04-06 20:30:00,METAR LPFR 062030Z 06011KT 9999 FEW030 17/14 Q1016
2026-04-06 20:00:00,METAR LPFR 062000Z 07010KT 9999 FEW030 17/15 Q1016
2026-04-06 19:30:00,METAR LPFR 061930Z 06007KT 030V100 9999 FEW030 17/15 Q1016
2026-04-06 19:00:00,METAR LPFR 061900Z VRB06KT 9999 FEW030 18/15 Q1017
2026-04-06 18:30:00,METAR LPFR 061830Z 10009KT 9999 -RA FEW010 SCT030 17/15 Q1017
2026-04-06 18:00:00,METAR LPFR 061800Z 10010KT 9999 -RA FEW010 SCT030 17/16 Q1017
2026-04-06 17:30:00,METAR LPFR 061730Z 10011KT 9999 VCSH SCT035 17/16 Q1018
2026-04-06 17:00:00,METAR LPFR 061700Z 10011KT 9999 -RA SCT030 17/15 Q1018
2026-04-06 16:30:00,METAR LPFR 061630Z 08006KT 060V120 9999 -RA SCT030 18/15 Q1018
2026-04-06 16:00:00,METAR LPFR 061600Z 09005KT 060V130 9999 -RA FEW020 SCT030 17/15 Q1018
2026-04-06 15:30:00,METAR LPFR 061530Z 15003KT 9999 -RA FEW020 SCT030 18/14 Q1019
2026-04-06 15:00:00,METAR LPFR 061500Z 10004KT 070V150 9999 -RA FEW020 SCT030 18/14 Q1019
2026-04-06 14:30:00,METAR LPFR 061430Z 08004KT 040V100 9999 -RA FEW020 SCT030 18/13 Q1018
2026-04-06 14:00:00,METAR LPFR 061400Z 09007KT 9999 -RA FEW020 SCT032 18/13 Q1018
2026-04-06 13:30:00,METAR LPFR 061330Z 09009KT 9999 -RA FEW020 SCT030 19/13 Q1018
2026-04-06 13:00:00,METAR LPFR 061300Z 11012KT 9999 FEW030 18/12 Q1018
2026-04-06 12:30:00,METAR LPFR 061230Z 11013KT CAVOK 19/12 Q1018
2026-04-06 12:00:00,METAR LPFR 061200Z 10013KT CAVOK 20/11 Q1018
2026-04-06 11:30:00,METAR LPFR 061130Z 09012KT CAVOK 20/11 Q1018
2026-04-06 11:00:00,METAR LPFR 061100Z 09010KT CAVOK 19/11 Q1018
2026-04-06 10:30:00,METAR LPFR 061030Z 09009KT CAVOK 19/11 Q1019
2026-04-06 10:00:00,METAR LPFR 061000Z 08011KT 9999 FEW012 19/10 Q1018
2026-04-06 09:30:00,METAR LPFR 060930Z 09010KT 9999 FEW012 19/11 Q1019
2026-04-06 09:00:00,METAR LPFR 060900Z 09011KT CAVOK 18/10 Q1019
2026-04-06 08:30:00,METAR LPFR 060830Z 08007KT CAVOK 18/09 Q1019
2026-04-06 08:00:00,METAR LPFR 060800Z 08007KT 9999 FEW035 17/08 Q1019
2026-04-06 07:30:00,METAR LPFR 060730Z 08009KT 9999 FEW035 17/08 Q1018
2026-04-06 07:00:00,METAR LPFR 060700Z 07011KT CAVOK 17/08 Q1017
2026-04-06 06:30:00,METAR LPFR 060630Z 07012KT CAVOK 17/07 Q1017
2026-04-06 06:00:00,METAR LPFR 060600Z 07012KT CAVOK 17/07 Q1017
2026-04-06 05:30:00,METAR LPFR 060530Z 08011KT CAVOK 17/07 Q1017
2026-04-06 05:00:00,METAR LPFR 060500Z 07013KT CAVOK 17/06 Q1017
2026-04-06 04:30:00,METAR LPFR 060430Z 07011KT CAVOK 17/06 Q1017
2026-04-06 04:00:00,METAR LPFR 060400Z 07014KT CAVOK 17/07 Q1017
2026-04-06 03:30:00,METAR LPFR 060330Z 06012KT CAVOK 17/08 Q1017
2026-04-06 03:00:00,METAR LPFR 060300Z 08010KT CAVOK 17/08 Q1018
2026-04-06 02:30:00,METAR LPFR 060230Z 09009KT CAVOK 17/09 Q1019
2026-04-06 02:00:00,METAR LPFR 060200Z 08010KT CAVOK 17/08 Q1019
2026-04-06 01:30:00,METAR LPFR 060130Z 08010KT CAVOK 17/08 Q1019
2026-04-06 01:00:00,METAR LPFR 060100Z 07012KT CAVOK 18/08 Q1018
2026-04-06 00:30:00,METAR LPFR 060030Z 07011KT CAVOK 17/08 Q1019
2026-04-06 00:00:00,METAR LPFR 060000Z 07009KT CAVOK 18/08 Q1019
2026-04-05 23:30:00,METAR LPFR 052330Z 08010KT CAVOK 18/08 Q1019
2026-04-05 23:00:00,METAR LPFR 052300Z 08010KT CAVOK 19/09 Q1019
2026-04-05 22:30:00,METAR LPFR 052230Z 08010G20KT CAVOK 19/08 Q1019
2026-04-05 22:00:00,METAR LPFR 052200Z 08009KT CAVOK 19/07 Q1019
2026-04-05 21:30:00,METAR LPFR 052130Z 07008KT CAVOK 19/08 Q1019
2026-04-05 21:00:00,METAR LPFR 052100Z 07007KT CAVOK 19/08 Q1019
2026-04-05 20:30:00,METAR LPFR 052030Z 07006KT CAVOK 19/08 Q1019
2026-04-05 20:00:00,METAR LPFR 052000Z 07007KT CAVOK 20/08 Q1019
2026-04-05 19:30:00,METAR LPFR 051930Z 09007KT CAVOK 20/08 Q1019
2026-04-05 19:00:00,METAR LPFR 051900Z 09006KT CAVOK 21/07 Q1019
2026-04-05 18:30:00,METAR LPFR 051830Z 08008KT CAVOK 22/07 Q1018
2026-04-05 18:00:00,METAR LPFR 051800Z 08008KT CAVOK 22/06 Q1019
2026-04-05 17:30:00,METAR LPFR 051730Z 10011KT CAVOK 23/05 Q1019
2026-04-05 17:00:00,METAR LPFR 051700Z 09012KT CAVOK 23/04 Q1019
2026-04-05 16:30:00,METAR LPFR 051630Z 09012KT CAVOK 24/03 Q1019
2026-04-05 16:00:00,METAR LPFR 051600Z 09013KT CAVOK 24/03 Q1019
2026-04-05 15:00:00,METAR LPFR 051500Z 09014KT CAVOK 24/03 Q1019
2026-04-05 13:00:00,METAR LPFR 051300Z 09012KT CAVOK 23/07 Q1020
2026-04-05 12:30:00,METAR LPFR 051230Z 09013KT CAVOK 22/06 Q1020
2026-04-05 12:00:00,METAR LPFR 051200Z 10011KT CAVOK 22/04 Q1020
2026-04-05 11:30:00,METAR LPFR 051130Z 11013KT CAVOK 22/03 Q1020
2026-04-05 11:00:00,METAR LPFR 051100Z 10012KT CAVOK 22/02 Q1021
2026-04-05 10:30:00,METAR LPFR 051030Z 09011KT CAVOK 22/02 Q1021
2026-04-05 10:00:00,METAR LPFR 051000Z 08010KT 060V120 CAVOK 21/03 Q1021
2026-04-05 09:30:00,METAR LPFR 050930Z 07007KT CAVOK 21/02 Q1021
2026-04-05 09:00:00,METAR LPFR 050900Z 07009KT CAVOK 20/02 Q1021
2026-04-05 08:30:00,METAR LPFR 050830Z 07009KT CAVOK 19/03 Q1021
2026-04-05 08:00:00,METAR LPFR 050800Z 06010G21KT 040V120 CAVOK 18/06 Q1021
2026-04-05 07:30:00,METAR LPFR 050730Z 07007KT CAVOK 16/06 Q1021
2026-04-05 07:00:00,METAR LPFR 050700Z 06006KT 020V110 CAVOK 15/07 Q1020
2026-04-05 06:30:00,METAR LPFR 050630Z 06006KT 040V100 CAVOK 15/02 Q1020
2026-04-05 06:00:00,METAR LPFR 050600Z 05005KT 020V090 CAVOK 16/01 Q1020
2026-04-05 05:30:00,METAR LPFR 050530Z 03007KT 020V080 CAVOK 16/01 Q1020
2026-04-05 05:00:00,METAR LPFR 050500Z 02008KT CAVOK 16/02 Q1020
2026-04-05 04:30:00,METAR LPFR 050430Z 02008KT CAVOK 16/02 Q1020
2026-04-05 04:00:00,METAR LPFR 050400Z 04004KT CAVOK 15/02 Q1020
2026-04-05 03:30:00,METAR LPFR 050330Z 03007KT CAVOK 15/02 Q1020
2026-04-05 03:00:00,METAR LPFR 050300Z 03007KT CAVOK 15/03 Q1020
2026-04-05 02:30:00,METAR LPFR 050230Z 03008KT CAVOK 16/03 Q1020
2026-04-05 02:00:00,METAR LPFR 050200Z 03005KT CAVOK 16/04 Q1021
2026-04-05 01:30:00,METAR LPFR 050130Z 03006KT CAVOK 17/04 Q1021
2026-04-05 01:00:00,METAR LPFR 050100Z 08005KT CAVOK 16/05 Q1021
2026-04-05 00:30:00,METAR LPFR 050030Z 06007KT CAVOK 17/05 Q1021
2026-04-05 00:00:00,METAR LPFR 050000Z 06007KT CAVOK 17/05 Q1021
2026-04-04 23:30:00,METAR LPFR 042330Z 04007KT CAVOK 17/04 Q1021
2026-04-04 23:00:00,METAR LPFR 042300Z 03008KT CAVOK 17/03 Q1021
2026-04-04 22:30:00,METAR LPFR 042230Z 04005KT CAVOK 18/03 Q1021
2026-04-04 22:00:00,METAR LPFR 042200Z 03006KT CAVOK 18/03 Q1021
2026-04-04 21:30:00,METAR LPFR 042130Z 05005KT CAVOK 18/04 Q1021
2026-04-04 21:00:00,METAR LPFR 042100Z 04006G17KT 020V090 CAVOK 19/03 Q1021
2026-04-04 20:30:00,METAR LPFR 042030Z 05006G19KT 010V100 CAVOK 20/03 Q1021
2026-04-04 20:00:00,METAR LPFR 042000Z 07006G23KT 020V100 CAVOK 20/04 Q1020
2026-04-04 19:30:00,METAR LPFR 041930Z 07007KT CAVOK 21/03 Q1020
2026-04-04 19:00:00,METAR LPFR 041900Z 07006KT CAVOK 22/03 Q1020
2026-04-04 18:30:00,METAR LPFR 041830Z 08005KT CAVOK 22/02 Q1020
2026-04-04 18:00:00,METAR LPFR 041800Z 09008KT CAVOK 22/04 Q1020
2026-04-04 17:30:00,METAR LPFR 041730Z 09009KT CAVOK 23/03 Q1020
2026-04-04 17:00:00,METAR LPFR 041700Z 09010KT CAVOK 24/02 Q1020
2026-04-04 16:30:00,METAR LPFR 041630Z 10011KT CAVOK 23/03 Q1020
2026-04-04 16:00:00,METAR LPFR 041600Z 10011KT CAVOK 23/03 Q1020
2026-04-04 15:30:00,METAR LPFR 041530Z 10011KT CAVOK 23/04 Q1020
2026-04-04 15:00:00,METAR LPFR 041500Z 10011KT CAVOK 23/02 Q1021
2026-04-04 14:30:00,METAR LPFR 041430Z 09010KT CAVOK 23/02 Q1021
2026-04-04 14:00:00,METAR LPFR 041400Z 10012KT CAVOK 23/02 Q1021
2026-04-04 13:30:00,METAR LPFR 041330Z 10014KT CAVOK 23/06 Q1021
2026-04-04 13:00:00,METAR LPFR 041300Z 10013KT CAVOK 24/04 Q1021
2026-04-04 12:30:00,METAR LPFR 041230Z 09011KT CAVOK 24/02 Q1022
2026-04-04 12:00:00,METAR LPFR 041200Z 08010KT CAVOK 23/04 Q1022
2026-04-04 11:30:00,METAR LPFR 041130Z 09012KT CAVOK 22/05 Q1022
2026-04-04 11:00:00,METAR LPFR 041100Z 09012KT CAVOK 21/06 Q1023
2026-04-04 10:30:00,METAR LPFR 041030Z 10010KT CAVOK 21/07 Q1023
2026-04-04 10:00:00,METAR LPFR 041000Z 09010KT CAVOK 20/06 Q1023
2026-04-04 09:30:00,METAR LPFR 040930Z 08010G21KT CAVOK 20/07 Q1023
2026-04-04 09:00:00,METAR LPFR 040900Z 08008KT CAVOK 19/08 Q1023
2026-04-04 08:30:00,METAR LPFR 040830Z 07007KT CAVOK 18/08 Q1022
2026-04-04 08:00:00,METAR LPFR 040800Z 07008KT 050V110 CAVOK 18/09 Q1022
2026-04-04 07:30:00,METAR LPFR 040730Z 07007KT 030V090 CAVOK 16/09 Q1022
2026-04-04 07:00:00,METAR LPFR 040700Z 04008KT CAVOK 14/09 Q1022
2026-04-04 06:30:00,METAR LPFR 040630Z 04008KT 020V090 CAVOK 14/09 Q1021
2026-04-04 06:00:00,METAR LPFR 040600Z 04008G18KT 020V100 CAVOK 15/10 Q1021
2026-04-04 05:30:00,METAR LPFR 040530Z 03007KT 020V100 CAVOK 15/10 Q1021
2026-04-04 05:00:00,METAR LPFR 040500Z 04006KT CAVOK 15/11 Q1021
2026-04-04 04:30:00,METAR LPFR 040430Z 06006KT CAVOK 15/11 Q1021
2026-04-04 04:00:00,METAR LPFR 040400Z 06007KT CAVOK 15/11 Q1021
2026-04-04 03:30:00,METAR LPFR 040330Z 05005KT 020V080 CAVOK 15/12 Q1021
2026-04-04 03:00:00,METAR LPFR 040300Z 06007KT CAVOK 16/11 Q1021
2026-04-04 02:30:00,METAR LPFR 040230Z 08007KT CAVOK 17/11 Q1021
2026-04-04 02:00:00,METAR LPFR 040200Z 08010KT CAVOK 17/09 Q1021
2026-04-04 01:30:00,METAR LPFR 040130Z 08008KT 040V120 CAVOK 16/08 Q1021
2026-04-04 01:00:00,METAR LPFR 040100Z 05003KT 040V100 CAVOK 17/05 Q1021
2026-04-04 00:30:00,METAR LPFR 040030Z 02007KT CAVOK 19/04 Q1021
2026-04-04 00:00:00,METAR LPFR 040000Z 03007KT CAVOK 19/04 Q1021
2026-04-03 23:30:00,METAR LPFR 032330Z 04008KT CAVOK 20/04 Q1021
2026-04-03 23:00:00,METAR LPFR 032300Z VRB02KT CAVOK 16/08 Q1021
2026-04-03 22:30:00,METAR LPFR 032230Z 34004KT 310V010 CAVOK 17/07 Q1021
2026-04-03 22:00:00,METAR LPFR 032200Z 25004KT 210V310 CAVOK 16/09 Q1022
2026-04-03 21:30:00,METAR LPFR 032130Z 27003KT 210V340 CAVOK 17/08 Q1021
2026-04-03 21:00:00,METAR LPFR 032100Z 31006KT CAVOK 17/09 Q1021
2026-04-03 20:30:00,METAR LPFR 032030Z 29007KT CAVOK 18/09 Q1021
2026-04-03 20:00:00,METAR LPFR 032000Z 29008KT CAVOK 19/06 Q1021
2026-04-03 19:30:00,METAR LPFR 031930Z 29008KT CAVOK 19/04 Q1021
2026-04-03 19:00:00,METAR LPFR 031900Z 29009KT CAVOK 20/04 Q1021
2026-04-03 18:30:00,METAR LPFR 031830Z 29007KT CAVOK 19/09 Q1021
2026-04-03 18:00:00,METAR LPFR 031800Z 28010KT CAVOK 20/06 Q1021
2026-04-03 17:30:00,METAR LPFR 031730Z 27010KT CAVOK 20/09 Q1021
2026-04-03 17:00:00,METAR LPFR 031700Z 27011KT CAVOK 20/12 Q1020
2026-04-03 16:30:00,METAR LPFR 031630Z 23004KT 190V260 CAVOK 22/07 Q1020
2026-04-03 16:00:00,METAR LPFR 031600Z 21003KT 130V260 CAVOK 22/10 Q1020
2026-04-03 15:30:00,METAR LPFR 031530Z 18004KT 150V210 CAVOK 22/07 Q1020
2026-04-03 15:00:00,METAR LPFR 031500Z 17006KT CAVOK 22/05 Q1021
2026-04-03 14:30:00,METAR LPFR 031430Z 15008KT CAVOK 22/09 Q1021
2026-04-03 14:00:00,METAR LPFR 031400Z 12010KT CAVOK 23/06 Q1021
2026-04-03 13:30:00,METAR LPFR 031330Z 12010KT CAVOK 23/05 Q1021
2026-04-03 13:00:00,METAR LPFR 031300Z 12011KT CAVOK 22/09 Q1021
2026-04-03 12:30:00,METAR LPFR 031230Z 12009KT CAVOK 23/08 Q1021
2026-04-03 12:00:00,METAR LPFR 031200Z 12011KT CAVOK 22/08 Q1022
2026-04-03 11:30:00,METAR LPFR 031130Z 11011KT CAVOK 22/08 Q1022
2026-04-03 11:00:00,METAR LPFR 031100Z 10012KT CAVOK 22/06 Q1022
2026-04-03 10:30:00,METAR LPFR 031030Z 08011KT CAVOK 22/04 Q1022
2026-04-03 10:00:00,METAR LPFR 031000Z 08011G22KT CAVOK 22/03 Q1022
2026-04-03 09:30:00,METAR LPFR 030930Z 07011KT CAVOK 21/04 Q1021
2026-04-03 09:00:00,METAR LPFR 030900Z 07013KT CAVOK 21/03 Q1021
2026-04-03 08:30:00,METAR LPFR 030830Z 06011KT CAVOK 20/03 Q1021
2026-04-03 08:00:00,METAR LPFR 030800Z 05011KT CAVOK 19/04 Q1021
2026-04-03 07:30:00,METAR LPFR 030730Z 04008KT 010V090 CAVOK 19/03 Q1020
2026-04-03 07:00:00,METAR LPFR 030700Z 03006KT CAVOK 17/04 Q1020
2026-04-03 06:30:00,METAR LPFR 030630Z 02008KT CAVOK 16/04 Q1020
2026-04-03 06:00:00,METAR LPFR 030600Z 02008KT CAVOK 16/04 Q1020
2026-04-03 05:30:00,METAR LPFR 030530Z 36004KT 320V040 CAVOK 15/05 Q1019
2026-04-03 05:00:00,METAR LPFR 030500Z 35009KT CAVOK 14/06 Q1019
2026-04-03 04:30:00,METAR LPFR 030430Z 01004KT 260V050 CAVOK 14/07 Q1019
2026-04-03 04:00:00,METAR LPFR 030400Z 34008KT CAVOK 15/08 Q1019
2026-04-03 03:30:00,METAR LPFR 030330Z 35008KT CAVOK 15/08 Q1019
2026-04-03 03:00:00,METAR LPFR 030300Z 36006KT CAVOK 14/08 Q1019
2026-04-03 02:30:00,METAR LPFR 030230Z 36005KT 300V060 CAVOK 14/09 Q1020
2026-04-03 02:00:00,METAR LPFR 030200Z 33005KT 290V020 CAVOK 15/11 Q1020
2026-04-03 01:30:00,METAR LPFR 030130Z 29007KT CAVOK 15/12 Q1020
2026-04-03 01:00:00,METAR LPFR 030100Z 30008KT CAVOK 17/11 Q1020
2026-04-03 00:30:00,METAR LPFR 030030Z 30007KT CAVOK 17/11 Q1020
2026-04-03 00:00:00,METAR LPFR 030000Z 29006KT CAVOK 16/11 Q1020
2026-04-02 23:30:00,METAR LPFR 022330Z 28005KT CAVOK 17/11 Q1020
2026-04-02 23:00:00,METAR LPFR 022300Z 27004KT CAVOK 17/11 Q1020
2026-04-02 22:30:00,METAR LPFR 022230Z 30006KT CAVOK 18/11 Q1019
2026-04-02 22:00:00,METAR LPFR 022200Z 30007KT CAVOK 18/11 Q1019
2026-04-02 21:30:00,METAR LPFR 022130Z 29007KT CAVOK 19/12 Q1019
2026-04-02 21:00:00,METAR LPFR 022100Z 29007KT CAVOK 19/12 Q1019
2026-04-02 20:30:00,METAR LPFR 022030Z 30008KT CAVOK 19/12 Q1019
2026-04-02 20:00:00,METAR LPFR 022000Z 28009KT CAVOK 19/11 Q1019
2026-04-02 19:30:00,METAR LPFR 021930Z 25007KT CAVOK 19/11 Q1018
2026-04-02 19:00:00,METAR LPFR 021900Z VRB02KT CAVOK 20/13 Q1018
2026-04-02 18:30:00,METAR LPFR 021830Z 26005KT CAVOK 20/14 Q1018
2026-04-02 18:00:00,METAR LPFR 021800Z 23004KT CAVOK 20/15 Q1018
2026-04-02 17:30:00,METAR LPFR 021730Z 19005KT CAVOK 21/15 Q1017
2026-04-02 17:00:00,METAR LPFR 021700Z 24005KT 190V270 CAVOK 20/15 Q1018
2026-04-02 16:30:00,METAR LPFR 021630Z 22005KT 180V240 CAVOK 20/15 Q1018
2026-04-02 16:00:00,METAR LPFR 021600Z 20008KT CAVOK 20/12 Q1018
2026-04-02 15:30:00,METAR LPFR 021530Z 20007KT CAVOK 20/10 Q1018
2026-04-02 15:00:00,METAR LPFR 021500Z 22008KT 180V240 CAVOK 20/11 Q1019
2026-04-02 14:30:00,METAR LPFR 021430Z 22008KT CAVOK 20/08 Q1019
2026-04-02 14:00:00,METAR LPFR 021400Z 22007KT CAVOK 20/09 Q1019
2026-04-02 13:30:00,METAR LPFR 021330Z 18006KT 160V230 CAVOK 20/09 Q1020
2026-04-02 13:00:00,METAR LPFR 021300Z 19006KT 160V230 CAVOK 21/10 Q1020
2026-04-02 12:30:00,METAR LPFR 021230Z 20007KT 170V240 CAVOK 20/11 Q1020
2026-04-02 12:00:00,METAR LPFR 021200Z 19007KT CAVOK 21/10 Q1020
2026-04-02 11:30:00,METAR LPFR 021130Z 18006KT 150V210 CAVOK 21/10 Q1020
2026-04-02 11:00:00,METAR LPFR 021100Z 22005KT 180V240 CAVOK 20/10 Q1020
2026-04-02 10:30:00,METAR LPFR 021030Z 17007KT 120V230 CAVOK 20/12 Q1020
2026-04-02 10:00:00,METAR LPFR 021000Z 12008KT CAVOK 22/09 Q1020
2026-04-02 09:30:00,METAR LPFR 020930Z 14005KT CAVOK 22/09 Q1020
2026-04-02 09:00:00,METAR LPFR 020900Z 04005KT CAVOK 22/06 Q1020
2026-04-02 08:30:00,METAR LPFR 020830Z 04006KT 360V070 CAVOK 21/06 Q1019
2026-04-02 08:00:00,METAR LPFR 020800Z 03004KT 010V070 CAVOK 18/07 Q1019
2026-04-02 07:30:00,METAR LPFR 020730Z 05005KT 340V090 CAVOK 15/08 Q1019
2026-04-02 07:00:00,METAR LPFR 020700Z VRB02KT CAVOK 13/07 Q1019
2026-04-02 06:30:00,METAR LPFR 020630Z 29005KT CAVOK 12/07 Q1019
2026-04-02 06:00:00,METAR LPFR 020600Z VRB02KT CAVOK 13/07 Q1019
2026-04-02 05:30:00,METAR LPFR 020530Z 35004KT 300V040 CAVOK 16/06 Q1019
2026-04-02 05:00:00,METAR LPFR 020500Z 03003KT 360V070 CAVOK 14/07 Q1018
2026-04-02 04:30:00,METAR LPFR 020430Z 36005KT CAVOK 14/07 Q1019
2026-04-02 04:00:00,METAR LPFR 020400Z 36006KT CAVOK 15/07 Q1019
2026-04-02 03:30:00,METAR LPFR 020330Z 36008KT CAVOK 15/07 Q1019
2026-04-02 03:00:00,METAR LPFR 020300Z 34011KT CAVOK 16/07 Q1019
2026-04-02 02:30:00,METAR LPFR 020230Z 34008KT CAVOK 15/07 Q1019
2026-04-02 02:00:00,METAR LPFR 020200Z 34008KT CAVOK 15/07 Q1019
2026-04-02 01:30:00,METAR LPFR 020130Z 35008KT CAVOK 16/07 Q1019
2026-04-02 01:00:00,METAR LPFR 020100Z 35009KT CAVOK 16/06 Q1020
2026-04-02 00:30:00,METAR LPFR 020030Z 34009KT CAVOK 16/06 Q1020
2026-04-02 00:00:00,METAR LPFR 020000Z 33009KT CAVOK 16/06 Q1020
2026-04-01 23:30:00,METAR LPFR 012330Z 33006KT CAVOK 16/06 Q1020
2026-04-01 23:00:00,METAR LPFR 012300Z 33008KT CAVOK 17/06 Q1020
2026-04-01 22:30:00,METAR LPFR 012230Z 33008KT CAVOK 16/07 Q1020
2026-04-01 22:00:00,METAR LPFR 012200Z 36008KT CAVOK 18/07 Q1020
2026-04-01 21:30:00,METAR LPFR 012130Z 36004KT CAVOK 18/07 Q1020
2026-04-01 21:00:00,METAR LPFR 012100Z VRB02KT CAVOK 15/13 Q1020
2026-04-01 20:30:00,METAR LPFR 012030Z VRB01KT CAVOK 16/12 Q1020
2026-04-01 20:00:00,METAR LPFR 012000Z VRB02KT CAVOK 17/12 Q1020
2026-04-01 19:30:00,METAR LPFR 011930Z 25003KT CAVOK 16/12 Q1019
2026-04-01 19:00:00,METAR LPFR 011900Z 28003KT 240V310 CAVOK 17/12 Q1019
2026-04-01 18:30:00,METAR LPFR 011830Z 23005KT CAVOK 17/11 Q1019
2026-04-01 18:00:00,METAR LPFR 011800Z 22006KT CAVOK 18/11 Q1019
2026-04-01 17:30:00,METAR LPFR 011730Z 22007KT CAVOK 18/11 Q1020
2026-04-01 17:00:00,METAR LPFR 011700Z 22007KT 190V250 CAVOK 18/10 Q1020
2026-04-01 16:30:00,METAR LPFR 011630Z 24008KT CAVOK 19/09 Q1020
2026-04-01 16:00:00,METAR LPFR 011600Z 24010KT CAVOK 19/10 Q1020
2026-04-01 15:30:00,METAR LPFR 011530Z 24008KT CAVOK 19/09 Q1020
2026-04-01 15:00:00,METAR LPFR 011500Z 24009KT CAVOK 19/10 Q1020
2026-04-01 14:00:00,METAR LPFR 011400Z 23007KT CAVOK 19/09 Q1020
2026-04-01 13:30:00,METAR LPFR 011330Z 17007KT 110V240 CAVOK 19/10 Q1021
2026-04-01 13:00:00,METAR LPFR 011300Z 13008KT CAVOK 21/07 Q1021
2026-04-01 12:30:00,METAR LPFR 011230Z 09008KT 030V130 CAVOK 22/08 Q1021 WS R10
2026-04-01 12:00:00,METAR LPFR 011200Z 06007KT 020V100 CAVOK 22/03 Q1021 WS R10
2026-04-01 11:30:00,METAR LPFR 011130Z 07008KT 040V100 CAVOK 22/04 Q1021 WS R10
2026-04-01 11:00:00,METAR LPFR 011100Z 10009KT CAVOK 22/05 Q1021
2026-04-01 10:30:00,METAR LPFR 011030Z 09008KT 040V130 CAVOK 20/04 Q1021
2026-04-01 10:00:00,METAR LPFR 011000Z 08008KT 040V110 CAVOK 20/04 Q1021
2026-04-01 09:30:00,METAR LPFR 010930Z 08007G17KT 040V120 CAVOK 20/05 Q1021
2026-04-01 09:00:00,METAR LPFR 010900Z 05008KT 030V090 CAVOK 19/04 Q1021
2026-04-01 08:30:00,METAR LPFR 010830Z 04008KT 340V070 CAVOK 18/05 Q1021
2026-04-01 08:00:00,METAR LPFR 010800Z 03007KT CAVOK 17/05 Q1021
2026-04-01 07:30:00,METAR LPFR 010730Z 03008KT 360V120 CAVOK 17/05 Q1021
2026-04-01 07:00:00,METAR LPFR 010700Z 02010KT CAVOK 16/05 Q1021
2026-04-01 06:30:00,METAR LPFR 010630Z 03010KT CAVOK 16/04 Q1020
2026-04-01 06:00:00,METAR LPFR 010600Z 03008KT 020V080 CAVOK 17/05 Q1020
2026-04-01 05:30:00,METAR LPFR 010530Z 03007G17KT 010V090 CAVOK 17/05 Q1019
2026-04-01 05:00:00,METAR LPFR 010500Z 04006KT CAVOK 17/05 Q1019
2026-04-01 04:30:00,METAR LPFR 010430Z 03009KT CAVOK 18/05 Q1019
2026-04-01 04:00:00,METAR LPFR 010400Z 03009KT CAVOK 17/06 Q1019
2026-04-01 03:30:00,METAR LPFR 010330Z 03011KT CAVOK 18/06 Q1019
2026-04-01 03:00:00,METAR LPFR 010300Z 03012KT CAVOK 19/06 Q1019
2026-04-01 02:30:00,METAR LPFR 010230Z 02011KT CAVOK 19/06 Q1019
2026-04-01 02:00:00,METAR LPFR 010200Z 03009KT CAVOK 18/07 Q1019
2026-04-01 01:30:00,METAR LPFR 010130Z 01010KT CAVOK 19/07 Q1020
2026-04-01 01:00:00,METAR LPFR 010100Z 02009KT CAVOK 19/06 Q1020
2026-04-01 00:30:00,METAR LPFR 010030Z 01011KT CAVOK 20/06 Q1020
2026-04-01 00:00:00,METAR LPFR 010000Z 01009KT CAVOK 20/07 Q1020
2026-03-31 23:30:00,METAR LPFR 312330Z 36008KT CAVOK 20/07 Q1020
2026-03-31 23:00:00,METAR LPFR 312300Z 34008KT CAVOK 19/08 Q1020
2026-03-31 22:30:00,METAR LPFR 312230Z 35010KT CAVOK 21/08 Q1020
2026-03-31 22:00:00,METAR LPFR 312200Z 36011KT CAVOK 21/08 Q1020
2026-03-31 21:30:00,METAR LPFR 312130Z 36011KT CAVOK 21/08 Q1020
2026-03-31 21:00:00,METAR LPFR 312100Z 35010KT CAVOK 21/08 Q1020
2026-03-31 20:30:00,METAR LPFR 312030Z 34008KT CAVOK 21/09 Q1020
2026-03-31 20:00:00,METAR LPFR 312000Z 34009KT CAVOK 22/09 Q1020
2026-03-31 19:30:00,METAR LPFR 311930Z 35009KT CAVOK 23/09 Q1020
2026-03-31 19:00:00,METAR LPFR 311900Z 35006KT 330V030 CAVOK 24/10 Q1020
2026-03-31 18:30:00,METAR LPFR 311830Z 35009KT CAVOK 25/10 Q1020
2026-03-31 18:00:00,METAR LPFR 311800Z 25005KT CAVOK 20/14 Q1020
2026-03-31 17:30:00,METAR LPFR 311730Z 25007KT CAVOK 20/12 Q1020
2026-03-31 17:00:00,METAR LPFR 311700Z 26009KT CAVOK 21/11 Q1020
2026-03-31 16:30:00,METAR LPFR 311630Z 27012KT CAVOK 20/10 Q1020
2026-03-31 16:00:00,METAR LPFR 311600Z 27011KT CAVOK 20/11 Q1021
2026-03-31 15:30:00,METAR LPFR 311530Z 26011KT CAVOK 20/10 Q1021
2026-03-31 15:00:00,METAR LPFR 311500Z 26013KT CAVOK 20/11 Q1022
2026-03-31 14:30:00,METAR LPFR 311430Z 25012KT CAVOK 20/11 Q1022
2026-03-31 14:00:00,METAR LPFR 311400Z 25012KT CAVOK 20/11 Q1022
2026-03-31 13:30:00,METAR LPFR 311330Z 22008KT CAVOK 20/11 Q1023
2026-03-31 13:00:00,METAR LPFR 311300Z 22008KT CAVOK 20/11 Q1023
2026-03-31 12:30:00,METAR LPFR 311230Z 17005KT 100V230 CAVOK 22/12 Q1023
2026-03-31 12:00:00,METAR LPFR 311200Z 19007KT CAVOK 21/11 Q1024
2026-03-31 11:30:00,METAR LPFR 311130Z 19007KT CAVOK 21/11 Q1024 WS ALL RWY
2026-03-31 11:00:00,METAR LPFR 311100Z 23007KT CAVOK 21/10 Q1024
2026-03-31 10:30:00,METAR LPFR 311030Z 13008KT CAVOK 22/10 Q1024
2026-03-31 10:00:00,METAR LPFR 311000Z 12008KT CAVOK 22/08 Q1024
2026-03-31 09:30:00,METAR LPFR 310930Z 09007KT 040V130 CAVOK 22/07 Q1024
2026-03-31 09:00:00,METAR LPFR 310900Z 08007KT CAVOK 22/07 Q1024
2026-03-31 08:30:00,METAR LPFR 310830Z 03008KT CAVOK 20/06 Q1024
2026-03-31 08:00:00,METAR LPFR 310800Z 01007KT 330V040 CAVOK 19/06 Q1024
2026-03-31 07:30:00,METAR LPFR 310730Z 01007KT 320V020 CAVOK 13/08 Q1024
2026-03-31 07:00:00,METAR LPFR 310700Z 01003KT 340V050 CAVOK 15/07 Q1024
2026-03-31 06:30:00,METAR LPFR 310630Z 32003KT 260V040 CAVOK 13/07 Q1024
2026-03-31 06:00:00,METAR LPFR 310600Z 29003KT 260V350 CAVOK 11/06 Q1024
2026-03-31 05:30:00,METAR LPFR 310530Z 03006KT 330V100 CAVOK 11/06 Q1024
2026-03-31 05:00:00,METAR LPFR 310500Z 02007KT CAVOK 13/06 Q1024
2026-03-31 04:30:00,METAR LPFR 310430Z 00000KT CAVOK 12/07 Q1024
2026-03-31 04:00:00,METAR LPFR 310400Z 27005KT CAVOK 11/07 Q1024
2026-03-31 03:30:00,METAR LPFR 310330Z 03004KT CAVOK 13/04 Q1024
2026-03-31 03:00:00,METAR LPFR 310300Z 01003KT 340V040 CAVOK 11/06 Q1024
2026-03-31 02:30:00,METAR LPFR 310230Z 01004KT CAVOK 11/06 Q1025
2026-03-31 02:00:00,METAR LPFR 310200Z VRB02KT CAVOK 11/05 Q1025
2026-03-31 01:30:00,METAR LPFR 310130Z 34004KT CAVOK 11/06 Q1026
2026-03-31 01:00:00,METAR LPFR 310100Z 35003KT CAVOK 12/06 Q1026
2026-03-31 00:30:00,METAR LPFR 310030Z 31003KT 290V350 CAVOK 11/07 Q1026
2026-03-31 00:00:00,METAR LPFR 310000Z 01004KT 330V030 CAVOK 12/07 Q1026
2026-03-30 23:30:00,METAR LPFR 302330Z 30004KT CAVOK 12/07 Q1026
2026-03-30 23:00:00,METAR LPFR 302300Z 23004KT CAVOK 12/07 Q1026
2026-03-30 22:30:00,METAR LPFR 302230Z 28004KT CAVOK 13/05 Q1026
2026-03-30 22:00:00,METAR LPFR 302200Z 28004KT 240V300 CAVOK 12/05 Q1026
2026-03-30 21:30:00,METAR LPFR 302130Z 30006KT CAVOK 13/06 Q1026
2026-03-30 21:00:00,METAR LPFR 302100Z 29005KT CAVOK 13/06 Q1026
2026-03-30 20:30:00,METAR LPFR 302030Z 31006KT CAVOK 14/06 Q1026
2026-03-30 20:00:00,METAR LPFR 302000Z 30006KT CAVOK 14/06 Q1026
2026-03-30 19:30:00,METAR LPFR 301930Z 29007KT CAVOK 15/06 Q1026
2026-03-30 19:00:00,METAR LPFR 301900Z 27005KT CAVOK 15/06 Q1025
2026-03-30 18:30:00,METAR LPFR 301830Z 19003KT 150V230 CAVOK 16/06 Q1025
2026-03-30 18:00:00,METAR LPFR 301800Z 15004KT 110V190 CAVOK 17/01 Q1025
2026-03-30 17:30:00,METAR LPFR 301730Z 13005KT CAVOK 17/02 Q1025
2026-03-30 17:00:00,METAR LPFR 301700Z 12007KT 100V170 CAVOK 17/03 Q1025
2026-03-30 16:30:00,METAR LPFR 301630Z 12010KT CAVOK 17/03 Q1025
2026-03-30 16:00:00,METAR LPFR 301600Z 11012KT CAVOK 17/03 Q1025
2026-03-30 15:30:00,METAR LPFR 301530Z 12012KT CAVOK 17/03 Q1026
2026-03-30 15:00:00,METAR LPFR 301500Z 11012KT CAVOK 17/03 Q1026
2026-03-30 14:30:00,METAR LPFR 301430Z 12013KT CAVOK 17/02 Q1026
2026-03-30 14:00:00,METAR LPFR 301400Z 11015KT CAVOK 17/03 Q1027
2026-03-30 13:30:00,METAR LPFR 301330Z 11014KT CAVOK 16/02 Q1027
2026-03-30 13:00:00,METAR LPFR 301300Z 11015KT CAVOK 16/01 Q1027
2026-03-30 12:30:00,METAR LPFR 301230Z 10014KT CAVOK 16/02 Q1028
2026-03-30 12:00:00,METAR LPFR 301200Z 10015KT CAVOK 16/03 Q1028
2026-03-30 11:30:00,METAR LPFR 301130Z 10014KT CAVOK 16/01 Q1028
2026-03-30 11:00:00,METAR LPFR 301100Z 10016KT CAVOK 15/01 Q1028
2026-03-30 10:30:00,METAR LPFR 301030Z 09014KT CAVOK 15/M01 Q1029
2026-03-30 10:00:00,METAR LPFR 301000Z 07014KT CAVOK 15/M04 Q1029
2026-03-30 09:30:00,METAR LPFR 300930Z 07014KT CAVOK 15/M05 Q1029
2026-03-30 09:00:00,METAR LPFR 300900Z 06017KT CAVOK 14/M05 Q1029
2026-03-30 08:30:00,METAR LPFR 300830Z 05015KT CAVOK 14/M04 Q1029
2026-03-30 08:00:00,METAR LPFR 300800Z 05011KT CAVOK 13/M04 Q1028
2026-03-30 07:30:00,METAR LPFR 300730Z 04009G20KT 020V110 CAVOK 12/M04 Q1028
2026-03-30 07:00:00,METAR LPFR 300700Z 03007KT CAVOK 12/M04 Q1028
2026-03-30 06:30:00,METAR LPFR 300630Z 02008KT CAVOK 12/M05 Q1028
2026-03-30 06:00:00,METAR LPFR 300600Z 05013KT CAVOK 12/M05 Q1028
2026-03-30 05:30:00,METAR LPFR 300530Z 04010KT CAVOK 12/M04 Q1027
2026-03-30 05:00:00,METAR LPFR 300500Z 05010KT CAVOK 12/M02 Q1027
2026-03-30 04:30:00,METAR LPFR 300430Z 04009KT CAVOK 12/M02 Q1027
2026-03-30 04:00:00,METAR LPFR 300400Z 04007KT CAVOK 12/M01 Q1027
2026-03-30 03:30:00,METAR LPFR 300330Z 04007KT CAVOK 12/M01 Q1027
2026-03-30 03:00:00,METAR LPFR 300300Z 03009KT CAVOK 13/M01 Q1026
2026-03-30 02:30:00,METAR LPFR 300230Z 03010KT CAVOK 14/M02 Q1026
2026-03-30 02:00:00,METAR LPFR 300200Z 03010KT CAVOK 14/M02 Q1026
2026-03-30 01:30:00,METAR LPFR 300130Z 03009KT CAVOK 14/M02 Q1027
2026-03-30 01:00:00,METAR LPFR 300100Z 02009KT CAVOK 15/M02 Q1027
2026-03-30 00:30:00,METAR LPFR 300030Z 03011KT CAVOK 15/M02 Q1026
2026-03-30 00:00:00,METAR LPFR 300000Z 03008KT CAVOK 15/M02 Q1026
2026-03-29 23:30:00,METAR LPFR 292330Z 01009KT CAVOK 16/M02 Q1026
2026-03-29 23:00:00,METAR LPFR 292300Z 02009KT CAVOK 16/M02 Q1026
2026-03-29 22:30:00,METAR LPFR 292230Z 01011KT CAVOK 16/M02 Q1026
2026-03-29 22:00:00,METAR LPFR 292200Z 02013KT CAVOK 17/M02 Q1026
2026-03-29 21:30:00,METAR LPFR 292130Z 01014KT CAVOK 17/M01 Q1025
2026-03-29 21:00:00,METAR LPFR 292100Z 01014KT CAVOK 17/M01 Q1025
2026-03-29 20:30:00,METAR LPFR 292030Z VRB11KT CAVOK 18/M01 Q1025
2026-03-29 20:00:00,METAR LPFR 292000Z 02009KT CAVOK 18/M01 Q1025
2026-03-29 19:30:00,METAR LPFR 291930Z 01009KT CAVOK 18/M01 Q1024
2026-03-29 19:00:00,METAR LPFR 291900Z 01012KT CAVOK 19/M00 Q1024
2026-03-29 18:30:00,METAR LPFR 291830Z 01012KT CAVOK 20/M01 Q1024
2026-03-29 18:00:00,METAR LPFR 291800Z 02017KT CAVOK 20/M02 Q1023
2026-03-29 17:30:00,METAR LPFR 291730Z 01016KT CAVOK 21/M02 Q1023
2026-03-29 17:00:00,METAR LPFR 291700Z 01019KT CAVOK 21/M03 Q1023
2026-03-29 16:30:00,METAR LPFR 291630Z 01015KT 340V040 CAVOK 22/M02 Q1023
2026-03-29 16:00:00,METAR LPFR 291600Z 36017KT CAVOK 22/M01 Q1023
2026-03-29 15:30:00,METAR LPFR 291530Z 01017KT CAVOK 21/M02 Q1023
2026-03-29 15:00:00,METAR LPFR 291500Z 35016KT CAVOK 22/00 Q1023
2026-03-29 14:30:00,METAR LPFR 291430Z 01014KT 330V030 CAVOK 22/M00 Q1023
2026-03-29 14:00:00,METAR LPFR 291400Z 02016KT CAVOK 22/M01 Q1024
2026-03-29 13:30:00,METAR LPFR 291330Z 02013KT CAVOK 22/01 Q1024
2026-03-29 13:00:00,METAR LPFR 291300Z 02016KT CAVOK 21/01 Q1024
2026-03-29 12:30:00,METAR LPFR 291230Z 02012G23KT 350V050 CAVOK 21/02 Q1025
2026-03-29 12:00:00,METAR LPFR 291200Z 01015KT CAVOK 21/00 Q1025
2026-03-29 11:30:00,METAR LPFR 291130Z 04015KT CAVOK 21/M02 Q1025
2026-03-29 11:00:00,METAR LPFR 291100Z 04011KT 020V080 CAVOK 21/M02 Q1025
2026-03-29 10:30:00,METAR LPFR 291030Z 06015G26KT 040V100 CAVOK 20/M03 Q1026
2026-03-29 10:00:00,METAR LPFR 291000Z 05017KT CAVOK 20/M04 Q1025
2026-03-29 09:30:00,METAR LPFR 290930Z 04013KT CAVOK 19/01 Q1025
2026-03-29 09:00:00,METAR LPFR 290900Z 04014G24KT 020V080 CAVOK 19/01 Q1025
2026-03-29 08:30:00,METAR LPFR 290830Z 03015KT CAVOK 17/02 Q1025
2026-03-29 08:00:00,METAR LPFR 290800Z 02014KT CAVOK 17/02 Q1024
2026-03-29 07:30:00,METAR LPFR 290730Z 03011KT CAVOK 15/02 Q1024
2026-03-29 07:00:00,METAR LPFR 290700Z 03011KT CAVOK 15/02 Q1024
2026-03-29 06:30:00,METAR LPFR 290630Z 03006G16KT 340V110 CAVOK 15/01 Q1024
2026-03-29 06:00:00,METAR LPFR 290600Z 04011KT CAVOK 15/01 Q1024
2026-03-29 05:30:00,METAR LPFR 290530Z 02012KT CAVOK 16/03 Q1023
2026-03-29 05:00:00,METAR LPFR 290500Z 02011KT CAVOK 15/03 Q1023
2026-03-29 04:30:00,METAR LPFR 290430Z 03008KT CAVOK 15/04 Q1023
2026-03-29 04:00:00,METAR LPFR 290400Z 02007KT CAVOK 16/04 Q1023
2026-03-29 03:30:00,METAR LPFR 290330Z 03007KT CAVOK 16/04 Q1023
2026-03-29 03:00:00,METAR LPFR 290300Z 02008KT CAVOK 16/04 Q1023
2026-03-29 02:30:00,METAR LPFR 290230Z 03010KT CAVOK 17/04 Q1023
2026-03-29 02:00:00,METAR LPFR 290200Z 02010KT CAVOK 17/04 Q1023
2026-03-29 01:30:00,METAR LPFR 290130Z 03009KT CAVOK 17/04 Q1023
2026-03-29 01:00:00,METAR LPFR 290100Z 03010KT CAVOK 17/05 Q1023
2026-03-29 00:30:00,METAR LPFR 290030Z 02012KT CAVOK 18/05 Q1022
2026-03-29 00:00:00,METAR LPFR 290000Z 02010KT CAVOK 18/05 Q1022
2026-03-28 23:30:00,METAR LPFR 282330Z 01011KT CAVOK 19/05 Q1022
2026-03-28 23:00:00,METAR LPFR 282300Z 02010KT CAVOK 19/05 Q1022
2026-03-28 22:30:00,METAR LPFR 282230Z 02011KT CAVOK 19/05 Q1022
2026-03-28 22:00:00,METAR LPFR 282200Z 02011KT CAVOK 19/05 Q1021
2026-03-28 21:30:00,METAR LPFR 282130Z 02010KT CAVOK 19/05 Q1021
2026-03-28 21:00:00,METAR LPFR 282100Z 35006KT CAVOK 17/09 Q1021
2026-03-28 20:30:00,METAR LPFR 282030Z 30008KT CAVOK 16/13 Q1021
2026-03-28 20:00:00,METAR LPFR 282000Z 29004KT CAVOK 16/13 Q1020
2026-03-28 19:30:00,METAR LPFR 281930Z 29007KT CAVOK 16/13 Q1020
2026-03-28 19:00:00,METAR LPFR 281900Z 28010KT CAVOK 16/13 Q1020
2026-03-28 18:30:00,METAR LPFR 281830Z 27010KT CAVOK 16/13 Q1020
2026-03-28 18:00:00,METAR LPFR 281800Z 27010KT CAVOK 17/13 Q1020
2026-03-28 17:30:00,METAR LPFR 281730Z 27010KT CAVOK 17/12 Q1020
2026-03-28 17:00:00,METAR LPFR 281700Z 25011KT CAVOK 17/12 Q1019
2026-03-28 16:30:00,METAR LPFR 281630Z 25009KT CAVOK 17/13 Q1019
2026-03-28 16:00:00,METAR LPFR 281600Z 24008KT CAVOK 17/13 Q1020
2026-03-28 15:30:00,METAR LPFR 281530Z 23007KT CAVOK 17/12 Q1020
2026-03-28 15:00:00,METAR LPFR 281500Z 20007KT 160V240 CAVOK 17/12 Q1020
2026-03-28 14:30:00,METAR LPFR 281430Z 18007KT 9999 FEW025 18/12 Q1020
2026-03-28 14:00:00,METAR LPFR 281400Z 17008KT 9999 FEW025 18/13 Q1020
2026-03-28 13:30:00,METAR LPFR 281330Z 18007KT 9999 FEW018 18/12 Q1020
2026-03-28 13:00:00,METAR LPFR 281300Z 18007KT 9999 FEW018 18/12 Q1021
2026-03-28 12:30:00,METAR LPFR 281230Z 17007KT 140V200 9999 FEW020 17/12 Q1021
2026-03-28 12:00:00,METAR LPFR 281200Z 16009KT 9999 FEW020 18/13 Q1021
2026-03-28 11:30:00,METAR LPFR 281130Z 15008KT 9999 FEW020 18/12 Q1021
2026-03-28 11:00:00,METAR LPFR 281100Z 12007KT CAVOK 18/12 Q1021
2026-03-28 10:30:00,METAR LPFR 281030Z 12006KT 080V150 CAVOK 18/11 Q1021
2026-03-28 10:00:00,METAR LPFR 281000Z 12005KT 080V150 CAVOK 18/11 Q1021
2026-03-28 09:30:00,METAR LPFR 280930Z 10004KT 060V150 CAVOK 18/11 Q1020
2026-03-28 09:00:00,METAR LPFR 280900Z 07003KT 020V120 CAVOK 18/11 Q1020
2026-03-28 08:30:00,METAR LPFR 280830Z 04004KT CAVOK 16/12 Q1020
2026-03-28 08:00:00,METAR LPFR 280800Z 03005KT CAVOK 15/12 Q1019
2026-03-28 07:30:00,METAR LPFR 280730Z 02006KT CAVOK 14/12 Q1019
2026-03-28 07:00:00,METAR LPFR 280700Z 02007KT CAVOK 13/11 Q1019
2026-03-28 06:30:00,METAR LPFR 280630Z 03007KT CAVOK 12/10 Q1018
2026-03-28 06:00:00,METAR LPFR 280600Z 02007KT CAVOK 12/11 Q1018
2026-03-28 05:30:00,METAR LPFR 280530Z 03007KT CAVOK 12/11 Q1018
2026-03-28 05:00:00,METAR LPFR 280500Z 02007KT CAVOK 13/11 Q1017
2026-03-28 04:30:00,METAR LPFR 280430Z 02005KT CAVOK 13/11 Q1017
2026-03-28 04:00:00,METAR LPFR 280400Z 02006KT CAVOK 13/11 Q1017
2026-03-28 03:30:00,METAR LPFR 280330Z 03006KT CAVOK 13/11 Q1017
2026-03-28 03:00:00,METAR LPFR 280300Z 03004KT 9999 FEW015 14/11 Q1017
2026-03-28 02:30:00,METAR LPFR 280230Z 06003KT 030V100 9999 FEW010 14/12 Q1017
2026-03-28 02:00:00,METAR LPFR 280200Z 16005KT 130V190 9999 FEW010 15/13 Q1017
2026-03-28 01:30:00,METAR LPFR 280130Z 15005KT CAVOK 15/13 Q1017
2026-03-28 01:00:00,METAR LPFR 280100Z 11005KT 090V150 CAVOK 15/12 Q1017
2026-03-28 00:30:00,METAR LPFR 280030Z 09005KT 360V140 CAVOK 15/08 Q1017
2026-03-28 00:00:00,METAR LPFR 280000Z VRB01KT CAVOK 16/07 Q1017
2026-03-27 23:30:00,METAR LPFR 272330Z 07006KT CAVOK 15/07 Q1017
2026-03-27 23:00:00,METAR LPFR 272300Z 04006KT CAVOK 16/06 Q1016
2026-03-27 22:30:00,METAR LPFR 272230Z 04006KT CAVOK 17/06 Q1016
2026-03-27 22:00:00,METAR LPFR 272200Z 03006KT 330V070 CAVOK 17/07 Q1016
2026-03-27 21:30:00,METAR LPFR 272130Z 26006KT CAVOK 15/12 Q1016
2026-03-27 21:00:00,METAR LPFR 272100Z 24004KT CAVOK 15/11 Q1015
2026-03-27 20:30:00,METAR LPFR 272030Z 28005KT 250V330 CAVOK 15/10 Q1015
2026-03-27 20:00:00,METAR LPFR 272000Z 26007KT CAVOK 15/10 Q1015
2026-03-27 19:30:00,METAR LPFR 271930Z 27008KT CAVOK 16/10 Q1014
2026-03-27 19:00:00,METAR LPFR 271900Z 27011KT CAVOK 16/10 Q1014
2026-03-27 18:30:00,METAR LPFR 271830Z 26008KT CAVOK 16/09 Q1014
2026-03-27 18:00:00,METAR LPFR 271800Z 26008KT CAVOK 17/10 Q1014
2026-03-27 17:30:00,METAR LPFR 271730Z 27008KT CAVOK 17/10 Q1014
2026-03-27 17:00:00,METAR LPFR 271700Z 25007KT CAVOK 17/11 Q1014
2026-03-27 16:30:00,METAR LPFR 271630Z 23007KT CAVOK 18/10 Q1014
2026-03-27 16:00:00,METAR LPFR 271600Z 20005KT 150V240 CAVOK 18/09 Q1014
2026-03-25 15:00:00,METAR LPFR 251500Z 14005KT 110V180 CAVOK 18/12 Q1017
2026-03-25 14:30:00,METAR LPFR 251430Z 11005KT 080V140 CAVOK 19/11 Q1017
2026-03-25 14:00:00,METAR LPFR 251400Z 12007KT CAVOK 18/11 Q1018
2026-03-25 13:30:00,METAR LPFR 251330Z 12009KT CAVOK 18/11 Q1018
2026-03-25 13:00:00,METAR LPFR 251300Z 11009KT CAVOK 18/12 Q1018
2026-03-25 12:30:00,METAR LPFR 251230Z 10010KT CAVOK 19/11 Q1019
2026-03-25 12:00:00,METAR LPFR 251200Z 10010KT CAVOK 18/12 Q1019
2026-03-25 11:30:00,METAR LPFR 251130Z 09009KT CAVOK 19/11 Q1019
2026-03-25 11:00:00,METAR LPFR 251100Z 07008KT 040V110 CAVOK 19/10 Q1019
2026-03-25 10:30:00,METAR LPFR 251030Z 08009KT CAVOK 17/10 Q1019
2026-03-25 10:00:00,METAR LPFR 251000Z 09010KT CAVOK 17/12 Q1020
2026-03-25 09:30:00,METAR LPFR 250930Z 09008KT 050V120 CAVOK 17/12 Q1020
2026-03-25 09:00:00,METAR LPFR 250900Z 08006KT CAVOK 16/11 Q1020
2026-03-25 08:30:00,METAR LPFR 250830Z 06004KT 360V110 CAVOK 16/09 Q1020
2026-03-25 08:00:00,METAR LPFR 250800Z 02003KT 350V050 CAVOK 15/08 Q1020
2026-03-25 07:30:00,METAR LPFR 250730Z 01004KT 330V050 CAVOK 14/08 Q1020
2026-03-25 07:00:00,METAR LPFR 250700Z 03004KT CAVOK 13/08 Q1019
2026-03-25 06:30:00,METAR LPFR 250630Z 03005KT 350V050 CAVOK 12/08 Q1019
2026-03-25 06:00:00,METAR LPFR 250600Z 04004KT CAVOK 11/08 Q1019
2026-03-25 05:30:00,METAR LPFR 250530Z 03006KT CAVOK 12/09 Q1019
2026-03-25 05:00:00,METAR LPFR 250500Z 03007KT CAVOK 13/09 Q1019
2026-03-25 04:30:00,METAR LPFR 250430Z 02005KT CAVOK 12/10 Q1019
2026-03-25 04:00:00,METAR LPFR 250400Z 03006KT CAVOK 12/10 Q1020
2026-03-25 03:30:00,METAR LPFR 250330Z 03007KT CAVOK 13/10 Q1020
2026-03-25 03:00:00,METAR LPFR 250300Z 03007KT CAVOK 13/10 Q1020
2026-03-25 02:30:00,METAR LPFR 250230Z 03008KT CAVOK 13/10 Q1021
2026-03-25 02:00:00,METAR LPFR 250200Z 03006KT CAVOK 14/11 Q1021
2026-03-25 01:30:00,METAR LPFR 250130Z 03006KT CAVOK 14/11 Q1021
2026-03-25 01:00:00,METAR LPFR 250100Z 02006KT CAVOK 14/11 Q1021
2026-03-25 00:30:00,METAR LPFR 250030Z 02006KT CAVOK 14/11 Q1021
2026-03-25 00:00:00,METAR LPFR 250000Z 03006KT CAVOK 14/10 Q1021
2026-03-24 23:30:00,METAR LPFR 242330Z 04005KT CAVOK 15/11 Q1021
2026-03-24 23:00:00,METAR LPFR 242300Z 03005KT CAVOK 15/11 Q1021
2026-03-24 22:30:00,METAR LPFR 242230Z 04005KT CAVOK 16/11 Q1021
2026-03-24 22:00:00,METAR LPFR 242200Z 06005KT 030V100 CAVOK 16/11 Q1021
2026-03-24 21:30:00,METAR LPFR 242130Z 03005KT CAVOK 16/11 Q1021
2026-03-24 21:00:00,METAR LPFR 242100Z 02004KT CAVOK 16/11 Q1021
2026-03-24 20:30:00,METAR LPFR 242030Z 07005KT 030V090 CAVOK 16/12 Q1020
2026-03-24 20:00:00,METAR LPFR 242000Z 06005KT 020V080 CAVOK 17/12 Q1020
2026-03-24 19:30:00,METAR LPFR 241930Z 08006KT CAVOK 17/12 Q1019
2026-03-24 19:00:00,METAR LPFR 241900Z 09006KT CAVOK 17/12 Q1019
2026-03-24 18:30:00,METAR LPFR 241830Z 10008KT CAVOK 17/12 Q1019
2026-03-24 18:00:00,METAR LPFR 241800Z 10009KT 9999 FEW020 18/12 Q1019
2026-03-24 17:30:00,METAR LPFR 241730Z 12011KT 9999 FEW020 19/11 Q1019
2026-03-24 17:00:00,METAR LPFR 241700Z 12010KT 9999 FEW020 19/11 Q1018
2026-03-24 16:30:00,METAR LPFR 241630Z 12010KT 9999 FEW020 19/11 Q1018
2026-03-24 16:00:00,METAR LPFR 241600Z 11011KT 9999 FEW020 20/10 Q1019
2026-03-24 15:30:00,METAR LPFR 241530Z 09009KT 050V130 9999 FEW020 20/09 Q1019
2026-03-24 15:00:00,METAR LPFR 241500Z 09011KT 060V120 9999 FEW020 20/09 Q1019
2026-03-24 14:30:00,METAR LPFR 241430Z 10013KT 9999 FEW020 20/11 Q1019
2026-03-24 14:00:00,METAR LPFR 241400Z 09012KT 9999 FEW030 20/10 Q1019
2026-03-24 13:30:00,METAR LPFR 241330Z 10014KT CAVOK 19/10 Q1020
2026-03-24 13:00:00,METAR LPFR 241300Z 09014KT CAVOK 19/11 Q1020
2026-03-24 12:30:00,METAR LPFR 241230Z 09014KT CAVOK 19/11 Q1020
2026-03-24 12:00:00,METAR LPFR 241200Z 09014KT CAVOK 18/11 Q1020
2026-03-24 11:30:00,METAR LPFR 241130Z 09013KT CAVOK 18/11 Q1020
2026-03-24 11:00:00,METAR LPFR 241100Z 08013KT CAVOK 18/10 Q1020
2026-03-24 10:30:00,METAR LPFR 241030Z 08012KT CAVOK 18/10 Q1020
2026-03-24 10:00:00,METAR LPFR 241000Z 08012KT CAVOK 18/10 Q1020
2026-03-24 09:30:00,METAR LPFR 240930Z 08011KT CAVOK 17/10 Q1019
2026-03-24 09:00:00,METAR LPFR 240900Z 09010KT CAVOK 17/10 Q1019
2026-03-24 08:30:00,METAR LPFR 240830Z 08009KT CAVOK 16/10 Q1019
2026-03-24 08:00:00,METAR LPFR 240800Z 10012KT CAVOK 16/12 Q1019
2026-03-24 07:30:00,METAR LPFR 240730Z 10014KT CAVOK 16/12 Q1019
2026-03-24 07:00:00,METAR LPFR 240700Z 09011KT CAVOK 15/12 Q1018
2026-03-24 06:30:00,METAR LPFR 240630Z 08009KT CAVOK 15/11 Q1018
2026-03-24 06:00:00,METAR LPFR 240600Z 08008KT 9999 FEW018 15/11 Q1018
2026-03-24 05:30:00,METAR LPFR 240530Z 07008KT CAVOK 15/12 Q1018
2026-03-24 05:00:00,METAR LPFR 240500Z 06009KT CAVOK 14/11 Q1018
2026-03-24 04:30:00,METAR LPFR 240430Z 06008KT CAVOK 14/12 Q1018
2026-03-24 04:00:00,METAR LPFR 240400Z 05006KT CAVOK 14/12 Q1017
2026-03-24 03:30:00,METAR LPFR 240330Z 09008KT CAVOK 15/13 Q1017
2026-03-24 03:00:00,METAR LPFR 240300Z 09008KT CAVOK 15/12 Q1017
2026-03-24 02:30:00,METAR LPFR 240230Z 09008KT CAVOK 15/12 Q1017
2026-03-24 02:00:00,METAR LPFR 240200Z 08006KT CAVOK 16/13 Q1017
2026-03-24 01:30:00,METAR LPFR 240130Z 09006KT CAVOK 16/12 Q1017
2026-03-24 01:00:00,METAR LPFR 240100Z 09006KT CAVOK 16/13 Q1017
2026-03-24 00:30:00,METAR LPFR 240030Z 10007KT CAVOK 16/13 Q1017
2026-03-24 00:00:00,METAR LPFR 240000Z 10010KT CAVOK 16/13 Q1016
2026-03-23 23:30:00,METAR LPFR 232330Z 03004KT 350V070 CAVOK 17/13 Q1016
2026-03-23 23:00:00,METAR LPFR 232300Z 01005KT CAVOK 17/12 Q1015
2026-03-23 22:30:00,METAR LPFR 232230Z VRB01KT CAVOK 16/13 Q1015
2026-03-23 22:00:00,METAR LPFR 232200Z 01005KT CAVOK 16/12 Q1015
2026-03-23 21:30:00,METAR LPFR 232130Z 35005KT CAVOK 16/12 Q1015
2026-03-23 21:00:00,METAR LPFR 232100Z 33006KT CAVOK 16/12 Q1015
2026-03-23 20:30:00,METAR LPFR 232030Z 32007KT CAVOK 17/12 Q1015
2026-03-23 20:00:00,METAR LPFR 232000Z 32006KT CAVOK 16/12 Q1014
2026-03-21 14:30:00,METAR LPFR 211430Z 11012KT 9999 SCT012 BKN018 17/14 Q1008
2026-03-21 14:00:00,METAR LPFR 211400Z 10013KT 9999 SCT014 SCT020 18/14 Q1008
2026-03-21 13:30:00,METAR LPFR 211330Z 10012KT 9999 SCT014 SCT020 17/14 Q1008
2026-03-21 13:00:00,METAR LPFR 211300Z 11016KT 9999 FEW010 SCT015 17/14 Q1009
2026-03-21 12:30:00,METAR LPFR 211230Z 11014KT 9999 SCT010 SCT016 17/14 Q1009
2026-03-21 12:00:00,METAR LPFR 211200Z 11015KT 9999 SCT008 SCT015 17/14 Q1009
2026-03-21 11:30:00,METAR LPFR 211130Z 12013KT 9999 SCT008 SCT015 17/14 Q1009
2026-03-21 11:00:00,METAR LPFR 211100Z 11013KT 9999 SCT008 SCT015 16/14 Q1009
2026-03-21 10:30:00,METAR LPFR 211030Z 11013KT 9999 SCT008 SCT015 17/15 Q1009
2026-03-21 10:00:00,METAR LPFR 211000Z 14013KT 9999 FEW007 SCT015 17/15 Q1009
2026-03-21 09:30:00,METAR LPFR 210930Z 14015KT 9000 FEW007 SCT016 16/14 Q1008
2026-03-21 09:00:00,METAR LPFR 210900Z 13015KT 9000 FEW007 SCT016 16/15 Q1008
2026-03-21 08:30:00,METAR LPFR 210830Z 12013KT 9000 FEW007 SCT016 BKN040 16/15 Q1008
2026-03-21 08:00:00,METAR LPFR 210800Z 12011KT 9000 FEW008 SCT018 15/14 Q1008
2026-03-21 07:30:00,METAR LPFR 210730Z 12013KT 9999 FEW010 BKN015 15/14 Q1008
2026-03-21 07:00:00,METAR LPFR 210700Z 12010KT 9999 BKN010 15/14 Q1007
2026-03-21 06:30:00,METAR LPFR 210630Z 11009KT 9999 FEW008 SCT013 15/15 Q1007
2026-03-21 06:00:00,METAR LPFR 210600Z 11007KT 9000 SCT006 SCT015 15/14 Q1007
2026-03-21 05:30:00,METAR LPFR 210530Z 12008KT 9000 SCT004 BKN035 15/15 Q1007
2026-03-21 05:00:00,METAR LPFR 210500Z 10007KT 9000 SCT007 BKN040 15/14 Q1007
2026-03-21 04:30:00,METAR LPFR 210430Z 09008KT 9000 BKN007 15/15 Q1007
2026-03-21 04:00:00,METAR LPFR 210400Z 10011KT 9999 BKN008 15/14 Q1007
2026-03-21 03:30:00,METAR LPFR 210330Z 12012KT 9999 FEW010 BKN020 15/14 Q1007
2026-03-21 03:00:00,METAR LPFR 210300Z 12014KT 9999 BKN020 15/14 Q1007
2026-03-21 02:30:00,METAR LPFR 210230Z 13016KT 9999 BKN015 15/14 Q1007
2026-03-21 02:00:00,METAR LPFR 210200Z 13015KT 9999 SCT012 BKN045 15/14 Q1007
2026-03-21 01:30:00,METAR LPFR 210130Z 13015KT 8000 -RA BKN020 15/14 Q1007
2026-03-21 01:00:00,METAR LPFR 210100Z 13013KT 9000 -RA BKN017 SCT045 15/14 Q1007
2026-03-21 00:30:00,METAR LPFR 210030Z 12014KT 9999 FEW020 SCT048 15/14 Q1007
2026-03-21 00:00:00,METAR LPFR 210000Z 13014KT 9999 FEW015 SCT020 BKN045 15/14 Q1007
2026-03-20 23:30:00,METAR LPFR 202330Z 11012KT 9999 BKN015 15/14 Q1007
2026-03-20 23:00:00,METAR LPFR 202300Z 09011KT 9999 BKN010 15/14 Q1007
2026-03-20 22:30:00,METAR LPFR 202230Z 10013KT 9999 BKN011 15/14 Q1007
2026-03-20 22:00:00,METAR LPFR 202200Z 09013KT 8000 -RA BKN012 15/14 Q1007
2026-03-20 21:30:00,METAR LPFR 202130Z 09012KT 9999 -RA BKN013 15/13 Q1007
2026-03-20 21:00:00,METAR LPFR 202100Z 08011KT 9999 BKN013 15/13 Q1007
2026-03-20 20:30:00,METAR LPFR 202030Z 09012KT 9999 -RA BKN012 15/13 Q1007
2026-03-20 20:00:00,METAR LPFR 202000Z 09015KT 9999 -SHRA SCT012 BKN045 15/13 Q1007
2026-03-20 19:30:00,METAR LPFR 201930Z 09014KT 9999 FEW008 SCT015 BKN045 15/13 Q1006
2026-03-20 18:30:00,METAR LPFR 201830Z 10018KT 6000 -SHRA FEW008 SCT015 FEW020CB BKN035 15/14 Q1006
2026-03-20 18:00:00,METAR LPFR 201800Z 11022KT 9000 -SHRA FEW008 SCT015 BKN035 15/13 Q1006
2026-03-20 17:30:00,METAR LPFR 201730Z 11019KT 4500 -SHRA BR FEW008 SCT015 BKN035 15/13 Q1006
2026-03-20 17:00:00,METAR LPFR 201700Z 10017KT 8000 -SHRA FEW009 SCT015 BKN040 15/14 Q1006
2026-03-20 16:30:00,METAR LPFR 201630Z 10016KT 6000 -SHRA FEW012 BKN015 15/13 Q1006
2026-03-20 16:00:00,METAR LPFR 201600Z 10016KT 6000 -SHRA SCT015 BKN040 15/13 Q1006
2026-03-20 15:30:00,METAR LPFR 201530Z 12020KT 9999 -SHRA SCT015 BKN040 16/13 Q1005
2026-03-20 15:00:00,METAR LPFR 201500Z 11017KT 9999 FEW015 BKN045 16/13 Q1005
2026-03-20 14:30:00,METAR LPFR 201430Z 12018KT 9999 SCT015 17/13 Q1006
2026-03-20 14:00:00,METAR LPFR 201400Z 11021KT 9999 SCT015 17/14 Q1006
2026-03-20 13:30:00,METAR LPFR 201330Z 11020KT 9999 SCT015 17/14 Q1006
2026-03-20 12:30:00,METAR LPFR 201230Z 12017KT 9999 BKN012 16/13 Q1007
2026-03-20 11:30:00,METAR LPFR 201130Z 12017KT 9999 FEW012 BKN017 17/14 Q1007
2026-03-20 11:00:00,METAR LPFR 201100Z 13018KT 9999 BKN012 17/14 Q1007
2026-03-20 10:30:00,METAR LPFR 201030Z 13016KT 9999 BKN012 17/14 Q1007
2026-03-20 10:00:00,METAR LPFR 201000Z 13016KT 9999 FEW010 BKN035 16/14 Q1007
2026-03-20 09:30:00,METAR LPFR 200930Z 13016KT 9999 FEW010 BKN030 16/14 Q1007
2026-03-20 09:00:00,METAR LPFR 200900Z 13014KT 9999 FEW010 SCT020 BKN035 15/14 Q1008
2026-03-20 08:30:00,METAR LPFR 200830Z 13014KT 9999 FEW010 BKN025 15/14 Q1007
2026-03-20 08:00:00,METAR LPFR 200800Z 14012KT 9999 SCT012 BKN024 15/14 Q1007
2026-03-20 07:30:00,METAR LPFR 200730Z 14013KT 9999 SCT012 BKN028 15/13 Q1007
2026-03-20 06:30:00,METAR LPFR 200630Z 13013KT 9999 FEW008 BKN014 15/14 Q1007
2026-03-20 06:00:00,METAR LPFR 200600Z 13012KT 9999 SCT008 BKN012 15/14 Q1007
2026-03-20 05:30:00,METAR LPFR 200530Z 13015KT 9999 SCT008 BKN012 15/13 Q1007
2026-03-20 05:00:00,METAR LPFR 200500Z 13016KT 9999 SCT008 SCT016 15/13 Q1006
2026-03-20 04:30:00,METAR LPFR 200430Z 13015KT 9999 SCT008 SCT012 15/13 Q1007
2026-03-20 04:00:00,METAR LPFR 200400Z 12018KT 9999 SCT008 SCT012 15/14 Q1006
2026-03-20 03:30:00,METAR LPFR 200330Z 11018KT 9999 SCT008 SCT016 15/14 Q1006
2026-03-20 03:00:00,METAR LPFR 200300Z 12019KT 9999 SCT008 SCT016 15/13 Q1006
2026-03-20 02:30:00,METAR LPFR 200230Z 12022KT 9999 SCT008 15/14 Q1007
2026-03-20 02:00:00,METAR LPFR 200200Z 12021KT 9999 SCT008 15/14 Q1006
2026-03-20 01:30:00,METAR LPFR 200130Z 11022KT 9999 SCT008 15/14 Q1006
2026-03-20 01:00:00,METAR LPFR 200100Z 11021KT 9999 FEW006 15/13 Q1006
2026-03-20 00:30:00,METAR LPFR 200030Z 10018KT 9999 -RA FEW006 15/14 Q1006
2026-03-20 00:00:00,METAR LPFR 200000Z 12020KT 9999 SCT006 15/14 Q1008
2026-03-19 23:30:00,METAR LPFR 192330Z 11022KT 9999 SCT006 15/14 Q1007
2026-03-19 23:00:00,METAR LPFR 192300Z 11019KT 9000 -RA SCT008 15/14 Q1007
2026-03-19 22:30:00,METAR LPFR 192230Z 12018KT 9999 -RA FEW008 SCT048 15/14 Q1008
2026-03-19 22:00:00,METAR LPFR 192200Z 12015KT 9000 -RA FEW040 15/14 Q1008
2026-03-19 21:30:00,METAR LPFR 192130Z 10013KT 9999 -RA FEW040 15/14 Q1007
2026-03-19 21:00:00,METAR LPFR 192100Z 11013KT 9999 -RA FEW040 15/14 Q1007
2026-03-19 20:30:00,METAR LPFR 192030Z 10013KT 9999 -RA FEW040 15/13 Q1006 RERA
2026-03-19 20:00:00,METAR LPFR 192000Z 11009KT 8000 RA FEW015 SCT040 15/13 Q1007
2026-03-19 19:30:00,METAR LPFR 191930Z 12011KT 9000 RA FEW015 SCT040 15/14 Q1007
2026-03-19 19:00:00,METAR LPFR 191900Z 13012KT 8000 RA FEW015 SCT035 15/13 Q1007
2026-03-19 18:30:00,METAR LPFR 191830Z 10017KT 9000 -RA FEW012 15/13 Q1006 RERA
2026-03-19 18:00:00,METAR LPFR 191800Z 11017KT 6000 -RA FEW012 15/14 Q1006
2026-03-19 17:30:00,METAR LPFR 191730Z 10014KT 7000 -RA FEW012 15/14 Q1006 RERA
2026-03-19 17:00:00,METAR LPFR 191700Z 11013KT 6000 -RA FEW010 SCT045 15/14 Q1006 RERA
2026-03-19 16:30:00,METAR LPFR 191630Z 11011KT 4000 RA BR SCT010 BKN048 15/14 Q1007
2026-03-19 16:00:00,METAR LPFR 191600Z 11014KT 7000 RA FEW010 SCT040 15/14 Q1006
2026-03-19 15:30:00,METAR LPFR 191530Z 13015KT 4500 RA BR FEW010 SCT040 15/14 Q1006
2026-03-19 15:00:00,METAR LPFR 191500Z 13010KT 8000 -RA FEW010 SCT035 15/14 Q1006 RERA
2026-03-19 14:30:00,METAR LPFR 191430Z 13013KT 7000 RA FEW008 BKN030 15/14 Q1007
2026-03-19 14:00:00,METAR LPFR 191400Z 14014KT 4000 RA BR FEW008 FEW018CB SCT028 BKN045 15/14 Q1007
2026-03-19 13:30:00,METAR LPFR 191330Z 15013KT 4000 RA BR FEW008 FEW018CB SCT028 BKN045 15/14 Q1007
2026-03-19 13:00:00,METAR LPFR 191300Z 16013KT 4000 RA SCT008 FEW018CB BKN038 15/14 Q1007
2026-03-19 12:30:00,METAR LPFR 191230Z 14013KT 9000 -RA FEW008 FEW018CB BKN038 16/14 Q1007
2026-03-19 12:00:00,METAR LPFR 191200Z 14014KT 9999 FEW008 FEW018CB BKN045 16/14 Q1007
2026-03-19 11:30:00,METAR LPFR 191130Z 13014KT 9999 FEW008 SCT040 16/14 Q1007
2026-03-19 11:00:00,METAR LPFR 191100Z 13015KT 9999 FEW008 16/15 Q1006
2026-03-19 10:30:00,METAR LPFR 191030Z 12013KT 9999 SCT008 16/15 Q1006
2026-03-19 10:00:00,METAR LPFR 191000Z 10009KT 9999 SCT008 16/15 Q1006
2026-03-19 09:30:00,METAR LPFR 190930Z 09011KT 9999 SCT008 16/14 Q1006
2026-03-19 09:00:00,METAR LPFR 190900Z 05007KT 030V110 9999 FEW008 SCT012 14/13 Q1005
2026-03-19 08:30:00,METAR LPFR 190830Z 03006KT 010V090 9999 FEW008 13/12 Q1006
2026-03-19 08:00:00,METAR LPFR 190800Z 36004KT 320V040 8000 -RA FEW008 SCT015 FEW020CB BKN035 13/12 Q1005
2026-03-19 07:30:00,METAR LPFR 190730Z VRB01KT 9999 -RA FEW008 SCT015 FEW020CB BKN032 13/12 Q1006 RERA
2026-03-19 07:00:00,METAR LPFR 190700Z 24005KT 4000 RA BR FEW008 SCT012 FEW020CB BKN030 13/12 Q1006 RETS
2026-03-19 06:30:00,METAR LPFR 190630Z 25006KT 6000 TSRA FEW006 SCT012 FEW020CB BKN026 13/12 Q1005
2026-03-19 06:00:00,METAR LPFR 190600Z 12005KT 070V210 9999 -RA FEW007 SCT020 BKN030 14/13 Q1004
2026-03-19 05:30:00,METAR LPFR 190530Z 10012KT 9999 -RA FEW015 SCT025 BKN038 15/14 Q1004 RERA
2026-03-19 05:00:00,METAR LPFR 190500Z 13006KT 6000 RA FEW015 FEW020CB BKN032 15/14 Q1004
2026-03-19 04:30:00,METAR LPFR 190430Z 09010KT 9999 FEW015 FEW020CB BKN035 15/14 Q1003 RERA
2026-03-19 04:00:00,METAR LPFR 190400Z COR 13008KT 6000 RA FEW015 FEW020CB BKN030 15/14 Q1004
2026-03-19 03:30:00,METAR LPFR 190330Z 10011KT 9999 FEW015 SCT035 15/14 Q1003
2026-03-19 03:00:00,METAR LPFR 190300Z 11011KT 9999 -RA FEW015 SCT030 15/13 Q1003
2026-03-19 02:30:00,METAR LPFR 190230Z 12012KT 9999 -RA FEW015 FEW020CB SCT030 15/13 Q1004
2026-03-19 02:00:00,METAR LPFR 190200Z 10012KT 9999 FEW020 16/13 Q1003
2026-03-19 01:30:00,METAR LPFR 190130Z 09011KT 9999 FEW015 SCT035 16/14 Q1003
2026-03-19 01:00:00,METAR LPFR 190100Z 10010KT 9999 -RA FEW016 FEW020CB SCT035 16/14 Q1003
2026-03-19 00:30:00,METAR LPFR 190030Z 09010KT 9999 FEW016 FEW020CB SCT040 16/14 Q1003
2026-03-19 00:00:00,METAR LPFR 190000Z 10013KT 9999 -RA FEW020 SCT035 16/14 Q1003
2026-03-18 23:30:00,METAR LPFR 182330Z 08009KT 9999 -RA FEW020 SCT035 16/14 Q1003
2026-03-18 23:00:00,METAR LPFR 182300Z 09012KT 9999 FEW020 16/14 Q1003
2026-03-18 22:30:00,METAR LPFR 182230Z 10010KT 9999 FEW020 16/14 Q1003
2026-03-18 22:00:00,METAR LPFR 182200Z 08007KT 9999 FEW020 SCT048 16/14 Q1003
2026-03-18 21:30:00,METAR LPFR 182130Z 09008KT 9999 FEW025 16/14 Q1003
2026-03-18 21:00:00,METAR LPFR 182100Z 09010KT 9999 FEW025 16/14 Q1003
2026-03-18 20:30:00,METAR LPFR 182030Z 10011KT 9999 FEW025 16/13 Q1003
2026-03-18 20:00:00,METAR LPFR 182000Z 10012KT 9999 FEW025 16/14 Q1003
2026-03-18 19:30:00,METAR LPFR 181930Z 10012KT 9999 FEW025 16/14 Q1003
2026-03-18 19:00:00,METAR LPFR 181900Z 11012KT 9999 FEW025 16/14 Q1003
2026-03-18 18:30:00,METAR LPFR 181830Z 11011KT 9999 FEW025 16/14 Q1003
2026-03-18 18:00:00,METAR LPFR 181800Z 12010KT 9999 FEW025 17/14 Q1003
2026-03-18 17:30:00,METAR LPFR 181730Z 13011KT 9999 FEW025 17/14 Q1003
2026-03-18 17:00:00,METAR LPFR 181700Z 13011KT 9999 FEW020 17/14 Q1003
2026-03-18 16:30:00,METAR LPFR 181630Z 14011KT 9999 FEW020 17/14 Q1004
2026-03-18 16:00:00,METAR LPFR 181600Z 15013KT 9999 FEW015 FEW018TCU 18/14 Q1004
2026-03-18 15:30:00,METAR LPFR 181530Z 16014KT 9999 FEW015 FEW018TCU 17/14 Q1004
2026-03-18 15:00:00,METAR LPFR 181500Z 16014KT 9999 FEW010 18/14 Q1004
2026-03-18 14:30:00,METAR LPFR 181430Z 15015KT 9999 FEW010 18/15 Q1004
2026-03-18 14:00:00,METAR LPFR 181400Z 15016KT 9999 FEW010 SCT040 18/15 Q1004
2026-03-18 13:30:00,METAR LPFR 181330Z 16014KT 9000 FEW012 SCT045 18/15 Q1005
2026-03-18 13:00:00,METAR LPFR 181300Z 15014KT 9000 FEW012 BKN045 17/14 Q1005
2026-03-18 12:30:00,METAR LPFR 181230Z 15014KT 9999 SCT012 FEW018CB 18/15 Q1005
2026-03-18 12:00:00,METAR LPFR 181200Z 15015KT 9999 SCT012 FEW018CB 18/15 Q1005
2026-03-18 11:30:00,METAR LPFR 181130Z 15015KT 9999 FEW012 FEW018CB 17/15 Q1005
2026-03-18 11:00:00,METAR LPFR 181100Z 15015KT 9999 FEW012 FEW018CB 18/15 Q1006
2026-03-18 10:30:00,METAR LPFR 181030Z 16016KT 9999 FEW012 FEW018CB SCT020 17/15 Q1006
2026-03-18 10:00:00,METAR LPFR 181000Z 15013KT 9999 SCT012 FEW020CB SCT022 17/14 Q1006
2026-03-18 09:30:00,METAR LPFR 180930Z 14016KT 9999 FEW018 FEW020CB SCT026 16/14 Q1006
2026-03-18 09:00:00,METAR LPFR 180900Z 14016KT 9999 FEW018 FEW020CB SCT026 16/13 Q1006
2026-03-18 08:30:00,METAR LPFR 180830Z 14015KT 9999 FEW018 FEW020CB BKN030 16/12 Q1006
2026-03-18 08:00:00,METAR LPFR 180800Z 14013KT 9999 -SHRA FEW018 FEW020CB BKN030 16/13 Q1006
2026-03-18 07:30:00,METAR LPFR 180730Z 14016KT 9999 FEW018 FEW020CB BKN030 16/12 Q1005
2026-03-18 07:00:00,METAR LPFR 180700Z 14015KT 9999 FEW018 FEW020CB BKN030 16/13 Q1005
2026-03-18 06:30:00,METAR LPFR 180630Z 13013KT 9999 FEW018 FEW020CB BKN035 15/14 Q1005
2026-03-18 06:00:00,METAR LPFR 180600Z 12014KT 9999 FEW018 FEW020CB BKN040 16/14 Q1005
2026-03-18 05:30:00,METAR LPFR 180530Z 12012KT 9999 FEW018 BKN035 16/13 Q1005
2026-03-18 05:00:00,METAR LPFR 180500Z 11011KT 9999 FEW018 BKN035 15/14 Q1005
2026-03-18 04:30:00,METAR LPFR 180430Z 12011KT 9999 -RA FEW018 BKN035 15/13 Q1005
2026-03-18 04:00:00,METAR LPFR 180400Z 13015KT 9999 FEW025 BKN040 15/13 Q1005
2026-03-18 03:30:00,METAR LPFR 180330Z 13017KT 9999 FEW025 BKN040 16/13 Q1005
2026-03-18 03:00:00,METAR LPFR 180300Z 12013KT 9999 -SHRA FEW025CB SCT040 16/13 Q1006
2026-03-18 02:30:00,METAR LPFR 180230Z 09013KT 9999 -SHRA FEW025CB SCT045 16/13 Q1006
2026-03-18 02:00:00,METAR LPFR 180200Z 09013KT 9999 VCSH FEW025TCU SCT045 15/13 Q1006
2026-03-18 01:30:00,METAR LPFR 180130Z 09012KT 9999 -RA FEW025TCU SCT045 15/14 Q1007
2026-03-18 01:00:00,METAR LPFR 180100Z 09010KT 9999 FEW020 SCT045 15/13 Q1007
2026-03-18 00:30:00,METAR LPFR 180030Z 08007KT 9999 FEW020 SCT045 15/13 Q1007
2026-03-18 00:00:00,METAR LPFR 180000Z 09007KT 9999 FEW020 SCT035 15/13 Q1008
2026-03-17 23:30:00,METAR LPFR 172330Z 05009KT 9999 -RA FEW012 FEW020CB SCT045 15/14 Q1008
2026-03-17 23:00:00,METAR LPFR 172300Z 25004KT 190V320 7000 -RA FEW012 FEW020CB SCT045 14/14 Q1010
2026-03-17 22:30:00,METAR LPFR 172230Z 25004KT 170V260 7000 -RA FEW012 FEW020CB SCT045 15/14 Q1010
2026-03-17 22:00:00,METAR LPFR 172200Z VRB03KT 9999 -RA FEW012 FEW020CB SCT045 15/14 Q1010
2026-03-17 21:30:00,METAR LPFR 172130Z 26003KT 200V310 9999 -RA FEW005 FEW020CB SCT045 15/14 Q1010
2026-03-17 21:00:00,METAR LPFR 172100Z 27011KT 8000 -SHRA FEW015 FEW020CB SCT035 15/14 Q1009
2026-03-17 20:30:00,METAR LPFR 172030Z 21006KT 8000 -SHRA FEW012 FEW020CB SCT028 15/14 Q1010
2026-03-17 20:00:00,METAR LPFR 172000Z 17009KT 9999 VCSH FEW015 FEW020CB SCT028 16/15 Q1011
2026-03-17 19:30:00,METAR LPFR 171930Z 18003KT 150V230 9999 -SHRA FEW015 BKN025 16/14 Q1009
2026-03-17 19:00:00,METAR LPFR 171900Z 19004KT 9999 FEW015 BKN025 16/14 Q1009
2026-03-17 18:30:00,METAR LPFR 171830Z 17004KT 9999 FEW015 BKN024 16/14 Q1009
2026-03-17 18:00:00,METAR LPFR 171800Z 18006KT 9999 FEW015 BKN024 16/14 Q1010
2026-03-17 17:30:00,METAR LPFR 171730Z 17007KT 9999 VCSH FEW015 BKN024 16/14 Q1010
2026-03-17 17:00:00,METAR LPFR 171700Z 15007KT 9999 -SHRA FEW015 BKN025 16/14 Q1009
2026-03-17 16:30:00,METAR LPFR 171630Z 16008KT 9999 FEW016 BKN026 16/14 Q1010
2026-03-17 16:00:00,METAR LPFR 171600Z 16009KT 9999 FEW016 SCT022 17/14 Q1010
2026-03-17 15:30:00,METAR LPFR 171530Z 14013KT 9999 FEW015 SCT020 17/13 Q1010
2026-03-17 15:00:00,METAR LPFR 171500Z 10013KT 9999 FEW015 SCT020 17/13 Q1009
2026-03-17 14:30:00,METAR LPFR 171430Z 10013KT 9999 FEW015 SCT020 18/13 Q1010
2026-03-17 14:00:00,METAR LPFR 171400Z 11013KT 9999 FEW016 SCT020 18/13 Q1011
2026-03-17 13:30:00,METAR LPFR 171330Z 12016KT 9999 FEW018 SCT025 19/13 Q1011
2026-03-17 13:00:00,METAR LPFR 171300Z 12016KT 9999 FEW018 SCT025 18/13 Q1012
2026-03-17 12:30:00,METAR LPFR 171230Z 11019KT CAVOK 18/12 Q1012
2026-03-17 12:00:00,METAR LPFR 171200Z 11017KT CAVOK 18/12 Q1012
2026-03-17 11:30:00,METAR LPFR 171130Z 10017KT CAVOK 18/11 Q1012
2026-03-17 11:00:00,METAR LPFR 171100Z 11019KT CAVOK 18/11 Q1012
2026-03-17 10:30:00,METAR LPFR 171030Z 09016KT CAVOK 17/10 Q1012
2026-03-17 10:00:00,METAR LPFR 171000Z 09014KT CAVOK 17/08 Q1012
2026-03-17 09:30:00,METAR LPFR 170930Z 08013KT CAVOK 16/08 Q1012
2026-03-17 09:00:00,METAR LPFR 170900Z 08012KT CAVOK 15/07 Q1012
2026-03-17 08:30:00,METAR LPFR 170830Z 07012KT CAVOK 15/07 Q1012
2026-03-17 08:00:00,METAR LPFR 170800Z 07012KT CAVOK 14/07 Q1012
2026-03-17 07:30:00,METAR LPFR 170730Z 07011KT CAVOK 13/06 Q1012
2026-03-17 07:00:00,METAR LPFR 170700Z 07011KT CAVOK 13/06 Q1012
2026-03-17 06:30:00,METAR LPFR 170630Z 07011KT CAVOK 13/06 Q1012
2026-03-17 06:00:00,METAR LPFR 170600Z 07011KT CAVOK 13/06 Q1012
2026-03-17 05:30:00,METAR LPFR 170530Z 07011KT CAVOK 13/07 Q1012
2026-03-17 05:00:00,METAR LPFR 170500Z 07012KT CAVOK 14/07 Q1012
2026-03-17 04:30:00,METAR LPFR 170430Z 07011KT CAVOK 14/07 Q1012
2026-03-17 04:00:00,METAR LPFR 170400Z 07011KT CAVOK 14/07 Q1012
2026-03-17 03:30:00,METAR LPFR 170330Z 08011KT CAVOK 14/07 Q1013
2026-03-17 03:00:00,METAR LPFR 170300Z 08010KT CAVOK 14/07 Q1013
2026-03-17 02:30:00,METAR LPFR 170230Z 08009KT CAVOK 14/08 Q1014
2026-03-17 02:00:00,METAR LPFR 170200Z 10018KT CAVOK 16/07 Q1014
2026-03-17 01:30:00,METAR LPFR 170130Z 08009KT CAVOK 14/08 Q1014
2026-03-17 01:00:00,METAR LPFR 170100Z 08009KT CAVOK 15/09 Q1014
2026-03-17 00:30:00,METAR LPFR 170030Z 08011KT CAVOK 15/09 Q1014
2026-03-17 00:00:00,METAR LPFR 170000Z 07011KT CAVOK 15/09 Q1015
2026-03-16 23:30:00,METAR LPFR 162330Z 08010KT CAVOK 16/09 Q1015
2026-03-16 23:00:00,METAR LPFR 162300Z 08008KT CAVOK 16/09 Q1015
2026-03-16 22:30:00,METAR LPFR 162230Z 07009KT CAVOK 15/09 Q1016
2026-03-16 22:00:00,METAR LPFR 162200Z 06008KT CAVOK 16/09 Q1016
2026-03-16 21:30:00,METAR LPFR 162130Z 06008KT CAVOK 16/09 Q1016
2026-03-16 21:00:00,METAR LPFR 162100Z 05006KT CAVOK 16/08 Q1016
2026-03-16 20:30:00,METAR LPFR 162030Z 07006KT CAVOK 17/09 Q1016
2026-03-16 20:00:00,METAR LPFR 162000Z 08006KT CAVOK 17/08 Q1016
2026-03-16 19:30:00,METAR LPFR 161930Z 07005KT 030V100 CAVOK 17/07 Q1016
2026-03-16 19:00:00,METAR LPFR 161900Z 07005KT CAVOK 18/06 Q1016
2026-03-16 18:30:00,METAR LPFR 161830Z 08007KT CAVOK 19/07 Q1016
2026-03-16 18:00:00,METAR LPFR 161800Z 09008KT CAVOK 19/07 Q1016
2026-03-16 17:30:00,METAR LPFR 161730Z 09010KT CAVOK 20/07 Q1016
2026-03-16 17:00:00,METAR LPFR 161700Z 10011KT CAVOK 20/07 Q1017
2026-03-16 16:30:00,METAR LPFR 161630Z 09011KT CAVOK 21/06 Q1016
2026-03-16 16:00:00,METAR LPFR 161600Z 10011KT CAVOK 21/06 Q1017
2026-03-16 15:30:00,METAR LPFR 161530Z 10013KT CAVOK 21/06 Q1017
2026-03-16 15:00:00,METAR LPFR 161500Z 10014KT CAVOK 21/06 Q1017
2026-03-16 14:30:00,METAR LPFR 161430Z 10017KT CAVOK 20/06 Q1017
2026-03-16 14:00:00,METAR LPFR 161400Z 09015KT CAVOK 21/05 Q1018
2026-03-16 13:30:00,METAR LPFR 161330Z 09016KT CAVOK 21/06 Q1018
2026-03-16 13:00:00,METAR LPFR 161300Z 09015KT CAVOK 20/07 Q1018
2026-03-16 12:30:00,METAR LPFR 161230Z 08013KT CAVOK 21/06 Q1019
2026-03-16 12:00:00,METAR LPFR 161200Z 08015KT CAVOK 20/05 Q1019
2026-03-16 11:30:00,METAR LPFR 161130Z 08016KT CAVOK 20/04 Q1019
2026-03-16 11:00:00,METAR LPFR 161100Z 09015KT CAVOK 20/04 Q1019
2026-03-16 10:30:00,METAR LPFR 161030Z 08013KT CAVOK 20/04 Q1019
2026-03-16 10:00:00,METAR LPFR 161000Z 07015KT CAVOK 19/04 Q1019
2026-03-16 09:30:00,METAR LPFR 160930Z 07014KT CAVOK 19/04 Q1019
2026-03-16 09:00:00,METAR LPFR 160900Z 07014G24KT CAVOK 18/05 Q1019
2026-03-16 08:30:00,METAR LPFR 160830Z 06016KT CAVOK 18/05 Q1019
2026-03-16 08:00:00,METAR LPFR 160800Z 06017KT CAVOK 17/06 Q1018
2026-03-16 07:30:00,METAR LPFR 160730Z 06012KT CAVOK 15/06 Q1018
2026-03-16 07:00:00,METAR LPFR 160700Z 05009G19KT 030V100 CAVOK 15/06 Q1018
2026-03-16 06:30:00,METAR LPFR 160630Z 06007KT 030V090 CAVOK 15/06 Q1018
2026-03-16 06:00:00,METAR LPFR 160600Z 12004KT 060V150 CAVOK 14/07 Q1018
2026-03-16 05:30:00,METAR LPFR 160530Z VRB02KT CAVOK 13/07 Q1018
2026-03-16 05:00:00,METAR LPFR 160500Z VRB02KT CAVOK 12/07 Q1018
2026-03-16 04:30:00,METAR LPFR 160430Z 05003KT 030V090 CAVOK 12/07 Q1018
2026-03-16 04:00:00,METAR LPFR 160400Z 01003KT 330V030 CAVOK 13/08 Q1017
2026-03-16 03:30:00,METAR LPFR 160330Z 01005KT CAVOK 14/06 Q1017
2026-03-16 03:00:00,METAR LPFR 160300Z 01005KT CAVOK 15/06 Q1018
2026-03-16 02:30:00,METAR LPFR 160230Z 01005KT CAVOK 16/06 Q1018
2026-03-16 02:00:00,METAR LPFR 160200Z 02004KT CAVOK 16/06 Q1018
2026-03-16 01:30:00,METAR LPFR 160130Z 01007KT CAVOK 16/06 Q1018
2026-03-16 01:00:00,METAR LPFR 160100Z 01004KT CAVOK 15/07 Q1018
2026-03-16 00:30:00,METAR LPFR 160030Z 04004KT 360V070 CAVOK 16/07 Q1018
2026-03-16 00:00:00,METAR LPFR 160000Z VRB02KT CAVOK 17/07 Q1018
2026-03-15 23:30:00,METAR LPFR 152330Z VRB02KT CAVOK 15/08 Q1018
2026-03-15 23:00:00,METAR LPFR 152300Z 31003KT 280V350 CAVOK 16/07 Q1018
2026-03-15 22:30:00,METAR LPFR 152230Z 27004KT 250V320 CAVOK 13/11 Q1018
2026-03-15 22:00:00,METAR LPFR 152200Z 27004KT CAVOK 13/10 Q1018
2026-03-15 21:30:00,METAR LPFR 152130Z VRB02KT CAVOK 14/11 Q1018
2026-03-15 21:00:00,METAR LPFR 152100Z 32003KT 290V350 CAVOK 14/11 Q1017
2026-03-15 20:30:00,METAR LPFR 152030Z 27003KT CAVOK 14/11 Q1017
2026-03-15 20:00:00,METAR LPFR 152000Z VRB01KT CAVOK 15/12 Q1017
2026-03-15 19:30:00,METAR LPFR 151930Z VRB02KT CAVOK 15/12 Q1017
2026-03-15 19:00:00,METAR LPFR 151900Z VRB02KT CAVOK 15/12 Q1017
2026-03-15 18:30:00,METAR LPFR 151830Z 22003KT 180V250 CAVOK 16/12 Q1016
2026-03-15 18:00:00,METAR LPFR 151800Z 21006KT CAVOK 16/12 Q1016
2026-03-15 17:30:00,METAR LPFR 151730Z 22007KT CAVOK 16/12 Q1016
2026-03-15 17:00:00,METAR LPFR 151700Z 22009KT CAVOK 16/12 Q1016
2026-03-15 16:30:00,METAR LPFR 151630Z 22010KT CAVOK 16/12 Q1016
2026-03-15 16:00:00,METAR LPFR 151600Z 21010KT CAVOK 17/12 Q1016
2026-03-15 15:30:00,METAR LPFR 151530Z 20010KT CAVOK 17/12 Q1016
2026-03-15 15:00:00,METAR LPFR 151500Z 19011KT CAVOK 17/13 Q1016
2026-03-15 14:30:00,METAR LPFR 151430Z 18011KT CAVOK 17/12 Q1016
2026-03-15 14:00:00,METAR LPFR 151400Z 20010KT CAVOK 17/12 Q1016
2026-03-15 13:30:00,METAR LPFR 151330Z 19011KT CAVOK 17/11 Q1016
2026-03-15 13:00:00,METAR LPFR 151300Z 18010KT CAVOK 17/11 Q1016
2026-03-15 12:30:00,METAR LPFR 151230Z 18009KT CAVOK 17/10 Q1017
2026-03-15 12:00:00,METAR LPFR 151200Z 18009KT 150V210 9999 FEW025 17/10 Q1017
2026-03-15 11:30:00,METAR LPFR 151130Z VRB03KT 9999 FEW025 18/09 Q1017
2026-03-15 11:00:00,METAR LPFR 151100Z VRB02KT 9999 FEW026 16/09 Q1017
2026-03-15 10:30:00,METAR LPFR 151030Z VRB04KT 9999 FEW023 17/09 Q1017
2026-03-15 10:00:00,METAR LPFR 151000Z 04006KT 010V080 9999 FEW023 17/09 Q1017
2026-03-15 09:30:00,METAR LPFR 150930Z 36007KT 330V030 9999 FEW023 16/09 Q1017
2026-03-15 09:00:00,METAR LPFR 150900Z 36009KT 320V020 9999 FEW023 15/09 Q1017
2026-03-15 08:30:00,METAR LPFR 150830Z 35009KT 9999 SCT024 14/09 Q1017
2026-03-15 08:00:00,METAR LPFR 150800Z 33007KT 270V030 9999 FEW024 14/09 Q1016
