Time_recorded,METAR
2026-05-02 15:50:00,METAR LGRP 021550Z 26017KT 9999 SCT020 16/10 Q1009
2026-05-02 15:20:00,METAR LGRP 021520Z 26017KT 9999 SCT020 17/10 Q1009
2026-05-02 14:50:00,METAR LGRP 021450Z 26016KT 9999 FEW018 SCT025 17/10 Q1009
2026-05-02 14:20:00,METAR LGRP 021420Z 26017KT 9999 FEW018 SCT025 18/11 Q1009
2026-05-02 13:50:00,METAR LGRP 021350Z 26019KT 9999 FEW018 SCT025 17/09 Q1009
2026-05-02 13:20:00,METAR LGRP 021320Z 26018KT 9999 FEW018 SCT025 17/10 Q1009
2026-05-02 12:50:00,METAR LGRP 021250Z 26018KT 9999 FEW018 SCT025 17/11 Q1009
2026-05-02 12:20:00,METAR LGRP 021220Z 27019KT 9999 FEW018 SCT025 17/11 Q1010
2026-05-02 11:50:00,METAR LGRP 021150Z 26020KT 9999 FEW018 SCT025 17/11 Q1010
2026-05-02 11:20:00,METAR LGRP 021120Z 26020KT 9999 SCT020 17/10 Q1010
2026-05-02 10:50:00,METAR LGRP 021050Z 26017KT 9999 FEW018 SCT025 17/10 Q1010
2026-05-02 10:20:00,METAR LGRP 021020Z 26016KT 9999 FEW018 SCT025 17/10 Q1010 NOSIG
2026-05-02 09:50:00,METAR LGRP 020950Z 26016KT 9999 FEW018 SCT025 17/11 Q1010 NOSIG
2026-05-02 09:20:00,METAR LGRP 020920Z 25019KT 9999 FEW018 SCT025 17/11 Q1010 NOSIG
2026-05-02 08:50:00,METAR LGRP 020850Z 25017KT 9999 FEW018 SCT025 17/11 Q1010 NOSIG
2026-05-02 08:20:00,METAR LGRP 020820Z 24010KT 200V260 9999 FEW018 SCT025 17/11 Q1010
2026-05-02 07:50:00,METAR LGRP 020750Z 26009KT 9999 FEW018 SCT025 17/11 Q1009 NOSIG
2026-05-02 07:20:00,METAR LGRP 020720Z 26007KT 230V290 9999 SCT020 17/11 Q1009 NOSIG
2026-05-02 06:50:00,METAR LGRP 020650Z 30010KT 270V330 9999 FEW020 18/11 Q1009 NOSIG
2026-05-02 06:20:00,METAR LGRP 020620Z 31011KT 9999 FEW020 18/11 Q1009 NOSIG
2026-05-02 05:50:00,METAR LGRP 020550Z 31010KT 9999 FEW020 18/11 Q1010 NOSIG
2026-05-02 05:20:00,METAR LGRP 020520Z 29007KT 250V320 9999 FEW020 18/11 Q1010
2026-05-02 04:50:00,METAR LGRP 020450Z 31010KT 9999 FEW020 17/10 Q1009
2026-05-02 04:20:00,METAR LGRP 020420Z 25010KT 9999 FEW020 16/11 Q1009
2026-05-02 03:50:00,METAR LGRP 020350Z 24008KT 9999 FEW018 15/09 Q1009
2026-05-02 03:20:00,METAR LGRP 020320Z 23007KT CAVOK 16/10 Q1009
2026-05-02 02:50:00,METAR LGRP 020250Z 31009KT 9999 FEW018 16/10 Q1009
2026-05-02 02:20:00,METAR LGRP 020220Z 31013KT 9999 FEW018 16/10 Q1009
2026-05-02 01:50:00,METAR LGRP 020150Z 31013KT 9999 FEW018 16/10 Q1009
2026-05-02 01:20:00,METAR LGRP 020120Z 30013KT 9999 FEW018 15/09 Q1010
2026-05-02 00:50:00,METAR LGRP 020050Z 30013KT 9999 FEW018 15/09 Q1010
2026-05-02 00:20:00,METAR LGRP 020020Z 31014KT 9999 FEW018 16/12 Q1010
2026-05-01 23:50:00,METAR LGRP 012350Z 31013KT 9999 FEW018 15/09 Q1010
2026-05-01 23:20:00,METAR LGRP 012320Z 31015KT 9999 FEW018 16/10 Q1011
2026-05-01 22:50:00,METAR LGRP 012250Z 31013KT 9999 FEW018 16/10 Q1011
2026-05-01 22:20:00,METAR LGRP 012220Z 29008KT 9999 FEW018 16/10 Q1011
2026-05-01 21:50:00,METAR LGRP 012150Z 29008KT 9999 FEW018 16/10 Q1011
2026-05-01 21:20:00,METAR LGRP 012120Z 27010KT 9999 FEW018 17/12 Q1012
2026-05-01 20:50:00,METAR LGRP 012050Z 26012KT 9999 FEW018 17/12 Q1012 NOSIG
2026-05-01 20:20:00,METAR LGRP 012020Z 26014KT 9999 FEW018 17/12 Q1012 NOSIG
2026-05-01 19:50:00,METAR LGRP 011950Z 25013KT 9999 FEW018 17/12 Q1012 NOSIG
2026-05-01 19:20:00,METAR LGRP 011920Z 26012KT 9999 FEW018 17/12 Q1012 NOSIG
2026-05-01 18:50:00,METAR LGRP 011850Z 26013KT 9999 FEW018 17/12 Q1012 NOSIG
2026-05-01 18:20:00,METAR LGRP 011820Z 26011KT 9999 FEW018 17/12 Q1012 NOSIG
2026-05-01 17:50:00,METAR LGRP 011750Z 27015KT 9999 FEW018 18/11 Q1012 NOSIG
2026-05-01 17:20:00,METAR LGRP 011720Z 27015KT 9999 FEW018 18/12 Q1012 NOSIG
2026-05-01 16:50:00,METAR LGRP 011650Z 27015KT 9999 FEW018 18/12 Q1012 NOSIG
2026-05-01 16:20:00,METAR LGRP 011620Z 28014KT 9999 FEW018 19/12 Q1011 NOSIG
2026-05-01 15:50:00,METAR LGRP 011550Z 27013KT 9999 FEW018 19/13 Q1011 NOSIG
2026-05-01 15:20:00,METAR LGRP 011520Z 30011KT 9999 FEW018 20/14 Q1011 NOSIG
2026-05-01 14:50:00,METAR LGRP 011450Z 30011KT 9999 FEW018 20/13 Q1011 NOSIG
2026-05-01 14:20:00,METAR LGRP 011420Z VRB09KT 9999 FEW018 20/13 Q1011 NOSIG
2026-05-01 13:50:00,METAR LGRP 011350Z 28009KT 9999 FEW018 21/13 Q1011 NOSIG
2026-05-01 13:20:00,METAR LGRP 011320Z 28006KT 250V310 9999 FEW018 22/12 Q1011 NOSIG
2026-05-01 12:50:00,METAR LGRP 011250Z 27009KT 9999 FEW018 21/14 Q1012 NOSIG
2026-05-01 12:20:00,METAR LGRP 011220Z 26013KT 9999 FEW018 21/16 Q1012 NOSIG
2026-05-01 11:50:00,METAR LGRP 011150Z 26014KT 9999 FEW018 21/16 Q1012 NOSIG
2026-05-01 11:20:00,METAR LGRP 011120Z 26013KT 9999 FEW018 21/16 Q1012 NOSIG
2026-05-01 10:50:00,METAR LGRP 011050Z 27010KT 9999 FEW018 21/15 Q1012 NOSIG
2026-05-01 10:20:00,METAR LGRP 011020Z 26012KT 9999 FEW018 21/15 Q1012 NOSIG
2026-05-01 09:50:00,METAR LGRP 010950Z 27010KT 9999 FEW018 21/16 Q1012 NOSIG
2026-05-01 09:20:00,METAR LGRP 010920Z 27009KT 9999 FEW018 20/17 Q1012 NOSIG
2026-05-01 08:50:00,METAR LGRP 010850Z 27008KT 9999 FEW018 20/16 Q1012 NOSIG
2026-05-01 08:20:00,METAR LGRP 010820Z 28009KT 9999 FEW018 21/16 Q1012 NOSIG
2026-05-01 07:50:00,METAR LGRP 010750Z 27009KT 9999 FEW018 21/16 Q1012 NOSIG
2026-05-01 07:20:00,METAR LGRP 010720Z 27006KT 9999 SCT018 20/16 Q1012 NOSIG
2026-05-01 06:50:00,METAR LGRP 010650Z 26008KT 9999 SCT018 20/17 Q1012 NOSIG
2026-05-01 06:20:00,METAR LGRP 010620Z 25007KT 9999 SCT018 20/15 Q1011 NOSIG
2026-05-01 05:50:00,METAR LGRP 010550Z 24005KT 9999 FEW018 19/14 Q1011 NOSIG
2026-05-01 05:20:00,METAR LGRP 010520Z 25005KT 9999 FEW018 19/14 Q1011 NOSIG
2026-05-01 04:50:00,METAR LGRP 010450Z VRB01KT 9999 FEW018 18/15 Q1011 NOSIG
2026-05-01 04:20:00,METAR LGRP 010420Z 00000KT 9999 FEW018 16/13 Q1011 NOSIG
2026-05-01 03:50:00,METAR LGRP 010350Z 13001KT 9999 FEW018 16/13 Q1011 NOSIG
2026-05-01 03:20:00,METAR LGRP 010320Z 14001KT 9999 FEW018 17/13 Q1011 NOSIG
2026-05-01 02:50:00,METAR LGRP 010250Z 00000KT 9999 FEW018 17/13 Q1011 NOSIG
2026-05-01 02:20:00,METAR LGRP 010220Z 36001KT 9999 FEW018 16/13 Q1011 NOSIG
2026-05-01 01:50:00,METAR LGRP 010150Z 00000KT 9999 FEW018 17/14 Q1011 NOSIG
2026-05-01 01:20:00,METAR LGRP 010120Z VRB02KT 9999 FEW018 17/14 Q1011 NOSIG
2026-05-01 00:50:00,METAR LGRP 010050Z VRB01KT 9999 FEW018 17/14 Q1011 NOSIG
2026-05-01 00:20:00,METAR LGRP 010020Z 22004KT 9999 FEW018 17/14 Q1012 NOSIG
2026-04-30 23:50:00,METAR LGRP 302350Z VRB01KT 9999 FEW018 17/12 Q1012 NOSIG
2026-04-30 23:20:00,METAR LGRP 302320Z 00000KT 9999 FEW018 15/12 Q1012 NOSIG
2026-04-30 22:50:00,METAR LGRP 302250Z 00000KT 9999 FEW018 15/11 Q1012 NOSIG
2026-04-30 22:20:00,METAR LGRP 302220Z VRB01KT 9999 FEW018 16/12 Q1013 NOSIG
2026-04-30 21:50:00,METAR LGRP 302150Z VRB02KT 9999 FEW018 16/11 Q1013 NOSIG
2026-04-30 21:20:00,METAR LGRP 302120Z 00000KT 9999 FEW018 16/11 Q1013 NOSIG
2026-04-30 20:50:00,METAR LGRP 302050Z VRB01KT 9999 FEW018 16/10 Q1013 NOSIG
2026-04-30 20:20:00,METAR LGRP 302020Z VRB01KT 9999 FEW018 17/12 Q1013 NOSIG
2026-04-30 19:50:00,METAR LGRP 301950Z VRB02KT 9999 FEW018 17/12 Q1013 NOSIG
2026-04-30 19:20:00,METAR LGRP 301920Z VRB02KT 9999 FEW018 17/13 Q1013 NOSIG
2026-04-30 18:50:00,METAR LGRP 301850Z VRB01KT 9999 FEW018 18/16 Q1013 NOSIG
2026-04-30 18:20:00,METAR LGRP 301820Z VRB02KT 9999 FEW020 19/15 Q1012 NOSIG
2026-04-30 17:50:00,METAR LGRP 301750Z VRB03KT 9999 FEW020 19/15 Q1012 NOSIG
2026-04-30 17:20:00,METAR LGRP 301720Z 23005KT 190V260 9999 FEW020 20/15 Q1012 NOSIG RMK SCT180
2026-04-30 16:50:00,METAR LGRP 301650Z 28003KT 9999 FEW020 20/16 Q1012 NOSIG
2026-04-30 16:20:00,METAR LGRP 301620Z 28004KT 9999 FEW020 21/15 Q1012 NOSIG
2026-04-30 14:50:00,METAR LGRP 301450Z 27005KT 9999 FEW020 23/14 Q1012 NOSIG
2026-04-30 14:20:00,METAR LGRP 301420Z 27004KT 240V330 9999 FEW020 23/11 Q1012 NOSIG
2026-04-30 13:50:00,METAR LGRP 301350Z 28005KT 9999 FEW020 24/12 Q1012 NOSIG
2026-04-30 13:20:00,METAR LGRP 301320Z 28005KT 250V320 9999 FEW018 23/11 Q1012 NOSIG
2026-04-30 12:50:00,METAR LGRP 301250Z 31004KT 9999 FEW018 24/13 Q1013 NOSIG
2026-04-30 12:20:00,METAR LGRP 301220Z 35004KT 320V030 9999 FEW018 23/15 Q1013 NOSIG
2026-04-30 11:50:00,METAR LGRP 301150Z 36006KT 9999 FEW018 22/15 Q1014 NOSIG
2026-04-30 11:20:00,METAR LGRP 301120Z 03007KT 350V050 9999 FEW018 23/14 Q1014 NOSIG
2026-04-30 10:50:00,METAR LGRP 301050Z 03008KT 340V060 9999 FEW018 22/16 Q1014 NOSIG
2026-04-30 10:20:00,METAR LGRP 301020Z 03008KT 9999 FEW018 21/16 Q1014 NOSIG
2026-04-30 09:50:00,METAR LGRP 300950Z 03009KT 9999 FEW018 22/16 Q1014 NOSIG
2026-04-30 09:20:00,METAR LGRP 300920Z 03008KT CAVOK 21/16 Q1015 NOSIG
2026-04-30 08:50:00,METAR LGRP 300850Z 03007KT CAVOK 21/16 Q1015 NOSIG
2026-04-30 08:20:00,METAR LGRP 300820Z 03007KT 350V050 CAVOK 21/15 Q1014 NOSIG
2026-04-30 07:50:00,METAR LGRP 300750Z 02005KT CAVOK 21/15 Q1014 NOSIG
2026-04-30 07:20:00,METAR LGRP 300720Z 35004KT 300V040 CAVOK 21/14 Q1014 NOSIG
2026-04-30 06:50:00,METAR LGRP 300650Z 30005KT CAVOK 20/13 Q1014 NOSIG
2026-04-30 06:20:00,METAR LGRP 300620Z 29005KT 260V330 CAVOK 20/12 Q1014 NOSIG
2026-04-30 05:50:00,METAR LGRP 300550Z VRB03KT CAVOK 19/12 Q1014 NOSIG
2026-04-30 05:20:00,METAR LGRP 300520Z COR VRB03KT CAVOK 18/13 Q1014 NOSIG
2026-04-30 04:50:00,METAR LGRP 300450Z VRB03KT CAVOK 17/12 Q1013 NOSIG
2026-04-30 04:20:00,METAR LGRP 300420Z VRB03KT CAVOK 16/12 Q1013 NOSIG
2026-04-30 03:50:00,METAR LGRP 300350Z 00000KT CAVOK 16/13 Q1013 NOSIG
2026-04-30 03:20:00,METAR LGRP 300320Z VRB01KT CAVOK 16/14 Q1013 NOSIG
2026-04-30 02:50:00,METAR LGRP 300250Z VRB01KT CAVOK 16/14 Q1013 NOSIG
2026-04-30 02:20:00,METAR LGRP 300220Z VRB01KT CAVOK 17/14 Q1013 NOSIG
2026-04-30 01:50:00,METAR LGRP 300150Z VRB03KT CAVOK 17/13 Q1013 NOSIG
2026-04-30 01:20:00,METAR LGRP 300120Z 00000KT CAVOK 18/14 Q1013 NOSIG
2026-04-30 00:50:00,METAR LGRP 300050Z VRB01KT CAVOK 18/14 Q1013 NOSIG
2026-04-30 00:20:00,METAR LGRP 300020Z 00000KT CAVOK 17/14 Q1013 NOSIG
2026-04-29 23:50:00,METAR LGRP 292350Z VRB01KT CAVOK 18/13 Q1013 NOSIG
2026-04-29 23:20:00,METAR LGRP 292320Z VRB01KT CAVOK 18/13 Q1013 NOSIG
2026-04-29 22:50:00,METAR LGRP 292250Z VRB03KT CAVOK 18/13 Q1013 NOSIG
2026-04-29 22:20:00,METAR LGRP 292220Z 00000KT CAVOK 18/13 Q1013 NOSIG
2026-04-29 21:50:00,METAR LGRP 292150Z 00000KT CAVOK 19/12 Q1013 NOSIG
2026-04-29 21:20:00,METAR LGRP 292120Z VRB04KT CAVOK 19/11 Q1013 NOSIG
2026-04-29 20:50:00,METAR LGRP 292050Z VRB02KT CAVOK 19/12 Q1013 NOSIG
2026-04-29 20:20:00,METAR LGRP 292020Z 22006KT CAVOK 20/10 Q1013 NOSIG
2026-04-29 19:20:00,METAR LGRP 291920Z 23006KT CAVOK 20/09 Q1013 NOSIG
2026-04-29 18:50:00,METAR LGRP 291850Z 22008KT CAVOK 20/08 Q1013 NOSIG
2026-04-29 18:20:00,METAR LGRP 291820Z 22009KT CAVOK 20/08 Q1013 NOSIG
2026-04-29 17:50:00,METAR LGRP 291750Z 22007KT 190V260 CAVOK 21/08 Q1012 NOSIG
2026-04-29 17:20:00,METAR LGRP 291720Z 23007KT CAVOK 21/07 Q1012 NOSIG
2026-04-29 16:50:00,METAR LGRP 291650Z 25007KT 9999 FEW020 21/08 Q1012 NOSIG
2026-04-29 16:20:00,METAR LGRP 291620Z 25008KT 9999 FEW020 22/08 Q1012 NOSIG
2026-04-29 15:50:00,METAR LGRP 291550Z 25012KT 9999 FEW020 22/09 Q1012 NOSIG
2026-04-29 15:20:00,METAR LGRP 291520Z 24012KT 9999 FEW020 22/09 Q1012 NOSIG
2026-04-29 14:50:00,METAR LGRP 291450Z 25012KT 9999 FEW020 23/08 Q1012 NOSIG
2026-04-29 14:20:00,METAR LGRP 291420Z 25011KT 9999 FEW020 23/08 Q1012 NOSIG
2026-04-29 13:50:00,METAR LGRP 291350Z 25012KT 9999 FEW020 23/07 Q1012 NOSIG
2026-04-29 13:20:00,METAR LGRP 291320Z 25012KT 9999 FEW020 23/09 Q1012 NOSIG
2026-04-29 12:50:00,METAR LGRP 291250Z 24012KT 9999 FEW020 23/09 Q1012 NOSIG
2026-04-29 12:20:00,METAR LGRP 291220Z 25013KT 9999 FEW020 22/10 Q1013 NOSIG
2026-04-29 11:50:00,METAR LGRP 291150Z 25013KT 9999 FEW020 23/09 Q1013 NOSIG
2026-04-29 11:20:00,METAR LGRP 291120Z 25013KT 9999 FEW020 23/10 Q1013 NOSIG
2026-04-29 10:50:00,METAR LGRP 291050Z 26015KT 9999 FEW020 22/12 Q1013 NOSIG
2026-04-29 10:20:00,METAR LGRP 291020Z 26014KT 9999 FEW020 22/14 Q1013 NOSIG
2026-04-29 09:50:00,METAR LGRP 290950Z 26012KT 9999 FEW025 22/14 Q1013 NOSIG
2026-04-29 09:20:00,METAR LGRP 290920Z 26014KT 9999 FEW025 22/13 Q1013 NOSIG
2026-04-29 08:50:00,METAR LGRP 290850Z 27009KT 9999 FEW025 22/13 Q1013 NOSIG
2026-04-29 08:20:00,METAR LGRP 290820Z 27010KT CAVOK 21/14 Q1013 NOSIG
2026-04-29 07:50:00,METAR LGRP 290750Z 27009KT CAVOK 21/14 Q1013 NOSIG
2026-04-29 07:20:00,METAR LGRP 290720Z 27009KT CAVOK 20/14 Q1013 NOSIG
2026-04-29 06:50:00,METAR LGRP 290650Z 27010KT CAVOK 20/14 Q1012 NOSIG
2026-04-29 06:20:00,METAR LGRP 290620Z 26010KT CAVOK 20/13 Q1012 NOSIG
2026-04-29 05:50:00,METAR LGRP 290550Z 25009KT CAVOK 20/14 Q1012 NOSIG
2026-04-29 05:20:00,METAR LGRP 290520Z 24008KT CAVOK 19/13 Q1012 NOSIG
2026-04-29 04:50:00,METAR LGRP 290450Z 23008KT CAVOK 19/13 Q1012 NOSIG
2026-04-29 04:20:00,METAR LGRP 290420Z 24007KT CAVOK 18/13 Q1012 NOSIG
2026-04-29 03:50:00,METAR LGRP 290350Z 23008KT CAVOK 17/12 Q1012 NOSIG
2026-04-29 03:20:00,METAR LGRP 290320Z 23010KT CAVOK 17/11 Q1011 NOSIG
2026-04-29 02:50:00,METAR LGRP 290250Z 23010KT 9999 FEW018 17/12 Q1011 NOSIG
2026-04-29 02:20:00,METAR LGRP 290220Z 24009KT 9999 FEW018 18/10 Q1011 NOSIG
2026-04-29 01:50:00,METAR LGRP 290150Z 23009KT 9999 FEW018 18/10 Q1011 NOSIG
2026-04-29 01:20:00,METAR LGRP 290120Z 23008KT 9999 FEW018 18/11 Q1011 NOSIG
2026-04-29 00:50:00,METAR LGRP 290050Z 23009KT 9999 FEW018 17/11 Q1011 NOSIG
2026-04-29 00:20:00,METAR LGRP 290020Z 22008KT 9999 FEW018 18/11 Q1012 NOSIG
2026-04-28 23:50:00,METAR LGRP 282350Z 23008KT 9999 FEW018 18/11 Q1012 NOSIG
2026-04-28 23:20:00,METAR LGRP 282320Z 23009KT 9999 FEW018 18/11 Q1012 NOSIG
2026-04-28 22:20:00,METAR LGRP 282220Z 23009KT 9999 FEW018 18/10 Q1012 NOSIG
2026-04-28 21:50:00,METAR LGRP 282150Z 23009KT 9999 FEW018 18/10 Q1012 NOSIG
2026-04-28 21:20:00,METAR LGRP 282120Z 23011KT 9999 FEW018 18/10 Q1012 NOSIG
2026-04-28 20:50:00,METAR LGRP 282050Z 23010KT 9999 FEW018 18/10 Q1012 NOSIG
2026-04-28 20:20:00,METAR LGRP 282020Z 23009KT 9999 FEW018 18/10 Q1012 NOSIG
2026-04-28 19:50:00,METAR LGRP 281950Z 23010KT 9999 FEW018 18/10 Q1012 NOSIG
2026-04-28 19:20:00,METAR LGRP 281920Z 23009KT 9999 FEW018 19/10 Q1012 NOSIG
2026-04-28 18:50:00,METAR LGRP 281850Z 22010KT 9999 FEW018 19/09 Q1011 NOSIG
2026-04-28 18:20:00,METAR LGRP 281820Z 23009KT 9999 FEW018 19/09 Q1011 NOSIG
2026-04-28 17:50:00,METAR LGRP 281750Z 23010KT 9999 FEW018 19/10 Q1012 NOSIG
2026-04-28 17:20:00,METAR LGRP 281720Z 24011KT 9999 FEW018 19/11 Q1011 NOSIG
2026-04-28 16:50:00,METAR LGRP 281650Z 24012KT 9999 FEW018 20/10 Q1011 NOSIG
2026-04-28 16:20:00,METAR LGRP 281620Z 24016KT 9999 FEW018 20/11 Q1011 NOSIG
2026-04-28 15:50:00,METAR LGRP 281550Z 24017KT 9999 FEW018 21/11 Q1011 NOSIG
2026-04-28 15:20:00,METAR LGRP 281520Z 25017KT 9999 FEW018 21/12 Q1010 NOSIG
2026-04-28 14:50:00,METAR LGRP 281450Z 24016KT 9999 FEW018 22/10 Q1011 NOSIG
2026-04-28 14:20:00,METAR LGRP 281420Z 24017KT 9999 FEW018 22/11 Q1011 NOSIG
2026-04-28 13:50:00,METAR LGRP 281350Z 25018KT 9999 FEW018 23/10 Q1011 NOSIG
2026-04-28 13:20:00,METAR LGRP 281320Z 25017KT 9999 FEW018 23/12 Q1011 NOSIG
2026-04-28 12:50:00,METAR LGRP 281250Z 25016KT 9999 FEW018 23/13 Q1011 NOSIG
2026-04-28 12:20:00,METAR LGRP 281220Z 25017KT 9999 FEW018 23/12 Q1011 NOSIG
2026-04-28 11:50:00,METAR LGRP 281150Z 26015KT 9999 FEW018 23/15 Q1012 NOSIG
2026-04-28 11:20:00,METAR LGRP 281120Z 26013KT 9999 FEW018 22/15 Q1012 NOSIG
2026-04-28 10:50:00,METAR LGRP 281050Z 26011KT 9999 FEW018 22/15 Q1012 NOSIG
2026-04-28 10:20:00,METAR LGRP 281020Z 26011KT 9999 FEW018 23/15 Q1012 NOSIG
2026-04-28 09:50:00,METAR LGRP 280950Z 25012KT 9999 FEW018 23/15 Q1012 NOSIG
2026-04-28 09:20:00,METAR LGRP 280920Z 26011KT 9999 FEW018 22/16 Q1012 NOSIG
2026-04-28 08:50:00,METAR LGRP 280850Z 26012KT 9999 FEW018 22/16 Q1012 NOSIG
2026-04-28 08:20:00,METAR LGRP 280820Z 26010KT CAVOK 21/16 Q1012 NOSIG
2026-04-28 07:50:00,METAR LGRP 280750Z 26009KT CAVOK 20/16 Q1012 NOSIG
2026-04-28 07:20:00,METAR LGRP 280720Z 25008KT CAVOK 20/15 Q1012 NOSIG
2026-04-28 06:50:00,METAR LGRP 280650Z 26010KT CAVOK 20/15 Q1012 NOSIG
2026-04-28 06:20:00,METAR LGRP 280620Z 26010KT CAVOK 20/17 Q1012 NOSIG
2026-04-28 05:50:00,METAR LGRP 280550Z 24008KT CAVOK 20/16 Q1012 NOSIG
2026-04-28 05:20:00,METAR LGRP 280520Z 24008KT CAVOK 20/16 Q1012 NOSIG
2026-04-28 04:50:00,METAR LGRP 280450Z 24005KT CAVOK 19/15 Q1011 NOSIG
2026-04-28 04:20:00,METAR LGRP 280420Z 24006KT CAVOK 18/15 Q1011 NOSIG
2026-04-28 03:50:00,METAR LGRP 280350Z 23005KT CAVOK 18/13 Q1012 NOSIG
2026-04-28 03:20:00,METAR LGRP 280320Z 23004KT 9999 FEW020 18/13 Q1012 NOSIG
2026-04-28 02:50:00,METAR LGRP 280250Z 23004KT 9999 FEW020 18/13 Q1012 NOSIG
2026-04-28 01:50:00,METAR LGRP 280150Z 23005KT 9999 FEW020 18/13 Q1012 NOSIG
2026-04-28 01:20:00,METAR LGRP 280120Z 24007KT 9999 FEW020 18/13 Q1012 NOSIG
2026-04-28 00:50:00,METAR LGRP 280050Z 24007KT 9999 FEW020 18/13 Q1012 NOSIG
2026-04-28 00:20:00,METAR LGRP 280020Z 24005KT 9999 FEW020 18/13 Q1012 NOSIG
2026-04-27 23:50:00,METAR LGRP 272350Z 23005KT 9999 FEW020 18/13 Q1012 NOSIG
2026-04-27 23:20:00,METAR LGRP 272320Z 23006KT 9999 FEW020 18/13 Q1012 NOSIG
2026-04-27 22:50:00,METAR LGRP 272250Z 23006KT 9999 FEW020 18/13 Q1012 NOSIG
2026-04-27 22:20:00,METAR LGRP 272220Z 23005KT 9999 FEW020 18/13 Q1012 NOSIG
2026-04-27 21:50:00,METAR LGRP 272150Z 23005KT 9999 FEW020 18/13 Q1012 NOSIG
2026-04-27 21:20:00,METAR LGRP 272120Z 25006KT 9999 FEW020 18/13 Q1013 NOSIG
2026-04-27 20:50:00,METAR LGRP 272050Z 25008KT 9999 FEW020 18/13 Q1013 NOSIG
2026-04-27 20:20:00,METAR LGRP 272020Z 25008KT 9999 FEW020 18/14 Q1013 NOSIG
2026-04-27 19:50:00,METAR LGRP 271950Z 25008KT 9999 FEW020 18/14 Q1013 NOSIG
2026-04-27 19:20:00,METAR LGRP 271920Z 25007KT 9999 FEW020 19/13 Q1013 NOSIG
2026-04-27 18:50:00,METAR LGRP 271850Z 25006KT 9999 FEW020 19/14 Q1012 NOSIG
2026-04-27 18:20:00,METAR LGRP 271820Z 25006KT 9999 FEW020 20/15 Q1012 NOSIG
2026-04-27 17:50:00,METAR LGRP 271750Z VRB02KT 9999 FEW020 20/14 Q1012 NOSIG
2026-04-27 17:20:00,METAR LGRP 271720Z 24006KT 9999 FEW020 20/14 Q1012 NOSIG
2026-04-27 16:50:00,METAR LGRP 271650Z 25009KT 9999 FEW018 20/15 Q1012 NOSIG
2026-04-27 16:20:00,METAR LGRP 271620Z 25011KT 9999 FEW018 21/16 Q1012 NOSIG
2026-04-27 15:50:00,METAR LGRP 271550Z 25013KT 9999 FEW018 22/17 Q1012 NOSIG
2026-04-27 15:20:00,METAR LGRP 271520Z 25013KT 9999 FEW018 23/17 Q1012 NOSIG
2026-04-27 14:50:00,METAR LGRP 271450Z 25012KT 9999 FEW018 24/15 Q1012 NOSIG
2026-04-27 14:20:00,METAR LGRP 271420Z 24015KT 9999 FEW018 23/12 Q1012 NOSIG
2026-04-27 13:50:00,METAR LGRP 271350Z 25015KT 9999 FEW018 23/11 Q1012 NOSIG
2026-04-27 13:20:00,METAR LGRP 271320Z 24015KT 9999 FEW018 24/11 Q1012 NOSIG
2026-04-27 12:50:00,METAR LGRP 271250Z 24016KT 9999 FEW018 24/11 Q1012 NOSIG
2026-04-27 12:20:00,METAR LGRP 271220Z 25015KT 9999 FEW018 24/12 Q1012 NOSIG
2026-04-27 11:50:00,METAR LGRP 271150Z 25014KT 9999 FEW018 23/11 Q1013 NOSIG
2026-04-27 11:20:00,METAR LGRP 271120Z 24015KT 9999 FEW018 23/13 Q1013 NOSIG
2026-04-27 10:50:00,METAR LGRP 271050Z 26014KT 9999 FEW018 22/13 Q1013 NOSIG
2026-04-27 10:20:00,METAR LGRP 271020Z 26012KT 9999 FEW018 23/10 Q1013 NOSIG
2026-04-27 09:50:00,METAR LGRP 270950Z 24014KT 9999 FEW018 22/13 Q1014 NOSIG
2026-04-27 09:20:00,METAR LGRP 270920Z 26015KT CAVOK 22/13 Q1013 NOSIG
2026-04-27 08:50:00,METAR LGRP 270850Z 26013KT CAVOK 22/12 Q1013 NOSIG
2026-04-27 08:20:00,METAR LGRP 270820Z 26012KT CAVOK 21/14 Q1013 NOSIG
2026-04-27 07:50:00,METAR LGRP 270750Z 26012KT CAVOK 22/13 Q1013 NOSIG
2026-04-27 07:20:00,METAR LGRP 270720Z 25014KT CAVOK 22/13 Q1013 NOSIG
2026-04-27 06:50:00,METAR LGRP 270650Z 26011KT CAVOK 21/13 Q1013 NOSIG
2026-04-27 06:20:00,METAR LGRP 270620Z 24011KT CAVOK 21/13 Q1013 NOSIG
2026-04-27 05:50:00,METAR LGRP 270550Z 25010KT CAVOK 21/13 Q1013 NOSIG
2026-04-27 05:20:00,METAR LGRP 270520Z 23011KT CAVOK 20/13 Q1012 NOSIG
2026-04-27 04:50:00,METAR LGRP 270450Z 26008KT CAVOK 19/13 Q1012 NOSIG
2026-04-27 04:20:00,METAR LGRP 270420Z 24006KT CAVOK 19/13 Q1012 NOSIG
2026-04-27 03:50:00,METAR LGRP 270350Z 23009KT CAVOK 19/12 Q1012 NOSIG
2026-04-27 03:20:00,METAR LGRP 270320Z 23008KT CAVOK 18/13 Q1012 NOSIG
2026-04-27 02:50:00,METAR LGRP 270250Z 24008KT 9999 FEW014 18/12 Q1012 NOSIG
2026-04-27 02:20:00,METAR LGRP 270220Z 23007KT 9999 SCT025 18/12 Q1012 NOSIG
2026-04-27 01:50:00,METAR LGRP 270150Z 24010KT 9999 SCT025 18/12 Q1012 NOSIG
2026-04-27 01:20:00,METAR LGRP 270120Z 27007KT 250V310 9999 SCT025 18/12 Q1012 NOSIG
2026-04-27 00:50:00,METAR LGRP 270050Z 24006KT 200V260 9999 SCT025 18/12 Q1012 NOSIG
2026-04-27 00:20:00,METAR LGRP 270020Z 23008KT 9999 SCT025 19/11 Q1012 NOSIG
2026-04-26 23:50:00,METAR LGRP 262350Z 23006KT 9999 SCT025 19/12 Q1012 NOSIG
2026-04-26 23:20:00,METAR LGRP 262320Z 23005KT 9999 SCT025 18/12 Q1012 NOSIG
2026-04-26 22:50:00,METAR LGRP 262250Z VRB02KT 9999 SCT025 19/12 Q1012 NOSIG
2026-04-26 22:20:00,METAR LGRP 262220Z 22006KT 9999 SCT025 19/11 Q1012 NOSIG
2026-04-26 21:50:00,METAR LGRP 262150Z 25009KT 9999 SCT025 19/12 Q1012 NOSIG
2026-04-26 21:20:00,METAR LGRP 262120Z 23007KT 9999 SCT025 19/13 Q1012 NOSIG
2026-04-26 20:50:00,METAR LGRP 262050Z VRB02KT 9999 SCT025 18/12 Q1012 NOSIG
2026-04-26 20:20:00,METAR LGRP 262020Z VRB02KT 9999 SCT025 18/13 Q1012 NOSIG
2026-04-26 19:50:00,METAR LGRP 261950Z VRB02KT 9999 SCT025 18/13 Q1012 NOSIG
2026-04-26 19:20:00,METAR LGRP 261920Z VRB02KT 9999 SCT025 19/13 Q1012 NOSIG
2026-04-26 18:50:00,METAR LGRP 261850Z VRB03KT 9999 SCT025 19/13 Q1011 NOSIG
2026-04-26 18:20:00,METAR LGRP 261820Z 24003KT 9999 SCT025 20/13 Q1011 NOSIG
2026-04-26 17:50:00,METAR LGRP 261750Z 24004KT 210V320 9999 SCT025 20/14 Q1011 NOSIG
2026-04-26 17:20:00,METAR LGRP 261720Z 31007KT 280V350 9999 SCT025 21/13 Q1011 NOSIG
2026-04-26 16:50:00,METAR LGRP 261650Z 25009KT 220V280 9999 SCT025 21/12 Q1011 NOSIG
2026-04-26 16:20:00,METAR LGRP 261620Z 20006KT 160V240 9999 SCT025 21/14 Q1010 NOSIG
2026-04-26 15:50:00,METAR LGRP 261550Z 24009KT 9999 FEW018TCU SCT025 21/16 Q1010 NOSIG
2026-04-26 15:20:00,METAR LGRP 261520Z VRB03KT 9999 FEW018TCU SCT025 20/17 Q1011 NOSIG
2026-04-26 14:50:00,METAR LGRP 261450Z 04007KT 9999 FEW018TCU SCT025 21/16 Q1011 NOSIG
2026-04-26 14:20:00,METAR LGRP 261420Z VRB03KT 9999 FEW018TCU SCT025 21/16 Q1010 NOSIG
2026-04-26 13:50:00,METAR LGRP 261350Z VRB03KT 9999 -RA FEW018TCU SCT025 22/16 Q1010 NOSIG
2026-04-26 13:20:00,METAR LGRP 261320Z VRB01KT 9999 FEW018TCU SCT025 22/17 Q1010 NOSIG
2026-04-26 12:50:00,METAR LGRP 261250Z 28006KT 9999 FEW018TCU SCT025 24/15 Q1010 NOSIG
2026-04-26 12:20:00,METAR LGRP 261220Z 29006KT 250V330 9999 FEW018TCU SCT025 23/14 Q1010 NOSIG
2026-04-26 11:50:00,METAR LGRP 261150Z 28008KT 9999 FEW018 SCT025 24/16 Q1010 NOSIG
2026-04-26 11:20:00,METAR LGRP 261120Z 26008KT 9999 FEW018 SCT025 24/15 Q1010 NOSIG
2026-04-26 10:50:00,METAR LGRP 261050Z 29005KT 250V330 9999 FEW018 SCT030 24/15 Q1010 NOSIG
2026-04-26 10:20:00,METAR LGRP 261020Z 28004KT 240V310 9999 FEW018 SCT030 24/13 Q1010 NOSIG
2026-04-26 09:50:00,METAR LGRP 260950Z 29005KT 250V310 9999 SCT025 23/13 Q1010 NOSIG
2026-04-26 09:20:00,METAR LGRP 260920Z VRB03KT 9999 SCT025 23/14 Q1010 NOSIG
2026-04-26 08:50:00,METAR LGRP 260850Z 29004KT 9999 SCT030 22/15 Q1010 NOSIG
2026-04-26 08:20:00,METAR LGRP 260820Z 27004KT 230V310 9999 SCT030 22/13 Q1010 NOSIG
2026-04-26 07:50:00,METAR LGRP 260750Z 26005KT 9999 FEW030 22/14 Q1010 NOSIG
2026-04-26 07:20:00,METAR LGRP 260720Z 28004KT 9999 FEW030 21/15 Q1010 NOSIG
2026-04-26 06:50:00,METAR LGRP 260650Z VRB03KT 9999 FEW025 21/15 Q1010 NOSIG
2026-04-26 06:20:00,METAR LGRP 260620Z VRB02KT 9999 FEW025 21/14 Q1010 NOSIG
2026-04-26 05:50:00,METAR LGRP 260550Z VRB02KT 9999 FEW025 20/16 Q1010 NOSIG
2026-04-26 05:20:00,METAR LGRP 260520Z VRB02KT 9999 FEW025 19/16 Q1009 NOSIG
2026-04-26 04:50:00,METAR LGRP 260450Z VRB03KT 9999 SCT025 18/15 Q1009 NOSIG
2026-04-26 04:20:00,METAR LGRP 260420Z VRB03KT 9999 SCT025 16/15 Q1009 NOSIG
2026-04-26 03:50:00,METAR LGRP 260350Z VRB01KT 9999 FEW025 16/14 Q1009 NOSIG
2026-04-26 03:20:00,METAR LGRP 260320Z VRB02KT CAVOK 16/15 Q1009 NOSIG
2026-04-26 02:50:00,METAR LGRP 260250Z VRB02KT CAVOK 16/15 Q1009 NOSIG
2026-04-26 01:50:00,METAR LGRP 260150Z VRB02KT CAVOK 17/15 Q1009 NOSIG
2026-04-26 01:20:00,METAR LGRP 260120Z VRB02KT CAVOK 17/13 Q1009 NOSIG
2026-04-26 00:50:00,METAR LGRP 260050Z VRB03KT CAVOK 17/14 Q1009 NOSIG
2026-04-26 00:20:00,METAR LGRP 260020Z 11004KT CAVOK 17/15 Q1009 NOSIG
2026-04-25 23:50:00,METAR LGRP 252350Z 10004KT 030V160 CAVOK 18/15 Q1009 NOSIG
2026-04-25 23:20:00,METAR LGRP 252320Z 10007KT 050V140 CAVOK 18/15 Q1009 NOSIG
2026-04-25 22:50:00,METAR LGRP 252250Z 12008KT 090V160 CAVOK 19/15 Q1010 NOSIG
2026-04-25 22:20:00,METAR LGRP 252220Z 13009KT CAVOK 19/15 Q1010 NOSIG
2026-04-25 21:50:00,METAR LGRP 252150Z 14010KT CAVOK 20/14 Q1010 NOSIG
2026-04-25 21:20:00,METAR LGRP 252120Z 13011KT CAVOK 19/15 Q1010 NOSIG
2026-04-25 20:50:00,METAR LGRP 252050Z 13011KT CAVOK 19/15 Q1010 NOSIG
2026-04-25 20:20:00,METAR LGRP 252020Z 14011KT CAVOK 20/13 Q1010 NOSIG
2026-04-25 19:50:00,METAR LGRP 251950Z 14010KT CAVOK 20/14 Q1010 NOSIG
2026-04-25 19:20:00,METAR LGRP 251920Z 15006KT 110V200 CAVOK 20/13 Q1010 NOSIG
2026-04-25 18:50:00,METAR LGRP 251850Z VRB03KT CAVOK 20/13 Q1010 NOSIG
2026-04-25 18:20:00,METAR LGRP 251820Z VRB03KT CAVOK 19/13 Q1010 NOSIG
2026-04-25 17:50:00,METAR LGRP 251750Z VRB03KT CAVOK 19/14 Q1010 NOSIG
2026-04-25 17:20:00,METAR LGRP 251720Z VRB03KT CAVOK 20/14 Q1010 NOSIG
2026-04-25 16:50:00,METAR LGRP 251650Z 00000KT CAVOK 20/14 Q1009 NOSIG
2026-04-25 16:20:00,METAR LGRP 251620Z VRB02KT CAVOK 21/14 Q1009 NOSIG
2026-04-25 15:50:00,METAR LGRP 251550Z 04004KT CAVOK 21/14 Q1010 NOSIG
2026-04-25 15:20:00,METAR LGRP 251520Z 04006KT CAVOK 21/14 Q1010 NOSIG
2026-04-25 14:50:00,METAR LGRP 251450Z 03008KT CAVOK 22/14 Q1010 NOSIG
2026-04-25 14:20:00,METAR LGRP 251420Z 04010KT 9999 FEW025 21/15 Q1010 NOSIG
2026-04-25 13:50:00,METAR LGRP 251350Z 07008KT 040V110 9999 FEW025 21/14 Q1010 NOSIG
2026-04-25 13:20:00,METAR LGRP 251320Z 08008KT 050V130 9999 FEW018 21/15 Q1010 NOSIG
2026-04-25 12:50:00,METAR LGRP 251250Z 09007KT 050V130 9999 FEW018 21/16 Q1011 NOSIG
2026-04-25 12:20:00,METAR LGRP 251220Z 04010KT 9999 FEW018 20/16 Q1011 NOSIG
2026-04-25 11:50:00,METAR LGRP 251150Z 05017KT 9999 FEW018 21/16 Q1011 NOSIG
2026-04-25 11:20:00,METAR LGRP 251120Z 06015KT 9999 FEW018 21/16 Q1011 NOSIG
2026-04-25 10:50:00,METAR LGRP 251050Z 04013KT 9999 FEW018 21/16 Q1011 NOSIG
2026-04-25 10:20:00,METAR LGRP 251020Z 02007KT 9999 FEW018 20/15 Q1012 NOSIG
2026-04-25 09:50:00,METAR LGRP 250950Z VRB03KT 9999 FEW018 20/14 Q1012 NOSIG
2026-04-25 09:20:00,METAR LGRP 250920Z 29005KT 9999 FEW018 20/13 Q1012 NOSIG
2026-04-25 08:50:00,METAR LGRP 250850Z 25007KT 9999 FEW018 19/14 Q1012 NOSIG
2026-04-25 08:20:00,METAR LGRP 250820Z 25011KT 9999 SCT018 19/12 Q1012 NOSIG
2026-04-25 07:50:00,METAR LGRP 250750Z 23004KT 190V270 9999 SCT018 20/13 Q1012 NOSIG
2026-04-25 07:20:00,METAR LGRP 250720Z VRB05KT 9999 SCT018 20/13 Q1011 NOSIG
2026-04-25 06:50:00,METAR LGRP 250650Z 09008KT 050V120 9999 FEW018 20/15 Q1010 NOSIG
2026-04-25 06:20:00,METAR LGRP 250620Z 08008KT 050V150 9999 FEW018 19/15 Q1010 NOSIG
2026-04-25 05:50:00,METAR LGRP 250550Z 07006KT 9999 FEW018 18/15 Q1010 NOSIG
2026-04-25 05:20:00,METAR LGRP 250520Z 10005KT 9999 FEW018 17/15 Q1010 NOSIG
2026-04-25 04:50:00,METAR LGRP 250450Z 11005KT 9999 FEW018 16/14 Q1010 NOSIG
2026-04-25 04:20:00,METAR LGRP 250420Z VRB03KT 9999 FEW018 16/14 Q1009 NOSIG
2026-04-25 03:50:00,METAR LGRP 250350Z 09004KT 9999 FEW018 16/13 Q1009 NOSIG
2026-04-25 03:20:00,METAR LGRP 250320Z VRB03KT 9999 FEW018 15/12 Q1009 NOSIG
2026-04-25 02:50:00,METAR LGRP 250250Z VRB03KT 9999 FEW018 15/12 Q1009 NOSIG
2026-04-25 02:20:00,METAR LGRP 250220Z VRB03KT 9999 FEW018 15/12 Q1010 NOSIG
2026-04-25 01:50:00,METAR LGRP 250150Z VRB03KT 9999 FEW018 15/12 Q1010 NOSIG
2026-04-25 01:20:00,METAR LGRP 250120Z VRB03KT 9999 FEW018 14/12 Q1010 NOSIG
2026-04-25 00:50:00,METAR LGRP 250050Z VRB02KT 9999 FEW018 14/11 Q1010 NOSIG
2026-04-25 00:20:00,METAR LGRP 250020Z 13004KT 9999 FEW018 13/11 Q1010 NOSIG
2026-04-24 23:50:00,METAR LGRP 242350Z VRB02KT 9999 FEW018 13/11 Q1010 NOSIG
2026-04-24 23:20:00,METAR LGRP 242320Z 00000KT 9999 FEW018 13/11 Q1010 NOSIG
2026-04-24 22:50:00,METAR LGRP 242250Z VRB03KT 9999 FEW018 14/11 Q1010 NOSIG
2026-04-24 22:20:00,METAR LGRP 242220Z 13004KT 9999 FEW018 14/11 Q1010 NOSIG
2026-04-24 21:50:00,METAR LGRP 242150Z VRB02KT 9999 FEW018 13/11 Q1011 NOSIG
2026-04-24 21:20:00,METAR LGRP 242120Z VRB01KT 9999 FEW018 13/10 Q1011 NOSIG
2026-04-24 20:50:00,METAR LGRP 242050Z 00000KT 9999 FEW018 14/10 Q1011 NOSIG
2026-04-24 20:20:00,METAR LGRP 242020Z 00000KT 9999 FEW018 14/10 Q1011 NOSIG
2026-04-24 19:50:00,METAR LGRP 241950Z VRB03KT 9999 FEW018 14/10 Q1011 NOSIG
2026-04-24 19:20:00,METAR LGRP 241920Z 00000KT 9999 FEW018 15/10 Q1011 NOSIG
2026-04-24 18:50:00,METAR LGRP 241850Z VRB03KT 9999 FEW018 16/10 Q1011 NOSIG
2026-04-24 18:20:00,METAR LGRP 241820Z VRB02KT 9999 FEW018 16/10 Q1011 NOSIG
2026-04-24 17:50:00,METAR LGRP 241750Z 21004KT 9999 FEW018 17/09 Q1011 NOSIG
2026-04-24 17:20:00,METAR LGRP 241720Z 21004KT 9999 FEW018 17/10 Q1011 NOSIG
2026-04-24 16:50:00,METAR LGRP 241650Z 21004KT 9999 FEW018 17/10 Q1010 NOSIG
2026-04-24 16:20:00,METAR LGRP 241620Z 25006KT 9999 FEW018 17/10 Q1010 NOSIG
2026-04-24 15:50:00,METAR LGRP 241550Z 28004KT 9999 FEW018 18/09 Q1010 NOSIG
2026-04-24 15:20:00,METAR LGRP 241520Z 27005KT 9999 FEW018 18/08 Q1010 NOSIG
2026-04-24 14:50:00,METAR LGRP 241450Z 27005KT 9999 FEW018 19/08 Q1010 NOSIG
2026-04-24 14:20:00,METAR LGRP 241420Z 25004KT 9999 FEW018 19/09 Q1010 NOSIG
2026-04-24 13:50:00,METAR LGRP 241350Z 27006KT 9999 FEW018 18/09 Q1010 NOSIG
2026-04-24 13:20:00,METAR LGRP 241320Z 27007KT 9999 FEW018 19/09 Q1010 NOSIG
2026-04-24 12:50:00,METAR LGRP 241250Z 26008KT 9999 FEW018 19/09 Q1010 NOSIG
2026-04-24 12:20:00,METAR LGRP 241220Z 26008KT 9999 FEW018 19/09 Q1010 NOSIG
2026-04-24 11:50:00,METAR LGRP 241150Z 25008KT 9999 FEW018 18/10 Q1011 NOSIG
2026-04-24 11:20:00,METAR LGRP 241120Z 26008KT 9999 FEW018 18/11 Q1011 NOSIG
2026-04-24 10:50:00,METAR LGRP 241050Z 26009KT 9999 FEW018 18/11 Q1011 NOSIG
2026-04-24 10:20:00,METAR LGRP 241020Z 27008KT 9999 FEW018 19/12 Q1011 NOSIG
2026-04-24 09:50:00,METAR LGRP 240950Z 29009KT 9999 FEW018 18/11 Q1011 NOSIG
2026-04-24 09:20:00,METAR LGRP 240920Z 29008KT 9999 FEW018 18/11 Q1011 NOSIG
2026-04-24 08:50:00,METAR LGRP 240850Z 29007KT 9999 FEW018 18/11 Q1011 NOSIG
2026-04-24 08:20:00,METAR LGRP 240820Z 29006KT 260V330 9999 FEW018 17/11 Q1011 NOSIG
2026-04-24 07:50:00,METAR LGRP 240750Z 30006KT 270V340 9999 FEW018 17/11 Q1011 NOSIG
2026-04-24 07:20:00,METAR LGRP 240720Z 31009KT 9999 FEW018 17/11 Q1011 NOSIG
2026-04-24 06:50:00,METAR LGRP 240650Z 30009KT 9999 FEW018 17/11 Q1010 NOSIG
2026-04-24 06:20:00,METAR LGRP 240620Z 30009KT 9999 FEW018 17/10 Q1010 NOSIG
2026-04-24 05:50:00,METAR LGRP 240550Z 31009KT 9999 FEW018 17/11 Q1010 NOSIG
2026-04-24 05:20:00,METAR LGRP 240520Z 31012KT 9999 FEW018 16/11 Q1010 NOSIG
2026-04-24 04:50:00,METAR LGRP 240450Z 31010KT 9999 FEW018 16/11 Q1010 NOSIG
2026-04-24 04:20:00,METAR LGRP 240420Z 31010KT 9999 FEW018 16/12 Q1009 NOSIG
2026-04-24 03:50:00,METAR LGRP 240350Z 30010KT CAVOK 16/11 Q1010 NOSIG
2026-04-24 03:20:00,METAR LGRP 240320Z 31009KT 9999 FEW020 16/12 Q1010 NOSIG
2026-04-24 02:50:00,METAR LGRP 240250Z 31009KT 9999 FEW020 16/12 Q1009 NOSIG
2026-04-24 02:20:00,METAR LGRP 240220Z VRB03KT 9999 FEW020 15/12 Q1009 NOSIG
2026-04-24 01:50:00,METAR LGRP 240150Z VRB03KT 9999 FEW020 16/12 Q1009 NOSIG
2026-04-24 01:20:00,METAR LGRP 240120Z VRB01KT 9999 FEW020 15/12 Q1009 NOSIG
2026-04-24 00:50:00,METAR LGRP 240050Z VRB03KT 9999 FEW020 15/12 Q1010 NOSIG
2026-04-24 00:20:00,METAR LGRP 240020Z VRB02KT 9999 FEW020 15/12 Q1010 NOSIG
2026-04-23 23:50:00,METAR LGRP 232350Z VRB02KT 9999 FEW020 15/12 Q1010 NOSIG
2026-04-23 23:20:00,METAR LGRP 232320Z VRB03KT 9999 FEW020 16/11 Q1010 NOSIG
2026-04-23 22:50:00,METAR LGRP 232250Z 31008KT 9999 FEW020 16/11 Q1010 NOSIG
2026-04-23 22:20:00,METAR LGRP 232220Z 31007KT 9999 FEW020 17/11 Q1010 NOSIG
2026-04-23 21:50:00,METAR LGRP 232150Z 31008KT 9999 FEW020 17/11 Q1011 NOSIG
2026-04-23 21:20:00,METAR LGRP 232120Z 30009KT 9999 FEW020 17/11 Q1011 NOSIG
2026-04-23 20:50:00,METAR LGRP 232050Z 31009KT 9999 FEW020 17/11 Q1010 NOSIG
2026-04-23 20:20:00,METAR LGRP 232020Z 31007KT 9999 FEW020 17/13 Q1010 NOSIG
2026-04-23 19:50:00,METAR LGRP 231950Z 28008KT 9999 FEW020 17/13 Q1010 NOSIG
2026-04-23 19:20:00,METAR LGRP 231920Z 29008KT 9999 FEW020 17/13 Q1010 NOSIG
2026-04-23 18:50:00,METAR LGRP 231850Z 28008KT 9999 FEW020 17/14 Q1010 NOSIG
2026-04-23 18:20:00,METAR LGRP 231820Z 29007KT 9999 FEW020 17/14 Q1010 NOSIG
2026-04-23 17:50:00,METAR LGRP 231750Z 30009KT 9999 FEW020 17/14 Q1010 NOSIG
2026-04-23 17:20:00,METAR LGRP 231720Z 30009KT 9999 FEW020 18/14 Q1010 NOSIG
2026-04-23 16:50:00,METAR LGRP 231650Z 29009KT 9999 FEW015 18/14 Q1010 NOSIG
2026-04-23 16:20:00,METAR LGRP 231620Z 30007KT 9999 FEW020 SCT040 18/14 Q1009 NOSIG
2026-04-23 15:50:00,METAR LGRP 231550Z 27010KT 9999 FEW020 SCT040 19/14 Q1009 NOSIG
2026-04-23 15:20:00,METAR LGRP 231520Z 27011KT 9999 FEW020 20/15 Q1009 NOSIG
2026-04-23 14:50:00,METAR LGRP 231450Z 27010KT 9999 FEW020 20/15 Q1009 NOSIG
2026-04-23 14:20:00,METAR LGRP 231420Z 27009KT 9999 FEW020 20/15 Q1009 NOSIG
2026-04-23 13:50:00,METAR LGRP 231350Z 26011KT 9999 FEW020 20/15 Q1009 NOSIG
2026-04-23 13:20:00,METAR LGRP 231320Z 27009KT 9999 FEW020 21/15 Q1009 NOSIG
2026-04-23 12:50:00,METAR LGRP 231250Z 27008KT 9999 FEW020 21/14 Q1009 NOSIG
2026-04-23 12:20:00,METAR LGRP 231220Z 29008KT 9999 FEW020 21/13 Q1010 NOSIG
2026-04-23 11:50:00,METAR LGRP 231150Z 28007KT 9999 FEW020 21/13 Q1010 NOSIG
2026-04-23 11:20:00,METAR LGRP 231120Z 26006KT 220V310 9999 FEW020 21/12 Q1010 NOSIG
2026-04-23 10:50:00,METAR LGRP 231050Z VRB04KT 9999 SCT020 21/13 Q1010 NOSIG
2026-04-23 10:20:00,METAR LGRP 231020Z 34005KT 290V070 9999 SCT020 21/13 Q1010 NOSIG
2026-04-23 09:50:00,METAR LGRP 230950Z 33005KT 290V010 9999 SCT020 21/14 Q1010 NOSIG
2026-04-23 09:20:00,METAR LGRP 230920Z 34006KT 300V360 9999 SCT020 20/14 Q1010 NOSIG
2026-04-23 08:50:00,METAR LGRP 230850Z 35004KT 9999 FEW018 20/15 Q1010 NOSIG
2026-04-23 08:20:00,METAR LGRP 230820Z 34005KT 9999 FEW020 20/14 Q1011 NOSIG
2026-04-23 07:50:00,METAR LGRP 230750Z 35006KT 9999 FEW020 19/14 Q1011 NOSIG
2026-04-23 07:20:00,METAR LGRP 230720Z 33005KT 9999 SCT025 19/14 Q1011 NOSIG
2026-04-23 06:50:00,METAR LGRP 230650Z VRB03KT 9999 SCT025 19/13 Q1011 NOSIG
2026-04-23 06:20:00,METAR LGRP 230620Z VRB03KT 9999 SCT020 19/14 Q1011 NOSIG
2026-04-23 05:50:00,METAR LGRP 230550Z VRB02KT 9999 FEW018 18/14 Q1010 NOSIG
2026-04-23 05:20:00,METAR LGRP 230520Z VRB02KT 9999 FEW018 17/14 Q1010 NOSIG
2026-04-23 04:50:00,METAR LGRP 230450Z VRB02KT 9999 FEW016 16/14 Q1010 NOSIG
2026-04-23 04:20:00,METAR LGRP 230420Z VRB02KT 9999 FEW016 15/12 Q1010 NOSIG
2026-04-23 03:20:00,METAR LGRP 230320Z VRB03KT 9999 FEW018 15/12 Q1010 NOSIG
2026-04-23 02:50:00,METAR LGRP 230250Z VRB03KT CAVOK 14/12 Q1009 NOSIG
2026-04-23 02:20:00,METAR LGRP 230220Z 13004KT CAVOK 14/12 Q1009 NOSIG
2026-04-23 01:50:00,METAR LGRP 230150Z VRB01KT CAVOK 13/11 Q1010 NOSIG
2026-04-23 01:20:00,METAR LGRP 230120Z 12004KT CAVOK 14/12 Q1010 NOSIG
2026-04-23 00:50:00,METAR LGRP 230050Z VRB03KT CAVOK 14/12 Q1010 NOSIG
2026-04-23 00:20:00,METAR LGRP 230020Z VRB03KT CAVOK 13/11 Q1010 NOSIG
2026-04-22 23:50:00,METAR LGRP 222350Z 12004KT CAVOK 13/12 Q1010 NOSIG
2026-04-22 23:20:00,METAR LGRP 222320Z VRB03KT CAVOK 13/11 Q1010 NOSIG
2026-04-22 22:50:00,METAR LGRP 222250Z VRB02KT CAVOK 14/12 Q1010 NOSIG
2026-04-22 22:20:00,METAR LGRP 222220Z 13004KT CAVOK 15/13 Q1010 NOSIG
2026-04-22 21:50:00,METAR LGRP 222150Z 13005KT CAVOK 15/13 Q1011 NOSIG
2026-04-22 21:20:00,METAR LGRP 222120Z VRB02KT CAVOK 14/13 Q1011 NOSIG
2026-04-22 20:50:00,METAR LGRP 222050Z VRB03KT CAVOK 15/13 Q1011 NOSIG
2026-04-22 20:20:00,METAR LGRP 222020Z VRB03KT CAVOK 15/13 Q1011 NOSIG
2026-04-22 19:50:00,METAR LGRP 221950Z 13004KT CAVOK 16/14 Q1011 NOSIG
2026-04-22 19:20:00,METAR LGRP 221920Z 00000KT 9999 FEW018 16/13 Q1011 NOSIG
2026-04-22 18:50:00,METAR LGRP 221850Z VRB03KT 9999 FEW018 16/13 Q1011 NOSIG
2026-04-22 18:20:00,METAR LGRP 221820Z VRB03KT 9999 FEW018 17/14 Q1011 NOSIG
2026-04-22 17:50:00,METAR LGRP 221750Z VRB02KT 9999 FEW018 18/14 Q1011 NOSIG
2026-04-22 17:20:00,METAR LGRP 221720Z VRB03KT 9999 FEW018 18/14 Q1011 NOSIG
2026-04-22 16:50:00,METAR LGRP 221650Z 12004KT 090V150 9999 FEW018 18/15 Q1011 NOSIG
2026-04-22 16:20:00,METAR LGRP 221620Z 12005KT 090V150 9999 FEW018 19/14 Q1011 NOSIG
2026-04-22 15:50:00,METAR LGRP 221550Z 10006KT 080V150 9999 FEW018 20/13 Q1011 NOSIG
2026-04-22 15:20:00,METAR LGRP 221520Z 07006KT 010V120 9999 FEW018 20/14 Q1011 NOSIG
2026-04-22 14:50:00,METAR LGRP 221450Z 01005KT 9999 SCT018 20/14 Q1012 NOSIG
2026-04-22 14:20:00,METAR LGRP 221420Z 35005KT 320V040 9999 SCT018 20/13 Q1012 NOSIG
2026-04-22 13:50:00,METAR LGRP 221350Z 28005KT 9999 SCT018 21/07 Q1012 NOSIG
2026-04-22 13:20:00,METAR LGRP 221320Z 27007KT 9999 SCT018 21/13 Q1012 NOSIG
2026-04-22 12:50:00,METAR LGRP 221250Z 28006KT 9999 SCT018 21/13 Q1012 NOSIG
2026-04-22 12:20:00,METAR LGRP 221220Z 28007KT 240V330 9999 SCT018 21/13 Q1012 NOSIG
2026-04-22 11:50:00,METAR LGRP 221150Z 27008KT 9999 SCT018 21/15 Q1012 NOSIG
2026-04-22 11:20:00,METAR LGRP 221120Z 26007KT 9999 SCT018 20/15 Q1013 NOSIG
2026-04-22 10:50:00,METAR LGRP 221050Z 26008KT 9999 SCT018 20/15 Q1013 NOSIG
2026-04-22 10:20:00,METAR LGRP 221020Z 26009KT 9999 FEW017 21/15 Q1013 NOSIG
2026-04-22 09:50:00,METAR LGRP 220950Z 26011KT 9999 FEW017 21/15 Q1013 NOSIG
2026-04-22 09:20:00,METAR LGRP 220920Z 26008KT 9999 FEW018 21/15 Q1013 NOSIG
2026-04-22 08:50:00,METAR LGRP 220850Z 25007KT 9999 FEW018 21/15 Q1013 NOSIG
2026-04-22 08:20:00,METAR LGRP 220820Z VRB04KT 9999 FEW018 22/14 Q1013 NOSIG
2026-04-22 07:50:00,METAR LGRP 220750Z 09008KT 060V160 9999 FEW018 22/15 Q1013 NOSIG
2026-04-22 07:20:00,METAR LGRP 220720Z 03007KT 360V090 9999 FEW016 21/14 Q1013 NOSIG
2026-04-22 06:50:00,METAR LGRP 220650Z 08007KT 040V100 9999 FEW016 20/14 Q1013 NOSIG
2026-04-22 06:20:00,METAR LGRP 220620Z VRB04KT 9999 FEW016 20/14 Q1012 NOSIG
2026-04-22 05:50:00,METAR LGRP 220550Z 05004KT 010V070 9999 FEW013 18/15 Q1012 NOSIG
2026-04-22 05:20:00,METAR LGRP 220520Z VRB03KT 9999 FEW013 17/15 Q1012 NOSIG
2026-04-22 04:50:00,METAR LGRP 220450Z VRB03KT 9999 FEW013 16/15 Q1012 NOSIG
2026-04-22 04:20:00,METAR LGRP 220420Z VRB02KT 9999 FEW013 15/14 Q1012 NOSIG
2026-04-22 03:50:00,METAR LGRP 220350Z VRB03KT 9999 FEW018 15/14 Q1012 NOSIG
2026-04-22 03:20:00,METAR LGRP 220320Z VRB02KT 9999 FEW018 15/14 Q1012 NOSIG
2026-04-22 02:50:00,METAR LGRP 220250Z VRB01KT 9999 FEW018 15/14 Q1012 NOSIG
2026-04-22 02:20:00,METAR LGRP 220220Z VRB01KT 9999 FEW018 15/13 Q1012 NOSIG
2026-04-22 01:50:00,METAR LGRP 220150Z VRB02KT 9999 FEW018 15/13 Q1012 NOSIG
2026-04-22 01:20:00,METAR LGRP 220120Z 00000KT 9999 FEW018 16/14 Q1012 NOSIG
2026-04-22 00:50:00,METAR LGRP 220050Z 22004KT 9999 FEW018 16/13 Q1012 NOSIG
2026-04-22 00:20:00,METAR LGRP 220020Z 22005KT 9999 FEW018 16/13 Q1013 NOSIG
2026-04-21 23:50:00,METAR LGRP 212350Z VRB03KT 9999 FEW018 16/13 Q1013 NOSIG
2026-04-21 23:20:00,METAR LGRP 212320Z 23004KT 9999 FEW018 16/13 Q1013 NOSIG
2026-04-21 22:50:00,METAR LGRP 212250Z VRB02KT 9999 FEW018 16/13 Q1013 NOSIG
2026-04-21 22:20:00,METAR LGRP 212220Z VRB03KT 9999 FEW018 16/14 Q1013 NOSIG
2026-04-21 21:50:00,METAR LGRP 212150Z 22005KT 9999 FEW018 16/13 Q1013 NOSIG
2026-04-21 21:20:00,METAR LGRP 212120Z 23005KT 9999 FEW018 16/14 Q1013 NOSIG
2026-04-21 20:50:00,METAR LGRP 212050Z 22006KT 9999 FEW018 16/14 Q1013 NOSIG
2026-04-21 20:20:00,METAR LGRP 212020Z 22004KT 9999 FEW018 16/14 Q1013 NOSIG
2026-04-21 19:50:00,METAR LGRP 211950Z 23006KT 9999 FEW018 17/14 Q1013 NOSIG
2026-04-21 19:20:00,METAR LGRP 211920Z 23006KT 9999 FEW018 16/14 Q1013 NOSIG
2026-04-21 18:50:00,METAR LGRP 211850Z 23006KT 9999 FEW018 17/14 Q1013 NOSIG
2026-04-21 18:20:00,METAR LGRP 211820Z 23006KT 9999 FEW018 17/14 Q1012 NOSIG
2026-04-21 17:50:00,METAR LGRP 211750Z 24008KT 9999 FEW018 17/14 Q1012 NOSIG
2026-04-21 17:20:00,METAR LGRP 211720Z 24009KT 9999 FEW018 17/15 Q1012 NOSIG
2026-04-21 16:50:00,METAR LGRP 211650Z 25010KT 9999 FEW018 18/15 Q1012 NOSIG
2026-04-21 16:20:00,METAR LGRP 211620Z 25012KT 9999 FEW018 18/15 Q1012 NOSIG
2026-04-21 15:50:00,METAR LGRP 211550Z 26014KT 9999 FEW018 19/14 Q1012 NOSIG
2026-04-21 15:20:00,METAR LGRP 211520Z 26014KT 9999 FEW018 19/14 Q1012 NOSIG
2026-04-21 14:50:00,METAR LGRP 211450Z 25015KT 9999 FEW018 19/14 Q1012 NOSIG
2026-04-21 14:20:00,METAR LGRP 211420Z 26014KT 9999 FEW018 19/14 Q1012 NOSIG
2026-04-21 13:50:00,METAR LGRP 211350Z 26014KT 9999 FEW018 20/15 Q1012 NOSIG
2026-04-21 13:20:00,METAR LGRP 211320Z 25014KT 9999 FEW018 20/14 Q1012 NOSIG
2026-04-21 12:50:00,METAR LGRP 211250Z 26014KT 9999 FEW018 20/14 Q1012 NOSIG
2026-04-21 12:20:00,METAR LGRP 211220Z 26014KT 9999 FEW018 20/14 Q1013 NOSIG
2026-04-21 11:50:00,METAR LGRP 211150Z 26013KT 9999 FEW018 20/14 Q1013 NOSIG
2026-04-21 11:20:00,METAR LGRP 211120Z 26013KT 9999 FEW018 20/15 Q1013 NOSIG
2026-04-21 10:50:00,METAR LGRP 211050Z 26012KT 9999 FEW018 20/15 Q1013 NOSIG
2026-04-21 10:20:00,METAR LGRP 211020Z 26013KT 9999 FEW018 20/15 Q1013 NOSIG
2026-04-21 09:50:00,METAR LGRP 210950Z 26013KT 9999 FEW018 20/15 Q1013 NOSIG
2026-04-21 09:20:00,METAR LGRP 210920Z 26012KT 9999 FEW018 20/15 Q1013 NOSIG
2026-04-21 08:50:00,METAR LGRP 210850Z 26013KT 9999 FEW017 19/15 Q1013 NOSIG
2026-04-21 08:20:00,METAR LGRP 210820Z 26014KT 9999 FEW017 19/15 Q1013 NOSIG
2026-04-21 07:50:00,METAR LGRP 210750Z 26014KT 9999 FEW017 19/15 Q1013 NOSIG
2026-04-21 07:20:00,METAR LGRP 210720Z 25014KT 9999 FEW016 19/15 Q1013 NOSIG
2026-04-21 06:50:00,METAR LGRP 210650Z 25013KT 9999 FEW016 19/16 Q1013 NOSIG
2026-04-21 06:20:00,METAR LGRP 210620Z 26012KT 9999 FEW015 18/16 Q1013 NOSIG
2026-04-21 05:50:00,METAR LGRP 210550Z 24011KT 9999 FEW015 18/16 Q1012 NOSIG
2026-04-21 05:20:00,METAR LGRP 210520Z 25008KT 9999 FEW016 17/15 Q1012 NOSIG
2026-04-21 04:50:00,METAR LGRP 210450Z 24007KT 9999 FEW016 17/15 Q1012 NOSIG
2026-04-21 04:20:00,METAR LGRP 210420Z 24009KT 9999 FEW016 16/15 Q1012 NOSIG
2026-04-21 03:50:00,METAR LGRP 210350Z 23008KT 9999 FEW020 16/15 Q1012 NOSIG
2026-04-21 03:20:00,METAR LGRP 210320Z 22004KT CAVOK 16/14 Q1012 NOSIG
2026-04-21 02:50:00,METAR LGRP 210250Z 24007KT CAVOK 16/15 Q1012 NOSIG
2026-04-21 02:20:00,METAR LGRP 210220Z 23007KT CAVOK 16/15 Q1012 NOSIG
2026-04-21 01:50:00,METAR LGRP 210150Z 24008KT CAVOK 16/15 Q1012 NOSIG
2026-04-21 01:20:00,METAR LGRP 210120Z 24008KT CAVOK 16/14 Q1012 NOSIG
2026-04-21 00:50:00,METAR LGRP 210050Z 24008KT CAVOK 16/13 Q1012 NOSIG
2026-04-21 00:20:00,METAR LGRP 210020Z 24009KT CAVOK 16/14 Q1012 NOSIG
2026-04-20 23:50:00,METAR LGRP 202350Z 25012KT CAVOK 16/14 Q1012 NOSIG
2026-04-20 23:20:00,METAR LGRP 202320Z 24009KT CAVOK 16/13 Q1012 NOSIG
2026-04-20 22:50:00,METAR LGRP 202250Z 23007KT CAVOK 16/13 Q1012 NOSIG
2026-04-20 22:20:00,METAR LGRP 202220Z 24007KT CAVOK 17/13 Q1012 NOSIG
2026-04-20 21:50:00,METAR LGRP 202150Z 24009KT CAVOK 17/13 Q1012 NOSIG
2026-04-20 20:50:00,METAR LGRP 202050Z 24009KT CAVOK 17/14 Q1012 NOSIG
2026-04-20 20:20:00,METAR LGRP 202020Z 24011KT CAVOK 17/13 Q1012 NOSIG
2026-04-20 19:50:00,METAR LGRP 201950Z 24010KT CAVOK 17/12 Q1012 NOSIG
2026-04-20 19:20:00,METAR LGRP 201920Z 23009KT CAVOK 17/12 Q1012 NOSIG
2026-04-20 18:50:00,METAR LGRP 201850Z 23011KT CAVOK 17/13 Q1012 NOSIG
2026-04-20 18:20:00,METAR LGRP 201820Z 23010KT CAVOK 17/12 Q1012 NOSIG
2026-04-20 17:50:00,METAR LGRP 201750Z 22011KT CAVOK 18/13 Q1011 NOSIG
2026-04-20 17:20:00,METAR LGRP 201720Z 25012KT CAVOK 18/14 Q1011 NOSIG
2026-04-20 16:50:00,METAR LGRP 201650Z 24013KT CAVOK 19/13 Q1011 NOSIG
2026-04-20 16:20:00,METAR LGRP 201620Z 26013KT CAVOK 20/11 Q1011 NOSIG
2026-04-20 15:50:00,METAR LGRP 201550Z 25013KT CAVOK 20/12 Q1011 NOSIG
2026-04-20 15:20:00,METAR LGRP 201520Z 26013KT 9999 FEW025 20/11 Q1011 NOSIG
2026-04-20 14:50:00,METAR LGRP 201450Z 26014KT 9999 FEW025 20/11 Q1011 NOSIG
2026-04-20 14:20:00,METAR LGRP 201420Z 26015KT 9999 FEW025 21/10 Q1011 NOSIG
2026-04-20 13:50:00,METAR LGRP 201350Z 26014KT CAVOK 21/09 Q1011 NOSIG
2026-04-20 13:20:00,METAR LGRP 201320Z 25014KT CAVOK 20/08 Q1011 NOSIG
2026-04-20 12:50:00,METAR LGRP 201250Z 25016KT CAVOK 20/07 Q1011 NOSIG
2026-04-20 12:20:00,METAR LGRP 201220Z 25017KT CAVOK 20/07 Q1011 NOSIG
2026-04-20 11:50:00,METAR LGRP 201150Z 25013KT 9999 FEW018 20/07 Q1011 NOSIG
2026-04-20 11:20:00,METAR LGRP 201120Z 25014KT 9999 FEW018 20/06 Q1011 NOSIG
2026-04-20 10:50:00,METAR LGRP 201050Z 26010KT 9999 FEW018 20/07 Q1012 NOSIG
2026-04-20 10:20:00,METAR LGRP 201020Z 24012KT 9999 FEW018 20/06 Q1012 NOSIG
2026-04-20 09:50:00,METAR LGRP 200950Z 28011KT CAVOK 19/06 Q1012 NOSIG
2026-04-20 09:20:00,METAR LGRP 200920Z 27011KT CAVOK 19/07 Q1012 NOSIG
2026-04-20 08:50:00,METAR LGRP 200850Z 29011KT CAVOK 19/07 Q1012 NOSIG
2026-04-20 08:20:00,METAR LGRP 200820Z 29011KT CAVOK 19/08 Q1012 NOSIG
2026-04-20 07:50:00,METAR LGRP 200750Z 29011KT CAVOK 18/07 Q1012 NOSIG
2026-04-20 07:20:00,METAR LGRP 200720Z 30011KT CAVOK 18/08 Q1012 NOSIG
2026-04-20 06:50:00,METAR LGRP 200650Z 30011KT CAVOK 18/07 Q1012 NOSIG
2026-04-20 06:20:00,METAR LGRP 200620Z 30010KT CAVOK 18/07 Q1012 NOSIG
2026-04-20 05:50:00,METAR LGRP 200550Z 31011KT CAVOK 17/07 Q1011 NOSIG
2026-04-20 05:20:00,METAR LGRP 200520Z 31008KT CAVOK 17/08 Q1011 NOSIG
2026-04-20 04:50:00,METAR LGRP 200450Z 29011KT CAVOK 17/09 Q1011 NOSIG
2026-04-20 04:20:00,METAR LGRP 200420Z 31010KT CAVOK 17/08 Q1011 NOSIG
2026-04-20 03:50:00,METAR LGRP 200350Z 31008KT CAVOK 16/05 Q1011 NOSIG
2026-04-20 03:20:00,METAR LGRP 200320Z 32009KT CAVOK 16/05 Q1011 NOSIG
2026-04-20 02:50:00,METAR LGRP 200250Z 32009KT CAVOK 17/06 Q1011 NOSIG
2026-04-20 02:20:00,METAR LGRP 200220Z 32008KT CAVOK 17/07 Q1011 NOSIG
2026-04-20 01:50:00,METAR LGRP 200150Z 31009KT CAVOK 17/07 Q1011 NOSIG
2026-04-20 01:20:00,METAR LGRP 200120Z 32009KT CAVOK 17/06 Q1011 NOSIG
2026-04-20 00:50:00,METAR LGRP 200050Z 31011KT CAVOK 17/08 Q1011 NOSIG
2026-04-20 00:20:00,METAR LGRP 200020Z 31009KT CAVOK 17/07 Q1011 NOSIG
2026-04-19 23:50:00,METAR LGRP 192350Z 30009KT CAVOK 17/07 Q1011 NOSIG
2026-04-19 23:20:00,METAR LGRP 192320Z 32008KT CAVOK 18/07 Q1011 NOSIG
2026-04-19 22:50:00,METAR LGRP 192250Z 31008KT CAVOK 18/07 Q1011 NOSIG
2026-04-19 22:20:00,METAR LGRP 192220Z 31008KT CAVOK 18/08 Q1011 NOSIG
2026-04-19 21:50:00,METAR LGRP 192150Z 33008KT CAVOK 18/08 Q1011 NOSIG
2026-04-19 21:20:00,METAR LGRP 192120Z 33009KT CAVOK 18/08 Q1011 NOSIG
2026-04-19 20:50:00,METAR LGRP 192050Z 33010KT CAVOK 18/08 Q1011 NOSIG
2026-04-19 20:20:00,METAR LGRP 192020Z 32010KT CAVOK 18/07 Q1011 NOSIG
2026-04-19 19:50:00,METAR LGRP 191950Z 31010KT 9999 FEW018 19/08 Q1011 NOSIG
2026-04-19 19:20:00,METAR LGRP 191920Z 32011KT 9999 FEW018 19/08 Q1010 NOSIG
2026-04-19 18:50:00,METAR LGRP 191850Z 32011KT 9999 FEW018 19/08 Q1010 NOSIG
2026-04-19 18:20:00,METAR LGRP 191820Z 31011KT 9999 FEW018 19/07 Q1010 NOSIG
2026-04-19 17:50:00,METAR LGRP 191750Z 30012KT 9999 FEW018 20/09 Q1010 NOSIG
2026-04-19 17:20:00,METAR LGRP 191720Z 30009KT 9999 FEW018 20/09 Q1009 NOSIG
2026-04-19 16:50:00,METAR LGRP 191650Z 30009KT 9999 FEW018 20/09 Q1009 NOSIG
2026-04-19 16:20:00,METAR LGRP 191620Z 29011KT 9999 FEW018 20/09 Q1009 NOSIG
2026-04-19 15:50:00,METAR LGRP 191550Z 29012KT 9999 FEW018 21/08 Q1008 NOSIG
2026-04-19 15:20:00,METAR LGRP 191520Z 28011KT 9999 FEW018 21/08 Q1008 NOSIG
2026-04-19 14:50:00,METAR LGRP 191450Z 28012KT 9999 FEW018 21/09 Q1008 NOSIG
2026-04-19 14:20:00,METAR LGRP 191420Z 28012KT 9999 FEW018 21/08 Q1008 NOSIG
2026-04-19 13:50:00,METAR LGRP 191350Z 28011KT 9999 FEW018 21/08 Q1008 NOSIG
2026-04-19 13:20:00,METAR LGRP 191320Z 27011KT 9999 FEW018 22/08 Q1008 NOSIG
2026-04-19 12:50:00,METAR LGRP 191250Z 27012KT 9999 FEW018 21/08 Q1008 NOSIG
2026-04-19 12:20:00,METAR LGRP 191220Z 27011KT 9999 FEW018 21/09 Q1008 NOSIG
2026-04-19 11:50:00,METAR LGRP 191150Z 25010KT 9999 FEW018 21/10 Q1008 NOSIG
2026-04-19 11:20:00,METAR LGRP 191120Z 24010KT 9999 FEW018 20/09 Q1008 NOSIG
2026-04-19 10:50:00,METAR LGRP 191050Z 25011KT 9999 FEW018 20/09 Q1008 NOSIG
2026-04-19 10:20:00,METAR LGRP 191020Z 26010KT 9999 FEW018 19/08 Q1008 NOSIG
2026-04-19 09:50:00,METAR LGRP 190950Z 26011KT 9999 FEW018 19/09 Q1009 NOSIG
2026-04-19 09:20:00,METAR LGRP 190920Z 27010KT 9999 FEW018 19/09 Q1009 NOSIG
2026-04-19 08:50:00,METAR LGRP 190850Z 28012KT CAVOK 19/09 Q1008 NOSIG
2026-04-19 08:20:00,METAR LGRP 190820Z 27010KT CAVOK 18/09 Q1008 NOSIG
2026-04-19 07:50:00,METAR LGRP 190750Z 28010KT CAVOK 18/09 Q1008 NOSIG
2026-04-19 07:20:00,METAR LGRP 190720Z 29009KT CAVOK 18/08 Q1008 NOSIG
2026-04-19 06:50:00,METAR LGRP 190650Z 30008KT CAVOK 18/08 Q1008 NOSIG
2026-04-19 06:20:00,METAR LGRP 190620Z 31008KT CAVOK 18/08 Q1007 NOSIG
2026-04-19 05:50:00,METAR LGRP 190550Z 31010KT CAVOK 17/08 Q1007 NOSIG
2026-04-19 05:20:00,METAR LGRP 190520Z 30009KT CAVOK 17/10 Q1007 NOSIG
2026-04-19 04:50:00,METAR LGRP 190450Z 33010KT CAVOK 17/10 Q1007 NOSIG
2026-04-19 04:20:00,METAR LGRP 190420Z 33010KT CAVOK 17/09 Q1006 NOSIG
2026-04-19 03:50:00,METAR LGRP 190350Z 32009KT CAVOK 16/10 Q1006 NOSIG
2026-04-19 03:20:00,METAR LGRP 190320Z 31011KT 9999 FEW025 17/09 Q1006 NOSIG
2026-04-19 02:50:00,METAR LGRP 190250Z 30012KT 9999 FEW025 17/09 Q1006 NOSIG
2026-04-19 02:20:00,METAR LGRP 190220Z 30013KT 9999 FEW025 17/10 Q1006 NOSIG
2026-04-19 01:50:00,METAR LGRP 190150Z 30013KT 9999 FEW025 17/10 Q1005 NOSIG
2026-04-19 01:20:00,METAR LGRP 190120Z 30014KT 9999 FEW025 17/11 Q1006 NOSIG
2026-04-19 00:50:00,METAR LGRP 190050Z 31014KT 9999 FEW025 18/11 Q1005 NOSIG
2026-04-19 00:20:00,METAR LGRP 190020Z 31013KT 9999 FEW025 17/12 Q1005 NOSIG
2026-04-18 23:50:00,METAR LGRP 182350Z 29013KT 9999 FEW025 17/12 Q1005 NOSIG
2026-04-18 23:20:00,METAR LGRP 182320Z 30011KT 9999 FEW025 17/12 Q1005 NOSIG
2026-04-18 22:50:00,METAR LGRP 182250Z 30010KT 9999 FEW025 18/12 Q1005 NOSIG
2026-04-18 22:20:00,METAR LGRP 182220Z 29013KT 9999 FEW025 18/12 Q1005 NOSIG
2026-04-18 21:50:00,METAR LGRP 182150Z 30012KT 9999 FEW025 18/12 Q1005 NOSIG
2026-04-18 21:20:00,METAR LGRP 182120Z 29012KT 9999 FEW025 18/14 Q1005 NOSIG
2026-04-18 20:50:00,METAR LGRP 182050Z 30010KT 9999 FEW025 18/14 Q1005 NOSIG
2026-04-18 20:20:00,METAR LGRP 182020Z 30011KT 9999 FEW025 19/15 Q1005 NOSIG
2026-04-18 19:50:00,METAR LGRP 181950Z 31011KT 9999 FEW025 19/15 Q1005 NOSIG
2026-04-18 19:20:00,METAR LGRP 181920Z 29010KT 9999 FEW025 18/15 Q1004 NOSIG
2026-04-18 18:50:00,METAR LGRP 181850Z 28008KT 9999 FEW025 18/15 Q1004 NOSIG
2026-04-18 18:20:00,METAR LGRP 181820Z 24009KT 9999 FEW025 18/14 Q1004 NOSIG
2026-04-18 17:50:00,METAR LGRP 181750Z 24007KT 9999 FEW025 18/15 Q1004 NOSIG
2026-04-18 17:20:00,METAR LGRP 181720Z 24011KT 9999 FEW025 18/14 Q1004 NOSIG
2026-04-18 16:50:00,METAR LGRP 181650Z 24012KT 9999 FEW025 18/14 Q1003 NOSIG
2026-04-18 16:20:00,METAR LGRP 181620Z 23008KT 9999 FEW025 19/14 Q1003 NOSIG
2026-04-18 15:20:00,METAR LGRP 181520Z 24015KT 9999 FEW025 19/14 Q1003 NOSIG
2026-04-18 14:50:00,METAR LGRP 181450Z 24016KT 9999 FEW025 19/14 Q1003 NOSIG
2026-04-18 14:20:00,METAR LGRP 181420Z 25015KT 9999 FEW025 19/14 Q1003 NOSIG
2026-04-18 13:50:00,METAR LGRP 181350Z 25017KT 9999 FEW025 19/14 Q1003 NOSIG
2026-04-18 13:20:00,METAR LGRP 181320Z 25018KT 9999 FEW025 19/14 Q1003 NOSIG
2026-04-18 12:50:00,METAR LGRP 181250Z 26019KT 9999 FEW025 19/15 Q1003 NOSIG
2026-04-18 12:20:00,METAR LGRP 181220Z 25018KT 9999 FEW025 20/16 Q1003 NOSIG
2026-04-18 11:50:00,METAR LGRP 181150Z 25019KT 9999 FEW025 20/15 Q1003 NOSIG
2026-04-18 11:20:00,METAR LGRP 181120Z 26019KT 9999 FEW025 20/15 Q1003 NOSIG
2026-04-18 10:50:00,METAR LGRP 181050Z 25019KT 9999 FEW025 20/15 Q1003 NOSIG
2026-04-18 10:20:00,METAR LGRP 181020Z 26019KT 9999 FEW025 20/15 Q1003 NOSIG
2026-04-18 09:50:00,METAR LGRP 180950Z 26017KT 9999 FEW020 20/16 Q1003 NOSIG
2026-04-18 09:20:00,METAR LGRP 180920Z 26014KT 9999 FEW020 19/16 Q1003 NOSIG
2026-04-18 08:50:00,METAR LGRP 180850Z 25014KT 9999 FEW020 19/17 Q1003 NOSIG
2026-04-18 08:20:00,METAR LGRP 180820Z 25014KT 9999 FEW018 SCT025 19/15 Q1003 NOSIG
2026-04-18 07:50:00,METAR LGRP 180750Z 26013KT 9999 FEW016 SCT025 19/15 Q1002 NOSIG
2026-04-18 07:20:00,METAR LGRP 180720Z 25012KT 9999 FEW015 BKN025 18/15 Q1002 NOSIG
2026-04-18 06:50:00,METAR LGRP 180650Z 26012KT 9999 FEW014 BKN025 18/15 Q1002 NOSIG
2026-04-18 06:20:00,METAR LGRP 180620Z 25011KT 9999 FEW016 BKN025 17/15 Q1002 NOSIG
2026-04-18 05:50:00,METAR LGRP 180550Z 24009KT 9999 FEW016 SCT025 17/15 Q1001 NOSIG
2026-04-18 05:20:00,METAR LGRP 180520Z 23009KT 9999 FEW018 SCT025 17/15 Q1001 NOSIG
2026-04-18 04:50:00,METAR LGRP 180450Z 24008KT 9999 FEW018 SCT025 17/14 Q1001 NOSIG
2026-04-18 04:20:00,METAR LGRP 180420Z 23006KT 9999 FEW018 SCT025 16/14 Q1001 NOSIG
2026-04-18 03:50:00,METAR LGRP 180350Z 22006KT 9999 FEW018 16/13 Q1001 NOSIG
2026-04-18 03:20:00,METAR LGRP 180320Z 23005KT 9999 SCT015 16/13 Q1000 NOSIG
2026-04-18 02:50:00,METAR LGRP 180250Z 22004KT 180V240 9999 FEW010 BKN020 15/13 Q1000 NOSIG
2026-04-18 02:20:00,METAR LGRP 180220Z VRB03KT 9999 FEW010 BKN020 15/13 Q1000 NOSIG
2026-04-18 01:50:00,METAR LGRP 180150Z 00000KT 9999 FEW010 BKN020 14/14 Q1001 NOSIG
2026-04-18 01:20:00,METAR LGRP 180120Z VRB01KT 9999 FEW010 BKN020 14/12 Q1001 NOSIG
2026-04-18 00:50:00,METAR LGRP 180050Z 12004KT 9999 FEW010 BKN020 15/14 Q1001 NOSIG
2026-04-18 00:20:00,METAR LGRP 180020Z 00000KT 9999 FEW010 BKN020 15/13 Q1001 NOSIG
2026-04-17 23:50:00,METAR LGRP 172350Z 00000KT 9999 FEW010 BKN020 16/14 Q1001 NOSIG
2026-04-17 23:20:00,METAR LGRP 172320Z 22004KT 9999 FEW010 BKN020 16/13 Q1001 NOSIG
2026-04-17 22:50:00,METAR LGRP 172250Z VRB02KT 9999 FEW010 BKN020 15/13 Q1001 NOSIG
2026-04-17 22:20:00,METAR LGRP 172220Z VRB01KT 9999 FEW010 BKN020 16/13 Q1002 NOSIG
2026-04-17 21:50:00,METAR LGRP 172150Z VRB02KT 9999 FEW010 BKN020 16/13 Q1002 NOSIG
2026-04-17 20:50:00,METAR LGRP 172050Z 22005KT 170V240 9999 FEW010 FEW015CB BKN020 16/14 Q1002 NOSIG
2026-04-17 20:20:00,METAR LGRP 172020Z VRB03KT 9999 FEW010 BKN020 17/14 Q1002 NOSIG
2026-04-17 19:50:00,METAR LGRP 171950Z VRB02KT 9999 FEW010 BKN020 16/14 Q1002 RETS NOSIG
2026-04-17 19:20:00,METAR LGRP 171920Z 22005KT 160V240 9000 -TSRA FEW010 FEW018CB BKN020 17/14 Q1001 RERA NOSIG
2026-04-17 18:50:00,METAR LGRP 171850Z VRB02KT 9000 -TSRA FEW010 FEW018CB BKN020 17/12 Q1001 NOSIG
2026-04-17 18:20:00,METAR LGRP 171820Z 21004KT 140V250 9999 -TSRA FEW010 FEW018CB BKN020 18/14 Q1001 NOSIG
2026-04-17 17:50:00,METAR LGRP 171750Z COR VRB03KT 9999 -TSRA FEW010 FEW018CB BKN020 17/14 Q1001 NOSIG
2026-04-17 17:20:00,METAR LGRP 171720Z VRB03KT 9999 -RA FEW010 BKN020 18/13 Q1000 NOSIG
2026-04-17 16:50:00,METAR LGRP 171650Z VRB03KT 9999 FEW010 BKN020 18/14 Q1000 NOSIG
2026-04-17 16:20:00,METAR LGRP 171620Z VRB03KT 9999 FEW010 BKN020 17/14 Q1000 NOSIG
2026-04-17 15:50:00,METAR LGRP 171550Z VRB03KT 9999 FEW010 BKN020 18/14 Q1000 NOSIG
2026-04-17 15:20:00,METAR LGRP 171520Z VRB03KT 9999 FEW010 BKN020 18/14 Q1000 NOSIG
2026-04-17 14:50:00,METAR LGRP 171450Z VRB03KT 9999 FEW010 BKN020 19/14 Q1000 NOSIG
2026-04-17 14:20:00,METAR LGRP 171420Z 10006KT 050V150 9999 FEW010 BKN020 19/14 Q1000 NOSIG
2026-04-17 13:50:00,METAR LGRP 171350Z VRB03KT 9999 FEW010 BKN020 19/14 Q1001 NOSIG
2026-04-17 13:20:00,METAR LGRP 171320Z 08005KT 040V130 9999 FEW010 BKN020 18/14 Q1001 NOSIG
2026-04-17 12:50:00,METAR LGRP 171250Z VRB03KT 9999 FEW010 BKN020 17/14 Q1002 NOSIG
2026-04-17 12:20:00,METAR LGRP 171220Z 08008KT 060V120 9999 FEW010 BKN020 17/14 Q1002 RERA NOSIG
2026-04-17 11:50:00,METAR LGRP 171150Z 09006KT 040V130 8000 -RA FEW010 BKN020 17/15 Q1001 RERA NOSIG
2026-04-17 11:20:00,METAR LGRP 171120Z 04011KT 020V090 6000 RA FEW010 BKN020 17/15 Q1002 NOSIG
2026-04-17 10:50:00,METAR LGRP 171050Z 13012KT 100V170 7000 RA FEW010 BKN020 17/14 Q1004 NOSIG
2026-04-17 10:20:00,METAR LGRP 171020Z 19008KT 160V220 9999 RA FEW010 BKN020 18/13 Q1003 NOSIG
2026-04-17 09:50:00,METAR LGRP 170950Z VRB03KT 9999 RA FEW010 BKN020 17/15 Q1003 NOSIG
2026-04-17 09:20:00,METAR LGRP 170920Z 09007KT 060V120 9999 RA FEW010 BKN020 19/14 Q1004 NOSIG
2026-04-17 08:50:00,METAR LGRP 170850Z VRB04KT 9999 -RA FEW010 BKN020 19/14 Q1004 NOSIG
2026-04-17 08:20:00,METAR LGRP 170820Z 23005KT 210V270 9999 -RA FEW010 BKN020 18/15 Q1004 NOSIG
2026-04-17 07:50:00,METAR LGRP 170750Z 23007KT 200V260 9999 FEW018 SCT020 18/16 Q1004 NOSIG
2026-04-17 07:20:00,METAR LGRP 170720Z 24009KT 9999 FEW018 SCT020 19/17 Q1003 NOSIG
2026-04-17 06:50:00,METAR LGRP 170650Z 23009KT 9999 FEW018 SCT020 19/15 Q1004 NOSIG
2026-04-17 06:20:00,METAR LGRP 170620Z 26012KT 9999 FEW018 SCT020 20/14 Q1003 NOSIG
2026-04-17 05:50:00,METAR LGRP 170550Z 24006KT 210V270 9999 FEW018 SCT020 20/13 Q1004 NOSIG
2026-04-17 05:20:00,METAR LGRP 170520Z 20011KT 150V250 9999 FEW018 SCT020 20/14 Q1004 NOSIG
2026-04-17 04:50:00,METAR LGRP 170450Z 26011KT 9999 FEW018 SCT020 19/15 Q1003 NOSIG
2026-04-17 04:20:00,METAR LGRP 170420Z 23012KT 9999 FEW012 19/12 Q1004 NOSIG
2026-04-17 03:50:00,METAR LGRP 170350Z 25007KT 9999 FEW012 18/11 Q1003 NOSIG
2026-04-17 03:20:00,METAR LGRP 170320Z VRB02KT 9999 FEW012 18/11 Q1003 NOSIG
2026-04-17 02:50:00,METAR LGRP 170250Z VRB03KT 9999 FEW012 18/11 Q1003 NOSIG
2026-04-17 02:20:00,METAR LGRP 170220Z 12003KT 9999 FEW030 17/12 Q1004 NOSIG
2026-04-17 01:50:00,METAR LGRP 170150Z VRB03KT 9999 FEW030 18/11 Q1003 NOSIG
2026-04-17 01:20:00,METAR LGRP 170120Z 21004KT 9999 FEW030 18/11 Q1006 NOSIG
2026-04-17 00:50:00,METAR LGRP 170050Z 21004KT 9999 FEW030 18/11 Q1006 NOSIG
2026-04-17 00:20:00,METAR LGRP 170020Z 24007KT 9999 FEW030 18/11 Q1006 NOSIG
2026-04-16 23:50:00,METAR LGRP 162350Z 23005KT 9999 FEW030 18/11 Q1006 NOSIG
2026-04-16 23:20:00,METAR LGRP 162320Z VRB02KT 9999 FEW030 16/12 Q1006 NOSIG
2026-04-16 22:50:00,METAR LGRP 162250Z VRB02KT 9999 FEW030 16/12 Q1006 NOSIG
2026-04-16 22:20:00,METAR LGRP 162220Z VRB02KT 9999 FEW030 18/11 Q1007 NOSIG
2026-04-16 21:50:00,METAR LGRP 162150Z VRB02KT 9999 FEW030 18/11 Q1007 NOSIG
2026-04-16 21:20:00,METAR LGRP 162120Z VRB02KT 9999 FEW030 18/11 Q1007 NOSIG
2026-04-16 20:50:00,METAR LGRP 162050Z VRB02KT 9999 FEW030 18/11 Q1007 NOSIG
2026-04-16 20:20:00,METAR LGRP 162020Z VRB02KT 9999 FEW030 19/12 Q1007 NOSIG
2026-04-16 19:50:00,METAR LGRP 161950Z VRB02KT 9999 FEW030 19/12 Q1007 NOSIG
2026-04-16 19:20:00,METAR LGRP 161920Z VRB01KT 9999 FEW030 19/12 Q1007 NOSIG
2026-04-16 18:50:00,METAR LGRP 161850Z VRB01KT 9999 FEW030 19/12 Q1007 NOSIG
2026-04-16 18:20:00,METAR LGRP 161820Z 23004KT 9999 FEW030 22/13 Q1007 NOSIG
2026-04-16 17:50:00,METAR LGRP 161750Z 23004KT 9999 FEW030 22/13 Q1007 NOSIG
2026-04-16 17:20:00,METAR LGRP 161720Z VRB01KT 9999 FEW030 22/13 Q1007 NOSIG
2026-04-16 16:50:00,METAR LGRP 161650Z VRB02KT 9999 FEW030 22/13 Q1007 NOSIG
2026-04-16 16:20:00,METAR LGRP 161620Z VRB03KT 9999 FEW030 22/13 Q1007 NOSIG
2026-04-16 15:50:00,METAR LGRP 161550Z 12002KT 9999 FEW030 22/13 Q1008 NOSIG
2026-04-16 14:50:00,METAR LGRP 161450Z VRB01KT 9999 FEW030 22/13 Q1009 NOSIG
2026-04-16 14:20:00,METAR LGRP 161420Z 05004KT 9999 FEW030 22/13 Q1009 NOSIG
2026-04-16 13:50:00,METAR LGRP 161350Z 05004KT 9999 FEW030 22/13 Q1009 NOSIG
2026-04-16 13:20:00,METAR LGRP 161320Z 03004KT 9999 FEW030 22/13 Q1009 NOSIG RMK SCT080 BKN180
2026-04-16 12:50:00,METAR LGRP 161250Z 04004KT 9999 FEW030 22/13 Q1009 NOSIG
2026-04-16 12:20:00,METAR LGRP 161220Z VRB03KT 9999 FEW030 22/11 Q1010 NOSIG
2026-04-16 11:50:00,METAR LGRP 161150Z VRB03KT 9999 FEW030 22/11 Q1010 NOSIG
2026-04-16 11:20:00,METAR LGRP 161120Z VRB03KT 9999 FEW030 22/11 Q1010 NOSIG
2026-04-16 10:50:00,METAR LGRP 161050Z 29005KT 9999 FEW030 22/11 Q1010 NOSIG
2026-04-16 10:20:00,METAR LGRP 161020Z 27006KT 9999 FEW030 20/11 Q1010 NOSIG
2026-04-16 09:50:00,METAR LGRP 160950Z 27006KT 9999 FEW030 22/09 Q1010 NOSIG
2026-04-16 09:20:00,METAR LGRP 160920Z 25008KT 9999 FEW030 22/09 Q1010 NOSIG
2026-04-16 08:50:00,METAR LGRP 160850Z 26007KT 9999 FEW030 22/09 Q1010 NOSIG
2026-04-16 08:20:00,METAR LGRP 160820Z 26007KT 9999 FEW030 21/10 Q1010 NOSIG
2026-04-16 07:50:00,METAR LGRP 160750Z 26007KT 9999 FEW030 20/08 Q1010 NOSIG
2026-04-16 07:20:00,METAR LGRP 160720Z 25007KT 9999 FEW030 20/09 Q1010 NOSIG
2026-04-16 06:50:00,METAR LGRP 160650Z 23005KT 9999 FEW030 20/11 Q1010 NOSIG
2026-04-16 06:20:00,METAR LGRP 160620Z 24005KT 9999 FEW030 19/11 Q1010 NOSIG
2026-04-16 05:50:00,METAR LGRP 160550Z VRB02KT 9999 FEW030 19/13 Q1010 NOSIG
2026-04-16 05:20:00,METAR LGRP 160520Z VRB03KT 9999 FEW030 18/10 Q1010 NOSIG
2026-04-16 04:50:00,METAR LGRP 160450Z 22006KT 9999 FEW030 18/11 Q1010 NOSIG
2026-04-16 04:20:00,METAR LGRP 160420Z 22006KT 9999 FEW030 18/12 Q1010 NOSIG
2026-04-16 03:50:00,METAR LGRP 160350Z 21005KT 9999 FEW030 17/09 Q1010 NOSIG
2026-04-16 03:20:00,METAR LGRP 160320Z 21005KT 9999 FEW030 16/10 Q1010 NOSIG
2026-04-16 02:50:00,METAR LGRP 160250Z 21006KT 9999 FEW030 15/08 Q1010 NOSIG
2026-04-16 02:20:00,METAR LGRP 160220Z 22004KT 9999 FEW030 14/06 Q1010 NOSIG
2026-04-16 01:50:00,METAR LGRP 160150Z VRB03KT 9999 FEW030 14/06 Q1010 NOSIG
2026-04-16 01:20:00,METAR LGRP 160120Z 11003KT 9999 FEW030 14/08 Q1010 NOSIG
2026-04-16 00:50:00,METAR LGRP 160050Z VRB02KT 9999 FEW030 14/08 Q1010 NOSIG
2026-04-16 00:20:00,METAR LGRP 160020Z 17002KT 9999 FEW030 14/08 Q1011 NOSIG
2026-04-15 23:50:00,METAR LGRP 152350Z 14001KT 9999 FEW030 14/08 Q1011 NOSIG
2026-04-15 23:20:00,METAR LGRP 152320Z 18003KT 9999 FEW030 14/08 Q1011 NOSIG
2026-04-15 22:50:00,METAR LGRP 152250Z VRB02KT 9999 FEW030 15/07 Q1012 NOSIG
2026-04-15 22:20:00,METAR LGRP 152220Z VRB02KT 9999 FEW030 15/07 Q1012 NOSIG
2026-04-15 21:50:00,METAR LGRP 152150Z VRB01KT 9999 FEW030 15/07 Q1012 NOSIG
2026-04-15 21:20:00,METAR LGRP 152120Z 20004KT 9999 FEW030 16/07 Q1013 NOSIG
2026-04-15 20:50:00,METAR LGRP 152050Z 19005KT 9999 FEW030 17/09 Q1013 NOSIG
2026-04-15 20:20:00,METAR LGRP 152020Z 19005KT 9999 FEW030 18/09 Q1013 NOSIG
2026-04-15 19:50:00,METAR LGRP 151950Z 20006KT 170V230 9999 FEW030 17/10 Q1014 NOSIG
2026-04-15 19:20:00,METAR LGRP 151920Z 20007KT 170V230 9999 FEW030 18/10 Q1014 NOSIG
2026-04-15 18:50:00,METAR LGRP 151850Z 20006KT 170V230 9999 FEW030 18/11 Q1014 NOSIG
2026-04-15 18:20:00,METAR LGRP 151820Z 20005KT 170V230 9999 FEW030 18/09 Q1014 NOSIG
2026-04-15 17:50:00,METAR LGRP 151750Z 21005KT 9999 FEW030 18/09 Q1014 NOSIG
2026-04-15 17:20:00,METAR LGRP 151720Z VRB02KT 9999 FEW030 17/09 Q1014 NOSIG
2026-04-15 16:50:00,METAR LGRP 151650Z VRB02KT 9999 FEW030 18/10 Q1013 NOSIG
2026-04-15 16:20:00,METAR LGRP 151620Z 06006KT 030V090 9999 FEW030 18/09 Q1014 NOSIG
2026-04-15 15:50:00,METAR LGRP 151550Z VRB02KT 9999 FEW030 19/08 Q1014 NOSIG
2026-04-15 15:20:00,METAR LGRP 151520Z 04006KT 9999 FEW030 19/08 Q1014 NOSIG
2026-04-15 14:50:00,METAR LGRP 151450Z 04007KT 9999 FEW030 20/06 Q1014 NOSIG
2026-04-15 14:20:00,METAR LGRP 151420Z 06007KT 9999 FEW030 20/06 Q1014 NOSIG
2026-04-15 13:50:00,METAR LGRP 151350Z 09003KT 9999 FEW030 19/14 Q1014 NOSIG
2026-04-15 13:20:00,METAR LGRP 151320Z 09006KT 060V130 9999 FEW030 19/13 Q1014 NOSIG
2026-04-15 12:50:00,METAR LGRP 151250Z 05008KT 9999 FEW030 20/13 Q1015 NOSIG
2026-04-15 12:20:00,METAR LGRP 151220Z 04009KT 9999 FEW030 20/13 Q1015 NOSIG
2026-04-15 11:50:00,METAR LGRP 151150Z 03006KT 350V050 9999 FEW030 20/13 Q1015 NOSIG
2026-04-15 11:20:00,METAR LGRP 151120Z 02005KT 340V040 9999 FEW030 20/11 Q1016 NOSIG
2026-04-15 10:50:00,METAR LGRP 151050Z 03005KT 9999 FEW030 20/10 Q1016 NOSIG
2026-04-15 10:20:00,METAR LGRP 151020Z 02005KT 9999 FEW030 20/09 Q1016 NOSIG
2026-04-15 09:50:00,METAR LGRP 150950Z VRB03KT 9999 FEW030 20/08 Q1016 NOSIG
2026-04-15 09:20:00,METAR LGRP 150920Z 02004KT 9999 FEW030 20/10 Q1016 NOSIG
2026-04-15 08:50:00,METAR LGRP 150850Z VRB02KT 9999 FEW030 19/12 Q1017 NOSIG
2026-04-15 08:20:00,METAR LGRP 150820Z 25007KT 9999 FEW030 19/11 Q1017 NOSIG
2026-04-15 07:50:00,METAR LGRP 150750Z 25007KT 230V290 9999 FEW030 19/11 Q1017 NOSIG
2026-04-15 07:20:00,METAR LGRP 150720Z 23005KT 9999 FEW030 18/10 Q1017 NOSIG
2026-04-15 06:50:00,METAR LGRP 150650Z VRB03KT 9999 FEW030 18/08 Q1017 NOSIG
2026-04-15 06:20:00,METAR LGRP 150620Z 21003KT 9999 FEW030 17/08 Q1016 NOSIG
2026-04-15 05:50:00,METAR LGRP 150550Z VRB02KT 9999 SCT030 16/09 Q1016 NOSIG
2026-04-15 05:20:00,METAR LGRP 150520Z 23005KT 9999 SCT025 16/07 Q1016 NOSIG
2026-04-15 04:50:00,METAR LGRP 150450Z 00000KT 9999 SCT025 16/08 Q1016 NOSIG
2026-04-15 04:20:00,METAR LGRP 150420Z VRB02KT 9999 SCT025 16/10 Q1016 NOSIG
2026-04-15 03:50:00,METAR LGRP 150350Z 19006KT 9999 SCT020 16/10 Q1016 NOSIG
2026-04-15 03:20:00,METAR LGRP 150320Z 19005KT 9999 SCT020 15/09 Q1015 NOSIG
2026-04-15 02:50:00,METAR LGRP 150250Z 21005KT 9999 SCT020 15/10 Q1015 NOSIG
2026-04-15 02:20:00,METAR LGRP 150220Z VRB04KT 9999 SCT020 15/08 Q1015 NOSIG
2026-04-15 01:50:00,METAR LGRP 150150Z VRB02KT 9999 SCT020 15/08 Q1015 NOSIG
2026-04-15 01:20:00,METAR LGRP 150120Z VRB02KT 9999 SCT020 16/07 Q1016 NOSIG
2026-04-15 00:50:00,METAR LGRP 150050Z 27004KT 250V360 9999 SCT020 16/08 Q1016 NOSIG
2026-04-15 00:20:00,METAR LGRP 150020Z 19004KT 9999 SCT020 16/09 Q1016 NOSIG
2026-04-14 23:50:00,METAR LGRP 142350Z VRB02KT 9999 SCT020 16/10 Q1017 NOSIG
2026-04-14 23:20:00,METAR LGRP 142320Z VRB03KT 9999 SCT020 16/13 Q1017 NOSIG
2026-04-14 22:50:00,METAR LGRP 142250Z VRB03KT 9999 SCT020 16/13 Q1018 NOSIG
2026-04-14 22:20:00,METAR LGRP 142220Z VRB02KT 9999 FEW030 15/13 Q1019 NOSIG
2026-04-14 21:50:00,METAR LGRP 142150Z VRB02KT 9999 FEW030 15/13 Q1019 NOSIG
2026-04-14 21:20:00,METAR LGRP 142120Z VRB01KT 9999 FEW030 14/12 Q1019 NOSIG
2026-04-14 20:50:00,METAR LGRP 142050Z VRB02KT 9999 FEW030 14/12 Q1020 NOSIG
2026-04-14 20:20:00,METAR LGRP 142020Z VRB01KT 9999 FEW030 15/12 Q1020 NOSIG
2026-04-14 19:50:00,METAR LGRP 141950Z VRB03KT 9999 FEW030 15/12 Q1020 NOSIG
2026-04-14 19:20:00,METAR LGRP 141920Z VRB02KT CAVOK 16/13 Q1020 NOSIG
2026-04-14 18:50:00,METAR LGRP 141850Z 14004KT 090V200 CAVOK 16/13 Q1020 NOSIG
2026-04-14 18:20:00,METAR LGRP 141820Z 08005KT 050V170 9999 SCT025 17/13 Q1020 NOSIG
2026-04-14 17:50:00,METAR LGRP 141750Z VRB03KT 9999 SCT025 17/13 Q1020 NOSIG
2026-04-14 17:20:00,METAR LGRP 141720Z 09004KT 050V130 9999 SCT025 17/13 Q1020 NOSIG
2026-04-14 16:50:00,METAR LGRP 141650Z 08005KT 9999 SCT025 17/14 Q1020 NOSIG
2026-04-14 16:20:00,METAR LGRP 141620Z 09004KT 050V120 9999 FEW030 18/13 Q1020 NOSIG
2026-04-14 15:50:00,METAR LGRP 141550Z 08005KT 020V120 9999 FEW030 18/13 Q1020 NOSIG
2026-04-14 15:20:00,METAR LGRP 141520Z 10005KT 050V130 9999 FEW030 18/12 Q1020 NOSIG
2026-04-14 14:50:00,METAR LGRP 141450Z 09006KT 050V140 9999 FEW030 19/13 Q1020 NOSIG
2026-04-14 14:20:00,METAR LGRP 141420Z VRB06KT 9999 FEW015 18/12 Q1020 NOSIG
2026-04-14 13:50:00,METAR LGRP 141350Z 13006KT 080V220 9999 FEW015 19/12 Q1020 NOSIG
2026-04-14 13:20:00,METAR LGRP 141320Z 10006KT 050V200 9999 FEW040 19/11 Q1020 NOSIG
2026-04-14 12:50:00,METAR LGRP 141250Z 10006KT 040V150 9999 FEW040 19/11 Q1020 NOSIG
2026-04-14 12:20:00,METAR LGRP 141220Z 12008G19KT 050V210 CAVOK 19/10 Q1020 NOSIG
2026-04-14 11:50:00,METAR LGRP 141150Z VRB07G18KT 9999 SCT030 20/11 Q1020 WS ALL RWY NOSIG
2026-04-14 11:20:00,METAR LGRP 141120Z VRB08G21KT 9999 FEW025 19/10 Q1021 WS ALL RWY NOSIG
2026-04-14 10:50:00,METAR LGRP 141050Z VRB05KT 9999 SCT025 19/10 Q1021 WS R24 NOSIG
2026-04-14 10:20:00,METAR LGRP 141020Z VRB07G17KT 9999 SCT025 19/10 Q1020 WS ALL RWY NOSIG
2026-04-14 09:50:00,METAR LGRP 140950Z 09015KT 9999 SCT025 18/10 Q1020 WS ALL RWY NOSIG
2026-04-14 09:20:00,METAR LGRP 140920Z 09010KT 020V140 9999 SCT025 19/10 Q1021 WS R06 NOSIG
2026-04-14 08:50:00,METAR LGRP 140850Z 09009KT 030V130 9999 FEW020 19/10 Q1021 NOSIG
2026-04-14 08:20:00,METAR LGRP 140820Z 09010KT 050V150 9999 FEW020 19/10 Q1020 NOSIG
2026-04-14 07:50:00,METAR LGRP 140750Z 12007KT 040V140 9999 FEW020 18/09 Q1020 NOSIG
2026-04-14 07:20:00,METAR LGRP 140720Z 11006KT 070V160 9999 FEW020 18/11 Q1020 NOSIG
2026-04-14 06:50:00,METAR LGRP 140650Z 10005KT 060V140 9999 FEW020 17/11 Q1020 NOSIG
2026-04-14 06:20:00,METAR LGRP 140620Z 07004KT 010V080 9999 FEW020 17/12 Q1020 NOSIG
2026-04-14 05:50:00,METAR LGRP 140550Z VRB03KT 9999 FEW018 16/13 Q1020 NOSIG
2026-04-14 05:20:00,METAR LGRP 140520Z 07006KT 9999 FEW018 15/11 Q1019 NOSIG
2026-04-14 04:50:00,METAR LGRP 140450Z 09008KT 050V120 9999 FEW018 15/10 Q1019 NOSIG
2026-04-14 04:20:00,METAR LGRP 140420Z 09005KT 9999 FEW018 15/10 Q1019 NOSIG
2026-04-14 03:50:00,METAR LGRP 140350Z 11004KT 060V220 9999 FEW018 14/10 Q1019 NOSIG
2026-04-14 03:20:00,METAR LGRP 140320Z 11005KT CAVOK 14/10 Q1019 NOSIG
2026-04-14 02:50:00,METAR LGRP 140250Z 11003KT CAVOK 14/10 Q1019 NOSIG
2026-04-14 02:20:00,METAR LGRP 140220Z 12004KT CAVOK 12/06 Q1019 NOSIG
2026-04-14 01:20:00,METAR LGRP 140120Z VRB02KT CAVOK 12/06 Q1019 NOSIG
2026-04-14 00:50:00,METAR LGRP 140050Z VRB02KT CAVOK 12/06 Q1019 NOSIG
2026-04-14 00:20:00,METAR LGRP 140020Z 13005KT CAVOK 12/06 Q1019 NOSIG
2026-04-13 23:50:00,METAR LGRP 132350Z 13005KT CAVOK 12/06 Q1019 NOSIG
2026-04-13 23:20:00,METAR LGRP 132320Z 13005KT CAVOK 13/07 Q1019 NOSIG
2026-04-13 22:50:00,METAR LGRP 132250Z 13005KT CAVOK 13/07 Q1019 NOSIG
2026-04-13 22:20:00,METAR LGRP 132220Z VRB03KT CAVOK 13/07 Q1019 NOSIG
2026-04-13 21:50:00,METAR LGRP 132150Z VRB03KT CAVOK 13/07 Q1019 NOSIG
2026-04-13 21:20:00,METAR LGRP 132120Z 12004KT CAVOK 14/08 Q1019 NOSIG
2026-04-13 20:50:00,METAR LGRP 132050Z 12004KT CAVOK 14/08 Q1019 NOSIG
2026-04-13 20:20:00,METAR LGRP 132020Z VRB03KT CAVOK 13/07 Q1019 NOSIG
2026-04-13 19:50:00,METAR LGRP 131950Z VRB03KT CAVOK 13/07 Q1019 NOSIG
2026-04-13 19:20:00,METAR LGRP 131920Z VRB02KT CAVOK 15/07 Q1018 NOSIG
2026-04-13 18:50:00,METAR LGRP 131850Z VRB02KT CAVOK 15/07 Q1018 NOSIG
2026-04-13 18:20:00,METAR LGRP 131820Z VRB03KT CAVOK 16/03 Q1019 NOSIG
2026-04-13 17:50:00,METAR LGRP 131750Z VRB03KT CAVOK 16/03 Q1019 NOSIG
2026-04-13 17:20:00,METAR LGRP 131720Z 12003KT CAVOK 16/06 Q1019 NOSIG
2026-04-13 16:50:00,METAR LGRP 131650Z 12003KT CAVOK 16/06 Q1019 NOSIG
2026-04-13 16:20:00,METAR LGRP 131620Z 13004KT CAVOK 19/07 Q1019 NOSIG
2026-04-13 15:50:00,METAR LGRP 131550Z 13004KT CAVOK 19/07 Q1019 NOSIG
2026-04-13 15:20:00,METAR LGRP 131520Z 10006KT CAVOK 20/06 Q1018 NOSIG
2026-04-13 14:50:00,METAR LGRP 131450Z 10006KT CAVOK 20/06 Q1018 NOSIG
2026-04-13 14:20:00,METAR LGRP 131420Z 11006KT CAVOK 20/09 Q1018 NOSIG
2026-04-13 13:50:00,METAR LGRP 131350Z 10006KT CAVOK 20/09 Q1018 NOSIG
2026-04-13 13:20:00,METAR LGRP 131320Z 11005KT CAVOK 20/06 Q1018 NOSIG
2026-04-13 12:50:00,METAR LGRP 131250Z 11005KT CAVOK 20/06 Q1018 NOSIG
2026-04-13 12:20:00,METAR LGRP 131220Z 04011KT CAVOK 19/05 Q1018 NOSIG
2026-04-13 11:50:00,METAR LGRP 131150Z 04011KT CAVOK 19/05 Q1018 NOSIG
2026-04-13 11:20:00,METAR LGRP 131120Z 04010KT CAVOK 19/05 Q1018 NOSIG
2026-04-13 10:50:00,METAR LGRP 131050Z 05009KT CAVOK 19/03 Q1018 NOSIG
2026-04-13 10:20:00,METAR LGRP 131020Z 04008KT CAVOK 18/02 Q1018 NOSIG
2026-04-13 09:50:00,METAR LGRP 130950Z 04007KT CAVOK 18/02 Q1018 NOSIG
2026-04-13 09:20:00,METAR LGRP 130920Z 03008KT CAVOK 18/03 Q1018 NOSIG
2026-04-13 08:50:00,METAR LGRP 130850Z 03006KT CAVOK 18/03 Q1018 NOSIG
2026-04-13 08:20:00,METAR LGRP 130820Z 03006KT CAVOK 18/04 Q1018 NOSIG
2026-04-13 07:50:00,METAR LGRP 130750Z 02005KT CAVOK 18/01 Q1018 NOSIG
2026-04-13 07:20:00,METAR LGRP 130720Z VRB03KT CAVOK 18/03 Q1018 NOSIG
2026-04-13 06:50:00,METAR LGRP 130650Z VRB03KT CAVOK 17/04 Q1018 NOSIG
2026-04-13 06:20:00,METAR LGRP 130620Z 33004KT 300V360 CAVOK 17/04 Q1017 NOSIG
2026-04-13 05:50:00,METAR LGRP 130550Z 31004KT 280V350 CAVOK 16/05 Q1017 NOSIG
2026-04-13 05:20:00,METAR LGRP 130520Z 30006KT CAVOK 16/05 Q1017 NOSIG
2026-04-13 04:50:00,METAR LGRP 130450Z 32006KT CAVOK 16/06 Q1017 NOSIG
2026-04-13 04:20:00,METAR LGRP 130420Z 29007KT CAVOK 15/08 Q1016 NOSIG
2026-04-13 03:50:00,METAR LGRP 130350Z 32006KT CAVOK 16/06 Q1016 NOSIG
2026-04-13 03:20:00,METAR LGRP 130320Z 31008KT CAVOK 16/06 Q1016 NOSIG
2026-04-13 02:50:00,METAR LGRP 130250Z 31007KT CAVOK 16/06 Q1016 NOSIG
2026-04-13 02:20:00,METAR LGRP 130220Z 30008KT CAVOK 15/07 Q1016 NOSIG
2026-04-13 01:50:00,METAR LGRP 130150Z 31007KT CAVOK 16/06 Q1016 NOSIG
2026-04-13 01:20:00,METAR LGRP 130120Z 32008KT CAVOK 16/06 Q1016 NOSIG
2026-04-13 00:50:00,METAR LGRP 130050Z 31008KT CAVOK 16/08 Q1016 NOSIG
2026-04-13 00:20:00,METAR LGRP 130020Z 31009KT CAVOK 16/08 Q1016 NOSIG
2026-04-12 23:50:00,METAR LGRP 122350Z 32008KT CAVOK 16/07 Q1016 NOSIG
2026-04-12 23:20:00,METAR LGRP 122320Z 31008KT CAVOK 16/07 Q1017 NOSIG
2026-04-12 22:50:00,METAR LGRP 122250Z 31009KT CAVOK 16/07 Q1017 NOSIG
2026-04-12 22:20:00,METAR LGRP 122220Z 30011KT CAVOK 16/06 Q1017 NOSIG
2026-04-12 21:50:00,METAR LGRP 122150Z 31010KT CAVOK 17/08 Q1017 NOSIG
2026-04-12 21:20:00,METAR LGRP 122120Z 32014KT CAVOK 17/07 Q1017 NOSIG
2026-04-12 20:50:00,METAR LGRP 122050Z 31013KT CAVOK 17/07 Q1017 NOSIG
2026-04-12 20:20:00,METAR LGRP 122020Z 31014KT CAVOK 17/07 Q1017 NOSIG
2026-04-12 19:50:00,METAR LGRP 121950Z 32010KT CAVOK 17/08 Q1017 NOSIG
2026-04-12 19:20:00,METAR LGRP 121920Z 31011KT CAVOK 17/07 Q1017 NOSIG
2026-04-12 18:50:00,METAR LGRP 121850Z 31012KT CAVOK 17/07 Q1017 NOSIG
2026-04-12 18:20:00,METAR LGRP 121820Z 30014KT CAVOK 17/07 Q1016 NOSIG
2026-04-12 17:50:00,METAR LGRP 121750Z 30016KT CAVOK 17/07 Q1016 NOSIG
2026-04-12 17:20:00,METAR LGRP 121720Z 30015KT CAVOK 17/07 Q1016 NOSIG
2026-04-12 16:50:00,METAR LGRP 121650Z 29013KT CAVOK 18/07 Q1016 NOSIG
2026-04-12 16:20:00,METAR LGRP 121620Z 29014KT CAVOK 18/07 Q1015 NOSIG
2026-04-12 15:50:00,METAR LGRP 121550Z 28012KT CAVOK 18/08 Q1015 NOSIG
2026-04-12 14:50:00,METAR LGRP 121450Z 27016KT CAVOK 19/06 Q1015 NOSIG
2026-04-12 14:20:00,METAR LGRP 121420Z 27017KT CAVOK 19/06 Q1015 NOSIG
2026-04-12 13:50:00,METAR LGRP 121350Z 27017KT CAVOK 19/07 Q1015 NOSIG
2026-04-12 13:20:00,METAR LGRP 121320Z 26017KT CAVOK 20/06 Q1015 NOSIG
2026-04-12 12:50:00,METAR LGRP 121250Z 26017KT CAVOK 20/07 Q1015 NOSIG
2026-04-12 12:20:00,METAR LGRP 121220Z 26017KT CAVOK 19/07 Q1015 NOSIG
2026-04-12 11:50:00,METAR LGRP 121150Z 26015KT CAVOK 19/07 Q1016 NOSIG
2026-04-12 11:20:00,METAR LGRP 121120Z 25012KT CAVOK 18/03 Q1016 NOSIG
2026-04-12 10:50:00,METAR LGRP 121050Z 25012KT CAVOK 18/03 Q1016 NOSIG
2026-04-12 10:20:00,METAR LGRP 121020Z 29009KT CAVOK 18/06 Q1016 NOSIG
2026-04-12 09:50:00,METAR LGRP 120950Z 29009KT CAVOK 18/06 Q1016 NOSIG
2026-04-12 09:20:00,METAR LGRP 120920Z 30009KT CAVOK 17/09 Q1016 NOSIG
2026-04-12 08:50:00,METAR LGRP 120850Z 30009KT CAVOK 17/09 Q1016 NOSIG
2026-04-12 08:20:00,METAR LGRP 120820Z 29008KT 9999 FEW018 16/06 Q1017 NOSIG
2026-04-12 07:50:00,METAR LGRP 120750Z 29008KT 9999 FEW018 16/06 Q1017 NOSIG
2026-04-12 06:50:00,METAR LGRP 120650Z 30008KT 9999 FEW018 16/06 Q1016 NOSIG
2026-04-12 06:20:00,METAR LGRP 120620Z 32010KT CAVOK 16/03 Q1016 NOSIG
2026-04-12 05:50:00,METAR LGRP 120550Z 32010KT CAVOK 16/03 Q1016 NOSIG
2026-04-12 05:20:00,METAR LGRP 120520Z 32010KT CAVOK 16/06 Q1016 NOSIG
2026-04-12 04:50:00,METAR LGRP 120450Z 32010KT CAVOK 16/06 Q1016 NOSIG
2026-04-12 04:20:00,METAR LGRP 120420Z 32010KT CAVOK 15/07 Q1015 NOSIG
2026-04-12 03:50:00,METAR LGRP 120350Z 32010KT CAVOK 15/07 Q1015 NOSIG
2026-04-12 03:20:00,METAR LGRP 120320Z 33012KT CAVOK 15/07 Q1015 NOSIG
2026-04-12 02:50:00,METAR LGRP 120250Z 32013KT CAVOK 15/07 Q1015 NOSIG
2026-04-12 02:20:00,METAR LGRP 120220Z 32011KT CAVOK 16/08 Q1015 NOSIG
2026-04-12 01:50:00,METAR LGRP 120150Z 30009KT CAVOK 16/08 Q1015 NOSIG
2026-04-12 01:20:00,METAR LGRP 120120Z 30009KT 270V330 CAVOK 16/06 Q1015 NOSIG
2026-04-12 00:50:00,METAR LGRP 120050Z 31010KT CAVOK 16/06 Q1015 NOSIG
2026-04-12 00:20:00,METAR LGRP 120020Z 31011KT CAVOK 16/07 Q1015 NOSIG
2026-04-11 23:50:00,METAR LGRP 112350Z 31012KT CAVOK 16/07 Q1015 NOSIG
2026-04-11 23:20:00,METAR LGRP 112320Z 29011KT CAVOK 16/06 Q1016 NOSIG
2026-04-11 22:50:00,METAR LGRP 112250Z 30011KT CAVOK 16/07 Q1016 NOSIG
2026-04-11 22:20:00,METAR LGRP 112220Z 29011KT CAVOK 15/08 Q1016 NOSIG
2026-04-11 21:50:00,METAR LGRP 112150Z VRB02KT CAVOK 16/08 Q1016 NOSIG
2026-04-11 21:20:00,METAR LGRP 112120Z 30007KT 230V340 CAVOK 16/08 Q1016 NOSIG
2026-04-11 20:50:00,METAR LGRP 112050Z 31007KT CAVOK 16/09 Q1016 NOSIG
2026-04-11 20:20:00,METAR LGRP 112020Z 32008KT CAVOK 17/06 Q1016 NOSIG
2026-04-11 19:50:00,METAR LGRP 111950Z 32007KT CAVOK 17/06 Q1016 NOSIG
2026-04-11 19:20:00,METAR LGRP 111920Z 31008KT CAVOK 17/06 Q1016 NOSIG
2026-04-11 18:50:00,METAR LGRP 111850Z 32009KT CAVOK 17/06 Q1016 NOSIG
2026-04-11 18:20:00,METAR LGRP 111820Z 32009KT CAVOK 18/06 Q1016 NOSIG
2026-04-11 17:50:00,METAR LGRP 111750Z 31006KT CAVOK 18/06 Q1015 NOSIG
2026-04-11 17:20:00,METAR LGRP 111720Z 31009KT CAVOK 18/06 Q1015 NOSIG
2026-04-11 16:50:00,METAR LGRP 111650Z 32011KT CAVOK 18/06 Q1015 NOSIG
2026-04-11 16:20:00,METAR LGRP 111620Z 29008KT 240V320 CAVOK 18/06 Q1015 NOSIG
2026-04-11 15:50:00,METAR LGRP 111550Z 27011KT CAVOK 19/06 Q1015 NOSIG
2026-04-11 15:20:00,METAR LGRP 111520Z 28010KT CAVOK 18/05 Q1015 NOSIG
2026-04-11 14:50:00,METAR LGRP 111450Z 28011KT CAVOK 18/05 Q1015 NOSIG
2026-04-11 14:20:00,METAR LGRP 111420Z 27012KT CAVOK 19/05 Q1015 NOSIG
2026-04-11 13:50:00,METAR LGRP 111350Z 27012KT CAVOK 19/03 Q1015 NOSIG
2026-04-11 13:20:00,METAR LGRP 111320Z 26012KT CAVOK 19/03 Q1015 NOSIG
2026-04-11 12:50:00,METAR LGRP 111250Z 25010KT 230V290 CAVOK 19/00 Q1016 NOSIG
2026-04-11 12:20:00,METAR LGRP 111220Z 26011KT CAVOK 19/M01 Q1016 NOSIG
2026-04-11 11:50:00,METAR LGRP 111150Z 28011KT CAVOK 19/M02 Q1016 NOSIG
2026-04-11 11:20:00,METAR LGRP 111120Z 29009KT CAVOK 19/M02 Q1016 NOSIG
2026-04-11 10:50:00,METAR LGRP 111050Z 29010KT CAVOK 19/M02 Q1016 NOSIG
2026-04-11 10:20:00,METAR LGRP 111020Z 29010KT CAVOK 19/M04 Q1016 NOSIG
2026-04-11 09:50:00,METAR LGRP 110950Z 27010KT CAVOK 18/M01 Q1016 NOSIG
2026-04-11 09:20:00,METAR LGRP 110920Z 27011KT CAVOK 18/M00 Q1016 NOSIG
2026-04-11 08:50:00,METAR LGRP 110850Z 27010KT CAVOK 18/00 Q1016 NOSIG
2026-04-11 08:20:00,METAR LGRP 110820Z 28011KT CAVOK 18/00 Q1016 NOSIG
2026-04-11 07:50:00,METAR LGRP 110750Z 28009KT CAVOK 17/01 Q1016 NOSIG
2026-04-11 07:20:00,METAR LGRP 110720Z 29011KT CAVOK 17/01 Q1016 NOSIG
2026-04-11 06:50:00,METAR LGRP 110650Z 29010KT CAVOK 16/03 Q1016 NOSIG
2026-04-11 06:20:00,METAR LGRP 110620Z 29011KT CAVOK 16/02 Q1015 NOSIG
2026-04-11 05:50:00,METAR LGRP 110550Z 30010KT CAVOK 16/03 Q1015 NOSIG
2026-04-11 05:20:00,METAR LGRP 110520Z 31009KT CAVOK 16/03 Q1015 NOSIG
2026-04-11 04:50:00,METAR LGRP 110450Z 29011KT CAVOK 16/04 Q1015 NOSIG
2026-04-11 04:20:00,METAR LGRP 110420Z 29010KT CAVOK 16/06 Q1015 NOSIG
2026-04-11 03:50:00,METAR LGRP 110350Z 23008KT CAVOK 16/06 Q1015 NOSIG
2026-04-11 03:20:00,METAR LGRP 110320Z 30009KT CAVOK 16/06 Q1015 NOSIG
2026-04-11 02:50:00,METAR LGRP 110250Z 30009KT CAVOK 16/06 Q1015 NOSIG
2026-04-11 02:20:00,METAR LGRP 110220Z 31010KT 9999 FEW020 17/04 Q1015 NOSIG
2026-04-11 01:20:00,METAR LGRP 110120Z 31010KT 9999 FEW020 17/04 Q1015 NOSIG
2026-04-11 00:50:00,METAR LGRP 110050Z 31010KT 9999 FEW020 17/04 Q1015 NOSIG
2026-04-11 00:20:00,METAR LGRP 110020Z 31010KT 9999 FEW020 16/06 Q1015 NOSIG
2026-04-10 23:50:00,METAR LGRP 102350Z 31011KT 9999 FEW020 16/06 Q1015 NOSIG
2026-04-10 23:20:00,METAR LGRP 102320Z 28007KT 9999 FEW020 16/06 Q1016 NOSIG
2026-04-10 22:50:00,METAR LGRP 102250Z 28007KT 9999 FEW020 16/06 Q1016 NOSIG
2026-04-10 22:20:00,METAR LGRP 102220Z 30008KT 9999 FEW020 16/06 Q1016 NOSIG
2026-04-10 21:50:00,METAR LGRP 102150Z 30008KT 9999 FEW020 16/06 Q1016 NOSIG
2026-04-10 21:20:00,METAR LGRP 102120Z 31010KT 9999 FEW020 17/07 Q1016 NOSIG
2026-04-10 20:50:00,METAR LGRP 102050Z 31010KT 9999 FEW020 17/07 Q1016 NOSIG
2026-04-10 20:20:00,METAR LGRP 102020Z 31011KT 9999 FEW020 17/04 Q1016 NOSIG
2026-04-10 19:50:00,METAR LGRP 101950Z 31011KT 9999 FEW020 17/04 Q1015 NOSIG
2026-04-10 19:20:00,METAR LGRP 101920Z 29012KT 9999 FEW020 18/06 Q1015 NOSIG
2026-04-10 18:50:00,METAR LGRP 101850Z 29012KT 9999 FEW020 18/06 Q1015 NOSIG
2026-04-10 18:20:00,METAR LGRP 101820Z 27014KT 9999 FEW020 18/06 Q1014 NOSIG
2026-04-10 17:50:00,METAR LGRP 101750Z 27014KT 9999 FEW020 18/06 Q1014 NOSIG
2026-04-10 17:20:00,METAR LGRP 101720Z 27013KT 9999 FEW020 18/06 Q1014 NOSIG
2026-04-10 16:50:00,METAR LGRP 101650Z 26013KT 9999 FEW020 18/06 Q1014 NOSIG
2026-04-10 16:20:00,METAR LGRP 101620Z 26013KT 9999 FEW020 18/03 Q1014 NOSIG
2026-04-10 15:50:00,METAR LGRP 101550Z 26013KT 9999 FEW020 18/03 Q1014 NOSIG
2026-04-10 15:20:00,METAR LGRP 101520Z 26013KT 9999 FEW020 18/06 Q1014 NOSIG
2026-04-10 14:50:00,METAR LGRP 101450Z 26013KT 9999 FEW020 18/06 Q1014 NOSIG
2026-04-10 14:20:00,METAR LGRP 101420Z 26012KT 9999 FEW020 18/06 Q1014 NOSIG
2026-04-10 13:50:00,METAR LGRP 101350Z 26012KT 9999 FEW020 18/06 Q1014 NOSIG
2026-04-10 13:20:00,METAR LGRP 101320Z 26010KT 9999 FEW020 19/05 Q1014 NOSIG
2026-04-10 12:50:00,METAR LGRP 101250Z 26010KT 9999 FEW020 19/05 Q1014 NOSIG
2026-04-10 12:20:00,METAR LGRP 101220Z 26008KT 9999 FEW020 18/02 Q1014 NOSIG
2026-04-10 11:50:00,METAR LGRP 101150Z 26008KT 9999 FEW020 18/02 Q1014 NOSIG
2026-04-10 11:20:00,METAR LGRP 101120Z 27008KT 9999 FEW020 19/01 Q1014 NOSIG
2026-04-10 10:50:00,METAR LGRP 101050Z 28006KT 9999 FEW020 18/01 Q1014 NOSIG
2026-04-10 10:20:00,METAR LGRP 101020Z 28007KT 9999 FEW020 18/01 Q1015 NOSIG
2026-04-10 09:50:00,METAR LGRP 100950Z 30006KT 9999 FEW020 18/02 Q1015 NOSIG
2026-04-10 09:20:00,METAR LGRP 100920Z 30007KT 9999 FEW020 18/02 Q1015 NOSIG
2026-04-10 08:50:00,METAR LGRP 100850Z 30006KT 9999 FEW025 18/04 Q1015 NOSIG
2026-04-10 08:20:00,METAR LGRP 100820Z 30007KT 9999 FEW025 17/03 Q1015 NOSIG
2026-04-10 07:50:00,METAR LGRP 100750Z 30007KT 9999 FEW025 17/03 Q1015 NOSIG
2026-04-10 07:20:00,METAR LGRP 100720Z 29007KT 9999 FEW025 17/02 Q1014 NOSIG
2026-04-10 06:50:00,METAR LGRP 100650Z 27008KT 9999 FEW025 16/03 Q1014 NOSIG
2026-04-10 06:20:00,METAR LGRP 100620Z 28008KT 9999 FEW020 16/03 Q1013 NOSIG
2026-04-10 05:50:00,METAR LGRP 100550Z 29008KT 9999 FEW018 16/03 Q1013 NOSIG
2026-04-10 05:20:00,METAR LGRP 100520Z 28007KT 9999 FEW018 16/03 Q1013 NOSIG
2026-04-10 04:50:00,METAR LGRP 100450Z 29006KT 9999 FEW018 15/03 Q1013 NOSIG
2026-04-10 04:20:00,METAR LGRP 100420Z 29011KT 9999 FEW018 15/06 Q1012 NOSIG
2026-04-10 03:50:00,METAR LGRP 100350Z 28011KT 9999 FEW018 15/07 Q1012 NOSIG
2026-04-10 03:20:00,METAR LGRP 100320Z 30011KT 9999 FEW018 15/09 Q1012 NOSIG
2026-04-10 02:50:00,METAR LGRP 100250Z 30011KT 9999 FEW018 15/09 Q1012 NOSIG
2026-04-10 02:20:00,METAR LGRP 100220Z 30012KT 9999 FEW018 15/08 Q1012 NOSIG
2026-04-10 01:50:00,METAR LGRP 100150Z 30013KT 9999 FEW018 15/08 Q1012 NOSIG
2026-04-10 01:20:00,METAR LGRP 100120Z 30013KT 9999 FEW018 15/09 Q1012 NOSIG
2026-04-10 00:50:00,METAR LGRP 100050Z 30010KT 9999 FEW018 15/09 Q1012 NOSIG
2026-04-10 00:20:00,METAR LGRP 100020Z 31012KT 9999 FEW018 15/07 Q1012 NOSIG
2026-04-09 23:50:00,METAR LGRP 092350Z 30011KT 9999 FEW018 15/09 Q1012 NOSIG
2026-04-09 23:20:00,METAR LGRP 092320Z 31011KT 9999 FEW018 15/09 Q1012 NOSIG
2026-04-09 22:50:00,METAR LGRP 092250Z 30011KT 9999 FEW018 15/09 Q1012 NOSIG
2026-04-09 22:20:00,METAR LGRP 092220Z 31011KT 9999 FEW018 15/09 Q1012 NOSIG
2026-04-09 21:50:00,METAR LGRP 092150Z 27006KT 9999 FEW018 15/08 Q1012 NOSIG
2026-04-09 21:20:00,METAR LGRP 092120Z 29006KT 250V310 9999 FEW018 15/07 Q1012 NOSIG
2026-04-09 20:50:00,METAR LGRP 092050Z 27007KT 9999 FEW018 15/09 Q1012 NOSIG
2026-04-09 20:20:00,METAR LGRP 092020Z 23005KT 180V280 9999 FEW018 14/10 Q1012 NOSIG
2026-04-09 19:50:00,METAR LGRP 091950Z VRB03KT 9999 FEW018 14/10 Q1012 NOSIG
2026-04-09 19:20:00,METAR LGRP 091920Z 23004KT 180V270 9999 FEW018 13/11 Q1012 NOSIG
2026-04-09 18:50:00,METAR LGRP 091850Z 00000KT 9999 FEW018 13/11 Q1011 NOSIG
2026-04-09 18:20:00,METAR LGRP 091820Z VRB01KT 9999 FEW018 14/11 Q1011 NOSIG
2026-04-09 17:50:00,METAR LGRP 091750Z VRB02KT 9999 FEW018 15/12 Q1011 NOSIG
2026-04-09 17:20:00,METAR LGRP 091720Z VRB01KT 9999 FEW018 16/11 Q1011 NOSIG
2026-04-09 16:50:00,METAR LGRP 091650Z 00000KT 9999 FEW018 16/11 Q1011 NOSIG
2026-04-09 16:20:00,METAR LGRP 091620Z 17001KT 9999 FEW018 17/11 Q1010 NOSIG
2026-04-09 15:50:00,METAR LGRP 091550Z VRB03KT 9999 FEW020 17/10 Q1010 NOSIG
2026-04-09 15:20:00,METAR LGRP 091520Z 05005KT 9999 SCT018 17/11 Q1010 NOSIG
2026-04-09 14:50:00,METAR LGRP 091450Z 04007KT 9999 BKN018 17/11 Q1010 NOSIG
2026-04-09 14:20:00,METAR LGRP 091420Z 02008KT 350V050 9999 BKN018 17/11 Q1010 NOSIG
2026-04-09 13:50:00,METAR LGRP 091350Z 03008KT 9999 BKN018 18/11 Q1010 NOSIG
2026-04-09 13:20:00,METAR LGRP 091320Z 03004KT 9999 BKN018 18/11 Q1010 NOSIG
2026-04-09 12:50:00,METAR LGRP 091250Z VRB03KT 9999 BKN018 18/11 Q1010 NOSIG
2026-04-09 12:20:00,METAR LGRP 091220Z 11004KT 010V170 9999 FEW016TCU SCT018 18/12 Q1010 NOSIG
2026-04-09 11:50:00,METAR LGRP 091150Z 11004KT 070V140 9999 -RA FEW016TCU SCT018 18/12 Q1011 NOSIG
2026-04-09 11:20:00,METAR LGRP 091120Z 13004KT 080V180 9999 SCT018 19/11 Q1011 NOSIG
2026-04-09 10:50:00,METAR LGRP 091050Z 13005KT 080V170 9999 SCT018 18/11 Q1011 NOSIG
2026-04-09 10:20:00,METAR LGRP 091020Z 06004KT 010V090 9999 FEW016TCU SCT018 18/11 Q1011 NOSIG
2026-04-09 09:50:00,METAR LGRP 090950Z 10007KT 070V130 9999 SCT018 19/11 Q1011 NOSIG
2026-04-09 09:20:00,METAR LGRP 090920Z 10004KT 090V150 9999 FEW016 19/12 Q1011 NOSIG
2026-04-09 08:50:00,METAR LGRP 090850Z 09006KT 060V130 9999 FEW016 19/12 Q1011 NOSIG
2026-04-09 08:20:00,METAR LGRP 090820Z 09005KT 070V140 9999 FEW016 20/12 Q1011 NOSIG
2026-04-09 07:50:00,METAR LGRP 090750Z VRB03KT 9999 FEW016 19/14 Q1011 NOSIG
2026-04-09 07:20:00,METAR LGRP 090720Z VRB02KT 9999 FEW016 18/14 Q1011 NOSIG
2026-04-09 06:50:00,METAR LGRP 090650Z VRB03KT 9999 FEW016 18/14 Q1011 NOSIG
2026-04-09 06:20:00,METAR LGRP 090620Z VRB03KT 9999 FEW016 18/14 Q1011 NOSIG
2026-04-09 05:50:00,METAR LGRP 090550Z VRB01KT 9999 FEW016 17/14 Q1011 NOSIG
2026-04-09 05:20:00,METAR LGRP 090520Z 00000KT 9999 FEW016 16/14 Q1011 NOSIG
2026-04-09 04:50:00,METAR LGRP 090450Z VRB03KT 9999 FEW016 15/13 Q1011 NOSIG
2026-04-09 04:20:00,METAR LGRP 090420Z VRB02KT 9999 FEW016 15/13 Q1011 NOSIG
2026-04-09 03:50:00,METAR LGRP 090350Z 22004KT CAVOK 16/15 Q1011 NOSIG
2026-04-09 03:20:00,METAR LGRP 090320Z VRB02KT 9999 SCT018 16/15 Q1011 NOSIG
2026-04-09 02:50:00,METAR LGRP 090250Z VRB03KT 9999 FEW018 16/15 Q1011 NOSIG
2026-04-09 02:20:00,METAR LGRP 090220Z 21004KT 9999 FEW018 17/15 Q1011 NOSIG
2026-04-09 01:50:00,METAR LGRP 090150Z 18004KT 150V210 9999 FEW018 17/15 Q1012 NOSIG
2026-04-09 01:20:00,METAR LGRP 090120Z 19004KT 9999 FEW018 16/14 Q1012 NOSIG
2026-04-09 00:50:00,METAR LGRP 090050Z VRB03KT 9999 FEW018 17/14 Q1012 NOSIG
2026-04-09 00:20:00,METAR LGRP 090020Z 22005KT 9999 FEW018 17/14 Q1012 NOSIG
2026-04-08 23:50:00,METAR LGRP 082350Z 26007KT 9999 FEW018 17/14 Q1012 NOSIG
2026-04-08 23:20:00,METAR LGRP 082320Z 24007KT 9999 FEW018 16/14 Q1012 NOSIG
2026-04-08 22:50:00,METAR LGRP 082250Z 23005KT 9999 FEW018 16/13 Q1012 NOSIG
2026-04-08 22:20:00,METAR LGRP 082220Z 21006KT 170V240 9999 FEW018 17/14 Q1012 NOSIG
2026-04-08 21:50:00,METAR LGRP 082150Z 23007KT 9999 FEW018 16/13 Q1012 NOSIG
2026-04-08 21:20:00,METAR LGRP 082120Z 24007KT 9999 FEW018 16/13 Q1012 NOSIG
2026-04-08 20:50:00,METAR LGRP 082050Z 23007KT 9999 FEW018 16/14 Q1012 NOSIG
2026-04-08 20:20:00,METAR LGRP 082020Z 24007KT 9999 FEW018 17/14 Q1012 NOSIG
2026-04-08 19:50:00,METAR LGRP 081950Z 22007KT 9999 FEW018 17/14 Q1012 NOSIG
2026-04-08 19:20:00,METAR LGRP 081920Z 25010KT 9999 FEW018 17/15 Q1012 NOSIG
2026-04-08 18:50:00,METAR LGRP 081850Z 23008KT 9999 FEW018 17/15 Q1012 NOSIG
2026-04-08 18:20:00,METAR LGRP 081820Z 25009KT 9999 FEW018 18/15 Q1012 NOSIG
2026-04-08 17:50:00,METAR LGRP 081750Z 24010KT 9999 FEW018 18/15 Q1012 NOSIG
2026-04-08 17:20:00,METAR LGRP 081720Z 24008KT 9999 FEW018 18/15 Q1012 NOSIG
2026-04-08 16:50:00,METAR LGRP 081650Z 24009KT 9999 FEW018 18/15 Q1012 NOSIG
2026-04-08 15:50:00,METAR LGRP 081550Z 25011KT 9999 FEW018 18/15 Q1012 NOSIG
2026-04-08 15:20:00,METAR LGRP 081520Z 25012KT 9999 FEW018 19/15 Q1012 NOSIG
2026-04-08 14:50:00,METAR LGRP 081450Z 25013KT 9999 FEW018 19/15 Q1012 NOSIG
2026-04-08 14:20:00,METAR LGRP 081420Z 25013KT 9999 FEW018 19/14 Q1012 NOSIG
2026-04-08 13:50:00,METAR LGRP 081350Z 25014KT 9999 FEW018 20/15 Q1012 NOSIG
2026-04-08 13:20:00,METAR LGRP 081320Z 26015KT 9999 FEW018 19/15 Q1012 NOSIG
2026-04-08 12:50:00,METAR LGRP 081250Z 25015KT 9999 FEW018 20/14 Q1013 NOSIG
2026-04-08 12:20:00,METAR LGRP 081220Z 25016KT 9999 FEW018 19/12 Q1013 NOSIG
2026-04-08 11:50:00,METAR LGRP 081150Z 24018KT 9999 FEW018 20/15 Q1013 NOSIG
2026-04-08 11:20:00,METAR LGRP 081120Z 25019KT 9999 FEW018 20/15 Q1014 NOSIG
2026-04-08 10:50:00,METAR LGRP 081050Z 26019KT 9999 FEW018 20/13 Q1014 NOSIG
2026-04-08 10:20:00,METAR LGRP 081020Z 25018KT 9999 FEW018 20/15 Q1014 NOSIG
2026-04-08 09:50:00,METAR LGRP 080950Z 25017KT 9999 FEW018 20/15 Q1014 NOSIG
2026-04-08 09:20:00,METAR LGRP 080920Z 24018KT 9999 FEW018 19/15 Q1014 NOSIG
2026-04-08 08:50:00,METAR LGRP 080850Z 25015KT 9999 FEW018 19/15 Q1014 NOSIG
2026-04-08 08:20:00,METAR LGRP 080820Z 25017KT 9999 FEW018 19/14 Q1015 NOSIG
2026-04-08 07:50:00,METAR LGRP 080750Z 25015KT 9999 FEW018 19/15 Q1015 NOSIG
2026-04-08 07:20:00,METAR LGRP 080720Z 24014KT 9999 FEW018 18/14 Q1014 NOSIG
2026-04-08 06:50:00,METAR LGRP 080650Z 24014KT 9999 SCT018 18/15 Q1014 NOSIG
2026-04-08 06:20:00,METAR LGRP 080620Z 24014KT 9999 SCT018 18/15 Q1014 NOSIG
2026-04-08 05:50:00,METAR LGRP 080550Z 23010KT 9999 FEW018 17/15 Q1014 NOSIG
2026-04-08 05:20:00,METAR LGRP 080520Z 23010KT 9999 FEW018 17/14 Q1014 NOSIG
2026-04-08 04:50:00,METAR LGRP 080450Z 22009KT 9999 FEW018 16/13 Q1014 NOSIG
2026-04-08 04:20:00,METAR LGRP 080420Z 23006KT 9999 FEW018 15/14 Q1014 NOSIG
2026-04-08 03:50:00,METAR LGRP 080350Z 23008KT CAVOK 16/12 Q1016 NOSIG
2026-04-08 03:20:00,METAR LGRP 080320Z 23008KT CAVOK 16/12 Q1016 NOSIG
2026-04-08 02:50:00,METAR LGRP 080250Z 23008KT CAVOK 16/12 Q1016 NOSIG
2026-04-08 01:50:00,METAR LGRP 080150Z 24010KT CAVOK 15/11 Q1017 NOSIG
2026-04-08 01:20:00,METAR LGRP 080120Z 24010KT CAVOK 15/11 Q1017 NOSIG
2026-04-08 00:50:00,METAR LGRP 080050Z 24010KT CAVOK 15/11 Q1017 NOSIG
2026-04-08 00:20:00,METAR LGRP 080020Z 23005KT CAVOK 16/11 Q1017 NOSIG
2026-04-07 23:50:00,METAR LGRP 072350Z 23008KT CAVOK 16/11 Q1017 NOSIG
2026-04-07 23:20:00,METAR LGRP 072320Z 23009KT CAVOK 16/10 Q1017 NOSIG
2026-04-07 22:50:00,METAR LGRP 072250Z 23009KT CAVOK 16/10 Q1017 NOSIG
2026-04-07 22:20:00,METAR LGRP 072220Z 23009KT CAVOK 17/10 Q1017 NOSIG
2026-04-07 21:50:00,METAR LGRP 072150Z 23009KT CAVOK 17/10 Q1017 NOSIG
2026-04-07 21:20:00,METAR LGRP 072120Z 23011KT CAVOK 17/12 Q1017 NOSIG
2026-04-07 20:50:00,METAR LGRP 072050Z 23011KT CAVOK 17/12 Q1017 NOSIG
2026-04-07 20:20:00,METAR LGRP 072020Z 23011KT CAVOK 17/12 Q1017 NOSIG
2026-04-07 19:50:00,METAR LGRP 071950Z 23011KT CAVOK 17/12 Q1017 NOSIG
2026-04-07 19:20:00,METAR LGRP 071920Z 23011KT CAVOK 18/11 Q1017 NOSIG
2026-04-07 18:50:00,METAR LGRP 071850Z 23011KT CAVOK 18/11 Q1017 NOSIG
2026-04-07 18:20:00,METAR LGRP 071820Z 25015KT CAVOK 18/11 Q1017 NOSIG
2026-04-07 17:50:00,METAR LGRP 071750Z 25015KT CAVOK 18/11 Q1017 NOSIG
2026-04-07 17:20:00,METAR LGRP 071720Z 24015KT CAVOK 19/12 Q1016 NOSIG
2026-04-07 16:50:00,METAR LGRP 071650Z 24015KT CAVOK 19/12 Q1016 NOSIG
2026-04-07 16:20:00,METAR LGRP 071620Z 25016KT CAVOK 19/12 Q1016 NOSIG
2026-04-07 15:50:00,METAR LGRP 071550Z 25016KT CAVOK 19/12 Q1016 NOSIG
2026-04-07 15:20:00,METAR LGRP 071520Z 25017KT 9999 FEW018 20/13 Q1017 NOSIG
2026-04-07 14:50:00,METAR LGRP 071450Z 25017KT 9999 FEW018 20/13 Q1017 NOSIG
2026-04-07 14:20:00,METAR LGRP 071420Z 25017KT 9999 FEW018 20/12 Q1018 NOSIG
2026-04-07 13:50:00,METAR LGRP 071350Z 25017KT 9999 FEW018 20/12 Q1018 NOSIG
2026-04-07 13:20:00,METAR LGRP 071320Z 25017KT 9999 FEW018 20/11 Q1018 NOSIG
2026-04-07 12:50:00,METAR LGRP 071250Z 25017KT 9999 FEW018 20/11 Q1018 NOSIG
2026-04-07 12:20:00,METAR LGRP 071220Z 24016KT 9999 FEW018 20/12 Q1018 NOSIG
2026-04-07 11:50:00,METAR LGRP 071150Z 24016KT 9999 FEW018 20/12 Q1018 NOSIG
2026-04-07 11:20:00,METAR LGRP 071120Z 24016KT 9999 FEW018 20/12 Q1018 NOSIG
2026-04-07 10:50:00,METAR LGRP 071050Z 25015KT 9999 FEW018 20/11 Q1018 NOSIG
2026-04-07 10:20:00,METAR LGRP 071020Z 24017KT 9999 FEW018 20/12 Q1018 NOSIG
2026-04-07 09:50:00,METAR LGRP 070950Z 25016KT 9999 FEW018 20/11 Q1018 NOSIG
2026-04-07 09:20:00,METAR LGRP 070920Z 25014KT 9999 FEW018 20/12 Q1018 NOSIG
2026-04-07 08:50:00,METAR LGRP 070850Z 25013KT 9999 FEW018 19/11 Q1018 NOSIG
2026-04-07 08:20:00,METAR LGRP 070820Z 25013KT 9999 FEW018 19/13 Q1018 NOSIG
2026-04-07 07:50:00,METAR LGRP 070750Z 25014KT 9999 FEW018 19/12 Q1018 NOSIG
2026-04-07 07:20:00,METAR LGRP 070720Z 26014KT 9999 FEW018 18/14 Q1018 NOSIG
2026-04-07 06:50:00,METAR LGRP 070650Z 25013KT 9999 FEW018 18/13 Q1018 NOSIG
2026-04-07 06:20:00,METAR LGRP 070620Z 24014KT CAVOK 18/13 Q1018 NOSIG
2026-04-07 05:50:00,METAR LGRP 070550Z 24010KT CAVOK 17/12 Q1018 NOSIG
2026-04-07 05:20:00,METAR LGRP 070520Z 24009KT CAVOK 17/13 Q1018 NOSIG
2026-04-07 04:50:00,METAR LGRP 070450Z 24009KT CAVOK 16/12 Q1017 NOSIG
2026-04-07 04:20:00,METAR LGRP 070420Z 23008KT CAVOK 15/12 Q1017 NOSIG
2026-04-07 03:50:00,METAR LGRP 070350Z 24007KT 9999 FEW018 16/13 Q1017 NOSIG
2026-04-07 03:20:00,METAR LGRP 070320Z 23008KT 9999 FEW018 16/12 Q1017 NOSIG
2026-04-07 02:50:00,METAR LGRP 070250Z 23008KT 9999 FEW018 16/13 Q1016 NOSIG
2026-04-07 02:20:00,METAR LGRP 070220Z 23008KT 9999 FEW018 16/13 Q1017 NOSIG
2026-04-07 01:50:00,METAR LGRP 070150Z 23007KT 9999 FEW018 16/13 Q1017 NOSIG
2026-04-07 01:20:00,METAR LGRP 070120Z 23007KT 9999 FEW018 16/12 Q1017 NOSIG
2026-04-07 00:50:00,METAR LGRP 070050Z 23008KT 9999 FEW018 16/13 Q1017 NOSIG
2026-04-07 00:20:00,METAR LGRP 070020Z 23004KT 9999 FEW018 16/13 Q1017 NOSIG
2026-04-06 23:50:00,METAR LGRP 062350Z 23006KT 9999 FEW018 16/13 Q1017 NOSIG
2026-04-06 23:20:00,METAR LGRP 062320Z 23007KT 9999 FEW018 16/12 Q1017 NOSIG
2026-04-06 22:50:00,METAR LGRP 062250Z 23007KT 9999 FEW018 16/13 Q1017 NOSIG
2026-04-06 22:20:00,METAR LGRP 062220Z 26004KT 9999 FEW018 16/13 Q1017 NOSIG
2026-04-06 21:50:00,METAR LGRP 062150Z 22005KT 9999 FEW018 16/13 Q1018 NOSIG
2026-04-06 21:20:00,METAR LGRP 062120Z 23005KT 9999 FEW018 16/12 Q1018 NOSIG
2026-04-06 20:50:00,METAR LGRP 062050Z 22005KT 9999 FEW018 16/12 Q1018 NOSIG
2026-04-06 20:20:00,METAR LGRP 062020Z 22005KT 9999 FEW018 16/12 Q1018 NOSIG
2026-04-06 19:50:00,METAR LGRP 061950Z 22004KT 9999 FEW018 16/12 Q1018 NOSIG
2026-04-06 19:20:00,METAR LGRP 061920Z 22005KT 9999 FEW018 16/12 Q1018 NOSIG
2026-04-06 18:50:00,METAR LGRP 061850Z 22006KT 9999 FEW018 17/12 Q1018 NOSIG
2026-04-06 18:20:00,METAR LGRP 061820Z 22006KT 9999 FEW018 17/13 Q1018 NOSIG
2026-04-06 17:50:00,METAR LGRP 061750Z 22006KT 9999 FEW018 17/12 Q1018 NOSIG
2026-04-06 17:20:00,METAR LGRP 061720Z 22005KT 9999 FEW018 18/11 Q1018 NOSIG
2026-04-06 16:50:00,METAR LGRP 061650Z 25009KT 9999 FEW018 18/10 Q1018 NOSIG
2026-04-06 16:20:00,METAR LGRP 061620Z 26010KT 9999 FEW018 19/11 Q1018 NOSIG
2026-04-06 15:50:00,METAR LGRP 061550Z 26010KT 9999 FEW018 19/10 Q1018 NOSIG
2026-04-06 14:50:00,METAR LGRP 061450Z 26010KT 9999 FEW018 20/10 Q1017 NOSIG
2026-04-06 14:20:00,METAR LGRP 061420Z 27009KT 9999 FEW018 20/11 Q1017 NOSIG
2026-04-06 13:50:00,METAR LGRP 061350Z 27009KT 9999 FEW018 20/11 Q1017 NOSIG
2026-04-06 13:20:00,METAR LGRP 061320Z 28006KT 9999 FEW018 20/11 Q1017 NOSIG
2026-04-06 12:50:00,METAR LGRP 061250Z 28006KT 250V310 9999 FEW018 20/11 Q1017 NOSIG
2026-04-06 12:20:00,METAR LGRP 061220Z 30005KT 260V350 9999 FEW018 20/11 Q1018 NOSIG
2026-04-06 11:50:00,METAR LGRP 061150Z VRB03KT 9999 FEW018 19/12 Q1018 NOSIG
2026-04-06 11:20:00,METAR LGRP 061120Z VRB03KT 9999 FEW018 19/11 Q1018 NOSIG
2026-04-06 10:50:00,METAR LGRP 061050Z VRB03KT 9999 FEW018 19/10 Q1018 NOSIG
2026-04-06 10:20:00,METAR LGRP 061020Z 32004KT 290V010 9999 FEW018 19/13 Q1019 NOSIG
2026-04-06 09:50:00,METAR LGRP 060950Z 34004KT 310V030 9999 FEW018 19/13 Q1019 NOSIG
2026-04-06 09:20:00,METAR LGRP 060920Z 33004KT 300V010 9999 FEW018 18/14 Q1019 NOSIG
2026-04-06 08:50:00,METAR LGRP 060850Z 32004KT 300V020 9999 FEW018 18/14 Q1019 NOSIG
2026-04-06 08:20:00,METAR LGRP 060820Z 32004KT 300V010 9999 FEW016 18/13 Q1019 NOSIG
2026-04-06 07:50:00,METAR LGRP 060750Z 34004KT 300V020 9999 FEW018 18/13 Q1018 NOSIG
2026-04-06 07:20:00,METAR LGRP 060720Z VRB03KT 9999 FEW018 17/13 Q1018 NOSIG
2026-04-06 06:50:00,METAR LGRP 060650Z VRB03KT 9999 FEW018 17/13 Q1018 NOSIG
2026-04-06 06:20:00,METAR LGRP 060620Z VRB03KT 9999 FEW018 16/12 Q1018 NOSIG
2026-04-06 05:50:00,METAR LGRP 060550Z VRB02KT 9999 FEW018 15/13 Q1018 NOSIG
2026-04-06 05:20:00,METAR LGRP 060520Z 00000KT 9999 FEW018 14/12 Q1018 NOSIG
2026-04-06 04:50:00,METAR LGRP 060450Z VRB02KT 9999 FEW018 13/11 Q1018 NOSIG
2026-04-06 04:20:00,METAR LGRP 060420Z VRB01KT 9999 FEW018 12/11 Q1018 NOSIG
2026-04-06 03:50:00,METAR LGRP 060350Z 13003KT CAVOK 12/10 Q1018 NOSIG
2026-04-06 03:20:00,METAR LGRP 060320Z VRB01KT CAVOK 12/08 Q1018 NOSIG
2026-04-06 02:50:00,METAR LGRP 060250Z VRB01KT CAVOK 12/08 Q1018 NOSIG RMK FEW180
2026-04-06 02:20:00,METAR LGRP 060220Z VRB01KT CAVOK 12/08 Q1017 NOSIG
2026-04-06 01:50:00,METAR LGRP 060150Z VRB01KT CAVOK 12/08 Q1017 NOSIG
2026-04-06 01:20:00,METAR LGRP 060120Z 08001KT CAVOK 12/10 Q1017 NOSIG
2026-04-06 00:50:00,METAR LGRP 060050Z 08001KT CAVOK 12/10 Q1017 NOSIG
2026-04-06 00:20:00,METAR LGRP 060020Z VRB02KT CAVOK 13/11 Q1017 NOSIG
2026-04-05 23:50:00,METAR LGRP 052350Z 22004KT CAVOK 14/10 Q1017 NOSIG
2026-04-05 23:20:00,METAR LGRP 052320Z VRB01KT CAVOK 13/09 Q1017 NOSIG
2026-04-05 22:50:00,METAR LGRP 052250Z VRB01KT CAVOK 13/09 Q1017 NOSIG
2026-04-05 22:20:00,METAR LGRP 052220Z 15001KT CAVOK 12/08 Q1017 NOSIG
2026-04-05 21:50:00,METAR LGRP 052150Z 15001KT CAVOK 12/08 Q1017 NOSIG
2026-04-05 21:20:00,METAR LGRP 052120Z VRB02KT CAVOK 12/08 Q1018 NOSIG
2026-04-05 20:50:00,METAR LGRP 052050Z VRB02KT CAVOK 12/08 Q1018 NOSIG
2026-04-05 20:20:00,METAR LGRP 052020Z VRB02KT 9999 FEW016TCU SCT018 13/09 Q1017 NOSIG
2026-04-05 19:50:00,METAR LGRP 051950Z VRB02KT 9999 FEW016TCU SCT018 13/09 Q1017 NOSIG
2026-04-05 19:20:00,METAR LGRP 051920Z VRB02KT 9999 FEW016TCU SCT018 13/09 Q1017 NOSIG
2026-04-05 18:50:00,METAR LGRP 051850Z 20004KT 9999 FEW016TCU SCT018 FEW080 SCT180 16/10 Q1017 NOSIG
2026-04-05 18:20:00,METAR LGRP 051820Z COR 20004KT 9999 FEW016TCU SCT018 14/10 Q1017 NOSIG
2026-04-05 17:50:00,METAR LGRP 051750Z 03013KT 9999 FEW016TCU SCT018 16/10 Q1017 NOSIG
2026-04-05 17:20:00,METAR LGRP 051720Z VRB03KT 9999 FEW016TCU SCT018 16/10 Q1017 NOSIG
2026-04-05 16:50:00,METAR LGRP 051650Z 25006KT 9999 FEW016TCU SCT018 16/10 Q1017 NOSIG
2026-04-05 16:20:00,METAR LGRP 051620Z 25008KT 9999 FEW016TCU SCT018 17/10 Q1017 NOSIG
2026-04-05 15:50:00,METAR LGRP 051550Z 25008KT 9999 FEW016TCU SCT018 17/10 Q1017 NOSIG
2026-04-05 15:20:00,METAR LGRP 051520Z 25009KT 9999 FEW018 18/10 Q1016 NOSIG RMK FEW080 SCT180
2026-04-05 14:50:00,METAR LGRP 051450Z 24009KT 9999 FEW018 18/11 Q1016 NOSIG
2026-04-05 12:50:00,METAR LGRP 051250Z 26010KT 9999 FEW018 18/13 Q1016 NOSIG
2026-04-05 12:20:00,METAR LGRP 051220Z 26008KT 9999 FEW018 18/13 Q1016 NOSIG
2026-04-05 11:50:00,METAR LGRP 051150Z 26008KT 9999 FEW018 18/13 Q1016 NOSIG
2026-04-05 11:20:00,METAR LGRP 051120Z 26007KT 9999 FEW018 18/12 Q1017 NOSIG
2026-04-05 10:50:00,METAR LGRP 051050Z 26007KT 9999 FEW018 18/12 Q1017 NOSIG
2026-04-05 10:20:00,METAR LGRP 051020Z 26007KT 9999 FEW018 17/12 Q1017 NOSIG
2026-04-05 09:50:00,METAR LGRP 050950Z 27006KT 9999 FEW018 17/12 Q1017 NOSIG
2026-04-05 09:20:00,METAR LGRP 050920Z 25006KT 9999 FEW018 17/13 Q1017 NOSIG
2026-04-05 08:50:00,METAR LGRP 050850Z 27004KT 9999 FEW018 17/13 Q1016 NOSIG
2026-04-05 08:20:00,METAR LGRP 050820Z VRB03KT 9999 FEW018 17/13 Q1016 NOSIG
2026-04-05 07:50:00,METAR LGRP 050750Z 27004KT 250V320 9999 FEW018 16/13 Q1016 NOSIG
2026-04-05 07:20:00,METAR LGRP 050720Z 27006KT 9999 FEW018 16/13 Q1016 NOSIG
2026-04-05 06:50:00,METAR LGRP 050650Z 25004KT 9999 SCT018 16/13 Q1016 NOSIG
2026-04-05 06:20:00,METAR LGRP 050620Z 26005KT 9999 SCT018 15/14 Q1016 NOSIG
2026-04-05 05:50:00,METAR LGRP 050550Z VRB03KT 9999 FEW018 14/14 Q1015 NOSIG
2026-04-05 05:20:00,METAR LGRP 050520Z 00000KT 9999 FEW018 14/12 Q1015 NOSIG
2026-04-05 04:50:00,METAR LGRP 050450Z VRB01KT 9999 FEW012 13/11 Q1015 NOSIG
2026-04-05 04:20:00,METAR LGRP 050420Z VRB02KT 9999 FEW012 12/12 Q1015 NOSIG
2026-04-05 03:50:00,METAR LGRP 050350Z 23002KT 9999 SCT012 12/11 Q1015 NOSIG
2026-04-05 03:20:00,METAR LGRP 050320Z 00000KT 9999 SCT012 13/10 Q1014 NOSIG
2026-04-05 02:50:00,METAR LGRP 050250Z 00000KT 9999 SCT012 SCT018 12/10 Q1014 NOSIG
2026-04-05 02:20:00,METAR LGRP 050220Z 13001KT 9999 SCT012 BKN018 12/10 Q1014 NOSIG
2026-04-05 01:50:00,METAR LGRP 050150Z 13003KT 9999 SCT012 BKN018 12/10 Q1014 NOSIG
2026-04-05 01:20:00,METAR LGRP 050120Z VRB01KT 9999 SCT012 BKN018 12/10 Q1014 NOSIG
2026-04-05 00:50:00,METAR LGRP 050050Z 16001KT 9999 SCT012 BKN018 12/10 Q1014 NOSIG
2026-04-05 00:20:00,METAR LGRP 050020Z 00000KT 9999 SCT012 BKN018 12/10 Q1014 NOSIG
2026-04-04 23:50:00,METAR LGRP 042350Z VRB02KT 9999 SCT012 BKN018 12/10 Q1014 NOSIG
2026-04-04 23:20:00,METAR LGRP 042320Z 14002KT 9999 SCT012 BKN018 12/10 Q1014 NOSIG
2026-04-04 22:50:00,METAR LGRP 042250Z 18002KT 9999 SCT012 BKN018 13/11 Q1014 NOSIG
2026-04-04 22:20:00,METAR LGRP 042220Z 22005KT 9999 SCT012 BKN018 13/11 Q1014 NOSIG
2026-04-04 21:50:00,METAR LGRP 042150Z 00000KT 9999 SCT012 BKN018 13/11 Q1014 NOSIG
2026-04-04 21:20:00,METAR LGRP 042120Z VRB02KT 9999 SCT012 BKN018 13/11 Q1014 NOSIG
2026-04-04 20:50:00,METAR LGRP 042050Z VRB02KT 9999 SCT012 BKN018 13/11 Q1014 NOSIG
2026-04-04 20:20:00,METAR LGRP 042020Z VRB03KT 9999 SCT012 BKN018 13/11 Q1014 NOSIG
2026-04-04 19:50:00,METAR LGRP 041950Z 13003KT 9999 SCT012 BKN018 13/11 Q1013 NOSIG
2026-04-04 19:20:00,METAR LGRP 041920Z 12003KT 9999 SCT012 BKN018 13/12 Q1013 NOSIG
2026-04-04 18:50:00,METAR LGRP 041850Z 12003KT 9999 SCT012 BKN018 13/12 Q1013 NOSIG
2026-04-04 18:20:00,METAR LGRP 041820Z 13004KT 110V170 9999 -RA SCT012 BKN018 13/12 Q1013 NOSIG
2026-04-04 17:50:00,METAR LGRP 041750Z VRB03KT 9999 -RA SCT012 BKN018 14/12 Q1013 NOSIG
2026-04-04 17:20:00,METAR LGRP 041720Z 14004KT 110V170 9999 SCT012 BKN018 14/13 Q1012 NOSIG
2026-04-04 16:50:00,METAR LGRP 041650Z 14004KT 100V160 9999 SCT012 BKN018 14/12 Q1012 NOSIG
2026-04-04 16:20:00,METAR LGRP 041620Z 13004KT 090V170 9999 SCT012 BKN018 14/12 Q1012 NOSIG
2026-04-04 15:50:00,METAR LGRP 041550Z 12004KT 9999 SCT012 SCT018 14/12 Q1012 NOSIG
2026-04-04 15:20:00,METAR LGRP 041520Z 14004KT 110V180 9000 FEW012 SCT018 14/11 Q1012 NOSIG
2026-04-04 14:50:00,METAR LGRP 041450Z 14005KT 110V180 9999 FEW012 FEW016TCU SCT018 15/11 Q1012 WS R06 NOSIG
2026-04-04 14:20:00,METAR LGRP 041420Z 12007KT 090V170 9999 FEW012 FEW016TCU SCT018 16/11 Q1012 NOSIG
2026-04-04 13:50:00,METAR LGRP 041350Z 06006KT 9999 FEW012 FEW016TCU SCT018 16/12 Q1012 NOSIG
2026-04-04 13:20:00,METAR LGRP 041320Z 03006KT 9999 FEW012 FEW016TCU SCT018 17/12 Q1012 NOSIG
2026-04-04 12:50:00,METAR LGRP 041250Z VRB03KT 9999 FEW012 FEW016TCU SCT018 17/12 Q1012 NOSIG
2026-04-04 12:20:00,METAR LGRP 041220Z VRB02KT 9999 -RA FEW012 FEW016TCU SCT018 16/12 Q1012 NOSIG
2026-04-04 11:50:00,METAR LGRP 041150Z 12004KT 100V170 9999 -RA FEW012 FEW016TCU SCT018 15/13 Q1012 NOSIG
2026-04-04 11:20:00,METAR LGRP 041120Z COR 23008KT 9999 -RA FEW012 FEW016TCU SCT018 15/12 Q1013 RERA NOSIG
2026-04-04 10:50:00,METAR LGRP 041050Z 27012KT 6000 2000W RA FEW012 FEW016TCU SCT018 17/12 Q1012 NOSIG
2026-04-04 10:20:00,METAR LGRP 041020Z 31006KT 9999 FEW012 FEW016TCU SCT018 17/12 Q1012 NOSIG
2026-04-04 09:50:00,METAR LGRP 040950Z 28009KT 9999 FEW012 FEW016TCU SCT018 17/11 Q1012 NOSIG
2026-04-04 09:20:00,METAR LGRP 040920Z 28008KT 9999 FEW012 FEW016TCU SCT018 17/12 Q1012 RETS NOSIG
2026-04-04 08:50:00,METAR LGRP 040850Z 26005KT 9999 VCTS FEW012 FEW016CB SCT018 16/12 Q1012 NOSIG
2026-04-04 08:20:00,METAR LGRP 040820Z 24005KT 210V280 9999 -TSRA FEW012 FEW016CB SCT018 17/12 Q1011 NOSIG
2026-04-04 07:50:00,METAR LGRP 040750Z 22004KT 190V260 9999 FEW012 FEW016TCU SCT018 17/11 Q1011 NOSIG
2026-04-04 07:20:00,METAR LGRP 040720Z 22005KT 9999 FEW012 FEW016TCU SCT018 17/12 Q1011 NOSIG
2026-04-04 06:50:00,METAR LGRP 040650Z 25011KT 9999 DZ FEW012 FEW016TCU SCT018 17/12 Q1010 NOSIG
2026-04-04 06:20:00,METAR LGRP 040620Z 23006KT 9999 FEW012 FEW016TCU SCT018 18/12 Q1010 NOSIG
2026-04-04 05:50:00,METAR LGRP 040550Z 23008KT 9999 FEW012 FEW016TCU SCT018 18/12 Q1010 NOSIG
2026-04-04 05:20:00,METAR LGRP 040520Z VRB02KT 9999 FEW012 FEW016TCU SCT018 15/11 Q1010 NOSIG
2026-04-04 04:50:00,METAR LGRP 040450Z VRB01KT 9999 FEW012 FEW016TCU SCT018 15/12 Q1009 NOSIG
2026-04-04 04:20:00,METAR LGRP 040420Z VRB01KT 9999 FEW012 FEW016TCU SCT018 15/12 Q1009 NOSIG
2026-04-04 03:50:00,METAR LGRP 040350Z VRB02KT 9999 FEW012 SCT018 14/09 Q1009 NOSIG
2026-04-04 03:20:00,METAR LGRP 040320Z 00000KT 9999 FEW012 SCT018 14/09 Q1009 NOSIG
2026-04-04 02:50:00,METAR LGRP 040250Z VRB02KT 9999 SCT018 14/09 Q1009 NOSIG
2026-04-04 02:20:00,METAR LGRP 040220Z VRB03KT 9999 SCT018 15/08 Q1009 NOSIG
2026-04-04 01:50:00,METAR LGRP 040150Z VRB02KT 9999 SCT018 16/09 Q1009 NOSIG
2026-04-04 01:20:00,METAR LGRP 040120Z VRB03KT 9999 SCT018 15/10 Q1009 NOSIG
2026-04-04 00:50:00,METAR LGRP 040050Z VRB03KT 9999 SCT018 16/10 Q1009 NOSIG
2026-04-04 00:20:00,METAR LGRP 040020Z VRB02KT 9999 SCT018 16/09 Q1010 NOSIG
2026-04-03 23:50:00,METAR LGRP 032350Z 19004KT 9999 SCT018 16/10 Q1010 NOSIG
2026-04-03 23:20:00,METAR LGRP 032320Z 20006KT 9999 SCT018 16/10 Q1010 NOSIG
2026-04-03 22:50:00,METAR LGRP 032250Z 20004KT 9999 SCT018 15/09 Q1010 NOSIG
2026-04-03 22:20:00,METAR LGRP 032220Z 20004KT 9999 SCT018 15/10 Q1010 NOSIG
2026-04-03 21:50:00,METAR LGRP 032150Z VRB03KT 9999 SCT018 15/09 Q1010 NOSIG
2026-04-03 21:20:00,METAR LGRP 032120Z 17006KT 9999 SCT018 15/09 Q1010 NOSIG
2026-04-03 20:50:00,METAR LGRP 032050Z 18007KT 140V220 9999 SCT018 15/09 Q1010 NOSIG
2026-04-03 20:20:00,METAR LGRP 032020Z 18007KT 110V200 9999 SCT018 15/10 Q1010 NOSIG
2026-04-03 19:50:00,METAR LGRP 031950Z 15007KT 130V190 9999 SCT018 15/09 Q1010 NOSIG
2026-04-03 19:20:00,METAR LGRP 031920Z 17005KT 140V210 9999 FEW016TCU SCT018 15/11 Q1010 NOSIG
2026-04-03 18:50:00,METAR LGRP 031850Z 13006KT 090V160 9999 FEW016TCU SCT018 15/11 Q1010 NOSIG
2026-04-03 18:20:00,METAR LGRP 031820Z 18006KT 150V210 9999 SCT018 15/10 Q1010 NOSIG
2026-04-03 17:50:00,METAR LGRP 031750Z 18007KT 140V210 9999 SCT018 16/10 Q1009 NOSIG
2026-04-03 17:20:00,METAR LGRP 031720Z 18007KT 150V220 9999 SCT018 16/10 Q1009 NOSIG
2026-04-03 16:50:00,METAR LGRP 031650Z VRB07KT 9999 SCT018 16/10 Q1009 NOSIG
2026-04-03 16:20:00,METAR LGRP 031620Z VRB03KT 9999 SCT018 16/10 Q1009 NOSIG
2026-04-03 15:50:00,METAR LGRP 031550Z 22006KT 9999 SCT018 17/10 Q1008 NOSIG
2026-04-03 15:20:00,METAR LGRP 031520Z 20006KT 140V260 9999 FEW016TCU SCT018 17/09 Q1009 NOSIG
2026-04-03 14:50:00,METAR LGRP 031450Z 21005KT 090V260 9999 FEW016TCU SCT018 18/10 Q1009 NOSIG
2026-04-03 14:20:00,METAR LGRP 031420Z 18005KT 080V240 9999 FEW016TCU SCT018 18/10 Q1009 NOSIG
2026-04-03 13:50:00,METAR LGRP 031350Z 05007KT 9999 FEW016TCU SCT018 17/12 Q1009 NOSIG
2026-04-03 13:20:00,METAR LGRP 031320Z 05006KT 010V100 9999 FEW010 FEW016TCU SCT018 17/12 Q1009 NOSIG
2026-04-03 12:50:00,METAR LGRP 031250Z VRB03KT 9999 FEW010 FEW016TCU SCT018 17/12 Q1009 NOSIG
2026-04-03 12:20:00,METAR LGRP 031220Z 09006KT 8000 -RA FEW010 FEW016TCU SCT018 15/12 Q1009 NOSIG
2026-04-03 11:50:00,METAR LGRP 031150Z 07008KT 9999 -RA FEW010 FEW016TCU SCT018 18/12 Q1009 NOSIG
2026-04-03 11:20:00,METAR LGRP 031120Z 06008KT 020V080 9999 FEW010 FEW016TCU SCT018 17/12 Q1009 NOSIG
2026-04-03 10:50:00,METAR LGRP 031050Z VRB06KT 9999 FEW010 FEW016TCU SCT018 18/11 Q1009 NOSIG
2026-04-03 10:20:00,METAR LGRP 031020Z VRB03KT 9999 FEW010 SCT018 18/10 Q1009 NOSIG
2026-04-03 09:50:00,METAR LGRP 030950Z 25009KT 9999 SCT018 18/10 Q1009 NOSIG
2026-04-03 09:20:00,METAR LGRP 030920Z 25010KT 9999 FEW018 18/10 Q1009 NOSIG
2026-04-03 08:50:00,METAR LGRP 030850Z 24008KT 9999 FEW018 18/10 Q1009 NOSIG
2026-04-03 08:20:00,METAR LGRP 030820Z 24012KT 9999 FEW018 17/09 Q1009 NOSIG
2026-04-03 07:50:00,METAR LGRP 030750Z 23010KT 9999 FEW018 17/09 Q1009 NOSIG
2026-04-03 07:20:00,METAR LGRP 030720Z 22008KT 9999 FEW018 16/09 Q1008 NOSIG
2026-04-03 06:50:00,METAR LGRP 030650Z 21008KT 9999 FEW018 15/09 Q1008 NOSIG
2026-04-03 06:20:00,METAR LGRP 030620Z 21009KT 9999 FEW016TCU SCT018 14/07 Q1008 RETS NOSIG
2026-04-03 05:50:00,METAR LGRP 030550Z 21008KT 9999 VCTS FEW015CB FEW016TCU SCT018 14/07 Q1007 NOSIG
2026-04-03 05:20:00,METAR LGRP 030520Z 19006KT 150V250 9999 TS FEW015CB FEW016TCU SCT018 15/08 Q1007 NOSIG
2026-04-03 04:50:00,METAR LGRP 030450Z 14004KT 110V190 9999 FEW010 SCT018 14/09 Q1006 NOSIG
2026-04-03 04:20:00,METAR LGRP 030420Z 18006KT 150V230 9999 FEW018 14/09 Q1006 NOSIG
2026-04-03 03:50:00,METAR LGRP 030350Z 19005KT 160V220 9999 FEW010 SCT020 15/07 Q1006 NOSIG
2026-04-03 03:20:00,METAR LGRP 030320Z 18005KT 9999 SCT018 14/08 Q1006 NOSIG
2026-04-03 02:50:00,METAR LGRP 030250Z VRB03KT 9999 FEW010 SCT020 14/08 Q1006 NOSIG
2026-04-03 02:20:00,METAR LGRP 030220Z 14004KT 120V200 9999 FEW010 SCT020 14/08 Q1006 NOSIG
2026-04-03 01:50:00,METAR LGRP 030150Z 15005KT 120V220 9999 FEW010 SCT020 14/08 Q1006 NOSIG
2026-04-03 01:20:00,METAR LGRP 030120Z 18006KT 9999 FEW010 SCT020 14/08 Q1006 NOSIG
2026-04-03 00:50:00,METAR LGRP 030050Z 18006KT 9999 FEW010 SCT020 14/08 Q1006 NOSIG
2026-04-03 00:20:00,METAR LGRP 030020Z 17007KT 9999 FEW010 SCT020 12/08 Q1007 NOSIG
2026-04-02 23:50:00,METAR LGRP 022350Z 17006KT 9999 FEW010 SCT020 14/08 Q1007 NOSIG
2026-04-02 23:20:00,METAR LGRP 022320Z 14006KT 9999 FEW010 SCT020 11/07 Q1007 NOSIG
2026-04-02 22:50:00,METAR LGRP 022250Z 14006KT 9999 FEW010 SCT020 11/07 Q1007 NOSIG
2026-04-02 22:20:00,METAR LGRP 022220Z 13006KT 9999 FEW010 SCT020 11/07 Q1006 NOSIG
2026-04-02 21:50:00,METAR LGRP 022150Z 15008KT 9999 FEW010 FEW016TCU 12/07 Q1007 NOSIG
2026-04-02 21:20:00,METAR LGRP 022120Z 17006KT 9999 FEW010 FEW016TCU SCT020 13/07 Q1007 RETS NOSIG
2026-04-02 20:50:00,METAR LGRP 022050Z 18008KT CAVOK 11/09 Q1006 NOSIG
2026-04-02 20:20:00,METAR LGRP 022020Z 22010KT 9999 -RA FEW016TCU SCT020 13/07 Q1006 BECMG TSRA FEW016CB BKN080
2026-04-02 19:50:00,METAR LGRP 021950Z 22009KT 140V250 6000 FEW018 16/06 Q1005 BECMG FEW018TCU
2026-04-02 19:20:00,METAR LGRP 021920Z VRB05KT 6000 FEW018 15/04 Q1005 BECMG TS FEW018CB
2026-04-02 18:50:00,METAR LGRP 021850Z 19005KT 090V250 6000 FEW018 16/06 Q1005 NOSIG
2026-04-02 18:20:00,METAR LGRP 021820Z 19008KT 150V230 6000 FEW018 16/10 Q1005 NOSIG
2026-04-02 17:50:00,METAR LGRP 021750Z 20009KT 150V230 6000 FEW018 16/08 Q1005 NOSIG
2026-04-02 17:20:00,METAR LGRP 021720Z 21007KT 100V260 6000 FEW018 16/06 Q1005 NOSIG
2026-04-02 16:50:00,METAR LGRP 021650Z VRB03KT 6000 FEW018 16/10 Q1005 NOSIG
2026-04-02 16:20:00,METAR LGRP 021620Z VRB05KT 9999 FEW018 17/07 Q1004 NOSIG
2026-04-02 15:50:00,METAR LGRP 021550Z VRB05KT 9999 FEW018 17/07 Q1004 NOSIG
2026-04-02 15:20:00,METAR LGRP 021520Z 21006KT 100V260 9999 SCT018 17/09 Q1004 NOSIG
2026-04-02 14:50:00,METAR LGRP 021450Z 23010KT 9999 FEW018 SCT020 18/08 Q1004 NOSIG
2026-04-02 14:20:00,METAR LGRP 021420Z 21010KT 150V240 9999 FEW018 SCT020 18/08 Q1004 NOSIG
2026-04-02 13:50:00,METAR LGRP 021350Z 20007KT 140V250 9999 FEW018 SCT020 18/08 Q1004 NOSIG
2026-04-02 13:20:00,METAR LGRP 021320Z VRB05KT 9999 FEW018 SCT020 19/10 Q1004 NOSIG
2026-04-02 12:50:00,METAR LGRP 021250Z 24007KT 200V260 9999 FEW018 SCT020 18/08 Q1004 NOSIG
2026-04-02 12:20:00,METAR LGRP 021220Z 25008KT 9999 FEW018 SCT020 18/08 Q1004 NOSIG
2026-04-02 11:50:00,METAR LGRP 021150Z VRB06KT 9999 FEW018 SCT020 17/09 Q1004 NOSIG
2026-04-02 11:20:00,METAR LGRP 021120Z 25012KT 9999 FEW018 SCT020 18/08 Q1004 NOSIG
2026-04-02 10:50:00,METAR LGRP 021050Z 25012KT 9999 FEW018 SCT020 18/08 Q1004 NOSIG
2026-04-02 10:20:00,METAR LGRP 021020Z 25014KT 9999 FEW018 SCT020 18/09 Q1004 NOSIG
2026-04-02 09:50:00,METAR LGRP 020950Z 25014KT 9999 FEW018 SCT020 18/09 Q1003 NOSIG
2026-04-02 09:20:00,METAR LGRP 020920Z 25006KT 9999 FEW018 SCT020 18/09 Q1003 NOSIG
2026-04-02 08:50:00,METAR LGRP 020850Z 25006KT 9999 FEW018 SCT020 18/09 Q1003 NOSIG
2026-04-02 08:20:00,METAR LGRP 020820Z 25006KT 9999 FEW018 17/10 Q1003 NOSIG
2026-04-02 07:50:00,METAR LGRP 020750Z 26004KT 9999 FEW018 18/11 Q1003 NOSIG
2026-04-02 07:20:00,METAR LGRP 020720Z 20003KT 9999 FEW018 17/11 Q1003 NOSIG
2026-04-02 06:50:00,METAR LGRP 020650Z 27005KT 9999 FEW018 17/10 Q1002 NOSIG
2026-04-02 06:20:00,METAR LGRP 020620Z 00000KT 9999 FEW018 16/12 Q1002 NOSIG
2026-04-02 05:50:00,METAR LGRP 020550Z 00000KT 9999 FEW018 16/12 Q1002 NOSIG
2026-04-02 05:20:00,METAR LGRP 020520Z VRB03KT 9999 FEW010 SCT018 15/11 Q1001 NOSIG
2026-04-02 04:50:00,METAR LGRP 020450Z VRB03KT 9999 FEW010 SCT018 15/11 Q1001 NOSIG
2026-04-02 04:20:00,METAR LGRP 020420Z VRB03KT 9999 FEW010 SCT018 16/13 Q1000 NOSIG
2026-04-02 03:50:00,METAR LGRP 020350Z VRB02KT 9999 FEW010 SCT018 15/13 Q1000 NOSIG
2026-04-02 03:20:00,METAR LGRP 020320Z VRB03KT 9999 FEW010 SCT018 15/13 Q0999 NOSIG
2026-04-02 02:50:00,METAR LGRP 020250Z 16005KT 9999 FEW010 SCT018 15/13 Q0999 NOSIG
2026-04-02 02:20:00,METAR LGRP 020220Z 15005KT 9999 FEW010 SCT018 15/13 Q0999 NOSIG
2026-04-02 01:50:00,METAR LGRP 020150Z 18005KT 130V200 9999 FEW010 SCT018 16/13 Q0999 NOSIG
2026-04-02 01:20:00,METAR LGRP 020120Z 16006KT 9999 FEW010 SCT018 16/13 Q0999 NOSIG
2026-04-02 00:50:00,METAR LGRP 020050Z 20007KT 160V250 9999 FEW010 SCT018 16/14 Q0999 WS R06 NOSIG
2026-04-02 00:20:00,METAR LGRP 020020Z 15010KT 110V200 9999 FEW010 SCT018 17/14 Q0999 WS R06 NOSIG
2026-04-01 23:50:00,METAR LGRP 012350Z COR 20007KT 160V240 7000 FEW010 SCT018 18/15 Q1000 NOSIG
2026-04-01 23:20:00,METAR LGRP 012320Z 19006G16KT 140V310 5000 DU FEW010 SCT018 18/16 Q1000 WS R06 NOSIG
2026-04-01 22:50:00,METAR LGRP 012250Z VRB07G20KT 4000 DU FEW010 BKN018 18/17 Q1000 WS ALL RWY NOSIG
2026-04-01 22:20:00,METAR LGRP 012220Z VRB07G20KT 7000 FEW010 BKN018 18/17 Q1000 WS ALL RWY NOSIG
2026-04-01 21:50:00,METAR LGRP 012150Z VRB10G25KT 6000 -RA FEW010 FEW016TCU SCT018 16/14 Q1000 RERA WS ALL RWY NOSIG
2026-04-01 21:20:00,METAR LGRP 012120Z VRB08G18KT 3000 +RA FEW010 FEW016TCU SCT018 15/15 Q1001 WS ALL RWY NOSIG
2026-04-01 20:50:00,METAR LGRP 012050Z VRB09G25KT 3000 +RA FEW010 FEW016TCU SCT018 15/15 Q1001 RETS WS ALL RWY NOSIG
2026-04-01 20:20:00,METAR LGRP 012020Z 14020G40KT 090V220 2000 +TSRA FEW010 FEW016CB SCT018 14/14 Q1001 WS ALL RWY NOSIG
2026-04-01 19:50:00,METAR LGRP 011950Z 13018G30KT 070V160 2000 +TSRA FEW010 FEW016CB SCT018 14/14 Q1000 WS ALL RWY NOSIG
2026-04-01 19:20:00,METAR LGRP 011920Z VRB22G40KT 4000 TSRA FEW010 FEW016CB SCT018 14/14 Q0999 WS ALL RWY NOSIG
2026-04-01 18:50:00,METAR LGRP 011850Z 12023G48KT 080V160 3000 +RA FEW010 FEW016TCU SCT018 15/14 Q0999 WS ALL RWY NOSIG
2026-04-01 18:20:00,METAR LGRP 011820Z 11023G45KT 050V190 3000 +RA FEW010 FEW016TCU SCT018 15/14 Q0999 WS ALL RWY NOSIG
2026-04-01 17:50:00,METAR LGRP 011750Z 10024G45KT 020V140 4000 RA FEW010 FEW016TCU SCT018 15/14 Q0998 WS ALL RWY NOSIG
2026-04-01 17:20:00,METAR LGRP 011720Z 11023G40KT 070V180 3000 RA FEW010 FEW016TCU SCT018 15/13 Q0998 WS ALL RWY NOSIG
2026-04-01 16:50:00,METAR LGRP 011650Z 11017G38KT 050V190 3000 RA FEW010 FEW016TCU SCT018 15/12 Q1000 WS ALL RWY NOSIG
2026-04-01 16:20:00,METAR LGRP 011620Z VRB14G30KT 4000 RA FEW010 FEW016TCU SCT018 16/12 Q1001 WS ALL RWY NOSIG
2026-04-01 15:50:00,METAR LGRP 011550Z 09020G40KT 040V160 3000 RA FEW010 FEW016TCU SCT018 16/12 Q1001 WS ALL RWY NOSIG
2026-04-01 15:20:00,METAR LGRP 011520Z 10016G30KT 040V170 8000 -RA FEW010 FEW016TCU SCT018 16/12 Q1001 WS ALL RWY NOSIG
2026-04-01 14:50:00,METAR LGRP 011450Z 11019G38KT 060V160 8000 -RA FEW010 FEW016TCU SCT018 16/12 Q1001 WS ALL RWY NOSIG
2026-04-01 13:50:00,METAR LGRP 011350Z VRB19G45KT 6000 -RA FEW010 FEW016TCU SCT018 16/12 Q1003 WS ALL RWY NOSIG
2026-04-01 13:20:00,METAR LGRP 011320Z 08020G40KT 030V120 9000 -RA FEW010 FEW016TCU SCT018 17/12 Q1003 WS ALL RWY NOSIG
2026-04-01 12:50:00,METAR LGRP 011250Z 09017G36KT 040V150 9999 FEW010 FEW016TCU SCT018 17/12 Q1004 WS ALL RWY NOSIG
2026-04-01 12:20:00,METAR LGRP 011220Z 09020G38KT 040V150 9999 FEW010 FEW016TCU SCT018 17/12 Q1004 WS ALL RWY NOSIG
2026-04-01 11:50:00,METAR LGRP 011150Z VRB20G38KT 9999 FEW010 FEW016TCU SCT018 18/11 Q1005 WS ALL RWY NOSIG
2026-04-01 11:20:00,METAR LGRP 011120Z VRB20G40KT 9999 FEW010 FEW016TCU SCT018 18/13 Q1005 WS ALL RWY NOSIG
2026-04-01 10:50:00,METAR LGRP 011050Z VRB20G35KT 9999 FEW010 FEW016TCU SCT018 18/13 Q1006 WS ALL RWY NOSIG
2026-04-01 10:20:00,METAR LGRP 011020Z VRB15G30KT 9999 FEW010 FEW016TCU SCT018 18/13 Q1006 WS ALL RWY NOSIG
2026-04-01 09:50:00,METAR LGRP 010950Z 08012G24KT 030V150 9999 FEW010 FEW016TCU SCT018 18/13 Q1007 WS ALL RWY NOSIG
2026-04-01 09:20:00,METAR LGRP 010920Z VRB15G32KT 9999 FEW010 FEW016TCU SCT018 17/13 Q1007 WS ALL RWY NOSIG
2026-04-01 08:50:00,METAR LGRP 010850Z VRB14G30KT 9999 FEW010 FEW016TCU SCT018 17/13 Q1007 WS ALL RWY NOSIG
2026-04-01 08:20:00,METAR LGRP 010820Z 10015G25KT 070V150 9999 FEW010 FEW016TCU SCT018 16/14 Q1008 RETS WS ALL RWY NOSIG
2026-04-01 07:50:00,METAR LGRP 010750Z VRB07G19KT 9999 TS FEW010 FEW015CB SCT018 16/12 Q1008 WS ALL RWY NOSIG
2026-04-01 07:20:00,METAR LGRP 010720Z 09016G38KT 030V130 9999 TS FEW010 FEW015CB SCT018 16/12 Q1007 WS ALL RWY NOSIG
2026-04-01 06:50:00,METAR LGRP 010650Z 09016G28KT 070V170 9999 FEW010 SCT018 17/11 Q1007 WS ALL RWY NOSIG
2026-04-01 06:20:00,METAR LGRP 010620Z VRB15G25KT 9999 FEW010 SCT018 17/11 Q1007 WS ALL RWY NOSIG
2026-04-01 05:50:00,METAR LGRP 010550Z 10014G31KT 060V160 9999 FEW010 SCT018 17/11 Q1008 WS ALL RWY NOSIG
2026-04-01 05:20:00,METAR LGRP 010520Z VRB12G22KT 9999 SCT018 16/11 Q1008 WS ALL RWY NOSIG
2026-04-01 04:50:00,METAR LGRP 010450Z VRB12G26KT 9999 SCT018 16/11 Q1008 WS ALL RWY NOSIG
2026-04-01 04:20:00,METAR LGRP 010420Z 10013G25KT 020V140 9999 SCT018 16/12 Q1008 WS ALL RWY
2026-04-01 03:50:00,METAR LGRP 010350Z 09010G23KT 050V140 9999 SCT018 15/10 Q1008 WS ALL RWY
2026-04-01 03:20:00,METAR LGRP 010320Z 09010KT 050V130 9999 FEW018 15/10 Q1008 WS R06
2026-04-01 02:50:00,METAR LGRP 010250Z 09009G19KT 060V120 9999 SCT020 15/10 Q1008 WS R06
2026-04-01 02:20:00,METAR LGRP 010220Z 08009G19KT 330V120 9999 SCT020 14/10 Q1009 WS R06
2026-04-01 01:50:00,METAR LGRP 010150Z VRB03KT 9999 SCT020 13/11 Q1010
2026-04-01 01:20:00,METAR LGRP 010120Z VRB03KT 9999 FEW010 SCT020 12/09 Q1010
2026-04-01 00:50:00,METAR LGRP 010050Z VRB03KT 9999 FEW010 SCT020 13/10 Q1010
2026-04-01 00:20:00,METAR LGRP 010020Z VRB02KT 9999 FEW010 SCT020 11/09 Q1011
2026-03-31 23:50:00,METAR LGRP 312350Z VRB01KT 9999 FEW010 SCT020 12/09 Q1011 NOSIG
2026-03-31 23:20:00,METAR LGRP 312320Z VRB02KT 9999 FEW010 SCT020 12/06 Q1011 NOSIG
2026-03-31 22:50:00,METAR LGRP 312250Z VRB02KT 9999 FEW010 SCT020 12/06 Q1011 NOSIG
2026-03-31 22:20:00,METAR LGRP 312220Z 12004KT 9999 FEW010 SCT020 12/09 Q1011 NOSIG
2026-03-31 21:50:00,METAR LGRP 312150Z 12004KT 9999 FEW010 SCT020 12/09 Q1011 NOSIG
2026-03-31 21:20:00,METAR LGRP 312120Z VRB03KT 9999 FEW010 SCT020 12/09 Q1011 NOSIG
2026-03-31 20:50:00,METAR LGRP 312050Z VRB03KT 9999 FEW010 SCT020 12/09 Q1011 NOSIG
2026-03-31 20:20:00,METAR LGRP 312020Z VRB03KT 9999 FEW010 SCT020 13/09 Q1011 NOSIG
2026-03-31 19:50:00,METAR LGRP 311950Z 12004KT 9999 FEW010 SCT020 13/09 Q1011 WS R06 NOSIG
2026-03-31 19:20:00,METAR LGRP 311920Z VRB03KT 9999 FEW010 SCT020 14/10 Q1011 NOSIG
2026-03-31 18:50:00,METAR LGRP 311850Z VRB03KT 9999 FEW010 SCT020 14/10 Q1011 NOSIG
2026-03-31 18:20:00,METAR LGRP 311820Z COR VRB03KT 9999 FEW010 SCT020 14/10 Q1010 NOSIG
2026-03-31 17:50:00,METAR LGRP 311750Z VRB03KT 9999 FEW010 SCT020 14/11 Q1010 NOSIG
2026-03-31 17:20:00,METAR LGRP 311720Z VRB03KT 9999 FEW010 SCT020 15/11 Q1010 NOSIG
2026-03-31 16:50:00,METAR LGRP 311650Z VRB03KT 9999 FEW010 SCT020 15/11 Q1010 NOSIG
2026-03-31 16:20:00,METAR LGRP 311620Z VRB03KT 9999 FEW010 SCT020 15/12 Q1011 NOSIG
2026-03-31 15:50:00,METAR LGRP 311550Z 11008KT 070V170 9999 FEW010 SCT020 15/12 Q1010 NOSIG
2026-03-31 15:20:00,METAR LGRP 311520Z 12009KT 080V140 9999 FEW010 SCT020 16/11 Q1010 NOSIG
2026-03-31 14:50:00,METAR LGRP 311450Z 12007KT 9999 FEW010 SCT020 16/11 Q1010 NOSIG
2026-03-31 14:20:00,METAR LGRP 311420Z 11008KT 9999 FEW010 SCT020 15/10 Q1010
2026-03-31 13:50:00,METAR LGRP 311350Z VRB07KT 9999 FEW010 SCT020 15/10 Q1010 NOSIG
2026-03-31 13:20:00,METAR LGRP 311320Z 13009KT 100V160 9999 FEW010 SCT020 15/08 Q1010 WS R06 NOSIG
2026-03-31 12:50:00,METAR LGRP 311250Z 13010KT 090V200 9999 FEW010 SCT020 16/09 Q1010 WS ALL RWY NOSIG
2026-03-31 12:20:00,METAR LGRP 311220Z VRB05KT 9999 FEW010 SCT020 16/10 Q1010 NOSIG
2026-03-31 11:50:00,METAR LGRP 311150Z VRB08G15KT 9999 FEW010 SCT020 17/11 Q1010 WS ALL RWY NOSIG
2026-03-31 11:20:00,METAR LGRP 311120Z VRB08G18KT 9999 FEW010 SCT020 17/11 Q1010 WS ALL RWY NOSIG
2026-03-31 10:50:00,METAR LGRP 311050Z VRB11G24KT 9999 FEW010 SCT020 17/11 Q1010 WS ALL RWY NOSIG
2026-03-31 10:20:00,METAR LGRP 311020Z VRB06G16KT 9999 FEW010 SCT020 17/12 Q1010 WS ALL RWY NOSIG
2026-03-31 09:50:00,METAR LGRP 310950Z VRB07KT 9999 FEW010 SCT020 17/12 Q1010 WS R06 NOSIG
2026-03-31 09:20:00,METAR LGRP 310920Z 12011KT 090V150 9999 FEW010 SCT020 17/12 Q1010 WS ALL RWY NOSIG
2026-03-31 08:50:00,METAR LGRP 310850Z 10008KT 040V140 9999 FEW010 SCT020 17/11 Q1010 NOSIG
2026-03-31 08:20:00,METAR LGRP 310820Z 10006KT 070V150 9999 FEW010 SCT020 17/10 Q1010 NOSIG
2026-03-31 07:50:00,METAR LGRP 310750Z 15004KT 090V200 9999 FEW010 SCT020 17/12 Q1010 NOSIG
2026-03-31 07:20:00,METAR LGRP 310720Z 11005KT 070V180 9999 FEW018 17/11 Q1010
2026-03-31 06:50:00,METAR LGRP 310650Z 10005KT 060V160 9999 FEW018 17/11 Q1009 NOSIG
2026-03-31 06:20:00,METAR LGRP 310620Z VRB03KT 9999 FEW018 16/10 Q1009 NOSIG
2026-03-31 05:50:00,METAR LGRP 310550Z 11005KT 9999 FEW018 16/10 Q1009 NOSIG
2026-03-31 05:20:00,METAR LGRP 310520Z VRB03KT 9999 FEW018 15/09 Q1009 NOSIG
2026-03-31 04:50:00,METAR LGRP 310450Z VRB03KT 9999 FEW018 14/08 Q1009 NOSIG
2026-03-31 04:20:00,METAR LGRP 310420Z VRB03KT 9999 FEW018 14/08 Q1009 NOSIG
2026-03-31 03:50:00,METAR LGRP 310350Z 12005KT 9999 SCT018 13/07 Q1009 NOSIG
2026-03-31 03:20:00,METAR LGRP 310320Z VRB04KT 9999 FEW018 12/07 Q1009 NOSIG
2026-03-31 02:50:00,METAR LGRP 310250Z 14003KT 9999 FEW018 12/07 Q1009 NOSIG
2026-03-31 02:20:00,METAR LGRP 310220Z VRB02KT 9999 FEW018 11/09 Q1009 NOSIG
2026-03-31 01:50:00,METAR LGRP 310150Z VRB02KT 9999 FEW018 11/08 Q1009 NOSIG
2026-03-31 01:20:00,METAR LGRP 310120Z VRB02KT 9999 FEW018 11/07 Q1009 NOSIG
2026-03-31 00:50:00,METAR LGRP 310050Z VRB01KT 9999 FEW018 11/07 Q1009 NOSIG
2026-03-31 00:20:00,METAR LGRP 310020Z 00000KT 9999 FEW018 11/09 Q1009 NOSIG
2026-03-30 23:50:00,METAR LGRP 302350Z 00000KT 9999 FEW018 11/09 Q1009 NOSIG
2026-03-30 23:20:00,METAR LGRP 302320Z 00000KT 9999 FEW018 12/08 Q1010 NOSIG
2026-03-30 22:50:00,METAR LGRP 302250Z VRB02KT 9999 FEW018 13/09 Q1009 NOSIG
2026-03-30 22:20:00,METAR LGRP 302220Z VRB01KT 9999 FEW018 13/09 Q1009 NOSIG
2026-03-30 21:50:00,METAR LGRP 302150Z VRB02KT 9999 FEW018 13/07 Q1009 NOSIG
2026-03-30 21:20:00,METAR LGRP 302120Z VRB01KT 9999 FEW018 14/07 Q1009 NOSIG
2026-03-30 20:50:00,METAR LGRP 302050Z VRB02KT 9999 FEW018 15/06 Q1009 NOSIG
2026-03-30 20:20:00,METAR LGRP 302020Z 22004KT 180V250 9999 FEW018 15/07 Q1009 NOSIG
2026-03-30 19:50:00,METAR LGRP 301950Z 23004KT 190V260 9999 FEW018 15/06 Q1009 NOSIG
2026-03-30 19:20:00,METAR LGRP 301920Z 25006KT 9999 FEW018 16/04 Q1009 NOSIG
2026-03-30 18:50:00,METAR LGRP 301850Z 26008KT 9999 FEW018 16/06 Q1009 NOSIG
2026-03-30 18:20:00,METAR LGRP 301820Z 27009KT 9999 FEW018 16/05 Q1009 NOSIG
2026-03-30 17:50:00,METAR LGRP 301750Z 27010KT 9999 FEW018 17/06 Q1009 NOSIG
2026-03-30 17:20:00,METAR LGRP 301720Z 27011KT 9999 FEW018 17/06 Q1009 NOSIG
2026-03-30 16:50:00,METAR LGRP 301650Z 27011KT 9999 FEW018 17/06 Q1008 NOSIG
2026-03-30 16:20:00,METAR LGRP 301620Z 26011KT 9999 SCT018 17/06 Q1008 NOSIG
2026-03-30 15:50:00,METAR LGRP 301550Z 26012KT 9999 SCT018 18/06 Q1008 NOSIG
2026-03-30 15:20:00,METAR LGRP 301520Z 27012KT 9999 SCT018 18/06 Q1008 NOSIG
2026-03-30 14:50:00,METAR LGRP 301450Z 27012KT 9999 SCT018 18/06 Q1008 NOSIG
2026-03-30 14:20:00,METAR LGRP 301420Z 27011KT 9999 SCT018 18/06 Q1008 NOSIG
2026-03-30 13:50:00,METAR LGRP 301350Z 26013KT 9999 SCT018 18/06 Q1008 NOSIG
2026-03-30 13:20:00,METAR LGRP 301320Z 26014KT 9999 SCT018 18/05 Q1008 NOSIG
2026-03-30 12:50:00,METAR LGRP 301250Z 26014KT 9999 SCT018 18/06 Q1009 NOSIG
2026-03-30 12:20:00,METAR LGRP 301220Z 26013KT 9999 SCT018 18/08 Q1009 NOSIG
2026-03-30 11:50:00,METAR LGRP 301150Z 25011KT 9999 SCT018 18/08 Q1009 NOSIG
2026-03-30 11:20:00,METAR LGRP 301120Z 26011KT 9999 FEW018 18/08 Q1009 NOSIG
2026-03-30 10:50:00,METAR LGRP 301050Z 26009KT 240V300 9999 FEW018 18/09 Q1010 NOSIG
2026-03-30 10:20:00,METAR LGRP 301020Z 26009KT 9999 FEW018 17/08 Q1010 NOSIG
2026-03-30 09:50:00,METAR LGRP 300950Z 26007KT 9999 FEW018 17/08 Q1010 NOSIG
2026-03-30 09:20:00,METAR LGRP 300920Z 28005KT 220V350 9999 FEW018 17/08 Q1010 NOSIG
2026-03-30 08:50:00,METAR LGRP 300850Z VRB03KT 9999 FEW018 17/08 Q1010 NOSIG
2026-03-30 08:20:00,METAR LGRP 300820Z 35005KT 310V020 9999 FEW018 17/08 Q1010 NOSIG
2026-03-30 07:50:00,METAR LGRP 300750Z 30004KT 270V010 9999 FEW018 17/09 Q1010 NOSIG
2026-03-30 07:20:00,METAR LGRP 300720Z 29008KT 9999 SCT018 17/08 Q1010 NOSIG
2026-03-30 06:50:00,METAR LGRP 300650Z COR 30006KT 270V340 9999 SCT018 15/09 Q1010 NOSIG
2026-03-30 06:20:00,METAR LGRP 300620Z 30004KT 270V360 9999 SCT018 15/09 Q1010 NOSIG
2026-03-30 05:50:00,METAR LGRP 300550Z 33005KT 300V030 9999 SCT018 16/09 Q1009 NOSIG
2026-03-30 05:20:00,METAR LGRP 300520Z 30007KT 270V010 9999 SCT018 15/09 Q1009 NOSIG
2026-03-30 04:50:00,METAR LGRP 300450Z 32006KT 300V360 9999 SCT018 15/08 Q1009 NOSIG
2026-03-30 04:20:00,METAR LGRP 300420Z 29008KT 9999 FEW018 14/08 Q1009 NOSIG
2026-03-30 03:50:00,METAR LGRP 300350Z 29008KT 9999 FEW018 14/09 Q1008 NOSIG
2026-03-30 03:20:00,METAR LGRP 300320Z 29008KT 9999 FEW018 14/08 Q1008 NOSIG
2026-03-30 02:50:00,METAR LGRP 300250Z 28009KT 9999 FEW018 14/08 Q1008 NOSIG
2026-03-30 02:20:00,METAR LGRP 300220Z 29009KT 9999 FEW018 13/09 Q1008 NOSIG
2026-03-30 01:50:00,METAR LGRP 300150Z 28009KT 9999 FEW018 13/09 Q1008 NOSIG
2026-03-30 01:20:00,METAR LGRP 300120Z 27009KT 9999 FEW018 14/09 Q1008 NOSIG
2026-03-30 00:50:00,METAR LGRP 300050Z 28007KT 9999 FEW018 14/09 Q1008 NOSIG
2026-03-30 00:20:00,METAR LGRP 300020Z 28007KT 9999 FEW018 14/09 Q1008 NOSIG
2026-03-29 23:50:00,METAR LGRP 292350Z 29006KT 9999 FEW018 14/09 Q1008 NOSIG
2026-03-29 23:20:00,METAR LGRP 292320Z 29006KT 9999 FEW018 14/07 Q1008 NOSIG
2026-03-29 22:50:00,METAR LGRP 292250Z VRB01KT 9999 FEW018 14/07 Q1008 NOSIG
2026-03-29 22:20:00,METAR LGRP 292220Z 29007KT 9999 FEW018 14/08 Q1008 NOSIG
2026-03-29 21:50:00,METAR LGRP 292150Z 29008KT 9999 FEW018 15/08 Q1008 NOSIG
2026-03-29 21:20:00,METAR LGRP 292120Z 29009KT 9999 FEW018 14/09 Q1008 NOSIG
2026-03-29 20:50:00,METAR LGRP 292050Z 27007KT 9999 FEW018 14/08 Q1008 NOSIG
2026-03-29 20:20:00,METAR LGRP 292020Z 27007KT 9999 FEW018 14/09 Q1008 NOSIG
2026-03-29 19:50:00,METAR LGRP 291950Z 28008KT 9999 FEW018 15/08 Q1008 NOSIG
2026-03-29 19:20:00,METAR LGRP 291920Z 30009KT 270V340 9999 FEW018 15/08 Q1008 NOSIG
2026-03-29 18:50:00,METAR LGRP 291850Z 29008KT 9999 FEW018 15/08 Q1008 NOSIG
2026-03-29 18:20:00,METAR LGRP 291820Z 30008KT 9999 FEW018 15/08 Q1007 NOSIG
2026-03-29 17:50:00,METAR LGRP 291750Z 31008KT 9999 FEW018 15/08 Q1007 NOSIG
2026-03-29 17:20:00,METAR LGRP 291720Z 30009KT 9999 FEW018 15/07 Q1006 NOSIG
2026-03-29 16:50:00,METAR LGRP 291650Z 28011KT 9999 FEW018 15/09 Q1006 NOSIG
2026-03-29 16:20:00,METAR LGRP 291620Z 27012KT 9999 SCT018 16/08 Q1006 NOSIG
2026-03-29 15:50:00,METAR LGRP 291550Z 26016KT 9999 FEW016TCU SCT018 16/07 Q1006 NOSIG
2026-03-29 15:20:00,METAR LGRP 291520Z 26017KT 9999 SCT018 16/07 Q1005 NOSIG
2026-03-29 14:50:00,METAR LGRP 291450Z 26017KT 9999 SCT018 17/07 Q1005 NOSIG
2026-03-29 14:20:00,METAR LGRP 291420Z 26019KT 9999 SCT018 17/08 Q1005 NOSIG
2026-03-29 13:50:00,METAR LGRP 291350Z 25016KT 9999 SCT018 17/08 Q1004 NOSIG
2026-03-29 13:20:00,METAR LGRP 291320Z 25019KT 9999 DZ BKN018 16/06 Q1005 NOSIG
2026-03-29 12:50:00,METAR LGRP 291250Z 25017KT 9999 FEW016TCU SCT018 17/09 Q1004 NOSIG
2026-03-29 12:20:00,METAR LGRP 291220Z 25015KT 9999 SCT018 17/09 Q1004 NOSIG
2026-03-29 11:50:00,METAR LGRP 291150Z 25016KT 9999 SCT018 17/07 Q1004 NOSIG
2026-03-29 11:20:00,METAR LGRP 291120Z 25015KT 9999 SCT018 17/07 Q1004 NOSIG
2026-03-29 10:50:00,METAR LGRP 291050Z 26011KT 9999 SCT018 17/08 Q1004 NOSIG
2026-03-29 10:20:00,METAR LGRP 291020Z 26011KT 9999 SCT018 16/07 Q1004 NOSIG
2026-03-29 09:50:00,METAR LGRP 290950Z 26008KT 9999 SCT018 15/07 Q1004 NOSIG
2026-03-29 09:20:00,METAR LGRP 290920Z 27006KT 9999 SCT018 16/08 Q1004 NOSIG
2026-03-29 08:50:00,METAR LGRP 290850Z 29005KT 250V320 9999 SCT018 15/08 Q1003 NOSIG
2026-03-29 08:20:00,METAR LGRP 290820Z 30004KT 260V340 9999 SCT018 15/07 Q1003 NOSIG
2026-03-29 07:50:00,METAR LGRP 290750Z 28006KT 9999 SCT018 15/08 Q1003 NOSIG
2026-03-29 07:20:00,METAR LGRP 290720Z 29007KT 270V340 9999 FEW018 14/08 Q1003 NOSIG
2026-03-29 06:50:00,METAR LGRP 290650Z 26006KT 9999 FEW010 SCT018 13/11 Q1002 NOSIG
2026-03-29 06:20:00,METAR LGRP 290620Z 29017KT 9999 -DZ FEW010 FEW016TCU SCT018 13/08 Q1002 NOSIG
2026-03-29 05:50:00,METAR LGRP 290550Z 30012KT 9999 FEW010 FEW016TCU SCT018 14/07 Q1001 NOSIG
2026-03-29 05:20:00,METAR LGRP 290520Z 25011KT 9999 FEW010 FEW016TCU SCT018 13/08 Q1001 NOSIG
2026-03-29 04:50:00,METAR LGRP 290450Z 28016KT 9999 -RA FEW010 FEW016TCU SCT018 13/07 Q1001 NOSIG
2026-03-29 04:20:00,METAR LGRP 290420Z 29011KT 260V320 9999 FEW010 FEW016TCU SCT018 13/08 Q1000 NOSIG
2026-03-29 03:50:00,METAR LGRP 290350Z 26016KT 9999 FEW012 14/08 Q1001 NOSIG
2026-03-29 03:20:00,METAR LGRP 290320Z 27015KT 9999 FEW012 14/08 Q1000 NOSIG
2026-03-29 02:50:00,METAR LGRP 290250Z 26015KT 9999 TS FEW012 FEW016CB SCT020 13/11 Q1000 NOSIG
2026-03-29 02:20:00,METAR LGRP 290220Z 27016KT 9999 TS FEW016CB 14/08 Q1001 NOSIG
2026-03-29 01:50:00,METAR LGRP 290150Z 27016KT 9999 TS FEW016CB 14/08 Q1001 NOSIG
2026-03-29 01:20:00,METAR LGRP 290120Z 26023KT 9999 TS FEW016CB 14/10 Q1000 NOSIG
2026-03-29 00:50:00,METAR LGRP 290050Z 26023KT 9999 TS FEW016CB 14/10 Q1000 NOSIG
2026-03-29 00:20:00,METAR LGRP 290020Z 26016KT 9999 TS FEW016CB 13/09 Q1000 NOSIG
2026-03-28 23:50:00,METAR LGRP 282350Z 23009KT 9999 TS FEW016CB 12/09 Q1001 NOSIG
2026-03-28 23:20:00,METAR LGRP 282320Z 23008KT 9999 TS FEW012 FEW016CB BKN020 12/08 Q1001 NOSIG
2026-03-28 22:50:00,METAR LGRP 282250Z 18004KT 9999 FEW010 FEW016TCU BKN020 12/10 Q1001 NOSIG
2026-03-28 22:20:00,METAR LGRP 282220Z 15004KT 9999 FEW010 FEW016TCU BKN020 12/10 Q1002 NOSIG
2026-03-28 21:50:00,METAR LGRP 282150Z 15004KT 9999 FEW010 FEW016TCU BKN020 12/10 Q1002 NOSIG
2026-03-28 21:20:00,METAR LGRP 282120Z 23005KT 5000 RA FEW010 FEW016TCU BKN020 12/10 Q1001 NOSIG
2026-03-28 20:50:00,METAR LGRP 282050Z 23005KT 5000 RA FEW010 FEW016TCU BKN020 12/10 Q1001 NOSIG
2026-03-28 20:20:00,METAR LGRP 282020Z 25013KT 5000 RA FEW010 FEW016TCU BKN020 12/10 Q1002 NOSIG
2026-03-28 19:50:00,METAR LGRP 281950Z 27019KT 9999 RA FEW010 FEW016TCU BKN020 12/10 Q1002 NOSIG
2026-03-28 19:20:00,METAR LGRP 281920Z 27021KT 5000 RA FEW010 FEW016TCU BKN020 13/12 Q1001 NOSIG
2026-03-28 18:50:00,METAR LGRP 281850Z 23019G31KT 200V260 3000 RA FEW010 FEW016TCU BKN020 13/11 Q1001 NOSIG
2026-03-28 18:20:00,METAR LGRP 281820Z VRB05KT 9999 FEW010 FEW016TCU BKN020 14/11 Q0999 WS ALL RWY NOSIG
2026-03-28 17:50:00,METAR LGRP 281750Z VRB08G23KT 9999 -RA FEW010 FEW016TCU BKN020 14/11 Q0999 WS ALL RWY NOSIG
2026-03-28 17:20:00,METAR LGRP 281720Z 10011G25KT 020V150 9999 -RA FEW010 FEW016TCU BKN020 14/11 Q0999 WS ALL RWY NOSIG
2026-03-28 16:50:00,METAR LGRP 281650Z VRB06G17KT 9999 -RA FEW010 FEW016TCU BKN020 14/12 Q1000 WS ALL RWY NOSIG
2026-03-28 16:20:00,METAR LGRP 281620Z VRB05KT 9999 -DZ FEW010 FEW016TCU BKN020 14/11 Q1001 WS R06 NOSIG
2026-03-28 15:50:00,METAR LGRP 281550Z VRB06G22KT 9999 -DZ FEW010 FEW016TCU BKN020 14/10 Q1002 WS R24 NOSIG
2026-03-28 15:20:00,METAR LGRP 281520Z 19009G24KT 090V190 9000 -RA FEW010 FEW016TCU BKN020 15/10 Q1002 WS ALL RWY NOSIG
2026-03-28 14:50:00,METAR LGRP 281450Z VRB11G26KT 9000 -RA FEW010 FEW016TCU BKN020 15/12 Q1002 WS ALL RWY NOSIG
2026-03-28 14:20:00,METAR LGRP 281420Z VRB10G23KT 8000 -RA FEW010 FEW016TCU BKN020 16/12 Q1002 WS ALL RWY NOSIG
2026-03-28 13:50:00,METAR LGRP 281350Z 08011KT 040V150 8000 -RA FEW010 FEW016TCU BKN020 15/12 Q1003 WS R06 NOSIG
2026-03-28 13:20:00,METAR LGRP 281320Z 10006KT 060V120 8000 -RA FEW010 FEW016TCU BKN020 15/12 Q1004 NOSIG
2026-03-28 12:50:00,METAR LGRP 281250Z 12007G18KT 060V160 9000 -RA FEW010 SCT018 16/13 Q1004 WS R06 NOSIG
2026-03-28 12:20:00,METAR LGRP 281220Z 09008G18KT 050V150 9000 -RA FEW010 SCT018 16/13 Q1004 WS R06 NOSIG
2026-03-28 11:50:00,METAR LGRP 281150Z VRB08G18KT 8000 -RA FEW010 SCT018 16/13 Q1005 WS R06 NOSIG
2026-03-28 11:20:00,METAR LGRP 281120Z VRB10G20KT 9999 DZ FEW010 SCT018 17/13 Q1006 WS RWY06 NOSIG
2026-03-28 10:50:00,METAR LGRP 281050Z VRB10G20KT 9999 DZ FEW010 SCT018 16/12 Q1005 WS ALL RWY NOSIG
2026-03-28 10:20:00,METAR LGRP 281020Z VRB06G16KT 9999 DZ FEW010 SCT018 16/13 Q1005 WS ALL RWY NOSIG
2026-03-28 09:50:00,METAR LGRP 280950Z VRB05G17KT 9000 -RA FEW010 FEW016TCU SCT018 17/14 Q1005 WS ALL RWY NOSIG
2026-03-28 09:20:00,METAR LGRP 280920Z VRB07KT 9000 -RA FEW010 FEW016TCU SCT018 17/13 Q1006 WS R06 NOSIG
2026-03-28 08:50:00,METAR LGRP 280850Z VRB08KT 9000 -RA FEW010 SCT018 17/13 Q1006 WS ALL RWY NOSIG
2026-03-28 08:20:00,METAR LGRP 280820Z VRB07KT 9999 DZ FEW010 SCT018 17/13 Q1006 WS ALL RWY NOSIG
2026-03-28 07:50:00,METAR LGRP 280750Z VRB07G17KT 9999 FEW010 SCT018 17/13 Q1006 WS ALL RWY NOSIG
2026-03-28 07:20:00,METAR LGRP 280720Z VRB14G25KT 9999 FEW010 SCT018 17/13 Q1006 WS ALL RWY NOSIG
2026-03-28 06:50:00,METAR LGRP 280650Z VRB10G22KT 9999 FEW010 SCT018 17/13 Q1005 WS ALL RWY NOSIG
2026-03-28 06:20:00,METAR LGRP 280620Z VRB10G22KT 9999 FEW010 SCT018 17/12 Q1006 WS ALL RWY NOSIG
2026-03-28 05:50:00,METAR LGRP 280550Z VRB10G20KT 9999 FEW010 SCT018 17/13 Q1004 WS ALL RWY NOSIG
2026-03-28 05:20:00,METAR LGRP 280520Z VRB10G25KT 9999 -RA FEW010 SCT018 16/12 Q1004 WS ALL RWY NOSIG
2026-03-28 04:50:00,METAR LGRP 280450Z VRB10G34KT 9999 FEW010 SCT018 16/12 Q1004 WS ALL RWY NOSIG
2026-03-28 04:20:00,METAR LGRP 280420Z VRB06G16KT 9999 FEW010 SCT018 16/12 Q1004 WS ALL RWY NOSIG
2026-03-28 03:20:00,METAR LGRP 280320Z VRB07G14KT 9999 FEW018 16/10 Q1005 WS R06 NOSIG
2026-03-28 02:20:00,METAR LGRP 280220Z 05005KT 340V140 9999 SCT020 16/10 Q1006 WS R06 NOSIG
2026-03-28 01:50:00,METAR LGRP 280150Z VRB07KT 9999 SCT020 16/11 Q1006 WS R06 NOSIG
2026-03-28 00:50:00,METAR LGRP 280050Z 05004KT 030V090 9999 SCT020 16/10 Q1007 NOSIG
2026-03-28 00:20:00,METAR LGRP 280020Z VRB04KT 9999 SCT020 16/10 Q1007 NOSIG
2026-03-27 23:50:00,METAR LGRP 272350Z 08007KT 060V130 9999 SCT020 16/10 Q1007 WS R06 NOSIG
2026-03-27 23:20:00,METAR LGRP 272320Z 08007KT 030V120 9999 SCT020 16/10 Q1007 WS R06 NOSIG
2026-03-27 22:50:00,METAR LGRP 272250Z 07007KT 030V130 9999 SCT020 16/10 Q1007 WS R06 NOSIG
2026-03-27 22:20:00,METAR LGRP 272220Z 14006KT 100V180 9999 SCT020 16/10 Q1008 WS R06 NOSIG
2026-03-27 21:50:00,METAR LGRP 272150Z 15005KT 100V210 9999 SCT020 16/10 Q1008 NOSIG
2026-03-27 21:20:00,METAR LGRP 272120Z 14004KT 080V220 9999 SCT020 16/10 Q1008 NOSIG
2026-03-27 20:50:00,METAR LGRP 272050Z 11008KT 080V140 9999 SCT020 16/10 Q1008 NOSIG
2026-03-27 20:20:00,METAR LGRP 272020Z VRB03KT 9999 SCT020 16/10 Q1009 NOSIG
2026-03-27 19:50:00,METAR LGRP 271950Z VRB03KT 9999 SCT020 17/09 Q1009 NOSIG
2026-03-27 19:20:00,METAR LGRP 271920Z 18005KT 140V220 9999 SCT020 17/09 Q1009 NOSIG
2026-03-27 18:50:00,METAR LGRP 271850Z 19005KT 150V230 9999 SCT020 17/09 Q1009 NOSIG
2026-03-27 18:20:00,METAR LGRP 271820Z 18003KT 9999 SCT020 17/10 Q1009 NOSIG
2026-03-27 17:50:00,METAR LGRP 271750Z 17005KT 130V200 9999 SCT020 17/09 Q1008 NOSIG
2026-03-27 17:20:00,METAR LGRP 271720Z 16003KT 9999 SCT020 17/09 Q1008 NOSIG
2026-03-27 16:50:00,METAR LGRP 271650Z 20004KT 150V240 9999 SCT020 18/11 Q1008 NOSIG
2026-03-27 16:20:00,METAR LGRP 271620Z VRB02KT 9999 SCT020 18/11 Q1007 NOSIG
2026-03-25 14:50:00,METAR LGRP 251450Z 36005KT 330V030 9999 SCT018 17/07 Q0998 NOSIG
2026-03-25 14:20:00,METAR LGRP 251420Z 02007KT 340V070 9999 FEW018 17/07 Q0998 NOSIG
2026-03-25 13:50:00,METAR LGRP 251350Z 36007KT 9999 FEW018 17/07 Q0998 NOSIG
2026-03-25 13:20:00,METAR LGRP 251320Z VRB06KT 9999 FEW018 17/07 Q0998 NOSIG
2026-03-25 12:50:00,METAR LGRP 251250Z 01007KT 9999 FEW018 17/08 Q0998 NOSIG
2026-03-25 12:20:00,METAR LGRP 251220Z 01007KT 9999 SCT018 16/08 Q0998 NOSIG
2026-03-25 11:50:00,METAR LGRP 251150Z 01006KT 9999 SCT018 16/08 Q0998 NOSIG
2026-03-25 11:20:00,METAR LGRP 251120Z 02007KT 9999 SCT018 16/11 Q0999 NOSIG
2026-03-25 10:50:00,METAR LGRP 251050Z 03007KT 9999 SCT018 15/10 Q0999 NOSIG
2026-03-25 10:20:00,METAR LGRP 251020Z 03008KT 9999 SCT018 15/10 Q0999 NOSIG
2026-03-25 09:50:00,METAR LGRP 250950Z 03009KT 9999 SCT018 15/10 Q0999 NOSIG
2026-03-25 09:20:00,METAR LGRP 250920Z 03007KT 9999 SCT018 14/10 Q0999 NOSIG
2026-03-25 08:50:00,METAR LGRP 250850Z 02004KT 9999 SCT018 14/10 Q0999 NOSIG
2026-03-25 08:20:00,METAR LGRP 250820Z VRB03KT 9999 SCT018 14/11 Q0999 NOSIG
2026-03-25 07:50:00,METAR LGRP 250750Z VRB03KT 9999 BKN018 14/10 Q0999 NOSIG
2026-03-25 07:20:00,METAR LGRP 250720Z VRB02KT 9999 BKN018 14/11 Q1000 NOSIG
2026-03-25 06:50:00,METAR LGRP 250650Z VRB02KT 9999 BKN018 13/10 Q1000 NOSIG
2026-03-25 06:20:00,METAR LGRP 250620Z VRB02KT 9999 BKN018 13/10 Q1000 NOSIG
2026-03-25 05:50:00,METAR LGRP 250550Z VRB02KT 9999 SCT018 11/11 Q1000 NOSIG
2026-03-25 05:20:00,METAR LGRP 250520Z VRB02KT 9999 SCT018 12/10 Q1000 NOSIG
2026-03-25 04:50:00,METAR LGRP 250450Z 00000KT 9999 FEW012 FEW016TCU SCT018 12/10 Q1000 NOSIG
2026-03-25 04:20:00,METAR LGRP 250420Z VRB02KT 9999 FEW012 FEW016TCU SCT018 11/10 Q1000 NOSIG
2026-03-25 03:50:00,METAR LGRP 250350Z 19003KT 9999 FEW012 FEW016TCU SCT018 11/10 Q1000 NOSIG
2026-03-25 03:20:00,METAR LGRP 250320Z VRB02KT 9999 FEW012 SCT018 11/10 Q1000 NOSIG
2026-03-25 02:50:00,METAR LGRP 250250Z VRB03KT 9999 FEW012 SCT018 11/10 Q1000 NOSIG
2026-03-25 02:20:00,METAR LGRP 250220Z VRB02KT 9999 FEW012 FEW016TCU SCT018 11/10 Q1000 NOSIG
2026-03-25 01:50:00,METAR LGRP 250150Z VRB02KT 9999 -RA FEW012 FEW016TCU SCT018 11/10 Q1000 NOSIG
2026-03-25 01:20:00,METAR LGRP 250120Z VRB02KT 9999 -RA FEW012 FEW016TCU SCT018 11/10 Q1001 NOSIG
2026-03-25 00:50:00,METAR LGRP 250050Z 00000KT 9999 FEW012 FEW016TCU SCT018 11/10 Q1001 NOSIG
2026-03-25 00:20:00,METAR LGRP 250020Z VRB03KT 9999 FEW012 FEW016TCU SCT018 11/10 Q1001 NOSIG
2026-03-24 23:50:00,METAR LGRP 242350Z 00000KT 9999 -RA FEW012 FEW016TCU SCT018 12/10 Q1002 NOSIG
2026-03-24 23:20:00,METAR LGRP 242320Z VRB02KT 9999 -RA FEW012 FEW016TCU SCT018 12/10 Q1002 NOSIG
2026-03-24 22:50:00,METAR LGRP 242250Z COR VRB02KT 9999 -RA FEW012 SCT018 12/11 Q1002 NOSIG
2026-03-24 22:20:00,METAR LGRP 242220Z VRB03KT 9999 -RA FEW012 SCT018 12/11 Q1002 NOSIG
2026-03-24 21:50:00,METAR LGRP 242150Z VRB03KT 9999 -RA FEW012 SCT018 12/11 Q1002 NOSIG
2026-03-24 21:20:00,METAR LGRP 242120Z VRB02KT 9999 -RA FEW012 SCT018 12/11 Q1003 NOSIG
2026-03-24 20:50:00,METAR LGRP 242050Z 00000KT 9999 FEW012 SCT018 12/11 Q1003 NOSIG
2026-03-24 20:20:00,METAR LGRP 242020Z VRB02KT 9999 FEW012 SCT018 12/10 Q1003 NOSIG
2026-03-24 19:50:00,METAR LGRP 241950Z VRB02KT 9999 FEW012 SCT018 12/10 Q1003 NOSIG
2026-03-24 19:20:00,METAR LGRP 241920Z VRB02KT 9999 FEW012 SCT018 12/10 Q1004 NOSIG
2026-03-24 18:50:00,METAR LGRP 241850Z VRB02KT 9999 FEW012 SCT018 12/10 Q1004 NOSIG
2026-03-24 18:20:00,METAR LGRP 241820Z VRB03KT 9999 FEW012 SCT018 12/10 Q1004 NOSIG
2026-03-24 17:50:00,METAR LGRP 241750Z VRB03KT 9999 FEW012 FEW016TCU SCT018 12/10 Q1004 NOSIG
2026-03-24 17:20:00,METAR LGRP 241720Z VRB03KT 9999 -DZ FEW012 FEW016TCU SCT018 12/10 Q1004 NOSIG
2026-03-24 16:50:00,METAR LGRP 241650Z VRB02KT 9999 -DZ FEW012 FEW016TCU SCT018 12/10 Q1004 NOSIG
2026-03-24 16:20:00,METAR LGRP 241620Z VRB03KT 9999 -RA FEW012 FEW016TCU BKN018 11/10 Q1004 NOSIG
2026-03-24 15:50:00,METAR LGRP 241550Z VRB03KT 9999 -RA FEW012 FEW016TCU BKN018 11/09 Q1004 NOSIG
2026-03-24 15:20:00,METAR LGRP 241520Z 21005KT 180V240 9000 -RA FEW012 FEW016TCU BKN018 11/10 Q1004 NOSIG
2026-03-24 14:50:00,METAR LGRP 241450Z 26004KT 7000 -RA FEW012 FEW016TCU BKN018 12/10 Q1004 NOSIG
2026-03-24 14:20:00,METAR LGRP 241420Z 22007KT 8000 -RA FEW012 FEW016TCU BKN018 12/10 Q1005 NOSIG
2026-03-24 13:50:00,METAR LGRP 241350Z 22007KT 8000 -RA FEW012 FEW016TCU BKN018 12/10 Q1005 NOSIG
2026-03-24 13:20:00,METAR LGRP 241320Z VRB01KT 9000 -TSRA FEW012 FEW016CB SCT018 13/11 Q1005 NOSIG
2026-03-24 12:50:00,METAR LGRP 241250Z VRB02KT 8000 -TSRA FEW012 FEW016CB SCT018 13/10 Q1004 NOSIG
2026-03-24 12:20:00,METAR LGRP 241220Z VRB03KT 9000 -TSRA FEW012 FEW016CB SCT018 13/11 Q1005 NOSIG
2026-03-24 11:50:00,METAR LGRP 241150Z VRB03KT 9000 TS FEW012 FEW016CB SCT018 14/09 Q1005 NOSIG
2026-03-24 11:20:00,METAR LGRP 241120Z 07011KT 9000 -TSRA FEW012 FEW016CB SCT018 14/10 Q1005 NOSIG
2026-03-24 10:50:00,METAR LGRP 241050Z COR VRB02KT 9000 VCTS FEW012 FEW016CB SCT018 15/10 Q1005 NOSIG
2026-03-24 10:20:00,METAR LGRP 241020Z 08006KT 040V110 9999 VCTS FEW012 FEW016CB SCT018 15/11 Q1005 NOSIG
2026-03-24 09:50:00,METAR LGRP 240950Z 05005KT 9999 TS FEW012 FEW016CB SCT018 15/10 Q1005 TEMPO 5000 TSRA SCT016CB
2026-03-24 09:20:00,METAR LGRP 240920Z 06009KT 020V080 9999 FEW012 FEW016TCU SCT018 15/11 Q1005 NOSIG
2026-03-24 08:50:00,METAR LGRP 240850Z 03007KT 350V060 9999 FEW012 FEW016TCU SCT018 15/11 Q1006 NOSIG
2026-03-24 08:20:00,METAR LGRP 240820Z 04008KT 010V070 9999 FEW012 SCT018 16/11 Q1006 NOSIG
2026-03-24 07:50:00,METAR LGRP 240750Z 03006KT 010V080 9999 FEW012 SCT018 16/11 Q1006 NOSIG
2026-03-24 07:20:00,METAR LGRP 240720Z 05005KT 9999 SCT018 15/11 Q1006 NOSIG
2026-03-24 06:50:00,METAR LGRP 240650Z VRB02KT 9999 SCT018 15/11 Q1006 NOSIG
2026-03-24 06:20:00,METAR LGRP 240620Z VRB01KT 9999 BKN020 14/11 Q1006 NOSIG
2026-03-24 05:50:00,METAR LGRP 240550Z VRB02KT 9999 FEW018TCU SCT020 14/11 Q1006 NOSIG
2026-03-24 05:20:00,METAR LGRP 240520Z VRB02KT 9999 SCT020 13/10 Q1006 NOSIG
2026-03-24 04:50:00,METAR LGRP 240450Z 13004KT 9999 FEW018 12/09 Q1007 NOSIG
2026-03-24 04:20:00,METAR LGRP 240420Z VRB02KT 9999 FEW018 13/11 Q1007 NOSIG
2026-03-24 03:20:00,METAR LGRP 240320Z VRB01KT 9999 FEW018 13/11 Q1007 NOSIG
2026-03-24 02:50:00,METAR LGRP 240250Z VRB01KT 9999 FEW018 13/11 Q1007 NOSIG
2026-03-24 02:20:00,METAR LGRP 240220Z 15002KT 9999 FEW018 13/09 Q1007 NOSIG
2026-03-24 01:50:00,METAR LGRP 240150Z VRB02KT 9999 TS SCT012 FEW016CB 13/09 Q1007 NOSIG
2026-03-24 01:20:00,METAR LGRP 240120Z VRB02KT 9999 TS SCT012 FEW016CB 13/09 Q1008 NOSIG
2026-03-24 00:50:00,METAR LGRP 240050Z VRB02KT 9999 TS SCT012 FEW016CB 13/09 Q1008 NOSIG
2026-03-24 00:20:00,METAR LGRP 240020Z 24004KT 9999 TS SCT012 FEW016CB 13/09 Q1008 NOSIG
2026-03-23 23:50:00,METAR LGRP 232350Z 24007KT 9999 TS SCT012 FEW016CB 13/09 Q1008 NOSIG
2026-03-23 23:20:00,METAR LGRP 232320Z 26007KT 9999 SCT012 14/10 Q1008 NOSIG
2026-03-23 22:50:00,METAR LGRP 232250Z 21004KT 9999 SCT018 14/10 Q1008 NOSIG
2026-03-23 22:20:00,METAR LGRP 232220Z VRB02KT 9999 SCT018 13/10 Q1008 NOSIG
2026-03-23 21:50:00,METAR LGRP 232150Z VRB02KT 9999 SCT018 13/10 Q1008 NOSIG
2026-03-23 21:20:00,METAR LGRP 232120Z 00000KT 9999 SCT018 14/10 Q1008 NOSIG
2026-03-23 20:50:00,METAR LGRP 232050Z 00000KT 9999 SCT018 14/10 Q1008 NOSIG
2026-03-23 20:20:00,METAR LGRP 232020Z VRB01KT 9999 FEW018 14/10 Q1008 NOSIG
2026-03-23 19:50:00,METAR LGRP 231950Z 21004KT 9999 FEW018 15/10 Q1008 NOSIG
2026-03-23 19:20:00,METAR LGRP 231920Z 21004KT 9999 FEW018 15/10 Q1008 NOSIG
2026-03-23 18:50:00,METAR LGRP 231850Z VRB02KT 9999 FEW018 15/10 Q1008 NOSIG
2026-03-23 18:20:00,METAR LGRP 231820Z 23004KT 9999 FEW018 15/11 Q1008 NOSIG
2026-03-23 17:50:00,METAR LGRP 231750Z 23004KT 210V300 9999 FEW015 FEW018TCU 15/11 Q1008 NOSIG
2026-03-23 17:20:00,METAR LGRP 231720Z VRB03KT 9999 FEW015 FEW018TCU 15/09 Q1008 NOSIG
2026-03-23 16:50:00,METAR LGRP 231650Z 25007KT 9999 FEW015 FEW018TCU 16/10 Q1008 NOSIG
2026-03-23 16:20:00,METAR LGRP 231620Z 24007KT 9999 FEW015 FEW018TCU 16/10 Q1008 NOSIG
2026-03-23 15:50:00,METAR LGRP 231550Z 24009KT 9999 FEW015 FEW018TCU 16/10 Q1008 NOSIG
2026-03-23 15:20:00,METAR LGRP 231520Z 24009KT 9999 FEW018TCU 17/09 Q1007 NOSIG
2026-03-23 14:50:00,METAR LGRP 231450Z 25009KT 9999 FEW018TCU 17/09 Q1007 NOSIG
2026-03-23 14:20:00,METAR LGRP 231420Z 26010KT 9999 FEW018TCU 17/09 Q1007 NOSIG
2026-03-23 13:50:00,METAR LGRP 231350Z 26010KT 9999 FEW018TCU 17/10 Q1007 NOSIG
2026-03-23 13:20:00,METAR LGRP 231320Z 26010KT 9999 FEW018TCU 17/09 Q1007 NOSIG
2026-03-23 12:50:00,METAR LGRP 231250Z 21009KT 9999 FEW016TCU 17/09 Q1007 NOSIG
2026-03-23 12:20:00,METAR LGRP 231220Z 23011KT 9999 FEW018 18/10 Q1007 NOSIG
2026-03-23 11:50:00,METAR LGRP 231150Z 27009KT 9999 FEW018 18/10 Q1008 NOSIG
2026-03-23 11:20:00,METAR LGRP 231120Z 27007KT 240V300 9999 FEW018 17/09 Q1008 NOSIG
2026-03-23 10:50:00,METAR LGRP 231050Z 27006KT 9999 FEW018 17/09 Q1008 NOSIG
2026-03-23 10:20:00,METAR LGRP 231020Z 28004KT 240V330 9999 FEW018 17/10 Q1008 NOSIG
2026-03-23 09:50:00,METAR LGRP 230950Z 30004KT 270V350 9999 FEW018 17/09 Q1008 NOSIG
2026-03-23 09:20:00,METAR LGRP 230920Z VRB03KT 9999 FEW018 17/09 Q1008 NOSIG
2026-03-23 08:50:00,METAR LGRP 230850Z VRB03KT 9999 FEW018 17/09 Q1008 NOSIG
2026-03-23 08:20:00,METAR LGRP 230820Z 28004KT 260V340 9999 FEW018 17/10 Q1008 NOSIG
2026-03-23 07:50:00,METAR LGRP 230750Z VRB03KT 9999 FEW018 16/11 Q1008 NOSIG
2026-03-23 07:20:00,METAR LGRP 230720Z VRB03KT 9999 FEW018 15/10 Q1008 NOSIG
2026-03-23 06:50:00,METAR LGRP 230650Z VRB02KT 9999 FEW018 15/10 Q1008 NOSIG
2026-03-23 06:20:00,METAR LGRP 230620Z VRB01KT 9999 FEW018 14/10 Q1008 NOSIG
2026-03-23 05:50:00,METAR LGRP 230550Z 00000KT 9999 FEW018 13/10 Q1007 NOSIG
2026-03-23 05:20:00,METAR LGRP 230520Z VRB02KT 9999 FEW018 12/10 Q1007 NOSIG
2026-03-23 04:50:00,METAR LGRP 230450Z 15002KT 9999 FEW018 13/09 Q1007 NOSIG
2026-03-23 04:20:00,METAR LGRP 230420Z VRB02KT 9999 FEW018 13/09 Q1006 NOSIG
2026-03-23 03:50:00,METAR LGRP 230350Z VRB01KT 9999 SCT018 13/11 Q1006 NOSIG
2026-03-23 03:20:00,METAR LGRP 230320Z VRB02KT 9999 SCT018 13/09 Q1006 NOSIG
2026-03-23 02:50:00,METAR LGRP 230250Z VRB02KT 9999 -RA SCT018 13/08 Q1006 NOSIG
2026-03-23 02:20:00,METAR LGRP 230220Z 14002KT 9999 -RA SCT018 14/09 Q1006 NOSIG
2026-03-23 01:50:00,METAR LGRP 230150Z 01003KT 9999 -RA SCT018 14/08 Q1006 NOSIG
2026-03-23 01:20:00,METAR LGRP 230120Z 01006KT 9999 SCT018 14/09 Q1006 NOSIG
2026-03-23 00:50:00,METAR LGRP 230050Z 07003KT 9999 SCT018 14/08 Q1006 NOSIG
2026-03-23 00:20:00,METAR LGRP 230020Z VRB03KT 9999 SCT018 14/09 Q1006 NOSIG
2026-03-22 23:50:00,METAR LGRP 222350Z 13004KT 9999 SCT018 14/10 Q1006 NOSIG
2026-03-22 23:20:00,METAR LGRP 222320Z 08002KT 9999 SCT018 14/08 Q1006 NOSIG
2026-03-22 22:50:00,METAR LGRP 222250Z VRB02KT 9999 SCT018 14/09 Q1007 NOSIG
2026-03-22 22:20:00,METAR LGRP 222220Z VRB03KT 9999 SCT018 14/09 Q1007 NOSIG
2026-03-22 21:50:00,METAR LGRP 222150Z VRB02KT 9999 SCT018 14/10 Q1007 NOSIG
2026-03-22 21:20:00,METAR LGRP 222120Z 00000KT 9999 SCT018 14/10 Q1007 NOSIG
2026-03-22 20:50:00,METAR LGRP 222050Z VRB02KT 9999 SCT018 14/10 Q1006 NOSIG
2026-03-22 20:20:00,METAR LGRP 222020Z VRB01KT 9999 SCT018 13/09 Q1006 NOSIG
2026-03-22 19:50:00,METAR LGRP 221950Z 00000KT 9999 SCT018 14/09 Q1006 NOSIG
2026-03-22 19:20:00,METAR LGRP 221920Z VRB02KT 9999 FEW018 14/09 Q1006 NOSIG
2026-03-22 18:50:00,METAR LGRP 221850Z VRB02KT 9999 FEW018 14/08 Q1006 NOSIG
2026-03-22 18:20:00,METAR LGRP 221820Z 20004KT 9999 FEW018 14/08 Q1006 NOSIG
2026-03-22 17:50:00,METAR LGRP 221750Z 21004KT 9999 FEW018 14/08 Q1006 NOSIG
2026-03-22 17:20:00,METAR LGRP 221720Z 21004KT 9999 FEW018 15/08 Q1006 NOSIG
2026-03-22 16:50:00,METAR LGRP 221650Z 21004KT 9999 FEW018 15/08 Q1006 NOSIG
2026-03-22 16:20:00,METAR LGRP 221620Z 23006KT 200V260 9999 FEW018 16/09 Q1006 NOSIG
2026-03-22 15:50:00,METAR LGRP 221550Z 24007KT 9999 FEW018 16/09 Q1005 NOSIG
2026-03-22 15:20:00,METAR LGRP 221520Z 24008KT 9999 FEW020 17/09 Q1005 NOSIG
2026-03-22 14:50:00,METAR LGRP 221450Z 25009KT 9999 FEW020 17/09 Q1005 NOSIG
2026-03-22 14:20:00,METAR LGRP 221420Z 25008KT 9999 FEW018 17/08 Q1005 NOSIG
2026-03-22 13:50:00,METAR LGRP 221350Z 25009KT 9999 FEW018 18/08 Q1005 NOSIG
2026-03-22 13:20:00,METAR LGRP 221320Z 26009KT 9999 FEW018 17/09 Q1005 NOSIG
2026-03-22 12:50:00,METAR LGRP 221250Z 25009KT 9999 FEW018 18/09 Q1005 NOSIG
2026-03-22 12:20:00,METAR LGRP 221220Z 25010KT 9999 FEW018 17/09 Q1005 NOSIG
2026-03-22 11:50:00,METAR LGRP 221150Z 25008KT 9999 FEW018 17/09 Q1005 NOSIG
2026-03-22 11:20:00,METAR LGRP 221120Z 26007KT 9999 FEW018 16/08 Q1005 NOSIG
2026-03-22 10:50:00,METAR LGRP 221050Z 27006KT 9999 FEW018 16/08 Q1005 NOSIG
2026-03-22 10:20:00,METAR LGRP 221020Z 26008KT 9999 FEW018 16/08 Q1005 NOSIG
2026-03-22 09:50:00,METAR LGRP 220950Z 26008KT 9999 FEW018 16/08 Q1006 NOSIG
2026-03-22 09:20:00,METAR LGRP 220920Z 25008KT 9999 FEW018 16/08 Q1006 NOSIG
2026-03-22 08:50:00,METAR LGRP 220850Z 26006KT 9999 FEW018 16/08 Q1006 NOSIG
2026-03-22 08:20:00,METAR LGRP 220820Z 26006KT 9999 FEW018 16/08 Q1006 NOSIG
2026-03-22 07:50:00,METAR LGRP 220750Z 27007KT 240V330 9999 FEW018 15/08 Q1005 NOSIG
2026-03-22 07:20:00,METAR LGRP 220720Z 28007KT 230V330 9999 FEW018 15/08 Q1005 NOSIG
2026-03-22 06:50:00,METAR LGRP 220650Z 29008KT 9999 FEW018 15/08 Q1005 NOSIG
2026-03-22 06:20:00,METAR LGRP 220620Z 30009KT 9999 FEW018 14/06 Q1005 NOSIG
2026-03-22 05:50:00,METAR LGRP 220550Z 27009KT 9999 FEW018 14/06 Q1004 NOSIG
2026-03-22 05:20:00,METAR LGRP 220520Z 28008KT 9999 FEW018 14/08 Q1004 NOSIG
2026-03-22 04:50:00,METAR LGRP 220450Z 29008KT 9999 FEW018 15/06 Q1004 NOSIG
2026-03-22 04:20:00,METAR LGRP 220420Z 29008KT 9999 FEW018 15/06 Q1004 NOSIG
2026-03-22 02:50:00,METAR LGRP 220250Z 28010KT CAVOK 14/05 Q1003 NOSIG
2026-03-22 02:20:00,METAR LGRP 220220Z 30010KT CAVOK 14/05 Q1003 NOSIG
2026-03-22 01:50:00,METAR LGRP 220150Z 29008KT CAVOK 14/05 Q1003 NOSIG
2026-03-22 01:20:00,METAR LGRP 220120Z 28008KT CAVOK 14/05 Q1003 NOSIG
2026-03-22 00:50:00,METAR LGRP 220050Z 28009KT CAVOK 14/06 Q1003 NOSIG
2026-03-22 00:20:00,METAR LGRP 220020Z 27010KT CAVOK 14/06 Q1003 NOSIG
2026-03-21 23:50:00,METAR LGRP 212350Z 28009KT CAVOK 14/06 Q1003 NOSIG
2026-03-21 23:20:00,METAR LGRP 212320Z 28010KT CAVOK 14/06 Q1003 NOSIG
2026-03-21 22:50:00,METAR LGRP 212250Z 29010KT 9999 FEW018 14/06 Q1002 NOSIG
2026-03-21 22:20:00,METAR LGRP 212220Z 30010KT 9999 FEW018 14/06 Q1002 NOSIG
2026-03-21 21:50:00,METAR LGRP 212150Z 30011KT 9999 FEW018 14/06 Q1002 NOSIG
2026-03-21 21:20:00,METAR LGRP 212120Z 31011KT 9999 FEW018 15/06 Q1002 NOSIG
2026-03-21 20:50:00,METAR LGRP 212050Z 31011KT 9999 FEW018 15/06 Q1002 NOSIG
2026-03-21 20:20:00,METAR LGRP 212020Z 31011KT 9999 FEW018 15/06 Q1002 NOSIG
2026-03-21 19:50:00,METAR LGRP 211950Z 31011KT 9999 FEW018 15/06 Q1002 NOSIG
2026-03-21 19:20:00,METAR LGRP 211920Z 31012KT 9999 FEW018 15/06 Q1002 NOSIG
2026-03-21 18:50:00,METAR LGRP 211850Z 31012KT 9999 FEW018 15/06 Q1001 NOSIG
2026-03-21 18:20:00,METAR LGRP 211820Z 30014KT 9999 FEW018 15/06 Q1001 NOSIG
2026-03-21 17:50:00,METAR LGRP 211750Z 27012KT 9999 FEW018 15/06 Q1001 NOSIG
2026-03-21 17:20:00,METAR LGRP 211720Z 29012KT 9999 FEW018 15/06 Q1001 NOSIG
2026-03-21 16:50:00,METAR LGRP 211650Z 27010KT 9999 FEW018 15/06 Q1000 NOSIG
2026-03-21 16:20:00,METAR LGRP 211620Z 29010KT 9999 FEW018 15/06 Q1000 NOSIG
2026-03-21 15:50:00,METAR LGRP 211550Z 28009KT 9999 FEW018 15/06 Q1000 NOSIG
2026-03-21 14:50:00,METAR LGRP 211450Z 28009KT 9999 FEW018 15/06 Q1000 NOSIG
2026-03-21 14:20:00,METAR LGRP 211420Z 25011KT 9999 FEW018 15/06 Q0999 NOSIG
2026-03-21 13:50:00,METAR LGRP 211350Z 25011KT 9999 FEW018 15/06 Q0999 NOSIG
2026-03-21 13:20:00,METAR LGRP 211320Z 25011KT 9999 FEW018 15/06 Q0999 NOSIG
2026-03-21 12:50:00,METAR LGRP 211250Z 25012KT 9999 FEW018 15/06 Q0999 NOSIG
2026-03-21 12:20:00,METAR LGRP 211220Z 25011KT 9999 FEW018 15/06 Q0999 NOSIG
2026-03-21 11:50:00,METAR LGRP 211150Z 28011KT 9999 FEW018 15/06 Q0999 NOSIG
2026-03-21 11:20:00,METAR LGRP 211120Z 28010KT 9999 FEW018 14/06 Q0999 NOSIG
2026-03-21 10:50:00,METAR LGRP 211050Z 26014KT 9999 FEW018 14/06 Q0999 NOSIG
2026-03-21 10:20:00,METAR LGRP 211020Z 27010KT 9999 FEW018 14/06 Q0999 NOSIG
2026-03-21 09:50:00,METAR LGRP 210950Z 28010KT 9999 FEW018 14/06 Q0999 NOSIG
2026-03-21 09:20:00,METAR LGRP 210920Z 28011KT 9999 FEW018 14/06 Q0999 NOSIG
2026-03-21 08:50:00,METAR LGRP 210850Z 28012KT 9999 FEW018 14/06 Q0999 NOSIG
2026-03-21 08:20:00,METAR LGRP 210820Z 28013KT 9999 FEW018 13/05 Q0999 NOSIG
2026-03-21 07:50:00,METAR LGRP 210750Z 27014KT 9999 FEW018 13/05 Q0999 NOSIG
2026-03-21 07:20:00,METAR LGRP 210720Z 28013KT 9999 FEW018 13/06 Q0999 NOSIG
2026-03-21 06:50:00,METAR LGRP 210650Z 28013KT 9999 FEW018 13/06 Q0998 NOSIG
2026-03-21 06:20:00,METAR LGRP 210620Z 28014KT 9999 FEW018 13/06 Q0998 NOSIG
2026-03-21 05:50:00,METAR LGRP 210550Z 28014KT 9999 FEW018 13/06 Q0998 NOSIG
2026-03-21 05:20:00,METAR LGRP 210520Z 28014KT 9999 FEW018 13/06 Q0998 NOSIG
2026-03-21 04:50:00,METAR LGRP 210450Z 29016KT 9999 FEW012 13/07 Q0998 NOSIG
2026-03-21 04:20:00,METAR LGRP 210420Z 30016KT 9999 FEW012 13/07 Q0997 NOSIG
2026-03-21 03:50:00,METAR LGRP 210350Z 30016KT 9999 FEW012 13/07 Q0997 NOSIG
2026-03-21 03:20:00,METAR LGRP 210320Z 30014KT 9999 FEW012 SCT020 14/08 Q0997 NOSIG
2026-03-21 02:50:00,METAR LGRP 210250Z 29015KT 9999 FEW012 SCT020 14/07 Q0997 NOSIG
2026-03-21 02:20:00,METAR LGRP 210220Z 29015KT 9999 FEW012 SCT020 14/07 Q0997 NOSIG
2026-03-21 01:50:00,METAR LGRP 210150Z 29014KT 9999 FEW012 SCT020 13/09 Q0997 NOSIG
2026-03-21 01:20:00,METAR LGRP 210120Z 29014KT 9999 FEW012 SCT020 13/11 Q0998 NOSIG
2026-03-21 00:50:00,METAR LGRP 210050Z 29014KT 9999 FEW012 SCT020 12/10 Q0998 NOSIG
2026-03-21 00:20:00,METAR LGRP 210020Z 30015KT 9999 FEW012 SCT020 13/09 Q0998 NOSIG
2026-03-20 23:50:00,METAR LGRP 202350Z 30016KT 9999 FEW012 SCT020 13/09 Q0998 NOSIG
2026-03-20 23:20:00,METAR LGRP 202320Z 30015KT 9999 FEW012 SCT020 13/08 Q0998 NOSIG
2026-03-20 22:50:00,METAR LGRP 202250Z 30015KT 9999 FEW012 SCT020 13/08 Q0998 NOSIG
2026-03-20 22:20:00,METAR LGRP 202220Z 29015KT 9999 FEW012 SCT020 14/08 Q0999 NOSIG
2026-03-20 21:50:00,METAR LGRP 202150Z 29015KT 9999 FEW012 SCT020 14/08 Q0999 NOSIG
2026-03-20 21:20:00,METAR LGRP 202120Z 30012KT 9999 FEW012 SCT020 14/08 Q0998 NOSIG
2026-03-20 20:50:00,METAR LGRP 202050Z 30013KT 9999 FEW012 SCT020 14/08 Q0999 NOSIG
2026-03-20 20:20:00,METAR LGRP 202020Z 30012KT 9999 FEW012 SCT020 14/08 Q0998 NOSIG
2026-03-20 19:50:00,METAR LGRP 201950Z 30012KT 9999 FEW012 FEW018TCU SCT020 15/07 Q0998 NOSIG
2026-03-20 19:20:00,METAR LGRP 201920Z 30013KT 9999 FEW012 FEW018TCU SCT020 15/07 Q0998 NOSIG
2026-03-20 18:50:00,METAR LGRP 201850Z 30013KT 9999 FEW012 FEW018TCU SCT020 15/07 Q0998 NOSIG
2026-03-20 18:20:00,METAR LGRP 201820Z 31013KT 9999 FEW012 FEW018TCU SCT020 15/07 Q0998 NOSIG
2026-03-20 17:50:00,METAR LGRP 201750Z 30013KT 9999 FEW012 FEW018TCU SCT020 15/07 Q0997 NOSIG
2026-03-20 17:20:00,METAR LGRP 201720Z 31012KT 9999 FEW012 FEW018TCU SCT020 15/07 Q0997 NOSIG
2026-03-20 16:50:00,METAR LGRP 201650Z 31012KT 9999 FEW012 FEW018TCU SCT020 15/07 Q0997 NOSIG
2026-03-20 16:20:00,METAR LGRP 201620Z 30013KT 9999 FEW012 FEW018TCU SCT020 15/06 Q0997 NOSIG
2026-03-20 15:50:00,METAR LGRP 201550Z VRB04KT 9999 FEW012 FEW018TCU SCT020 15/07 Q0997 NOSIG
2026-03-20 15:20:00,METAR LGRP 201520Z 10006KT 9999 FEW012 FEW018TCU SCT020 15/08 Q0997 NOSIG
2026-03-20 14:50:00,METAR LGRP 201450Z 06008KT 9999 FEW012 FEW018TCU SCT020 15/08 Q0997 NOSIG
2026-03-20 14:20:00,METAR LGRP 201420Z 28008KT 9999 FEW012 FEW018TCU SCT020 17/09 Q0997 NOSIG
2026-03-20 13:50:00,METAR LGRP 201350Z 27008KT 9999 FEW012 FEW018TCU SCT020 16/08 Q0997 NOSIG
2026-03-20 13:20:00,METAR LGRP 201320Z 25005KT 9999 FEW012 FEW018TCU SCT020 16/10 Q0997 NOSIG
2026-03-20 12:50:00,METAR LGRP 201250Z 25006KT 9999 FEW018 SCT020 16/10 Q0997 NOSIG
2026-03-20 12:20:00,METAR LGRP 201220Z 25006KT 9999 FEW018 SCT020 16/10 Q0997 NOSIG
2026-03-20 11:50:00,METAR LGRP 201150Z 25005KT 9999 FEW018 SCT020 16/10 Q0997 NOSIG
2026-03-20 11:20:00,METAR LGRP 201120Z 26006KT 9999 SCT018 16/09 Q0997 NOSIG
2026-03-20 10:50:00,METAR LGRP 201050Z 26004KT 9999 SCT018 16/09 Q0997 NOSIG
2026-03-20 10:20:00,METAR LGRP 201020Z 25005KT 9999 SCT018 16/10 Q0997 NOSIG
2026-03-20 09:50:00,METAR LGRP 200950Z 26005KT 240V300 9999 SCT018 15/10 Q0997 NOSIG
2026-03-20 09:20:00,METAR LGRP 200920Z 25004KT 9999 FEW018TCU SCT020 15/10 Q0997 NOSIG
2026-03-20 08:50:00,METAR LGRP 200850Z 26005KT 9999 FEW018TCU SCT020 15/10 Q0998 NOSIG
2026-03-20 08:20:00,METAR LGRP 200820Z 24005KT 210V280 9999 FEW018TCU SCT020 15/10 Q0998 NOSIG
2026-03-20 07:50:00,METAR LGRP 200750Z 26004KT 210V290 9999 FEW012 SCT018 15/10 Q0998 NOSIG
2026-03-20 07:20:00,METAR LGRP 200720Z 23005KT 210V270 9999 FEW012 SCT018 14/09 Q0998 NOSIG
2026-03-20 06:50:00,METAR LGRP 200650Z 20006KT 9999 FEW012 SCT018 14/09 Q0998 NOSIG
2026-03-20 06:20:00,METAR LGRP 200620Z 21004KT 9999 SCT018 14/09 Q0998 NOSIG
2026-03-20 05:50:00,METAR LGRP 200550Z 21004KT 9999 FEW018 14/09 Q0998 NOSIG
2026-03-20 05:20:00,METAR LGRP 200520Z VRB03KT 9999 FEW020 13/08 Q0998 NOSIG
2026-03-20 04:50:00,METAR LGRP 200450Z VRB02KT 9999 FEW020 13/08 Q0998 NOSIG
2026-03-20 04:20:00,METAR LGRP 200420Z 24005KT 190V290 9999 FEW020 13/08 Q0998 NOSIG
2026-03-20 03:50:00,METAR LGRP 200350Z 26009KT 9999 SCT020 14/07 Q0998 NOSIG
2026-03-20 03:20:00,METAR LGRP 200320Z 25008KT 9999 SCT020 14/07 Q0998 NOSIG
2026-03-20 02:50:00,METAR LGRP 200250Z 25011KT 9999 SCT020 14/07 Q0999 NOSIG
2026-03-20 02:20:00,METAR LGRP 200220Z 25011KT 9999 SCT020 14/08 Q0999 NOSIG
2026-03-20 01:50:00,METAR LGRP 200150Z 25014KT 9999 SCT020 14/08 Q0999 NOSIG
2026-03-20 01:20:00,METAR LGRP 200120Z 26014KT 9999 SCT020 15/09 Q1000 NOSIG
2026-03-20 00:50:00,METAR LGRP 200050Z 25014KT 9999 SCT020 15/09 Q1000 NOSIG
2026-03-20 00:20:00,METAR LGRP 200020Z 25013KT 9999 SCT020 15/09 Q1000 NOSIG
2026-03-19 23:50:00,METAR LGRP 192350Z 25013KT 9999 SCT020 15/09 Q1000 NOSIG
2026-03-19 23:20:00,METAR LGRP 192320Z 25013KT 9999 FEW020 15/09 Q1000 NOSIG
2026-03-19 22:50:00,METAR LGRP 192250Z 25012KT 9999 FEW020 15/09 Q1001 NOSIG
2026-03-19 22:20:00,METAR LGRP 192220Z 25011KT 9999 FEW020 15/09 Q1001 NOSIG
2026-03-19 21:50:00,METAR LGRP 192150Z 25013KT 9999 FEW020 15/09 Q1001 NOSIG
2026-03-19 21:20:00,METAR LGRP 192120Z 25015KT 9999 FEW020 15/10 Q1001 NOSIG
2026-03-19 20:50:00,METAR LGRP 192050Z 25014KT 9999 FEW020 15/10 Q1001 NOSIG
2026-03-19 20:20:00,METAR LGRP 192020Z 25017KT 9999 FEW020 15/11 Q1001 NOSIG
2026-03-19 19:50:00,METAR LGRP 191950Z 25016KT 9999 FEW020 15/11 Q1001 NOSIG
2026-03-19 19:20:00,METAR LGRP 191920Z 25016KT 9999 FEW020 15/11 Q1001 NOSIG
2026-03-19 18:50:00,METAR LGRP 191850Z 25015KT 9999 FEW020 15/11 Q1001 NOSIG
2026-03-19 18:20:00,METAR LGRP 191820Z 25015KT 9999 FEW020 15/11 Q1001 NOSIG
2026-03-19 17:50:00,METAR LGRP 191750Z 25014KT 9999 FEW020 15/11 Q1001 NOSIG
2026-03-19 17:20:00,METAR LGRP 191720Z 25015KT 9999 FEW020 16/12 Q1001 NOSIG
2026-03-19 16:50:00,METAR LGRP 191650Z 25017KT 9999 FEW020 16/12 Q1001 NOSIG
2026-03-19 16:20:00,METAR LGRP 191620Z 25016KT 9999 FEW020 16/12 Q1001 NOSIG
2026-03-19 15:50:00,METAR LGRP 191550Z 25017KT 9999 FEW020 16/12 Q1001 NOSIG
2026-03-19 15:20:00,METAR LGRP 191520Z 24018KT 9999 FEW020 17/12 Q1000 NOSIG
2026-03-19 14:50:00,METAR LGRP 191450Z 24017KT 9999 FEW020 17/12 Q1000 NOSIG
2026-03-19 14:20:00,METAR LGRP 191420Z 25017KT 9999 FEW020 17/12 Q1000 NOSIG
2026-03-19 13:50:00,METAR LGRP 191350Z 25017KT 9999 FEW020 17/12 Q1001 NOSIG
2026-03-19 13:20:00,METAR LGRP 191320Z 25018KT 9999 FEW020 18/12 Q1001 NOSIG
2026-03-19 12:50:00,METAR LGRP 191250Z 25016KT 9999 FEW020 18/12 Q1001 NOSIG
2026-03-19 12:20:00,METAR LGRP 191220Z 25016KT 9999 FEW020 18/11 Q1001 NOSIG
2026-03-19 11:50:00,METAR LGRP 191150Z 24014KT 9999 FEW020 18/12 Q1001 NOSIG
2026-03-19 11:20:00,METAR LGRP 191120Z 25010KT 9999 FEW020 18/11 Q1002 NOSIG
2026-03-19 10:50:00,METAR LGRP 191050Z 26007KT 9999 FEW020 18/11 Q1002 NOSIG
2026-03-19 10:20:00,METAR LGRP 191020Z 28008KT 9999 FEW020 18/11 Q1002 NOSIG
2026-03-19 09:50:00,METAR LGRP 190950Z 28007KT 9999 FEW020 18/11 Q1002 NOSIG
2026-03-19 09:20:00,METAR LGRP 190920Z 28006KT 9999 FEW020 18/11 Q1002 NOSIG
2026-03-19 08:50:00,METAR LGRP 190850Z 27007KT 9999 SCT020 17/12 Q1002 NOSIG
2026-03-19 08:20:00,METAR LGRP 190820Z 25009KT 240V300 9999 FEW018 SCT025 17/11 Q1002 NOSIG
2026-03-19 07:50:00,METAR LGRP 190750Z 28008KT 9999 FEW015 SCT025 16/10 Q1002 NOSIG
2026-03-19 07:20:00,METAR LGRP 190720Z 27008KT 9999 FEW014 SCT025 16/11 Q1003 NOSIG
2026-03-19 06:50:00,METAR LGRP 190650Z 24004KT 9999 FEW012 BKN025 15/12 Q1003 NOSIG
2026-03-19 06:20:00,METAR LGRP 190620Z 22005KT 9999 FEW012 BKN025 15/12 Q1003 NOSIG
2026-03-19 05:50:00,METAR LGRP 190550Z 24004KT 9999 FEW012 BKN025 14/12 Q1002 NOSIG
2026-03-19 05:20:00,METAR LGRP 190520Z 24005KT 9999 FEW012 BKN025 14/10 Q1002 NOSIG
2026-03-19 04:50:00,METAR LGRP 190450Z 23006KT 9999 FEW010 13/10 Q1002 NOSIG
2026-03-19 04:20:00,METAR LGRP 190420Z 22005KT 9999 FEW010 14/10 Q1002 NOSIG
2026-03-19 03:50:00,METAR LGRP 190350Z 23005KT 9999 FEW010 FEW016TCU 12/03 Q1001 NOSIG
2026-03-19 02:50:00,METAR LGRP 190250Z 24007KT 9999 FEW010 FEW016TCU 14/10 Q1002 NOSIG
2026-03-19 02:20:00,METAR LGRP 190220Z 22006KT 9999 FEW010 FEW016TCU 13/10 Q1002 NOSIG
2026-03-19 01:50:00,METAR LGRP 190150Z 22006KT 9999 FEW010 FEW016TCU 13/10 Q1002 NOSIG
2026-03-19 01:20:00,METAR LGRP 190120Z 22003KT 9999 FEW010 FEW016TCU 13/10 Q1003 NOSIG
2026-03-19 00:50:00,METAR LGRP 190050Z VRB04KT 9999 FEW010 FEW016TCU 14/12 Q1004 NOSIG
2026-03-19 00:20:00,METAR LGRP 190020Z 31005KT 9999 FEW010 FEW016TCU 14/12 Q1004 NOSIG
2026-03-18 23:50:00,METAR LGRP 182350Z VRB03KT 9999 FEW010 FEW016TCU 13/09 Q1004 NOSIG
2026-03-18 23:20:00,METAR LGRP 182320Z 25003KT 9999 FEW010 FEW016TCU 13/11 Q1004 NOSIG
2026-03-18 22:50:00,METAR LGRP 182250Z 25003KT 9999 FEW010 FEW016TCU 13/11 Q1004 NOSIG
2026-03-18 22:20:00,METAR LGRP 182220Z 22005KT 9999 FEW010 FEW016TCU 13/11 Q1005 NOSIG
2026-03-18 21:50:00,METAR LGRP 182150Z 22005KT 9999 FEW010 FEW016TCU 13/11 Q1005 NOSIG
2026-03-18 21:20:00,METAR LGRP 182120Z 23003KT 9999 FEW010 FEW016TCU 12/10 Q1005 NOSIG
2026-03-18 20:50:00,METAR LGRP 182050Z VRB02KT 9999 -DZ FEW010 FEW016TCU 13/10 Q1005 NOSIG
2026-03-18 20:20:00,METAR LGRP 182020Z VRB02KT 9999 FEW010 FEW016TCU 12/10 Q1006 NOSIG
2026-03-18 19:50:00,METAR LGRP 181950Z 14003KT 9999 FEW010 FEW016TCU 12/10 Q1006 NOSIG
2026-03-18 19:20:00,METAR LGRP 181920Z VRB01KT 9999 FEW010 FEW016TCU 13/10 Q1006 NOSIG
2026-03-18 18:50:00,METAR LGRP 181850Z VRB01KT 9999 FEW010 FEW016TCU 13/10 Q1006 NOSIG
2026-03-18 18:20:00,METAR LGRP 181820Z VRB03KT 9999 DZ FEW010 FEW016TCU 13/10 Q1006 NOSIG
2026-03-18 17:50:00,METAR LGRP 181750Z 12003KT 9999 -RA FEW010 FEW016TCU 12/11 Q1007 NOSIG
2026-03-18 17:20:00,METAR LGRP 181720Z VRB03KT 9999 -RA FEW010 FEW016TCU 12/10 Q1006 NOSIG
2026-03-18 16:50:00,METAR LGRP 181650Z VRB03KT 9999 FEW010 FEW016TCU 12/09 Q1007 NOSIG
2026-03-18 16:20:00,METAR LGRP 181620Z VRB02KT 9999 -RA FEW010 FEW016TCU 13/09 Q1007 NOSIG
2026-03-18 15:50:00,METAR LGRP 181550Z 14004KT 9999 -RA FEW010 FEW016TCU 13/09 Q1006 NOSIG
2026-03-18 15:20:00,METAR LGRP 181520Z 15006KT 9999 -RA SCT012 FEW016TCU 13/11 Q1006 NOSIG
2026-03-18 14:50:00,METAR LGRP 181450Z 14009KT 9999 -RA FEW010 13/11 Q1006 NOSIG
2026-03-18 14:20:00,METAR LGRP 181420Z 15011KT 9999 -RA FEW010 FEW016TCU SCT018 14/12 Q1006 WS R06 NOSIG
2026-03-18 13:50:00,METAR LGRP 181350Z 13013KT 9999 -RA FEW010 FEW016TCU SCT018 14/12 Q1006 WS R06 NOSIG
2026-03-18 13:20:00,METAR LGRP 181320Z 13011G22KT 090V180 9999 -RA FEW010 FEW016TCU SCT018 14/12 Q1006 WS R06 TEMPO RA
2026-03-18 12:50:00,METAR LGRP 181250Z 12010KT 080V200 9999 -RA FEW010 FEW016TCU SCT018 14/12 Q1007 WS R06 NOSIG
2026-03-18 12:20:00,METAR LGRP 181220Z 14007G18KT 080V220 9000 -RA FEW010 FEW016TCU SCT018 14/12 Q1007 RERA WS R06 TEMPO RA
2026-03-18 11:50:00,METAR LGRP 181150Z 12011G21KT 070V180 6000 RA FEW010 FEW016TCU SCT018 14/12 Q1008 WS R06 TEMPO RA
2026-03-18 11:20:00,METAR LGRP 181120Z VRB05KT 4000 RA FEW008 FEW016TCU SCT018 15/13 Q1008 NOSIG
2026-03-18 10:50:00,METAR LGRP 181050Z VRB05G15KT 5000 RA FEW008 FEW016TCU SCT018 15/13 Q1008 WS R06 NOSIG
2026-03-18 10:20:00,METAR LGRP 181020Z VRB07G18KT 9000 DZ FEW010 FEW016TCU SCT018 16/13 Q1008 RETS WS ALL RWY NOSIG
2026-03-18 09:50:00,METAR LGRP 180950Z VRB10G25KT 9999 TS FEW010 FEW016CB SCT018 17/14 Q1008 WS ALL RWY NOSIG
2026-03-18 09:20:00,METAR LGRP 180920Z VRB10G25KT 9000 TS FEW010 FEW016CB SCT018 17/14 Q1008 WS ALL RWY NOSIG
2026-03-18 08:50:00,METAR LGRP 180850Z VRB08G18KT 9999 DZ FEW010 FEW016TCU SCT018 17/14 Q1008 WS ALL RWY NOSIG
2026-03-18 08:20:00,METAR LGRP 180820Z VRB09G28KT 9999 DZ FEW010 FEW016TCU SCT018 16/14 Q1008 WS ALL RWY NOSIG
2026-03-18 07:50:00,METAR LGRP 180750Z VRB12G35KT 9999 DZ FEW010 FEW016TCU SCT018 17/13 Q1007 WS ALL RWY NOSIG
2026-03-18 07:20:00,METAR LGRP 180720Z VRB10G29KT 9999 FEW010 BKN018 17/12 Q1007 WS ALL RWY NOSIG
2026-03-18 06:50:00,METAR LGRP 180650Z VRB13G28KT 9999 FEW010 BKN018 17/12 Q1007 WS ALL RWY NOSIG
2026-03-18 06:20:00,METAR LGRP 180620Z 09012G30KT 030V160 9999 BKN018 17/10 Q1007 WS ALL RWY NOSIG
2026-03-18 05:50:00,METAR LGRP 180550Z VRB10G20KT 9999 SCT018 16/11 Q1006 WS ALL RWY NOSIG
2026-03-18 04:50:00,METAR LGRP 180450Z 07006KT 9999 SCT018 15/12 Q1007 NOSIG
2026-03-18 04:20:00,METAR LGRP 180420Z 08013KT 9999 SCT018 15/12 Q1006 WS ALL RWY NOSIG
2026-03-18 03:50:00,METAR LGRP 180350Z 10012KT 070V150 9999 SCT018 15/11 Q1006 WS ALL RWY NOSIG
2026-03-18 03:20:00,METAR LGRP 180320Z 10012G25KT 040V150 9999 SCT018 15/12 Q1006 WS ALL RWY NOSIG
2026-03-18 02:50:00,METAR LGRP 180250Z 09012KT 040V130 9999 SCT018 15/12 Q1008 WS ALL RWY NOSIG
2026-03-18 02:20:00,METAR LGRP 180220Z 10009KT 040V160 9999 SCT018 15/12 Q1008 WS ALL RWY NOSIG
2026-03-18 01:50:00,METAR LGRP 180150Z 09010KT 350V140 9999 SCT018 15/12 Q1007 WS ALL RWY NOSIG
2026-03-18 01:20:00,METAR LGRP 180120Z 09011G22KT 050V140 9999 SCT018 15/12 Q1007 WS ALL RWY NOSIG
2026-03-18 00:50:00,METAR LGRP 180050Z 11009KT 060V160 9999 SCT018 15/12 Q1008 WS ALL RWY NOSIG
2026-03-18 00:20:00,METAR LGRP 180020Z 10010KT 050V150 9999 SCT018 15/12 Q1008 WS ALL RWY NOSIG
2026-03-17 23:50:00,METAR LGRP 172350Z VRB10KT 9999 SCT018 15/12 Q1008 NOSIG
2026-03-17 23:20:00,METAR LGRP 172320Z VRB04KT 9999 SCT018 15/12 Q1008 NOSIG
2026-03-17 22:50:00,METAR LGRP 172250Z 05007KT 360V130 9999 SCT018 15/12 Q1009 NOSIG
2026-03-17 22:20:00,METAR LGRP 172220Z VRB04KT 9999 SCT018 15/12 Q1010 NOSIG
2026-03-17 21:50:00,METAR LGRP 172150Z 07006KT 030V140 9999 SCT018 15/12 Q1010 NOSIG
2026-03-17 21:20:00,METAR LGRP 172120Z VRB05KT 9999 SCT018 15/12 Q1010 NOSIG
2026-03-17 20:50:00,METAR LGRP 172050Z VRB05KT 9999 SCT018 15/12 Q1010 NOSIG
2026-03-17 20:20:00,METAR LGRP 172020Z 12009KT 080V150 9999 SCT020 15/11 Q1010 NOSIG
2026-03-17 19:50:00,METAR LGRP 171950Z 03007KT 350V080 9999 FEW020 15/11 Q1010 NOSIG
2026-03-17 19:20:00,METAR LGRP 171920Z VRB05KT 9999 FEW020 15/10 Q1010 NOSIG
2026-03-17 18:50:00,METAR LGRP 171850Z VRB05KT 9999 FEW020 15/10 Q1010 NOSIG
2026-03-17 18:20:00,METAR LGRP 171820Z VRB05KT 9999 FEW020 15/10 Q1010 NOSIG
2026-03-17 17:50:00,METAR LGRP 171750Z 05004KT 340V080 9999 SCT020 15/11 Q1010 NOSIG
2026-03-17 17:20:00,METAR LGRP 171720Z 11004KT 060V210 9999 FEW018 SCT020 15/11 Q1010 NOSIG
2026-03-17 16:50:00,METAR LGRP 171650Z 15006KT 120V220 9999 FEW018 SCT025 15/11 Q1010 NOSIG
2026-03-17 16:20:00,METAR LGRP 171620Z VRB05KT 9999 SCT020 16/11 Q1010 NOSIG
2026-03-17 15:50:00,METAR LGRP 171550Z 09007KT 060V130 9999 SCT020 16/11 Q1010 NOSIG
2026-03-17 14:50:00,METAR LGRP 171450Z 12010KT 080V150 9999 FEW018 SCT025 16/11 Q1010 WS R06 NOSIG
2026-03-17 14:20:00,METAR LGRP 171420Z 14007KT 060V220 9999 SCT020 17/09 Q1010 WS R06 NOSIG
2026-03-17 13:50:00,METAR LGRP 171350Z VRB09G21KT 9999 SCT020 17/09 Q1010 WS ALL RWY NOSIG
2026-03-17 13:20:00,METAR LGRP 171320Z 10012G25KT 060V140 9999 SCT020 17/10 Q1010 WS ALL RWY NOSIG
2026-03-17 12:50:00,METAR LGRP 171250Z 12010G20KT 080V210 9999 SCT020 18/08 Q1011 WS ALL RWY NOSIG
2026-03-17 12:20:00,METAR LGRP 171220Z 12011G22KT 070V200 9999 SCT020 18/09 Q1011 WS ALL RWY NOSIG
2026-03-17 11:50:00,METAR LGRP 171150Z 10014KT 060V120 9999 SCT020 18/08 Q1011 WS R06 NOSIG
2026-03-17 11:20:00,METAR LGRP 171120Z 09009G20KT 010V120 9999 SCT020 18/09 Q1012 WS R06 NOSIG
2026-03-17 10:50:00,METAR LGRP 171050Z 13007G19KT 060V190 9999 SCT020 18/10 Q1012 WS R06 NOSIG
2026-03-17 10:20:00,METAR LGRP 171020Z 12010KT 070V200 9999 SCT020 18/09 Q1012 WS R06 NOSIG
2026-03-17 09:50:00,METAR LGRP 170950Z 11010KT 060V190 9999 SCT020 18/09 Q1013 WS R06 NOSIG
2026-03-17 09:20:00,METAR LGRP 170920Z 10010KT 070V160 9999 SCT020 18/07 Q1012 WS R06 NOSIG
2026-03-17 08:50:00,METAR LGRP 170850Z 13009KT 080V180 9999 SCT020 17/08 Q1012 NOSIG
2026-03-17 08:20:00,METAR LGRP 170820Z 14005KT 090V190 9999 FEW020 17/06 Q1012 NOSIG
2026-03-17 07:50:00,METAR LGRP 170750Z 14005KT 070V210 9999 FEW020 17/07 Q1012 NOSIG
2026-03-17 07:20:00,METAR LGRP 170720Z 14004KT 080V170 9999 FEW020 17/08 Q1012 NOSIG
2026-03-17 06:50:00,METAR LGRP 170650Z VRB03KT 9999 FEW020 17/08 Q1012 NOSIG
2026-03-17 06:20:00,METAR LGRP 170620Z VRB02KT 9999 FEW020 16/07 Q1012 NOSIG
2026-03-17 05:50:00,METAR LGRP 170550Z VRB03KT 9999 FEW020 14/08 Q1011 NOSIG
2026-03-17 05:20:00,METAR LGRP 170520Z VRB02KT CAVOK 14/08 Q1012 NOSIG
2026-03-17 04:50:00,METAR LGRP 170450Z VRB02KT CAVOK 14/08 Q1012 NOSIG
2026-03-17 04:20:00,METAR LGRP 170420Z VRB03KT CAVOK 13/08 Q1012 NOSIG
2026-03-17 03:20:00,METAR LGRP 170320Z VRB01KT 9999 FEW020 13/06 Q1012 NOSIG
2026-03-17 02:50:00,METAR LGRP 170250Z VRB01KT 9999 FEW020 13/06 Q1012 NOSIG
2026-03-17 02:20:00,METAR LGRP 170220Z VRB01KT 9999 FEW020 13/06 Q1012 NOSIG
2026-03-17 01:50:00,METAR LGRP 170150Z VRB01KT 9999 FEW020 13/06 Q1012 NOSIG
2026-03-17 01:20:00,METAR LGRP 170120Z VRB03KT 9999 FEW020 13/06 Q1012 NOSIG
2026-03-17 00:50:00,METAR LGRP 170050Z VRB03KT 9999 FEW020 13/06 Q1012 NOSIG
2026-03-17 00:20:00,METAR LGRP 170020Z 21003KT 9999 FEW020 14/07 Q1012 NOSIG
2026-03-16 23:50:00,METAR LGRP 162350Z 21003KT 9999 FEW020 14/07 Q1012 NOSIG
2026-03-16 23:20:00,METAR LGRP 162320Z 22005KT 9999 FEW020 14/07 Q1012 NOSIG
2026-03-16 22:50:00,METAR LGRP 162250Z 22005KT 9999 FEW020 14/07 Q1012 NOSIG
2026-03-16 22:20:00,METAR LGRP 162220Z 23006KT 9999 FEW020 14/07 Q1012 NOSIG
2026-03-16 21:50:00,METAR LGRP 162150Z 23006KT 9999 FEW020 14/07 Q1012 NOSIG RMK SCT180
2026-03-16 21:20:00,METAR LGRP 162120Z 23006KT 9999 FEW020 14/08 Q1012 NOSIG
2026-03-16 20:50:00,METAR LGRP 162050Z 23006KT 9999 FEW020 14/08 Q1012 NOSIG
2026-03-16 20:20:00,METAR LGRP 162020Z 23005KT 9999 FEW020 15/07 Q1012 NOSIG
2026-03-16 19:50:00,METAR LGRP 161950Z 25006KT 9999 FEW020 15/07 Q1012 NOSIG
2026-03-16 19:20:00,METAR LGRP 161920Z 30012KT 9999 FEW020 15/08 Q1012 NOSIG
2026-03-16 18:50:00,METAR LGRP 161850Z 29009KT 9999 FEW020 15/08 Q1012 NOSIG
2026-03-16 18:20:00,METAR LGRP 161820Z 27008KT 9999 FEW020 15/08 Q1012 NOSIG
2026-03-16 17:50:00,METAR LGRP 161750Z 27008KT 9999 FEW020 15/08 Q1012 NOSIG
2026-03-16 17:20:00,METAR LGRP 161720Z 28011KT 9999 FEW020 16/08 Q1012 NOSIG RMK SCT180
2026-03-16 16:50:00,METAR LGRP 161650Z 26010KT 9999 FEW020 16/08 Q1012 NOSIG
2026-03-16 16:20:00,METAR LGRP 161620Z 25012KT 9999 FEW020 16/09 Q1012 NOSIG
2026-03-16 15:50:00,METAR LGRP 161550Z 25011KT 9999 FEW020 17/09 Q1012 NOSIG
2026-03-16 15:20:00,METAR LGRP 161520Z 25012KT 9999 FEW020 17/09 Q1012 NOSIG
2026-03-16 14:50:00,METAR LGRP 161450Z 25013KT 9999 FEW020 17/09 Q1011 NOSIG
2026-03-16 14:20:00,METAR LGRP 161420Z 25014KT 9999 FEW020 17/09 Q1012 NOSIG
2026-03-16 13:50:00,METAR LGRP 161350Z 25015KT 9999 FEW020 17/09 Q1012 NOSIG
2026-03-16 13:20:00,METAR LGRP 161320Z 25015KT 9999 FEW020 17/09 Q1012 NOSIG
2026-03-16 12:50:00,METAR LGRP 161250Z 25015KT 9999 FEW020 17/09 Q1012 NOSIG
2026-03-16 12:20:00,METAR LGRP 161220Z 26016KT 9999 FEW020 17/09 Q1012 NOSIG
2026-03-16 11:50:00,METAR LGRP 161150Z 26016KT 9999 FEW020 17/10 Q1012 NOSIG
2026-03-16 11:20:00,METAR LGRP 161120Z 26016KT 9999 FEW020 17/07 Q1012 NOSIG
2026-03-16 10:50:00,METAR LGRP 161050Z 26017KT 9999 FEW020 17/08 Q1012 NOSIG
2026-03-16 10:20:00,METAR LGRP 161020Z 25014KT 9999 FEW020 17/08 Q1012 NOSIG
2026-03-16 09:50:00,METAR LGRP 160950Z 26016KT 9999 FEW020 17/08 Q1012 NOSIG
2026-03-16 09:20:00,METAR LGRP 160920Z 25014KT 9999 FEW020 16/08 Q1012 NOSIG
2026-03-16 08:50:00,METAR LGRP 160850Z 26012KT 9999 SCT020 16/08 Q1012 NOSIG
2026-03-16 08:20:00,METAR LGRP 160820Z 26012KT 9999 FEW020 16/08 Q1012 NOSIG
2026-03-16 07:50:00,METAR LGRP 160750Z 27009KT 9999 FEW020 15/07 Q1012 NOSIG
2026-03-16 07:20:00,METAR LGRP 160720Z 27009KT 9999 FEW020 16/07 Q1011 NOSIG
2026-03-16 06:50:00,METAR LGRP 160650Z 26011KT 9999 FEW020 15/08 Q1011 NOSIG
2026-03-16 06:20:00,METAR LGRP 160620Z 25012KT 9999 SCT020 15/08 Q1011 NOSIG
2026-03-16 05:50:00,METAR LGRP 160550Z 26009KT 240V300 9999 SCT018 15/08 Q1011 NOSIG
2026-03-16 05:20:00,METAR LGRP 160520Z 28009KT 9999 SCT018 14/08 Q1010 NOSIG
2026-03-16 04:50:00,METAR LGRP 160450Z 26012KT 9999 SCT018 14/06 Q1010 NOSIG
2026-03-16 04:20:00,METAR LGRP 160420Z 26013KT 9999 FEW018 13/07 Q1009 NOSIG
2026-03-16 03:50:00,METAR LGRP 160350Z 26013KT 9999 FEW018 13/07 Q1009 NOSIG
2026-03-16 03:20:00,METAR LGRP 160320Z 26013KT 9999 FEW018 14/06 Q1009 NOSIG
2026-03-16 02:50:00,METAR LGRP 160250Z 26014KT 9999 FEW018 14/06 Q1009 NOSIG
2026-03-16 02:20:00,METAR LGRP 160220Z 26015KT 9999 FEW018 14/06 Q1009 NOSIG
2026-03-16 01:50:00,METAR LGRP 160150Z 26015KT 9999 FEW018 13/07 Q1009 NOSIG
2026-03-16 01:20:00,METAR LGRP 160120Z 25016KT 9999 FEW018 14/08 Q1009 NOSIG
2026-03-16 00:50:00,METAR LGRP 160050Z 25015KT 9999 FEW018 14/08 Q1009 NOSIG
2026-03-16 00:20:00,METAR LGRP 160020Z 25017KT 9999 FEW018 14/07 Q1009 NOSIG
2026-03-15 23:50:00,METAR LGRP 152350Z 25017KT 9999 FEW018 14/07 Q1009 NOSIG
2026-03-15 23:20:00,METAR LGRP 152320Z 25018KT 9999 FEW018 14/06 Q1009 NOSIG
2026-03-15 22:50:00,METAR LGRP 152250Z 25019KT 9999 FEW018 14/06 Q1008 NOSIG
2026-03-15 22:20:00,METAR LGRP 152220Z 25019KT 9999 FEW018 14/06 Q1008 NOSIG
2026-03-15 21:50:00,METAR LGRP 152150Z 25018KT 9999 FEW018 14/06 Q1008 NOSIG
2026-03-15 21:20:00,METAR LGRP 152120Z 25018KT 9999 FEW018 14/06 Q1008 NOSIG
2026-03-15 20:50:00,METAR LGRP 152050Z 25017KT 9999 FEW018 14/06 Q1008 NOSIG
2026-03-15 20:20:00,METAR LGRP 152020Z 25016KT 9999 FEW018 14/06 Q1008 NOSIG
2026-03-15 19:50:00,METAR LGRP 151950Z 25017KT 9999 FEW018 14/06 Q1008 NOSIG
2026-03-15 19:20:00,METAR LGRP 151920Z 25018KT 9999 FEW018 15/07 Q1007 NOSIG
2026-03-15 18:50:00,METAR LGRP 151850Z 25019KT 9999 FEW018 15/07 Q1007 NOSIG
2026-03-15 18:20:00,METAR LGRP 151820Z 25020KT 9999 FEW018 15/07 Q1007 NOSIG
2026-03-15 17:50:00,METAR LGRP 151750Z 25018KT 9999 FEW018 15/07 Q1006 NOSIG
2026-03-15 17:20:00,METAR LGRP 151720Z 26017KT 9999 FEW018 15/07 Q1006 NOSIG
2026-03-15 16:50:00,METAR LGRP 151650Z 26016KT 9999 FEW018 15/07 Q1006 NOSIG
2026-03-15 16:20:00,METAR LGRP 151620Z 25017KT 9999 FEW018 15/07 Q1005 NOSIG
2026-03-15 15:50:00,METAR LGRP 151550Z 25018KT 9999 FEW018 15/07 Q1005 NOSIG
2026-03-15 15:20:00,METAR LGRP 151520Z 26017KT 9999 FEW018 16/07 Q1005 NOSIG
2026-03-15 14:50:00,METAR LGRP 151450Z 25019KT 9999 FEW018 16/07 Q1005 NOSIG
2026-03-15 14:20:00,METAR LGRP 151420Z 24020KT 9999 FEW018 16/08 Q1004 NOSIG
2026-03-15 13:50:00,METAR LGRP 151350Z 25022KT 9999 FEW018 16/07 Q1004 NOSIG
2026-03-15 13:20:00,METAR LGRP 151320Z 25021KT 9999 FEW018 17/09 Q1004 NOSIG
2026-03-15 12:50:00,METAR LGRP 151250Z 25022KT 9999 FEW018 17/09 Q1003 NOSIG
2026-03-15 12:20:00,METAR LGRP 151220Z 25022KT 9999 FEW018 17/08 Q1003 NOSIG
2026-03-15 11:50:00,METAR LGRP 151150Z 25021KT 9999 FEW018 17/08 Q1003 NOSIG
2026-03-15 11:20:00,METAR LGRP 151120Z 25021KT 9999 FEW018 17/08 Q1003 NOSIG
2026-03-15 10:50:00,METAR LGRP 151050Z 25022KT 9999 FEW018 17/08 Q1004 NOSIG
2026-03-15 10:20:00,METAR LGRP 151020Z 25020KT 9999 FEW018 17/09 Q1004 NOSIG
2026-03-15 09:50:00,METAR LGRP 150950Z 24020KT 9999 FEW018 17/08 Q1004 NOSIG
2026-03-15 09:20:00,METAR LGRP 150920Z 24020KT 9999 FEW018 16/08 Q1004 NOSIG
2026-03-15 08:50:00,METAR LGRP 150850Z 24019KT 9999 FEW018 16/08 Q1003 NOSIG
2026-03-15 08:20:00,METAR LGRP 150820Z 25017KT 9999 FEW018 16/09 Q1003 NOSIG
