Time_recorded,METAR
2026-05-02 15:20:00,METAR EDDM 021520Z AUTO 09004KT 050V150 CAVOK 24/03 Q1019 NOSIG
2026-05-02 14:50:00,METAR EDDM 021450Z AUTO VRB04KT CAVOK 25/00 Q1019 NOSIG
2026-05-02 14:20:00,METAR EDDM 021420Z AUTO 13004KT 060V200 CAVOK 25/02 Q1019 NOSIG
2026-05-02 13:50:00,METAR EDDM 021350Z AUTO VRB04KT CAVOK 25/02 Q1020 NOSIG
2026-05-02 13:20:00,METAR EDDM 021320Z AUTO 17003KT CAVOK 25/05 Q1020 NOSIG
2026-05-02 12:50:00,METAR EDDM 021250Z AUTO VRB03KT CAVOK 24/04 Q1021 NOSIG
2026-05-02 12:20:00,METAR EDDM 021220Z AUTO VRB04KT CAVOK 23/03 Q1021 NOSIG
2026-05-02 11:50:00,METAR EDDM 021150Z AUTO 18004KT 110V250 CAVOK 23/05 Q1021 NOSIG
2026-05-02 11:20:00,METAR EDDM 021120Z AUTO 10005KT 350V160 CAVOK 23/06 Q1022 NOSIG
2026-05-02 10:50:00,METAR EDDM 021050Z AUTO VRB04KT CAVOK 22/05 Q1022 NOSIG
2026-05-02 10:20:00,METAR EDDM 021020Z AUTO VRB04KT CAVOK 21/04 Q1023 NOSIG
2026-05-02 09:50:00,METAR EDDM 020950Z AUTO VRB04KT CAVOK 20/04 Q1023 NOSIG
2026-05-02 09:20:00,METAR EDDM 020920Z AUTO 09005KT 050V160 CAVOK 20/05 Q1023 NOSIG
2026-05-02 08:50:00,METAR EDDM 020850Z AUTO 11003KT CAVOK 18/05 Q1023 NOSIG
2026-05-02 08:20:00,METAR EDDM 020820Z AUTO 08004KT 030V140 CAVOK 17/05 Q1023 NOSIG
2026-05-02 07:50:00,METAR EDDM 020750Z AUTO VRB03KT CAVOK 16/04 Q1023 NOSIG
2026-05-02 07:20:00,METAR EDDM 020720Z AUTO 12004KT 070V160 CAVOK 15/05 Q1024 NOSIG
2026-05-02 06:50:00,METAR EDDM 020650Z AUTO 10003KT 040V140 CAVOK 13/05 Q1024 NOSIG
2026-05-02 06:20:00,METAR EDDM 020620Z AUTO VRB02KT CAVOK 12/04 Q1024 NOSIG
2026-05-02 05:50:00,METAR EDDM 020550Z AUTO VRB02KT CAVOK 10/04 Q1024 NOSIG
2026-05-02 05:20:00,METAR EDDM 020520Z AUTO 06002KT CAVOK 06/03 Q1024 NOSIG
2026-05-02 04:50:00,METAR EDDM 020450Z AUTO VRB02KT CAVOK 03/01 Q1024 NOSIG
2026-05-02 04:20:00,METAR EDDM 020420Z AUTO VRB02KT CAVOK 01/00 Q1023 NOSIG
2026-05-02 03:50:00,METAR EDDM 020350Z AUTO 04001KT CAVOK 01/00 Q1024 NOSIG
2026-05-02 03:20:00,METAR EDDM 020320Z AUTO 04004KT CAVOK 01/M00 Q1024 NOSIG
2026-05-02 02:50:00,METAR EDDM 020250Z AUTO VRB01KT CAVOK 02/01 Q1024 NOSIG
2026-05-02 02:20:00,METAR EDDM 020220Z AUTO VRB01KT CAVOK 02/01 Q1024 NOSIG
2026-05-02 01:50:00,METAR EDDM 020150Z AUTO VRB01KT CAVOK 05/02 Q1024 NOSIG
2026-05-02 01:20:00,METAR EDDM 020120Z AUTO 04005KT CAVOK 05/02 Q1024 NOSIG
2026-05-02 00:50:00,METAR EDDM 020050Z AUTO 05004KT CAVOK 04/02 Q1024 NOSIG
2026-05-02 00:20:00,METAR EDDM 020020Z AUTO 04004KT CAVOK 03/01 Q1025 NOSIG
2026-05-01 23:50:00,METAR EDDM 012350Z AUTO VRB01KT CAVOK 04/02 Q1025 NOSIG
2026-05-01 23:20:00,METAR EDDM 012320Z AUTO 05003KT CAVOK 04/01 Q1025 NOSIG
2026-05-01 22:50:00,METAR EDDM 012250Z AUTO VRB02KT CAVOK 06/02 Q1025 NOSIG
2026-05-01 22:20:00,METAR EDDM 012220Z AUTO 04002KT CAVOK 06/02 Q1025 NOSIG
2026-05-01 21:50:00,METAR EDDM 012150Z AUTO 05002KT CAVOK 06/02 Q1025 NOSIG
2026-05-01 21:20:00,METAR EDDM 012120Z AUTO 08004KT CAVOK 06/02 Q1025 NOSIG
2026-05-01 20:50:00,METAR EDDM 012050Z AUTO 07003KT CAVOK 08/03 Q1025 NOSIG
2026-05-01 20:20:00,METAR EDDM 012020Z AUTO 07003KT CAVOK 08/02 Q1025 NOSIG
2026-05-01 19:50:00,METAR EDDM 011950Z AUTO 07003KT CAVOK 09/02 Q1025 NOSIG
2026-05-01 19:20:00,METAR EDDM 011920Z AUTO 08003KT CAVOK 12/02 Q1025 NOSIG
2026-05-01 18:50:00,METAR EDDM 011850Z AUTO 09006KT CAVOK 15/02 Q1025 NOSIG
2026-05-01 18:20:00,METAR EDDM 011820Z AUTO 10006KT CAVOK 16/02 Q1025 NOSIG
2026-05-01 17:50:00,METAR EDDM 011750Z AUTO 09010KT CAVOK 17/02 Q1025 NOSIG
2026-05-01 17:20:00,METAR EDDM 011720Z AUTO 08010KT CAVOK 18/02 Q1025 NOSIG
2026-05-01 16:50:00,METAR EDDM 011650Z AUTO 09011KT CAVOK 19/03 Q1025 NOSIG
2026-05-01 16:20:00,METAR EDDM 011620Z AUTO 08011KT 050V110 CAVOK 19/03 Q1025 NOSIG
2026-05-01 15:50:00,METAR EDDM 011550Z AUTO 08010KT 050V120 CAVOK 19/03 Q1025 NOSIG
2026-05-01 15:20:00,METAR EDDM 011520Z AUTO 07012KT CAVOK 19/02 Q1025 NOSIG
2026-05-01 14:50:00,METAR EDDM 011450Z AUTO 08012KT 050V110 CAVOK 19/03 Q1025 NOSIG
2026-05-01 14:20:00,METAR EDDM 011420Z AUTO 09011KT 050V110 CAVOK 20/03 Q1026 NOSIG
2026-05-01 13:50:00,METAR EDDM 011350Z AUTO 10011KT 050V130 CAVOK 20/03 Q1026 NOSIG
2026-05-01 13:20:00,METAR EDDM 011320Z AUTO 08011KT 040V120 CAVOK 20/03 Q1026 NOSIG
2026-05-01 12:50:00,METAR EDDM 011250Z AUTO 09011KT 060V120 CAVOK 19/03 Q1026 NOSIG
2026-05-01 12:20:00,METAR EDDM 011220Z AUTO 10012KT CAVOK 19/01 Q1027 NOSIG
2026-05-01 11:50:00,METAR EDDM 011150Z AUTO 09010KT 050V130 CAVOK 18/02 Q1027 NOSIG
2026-05-01 11:20:00,METAR EDDM 011120Z AUTO 09012KT 050V120 CAVOK 18/01 Q1027 NOSIG
2026-05-01 10:50:00,METAR EDDM 011050Z AUTO 08012KT 050V120 CAVOK 18/01 Q1027 NOSIG
2026-05-01 10:20:00,METAR EDDM 011020Z AUTO 09013KT CAVOK 17/01 Q1027 NOSIG
2026-05-01 09:50:00,METAR EDDM 010950Z AUTO 10014KT 070V130 CAVOK 17/01 Q1028 NOSIG
2026-05-01 09:20:00,METAR EDDM 010920Z AUTO 09014KT 060V120 CAVOK 16/01 Q1028 NOSIG
2026-05-01 08:50:00,METAR EDDM 010850Z AUTO 10016KT CAVOK 15/M00 Q1028 NOSIG
2026-05-01 08:20:00,METAR EDDM 010820Z AUTO 10015KT CAVOK 14/M01 Q1028 NOSIG
2026-05-01 07:50:00,METAR EDDM 010750Z AUTO 10014KT CAVOK 13/M02 Q1028 NOSIG
2026-05-01 07:20:00,METAR EDDM 010720Z AUTO 10012KT CAVOK 12/M03 Q1027 NOSIG
2026-05-01 06:50:00,METAR EDDM 010650Z AUTO 10012KT CAVOK 11/M02 Q1027 NOSIG
2026-05-01 06:20:00,METAR EDDM 010620Z AUTO 09011KT CAVOK 09/M03 Q1028 NOSIG
2026-05-01 05:50:00,METAR EDDM 010550Z AUTO 09008KT CAVOK 08/M03 Q1027 NOSIG
2026-05-01 05:20:00,METAR EDDM 010520Z AUTO 07005KT CAVOK 07/M03 Q1027 BECMG 08010KT
2026-05-01 04:50:00,METAR EDDM 010450Z AUTO 06004KT CAVOK 05/M04 Q1027 BECMG 08009KT
2026-05-01 04:20:00,METAR EDDM 010420Z AUTO 07005KT 050V110 CAVOK 04/M04 Q1027 NOSIG
2026-05-01 03:50:00,METAR EDDM 010350Z AUTO 05005KT CAVOK 03/M05 Q1027 NOSIG
2026-05-01 03:20:00,METAR EDDM 010320Z AUTO 06005KT CAVOK 03/M05 Q1027 NOSIG
2026-05-01 02:50:00,METAR EDDM 010250Z AUTO 05005KT CAVOK 02/M04 Q1027 NOSIG
2026-05-01 02:20:00,METAR EDDM 010220Z AUTO 06006KT CAVOK 03/M04 Q1027 NOSIG
2026-05-01 01:50:00,METAR EDDM 010150Z AUTO 06004KT CAVOK 03/M04 Q1027 NOSIG
2026-05-01 01:20:00,METAR EDDM 010120Z AUTO 05004KT CAVOK 03/M04 Q1027 NOSIG
2026-05-01 00:50:00,METAR EDDM 010050Z AUTO 03004KT CAVOK 04/M04 Q1027 NOSIG
2026-05-01 00:20:00,METAR EDDM 010020Z AUTO 04004KT CAVOK 04/M04 Q1027 NOSIG
2026-04-30 23:50:00,METAR EDDM 302350Z AUTO VRB02KT CAVOK 04/M03 Q1027 NOSIG
2026-04-30 23:20:00,METAR EDDM 302320Z AUTO 05003KT 020V100 CAVOK 04/M03 Q1027 NOSIG
2026-04-30 22:50:00,METAR EDDM 302250Z AUTO 05004KT CAVOK 05/M03 Q1027 NOSIG
2026-04-30 22:20:00,METAR EDDM 302220Z AUTO 04004KT CAVOK 06/M04 Q1027 NOSIG
2026-04-30 21:50:00,METAR EDDM 302150Z AUTO 06004KT CAVOK 06/M03 Q1027 NOSIG
2026-04-30 21:20:00,METAR EDDM 302120Z AUTO 04002KT CAVOK 05/M03 Q1027 NOSIG
2026-04-30 20:50:00,METAR EDDM 302050Z AUTO 08003KT CAVOK 07/M03 Q1027 NOSIG
2026-04-30 20:20:00,METAR EDDM 302020Z AUTO 11002KT CAVOK 07/M03 Q1027 NOSIG
2026-04-30 19:50:00,METAR EDDM 301950Z AUTO 09004KT CAVOK 08/M03 Q1027 NOSIG
2026-04-30 19:20:00,METAR EDDM 301920Z AUTO 09005KT CAVOK 10/M03 Q1027 NOSIG
2026-04-30 18:50:00,METAR EDDM 301850Z AUTO 09006KT CAVOK 10/M03 Q1026 NOSIG
2026-04-30 18:20:00,METAR EDDM 301820Z AUTO 09007KT CAVOK 11/M03 Q1026 NOSIG
2026-04-30 17:50:00,METAR EDDM 301750Z AUTO 09008KT CAVOK 12/M03 Q1026 NOSIG
2026-04-30 17:20:00,METAR EDDM 301720Z AUTO 10011KT CAVOK 13/M04 Q1026 NOSIG
2026-04-30 16:50:00,METAR EDDM 301650Z AUTO 09013KT CAVOK 14/M04 Q1026 NOSIG
2026-04-30 16:20:00,METAR EDDM 301620Z AUTO 09012KT 050V120 CAVOK 14/M04 Q1026 NOSIG
2026-04-30 14:50:00,METAR EDDM 301450Z AUTO 09011KT 020V140 CAVOK 15/M04 Q1026 NOSIG
2026-04-30 14:20:00,METAR EDDM 301420Z AUTO 09014KT CAVOK 14/M06 Q1026 NOSIG
2026-04-30 13:50:00,METAR EDDM 301350Z AUTO 08014KT 040V110 CAVOK 14/M07 Q1026 NOSIG
2026-04-30 13:20:00,METAR EDDM 301320Z AUTO 09013KT 050V120 CAVOK 14/M07 Q1027 NOSIG
2026-04-30 12:50:00,METAR EDDM 301250Z AUTO 08013KT 050V110 CAVOK 14/M06 Q1027 TEMPO 08015G25KT
2026-04-30 12:20:00,METAR EDDM 301220Z AUTO 07014KT 040V100 CAVOK 14/M06 Q1027 TEMPO 08015G25KT
2026-04-30 11:50:00,METAR EDDM 301150Z AUTO 08014KT 040V120 CAVOK 13/M07 Q1027 TEMPO 08015G25KT
2026-04-30 11:20:00,METAR EDDM 301120Z AUTO 08013KT 050V120 CAVOK 13/M06 Q1027 TEMPO 08015G25KT
2026-04-30 10:50:00,METAR EDDM 301050Z AUTO 09016KT 060V120 CAVOK 12/M06 Q1027 TEMPO 08015G25KT
2026-04-30 10:20:00,METAR EDDM 301020Z AUTO 08015KT 050V110 CAVOK 12/M07 Q1028 TEMPO 08015G25KT
2026-04-30 09:50:00,METAR EDDM 300950Z AUTO 07014KT 040V100 CAVOK 11/M06 Q1028 TEMPO 08015G25KT
2026-04-30 09:20:00,METAR EDDM 300920Z AUTO 10015KT 060V120 CAVOK 10/M07 Q1028 TEMPO 08015G25KT
2026-04-30 08:50:00,METAR EDDM 300850Z AUTO 08013KT 040V110 CAVOK 10/M06 Q1028 TEMPO 08015G25KT
2026-04-30 08:20:00,METAR EDDM 300820Z AUTO 09012KT 060V130 CAVOK 09/M06 Q1028 TEMPO 08015G25KT
2026-04-30 07:50:00,METAR EDDM 300750Z AUTO 09014KT CAVOK 08/M06 Q1028 TEMPO 08015G25KT
2026-04-30 07:20:00,METAR EDDM 300720Z AUTO 09016KT 060V120 CAVOK 07/M06 Q1028 TEMPO 08015G25KT
2026-04-30 06:50:00,METAR EDDM 300650Z AUTO 09016KT CAVOK 06/M07 Q1028 BECMG 08015G25KT
2026-04-30 06:20:00,METAR EDDM 300620Z AUTO 08018KT CAVOK 05/M07 Q1028 BECMG 08015G25KT
2026-04-30 05:50:00,METAR EDDM 300550Z AUTO 08013KT CAVOK 04/M07 Q1028 BECMG 08015G25KT
2026-04-30 05:20:00,METAR EDDM 300520Z AUTO 08012KT CAVOK 04/M07 Q1027 BECMG 08015G25KT
2026-04-30 04:50:00,METAR EDDM 300450Z AUTO 08009KT 050V110 CAVOK 03/M07 Q1027 BECMG 08015G25KT
2026-04-30 04:20:00,METAR EDDM 300420Z AUTO 08010KT 050V110 CAVOK 03/M08 Q1027 BECMG 08015KT
2026-04-30 03:50:00,METAR EDDM 300350Z AUTO 08010KT CAVOK 03/M08 Q1027 NOSIG
2026-04-30 03:20:00,METAR EDDM 300320Z AUTO 08010KT 050V110 CAVOK 03/M08 Q1027 NOSIG
2026-04-30 02:50:00,METAR EDDM 300250Z AUTO 08011KT 040V100 CAVOK 04/M08 Q1027 NOSIG
2026-04-30 02:20:00,METAR EDDM 300220Z AUTO 08010KT CAVOK 04/M08 Q1027 NOSIG
2026-04-30 01:50:00,METAR EDDM 300150Z AUTO 08011KT 030V100 CAVOK 05/M07 Q1027 NOSIG
2026-04-30 01:20:00,METAR EDDM 300120Z AUTO 08011KT CAVOK 05/M07 Q1027 NOSIG
2026-04-30 00:50:00,METAR EDDM 300050Z AUTO 08011KT 050V110 CAVOK 06/M06 Q1026 NOSIG
2026-04-30 00:20:00,METAR EDDM 300020Z AUTO 07009KT 040V100 CAVOK 06/M06 Q1026 NOSIG
2026-04-29 23:50:00,METAR EDDM 292350Z AUTO 07008KT CAVOK 06/M06 Q1026 NOSIG
2026-04-29 23:20:00,METAR EDDM 292320Z AUTO 07007KT 040V100 CAVOK 07/M05 Q1026 NOSIG
2026-04-29 22:50:00,METAR EDDM 292250Z AUTO 07010KT 040V100 CAVOK 08/M05 Q1026 NOSIG
2026-04-29 22:20:00,METAR EDDM 292220Z AUTO 06008KT 030V090 CAVOK 08/M02 Q1025 NOSIG
2026-04-29 21:50:00,METAR EDDM 292150Z AUTO 06007KT 020V090 CAVOK 08/M03 Q1025 NOSIG
2026-04-29 21:20:00,METAR EDDM 292120Z AUTO 06008KT 030V090 CAVOK 08/M04 Q1025 NOSIG
2026-04-29 20:50:00,METAR EDDM 292050Z AUTO 05010KT 010V070 CAVOK 09/M04 Q1024 NOSIG
2026-04-29 20:20:00,METAR EDDM 292020Z AUTO 04010KT 360V070 CAVOK 10/M04 Q1024 NOSIG
2026-04-29 19:50:00,METAR EDDM 291950Z AUTO 04011KT CAVOK 11/M04 Q1024 NOSIG
2026-04-29 19:20:00,METAR EDDM 291920Z AUTO 04009KT CAVOK 12/M03 Q1023 NOSIG
2026-04-29 18:50:00,METAR EDDM 291850Z AUTO 04008KT 010V070 CAVOK 12/M03 Q1023 NOSIG
2026-04-29 18:20:00,METAR EDDM 291820Z AUTO 04010KT CAVOK 13/M03 Q1022 NOSIG
2026-04-29 17:50:00,METAR EDDM 291750Z AUTO 04009KT 010V080 CAVOK 14/M03 Q1022 NOSIG
2026-04-29 17:20:00,METAR EDDM 291720Z AUTO 05009KT CAVOK 15/M03 Q1021 NOSIG
2026-04-29 16:50:00,METAR EDDM 291650Z AUTO 04011KT 010V080 CAVOK 16/M03 Q1021 NOSIG
2026-04-29 16:20:00,METAR EDDM 291620Z AUTO 04011KT 020V080 CAVOK 17/M01 Q1021 NOSIG
2026-04-29 15:50:00,METAR EDDM 291550Z AUTO 05008KT 010V090 CAVOK 17/M01 Q1021 NOSIG
2026-04-29 15:20:00,METAR EDDM 291520Z AUTO 06009KT 020V110 CAVOK 18/M01 Q1021 NOSIG
2026-04-29 14:50:00,METAR EDDM 291450Z AUTO 03011KT 350V070 CAVOK 18/M02 Q1021 NOSIG
2026-04-29 14:20:00,METAR EDDM 291420Z AUTO 04011KT 340V070 CAVOK 18/M00 Q1021 NOSIG
2026-04-29 13:50:00,METAR EDDM 291350Z AUTO 08011KT 360V110 CAVOK 18/M00 Q1021 NOSIG
2026-04-29 13:20:00,METAR EDDM 291320Z AUTO 09011KT 050V130 CAVOK 17/M00 Q1021 NOSIG
2026-04-29 12:50:00,METAR EDDM 291250Z AUTO 09010KT 050V120 CAVOK 17/00 Q1021 NOSIG
2026-04-29 12:20:00,METAR EDDM 291220Z AUTO 05009KT 010V100 CAVOK 17/M00 Q1021 NOSIG
2026-04-29 11:50:00,METAR EDDM 291150Z AUTO 07008KT 040V110 CAVOK 16/00 Q1021 NOSIG
2026-04-29 11:20:00,METAR EDDM 291120Z AUTO 05008KT 330V130 CAVOK 16/00 Q1021 NOSIG
2026-04-29 10:50:00,METAR EDDM 291050Z AUTO 09012KT 060V120 CAVOK 15/00 Q1021 NOSIG
2026-04-29 10:20:00,METAR EDDM 291020Z AUTO 07011KT 030V120 CAVOK 15/M00 Q1022 NOSIG
2026-04-29 09:50:00,METAR EDDM 290950Z AUTO 08012KT 040V100 CAVOK 15/M00 Q1022 NOSIG
2026-04-29 09:20:00,METAR EDDM 290920Z AUTO 07012KT 040V110 CAVOK 14/M00 Q1021 NOSIG
2026-04-29 08:50:00,METAR EDDM 290850Z AUTO 09012KT 050V120 CAVOK 13/M02 Q1021 NOSIG
2026-04-29 08:20:00,METAR EDDM 290820Z AUTO 09015KT CAVOK 12/M02 Q1022 NOSIG
2026-04-29 07:50:00,METAR EDDM 290750Z AUTO 10014KT CAVOK 12/M01 Q1021 NOSIG
2026-04-29 07:20:00,METAR EDDM 290720Z AUTO 08012KT CAVOK 11/M01 Q1021 NOSIG
2026-04-29 06:50:00,METAR EDDM 290650Z AUTO 10014KT 060V120 CAVOK 11/M01 Q1021 NOSIG
2026-04-29 06:20:00,METAR EDDM 290620Z AUTO 08010KT 050V110 CAVOK 10/00 Q1021 NOSIG
2026-04-29 05:50:00,METAR EDDM 290550Z AUTO 06007KT 010V090 CAVOK 09/01 Q1021 NOSIG
2026-04-29 05:20:00,METAR EDDM 290520Z AUTO 05006KT 020V090 CAVOK 09/02 Q1021 NOSIG
2026-04-29 04:50:00,METAR EDDM 290450Z AUTO 04006KT CAVOK 08/02 Q1020 NOSIG
2026-04-29 04:20:00,METAR EDDM 290420Z AUTO 06006KT 030V090 CAVOK 09/02 Q1020 NOSIG
2026-04-29 03:50:00,METAR EDDM 290350Z AUTO 04005KT CAVOK 08/02 Q1019 NOSIG
2026-04-29 03:20:00,METAR EDDM 290320Z AUTO 05005KT CAVOK 09/02 Q1019 NOSIG
2026-04-29 02:50:00,METAR EDDM 290250Z AUTO 05005KT CAVOK 10/01 Q1019 NOSIG
2026-04-29 02:20:00,METAR EDDM 290220Z AUTO 05005KT CAVOK 10/02 Q1019 NOSIG
2026-04-29 01:50:00,METAR EDDM 290150Z AUTO 05006KT 020V080 CAVOK 10/02 Q1019 NOSIG
2026-04-29 01:20:00,METAR EDDM 290120Z AUTO 04006KT CAVOK 10/02 Q1019 NOSIG
2026-04-29 00:50:00,METAR EDDM 290050Z AUTO 05005KT CAVOK 10/02 Q1019 NOSIG
2026-04-29 00:20:00,METAR EDDM 290020Z AUTO 05005KT CAVOK 11/01 Q1019 NOSIG
2026-04-28 23:50:00,METAR EDDM 282350Z AUTO 04007KT CAVOK 11/01 Q1019 NOSIG
2026-04-28 23:20:00,METAR EDDM 282320Z AUTO 05007KT 020V090 CAVOK 11/01 Q1019 NOSIG
2026-04-28 22:50:00,METAR EDDM 282250Z AUTO 04007KT CAVOK 11/02 Q1019 NOSIG
2026-04-28 22:20:00,METAR EDDM 282220Z AUTO 05007KT 020V080 CAVOK 12/02 Q1019 NOSIG
2026-04-28 21:50:00,METAR EDDM 282150Z AUTO 05006KT CAVOK 12/02 Q1019 NOSIG
2026-04-28 21:20:00,METAR EDDM 282120Z AUTO 05006KT CAVOK 12/02 Q1018 NOSIG
2026-04-28 20:50:00,METAR EDDM 282050Z AUTO 04007KT CAVOK 13/02 Q1018 NOSIG
2026-04-28 20:20:00,METAR EDDM 282020Z AUTO 04006KT 360V060 CAVOK 13/02 Q1018 NOSIG
2026-04-28 19:50:00,METAR EDDM 281950Z AUTO 03006KT CAVOK 14/02 Q1018 NOSIG
2026-04-28 19:20:00,METAR EDDM 281920Z AUTO 02005KT CAVOK 14/02 Q1018 NOSIG
2026-04-28 18:50:00,METAR EDDM 281850Z AUTO 03006KT CAVOK 15/02 Q1017 NOSIG
2026-04-28 18:20:00,METAR EDDM 281820Z AUTO 03005KT 350V060 CAVOK 16/02 Q1017 NOSIG
2026-04-28 17:50:00,METAR EDDM 281750Z AUTO 07005KT 030V100 CAVOK 17/01 Q1017 NOSIG
2026-04-28 17:20:00,METAR EDDM 281720Z AUTO 07006KT CAVOK 18/01 Q1016 NOSIG
2026-04-28 16:50:00,METAR EDDM 281650Z AUTO 07007KT CAVOK 18/01 Q1016 NOSIG
2026-04-28 16:20:00,METAR EDDM 281620Z AUTO 07007KT 030V110 CAVOK 19/02 Q1016 NOSIG
2026-04-28 15:50:00,METAR EDDM 281550Z AUTO 08008KT 040V130 CAVOK 20/03 Q1016 NOSIG
2026-04-28 15:20:00,METAR EDDM 281520Z AUTO 09007KT CAVOK 20/03 Q1016 NOSIG
2026-04-28 14:50:00,METAR EDDM 281450Z AUTO 09008KT 060V120 CAVOK 20/03 Q1016 NOSIG
2026-04-28 14:20:00,METAR EDDM 281420Z AUTO 09009KT 030V130 CAVOK 20/03 Q1017 NOSIG
2026-04-28 13:50:00,METAR EDDM 281350Z AUTO 10011KT 070V130 CAVOK 20/03 Q1017 NOSIG
2026-04-28 13:20:00,METAR EDDM 281320Z AUTO 09010KT 050V110 CAVOK 19/02 Q1017 NOSIG
2026-04-28 12:50:00,METAR EDDM 281250Z AUTO 09011KT 050V140 CAVOK 19/03 Q1017 NOSIG
2026-04-28 12:20:00,METAR EDDM 281220Z AUTO 08011KT 030V120 CAVOK 18/02 Q1018 NOSIG
2026-04-28 11:50:00,METAR EDDM 281150Z AUTO 10012KT 070V130 CAVOK 18/02 Q1018 NOSIG
2026-04-28 11:20:00,METAR EDDM 281120Z AUTO 09010KT 040V120 CAVOK 18/03 Q1018 NOSIG
2026-04-28 10:50:00,METAR EDDM 281050Z AUTO 09012KT 050V120 CAVOK 18/03 Q1018 NOSIG
2026-04-28 10:20:00,METAR EDDM 281020Z AUTO 09012KT 050V120 CAVOK 17/03 Q1018 NOSIG
2026-04-28 09:50:00,METAR EDDM 280950Z AUTO 07011KT 020V120 CAVOK 17/03 Q1018 NOSIG
2026-04-28 09:20:00,METAR EDDM 280920Z AUTO 07010KT 030V110 CAVOK 16/03 Q1018 NOSIG
2026-04-28 08:50:00,METAR EDDM 280850Z AUTO 07009KT 030V090 CAVOK 15/03 Q1018 NOSIG
2026-04-28 08:20:00,METAR EDDM 280820Z AUTO 08009KT 030V110 CAVOK 14/03 Q1018 NOSIG
2026-04-28 07:50:00,METAR EDDM 280750Z AUTO 08008KT 050V110 CAVOK 12/02 Q1018 NOSIG
2026-04-28 07:20:00,METAR EDDM 280720Z COR AUTO 08007KT CAVOK 11/02 Q1018 NOSIG
2026-04-28 06:50:00,METAR EDDM 280650Z AUTO 06007KT 020V090 CAVOK 10/// Q1018 NOSIG
2026-04-28 06:20:00,METAR EDDM 280620Z AUTO 04006KT CAVOK 09/03 Q1018 BECMG 09011KT
2026-04-28 05:50:00,METAR EDDM 280550Z AUTO 02005KT CAVOK 08/02 Q1018 NOSIG
2026-04-28 05:20:00,METAR EDDM 280520Z AUTO 02004KT CAVOK 06/02 Q1018 NOSIG
2026-04-28 04:50:00,METAR EDDM 280450Z AUTO 04002KT CAVOK 04/01 Q1017 BECMG 07008KT
2026-04-28 04:20:00,METAR EDDM 280420Z AUTO 04003KT CAVOK 04/01 Q1017 BECMG 07008KT
2026-04-28 03:50:00,METAR EDDM 280350Z AUTO VRB01KT CAVOK 03/01 Q1018 BECMG 06005KT
2026-04-28 03:20:00,METAR EDDM 280320Z AUTO 03003KT 360V060 CAVOK 03/01 Q1018 NOSIG
2026-04-28 02:50:00,METAR EDDM 280250Z AUTO 03002KT CAVOK 04/01 Q1018 NOSIG
2026-04-28 02:20:00,METAR EDDM 280220Z AUTO VRB02KT CAVOK 04/01 Q1018 NOSIG
2026-04-28 01:50:00,METAR EDDM 280150Z AUTO 07002KT CAVOK 05/01 Q1018 NOSIG
2026-04-28 01:20:00,METAR EDDM 280120Z AUTO VRB02KT CAVOK 05/01 Q1018 NOSIG
2026-04-28 00:50:00,METAR EDDM 280050Z AUTO VRB02KT CAVOK 05/01 Q1018 NOSIG
2026-04-28 00:20:00,METAR EDDM 280020Z AUTO 10002KT CAVOK 05/01 Q1018 NOSIG
2026-04-27 23:50:00,METAR EDDM 272350Z AUTO 01001KT CAVOK 06/01 Q1018 NOSIG
2026-04-27 23:20:00,METAR EDDM 272320Z AUTO 03002KT CAVOK 05/01 Q1018 NOSIG
2026-04-27 22:50:00,METAR EDDM 272250Z AUTO 14001KT CAVOK 05/01 Q1018 NOSIG
2026-04-27 22:20:00,METAR EDDM 272220Z AUTO VRB01KT CAVOK 05/01 Q1018 NOSIG
2026-04-27 21:50:00,METAR EDDM 272150Z AUTO 00000KT CAVOK 05/01 Q1018 NOSIG
2026-04-27 21:20:00,METAR EDDM 272120Z AUTO VRB01KT CAVOK 06/01 Q1018 NOSIG
2026-04-27 20:50:00,METAR EDDM 272050Z AUTO VRB01KT CAVOK 07/01 Q1019 NOSIG
2026-04-27 20:20:00,METAR EDDM 272020Z AUTO 12002KT CAVOK 07/01 Q1019 NOSIG
2026-04-27 19:50:00,METAR EDDM 271950Z AUTO VRB02KT CAVOK 08/01 Q1019 NOSIG
2026-04-27 19:20:00,METAR EDDM 271920Z AUTO 03003KT CAVOK 10/01 Q1019 NOSIG
2026-04-27 18:50:00,METAR EDDM 271850Z AUTO 04003KT CAVOK 14/M01 Q1019 NOSIG
2026-04-27 18:20:00,METAR EDDM 271820Z AUTO 04004KT CAVOK 15/M01 Q1018 NOSIG
2026-04-27 17:50:00,METAR EDDM 271750Z AUTO 03004KT CAVOK 16/00 Q1019 NOSIG
2026-04-27 17:20:00,METAR EDDM 271720Z AUTO 03004KT CAVOK 17/01 Q1019 NOSIG
2026-04-27 16:50:00,METAR EDDM 271650Z AUTO 04005KT 360V060 CAVOK 18/01 Q1019 NOSIG
2026-04-27 16:20:00,METAR EDDM 271620Z AUTO 05004KT 010V080 CAVOK 18/00 Q1019 NOSIG
2026-04-27 15:50:00,METAR EDDM 271550Z AUTO 05004KT 010V080 CAVOK 18/M01 Q1019 NOSIG
2026-04-27 15:20:00,METAR EDDM 271520Z AUTO 04005KT 360V090 CAVOK 19/M00 Q1019 NOSIG
2026-04-27 14:50:00,METAR EDDM 271450Z AUTO 05004KT 330V130 CAVOK 19/M01 Q1019 NOSIG
2026-04-27 14:20:00,METAR EDDM 271420Z AUTO 35005KT 290V070 CAVOK 20/M00 Q1019 NOSIG
2026-04-27 13:50:00,METAR EDDM 271350Z AUTO VRB04G14KT CAVOK 19/M00 Q1020 NOSIG
2026-04-27 13:20:00,METAR EDDM 271320Z AUTO VRB04KT CAVOK 19/00 Q1020 NOSIG
2026-04-27 12:50:00,METAR EDDM 271250Z AUTO 05005KT 340V100 CAVOK 19/M01 Q1020 NOSIG
2026-04-27 12:20:00,METAR EDDM 271220Z AUTO VRB04KT CAVOK 19/02 Q1020 NOSIG
2026-04-27 11:50:00,METAR EDDM 271150Z AUTO VRB03KT CAVOK 18/01 Q1021 BECMG 03005KT
2026-04-27 11:20:00,METAR EDDM 271120Z AUTO VRB05KT CAVOK 17/M00 Q1021 BECMG 03005KT
2026-04-27 10:50:00,METAR EDDM 271050Z AUTO VRB03KT CAVOK 17/00 Q1021 BECMG 05005KT
2026-04-27 10:20:00,METAR EDDM 271020Z AUTO VRB04KT CAVOK 17/02 Q1021 BECMG 05005KT
2026-04-27 09:50:00,METAR EDDM 270950Z AUTO 35006KT 300V100 CAVOK 16/03 Q1022 BECMG 05005KT
2026-04-27 09:20:00,METAR EDDM 270920Z AUTO VRB03KT CAVOK 16/02 Q1022 BECMG 04005KT
2026-04-27 08:50:00,METAR EDDM 270850Z AUTO VRB03KT CAVOK 15/03 Q1022 BECMG 04005KT
2026-04-27 08:20:00,METAR EDDM 270820Z AUTO VRB03KT CAVOK 14/03 Q1022 BECMG 04005KT
2026-04-27 07:50:00,METAR EDDM 270750Z AUTO 01003KT 340V050 CAVOK 12/02 Q1022 NOSIG
2026-04-27 07:20:00,METAR EDDM 270720Z AUTO 10003KT 010V180 CAVOK 11/02 Q1022 NOSIG
2026-04-27 06:50:00,METAR EDDM 270650Z AUTO 09004KT 020V130 CAVOK 10/01 Q1022 NOSIG
2026-04-27 06:20:00,METAR EDDM 270620Z AUTO 06003KT 030V100 CAVOK 08/02 Q1022 NOSIG
2026-04-27 05:50:00,METAR EDDM 270550Z AUTO 07003KT CAVOK 07/02 Q1022 NOSIG
2026-04-27 05:20:00,METAR EDDM 270520Z AUTO VRB01KT CAVOK 04/01 Q1022 NOSIG
2026-04-27 04:50:00,METAR EDDM 270450Z AUTO 09002KT CAVOK 01/M01 Q1022 NOSIG
2026-04-27 04:20:00,METAR EDDM 270420Z AUTO 10002KT CAVOK M00/M01 Q1022 NOSIG
2026-04-27 03:50:00,METAR EDDM 270350Z AUTO VRB01KT CAVOK M01/M01 Q1022 NOSIG
2026-04-27 03:20:00,METAR EDDM 270320Z AUTO VRB01KT CAVOK M01/M02 Q1021 NOSIG
2026-04-27 02:50:00,METAR EDDM 270250Z AUTO VRB01KT CAVOK M00/M01 Q1021 NOSIG
2026-04-27 02:20:00,METAR EDDM 270220Z AUTO 02002KT CAVOK 00/M01 Q1021 NOSIG
2026-04-27 01:50:00,METAR EDDM 270150Z AUTO VRB01KT CAVOK 01/M01 Q1021 NOSIG
2026-04-27 01:20:00,METAR EDDM 270120Z AUTO VRB01KT CAVOK 01/M01 Q1022 NOSIG
2026-04-27 00:50:00,METAR EDDM 270050Z AUTO 15001KT CAVOK 01/M01 Q1022 NOSIG
2026-04-27 00:20:00,METAR EDDM 270020Z AUTO 01001KT CAVOK 02/M01 Q1022 NOSIG
2026-04-26 23:50:00,METAR EDDM 262350Z AUTO 32001KT CAVOK 03/M00 Q1022 NOSIG
2026-04-26 23:20:00,METAR EDDM 262320Z AUTO 20001KT CAVOK 03/M00 Q1022 NOSIG
2026-04-26 22:50:00,METAR EDDM 262250Z AUTO VRB01KT CAVOK 03/M00 Q1022 NOSIG
2026-04-26 22:20:00,METAR EDDM 262220Z AUTO VRB01KT CAVOK 04/00 Q1022 NOSIG
2026-04-26 21:50:00,METAR EDDM 262150Z AUTO 34002KT CAVOK 05/00 Q1022 NOSIG
2026-04-26 21:20:00,METAR EDDM 262120Z AUTO VRB02KT CAVOK 06/01 Q1022 NOSIG
2026-04-26 20:50:00,METAR EDDM 262050Z AUTO 11001KT CAVOK 07/01 Q1022 NOSIG
2026-04-26 20:20:00,METAR EDDM 262020Z AUTO VRB02KT CAVOK 08/01 Q1022 NOSIG
2026-04-26 19:50:00,METAR EDDM 261950Z AUTO 03003KT CAVOK 12/M01 Q1022 NOSIG
2026-04-26 19:20:00,METAR EDDM 261920Z AUTO 04004KT CAVOK 12/M00 Q1022 NOSIG
2026-04-26 18:50:00,METAR EDDM 261850Z AUTO 05004KT CAVOK 13/01 Q1022 NOSIG
2026-04-26 18:20:00,METAR EDDM 261820Z AUTO 05005KT 030V090 CAVOK 15/02 Q1021 NOSIG
2026-04-26 17:50:00,METAR EDDM 261750Z AUTO 05006KT 020V080 CAVOK 16/03 Q1021 NOSIG
2026-04-26 17:20:00,METAR EDDM 261720Z AUTO 03006KT CAVOK 17/03 Q1021 NOSIG
2026-04-26 16:50:00,METAR EDDM 261650Z AUTO 01003KT 320V040 CAVOK 17/03 Q1021 NOSIG
2026-04-26 16:20:00,METAR EDDM 261620Z AUTO 01003KT 330V050 CAVOK 17/02 Q1021 NOSIG
2026-04-26 15:50:00,METAR EDDM 261550Z AUTO 36004KT 310V040 CAVOK 17/02 Q1021 NOSIG
2026-04-26 15:20:00,METAR EDDM 261520Z AUTO 35006KT 310V040 CAVOK 18/01 Q1021 NOSIG
2026-04-26 14:50:00,METAR EDDM 261450Z AUTO 35006KT 300V060 CAVOK 19/02 Q1021 NOSIG
2026-04-26 14:20:00,METAR EDDM 261420Z AUTO 34008KT 300V030 CAVOK 19/02 Q1021 NOSIG
2026-04-26 13:50:00,METAR EDDM 261350Z AUTO 34006KT 310V020 CAVOK 19/03 Q1021 NOSIG
2026-04-26 13:20:00,METAR EDDM 261320Z AUTO VRB03KT CAVOK 19/03 Q1021 NOSIG
2026-04-26 12:50:00,METAR EDDM 261250Z AUTO 33004KT 220V030 CAVOK 19/01 Q1021 NOSIG
2026-04-26 12:20:00,METAR EDDM 261220Z AUTO 34004KT 290V040 CAVOK 19/01 Q1022 NOSIG
2026-04-26 11:50:00,METAR EDDM 261150Z AUTO 24003KT CAVOK 18/01 Q1022 NOSIG
2026-04-26 11:20:00,METAR EDDM 261120Z AUTO VRB04KT CAVOK 18/04 Q1022 NOSIG
2026-04-26 10:50:00,METAR EDDM 261050Z AUTO VRB04KT CAVOK 17/03 Q1022 NOSIG
2026-04-26 10:20:00,METAR EDDM 261020Z AUTO 32006KT 240V020 CAVOK 16/02 Q1022 NOSIG
2026-04-26 09:50:00,METAR EDDM 260950Z AUTO VRB04KT CAVOK 16/01 Q1023 NOSIG
2026-04-26 09:20:00,METAR EDDM 260920Z AUTO 24002KT CAVOK 15/02 Q1023 NOSIG
2026-04-26 08:50:00,METAR EDDM 260850Z AUTO VRB04KT CAVOK 15/01 Q1023 NOSIG
2026-04-26 08:20:00,METAR EDDM 260820Z AUTO 33005KT 260V010 CAVOK 14/03 Q1023 NOSIG
2026-04-26 07:50:00,METAR EDDM 260750Z AUTO 02003KT 340V130 CAVOK 14/02 Q1023 NOSIG
2026-04-26 07:20:00,METAR EDDM 260720Z AUTO 33004KT 270V360 CAVOK 13/02 Q1023 NOSIG
2026-04-26 06:50:00,METAR EDDM 260650Z AUTO 28003KT 220V310 CAVOK 12/01 Q1023 NOSIG
2026-04-26 06:20:00,METAR EDDM 260620Z AUTO VRB02KT CAVOK 11/02 Q1022 NOSIG
2026-04-26 05:50:00,METAR EDDM 260550Z AUTO 24004KT CAVOK 09/02 Q1022 NOSIG
2026-04-26 05:20:00,METAR EDDM 260520Z AUTO 26006KT CAVOK 07/01 Q1022 NOSIG
2026-04-26 04:50:00,METAR EDDM 260450Z AUTO 26006KT CAVOK 06/M00 Q1022 NOSIG
2026-04-26 04:20:00,METAR EDDM 260420Z AUTO 25003KT CAVOK 05/M00 Q1021 NOSIG
2026-04-26 03:50:00,METAR EDDM 260350Z AUTO 27005KT CAVOK 03/M01 Q1021 NOSIG
2026-04-26 03:20:00,METAR EDDM 260320Z AUTO 26008KT CAVOK 02/M01 Q1020 NOSIG
2026-04-26 02:50:00,METAR EDDM 260250Z AUTO 26006KT CAVOK 05/00 Q1020 NOSIG
2026-04-26 02:20:00,METAR EDDM 260220Z AUTO 26007KT CAVOK 05/00 Q1020 NOSIG
2026-04-26 01:50:00,METAR EDDM 260150Z AUTO 26006KT CAVOK 06/01 Q1019 NOSIG
2026-04-26 01:20:00,METAR EDDM 260120Z AUTO 26006KT CAVOK 05/01 Q1019 NOSIG
2026-04-26 00:50:00,METAR EDDM 260050Z AUTO 26006KT CAVOK 04/00 Q1019 NOSIG
2026-04-26 00:20:00,METAR EDDM 260020Z AUTO 25007KT CAVOK 05/01 Q1019 NOSIG
2026-04-25 23:50:00,METAR EDDM 252350Z AUTO 25008KT CAVOK 04/00 Q1019 NOSIG
2026-04-25 23:20:00,METAR EDDM 252320Z AUTO 27004KT CAVOK 05/01 Q1018 NOSIG
2026-04-25 22:50:00,METAR EDDM 252250Z AUTO 26006KT CAVOK 06/01 Q1018 NOSIG
2026-04-25 22:20:00,METAR EDDM 252220Z AUTO 26006KT CAVOK 07/01 Q1018 NOSIG
2026-04-25 21:50:00,METAR EDDM 252150Z AUTO 26006KT CAVOK 06/01 Q1018 NOSIG
2026-04-25 21:20:00,METAR EDDM 252120Z AUTO 28004KT CAVOK 08/02 Q1018 NOSIG
2026-04-25 20:50:00,METAR EDDM 252050Z AUTO 28003KT CAVOK 14/01 Q1018 NOSIG
2026-04-25 20:20:00,METAR EDDM 252020Z AUTO 28003KT CAVOK 15/01 Q1017 NOSIG
2026-04-25 19:50:00,METAR EDDM 251950Z AUTO 31003KT CAVOK 15/01 Q1017 NOSIG
2026-04-25 19:20:00,METAR EDDM 251920Z AUTO 32004KT CAVOK 16/02 Q1017 NOSIG
2026-04-25 18:50:00,METAR EDDM 251850Z AUTO 32003KT CAVOK 17/02 Q1016 NOSIG
2026-04-25 18:20:00,METAR EDDM 251820Z AUTO 32005KT CAVOK 17/02 Q1016 BECMG 24004KT
2026-04-25 17:50:00,METAR EDDM 251750Z AUTO 33005KT CAVOK 19/02 Q1016 BECMG 24004KT
2026-04-25 17:20:00,METAR EDDM 251720Z AUTO 32006KT 280V010 CAVOK 20/02 Q1015 BECMG 24004KT
2026-04-25 16:50:00,METAR EDDM 251650Z AUTO 31006KT 280V350 CAVOK 20/02 Q1015 NOSIG
2026-04-25 16:20:00,METAR EDDM 251620Z AUTO 30007KT 250V350 CAVOK 21/01 Q1015 NOSIG
2026-04-25 15:50:00,METAR EDDM 251550Z AUTO 32010KT CAVOK 21/01 Q1015 NOSIG
2026-04-25 15:20:00,METAR EDDM 251520Z AUTO 32010KT 270V360 CAVOK 21/00 Q1015 NOSIG
2026-04-25 14:50:00,METAR EDDM 251450Z AUTO 29010KT 250V330 CAVOK 21/01 Q1015 NOSIG
2026-04-25 14:20:00,METAR EDDM 251420Z AUTO 31010KT 270V340 CAVOK 21/01 Q1016 NOSIG
2026-04-25 13:50:00,METAR EDDM 251350Z AUTO 27010KT 230V310 CAVOK 21/01 Q1016 NOSIG
2026-04-25 13:20:00,METAR EDDM 251320Z AUTO 30008KT 230V340 CAVOK 21/01 Q1016 NOSIG
2026-04-25 12:50:00,METAR EDDM 251250Z AUTO 29009KT 240V330 CAVOK 20/02 Q1016 NOSIG
2026-04-25 12:20:00,METAR EDDM 251220Z AUTO 29006KT 180V330 CAVOK 20/02 Q1017 NOSIG
2026-04-25 11:50:00,METAR EDDM 251150Z AUTO 26010KT 220V300 CAVOK 20/02 Q1017 NOSIG
2026-04-25 11:20:00,METAR EDDM 251120Z AUTO 28007KT 200V360 CAVOK 19/02 Q1017 NOSIG
2026-04-25 10:50:00,METAR EDDM 251050Z AUTO 30006KT 230V010 CAVOK 19/03 Q1017 NOSIG
2026-04-25 10:20:00,METAR EDDM 251020Z AUTO 28005KT 230V330 CAVOK 19/04 Q1018 NOSIG
2026-04-25 09:50:00,METAR EDDM 250950Z AUTO 26006KT 200V350 CAVOK 18/03 Q1018 NOSIG
2026-04-25 09:20:00,METAR EDDM 250920Z AUTO 28006KT 220V340 CAVOK 17/03 Q1018 NOSIG
2026-04-25 08:50:00,METAR EDDM 250850Z AUTO 25004KT 190V350 CAVOK 17/04 Q1018 NOSIG
2026-04-25 08:20:00,METAR EDDM 250820Z AUTO 25004KT 200V330 CAVOK 16/04 Q1018 NOSIG
2026-04-25 07:50:00,METAR EDDM 250750Z AUTO 26004KT 220V320 CAVOK 14/04 Q1018 NOSIG
2026-04-25 07:20:00,METAR EDDM 250720Z AUTO 25004KT 210V300 CAVOK 13/03 Q1018 NOSIG
2026-04-25 06:50:00,METAR EDDM 250650Z AUTO 24004KT 210V290 CAVOK 11/02 Q1018 NOSIG
2026-04-25 06:20:00,METAR EDDM 250620Z AUTO 25006KT 220V280 CAVOK 09/02 Q1018 NOSIG
2026-04-25 05:50:00,METAR EDDM 250550Z AUTO 24005KT CAVOK 07/01 Q1018 NOSIG
2026-04-25 05:20:00,METAR EDDM 250520Z AUTO 25004KT CAVOK 06/01 Q1018 NOSIG
2026-04-25 04:50:00,METAR EDDM 250450Z AUTO 25003KT CAVOK 05/M00 Q1018 NOSIG
2026-04-25 04:20:00,METAR EDDM 250420Z AUTO VRB02KT CAVOK 03/M01 Q1018 NOSIG
2026-04-25 03:50:00,METAR EDDM 250350Z AUTO 26004KT CAVOK 03/M01 Q1018 NOSIG
2026-04-25 03:20:00,METAR EDDM 250320Z AUTO 22003KT CAVOK 03/M01 Q1018 NOSIG
2026-04-25 02:50:00,METAR EDDM 250250Z AUTO 24004KT CAVOK 02/M02 Q1018 NOSIG
2026-04-25 02:20:00,METAR EDDM 250220Z AUTO 23003KT CAVOK 04/M01 Q1018 NOSIG
2026-04-25 01:50:00,METAR EDDM 250150Z AUTO 23003KT CAVOK 04/M01 Q1018 NOSIG
2026-04-25 01:20:00,METAR EDDM 250120Z AUTO 23003KT CAVOK 03/M01 Q1018 NOSIG
2026-04-25 00:50:00,METAR EDDM 250050Z AUTO 23004KT CAVOK 03/M01 Q1018 NOSIG
2026-04-25 00:20:00,METAR EDDM 250020Z AUTO 22003KT CAVOK 02/M01 Q1018 NOSIG
2026-04-24 23:50:00,METAR EDDM 242350Z AUTO 26004KT CAVOK 03/M01 Q1018 NOSIG
2026-04-24 23:20:00,METAR EDDM 242320Z AUTO 23003KT CAVOK 03/M01 Q1018 NOSIG
2026-04-24 22:50:00,METAR EDDM 242250Z AUTO 25003KT CAVOK 03/M02 Q1018 NOSIG
2026-04-24 22:20:00,METAR EDDM 242220Z AUTO 22003KT CAVOK 03/M00 Q1019 NOSIG
2026-04-24 21:50:00,METAR EDDM 242150Z AUTO 21004KT CAVOK 03/M01 Q1019 NOSIG
2026-04-24 21:20:00,METAR EDDM 242120Z AUTO VRB02KT CAVOK 04/M01 Q1019 NOSIG
2026-04-24 20:50:00,METAR EDDM 242050Z AUTO 26004KT CAVOK 06/M01 Q1019 NOSIG
2026-04-24 20:20:00,METAR EDDM 242020Z AUTO 26004KT CAVOK 07/M01 Q1019 NOSIG
2026-04-24 19:50:00,METAR EDDM 241950Z AUTO 31003KT CAVOK 10/M01 Q1018 NOSIG
2026-04-24 19:20:00,METAR EDDM 241920Z AUTO 32003KT CAVOK 14/M03 Q1018 NOSIG
2026-04-24 18:50:00,METAR EDDM 241850Z AUTO 31003KT CAVOK 15/M04 Q1018 NOSIG
2026-04-24 18:20:00,METAR EDDM 241820Z AUTO 34005KT CAVOK 16/M04 Q1018 NOSIG
2026-04-24 17:50:00,METAR EDDM 241750Z AUTO 34007KT CAVOK 18/M03 Q1018 NOSIG
2026-04-24 17:20:00,METAR EDDM 241720Z AUTO 31008KT CAVOK 18/M04 Q1018 NOSIG
2026-04-24 16:50:00,METAR EDDM 241650Z AUTO 30010KT CAVOK 19/M03 Q1018 NOSIG
2026-04-24 16:20:00,METAR EDDM 241620Z AUTO 31011KT 280V340 CAVOK 19/M03 Q1018 NOSIG
2026-04-24 15:50:00,METAR EDDM 241550Z AUTO 31011KT 270V340 CAVOK 20/M03 Q1018 NOSIG
2026-04-24 15:20:00,METAR EDDM 241520Z AUTO 32012KT 280V350 CAVOK 20/M01 Q1018 NOSIG
2026-04-24 14:50:00,METAR EDDM 241450Z AUTO 32011KT 280V360 CAVOK 20/00 Q1018 NOSIG
2026-04-24 14:20:00,METAR EDDM 241420Z AUTO 29007KT 250V340 CAVOK 20/00 Q1018 NOSIG
2026-04-24 13:50:00,METAR EDDM 241350Z AUTO 27012KT 240V300 CAVOK 20/M01 Q1018 NOSIG
2026-04-24 13:20:00,METAR EDDM 241320Z AUTO 28010KT CAVOK 20/M00 Q1018 NOSIG
2026-04-24 12:50:00,METAR EDDM 241250Z AUTO 27009KT 240V340 CAVOK 20/01 Q1019 NOSIG
2026-04-24 12:20:00,METAR EDDM 241220Z AUTO 29007KT 230V330 CAVOK 19/00 Q1019 NOSIG
2026-04-24 11:50:00,METAR EDDM 241150Z AUTO 24010KT 210V280 CAVOK 18/M00 Q1019 NOSIG
2026-04-24 11:20:00,METAR EDDM 241120Z AUTO 26009KT 230V320 CAVOK 18/00 Q1020 NOSIG
2026-04-24 10:50:00,METAR EDDM 241050Z AUTO 26010KT 220V310 CAVOK 17/01 Q1020 NOSIG
2026-04-24 10:20:00,METAR EDDM 241020Z AUTO 26010KT 230V290 CAVOK 17/02 Q1020 NOSIG
2026-04-24 09:50:00,METAR EDDM 240950Z AUTO 29008KT 250V330 CAVOK 16/00 Q1020 NOSIG
2026-04-24 09:20:00,METAR EDDM 240920Z AUTO VRB08KT CAVOK 15/01 Q1021 NOSIG
2026-04-24 08:50:00,METAR EDDM 240850Z AUTO 29009KT 260V320 CAVOK 14/01 Q1021 NOSIG
2026-04-24 08:20:00,METAR EDDM 240820Z AUTO 27006KT 170V340 CAVOK 13/01 Q1021 NOSIG
2026-04-24 07:50:00,METAR EDDM 240750Z AUTO 25005KT 220V320 CAVOK 12/01 Q1021 NOSIG
2026-04-24 07:20:00,METAR EDDM 240720Z AUTO 26006KT 220V280 CAVOK 11/01 Q1021 NOSIG
2026-04-24 06:50:00,METAR EDDM 240650Z AUTO 26006KT CAVOK 10/01 Q1021 NOSIG
2026-04-24 06:20:00,METAR EDDM 240620Z AUTO 26006KT CAVOK 08/01 Q1021 NOSIG
2026-04-24 05:50:00,METAR EDDM 240550Z AUTO 25005KT 230V290 CAVOK 07/01 Q1021 NOSIG
2026-04-24 05:20:00,METAR EDDM 240520Z AUTO 25005KT CAVOK 05/M00 Q1021 NOSIG
2026-04-24 04:50:00,METAR EDDM 240450Z AUTO 27004KT CAVOK 03/M01 Q1021 NOSIG
2026-04-24 04:20:00,METAR EDDM 240420Z AUTO 20006KT CAVOK 02/M02 Q1021 NOSIG
2026-04-24 03:50:00,METAR EDDM 240350Z AUTO 24004KT 200V260 CAVOK 01/M02 Q1021 NOSIG
2026-04-24 03:20:00,METAR EDDM 240320Z AUTO 25006KT CAVOK 01/M02 Q1021 NOSIG
2026-04-24 02:50:00,METAR EDDM 240250Z AUTO 25007KT CAVOK 02/M03 Q1021 NOSIG
2026-04-24 02:20:00,METAR EDDM 240220Z AUTO 26007KT CAVOK 03/M03 Q1022 NOSIG
2026-04-24 01:50:00,METAR EDDM 240150Z AUTO 25005KT CAVOK 04/M02 Q1022 NOSIG
2026-04-24 01:20:00,METAR EDDM 240120Z AUTO 22005KT CAVOK 03/M03 Q1022 NOSIG
2026-04-24 00:50:00,METAR EDDM 240050Z AUTO 23006KT CAVOK 04/M02 Q1022 NOSIG
2026-04-24 00:20:00,METAR EDDM 240020Z AUTO 23004KT CAVOK 04/M02 Q1022 NOSIG
2026-04-23 23:50:00,METAR EDDM 232350Z AUTO 25004KT 200V260 CAVOK 03/M02 Q1022 NOSIG
2026-04-23 23:20:00,METAR EDDM 232320Z AUTO 22004KT CAVOK 02/M03 Q1022 NOSIG
2026-04-23 22:50:00,METAR EDDM 232250Z AUTO 20005KT CAVOK 02/M02 Q1023 NOSIG
2026-04-23 22:20:00,METAR EDDM 232220Z AUTO 24005KT CAVOK 03/M02 Q1023 NOSIG
2026-04-23 21:50:00,METAR EDDM 232150Z AUTO 27005KT CAVOK 03/M01 Q1023 NOSIG
2026-04-23 21:20:00,METAR EDDM 232120Z AUTO 29004KT CAVOK 05/M02 Q1023 NOSIG
2026-04-23 20:50:00,METAR EDDM 232050Z AUTO 28004KT CAVOK 12/M03 Q1023 NOSIG
2026-04-23 20:20:00,METAR EDDM 232020Z AUTO 28005KT CAVOK 13/M03 Q1023 NOSIG
2026-04-23 19:50:00,METAR EDDM 231950Z AUTO 29004KT CAVOK 13/M02 Q1023 NOSIG
2026-04-23 19:20:00,METAR EDDM 231920Z AUTO 27004KT CAVOK 13/M01 Q1023 NOSIG
2026-04-23 18:50:00,METAR EDDM 231850Z AUTO 28005KT CAVOK 14/M02 Q1022 NOSIG
2026-04-23 18:20:00,METAR EDDM 231820Z AUTO 28005KT CAVOK 14/M01 Q1022 NOSIG
2026-04-23 17:50:00,METAR EDDM 231750Z AUTO 29006KT CAVOK 16/M02 Q1022 NOSIG
2026-04-23 17:20:00,METAR EDDM 231720Z AUTO 30005KT CAVOK 17/M03 Q1022 NOSIG
2026-04-23 16:50:00,METAR EDDM 231650Z AUTO 30008KT 270V340 CAVOK 18/M02 Q1022 BECMG 28003KT
2026-04-23 16:20:00,METAR EDDM 231620Z AUTO 31010KT 280V340 CAVOK 18/M04 Q1022 BECMG 28005KT
2026-04-23 15:50:00,METAR EDDM 231550Z AUTO 31008KT 270V330 CAVOK 18/M02 Q1022 NOSIG
2026-04-23 15:20:00,METAR EDDM 231520Z AUTO 30008KT 270V010 CAVOK 18/M02 Q1022 NOSIG
2026-04-23 14:50:00,METAR EDDM 231450Z AUTO 30008KT 260V340 CAVOK 18/00 Q1023 NOSIG
2026-04-23 14:20:00,METAR EDDM 231420Z AUTO 31009KT 280V340 CAVOK 18/M02 Q1023 NOSIG
2026-04-23 13:50:00,METAR EDDM 231350Z AUTO 33010KT 300V010 CAVOK 18/M02 Q1024 NOSIG
2026-04-23 13:20:00,METAR EDDM 231320Z AUTO 29007KT 240V340 CAVOK 18/M01 Q1024 NOSIG
2026-04-23 12:50:00,METAR EDDM 231250Z AUTO 35007KT 290V040 CAVOK 18/M01 Q1024 NOSIG
2026-04-23 12:20:00,METAR EDDM 231220Z AUTO 31005KT 240V010 CAVOK 17/M00 Q1025 NOSIG
2026-04-23 11:50:00,METAR EDDM 231150Z AUTO 24004KT CAVOK 17/00 Q1025 NOSIG
2026-04-23 11:20:00,METAR EDDM 231120Z AUTO 25006KT 190V320 CAVOK 16/M00 Q1025 NOSIG
2026-04-23 10:50:00,METAR EDDM 231050Z AUTO 31005KT 240V350 CAVOK 16/01 Q1025 NOSIG
2026-04-23 10:20:00,METAR EDDM 231020Z AUTO VRB04KT CAVOK 15/01 Q1026 NOSIG
2026-04-23 09:50:00,METAR EDDM 230950Z AUTO 24004KT 160V300 CAVOK 14/M00 Q1026 NOSIG
2026-04-23 09:20:00,METAR EDDM 230920Z AUTO 31003KT 210V020 CAVOK 14/02 Q1026 NOSIG
2026-04-23 08:50:00,METAR EDDM 230850Z AUTO VRB03KT CAVOK 12/00 Q1027 NOSIG
2026-04-23 08:20:00,METAR EDDM 230820Z AUTO 31004KT 250V340 CAVOK 11/00 Q1027 NOSIG
2026-04-23 07:50:00,METAR EDDM 230750Z AUTO VRB02KT CAVOK 10/01 Q1027 NOSIG
2026-04-23 07:20:00,METAR EDDM 230720Z AUTO 32002KT CAVOK 09/01 Q1027 NOSIG
2026-04-23 06:50:00,METAR EDDM 230650Z AUTO VRB02KT CAVOK 07/01 Q1026 NOSIG
2026-04-23 06:20:00,METAR EDDM 230620Z AUTO VRB01KT CAVOK 05/00 Q1026 NOSIG
2026-04-23 05:50:00,METAR EDDM 230550Z AUTO VRB01KT CAVOK 03/M00 Q1026 NOSIG
2026-04-23 05:20:00,METAR EDDM 230520Z AUTO 00000KT CAVOK 02/M01 Q1026 NOSIG
2026-04-23 04:50:00,METAR EDDM 230450Z AUTO VRB01KT CAVOK M02/M04 Q1026 NOSIG
2026-04-23 04:20:00,METAR EDDM 230420Z AUTO VRB01KT CAVOK M03/M04 Q1026 NOSIG
2026-04-23 03:50:00,METAR EDDM 230350Z AUTO VRB01KT CAVOK M02/M03 Q1025 NOSIG
2026-04-23 03:20:00,METAR EDDM 230320Z AUTO 36002KT CAVOK M02/M03 Q1025 NOSIG
2026-04-23 02:50:00,METAR EDDM 230250Z AUTO 24004KT CAVOK M03/M04 Q1025 NOSIG
2026-04-23 02:20:00,METAR EDDM 230220Z AUTO VRB01KT CAVOK M02/M03 Q1025 NOSIG
2026-04-23 01:50:00,METAR EDDM 230150Z AUTO 21001KT CAVOK M02/M02 Q1025 NOSIG
2026-04-23 01:20:00,METAR EDDM 230120Z AUTO VRB01KT CAVOK M01/M02 Q1025 NOSIG
2026-04-23 00:50:00,METAR EDDM 230050Z AUTO VRB01KT CAVOK M01/M02 Q1025 NOSIG
2026-04-23 00:20:00,METAR EDDM 230020Z AUTO 36001KT CAVOK M01/M03 Q1025 NOSIG
2026-04-22 23:50:00,METAR EDDM 222350Z AUTO 24001KT CAVOK M01/M02 Q1025 NOSIG
2026-04-22 23:20:00,METAR EDDM 222320Z AUTO VRB01KT CAVOK 00/M03 Q1025 NOSIG
2026-04-22 22:50:00,METAR EDDM 222250Z AUTO VRB02KT CAVOK 00/M02 Q1025 NOSIG
2026-04-22 22:20:00,METAR EDDM 222220Z AUTO 23002KT CAVOK 00/M02 Q1025 NOSIG
2026-04-22 21:50:00,METAR EDDM 222150Z AUTO VRB02KT CAVOK 02/M02 Q1025 NOSIG
2026-04-22 21:20:00,METAR EDDM 222120Z AUTO 33003KT 280V350 CAVOK 02/M01 Q1024 NOSIG
2026-04-22 20:50:00,METAR EDDM 222050Z AUTO VRB02KT CAVOK 02/M01 Q1024 NOSIG
2026-04-22 20:20:00,METAR EDDM 222020Z AUTO 30002KT CAVOK 04/M01 Q1024 NOSIG
2026-04-22 19:50:00,METAR EDDM 221950Z AUTO 21002KT CAVOK 04/M01 Q1024 NOSIG
2026-04-22 19:20:00,METAR EDDM 221920Z AUTO 00000KT CAVOK 05/M01 Q1024 NOSIG
2026-04-22 18:50:00,METAR EDDM 221850Z AUTO VRB01KT CAVOK 06/M00 Q1024 NOSIG
2026-04-22 18:20:00,METAR EDDM 221820Z AUTO VRB01KT CAVOK 10/M01 Q1023 NOSIG
2026-04-22 17:50:00,METAR EDDM 221750Z AUTO VRB02KT CAVOK 13/M02 Q1023 NOSIG
2026-04-22 17:20:00,METAR EDDM 221720Z AUTO VRB02KT CAVOK 14/M02 Q1023 NOSIG
2026-04-22 16:50:00,METAR EDDM 221650Z AUTO VRB02KT CAVOK 14/M02 Q1023 NOSIG
2026-04-22 16:20:00,METAR EDDM 221620Z AUTO 10003KT 040V160 CAVOK 14/M02 Q1023 NOSIG
2026-04-22 15:50:00,METAR EDDM 221550Z AUTO VRB02KT CAVOK 14/M02 Q1023 NOSIG
2026-04-22 15:20:00,METAR EDDM 221520Z AUTO VRB03KT CAVOK 14/M02 Q1023 NOSIG
2026-04-22 14:50:00,METAR EDDM 221450Z AUTO 09006KT 040V130 CAVOK 14/M03 Q1023 NOSIG
2026-04-22 14:20:00,METAR EDDM 221420Z AUTO VRB03KT CAVOK 14/M02 Q1023 NOSIG
2026-04-22 13:50:00,METAR EDDM 221350Z AUTO 07007KT 300V110 CAVOK 14/M02 Q1023 NOSIG
2026-04-22 13:20:00,METAR EDDM 221320Z AUTO 09007KT 040V130 CAVOK 14/M00 Q1023 NOSIG
2026-04-22 12:50:00,METAR EDDM 221250Z AUTO 09007KT 050V130 CAVOK 13/M01 Q1024 NOSIG
2026-04-22 12:20:00,METAR EDDM 221220Z AUTO 08007KT 010V150 CAVOK 13/M01 Q1024 NOSIG
2026-04-22 11:50:00,METAR EDDM 221150Z AUTO 05008KT 360V090 CAVOK 12/M02 Q1024 NOSIG
2026-04-22 11:20:00,METAR EDDM 221120Z AUTO VRB05KT CAVOK 12/M01 Q1024 NOSIG
2026-04-22 10:50:00,METAR EDDM 221050Z AUTO 07009KT 030V110 CAVOK 12/M01 Q1024 NOSIG
2026-04-22 10:20:00,METAR EDDM 221020Z AUTO 08010KT 040V120 CAVOK 11/M02 Q1024 NOSIG
2026-04-22 09:50:00,METAR EDDM 220950Z AUTO 08010KT 040V120 CAVOK 11/M02 Q1024 NOSIG
2026-04-22 09:20:00,METAR EDDM 220920Z AUTO 08009KT 050V110 CAVOK 11/M01 Q1024 NOSIG
2026-04-22 08:50:00,METAR EDDM 220850Z AUTO 09012KT CAVOK 10/M00 Q1024 NOSIG
2026-04-22 08:20:00,METAR EDDM 220820Z AUTO 09008KT 040V140 CAVOK 09/01 Q1024 NOSIG
2026-04-22 07:50:00,METAR EDDM 220750Z AUTO 09005KT 050V130 CAVOK 08/01 Q1024 NOSIG
2026-04-22 07:20:00,METAR EDDM 220720Z AUTO 06006KT 020V120 CAVOK 07/02 Q1023 NOSIG
2026-04-22 06:50:00,METAR EDDM 220650Z AUTO 05005KT 020V090 CAVOK 06/01 Q1023 NOSIG
2026-04-22 06:20:00,METAR EDDM 220620Z AUTO 06004KT 030V090 CAVOK 04/02 Q1023 NOSIG
2026-04-22 05:50:00,METAR EDDM 220550Z AUTO VRB01KT CAVOK 03/01 Q1023 BECMG 06005KT
2026-04-22 05:20:00,METAR EDDM 220520Z AUTO VRB01KT 9000 NCD M01/M01 Q1023 BECMG 06005KT 9999
2026-04-22 04:50:00,METAR EDDM 220450Z AUTO 00000KT 3500 0250 R08L/1700D R08R/P2000N BCFG NCD M02/M03 Q1022 BECMG 06005KT 9999
2026-04-22 04:20:00,METAR EDDM 220420Z AUTO VRB01KT 2300 0500 R08L/P2000N R08R/P2000N BCFG NCD M02/M03 Q1022 BECMG 9999
2026-04-22 03:50:00,METAR EDDM 220350Z AUTO VRB01KT 7000 0600 R08L/P2000N R08R/P2000N BCFG NCD M01/M01 Q1022 NOSIG
2026-04-22 03:20:00,METAR EDDM 220320Z AUTO 03003KT 9999 2500 BR NCD M00/M00 Q1022 NOSIG
2026-04-22 02:50:00,METAR EDDM 220250Z AUTO 04002KT CAVOK 01/00 Q1022 NOSIG
2026-04-22 02:20:00,METAR EDDM 220220Z AUTO 04004KT CAVOK 01/01 Q1022 NOSIG
2026-04-22 01:50:00,METAR EDDM 220150Z AUTO 04005KT CAVOK 01/00 Q1022 NOSIG
2026-04-22 01:20:00,METAR EDDM 220120Z AUTO 04005KT CAVOK 01/01 Q1022 NOSIG
2026-04-22 00:50:00,METAR EDDM 220050Z AUTO 05003KT CAVOK M00/M01 Q1022 NOSIG
2026-04-22 00:20:00,METAR EDDM 220020Z AUTO 04004KT CAVOK 02/01 Q1022 NOSIG
2026-04-21 23:50:00,METAR EDDM 212350Z AUTO 05004KT CAVOK 02/01 Q1022 NOSIG
2026-04-21 23:20:00,METAR EDDM 212320Z AUTO 05005KT CAVOK 02/01 Q1022 NOSIG
2026-04-21 22:50:00,METAR EDDM 212250Z AUTO 04004KT CAVOK 03/01 Q1022 NOSIG
2026-04-21 22:20:00,METAR EDDM 212220Z AUTO 05004KT CAVOK 04/01 Q1022 NOSIG
2026-04-21 21:50:00,METAR EDDM 212150Z AUTO 04004KT CAVOK 04/01 Q1022 NOSIG
2026-04-21 21:20:00,METAR EDDM 212120Z AUTO 06005KT CAVOK 04/01 Q1021 NOSIG
2026-04-21 20:50:00,METAR EDDM 212050Z AUTO 03005KT CAVOK 05/02 Q1021 NOSIG
2026-04-21 20:20:00,METAR EDDM 212020Z AUTO 05004KT CAVOK 05/02 Q1021 NOSIG
2026-04-21 19:50:00,METAR EDDM 211950Z AUTO 07004KT 040V100 CAVOK 06/03 Q1021 NOSIG
2026-04-21 19:20:00,METAR EDDM 211920Z AUTO 06004KT 040V100 9999 FEW047 07/03 Q1020 NOSIG
2026-04-21 18:50:00,METAR EDDM 211850Z AUTO 06003KT 030V090 9999 SCT049 07/04 Q1020 NOSIG
2026-04-21 18:20:00,METAR EDDM 211820Z AUTO 08004KT 9999 FEW043 07/04 Q1020 NOSIG
2026-04-21 17:50:00,METAR EDDM 211750Z AUTO VRB01KT CAVOK 08/04 Q1020 NOSIG
2026-04-21 17:20:00,METAR EDDM 211720Z AUTO 11003KT CAVOK 08/04 Q1019 NOSIG
2026-04-21 16:50:00,METAR EDDM 211650Z AUTO 09003KT CAVOK 08/04 Q1019 NOSIG
2026-04-21 16:20:00,METAR EDDM 211620Z AUTO 09004KT 9999 VCSH FEW///TCU 08/03 Q1019 NOSIG
2026-04-21 15:50:00,METAR EDDM 211550Z AUTO VRB02KT 9999 FEW030 08/04 Q1019 NOSIG
2026-04-21 15:20:00,METAR EDDM 211520Z AUTO 10005KT 9999 -SHRA FEW024 FEW///TCU 07/04 Q1019 NOSIG
2026-04-21 14:50:00,METAR EDDM 211450Z AUTO 08010KT 050V110 9999 -SHRA FEW025 BKN036 BKN048 FEW///TCU 07/03 Q1019 RESHRA NOSIG
2026-04-21 14:20:00,METAR EDDM 211420Z AUTO 05009KT 030V090 9999 SHRA BKN028 BKN049 SCT///TCU 08/03 Q1019 BECMG NSW
2026-04-21 13:50:00,METAR EDDM 211350Z AUTO 07005KT 010V110 9999 VCSH SCT049 FEW///TCU 10/03 Q1019 NOSIG
2026-04-21 13:20:00,METAR EDDM 211320Z AUTO 08004KT 020V130 9999 FEW023 BKN046 09/03 Q1019 NOSIG
2026-04-21 12:50:00,METAR EDDM 211250Z AUTO 09006KT 040V130 9999 -RA SCT024 BKN035 BKN044 09/04 Q1019 NOSIG
2026-04-21 12:20:00,METAR EDDM 211220Z AUTO 04006KT 360V080 9999 FEW020 BKN033 OVC040 08/03 Q1019 NOSIG
2026-04-21 11:50:00,METAR EDDM 211150Z AUTO 03005KT 340V100 9999 BKN021 BKN026 BKN031 08/03 Q1019 NOSIG
2026-04-21 11:20:00,METAR EDDM 211120Z AUTO 06004KT 030V110 9999 SCT021 OVC028 07/03 Q1019 NOSIG
2026-04-21 10:50:00,METAR EDDM 211050Z AUTO 06004KT 360V120 9999 BKN019 OVC025 07/03 Q1019 NOSIG
2026-04-21 10:20:00,METAR EDDM 211020Z AUTO 03006KT 360V070 9999 SCT018 BKN023 BKN029 07/02 Q1019 NOSIG
2026-04-21 09:50:00,METAR EDDM 210950Z AUTO 03004KT 340V070 9999 FEW019 SCT024 BKN029 07/03 Q1019 NOSIG
2026-04-21 09:20:00,METAR EDDM 210920Z AUTO 03005KT 350V060 9999 BKN019 BKN024 BKN030 07/03 Q1019 NOSIG
2026-04-21 08:50:00,METAR EDDM 210850Z AUTO 03005KT 350V070 9999 OVC019 07/02 Q1019 NOSIG
2026-04-21 08:20:00,METAR EDDM 210820Z AUTO VRB03KT 9999 SCT016 BKN022 07/03 Q1019 NOSIG
2026-04-21 07:50:00,METAR EDDM 210750Z AUTO 03006KT 330V070 9999 SCT015 BKN021 06/03 Q1019 NOSIG
2026-04-21 07:20:00,METAR EDDM 210720Z AUTO VRB04KT 9999 SCT015 BKN021 06/03 Q1018 BECMG 03005KT
2026-04-21 06:50:00,METAR EDDM 210650Z AUTO 33003KT 260V020 9999 BKN019 06/02 Q1018 BECMG 03005KT
2026-04-21 06:20:00,METAR EDDM 210620Z AUTO 34003KT 9999 FEW019 05/02 Q1018 NOSIG
2026-04-21 05:50:00,METAR EDDM 210550Z AUTO VRB02KT 9999 FEW019 05/02 Q1018 NOSIG
2026-04-21 05:20:00,METAR EDDM 210520Z AUTO 32003KT 9999 FEW017 03/01 Q1018 NOSIG
2026-04-21 04:50:00,METAR EDDM 210450Z AUTO 31003KT CAVOK 02/00 Q1018 NOSIG
2026-04-21 04:20:00,METAR EDDM 210420Z AUTO 34003KT CAVOK 01/M00 Q1018 NOSIG
2026-04-21 03:50:00,METAR EDDM 210350Z AUTO 33003KT CAVOK 01/M01 Q1018 NOSIG
2026-04-21 03:20:00,METAR EDDM 210320Z AUTO VRB02KT CAVOK 01/M00 Q1018 NOSIG
2026-04-21 02:50:00,METAR EDDM 210250Z AUTO VRB01KT CAVOK 01/M01 Q1018 NOSIG
2026-04-21 02:20:00,METAR EDDM 210220Z AUTO 31003KT CAVOK 02/M01 Q1018 NOSIG
2026-04-21 01:50:00,METAR EDDM 210150Z AUTO 34003KT CAVOK 01/00 Q1018 NOSIG
2026-04-21 01:20:00,METAR EDDM 210120Z AUTO 28002KT CAVOK 02/00 Q1018 NOSIG
2026-04-21 00:50:00,METAR EDDM 210050Z AUTO 27003KT CAVOK 02/00 Q1018 NOSIG
2026-04-21 00:20:00,METAR EDDM 210020Z AUTO 26003KT CAVOK 02/01 Q1018 NOSIG
2026-04-20 23:50:00,METAR EDDM 202350Z AUTO 30002KT CAVOK 03/00 Q1018 NOSIG
2026-04-20 23:20:00,METAR EDDM 202320Z AUTO 32002KT CAVOK 03/00 Q1018 NOSIG
2026-04-20 22:50:00,METAR EDDM 202250Z AUTO 34002KT CAVOK 04/00 Q1018 NOSIG
2026-04-20 22:20:00,METAR EDDM 202220Z AUTO 35002KT CAVOK 05/M00 Q1018 NOSIG
2026-04-20 21:50:00,METAR EDDM 202150Z AUTO 34003KT CAVOK 05/M00 Q1017 NOSIG
2026-04-20 21:20:00,METAR EDDM 202120Z AUTO 34003KT CAVOK 06/M00 Q1017 NOSIG
2026-04-20 20:50:00,METAR EDDM 202050Z AUTO 35004KT CAVOK 07/M00 Q1017 NOSIG
2026-04-20 20:20:00,METAR EDDM 202020Z AUTO 35003KT CAVOK 07/M00 Q1017 NOSIG
2026-04-20 19:50:00,METAR EDDM 201950Z AUTO 35003KT CAVOK 08/M01 Q1017 NOSIG
2026-04-20 19:20:00,METAR EDDM 201920Z AUTO VRB02KT CAVOK 08/M01 Q1017 NOSIG
2026-04-20 18:50:00,METAR EDDM 201850Z AUTO 35004KT CAVOK 09/M01 Q1017 NOSIG
2026-04-20 18:20:00,METAR EDDM 201820Z AUTO 34006KT CAVOK 10/M01 Q1016 NOSIG
2026-04-20 17:50:00,METAR EDDM 201750Z AUTO 35005KT 330V030 CAVOK 11/M00 Q1016 NOSIG
2026-04-20 17:20:00,METAR EDDM 201720Z AUTO 34008KT 310V020 CAVOK 12/M01 Q1015 NOSIG
2026-04-20 16:50:00,METAR EDDM 201650Z AUTO 34008KT 320V030 CAVOK 12/M01 Q1015 NOSIG
2026-04-20 16:20:00,METAR EDDM 201620Z AUTO 32011KT 290V360 CAVOK 13/M01 Q1015 NOSIG
2026-04-20 15:50:00,METAR EDDM 201550Z AUTO 34009KT 310V020 CAVOK 13/M00 Q1015 NOSIG
2026-04-20 15:20:00,METAR EDDM 201520Z AUTO 32013KT 290V360 CAVOK 13/M01 Q1015 NOSIG
2026-04-20 14:50:00,METAR EDDM 201450Z AUTO 32010KT 280V350 CAVOK 14/M00 Q1015 NOSIG
2026-04-20 14:20:00,METAR EDDM 201420Z AUTO 33009KT 300V360 CAVOK 14/01 Q1015 NOSIG
2026-04-20 13:50:00,METAR EDDM 201350Z AUTO 33008KT 300V010 CAVOK 14/01 Q1015 NOSIG
2026-04-20 13:20:00,METAR EDDM 201320Z AUTO 33009KT 300V360 CAVOK 13/00 Q1016 NOSIG
2026-04-20 12:50:00,METAR EDDM 201250Z AUTO 32015KT 290V350 CAVOK 13/01 Q1016 NOSIG
2026-04-20 12:20:00,METAR EDDM 201220Z AUTO 26011KT 230V290 CAVOK 14/01 Q1016 NOSIG
2026-04-20 11:50:00,METAR EDDM 201150Z AUTO 28008KT 230V360 9999 FEW046 13/02 Q1016 NOSIG
2026-04-20 11:20:00,METAR EDDM 201120Z AUTO 31011KT 280V340 9999 FEW044 12/03 Q1017 NOSIG
2026-04-20 10:50:00,METAR EDDM 201050Z AUTO 32008KT 290V350 9999 FEW040 12/03 Q1017 NOSIG
2026-04-20 10:20:00,METAR EDDM 201020Z AUTO 32009KT 9999 FEW038 SCT046 12/02 Q1017 NOSIG
2026-04-20 09:50:00,METAR EDDM 200950Z AUTO 31007KT 250V350 9999 SCT037 SCT047 12/03 Q1017 NOSIG
2026-04-20 09:20:00,METAR EDDM 200920Z AUTO 30007KT 230V340 9999 FEW033 SCT042 11/03 Q1017 NOSIG
2026-04-20 08:50:00,METAR EDDM 200850Z AUTO 32008KT 270V360 9999 SCT029 SCT041 11/03 Q1017 NOSIG
2026-04-20 08:20:00,METAR EDDM 200820Z AUTO 29004KT 230V010 9999 FEW026 10/04 Q1018 NOSIG
2026-04-20 07:50:00,METAR EDDM 200750Z AUTO 30004KT 250V340 CAVOK 10/04 Q1018 NOSIG
2026-04-20 07:20:00,METAR EDDM 200720Z AUTO 26003KT 220V320 CAVOK 09/04 Q1018 NOSIG
2026-04-20 06:50:00,METAR EDDM 200650Z AUTO 25004KT CAVOK 07/04 Q1017 NOSIG
2026-04-20 06:20:00,METAR EDDM 200620Z AUTO 27002KT CAVOK 06/03 Q1018 NOSIG
2026-04-20 05:50:00,METAR EDDM 200550Z AUTO VRB02KT CAVOK 04/02 Q1018 NOSIG
2026-04-20 05:20:00,METAR EDDM 200520Z AUTO VRB02KT CAVOK 02/01 Q1018 NOSIG
2026-04-20 04:50:00,METAR EDDM 200450Z AUTO VRB01KT CAVOK 00/00 Q1017 NOSIG
2026-04-20 04:20:00,METAR EDDM 200420Z AUTO 18003KT CAVOK M01/M01 Q1017 NOSIG
2026-04-20 03:50:00,METAR EDDM 200350Z AUTO 15001KT CAVOK M01/M02 Q1017 NOSIG
2026-04-20 03:20:00,METAR EDDM 200320Z AUTO VRB01KT CAVOK M01/M01 Q1018 NOSIG
2026-04-20 02:50:00,METAR EDDM 200250Z AUTO 25002KT CAVOK 01/01 Q1018 NOSIG
2026-04-20 02:20:00,METAR EDDM 200220Z AUTO 22004KT CAVOK M01/M02 Q1018 NOSIG
2026-04-20 01:50:00,METAR EDDM 200150Z AUTO 24003KT CAVOK M01/M01 Q1018 NOSIG
2026-04-20 01:20:00,METAR EDDM 200120Z AUTO 22002KT CAVOK 00/M00 Q1018 NOSIG
2026-04-20 00:50:00,METAR EDDM 200050Z AUTO 26002KT CAVOK 00/M00 Q1018 NOSIG
2026-04-20 00:20:00,METAR EDDM 200020Z AUTO VRB01KT CAVOK 01/01 Q1019 NOSIG
2026-04-19 23:50:00,METAR EDDM 192350Z AUTO 22003KT CAVOK 01/M00 Q1019 NOSIG
2026-04-19 23:20:00,METAR EDDM 192320Z AUTO 23003KT CAVOK 02/01 Q1019 NOSIG
2026-04-19 22:50:00,METAR EDDM 192250Z AUTO 21005KT 170V290 CAVOK 02/01 Q1019 NOSIG
2026-04-19 22:20:00,METAR EDDM 192220Z AUTO 19002KT CAVOK 03/01 Q1019 NOSIG
2026-04-19 21:50:00,METAR EDDM 192150Z AUTO 22002KT CAVOK 03/01 Q1019 NOSIG
2026-04-19 21:20:00,METAR EDDM 192120Z AUTO 23004KT CAVOK 07/02 Q1019 NOSIG
2026-04-19 20:50:00,METAR EDDM 192050Z AUTO 28002KT CAVOK 06/02 Q1019 NOSIG
2026-04-19 20:20:00,METAR EDDM 192020Z AUTO 00000KT CAVOK 09/02 Q1019 NOSIG
2026-04-19 19:50:00,METAR EDDM 191950Z AUTO 33004KT 290V010 CAVOK 09/02 Q1019 NOSIG
2026-04-19 19:20:00,METAR EDDM 191920Z AUTO 33005KT CAVOK 09/02 Q1019 NOSIG
2026-04-19 18:50:00,METAR EDDM 191850Z AUTO 34005KT CAVOK 10/02 Q1019 NOSIG
2026-04-19 18:20:00,METAR EDDM 191820Z AUTO 32011KT 300V360 CAVOK 11/02 Q1018 NOSIG
2026-04-19 17:50:00,METAR EDDM 191750Z AUTO 33011KT 9999 FEW036 SCT045 12/04 Q1018 NOSIG
2026-04-19 17:20:00,METAR EDDM 191720Z AUTO 33013KT 300V360 9999 SCT037 SCT046 13/06 Q1018 NOSIG
2026-04-19 16:50:00,METAR EDDM 191650Z AUTO 33015KT 300V360 9999 FEW038 SCT048 14/06 Q1017 NOSIG
2026-04-19 16:20:00,METAR EDDM 191620Z AUTO 31014KT 270V350 9999 FEW046 15/04 Q1017 NOSIG
2026-04-19 15:50:00,METAR EDDM 191550Z AUTO 30010KT 270V330 9999 FEW043 15/06 Q1017 NOSIG
2026-04-19 15:20:00,METAR EDDM 191520Z AUTO 28011G23KT 9999 FEW044 16/07 Q1016 NOSIG
2026-04-19 14:50:00,METAR EDDM 191450Z AUTO 30013KT 270V330 9999 FEW042 15/07 Q1016 NOSIG
2026-04-19 14:20:00,METAR EDDM 191420Z AUTO 31013KT 9999 FEW039 16/07 Q1016 NOSIG
2026-04-19 13:50:00,METAR EDDM 191350Z AUTO 31012KT 270V350 9999 FEW036 SCT043 15/07 Q1016 NOSIG
2026-04-19 13:20:00,METAR EDDM 191320Z AUTO 31014KT 9999 FEW035 BKN045 15/07 Q1016 NOSIG
2026-04-19 12:50:00,METAR EDDM 191250Z AUTO 32008KT 300V360 9999 FEW036 BKN044 16/07 Q1016 NOSIG
2026-04-19 12:20:00,METAR EDDM 191220Z AUTO 35010KT 9999 SCT033 BKN042 16/08 Q1016 NOSIG
2026-04-19 11:50:00,METAR EDDM 191150Z AUTO 30009KT 260V330 9999 FEW029 BKN042 16/09 Q1017 NOSIG
2026-04-19 11:20:00,METAR EDDM 191120Z AUTO 32010KT 9999 FEW029 15/10 Q1017 NOSIG
2026-04-19 10:50:00,METAR EDDM 191050Z AUTO 31012KT 270V330 9999 FEW031 SCT039 16/09 Q1016 NOSIG
2026-04-19 10:20:00,METAR EDDM 191020Z AUTO 30010KT 260V330 9999 SCT036 BKN045 16/09 Q1016 NOSIG
2026-04-19 09:50:00,METAR EDDM 190950Z AUTO 27009KT 230V310 9999 FEW036 17/09 Q1016 NOSIG
2026-04-19 09:20:00,METAR EDDM 190920Z AUTO 24012KT CAVOK 16/09 Q1016 NOSIG
2026-04-19 08:50:00,METAR EDDM 190850Z AUTO 24011KT 9999 -SHRA FEW///CB 16/09 Q1016 NOSIG
2026-04-19 08:20:00,METAR EDDM 190820Z AUTO 26012KT CAVOK 15/08 Q1016 NOSIG
2026-04-19 07:50:00,METAR EDDM 190750Z AUTO 28008KT 9999 VCSH FEW///CB 14/08 Q1016 RESHRA NOSIG
2026-04-19 07:20:00,METAR EDDM 190720Z AUTO 26006KT 230V310 9999 SHRA FEW///CB 13/07 Q1015 NOSIG
2026-04-19 06:50:00,METAR EDDM 190650Z AUTO 27007KT 9999 VCSH FEW///TCU 13/07 Q1015 RESHRA NOSIG
2026-04-19 06:20:00,METAR EDDM 190620Z AUTO 25008KT 9999 VCSH FEW///CB 13/07 Q1015 NOSIG
2026-04-19 05:50:00,METAR EDDM 190550Z AUTO 26006KT CAVOK 11/07 Q1015 NOSIG
2026-04-19 05:20:00,METAR EDDM 190520Z AUTO 24005KT CAVOK 10/06 Q1015 NOSIG
2026-04-19 04:50:00,METAR EDDM 190450Z AUTO 20004KT CAVOK 09/06 Q1015 NOSIG
2026-04-19 04:20:00,METAR EDDM 190420Z AUTO 20004KT CAVOK 07/06 Q1015 NOSIG
2026-04-19 03:50:00,METAR EDDM 190350Z AUTO 21004KT CAVOK 07/05 Q1015 NOSIG
2026-04-19 03:20:00,METAR EDDM 190320Z AUTO 22004KT CAVOK 08/06 Q1016 NOSIG
2026-04-19 02:50:00,METAR EDDM 190250Z AUTO 21006KT CAVOK 08/06 Q1016 NOSIG
2026-04-19 02:20:00,METAR EDDM 190220Z AUTO 22003KT 180V290 CAVOK 08/06 Q1016 NOSIG
2026-04-19 01:50:00,METAR EDDM 190150Z AUTO 21003KT CAVOK 07/06 Q1016 NOSIG
2026-04-19 01:20:00,METAR EDDM 190120Z AUTO 22003KT CAVOK 07/05 Q1016 NOSIG
2026-04-19 00:50:00,METAR EDDM 190050Z AUTO 19003KT CAVOK 07/06 Q1016 NOSIG
2026-04-19 00:20:00,METAR EDDM 190020Z AUTO VRB01KT CAVOK 06/05 Q1017 NOSIG
2026-04-18 23:50:00,METAR EDDM 182350Z AUTO VRB01KT CAVOK 07/06 Q1017 NOSIG
2026-04-18 23:20:00,METAR EDDM 182320Z AUTO 00000KT CAVOK 07/06 Q1017 NOSIG
2026-04-18 22:50:00,METAR EDDM 182250Z AUTO VRB02KT CAVOK 07/05 Q1018 NOSIG
2026-04-18 22:20:00,METAR EDDM 182220Z AUTO VRB01KT CAVOK 08/06 Q1018 NOSIG
2026-04-18 21:50:00,METAR EDDM 182150Z AUTO VRB01KT CAVOK 08/06 Q1018 NOSIG
2026-04-18 21:20:00,METAR EDDM 182120Z AUTO 33001KT CAVOK 09/07 Q1018 NOSIG
2026-04-18 20:50:00,METAR EDDM 182050Z AUTO 04001KT CAVOK 10/06 Q1018 NOSIG
2026-04-18 20:20:00,METAR EDDM 182020Z AUTO VRB02KT CAVOK 10/07 Q1018 NOSIG
2026-04-18 19:50:00,METAR EDDM 181950Z AUTO VRB02KT CAVOK 12/07 Q1018 NOSIG
2026-04-18 19:20:00,METAR EDDM 181920Z AUTO 10002KT CAVOK 12/07 Q1018 NOSIG
2026-04-18 18:50:00,METAR EDDM 181850Z AUTO 09003KT CAVOK 15/06 Q1018 NOSIG
2026-04-18 18:20:00,METAR EDDM 181820Z AUTO 05003KT CAVOK 16/08 Q1018 NOSIG
2026-04-18 17:50:00,METAR EDDM 181750Z AUTO 06003KT CAVOK 19/06 Q1018 NOSIG
2026-04-18 17:20:00,METAR EDDM 181720Z AUTO VRB02KT CAVOK 21/06 Q1018 NOSIG
2026-04-18 16:50:00,METAR EDDM 181650Z AUTO VRB02KT CAVOK 21/05 Q1018 NOSIG
2026-04-18 16:20:00,METAR EDDM 181620Z AUTO VRB02KT CAVOK 21/05 Q1018 NOSIG
2026-04-18 15:20:00,METAR EDDM 181520Z AUTO VRB01KT CAVOK 22/06 Q1018 NOSIG
2026-04-18 14:50:00,METAR EDDM 181450Z AUTO VRB02KT CAVOK 22/06 Q1019 NOSIG
2026-04-18 14:20:00,METAR EDDM 181420Z AUTO VRB03KT CAVOK 22/07 Q1019 NOSIG
2026-04-18 13:50:00,METAR EDDM 181350Z AUTO 26002KT CAVOK 22/06 Q1019 NOSIG
2026-04-18 13:20:00,METAR EDDM 181320Z AUTO 11005KT 070V160 CAVOK 21/06 Q1019 NOSIG
2026-04-18 12:50:00,METAR EDDM 181250Z AUTO VRB05KT CAVOK 21/05 Q1019 NOSIG
2026-04-18 12:20:00,METAR EDDM 181220Z AUTO 02004KT 310V090 CAVOK 21/05 Q1020 NOSIG
2026-04-18 11:50:00,METAR EDDM 181150Z AUTO 12004KT 040V210 CAVOK 21/06 Q1020 NOSIG
2026-04-18 11:20:00,METAR EDDM 181120Z AUTO 04004KT 350V090 CAVOK 20/06 Q1020 NOSIG
2026-04-18 10:50:00,METAR EDDM 181050Z AUTO 02004KT 350V080 CAVOK 20/07 Q1020 NOSIG
2026-04-18 10:20:00,METAR EDDM 181020Z AUTO VRB03KT CAVOK 20/07 Q1020 NOSIG
2026-04-18 09:50:00,METAR EDDM 180950Z AUTO 10002KT CAVOK 19/09 Q1021 NOSIG
2026-04-18 09:20:00,METAR EDDM 180920Z AUTO 14002KT CAVOK 18/09 Q1021 NOSIG
2026-04-18 08:50:00,METAR EDDM 180850Z AUTO VRB02KT CAVOK 17/09 Q1021 NOSIG
2026-04-18 08:20:00,METAR EDDM 180820Z AUTO VRB02KT CAVOK 15/08 Q1021 NOSIG
2026-04-18 07:50:00,METAR EDDM 180750Z AUTO VRB02KT CAVOK 14/08 Q1021 NOSIG
2026-04-18 07:20:00,METAR EDDM 180720Z AUTO VRB01KT CAVOK 13/07 Q1021 NOSIG
2026-04-18 06:50:00,METAR EDDM 180650Z AUTO VRB01KT CAVOK 12/07 Q1021 NOSIG
2026-04-18 06:20:00,METAR EDDM 180620Z AUTO VRB01KT CAVOK 10/07 Q1021 NOSIG
2026-04-18 05:50:00,METAR EDDM 180550Z AUTO 08001KT CAVOK 07/06 Q1021 NOSIG
2026-04-18 05:20:00,METAR EDDM 180520Z AUTO VRB01KT CAVOK 07/06 Q1021 NOSIG
2026-04-18 04:50:00,METAR EDDM 180450Z AUTO VRB01KT CAVOK 05/04 Q1021 NOSIG
2026-04-18 04:20:00,METAR EDDM 180420Z AUTO VRB01KT CAVOK 04/04 Q1021 NOSIG
2026-04-18 03:50:00,METAR EDDM 180350Z AUTO VRB02KT CAVOK 04/04 Q1021 NOSIG
2026-04-18 03:20:00,METAR EDDM 180320Z AUTO 00000KT CAVOK 05/04 Q1021 NOSIG
2026-04-18 02:50:00,METAR EDDM 180250Z AUTO VRB01KT CAVOK 04/03 Q1021 NOSIG
2026-04-18 02:20:00,METAR EDDM 180220Z AUTO 27001KT CAVOK 04/03 Q1021 NOSIG
2026-04-18 01:50:00,METAR EDDM 180150Z AUTO VRB01KT CAVOK 05/04 Q1021 NOSIG
2026-04-18 01:20:00,METAR EDDM 180120Z AUTO VRB01KT CAVOK 05/04 Q1021 NOSIG
2026-04-18 00:50:00,METAR EDDM 180050Z AUTO VRB01KT CAVOK 05/04 Q1021 NOSIG
2026-04-18 00:20:00,METAR EDDM 180020Z AUTO VRB02KT CAVOK 06/05 Q1021 NOSIG
2026-04-17 23:50:00,METAR EDDM 172350Z AUTO VRB01KT CAVOK 06/05 Q1021 NOSIG
2026-04-17 23:20:00,METAR EDDM 172320Z AUTO 19003KT CAVOK 06/05 Q1021 NOSIG
2026-04-17 22:50:00,METAR EDDM 172250Z AUTO VRB01KT CAVOK 07/06 Q1021 NOSIG
2026-04-17 22:20:00,METAR EDDM 172220Z AUTO 02002KT CAVOK 07/05 Q1021 NOSIG
2026-04-17 21:50:00,METAR EDDM 172150Z AUTO VRB01KT CAVOK 09/06 Q1021 NOSIG
2026-04-17 21:20:00,METAR EDDM 172120Z AUTO 02002KT CAVOK 09/06 Q1021 NOSIG
2026-04-17 20:50:00,METAR EDDM 172050Z AUTO 04003KT CAVOK 09/06 Q1021 NOSIG
2026-04-17 20:20:00,METAR EDDM 172020Z AUTO VRB02KT CAVOK 11/06 Q1021 NOSIG
2026-04-17 19:50:00,METAR EDDM 171950Z AUTO 06003KT CAVOK 11/07 Q1021 NOSIG
2026-04-17 19:20:00,METAR EDDM 171920Z AUTO 03001KT CAVOK 11/07 Q1021 NOSIG
2026-04-17 18:50:00,METAR EDDM 171850Z AUTO 05002KT CAVOK 13/07 Q1021 NOSIG
2026-04-17 18:20:00,METAR EDDM 171820Z AUTO 05002KT CAVOK 16/07 Q1020 NOSIG
2026-04-17 17:50:00,METAR EDDM 171750Z AUTO 07003KT CAVOK 17/07 Q1020 NOSIG
2026-04-17 17:20:00,METAR EDDM 171720Z AUTO 06003KT CAVOK 19/06 Q1020 NOSIG
2026-04-17 16:50:00,METAR EDDM 171650Z AUTO 08003KT CAVOK 19/06 Q1020 NOSIG
2026-04-17 16:20:00,METAR EDDM 171620Z AUTO 06005KT 020V100 CAVOK 20/05 Q1020 NOSIG
2026-04-17 15:50:00,METAR EDDM 171550Z AUTO 08005KT 050V130 CAVOK 20/05 Q1020 NOSIG
2026-04-17 15:20:00,METAR EDDM 171520Z AUTO 11005KT 070V140 CAVOK 20/03 Q1020 NOSIG
2026-04-17 14:50:00,METAR EDDM 171450Z AUTO 10005KT 040V140 CAVOK 20/05 Q1020 NOSIG
2026-04-17 14:20:00,METAR EDDM 171420Z AUTO 04005KT 020V100 CAVOK 20/05 Q1020 NOSIG
2026-04-17 13:50:00,METAR EDDM 171350Z AUTO VRB02KT CAVOK 20/05 Q1021 NOSIG
2026-04-17 13:20:00,METAR EDDM 171320Z AUTO 03007KT 350V090 CAVOK 20/07 Q1021 NOSIG
2026-04-17 12:50:00,METAR EDDM 171250Z AUTO 06004KT 360V170 CAVOK 20/06 Q1021 NOSIG
2026-04-17 12:20:00,METAR EDDM 171220Z AUTO 06005KT 350V120 CAVOK 19/07 Q1021 NOSIG
2026-04-17 11:50:00,METAR EDDM 171150Z AUTO VRB05KT CAVOK 19/09 Q1022 NOSIG
2026-04-17 11:20:00,METAR EDDM 171120Z AUTO VRB06KT CAVOK 19/08 Q1022 NOSIG
2026-04-17 10:50:00,METAR EDDM 171050Z AUTO 10007KT 060V170 9999 FEW045 18/08 Q1022 NOSIG
2026-04-17 10:20:00,METAR EDDM 171020Z AUTO 08006KT 030V140 CAVOK 18/07 Q1022 NOSIG
2026-04-17 09:50:00,METAR EDDM 170950Z AUTO 11007KT 050V150 CAVOK 17/08 Q1022 NOSIG
2026-04-17 09:20:00,METAR EDDM 170920Z AUTO 10006KT 060V140 CAVOK 17/08 Q1023 NOSIG
2026-04-17 08:50:00,METAR EDDM 170850Z AUTO 09004KT 030V140 CAVOK 16/09 Q1023 NOSIG
2026-04-17 08:20:00,METAR EDDM 170820Z AUTO 11003KT 060V160 CAVOK 15/08 Q1023 NOSIG
2026-04-17 07:50:00,METAR EDDM 170750Z AUTO VRB02KT CAVOK 14/08 Q1023 NOSIG
2026-04-17 07:20:00,METAR EDDM 170720Z AUTO VRB02KT CAVOK 12/07 Q1023 NOSIG
2026-04-17 06:50:00,METAR EDDM 170650Z AUTO VRB01KT CAVOK 11/07 Q1023 NOSIG
2026-04-17 06:20:00,METAR EDDM 170620Z AUTO VRB01KT CAVOK 09/06 Q1023 NOSIG
2026-04-17 05:50:00,METAR EDDM 170550Z AUTO 00000KT CAVOK 06/05 Q1023 NOSIG
2026-04-17 05:20:00,METAR EDDM 170520Z AUTO 19001KT 8000 NCD 03/02 Q1023 NOSIG
2026-04-17 04:50:00,METAR EDDM 170450Z AUTO 17001KT 6000 1500 BR NCD 01/01 Q1022 NOSIG
2026-04-17 04:20:00,METAR EDDM 170420Z AUTO 20001KT 3600 BR NCD 01/01 Q1022 BECMG 9999
2026-04-17 03:50:00,METAR EDDM 170350Z AUTO 00000KT 5000 0700 R08L/P2000N R08R/P2000N BCFG NCD 01/01 Q1022 BECMG 9999
2026-04-17 03:20:00,METAR EDDM 170320Z AUTO 33001KT 4400 0650 R08L/P2000N R08R/P2000N BCFG NSC 01/01 Q1022 TEMPO 2000
2026-04-17 02:50:00,METAR EDDM 170250Z AUTO VRB01KT 6000 0800 R08L/P2000N R08R/1300U BCFG NCD 02/02 Q1022 TEMPO 4000
2026-04-17 02:20:00,METAR EDDM 170220Z AUTO VRB01KT 8000 1000 R26R/P2000N R26L/P2000N BR NCD 02/02 Q1022 NOSIG
2026-04-17 01:50:00,METAR EDDM 170150Z AUTO 00000KT CAVOK 03/03 Q1022 NOSIG
2026-04-17 01:20:00,METAR EDDM 170120Z AUTO 17001KT CAVOK 03/03 Q1023 NOSIG
2026-04-17 00:50:00,METAR EDDM 170050Z AUTO 00000KT CAVOK 03/03 Q1023 NOSIG
2026-04-17 00:20:00,METAR EDDM 170020Z AUTO 00000KT CAVOK 04/04 Q1023 NOSIG
2026-04-16 23:50:00,METAR EDDM 162350Z AUTO VRB01KT CAVOK 03/03 Q1023 NOSIG
2026-04-16 23:20:00,METAR EDDM 162320Z AUTO 00000KT CAVOK 04/03 Q1023 NOSIG
2026-04-16 22:50:00,METAR EDDM 162250Z AUTO VRB01KT CAVOK 05/04 Q1023 NOSIG
2026-04-16 22:20:00,METAR EDDM 162220Z AUTO VRB01KT CAVOK 06/05 Q1023 NOSIG
2026-04-16 21:50:00,METAR EDDM 162150Z AUTO VRB01KT CAVOK 06/05 Q1023 NOSIG
2026-04-16 21:20:00,METAR EDDM 162120Z AUTO VRB01KT CAVOK 07/06 Q1023 NOSIG
2026-04-16 20:50:00,METAR EDDM 162050Z AUTO 33001KT CAVOK 07/04 Q1023 NOSIG
2026-04-16 20:20:00,METAR EDDM 162020Z AUTO 17001KT CAVOK 08/06 Q1023 NOSIG
2026-04-16 19:50:00,METAR EDDM 161950Z AUTO 17002KT CAVOK 10/06 Q1023 NOSIG
2026-04-16 19:20:00,METAR EDDM 161920Z AUTO 31002KT CAVOK 11/06 Q1023 NOSIG
2026-04-16 18:50:00,METAR EDDM 161850Z AUTO 01001KT CAVOK 12/06 Q1022 NOSIG
2026-04-16 18:20:00,METAR EDDM 161820Z AUTO VRB01KT CAVOK 14/06 Q1022 NOSIG
2026-04-16 17:50:00,METAR EDDM 161750Z AUTO 03001KT CAVOK 15/07 Q1022 NOSIG
2026-04-16 17:20:00,METAR EDDM 161720Z AUTO 36003KT CAVOK 16/07 Q1022 NOSIG
2026-04-16 16:50:00,METAR EDDM 161650Z AUTO 35004KT 320V030 CAVOK 16/07 Q1022 NOSIG
2026-04-16 16:20:00,METAR EDDM 161620Z AUTO 04003KT 350V090 CAVOK 17/07 Q1022 NOSIG
2026-04-16 15:50:00,METAR EDDM 161550Z AUTO 01004KT 320V040 CAVOK 18/06 Q1022 NOSIG
2026-04-16 14:50:00,METAR EDDM 161450Z AUTO 35004KT 270V070 CAVOK 17/06 Q1022 NOSIG
2026-04-16 14:20:00,METAR EDDM 161420Z AUTO 30005KT 270V340 CAVOK 17/05 Q1022 NOSIG
2026-04-16 13:50:00,METAR EDDM 161350Z AUTO 31006KT 230V350 9999 FEW049 16/05 Q1022 NOSIG
2026-04-16 13:20:00,METAR EDDM 161320Z AUTO 28005KT 190V350 9999 FEW048 17/06 Q1022 NOSIG
2026-04-16 12:50:00,METAR EDDM 161250Z AUTO VRB03KT CAVOK 16/06 Q1023 NOSIG
2026-04-16 12:20:00,METAR EDDM 161220Z AUTO VRB04KT CAVOK 16/06 Q1023 NOSIG
2026-04-16 11:50:00,METAR EDDM 161150Z AUTO 28006KT 230V330 9999 FEW037 16/07 Q1023 NOSIG
2026-04-16 11:20:00,METAR EDDM 161120Z AUTO 26006KT 230V340 9999 FEW037 15/07 Q1023 NOSIG
2026-04-16 10:50:00,METAR EDDM 161050Z AUTO 26005KT 170V330 9999 FEW035 SCT049 15/07 Q1023 NOSIG
2026-04-16 10:20:00,METAR EDDM 161020Z AUTO 31007KT 260V350 9999 FEW032 15/07 Q1023 NOSIG
2026-04-16 09:50:00,METAR EDDM 160950Z AUTO 30005KT 250V350 9999 SCT028 BKN037 BKN046 14/07 Q1023 NOSIG
2026-04-16 09:20:00,METAR EDDM 160920Z AUTO VRB04KT 9999 FEW021 14/08 Q1023 NOSIG
2026-04-16 08:50:00,METAR EDDM 160850Z AUTO 27007KT 230V300 9999 FEW021 13/08 Q1023 NOSIG
2026-04-16 08:20:00,METAR EDDM 160820Z AUTO 27008KT 230V310 9999 FEW035 BKN043 12/08 Q1023 NOSIG
2026-04-16 07:50:00,METAR EDDM 160750Z AUTO 26008KT 9999 SCT038 OVC047 11/08 Q1023 NOSIG
2026-04-16 07:20:00,METAR EDDM 160720Z AUTO 26008KT 9999 OVC041 11/08 Q1023 NOSIG
2026-04-16 06:50:00,METAR EDDM 160650Z AUTO 27006KT 250V310 9999 OVC038 10/09 Q1023 NOSIG
2026-04-16 06:20:00,METAR EDDM 160620Z AUTO 25006KT 9999 OVC038 10/09 Q1023 NOSIG
2026-04-16 05:50:00,METAR EDDM 160550Z AUTO 25006KT 9999 OVC039 10/08 Q1023 NOSIG
2026-04-16 05:20:00,METAR EDDM 160520Z AUTO 26005KT 9999 OVC039 10/08 Q1022 NOSIG
2026-04-16 04:50:00,METAR EDDM 160450Z AUTO 25007KT 9999 OVC038 10/08 Q1022 NOSIG
2026-04-16 04:20:00,METAR EDDM 160420Z AUTO 25006KT 9999 OVC039 10/08 Q1022 NOSIG
2026-04-16 03:50:00,METAR EDDM 160350Z AUTO 27004KT 9000 OVC039 10/08 Q1022 NOSIG
2026-04-16 03:20:00,METAR EDDM 160320Z AUTO 26005KT 9999 OVC040 10/08 Q1022 NOSIG
2026-04-16 02:50:00,METAR EDDM 160250Z AUTO 25005KT 9999 BKN043 10/09 Q1022 NOSIG
2026-04-16 02:20:00,METAR EDDM 160220Z AUTO 24008KT 9999 FEW017 SCT021 OVC048 10/09 Q1022 NOSIG
2026-04-16 01:50:00,METAR EDDM 160150Z AUTO 21006KT 9999 OVC049 10/09 Q1021 NOSIG
2026-04-16 01:20:00,METAR EDDM 160120Z AUTO 24005KT 9999 OVC046 10/09 Q1021 NOSIG
2026-04-16 00:50:00,METAR EDDM 160050Z AUTO 33003KT 280V020 9999 BKN038 OVC047 11/09 Q1021 BECMG 25005KT
2026-04-16 00:20:00,METAR EDDM 160020Z AUTO 27004KT 9999 BKN036 OVC045 11/09 Q1021 NOSIG
2026-04-15 23:50:00,METAR EDDM 152350Z AUTO 27003KT 9999 FEW027 BKN035 11/09 Q1021 NOSIG
2026-04-15 23:20:00,METAR EDDM 152320Z AUTO 26006KT 9000 FEW027 BKN035 11/09 Q1021 NOSIG
2026-04-15 22:50:00,METAR EDDM 152250Z AUTO 26005KT 9999 SCT028 BKN033 OVC044 11/09 Q1021 NOSIG
2026-04-15 22:20:00,METAR EDDM 152220Z AUTO 25004KT 9999 SCT025 BKN030 OVC040 11/09 Q1021 NOSIG
2026-04-15 21:50:00,METAR EDDM 152150Z AUTO 27004KT 9999 SCT024 BKN028 BKN034 11/09 Q1021 NOSIG
2026-04-15 21:20:00,METAR EDDM 152120Z AUTO 26004KT 9999 OVC026 11/09 Q1021 NOSIG
2026-04-15 20:50:00,METAR EDDM 152050Z AUTO 27004KT 9999 BKN026 12/09 Q1021 NOSIG
2026-04-15 20:20:00,METAR EDDM 152020Z AUTO 28003KT 9999 BKN027 BKN031 OVC041 12/08 Q1021 NOSIG
2026-04-15 19:50:00,METAR EDDM 151950Z AUTO 28003KT 9999 BKN028 12/09 Q1021 NOSIG
2026-04-15 19:20:00,METAR EDDM 151920Z AUTO 28002KT 9999 BKN031 OVC042 12/08 Q1021 NOSIG
2026-04-15 18:50:00,METAR EDDM 151850Z AUTO 29002KT 9999 FEW028 OVC040 12/08 Q1021 NOSIG
2026-04-15 18:20:00,METAR EDDM 151820Z AUTO 32002KT 9999 OVC042 12/08 Q1020 NOSIG
2026-04-15 17:50:00,METAR EDDM 151750Z AUTO 30002KT 9999 OVC039 12/09 Q1020 NOSIG
2026-04-15 17:20:00,METAR EDDM 151720Z AUTO 32001KT 9999 OVC038 13/09 Q1020 NOSIG
2026-04-15 16:50:00,METAR EDDM 151650Z AUTO 04002KT 9999 OVC036 13/09 Q1020 NOSIG
2026-04-15 16:20:00,METAR EDDM 151620Z AUTO VRB02KT 9999 OVC036 13/09 Q1020 NOSIG
2026-04-15 15:50:00,METAR EDDM 151550Z AUTO 05004KT 010V080 9999 OVC034 13/09 Q1020 NOSIG
2026-04-15 15:20:00,METAR EDDM 151520Z AUTO 02003KT 350V060 9999 OVC033 13/09 Q1020 NOSIG
2026-04-15 14:50:00,METAR EDDM 151450Z AUTO 05004KT 9999 OVC033 13/09 Q1021 NOSIG
2026-04-15 14:20:00,METAR EDDM 151420Z AUTO 04005KT 010V080 9999 BKN032 13/09 Q1021 NOSIG
2026-04-15 13:50:00,METAR EDDM 151350Z AUTO 05006KT 360V080 9999 FEW016 BKN024 OVC031 12/09 Q1021 NOSIG
2026-04-15 13:20:00,METAR EDDM 151320Z AUTO 06006KT 020V110 9999 SCT016 BKN025 OVC031 12/09 Q1021 NOSIG
2026-04-15 12:50:00,METAR EDDM 151250Z AUTO 05006KT 020V080 9999 SCT016 BKN022 OVC032 12/09 Q1021 NOSIG
2026-04-15 12:20:00,METAR EDDM 151220Z AUTO 06005KT 030V090 9999 SCT016 BKN022 OVC031 12/09 Q1021 NOSIG
2026-04-15 11:50:00,METAR EDDM 151150Z AUTO 09005KT 050V130 9999 SCT013 BKN022 OVC030 12/08 Q1021 NOSIG
2026-04-15 11:20:00,METAR EDDM 151120Z AUTO 09006KT 050V110 9999 BKN013 BKN019 11/09 Q1022 BECMG OVC015
2026-04-15 10:50:00,METAR EDDM 151050Z AUTO 08004KT 050V110 9999 BKN013 OVC019 11/08 Q1022 BECMG OVC015
2026-04-15 10:20:00,METAR EDDM 151020Z AUTO 07004KT 030V100 9999 BKN011 BKN017 OVC023 11/08 Q1022 NOSIG
2026-04-15 09:50:00,METAR EDDM 150950Z AUTO 07006KT 040V110 9999 BKN010 11/09 Q1022 NOSIG
2026-04-15 09:20:00,METAR EDDM 150920Z AUTO 05004KT 360V080 9999 OVC010 10/08 Q1022 NOSIG
2026-04-15 08:50:00,METAR EDDM 150850Z AUTO 06004KT 030V100 9999 BKN010 10/08 Q1022 NOSIG
2026-04-15 08:20:00,METAR EDDM 150820Z AUTO 08005KT 040V110 9999 OVC009 10/08 Q1022 BECMG OVC011
2026-04-15 07:50:00,METAR EDDM 150750Z AUTO 05004KT 010V090 9999 OVC007 10/08 Q1022 NOSIG
2026-04-15 07:20:00,METAR EDDM 150720Z AUTO 03004KT 360V090 9000 OVC006 09/08 Q1022 NOSIG
2026-04-15 06:50:00,METAR EDDM 150650Z AUTO 04004KT 9000 OVC006 09/08 Q1022 NOSIG
2026-04-15 06:20:00,METAR EDDM 150620Z AUTO 36003KT 330V040 8000 OVC006 09/08 Q1022 NOSIG
2026-04-15 05:50:00,METAR EDDM 150550Z AUTO 01002KT 7000 OVC006 08/08 Q1022 NOSIG
2026-04-15 05:20:00,METAR EDDM 150520Z AUTO VRB01KT 5000 BR OVC006 08/08 Q1021 NOSIG
2026-04-15 04:50:00,METAR EDDM 150450Z AUTO VRB01KT 5000 BR OVC006 08/08 Q1021 NOSIG
2026-04-15 04:20:00,METAR EDDM 150420Z AUTO VRB01KT 6000 OVC006 08/08 Q1021 NOSIG
2026-04-15 03:50:00,METAR EDDM 150350Z AUTO 34001KT 6000 OVC006 08/08 Q1021 NOSIG
2026-04-15 03:20:00,METAR EDDM 150320Z AUTO 01001KT 6000 OVC006 08/08 Q1022 NOSIG
2026-04-15 02:50:00,METAR EDDM 150250Z AUTO 34001KT 6000 OVC007 08/08 Q1022 NOSIG
2026-04-15 02:20:00,METAR EDDM 150220Z AUTO 35001KT 6000 BKN006 OVC009 08/08 Q1022 NOSIG
2026-04-15 01:50:00,METAR EDDM 150150Z AUTO 29001KT 5000 BR OVC006 08/08 Q1022 NOSIG
2026-04-15 01:20:00,METAR EDDM 150120Z AUTO 25001KT 5000 BR BKN006 OVC009 08/08 Q1022 NOSIG
2026-04-15 00:50:00,METAR EDDM 150050Z AUTO 26001KT 5000 BR OVC005 08/08 Q1022 NOSIG
2026-04-15 00:20:00,METAR EDDM 150020Z AUTO 26003KT 3300 BR OVC004 08/08 Q1022 NOSIG
2026-04-14 23:50:00,METAR EDDM 142350Z AUTO VRB02KT 2800 BR OVC005 08/08 Q1022 NOSIG
2026-04-14 23:20:00,METAR EDDM 142320Z AUTO 26003KT 3900 BR OVC005 08/08 Q1022 NOSIG
2026-04-14 22:50:00,METAR EDDM 142250Z AUTO 25003KT 3800 BR OVC005 08/08 Q1022 NOSIG
2026-04-14 22:20:00,METAR EDDM 142220Z AUTO VRB01KT 4300 BR BKN006 08/08 Q1022 NOSIG
2026-04-14 21:50:00,METAR EDDM 142150Z AUTO 31003KT 8000 BKN007 OVC014 08/08 Q1022 NOSIG
2026-04-14 21:20:00,METAR EDDM 142120Z AUTO 32004KT 290V350 9999 BKN008 OVC015 09/07 Q1022 NOSIG
2026-04-14 20:50:00,METAR EDDM 142050Z AUTO 30003KT 9999 SCT011 BKN017 OVC023 09/07 Q1022 NOSIG
2026-04-14 20:20:00,METAR EDDM 142020Z AUTO 32004KT 9999 SCT012 BKN016 OVC023 09/07 Q1022 NOSIG
2026-04-14 19:50:00,METAR EDDM 141950Z AUTO 32004KT 9999 BKN014 OVC025 09/07 Q1022 NOSIG
2026-04-14 19:20:00,METAR EDDM 141920Z AUTO 33005KT 9999 FEW013 BKN025 OVC042 09/07 Q1022 NOSIG
2026-04-14 18:50:00,METAR EDDM 141850Z AUTO 32003KT 9999 BKN018 OVC043 09/07 Q1021 NOSIG
2026-04-14 18:20:00,METAR EDDM 141820Z AUTO 30004KT 9999 BKN018 OVC045 09/07 Q1021 NOSIG
2026-04-14 17:50:00,METAR EDDM 141750Z AUTO 29004KT 260V330 9999 SCT016 BKN020 BKN045 10/07 Q1021 NOSIG
2026-04-14 17:20:00,METAR EDDM 141720Z AUTO 31004KT 280V340 9999 BKN018 OVC047 10/07 Q1021 NOSIG
2026-04-14 16:50:00,METAR EDDM 141650Z AUTO 32005KT 9999 BKN017 BKN023 10/07 Q1020 NOSIG
2026-04-14 16:20:00,METAR EDDM 141620Z AUTO 32007KT 9999 BKN017 BKN023 10/07 Q1020 NOSIG
2026-04-14 15:50:00,METAR EDDM 141550Z AUTO 31006KT 280V340 9999 BKN018 BKN025 BKN043 10/06 Q1020 NOSIG
2026-04-14 15:20:00,METAR EDDM 141520Z AUTO 30006KT 9999 SCT016 BKN024 BKN042 10/07 Q1020 NOSIG
2026-04-14 14:50:00,METAR EDDM 141450Z AUTO 30006KT 9999 BKN016 BKN023 OVC042 10/07 Q1019 NOSIG
2026-04-14 14:20:00,METAR EDDM 141420Z AUTO 30006KT 270V340 9999 BKN016 10/07 Q1019 NOSIG
2026-04-14 13:50:00,METAR EDDM 141350Z AUTO 31006KT 9999 BKN014 10/07 Q1019 BECMG BKN015
2026-04-14 13:20:00,METAR EDDM 141320Z AUTO 31005KT 9999 BKN015 BKN021 10/07 Q1019 NOSIG
2026-04-14 12:50:00,METAR EDDM 141250Z AUTO 31005KT 280V350 9999 OVC014 10/07 Q1019 BECMG BKN015
2026-04-14 12:20:00,METAR EDDM 141220Z AUTO 30006KT 260V330 9999 BKN014 OVC019 10/07 Q1019 BECMG BKN015
2026-04-14 11:50:00,METAR EDDM 141150Z AUTO 31008KT 9999 OVC014 10/07 Q1019
2026-04-14 11:20:00,METAR EDDM 141120Z AUTO 30005KT 260V330 9999 BKN013 09/07 Q1018 BECMG BKN015
2026-04-14 10:50:00,METAR EDDM 141050Z AUTO 28006KT 250V320 9999 OVC013 09/06 Q1018 NOSIG
2026-04-14 10:20:00,METAR EDDM 141020Z AUTO 28007KT 250V320 9999 OVC012 09/07 Q1018 NOSIG
2026-04-14 09:50:00,METAR EDDM 140950Z AUTO 30009KT 260V320 9999 OVC012 09/07 Q1018 NOSIG
2026-04-14 09:20:00,METAR EDDM 140920Z AUTO 29007KT 9999 -DZ OVC011 09/07 Q1018 NOSIG
2026-04-14 08:50:00,METAR EDDM 140850Z AUTO 29006KT 250V320 9999 OVC010 09/06 Q1017 TEMPO 4000 -RADZ OVC008
2026-04-14 08:20:00,METAR EDDM 140820Z AUTO 28009KT 250V310 9999 OVC010 09/06 Q1017 TEMPO 4000 -RADZ OVC008
2026-04-14 07:50:00,METAR EDDM 140750Z AUTO 28008KT 250V310 9999 OVC010 09/07 Q1017 TEMPO 4000 -RADZ OVC008
2026-04-14 07:20:00,METAR EDDM 140720Z AUTO 27007KT 250V310 9999 OVC011 09/07 Q1017 NOSIG
2026-04-14 06:50:00,METAR EDDM 140650Z AUTO 28007KT 250V310 9999 OVC010 09/06 Q1016 NOSIG
2026-04-14 06:20:00,METAR EDDM 140620Z AUTO 28007KT 9999 OVC009 08/07 Q1016 NOSIG
2026-04-14 05:50:00,METAR EDDM 140550Z AUTO 29005KT 260V320 9999 OVC009 08/07 Q1015 TEMPO 4000 -RADZ BKN004
2026-04-14 05:20:00,METAR EDDM 140520Z AUTO 29007KT 260V330 9999 OVC008 08/07 Q1015 TEMPO 4000 -RADZ BKN004
2026-04-14 04:50:00,METAR EDDM 140450Z AUTO 29007KT 9999 OVC008 09/07 Q1015 TEMPO 4000 -RADZ BKN004
2026-04-14 04:20:00,METAR EDDM 140420Z AUTO 29006KT 260V320 9999 OVC007 09/07 Q1014 TEMPO 4000 -DZRA BKN004
2026-04-14 03:50:00,METAR EDDM 140350Z AUTO 28007KT 250V320 9999 OVC007 09/08 Q1014 TEMPO 4000 -DZRA BKN004
2026-04-14 03:20:00,METAR EDDM 140320Z AUTO 29007KT 260V320 6000 OVC007 09/08 Q1014 TEMPO 4000 -DZRA BKN004
2026-04-14 02:50:00,METAR EDDM 140250Z AUTO 28007KT 8000 OVC008 09/08 Q1014 TEMPO 4000 -DZRA BKN004
2026-04-14 02:20:00,METAR EDDM 140220Z AUTO 28007KT 250V310 8000 OVC009 10/08 Q1013 TEMPO 4000 -DZRA BKN004
2026-04-14 01:50:00,METAR EDDM 140150Z AUTO 27007KT 7000 OVC010 10/08 Q1013 BECMG BKN008
2026-04-14 01:20:00,METAR EDDM 140120Z AUTO 28007KT 250V310 7000 BKN011 OVC025 10/08 Q1013 BECMG BKN008
2026-04-14 00:50:00,METAR EDDM 140050Z AUTO 28007KT 7000 BKN012 OVC024 10/08 Q1012 BECMG BKN008
2026-04-14 00:20:00,METAR EDDM 140020Z AUTO 27007KT 7000 BKN012 OVC024 OVC033 10/08 Q1012 BECMG BKN008
2026-04-13 23:50:00,METAR EDDM 132350Z AUTO 27005KT 8000 FEW011 BKN032 10/08 Q1012 BECMG BKN008
2026-04-13 23:20:00,METAR EDDM 132320Z AUTO 28007KT 250V310 9000 BKN030 10/08 Q1011 BECMG BKN008
2026-04-13 22:50:00,METAR EDDM 132250Z AUTO 26006KT 9000 OVC028 10/08 Q1011 NOSIG
2026-04-13 22:20:00,METAR EDDM 132220Z AUTO 27006KT 9000 OVC028 11/08 Q1011 NOSIG
2026-04-13 21:50:00,METAR EDDM 132150Z AUTO 27006KT 9000 OVC028 11/08 Q1011 NOSIG
2026-04-13 21:20:00,METAR EDDM 132120Z AUTO 26007KT 9000 OVC027 10/08 Q1011 NOSIG
2026-04-13 20:50:00,METAR EDDM 132050Z AUTO 26008KT 9999 BKN027 10/08 Q1010 NOSIG
2026-04-13 20:20:00,METAR EDDM 132020Z AUTO 26007KT 9999 SCT028 11/08 Q1010 NOSIG
2026-04-13 19:50:00,METAR EDDM 131950Z AUTO 26008KT 9999 FEW027 10/08 Q1010 NOSIG
2026-04-13 19:20:00,METAR EDDM 131920Z AUTO 27006KT CAVOK 11/08 Q1010 NOSIG
2026-04-13 18:50:00,METAR EDDM 131850Z AUTO 26006KT CAVOK 11/08 Q1010 NOSIG
2026-04-13 18:20:00,METAR EDDM 131820Z AUTO 29005KT CAVOK 12/08 Q1009 NOSIG
2026-04-13 17:50:00,METAR EDDM 131750Z AUTO 28004KT CAVOK 12/08 Q1009 NOSIG
2026-04-13 17:20:00,METAR EDDM 131720Z AUTO 27005KT CAVOK 12/08 Q1009 NOSIG
2026-04-13 16:50:00,METAR EDDM 131650Z AUTO 28005KT CAVOK 12/08 Q1008 NOSIG
2026-04-13 16:20:00,METAR EDDM 131620Z AUTO 26005KT CAVOK 12/08 Q1008 NOSIG
2026-04-13 15:50:00,METAR EDDM 131550Z AUTO 27003KT 250V310 CAVOK 13/08 Q1008 NOSIG
2026-04-13 15:20:00,METAR EDDM 131520Z AUTO 30003KT 9999 -RADZ NSC 13/08 Q1008 NOSIG
2026-04-13 14:50:00,METAR EDDM 131450Z AUTO 27003KT 240V330 CAVOK 13/08 Q1008 NOSIG
2026-04-13 14:20:00,METAR EDDM 131420Z AUTO 33003KT 280V090 CAVOK 13/08 Q1008 BECMG 29008KT
2026-04-13 13:50:00,METAR EDDM 131350Z AUTO 35003KT 280V060 CAVOK 13/08 Q1008 BECMG 29007KT
2026-04-13 13:20:00,METAR EDDM 131320Z AUTO 01004KT 330V060 9999 -RA FEW047 13/08 Q1008 NOSIG
2026-04-13 12:50:00,METAR EDDM 131250Z AUTO VRB02KT 9999 -RA FEW046 13/08 Q1008 NOSIG
2026-04-13 12:20:00,METAR EDDM 131220Z AUTO 04003KT 350V090 9999 FEW049 12/07 Q1008 NOSIG
2026-04-13 11:50:00,METAR EDDM 131150Z AUTO 05004KT 360V120 CAVOK 12/07 Q1008 NOSIG
2026-04-13 11:20:00,METAR EDDM 131120Z AUTO 04005KT 350V090 CAVOK 12/07 Q1008 NOSIG
2026-04-13 10:50:00,METAR EDDM 131050Z AUTO 05004KT 300V110 CAVOK 11/07 Q1008 NOSIG
2026-04-13 10:20:00,METAR EDDM 131020Z AUTO 06004KT 010V130 CAVOK 11/07 Q1008 NOSIG
2026-04-13 09:50:00,METAR EDDM 130950Z AUTO 06005KT 360V110 CAVOK 10/06 Q1008 NOSIG
2026-04-13 09:20:00,METAR EDDM 130920Z AUTO 06004KT 360V120 CAVOK 09/06 Q1008 NOSIG
2026-04-13 08:50:00,METAR EDDM 130850Z AUTO 05005KT 020V100 CAVOK 08/06 Q1008 NOSIG
2026-04-13 08:20:00,METAR EDDM 130820Z AUTO 03004KT 350V060 CAVOK 08/06 Q1008 NOSIG
2026-04-13 07:50:00,METAR EDDM 130750Z AUTO 06005KT 030V100 CAVOK 07/05 Q1009 NOSIG
2026-04-13 07:20:00,METAR EDDM 130720Z AUTO 05005KT CAVOK 06/05 Q1009 NOSIG
2026-04-13 06:50:00,METAR EDDM 130650Z AUTO 04004KT 8000 NSC 06/05 Q1009 NOSIG
2026-04-13 06:20:00,METAR EDDM 130620Z AUTO 05004KT 020V080 7000 NSC 05/05 Q1009 NOSIG
2026-04-13 05:50:00,METAR EDDM 130550Z AUTO 04004KT 6000 NSC 05/05 Q1009 NOSIG
2026-04-13 05:20:00,METAR EDDM 130520Z AUTO 03004KT 5000 BR NSC 05/04 Q1009 NOSIG
2026-04-13 04:50:00,METAR EDDM 130450Z AUTO 03003KT 4700 BR NSC 05/04 Q1009 BECMG 6000
2026-04-13 04:20:00,METAR EDDM 130420Z AUTO 04003KT 5000 BR NSC 05/05 Q1009 NOSIG
2026-04-13 03:50:00,METAR EDDM 130350Z AUTO 02003KT 6000 NSC 05/04 Q1009 NOSIG
2026-04-13 03:20:00,METAR EDDM 130320Z AUTO VRB02KT 7000 NSC 05/05 Q1010 NOSIG
2026-04-13 02:50:00,METAR EDDM 130250Z AUTO 03003KT 7000 NSC 06/05 Q1010 NOSIG
2026-04-13 02:20:00,METAR EDDM 130220Z AUTO 04003KT 7000 NSC 06/05 Q1010 NOSIG
2026-04-13 01:50:00,METAR EDDM 130150Z AUTO 03003KT 8000 FEW006 06/05 Q1010 NOSIG
2026-04-13 01:20:00,METAR EDDM 130120Z AUTO 05002KT 9999 SCT007 06/06 Q1011 NOSIG
2026-04-13 00:50:00,METAR EDDM 130050Z AUTO 06004KT 030V090 9999 BKN007 07/06 Q1011 NOSIG
2026-04-13 00:20:00,METAR EDDM 130020Z AUTO 04005KT 9999 OVC007 08/07 Q1011 NOSIG
2026-04-12 23:50:00,METAR EDDM 122350Z AUTO 04004KT 010V070 9999 OVC007 08/07 Q1011 NOSIG
2026-04-12 23:20:00,METAR EDDM 122320Z AUTO 04004KT 9999 OVC008 08/07 Q1012 NOSIG
2026-04-12 22:50:00,METAR EDDM 122250Z AUTO 04005KT 9999 BKN009 BKN012 OVC029 08/07 Q1012 NOSIG
2026-04-12 22:20:00,METAR EDDM 122220Z AUTO 03003KT 9999 BKN011 BKN025 OVC030 08/07 Q1012 BECMG SCT012 BKN030
2026-04-12 21:50:00,METAR EDDM 122150Z AUTO 05003KT 9999 BKN011 OVC026 09/07 Q1012 BECMG SCT013 BKN025
2026-04-12 21:20:00,METAR EDDM 122120Z AUTO 04005KT 360V060 9999 OVC011 09/07 Q1013 BECMG SCT015
2026-04-12 20:50:00,METAR EDDM 122050Z AUTO 03004KT 9999 OVC011 09/07 Q1013 BECMG SCT012 BKN025
2026-04-12 20:20:00,METAR EDDM 122020Z AUTO 03005KT 9999 BKN012 09/07 Q1013 BECMG SCT013 BKN030
2026-04-12 19:50:00,METAR EDDM 121950Z AUTO 04004KT 010V070 9999 SCT010 OVC016 09/08 Q1013 NOSIG
2026-04-12 19:20:00,METAR EDDM 121920Z AUTO 03004KT 360V060 9999 BKN009 OVC017 10/08 Q1013 BECMG SCT012 BKN025
2026-04-12 18:50:00,METAR EDDM 121850Z AUTO 01004KT 340V050 9999 BKN007 BKN011 10/08 Q1013 BECMG SCT007 BKN011
2026-04-12 18:20:00,METAR EDDM 121820Z AUTO 34004KT 9999 BKN006 10/08 Q1013 NOSIG
2026-04-12 17:50:00,METAR EDDM 121750Z AUTO 32004KT 9999 BKN008 10/08 Q1014 NOSIG
2026-04-12 17:20:00,METAR EDDM 121720Z AUTO 34004KT 9999 OVC009 10/08 Q1014 TEMPO BKN010
2026-04-12 16:50:00,METAR EDDM 121650Z AUTO 36004KT 320V040 9999 OVC010 10/08 Q1014 TEMPO BKN009
2026-04-12 16:20:00,METAR EDDM 121620Z AUTO 04005KT 350V070 9999 BKN011 10/08 Q1013 NOSIG
2026-04-12 15:50:00,METAR EDDM 121550Z AUTO 03005KT 360V070 9999 OVC011 10/08 Q1013 NOSIG
2026-04-12 14:50:00,METAR EDDM 121450Z AUTO 01006KT 9999 OVC012 10/08 Q1013 NOSIG
2026-04-12 14:20:00,METAR EDDM 121420Z AUTO 01006KT 340V040 9999 BKN012 10/08 Q1013 NOSIG
2026-04-12 13:50:00,METAR EDDM 121350Z AUTO 01007KT 330V040 9999 BKN012 OVC027 10/08 Q1013 NOSIG
2026-04-12 13:20:00,METAR EDDM 121320Z AUTO 36005KT 320V040 9999 BKN012 OVC026 11/08 Q1014 NOSIG
2026-04-12 12:50:00,METAR EDDM 121250Z AUTO 01005KT 330V040 9999 BKN012 OVC025 11/08 Q1014 TEMPO SCT012 BKN025
2026-04-12 12:20:00,METAR EDDM 121220Z AUTO 01007KT 320V030 9999 BKN011 OVC026 11/08 Q1014 TEMPO SCT010 BKN020
2026-04-12 11:50:00,METAR EDDM 121150Z AUTO 01007KT 340V040 9999 BKN010 OVC025 10/08 Q1014 TEMPO SCT010 BKN020
2026-04-12 11:20:00,METAR EDDM 121120Z AUTO 35005KT 330V040 9999 BKN009 BKN025 OVC030 10/08 Q1015 BECMG BKN010
2026-04-12 10:50:00,METAR EDDM 121050Z AUTO 32003KT 290V030 9999 FEW008 BKN025 OVC030 09/07 Q1015 TEMPO BKN009
2026-04-12 10:20:00,METAR EDDM 121020Z COR AUTO 30003KT 260V360 9999 FEW010 BKN028 09/07 Q1015 NOSIG
2026-04-12 09:50:00,METAR EDDM 120950Z AUTO 28004KT 250V310 5000 -DZ BR FEW007 BKN012 OVC021 08/07 Q1015 REDZ TEMPO SCT012 BKN035
2026-04-12 09:20:00,METAR EDDM 120920Z AUTO 28006KT 7000 -DZ FEW007 OVC013 09/05 Q1015 TEMPO 4500 DZRA BKN008
2026-04-12 08:50:00,METAR EDDM 120850Z AUTO 28004KT 9999 BKN013 09/04 Q1015 TEMPO BKN009
2026-04-12 08:20:00,METAR EDDM 120820Z AUTO 30003KT 9999 SCT016 BKN020 OVC030 09/04 Q1015 TEMPO BKN014
2026-04-12 07:50:00,METAR EDDM 120750Z AUTO VRB01KT 9999 OVC028 09/04 Q1015 TEMPO BKN014
2026-04-12 07:20:00,METAR EDDM 120720Z AUTO VRB01KT 9999 FEW016 BKN022 OVC031 09/04 Q1015 NOSIG
2026-04-12 06:50:00,METAR EDDM 120650Z AUTO VRB01KT 9999 SCT014 BKN025 OVC031 08/04 Q1015 BECMG 27006KT BKN014
2026-04-12 06:20:00,METAR EDDM 120620Z AUTO VRB01KT 9999 SCT014 BKN030 08/03 Q1015 BECMG 27006KT BKN014
2026-04-12 05:50:00,METAR EDDM 120550Z AUTO VRB01KT 9999 FEW017 BKN030 BKN041 08/03 Q1015 NOSIG
2026-04-12 05:20:00,METAR EDDM 120520Z AUTO VRB02KT 9999 FEW041 08/04 Q1014 NOSIG
2026-04-12 04:50:00,METAR EDDM 120450Z AUTO 32002KT CAVOK 08/03 Q1014 NOSIG
2026-04-12 04:20:00,METAR EDDM 120420Z AUTO VRB02KT 9999 -RA NSC 08/03 Q1013 NOSIG
2026-04-12 03:50:00,METAR EDDM 120350Z AUTO 03002KT 9999 FEW047 08/03 Q1013 NOSIG
2026-04-12 03:20:00,METAR EDDM 120320Z AUTO 07003KT 040V100 9999 FEW047 08/03 Q1013 NOSIG
2026-04-12 02:50:00,METAR EDDM 120250Z AUTO 03003KT CAVOK 08/03 Q1013 NOSIG
2026-04-12 02:20:00,METAR EDDM 120220Z AUTO 08004KT CAVOK 08/02 Q1013 NOSIG
2026-04-12 01:50:00,METAR EDDM 120150Z AUTO 04004KT CAVOK 08/02 Q1012 NOSIG
2026-04-12 01:20:00,METAR EDDM 120120Z AUTO 05004KT CAVOK 08/02 Q1012 NOSIG
2026-04-12 00:50:00,METAR EDDM 120050Z AUTO 07005KT CAVOK 08/01 Q1012 NOSIG
2026-04-12 00:20:00,METAR EDDM 120020Z AUTO 08004KT CAVOK 09/01 Q1012 NOSIG
2026-04-11 23:50:00,METAR EDDM 112350Z AUTO VRB02KT CAVOK 09/02 Q1013 NOSIG
2026-04-11 23:20:00,METAR EDDM 112320Z AUTO 09007KT 9999 FEW036 09/02 Q1012 NOSIG
2026-04-11 22:50:00,METAR EDDM 112250Z AUTO 11005KT 080V140 CAVOK 09/03 Q1013 NOSIG
2026-04-11 22:20:00,METAR EDDM 112220Z AUTO 08004KT 060V120 CAVOK 10/03 Q1013 NOSIG
2026-04-11 21:50:00,METAR EDDM 112150Z AUTO VRB02KT CAVOK 10/02 Q1014 NOSIG
2026-04-11 21:20:00,METAR EDDM 112120Z AUTO VRB02KT CAVOK 10/02 Q1014 TEMPO SHRA BKN045TCU
2026-04-11 20:50:00,METAR EDDM 112050Z AUTO 06003KT 030V090 CAVOK 10/03 Q1013 TEMPO SHRA BKN045TCU
2026-04-11 20:20:00,METAR EDDM 112020Z AUTO 08005KT CAVOK 10/03 Q1014 TEMPO SHRA BKN045TCU
2026-04-11 19:50:00,METAR EDDM 111950Z AUTO 08005KT CAVOK 10/04 Q1014 TEMPO SHRA BKN040TCU
2026-04-11 19:20:00,METAR EDDM 111920Z AUTO 08004KT CAVOK 11/04 Q1014 NOSIG
2026-04-11 18:50:00,METAR EDDM 111850Z AUTO 09006KT CAVOK 11/04 Q1013 NOSIG
2026-04-11 18:20:00,METAR EDDM 111820Z AUTO 08007KT CAVOK 12/04 Q1013 NOSIG
2026-04-11 17:50:00,METAR EDDM 111750Z AUTO 09007KT CAVOK 13/04 Q1013 NOSIG
2026-04-11 17:20:00,METAR EDDM 111720Z AUTO 08008KT CAVOK 15/06 Q1013 NOSIG
2026-04-11 16:50:00,METAR EDDM 111650Z AUTO 09009KT CAVOK 15/06 Q1013 NOSIG
2026-04-11 16:20:00,METAR EDDM 111620Z AUTO 09009KT CAVOK 16/06 Q1013 NOSIG
2026-04-11 15:50:00,METAR EDDM 111550Z AUTO 08008KT 050V110 CAVOK 17/07 Q1013 NOSIG
2026-04-11 15:20:00,METAR EDDM 111520Z AUTO 08006KT 040V120 CAVOK 17/06 Q1013 NOSIG
2026-04-11 14:50:00,METAR EDDM 111450Z AUTO 09008KT 040V150 CAVOK 16/07 Q1013 NOSIG
2026-04-11 14:20:00,METAR EDDM 111420Z AUTO 09008KT 040V120 CAVOK 17/07 Q1013 NOSIG
2026-04-11 13:50:00,METAR EDDM 111350Z AUTO 10008KT 070V140 CAVOK 16/07 Q1013 NOSIG
2026-04-11 13:20:00,METAR EDDM 111320Z AUTO 09006KT 050V120 CAVOK 16/06 Q1014 NOSIG
2026-04-11 12:50:00,METAR EDDM 111250Z AUTO 09008KT 040V140 9999 FEW047 16/07 Q1014 NOSIG
2026-04-11 12:20:00,METAR EDDM 111220Z AUTO 11007KT CAVOK 15/07 Q1014 NOSIG
2026-04-11 11:50:00,METAR EDDM 111150Z AUTO 09008KT 040V140 CAVOK 14/06 Q1014 NOSIG
2026-04-11 11:20:00,METAR EDDM 111120Z AUTO 09009KT 060V130 CAVOK 14/07 Q1015 NOSIG
2026-04-11 10:50:00,METAR EDDM 111050Z AUTO 07009KT 040V110 CAVOK 13/06 Q1015 NOSIG
2026-04-11 10:20:00,METAR EDDM 111020Z AUTO 10009KT 070V130 CAVOK 12/05 Q1015 NOSIG
2026-04-11 09:50:00,METAR EDDM 110950Z AUTO 08009KT 050V120 CAVOK 12/04 Q1015 NOSIG
2026-04-11 09:20:00,METAR EDDM 110920Z AUTO 09010KT 060V120 CAVOK 11/04 Q1016 NOSIG
2026-04-11 08:50:00,METAR EDDM 110850Z AUTO 09010KT CAVOK 10/03 Q1016 NOSIG
2026-04-11 08:20:00,METAR EDDM 110820Z AUTO 09012KT CAVOK 10/03 Q1016 NOSIG
2026-04-11 07:50:00,METAR EDDM 110750Z AUTO 09011KT CAVOK 08/01 Q1016 NOSIG
2026-04-11 07:20:00,METAR EDDM 110720Z AUTO 08010KT CAVOK 08/02 Q1016 NOSIG
2026-04-11 06:50:00,METAR EDDM 110650Z AUTO 08008KT CAVOK 07/02 Q1016 NOSIG
2026-04-11 06:20:00,METAR EDDM 110620Z AUTO 09008KT CAVOK 07/03 Q1016 NOSIG
2026-04-11 05:50:00,METAR EDDM 110550Z AUTO 09008KT CAVOK 06/02 Q1016 NOSIG
2026-04-11 05:20:00,METAR EDDM 110520Z AUTO 08007KT CAVOK 06/02 Q1016 NOSIG
2026-04-11 04:50:00,METAR EDDM 110450Z AUTO 08008KT CAVOK 06/02 Q1016 NOSIG
2026-04-11 04:20:00,METAR EDDM 110420Z AUTO 08006KT CAVOK 05/03 Q1016 NOSIG
2026-04-11 03:50:00,METAR EDDM 110350Z AUTO 07005KT 040V110 CAVOK 05/03 Q1016 NOSIG
2026-04-11 03:20:00,METAR EDDM 110320Z AUTO 07005KT 9000 NSC 04/04 Q1017 NOSIG
2026-04-11 02:50:00,METAR EDDM 110250Z AUTO 07003KT 6000 NSC 04/04 Q1017 NOSIG
2026-04-11 02:20:00,METAR EDDM 110220Z AUTO 05003KT 020V080 6000 NSC 04/04 Q1017 NOSIG
2026-04-11 01:50:00,METAR EDDM 110150Z AUTO 06004KT 7000 NSC 05/04 Q1017 NOSIG
2026-04-11 01:20:00,METAR EDDM 110120Z AUTO 06004KT 9000 FEW020 05/04 Q1017 NOSIG
2026-04-11 00:50:00,METAR EDDM 110050Z AUTO 08005KT 9999 BKN018 05/04 Q1017 NOSIG
2026-04-11 00:20:00,METAR EDDM 110020Z AUTO 09005KT 9999 SCT016 06/05 Q1018 NOSIG
2026-04-10 23:50:00,METAR EDDM 102350Z AUTO 09006KT CAVOK 06/05 Q1018 NOSIG
2026-04-10 23:20:00,METAR EDDM 102320Z AUTO 09005KT 9999 FEW022 07/05 Q1018 NOSIG
2026-04-10 22:50:00,METAR EDDM 102250Z AUTO 10006KT 9999 FEW020 07/05 Q1018 NOSIG
2026-04-10 22:20:00,METAR EDDM 102220Z AUTO 09006KT 9999 FEW018 07/06 Q1018 NOSIG
2026-04-10 21:50:00,METAR EDDM 102150Z AUTO 08006KT 050V110 9999 FEW015 07/06 Q1018 NOSIG
2026-04-10 21:20:00,METAR EDDM 102120Z AUTO 08005KT 040V130 9999 SCT020 SCT030 BKN039 07/06 Q1018 NOSIG
2026-04-10 20:50:00,METAR EDDM 102050Z AUTO 11006KT 9999 BKN022 BKN036 08/07 Q1018 NOSIG
2026-04-10 20:20:00,METAR EDDM 102020Z AUTO 09007KT 9999 SCT023 08/07 Q1018 NOSIG
2026-04-10 19:50:00,METAR EDDM 101950Z AUTO VRB03KT 9999 FEW032 08/07 Q1018 NOSIG
2026-04-10 19:20:00,METAR EDDM 101920Z AUTO 10003KT 9999 FEW029 08/07 Q1018 NOSIG
2026-04-10 18:50:00,METAR EDDM 101850Z AUTO 06001KT 9999 FEW026 SCT037 09/07 Q1018 NOSIG
2026-04-10 18:20:00,METAR EDDM 101820Z AUTO 33002KT 9999 SCT028 BKN035 09/07 Q1018 BECMG 08005KT
2026-04-10 17:50:00,METAR EDDM 101750Z AUTO 32002KT 9999 BKN033 10/07 Q1018 NOSIG
2026-04-10 17:20:00,METAR EDDM 101720Z AUTO 28002KT 9999 BKN030 10/07 Q1018 NOSIG
2026-04-10 16:50:00,METAR EDDM 101650Z AUTO 28004KT 9999 FEW026 10/07 Q1018 NOSIG
2026-04-10 16:20:00,METAR EDDM 101620Z AUTO 28003KT 250V310 9999 SCT028 10/07 Q1018 NOSIG
2026-04-10 15:50:00,METAR EDDM 101550Z AUTO 26004KT 240V300 9999 FEW015 BKN029 10/07 Q1018 NOSIG
2026-04-10 15:20:00,METAR EDDM 101520Z AUTO 30004KT 250V350 9999 SCT017 BKN032 10/07 Q1018 NOSIG
2026-04-10 14:50:00,METAR EDDM 101450Z AUTO 32004KT 9999 SCT016 BKN021 BKN036 10/07 Q1018 NOSIG
2026-04-10 14:20:00,METAR EDDM 101420Z AUTO 32005KT 290V350 9999 BKN017 BKN037 10/07 Q1018 NOSIG
2026-04-10 13:50:00,METAR EDDM 101350Z AUTO 32006KT 280V020 9999 FEW013 BKN018 BKN043 10/07 Q1018 NOSIG
2026-04-10 13:20:00,METAR EDDM 101320Z AUTO 33006KT 9999 BKN014 BKN020 OVC042 10/07 Q1017 BECMG SCT015 BKN020
2026-04-10 12:50:00,METAR EDDM 101250Z AUTO 32006KT 290V360 9999 BKN015 OVC019 10/07 Q1017 NOSIG
2026-04-10 12:20:00,METAR EDDM 101220Z AUTO 32008KT 290V350 9999 BKN014 BKN019 OVC034 09/07 Q1017 BECMG SCT015 BKN020
2026-04-10 11:50:00,METAR EDDM 101150Z AUTO 32007KT 9999 BKN012 BKN017 OVC030 09/07 Q1017 NOSIG
2026-04-10 11:20:00,METAR EDDM 101120Z AUTO 31007KT 260V340 9999 -RA BKN011 BKN016 OVC030 09/08 Q1017 TEMPO BKN009
2026-04-10 10:50:00,METAR EDDM 101050Z AUTO 29007KT 260V330 9999 -SHRA BKN010 BKN015 OVC027 FEW///TCU 09/08 Q1016 RESHRA TEMPO BKN009
2026-04-10 10:20:00,METAR EDDM 101020Z AUTO 29008KT 9999 SHRA BKN015 BKN022 OVC044 FEW///TCU 09/08 Q1016 BECMG NSW
2026-04-10 09:50:00,METAR EDDM 100950Z AUTO 32004KT 280V340 9000 4000 SHRA BR SCT022 BKN028 BKN033 FEW///TCU 09/08 Q1016 BECMG NSW
2026-04-10 09:20:00,METAR EDDM 100920Z AUTO 32005KT 290V350 8000 RA SCT032 BKN042 09/07 Q1016 TEMPO 2500 TSRA SCT035CB
2026-04-10 08:50:00,METAR EDDM 100850Z AUTO 27006KT 220V320 9999 -RA NSC 09/07 Q1015 TEMPO 2500 TSRA SCT035CB
2026-04-10 08:20:00,METAR EDDM 100820Z AUTO 20004KT 170V230 9999 FEW031 09/06 Q1015 TEMPO SHRA SCT035TCU
2026-04-10 07:50:00,METAR EDDM 100750Z AUTO 20008KT 9999 -RA FEW022 08/06 Q1015 RESHRA TEMPO SHRA SCT035TCU
2026-04-10 07:20:00,METAR EDDM 100720Z AUTO 18003KT 150V210 9999 -RA FEW037 07/05 Q1015 TEMPO 24005KT RA
2026-04-10 06:50:00,METAR EDDM 100650Z AUTO 17003KT 110V210 9999 -RA FEW041 07/05 Q1015 TEMPO 24005KT RA
2026-04-10 06:20:00,METAR EDDM 100620Z AUTO VRB02KT 9999 -RA FEW043 08/04 Q1015 TEMPO 24005KT RA
2026-04-10 05:50:00,METAR EDDM 100550Z AUTO VRB02KT CAVOK 08/04 Q1015 TEMPO 24005KT RA
2026-04-10 05:20:00,METAR EDDM 100520Z AUTO 04003KT 9999 -RA FEW030 08/03 Q1015 BECMG 24005KT
2026-04-10 04:50:00,METAR EDDM 100450Z AUTO VRB04KT 9999 FEW031 07/03 Q1014 BECMG 24005KT
2026-04-10 04:20:00,METAR EDDM 100420Z AUTO 11003KT 070V140 9999 -RA NSC 08/02 Q1014 BECMG 24005KT
2026-04-10 03:50:00,METAR EDDM 100350Z AUTO 18003KT 150V210 CAVOK 07/03 Q1015 NOSIG
2026-04-10 03:20:00,METAR EDDM 100320Z AUTO VRB01KT CAVOK 07/03 Q1015 NOSIG
2026-04-10 02:50:00,METAR EDDM 100250Z AUTO 11004KT CAVOK 07/03 Q1015 NOSIG
2026-04-10 02:20:00,METAR EDDM 100220Z AUTO VRB01KT CAVOK 06/03 Q1015 NOSIG
2026-04-10 01:50:00,METAR EDDM 100150Z AUTO 19002KT CAVOK 06/03 Q1015 NOSIG
2026-04-10 01:20:00,METAR EDDM 100120Z AUTO VRB02KT CAVOK 07/02 Q1015 NOSIG
2026-04-10 00:50:00,METAR EDDM 100050Z AUTO 11001KT CAVOK 06/03 Q1015 NOSIG
2026-04-10 00:20:00,METAR EDDM 100020Z AUTO 02003KT 300V040 CAVOK 07/03 Q1016 NOSIG
2026-04-09 23:50:00,METAR EDDM 092350Z AUTO VRB02KT CAVOK 07/01 Q1016 NOSIG
2026-04-09 23:20:00,METAR EDDM 092320Z AUTO 21002KT CAVOK 06/01 Q1016 NOSIG
2026-04-09 22:50:00,METAR EDDM 092250Z AUTO VRB02KT CAVOK 07/02 Q1016 NOSIG
2026-04-09 22:20:00,METAR EDDM 092220Z AUTO VRB02KT CAVOK 07/02 Q1016 NOSIG
2026-04-09 21:50:00,METAR EDDM 092150Z AUTO VRB02KT CAVOK 07/02 Q1017 NOSIG
2026-04-09 21:20:00,METAR EDDM 092120Z AUTO VRB02KT CAVOK 08/02 Q1017 NOSIG
2026-04-09 20:50:00,METAR EDDM 092050Z AUTO 04001KT CAVOK 09/01 Q1017 NOSIG
2026-04-09 20:20:00,METAR EDDM 092020Z AUTO VRB01KT CAVOK 10/01 Q1017 NOSIG
2026-04-09 19:50:00,METAR EDDM 091950Z AUTO 16002KT CAVOK 10/00 Q1017 NOSIG
2026-04-09 19:20:00,METAR EDDM 091920Z AUTO 13004KT CAVOK 09/00 Q1017 NOSIG
2026-04-09 18:50:00,METAR EDDM 091850Z AUTO 11004KT CAVOK 10/00 Q1017 NOSIG
2026-04-09 18:20:00,METAR EDDM 091820Z AUTO 07004KT CAVOK 10/00 Q1017 NOSIG
2026-04-09 17:50:00,METAR EDDM 091750Z AUTO VRB02KT CAVOK 10/02 Q1017 NOSIG
2026-04-09 17:20:00,METAR EDDM 091720Z AUTO VRB02KT CAVOK 13/M00 Q1017 NOSIG
2026-04-09 16:50:00,METAR EDDM 091650Z AUTO 06002KT CAVOK 14/M01 Q1017 NOSIG
2026-04-09 16:20:00,METAR EDDM 091620Z AUTO 02003KT 340V050 CAVOK 14/M01 Q1017 NOSIG
2026-04-09 15:50:00,METAR EDDM 091550Z AUTO 01003KT 330V040 CAVOK 14/M01 Q1018 NOSIG
2026-04-09 15:20:00,METAR EDDM 091520Z AUTO VRB03KT CAVOK 15/00 Q1018 NOSIG
2026-04-09 14:50:00,METAR EDDM 091450Z AUTO 06003KT 350V140 CAVOK 15/M00 Q1018 NOSIG
2026-04-09 14:20:00,METAR EDDM 091420Z AUTO 09004KT 030V170 CAVOK 15/01 Q1019 NOSIG
2026-04-09 13:50:00,METAR EDDM 091350Z AUTO VRB04KT CAVOK 15/M01 Q1019 NOSIG
2026-04-09 13:20:00,METAR EDDM 091320Z AUTO VRB02KT CAVOK 15/M00 Q1019 NOSIG
2026-04-09 12:50:00,METAR EDDM 091250Z AUTO VRB04KT CAVOK 15/M00 Q1019 NOSIG
2026-04-09 12:20:00,METAR EDDM 091220Z AUTO VRB02KT CAVOK 15/M00 Q1019 NOSIG
2026-04-09 11:50:00,METAR EDDM 091150Z AUTO VRB04KT CAVOK 14/M02 Q1020 NOSIG
2026-04-09 11:20:00,METAR EDDM 091120Z AUTO VRB05KT CAVOK 14/01 Q1020 NOSIG
2026-04-09 10:50:00,METAR EDDM 091050Z AUTO 08005KT 020V160 CAVOK 13/00 Q1021 NOSIG
2026-04-09 10:20:00,METAR EDDM 091020Z AUTO 09006KT 040V140 CAVOK 12/01 Q1021 NOSIG
2026-04-09 09:50:00,METAR EDDM 090950Z AUTO 05006KT 020V090 CAVOK 11/00 Q1021 NOSIG
2026-04-09 09:20:00,METAR EDDM 090920Z AUTO 06005KT 010V110 CAVOK 10/00 Q1022 NOSIG
2026-04-09 08:50:00,METAR EDDM 090850Z AUTO 09005KT 040V130 CAVOK 10/00 Q1022 NOSIG
2026-04-09 08:20:00,METAR EDDM 090820Z AUTO 09005KT 060V140 CAVOK 09/00 Q1022 NOSIG
2026-04-09 07:50:00,METAR EDDM 090750Z AUTO 10005KT 070V130 CAVOK 07/M00 Q1022 NOSIG
2026-04-09 07:20:00,METAR EDDM 090720Z AUTO 09006KT 050V120 CAVOK 06/M00 Q1022 NOSIG
2026-04-09 06:50:00,METAR EDDM 090650Z AUTO 07004KT 040V100 CAVOK 05/M01 Q1022 NOSIG
2026-04-09 06:20:00,METAR EDDM 090620Z AUTO 05003KT CAVOK 03/M00 Q1022 NOSIG
2026-04-09 05:50:00,METAR EDDM 090550Z AUTO 06003KT CAVOK 00/M02 Q1022 NOSIG
2026-04-09 05:20:00,METAR EDDM 090520Z AUTO 07001KT CAVOK M01/M03 Q1022 NOSIG
2026-04-09 04:50:00,METAR EDDM 090450Z AUTO 07002KT CAVOK M01/M03 Q1022 NOSIG
2026-04-09 04:20:00,METAR EDDM 090420Z AUTO VRB01KT CAVOK M01/M03 Q1022 NOSIG
2026-04-09 03:50:00,METAR EDDM 090350Z AUTO VRB02KT CAVOK M01/M04 Q1022 NOSIG
2026-04-09 03:20:00,METAR EDDM 090320Z AUTO 00000KT CAVOK M02/M04 Q1022 NOSIG
2026-04-09 02:50:00,METAR EDDM 090250Z AUTO VRB01KT CAVOK M01/M04 Q1022 NOSIG
2026-04-09 02:20:00,METAR EDDM 090220Z AUTO VRB02KT CAVOK M01/M04 Q1022 NOSIG
2026-04-09 01:50:00,METAR EDDM 090150Z AUTO 05003KT CAVOK 00/M03 Q1022 NOSIG
2026-04-09 01:20:00,METAR EDDM 090120Z AUTO 04002KT CAVOK 00/M03 Q1023 NOSIG
2026-04-09 00:50:00,METAR EDDM 090050Z AUTO 00000KT CAVOK M00/M03 Q1023 NOSIG
2026-04-09 00:20:00,METAR EDDM 090020Z AUTO VRB01KT CAVOK M00/M03 Q1023 NOSIG
2026-04-08 23:50:00,METAR EDDM 082350Z AUTO VRB01KT CAVOK M00/M03 Q1023 NOSIG
2026-04-08 23:20:00,METAR EDDM 082320Z AUTO 03002KT CAVOK 01/M02 Q1023 NOSIG
2026-04-08 22:50:00,METAR EDDM 082250Z AUTO 01002KT CAVOK 01/M02 Q1023 NOSIG
2026-04-08 22:20:00,METAR EDDM 082220Z AUTO VRB01KT CAVOK 01/M03 Q1023 NOSIG
2026-04-08 21:50:00,METAR EDDM 082150Z AUTO VRB01KT CAVOK 03/M03 Q1023 NOSIG
2026-04-08 21:20:00,METAR EDDM 082120Z AUTO 08002KT CAVOK 03/M02 Q1024 NOSIG
2026-04-08 20:50:00,METAR EDDM 082050Z AUTO 09003KT CAVOK 04/M02 Q1024 NOSIG
2026-04-08 20:20:00,METAR EDDM 082020Z AUTO 09003KT CAVOK 06/M02 Q1024 NOSIG
2026-04-08 19:50:00,METAR EDDM 081950Z AUTO 11002KT CAVOK 05/M02 Q1024 NOSIG
2026-04-08 19:20:00,METAR EDDM 081920Z AUTO 08002KT CAVOK 06/M02 Q1024 NOSIG
2026-04-08 18:50:00,METAR EDDM 081850Z AUTO 07003KT CAVOK 09/M04 Q1024 NOSIG
2026-04-08 18:20:00,METAR EDDM 081820Z AUTO 06003KT CAVOK 11/M04 Q1023 NOSIG
2026-04-08 17:50:00,METAR EDDM 081750Z AUTO 05005KT CAVOK 12/M03 Q1023 NOSIG
2026-04-08 17:20:00,METAR EDDM 081720Z AUTO 04005KT CAVOK 14/M03 Q1023 NOSIG
2026-04-08 16:50:00,METAR EDDM 081650Z AUTO 03005KT CAVOK 15/M02 Q1023 NOSIG
2026-04-08 16:20:00,METAR EDDM 081620Z AUTO 02005KT 330V070 CAVOK 16/M04 Q1023 NOSIG
2026-04-08 15:50:00,METAR EDDM 081550Z AUTO 05003KT 340V080 CAVOK 16/M04 Q1023 NOSIG
2026-04-08 15:20:00,METAR EDDM 081520Z AUTO 04005KT 350V080 CAVOK 16/M04 Q1023 NOSIG
2026-04-08 14:50:00,METAR EDDM 081450Z AUTO 02007KT 340V070 CAVOK 16/M04 Q1023 NOSIG
2026-04-08 14:20:00,METAR EDDM 081420Z AUTO VRB05KT CAVOK 16/M04 Q1023 NOSIG
2026-04-08 13:50:00,METAR EDDM 081350Z AUTO 36005KT 310V100 CAVOK 16/M03 Q1024 NOSIG
2026-04-08 13:20:00,METAR EDDM 081320Z COR AUTO 07004KT CAVOK 16/M04 Q1024 NOSIG
2026-04-08 12:50:00,METAR EDDM 081250Z AUTO 08005KT 010V140 CAVOK 15/M04 Q1024 BECMG 07005KT
2026-04-08 12:20:00,METAR EDDM 081220Z AUTO VRB06KT CAVOK 15/M00 Q1025 BECMG 07005KT
2026-04-08 11:50:00,METAR EDDM 081150Z AUTO VRB04KT CAVOK 15/M03 Q1025 BECMG 07005KT
2026-04-08 11:20:00,METAR EDDM 081120Z AUTO 07005KT 030V110 CAVOK 14/M01 Q1025 NOSIG
2026-04-08 10:50:00,METAR EDDM 081050Z AUTO 07006KT 010V100 CAVOK 13/M01 Q1025 NOSIG
2026-04-08 10:20:00,METAR EDDM 081020Z AUTO 09007KT 050V130 CAVOK 13/M00 Q1026 NOSIG
2026-04-08 09:50:00,METAR EDDM 080950Z AUTO 06008KT 030V100 CAVOK 12/M00 Q1026 NOSIG
2026-04-08 09:20:00,METAR EDDM 080920Z AUTO 07009KT 030V120 CAVOK 11/00 Q1026 NOSIG
2026-04-08 08:50:00,METAR EDDM 080850Z AUTO 09009KT 050V120 CAVOK 10/M01 Q1026 NOSIG
2026-04-08 08:20:00,METAR EDDM 080820Z AUTO 09010KT 050V120 CAVOK 10/M01 Q1026 NOSIG
2026-04-08 07:50:00,METAR EDDM 080750Z AUTO 09009KT CAVOK 09/M00 Q1026 NOSIG
2026-04-08 07:20:00,METAR EDDM 080720Z AUTO 09009KT CAVOK 08/M01 Q1026 NOSIG
2026-04-08 06:50:00,METAR EDDM 080650Z AUTO 09011KT CAVOK 07/M01 Q1026 NOSIG
2026-04-08 06:20:00,METAR EDDM 080620Z AUTO 06005KT CAVOK 06/M02 Q1026 NOSIG
2026-04-08 05:50:00,METAR EDDM 080550Z AUTO 05005KT CAVOK 04/M02 Q1026 NOSIG
2026-04-08 05:20:00,METAR EDDM 080520Z AUTO 05004KT CAVOK 03/M03 Q1026 NOSIG
2026-04-08 04:50:00,METAR EDDM 080450Z AUTO 05004KT CAVOK 03/M03 Q1026 NOSIG
2026-04-08 04:20:00,METAR EDDM 080420Z AUTO 05005KT CAVOK 03/M04 Q1025 NOSIG
2026-04-08 03:50:00,METAR EDDM 080350Z AUTO 04004KT CAVOK 03/M03 Q1025 NOSIG
2026-04-08 03:20:00,METAR EDDM 080320Z AUTO 04004KT CAVOK 03/M04 Q1025 NOSIG
2026-04-08 02:50:00,METAR EDDM 080250Z AUTO 04004KT CAVOK 03/M04 Q1025 NOSIG
2026-04-08 02:20:00,METAR EDDM 080220Z AUTO 03003KT CAVOK 03/M03 Q1025 NOSIG
2026-04-08 01:50:00,METAR EDDM 080150Z AUTO 02004KT CAVOK 04/M03 Q1025 NOSIG
2026-04-08 01:20:00,METAR EDDM 080120Z AUTO 03005KT CAVOK 05/M03 Q1025 NOSIG
2026-04-08 00:50:00,METAR EDDM 080050Z AUTO 03004KT CAVOK 05/M02 Q1025 NOSIG
2026-04-08 00:20:00,METAR EDDM 080020Z AUTO 03004KT CAVOK 06/M02 Q1025 NOSIG
2026-04-07 23:50:00,METAR EDDM 072350Z AUTO 04005KT CAVOK 06/M01 Q1025 NOSIG
2026-04-07 23:20:00,METAR EDDM 072320Z AUTO 03005KT CAVOK 06/M01 Q1025 NOSIG
2026-04-07 22:50:00,METAR EDDM 072250Z AUTO 03004KT CAVOK 06/00 Q1025 NOSIG
2026-04-07 22:20:00,METAR EDDM 072220Z AUTO 03002KT CAVOK 06/00 Q1025 NOSIG
2026-04-07 21:50:00,METAR EDDM 072150Z AUTO 02004KT CAVOK 07/00 Q1025 NOSIG
2026-04-07 21:20:00,METAR EDDM 072120Z AUTO 03005KT CAVOK 09/01 Q1025 NOSIG
2026-04-07 20:50:00,METAR EDDM 072050Z AUTO VRB02KT CAVOK 07/01 Q1024 NOSIG
2026-04-07 20:20:00,METAR EDDM 072020Z AUTO 03003KT CAVOK 09/01 Q1024 NOSIG
2026-04-07 19:50:00,METAR EDDM 071950Z AUTO 02003KT CAVOK 11/01 Q1024 NOSIG
2026-04-07 19:20:00,METAR EDDM 071920Z AUTO 03005KT CAVOK 12/01 Q1024 NOSIG
2026-04-07 18:50:00,METAR EDDM 071850Z AUTO 36003KT CAVOK 13/01 Q1023 NOSIG
2026-04-07 18:20:00,METAR EDDM 071820Z AUTO 36003KT CAVOK 14/01 Q1023 NOSIG
2026-04-07 17:50:00,METAR EDDM 071750Z AUTO 35004KT CAVOK 15/01 Q1023 NOSIG
2026-04-07 17:20:00,METAR EDDM 071720Z AUTO 33003KT CAVOK 17/01 Q1022 NOSIG
2026-04-07 16:50:00,METAR EDDM 071650Z AUTO 33005KT CAVOK 17/02 Q1022 NOSIG
2026-04-07 16:20:00,METAR EDDM 071620Z AUTO 33007KT 300V360 CAVOK 17/01 Q1022 NOSIG
2026-04-07 15:50:00,METAR EDDM 071550Z AUTO 33005KT 270V360 CAVOK 18/02 Q1022 NOSIG
2026-04-07 15:20:00,METAR EDDM 071520Z AUTO 34006KT 300V030 CAVOK 18/02 Q1022 NOSIG
2026-04-07 14:50:00,METAR EDDM 071450Z AUTO 33006KT 270V020 CAVOK 18/04 Q1022 NOSIG
2026-04-07 14:20:00,METAR EDDM 071420Z AUTO 35007KT 310V030 CAVOK 18/03 Q1023 NOSIG
2026-04-07 13:50:00,METAR EDDM 071350Z AUTO 33008KT 290V350 CAVOK 18/04 Q1023 NOSIG
2026-04-07 13:20:00,METAR EDDM 071320Z AUTO VRB03KT CAVOK 18/04 Q1023 BECMG 36005KT
2026-04-07 12:50:00,METAR EDDM 071250Z AUTO VRB04KT CAVOK 18/04 Q1023 BECMG 36005KT
2026-04-07 12:20:00,METAR EDDM 071220Z AUTO VRB04KT CAVOK 17/05 Q1024 BECMG 36005KT
2026-04-07 11:50:00,METAR EDDM 071150Z AUTO VRB05KT CAVOK 17/04 Q1024 BECMG 33005KT
2026-04-07 11:20:00,METAR EDDM 071120Z AUTO VRB03KT CAVOK 16/03 Q1024 BECMG 33005KT
2026-04-07 10:50:00,METAR EDDM 071050Z AUTO 03004KT 300V100 CAVOK 16/04 Q1025 BECMG 33005KT
2026-04-07 10:20:00,METAR EDDM 071020Z AUTO 04003KT 320V120 CAVOK 15/05 Q1025 NOSIG
2026-04-07 09:50:00,METAR EDDM 070950Z AUTO VRB03KT CAVOK 15/03 Q1025 NOSIG
2026-04-07 09:20:00,METAR EDDM 070920Z AUTO VRB02KT CAVOK 14/02 Q1025 NOSIG
2026-04-07 08:50:00,METAR EDDM 070850Z COR AUTO 06004KT 010V130 CAVOK 13/02 Q1025 NOSIG
2026-04-07 08:20:00,METAR EDDM 070820Z AUTO 11004KT 040V150 CAVOK 12/02 Q1025 BECMG 05005KT
2026-04-07 07:50:00,METAR EDDM 070750Z AUTO VRB02KT CAVOK 11/02 Q1025 BECMG 06005KT
2026-04-07 07:20:00,METAR EDDM 070720Z AUTO VRB02KT CAVOK 10/03 Q1025 BECMG 06005KT
2026-04-07 06:50:00,METAR EDDM 070650Z AUTO VRB02KT CAVOK 08/03 Q1025 NOSIG
2026-04-07 06:20:00,METAR EDDM 070620Z AUTO VRB02KT CAVOK 06/03 Q1025 NOSIG
2026-04-07 05:50:00,METAR EDDM 070550Z AUTO VRB01KT CAVOK 04/03 Q1025 NOSIG
2026-04-07 05:20:00,METAR EDDM 070520Z AUTO 10001KT CAVOK 01/00 Q1025 NOSIG
2026-04-07 04:50:00,METAR EDDM 070450Z AUTO 03001KT CAVOK 01/01 Q1025 NOSIG
2026-04-07 04:20:00,METAR EDDM 070420Z AUTO 06001KT CAVOK 01/00 Q1025 NOSIG
2026-04-07 03:50:00,METAR EDDM 070350Z AUTO 16001KT 9999 BKN046 02/01 Q1025 NOSIG
2026-04-07 03:20:00,METAR EDDM 070320Z AUTO 02001KT 9999 BKN048 02/01 Q1025 NOSIG
2026-04-07 02:50:00,METAR EDDM 070250Z AUTO 00000KT 9999 SCT049 02/01 Q1025 NOSIG
2026-04-07 02:20:00,METAR EDDM 070220Z AUTO 14001KT CAVOK 02/01 Q1025 NOSIG
2026-04-07 01:50:00,METAR EDDM 070150Z AUTO 20001KT CAVOK 02/01 Q1025 NOSIG
2026-04-07 01:20:00,METAR EDDM 070120Z AUTO 33001KT CAVOK 03/02 Q1025 NOSIG
2026-04-07 00:50:00,METAR EDDM 070050Z AUTO 35002KT CAVOK 03/02 Q1025 NOSIG
2026-04-07 00:20:00,METAR EDDM 070020Z AUTO 32001KT CAVOK 03/01 Q1025 NOSIG
2026-04-06 23:50:00,METAR EDDM 062350Z AUTO 18002KT CAVOK 03/02 Q1026 NOSIG
2026-04-06 23:20:00,METAR EDDM 062320Z AUTO VRB01KT CAVOK 04/02 Q1026 NOSIG
2026-04-06 22:50:00,METAR EDDM 062250Z AUTO 28001KT CAVOK 04/02 Q1026 NOSIG
2026-04-06 22:20:00,METAR EDDM 062220Z AUTO VRB02KT CAVOK 05/03 Q1025 NOSIG
2026-04-06 21:50:00,METAR EDDM 062150Z AUTO 36002KT CAVOK 06/03 Q1026 NOSIG
2026-04-06 21:20:00,METAR EDDM 062120Z AUTO 03001KT CAVOK 07/03 Q1025 NOSIG
2026-04-06 20:50:00,METAR EDDM 062050Z AUTO VRB01KT CAVOK 08/03 Q1025 NOSIG
2026-04-06 20:20:00,METAR EDDM 062020Z AUTO 35002KT CAVOK 09/03 Q1025 NOSIG
2026-04-06 19:50:00,METAR EDDM 061950Z AUTO 34001KT CAVOK 08/03 Q1025 NOSIG
2026-04-06 19:20:00,METAR EDDM 061920Z AUTO VRB01KT CAVOK 10/03 Q1025 NOSIG
2026-04-06 18:50:00,METAR EDDM 061850Z AUTO 36002KT CAVOK 12/03 Q1025 NOSIG
2026-04-06 18:20:00,METAR EDDM 061820Z AUTO 35002KT CAVOK 12/04 Q1025 NOSIG
2026-04-06 17:50:00,METAR EDDM 061750Z AUTO 33003KT CAVOK 14/03 Q1025 NOSIG
2026-04-06 17:20:00,METAR EDDM 061720Z AUTO 32004KT 290V350 CAVOK 15/03 Q1025 NOSIG
2026-04-06 16:50:00,METAR EDDM 061650Z AUTO 32006KT 280V360 CAVOK 16/03 Q1025 NOSIG
2026-04-06 16:20:00,METAR EDDM 061620Z AUTO 27005KT 240V350 CAVOK 16/04 Q1025 NOSIG
2026-04-06 15:50:00,METAR EDDM 061550Z AUTO 27007KT 240V310 CAVOK 16/04 Q1025 NOSIG
2026-04-06 14:50:00,METAR EDDM 061450Z AUTO 28009KT 240V310 CAVOK 16/05 Q1025 NOSIG
2026-04-06 14:20:00,METAR EDDM 061420Z AUTO 29007KT 240V320 CAVOK 16/04 Q1026 NOSIG
2026-04-06 13:50:00,METAR EDDM 061350Z AUTO 30007KT 250V350 9999 FEW047 16/04 Q1026 NOSIG
2026-04-06 13:20:00,METAR EDDM 061320Z AUTO 28008KT 230V020 9999 FEW047 16/05 Q1026 NOSIG
2026-04-06 12:50:00,METAR EDDM 061250Z AUTO 27009KT 230V320 9999 FEW046 15/04 Q1026 NOSIG
2026-04-06 12:20:00,METAR EDDM 061220Z AUTO 26008KT 180V300 9999 FEW045 15/04 Q1027 NOSIG
2026-04-06 11:50:00,METAR EDDM 061150Z AUTO 29011KT 260V320 9999 FEW045 15/05 Q1027 NOSIG
2026-04-06 11:20:00,METAR EDDM 061120Z AUTO 31008KT 210V350 9999 FEW044 14/04 Q1027 NOSIG
2026-04-06 10:50:00,METAR EDDM 061050Z AUTO 31007KT 230V350 CAVOK 14/04 Q1027 NOSIG
2026-04-06 10:20:00,METAR EDDM 061020Z AUTO 35007KT 310V040 CAVOK 14/04 Q1028 NOSIG
2026-04-06 09:50:00,METAR EDDM 060950Z AUTO 29007KT 240V320 CAVOK 13/04 Q1028 NOSIG
2026-04-06 09:20:00,METAR EDDM 060920Z AUTO 30006KT 220V020 CAVOK 12/04 Q1028 NOSIG
2026-04-06 08:50:00,METAR EDDM 060850Z AUTO 26005KT 180V300 CAVOK 12/04 Q1028 NOSIG
2026-04-06 08:20:00,METAR EDDM 060820Z AUTO VRB03KT CAVOK 11/04 Q1028 NOSIG
2026-04-06 07:50:00,METAR EDDM 060750Z AUTO 02003KT 340V100 CAVOK 11/05 Q1027 NOSIG
2026-04-06 07:20:00,METAR EDDM 060720Z AUTO 34005KT 310V010 CAVOK 10/04 Q1027 NOSIG
2026-04-06 06:50:00,METAR EDDM 060650Z AUTO 34005KT 310V010 9999 FEW047 10/04 Q1027 NOSIG
2026-04-06 06:20:00,METAR EDDM 060620Z AUTO 33005KT 300V360 CAVOK 10/05 Q1027 NOSIG
2026-04-06 05:50:00,METAR EDDM 060550Z AUTO 31005KT 9999 SCT047 10/04 Q1027 NOSIG
2026-04-06 05:20:00,METAR EDDM 060520Z AUTO 32005KT 9999 FEW046 09/05 Q1026 NOSIG
2026-04-06 04:50:00,METAR EDDM 060450Z AUTO 32006KT 9999 SCT049 10/05 Q1026 NOSIG
2026-04-06 04:20:00,METAR EDDM 060420Z AUTO 33004KT 310V020 9999 FEW028 BKN043 BKN049 10/06 Q1026 NOSIG
2026-04-06 03:50:00,METAR EDDM 060350Z AUTO 29003KT 9999 FEW029 OVC042 10/06 Q1026 NOSIG
2026-04-06 03:20:00,METAR EDDM 060320Z AUTO 27004KT 9999 BKN039 10/06 Q1025 NOSIG
2026-04-06 02:50:00,METAR EDDM 060250Z AUTO 27005KT CAVOK 09/06 Q1025 NOSIG
2026-04-06 02:20:00,METAR EDDM 060220Z AUTO 26005KT CAVOK 09/06 Q1025 NOSIG
2026-04-06 01:50:00,METAR EDDM 060150Z AUTO 27005KT CAVOK 09/06 Q1025 NOSIG
2026-04-06 01:20:00,METAR EDDM 060120Z AUTO 27008KT CAVOK 10/06 Q1025 NOSIG
2026-04-06 00:50:00,METAR EDDM 060050Z AUTO 27006KT CAVOK 11/06 Q1025 NOSIG
2026-04-06 00:20:00,METAR EDDM 060020Z AUTO 28007KT CAVOK 11/06 Q1024 NOSIG
2026-04-05 23:50:00,METAR EDDM 052350Z AUTO 26008KT CAVOK 11/08 Q1024 NOSIG
2026-04-05 23:20:00,METAR EDDM 052320Z AUTO 25007KT CAVOK 11/08 Q1024 NOSIG
2026-04-05 22:50:00,METAR EDDM 052250Z AUTO 26006KT CAVOK 12/08 Q1024 RESHRA NOSIG
2026-04-05 22:20:00,METAR EDDM 052220Z AUTO 29007KT 9999 SHRA FEW032 FEW///CB 13/08 Q1024 BECMG NSW
2026-04-05 21:50:00,METAR EDDM 052150Z AUTO 30011KT CAVOK 14/07 Q1023 NOSIG
2026-04-05 21:20:00,METAR EDDM 052120Z AUTO 27008KT CAVOK 13/08 Q1022 NOSIG
2026-04-05 20:50:00,METAR EDDM 052050Z AUTO 27005KT 240V300 CAVOK 12/07 Q1021 NOSIG
2026-04-05 20:20:00,METAR EDDM 052020Z AUTO 28006KT CAVOK 13/07 Q1021 TEMPO 29013KT SHRA BKN040TCU
2026-04-05 19:50:00,METAR EDDM 051950Z AUTO 28006KT CAVOK 13/07 Q1021 TEMPO 29013KT SHRA BKN040TCU
2026-04-05 19:20:00,METAR EDDM 051920Z AUTO 27005KT 230V290 9999 VCSH FEW///CB 12/08 Q1020 TEMPO 29013KT SHRA
2026-04-05 18:50:00,METAR EDDM 051850Z AUTO 29005KT CAVOK 15/09 Q1020 NOSIG
2026-04-05 18:20:00,METAR EDDM 051820Z AUTO 29006KT CAVOK 15/08 Q1019 NOSIG
2026-04-05 17:50:00,METAR EDDM 051750Z AUTO 26007KT CAVOK 14/09 Q1019 RETSRA NOSIG
2026-04-05 17:20:00,METAR EDDM 051720Z AUTO 27007KT 9999 TSRA BKN///CB 15/10 Q1020 TEMPO TSRA
2026-04-05 16:50:00,METAR EDDM 051650Z AUTO 26014G25KT 220V310 9999 +TSRA FEW042 BKN///CB 17/08 Q1020 BECMG NSW
2026-04-05 16:20:00,METAR EDDM 051620Z AUTO 29014G26KT 260V330 9999 TSRA BKN///CB 19/08 Q1019 TEMPO 28020G30KT TSRA SCT045CB
2026-04-05 15:50:00,METAR EDDM 051550Z AUTO 26020KT CAVOK 21/06 Q1018 TEMPO 28020G30KT TSRA SCT045CB
2026-04-05 15:20:00,METAR EDDM 051520Z AUTO 26020KT CAVOK 22/06 Q1018 TEMPO SHRA SCT045CB
2026-04-05 14:50:00,METAR EDDM 051450Z AUTO 25024KT CAVOK 22/06 Q1019 BECMG 27015G25KT
2026-04-05 14:20:00,METAR EDDM 051420Z AUTO 26023KT CAVOK 23/06 Q1019 TEMPO 26025G35KT
2026-04-05 12:50:00,METAR EDDM 051250Z AUTO 25025KT CAVOK 23/06 Q1019 NOSIG
2026-04-05 12:20:00,METAR EDDM 051220Z AUTO 26019G29KT 230V290 CAVOK 23/07 Q1019 NOSIG
2026-04-05 11:50:00,METAR EDDM 051150Z AUTO 26021KT CAVOK 22/07 Q1019 TEMPO 26020G30KT
2026-04-05 11:20:00,METAR EDDM 051120Z AUTO 27019KT CAVOK 23/08 Q1019 BECMG 26015G25KT
2026-04-05 10:50:00,METAR EDDM 051050Z AUTO 26020KT CAVOK 22/07 Q1020 BECMG 26015G25KT
2026-04-05 10:20:00,METAR EDDM 051020Z AUTO 25019KT CAVOK 22/08 Q1020 BECMG 26015G25KT
2026-04-05 09:50:00,METAR EDDM 050950Z AUTO 25019KT CAVOK 21/07 Q1020 BECMG 26015G25KT
2026-04-05 09:20:00,METAR EDDM 050920Z AUTO 25017KT CAVOK 20/07 Q1020 BECMG 26015G25KT
2026-04-05 08:50:00,METAR EDDM 050850Z AUTO 25010KT CAVOK 18/07 Q1020 BECMG 22015G25KT
2026-04-05 08:20:00,METAR EDDM 050820Z AUTO 22008KT CAVOK 16/07 Q1020 BECMG 20012KT
2026-04-05 07:50:00,METAR EDDM 050750Z AUTO 20007KT CAVOK 13/07 Q1020 BECMG 20012KT
2026-04-05 07:20:00,METAR EDDM 050720Z AUTO 21004KT 160V260 CAVOK 12/06 Q1021 BECMG 20009KT
2026-04-05 06:50:00,METAR EDDM 050650Z AUTO 19003KT 140V250 CAVOK 10/05 Q1021 NOSIG
2026-04-05 06:20:00,METAR EDDM 050620Z AUTO 20004KT 170V230 CAVOK 08/05 Q1021 NOSIG
2026-04-05 05:50:00,METAR EDDM 050550Z AUTO 19003KT 160V230 CAVOK 08/04 Q1021 NOSIG
2026-04-05 05:20:00,METAR EDDM 050520Z AUTO 20004KT CAVOK 04/02 Q1021 NOSIG
2026-04-05 04:50:00,METAR EDDM 050450Z AUTO 21003KT 180V260 CAVOK 06/04 Q1020 NOSIG
2026-04-05 04:20:00,METAR EDDM 050420Z AUTO 17002KT CAVOK 04/04 Q1021 NOSIG
2026-04-05 03:50:00,METAR EDDM 050350Z AUTO 00000KT CAVOK 02/02 Q1021 NOSIG
2026-04-05 03:20:00,METAR EDDM 050320Z AUTO VRB01KT CAVOK 05/04 Q1021 NOSIG
2026-04-05 02:50:00,METAR EDDM 050250Z AUTO 20002KT CAVOK 05/04 Q1021 NOSIG
2026-04-05 02:20:00,METAR EDDM 050220Z AUTO 25003KT CAVOK 06/05 Q1021 NOSIG
2026-04-05 01:50:00,METAR EDDM 050150Z AUTO VRB01KT CAVOK 07/05 Q1021 NOSIG
2026-04-05 01:20:00,METAR EDDM 050120Z AUTO 20006KT CAVOK 07/05 Q1021 NOSIG
2026-04-05 00:50:00,METAR EDDM 050050Z AUTO VRB02KT CAVOK 07/05 Q1022 NOSIG
2026-04-05 00:20:00,METAR EDDM 050020Z AUTO 20004KT 180V290 CAVOK 08/06 Q1022 NOSIG
2026-04-04 23:50:00,METAR EDDM 042350Z AUTO 18008KT CAVOK 09/06 Q1022 NOSIG
2026-04-04 23:20:00,METAR EDDM 042320Z AUTO 19004KT CAVOK 08/06 Q1022 NOSIG
2026-04-04 22:50:00,METAR EDDM 042250Z AUTO 20004KT CAVOK 09/07 Q1022 NOSIG
2026-04-04 22:20:00,METAR EDDM 042220Z AUTO 19007KT CAVOK 09/07 Q1023 NOSIG
2026-04-04 21:50:00,METAR EDDM 042150Z AUTO 19006KT CAVOK 09/07 Q1023 NOSIG
2026-04-04 21:20:00,METAR EDDM 042120Z AUTO 18006KT CAVOK 10/07 Q1023 NOSIG
2026-04-04 20:50:00,METAR EDDM 042050Z AUTO 17004KT CAVOK 10/07 Q1023 NOSIG
2026-04-04 20:20:00,METAR EDDM 042020Z AUTO 18004KT CAVOK 11/08 Q1023 NOSIG
2026-04-04 19:50:00,METAR EDDM 041950Z AUTO 19003KT 160V230 CAVOK 11/08 Q1023 NOSIG
2026-04-04 19:20:00,METAR EDDM 041920Z AUTO 20005KT CAVOK 11/08 Q1023 NOSIG
2026-04-04 18:50:00,METAR EDDM 041850Z AUTO 21004KT CAVOK 12/08 Q1023 NOSIG
2026-04-04 18:20:00,METAR EDDM 041820Z AUTO 24006KT CAVOK 12/08 Q1023 NOSIG
2026-04-04 17:50:00,METAR EDDM 041750Z AUTO 25006KT 9999 FEW029 BKN049 12/08 Q1023 NOSIG
2026-04-04 17:20:00,METAR EDDM 041720Z AUTO 26008KT 9999 SCT035 OVC046 13/08 Q1023 NOSIG
2026-04-04 16:50:00,METAR EDDM 041650Z AUTO 26008KT 9999 SCT039 OVC049 13/08 Q1023 NOSIG
2026-04-04 16:20:00,METAR EDDM 041620Z AUTO 26008KT 9999 FEW032 13/08 Q1023 NOSIG
2026-04-04 15:50:00,METAR EDDM 041550Z AUTO 27008KT 9999 FEW029 BKN034 BKN042 13/08 Q1023 NOSIG
2026-04-04 15:20:00,METAR EDDM 041520Z AUTO 26012KT 9999 SCT026 BKN030 OVC047 13/08 Q1023 NOSIG
2026-04-04 14:50:00,METAR EDDM 041450Z AUTO 25013KT 9999 BKN026 BKN033 OVC042 13/08 Q1023 NOSIG
2026-04-04 14:20:00,METAR EDDM 041420Z AUTO 26011KT 9999 BKN028 BKN036 13/08 Q1023 NOSIG
2026-04-04 13:50:00,METAR EDDM 041350Z AUTO 26011KT 9999 BKN029 OVC035 13/08 Q1023 NOSIG
2026-04-04 13:20:00,METAR EDDM 041320Z AUTO 26012KT 9999 BKN027 OVC036 13/07 Q1023 NOSIG
2026-04-04 12:50:00,METAR EDDM 041250Z AUTO 26013KT 9999 OVC026 13/07 Q1023 NOSIG
2026-04-04 12:20:00,METAR EDDM 041220Z AUTO 27012KT 9999 BKN026 OVC032 13/07 Q1023 NOSIG
2026-04-04 11:50:00,METAR EDDM 041150Z AUTO 26012KT 9999 BKN025 OVC031 13/07 Q1023 NOSIG
2026-04-04 11:20:00,METAR EDDM 041120Z AUTO 26015KT 240V300 9999 BKN024 OVC030 12/07 Q1023 NOSIG
2026-04-04 10:50:00,METAR EDDM 041050Z AUTO 25016KT 9999 BKN024 OVC030 12/07 Q1023 NOSIG
2026-04-04 10:20:00,METAR EDDM 041020Z AUTO 25016KT 9999 BKN021 11/07 Q1023 NOSIG
2026-04-04 09:50:00,METAR EDDM 040950Z AUTO 26015KT 9999 OVC021 11/06 Q1023 NOSIG
2026-04-04 09:20:00,METAR EDDM 040920Z AUTO 26015KT 9999 OVC020 10/06 Q1023 NOSIG
2026-04-04 08:50:00,METAR EDDM 040850Z AUTO 25015KT 9999 OVC019 10/07 Q1023 NOSIG
2026-04-04 08:20:00,METAR EDDM 040820Z AUTO 25016KT 9999 BKN020 10/06 Q1022 NOSIG
2026-04-04 07:50:00,METAR EDDM 040750Z AUTO 25015KT 9999 OVC023 09/06 Q1022 NOSIG
2026-04-04 07:20:00,METAR EDDM 040720Z AUTO 25016KT 9999 OVC025 09/06 Q1022 NOSIG
2026-04-04 06:50:00,METAR EDDM 040650Z AUTO 25016KT 9999 OVC026 08/06 Q1022 NOSIG
2026-04-04 06:20:00,METAR EDDM 040620Z AUTO 25016KT 9999 -RADZ OVC026 08/06 Q1021 TEMPO 25015G25KT RADZ
2026-04-04 05:50:00,METAR EDDM 040550Z AUTO 25014KT 9999 -RA BKN029 08/06 Q1021 TEMPO 25015G25KT RADZ
2026-04-04 05:20:00,METAR EDDM 040520Z AUTO 26012KT 9999 -RA SCT033 08/06 Q1021 TEMPO 25015G25KT RADZ
2026-04-04 04:50:00,METAR EDDM 040450Z AUTO 25012KT 9999 -RA BKN033 08/06 Q1020 TEMPO 25015G25KT RADZ
2026-04-04 04:20:00,METAR EDDM 040420Z AUTO 25014KT 9999 -RA OVC033 08/05 Q1020 TEMPO 25015G25KT RADZ
2026-04-04 03:50:00,METAR EDDM 040350Z AUTO 25014KT 9999 -RADZ FEW028 OVC036 09/05 Q1020 NOSIG
2026-04-04 03:20:00,METAR EDDM 040320Z AUTO 26011KT 9999 -RA OVC036 10/03 Q1020 NOSIG
2026-04-04 02:50:00,METAR EDDM 040250Z AUTO 25011KT 9999 BKN038 OVC047 10/03 Q1020 NOSIG
2026-04-04 02:20:00,METAR EDDM 040220Z AUTO 25013KT 9999 SCT044 10/02 Q1019 NOSIG
2026-04-04 01:50:00,METAR EDDM 040150Z AUTO 24010KT CAVOK 10/02 Q1020 NOSIG
2026-04-04 01:20:00,METAR EDDM 040120Z AUTO 24010KT CAVOK 09/02 Q1019 NOSIG
2026-04-04 00:50:00,METAR EDDM 040050Z AUTO 24009KT CAVOK 09/02 Q1019 NOSIG
2026-04-04 00:20:00,METAR EDDM 040020Z AUTO 24009KT CAVOK 09/02 Q1019 NOSIG
2026-04-03 23:50:00,METAR EDDM 032350Z AUTO 25010KT CAVOK 10/02 Q1019 NOSIG
2026-04-03 23:20:00,METAR EDDM 032320Z AUTO 23009KT CAVOK 10/02 Q1019 NOSIG
2026-04-03 22:50:00,METAR EDDM 032250Z AUTO 24008KT CAVOK 10/02 Q1019 NOSIG
2026-04-03 22:20:00,METAR EDDM 032220Z AUTO 25010KT CAVOK 10/02 Q1019 NOSIG
2026-04-03 21:50:00,METAR EDDM 032150Z AUTO 25010KT CAVOK 10/02 Q1019 NOSIG
2026-04-03 21:20:00,METAR EDDM 032120Z AUTO 25008KT CAVOK 10/02 Q1019 NOSIG
2026-04-03 20:50:00,METAR EDDM 032050Z AUTO 26006KT CAVOK 10/02 Q1019 NOSIG
2026-04-03 20:20:00,METAR EDDM 032020Z AUTO 27007KT CAVOK 11/02 Q1018 NOSIG
2026-04-03 19:50:00,METAR EDDM 031950Z AUTO 24011KT CAVOK 11/02 Q1018 NOSIG
2026-04-03 19:20:00,METAR EDDM 031920Z AUTO 23010KT CAVOK 11/01 Q1018 NOSIG
2026-04-03 18:50:00,METAR EDDM 031850Z AUTO 23010KT CAVOK 11/01 Q1018 NOSIG
2026-04-03 18:20:00,METAR EDDM 031820Z AUTO 24009KT CAVOK 11/01 Q1018 NOSIG
2026-04-03 17:50:00,METAR EDDM 031750Z AUTO 25010KT CAVOK 11/01 Q1018 NOSIG
2026-04-03 17:20:00,METAR EDDM 031720Z AUTO 25010KT CAVOK 11/01 Q1017 NOSIG
2026-04-03 16:50:00,METAR EDDM 031650Z AUTO 26010KT CAVOK 12/01 Q1017 NOSIG
2026-04-03 16:20:00,METAR EDDM 031620Z AUTO 26012KT CAVOK 13/00 Q1017 BECMG 25006KT
2026-04-03 15:50:00,METAR EDDM 031550Z AUTO 25012KT CAVOK 13/M00 Q1017 BECMG 25007KT
2026-04-03 15:20:00,METAR EDDM 031520Z AUTO 25013KT CAVOK 14/00 Q1017 BECMG 25007KT
2026-04-03 14:50:00,METAR EDDM 031450Z AUTO 27007KT 240V300 CAVOK 14/00 Q1017 NOSIG
2026-04-03 14:20:00,METAR EDDM 031420Z AUTO 27009KT CAVOK 13/M00 Q1017 NOSIG
2026-04-03 13:50:00,METAR EDDM 031350Z AUTO 27009KT 240V320 CAVOK 13/00 Q1017 NOSIG
2026-04-03 13:20:00,METAR EDDM 031320Z AUTO 26009KT 220V300 CAVOK 13/M00 Q1018 NOSIG
2026-04-03 12:50:00,METAR EDDM 031250Z AUTO 29007KT 250V320 CAVOK 14/01 Q1018 NOSIG
2026-04-03 12:20:00,METAR EDDM 031220Z AUTO 26009KT 230V310 CAVOK 12/00 Q1018 NOSIG
2026-04-03 11:50:00,METAR EDDM 031150Z AUTO 26010KT 230V290 CAVOK 13/01 Q1018 NOSIG
2026-04-03 11:20:00,METAR EDDM 031120Z AUTO 27008KT 230V320 CAVOK 12/M01 Q1018 NOSIG
2026-04-03 10:50:00,METAR EDDM 031050Z AUTO 26010KT 220V320 CAVOK 12/M00 Q1018 NOSIG
2026-04-03 10:20:00,METAR EDDM 031020Z AUTO 27009KT 230V300 CAVOK 12/M00 Q1018 NOSIG
2026-04-03 09:50:00,METAR EDDM 030950Z AUTO 27007KT 220V320 CAVOK 11/01 Q1019 NOSIG
2026-04-03 09:20:00,METAR EDDM 030920Z AUTO 26008KT 210V310 CAVOK 11/01 Q1019 NOSIG
2026-04-03 08:50:00,METAR EDDM 030850Z AUTO 24005KT 210V300 CAVOK 09/01 Q1019 NOSIG
2026-04-03 08:20:00,METAR EDDM 030820Z AUTO 26005KT 220V290 CAVOK 08/01 Q1019 NOSIG
2026-04-03 07:50:00,METAR EDDM 030750Z AUTO 26007KT CAVOK 07/01 Q1019 NOSIG
2026-04-03 07:20:00,METAR EDDM 030720Z AUTO 24007KT CAVOK 06/01 Q1018 NOSIG
2026-04-03 06:50:00,METAR EDDM 030650Z AUTO 27005KT 230V320 CAVOK 05/01 Q1018 NOSIG
2026-04-03 06:20:00,METAR EDDM 030620Z AUTO 23007KT CAVOK 02/M01 Q1018 NOSIG
2026-04-03 05:50:00,METAR EDDM 030550Z AUTO 23005KT CAVOK 02/M01 Q1018 NOSIG
2026-04-03 05:20:00,METAR EDDM 030520Z AUTO 23004KT 200V270 CAVOK 01/M01 Q1018 NOSIG
2026-04-03 04:50:00,METAR EDDM 030450Z AUTO 24006KT CAVOK 00/M02 Q1017 NOSIG
2026-04-03 04:20:00,METAR EDDM 030420Z AUTO 24005KT CAVOK M00/M02 Q1017 NOSIG
2026-04-03 03:50:00,METAR EDDM 030350Z AUTO 25005KT CAVOK M01/M03 Q1017 NOSIG
2026-04-03 03:20:00,METAR EDDM 030320Z AUTO 25005KT CAVOK M01/M03 Q1017 NOSIG
2026-04-03 02:50:00,METAR EDDM 030250Z AUTO 25006KT CAVOK M01/M03 Q1017 NOSIG
2026-04-03 02:20:00,METAR EDDM 030220Z AUTO 22003KT CAVOK M00/M02 Q1016 NOSIG
2026-04-03 01:50:00,METAR EDDM 030150Z AUTO 24006KT CAVOK M00/M02 Q1016 NOSIG
2026-04-03 01:20:00,METAR EDDM 030120Z AUTO 25007KT CAVOK 00/M02 Q1016 NOSIG
2026-04-03 00:50:00,METAR EDDM 030050Z AUTO 24007KT CAVOK 01/M01 Q1016 NOSIG
2026-04-03 00:20:00,METAR EDDM 030020Z AUTO 25009KT CAVOK 01/M01 Q1016 NOSIG
2026-04-02 23:50:00,METAR EDDM 022350Z AUTO 25008KT CAVOK 02/M01 Q1016 NOSIG
2026-04-02 23:20:00,METAR EDDM 022320Z AUTO 25007KT CAVOK 02/M00 Q1016 NOSIG
2026-04-02 22:50:00,METAR EDDM 022250Z AUTO 26008KT CAVOK 02/M00 Q1016 NOSIG
2026-04-02 22:20:00,METAR EDDM 022220Z AUTO 25008KT CAVOK 03/00 Q1016 NOSIG
2026-04-02 21:50:00,METAR EDDM 022150Z AUTO 25007KT CAVOK 04/00 Q1016 NOSIG
2026-04-02 21:20:00,METAR EDDM 022120Z AUTO 26008KT CAVOK 05/01 Q1016 NOSIG
2026-04-02 20:50:00,METAR EDDM 022050Z AUTO 26009KT CAVOK 06/01 Q1016 NOSIG
2026-04-02 20:20:00,METAR EDDM 022020Z AUTO 25010KT CAVOK 07/01 Q1016 NOSIG
2026-04-02 19:50:00,METAR EDDM 021950Z AUTO 25010KT CAVOK 07/01 Q1016 NOSIG
2026-04-02 19:20:00,METAR EDDM 021920Z AUTO 24011KT CAVOK 07/01 Q1016 NOSIG
2026-04-02 18:50:00,METAR EDDM 021850Z AUTO 24010KT CAVOK 08/00 Q1016 NOSIG
2026-04-02 18:20:00,METAR EDDM 021820Z AUTO 23008KT CAVOK 08/01 Q1015 NOSIG
2026-04-02 17:50:00,METAR EDDM 021750Z AUTO 23008KT 9999 FEW049 08/01 Q1015 NOSIG
2026-04-02 17:20:00,METAR EDDM 021720Z AUTO 25009KT 9999 BKN045 09/01 Q1015 NOSIG
2026-04-02 16:50:00,METAR EDDM 021650Z AUTO 24008KT 9999 BKN046 09/00 Q1014 NOSIG
2026-04-02 16:20:00,METAR EDDM 021620Z AUTO 25008KT 9999 SCT045 09/00 Q1014 NOSIG
2026-04-02 15:50:00,METAR EDDM 021550Z AUTO 25008KT 9999 FEW042 09/00 Q1014 NOSIG
2026-04-02 15:20:00,METAR EDDM 021520Z AUTO 25006KT 210V280 9999 BKN043 09/01 Q1014 NOSIG
2026-04-02 14:50:00,METAR EDDM 021450Z AUTO 25007KT 220V280 9999 BKN043 09/00 Q1014 NOSIG
2026-04-02 14:20:00,METAR EDDM 021420Z AUTO 28005KT 240V330 9999 FEW030 BKN045 09/00 Q1014 NOSIG
2026-04-02 13:50:00,METAR EDDM 021350Z AUTO 34004KT 270V060 9999 OVC042 09/M00 Q1014 NOSIG
2026-04-02 13:20:00,METAR EDDM 021320Z AUTO 27005KT 230V340 9999 OVC040 09/01 Q1015 NOSIG
2026-04-02 12:50:00,METAR EDDM 021250Z AUTO 31006KT 270V350 9999 BKN040 09/01 Q1015 NOSIG
2026-04-02 12:20:00,METAR EDDM 021220Z AUTO 24003KT 180V300 9999 SCT041 09/01 Q1015 NOSIG
2026-04-02 11:50:00,METAR EDDM 021150Z AUTO 28004KT 220V340 9999 BKN041 09/01 Q1015 NOSIG
2026-04-02 11:20:00,METAR EDDM 021120Z AUTO 35005KT 290V040 9999 BKN041 09/M00 Q1015 NOSIG
2026-04-02 10:50:00,METAR EDDM 021050Z AUTO VRB03KT 9999 FEW035 09/M00 Q1015 NOSIG
2026-04-02 10:20:00,METAR EDDM 021020Z AUTO VRB03KT 9999 FEW032 09/00 Q1016 NOSIG
2026-04-02 09:50:00,METAR EDDM 020950Z AUTO VRB03KT 9999 FEW049 08/00 Q1016 NOSIG
2026-04-02 09:20:00,METAR EDDM 020920Z AUTO 13003KT 080V240 CAVOK 08/00 Q1016 NOSIG
2026-04-02 08:50:00,METAR EDDM 020850Z AUTO VRB02KT CAVOK 08/01 Q1016 NOSIG
2026-04-02 08:20:00,METAR EDDM 020820Z AUTO VRB02KT CAVOK 07/01 Q1016 NOSIG
2026-04-02 07:50:00,METAR EDDM 020750Z AUTO VRB02KT CAVOK 06/00 Q1016 NOSIG
2026-04-02 07:20:00,METAR EDDM 020720Z AUTO VRB02KT CAVOK 04/M00 Q1016 NOSIG
2026-04-02 06:50:00,METAR EDDM 020650Z AUTO VRB02KT CAVOK 03/M00 Q1016 NOSIG
2026-04-02 06:20:00,METAR EDDM 020620Z AUTO 34002KT CAVOK 01/M01 Q1016 NOSIG
2026-04-02 05:50:00,METAR EDDM 020550Z AUTO 10001KT CAVOK M00/M01 Q1016 NOSIG
2026-04-02 05:20:00,METAR EDDM 020520Z AUTO 33002KT CAVOK M00/M02 Q1016 NOSIG
2026-04-02 04:50:00,METAR EDDM 020450Z AUTO 33002KT CAVOK M01/M03 Q1016 NOSIG
2026-04-02 04:20:00,METAR EDDM 020420Z AUTO VRB01KT CAVOK M02/M04 Q1016 NOSIG
2026-04-02 03:50:00,METAR EDDM 020350Z AUTO 10001KT CAVOK M03/M04 Q1016 NOSIG
2026-04-02 03:20:00,METAR EDDM 020320Z AUTO 18001KT CAVOK M03/M04 Q1016 NOSIG
2026-04-02 02:50:00,METAR EDDM 020250Z AUTO VRB01KT CAVOK M02/M03 Q1016 NOSIG
2026-04-02 02:20:00,METAR EDDM 020220Z AUTO VRB01KT CAVOK M01/M03 Q1016 NOSIG
2026-04-02 01:50:00,METAR EDDM 020150Z AUTO VRB01KT CAVOK M03/M04 Q1017 NOSIG
2026-04-02 01:20:00,METAR EDDM 020120Z AUTO VRB02KT CAVOK M01/M03 Q1017 NOSIG
2026-04-02 00:50:00,METAR EDDM 020050Z AUTO 01002KT CAVOK M01/M02 Q1017 NOSIG
2026-04-02 00:20:00,METAR EDDM 020020Z AUTO 02002KT CAVOK M00/M03 Q1018 NOSIG
2026-04-01 23:50:00,METAR EDDM 012350Z AUTO 36002KT CAVOK 02/M01 Q1018 NOSIG
2026-04-01 23:20:00,METAR EDDM 012320Z AUTO 02003KT CAVOK 03/M01 Q1018 NOSIG
2026-04-01 22:50:00,METAR EDDM 012250Z AUTO 03004KT CAVOK 04/M01 Q1018 NOSIG
2026-04-01 22:20:00,METAR EDDM 012220Z AUTO 02004KT CAVOK 04/M00 Q1019 NOSIG
2026-04-01 21:50:00,METAR EDDM 012150Z AUTO 01004KT CAVOK 05/M00 Q1019 NOSIG
2026-04-01 21:20:00,METAR EDDM 012120Z AUTO 02005KT CAVOK 05/00 Q1019 NOSIG
2026-04-01 20:50:00,METAR EDDM 012050Z AUTO 02002KT 9999 FEW040 05/01 Q1020 NOSIG
2026-04-01 20:20:00,METAR EDDM 012020Z AUTO 34003KT 9999 FEW043 05/01 Q1020 NOSIG
2026-04-01 19:50:00,METAR EDDM 011950Z AUTO 31002KT 9999 FEW042 05/01 Q1020 NOSIG
2026-04-01 19:20:00,METAR EDDM 011920Z AUTO VRB01KT CAVOK 05/01 Q1020 NOSIG
2026-04-01 18:50:00,METAR EDDM 011850Z AUTO 33002KT CAVOK 06/00 Q1020 NOSIG
2026-04-01 18:20:00,METAR EDDM 011820Z AUTO 29001KT 9999 SCT041 05/00 Q1020 NOSIG
2026-04-01 17:50:00,METAR EDDM 011750Z AUTO VRB01KT 9999 FEW042 06/M00 Q1020 NOSIG
2026-04-01 17:20:00,METAR EDDM 011720Z AUTO 32001KT CAVOK 07/M00 Q1020 NOSIG
2026-04-01 16:50:00,METAR EDDM 011650Z AUTO 36001KT 9999 FEW041 08/M00 Q1020 NOSIG
2026-04-01 16:20:00,METAR EDDM 011620Z AUTO 12003KT 090V150 9999 FEW037 08/M01 Q1020 NOSIG
2026-04-01 15:50:00,METAR EDDM 011550Z AUTO 10003KT 060V150 CAVOK 08/M00 Q1020 NOSIG
2026-04-01 15:20:00,METAR EDDM 011520Z AUTO 09003KT 040V150 CAVOK 08/M00 Q1021 NOSIG
2026-04-01 14:50:00,METAR EDDM 011450Z AUTO 06003KT 360V160 CAVOK 08/00 Q1021 NOSIG
2026-04-01 13:50:00,METAR EDDM 011350Z AUTO 07003KT 030V100 9999 BKN048 07/00 Q1021 NOSIG
2026-04-01 13:20:00,METAR EDDM 011320Z AUTO 07004KT 050V110 9999 FEW033 07/01 Q1022 NOSIG
2026-04-01 12:50:00,METAR EDDM 011250Z AUTO 09005KT 9999 FEW034 07/00 Q1022 NOSIG
2026-04-01 12:20:00,METAR EDDM 011220Z AUTO 15004KT 100V200 9999 FEW033 07/00 Q1022 NOSIG
2026-04-01 11:50:00,METAR EDDM 011150Z AUTO 12003KT 080V180 9999 FEW031 07/00 Q1022 BECMG 06005KT
2026-04-01 11:20:00,METAR EDDM 011120Z COR AUTO 08004KT 340V130 9999 FEW027 SCT049 07/00 Q1023 NOSIG
2026-04-01 10:50:00,METAR EDDM 011050Z AUTO VRB05KT 9999 SCT025 SCT033 08/01 Q1023 BECMG 07005KT
2026-04-01 10:20:00,METAR EDDM 011020Z AUTO 10006KT 060V180 9999 SCT024 SCT037 06/01 Q1023 NOSIG
2026-04-01 09:50:00,METAR EDDM 010950Z AUTO VRB02KT 9999 SCT018 BKN022 07/01 Q1023 BECMG 06005KT
2026-04-01 09:20:00,METAR EDDM 010920Z AUTO 06003KT 340V130 9999 BKN017 06/01 Q1023 NOSIG
2026-04-01 08:50:00,METAR EDDM 010850Z AUTO 31003KT 260V340 9999 BKN014 05/01 Q1024 BECMG 06005KT BKN015
2026-04-01 08:20:00,METAR EDDM 010820Z AUTO VRB02KT 9999 BKN012 04/01 Q1023 BECMG 06005KT BKN015
2026-04-01 07:50:00,METAR EDDM 010750Z AUTO VRB02KT 9999 BKN011 03/00 Q1023 BECMG 06005KT
2026-04-01 07:20:00,METAR EDDM 010720Z AUTO VRB01KT 9999 SCT009 OVC014 03/01 Q1024 BECMG 06005KT
2026-04-01 06:50:00,METAR EDDM 010650Z AUTO VRB01KT 9999 SCT008 BKN015 03/00 Q1024 TEMPO 06005KT BKN008
2026-04-01 06:20:00,METAR EDDM 010620Z AUTO VRB02KT 9999 FEW009 02/01 Q1023 BECMG 06005KT
2026-04-01 05:50:00,METAR EDDM 010550Z AUTO 28003KT 9999 FEW023 01/00 Q1023 NOSIG
2026-04-01 05:20:00,METAR EDDM 010520Z AUTO 28005KT 9999 SCT023 SCT028 01/M00 Q1023 NOSIG
2026-04-01 04:50:00,METAR EDDM 010450Z AUTO 25003KT 220V330 9999 FEW009 BKN022 BKN028 01/M00 Q1023 NOSIG
2026-04-01 04:20:00,METAR EDDM 010420Z AUTO 21004KT 9999 FEW009 BKN024 01/M00 Q1023 NOSIG
2026-04-01 03:50:00,METAR EDDM 010350Z AUTO 24005KT 9999 FEW021 SCT043 01/00 Q1023 NOSIG
2026-04-01 03:20:00,METAR EDDM 010320Z AUTO VRB02KT CAVOK 02/00 Q1023 NOSIG
2026-04-01 02:50:00,METAR EDDM 010250Z AUTO 25005KT CAVOK 01/00 Q1023 NOSIG
2026-04-01 02:20:00,METAR EDDM 010220Z AUTO 27005KT CAVOK 02/00 Q1023 NOSIG
2026-04-01 01:50:00,METAR EDDM 010150Z AUTO 24007KT 9999 FEW027 01/00 Q1024 NOSIG
2026-04-01 01:20:00,METAR EDDM 010120Z AUTO 29003KT 250V310 9999 -SHRA FEW031 SCT045 FEW///TCU 01/00 Q1024 NOSIG
2026-04-01 00:50:00,METAR EDDM 010050Z AUTO 27004KT 9999 SCT035 BKN047 02/01 Q1024 NOSIG
2026-04-01 00:20:00,METAR EDDM 010020Z AUTO 28004KT 9999 FEW031 02/00 Q1024 NOSIG
2026-03-31 23:50:00,METAR EDDM 312350Z AUTO 26006KT CAVOK 02/00 Q1025 NOSIG
2026-03-31 23:20:00,METAR EDDM 312320Z AUTO 27006KT CAVOK 02/00 Q1025 NOSIG
2026-03-31 22:50:00,METAR EDDM 312250Z AUTO 26007KT 9999 FEW042 02/00 Q1025 NOSIG
2026-03-31 22:20:00,METAR EDDM 312220Z AUTO 26008KT 9999 BKN044 03/00 Q1025 NOSIG
2026-03-31 21:50:00,METAR EDDM 312150Z AUTO 26008KT CAVOK 03/00 Q1025 NOSIG
2026-03-31 21:20:00,METAR EDDM 312120Z AUTO 25008KT CAVOK 03/M00 Q1025 NOSIG
2026-03-31 20:50:00,METAR EDDM 312050Z AUTO 26009KT 9999 FEW033 04/M01 Q1025 NOSIG
2026-03-31 20:20:00,METAR EDDM 312020Z AUTO 26006KT 9999 FEW035 04/M01 Q1025 NOSIG
2026-03-31 19:50:00,METAR EDDM 311950Z AUTO 26006KT CAVOK 04/M02 Q1025 NOSIG
2026-03-31 19:20:00,METAR EDDM 311920Z AUTO 26008KT CAVOK 04/M01 Q1025 NOSIG
2026-03-31 18:50:00,METAR EDDM 311850Z AUTO 27007KT CAVOK 05/M02 Q1025 NOSIG
2026-03-31 18:20:00,METAR EDDM 311820Z AUTO 27005KT CAVOK 05/M02 Q1025 NOSIG
2026-03-31 17:50:00,METAR EDDM 311750Z AUTO 27006KT CAVOK 05/M03 Q1025 NOSIG
2026-03-31 17:20:00,METAR EDDM 311720Z AUTO 29003KT CAVOK 06/M03 Q1024 NOSIG
2026-03-31 16:50:00,METAR EDDM 311650Z AUTO 32005KT 290V010 CAVOK 06/M03 Q1024 NOSIG
2026-03-31 16:20:00,METAR EDDM 311620Z AUTO 33005KT 300V360 CAVOK 06/M03 Q1024 NOSIG
2026-03-31 15:50:00,METAR EDDM 311550Z AUTO 32007KT 300V360 CAVOK 06/M03 Q1024 NOSIG
2026-03-31 15:20:00,METAR EDDM 311520Z AUTO 33009KT 9999 FEW041 06/M03 Q1024 NOSIG
2026-03-31 14:50:00,METAR EDDM 311450Z AUTO 31010KT 9999 FEW036 06/M03 Q1024 NOSIG
2026-03-31 14:20:00,METAR EDDM 311420Z AUTO 33009KT 290V350 9999 FEW036 06/M02 Q1024 NOSIG
2026-03-31 13:50:00,METAR EDDM 311350Z AUTO 31009KT 280V340 9999 FEW032 SCT042 06/M02 Q1024 NOSIG
2026-03-31 13:20:00,METAR EDDM 311320Z AUTO 33010KT 300V010 9999 FEW035 06/M02 Q1024 NOSIG
2026-03-31 12:50:00,METAR EDDM 311250Z AUTO 33009KT 280V020 CAVOK 05/M03 Q1024 NOSIG
2026-03-31 12:20:00,METAR EDDM 311220Z AUTO 32014KT 290V350 9999 FEW032 BKN048 06/M02 Q1024 NOSIG
2026-03-31 11:50:00,METAR EDDM 311150Z AUTO 32012KT 300V360 9999 SCT034 BKN046 06/M02 Q1024 NOSIG
2026-03-31 11:20:00,METAR EDDM 311120Z AUTO 32012KT 290V360 9999 BKN043 05/M02 Q1024 NOSIG
2026-03-31 10:50:00,METAR EDDM 311050Z AUTO 33013KT 9999 FEW035 OVC044 06/M03 Q1024 NOSIG
2026-03-31 10:20:00,METAR EDDM 311020Z AUTO 34011KT 310V020 9999 SCT036 OVC044 05/M03 Q1024 NOSIG
2026-03-31 09:50:00,METAR EDDM 310950Z AUTO 33010KT 9999 SCT033 BKN042 OVC049 05/M02 Q1023 NOSIG
2026-03-31 09:20:00,METAR EDDM 310920Z AUTO 33012KT 9999 SCT025 SCT036 BKN049 05/M02 Q1023 NOSIG
2026-03-31 08:50:00,METAR EDDM 310850Z AUTO 34011KT 300V010 9999 FEW019 05/M00 Q1023 NOSIG
2026-03-31 08:20:00,METAR EDDM 310820Z AUTO 34011KT 310V010 9999 SCT016 SCT043 05/01 Q1023 NOSIG
2026-03-31 07:50:00,METAR EDDM 310750Z AUTO 34008KT 300V020 9999 SCT013 04/01 Q1023 TEMPO BKN013
2026-03-31 07:20:00,METAR EDDM 310720Z AUTO 32009KT 290V360 9999 BKN011 03/00 Q1022 TEMPO SCT010
2026-03-31 06:50:00,METAR EDDM 310650Z AUTO 32007KT 9999 SCT010 02/00 Q1022 TEMPO BKN010
2026-03-31 06:20:00,METAR EDDM 310620Z AUTO 32009KT 9999 FEW010 02/00 Q1022 TEMPO BKN010
2026-03-31 05:50:00,METAR EDDM 310550Z AUTO 32010KT 9999 FEW009 02/00 Q1021 TEMPO BKN010
2026-03-31 05:20:00,METAR EDDM 310520Z AUTO 31010KT 9999 FEW010 02/M00 Q1021 TEMPO BKN010
2026-03-31 04:50:00,METAR EDDM 310450Z AUTO 32008KT 9999 OVC049 02/00 Q1021 TEMPO BKN010
2026-03-31 04:20:00,METAR EDDM 310420Z AUTO 31008KT 9999 FEW008 OVC048 01/00 Q1020 TEMPO BKN010
2026-03-31 03:50:00,METAR EDDM 310350Z AUTO 33004KT 300V020 9999 FEW010 BKN048 01/M00 Q1020 TEMPO BKN010
2026-03-31 03:20:00,METAR EDDM 310320Z AUTO 28003KT 230V310 9999 BKN042 01/M00 Q1020 NOSIG
2026-03-31 02:50:00,METAR EDDM 310250Z AUTO 31004KT 9999 BKN039 01/M00 Q1020 NOSIG
2026-03-31 02:20:00,METAR EDDM 310220Z AUTO 31005KT 9999 FEW031 SCT038 01/M00 Q1019 NOSIG
2026-03-31 01:50:00,METAR EDDM 310150Z AUTO 32007KT 9999 BKN031 BKN040 BKN046 02/M00 Q1019 NOSIG
2026-03-31 01:20:00,METAR EDDM 310120Z AUTO 32007KT 9999 SCT033 SCT040 02/M00 Q1019 NOSIG
2026-03-31 00:50:00,METAR EDDM 310050Z AUTO 30006KT 9999 FEW023 BKN035 02/M00 Q1019 NOSIG
2026-03-31 00:20:00,METAR EDDM 310020Z AUTO 29004KT 9999 SCT032 BKN038 01/M00 Q1019 NOSIG
2026-03-30 23:50:00,METAR EDDM 302350Z AUTO 29006KT 250V310 9999 BKN035 BKN049 01/M00 Q1019 NOSIG
2026-03-30 23:20:00,METAR EDDM 302320Z AUTO 28007KT 9999 FEW022 SCT034 01/00 Q1019 NOSIG
2026-03-30 22:50:00,METAR EDDM 302250Z AUTO 28006KT 9999 BKN037 01/00 Q1018 NOSIG
2026-03-30 22:20:00,METAR EDDM 302220Z AUTO 27008KT 9999 FEW025 SCT042 01/00 Q1018 NOSIG
2026-03-30 21:50:00,METAR EDDM 302150Z AUTO 27006KT 9999 FEW037 SCT049 01/00 Q1018 NOSIG
2026-03-30 21:20:00,METAR EDDM 302120Z AUTO 26005KT 9999 FEW004 01/00 Q1018 NOSIG
2026-03-30 20:50:00,METAR EDDM 302050Z AUTO 25009KT 9999 SCT005 SCT031 BKN041 01/00 Q1018 NOSIG
2026-03-30 20:20:00,METAR EDDM 302020Z AUTO 26007KT 9999 FEW006 SCT032 BKN045 01/00 Q1018 NOSIG
2026-03-30 19:50:00,METAR EDDM 301950Z AUTO 21004KT 9999 VCSH FEW013 FEW///TCU 00/00 Q1017 RESHSN NOSIG
2026-03-30 19:20:00,METAR EDDM 301920Z AUTO VRB02KT 9000 -SHSNRA SCT006 BKN019 BKN027 FEW///CB 01/00 Q1017 RESHSN NOSIG
2026-03-30 18:50:00,METAR EDDM 301850Z AUTO 22003KT 190V260 9999 -SHRA BKN031 BKN045 FEW///TCU 02/00 Q1017 TEMPO 29020G30KT 3000 SHRASN BKN014CB
2026-03-30 18:20:00,METAR EDDM 301820Z AUTO 19005KT 170V230 9999 FEW046 01/00 Q1016 TEMPO 29020G30KT 3000 SHRASN BKN014CB
2026-03-30 17:50:00,METAR EDDM 301750Z AUTO 24008KT 9999 FEW032 01/00 Q1016 TEMPO 29020G30KT 3000 SHRASN BKN014CB
2026-03-30 17:20:00,METAR EDDM 301720Z AUTO 25005KT CAVOK 02/00 Q1015 TEMPO 29020G30KT 3000 SHRASN BKN014CB
2026-03-30 16:50:00,METAR EDDM 301650Z AUTO 26003KT 210V310 9999 VCSH FEW014 SCT034 FEW///CB 03/00 Q1015 RESHRA NOSIG
2026-03-30 16:20:00,METAR EDDM 301620Z AUTO 02006KT 350V050 9999 -SHRA FEW018 BKN028 BKN045 SCT///CB 02/01 Q1015 TEMPO 29020G35KT 3000 SHGS BKN014CB
2026-03-30 15:50:00,METAR EDDM 301550Z AUTO 28010KT 9999 VCSH SCT022 BKN029 BKN039 FEW///CB 06/01 Q1015 TEMPO 29020G35KT 3000 SHGS BKN014CB
2026-03-30 15:20:00,METAR EDDM 301520Z AUTO 27010KT 250V320 9999 FEW019 SCT023 05/00 Q1015 TEMPO 29020G35KT 3000 SHGS BKN014CB
2026-03-30 14:50:00,METAR EDDM 301450Z AUTO 28012KT 9999 FEW020 05/00 Q1015 NOSIG
2026-03-30 14:20:00,METAR EDDM 301420Z AUTO 27013KT 9999 SCT011 04/02 Q1015 NOSIG
2026-03-30 13:50:00,METAR EDDM 301350Z AUTO 28008KT 240V310 9999 FEW014 BKN043 03/01 Q1014 RESHSN NOSIG
2026-03-30 13:20:00,METAR EDDM 301320Z AUTO 30017KT 8000 SHSNRA SCT007 BKN029 BKN041 FEW///TCU 02/01 Q1015 TEMPO 32030G40KT 1500 TSGS BKN014CB
2026-03-30 12:50:00,METAR EDDM 301250Z AUTO 27016KT 250V310 9999 SCT027 SCT038 07/M00 Q1014 TEMPO 32030G40KT 1500 TSGS BKN014CB
2026-03-30 12:20:00,METAR EDDM 301220Z AUTO 27015KT 240V310 9999 SCT022 SCT040 BKN047 06/01 Q1015 TEMPO 32030G40KT 1500 TSGS BKN014CB
2026-03-30 11:50:00,METAR EDDM 301150Z AUTO 27016KT 9999 SCT017 BKN025 BKN044 05/01 Q1015 TEMPO 32030G40KT 1500 TSGS BKN014CB
2026-03-30 11:20:00,METAR EDDM 301120Z AUTO 26021KT 9999 BKN016 06/03 Q1015 TEMPO 32025G35KT
2026-03-30 10:50:00,METAR EDDM 301050Z AUTO 26023G34KT 9999 -RA BKN016 BKN024 BKN037 05/02 Q1015 NOSIG
2026-03-30 10:20:00,METAR EDDM 301020Z AUTO 25021KT 9999 BKN015 BKN021 OVC037 04/02 Q1015 TEMPO 24025G35KT RA
2026-03-30 09:50:00,METAR EDDM 300950Z AUTO 25024KT 9999 -RA BKN018 BKN024 BKN032 04/01 Q1016 TEMPO 24025G35KT RA
2026-03-30 09:20:00,METAR EDDM 300920Z AUTO 25027G38KT 9999 -RA FEW018 BKN024 BKN033 04/01 Q1015 TEMPO 24025G35KT RA
2026-03-30 08:50:00,METAR EDDM 300850Z AUTO 25021KT 9999 SCT023 BKN032 OVC049 05/M00 Q1016 TEMPO 24025G35KT RA
2026-03-30 08:20:00,METAR EDDM 300820Z AUTO 25022KT 9999 BKN021 BKN036 04/00 Q1016 TEMPO 24020G30KT
2026-03-30 07:50:00,METAR EDDM 300750Z AUTO 25021KT 9999 BKN020 BKN027 OVC037 03/M00 Q1017 TEMPO 24020G30KT
2026-03-30 07:20:00,METAR EDDM 300720Z AUTO 25017KT 9999 -DZ SCT017 BKN021 BKN040 03/00 Q1017 TEMPO 24020G30KT
2026-03-30 06:50:00,METAR EDDM 300650Z AUTO 25019KT 9999 -RADZ BKN020 BKN031 03/M00 Q1017 TEMPO 24020G30KT
2026-03-30 06:20:00,METAR EDDM 300620Z AUTO 24018G28KT 9999 FEW026 BKN042 04/M01 Q1018 TEMPO 24020G30KT
2026-03-30 05:50:00,METAR EDDM 300550Z AUTO 25014KT 9999 FEW038 04/M01 Q1018 NOSIG
2026-03-30 05:20:00,METAR EDDM 300520Z AUTO 25015KT CAVOK 03/M01 Q1019 NOSIG
2026-03-30 04:50:00,METAR EDDM 300450Z AUTO 24011KT CAVOK 03/M01 Q1019 NOSIG
2026-03-30 04:20:00,METAR EDDM 300420Z AUTO 22010KT CAVOK 03/M01 Q1019 NOSIG
2026-03-30 03:50:00,METAR EDDM 300350Z AUTO 23009KT CAVOK 02/M01 Q1020 NOSIG
2026-03-30 03:20:00,METAR EDDM 300320Z AUTO 23009KT CAVOK 02/M01 Q1020 NOSIG
2026-03-30 02:50:00,METAR EDDM 300250Z AUTO 23009KT CAVOK 02/M01 Q1021 NOSIG
2026-03-30 02:20:00,METAR EDDM 300220Z AUTO 24008KT CAVOK 02/M01 Q1021 NOSIG
2026-03-30 01:50:00,METAR EDDM 300150Z AUTO 24008KT CAVOK 02/M00 Q1022 NOSIG
2026-03-30 01:20:00,METAR EDDM 300120Z AUTO 23007KT CAVOK 01/M00 Q1022 NOSIG
2026-03-30 00:50:00,METAR EDDM 300050Z AUTO 24006KT CAVOK 01/M00 Q1023 NOSIG
2026-03-30 00:20:00,METAR EDDM 300020Z AUTO 22005KT CAVOK 02/M00 Q1023 NOSIG
2026-03-29 23:50:00,METAR EDDM 292350Z AUTO 24005KT CAVOK 02/M00 Q1024 NOSIG
2026-03-29 23:20:00,METAR EDDM 292320Z AUTO 24007KT CAVOK 02/00 Q1024 NOSIG
2026-03-29 22:50:00,METAR EDDM 292250Z AUTO 23006KT CAVOK 02/00 Q1025 NOSIG
2026-03-29 22:20:00,METAR EDDM 292220Z AUTO 24007KT CAVOK 03/01 Q1025 NOSIG
2026-03-29 21:50:00,METAR EDDM 292150Z AUTO 26008KT CAVOK 03/01 Q1025 NOSIG
2026-03-29 21:20:00,METAR EDDM 292120Z AUTO 23005KT CAVOK 03/01 Q1025 NOSIG
2026-03-29 20:50:00,METAR EDDM 292050Z AUTO 22008KT CAVOK 03/01 Q1025 NOSIG
2026-03-29 20:20:00,METAR EDDM 292020Z AUTO 21009KT CAVOK 04/01 Q1026 NOSIG
2026-03-29 19:50:00,METAR EDDM 291950Z AUTO 22009KT CAVOK 04/01 Q1026 NOSIG
2026-03-29 19:20:00,METAR EDDM 291920Z AUTO 24010KT CAVOK 04/01 Q1026 NOSIG
2026-03-29 18:50:00,METAR EDDM 291850Z AUTO 24008KT CAVOK 04/02 Q1026 NOSIG
2026-03-29 18:20:00,METAR EDDM 291820Z AUTO 24010KT CAVOK 04/01 Q1026 NOSIG
2026-03-29 17:50:00,METAR EDDM 291750Z AUTO 25009KT 9999 BKN049 05/01 Q1026 NOSIG
2026-03-29 17:20:00,METAR EDDM 291720Z AUTO 24009KT 200V260 CAVOK 05/01 Q1026 NOSIG
2026-03-29 16:50:00,METAR EDDM 291650Z AUTO 25007KT CAVOK 05/01 Q1026 NOSIG
2026-03-29 16:20:00,METAR EDDM 291620Z AUTO 25006KT 9999 BKN048 05/00 Q1026 NOSIG
2026-03-29 15:50:00,METAR EDDM 291550Z AUTO 27007KT 250V310 9999 FEW024 BKN042 06/00 Q1026 NOSIG
2026-03-29 15:20:00,METAR EDDM 291520Z AUTO 29004KT 260V320 9999 FEW023 SCT029 BKN038 06/00 Q1026 NOSIG
2026-03-29 14:50:00,METAR EDDM 291450Z AUTO 24006KT 210V270 9999 FEW019 BKN038 06/01 Q1026 NOSIG
2026-03-29 14:20:00,METAR EDDM 291420Z AUTO 28004KT 230V330 9999 FEW018 BKN025 05/01 Q1026 NOSIG
2026-03-29 13:50:00,METAR EDDM 291350Z AUTO 30005KT 270V350 9999 SCT014 BKN022 OVC049 04/02 Q1026 NOSIG
2026-03-29 13:20:00,METAR EDDM 291320Z AUTO 31005KT 280V010 9999 BKN015 BKN022 OVC047 05/01 Q1026 NOSIG
2026-03-29 12:50:00,METAR EDDM 291250Z AUTO 34006KT 300V030 9999 SCT016 BKN022 OVC041 04/01 Q1026 NOSIG
2026-03-29 12:20:00,METAR EDDM 291220Z AUTO 32006KT 290V010 9999 SCT014 BKN022 OVC035 04/01 Q1026 NOSIG
2026-03-29 11:50:00,METAR EDDM 291150Z AUTO 32006KT 300V360 9999 -RA BKN017 OVC023 04/01 Q1026 NOSIG
2026-03-29 11:20:00,METAR EDDM 291120Z AUTO 34006KT 300V360 9999 BKN015 OVC020 04/01 Q1026 NOSIG
2026-03-29 10:50:00,METAR EDDM 291050Z AUTO 34006KT 300V010 9999 BKN015 03/01 Q1026 NOSIG
2026-03-29 10:20:00,METAR EDDM 291020Z AUTO 34008KT 310V010 9999 OVC013 03/00 Q1026 BECMG BKN015
2026-03-29 09:50:00,METAR EDDM 290950Z AUTO 34006KT 310V020 9999 OVC013 03/01 Q1026 BECMG BKN015
2026-03-29 09:20:00,METAR EDDM 290920Z AUTO 34008KT 9999 OVC013 03/00 Q1026 BECMG BKN015
2026-03-29 08:50:00,METAR EDDM 290850Z AUTO 34009KT 9999 BKN012 OVC017 03/01 Q1025 NOSIG
2026-03-29 08:20:00,METAR EDDM 290820Z AUTO 33008KT 290V350 9999 BKN010 OVC016 02/01 Q1025 NOSIG
2026-03-29 07:50:00,METAR EDDM 290750Z COR AUTO 32009KT 290V350 9999 -RA BKN009 BKN019 02/01 Q1025 NOSIG
2026-03-29 07:20:00,METAR EDDM 290720Z AUTO 32009KT 290V350 9999 -SNRA BKN008 BKN024 02/01 Q1024 TEMPO 4000
2026-03-29 06:50:00,METAR EDDM 290650Z AUTO 31007KT 9999 -SN BKN007 BKN014 01/00 Q1024 TEMPO 4000
2026-03-29 06:20:00,METAR EDDM 290620Z AUTO 31007KT 280V340 9999 -SN BKN007 BKN013 BKN036 01/00 Q1024 TEMPO 4000
2026-03-29 05:50:00,METAR EDDM 290550Z AUTO 30006KT 9999 -SN BKN007 01/00 Q1023 TEMPO 4000
2026-03-29 05:20:00,METAR EDDM 290520Z AUTO 27003KT 6000 -SN BKN006 OVC011 01/00 Q1023 TEMPO 4000
2026-03-29 04:50:00,METAR EDDM 290450Z AUTO 28005KT 4400 -SN BR BKN006 OVC010 01/00 Q1022 NOSIG
2026-03-29 04:20:00,METAR EDDM 290420Z AUTO 27005KT 5000 -SN BR BKN005 OVC009 01/00 Q1022 TEMPO 6000 BKN004
2026-03-29 03:50:00,METAR EDDM 290350Z AUTO 27006KT 4000 -SN BR SCT005 BKN009 BKN022 01/00 Q1022 TEMPO 2000 SN BKN004
2026-03-29 03:20:00,METAR EDDM 290320Z AUTO 27005KT 4200 -SN BR BKN005 BKN009 BKN018 01/00 Q1022 TEMPO 2000 SN BKN004
2026-03-29 02:50:00,METAR EDDM 290250Z AUTO 26005KT 5000 -SN BR BKN005 BKN009 01/00 Q1021 TEMPO 4000 SN BKN004
2026-03-29 02:20:00,METAR EDDM 290220Z AUTO 26005KT 5000 -SN BR SCT004 BKN011 BKN017 01/00 Q1021 TEMPO 2000 SN BKN004
2026-03-29 01:50:00,METAR EDDM 290150Z AUTO 27005KT 3800 -SN BR BKN005 BKN017 BKN022 01/00 Q1021 TEMPO 2000 SN BKN004
2026-03-29 01:20:00,METAR EDDM 290120Z AUTO 27005KT 4500 -SN BR BKN005 BKN020 BKN026 01/00 Q1021 TEMPO 5000 SN BKN004
2026-03-29 00:50:00,METAR EDDM 290050Z AUTO 28006KT 6000 -SN BKN006 BKN017 01/00 Q1021 TEMPO 4000 SN BKN004
2026-03-29 00:20:00,METAR EDDM 290020Z AUTO 27005KT 9000 -RA FEW004 BKN007 BKN021 01/01 Q1021 TEMPO 4000 -SN BKN004
2026-03-28 23:50:00,METAR EDDM 282350Z AUTO 27004KT 6000 -SNRA BKN006 BKN017 BKN027 01/01 Q1020 TEMPO 4000 -SN BKN004
2026-03-28 23:20:00,METAR EDDM 282320Z AUTO 28004KT 250V310 9999 -RADZ SCT006 BKN023 BKN043 01/01 Q1020 BECMG 4000 -SN BKN007
2026-03-28 22:50:00,METAR EDDM 282250Z AUTO 28004KT 9999 -RA FEW007 BKN028 BKN045 02/01 Q1020 TEMPO 4000 SN BKN007
2026-03-28 22:20:00,METAR EDDM 282220Z AUTO 29005KT 9999 -SNRA FEW007 BKN020 OVC027 02/01 Q1020 RESN TEMPO 4000 SN BKN007
2026-03-28 21:50:00,METAR EDDM 282150Z AUTO 28007KT 240V310 9999 -SNRA SCT008 BKN017 BKN023 02/01 Q1020 RESN TEMPO 4000 BKN007
2026-03-28 21:20:00,METAR EDDM 282120Z AUTO 31007KT 9999 -RADZ BKN011 BKN016 BKN031 02/01 Q1020 BECMG BKN007
2026-03-28 20:50:00,METAR EDDM 282050Z AUTO 31008KT 9999 -RA SCT014 SCT048 03/00 Q1020 BECMG BKN007
2026-03-28 20:20:00,METAR EDDM 282020Z AUTO 30010KT 9999 SCT016 04/M00 Q1019 BECMG BKN007
2026-03-28 19:50:00,METAR EDDM 281950Z AUTO 31011KT CAVOK 04/M01 Q1019 BECMG BKN007
2026-03-28 19:20:00,METAR EDDM 281920Z AUTO 32010KT CAVOK 04/M02 Q1018 BECMG BKN007
2026-03-28 18:50:00,METAR EDDM 281850Z AUTO 31009KT 280V340 CAVOK 05/M04 Q1018 BECMG BKN007
2026-03-28 18:20:00,METAR EDDM 281820Z AUTO 29004KT CAVOK 06/M05 Q1017 NOSIG
2026-03-28 17:50:00,METAR EDDM 281750Z AUTO 31005KT CAVOK 07/M05 Q1017 NOSIG
2026-03-28 17:20:00,METAR EDDM 281720Z AUTO 28005KT CAVOK 07/M05 Q1017 NOSIG
2026-03-28 16:50:00,METAR EDDM 281650Z AUTO 29007KT 250V320 CAVOK 08/M05 Q1016 NOSIG
2026-03-28 16:20:00,METAR EDDM 281620Z AUTO 26010KT CAVOK 08/M04 Q1016 NOSIG
2026-03-28 15:50:00,METAR EDDM 281550Z AUTO 28008KT 250V320 CAVOK 08/M04 Q1016 NOSIG
2026-03-28 15:20:00,METAR EDDM 281520Z AUTO 27009KT CAVOK 08/M05 Q1016 NOSIG
2026-03-28 14:50:00,METAR EDDM 281450Z AUTO 27006KT 240V320 CAVOK 08/M05 Q1016 NOSIG
2026-03-28 14:20:00,METAR EDDM 281420Z AUTO 28007KT 240V330 CAVOK 08/M05 Q1017 NOSIG
2026-03-28 13:50:00,METAR EDDM 281350Z AUTO 27009KT 210V330 CAVOK 08/M05 Q1017 NOSIG
2026-03-28 13:20:00,METAR EDDM 281320Z AUTO 29010KT 250V330 CAVOK 08/M05 Q1017 NOSIG
2026-03-28 12:50:00,METAR EDDM 281250Z AUTO 28008KT 240V310 CAVOK 08/M05 Q1017 NOSIG
2026-03-28 12:20:00,METAR EDDM 281220Z AUTO 25009KT 210V280 CAVOK 08/M05 Q1018 NOSIG
2026-03-28 11:50:00,METAR EDDM 281150Z AUTO 28008G19KT 220V330 CAVOK 08/M06 Q1018 NOSIG
2026-03-28 11:20:00,METAR EDDM 281120Z AUTO 26008G18KT 180V330 CAVOK 07/M05 Q1018 NOSIG
2026-03-28 10:50:00,METAR EDDM 281050Z AUTO 29008KT 230V330 CAVOK 07/M06 Q1018 NOSIG
2026-03-28 10:20:00,METAR EDDM 281020Z AUTO 26008KT 210V310 CAVOK 07/M06 Q1019 NOSIG
2026-03-28 09:50:00,METAR EDDM 280950Z AUTO 28007KT 230V310 CAVOK 06/M06 Q1019 NOSIG
2026-03-28 09:20:00,METAR EDDM 280920Z AUTO 23006KT 180V290 CAVOK 06/M07 Q1019 NOSIG
2026-03-28 08:50:00,METAR EDDM 280850Z AUTO 25006KT 190V280 CAVOK 05/M05 Q1019 NOSIG
2026-03-28 08:20:00,METAR EDDM 280820Z AUTO 26005KT 190V310 CAVOK 04/M03 Q1020 NOSIG
2026-03-28 07:50:00,METAR EDDM 280750Z AUTO 26006KT CAVOK 03/M03 Q1020 NOSIG
2026-03-28 07:20:00,METAR EDDM 280720Z AUTO 27007KT CAVOK 02/M02 Q1020 NOSIG
2026-03-28 06:50:00,METAR EDDM 280650Z AUTO 25006KT CAVOK 00/M02 Q1020 NOSIG
2026-03-28 06:20:00,METAR EDDM 280620Z AUTO 25003KT 210V280 CAVOK M01/M03 Q1020 NOSIG
2026-03-28 05:50:00,METAR EDDM 280550Z AUTO 25003KT 200V280 CAVOK M02/M04 Q1020 NOSIG
2026-03-28 05:20:00,METAR EDDM 280520Z AUTO 26003KT CAVOK M04/M05 Q1020 NOSIG
2026-03-28 04:50:00,METAR EDDM 280450Z AUTO 27003KT CAVOK M05/M06 Q1020 NOSIG
2026-03-28 04:20:00,METAR EDDM 280420Z AUTO 29002KT CAVOK M05/M06 Q1020 NOSIG
2026-03-28 03:50:00,METAR EDDM 280350Z AUTO 25003KT CAVOK M05/M07 Q1020 NOSIG
2026-03-28 03:20:00,METAR EDDM 280320Z AUTO 21003KT CAVOK M05/M07 Q1020 NOSIG
2026-03-28 02:50:00,METAR EDDM 280250Z AUTO 23002KT CAVOK M06/M08 Q1020 NOSIG
2026-03-28 02:20:00,METAR EDDM 280220Z AUTO 20004KT CAVOK M06/M07 Q1020 NOSIG
2026-03-28 01:50:00,METAR EDDM 280150Z AUTO 20003KT CAVOK M05/M07 Q1021 NOSIG
2026-03-28 01:20:00,METAR EDDM 280120Z AUTO VRB01KT CAVOK M04/M06 Q1021 NOSIG
2026-03-28 00:50:00,METAR EDDM 280050Z AUTO 24004KT CAVOK M05/M07 Q1021 NOSIG
2026-03-28 00:20:00,METAR EDDM 280020Z AUTO VRB02KT CAVOK M04/M07 Q1021 NOSIG
2026-03-27 23:50:00,METAR EDDM 272350Z AUTO 28003KT CAVOK M03/M07 Q1021 NOSIG
2026-03-27 23:20:00,METAR EDDM 272320Z AUTO 22003KT CAVOK M03/M06 Q1021 NOSIG
2026-03-27 22:50:00,METAR EDDM 272250Z AUTO VRB01KT CAVOK M02/M06 Q1021 NOSIG
2026-03-27 22:20:00,METAR EDDM 272220Z AUTO 23003KT 210V300 CAVOK 00/M06 Q1021 NOSIG
2026-03-27 21:50:00,METAR EDDM 272150Z AUTO 33003KT CAVOK 01/M06 Q1021 NOSIG
2026-03-27 21:20:00,METAR EDDM 272120Z AUTO 34003KT CAVOK 02/M06 Q1021 NOSIG
2026-03-27 20:50:00,METAR EDDM 272050Z AUTO 35003KT 310V020 CAVOK 03/M06 Q1021 NOSIG
2026-03-27 20:20:00,METAR EDDM 272020Z AUTO 33003KT CAVOK 03/M06 Q1021 NOSIG
2026-03-27 19:50:00,METAR EDDM 271950Z AUTO 29003KT CAVOK 04/M06 Q1021 NOSIG
2026-03-27 19:20:00,METAR EDDM 271920Z AUTO 29004KT CAVOK 04/M06 Q1021 NOSIG
2026-03-27 18:50:00,METAR EDDM 271850Z AUTO 28004KT CAVOK 04/M06 Q1021 NOSIG
2026-03-27 18:20:00,METAR EDDM 271820Z AUTO 28003KT CAVOK 05/M06 Q1021 NOSIG
2026-03-27 17:50:00,METAR EDDM 271750Z AUTO 30004KT CAVOK 04/M06 Q1020 NOSIG
2026-03-27 17:20:00,METAR EDDM 271720Z AUTO 31004KT CAVOK 05/M06 Q1020 NOSIG
2026-03-27 16:50:00,METAR EDDM 271650Z AUTO 32006KT 290V350 CAVOK 06/M06 Q1020 NOSIG
2026-03-27 16:20:00,METAR EDDM 271620Z AUTO 30006KT 270V330 CAVOK 06/M06 Q1020 NOSIG
2026-03-25 14:50:00,METAR EDDM 251450Z AUTO 28016KT 9999 -SHRA FEW029 SCT046 FEW///TCU 09/04 Q1002 TEMPO SHRA SCT025CB
2026-03-25 14:20:00,METAR EDDM 251420Z AUTO 31021G31KT 9999 -RA FEW046 10/03 Q1002 RESHRA TEMPO SHRA SCT035TCU
2026-03-25 13:50:00,METAR EDDM 251350Z AUTO 27016KT CAVOK 14/02 Q1000 TEMPO 26020G40KT SHRA SCT035TCU
2026-03-25 13:20:00,METAR EDDM 251320Z AUTO 27015KT 240V300 CAVOK 14/03 Q1000 TEMPO 26020G40KT
2026-03-25 12:50:00,METAR EDDM 251250Z AUTO 27018KT CAVOK 14/02 Q1001 TEMPO 26020G40KT
2026-03-25 12:20:00,METAR EDDM 251220Z AUTO 26022KT CAVOK 13/01 Q1002 TEMPO 26020G40KT
2026-03-25 11:50:00,METAR EDDM 251150Z AUTO 26016KT CAVOK 14/00 Q1002 NOSIG
2026-03-25 11:20:00,METAR EDDM 251120Z AUTO 26018KT CAVOK 14/01 Q1003 NOSIG
2026-03-25 10:50:00,METAR EDDM 251050Z AUTO 25022KT CAVOK 14/02 Q1003 NOSIG
2026-03-25 10:20:00,METAR EDDM 251020Z AUTO 25027G39KT CAVOK 15/02 Q1004 NOSIG
2026-03-25 09:50:00,METAR EDDM 250950Z AUTO 25027KT CAVOK 14/01 Q1005 NOSIG
2026-03-25 09:20:00,METAR EDDM 250920Z AUTO 25028KT CAVOK 14/02 Q1005 NOSIG
2026-03-25 08:50:00,METAR EDDM 250850Z AUTO 26026G36KT CAVOK 14/03 Q1006 NOSIG
2026-03-25 08:20:00,METAR EDDM 250820Z AUTO 25018KT CAVOK 13/02 Q1006 TEMPO 24020G35KT
2026-03-25 07:50:00,METAR EDDM 250750Z COR AUTO 24016KT CAVOK 12/02 Q1007 BECMG 25015G25KT
2026-03-25 07:20:00,METAR EDDM 250720Z AUTO 22011KT CAVOK 11/02 Q1007 BECMG 25015G25KT
2026-03-25 06:50:00,METAR EDDM 250650Z AUTO 22007KT CAVOK 09/01 Q1008 BECMG 26013KT
2026-03-25 06:20:00,METAR EDDM 250620Z AUTO 22006KT CAVOK 07/M00 Q1008 BECMG 25009KT
2026-03-25 05:50:00,METAR EDDM 250550Z AUTO 23004KT 200V310 CAVOK 05/M01 Q1009 BECMG 25009KT
2026-03-25 05:20:00,METAR EDDM 250520Z AUTO 19008KT CAVOK 05/M02 Q1009 BECMG 25009KT
2026-03-25 04:50:00,METAR EDDM 250450Z AUTO 19010KT CAVOK 05/M01 Q1009 NOSIG
2026-03-25 04:20:00,METAR EDDM 250420Z AUTO 20011KT CAVOK 05/M01 Q1010 NOSIG
2026-03-25 03:50:00,METAR EDDM 250350Z AUTO 21003KT 170V230 CAVOK 04/M01 Q1011 NOSIG
2026-03-25 03:20:00,METAR EDDM 250320Z AUTO VRB02KT CAVOK 05/M00 Q1011 NOSIG
2026-03-25 02:50:00,METAR EDDM 250250Z AUTO VRB02KT CAVOK 04/M00 Q1012 NOSIG
2026-03-25 02:20:00,METAR EDDM 250220Z AUTO 22005KT CAVOK 04/M01 Q1012 NOSIG
2026-03-25 01:50:00,METAR EDDM 250150Z AUTO 21004KT CAVOK 03/M01 Q1013 NOSIG
2026-03-25 01:20:00,METAR EDDM 250120Z AUTO 22005KT CAVOK 03/M01 Q1013 NOSIG
2026-03-25 00:50:00,METAR EDDM 250050Z AUTO 22005KT CAVOK 02/M01 Q1014 NOSIG
2026-03-25 00:20:00,METAR EDDM 250020Z AUTO VRB02KT CAVOK 04/M01 Q1014 NOSIG
2026-03-24 23:50:00,METAR EDDM 242350Z AUTO VRB02KT CAVOK 03/M01 Q1015 NOSIG
2026-03-24 23:20:00,METAR EDDM 242320Z AUTO 22003KT CAVOK 02/M02 Q1015 NOSIG
2026-03-24 22:50:00,METAR EDDM 242250Z AUTO 21002KT CAVOK 02/M01 Q1015 NOSIG
2026-03-24 22:20:00,METAR EDDM 242220Z AUTO 23003KT 210V270 CAVOK 04/M01 Q1016 NOSIG
2026-03-24 21:50:00,METAR EDDM 242150Z AUTO VRB02KT CAVOK 04/M01 Q1016 NOSIG
2026-03-24 21:20:00,METAR EDDM 242120Z AUTO 19005KT CAVOK 05/M01 Q1016 NOSIG
2026-03-24 20:50:00,METAR EDDM 242050Z AUTO 19006KT CAVOK 05/M00 Q1016 NOSIG
2026-03-24 20:20:00,METAR EDDM 242020Z AUTO 18006KT CAVOK 06/M00 Q1017 NOSIG
2026-03-24 19:50:00,METAR EDDM 241950Z AUTO 18006KT CAVOK 04/00 Q1017 NOSIG
2026-03-24 19:20:00,METAR EDDM 241920Z AUTO 19005KT CAVOK 06/01 Q1018 NOSIG
2026-03-24 18:50:00,METAR EDDM 241850Z AUTO 18004KT CAVOK 08/M00 Q1018 NOSIG
2026-03-24 18:20:00,METAR EDDM 241820Z AUTO 19003KT CAVOK 08/M01 Q1018 NOSIG
2026-03-24 17:50:00,METAR EDDM 241750Z AUTO 24002KT CAVOK 09/M00 Q1018 NOSIG
2026-03-24 17:20:00,METAR EDDM 241720Z AUTO 27002KT CAVOK 11/M00 Q1018 NOSIG
2026-03-24 16:50:00,METAR EDDM 241650Z AUTO 30002KT CAVOK 13/M01 Q1019 NOSIG
2026-03-24 16:20:00,METAR EDDM 241620Z AUTO 29004KT 240V320 CAVOK 13/M01 Q1019 NOSIG
2026-03-24 15:50:00,METAR EDDM 241550Z AUTO 30003KT 260V030 CAVOK 14/M01 Q1019 NOSIG
2026-03-24 15:20:00,METAR EDDM 241520Z AUTO 26004KT 160V320 CAVOK 14/M01 Q1019 NOSIG
2026-03-24 14:50:00,METAR EDDM 241450Z AUTO VRB03KT CAVOK 14/M01 Q1020 NOSIG
2026-03-24 14:20:00,METAR EDDM 241420Z AUTO 27004KT 200V300 CAVOK 14/M01 Q1020 NOSIG
2026-03-24 13:50:00,METAR EDDM 241350Z AUTO 29005KT 200V360 CAVOK 15/M01 Q1020 NOSIG
2026-03-24 13:20:00,METAR EDDM 241320Z AUTO VRB03KT CAVOK 14/M02 Q1021 NOSIG
2026-03-24 12:50:00,METAR EDDM 241250Z AUTO 22005KT 170V270 CAVOK 13/M01 Q1021 NOSIG
2026-03-24 12:20:00,METAR EDDM 241220Z AUTO 24006KT 180V270 CAVOK 13/M00 Q1021 NOSIG
2026-03-24 11:50:00,METAR EDDM 241150Z AUTO 25006KT 220V280 CAVOK 13/M00 Q1021 NOSIG
2026-03-24 11:20:00,METAR EDDM 241120Z AUTO 28004KT 210V360 CAVOK 13/M00 Q1022 NOSIG
2026-03-24 10:50:00,METAR EDDM 241050Z AUTO 27004KT 170V330 CAVOK 13/00 Q1022 NOSIG
2026-03-24 10:20:00,METAR EDDM 241020Z AUTO 26005KT 220V290 CAVOK 12/00 Q1022 NOSIG
2026-03-24 09:50:00,METAR EDDM 240950Z AUTO 26004KT 220V310 CAVOK 11/02 Q1022 NOSIG
2026-03-24 09:20:00,METAR EDDM 240920Z AUTO 28004KT 240V340 CAVOK 10/01 Q1023 NOSIG
2026-03-24 08:50:00,METAR EDDM 240850Z AUTO 27006KT CAVOK 09/01 Q1022 NOSIG
2026-03-24 08:20:00,METAR EDDM 240820Z AUTO 26006KT CAVOK 08/01 Q1022 NOSIG
2026-03-24 07:50:00,METAR EDDM 240750Z AUTO 23008KT CAVOK 07/01 Q1022 NOSIG
2026-03-24 07:20:00,METAR EDDM 240720Z AUTO 25007KT CAVOK 06/01 Q1022 NOSIG
2026-03-24 06:50:00,METAR EDDM 240650Z AUTO 24007KT CAVOK 04/00 Q1022 NOSIG
2026-03-24 06:20:00,METAR EDDM 240620Z AUTO 22005KT CAVOK 03/M01 Q1022 NOSIG
2026-03-24 05:50:00,METAR EDDM 240550Z AUTO 23003KT CAVOK 03/M01 Q1022 NOSIG
2026-03-24 05:20:00,METAR EDDM 240520Z AUTO 26005KT CAVOK 01/M02 Q1022 NOSIG
2026-03-24 04:50:00,METAR EDDM 240450Z AUTO 25004KT CAVOK 03/M01 Q1022 NOSIG
2026-03-24 04:20:00,METAR EDDM 240420Z AUTO 24006KT CAVOK 04/M01 Q1021 NOSIG
2026-03-24 03:50:00,METAR EDDM 240350Z AUTO 20006KT CAVOK 03/M01 Q1021 NOSIG
2026-03-24 03:20:00,METAR EDDM 240320Z AUTO 22003KT 160V260 CAVOK 03/M01 Q1021 NOSIG
2026-03-24 02:50:00,METAR EDDM 240250Z AUTO 26005KT CAVOK 03/M01 Q1021 NOSIG
2026-03-24 02:20:00,METAR EDDM 240220Z AUTO 24004KT CAVOK M00/M02 Q1021 NOSIG
2026-03-24 01:50:00,METAR EDDM 240150Z AUTO 25005KT CAVOK M01/M04 Q1021 NOSIG
2026-03-24 01:20:00,METAR EDDM 240120Z AUTO 25005KT CAVOK M00/M03 Q1021 NOSIG
2026-03-24 00:50:00,METAR EDDM 240050Z AUTO 25003KT CAVOK M02/M04 Q1021 NOSIG
2026-03-24 00:20:00,METAR EDDM 240020Z AUTO 21003KT CAVOK M02/M03 Q1021 NOSIG
2026-03-23 23:50:00,METAR EDDM 232350Z AUTO 20002KT CAVOK M01/M03 Q1021 NOSIG
2026-03-23 23:20:00,METAR EDDM 232320Z AUTO VRB01KT CAVOK M01/M02 Q1021 NOSIG
2026-03-23 22:50:00,METAR EDDM 232250Z AUTO 23002KT CAVOK M00/M02 Q1021 NOSIG
2026-03-23 22:20:00,METAR EDDM 232220Z AUTO VRB01KT CAVOK 01/M02 Q1021 NOSIG
2026-03-23 21:50:00,METAR EDDM 232150Z AUTO 26002KT CAVOK 02/M01 Q1020 NOSIG
2026-03-23 21:20:00,METAR EDDM 232120Z AUTO 30001KT CAVOK 01/M01 Q1020 NOSIG
2026-03-23 20:50:00,METAR EDDM 232050Z AUTO 25002KT CAVOK 05/M01 Q1020 NOSIG
2026-03-23 20:20:00,METAR EDDM 232020Z AUTO 28002KT CAVOK 05/M01 Q1020 NOSIG
2026-03-23 19:50:00,METAR EDDM 231950Z AUTO 26002KT CAVOK 08/M00 Q1020 NOSIG
2026-03-23 19:20:00,METAR EDDM 231920Z AUTO 27002KT CAVOK 07/01 Q1020 NOSIG
2026-03-23 18:50:00,METAR EDDM 231850Z AUTO 28002KT CAVOK 09/00 Q1020 NOSIG
2026-03-23 18:20:00,METAR EDDM 231820Z AUTO 28003KT CAVOK 10/M00 Q1019 NOSIG
2026-03-23 17:50:00,METAR EDDM 231750Z AUTO 26003KT CAVOK 10/M00 Q1019 NOSIG
2026-03-23 17:20:00,METAR EDDM 231720Z AUTO 30002KT CAVOK 10/00 Q1019 NOSIG
2026-03-23 16:50:00,METAR EDDM 231650Z AUTO 32001KT CAVOK 11/M00 Q1018 NOSIG
2026-03-23 16:20:00,METAR EDDM 231620Z AUTO 33005KT CAVOK 11/M00 Q1018 NOSIG
2026-03-23 15:50:00,METAR EDDM 231550Z AUTO 29004KT 240V330 CAVOK 11/M02 Q1018 NOSIG
2026-03-23 15:20:00,METAR EDDM 231520Z AUTO 30004KT 270V330 CAVOK 12/M02 Q1018 NOSIG
2026-03-23 14:50:00,METAR EDDM 231450Z AUTO 29007KT CAVOK 11/M02 Q1017 NOSIG
2026-03-23 14:20:00,METAR EDDM 231420Z AUTO 32007KT 280V340 CAVOK 12/M02 Q1017 NOSIG
2026-03-23 13:50:00,METAR EDDM 231350Z AUTO 29006KT 260V320 CAVOK 11/M03 Q1017 NOSIG
2026-03-23 13:20:00,METAR EDDM 231320Z AUTO 30007KT 270V340 CAVOK 11/M01 Q1017 NOSIG
2026-03-23 12:50:00,METAR EDDM 231250Z AUTO 35005KT 310V040 CAVOK 11/M01 Q1017 NOSIG
2026-03-23 12:20:00,METAR EDDM 231220Z AUTO VRB03KT CAVOK 13/M00 Q1017 NOSIG
2026-03-23 11:50:00,METAR EDDM 231150Z AUTO VRB05KT CAVOK 12/M00 Q1017 NOSIG
2026-03-23 11:20:00,METAR EDDM 231120Z AUTO 26005KT 190V350 CAVOK 11/00 Q1017 NOSIG
2026-03-23 10:50:00,METAR EDDM 231050Z AUTO 27004KT 220V010 CAVOK 11/00 Q1017 NOSIG
2026-03-23 10:20:00,METAR EDDM 231020Z AUTO VRB04KT CAVOK 10/01 Q1017 NOSIG
2026-03-23 09:50:00,METAR EDDM 230950Z AUTO 27005KT 230V320 CAVOK 09/00 Q1017 NOSIG
2026-03-23 09:20:00,METAR EDDM 230920Z AUTO 28005KT 220V320 CAVOK 08/00 Q1017 NOSIG
2026-03-23 08:50:00,METAR EDDM 230850Z AUTO 29005KT 230V320 CAVOK 07/M00 Q1016 NOSIG
2026-03-23 08:20:00,METAR EDDM 230820Z AUTO 29004KT 210V320 CAVOK 05/M01 Q1016 NOSIG
2026-03-23 07:50:00,METAR EDDM 230750Z AUTO 28004KT CAVOK 04/M00 Q1016 NOSIG
2026-03-23 07:20:00,METAR EDDM 230720Z AUTO 27005KT 240V310 CAVOK 03/M00 Q1016 NOSIG
2026-03-23 06:50:00,METAR EDDM 230650Z AUTO 25003KT 180V290 CAVOK 01/M01 Q1015 NOSIG
2026-03-23 06:20:00,METAR EDDM 230620Z AUTO VRB02KT CAVOK M00/M02 Q1015 NOSIG
2026-03-23 05:50:00,METAR EDDM 230550Z AUTO VRB02KT CAVOK M00/M02 Q1015 NOSIG
2026-03-23 05:20:00,METAR EDDM 230520Z AUTO VRB02KT CAVOK M03/M04 Q1015 NOSIG
2026-03-23 04:50:00,METAR EDDM 230450Z AUTO 25004KT CAVOK M04/M05 Q1014 NOSIG
2026-03-23 04:20:00,METAR EDDM 230420Z AUTO VRB02KT CAVOK M04/M05 Q1014 NOSIG
2026-03-23 03:50:00,METAR EDDM 230350Z AUTO 23002KT CAVOK M04/M05 Q1014 NOSIG
2026-03-23 03:20:00,METAR EDDM 230320Z AUTO 23003KT CAVOK M03/M04 Q1014 NOSIG
2026-03-23 02:50:00,METAR EDDM 230250Z AUTO 23003KT CAVOK M03/M04 Q1013 NOSIG
2026-03-23 02:20:00,METAR EDDM 230220Z AUTO VRB01KT CAVOK M03/M04 Q1013 NOSIG
2026-03-23 01:50:00,METAR EDDM 230150Z AUTO 02001KT CAVOK M03/M04 Q1013 NOSIG
2026-03-23 01:20:00,METAR EDDM 230120Z AUTO VRB01KT CAVOK M02/M04 Q1013 NOSIG
2026-03-23 00:50:00,METAR EDDM 230050Z AUTO 02003KT CAVOK M02/M03 Q1013 NOSIG
2026-03-23 00:20:00,METAR EDDM 230020Z AUTO 03002KT CAVOK M01/M03 Q1012 NOSIG
2026-03-22 23:50:00,METAR EDDM 222350Z AUTO 02004KT CAVOK 00/M02 Q1012 NOSIG
2026-03-22 23:20:00,METAR EDDM 222320Z AUTO 02005KT CAVOK 00/M02 Q1012 NOSIG
2026-03-22 22:50:00,METAR EDDM 222250Z AUTO 01004KT CAVOK 01/M02 Q1012 NOSIG
2026-03-22 22:20:00,METAR EDDM 222220Z AUTO 04004KT CAVOK 03/M02 Q1012 NOSIG
2026-03-22 21:50:00,METAR EDDM 222150Z AUTO 04004KT CAVOK 04/M01 Q1012 NOSIG
2026-03-22 21:20:00,METAR EDDM 222120Z AUTO 04006KT CAVOK 04/M01 Q1012 NOSIG
2026-03-22 20:50:00,METAR EDDM 222050Z AUTO 05006KT CAVOK 05/M01 Q1012 NOSIG
2026-03-22 20:20:00,METAR EDDM 222020Z AUTO 04006KT CAVOK 05/M01 Q1012 NOSIG
2026-03-22 19:50:00,METAR EDDM 221950Z AUTO 04005KT CAVOK 06/M01 Q1012 NOSIG
2026-03-22 19:20:00,METAR EDDM 221920Z AUTO 04006KT 020V080 CAVOK 06/M01 Q1012 NOSIG
2026-03-22 18:50:00,METAR EDDM 221850Z AUTO 05006KT CAVOK 07/M01 Q1011 NOSIG
2026-03-22 18:20:00,METAR EDDM 221820Z AUTO 05006KT CAVOK 08/M01 Q1011 NOSIG
2026-03-22 17:50:00,METAR EDDM 221750Z AUTO 06005KT CAVOK 09/M01 Q1011 NOSIG
2026-03-22 17:20:00,METAR EDDM 221720Z AUTO 08008KT CAVOK 10/M01 Q1011 NOSIG
2026-03-22 16:50:00,METAR EDDM 221650Z AUTO 08009KT CAVOK 11/M01 Q1011 NOSIG
2026-03-22 16:20:00,METAR EDDM 221620Z AUTO 08009KT CAVOK 12/M02 Q1011 NOSIG
2026-03-22 15:50:00,METAR EDDM 221550Z AUTO 09010KT CAVOK 13/M01 Q1011 NOSIG
2026-03-22 15:20:00,METAR EDDM 221520Z AUTO 09012KT 040V110 CAVOK 13/M02 Q1011 NOSIG
2026-03-22 14:50:00,METAR EDDM 221450Z AUTO 08011KT 040V120 CAVOK 13/M02 Q1011 NOSIG
2026-03-22 14:20:00,METAR EDDM 221420Z AUTO 09013KT 040V120 CAVOK 13/M02 Q1011 NOSIG
2026-03-22 13:50:00,METAR EDDM 221350Z AUTO 09013KT 050V120 CAVOK 13/M03 Q1011 NOSIG
2026-03-22 13:20:00,METAR EDDM 221320Z AUTO 10012KT 060V130 CAVOK 13/M02 Q1011 NOSIG
2026-03-22 12:50:00,METAR EDDM 221250Z AUTO 09012KT 070V130 CAVOK 13/M02 Q1012 NOSIG
2026-03-22 12:20:00,METAR EDDM 221220Z AUTO 11011KT 060V130 CAVOK 13/M02 Q1012 NOSIG
2026-03-22 11:50:00,METAR EDDM 221150Z AUTO 09014KT 050V120 CAVOK 12/M01 Q1012 NOSIG
2026-03-22 11:20:00,METAR EDDM 221120Z AUTO 09013KT 050V110 CAVOK 12/M01 Q1012 NOSIG
2026-03-22 10:50:00,METAR EDDM 221050Z AUTO 09014KT CAVOK 12/M00 Q1012 NOSIG
2026-03-22 10:20:00,METAR EDDM 221020Z AUTO 10014KT CAVOK 11/M00 Q1012 NOSIG
2026-03-22 09:50:00,METAR EDDM 220950Z AUTO 11014KT 070V130 CAVOK 10/M00 Q1012 NOSIG
2026-03-22 09:20:00,METAR EDDM 220920Z AUTO 10016KT CAVOK 10/M00 Q1012 NOSIG
2026-03-22 08:50:00,METAR EDDM 220850Z AUTO 10014KT CAVOK 08/M00 Q1013 NOSIG
2026-03-22 08:20:00,METAR EDDM 220820Z AUTO 10010KT CAVOK 07/00 Q1013 NOSIG
2026-03-22 07:50:00,METAR EDDM 220750Z AUTO 09012KT CAVOK 06/01 Q1013 NOSIG
2026-03-22 07:20:00,METAR EDDM 220720Z AUTO 10009KT CAVOK 05/01 Q1013 NOSIG
2026-03-22 06:50:00,METAR EDDM 220650Z AUTO 08006KT CAVOK 04/01 Q1013 NOSIG
2026-03-22 06:20:00,METAR EDDM 220620Z AUTO 07004KT CAVOK 01/M01 Q1013 NOSIG
2026-03-22 05:50:00,METAR EDDM 220550Z AUTO 05002KT CAVOK M01/M02 Q1013 NOSIG
2026-03-22 05:20:00,METAR EDDM 220520Z AUTO 05003KT 9999 4000 BR NCD M01/M01 Q1013 NOSIG
2026-03-22 04:50:00,METAR EDDM 220450Z AUTO 07004KT CAVOK 00/M01 Q1013 NOSIG
2026-03-22 04:20:00,METAR EDDM 220420Z AUTO 07005KT CAVOK 01/M01 Q1013 NOSIG
2026-03-22 03:50:00,METAR EDDM 220350Z AUTO 08006KT CAVOK 02/00 Q1013 NOSIG
2026-03-22 03:20:00,METAR EDDM 220320Z AUTO 07007KT CAVOK 01/M00 Q1012 NOSIG
2026-03-22 02:50:00,METAR EDDM 220250Z AUTO 06004KT 020V100 CAVOK 02/00 Q1012 NOSIG
2026-03-22 02:20:00,METAR EDDM 220220Z AUTO 06005KT CAVOK 02/00 Q1012 NOSIG
2026-03-22 01:50:00,METAR EDDM 220150Z AUTO 05005KT CAVOK 02/00 Q1012 NOSIG
2026-03-22 01:20:00,METAR EDDM 220120Z AUTO 06004KT CAVOK 02/00 Q1012 NOSIG
2026-03-22 00:50:00,METAR EDDM 220050Z AUTO 05005KT CAVOK 02/00 Q1013 NOSIG
2026-03-22 00:20:00,METAR EDDM 220020Z AUTO 05005KT CAVOK 02/01 Q1013 NOSIG
2026-03-21 23:50:00,METAR EDDM 212350Z AUTO 06006KT CAVOK 03/01 Q1013 NOSIG
2026-03-21 23:20:00,METAR EDDM 212320Z AUTO 05005KT CAVOK 03/01 Q1013 NOSIG
2026-03-21 22:50:00,METAR EDDM 212250Z AUTO 05005KT CAVOK 03/01 Q1013 NOSIG
2026-03-21 22:20:00,METAR EDDM 212220Z AUTO 05005KT CAVOK 03/01 Q1013 NOSIG
2026-03-21 21:50:00,METAR EDDM 212150Z AUTO 05005KT CAVOK 04/01 Q1014 NOSIG
2026-03-21 21:20:00,METAR EDDM 212120Z AUTO 05005KT CAVOK 04/02 Q1014 NOSIG
2026-03-21 20:50:00,METAR EDDM 212050Z AUTO 05006KT 9999 FEW047 04/02 Q1014 NOSIG
2026-03-21 20:20:00,METAR EDDM 212020Z AUTO 05006KT CAVOK 04/02 Q1014 NOSIG
2026-03-21 19:50:00,METAR EDDM 211950Z AUTO 06006KT CAVOK 05/02 Q1014 NOSIG
2026-03-21 19:20:00,METAR EDDM 211920Z AUTO 05006KT 030V090 9999 FEW033 05/02 Q1014 NOSIG
2026-03-21 18:50:00,METAR EDDM 211850Z AUTO 05005KT CAVOK 06/02 Q1014 NOSIG
2026-03-21 18:20:00,METAR EDDM 211820Z AUTO 05006KT CAVOK 06/03 Q1013 NOSIG
2026-03-21 17:50:00,METAR EDDM 211750Z AUTO 06005KT CAVOK 06/03 Q1013 NOSIG
2026-03-21 17:20:00,METAR EDDM 211720Z AUTO 05006KT 9999 FEW036 07/03 Q1013 NOSIG
2026-03-21 16:50:00,METAR EDDM 211650Z AUTO 06007KT 9999 FEW045 08/03 Q1013 NOSIG
2026-03-21 16:20:00,METAR EDDM 211620Z AUTO 07009KT 040V100 9999 SCT046 09/03 Q1013 NOSIG
2026-03-21 15:50:00,METAR EDDM 211550Z AUTO 07011KT 9999 FEW018 SCT046 10/03 Q1013 NOSIG
2026-03-21 14:50:00,METAR EDDM 211450Z AUTO 07008KT 030V100 9999 BKN042 11/02 Q1013 NOSIG
2026-03-21 14:20:00,METAR EDDM 211420Z AUTO 07009KT 040V100 9999 SCT038 10/02 Q1013 NOSIG
2026-03-21 13:50:00,METAR EDDM 211350Z AUTO 08009KT 050V110 9999 FEW039 11/02 Q1013 NOSIG
2026-03-21 13:20:00,METAR EDDM 211320Z AUTO 08010KT 040V110 9999 FEW038 11/02 Q1013 NOSIG
2026-03-21 12:50:00,METAR EDDM 211250Z AUTO 07009KT 020V100 9999 FEW033 10/01 Q1013 NOSIG
2026-03-21 12:20:00,METAR EDDM 211220Z AUTO 05008KT 9999 FEW034 10/02 Q1014 NOSIG
2026-03-21 11:50:00,METAR EDDM 211150Z AUTO 07008KT 030V100 CAVOK 10/02 Q1014 NOSIG
2026-03-21 11:20:00,METAR EDDM 211120Z AUTO 06009KT 010V090 CAVOK 09/02 Q1014 NOSIG
2026-03-21 10:50:00,METAR EDDM 211050Z AUTO 07007KT 030V100 9999 FEW045 09/02 Q1014 NOSIG
2026-03-21 10:20:00,METAR EDDM 211020Z AUTO 07007KT 040V130 9999 FEW037 09/02 Q1014 NOSIG
2026-03-21 09:50:00,METAR EDDM 210950Z AUTO 08008KT 9999 FEW039 SCT048 09/02 Q1015 NOSIG
2026-03-21 09:20:00,METAR EDDM 210920Z AUTO 05007KT 010V080 9999 SCT042 09/02 Q1015 NOSIG
2026-03-21 08:50:00,METAR EDDM 210850Z AUTO 06009KT 020V080 CAVOK 09/02 Q1015 NOSIG
2026-03-21 08:20:00,METAR EDDM 210820Z AUTO 06007KT 040V100 9999 FEW039 08/02 Q1015 NOSIG
2026-03-21 07:50:00,METAR EDDM 210750Z AUTO 06005KT 020V100 9999 FEW046 07/02 Q1015 NOSIG
2026-03-21 07:20:00,METAR EDDM 210720Z AUTO 06004KT 030V090 CAVOK 06/03 Q1015 NOSIG
2026-03-21 06:50:00,METAR EDDM 210650Z AUTO VRB01KT CAVOK 03/02 Q1015 NOSIG
2026-03-21 06:20:00,METAR EDDM 210620Z AUTO VRB01KT CAVOK 00/M01 Q1015 NOSIG
2026-03-21 05:50:00,METAR EDDM 210550Z AUTO VRB01KT CAVOK M00/M01 Q1014 NOSIG
2026-03-21 05:20:00,METAR EDDM 210520Z AUTO VRB01KT CAVOK M00/M01 Q1014 NOSIG
2026-03-21 04:50:00,METAR EDDM 210450Z AUTO 01002KT 9000 NSC M01/M02 Q1014 NOSIG
2026-03-21 04:20:00,METAR EDDM 210420Z AUTO VRB02KT CAVOK 01/M00 Q1014 NOSIG
2026-03-21 03:50:00,METAR EDDM 210350Z AUTO 06003KT 9999 FEW049 02/00 Q1014 NOSIG
2026-03-21 03:20:00,METAR EDDM 210320Z AUTO 04002KT CAVOK 01/M00 Q1015 NOSIG
2026-03-21 02:50:00,METAR EDDM 210250Z AUTO VRB02KT CAVOK 02/M00 Q1015 NOSIG
2026-03-21 02:20:00,METAR EDDM 210220Z AUTO 06003KT CAVOK 02/M00 Q1015 NOSIG
2026-03-21 01:50:00,METAR EDDM 210150Z AUTO 06004KT CAVOK 04/01 Q1015 NOSIG
2026-03-21 01:20:00,METAR EDDM 210120Z AUTO 06004KT CAVOK 04/01 Q1015 NOSIG
2026-03-21 00:50:00,METAR EDDM 210050Z AUTO 07003KT CAVOK 05/01 Q1016 NOSIG
2026-03-21 00:20:00,METAR EDDM 210020Z AUTO 07004KT 9999 FEW049 05/01 Q1016 NOSIG
2026-03-20 23:50:00,METAR EDDM 202350Z AUTO 06004KT CAVOK 05/01 Q1016 NOSIG
2026-03-20 23:20:00,METAR EDDM 202320Z AUTO 05004KT CAVOK 03/00 Q1016 NOSIG
2026-03-20 22:50:00,METAR EDDM 202250Z AUTO VRB02KT CAVOK 04/01 Q1016 NOSIG
2026-03-20 22:20:00,METAR EDDM 202220Z AUTO 05002KT CAVOK 04/01 Q1016 NOSIG
2026-03-20 21:50:00,METAR EDDM 202150Z AUTO 05002KT CAVOK 04/00 Q1016 NOSIG
2026-03-20 21:20:00,METAR EDDM 202120Z AUTO 07002KT CAVOK 05/00 Q1016 NOSIG
2026-03-20 20:50:00,METAR EDDM 202050Z AUTO 08003KT CAVOK 05/01 Q1016 NOSIG
2026-03-20 20:20:00,METAR EDDM 202020Z AUTO VRB01KT CAVOK 04/01 Q1017 NOSIG
2026-03-20 19:50:00,METAR EDDM 201950Z AUTO 05003KT CAVOK 04/00 Q1017 NOSIG
2026-03-20 19:20:00,METAR EDDM 201920Z AUTO 05003KT CAVOK 05/M00 Q1017 NOSIG
2026-03-20 18:50:00,METAR EDDM 201850Z AUTO 02003KT CAVOK 06/M00 Q1017 NOSIG
2026-03-20 18:20:00,METAR EDDM 201820Z AUTO 02003KT CAVOK 06/00 Q1017 NOSIG
2026-03-20 17:50:00,METAR EDDM 201750Z AUTO VRB02KT CAVOK 09/M00 Q1017 NOSIG
2026-03-20 17:20:00,METAR EDDM 201720Z AUTO 09004KT CAVOK 10/M01 Q1017 NOSIG
2026-03-20 16:50:00,METAR EDDM 201650Z AUTO 09006KT CAVOK 11/M01 Q1017 NOSIG
2026-03-20 16:20:00,METAR EDDM 201620Z AUTO 07005KT 030V100 CAVOK 12/M01 Q1016 NOSIG
2026-03-20 15:50:00,METAR EDDM 201550Z AUTO 08006KT 040V110 CAVOK 12/M01 Q1017 NOSIG
2026-03-20 15:20:00,METAR EDDM 201520Z AUTO 08007KT 050V110 CAVOK 12/M02 Q1017 NOSIG
2026-03-20 14:50:00,METAR EDDM 201450Z AUTO VRB06KT CAVOK 12/M00 Q1017 NOSIG
2026-03-20 14:20:00,METAR EDDM 201420Z AUTO VRB02KT CAVOK 13/M01 Q1017 NOSIG
2026-03-20 13:50:00,METAR EDDM 201350Z AUTO 05005KT 350V130 CAVOK 14/M00 Q1017 NOSIG
2026-03-20 13:20:00,METAR EDDM 201320Z AUTO 14004KT 080V190 CAVOK 12/M02 Q1017 NOSIG
2026-03-20 12:50:00,METAR EDDM 201250Z AUTO 11003KT 070V180 CAVOK 13/M00 Q1018 NOSIG
2026-03-20 12:20:00,METAR EDDM 201220Z AUTO 09004KT 350V150 CAVOK 13/01 Q1018 NOSIG
2026-03-20 11:50:00,METAR EDDM 201150Z AUTO VRB05KT CAVOK 12/M00 Q1018 NOSIG
2026-03-20 11:20:00,METAR EDDM 201120Z AUTO VRB03KT CAVOK 12/M02 Q1018 NOSIG
2026-03-20 10:50:00,METAR EDDM 201050Z AUTO 09004KT 030V190 CAVOK 12/01 Q1019 NOSIG
2026-03-20 10:20:00,METAR EDDM 201020Z COR AUTO 09004KT 020V150 CAVOK 11/02 Q1019 NOSIG
2026-03-20 09:50:00,METAR EDDM 200950Z AUTO VRB02KT CAVOK 10/01 Q1019 BECMG 07005KT
2026-03-20 09:20:00,METAR EDDM 200920Z AUTO 13004KT 090V190 CAVOK 09/01 Q1019 BECMG 07005KT
2026-03-20 08:50:00,METAR EDDM 200850Z AUTO VRB02KT CAVOK 08/01 Q1019 BECMG 07005KT
2026-03-20 08:20:00,METAR EDDM 200820Z AUTO VRB02KT CAVOK 06/01 Q1019 NOSIG
2026-03-20 07:50:00,METAR EDDM 200750Z AUTO VRB01KT CAVOK 05/00 Q1020 NOSIG
2026-03-20 07:20:00,METAR EDDM 200720Z AUTO VRB01KT CAVOK 04/00 Q1019 NOSIG
2026-03-20 06:50:00,METAR EDDM 200650Z AUTO VRB01KT CAVOK 02/M00 Q1019 NOSIG
2026-03-20 06:20:00,METAR EDDM 200620Z AUTO 19001KT CAVOK M02/M03 Q1019 NOSIG
2026-03-20 05:50:00,METAR EDDM 200550Z AUTO 22001KT CAVOK M03/M04 Q1019 NOSIG
2026-03-20 05:20:00,METAR EDDM 200520Z AUTO 17001KT CAVOK M03/M04 Q1019 NOSIG
2026-03-20 04:50:00,METAR EDDM 200450Z AUTO 20003KT CAVOK M03/M04 Q1019 NOSIG
2026-03-20 04:20:00,METAR EDDM 200420Z AUTO 17001KT CAVOK M03/M04 Q1019 NOSIG
2026-03-20 03:50:00,METAR EDDM 200350Z AUTO 00000KT CAVOK M04/M05 Q1019 NOSIG
2026-03-20 03:20:00,METAR EDDM 200320Z AUTO 18001KT CAVOK M04/M05 Q1018 NOSIG
2026-03-20 02:50:00,METAR EDDM 200250Z AUTO 13002KT CAVOK M03/M04 Q1018 NOSIG
2026-03-20 02:20:00,METAR EDDM 200220Z AUTO 00000KT CAVOK M03/M03 Q1019 NOSIG
2026-03-20 01:50:00,METAR EDDM 200150Z AUTO 00000KT CAVOK M02/M03 Q1019 NOSIG
2026-03-20 01:20:00,METAR EDDM 200120Z AUTO 00000KT CAVOK M02/M04 Q1019 NOSIG
2026-03-20 00:50:00,METAR EDDM 200050Z AUTO VRB01KT CAVOK M02/M03 Q1019 NOSIG
2026-03-20 00:20:00,METAR EDDM 200020Z AUTO 32001KT CAVOK M02/M04 Q1020 NOSIG
2026-03-19 23:50:00,METAR EDDM 192350Z AUTO VRB01KT CAVOK M02/M04 Q1020 NOSIG
2026-03-19 23:20:00,METAR EDDM 192320Z AUTO 29001KT CAVOK M01/M03 Q1020 NOSIG
2026-03-19 22:50:00,METAR EDDM 192250Z AUTO VRB01KT CAVOK M01/M03 Q1020 NOSIG
2026-03-19 22:20:00,METAR EDDM 192220Z AUTO 02002KT CAVOK M00/M03 Q1020 NOSIG
2026-03-19 21:50:00,METAR EDDM 192150Z AUTO VRB01KT CAVOK 01/M02 Q1020 NOSIG
2026-03-19 21:20:00,METAR EDDM 192120Z AUTO VRB01KT CAVOK 00/M02 Q1021 NOSIG
2026-03-19 20:50:00,METAR EDDM 192050Z AUTO 32002KT CAVOK 02/M03 Q1021 NOSIG
2026-03-19 20:20:00,METAR EDDM 192020Z AUTO 00000KT CAVOK 02/M02 Q1021 NOSIG
2026-03-19 19:50:00,METAR EDDM 191950Z AUTO 12005KT 040V130 CAVOK 04/M02 Q1021 NOSIG
2026-03-19 19:20:00,METAR EDDM 191920Z AUTO VRB02KT CAVOK 03/M03 Q1020 NOSIG
2026-03-19 18:50:00,METAR EDDM 191850Z AUTO 02003KT CAVOK 06/M03 Q1020 NOSIG
2026-03-19 18:20:00,METAR EDDM 191820Z AUTO 36004KT CAVOK 07/M02 Q1020 NOSIG
2026-03-19 17:50:00,METAR EDDM 191750Z AUTO 02002KT CAVOK 10/M04 Q1020 NOSIG
2026-03-19 17:20:00,METAR EDDM 191720Z AUTO 08006KT CAVOK 10/M03 Q1020 NOSIG
2026-03-19 16:50:00,METAR EDDM 191650Z AUTO 08006KT 040V100 CAVOK 11/M02 Q1020 NOSIG
2026-03-19 16:20:00,METAR EDDM 191620Z AUTO 08008KT CAVOK 12/M03 Q1020 NOSIG
2026-03-19 15:50:00,METAR EDDM 191550Z AUTO 08008KT 050V110 CAVOK 13/M03 Q1020 NOSIG
2026-03-19 15:20:00,METAR EDDM 191520Z AUTO 08008KT 040V110 CAVOK 13/M02 Q1020 NOSIG
2026-03-19 14:50:00,METAR EDDM 191450Z AUTO 03007KT 360V080 CAVOK 13/M00 Q1020 NOSIG
2026-03-19 14:20:00,METAR EDDM 191420Z AUTO 07008KT 040V100 CAVOK 13/M00 Q1021 NOSIG
2026-03-19 13:50:00,METAR EDDM 191350Z AUTO 04010KT 360V090 CAVOK 13/01 Q1021 NOSIG
2026-03-19 13:20:00,METAR EDDM 191320Z AUTO 04009KT 010V080 CAVOK 13/00 Q1021 NOSIG
2026-03-19 12:50:00,METAR EDDM 191250Z AUTO 08008KT 040V110 CAVOK 12/00 Q1021 NOSIG
2026-03-19 12:20:00,METAR EDDM 191220Z AUTO 08009KT 040V110 CAVOK 12/00 Q1022 NOSIG
2026-03-19 11:50:00,METAR EDDM 191150Z AUTO 07009KT 030V090 CAVOK 12/01 Q1022 NOSIG
2026-03-19 11:20:00,METAR EDDM 191120Z AUTO 08009KT 030V120 CAVOK 11/01 Q1023 NOSIG
2026-03-19 10:50:00,METAR EDDM 191050Z AUTO 08006KT 040V130 CAVOK 11/00 Q1023 NOSIG
2026-03-19 10:20:00,METAR EDDM 191020Z AUTO 06006KT 360V110 CAVOK 10/02 Q1023 NOSIG
2026-03-19 09:50:00,METAR EDDM 190950Z AUTO 06007KT 030V100 CAVOK 08/01 Q1023 NOSIG
2026-03-19 09:20:00,METAR EDDM 190920Z AUTO 08008KT 050V110 CAVOK 07/M00 Q1023 NOSIG
2026-03-19 08:50:00,METAR EDDM 190850Z AUTO 10012KT CAVOK 07/M00 Q1023 NOSIG
2026-03-19 08:20:00,METAR EDDM 190820Z AUTO 07007KT 040V100 CAVOK 07/M00 Q1024 NOSIG
2026-03-19 07:50:00,METAR EDDM 190750Z AUTO 07007KT CAVOK 06/00 Q1024 NOSIG
2026-03-19 07:20:00,METAR EDDM 190720Z AUTO 05006KT CAVOK 05/00 Q1024 NOSIG
2026-03-19 06:50:00,METAR EDDM 190650Z AUTO 04006KT CAVOK 03/M00 Q1023 NOSIG
2026-03-19 06:20:00,METAR EDDM 190620Z AUTO 03003KT CAVOK 01/M01 Q1023 NOSIG
2026-03-19 05:50:00,METAR EDDM 190550Z AUTO VRB01KT CAVOK 01/M01 Q1023 NOSIG
2026-03-19 05:20:00,METAR EDDM 190520Z AUTO 05004KT 020V090 CAVOK 02/M01 Q1023 NOSIG
2026-03-19 04:50:00,METAR EDDM 190450Z AUTO 07003KT 040V100 CAVOK 02/M01 Q1022 NOSIG
2026-03-19 04:20:00,METAR EDDM 190420Z AUTO 05006KT CAVOK 03/M01 Q1022 NOSIG
2026-03-19 03:50:00,METAR EDDM 190350Z AUTO 06006KT CAVOK 03/M00 Q1022 NOSIG
2026-03-19 03:20:00,METAR EDDM 190320Z AUTO 08007KT CAVOK 03/M00 Q1022 NOSIG
2026-03-19 02:50:00,METAR EDDM 190250Z AUTO 06006KT CAVOK 03/M00 Q1022 NOSIG
2026-03-19 02:20:00,METAR EDDM 190220Z AUTO 07006KT CAVOK 03/00 Q1022 NOSIG
2026-03-19 01:50:00,METAR EDDM 190150Z AUTO 06004KT CAVOK 03/00 Q1022 NOSIG
2026-03-19 01:20:00,METAR EDDM 190120Z AUTO 06006KT CAVOK 04/01 Q1023 NOSIG
2026-03-19 00:50:00,METAR EDDM 190050Z AUTO 08012KT CAVOK 05/01 Q1023 NOSIG
2026-03-19 00:20:00,METAR EDDM 190020Z AUTO 07009KT CAVOK 05/01 Q1023 NOSIG
2026-03-18 23:50:00,METAR EDDM 182350Z AUTO 08005KT 050V110 CAVOK 05/02 Q1023 NOSIG
2026-03-18 23:20:00,METAR EDDM 182320Z AUTO 08007KT CAVOK 05/02 Q1023 NOSIG
2026-03-18 22:50:00,METAR EDDM 182250Z AUTO 09006KT CAVOK 05/01 Q1023 NOSIG
2026-03-18 22:20:00,METAR EDDM 182220Z AUTO 07006KT CAVOK 04/01 Q1023 NOSIG
2026-03-18 21:50:00,METAR EDDM 182150Z AUTO 06006KT CAVOK 05/01 Q1023 NOSIG
2026-03-18 21:20:00,METAR EDDM 182120Z AUTO 05005KT CAVOK 06/02 Q1023 NOSIG
2026-03-18 20:50:00,METAR EDDM 182050Z AUTO 06005KT CAVOK 05/02 Q1023 NOSIG
2026-03-18 20:20:00,METAR EDDM 182020Z AUTO 05005KT CAVOK 05/02 Q1023 NOSIG
2026-03-18 19:50:00,METAR EDDM 181950Z AUTO 08006KT CAVOK 06/02 Q1023 NOSIG
2026-03-18 19:20:00,METAR EDDM 181920Z AUTO 09005KT CAVOK 07/02 Q1023 NOSIG
2026-03-18 18:50:00,METAR EDDM 181850Z AUTO 10006KT CAVOK 07/02 Q1023 NOSIG
2026-03-18 18:20:00,METAR EDDM 181820Z AUTO 07005KT CAVOK 07/03 Q1023 NOSIG
2026-03-18 17:50:00,METAR EDDM 181750Z AUTO 07004KT CAVOK 08/03 Q1023 NOSIG
2026-03-18 17:20:00,METAR EDDM 181720Z AUTO 08006KT CAVOK 09/03 Q1023 NOSIG
2026-03-18 16:50:00,METAR EDDM 181650Z AUTO 09008KT CAVOK 10/04 Q1023 NOSIG
2026-03-18 16:20:00,METAR EDDM 181620Z AUTO 09012KT CAVOK 11/03 Q1023 NOSIG
2026-03-18 15:50:00,METAR EDDM 181550Z AUTO 08013KT CAVOK 11/03 Q1023 NOSIG
2026-03-18 15:20:00,METAR EDDM 181520Z AUTO 09017KT CAVOK 11/02 Q1022 NOSIG
2026-03-18 14:50:00,METAR EDDM 181450Z AUTO 08014G24KT CAVOK 11/02 Q1022 NOSIG
2026-03-18 14:20:00,METAR EDDM 181420Z AUTO 08018G28KT CAVOK 11/02 Q1022 NOSIG
2026-03-18 13:50:00,METAR EDDM 181350Z AUTO 08016KT 050V110 9999 FEW034 11/03 Q1022 NOSIG
2026-03-18 13:20:00,METAR EDDM 181320Z AUTO 08016KT 9999 FEW033 10/03 Q1022 NOSIG
2026-03-18 12:50:00,METAR EDDM 181250Z AUTO 08017KT 9999 FEW031 10/03 Q1022 NOSIG
2026-03-18 12:20:00,METAR EDDM 181220Z AUTO 08015KT 040V100 9999 FEW029 10/03 Q1023 NOSIG
2026-03-18 11:50:00,METAR EDDM 181150Z AUTO 08018KT 9999 SCT027 10/04 Q1023 NOSIG
2026-03-18 11:20:00,METAR EDDM 181120Z AUTO 09017KT 9999 FEW023 09/03 Q1023 NOSIG
2026-03-18 10:50:00,METAR EDDM 181050Z AUTO 09013KT 9999 SCT019 SCT024 08/03 Q1024 TEMPO 09015G25KT
2026-03-18 10:20:00,METAR EDDM 181020Z AUTO 10016KT 9999 BKN021 06/02 Q1024 NOSIG
2026-03-18 09:50:00,METAR EDDM 180950Z AUTO 09015KT 9999 SCT020 BKN024 06/02 Q1024 TEMPO 08015G25KT
2026-03-18 09:20:00,METAR EDDM 180920Z AUTO 09014KT 050V110 9999 SCT019 05/02 Q1024 NOSIG
2026-03-18 08:50:00,METAR EDDM 180850Z AUTO 09009KT 9999 BKN019 05/01 Q1024 NOSIG
2026-03-18 08:20:00,METAR EDDM 180820Z AUTO 06005KT 9999 OVC020 02/01 Q1024 BECMG 08011KT
2026-03-18 07:50:00,METAR EDDM 180750Z AUTO 06004KT 9999 OVC019 01/M01 Q1024 BECMG 08011KT
2026-03-18 07:20:00,METAR EDDM 180720Z AUTO 04005KT 9999 BKN019 00/M01 Q1024 BECMG 08011KT
2026-03-18 06:50:00,METAR EDDM 180650Z AUTO 04004KT CAVOK M00/M01 Q1024 BECMG 08011KT
2026-03-18 06:20:00,METAR EDDM 180620Z AUTO 05003KT 9999 FEW038 M01/M02 Q1023 NOSIG
2026-03-18 05:50:00,METAR EDDM 180550Z AUTO 07004KT CAVOK M02/M03 Q1023 NOSIG
2026-03-18 05:20:00,METAR EDDM 180520Z AUTO 05004KT CAVOK M03/M03 Q1023 NOSIG
2026-03-18 04:50:00,METAR EDDM 180450Z AUTO 05004KT CAVOK M02/M03 Q1023 NOSIG
2026-03-18 04:20:00,METAR EDDM 180420Z AUTO 05004KT CAVOK M02/M03 Q1023 NOSIG
2026-03-18 03:50:00,METAR EDDM 180350Z AUTO 05004KT CAVOK M02/M02 Q1023 NOSIG
2026-03-18 03:20:00,METAR EDDM 180320Z AUTO 05004KT CAVOK M02/M02 Q1023 NOSIG
2026-03-18 02:50:00,METAR EDDM 180250Z AUTO 05003KT CAVOK M02/M02 Q1023 NOSIG
2026-03-18 02:20:00,METAR EDDM 180220Z AUTO 05003KT CAVOK M02/M02 Q1023 TEMPO 2000
2026-03-18 01:50:00,METAR EDDM 180150Z AUTO 06003KT 030V090 5000 1400 R08L/1100U R08R/P2000N BR NCD M02/M02 Q1023 TEMPO 2000
2026-03-18 01:20:00,METAR EDDM 180120Z AUTO 03001KT 4100 0800 R08L/P2000N R08R/P2000N BCFG NCD M03/M03 Q1023 TEMPO 4000
2026-03-18 00:50:00,METAR EDDM 180050Z AUTO 05004KT 5000 1100 R08L/P2000N R08R/P2000N BR NCD M02/M02 Q1023 TEMPO 4000
2026-03-18 00:20:00,METAR EDDM 180020Z AUTO 06005KT 4100 0400 R08L/1400U R08R/0450N BCFG NCD M02/M02 Q1023 TEMPO 6000
2026-03-17 23:50:00,METAR EDDM 172350Z AUTO 09004KT 0450 0400 R08L/0450U R08R/0750U FZFG FEW003 SCT008 M03/M03 Q1023 NOSIG
2026-03-17 23:20:00,METAR EDDM 172320Z AUTO VRB02KT 0500 0400 R08L/0550N R08R/0550D FZFG FEW002 M03/M03 Q1023 NOSIG
2026-03-17 22:50:00,METAR EDDM 172250Z AUTO 07002KT 0550 0450 R08L/0900N R08R/0450D FZFG FEW006 M02/M03 Q1023 TEMPO 1200
2026-03-17 22:20:00,METAR EDDM 172220Z AUTO 08003KT 1000 0400 R08L/0400D R08R/P2000N BCFG FEW002 M01/M01 Q1023 TEMPO 1500
2026-03-17 21:50:00,METAR EDDM 172150Z AUTO 03002KT 0600 0500 R08L/0700D R08R/0750U FZFG NCD M02/M02 Q1023 NOSIG
2026-03-17 21:20:00,METAR EDDM 172120Z AUTO 06002KT 0500 0400 R08L/0700D R08R/1500U FZFG NCD M02/M02 Q1023 TEMPO 1000 BCFG
2026-03-17 20:50:00,METAR EDDM 172050Z AUTO 01002KT 1000 0650 R08L/1800U R08R/P2000N BCFG NCD M01/M01 Q1023 TEMPO 1500 BCFG
2026-03-17 20:20:00,METAR EDDM 172020Z AUTO VRB01KT 1300 0900 R08L/P2000N R08R/1700D BCFG NCD M01/M02 Q1023 TEMPO 1200 BCFG
2026-03-17 19:50:00,METAR EDDM 171950Z AUTO VRB02KT 7000 NCD M01/M01 Q1023 TEMPO 1200 BCFG
2026-03-17 19:20:00,METAR EDDM 171920Z AUTO VRB02KT 7000 2000 BR NCD M00/M00 Q1022 NOSIG
2026-03-17 18:50:00,METAR EDDM 171850Z AUTO 06001KT CAVOK 01/00 Q1022 NOSIG
2026-03-17 18:20:00,METAR EDDM 171820Z AUTO VRB02KT CAVOK 01/01 Q1022 NOSIG
2026-03-17 17:50:00,METAR EDDM 171750Z AUTO VRB01KT CAVOK 02/00 Q1022 NOSIG
2026-03-17 17:20:00,METAR EDDM 171720Z AUTO VRB01KT CAVOK 04/01 Q1022 NOSIG
2026-03-17 16:50:00,METAR EDDM 171650Z AUTO 20003KT 100V270 CAVOK 05/02 Q1022 BECMG 08004KT
2026-03-17 16:20:00,METAR EDDM 171620Z AUTO 22005KT 180V250 9999 SCT029 BKN039 05/02 Q1021 BECMG 08004KT
2026-03-17 15:50:00,METAR EDDM 171550Z AUTO 22005KT 9999 FEW027 SCT031 05/02 Q1021 BECMG 08004KT
2026-03-17 14:50:00,METAR EDDM 171450Z AUTO 17004KT 9999 -SHRA FEW018 SCT028 BKN043 FEW///TCU 05/02 Q1022 RESHRA NOSIG
2026-03-17 14:20:00,METAR EDDM 171420Z AUTO 10004KT 070V150 9999 SHRA SCT018 BKN034 BKN047 FEW///CB 05/02 Q1022 BECMG NSW
2026-03-17 13:50:00,METAR EDDM 171350Z AUTO 24004KT 150V300 9999 -SHRA FEW017 SCT032 BKN040 FEW///TCU 07/02 Q1022 TEMPO SHRA
2026-03-17 13:20:00,METAR EDDM 171320Z COR AUTO 25003KT 150V320 9999 VCSH FEW014 SCT029 FEW///TCU 07/02 Q1022 TEMPO SHRA
2026-03-17 12:50:00,METAR EDDM 171250Z AUTO VRB02KT 9999 SCT012 BKN023 06/03 Q1022 BECMG 08005KT
2026-03-17 12:20:00,METAR EDDM 171220Z AUTO VRB03KT 9999 BKN010 06/03 Q1022 BECMG 08005KT SCT010 BKN015
2026-03-17 11:50:00,METAR EDDM 171150Z AUTO VRB04KT 9999 BKN008 05/03 Q1023 BECMG 08005KT SCT008 BKN015
2026-03-17 11:20:00,METAR EDDM 171120Z AUTO 18003KT 150V260 9999 -RA SCT007 SCT046 05/03 Q1023 BECMG 08005KT
2026-03-17 10:50:00,METAR EDDM 171050Z AUTO VRB02KT 9999 BKN007 BKN033 BKN040 04/03 Q1023 BECMG 08005KT SCT007 BKN012
2026-03-17 10:20:00,METAR EDDM 171020Z AUTO 14003KT 080V160 9999 -RA FEW007 BKN033 BKN043 04/03 Q1023 NOSIG
2026-03-17 09:50:00,METAR EDDM 170950Z AUTO 12003KT 080V160 9999 -SHRA FEW005 BKN029 BKN042 FEW///TCU 04/03 Q1023 TEMPO BKN012
2026-03-17 09:20:00,METAR EDDM 170920Z AUTO 08003KT 010V100 9999 -RA FEW005 BKN013 04/03 Q1023 TEMPO BKN014
2026-03-17 08:50:00,METAR EDDM 170850Z AUTO 06003KT 9999 -RADZ BKN015 BKN038 BKN049 04/02 Q1023 TEMPO BKN014
2026-03-17 08:20:00,METAR EDDM 170820Z AUTO 09003KT 060V130 9999 -RA FEW017 SCT029 BKN040 03/02 Q1023 TEMPO BKN014
2026-03-17 07:50:00,METAR EDDM 170750Z AUTO VRB02KT 9999 -SHRA FEW016 SCT023 BKN034 FEW///TCU 03/02 Q1023 TEMPO BKN014
2026-03-17 07:20:00,METAR EDDM 170720Z AUTO 11004KT 9999 -SHRA SCT017 BKN022 BKN027 FEW///TCU 03/02 Q1023 TEMPO BKN014
2026-03-17 06:50:00,METAR EDDM 170650Z AUTO 11004KT 090V160 9999 BKN016 BKN022 03/02 Q1022 TEMPO BKN014
2026-03-17 06:20:00,METAR EDDM 170620Z AUTO 21003KT 180V240 9999 BKN016 OVC021 OVC037 03/02 Q1022 TEMPO BKN014
2026-03-17 05:50:00,METAR EDDM 170550Z AUTO 20004KT 9999 BKN016 BKN037 02/02 Q1022 NOSIG
2026-03-17 05:20:00,METAR EDDM 170520Z AUTO 19002KT 9999 -SHRA FEW016 BKN038 FEW///TCU 02/01 Q1022 NOSIG
2026-03-17 04:50:00,METAR EDDM 170450Z AUTO 20004KT 9999 FEW019 01/01 Q1022 NOSIG
2026-03-17 04:20:00,METAR EDDM 170420Z AUTO 23004KT 9999 SCT018 01/01 Q1022 NOSIG
2026-03-17 03:50:00,METAR EDDM 170350Z AUTO 22004KT 9999 FEW016 01/01 Q1022 NOSIG
2026-03-17 03:20:00,METAR EDDM 170320Z AUTO 17004KT CAVOK 01/00 Q1022 NOSIG
2026-03-17 02:50:00,METAR EDDM 170250Z AUTO 19004KT CAVOK 01/00 Q1022 NOSIG
2026-03-17 02:20:00,METAR EDDM 170220Z AUTO 24002KT CAVOK 01/01 Q1022 NOSIG
2026-03-17 01:50:00,METAR EDDM 170150Z AUTO VRB02KT 9999 FEW005 01/01 Q1022 NOSIG
2026-03-17 01:20:00,METAR EDDM 170120Z AUTO 27004KT 9999 FEW006 01/01 Q1022 NOSIG
2026-03-17 00:50:00,METAR EDDM 170050Z AUTO 26005KT CAVOK 02/01 Q1022 NOSIG
2026-03-17 00:20:00,METAR EDDM 170020Z AUTO 25008KT CAVOK 02/01 Q1022 RESHRA NOSIG
2026-03-16 23:50:00,METAR EDDM 162350Z AUTO 26008KT 9999 -SHRA FEW034 SCT045 FEW///CB 02/01 Q1022 NOSIG
2026-03-16 23:20:00,METAR EDDM 162320Z AUTO 25010KT 9999 -SHRA FEW020 BKN034 BKN040 FEW///CB 03/02 Q1022 RESHRA BECMG NSW
2026-03-16 22:50:00,METAR EDDM 162250Z AUTO 29007KT 260V320 9999 -SHRA FEW025 BKN034 BKN048 FEW///CB 03/01 Q1022 TEMPO SHRASN
2026-03-16 22:20:00,METAR EDDM 162220Z AUTO 26007KT 9999 -SHRA FEW023 BKN045 FEW///CB 02/01 Q1022 RESHRA TEMPO SHRASN
2026-03-16 21:50:00,METAR EDDM 162150Z AUTO 25011KT 9999 -SHRA FEW028 BKN037 BKN048 FEW///CB 02/01 Q1022 RESHRA TEMPO SHRASN
2026-03-16 21:20:00,METAR EDDM 162120Z AUTO 26012KT 9999 -SHRA FEW008 BKN029 BKN038 FEW///CB 03/02 Q1022 TEMPO SHRASN BKN010 BKN020CB
2026-03-16 20:50:00,METAR EDDM 162050Z AUTO 26011KT 9999 -SHRA SCT017 BKN033 BKN041 FEW///CB 03/02 Q1022 RESHRA TEMPO SHRASN BKN010 BKN020CB
2026-03-16 20:20:00,METAR EDDM 162020Z AUTO 26006KT 9999 -SHRA FEW038 BKN047 FEW///CB 03/02 Q1021 TEMPO SHSNRA BKN010TCU
2026-03-16 19:50:00,METAR EDDM 161950Z AUTO 26006KT 9999 SCT014 BKN044 03/02 Q1021 TEMPO SHSNRA BKN010TCU
2026-03-16 19:20:00,METAR EDDM 161920Z AUTO 28007KT 9999 -SHRA BKN017 BKN029 FEW///TCU 03/02 Q1021 TEMPO 4500 SHSNRA BKN008TCU
2026-03-16 18:50:00,METAR EDDM 161850Z AUTO 18005KT 9999 BKN021 BKN033 BKN044 02/02 Q1020 TEMPO 4500 SHSNRA BKN008TCU
2026-03-16 18:20:00,METAR EDDM 161820Z AUTO 26003KT 9999 BKN023 BKN027 02/01 Q1020 RESHRA TEMPO 4500 SHSNRA BKN008TCU
2026-03-16 17:50:00,METAR EDDM 161750Z AUTO VRB01KT 9999 -SHRA FEW007 SCT034 FEW///CB 02/01 Q1020 RESHRA TEMPO SHRA SCT008TCU
2026-03-16 17:20:00,METAR EDDM 161720Z AUTO 27004KT 250V320 9999 SHRA SCT007 BKN033 BKN044 FEW///CB 02/01 Q1020 TEMPO BKN008
2026-03-16 16:50:00,METAR EDDM 161650Z AUTO 30008KT 270V330 7000 RA SCT008 BKN017 BKN021 02/01 Q1019 TEMPO BKN008
2026-03-16 16:20:00,METAR EDDM 161620Z AUTO 33010KT 300V010 9999 -RADZ SCT011 BKN023 BKN035 04/02 Q1019 TEMPO SHRA BKN008 SCT012TCU
2026-03-16 15:50:00,METAR EDDM 161550Z AUTO 34007KT 310V020 9999 -RA FEW010 SCT035 BKN043 04/02 Q1018 TEMPO SHRA BKN008 SCT012TCU
2026-03-16 15:20:00,METAR EDDM 161520Z AUTO 35007KT 320V020 9999 -SHRA FEW021 BKN040 FEW///CB 04/02 Q1018 RESHRA TEMPO SHRA
2026-03-16 14:50:00,METAR EDDM 161450Z COR AUTO 32016KT 260V360 9999 SHRA FEW024 FEW///CB 08/00 Q1017 TEMPO 30020G30KT 4000
2026-03-16 14:20:00,METAR EDDM 161420Z AUTO 27018KT 9999 FEW039 09/00 Q1017 TEMPO 25020G30KT 4500 SHRAGS FEW010 BKN020CB
2026-03-16 13:50:00,METAR EDDM 161350Z AUTO 27019KT 9999 FEW038 10/00 Q1016 TEMPO 25020G30KT 4500 SHRAGS SCT040CB
2026-03-16 13:20:00,METAR EDDM 161320Z AUTO 26021KT 9999 FEW034 09/01 Q1016 TEMPO 25020G30KT 4500 SHRAGS SCT040CB
2026-03-16 12:50:00,METAR EDDM 161250Z AUTO 26020KT 9999 FEW037 08/00 Q1016 TEMPO 25020G30KT
2026-03-16 12:20:00,METAR EDDM 161220Z AUTO 26020KT 9999 SCT036 BKN044 08/00 Q1017 TEMPO 25020G30KT
2026-03-16 11:50:00,METAR EDDM 161150Z AUTO 26022KT 9999 SCT035 SCT044 08/01 Q1017 TEMPO 25020G30KT
2026-03-16 11:20:00,METAR EDDM 161120Z AUTO 25023KT 9999 BKN035 OVC042 08/01 Q1017 TEMPO 25020G30KT
2026-03-16 10:50:00,METAR EDDM 161050Z AUTO 25021G33KT 9999 BKN034 08/00 Q1017 NOSIG
2026-03-16 10:20:00,METAR EDDM 161020Z AUTO 24018KT 9999 OVC040 07/00 Q1017 TEMPO 25020G30KT
2026-03-16 09:50:00,METAR EDDM 160950Z AUTO 23014KT 9999 -DZ FEW032 BKN039 06/00 Q1017 TEMPO 25020G30KT
2026-03-16 09:20:00,METAR EDDM 160920Z AUTO 26015KT 9999 FEW033 SCT043 07/M01 Q1018 TEMPO 25020G30KT
2026-03-16 08:50:00,METAR EDDM 160850Z AUTO 25019KT CAVOK 07/M01 Q1017 TEMPO 25020G30KT
2026-03-16 08:20:00,METAR EDDM 160820Z AUTO 25016KT CAVOK 06/M00 Q1017 TEMPO 25020G30KT
2026-03-16 07:50:00,METAR EDDM 160750Z AUTO 25016KT CAVOK 06/01 Q1017 TEMPO 25020G30KT
2026-03-16 07:20:00,METAR EDDM 160720Z AUTO 25016KT CAVOK 05/01 Q1017 TEMPO 25015G25KT
2026-03-16 06:50:00,METAR EDDM 160650Z AUTO 25012KT CAVOK 04/01 Q1017 TEMPO 25015G25KT
2026-03-16 06:20:00,METAR EDDM 160620Z AUTO 23009KT CAVOK 03/00 Q1017 BECMG 24014KT
2026-03-16 05:50:00,METAR EDDM 160550Z AUTO 21006KT CAVOK 03/00 Q1017 BECMG 24012KT
2026-03-16 05:20:00,METAR EDDM 160520Z AUTO 23007KT CAVOK 02/M00 Q1017 BECMG 24012KT
2026-03-16 04:50:00,METAR EDDM 160450Z AUTO 23005KT CAVOK 03/01 Q1016 NOSIG
2026-03-16 04:20:00,METAR EDDM 160420Z AUTO 22006KT CAVOK 02/00 Q1016 NOSIG
2026-03-16 03:50:00,METAR EDDM 160350Z AUTO 20006KT 9999 SCT048 03/01 Q1015 NOSIG
2026-03-16 03:20:00,METAR EDDM 160320Z AUTO 23005KT 9999 BKN046 04/01 Q1016 NOSIG
2026-03-16 02:50:00,METAR EDDM 160250Z AUTO 24008KT 9999 OVC046 04/02 Q1016 NOSIG
2026-03-16 02:20:00,METAR EDDM 160220Z AUTO 23007KT 9999 BKN048 04/02 Q1016 NOSIG
2026-03-16 01:50:00,METAR EDDM 160150Z AUTO 24008KT 9999 -RA FEW021 BKN047 04/02 Q1016 NOSIG
2026-03-16 01:20:00,METAR EDDM 160120Z AUTO 23006KT 9999 -RA BKN045 04/02 Q1016 NOSIG
2026-03-16 00:50:00,METAR EDDM 160050Z AUTO 23006KT 9999 OVC043 04/02 Q1017 NOSIG
2026-03-16 00:20:00,METAR EDDM 160020Z AUTO 20005KT 9999 OVC042 04/01 Q1017 NOSIG
2026-03-15 23:50:00,METAR EDDM 152350Z AUTO 24004KT 9999 BKN044 04/02 Q1017 NOSIG
2026-03-15 23:20:00,METAR EDDM 152320Z AUTO 26004KT 9999 OVC039 05/01 Q1017 NOSIG
2026-03-15 22:50:00,METAR EDDM 152250Z AUTO 26005KT 9999 OVC039 05/01 Q1017 NOSIG
2026-03-15 22:20:00,METAR EDDM 152220Z AUTO 26005KT 9999 OVC040 05/01 Q1017 NOSIG
2026-03-15 21:50:00,METAR EDDM 152150Z AUTO 27004KT 9999 OVC038 05/01 Q1017 NOSIG
2026-03-15 21:20:00,METAR EDDM 152120Z AUTO 27004KT 9999 BKN036 05/01 Q1017 NOSIG
2026-03-15 20:50:00,METAR EDDM 152050Z AUTO 27003KT 9999 OVC037 06/01 Q1017 NOSIG
2026-03-15 20:20:00,METAR EDDM 152020Z AUTO 29002KT 9999 OVC037 06/01 Q1017 NOSIG
2026-03-15 19:50:00,METAR EDDM 151950Z AUTO VRB02KT 9999 OVC036 06/01 Q1016 NOSIG
2026-03-15 19:20:00,METAR EDDM 151920Z AUTO 32003KT 9999 OVC036 06/01 Q1016 NOSIG
2026-03-15 18:50:00,METAR EDDM 151850Z AUTO 31003KT 270V340 9999 SCT030 OVC038 06/01 Q1016 NOSIG
2026-03-15 18:20:00,METAR EDDM 151820Z AUTO 34004KT 290V020 9999 OVC034 06/01 Q1016 NOSIG
2026-03-15 17:50:00,METAR EDDM 151750Z AUTO 35004KT 9999 BKN031 OVC038 06/01 Q1016 NOSIG
2026-03-15 17:20:00,METAR EDDM 151720Z AUTO 34003KT 9999 BKN030 06/01 Q1015 NOSIG
2026-03-15 16:50:00,METAR EDDM 151650Z AUTO 34004KT 9999 FEW022 OVC029 06/01 Q1015 NOSIG
2026-03-15 16:20:00,METAR EDDM 151620Z AUTO 34006KT 9999 BKN028 OVC032 06/01 Q1015 NOSIG
2026-03-15 15:50:00,METAR EDDM 151550Z AUTO 34005KT 9999 BKN028 06/02 Q1014 NOSIG
2026-03-15 15:20:00,METAR EDDM 151520Z AUTO 34004KT 300V030 9999 BKN028 OVC035 07/01 Q1014 NOSIG
2026-03-15 14:50:00,METAR EDDM 151450Z AUTO 35004KT 9999 BKN031 OVC038 07/01 Q1014 NOSIG
2026-03-15 14:20:00,METAR EDDM 151420Z AUTO 34004KT 290V010 9999 OVC031 07/01 Q1014 NOSIG
2026-03-15 13:50:00,METAR EDDM 151350Z AUTO 34005KT 300V050 9999 BKN031 OVC037 07/01 Q1014 NOSIG
2026-03-15 13:20:00,METAR EDDM 151320Z AUTO VRB02KT 9999 OVC035 08/01 Q1014 NOSIG
2026-03-15 12:50:00,METAR EDDM 151250Z AUTO VRB02KT 9999 FEW029 BKN036 08/01 Q1014 NOSIG
2026-03-15 12:20:00,METAR EDDM 151220Z AUTO 31003KT 250V010 9999 FEW025 BKN035 07/00 Q1014 NOSIG
2026-03-15 11:50:00,METAR EDDM 151150Z AUTO 31004KT 270V350 9999 SCT024 OVC033 07/01 Q1014 NOSIG
2026-03-15 11:20:00,METAR EDDM 151120Z AUTO VRB03KT 9999 SCT023 BKN030 BKN037 07/01 Q1014 NOSIG
2026-03-15 10:50:00,METAR EDDM 151050Z AUTO 25003KT 130V300 9999 FEW020 SCT025 BKN034 06/01 Q1014 NOSIG
2026-03-15 10:20:00,METAR EDDM 151020Z AUTO 26004KT 190V350 9999 SCT017 BKN022 BKN027 06/01 Q1014 NOSIG
2026-03-15 09:50:00,METAR EDDM 150950Z AUTO VRB02KT 9999 BKN017 BKN023 05/01 Q1014 NOSIG
2026-03-15 09:20:00,METAR EDDM 150920Z AUTO 30003KT 250V360 9999 SCT014 05/01 Q1014 NOSIG
2026-03-15 08:50:00,METAR EDDM 150850Z AUTO 28005KT 240V330 9999 FEW013 04/01 Q1014 NOSIG
2026-03-15 08:20:00,METAR EDDM 150820Z AUTO 29004KT 240V350 9999 FEW013 04/01 Q1013 NOSIG
