Time_recorded,METAR
2026-05-02 14:54:00,METAR KPHL 021454Z 33011KT 10SM FEW030 SCT080 BKN200 BKN280 13/04 A2992 RMK AO2 SLP130 T01280039 50001 $
2026-05-02 13:54:00,METAR KPHL 021354Z 34013KT 10SM SCT030 BKN080 BKN210 BKN280 13/03 A2992 RMK AO2 SLP131 T01280033 $
2026-05-02 13:19:00,SPECI KPHL 021319Z 33014KT 10SM SCT025 BKN095 BKN300 12/06 A2992 RMK AO2 T01220056 $
2026-05-02 12:54:00,METAR KPHL 021254Z 32012KT 10SM BKN025 BKN095 BKN300 12/06 A2992 RMK AO2 SLP132 T01220061 $
2026-05-02 12:30:00,SPECI KPHL 021230Z 34010G16KT 10SM BKN025 BKN090 BKN300 12/06 A2992 RMK AO2 T01220061 $
2026-05-02 11:54:00,METAR KPHL 021154Z 31008KT 10SM FEW030 SCT080 BKN300 12/06 A2991 RMK AO2 SLP129 T01170061 10128 20111 53009 $
2026-05-02 11:09:00,SPECI KPHL 021109Z 30010KT 10SM SCT028 BKN070 OVC300 12/06 A2991 RMK AO2 T01170056 $
2026-05-02 10:54:00,METAR KPHL 021054Z 29010KT 10SM BKN028 BKN070 OVC300 12/06 A2990 RMK AO2 SLP126 T01170056 $
2026-05-02 10:28:00,SPECI KPHL 021028Z 31004KT 10SM BKN028 BKN070 BKN300 12/06 A2989 RMK AO2 T01220061 $
2026-05-02 09:54:00,METAR KPHL 020954Z 31005KT 10SM FEW024 SCT070 BKN300 12/06 A2988 RMK AO2 SLP118 T01170061 $
2026-05-02 08:54:00,METAR KPHL 020854Z 30003KT 10SM BKN065 12/06 A2989 RMK AO2 SLP120 T01170061 55004 $
2026-05-02 07:54:00,METAR KPHL 020754Z 26008KT 10SM BKN047 12/06 A2989 RMK AO2 SLP120 T01220061 $
2026-05-02 06:54:00,METAR KPHL 020654Z 23009KT 10SM SCT034 BKN043 BKN100 13/06 A2989 RMK AO2 SLP122 T01280061 $
2026-05-02 05:54:00,METAR KPHL 020554Z 22006KT 10SM FEW060 BKN075 OVC110 12/08 A2990 RMK AO2 RAB22E35 SLP124 P0000 60000 T01220083 10161 20122 50001 $
2026-05-02 04:54:00,METAR KPHL 020454Z 23006KT 10SM BKN080 OVC100 12/08 A2991 RMK AO2 SLP127 T01220078 401890083 $
2026-05-02 03:54:00,METAR KPHL 020354Z 20004KT 10SM BKN110 13/07 A2990 RMK AO2 SLP124 T01280067 $
2026-05-02 02:54:00,METAR KPHL 020254Z 15006KT 10SM BKN120 BKN250 12/06 A2990 RMK AO2 SLP123 T01220061 50009 $
2026-05-02 01:54:00,METAR KPHL 020154Z 15006KT 10SM SCT100 SCT250 13/05 A2990 RMK AO2 SLP124 T01280050 $
2026-05-02 00:54:00,METAR KPHL 020054Z 17007KT 10SM SCT100 SCT250 14/04 A2989 RMK AO2 SLP120 T01440044 $
2026-05-01 23:54:00,METAR KPHL 012354Z 19006KT 10SM FEW080 SCT250 17/03 A2987 RMK AO2 SLP113 T01670028 10189 20167 53001 $
2026-05-01 22:54:00,METAR KPHL 012254Z 24012KT 10SM FEW070 SCT250 18/01 A2986 RMK AO2 SLP110 T01830006 $
2026-05-01 21:54:00,METAR KPHL 012154Z 22010KT 10SM FEW070 SCT250 18/01 A2986 RMK AO2 SLP112 T01830006 $
2026-05-01 20:54:00,METAR KPHL 012054Z 24013KT 10SM FEW070 FEW140 SCT250 19/02 A2987 RMK AO2 SLP113 T01890017 58012 $
2026-05-01 19:54:00,METAR KPHL 011954Z 25009G17KT 220V300 10SM FEW070 SCT250 18/01 A2987 RMK AO2 SLP115 T01830006 $
2026-05-01 18:54:00,METAR KPHL 011854Z 21005KT 10SM FEW065 SCT250 18/01 A2989 RMK AO2 SLP122 T01780006 $
2026-05-01 17:54:00,METAR KPHL 011754Z 20008G16KT 10SM FEW065 SCT250 17/00 A2990 RMK AO2 SLP124 T01720000 10172 20100 56021 $
2026-05-01 16:54:00,METAR KPHL 011654Z 24011KT 10SM FEW060 SCT250 SCT350 16/01 A2991 RMK AO2 SLP129 T01610006 $
2026-05-01 15:54:00,METAR KPHL 011554Z 18007KT 10SM FEW055 SCT250 BKN350 15/02 A2994 RMK AO2 SLP139 T01500017 $
2026-05-01 14:54:00,METAR KPHL 011454Z 24008KT 10SM SCT045 BKN250 14/02 A2996 RMK AO2 SLP145 T01390017 58002 $
2026-05-01 13:54:00,METAR KPHL 011354Z 00000KT 10SM SCT043 BKN250 12/03 A2997 RMK AO2 SLP146 T01220028 $
2026-05-01 12:54:00,METAR KPHL 011254Z 28005KT 10SM FEW045 FEW090 SCT250 12/03 A2997 RMK AO2 SLP147 T01170028 $
2026-05-01 11:54:00,METAR KPHL 011154Z 31007KT 10SM FEW090 BKN230 10/03 A2997 RMK AO2 SLP147 T01000033 10111 20083 51011 $
2026-05-01 10:54:00,METAR KPHL 011054Z 30006KT 10SM FEW080 SCT230 08/04 A2996 RMK AO2 SLP144 T00830039 $
2026-05-01 09:54:00,METAR KPHL 010954Z 30007KT 10SM FEW080 09/04 A2995 RMK AO2 SLP140 T00890039 $
2026-05-01 08:54:00,METAR KPHL 010854Z 31008KT 10SM CLR 09/04 A2993 RMK AO2 SLP136 T00890039 52009 $
2026-05-01 07:54:00,METAR KPHL 010754Z 32007KT 10SM SCT070 09/04 A2993 RMK AO2 SLP133 T00940039 $
2026-05-01 06:54:00,METAR KPHL 010654Z 31007KT 10SM SCT070 10/05 A2991 RMK AO2 SLP129 T01000050 $
2026-05-01 05:54:00,METAR KPHL 010554Z 31006KT 10SM SCT050 SCT070 11/05 A2991 RMK AO2 SLP127 T01110050 10144 20111 53007 $
2026-05-01 04:54:00,METAR KPHL 010454Z 31007KT 10SM BKN042 12/06 A2990 RMK AO2 SLP124 T01170056 401890100 $
2026-05-01 03:54:00,METAR KPHL 010354Z 33010KT 10SM BKN034 BKN047 BKN080 12/06 A2989 RMK AO2 SLP120 T01220061 $
2026-05-01 02:54:00,METAR KPHL 010254Z 31006KT 10SM BKN034 BKN047 BKN080 13/06 A2989 RMK AO2 SLP119 T01280061 51025 $
2026-05-01 01:54:00,METAR KPHL 010154Z 31013G23KT 10SM BKN100 13/06 A2988 RMK AO2 SLP117 T01330061 $
2026-05-01 00:54:00,METAR KPHL 010054Z 31009KT 10SM SCT042 BKN080 BKN100 14/08 A2984 RMK AO2 SLP105 T01440078 $
2026-04-30 23:54:00,METAR KPHL 302354Z 33008KT 10SM BKN065 BKN100 14/08 A2981 RMK AO2 PK WND 31029/2311 SLP095 T01440078 10189 20144 53022 $
2026-04-30 22:54:00,METAR KPHL 302254Z 29008KT 10SM BKN080 BKN100 18/05 A2977 RMK AO2 SLP081 T01830050 $
2026-04-30 21:54:00,METAR KPHL 302154Z 32008KT 10SM SCT050 BKN080 BKN100 18/06 A2976 RMK AO2 SLP078 T01830056 $
2026-04-30 20:54:00,METAR KPHL 302054Z 29008G17KT 10SM BKN049 BKN080 18/06 A2975 RMK AO2 SLP073 T01830056 55002 $
2026-04-30 19:54:00,METAR KPHL 301954Z 31012KT 10SM BKN049 BKN075 19/06 A2974 RMK AO2 SLP070 T01890056 $
2026-04-30 18:54:00,METAR KPHL 301854Z 33014G21KT 10SM BKN043 BKN075 18/07 A2974 RMK AO2 PK WND 33029/1809 SLP070 T01780067 $
2026-04-30 17:54:00,METAR KPHL 301754Z 34009G16KT 10SM BKN037 BKN047 BKN060 18/09 A2975 RMK AO2 SLP075 T01780089 10183 20111 56012 $
2026-04-30 17:05:00,SPECI KPHL 301705Z 31006G17KT 10SM BKN030 BKN045 16/08 A2976 RMK AO2 T01610083 $
2026-04-30 16:54:00,METAR KPHL 301654Z 32009KT 10SM BKN028 BKN043 17/09 A2976 RMK AO2 SLP077 T01670089 $
2026-04-30 14:54:00,METAR KPHL 301454Z 35007KT 10SM BKN018 BKN028 15/11 A2979 RMK AO2 SLP086 T01500106 53007 $
2026-04-30 14:09:00,SPECI KPHL 301409Z 34009KT 10SM OVC016 13/09 A2978 RMK AO2 CIG 014V020 T01330094 $
2026-04-30 13:54:00,METAR KPHL 301354Z 33011KT 10SM OVC014 13/09 A2977 RMK AO2 SLP081 CIG 012V019 T01330094 $
2026-04-30 13:15:00,SPECI KPHL 301315Z 31004KT 10SM OVC010 12/09 A2976 RMK AO2 CIG 009V013 T01220094 $
2026-04-30 12:54:00,METAR KPHL 301254Z 32006KT 10SM OVC009 12/09 A2977 RMK AO2 SLP079 T01170094 $
2026-04-30 12:11:00,SPECI KPHL 301211Z 26004KT 10SM OVC009 12/09 A2977 RMK AO2 T01170089 $
2026-04-30 11:54:00,METAR KPHL 301154Z 25003KT 10SM OVC011 11/09 A2977 RMK AO2 SLP079 70045 T01110089 10111 20100 51005 $
2026-04-30 10:54:00,METAR KPHL 301054Z 00000KT 10SM FEW007 OVC012 11/08 A2976 RMK AO2 SLP079 T01060083 $
2026-04-30 10:21:00,SPECI KPHL 301021Z 00000KT 10SM SCT007 OVC014 11/08 A2976 RMK AO2 T01060083 $
2026-04-30 09:54:00,METAR KPHL 300954Z 00000KT 10SM SCT007 OVC016 11/08 A2976 RMK AO2 SLP078 T01060083 $
2026-04-30 09:29:00,SPECI KPHL 300929Z 00000KT 10SM SCT008 OVC016 10/08 A2975 RMK AO2 T01000083 $
2026-04-30 08:54:00,METAR KPHL 300854Z 10006KT 10SM FEW008 OVC021 10/08 A2975 RMK AO2 SLP073 T01000083 56013 $
2026-04-30 08:11:00,SPECI KPHL 300811Z 08004KT 10SM SCT008 OVC021 10/08 A2975 RMK AO2 T01000083 $
2026-04-30 07:54:00,METAR KPHL 300754Z 09006KT 10SM SCT014 BKN021 OVC045 10/08 A2975 RMK AO2 SLP074 T01000083 $
2026-04-30 06:54:00,METAR KPHL 300654Z 08004KT 10SM BKN025 OVC035 11/08 A2977 RMK AO2 SLP081 T01060083 $
2026-04-30 06:11:00,SPECI KPHL 300611Z 11004KT 10SM BKN029 BKN038 OVC055 11/08 A2978 RMK AO2 T01060083 $
2026-04-30 05:54:00,METAR KPHL 300554Z 10004KT 7SM SCT024 OVC029 11/08 A2979 RMK AO2 RAE50 SLP087 P0001 60038 T01060083 10117 20100 56013 $
2026-04-30 04:54:00,METAR KPHL 300454Z 04004KT 7SM -RA OVC027 10/08 A2980 RMK AO2 SLP092 P0005 T01000083 401890100 $
2026-04-30 04:50:00,SPECI KPHL 300450Z 36004KT 7SM -RA OVC027 10/08 A2981 RMK AO2 P0005 $
2026-04-30 04:34:00,SPECI KPHL 300434Z 36003KT 10SM -RA OVC027 10/08 A2981 RMK AO2 P0005 T01000083 $
2026-04-30 04:15:00,SPECI KPHL 300415Z 00000KT 6SM RA BR OVC027 10/08 A2980 RMK AO2 P0002 T01000078 $
2026-04-30 03:54:00,METAR KPHL 300354Z 15004KT 10SM -RA SCT032 BKN040 OVC080 10/08 A2979 RMK AO2 SLP088 P0007 T01000083 $
2026-04-30 03:47:00,SPECI KPHL 300347Z 14006KT 10SM -RA SCT032 BKN040 OVC080 10/08 A2980 RMK AO2 P0007 T01000083 $
2026-04-30 03:41:00,SPECI KPHL 300341Z 15007G16KT 7SM -RA SCT036 BKN044 OVC090 10/08 A2981 RMK AO2 P0007 T01000078 $
2026-04-30 02:54:00,METAR KPHL 300254Z 16005KT 4SM RA BR BKN044 OVC055 10/08 A2983 RMK AO2 SLP099 P0012 60025 T01000083 56005 $
2026-04-30 02:35:00,SPECI KPHL 300235Z 17004KT 4SM RA OVC037 11/08 A2983 RMK AO2 P0005 T01060078 $
2026-04-30 01:54:00,METAR KPHL 300154Z VRB03KT 5SM RA BR BKN033 BKN041 OVC065 11/08 A2983 RMK AO2 SLP102 P0011 T01060083 $
2026-04-30 01:19:00,SPECI KPHL 300119Z 13007KT 6SM RA BR FEW015 SCT035 OVC080 11/08 A2982 RMK AO2 P0006 T01060083 $
2026-04-30 00:54:00,METAR KPHL 300054Z 12007KT 7SM -RA FEW015 BKN035 OVC080 11/08 A2982 RMK AO2 SLP098 P0002 T01110083 $
2026-04-29 23:54:00,METAR KPHL 292354Z 17003KT 8SM -RA SCT030 BKN050 OVC090 12/07 A2984 RMK AO2 SLP104 P0002 60007 T01170072 10183 20117 53001 $
2026-04-29 23:48:00,SPECI KPHL 292348Z 16006KT 8SM -RA SCT030 BKN050 OVC090 12/07 A2984 RMK AO2 P0001 $
2026-04-29 22:54:00,METAR KPHL 292254Z 13008KT 10SM -RA SCT035 BKN075 OVC120 12/06 A2982 RMK AO2 RAB06 SLP098 P0005 T01220061 $
2026-04-29 21:54:00,METAR KPHL 292154Z 13010KT 10SM SCT035 BKN070 OVC120 16/04 A2983 RMK AO2 SLP102 T01560044 $
2026-04-29 20:54:00,METAR KPHL 292054Z 14007KT 10SM SCT035 BKN070 OVC160 17/06 A2984 RMK AO2 SLP104 T01720056 58026 $
2026-04-29 19:54:00,METAR KPHL 291954Z 17009KT 10SM BKN035 OVC070 17/05 A2986 RMK AO2 SLP112 T01720050 $
2026-04-29 18:54:00,METAR KPHL 291854Z 15009KT 10SM BKN045 BKN090 OVC170 18/06 A2990 RMK AO2 SLP123 T01780056 $
2026-04-29 17:54:00,METAR KPHL 291754Z 18007KT 10SM BKN045 BKN090 OVC220 18/05 A2992 RMK AO2 SLP130 T01830050 10189 20128 58021 $
2026-04-29 16:54:00,METAR KPHL 291654Z 19010KT 10SM FEW040 BKN060 BKN095 OVC220 18/05 A2994 RMK AO2 SLP139 T01830050 $
2026-04-29 15:54:00,METAR KPHL 291554Z 18007KT 10SM FEW033 BKN060 BKN095 OVC220 17/04 A2996 RMK AO2 SLP145 VIRGA T01670044 $
2026-04-29 14:54:00,METAR KPHL 291454Z 18007KT 10SM SCT033 BKN080 OVC220 16/06 A2998 RMK AO2 SLP151 VIRGA T01610056 58005 $
2026-04-29 13:54:00,METAR KPHL 291354Z 19006KT 10SM BKN038 BKN070 OVC240 15/05 A2999 RMK AO2 SLP154 T01500050 $
2026-04-29 12:54:00,METAR KPHL 291254Z 18003KT 10SM BKN038 OVC240 14/04 A2999 RMK AO2 SLP155 T01440044 $
2026-04-29 11:54:00,METAR KPHL 291154Z 12003KT 10SM SCT038 BKN250 13/06 A3000 RMK AO2 SLP157 T01280056 10128 20111 56005 $
2026-04-29 10:54:00,METAR KPHL 291054Z 11004KT 10SM BKN038 BKN250 12/05 A3000 RMK AO2 SLP159 T01220050 $
2026-04-29 09:54:00,METAR KPHL 290954Z 12003KT 10SM OVC040 12/05 A3000 RMK AO2 SLP159 T01170050 $
2026-04-29 08:54:00,METAR KPHL 290854Z 15003KT 10SM OVC035 12/04 A3001 RMK AO2 SLP162 T01220044 56016 $
2026-04-29 07:54:00,METAR KPHL 290754Z 17004KT 10SM OVC037 12/04 A3002 RMK AO2 SLP165 T01220044 $
2026-04-29 06:54:00,METAR KPHL 290654Z 19005KT 10SM OVC040 13/03 A3004 RMK AO2 SLP173 T01280033 $
2026-04-29 05:54:00,METAR KPHL 290554Z 15004KT 10SM OVC039 13/03 A3006 RMK AO2 SLP178 T01280028 10156 20128 58004 $
2026-04-29 04:54:00,METAR KPHL 290454Z 16004KT 10SM OVC039 13/03 A3005 RMK AO2 SLP177 T01330028 401780078 $
2026-04-29 03:54:00,METAR KPHL 290354Z 19006KT 10SM OVC042 14/03 A3008 RMK AO2 SLP184 T01390033 $
2026-04-29 02:54:00,METAR KPHL 290254Z 17004KT 10SM OVC044 14/04 A3007 RMK AO2 SLP182 T01440044 55001 $
2026-04-29 01:54:00,METAR KPHL 290154Z 00000KT 10SM OVC050 14/06 A3005 RMK AO2 SLP176 T01440056 $
2026-04-29 00:54:00,METAR KPHL 290054Z 18003KT 10SM OVC050 15/06 A3006 RMK AO2 SLP179 T01500056 $
2026-04-28 23:54:00,METAR KPHL 282354Z 18006KT 10SM OVC055 16/06 A3007 RMK AO2 SLP183 60000 T01560056 10178 20156 56001 $
2026-04-28 22:54:00,METAR KPHL 282254Z 00000KT 10SM OVC060 16/06 A3008 RMK AO2 SLP184 T01610061 $
2026-04-28 21:54:00,METAR KPHL 282154Z 24003KT 10SM BKN060 OVC130 16/06 A3007 RMK AO2 SLP183 T01610056 $
2026-04-28 20:54:00,METAR KPHL 282054Z 22005KT 10SM BKN065 OVC130 16/06 A3008 RMK AO2 RAB01E28 SLP185 P0000 60000 T01610056 56021 $
2026-04-28 19:54:00,METAR KPHL 281954Z 21005KT 10SM BKN060 OVC130 17/04 A3009 RMK AO2 SLP189 T01720039 $
2026-04-28 18:54:00,METAR KPHL 281854Z 21006KT 10SM BKN060 OVC130 17/03 A3012 RMK AO2 SLP199 T01720033 $
2026-04-28 17:54:00,METAR KPHL 281754Z 17008KT 10SM FEW070 BKN130 OVC250 17/03 A3014 RMK AO2 SLP205 T01720028 10178 20111 56019 $
2026-04-28 16:54:00,METAR KPHL 281654Z 20009KT 10SM FEW070 BKN150 OVC250 17/03 A3015 RMK AO2 SLP209 VIRGA T01720028 $
2026-04-28 15:54:00,METAR KPHL 281554Z 21004KT 10SM BKN140 BKN250 16/03 A3017 RMK AO2 SLP216 VIRGA T01610033 $
2026-04-28 14:54:00,METAR KPHL 281454Z 20009KT 10SM FEW110 BKN160 BKN240 BKN330 16/03 A3019 RMK AO2 SLP224 VIRGA T01560028 55001 $
2026-04-28 13:54:00,METAR KPHL 281354Z 22008KT 10SM FEW120 BKN180 BKN230 BKN330 16/03 A3018 RMK AO2 SLP219 VIRGA T01560028 $
2026-04-28 12:54:00,METAR KPHL 281254Z 23008KT 10SM SCT160 BKN220 BKN330 14/04 A3019 RMK AO2 SLP223 T01390044 $
2026-04-28 11:54:00,METAR KPHL 281154Z 25004KT 10SM SCT170 BKN230 BKN330 11/05 A3020 RMK AO2 SLP225 T01110050 10111 20078 55003 $
2026-04-28 10:54:00,METAR KPHL 281054Z 00000KT 10SM FEW070 SCT170 SCT230 BKN300 09/05 A3019 RMK AO2 SLP224 T00940050 $
2026-04-28 09:54:00,METAR KPHL 280954Z 00000KT 10SM FEW070 SCT210 BKN300 08/04 A3018 RMK AO2 SLP220 T00780039 $
2026-04-28 08:54:00,METAR KPHL 280854Z 24003KT 10SM FEW200 BKN280 09/04 A3021 RMK AO2 SLP228 T00940039 56009 $
2026-04-28 07:54:00,METAR KPHL 280754Z 25005KT 10SM FEW280 09/03 A3021 RMK AO2 SLP230 T00940028 $
2026-04-28 06:54:00,METAR KPHL 280654Z 24006KT 10SM FEW280 09/03 A3021 RMK AO2 SLP230 T00940028 $
2026-04-28 05:54:00,METAR KPHL 280554Z 22003KT 10SM FEW280 11/03 A3023 RMK AO2 SLP237 T01060028 10172 20106 58013 $
2026-04-28 04:54:00,METAR KPHL 280454Z 24004KT 10SM SCT280 11/04 A3026 RMK AO2 SLP245 T01110039 402280056 $
2026-04-28 03:54:00,METAR KPHL 280354Z 15003KT 10SM SCT280 11/04 A3026 RMK AO2 SLP246 T01110039 $
2026-04-28 02:54:00,METAR KPHL 280254Z 15003KT 10SM FEW300 12/04 A3027 RMK AO2 SLP250 T01220039 50012 $
2026-04-28 01:54:00,METAR KPHL 280154Z 15005KT 10SM BKN300 13/04 A3028 RMK AO2 SLP253 T01330039 $
2026-04-28 00:54:00,METAR KPHL 280054Z 15005KT 10SM BKN300 16/04 A3026 RMK AO2 SLP245 T01560044 $
2026-04-27 23:54:00,METAR KPHL 272354Z 17006KT 10SM BKN300 18/05 A3024 RMK AO2 SLP238 T01780050 10228 20178 53010 $
2026-04-27 22:54:00,METAR KPHL 272254Z 17007KT 10SM FEW065 SCT300 20/07 A3020 RMK AO2 SLP227 T02000072 $
2026-04-27 21:54:00,METAR KPHL 272154Z 08007KT 10SM FEW065 SCT300 22/05 A3020 RMK AO2 SLP225 T02220050 $
2026-04-27 20:54:00,METAR KPHL 272054Z 05006KT 10SM FEW065 SCT300 23/04 A3021 RMK AO2 SLP228 T02280044 56008 $
2026-04-27 19:54:00,METAR KPHL 271954Z 12006KT 10SM FEW065 SCT300 22/05 A3021 RMK AO2 SLP228 T02220050 $
2026-04-27 18:54:00,METAR KPHL 271854Z 08008KT 10SM FEW060 SCT300 22/05 A3021 RMK AO2 SLP228 T02170050 $
2026-04-27 17:54:00,METAR KPHL 271754Z VRB04KT 10SM FEW060 SCT300 21/06 A3023 RMK AO2 SLP236 T02110056 10211 20100 58010 $
2026-04-27 16:54:00,METAR KPHL 271654Z 11004KT 10SM SCT050 SCT300 19/06 A3024 RMK AO2 SLP240 T01940061 $
2026-04-27 15:54:00,METAR KPHL 271554Z 12007KT 10SM FEW040 19/07 A3025 RMK AO2 SLP243 T01890072 $
2026-04-27 14:54:00,METAR KPHL 271454Z VRB03KT 10SM FEW040 FEW300 17/08 A3026 RMK AO2 SLP246 T01720078 51006 $
2026-04-27 13:54:00,METAR KPHL 271354Z 28005KT 10SM FEW300 15/07 A3026 RMK AO2 SLP246 T01500067 $
2026-04-27 12:54:00,METAR KPHL 271254Z 26003KT 10SM FEW010 FEW300 13/06 A3025 RMK AO2 SLP242 T01280061 $
2026-04-27 11:54:00,METAR KPHL 271154Z 32003KT 10SM FEW010 FEW330 10/06 A3024 RMK AO2 SLP239 T01000061 10100 20056 53010 $
2026-04-27 10:54:00,METAR KPHL 271054Z VRB03KT 10SM FEW010 FEW350 08/05 A3022 RMK AO2 SLP234 T00780050 $
2026-04-27 09:54:00,METAR KPHL 270954Z 00000KT 10SM FEW350 07/04 A3020 RMK AO2 SLP227 T00670039 $
2026-04-27 08:54:00,METAR KPHL 270854Z 34003KT 10SM CLR 07/04 A3021 RMK AO2 SLP229 T00720044 53001 $
2026-04-27 07:54:00,METAR KPHL 270754Z 33006KT 10SM CLR 07/04 A3021 RMK AO2 SLP230 T00670044 $
2026-04-27 06:54:00,METAR KPHL 270654Z 33005KT 10SM CLR 07/04 A3020 RMK AO2 SLP226 T00670044 $
2026-04-27 05:54:00,METAR KPHL 270554Z 32005KT 10SM CLR 07/04 A3021 RMK AO2 SLP228 T00720044 10128 20072 58002 $
2026-04-27 04:54:00,METAR KPHL 270454Z 00000KT 10SM CLR 08/04 A3021 RMK AO2 SLP231 T00830044 401610067 $
2026-04-27 03:54:00,METAR KPHL 270354Z 00000KT 10SM CLR 08/04 A3022 RMK AO2 SLP233 T00830039 $
2026-04-27 02:54:00,METAR KPHL 270254Z 11003KT 10SM CLR 09/05 A3021 RMK AO2 SLP230 T00940050 51020 $
2026-04-27 01:54:00,METAR KPHL 270154Z 11005KT 10SM CLR 10/06 A3021 RMK AO2 SLP229 T01000056 $
2026-04-27 00:54:00,METAR KPHL 270054Z 14008KT 10SM FEW044 11/06 A3019 RMK AO2 SLP222 T01110061 $
2026-04-26 23:54:00,METAR KPHL 262354Z 16003KT 10SM BKN044 13/06 A3015 RMK AO2 SLP209 T01280061 10161 20117 53014 $
2026-04-26 22:54:00,METAR KPHL 262254Z 09006KT 10SM BKN044 15/06 A3013 RMK AO2 SLP202 T01500056 $
2026-04-26 21:54:00,METAR KPHL 262154Z 06007KT 10SM BKN042 15/06 A3012 RMK AO2 SLP199 T01500056 $
2026-04-26 20:54:00,METAR KPHL 262054Z 08009KT 10SM BKN042 14/06 A3011 RMK AO2 SLP196 T01440056 55003 $
2026-04-26 19:54:00,METAR KPHL 261954Z 07008KT 10SM BKN033 14/06 A3011 RMK AO2 SLP195 T01440056 $
2026-04-26 19:07:00,SPECI KPHL 261907Z 06010KT 10SM BKN033 13/06 A3011 RMK AO2 T01330056 $
2026-04-26 18:54:00,METAR KPHL 261854Z 07008G16KT 10SM OVC024 13/06 A3012 RMK AO2 SLP198 T01280056 $
2026-04-26 17:54:00,METAR KPHL 261754Z 03012KT 10SM OVC024 12/06 A3012 RMK AO2 SLP199 T01170056 10117 20072 50002 $
2026-04-26 17:19:00,SPECI KPHL 261719Z 05011G18KT 10SM OVC021 11/06 A3012 RMK AO2 T01110056 $
2026-04-26 16:54:00,METAR KPHL 261654Z 02012KT 10SM OVC020 10/05 A3012 RMK AO2 SLP199 T01000050 $
2026-04-26 15:54:00,METAR KPHL 261554Z 02009KT 10SM OVC016 09/05 A3012 RMK AO2 SLP200 T00890050 $
2026-04-26 14:54:00,METAR KPHL 261454Z 03013KT 10SM BKN016 OVC022 08/05 A3011 RMK AO2 SLP196 T00830050 53015 $
2026-04-26 13:54:00,METAR KPHL 261354Z 03012KT 10SM OVC015 08/05 A3010 RMK AO2 SLP191 T00780050 $
2026-04-26 13:17:00,SPECI KPHL 261317Z 04012KT 10SM BKN015 OVC020 08/05 A3009 RMK AO2 T00830050 $
2026-04-26 12:54:00,METAR KPHL 261254Z 04014KT 10SM BKN014 OVC020 08/04 A3008 RMK AO2 SLP187 T00780044 $
2026-04-26 11:54:00,METAR KPHL 261154Z 04012KT 10SM BKN010 OVC015 07/05 A3007 RMK AO2 SLP182 60000 70051 T00720050 10072 20067 53017 $
2026-04-26 11:09:00,SPECI KPHL 261109Z 04008KT 10SM OVC010 07/05 A3005 RMK AO2 T00720050 $
2026-04-26 10:54:00,METAR KPHL 261054Z 04008KT 10SM OVC009 07/06 A3004 RMK AO2 DZE30 SLP173 CIG 008V011 P0000 T00720056 $
2026-04-26 10:31:00,SPECI KPHL 261031Z 04012G19KT 10SM OVC008 07/05 A3003 RMK AO2 DZE30 CIG 007V010 P0000 T00720050 $
2026-04-26 09:54:00,METAR KPHL 260954Z 05011G20KT 8SM -DZ BKN008 BKN015 OVC022 07/06 A3002 RMK AO2 RAB14E22DZB25 SLP166 CIG 007V010 P0000 T00720056 $
2026-04-26 09:48:00,SPECI KPHL 260948Z 06012G20KT 8SM -DZ BKN008 OVC015 07/06 A3002 RMK AO2 RAB14E22DZB25 CIG 007V010 P0000 $
2026-04-26 09:25:00,SPECI KPHL 260925Z 04010KT 5SM -DZ BR BKN007 OVC012 07/06 A3001 RMK AO2 RAB14E22DZB25 P0000 T00670056 $
2026-04-26 09:12:00,SPECI KPHL 260912Z 04009KT 4SM BR BKN007 OVC012 07/06 A3001 RMK AO2 T00720056 $
2026-04-26 09:04:00,SPECI KPHL 260904Z 05010G21KT 6SM BR BKN012 BKN018 OVC025 07/06 A3001 RMK AO2 T00720056 $
2026-04-26 08:54:00,METAR KPHL 260854Z 04012KT 8SM BKN010 BKN016 OVC025 07/06 A3001 RMK AO2 SLP161 60000 T00720056 55000 $
2026-04-26 08:40:00,SPECI KPHL 260840Z 05013G21KT 8SM BKN010 OVC016 07/06 A3001 RMK AO2 T00720056 $
2026-04-26 08:26:00,SPECI KPHL 260826Z 04012KT 6SM BR SCT008 OVC013 07/06 A3001 RMK AO2 T00670056 $
2026-04-26 08:14:00,SPECI KPHL 260814Z 04014KT 10SM BKN013 OVC039 07/05 A3000 RMK AO2 T00720050 $
2026-04-26 07:54:00,METAR KPHL 260754Z 05011G21KT 10SM BKN008 BKN013 OVC039 07/05 A3000 RMK AO2 SLP157 T00720050 $
2026-04-26 07:35:00,SPECI KPHL 260735Z 04010KT 9SM BKN008 BKN013 OVC039 07/06 A2999 RMK AO2 T00720056 $
2026-04-26 06:54:00,METAR KPHL 260654Z 05013G23KT 10SM BKN013 OVC039 07/05 A3000 RMK AO2 RAE0557 SLP158 P0000 T00720050 $
2026-04-26 06:23:00,SPECI KPHL 260623Z 05013G21KT 10SM BKN013 OVC039 07/05 A3000 RMK AO2 RAE0557 P0000 T00720050 $
2026-04-26 05:54:00,METAR KPHL 260554Z 05012KT 6SM -RA BR BKN009 BKN013 OVC039 07/06 A3001 RMK AO2 SLP161 P0004 60019 T00720056 10083 20067 56002 $
2026-04-26 05:35:00,SPECI KPHL 260535Z 04012KT 5SM -RA BR BKN009 BKN013 OVC037 07/06 A3000 RMK AO2 P0003 T00670056 $
2026-04-26 05:27:00,SPECI KPHL 260527Z 04011KT 5SM -RA BR SCT009 BKN013 OVC036 07/06 A3000 RMK AO2 P0003 T00670056 $
2026-04-26 04:54:00,METAR KPHL 260454Z 05012G22KT 3SM -RA BR SCT009 BKN026 OVC032 07/06 A3001 RMK AO2 SLP163 P0004 T00670056 401330067 $
2026-04-26 04:41:00,SPECI KPHL 260441Z 05013G23KT 3SM -RA BR SCT009 BKN026 OVC032 07/05 A3001 RMK AO2 P0002 T00670050 $
2026-04-26 03:54:00,METAR KPHL 260354Z 05013KT 6SM -RA BR BKN012 OVC016 07/05 A3001 RMK AO2 SLP160 P0001 T00670050 $
2026-04-26 03:28:00,SPECI KPHL 260328Z 05013KT 6SM -RA BR OVC012 07/05 A3001 RMK AO2 P0001 T00670050 $
2026-04-26 02:54:00,METAR KPHL 260254Z 05011G19KT 10SM -RA BKN010 OVC016 07/06 A3001 RMK AO2 SLP163 P0001 60010 T00720056 53010 $
2026-04-26 01:54:00,METAR KPHL 260154Z 05010KT 7SM -RA BKN010 OVC014 08/06 A3000 RMK AO2 RAE05B15 SLP160 P0001 T00780061 $
2026-04-26 01:13:00,SPECI KPHL 260113Z 05012G19KT 030V090 10SM BKN010 OVC021 08/06 A3000 RMK AO2 RAE05 P0000 T00780056 $
2026-04-26 00:54:00,METAR KPHL 260054Z 06008G19KT 5SM -RA BR BKN014 BKN019 OVC024 08/06 A2999 RMK AO2 SLP156 P0008 T00780056 $
2026-04-25 23:54:00,METAR KPHL 252354Z 09007G17KT 6SM -RA BR BKN014 BKN019 OVC024 08/06 A2998 RMK AO2 SLP153 P0003 60032 T00830061 10117 20078 53003 $
2026-04-25 23:21:00,SPECI KPHL 252321Z 10011KT 6SM RA BR BKN012 OVC019 08/06 A2996 RMK AO2 P0003 T00780061 $
2026-04-25 22:54:00,METAR KPHL 252254Z 09011KT 5SM -RA BR BKN009 OVC015 08/07 A2995 RMK AO2 SLP141 P0008 T00830067 $
2026-04-25 22:47:00,SPECI KPHL 252247Z 10012KT 5SM -RA BR BKN009 OVC015 08/07 A2995 RMK AO2 P0007 T00830067 $
2026-04-25 22:02:00,SPECI KPHL 252202Z 09012KT 4SM -RA BR FEW008 BKN014 OVC036 08/07 A2996 RMK AO2 P0001 T00830067 $
2026-04-25 21:54:00,METAR KPHL 252154Z 08011KT 4SM -RA BR FEW008 BKN021 OVC036 08/07 A2996 RMK AO2 SLP145 P0012 T00830067 $
2026-04-25 21:44:00,SPECI KPHL 252144Z 09011KT 4SM -RA BR FEW008 BKN021 OVC036 09/07 A2996 RMK AO2 P0010 T00890067 $
2026-04-25 21:26:00,SPECI KPHL 252126Z 08010KT 6SM -RA BR SCT015 BKN023 OVC036 09/07 A2996 RMK AO2 P0009 T00890067 $
2026-04-25 21:19:00,SPECI KPHL 252119Z 08011KT 4SM RA BR SCT012 BKN018 OVC028 09/07 A2996 RMK AO2 P0009 T00890072 $
2026-04-25 21:07:00,SPECI KPHL 252107Z 08010KT 1 1/2SM RA BR SCT014 BKN018 OVC028 09/07 A2996 RMK AO2 P0002 T00890067 $
2026-04-25 20:54:00,METAR KPHL 252054Z 08008KT 4SM RA BR BKN014 OVC023 09/07 A2997 RMK AO2 SLP149 P0009 60009 T00890067 58002 $
2026-04-25 20:47:00,SPECI KPHL 252047Z 08011KT 3SM RA BR BKN014 OVC023 09/07 A2996 RMK AO2 P0007 T00890067 $
2026-04-25 20:17:00,SPECI KPHL 252017Z 08012KT 5SM -RA BKN016 BKN026 OVC034 09/07 A2996 RMK AO2 P0003 T00940067 $
2026-04-25 20:02:00,SPECI KPHL 252002Z 09014KT 5SM -RA SCT020 OVC036 09/06 A2993 RMK AO2 PRESFR P0001 T00940061 $
2026-04-25 19:54:00,METAR KPHL 251954Z 08013KT 8SM -RA FEW020 OVC036 10/06 A2997 RMK AO2 RAB11 SLP148 P0000 T01000061 $
2026-04-25 18:54:00,METAR KPHL 251854Z 08012G19KT 10SM FEW024 OVC040 11/04 A3000 RMK AO2 SLP157 T01060039 $
2026-04-25 17:54:00,METAR KPHL 251754Z 11015G23KT 10SM FEW024 OVC040 12/03 A2998 RMK AO2 SLP151 60000 T01170033 10133 20111 57003 $
2026-04-25 16:54:00,METAR KPHL 251654Z 09010G20KT 10SM FEW032 OVC042 12/04 A2998 RMK AO2 SLP152 T01170039 $
2026-04-25 15:54:00,METAR KPHL 251554Z 10013G19KT 10SM FEW032 OVC042 12/04 A2999 RMK AO2 SLP154 T01220039 $
2026-04-25 14:54:00,METAR KPHL 251454Z 11011KT 10SM FEW028 OVC042 13/04 A2999 RMK AO2 SLP155 60000 T01280044 51009 $
2026-04-25 13:54:00,METAR KPHL 251354Z 09013G20KT 10SM FEW022 BKN045 BKN095 OVC250 12/06 A2999 RMK AO2 RAE18 SLP153 P0000 T01220056 $
2026-04-25 12:54:00,METAR KPHL 251254Z 09010KT 10SM -RA FEW018 BKN060 OVC090 11/07 A2998 RMK AO2 RAB29 SLP151 P0000 T01110067 $
2026-04-25 11:54:00,METAR KPHL 251154Z 09013KT 10SM FEW012 BKN048 OVC060 11/06 A2996 RMK AO2 SLP146 VIRGA 60000 T01110061 10111 20100 51017 $
2026-04-25 10:54:00,METAR KPHL 251054Z 08008KT 10SM FEW012 SCT045 SCT070 BKN130 11/07 A2995 RMK AO2 SLP141 T01060067 $
2026-04-25 09:54:00,METAR KPHL 250954Z 08010KT 10SM SCT046 BKN065 OVC100 10/07 A2993 RMK AO2 RAB23E46 SLP134 P0000 T01000067 $
2026-04-25 08:54:00,METAR KPHL 250854Z 09009KT 10SM BKN046 BKN130 11/06 A2991 RMK AO2 SLP129 60000 T01060061 57000 $
2026-04-25 07:54:00,METAR KPHL 250754Z 06007KT 10SM SCT060 BKN090 11/07 A2992 RMK AO2 RAB31E47 SLP131 P0000 T01110072 $
2026-04-25 06:54:00,METAR KPHL 250654Z 09006KT 10SM BKN090 11/06 A2991 RMK AO2 SLP127 T01110056 $
2026-04-25 05:54:00,METAR KPHL 250554Z 10006KT 10SM BKN095 BKN250 11/06 A2991 RMK AO2 SLP129 T01110061 10172 20111 53006 $
2026-04-25 04:54:00,METAR KPHL 250454Z 08009KT 10SM SCT080 BKN250 11/07 A2990 RMK AO2 SLP125 T01110067 402670111 $
2026-04-25 03:54:00,METAR KPHL 250354Z 10007KT 10SM BKN100 BKN170 12/07 A2990 RMK AO2 SLP125 T01220067 $
2026-04-25 02:54:00,METAR KPHL 250254Z 11006KT 10SM BKN100 BKN140 13/05 A2990 RMK AO2 SLP123 T01330050 53025 $
2026-04-25 01:54:00,METAR KPHL 250154Z 13006KT 10SM BKN110 BKN160 14/03 A2988 RMK AO2 SLP117 T01390033 $
2026-04-25 00:54:00,METAR KPHL 250054Z 15009KT 10SM SCT095 BKN250 15/04 A2984 RMK AO2 SLP104 T01500039 $
2026-04-24 23:54:00,METAR KPHL 242354Z 14007KT 10SM BKN080 BKN250 17/03 A2982 RMK AO2 SLP098 T01720033 10267 20172 53023 $
2026-04-24 22:54:00,METAR KPHL 242254Z 14007KT 10SM BKN080 BKN120 BKN250 19/06 A2979 RMK AO2 SLP086 T01940056 $
2026-04-24 21:54:00,METAR KPHL 242154Z 14010G19KT 10SM BKN080 BKN120 BKN250 21/05 A2977 RMK AO2 SLP080 T02110050 $
2026-04-24 20:54:00,METAR KPHL 242054Z 00000KT 10SM BKN080 BKN110 BKN250 24/05 A2975 RMK AO2 SLP075 T02440050 56007 $
2026-04-24 19:54:00,METAR KPHL 241954Z 14005KT 10SM FEW100 SCT160 BKN250 26/04 A2976 RMK AO2 SLP076 T02560044 $
2026-04-24 18:54:00,METAR KPHL 241854Z 18006KT 10SM FEW010 SCT160 BKN250 24/04 A2977 RMK AO2 SLP080 T02440039 $
2026-04-24 17:54:00,METAR KPHL 241754Z 18006KT 10SM FEW060 SCT100 BKN160 BKN250 24/03 A2978 RMK AO2 SLP082 T02390033 10239 20167 58017 $
2026-04-24 16:54:00,METAR KPHL 241654Z 13006KT 10SM FEW060 SCT095 BKN150 BKN250 24/03 A2979 RMK AO2 SLP087 T02390033 $
2026-04-24 15:54:00,METAR KPHL 241554Z VRB05KT 10SM FEW065 BKN085 BKN130 BKN250 22/03 A2982 RMK AO2 SLP098 T02170028 $
2026-04-24 14:54:00,METAR KPHL 241454Z 04005KT 10SM SCT070 BKN150 BKN250 22/02 A2982 RMK AO2 SLP099 T02170017 50001 $
2026-04-24 13:54:00,METAR KPHL 241354Z 01008KT 10SM FEW065 BKN160 BKN260 BKN330 21/02 A2983 RMK AO2 SLP101 T02060017 $
2026-04-24 12:54:00,METAR KPHL 241254Z 03005KT 10SM SCT065 BKN120 BKN260 BKN330 18/03 A2983 RMK AO2 SLP100 T01830028 $
2026-04-24 11:54:00,METAR KPHL 241154Z 01005KT 10SM FEW035 SCT065 BKN120 BKN280 BKN330 16/04 A2982 RMK AO2 SLP098 T01610039 10161 20128 51013 $
2026-04-24 10:54:00,METAR KPHL 241054Z 36003KT 10SM SCT035 SCT120 BKN280 BKN330 14/03 A2982 RMK AO2 SLP097 T01390033 $
2026-04-24 09:54:00,METAR KPHL 240954Z 36005KT 10SM FEW035 FEW130 BKN280 BKN330 13/03 A2980 RMK AO2 SLP091 T01330028 $
2026-04-24 08:54:00,METAR KPHL 240854Z 05003KT 10SM SCT280 14/06 A2978 RMK AO2 SLP085 T01390056 56011 $
2026-04-24 07:54:00,METAR KPHL 240754Z 35003KT 10SM FEW280 14/07 A2979 RMK AO2 SLP088 T01440072 $
2026-04-24 06:54:00,METAR KPHL 240654Z 04004KT 10SM SCT140 BKN280 14/11 A2979 RMK AO2 SLP088 T01440106 $
2026-04-24 05:54:00,METAR KPHL 240554Z 00000KT 10SM SCT280 13/11 A2982 RMK AO2 SLP096 T01330106 10256 20133 58014 $
2026-04-24 04:54:00,METAR KPHL 240454Z 00000KT 10SM SCT280 14/11 A2984 RMK AO2 SLP104 T01440106 402610089 $
2026-04-24 03:54:00,METAR KPHL 240354Z 00000KT 10SM BKN280 16/11 A2985 RMK AO2 SLP108 T01560106 $
2026-04-24 02:54:00,METAR KPHL 240254Z 00000KT 10SM FEW080 SCT250 BKN300 18/09 A2986 RMK AO2 SLP111 T01780094 53012 $
2026-04-24 01:54:00,METAR KPHL 240154Z 21005KT 10SM FEW120 SCT240 BKN320 18/09 A2985 RMK AO2 SLP106 T01830089 $
2026-04-24 00:54:00,METAR KPHL 240054Z 00000KT 10SM FEW120 SCT240 BKN320 20/06 A2983 RMK AO2 SLP102 T02000061 $
2026-04-23 23:54:00,METAR KPHL 232354Z 29006KT 10SM FEW080 SCT240 BKN320 25/03 A2982 RMK AO2 SLP099 T02500028 10261 20239 56006 $
2026-04-23 22:54:00,METAR KPHL 232254Z 31012KT 10SM FEW080 FEW220 SCT320 26/03 A2982 RMK AO2 SLP099 T02610028 $
2026-04-23 21:54:00,METAR KPHL 232154Z 28009KT 260V320 10SM FEW080 FEW220 SCT320 26/06 A2983 RMK AO2 SLP100 T02610056 $
2026-04-23 20:54:00,METAR KPHL 232054Z 29006KT 10SM FEW070 SCT220 SCT350 26/07 A2984 RMK AO2 SLP105 T02560067 57022 $
2026-04-23 19:54:00,METAR KPHL 231954Z 25004KT 10SM FEW070 SCT220 SCT350 25/06 A2986 RMK AO2 SLP111 T02500061 $
2026-04-23 18:54:00,METAR KPHL 231854Z 30013G20KT 280V340 10SM FEW060 SCT220 SCT350 25/05 A2989 RMK AO2 SLP121 T02500050 $
2026-04-23 17:54:00,METAR KPHL 231754Z VRB05KT 10SM FEW060 BKN220 BKN350 24/07 A2991 RMK AO2 SLP127 T02440072 10256 20111 56024 $
2026-04-23 16:54:00,METAR KPHL 231654Z 30007KT 10SM FEW060 BKN240 BKN350 23/06 A2993 RMK AO2 SLP133 T02330056 $
2026-04-23 15:54:00,METAR KPHL 231554Z VRB05KT 10SM SCT220 BKN320 21/08 A2996 RMK AO2 SLP143 T02110078 $
2026-04-23 14:54:00,METAR KPHL 231454Z 18004KT 10SM SCT330 18/10 A2998 RMK AO2 SLP151 T01830100 58003 $
2026-04-23 14:22:00,SPECI KPHL 231422Z 18004KT 10SM BKN330 17/10 A2999 RMK AO2 T01720100 $
2026-04-23 13:54:00,METAR KPHL 231354Z 16004KT 9SM BKN330 17/10 A2999 RMK AO2 SLP155 T01670100 $
2026-04-23 12:54:00,METAR KPHL 231254Z 00000KT 9SM BKN330 13/08 A2999 RMK AO2 SLP156 T01330078 $
2026-04-23 12:37:00,SPECI KPHL 231237Z 00000KT 9SM BKN330 13/08 A3000 RMK AO2 T01280078 $
2026-04-23 11:54:00,METAR KPHL 231154Z 00000KT 10SM SCT330 11/07 A2999 RMK AO2 SLP154 70003 T01110072 10111 20089 53005 $
2026-04-23 10:54:00,METAR KPHL 231054Z 33005KT 10SM FEW090 SCT320 09/07 A2998 RMK AO2 SLP152 T00940067 $
2026-04-23 09:54:00,METAR KPHL 230954Z 00000KT 10SM BKN090 BKN280 10/07 A2997 RMK AO2 SLP148 T01000067 $
2026-04-23 08:54:00,METAR KPHL 230854Z 00000KT 10SM BKN080 BKN095 BKN140 09/07 A2998 RMK AO2 SLP150 T00940067 53005 $
2026-04-23 07:54:00,METAR KPHL 230754Z 05003KT 10SM SCT080 SCT120 10/07 A2997 RMK AO2 SLP148 T01000072 $
2026-04-23 06:54:00,METAR KPHL 230654Z 07005KT 10SM FEW080 10/07 A2996 RMK AO2 SLP144 T01000072 $
2026-04-23 05:54:00,METAR KPHL 230554Z 07007KT 10SM CLR 11/09 A2996 RMK AO2 SLP145 T01110089 10161 20111 50001 $
2026-04-23 04:54:00,METAR KPHL 230454Z 06004KT 10SM BKN120 12/09 A2998 RMK AO2 SLP150 T01170094 401890083 $
2026-04-23 03:54:00,METAR KPHL 230354Z 05005KT 10SM BKN120 13/10 A2998 RMK AO2 SLP150 T01280100 $
2026-04-23 02:54:00,METAR KPHL 230254Z 08003KT 10SM FEW080 SCT110 12/10 A2996 RMK AO2 SLP144 T01220100 50003 $
2026-04-23 01:54:00,METAR KPHL 230154Z 10004KT 10SM SCT100 14/11 A2996 RMK AO2 SLP146 T01390106 $
2026-04-23 00:54:00,METAR KPHL 230054Z 09005KT 10SM FEW080 15/11 A2996 RMK AO2 SLP144 T01500106 $
2026-04-22 23:54:00,METAR KPHL 222354Z 08007KT 10SM FEW080 16/10 A2995 RMK AO2 SLP142 T01610100 10189 20144 55004 $
2026-04-22 22:54:00,METAR KPHL 222254Z 05005KT 10SM CLR 18/09 A2994 RMK AO2 SLP139 T01780094 $
2026-04-22 21:54:00,METAR KPHL 222154Z 05005KT 10SM SCT085 19/09 A2996 RMK AO2 SLP144 T01890094 $
2026-04-22 20:54:00,METAR KPHL 222054Z 12005KT 10SM BKN085 BKN260 18/10 A2996 RMK AO2 SLP146 T01830100 56020 $
2026-04-22 19:54:00,METAR KPHL 221954Z 00000KT 10SM FEW018 BKN085 BKN260 17/09 A2998 RMK AO2 SLP150 T01670089 $
2026-04-22 18:54:00,METAR KPHL 221854Z 14003KT 10SM FEW018 BKN070 BKN260 16/09 A3000 RMK AO2 SLP158 T01610094 $
2026-04-22 17:54:00,METAR KPHL 221754Z 20004KT 10SM FEW018 BKN070 OVC090 14/09 A3002 RMK AO2 RAE07 SLP166 P0000 60003 T01440089 10156 20106 56015 $
2026-04-22 16:54:00,METAR KPHL 221654Z VRB03KT 10SM -RA FEW018 SCT065 BKN080 14/09 A3003 RMK AO2 SLP170 P0001 T01390089 $
2026-04-22 15:54:00,METAR KPHL 221554Z 15004KT 10SM -RA FEW016 SCT070 OVC085 13/08 A3005 RMK AO2 SLP175 P0002 T01280083 $
2026-04-22 14:54:00,METAR KPHL 221454Z 15005KT 10SM -RA FEW018 SCT070 OVC090 13/08 A3007 RMK AO2 RAB06 SLP181 P0000 60000 T01280083 56012 $
2026-04-22 13:54:00,METAR KPHL 221354Z 16005KT 10SM FEW022 OVC110 13/07 A3008 RMK AO2 RAE17 SLP184 VIRGA P0000 T01280067 $
2026-04-22 12:54:00,METAR KPHL 221254Z 15005KT 10SM -RA FEW070 BKN110 OVC200 12/06 A3009 RMK AO2 RAB47 SLP187 VIRGA P0000 T01170061 $
2026-04-22 11:54:00,METAR KPHL 221154Z VRB06KT 10SM FEW080 BKN100 BKN200 11/06 A3010 RMK AO2 SLP192 VIRGA 60000 T01060056 10106 20083 55009 $
2026-04-22 10:54:00,METAR KPHL 221054Z 16009KT 10SM SCT080 BKN100 BKN200 10/04 A3009 RMK AO2 RAE49 SLP189 VIRGA P0000 T01000044 $
2026-04-22 09:54:00,METAR KPHL 220954Z 13006KT 10SM -RA BKN100 OVC150 09/04 A3011 RMK AO2 RAB44 SLP197 P0000 T00940039 $
2026-04-22 08:54:00,METAR KPHL 220854Z 12007KT 10SM BKN110 OVC150 09/04 A3013 RMK AO2 SLP202 T00890044 58021 $
2026-04-22 07:54:00,METAR KPHL 220754Z 12005KT 10SM BKN090 OVC120 09/04 A3017 RMK AO2 SLP215 T00890039 $
2026-04-22 06:54:00,METAR KPHL 220654Z 12007KT 10SM BKN090 OVC120 09/03 A3016 RMK AO2 SLP212 T00890033 $
2026-04-22 05:54:00,METAR KPHL 220554Z 14007KT 10SM BKN130 OVC170 09/03 A3019 RMK AO2 SLP223 T00890028 10128 20089 58019 $
2026-04-22 04:54:00,METAR KPHL 220454Z VRB06KT 10SM BKN150 OVC190 09/03 A3022 RMK AO2 SLP232 T00890028 401440011 $
2026-04-22 03:54:00,METAR KPHL 220354Z 16008KT 10SM BKN170 OVC220 09/02 A3024 RMK AO2 SLP238 T00890022 $
2026-04-22 02:54:00,METAR KPHL 220254Z 15005KT 10SM SCT120 BKN180 09/02 A3025 RMK AO2 SLP242 T00890017 50008 $
2026-04-22 01:54:00,METAR KPHL 220154Z 17008KT 10SM SCT110 SCT160 09/01 A3025 RMK AO2 SLP244 T00940011 $
2026-04-22 00:54:00,METAR KPHL 220054Z 18014KT 10SM FEW080 BKN110 11/M01 A3025 RMK AO2 SLP241 T01061006 $
2026-04-21 23:54:00,METAR KPHL 212354Z 19011KT 10SM FEW080 BKN120 13/M03 A3022 RMK AO2 SLP234 T01281033 10144 20111 55006 $
2026-04-21 22:54:00,METAR KPHL 212254Z 20005G16KT 10SM SCT090 SCT140 13/M04 A3022 RMK AO2 SLP234 T01331044 $
2026-04-21 21:54:00,METAR KPHL 212154Z 19009KT 10SM SCT140 13/M06 A3023 RMK AO2 SLP235 T01331056 $
2026-04-21 20:54:00,METAR KPHL 212054Z 19008G17KT 10SM FEW100 SCT150 14/M06 A3024 RMK AO2 SLP240 T01391056 56027 $
2026-04-21 19:54:00,METAR KPHL 211954Z COR 26007KT 10SM FEW100 13/M08 A3026 RMK AO2 SLP246 T01331078 $
2026-04-21 18:54:00,METAR KPHL 211854Z 26009G17KT 10SM CLR 12/M08 A3030 RMK AO2 SLP258 T01221078 $
2026-04-21 17:54:00,METAR KPHL 211754Z 22008KT 190V260 10SM CLR 12/M08 A3032 RMK AO2 SLP267 T01171083 10117 20044 58030 $
2026-04-21 16:54:00,METAR KPHL 211654Z 21009KT 10SM FEW280 11/M08 A3036 RMK AO2 SLP279 T01111078 $
2026-04-21 15:54:00,METAR KPHL 211554Z COR 19006G17KT 10SM FEW280 09/M08 A3039 RMK AO2 SLP289 T00891078 $
2026-04-21 14:54:00,METAR KPHL 211454Z 00000KT 10SM FEW280 08/M08 A3041 RMK AO2 SLP297 T00781083 58008 $
2026-04-21 13:54:00,METAR KPHL 211354Z 36008KT 10SM FEW280 07/M08 A3043 RMK AO2 SLP303 T00721078 $
2026-04-21 12:54:00,METAR KPHL 211254Z 35005KT 10SM FEW280 06/M08 A3044 RMK AO2 SLP309 T00561083 $
2026-04-21 11:54:00,METAR KPHL 211154Z 34005KT 10SM SCT280 04/M06 A3044 RMK AO2 SLP306 T00441056 10044 20011 51019 $
2026-04-21 10:54:00,METAR KPHL 211054Z 35004KT 10SM FEW270 02/M05 A3043 RMK AO2 SLP302 T00221050 $
2026-04-21 09:54:00,METAR KPHL 210954Z 35005KT 10SM CLR 02/M06 A3039 RMK AO2 SLP291 T00171056 $
2026-04-21 08:54:00,METAR KPHL 210854Z 35006KT 10SM CLR 02/M06 A3038 RMK AO2 SLP286 T00171056 53003 $
2026-04-21 07:54:00,METAR KPHL 210754Z 36007KT 10SM CLR 02/M06 A3037 RMK AO2 SLP285 T00221061 $
2026-04-21 06:54:00,METAR KPHL 210654Z 36007KT 10SM CLR 03/M07 A3037 RMK AO2 SLP282 T00331067 $
2026-04-21 05:54:00,METAR KPHL 210554Z 02005KT 10SM CLR 04/M06 A3037 RMK AO2 SLP283 T00391061 10089 20033 51009 $
2026-04-21 04:54:00,METAR KPHL 210454Z 01006KT 10SM CLR 04/M07 A3036 RMK AO2 SLP282 T00441067 401280044 $
2026-04-21 03:54:00,METAR KPHL 210354Z 01010KT 10SM CLR 06/M08 A3035 RMK AO2 SLP278 T00561083 $
2026-04-21 02:54:00,METAR KPHL 210254Z 36007KT 10SM CLR 06/M08 A3034 RMK AO2 SLP274 T00611083 51025 $
2026-04-21 01:54:00,METAR KPHL 210154Z 01012KT 10SM CLR 07/M08 A3033 RMK AO2 SLP270 T00721083 $
2026-04-21 00:54:00,METAR KPHL 210054Z 35012G20KT 10SM FEW090 08/M08 A3030 RMK AO2 SLP261 T00781078 $
2026-04-20 23:54:00,METAR KPHL 202354Z 36014KT 10SM SCT085 09/M07 A3027 RMK AO2 SLP249 60000 T00891072 10128 20089 53028 $
2026-04-20 22:54:00,METAR KPHL 202254Z 31012G23KT 10SM FEW065 SCT085 11/M08 A3023 RMK AO2 SLP237 T01061083 $
2026-04-20 21:54:00,METAR KPHL 202154Z 33014G25KT 10SM FEW065 SCT085 11/M07 A3021 RMK AO2 PK WND 33026/2057 SLP229 T01111072 $
2026-04-20 20:54:00,METAR KPHL 202054Z 33016G26KT 10SM FEW065 SCT090 12/M04 A3018 RMK AO2 PK WND 35026/2045 SLP220 VIRGA 60000 T01221044 53001 $
2026-04-20 19:54:00,METAR KPHL 201954Z 31012G24KT 10SM FEW048 BKN065 BKN095 11/M02 A3017 RMK AO2 RAB12E29 SLP217 PK WND 3527/1914 VCSH P0000 T01061017 $
2026-04-20 18:54:00,METAR KPHL 201854Z 33013G24KT 10SM SCT060 BKN090 11/M03 A3017 RMK AO2 PK WND 32026/1822 RAE22 SLP215 VCSH P0000 T01111028 $
2026-04-20 17:54:00,METAR KPHL 201754Z 31009KT 10SM -RA BKN050 BKN070 OVC080 11/M01 A3018 RMK AO2 RAB02 SLP219 P0000 60000 T01061011 10122 20072 56004 $
2026-04-20 16:54:00,METAR KPHL 201654Z 00000KT 10SM BKN047 BKN070 BKN100 10/00 A3018 RMK AO2 RAB12E40 SLP220 VCSH P0000 T01000000 $
2026-04-20 15:54:00,METAR KPHL 201554Z 35006G16KT 10SM FEW035 BKN055 BKN110 11/00 A3019 RMK AO2 SLP222 VCSH T01060000 $
2026-04-20 14:54:00,METAR KPHL 201454Z 01006KT 10SM SCT033 BKN060 BKN120 11/01 A3019 RMK AO2 SLP223 T01060011 51006 $
2026-04-20 13:54:00,METAR KPHL 201354Z 32008G20KT 10SM BKN030 BKN075 BKN120 BKN250 09/01 A3019 RMK AO2 SLP223 T00890011 $
2026-04-20 13:40:00,SPECI KPHL 201340Z 34010KT 10SM BKN029 BKN065 BKN120 BKN250 09/02 A3019 RMK AO2 T00890017 $
2026-04-20 12:54:00,METAR KPHL 201254Z 35007KT 10SM FEW055 BKN070 BKN120 BKN250 08/00 A3018 RMK AO2 SLP219 VIRGA T00780000 $
2026-04-20 11:54:00,METAR KPHL 201154Z 22005KT 10SM BKN070 BKN100 BKN230 07/01 A3018 RMK AO2 SLP218 VCSH 70001 T00720011 10078 20044 53017 $
2026-04-20 10:54:00,METAR KPHL 201054Z 00000KT 10SM BKN070 BKN110 06/M02 A3015 RMK AO2 SLP209 T00611017 $
2026-04-20 09:54:00,METAR KPHL 200954Z 00000KT 10SM SCT070 SCT130 06/M02 A3013 RMK AO2 SLP201 T00561022 $
2026-04-20 08:54:00,METAR KPHL 200854Z 30006KT 10SM SCT075 08/M03 A3013 RMK AO2 SLP201 T00781028 53001 $
2026-04-20 07:54:00,METAR KPHL 200754Z 23005KT 10SM FEW080 06/M02 A3012 RMK AO2 SLP199 T00611017 $
2026-04-20 06:54:00,METAR KPHL 200654Z 00000KT 10SM FEW080 06/M01 A3011 RMK AO2 SLP197 T00611011 $
2026-04-20 05:54:00,METAR KPHL 200554Z 36003KT 10SM FEW110 07/M01 A3012 RMK AO2 SLP200 T00671011 10106 20056 50003 $
2026-04-20 04:54:00,METAR KPHL 200454Z 28005KT 10SM CLR 08/M02 A3013 RMK AO2 SLP203 T00831022 401390067 $
2026-04-20 03:54:00,METAR KPHL 200354Z 33003KT 10SM CLR 08/01 A3012 RMK AO2 SLP200 T00780006 $
2026-04-20 02:54:00,METAR KPHL 200254Z 32004KT 10SM CLR 09/M02 A3011 RMK AO2 SLP197 T00941017 51024 $
2026-04-20 01:54:00,METAR KPHL 200154Z 29007KT 10SM CLR 11/M01 A3010 RMK AO2 SLP193 T01061006 $
2026-04-20 00:54:00,METAR KPHL 200054Z 30004KT 10SM SCT090 SCT250 10/02 A3008 RMK AO2 SLP184 T01000022 $
2026-04-19 23:54:00,METAR KPHL 192354Z 33007G18KT 10SM SCT060 SCT095 BKN250 10/02 A3004 RMK AO2 PK WND 34030/2320 RAB21E31 SLP173 P0000 60000 T01000022 10133 20089 53031 $
2026-04-19 22:54:00,METAR KPHL 192254Z 30014G24KT 10SM SCT055 SCT070 BKN110 13/M01 A3000 RMK AO2 SLP157 T01331006 $
2026-04-19 21:54:00,METAR KPHL 192154Z 31010KT 10SM SCT039 SCT070 BKN085 13/03 A2997 RMK AO2 SLP149 T01280028 $
2026-04-19 20:54:00,METAR KPHL 192054Z 32007KT 10SM BKN031 BKN065 12/04 A2995 RMK AO2 SLP142 60000 T01170039 56004 $
2026-04-19 20:31:00,SPECI KPHL 192031Z 35009G16KT 10SM SCT022 BKN027 BKN065 11/05 A2995 RMK AO2 T01110050 $
2026-04-19 19:54:00,METAR KPHL 191954Z 34009KT 10SM SCT020 BKN027 BKN039 11/06 A2995 RMK AO2 RAE07B25E36 SLP142 P0000 T01060056 $
2026-04-19 19:24:00,SPECI KPHL 191924Z 35011KT 10SM BKN020 BKN027 OVC050 09/06 A2996 RMK AO2 RAE07 P0000 T00940056 $
2026-04-19 18:54:00,METAR KPHL 191854Z 29009G18KT 10SM -RA SCT022 BKN050 OVC070 09/06 A2996 RMK AO2 SLP145 P0000 T00940056 $
2026-04-19 18:39:00,SPECI KPHL 191839Z 31009G20KT 10SM -RA SCT022 BKN050 OVC070 09/06 A2996 RMK AO2 P0000 T00940056 $
2026-04-19 18:18:00,SPECI KPHL 191818Z 27008KT 10SM -RA BKN022 BKN045 OVC090 09/06 A2997 RMK AO2 P0000 T00940056 $
2026-04-19 17:54:00,METAR KPHL 191754Z 27007KT 10SM -RA FEW018 BKN042 OVC060 09/06 A2996 RMK AO2 SLP146 P0001 60001 T00940061 10139 20089 51017 $
2026-04-19 16:54:00,METAR KPHL 191654Z 30010KT 10SM -RA FEW026 SCT032 OVC065 09/05 A2994 RMK AO2 PK WND 33031/1559 RAE08B27 SLP139 P0000 T00890050 $
2026-04-19 15:54:00,METAR KPHL 191554Z 33016G29KT 10SM -RA SCT023 BKN030 OVC055 10/06 A2994 RMK AO2 PK WND 33031/1513 RAE10B49 SLP139 P0000 T01000056 $
2026-04-19 14:54:00,METAR KPHL 191454Z 32016G23KT 10SM -RA SCT020 OVC050 11/06 A2992 RMK AO2 PK WND 30029/1402 RAB18E28B49 SLP129 P0000 60000 T01110061 51034 $
2026-04-19 14:28:00,SPECI KPHL 191428Z 33017G29KT 10SM FEW020 BKN046 OVC055 12/06 A2989 RMK AO2 PK WND 30029/1402 RAB18E28 P0000 T01170061 $
2026-04-19 14:19:00,SPECI KPHL 191419Z 33015G26KT 7SM -RA FEW018 SCT026 OVC045 12/07 A2989 RMK AO2 PK WND 30029/1402 RAB18 P0000 T01170067 $
2026-04-19 13:54:00,METAR KPHL 191354Z 31019G28KT 10SM BKN030 OVC045 13/07 A2989 RMK AO2 PK WND 34031/1326 SLP121 T01280067 $
2026-04-19 13:17:00,SPECI KPHL 191317Z 32021G31KT 10SM SCT013 BKN030 OVC041 13/07 A2985 RMK AO2 PK WND 33031/1313 T01330067 $
2026-04-19 12:54:00,METAR KPHL 191254Z 32015G27KT 10SM BKN013 BKN029 OVC034 13/10 A2984 RMK AO2 PK WND 32027/1253 RAB05E35 SLP104 P0000 T01330100 $
2026-04-19 12:47:00,SPECI KPHL 191247Z 32011KT 10SM BKN011 OVC016 13/11 A2984 RMK AO2 RAB05E35 P0000 T01330106 $
2026-04-19 12:35:00,SPECI KPHL 191235Z 31007KT 7SM SCT009 OVC014 13/11 A2983 RMK AO2 RAB05E35 P0000 T01280106 $
2026-04-19 12:15:00,SPECI KPHL 191215Z 33008KT 7SM -RA BKN009 OVC035 13/11 A2982 RMK AO2 RAB05 CIG 008V010 P0000 T01280106 $
2026-04-19 12:08:00,SPECI KPHL 191208Z 32008KT 4SM -RA OVC009 13/10 A2982 RMK AO2 RAB05 CIG 008V010 P0000 T01280100 $
2026-04-19 12:05:00,SPECI KPHL 191205Z 33009KT 7SM -RA OVC009 13/10 A2983 RMK AO2 RAB05 CIG 008V010 P0000 T01280100 $
2026-04-19 11:54:00,METAR KPHL 191154Z 32009KT 10SM OVC009 13/10 A2981 RMK AO2 SLP095 CIG 008V010 T01280100 10128 20111 53012 $
2026-04-19 11:25:00,SPECI KPHL 191125Z 33005KT 10SM OVC007 12/09 A2980 RMK AO2 T01220094 $
2026-04-19 10:54:00,METAR KPHL 191054Z 00000KT 10SM OVC006 12/09 A2978 RMK AO2 SLP085 T01170094 $
2026-04-19 09:54:00,METAR KPHL 190954Z 08004KT 10SM OVC006 12/10 A2976 RMK AO2 SLP078 T01170100 $
2026-04-19 09:08:00,SPECI KPHL 190908Z 07006KT 10SM OVC006 11/09 A2977 RMK AO2 T01110094 $
2026-04-19 08:54:00,METAR KPHL 190854Z 08007KT 10SM OVC007 11/09 A2978 RMK AO2 SLP083 T01110094 56036 $
2026-04-19 08:12:00,SPECI KPHL 190812Z 08008KT 10SM OVC007 12/09 A2979 RMK AO2 T01170094 $
2026-04-19 07:54:00,METAR KPHL 190754Z 10008KT 8SM OVC007 12/10 A2981 RMK AO2 SLP093 T01170100 $
2026-04-19 06:54:00,METAR KPHL 190654Z 09010KT 7SM OVC007 12/10 A2983 RMK AO2 SLP101 T01170100 $
2026-04-19 06:40:00,SPECI KPHL 190640Z 07006KT 9SM OVC007 12/10 A2985 RMK AO2 T01220100 $
2026-04-19 05:54:00,METAR KPHL 190554Z 03007KT 10SM OVC007 12/10 A2988 RMK AO2 SLP119 T01220100 10150 20117 58009 $
2026-04-19 05:34:00,SPECI KPHL 190534Z 05006KT 10SM OVC007 12/10 A2988 RMK AO2 T01220100 $
2026-04-19 04:54:00,METAR KPHL 190454Z 36005KT 10SM OVC005 12/10 A2991 RMK AO2 SLP128 T01170100 402560117 $
2026-04-19 03:54:00,METAR KPHL 190354Z 11006KT 10SM OVC005 12/10 A2989 RMK AO2 SLP122 T01170100 $
2026-04-19 02:54:00,METAR KPHL 190254Z 10007KT 10SM OVC006 12/10 A2991 RMK AO2 SLP128 T01170100 58008 $
2026-04-19 02:31:00,SPECI KPHL 190231Z 11007KT 10SM OVC006 12/10 A2992 RMK AO2 T01170100 $
2026-04-19 01:54:00,METAR KPHL 190154Z 10011KT 10SM OVC009 12/10 A2992 RMK AO2 SLP132 T01220100 $
2026-04-19 01:21:00,SPECI KPHL 190121Z 12010KT 10SM OVC009 12/10 A2993 RMK AO2 T01220100 $
2026-04-19 00:54:00,METAR KPHL 190054Z 11008KT 10SM OVC013 13/10 A2993 RMK AO2 SLP136 T01330100 $
2026-04-19 00:45:00,SPECI KPHL 190045Z 11011KT 10SM BKN013 BKN210 13/10 A2994 RMK AO2 T01330100 $
2026-04-19 00:02:00,SPECI KPHL 190002Z 12009KT 10SM BKN019 BKN210 15/10 A2993 RMK AO2 T01500100 $
2026-04-18 23:54:00,METAR KPHL 182354Z 13010KT 10SM SCT021 BKN210 16/10 A2994 RMK AO2 SLP136 T01560100 10256 20156 53002 $
2026-04-18 22:54:00,METAR KPHL 182254Z 12013KT 10SM BKN210 BKN300 19/11 A2992 RMK AO2 SLP131 T01890111 $
2026-04-18 21:54:00,METAR KPHL 182154Z 12013KT 10SM BKN240 BKN300 21/12 A2992 RMK AO2 SLP133 T02060117 $
2026-04-18 20:54:00,METAR KPHL 182054Z 13008KT 10SM FEW040 BKN200 BKN300 23/12 A2993 RMK AO2 SLP134 T02280122 56022 $
2026-04-18 19:54:00,METAR KPHL 181954Z 14008KT 10SM FEW038 SCT130 SCT300 25/13 A2995 RMK AO2 SLP140 T02500128 $
2026-04-18 18:54:00,METAR KPHL 181854Z 14006KT 10SM FEW038 SCT130 SCT300 24/13 A2997 RMK AO2 SLP149 T02440133 $
2026-04-18 17:54:00,METAR KPHL 181754Z VRB06KT 10SM FEW038 SCT130 BKN300 24/13 A2999 RMK AO2 SLP155 T02390128 10244 20139 58021 $
2026-04-18 16:54:00,METAR KPHL 181654Z 11009KT 10SM FEW038 BKN300 23/13 A3001 RMK AO2 SLP163 T02280128 $
2026-04-18 15:54:00,METAR KPHL 181554Z 08004KT 10SM FEW032 BKN300 21/13 A3004 RMK AO2 SLP170 T02110128 $
2026-04-18 14:54:00,METAR KPHL 181454Z VRB05KT 10SM SCT022 SCT300 18/12 A3005 RMK AO2 SLP176 T01830122 58000 $
2026-04-18 14:35:00,SPECI KPHL 181435Z 07005KT 10SM SCT018 SCT300 18/12 A3006 RMK AO2 T01780122 $
2026-04-18 14:19:00,SPECI KPHL 181419Z VRB04KT 10SM BKN011 16/12 A3006 RMK AO2 T01610122 $
2026-04-18 13:54:00,METAR KPHL 181354Z 06004KT 10SM BKN009 16/12 A3006 RMK AO2 SLP179 CIG 007V011 T01560117 $
2026-04-18 12:54:00,METAR KPHL 181254Z 09008KT 10SM OVC007 14/12 A3005 RMK AO2 SLP176 T01390117 $
2026-04-18 11:54:00,METAR KPHL 181154Z 08011KT 10SM OVC008 14/12 A3005 RMK AO2 SLP177 T01390117 10178 20139 53014 $
2026-04-18 11:09:00,SPECI KPHL 181109Z 06005KT 10SM OVC009 14/12 A3005 RMK AO2 T01440122 $
2026-04-18 10:54:00,METAR KPHL 181054Z 09007KT 10SM OVC010 14/12 A3003 RMK AO2 SLP169 T01440122 $
2026-04-18 09:54:00,METAR KPHL 180954Z 09007KT 10SM OVC010 14/12 A3002 RMK AO2 SLP165 T01440122 $
2026-04-18 09:47:00,SPECI KPHL 180947Z 09008KT 10SM OVC010 14/12 A3002 RMK AO2 T01440122 $
2026-04-18 08:54:00,METAR KPHL 180854Z 08009KT 10SM OVC008 16/13 A3001 RMK AO2 SLP163 CIG 007V009 T01560128 50003 $
2026-04-18 08:15:00,SPECI KPHL 180815Z 07007KT 10SM OVC009 15/13 A3003 RMK AO2 T01500128 $
2026-04-18 07:54:00,METAR KPHL 180754Z 08007KT 10SM OVC010 16/13 A3003 RMK AO2 SLP168 T01560128 $
2026-04-18 07:40:00,SPECI KPHL 180740Z 06005KT 10SM OVC010 16/13 A3003 RMK AO2 T01560128 $
2026-04-18 07:17:00,SPECI KPHL 180717Z 08010KT 10SM OVC009 15/13 A3002 RMK AO2 T01500128 $
2026-04-18 07:05:00,SPECI KPHL 180705Z 08009KT 10SM BKN010 BKN055 15/12 A3002 RMK AO2 T01500122 $
2026-04-18 06:54:00,METAR KPHL 180654Z 07009KT 10SM SCT012 SCT055 16/12 A3001 RMK AO2 SLP162 T01560122 $
2026-04-18 05:54:00,METAR KPHL 180554Z 09009KT 10SM FEW015 FEW060 18/13 A3001 RMK AO2 SLP160 T01780133 10256 20178 53019 $
2026-04-18 04:54:00,METAR KPHL 180454Z 08009KT 10SM FEW070 19/14 A2999 RMK AO2 SLP154 T01940139 402830194 $
2026-04-18 03:54:00,METAR KPHL 180354Z 05004KT 10SM FEW070 20/13 A2996 RMK AO2 SLP145 T02000133 $
2026-04-18 02:54:00,METAR KPHL 180254Z 08004KT 10SM FEW070 FEW110 21/13 A2995 RMK AO2 SLP141 T02110133 50011 $
2026-04-18 01:54:00,METAR KPHL 180154Z 03004KT 10SM SCT075 BKN110 22/13 A2995 RMK AO2 SLP143 T02220128 $
2026-04-18 00:54:00,METAR KPHL 180054Z 36010G16KT 10SM BKN120 24/13 A2995 RMK AO2 SLP140 T02390128 $
2026-04-17 23:54:00,METAR KPHL 172354Z 33006KT 10SM BKN090 BKN350 25/12 A2992 RMK AO2 SLP130 T02500117 10283 20250 52019 $
2026-04-17 22:54:00,METAR KPHL 172254Z 31009G20KT 10SM BKN100 26/11 A2990 RMK AO2 SLP124 T02610111 $
2026-04-17 21:54:00,METAR KPHL 172154Z 31013KT 10SM SCT065 BKN110 27/11 A2988 RMK AO2 SLP117 T02670111 $
2026-04-17 20:54:00,METAR KPHL 172054Z 29009G18KT 10SM BKN065 BKN080 BKN110 28/10 A2986 RMK AO2 SLP111 T02780100 55003 $
2026-04-17 19:54:00,METAR KPHL 171954Z 32008KT 10SM BKN065 BKN080 BKN110 27/11 A2985 RMK AO2 SLP109 T02670106 $
2026-04-17 18:54:00,METAR KPHL 171854Z 31010KT 280V350 10SM BKN060 BKN110 28/11 A2986 RMK AO2 SLP112 T02780111 $
2026-04-17 17:54:00,METAR KPHL 171754Z 29013KT 10SM BKN055 BKN080 BKN110 BKN330 27/12 A2987 RMK AO2 SLP115 T02720117 10272 20217 58007 $
2026-04-17 16:54:00,METAR KPHL 171654Z 31008KT 10SM BKN055TCU BKN110 BKN330 26/12 A2987 RMK AO2 SLP115 TCU OHD VCSH T02560122 $
2026-04-17 15:54:00,METAR KPHL 171554Z 02006KT 10SM BKN048TCU BKN100 BKN230 BKN320 25/12 A2989 RMK AO2 SLP122 TCU OHD T02500122 $
2026-04-17 14:54:00,METAR KPHL 171454Z 34008KT 10SM BKN042 BKN070 BKN220 BKN320 24/14 A2989 RMK AO2 SLP122 T02440139 53007 $
2026-04-17 13:54:00,METAR KPHL 171354Z 33007KT 10SM SCT038 SCT110 BKN230 BKN300 23/14 A2988 RMK AO2 SLP118 T02330139 $
2026-04-17 12:54:00,METAR KPHL 171254Z 34005G20KT 10SM FEW050 FEW075 SCT120 BKN200 BKN260 22/14 A2987 RMK AO2 SLP116 T02220139 $
2026-04-17 11:54:00,METAR KPHL 171154Z 33005KT 10SM FEW050 FEW075 BKN130 BKN200 BKN260 22/13 A2987 RMK AO2 SLP114 T02170133 10244 20206 53026 $
2026-04-17 10:54:00,METAR KPHL 171054Z 32005KT 10SM FEW050 BKN120 BKN200 BKN250 21/13 A2984 RMK AO2 SLP105 VCSH T02110128 $
2026-04-17 09:54:00,METAR KPHL 170954Z 31007KT 10SM FEW035 SCT110 BKN170 BKN250 22/13 A2981 RMK AO2 SLP095 T02170133 $
2026-04-17 08:54:00,METAR KPHL 170854Z 31010KT 10SM FEW035 BKN170 OVC250 23/14 A2979 RMK AO2 SLP089 T02280139 53006 $
2026-04-17 07:54:00,METAR KPHL 170754Z 28007KT 10SM SCT120 BKN180 OVC220 23/13 A2978 RMK AO2 SLP085 T02330133 $
2026-04-17 06:54:00,METAR KPHL 170654Z 31006KT 10SM SCT110 SCT250 24/13 A2976 RMK AO2 SLP078 T02390133 $
2026-04-17 05:54:00,METAR KPHL 170554Z 34010KT 10SM FEW060 BKN130 24/13 A2978 RMK AO2 PK WND 33026/0507 SLP083 T02440133 10289 20239 50014 $
2026-04-17 04:54:00,METAR KPHL 170454Z 31005KT 10SM CLR 24/14 A2978 RMK AO2 SLP083 T02440144 403280183 $
2026-04-17 03:54:00,METAR KPHL 170354Z 22010KT 10SM SCT100 BKN130 26/14 A2974 RMK AO2 SLP070 T02560139 $
2026-04-17 02:54:00,METAR KPHL 170254Z 21008KT 10SM FEW220 SCT280 26/14 A2974 RMK AO2 SLP069 T02610139 58000 $
2026-04-17 01:54:00,METAR KPHL 170154Z 21004KT 10SM SCT160 SCT280 26/14 A2975 RMK AO2 SLP073 T02610139 $
2026-04-17 00:54:00,METAR KPHL 170054Z 21011G17KT 10SM SCT170 BKN280 27/13 A2975 RMK AO2 SLP074 T02720133 $
2026-04-16 23:54:00,METAR KPHL 162354Z 19008KT 10SM SCT170 BKN280 28/13 A2974 RMK AO2 SLP069 T02830133 10328 20283 55004 $
2026-04-16 22:54:00,METAR KPHL 162254Z 19010G22KT 10SM FEW110 SCT280 30/14 A2974 RMK AO2 SLP068 T03000139 $
2026-04-16 21:54:00,METAR KPHL 162154Z 20008G19KT 10SM FEW070 SCT270 32/13 A2975 RMK AO2 SLP072 T03170133 $
2026-04-16 20:54:00,METAR KPHL 162054Z 21013G22KT 10SM FEW070 SCT270 BKN350 33/14 A2975 RMK AO2 SLP073 T03280139 58031 $
2026-04-16 19:54:00,METAR KPHL 161954Z 23009G17KT 10SM FEW070 SCT270 BKN350 33/13 A2978 RMK AO2 SLP084 T03280133 $
2026-04-16 18:54:00,METAR KPHL 161854Z 21011KT 10SM SCT220 BKN300 BKN350 32/14 A2981 RMK AO2 SLP095 T03220139 $
2026-04-16 17:54:00,METAR KPHL 161754Z 22010KT 10SM FEW070 FEW220 BKN300 BKN350 32/14 A2984 RMK AO2 SLP105 T03170139 10322 20200 58022 $
2026-04-16 16:54:00,METAR KPHL 161654Z 24010KT 10SM FEW070 FEW250 BKN300 BKN350 32/14 A2987 RMK AO2 SLP113 T03170144 $
2026-04-16 15:54:00,METAR KPHL 161554Z 22005KT 10SM SCT280 BKN350 29/16 A2989 RMK AO2 SLP122 T02940156 $
2026-04-16 14:54:00,METAR KPHL 161454Z 00000KT 10SM FEW220 BKN270 BKN330 28/16 A2991 RMK AO2 SLP127 T02780161 58006 $
2026-04-16 13:54:00,METAR KPHL 161354Z 19003KT 10SM SCT220 BKN280 BKN350 26/17 A2991 RMK AO2 SLP129 T02560172 $
2026-04-16 12:54:00,METAR KPHL 161254Z 17004KT 10SM BKN210 BKN270 BKN330 23/16 A2993 RMK AO2 SLP133 T02280161 $
2026-04-16 11:54:00,METAR KPHL 161154Z 21004KT 10SM FEW120 BKN210 BKN270 BKN330 20/16 A2993 RMK AO2 SLP134 T02000156 10228 20183 51016 $
2026-04-16 10:54:00,METAR KPHL 161054Z 25004KT 10SM FEW130 BKN200 BKN270 19/15 A2991 RMK AO2 SLP128 T01940150 $
2026-04-16 09:54:00,METAR KPHL 160954Z 00000KT 10SM SCT180 BKN250 19/15 A2990 RMK AO2 SLP125 T01890150 $
2026-04-16 08:54:00,METAR KPHL 160854Z 00000KT 10SM SCT200 BKN260 20/15 A2988 RMK AO2 SLP117 T02000150 53001 $
2026-04-16 07:54:00,METAR KPHL 160754Z 24004KT 10SM SCT200 BKN260 21/15 A2988 RMK AO2 SLP117 T02060150 $
2026-04-16 06:54:00,METAR KPHL 160654Z 25005KT 10SM SCT200 BKN280 20/15 A2987 RMK AO2 SLP115 T02000150 $
2026-04-16 05:54:00,METAR KPHL 160554Z 25006KT 10SM SCT190 SCT250 22/16 A2988 RMK AO2 SLP116 T02220156 10289 20222 58008 $
2026-04-16 04:54:00,METAR KPHL 160454Z 22008KT 10SM BKN220 BKN280 24/16 A2989 RMK AO2 SLP122 T02440156 403280167 $
2026-04-16 03:54:00,METAR KPHL 160354Z 22006KT 10SM SCT190 BKN250 24/15 A2990 RMK AO2 SLP123 T02440150 $
2026-04-16 02:54:00,METAR KPHL 160254Z 22006KT 10SM FEW190 BKN250 25/15 A2990 RMK AO2 SLP125 T02500150 50011 $
2026-04-16 01:54:00,METAR KPHL 160154Z 21007KT 10SM SCT200 BKN280 27/15 A2991 RMK AO2 SLP127 T02670150 $
2026-04-16 00:54:00,METAR KPHL 160054Z 21007KT 10SM FEW120 SCT200 BKN280 27/14 A2989 RMK AO2 SLP121 T02720144 $
2026-04-15 23:54:00,METAR KPHL 152354Z 21008KT 10SM FEW120 SCT200 BKN280 29/14 A2987 RMK AO2 SLP114 T02890139 10328 20289 50001 $
2026-04-15 22:54:00,METAR KPHL 152254Z 23011KT 10SM FEW060 SCT220 BKN300 30/14 A2987 RMK AO2 SLP115 T03000139 $
2026-04-15 21:54:00,METAR KPHL 152154Z 23009KT 10SM FEW060 SCT220 BKN300 31/16 A2987 RMK AO2 SLP115 T03060156 $
2026-04-15 20:54:00,METAR KPHL 152054Z 24012KT 10SM FEW060 SCT210 BKN300 32/15 A2987 RMK AO2 SLP113 T03170150 56010 $
2026-04-15 19:54:00,METAR KPHL 151954Z 23014KT 10SM FEW055 FEW100 SCT210 BKN300 32/15 A2987 RMK AO2 SLP113 T03220150 $
2026-04-15 18:54:00,METAR KPHL 151854Z 22013KT 10SM FEW055 FEW100 SCT210 BKN300 32/16 A2988 RMK AO2 SLP118 T03170161 $
2026-04-15 17:54:00,METAR KPHL 151754Z 22013KT 10SM FEW055 FEW100 SCT210 BKN300 31/16 A2990 RMK AO2 SLP123 T03060156 10306 20194 56026 $
2026-04-15 16:54:00,METAR KPHL 151654Z 24014KT 10SM FEW055 BKN230 BKN300 BKN350 30/16 A2991 RMK AO2 SLP128 T03000156 $
2026-04-15 15:54:00,METAR KPHL 151554Z 20010KT 10SM FEW090 BKN230 BKN300 28/17 A2994 RMK AO2 SLP138 T02830172 $
2026-04-15 14:54:00,METAR KPHL 151454Z 23012KT 10SM FEW095 BKN230 BKN300 26/17 A2997 RMK AO2 SLP149 T02610167 50002 $
2026-04-15 13:54:00,METAR KPHL 151354Z 23010KT 10SM FEW075 BKN230 BKN300 24/17 A2998 RMK AO2 SLP152 T02390172 $
2026-04-15 12:54:00,METAR KPHL 151254Z 24009KT 10SM FEW075 BKN240 BKN280 21/17 A2999 RMK AO2 SLP155 T02110172 $
2026-04-15 11:54:00,METAR KPHL 151154Z 24006KT 10SM FEW075 BKN240 BKN280 19/17 A2997 RMK AO2 SLP147 70010 T01940172 10194 20167 53013 $
2026-04-15 10:54:00,METAR KPHL 151054Z 23007KT 10SM SCT070 SCT130 BKN240 BKN280 18/17 A2995 RMK AO2 SLP142 T01830167 $
2026-04-15 10:41:00,SPECI KPHL 151041Z 24008KT 10SM SCT070 SCT130 BKN230 BKN280 18/16 A2995 RMK AO2 T01780161 $
2026-04-15 10:25:00,SPECI KPHL 151025Z 24007KT 9SM BCFG FEW002 SCT070 SCT130 BKN230 BKN280 18/16 A2994 RMK AO2 T01780161 $
2026-04-15 09:54:00,METAR KPHL 150954Z 00000KT 10SM FEW070 SCT130 BKN270 18/16 A2994 RMK AO2 SLP137 T01780161 $
2026-04-15 08:54:00,METAR KPHL 150854Z 00000KT 10SM SCT065 SCT130 BKN250 18/16 A2993 RMK AO2 SLP134 T01780161 58001 $
2026-04-15 07:54:00,METAR KPHL 150754Z 21004KT 10SM FEW075 SCT120 BKN240 18/17 A2993 RMK AO2 SLP135 T01830167 $
2026-04-15 06:54:00,METAR KPHL 150654Z 22004KT 10SM FEW140 BKN250 19/17 A2993 RMK AO2 SLP135 T01890167 $
2026-04-15 05:54:00,METAR KPHL 150554Z COR 25005KT 10SM BKN120 BKN180 19/17 A2993 RMK AO2 RAE13 SLP135 P0000 60010 T01890167 10278 20189 56007 $
2026-04-15 04:54:00,METAR KPHL 150454Z 26007KT 10SM -RA FEW065 SCT095 BKN120 20/17 A2994 RMK AO2 SLP137 RAE28B37 P0001 T02000167 403110156 $
2026-04-15 04:28:00,SPECI KPHL 150428Z 26005KT 10SM SCT075 BKN100 OVC120 21/17 A2993 RMK AO2 RAE28 P0001 T02060167 $
2026-04-15 04:16:00,SPECI KPHL 150416Z 26006KT 8SM -RA BKN110 OVC140 21/17 A2993 RMK AO2 P0001 T02060167 $
2026-04-15 03:54:00,METAR KPHL 150354Z 26010KT 5SM RA SCT055 BKN090 OVC120 21/17 A2994 RMK AO2 PK WND 26029/0255 SLP139 P0009 T02060167 $
2026-04-15 03:13:00,SPECI KPHL 150313Z 28015G26KT 6SM -RA SCT050 OVC080 21/17 A2996 RMK AO2 PK WND 26029/0255 P0006 T02110172 $
2026-04-15 03:05:00,SPECI KPHL 150305Z 28017G29KT 4SM +RA SCT045 BKN080 OVC130 22/17 A2996 RMK AO2 PK WND 26029/0255 P0003 T02170167 $
2026-04-15 02:58:00,SPECI KPHL 150258Z 27022G29KT 5SM RA BKN050 OVC085 23/16 A2996 RMK AO2 PK WND 26029/0255 PRESRR P0000 T02330156 $
2026-04-15 02:54:00,METAR KPHL 150254Z 26014G22KT 10SM -RA BKN085 OVC110 24/14 A2995 RMK AO2 RAB52 SLP142 P0000 60000 T02440139 53027 $
2026-04-15 01:54:00,METAR KPHL 150154Z 22008KT 10SM BKN120 BKN230 25/13 A2991 RMK AO2 SLP128 T02500128 $
2026-04-15 00:54:00,METAR KPHL 150054Z 23013G24KT 10SM FEW040 SCT080 BKN160 BKN260 27/12 A2989 RMK AO2 SLP120 T02720122 $
2026-04-14 23:54:00,METAR KPHL 142354Z 22010KT 10SM FEW060 FEW090 SCT190 BKN240 28/12 A2987 RMK AO2 SLP115 T02780122 10311 20278 55001 $
2026-04-14 22:54:00,METAR KPHL 142254Z 22012G23KT 10SM FEW065 FEW100 SCT240 29/12 A2986 RMK AO2 SLP112 T02890122 $
2026-04-14 21:54:00,METAR KPHL 142154Z 22014KT 10SM FEW065 FEW100 SCT240 SCT330 30/12 A2987 RMK AO2 PK WND 24026/2138 SLP114 T03000122 $
2026-04-14 20:54:00,METAR KPHL 142054Z 22016G23KT 10SM FEW065 FEW100 SCT240 SCT330 31/12 A2988 RMK AO2 SLP116 T03060122 57026 $
2026-04-14 19:54:00,METAR KPHL 141954Z 23015KT 10SM FEW065 FEW100 SCT240 SCT330 31/13 A2990 RMK AO2 SLP125 T03060128 $
2026-04-14 18:54:00,METAR KPHL 141854Z 22012KT 10SM FEW065 FEW100 SCT240 BKN330 30/13 A2993 RMK AO2 SLP133 T03000128 $
2026-04-14 17:54:00,METAR KPHL 141754Z 25012KT 10SM FEW065 FEW100 SCT240 BKN330 29/12 A2995 RMK AO2 SLP142 T02940122 10300 20178 56022 $
2026-04-14 16:54:00,METAR KPHL 141654Z 21010KT 10SM FEW065 FEW100 BKN240 BKN330 29/12 A2997 RMK AO2 SLP146 T02890117 $
2026-04-14 15:54:00,METAR KPHL 141554Z 25009KT 10SM FEW095 BKN230 BKN330 28/12 A2999 RMK AO2 SLP155 T02830117 $
2026-04-14 14:54:00,METAR KPHL 141454Z 24011KT 10SM FEW095 BKN220 BKN300 27/11 A3002 RMK AO2 SLP164 T02720106 58010 $
2026-04-14 13:54:00,METAR KPHL 141354Z 23008KT 10SM FEW095 BKN200 BKN300 24/13 A3003 RMK AO2 SLP169 T02440128 $
2026-04-14 12:54:00,METAR KPHL 141254Z 25005KT 10SM SCT200 BKN300 21/13 A3004 RMK AO2 SLP171 T02110128 $
2026-04-14 11:54:00,METAR KPHL 141154Z 26008KT 10SM SCT200 BKN280 18/12 A3005 RMK AO2 SLP174 T01780122 10206 20156 53015 $
2026-04-14 10:54:00,METAR KPHL 141054Z 22008KT 10SM FEW110 BKN200 BKN280 18/12 A3003 RMK AO2 SLP169 T01780117 $
2026-04-14 09:54:00,METAR KPHL 140954Z 23007KT 10SM FEW100 BKN200 BKN280 17/11 A3002 RMK AO2 SLP164 T01670111 $
2026-04-14 08:54:00,METAR KPHL 140854Z 24006KT 10SM FEW250 16/11 A3000 RMK AO2 SLP159 T01610111 56005 $
2026-04-14 07:54:00,METAR KPHL 140754Z 24006KT 10SM SCT110 19/11 A3000 RMK AO2 SLP160 T01890111 $
2026-04-14 06:54:00,METAR KPHL 140654Z 22006KT 10SM SCT110 19/11 A3001 RMK AO2 SLP161 T01890111 $
2026-04-14 05:54:00,METAR KPHL 140554Z 19005KT 10SM SCT110 18/12 A3002 RMK AO2 SLP164 T01830117 10250 20183 50001 $
2026-04-14 04:54:00,METAR KPHL 140454Z 17005KT 10SM SCT080 BKN110 18/12 A3003 RMK AO2 SLP169 T01830117 402670100 $
2026-04-14 03:54:00,METAR KPHL 140354Z 25005KT 10SM FEW075 SCT110 19/12 A3002 RMK AO2 SLP166 T01940117 $
2026-04-14 02:54:00,METAR KPHL 140254Z 23012KT 10SM BKN070 BKN100 22/11 A3001 RMK AO2 SLP163 T02220111 51010 $
2026-04-14 01:54:00,METAR KPHL 140154Z 22013KT 10SM FEW080 FEW120 SCT250 23/11 A3001 RMK AO2 SLP161 T02330111 $
2026-04-14 00:54:00,METAR KPHL 140054Z 22010KT 10SM FEW080 FEW120 SCT250 24/11 A3000 RMK AO2 SLP157 T02390111 $
2026-04-13 23:54:00,METAR KPHL 132354Z 22010G18KT 10SM FEW080 FEW160 SCT250 25/11 A2998 RMK AO2 SLP152 T02500111 10267 20239 55004 $
2026-04-13 22:54:00,METAR KPHL 132254Z 23017G25KT 10SM FEW160 FEW250 26/11 A2997 RMK AO2 PK WND 24027/2241 SLP148 T02610111 $
2026-04-13 21:54:00,METAR KPHL 132154Z 22017KT 10SM FEW160 SCT250 27/12 A2998 RMK AO2 PK WND 22026/2112 SLP152 T02670117 $
2026-04-13 20:54:00,METAR KPHL 132054Z 22017G29KT 10SM FEW100 SCT160 BKN230 26/12 A2999 RMK AO2 PK WND 23031/2041 SLP156 T02560122 56016 $
2026-04-13 19:54:00,METAR KPHL 131954Z 23017G24KT 10SM SCT100 BKN160 BKN210 26/13 A3001 RMK AO2 PK WND 22026/1914 SLP161 T02610133 $
2026-04-13 18:54:00,METAR KPHL 131854Z 23013KT 10SM BKN100 OVC180 25/14 A3002 RMK AO2 PK WND 24027/1839 SLP164 T02500139 $
2026-04-13 17:54:00,METAR KPHL 131754Z 23014KT 10SM BKN100 OVC180 24/14 A3004 RMK AO2 PK WND 23027/1711 RAB11E22 SLP172 VCSH P0000 60000 T02390139 10250 20156 56019 $
2026-04-13 16:54:00,METAR KPHL 131654Z 23016G28KT 10SM BKN140 BKN180 BKN300 24/14 A3005 RMK AO2 PK WND 23028/1647 SLP176 VIRGA T02440139 $
2026-04-13 15:54:00,METAR KPHL 131554Z 22014KT 10SM FEW017 BKN120 BKN180 BKN300 23/14 A3008 RMK AO2 SLP184 VIRGA T02330144 $
2026-04-13 14:54:00,METAR KPHL 131454Z 21015G24KT 10SM FEW017 BKN130 BKN180 BKN300 22/14 A3010 RMK AO2 SLP191 T02170144 58023 $
2026-04-13 13:54:00,METAR KPHL 131354Z 22013KT 10SM SCT016 BKN120 BKN200 BKN300 19/14 A3012 RMK AO2 SLP200 T01940144 $
2026-04-13 12:54:00,METAR KPHL 131254Z 21010G21KT 10SM SCT015 BKN065 BKN120 BKN200 BKN300 18/14 A3015 RMK AO2 SLP208 T01780139 $
2026-04-13 11:54:00,METAR KPHL 131154Z 20007KT 10SM FEW018 SCT065 BKN110 BKN200 BKN300 16/13 A3016 RMK AO2 SLP214 T01560128 10156 20100 56006 $
2026-04-13 10:54:00,METAR KPHL 131054Z 20007KT 10SM SCT019 BKN065 BKN110 BKN200 14/12 A3016 RMK AO2 SLP214 SCT V BKN T01440117 $
2026-04-13 10:41:00,SPECI KPHL 131041Z 21004KT 10SM SCT019 BKN065 BKN200 14/12 A3016 RMK AO2 SCT V BKN T01440117 $
2026-04-13 10:11:00,SPECI KPHL 131011Z 20006KT 10SM BKN019 BKN065 14/12 A3016 RMK AO2 T01440117 $
2026-04-13 09:54:00,METAR KPHL 130954Z 19005KT 10SM BKN021 BKN065 13/11 A3016 RMK AO2 SLP213 T01330106 $
2026-04-13 09:38:00,SPECI KPHL 130938Z 17003KT 10SM BKN021 BKN070 12/09 A3016 RMK AO2 T01220094 $
2026-04-13 08:54:00,METAR KPHL 130854Z 00000KT 10SM SCT023 BKN070 11/08 A3018 RMK AO2 SLP220 T01060078 56025 $
2026-04-13 08:49:00,SPECI KPHL 130849Z 00000KT 10SM SCT023 BKN070 11/08 A3018 RMK AO2 $
2026-04-13 08:37:00,SPECI KPHL 130837Z 00000KT 10SM BKN020 OVC055 11/08 A3018 RMK AO2 T01110078 $
2026-04-13 08:04:00,SPECI KPHL 130804Z 00000KT 10SM BKN025 OVC090 11/07 A3020 RMK AO2 T01110072 $
2026-04-13 07:54:00,METAR KPHL 130754Z 00000KT 10SM BKN250 OVC280 11/07 A3020 RMK AO2 SLP225 T01060067 $
2026-04-13 06:54:00,METAR KPHL 130654Z 10003KT 10SM SCT200 BKN280 11/06 A3023 RMK AO2 SLP235 T01060056 $
2026-04-13 05:54:00,METAR KPHL 130554Z 10003KT 10SM BKN280 11/05 A3026 RMK AO2 SLP246 T01060050 10144 20100 58023 $
2026-04-13 04:54:00,METAR KPHL 130454Z 14004KT 10SM BKN280 11/04 A3029 RMK AO2 SLP255 T01060044 401940067 $
2026-04-13 03:54:00,METAR KPHL 130354Z VRB03KT 10SM BKN280 11/04 A3031 RMK AO2 SLP264 T01110044 $
2026-04-13 02:54:00,METAR KPHL 130254Z 15004KT 10SM SCT280 12/02 A3033 RMK AO2 SLP269 T01170022 58005 $
2026-04-13 01:54:00,METAR KPHL 130154Z 17007KT 10SM FEW190 BKN280 12/02 A3034 RMK AO2 SLP273 T01220017 $
2026-04-13 00:54:00,METAR KPHL 130054Z 15006KT 10SM FEW190 SCT300 13/01 A3034 RMK AO2 SLP275 T01330011 $
2026-04-12 23:54:00,METAR KPHL 122354Z 17011G19KT 10SM FEW110 SCT190 SCT330 14/01 A3034 RMK AO2 SLP274 T01440011 10194 20144 55003 $
2026-04-12 22:54:00,METAR KPHL 122254Z 17012KT 10SM FEW055 SCT190 BKN310 17/02 A3034 RMK AO2 SLP273 T01670022 $
2026-04-12 21:54:00,METAR KPHL 122154Z 17009KT 10SM SCT110 SCT190 BKN310 18/02 A3034 RMK AO2 SLP273 T01780022 $
2026-04-12 20:54:00,METAR KPHL 122054Z 18011G19KT 10SM FEW110 SCT190 BKN310 18/02 A3035 RMK AO2 SLP277 T01830022 56030 $
2026-04-12 19:54:00,METAR KPHL 121954Z 18011KT 10SM FEW110 SCT190 BKN350 18/02 A3037 RMK AO2 SLP285 T01830022 $
2026-04-12 18:54:00,METAR KPHL 121854Z 21011G19KT 10SM FEW110 SCT190 BKN280 19/02 A3040 RMK AO2 SLP294 T01890022 $
2026-04-12 17:54:00,METAR KPHL 121754Z 18009KT 10SM FEW200 FEW350 18/02 A3044 RMK AO2 SLP307 T01780017 10183 20089 58027 $
2026-04-12 16:54:00,METAR KPHL 121654Z 16008KT 10SM FEW200 FEW350 17/02 A3047 RMK AO2 SLP317 T01670017 $
2026-04-12 15:54:00,METAR KPHL 121554Z 14010KT 10SM FEW350 15/01 A3049 RMK AO2 SLP325 T01500006 $
2026-04-12 14:54:00,METAR KPHL 121454Z 07007KT 10SM FEW350 14/01 A3052 RMK AO2 SLP334 T01390006 50001 $
2026-04-12 13:54:00,METAR KPHL 121354Z 13007KT 10SM FEW350 12/M01 A3052 RMK AO2 SLP335 T01221006 $
2026-04-12 12:54:00,METAR KPHL 121254Z 10010KT 10SM FEW350 11/M01 A3052 RMK AO2 SLP334 T01061006 $
2026-04-12 11:54:00,METAR KPHL 121154Z 09007KT 10SM FEW350 09/01 A3052 RMK AO2 SLP333 T00890006 10111 20067 51019 $
2026-04-12 10:54:00,METAR KPHL 121054Z 11004KT 10SM FEW030 07/M01 A3050 RMK AO2 SLP329 T00721006 $
2026-04-12 09:54:00,METAR KPHL 120954Z 07005KT 10SM CLR 08/M02 A3048 RMK AO2 SLP322 T00781017 $
2026-04-12 08:54:00,METAR KPHL 120854Z 05006KT 10SM CLR 08/M02 A3046 RMK AO2 SLP314 T00831022 53013 $
2026-04-12 07:54:00,METAR KPHL 120754Z 04006KT 10SM CLR 09/M02 A3045 RMK AO2 SLP309 T00891022 $
2026-04-12 06:54:00,METAR KPHL 120654Z 04008KT 10SM CLR 10/M02 A3043 RMK AO2 SLP303 T01001022 $
2026-04-12 05:54:00,METAR KPHL 120554Z 04007KT 10SM CLR 10/M02 A3042 RMK AO2 SLP301 T01001017 10172 20100 53020 $
2026-04-12 04:54:00,METAR KPHL 120454Z 05009G19KT 10SM CLR 12/M02 A3040 RMK AO2 SLP294 T01221017 401940106 $
2026-04-12 03:54:00,METAR KPHL 120354Z 05006KT 10SM CLR 12/M01 A3038 RMK AO2 SLP288 T01171011 $
2026-04-12 02:54:00,METAR KPHL 120254Z 06003KT 10SM CLR 13/M01 A3036 RMK AO2 SLP281 T01281011 51021 $
2026-04-12 01:54:00,METAR KPHL 120154Z 04006KT 10SM CLR 13/00 A3035 RMK AO2 SLP277 T01330000 $
2026-04-12 00:54:00,METAR KPHL 120054Z 33004KT 10SM CLR 17/M02 A3033 RMK AO2 SLP270 T01671017 $
2026-04-11 23:54:00,METAR KPHL 112354Z 33006KT 10SM CLR 17/M02 A3030 RMK AO2 SLP260 T01721017 10194 20172 53012 $
2026-04-11 22:54:00,METAR KPHL 112254Z 32010KT 10SM CLR 18/M02 A3029 RMK AO2 SLP256 T01831017 $
2026-04-11 21:54:00,METAR KPHL 112154Z 35008G18KT 10SM CLR 19/M01 A3028 RMK SLP252 T01891006
2026-04-11 20:54:00,METAR KPHL 112054Z 36010G23KT 10SM CLR 19/M01 A3027 RMK AO2 SLP249 T01941011 55002 $
2026-04-11 19:54:00,METAR KPHL 111954Z 33012G23KT 10SM CLR 19/M01 A3026 RMK AO2 SLP246 T01891011 $
2026-04-11 18:54:00,METAR KPHL 111854Z 32009G21KT 300V360 10SM CLR 18/02 A3026 RMK AO2 PK WND 28026/1801 SLP245 T01830022 $
2026-04-11 17:54:00,METAR KPHL 111754Z 33010G20KT 300V010 10SM CLR 18/02 A3027 RMK AO2 PK WND 32029/1736 SLP251 FU PLUME E T01780017 10178 20122 58006 $
2026-04-11 16:54:00,METAR KPHL 111654Z 34014KT 10SM FEW050 17/03 A3029 RMK AO2 SLP255 T01670028 $
2026-04-11 15:54:00,METAR KPHL 111554Z 32014G26KT 10SM FEW050 16/02 A3030 RMK AO2 PK WND 34026/1530 SLP259 T01560022 $
2026-04-11 14:54:00,METAR KPHL 111454Z 35014G23KT 10SM FEW042 14/03 A3029 RMK AO2 PK WND 01030/1426 SLP257 T01440028 51019 $
2026-04-11 13:54:00,METAR KPHL 111354Z 36015G25KT 10SM FEW034 13/03 A3029 RMK AO2 PK WND 01034/1305 SLP255 T01280033 $
2026-04-11 12:54:00,METAR KPHL 111254Z 36015G25KT 10SM FEW028 12/04 A3026 RMK AO2 PK WND 35034/1220 SLP248 T01220044 $
2026-04-11 11:54:00,METAR KPHL 111154Z 35016G25KT 10SM FEW028 FEW038 12/06 A3024 RMK AO2 PK WND 35030/1135 SLP238 T01220056 10139 20111 53035 $
2026-04-11 10:54:00,METAR KPHL 111054Z 36012G21KT 10SM FEW028 FEW038 14/08 A3019 RMK AO2 SLP221 T01390083 $
2026-04-11 09:54:00,METAR KPHL 110954Z VRB04KT 10SM FEW038 FEW100 12/08 A3014 RMK AO2 SLP206 T01170083 $
2026-04-11 08:54:00,METAR KPHL 110854Z 22006KT 10SM SCT040 SCT110 12/08 A3013 RMK AO2 SLP202 T01220083 55002 $
2026-04-11 07:54:00,METAR KPHL 110754Z 17003KT 10SM SCT065 12/08 A3011 RMK AO2 SLP197 T01170083 $
2026-04-11 06:54:00,METAR KPHL 110654Z 21003KT 10SM OVC240 13/08 A3012 RMK AO2 SLP198 T01280083 $
2026-04-11 05:54:00,METAR KPHL 110554Z 20003KT 10SM OVC110 13/08 A3014 RMK AO2 SLP204 T01330083 10172 20128 58005 $
2026-04-11 04:54:00,METAR KPHL 110454Z 16009KT 10SM BKN120 13/08 A3014 RMK AO2 PRESFR SLP206 T01330083 402220061 $
2026-04-11 03:54:00,METAR KPHL 110354Z 30007G18KT 10SM OVC120 13/08 A3017 RMK AO2 SLP217 T01330078 $
2026-04-11 02:54:00,METAR KPHL 110254Z 21006KT 10SM OVC120 13/07 A3015 RMK AO2 SLP209 T01330072 50000 $
2026-04-11 01:54:00,METAR KPHL 110154Z 20003KT 10SM BKN210 13/06 A3017 RMK AO2 SLP215 T01330061 $
2026-04-11 00:54:00,METAR KPHL 110054Z 19011KT 10SM SCT250 15/06 A3016 RMK AO2 SLP211 T01500056 $
2026-04-10 23:54:00,METAR KPHL 102354Z 19013G20KT 10SM SCT250 17/07 A3015 RMK AO2 SLP209 T01720067 10222 20172 55005 $
2026-04-10 22:54:00,METAR KPHL 102254Z 20010KT 10SM SCT260 19/07 A3015 RMK AO2 SLP208 T01940067 $
2026-04-10 21:54:00,METAR KPHL 102154Z 19010KT 10SM SCT300 21/07 A3016 RMK AO2 SLP211 T02060072 $
2026-04-10 20:54:00,METAR KPHL 102054Z 21012KT 10SM BKN300 22/06 A3017 RMK AO2 SLP215 T02170061 56037 $
2026-04-10 19:54:00,METAR KPHL 101954Z 19011KT 10SM SCT300 21/06 A3019 RMK AO2 SLP223 T02060061 $
2026-04-10 18:54:00,METAR KPHL 101854Z 21008KT 10SM SCT260 BKN350 19/06 A3023 RMK AO2 SLP236 T01940061 $
2026-04-10 17:54:00,METAR KPHL 101754Z 23010KT 10SM SCT260 BKN350 18/06 A3028 RMK AO2 SLP252 T01780056 10183 20078 58029 $
2026-04-10 16:54:00,METAR KPHL 101654Z 25008KT 10SM FEW260 BKN350 17/07 A3031 RMK AO2 SLP262 T01670067 $
2026-04-10 15:54:00,METAR KPHL 101554Z 26008KT 10SM FEW280 SCT350 14/06 A3034 RMK AO2 SLP272 T01440056 $
2026-04-10 14:54:00,METAR KPHL 101454Z 23007KT 10SM FEW012 SCT270 BKN350 12/05 A3036 RMK AO2 SLP281 T01220050 56018 $
2026-04-10 13:54:00,METAR KPHL 101354Z 25006KT 10SM FEW012 SCT250 BKN350 11/05 A3038 RMK AO2 SLP286 T01060050 $
2026-04-10 13:20:00,SPECI KPHL 101320Z 19005KT 10SM SCT012 BKN260 BKN350 09/05 A3039 RMK AO2 T00890050 $
2026-04-10 12:54:00,METAR KPHL 101254Z 19005KT 10SM BKN011 BKN260 BKN350 08/05 A3040 RMK AO2 SLP293 T00830050 $
2026-04-10 12:20:00,SPECI KPHL 101220Z 25004KT 10SM BKN010 BKN270 08/05 A3040 RMK AO2 T00780050 $
2026-04-10 12:09:00,SPECI KPHL 101209Z 24004KT 10SM BKN009 BKN270 08/05 A3041 RMK AO2 T00780050 $
2026-04-10 11:54:00,METAR KPHL 101154Z 24007KT 10SM BKN010 BKN280 08/04 A3041 RMK AO2 SLP298 T00780044 10078 20061 53004 $
2026-04-10 11:42:00,SPECI KPHL 101142Z 24007KT 10SM BKN010 BKN280 08/05 A3041 RMK AO2 T00780050 $
2026-04-10 10:54:00,METAR KPHL 101054Z 19004KT 10SM OVC009 07/04 A3040 RMK AO2 SLP294 T00720044 $
2026-04-10 10:46:00,SPECI KPHL 101046Z 18005KT 10SM OVC009 07/04 A3040 RMK AO2 T00720044 $
2026-04-10 10:33:00,SPECI KPHL 101033Z 16003KT 9SM OVC009 07/04 A3039 RMK AO2 T00670044 $
2026-04-10 09:54:00,METAR KPHL 100954Z 15004KT 10SM OVC009 07/04 A3039 RMK AO2 SLP292 T00670044 $
2026-04-10 09:38:00,SPECI KPHL 100938Z 16005KT 10SM OVC009 07/04 A3040 RMK AO2 T00670039 $
2026-04-10 09:29:00,SPECI KPHL 100929Z 17004KT 10SM OVC010 07/04 A3039 RMK AO2 T00670039 $
2026-04-10 09:04:00,SPECI KPHL 100904Z 17003KT 6SM HZ BKN010 OVC015 07/04 A3040 RMK AO2 T00670039 $
2026-04-10 08:54:00,METAR KPHL 100854Z 17004KT 6SM HZ BKN006 OVC011 07/04 A3040 RMK AO2 SLP294 T00670039 56015 $
2026-04-10 07:54:00,METAR KPHL 100754Z 17006KT 6SM BR BKN006 OVC011 06/04 A3041 RMK AO2 SLP296 T00610039 $
2026-04-10 06:56:00,SPECI KPHL 100656Z 16006KT 6SM BR OVC006 06/04 A3042 RMK AO2 T00610039 $
2026-04-10 06:54:00,METAR KPHL 100654Z VRB06KT 6SM BR OVC007 06/04 A3042 RMK AO2 SLP302 T00610039 $
2026-04-10 05:54:00,METAR KPHL 100554Z 18007KT 8SM OVC009 06/04 A3044 RMK AO2 SLP309 T00610039 10122 20061 58008 $
2026-04-10 05:29:00,SPECI KPHL 100529Z 21007KT 8SM OVC009 07/04 A3045 RMK AO2 T00670039 $
2026-04-10 04:54:00,METAR KPHL 100454Z 19008G21KT 10SM BKN012 07/04 A3046 RMK AO2 SLP314 T00670039 401610017 $
2026-04-10 04:34:00,SPECI KPHL 100434Z 18006KT 10SM BKN012 07/04 A3046 RMK AO2 T00670039 $
2026-04-10 03:54:00,METAR KPHL 100354Z 20004KT 10SM FEW014 07/03 A3047 RMK AO2 SLP318 T00670033 $
2026-04-10 02:54:00,METAR KPHL 100254Z 15005KT 10SM FEW014 07/03 A3047 RMK AO2 SLP317 T00670033 50008 $
2026-04-10 01:54:00,METAR KPHL 100154Z 14005KT 10SM FEW280 08/03 A3048 RMK AO2 SLP321 T00780028 $
2026-04-10 00:54:00,METAR KPHL 100054Z 16009KT 10SM FEW260 10/03 A3046 RMK AO2 SLP314 T01000028 $
2026-04-09 23:54:00,METAR KPHL 092354Z 16008KT 10SM FEW260 FEW320 12/02 A3045 RMK AO2 SLP309 T01220022 10161 20122 56003 $
2026-04-09 22:54:00,METAR KPHL 092254Z 21010KT 10SM SCT260 SCT320 14/03 A3045 RMK AO2 SLP309 T01440033 $
2026-04-09 21:54:00,METAR KPHL 092154Z 19009KT 10SM FEW200 SCT300 SCT350 16/03 A3045 RMK AO2 SLP310 T01560028 $
2026-04-09 20:54:00,METAR KPHL 092054Z 23009KT 200V270 10SM FEW200 SCT300 SCT350 16/03 A3045 RMK AO2 SLP312 T01610028 56026 $
2026-04-09 19:54:00,METAR KPHL 091954Z 19008KT 10SM FEW200 BKN300 BKN350 16/M01 A3048 RMK AO2 SLP319 T01611011 $
2026-04-09 18:54:00,METAR KPHL 091854Z 19006KT 10SM FEW200 BKN300 BKN350 15/00 A3050 RMK AO2 SLP329 T01500000 $
2026-04-09 17:54:00,METAR KPHL 091754Z 18006KT 10SM FEW200 BKN300 BKN350 13/M01 A3053 RMK AO2 SLP338 T01331006 10133 20039 58025 $
2026-04-09 16:54:00,METAR KPHL 091654Z 17007KT 10SM FEW210 BKN300 BKN350 13/01 A3056 RMK AO2 SLP346 T01280006 $
2026-04-09 15:54:00,METAR KPHL 091554Z 19005KT 10SM FEW022 FEW210 SCT280 BKN350 11/01 A3059 RMK AO2 SLP356 T01060006 $
2026-04-09 14:54:00,METAR KPHL 091454Z 16006KT 10SM FEW022 BKN280 BKN350 09/01 A3060 RMK AO2 SLP363 T00940011 58007
2026-04-09 13:54:00,METAR KPHL 091354Z VRB03KT 10SM SCT020 BKN280 BKN350 08/01 A3061 RMK AO2 SLP366 T00780011
2026-04-09 13:16:00,SPECI KPHL 091316Z 15009KT 10SM SCT019 BKN280 BKN350 07/01 A3062 RMK AO2 T00670011
2026-04-09 12:54:00,METAR KPHL 091254Z 14005KT 10SM BKN018 BKN300 BKN350 06/01 A3062 RMK AO2 SLP369 T00610011
2026-04-09 12:41:00,SPECI KPHL 091241Z 13007KT 10SM BKN015 BKN300 BKN350 06/01 A3063 RMK AO2 BKN015 V SCT T00560011
2026-04-09 11:54:00,METAR KPHL 091154Z 12004KT 10SM SCT015 BKN300 BKN350 04/02 A3062 RMK AO2 SLP370 T00390017 10039 20017 51013
2026-04-09 10:54:00,METAR KPHL 091054Z 12003KT 10SM SCT015 BKN300 02/M01 A3061 RMK AO2 SLP366 T00171006
2026-04-09 09:54:00,METAR KPHL 090954Z 00000KT 10SM FEW015 SCT280 02/00 A3060 RMK AO2 SLP361 T00220000
2026-04-09 08:54:00,METAR KPHL 090854Z 00000KT 10SM FEW013 03/00 A3059 RMK AO2 SLP357 T00280000 56008
2026-04-09 07:54:00,METAR KPHL 090754Z 00000KT 10SM CLR 02/M01 A3059 RMK AO2 SLP359 T00221011
2026-04-09 06:54:00,METAR KPHL 090654Z 00000KT 10SM SCT280 03/M01 A3059 RMK AO2 SLP359 T00281011
2026-04-09 05:54:00,METAR KPHL 090554Z 00000KT 10SM SCT280 03/M01 A3061 RMK AO2 SLP365 T00281011 10089 20028 58004
2026-04-09 04:54:00,METAR KPHL 090454Z 00000KT 10SM SCT280 03/M02 A3062 RMK AO2 SLP370 T00331017 401281006
2026-04-09 03:54:00,METAR KPHL 090354Z 16003KT 10SM FEW280 03/M02 A3063 RMK AO2 SLP371 T00331017
2026-04-09 02:54:00,METAR KPHL 090254Z 14005KT 10SM CLR 04/M02 A3063 RMK AO2 SLP370 T00391022 51019
2026-04-09 01:54:00,METAR KPHL 090154Z 13007KT 10SM SCT260 05/M04 A3062 RMK AO2 SLP369 T00501039
2026-04-09 00:54:00,METAR KPHL 090054Z 14008KT 10SM SCT260 07/M03 A3059 RMK AO2 SLP358 T00671033
2026-04-08 23:54:00,METAR KPHL 082354Z 17008KT 10SM SCT260 09/M01 A3057 RMK AO2 SLP351 T00891011 10128 20089 53004
2026-04-08 22:54:00,METAR KPHL 082254Z 20007KT 10SM FEW260 12/M07 A3055 RMK AO2 SLP345 T01171067
2026-04-08 21:54:00,METAR KPHL 082154Z 00000KT 10SM FEW260 12/M08 A3055 RMK AO2 SLP346 T01171078
2026-04-08 20:54:00,METAR KPHL 082054Z 00000KT 10SM FEW060 FEW260 12/M08 A3056 RMK AO2 SLP347 T01171083 57017
2026-04-08 19:54:00,METAR KPHL 081954Z 14005KT 10SM FEW060 FEW260 12/M07 A3057 RMK AO2 SLP352 T01171067
2026-04-08 18:54:00,METAR KPHL 081854Z VRB05KT 10SM CLR 11/M07 A3059 RMK AO2 SLP358 T01111072
2026-04-08 17:54:00,METAR KPHL 081754Z 00000KT 10SM CLR 09/M09 A3061 RMK AO2 SLP363 T00891089 10089 20011 58016
2026-04-08 16:54:00,METAR KPHL 081654Z 36007KT 10SM FEW030 08/M08 A3062 RMK AO2 SLP369 T00831078
2026-04-08 15:54:00,METAR KPHL 081554Z VRB05KT 10SM FEW030 07/M08 A3064 RMK AO2 SLP376 T00721083
2026-04-08 14:54:00,METAR KPHL 081454Z 06008G16KT 10SM CLR 05/M09 A3065 RMK AO2 SLP379 T00501094 51012
2026-04-08 13:54:00,METAR KPHL 081354Z 05007KT 10SM CLR 03/M09 A3064 RMK AO2 SLP375 T00331094
2026-04-08 12:54:00,METAR KPHL 081254Z 03012KT 10SM FEW300 02/M09 A3063 RMK AO2 SLP372 T00221094
2026-04-08 11:54:00,METAR KPHL 081154Z 05009KT 10SM FEW300 01/M09 A3062 RMK AO2 SLP367 T00111094 10028 21006 53023
2026-04-08 10:54:00,METAR KPHL 081054Z 03014G20KT 10SM CLR 00/M09 A3059 RMK AO2 SLP358 T00001094
2026-04-08 09:54:00,METAR KPHL 080954Z 04008KT 10SM CLR 00/M09 A3057 RMK AO2 SLP350 T00001089
2026-04-08 08:54:00,METAR KPHL 080854Z 03013KT 10SM CLR 01/M09 A3055 RMK AO2 SLP344 T00061089 53008 $
2026-04-08 07:54:00,METAR KPHL 080754Z 01015KT 10SM CLR 01/M09 A3054 RMK AO2 SLP340 T00111089
2026-04-08 06:54:00,METAR KPHL 080654Z 01012KT 10SM CLR 02/M09 A3053 RMK AO2 SLP337 T00171089
2026-04-08 05:54:00,METAR KPHL 080554Z 01011KT 10SM CLR 03/M09 A3052 RMK AO2 SLP336 T00281089 10089 20022 51013
2026-04-08 04:54:00,METAR KPHL 080454Z 01014KT 10SM CLR 03/M09 A3052 RMK AO2 SLP334 T00331094 401330033
2026-04-08 03:54:00,METAR KPHL 080354Z 01012KT 10SM CLR 04/M09 A3051 RMK AO2 SLP330 T00391089
2026-04-08 02:54:00,METAR KPHL 080254Z 36012G24KT 10SM CLR 05/M10 A3049 RMK AO2 PK WND 36028/0215 SLP323 T00501100 51032
2026-04-08 01:54:00,METAR KPHL 080154Z 36011KT 10SM CLR 07/M11 A3046 RMK AO2 SLP313 T00671106
2026-04-08 00:54:00,METAR KPHL 080054Z 33010G21KT 10SM CLR 08/M11 A3043 RMK AO2 SLP302 T00781111
2026-04-07 23:54:00,METAR KPHL 072354Z 32016G26KT 10SM FEW300 09/M12 A3039 RMK AO2 PK WND 33026/2354 SLP291 T00891117 10133 20089 53035
2026-04-07 22:54:00,METAR KPHL 072254Z 30012KT 10SM FEW300 11/M11 A3036 RMK AO2 PK WND 33026/2232 SLP281 T01061106
2026-04-07 21:54:00,METAR KPHL 072154Z 33015G24KT 10SM SCT300 11/M11 A3032 RMK AO2 PK WND 33036/2124 SLP266 T01111111
2026-04-07 20:54:00,METAR KPHL 072054Z 32015G26KT 10SM SCT300 12/M12 A3029 RMK AO2 PK WND 34033/2006 SLP256 T01171117 53015
2026-04-07 19:54:00,METAR KPHL 071954Z 32023G29KT 10SM FEW070 SCT300 13/M10 A3026 RMK AO2 PK WND 29031/1935 SLP246 T01331100
2026-04-07 18:54:00,METAR KPHL 071854Z 31023G34KT 10SM FEW065 SCT300 13/M11 A3026 RMK AO2 PK WND 33034/1854 SLP245 T01281111
2026-04-07 17:54:00,METAR KPHL 071754Z 29017G27KT 10SM FEW065 SCT300 13/M07 A3025 RMK AO2 PK WND 27030/1702 SLP242 T01331072 10133 20100 51008
2026-04-07 16:54:00,METAR KPHL 071654Z 27020G31KT 10SM SCT065 SCT300 13/M07 A3024 RMK AO2 PK WND 31031/1647 SLP240 T01281067
2026-04-07 15:54:00,METAR KPHL 071554Z 28020G28KT 10SM SCT065 BKN300 12/M05 A3023 RMK AO2 PK WND 28029/1544 SLP238 T01221050
2026-04-07 14:54:00,METAR KPHL 071454Z 28019G29KT 10SM SCT060 BKN300 11/M04 A3022 RMK AO2 PK WND 26030/1420 SLP233 T01111039 53017
2026-04-07 13:54:00,METAR KPHL 071354Z 27020G30KT 10SM SCT060 SCT300 11/M03 A3020 RMK AO2 PK WND 26030/1335 SLP226 T01111033
2026-04-07 12:54:00,METAR KPHL 071254Z 30018G25KT 10SM FEW050 FEW075 SCT300 11/M02 A3018 RMK AO2 PK WND 31028/1231 SLP220 T01061022
2026-04-07 11:54:00,METAR KPHL 071154Z 29010G16KT 10SM SCT065 SCT085 SCT300 10/01 A3017 RMK AO2 SLP216 60000 T01000006 10128 20094 53023
2026-04-07 10:54:00,METAR KPHL 071054Z VRB06KT 10SM BKN065 BKN085 BKN280 10/01 A3014 RMK AO2 RAB0959E14 SLP207 P0000 T01000011 $
2026-04-07 09:54:00,METAR KPHL 070954Z 29008KT 10SM BKN060 OVC085 11/01 A3012 RMK AO2 SLP199 T01060006 $
2026-04-07 08:54:00,METAR KPHL 070854Z 29004KT 10SM BKN060 BKN075 OVC100 11/00 A3010 RMK AO2 SLP193 T01060000 53002 $
2026-04-07 07:54:00,METAR KPHL 070754Z 27006KT 10SM SCT060 OVC080 12/01 A3009 RMK AO2 SLP187 T01170006 $
2026-04-07 06:54:00,METAR KPHL 070654Z 30005KT 10SM BKN055 BKN075 OVC090 12/01 A3009 RMK AO2 SLP189 T01170006 $
2026-04-07 05:54:00,METAR KPHL 070554Z 22011KT 10SM SCT055 BKN075 OVC090 12/02 A3010 RMK AO2 RAE54 SLP191 P0000 60000 T01220017 10139 20117 50000 $
2026-04-07 04:54:00,METAR KPHL 070454Z 22011KT 10SM -RA BKN065 OVC080 13/02 A3011 RMK AO2 RAB44 SLP196 P0000 T01280022 401500061 $
2026-04-07 03:54:00,METAR KPHL 070354Z VRB06KT 10SM BKN075 OVC090 12/01 A3009 RMK AO2 SLP190 T01220006 $
2026-04-07 02:54:00,METAR KPHL 070254Z 18005KT 10SM BKN080 BKN100 12/01 A3010 RMK AO2 SLP191 T01220006 50010 $
2026-04-07 01:54:00,METAR KPHL 070154Z 15003KT 10SM BKN085 OVC100 12/M01 A3010 RMK AO2 SLP191 T01221011 $
2026-04-07 00:54:00,METAR KPHL 070054Z 34006KT 10SM SCT090 BKN110 13/M02 A3009 RMK AO2 SLP187 VIRGA T01281017 $
2026-04-06 23:54:00,METAR KPHL 062354Z 29007KT 10SM SCT070 BKN100 13/M03 A3007 RMK AO2 SLP180 VIRGA T01331028 10150 20133 51012 $
2026-04-06 22:54:00,METAR KPHL 062254Z 26010KT 10SM SCT075 SCT095 13/M02 A3006 RMK AO2 SLP178 T01331022 $
2026-04-06 21:54:00,METAR KPHL 062154Z 29013G27KT 10SM SCT080 BKN095 14/M03 A3004 RMK AO2 PK WND 31027/2153 SLP173 T01391028 $
2026-04-06 20:54:00,METAR KPHL 062054Z 29015KT 10SM SCT075 BKN095 14/M03 A3003 RMK AO2 PK WND 29027/2040 SLP168 T01441028 56014 $
2026-04-06 19:54:00,METAR KPHL 061954Z 27014G23KT 10SM SCT070 SCT100 14/M03 A3003 RMK AO2 SLP169 T01441033 $
2026-04-06 18:54:00,METAR KPHL 061854Z 30015G23KT 10SM FEW070 14/M04 A3006 RMK AO2 PK WND 32027/1829 SLP177 T01441039 $
2026-04-06 18:21:00,SPECI KPHL 061821Z 32012G26KT 10SM FEW060 FEW080 14/M04 A3007 RMK AO2 PK WND 26026/1812 T01391044 $
2026-04-06 17:54:00,METAR KPHL 061754Z COR 10SM FEW060 FEW080 27008G15 13/M04 A3007 RMK AO2 SLP182 T01331044 10139 20072 58013 $
2026-04-06 16:54:00,METAR KPHL 061654Z 27008G17KT 10SM FEW050 SCT080 12/M04 A3009 RMK AO2 SLP188 T01221044 $
2026-04-06 15:54:00,METAR KPHL 061554Z 32015G21KT 10SM FEW050 FEW220 12/M04 A3010 RMK AO2 SLP193 T01171039 $
2026-04-06 14:54:00,METAR KPHL 061454Z 33016G21KT 10SM FEW050 FEW200 FEW300 11/M04 A3011 RMK AO2 SLP194 T01061039 53006 $
2026-04-06 13:54:00,METAR KPHL 061354Z 32014G22KT 10SM FEW055 FEW200 FEW300 09/M04 A3010 RMK AO2 PK WND 34028/1307 SLP192 T00941039 $
2026-04-06 12:54:00,METAR KPHL 061254Z 31017G27KT 10SM FEW055 FEW200 FEW300 08/M04 A3009 RMK AO2 PK WND 30027/1250 SLP188 T00831044 $
2026-04-06 11:54:00,METAR KPHL 061154Z 30012G17KT 10SM FEW055 FEW200 07/M04 A3009 RMK AO2 SLP188 70041 T00721039 10106 20061 53018 $
2026-04-06 10:54:00,METAR KPHL 061054Z 31008KT 10SM FEW050 FEW200 07/M04 A3007 RMK AO2 SLP182 T00671039 $
2026-04-06 09:54:00,METAR KPHL 060954Z 31009KT 10SM FEW050 07/M04 A3005 RMK AO2 PK WND 32026/0903 SLP174 T00671039 $
2026-04-06 08:54:00,METAR KPHL 060854Z 31018G26KT 10SM FEW050 07/M04 A3003 RMK AO2 PK WND 31031/0805 SLP170 T00721044 53013 $
2026-04-06 07:54:00,METAR KPHL 060754Z 31016G29KT 10SM FEW070 09/M03 A3002 RMK AO2 PK WND 30029/0744 SLP165 T00891033 $
2026-04-06 06:54:00,METAR KPHL 060654Z 32013G19KT 10SM BKN060 BKN075 10/M02 A3000 RMK AO2 SLP158 T01001017 $
2026-04-06 05:54:00,METAR KPHL 060554Z 29013G27KT 10SM BKN055 11/M02 A3000 RMK AO2 PK WND 29027/0549 SLP157 T01061017 10133 20106 53005 $
2026-04-06 04:54:00,METAR KPHL 060454Z 31015G24KT 10SM OVC055 11/M01 A2999 RMK AO2 PK WND 29031/0412 SLP156 T01111011 402280089 $
2026-04-06 03:54:00,METAR KPHL 060354Z 28011G20KT 10SM OVC055 12/00 A2999 RMK AO2 SLP153 T01170000 $
2026-04-06 02:54:00,METAR KPHL 060254Z 31013G26KT 10SM SCT060 SCT180 BKN260 11/00 A2998 RMK AO2 PK WND 32026/0249 SLP152 T01110000 51023 $
2026-04-06 01:54:00,METAR KPHL 060154Z 30010KT 10SM FEW075 SCT200 BKN300 12/02 A2997 RMK AO2 SLP148 T01220017 $
2026-04-06 00:54:00,METAR KPHL 060054Z 29012G17KT 10SM FEW025 SCT055 BKN260 BKN330 13/03 A2994 RMK AO2 SLP139 T01330033 $
2026-04-05 23:54:00,METAR KPHL 052354Z 29007KT 10SM FEW025 BKN055 BKN240 BKN320 13/04 A2991 RMK AO2 SLP129 60022 T01330039 10167 20133 52031 $
2026-04-05 22:54:00,METAR KPHL 052254Z 28015G21KT 10SM FEW016 SCT025 BKN047 BKN240 BKN300 14/06 A2988 RMK AO2 SLP118 T01440056 $
2026-04-05 22:09:00,SPECI KPHL 052209Z 29012G22KT 10SM SCT016 SCT026 BKN045 BKN210 BKN300 15/09 A2986 RMK AO2 T01500089 $
2026-04-05 21:54:00,METAR KPHL 052154Z 29010KT 10SM SCT016 BKN027 BKN045 BKN210 15/09 A2985 RMK AO2 SLP108 T01500094 $
2026-04-05 20:54:00,METAR KPHL 052054Z 29008KT 10SM FEW013 BKN029 OVC045 16/12 A2982 RMK AO2 RAE14 SLP098 P0001 60022 T01560117 55003 $
2026-04-05 20:37:00,SPECI KPHL 052037Z 27011KT 10SM SCT011 BKN028 OVC075 16/12 A2982 RMK AO2 RAE14 P0001 T01560122 $
2026-04-05 20:14:00,SPECI KPHL 052014Z 30009G15KT 10SM BKN011 BKN025 BKN075 16/13 A2981 RMK AO2 RAE14 VCSH P0001 T01610133 $
2026-04-05 19:54:00,METAR KPHL 051954Z 25010KT 9SM -RA BKN012 BKN025 BKN075 16/13 A2981 RMK AO2 SLP092 P0011 T01560133 $
2026-04-05 19:42:00,SPECI KPHL 051942Z 24007KT 9SM -RA BKN010 BKN017 OVC025 16/14 A2979 RMK AO2 PRESFR P0009 T01610139 $
2026-04-05 19:08:00,SPECI KPHL 051908Z 29006KT 7SM RA BKN007 OVC016 16/13 A2981 RMK AO2 P0004 T01610133 $
2026-04-05 18:54:00,METAR KPHL 051854Z 30009KT 5SM RA BR BKN007 OVC017 16/14 A2982 RMK AO2 SLP099 CIG 015V020 P0010 T01610139 $
2026-04-05 18:26:00,SPECI KPHL 051826Z 24006KT 6SM RA BR BKN007 OVC019 17/15 A2983 RMK AO2 P0004 T01670150 $
2026-04-05 18:17:00,SPECI KPHL 051817Z 25006KT 7SM RA BKN009 BKN019 OVC080 17/15 A2983 RMK AO2 P0002 T01670150 $
2026-04-05 18:04:00,SPECI KPHL 051804Z 23008KT 8SM -RA FEW012 BKN019 OVC080 17/15 A2983 RMK AO2 P0001 T01670150 $
2026-04-05 17:54:00,METAR KPHL 051754Z 23008KT 9SM -RA SCT020 BKN040 OVC075 17/15 A2983 RMK AO2 SLP101 P0008 60019 T01670150 10228 20111 50011 $
2026-04-05 17:39:00,SPECI KPHL 051739Z 23009KT 7SM RA SCT035 OVC070 17/14 A2984 RMK AO2 P0006 T01670144 $
2026-04-05 16:54:00,METAR KPHL 051654Z 22013G23KT 6SM -RA BR OVC060 17/14 A2984 RMK AO2 SLP105 P0003 T01720144 $
2026-04-05 16:44:00,SPECI KPHL 051644Z 22010KT 4SM -RA BR OVC060 17/14 A2985 RMK AO2 P0002 T01720144 $
2026-04-05 16:38:00,SPECI KPHL 051638Z 22010KT 6SM -RA BR BKN055 OVC070 17/14 A2985 RMK AO2 P0002 T01720144 $
2026-04-05 15:54:00,METAR KPHL 051554Z 33010KT 10SM -RA SCT031 BKN042 OVC049 17/13 A2984 RMK AO2 PK WND 27045/1536 WSHFT 1526 RAB34 SLP105 P0008 T01670133 $
2026-04-05 15:48:00,SPECI KPHL 051548Z 31011G29KT 2SM RA BR BKN031 OVC042 17/13 A2985 RMK AO2 PK WND 27045/1536 WSHFT 1526 RAB34 P0002 $
2026-04-05 15:45:00,SPECI KPHL 051545Z 31014G45KT 3SM RA BR BKN031 OVC038 18/13 A2986 RMK AO2 PK WND 27045/1536 WSHFT 1526 RAB34 PRESRR P0000 T01780133 $
2026-04-05 15:43:00,SPECI KPHL 051543Z 32017G45KT 5SM -RA BR BKN031 OVC038 18/13 A2986 RMK AO2 PK WND 27045/1536 WSHFT 1526 RAB34 PRESRR P0000 T01780133 $
2026-04-05 15:41:00,SPECI KPHL 051541Z 31020G45KT 10SM -RA BKN031 OVC038 18/13 A2985 RMK AO2 PK WND 27045/1536 WSHFT 1526 RAB34 P0000 T01830133 $
2026-04-05 15:11:00,SPECI KPHL 051511Z 22017G26KT 10SM BKN032 BKN080 BKN120 OVC180 23/16 A2981 RMK AO2 PK WND 21026/1509 T02280156 $
2026-04-05 14:54:00,METAR KPHL 051454Z 22015G25KT 10SM BKN027 BKN120 BKN180 23/16 A2980 RMK AO2 PK WND 22026/1440 SLP090 T02280156 56024 $
2026-04-05 14:42:00,SPECI KPHL 051442Z 22016G26KT 10SM BKN027 BKN120 BKN180 23/16 A2981 RMK AO2 PK WND 22026/1440 T02280156 $
2026-04-05 12:54:00,METAR KPHL 051254Z 11003KT 6SM HZ BKN110 14/11 A2984 RMK AO2 SLP106 T01390111 $
2026-04-05 12:21:00,SPECI KPHL 051221Z 09003KT 5SM BR SCT003 BKN120 12/10 A2987 RMK AO2 T01220100 $
2026-04-05 12:00:00,SPECI KPHL 051200Z 08004KT 3SM BR SCT003 BKN110 12/09 A2987 RMK AO2 T01170094 $
2026-04-05 11:54:00,METAR KPHL 051154Z 08005KT 1 1/2SM BR BKN003 BKN110 12/09 A2987 RMK AO2 SLP114 60000 T01170094 10117 20089 56021 $
2026-04-05 10:54:00,METAR KPHL 051054Z 05005KT 1SM BR OVC003 10/09 A2989 RMK AO2 DZE0957 SLP122 P0000 T01000089 RVRNO $
2026-04-05 10:39:00,SPECI KPHL 051039Z 05004KT 3/4SM BR OVC003 10/09 A2990 RMK AO2 DZE0957 P0000 T01000089 RVRNO $
2026-04-05 10:30:00,SPECI KPHL 051030Z 06003KT 1SM BR OVC003 10/09 A2990 RMK AO2 DZE0957 P0000 T01000089 RVRNO $
2026-04-05 10:14:00,SPECI KPHL 051014Z VRB03KT 2SM BR OVC003 10/09 A2990 RMK AO2 DZE0957 P0000 T01000089 $
2026-04-05 09:54:00,METAR KPHL 050954Z 06003KT 1SM -DZ BR OVC003 09/09 A2990 RMK AO2 DZB25 SLP126 P0000 T00940089 RVRNO $
2026-04-05 09:49:00,SPECI KPHL 050949Z 05005KT 1SM -DZ BR OVC003 09/09 A2991 RMK AO2 DZB25 P0000 RVRNO $
2026-04-05 08:54:00,METAR KPHL 050854Z 09005KT 1/2SM FG OVC003 09/09 A2993 RMK AO2 SLP134 T00940089 56036 RVRNO $
2026-04-05 08:26:00,SPECI KPHL 050826Z 06006KT 3/4SM BR OVC003 09/09 A2994 RMK AO2 T00940089 RVRNO $
2026-04-05 08:10:00,SPECI KPHL 050810Z 07006KT 1 1/2SM BR OVC003 09/08 A2995 RMK AO2 T00940083 $
2026-04-05 07:54:00,METAR KPHL 050754Z 07007KT 1 3/4SM BR OVC003 09/08 A2996 RMK AO2 SFC VIS 3 SLP146 T00940083 $
2026-04-05 07:49:00,SPECI KPHL 050749Z 07008KT 1 3/4SM BR OVC003 09/08 A2996 RMK AO2 SFC VIS 3 $
2026-04-05 07:22:00,SPECI KPHL 050722Z 06008KT 4SM BR OVC003 09/08 A2998 RMK AO2 T00940083 $
2026-04-05 06:54:00,METAR KPHL 050654Z 07009KT 5SM BR OVC003 09/08 A3000 RMK AO2 SLP157 T00940083 $
2026-04-05 05:54:00,METAR KPHL 050554Z 07010KT 5SM BR OVC003 09/08 A3004 RMK AO2 SLP171 T00890083 10133 20089 58033 $
2026-04-05 05:41:00,SPECI KPHL 050541Z 06009KT 5SM BR OVC003 09/08 A3005 RMK AO2 T00890083 $
2026-04-05 04:54:00,METAR KPHL 050454Z 08013KT 4SM BR OVC003 09/08 A3008 RMK AO2 SLP187 T00890078 402890089 $
2026-04-05 04:49:00,SPECI KPHL 050449Z 07010G18KT 4SM BR OVC003 09/08 A3008 RMK AO2 $
2026-04-05 04:33:00,SPECI KPHL 050433Z 07014KT 5SM BR OVC003 09/08 A3009 RMK AO2 T00890078 $
2026-04-05 03:54:00,METAR KPHL 050354Z 07009G18KT 5SM BR OVC005 09/08 A3012 RMK AO2 SLP197 T00890078 $
2026-04-05 03:08:00,SPECI KPHL 050308Z 07014G20KT 6SM BR OVC005 09/08 A3013 RMK AO2 T00940078 $
2026-04-05 02:54:00,METAR KPHL 050254Z 07013KT 7SM OVC005 09/08 A3013 RMK AO2 SLP204 T00940078 50001 $
2026-04-05 02:11:00,SPECI KPHL 050211Z 08018G25KT 8SM OVC006 09/08 A3014 RMK AO2 T00940078 $
2026-04-05 01:54:00,METAR KPHL 050154Z 08015G22KT 8SM OVC007 10/08 A3015 RMK AO2 SLP208 T01000083 $
2026-04-05 01:16:00,SPECI KPHL 050116Z 08014KT 10SM BKN007 OVC015 11/08 A3015 RMK AO2 T01060083 $
2026-04-05 00:54:00,METAR KPHL 050054Z 08016G22KT 10SM SCT010 BKN017 11/09 A3015 RMK AO2 SLP209 T01110089 $
2026-04-04 23:54:00,METAR KPHL 042354Z 09015G23KT 10SM BKN015 13/09 A3013 RMK AO2 PK WND 09027/2327 SLP203 T01330094 10283 20133 53010 $
2026-04-04 23:20:00,SPECI KPHL 042320Z 10018G25KT 10SM BKN018 BKN250 15/11 A3013 RMK AO2 T01500106 $
2026-04-04 22:54:00,METAR KPHL 042254Z 09015G24KT 10SM SCT019 SCT260 17/11 A3012 RMK AO2 PK WND 09027/2244 SLP197 T01670111 $
2026-04-04 21:54:00,METAR KPHL 042154Z 10017G25KT 10SM FEW049 SCT260 21/12 A3011 RMK AO2 PK WND 10029/2055 SLP195 T02060122 $
2026-04-04 20:54:00,METAR KPHL 042054Z 09018G27KT 10SM BKN049 BKN060 BKN075 OVC250 22/14 A3010 RMK AO2 PK WND 09029/2026 SLP193 T02170144 55004 $
2026-04-04 19:54:00,METAR KPHL 041954Z 12010G19KT 10SM SCT060 BKN090 BKN260 27/17 A3008 RMK AO2 SLP186 T02720172 $
2026-04-04 18:54:00,METAR KPHL 041854Z 18004KT 10SM FEW050 BKN085 BKN110 BKN300 28/16 A3010 RMK AO2 SLP191 T02780156 $
2026-04-04 17:54:00,METAR KPHL 041754Z 12007KT 10SM FEW055 BKN095 BKN300 28/17 A3012 RMK AO2 SLP197 T02830167 10289 20167 58017 $
2026-04-04 16:54:00,METAR KPHL 041654Z 07007KT 10SM FEW055 BKN090 BKN300 28/16 A3014 RMK AO2 SLP204 T02780161 $
2026-04-04 15:54:00,METAR KPHL 041554Z 08005KT 10SM FEW055 SCT120 SCT280 26/16 A3015 RMK AO2 SLP209 T02560161 $
2026-04-04 14:54:00,METAR KPHL 041454Z 09004KT 10SM FEW060 SCT120 BKN270 BKN350 24/16 A3017 RMK AO2 SLP214 T02390156 50001 $
2026-04-04 13:54:00,METAR KPHL 041354Z 00000KT 10SM FEW060 SCT130 SCT270 BKN350 22/15 A3017 RMK AO2 SLP216 T02170150 $
2026-04-04 12:54:00,METAR KPHL 041254Z 17004KT 10SM FEW100 SCT140 SCT270 BKN350 19/14 A3016 RMK AO2 SLP214 T01890144 $
2026-04-04 11:54:00,METAR KPHL 041154Z 26003KT 10SM FEW100 FEW150 BKN270 BKN350 17/14 A3016 RMK AO2 SLP214 T01720139 10178 20139 53013 $
2026-04-04 10:54:00,METAR KPHL 041054Z 00000KT 10SM FEW100 SCT150 BKN280 16/13 A3015 RMK AO2 SLP208 T01610133 $
2026-04-04 09:54:00,METAR KPHL 040954Z 00000KT 10SM SCT120 SCT270 16/14 A3013 RMK AO2 SLP203 T01610139 $
2026-04-04 08:54:00,METAR KPHL 040854Z 22009KT 10SM FEW150 SCT270 17/14 A3012 RMK AO2 SLP200 T01720139 56002 $
2026-04-04 07:54:00,METAR KPHL 040754Z 23005KT 10SM FEW120 SCT270 15/13 A3013 RMK AO2 SLP201 T01500133 $
2026-04-04 06:54:00,METAR KPHL 040654Z 27004KT 10SM SCT120 SCT270 17/14 A3012 RMK AO2 SLP200 T01670139 $
2026-04-04 05:54:00,METAR KPHL 040554Z 24003KT 10SM SCT140 BKN270 16/14 A3013 RMK AO2 SLP202 T01560139 10217 20156 55001 $
2026-04-04 04:54:00,METAR KPHL 040454Z 25004KT 10SM SCT140 SCT250 16/14 A3013 RMK AO2 SLP202 T01610139 402170067 $
2026-04-04 03:54:00,METAR KPHL 040354Z 19006KT 10SM SCT130 BKN250 17/14 A3013 RMK AO2 SLP201 T01720139 $
2026-04-04 02:54:00,METAR KPHL 040254Z 20005KT 10SM SCT130 BKN250 19/14 A3013 RMK AO2 SLP203 T01890144 50002 $
2026-04-04 01:54:00,METAR KPHL 040154Z 00000KT 10SM SCT120 BKN250 16/14 A3014 RMK AO2 SLP205 T01610144 $
2026-04-04 00:54:00,METAR KPHL 040054Z 00000KT 10SM SCT110 BKN260 17/15 A3013 RMK AO2 SLP203 T01720150 $
2026-04-03 23:54:00,METAR KPHL 032354Z VRB03KT 10SM SCT110 SCT180 BKN260 21/16 A3013 RMK AO2 SLP201 T02110156 10217 20133 56014 $
2026-04-03 22:54:00,METAR KPHL 032254Z 22005KT 10SM SCT170 BKN260 22/16 A3013 RMK AO2 SLP204 T02170156 $
2026-04-03 21:54:00,METAR KPHL 032154Z 18004KT 10SM SCT180 BKN260 21/14 A3014 RMK AO2 SLP207 T02060144 $
2026-04-03 20:54:00,METAR KPHL 032054Z 24007KT 10SM FEW180 BKN260 20/14 A3017 RMK AO2 SLP215 T02000139 56026 $
2026-04-03 19:54:00,METAR KPHL 031954Z 24007KT 8SM SCT012 BKN250 17/13 A3019 RMK AO2 SLP223 T01720133 $
2026-04-03 19:50:00,SPECI KPHL 031950Z 24007KT 7SM BKN012 17/13 A3019 RMK AO2 $
2026-04-03 18:54:00,METAR KPHL 031854Z 24007KT 7SM OVC009 15/12 A3022 RMK AO2 SLP232 T01500117 $
2026-04-03 17:54:00,METAR KPHL 031754Z 26006KT 8SM OVC007 14/11 A3025 RMK AO2 SLP241 60000 T01390111 10139 20072 58020 $
2026-04-03 16:54:00,METAR KPHL 031654Z 26006KT 8SM OVC007 13/11 A3026 RMK AO2 SLP247 T01280106 $
2026-04-03 16:23:00,SPECI KPHL 031623Z 25006KT 7SM OVC007 12/10 A3028 RMK AO2 T01220100 $
2026-04-03 16:06:00,SPECI KPHL 031606Z 25006KT 7SM OVC005 12/10 A3028 RMK AO2 T01170100 $
2026-04-03 15:54:00,METAR KPHL 031554Z VRB05KT 6SM BR OVC004 12/10 A3029 RMK AO2 SLP257 T01170100 $
2026-04-03 15:30:00,SPECI KPHL 031530Z VRB03KT 5SM BR OVC004 11/09 A3030 RMK AO2 T01060094 $
2026-04-03 14:54:00,METAR KPHL 031454Z 19003KT 3SM BR OVC003 10/09 A3030 RMK AO2 SLP261 60000 T01000089 56013 $
2026-04-03 14:41:00,SPECI KPHL 031441Z 00000KT 3SM BR OVC003 09/08 A3031 RMK AO2 T00940083 $
2026-04-03 13:54:00,METAR KPHL 031354Z 00000KT 2 1/2SM BR OVC003 08/07 A3032 RMK AO2 SLP266 T00830072 $
2026-04-03 13:26:00,SPECI KPHL 031326Z 00000KT 2SM BR OVC003 08/07 A3032 RMK AO2 T00830072 $
2026-04-03 12:54:00,METAR KPHL 031254Z 10004KT 1 3/4SM BR OVC003 08/07 A3032 RMK AO2 DZE51 SLP266 P0000 T00780067
2026-04-03 11:54:00,METAR KPHL 031154Z 03004KT 1 3/4SM -DZ BR OVC004 07/06 A3034 RMK AO2 SLP274 CIG 003V005 P0000 60000 T00720061 10072 20067 55001 $
2026-04-03 11:26:00,SPECI KPHL 031126Z 05003KT 1 1/2SM -DZ BR OVC004 07/06 A3033 RMK AO2 CIG 003V005 P0000 T00720061 $
2026-04-03 11:09:00,SPECI KPHL 031109Z 07004KT 2 1/2SM -DZ BR OVC004 07/06 A3033 RMK AO2 CIG 003V005 P0000 T00720061 $
2026-04-03 08:54:00,METAR KPHL 030854Z 05005KT 3/4SM -DZ BR OVC004 07/06 A3034 RMK AO2 SLP275 P0000 60000 T00670061 56018 RVRNO $
2026-04-03 05:54:00,METAR KPHL 030554Z 08009KT 1 1/4SM -DZ BR OVC006 07/06 A3040 RMK AO2 SLP292 P0000 60000 T00670056 10067 20061 58006 $
2026-04-03 05:10:00,SPECI KPHL 030510Z 08009KT 1 1/2SM -DZ BR OVC006 07/06 A3041 RMK AO2 P0000 T00670056 $
2026-04-03 04:54:00,METAR KPHL 030454Z 09008G18KT 2SM -DZ BR BKN006 OVC012 07/05 A3040 RMK AO2 SLP295 P0000 T00670050 401440061 $
2026-04-03 04:34:00,SPECI KPHL 030434Z 07009KT 2SM -DZ BR OVC005 07/06 A3040 RMK AO2 P0000 T00670056 $
2026-04-03 03:54:00,METAR KPHL 030354Z 07010KT 2SM -DZ BR OVC007 07/05 A3041 RMK AO2 SLP296 P0000 T00670050 $
2026-04-03 03:18:00,SPECI KPHL 030318Z 08009KT 2 1/2SM -DZ BR OVC009 07/05 A3042 RMK AO2 P0000 T00670050 $
2026-04-03 03:04:00,SPECI KPHL 030304Z 08013KT 2SM -DZ BR SCT006 OVC011 07/05 A3041 RMK AO2 P0000 T00670050 $
2026-04-03 02:54:00,METAR KPHL 030254Z 08011G20KT 1 3/4SM -DZ BR BKN006 OVC011 07/05 A3041 RMK AO2 SLP298 P0000 60000 T00670050 50004 $
2026-04-03 02:09:00,SPECI KPHL 030209Z 09010KT 1 3/4SM -DZ BR BKN006 OVC011 07/05 A3041 RMK AO2 P0000 T00670050 $
2026-04-03 02:03:00,SPECI KPHL 030203Z 08009KT 2SM -DZ BR OVC007 07/05 A3042 RMK AO2 P0000 T00670050 $
2026-04-03 01:54:00,METAR KPHL 030154Z 08011KT 4SM -DZ BR OVC007 07/05 A3042 RMK AO2 DZB0056 SLP302 P0000 T00670050 $
2026-04-03 00:54:00,METAR KPHL 030054Z 06009KT 4SM BR OVC007 07/05 A3042 RMK AO2 SLP299 T00670050 $
2026-04-03 00:49:00,SPECI KPHL 030049Z 07011G19KT 4SM BR OVC007 07/05 A3042 RMK AO2 $
2026-04-02 23:54:00,METAR KPHL 022354Z 08014G23KT 6SM BR BKN009 OVC013 07/05 A3040 RMK AO2 PK WND 08026/2335 SLP294 T00670050 10089 20067 58001 $
2026-04-02 22:54:00,METAR KPHL 022254Z 08014KT 5SM BR BKN009 OVC013 07/05 A3041 RMK AO2 SLP299 T00720050 $
2026-04-02 21:54:00,METAR KPHL 022154Z 08014G21KT 5SM BR OVC011 08/06 A3041 RMK AO2 SLP295 T00780056 $
2026-04-02 21:26:00,SPECI KPHL 022126Z 08013KT 5SM BR OVC011 08/06 A3041 RMK AO2 T00780056 $
2026-04-02 20:54:00,METAR KPHL 022054Z 08013KT 9SM OVC012 08/06 A3040 RMK AO2 SLP295 T00780056 55006 $
2026-04-02 19:54:00,METAR KPHL 021954Z 08015KT 10SM OVC012 08/06 A3040 RMK AO2 SLP294 T00830056 $
2026-04-02 18:54:00,METAR KPHL 021854Z 08015G22KT 10SM OVC012 09/06 A3041 RMK AO2 SLP296 T00890061 $
2026-04-02 17:54:00,METAR KPHL 021754Z 06011KT 8SM OVC010 08/06 A3042 RMK AO2 SLP301 60000 T00830056 10089 20078 53006 $
2026-04-02 17:40:00,SPECI KPHL 021740Z 07012KT 10SM OVC010 08/06 A3042 RMK AO2 T00830061 $
2026-04-02 16:54:00,METAR KPHL 021654Z 08015G20KT 9SM OVC009 08/06 A3042 RMK AO2 SLP299 T00830061 $
2026-04-02 16:28:00,SPECI KPHL 021628Z 07011KT 9SM OVC009 08/06 A3041 RMK AO2 T00830061 $
2026-04-02 15:54:00,METAR KPHL 021554Z 05011KT 10SM OVC010 08/06 A3041 RMK AO2 SLP295 T00830061 $
2026-04-02 15:09:00,SPECI KPHL 021509Z 07013KT 10SM OVC010 08/06 A3040 RMK AO2 T00830061 $
2026-04-02 14:54:00,METAR KPHL 021454Z 07013G23KT 9SM OVC009 08/06 A3041 RMK AO2 SLP295 60000 T00830061 53019 $
2026-04-02 13:54:00,METAR KPHL 021354Z 08013G19KT 9SM OVC008 08/06 A3038 RMK AO2 SLP288 CIG 007V009 T00830061 $
2026-04-02 13:01:00,SPECI KPHL 021301Z 07015KT 7SM OVC009 08/07 A3037 RMK AO2 CIG 007V011 T00830067 $
2026-04-02 12:54:00,METAR KPHL 021254Z 07013G24KT 4SM BR OVC008 08/07 A3037 RMK AO2 RAB20E39 SLP282 CIG 007V010 VCSH P0000 T00830067 $
2026-04-02 12:40:00,SPECI KPHL 021240Z 07017KT 3SM BR OVC008 08/07 A3036 RMK AO2 RAB20E39 CIG 007V009 VCSH P0000 T00780067 $
2026-04-02 12:26:00,SPECI KPHL 021226Z 07013G22KT 2 1/2SM -RA BR OVC008 08/07 A3035 RMK AO2 RAB20 CIG 007V009 P0000 T00830067 $
2026-04-02 12:20:00,SPECI KPHL 021220Z 07013KT 4SM -RA BR OVC008 08/07 A3035 RMK AO2 RAB20 CIG 007V009 P0000 T00830067 $
2026-04-02 12:10:00,SPECI KPHL 021210Z 07012G20KT 6SM BR OVC008 08/07 A3035 RMK AO2 CIG 007V009 T00830067 $
2026-04-02 12:04:00,SPECI KPHL 021204Z 07013G20KT 8SM OVC008 08/07 A3036 RMK AO2 CIG 007V009 T00830067 $
2026-04-02 11:54:00,METAR KPHL 021154Z 08014G22KT 10SM OVC008 08/07 A3035 RMK AO2 SLP276 CIG 007V009 60005 70060 T00830067 10133 20083 53027 $
2026-04-02 10:54:00,METAR KPHL 021054Z 08015G21KT 10SM OVC009 09/07 A3031 RMK AO2 SLP264 T00890067 $
2026-04-02 10:36:00,SPECI KPHL 021036Z 09013G23KT 10SM OVC009 09/07 A3030 RMK AO2 T00890067 $
2026-04-02 09:54:00,METAR KPHL 020954Z 07015G22KT 10SM OVC010 09/07 A3029 RMK AO2 SLP256 T00940072 $
2026-04-02 09:19:00,SPECI KPHL 020919Z 08013KT 10SM OVC011 09/07 A3027 RMK AO2 T00940072 $
2026-04-02 08:54:00,METAR KPHL 020854Z 07015G25KT 8SM OVC011 09/07 A3027 RMK AO2 PK WND 07026/0841 SLP249 60005 T00940072 51027 $
2026-04-02 07:54:00,METAR KPHL 020754Z 07013KT 8SM OVC010 10/08 A3025 RMK AO2 SLP244 T01000083 $
2026-04-02 06:54:00,METAR KPHL 020654Z 08016G25KT 8SM BKN011 OVC017 12/09 A3024 RMK AO2 PK WND 07032/0556 SLP238 RAE19 P0005 T01170094 $
2026-04-02 06:11:00,SPECI KPHL 020611Z 07017G27KT 7SM -RA BKN012 OVC018 13/11 A3022 RMK AO2 PK WND 07032/0556 P0005 T01280106 $
2026-04-02 06:05:00,SPECI KPHL 020605Z 05013G32KT 4SM -RA BR OVC012 13/11 A3024 RMK AO2 PK WND 07032/0556 PRESRR P0005 T01280111 $
2026-04-02 05:54:00,METAR KPHL 020554Z 07016G26KT 2SM RA BR OVC011 13/11 A3019 RMK AO2 PK WND 08031/0514 PRESFR SLP222 P0008 60055 T01330111 10250 20133 50014 $
2026-04-02 05:51:00,SPECI KPHL 020551Z 07015G26KT 2SM RA BR OVC011 13/11 A3019 RMK AO2 PK WND 08031/0514 PRESFR P0006 $
2026-04-02 04:54:00,METAR KPHL 020454Z 09013G21KT 5SM -RA OVC015 15/12 A3021 RMK AO2 RAB28 SLP230 P0001 T01500122 402890150 $
2026-04-02 04:42:00,SPECI KPHL 020442Z 08015G21KT 5SM -RA OVC015 16/12 A3021 RMK AO2 RAB28 T01560122 PNO $
2026-04-02 04:23:00,SPECI KPHL 020423Z 07014G20KT 5SM HZ BKN013 OVC020 16/13 A3020 RMK AO2 T01610133 $
2026-04-02 03:54:00,METAR KPHL 020354Z 07011G22KT 9SM SCT014 BKN023 OVC040 17/14 A3017 RMK AO2 RAE32 SLP216 P0001 T01670144 $
2026-04-02 03:50:00,SPECI KPHL 020350Z 07013G22KT 9SM SCT014 BKN023 OVC040 17/14 A3016 RMK AO2 RAE32 P0001 $
2026-04-02 03:34:00,SPECI KPHL 020334Z 06009G18KT 8SM SCT120 BKN150 BKN240 17/15 A3016 RMK AO2 RAE32 P0001 T01670150 $
2026-04-02 02:54:00,METAR KPHL 020254Z 06008KT 6SM -RA BR FEW070 SCT090 OVC110 17/15 A3015 RMK AO2 SLP208 P0020 60045 T01720150 50030 $
2026-04-02 02:50:00,SPECI KPHL 020250Z 07007KT 6SM -RA BR FEW070 SCT090 OVC110 17/16 A3015 RMK AO2 P0020 $
2026-04-02 01:54:00,METAR KPHL 020154Z 35007KT 3SM RA BR FEW024 BKN037 OVC065 18/16 A3019 RMK AO2 PK WND 26026/0128 TSB06E37 SLP221 P0025 T01780156 $
2026-04-02 01:49:00,SPECI KPHL 020149Z 35008KT 3SM RA FEW024 BKN037 OVC065 18/16 A3018 RMK AO2 PK WND 26026/0128 TSB06E37 P0023 $
2026-04-02 01:44:00,SPECI KPHL 020144Z VRB05KT 1 1/2SM RA FEW024 BKN034 OVC065 19/16 A3018 RMK AO2 PK WND 26026/0128 TSB06E37 P0020 T01890156 $
2026-04-02 01:38:00,SPECI KPHL 020138Z 30004G23KT 2 1/2SM RA SCT024 BKN036 OVC085 19/16 A3018 RMK AO2 PK WND 26026/0128 TSB06E37 P0013 T01940161 $
2026-04-02 01:31:00,SPECI KPHL 020131Z 25018G26KT 5SM TSRA SCT038CB BKN055 OVC085 20/16 A3019 RMK AO2 PK WND 26026/0128 TSB06 PRESRR OCNL LTGICCG VC SE-VC SW TS VC SE-VC SW MOV SE P0002 T02000156 $
2026-04-02 01:25:00,SPECI KPHL 020125Z 29008G17KT 7SM TSRA FEW060CB BKN110 OVC240 21/14 A3018 RMK AO2 TSB06 PRESRR OCNL LTGICCG VC SE-VC SW TS VC SE-VC SW MOV SE P0001 T02060144 $
2026-04-02 01:08:00,SPECI KPHL 020108Z 05016KT 10SM -TSRA FEW060CB BKN110 OVC240 22/14 A3011 RMK AO2 TSB06 OCNL LTGICCG VC SW TS VC SW MOV SE P0000 T02170139 $
2026-04-02 00:54:00,METAR KPHL 020054Z 05016KT 10SM -RA FEW060 BKN110 BKN240 OVC280 23/13 A3010 RMK AO2 RAB53 SLP192 FRQ LTGICCCCG DSNT S-DSNT SW CB DSNT S-DSNT SW MOV E P0000 T02280133 $
2026-04-01 23:54:00,METAR KPHL 012354Z 04006KT 10SM FEW055 SCT120 BKN240 BKN280 24/12 A3006 RMK AO2 SLP178 T02440117 10289 20233 53008 $
2026-04-01 22:54:00,METAR KPHL 012254Z 02004KT 10SM FEW070 SCT100 SCT240 BKN280 26/12 A3004 RMK AO2 SLP172 T02610122 $
2026-04-01 21:54:00,METAR KPHL 012154Z 35004KT 10SM FEW070 FEW120 SCT240 BKN280 28/12 A3004 RMK AO2 SLP170 T02780122 $
2026-04-01 20:54:00,METAR KPHL 012054Z 29008G14KT 10SM FEW070 FEW120 SCT210 BKN280 28/12 A3004 RMK AO2 SLP170 T02830117 56004 $
2026-04-01 19:54:00,METAR KPHL 011954Z VRB05G17KT 10SM SCT065 SCT120 BKN210 BKN280 28/12 A3004 RMK AO2 SLP171 T02830122 $
2026-04-01 18:54:00,METAR KPHL 011854Z 26008G17KT 10SM SCT060 SCT120 BKN210 BKN280 28/12 A3004 RMK AO2 SLP171 T02780122 $
2026-04-01 17:54:00,METAR KPHL 011754Z 21008KT 10SM SCT060 BKN075 BKN140 BKN220 27/13 A3005 RMK AO2 SLP174 T02720128 10272 20200 58001 $
2026-04-01 16:54:00,METAR KPHL 011654Z VRB05KT 10SM SCT046 BKN140 BKN220 26/13 A3006 RMK AO2 SLP178 T02560133 $
2026-04-01 15:54:00,METAR KPHL 011554Z 29006KT 10SM FEW046 SCT140 BKN220 25/13 A3006 RMK AO2 SLP178 T02500133 $
2026-04-01 14:54:00,METAR KPHL 011454Z 27007KT 10SM FEW040 BKN140 BKN220 24/13 A3005 RMK AO2 SLP175 VCSH T02390133 51011 $
2026-04-01 13:54:00,METAR KPHL 011354Z 23009KT 10SM FEW110 BKN150 BKN220 23/13 A3004 RMK AO2 SLP173 T02280133 $
2026-04-01 12:54:00,METAR KPHL 011254Z 22007KT 10SM SCT110 BKN140 BKN200 20/13 A3004 RMK AO2 SLP171 VIRGA T02000133 $
2026-04-01 11:54:00,METAR KPHL 011154Z 22008KT 10SM FEW085 SCT110 BKN150 BKN230 20/13 A3002 RMK AO2 SLP164 VIRGA T02000128 10217 20183 53021 $
2026-04-01 10:54:00,METAR KPHL 011054Z 26007KT 10SM FEW100 BKN160 BKN250 18/13 A2998 RMK AO2 SLP152 T01830128 $
2026-04-01 09:54:00,METAR KPHL 010954Z 23011KT 10SM FEW110 BKN150 BKN250 20/12 A2996 RMK AO2 SLP144 T02000122 $
2026-04-01 08:54:00,METAR KPHL 010854Z 22011KT 10SM SCT110 BKN190 BKN250 20/12 A2995 RMK AO2 SLP142 T02000122 53007 $
2026-04-01 07:54:00,METAR KPHL 010754Z 25009KT 10SM FEW090 SCT170 BKN250 21/12 A2994 RMK AO2 SLP138 T02110122 $
2026-04-01 06:54:00,METAR KPHL 010654Z 21012KT 10SM BKN200 OVC280 21/12 A2993 RMK AO2 SLP135 T02110122 $
2026-04-01 05:54:00,METAR KPHL 010554Z 22015G20KT 10SM BKN200 OVC280 22/13 A2993 RMK AO2 SLP135 T02170128 10244 20217 56001 $
2026-04-01 04:54:00,METAR KPHL 010454Z 22013G24KT 10SM BKN280 22/13 A2993 RMK AO2 SLP136 T02220128 402720167 $
2026-04-01 03:54:00,METAR KPHL 010354Z 21012G24KT 10SM SCT250 OVC300 23/13 A2993 RMK AO2 SLP134 T02280128 $
2026-04-01 02:54:00,METAR KPHL 010254Z 22011KT 10SM FEW220 OVC280 23/13 A2994 RMK AO2 SLP136 T02280128 51001 $
2026-04-01 01:54:00,METAR KPHL 010154Z 20011KT 10SM SCT220 BKN280 22/13 A2993 RMK AO2 SLP136 T02220128 $
2026-04-01 00:54:00,METAR KPHL 010054Z 20011KT 10SM FEW060 FEW100 BKN280 24/13 A2994 RMK AO2 SLP138 T02390128 $
2026-03-31 23:54:00,METAR KPHL 312354Z 20010KT 10SM FEW060 FEW100 BKN280 24/12 A2993 RMK AO2 SLP135 T02440122 10272 20244 56006 $
2026-03-31 22:54:00,METAR KPHL 312254Z 21013G22KT 10SM FEW060 BKN280 26/13 A2994 RMK AO2 SLP138 T02610128 $
2026-03-31 21:54:00,METAR KPHL 312154Z 21015G24KT 10SM FEW060 BKN280 27/12 A2993 RMK AO2 PK WND 23031/2136 SLP133 T02670122 $
2026-03-31 20:54:00,METAR KPHL 312054Z 21017G23KT 10SM FEW055 BKN280 27/12 A2995 RMK AO2 SLP141 T02720122 56027 $
2026-03-31 19:54:00,METAR KPHL 311954Z 20013KT 10SM FEW055 BKN280 27/12 A2997 RMK AO2 SLP149 T02670122 $
2026-03-31 18:54:00,METAR KPHL 311854Z 23012KT 10SM FEW055 BKN280 27/12 A3000 RMK AO2 SLP159 T02670122 $
2026-03-31 17:54:00,METAR KPHL 311754Z 23016KT 10SM FEW055 BKN280 26/12 A3003 RMK AO2 PK WND 22029/1707 SLP168 T02560117 10261 20172 58011 $
2026-03-31 16:54:00,METAR KPHL 311654Z 23015KT 10SM FEW055 BKN280 BKN350 25/11 A3005 RMK AO2 PK WND 23026/1643 SLP176 T02500111 $
2026-03-31 15:54:00,METAR KPHL 311554Z 23021G26KT 10SM FEW055 FEW170 BKN260 24/11 A3006 RMK AO2 PK WND 22026/1553 SLP177 T02440111 $
2026-03-31 14:54:00,METAR KPHL 311454Z 22015KT 10SM FEW060 FEW170 BKN270 23/11 A3006 RMK AO2 SLP178 T02280106 58013 $
2026-03-31 13:54:00,METAR KPHL 311354Z 22015G23KT 10SM FEW090 SCT170 BKN270 21/10 A3007 RMK AO2 SLP183 T02060100 $
2026-03-31 12:54:00,METAR KPHL 311254Z 23014KT 10SM FEW090 BKN170 BKN300 19/10 A3009 RMK AO2 SLP188 T01890100 $
2026-03-31 11:54:00,METAR KPHL 311154Z 24009KT 10SM SCT090 BKN170 BKN300 17/10 A3010 RMK AO2 SLP192 T01720100 10189 20167 53015 $
2026-03-31 10:54:00,METAR KPHL 311054Z 22010KT 10SM BKN090 BKN300 17/10 A3008 RMK AO2 SLP186 T01670100 $
2026-03-31 09:54:00,METAR KPHL 310954Z 21010G21KT 10SM BKN095 17/10 A3007 RMK AO2 SLP183 T01720100 $
2026-03-31 08:54:00,METAR KPHL 310854Z 21012G19KT 10SM OVC100 18/10 A3006 RMK AO2 SLP177 T01780100 56013 $
2026-03-31 07:54:00,METAR KPHL 310754Z 22013KT 10SM BKN080 BKN100 18/11 A3006 RMK AO2 SLP179 T01830106 $
2026-03-31 06:54:00,METAR KPHL 310654Z 22013KT 10SM BKN080 18/11 A3008 RMK AO2 SLP185 T01830106 $
2026-03-31 05:54:00,METAR KPHL 310554Z 22010KT 10SM OVC140 18/11 A3009 RMK AO2 SLP190 T01830106 10189 20178 58006 $
2026-03-31 04:54:00,METAR KPHL 310454Z 23011KT 10SM OVC140 19/11 A3010 RMK AO2 SLP193 T01890106 402220089 $
2026-03-31 03:54:00,METAR KPHL 310354Z 22010G21KT 10SM BKN130 19/11 A3011 RMK AO2 SLP196 T01890106 $
2026-03-31 02:54:00,METAR KPHL 310254Z 22013G21KT 10SM OVC130 19/11 A3011 RMK AO2 SLP196 T01890106 50001 $
2026-03-31 01:54:00,METAR KPHL 310154Z 21010KT 10SM BKN095 18/10 A3012 RMK AO2 SLP199 T01830100 $
2026-03-31 00:54:00,METAR KPHL 310054Z 20007KT 10SM FEW090 BKN120 18/09 A3012 RMK AO2 SLP199 T01830094 $
2026-03-30 23:54:00,METAR KPHL 302354Z 21007KT 10SM SCT090 BKN120 BKN300 19/09 A3011 RMK AO2 SLP195 T01890094 10222 20189 58004 $
2026-03-30 22:54:00,METAR KPHL 302254Z 23013KT 10SM BKN100 BKN300 20/09 A3012 RMK AO2 SLP198 T02000094 $
2026-03-30 21:54:00,METAR KPHL 302154Z 22012G21KT 10SM BKN095 OVC300 20/09 A3012 RMK AO2 SLP198 T02000094 $
2026-03-30 20:54:00,METAR KPHL 302054Z 24016G25KT 10SM OVC100 20/09 A3012 RMK AO2 PK WND 25026/1956 SLP199 T02000089 55021 $
2026-03-30 19:54:00,METAR KPHL 301954Z 25020G27KT 10SM BKN100 21/08 A3012 RMK AO2 PK WND 22027/1930 SLP198 T02110083 $
2026-03-30 18:54:00,METAR KPHL 301854Z 23019G28KT 10SM BKN090 BKN300 22/08 A3015 RMK AO2 PK WND 24030/1828 SLP207 T02170078 $
2026-03-30 17:54:00,METAR KPHL 301754Z 26021KT 10SM FEW090 FEW130 SCT300 19/08 A3018 RMK AO2 PK WND 25031/1719 SLP219 T01940083 10200 20122 56017 $
2026-03-30 16:54:00,METAR KPHL 301654Z 24022G29KT 10SM BKN085 BKN130 BKN300 19/07 A3020 RMK AO2 PK WND 24031/1629 SLP224 T01940072 $
2026-03-30 15:54:00,METAR KPHL 301554Z 23016G26KT 10SM SCT080 BKN120 BKN300 19/06 A3021 RMK AO2 PK WND 24029/1456 SLP229 T01940061 $
2026-03-30 14:54:00,METAR KPHL 301454Z 22020G28KT 10SM BKN110 BKN300 18/07 A3023 RMK AO2 PK WND 24030/1356 SLP236 T01780067 56010 $
2026-03-30 13:54:00,METAR KPHL 301354Z 23018G27KT 10SM BKN120 BKN300 16/07 A3024 RMK AO2 PK WND 21027/1338 SLP238 T01560067 $
2026-03-30 12:54:00,METAR KPHL 301254Z 22016G24KT 10SM BKN130 BKN300 14/07 A3025 RMK AO2 SLP242 T01390072 $
2026-03-30 11:54:00,METAR KPHL 301154Z 21010KT 10SM BKN140 BKN300 12/07 A3026 RMK AO2 SLP246 T01220067 10122 20089 55003 $
2026-03-30 10:54:00,METAR KPHL 301054Z 20009KT 10SM BKN140 BKN300 11/06 A3026 RMK AO2 SLP246 T01060061 $
2026-03-30 09:54:00,METAR KPHL 300954Z 20008KT 10SM FEW100 BKN140 10/06 A3026 RMK AO2 SLP246 T01000061 $
2026-03-30 08:54:00,METAR KPHL 300854Z 19007KT 10SM SCT120 OVC150 09/05 A3027 RMK AO2 SLP249 T00940050 56028 $
2026-03-30 07:54:00,METAR KPHL 300754Z 20006KT 10SM SCT120 OVC150 09/04 A3029 RMK AO2 SLP255 T00940044 $
2026-03-30 06:54:00,METAR KPHL 300654Z 20006KT 10SM BKN140 OVC170 09/04 A3031 RMK AO2 SLP263 T00940039 $
2026-03-30 05:54:00,METAR KPHL 300554Z 19007KT 10SM OVC140 09/03 A3035 RMK AO2 SLP277 T00940028 10122 20089 58014 $
2026-03-30 04:54:00,METAR KPHL 300454Z 21007KT 10SM SCT110 BKN140 10/02 A3037 RMK AO2 SLP283 T01000017 401561006 $
2026-03-30 03:54:00,METAR KPHL 300354Z 20007KT 10SM SCT120 OVC140 09/01 A3038 RMK AO2 SLP285 T00940011 $
2026-03-30 02:54:00,METAR KPHL 300254Z 18005KT 10SM OVC140 09/01 A3039 RMK AO2 SLP291 T00940011 58001 $
2026-03-30 01:54:00,METAR KPHL 300154Z 16004KT 10SM BKN150 BKN250 10/M01 A3041 RMK AO2 SLP296 T01001006 $
2026-03-30 00:54:00,METAR KPHL 300054Z 16005KT 10SM SCT120 BKN250 11/M02 A3040 RMK AO2 SLP295 T01061022 $
2026-03-29 23:54:00,METAR KPHL 292354Z 19009KT 10SM SCT120 BKN260 12/M02 A3039 RMK AO2 SLP292 T01221017 10156 20122 58004 $
2026-03-29 22:54:00,METAR KPHL 292254Z 20009KT 10SM SCT120 BKN260 13/M03 A3040 RMK AO2 SLP295 T01331028 $
2026-03-29 21:54:00,METAR KPHL 292154Z 19013G21KT 10SM SCT120 BKN260 14/M03 A3040 RMK AO2 PK WND 21031/2101 SLP293 T01441033 $
2026-03-29 20:54:00,METAR KPHL 292054Z 21011G22KT 10SM BKN120 BKN260 15/M04 A3041 RMK AO2 SLP296 T01501044 56031 $
2026-03-29 19:54:00,METAR KPHL 291954Z 22015G28KT 10SM BKN120 BKN260 15/M06 A3043 RMK AO2 PK WND 22029/1936 SLP302 T01501056 $
2026-03-29 18:54:00,METAR KPHL 291854Z 21017G26KT 10SM BKN120 BKN260 14/M06 A3045 RMK AO2 PK WND 20026/1849 SLP312 T01441056 $
2026-03-29 17:54:00,METAR KPHL 291754Z 21019G26KT 10SM BKN120 BKN260 13/M05 A3050 RMK AO2 PK WND 23028/1701 SLP327 VIRGA T01331050 10139 20022 58033 $
2026-03-29 16:54:00,METAR KPHL 291654Z 23018G24KT 10SM BKN130 BKN260 BKN320 12/M06 A3054 RMK AO2 SLP342 T01221061 $
2026-03-29 14:54:00,METAR KPHL 291454Z 20010KT 10SM FEW130 BKN250 BKN300 09/M07 A3060 RMK AO2 SLP360 T00941067 58002 $
2026-03-29 13:54:00,METAR KPHL 291354Z 18006KT 10SM FEW150 SCT250 08/M05 A3060 RMK AO2 SLP361 T00781050 $
2026-03-29 12:54:00,METAR KPHL 291254Z 18003KT 10SM FEW140 SCT250 04/M03 A3061 RMK AO2 SLP363 T00441028 $
2026-03-29 11:54:00,METAR KPHL 291154Z 16003KT 10SM FEW080 SCT140 SCT250 02/M03 A3060 RMK AO2 SLP362 T00221028 10039 21006 51016 $
2026-03-29 10:54:00,METAR KPHL 291054Z 00000KT 10SM FEW080 SCT140 SCT200 00/M04 A3059 RMK AO2 SLP357 T00001039 $
2026-03-29 09:54:00,METAR KPHL 290954Z 20003KT 10SM SCT140 02/M04 A3057 RMK AO2 SLP352 T00171039 $
2026-03-29 08:54:00,METAR KPHL 290854Z 00000KT 10SM FEW140 02/M08 A3056 RMK AO2 SLP346 T00171078 50000 $
2026-03-29 07:54:00,METAR KPHL 290754Z 00000KT 10SM FEW160 02/M08 A3055 RMK AO2 SLP345 T00171078 $
2026-03-29 06:54:00,METAR KPHL 290654Z 00000KT 10SM FEW140 01/M08 A3056 RMK AO2 SLP349 T00111078 $
2026-03-29 05:54:00,METAR KPHL 290554Z 28005KT 10SM FEW080 04/M09 A3056 RMK AO2 SLP346 T00391094 10078 20028 51009 $
2026-03-29 04:54:00,METAR KPHL 290454Z 26007KT 10SM CLR 04/M09 A3055 RMK AO2 SLP346 T00441094 400890006 $
2026-03-29 03:54:00,METAR KPHL 290354Z 28006KT 10SM CLR 06/M10 A3054 RMK AO2 SLP341 T00611100 $
2026-03-29 02:54:00,METAR KPHL 290254Z 28007KT 10SM CLR 07/M11 A3053 RMK AO2 SLP337 T00671106 51021 $
2026-03-29 01:54:00,METAR KPHL 290154Z 28008KT 10SM CLR 07/M11 A3053 RMK AO2 SLP336 T00671106 $
2026-03-29 00:54:00,METAR KPHL 290054Z 28006KT 10SM CLR 06/M11 A3050 RMK AO2 SLP329 T00611106 $
2026-03-28 23:54:00,METAR KPHL 282354Z 29006KT 10SM CLR 08/M12 A3047 RMK AO2 SLP317 T00781117 10089 20067 53006 $
2026-03-28 22:54:00,METAR KPHL 282254Z 29010G18KT 10SM CLR 08/M13 A3046 RMK AO2 SLP312 T00831128 $
2026-03-28 21:54:00,METAR KPHL 282154Z 30010G21KT 10SM FEW080 08/M12 A3044 RMK AO2 SLP308 T00831122 $
2026-03-28 20:54:00,METAR KPHL 282054Z 33009G20KT 300V020 10SM FEW080 08/M12 A3045 RMK AO2 PK WND 32027/2011 SLP310 T00781117 56008 $
2026-03-28 19:54:00,METAR KPHL 281954Z 31015G26KT 10SM SCT080 08/M12 A3046 RMK AO2 PK WND 32031/1917 SLP313 T00831117 $
2026-03-28 18:54:00,METAR KPHL 281854Z 34019G28KT 10SM FEW080 08/M12 A3046 RMK AO2 PK WND 33028/1811 SLP313 T00781122 $
2026-03-28 17:54:00,METAR KPHL 281754Z 36010G24KT 320V020 10SM FEW080 08/M12 A3047 RMK AO2 SLP318 T00781122 10078 20006 58012 $
2026-03-28 16:54:00,METAR KPHL 281654Z 01014G27KT 10SM FEW070 06/M12 A3048 RMK AO2 PK WND 33028/1639 SLP321 T00611122 $
2026-03-28 15:54:00,METAR KPHL 281554Z 33015G22KT 10SM FEW065 04/M12 A3050 RMK AO2 PK WND 32028/1519 SLP328 T00441117 $
2026-03-28 14:54:00,METAR KPHL 281454Z 33015G23KT 10SM FEW060 04/M12 A3051 RMK AO2 PK WND 31026/1427 SLP330 T00391117 51027 $
2026-03-28 13:54:00,METAR KPHL 281354Z 35015G23KT 10SM FEW060 03/M12 A3048 RMK AO2 PK WND 34030/1255 SLP322 T00281117 $
2026-03-28 12:54:00,METAR KPHL 281254Z 33018G28KT 10SM CLR 02/M13 A3046 RMK AO2 PK WND 32028/1254 SLP314 T00171128 $
2026-03-28 11:54:00,METAR KPHL 281154Z COR 35012G21KT 10SM FEW060 01/M12 A3043 RMK AO2 PK WND 34027/1131 SLP303 70003 T00061122 10039 20006 53042 $
2026-03-28 10:54:00,METAR KPHL 281054Z 35013G20KT 10SM FEW060 01/M12 A3038 RMK AO2 PK WND 35031/1008 SLP288 T00061122 $
2026-03-28 09:54:00,METAR KPHL 280954Z 34018G25KT 10SM BKN065 02/M11 A3034 RMK AO2 PK WND 34028/0922 SLP275 T00171111 $
2026-03-28 08:54:00,METAR KPHL 280854Z 34015KT 10SM BKN065 02/M09 A3030 RMK AO2 SLP261 T00221089 53028 $
2026-03-28 07:54:00,METAR KPHL 280754Z 36009KT 10SM SCT065 02/M07 A3025 RMK AO2 SLP245 T00221072 $
2026-03-28 06:54:00,METAR KPHL 280654Z 35009KT 10SM FEW250 03/M07 A3024 RMK AO2 SLP238 T00281067 $
2026-03-28 05:54:00,METAR KPHL 280554Z 34009KT 10SM FEW250 04/M07 A3022 RMK AO2 SLP233 T00391067 10083 20039 51004 $
2026-03-28 04:54:00,METAR KPHL 280454Z 01008KT 10SM BKN055 BKN120 05/M06 A3022 RMK AO2 SLP231 T00501061 402110044 $
2026-03-28 03:54:00,METAR KPHL 280354Z 35009KT 10SM BKN055 BKN120 06/M05 A3022 RMK AO2 SLP232 T00561050 $
2026-03-28 02:54:00,METAR KPHL 280254Z 32007KT 10SM BKN050 BKN120 BKN250 07/M04 A3021 RMK AO2 SLP229 T00671044 51027 $
2026-03-28 01:54:00,METAR KPHL 280154Z 33007KT 10SM BKN120 BKN250 07/M05 A3018 RMK AO2 SLP221 T00671050
2026-03-28 00:54:00,METAR KPHL 280054Z 35009KT 10SM BKN120 BKN250 07/M04 A3017 RMK AO2 SLP214 T00721044
2026-03-27 23:54:00,METAR KPHL 272354Z 01010KT 10SM BKN110 BKN250 08/M06 A3013 RMK AO2 SLP202 T00831056 10122 20083 51021
2026-03-27 22:54:00,METAR KPHL 272254Z 33013G20KT 10SM FEW050 BKN100 BKN250 09/M03 A3011 RMK AO2 SLP194 T00891033
2026-03-27 21:54:00,METAR KPHL 272154Z 33012KT 10SM FEW045 BKN090 OVC250 10/M02 A3010 RMK AO2 PRESRR SLP191 T01001022
2026-03-27 20:54:00,METAR KPHL 272054Z 35010KT 10SM FEW045 BKN090 OVC250 11/M02 A3007 RMK AO2 SLP181 T01061022 53004
2026-03-27 19:54:00,METAR KPHL 271954Z 36010KT 10SM FEW042 OVC085 11/M02 A3006 RMK AO2 SLP180 T01061022
2026-03-27 18:54:00,METAR KPHL 271854Z 02012G23KT 10SM FEW040 BKN080 OVC250 11/M02 A3005 RMK AO2 SLP176 T01111022
2026-03-27 17:54:00,METAR KPHL 271754Z 01013KT 10SM FEW045 BKN100 OVC250 12/02 A3006 RMK AO2 SLP177 60003 T01170017 10144 20106 51023
2026-03-27 16:54:00,METAR KPHL 271654Z 01013G20KT 10SM FEW025 BKN048 OVC100 11/02 A3004 RMK AO2 PK WND 36028/1609 SLP172 T01110022
2026-03-23 15:18:00,SPECI KPHL 231518Z 01014KT 5SM -RA BR BKN009 OVC015 09/07 A2983 RMK AO2 P0000 T00890072 $
2026-03-23 15:07:00,SPECI KPHL 231507Z 02014G23KT 4SM -RA BR BKN007 OVC017 09/08 A2982 RMK AO2 CIG 006V010 P0000 T00940078 $
2026-03-23 14:54:00,METAR KPHL 231454Z 02010KT 5SM -RA BR BKN007 OVC017 10/09 A2982 RMK AO2 SLP096 CIG 005V008 P0001 60001 T01000089 52044 $
2026-03-23 14:44:00,SPECI KPHL 231444Z 02009KT 5SM -RA BR BKN007 OVC016 10/08 A2981 RMK AO2 CIG 006V009 P0000 T01000083 $
2026-03-23 14:28:00,SPECI KPHL 231428Z 01011KT 5SM -RA BR BKN006 OVC016 10/09 A2980 RMK AO2 P0000 T01000089 $
2026-03-23 14:13:00,SPECI KPHL 231413Z 04006KT 5SM -RA BR FEW006 OVC014 11/09 A2978 RMK AO2 P0000 T01110094 $
2026-03-23 13:54:00,METAR KPHL 231354Z 05008KT 4SM -RA BR OVC012 11/09 A2977 RMK AO2 RAB09 SLP079 CIG 010V015 P0000 T01060089 $
2026-03-23 13:14:00,SPECI KPHL 231314Z 05009KT 6SM -RA BR OVC010 11/09 A2975 RMK AO2 RAB09 P0000 T01110094 $
2026-03-23 13:09:00,SPECI KPHL 231309Z 05005G18KT 9SM -RA OVC009 11/09 A2974 RMK AO2 RAB09 P0000 T01110094 $
2026-03-23 12:54:00,METAR KPHL 231254Z 06007G18KT 10SM OVC011 11/09 A2973 RMK AO2 RAE24 SLP068 P0000 T01110089 $
2026-03-23 12:41:00,SPECI KPHL 231241Z 05008KT 10SM BKN010 OVC022 11/09 A2972 RMK AO2 RAE24 P0000 T01110094 $
2026-03-23 11:54:00,METAR KPHL 231154Z 06006KT 8SM -RA BKN008 BKN022 OVC035 12/10 A2969 RMK AO2 SLP052 P0004 60007 70007 T01170100 10144 20117 56007 $
2026-03-23 11:42:00,SPECI KPHL 231142Z 07006KT 7SM -RA BKN008 BKN035 OVC080 12/10 A2969 RMK AO2 P0004 T01170100 $
2026-03-23 11:36:00,SPECI KPHL 231136Z 10007KT 6SM -RA BR BKN008 BKN038 OVC080 12/10 A2968 RMK AO2 P0004 T01170100 $
2026-03-23 11:25:00,SPECI KPHL 231125Z 07006KT 4SM -RA BR BKN008 BKN035 OVC075 12/10 A2969 RMK AO2 P0002 T01170100 $
2026-03-23 10:54:00,METAR KPHL 231054Z 09005KT 6SM -RA BR SCT009 OVC085 12/10 A2969 RMK AO2 PRESRR SLP054 P0000 T01170100 $
2026-03-23 10:27:00,SPECI KPHL 231027Z 07007KT 6SM -RA BR SCT009 OVC075 12/11 A2968 RMK AO2 P0000 T01220106 $
2026-03-23 10:04:00,SPECI KPHL 231004Z 07005KT 6SM -RA BR BKN009 OVC070 12/11 A2968 RMK AO2 P0000 T01220106 $
2026-03-23 09:54:00,METAR KPHL 230954Z 07005KT 7SM -RA BKN010 OVC070 12/11 A2968 RMK AO2 RAB01 SLP051 BKN V SCT P0003 T01220106 $
2026-03-23 09:41:00,SPECI KPHL 230941Z 09008KT 7SM -RA SCT011 BKN047 OVC065 12/11 A2968 RMK AO2 RAB01 P0003 T01220106 $
2026-03-23 09:30:00,SPECI KPHL 230930Z 11007KT 7SM -RA BKN011 BKN029 OVC045 13/11 A2969 RMK AO2 RAB01 P0001 T01280106 $
2026-03-23 09:02:00,SPECI KPHL 230902Z 06008KT 7SM -RA SCT015 BKN029 OVC038 14/11 A2969 RMK AO2 RAB01 PRESFR P0000 T01390106 $
2026-03-23 08:54:00,METAR KPHL 230854Z 03009KT 7SM BKN014 BKN021 OVC029 14/10 A2971 RMK AO2 SLP059 T01390100 51014 $
2026-03-23 08:03:00,SPECI KPHL 230803Z 36013KT 7SM BKN014 OVC021 14/11 A2970 RMK AO2 T01390106 $
2026-03-23 07:54:00,METAR KPHL 230754Z 02013G19KT 7SM OVC020 14/11 A2969 RMK AO2 PRESRR SLP053 T01440106 $
2026-03-23 07:30:00,SPECI KPHL 230730Z 05010KT 7SM OVC020 14/10 A2965 RMK AO2 T01390100 $
2026-03-23 07:18:00,SPECI KPHL 230718Z 06009KT 7SM OVC030 14/11 A2966 RMK AO2 PRESFR T01440106 $
2026-03-23 06:54:00,METAR KPHL 230654Z 03009KT 6SM HZ SCT120 OVC150 14/10 A2969 RMK AO2 SLP052 T01390100 $
2026-03-23 06:07:00,SPECI KPHL 230607Z 03013G22KT 6SM HZ SCT110 14/09 A2966 RMK AO2 T01440094 $
2026-03-23 05:54:00,METAR KPHL 230554Z 02010KT 7SM BKN110 14/09 A2967 RMK AO2 SLP045 60000 T01440094 10217 20139 55009 $
2026-03-23 04:54:00,METAR KPHL 230454Z 07009KT 7SM FEW150 SCT190 BKN230 14/09 A2964 RMK AO2 SLP036 T01440094 402390072 $
2026-03-23 04:09:00,SPECI KPHL 230409Z 07011KT 7SM SCT150 BKN190 OVC230 15/09 A2964 RMK AO2 T01500094 $
2026-03-23 03:54:00,METAR KPHL 230354Z 08011KT 10SM SCT120 BKN150 OVC230 16/10 A2964 RMK AO2 PRESFR SLP038 T01610100 $
2026-03-23 02:54:00,METAR KPHL 230254Z 04012G18KT 10SM OVC120 19/12 A2969 RMK AO2 SLP054 60000 T01940117 51024 $
2026-03-23 01:54:00,METAR KPHL 230154Z 11005KT 10SM SCT100 OVC150 18/12 A2966 RMK AO2 PK WND 34030/0056 RAB01E14 SLP045 P0000 T01830117 $
2026-03-23 00:54:00,METAR KPHL 230054Z 33021G29KT 10SM BKN140 BKN280 21/12 A2971 RMK AO2 PK WND 34029/0053 PRESRR SLP060 T02110117 $
2026-03-22 23:54:00,METAR KPHL 222354Z 20009KT 10SM SCT130 BKN280 22/11 A2962 RMK AO2 SLP030 T02170111 10239 20183 55008 $
2026-03-22 22:54:00,METAR KPHL 222254Z 19008KT 10SM SCT095 BKN250 22/11 A2961 RMK AO2 SLP025 T02170111 $
2026-03-22 21:54:00,METAR KPHL 222154Z 18010KT 10SM SCT095 BKN210 23/12 A2962 RMK AO2 SLP029 T02330122 $
2026-03-22 20:54:00,METAR KPHL 222054Z 21010KT 10SM FEW110 BKN290 24/12 A2964 RMK AO2 SLP038 T02390117 56036 $
2026-03-22 19:54:00,METAR KPHL 221954Z 21011KT 10SM SCT110 BKN290 23/11 A2968 RMK AO2 SLP048 T02280106 $
2026-03-22 18:54:00,METAR KPHL 221854Z 22008KT 10SM SCT120 BKN290 21/11 A2971 RMK AO2 SLP061 T02060111 $
2026-03-22 17:54:00,METAR KPHL 221754Z 25008KT 10SM FEW150 BKN330 18/11 A2975 RMK AO2 SLP074 T01830106 10189 20083 58025 $
2026-03-22 16:54:00,METAR KPHL 221654Z 19010KT 10SM FEW016 FEW150 BKN330 16/10 A2977 RMK AO2 SLP082 T01610100 $
2026-03-22 16:29:00,SPECI KPHL 221629Z 22011KT 10SM SCT015 BKN330 15/10 A2979 RMK AO2 T01500100 $
2026-03-22 15:54:00,METAR KPHL 221554Z 19011KT 10SM OVC012 14/10 A2980 RMK AO2 SLP092 T01440100 $
2026-03-22 15:29:00,SPECI KPHL 221529Z 20010KT 10SM OVC010 13/10 A2982 RMK AO2 CIG 008V012 T01330100 $
2026-03-22 14:54:00,METAR KPHL 221454Z 20011KT 10SM OVC007 12/09 A2983 RMK AO2 SLP099 CIG 006V008 T01220094 58022 $
2026-03-22 14:43:00,SPECI KPHL 221443Z 20010KT 10SM OVC007 12/09 A2983 RMK AO2 CIG 006V008 T01170089 $
2026-03-22 13:54:00,METAR KPHL 221354Z 19009KT 10SM BKN006 OVC010 12/08 A2985 RMK AO2 SLP107 T01170083 $
2026-03-22 13:35:00,SPECI KPHL 221335Z 19010KT 10SM BKN006 OVC010 11/08 A2984 RMK AO2 PRESFR T01060078 $
2026-03-22 13:33:00,SPECI KPHL 221333Z 19009KT 10SM OVC010 11/08 A2985 RMK AO2 PRESFR T01060078 $
2026-03-22 12:54:00,METAR KPHL 221254Z 22004KT 10SM OVC008 09/07 A2988 RMK AO2 SLP118 T00940072 $
2026-03-22 12:10:00,SPECI KPHL 221210Z 13003KT 10SM BKN009 BKN140 BKN300 08/06 A2988 RMK AO2 T00830061 $
2026-03-22 11:54:00,METAR KPHL 221154Z 11003KT 10SM SCT010 SCT140 BKN300 08/06 A2989 RMK AO2 SLP121 T00830056 10089 20072 58012 $
2026-03-22 10:54:00,METAR KPHL 221054Z 04005KT 10SM SCT034 BKN130 BKN210 08/06 A2991 RMK AO2 SLP128 T00830056 $
2026-03-22 09:54:00,METAR KPHL 220954Z 13004KT 10SM OVC034 08/05 A2991 RMK AO2 SLP128 T00830050 $
2026-03-22 08:54:00,METAR KPHL 220854Z 13003KT 10SM OVC032 09/05 A2993 RMK AO2 SLP133 T00890050 58015 $
2026-03-22 07:54:00,METAR KPHL 220754Z 09004KT 10SM OVC033 09/05 A2994 RMK AO2 SLP138 T00890050 $
2026-03-22 06:54:00,METAR KPHL 220654Z 16003KT 10SM OVC036 08/04 A2997 RMK AO2 SLP146 T00830044 $
2026-03-22 05:54:00,METAR KPHL 220554Z 21004KT 10SM FEW047 BKN140 08/04 A2997 RMK AO2 SLP148 T00830039 10133 20083 51002 $
2026-03-22 04:54:00,METAR KPHL 220454Z 17007KT 10SM SCT160 09/03 A2997 RMK AO2 SLP147 T00890033 401670072 $
2026-03-22 03:54:00,METAR KPHL 220354Z 14004KT 10SM BKN170 09/04 A2997 RMK AO2 SLP148 T00940039 $
2026-03-22 02:54:00,METAR KPHL 220254Z 14007KT 10SM SCT130 SCT220 11/03 A2996 RMK AO2 SLP146 T01060033 50007 $
2026-03-22 01:54:00,METAR KPHL 220154Z 10003KT 10SM BKN140 BKN220 12/02 A2997 RMK AO2 SLP147 T01170017 $
2026-03-22 00:54:00,METAR KPHL 220054Z 03005KT 10SM BKN160 BKN220 12/02 A2996 RMK AO2 SLP143 T01220017 $
2026-03-21 23:54:00,METAR KPHL 212354Z 04006KT 10SM BKN150 BKN300 13/01 A2994 RMK AO2 SLP139 T01280011 10167 20128 51014 $
2026-03-21 22:54:00,METAR KPHL 212254Z 01007KT 10SM BKN160 BKN300 14/01 A2994 RMK AO2 SLP139 T01390011 $
2026-03-21 21:54:00,METAR KPHL 212154Z 03009KT 10SM BKN170 BKN300 14/02 A2992 RMK AO2 SLP131 T01440017 $
2026-03-21 20:54:00,METAR KPHL 212054Z 03008G15KT 10SM BKN180 BKN300 16/02 A2990 RMK AO2 SLP125 T01560017 56014 $
2026-03-21 19:54:00,METAR KPHL 211954Z 01004G14KT 10SM SCT200 BKN300 16/02 A2991 RMK AO2 SLP126 T01610017 $
2026-03-21 18:54:00,METAR KPHL 211854Z 36010G19KT 10SM FEW200 SCT300 16/02 A2993 RMK AO2 SLP133 T01560017 $
2026-03-21 17:54:00,METAR KPHL 211754Z 32008G18KT 10SM FEW040 FEW200 15/03 A2994 RMK AO2 SLP139 T01500033 10161 20100 51017 $
2026-03-21 16:54:00,METAR KPHL 211654Z 34014G21KT 10SM FEW040 15/04 A2993 RMK AO2 PK WND 35029/1633 SLP134 T01500039 $
2026-03-21 15:54:00,METAR KPHL 211554Z 34013G20KT 10SM SCT030 16/07 A2991 RMK AO2 PK WND 35027/1541 SLP127 T01560067 $
2026-03-21 14:54:00,METAR KPHL 211454Z 36012KT 10SM SCT022 15/08 A2989 RMK AO2 SLP122 T01500078 51026 $
2026-03-21 13:54:00,METAR KPHL 211354Z 35016G20KT 10SM FEW018 14/09 A2987 RMK AO2 PK WND 35029/1312 SLP116 T01390094 $
2026-03-21 12:54:00,METAR KPHL 211254Z 34011KT 10SM FEW020 13/11 A2984 RMK AO2 SLP104 T01330106 $
2026-03-21 12:11:00,SPECI KPHL 211211Z 32005KT 10SM FEW050 11/09 A2983 RMK AO2 T01060094 $
2026-03-21 11:54:00,METAR KPHL 211154Z 33005KT 8SM BKN050 10/09 A2982 RMK AO2 SLP096 70009 T01000089 10122 20072 51023 $
2026-03-21 11:35:00,SPECI KPHL 211135Z 33003KT 7SM BKN050 10/09 A2981 RMK AO2 T01000089 $
2026-03-21 10:54:00,METAR KPHL 211054Z 00000KT 6SM BR BCFG FEW008 SCT045 08/07 A2980 RMK AO2 SLP089 T00830072 $
2026-03-21 09:54:00,METAR KPHL 210954Z 00000KT 10SM BCFG FEW003 FEW085 09/08 A2978 RMK AO2 SLP083 T00890078 $
2026-03-21 09:34:00,SPECI KPHL 210934Z 00000KT 10SM BCFG FEW003 FEW085 09/08 A2977 RMK AO2 T00890078 $
2026-03-21 08:54:00,METAR KPHL 210854Z 00000KT 6SM BR SCT003 BKN085 08/08 A2975 RMK AO2 SLP074 T00830078 58004 $
2026-03-21 07:54:00,METAR KPHL 210754Z 00000KT 10SM BKN085 10/09 A2975 RMK AO2 SLP073 T01000089 $
2026-03-21 06:54:00,METAR KPHL 210654Z 33004KT 9SM SCT055 BKN095 12/10 A2977 RMK AO2 SLP079 T01170100 $
2026-03-21 05:54:00,METAR KPHL 210554Z 34005KT 10SM OVC060 12/10 A2976 RMK AO2 SLP078 60009 T01170100 10144 20111 55014 $
2026-03-21 04:54:00,METAR KPHL 210454Z 24006KT 10SM BKN060 BKN080 OVC100 12/10 A2976 RMK AO2 RAB00E24B42E51 SLP077 P0000 T01170100 401940033 $
2026-03-21 03:54:00,METAR KPHL 210354Z 22006KT 10SM BKN070 BKN080 OVC100 12/09 A2978 RMK AO2 RAE22 SLP084 P0000 T01220094 $
2026-03-21 02:54:00,METAR KPHL 210254Z 21007KT 10SM -RA OVC075 12/09 A2980 RMK AO2 SLP092 P0002 60009 T01170094 58003 $
2026-03-21 01:54:00,METAR KPHL 210154Z 19006KT 10SM -RA BKN050 OVC060 12/09 A2981 RMK AO2 SLP093 P0005 T01170089 $
2026-03-21 00:54:00,METAR KPHL 210054Z 19007KT 9SM -RA OVC065 12/08 A2983 RMK AO2 SLP099 P0002 T01220078 $
2026-03-20 23:54:00,METAR KPHL 202354Z 20008KT 10SM -RA BKN065 OVC250 14/06 A2981 RMK AO2 SLP095 P0000 60000 T01440056 10194 20144 53003 $
2026-03-20 22:54:00,METAR KPHL 202254Z 19009KT 10SM -RA FEW055 BKN075 OVC250 16/04 A2979 RMK AO2 RAE2156B21 SLP089 P0000 T01610044 $
2026-03-20 21:54:00,METAR KPHL 202154Z 20013G20KT 10SM -RA FEW055 BKN090 BKN260 18/03 A2978 RMK AO2 PK WND 19028/2135 RAB46 SLP083 P0000 T01830033 $
2026-03-20 20:54:00,METAR KPHL 202054Z 20013KT 10SM FEW055 SCT090 BKN260 19/04 A2980 RMK AO2 SLP092 T01890044 56049 $
2026-03-20 19:54:00,METAR KPHL 201954Z 19014G22KT 10SM SCT100 BKN260 19/04 A2983 RMK AO2 SLP100 T01890044 $
2026-03-20 18:54:00,METAR KPHL 201854Z 19014G23KT 10SM BKN100 BKN260 18/04 A2989 RMK AO2 SLP122 T01830039 $
2026-03-20 17:54:00,METAR KPHL 201754Z 18014G23KT 10SM FEW110 FEW200 BKN270 17/03 A2995 RMK AO2 SLP141 T01720033 10183 20039 58042 $
2026-03-20 16:54:00,METAR KPHL 201654Z 18010KT 10SM FEW100 FEW200 BKN270 BKN330 16/03 A3000 RMK AO2 PRESFR SLP157 T01610033 $
2026-03-20 15:54:00,METAR KPHL 201554Z 21008KT 10SM FEW095 SCT180 BKN270 BKN330 14/02 A3005 RMK AO2 SLP174 T01390022 $
2026-03-20 14:54:00,METAR KPHL 201454Z 19007KT 10SM FEW170 BKN280 BKN350 11/02 A3007 RMK AO2 SLP183 T01110017 58024 $
2026-03-20 13:54:00,METAR KPHL 201354Z 22011KT 10SM BKN280 08/01 A3011 RMK AO2 SLP195 T00830011 $
2026-03-20 12:54:00,METAR KPHL 201254Z 21008KT 10SM SCT280 06/01 A3013 RMK AO2 SLP203 T00610006 $
2026-03-20 11:54:00,METAR KPHL 201154Z 18005KT 10SM FEW230 SCT300 04/00 A3014 RMK AO2 SLP207 T00390000 10050 20033 53004 $
2026-03-20 10:54:00,METAR KPHL 201054Z 19004KT 10SM FEW300 03/M01 A3014 RMK AO2 SLP204 T00331006 $
2026-03-20 09:54:00,METAR KPHL 200954Z 19006KT 10SM CLR 04/M01 A3014 RMK AO2 SLP205 T00391006 $
2026-03-20 08:54:00,METAR KPHL 200854Z 19006KT 10SM CLR 04/M01 A3013 RMK AO2 SLP203 T00391006 58018 $
2026-03-20 07:54:00,METAR KPHL 200754Z 22004KT 10SM CLR 04/M01 A3015 RMK AO2 SLP209 T00441006 $
2026-03-20 06:54:00,METAR KPHL 200654Z 19006KT 10SM FEW060 04/M01 A3017 RMK AO2 SLP216 T00441006 $
2026-03-20 05:54:00,METAR KPHL 200554Z 19006KT 10SM BKN065 05/M01 A3018 RMK AO2 SLP221 T00501006 10094 20050 58007 $
2026-03-20 04:54:00,METAR KPHL 200454Z 20006KT 10SM BKN065 OVC080 06/M02 A3020 RMK AO2 SLP226 T00561017 401000006 $
2026-03-20 03:54:00,METAR KPHL 200354Z 21004KT 10SM BKN065 BKN080 OVC250 06/M03 A3021 RMK AO2 SLP229 T00561028 $
2026-03-20 02:54:00,METAR KPHL 200254Z 21005KT 10SM BKN070 BKN095 OVC250 06/M04 A3021 RMK AO2 SLP228 T00561039 51013 $
2026-03-20 01:54:00,METAR KPHL 200154Z 19006KT 10SM BKN090 BKN240 06/M03 A3020 RMK AO2 SLP226 T00611033 $
2026-03-20 00:54:00,METAR KPHL 200054Z 20006KT 10SM SCT080 BKN250 08/M01 A3019 RMK AO2 SLP222 T00781011 $
2026-03-19 23:54:00,METAR KPHL 192354Z 17005KT 10SM SCT080 08/M01 A3017 RMK AO2 SLP216 T00831011 10100 20072 58003 $
2026-03-19 22:54:00,METAR KPHL 192254Z 22007KT 10SM BKN080 09/M02 A3018 RMK AO2 SLP219 T00941022
2026-03-19 21:54:00,METAR KPHL 192154Z 25007KT 10SM FEW060 09/M02 A3018 RMK AO2 SLP220 T00941022
2026-03-19 20:54:00,METAR KPHL 192054Z 23007KT 10SM FEW060 09/M03 A3018 RMK AO2 SLP218 T00941028 56028
2026-03-19 19:54:00,METAR KPHL 191954Z 19010G18KT 10SM FEW060 09/M03 A3020 RMK AO2 SLP225 T00891033
2026-03-19 18:54:00,METAR KPHL 191854Z 20008KT 10SM OVC060 07/M03 A3024 RMK AO2 SLP238 T00721033
2026-03-19 17:54:00,METAR KPHL 191754Z 25010KT 10SM OVC050 07/M03 A3026 RMK AO2 SLP246 T00721028 10072 20017 58016
2026-03-19 16:54:00,METAR KPHL 191654Z 24007KT 10SM OVC060 07/M03 A3028 RMK AO2 SLP252 T00671028
2026-03-19 15:54:00,METAR KPHL 191554Z 19007KT 10SM OVC065 06/M03 A3030 RMK AO2 SLP259 T00561028
2026-03-19 14:54:00,METAR KPHL 191454Z 21007KT 10SM BKN075 BKN100 04/M03 A3031 RMK AO2 SLP262 T00441033 58002
2026-03-19 13:54:00,METAR KPHL 191354Z 18007KT 10SM BKN070 OVC100 03/M04 A3032 RMK AO2 SLP267 T00331039
2026-03-19 12:54:00,METAR KPHL 191254Z 18007KT 10SM BKN070 BKN100 03/M04 A3031 RMK AO2 SLP263 T00281044
2026-03-19 11:54:00,METAR KPHL 191154Z 18004KT 10SM BKN060 BKN100 02/M05 A3031 RMK AO2 SLP264 T00171050 10017 20011 55000
2026-03-19 10:54:00,METAR KPHL 191054Z 16004KT 10SM BKN060 OVC110 02/M05 A3031 RMK AO2 SLP262 T00171050
2026-03-19 09:54:00,METAR KPHL 190954Z VRB05KT 10SM SCT070 OVC100 02/M05 A3031 RMK AO2 SLP263 T00171050
2026-03-19 08:54:00,METAR KPHL 190854Z 16006KT 10SM SCT060 BKN095 OVC110 01/M06 A3031 RMK AO2 SLP264 T00111056 56016
2026-03-19 07:54:00,METAR KPHL 190754Z 16005KT 10SM BKN075 OVC100 01/M06 A3032 RMK AO2 SLP266 T00111056
2026-03-19 06:54:00,METAR KPHL 190654Z 16007KT 10SM SCT080 OVC110 01/M06 A3034 RMK AO2 SLP272 T00111056
2026-03-19 05:54:00,METAR KPHL 190554Z 17007KT 10SM BKN080 OVC110 01/M06 A3036 RMK AO2 SLP280 T00111061 10028 20006 56005
2026-03-19 04:54:00,METAR KPHL 190454Z 18006KT 10SM OVC110 01/M06 A3036 RMK AO2 SLP282 T00061061 400441022
2026-03-19 03:54:00,METAR KPHL 190354Z 16006KT 10SM OVC140 01/M07 A3037 RMK AO2 SLP282 T00111072
2026-03-19 02:54:00,METAR KPHL 190254Z VRB05KT 10SM SCT100 BKN140 02/M07 A3038 RMK AO2 SLP285 T00171072 50004
2026-03-19 01:54:00,METAR KPHL 190154Z 19005KT 10SM FEW090 02/M08 A3038 RMK AO2 SLP287 T00171078
2026-03-19 00:54:00,METAR KPHL 190054Z 16005KT 10SM FEW050 02/M09 A3038 RMK AO2 SLP285 T00171089
2026-03-18 23:54:00,METAR KPHL 182354Z 18006KT 10SM FEW050 02/M09 A3036 RMK AO2 SLP281 T00221089 10044 20017 56005
2026-03-18 22:54:00,METAR KPHL 182254Z 22005KT 10SM FEW050 03/M11 A3037 RMK AO2 SLP282 T00281106
2026-03-18 21:54:00,METAR KPHL 182154Z 18009KT 10SM FEW050 FEW095 03/M10 A3037 RMK AO2 SLP282 T00331100
2026-03-18 20:54:00,METAR KPHL 182054Z 19009G17KT 10SM SCT050 SCT095 04/M09 A3038 RMK AO2 PK WND 20026/2025 SLP287 T00391094 56017
2026-03-18 19:54:00,METAR KPHL 181954Z 19013G19KT 10SM SCT055 SCT095 04/M11 A3038 RMK AO2 SLP287 T00441106
2026-03-18 18:54:00,METAR KPHL 181854Z 14005G15KT 10SM FEW055 SCT095 03/M12 A3040 RMK AO2 SLP293 T00331117
2026-03-18 17:54:00,METAR KPHL 181754Z COR 22008KT 10SM FEW055 SCT095 SCT150 BKN200 BKN300 02/M13 A3043 RMK AO2 SLP304 T00221133 10033 21022 50008
2026-03-18 16:54:00,METAR KPHL 181654Z 02005KT 10SM FEW055 FEW095 BKN150 BKN200 BKN300 02/M13 A3045 RMK AO2 SLP309 T00171128
2026-03-18 15:54:00,METAR KPHL 181554Z 00000KT 10SM BKN150 BKN210 BKN300 00/M13 A3044 RMK AO2 SLP307 T00001133 $
2026-03-18 14:54:00,METAR KPHL 181454Z 03008KT 10SM BKN130 BKN210 BKN300 M01/M13 A3041 RMK AO2 SLP296 T10061133 56014 $
2026-03-18 13:54:00,METAR KPHL 181354Z 36012KT 10SM FEW050 FEW085 BKN140 BKN220 BKN300 M01/M13 A3042 RMK AO2 SLP299 VIRGA T10111128 $
2026-03-18 12:54:00,METAR KPHL 181254Z 35012G20KT 10SM FEW085 BKN150 OVC240 M02/M13 A3043 RMK AO2 SLP305 VIRGA T10221128 $
2026-03-18 11:54:00,METAR KPHL 181154Z 32009G18KT 10SM FEW045 FEW080 BKN210 BKN300 M02/M12 A3045 RMK AO2 SLP309 VIRGA T10221122 11006 21022 51039 $
2026-03-18 10:54:00,METAR KPHL 181054Z 30008KT 10SM FEW045 FEW075 SCT240 BKN310 M02/M12 A3041 RMK AO2 SLP298 T10221122 $
2026-03-18 09:54:00,METAR KPHL 180954Z 30008KT 10SM FEW040 SCT250 M02/M12 A3038 RMK AO2 PRESRR SLP288 T10221122 $
2026-03-18 08:54:00,METAR KPHL 180854Z 29009KT 10SM CLR M02/M12 A3033 RMK AO2 SLP271 T10171122 53017 $
2026-03-18 07:54:00,METAR KPHL 180754Z 29006KT 10SM CLR M01/M12 A3031 RMK AO2 SLP263 T10111122 $
2026-03-18 06:54:00,METAR KPHL 180654Z 30008KT 10SM CLR M01/M12 A3030 RMK AO2 SLP259 T10111122 $
2026-03-18 05:54:00,METAR KPHL 180554Z 31006KT 10SM CLR M01/M12 A3028 RMK AO2 SLP254 60000 T10061122 10028 21006 51023 $
2026-03-18 04:54:00,METAR KPHL 180454Z 30010KT 10SM FEW065 00/M12 A3027 RMK AO2 SLP248 T00001122 400610000 $
2026-03-18 03:54:00,METAR KPHL 180354Z 30016G23KT 10SM FEW065 01/M11 A3024 RMK AO2 SLP240 T00061106 $
2026-03-18 02:54:00,METAR KPHL 180254Z 28013KT 10SM BKN050 BKN070 01/M09 A3021 RMK AO2 SNB32E49 SLP231 P0000 60000 T00111089 51041 $
2026-03-18 02:49:00,SPECI KPHL 180249Z 28013KT 10SM BKN050 BKN070 01/M09 A3021 RMK AO2 SNB32E49 P0000 $
2026-03-18 02:32:00,SPECI KPHL 180232Z 29016G24KT 7SM -SN SCT045 BKN070 01/M09 A3021 RMK AO2 SNB32 P0000 T00111094 $
2026-03-18 01:54:00,METAR KPHL 180154Z 29012KT 10SM SCT060 02/M11 A3018 RMK AO2 SLP218 T00171106 $
2026-03-18 00:54:00,METAR KPHL 180054Z 30011KT 10SM BKN065 BKN090 03/M12 A3014 RMK AO2 SLP205 T00281117 $
2026-03-17 23:54:00,METAR KPHL 172354Z 28013KT 10SM SCT065 BKN090 03/M12 A3009 RMK AO2 SLP189 T00281117 10061 20028 51037 $
2026-03-17 22:54:00,METAR KPHL 172254Z 27016G26KT 10SM BKN085 03/M12 A3006 RMK AO2 PK WND 28026/2220 VIRGA SLP179 T00331122 $
2026-03-17 21:54:00,METAR KPHL 172154Z 31019G26KT 10SM BKN070 04/M12 A3002 RMK AO2 PK WND 27029/2125 SLP163 T00441122 $
2026-03-17 20:54:00,METAR KPHL 172054Z 29021G26KT 10SM BKN070 05/M12 A2998 RMK AO2 PK WND 29026/2047 SLP152 T00501117 53013 $
2026-03-17 19:54:00,METAR KPHL 171954Z 29016G25KT 10SM BKN065 BKN250 05/M11 A2995 RMK AO2 PK WND 27030/1922 SLP143 T00501106 $
2026-03-17 18:54:00,METAR KPHL 171854Z 29015KT 10SM BKN065 BKN250 04/M11 A2994 RMK AO2 PK WND 31030/1838 SLP138 T00441106 $
2026-03-17 17:54:00,METAR KPHL 171754Z 30016G29KT 10SM SCT060 SCT250 05/M11 A2994 RMK AO2 PK WND 26032/1737 SLP140 T00501111 10056 20011 56008 $
2026-03-17 16:54:00,METAR KPHL 171654Z 26018G26KT 10SM SCT055 SCT250 05/M09 A2995 RMK AO2 PK WND 26028/1605 SLP140 T00501094 $
2026-03-17 15:54:00,METAR KPHL 171554Z 29017G30KT 10SM SCT050 SCT250 03/M10 A2996 RMK AO2 PK WND 28030/1541 SLP145 T00331100 $
2026-03-17 14:54:00,METAR KPHL 171454Z 27018G24KT 10SM SCT055 SCT090 SCT220 03/M09 A2997 RMK AO2 PK WND 29031/1417 SLP148 T00281094 51037 $
2026-03-17 13:54:00,METAR KPHL 171354Z 28024G32KT 10SM SCT050 SCT090 SCT220 02/M11 A2994 RMK AO2 PK WND 29032/1354 SLP137 T00221106 $
2026-03-17 12:54:00,METAR KPHL 171254Z 28018G31KT 10SM SCT048 SCT090 SCT200 02/M09 A2989 RMK AO2 PK WND 28031/1211 SLP122 T00171094 $
2026-03-17 11:54:00,METAR KPHL 171154Z 27019G29KT 10SM SCT047 SCT090 01/M09 A2986 RMK AO2 PK WND 29032/1126 SLP110 70023 T00111089 10039 20011 53048 $
2026-03-17 10:54:00,METAR KPHL 171054Z 26016KT 10SM BKN050 02/M07 A2980 RMK AO2 PK WND 27029/1014 SLP091 T00171072 $
2026-03-17 09:54:00,METAR KPHL 170954Z 27018KT 10SM SCT048 02/M07 A2976 RMK AO2 PK WND 25033/0858 SLP078 T00221067 $
2026-03-17 08:54:00,METAR KPHL 170854Z 26018G29KT 10SM SCT038 03/M04 A2972 RMK AO2 PK WND 28030/0840 SLP062 T00281044 51039 $
2026-03-17 07:54:00,METAR KPHL 170754Z 27014G24KT 10SM SCT038 03/M03 A2968 RMK AO2 PK WND 26033/0736 SLP050 T00331033 $
2026-03-17 06:54:00,METAR KPHL 170654Z 26012KT 10SM BKN031 03/M01 A2965 RMK AO2 PK WND 26030/0555 SLP039 T00331006 $
2026-03-17 06:47:00,SPECI KPHL 170647Z 26015KT 10SM BKN031 04/M01 A2965 RMK AO2 PK WND 26030/0555 T00391006 $
2026-03-17 05:54:00,METAR KPHL 170554Z 28017G31KT 7SM SCT030 SCT110 04/M01 A2960 RMK AO2 PK WND 28036/0506 RAE32 SLP023 P0000 60011 T00391006 10172 20039 51115 $
2026-03-17 05:33:00,SPECI KPHL 170533Z 27018G29KT 7SM SCT060 BKN110 04/01 A2958 RMK AO2 PK WND 28036/0506 RAE32 P0000 T00440006 $
2026-03-17 04:54:00,METAR KPHL 170454Z 28017G29KT 4SM -RA SCT025 BKN050 OVC090 05/02 A2953 RMK AO2 PK WND 30032/0357 SLP000 P0002 T00500017 402000050 $
2026-03-17 03:54:00,METAR KPHL 170354Z 30019G31KT 4SM -RA BKN037 OVC050 07/04 A2942 RMK AO2 PK WND 30052/0311 WSHFT 0304 SLP964 P0008 T00720039 $
2026-03-17 03:50:00,SPECI KPHL 170350Z 29018G26KT 4SM -RA BKN037 OVC050 07/04 A2943 RMK AO2 PK WND 30052/0311 WSHFT 0304 P0008 $
2026-03-17 03:36:00,SPECI KPHL 170336Z 28018G43KT 6SM -RA FEW023 OVC037 08/04 A2941 RMK AO2 PK WND 30052/0311 WSHFT 0304 P0008 T00780044 $
2026-03-17 03:30:00,SPECI KPHL 170330Z 28026G44KT 6SM -RA SCT010 BKN014 OVC033 08/04 A2940 RMK AO2 PK WND 30052/0311 WSHFT 0304 P0008 T00780044 $
2026-03-17 03:24:00,SPECI KPHL 170324Z 29031G48KT 4SM RA BKN016 OVC033 08/06 A2938 RMK AO2 PK WND 30052/0311 WSHFT 0304 P0008 T00830056 $
2026-03-17 03:18:00,SPECI KPHL 170318Z 29029G52KT 3/4SM +RA BR SQ OVC004 08/06 A2937 RMK AO2 PK WND 30052/0311 WSHFT 0304 PRESRR P0005 T00830061 RVRNO $
2026-03-17 03:11:00,SPECI KPHL 170311Z 29034G52KT 3/4SM +RA BR SQ OVC004 16/14 A2935 RMK AO2 PK WND 30052/0311 PRESRR P0002 T01560139 RVRNO $
2026-03-17 02:54:00,METAR KPHL 170254Z 19017G27KT 3SM -RA BR BKN011 BKN033 OVC044 17/14 A2926 RMK AO2 PK WND 15032/0215 RAB25 SLP909 P0001 60001 T01670144 58032 $
2026-03-17 02:49:00,SPECI KPHL 170249Z 18018G27KT 3SM RA BR BKN011 BKN033 OVC044 17/14 A2926 RMK AO2 PK WND 15032/0215 RAB25 P0001 $
2026-03-17 02:27:00,SPECI KPHL 170227Z 18016G24KT 5SM -RA BR BKN012 BKN044 OVC050 16/14 A2927 RMK AO2 PK WND 15032/0215 RAB25 PRESFR P0000 T01610139 $
2026-03-17 02:06:00,SPECI KPHL 170206Z 18014G25KT 10SM BKN012 OVC028 16/14 A2930 RMK AO2 T01610139 $
2026-03-17 01:54:00,METAR KPHL 170154Z 17017G25KT 10SM SCT014 OVC030 16/14 A2932 RMK AO2 SLP929 T01610139 $
2026-03-17 01:16:00,SPECI KPHL 170116Z 16013G21KT 10SM SCT013 BKN095 OVC230 17/14 A2933 RMK AO2 T01670144 $
2026-03-17 00:54:00,METAR KPHL 170054Z 16015G23KT 10SM BKN013 OVC090 17/15 A2933 RMK AO2 PK WND 17029/0039 SLP931 T01670150 $
2026-03-17 00:43:00,SPECI KPHL 170043Z 16018G29KT 10SM BKN014 OVC090 17/15 A2934 RMK AO2 PK WND 17029/0039 T01720150 $
2026-03-16 23:54:00,METAR KPHL 162354Z 15012KT 10SM FEW011 BKN110 OVC190 17/14 A2936 RMK AO2 PK WND 15027/2321 RAE19 SLP941 P0001 60009 T01670144 10194 20167 58036 $
2026-03-16 23:24:00,SPECI KPHL 162324Z 16012G27KT 10SM SCT012 BKN100 OVC200 17/15 A2938 RMK AO2 PK WND 15027/2321 RAE19 CIG 009V013 P0001 T01670150 $
2026-03-16 23:13:00,SPECI KPHL 162313Z 16014G25KT 10SM -RA BKN011 BKN090 OVC110 17/15 A2939 RMK AO2 PRESFR CIG 009V013 P0001 T01670150 $
2026-03-16 23:00:00,SPECI KPHL 162300Z 17015G23KT 7SM -RA BKN011 OVC090 17/15 A2941 RMK AO2 PRESFR CIG 009V013 P0001 T01670150 $
2026-03-16 22:54:00,METAR KPHL 162254Z 17015G26KT 6SM -RA BR OVC011 17/15 A2942 RMK AO2 PK WND 16027/2230 PRESFR SLP961 CIG 009V013 P0006 T01670150 $
2026-03-16 22:08:00,SPECI KPHL 162208Z 18016KT 6SM -RA BR BKN011 BKN030 OVC060 17/15 A2946 RMK AO2 P0001 T01720150 $
2026-03-16 21:54:00,METAR KPHL 162154Z 18017G25KT 7SM -RA BKN012 OVC032 17/15 A2945 RMK AO2 PK WND 18028/2110 RAE05B27 SLP973 P0000 T01720150 $
2026-03-16 21:05:00,SPECI KPHL 162105Z 17014KT 10SM BKN014 BKN080 OVC100 18/16 A2946 RMK AO2 RAE05 VCSH P0000 T01830156 $
2026-03-16 20:54:00,METAR KPHL 162054Z 17012G23KT 10SM -RA BKN015 BKN080 OVC100 18/16 A2946 RMK AO2 PK WND 18029/2011 SLP977 CIG 013V017 P0001 60002 T01830156 56035 $
2026-03-16 20:06:00,SPECI KPHL 162006Z 18015G27KT 10SM -RA BKN016 BKN080 OVC100 18/16 A2950 RMK AO2 PK WND 16027/1957 P0000 T01830161 $
2026-03-16 19:54:00,METAR KPHL 161954Z 18015G29KT 10SM -RA SCT027 SCT080 OVC110 19/16 A2950 RMK AO2 PK WND 17029/1947 RAE09B26 SLP988 P0000 T01890156 $
2026-03-16 18:54:00,METAR KPHL 161854Z 18016G23KT 10SM -RA FEW020 SCT060 BKN100 OVC200 18/15 A2953 RMK AO2 PK WND 19029/1806 SLP999 P0001 T01830150 $
2026-03-16 17:54:00,METAR KPHL 161754Z 17019G35KT 10SM -RA FEW019 SCT027 SCT050 OVC140 19/15 A2957 RMK AO2 PK WND 15035/1748 RAB35 SLP012 P0000 60003 T01890150 10200 20161 56034 $
2026-03-16 17:04:00,SPECI KPHL 161704Z 19016G28KT 10SM SCT019 BKN040 OVC100 20/15 A2960 RMK AO2 PK WND 18028/1659 CB DSNT N MOV NE VCSH T02000150 $
2026-03-16 16:54:00,METAR KPHL 161654Z 18018G27KT 10SM BKN019 BKN037 OVC080 20/15 A2960 RMK AO2 PK WND 18031/1636 RAE01B21E31 TSB10E31 SLP023 OCNL LTGIC DSNT N CB DSNT N MOV NE VCSH P0000 T02000150 $
2026-03-16 16:33:00,SPECI KPHL 161633Z 18017G24KT 10SM BKN018 BKN070 BKN100 19/16 A2962 RMK AO2 RAE01B21E31 TSB10E31 CB DSNT NW-DSNT N MOV NE VCSH P0000 T01940156 $
2026-03-16 16:11:00,SPECI KPHL 161611Z 20016G24KT 10SM TS BKN016 BKN065CB BKN100 19/16 A2963 RMK AO2 RAE01 TSB10 OCNL LTGIC VC W TS VC W MOV NE VCSH P0000 T01940161 $
2026-03-16 15:54:00,METAR KPHL 161554Z 18014G25KT 10SM -RA BKN013 BKN065 BKN100 19/16 A2962 RMK AO2 PK WND 19027/1518 SLP031 CIG 011V016 P0002 T01890161 $
2026-03-16 15:39:00,SPECI KPHL 161539Z 17016G23KT 8SM BKN013 BKN065 OVC095 19/16 A2964 RMK AO2 PK WND 19027/1518 RAE39 P0000 T01890161 $
2026-03-16 14:54:00,METAR KPHL 161454Z 18014G23KT 10SM -RA BKN013 OVC095 18/16 A2967 RMK AO2 RAB50 SLP046 CIG 010V017 P0000 60001 T01780156 56015 $
2026-03-16 14:29:00,SPECI KPHL 161429Z 18014G22KT 10SM OVC010 18/16 A2967 RMK AO2 T01780156 $
2026-03-16 13:54:00,METAR KPHL 161354Z 16012G20KT 10SM BKN008 OVC020 18/16 A2967 RMK AO2 RAE14 SLP048 P0001 T01830161 $
2026-03-16 13:16:00,SPECI KPHL 161316Z 17011KT 10SM BKN007 OVC023 17/15 A2969 RMK AO2 RAE14 CIG 006V009 VCSH P0001 T01670150 $
2026-03-16 12:54:00,METAR KPHL 161254Z 17010KT 10SM -RA BKN006 OVC023 16/15 A2970 RMK AO2 RAB50 SLP055 CIG 005V008 P0000 T01610150 $
2026-03-16 12:31:00,SPECI KPHL 161231Z 16012KT 10SM BKN006 OVC024 16/15 A2971 RMK AO2 T01610150 $
2026-03-16 12:12:00,SPECI KPHL 161212Z 17010KT 9SM OVC005 16/14 A2971 RMK AO2 T01610144 $
2026-03-16 11:54:00,METAR KPHL 161154Z 17010KT 10SM OVC006 16/14 A2971 RMK AO2 RAB15E37 SLP060 P0000 60023 70029 T01610144 10161 20106 56033 $
2026-03-16 11:38:00,SPECI KPHL 161138Z 17011G22KT 10SM OVC006 16/14 A2971 RMK AO2 RAB15E37 P0000 T01610144 $
2026-03-16 11:15:00,SPECI KPHL 161115Z 17010G19KT 9SM -RA OVC006 16/14 A2972 RMK AO2 RAB15 CIG 005V009 P0000 T01560144 $
2026-03-16 10:54:00,METAR KPHL 161054Z 18012KT 10SM OVC006 16/14 A2974 RMK AO2 RAB0956E30 SLP070 CIG 005V008 P0003 T01610144 $
2026-03-16 10:26:00,SPECI KPHL 161026Z 16012KT 10SM -RA OVC006 16/14 A2975 RMK AO2 RAB0956 CIG 005V008 P0002 T01560144 $
2026-03-16 10:16:00,SPECI KPHL 161016Z 15013G21KT 9SM -RA OVC005 16/14 A2975 RMK AO2 RAB0956 P0002 T01560144 $
2026-03-16 10:07:00,SPECI KPHL 161007Z 17013G25KT 10SM -RA OVC006 16/14 A2976 RMK AO2 RAB0956 CIG 005V008 P0002 T01560144 $
2026-03-16 09:58:00,SPECI KPHL 160958Z 17013KT 7SM -RA OVC006 16/14 A2976 RMK AO2 RAB56 CIG 005V008 P0000 T01610144 $
2026-03-16 09:54:00,METAR KPHL 160954Z 17015G27KT 10SM OVC007 16/14 A2976 RMK AO2 PK WND 18027/0946 SLP078 CIG 006V008 P0001 T01610144 $
2026-03-16 09:32:00,SPECI KPHL 160932Z 17013G24KT 10SM OVC007 16/14 A2977 RMK AO2 PK WND 16027/0907 PRESFR CIG 006V009 P0001 T01610144 $
2026-03-16 08:54:00,METAR KPHL 160854Z 18014G25KT 5SM BR OVC008 16/14 A2981 RMK AO2 PK WND 18027/0836 RAE46 SLP093 P0006 60019 T01610144 56044 $
2026-03-16 08:46:00,SPECI KPHL 160846Z 18013G22KT 5SM BR OVC008 16/14 A2981 RMK AO2 PK WND 18027/0836 RAE46 P0006 T01610144 $
2026-03-16 08:26:00,SPECI KPHL 160826Z 16011KT 6SM -RA BR BKN006 OVC012 16/14 A2982 RMK AO2 P0006 T01560144 $
2026-03-16 08:16:00,SPECI KPHL 160816Z 16010KT 3SM -RA BR OVC005 16/14 A2982 RMK AO2 P0005 T01560144 $
2026-03-16 08:09:00,SPECI KPHL 160809Z 17010KT 1 1/4SM -RA BR OVC005 15/14 A2982 RMK AO2 P0001 T01500139 $
2026-03-16 07:54:00,METAR KPHL 160754Z 16007KT 4SM -RA BR BKN007 OVC012 14/13 A2983 RMK AO2 RAE38B50 SLP102 P0002 T01390128 $
2026-03-16 07:39:00,SPECI KPHL 160739Z 15007KT 4SM BR BKN007 OVC015 14/12 A2985 RMK AO2 RAE38 P0002 T01390122 $
2026-03-16 07:26:00,SPECI KPHL 160726Z 15009KT 3SM -RA BR BKN010 OVC017 13/12 A2985 RMK AO2 P0001 T01330122 $
2026-03-16 07:12:00,SPECI KPHL 160712Z 14008KT 5SM -RA BR BKN008 OVC015 13/12 A2986 RMK AO2 PRESFR P0001 T01330117 $
2026-03-16 06:54:00,METAR KPHL 160654Z 15009KT 1 1/2SM RA BR OVC007 13/12 A2988 RMK AO2 SLP118 P0011 T01330122 $
2026-03-16 06:28:00,SPECI KPHL 160628Z 09006KT 1 1/2SM -RA BR OVC007 11/10 A2990 RMK AO2 PRESFR P0002 T01110100 $
2026-03-16 05:54:00,METAR KPHL 160554Z 06003KT 2 1/2SM -RA BR OVC009 11/09 A2994 RMK AO2 PRESFR SLP136 P0005 60006 T01060094 10111 20094 58058 $
2026-03-16 05:48:00,SPECI KPHL 160548Z 07005KT 2 1/2SM -RA BR OVC009 11/09 A2994 RMK AO2 PRESFR P0005 $
2026-03-16 05:30:00,SPECI KPHL 160530Z 10007KT 2SM RA BR OVC013 11/09 A2996 RMK AO2 PRESFR P0002 T01110094 $
2026-03-16 05:11:00,SPECI KPHL 160511Z 10008KT 3SM -RA BR BKN015 OVC021 11/09 A2998 RMK AO2 P0001 T01110089 $
2026-03-16 04:54:00,METAR KPHL 160454Z 09007KT 5SM -RA BR SCT020 BKN028 OVC036 11/08 A3000 RMK AO2 RAB0359E31B45 SLP157 P0001 T01060083 401110039 $
2026-03-16 04:43:00,SPECI KPHL 160443Z 10008KT 6SM HZ SCT022 BKN028 OVC036 11/08 A3000 RMK AO2 RAB0359E31 PRESFR P0001 T01110083 $
2026-03-16 04:13:00,SPECI KPHL 160413Z 10010KT 7SM -RA OVC042 11/08 A3004 RMK AO2 RAB0359 P0000 T01110078 $
2026-03-16 03:54:00,METAR KPHL 160354Z 10009KT 10SM BKN042 OVC050 11/07 A3005 RMK AO2 SLP177 T01110072 $
2026-03-16 02:54:00,METAR KPHL 160254Z 10008KT 10SM BKN032 OVC040 11/07 A3011 RMK AO2 SLP194 T01060067 58038 $
2026-03-16 01:54:00,METAR KPHL 160154Z 11008G16KT 10SM OVC033 10/06 A3015 RMK AO2 SLP210 T01000061 $
2026-03-16 00:54:00,METAR KPHL 160054Z 10014G20KT 10SM BKN039 OVC060 10/05 A3018 RMK AO2 SLP218 T01000050 $
2026-03-15 23:54:00,METAR KPHL 152354Z 11008KT 10SM OVC040 09/03 A3022 RMK AO2 RAB27E37 SLP232 P0000 60000 T00940033 10100 20094 56023 $
2026-03-15 22:54:00,METAR KPHL 152254Z 10013G22KT 10SM OVC040 10/03 A3023 RMK AO2 SLP237 T01000028 $
2026-03-15 21:54:00,METAR KPHL 152154Z 10011KT 10SM OVC044 09/03 A3027 RMK AO2 SLP248 T00940028 $
2026-03-15 20:54:00,METAR KPHL 152054Z 11009KT 10SM OVC050 09/02 A3029 RMK AO2 PK WND 11026/2014 SLP255 T00940017 56032 $
2026-03-15 19:54:00,METAR KPHL 151954Z 12014G22KT 10SM OVC050 10/01 A3031 RMK AO2 SLP262 T01000006 $
2026-03-15 18:54:00,METAR KPHL 151854Z 11013KT 10SM OVC050 09/00 A3034 RMK AO2 SLP272 T00940000 $
2026-03-15 17:54:00,METAR KPHL 151754Z 11014G21KT 10SM OVC055 09/M03 A3038 RMK AO2 SLP287 T00941028 10094 20044 58020 $
2026-03-15 16:54:00,METAR KPHL 151654Z 12013KT 10SM OVC055 09/M04 A3041 RMK AO2 SLP295 T00891044 $
2026-03-15 15:54:00,METAR KPHL 151554Z 09013KT 10SM OVC055 08/M06 A3042 RMK AO2 SLP301 T00831056 $
2026-03-15 14:54:00,METAR KPHL 151454Z 09011KT 10SM SCT055 BKN065 BKN350 08/M06 A3044 RMK AO2 SLP307 T00781061 51011 $
2026-03-15 13:54:00,METAR KPHL 151354Z 09010KT 10SM BKN065 BKN150 BKN350 07/M04 A3044 RMK AO2 SLP306 T00671044 $
2026-03-15 12:54:00,METAR KPHL 151254Z 09012KT 10SM BKN150 BKN200 BKN350 06/M04 A3043 RMK AO2 SLP305 T00561039 $
2026-03-15 11:54:00,METAR KPHL 151154Z 08012KT 10SM FEW150 BKN200 BKN350 04/M02 A3041 RMK AO2 SLP296 T00441022 10061 20039 50012 $
2026-03-15 10:54:00,METAR KPHL 151054Z 09009KT 10SM BKN160 OVC200 04/M03 A3043 RMK AO2 SLP303 T00441033 $
2026-03-15 09:54:00,METAR KPHL 150954Z 09006KT 10SM OVC160 05/M05 A3041 RMK AO2 SLP297 T00501050 $
2026-03-15 08:54:00,METAR KPHL 150854Z 08011KT 10SM BKN150 OVC250 05/M06 A3037 RMK AO2 SLP285 T00501061 50005 $
