Time_recorded,METAR
2026-05-02 15:35:00,METAR KHSP 021535Z AUTO 31009G17KT 290V350 10SM CLR 07/M05 A2992 RMK AO2 T00671055
2026-05-02 15:15:00,METAR KHSP 021515Z AUTO 30012G17KT 260V320 10SM CLR 07/M05 A2992 RMK AO2 T00671049
2026-05-02 14:55:00,METAR KHSP 021455Z AUTO 30012G18KT 270V340 10SM CLR 06/M05 A2992 RMK AO2 T00551051
2026-05-02 14:35:00,METAR KHSP 021435Z AUTO 30008G18KT 260V330 10SM CLR 05/M04 A2992 RMK AO2 T00501041
2026-05-02 14:15:00,METAR KHSP 021415Z AUTO 30011G16KT 10SM CLR 04/M04 A2992 RMK AO2 T00371045
2026-05-02 13:55:00,METAR KHSP 021355Z AUTO 29014G22KT 10SM CLR 03/M04 A2991 RMK AO2 T00311038
2026-05-02 13:35:00,METAR KHSP 021335Z AUTO 29015G21KT 10SM CLR 03/M03 A2991 RMK AO2 T00251032
2026-05-02 13:15:00,METAR KHSP 021315Z AUTO 28014KT 10SM CLR 03/M02 A2991 RMK AO2 T00251020
2026-05-02 12:55:00,METAR KHSP 021255Z AUTO 30011KT 10SM CLR 02/M02 A2991 RMK AO2 T00211020
2026-05-02 12:35:00,METAR KHSP 021235Z AUTO 27008KT 10SM CLR 02/M01 A2992 RMK AO2 T00201014
2026-05-02 12:15:00,METAR KHSP 021215Z AUTO 30008KT 10SM CLR 02/M02 A2991 RMK AO2 T00161016
2026-05-02 11:55:00,METAR KHSP 021155Z AUTO 29007KT 10SM CLR 01/M02 A2991 RMK AO2 T00131016 10042 20010
2026-05-02 11:35:00,METAR KHSP 021135Z AUTO 30006KT 10SM CLR 01/M02 A2991 RMK AO2 T00121020
2026-05-02 11:15:00,METAR KHSP 021115Z AUTO 31006KT 10SM CLR 01/M02 A2991 RMK AO2 T00111020
2026-05-02 10:55:00,METAR KHSP 021055Z AUTO 30006KT 10SM CLR 01/M02 A2992 RMK AO2 T00101021
2026-05-02 10:35:00,METAR KHSP 021035Z AUTO 30005KT 10SM CLR 01/M02 A2992 RMK AO2 T00101020
2026-05-02 10:15:00,METAR KHSP 021015Z AUTO 32006KT 10SM CLR 01/M02 A2992 RMK AO2 T00121021
2026-05-02 09:55:00,METAR KHSP 020955Z AUTO 31005KT 10SM CLR 01/M02 A2992 RMK AO2 T00131018
2026-05-02 09:35:00,METAR KHSP 020935Z AUTO 31007KT 10SM CLR 02/M02 A2991 RMK AO2 T00161021
2026-05-02 09:15:00,METAR KHSP 020915Z AUTO 31007KT 10SM CLR 02/M02 A2991 RMK AO2 T00201022
2026-05-02 08:55:00,METAR KHSP 020855Z AUTO 30007KT 10SM CLR 02/M01 A2992 RMK AO2 T00201015
2026-05-02 08:35:00,METAR KHSP 020835Z AUTO 32007KT 280V340 10SM CLR 03/M02 A2991 RMK AO2 T00251022
2026-05-02 08:15:00,METAR KHSP 020815Z AUTO 31006KT 10SM SCT045 03/M01 A2990 RMK AO2 T00281015
2026-05-02 07:55:00,METAR KHSP 020755Z AUTO 31007KT 10SM BKN043 03/00 A2991 RMK AO2 T00310000
2026-05-02 07:35:00,METAR KHSP 020735Z AUTO 29006KT 10SM SCT043 04/00 A2991 RMK AO2 T00350004
2026-05-02 07:15:00,METAR KHSP 020715Z AUTO 28010G16KT 10SM CLR 04/00 A2991 RMK AO2 T00360001
2026-05-02 06:55:00,METAR KHSP 020655Z AUTO 28010KT 10SM SCT047 04/01 A2991 RMK AO2 T00380005
2026-05-02 06:35:00,METAR KHSP 020635Z AUTO 29007G17KT 10SM SCT018 04/01 A2992 RMK AO2 T00400006
2026-05-02 06:15:00,METAR KHSP 020615Z AUTO 29011G15KT 10SM SCT018 04/01 A2992 RMK AO2 T00410007
2026-05-02 05:55:00,METAR KHSP 020555Z AUTO 27010G15KT 10SM SCT021 04/01 A2992 RMK AO2 T00420009 10116 20042
2026-05-02 05:35:00,METAR KHSP 020535Z AUTO 28008G16KT 10SM SCT018 SCT024 05/01 A2992 RMK AO2 T00450010
2026-05-02 05:15:00,METAR KHSP 020515Z AUTO 30009G14KT 10SM SCT019 05/01 A2993 RMK AO2 T00450010
2026-05-02 04:55:00,METAR KHSP 020455Z AUTO 31014G18KT 10SM SCT039 SCT045 05/01 A2993 RMK AO2 T00450008 401470021
2026-05-02 04:35:00,METAR KHSP 020435Z AUTO 31012G17KT 10SM SCT039 SCT045 BKN065 05/01 A2993 RMK AO2 T00480008
2026-05-02 04:15:00,METAR KHSP 020415Z AUTO 30012KT 10SM CLR 05/01 A2993 RMK AO2 T00500007
2026-05-02 03:55:00,METAR KHSP 020355Z AUTO 31013G19KT 10SM CLR 05/01 A2993 RMK AO2 T00520007
2026-05-02 03:35:00,METAR KHSP 020335Z AUTO 31013KT 10SM SCT020 SCT026 SCT031 06/01 A2993 RMK AO2 T00550011
2026-05-02 03:15:00,METAR KHSP 020315Z AUTO 31011KT 10SM BKN020 OVC026 06/02 A2993 RMK AO2 T00600021
2026-05-02 02:55:00,METAR KHSP 020255Z AUTO 32009G19KT 10SM BKN020 BKN025 OVC080 06/03 A2992 RMK AO2 T00640027
2026-05-02 02:35:00,METAR KHSP 020235Z AUTO 32011KT 10SM SCT020 BKN026 BKN080 07/03 A2992 RMK AO2 T00650031
2026-05-02 02:15:00,METAR KHSP 020215Z AUTO 33008KT 10SM SCT025 SCT070 BKN085 08/03 A2992 RMK AO2 T00770027
2026-05-02 01:55:00,METAR KHSP 020155Z AUTO 29007G16KT 10SM BKN085 08/02 A2990 RMK AO2 T00820023
2026-05-02 01:35:00,METAR KHSP 020135Z AUTO 29015KT 10SM OVC085 09/02 A2990 RMK AO2 T00880018
2026-05-02 01:15:00,METAR KHSP 020115Z AUTO 31006KT 10SM OVC085 10/01 A2990 RMK AO2 T00950006
2026-05-02 00:55:00,METAR KHSP 020055Z AUTO 30006G14KT 10SM BKN085 10/00 A2990 RMK AO2 T01000000
2026-05-02 00:35:00,METAR KHSP 020035Z AUTO 29009KT 10SM BKN085 10/M01 A2988 RMK AO2 T01031006
2026-05-02 00:15:00,METAR KHSP 020015Z AUTO 29007KT 10SM BKN085 11/M01 A2987 RMK AO2 T01091013
2026-05-01 23:55:00,METAR KHSP 012355Z AUTO 29006KT 10SM BKN085 12/M03 A2986 RMK AO2 T01161028 10147 20116
2026-05-01 23:35:00,METAR KHSP 012335Z AUTO 27010G17KT 10SM OVC085 12/M03 A2985 RMK AO2 T01241032
2026-05-01 23:15:00,METAR KHSP 012315Z AUTO 24009KT 220V280 10SM OVC085 14/M04 A2985 RMK AO2 T01371036
2026-05-01 22:55:00,METAR KHSP 012255Z AUTO 26010G16KT 10SM OVC085 14/M04 A2985 RMK AO2 T01351040
2026-05-01 22:35:00,METAR KHSP 012235Z AUTO 23012G16KT 190V280 10SM OVC085 14/M02 A2985 RMK AO2 T01411021
2026-05-01 22:15:00,METAR KHSP 012215Z AUTO 17008KT 10SM OVC085 13/02 A2985 RMK AO2 T01250019
2026-05-01 21:55:00,METAR KHSP 012155Z AUTO 18008KT 10SM SCT070 OVC085 12/02 A2985 RMK AO2 T01200015
2026-05-01 21:35:00,METAR KHSP 012135Z AUTO 17008KT 10SM BKN070 OVC085 12/01 A2985 RMK AO2 T01170011
2026-05-01 21:15:00,METAR KHSP 012115Z AUTO 16006KT 10SM BKN070 OVC085 12/01 A2986 RMK AO2 T01200011
2026-05-01 20:55:00,METAR KHSP 012055Z AUTO 19006KT 10SM BKN080 OVC090 12/01 A2986 RMK AO2 T01220009
2026-05-01 20:35:00,METAR KHSP 012035Z AUTO 19008KT 10SM SCT070 BKN080 14/01 A2986 RMK AO2 T01400012
2026-05-01 20:15:00,METAR KHSP 012015Z AUTO 19004KT 10SM SCT060 BKN085 13/01 A2987 RMK AO2 T01300006
2026-05-01 19:55:00,METAR KHSP 011955Z AUTO 17009G15KT 10SM SCT060 SCT095 14/01 A2987 RMK AO2 T01420007
2026-05-01 19:35:00,METAR KHSP 011935Z AUTO 19008KT 140V220 10SM SCT060 SCT075 13/01 A2988 RMK AO2 T01340007
2026-05-01 19:15:00,METAR KHSP 011915Z AUTO 19006KT 10SM SCT050 SCT060 SCT075 13/01 A2989 RMK AO2 T01280005
2026-05-01 18:55:00,METAR KHSP 011855Z AUTO 20007G15KT 10SM SCT050 13/00 A2989 RMK AO2 T01290002
2026-05-01 18:35:00,METAR KHSP 011835Z AUTO 17006G14KT 150V210 10SM SCT050 BKN070 12/M01 A2990 RMK AO2 T01211012
2026-05-01 17:55:00,METAR KHSP 011755Z AUTO 19007G15KT 160V220 10SM CLR 13/00 A2992 RMK AO2 T01261005 10126 20033
2026-05-01 17:35:00,METAR KHSP 011735Z AUTO 18008G15KT 140V200 10SM CLR 11/00 A2992 RMK AO2 T01141004
2026-05-01 17:15:00,METAR KHSP 011715Z AUTO 14007G16KT 100V190 10SM SCT040 11/00 A2992 RMK AO2 T01080002
2026-05-01 16:55:00,METAR KHSP 011655Z AUTO 16007KT 140V210 10SM CLR 11/00 A2993 RMK AO2 T01050000
2026-05-01 16:35:00,METAR KHSP 011635Z AUTO 12007KT 090V150 5SM HZ CLR 10/00 A2993 RMK AO2 T01000003
2026-05-01 16:15:00,METAR KHSP 011615Z AUTO 12007G14KT 10SM SCT120 09/M01 A2993 RMK AO2 T00921006
2026-05-01 15:55:00,METAR KHSP 011555Z AUTO 14009G15KT 10SM CLR 09/M02 A2994 RMK AO2 T00911018
2026-05-01 15:35:00,METAR KHSP 011535Z AUTO 15007KT 10SM SCT120 08/M02 A2995 RMK AO2 T00841024
2026-05-01 15:15:00,METAR KHSP 011515Z AUTO 16007KT 10SM CLR 08/M02 A2996 RMK AO2 T00801018
2026-05-01 14:55:00,METAR KHSP 011455Z AUTO 11007KT 10SM SCT110 08/M01 A2996 RMK AO2 T00751012
2026-05-01 14:35:00,METAR KHSP 011435Z AUTO 11005KT 10SM BKN120 07/M02 A2996 RMK AO2 T00671019
2026-05-01 14:15:00,METAR KHSP 011415Z AUTO 16005KT 10SM SCT120 06/M01 A2996 RMK AO2 T00621010
2026-05-01 13:55:00,METAR KHSP 011355Z AUTO 14005KT 10SM SCT120 06/00 A2996 RMK AO2 T00620001
2026-05-01 13:35:00,METAR KHSP 011335Z AUTO 16006KT 10SM CLR 06/00 A2995 RMK AO2 T00580000
2026-05-01 13:15:00,METAR KHSP 011315Z AUTO 14004KT 10SM SCT120 06/00 A2995 RMK AO2 T00550002
2026-05-01 12:55:00,METAR KHSP 011255Z AUTO 14008KT 10SM SCT120 04/00 A2995 RMK AO2 T00430000
2026-05-01 12:35:00,METAR KHSP 011235Z AUTO 14005KT 10SM SCT120 04/00 A2995 RMK AO2 T00381002
2026-05-01 12:15:00,METAR KHSP 011215Z AUTO 18005KT 10SM CLR 04/00 A2994 RMK AO2 T00350000
2026-05-01 11:55:00,METAR KHSP 011155Z AUTO 14003KT 10SM CLR 04/M01 A2994 RMK AO2 T00411009 10047 20021
2026-05-01 11:35:00,METAR KHSP 011135Z AUTO 13003KT 10SM CLR 04/M02 A2994 RMK AO2 T00391019
2026-05-01 11:15:00,METAR KHSP 011115Z AUTO 00000KT 10SM CLR 03/M02 A2994 RMK AO2 T00271017
2026-05-01 10:55:00,METAR KHSP 011055Z AUTO 03005KT 10SM CLR 03/M02 A2994 RMK AO2 T00251021
2026-05-01 10:35:00,METAR KHSP 011035Z AUTO 03003KT 10SM CLR 03/M03 A2994 RMK AO2 T00281030
2026-05-01 10:15:00,METAR KHSP 011015Z AUTO 32006KT 10SM CLR 03/M02 A2993 RMK AO2 T00261018
2026-05-01 09:55:00,METAR KHSP 010955Z AUTO 32008KT 10SM CLR 03/M02 A2993 RMK AO2 T00261017
2026-05-01 09:35:00,METAR KHSP 010935Z AUTO 31008KT 10SM CLR 03/M01 A2993 RMK AO2 T00261009
2026-05-01 09:15:00,METAR KHSP 010915Z AUTO 30009KT 10SM SCT120 03/00 A2994 RMK AO2 T00251002
2026-05-01 08:55:00,METAR KHSP 010855Z AUTO 30008KT 10SM CLR 03/00 A2994 RMK AO2 T00250000
2026-05-01 08:35:00,METAR KHSP 010835Z AUTO 30009KT 10SM CLR 02/00 A2994 RMK AO2 T00240000
2026-05-01 08:15:00,METAR KHSP 010815Z AUTO 29011KT 10SM CLR 02/00 A2994 RMK AO2 T00220000
2026-05-01 07:55:00,METAR KHSP 010755Z AUTO 29009KT 10SM CLR 02/00 A2995 RMK AO2 T00220000
2026-05-01 07:35:00,METAR KHSP 010735Z AUTO 29007KT 10SM CLR 02/00 A2995 RMK AO2 T00220000
2026-05-01 07:15:00,METAR KHSP 010715Z AUTO 28006KT 10SM CLR 02/00 A2995 RMK AO2 T00240000
2026-05-01 06:55:00,METAR KHSP 010655Z AUTO 29006KT 10SM CLR 02/00 A2995 RMK AO2 T00210000
2026-05-01 06:35:00,METAR KHSP 010635Z AUTO 29006KT 10SM CLR 02/00 A2995 RMK AO2 T00240001
2026-05-01 06:15:00,METAR KHSP 010615Z AUTO 30007KT 10SM CLR 03/00 A2995 RMK AO2 T00250000
2026-05-01 05:55:00,METAR KHSP 010555Z AUTO 31009KT 10SM CLR 03/00 A2995 RMK AO2 T00250000 10070 20025
2026-05-01 05:35:00,METAR KHSP 010535Z AUTO 30010G14KT 10SM CLR 03/00 A2995 RMK AO2 T00270000
2026-05-01 05:15:00,METAR KHSP 010515Z AUTO 31007G14KT 10SM SCT021 03/00 A2996 RMK AO2 T00270000
2026-05-01 04:55:00,METAR KHSP 010455Z AUTO 31007KT 10SM SCT021 03/00 A2996 RMK AO2 T00300000 401100029
2026-05-01 04:35:00,METAR KHSP 010435Z AUTO 31008G14KT 10SM SCT016 SCT022 03/00 A2995 RMK AO2 T00300002
2026-05-01 04:15:00,METAR KHSP 010415Z AUTO 31010G16KT 10SM SCT016 03/01 A2996 RMK AO2 T00310005
2026-05-01 03:55:00,METAR KHSP 010355Z AUTO 29008KT 10SM SCT014 03/01 A2996 RMK AO2 T00320005
2026-05-01 03:35:00,METAR KHSP 010335Z AUTO 30007KT 10SM SCT014 SCT024 BKN029 04/01 A2995 RMK AO2 T00350005
2026-05-01 03:15:00,METAR KHSP 010315Z AUTO 29007KT 270V330 10SM BKN014 BKN024 OVC028 04/01 A2995 RMK AO2 T00400012
2026-05-01 02:55:00,METAR KHSP 010255Z AUTO 30007KT 10SM SCT016 BKN022 BKN028 04/01 A2996 RMK AO2 T00400012
2026-05-01 02:35:00,METAR KHSP 010235Z AUTO 31007KT 10SM SCT017 SCT036 04/01 A2996 RMK AO2 T00380010
2026-05-01 02:15:00,METAR KHSP 010215Z AUTO 31005G14KT 10SM SCT017 SCT024 BKN038 04/01 A2995 RMK AO2 T00400011
2026-05-01 01:55:00,METAR KHSP 010155Z AUTO 30006G16KT 10SM SCT019 BKN026 BKN036 05/01 A2995 RMK AO2 T00450010
2026-05-01 01:35:00,METAR KHSP 010135Z AUTO 31008KT 10SM BKN030 OVC036 05/01 A2994 RMK AO2 T00470011
2026-05-01 01:15:00,METAR KHSP 010115Z AUTO 33009KT 10SM SCT033 05/01 A2994 RMK AO2 T00470012
2026-05-01 00:55:00,METAR KHSP 010055Z AUTO 33007KT 280V360 10SM SCT037 05/01 A2992 RMK AO2 T00540005
2026-05-01 00:35:00,METAR KHSP 010035Z AUTO 31006G14KT 7SM SCT039 06/M01 A2992 RMK AO2 T00611009
2026-05-01 00:15:00,METAR KHSP 010015Z AUTO 31010G17KT 10SM CLR 07/M02 A2992 RMK AO2 T00661016
2026-04-30 23:55:00,METAR KHSP 302355Z AUTO 30008G15KT 270V330 10SM CLR 07/M02 A2990 RMK AO2 T00711020 10110 20071
2026-04-30 23:35:00,METAR KHSP 302335Z AUTO 30010G18KT 10SM CLR 08/M02 A2989 RMK AO2 T00761023
2026-04-30 23:15:00,METAR KHSP 302315Z AUTO 29012G19KT 10SM CLR 08/M02 A2990 RMK AO2 T00831022
2026-04-30 22:55:00,METAR KHSP 302255Z AUTO 29007G19KT 250V330 10SM SCT050 09/M02 A2990 RMK AO2 T00871025
2026-04-30 22:35:00,METAR KHSP 302235Z AUTO 28012G16KT 7SM CLR 09/M02 A2990 RMK AO2 T00931024
2026-04-30 22:15:00,METAR KHSP 302215Z AUTO 29012G18KT 260V320 10SM SCT047 09/M02 A2989 RMK AO2 T00871025
2026-04-30 21:55:00,METAR KHSP 302155Z AUTO 30012G19KT 10SM SCT045 09/M02 A2989 RMK AO2 T00941025
2026-04-30 21:35:00,METAR KHSP 302135Z AUTO 27011G17KT 10SM SCT045 10/M02 A2988 RMK AO2 T00981025
2026-04-30 21:15:00,METAR KHSP 302115Z AUTO 29013G19KT 10SM BKN045 10/M02 A2988 RMK AO2 T00961017
2026-04-30 20:55:00,METAR KHSP 302055Z AUTO 31012G20KT 270V340 10SM SCT045 10/M02 A2988 RMK AO2 T00981016
2026-04-30 20:35:00,METAR KHSP 302035Z AUTO 27016G24KT 10SM SCT045 10/M02 A2987 RMK AO2 T00991023
2026-04-30 20:15:00,METAR KHSP 302015Z AUTO 29009G17KT 260V330 7SM BKN045 10/M01 A2987 RMK AO2 T01011012
2026-04-30 19:55:00,METAR KHSP 301955Z AUTO 29013G21KT 10SM BKN045 11/M01 A2987 RMK AO2 T01081012
2026-04-30 19:35:00,METAR KHSP 301935Z AUTO 29011G22KT 250V310 10SM SCT047 11/M02 A2987 RMK AO2 T01051018
2026-04-30 19:15:00,METAR KHSP 301915Z AUTO 28011G21KT 250V320 10SM CLR 11/M01 A2987 RMK AO2 T01061014
2026-04-30 18:55:00,METAR KHSP 301855Z AUTO 28017G23KT 7SM SCT045 11/M01 A2987 RMK AO2 T01051013
2026-04-30 18:35:00,METAR KHSP 301835Z AUTO 29017G22KT 10SM SCT043 10/M02 A2987 RMK AO2 T00961017
2026-04-30 18:15:00,METAR KHSP 301815Z AUTO 31012G21KT 10SM SCT041 11/00 A2987 RMK AO2 T01081002
2026-04-30 17:55:00,METAR KHSP 301755Z AUTO 29012G19KT 270V330 10SM SCT039 10/M01 A2987 RMK AO2 T01001008 10102 20060
2026-04-30 17:35:00,METAR KHSP 301735Z AUTO 30015G22KT 10SM SCT039 10/00 A2987 RMK AO2 T00991001
2026-04-30 17:15:00,METAR KHSP 301715Z AUTO 28018G21KT 7SM BKN037 10/00 A2987 RMK AO2 T00961003
2026-04-30 16:55:00,METAR KHSP 301655Z AUTO 27017G24KT 10SM BKN037 10/00 A2987 RMK AO2 T00971001
2026-04-30 16:35:00,METAR KHSP 301635Z AUTO 29012G20KT 250V320 10SM BKN035 09/00 A2987 RMK AO2 T00920000
2026-04-30 16:15:00,METAR KHSP 301615Z AUTO 29011G24KT 10SM BKN033 09/00 A2987 RMK AO2 T00940004
2026-04-30 15:55:00,METAR KHSP 301555Z AUTO 29014G22KT 10SM BKN033 09/00 A2988 RMK AO2 T00870003
2026-04-30 14:55:00,METAR KHSP 301455Z AUTO 27017G24KT 10SM OVC025 09/02 A2987 RMK AO2 T00850019
2026-04-30 14:35:00,METAR KHSP 301435Z AUTO 28018G21KT 10SM BKN022 OVC029 08/02 A2987 RMK AO2 T00790024
2026-04-30 14:15:00,METAR KHSP 301415Z AUTO 28015G22KT 260V320 7SM BKN020 OVC029 08/03 A2986 RMK AO2 T00840029
2026-04-30 13:55:00,METAR KHSP 301355Z AUTO 28013G19KT 10SM BKN017 BKN021 OVC031 08/03 A2986 RMK AO2 T00760034
2026-04-30 13:35:00,METAR KHSP 301335Z AUTO 28012G19KT 10SM BKN017 BKN029 BKN035 08/04 A2986 RMK AO2 T00770038
2026-04-30 13:15:00,METAR KHSP 301315Z AUTO 28011G14KT 7SM SCT017 OVC030 08/04 A2987 RMK AO2 T00770041
2026-04-30 12:55:00,METAR KHSP 301255Z AUTO 28013G19KT 10SM SCT015 BKN028 OVC034 08/04 A2987 RMK AO2 T00760038
2026-04-30 12:35:00,METAR KHSP 301235Z AUTO 28014G21KT 10SM SCT019 OVC026 07/03 A2987 RMK AO2 T00670034
2026-04-30 12:15:00,METAR KHSP 301215Z AUTO 28015G18KT 10SM SCT010 BKN017 OVC024 07/04 A2986 RMK AO2 T00650044
2026-04-30 11:55:00,METAR KHSP 301155Z AUTO 27010KT 10SM OVC012 06/04 A2985 RMK AO2 70101 T00610041 10080 20060
2026-04-30 11:35:00,METAR KHSP 301135Z AUTO 30008G14KT 10SM OVC012 06/04 A2984 RMK AO2 T00610037
2026-04-30 11:15:00,METAR KHSP 301115Z AUTO 31008KT 280V340 10SM OVC012 06/04 A2983 RMK AO2 T00620040
2026-04-30 10:55:00,METAR KHSP 301055Z AUTO 32007KT 10SM OVC012 07/05 A2981 RMK AO2 T00650045
2026-04-30 10:35:00,METAR KHSP 301035Z AUTO 29009KT 10SM BKN014 OVC020 07/04 A2981 RMK AO2 T00660044
2026-04-30 10:15:00,METAR KHSP 301015Z AUTO 28010G17KT 10SM SCT015 BKN021 BKN028 07/04 A2980 RMK AO2 T00670041
2026-04-30 09:55:00,METAR KHSP 300955Z AUTO 30010G20KT 270V330 10SM SCT015 SCT021 BKN026 07/04 A2979 RMK AO2 T00700041
2026-04-30 09:35:00,METAR KHSP 300935Z AUTO 28010G18KT 260V320 10SM BKN017 OVC025 07/05 A2980 RMK AO2 T00720046
2026-04-30 09:15:00,METAR KHSP 300915Z AUTO 27011G20KT 10SM BKN020 BKN028 08/05 A2981 RMK AO2 T00750045
2026-04-30 08:55:00,METAR KHSP 300855Z AUTO 28012G22KT 10SM SCT013 BKN019 BKN026 08/05 A2981 RMK AO2 T00750050
2026-04-30 08:35:00,METAR KHSP 300835Z AUTO 28013G25KT 10SM SCT003 SCT009 BKN016 08/06 A2980 RMK AO2 T00760056
2026-04-30 08:15:00,METAR KHSP 300815Z AUTO 29013G22KT 2 1/2SM BR OVC003 08/07 A2979 RMK AO2 T00750070
2026-04-30 07:55:00,METAR KHSP 300755Z AUTO 27015G25KT 5SM BR BKN003 OVC008 08/07 A2979 RMK AO2 T00750068
2026-04-30 07:35:00,METAR KHSP 300735Z AUTO 27017G22KT 10SM SCT006 OVC011 08/07 A2980 RMK AO2 T00750067
2026-04-30 07:15:00,METAR KHSP 300715Z AUTO 27014G18KT 10SM BKN009 OVC013 08/07 A2981 RMK AO2 T00770066
2026-04-30 06:55:00,METAR KHSP 300655Z AUTO 27012G19KT 10SM SCT007 BKN011 OVC017 08/07 A2983 RMK AO2 T00770065
2026-04-30 06:35:00,METAR KHSP 300635Z AUTO 26015G18KT 10SM OVC011 08/07 A2983 RMK AO2 T00800066
2026-04-30 06:15:00,METAR KHSP 300615Z AUTO 27013G20KT 10SM BKN010 OVC013 08/07 A2984 RMK AO2 T00800066
2026-04-30 05:55:00,METAR KHSP 300555Z AUTO 26012G16KT 10SM OVC010 08/07 A2984 RMK AO2 60001 T00800068 10128 20078
2026-04-30 05:35:00,METAR KHSP 300535Z AUTO 27010G15KT 10SM BKN012 OVC016 08/07 A2984 RMK AO2 T00780066
2026-04-30 05:15:00,METAR KHSP 300515Z AUTO 28012G15KT 10SM BKN012 08/07 A2983 RMK AO2 T00800067
2026-04-30 04:55:00,METAR KHSP 300455Z AUTO 27011G17KT 10SM BKN012 08/07 A2984 RMK AO2 T00800070 401550080
2026-04-30 04:35:00,METAR KHSP 300435Z AUTO 28012G18KT 10SM SCT012 08/07 A2984 RMK AO2 T00830071
2026-04-30 04:15:00,METAR KHSP 300415Z AUTO 28015G22KT 250V320 10SM SCT012 09/07 A2984 RMK AO2 T00860072
2026-04-30 03:55:00,METAR KHSP 300355Z AUTO 27014G20KT 10SM SCT003 SCT007 BKN012 09/08 A2984 RMK AO2 T00880078
2026-04-30 03:35:00,METAR KHSP 300335Z AUTO 28017G26KT 10SM BKN005 OVC010 09/09 A2984 RMK AO2 T00930085
2026-04-30 03:15:00,METAR KHSP 300315Z AUTO 28017G25KT 10SM BKN001 OVC008 10/09 A2984 RMK AO2 T00960090
2026-04-30 02:55:00,METAR KHSP 300255Z AUTO 28017G21KT 3/4SM -RA OVC001 10/10 A2985 RMK AO2 P0001 60001 T01000096
2026-04-30 02:35:00,METAR KHSP 300235Z AUTO 28015G21KT M1/4SM -RA OVC001 10/10 A2985 RMK AO2 T01040100
2026-04-30 02:15:00,METAR KHSP 300215Z AUTO 27011G16KT 1/4SM -RA OVC001 11/10 A2986 RMK AO2 T01050100
2026-04-30 01:55:00,METAR KHSP 300155Z AUTO 28009KT 5SM RA SCT006 BKN010 OVC015 11/10 A2986 RMK AO2 T01070098
2026-04-30 01:35:00,METAR KHSP 300135Z AUTO 27010G14KT 10SM SCT009 OVC015 11/10 A2985 RMK AO2 T01080095
2026-04-30 01:15:00,METAR KHSP 300115Z AUTO 29008KT 10SM BKN011 BKN018 11/10 A2985 RMK AO2 T01080097
2026-04-30 00:55:00,METAR KHSP 300055Z AUTO 27016G24KT 10SM SCT009 OVC014 11/10 A2985 RMK AO2 T01120097
2026-04-30 00:35:00,METAR KHSP 300035Z AUTO 29014G27KT 10SM SCT006 OVC012 12/10 A2984 RMK AO2 T01150100
2026-04-30 00:15:00,METAR KHSP 300015Z AUTO 29012G23KT 7SM SCT002 SCT007 OVC015 12/11 A2985 RMK AO2 T01200105
2026-04-29 23:55:00,METAR KHSP 292355Z AUTO 28013G21KT 250V310 3SM -RA BKN002 OVC007 13/12 A2983 RMK AO2 P0001 60028 T01290123 10148 20125
2026-04-29 23:35:00,METAR KHSP 292335Z AUTO 28010G19KT 4SM BR BKN001 BKN007 OVC016 13/13 A2981 RMK AO2 T01320125
2026-04-29 23:15:00,METAR KHSP 292315Z AUTO 29011G16KT M1/4SM -RA OVC001 14/13 A2981 RMK AO2 LTG DSNT E T01360132
2026-04-29 22:55:00,METAR KHSP 292255Z AUTO 27012G17KT 7SM VCTS BKN003 OVC009 14/13 A2980 RMK AO2 LTG DSNT E AND S P0005 T01390133
2026-04-29 22:35:00,METAR KHSP 292235Z AUTO 26010G14KT 5SM RA BKN001 BKN007 OVC015 14/13 A2979 RMK AO2 LTG DSNT SW P0004 T01360132
2026-04-29 22:15:00,METAR KHSP 292215Z AUTO 27012G16KT 2SM -RA OVC001 14/13 A2980 RMK AO2 VIS 3/4V5 LTG DSNT ALQDS P0001 T01390133
2026-04-29 21:55:00,METAR KHSP 292155Z AUTO 31007KT M1/4SM +VCTSRA OVC001 15/14 A2980 RMK AO2 LTG DSNT NE AND SW P0014 T01450140
2026-04-29 21:35:00,METAR KHSP 292135Z AUTO 22006KT 1/2SM -TSRA OVC001 14/14 A2979 RMK AO2 VIS M1/4V5 LTG DSNT W THRU N T01390135
2026-04-29 21:15:00,METAR KHSP 292115Z AUTO 16005KT M1/4SM RA OVC001 14/13 A2979 RMK AO2 T01360132
2026-04-29 20:55:00,METAR KHSP 292055Z AUTO 17005KT M1/4SM -RA OVC003 14/13 A2979 RMK AO2 60006 T01380133
2026-04-29 20:35:00,METAR KHSP 292035Z AUTO 22007KT 4SM BR OVC003 15/14 A2980 RMK AO2 T01450138
2026-04-29 20:15:00,METAR KHSP 292015Z AUTO 23011G17KT 3SM BR OVC003 15/14 A2982 RMK AO2 LTG DSNT NW T01460142
2026-04-29 19:55:00,METAR KHSP 291955Z AUTO 23005KT M1/4SM RA OVC003 13/13 A2982 RMK AO2 LTG DSNT W AND NW P0004 T01310127
2026-04-29 19:35:00,METAR KHSP 291935Z AUTO 17007KT 130V200 1/4SM -RA OVC003 13/13 A2983 RMK AO2 VIS M1/4V5 LTG DSNT W T01340128
2026-04-29 19:15:00,METAR KHSP 291915Z AUTO 21010G14KT 5SM BR OVC005 14/13 A2984 RMK AO2 T01370131
2026-04-29 18:55:00,METAR KHSP 291855Z AUTO 21010G14KT 180V240 1 1/2SM BR OVC002 14/14 A2985 RMK AO2 VIS 1/4V5 P0002 T01410138
2026-04-29 18:35:00,METAR KHSP 291835Z AUTO 18007KT M1/4SM -RA OVC002 13/12 A2985 RMK AO2 P0002 T01260123
2026-04-29 18:15:00,METAR KHSP 291815Z AUTO 16005KT M1/4SM RA OVC002 13/12 A2986 RMK AO2 P0001 T01260122
2026-04-29 17:55:00,METAR KHSP 291755Z AUTO 19005KT M1/4SM -RA OVC002 13/13 A2987 RMK AO2 60072 T01290125 10155 20115
2026-04-29 17:35:00,METAR KHSP 291735Z AUTO 18005KT M1/4SM RA OVC002 13/12 A2988 RMK AO2 T01260122
2026-04-29 17:15:00,METAR KHSP 291715Z AUTO 16005KT M1/4SM FG OVC002 13/13 A2989 RMK AO2 T01300125
2026-04-29 16:55:00,METAR KHSP 291655Z AUTO 18003KT M1/4SM RA OVC002 13/12 A2990 RMK AO2 P0001 T01280123
2026-04-29 16:35:00,METAR KHSP 291635Z AUTO 15004KT 1 1/2SM BR BKN002 BKN041 OVC060 13/12 A2991 RMK AO2 VIS 1/2V5 P0001 T01280120
2026-04-29 16:15:00,METAR KHSP 291615Z AUTO 16004KT 10SM -RA SCT055 OVC070 14/12 A2992 RMK AO2 P0001 T01350121
2026-04-29 15:55:00,METAR KHSP 291555Z AUTO 20003KT 10SM -RA SCT049 SCT060 OVC070 13/12 A2993 RMK AO2 P0009 T01250116
2026-04-29 15:35:00,METAR KHSP 291535Z AUTO 22005KT 10SM RA SCT047 SCT055 OVC070 12/11 A2994 RMK AO2 P0008 T01230108
2026-04-29 15:15:00,METAR KHSP 291515Z AUTO 24008KT 5SM RA SCT040 SCT048 OVC060 12/12 A2995 RMK AO2 LTG DSNT N P0006 T01220116
2026-04-29 14:55:00,METAR KHSP 291455Z AUTO 25007KT 5SM RA SCT003 BKN047 OVC060 12/11 A2995 RMK AO2 LTG DSNT N P0043 60062 T01170108
2026-04-29 14:35:00,METAR KHSP 291435Z AUTO 26007KT 1/4SM RA OVC003 12/12 A2995 RMK AO2 P0035 T01200115
2026-04-29 14:15:00,METAR KHSP 291415Z AUTO 25005KT 1 1/4SM +RA OVC003 13/12 A2995 RMK AO2 P0028 T01280121
2026-04-29 13:55:00,METAR KHSP 291355Z AUTO 29006KT M1/4SM +RA OVC003 13/12 A2994 RMK AO2 LTG DSNT N P0018 T01260120
2026-04-29 13:35:00,METAR KHSP 291335Z AUTO 26008KT 7SM -RA SCT050 OVC070 14/13 A2995 RMK AO2 T01390125
2026-04-29 13:15:00,METAR KHSP 291315Z AUTO 25007KT 7SM BKN070 OVC090 15/12 A2996 RMK AO2 T01510122
2026-04-29 12:55:00,METAR KHSP 291255Z AUTO 23007KT 7SM OVC100 16/12 A2996 RMK AO2 T01550124
2026-04-29 12:35:00,METAR KHSP 291235Z AUTO 22008KT 10SM OVC100 14/13 A2996 RMK AO2 T01430126
2026-04-29 12:15:00,METAR KHSP 291215Z AUTO 23009KT 7SM SCT001 BKN110 13/13 A2997 RMK AO2 LTG DSNT NW T01340128
2026-04-29 11:55:00,METAR KHSP 291155Z AUTO 20004KT M1/4SM RA OVC001 11/11 A2997 RMK AO2 T01140109 10137 20114
2026-04-29 11:35:00,METAR KHSP 291135Z AUTO 20007KT 1 3/4SM BR SCT001 BKN008 OVC018 12/12 A2998 RMK AO2 VIS 1/2V5 LTG DSNT SW AND W T01220118
2026-04-29 11:15:00,METAR KHSP 291115Z AUTO 17006KT 1/2SM FG SCT001 BKN014 OVC110 13/11 A2997 RMK AO2 T01300112
2026-04-29 10:55:00,METAR KHSP 291055Z AUTO 18003KT 10SM SCT120 13/12 A2994 RMK AO2 LTG DSNT W T01320117
2026-04-29 10:35:00,METAR KHSP 291035Z AUTO 00000KT 10SM CLR 14/12 A2994 RMK AO2 T01350116
2026-04-29 10:15:00,METAR KHSP 291015Z AUTO 22004KT 10SM CLR 14/12 A2995 RMK AO2 T01350115
2026-04-29 09:55:00,METAR KHSP 290955Z AUTO 22004KT 10SM CLR 14/11 A2995 RMK AO2 T01350111
2026-04-29 09:35:00,METAR KHSP 290935Z AUTO 22005KT 10SM CLR 14/11 A2997 RMK AO2 T01360111
2026-04-29 09:15:00,METAR KHSP 290915Z AUTO 21004KT 10SM CLR 14/11 A2997 RMK AO2 T01360108
2026-04-29 08:55:00,METAR KHSP 290855Z AUTO 22007KT 10SM SCT013 13/11 A2999 RMK AO2 T01340108
2026-04-29 08:35:00,METAR KHSP 290835Z AUTO 23007KT 10SM BKN013 BKN038 14/11 A3000 RMK AO2 T01350107
2026-04-29 08:15:00,METAR KHSP 290815Z AUTO 23009KT 10SM SCT038 13/11 A3000 RMK AO2 T01310105
2026-04-29 07:55:00,METAR KHSP 290755Z AUTO 24009KT 10SM CLR 13/10 A2999 RMK AO2 T01250101
2026-04-29 07:35:00,METAR KHSP 290735Z AUTO 24008KT 10SM CLR 12/10 A2998 RMK AO2 T01240101
2026-04-29 07:15:00,METAR KHSP 290715Z AUTO 24007KT 10SM CLR 13/10 A2999 RMK AO2 T01280103
2026-04-29 06:55:00,METAR KHSP 290655Z AUTO 24008KT 10SM CLR 12/10 A3000 RMK AO2 T01160101
2026-04-29 06:35:00,METAR KHSP 290635Z AUTO 23006KT 10SM CLR 13/10 A3000 RMK AO2 T01280103
2026-04-29 06:15:00,METAR KHSP 290615Z AUTO 25008KT 10SM CLR 13/11 A3002 RMK AO2 T01330108
2026-04-29 05:55:00,METAR KHSP 290555Z AUTO 25008KT 10SM CLR 13/11 A3002 RMK AO2 T01310106 10162 20116
2026-04-29 05:35:00,METAR KHSP 290535Z AUTO 24007KT 10SM CLR 12/10 A3003 RMK AO2 T01180101
2026-04-29 05:15:00,METAR KHSP 290515Z AUTO 24006KT 10SM CLR 12/10 A3003 RMK AO2 T01170099
2026-04-29 04:55:00,METAR KHSP 290455Z AUTO 23006KT 10SM SCT050 12/10 A3003 RMK AO2 T01210102 402050062
2026-04-29 04:35:00,METAR KHSP 290435Z AUTO 23006KT 10SM BKN060 12/11 A3006 RMK AO2 T01240105
2026-04-29 04:15:00,METAR KHSP 290415Z AUTO 23008KT 10SM OVC060 13/11 A3006 RMK AO2 T01280110
2026-04-29 03:55:00,METAR KHSP 290355Z AUTO 22006KT 10SM SCT001 OVC060 12/12 A3007 RMK AO2 T01230116
2026-04-29 03:35:00,METAR KHSP 290335Z AUTO 18004KT M1/4SM -RA OVC001 12/12 A3007 RMK AO2 T01200116
2026-04-29 03:15:00,METAR KHSP 290315Z AUTO 17006KT M1/4SM -RA OVC001 12/12 A3009 RMK AO2 T01210117
2026-04-29 02:55:00,METAR KHSP 290255Z AUTO 16006KT M1/4SM -RA OVC001 12/12 A3009 RMK AO2 T01210117
2026-04-29 02:35:00,METAR KHSP 290235Z AUTO 18004KT 1/4SM FG OVC001 12/12 A3009 RMK AO2 T01220119
2026-04-29 02:15:00,METAR KHSP 290215Z AUTO 18003KT M1/4SM FG OVC001 12/12 A3008 RMK AO2 T01220118
2026-04-29 01:55:00,METAR KHSP 290155Z AUTO 14003KT 1 1/4SM BR BKN001 12/12 A3007 RMK AO2 VIS 1/4V5 T01220116
2026-04-29 01:35:00,METAR KHSP 290135Z AUTO 21003KT M1/4SM -RA OVC001 13/12 A3006 RMK AO2 T01250120
2026-04-29 01:15:00,METAR KHSP 290115Z AUTO 15005KT 10SM SCT001 BKN035 OVC041 13/12 A3005 RMK AO2 T01270118
2026-04-29 00:55:00,METAR KHSP 290055Z AUTO 19003KT 1SM BR BKN001 OVC037 13/12 A3006 RMK AO2 VIS 1/2V5 T01260121
2026-04-29 00:35:00,METAR KHSP 290035Z AUTO 08003KT 10SM SCT001 BKN045 13/12 A3005 RMK AO2 T01330115
2026-04-29 00:15:00,METAR KHSP 290015Z AUTO 23004KT 2SM -RA OVC001 13/13 A3004 RMK AO2 VIS 1V4 T01310125
2026-04-28 23:55:00,METAR KHSP 282355Z AUTO 00000KT 10SM CLR 17/08 A3001 RMK AO2 T01670081 10205 20140
2026-04-28 23:35:00,METAR KHSP 282335Z AUTO 31006KT 10SM CLR 18/08 A3001 RMK AO2 T01750082
2026-04-28 23:15:00,METAR KHSP 282315Z AUTO 30007KT 10SM CLR 18/08 A3002 RMK AO2 T01800076
2026-04-28 22:55:00,METAR KHSP 282255Z AUTO 30007G16KT 10SM SCT045 SCT050 18/08 A3003 RMK AO2 T01790078
2026-04-28 22:35:00,METAR KHSP 282235Z AUTO 28008KT 7SM BKN047 BKN050 19/08 A3005 RMK AO2 T01890081
2026-04-28 22:15:00,METAR KHSP 282215Z AUTO 28009G18KT 250V330 10SM SCT047 SCT050 19/08 A3005 RMK AO2 T01870076
2026-04-28 21:55:00,METAR KHSP 282155Z AUTO 28011G19KT 10SM SCT049 19/08 A3005 RMK AO2 T01920075
2026-04-28 21:35:00,METAR KHSP 282135Z AUTO 28013G18KT 10SM SCT049 20/08 A3004 RMK AO2 T01960079
2026-04-28 21:15:00,METAR KHSP 282115Z AUTO 28013G20KT 10SM SCT047 SCT050 20/08 A3003 RMK AO2 T02010075
2026-04-28 20:55:00,METAR KHSP 282055Z AUTO 31010G19KT 270V330 10SM SCT045 SCT070 19/10 A3003 RMK AO2 T01910097
2026-04-28 20:35:00,METAR KHSP 282035Z AUTO 15004KT 10SM SCT030 SCT035 BKN048 15/12 A3003 RMK AO2 T01490124
2026-04-28 20:15:00,METAR KHSP 282015Z AUTO 16004KT 10SM BKN031 OVC038 15/12 A3004 RMK AO2 T01450121
2026-04-28 19:55:00,METAR KHSP 281955Z AUTO 12004KT 10SM BKN029 OVC039 15/12 A3005 RMK AO2 T01530117
2026-04-28 19:35:00,METAR KHSP 281935Z AUTO 25009KT 10SM BKN029 BKN037 OVC050 18/11 A3005 RMK AO2 T01810110
2026-04-28 19:15:00,METAR KHSP 281915Z AUTO 26013G19KT 10SM SCT028 SCT039 SCT046 19/11 A3005 RMK AO2 T01880108
2026-04-28 18:55:00,METAR KHSP 281855Z AUTO 26012G20KT 4SM HZ SCT023 SCT029 SCT036 19/12 A3006 RMK AO2 T01900119
2026-04-28 18:35:00,METAR KHSP 281835Z AUTO 27012G15KT 4SM HZ SCT020 BKN026 BKN032 18/12 A3006 RMK AO2 T01840120
2026-04-28 18:15:00,METAR KHSP 281815Z AUTO 26011G15KT 10SM SCT017 OVC024 18/12 A3006 RMK AO2 T01780119
2026-04-28 17:55:00,METAR KHSP 281755Z AUTO 26012KT 10SM SCT017 OVC023 17/12 A3006 RMK AO2 T01670115 10169 20067
2026-04-28 17:35:00,METAR KHSP 281735Z AUTO 25009KT 230V300 10SM SCT015 SCT023 OVC027 16/12 A3006 RMK AO2 T01600115
2026-04-28 17:15:00,METAR KHSP 281715Z AUTO 25012KT 10SM OVC029 15/11 A3007 RMK AO2 T01530109
2026-04-28 16:55:00,METAR KHSP 281655Z AUTO 25012G15KT 10SM SCT010 BKN029 14/11 A3007 RMK AO2 T01430107
2026-04-28 16:35:00,METAR KHSP 281635Z AUTO 26010G15KT 10SM BKN010 14/11 A3007 RMK AO2 T01410106
2026-04-28 16:15:00,METAR KHSP 281615Z AUTO 27013KT 10SM BKN008 14/11 A3008 RMK AO2 T01420105
2026-04-28 15:55:00,METAR KHSP 281555Z AUTO 26009KT 10SM OVC006 13/10 A3008 RMK AO2 T01320103
2026-04-28 15:35:00,METAR KHSP 281535Z AUTO 25006KT 10SM OVC006 13/11 A3007 RMK AO2 T01280105
2026-04-28 15:15:00,METAR KHSP 281515Z AUTO 25007KT 10SM BKN004 12/10 A3007 RMK AO2 T01170099
2026-04-28 14:55:00,METAR KHSP 281455Z AUTO 24009KT 10SM OVC004 11/10 A3007 RMK AO2 T01080098
2026-04-28 14:35:00,METAR KHSP 281435Z AUTO 23009G16KT 10SM OVC002 10/09 A3007 RMK AO2 T01000094
2026-04-28 14:15:00,METAR KHSP 281415Z AUTO 23009KT M1/4SM FG OVC002 09/09 A3008 RMK AO2 LTG DSNT S T00930090
2026-04-28 13:55:00,METAR KHSP 281355Z AUTO 21005G14KT 4SM BR OVC002 09/09 A3007 RMK AO2 T00930089
2026-04-28 13:35:00,METAR KHSP 281335Z AUTO 22008G16KT 7SM OVC002 09/08 A3009 RMK AO2 T00860083
2026-04-28 13:15:00,METAR KHSP 281315Z AUTO 26007G20KT M1/4SM +SN OVC002 07/07 A3009 RMK AO2 T00710067
2026-04-28 12:55:00,METAR KHSP 281255Z AUTO 17015G21KT M1/4SM +SN OVC002 07/07 A3004 RMK AO2 T00690065
2026-04-28 12:35:00,METAR KHSP 281235Z AUTO 17015G20KT M1/4SM +SN OVC002 07/07 A3006 RMK AO2 T00680065
2026-04-28 12:15:00,METAR KHSP 281215Z AUTO 18014G20KT M1/4SM +SN OVC002 07/07 A3007 RMK AO2 T00700065
2026-04-28 11:55:00,METAR KHSP 281155Z AUTO 19015G23KT M1/4SM +SN OVC002 07/07 A3009 RMK AO2 P0002 60039 70039 T00700065 10081 20062
2026-04-28 11:35:00,METAR KHSP 281135Z AUTO 18017G26KT M1/4SM +SN OVC002 07/07 A3009 RMK AO2 P0002 T00700065
2026-04-28 11:15:00,METAR KHSP 281115Z AUTO 16013G20KT M1/4SM RA OVC002 07/07 A3010 RMK AO2 P0001 T00700065
2026-04-28 10:55:00,METAR KHSP 281055Z AUTO 17012G21KT M1/4SM -RA OVC002 07/07 A3012 RMK AO2 P0016 T00700065
2026-04-28 10:35:00,METAR KHSP 281035Z AUTO 19016G23KT 10SM -RA OVC004 07/07 A3013 RMK AO2 P0015 T00720066
2026-04-28 10:15:00,METAR KHSP 281015Z AUTO 24010G21KT 4SM RA BKN002 OVC007 07/07 A3016 RMK AO2 P0011 T00710066
2026-04-28 09:55:00,METAR KHSP 280955Z AUTO 18013G22KT M1/4SM RA OVC002 07/06 A3011 RMK AO2 LTG DSNT S P0013 T00650061
2026-04-28 09:35:00,METAR KHSP 280935Z AUTO 18015G22KT 1/2SM -RA OVC002 07/06 A3011 RMK AO2 LTG DSNT S AND SW P0005 T00650060
2026-04-28 09:15:00,METAR KHSP 280915Z AUTO 17014G19KT 1/4SM RA OVC002 07/06 A3012 RMK AO2 VIS M1/4V3 LTG DSNT SW P0002 T00650060
2026-04-28 08:55:00,METAR KHSP 280855Z AUTO 14010G14KT 1/4SM RA OVC002 06/06 A3010 RMK AO2 LTG DSNT SW AND W P0008 60008 T00630058
2026-04-28 08:35:00,METAR KHSP 280835Z AUTO 17011G16KT 10SM RA SCT050 OVC075 07/06 A3014 RMK AO2 LTG DSNT S AND SW P0005 T00650057
2026-04-28 08:15:00,METAR KHSP 280815Z AUTO 17011G16KT 10SM -RA SCT050 OVC075 07/06 A3014 RMK AO2 LTG DSNT S AND SW P0003 T00670055
2026-04-28 07:55:00,METAR KHSP 280755Z AUTO 14010G15KT 10SM RA SCT065 OVC085 07/05 A3014 RMK AO2 LTG DSNT SW T00740050
2026-04-28 07:35:00,METAR KHSP 280735Z AUTO 19009G14KT 10SM SCT085 OVC110 08/05 A3019 RMK AO2 LTG DSNT S AND SW T00800047
2026-04-28 07:15:00,METAR KHSP 280715Z AUTO 19008G15KT 10SM BKN017 OVC110 08/05 A3019 RMK AO2 LTG DSNT SW AND W T00750045
2026-04-28 06:55:00,METAR KHSP 280655Z AUTO 14010G17KT 10SM BKN017 OVC120 08/04 A3016 RMK AO2 LTG DSNT W T00750044
2026-04-28 06:35:00,METAR KHSP 280635Z AUTO 14009G19KT 10SM SCT017 SCT021 BKN120 08/04 A3016 RMK AO2 LTG DSNT SW T00770041
2026-04-28 06:15:00,METAR KHSP 280615Z AUTO 14009G17KT 10SM SCT017 BKN120 08/04 A3017 RMK AO2 T00800036
2026-04-28 05:55:00,METAR KHSP 280555Z AUTO 14008G17KT 10SM CLR 08/03 A3017 RMK AO2 T00810033 10116 20081
2026-04-28 05:35:00,METAR KHSP 280535Z AUTO 16009G15KT 140V200 10SM SCT120 08/03 A3019 RMK AO2 T00830032
2026-04-28 05:15:00,METAR KHSP 280515Z AUTO 14006KT 10SM SCT120 09/03 A3019 RMK AO2 T00850031
2026-04-28 04:55:00,METAR KHSP 280455Z AUTO 15006KT 10SM CLR 09/03 A3020 RMK AO2 T00850032 401670035
2026-04-28 04:35:00,METAR KHSP 280435Z AUTO 15009KT 10SM CLR 09/04 A3020 RMK AO2 T00860035
2026-04-28 04:15:00,METAR KHSP 280415Z AUTO 13008G18KT 10SM CLR 09/04 A3018 RMK AO2 T00870035
2026-04-28 03:55:00,METAR KHSP 280355Z AUTO 13011G17KT 10SM SCT120 09/04 A3019 RMK AO2 T00900035
2026-04-28 03:35:00,METAR KHSP 280335Z AUTO 12013G17KT 10SM CLR 09/04 A3020 RMK AO2 T00910036
2026-04-28 03:15:00,METAR KHSP 280315Z AUTO 12009KT 10SM CLR 09/04 A3021 RMK AO2 T00940036
2026-04-28 02:55:00,METAR KHSP 280255Z AUTO 13011G15KT 10SM CLR 10/04 A3022 RMK AO2 T00960035
2026-04-28 02:35:00,METAR KHSP 280235Z AUTO 13009G14KT 10SM CLR 10/03 A3022 RMK AO2 T00970033
2026-04-28 02:15:00,METAR KHSP 280215Z AUTO 13010G16KT 10SM CLR 10/03 A3021 RMK AO2 T00970032
2026-04-28 01:55:00,METAR KHSP 280155Z AUTO 13010KT 10SM CLR 10/03 A3021 RMK AO2 T01000031
2026-04-28 01:35:00,METAR KHSP 280135Z AUTO 13009G14KT 10SM CLR 10/03 A3021 RMK AO2 T01000030
2026-04-28 01:15:00,METAR KHSP 280115Z AUTO 13009G15KT 10SM CLR 10/03 A3021 RMK AO2 T01020030
2026-04-28 00:55:00,METAR KHSP 280055Z AUTO 13008KT 10SM CLR 11/03 A3021 RMK AO2 T01050030
2026-04-28 00:35:00,METAR KHSP 280035Z AUTO 12008G14KT 10SM CLR 11/03 A3021 RMK AO2 T01090032
2026-04-28 00:15:00,METAR KHSP 280015Z AUTO 13008G15KT 10SM CLR 11/03 A3021 RMK AO2 T01120032
2026-04-27 23:55:00,METAR KHSP 272355Z AUTO 13007G15KT 10SM CLR 12/03 A3020 RMK AO2 T01160032 10167 20116
2026-04-27 23:35:00,METAR KHSP 272335Z AUTO 12011KT 10SM CLR 12/03 A3019 RMK AO2 T01220034
2026-04-27 23:15:00,METAR KHSP 272315Z AUTO 12009KT 10SM CLR 13/04 A3020 RMK AO2 T01300035
2026-04-27 22:55:00,METAR KHSP 272255Z AUTO 11006G14KT 10SM CLR 14/03 A3020 RMK AO2 T01350032
2026-04-27 22:35:00,METAR KHSP 272235Z AUTO 12007G15KT 10SM CLR 14/03 A3020 RMK AO2 T01410033
2026-04-27 22:15:00,METAR KHSP 272215Z AUTO 14009G15KT 10SM CLR 15/03 A3020 RMK AO2 T01480030
2026-04-27 21:55:00,METAR KHSP 272155Z AUTO 12007KT 090V150 10SM CLR 15/03 A3020 RMK AO2 T01530027
2026-04-27 21:35:00,METAR KHSP 272135Z AUTO 13007G15KT 090V160 10SM CLR 16/03 A3019 RMK AO2 T01550026
2026-04-27 21:15:00,METAR KHSP 272115Z AUTO 13009G16KT 10SM CLR 16/03 A3018 RMK AO2 T01620026
2026-04-27 20:55:00,METAR KHSP 272055Z AUTO 13008KT 100V160 10SM CLR 16/03 A3018 RMK AO2 T01620025
2026-04-27 20:35:00,METAR KHSP 272035Z AUTO 12008KT 10SM CLR 16/02 A3020 RMK AO2 T01600021
2026-04-27 20:15:00,METAR KHSP 272015Z AUTO 15003KT 10SM CLR 16/02 A3020 RMK AO2 T01630022
2026-04-27 19:55:00,METAR KHSP 271955Z AUTO 13008KT 100V180 10SM CLR 16/02 A3021 RMK AO2 T01630018
2026-04-27 19:35:00,METAR KHSP 271935Z AUTO 17006KT 10SM CLR 16/02 A3021 RMK AO2 T01600019
2026-04-27 19:15:00,METAR KHSP 271915Z AUTO 09009KT 10SM CLR 16/02 A3021 RMK AO2 T01550015
2026-04-27 18:55:00,METAR KHSP 271855Z AUTO 13007G14KT 10SM CLR 15/02 A3022 RMK AO2 T01540015
2026-04-27 18:35:00,METAR KHSP 271835Z AUTO 12010KT 10SM CLR 15/01 A3022 RMK AO2 T01490013
2026-04-27 18:15:00,METAR KHSP 271815Z AUTO 09009KT 10SM CLR 15/01 A3022 RMK AO2 T01450012
2026-04-27 17:55:00,METAR KHSP 271755Z AUTO 17005KT 10SM CLR 15/01 A3022 RMK AO2 T01450014 10148 20056
2026-04-27 17:35:00,METAR KHSP 271735Z AUTO 12004KT 10SM CLR 13/01 A3023 RMK AO2 T01340006
2026-04-27 17:15:00,METAR KHSP 271715Z AUTO 14004KT 10SM CLR 14/01 A3023 RMK AO2 T01350012
2026-04-27 16:55:00,METAR KHSP 271655Z AUTO 16005KT 10SM CLR 13/01 A3023 RMK AO2 T01300013
2026-04-27 16:35:00,METAR KHSP 271635Z AUTO 14010KT 110V170 10SM CLR 12/02 A3023 RMK AO2 T01200020
2026-04-27 16:15:00,METAR KHSP 271615Z AUTO 15007KT 10SM CLR 12/02 A3023 RMK AO2 T01180016
2026-04-27 15:55:00,METAR KHSP 271555Z AUTO 15008KT 120V190 10SM CLR 11/02 A3024 RMK AO2 T01130015
2026-04-27 15:35:00,METAR KHSP 271535Z AUTO 16006KT 10SM CLR 11/02 A3024 RMK AO2 T01110016
2026-04-27 15:15:00,METAR KHSP 271515Z AUTO 11007KT 10SM CLR 10/01 A3024 RMK AO2 T01030011
2026-04-27 14:55:00,METAR KHSP 271455Z AUTO 15008G14KT 10SM CLR 10/02 A3025 RMK AO2 T00970017
2026-04-27 14:35:00,METAR KHSP 271435Z AUTO 12009KT 10SM CLR 09/01 A3024 RMK AO2 T00930011
2026-04-27 14:15:00,METAR KHSP 271415Z AUTO 12008KT 10SM CLR 09/01 A3025 RMK AO2 T00880006
2026-04-27 13:55:00,METAR KHSP 271355Z AUTO 13006KT 10SM CLR 08/01 A3025 RMK AO2 T00840010
2026-04-27 13:35:00,METAR KHSP 271335Z AUTO 11008KT 080V140 10SM CLR 08/01 A3024 RMK AO2 T00770010
2026-04-27 13:15:00,METAR KHSP 271315Z AUTO 16005KT 10SM CLR 08/01 A3025 RMK AO2 T00760007
2026-04-27 12:55:00,METAR KHSP 271255Z AUTO 13005KT 10SM CLR 07/01 A3024 RMK AO2 T00710009
2026-04-27 12:35:00,METAR KHSP 271235Z AUTO 11006KT 10SM CLR 07/01 A3023 RMK AO2 T00680012
2026-04-27 12:15:00,METAR KHSP 271215Z AUTO 14004KT 10SM CLR 07/01 A3023 RMK AO2 T00650007
2026-04-27 11:55:00,METAR KHSP 271155Z AUTO 21003KT 10SM CLR 06/02 A3023 RMK AO2 T00560021 10056 20035
2026-04-27 11:35:00,METAR KHSP 271135Z AUTO 00000KT 10SM SCT003 04/04 A3022 RMK AO2 T00400035
2026-04-27 11:15:00,METAR KHSP 271115Z AUTO 00000KT 7SM OVC003 04/03 A3021 RMK AO2 T00350031
2026-04-27 10:55:00,METAR KHSP 271055Z AUTO 00000KT 10SM OVC001 04/03 A3021 RMK AO2 T00350031
2026-04-27 10:35:00,METAR KHSP 271035Z AUTO 10003KT 7SM OVC001 04/03 A3019 RMK AO2 T00360033
2026-04-27 10:15:00,METAR KHSP 271015Z AUTO 08005KT 5SM BR OVC001 04/03 A3019 RMK AO2 T00360033
2026-04-27 09:55:00,METAR KHSP 270955Z AUTO 09003KT 1/2SM FG OVC001 04/03 A3018 RMK AO2 T00360033
2026-04-27 09:35:00,METAR KHSP 270935Z AUTO 11006KT 1/2SM FG OVC001 04/03 A3017 RMK AO2 T00360033
2026-04-27 09:15:00,METAR KHSP 270915Z AUTO 10009KT 1/4SM FG OVC001 04/03 A3016 RMK AO2 T00360033
2026-04-27 08:55:00,METAR KHSP 270855Z AUTO 10007KT 1/4SM FG OVC001 04/04 A3016 RMK AO2 T00370035
2026-04-27 08:35:00,METAR KHSP 270835Z AUTO 11005KT 1/4SM FG OVC001 04/03 A3017 RMK AO2 T00360034
2026-04-27 08:15:00,METAR KHSP 270815Z AUTO 10005KT M1/4SM FG OVC001 04/04 A3016 RMK AO2 T00370035
2026-04-27 07:55:00,METAR KHSP 270755Z AUTO 09006KT M1/4SM FG OVC001 04/04 A3015 RMK AO2 T00380035
2026-04-27 07:35:00,METAR KHSP 270735Z AUTO 09008KT M1/4SM FG OVC001 04/04 A3015 RMK AO2 T00370035
2026-04-27 07:15:00,METAR KHSP 270715Z AUTO 08007KT M1/4SM FG OVC001 04/04 A3016 RMK AO2 T00380035
2026-04-27 06:55:00,METAR KHSP 270655Z AUTO 09005KT 1/4SM FG OVC001 04/04 A3016 RMK AO2 T00390036
2026-04-27 06:35:00,METAR KHSP 270635Z AUTO 11007KT 1/4SM FG OVC001 04/04 A3017 RMK AO2 T00400036
2026-04-27 06:15:00,METAR KHSP 270615Z AUTO 10004KT 1/4SM FG OVC001 04/04 A3017 RMK AO2 T00400037
2026-04-27 05:55:00,METAR KHSP 270555Z AUTO 08004KT M1/4SM FG OVC001 04/04 A3018 RMK AO2 T00410038 10084 20041
2026-04-27 05:35:00,METAR KHSP 270535Z AUTO 09006KT M1/4SM FG OVC001 04/04 A3018 RMK AO2 T00420040
2026-04-27 05:15:00,METAR KHSP 270515Z AUTO 09005KT M1/4SM FG OVC001 04/04 A3018 RMK AO2 T00430040
2026-04-27 04:55:00,METAR KHSP 270455Z AUTO 09007KT 1/4SM -SN OVC001 05/04 A3017 RMK AO2 T00450042 401550045
2026-04-27 04:35:00,METAR KHSP 270435Z AUTO 09010KT M1/4SM FG OVC001 05/04 A3016 RMK AO2 T00460043
2026-04-27 04:15:00,METAR KHSP 270415Z AUTO 09007G14KT M1/4SM -SN OVC001 05/05 A3017 RMK AO2 T00480045
2026-04-27 03:55:00,METAR KHSP 270355Z AUTO 09008KT M1/4SM -RA OVC001 05/05 A3016 RMK AO2 T00510047
2026-04-27 03:35:00,METAR KHSP 270335Z AUTO 09011G16KT M1/4SM -SN OVC001 05/05 A3015 RMK AO2 T00530050
2026-04-27 03:15:00,METAR KHSP 270315Z AUTO 08009KT M1/4SM -SN OVC001 06/05 A3015 RMK AO2 T00550051
2026-04-27 02:55:00,METAR KHSP 270255Z AUTO 09009G14KT 1/4SM FG OVC001 06/05 A3015 RMK AO2 T00570053
2026-04-27 02:35:00,METAR KHSP 270235Z AUTO 09009KT 1/4SM -SN OVC001 06/06 A3015 RMK AO2 T00600055
2026-04-27 02:15:00,METAR KHSP 270215Z AUTO 08009KT 1/4SM FG OVC001 06/06 A3015 RMK AO2 T00600056
2026-04-27 01:55:00,METAR KHSP 270155Z AUTO 08009KT 1/4SM FG OVC001 06/06 A3014 RMK AO2 T00620057
2026-04-27 01:35:00,METAR KHSP 270135Z AUTO 08008KT 1SM BR OVC001 07/06 A3014 RMK AO2 T00650060
2026-04-27 01:15:00,METAR KHSP 270115Z AUTO 07009KT 3SM BR OVC001 07/06 A3013 RMK AO2 T00660060
2026-04-27 00:55:00,METAR KHSP 270055Z AUTO 08008KT 7SM OVC001 07/06 A3012 RMK AO2 T00690061
2026-04-27 00:35:00,METAR KHSP 270035Z AUTO 07009KT 10SM OVC003 08/07 A3012 RMK AO2 T00750065
2026-04-27 00:15:00,METAR KHSP 270015Z AUTO 09007KT 10SM OVC005 08/07 A3011 RMK AO2 T00780066
2026-04-26 23:55:00,METAR KHSP 262355Z AUTO 09009KT 10SM BKN007 09/07 A3011 RMK AO2 LTG DSNT SE T00850067 10155 20085
2026-04-26 23:35:00,METAR KHSP 262335Z AUTO 08008KT 7SM BKN009 10/07 A3010 RMK AO2 T00950070
2026-04-26 23:15:00,METAR KHSP 262315Z AUTO 09008KT 7SM SCT011 11/07 A3009 RMK AO2 T01050071
2026-04-26 22:55:00,METAR KHSP 262255Z AUTO 09009G14KT 7SM CLR 11/07 A3008 RMK AO2 T01100071
2026-04-26 22:35:00,METAR KHSP 262235Z AUTO 09008KT 7SM CLR 12/07 A3008 RMK AO2 T01190071
2026-04-26 22:15:00,METAR KHSP 262215Z AUTO 08007KT 7SM CLR 13/07 A3007 RMK AO2 T01270072
2026-04-26 21:55:00,METAR KHSP 262155Z AUTO 08010KT 030V090 7SM CLR 14/07 A3007 RMK AO2 T01370072
2026-04-26 21:35:00,METAR KHSP 262135Z AUTO 08010G14KT 7SM CLR 14/07 A3006 RMK AO2 T01430070
2026-04-26 21:15:00,METAR KHSP 262115Z AUTO 08007G17KT 7SM CLR 15/07 A3005 RMK AO2 T01470071
2026-04-26 20:55:00,METAR KHSP 262055Z AUTO 07009G15KT 7SM CLR 15/07 A3005 RMK AO2 T01500072
2026-04-26 20:35:00,METAR KHSP 262035Z AUTO 09008G16KT 060V120 7SM CLR 16/08 A3005 RMK AO2 T01550077
2026-04-26 20:15:00,METAR KHSP 262015Z AUTO 05010G14KT 7SM CLR 15/08 A3004 RMK AO2 T01490077
2026-04-26 19:55:00,METAR KHSP 261955Z AUTO 06009KT 10SM CLR 15/08 A3004 RMK AO2 T01450078
2026-04-26 19:35:00,METAR KHSP 261935Z AUTO 06009KT 10SM CLR 15/08 A3005 RMK AO2 T01520084
2026-04-26 19:15:00,METAR KHSP 261915Z AUTO 07007G15KT 050V120 10SM CLR 14/08 A3005 RMK AO2 T01440084
2026-04-26 18:55:00,METAR KHSP 261855Z AUTO 07008KT 10SM CLR 14/09 A3004 RMK AO2 T01420085
2026-04-26 18:35:00,METAR KHSP 261835Z AUTO 07007KT 10SM CLR 14/08 A3005 RMK AO2 T01360083
2026-04-26 18:15:00,METAR KHSP 261815Z AUTO 07007KT 10SM SCT007 13/09 A3004 RMK AO2 T01340087
2026-04-26 17:55:00,METAR KHSP 261755Z AUTO 06007KT 030V090 10SM SCT005 SCT009 13/09 A3004 RMK AO2 LTG DSNT S T01300085 10131 20093
2026-04-26 17:35:00,METAR KHSP 261735Z AUTO 07007KT 10SM SCT005 12/09 A3004 RMK AO2 T01220086
2026-04-26 17:15:00,METAR KHSP 261715Z AUTO 06007KT 10SM BKN005 12/09 A3004 RMK AO2 T01230088
2026-04-26 16:55:00,METAR KHSP 261655Z AUTO 05005KT 10SM BKN002 OVC007 12/09 A3004 RMK AO2 T01180085
2026-04-26 16:35:00,METAR KHSP 261635Z AUTO 06007KT 7SM OVC002 11/09 A3005 RMK AO2 T01120089
2026-04-26 16:15:00,METAR KHSP 261615Z AUTO 06004KT 10SM OVC002 11/09 A3005 RMK AO2 LTG DSNT S T01070088
2026-04-26 15:55:00,METAR KHSP 261555Z AUTO 06006KT 1/4SM FG OVC002 10/09 A3004 RMK AO2 VIS M1/4V5 T01000086
2026-04-26 15:35:00,METAR KHSP 261535Z AUTO 06005KT M1/4SM FG OVC002 10/09 A3004 RMK AO2 T01000092
2026-04-26 15:15:00,METAR KHSP 261515Z AUTO 04004KT 1/2SM FG OVC002 10/09 A3003 RMK AO2 T00960087
2026-04-26 14:55:00,METAR KHSP 261455Z AUTO 06005KT 1/2SM FG OVC002 10/09 A3003 RMK AO2 T01000089
2026-04-26 14:35:00,METAR KHSP 261435Z AUTO 06005KT 2 1/2SM BR BKN002 OVC009 10/09 A3003 RMK AO2 VIS 1V5 T01000088
2026-04-26 14:15:00,METAR KHSP 261415Z AUTO 05005KT 7SM SCT002 OVC008 11/08 A3002 RMK AO2 LTG DSNT S T01050084
2026-04-26 13:55:00,METAR KHSP 261355Z AUTO 02004KT 10SM BKN006 OVC012 11/08 A3002 RMK AO2 T01050083
2026-04-26 13:35:00,METAR KHSP 261335Z AUTO 02003KT 10SM BKN006 OVC012 10/08 A3002 RMK AO2 T01040082
2026-04-26 13:15:00,METAR KHSP 261315Z AUTO 01003KT 10SM OVC006 10/08 A3002 RMK AO2 T01010082
2026-04-26 12:55:00,METAR KHSP 261255Z AUTO 30006KT 10SM BKN006 OVC011 10/08 A3001 RMK AO2 LTG DSNT S T00980076
2026-04-26 12:35:00,METAR KHSP 261235Z AUTO 07003KT 10SM SCT006 OVC011 11/08 A3000 RMK AO2 T01060083
2026-04-26 12:15:00,METAR KHSP 261215Z AUTO 36003KT 10SM BKN011 10/07 A3000 RMK AO2 T00970072
2026-04-26 11:55:00,METAR KHSP 261155Z AUTO 01005KT 10SM SCT013 10/07 A2999 RMK AO2 7//// T01010069 10111 20087
2026-04-26 11:35:00,METAR KHSP 261135Z AUTO 34004KT 10SM CLR 10/07 A2999 RMK AO2 T00960068
2026-04-26 11:15:00,METAR KHSP 261115Z AUTO 34006KT 10SM CLR 09/06 A2998 RMK AO2 T00930064
2026-04-26 10:55:00,METAR KHSP 261055Z AUTO 31004KT 10SM SCT016 09/06 A2997 RMK AO2 T00900062
2026-04-26 10:35:00,METAR KHSP 261035Z AUTO 36005KT 10SM BKN016 09/06 A2996 RMK AO2 T00900063
2026-04-26 10:15:00,METAR KHSP 261015Z AUTO 01005KT 10SM OVC016 09/07 A2995 RMK AO2 T00880065
2026-04-26 09:55:00,METAR KHSP 260955Z AUTO 34003KT 10SM OVC016 09/07 A2995 RMK AO2 T00940070
2026-04-26 09:35:00,METAR KHSP 260935Z AUTO 35005KT 10SM OVC018 10/07 A2994 RMK AO2 T00980072
2026-04-26 09:15:00,METAR KHSP 260915Z AUTO 32006KT 10SM OVC018 10/08 A2994 RMK AO2 LTG DSNT S T01000075
2026-04-26 08:55:00,METAR KHSP 260855Z AUTO 33005KT 10SM OVC016 10/08 A2994 RMK AO2 T01010075
2026-04-26 08:35:00,METAR KHSP 260835Z AUTO 33005KT 10SM OVC016 10/08 A2993 RMK AO2 T01020077
2026-04-26 08:15:00,METAR KHSP 260815Z AUTO 34007KT 10SM OVC016 10/08 A2993 RMK AO2 T01030078
2026-04-26 07:55:00,METAR KHSP 260755Z AUTO 35005KT 10SM OVC016 10/08 A2992 RMK AO2 T01040080
2026-04-26 07:35:00,METAR KHSP 260735Z AUTO 35007KT 10SM OVC016 10/08 A2992 RMK AO2 T01020082
2026-04-26 07:15:00,METAR KHSP 260715Z AUTO 35005KT 10SM OVC016 10/08 A2992 RMK AO2 T01030083
2026-04-26 06:55:00,METAR KHSP 260655Z AUTO 34005KT 10SM SCT016 10/08 A2992 RMK AO2 T01030083
2026-04-26 06:35:00,METAR KHSP 260635Z AUTO 34006KT 10SM SCT013 11/09 A2992 RMK AO2 T01050085
2026-04-26 06:15:00,METAR KHSP 260615Z AUTO 35007KT 10SM BKN013 11/09 A2992 RMK AO2 T01070091
2026-04-26 05:55:00,METAR KHSP 260555Z AUTO 36004KT 10SM OVC013 11/10 A2992 RMK AO2 LTG DSNT S T01110095 10130 20105
2026-04-26 05:35:00,METAR KHSP 260535Z AUTO 35004KT 10SM BKN013 11/10 A2992 RMK AO2 T01070098
2026-04-26 05:15:00,METAR KHSP 260515Z AUTO 35004KT 10SM CLR 11/10 A2992 RMK AO2 T01080097
2026-04-26 04:55:00,METAR KHSP 260455Z AUTO 31008KT 10SM CLR 11/10 A2990 RMK AO2 T01100097
2026-04-26 04:35:00,METAR KHSP 260435Z AUTO 31008KT 10SM CLR 11/10 A2990 RMK AO2 T01110098
2026-04-26 04:15:00,METAR KHSP 260415Z AUTO 31008KT 10SM CLR 11/10 A2991 RMK AO2 T01130102
2026-04-26 03:55:00,METAR KHSP 260355Z AUTO 31007KT 10SM SCT006 SCT049 12/11 A2991 RMK AO2 T01150105
2026-04-26 03:35:00,METAR KHSP 260335Z AUTO 31007KT 10SM BKN049 OVC075 12/11 A2991 RMK AO2 T01200105
2026-04-26 03:15:00,METAR KHSP 260315Z AUTO 30009KT 10SM SCT007 SCT039 OVC065 12/11 A2991 RMK AO2 T01200107
2026-04-26 02:55:00,METAR KHSP 260255Z AUTO 32007KT 10SM SCT007 BKN011 OVC075 12/11 A2992 RMK AO2 T01220107
2026-04-26 02:35:00,METAR KHSP 260235Z AUTO 33006KT 10SM OVC011 13/11 A2992 RMK AO2 T01250106
2026-04-26 02:15:00,METAR KHSP 260215Z AUTO 31008KT 10SM BKN013 OVC080 13/11 A2992 RMK AO2 T01250106
2026-04-26 01:55:00,METAR KHSP 260155Z AUTO 30008KT 10SM OVC080 13/11 A2992 RMK AO2 T01270105
2026-04-26 01:35:00,METAR KHSP 260135Z AUTO 31008KT 10SM SCT009 OVC080 13/11 A2991 RMK AO2 T01280105
2026-04-26 01:15:00,METAR KHSP 260115Z AUTO 30005KT 10SM SCT009 BKN080 13/11 A2991 RMK AO2 T01290107
2026-04-26 00:55:00,METAR KHSP 260055Z AUTO 30007KT 10SM SCT007 SCT012 BKN075 13/11 A2990 RMK AO2 T01280111
2026-04-26 00:35:00,METAR KHSP 260035Z AUTO 29007KT 10SM SCT005 BKN012 OVC075 13/12 A2990 RMK AO2 T01280116
2026-04-26 00:15:00,METAR KHSP 260015Z AUTO 28009KT 10SM BKN005 BKN014 OVC070 13/12 A2990 RMK AO2 T01300120
2026-04-25 23:55:00,METAR KHSP 252355Z AUTO 28012G15KT 10SM SCT005 BKN012 BKN034 13/12 A2989 RMK AO2 60006 T01300120 10176 20130
2026-04-25 23:35:00,METAR KHSP 252335Z AUTO 28011KT 10SM SCT011 SCT024 BKN050 13/12 A2988 RMK AO2 T01320119
2026-04-25 23:15:00,METAR KHSP 252315Z AUTO 27009KT 10SM SCT020 BKN040 BKN050 13/12 A2988 RMK AO2 T01330120
2026-04-25 22:55:00,METAR KHSP 252255Z AUTO 27009KT 10SM SCT020 SCT025 14/12 A2988 RMK AO2 T01350115
2026-04-25 22:35:00,METAR KHSP 252235Z AUTO 27009KT 10SM SCT060 SCT075 SCT085 14/12 A2988 RMK AO2 T01350116
2026-04-25 22:15:00,METAR KHSP 252215Z AUTO 25007KT 10SM SCT007 BKN070 OVC090 13/12 A2988 RMK AO2 T01320119
2026-04-25 21:55:00,METAR KHSP 252155Z AUTO 26011KT 10SM SCT007 SCT050 OVC090 13/12 A2988 RMK AO2 T01330120
2026-04-25 21:35:00,METAR KHSP 252135Z AUTO 26008KT 10SM SCT033 SCT050 OVC100 14/12 A2987 RMK AO2 T01350119
2026-04-25 21:15:00,METAR KHSP 252115Z AUTO 26013G17KT 10SM SCT005 BKN034 OVC070 14/11 A2987 RMK AO2 T01350112
2026-04-25 20:55:00,METAR KHSP 252055Z AUTO 26011KT 1/4SM -RA OVC002 13/13 A2987 RMK AO2 P0001 60006 T01340128
2026-04-25 20:35:00,METAR KHSP 252035Z AUTO 27013G17KT 10SM -RA OVC006 14/13 A2987 RMK AO2 T01370126
2026-04-25 20:15:00,METAR KHSP 252015Z AUTO 27013G18KT 10SM BKN008 OVC070 14/12 A2987 RMK AO2 LTG DSNT SE T01420122
2026-04-25 19:55:00,METAR KHSP 251955Z AUTO 28011G20KT 10SM SCT010 BKN070 OVC085 14/12 A2987 RMK AO2 LTG DSNT S T01420121
2026-04-25 19:35:00,METAR KHSP 251935Z AUTO 28011G16KT 10SM SCT010 BKN085 OVC100 15/12 A2987 RMK AO2 LTG DSNT E T01450120
2026-04-25 19:15:00,METAR KHSP 251915Z AUTO 26014KT 10SM BKN075 OVC100 14/12 A2987 RMK AO2 LTG DSNT SE T01420116
2026-04-25 18:55:00,METAR KHSP 251855Z AUTO 27012G16KT 10SM BKN070 14/12 A2988 RMK AO2 LTG DSNT SW P0005 T01400120
2026-04-25 18:35:00,METAR KHSP 251835Z AUTO 26012KT 7SM -RA SCT041 SCT060 OVC070 13/12 A2989 RMK AO2 P0005 T01320118
2026-04-25 18:15:00,METAR KHSP 251815Z AUTO 26014G24KT 7SM -RA SCT025 BKN043 OVC070 14/10 A2989 RMK AO2 P0001 T01400104
2026-04-25 17:55:00,METAR KHSP 251755Z AUTO 25013G19KT 10SM SCT031 BKN037 OVC085 18/10 A2988 RMK AO2 6//// T01760101
2026-04-25 17:35:00,METAR KHSP 251735Z AUTO 26012G17KT 10SM BKN033 BKN044 OVC090 18/10 A2988 RMK AO2 T01760103
2026-04-25 17:15:00,METAR KHSP 251715Z AUTO 25009KT 10SM SCT035 BKN060 OVC100 17/11 A2989 RMK AO2 T01720106
2026-04-25 16:55:00,METAR KHSP 251655Z AUTO 26007KT 10SM SCT036 BKN080 OVC090 18/10 A2989 RMK AO2 T01800099
2026-04-25 16:35:00,METAR KHSP 251635Z AUTO 25006KT 10SM SCT036 BKN090 18/10 A2990 RMK AO2 T01830096
2026-04-25 16:15:00,METAR KHSP 251615Z AUTO 27009G15KT 10SM SCT033 SCT090 20/10 A2990 RMK AO2 T01970101
2026-04-25 15:55:00,METAR KHSP 251555Z AUTO 25008KT 10SM SCT033 SCT090 19/10 A2990 RMK AO2 T01860101
2026-04-25 15:35:00,METAR KHSP 251535Z AUTO 27007G15KT 10SM CLR 18/10 A2991 RMK AO2 T01810099
2026-04-25 15:15:00,METAR KHSP 251515Z AUTO 27009KT 10SM CLR 18/10 A2991 RMK AO2 T01770099
2026-04-25 14:55:00,METAR KHSP 251455Z AUTO 27009KT 10SM CLR 19/11 A2991 RMK AO2 6//// T01890105
2026-04-25 14:35:00,METAR KHSP 251435Z AUTO 29009KT 10SM CLR 18/10 A2990 RMK AO2 T01750102
2026-04-25 14:15:00,METAR KHSP 251415Z AUTO 26009KT 10SM CLR 17/10 A2991 RMK AO2 T01720100
2026-04-25 13:55:00,METAR KHSP 251355Z AUTO 27008KT 10SM CLR 17/10 A2991 RMK AO2 T01690097
2026-04-25 13:35:00,METAR KHSP 251335Z AUTO 26009KT 10SM CLR 16/09 A2991 RMK AO2 T01630090
2026-04-25 13:15:00,METAR KHSP 251315Z AUTO 26008KT 10SM CLR 16/09 A2990 RMK AO2 T01610087
2026-04-25 12:55:00,METAR KHSP 251255Z AUTO 26008KT 10SM CLR 16/08 A2991 RMK AO2 T01580081
2026-04-25 12:35:00,METAR KHSP 251235Z AUTO 26005KT 10SM CLR 15/08 A2991 RMK AO2 T01520078
2026-04-25 12:15:00,METAR KHSP 251215Z AUTO 27007KT 10SM CLR 15/08 A2991 RMK AO2 T01540077
2026-04-25 11:55:00,METAR KHSP 251155Z AUTO 28010KT 10SM CLR 15/08 A2990 RMK AO2 T01520079 10154 20134
2026-04-25 11:35:00,METAR KHSP 251135Z AUTO 27009KT 10SM CLR 15/08 A2991 RMK AO2 T01500084
2026-04-25 11:15:00,METAR KHSP 251115Z AUTO 28010KT 10SM CLR 15/08 A2990 RMK AO2 T01470082
2026-04-25 10:55:00,METAR KHSP 251055Z AUTO 27009KT 10SM CLR 14/08 A2989 RMK AO2 T01410081
2026-04-25 10:35:00,METAR KHSP 251035Z AUTO 27007KT 10SM CLR 14/08 A2989 RMK AO2 T01420080
2026-04-25 10:15:00,METAR KHSP 251015Z AUTO 26010KT 10SM CLR 14/07 A2988 RMK AO2 T01420072
2026-04-25 09:55:00,METAR KHSP 250955Z AUTO 27010KT 10SM CLR 15/07 A2988 RMK AO2 T01460065
2026-04-25 09:35:00,METAR KHSP 250935Z AUTO 27010KT 10SM CLR 15/06 A2988 RMK AO2 T01460059
2026-04-25 09:15:00,METAR KHSP 250915Z AUTO 27009KT 10SM CLR 15/06 A2988 RMK AO2 T01450055
2026-04-25 08:55:00,METAR KHSP 250855Z AUTO 26009KT 10SM CLR 15/06 A2988 RMK AO2 T01460055
2026-04-25 08:35:00,METAR KHSP 250835Z AUTO 25009KT 10SM CLR 15/06 A2988 RMK AO2 T01510055
2026-04-25 08:15:00,METAR KHSP 250815Z AUTO 23009KT 10SM CLR 14/06 A2988 RMK AO2 T01430055
2026-04-25 07:55:00,METAR KHSP 250755Z AUTO 23008KT 10SM CLR 14/05 A2988 RMK AO2 T01410053
2026-04-25 07:35:00,METAR KHSP 250735Z AUTO 23007KT 10SM CLR 14/05 A2988 RMK AO2 T01440051
2026-04-25 07:15:00,METAR KHSP 250715Z AUTO 24008KT 10SM CLR 14/05 A2988 RMK AO2 T01370051
2026-04-25 06:55:00,METAR KHSP 250655Z AUTO 24008KT 10SM CLR 14/05 A2988 RMK AO2 T01390052
2026-04-25 06:35:00,METAR KHSP 250635Z AUTO 24006KT 10SM CLR 15/05 A2988 RMK AO2 T01450051
2026-04-25 06:15:00,METAR KHSP 250615Z AUTO 26006KT 10SM CLR 15/05 A2989 RMK AO2 T01460052
2026-04-25 05:55:00,METAR KHSP 250555Z AUTO 26004KT 10SM CLR 16/05 A2989 RMK AO2 T01560050 10187 20156
2026-04-25 05:35:00,METAR KHSP 250535Z AUTO 00000KT 10SM CLR 16/05 A2989 RMK AO2 T01610050
2026-04-25 05:15:00,METAR KHSP 250515Z AUTO 00000KT 10SM CLR 16/05 A2991 RMK AO2 T01620050
2026-04-25 04:55:00,METAR KHSP 250455Z AUTO 00000KT 10SM CLR 16/05 A2991 RMK AO2 T01630050 402250135
2026-04-25 04:35:00,METAR KHSP 250435Z AUTO 00000KT 10SM CLR 17/05 A2991 RMK AO2 T01710049
2026-04-25 04:15:00,METAR KHSP 250415Z AUTO 32003KT 10SM CLR 17/05 A2991 RMK AO2 T01700049
2026-04-25 03:55:00,METAR KHSP 250355Z AUTO 31004KT 10SM CLR 17/05 A2991 RMK AO2 T01720049
2026-04-25 03:35:00,METAR KHSP 250335Z AUTO 30005KT 10SM CLR 17/05 A2992 RMK AO2 T01720047
2026-04-25 03:15:00,METAR KHSP 250315Z AUTO 30005KT 10SM CLR 18/05 A2992 RMK AO2 T01760046
2026-04-25 02:55:00,METAR KHSP 250255Z AUTO 30004KT 10SM CLR 18/05 A2992 RMK AO2 T01760045
2026-04-25 02:35:00,METAR KHSP 250235Z AUTO 31003KT 10SM SCT080 18/04 A2992 RMK AO2 T01780041
2026-04-25 02:15:00,METAR KHSP 250215Z AUTO 00000KT 10SM SCT070 SCT090 18/04 A2992 RMK AO2 T01810042
2026-04-25 01:55:00,METAR KHSP 250155Z AUTO 29005KT 10SM SCT070 BKN090 19/04 A2992 RMK AO2 T01860041
2026-04-25 01:35:00,METAR KHSP 250135Z AUTO 27004KT 10SM OVC070 19/04 A2992 RMK AO2 T01850043
2026-04-25 01:15:00,METAR KHSP 250115Z AUTO 25004KT 10SM BKN070 18/04 A2991 RMK AO2 T01790044
2026-04-25 00:55:00,METAR KHSP 250055Z AUTO 26005KT 10SM CLR 17/04 A2991 RMK AO2 T01650040
2026-04-25 00:35:00,METAR KHSP 250035Z AUTO 23004KT 10SM CLR 17/04 A2990 RMK AO2 T01730040
2026-04-25 00:15:00,METAR KHSP 250015Z AUTO 24005KT 10SM CLR 18/04 A2990 RMK AO2 T01760041
2026-04-24 23:55:00,METAR KHSP 242355Z AUTO 24005KT 10SM CLR 18/04 A2990 RMK AO2 T01840040 10225 20173
2026-04-24 23:35:00,METAR KHSP 242335Z AUTO 26004KT 10SM CLR 20/04 A2989 RMK AO2 T01950040
2026-04-24 23:15:00,METAR KHSP 242315Z AUTO 26006KT 10SM CLR 20/04 A2989 RMK AO2 T01980040
2026-04-24 22:55:00,METAR KHSP 242255Z AUTO 26006KT 10SM SCT120 20/05 A2989 RMK AO2 T02010045
2026-04-24 22:35:00,METAR KHSP 242235Z AUTO 27006KT 10SM SCT120 20/05 A2989 RMK AO2 T01950046
2026-04-24 22:15:00,METAR KHSP 242215Z AUTO 27007KT 10SM SCT110 20/04 A2989 RMK AO2 T02000043
2026-04-24 21:55:00,METAR KHSP 242155Z AUTO 27008KT 10SM BKN110 20/04 A2989 RMK AO2 T02030041
2026-04-24 21:35:00,METAR KHSP 242135Z AUTO 26010KT 10SM SCT095 SCT120 20/04 A2989 RMK AO2 T02000043
2026-04-24 21:15:00,METAR KHSP 242115Z AUTO 26014G20KT 10SM BKN095 BKN120 20/04 A2989 RMK AO2 T01970044
2026-04-24 20:55:00,METAR KHSP 242055Z AUTO 27009KT 10SM BKN110 20/04 A2989 RMK AO2 T02040038
2026-04-24 20:35:00,METAR KHSP 242035Z AUTO 28007G14KT 10SM SCT120 21/04 A2989 RMK AO2 T02050037
2026-04-24 20:15:00,METAR KHSP 242015Z AUTO 27009G16KT 10SM CLR 21/03 A2990 RMK AO2 T02110033
2026-04-24 19:55:00,METAR KHSP 241955Z AUTO 27009G18KT 10SM SCT120 22/04 A2990 RMK AO2 T02230041
2026-04-24 19:35:00,METAR KHSP 241935Z AUTO 26010KT 10SM SCT120 21/05 A2991 RMK AO2 T02120046
2026-04-24 19:15:00,METAR KHSP 241915Z AUTO 28010G17KT 10SM SCT100 SCT120 22/06 A2992 RMK AO2 T02230060
2026-04-24 18:55:00,METAR KHSP 241855Z AUTO 24011KT 10SM SCT110 19/06 A2992 RMK AO2 T01920062
2026-04-24 18:35:00,METAR KHSP 241835Z AUTO 26008KT 10SM SCT040 SCT070 BKN085 20/07 A2993 RMK AO2 T01950070
2026-04-24 18:15:00,METAR KHSP 241815Z AUTO 25011G16KT 10SM -RA SCT037 BKN075 OVC090 19/06 A2994 RMK AO2 T01910060
2026-04-24 17:55:00,METAR KHSP 241755Z AUTO 27009KT 240V300 10SM SCT060 SCT080 OVC095 22/05 A2994 RMK AO2 T02160048 10224 20147
2026-04-24 17:35:00,METAR KHSP 241735Z AUTO 28013KT 10SM BKN060 OVC080 22/05 A2994 RMK AO2 T02190049
2026-04-24 17:15:00,METAR KHSP 241715Z AUTO 26004G09KT 10SM BKN060 BKN070 21/05 A2995 RMK AO2 T02070051
2026-04-24 16:55:00,METAR KHSP 241655Z AUTO 27006KT 10SM BKN060 BKN070 20/04 A2996 RMK AO2 T01970042
2026-04-24 16:35:00,METAR KHSP 241635Z AUTO 26007KT 10SM OVC060 20/05 A2996 RMK AO2 T02010049
2026-04-24 16:15:00,METAR KHSP 241615Z AUTO 30010KT 270V340 10SM BKN060 20/05 A2996 RMK AO2 T01980052
2026-04-24 15:55:00,METAR KHSP 241555Z AUTO 25012G16KT 10SM SCT050 21/05 A2997 RMK AO2 T02080052
2026-04-24 15:35:00,METAR KHSP 241535Z AUTO 27013G17KT 10SM SCT050 20/06 A2997 RMK AO2 T01990060
2026-04-24 15:15:00,METAR KHSP 241515Z AUTO 26014G18KT 10SM CLR 19/06 A2997 RMK AO2 T01910059
2026-04-24 14:55:00,METAR KHSP 241455Z AUTO 27011KT 10SM CLR 19/06 A2998 RMK AO2 T01890061
2026-04-24 14:35:00,METAR KHSP 241435Z AUTO 28009G15KT 10SM CLR 18/06 A2998 RMK AO2 T01840064
2026-04-24 14:15:00,METAR KHSP 241415Z AUTO 27010KT 10SM CLR 18/07 A2998 RMK AO2 T01780065
2026-04-24 13:55:00,METAR KHSP 241355Z AUTO 28007KT 10SM CLR 17/06 A2999 RMK AO2 T01710063
2026-04-24 13:35:00,METAR KHSP 241335Z AUTO 27008KT 10SM CLR 17/06 A2999 RMK AO2 T01670061
2026-04-24 13:15:00,METAR KHSP 241315Z AUTO 27008KT 10SM CLR 17/06 A2999 RMK AO2 T01650061
2026-04-24 12:55:00,METAR KHSP 241255Z AUTO 27007KT 10SM CLR 16/06 A2999 RMK AO2 T01590061
2026-04-24 12:35:00,METAR KHSP 241235Z AUTO 27007KT 10SM CLR 15/06 A2999 RMK AO2 T01520060
2026-04-24 12:15:00,METAR KHSP 241215Z AUTO 26009KT 10SM CLR 15/06 A2999 RMK AO2 T01470060
2026-04-24 11:55:00,METAR KHSP 241155Z AUTO 26009G14KT 10SM CLR 15/06 A2998 RMK AO2 T01460057 10155 20135
2026-04-24 11:35:00,METAR KHSP 241135Z AUTO 27010KT 10SM CLR 14/06 A2998 RMK AO2 T01430056
2026-04-24 11:15:00,METAR KHSP 241115Z AUTO 27009KT 10SM CLR 14/06 A2998 RMK AO2 T01410056
2026-04-24 10:55:00,METAR KHSP 241055Z AUTO 26009KT 10SM CLR 14/06 A2998 RMK AO2 T01360057
2026-04-24 10:35:00,METAR KHSP 241035Z AUTO 26008KT 10SM CLR 14/06 A2998 RMK AO2 T01390056
2026-04-24 10:15:00,METAR KHSP 241015Z AUTO 27008KT 10SM CLR 14/06 A2998 RMK AO2 T01420055
2026-04-24 09:55:00,METAR KHSP 240955Z AUTO 27008KT 10SM CLR 14/06 A2998 RMK AO2 T01410057
2026-04-24 09:35:00,METAR KHSP 240935Z AUTO 27007KT 10SM CLR 14/06 A2998 RMK AO2 T01400058
2026-04-24 09:15:00,METAR KHSP 240915Z AUTO 26008KT 10SM CLR 14/06 A2998 RMK AO2 T01440059
2026-04-24 08:55:00,METAR KHSP 240855Z AUTO 27007KT 10SM CLR 15/06 A2998 RMK AO2 T01450059
2026-04-24 08:35:00,METAR KHSP 240835Z AUTO 27008G15KT 10SM CLR 15/06 A2998 RMK AO2 T01450060
2026-04-24 08:15:00,METAR KHSP 240815Z AUTO 28008KT 10SM CLR 15/06 A2998 RMK AO2 T01480060
2026-04-24 07:55:00,METAR KHSP 240755Z AUTO 28008KT 10SM CLR 15/06 A2998 RMK AO2 T01510060
2026-04-24 07:35:00,METAR KHSP 240735Z AUTO 28011KT 10SM CLR 15/06 A2998 RMK AO2 T01500060
2026-04-24 07:15:00,METAR KHSP 240715Z AUTO 28010G15KT 10SM CLR 15/06 A2998 RMK AO2 T01500060
2026-04-24 06:55:00,METAR KHSP 240655Z AUTO 27009G14KT 10SM CLR 15/06 A2998 RMK AO2 T01520060
2026-04-24 06:35:00,METAR KHSP 240635Z AUTO 27010G15KT 10SM CLR 16/06 A2998 RMK AO2 T01550060
2026-04-24 06:15:00,METAR KHSP 240615Z AUTO 27009KT 10SM CLR 15/06 A2998 RMK AO2 T01520061
2026-04-24 05:55:00,METAR KHSP 240555Z AUTO 27008KT 10SM CLR 16/06 A2998 RMK AO2 T01560061 10187 20155
2026-04-24 05:35:00,METAR KHSP 240535Z AUTO 28008KT 10SM CLR 16/06 A2999 RMK AO2 T01560062
2026-04-24 05:15:00,METAR KHSP 240515Z AUTO 28009KT 10SM CLR 16/06 A2999 RMK AO2 T01600062
2026-04-24 04:55:00,METAR KHSP 240455Z AUTO 27010G14KT 10SM CLR 16/06 A3000 RMK AO2 T01580063 402130122
2026-04-24 04:35:00,METAR KHSP 240435Z AUTO 28009KT 10SM CLR 16/07 A3001 RMK AO2 T01600065
2026-04-24 04:15:00,METAR KHSP 240415Z AUTO 28012KT 10SM CLR 16/07 A3001 RMK AO2 T01610065
2026-04-24 03:55:00,METAR KHSP 240355Z AUTO 27009KT 10SM SCT110 16/07 A3001 RMK AO2 T01620066
2026-04-24 03:35:00,METAR KHSP 240335Z AUTO 28009KT 10SM BKN110 16/07 A3002 RMK AO2 T01610069
2026-04-24 03:15:00,METAR KHSP 240315Z AUTO 28008KT 10SM OVC110 16/07 A3003 RMK AO2 T01630071
2026-04-24 02:55:00,METAR KHSP 240255Z AUTO 28007KT 10SM BKN110 16/07 A3003 RMK AO2 T01610074
2026-04-24 02:35:00,METAR KHSP 240235Z AUTO 29009KT 10SM SCT110 16/07 A3003 RMK AO2 T01620073
2026-04-24 02:15:00,METAR KHSP 240215Z AUTO 29008KT 10SM SCT110 16/07 A3003 RMK AO2 T01640072
2026-04-24 01:55:00,METAR KHSP 240155Z AUTO 30007KT 10SM BKN110 17/07 A3003 RMK AO2 T01660071
2026-04-24 01:35:00,METAR KHSP 240135Z AUTO 31007KT 10SM CLR 17/06 A3003 RMK AO2 T01740063
2026-04-24 01:15:00,METAR KHSP 240115Z AUTO 29006KT 10SM SCT060 18/06 A3003 RMK AO2 T01760060
2026-04-24 00:55:00,METAR KHSP 240055Z AUTO 30006KT 10SM SCT060 18/06 A3003 RMK AO2 T01790058
2026-04-24 00:35:00,METAR KHSP 240035Z AUTO 28007KT 10SM SCT060 18/06 A3003 RMK AO2 T01810056
2026-04-24 00:15:00,METAR KHSP 240015Z AUTO 26007KT 10SM SCT060 SCT100 18/05 A3002 RMK AO2 T01830054
2026-04-23 23:55:00,METAR KHSP 232355Z AUTO 27008G14KT 10SM SCT060 19/05 A3002 RMK AO2 T01890053 10213 20189
2026-04-23 23:35:00,METAR KHSP 232335Z AUTO 30006KT 10SM SCT060 BKN100 20/06 A3002 RMK AO2 T01950056
2026-04-23 23:15:00,METAR KHSP 232315Z AUTO 29005KT 10SM OVC100 20/05 A3002 RMK AO2 T02010054
2026-04-23 22:55:00,METAR KHSP 232255Z AUTO 27009G14KT 10SM OVC100 20/05 A3002 RMK AO2 T01950049
2026-04-23 22:35:00,METAR KHSP 232235Z AUTO 27008KT 10SM SCT060 OVC100 20/05 A3002 RMK AO2 T01970048
2026-04-23 22:15:00,METAR KHSP 232215Z AUTO 27010G15KT 10SM BKN060 OVC100 20/05 A3002 RMK AO2 T01990052
2026-04-23 21:55:00,METAR KHSP 232155Z AUTO 30007KT 10SM BKN060 BKN070 OVC095 21/06 A3002 RMK AO2 T02070059
2026-04-23 21:35:00,METAR KHSP 232135Z AUTO 33004KT 10SM SCT060 SCT070 OVC095 20/06 A3002 RMK AO2 T02000059
2026-04-23 21:15:00,METAR KHSP 232115Z AUTO 27011KT 10SM SCT070 BKN095 20/06 A3002 RMK AO2 T02010056
2026-04-23 20:55:00,METAR KHSP 232055Z AUTO 34008KT 10SM SCT060 BKN080 OVC095 20/06 A3003 RMK AO2 T02010061
2026-04-23 20:35:00,METAR KHSP 232035Z AUTO 30005KT 10SM SCT070 OVC095 20/06 A3003 RMK AO2 T02000060
2026-04-23 19:55:00,METAR KHSP 231955Z AUTO 27011G15KT 10SM BKN055 BKN075 BKN085 21/05 A3004 RMK AO2 T02070053
2026-04-23 19:35:00,METAR KHSP 231935Z AUTO 27010KT 10SM BKN055 OVC075 21/05 A3005 RMK AO2 T02060053
2026-04-23 19:15:00,METAR KHSP 231915Z AUTO 27010G18KT 250V310 10SM SCT055 SCT065 OVC090 20/05 A3006 RMK AO2 T02020052
2026-04-23 18:55:00,METAR KHSP 231855Z AUTO 27009KT 10SM SCT055 BKN085 OVC090 19/06 A3007 RMK AO2 T01940055
2026-04-23 18:35:00,METAR KHSP 231835Z AUTO 29012KT 10SM SCT060 BKN075 BKN085 20/06 A3007 RMK AO2 T02020058
2026-04-23 18:15:00,METAR KHSP 231815Z AUTO 29009KT 10SM BKN085 21/06 A3008 RMK AO2 T02060062
2026-04-23 17:55:00,METAR KHSP 231755Z AUTO 30012G15KT 10SM SCT050 SCT065 BKN085 20/06 A3009 RMK AO2 T02000058 10210 20131
2026-04-23 17:35:00,METAR KHSP 231735Z AUTO 28012G17KT 10SM SCT050 BKN065 21/06 A3009 RMK AO2 T02090063
2026-04-23 16:55:00,METAR KHSP 231655Z AUTO 30012G15KT 10SM SCT050 SCT055 20/06 A3011 RMK AO2 T02000063
2026-04-23 16:35:00,METAR KHSP 231635Z AUTO 28008G17KT 10SM SCT048 SCT050 20/06 A3011 RMK AO2 T01980064
2026-04-23 16:15:00,METAR KHSP 231615Z AUTO 29013G16KT 10SM SCT048 20/07 A3012 RMK AO2 T01960065
2026-04-23 15:55:00,METAR KHSP 231555Z AUTO 30010G14KT 10SM SCT048 20/07 A3012 RMK AO2 T01960066
2026-04-23 15:35:00,METAR KHSP 231535Z AUTO 28013G19KT 10SM SCT043 19/07 A3012 RMK AO2 T01880066
2026-04-23 15:15:00,METAR KHSP 231515Z AUTO 27011G15KT 10SM CLR 18/07 A3012 RMK AO2 T01800066
2026-04-23 14:55:00,METAR KHSP 231455Z AUTO 27010KT 10SM CLR 18/07 A3013 RMK AO2 T01770067
2026-04-23 14:35:00,METAR KHSP 231435Z AUTO 28011G15KT 10SM CLR 17/06 A3013 RMK AO2 T01680062
2026-04-23 14:15:00,METAR KHSP 231415Z AUTO 28009KT 10SM CLR 16/06 A3012 RMK AO2 T01590060
2026-04-23 13:55:00,METAR KHSP 231355Z AUTO 28010G14KT 10SM CLR 15/06 A3012 RMK AO2 T01520058
2026-04-23 13:35:00,METAR KHSP 231335Z AUTO 27011KT 10SM CLR 15/06 A3012 RMK AO2 T01460055
2026-04-23 13:15:00,METAR KHSP 231315Z AUTO 28011G15KT 10SM CLR 15/05 A3012 RMK AO2 T01450053
2026-04-23 12:55:00,METAR KHSP 231255Z AUTO 28011G17KT 10SM CLR 14/05 A3012 RMK AO2 T01390051
2026-04-23 12:35:00,METAR KHSP 231235Z AUTO 27011G17KT 10SM CLR 13/05 A3011 RMK AO2 T01330047
2026-04-23 12:15:00,METAR KHSP 231215Z AUTO 27011G17KT 10SM CLR 13/05 A3011 RMK AO2 T01320046
2026-04-23 11:55:00,METAR KHSP 231155Z AUTO 27013G19KT 10SM CLR 13/04 A3011 RMK AO2 T01320044 10132 20122
2026-04-23 11:35:00,METAR KHSP 231135Z AUTO 27015KT 10SM CLR 13/04 A3011 RMK AO2 T01290042
2026-04-23 11:15:00,METAR KHSP 231115Z AUTO 27016G23KT 10SM CLR 13/04 A3010 RMK AO2 T01300041
2026-04-23 10:55:00,METAR KHSP 231055Z AUTO 27014G20KT 10SM CLR 13/04 A3010 RMK AO2 T01260039
2026-04-23 10:35:00,METAR KHSP 231035Z AUTO 28014G17KT 10SM CLR 13/04 A3009 RMK AO2 T01250036
2026-04-23 10:15:00,METAR KHSP 231015Z AUTO 27015G19KT 10SM CLR 13/04 A3008 RMK AO2 T01270035
2026-04-23 09:55:00,METAR KHSP 230955Z AUTO 27014G18KT 10SM CLR 13/04 A3008 RMK AO2 T01250038
2026-04-23 09:35:00,METAR KHSP 230935Z AUTO 27014KT 10SM CLR 12/04 A3008 RMK AO2 T01240042
2026-04-23 09:15:00,METAR KHSP 230915Z AUTO 27015G20KT 10SM CLR 13/04 A3008 RMK AO2 T01250044
2026-04-23 08:55:00,METAR KHSP 230855Z AUTO 27014KT 10SM CLR 12/05 A3008 RMK AO2 T01230046
2026-04-23 08:35:00,METAR KHSP 230835Z AUTO 27014G19KT 10SM CLR 13/05 A3008 RMK AO2 T01250048
2026-04-23 08:15:00,METAR KHSP 230815Z AUTO 27012G17KT 10SM CLR 13/05 A3008 RMK AO2 T01250048
2026-04-23 07:55:00,METAR KHSP 230755Z AUTO 27013KT 10SM CLR 13/05 A3008 RMK AO2 T01260050
2026-04-23 07:35:00,METAR KHSP 230735Z AUTO 27012KT 10SM CLR 13/05 A3009 RMK AO2 T01280050
2026-04-23 07:15:00,METAR KHSP 230715Z AUTO 27013KT 10SM CLR 13/05 A3008 RMK AO2 T01300052
2026-04-23 06:55:00,METAR KHSP 230655Z AUTO 27015KT 10SM CLR 13/05 A3009 RMK AO2 T01290054
2026-04-23 06:35:00,METAR KHSP 230635Z AUTO 27012KT 10SM CLR 13/05 A3009 RMK AO2 T01270051
2026-04-23 06:15:00,METAR KHSP 230615Z AUTO 27013KT 10SM CLR 13/05 A3009 RMK AO2 T01300052
2026-04-23 05:55:00,METAR KHSP 230555Z AUTO 27013KT 10SM CLR 13/05 A3010 RMK AO2 T01300052 10146 20128
2026-04-23 05:35:00,METAR KHSP 230535Z AUTO 26012KT 10SM CLR 13/05 A3011 RMK AO2 T01300052
2026-04-23 05:15:00,METAR KHSP 230515Z AUTO 26010KT 10SM CLR 13/05 A3012 RMK AO2 T01300053
2026-04-23 04:55:00,METAR KHSP 230455Z AUTO 27011KT 10SM CLR 13/05 A3012 RMK AO2 T01320052 401610113
2026-04-23 04:35:00,METAR KHSP 230435Z AUTO 27010KT 10SM CLR 13/05 A3012 RMK AO2 T01320051
2026-04-23 04:15:00,METAR KHSP 230415Z AUTO 27009KT 10SM CLR 13/05 A3012 RMK AO2 T01330049
2026-04-23 03:55:00,METAR KHSP 230355Z AUTO 27011KT 10SM CLR 14/05 A3012 RMK AO2 T01350048
2026-04-23 03:35:00,METAR KHSP 230335Z AUTO 27011KT 10SM CLR 14/05 A3012 RMK AO2 T01350048
2026-04-23 03:15:00,METAR KHSP 230315Z AUTO 27012KT 10SM CLR 14/05 A3012 RMK AO2 T01360048
2026-04-23 02:55:00,METAR KHSP 230255Z AUTO 26009KT 10SM CLR 13/05 A3013 RMK AO2 T01340050
2026-04-23 02:35:00,METAR KHSP 230235Z AUTO 27009KT 10SM CLR 13/05 A3013 RMK AO2 T01340052
2026-04-23 02:15:00,METAR KHSP 230215Z AUTO 26010KT 10SM CLR 14/05 A3013 RMK AO2 T01360052
2026-04-23 01:55:00,METAR KHSP 230155Z AUTO 27009KT 10SM CLR 14/06 A3012 RMK AO2 T01360055
2026-04-23 01:35:00,METAR KHSP 230135Z AUTO 27010KT 10SM CLR 13/06 A3012 RMK AO2 T01340057
2026-04-23 01:15:00,METAR KHSP 230115Z AUTO 26008KT 10SM CLR 14/06 A3012 RMK AO2 T01350060
2026-04-23 00:55:00,METAR KHSP 230055Z AUTO 26007KT 10SM CLR 14/06 A3011 RMK AO2 LTG DSNT NW T01370060
2026-04-23 00:35:00,METAR KHSP 230035Z AUTO 27010G17KT 10SM CLR 14/06 A3010 RMK AO2 T01410060
2026-04-23 00:15:00,METAR KHSP 230015Z AUTO 28010KT 10SM CLR 14/06 A3010 RMK AO2 T01420060
2026-04-22 23:55:00,METAR KHSP 222355Z AUTO 27009G16KT 10SM CLR 15/06 A3009 RMK AO2 T01470060 10158 20138
2026-04-22 23:35:00,METAR KHSP 222335Z AUTO 28009KT 10SM CLR 15/06 A3009 RMK AO2 T01510062
2026-04-22 23:15:00,METAR KHSP 222315Z AUTO 28011G19KT 10SM SCT037 SCT042 16/06 A3008 RMK AO2 T01550063
2026-04-22 22:55:00,METAR KHSP 222255Z AUTO 29008G18KT 260V320 10SM BKN035 BKN042 16/07 A3008 RMK AO2 T01580070
2026-04-22 22:35:00,METAR KHSP 222235Z AUTO 28011G20KT 10SM BKN028 OVC036 15/08 A3009 RMK AO2 T01530076
2026-04-22 22:15:00,METAR KHSP 222215Z AUTO 28016G22KT 10SM BKN028 OVC035 15/09 A3009 RMK AO2 T01500085
2026-04-22 21:55:00,METAR KHSP 222155Z AUTO 27016G23KT 10SM BKN026 BKN031 OVC041 15/08 A3009 RMK AO2 T01500084
2026-04-22 21:35:00,METAR KHSP 222135Z AUTO 27016G23KT 10SM OVC026 15/08 A3009 RMK AO2 T01480083
2026-04-22 21:15:00,METAR KHSP 222115Z AUTO 27016G24KT 10SM OVC026 15/08 A3009 RMK AO2 LTG DSNT NW T01520083
2026-04-22 20:55:00,METAR KHSP 222055Z AUTO 28015G23KT 240V300 10SM BKN024 OVC031 15/09 A3009 RMK AO2 T01540085
2026-04-22 20:35:00,METAR KHSP 222035Z AUTO 26015G20KT 10SM BKN024 OVC031 15/08 A3009 RMK AO2 T01540084
2026-04-22 20:15:00,METAR KHSP 222015Z AUTO 27013G24KT 10SM BKN026 OVC033 15/08 A3009 RMK AO2 T01490080
2026-04-22 19:55:00,METAR KHSP 221955Z AUTO 27015G24KT 10SM OVC026 15/08 A3009 RMK AO2 T01530080
2026-04-22 19:35:00,METAR KHSP 221935Z AUTO 28018G25KT 10SM BKN026 15/08 A3009 RMK AO2 T01490076
2026-04-22 19:15:00,METAR KHSP 221915Z AUTO 27016G27KT 10SM BKN026 14/08 A3010 RMK AO2 T01440076
2026-04-22 18:55:00,METAR KHSP 221855Z AUTO 26016G23KT 10SM BKN028 OVC033 14/07 A3011 RMK AO2 T01400071
2026-04-22 18:35:00,METAR KHSP 221835Z AUTO 27015G19KT 10SM BKN028 BKN034 OVC090 14/07 A3011 RMK AO2 T01440070
2026-04-22 18:15:00,METAR KHSP 221815Z AUTO 26014G20KT 10SM SCT026 SCT041 BKN055 15/07 A3012 RMK AO2 T01520073
2026-04-22 17:55:00,METAR KHSP 221755Z AUTO 27017G23KT 10SM SCT024 BKN043 OVC065 14/08 A3012 RMK AO2 T01420076 10161 20120
2026-04-22 17:35:00,METAR KHSP 221735Z AUTO 27017G23KT 10SM BKN027 OVC033 14/08 A3013 RMK AO2 T01350077
2026-04-22 17:15:00,METAR KHSP 221715Z AUTO 27018G23KT 10SM OVC027 14/07 A3013 RMK AO2 T01430071
2026-04-22 16:55:00,METAR KHSP 221655Z AUTO 28013G22KT 10SM OVC027 14/07 A3013 RMK AO2 T01370071
2026-04-22 16:35:00,METAR KHSP 221635Z AUTO 28014G23KT 10SM OVC027 14/07 A3013 RMK AO2 T01370070
2026-04-22 16:15:00,METAR KHSP 221615Z AUTO 27017G26KT 10SM BKN031 BKN042 OVC060 16/07 A3013 RMK AO2 T01610067
2026-04-22 15:55:00,METAR KHSP 221555Z AUTO 28017G23KT 10SM SCT033 BKN047 OVC060 14/06 A3013 RMK AO2 T01400057
2026-04-22 15:35:00,METAR KHSP 221535Z AUTO 28011G21KT 10SM SCT035 OVC047 14/05 A3014 RMK AO2 T01390047
2026-04-22 15:15:00,METAR KHSP 221515Z AUTO 29012G22KT 260V320 10SM BKN038 BKN043 OVC050 14/04 A3014 RMK AO2 T01420041
2026-04-22 14:55:00,METAR KHSP 221455Z AUTO 28016G24KT 10SM SCT039 SCT050 16/03 A3013 RMK AO2 T01550032
2026-04-22 14:35:00,METAR KHSP 221435Z AUTO 27017G24KT 10SM CLR 14/03 A3013 RMK AO2 T01370026
2026-04-22 14:15:00,METAR KHSP 221415Z AUTO 27012G24KT 10SM CLR 14/03 A3012 RMK AO2 T01350025
2026-04-22 13:55:00,METAR KHSP 221355Z AUTO 27018G28KT 10SM SCT070 SCT100 13/03 A3011 RMK AO2 T01330025
2026-04-22 13:35:00,METAR KHSP 221335Z AUTO 27017G25KT 10SM SCT070 13/02 A3011 RMK AO2 T01300024
2026-04-22 13:15:00,METAR KHSP 221315Z AUTO 26019G26KT 10SM SCT060 13/02 A3012 RMK AO2 T01280024
2026-04-22 12:55:00,METAR KHSP 221255Z AUTO 27018G27KT 10SM CLR 13/02 A3012 RMK AO2 T01250022
2026-04-22 12:35:00,METAR KHSP 221235Z AUTO 28017G26KT 10SM CLR 12/02 A3012 RMK AO2 T01230022
2026-04-22 12:15:00,METAR KHSP 221215Z AUTO 27019G27KT 10SM CLR 12/02 A3012 RMK AO2 T01210021
2026-04-22 11:55:00,METAR KHSP 221155Z AUTO 27016G23KT 10SM CLR 12/02 A3012 RMK AO2 T01200021 10124 20113
2026-04-22 11:35:00,METAR KHSP 221135Z AUTO 27015G22KT 10SM CLR 12/02 A3012 RMK AO2 T01180021
2026-04-22 11:15:00,METAR KHSP 221115Z AUTO 27014G22KT 10SM CLR 12/02 A3012 RMK AO2 T01150023
2026-04-22 10:55:00,METAR KHSP 221055Z AUTO 27015G22KT 10SM CLR 12/03 A3011 RMK AO2 T01150025
2026-04-22 10:35:00,METAR KHSP 221035Z AUTO 27015G25KT 10SM CLR 12/03 A3011 RMK AO2 T01150026
2026-04-22 10:15:00,METAR KHSP 221015Z AUTO 26019G25KT 10SM CLR 12/03 A3011 RMK AO2 T01150026
2026-04-22 09:55:00,METAR KHSP 220955Z AUTO 27015G22KT 10SM CLR 12/03 A3011 RMK AO2 T01150027
2026-04-22 09:35:00,METAR KHSP 220935Z AUTO 27014G24KT 10SM CLR 12/03 A3011 RMK AO2 T01150028
2026-04-22 09:15:00,METAR KHSP 220915Z AUTO 27016G22KT 10SM CLR 12/03 A3011 RMK AO2 T01170030
2026-04-22 08:55:00,METAR KHSP 220855Z AUTO 26018G28KT 10SM CLR 12/03 A3012 RMK AO2 T01200030
2026-04-22 08:35:00,METAR KHSP 220835Z AUTO 26017G28KT 10SM CLR 12/03 A3012 RMK AO2 T01210029
2026-04-22 08:15:00,METAR KHSP 220815Z AUTO 26017G25KT 10SM CLR 12/03 A3012 RMK AO2 T01200027
2026-04-22 07:55:00,METAR KHSP 220755Z AUTO 26016G24KT 10SM CLR 12/03 A3012 RMK AO2 T01220026
2026-04-22 07:35:00,METAR KHSP 220735Z AUTO 26017G25KT 10SM CLR 12/03 A3012 RMK AO2 T01220026
2026-04-22 07:15:00,METAR KHSP 220715Z AUTO 26016G24KT 10SM CLR 12/03 A3012 RMK AO2 T01210026
2026-04-22 06:55:00,METAR KHSP 220655Z AUTO 27017G21KT 10SM CLR 12/03 A3013 RMK AO2 T01230026
2026-04-22 06:35:00,METAR KHSP 220635Z AUTO 26017G23KT 10SM CLR 12/03 A3014 RMK AO2 T01230025
2026-04-22 06:15:00,METAR KHSP 220615Z AUTO 26016G23KT 10SM CLR 12/02 A3014 RMK AO2 T01220023
2026-04-22 05:55:00,METAR KHSP 220555Z AUTO 26019G23KT 10SM CLR 12/02 A3014 RMK AO2 T01230022 10130 20106
2026-04-22 05:35:00,METAR KHSP 220535Z AUTO 26017G23KT 10SM CLR 12/02 A3015 RMK AO2 T01240020
2026-04-22 05:15:00,METAR KHSP 220515Z AUTO 26017G26KT 10SM CLR 13/02 A3016 RMK AO2 T01250020
2026-04-22 04:55:00,METAR KHSP 220455Z AUTO 26016G21KT 10SM CLR 13/02 A3016 RMK AO2 T01250018 401441004
2026-04-22 04:35:00,METAR KHSP 220435Z AUTO 26018G22KT 10SM CLR 13/02 A3016 RMK AO2 T01250017
2026-04-22 04:15:00,METAR KHSP 220415Z AUTO 25017G24KT 10SM CLR 13/02 A3017 RMK AO2 T01280016
2026-04-22 03:55:00,METAR KHSP 220355Z AUTO 25016G22KT 10SM CLR 13/01 A3017 RMK AO2 T01270014
2026-04-22 03:35:00,METAR KHSP 220335Z AUTO 25017G21KT 10SM CLR 13/01 A3017 RMK AO2 T01270013
2026-04-22 03:15:00,METAR KHSP 220315Z AUTO 25019G26KT 10SM CLR 13/01 A3017 RMK AO2 T01300013
2026-04-22 02:55:00,METAR KHSP 220255Z AUTO 23014G19KT 10SM CLR 12/01 A3018 RMK AO2 T01220008
2026-04-22 02:35:00,METAR KHSP 220235Z AUTO 23013G16KT 10SM CLR 12/00 A3018 RMK AO2 T01200004
2026-04-22 02:15:00,METAR KHSP 220215Z AUTO 22010KT 10SM CLR 12/00 A3019 RMK AO2 T01220001
2026-04-22 01:55:00,METAR KHSP 220155Z AUTO 22012G16KT 10SM CLR 12/00 A3019 RMK AO2 T01230000
2026-04-22 01:35:00,METAR KHSP 220135Z AUTO 21009KT 10SM CLR 12/00 A3019 RMK AO2 T01201002
2026-04-22 01:15:00,METAR KHSP 220115Z AUTO 20008KT 10SM CLR 12/M01 A3019 RMK AO2 T01201007
2026-04-22 00:55:00,METAR KHSP 220055Z AUTO 19008KT 10SM CLR 11/M01 A3018 RMK AO2 T01071015
2026-04-22 00:35:00,METAR KHSP 220035Z AUTO 19010G14KT 10SM CLR 11/M02 A3017 RMK AO2 T01101016
2026-04-22 00:15:00,METAR KHSP 220015Z AUTO 18009KT 10SM CLR 11/M02 A3016 RMK AO2 T01101019
2026-04-21 23:55:00,METAR KHSP 212355Z AUTO 18009G16KT 10SM CLR 11/M02 A3016 RMK AO2 T01111020 10144 20107
2026-04-21 23:35:00,METAR KHSP 212335Z AUTO 17012G16KT 10SM CLR 12/M02 A3016 RMK AO2 T01151021
2026-04-21 23:15:00,METAR KHSP 212315Z AUTO 18009G14KT 10SM CLR 12/M02 A3016 RMK AO2 T01201022
2026-04-21 22:55:00,METAR KHSP 212255Z AUTO 16009KT 10SM CLR 13/M02 A3016 RMK AO2 T01271025
2026-04-21 22:35:00,METAR KHSP 212235Z AUTO 17009KT 10SM CLR 14/M03 A3016 RMK AO2 T01351030
2026-04-21 22:15:00,METAR KHSP 212215Z AUTO 17008G16KT 10SM CLR 14/M03 A3017 RMK AO2 T01361033
2026-04-21 21:55:00,METAR KHSP 212155Z AUTO 15009KT 10SM CLR 14/M03 A3017 RMK AO2 T01391035
2026-04-21 21:35:00,METAR KHSP 212135Z AUTO 16009G17KT 10SM CLR 14/M04 A3017 RMK AO2 T01361040
2026-04-21 21:15:00,METAR KHSP 212115Z AUTO 16009G15KT 10SM CLR 14/M04 A3018 RMK AO2 T01381042
2026-04-21 20:55:00,METAR KHSP 212055Z AUTO 16012G17KT 10SM CLR 14/M04 A3019 RMK AO2 T01401045
2026-04-21 20:35:00,METAR KHSP 212035Z AUTO 17011G14KT 10SM CLR 14/M05 A3019 RMK AO2 T01391047
2026-04-21 20:15:00,METAR KHSP 212015Z AUTO 16007KT 110V190 10SM CLR 14/M05 A3020 RMK AO2 T01391047
2026-04-21 19:55:00,METAR KHSP 211955Z AUTO 16009G14KT 10SM CLR 14/M05 A3021 RMK AO2 T01371051
2026-04-21 19:35:00,METAR KHSP 211935Z AUTO 16007KT 130V200 10SM CLR 13/M05 A3021 RMK AO2 T01321053
2026-04-21 19:15:00,METAR KHSP 211915Z AUTO 17007KT 130V240 10SM CLR 13/M05 A3022 RMK AO2 T01301050
2026-04-21 18:55:00,METAR KHSP 211855Z AUTO 16010G14KT 130V200 10SM CLR 13/M05 A3023 RMK AO2 T01261055
2026-04-21 18:35:00,METAR KHSP 211835Z AUTO 16009G15KT 140V220 10SM CLR 12/M06 A3024 RMK AO2 T01191059
2026-04-21 18:15:00,METAR KHSP 211815Z AUTO 20005KT 10SM CLR 12/M06 A3025 RMK AO2 T01151059
2026-04-21 17:55:00,METAR KHSP 211755Z AUTO 16006KT 10SM CLR 11/M06 A3026 RMK AO2 T01081061 10114 20022
2026-04-21 17:35:00,METAR KHSP 211735Z AUTO 17006KT 10SM CLR 11/M06 A3027 RMK AO2 T01141061
2026-04-21 17:15:00,METAR KHSP 211715Z AUTO 16006KT 10SM CLR 10/M07 A3028 RMK AO2 T01021072
2026-04-21 16:55:00,METAR KHSP 211655Z AUTO 19006KT 10SM CLR 10/M06 A3028 RMK AO2 T00961062
2026-04-21 16:35:00,METAR KHSP 211635Z AUTO 00000KT 10SM CLR 09/M07 A3029 RMK AO2 T00891067
2026-04-21 16:15:00,METAR KHSP 211615Z AUTO 17007KT 100V230 10SM CLR 08/M06 A3030 RMK AO2 T00841061
2026-04-21 15:55:00,METAR KHSP 211555Z AUTO 16005KT 10SM CLR 08/M07 A3031 RMK AO2 T00771069
2026-04-21 15:35:00,METAR KHSP 211535Z AUTO 19003KT 10SM CLR 07/M07 A3031 RMK AO2 T00691067
2026-04-21 15:15:00,METAR KHSP 211515Z AUTO 13004KT 10SM CLR 07/M07 A3031 RMK AO2 T00691071
2026-04-21 14:55:00,METAR KHSP 211455Z AUTO 27007KT 10SM CLR 06/M07 A3031 RMK AO2 T00631068
2026-04-21 14:35:00,METAR KHSP 211435Z AUTO 25006KT 10SM CLR 06/M07 A3031 RMK AO2 T00611071
2026-04-21 14:15:00,METAR KHSP 211415Z AUTO 09003KT 10SM CLR 04/M07 A3031 RMK AO2 T00411075
2026-04-21 13:55:00,METAR KHSP 211355Z AUTO 21004KT 10SM CLR 05/M07 A3031 RMK AO2 T00511075
2026-04-21 13:35:00,METAR KHSP 211335Z AUTO 00000KT 10SM CLR 05/M08 A3031 RMK AO2 T00461079
2026-04-21 13:15:00,METAR KHSP 211315Z AUTO 23007KT 10SM CLR 04/M09 A3031 RMK AO2 T00421091
2026-04-21 12:55:00,METAR KHSP 211255Z AUTO 23007KT 10SM CLR 04/M09 A3032 RMK AO2 T00371093
2026-04-21 12:35:00,METAR KHSP 211235Z AUTO 22008KT 10SM CLR 04/M09 A3031 RMK AO2 T00351094
2026-04-21 12:15:00,METAR KHSP 211215Z AUTO 23007KT 10SM CLR 03/M10 A3031 RMK AO2 T00271096
2026-04-21 11:55:00,METAR KHSP 211155Z AUTO 23006KT 10SM CLR 02/M09 A3031 RMK AO2 T00221093 10022 21004
2026-04-21 11:35:00,METAR KHSP 211135Z AUTO 22007KT 10SM CLR 01/M09 A3030 RMK AO2 T00131094
2026-04-21 11:15:00,METAR KHSP 211115Z AUTO 22005KT 10SM CLR 01/M10 A3030 RMK AO2 T00061099
2026-04-21 10:55:00,METAR KHSP 211055Z AUTO 22004KT 10SM CLR 01/M10 A3029 RMK AO2 T00061104
2026-04-21 10:35:00,METAR KHSP 211035Z AUTO 21004KT 10SM CLR 01/M11 A3028 RMK AO2 T00091106
2026-04-21 10:15:00,METAR KHSP 211015Z AUTO 22005KT 10SM CLR 00/M10 A3028 RMK AO2 T00031105
2026-04-21 09:55:00,METAR KHSP 210955Z AUTO 23005KT 10SM CLR 01/M10 A3028 RMK AO2 T00051105
2026-04-21 09:35:00,METAR KHSP 210935Z AUTO 22006KT 10SM CLR 00/M10 A3027 RMK AO2 T00001100
2026-04-21 09:15:00,METAR KHSP 210915Z AUTO 22006KT 10SM CLR 00/M10 A3027 RMK AO2 T00001100
2026-04-21 08:55:00,METAR KHSP 210855Z AUTO 22005KT 10SM CLR 01/M10 A3026 RMK AO2 T00061100
2026-04-21 08:35:00,METAR KHSP 210835Z AUTO 22006KT 10SM CLR 01/M10 A3026 RMK AO2 T00071098
2026-04-21 08:15:00,METAR KHSP 210815Z AUTO 21005KT 10SM CLR 01/M10 A3026 RMK AO2 T00081102
2026-04-21 07:55:00,METAR KHSP 210755Z AUTO 20005KT 10SM CLR 01/M10 A3025 RMK AO2 T00071105
2026-04-21 07:35:00,METAR KHSP 210735Z AUTO 20005KT 10SM CLR 01/M11 A3026 RMK AO2 T00071110
2026-04-21 07:15:00,METAR KHSP 210715Z AUTO 20004KT 10SM CLR 01/M11 A3025 RMK AO2 T00081112
2026-04-21 06:55:00,METAR KHSP 210655Z AUTO 00000KT 10SM CLR 01/M11 A3024 RMK AO2 T00061112
2026-04-21 06:35:00,METAR KHSP 210635Z AUTO 15003KT 10SM CLR 01/M11 A3025 RMK AO2 T00061113
2026-04-21 06:15:00,METAR KHSP 210615Z AUTO 00000KT 10SM CLR 00/M11 A3025 RMK AO2 T00021111
2026-04-21 05:55:00,METAR KHSP 210555Z AUTO 00000KT 10SM CLR 01/M11 A3025 RMK AO2 T00051111 10042 20003
2026-04-21 05:35:00,METAR KHSP 210535Z AUTO 00000KT 10SM CLR 01/M11 A3025 RMK AO2 T00101115
2026-04-21 05:15:00,METAR KHSP 210515Z AUTO 05003KT 10SM CLR 01/M11 A3025 RMK AO2 T00081112
2026-04-21 04:55:00,METAR KHSP 210455Z AUTO 01003KT 10SM CLR 01/M11 A3025 RMK AO2 T00101115 400820008
2026-04-21 04:35:00,METAR KHSP 210435Z AUTO 35003KT 10SM CLR 01/M11 A3024 RMK AO2 T00111113
2026-04-21 04:15:00,METAR KHSP 210415Z AUTO 00000KT 10SM CLR 01/M11 A3024 RMK AO2 T00091112
2026-04-21 03:55:00,METAR KHSP 210355Z AUTO 00000KT 10SM CLR 01/M11 A3024 RMK AO2 T00101114
2026-04-21 03:35:00,METAR KHSP 210335Z AUTO 36004KT 10SM CLR 01/M11 A3023 RMK AO2 T00101115
2026-04-21 03:15:00,METAR KHSP 210315Z AUTO 35005KT 10SM CLR 01/M11 A3024 RMK AO2 T00131115
2026-04-21 02:55:00,METAR KHSP 210255Z AUTO 01005KT 10SM CLR 01/M12 A3024 RMK AO2 T00141117
2026-04-21 02:35:00,METAR KHSP 210235Z AUTO 33006KT 10SM CLR 02/M12 A3024 RMK AO2 T00191117
2026-04-21 02:15:00,METAR KHSP 210215Z AUTO 31007G14KT 10SM CLR 02/M12 A3025 RMK AO2 T00221119
2026-04-21 01:55:00,METAR KHSP 210155Z AUTO 32005KT 10SM CLR 02/M12 A3025 RMK AO2 T00221120
2026-04-21 01:35:00,METAR KHSP 210135Z AUTO 32006KT 10SM CLR 03/M12 A3024 RMK AO2 T00251123
2026-04-21 01:15:00,METAR KHSP 210115Z AUTO 31007G14KT 270V360 10SM CLR 03/M13 A3024 RMK AO2 T00281126
2026-04-21 00:55:00,METAR KHSP 210055Z AUTO 31008G15KT 10SM CLR 03/M13 A3023 RMK AO2 T00311130
2026-04-21 00:35:00,METAR KHSP 210035Z AUTO 31007G15KT 10SM CLR 03/M13 A3023 RMK AO2 T00331130
2026-04-21 00:15:00,METAR KHSP 210015Z AUTO 30007KT 270V330 10SM CLR 04/M13 A3022 RMK AO2 T00371131
2026-04-20 23:55:00,METAR KHSP 202355Z AUTO 30008G17KT 10SM CLR 04/M13 A3022 RMK AO2 T00421135 10082 20042
2026-04-20 23:35:00,METAR KHSP 202335Z AUTO 29004G15KT 10SM CLR 05/M13 A3021 RMK AO2 T00491135
2026-04-20 23:15:00,METAR KHSP 202315Z AUTO 31012G18KT 10SM CLR 05/M14 A3021 RMK AO2 T00541137
2026-04-20 22:55:00,METAR KHSP 202255Z AUTO 30010G18KT 10SM CLR 06/M13 A3020 RMK AO2 T00581131
2026-04-20 22:35:00,METAR KHSP 202235Z AUTO 30011G20KT 270V330 10SM CLR 06/M13 A3019 RMK AO2 T00611134
2026-04-20 22:15:00,METAR KHSP 202215Z AUTO 30009G19KT 270V330 10SM CLR 06/M14 A3019 RMK AO2 T00621137
2026-04-20 21:55:00,METAR KHSP 202155Z AUTO 30010G20KT 260V320 10SM CLR 07/M13 A3018 RMK AO2 T00671129
2026-04-20 21:35:00,METAR KHSP 202135Z AUTO 31018G23KT 10SM CLR 07/M13 A3018 RMK AO2 T00681128
2026-04-20 21:15:00,METAR KHSP 202115Z AUTO 28013G23KT 260V330 10SM CLR 07/M13 A3017 RMK AO2 T00711132
2026-04-20 20:55:00,METAR KHSP 202055Z AUTO 29012G21KT 260V330 10SM CLR 08/M13 A3016 RMK AO2 T00771128
2026-04-20 20:35:00,METAR KHSP 202035Z AUTO 31013G20KT 10SM CLR 07/M12 A3016 RMK AO2 T00731123
2026-04-20 19:55:00,METAR KHSP 201955Z AUTO 31018G25KT 10SM CLR 08/M13 A3015 RMK AO2 T00811131
2026-04-20 19:35:00,METAR KHSP 201935Z AUTO 32011G24KT 10SM CLR 08/M11 A3015 RMK AO2 T00761110
2026-04-20 19:15:00,METAR KHSP 201915Z AUTO 29012G21KT 10SM CLR 07/M12 A3015 RMK AO2 T00731120
2026-04-20 18:55:00,METAR KHSP 201855Z AUTO 27011G25KT 10SM SCT065 08/M10 A3015 RMK AO2 T00751104
2026-04-20 18:35:00,METAR KHSP 201835Z AUTO 30012G23KT 10SM SCT065 SCT075 07/M10 A3015 RMK AO2 T00731097
2026-04-20 18:15:00,METAR KHSP 201815Z AUTO 28012G25KT 10SM SCT065 SCT075 08/M10 A3015 RMK AO2 T00761097
2026-04-20 17:55:00,METAR KHSP 201755Z AUTO 31009G19KT 280V340 10SM BKN065 07/M09 A3016 RMK AO2 T00711093 10075 20020
2026-04-20 17:35:00,METAR KHSP 201735Z AUTO 28013G21KT 10SM SCT065 SCT075 08/M10 A3015 RMK AO2 T00751098
2026-04-20 17:15:00,METAR KHSP 201715Z AUTO 28011G22KT 10SM SCT065 07/M10 A3015 RMK AO2 T00741096
2026-04-20 16:55:00,METAR KHSP 201655Z AUTO 29008G20KT 260V350 10SM SCT065 07/M10 A3015 RMK AO2 T00701101
2026-04-20 16:35:00,METAR KHSP 201635Z AUTO 31007G17KT 250V010 10SM CLR 07/M09 A3016 RMK AO2 T00651089
2026-04-20 16:15:00,METAR KHSP 201615Z AUTO 29011G21KT 250V310 10SM CLR 06/M09 A3016 RMK AO2 T00641090
2026-04-20 15:55:00,METAR KHSP 201555Z AUTO 29012G22KT 250V310 10SM CLR 06/M08 A3016 RMK AO2 T00621081
2026-04-20 15:35:00,METAR KHSP 201535Z AUTO 27013G18KT 10SM CLR 06/M08 A3015 RMK AO2 T00581083
2026-04-20 15:15:00,METAR KHSP 201515Z AUTO 29016G26KT 10SM CLR 05/M08 A3015 RMK AO2 T00531085
2026-04-20 14:55:00,METAR KHSP 201455Z AUTO 27016G26KT 10SM CLR 05/M08 A3015 RMK AO2 T00491080
2026-04-20 14:35:00,METAR KHSP 201435Z AUTO 27014G24KT 10SM SCT037 04/M06 A3014 RMK AO2 T00431063
2026-04-20 14:15:00,METAR KHSP 201415Z AUTO 29013G26KT 10SM CLR 04/M05 A3014 RMK AO2 T00411054
2026-04-20 13:55:00,METAR KHSP 201355Z AUTO 28014G22KT 10SM SCT031 SCT039 04/M05 A3014 RMK AO2 T00371052
2026-04-20 13:35:00,METAR KHSP 201335Z AUTO 28013G20KT 10SM SCT029 BKN034 SCT042 03/M05 A3014 RMK AO2 T00341046
2026-04-20 13:15:00,METAR KHSP 201315Z AUTO 27012G18KT 10SM BKN028 BKN033 03/M04 A3014 RMK AO2 T00281036
2026-04-20 12:55:00,METAR KHSP 201255Z AUTO 27008G18KT 260V320 10SM SCT026 BKN034 03/M04 A3014 RMK AO2 T00251036
2026-04-20 12:35:00,METAR KHSP 201235Z AUTO 28011KT 10SM SCT024 SCT031 BKN038 02/M03 A3014 RMK AO2 T00221032
2026-04-20 12:15:00,METAR KHSP 201215Z AUTO 28009G14KT 10SM SCT020 SCT030 SCT035 02/M03 A3014 RMK AO2 T00201026
2026-04-20 11:55:00,METAR KHSP 201155Z AUTO 28011G16KT 10SM SCT020 BKN030 OVC060 02/M03 A3013 RMK AO2 T00201027 10035 20012
2026-04-20 11:35:00,METAR KHSP 201135Z AUTO 28012G15KT 10SM SCT032 BKN060 BKN070 02/M03 A3012 RMK AO2 T00161031
2026-04-20 11:15:00,METAR KHSP 201115Z AUTO 28011G16KT 10SM SCT065 02/M03 A3011 RMK AO2 T00151030
2026-04-20 10:55:00,METAR KHSP 201055Z AUTO 28011G15KT 10SM SCT065 01/M03 A3010 RMK AO2 T00141032
2026-04-20 10:35:00,METAR KHSP 201035Z AUTO 27010G17KT 10SM SCT065 02/M04 A3009 RMK AO2 T00151036
2026-04-20 10:15:00,METAR KHSP 201015Z AUTO 26010G15KT 10SM SCT060 02/M04 A3009 RMK AO2 T00171045
2026-04-20 09:55:00,METAR KHSP 200955Z AUTO 27009KT 10SM SCT047 BKN060 02/M05 A3009 RMK AO2 T00181049
2026-04-20 09:35:00,METAR KHSP 200935Z AUTO 27009KT 10SM SCT055 BKN070 02/M05 A3009 RMK AO2 T00221050
2026-04-20 09:15:00,METAR KHSP 200915Z AUTO 28009KT 10SM CLR 03/M05 A3010 RMK AO2 T00261051
2026-04-20 08:55:00,METAR KHSP 200855Z AUTO 27010KT 10SM CLR 03/M05 A3009 RMK AO2 T00251052
2026-04-20 08:35:00,METAR KHSP 200835Z AUTO 27012KT 10SM CLR 03/M05 A3009 RMK AO2 T00261052
2026-04-20 08:15:00,METAR KHSP 200815Z AUTO 27010G17KT 10SM CLR 03/M05 A3008 RMK AO2 T00281053
2026-04-20 07:55:00,METAR KHSP 200755Z AUTO 27012KT 10SM CLR 03/M06 A3008 RMK AO2 T00271059
2026-04-20 07:35:00,METAR KHSP 200735Z AUTO 28012KT 10SM CLR 03/M06 A3008 RMK AO2 T00301060
2026-04-20 07:15:00,METAR KHSP 200715Z AUTO 27011G16KT 10SM CLR 03/M06 A3008 RMK AO2 T00301063
2026-04-20 06:55:00,METAR KHSP 200655Z AUTO 27012G18KT 10SM SCT044 SCT049 03/M06 A3009 RMK AO2 T00311065
2026-04-20 06:35:00,METAR KHSP 200635Z AUTO 27011G18KT 10SM SCT049 03/M07 A3008 RMK AO2 T00331067
2026-04-20 06:15:00,METAR KHSP 200615Z AUTO 26010G17KT 10SM CLR 04/M07 A3008 RMK AO2 T00351068
2026-04-20 05:55:00,METAR KHSP 200555Z AUTO 26009KT 10SM CLR 04/M07 A3009 RMK AO2 T00351070 10051 20035
2026-04-20 05:35:00,METAR KHSP 200535Z AUTO 27011KT 10SM SCT060 04/M07 A3009 RMK AO2 T00371070
2026-04-20 05:15:00,METAR KHSP 200515Z AUTO 27013G19KT 10SM CLR 04/M07 A3009 RMK AO2 T00361070
2026-04-20 04:55:00,METAR KHSP 200455Z AUTO 27013KT 10SM CLR 04/M07 A3009 RMK AO2 T00381072 401300022
2026-04-20 04:35:00,METAR KHSP 200435Z AUTO 27012G21KT 10SM CLR 04/M07 A3009 RMK AO2 T00381075
2026-04-20 04:15:00,METAR KHSP 200415Z AUTO 26015G21KT 10SM CLR 04/M07 A3009 RMK AO2 T00401075
2026-04-20 03:55:00,METAR KHSP 200355Z AUTO 27016G22KT 10SM CLR 04/M08 A3009 RMK AO2 T00401077
2026-04-20 03:35:00,METAR KHSP 200335Z AUTO 27017G21KT 10SM CLR 04/M08 A3009 RMK AO2 T00401080
2026-04-20 03:15:00,METAR KHSP 200315Z AUTO 27013G19KT 10SM CLR 04/M08 A3009 RMK AO2 T00401082
2026-04-20 02:55:00,METAR KHSP 200255Z AUTO 27014G19KT 10SM CLR 04/M08 A3010 RMK AO2 T00411085
2026-04-20 02:35:00,METAR KHSP 200235Z AUTO 26014G17KT 10SM CLR 04/M09 A3010 RMK AO2 T00411086
2026-04-20 02:15:00,METAR KHSP 200215Z AUTO 27011KT 10SM CLR 04/M09 A3010 RMK AO2 T00421089
2026-04-20 01:55:00,METAR KHSP 200155Z AUTO 26012G20KT 10SM CLR 04/M09 A3010 RMK AO2 T00421091
2026-04-20 01:35:00,METAR KHSP 200135Z AUTO 27012G15KT 10SM CLR 04/M09 A3009 RMK AO2 T00411092
2026-04-20 01:15:00,METAR KHSP 200115Z AUTO 27012G20KT 10SM CLR 05/M09 A3009 RMK AO2 T00461095
2026-04-20 00:55:00,METAR KHSP 200055Z AUTO 27015KT 10SM CLR 05/M09 A3008 RMK AO2 T00451095
2026-04-20 00:35:00,METAR KHSP 200035Z AUTO 28012G19KT 10SM CLR 05/M10 A3008 RMK AO2 T00471098
2026-04-20 00:15:00,METAR KHSP 200015Z AUTO 28016G23KT 10SM CLR 05/M10 A3007 RMK AO2 T00491100
2026-04-19 23:55:00,METAR KHSP 192355Z AUTO 28011G25KT 10SM CLR 05/M10 A3007 RMK AO2 T00521103 10083 20052
2026-04-19 23:35:00,METAR KHSP 192335Z AUTO 30011G24KT 10SM CLR 06/M10 A3006 RMK AO2 T00561105
2026-04-19 23:15:00,METAR KHSP 192315Z AUTO 29010G20KT 250V330 10SM CLR 06/M10 A3005 RMK AO2 T00611099
2026-04-19 22:55:00,METAR KHSP 192255Z AUTO 29017G28KT 10SM CLR 06/M10 A3005 RMK AO2 T00621104
2026-04-19 22:35:00,METAR KHSP 192235Z AUTO 28017G27KT 10SM CLR 07/M10 A3004 RMK AO2 T00661104
2026-04-19 22:15:00,METAR KHSP 192215Z AUTO 28019G30KT 10SM CLR 07/M10 A3004 RMK AO2 T00671100
2026-04-19 21:55:00,METAR KHSP 192155Z AUTO 29015G24KT 10SM CLR 07/M09 A3003 RMK AO2 T00741095
2026-04-19 21:35:00,METAR KHSP 192135Z AUTO 28017G24KT 10SM CLR 07/M09 A3002 RMK AO2 T00721093
2026-04-19 21:15:00,METAR KHSP 192115Z AUTO 28020G27KT 10SM CLR 08/M09 A3002 RMK AO2 T00771090
2026-04-19 20:55:00,METAR KHSP 192055Z AUTO 29016G28KT 10SM CLR 08/M09 A3001 RMK AO2 T00751089
2026-04-19 20:35:00,METAR KHSP 192035Z AUTO 28019G27KT 10SM CLR 08/M08 A3001 RMK AO2 T00811077
2026-04-19 20:15:00,METAR KHSP 192015Z AUTO 29019G28KT 270V330 10SM CLR 08/M08 A3000 RMK AO2 T00751078
2026-04-19 19:55:00,METAR KHSP 191955Z AUTO 28017G29KT 10SM CLR 08/M08 A3000 RMK AO2 T00751077
2026-04-19 19:35:00,METAR KHSP 191935Z AUTO 29017G29KT 10SM CLR 08/M08 A3000 RMK AO2 T00771076
2026-04-19 19:15:00,METAR KHSP 191915Z AUTO 27024G29KT 10SM CLR 07/M08 A3000 RMK AO2 T00741078
2026-04-19 18:55:00,METAR KHSP 191855Z AUTO 28020G34KT 10SM CLR 07/M07 A3000 RMK AO2 T00721074
2026-04-19 18:35:00,METAR KHSP 191835Z AUTO 28023G34KT 10SM CLR 07/M07 A2999 RMK AO2 T00721075
2026-04-19 18:15:00,METAR KHSP 191815Z AUTO 28021G29KT 10SM CLR 07/M07 A2999 RMK AO2 T00681069
2026-04-19 17:55:00,METAR KHSP 191755Z AUTO 29020G33KT 10SM CLR 07/M07 A2998 RMK AO2 T00691071 10072 20022
2026-04-19 17:35:00,METAR KHSP 191735Z AUTO 28019G33KT 10SM CLR 07/M07 A2998 RMK AO2 T00671070
2026-04-19 17:15:00,METAR KHSP 191715Z AUTO 29015G30KT 240V310 10SM CLR 07/M06 A2998 RMK AO2 T00671061
2026-04-19 16:55:00,METAR KHSP 191655Z AUTO 27019G29KT 10SM CLR 07/M05 A2998 RMK AO2 T00671049
2026-04-19 16:35:00,METAR KHSP 191635Z AUTO 29012G26KT 10SM SCT036 SCT042 06/M04 A2998 RMK AO2 T00621043
2026-04-19 16:15:00,METAR KHSP 191615Z AUTO 29012G26KT 260V320 10SM SCT036 SCT042 06/M04 A2998 RMK AO2 T00571043
2026-04-19 15:55:00,METAR KHSP 191555Z AUTO 30019G30KT 10SM SCT023 SCT029 SCT036 05/M03 A2998 RMK AO2 T00531030
2026-04-19 15:35:00,METAR KHSP 191535Z AUTO 28019G24KT 10SM BKN021 BKN029 04/M01 A2998 RMK AO2 T00441013
2026-04-19 15:15:00,METAR KHSP 191515Z AUTO 31016G27KT 260V330 10SM OVC019 03/M02 A2998 RMK AO2 T00301021
2026-04-19 14:55:00,METAR KHSP 191455Z AUTO 30009G23KT 250V010 10SM BKN015 OVC023 03/M01 A2999 RMK AO2 T00331008
2026-04-19 14:35:00,METAR KHSP 191435Z AUTO 29016G28KT 10SM BKN013 BKN017 OVC024 03/M01 A2998 RMK AO2 T00291006
2026-04-19 14:15:00,METAR KHSP 191415Z AUTO 28023G34KT 10SM BKN011 OVC019 02/00 A2997 RMK AO2 T00231001
2026-04-19 13:55:00,METAR KHSP 191355Z AUTO 29017G33KT 10SM BKN013 OVC020 02/00 A2996 RMK AO2 T00240000
2026-04-19 13:35:00,METAR KHSP 191335Z AUTO 28021G31KT 10SM OVC013 03/00 A2996 RMK AO2 T00260000
2026-04-19 13:15:00,METAR KHSP 191315Z AUTO 28020G27KT 10SM OVC015 03/00 A2998 RMK AO2 T00270000
2026-04-19 12:55:00,METAR KHSP 191255Z AUTO 28021G30KT 10SM BKN015 OVC022 03/00 A2997 RMK AO2 T00300000
2026-04-19 12:35:00,METAR KHSP 191235Z AUTO 28020G28KT 10SM BKN017 OVC044 03/00 A2996 RMK AO2 T00300001
2026-04-19 12:15:00,METAR KHSP 191215Z AUTO 28019G27KT 10SM BKN017 BKN023 OVC044 03/00 A2997 RMK AO2 T00300000
2026-04-19 11:55:00,METAR KHSP 191155Z AUTO 29018G26KT 10SM BKN015 BKN020 OVC038 03/01 A2997 RMK AO2 60002 70002 T00280007 10126 20027
2026-04-19 11:35:00,METAR KHSP 191135Z AUTO 29017G29KT 10SM SCT009 BKN016 OVC036 03/01 A2997 RMK AO2 T00280010
2026-04-19 11:15:00,METAR KHSP 191115Z AUTO 29016G32KT 10SM -DZ BKN007 OVC013 03/01 A2995 RMK AO2 T00270012
2026-04-19 10:55:00,METAR KHSP 191055Z AUTO 30017G30KT 10SM OVC007 03/02 A2994 RMK AO2 P0001 T00280016
2026-04-19 10:35:00,METAR KHSP 191035Z AUTO 29019G25KT 10SM -RA OVC007 03/02 A2993 RMK AO2 T00320021
2026-04-19 10:15:00,METAR KHSP 191015Z AUTO 30020G26KT 10SM RA OVC007 04/02 A2992 RMK AO2 T00350023
2026-04-19 09:55:00,METAR KHSP 190955Z AUTO 30018G22KT 10SM OVC007 04/03 A2992 RMK AO2 T00400027
2026-04-19 09:35:00,METAR KHSP 190935Z AUTO 29021G30KT 10SM OVC007 04/03 A2990 RMK AO2 T00420030
2026-04-19 09:15:00,METAR KHSP 190915Z AUTO 31022G32KT 10SM OVC007 05/03 A2988 RMK AO2 T00470031
2026-04-19 08:55:00,METAR KHSP 190855Z AUTO 31023G31KT 10SM OVC007 05/04 A2989 RMK AO2 P0001 60001 T00520037
2026-04-19 08:35:00,METAR KHSP 190835Z AUTO 29021G28KT 10SM OVC003 06/05 A2988 RMK AO2 P0001 T00610051
2026-04-19 08:15:00,METAR KHSP 190815Z AUTO 29017G25KT 1 3/4SM -RA OVC003 08/07 A2988 RMK AO2 T00760071
2026-04-19 07:55:00,METAR KHSP 190755Z AUTO 29018G26KT 5SM BR OVC001 10/09 A2987 RMK AO2 T00970093
2026-04-19 07:35:00,METAR KHSP 190735Z AUTO 28016G26KT M1/4SM -RA OVC001 12/12 A2987 RMK AO2 T01210117
2026-04-19 07:15:00,METAR KHSP 190715Z AUTO 27014G24KT 1/2SM -RA OVC001 12/12 A2987 RMK AO2 T01220118
2026-04-19 06:55:00,METAR KHSP 190655Z AUTO 27015G21KT 1/4SM -RA OVC001 12/12 A2988 RMK AO2 T01240120
2026-04-19 06:35:00,METAR KHSP 190635Z AUTO 28012G20KT 1/2SM -RA OVC001 13/12 A2990 RMK AO2 T01250121
2026-04-19 06:15:00,METAR KHSP 190615Z AUTO 27015G22KT 2 1/2SM BR OVC001 13/12 A2991 RMK AO2 T01250120
2026-04-19 05:55:00,METAR KHSP 190555Z AUTO 27012KT 1/4SM -RA OVC001 13/12 A2992 RMK AO2 LTG DSNT S T01260122 10212 20126
2026-04-19 05:35:00,METAR KHSP 190535Z AUTO 27013G17KT 1/2SM FG OVC001 13/12 A2993 RMK AO2 T01270122
2026-04-19 05:15:00,METAR KHSP 190515Z AUTO 27011KT 2SM -RA BKN001 OVC020 13/12 A2994 RMK AO2 VIS 1 1/4V5 T01270122
2026-04-19 04:55:00,METAR KHSP 190455Z AUTO 28015KT 2 1/2SM -RA BKN003 BKN008 OVC031 13/13 A2994 RMK AO2 VIS 1/2V5 T01300125 402600130
2026-04-19 04:35:00,METAR KHSP 190435Z AUTO 28013G18KT 1 1/4SM BR OVC003 13/13 A2994 RMK AO2 T01320126
2026-04-19 04:15:00,METAR KHSP 190415Z AUTO 28015KT 10SM SCT005 BKN010 OVC017 14/13 A2995 RMK AO2 T01350126
2026-04-19 03:55:00,METAR KHSP 190355Z AUTO 28016KT 10SM VCTSRA BKN015 BKN034 OVC070 15/12 A2996 RMK AO2 LTG DSNT W T01460120
2026-04-19 03:35:00,METAR KHSP 190335Z AUTO 28014KT 10SM SCT017 BKN050 OVC070 15/12 A2996 RMK AO2 T01500118
2026-04-19 03:15:00,METAR KHSP 190315Z AUTO 28014KT 10SM BKN050 OVC070 16/12 A2996 RMK AO2 T01550117
2026-04-19 02:55:00,METAR KHSP 190255Z AUTO 28013G16KT 10SM OVC065 16/12 A2996 RMK AO2 T01580120
2026-04-19 02:35:00,METAR KHSP 190235Z AUTO 29012G20KT 10SM SCT020 BKN031 OVC065 16/12 A2997 RMK AO2 T01620123
2026-04-19 02:15:00,METAR KHSP 190215Z AUTO 28013G18KT 10SM SCT020 BKN031 OVC050 18/13 A2998 RMK AO2 LTG DSNT SE T01750130
2026-04-19 01:55:00,METAR KHSP 190155Z AUTO 30007KT 260V320 10SM OVC050 19/11 A2997 RMK AO2 LTG DSNT S T01880114
2026-04-19 01:35:00,METAR KHSP 190135Z AUTO 22009G14KT 10SM BKN055 BKN070 OVC085 20/11 A2996 RMK AO2 T01950106
2026-04-19 01:15:00,METAR KHSP 190115Z AUTO 26011G18KT 10SM -RA BKN055 BKN070 OVC085 20/10 A2995 RMK AO2 T02020103
2026-04-19 00:55:00,METAR KHSP 190055Z AUTO 21005KT 10SM SCT055 OVC070 21/09 A2994 RMK AO2 T02070093
2026-04-19 00:35:00,METAR KHSP 190035Z AUTO 19007KT 10SM SCT055 BKN070 OVC080 21/09 A2994 RMK AO2 T02100094
2026-04-19 00:15:00,METAR KHSP 190015Z AUTO 19006KT 10SM SCT070 BKN090 21/09 A2994 RMK AO2 T02100091
2026-04-18 23:55:00,METAR KHSP 182355Z AUTO 20003KT 10SM CLR 21/09 A2994 RMK AO2 T02130087 10260 20213
2026-04-18 23:35:00,METAR KHSP 182335Z AUTO 21007KT 10SM CLR 22/09 A2994 RMK AO2 T02180086
2026-04-18 23:15:00,METAR KHSP 182315Z AUTO 23008KT 10SM SCT110 23/09 A2994 RMK AO2 T02250085
2026-04-18 22:55:00,METAR KHSP 182255Z AUTO 22007KT 10SM CLR 23/08 A2995 RMK AO2 T02290082
2026-04-18 22:35:00,METAR KHSP 182235Z AUTO 22008KT 10SM CLR 23/08 A2996 RMK AO2 T02300081
2026-04-18 22:15:00,METAR KHSP 182215Z AUTO 23011KT 10SM CLR 23/08 A2996 RMK AO2 T02320081
2026-04-18 21:55:00,METAR KHSP 182155Z AUTO 24009KT 10SM CLR 24/08 A2996 RMK AO2 T02390077
2026-04-18 21:35:00,METAR KHSP 182135Z AUTO 18005KT 10SM SCT075 24/08 A2996 RMK AO2 T02390076
2026-04-18 21:15:00,METAR KHSP 182115Z AUTO 18007KT 10SM OVC075 24/08 A2997 RMK AO2 T02400076
2026-04-18 20:55:00,METAR KHSP 182055Z AUTO 21008KT 180V240 10SM BKN080 25/06 A2997 RMK AO2 T02490055
2026-04-18 20:35:00,METAR KHSP 182035Z AUTO 20007G16KT 160V240 10SM BKN080 26/06 A2997 RMK AO2 T02550057
2026-04-18 20:15:00,METAR KHSP 182015Z AUTO 19011G16KT 10SM SCT080 25/05 A2997 RMK AO2 T02540053
2026-04-18 19:55:00,METAR KHSP 181955Z AUTO 19008G18KT 150V220 10SM SCT070 25/05 A2998 RMK AO2 T02530045
2026-04-18 19:35:00,METAR KHSP 181935Z AUTO 18009G15KT 10SM SCT070 25/08 A2999 RMK AO2 T02490081
2026-04-18 19:15:00,METAR KHSP 181915Z AUTO 21008KT 7SM SCT060 BKN070 25/07 A2999 RMK AO2 T02470072
2026-04-18 18:55:00,METAR KHSP 181855Z AUTO 17007KT 10SM SCT060 23/09 A3000 RMK AO2 T02290094
2026-04-18 18:35:00,METAR KHSP 181835Z AUTO 15008KT 100V180 7SM CLR 24/10 A3001 RMK AO2 T02350096
2026-04-18 18:15:00,METAR KHSP 181815Z AUTO 12009G16KT 10SM CLR 23/09 A3002 RMK AO2 T02310093
2026-04-18 17:55:00,METAR KHSP 181755Z AUTO 18008KT 10SM SCT050 22/09 A3003 RMK AO2 T02170092 10228 20160
2026-04-18 17:35:00,METAR KHSP 181735Z AUTO 15007KT 10SM CLR 23/09 A3003 RMK AO2 T02280091
2026-04-18 17:15:00,METAR KHSP 181715Z AUTO 16005KT 10SM CLR 22/09 A3003 RMK AO2 T02220094
2026-04-18 16:55:00,METAR KHSP 181655Z AUTO 16004KT 10SM CLR 21/09 A3003 RMK AO2 T02140090
2026-04-18 16:35:00,METAR KHSP 181635Z AUTO 22010G18KT 10SM CLR 22/08 A3005 RMK AO2 T02170079
2026-04-18 16:15:00,METAR KHSP 181615Z AUTO 18006KT 10SM CLR 21/09 A3005 RMK AO2 T02140089
2026-04-18 15:55:00,METAR KHSP 181555Z AUTO 23004KT 10SM CLR 21/09 A3006 RMK AO2 T02090085
2026-04-18 15:15:00,METAR KHSP 181515Z AUTO 16004KT 10SM CLR 20/08 A3007 RMK AO2 T02040079
2026-04-18 14:55:00,METAR KHSP 181455Z AUTO 20004KT 10SM CLR 20/08 A3007 RMK AO2 T02000076
2026-04-18 14:35:00,METAR KHSP 181435Z AUTO 18005KT 10SM CLR 20/07 A3007 RMK AO2 T01950072
2026-04-18 14:15:00,METAR KHSP 181415Z AUTO 16006KT 10SM CLR 19/08 A3007 RMK AO2 T01920080
2026-04-18 13:55:00,METAR KHSP 181355Z AUTO 18004KT 10SM CLR 18/08 A3007 RMK AO2 T01840078
2026-04-18 13:35:00,METAR KHSP 181335Z AUTO 19006KT 10SM CLR 17/09 A3007 RMK AO2 T01700088
2026-04-18 13:15:00,METAR KHSP 181315Z AUTO 15004KT 10SM CLR 17/09 A3006 RMK AO2 T01680087
2026-04-18 12:55:00,METAR KHSP 181255Z AUTO 13006KT 10SM CLR 17/09 A3007 RMK AO2 T01670088
2026-04-18 12:35:00,METAR KHSP 181235Z AUTO 14006KT 10SM CLR 17/08 A3007 RMK AO2 T01650083
2026-04-18 12:15:00,METAR KHSP 181215Z AUTO 14008KT 10SM CLR 16/08 A3007 RMK AO2 T01630084
2026-04-18 11:55:00,METAR KHSP 181155Z AUTO 16008KT 10SM CLR 16/08 A3007 RMK AO2 T01640083 10164 20131
2026-04-18 11:35:00,METAR KHSP 181135Z AUTO 15005KT 10SM CLR 16/09 A3007 RMK AO2 T01550085
2026-04-18 11:15:00,METAR KHSP 181115Z AUTO 15005KT 10SM CLR 14/08 A3007 RMK AO2 T01430083
2026-04-18 10:55:00,METAR KHSP 181055Z AUTO 15004KT 10SM CLR 14/08 A3007 RMK AO2 T01400081
2026-04-18 10:35:00,METAR KHSP 181035Z AUTO 15005KT 10SM CLR 14/08 A3007 RMK AO2 T01390081
2026-04-18 10:15:00,METAR KHSP 181015Z AUTO 15005KT 10SM CLR 14/08 A3007 RMK AO2 T01410081
2026-04-18 09:55:00,METAR KHSP 180955Z AUTO 15005KT 10SM CLR 14/08 A3006 RMK AO2 T01400080
2026-04-18 09:35:00,METAR KHSP 180935Z AUTO 17005KT 10SM CLR 14/08 A3006 RMK AO2 T01390080
2026-04-18 09:15:00,METAR KHSP 180915Z AUTO 09004KT 10SM CLR 13/09 A3007 RMK AO2 T01340091
2026-04-18 08:55:00,METAR KHSP 180855Z AUTO 09005KT 10SM CLR 13/09 A3006 RMK AO2 T01330090
2026-04-18 08:35:00,METAR KHSP 180835Z AUTO 09006KT 10SM CLR 14/09 A3006 RMK AO2 T01370090
2026-04-18 08:15:00,METAR KHSP 180815Z AUTO 08005KT 10SM CLR 14/09 A3007 RMK AO2 T01350090
2026-04-18 07:55:00,METAR KHSP 180755Z AUTO 08005KT 10SM CLR 14/09 A3007 RMK AO2 T01380090
2026-04-18 07:35:00,METAR KHSP 180735Z AUTO 06006KT 10SM CLR 14/09 A3007 RMK AO2 T01360087
2026-04-18 07:15:00,METAR KHSP 180715Z AUTO 07005KT 10SM CLR 14/09 A3007 RMK AO2 T01440087
2026-04-18 06:55:00,METAR KHSP 180655Z AUTO 06008KT 10SM CLR 14/09 A3008 RMK AO2 T01420085
2026-04-18 06:35:00,METAR KHSP 180635Z AUTO 06006KT 10SM CLR 15/08 A3008 RMK AO2 T01450080
2026-04-18 06:15:00,METAR KHSP 180615Z AUTO 06005KT 10SM CLR 15/08 A3009 RMK AO2 T01500075
2026-04-18 05:55:00,METAR KHSP 180555Z AUTO 05004KT 10SM CLR 15/07 A3009 RMK AO2 T01540072 10191 20152
2026-04-18 05:35:00,METAR KHSP 180535Z AUTO 06005KT 10SM CLR 16/07 A3010 RMK AO2 T01550065
2026-04-18 05:15:00,METAR KHSP 180515Z AUTO 07005KT 10SM CLR 16/05 A3010 RMK AO2 T01640054
2026-04-18 04:55:00,METAR KHSP 180455Z AUTO 00000KT 10SM CLR 16/05 A3010 RMK AO2 T01610049 402250130
2026-04-18 04:35:00,METAR KHSP 180435Z AUTO 27003KT 10SM CLR 17/05 A3010 RMK AO2 T01710047
2026-04-18 04:15:00,METAR KHSP 180415Z AUTO 28004KT 10SM CLR 17/05 A3009 RMK AO2 T01680047
2026-04-18 03:55:00,METAR KHSP 180355Z AUTO 27003KT 10SM CLR 17/05 A3009 RMK AO2 T01680046
2026-04-18 03:35:00,METAR KHSP 180335Z AUTO 26003KT 10SM CLR 17/05 A3010 RMK AO2 T01700047
2026-04-18 03:15:00,METAR KHSP 180315Z AUTO 27003KT 10SM CLR 17/04 A3010 RMK AO2 T01740044
2026-04-18 02:55:00,METAR KHSP 180255Z AUTO 28003KT 10SM CLR 18/05 A3010 RMK AO2 T01760045
2026-04-18 02:35:00,METAR KHSP 180235Z AUTO 27004KT 10SM CLR 17/05 A3010 RMK AO2 T01700045
2026-04-18 02:15:00,METAR KHSP 180215Z AUTO 27004KT 10SM CLR 17/05 A3010 RMK AO2 T01720047
2026-04-18 01:55:00,METAR KHSP 180155Z AUTO 26005KT 10SM CLR 17/05 A3009 RMK AO2 T01660048
2026-04-18 01:35:00,METAR KHSP 180135Z AUTO 26005KT 10SM CLR 16/05 A3008 RMK AO2 T01590048
2026-04-18 01:15:00,METAR KHSP 180115Z AUTO 26005KT 10SM CLR 18/05 A3007 RMK AO2 T01770046
2026-04-18 00:55:00,METAR KHSP 180055Z AUTO 27006KT 10SM CLR 18/05 A3007 RMK AO2 T01800046
2026-04-18 00:35:00,METAR KHSP 180035Z AUTO 27006KT 10SM CLR 18/05 A3007 RMK AO2 T01780046
2026-04-18 00:15:00,METAR KHSP 180015Z AUTO 27008KT 10SM CLR 18/05 A3007 RMK AO2 T01830046
2026-04-17 23:55:00,METAR KHSP 172355Z AUTO 30006KT 10SM CLR 19/04 A3007 RMK AO2 T01910042 10225 20191
2026-04-17 23:35:00,METAR KHSP 172335Z AUTO 29004KT 10SM CLR 20/04 A3007 RMK AO2 T01990044
2026-04-17 23:15:00,METAR KHSP 172315Z AUTO 32006KT 10SM SCT065 20/04 A3007 RMK AO2 T02030043
2026-04-17 22:55:00,METAR KHSP 172255Z AUTO 29006KT 10SM SCT065 21/04 A3007 RMK AO2 T02080042
2026-04-17 22:35:00,METAR KHSP 172235Z AUTO 29006KT 10SM CLR 21/04 A3007 RMK AO2 T02050042
2026-04-17 22:15:00,METAR KHSP 172215Z AUTO 29006KT 250V320 10SM CLR 20/04 A3007 RMK AO2 T02040040
2026-04-17 21:55:00,METAR KHSP 172155Z AUTO 33007KT 10SM CLR 21/04 A3007 RMK AO2 T02080037
2026-04-17 21:35:00,METAR KHSP 172135Z AUTO 33007KT 300V360 10SM CLR 21/04 A3007 RMK AO2 T02100041
2026-04-17 21:15:00,METAR KHSP 172115Z AUTO 31010G15KT 10SM SCT070 21/04 A3007 RMK AO2 T02100041
2026-04-17 20:55:00,METAR KHSP 172055Z AUTO 27010G17KT 10SM BKN070 22/05 A3007 RMK AO2 T02220049
2026-04-17 20:35:00,METAR KHSP 172035Z AUTO 26009G15KT 10SM BKN070 21/04 A3007 RMK AO2 T02100043
2026-04-17 20:15:00,METAR KHSP 172015Z AUTO 27012G15KT 10SM BKN070 22/04 A3007 RMK AO2 T02200039
2026-04-17 19:55:00,METAR KHSP 171955Z AUTO 28010G20KT 250V320 10SM BKN070 21/04 A3007 RMK AO2 T02120044
2026-04-17 19:35:00,METAR KHSP 171935Z AUTO 29011G15KT 10SM SCT070 22/04 A3007 RMK AO2 T02150043
2026-04-17 19:15:00,METAR KHSP 171915Z AUTO 33010G14KT 10SM SCT060 22/04 A3008 RMK AO2 T02150042
2026-04-17 18:55:00,METAR KHSP 171855Z AUTO 28013G16KT 10SM BKN060 21/05 A3008 RMK AO2 T02070045
2026-04-17 18:35:00,METAR KHSP 171835Z AUTO 29008G17KT 10SM SCT060 21/05 A3008 RMK AO2 T02140051
2026-04-17 18:15:00,METAR KHSP 171815Z AUTO 26010G16KT 10SM SCT060 21/06 A3008 RMK AO2 T02120060
2026-04-17 17:55:00,METAR KHSP 171755Z AUTO 30008G17KT 270V340 10SM SCT060 21/06 A3009 RMK AO2 T02060057 10206 20133
2026-04-17 17:35:00,METAR KHSP 171735Z AUTO 31010G17KT 270V330 10SM BKN050 20/06 A3009 RMK AO2 T02030056
2026-04-17 17:15:00,METAR KHSP 171715Z AUTO 29009G15KT 240V340 10SM BKN050 21/06 A3009 RMK AO2 T02050060
2026-04-17 16:55:00,METAR KHSP 171655Z AUTO 28011G17KT 10SM SCT050 20/06 A3010 RMK AO2 T01970060
2026-04-17 16:35:00,METAR KHSP 171635Z AUTO 33008G14KT 10SM SCT041 BKN050 19/06 A3010 RMK AO2 T01910062
2026-04-17 16:15:00,METAR KHSP 171615Z AUTO 28008G14KT 240V310 10SM BKN041 18/08 A3010 RMK AO2 T01790077
2026-04-17 15:55:00,METAR KHSP 171555Z AUTO 27011G18KT 240V310 10SM SCT035 BKN045 18/08 A3010 RMK AO2 T01830084
2026-04-17 15:35:00,METAR KHSP 171535Z AUTO 25011G15KT 10SM SCT028 BKN035 18/09 A3010 RMK AO2 T01770085
2026-04-17 15:15:00,METAR KHSP 171515Z AUTO 29008G14KT 10SM SCT028 BKN035 17/09 A3010 RMK AO2 T01670092
2026-04-17 14:55:00,METAR KHSP 171455Z AUTO 30007KT 270V330 10SM BKN026 BKN033 16/09 A3010 RMK AO2 T01620093
2026-04-17 14:35:00,METAR KHSP 171435Z AUTO 28007KT 10SM SCT022 BKN027 BKN034 16/11 A3009 RMK AO2 T01620105
2026-04-17 14:15:00,METAR KHSP 171415Z AUTO 26005KT 10SM SCT024 BKN034 15/10 A3009 RMK AO2 T01530100
2026-04-17 13:55:00,METAR KHSP 171355Z AUTO 27009KT 10SM SCT024 SCT036 15/10 A3008 RMK AO2 T01480097
2026-04-17 13:35:00,METAR KHSP 171335Z AUTO 28009G15KT 10SM CLR 14/10 A3007 RMK AO2 T01420095
2026-04-17 13:15:00,METAR KHSP 171315Z AUTO 28009KT 260V330 10SM CLR 15/10 A3007 RMK AO2 T01450095
2026-04-17 12:55:00,METAR KHSP 171255Z AUTO 28007KT 10SM CLR 14/10 A3006 RMK AO2 T01370095
2026-04-17 12:35:00,METAR KHSP 171235Z AUTO 28010G15KT 10SM CLR 14/10 A3006 RMK AO2 T01370095
2026-04-17 12:15:00,METAR KHSP 171215Z AUTO 28010KT 10SM CLR 13/10 A3005 RMK AO2 T01330095
2026-04-17 11:55:00,METAR KHSP 171155Z AUTO 28008G15KT 10SM CLR 14/10 A3004 RMK AO2 70004 T01360095 10139 20130
2026-04-17 11:35:00,METAR KHSP 171135Z AUTO 28007G17KT 260V340 10SM CLR 14/10 A3003 RMK AO2 T01350095
2026-04-17 11:15:00,METAR KHSP 171115Z AUTO 28011G15KT 10SM CLR 13/10 A3003 RMK AO2 T01310095
2026-04-17 10:55:00,METAR KHSP 171055Z AUTO 28009G16KT 10SM CLR 13/10 A3002 RMK AO2 T01300095
2026-04-17 10:35:00,METAR KHSP 171035Z AUTO 28012G21KT 10SM CLR 13/10 A3001 RMK AO2 T01310099
2026-04-17 10:15:00,METAR KHSP 171015Z AUTO 28014G20KT 10SM CLR 13/10 A3000 RMK AO2 T01300103
2026-04-17 09:55:00,METAR KHSP 170955Z AUTO 28013KT 10SM CLR 13/10 A3001 RMK AO2 T01310104
2026-04-17 09:35:00,METAR KHSP 170935Z AUTO 27013G17KT 10SM CLR 13/11 A3000 RMK AO2 T01310105
2026-04-17 09:15:00,METAR KHSP 170915Z AUTO 27011KT 10SM CLR 13/11 A3000 RMK AO2 T01310106
2026-04-17 08:55:00,METAR KHSP 170855Z AUTO 27012G17KT 10SM CLR 13/11 A3001 RMK AO2 T01320108
2026-04-17 08:35:00,METAR KHSP 170835Z AUTO 28013G18KT 10SM CLR 13/11 A3001 RMK AO2 T01330110
2026-04-17 08:15:00,METAR KHSP 170815Z AUTO 28014G19KT 10SM CLR 13/11 A3001 RMK AO2 T01320113
2026-04-17 07:55:00,METAR KHSP 170755Z AUTO 28012G18KT 10SM CLR 13/12 A3001 RMK AO2 T01330115
2026-04-17 07:35:00,METAR KHSP 170735Z AUTO 27013KT 10SM CLR 13/12 A3001 RMK AO2 T01330116
2026-04-17 07:15:00,METAR KHSP 170715Z AUTO 27013G19KT 10SM CLR 13/12 A3001 RMK AO2 T01330118
2026-04-17 06:55:00,METAR KHSP 170655Z AUTO 27013KT 10SM CLR 14/12 A3001 RMK AO2 T01360119
2026-04-17 06:35:00,METAR KHSP 170635Z AUTO 27011KT 10SM CLR 14/12 A3002 RMK AO2 T01370120
2026-04-17 06:15:00,METAR KHSP 170615Z AUTO 27013G17KT 10SM CLR 14/12 A3003 RMK AO2 T01370122
2026-04-17 05:55:00,METAR KHSP 170555Z AUTO 27013G20KT 10SM CLR 14/13 A3002 RMK AO2 60004 T01370125 10214 20135
2026-04-17 05:35:00,METAR KHSP 170535Z AUTO 27013G18KT 10SM SCT003 14/13 A3002 RMK AO2 T01360127
2026-04-17 05:15:00,METAR KHSP 170515Z AUTO 27013KT 10SM SCT003 SCT029 14/13 A3003 RMK AO2 T01370127
2026-04-17 04:55:00,METAR KHSP 170455Z AUTO 27015G20KT 10SM SCT003 SCT029 14/13 A3003 RMK AO2 T01350127 402520135
2026-04-17 04:35:00,METAR KHSP 170435Z AUTO 27013G19KT 10SM SCT005 SCT095 14/13 A3002 RMK AO2 T01360127
2026-04-17 04:15:00,METAR KHSP 170415Z AUTO 27014G20KT 10SM BKN095 14/13 A3003 RMK AO2 T01390125
2026-04-17 03:55:00,METAR KHSP 170355Z AUTO 27014KT 10SM SCT075 BKN095 14/13 A3004 RMK AO2 P0004 T01370125
2026-04-17 03:35:00,METAR KHSP 170335Z AUTO 27013G20KT 10SM -RA BKN065 OVC085 14/12 A3004 RMK AO2 P0003 T01370123
2026-04-17 03:15:00,METAR KHSP 170315Z AUTO 27016G23KT 10SM RA SCT018 BKN065 OVC080 14/12 A3004 RMK AO2 P0001 T01420119
2026-04-17 02:55:00,METAR KHSP 170255Z AUTO 26019G29KT 10SM SCT020 BKN025 OVC034 17/12 A3005 RMK AO2 T01660116
2026-04-17 02:35:00,METAR KHSP 170235Z AUTO 28013G20KT 10SM BKN025 OVC033 18/12 A3005 RMK AO2 T01750118
2026-04-17 02:15:00,METAR KHSP 170215Z AUTO 29012G20KT 260V320 10SM SCT031 OVC055 18/11 A3005 RMK AO2 T01820111
2026-04-17 01:55:00,METAR KHSP 170155Z AUTO 29010G18KT 260V330 10SM BKN065 BKN075 OVC080 19/10 A3003 RMK AO2 T01880102
2026-04-17 01:35:00,METAR KHSP 170135Z AUTO 29007G17KT 260V320 10SM SCT075 BKN085 20/09 A3002 RMK AO2 LTG DSNT W T01990087
2026-04-17 01:15:00,METAR KHSP 170115Z AUTO 26010G16KT 10SM SCT075 SCT085 21/07 A3000 RMK AO2 T02080072
2026-04-17 00:55:00,METAR KHSP 170055Z AUTO 25012G17KT 10SM BKN075 21/07 A2999 RMK AO2 T02070071
2026-04-17 00:35:00,METAR KHSP 170035Z AUTO 24010KT 10SM BKN075 21/07 A2999 RMK AO2 T02060070
2026-04-17 00:15:00,METAR KHSP 170015Z AUTO 24010KT 10SM BKN075 BKN100 21/07 A2999 RMK AO2 T02110068
2026-04-16 23:55:00,METAR KHSP 162355Z AUTO 24009KT 10SM BKN075 OVC085 22/07 A2998 RMK AO2 T02160065 10252 20216
2026-04-16 23:35:00,METAR KHSP 162335Z AUTO 25009KT 10SM OVC075 22/06 A2998 RMK AO2 T02190061
2026-04-16 23:15:00,METAR KHSP 162315Z AUTO 25009KT 10SM BKN075 22/06 A2998 RMK AO2 T02220056
2026-04-16 22:55:00,METAR KHSP 162255Z AUTO 27010G18KT 10SM SCT075 23/05 A2998 RMK AO2 LTG DSNT SW T02260051
2026-04-16 22:35:00,METAR KHSP 162235Z AUTO 27009G16KT 10SM SCT075 23/05 A2999 RMK AO2 T02310048
2026-04-16 22:15:00,METAR KHSP 162215Z AUTO 26013G16KT 10SM SCT075 24/05 A2999 RMK AO2 T02390047
2026-04-16 21:55:00,METAR KHSP 162155Z AUTO 24015G20KT 10SM CLR 24/04 A2999 RMK AO2 T02400043
2026-04-16 21:35:00,METAR KHSP 162135Z AUTO 26013G18KT 10SM CLR 24/04 A2999 RMK AO2 T02430043
2026-04-16 21:15:00,METAR KHSP 162115Z AUTO 24010G16KT 210V270 10SM CLR 25/04 A2999 RMK AO2 T02450039
2026-04-16 20:55:00,METAR KHSP 162055Z AUTO 21010G14KT 10SM CLR 25/04 A2999 RMK AO2 T02510042
2026-04-16 20:35:00,METAR KHSP 162035Z AUTO 23012G21KT 10SM CLR 25/03 A3000 RMK AO2 T02510028
2026-04-16 20:15:00,METAR KHSP 162015Z AUTO 25013G21KT 10SM CLR 25/03 A3001 RMK AO2 T02450033
2026-04-16 19:55:00,METAR KHSP 161955Z AUTO 24014G20KT 10SM CLR 25/04 A3002 RMK AO2 T02460036
2026-04-16 19:35:00,METAR KHSP 161935Z AUTO 26010G21KT 10SM CLR 24/05 A3003 RMK AO2 T02410047
2026-04-16 19:15:00,METAR KHSP 161915Z AUTO 24013G18KT 10SM CLR 24/06 A3004 RMK AO2 T02430061
2026-04-16 18:55:00,METAR KHSP 161855Z AUTO 21010G21KT 10SM CLR 24/04 A3005 RMK AO2 T02440043
2026-04-16 18:35:00,METAR KHSP 161835Z AUTO 26011G15KT 10SM CLR 24/05 A3005 RMK AO2 T02380050
2026-04-16 18:15:00,METAR KHSP 161815Z AUTO 25011G19KT 10SM CLR 24/05 A3006 RMK AO2 T02390052
2026-04-16 17:55:00,METAR KHSP 161755Z AUTO 27013G17KT 10SM CLR 23/07 A3007 RMK AO2 T02310065 10233 20171
2026-04-16 17:35:00,METAR KHSP 161735Z AUTO 24012G19KT 10SM CLR 23/07 A3008 RMK AO2 T02290067
2026-04-16 17:15:00,METAR KHSP 161715Z AUTO 23011G17KT 10SM CLR 23/07 A3008 RMK AO2 T02250069
2026-04-16 16:55:00,METAR KHSP 161655Z AUTO 24010G18KT 10SM CLR 23/07 A3009 RMK AO2 T02270067
2026-04-16 16:35:00,METAR KHSP 161635Z AUTO 24014KT 10SM CLR 22/07 A3010 RMK AO2 T02240070
2026-04-16 16:15:00,METAR KHSP 161615Z AUTO 28007G14KT 240V320 10SM CLR 22/08 A3010 RMK AO2 T02150076
2026-04-16 15:55:00,METAR KHSP 161555Z AUTO 24012G16KT 10SM CLR 22/07 A3011 RMK AO2 T02150074
2026-04-16 15:35:00,METAR KHSP 161535Z AUTO 28008G20KT 10SM CLR 21/08 A3012 RMK AO2 T02060075
2026-04-16 14:55:00,METAR KHSP 161455Z AUTO 28014G22KT 10SM CLR 20/08 A3011 RMK AO2 T02000080
2026-04-16 14:35:00,METAR KHSP 161435Z AUTO 28013G19KT 10SM CLR 19/08 A3012 RMK AO2 T01940081
2026-04-16 14:15:00,METAR KHSP 161415Z AUTO 27016G20KT 10SM CLR 19/09 A3012 RMK AO2 T01920087
2026-04-16 13:55:00,METAR KHSP 161355Z AUTO 27017G21KT 10SM CLR 19/08 A3012 RMK AO2 T01870083
2026-04-16 13:35:00,METAR KHSP 161335Z AUTO 28013G19KT 10SM CLR 18/08 A3012 RMK AO2 T01800080
2026-04-16 13:15:00,METAR KHSP 161315Z AUTO 27016G21KT 10SM CLR 18/08 A3013 RMK AO2 T01800078
2026-04-16 12:55:00,METAR KHSP 161255Z AUTO 28016KT 10SM CLR 18/08 A3013 RMK AO2 T01780075
2026-04-16 12:35:00,METAR KHSP 161235Z AUTO 28016KT 10SM CLR 18/07 A3013 RMK AO2 T01760072
2026-04-16 12:15:00,METAR KHSP 161215Z AUTO 27015G23KT 10SM CLR 17/07 A3012 RMK AO2 T01740070
2026-04-16 11:55:00,METAR KHSP 161155Z AUTO 28014G21KT 10SM CLR 17/07 A3012 RMK AO2 T01710067 10200 20171
2026-04-16 11:35:00,METAR KHSP 161135Z AUTO 27015G22KT 10SM CLR 18/07 A3012 RMK AO2 T01760065
2026-04-16 11:15:00,METAR KHSP 161115Z AUTO 27015KT 10SM CLR 18/06 A3011 RMK AO2 T01770062
2026-04-16 10:55:00,METAR KHSP 161055Z AUTO 27015KT 10SM CLR 18/06 A3010 RMK AO2 T01780060
2026-04-16 10:35:00,METAR KHSP 161035Z AUTO 27015G21KT 10SM CLR 18/06 A3010 RMK AO2 T01810060
2026-04-16 10:15:00,METAR KHSP 161015Z AUTO 27016KT 10SM CLR 18/07 A3009 RMK AO2 T01780065
2026-04-16 09:55:00,METAR KHSP 160955Z AUTO 27015G18KT 10SM CLR 18/07 A3009 RMK AO2 T01800065
2026-04-16 09:35:00,METAR KHSP 160935Z AUTO 27013KT 10SM CLR 18/07 A3009 RMK AO2 T01810065
2026-04-16 09:15:00,METAR KHSP 160915Z AUTO 26014KT 10SM CLR 18/06 A3009 RMK AO2 T01840063
2026-04-16 08:55:00,METAR KHSP 160855Z AUTO 27013KT 10SM CLR 19/06 A3009 RMK AO2 T01860064
2026-04-16 08:35:00,METAR KHSP 160835Z AUTO 27014KT 10SM CLR 19/07 A3009 RMK AO2 T01860065
2026-04-16 08:15:00,METAR KHSP 160815Z AUTO 27015G20KT 10SM CLR 19/06 A3009 RMK AO2 T01900064
2026-04-16 07:55:00,METAR KHSP 160755Z AUTO 27015KT 10SM CLR 19/07 A3009 RMK AO2 T01910065
2026-04-16 07:35:00,METAR KHSP 160735Z AUTO 27014G20KT 10SM CLR 19/07 A3010 RMK AO2 T01910067
2026-04-16 07:15:00,METAR KHSP 160715Z AUTO 27014G17KT 10SM CLR 19/07 A3010 RMK AO2 T01930066
2026-04-16 06:55:00,METAR KHSP 160655Z AUTO 26011KT 10SM CLR 19/06 A3010 RMK AO2 T01930063
2026-04-16 06:35:00,METAR KHSP 160635Z AUTO 26012KT 10SM CLR 20/06 A3010 RMK AO2 T01950062
2026-04-16 06:15:00,METAR KHSP 160615Z AUTO 26012KT 10SM CLR 20/06 A3010 RMK AO2 T01950062
2026-04-16 05:55:00,METAR KHSP 160555Z AUTO 27011KT 10SM CLR 20/06 A3011 RMK AO2 T01990063 10225 20197
2026-04-16 05:35:00,METAR KHSP 160535Z AUTO 26010KT 10SM CLR 20/06 A3012 RMK AO2 T02000062
2026-04-16 05:15:00,METAR KHSP 160515Z AUTO 26014KT 10SM CLR 20/06 A3012 RMK AO2 T02010062
2026-04-16 04:55:00,METAR KHSP 160455Z AUTO 25009KT 10SM CLR 20/06 A3012 RMK AO2 T02010058 402630156
2026-04-16 04:35:00,METAR KHSP 160435Z AUTO 26011KT 10SM CLR 20/06 A3012 RMK AO2 T02020058
2026-04-16 04:15:00,METAR KHSP 160415Z AUTO 25013KT 10SM CLR 21/06 A3012 RMK AO2 T02050057
2026-04-16 03:55:00,METAR KHSP 160355Z AUTO 25013KT 10SM CLR 21/06 A3012 RMK AO2 T02080058
2026-04-16 03:35:00,METAR KHSP 160335Z AUTO 25012G17KT 10SM CLR 21/06 A3012 RMK AO2 T02110059
2026-04-16 03:15:00,METAR KHSP 160315Z AUTO 26015G21KT 10SM CLR 22/06 A3013 RMK AO2 T02150056
2026-04-16 02:55:00,METAR KHSP 160255Z AUTO 24015KT 10SM CLR 22/06 A3014 RMK AO2 T02170056
2026-04-16 02:35:00,METAR KHSP 160235Z AUTO 24015KT 10SM CLR 22/05 A3014 RMK AO2 T02170053
2026-04-16 02:15:00,METAR KHSP 160215Z AUTO 24013KT 10SM CLR 22/05 A3015 RMK AO2 T02170047
2026-04-16 01:55:00,METAR KHSP 160155Z AUTO 24013KT 10SM CLR 22/04 A3015 RMK AO2 T02150042
2026-04-16 01:35:00,METAR KHSP 160135Z AUTO 24011KT 10SM CLR 21/04 A3015 RMK AO2 T02130040
2026-04-16 01:15:00,METAR KHSP 160115Z AUTO 24011KT 10SM CLR 22/04 A3014 RMK AO2 T02160038
2026-04-16 00:55:00,METAR KHSP 160055Z AUTO 22008KT 10SM CLR 22/04 A3013 RMK AO2 T02230040
2026-04-16 00:35:00,METAR KHSP 160035Z AUTO 22006KT 10SM CLR 22/04 A3013 RMK AO2 T02170040
2026-04-16 00:15:00,METAR KHSP 160015Z AUTO 23006KT 10SM CLR 22/05 A3013 RMK AO2 T02190045
2026-04-15 23:55:00,METAR KHSP 152355Z AUTO 23005KT 10SM CLR 22/05 A3012 RMK AO2 T02240048 10263 20223
2026-04-15 23:35:00,METAR KHSP 152335Z AUTO 24005KT 10SM CLR 23/05 A3012 RMK AO2 T02290050
2026-04-15 23:15:00,METAR KHSP 152315Z AUTO 26007KT 10SM CLR 24/05 A3012 RMK AO2 T02350053
2026-04-15 22:55:00,METAR KHSP 152255Z AUTO 24005KT 10SM CLR 24/06 A3012 RMK AO2 T02380055
2026-04-15 22:35:00,METAR KHSP 152235Z AUTO 19005KT 10SM CLR 25/05 A3012 RMK AO2 T02500050
2026-04-15 22:15:00,METAR KHSP 152215Z AUTO 24010KT 10SM CLR 26/05 A3012 RMK AO2 T02550052
2026-04-15 21:55:00,METAR KHSP 152155Z AUTO 25010KT 10SM CLR 26/05 A3012 RMK AO2 T02590050
2026-04-15 21:35:00,METAR KHSP 152135Z AUTO 23012G17KT 10SM CLR 26/05 A3012 RMK AO2 T02550053
2026-04-15 21:15:00,METAR KHSP 152115Z AUTO 24011KT 10SM CLR 26/06 A3012 RMK AO2 T02570055
2026-04-15 20:55:00,METAR KHSP 152055Z AUTO 23012G18KT 10SM CLR 25/06 A3012 RMK AO2 T02510058
2026-04-15 20:35:00,METAR KHSP 152035Z AUTO 25010G16KT 10SM CLR 26/07 A3012 RMK AO2 T02580067
2026-04-15 20:15:00,METAR KHSP 152015Z AUTO 25012G16KT 10SM CLR 26/07 A3013 RMK AO2 T02560065
2026-04-15 19:55:00,METAR KHSP 151955Z AUTO 24012G17KT 10SM CLR 25/06 A3013 RMK AO2 T02540059
2026-04-15 19:35:00,METAR KHSP 151935Z AUTO 22007G15KT 180V240 10SM CLR 26/07 A3013 RMK AO2 T02560074
2026-04-15 19:15:00,METAR KHSP 151915Z AUTO 24007KT 10SM SCT037 SCT048 SCT060 26/08 A3014 RMK AO2 T02560077
2026-04-15 18:55:00,METAR KHSP 151855Z AUTO 27005KT 10SM SCT048 SCT060 25/07 A3014 RMK AO2 T02480073
2026-04-15 18:35:00,METAR KHSP 151835Z AUTO 22006KT 10SM SCT022 SCT030 SCT035 25/08 A3015 RMK AO2 T02470077
2026-04-15 18:15:00,METAR KHSP 151815Z AUTO 24007KT 10SM CLR 25/07 A3016 RMK AO2 T02450074
2026-04-15 17:55:00,METAR KHSP 151755Z AUTO 26008KT 10SM CLR 24/08 A3016 RMK AO2 T02380077 10243 20164
2026-04-15 17:35:00,METAR KHSP 151735Z AUTO 28009KT 10SM CLR 24/08 A3016 RMK AO2 T02390078
2026-04-15 17:15:00,METAR KHSP 151715Z AUTO 27004G14KT 10SM CLR 23/08 A3017 RMK AO2 T02330077
2026-04-15 16:55:00,METAR KHSP 151655Z AUTO 31008KT 10SM CLR 23/08 A3017 RMK AO2 T02280077
2026-04-15 16:35:00,METAR KHSP 151635Z AUTO 31005KT 10SM CLR 23/08 A3018 RMK AO2 T02250079
2026-04-15 16:15:00,METAR KHSP 151615Z AUTO 26009KT 10SM CLR 22/08 A3018 RMK AO2 T02210079
2026-04-15 15:55:00,METAR KHSP 151555Z AUTO 26010G14KT 10SM CLR 21/08 A3018 RMK AO2 T02140078
2026-04-15 15:35:00,METAR KHSP 151535Z AUTO 28007KT 10SM CLR 21/08 A3019 RMK AO2 T02100079
2026-04-15 15:15:00,METAR KHSP 151515Z AUTO 29010KT 10SM CLR 20/08 A3018 RMK AO2 T02040078
2026-04-15 14:55:00,METAR KHSP 151455Z AUTO 27014G19KT 10SM CLR 20/08 A3018 RMK AO2 T01990080
2026-04-15 14:35:00,METAR KHSP 151435Z AUTO 28014G20KT 10SM CLR 20/08 A3018 RMK AO2 T01950079
2026-04-15 14:15:00,METAR KHSP 151415Z AUTO 28018G22KT 10SM CLR 19/08 A3018 RMK AO2 T01870079
2026-04-15 13:55:00,METAR KHSP 151355Z AUTO 27015G22KT 10SM CLR 18/08 A3017 RMK AO2 T01820081
2026-04-15 13:35:00,METAR KHSP 151335Z AUTO 28018G21KT 10SM CLR 18/09 A3017 RMK AO2 T01760087
2026-04-15 13:15:00,METAR KHSP 151315Z AUTO 28015G23KT 10SM CLR 18/09 A3017 RMK AO2 T01750087
2026-04-15 12:55:00,METAR KHSP 151255Z AUTO 27016G21KT 10SM CLR 17/08 A3017 RMK AO2 T01720084
2026-04-15 12:35:00,METAR KHSP 151235Z AUTO 27018G23KT 10SM CLR 17/08 A3017 RMK AO2 T01680084
2026-04-15 12:15:00,METAR KHSP 151215Z AUTO 27017G22KT 10SM CLR 17/09 A3017 RMK AO2 T01650087
2026-04-15 11:55:00,METAR KHSP 151155Z AUTO 27014G20KT 10SM CLR 16/09 A3017 RMK AO2 T01630090 10167 20156
2026-04-15 11:35:00,METAR KHSP 151135Z AUTO 27015G21KT 10SM CLR 16/10 A3016 RMK AO2 T01600095
2026-04-15 11:15:00,METAR KHSP 151115Z AUTO 27016G19KT 10SM CLR 16/10 A3016 RMK AO2 T01590097
2026-04-15 10:55:00,METAR KHSP 151055Z AUTO 27014G20KT 10SM CLR 16/10 A3014 RMK AO2 T01560101
2026-04-15 10:35:00,METAR KHSP 151035Z AUTO 27013G19KT 10SM CLR 16/10 A3014 RMK AO2 T01570104
2026-04-15 10:15:00,METAR KHSP 151015Z AUTO 26014G20KT 10SM CLR 16/11 A3013 RMK AO2 T01580105
2026-04-15 09:55:00,METAR KHSP 150955Z AUTO 27018G21KT 10SM CLR 16/11 A3013 RMK AO2 T01610106
2026-04-15 09:35:00,METAR KHSP 150935Z AUTO 27016G21KT 10SM CLR 16/11 A3013 RMK AO2 T01620108
2026-04-15 09:15:00,METAR KHSP 150915Z AUTO 27015G19KT 10SM CLR 16/11 A3013 RMK AO2 T01630111
2026-04-15 08:55:00,METAR KHSP 150855Z AUTO 26013KT 10SM CLR 16/11 A3012 RMK AO2 T01620112
2026-04-15 08:35:00,METAR KHSP 150835Z AUTO 26014G19KT 10SM CLR 16/11 A3012 RMK AO2 T01640114
2026-04-15 08:15:00,METAR KHSP 150815Z AUTO 26014KT 10SM CLR 16/12 A3013 RMK AO2 T01640115
2026-04-15 07:55:00,METAR KHSP 150755Z AUTO 26011KT 10SM CLR 16/12 A3012 RMK AO2 T01630115
2026-04-15 07:35:00,METAR KHSP 150735Z AUTO 26012KT 10SM CLR 17/12 A3012 RMK AO2 T01650115
2026-04-15 07:15:00,METAR KHSP 150715Z AUTO 26013KT 10SM CLR 17/12 A3012 RMK AO2 T01650115
2026-04-15 06:55:00,METAR KHSP 150655Z AUTO 25013G17KT 10SM CLR 17/12 A3012 RMK AO2 T01660115
2026-04-15 06:35:00,METAR KHSP 150635Z AUTO 27013KT 10SM CLR 17/12 A3012 RMK AO2 T01660115
2026-04-15 06:15:00,METAR KHSP 150615Z AUTO 27013KT 10SM CLR 17/12 A3012 RMK AO2 T01660115
2026-04-15 05:55:00,METAR KHSP 150555Z AUTO 27012KT 10SM CLR 17/12 A3013 RMK AO2 T01660115 10192 20166
2026-04-15 05:35:00,METAR KHSP 150535Z AUTO 27011KT 10SM CLR 17/12 A3015 RMK AO2 T01660115
2026-04-15 05:15:00,METAR KHSP 150515Z AUTO 27010G18KT 10SM CLR 17/12 A3016 RMK AO2 T01690115
2026-04-15 04:55:00,METAR KHSP 150455Z AUTO 27011KT 10SM CLR 17/12 A3016 RMK AO2 T01700115 402220140
2026-04-15 04:35:00,METAR KHSP 150435Z AUTO 27013KT 10SM CLR 17/12 A3016 RMK AO2 T01720115
2026-04-15 04:15:00,METAR KHSP 150415Z AUTO 27014G18KT 10SM CLR 17/11 A3015 RMK AO2 T01740114
2026-04-15 03:55:00,METAR KHSP 150355Z AUTO 26014G18KT 10SM CLR 18/12 A3015 RMK AO2 T01750115
2026-04-15 03:35:00,METAR KHSP 150335Z AUTO 26015G21KT 10SM CLR 18/11 A3015 RMK AO2 T01760113
2026-04-15 03:15:00,METAR KHSP 150315Z AUTO 26015G19KT 10SM CLR 18/11 A3015 RMK AO2 T01770113
2026-04-15 02:55:00,METAR KHSP 150255Z AUTO 26015G20KT 10SM CLR 18/11 A3016 RMK AO2 T01780111
2026-04-15 02:35:00,METAR KHSP 150235Z AUTO 25015G20KT 10SM CLR 18/11 A3016 RMK AO2 T01780111
2026-04-15 02:15:00,METAR KHSP 150215Z AUTO 26015G21KT 10SM CLR 18/11 A3015 RMK AO2 T01800110
2026-04-15 01:55:00,METAR KHSP 150155Z AUTO 25017KT 10SM CLR 18/11 A3015 RMK AO2 T01810110
2026-04-15 01:35:00,METAR KHSP 150135Z AUTO 25014KT 10SM CLR 18/11 A3015 RMK AO2 T01840110
2026-04-15 01:15:00,METAR KHSP 150115Z AUTO 25014G17KT 10SM CLR 18/11 A3014 RMK AO2 T01830109
2026-04-15 00:55:00,METAR KHSP 150055Z AUTO 25010KT 10SM CLR 19/11 A3014 RMK AO2 T01850106
2026-04-15 00:35:00,METAR KHSP 150035Z AUTO 25010KT 10SM CLR 19/11 A3013 RMK AO2 T01870107
2026-04-15 00:15:00,METAR KHSP 150015Z AUTO 25010KT 10SM CLR 19/11 A3013 RMK AO2 T01880108
2026-04-14 23:55:00,METAR KHSP 142355Z AUTO 25012G16KT 10SM CLR 19/11 A3013 RMK AO2 T01910109 10215 20191
2026-04-14 23:35:00,METAR KHSP 142335Z AUTO 25014G20KT 10SM CLR 20/11 A3013 RMK AO2 T01980108
2026-04-14 23:15:00,METAR KHSP 142315Z AUTO 25013KT 10SM CLR 20/11 A3013 RMK AO2 T02020110
2026-04-14 22:55:00,METAR KHSP 142255Z AUTO 25016G20KT 10SM SCT040 SCT046 20/11 A3014 RMK AO2 T02040110
2026-04-14 22:35:00,METAR KHSP 142235Z AUTO 27011G19KT 10SM SCT042 21/11 A3015 RMK AO2 T02070113
2026-04-14 22:15:00,METAR KHSP 142215Z AUTO 25013KT 10SM SCT039 21/12 A3015 RMK AO2 T02130115
2026-04-14 21:55:00,METAR KHSP 142155Z AUTO 25015G20KT 10SM SCT037 BKN065 21/11 A3015 RMK AO2 T02080112
2026-04-14 21:35:00,METAR KHSP 142135Z AUTO 26012G15KT 10SM SCT033 BKN065 20/12 A3016 RMK AO2 T02010115
2026-04-14 21:15:00,METAR KHSP 142115Z AUTO 24014G19KT 10SM SCT033 SCT065 SCT095 20/12 A3015 RMK AO2 T02000117
2026-04-14 20:55:00,METAR KHSP 142055Z AUTO 27014G20KT 240V300 10SM SCT095 BKN120 21/12 A3016 RMK AO2 T02060118
2026-04-14 20:35:00,METAR KHSP 142035Z AUTO 25016G21KT 10SM SCT075 SCT085 OVC110 20/12 A3016 RMK AO2 T02010116
2026-04-14 20:15:00,METAR KHSP 142015Z AUTO 25017G21KT 10SM SCT050 BKN075 OVC110 21/12 A3016 RMK AO2 T02050122
2026-04-14 19:55:00,METAR KHSP 141955Z AUTO 27013G19KT 10SM SCT038 BKN100 OVC120 21/11 A3016 RMK AO2 T02050114
2026-04-14 19:35:00,METAR KHSP 141935Z AUTO 25014G20KT 10SM OVC110 20/11 A3017 RMK AO2 T02030114
2026-04-14 19:15:00,METAR KHSP 141915Z AUTO 26011G20KT 10SM SCT037 SCT060 OVC120 20/11 A3017 RMK AO2 T02040112
2026-04-14 18:55:00,METAR KHSP 141855Z AUTO 26008G18KT 10SM BKN037 BKN060 OVC120 21/11 A3019 RMK AO2 T02070113
2026-04-14 18:35:00,METAR KHSP 141835Z AUTO 28013G19KT 10SM SCT037 BKN043 21/11 A3019 RMK AO2 T02070112
2026-04-14 18:15:00,METAR KHSP 141815Z AUTO 27017G23KT 10SM SCT040 SCT045 21/11 A3019 RMK AO2 T02130113
2026-04-14 17:55:00,METAR KHSP 141755Z AUTO 28013G21KT 10SM SCT040 21/11 A3020 RMK AO2 T02120105 10222 20147
2026-04-14 17:35:00,METAR KHSP 141735Z AUTO 24015G22KT 10SM SCT040 22/11 A3020 RMK AO2 T02160106
2026-04-14 17:15:00,METAR KHSP 141715Z AUTO 27014G25KT 10SM CLR 21/11 A3021 RMK AO2 T02090105
2026-04-14 16:55:00,METAR KHSP 141655Z AUTO 25016G20KT 10SM CLR 21/10 A3021 RMK AO2 T02100103
2026-04-14 16:35:00,METAR KHSP 141635Z AUTO 24015G19KT 10SM SCT043 21/10 A3021 RMK AO2 T02060103
2026-04-14 16:15:00,METAR KHSP 141615Z AUTO 28011G22KT 10SM SCT041 21/10 A3022 RMK AO2 T02060103
2026-04-14 15:55:00,METAR KHSP 141555Z AUTO 29012G21KT 10SM CLR 20/10 A3022 RMK AO2 T02010098
2026-04-14 15:35:00,METAR KHSP 141535Z AUTO 28012G18KT 10SM CLR 19/09 A3022 RMK AO2 LTG DSNT N T01930092
2026-04-14 15:15:00,METAR KHSP 141515Z AUTO 27014G22KT 10SM SCT080 19/09 A3022 RMK AO2 T01850090
2026-04-14 14:55:00,METAR KHSP 141455Z AUTO 26017G22KT 10SM CLR 19/09 A3022 RMK AO2 T01860086
2026-04-14 14:35:00,METAR KHSP 141435Z AUTO 27015G21KT 10SM SCT038 18/08 A3022 RMK AO2 T01820083
2026-04-14 14:15:00,METAR KHSP 141415Z AUTO 27017G28KT 10SM BKN036 BKN065 18/08 A3022 RMK AO2 LTG DSNT N T01760077
2026-04-14 13:55:00,METAR KHSP 141355Z AUTO 27016G24KT 10SM OVC036 18/08 A3022 RMK AO2 T01800076
2026-04-14 13:35:00,METAR KHSP 141335Z AUTO 27015G20KT 10SM OVC034 18/07 A3022 RMK AO2 T01750071
2026-04-14 13:15:00,METAR KHSP 141315Z AUTO 27016G21KT 10SM SCT027 OVC034 17/07 A3022 RMK AO2 T01680067
2026-04-14 12:55:00,METAR KHSP 141255Z AUTO 27014G19KT 10SM BKN027 OVC034 16/06 A3021 RMK AO2 T01610062
2026-04-14 12:35:00,METAR KHSP 141235Z AUTO 27014G21KT 10SM BKN027 16/06 A3021 RMK AO2 T01570058
2026-04-14 12:15:00,METAR KHSP 141215Z AUTO 27012G19KT 10SM SCT024 15/05 A3021 RMK AO2 T01470054
2026-04-14 11:55:00,METAR KHSP 141155Z AUTO 27016G20KT 10SM SCT024 15/05 A3021 RMK AO2 T01480051 10148 20140
2026-04-14 11:35:00,METAR KHSP 141135Z AUTO 27016G21KT 10SM CLR 15/05 A3020 RMK AO2 T01450050
2026-04-14 11:15:00,METAR KHSP 141115Z AUTO 27016G21KT 10SM CLR 14/05 A3020 RMK AO2 T01430047
2026-04-14 10:55:00,METAR KHSP 141055Z AUTO 27015G19KT 10SM CLR 14/04 A3020 RMK AO2 T01400044
2026-04-14 10:35:00,METAR KHSP 141035Z AUTO 27013G18KT 10SM CLR 14/04 A3020 RMK AO2 T01410043
2026-04-14 10:15:00,METAR KHSP 141015Z AUTO 27013KT 10SM CLR 14/04 A3020 RMK AO2 T01420040
2026-04-14 09:55:00,METAR KHSP 140955Z AUTO 26016KT 10SM CLR 14/04 A3020 RMK AO2 T01420038
2026-04-14 09:35:00,METAR KHSP 140935Z AUTO 27015KT 10SM CLR 14/04 A3020 RMK AO2 T01430040
2026-04-14 09:15:00,METAR KHSP 140915Z AUTO 26016KT 10SM CLR 14/04 A3019 RMK AO2 T01420042
2026-04-14 08:55:00,METAR KHSP 140855Z AUTO 27017KT 10SM CLR 14/05 A3019 RMK AO2 T01410047
2026-04-14 08:35:00,METAR KHSP 140835Z AUTO 27016KT 10SM CLR 14/05 A3018 RMK AO2 T01410052
2026-04-14 08:15:00,METAR KHSP 140815Z AUTO 27015KT 10SM CLR 14/06 A3019 RMK AO2 T01410057
2026-04-14 07:55:00,METAR KHSP 140755Z AUTO 27014KT 10SM CLR 14/06 A3018 RMK AO2 T01430059
2026-04-14 07:35:00,METAR KHSP 140735Z AUTO 26015KT 10SM CLR 14/06 A3019 RMK AO2 T01420058
2026-04-14 07:15:00,METAR KHSP 140715Z AUTO 27014KT 10SM CLR 14/06 A3020 RMK AO2 T01430060
2026-04-14 06:55:00,METAR KHSP 140655Z AUTO 26014G19KT 10SM CLR 15/06 A3020 RMK AO2 T01450060
2026-04-14 06:35:00,METAR KHSP 140635Z AUTO 26014G18KT 10SM CLR 15/06 A3020 RMK AO2 T01450061
2026-04-14 06:15:00,METAR KHSP 140615Z AUTO 26012G16KT 10SM CLR 15/07 A3021 RMK AO2 T01460065
2026-04-14 05:55:00,METAR KHSP 140555Z AUTO 26010KT 10SM CLR 14/07 A3021 RMK AO2 T01430067 10179 20143
2026-04-14 05:35:00,METAR KHSP 140535Z AUTO 25012KT 10SM CLR 14/07 A3022 RMK AO2 T01440069
2026-04-14 05:15:00,METAR KHSP 140515Z AUTO 26012KT 10SM CLR 15/07 A3022 RMK AO2 T01480068
2026-04-14 04:55:00,METAR KHSP 140455Z AUTO 26011KT 10SM CLR 15/07 A3023 RMK AO2 T01500068 402150150
2026-04-14 04:35:00,METAR KHSP 140435Z AUTO 26011G17KT 10SM CLR 15/07 A3022 RMK AO2 T01520066
2026-04-14 04:15:00,METAR KHSP 140415Z AUTO 26011KT 10SM CLR 15/07 A3022 RMK AO2 T01540067
2026-04-14 03:55:00,METAR KHSP 140355Z AUTO 26012KT 10SM CLR 15/08 A3023 RMK AO2 T01510075
2026-04-14 03:35:00,METAR KHSP 140335Z AUTO 27011KT 10SM CLR 15/08 A3023 RMK AO2 T01520077
2026-04-14 03:15:00,METAR KHSP 140315Z AUTO 26013KT 10SM CLR 15/08 A3023 RMK AO2 T01520081
2026-04-14 02:55:00,METAR KHSP 140255Z AUTO 27014KT 10SM CLR 16/08 A3025 RMK AO2 T01550080
2026-04-14 02:35:00,METAR KHSP 140235Z AUTO 27014G20KT 10SM CLR 15/08 A3025 RMK AO2 T01520081
2026-04-14 02:15:00,METAR KHSP 140215Z AUTO 26013G19KT 10SM CLR 15/08 A3025 RMK AO2 T01530082
2026-04-14 01:55:00,METAR KHSP 140155Z AUTO 25013KT 10SM CLR 16/08 A3025 RMK AO2 T01550082
2026-04-14 01:35:00,METAR KHSP 140135Z AUTO 25012KT 10SM CLR 16/08 A3025 RMK AO2 T01590082
2026-04-14 01:15:00,METAR KHSP 140115Z AUTO 26011KT 10SM CLR 16/08 A3025 RMK AO2 T01630082
2026-04-14 00:55:00,METAR KHSP 140055Z AUTO 25012KT 10SM SCT110 17/08 A3024 RMK AO2 T01680082
2026-04-14 00:35:00,METAR KHSP 140035Z AUTO 25013KT 10SM CLR 17/08 A3024 RMK AO2 T01690083
2026-04-14 00:15:00,METAR KHSP 140015Z AUTO 25010G14KT 10SM CLR 17/08 A3024 RMK AO2 T01730083
2026-04-13 23:55:00,METAR KHSP 132355Z AUTO 26009G16KT 10SM CLR 18/08 A3024 RMK AO2 T01800083 10215 20180
2026-04-13 23:35:00,METAR KHSP 132335Z AUTO 27012G19KT 10SM BKN048 19/08 A3023 RMK AO2 T01860083
2026-04-13 23:15:00,METAR KHSP 132315Z AUTO 26010KT 10SM OVC048 19/08 A3024 RMK AO2 T01870081
2026-04-13 22:55:00,METAR KHSP 132255Z AUTO 25007G14KT 10SM BKN048 BKN120 19/08 A3023 RMK AO2 T01910081
2026-04-13 22:35:00,METAR KHSP 132235Z AUTO 25008KT 10SM SCT048 SCT120 19/08 A3023 RMK AO2 T01920080
2026-04-13 22:15:00,METAR KHSP 132215Z AUTO 25011G17KT 10SM SCT050 SCT120 19/08 A3023 RMK AO2 T01920079
2026-04-13 21:55:00,METAR KHSP 132155Z AUTO 25011KT 10SM BKN050 BKN120 20/08 A3023 RMK AO2 T01960078
2026-04-13 21:35:00,METAR KHSP 132135Z AUTO 25011KT 10SM BKN050 BKN120 20/08 A3023 RMK AO2 T01950075
2026-04-13 21:15:00,METAR KHSP 132115Z AUTO 26012G17KT 10SM BKN050 BKN120 20/08 A3024 RMK AO2 T01970076
2026-04-13 20:55:00,METAR KHSP 132055Z AUTO 25014G18KT 10SM BKN050 BKN060 20/08 A3023 RMK AO2 T02020077
2026-04-13 20:35:00,METAR KHSP 132035Z AUTO 24015KT 10SM SCT050 BKN060 21/08 A3024 RMK AO2 T02060076
2026-04-13 20:15:00,METAR KHSP 132015Z AUTO 25012G16KT 10SM OVC050 20/07 A3024 RMK AO2 T01950074
2026-04-13 19:55:00,METAR KHSP 131955Z AUTO 25010KT 10SM BKN050 20/07 A3025 RMK AO2 T02000073
2026-04-13 19:35:00,METAR KHSP 131935Z AUTO 26012G16KT 10SM BKN050 21/08 A3025 RMK AO2 T02110077
2026-04-13 19:15:00,METAR KHSP 131915Z AUTO 25009G15KT 10SM BKN050 20/07 A3026 RMK AO2 T02020074
2026-04-13 18:55:00,METAR KHSP 131855Z AUTO 25007G15KT 10SM SCT046 21/07 A3026 RMK AO2 T02070074
2026-04-13 18:35:00,METAR KHSP 131835Z AUTO 24009G17KT 10SM OVC044 20/08 A3027 RMK AO2 T01970077
2026-04-13 18:15:00,METAR KHSP 131815Z AUTO 26009KT 10SM OVC046 19/07 A3027 RMK AO2 T01910072
2026-04-13 17:55:00,METAR KHSP 131755Z AUTO 23011KT 10SM OVC046 19/07 A3027 RMK AO2 T01920069 10196 20160
2026-04-13 17:35:00,METAR KHSP 131735Z AUTO 28015G20KT 10SM OVC046 19/07 A3027 RMK AO2 T01940072
2026-04-13 17:15:00,METAR KHSP 131715Z AUTO 25013G20KT 10SM BKN046 BKN055 19/07 A3028 RMK AO2 T01890065
2026-04-13 16:55:00,METAR KHSP 131655Z AUTO 26009G17KT 10SM SCT046 SCT120 19/07 A3027 RMK AO2 T01920068
2026-04-13 16:35:00,METAR KHSP 131635Z AUTO 24016G22KT 10SM SCT046 SCT120 19/06 A3028 RMK AO2 T01870064
2026-04-13 16:15:00,METAR KHSP 131615Z AUTO 26015G26KT 10SM SCT046 18/06 A3028 RMK AO2 T01840061
2026-04-13 15:55:00,METAR KHSP 131555Z AUTO 26016G25KT 10SM SCT046 SCT050 18/06 A3028 RMK AO2 T01810060
2026-04-13 15:35:00,METAR KHSP 131535Z AUTO 25015G22KT 10SM SCT044 SCT120 19/06 A3029 RMK AO2 T01850061
2026-04-13 15:15:00,METAR KHSP 131515Z AUTO 24017G24KT 10SM SCT046 SCT110 18/06 A3029 RMK AO2 T01780058
2026-04-13 14:55:00,METAR KHSP 131455Z AUTO 25016G25KT 10SM SCT050 SCT110 17/05 A3029 RMK AO2 T01710054
2026-04-13 14:35:00,METAR KHSP 131435Z AUTO 26018G27KT 10SM SCT037 SCT050 BKN110 17/05 A3029 RMK AO2 T01670054
2026-04-13 14:15:00,METAR KHSP 131415Z AUTO 26016G21KT 10SM SCT036 SCT060 BKN110 17/05 A3029 RMK AO2 T01660050
2026-04-13 13:55:00,METAR KHSP 131355Z AUTO 26015G28KT 10SM SCT065 BKN110 17/05 A3029 RMK AO2 T01670047
2026-04-13 13:35:00,METAR KHSP 131335Z AUTO 25019G25KT 10SM BKN065 BKN110 17/05 A3029 RMK AO2 T01700045
2026-04-13 13:15:00,METAR KHSP 131315Z AUTO 26015G24KT 10SM SCT110 17/05 A3029 RMK AO2 T01710045
2026-04-13 12:55:00,METAR KHSP 131255Z AUTO 25014G25KT 10SM SCT100 17/05 A3029 RMK AO2 T01650046
2026-04-13 12:35:00,METAR KHSP 131235Z AUTO 24016G22KT 10SM CLR 16/05 A3029 RMK AO2 T01620046
2026-04-13 12:15:00,METAR KHSP 131215Z AUTO 25018G25KT 10SM CLR 16/05 A3028 RMK AO2 T01630045
2026-04-13 11:55:00,METAR KHSP 131155Z AUTO 25015G21KT 10SM CLR 16/05 A3029 RMK AO2 T01600046 10165 20152
2026-04-13 11:35:00,METAR KHSP 131135Z AUTO 24017G22KT 10SM CLR 16/05 A3028 RMK AO2 T01550048
2026-04-13 11:15:00,METAR KHSP 131115Z AUTO 24015G20KT 10SM CLR 15/05 A3028 RMK AO2 T01530048
2026-04-13 10:55:00,METAR KHSP 131055Z AUTO 24013G20KT 10SM CLR 15/05 A3028 RMK AO2 T01530048
2026-04-13 10:35:00,METAR KHSP 131035Z AUTO 24012G19KT 10SM CLR 15/05 A3028 RMK AO2 T01530050
2026-04-13 10:15:00,METAR KHSP 131015Z AUTO 24014KT 10SM CLR 15/05 A3027 RMK AO2 T01540050
2026-04-13 09:55:00,METAR KHSP 130955Z AUTO 25015KT 10SM CLR 15/05 A3027 RMK AO2 T01530050
2026-04-13 09:35:00,METAR KHSP 130935Z AUTO 24016G23KT 10SM CLR 16/05 A3026 RMK AO2 T01560050
2026-04-13 09:15:00,METAR KHSP 130915Z AUTO 24018G23KT 10SM CLR 16/05 A3026 RMK AO2 T01570052
2026-04-13 08:55:00,METAR KHSP 130855Z AUTO 23016G20KT 10SM CLR 16/05 A3026 RMK AO2 T01580053
2026-04-13 08:35:00,METAR KHSP 130835Z AUTO 23017G22KT 10SM CLR 16/06 A3026 RMK AO2 T01590055
2026-04-13 08:15:00,METAR KHSP 130815Z AUTO 23015G19KT 10SM CLR 16/06 A3026 RMK AO2 T01580055
2026-04-13 07:55:00,METAR KHSP 130755Z AUTO 23015G22KT 10SM CLR 16/06 A3025 RMK AO2 T01610056
2026-04-13 07:35:00,METAR KHSP 130735Z AUTO 22016G26KT 10SM CLR 16/06 A3025 RMK AO2 T01630056
2026-04-13 07:15:00,METAR KHSP 130715Z AUTO 22014KT 10SM CLR 16/06 A3026 RMK AO2 T01640056
2026-04-13 06:55:00,METAR KHSP 130655Z AUTO 21011G23KT 10SM CLR 16/06 A3026 RMK AO2 T01640057
2026-04-13 06:35:00,METAR KHSP 130635Z AUTO 22015G25KT 10SM CLR 17/06 A3027 RMK AO2 T01650059
2026-04-13 06:15:00,METAR KHSP 130615Z AUTO 22016G22KT 10SM CLR 17/06 A3027 RMK AO2 T01650060
2026-04-13 05:55:00,METAR KHSP 130555Z AUTO 21013G22KT 10SM CLR 17/06 A3028 RMK AO2 T01650062 10169 20155
2026-04-13 05:35:00,METAR KHSP 130535Z AUTO 21012G20KT 10SM CLR 17/06 A3029 RMK AO2 T01650064
2026-04-13 05:15:00,METAR KHSP 130515Z AUTO 20012G19KT 10SM CLR 17/07 A3029 RMK AO2 T01650065
2026-04-13 04:55:00,METAR KHSP 130455Z AUTO 21014G20KT 10SM CLR 17/07 A3030 RMK AO2 T01670066 401780090
2026-04-13 04:35:00,METAR KHSP 130435Z AUTO 21013G21KT 10SM CLR 17/07 A3030 RMK AO2 T01670067
2026-04-13 04:15:00,METAR KHSP 130415Z AUTO 21010G20KT 10SM CLR 17/07 A3030 RMK AO2 T01650074
2026-04-13 03:55:00,METAR KHSP 130355Z AUTO 19011G16KT 10SM CLR 16/08 A3031 RMK AO2 T01640080
2026-04-13 03:35:00,METAR KHSP 130335Z AUTO 19009G14KT 160V220 10SM CLR 16/09 A3031 RMK AO2 T01600090
2026-04-13 03:15:00,METAR KHSP 130315Z AUTO 18009G15KT 7SM CLR 16/09 A3031 RMK AO2 T01590094
2026-04-13 02:55:00,METAR KHSP 130255Z AUTO 18009G16KT 7SM CLR 16/10 A3032 RMK AO2 T01600095
2026-04-13 02:35:00,METAR KHSP 130235Z AUTO 18009G16KT 10SM CLR 16/10 A3032 RMK AO2 T01600095
2026-04-13 02:15:00,METAR KHSP 130215Z AUTO 18011G16KT 7SM CLR 16/10 A3033 RMK AO2 T01600095
2026-04-13 01:55:00,METAR KHSP 130155Z AUTO 18011G16KT 7SM CLR 16/09 A3032 RMK AO2 T01600093
2026-04-13 01:35:00,METAR KHSP 130135Z AUTO 18012G16KT 7SM CLR 16/09 A3033 RMK AO2 T01590092
2026-04-13 01:15:00,METAR KHSP 130115Z AUTO 18012G15KT 7SM CLR 16/09 A3032 RMK AO2 T01570090
2026-04-13 00:55:00,METAR KHSP 130055Z AUTO 17010G15KT 7SM CLR 16/09 A3032 RMK AO2 T01570089
2026-04-13 00:35:00,METAR KHSP 130035Z AUTO 17011G16KT 7SM CLR 16/09 A3032 RMK AO2 T01570088
2026-04-13 00:15:00,METAR KHSP 130015Z AUTO 16007G16KT 7SM CLR 16/09 A3032 RMK AO2 T01560090
2026-04-12 23:55:00,METAR KHSP 122355Z AUTO 16007G16KT 7SM CLR 16/09 A3032 RMK AO2 T01570093 10178 20157
2026-04-12 23:35:00,METAR KHSP 122335Z AUTO 16008G15KT 7SM CLR 16/09 A3032 RMK AO2 T01590092
2026-04-12 23:15:00,METAR KHSP 122315Z AUTO 16008G17KT 7SM SCT095 16/09 A3032 RMK AO2 T01620091
2026-04-12 22:55:00,METAR KHSP 122255Z AUTO 16009G15KT 5SM HZ CLR 17/09 A3032 RMK AO2 T01650094
2026-04-12 22:35:00,METAR KHSP 122235Z AUTO 15010KT 4SM HZ CLR 17/10 A3032 RMK AO2 T01700097
2026-04-12 22:15:00,METAR KHSP 122215Z AUTO 14008G14KT 4SM HZ SCT085 17/10 A3033 RMK AO2 T01700098
2026-04-12 21:55:00,METAR KHSP 122155Z AUTO 15008KT 4SM HZ CLR 17/10 A3033 RMK AO2 T01650098
2026-04-12 21:35:00,METAR KHSP 122135Z AUTO 13008G15KT 4SM HZ SCT009 SCT014 SCT080 17/10 A3033 RMK AO2 T01710098
2026-04-12 21:15:00,METAR KHSP 122115Z AUTO 14006KT 5SM HZ SCT080 17/10 A3034 RMK AO2 T01740098
2026-04-12 20:55:00,METAR KHSP 122055Z AUTO 14011G14KT 5SM HZ SCT008 SCT011 SCT080 18/10 A3034 RMK AO2 T01750096
2026-04-12 20:35:00,METAR KHSP 122035Z AUTO 12010G15KT 5SM HZ CLR 18/10 A3034 RMK AO2 T01750096
2026-04-12 20:15:00,METAR KHSP 122015Z AUTO 16008G14KT 5SM HZ CLR 17/09 A3035 RMK AO2 T01730093
2026-04-12 19:55:00,METAR KHSP 121955Z AUTO 13011G14KT 120V190 5SM HZ CLR 17/09 A3035 RMK AO2 T01740094
2026-04-12 19:35:00,METAR KHSP 121935Z AUTO 14008G15KT 5SM HZ SCT007 SCT012 17/09 A3036 RMK AO2 T01700090
2026-04-12 19:15:00,METAR KHSP 121915Z AUTO 15008KT 110V170 4SM HZ SCT007 SCT012 17/09 A3036 RMK AO2 T01710089
2026-04-12 18:55:00,METAR KHSP 121855Z AUTO 15006KT 110V180 5SM HZ SCT007 17/09 A3037 RMK AO2 T01700087
2026-04-12 18:35:00,METAR KHSP 121835Z AUTO 15008KT 7SM CLR 18/08 A3038 RMK AO2 T01750082
2026-04-12 18:15:00,METAR KHSP 121815Z AUTO 14007KT 7SM SCT008 SCT018 17/08 A3039 RMK AO2 T01720082
2026-04-12 17:55:00,METAR KHSP 121755Z AUTO 15007KT 5SM HZ SCT006 SCT011 SCT020 17/08 A3040 RMK AO2 T01680077 10169 20091
2026-04-12 17:35:00,METAR KHSP 121735Z AUTO 14008KT 7SM CLR 16/08 A3040 RMK AO2 T01630077
2026-04-12 17:15:00,METAR KHSP 121715Z AUTO 15008G14KT 7SM CLR 16/08 A3041 RMK AO2 T01590079
2026-04-12 16:55:00,METAR KHSP 121655Z AUTO 17007G14KT 5SM HZ SCT006 16/08 A3042 RMK AO2 T01550080
2026-04-12 16:35:00,METAR KHSP 121635Z AUTO 18007KT 160V220 7SM SCT006 15/09 A3042 RMK AO2 T01480086
2026-04-12 16:15:00,METAR KHSP 121615Z AUTO 11008KT 4SM HZ SCT006 SCT010 14/08 A3043 RMK AO2 T01430084
2026-04-12 15:55:00,METAR KHSP 121555Z AUTO 18007KT 140V210 5SM HZ SCT010 14/09 A3044 RMK AO2 T01410087
2026-04-12 14:55:00,METAR KHSP 121455Z AUTO 15008KT 120V190 7SM OVC006 12/08 A3044 RMK AO2 T01150084
2026-04-12 14:35:00,METAR KHSP 121435Z AUTO 16008G14KT 7SM OVC004 11/09 A3044 RMK AO2 T01100085
2026-04-12 14:15:00,METAR KHSP 121415Z AUTO 16009G14KT 10SM OVC004 11/09 A3044 RMK AO2 T01050085
2026-04-12 13:55:00,METAR KHSP 121355Z AUTO 16008KT 7SM OVC004 10/08 A3043 RMK AO2 T01020084
2026-04-12 13:35:00,METAR KHSP 121335Z AUTO 15008G14KT 7SM OVC004 10/09 A3043 RMK AO2 T01000085
2026-04-12 13:15:00,METAR KHSP 121315Z AUTO 15009KT 7SM OVC004 10/08 A3042 RMK AO2 T00990082
2026-04-12 12:55:00,METAR KHSP 121255Z AUTO 15008KT 5SM BR OVC004 10/08 A3042 RMK AO2 T00970078
2026-04-12 12:35:00,METAR KHSP 121235Z AUTO 16007KT 7SM OVC004 10/08 A3042 RMK AO2 T00970080
2026-04-12 12:15:00,METAR KHSP 121215Z AUTO 15007KT 7SM SCT006 09/07 A3042 RMK AO2 T00930074
2026-04-12 11:55:00,METAR KHSP 121155Z AUTO 14008KT 4SM BR SCT006 09/07 A3041 RMK AO2 T00910072 10106 20090
2026-04-12 11:35:00,METAR KHSP 121135Z AUTO 13008KT 4SM BR SCT007 09/07 A3041 RMK AO2 T00910071
2026-04-12 11:15:00,METAR KHSP 121115Z AUTO 14008KT 4SM BR SCT007 09/07 A3041 RMK AO2 T00900068
2026-04-12 10:55:00,METAR KHSP 121055Z AUTO 13007KT 5SM BR CLR 09/07 A3040 RMK AO2 T00900066
2026-04-12 10:35:00,METAR KHSP 121035Z AUTO 14008KT 7SM CLR 09/07 A3039 RMK AO2 T00910065
2026-04-12 10:15:00,METAR KHSP 121015Z AUTO 13007KT 7SM CLR 09/06 A3039 RMK AO2 T00920063
2026-04-12 09:55:00,METAR KHSP 120955Z AUTO 12006KT 3SM HZ CLR 09/05 A3039 RMK AO2 T00920051
2026-04-12 09:35:00,METAR KHSP 120935Z AUTO 11005KT 4SM HZ CLR 09/03 A3039 RMK AO2 T00900032
2026-04-12 09:15:00,METAR KHSP 120915Z AUTO 11006KT 4SM HZ CLR 09/02 A3039 RMK AO2 T00920024
2026-04-12 08:55:00,METAR KHSP 120855Z AUTO 11006KT 4SM HZ CLR 09/02 A3039 RMK AO2 T00920022
2026-04-12 08:35:00,METAR KHSP 120835Z AUTO 10005KT 3SM HZ CLR 10/03 A3039 RMK AO2 T00950025
2026-04-12 08:15:00,METAR KHSP 120815Z AUTO 12007KT 4SM HZ CLR 10/05 A3038 RMK AO2 T01000046
2026-04-12 07:55:00,METAR KHSP 120755Z AUTO 12005KT 4SM HZ CLR 10/05 A3038 RMK AO2 T01010045
2026-04-12 07:35:00,METAR KHSP 120735Z AUTO 11006KT 5SM HZ CLR 10/02 A3038 RMK AO2 T01000019
2026-04-12 07:15:00,METAR KHSP 120715Z AUTO 10006KT 3SM HZ CLR 10/01 A3038 RMK AO2 T00970005
2026-04-12 06:55:00,METAR KHSP 120655Z AUTO 09006KT 3SM HZ CLR 10/00 A3038 RMK AO2 T00970002
2026-04-12 06:35:00,METAR KHSP 120635Z AUTO 09006KT 4SM HZ CLR 10/00 A3039 RMK AO2 T01010002
2026-04-12 06:15:00,METAR KHSP 120615Z AUTO 09007KT 4SM HZ SCT005 11/00 A3039 RMK AO2 T01050002
2026-04-12 05:55:00,METAR KHSP 120555Z AUTO 08007KT 4SM HZ CLR 11/00 A3039 RMK AO2 T01060002 10150 20106
2026-04-12 05:35:00,METAR KHSP 120535Z AUTO 07007KT 4SM HZ SCT006 11/01 A3039 RMK AO2 T01080005
2026-04-12 05:15:00,METAR KHSP 120515Z AUTO 07007KT 3SM HZ BKN006 BKN014 11/01 A3039 RMK AO2 T01100005
2026-04-12 04:55:00,METAR KHSP 120455Z AUTO 07007KT 2 1/2SM HZ BKN006 OVC013 12/01 A3039 RMK AO2 T01150010 401910108
2026-04-12 04:35:00,METAR KHSP 120435Z AUTO 07007KT 2 1/2SM HZ OVC013 12/01 A3039 RMK AO2 T01180011
2026-04-12 04:15:00,METAR KHSP 120415Z AUTO 06006KT 4SM HZ OVC013 12/02 A3039 RMK AO2 T01220019
2026-04-12 03:55:00,METAR KHSP 120355Z AUTO 00000KT 1 3/4SM HZ OVC013 12/00 A3039 RMK AO2 T01240000
2026-04-12 03:35:00,METAR KHSP 120335Z AUTO 00000KT 7SM BKN013 13/00 A3039 RMK AO2 T01311001
2026-04-12 03:15:00,METAR KHSP 120315Z AUTO 00000KT 10SM CLR 13/00 A3039 RMK AO2 T01271002
2026-04-12 02:55:00,METAR KHSP 120255Z AUTO 32005KT 10SM CLR 13/00 A3039 RMK AO2 T01270000
2026-04-12 02:35:00,METAR KHSP 120235Z AUTO 31003KT 10SM CLR 14/00 A3038 RMK AO2 T01351003
2026-04-12 02:15:00,METAR KHSP 120215Z AUTO 29006KT 10SM CLR 13/00 A3039 RMK AO2 T01301005
2026-04-12 01:55:00,METAR KHSP 120155Z AUTO 28006KT 10SM CLR 13/M01 A3039 RMK AO2 T01341007
2026-04-12 01:35:00,METAR KHSP 120135Z AUTO 28007KT 10SM CLR 14/00 A3038 RMK AO2 T01361005
2026-04-12 01:15:00,METAR KHSP 120115Z AUTO 27007KT 10SM CLR 14/M01 A3037 RMK AO2 T01411006
2026-04-12 00:55:00,METAR KHSP 120055Z AUTO 27010KT 10SM CLR 14/00 A3037 RMK AO2 T01431005
2026-04-12 00:35:00,METAR KHSP 120035Z AUTO 26008KT 10SM CLR 14/00 A3037 RMK AO2 T01441003
2026-04-12 00:15:00,METAR KHSP 120015Z AUTO 24009KT 10SM CLR 15/00 A3036 RMK AO2 T01451002
2026-04-11 23:55:00,METAR KHSP 112355Z AUTO 25008KT 10SM CLR 15/M01 A3035 RMK AO2 T01481006 10191 20148
2026-04-11 23:35:00,METAR KHSP 112335Z AUTO 26009KT 10SM CLR 16/M01 A3034 RMK AO2 T01591012
2026-04-11 23:15:00,METAR KHSP 112315Z AUTO 25007KT 10SM CLR 17/M02 A3034 RMK AO2 T01671025
2026-04-11 22:55:00,METAR KHSP 112255Z AUTO 27008KT 10SM CLR 17/M04 A3034 RMK AO2 T01741036
2026-04-11 22:35:00,METAR KHSP 112235Z AUTO 26008KT 10SM CLR 18/M03 A3033 RMK AO2 T01751033
2026-04-11 22:15:00,METAR KHSP 112215Z AUTO 24008KT 10SM CLR 18/M03 A3032 RMK AO2 T01821035
2026-04-11 21:55:00,METAR KHSP 112155Z AUTO 24011G14KT 10SM CLR 19/M03 A3032 RMK AO2 T01851027
2026-04-11 21:35:00,METAR KHSP 112135Z AUTO 31008KT 10SM CLR 19/M02 A3032 RMK AO2 T01861022
2026-04-11 21:15:00,METAR KHSP 112115Z AUTO 25006G14KT 10SM CLR 19/M02 A3032 RMK AO2 T01861019
2026-04-11 20:55:00,METAR KHSP 112055Z AUTO 28007KT 10SM CLR 19/M01 A3032 RMK AO2 T01861014
2026-04-11 20:35:00,METAR KHSP 112035Z AUTO 27007G16KT 10SM CLR 19/00 A3032 RMK AO2 T01910003
2026-04-11 20:15:00,METAR KHSP 112015Z AUTO 28008KT 10SM CLR 19/01 A3032 RMK AO2 T01890014
2026-04-11 19:55:00,METAR KHSP 111955Z AUTO 26013G17KT 10SM CLR 19/02 A3032 RMK AO2 T01860024
2026-04-11 19:35:00,METAR KHSP 111935Z AUTO 26006G17KT 230V320 10SM CLR 19/03 A3032 RMK AO2 T01860026
2026-04-11 19:15:00,METAR KHSP 111915Z AUTO 27011G17KT 10SM CLR 19/04 A3032 RMK AO2 T01900039
2026-04-11 18:55:00,METAR KHSP 111855Z AUTO 24011G17KT 10SM CLR 18/04 A3033 RMK AO2 T01830038
2026-04-11 18:35:00,METAR KHSP 111835Z AUTO 27013G16KT 10SM SCT050 19/05 A3033 RMK AO2 T01850046
2026-04-11 18:15:00,METAR KHSP 111815Z AUTO 26014G17KT 10SM CLR 18/05 A3033 RMK AO2 T01800047
2026-04-11 17:55:00,METAR KHSP 111755Z AUTO 26009G15KT 10SM SCT048 18/05 A3033 RMK AO2 T01790048 10187 20112
2026-04-11 17:35:00,METAR KHSP 111735Z AUTO 28009G17KT 10SM SCT048 18/05 A3034 RMK AO2 T01810052
2026-04-11 17:15:00,METAR KHSP 111715Z AUTO 26012G21KT 10SM CLR 18/04 A3033 RMK AO2 T01760041
2026-04-11 16:55:00,METAR KHSP 111655Z AUTO 28009G15KT 260V320 10SM SCT046 18/04 A3033 RMK AO2 T01790044
2026-04-11 16:35:00,METAR KHSP 111635Z AUTO 27004G16KT 10SM CLR 17/04 A3034 RMK AO2 T01700041
2026-04-11 16:15:00,METAR KHSP 111615Z AUTO 33009G18KT 10SM CLR 17/04 A3034 RMK AO2 T01670042
2026-04-11 15:55:00,METAR KHSP 111555Z AUTO 28012G17KT 10SM CLR 17/04 A3034 RMK AO2 T01690040
2026-04-11 15:35:00,METAR KHSP 111535Z AUTO 29012G19KT 10SM CLR 16/04 A3034 RMK AO2 T01610041
2026-04-11 15:15:00,METAR KHSP 111515Z AUTO 27010G16KT 10SM CLR 16/05 A3034 RMK AO2 T01610049
2026-04-11 14:55:00,METAR KHSP 111455Z AUTO 27013G19KT 10SM CLR 15/05 A3034 RMK AO2 T01540045
2026-04-11 14:35:00,METAR KHSP 111435Z AUTO 29009G17KT 10SM CLR 15/06 A3033 RMK AO2 T01500058
2026-04-11 14:15:00,METAR KHSP 111415Z AUTO 29009G18KT 10SM SCT019 SCT027 14/06 A3032 RMK AO2 T01420064
2026-04-11 13:55:00,METAR KHSP 111355Z AUTO 29012G16KT 10SM SCT021 BKN027 14/08 A3032 RMK AO2 T01350079
2026-04-11 13:35:00,METAR KHSP 111335Z AUTO 29011G15KT 10SM SCT018 SCT024 13/09 A3032 RMK AO2 T01330085
2026-04-11 13:15:00,METAR KHSP 111315Z AUTO 28008G17KT 10SM SCT018 SCT023 13/08 A3031 RMK AO2 T01280084
2026-04-11 12:55:00,METAR KHSP 111255Z AUTO 27011G14KT 10SM BKN016 BKN023 12/09 A3030 RMK AO2 T01220088
2026-04-11 12:35:00,METAR KHSP 111235Z AUTO 27008KT 10SM OVC016 12/09 A3030 RMK AO2 T01190090
2026-04-11 12:15:00,METAR KHSP 111215Z AUTO 28011KT 10SM BKN016 OVC021 11/09 A3030 RMK AO2 T01130087
2026-04-11 11:55:00,METAR KHSP 111155Z AUTO 28011G17KT 10SM OVC016 11/09 A3030 RMK AO2 T01120086 10140 20108
2026-04-11 11:35:00,METAR KHSP 111135Z AUTO 28011G14KT 10SM OVC014 11/09 A3028 RMK AO2 T01120086
2026-04-11 11:15:00,METAR KHSP 111115Z AUTO 28009KT 10SM OVC016 11/09 A3028 RMK AO2 T01110085
2026-04-11 10:55:00,METAR KHSP 111055Z AUTO 28008KT 10SM BKN016 11/08 A3027 RMK AO2 T01090082
2026-04-11 10:35:00,METAR KHSP 111035Z AUTO 27009G15KT 10SM SCT018 11/08 A3027 RMK AO2 T01100081
2026-04-11 10:15:00,METAR KHSP 111015Z AUTO 28009G14KT 10SM SCT020 11/08 A3027 RMK AO2 T01130081
2026-04-11 09:55:00,METAR KHSP 110955Z AUTO 27011G15KT 10SM CLR 12/08 A3026 RMK AO2 T01150079
2026-04-11 09:35:00,METAR KHSP 110935Z AUTO 28009G15KT 10SM CLR 12/08 A3026 RMK AO2 T01180077
2026-04-11 09:15:00,METAR KHSP 110915Z AUTO 28009KT 10SM CLR 12/08 A3025 RMK AO2 T01170076
2026-04-11 08:55:00,METAR KHSP 110855Z AUTO 29008KT 10SM SCT060 12/07 A3026 RMK AO2 T01200073
2026-04-11 08:35:00,METAR KHSP 110835Z AUTO 28008KT 10SM SCT060 12/07 A3026 RMK AO2 T01200065
2026-04-11 08:15:00,METAR KHSP 110815Z AUTO 30007KT 10SM CLR 12/06 A3026 RMK AO2 T01230057
2026-04-11 07:55:00,METAR KHSP 110755Z AUTO 29005KT 10SM CLR 12/05 A3026 RMK AO2 T01230050
2026-04-11 07:35:00,METAR KHSP 110735Z AUTO 29007KT 10SM CLR 13/05 A3026 RMK AO2 T01290049
2026-04-11 07:15:00,METAR KHSP 110715Z AUTO 29005KT 10SM CLR 13/05 A3025 RMK AO2 T01300045
2026-04-11 06:55:00,METAR KHSP 110655Z AUTO 29007KT 250V320 10SM SCT060 13/04 A3025 RMK AO2 T01330040
2026-04-11 06:35:00,METAR KHSP 110635Z AUTO 30006G14KT 10SM SCT060 SCT080 14/04 A3026 RMK AO2 T01360036
2026-04-11 06:15:00,METAR KHSP 110615Z AUTO 29011KT 10SM SCT080 14/02 A3026 RMK AO2 T01400024
2026-04-11 05:55:00,METAR KHSP 110555Z AUTO 28008KT 10SM SCT080 14/01 A3027 RMK AO2 T01380012 10174 20138
2026-04-11 05:35:00,METAR KHSP 110535Z AUTO 28008KT 240V310 10SM CLR 14/01 A3027 RMK AO2 T01420010
2026-04-11 05:15:00,METAR KHSP 110515Z AUTO 28006KT 10SM CLR 14/00 A3027 RMK AO2 T01440000
2026-04-11 04:55:00,METAR KHSP 110455Z AUTO 28010G14KT 10SM CLR 15/M01 A3027 RMK AO2 T01451008 402110055
2026-04-11 04:35:00,METAR KHSP 110435Z AUTO 27013G16KT 10SM CLR 15/M01 A3027 RMK AO2 T01491013
2026-04-11 04:15:00,METAR KHSP 110415Z AUTO 26010G15KT 10SM CLR 15/M03 A3027 RMK AO2 T01501035
2026-04-11 03:55:00,METAR KHSP 110355Z AUTO 26010KT 10SM CLR 15/M04 A3027 RMK AO2 T01511037
2026-04-11 03:35:00,METAR KHSP 110335Z AUTO 26011G17KT 10SM CLR 16/M04 A3027 RMK AO2 T01551042
2026-04-11 03:15:00,METAR KHSP 110315Z AUTO 26011G16KT 10SM CLR 16/M05 A3027 RMK AO2 T01571050
2026-04-11 02:55:00,METAR KHSP 110255Z AUTO 26011KT 10SM CLR 16/M05 A3028 RMK AO2 T01581053
2026-04-11 02:35:00,METAR KHSP 110235Z AUTO 26010G14KT 10SM CLR 16/M05 A3028 RMK AO2 T01581055
2026-04-11 02:15:00,METAR KHSP 110215Z AUTO 26009KT 10SM CLR 16/M05 A3028 RMK AO2 T01601053
2026-04-11 01:55:00,METAR KHSP 110155Z AUTO 26009KT 10SM CLR 16/M05 A3029 RMK AO2 T01571049
2026-04-11 01:35:00,METAR KHSP 110135Z AUTO 27009KT 10SM CLR 16/M05 A3029 RMK AO2 T01631046
2026-04-11 01:15:00,METAR KHSP 110115Z AUTO 26007KT 10SM CLR 16/M04 A3029 RMK AO2 T01641041
2026-04-11 00:55:00,METAR KHSP 110055Z AUTO 27006KT 10SM CLR 16/M04 A3028 RMK AO2 T01641037
2026-04-11 00:35:00,METAR KHSP 110035Z AUTO 25009KT 10SM CLR 17/M04 A3028 RMK AO2 T01661036
2026-04-11 00:15:00,METAR KHSP 110015Z AUTO 26011G14KT 10SM CLR 17/M03 A3028 RMK AO2 T01681032
2026-04-10 23:55:00,METAR KHSP 102355Z AUTO 25006G15KT 10SM CLR 18/M03 A3027 RMK AO2 T01771033 10211 20176
2026-04-10 23:35:00,METAR KHSP 102335Z AUTO 25010G18KT 10SM CLR 18/M03 A3027 RMK AO2 T01811031
2026-04-10 23:15:00,METAR KHSP 102315Z AUTO 25011KT 10SM CLR 19/M03 A3026 RMK AO2 T01861031
2026-04-10 22:55:00,METAR KHSP 102255Z AUTO 26011G18KT 10SM CLR 19/M03 A3026 RMK AO2 T01911035
2026-04-10 22:35:00,METAR KHSP 102235Z AUTO 25015G19KT 10SM CLR 20/M04 A3026 RMK AO2 T01981037
2026-04-10 22:15:00,METAR KHSP 102215Z AUTO 26011G17KT 10SM CLR 20/M04 A3026 RMK AO2 T02011038
2026-04-10 21:55:00,METAR KHSP 102155Z AUTO 26013G19KT 10SM CLR 21/M04 A3026 RMK AO2 T02051037
2026-04-10 21:35:00,METAR KHSP 102135Z AUTO 26011G19KT 10SM CLR 21/M04 A3026 RMK AO2 T02061038
2026-04-10 21:15:00,METAR KHSP 102115Z AUTO 29009G16KT 10SM CLR 21/M03 A3025 RMK AO2 T02071028
2026-04-10 20:55:00,METAR KHSP 102055Z AUTO 23012G20KT 10SM CLR 21/M02 A3026 RMK AO2 T02091023
2026-04-10 20:35:00,METAR KHSP 102035Z AUTO 25009KT 10SM CLR 21/M02 A3026 RMK AO2 T02061017
2026-04-10 20:15:00,METAR KHSP 102015Z AUTO 26013KT 10SM CLR 21/M01 A3027 RMK AO2 T02051015
2026-04-10 19:55:00,METAR KHSP 101955Z AUTO 26008G17KT 10SM CLR 20/M01 A3027 RMK AO2 T02021008
2026-04-10 19:35:00,METAR KHSP 101935Z AUTO 24006G16KT 10SM CLR 20/M01 A3028 RMK AO2 T02031011
2026-04-10 19:15:00,METAR KHSP 101915Z AUTO 23010G18KT 10SM CLR 20/00 A3029 RMK AO2 T02041005
2026-04-10 18:55:00,METAR KHSP 101855Z AUTO 29009G14KT 10SM CLR 20/M01 A3029 RMK AO2 T02021011
2026-04-10 18:35:00,METAR KHSP 101835Z AUTO 24012G18KT 10SM CLR 20/M01 A3031 RMK AO2 T02031010
2026-04-10 18:15:00,METAR KHSP 101815Z AUTO 22010G15KT 10SM CLR 20/M01 A3031 RMK AO2 T01971008
2026-04-10 17:55:00,METAR KHSP 101755Z AUTO 23009G17KT 10SM CLR 19/00 A3032 RMK AO2 T01940000 10195 20113
2026-04-10 17:35:00,METAR KHSP 101735Z AUTO 26007G15KT 5SM HZ CLR 19/00 A3034 RMK AO2 T01880002
2026-04-10 17:15:00,METAR KHSP 101715Z AUTO 25012G16KT 7SM CLR 18/00 A3034 RMK AO2 T01840004
2026-04-10 16:55:00,METAR KHSP 101655Z AUTO 25009G14KT 210V280 10SM CLR 18/01 A3035 RMK AO2 T01790005
2026-04-10 16:35:00,METAR KHSP 101635Z AUTO 28009KT 7SM CLR 17/00 A3036 RMK AO2 T01730004
2026-04-10 16:15:00,METAR KHSP 101615Z AUTO 28009G19KT 7SM CLR 17/00 A3037 RMK AO2 T01670004
2026-04-10 15:55:00,METAR KHSP 101555Z AUTO 27008KT 10SM CLR 16/00 A3037 RMK AO2 T01630003
2026-04-10 15:35:00,METAR KHSP 101535Z AUTO 27010KT 10SM CLR 16/00 A3038 RMK AO2 T01570000
2026-04-10 15:15:00,METAR KHSP 101515Z AUTO 28008KT 10SM CLR 15/M01 A3038 RMK AO2 T01501007
2026-04-10 14:55:00,METAR KHSP 101455Z AUTO 28011KT 10SM CLR 15/M01 A3038 RMK AO2 T01471010
2026-04-10 14:35:00,METAR KHSP 101435Z AUTO 27010KT 10SM CLR 14/M02 A3038 RMK AO2 T01431018
2026-04-10 14:15:00,METAR KHSP 101415Z AUTO 26009KT 10SM CLR 14/M02 A3038 RMK AO2 T01391020
2026-04-10 13:55:00,METAR KHSP 101355Z AUTO 27010KT 10SM CLR 14/M02 A3038 RMK AO2 T01361023
2026-04-10 13:35:00,METAR KHSP 101335Z AUTO 26009KT 10SM CLR 13/M02 A3037 RMK AO2 T01331025
2026-04-10 13:15:00,METAR KHSP 101315Z AUTO 26008KT 10SM CLR 13/M02 A3038 RMK AO2 T01311024
2026-04-10 12:55:00,METAR KHSP 101255Z AUTO 25009KT 10SM CLR 13/M02 A3038 RMK AO2 T01271025
2026-04-10 12:35:00,METAR KHSP 101235Z AUTO 26009KT 10SM CLR 12/M03 A3038 RMK AO2 T01221031
2026-04-10 12:15:00,METAR KHSP 101215Z AUTO 26009KT 10SM CLR 12/M03 A3038 RMK AO2 T01151032
2026-04-10 11:55:00,METAR KHSP 101155Z AUTO 26009KT 10SM CLR 11/M03 A3038 RMK AO2 T01121034 10112 20055
2026-04-10 11:35:00,METAR KHSP 101135Z AUTO 26009KT 10SM CLR 10/M03 A3038 RMK AO2 T01021035
2026-04-10 11:15:00,METAR KHSP 101115Z AUTO 25010KT 10SM CLR 09/M04 A3038 RMK AO2 T00911038
2026-04-10 10:55:00,METAR KHSP 101055Z AUTO 25010KT 10SM CLR 09/M04 A3037 RMK AO2 T00861040
2026-04-10 10:35:00,METAR KHSP 101035Z AUTO 25013KT 10SM CLR 09/M04 A3036 RMK AO2 T00871040
2026-04-10 10:15:00,METAR KHSP 101015Z AUTO 25011KT 10SM CLR 09/M04 A3036 RMK AO2 T00881038
2026-04-10 09:55:00,METAR KHSP 100955Z AUTO 24009KT 10SM CLR 08/M02 A3035 RMK AO2 T00841021
2026-04-10 09:35:00,METAR KHSP 100935Z AUTO 24009KT 10SM CLR 07/M03 A3034 RMK AO2 T00661031
2026-04-10 09:15:00,METAR KHSP 100915Z AUTO 26006KT 10SM CLR 09/M05 A3034 RMK AO2 T00891046
2026-04-10 08:55:00,METAR KHSP 100855Z AUTO 23005KT 10SM CLR 10/M03 A3034 RMK AO2 T00981029
2026-04-10 08:35:00,METAR KHSP 100835Z AUTO 22006KT 10SM CLR 10/M03 A3034 RMK AO2 T01041031
2026-04-10 08:15:00,METAR KHSP 100815Z AUTO 23004KT 10SM CLR 09/M05 A3034 RMK AO2 T00901050
2026-04-10 07:55:00,METAR KHSP 100755Z AUTO 23004KT 10SM CLR 10/M03 A3034 RMK AO2 T00991029
2026-04-10 07:35:00,METAR KHSP 100735Z AUTO 21007KT 10SM CLR 10/M03 A3034 RMK AO2 T01001028
2026-04-10 07:15:00,METAR KHSP 100715Z AUTO 23008KT 10SM CLR 07/M04 A3034 RMK AO2 T00711040
2026-04-10 06:55:00,METAR KHSP 100655Z AUTO 23010KT 10SM CLR 08/M04 A3035 RMK AO2 T00821036
2026-04-10 06:35:00,METAR KHSP 100635Z AUTO 24009KT 10SM CLR 07/M04 A3036 RMK AO2 T00651045
2026-04-10 06:15:00,METAR KHSP 100615Z AUTO 22007KT 10SM CLR 08/M04 A3036 RMK AO2 T00761045
2026-04-10 05:55:00,METAR KHSP 100555Z AUTO 20005KT 10SM CLR 10/M05 A3037 RMK AO2 T00951048 10102 20085
2026-04-10 05:35:00,METAR KHSP 100535Z AUTO 21005KT 10SM CLR 10/M05 A3037 RMK AO2 T00961047
2026-04-10 04:55:00,METAR KHSP 100455Z AUTO 19008KT 10SM CLR 09/M05 A3038 RMK AO2 T00871048 401440008
2026-04-10 04:35:00,METAR KHSP 100435Z AUTO 21006KT 10SM CLR 09/M05 A3039 RMK AO2 T00911046
2026-04-10 04:15:00,METAR KHSP 100415Z AUTO 20007KT 10SM CLR 09/M05 A3040 RMK AO2 T00901055
2026-04-10 03:55:00,METAR KHSP 100355Z AUTO 19009KT 10SM CLR 09/M05 A3039 RMK AO2 T00901053
2026-04-10 03:35:00,METAR KHSP 100335Z AUTO 19009KT 10SM CLR 09/M05 A3039 RMK AO2 T00861053
2026-04-10 03:15:00,METAR KHSP 100315Z AUTO 19007KT 10SM CLR 09/M05 A3040 RMK AO2 T00871047
2026-04-10 02:55:00,METAR KHSP 100255Z AUTO 18010KT 10SM CLR 09/M04 A3040 RMK AO2 T00901043
2026-04-10 02:35:00,METAR KHSP 100235Z AUTO 19006KT 10SM CLR 09/M04 A3040 RMK AO2 T00871041
2026-04-10 02:15:00,METAR KHSP 100215Z AUTO 18004KT 10SM CLR 09/M04 A3040 RMK AO2 T00861045
2026-04-10 01:55:00,METAR KHSP 100155Z AUTO 17006KT 10SM CLR 09/M04 A3040 RMK AO2 T00861045
2026-04-10 01:35:00,METAR KHSP 100135Z AUTO 16006KT 10SM CLR 09/M03 A3040 RMK AO2 T00941032
2026-04-10 01:15:00,METAR KHSP 100115Z AUTO 16007KT 10SM CLR 09/M03 A3040 RMK AO2 T00921030
2026-04-10 00:55:00,METAR KHSP 100055Z AUTO 16007KT 10SM CLR 09/M03 A3039 RMK AO2 T00941027
2026-04-10 00:35:00,METAR KHSP 100035Z AUTO 17007KT 10SM CLR 10/M02 A3039 RMK AO2 T00971025
2026-04-10 00:15:00,METAR KHSP 100015Z AUTO 17007KT 10SM CLR 10/M02 A3039 RMK AO2 T01001021
2026-04-09 23:55:00,METAR KHSP 092355Z AUTO 17007KT 10SM CLR 10/M02 A3039 RMK AO2 T01031017 10144 20103
2026-04-09 23:35:00,METAR KHSP 092335Z AUTO 17007KT 10SM CLR 11/M02 A3038 RMK AO2 T01101016
2026-04-09 23:15:00,METAR KHSP 092315Z AUTO 16007KT 10SM CLR 12/M02 A3039 RMK AO2 T01171018
2026-04-09 22:55:00,METAR KHSP 092255Z AUTO 16006KT 10SM CLR 12/M02 A3039 RMK AO2 T01221020
2026-04-09 22:35:00,METAR KHSP 092235Z AUTO 15008KT 10SM CLR 13/M02 A3039 RMK AO2 T01281020
2026-04-09 22:15:00,METAR KHSP 092215Z AUTO 16008KT 10SM CLR 13/M02 A3039 RMK AO2 T01331020
2026-04-09 21:55:00,METAR KHSP 092155Z AUTO 16008KT 10SM CLR 13/M02 A3039 RMK AO2 T01341020
2026-04-09 21:35:00,METAR KHSP 092135Z AUTO 16006KT 10SM CLR 14/M02 A3039 RMK AO2 T01391019
2026-04-09 21:15:00,METAR KHSP 092115Z AUTO 15009KT 10SM CLR 14/M02 A3039 RMK AO2 T01411020
2026-04-09 20:55:00,METAR KHSP 092055Z AUTO 14007KT 10SM CLR 14/M02 A3039 RMK AO2 T01401021
2026-04-09 20:35:00,METAR KHSP 092035Z AUTO 14007KT 10SM CLR 14/M02 A3040 RMK AO2 T01421018
2026-04-09 20:15:00,METAR KHSP 092015Z AUTO 16007KT 10SM CLR 14/M02 A3040 RMK AO2 T01391024
2026-04-09 19:55:00,METAR KHSP 091955Z AUTO 15007KT 130V190 10SM CLR 14/M03 A3040 RMK AO2 T01361026
2026-04-09 19:35:00,METAR KHSP 091935Z AUTO 16006KT 10SM CLR 13/M02 A3041 RMK AO2 T01341024
2026-04-09 19:15:00,METAR KHSP 091915Z AUTO 13007KT 110V170 10SM CLR 13/M02 A3041 RMK AO2 T01331019
2026-04-09 18:55:00,METAR KHSP 091855Z AUTO 15005KT 10SM CLR 13/M02 A3041 RMK AO2 T01321017
2026-04-09 18:35:00,METAR KHSP 091835Z AUTO 15005KT 10SM CLR 13/M02 A3041 RMK AO2 T01311018
2026-04-09 18:15:00,METAR KHSP 091815Z AUTO 18004KT 10SM CLR 13/M02 A3042 RMK AO2 T01291016
2026-04-09 17:55:00,METAR KHSP 091755Z AUTO 16004KT 10SM CLR 12/M02 A3042 RMK AO2 T01191018 10119 20035
2026-04-09 17:35:00,METAR KHSP 091735Z AUTO 09005KT 10SM CLR 11/M02 A3042 RMK AO2 T01141023
2026-04-09 17:15:00,METAR KHSP 091715Z AUTO 14005KT 10SM CLR 11/M02 A3043 RMK AO2 T01111021
2026-04-09 16:55:00,METAR KHSP 091655Z AUTO 12006KT 10SM CLR 11/M02 A3044 RMK AO2 T01081022
2026-04-09 16:35:00,METAR KHSP 091635Z AUTO 12003KT 10SM CLR 10/M03 A3044 RMK AO2 T00981027
2026-04-09 16:15:00,METAR KHSP 091615Z AUTO 00000KT 10SM CLR 10/M03 A3045 RMK AO2 T01011026
2026-04-09 15:55:00,METAR KHSP 091555Z AUTO 10005KT 10SM CLR 09/M03 A3045 RMK AO2 T00931027
2026-04-09 15:35:00,METAR KHSP 091535Z AUTO 12004KT 10SM CLR 09/M03 A3045 RMK AO2 T00891026
2026-04-09 15:15:00,METAR KHSP 091515Z AUTO 12003KT 10SM CLR 08/M03 A3046 RMK AO2 T00801030
2026-04-09 14:55:00,METAR KHSP 091455Z AUTO 19003KT 10SM CLR 08/M02 A3045 RMK AO2 T00801024
2026-04-09 14:35:00,METAR KHSP 091435Z AUTO 15003KT 10SM CLR 07/M03 A3045 RMK AO2 T00721028
2026-04-09 14:15:00,METAR KHSP 091415Z AUTO 00000KT 10SM CLR 07/M03 A3045 RMK AO2 T00671031
2026-04-09 13:55:00,METAR KHSP 091355Z AUTO 13003KT 10SM CLR 06/M03 A3045 RMK AO2 T00571030
2026-04-09 13:35:00,METAR KHSP 091335Z AUTO 00000KT 10SM CLR 07/M04 A3045 RMK AO2 T00651037
2026-04-09 13:15:00,METAR KHSP 091315Z AUTO 21005KT 10SM CLR 07/M05 A3045 RMK AO2 T00651055
2026-04-09 12:55:00,METAR KHSP 091255Z AUTO 22005KT 10SM CLR 06/M06 A3045 RMK AO2 T00571062
2026-04-09 12:35:00,METAR KHSP 091235Z AUTO 21006KT 10SM CLR 05/M07 A3044 RMK AO2 T00531067
2026-04-09 12:15:00,METAR KHSP 091215Z AUTO 24006KT 10SM CLR 04/M06 A3044 RMK AO2 T00441062
2026-04-09 11:55:00,METAR KHSP 091155Z AUTO 22005KT 10SM CLR 03/M06 A3043 RMK AO2 T00331064 10033 20008
2026-04-09 11:35:00,METAR KHSP 091135Z AUTO 22006KT 10SM CLR 01/M05 A3043 RMK AO2 T00111054
2026-04-09 11:15:00,METAR KHSP 091115Z AUTO 20006KT 10SM CLR 02/M06 A3043 RMK AO2 T00171058
2026-04-09 10:55:00,METAR KHSP 091055Z AUTO 19007KT 10SM CLR 01/M05 A3042 RMK AO2 T00101050
2026-04-09 10:35:00,METAR KHSP 091035Z AUTO 19007KT 10SM CLR 01/M05 A3042 RMK AO2 T00101049
2026-04-09 10:15:00,METAR KHSP 091015Z AUTO 18009KT 10SM CLR 01/M06 A3041 RMK AO2 T00131056
2026-04-09 09:55:00,METAR KHSP 090955Z AUTO 19008KT 10SM CLR 01/M06 A3041 RMK AO2 T00131058
2026-04-09 09:35:00,METAR KHSP 090935Z AUTO 19009KT 10SM CLR 01/M06 A3041 RMK AO2 T00131065
2026-04-09 09:15:00,METAR KHSP 090915Z AUTO 19008KT 10SM CLR 01/M06 A3041 RMK AO2 T00121062
2026-04-09 08:55:00,METAR KHSP 090855Z AUTO 19005KT 10SM CLR 01/M07 A3040 RMK AO2 T00121066
2026-04-09 08:35:00,METAR KHSP 090835Z AUTO 18006KT 10SM CLR 01/M08 A3040 RMK AO2 T00121080
2026-04-09 08:15:00,METAR KHSP 090815Z AUTO 18006KT 10SM CLR 01/M08 A3040 RMK AO2 T00131082
2026-04-09 07:55:00,METAR KHSP 090755Z AUTO 16004KT 10SM CLR 02/M08 A3040 RMK AO2 T00151083
2026-04-09 07:35:00,METAR KHSP 090735Z AUTO 16006KT 10SM CLR 02/M08 A3040 RMK AO2 T00171085
2026-04-09 07:15:00,METAR KHSP 090715Z AUTO 16006KT 10SM CLR 02/M08 A3040 RMK AO2 T00201085
2026-04-09 06:55:00,METAR KHSP 090655Z AUTO 16006KT 10SM CLR 02/M09 A3040 RMK AO2 T00221086
2026-04-09 06:35:00,METAR KHSP 090635Z AUTO 17007KT 10SM CLR 03/M08 A3041 RMK AO2 T00251085
2026-04-09 06:15:00,METAR KHSP 090615Z AUTO 17007KT 10SM CLR 02/M08 A3041 RMK AO2 T00231083
2026-04-09 05:55:00,METAR KHSP 090555Z AUTO 17006KT 10SM CLR 03/M08 A3042 RMK AO2 T00251080 10055 20025
2026-04-09 05:35:00,METAR KHSP 090535Z AUTO 16006KT 10SM CLR 03/M08 A3043 RMK AO2 T00271080
2026-04-09 05:15:00,METAR KHSP 090515Z AUTO 17007KT 10SM CLR 03/M08 A3043 RMK AO2 T00261078
2026-04-09 04:55:00,METAR KHSP 090455Z AUTO 16007KT 10SM CLR 03/M08 A3043 RMK AO2 T00271077 400911036
2026-04-09 04:35:00,METAR KHSP 090435Z AUTO 16006KT 10SM CLR 03/M08 A3044 RMK AO2 T00271076
2026-04-09 04:15:00,METAR KHSP 090415Z AUTO 16006KT 10SM CLR 03/M08 A3044 RMK AO2 T00271077
2026-04-09 03:55:00,METAR KHSP 090355Z AUTO 15006KT 10SM CLR 03/M08 A3044 RMK AO2 T00301080
2026-04-09 03:35:00,METAR KHSP 090335Z AUTO 15006KT 10SM CLR 03/M08 A3044 RMK AO2 T00301079
2026-04-09 03:15:00,METAR KHSP 090315Z AUTO 14005KT 10SM CLR 03/M08 A3045 RMK AO2 T00321078
2026-04-09 02:55:00,METAR KHSP 090255Z AUTO 14005KT 10SM CLR 03/M08 A3045 RMK AO2 T00341078
2026-04-09 02:35:00,METAR KHSP 090235Z AUTO 15005KT 10SM CLR 04/M08 A3044 RMK AO2 T00371078
2026-04-09 02:15:00,METAR KHSP 090215Z AUTO 14007KT 10SM CLR 04/M08 A3045 RMK AO2 T00381080
2026-04-09 01:55:00,METAR KHSP 090155Z AUTO 14006KT 10SM CLR 04/M08 A3045 RMK AO2 T00401080
2026-04-09 01:35:00,METAR KHSP 090135Z AUTO 14006KT 10SM CLR 04/M08 A3044 RMK AO2 T00421079
2026-04-09 01:15:00,METAR KHSP 090115Z AUTO 14007KT 10SM CLR 05/M08 A3043 RMK AO2 T00451078
2026-04-09 00:55:00,METAR KHSP 090055Z AUTO 15010KT 10SM CLR 05/M08 A3043 RMK AO2 T00471079
2026-04-09 00:35:00,METAR KHSP 090035Z AUTO 14007KT 110V170 10SM CLR 05/M07 A3042 RMK AO2 T00501075
2026-04-09 00:15:00,METAR KHSP 090015Z AUTO 13006KT 10SM CLR 05/M07 A3041 RMK AO2 T00511073
2026-04-08 23:55:00,METAR KHSP 082355Z AUTO 13008KT 100V160 10SM CLR 06/M07 A3041 RMK AO2 T00561073 10091 20056
2026-04-08 23:35:00,METAR KHSP 082335Z AUTO 14006KT 10SM CLR 06/M07 A3041 RMK AO2 T00611075
2026-04-08 23:15:00,METAR KHSP 082315Z AUTO 15006KT 10SM CLR 07/M07 A3041 RMK AO2 T00661073
2026-04-08 22:55:00,METAR KHSP 082255Z AUTO 15007KT 10SM CLR 07/M07 A3041 RMK AO2 T00731073
2026-04-08 22:35:00,METAR KHSP 082235Z AUTO 15005KT 10SM CLR 08/M07 A3041 RMK AO2 T00771073
2026-04-08 22:15:00,METAR KHSP 082215Z AUTO 16008KT 10SM CLR 08/M07 A3041 RMK AO2 T00831071
2026-04-08 21:55:00,METAR KHSP 082155Z AUTO 14007KT 110V170 10SM CLR 09/M07 A3041 RMK AO2 T00881069
2026-04-08 21:35:00,METAR KHSP 082135Z AUTO 12007KT 10SM CLR 09/M07 A3041 RMK AO2 T00851074
2026-04-08 21:15:00,METAR KHSP 082115Z AUTO 10005KT 10SM CLR 09/M08 A3041 RMK AO2 T00861079
2026-04-08 20:55:00,METAR KHSP 082055Z AUTO 15007KT 10SM CLR 09/M08 A3041 RMK AO2 T00861079
2026-04-08 20:35:00,METAR KHSP 082035Z AUTO 14007KT 10SM CLR 09/M08 A3041 RMK AO2 T00881083
2026-04-08 20:15:00,METAR KHSP 082015Z AUTO 13006KT 10SM CLR 09/M08 A3041 RMK AO2 T00871085
2026-04-08 19:55:00,METAR KHSP 081955Z AUTO 17007KT 10SM CLR 08/M09 A3041 RMK AO2 T00841089
2026-04-08 19:35:00,METAR KHSP 081935Z AUTO 16006KT 10SM CLR 08/M08 A3041 RMK AO2 T00841082
2026-04-08 19:15:00,METAR KHSP 081915Z AUTO 12007KT 10SM CLR 08/M08 A3042 RMK AO2 T00811080
2026-04-08 18:55:00,METAR KHSP 081855Z AUTO 14007KT 10SM CLR 08/M08 A3042 RMK AO2 T00761085
2026-04-08 18:35:00,METAR KHSP 081835Z AUTO 12006KT 10SM CLR 07/M08 A3042 RMK AO2 T00731084
2026-04-08 18:15:00,METAR KHSP 081815Z AUTO 14007KT 10SM CLR 07/M08 A3042 RMK AO2 T00681085
2026-04-08 17:55:00,METAR KHSP 081755Z AUTO 15005KT 10SM CLR 06/M09 A3042 RMK AO2 T00601089 10063 21022
2026-04-08 17:35:00,METAR KHSP 081735Z AUTO 14007KT 100V180 10SM CLR 06/M09 A3043 RMK AO2 T00561091
2026-04-08 17:15:00,METAR KHSP 081715Z AUTO 12007KT 10SM CLR 05/M09 A3043 RMK AO2 T00511091
2026-04-08 16:55:00,METAR KHSP 081655Z AUTO 13005KT 10SM CLR 04/M09 A3043 RMK AO2 T00441094
2026-04-08 16:35:00,METAR KHSP 081635Z AUTO 11006KT 10SM CLR 04/M09 A3044 RMK AO2 T00431095
2026-04-08 16:15:00,METAR KHSP 081615Z AUTO 13008KT 10SM CLR 04/M10 A3045 RMK AO2 T00391097
2026-04-08 15:55:00,METAR KHSP 081555Z AUTO 14005KT 10SM CLR 03/M10 A3045 RMK AO2 T00321099
2026-04-08 15:35:00,METAR KHSP 081535Z AUTO 14006KT 10SM CLR 02/M11 A3045 RMK AO2 T00211110
2026-04-08 15:15:00,METAR KHSP 081515Z AUTO 09007KT 10SM CLR 02/M10 A3045 RMK AO2 T00231103
2026-04-08 14:55:00,METAR KHSP 081455Z AUTO 09009G15KT 10SM CLR 02/M10 A3044 RMK AO2 T00181104
2026-04-08 14:35:00,METAR KHSP 081435Z AUTO 11007KT 080V140 10SM CLR 01/M11 A3043 RMK AO2 T00051109
2026-04-08 14:15:00,METAR KHSP 081415Z AUTO 09009KT 10SM CLR 01/M11 A3043 RMK AO2 T00051110
2026-04-08 13:55:00,METAR KHSP 081355Z AUTO 10007KT 10SM CLR 00/M11 A3043 RMK AO2 T00001113
2026-04-08 13:35:00,METAR KHSP 081335Z AUTO 08008KT 10SM CLR 00/M11 A3042 RMK AO2 T10031115
2026-04-08 13:15:00,METAR KHSP 081315Z AUTO 08008KT 10SM CLR M01/M12 A3042 RMK AO2 T10101117
2026-04-08 12:55:00,METAR KHSP 081255Z AUTO 08007KT 10SM CLR M01/M11 A3042 RMK AO2 T10101115
2026-04-08 12:35:00,METAR KHSP 081235Z AUTO 08008KT 10SM CLR M01/M12 A3041 RMK AO2 T10131118
2026-04-08 12:15:00,METAR KHSP 081215Z AUTO 08008KT 10SM CLR M02/M12 A3041 RMK AO2 T10201121
2026-04-08 11:55:00,METAR KHSP 081155Z AUTO 09007KT 10SM CLR M02/M12 A3040 RMK AO2 T10221122 11002 21036
2026-04-08 11:35:00,METAR KHSP 081135Z AUTO 08009KT 10SM CLR M02/M12 A3039 RMK AO2 T10251123
2026-04-08 11:15:00,METAR KHSP 081115Z AUTO 08008KT 10SM CLR M03/M12 A3039 RMK AO2 T10301125
2026-04-08 10:55:00,METAR KHSP 081055Z AUTO 08007KT 10SM CLR M04/M12 A3038 RMK AO2 T10361125
2026-04-08 10:35:00,METAR KHSP 081035Z AUTO 09007KT 10SM CLR M03/M12 A3037 RMK AO2 T10351125
2026-04-08 10:15:00,METAR KHSP 081015Z AUTO 08006KT 10SM CLR M03/M12 A3036 RMK AO2 T10351125
2026-04-08 09:55:00,METAR KHSP 080955Z AUTO 09006KT 10SM CLR M03/M13 A3036 RMK AO2 T10301127
2026-04-08 09:35:00,METAR KHSP 080935Z AUTO 07007KT 10SM CLR M03/M13 A3035 RMK AO2 T10271128
2026-04-08 09:15:00,METAR KHSP 080915Z AUTO 07007KT 10SM CLR M02/M13 A3035 RMK AO2 T10251130
2026-04-08 08:55:00,METAR KHSP 080855Z AUTO 07007KT 10SM CLR M02/M13 A3035 RMK AO2 T10201130
2026-04-08 08:35:00,METAR KHSP 080835Z AUTO 06008KT 10SM CLR M02/M13 A3035 RMK AO2 T10201129
2026-04-08 08:15:00,METAR KHSP 080815Z AUTO 07008KT 10SM CLR M02/M13 A3034 RMK AO2 T10181130
2026-04-08 07:55:00,METAR KHSP 080755Z AUTO 07005KT 10SM CLR M02/M13 A3034 RMK AO2 T10161130
2026-04-08 07:35:00,METAR KHSP 080735Z AUTO 07007KT 10SM CLR M01/M13 A3033 RMK AO2 T10151130
2026-04-08 07:15:00,METAR KHSP 080715Z AUTO 07008KT 10SM CLR M01/M13 A3033 RMK AO2 T10121130
2026-04-08 06:55:00,METAR KHSP 080655Z AUTO 07007KT 10SM CLR M01/M13 A3033 RMK AO2 T10101131
2026-04-08 06:35:00,METAR KHSP 080635Z AUTO 07007KT 10SM CLR M01/M13 A3033 RMK AO2 T10071132
2026-04-08 06:15:00,METAR KHSP 080615Z AUTO 07008KT 10SM CLR 00/M13 A3033 RMK AO2 T10031134
2026-04-08 05:55:00,METAR KHSP 080555Z AUTO 06008KT 10SM CLR 00/M13 A3033 RMK AO2 T10031128 10052 21004
2026-04-08 05:35:00,METAR KHSP 080535Z AUTO 07007KT 10SM CLR 00/M13 A3033 RMK AO2 T10011130
2026-04-08 05:15:00,METAR KHSP 080515Z AUTO 07007KT 10SM CLR 00/M13 A3034 RMK AO2 T00001130
2026-04-08 04:55:00,METAR KHSP 080455Z AUTO 08007KT 10SM CLR 00/M13 A3034 RMK AO2 T00001130 400870000
2026-04-08 04:35:00,METAR KHSP 080435Z AUTO 08009KT 10SM CLR 00/M13 A3035 RMK AO2 T00021130
2026-04-08 04:15:00,METAR KHSP 080415Z AUTO 08006KT 10SM CLR 01/M13 A3034 RMK AO2 T00051130
2026-04-08 03:55:00,METAR KHSP 080355Z AUTO 07006KT 10SM CLR 01/M14 A3034 RMK AO2 T00101136
2026-04-08 03:35:00,METAR KHSP 080335Z AUTO 07005KT 10SM CLR 02/M14 A3034 RMK AO2 T00181138
2026-04-08 03:15:00,METAR KHSP 080315Z AUTO 07006KT 10SM CLR 02/M15 A3033 RMK AO2 T00241147
2026-04-08 02:55:00,METAR KHSP 080255Z AUTO 08003KT 10SM CLR 03/M16 A3033 RMK AO2 T00251161
2026-04-08 02:35:00,METAR KHSP 080235Z AUTO 03004KT 10SM CLR 03/M16 A3033 RMK AO2 T00281165
2026-04-08 02:15:00,METAR KHSP 080215Z AUTO 35004KT 10SM CLR 03/M17 A3033 RMK AO2 T00321166
2026-04-08 01:55:00,METAR KHSP 080155Z AUTO 31005KT 10SM CLR 03/M16 A3032 RMK AO2 T00341160
2026-04-08 01:35:00,METAR KHSP 080135Z AUTO 31006KT 10SM CLR 04/M15 A3031 RMK AO2 T00351155
2026-04-08 01:15:00,METAR KHSP 080115Z AUTO 30005KT 10SM CLR 04/M13 A3031 RMK AO2 T00381128
2026-04-08 00:55:00,METAR KHSP 080055Z AUTO 31006KT 10SM CLR 04/M12 A3030 RMK AO2 T00421120
2026-04-08 00:35:00,METAR KHSP 080035Z AUTO 31006KT 10SM CLR 04/M12 A3029 RMK AO2 T00431120
2026-04-08 00:15:00,METAR KHSP 080015Z AUTO 31005KT 10SM CLR 05/M12 A3028 RMK AO2 T00471121
2026-04-07 23:55:00,METAR KHSP 072355Z AUTO 33006KT 10SM CLR 05/M12 A3028 RMK AO2 T00531119 10087 20053
2026-04-07 23:35:00,METAR KHSP 072335Z AUTO 32004KT 10SM CLR 06/M11 A3028 RMK AO2 T00591114
2026-04-07 23:15:00,METAR KHSP 072315Z AUTO 35005KT 10SM CLR 07/M12 A3028 RMK AO2 T00651119
2026-04-07 22:55:00,METAR KHSP 072255Z AUTO 36006KT 10SM CLR 07/M12 A3027 RMK AO2 T00701116
2026-04-07 22:35:00,METAR KHSP 072235Z AUTO 34005KT 10SM CLR 07/M12 A3027 RMK AO2 T00731118
2026-04-07 22:15:00,METAR KHSP 072215Z AUTO 35006G14KT 10SM CLR 08/M12 A3026 RMK AO2 T00761121
2026-04-07 21:55:00,METAR KHSP 072155Z AUTO 31006KT 10SM CLR 08/M12 A3026 RMK AO2 T00781118
2026-04-07 21:35:00,METAR KHSP 072135Z AUTO 34006KT 10SM CLR 08/M11 A3026 RMK AO2 T00801114
2026-04-07 21:15:00,METAR KHSP 072115Z AUTO 33011G15KT 10SM CLR 08/M11 A3025 RMK AO2 T00811113
2026-04-07 20:55:00,METAR KHSP 072055Z AUTO 31010G14KT 10SM CLR 08/M11 A3025 RMK AO2 T00811107
2026-04-07 20:35:00,METAR KHSP 072035Z AUTO 35006G14KT 10SM CLR 08/M10 A3025 RMK AO2 T00831104
2026-04-07 20:15:00,METAR KHSP 072015Z AUTO 28007G15KT 10SM CLR 08/M10 A3024 RMK AO2 T00831100
2026-04-07 19:55:00,METAR KHSP 071955Z AUTO 33008G19KT 10SM CLR 08/M10 A3024 RMK AO2 T00801103
2026-04-07 19:35:00,METAR KHSP 071935Z AUTO 33012G18KT 310V020 10SM CLR 08/M11 A3024 RMK AO2 T00801111
2026-04-07 19:15:00,METAR KHSP 071915Z AUTO 34011G15KT 10SM CLR 08/M10 A3024 RMK AO2 T00811099
2026-04-07 18:55:00,METAR KHSP 071855Z AUTO 34012G20KT 10SM CLR 08/M10 A3025 RMK AO2 T00791101
2026-04-07 18:35:00,METAR KHSP 071835Z AUTO 30010G19KT 10SM CLR 08/M09 A3025 RMK AO2 T00751088
2026-04-07 18:15:00,METAR KHSP 071815Z AUTO 31010G19KT 10SM CLR 07/M09 A3025 RMK AO2 T00741086
2026-04-07 17:55:00,METAR KHSP 071755Z AUTO 33009G16KT 300V360 10SM CLR 08/M07 A3025 RMK AO2 T00761073 10076 20006
2026-04-07 17:35:00,METAR KHSP 071735Z AUTO 30014G20KT 270V010 10SM CLR 07/M07 A3025 RMK AO2 T00701074
2026-04-07 17:15:00,METAR KHSP 071715Z AUTO 34010G17KT 10SM CLR 07/M08 A3024 RMK AO2 T00691076
2026-04-07 16:55:00,METAR KHSP 071655Z AUTO 33009G15KT 310V010 10SM CLR 07/M07 A3025 RMK AO2 T00671069
2026-04-07 16:35:00,METAR KHSP 071635Z AUTO 33012G16KT 290V360 10SM CLR 07/M06 A3025 RMK AO2 T00651061
2026-04-07 16:15:00,METAR KHSP 071615Z AUTO 31012G18KT 10SM CLR 06/M07 A3025 RMK AO2 T00551066
2026-04-07 15:55:00,METAR KHSP 071555Z AUTO 29009G18KT 10SM CLR 06/M07 A3024 RMK AO2 T00571068
2026-04-07 15:35:00,METAR KHSP 071535Z AUTO 31012G20KT 280V360 10SM CLR 05/M07 A3024 RMK AO2 T00491074
2026-04-07 15:15:00,METAR KHSP 071515Z AUTO 30012G19KT 10SM CLR 05/M06 A3024 RMK AO2 T00451064
2026-04-07 14:55:00,METAR KHSP 071455Z AUTO 30010G19KT 250V330 10SM CLR 04/M06 A3023 RMK AO2 T00431062
2026-04-07 14:35:00,METAR KHSP 071435Z AUTO 30014G20KT 10SM CLR 04/M06 A3022 RMK AO2 T00371060
2026-04-07 14:15:00,METAR KHSP 071415Z AUTO 31014KT 10SM CLR 04/M05 A3022 RMK AO2 T00361055
2026-04-07 13:55:00,METAR KHSP 071355Z AUTO 29010G18KT 10SM CLR 03/M06 A3022 RMK AO2 T00291057
2026-04-07 13:35:00,METAR KHSP 071335Z AUTO 30010G21KT 10SM CLR 02/M06 A3021 RMK AO2 T00231058
2026-04-07 13:15:00,METAR KHSP 071315Z AUTO 30014G20KT 10SM CLR 02/M06 A3020 RMK AO2 T00181058
2026-04-07 12:55:00,METAR KHSP 071255Z AUTO 30015G22KT 10SM CLR 01/M05 A3019 RMK AO2 T00131055
2026-04-07 12:35:00,METAR KHSP 071235Z AUTO 29012G17KT 10SM CLR 01/M05 A3018 RMK AO2 T00111055
2026-04-07 12:15:00,METAR KHSP 071215Z AUTO 30013G23KT 10SM CLR 01/M05 A3018 RMK AO2 T00071053
2026-04-07 11:55:00,METAR KHSP 071155Z AUTO 30012G20KT 10SM CLR 01/M05 A3017 RMK AO2 T00061050 10055 20005
2026-04-07 11:35:00,METAR KHSP 071135Z AUTO 31013G22KT 270V330 10SM CLR 01/M05 A3015 RMK AO2 T00061048
2026-04-07 11:15:00,METAR KHSP 071115Z AUTO 31013G22KT 10SM CLR 01/M04 A3015 RMK AO2 T00051045
2026-04-07 10:55:00,METAR KHSP 071055Z AUTO 30010G24KT 260V320 10SM CLR 01/M04 A3014 RMK AO2 T00071040
2026-04-07 10:35:00,METAR KHSP 071035Z AUTO 30013G20KT 10SM CLR 01/M04 A3013 RMK AO2 T00101037
2026-04-07 10:15:00,METAR KHSP 071015Z AUTO 31010G21KT 10SM CLR 01/M03 A3012 RMK AO2 T00121033
2026-04-07 09:55:00,METAR KHSP 070955Z AUTO 30011G20KT 10SM CLR 02/M03 A3012 RMK AO2 T00151030
2026-04-07 09:35:00,METAR KHSP 070935Z AUTO 31010G23KT 10SM CLR 02/M03 A3012 RMK AO2 T00201030
2026-04-07 09:15:00,METAR KHSP 070915Z AUTO 31012G20KT 10SM CLR 02/M03 A3011 RMK AO2 T00221030
2026-04-07 08:55:00,METAR KHSP 070855Z AUTO 31011G20KT 280V340 10SM CLR 03/M03 A3011 RMK AO2 T00271032
2026-04-07 08:35:00,METAR KHSP 070835Z AUTO 29009G17KT 10SM CLR 03/M03 A3011 RMK AO2 T00301035
2026-04-07 08:15:00,METAR KHSP 070815Z AUTO 29011G21KT 10SM CLR 04/M03 A3010 RMK AO2 T00351035
2026-04-07 07:55:00,METAR KHSP 070755Z AUTO 29015G22KT 10SM CLR 04/M04 A3010 RMK AO2 T00381037
2026-04-07 07:35:00,METAR KHSP 070735Z AUTO 28016G23KT 10SM CLR 04/M04 A3009 RMK AO2 T00411038
2026-04-07 07:15:00,METAR KHSP 070715Z AUTO 29008G19KT 10SM CLR 05/M04 A3009 RMK AO2 T00451039
2026-04-07 06:55:00,METAR KHSP 070655Z AUTO 29010G23KT 10SM CLR 05/M04 A3009 RMK AO2 T00471039
2026-04-07 06:35:00,METAR KHSP 070635Z AUTO 29012G16KT 10SM CLR 05/M04 A3009 RMK AO2 T00501040
2026-04-07 06:15:00,METAR KHSP 070615Z AUTO 28011G17KT 10SM CLR 05/M04 A3010 RMK AO2 T00521040
2026-04-07 05:55:00,METAR KHSP 070555Z AUTO 28011G17KT 10SM CLR 06/M04 A3009 RMK AO2 T00551042 10086 20055
2026-04-07 05:35:00,METAR KHSP 070535Z AUTO 28012G18KT 260V320 10SM CLR 06/M04 A3010 RMK AO2 T00571040
2026-04-07 05:15:00,METAR KHSP 070515Z AUTO 28013G17KT 10SM CLR 06/M04 A3010 RMK AO2 T00591040
2026-04-07 04:55:00,METAR KHSP 070455Z AUTO 28012G18KT 10SM CLR 06/M04 A3010 RMK AO2 T00611037 401151011
2026-04-07 04:35:00,METAR KHSP 070435Z AUTO 29006KT 10SM CLR 07/M04 A3010 RMK AO2 T00651036
2026-04-07 04:15:00,METAR KHSP 070415Z AUTO 28011G18KT 10SM CLR 07/M03 A3010 RMK AO2 T00661034
2026-04-07 03:55:00,METAR KHSP 070355Z AUTO 28012G19KT 10SM CLR 07/M03 A3010 RMK AO2 T00691032
2026-04-07 03:35:00,METAR KHSP 070335Z AUTO 28014G21KT 10SM CLR 07/M03 A3010 RMK AO2 T00711029
2026-04-07 03:15:00,METAR KHSP 070315Z AUTO 27015G19KT 10SM CLR 07/M03 A3009 RMK AO2 T00741030
2026-04-07 02:55:00,METAR KHSP 070255Z AUTO 27013G18KT 10SM SCT050 08/M03 A3010 RMK AO2 T00761030
2026-04-07 02:35:00,METAR KHSP 070235Z AUTO 27013G20KT 10SM SCT055 08/M03 A3010 RMK AO2 T00761030
2026-04-07 02:15:00,METAR KHSP 070215Z AUTO 27011G18KT 10SM SCT055 08/M03 A3010 RMK AO2 T00781032
2026-04-07 01:55:00,METAR KHSP 070155Z AUTO 27012G17KT 10SM SCT060 08/M03 A3010 RMK AO2 T00781032
2026-04-07 01:35:00,METAR KHSP 070135Z AUTO 27010KT 10SM SCT060 08/M03 A3010 RMK AO2 T00771032
2026-04-07 01:15:00,METAR KHSP 070115Z AUTO 26011KT 10SM SCT060 08/M03 A3010 RMK AO2 T00771033
2026-04-07 00:55:00,METAR KHSP 070055Z AUTO 26011G15KT 10SM SCT060 08/M03 A3009 RMK AO2 T00801033
2026-04-07 00:35:00,METAR KHSP 070035Z AUTO 26011G17KT 10SM BKN060 08/M03 A3008 RMK AO2 T00821035
2026-04-07 00:15:00,METAR KHSP 070015Z AUTO 27012G16KT 10SM BKN060 08/M03 A3008 RMK AO2 T00841035
2026-04-06 23:55:00,METAR KHSP 062355Z AUTO 27009G18KT 10SM BKN060 09/M04 A3008 RMK AO2 T00861036 10115 20086
2026-04-06 23:35:00,METAR KHSP 062335Z AUTO 26009KT 230V290 10SM BKN060 09/M04 A3008 RMK AO2 LTG DSNT N T00901037
2026-04-06 23:15:00,METAR KHSP 062315Z AUTO 27014G21KT 10SM BKN055 09/M04 A3007 RMK AO2 T00911039
2026-04-06 22:55:00,METAR KHSP 062255Z AUTO 27012G19KT 10SM SCT055 09/M04 A3007 RMK AO2 T00931039
2026-04-06 22:35:00,METAR KHSP 062235Z AUTO 28014G17KT 10SM SCT055 10/M04 A3007 RMK AO2 T00971037
2026-04-06 22:15:00,METAR KHSP 062215Z AUTO 27015G22KT 10SM SCT055 10/M04 A3006 RMK AO2 T01001041
2026-04-06 21:55:00,METAR KHSP 062155Z AUTO 30007G14KT 270V330 10SM OVC055 10/M03 A3006 RMK AO2 T01011035
2026-04-06 21:35:00,METAR KHSP 062135Z AUTO 28009G19KT 10SM BKN055 10/M04 A3006 RMK AO2 T00971036
2026-04-06 21:15:00,METAR KHSP 062115Z AUTO 28013G19KT 10SM BKN055 10/M04 A3006 RMK AO2 T00961038
2026-04-06 20:55:00,METAR KHSP 062055Z AUTO 26017G22KT 10SM BKN055 11/M04 A3006 RMK AO2 T01071038
2026-04-06 20:35:00,METAR KHSP 062035Z AUTO 28011G19KT 10SM BKN055 BKN065 11/M03 A3006 RMK AO2 T01061032
2026-04-06 20:15:00,METAR KHSP 062015Z AUTO 28016G26KT 10SM BKN055 10/M04 A3006 RMK AO2 T01041039
2026-04-06 19:55:00,METAR KHSP 061955Z AUTO 26016G22KT 10SM BKN065 11/M03 A3006 RMK AO2 T01121035
2026-04-06 19:35:00,METAR KHSP 061935Z AUTO 28010G18KT 10SM BKN060 10/M04 A3006 RMK AO2 T01021042
2026-04-06 19:15:00,METAR KHSP 061915Z AUTO 28007G25KT 250V330 10SM SCT060 11/M04 A3006 RMK AO2 T01061044
2026-04-06 18:55:00,METAR KHSP 061855Z AUTO 28012G24KT 10SM SCT060 11/M03 A3007 RMK AO2 T01111031
2026-04-06 18:35:00,METAR KHSP 061835Z AUTO 30014G25KT 10SM SCT060 11/M04 A3008 RMK AO2 T01051040
2026-04-06 18:15:00,METAR KHSP 061815Z AUTO 29009G23KT 10SM CLR 10/M03 A3008 RMK AO2 T01011032
2026-04-06 17:55:00,METAR KHSP 061755Z AUTO 26015G23KT 10SM SCT050 10/M02 A3008 RMK AO2 T01011025 10101 21008
2026-04-06 17:35:00,METAR KHSP 061735Z AUTO 27013G23KT 240V340 10SM SCT049 09/M03 A3009 RMK AO2 T00941030
2026-04-06 17:15:00,METAR KHSP 061715Z AUTO 29010G18KT 10SM SCT049 09/M03 A3010 RMK AO2 T00891031
2026-04-06 16:55:00,METAR KHSP 061655Z AUTO 27016G21KT 10SM SCT047 09/M03 A3011 RMK AO2 T00871031
2026-04-06 16:35:00,METAR KHSP 061635Z AUTO 28012G19KT 10SM SCT047 08/M03 A3012 RMK AO2 T00821033
2026-04-06 16:15:00,METAR KHSP 061615Z AUTO 28010G20KT 10SM CLR 07/M04 A3012 RMK AO2 T00741036
2026-04-06 15:55:00,METAR KHSP 061555Z AUTO 27013G21KT 10SM CLR 07/M04 A3012 RMK AO2 T00671041
2026-04-06 15:35:00,METAR KHSP 061535Z AUTO 27012G17KT 10SM CLR 06/M05 A3012 RMK AO2 T00631046
2026-04-06 14:55:00,METAR KHSP 061455Z AUTO 28012G20KT 10SM CLR 05/M06 A3012 RMK AO2 T00451061
2026-04-06 14:35:00,METAR KHSP 061435Z AUTO 28013G17KT 10SM CLR 04/M06 A3012 RMK AO2 T00391059
2026-04-06 14:15:00,METAR KHSP 061415Z AUTO 28011G16KT 10SM CLR 03/M06 A3012 RMK AO2 T00321056
2026-04-06 13:55:00,METAR KHSP 061355Z AUTO 28012G16KT 10SM CLR 02/M05 A3011 RMK AO2 T00231055
2026-04-06 13:35:00,METAR KHSP 061335Z AUTO 27009KT 10SM CLR 02/M05 A3010 RMK AO2 T00161046
2026-04-06 13:15:00,METAR KHSP 061315Z AUTO 27011G17KT 10SM CLR 01/M05 A3010 RMK AO2 T00081049
2026-04-06 12:55:00,METAR KHSP 061255Z AUTO 27012G19KT 10SM CLR 00/M05 A3009 RMK AO2 T00031050
2026-04-06 12:35:00,METAR KHSP 061235Z AUTO 28008G16KT 10SM CLR 00/M05 A3009 RMK AO2 T00001050
2026-04-06 12:15:00,METAR KHSP 061215Z AUTO 28010G15KT 10SM CLR 00/M05 A3009 RMK AO2 T10051047
2026-04-06 11:55:00,METAR KHSP 061155Z AUTO 28008G15KT 10SM CLR M01/M05 A3008 RMK AO2 70050 T10061047 10021 21011
2026-04-06 11:35:00,METAR KHSP 061135Z AUTO 29011G19KT 10SM CLR M01/M05 A3007 RMK AO2 T10081047
2026-04-06 11:15:00,METAR KHSP 061115Z AUTO 30014G28KT 10SM CLR M01/M05 A3006 RMK AO2 T10101047
2026-04-06 10:55:00,METAR KHSP 061055Z AUTO 28014G22KT 10SM CLR M01/M05 A3005 RMK AO2 T10101046
2026-04-06 10:35:00,METAR KHSP 061035Z AUTO 30016G25KT 10SM CLR M01/M05 A3005 RMK AO2 T10101047
2026-04-06 10:15:00,METAR KHSP 061015Z AUTO 30013G27KT 10SM CLR M01/M05 A3005 RMK AO2 T10101048
2026-04-06 09:55:00,METAR KHSP 060955Z AUTO 30011G24KT 10SM CLR M01/M05 A3004 RMK AO2 T10081050
2026-04-06 09:35:00,METAR KHSP 060935Z AUTO 30015G23KT 280V350 10SM CLR M01/M05 A3004 RMK AO2 T10081054
2026-04-06 09:15:00,METAR KHSP 060915Z AUTO 30016G24KT 10SM CLR M01/M05 A3005 RMK AO2 T10071053
2026-04-06 08:55:00,METAR KHSP 060855Z AUTO 30014G23KT 10SM CLR M01/M05 A3005 RMK AO2 T10061050
2026-04-06 08:35:00,METAR KHSP 060835Z AUTO 29014G22KT 10SM SCT018 M01/M05 A3005 RMK AO2 T10061046
2026-04-06 08:15:00,METAR KHSP 060815Z AUTO 30015G25KT 10SM SCT018 00/M04 A3006 RMK AO2 T10051044
2026-04-06 07:55:00,METAR KHSP 060755Z AUTO 29014G23KT 250V320 10SM SCT018 00/M04 A3005 RMK AO2 T10051042
2026-04-06 07:35:00,METAR KHSP 060735Z AUTO 30015G24KT 270V330 10SM BKN018 00/M04 A3006 RMK AO2 T10021041
2026-04-06 07:15:00,METAR KHSP 060715Z AUTO 30011G19KT 10SM BKN020 00/M04 A3006 RMK AO2 T00001040
2026-04-06 06:55:00,METAR KHSP 060655Z AUTO 29010G21KT 10SM SCT022 01/M04 A3006 RMK AO2 T00051038
2026-04-06 06:35:00,METAR KHSP 060635Z AUTO 28016G25KT 10SM SCT022 SCT028 01/M04 A3006 RMK AO2 T00101041
2026-04-06 06:15:00,METAR KHSP 060615Z AUTO 30011G23KT 10SM OVC022 02/M03 A3007 RMK AO2 T00171028
2026-04-06 05:55:00,METAR KHSP 060555Z AUTO 28009G17KT 250V330 10SM BKN024 02/M02 A3008 RMK AO2 T00211025 10056 20021
2026-04-06 05:35:00,METAR KHSP 060535Z AUTO 30011G22KT 240V330 10SM OVC024 02/M03 A3007 RMK AO2 T00231027
2026-04-06 05:15:00,METAR KHSP 060515Z AUTO 29009G19KT 10SM OVC024 03/M02 A3007 RMK AO2 T00251025
2026-04-06 04:55:00,METAR KHSP 060455Z AUTO 28012G23KT 230V330 10SM OVC026 03/M02 A3007 RMK AO2 T00251025 401590025
2026-04-06 04:35:00,METAR KHSP 060435Z AUTO 29017G30KT 10SM BKN026 03/M03 A3007 RMK AO2 T00251026
2026-04-06 04:15:00,METAR KHSP 060415Z AUTO 29012G27KT 10SM BKN026 03/M03 A3007 RMK AO2 T00261026
2026-04-06 03:55:00,METAR KHSP 060355Z AUTO 29016G24KT 10SM OVC026 03/M02 A3007 RMK AO2 T00281021
2026-04-06 03:35:00,METAR KHSP 060335Z AUTO 29014G27KT 10SM OVC026 03/M02 A3007 RMK AO2 T00301024
2026-04-06 03:15:00,METAR KHSP 060315Z AUTO 28015G26KT 10SM OVC026 03/M02 A3007 RMK AO2 T00331017
2026-04-06 02:55:00,METAR KHSP 060255Z AUTO 28019G25KT 10SM BKN026 BKN032 04/M02 A3007 RMK AO2 T00361017
2026-04-06 02:35:00,METAR KHSP 060235Z AUTO 28014G20KT 10SM OVC022 05/M01 A3007 RMK AO2 T00451006
2026-04-06 02:15:00,METAR KHSP 060215Z AUTO 28017G26KT 10SM OVC022 05/00 A3006 RMK AO2 T00471004
2026-04-06 01:55:00,METAR KHSP 060155Z AUTO 28020G33KT 10SM OVC024 05/00 A3005 RMK AO2 T00481002
2026-04-06 01:35:00,METAR KHSP 060135Z AUTO 29017G26KT 10SM BKN024 OVC028 05/00 A3004 RMK AO2 T00500002
2026-04-06 01:15:00,METAR KHSP 060115Z AUTO 28015G24KT 10SM OVC024 05/00 A3003 RMK AO2 T00510003
2026-04-06 00:55:00,METAR KHSP 060055Z AUTO 28016G29KT 10SM BKN026 OVC031 05/00 A3001 RMK AO2 T00520001
2026-04-06 00:35:00,METAR KHSP 060035Z AUTO 28018G29KT 10SM BKN026 OVC031 06/00 A3000 RMK AO2 T00550000
2026-04-06 00:15:00,METAR KHSP 060015Z AUTO 28016G25KT 10SM BKN025 OVC030 06/01 A3000 RMK AO2 T00560006
2026-04-05 23:55:00,METAR KHSP 052355Z AUTO 28012G20KT 10SM OVC023 06/01 A2999 RMK AO2 T00560010 10120 20056
2026-04-05 23:35:00,METAR KHSP 052335Z AUTO 28016G30KT 10SM OVC023 06/01 A2999 RMK AO2 T00570009
2026-04-05 23:15:00,METAR KHSP 052315Z AUTO 28014G24KT 10SM OVC021 06/01 A2999 RMK AO2 T00600011
2026-04-05 22:55:00,METAR KHSP 052255Z AUTO 28020G27KT 10SM OVC021 06/01 A2998 RMK AO2 T00600011
2026-04-05 22:35:00,METAR KHSP 052235Z AUTO 28016G21KT 10SM BKN023 06/01 A2998 RMK AO2 T00620012
2026-04-05 22:15:00,METAR KHSP 052215Z AUTO 29015G21KT 10SM OVC021 07/01 A2997 RMK AO2 T00670013
2026-04-05 21:55:00,METAR KHSP 052155Z AUTO 29014G22KT 260V320 10SM BKN021 07/02 A2996 RMK AO2 T00730019
2026-04-05 21:35:00,METAR KHSP 052135Z AUTO 29013G25KT 10SM SCT023 08/03 A2995 RMK AO2 T00840025
2026-04-05 21:15:00,METAR KHSP 052115Z AUTO 29018G26KT 10SM SCT025 10/03 A2994 RMK AO2 T00950029
2026-04-05 20:55:00,METAR KHSP 052055Z AUTO 28015G23KT 10SM SCT025 11/04 A2994 RMK AO2 T01050036
2026-04-05 20:35:00,METAR KHSP 052035Z AUTO 28018G26KT 10SM CLR 11/04 A2994 RMK AO2 T01080039
2026-04-05 20:15:00,METAR KHSP 052015Z AUTO 28021G26KT 10SM CLR 11/04 A2994 RMK AO2 T01130040
2026-04-05 19:55:00,METAR KHSP 051955Z AUTO 27016G27KT 10SM CLR 11/04 A2994 RMK AO2 T01140037
2026-04-05 19:35:00,METAR KHSP 051935Z AUTO 27020G28KT 10SM CLR 12/03 A2994 RMK AO2 T01160034
2026-04-05 19:15:00,METAR KHSP 051915Z AUTO 28019G26KT 10SM CLR 12/04 A2994 RMK AO2 T01160039
2026-04-05 18:55:00,METAR KHSP 051855Z AUTO 27018G28KT 10SM SCT022 SCT026 11/04 A2994 RMK AO2 T01110040
2026-04-05 18:35:00,METAR KHSP 051835Z AUTO 27015G25KT 10SM SCT022 SCT026 11/05 A2995 RMK AO2 T01130052
2026-04-05 18:15:00,METAR KHSP 051815Z AUTO 28018G25KT 10SM SCT016 11/05 A2995 RMK AO2 T01070052
2026-04-05 17:55:00,METAR KHSP 051755Z AUTO 27020G26KT 10SM BKN016 10/05 A2995 RMK AO2 60050 T01030054 10140 20090
2026-04-05 17:35:00,METAR KHSP 051735Z AUTO 27016G24KT 10SM BKN013 BKN020 10/07 A2995 RMK AO2 T01030065
2026-04-05 17:15:00,METAR KHSP 051715Z AUTO 26016G25KT 10SM BKN011 BKN018 10/07 A2996 RMK AO2 T00990068
2026-04-05 16:55:00,METAR KHSP 051655Z AUTO 26016G23KT 10SM OVC009 09/07 A2996 RMK AO2 T00900068
2026-04-05 16:35:00,METAR KHSP 051635Z AUTO 26015G22KT 10SM BKN009 OVC055 09/08 A2996 RMK AO2 T00900076
2026-04-05 16:15:00,METAR KHSP 051615Z AUTO 27019G24KT 10SM SCT007 BKN011 OVC070 09/08 A2995 RMK AO2 T00930079
2026-04-05 15:55:00,METAR KHSP 051555Z AUTO 27016G24KT 10SM SCT005 BKN075 OVC080 10/08 A2995 RMK AO2 T00950083
2026-04-05 15:35:00,METAR KHSP 051535Z AUTO 27015G26KT 10SM -RA SCT005 BKN070 OVC085 10/09 A2997 RMK AO2 T00950086
2026-04-05 15:15:00,METAR KHSP 051515Z AUTO 27019G26KT 10SM -RA SCT003 BKN080 OVC085 10/09 A2997 RMK AO2 T00960089
2026-04-05 14:55:00,METAR KHSP 051455Z AUTO 27021G28KT 10SM -RA SCT003 SCT055 OVC085 10/09 A2997 RMK AO2 P0002 60050 T00970088
2026-04-05 12:55:00,METAR KHSP 051255Z AUTO 24018G24KT M1/4SM RA OVC001 14/14 A2997 RMK AO2 P0010 T01400135
2026-04-05 12:35:00,METAR KHSP 051235Z AUTO 22015G22KT 5SM -RA OVC003 14/14 A2997 RMK AO2 P0006 T01400135
2026-04-05 12:15:00,METAR KHSP 051215Z AUTO 23014G20KT 2 1/2SM -RA OVC003 14/14 A2998 RMK AO2 P0003 T01400135
2026-04-05 11:55:00,METAR KHSP 051155Z AUTO 23016G26KT 5SM RA BKN005 BKN008 OVC020 14/13 A2998 RMK AO2 P0010 60010 70010 T01400132 10155 20140
2026-04-05 11:35:00,METAR KHSP 051135Z AUTO 22018G23KT 5SM -RA OVC005 14/13 A2998 RMK AO2 P0005 T01410132
2026-04-05 11:15:00,METAR KHSP 051115Z AUTO 22014G22KT 10SM -RA BKN005 BKN010 OVC015 14/13 A2999 RMK AO2 P0001 T01410132
2026-04-05 10:55:00,METAR KHSP 051055Z AUTO 21017G25KT 10SM -RA BKN009 BKN012 OVC055 15/13 A2999 RMK AO2 T01450130
2026-04-05 10:35:00,METAR KHSP 051035Z AUTO 21014G22KT 10SM OVC009 15/13 A2999 RMK AO2 T01450130
2026-04-05 10:15:00,METAR KHSP 051015Z AUTO 20012G19KT 10SM OVC009 15/13 A2999 RMK AO2 T01450130
2026-04-05 09:55:00,METAR KHSP 050955Z AUTO 20012G15KT 10SM SCT008 BKN012 OVC029 15/13 A2999 RMK AO2 T01470128
2026-04-05 09:35:00,METAR KHSP 050935Z AUTO 21012G17KT 10SM SCT012 BKN031 OVC037 15/13 A3000 RMK AO2 T01470126
2026-04-05 09:15:00,METAR KHSP 050915Z AUTO 20008KT 10SM SCT037 15/12 A3000 RMK AO2 T01510122
2026-04-05 08:55:00,METAR KHSP 050855Z AUTO 21008G16KT 10SM CLR 15/12 A3001 RMK AO2 T01510122
2026-04-05 08:35:00,METAR KHSP 050835Z AUTO 22012KT 10SM SCT032 15/12 A3001 RMK AO2 T01490122
2026-04-05 08:15:00,METAR KHSP 050815Z AUTO 23013G16KT 10SM BKN032 15/13 A3002 RMK AO2 T01510125
2026-04-05 07:55:00,METAR KHSP 050755Z AUTO 23015G18KT 10SM SCT026 BKN033 15/13 A3003 RMK AO2 T01500125
2026-04-05 07:35:00,METAR KHSP 050735Z AUTO 23013KT 10SM OVC026 16/13 A3004 RMK AO2 T01550127
2026-04-05 07:15:00,METAR KHSP 050715Z AUTO 24011KT 10SM BKN028 BKN034 16/13 A3005 RMK AO2 T01550127
2026-04-05 06:55:00,METAR KHSP 050655Z AUTO 23014G20KT 10SM OVC030 16/13 A3005 RMK AO2 T01550127
2026-04-05 06:35:00,METAR KHSP 050635Z AUTO 24015G19KT 10SM BKN030 16/13 A3005 RMK AO2 T01550128
2026-04-05 06:15:00,METAR KHSP 050615Z AUTO 23017G24KT 10SM CLR 15/13 A3006 RMK AO2 T01530128
2026-04-05 05:55:00,METAR KHSP 050555Z AUTO 22013G18KT 10SM CLR 15/13 A3007 RMK AO2 T01540128 10188 20153
2026-04-05 05:35:00,METAR KHSP 050535Z AUTO 21012G17KT 10SM CLR 16/13 A3007 RMK AO2 T01550127
2026-04-05 05:15:00,METAR KHSP 050515Z AUTO 22011G16KT 10SM CLR 16/13 A3008 RMK AO2 T01550127
2026-04-05 04:55:00,METAR KHSP 050455Z AUTO 22011KT 10SM CLR 16/13 A3009 RMK AO2 T01580126 402280145
2026-04-05 04:35:00,METAR KHSP 050435Z AUTO 22009G16KT 10SM CLR 16/13 A3010 RMK AO2 T01570127
2026-04-05 04:15:00,METAR KHSP 050415Z AUTO 20010G17KT 10SM CLR 16/13 A3010 RMK AO2 T01600128
2026-04-05 03:55:00,METAR KHSP 050355Z AUTO 20012G18KT 10SM CLR 16/13 A3011 RMK AO2 T01610128
2026-04-05 03:35:00,METAR KHSP 050335Z AUTO 19010G14KT 10SM CLR 16/13 A3012 RMK AO2 T01590128
2026-04-05 03:15:00,METAR KHSP 050315Z AUTO 21010G18KT 10SM CLR 17/13 A3012 RMK AO2 T01660127
2026-04-05 02:55:00,METAR KHSP 050255Z AUTO 22014KT 10SM SCT080 17/13 A3012 RMK AO2 T01650126
2026-04-05 02:35:00,METAR KHSP 050235Z AUTO 20007G16KT 10SM SCT075 OVC080 17/13 A3013 RMK AO2 T01690129
2026-04-05 02:15:00,METAR KHSP 050215Z AUTO 20010G19KT 10SM BKN075 BKN120 17/13 A3013 RMK AO2 T01720127
2026-04-05 01:55:00,METAR KHSP 050155Z AUTO 20010G16KT 10SM SCT095 17/13 A3013 RMK AO2 T01730127
2026-04-05 01:35:00,METAR KHSP 050135Z AUTO 20008G17KT 10SM SCT024 SCT095 18/13 A3014 RMK AO2 T01750127
2026-04-05 01:15:00,METAR KHSP 050115Z AUTO 19013G17KT 10SM CLR 18/13 A3013 RMK AO2 T01750125
2026-04-05 00:55:00,METAR KHSP 050055Z AUTO 20008G15KT 10SM SCT090 18/12 A3013 RMK AO2 T01780120
2026-04-05 00:35:00,METAR KHSP 050035Z AUTO 20009G16KT 10SM SCT090 SCT110 18/12 A3013 RMK AO2 T01830118
2026-04-05 00:15:00,METAR KHSP 050015Z AUTO 19011G16KT 10SM SCT060 SCT110 19/12 A3013 RMK AO2 T01860116
2026-04-04 23:55:00,METAR KHSP 042355Z AUTO 20008G14KT 10SM SCT035 SCT044 SCT050 19/12 A3013 RMK AO2 T01870119 10228 20186
2026-04-04 23:35:00,METAR KHSP 042335Z AUTO 19008G14KT 10SM SCT039 SCT044 SCT050 19/12 A3013 RMK AO2 T01900120
2026-04-04 23:15:00,METAR KHSP 042315Z AUTO 18006G14KT 10SM SCT044 19/12 A3013 RMK AO2 T01940119
2026-04-04 22:55:00,METAR KHSP 042255Z AUTO 18009G15KT 10SM SCT044 SCT085 20/12 A3014 RMK AO2 T02000116
2026-04-04 22:35:00,METAR KHSP 042235Z AUTO 17010G16KT 10SM SCT042 SCT050 SCT060 20/12 A3014 RMK AO2 T02000116
2026-04-04 22:15:00,METAR KHSP 042215Z AUTO 18009G14KT 10SM BKN042 BKN050 BKN100 21/12 A3014 RMK AO2 T02050115
2026-04-04 21:55:00,METAR KHSP 042155Z AUTO 15009G18KT 10SM SCT039 SCT050 BKN095 21/11 A3015 RMK AO2 T02110113
2026-04-04 21:35:00,METAR KHSP 042135Z AUTO 16008G15KT 120V200 10SM SCT037 SCT070 BKN095 22/12 A3015 RMK AO2 T02170120
2026-04-04 21:15:00,METAR KHSP 042115Z AUTO 15007KT 120V180 10SM SCT035 SCT070 BKN085 22/12 A3016 RMK AO2 T02150123
2026-04-04 20:55:00,METAR KHSP 042055Z AUTO 16007KT 10SM BKN035 22/12 A3016 RMK AO2 T02190122
2026-04-04 20:35:00,METAR KHSP 042035Z AUTO 17009G15KT 10SM SCT090 22/12 A3017 RMK AO2 T02190123
2026-04-04 20:15:00,METAR KHSP 042015Z AUTO 16011G16KT 10SM SCT034 BKN090 22/12 A3017 RMK AO2 T02170124
2026-04-04 19:55:00,METAR KHSP 041955Z AUTO 16010G17KT 10SM SCT034 SCT039 BKN090 22/12 A3018 RMK AO2 T02180124
2026-04-04 19:35:00,METAR KHSP 041935Z AUTO 16011G16KT 120V180 10SM SCT039 BKN090 22/12 A3019 RMK AO2 T02200116
2026-04-04 19:15:00,METAR KHSP 041915Z AUTO 19013G16KT 10SM SCT041 SCT060 BKN090 23/11 A3020 RMK AO2 T02280111
2026-04-04 18:55:00,METAR KHSP 041855Z AUTO 16006KT 10SM BKN041 BKN060 OVC090 22/11 A3020 RMK AO2 T02190114
2026-04-04 18:35:00,METAR KHSP 041835Z AUTO 15008G17KT 120V180 10SM BKN039 BKN046 BKN050 21/11 A3021 RMK AO2 T02140114
2026-04-04 18:15:00,METAR KHSP 041815Z AUTO 17006G20KT 10SM SCT039 BKN044 OVC085 22/11 A3022 RMK AO2 T02160113
2026-04-04 17:55:00,METAR KHSP 041755Z AUTO 16008G16KT 130V190 10SM BKN039 OVC055 21/11 A3022 RMK AO2 T02120112 10224 20160
2026-04-04 17:35:00,METAR KHSP 041735Z AUTO 13007G15KT 100V160 10SM SCT037 BKN044 OVC050 21/11 A3023 RMK AO2 T02080111
2026-04-04 17:15:00,METAR KHSP 041715Z AUTO 19007G14KT 10SM SCT043 BKN050 22/11 A3024 RMK AO2 T02210114
2026-04-04 16:55:00,METAR KHSP 041655Z AUTO 17006KT 10SM SCT035 BKN041 BKN048 22/12 A3025 RMK AO2 T02220119
2026-04-04 16:35:00,METAR KHSP 041635Z AUTO 14005KT 10SM OVC037 21/12 A3025 RMK AO2 T02110118
2026-04-04 16:15:00,METAR KHSP 041615Z AUTO 12005KT 10SM BKN033 OVC043 21/12 A3026 RMK AO2 T02070121
2026-04-04 15:55:00,METAR KHSP 041555Z AUTO 13005KT 10SM BKN033 OVC042 21/12 A3027 RMK AO2 T02070121
2026-04-04 15:35:00,METAR KHSP 041535Z AUTO 21004G24KT 10SM SCT033 SCT038 21/12 A3027 RMK AO2 T02090117
2026-04-04 15:15:00,METAR KHSP 041515Z AUTO 21004KT 10SM CLR 20/11 A3028 RMK AO2 T02010113
2026-04-04 14:55:00,METAR KHSP 041455Z AUTO 32006KT 10SM CLR 20/12 A3028 RMK AO2 T01990115
2026-04-04 14:35:00,METAR KHSP 041435Z AUTO 26005KT 10SM CLR 19/12 A3029 RMK AO2 T01920115
2026-04-04 14:15:00,METAR KHSP 041415Z AUTO 26005KT 10SM CLR 19/11 A3029 RMK AO2 T01850113
2026-04-04 13:55:00,METAR KHSP 041355Z AUTO 27006KT 10SM CLR 18/11 A3029 RMK AO2 T01840114
2026-04-04 13:35:00,METAR KHSP 041335Z AUTO 27007KT 10SM CLR 18/11 A3029 RMK AO2 T01790112
2026-04-04 13:15:00,METAR KHSP 041315Z AUTO 27009KT 10SM CLR 18/11 A3029 RMK AO2 T01750112
2026-04-04 12:55:00,METAR KHSP 041255Z AUTO 27007KT 10SM CLR 17/11 A3029 RMK AO2 T01710111
2026-04-04 12:35:00,METAR KHSP 041235Z AUTO 27009KT 10SM CLR 17/11 A3029 RMK AO2 T01670110
2026-04-04 12:15:00,METAR KHSP 041215Z AUTO 27007KT 10SM CLR 16/11 A3029 RMK AO2 T01620110
2026-04-04 11:55:00,METAR KHSP 041155Z AUTO 26008KT 10SM CLR 16/11 A3029 RMK AO2 T01600109 10163 20145
2026-04-04 11:35:00,METAR KHSP 041135Z AUTO 26008KT 10SM CLR 16/11 A3029 RMK AO2 T01550107
2026-04-04 11:15:00,METAR KHSP 041115Z AUTO 26008KT 10SM CLR 15/11 A3028 RMK AO2 T01540107
2026-04-04 10:55:00,METAR KHSP 041055Z AUTO 26010KT 10SM CLR 15/11 A3028 RMK AO2 T01530106
2026-04-04 10:35:00,METAR KHSP 041035Z AUTO 26008KT 10SM CLR 15/11 A3028 RMK AO2 T01530106
2026-04-04 10:15:00,METAR KHSP 041015Z AUTO 26008KT 10SM CLR 15/11 A3028 RMK AO2 T01520106
2026-04-04 09:55:00,METAR KHSP 040955Z AUTO 25009KT 10SM CLR 15/11 A3028 RMK AO2 T01520106
2026-04-04 09:35:00,METAR KHSP 040935Z AUTO 25009KT 10SM CLR 15/11 A3028 RMK AO2 T01510106
2026-04-04 09:15:00,METAR KHSP 040915Z AUTO 25009KT 10SM CLR 15/11 A3028 RMK AO2 T01500106
2026-04-04 08:55:00,METAR KHSP 040855Z AUTO 25010KT 10SM CLR 15/11 A3027 RMK AO2 T01520106
2026-04-04 08:35:00,METAR KHSP 040835Z AUTO 25010KT 10SM CLR 15/11 A3028 RMK AO2 T01540105
2026-04-04 08:15:00,METAR KHSP 040815Z AUTO 25011KT 10SM CLR 15/11 A3028 RMK AO2 T01510105
2026-04-04 07:55:00,METAR KHSP 040755Z AUTO 24010KT 10SM CLR 15/11 A3028 RMK AO2 T01510105
2026-04-04 07:35:00,METAR KHSP 040735Z AUTO 23010KT 10SM CLR 15/11 A3029 RMK AO2 T01490105
2026-04-04 07:15:00,METAR KHSP 040715Z AUTO 23008KT 10SM SCT100 15/11 A3029 RMK AO2 T01470106
2026-04-04 06:55:00,METAR KHSP 040655Z AUTO 24007KT 10SM BKN100 15/11 A3030 RMK AO2 T01520106
2026-04-04 06:35:00,METAR KHSP 040635Z AUTO 22007KT 10SM OVC100 16/11 A3031 RMK AO2 T01620110
2026-04-04 06:15:00,METAR KHSP 040615Z AUTO 23009KT 10SM SCT100 16/11 A3031 RMK AO2 T01620110
2026-04-04 05:55:00,METAR KHSP 040555Z AUTO 24009KT 10SM CLR 16/11 A3031 RMK AO2 T01560110 10189 20156
2026-04-04 05:35:00,METAR KHSP 040535Z AUTO 24010KT 10SM CLR 16/11 A3031 RMK AO2 T01590110
2026-04-04 05:15:00,METAR KHSP 040515Z AUTO 22008KT 10SM CLR 16/11 A3031 RMK AO2 T01600111
2026-04-04 04:55:00,METAR KHSP 040455Z AUTO 23008KT 10SM CLR 16/11 A3031 RMK AO2 T01610110 402290122
2026-04-04 04:35:00,METAR KHSP 040435Z AUTO 22008KT 10SM CLR 17/11 A3031 RMK AO2 T01650111
2026-04-04 04:15:00,METAR KHSP 040415Z AUTO 22008KT 10SM CLR 17/11 A3031 RMK AO2 T01650111
2026-04-04 03:55:00,METAR KHSP 040355Z AUTO 22009KT 10SM CLR 17/11 A3031 RMK AO2 T01670111
2026-04-04 03:35:00,METAR KHSP 040335Z AUTO 22010KT 10SM CLR 17/11 A3031 RMK AO2 T01700111
2026-04-04 03:15:00,METAR KHSP 040315Z AUTO 22007KT 10SM CLR 17/11 A3031 RMK AO2 T01730110
2026-04-04 02:55:00,METAR KHSP 040255Z AUTO 21007KT 10SM CLR 18/11 A3030 RMK AO2 T01770110
2026-04-04 02:35:00,METAR KHSP 040235Z AUTO 20008KT 10SM CLR 17/11 A3031 RMK AO2 T01730110
2026-04-04 02:15:00,METAR KHSP 040215Z AUTO 19005KT 10SM CLR 17/11 A3031 RMK AO2 T01720112
2026-04-04 01:55:00,METAR KHSP 040155Z AUTO 18004KT 10SM CLR 17/11 A3031 RMK AO2 T01740111
2026-04-04 01:35:00,METAR KHSP 040135Z AUTO 17006KT 10SM CLR 18/11 A3030 RMK AO2 T01770111
2026-04-04 01:15:00,METAR KHSP 040115Z AUTO 18005KT 10SM CLR 18/11 A3030 RMK AO2 T01800111
2026-04-04 00:55:00,METAR KHSP 040055Z AUTO 17006KT 10SM CLR 18/11 A3030 RMK AO2 T01840111
2026-04-04 00:35:00,METAR KHSP 040035Z AUTO 17005KT 10SM CLR 19/11 A3030 RMK AO2 T01860111
2026-04-04 00:15:00,METAR KHSP 040015Z AUTO 18004KT 10SM SCT046 19/11 A3029 RMK AO2 T01880110
2026-04-03 23:55:00,METAR KHSP 032355Z AUTO 18004KT 10SM OVC046 19/11 A3030 RMK AO2 T01890109 10229 20189
2026-04-03 23:35:00,METAR KHSP 032335Z AUTO 17003KT 10SM BKN044 19/11 A3029 RMK AO2 T01910108
2026-04-03 23:15:00,METAR KHSP 032315Z AUTO 18003KT 10SM SCT050 20/11 A3029 RMK AO2 T01950106
2026-04-03 22:55:00,METAR KHSP 032255Z AUTO 18003KT 10SM SCT044 BKN050 20/11 A3029 RMK AO2 T01990106
2026-04-03 22:35:00,METAR KHSP 032235Z AUTO 20004KT 10SM BKN042 OVC050 20/11 A3030 RMK AO2 T02020106
2026-04-03 22:15:00,METAR KHSP 032215Z AUTO 23004KT 10SM OVC042 20/11 A3030 RMK AO2 T02020107
2026-04-03 21:55:00,METAR KHSP 032155Z AUTO 16012G18KT 10SM OVC046 21/11 A3029 RMK AO2 T02050107
2026-04-03 21:35:00,METAR KHSP 032135Z AUTO 15005KT 10SM OVC046 21/11 A3030 RMK AO2 T02080107
2026-04-03 21:15:00,METAR KHSP 032115Z AUTO 23004KT 10SM OVC046 21/11 A3030 RMK AO2 T02060107
2026-04-03 20:55:00,METAR KHSP 032055Z AUTO 19005KT 10SM OVC048 21/11 A3030 RMK AO2 T02050110
2026-04-03 20:35:00,METAR KHSP 032035Z AUTO 20003KT 10SM OVC048 21/11 A3030 RMK AO2 T02060110
2026-04-03 20:15:00,METAR KHSP 032015Z AUTO 19004KT 10SM BKN050 OVC065 21/11 A3030 RMK AO2 T02080110
2026-04-03 19:55:00,METAR KHSP 031955Z AUTO 23005KT 10SM SCT049 OVC065 21/10 A3030 RMK AO2 T02110104
2026-04-03 19:35:00,METAR KHSP 031935Z AUTO 20007KT 160V220 10SM BKN049 BKN055 OVC075 21/11 A3030 RMK AO2 T02110106
2026-04-03 19:15:00,METAR KHSP 031915Z AUTO 26009G14KT 10SM BKN047 BKN065 BKN075 22/10 A3030 RMK AO2 T02190098
2026-04-03 18:55:00,METAR KHSP 031855Z AUTO 21008KT 10SM BKN047 BKN075 22/10 A3031 RMK AO2 T02180103
2026-04-03 18:35:00,METAR KHSP 031835Z AUTO 25011G17KT 10SM BKN045 BKN055 OVC075 23/10 A3031 RMK AO2 T02260101
2026-04-03 18:15:00,METAR KHSP 031815Z AUTO 26004KT 10SM BKN043 OVC055 21/10 A3032 RMK AO2 T02120101
2026-04-03 17:55:00,METAR KHSP 031755Z AUTO 23010G16KT 10SM BKN041 OVC047 21/10 A3032 RMK AO2 T02120100 10222 20139
2026-04-03 17:35:00,METAR KHSP 031735Z AUTO 26008G15KT 10SM OVC039 20/10 A3033 RMK AO2 T02020104
2026-04-03 17:15:00,METAR KHSP 031715Z AUTO 24009G16KT 10SM OVC039 21/10 A3033 RMK AO2 T02050102
2026-04-03 16:55:00,METAR KHSP 031655Z AUTO 22011G15KT 10SM BKN039 BKN047 20/10 A3033 RMK AO2 T02020103
2026-04-03 16:35:00,METAR KHSP 031635Z AUTO 21006KT 10SM SCT037 SCT044 20/10 A3034 RMK AO2 T02040104
2026-04-03 16:15:00,METAR KHSP 031615Z AUTO 24009G16KT 10SM SCT037 SCT044 20/10 A3034 RMK AO2 T02010102
2026-04-03 15:55:00,METAR KHSP 031555Z AUTO 27010G14KT 10SM BKN039 20/10 A3034 RMK AO2 T01980102
2026-04-03 15:35:00,METAR KHSP 031535Z AUTO 25012G16KT 10SM SCT039 19/10 A3035 RMK AO2 T01930101
2026-04-03 15:15:00,METAR KHSP 031515Z AUTO 24011G16KT 10SM CLR 19/10 A3035 RMK AO2 T01890100
2026-04-03 14:55:00,METAR KHSP 031455Z AUTO 26010KT 10SM CLR 18/10 A3035 RMK AO2 T01800098
2026-04-03 14:35:00,METAR KHSP 031435Z AUTO 24009KT 10SM CLR 18/10 A3034 RMK AO2 T01780097
2026-04-03 14:15:00,METAR KHSP 031415Z AUTO 25010KT 10SM CLR 17/10 A3034 RMK AO2 T01710095
2026-04-03 13:55:00,METAR KHSP 031355Z AUTO 25010KT 10SM CLR 17/10 A3034 RMK AO2 T01670095
2026-04-03 13:35:00,METAR KHSP 031335Z AUTO 24009KT 10SM CLR 16/10 A3034 RMK AO2 T01640096
2026-04-03 13:15:00,METAR KHSP 031315Z AUTO 23010G14KT 10SM CLR 16/10 A3034 RMK AO2 T01610097
2026-04-03 12:55:00,METAR KHSP 031255Z AUTO 24007KT 10SM CLR 16/09 A3034 RMK AO2 T01550094
2026-04-03 12:35:00,METAR KHSP 031235Z AUTO 22009KT 10SM CLR 15/09 A3034 RMK AO2 T01520092
2026-04-03 12:15:00,METAR KHSP 031215Z AUTO 22008KT 10SM CLR 15/09 A3033 RMK AO2 T01460091
2026-04-03 11:55:00,METAR KHSP 031155Z AUTO 22009KT 10SM CLR 14/09 A3033 RMK AO2 T01380092 10146 20122
2026-04-03 11:35:00,METAR KHSP 031135Z AUTO 22009G14KT 10SM CLR 14/09 A3032 RMK AO2 T01350091
2026-04-03 11:15:00,METAR KHSP 031115Z AUTO 22007KT 10SM CLR 13/09 A3032 RMK AO2 T01300090
2026-04-03 08:55:00,METAR KHSP 030855Z AUTO 17005KT 10SM CLR 13/10 A3030 RMK AO2 T01250104
2026-04-03 08:35:00,METAR KHSP 030835Z AUTO 20006KT 10SM CLR 13/10 A3030 RMK AO2 T01330100
2026-04-03 08:15:00,METAR KHSP 030815Z AUTO 20005KT 10SM CLR 13/11 A3031 RMK AO2 T01320106
2026-04-03 06:15:00,METAR KHSP 030615Z AUTO 19007KT 160V220 10SM CLR 15/11 A3032 RMK AO2 T01450112
2026-04-03 05:55:00,METAR KHSP 030555Z AUTO 18009G14KT 10SM CLR 15/11 A3031 RMK AO2 T01460112 10189 20146
2026-04-03 05:35:00,METAR KHSP 030535Z AUTO 18006KT 10SM CLR 15/11 A3031 RMK AO2 T01470112
2026-04-03 05:15:00,METAR KHSP 030515Z AUTO 18006KT 10SM SCT022 15/11 A3031 RMK AO2 T01510113
2026-04-03 04:55:00,METAR KHSP 030455Z AUTO 17007KT 10SM CLR 15/12 A3031 RMK AO2 T01520115 402230129
2026-04-03 04:35:00,METAR KHSP 030435Z AUTO 16009G14KT 10SM CLR 16/12 A3030 RMK AO2 T01550115
2026-04-03 04:15:00,METAR KHSP 030415Z AUTO 16009G14KT 10SM SCT024 SCT030 16/12 A3031 RMK AO2 T01560116
2026-04-03 03:55:00,METAR KHSP 030355Z AUTO 15008KT 10SM SCT024 SCT032 16/12 A3031 RMK AO2 T01600117
2026-04-03 03:35:00,METAR KHSP 030335Z AUTO 16007G14KT 130V200 10SM SCT026 SCT032 16/12 A3031 RMK AO2 T01630118
2026-04-03 03:15:00,METAR KHSP 030315Z AUTO 16011G19KT 10SM BKN024 BKN032 17/12 A3031 RMK AO2 T01650120
2026-04-03 02:55:00,METAR KHSP 030255Z AUTO 17011G15KT 10SM BKN024 BKN032 17/12 A3031 RMK AO2 T01700121
2026-04-03 02:35:00,METAR KHSP 030235Z AUTO 16010G19KT 10SM BKN026 BKN032 17/12 A3030 RMK AO2 T01700122
2026-04-03 02:15:00,METAR KHSP 030215Z AUTO 17010G14KT 10SM OVC028 18/12 A3030 RMK AO2 T01750124
2026-04-03 01:55:00,METAR KHSP 030155Z AUTO 17009G17KT 10SM OVC030 18/12 A3030 RMK AO2 T01770123
2026-04-03 01:35:00,METAR KHSP 030135Z AUTO 16010G18KT 10SM BKN034 BKN040 18/12 A3029 RMK AO2 T01780123
2026-04-03 01:15:00,METAR KHSP 030115Z AUTO 15010G16KT 10SM BKN034 BKN041 BKN048 18/12 A3029 RMK AO2 T01810120
2026-04-03 00:55:00,METAR KHSP 030055Z AUTO 15010G16KT 10SM BKN039 18/12 A3029 RMK AO2 T01840119
2026-04-03 00:35:00,METAR KHSP 030035Z AUTO 16009G16KT 10SM BKN035 BKN042 19/12 A3028 RMK AO2 T01860118
2026-04-03 00:15:00,METAR KHSP 030015Z AUTO 16009G17KT 10SM SCT035 SCT041 SCT049 19/12 A3028 RMK AO2 T01880120
2026-04-02 23:55:00,METAR KHSP 022355Z AUTO 15009G14KT 10SM SCT040 SCT047 19/12 A3027 RMK AO2 T01890120 10223 20189
2026-04-02 23:35:00,METAR KHSP 022335Z AUTO 15008G14KT 10SM SCT038 SCT044 SCT120 19/12 A3027 RMK AO2 LTG DSNT N T01910119
2026-04-02 23:15:00,METAR KHSP 022315Z AUTO 16010G19KT 10SM SCT040 SCT120 20/12 A3027 RMK AO2 T01950120
2026-04-02 22:55:00,METAR KHSP 022255Z AUTO 16011G18KT 120V190 10SM CLR 20/12 A3026 RMK AO2 LTG DSNT NW T01960118
2026-04-02 22:35:00,METAR KHSP 022235Z AUTO 15011G19KT 130V190 10SM SCT032 20/12 A3026 RMK AO2 LTG DSNT N T02000120
2026-04-02 22:15:00,METAR KHSP 022215Z AUTO 15011G18KT 10SM SCT032 21/12 A3026 RMK AO2 LTG DSNT N T02060121
2026-04-02 21:55:00,METAR KHSP 022155Z AUTO 16012G16KT 130V190 10SM SCT030 21/13 A3026 RMK AO2 LTG DSNT NW T02120126
2026-04-02 21:35:00,METAR KHSP 022135Z AUTO 16010G18KT 10SM SCT030 SCT100 21/13 A3026 RMK AO2 T02110128
2026-04-02 21:15:00,METAR KHSP 022115Z AUTO 15009G17KT 110V180 10SM SCT030 SCT035 SCT100 21/13 A3026 RMK AO2 T02120127
2026-04-02 20:55:00,METAR KHSP 022055Z AUTO 17010G20KT 10SM SCT032 SCT110 21/13 A3027 RMK AO2 T02130126
2026-04-02 20:35:00,METAR KHSP 022035Z AUTO 15012G21KT 130V190 10SM SCT030 SCT035 BKN110 22/13 A3027 RMK AO2 T02170126
2026-04-02 20:15:00,METAR KHSP 022015Z AUTO 15011G16KT 10SM SCT030 SCT040 BKN047 22/13 A3028 RMK AO2 T02170130
2026-04-02 19:55:00,METAR KHSP 021955Z AUTO 17012G20KT 10SM SCT032 SCT040 BKN049 21/13 A3029 RMK AO2 LTG DSNT NE T02090128
2026-04-02 19:35:00,METAR KHSP 021935Z AUTO 12008G15KT 090V150 10SM SCT033 SCT042 SCT049 21/12 A3028 RMK AO2 T02080123
2026-04-02 19:15:00,METAR KHSP 021915Z AUTO 13009KT 110V170 10SM SCT085 SCT120 22/12 A3029 RMK AO2 T02210116
2026-04-02 18:55:00,METAR KHSP 021855Z AUTO 12007KT 10SM SCT085 BKN120 21/11 A3030 RMK AO2 T02080113
2026-04-02 18:35:00,METAR KHSP 021835Z AUTO 11009G14KT 10SM SCT090 SCT110 21/12 A3030 RMK AO2 T02090118
2026-04-02 18:15:00,METAR KHSP 021815Z AUTO 12007G14KT 080V170 10SM SCT090 21/13 A3031 RMK AO2 T02120130
2026-04-02 17:55:00,METAR KHSP 021755Z AUTO 12007KT 10SM CLR 21/13 A3032 RMK AO2 T02080134 10214 20151
2026-04-02 17:35:00,METAR KHSP 021735Z AUTO 11009KT 10SM CLR 21/13 A3032 RMK AO2 T02090131
2026-04-02 17:15:00,METAR KHSP 021715Z AUTO 17006G14KT 10SM CLR 21/13 A3033 RMK AO2 T02090128
2026-04-02 16:55:00,METAR KHSP 021655Z AUTO 14008KT 090V180 10SM SCT033 20/14 A3033 RMK AO2 T02020137
2026-04-02 16:35:00,METAR KHSP 021635Z AUTO 14006KT 10SM BKN029 OVC036 21/14 A3034 RMK AO2 T02070141
2026-04-02 16:15:00,METAR KHSP 021615Z AUTO 15006KT 10SM BKN029 OVC036 20/14 A3034 RMK AO2 T02020135
2026-04-02 15:55:00,METAR KHSP 021555Z AUTO 17003KT 10SM SCT024 BKN031 BKN039 20/14 A3034 RMK AO2 T01990142
2026-04-02 15:35:00,METAR KHSP 021535Z AUTO 14006KT 10SM SCT017 SCT024 BKN038 20/14 A3034 RMK AO2 T01990141
2026-04-02 15:15:00,METAR KHSP 021515Z AUTO 22004KT 10SM SCT022 20/13 A3034 RMK AO2 T01970132
2026-04-02 14:55:00,METAR KHSP 021455Z AUTO 27005KT 10SM CLR 19/13 A3034 RMK AO2 T01940133
2026-04-02 14:35:00,METAR KHSP 021435Z AUTO 25005KT 10SM CLR 19/13 A3032 RMK AO2 T01910129
2026-04-02 14:15:00,METAR KHSP 021415Z AUTO 24005KT 10SM CLR 18/13 A3032 RMK AO2 T01830125
2026-04-02 13:55:00,METAR KHSP 021355Z AUTO 24007KT 10SM CLR 18/13 A3032 RMK AO2 T01830126
2026-04-02 13:35:00,METAR KHSP 021335Z AUTO 24007KT 10SM CLR 18/13 A3031 RMK AO2 T01800125
2026-04-02 13:15:00,METAR KHSP 021315Z AUTO 24007KT 10SM CLR 18/13 A3031 RMK AO2 T01770125
2026-04-02 12:55:00,METAR KHSP 021255Z AUTO 24007KT 10SM CLR 17/12 A3031 RMK AO2 T01720124
2026-04-02 12:35:00,METAR KHSP 021235Z AUTO 23008KT 10SM CLR 17/12 A3030 RMK AO2 T01680123
2026-04-02 12:15:00,METAR KHSP 021215Z AUTO 22006KT 10SM CLR 16/12 A3030 RMK AO2 T01580121
2026-04-02 11:55:00,METAR KHSP 021155Z AUTO 23006KT 10SM CLR 15/12 A3029 RMK AO2 70011 T01510117 10155 20129
2026-04-02 11:35:00,METAR KHSP 021135Z AUTO 23006KT 10SM SCT039 SCT049 14/11 A3028 RMK AO2 T01410111
2026-04-02 11:15:00,METAR KHSP 021115Z AUTO 24006KT 10SM SCT036 BKN041 BKN050 15/11 A3027 RMK AO2 T01480112
2026-04-02 10:55:00,METAR KHSP 021055Z AUTO 21004KT 10SM SCT034 SCT041 OVC049 15/11 A3027 RMK AO2 T01520113
2026-04-02 10:35:00,METAR KHSP 021035Z AUTO 22005KT 10SM BKN047 14/11 A3025 RMK AO2 T01410112
2026-04-02 10:15:00,METAR KHSP 021015Z AUTO 18006KT 10SM SCT047 14/12 A3025 RMK AO2 T01360115
2026-04-02 09:55:00,METAR KHSP 020955Z AUTO 23007KT 10SM CLR 14/11 A3023 RMK AO2 T01420106
2026-04-02 09:35:00,METAR KHSP 020935Z AUTO 23007KT 10SM SCT090 15/11 A3023 RMK AO2 T01450106
2026-04-02 09:15:00,METAR KHSP 020915Z AUTO 23007KT 10SM BKN090 15/11 A3023 RMK AO2 T01490107
2026-04-02 08:55:00,METAR KHSP 020855Z AUTO 22007KT 10SM SCT090 15/11 A3023 RMK AO2 T01510106
2026-04-02 08:35:00,METAR KHSP 020835Z AUTO 22007KT 10SM SCT090 15/11 A3023 RMK AO2 T01480106
2026-04-02 08:15:00,METAR KHSP 020815Z AUTO 22007KT 10SM CLR 15/11 A3023 RMK AO2 T01500106
2026-04-02 07:55:00,METAR KHSP 020755Z AUTO 22008KT 10SM CLR 15/11 A3023 RMK AO2 T01460105
2026-04-02 07:35:00,METAR KHSP 020735Z AUTO 23009KT 10SM CLR 14/11 A3023 RMK AO2 T01400107
2026-04-02 07:15:00,METAR KHSP 020715Z AUTO 23008KT 10SM CLR 14/11 A3023 RMK AO2 T01410108
2026-04-02 06:55:00,METAR KHSP 020655Z AUTO 22006KT 10SM CLR 15/11 A3023 RMK AO2 LTG DSNT SE T01480108
2026-04-02 06:35:00,METAR KHSP 020635Z AUTO 23005KT 10SM CLR 14/11 A3024 RMK AO2 T01430107
2026-04-02 06:15:00,METAR KHSP 020615Z AUTO 23005KT 10SM CLR 14/11 A3024 RMK AO2 LTG DSNT E T01360109
2026-04-02 05:55:00,METAR KHSP 020555Z AUTO 24006KT 10SM CLR 14/11 A3024 RMK AO2 60004 T01380111 10157 20135
2026-04-02 05:35:00,METAR KHSP 020535Z AUTO 26008KT 10SM CLR 14/11 A3024 RMK AO2 T01420110
2026-04-02 05:15:00,METAR KHSP 020515Z AUTO 25007KT 10SM CLR 14/12 A3024 RMK AO2 T01350115
2026-04-02 04:55:00,METAR KHSP 020455Z AUTO 26008KT 10SM CLR 14/12 A3025 RMK AO2 T01350116 402140130
2026-04-02 04:35:00,METAR KHSP 020435Z AUTO 26010KT 10SM CLR 14/12 A3025 RMK AO2 T01390116
2026-04-02 04:15:00,METAR KHSP 020415Z AUTO 25011KT 10SM CLR 14/12 A3023 RMK AO2 LTG DSNT E T01420115
2026-04-02 03:55:00,METAR KHSP 020355Z AUTO 24010KT 10SM CLR 14/11 A3023 RMK AO2 T01400111
2026-04-02 03:35:00,METAR KHSP 020335Z AUTO 23010KT 10SM CLR 15/11 A3023 RMK AO2 T01460111
2026-04-02 03:15:00,METAR KHSP 020315Z AUTO 23014G19KT 10SM SCT050 SCT075 SCT095 15/12 A3023 RMK AO2 T01460115
2026-04-02 02:55:00,METAR KHSP 020255Z AUTO 22013G19KT 10SM SCT016 BKN050 OVC075 15/12 A3023 RMK AO2 LTG DSNT E P0003 60004 T01480115
2026-04-02 02:35:00,METAR KHSP 020235Z AUTO 21012G16KT 5SM -RA SCT016 BKN036 OVC055 14/12 A3025 RMK AO2 LTG DSNT NW P0003 T01410115
2026-04-02 02:15:00,METAR KHSP 020215Z AUTO 19009G14KT 10SM SCT035 BKN044 BKN060 15/10 A3025 RMK AO2 LTG DSNT SE AND S T01480096
2026-04-02 01:55:00,METAR KHSP 020155Z AUTO 23009KT 10SM SCT044 BKN060 BKN095 16/11 A3023 RMK AO2 LTG DSNT E AND S P0001 T01550106
2026-04-02 01:35:00,METAR KHSP 020135Z AUTO 24006KT 10SM -TSRA SCT020 BKN043 OVC120 14/09 A3022 RMK AO2 LTG DSNT E AND SW P0001 T01370092
2026-04-02 01:15:00,METAR KHSP 020115Z AUTO 24009KT 10SM -TSRA SCT043 BKN080 OVC110 16/09 A3023 RMK AO2 LTG DSNT SE THRU NW T01560085
2026-04-02 00:55:00,METAR KHSP 020055Z AUTO 24009KT 10SM SCT046 SCT050 BKN110 15/09 A3023 RMK AO2 LTG DSNT SE AND SW T01460086
2026-04-02 00:35:00,METAR KHSP 020035Z AUTO 25009KT 10SM CLR 15/08 A3023 RMK AO2 LTG DSNT N THRU SE T01510084
2026-04-02 00:15:00,METAR KHSP 020015Z AUTO 22009KT 10SM SCT090 14/09 A3021 RMK AO2 LTG DSNT N THRU SE T01400089
2026-04-01 23:55:00,METAR KHSP 012355Z AUTO 24008KT 10SM VCTS SCT065 BKN090 BKN110 16/08 A3021 RMK AO2 LTG DSNT NE AND E P0001 60007 T01550083 10214 20130
2026-04-01 23:35:00,METAR KHSP 012335Z AUTO 30006G21KT 10SM -VCTSRA SCT065 OVC090 15/09 A3018 RMK AO2 LTG DSNT NE THRU S P0001 T01490087
2026-04-01 23:15:00,METAR KHSP 012315Z AUTO 26014G20KT 10SM -TSRA SCT040 BKN075 OVC085 13/11 A3019 RMK AO2 LTG DSNT E THRU S P0001 T01330106
2026-04-01 22:55:00,METAR KHSP 012255Z AUTO 27023G29KT 10SM -TSRA SCT033 SCT047 OVC070 14/11 A3016 RMK AO2 LTG DSNT ALQDS P0006 T01360110
2026-04-01 22:35:00,METAR KHSP 012235Z AUTO 26021G38KT 5SM +TSRA SCT033 SCT045 BKN050 16/11 A3018 RMK AO2 LTG DSNT ALQDS P0005 T01590107
2026-04-01 22:15:00,METAR KHSP 012215Z AUTO 24010KT 10SM CLR 19/11 A3018 RMK AO2 LTG DSNT S THRU W T01900114
2026-04-01 21:55:00,METAR KHSP 012155Z AUTO 25009KT 10SM CLR 19/11 A3018 RMK AO2 LTG DSNT NE SE AND W T01930111
2026-04-01 21:35:00,METAR KHSP 012135Z AUTO 24008KT 10SM CLR 20/11 A3019 RMK AO2 LTG DSNT E T01950112
2026-04-01 21:15:00,METAR KHSP 012115Z AUTO 25011G16KT 10SM CLR 20/11 A3019 RMK AO2 LTG DSNT N AND W T01980106
2026-04-01 20:55:00,METAR KHSP 012055Z AUTO 25012G15KT 10SM CLR 21/11 A3019 RMK AO2 LTG DSNT SW AND W T02070108
2026-04-01 20:35:00,METAR KHSP 012035Z AUTO 24006KT 10SM SCT100 21/11 A3018 RMK AO2 LTG DSNT W T02090114
2026-04-01 20:15:00,METAR KHSP 012015Z AUTO 28007KT 10SM SCT036 SCT080 SCT110 20/11 A3020 RMK AO2 LTG DSNT NE AND SE T02040111
2026-04-01 19:55:00,METAR KHSP 011955Z AUTO 25011G14KT 10SM BKN034 20/11 A3020 RMK AO2 LTG DSNT N NE AND S T01990111
2026-04-01 19:35:00,METAR KHSP 011935Z AUTO 26009G18KT 10SM SCT034 SCT041 SCT047 21/11 A3020 RMK AO2 T02120110
2026-04-01 19:15:00,METAR KHSP 011915Z AUTO 25014KT 10SM BKN034 BKN044 20/11 A3021 RMK AO2 LTG DSNT S T02010108
2026-04-01 18:55:00,METAR KHSP 011855Z AUTO 24006G16KT 10SM BKN034 BKN042 OVC065 20/11 A3021 RMK AO2 LTG DSNT SW T01980114
2026-04-01 18:35:00,METAR KHSP 011835Z AUTO 25011G17KT 10SM SCT034 BKN040 BKN050 21/11 A3021 RMK AO2 T02060113
2026-04-01 18:15:00,METAR KHSP 011815Z AUTO 27010G16KT 240V300 10SM BKN034 BKN042 OVC050 20/12 A3022 RMK AO2 LTG DSNT SE AND SW T02020115
2026-04-01 17:55:00,METAR KHSP 011755Z AUTO 25010G16KT 10SM BKN034 BKN042 OVC090 21/11 A3023 RMK AO2 LTG DSNT S AND SW T02080113 10212 20152
2026-04-01 17:35:00,METAR KHSP 011735Z AUTO 28010G16KT 10SM SCT034 SCT042 BKN090 21/11 A3024 RMK AO2 LTG DSNT S THRU NW T02100114
2026-04-01 17:15:00,METAR KHSP 011715Z AUTO 24009KT 10SM VCTS BKN034 BKN042 BKN049 21/11 A3024 RMK AO2 LTG DSNT SW AND W T02050114
2026-04-01 16:55:00,METAR KHSP 011655Z AUTO 25006KT 10SM OVC034 19/11 A3024 RMK AO2 LTG DSNT W T01900108
2026-04-01 16:35:00,METAR KHSP 011635Z AUTO 26007G14KT 240V310 10SM BKN034 OVC040 20/11 A3024 RMK AO2 LTG DSNT SW AND W T01970106
2026-04-01 16:15:00,METAR KHSP 011615Z AUTO 26008KT 10SM VCTS SCT034 BKN041 OVC055 19/11 A3025 RMK AO2 T01880106
2026-04-01 15:55:00,METAR KHSP 011555Z AUTO 22010G16KT 10SM SCT032 SCT047 BKN055 20/11 A3025 RMK AO2 LTG DSNT SW T01980108
2026-04-01 15:35:00,METAR KHSP 011535Z AUTO 25011G19KT 10SM SCT028 SCT065 20/11 A3024 RMK AO2 LTG DSNT SW AND W T01970111
2026-04-01 15:15:00,METAR KHSP 011515Z AUTO 24013KT 10SM SCT022 SCT065 19/12 A3024 RMK AO2 LTG DSNT SW AND W T01910117
2026-04-01 14:55:00,METAR KHSP 011455Z AUTO 27010G17KT 10SM SCT022 18/12 A3024 RMK AO2 T01830116
2026-04-01 14:35:00,METAR KHSP 011435Z AUTO 26010KT 10SM VCTS CLR 18/12 A3023 RMK AO2 LTG DSNT W T01810118
2026-04-01 13:55:00,METAR KHSP 011355Z AUTO 27015G21KT 10SM CLR 17/12 A3021 RMK AO2 T01690115
2026-04-01 13:35:00,METAR KHSP 011335Z AUTO 27015G25KT 10SM SCT019 17/12 A3021 RMK AO2 LTG DSNT W T01660115
2026-04-01 13:15:00,METAR KHSP 011315Z AUTO 27012G22KT 10SM BKN023 16/11 A3021 RMK AO2 LTG DSNT W T01630112
2026-04-01 12:55:00,METAR KHSP 011255Z AUTO 27017G21KT 10SM BKN023 16/11 A3021 RMK AO2 T01620112
2026-04-01 12:35:00,METAR KHSP 011235Z AUTO 26014G18KT 10SM BKN023 BKN030 16/11 A3020 RMK AO2 T01570110
2026-04-01 12:15:00,METAR KHSP 011215Z AUTO 27014G18KT 10SM SCT025 SCT030 16/11 A3020 RMK AO2 T01550110
2026-04-01 11:55:00,METAR KHSP 011155Z AUTO 27015G20KT 10SM CLR 15/11 A3018 RMK AO2 LTG DSNT W T01520109 10158 20149
2026-04-01 11:35:00,METAR KHSP 011135Z AUTO 27016G21KT 10SM SCT026 15/11 A3017 RMK AO2 T01500106
2026-04-01 11:15:00,METAR KHSP 011115Z AUTO 27015G20KT 10SM SCT026 15/11 A3017 RMK AO2 T01490105
2026-04-01 10:55:00,METAR KHSP 011055Z AUTO 27016G21KT 10SM CLR 15/11 A3016 RMK AO2 LTG DSNT W T01500105
2026-04-01 10:35:00,METAR KHSP 011035Z AUTO 27014G22KT 10SM CLR 15/11 A3016 RMK AO2 T01510105
2026-04-01 10:15:00,METAR KHSP 011015Z AUTO 26016G21KT 10SM CLR 15/10 A3015 RMK AO2 T01510102
2026-04-01 09:55:00,METAR KHSP 010955Z AUTO 27016G23KT 10SM CLR 15/10 A3014 RMK AO2 T01510101
2026-04-01 09:35:00,METAR KHSP 010935Z AUTO 27016G22KT 10SM CLR 15/10 A3014 RMK AO2 T01530100
2026-04-01 09:15:00,METAR KHSP 010915Z AUTO 27015G20KT 10SM CLR 15/10 A3014 RMK AO2 T01520099
2026-04-01 08:55:00,METAR KHSP 010855Z AUTO 27016G21KT 10SM CLR 15/10 A3014 RMK AO2 T01530098
2026-04-01 08:35:00,METAR KHSP 010835Z AUTO 27016G23KT 10SM CLR 16/10 A3013 RMK AO2 T01550098
2026-04-01 08:15:00,METAR KHSP 010815Z AUTO 26017G21KT 10SM CLR 15/10 A3014 RMK AO2 T01530096
2026-04-01 07:55:00,METAR KHSP 010755Z AUTO 26015G22KT 10SM CLR 16/10 A3014 RMK AO2 T01550095
2026-04-01 07:35:00,METAR KHSP 010735Z AUTO 26014KT 10SM CLR 16/10 A3014 RMK AO2 T01550095
2026-04-01 07:15:00,METAR KHSP 010715Z AUTO 26016G20KT 10SM CLR 16/09 A3014 RMK AO2 T01550093
2026-04-01 06:55:00,METAR KHSP 010655Z AUTO 26016G21KT 10SM CLR 16/09 A3014 RMK AO2 T01550092
2026-04-01 06:35:00,METAR KHSP 010635Z AUTO 26016G21KT 10SM CLR 16/09 A3015 RMK AO2 T01560091
2026-04-01 06:15:00,METAR KHSP 010615Z AUTO 26015G21KT 10SM CLR 16/09 A3016 RMK AO2 T01560091
2026-04-01 05:55:00,METAR KHSP 010555Z AUTO 26014G21KT 10SM CLR 16/09 A3016 RMK AO2 T01590091 10181 20158
2026-04-01 05:35:00,METAR KHSP 010535Z AUTO 25016G21KT 10SM CLR 16/09 A3016 RMK AO2 T01600091
2026-04-01 05:15:00,METAR KHSP 010515Z AUTO 24016G23KT 10SM CLR 16/09 A3016 RMK AO2 T01610092
2026-04-01 04:55:00,METAR KHSP 010455Z AUTO 24019G22KT 10SM CLR 16/10 A3016 RMK AO2 T01600095 402190111
2026-04-01 04:35:00,METAR KHSP 010435Z AUTO 24016G19KT 10SM CLR 16/10 A3016 RMK AO2 T01590097
2026-04-01 04:15:00,METAR KHSP 010415Z AUTO 23014G18KT 10SM CLR 16/10 A3016 RMK AO2 T01600097
2026-04-01 03:55:00,METAR KHSP 010355Z AUTO 23011G16KT 10SM CLR 16/10 A3016 RMK AO2 T01590096
2026-04-01 03:35:00,METAR KHSP 010335Z AUTO 23012G17KT 10SM CLR 16/10 A3016 RMK AO2 T01610097
2026-04-01 03:15:00,METAR KHSP 010315Z AUTO 22010G15KT 10SM CLR 16/10 A3016 RMK AO2 T01640097
2026-04-01 02:55:00,METAR KHSP 010255Z AUTO 22012G17KT 10SM CLR 17/09 A3015 RMK AO2 T01700091
2026-04-01 02:35:00,METAR KHSP 010235Z AUTO 22008G14KT 10SM CLR 17/08 A3015 RMK AO2 LTG DSNT W T01720078
2026-04-01 02:15:00,METAR KHSP 010215Z AUTO 22010G19KT 10SM CLR 18/08 A3015 RMK AO2 T01760075
2026-04-01 01:55:00,METAR KHSP 010155Z AUTO 21011G16KT 10SM CLR 17/07 A3015 RMK AO2 T01730073
2026-04-01 01:35:00,METAR KHSP 010135Z AUTO 22010G17KT 10SM CLR 18/07 A3015 RMK AO2 T01750073
2026-04-01 01:15:00,METAR KHSP 010115Z AUTO 22010KT 10SM CLR 17/07 A3015 RMK AO2 T01710072
2026-04-01 00:55:00,METAR KHSP 010055Z AUTO 24014G18KT 10SM CLR 18/07 A3015 RMK AO2 T01770071
2026-04-01 00:35:00,METAR KHSP 010035Z AUTO 24015KT 10SM CLR 18/07 A3015 RMK AO2 T01780070
2026-04-01 00:15:00,METAR KHSP 010015Z AUTO 24013G20KT 10SM CLR 18/07 A3015 RMK AO2 T01790066
2026-03-31 23:55:00,METAR KHSP 312355Z AUTO 23014G18KT 10SM CLR 18/07 A3015 RMK AO2 T01790065 10219 20179
2026-03-31 23:35:00,METAR KHSP 312335Z AUTO 24017G22KT 10SM CLR 19/06 A3015 RMK AO2 T01850063
2026-03-31 23:15:00,METAR KHSP 312315Z AUTO 24012G17KT 10SM CLR 19/06 A3015 RMK AO2 T01900064
2026-03-31 22:55:00,METAR KHSP 312255Z AUTO 23015G19KT 10SM CLR 19/07 A3015 RMK AO2 T01940068
2026-03-31 22:35:00,METAR KHSP 312235Z AUTO 24012G18KT 10SM SCT060 SCT070 20/07 A3015 RMK AO2 T02010072
2026-03-31 22:15:00,METAR KHSP 312215Z AUTO 22013G21KT 10SM SCT060 SCT070 20/07 A3015 RMK AO2 LTG DSNT NE T02020071
2026-03-31 21:55:00,METAR KHSP 312155Z AUTO 23014G22KT 10SM SCT060 SCT070 21/07 A3015 RMK AO2 T02070071
2026-03-31 21:35:00,METAR KHSP 312135Z AUTO 23016G20KT 10SM SCT060 SCT070 21/07 A3016 RMK AO2 LTG DSNT N T02130073
2026-03-31 21:15:00,METAR KHSP 312115Z AUTO 23012G20KT 10SM SCT050 SCT060 21/07 A3016 RMK AO2 LTG DSNT NW T02080073
2026-03-31 20:55:00,METAR KHSP 312055Z AUTO 23011G21KT 10SM BKN050 BKN065 21/08 A3016 RMK AO2 T02130079
2026-03-31 20:35:00,METAR KHSP 312035Z AUTO 23012G20KT 10SM SCT050 BKN065 BKN075 21/08 A3016 RMK AO2 T02050077
2026-03-31 20:15:00,METAR KHSP 312015Z AUTO 23013G25KT 10SM SCT049 SCT065 22/08 A3016 RMK AO2 T02180082
2026-03-31 19:55:00,METAR KHSP 311955Z AUTO 23013G21KT 10SM SCT049 BKN065 22/08 A3016 RMK AO2 T02150084
2026-03-31 19:35:00,METAR KHSP 311935Z AUTO 23013G21KT 10SM SCT060 BKN070 22/08 A3017 RMK AO2 T02170082
2026-03-31 19:15:00,METAR KHSP 311915Z AUTO 24014G19KT 10SM SCT042 SCT048 BKN060 21/09 A3018 RMK AO2 LTG DSNT N T02140087
2026-03-31 18:55:00,METAR KHSP 311855Z AUTO 21009G16KT 180V250 10SM SCT042 SCT050 BKN070 21/09 A3019 RMK AO2 LTG DSNT N T02090091
2026-03-31 18:35:00,METAR KHSP 311835Z AUTO 24012G18KT 200V270 10SM SCT042 SCT070 21/09 A3020 RMK AO2 LTG DSNT N T02060091
2026-03-31 18:15:00,METAR KHSP 311815Z AUTO 22013G18KT 10SM SCT070 20/10 A3021 RMK AO2 LTG DSNT N T02040101
2026-03-31 17:55:00,METAR KHSP 311755Z AUTO 24013G20KT 10SM SCT032 SCT041 SCT070 20/10 A3021 RMK AO2 T02020103 10204 20122
2026-03-31 17:35:00,METAR KHSP 311735Z AUTO 24009KT 10SM SCT032 SCT038 SCT060 20/11 A3022 RMK AO2 T01970108
2026-03-31 17:15:00,METAR KHSP 311715Z AUTO 24010KT 10SM SCT030 SCT037 BKN055 19/11 A3023 RMK AO2 T01930110
2026-03-31 16:55:00,METAR KHSP 311655Z AUTO 24011G21KT 210V270 10SM SCT026 BKN034 BKN042 19/11 A3023 RMK AO2 T01910108
2026-03-31 16:35:00,METAR KHSP 311635Z AUTO 26010KT 10SM BKN024 BKN032 OVC050 18/11 A3024 RMK AO2 LTG DSNT NW T01760105
2026-03-31 16:15:00,METAR KHSP 311615Z AUTO 26011G17KT 10SM BKN024 18/11 A3024 RMK AO2 T01830110
2026-03-31 15:55:00,METAR KHSP 311555Z AUTO 25014G20KT 10SM BKN022 18/11 A3024 RMK AO2 T01810111
2026-03-31 15:35:00,METAR KHSP 311535Z AUTO 26011G20KT 10SM OVC020 17/11 A3025 RMK AO2 T01740111
2026-03-31 15:15:00,METAR KHSP 311515Z AUTO 27013G21KT 10SM OVC018 17/11 A3024 RMK AO2 T01650109
2026-03-31 14:55:00,METAR KHSP 311455Z AUTO 27013G21KT 240V300 10SM OVC016 16/11 A3025 RMK AO2 T01570109
2026-03-31 14:35:00,METAR KHSP 311435Z AUTO 26014G21KT 10SM OVC014 15/11 A3025 RMK AO2 LTG DSNT N AND NW T01500106
2026-03-31 14:15:00,METAR KHSP 311415Z AUTO 25012G23KT 10SM OVC014 14/10 A3025 RMK AO2 T01430103
2026-03-31 13:55:00,METAR KHSP 311355Z AUTO 26013G19KT 10SM OVC014 14/10 A3025 RMK AO2 T01410102
2026-03-31 13:35:00,METAR KHSP 311335Z AUTO 26014G21KT 10SM OVC014 14/10 A3025 RMK AO2 T01400100
2026-03-31 13:15:00,METAR KHSP 311315Z AUTO 26015G23KT 10SM OVC016 14/10 A3025 RMK AO2 T01370099
2026-03-31 12:55:00,METAR KHSP 311255Z AUTO 26018G27KT 10SM OVC016 14/10 A3024 RMK AO2 T01350097
2026-03-31 12:35:00,METAR KHSP 311235Z AUTO 26016G22KT 10SM OVC016 13/10 A3024 RMK AO2 T01300096
2026-03-31 12:15:00,METAR KHSP 311215Z AUTO 26017G25KT 10SM OVC018 13/09 A3024 RMK AO2 T01250094
2026-03-31 11:55:00,METAR KHSP 311155Z AUTO 27020G25KT 10SM BKN020 12/09 A3024 RMK AO2 LTG DSNT N 70012 T01210093 10121 20111
2026-03-31 11:35:00,METAR KHSP 311135Z AUTO 26017G22KT 10SM SCT019 SCT033 SCT040 12/09 A3023 RMK AO2 T01160090
2026-03-31 11:15:00,METAR KHSP 311115Z AUTO 26017G24KT 10SM BKN021 BKN029 BKN038 12/09 A3023 RMK AO2 T01150090
2026-03-31 10:55:00,METAR KHSP 311055Z AUTO 26018G23KT 10SM OVC021 12/09 A3023 RMK AO2 LTG DSNT N T01150090
2026-03-31 10:35:00,METAR KHSP 311035Z AUTO 26016G23KT 10SM BKN021 BKN026 BKN046 12/09 A3022 RMK AO2 T01150088
2026-03-31 10:15:00,METAR KHSP 311015Z AUTO 26018G25KT 10SM SCT023 SCT029 BKN042 12/09 A3022 RMK AO2 T01150088
2026-03-31 09:55:00,METAR KHSP 310955Z AUTO 26017G21KT 10SM BKN040 12/09 A3022 RMK AO2 T01150087
2026-03-31 09:35:00,METAR KHSP 310935Z AUTO 26019KT 10SM OVC038 12/09 A3021 RMK AO2 T01150086
2026-03-31 09:15:00,METAR KHSP 310915Z AUTO 26016G20KT 10SM OVC034 12/09 A3021 RMK AO2 T01150086
2026-03-31 08:55:00,METAR KHSP 310855Z AUTO 25015KT 10SM SCT036 11/09 A3021 RMK AO2 T01110085
2026-03-31 08:35:00,METAR KHSP 310835Z AUTO 25014G21KT 10SM CLR 11/09 A3021 RMK AO2 T01140085
2026-03-31 08:15:00,METAR KHSP 310815Z AUTO 25016KT 10SM CLR 11/09 A3021 RMK AO2 T01130085
2026-03-31 07:55:00,METAR KHSP 310755Z AUTO 25015KT 10SM CLR 11/09 A3021 RMK AO2 LTG DSNT N T01120085
2026-03-31 07:35:00,METAR KHSP 310735Z AUTO 24015KT 10SM CLR 11/09 A3021 RMK AO2 T01120085
2026-03-31 07:15:00,METAR KHSP 310715Z AUTO 23014G18KT 10SM CLR 11/08 A3022 RMK AO2 LTG DSNT N T01120084
2026-03-31 06:55:00,METAR KHSP 310655Z AUTO 23013KT 10SM CLR 11/08 A3022 RMK AO2 LTG DSNT N T01120083
2026-03-31 06:35:00,METAR KHSP 310635Z AUTO 23015G19KT 10SM CLR 11/08 A3022 RMK AO2 LTG DSNT N T01140084
2026-03-31 06:15:00,METAR KHSP 310615Z AUTO 23013KT 10SM CLR 12/09 A3023 RMK AO2 T01150085
2026-03-31 05:55:00,METAR KHSP 310555Z AUTO 23013G18KT 10SM CLR 12/08 A3023 RMK AO2 T01150083 10132 20115
2026-03-31 05:35:00,METAR KHSP 310535Z AUTO 22013G17KT 10SM CLR 12/08 A3023 RMK AO2 T01170082
2026-03-31 05:15:00,METAR KHSP 310515Z AUTO 22013KT 10SM CLR 12/08 A3024 RMK AO2 T01200082
2026-03-31 04:55:00,METAR KHSP 310455Z AUTO 22013G19KT 10SM CLR 12/08 A3025 RMK AO2 T01200082 401490065
2026-03-31 04:35:00,METAR KHSP 310435Z AUTO 22012G17KT 10SM CLR 12/08 A3025 RMK AO2 LTG DSNT N T01190081
2026-03-31 04:15:00,METAR KHSP 310415Z AUTO 21011G16KT 10SM CLR 12/08 A3025 RMK AO2 LTG DSNT N T01200082
2026-03-31 03:55:00,METAR KHSP 310355Z AUTO 21013G19KT 10SM CLR 12/08 A3025 RMK AO2 LTG DSNT N T01200082
2026-03-31 03:35:00,METAR KHSP 310335Z AUTO 21012G19KT 10SM CLR 12/08 A3026 RMK AO2 LTG DSNT N T01200082
2026-03-31 03:15:00,METAR KHSP 310315Z AUTO 22013G16KT 10SM CLR 12/08 A3026 RMK AO2 LTG DSNT N T01220082
2026-03-31 02:55:00,METAR KHSP 310255Z AUTO 21010G15KT 10SM CLR 12/08 A3026 RMK AO2 LTG DSNT N T01220082
2026-03-31 02:35:00,METAR KHSP 310235Z AUTO 22011G17KT 10SM CLR 13/08 A3027 RMK AO2 LTG DSNT N T01250082
2026-03-31 02:15:00,METAR KHSP 310215Z AUTO 22010G16KT 10SM CLR 13/08 A3027 RMK AO2 LTG DSNT N T01260082
2026-03-31 01:55:00,METAR KHSP 310155Z AUTO 21010G14KT 10SM SCT049 13/08 A3028 RMK AO2 T01250081
2026-03-31 01:35:00,METAR KHSP 310135Z AUTO 21010G15KT 10SM BKN049 13/08 A3028 RMK AO2 T01290081
2026-03-31 01:15:00,METAR KHSP 310115Z AUTO 21009G14KT 10SM OVC049 13/08 A3028 RMK AO2 LTG DSNT N T01280081
2026-03-31 00:55:00,METAR KHSP 310055Z AUTO 22008G15KT 10SM SCT035 BKN049 13/08 A3027 RMK AO2 T01290081
2026-03-31 00:35:00,METAR KHSP 310035Z AUTO 22010KT 10SM BKN033 OVC049 13/08 A3027 RMK AO2 T01290082
2026-03-31 00:15:00,METAR KHSP 310015Z AUTO 22010KT 10SM SCT029 BKN036 OVC049 13/08 A3026 RMK AO2 T01310083
2026-03-30 23:55:00,METAR KHSP 302355Z AUTO 22010G14KT 10SM OVC045 13/08 A3026 RMK AO2 T01320083 10149 20114
2026-03-30 23:35:00,METAR KHSP 302335Z AUTO 21007KT 10SM OVC041 13/09 A3026 RMK AO2 T01300085
2026-03-30 23:15:00,METAR KHSP 302315Z AUTO 20006KT 10SM BKN039 OVC046 13/09 A3026 RMK AO2 T01320085
2026-03-30 22:55:00,METAR KHSP 302255Z AUTO 19005KT 10SM SCT039 OVC048 13/09 A3026 RMK AO2 T01320085
2026-03-30 22:35:00,METAR KHSP 302235Z AUTO 21005G08KT 10SM BKN041 BKN048 14/08 A3025 RMK AO2 T01380083
2026-03-30 22:15:00,METAR KHSP 302215Z AUTO 21009G14KT 10SM BKN041 BKN050 14/08 A3025 RMK AO2 T01400082
2026-03-30 21:55:00,METAR KHSP 302155Z AUTO 19006KT 10SM SCT024 BKN045 14/08 A3025 RMK AO2 T01350082
2026-03-30 21:35:00,METAR KHSP 302135Z AUTO 21007KT 10SM BKN022 14/08 A3026 RMK AO2 T01400083
2026-03-30 21:15:00,METAR KHSP 302115Z AUTO 21007KT 160V270 10SM BKN022 14/09 A3026 RMK AO2 T01440087
2026-03-30 20:55:00,METAR KHSP 302055Z AUTO 23011KT 10SM BKN020 BKN038 OVC055 15/09 A3026 RMK AO2 T01450086
2026-03-30 20:35:00,METAR KHSP 302035Z AUTO 21005KT 10SM OVC020 14/08 A3027 RMK AO2 T01350084
2026-03-30 20:15:00,METAR KHSP 302015Z AUTO 22008KT 10SM OVC018 13/09 A3027 RMK AO2 T01310085
2026-03-30 19:55:00,METAR KHSP 301955Z AUTO 23010KT 10SM OVC018 13/09 A3028 RMK AO2 T01280085
2026-03-30 19:35:00,METAR KHSP 301935Z AUTO 23010KT 10SM OVC016 12/08 A3028 RMK AO2 T01200083
2026-03-30 19:15:00,METAR KHSP 301915Z AUTO 24010KT 10SM OVC016 12/08 A3029 RMK AO2 T01190081
2026-03-30 18:55:00,METAR KHSP 301855Z AUTO 24011G16KT 10SM BKN016 BKN020 OVC036 13/08 A3029 RMK AO2 T01260082
2026-03-30 18:35:00,METAR KHSP 301835Z AUTO 25009KT 10SM OVC014 11/08 A3030 RMK AO2 T01140081
2026-03-30 18:15:00,METAR KHSP 301815Z AUTO 24010KT 10SM BKN014 BKN022 OVC028 12/08 A3031 RMK AO2 T01160081
2026-03-30 17:55:00,METAR KHSP 301755Z AUTO 24012KT 10SM BKN014 BKN019 OVC028 12/09 A3031 RMK AO2 60012 T01170089 10117 20065
2026-03-30 17:35:00,METAR KHSP 301735Z AUTO 25012KT 10SM OVC014 11/08 A3031 RMK AO2 T01060084
2026-03-30 17:15:00,METAR KHSP 301715Z AUTO 24014KT 10SM OVC014 10/08 A3031 RMK AO2 T00950079
2026-03-30 16:55:00,METAR KHSP 301655Z AUTO 25013KT 10SM OVC014 09/08 A3032 RMK AO2 T00910076
2026-03-30 16:35:00,METAR KHSP 301635Z AUTO 25013KT 10SM -DZ SCT012 BKN029 OVC075 09/08 A3032 RMK AO2 T00860075
2026-03-30 16:15:00,METAR KHSP 301615Z AUTO 25014KT 7SM -RA BKN010 BKN029 OVC065 09/07 A3032 RMK AO2 T00850074
2026-03-30 15:55:00,METAR KHSP 301555Z AUTO 26014KT 7SM -RA BKN010 BKN019 OVC065 08/06 A3033 RMK AO2 T00830061
2026-03-30 15:35:00,METAR KHSP 301535Z AUTO 26013KT 7SM -RA BKN010 BKN027 OVC049 08/07 A3034 RMK AO2 T00790066
2026-03-30 15:15:00,METAR KHSP 301515Z AUTO 25013KT 10SM SCT020 BKN048 OVC075 08/06 A3034 RMK AO2 T00780062
2026-03-30 14:55:00,METAR KHSP 301455Z AUTO 26013KT 10SM -DZ BKN018 BKN038 OVC075 07/06 A3033 RMK AO2 P0003 60012 T00740056
2026-03-30 14:35:00,METAR KHSP 301435Z AUTO 26013KT 10SM DZ BKN018 BKN027 OVC070 07/05 A3033 RMK AO2 P0003 T00730054
2026-03-30 14:15:00,METAR KHSP 301415Z AUTO 26014G19KT 7SM RA SCT018 BKN050 OVC070 07/05 A3033 RMK AO2 P0002 T00710050
2026-03-30 13:55:00,METAR KHSP 301355Z AUTO 26011KT 10SM -RA SCT020 BKN024 OVC060 07/04 A3033 RMK AO2 LTG DSNT S P0007 T00670044
2026-03-30 13:35:00,METAR KHSP 301335Z AUTO 26012G18KT 7SM -RA SCT020 SCT038 OVC060 07/04 A3033 RMK AO2 P0006 T00690040
2026-03-30 13:15:00,METAR KHSP 301315Z AUTO 27012KT 7SM -RA SCT046 OVC060 07/03 A3032 RMK AO2 P0003 T00660031
2026-03-30 12:55:00,METAR KHSP 301255Z AUTO 27014KT 10SM -RA SCT041 BKN049 OVC070 07/03 A3032 RMK AO2 P0001 T00720025
2026-03-30 12:35:00,METAR KHSP 301235Z AUTO 27014G20KT 10SM SCT036 OVC043 09/01 A3032 RMK AO2 LTG DSNT W T00860007
2026-03-30 12:15:00,METAR KHSP 301215Z AUTO 26014KT 10SM OVC041 08/00 A3031 RMK AO2 LTG DSNT SW AND W T00820004
2026-03-30 11:55:00,METAR KHSP 301155Z AUTO 27014KT 10SM BKN041 BKN060 OVC070 08/01 A3031 RMK AO2 T00770006 10083 20066
2026-03-30 11:35:00,METAR KHSP 301135Z AUTO 27016G19KT 10SM BKN041 OVC070 08/M01 A3030 RMK AO2 LTG DSNT W T00831015
2026-03-30 11:15:00,METAR KHSP 301115Z AUTO 27013KT 10SM SCT029 OVC043 08/M02 A3030 RMK AO2 LTG DSNT W T00821020
2026-03-30 10:55:00,METAR KHSP 301055Z AUTO 26012G16KT 10SM OVC043 08/M02 A3030 RMK AO2 LTG DSNT W T00801022
2026-03-30 10:35:00,METAR KHSP 301035Z AUTO 26012KT 10SM OVC045 08/M02 A3030 RMK AO2 T00781022
2026-03-30 10:15:00,METAR KHSP 301015Z AUTO 25015KT 10SM SCT041 08/M02 A3028 RMK AO2 LTG DSNT W T00751024
2026-03-30 09:55:00,METAR KHSP 300955Z AUTO 26010KT 10SM CLR 07/M03 A3028 RMK AO2 LTG DSNT W T00711026
2026-03-30 09:35:00,METAR KHSP 300935Z AUTO 25012G17KT 10SM SCT070 07/M03 A3028 RMK AO2 T00731030
2026-03-30 09:15:00,METAR KHSP 300915Z AUTO 25014KT 10SM OVC070 08/M03 A3028 RMK AO2 LTG DSNT NW T00781030
2026-03-30 08:55:00,METAR KHSP 300855Z AUTO 24010KT 10SM OVC070 08/M03 A3028 RMK AO2 T00781032
2026-03-30 08:35:00,METAR KHSP 300835Z AUTO 23010G16KT 10SM BKN070 08/M03 A3028 RMK AO2 T00771034
2026-03-30 08:15:00,METAR KHSP 300815Z AUTO 24011KT 10SM CLR 07/M04 A3028 RMK AO2 T00681036
2026-03-30 07:55:00,METAR KHSP 300755Z AUTO 23011G17KT 10SM CLR 08/M04 A3028 RMK AO2 T00751043
2026-03-30 07:35:00,METAR KHSP 300735Z AUTO 22011KT 10SM CLR 07/M04 A3028 RMK AO2 T00711037
2026-03-30 07:15:00,METAR KHSP 300715Z AUTO 23010KT 10SM CLR 07/M03 A3028 RMK AO2 T00671033
2026-03-30 06:55:00,METAR KHSP 300655Z AUTO 22010KT 10SM CLR 07/M03 A3028 RMK AO2 T00671031
2026-03-30 06:35:00,METAR KHSP 300635Z AUTO 22010KT 10SM CLR 07/M03 A3029 RMK AO2 T00681035
2026-03-30 06:15:00,METAR KHSP 300615Z AUTO 22011KT 10SM CLR 07/M04 A3029 RMK AO2 T00691040
2026-03-30 05:55:00,METAR KHSP 300555Z AUTO 22011G16KT 10SM CLR 07/M04 A3030 RMK AO2 T00701040 10080 20069
2026-03-30 05:35:00,METAR KHSP 300535Z AUTO 22012G16KT 10SM CLR 07/M04 A3031 RMK AO2 T00721043
2026-03-30 05:15:00,METAR KHSP 300515Z AUTO 22011G17KT 10SM CLR 07/M04 A3031 RMK AO2 T00741045
2026-03-30 04:55:00,METAR KHSP 300455Z AUTO 21011G17KT 10SM SCT085 08/M05 A3032 RMK AO2 T00761055 401141005
2026-03-30 04:35:00,METAR KHSP 300435Z AUTO 21009G17KT 10SM BKN085 08/M06 A3032 RMK AO2 T00781060
2026-03-30 04:15:00,METAR KHSP 300415Z AUTO 21010G18KT 10SM SCT085 BKN100 08/M07 A3033 RMK AO2 T00781066
2026-03-30 03:55:00,METAR KHSP 300355Z AUTO 21010G18KT 10SM BKN110 08/M08 A3034 RMK AO2 T00791078
2026-03-30 03:35:00,METAR KHSP 300335Z AUTO 21012G16KT 10SM BKN100 08/M09 A3034 RMK AO2 T00761091
2026-03-30 03:15:00,METAR KHSP 300315Z AUTO 20010G15KT 10SM BKN100 BKN110 08/M10 A3034 RMK AO2 T00751101
2026-03-30 02:55:00,METAR KHSP 300255Z AUTO 20010G17KT 10SM OVC100 08/M10 A3034 RMK AO2 T00761103
2026-03-30 02:35:00,METAR KHSP 300235Z AUTO 20009G17KT 10SM OVC100 08/M10 A3034 RMK AO2 T00761105
2026-03-30 02:15:00,METAR KHSP 300215Z AUTO 19011G17KT 10SM OVC100 08/M10 A3034 RMK AO2 T00751104
2026-03-30 01:55:00,METAR KHSP 300155Z AUTO 19009KT 10SM OVC100 08/M10 A3034 RMK AO2 T00751100
2026-03-30 01:35:00,METAR KHSP 300135Z AUTO 18011G15KT 10SM OVC100 08/M09 A3034 RMK AO2 T00751092
2026-03-30 01:15:00,METAR KHSP 300115Z AUTO 18007KT 10SM BKN110 07/M09 A3033 RMK AO2 T00721089
2026-03-30 00:55:00,METAR KHSP 300055Z AUTO 18006KT 10SM BKN110 07/M09 A3033 RMK AO2 T00721086
2026-03-30 00:35:00,METAR KHSP 300035Z AUTO 17009G15KT 10SM SCT110 08/M08 A3033 RMK AO2 T00751085
2026-03-30 00:15:00,METAR KHSP 300015Z AUTO 17008KT 10SM SCT100 08/M08 A3034 RMK AO2 T00751085
2026-03-29 23:55:00,METAR KHSP 292355Z AUTO 17010G14KT 10SM BKN100 08/M08 A3034 RMK AO2 T00781084 10114 20078
2026-03-29 23:35:00,METAR KHSP 292335Z AUTO 18011G16KT 10SM OVC100 08/M08 A3035 RMK AO2 T00821084
2026-03-29 23:15:00,METAR KHSP 292315Z AUTO 18008KT 10SM SCT100 09/M08 A3035 RMK AO2 T00851080
2026-03-29 22:55:00,METAR KHSP 292255Z AUTO 17008G15KT 10SM CLR 09/M07 A3035 RMK AO2 T00921075
2026-03-29 22:35:00,METAR KHSP 292235Z AUTO 16008KT 10SM CLR 10/M07 A3035 RMK AO2 T00991071
2026-03-29 22:15:00,METAR KHSP 292215Z AUTO 16010G18KT 10SM CLR 10/M07 A3034 RMK AO2 T01001070
2026-03-29 21:55:00,METAR KHSP 292155Z AUTO 17011G16KT 10SM CLR 10/M07 A3034 RMK AO2 T01031068
2026-03-29 21:35:00,METAR KHSP 292135Z AUTO 16011G18KT 10SM CLR 11/M07 A3035 RMK AO2 T01051067
2026-03-29 21:15:00,METAR KHSP 292115Z AUTO 18008G16KT 10SM CLR 11/M06 A3035 RMK AO2 T01081065
2026-03-29 20:55:00,METAR KHSP 292055Z AUTO 16010G16KT 10SM CLR 11/M06 A3036 RMK AO2 T01091064
2026-03-29 20:35:00,METAR KHSP 292035Z AUTO 16011KT 10SM CLR 11/M06 A3036 RMK AO2 T01121062
2026-03-29 20:15:00,METAR KHSP 292015Z AUTO 16008G19KT 10SM CLR 11/M06 A3036 RMK AO2 T01101061
2026-03-29 19:55:00,METAR KHSP 291955Z AUTO 15010G17KT 10SM CLR 11/M06 A3036 RMK AO2 T01061060
2026-03-29 19:35:00,METAR KHSP 291935Z AUTO 16011G16KT 130V200 10SM CLR 11/M06 A3037 RMK AO2 T01131056
2026-03-29 19:15:00,METAR KHSP 291915Z AUTO 16009G17KT 10SM CLR 11/M05 A3038 RMK AO2 T01071054
2026-03-29 18:55:00,METAR KHSP 291855Z AUTO 16009G15KT 10SM CLR 11/M05 A3039 RMK AO2 T01061051
2026-03-29 18:35:00,METAR KHSP 291835Z AUTO 19005G14KT 10SM CLR 10/M05 A3040 RMK AO2 T01031051
2026-03-29 18:15:00,METAR KHSP 291815Z AUTO 16009KT 120V180 10SM CLR 10/M05 A3041 RMK AO2 T01031049
2026-03-29 17:55:00,METAR KHSP 291755Z AUTO 17008G16KT 130V190 10SM CLR 10/M05 A3042 RMK AO2 T00951053 10095 20015
2026-03-29 17:35:00,METAR KHSP 291735Z AUTO 17008KT 10SM CLR 08/M05 A3043 RMK AO2 T00841053
2026-03-29 17:15:00,METAR KHSP 291715Z AUTO 13007G18KT 10SM CLR 09/M05 A3044 RMK AO2 T00861050
2026-03-29 16:55:00,METAR KHSP 291655Z AUTO 14009KT 10SM CLR 08/M05 A3045 RMK AO2 T00791050
2026-03-29 16:35:00,METAR KHSP 291635Z AUTO 16009G16KT 10SM CLR 08/M06 A3045 RMK AO2 T00801057
2026-03-29 16:15:00,METAR KHSP 291615Z AUTO 17004KT 10SM CLR 08/M05 A3046 RMK AO2 T00751050
2026-03-29 15:55:00,METAR KHSP 291555Z AUTO 20005KT 10SM CLR 07/M05 A3047 RMK AO2 T00681053
2026-03-29 15:35:00,METAR KHSP 291535Z AUTO 16006KT 10SM CLR 06/M06 A3047 RMK AO2 T00601056
2026-03-29 15:15:00,METAR KHSP 291515Z AUTO 16004KT 10SM CLR 06/M06 A3047 RMK AO2 T00621064
2026-03-29 14:55:00,METAR KHSP 291455Z AUTO 13005KT 10SM CLR 05/M06 A3047 RMK AO2 T00541060
2026-03-29 14:35:00,METAR KHSP 291435Z AUTO 22004KT 10SM CLR 05/M07 A3047 RMK AO2 T00471072
2026-03-29 14:15:00,METAR KHSP 291415Z AUTO 17004KT 10SM CLR 04/M07 A3047 RMK AO2 T00401067
2026-03-29 13:55:00,METAR KHSP 291355Z AUTO 15005KT 10SM CLR 03/M07 A3046 RMK AO2 T00311074
2026-03-29 13:35:00,METAR KHSP 291335Z AUTO 17004KT 10SM CLR 04/M08 A3046 RMK AO2 T00371076
2026-03-29 13:15:00,METAR KHSP 291315Z AUTO 20007KT 10SM CLR 03/M08 A3045 RMK AO2 T00301085
2026-03-29 12:55:00,METAR KHSP 291255Z AUTO 17007KT 10SM CLR 02/M08 A3045 RMK AO2 T00241081
2026-03-29 12:35:00,METAR KHSP 291235Z AUTO 19008KT 10SM CLR 03/M09 A3045 RMK AO2 T00251087
2026-03-29 12:15:00,METAR KHSP 291215Z AUTO 21008KT 10SM CLR 02/M09 A3045 RMK AO2 T00221090
2026-03-29 11:55:00,METAR KHSP 291155Z AUTO 20007G14KT 10SM CLR 01/M09 A3045 RMK AO2 T00131090 10013 21005
2026-03-29 11:35:00,METAR KHSP 291135Z AUTO 20009KT 10SM CLR 01/M09 A3043 RMK AO2 T00071092
2026-03-29 11:15:00,METAR KHSP 291115Z AUTO 20009G16KT 10SM CLR 00/M09 A3043 RMK AO2 T00041095
2026-03-29 10:55:00,METAR KHSP 291055Z AUTO 19007KT 10SM CLR 00/M10 A3043 RMK AO2 T00031096
2026-03-29 10:35:00,METAR KHSP 291035Z AUTO 20009KT 10SM CLR 00/M09 A3043 RMK AO2 T00011095
2026-03-29 10:15:00,METAR KHSP 291015Z AUTO 18010KT 10SM CLR 00/M09 A3043 RMK AO2 T10051086
2026-03-29 09:55:00,METAR KHSP 290955Z AUTO 18011KT 10SM CLR 00/M09 A3042 RMK AO2 T10031087
2026-03-29 09:35:00,METAR KHSP 290935Z AUTO 19009KT 10SM CLR 00/M09 A3042 RMK AO2 T10011088
2026-03-29 09:15:00,METAR KHSP 290915Z AUTO 18010KT 10SM CLR 00/M09 A3042 RMK AO2 T00001090
2026-03-29 08:55:00,METAR KHSP 290855Z AUTO 18009KT 10SM CLR 00/M09 A3042 RMK AO2 T10011090
2026-03-29 08:35:00,METAR KHSP 290835Z AUTO 18007KT 10SM CLR 00/M09 A3042 RMK AO2 T00001090
2026-03-29 08:15:00,METAR KHSP 290815Z AUTO 17008KT 10SM CLR 00/M09 A3042 RMK AO2 T00001090
2026-03-29 07:55:00,METAR KHSP 290755Z AUTO 17006KT 10SM CLR 00/M09 A3042 RMK AO2 T00001090
2026-03-29 07:35:00,METAR KHSP 290735Z AUTO 17007KT 10SM CLR 00/M09 A3042 RMK AO2 T00031092
2026-03-29 07:15:00,METAR KHSP 290715Z AUTO 18006KT 10SM CLR 00/M10 A3042 RMK AO2 T00011100
2026-03-29 06:55:00,METAR KHSP 290655Z AUTO 16006KT 10SM CLR 00/M11 A3043 RMK AO2 T00001115
2026-03-29 06:35:00,METAR KHSP 290635Z AUTO 13005KT 10SM CLR 00/M12 A3043 RMK AO2 T00011117
2026-03-29 06:15:00,METAR KHSP 290615Z AUTO 13004KT 10SM CLR 00/M12 A3044 RMK AO2 T00021116
2026-03-29 05:55:00,METAR KHSP 290555Z AUTO 12004KT 10SM CLR 00/M12 A3045 RMK AO2 T00031118 10024 21002
2026-03-29 05:35:00,METAR KHSP 290535Z AUTO 13003KT 10SM CLR 01/M12 A3045 RMK AO2 T00051122
2026-03-29 05:15:00,METAR KHSP 290515Z AUTO 10003KT 10SM CLR 00/M12 A3046 RMK AO2 T00001118
2026-03-29 04:55:00,METAR KHSP 290455Z AUTO 12004KT 10SM CLR 00/M12 A3045 RMK AO2 T00011120 400541046
2026-03-29 04:35:00,METAR KHSP 290435Z AUTO 13004KT 10SM CLR 00/M12 A3045 RMK AO2 T00041125
2026-03-29 04:15:00,METAR KHSP 290415Z AUTO 15003KT 10SM CLR 01/M13 A3045 RMK AO2 T00091131
2026-03-29 03:55:00,METAR KHSP 290355Z AUTO 17003KT 10SM CLR 01/M13 A3045 RMK AO2 T00051128
2026-03-29 03:35:00,METAR KHSP 290335Z AUTO 00000KT 10SM CLR 00/M12 A3045 RMK AO2 T00031122
2026-03-29 03:15:00,METAR KHSP 290315Z AUTO 00000KT 10SM CLR 01/M12 A3044 RMK AO2 T00061120
2026-03-29 02:55:00,METAR KHSP 290255Z AUTO 30004KT 10SM CLR 01/M12 A3043 RMK AO2 T00051119
2026-03-29 02:35:00,METAR KHSP 290235Z AUTO 30005KT 10SM CLR 01/M12 A3043 RMK AO2 T00071120
2026-03-29 02:15:00,METAR KHSP 290215Z AUTO 29005KT 10SM CLR 01/M12 A3043 RMK AO2 T00071119
2026-03-29 01:55:00,METAR KHSP 290155Z AUTO 30006KT 10SM CLR 01/M12 A3043 RMK AO2 T00101120
2026-03-29 01:35:00,METAR KHSP 290135Z AUTO 30005KT 10SM CLR 01/M12 A3043 RMK AO2 T00111120
2026-03-29 01:15:00,METAR KHSP 290115Z AUTO 31006KT 10SM CLR 01/M12 A3043 RMK AO2 T00131122
2026-03-29 00:55:00,METAR KHSP 290055Z AUTO 30005KT 10SM CLR 01/M12 A3043 RMK AO2 T00141121
2026-03-29 00:35:00,METAR KHSP 290035Z AUTO 00000KT 10SM CLR 02/M13 A3042 RMK AO2 T00231132
2026-03-29 00:15:00,METAR KHSP 290015Z AUTO 00000KT 10SM CLR 02/M13 A3041 RMK AO2 T00231135
2026-03-28 23:55:00,METAR KHSP 282355Z AUTO 30003KT 10SM CLR 02/M13 A3041 RMK AO2 T00241135 10054 20024
2026-03-28 23:35:00,METAR KHSP 282335Z AUTO 28005KT 10SM CLR 03/M13 A3041 RMK AO2 T00281134
2026-03-28 23:15:00,METAR KHSP 282315Z AUTO 31006KT 10SM CLR 04/M13 A3041 RMK AO2 T00361127
2026-03-28 22:55:00,METAR KHSP 282255Z AUTO 28007KT 10SM CLR 04/M13 A3040 RMK AO2 T00401127
2026-03-28 22:35:00,METAR KHSP 282235Z AUTO 29003KT 10SM CLR 04/M13 A3040 RMK AO2 T00411132
2026-03-28 22:15:00,METAR KHSP 282215Z AUTO 31007KT 10SM CLR 05/M13 A3039 RMK AO2 T00471134
2026-03-28 21:55:00,METAR KHSP 282155Z AUTO 27008KT 10SM CLR 05/M12 A3039 RMK AO2 T00511124
2026-03-28 21:35:00,METAR KHSP 282135Z AUTO 34008G14KT 310V010 10SM CLR 05/M13 A3040 RMK AO2 T00501132
2026-03-28 21:15:00,METAR KHSP 282115Z AUTO 27010G16KT 10SM CLR 05/M12 A3040 RMK AO2 T00541124
2026-03-28 20:55:00,METAR KHSP 282055Z AUTO 29009G16KT 10SM CLR 05/M13 A3040 RMK AO2 T00461131
2026-03-28 20:35:00,METAR KHSP 282035Z AUTO 29009KT 10SM CLR 05/M13 A3040 RMK AO2 T00501129
2026-03-28 20:15:00,METAR KHSP 282015Z AUTO 32006KT 10SM CLR 05/M12 A3039 RMK AO2 T00541124
2026-03-28 19:55:00,METAR KHSP 281955Z AUTO 32007G17KT 280V030 10SM CLR 05/M12 A3039 RMK AO2 T00481123
2026-03-28 19:35:00,METAR KHSP 281935Z AUTO 36008G14KT 10SM CLR 05/M13 A3039 RMK AO2 T00481130
2026-03-28 19:15:00,METAR KHSP 281915Z AUTO 31013G19KT 10SM CLR 05/M13 A3040 RMK AO2 T00451130
2026-03-28 18:55:00,METAR KHSP 281855Z AUTO 35006G16KT 10SM CLR 04/M12 A3039 RMK AO2 T00431120
2026-03-28 18:35:00,METAR KHSP 281835Z AUTO 35011G17KT 10SM CLR 04/M12 A3040 RMK AO2 T00381120
2026-03-28 18:15:00,METAR KHSP 281815Z AUTO 33009G16KT 10SM CLR 04/M12 A3040 RMK AO2 T00431120
2026-03-28 17:55:00,METAR KHSP 281755Z AUTO 33011G16KT 10SM CLR 03/M13 A3041 RMK AO2 T00311126 10033 21041
2026-03-28 17:35:00,METAR KHSP 281735Z AUTO 30013G19KT 10SM CLR 03/M12 A3041 RMK AO2 T00301122
2026-03-28 17:15:00,METAR KHSP 281715Z AUTO 32009G16KT 10SM CLR 03/M12 A3041 RMK AO2 T00311119
2026-03-28 16:55:00,METAR KHSP 281655Z AUTO 29011G17KT 10SM CLR 02/M12 A3040 RMK AO2 T00171121
2026-03-28 16:35:00,METAR KHSP 281635Z AUTO 29009G17KT 260V330 10SM CLR 02/M12 A3041 RMK AO2 T00161118
2026-03-28 16:15:00,METAR KHSP 281615Z AUTO 34006G16KT 10SM CLR 01/M12 A3040 RMK AO2 T00081121
2026-03-28 15:55:00,METAR KHSP 281555Z AUTO 30012G19KT 10SM CLR 00/M12 A3040 RMK AO2 T00041123
2026-03-28 15:35:00,METAR KHSP 281535Z AUTO 33012G16KT 10SM CLR 00/M11 A3040 RMK AO2 T00001115
2026-03-28 15:15:00,METAR KHSP 281515Z AUTO 30010G18KT 10SM CLR 00/M12 A3040 RMK AO2 T10051120
2026-03-28 14:55:00,METAR KHSP 281455Z AUTO 28008G16KT 10SM CLR M01/M11 A3038 RMK AO2 T10111114
2026-03-28 14:35:00,METAR KHSP 281435Z AUTO 32008G15KT 290V350 10SM CLR M02/M11 A3038 RMK AO2 T10161113
2026-03-28 14:15:00,METAR KHSP 281415Z AUTO 32011G19KT 290V350 10SM CLR M02/M11 A3038 RMK AO2 T10231111
2026-03-28 13:55:00,METAR KHSP 281355Z AUTO 30011G23KT 250V330 10SM CLR M03/M11 A3037 RMK AO2 T10281110
2026-03-28 13:35:00,METAR KHSP 281335Z AUTO 31018G26KT 10SM CLR M03/M11 A3036 RMK AO2 T10301111
2026-03-28 13:15:00,METAR KHSP 281315Z AUTO 31016G30KT 270V340 10SM SCT024 M04/M11 A3034 RMK AO2 T10361109
2026-03-28 12:55:00,METAR KHSP 281255Z AUTO 29014G27KT 250V350 10SM SCT016 BKN022 M04/M10 A3033 RMK AO2 T10371096
2026-03-28 12:35:00,METAR KHSP 281235Z AUTO 29012G26KT 250V320 10SM OVC022 M04/M09 A3033 RMK AO2 T10401091
2026-03-28 12:15:00,METAR KHSP 281215Z AUTO 30017G27KT 10SM OVC022 M04/M09 A3032 RMK AO2 T10391090
2026-03-28 11:55:00,METAR KHSP 281155Z AUTO 30013G25KT 10SM OVC022 M04/M09 A3032 RMK AO2 70008 T10411090 11002 21046
2026-03-28 11:35:00,METAR KHSP 281135Z AUTO 31016G26KT 10SM OVC024 M04/M09 A3030 RMK AO2 T10421091
2026-03-28 11:15:00,METAR KHSP 281115Z AUTO 30016G34KT 260V320 10SM OVC024 M04/M10 A3028 RMK AO2 T10451100
2026-03-28 10:55:00,METAR KHSP 281055Z AUTO 31013G23KT 10SM OVC026 M04/M10 A3028 RMK AO2 T10451096
2026-03-28 10:35:00,METAR KHSP 281035Z AUTO 30011G23KT 270V330 10SM OVC026 M04/M10 A3027 RMK AO2 T10451096
2026-03-28 10:15:00,METAR KHSP 281015Z AUTO 31016G27KT 280V350 10SM OVC026 M04/M10 A3026 RMK AO2 T10451097
2026-03-28 09:55:00,METAR KHSP 280955Z AUTO 31020G28KT 10SM OVC026 M04/M10 A3025 RMK AO2 T10451100
2026-03-28 09:35:00,METAR KHSP 280935Z AUTO 32015G25KT 290V350 10SM OVC026 M04/M10 A3025 RMK AO2 T10451098
2026-03-28 09:15:00,METAR KHSP 280915Z AUTO 31019G28KT 10SM BKN024 BKN031 M04/M09 A3024 RMK AO2 T10421095
2026-03-28 08:55:00,METAR KHSP 280855Z AUTO 31015G27KT 280V340 10SM BKN024 M04/M09 A3023 RMK AO2 T10401095
2026-03-28 08:35:00,METAR KHSP 280835Z AUTO 30016G25KT 10SM BKN020 OVC026 M04/M08 A3022 RMK AO2 T10361084
2026-03-28 08:15:00,METAR KHSP 280815Z AUTO 31017G32KT 10SM BKN015 OVC022 M03/M07 A3021 RMK AO2 T10291068
2026-03-28 07:55:00,METAR KHSP 280755Z AUTO 29013G25KT 10SM OVC013 M02/M06 A3020 RMK AO2 T10211056
2026-03-28 07:35:00,METAR KHSP 280735Z AUTO 29017G27KT 10SM OVC013 M02/M05 A3019 RMK AO2 T10171052
2026-03-28 07:15:00,METAR KHSP 280715Z AUTO 29013G22KT 260V320 10SM BKN010 OVC017 M01/M03 A3018 RMK AO2 T10101035
2026-03-28 06:55:00,METAR KHSP 280655Z AUTO 30014G26KT 10SM OVC020 00/M04 A3018 RMK AO2 LTG DSNT E T10051040
2026-03-28 06:35:00,METAR KHSP 280635Z AUTO 29019G30KT 270V330 10SM OVC018 00/M04 A3017 RMK AO2 T10031045
2026-03-28 06:15:00,METAR KHSP 280615Z AUTO 28020G27KT 10SM OVC018 00/M04 A3017 RMK AO2 T10021037
2026-03-28 05:55:00,METAR KHSP 280555Z AUTO 28017G27KT 10SM OVC020 00/M04 A3017 RMK AO2 T10021038 10062 21005
2026-03-28 05:35:00,METAR KHSP 280535Z AUTO 28019G27KT 10SM BKN018 00/M04 A3017 RMK AO2 T10051037
2026-03-28 05:15:00,METAR KHSP 280515Z AUTO 29022G33KT 10SM SCT016 00/M04 A3016 RMK AO2 T10051037
2026-03-28 04:55:00,METAR KHSP 280455Z AUTO 30020G28KT 10SM SCT016 00/M03 A3015 RMK AO2 T10041035 401671005
2026-03-28 04:35:00,METAR KHSP 280435Z AUTO 30020G31KT 10SM SCT010 00/M03 A3015 RMK AO2 T10021035
2026-03-28 04:15:00,METAR KHSP 280415Z AUTO 30019G32KT 10SM BKN010 00/M02 A3015 RMK AO2 T00021017
2026-03-28 03:55:00,METAR KHSP 280355Z AUTO 30013G22KT 10SM OVC010 01/M01 A3016 RMK AO2 T00081010
2026-03-28 03:35:00,METAR KHSP 280335Z AUTO 29013G22KT 10SM OVC012 01/M01 A3015 RMK AO2 T00101008
2026-03-28 03:15:00,METAR KHSP 280315Z AUTO 30013G25KT 280V340 10SM BKN012 01/00 A3014 RMK AO2 T00131003
2026-03-28 02:55:00,METAR KHSP 280255Z AUTO 31014G25KT 10SM BKN010 02/00 A3014 RMK AO2 T00180000
2026-03-28 02:35:00,METAR KHSP 280235Z AUTO 30017G24KT 10SM OVC010 03/01 A3014 RMK AO2 LTG DSNT S T00260006
2026-03-28 02:15:00,METAR KHSP 280215Z AUTO 30014G19KT 10SM OVC010 03/01 A3014 RMK AO2 T00300011
2026-03-28 01:55:00,METAR KHSP 280155Z AUTO 30012G19KT 10SM OVC010 03/02 A3013 RMK AO2 T00330016
2026-03-28 01:35:00,METAR KHSP 280135Z AUTO 31014G19KT 10SM BKN008 04/02 A3012 RMK AO2 T00390021
2026-03-28 01:15:00,METAR KHSP 280115Z AUTO 30014G18KT 10SM BKN004 04/03 A3012 RMK AO2 T00430030
2026-03-28 00:55:00,METAR KHSP 280055Z AUTO 29012G20KT 10SM OVC002 05/05 A3010 RMK AO2 T00520048
2026-03-28 00:35:00,METAR KHSP 280035Z AUTO 29008KT 250V310 M1/4SM -SN OVC002 06/06 A3009 RMK AO2 T00620058
2026-03-28 00:15:00,METAR KHSP 280015Z AUTO 28013G17KT 1/4SM -RA OVC002 06/06 A3007 RMK AO2 T00600056
2026-03-27 23:55:00,METAR KHSP 272355Z AUTO 28012G15KT 2 1/2SM BR BKN002 OVC007 06/05 A3007 RMK AO2 60008 T00580052 10145 20058
2026-03-27 23:35:00,METAR KHSP 272335Z AUTO 29010G16KT 10SM BKN007 OVC110 06/05 A3007 RMK AO2 T00600051
2026-03-27 23:15:00,METAR KHSP 272315Z AUTO 28008KT 10SM SCT005 BKN070 BKN120 06/05 A3007 RMK AO2 T00610050
2026-03-27 22:55:00,METAR KHSP 272255Z AUTO 30008G14KT 270V330 10SM SCT001 SCT035 OVC070 06/05 A3006 RMK AO2 P0002 T00630052
2026-03-27 22:35:00,METAR KHSP 272235Z AUTO 29007KT 7SM SCT001 BKN033 OVC080 07/06 A3006 RMK AO2 P0002 T00650060
2026-03-27 22:15:00,METAR KHSP 272215Z AUTO 28011G17KT 1/2SM -RA OVC001 07/06 A3006 RMK AO2 VIS 1/4V5 P0002 T00660062
2026-03-27 21:55:00,METAR KHSP 272155Z AUTO 30014G20KT 1/4SM RA OVC001 07/06 A3005 RMK AO2 VIS M1/4V5 P0005 T00670063
2026-03-27 21:35:00,METAR KHSP 272135Z AUTO 30011G16KT M1/4SM RA OVC001 07/07 A3005 RMK AO2 P0003 T00740069
2026-03-27 21:15:00,METAR KHSP 272115Z AUTO 34010G17KT 280V360 5SM -RA BKN001 OVC006 11/10 A3004 RMK AO2 T01120104
2026-03-27 20:55:00,METAR KHSP 272055Z AUTO 27011KT 7SM OVC003 12/11 A3003 RMK AO2 60001 T01170111
2026-03-27 20:35:00,METAR KHSP 272035Z AUTO 26011KT 5SM -DZ OVC007 12/11 A3003 RMK AO2 T01220112
2026-03-27 20:15:00,METAR KHSP 272015Z AUTO 27012G17KT 10SM OVC007 13/11 A3002 RMK AO2 T01260113
2026-03-27 19:55:00,METAR KHSP 271955Z AUTO 27013G18KT 10SM OVC009 13/12 A3001 RMK AO2 P0001 T01300115
2026-03-27 19:35:00,METAR KHSP 271935Z AUTO 25010G14KT 10SM OVC009 13/12 A3001 RMK AO2 P0001 T01320117
2026-03-27 19:15:00,METAR KHSP 271915Z AUTO 27007KT 10SM -RA OVC013 13/12 A3001 RMK AO2 P0001 T01330116
2026-03-27 18:55:00,METAR KHSP 271855Z AUTO 25010G18KT 10SM RA OVC015 14/11 A3001 RMK AO2 T01380112
2026-03-27 18:35:00,METAR KHSP 271835Z AUTO 24009KT 10SM OVC015 15/11 A3002 RMK AO2 T01450110
2026-03-27 18:15:00,METAR KHSP 271815Z AUTO 25009KT 10SM OVC015 15/11 A3002 RMK AO2 T01450109
2026-03-27 17:55:00,METAR KHSP 271755Z AUTO 24007KT 10SM OVC015 15/11 A3002 RMK AO2 T01450110 10167 20130
2026-03-27 17:35:00,METAR KHSP 271735Z AUTO 25009KT 10SM BKN015 OVC020 15/11 A3001 RMK AO2 T01470110
2026-03-27 17:15:00,METAR KHSP 271715Z AUTO 28011G16KT 10SM OVC015 15/11 A3002 RMK AO2 T01470110
2026-03-27 16:55:00,METAR KHSP 271655Z AUTO 27011G14KT 10SM OVC017 15/11 A3002 RMK AO2 T01480110
2026-03-27 16:35:00,METAR KHSP 271635Z AUTO 28013G17KT 10SM BKN017 15/11 A3003 RMK AO2 T01500110
2026-03-27 16:15:00,METAR KHSP 271615Z AUTO 27011G19KT 10SM BKN017 15/11 A3001 RMK AO2 T01510108
2026-03-27 15:55:00,METAR KHSP 271555Z AUTO 26012G18KT 10SM OVC020 16/11 A3003 RMK AO2 T01570108
2026-03-25 14:55:00,METAR KHSP 251455Z AUTO 16004KT 10SM OVC110 05/M07 A3027 RMK AO2 T00541067
2026-03-25 14:35:00,METAR KHSP 251435Z AUTO 16005KT 10SM OVC110 06/M06 A3027 RMK AO2 T00631062
2026-03-25 14:15:00,METAR KHSP 251415Z AUTO 16005KT 10SM OVC110 05/M07 A3027 RMK AO2 T00501069
2026-03-25 13:55:00,METAR KHSP 251355Z AUTO 14006KT 10SM BKN110 05/M07 A3027 RMK AO2 T00461071
2026-03-25 13:35:00,METAR KHSP 251335Z AUTO 16007KT 10SM SCT120 04/M08 A3027 RMK AO2 T00371077
2026-03-25 13:15:00,METAR KHSP 251315Z AUTO 16004KT 10SM SCT120 04/M08 A3027 RMK AO2 T00421076
2026-03-25 12:55:00,METAR KHSP 251255Z AUTO 17005KT 10SM SCT120 04/M08 A3025 RMK AO2 T00351081
2026-03-25 12:35:00,METAR KHSP 251235Z AUTO 18006KT 10SM BKN120 03/M09 A3025 RMK AO2 T00261086
2026-03-25 12:15:00,METAR KHSP 251215Z AUTO 15007KT 10SM OVC120 02/M09 A3025 RMK AO2 T00221087
2026-03-25 11:55:00,METAR KHSP 251155Z AUTO 16003KT 10SM OVC110 02/M09 A3025 RMK AO2 T00221088 10035 20011
2026-03-25 11:35:00,METAR KHSP 251135Z AUTO 00000KT 10SM OVC120 02/M09 A3025 RMK AO2 T00221086
2026-03-25 11:15:00,METAR KHSP 251115Z AUTO 19003KT 10SM OVC110 03/M09 A3024 RMK AO2 T00271094
2026-03-25 10:55:00,METAR KHSP 251055Z AUTO 00000KT 10SM BKN110 03/M09 A3023 RMK AO2 T00251091
2026-03-25 10:35:00,METAR KHSP 251035Z AUTO 16003KT 10SM CLR 03/M10 A3023 RMK AO2 T00311098
2026-03-25 10:15:00,METAR KHSP 251015Z AUTO 00000KT 10SM CLR 02/M09 A3024 RMK AO2 T00211095
2026-03-25 09:55:00,METAR KHSP 250955Z AUTO 22004KT 10SM CLR 03/M10 A3023 RMK AO2 T00321103
2026-03-25 09:35:00,METAR KHSP 250935Z AUTO 24003KT 10SM CLR 02/M09 A3023 RMK AO2 T00191095
2026-03-25 09:15:00,METAR KHSP 250915Z AUTO 27004KT 10SM CLR 02/M09 A3024 RMK AO2 T00161091
2026-03-25 08:55:00,METAR KHSP 250855Z AUTO 18007KT 10SM CLR 01/M09 A3023 RMK AO2 T00121090
2026-03-25 08:35:00,METAR KHSP 250835Z AUTO 19006KT 10SM CLR 02/M09 A3023 RMK AO2 T00151091
2026-03-25 08:15:00,METAR KHSP 250815Z AUTO 17007KT 10SM CLR 02/M09 A3023 RMK AO2 T00151092
2026-03-25 07:55:00,METAR KHSP 250755Z AUTO 17003KT 10SM CLR 02/M10 A3024 RMK AO2 T00211098
2026-03-25 07:35:00,METAR KHSP 250735Z AUTO 19004KT 10SM CLR 02/M10 A3025 RMK AO2 T00221096
2026-03-25 07:15:00,METAR KHSP 250715Z AUTO 19006KT 10SM CLR 01/M09 A3025 RMK AO2 T00141091
2026-03-25 06:55:00,METAR KHSP 250655Z AUTO 17006KT 10SM SCT100 02/M09 A3024 RMK AO2 T00201095
2026-03-25 06:35:00,METAR KHSP 250635Z AUTO 18005KT 10SM BKN100 02/M10 A3026 RMK AO2 T00191096
2026-03-25 06:15:00,METAR KHSP 250615Z AUTO 19004KT 10SM SCT110 02/M10 A3026 RMK AO2 T00211099
2026-03-25 05:55:00,METAR KHSP 250555Z AUTO 18007KT 10SM CLR 02/M10 A3025 RMK AO2 T00191096 10036 20017
2026-03-25 05:35:00,METAR KHSP 250535Z AUTO 17005KT 10SM SCT120 02/M10 A3025 RMK AO2 T00201100
2026-03-25 05:15:00,METAR KHSP 250515Z AUTO 17007KT 10SM SCT120 03/M10 A3026 RMK AO2 T00281105
2026-03-25 04:55:00,METAR KHSP 250455Z AUTO 19004KT 10SM SCT120 03/M11 A3028 RMK AO2 T00301110 400651062
2026-03-25 04:35:00,METAR KHSP 250435Z AUTO 18005KT 10SM SCT120 02/M11 A3028 RMK AO2 T00241113
2026-03-25 04:15:00,METAR KHSP 250415Z AUTO 19005KT 10SM CLR 02/M11 A3028 RMK AO2 T00201110
2026-03-25 03:55:00,METAR KHSP 250355Z AUTO 18006KT 10SM CLR 03/M11 A3028 RMK AO2 T00251107
2026-03-25 03:35:00,METAR KHSP 250335Z AUTO 18006KT 10SM CLR 03/M11 A3027 RMK AO2 T00301115
2026-03-25 03:15:00,METAR KHSP 250315Z AUTO 18006KT 10SM CLR 03/M11 A3027 RMK AO2 T00321114
2026-03-25 02:55:00,METAR KHSP 250255Z AUTO 21003KT 10SM CLR 03/M11 A3028 RMK AO2 T00301108
2026-03-25 02:35:00,METAR KHSP 250235Z AUTO 18006KT 10SM CLR 03/M11 A3027 RMK AO2 T00301112
2026-03-25 02:15:00,METAR KHSP 250215Z AUTO 18007KT 10SM CLR 03/M11 A3027 RMK AO2 T00311112
2026-03-25 01:55:00,METAR KHSP 250155Z AUTO 18006KT 10SM CLR 03/M11 A3027 RMK AO2 T00321112
2026-03-25 01:35:00,METAR KHSP 250135Z AUTO 20004KT 10SM CLR 03/M11 A3028 RMK AO2 T00331112
2026-03-25 01:15:00,METAR KHSP 250115Z AUTO 19006KT 10SM CLR 04/M11 A3028 RMK AO2 T00351108
2026-03-25 00:55:00,METAR KHSP 250055Z AUTO 19005KT 10SM CLR 04/M11 A3028 RMK AO2 T00351110
2026-03-25 00:35:00,METAR KHSP 250035Z AUTO 18007KT 10SM CLR 03/M11 A3027 RMK AO2 T00331112
2026-03-25 00:15:00,METAR KHSP 250015Z AUTO 19006KT 10SM CLR 04/M11 A3027 RMK AO2 T00351109
2026-03-24 23:55:00,METAR KHSP 242355Z AUTO 19005KT 10SM CLR 04/M11 A3027 RMK AO2 T00351107 10065 20035
2026-03-24 23:35:00,METAR KHSP 242335Z AUTO 18005KT 10SM CLR 04/M10 A3027 RMK AO2 T00391104
2026-03-24 23:15:00,METAR KHSP 242315Z AUTO 18004KT 10SM CLR 04/M10 A3027 RMK AO2 T00441103
2026-03-24 22:55:00,METAR KHSP 242255Z AUTO 17004KT 10SM CLR 05/M11 A3027 RMK AO2 T00501106
2026-03-24 22:35:00,METAR KHSP 242235Z AUTO 16004KT 10SM CLR 06/M11 A3027 RMK AO2 T00551106
2026-03-24 22:15:00,METAR KHSP 242215Z AUTO 15004KT 10SM CLR 06/M11 A3026 RMK AO2 T00571113
2026-03-24 21:55:00,METAR KHSP 242155Z AUTO 13004KT 10SM CLR 06/M12 A3026 RMK AO2 T00601120
2026-03-24 21:35:00,METAR KHSP 242135Z AUTO 14005KT 10SM CLR 06/M12 A3026 RMK AO2 T00641125
2026-03-24 21:15:00,METAR KHSP 242115Z AUTO 09003KT 10SM CLR 06/M13 A3027 RMK AO2 T00601126
2026-03-24 20:55:00,METAR KHSP 242055Z AUTO 10003KT 10SM CLR 06/M12 A3026 RMK AO2 T00601117
2026-03-24 20:35:00,METAR KHSP 242035Z AUTO 15006KT 10SM CLR 06/M12 A3026 RMK AO2 T00631117
2026-03-24 20:15:00,METAR KHSP 242015Z AUTO 10005KT 10SM CLR 06/M12 A3026 RMK AO2 T00571118
2026-03-24 19:55:00,METAR KHSP 241955Z AUTO 12006KT 10SM CLR 06/M11 A3026 RMK AO2 T00591115
2026-03-24 19:35:00,METAR KHSP 241935Z AUTO 09003KT 10SM CLR 06/M12 A3027 RMK AO2 T00561116
2026-03-24 19:15:00,METAR KHSP 241915Z AUTO 11004KT 10SM CLR 05/M12 A3027 RMK AO2 T00541121
2026-03-24 18:55:00,METAR KHSP 241855Z AUTO 11006KT 10SM CLR 05/M12 A3028 RMK AO2 T00491123
2026-03-24 18:35:00,METAR KHSP 241835Z AUTO 13006KT 10SM CLR 05/M13 A3028 RMK AO2 T00451127
2026-03-24 18:15:00,METAR KHSP 241815Z AUTO 08003KT 10SM CLR 04/M14 A3029 RMK AO2 T00431140
2026-03-24 17:55:00,METAR KHSP 241755Z AUTO 00000KT 10SM CLR 04/M11 A3029 RMK AO2 T00361115 10039 21057
2026-03-24 17:35:00,METAR KHSP 241735Z AUTO 11005KT 10SM CLR 04/M12 A3029 RMK AO2 T00371121
2026-03-24 17:15:00,METAR KHSP 241715Z AUTO 13004KT 10SM CLR 04/M12 A3030 RMK AO2 T00351123
2026-03-24 16:55:00,METAR KHSP 241655Z AUTO 12005KT 10SM CLR 02/M13 A3030 RMK AO2 T00211128
2026-03-24 16:35:00,METAR KHSP 241635Z AUTO 10004KT 10SM CLR 02/M13 A3031 RMK AO2 T00151130
2026-03-24 16:15:00,METAR KHSP 241615Z AUTO 00000KT 10SM CLR 01/M13 A3031 RMK AO2 T00101132
2026-03-24 15:55:00,METAR KHSP 241555Z AUTO 10004KT 10SM CLR 01/M12 A3031 RMK AO2 T00061117
2026-03-24 15:35:00,METAR KHSP 241535Z AUTO 07003KT 10SM CLR 00/M12 A3032 RMK AO2 T00001116
2026-03-24 15:15:00,METAR KHSP 241515Z AUTO 09005KT 10SM CLR 00/M11 A3031 RMK AO2 T10041111
2026-03-24 14:55:00,METAR KHSP 241455Z AUTO 11006KT 10SM CLR M01/M09 A3031 RMK AO2 T10131090
2026-03-24 14:35:00,METAR KHSP 241435Z AUTO 11005KT 10SM CLR M01/M08 A3029 RMK AO2 T10151084
2026-03-24 14:15:00,METAR KHSP 241415Z AUTO 07005KT 10SM CLR M02/M08 A3029 RMK AO2 T10251084
2026-03-24 13:55:00,METAR KHSP 241355Z AUTO 09005KT 10SM CLR M03/M09 A3028 RMK AO2 T10321089
2026-03-24 13:35:00,METAR KHSP 241335Z AUTO 12006KT 10SM CLR M04/M09 A3028 RMK AO2 T10371088
2026-03-24 13:15:00,METAR KHSP 241315Z AUTO 10006KT 10SM CLR M03/M09 A3027 RMK AO2 T10321088
2026-03-24 12:55:00,METAR KHSP 241255Z AUTO 08005KT 10SM CLR M03/M11 A3026 RMK AO2 T10281115
2026-03-24 12:35:00,METAR KHSP 241235Z AUTO 02003KT 10SM CLR M04/M10 A3025 RMK AO2 T10441096
2026-03-24 12:15:00,METAR KHSP 241215Z AUTO 33006KT 10SM CLR M05/M09 A3025 RMK AO2 T10531091
2026-03-24 11:55:00,METAR KHSP 241155Z AUTO 31005KT 10SM CLR M06/M09 A3024 RMK AO2 70010 T10571091 11044 21062
2026-03-24 11:35:00,METAR KHSP 241135Z AUTO 32004KT 10SM CLR M06/M09 A3024 RMK AO2 T10581092
2026-03-24 11:15:00,METAR KHSP 241115Z AUTO 31006KT 10SM CLR M06/M09 A3023 RMK AO2 T10601093
2026-03-24 10:55:00,METAR KHSP 241055Z AUTO 30005KT 10SM CLR M06/M09 A3023 RMK AO2 T10601093
2026-03-24 10:35:00,METAR KHSP 241035Z AUTO 31005KT 10SM CLR M06/M09 A3023 RMK AO2 T10601094
2026-03-24 10:15:00,METAR KHSP 241015Z AUTO 31007KT 10SM CLR M06/M09 A3022 RMK AO2 T10581092
2026-03-24 09:55:00,METAR KHSP 240955Z AUTO 33005KT 10SM CLR M06/M09 A3023 RMK AO2 T10581093
2026-03-24 09:35:00,METAR KHSP 240935Z AUTO 02003KT 10SM CLR M06/M09 A3023 RMK AO2 T10601095
2026-03-24 09:15:00,METAR KHSP 240915Z AUTO 33006KT 10SM CLR M06/M09 A3022 RMK AO2 T10601095
2026-03-24 08:55:00,METAR KHSP 240855Z AUTO 34005KT 10SM CLR M06/M10 A3021 RMK AO2 T10611097
2026-03-24 08:35:00,METAR KHSP 240835Z AUTO 36004KT 10SM CLR M06/M10 A3019 RMK AO2 T10611096
2026-03-24 08:15:00,METAR KHSP 240815Z AUTO 34008KT 10SM CLR M06/M10 A3019 RMK AO2 T10601098
2026-03-24 07:55:00,METAR KHSP 240755Z AUTO 01006KT 10SM CLR M06/M10 A3020 RMK AO2 T10591099
2026-03-24 07:35:00,METAR KHSP 240735Z AUTO 35006KT 10SM CLR M06/M10 A3020 RMK AO2 T10561100
2026-03-24 07:15:00,METAR KHSP 240715Z AUTO 33007KT 10SM CLR M05/M10 A3020 RMK AO2 T10551101
2026-03-24 06:55:00,METAR KHSP 240655Z AUTO 35006KT 10SM CLR M05/M10 A3020 RMK AO2 T10521102
2026-03-24 06:35:00,METAR KHSP 240635Z AUTO 35007KT 10SM CLR M05/M10 A3019 RMK AO2 T10511102
2026-03-24 06:15:00,METAR KHSP 240615Z AUTO 33007KT 10SM CLR M05/M10 A3019 RMK AO2 T10481100
2026-03-24 05:55:00,METAR KHSP 240555Z AUTO 34008KT 10SM BKN020 M04/M09 A3019 RMK AO2 T10431088 10005 21043
2026-03-24 05:35:00,METAR KHSP 240535Z AUTO 34007KT 10SM BKN018 M04/M08 A3020 RMK AO2 T10381078
2026-03-24 05:15:00,METAR KHSP 240515Z AUTO 33008G16KT 10SM OVC020 M03/M07 A3019 RMK AO2 T10331072
2026-03-24 04:55:00,METAR KHSP 240455Z AUTO 32008KT 10SM OVC020 M03/M07 A3019 RMK AO2 T10321072 401851033
2026-03-24 04:35:00,METAR KHSP 240435Z AUTO 31008KT 10SM OVC020 M03/M07 A3019 RMK AO2 T10311074
2026-03-24 04:15:00,METAR KHSP 240415Z AUTO 31011G16KT 270V340 10SM BKN020 M03/M07 A3019 RMK AO2 T10321075
2026-03-24 03:55:00,METAR KHSP 240355Z AUTO 31009KT 280V340 10SM BKN020 M03/M07 A3018 RMK AO2 T10311073
2026-03-24 03:35:00,METAR KHSP 240335Z AUTO 31010G18KT 10SM BKN020 M03/M07 A3018 RMK AO2 T10271070
2026-03-24 03:15:00,METAR KHSP 240315Z AUTO 31008G21KT 270V340 10SM BKN020 M02/M06 A3017 RMK AO2 T10221065
2026-03-24 02:55:00,METAR KHSP 240255Z AUTO 32012G19KT 10SM BKN020 M02/M06 A3016 RMK AO2 T10191062
2026-03-24 02:35:00,METAR KHSP 240235Z AUTO 30009G22KT 10SM SCT020 M02/M06 A3015 RMK AO2 T10161060
2026-03-24 02:15:00,METAR KHSP 240215Z AUTO 29015G27KT 10SM SCT020 M01/M06 A3014 RMK AO2 T10131060
2026-03-24 01:55:00,METAR KHSP 240155Z AUTO 29017G23KT 10SM SCT022 M01/M05 A3014 RMK AO2 T10101055
2026-03-24 01:35:00,METAR KHSP 240135Z AUTO 31015G26KT 10SM BKN022 M01/M05 A3015 RMK AO2 T10071055
2026-03-24 01:15:00,METAR KHSP 240115Z AUTO 29017G25KT 10SM BKN022 00/M05 A3014 RMK AO2 T10041052
2026-03-24 00:55:00,METAR KHSP 240055Z AUTO 30012G29KT 10SM BKN022 00/M05 A3014 RMK AO2 T10021047
2026-03-24 00:35:00,METAR KHSP 240035Z AUTO 30016G26KT 10SM SCT022 00/M05 A3013 RMK AO2 T00001048
2026-03-24 00:15:00,METAR KHSP 240015Z AUTO 31016G25KT 290V350 10SM SCT020 SCT025 00/M05 A3012 RMK AO2 T00011046
2026-03-23 23:55:00,METAR KHSP 232355Z AUTO 30015G23KT 270V330 10SM BKN020 01/M04 A3011 RMK AO2 T00051036 10077 20005
2026-03-23 23:35:00,METAR KHSP 232335Z AUTO 30013G21KT 10SM BKN022 01/M04 A3010 RMK AO2 T00101041
2026-03-23 23:15:00,METAR KHSP 232315Z AUTO 30014G26KT 10SM CLR 02/M05 A3010 RMK AO2 T00161046
2026-03-23 22:55:00,METAR KHSP 232255Z AUTO 29017G24KT 10SM SCT027 03/M05 A3009 RMK AO2 T00261048
2026-03-23 22:35:00,METAR KHSP 232235Z AUTO 31011G21KT 10SM CLR 03/M03 A3008 RMK AO2 T00311034
2026-03-23 22:15:00,METAR KHSP 232215Z AUTO 31011G20KT 10SM SCT025 SCT030 04/M03 A3007 RMK AO2 T00371026
2026-03-23 21:55:00,METAR KHSP 232155Z AUTO 31013G20KT 270V330 10SM CLR 05/M03 A3006 RMK AO2 T00451035
2026-03-23 21:35:00,METAR KHSP 232135Z AUTO 29018G31KT 10SM CLR 05/M04 A3003 RMK AO2 T00471041
2026-03-23 21:15:00,METAR KHSP 232115Z AUTO 31020G30KT 10SM CLR 05/M05 A3003 RMK AO2 T00511051
2026-03-23 20:55:00,METAR KHSP 232055Z AUTO 30017G28KT 10SM SCT034 06/M05 A3003 RMK AO2 T00551046
2026-03-23 20:35:00,METAR KHSP 232035Z AUTO 29014G27KT 260V320 10SM CLR 06/M02 A3002 RMK AO2 T00611024
2026-03-23 20:15:00,METAR KHSP 232015Z AUTO 29015G26KT 10SM SCT029 SCT034 06/M03 A3001 RMK AO2 T00601028
2026-03-23 19:55:00,METAR KHSP 231955Z AUTO 28014G24KT 10SM BKN027 SCT034 07/M02 A3001 RMK AO2 T00661019
2026-03-23 19:35:00,METAR KHSP 231935Z AUTO 29013G21KT 10SM SCT027 06/M01 A3000 RMK AO2 T00611011
2026-03-23 19:15:00,METAR KHSP 231915Z AUTO 27014G23KT 250V320 10SM SCT025 06/M01 A2999 RMK AO2 T00581008
2026-03-23 18:55:00,METAR KHSP 231855Z AUTO 32018G23KT 10SM SCT025 SCT031 06/M01 A2999 RMK AO2 T00571010
2026-03-23 18:35:00,METAR KHSP 231835Z AUTO 28014G26KT 10SM BKN025 BKN031 07/M01 A2999 RMK AO2 T00671006
2026-03-23 18:15:00,METAR KHSP 231815Z AUTO 28017G24KT 10SM BKN023 07/00 A2999 RMK AO2 T00700002
2026-03-23 17:55:00,METAR KHSP 231755Z AUTO 30013G22KT 10SM BKN016 BKN024 07/01 A2998 RMK AO2 60010 T00680007 10121 20060
2026-03-23 17:35:00,METAR KHSP 231735Z AUTO 28014G21KT 250V310 10SM OVC012 06/02 A2997 RMK AO2 T00610018
2026-03-23 17:15:00,METAR KHSP 231715Z AUTO 30013G20KT 250V320 10SM BKN010 BKN013 OVC021 07/04 A2997 RMK AO2 T00710037
2026-03-23 16:55:00,METAR KHSP 231655Z AUTO 30013G22KT 280V340 10SM OVC007 06/04 A2997 RMK AO2 T00620036
2026-03-23 16:35:00,METAR KHSP 231635Z AUTO 30012G24KT 270V340 10SM BKN005 OVC009 06/05 A2996 RMK AO2 T00610045
2026-03-23 16:15:00,METAR KHSP 231615Z AUTO 30009G20KT 230V330 10SM OVC009 08/05 A2995 RMK AO2 T00760051
2026-03-23 15:55:00,METAR KHSP 231555Z AUTO 28016G24KT 10SM OVC013 09/06 A2994 RMK AO2 T00860055
2026-03-23 15:35:00,METAR KHSP 231535Z AUTO 28013G26KT 10SM OVC013 10/06 A2993 RMK AO2 T00980062
2026-03-23 15:15:00,METAR KHSP 231515Z AUTO 27018G24KT 10SM BKN015 OVC022 11/07 A2992 RMK AO2 T01050068
2026-03-23 14:55:00,METAR KHSP 231455Z AUTO 28023G28KT 10SM BKN016 OVC030 11/07 A2992 RMK AO2 P0010 60010 T01060074
2026-03-23 13:55:00,METAR KHSP 231355Z AUTO 28016G24KT 10SM BKN013 OVC020 11/09 A2988 RMK AO2 T01140086
2026-03-23 13:35:00,METAR KHSP 231335Z AUTO 28016G22KT 10SM BKN009 OVC015 12/10 A2986 RMK AO2 T01150095
2026-03-23 13:15:00,METAR KHSP 231315Z AUTO 27015G21KT 10SM BKN005 OVC011 12/10 A2985 RMK AO2 T01150102
2026-03-23 12:55:00,METAR KHSP 231255Z AUTO 27013G21KT 10SM OVC003 11/10 A2985 RMK AO2 T01110103
2026-03-23 12:35:00,METAR KHSP 231235Z AUTO 27015G21KT 10SM OVC001 11/11 A2984 RMK AO2 T01100105
2026-03-23 12:15:00,METAR KHSP 231215Z AUTO 27016G22KT 7SM OVC001 11/11 A2982 RMK AO2 T01110107
2026-03-23 11:55:00,METAR KHSP 231155Z AUTO 27014G20KT M1/4SM FG OVC001 11/11 A2981 RMK AO2 60015 70015 T01110107 10180 20110
2026-03-23 11:35:00,METAR KHSP 231135Z AUTO 27016G22KT 1/4SM FG OVC001 11/11 A2981 RMK AO2 T01110107
2026-03-23 11:15:00,METAR KHSP 231115Z AUTO 28015G22KT 1/4SM FG OVC001 11/11 A2980 RMK AO2 T01110107
2026-03-23 10:55:00,METAR KHSP 231055Z AUTO 27014G21KT 4SM BR OVC003 11/11 A2979 RMK AO2 T01110106
2026-03-23 10:35:00,METAR KHSP 231035Z AUTO 27016G21KT 10SM -RA BKN006 BKN009 OVC014 11/10 A2979 RMK AO2 T01110103
2026-03-23 10:15:00,METAR KHSP 231015Z AUTO 26018G25KT 10SM -RA BKN014 BKN047 OVC100 11/10 A2979 RMK AO2 T01110100
2026-03-23 09:55:00,METAR KHSP 230955Z AUTO 26015KT 10SM -RA SCT060 BKN075 OVC100 11/10 A2979 RMK AO2 LTG DSNT E P0015 T01110098
2026-03-23 09:35:00,METAR KHSP 230935Z AUTO 28012G20KT 10SM -RA SCT010 BKN060 OVC075 11/10 A2979 RMK AO2 LTG DSNT E P0011 T01110097
2026-03-23 09:15:00,METAR KHSP 230915Z AUTO 30012G18KT 4SM -RA SCT009 BKN014 OVC043 11/10 A2981 RMK AO2 LTG DSNT ALQDS P0010 T01120097
2026-03-23 08:55:00,METAR KHSP 230855Z AUTO 33008G17KT 10SM SCT017 SCT042 SCT100 12/09 A2980 RMK AO2 LTG DSNT W AND NW T01200091
2026-03-23 08:35:00,METAR KHSP 230835Z AUTO 33010G21KT 10SM SCT070 SCT080 SCT100 12/09 A2979 RMK AO2 T01240092
2026-03-23 08:15:00,METAR KHSP 230815Z AUTO 33015G25KT 10SM SCT013 SCT020 BKN055 13/10 A2979 RMK AO2 LTG DSNT NE AND W T01320101
2026-03-23 07:55:00,METAR KHSP 230755Z AUTO 29017G35KT 260V320 10SM -VCTSDZ SCT021 BKN038 OVC055 17/11 A2978 RMK AO2 LTG DSNT NW THRU NE T01680110
2026-03-23 07:35:00,METAR KHSP 230735Z AUTO 26021G29KT 10SM VCTS SCT040 SCT055 18/11 A2975 RMK AO2 LTG DSNT N T01760111
2026-03-23 07:15:00,METAR KHSP 230715Z AUTO 26017G26KT 10SM CLR 18/11 A2976 RMK AO2 LTG DSNT W T01750110
2026-03-23 06:55:00,METAR KHSP 230655Z AUTO 25019G27KT 10SM CLR 18/11 A2976 RMK AO2 LTG DSNT N AND NW T01760108
2026-03-23 06:35:00,METAR KHSP 230635Z AUTO 25024G31KT 10SM CLR 18/11 A2976 RMK AO2 LTG DSNT NW T01770105
2026-03-23 06:15:00,METAR KHSP 230615Z AUTO 26018G26KT 10SM CLR 18/10 A2978 RMK AO2 LTG DSNT N AND NW T01770101
2026-03-23 05:55:00,METAR KHSP 230555Z AUTO 26017G23KT 10SM CLR 18/10 A2978 RMK AO2 T01790097 10205 20179
2026-03-23 05:35:00,METAR KHSP 230535Z AUTO 26022G26KT 10SM CLR 18/09 A2979 RMK AO2 LTG DSNT N T01800094
2026-03-23 05:15:00,METAR KHSP 230515Z AUTO 26017G23KT 10SM CLR 18/09 A2979 RMK AO2 T01820091
2026-03-23 04:55:00,METAR KHSP 230455Z AUTO 25018G25KT 10SM CLR 18/09 A2979 RMK AO2 LTG DSNT W T01830089 402420105
2026-03-23 04:35:00,METAR KHSP 230435Z AUTO 25016G24KT 10SM CLR 19/09 A2978 RMK AO2 LTG DSNT N T01850087
2026-03-23 04:15:00,METAR KHSP 230415Z AUTO 25018G23KT 10SM CLR 19/09 A2978 RMK AO2 LTG DSNT W T01860086
2026-03-23 03:55:00,METAR KHSP 230355Z AUTO 25018G24KT 10SM CLR 19/09 A2978 RMK AO2 T01870085
2026-03-23 03:35:00,METAR KHSP 230335Z AUTO 24021G25KT 10SM CLR 19/09 A2979 RMK AO2 T01870086
2026-03-23 03:15:00,METAR KHSP 230315Z AUTO 25016G23KT 10SM CLR 19/09 A2980 RMK AO2 LTG DSNT W T01910088
2026-03-23 02:55:00,METAR KHSP 230255Z AUTO 25015G23KT 10SM CLR 19/09 A2981 RMK AO2 T01910090
2026-03-23 02:35:00,METAR KHSP 230235Z AUTO 24016G22KT 10SM CLR 19/09 A2982 RMK AO2 LTG DSNT N T01910091
2026-03-23 02:15:00,METAR KHSP 230215Z AUTO 24015G19KT 10SM CLR 19/09 A2983 RMK AO2 LTG DSNT N T01910087
2026-03-23 01:55:00,METAR KHSP 230155Z AUTO 25013G17KT 10SM CLR 19/08 A2984 RMK AO2 T01930078
2026-03-23 01:35:00,METAR KHSP 230135Z AUTO 24013G20KT 10SM CLR 20/07 A2984 RMK AO2 T02000070
2026-03-23 01:15:00,METAR KHSP 230115Z AUTO 24014KT 10SM CLR 20/07 A2985 RMK AO2 T02000065
2026-03-23 00:55:00,METAR KHSP 230055Z AUTO 24014KT 10SM CLR 20/06 A2985 RMK AO2 LTG DSNT W T02020062
2026-03-23 00:35:00,METAR KHSP 230035Z AUTO 24012G18KT 10SM CLR 20/06 A2984 RMK AO2 T02010061
2026-03-23 00:15:00,METAR KHSP 230015Z AUTO 23011KT 10SM CLR 20/06 A2984 RMK AO2 T02020059
2026-03-22 23:55:00,METAR KHSP 222355Z AUTO 23010KT 10SM CLR 20/06 A2984 RMK AO2 T02040055 10242 20202
2026-03-22 23:35:00,METAR KHSP 222335Z AUTO 23007KT 10SM CLR 20/05 A2984 RMK AO2 T02040052
2026-03-22 23:15:00,METAR KHSP 222315Z AUTO 23011KT 10SM CLR 21/05 A2984 RMK AO2 T02110052
2026-03-22 22:55:00,METAR KHSP 222255Z AUTO 23012G16KT 10SM CLR 22/05 A2983 RMK AO2 T02220051
2026-03-22 22:35:00,METAR KHSP 222235Z AUTO 24014G19KT 10SM CLR 23/05 A2984 RMK AO2 LTG DSNT N T02290053
2026-03-22 22:15:00,METAR KHSP 222215Z AUTO 25014G17KT 10SM CLR 24/06 A2984 RMK AO2 T02350055
2026-03-22 21:55:00,METAR KHSP 222155Z AUTO 25012G20KT 10SM CLR 24/05 A2984 RMK AO2 T02360052
2026-03-22 21:35:00,METAR KHSP 222135Z AUTO 25013KT 10SM CLR 24/05 A2984 RMK AO2 T02360054
2026-03-22 21:15:00,METAR KHSP 222115Z AUTO 23011G21KT 10SM CLR 24/05 A2985 RMK AO2 T02380048
2026-03-22 20:55:00,METAR KHSP 222055Z AUTO 23014G17KT 10SM CLR 24/05 A2985 RMK AO2 LTG DSNT N T02400053
2026-03-22 20:35:00,METAR KHSP 222035Z AUTO 24010G22KT 10SM CLR 24/05 A2985 RMK AO2 LTG DSNT N T02380050
2026-03-22 20:15:00,METAR KHSP 222015Z AUTO 23011G18KT 10SM CLR 24/05 A2987 RMK AO2 T02410048
2026-03-22 19:55:00,METAR KHSP 221955Z AUTO 24014G17KT 10SM CLR 24/06 A2987 RMK AO2 T02400064
2026-03-22 19:35:00,METAR KHSP 221935Z AUTO 24009G19KT 10SM CLR 23/06 A2987 RMK AO2 T02340061
2026-03-22 19:15:00,METAR KHSP 221915Z AUTO 25010G18KT 10SM CLR 23/07 A2988 RMK AO2 LTG DSNT N T02310071
2026-03-22 18:55:00,METAR KHSP 221855Z AUTO 26013G16KT 10SM CLR 23/07 A2989 RMK AO2 T02300068
2026-03-22 18:35:00,METAR KHSP 221835Z AUTO 24012G19KT 10SM CLR 23/06 A2990 RMK AO2 T02330063
2026-03-22 18:15:00,METAR KHSP 221815Z AUTO 25012G17KT 10SM CLR 22/07 A2991 RMK AO2 T02220068
2026-03-22 17:55:00,METAR KHSP 221755Z AUTO 27010G16KT 10SM CLR 21/07 A2992 RMK AO2 T02140072 10220 20130
2026-03-22 17:35:00,METAR KHSP 221735Z AUTO 25012KT 10SM CLR 21/08 A2992 RMK AO2 T02130077
2026-03-22 17:15:00,METAR KHSP 221715Z AUTO 26011G17KT 10SM CLR 21/08 A2993 RMK AO2 T02060078
2026-03-22 16:55:00,METAR KHSP 221655Z AUTO 25013G16KT 10SM CLR 20/08 A2994 RMK AO2 T02010080
2026-03-22 16:35:00,METAR KHSP 221635Z AUTO 25013KT 10SM CLR 20/08 A2994 RMK AO2 T01960076
2026-03-22 16:15:00,METAR KHSP 221615Z AUTO 25013KT 10SM CLR 19/08 A2994 RMK AO2 T01930076
2026-03-22 15:55:00,METAR KHSP 221555Z AUTO 26015KT 10SM CLR 19/07 A2994 RMK AO2 T01850074
2026-03-22 15:35:00,METAR KHSP 221535Z AUTO 26016G20KT 10SM CLR 17/08 A2995 RMK AO2 T01740080
2026-03-22 15:15:00,METAR KHSP 221515Z AUTO 27016G21KT 10SM CLR 17/09 A2996 RMK AO2 T01710086
2026-03-22 14:55:00,METAR KHSP 221455Z AUTO 26018G23KT 10SM CLR 17/09 A2996 RMK AO2 T01650088
2026-03-22 14:35:00,METAR KHSP 221435Z AUTO 26016G21KT 10SM CLR 17/08 A2995 RMK AO2 T01660080
2026-03-22 14:15:00,METAR KHSP 221415Z AUTO 26015KT 10SM CLR 16/07 A2996 RMK AO2 T01600067
2026-03-22 13:55:00,METAR KHSP 221355Z AUTO 26013KT 10SM CLR 16/06 A2995 RMK AO2 T01560056
2026-03-22 13:35:00,METAR KHSP 221335Z AUTO 26013G19KT 10SM CLR 15/05 A2995 RMK AO2 T01500046
2026-03-22 13:15:00,METAR KHSP 221315Z AUTO 26013KT 10SM CLR 15/04 A2995 RMK AO2 T01450040
2026-03-22 12:55:00,METAR KHSP 221255Z AUTO 26013KT 10SM CLR 14/04 A2994 RMK AO2 T01420040
2026-03-22 12:35:00,METAR KHSP 221235Z AUTO 25015KT 10SM CLR 14/03 A2994 RMK AO2 T01350026
2026-03-22 12:15:00,METAR KHSP 221215Z AUTO 26014KT 10SM VCTS CLR 13/02 A2994 RMK AO2 T01300019
2026-03-22 11:55:00,METAR KHSP 221155Z AUTO 26015KT 10SM CLR 14/02 A2993 RMK AO2 LTG DSNT N T01360017 10149 20105
2026-03-22 11:35:00,METAR KHSP 221135Z AUTO 25012KT 10SM CLR 14/03 A2993 RMK AO2 T01390025
2026-03-22 11:15:00,METAR KHSP 221115Z AUTO 25013KT 10SM CLR 14/02 A2993 RMK AO2 T01370023
2026-03-22 10:55:00,METAR KHSP 221055Z AUTO 25012KT 10SM CLR 14/02 A2993 RMK AO2 T01350016
2026-03-22 10:35:00,METAR KHSP 221035Z AUTO 25012KT 10SM CLR 13/01 A2993 RMK AO2 T01270012
2026-03-22 10:15:00,METAR KHSP 221015Z AUTO 24011KT 10SM CLR 13/01 A2992 RMK AO2 T01270011
2026-03-22 09:55:00,METAR KHSP 220955Z AUTO 24012KT 10SM CLR 13/02 A2992 RMK AO2 T01340018
2026-03-22 09:35:00,METAR KHSP 220935Z AUTO 24010KT 10SM CLR 12/02 A2992 RMK AO2 T01190015
2026-03-22 09:15:00,METAR KHSP 220915Z AUTO 24010KT 10SM CLR 13/02 A2992 RMK AO2 T01270016
2026-03-22 08:55:00,METAR KHSP 220855Z AUTO 23009KT 10SM CLR 12/02 A2992 RMK AO2 T01200015
2026-03-22 08:35:00,METAR KHSP 220835Z AUTO 24009KT 10SM CLR 11/01 A2992 RMK AO2 T01100008
2026-03-22 08:15:00,METAR KHSP 220815Z AUTO 25006KT 10SM CLR 11/00 A2993 RMK AO2 T01120000
2026-03-22 07:55:00,METAR KHSP 220755Z AUTO 25006KT 10SM CLR 11/00 A2993 RMK AO2 T01120001
2026-03-22 07:35:00,METAR KHSP 220735Z AUTO 22005KT 10SM CLR 13/00 A2994 RMK AO2 T01340000
2026-03-22 07:15:00,METAR KHSP 220715Z AUTO 22006KT 10SM CLR 14/00 A2994 RMK AO2 LTG DSNT SW T01360000
2026-03-22 06:55:00,METAR KHSP 220655Z AUTO 21004KT 10SM CLR 14/00 A2994 RMK AO2 T01410000
2026-03-22 06:35:00,METAR KHSP 220635Z AUTO 21006KT 10SM CLR 14/00 A2995 RMK AO2 T01420000
2026-03-22 06:15:00,METAR KHSP 220615Z AUTO 22006KT 10SM CLR 15/00 A2995 RMK AO2 T01470000
2026-03-22 05:55:00,METAR KHSP 220555Z AUTO 21006KT 10SM CLR 15/00 A2995 RMK AO2 T01460002 10157 20130
2026-03-22 05:35:00,METAR KHSP 220535Z AUTO 21006KT 10SM CLR 15/00 A2996 RMK AO2 T01450002
2026-03-22 05:15:00,METAR KHSP 220515Z AUTO 21005KT 10SM SCT100 15/00 A2996 RMK AO2 T01450000
2026-03-22 04:55:00,METAR KHSP 220455Z AUTO 20005KT 10SM SCT100 14/00 A2996 RMK AO2 T01440000 401880087
2026-03-22 04:35:00,METAR KHSP 220435Z AUTO 20005KT 10SM CLR 14/00 A2996 RMK AO2 T01431001
2026-03-22 04:15:00,METAR KHSP 220415Z AUTO 21004KT 10SM CLR 14/00 A2996 RMK AO2 T01391004
2026-03-22 03:55:00,METAR KHSP 220355Z AUTO 18005KT 10SM CLR 14/00 A2995 RMK AO2 T01401005
2026-03-22 03:35:00,METAR KHSP 220335Z AUTO 18003KT 10SM CLR 14/00 A2997 RMK AO2 T01441005
2026-03-22 03:15:00,METAR KHSP 220315Z AUTO 17003KT 10SM CLR 14/00 A2997 RMK AO2 T01380000
2026-03-22 02:55:00,METAR KHSP 220255Z AUTO 00000KT 10SM CLR 14/00 A2997 RMK AO2 T01440001
2026-03-22 02:35:00,METAR KHSP 220235Z AUTO 00000KT 10SM CLR 14/01 A2997 RMK AO2 T01390009
2026-03-22 02:15:00,METAR KHSP 220215Z AUTO 28004KT 10SM CLR 15/01 A2998 RMK AO2 T01480007
2026-03-22 01:55:00,METAR KHSP 220155Z AUTO 29005KT 10SM CLR 15/01 A2998 RMK AO2 T01500007
2026-03-22 01:35:00,METAR KHSP 220135Z AUTO 28006KT 10SM CLR 15/01 A2998 RMK AO2 T01520007
2026-03-22 01:15:00,METAR KHSP 220115Z AUTO 29006KT 10SM CLR 15/01 A2998 RMK AO2 LTG DSNT S T01520006
2026-03-22 00:55:00,METAR KHSP 220055Z AUTO 29007KT 10SM CLR 15/01 A2998 RMK AO2 T01530005
2026-03-22 00:35:00,METAR KHSP 220035Z AUTO 29006KT 10SM CLR 15/00 A2996 RMK AO2 T01540003
2026-03-22 00:15:00,METAR KHSP 220015Z AUTO 31006KT 10SM CLR 16/00 A2996 RMK AO2 T01550004
2026-03-21 23:55:00,METAR KHSP 212355Z AUTO 31007KT 10SM CLR 16/00 A2994 RMK AO2 LTG DSNT S T01550003 10188 20155
2026-03-21 23:35:00,METAR KHSP 212335Z AUTO 28006KT 10SM SCT120 16/00 A2994 RMK AO2 T01601004
2026-03-21 23:15:00,METAR KHSP 212315Z AUTO 28006KT 10SM CLR 17/00 A2993 RMK AO2 LTG DSNT S T01651005
2026-03-21 22:55:00,METAR KHSP 212255Z AUTO 26010G14KT 10SM CLR 17/00 A2993 RMK AO2 LTG DSNT SW T01651002
2026-03-21 22:35:00,METAR KHSP 212235Z AUTO 27009KT 10SM CLR 17/00 A2993 RMK AO2 T01660001
2026-03-21 22:15:00,METAR KHSP 212215Z AUTO 25011G16KT 10SM CLR 17/01 A2993 RMK AO2 T01670008
2026-03-21 21:55:00,METAR KHSP 212155Z AUTO 24008KT 10SM CLR 17/01 A2993 RMK AO2 T01710010
2026-03-21 21:35:00,METAR KHSP 212135Z AUTO 25011G14KT 10SM CLR 18/02 A2993 RMK AO2 T01780019
2026-03-21 21:15:00,METAR KHSP 212115Z AUTO 27010G16KT 10SM CLR 18/02 A2992 RMK AO2 T01840021
2026-03-21 20:55:00,METAR KHSP 212055Z AUTO 26007G16KT 10SM CLR 19/02 A2993 RMK AO2 T01850016
2026-03-21 20:35:00,METAR KHSP 212035Z AUTO 25007G17KT 10SM CLR 18/01 A2993 RMK AO2 T01820013
2026-03-21 20:15:00,METAR KHSP 212015Z AUTO 26009KT 10SM CLR 18/03 A2993 RMK AO2 T01840030
2026-03-21 19:55:00,METAR KHSP 211955Z AUTO 23009KT 10SM SCT120 17/03 A2993 RMK AO2 T01710032
2026-03-21 19:35:00,METAR KHSP 211935Z AUTO 23007KT 10SM BKN120 17/03 A2994 RMK AO2 T01670026
2026-03-21 19:15:00,METAR KHSP 211915Z AUTO 27008G14KT 10SM CLR 17/02 A2994 RMK AO2 T01740020
2026-03-21 18:55:00,METAR KHSP 211855Z AUTO 27009KT 10SM CLR 18/03 A2994 RMK AO2 T01770028
2026-03-21 18:35:00,METAR KHSP 211835Z AUTO 25007KT 10SM CLR 18/02 A2996 RMK AO2 T01750021
2026-03-21 18:15:00,METAR KHSP 211815Z AUTO 28007G14KT 10SM CLR 17/03 A2996 RMK AO2 T01670029
2026-03-21 17:55:00,METAR KHSP 211755Z AUTO 27006KT 10SM CLR 16/03 A2997 RMK AO2 T01630034 10166 20101
2026-03-21 17:35:00,METAR KHSP 211735Z AUTO 28006KT 10SM CLR 16/05 A2997 RMK AO2 T01560054
2026-03-21 17:15:00,METAR KHSP 211715Z AUTO 23008KT 10SM CLR 15/06 A2997 RMK AO2 T01540060
2026-03-21 16:55:00,METAR KHSP 211655Z AUTO 26006KT 10SM CLR 15/06 A2997 RMK AO2 T01450060
2026-03-21 16:35:00,METAR KHSP 211635Z AUTO 30006KT 10SM CLR 14/07 A2997 RMK AO2 T01430066
2026-03-21 16:15:00,METAR KHSP 211615Z AUTO 27005KT 10SM CLR 14/06 A2997 RMK AO2 T01350058
2026-03-21 15:55:00,METAR KHSP 211555Z AUTO 25005KT 10SM CLR 14/07 A2997 RMK AO2 T01350065
2026-03-21 15:35:00,METAR KHSP 211535Z AUTO 26003KT 10SM CLR 13/07 A2997 RMK AO2 T01300066
2026-03-21 14:55:00,METAR KHSP 211455Z AUTO 30003KT 10SM CLR 13/07 A2997 RMK AO2 T01270067
2026-03-21 14:35:00,METAR KHSP 211435Z AUTO 33004KT 10SM CLR 12/07 A2996 RMK AO2 T01240074
2026-03-21 14:15:00,METAR KHSP 211415Z AUTO 30008G14KT 280V340 10SM CLR 12/07 A2995 RMK AO2 T01160068
2026-03-21 13:55:00,METAR KHSP 211355Z AUTO 31008KT 10SM CLR 11/07 A2994 RMK AO2 T01110072
2026-03-21 13:35:00,METAR KHSP 211335Z AUTO 29011KT 10SM CLR 11/07 A2994 RMK AO2 T01080074
2026-03-21 13:15:00,METAR KHSP 211315Z AUTO 29010G18KT 10SM CLR 11/07 A2994 RMK AO2 T01050070
2026-03-21 12:55:00,METAR KHSP 211255Z AUTO 29009G16KT 10SM CLR 10/07 A2993 RMK AO2 T01020068
2026-03-21 12:35:00,METAR KHSP 211235Z AUTO 30010G16KT 10SM CLR 10/07 A2993 RMK AO2 T01010068
2026-03-21 12:15:00,METAR KHSP 211215Z AUTO 30010G15KT 10SM CLR 10/07 A2992 RMK AO2 T01010067
2026-03-21 11:55:00,METAR KHSP 211155Z AUTO 31009G15KT 10SM CLR 10/07 A2992 RMK AO2 70012 T01020068 10111 20091
2026-03-21 11:35:00,METAR KHSP 211135Z AUTO 29010G14KT 10SM CLR 10/07 A2990 RMK AO2 T01010067
2026-03-21 11:15:00,METAR KHSP 211115Z AUTO 31010KT 10SM CLR 11/07 A2990 RMK AO2 T01050067
2026-03-21 10:55:00,METAR KHSP 211055Z AUTO 30008KT 10SM CLR 11/07 A2989 RMK AO2 T01050070
2026-03-21 10:35:00,METAR KHSP 211035Z AUTO 27006KT 10SM CLR 11/07 A2988 RMK AO2 T01050072
2026-03-21 10:15:00,METAR KHSP 211015Z AUTO 28010G17KT 10SM CLR 11/07 A2988 RMK AO2 T01070073
2026-03-21 09:55:00,METAR KHSP 210955Z AUTO 28011G17KT 10SM CLR 11/07 A2987 RMK AO2 T01080073
2026-03-21 09:35:00,METAR KHSP 210935Z AUTO 28013G16KT 10SM CLR 11/08 A2987 RMK AO2 T01100075
2026-03-21 09:15:00,METAR KHSP 210915Z AUTO 27012KT 10SM CLR 11/08 A2985 RMK AO2 T01100075
2026-03-21 08:55:00,METAR KHSP 210855Z AUTO 27013G19KT 10SM CLR 11/08 A2985 RMK AO2 T01100075
2026-03-21 08:35:00,METAR KHSP 210835Z AUTO 27013KT 10SM CLR 11/08 A2984 RMK AO2 T01100075
2026-03-21 08:15:00,METAR KHSP 210815Z AUTO 27012G19KT 10SM CLR 11/08 A2984 RMK AO2 T01090075
2026-03-21 07:55:00,METAR KHSP 210755Z AUTO 27015KT 10SM CLR 11/07 A2984 RMK AO2 LTG DSNT SE T01080073
2026-03-21 07:35:00,METAR KHSP 210735Z AUTO 27016G22KT 10SM CLR 11/07 A2984 RMK AO2 T01060072
2026-03-21 07:15:00,METAR KHSP 210715Z AUTO 26014G19KT 10SM SCT034 SCT042 11/07 A2985 RMK AO2 T01050072
2026-03-21 06:55:00,METAR KHSP 210655Z AUTO 27012KT 10SM SCT036 BKN042 BKN050 10/07 A2985 RMK AO2 T01010072
2026-03-21 06:35:00,METAR KHSP 210635Z AUTO 27010KT 10SM SCT048 SCT095 10/07 A2985 RMK AO2 T00950071
2026-03-21 06:15:00,METAR KHSP 210615Z AUTO 26011KT 10SM SCT035 SCT046 BKN090 09/07 A2985 RMK AO2 T00920071
2026-03-21 05:55:00,METAR KHSP 210555Z AUTO 27010G16KT 10SM BKN035 BKN044 OVC095 09/07 A2987 RMK AO2 P0012 60012 T00910072 10126 20087
2026-03-21 05:35:00,METAR KHSP 210535Z AUTO 29014G23KT 270V330 10SM -RA SCT020 BKN042 OVC048 09/07 A2988 RMK AO2 P0012 T00900072
2026-03-21 05:15:00,METAR KHSP 210515Z AUTO 29010G18KT 260V330 5SM RA SCT021 BKN031 OVC045 09/07 A2990 RMK AO2 LTG DSNT NE AND W P0007 T00900066
2026-03-21 04:55:00,METAR KHSP 210455Z AUTO 27017G24KT 10SM TSRA BKN037 OVC048 12/05 A2987 RMK AO2 LTG DSNT E T01180052 401560052
2026-03-21 04:35:00,METAR KHSP 210435Z AUTO 25016G24KT 10SM OVC037 12/04 A2986 RMK AO2 LTG DSNT W T01230042
2026-03-21 04:15:00,METAR KHSP 210415Z AUTO 25016G23KT 10SM OVC035 12/04 A2985 RMK AO2 LTG DSNT NW THRU NE T01220041
2026-03-21 03:55:00,METAR KHSP 210355Z AUTO 25018G21KT 10SM VCTS SCT037 BKN044 OVC080 12/04 A2987 RMK AO2 LTG DSNT NW T01230040
2026-03-21 03:35:00,METAR KHSP 210335Z AUTO 25016G24KT 10SM VCTS SCT050 SCT065 BKN080 12/04 A2987 RMK AO2 LTG DSNT N T01220038
2026-03-21 03:15:00,METAR KHSP 210315Z AUTO 25017G25KT 10SM SCT075 BKN090 12/04 A2988 RMK AO2 LTG DSNT N T01210036
2026-03-21 02:55:00,METAR KHSP 210255Z AUTO 25019G24KT 10SM VCTS SCT060 BKN070 OVC090 12/04 A2988 RMK AO2 LTG DSNT NE AND NW T01230035
2026-03-21 02:35:00,METAR KHSP 210235Z AUTO 25017G22KT 10SM SCT060 BKN070 OVC080 12/04 A2990 RMK AO2 LTG DSNT N AND NW T01220035
2026-03-21 02:15:00,METAR KHSP 210215Z AUTO 24014KT 10SM VCTS SCT050 BKN065 OVC080 12/03 A2990 RMK AO2 LTG DSNT N T01220034
2026-03-21 01:55:00,METAR KHSP 210155Z AUTO 24017G23KT 10SM SCT048 OVC050 12/03 A2991 RMK AO2 LTG DSNT N T01230034
2026-03-21 01:35:00,METAR KHSP 210135Z AUTO 24015KT 10SM OVC050 13/03 A2992 RMK AO2 LTG DSNT N T01250032
2026-03-21 01:15:00,METAR KHSP 210115Z AUTO 25015G19KT 10SM -RA SCT048 OVC060 13/03 A2992 RMK AO2 T01250032
2026-03-21 00:55:00,METAR KHSP 210055Z AUTO 24013KT 10SM BKN050 BKN080 OVC090 13/03 A2992 RMK AO2 T01250030
2026-03-21 00:35:00,METAR KHSP 210035Z AUTO 24014G18KT 10SM BKN050 BKN065 OVC095 12/03 A2992 RMK AO2 T01210030
2026-03-21 00:15:00,METAR KHSP 210015Z AUTO 24013KT 10SM SCT050 BKN065 OVC095 12/03 A2992 RMK AO2 T01210031
2026-03-20 23:55:00,METAR KHSP 202355Z AUTO 23011KT 10SM SCT050 BKN070 OVC085 12/03 A2992 RMK AO2 T01210033 10156 20117
2026-03-20 23:35:00,METAR KHSP 202335Z AUTO 23012G19KT 10SM BKN050 OVC075 12/04 A2992 RMK AO2 T01200035
2026-03-20 23:15:00,METAR KHSP 202315Z AUTO 23014G19KT 10SM RA OVC050 12/04 A2992 RMK AO2 T01190039
2026-03-20 22:55:00,METAR KHSP 202255Z AUTO 23011G17KT 10SM OVC060 12/03 A2992 RMK AO2 T01220034
2026-03-20 22:35:00,METAR KHSP 202235Z AUTO 23009G20KT 10SM BKN060 BKN070 OVC080 12/03 A2992 RMK AO2 T01240033
2026-03-20 22:15:00,METAR KHSP 202215Z AUTO 23013G16KT 10SM -RA BKN060 OVC080 12/04 A2992 RMK AO2 T01210038
2026-03-20 21:55:00,METAR KHSP 202155Z AUTO 22009KT 10SM OVC060 12/04 A2992 RMK AO2 T01210041
2026-03-20 21:35:00,METAR KHSP 202135Z AUTO 22009KT 10SM -RA OVC070 13/04 A2992 RMK AO2 T01250038
2026-03-20 21:15:00,METAR KHSP 202115Z AUTO 24012G21KT 10SM -DZ SCT048 OVC070 13/04 A2994 RMK AO2 T01270040
2026-03-20 20:55:00,METAR KHSP 202055Z AUTO 26014G24KT 10SM -RA BKN050 OVC060 13/03 A2994 RMK AO2 T01300032
2026-03-20 20:35:00,METAR KHSP 202035Z AUTO 25016G24KT 10SM BKN060 OVC065 14/02 A2995 RMK AO2 T01360023
2026-03-20 20:15:00,METAR KHSP 202015Z AUTO 26014G25KT 10SM SCT050 BKN070 OVC095 14/02 A2996 RMK AO2 T01400016
2026-03-20 19:55:00,METAR KHSP 201955Z AUTO 25017G24KT 10SM SCT075 BKN095 OVC110 15/01 A2997 RMK AO2 T01460012
2026-03-20 19:35:00,METAR KHSP 201935Z AUTO 23011G21KT 10SM SCT075 SCT095 BKN120 15/02 A2997 RMK AO2 T01540016
2026-03-20 19:15:00,METAR KHSP 201915Z AUTO 24014G18KT 10SM SCT100 BKN120 15/02 A2998 RMK AO2 T01530020
2026-03-20 18:55:00,METAR KHSP 201855Z AUTO 24013G22KT 10SM SCT100 SCT120 14/01 A2999 RMK AO2 T01440012
2026-03-20 18:35:00,METAR KHSP 201835Z AUTO 24019G24KT 10SM SCT120 14/01 A3000 RMK AO2 T01430010
2026-03-20 18:15:00,METAR KHSP 201815Z AUTO 25015G21KT 10SM BKN110 14/01 A3002 RMK AO2 T01410013
2026-03-20 17:55:00,METAR KHSP 201755Z AUTO 25016G19KT 10SM BKN120 14/01 A3003 RMK AO2 T01380013 10147 20065
2026-03-20 17:35:00,METAR KHSP 201735Z AUTO 25013G20KT 10SM SCT120 15/01 A3004 RMK AO2 T01460014
2026-03-20 17:15:00,METAR KHSP 201715Z AUTO 25018G25KT 10SM CLR 14/01 A3005 RMK AO2 T01430013
2026-03-20 16:55:00,METAR KHSP 201655Z AUTO 24016G23KT 10SM CLR 14/02 A3006 RMK AO2 T01440019
2026-03-20 16:35:00,METAR KHSP 201635Z AUTO 24016G23KT 10SM CLR 14/02 A3007 RMK AO2 T01400017
2026-03-20 16:15:00,METAR KHSP 201615Z AUTO 24017G22KT 10SM CLR 13/02 A3007 RMK AO2 T01340016
2026-03-20 15:55:00,METAR KHSP 201555Z AUTO 25018G23KT 10SM CLR 13/01 A3007 RMK AO2 T01300012
2026-03-20 15:35:00,METAR KHSP 201535Z AUTO 24016G22KT 10SM CLR 13/01 A3008 RMK AO2 T01250013
2026-03-20 15:15:00,METAR KHSP 201515Z AUTO 24016G20KT 10SM CLR 12/01 A3009 RMK AO2 T01210013
2026-03-20 14:55:00,METAR KHSP 201455Z AUTO 25015G21KT 10SM CLR 12/01 A3009 RMK AO2 T01150009
2026-03-20 14:35:00,METAR KHSP 201435Z AUTO 25015G20KT 10SM CLR 11/01 A3010 RMK AO2 T01110007
2026-03-20 14:15:00,METAR KHSP 201415Z AUTO 25015KT 10SM CLR 11/01 A3010 RMK AO2 T01050005
2026-03-20 13:55:00,METAR KHSP 201355Z AUTO 25013KT 10SM CLR 10/01 A3011 RMK AO2 T01000005
2026-03-20 13:35:00,METAR KHSP 201335Z AUTO 25012KT 10SM CLR 10/01 A3011 RMK AO2 T00950005
2026-03-20 13:15:00,METAR KHSP 201315Z AUTO 25013KT 10SM CLR 09/00 A3011 RMK AO2 T00850001
2026-03-20 12:55:00,METAR KHSP 201255Z AUTO 25013KT 10SM CLR 09/00 A3011 RMK AO2 T00850001
2026-03-20 12:35:00,METAR KHSP 201235Z AUTO 25014KT 10SM CLR 07/00 A3012 RMK AO2 T00710000
2026-03-20 12:15:00,METAR KHSP 201215Z AUTO 25013KT 10SM CLR 07/00 A3012 RMK AO2 T00651001
2026-03-20 11:55:00,METAR KHSP 201155Z AUTO 25012KT 10SM CLR 07/00 A3012 RMK AO2 T00671001 10075 20056
2026-03-20 11:35:00,METAR KHSP 201135Z AUTO 25012KT 10SM CLR 07/00 A3011 RMK AO2 T00661001
2026-03-20 11:15:00,METAR KHSP 201115Z AUTO 25012KT 10SM CLR 07/00 A3011 RMK AO2 T00691003
2026-03-20 10:55:00,METAR KHSP 201055Z AUTO 25013KT 10SM CLR 06/00 A3011 RMK AO2 T00641005
2026-03-20 10:35:00,METAR KHSP 201035Z AUTO 26012KT 10SM CLR 07/00 A3011 RMK AO2 T00661005
2026-03-20 10:15:00,METAR KHSP 201015Z AUTO 25011KT 10SM CLR 07/00 A3011 RMK AO2 T00691005
2026-03-20 09:55:00,METAR KHSP 200955Z AUTO 25012KT 10SM CLR 07/00 A3011 RMK AO2 T00681005
2026-03-20 09:35:00,METAR KHSP 200935Z AUTO 25012KT 10SM CLR 07/00 A3011 RMK AO2 T00661005
2026-03-20 09:15:00,METAR KHSP 200915Z AUTO 25012KT 10SM CLR 07/00 A3011 RMK AO2 T00671005
2026-03-20 08:55:00,METAR KHSP 200855Z AUTO 25011KT 10SM CLR 07/00 A3011 RMK AO2 T00701005
2026-03-20 08:35:00,METAR KHSP 200835Z AUTO 25012KT 10SM CLR 07/00 A3011 RMK AO2 T00721003
2026-03-20 08:15:00,METAR KHSP 200815Z AUTO 25011KT 10SM CLR 07/00 A3011 RMK AO2 T00691001
2026-03-20 07:55:00,METAR KHSP 200755Z AUTO 26009KT 10SM CLR 07/00 A3012 RMK AO2 T00690000
2026-03-20 07:35:00,METAR KHSP 200735Z AUTO 26010KT 10SM CLR 07/00 A3013 RMK AO2 T00741001
2026-03-20 07:15:00,METAR KHSP 200715Z AUTO 26010KT 10SM CLR 08/00 A3014 RMK AO2 T00750000
2026-03-20 06:55:00,METAR KHSP 200655Z AUTO 25011KT 10SM CLR 07/00 A3014 RMK AO2 T00710000
2026-03-20 06:35:00,METAR KHSP 200635Z AUTO 26009KT 10SM CLR 07/00 A3015 RMK AO2 T00710000
2026-03-20 06:15:00,METAR KHSP 200615Z AUTO 26009KT 10SM CLR 07/00 A3016 RMK AO2 T00650001
2026-03-20 05:55:00,METAR KHSP 200555Z AUTO 25007KT 10SM CLR 07/00 A3016 RMK AO2 T00680001 10097 20052
2026-03-20 05:35:00,METAR KHSP 200535Z AUTO 25007KT 10SM CLR 06/00 A3016 RMK AO2 T00630000
2026-03-20 05:15:00,METAR KHSP 200515Z AUTO 25007KT 10SM CLR 07/00 A3016 RMK AO2 T00690001
2026-03-20 04:55:00,METAR KHSP 200455Z AUTO 25009KT 10SM CLR 07/00 A3016 RMK AO2 T00670002 401161012
2026-03-20 04:35:00,METAR KHSP 200435Z AUTO 25008KT 10SM CLR 07/00 A3016 RMK AO2 T00690003
2026-03-20 04:15:00,METAR KHSP 200415Z AUTO 25009KT 10SM CLR 05/00 A3016 RMK AO2 T00530000
2026-03-20 03:55:00,METAR KHSP 200355Z AUTO 25008KT 10SM CLR 07/00 A3017 RMK AO2 T00660002
2026-03-20 03:35:00,METAR KHSP 200335Z AUTO 26007KT 10SM CLR 08/00 A3018 RMK AO2 T00760004
2026-03-20 03:15:00,METAR KHSP 200315Z AUTO 26005KT 10SM CLR 08/00 A3018 RMK AO2 T00760003
2026-03-20 02:55:00,METAR KHSP 200255Z AUTO 26007KT 10SM CLR 08/00 A3018 RMK AO2 T00780003
2026-03-20 02:35:00,METAR KHSP 200235Z AUTO 27005KT 10SM CLR 08/00 A3019 RMK AO2 T00790002
2026-03-20 02:15:00,METAR KHSP 200215Z AUTO 25005KT 10SM SCT080 08/00 A3018 RMK AO2 T00770001
2026-03-20 01:55:00,METAR KHSP 200155Z AUTO 25005KT 10SM CLR 08/00 A3018 RMK AO2 T00750001
2026-03-20 01:35:00,METAR KHSP 200135Z AUTO 26004KT 10SM CLR 08/00 A3018 RMK AO2 T00800004
2026-03-20 01:15:00,METAR KHSP 200115Z AUTO 23004KT 10SM CLR 08/00 A3017 RMK AO2 T00820002
2026-03-20 00:55:00,METAR KHSP 200055Z AUTO 28004KT 10SM CLR 08/00 A3016 RMK AO2 T00770000
2026-03-20 00:35:00,METAR KHSP 200035Z AUTO 00000KT 10SM CLR 09/00 A3016 RMK AO2 T00900001
2026-03-20 00:15:00,METAR KHSP 200015Z AUTO 29004KT 10SM CLR 10/00 A3014 RMK AO2 T00960002
2026-03-19 23:55:00,METAR KHSP 192355Z AUTO 28005KT 10SM CLR 09/00 A3014 RMK AO2 T00940001 10116 20080
2026-03-19 23:35:00,METAR KHSP 192335Z AUTO 27005KT 10SM CLR 09/00 A3014 RMK AO2 T00930002
2026-03-19 23:15:00,METAR KHSP 192315Z AUTO 25006KT 10SM CLR 10/00 A3013 RMK AO2 T00990004
2026-03-19 22:55:00,METAR KHSP 192255Z AUTO 26004KT 10SM CLR 10/01 A3012 RMK AO2 T01030006
2026-03-19 22:35:00,METAR KHSP 192235Z AUTO 15003KT 10SM CLR 09/M01 A3012 RMK AO2 T00921006
2026-03-19 22:15:00,METAR KHSP 192215Z AUTO 11003KT 10SM SCT048 09/M01 A3012 RMK AO2 T00921008
2026-03-19 21:55:00,METAR KHSP 192155Z AUTO 11003KT 10SM SCT050 10/M01 A3012 RMK AO2 T00971009
2026-03-19 21:35:00,METAR KHSP 192135Z AUTO 27004KT 10SM SCT050 12/01 A3012 RMK AO2 T01150007
2026-03-19 21:15:00,METAR KHSP 192115Z AUTO 26007KT 10SM BKN050 12/01 A3012 RMK AO2 T01150005
2026-03-19 20:55:00,METAR KHSP 192055Z AUTO 26005G14KT 10SM BKN048 11/00 A3012 RMK AO2 T01120003
2026-03-19 20:35:00,METAR KHSP 192035Z AUTO 24005KT 10SM BKN044 10/M01 A3012 RMK AO2 T00991009
2026-03-19 20:15:00,METAR KHSP 192015Z AUTO 22004KT 10SM SCT044 10/00 A3013 RMK AO2 T01010000
2026-03-19 19:55:00,METAR KHSP 191955Z AUTO 28004KT 10SM SCT046 10/00 A3013 RMK AO2 T01020000
2026-03-19 19:35:00,METAR KHSP 191935Z AUTO 27008KT 10SM SCT046 10/00 A3013 RMK AO2 T01011001
2026-03-19 19:15:00,METAR KHSP 191915Z AUTO 29006KT 10SM CLR 09/00 A3013 RMK AO2 T00931004
2026-03-19 18:55:00,METAR KHSP 191855Z AUTO 27005KT 10SM CLR 09/M01 A3014 RMK AO2 T00871009
2026-03-19 18:35:00,METAR KHSP 191835Z AUTO 26006KT 10SM SCT039 09/M01 A3014 RMK AO2 T00901008
2026-03-19 18:15:00,METAR KHSP 191815Z AUTO 26008KT 240V300 10SM CLR 09/00 A3016 RMK AO2 T00931004
2026-03-19 17:55:00,METAR KHSP 191755Z AUTO 26004KT 10SM CLR 08/M01 A3016 RMK AO2 T00801009 10080 20003
2026-03-19 17:35:00,METAR KHSP 191735Z AUTO 27007KT 10SM CLR 07/M01 A3016 RMK AO2 T00741009
2026-03-19 17:15:00,METAR KHSP 191715Z AUTO 30008KT 10SM CLR 07/M01 A3017 RMK AO2 T00651014
2026-03-19 16:55:00,METAR KHSP 191655Z AUTO 25006KT 10SM CLR 06/M02 A3017 RMK AO2 T00591016
2026-03-19 16:35:00,METAR KHSP 191635Z AUTO 28007KT 10SM CLR 06/M02 A3017 RMK AO2 T00561018
2026-03-19 16:15:00,METAR KHSP 191615Z AUTO 27007G14KT 10SM SCT022 05/M02 A3017 RMK AO2 T00541016
2026-03-19 15:55:00,METAR KHSP 191555Z AUTO 28007KT 10SM BKN022 05/M02 A3017 RMK AO2 T00491017
2026-03-19 15:35:00,METAR KHSP 191535Z AUTO 26009KT 10SM OVC022 04/M02 A3017 RMK AO2 T00411024
2026-03-19 15:15:00,METAR KHSP 191515Z AUTO 27008KT 10SM OVC022 03/M03 A3017 RMK AO2 T00341028
2026-03-19 14:55:00,METAR KHSP 191455Z AUTO 28009KT 10SM OVC022 03/M03 A3017 RMK AO2 T00341026
2026-03-19 14:35:00,METAR KHSP 191435Z AUTO 28008KT 10SM OVC022 03/M03 A3016 RMK AO2 T00301028
2026-03-19 14:15:00,METAR KHSP 191415Z AUTO 27008KT 10SM OVC022 03/M03 A3016 RMK AO2 T00281030
2026-03-19 13:55:00,METAR KHSP 191355Z AUTO 27008KT 10SM OVC022 03/M03 A3015 RMK AO2 T00271033
2026-03-19 13:35:00,METAR KHSP 191335Z AUTO 27009KT 10SM OVC022 02/M04 A3015 RMK AO2 T00201039
2026-03-19 13:15:00,METAR KHSP 191315Z AUTO 27009KT 10SM OVC022 02/M04 A3014 RMK AO2 T00151041
2026-03-19 12:55:00,METAR KHSP 191255Z AUTO 26008KT 10SM OVC022 01/M05 A3014 RMK AO2 T00081051
2026-03-19 12:35:00,METAR KHSP 191235Z AUTO 26009KT 10SM OVC022 01/M05 A3013 RMK AO2 T00061054
2026-03-19 12:15:00,METAR KHSP 191215Z AUTO 26010KT 10SM OVC022 01/M05 A3012 RMK AO2 T00051055
2026-03-19 11:55:00,METAR KHSP 191155Z AUTO 26010KT 10SM BKN019 OVC025 00/M06 A3012 RMK AO2 T00031060 10004 21007
2026-03-19 11:35:00,METAR KHSP 191135Z AUTO 26009KT 10SM OVC017 00/M07 A3012 RMK AO2 T00001070
2026-03-19 11:15:00,METAR KHSP 191115Z AUTO 27010KT 10SM OVC017 00/M07 A3012 RMK AO2 T00001071
2026-03-19 10:55:00,METAR KHSP 191055Z AUTO 26009KT 10SM OVC017 00/M07 A3010 RMK AO2 T00001072
2026-03-19 10:35:00,METAR KHSP 191035Z AUTO 26010KT 10SM OVC017 00/M08 A3010 RMK AO2 T10011076
2026-03-19 10:15:00,METAR KHSP 191015Z AUTO 27009KT 10SM OVC017 00/M08 A3009 RMK AO2 T10021076
2026-03-19 09:55:00,METAR KHSP 190955Z AUTO 26008KT 10SM OVC019 00/M08 A3010 RMK AO2 T10021077
2026-03-19 09:35:00,METAR KHSP 190935Z AUTO 26008KT 10SM OVC021 00/M07 A3009 RMK AO2 T10031075
2026-03-19 09:15:00,METAR KHSP 190915Z AUTO 26008KT 10SM BKN021 00/M07 A3009 RMK AO2 T10051075
2026-03-19 08:55:00,METAR KHSP 190855Z AUTO 25010KT 10SM SCT023 SCT041 M01/M08 A3009 RMK AO2 T10071076
2026-03-19 08:35:00,METAR KHSP 190835Z AUTO 24009KT 10SM SCT023 OVC043 00/M07 A3009 RMK AO2 T10051075
2026-03-19 08:15:00,METAR KHSP 190815Z AUTO 24010KT 10SM OVC045 00/M07 A3009 RMK AO2 T10051074
2026-03-19 07:35:00,METAR KHSP 190735Z AUTO 23008KT 10SM BKN028 OVC049 00/M08 A3010 RMK AO2 T10021078
2026-03-19 07:15:00,METAR KHSP 190715Z AUTO 22008KT 10SM OVC028 00/M08 A3012 RMK AO2 T10031081
2026-03-19 06:55:00,METAR KHSP 190655Z AUTO 23007KT 10SM BKN030 OVC046 00/M08 A3013 RMK AO2 T10031081
2026-03-19 06:35:00,METAR KHSP 190635Z AUTO 23007KT 10SM SCT033 OVC046 00/M08 A3013 RMK AO2 T10031081
2026-03-19 06:15:00,METAR KHSP 190615Z AUTO 22007KT 10SM SCT033 OVC046 00/M08 A3014 RMK AO2 T10041084
2026-03-19 05:55:00,METAR KHSP 190555Z AUTO 21005KT 10SM OVC046 00/M09 A3014 RMK AO2 T10051088 11005 21018
2026-03-19 05:35:00,METAR KHSP 190535Z AUTO 20008KT 10SM SCT028 OVC046 M01/M09 A3014 RMK AO2 T10111095
2026-03-19 05:15:00,METAR KHSP 190515Z AUTO 19008KT 10SM BKN028 OVC042 M01/M09 A3014 RMK AO2 T10111095
2026-03-19 04:55:00,METAR KHSP 190455Z AUTO 19006KT 10SM OVC028 M01/M09 A3014 RMK AO2 T10101095 400001115
2026-03-19 04:35:00,METAR KHSP 190435Z AUTO 21007KT 10SM OVC030 M01/M10 A3015 RMK AO2 T10111097
2026-03-19 04:15:00,METAR KHSP 190415Z AUTO 19007KT 10SM OVC030 M02/M10 A3015 RMK AO2 T10161104
2026-03-19 03:55:00,METAR KHSP 190355Z AUTO 18005KT 10SM OVC030 M02/M10 A3015 RMK AO2 T10161105
2026-03-19 03:35:00,METAR KHSP 190335Z AUTO 18010G15KT 10SM OVC030 M02/M11 A3014 RMK AO2 T10161106
2026-03-19 03:15:00,METAR KHSP 190315Z AUTO 18009KT 10SM OVC034 M02/M11 A3015 RMK AO2 T10161106
2026-03-19 02:55:00,METAR KHSP 190255Z AUTO 18009KT 10SM OVC034 M02/M11 A3015 RMK AO2 T10161106
2026-03-19 02:35:00,METAR KHSP 190235Z AUTO 18009G14KT 10SM OVC036 M02/M10 A3014 RMK AO2 T10161105
2026-03-19 02:15:00,METAR KHSP 190215Z AUTO 18009KT 10SM OVC036 M02/M10 A3014 RMK AO2 T10161104
2026-03-19 01:55:00,METAR KHSP 190155Z AUTO 17007KT 10SM OVC036 M02/M10 A3014 RMK AO2 T10171104
2026-03-19 01:35:00,METAR KHSP 190135Z AUTO 19008KT 10SM OVC038 M02/M10 A3013 RMK AO2 T10171101
2026-03-19 01:15:00,METAR KHSP 190115Z AUTO 17008KT 10SM OVC040 M02/M10 A3014 RMK AO2 T10181099
2026-03-19 00:55:00,METAR KHSP 190055Z AUTO 16007KT 10SM OVC042 M02/M10 A3013 RMK AO2 T10181097
2026-03-19 00:35:00,METAR KHSP 190035Z AUTO 17006KT 10SM OVC044 M02/M09 A3013 RMK AO2 T10181095
2026-03-19 00:15:00,METAR KHSP 190015Z AUTO 16006KT 10SM OVC046 M02/M09 A3012 RMK AO2 T10171095
2026-03-18 23:55:00,METAR KHSP 182355Z AUTO 16006KT 10SM OVC048 M02/M09 A3012 RMK AO2 T10161095 10000 21027
2026-03-18 23:35:00,METAR KHSP 182335Z AUTO 16006KT 10SM SCT036 OVC050 M01/M09 A3012 RMK AO2 T10151095
2026-03-18 23:15:00,METAR KHSP 182315Z AUTO 16007KT 10SM SCT036 OVC050 M01/M10 A3012 RMK AO2 T10121096
2026-03-18 22:55:00,METAR KHSP 182255Z AUTO 17006KT 10SM OVC050 M01/M10 A3013 RMK AO2 T10111096
2026-03-18 22:35:00,METAR KHSP 182235Z AUTO 16006KT 10SM SCT037 BKN060 OVC065 M01/M10 A3012 RMK AO2 T10101096
2026-03-18 22:15:00,METAR KHSP 182215Z AUTO 15007KT 10SM SCT037 OVC050 M01/M10 A3012 RMK AO2 T10091101
2026-03-18 21:55:00,METAR KHSP 182155Z AUTO 15006KT 10SM BKN050 M01/M10 A3012 RMK AO2 T10091100
2026-03-18 21:35:00,METAR KHSP 182135Z AUTO 15005KT 10SM SCT042 SCT050 SCT060 M01/M11 A3012 RMK AO2 T10091106
2026-03-18 21:15:00,METAR KHSP 182115Z AUTO 16006KT 10SM BKN044 OVC060 00/M10 A3012 RMK AO2 T10031099
2026-03-18 20:55:00,METAR KHSP 182055Z AUTO 17005KT 10SM BKN044 OVC060 00/M10 A3012 RMK AO2 T10011096
2026-03-18 20:35:00,METAR KHSP 182035Z AUTO 19004KT 10SM SCT042 SCT048 OVC060 M01/M10 A3012 RMK AO2 T10081098
2026-03-18 20:15:00,METAR KHSP 182015Z AUTO 16006KT 10SM OVC060 M01/M10 A3013 RMK AO2 T10071098
2026-03-18 19:35:00,METAR KHSP 181935Z AUTO 20007KT 10SM SCT060 SCT080 00/M09 A3013 RMK AO2 T10021090
2026-03-18 19:15:00,METAR KHSP 181915Z AUTO 18005KT 10SM CLR M01/M10 A3014 RMK AO2 T10081096
2026-03-18 18:55:00,METAR KHSP 181855Z AUTO 23007KT 190V250 10SM CLR M01/M09 A3014 RMK AO2 T10111092
2026-03-18 18:35:00,METAR KHSP 181835Z AUTO 20007KT 160V230 10SM CLR M02/M11 A3015 RMK AO2 T10201107
2026-03-18 18:15:00,METAR KHSP 181815Z AUTO 21005KT 10SM CLR M02/M09 A3016 RMK AO2 T10191092
2026-03-18 17:55:00,METAR KHSP 181755Z AUTO 16005KT 10SM CLR M03/M11 A3016 RMK AO2 T10301110 11028 21096
2026-03-18 17:35:00,METAR KHSP 181735Z AUTO 18006KT 10SM SCT080 M03/M10 A3017 RMK AO2 T10311105
2026-03-18 17:15:00,METAR KHSP 181715Z AUTO 15006KT 10SM OVC080 M03/M11 A3018 RMK AO2 T10351111
2026-03-18 16:55:00,METAR KHSP 181655Z AUTO 18004KT 10SM SCT080 M04/M11 A3018 RMK AO2 T10411112
2026-03-18 16:35:00,METAR KHSP 181635Z AUTO 16005KT 10SM CLR M04/M12 A3018 RMK AO2 T10451117
2026-03-18 16:15:00,METAR KHSP 181615Z AUTO 00000KT 10SM CLR M05/M11 A3017 RMK AO2 T10491110
2026-03-18 15:55:00,METAR KHSP 181555Z AUTO 16005KT 10SM CLR M05/M11 A3017 RMK AO2 T10541110
2026-03-18 15:35:00,METAR KHSP 181535Z AUTO 12005KT 10SM CLR M06/M11 A3018 RMK AO2 T10611115
2026-03-18 15:15:00,METAR KHSP 181515Z AUTO 12004KT 10SM SCT120 M06/M11 A3017 RMK AO2 T10641115
2026-03-18 14:55:00,METAR KHSP 181455Z AUTO 15005KT 10SM BKN120 M07/M12 A3017 RMK AO2 T10691117
2026-03-18 14:35:00,METAR KHSP 181435Z AUTO 15004KT 10SM CLR M07/M12 A3016 RMK AO2 T10741118
2026-03-18 14:15:00,METAR KHSP 181415Z AUTO 14004KT 10SM SCT110 M07/M12 A3016 RMK AO2 T10681121
2026-03-18 13:55:00,METAR KHSP 181355Z AUTO 00000KT 10SM BKN110 M08/M13 A3015 RMK AO2 T10771135
2026-03-18 13:35:00,METAR KHSP 181335Z AUTO 26003KT 10SM SCT120 M08/M14 A3014 RMK AO2 T10821137
2026-03-18 13:15:00,METAR KHSP 181315Z AUTO 27004KT 10SM SCT080 SCT120 M08/M14 A3013 RMK AO2 T10851138
2026-03-18 12:55:00,METAR KHSP 181255Z AUTO 29006KT 10SM OVC080 M09/M14 A3013 RMK AO2 T10901140
2026-03-18 12:35:00,METAR KHSP 181235Z AUTO 29006KT 10SM BKN090 M09/M14 A3012 RMK AO2 T10901140
2026-03-18 12:15:00,METAR KHSP 181215Z AUTO 27007KT 10SM CLR M09/M14 A3012 RMK AO2 T10941140
2026-03-18 11:55:00,METAR KHSP 181155Z AUTO 27008KT 10SM CLR M10/M14 A3012 RMK AO2 T10961140 11096 21115
2026-03-18 11:35:00,METAR KHSP 181135Z AUTO 27011KT 10SM CLR M10/M14 A3011 RMK AO2 T11001140
2026-03-18 11:15:00,METAR KHSP 181115Z AUTO 27011KT 10SM CLR M10/M14 A3010 RMK AO2 T11011139
2026-03-18 10:55:00,METAR KHSP 181055Z AUTO 27012KT 10SM SCT095 M10/M14 A3010 RMK AO2 T11001138
2026-03-18 10:35:00,METAR KHSP 181035Z AUTO 27011KT 10SM OVC095 M10/M14 A3010 RMK AO2 T11021137
2026-03-18 10:15:00,METAR KHSP 181015Z AUTO 27012KT 10SM OVC095 M10/M14 A3010 RMK AO2 T11051138
2026-03-18 09:55:00,METAR KHSP 180955Z AUTO 27010KT 10SM OVC095 M11/M14 A3009 RMK AO2 T11071139
2026-03-18 09:35:00,METAR KHSP 180935Z AUTO 28012KT 10SM OVC110 M10/M14 A3009 RMK AO2 T11051138
2026-03-18 09:15:00,METAR KHSP 180915Z AUTO 28011KT 10SM OVC110 M11/M14 A3009 RMK AO2 T11061140
2026-03-18 08:55:00,METAR KHSP 180855Z AUTO 28014KT 10SM OVC100 M11/M14 A3008 RMK AO2 T11101141
2026-03-18 08:35:00,METAR KHSP 180835Z AUTO 27014KT 10SM OVC100 M11/M14 A3008 RMK AO2 T11101140
2026-03-18 08:15:00,METAR KHSP 180815Z AUTO 28018KT 10SM BKN110 M11/M14 A3007 RMK AO2 T11101140
2026-03-18 07:55:00,METAR KHSP 180755Z AUTO 28015G20KT 10SM CLR M11/M14 A3008 RMK AO2 T11101143
2026-03-18 07:35:00,METAR KHSP 180735Z AUTO 28013KT 10SM CLR M11/M14 A3008 RMK AO2 T11111145
2026-03-18 07:15:00,METAR KHSP 180715Z AUTO 27011KT 10SM CLR M11/M15 A3008 RMK AO2 T11111147
2026-03-18 06:55:00,METAR KHSP 180655Z AUTO 27008KT 10SM CLR M11/M15 A3009 RMK AO2 T11121148
2026-03-18 06:35:00,METAR KHSP 180635Z AUTO 27008KT 10SM CLR M11/M15 A3008 RMK AO2 T11151147
2026-03-18 06:15:00,METAR KHSP 180615Z AUTO 27010KT 10SM CLR M11/M15 A3007 RMK AO2 T11141150
2026-03-18 05:55:00,METAR KHSP 180555Z AUTO 27009KT 10SM CLR M11/M15 A3006 RMK AO2 T11151150 11088 21115
2026-03-18 05:35:00,METAR KHSP 180535Z AUTO 28015KT 10SM CLR M11/M15 A3006 RMK AO2 T11131152
2026-03-18 05:15:00,METAR KHSP 180515Z AUTO 28010KT 10SM CLR M11/M15 A3008 RMK AO2 T11131154
2026-03-18 04:55:00,METAR KHSP 180455Z AUTO 28007KT 10SM SCT021 M11/M15 A3008 RMK AO2 T11121155 410561112
2026-03-18 04:35:00,METAR KHSP 180435Z AUTO 28007KT 10SM OVC023 M11/M15 A3008 RMK AO2 T11101154
2026-03-18 04:15:00,METAR KHSP 180415Z AUTO 28011G17KT 10SM OVC023 M11/M15 A3007 RMK AO2 T11081151
2026-03-18 03:55:00,METAR KHSP 180355Z AUTO 28011G17KT 10SM BKN019 BKN027 M11/M15 A3006 RMK AO2 T11071146
2026-03-18 03:35:00,METAR KHSP 180335Z AUTO 29009G16KT 10SM SCT017 M10/M15 A3005 RMK AO2 T11051146
2026-03-18 03:15:00,METAR KHSP 180315Z AUTO 28008G17KT 10SM BKN019 M10/M14 A3004 RMK AO2 T11021141
2026-03-18 02:55:00,METAR KHSP 180255Z AUTO 29009G15KT 10SM BKN017 OVC021 M10/M13 A3003 RMK AO2 T11001135
2026-03-18 02:35:00,METAR KHSP 180235Z AUTO 29008G18KT 10SM OVC017 M10/M14 A3003 RMK AO2 T11001136
2026-03-18 02:15:00,METAR KHSP 180215Z AUTO 30009G18KT 270V330 10SM BKN015 OVC021 M10/M13 A3002 RMK AO2 T10961128
2026-03-18 01:55:00,METAR KHSP 180155Z AUTO 29008G16KT 10SM BKN015 BKN024 OVC031 M09/M13 A3003 RMK AO2 T10951127
2026-03-18 01:35:00,METAR KHSP 180135Z AUTO 28006KT 10SM BKN015 OVC023 M09/M12 A3003 RMK AO2 T10951125
2026-03-18 01:15:00,METAR KHSP 180115Z AUTO 28005G14KT 10SM -SN OVC019 M09/M13 A3002 RMK AO2 T10931128
2026-03-18 00:55:00,METAR KHSP 180055Z AUTO 29008G15KT 260V340 10SM BKN021 BKN032 BKN038 M09/M13 A3001 RMK AO2 T10931135
2026-03-18 00:35:00,METAR KHSP 180035Z AUTO 28013G21KT 10SM SCT023 SCT029 SCT037 M09/M14 A3000 RMK AO2 T10921139
2026-03-18 00:15:00,METAR KHSP 180015Z AUTO 27015G23KT 10SM SCT016 BKN023 OVC033 M09/M14 A3000 RMK AO2 T10901136
2026-03-17 23:55:00,METAR KHSP 172355Z AUTO 27012G22KT 7SM BKN017 OVC025 M09/M13 A2999 RMK AO2 T10881131 11056 21088
2026-03-17 23:35:00,METAR KHSP 172335Z AUTO 29011G21KT 240V330 10SM BKN017 OVC022 M08/M12 A2999 RMK AO2 T10851119
2026-03-17 23:15:00,METAR KHSP 172315Z AUTO 31010G19KT 270V340 10SM BKN021 BKN030 OVC038 M08/M12 A2997 RMK AO2 T10801124
2026-03-17 22:55:00,METAR KHSP 172255Z AUTO 27014G22KT 10SM SCT025 BKN034 BKN050 M08/M13 A2995 RMK AO2 T10801133
2026-03-17 22:35:00,METAR KHSP 172235Z AUTO 27014G25KT 10SM SCT021 BKN026 BKN034 M08/M13 A2994 RMK AO2 T10761126
2026-03-17 22:15:00,METAR KHSP 172215Z AUTO 28015G23KT 10SM SCT016 BKN024 OVC044 M07/M12 A2993 RMK AO2 T10731121
2026-03-17 21:55:00,METAR KHSP 172155Z AUTO 27014G20KT 3SM -SN SCT008 OVC015 M08/M11 A2992 RMK AO2 T10761112
2026-03-17 21:35:00,METAR KHSP 172135Z AUTO 26010G19KT 10SM OVC006 M08/M09 A2990 RMK AO2 T10761091
2026-03-17 21:15:00,METAR KHSP 172115Z AUTO 27017G22KT 3/4SM -SN OVC004 M08/M09 A2989 RMK AO2 T10801092
2026-03-17 20:55:00,METAR KHSP 172055Z AUTO 27015G21KT 10SM OVC016 M06/M10 A2988 RMK AO2 T10651101
2026-03-17 20:35:00,METAR KHSP 172035Z AUTO 25015G20KT 10SM OVC016 M06/M10 A2987 RMK AO2 T10611101
2026-03-17 20:15:00,METAR KHSP 172015Z AUTO 26016G23KT 10SM BKN018 M06/M10 A2986 RMK AO2 T10631104
2026-03-17 19:55:00,METAR KHSP 171955Z AUTO 27016G21KT 10SM SCT012 BKN018 BKN023 M06/M10 A2985 RMK AO2 T10651103
2026-03-17 19:35:00,METAR KHSP 171935Z AUTO 28018G22KT 10SM BKN023 BKN030 OVC044 M06/M11 A2985 RMK AO2 T10641115
2026-03-17 19:15:00,METAR KHSP 171915Z AUTO 25011G18KT 10SM SCT025 BKN036 OVC044 M06/M11 A2985 RMK AO2 T10591112
2026-03-17 18:55:00,METAR KHSP 171855Z AUTO 27014G21KT 10SM SCT032 BKN041 BKN048 M06/M12 A2985 RMK AO2 T10611124
2026-03-17 18:35:00,METAR KHSP 171835Z AUTO 27015G21KT 10SM SCT028 SCT033 BKN041 M06/M13 A2985 RMK AO2 T10611126
2026-03-17 18:15:00,METAR KHSP 171815Z AUTO 26008G18KT 10SM SCT028 BKN033 OVC043 M06/M11 A2985 RMK AO2 T10651115
2026-03-17 17:55:00,METAR KHSP 171755Z AUTO 25016G21KT 10SM BKN030 OVC040 M06/M12 A2986 RMK AO2 T10651124 11062 21097
2026-03-17 17:35:00,METAR KHSP 171735Z AUTO 25011G19KT 10SM OVC030 M07/M13 A2986 RMK AO2 T10671126
2026-03-17 17:15:00,METAR KHSP 171715Z AUTO 28011G18KT 10SM OVC030 M07/M13 A2986 RMK AO2 T10711132
2026-03-17 16:55:00,METAR KHSP 171655Z AUTO 28013G20KT 10SM BKN032 OVC040 M07/M13 A2985 RMK AO2 T10691128
2026-03-17 16:35:00,METAR KHSP 171635Z AUTO 26013G23KT 10SM OVC032 M07/M13 A2985 RMK AO2 T10701134
2026-03-17 16:15:00,METAR KHSP 171615Z AUTO 27010G20KT 240V300 10SM BKN030 OVC036 M07/M13 A2985 RMK AO2 T10741132
2026-03-17 15:55:00,METAR KHSP 171555Z AUTO 26015G20KT 10SM BKN023 BKN030 BKN035 M07/M13 A2984 RMK AO2 T10741126
2026-03-17 15:35:00,METAR KHSP 171535Z AUTO 26014G24KT 10SM BKN021 OVC026 M08/M12 A2984 RMK AO2 T10781122
2026-03-17 15:15:00,METAR KHSP 171515Z AUTO 28014G18KT 10SM BKN017 OVC022 M08/M12 A2983 RMK AO2 T10841118
2026-03-17 14:55:00,METAR KHSP 171455Z AUTO 28011G18KT 10SM -SN OVC017 M09/M12 A2985 RMK AO2 T10871120
2026-03-17 14:35:00,METAR KHSP 171435Z AUTO 28010G19KT 10SM -SN BKN017 OVC022 M09/M12 A2984 RMK AO2 T10871116
2026-03-17 14:15:00,METAR KHSP 171415Z AUTO 26012G19KT 10SM BKN018 OVC023 M09/M12 A2984 RMK AO2 T10901120
2026-03-17 13:55:00,METAR KHSP 171355Z AUTO 27011G17KT 10SM BKN017 OVC024 M09/M12 A2983 RMK AO2 T10891121
2026-03-17 13:35:00,METAR KHSP 171335Z AUTO 28014G20KT 10SM BKN015 OVC020 M09/M12 A2982 RMK AO2 T10891117
2026-03-17 13:15:00,METAR KHSP 171315Z AUTO 28013G20KT 10SM BKN015 OVC022 M09/M12 A2982 RMK AO2 T10921118
2026-03-17 12:55:00,METAR KHSP 171255Z AUTO 27014G20KT 10SM BKN013 OVC020 M09/M12 A2981 RMK AO2 T10921118
2026-03-17 12:35:00,METAR KHSP 171235Z AUTO 27014G22KT 10SM BKN013 OVC022 M09/M12 A2981 RMK AO2 T10931117
2026-03-17 12:15:00,METAR KHSP 171215Z AUTO 27016G24KT 10SM BKN015 OVC022 M10/M12 A2979 RMK AO2 T10961117
2026-03-17 11:55:00,METAR KHSP 171155Z AUTO 27017G22KT 10SM BKN010 OVC014 M10/M12 A2976 RMK AO2 70041 T10981118 11088 21100
2026-03-17 11:35:00,METAR KHSP 171135Z AUTO 28017G22KT 4SM BR BKN006 OVC011 M10/M11 A2975 RMK AO2 T10981112
2026-03-17 11:15:00,METAR KHSP 171115Z AUTO 27016G22KT 10SM SCT007 OVC013 M10/M11 A2973 RMK AO2 T10971113
2026-03-17 10:55:00,METAR KHSP 171055Z AUTO 29013G22KT 10SM BKN008 OVC015 M10/M12 A2972 RMK AO2 T10971117
2026-03-17 10:35:00,METAR KHSP 171035Z AUTO 27016G23KT 7SM OVC010 M10/M11 A2971 RMK AO2 T10971112
2026-03-17 10:15:00,METAR KHSP 171015Z AUTO 27018G24KT 10SM OVC010 M10/M11 A2970 RMK AO2 T10971113
2026-03-17 09:55:00,METAR KHSP 170955Z AUTO 27017G24KT 7SM BKN010 OVC014 M10/M11 A2969 RMK AO2 T10971112
2026-03-17 09:35:00,METAR KHSP 170935Z AUTO 28015G24KT 7SM SCT006 BKN009 OVC014 M10/M11 A2967 RMK AO2 T10981114
2026-03-17 09:15:00,METAR KHSP 170915Z AUTO 28019G24KT 1 3/4SM -SN OVC008 M10/M11 A2967 RMK AO2 T10971111
2026-03-17 08:55:00,METAR KHSP 170855Z AUTO 28019G29KT 5SM BR BKN008 OVC014 M10/M11 A2966 RMK AO2 T10971112
2026-03-17 08:35:00,METAR KHSP 170835Z AUTO 28022G31KT 5SM -SN BKN008 OVC016 M10/M11 A2963 RMK AO2 T10971112
2026-03-17 08:15:00,METAR KHSP 170815Z AUTO 28023G32KT 4SM -SN SCT003 OVC008 M10/M11 A2963 RMK AO2 T10971112
2026-03-17 07:55:00,METAR KHSP 170755Z AUTO 28024G30KT 2 1/2SM -SN BKN003 OVC009 M10/M11 A2962 RMK AO2 VIS 1 1/2V5 T10971110
2026-03-17 07:35:00,METAR KHSP 170735Z AUTO 28021G28KT 1/2SM SN OVC003 M10/M11 A2963 RMK AO2 T10961109
2026-03-17 07:15:00,METAR KHSP 170715Z AUTO 28021G28KT 1/2SM -SN OVC003 M09/M11 A2964 RMK AO2 T10951106
2026-03-17 06:55:00,METAR KHSP 170655Z AUTO 28021G29KT 3/4SM -SN OVC003 M09/M11 A2964 RMK AO2 T10951106
2026-03-17 06:35:00,METAR KHSP 170635Z AUTO 28018G25KT 3/4SM SN OVC003 M09/M10 A2964 RMK AO2 T10931105
2026-03-17 06:15:00,METAR KHSP 170615Z AUTO 27018G29KT 1SM -SN BKN007 OVC011 M09/M11 A2963 RMK AO2 T10911109
2026-03-17 05:55:00,METAR KHSP 170555Z AUTO 27021G29KT 7SM SCT004 BKN014 OVC019 M09/M11 A2962 RMK AO2 T10881113 11037 21090
2026-03-17 05:35:00,METAR KHSP 170535Z AUTO 28016G21KT 1 1/2SM -SN OVC004 M09/M10 A2961 RMK AO2 VIS 1V3 T10861098
2026-03-17 05:15:00,METAR KHSP 170515Z AUTO 26014G24KT 3/4SM SN OVC004 M08/M10 A2961 RMK AO2 T10851097
2026-03-17 04:55:00,METAR KHSP 170455Z AUTO 27016G26KT 7SM -SN SCT012 BKN018 OVC023 M08/M11 A2959 RMK AO2 T10801106 401221080
2026-03-17 04:35:00,METAR KHSP 170435Z AUTO 27018G28KT 7SM -SN BKN013 OVC020 M08/M10 A2957 RMK AO2 T10801104
2026-03-17 04:15:00,METAR KHSP 170415Z AUTO 27017G28KT 7SM -SN BKN012 OVC018 M08/M10 A2956 RMK AO2 T10771099
2026-03-17 03:55:00,METAR KHSP 170355Z AUTO 28020G32KT 5SM -SN SCT007 OVC012 M07/M09 A2952 RMK AO2 T10731091
2026-03-17 03:35:00,METAR KHSP 170335Z AUTO 28021G35KT 1 1/4SM -SN BKN006 OVC011 M07/M08 A2950 RMK AO2 T10711085
2026-03-17 03:15:00,METAR KHSP 170315Z AUTO 28021G27KT 10SM BKN013 OVC019 M07/M09 A2951 RMK AO2 LTG DSNT E T10681087
2026-03-17 02:55:00,METAR KHSP 170255Z AUTO 28020G25KT 7SM BKN015 OVC019 M07/M09 A2951 RMK AO2 T10661086
2026-03-17 02:35:00,METAR KHSP 170235Z AUTO 28020G35KT 10SM SCT010 BKN017 BKN025 M06/M09 A2951 RMK AO2 T10651090
2026-03-17 02:15:00,METAR KHSP 170215Z AUTO 28025G39KT 5SM -SN BKN013 BKN019 M06/M08 A2948 RMK AO2 T10621085
2026-03-17 01:55:00,METAR KHSP 170155Z AUTO 28022G30KT 7SM SCT010 BKN015 M06/M07 A2947 RMK AO2 T10561071
2026-03-17 01:35:00,METAR KHSP 170135Z AUTO 27020G26KT 10SM SCT008 OVC015 M05/M06 A2947 RMK AO2 T10531065
2026-03-17 01:15:00,METAR KHSP 170115Z AUTO 28020G26KT 10SM SCT002 BKN007 OVC014 M05/M06 A2946 RMK AO2 T10481058
2026-03-17 00:55:00,METAR KHSP 170055Z AUTO 28021G27KT 5SM BR BKN002 OVC007 M04/M05 A2944 RMK AO2 T10451052
2026-03-17 00:35:00,METAR KHSP 170035Z AUTO 27021G25KT 1/4SM SN OVC002 M04/M04 A2943 RMK AO2 T10381045
2026-03-17 00:15:00,METAR KHSP 170015Z AUTO 27023G30KT 1/2SM SN OVC002 M04/M04 A2941 RMK AO2 T10371045
2026-03-16 23:55:00,METAR KHSP 162355Z AUTO 27023G30KT 1/4SM SN OVC002 M04/M04 A2937 RMK AO2 P0002 60033 T10371045 10105 21037
2026-03-16 23:35:00,METAR KHSP 162335Z AUTO 27022G28KT M1/4SM +SN OVC002 M03/M03 A2940 RMK AO2 P0002 T10281034
2026-03-16 23:15:00,METAR KHSP 162315Z AUTO 27019G25KT M1/4SM +SN OVC002 M02/M02 A2938 RMK AO2 P0001 T10201025
2026-03-16 22:55:00,METAR KHSP 162255Z AUTO 28019G27KT M1/4SM SN OVC002 M02/M02 A2939 RMK AO2 P0005 T10161020
2026-03-16 22:35:00,METAR KHSP 162235Z AUTO 27021G29KT M1/4SM SN OVC002 M01/M01 A2938 RMK AO2 P0003 T10091012
2026-03-16 22:15:00,METAR KHSP 162215Z AUTO 27022G25KT M1/4SM -SN OVC002 00/M01 A2936 RMK AO2 P0001 T10031006
2026-03-16 21:55:00,METAR KHSP 162155Z AUTO 28023G31KT M1/4SM SN OVC002 00/00 A2936 RMK AO2 P0009 T00001002
2026-03-16 21:35:00,METAR KHSP 162135Z AUTO 27023G31KT M1/4SM UP OVC002 00/00 A2937 RMK AO2 P0005 T00020000
2026-03-16 21:15:00,METAR KHSP 162115Z AUTO 27028G34KT M1/4SM -SN OVC002 01/00 A2934 RMK AO2 T00080004
2026-03-16 20:55:00,METAR KHSP 162055Z AUTO 27024G32KT M1/4SM -RA OVC002 03/02 A2935 RMK AO2 P0016 60016 T00250022
2026-03-16 20:35:00,METAR KHSP 162035Z AUTO 26021G28KT 1/2SM RA OVC002 10/09 A2935 RMK AO2 VIS M1/4V1 3/4 P0010 T00950091
2026-03-16 20:15:00,METAR KHSP 162015Z AUTO 16011G19KT M1/4SM DZ OVC002 11/10 A2934 RMK AO2 LTG DSNT S T01050101
2026-03-16 19:55:00,METAR KHSP 161955Z AUTO 15009G18KT M1/4SM -RA OVC002 11/10 A2936 RMK AO2 T01050101
2026-03-16 19:35:00,METAR KHSP 161935Z AUTO 16011G18KT M1/4SM DZ OVC002 10/10 A2937 RMK AO2 T01010099
2026-03-16 19:15:00,METAR KHSP 161915Z AUTO 14008G14KT 090V160 M1/4SM DZ OVC002 10/10 A2939 RMK AO2 T01000096
2026-03-16 18:55:00,METAR KHSP 161855Z AUTO 16011G18KT 120V210 M1/4SM DZ OVC002 10/10 A2943 RMK AO2 T01000096
2026-03-16 18:35:00,METAR KHSP 161835Z AUTO 16007KT M1/4SM FG OVC002 10/10 A2945 RMK AO2 T01000096
2026-03-16 18:15:00,METAR KHSP 161815Z AUTO 17008KT M1/4SM FG OVC002 10/10 A2947 RMK AO2 T01030098
2026-03-16 17:55:00,METAR KHSP 161755Z AUTO 17008KT 10SM SCT004 SCT026 OVC065 11/10 A2949 RMK AO2 60008 T01050095 10122 20102
2026-03-16 17:35:00,METAR KHSP 161735Z AUTO 19009G14KT 2 1/2SM DZ BKN002 BKN026 OVC065 10/10 A2952 RMK AO2 VIS 1/2V5 T01020096
2026-03-16 17:15:00,METAR KHSP 161715Z AUTO 15005KT M1/4SM -RA OVC002 11/10 A2952 RMK AO2 LTG DSNT S T01060100
2026-03-16 16:55:00,METAR KHSP 161655Z AUTO 21012G19KT 10SM SCT070 BKN080 OVC120 12/08 A2953 RMK AO2 T01170079
2026-03-16 16:35:00,METAR KHSP 161635Z AUTO 22013G17KT 10SM SCT080 BKN090 OVC120 12/08 A2952 RMK AO2 LTG DSNT SE T01160080
2026-03-16 15:55:00,METAR KHSP 161555Z AUTO 17005KT 3SM BR SCT001 OVC060 10/10 A2954 RMK AO2 P0002 T01020095
2026-03-16 15:35:00,METAR KHSP 161535Z AUTO 20011G22KT 180V240 10SM -RA OVC060 11/09 A2957 RMK AO2 P0001 T01070085
2026-03-16 15:15:00,METAR KHSP 161515Z AUTO 22013G16KT 10SM DZ BKN060 OVC070 11/09 A2958 RMK AO2 T01050088
2026-03-16 14:55:00,METAR KHSP 161455Z AUTO 23016G20KT 10SM OVC070 11/09 A2959 RMK AO2 P0001 60006 T01080091
2026-03-16 14:35:00,METAR KHSP 161435Z AUTO 24017G22KT 7SM RA SCT048 SCT055 OVC070 11/10 A2960 RMK AO2 LTG DSNT NE P0001 T01070096
2026-03-16 14:15:00,METAR KHSP 161415Z AUTO 23017G23KT 10SM DZ SCT004 SCT023 OVC050 11/10 A2961 RMK AO2 LTG DSNT S T01080096
2026-03-16 13:55:00,METAR KHSP 161355Z AUTO 23015G22KT 7SM -RA SCT004 BKN024 OVC036 11/10 A2961 RMK AO2 LTG DSNT S P0003 T01080099
2026-03-16 13:35:00,METAR KHSP 161335Z AUTO 23020G25KT 10SM -RA BKN004 BKN008 OVC014 11/10 A2961 RMK AO2 LTG DSNT E AND S P0003 T01050099
2026-03-16 13:15:00,METAR KHSP 161315Z AUTO 22020G27KT 7SM VCTS SCT006 BKN015 BKN022 12/11 A2961 RMK AO2 LTG DSNT E T01180105
2026-03-16 12:55:00,METAR KHSP 161255Z AUTO 17016G22KT 10SM VCTS BKN004 BKN020 OVC110 12/11 A2959 RMK AO2 LTG DSNT S P0002 T01160110
2026-03-16 12:35:00,METAR KHSP 161235Z AUTO 16015G28KT 1 1/4SM -RA SCT002 OVC005 12/12 A2960 RMK AO2 VIS 1/4V5 LTG DSNT S P0002 T01200115
2026-03-16 12:15:00,METAR KHSP 161215Z AUTO 19015G23KT 5SM VCTSRA BKN002 BKN007 OVC021 12/12 A2961 RMK AO2 LTG DSNT S P0001 T01220118
2026-03-16 11:55:00,METAR KHSP 161155Z AUTO 19014G23KT 1/4SM -RA OVC002 12/12 A2962 RMK AO2 LTG DSNT S P0001 60031 70076 T01220120 10122 20100
2026-03-16 11:35:00,METAR KHSP 161135Z AUTO 20014G27KT 3/4SM BR OVC002 12/12 A2963 RMK AO2 VIS 1/4V5 T01220120
2026-03-16 11:15:00,METAR KHSP 161115Z AUTO 19014G24KT 1/2SM FG OVC002 12/12 A2964 RMK AO2 VIS 1/4V5 T01220120
2026-03-16 10:55:00,METAR KHSP 161055Z AUTO 17012G20KT 140V210 M1/4SM FG OVC002 12/12 A2962 RMK AO2 T01210118
2026-03-16 10:35:00,METAR KHSP 161035Z AUTO 19011G19KT M1/4SM FG OVC002 12/12 A2964 RMK AO2 T01200117
2026-03-16 10:15:00,METAR KHSP 161015Z AUTO 19010G17KT 160V220 M1/4SM FG OVC002 12/12 A2964 RMK AO2 LTG DSNT SE T01200116
2026-03-16 09:55:00,METAR KHSP 160955Z AUTO 18011G19KT 150V210 1/2SM FG OVC002 12/12 A2964 RMK AO2 T01180115
2026-03-16 09:35:00,METAR KHSP 160935Z AUTO 19010G17KT 150V220 1/4SM FG OVC002 12/11 A2965 RMK AO2 LTG DSNT E AND SE T01160113
2026-03-16 09:15:00,METAR KHSP 160915Z AUTO 17007G14KT M1/4SM FG OVC002 12/11 A2965 RMK AO2 T01160113
2026-03-16 08:55:00,METAR KHSP 160855Z AUTO 18009G16KT M1/4SM FG OVC002 12/11 A2968 RMK AO2 LTG DSNT S 60030 T01150112
2026-03-16 08:35:00,METAR KHSP 160835Z AUTO 18011G18KT 1SM BR OVC002 12/11 A2969 RMK AO2 LTG DSNT SE T01150111
2026-03-16 08:15:00,METAR KHSP 160815Z AUTO 18010G19KT 10SM OVC004 12/11 A2970 RMK AO2 LTG DSNT S T01160112
2026-03-16 07:55:00,METAR KHSP 160755Z AUTO 20016G25KT 10SM OVC002 12/11 A2972 RMK AO2 LTG DSNT S P0011 T01150112
2026-03-16 07:35:00,METAR KHSP 160735Z AUTO 20013G25KT 1 1/2SM BR OVC002 12/11 A2974 RMK AO2 VIS 1/2V5 P0011 T01150111
2026-03-16 07:15:00,METAR KHSP 160715Z AUTO 20015G22KT 3SM -RA OVC002 12/11 A2974 RMK AO2 P0010 T01150112
2026-03-16 06:55:00,METAR KHSP 160655Z AUTO 18009G19KT 3/4SM RA OVC002 12/11 A2974 RMK AO2 P0019 T01150112
2026-03-16 06:35:00,METAR KHSP 160635Z AUTO 16010G17KT 1/4SM RA OVC002 11/11 A2975 RMK AO2 P0011 T01120110
2026-03-16 06:15:00,METAR KHSP 160615Z AUTO 16012G19KT 1/4SM RA OVC002 11/11 A2975 RMK AO2 P0005 T01070105
2026-03-16 05:55:00,METAR KHSP 160555Z AUTO 15011G19KT 1/4SM RA OVC002 10/10 A2975 RMK AO2 P0009 60045 T01000096 10100 20077
2026-03-16 05:35:00,METAR KHSP 160535Z AUTO 12011G16KT M1/4SM RA OVC002 10/10 A2975 RMK AO2 P0005 T00990096
2026-03-16 05:15:00,METAR KHSP 160515Z AUTO 15010G16KT 1/4SM +DZ OVC002 10/10 A2978 RMK AO2 P0005 T00970095
2026-03-16 04:55:00,METAR KHSP 160455Z AUTO 13012G16KT 1/4SM RA OVC002 10/09 A2977 RMK AO2 P0016 T00960093 401090023
2026-03-16 04:35:00,METAR KHSP 160435Z AUTO 13010KT 1/4SM +RA OVC002 10/10 A2980 RMK AO2 P0011 T00970095
2026-03-16 04:15:00,METAR KHSP 160415Z AUTO 12010G16KT M1/4SM +RA OVC002 10/09 A2981 RMK AO2 P0002 T00960093
2026-03-16 03:55:00,METAR KHSP 160355Z AUTO 13012G15KT M1/4SM +DZ OVC002 10/09 A2983 RMK AO2 P0006 T00960094
2026-03-16 03:35:00,METAR KHSP 160335Z AUTO 13012G19KT M1/4SM RA OVC002 10/10 A2985 RMK AO2 P0004 T00970095
2026-03-16 03:15:00,METAR KHSP 160315Z AUTO 13011G20KT M1/4SM +RA OVC002 10/09 A2986 RMK AO2 P0002 T00960092
2026-03-16 02:55:00,METAR KHSP 160255Z AUTO 14009G17KT 110V170 M1/4SM RA OVC002 09/09 A2987 RMK AO2 P0009 60013 T00920090
2026-03-16 02:35:00,METAR KHSP 160235Z AUTO 12015G22KT M1/4SM RA OVC002 09/08 A2987 RMK AO2 LTG DSNT SE AND S P0007 T00870084
2026-03-16 02:15:00,METAR KHSP 160215Z AUTO 11010KT M1/4SM RA OVC002 08/08 A2990 RMK AO2 P0006 T00830080
2026-03-16 01:55:00,METAR KHSP 160155Z AUTO 11008G17KT M1/4SM +RA OVC002 09/08 A2990 RMK AO2 P0004 T00850080
2026-03-16 01:35:00,METAR KHSP 160135Z AUTO 10008G17KT M1/4SM +DZ OVC002 09/08 A2992 RMK AO2 P0001 T00850080
2026-03-16 01:15:00,METAR KHSP 160115Z AUTO 10011G15KT 1/2SM DZ OVC002 08/08 A2992 RMK AO2 T00830077
2026-03-16 00:55:00,METAR KHSP 160055Z AUTO 09010G18KT 060V120 4SM DZ OVC008 09/07 A2994 RMK AO2 T00860071
2026-03-16 00:35:00,METAR KHSP 160035Z AUTO 09008G14KT 10SM OVC010 09/07 A2996 RMK AO2 T00900067
2026-03-16 00:15:00,METAR KHSP 160015Z AUTO 09010G14KT 070V130 10SM OVC012 10/07 A2997 RMK AO2 LTG DSNT S T00970069
2026-03-15 23:55:00,METAR KHSP 152355Z AUTO 10008KT 10SM OVC012 10/07 A2998 RMK AO2 LTG DSNT S T01000070 10109 20085
2026-03-15 23:35:00,METAR KHSP 152335Z AUTO 10009G16KT 070V130 10SM OVC014 10/07 A2998 RMK AO2 T01020072
2026-03-15 23:15:00,METAR KHSP 152315Z AUTO 10007G14KT 10SM OVC014 10/07 A2998 RMK AO2 T01020070
2026-03-15 22:55:00,METAR KHSP 152255Z AUTO 11010G15KT 080V140 10SM OVC014 10/07 A2998 RMK AO2 T01030065
2026-03-15 22:35:00,METAR KHSP 152235Z AUTO 11011G16KT 10SM OVC018 10/06 A2999 RMK AO2 T01020060
2026-03-15 22:15:00,METAR KHSP 152215Z AUTO 10009KT 10SM OVC018 10/06 A2999 RMK AO2 T01010055
2026-03-15 21:55:00,METAR KHSP 152155Z AUTO 10008KT 10SM OVC018 10/05 A3000 RMK AO2 LTG DSNT S T01000052
2026-03-15 21:35:00,METAR KHSP 152135Z AUTO 12007KT 080V150 10SM OVC020 10/05 A3002 RMK AO2 LTG DSNT S T01000053
2026-03-15 21:15:00,METAR KHSP 152115Z AUTO 10007KT 10SM OVC018 10/05 A3003 RMK AO2 T01000052
2026-03-15 20:55:00,METAR KHSP 152055Z AUTO 12003KT 10SM OVC018 10/05 A3003 RMK AO2 T00980053
2026-03-15 20:35:00,METAR KHSP 152035Z AUTO 12006KT 10SM BKN018 OVC024 10/05 A3003 RMK AO2 T00970052
2026-03-15 20:15:00,METAR KHSP 152015Z AUTO 10008KT 080V140 10SM OVC020 10/05 A3004 RMK AO2 T01010048
2026-03-15 19:55:00,METAR KHSP 151955Z AUTO 13004G14KT 10SM OVC020 10/04 A3005 RMK AO2 T00950042
2026-03-15 19:35:00,METAR KHSP 151935Z AUTO 11010G19KT 070V170 10SM SCT022 BKN027 BKN044 10/04 A3005 RMK AO2 T01000035
2026-03-15 19:15:00,METAR KHSP 151915Z AUTO 13009G17KT 10SM SCT020 BKN029 BKN044 10/03 A3005 RMK AO2 T01010034
2026-03-15 18:55:00,METAR KHSP 151855Z AUTO 11009G14KT 10SM OVC018 09/03 A3007 RMK AO2 T00910030
2026-03-15 18:35:00,METAR KHSP 151835Z AUTO 12008KT 10SM SCT016 OVC028 09/03 A3008 RMK AO2 T00920030
2026-03-15 18:15:00,METAR KHSP 151815Z AUTO 13011G14KT 10SM SCT012 OVC029 09/04 A3009 RMK AO2 T00930035
2026-03-15 17:55:00,METAR KHSP 151755Z AUTO 12011G14KT 10SM OVC012 09/03 A3011 RMK AO2 T00850030 10094 20026
2026-03-15 17:35:00,METAR KHSP 151735Z AUTO 13009G14KT 100V160 10SM OVC012 09/03 A3012 RMK AO2 T00890025
2026-03-15 17:15:00,METAR KHSP 151715Z AUTO 11008KT 10SM OVC012 09/01 A3013 RMK AO2 T00870013
2026-03-15 16:55:00,METAR KHSP 151655Z AUTO 09006KT 10SM OVC012 08/01 A3014 RMK AO2 T00810011
2026-03-15 16:35:00,METAR KHSP 151635Z AUTO 13007KT 10SM BKN014 OVC019 08/01 A3014 RMK AO2 T00800005
2026-03-15 16:15:00,METAR KHSP 151615Z AUTO 12011G14KT 10SM BKN014 OVC019 08/00 A3016 RMK AO2 T00800003
2026-03-15 15:55:00,METAR KHSP 151555Z AUTO 09006G15KT 10SM OVC014 08/00 A3016 RMK AO2 T00760000
2026-03-15 15:35:00,METAR KHSP 151535Z AUTO 11011KT 10SM SCT014 08/00 A3017 RMK AO2 T00770000
2026-03-15 15:15:00,METAR KHSP 151515Z AUTO 12010G14KT 10SM CLR 08/00 A3017 RMK AO2 LTG DSNT SE T00760001
2026-03-15 14:55:00,METAR KHSP 151455Z AUTO 12011KT 10SM CLR 07/00 A3018 RMK AO2 LTG DSNT SE T00700000
2026-03-15 14:35:00,METAR KHSP 151435Z AUTO 13009KT 10SM CLR 06/00 A3018 RMK AO2 T00631005
2026-03-15 14:15:00,METAR KHSP 151415Z AUTO 11007KT 10SM CLR 06/M01 A3018 RMK AO2 T00571007
2026-03-15 13:55:00,METAR KHSP 151355Z AUTO 11009KT 10SM CLR 05/M01 A3018 RMK AO2 LTG DSNT NW T00481010
2026-03-15 13:35:00,METAR KHSP 151335Z AUTO 12009KT 10SM CLR 05/M01 A3018 RMK AO2 T00481015
2026-03-15 13:15:00,METAR KHSP 151315Z AUTO 10008KT 10SM CLR 05/M02 A3018 RMK AO2 T00451021
2026-03-15 12:55:00,METAR KHSP 151255Z AUTO 10007KT 10SM CLR 04/M03 A3018 RMK AO2 LTG DSNT S T00421026
2026-03-15 12:35:00,METAR KHSP 151235Z AUTO 08007KT 10SM CLR 03/M03 A3017 RMK AO2 T00321030
2026-03-15 12:15:00,METAR KHSP 151215Z AUTO 08005KT 10SM CLR 03/M03 A3017 RMK AO2 T00321035
2026-03-15 11:55:00,METAR KHSP 151155Z AUTO 08004KT 10SM CLR 03/M04 A3017 RMK AO2 T00261037 10053 20023
2026-03-15 11:35:00,METAR KHSP 151135Z AUTO 10005KT 10SM CLR 03/M04 A3017 RMK AO2 T00281036
2026-03-15 11:15:00,METAR KHSP 151115Z AUTO 10004KT 10SM CLR 03/M04 A3017 RMK AO2 LTG DSNT S AND NW T00311038
2026-03-15 10:55:00,METAR KHSP 151055Z AUTO 11007KT 070V150 10SM CLR 03/M05 A3017 RMK AO2 T00251051
2026-03-15 10:35:00,METAR KHSP 151035Z AUTO 08008KT 10SM CLR 03/M06 A3016 RMK AO2 T00261056
2026-03-15 10:15:00,METAR KHSP 151015Z AUTO 08006KT 10SM CLR 03/M06 A3017 RMK AO2 T00271060
2026-03-15 09:55:00,METAR KHSP 150955Z AUTO 09007KT 10SM CLR 03/M06 A3017 RMK AO2 T00311062
2026-03-15 09:35:00,METAR KHSP 150935Z AUTO 09008KT 10SM CLR 03/M07 A3017 RMK AO2 T00321067
2026-03-15 09:15:00,METAR KHSP 150915Z AUTO 10006KT 10SM CLR 03/M07 A3017 RMK AO2 T00331070
2026-03-15 08:55:00,METAR KHSP 150855Z AUTO 07008KT 10SM CLR 03/M07 A3016 RMK AO2 T00321075
2026-03-15 08:35:00,METAR KHSP 150835Z AUTO 08007KT 10SM CLR 04/M07 A3016 RMK AO2 T00411071
2026-03-15 08:15:00,METAR KHSP 150815Z AUTO 10007KT 10SM CLR 04/M07 A3017 RMK AO2 T00411071
