Time_recorded,METAR
2026-05-02 14:52:00,METAR KDPA 021452Z 30005KT 10SM CLR 09/M04 A3012 RMK AO2 SLP204 T00891039 50004
2026-05-02 13:52:00,METAR KDPA 021352Z 29005KT 10SM CLR 07/M01 A3012 RMK AO2 SLP205 T00721011
2026-05-02 12:52:00,METAR KDPA 021252Z 00000KT 10SM CLR 03/01 A3012 RMK AO2 SLP205 T00330006
2026-05-02 11:52:00,METAR KDPA 021152Z AUTO 00000KT 10SM CLR M01/M01 A3011 RMK AO2 SLP201 60000 I6000 T10061011 10011 21017 53005
2026-05-02 10:52:00,METAR KDPA 021052Z AUTO 00000KT 10SM CLR M01/M02 A3010 RMK AO2 SLP197 I1000 T10111017
2026-05-02 09:52:00,METAR KDPA 020952Z AUTO 01003KT 10SM CLR M02/M02 A3009 RMK AO2 UPB0856E11SNB0859E08 SLP196 P0000 I1000 T10171017
2026-05-02 08:52:00,METAR KDPA 020852Z AUTO 00000KT 10SM CLR M01/M01 A3009 RMK AO2 SLP195 I1000 I3000 T10061011 55005
2026-05-02 07:52:00,METAR KDPA 020752Z AUTO 00000KT 10SM CLR M01/M01 A3009 RMK AO2 SLP194 T10061011
2026-05-02 06:52:00,METAR KDPA 020652Z 00000KT 10SM CLR M01/M01 A3010 RMK AO2 SLP197 T10061011
2026-05-02 05:52:00,METAR KDPA 020552Z 00000KT 10SM CLR 01/00 A3011 RMK AO2 SLP200 T00110000 10067 20011 401110011 50003
2026-05-02 04:52:00,METAR KDPA 020452Z 00000KT 10SM CLR 01/M01 A3011 RMK AO2 SLP201 T00111006
2026-05-02 03:52:00,METAR KDPA 020352Z 00000KT 10SM CLR 02/M01 A3010 RMK AO2 SLP199 T00221006
2026-05-02 02:52:00,METAR KDPA 020252Z 00000KT 10SM CLR 03/M01 A3010 RMK AO2 SLP197 T00281006 52019
2026-05-02 01:52:00,METAR KDPA 020152Z 06007KT 10SM CLR 03/M01 A3008 RMK AO2 SLP191 T00281006
2026-05-02 00:52:00,METAR KDPA 020052Z 07009KT 10SM FEW047 SCT060 04/00 A3005 RMK AO2 SLP183 T00440000
2026-05-01 23:52:00,METAR KDPA 012352Z 05007KT 10SM SCT100 07/02 A3004 RMK AO2 SLP177 60000 T00720017 10111 20072 50002
2026-05-01 22:52:00,METAR KDPA 012252Z 05006KT 10SM SCT050 BKN060 OVC100 07/02 A3004 RMK AO2 RAB04E16 SLP178 P0000 T00720017
2026-05-01 21:52:00,METAR KDPA 012152Z 08009KT 10SM BKN047 OVC055 08/02 A3004 RMK AO2 SLP177 T00780017
2026-05-01 20:52:00,METAR KDPA 012052Z VRB05KT 10SM FEW049 OVC060 09/M01 A3003 RMK AO2 SLP174 T00891011 50005
2026-05-01 19:52:00,METAR KDPA 011952Z 32008KT 10SM OVC070 09/M02 A3003 RMK AO2 SLP175 T00891022
2026-05-01 18:52:00,METAR KDPA 011852Z 34008KT 10SM FEW055 OVC080 09/M02 A3002 RMK AO2 SLP171 T00941022
2026-05-01 17:52:00,METAR KDPA 011752Z 34010KT 10SM SCT050 OVC070 09/M02 A3002 RMK AO2 SLP169 T00941017 10100 20044 55000
2026-05-01 16:52:00,METAR KDPA 011652Z 32012G16KT 10SM SCT050 BKN070 09/M01 A3001 RMK AO2 SLP168 T00941011
2026-05-01 15:52:00,METAR KDPA 011552Z 01007KT 10SM FEW046 SCT055 09/M01 A3002 RMK AO2 SLP168 T00891006
2026-05-01 14:52:00,METAR KDPA 011452Z 33009KT 10SM FEW028 FEW041 08/03 A3002 RMK AO2 SLP169 T00830028 51007
2026-05-01 14:29:00,SPECI KDPA 011429Z 33008KT 10SM FEW017 SCT026 08/03 A3002 RMK AO2 T00780028
2026-05-01 14:17:00,SPECI KDPA 011417Z 30006KT 10SM BKN017 BKN024 07/04 A3002 RMK AO2 T00720039
2026-05-01 14:10:00,SPECI KDPA 011410Z 00000KT 10SM SCT015 07/03 A3001 RMK AO2 T00720033
2026-05-01 13:52:00,METAR KDPA 011352Z 34004KT 10SM BKN015 BKN060 07/03 A3001 RMK AO2 SLP167 T00670033
2026-05-01 13:20:00,SPECI KDPA 011320Z 32004KT 10SM FEW028 SCT045 BKN065 06/03 A3001 RMK AO2 T00610033
2026-05-01 13:03:00,SPECI KDPA 011303Z 32007KT 10SM BKN027 BKN039 05/03 A3001 RMK AO2 T00500028
2026-05-01 12:52:00,METAR KDPA 011252Z AUTO 32008KT 10SM SCT028 BKN039 05/03 A3001 RMK AO2 SLP169 T00500033
2026-05-01 12:21:00,SPECI KDPA 011221Z AUTO 32006KT 10SM SCT028 BKN033 05/03 A3001 RMK AO2 T00500033
2026-05-01 11:52:00,METAR KDPA 011152Z AUTO 33005KT 10SM BKN027 04/03 A3000 RMK AO2 SLP163 60001 70024 T00440033 10050 20033 53010
2026-05-01 10:52:00,METAR KDPA 011052Z 35003KT 10SM FEW029 BKN100 03/03 A2998 RMK AO2 SLP158 T00330028
2026-05-01 10:33:00,SPECI KDPA 011033Z 03004KT 10SM SCT012 SCT030 OVC100 03/03 A2998 RMK AO2 T00330028
2026-05-01 10:11:00,SPECI KDPA 011011Z 01005KT 10SM BKN013 OVC049 04/03 A2998 RMK AO2 T00440033
2026-05-01 09:52:00,METAR KDPA 010952Z 36004KT 10SM SCT034 OVC049 04/03 A2998 RMK AO2 RAE14 SLP155 P0000 T00440028
2026-05-01 09:22:00,SPECI KDPA 010922Z 04005KT 10SM FEW012 SCT023 OVC039 04/03 A2997 RMK AO2 RAE14 P0000 T00440033
2026-05-01 08:52:00,METAR KDPA 010852Z 36004KT 8SM -RA SCT010 BKN015 OVC021 04/03 A2997 RMK AO2 RAB05 SLP152 P0001 60001 T00440033 53005
2026-05-01 08:45:00,SPECI KDPA 010845Z 02007KT 8SM -RA SCT009 BKN014 OVC020 04/03 A2997 RMK AO2 RAB05 P0001 T00440028
2026-05-01 08:38:00,SPECI KDPA 010838Z 01011KT 10SM -RA SCT009 BKN016 OVC020 04/03 A2996 RMK AO2 RAB05 P0001 T00440033
2026-05-01 08:16:00,SPECI KDPA 010816Z 36007KT 6SM -RA BR BKN010 OVC016 05/04 A2996 RMK AO2 RAB05 CIG 006V011 P0001 T00500039
2026-05-01 08:09:00,SPECI KDPA 010809Z 36006KT 6SM -RA BR BKN008 OVC016 04/04 A2995 RMK AO2 RAB05 CIG 006V012 P0001 T00440039
2026-05-01 07:52:00,METAR KDPA 010752Z 33008KT 6SM BR SCT008 BKN013 OVC085 05/04 A2996 RMK AO2 SLP148 T00500039
2026-05-01 07:45:00,SPECI KDPA 010745Z 32007KT 6SM BR FEW006 BKN013 OVC085 04/04 A2996 RMK AO2 T00440044
2026-05-01 06:52:00,METAR KDPA 010652Z 02004KT 7SM BKN060 OVC100 04/03 A2996 RMK AO2 SLP148 T00390033
2026-05-01 05:52:00,METAR KDPA 010552Z 10005KT 10SM SCT050 OVC070 04/03 A2995 RMK AO2 RAE26 SLP146 P0000 60012 T00440033 10061 20039 401390017 58006
2026-05-01 04:52:00,METAR KDPA 010452Z 09003KT 10SM -RA FEW034 BKN040 OVC055 04/03 A2997 RMK AO2 SLP152 P0005 T00440028
2026-05-01 04:42:00,SPECI KDPA 010442Z 06005KT 7SM -RA SCT027 BKN034 OVC055 04/03 A2997 RMK AO2 P0005 T00390028
2026-05-01 03:52:00,METAR KDPA 010352Z 04005KT 8SM RA OVC022 04/02 A2997 RMK AO2 RAB07E18B41 SLP152 P0002 T00440022
2026-05-01 02:52:00,METAR KDPA 010252Z 06005KT 10SM BKN022 OVC028 05/03 A2997 RMK AO2 RAE31 SLP152 P0000 60005 T00500033 53008
2026-05-01 01:52:00,METAR KDPA 010152Z AUTO 10006KT 8SM -RA OVC019 05/03 A2996 RMK AO2 RAB00 SLP150 P0005 T00500028
2026-05-01 01:32:00,SPECI KDPA 010132Z AUTO 07006KT 7SM RA BKN020 OVC034 05/03 A2996 RMK AO2 RAB00 P0002 T00500028
2026-05-01 00:59:00,SPECI KDPA 010059Z 07010KT 10SM BKN034 OVC041 06/04 A2995 RMK AO2 T00560039
2026-05-01 00:52:00,METAR KDPA 010052Z 07008KT 10SM BKN018 OVC040 06/04 A2995 RMK AO2 RAE28 SLP145 P0000 T00560039
2026-04-30 23:52:00,METAR KDPA 302352Z 04007KT 8SM -RA BKN018 OVC040 07/05 A2995 RMK AO2 SLP146 P0002 60011 T00670050 10139 20067 50002
2026-04-30 23:31:00,SPECI KDPA 302331Z VRB03KT 6SM -RA BR BKN018 BKN031 OVC038 07/06 A2995 RMK AO2 P0001 T00670056
2026-04-30 23:11:00,SPECI KDPA 302311Z 11008KT 8SM -RA SCT025 OVC034 07/06 A2995 RMK AO2 P0001 T00720056
2026-04-30 23:03:00,SPECI KDPA 302303Z 09006KT 8SM -RA SCT023 BKN029 OVC039 07/05 A2995 RMK AO2 P0000 T00720050
2026-04-30 22:52:00,METAR KDPA 302252Z 09007KT 7SM -RA SCT027 BKN034 OVC044 07/06 A2995 RMK AO2 SLP148 P0002 T00720056
2026-04-30 21:52:00,METAR KDPA 302152Z 10006KT 3SM -RA BR OVC035 08/06 A2995 RMK AO2 SLP148 P0007 T00780061
2026-04-30 21:32:00,SPECI KDPA 302132Z 08010KT 4SM -RA BKN037 OVC045 08/06 A2995 RMK AO2 P0004 T00830056
2026-04-30 21:25:00,SPECI KDPA 302125Z 06008KT 2 1/2SM RA BKN036 OVC047 08/06 A2995 RMK AO2 P0003 T00830056
2026-04-30 20:52:00,METAR KDPA 302052Z 06013KT 10SM -RA SCT049 OVC060 10/04 A2994 RMK AO2 RAB21 SLP143 P0000 60000 T01000044 58013
2026-04-30 19:52:00,METAR KDPA 301952Z 28009KT 10SM SCT055 OVC075 13/02 A2996 RMK AO2 SLP148 T01280017
2026-04-30 18:52:00,METAR KDPA 301852Z VRB03KT 10SM OVC060 13/M02 A2997 RMK AO2 SLP151 T01281017
2026-04-30 17:52:00,METAR KDPA 301752Z 22006KT 10SM SCT065 OVC095 13/00 A2998 RMK AO2 SLP155 T01330000 10133 20033 58013
2026-04-30 16:52:00,METAR KDPA 301652Z 25007KT 10SM SCT055 BKN080 13/02 A3000 RMK AO2 SLP161 T01330017
2026-04-30 15:52:00,METAR KDPA 301552Z AUTO 30005KT 10SM SCT075 BKN090 12/01 A3001 RMK AO2 SLP166 T01170006
2026-04-30 14:52:00,METAR KDPA 301452Z AUTO 00000KT 10SM FEW060 BKN080 11/01 A3002 RMK AO2 SLP169 T01060011 58002
2026-04-30 13:52:00,METAR KDPA 301352Z AUTO 36004KT 10SM BKN070 09/02 A3003 RMK AO2 SLP172 T00890022
2026-04-30 12:52:00,METAR KDPA 301252Z 29003KT 10SM BKN085 07/03 A3003 RMK AO2 SLP172 T00670033
2026-04-30 11:52:00,METAR KDPA 301152Z 00000KT 9SM BKN075 OVC090 03/03 A3003 RMK AO2 SLP171 60000 I6000 T00330028 10044 20017 53003
2026-04-30 10:52:00,METAR KDPA 301052Z 00000KT 10SM CLR 02/02 A3002 RMK AO2 SLP169 T00220017
2026-04-30 09:52:00,METAR KDPA 300952Z 00000KT 9SM CLR 02/02 A3001 RMK AO2 SLP166 I1000 T00220022
2026-04-30 08:52:00,METAR KDPA 300852Z 00000KT 9SM CLR 03/03 A3002 RMK AO2 SLP168 60000 T00280028 55003
2026-04-30 07:52:00,METAR KDPA 300752Z 00000KT 10SM CLR 04/03 A3001 RMK AO2 RAB0658E18SNB18E19 SLP165 P0000 T00440033
2026-04-30 06:52:00,METAR KDPA 300652Z 00000KT 10SM CLR 04/03 A3002 RMK AO2 SLP167 T00390033
2026-04-30 05:52:00,METAR KDPA 300552Z 00000KT 5SM BR CLR 03/03 A3002 RMK AO2 SLP170 60000 T00330033 10100 20033 401440033 55001
2026-04-30 04:52:00,METAR KDPA 300452Z 00000KT 10SM CLR 04/03 A3002 RMK AO2 SLP170 T00440033
2026-04-30 03:52:00,METAR KDPA 300352Z 00000KT 10SM CLR 06/03 A3002 RMK AO2 SLP169 T00610033
2026-04-30 02:52:00,METAR KDPA 300252Z 35004KT 10SM FEW080 06/03 A3003 RMK AO2 SLP170 60000 T00610033 51017
2026-04-30 01:52:00,METAR KDPA 300152Z 35008KT 10SM BKN075 08/04 A3002 RMK AO2 RAB23E34 SLP167 P0000 T00780039
2026-04-30 00:52:00,METAR KDPA 300052Z 32009KT 10SM SCT080 09/03 A3000 RMK AO2 SLP160 T00890028
2026-04-29 23:52:00,METAR KDPA 292352Z 35009KT 10SM FEW037 BKN046 BKN070 10/04 A2998 RMK AO2 SLP153 60000 T01000039 10133 20094 53010
2026-04-29 22:52:00,METAR KDPA 292252Z 36011KT 10SM FEW034 BKN050 OVC070 10/04 A2997 RMK AO2 SLP149 T01000044
2026-04-29 21:52:00,METAR KDPA 292152Z 36011KT 10SM FEW031 SCT036 BKN080 11/05 A2995 RMK AO2 SLP142 T01060050
2026-04-29 20:52:00,METAR KDPA 292052Z 34011G20KT 10SM OVC080 12/04 A2995 RMK AO2 RAB11E21 SLP142 P0000 60000 T01170039 51004
2026-04-29 19:52:00,METAR KDPA 291952Z 33012KT 10SM SCT040 OVC080 12/04 A2994 RMK AO2 SLP141 T01220044
2026-04-29 18:52:00,METAR KDPA 291852Z 32018G25KT 10SM FEW036 SCT044 BKN060 12/04 A2994 RMK AO2 SLP139 T01220039
2026-04-29 17:52:00,METAR KDPA 291752Z 31018KT 10SM SCT034 BKN045 OVC050 12/04 A2993 RMK AO2 SLP137 T01220044 10144 20100 51005
2026-04-29 16:52:00,METAR KDPA 291652Z 32017G23KT 10SM SCT034 BKN044 BKN090 13/06 A2993 RMK AO2 SLP134 T01330056
2026-04-29 15:52:00,METAR KDPA 291552Z 29015KT 10SM FEW033 SCT070 BKN090 13/06 A2993 RMK AO2 SLP134 T01330061
2026-04-29 14:52:00,METAR KDPA 291452Z 30014G20KT 10SM SCT027 BKN043 13/07 A2992 RMK AO2 SLP131 T01280067 55001
2026-04-29 13:52:00,METAR KDPA 291352Z 34011KT 10SM FEW024 SCT120 12/06 A2991 RMK AO2 SLP130 T01220061
2026-04-29 12:52:00,METAR KDPA 291252Z 33008KT 10SM BKN065 BKN090 BKN120 11/07 A2992 RMK AO2 SLP133 T01060072
2026-04-29 11:52:00,METAR KDPA 291152Z 30009KT 10SM SCT049 OVC080 10/07 A2992 RMK AO2 RAE07 SLP132 P0000 60000 T01000067 10122 20100 53012
2026-04-29 10:52:00,METAR KDPA 291052Z 31009KT 10SM -RA BKN060 OVC075 11/06 A2991 RMK AO2 RAB51 SLP127 P0000 T01060061
2026-04-29 09:52:00,METAR KDPA 290952Z 32010KT 10SM BKN060 OVC070 11/06 A2990 RMK AO2 SLP124 T01110056
2026-04-29 08:52:00,METAR KDPA 290852Z 34011KT 10SM FEW060 OVC090 12/04 A2989 RMK AO2 SLP119 T01170044 58006
2026-04-29 07:52:00,METAR KDPA 290752Z 32008KT 10SM BKN060 OVC090 12/06 A2990 RMK AO2 SLP124 T01170056
2026-04-29 06:52:00,METAR KDPA 290652Z 29005KT 10SM BKN060 OVC095 11/07 A2990 RMK AO2 SLP125 T01110067
2026-04-29 05:52:00,METAR KDPA 290552Z 29003KT 10SM BKN120 12/07 A2991 RMK AO2 SLP127 T01170067 10156 20111 401670094 55007
2026-04-29 04:52:00,METAR KDPA 290452Z 33005KT 10SM SCT100 13/07 A2990 RMK AO2 SLP125 T01280067
2026-04-29 03:52:00,METAR KDPA 290352Z 29005KT 10SM BKN095 BKN120 13/09 A2992 RMK AO2 SLP132 T01330089
2026-04-29 02:52:00,METAR KDPA 290252Z 24003KT 10SM SCT120 13/08 A2993 RMK AO2 SLP135 T01330083 53012
2026-04-29 01:52:00,METAR KDPA 290152Z 00000KT 10SM SCT120 13/08 A2991 RMK AO2 SLP129 T01280078
2026-04-29 00:52:00,METAR KDPA 290052Z 26004KT 10SM CLR 15/07 A2989 RMK AO2 SLP121 T01500072
2026-04-28 23:52:00,METAR KDPA 282352Z 27006KT 10SM CLR 16/08 A2989 RMK AO2 SLP122 T01560078 10167 20139 56010
2026-04-28 22:52:00,METAR KDPA 282252Z 31009KT 10SM CLR 17/07 A2990 RMK AO2 SLP124 T01670072
2026-04-28 21:52:00,METAR KDPA 282152Z 29008KT 10SM CLR 17/08 A2991 RMK AO2 SLP128 T01670078
2026-04-28 20:52:00,METAR KDPA 282052Z 30010G18KT 10SM CLR 17/08 A2992 RMK AO2 SLP131 T01670083 58013
2026-04-28 19:52:00,METAR KDPA 281952Z 28009G18KT 10SM FEW031 16/09 A2993 RMK AO2 SLP135 T01610089
2026-04-28 18:52:00,METAR KDPA 281852Z 26011KT 10SM BKN032 15/08 A2996 RMK AO2 SLP143 T01500083
2026-04-28 18:39:00,SPECI KDPA 281839Z 24016G23KT 10SM BKN030 BKN036 15/08 A2996 RMK AO2 T01500083
2026-04-28 17:52:00,METAR KDPA 281752Z 24012G23KT 10SM BKN029 14/08 A2996 RMK AO2 SLP144 T01440083 10144 20100 51014
2026-04-28 17:16:00,SPECI KDPA 281716Z 25012G19KT 10SM OVC029 14/08 A2995 RMK AO2 T01390083
2026-04-28 17:05:00,SPECI KDPA 281705Z 25012KT 10SM OVC030 13/07 A2996 RMK AO2 T01330072
2026-04-28 16:52:00,METAR KDPA 281652Z 25012G19KT 10SM OVC028 13/07 A2995 RMK AO2 SLP143 T01280072
2026-04-28 15:52:00,METAR KDPA 281552Z 24012G18KT 10SM OVC026 12/07 A2994 RMK AO2 SLP139 T01220072
2026-04-28 14:52:00,METAR KDPA 281452Z 27011G20KT 10SM OVC024 11/07 A2992 RMK AO2 SLP131 T01110067 51033
2026-04-28 13:52:00,METAR KDPA 281352Z 27015G21KT 10SM OVC024 11/06 A2991 RMK AO2 SLP127 T01060061
2026-04-28 12:52:00,METAR KDPA 281252Z 28014KT 10SM OVC022 10/06 A2987 RMK AO2 PK WND 27026/1235 SLP114 T01000061
2026-04-28 11:52:00,METAR KDPA 281152Z 26011G22KT 10SM BKN015 OVC021 10/07 A2982 RMK AO2 PK WND 27027/1138 SLP097 70079 T01000072 10150 20094 53029
2026-04-28 10:52:00,METAR KDPA 281052Z 28012G22KT 10SM OVC019 11/07 A2978 RMK AO2 PK WND 27027/1032 SLP082 T01060072
2026-04-28 09:52:00,METAR KDPA 280952Z 25019G26KT 10SM OVC019 11/07 A2976 RMK AO2 PK WND 27027/0855 SLP075 T01060072
2026-04-28 08:52:00,METAR KDPA 280852Z 26019G30KT 10SM OVC020 12/08 A2973 RMK AO2 PK WND 27031/0815 SLP067 T01220083 53020
2026-04-28 07:52:00,METAR KDPA 280752Z 26020G30KT 10SM OVC021 12/08 A2971 RMK AO2 PK WND 27035/0700 SLP059 T01220083
2026-04-28 06:52:00,METAR KDPA 280652Z 27020G30KT 10SM OVC021 13/11 A2969 RMK AO2 PK WND 28030/0652 SLP053 T01330106
2026-04-28 05:52:00,METAR KDPA 280552Z 26015KT 10SM BKN026 OVC031 15/13 A2967 RMK AO2 SLP046 60019 T01500128 10172 20150 401940089 53017
2026-04-28 05:37:00,SPECI KDPA 280537Z 26014G21KT 10SM BKN029 OVC040 15/13 A2967 RMK AO2 T01500133
2026-04-28 05:27:00,SPECI KDPA 280527Z 26014KT 10SM FEW008 SCT020 OVC030 16/14 A2966 RMK AO2 T01560139
2026-04-28 05:20:00,SPECI KDPA 280520Z 25013G22KT 10SM FEW008 BKN021 OVC030 16/14 A2965 RMK AO2 T01560139
2026-04-28 04:52:00,METAR KDPA 280452Z 23011KT 10SM BKN009 BKN014 OVC030 16/14 A2965 RMK AO2 RAB03E23 CIG 007V012 SLP039 P0011 T01560144
2026-04-28 04:20:00,SPECI KDPA 280420Z 21009KT 8SM -RA BKN009 OVC013 16/14 A2964 RMK AO2 LTG DSNT NE RAB03 P0011 T01560144
2026-04-28 04:15:00,SPECI KDPA 280415Z 22009KT 2 1/2SM -RA BR OVC011 16/14 A2964 RMK AO2 LTG DSNT NE RAB03 CIG 008V016 P0011 T01560144
2026-04-28 03:59:00,SPECI KDPA 280359Z 20011KT 10SM BKN010 BKN014 BKN110 16/15 A2964 RMK AO2 LTG DSNT N AND NE PRESRR T01560150
2026-04-28 03:52:00,METAR KDPA 280352Z 18012KT 10SM SCT010 BKN120 16/15 A2962 RMK AO2 LTG DSNT N SLP028 T01560150
2026-04-28 02:59:00,SPECI KDPA 280259Z 19010KT 10SM BKN012 OVC085 16/16 A2963 RMK AO2 LTG DSNT NW T01610156
2026-04-28 02:52:00,METAR KDPA 280252Z 18010KT 10SM SCT012 OVC085 16/16 A2962 RMK AO2 LTG DSNT NW SLP029 60008 T01610156 55000
2026-04-28 02:04:00,SPECI KDPA 280204Z 20012G20KT 10SM FEW016 17/16 A2960 RMK AO2 T01670156
2026-04-28 01:52:00,METAR KDPA 280152Z 19011KT 10SM FEW009 BKN016 BKN021 17/16 A2959 RMK AO2 RAE27 SLP018 P0003 T01670156
2026-04-28 01:37:00,SPECI KDPA 280137Z 20009G15KT 10SM BKN009 OVC016 17/16 A2957 RMK AO2 LTG DSNT E RAE27 CIG 008V013 P0003 T01670156
2026-04-28 01:26:00,SPECI KDPA 280126Z 23006KT 10SM -RA OVC011 17/16 A2958 RMK AO2 LTG DSNT E AND SE P0003 T01670161
2026-04-28 01:03:00,SPECI KDPA 280103Z 11010G16KT 5SM VCTS RA BR BKN013 BKN023 OVC032 17/16 A2955 RMK AO2 LTG DSNT E-S PRESFR P0002 T01720161
2026-04-28 00:52:00,METAR KDPA 280052Z 18007KT 8SM -RA SCT013 BKN025 OVC033 17/16 A2962 RMK AO2 LTG DSNT E-SW TSE02B24E39 SLP029 P0005 T01720161
2026-04-28 00:45:00,SPECI KDPA 280045Z 19009KT 9SM -RA FEW015 BKN023 OVC030 17/17 A2963 RMK AO2 LTG DSNT S AND SW TSE02B24E39 P0004 T01720167
2026-04-28 00:26:00,SPECI KDPA 280026Z 21007KT 9SM -TSRA SCT018 BKN028 OVC110 17/17 A2963 RMK AO2 LTG DSNT NE AND S AND SW TSE02B24 CIG 024V044 P0002 T01720167
2026-04-28 00:04:00,SPECI KDPA 280004Z 15010KT 8SM -RA SCT036 BKN070 OVC110 17/16 A2958 RMK AO2 LTG DSNT ALQDS TSE02 PRESFR P0001 T01720161
2026-04-27 23:52:00,METAR KDPA 272352Z 19006KT 3SM TSRA BR FEW028 BKN043 OVC070 17/16 A2961 RMK AO2 LTG DSNT NE-S RAB13 TSB37 SLP026 P0015 60019 T01720161 10194 20133 51009
2026-04-27 23:50:00,SPECI KDPA 272350Z 19006KT 2SM TSRA BR FEW028 BKN041 OVC065 17/16 A2961 RMK AO2 LTG DSNT NE-S RAB13 TSB37 P0014
2026-04-27 23:43:00,SPECI KDPA 272343Z 19008KT 3SM +TSRA BR SCT030 BKN036 OVC045 18/16 A2961 RMK AO2 LTG DSNT NE AND SE AND SW RAB13 TSB37 P0011 T01780156
2026-04-27 23:35:00,SPECI KDPA 272335Z 22008KT 10SM VCTS -RA FEW028 SCT036 OVC045 18/15 A2962 RMK AO2 LTG DSNT NE AND SW RAB13 P0000 T01830150
2026-04-27 22:52:00,METAR KDPA 272252Z 19011KT 10SM OVC043 19/14 A2961 RMK AO2 RAB18E27 SLP026 P0000 T01890144
2026-04-27 21:52:00,METAR KDPA 272152Z 17017G25KT 10SM FEW060 19/15 A2958 RMK AO2 PK WND 15029/2115 SLP016 T01890150
2026-04-27 20:52:00,METAR KDPA 272052Z 17016G28KT 10SM CLR 19/16 A2958 RMK AO2 PK WND 16028/2050 SLP015 60004 T01940156 55074
2026-04-27 19:52:00,METAR KDPA 271952Z 15012G22KT 10SM CLR 17/14 A2956 RMK AO2 PK WND 14040/1857 SLP010 T01670144
2026-04-27 18:52:00,METAR KDPA 271852Z 14027G40KT 10SM FEW010 15/13 A2956 RMK AO2 PK WND 12045/1813 RAE31 SLP009 P0004 T01500133
2026-04-27 18:38:00,SPECI KDPA 271838Z 14019G30KT 10SM FEW008 SCT020 16/14 A2956 RMK AO2 PK WND 12045/1813 RAE31 PRESRR P0004 T01560139
2026-04-27 18:26:00,SPECI KDPA 271826Z 12016G42KT 10SM -RA FEW009 BKN027 BKN080 14/13 A2953 RMK AO2 PK WND 12045/1813 LTG DSNT E AND SE P0004 T01440133
2026-04-27 18:18:00,SPECI KDPA 271818Z 11029G45KT 6SM -RA BR BKN021 BKN040 OVC090 14/13 A2950 RMK AO2 PK WND 12045/1813 LTG DSNT E AND SE PRESFR P0004 T01390133
2026-04-27 17:52:00,METAR KDPA 271752Z 16010KT 2 1/2SM +RA BR BKN021 OVC037 14/13 A2980 RMK AO2 LTG DSNT ALQDS SLP093 P0032 60041 T01390133 10150 20133 53005
2026-04-27 17:02:00,SPECI KDPA 271702Z 18010KT 2 1/2SM +RA BR BKN026 BKN049 OVC060 14/12 A2981 RMK AO2 LTG DSNT S-W P0006 T01390122
2026-04-27 16:52:00,METAR KDPA 271652Z 18011KT 3SM RA BR SCT028 BKN055 OVC100 14/12 A2981 RMK AO2 LTG DSNT S-W RAB10 SLP096 P0006 T01440122
2026-04-27 15:52:00,METAR KDPA 271552Z 13012G20KT 10SM FEW075 BKN095 15/12 A2976 RMK AO2 SLP079 T01500117
2026-04-27 14:52:00,METAR KDPA 271452Z 13009KT 10SM OVC100 14/12 A2979 RMK AO2 RAE35 SLP087 P0003 60003 T01440122 56025
2026-04-27 13:52:00,METAR KDPA 271352Z 15009KT 4SM -RA BKN060 OVC100 14/11 A2983 RMK AO2 RAB51 SLP102 P0000 T01440106
2026-04-27 12:52:00,METAR KDPA 271252Z 12013G20KT 10SM FEW080 BKN120 14/09 A2981 RMK AO2 SLP096 T01390094
2026-04-27 11:52:00,METAR KDPA 271152Z 13009KT 10SM BKN080 BKN100 13/09 A2986 RMK AO2 RAB13E27 SLP113 P0000 60000 T01330094 10133 20089 56013
2026-04-27 10:52:00,METAR KDPA 271052Z 13011KT 10SM FEW100 13/09 A2987 RMK AO2 SLP115 T01330094
2026-04-27 09:52:00,METAR KDPA 270952Z 14009KT 10SM CLR 12/09 A2988 RMK AO2 SLP116 T01220094
2026-04-27 08:52:00,METAR KDPA 270852Z 11007KT 10SM CLR 12/09 A2990 RMK AO2 SLP124 T01170094 58024
2026-04-27 07:52:00,METAR KDPA 270752Z 11007KT 10SM CLR 11/09 A2993 RMK AO2 SLP137 T01110089
2026-04-27 06:52:00,METAR KDPA 270652Z 10007KT 10SM CLR 09/08 A2996 RMK AO2 SLP145 T00940078
2026-04-27 05:52:00,METAR KDPA 270552Z 09005KT 10SM CLR 09/07 A2997 RMK AO2 SLP151 T00890067 10144 20083 401720039 56008
2026-04-27 04:52:00,METAR KDPA 270452Z 08008KT 10SM CLR 09/07 A2998 RMK AO2 SLP155 T00890067
2026-04-27 03:52:00,METAR KDPA 270352Z 08010KT 10SM CLR 09/07 A2998 RMK AO2 SLP156 T00940067
2026-04-27 02:52:00,METAR KDPA 270252Z 09011KT 10SM CLR 11/08 A3000 RMK AO2 SLP160 T01110078 51006
2026-04-27 01:52:00,METAR KDPA 270152Z 08010KT 10SM CLR 13/08 A3000 RMK AO2 SLP160 T01280083
2026-04-27 00:52:00,METAR KDPA 270052Z 07009KT 10SM CLR 13/08 A2998 RMK AO2 SLP155 T01330083
2026-04-26 23:52:00,METAR KDPA 262352Z 06009KT 10SM CLR 14/09 A2998 RMK AO2 SLP154 T01440089 10172 20133 58002
2026-04-26 22:52:00,METAR KDPA 262252Z 07009KT 10SM CLR 16/09 A2999 RMK AO2 SLP158 T01610089
2026-04-26 21:52:00,METAR KDPA 262152Z 07012KT 10SM CLR 16/09 A2998 RMK AO2 SLP153 T01610089
2026-04-26 20:52:00,METAR KDPA 262052Z 09009KT 10SM CLR 17/09 A2999 RMK AO2 SLP156 T01720094 56025
2026-04-26 19:52:00,METAR KDPA 261952Z 07011KT 10SM CLR 16/09 A3001 RMK AO2 SLP165 T01610089
2026-04-26 18:52:00,METAR KDPA 261852Z 07012G19KT 10SM CLR 14/09 A3003 RMK AO2 SLP172 T01440089
2026-04-26 17:52:00,METAR KDPA 261752Z 06009KT 9SM SCT014 13/09 A3006 RMK AO2 SLP182 T01280089 10128 20067 58005
2026-04-26 16:52:00,METAR KDPA 261652Z 05010KT 8SM OVC012 12/08 A3007 RMK AO2 SLP185 T01170083
2026-04-26 15:52:00,METAR KDPA 261552Z COR 09010KT 6SM HZ OVC011 12/08 A3008 RMK AO2 SLP189 T01170083
2026-04-26 15:41:00,SPECI KDPA 261541Z 08011KT 5SM HZ OVC010 11/08 A3008 RMK AO2 T01110083
2026-04-26 14:52:00,METAR KDPA 261452Z 05009KT 3SM BR OVC007 10/08 A3008 RMK AO2 SLP188 T01000083 50007
2026-04-26 14:22:00,SPECI KDPA 261422Z 07008KT 3SM BR OVC005 09/08 A3007 RMK AO2 CIG 003V006 T00940083
2026-04-26 14:12:00,SPECI KDPA 261412Z 06006KT 2SM BR OVC003 09/08 A3007 RMK AO2 T00890083
2026-04-26 13:52:00,METAR KDPA 261352Z 08006KT 1 3/4SM BR OVC003 08/08 A3008 RMK AO2 SLP189 T00830078
2026-04-26 12:52:00,METAR KDPA 261252Z 08006KT 1SM BR OVC002 07/07 A3007 RMK AO2 SLP185 T00720072 RVRNO
2026-04-26 12:34:00,SPECI KDPA 261234Z 08006KT 1 1/4SM BR OVC003 07/07 A3007 RMK AO2 T00720067
2026-04-26 12:13:00,SPECI KDPA 261213Z 10006KT 2 1/2SM BR OVC004 07/07 A3006 RMK AO2 T00720067
2026-04-26 11:52:00,METAR KDPA 261152Z 09006KT 3SM BR OVC004 07/06 A3006 RMK AO2 SLP180 T00670061 10072 20039 51006
2026-04-26 10:52:00,METAR KDPA 261052Z 01003KT 10SM OVC006 06/05 A3005 RMK AO2 SLP177 T00560050
2026-04-26 10:36:00,SPECI KDPA 261036Z 04003KT 10SM BKN007 04/04 A3004 RMK AO2 T00440039
2026-04-26 10:09:00,SPECI KDPA 261009Z 36005KT 10SM FEW009 05/04 A3005 RMK AO2 T00500044
2026-04-26 09:52:00,METAR KDPA 260952Z 01004KT 10SM CLR 04/04 A3004 RMK AO2 SLP174 T00440039
2026-04-26 08:52:00,METAR KDPA 260852Z 05003KT 10SM CLR 06/04 A3002 RMK AO2 SLP168 T00610044 53005
2026-04-26 07:52:00,METAR KDPA 260752Z 09004KT 10SM CLR 07/05 A3000 RMK AO2 SLP159 T00670050
2026-04-26 06:52:00,METAR KDPA 260652Z 08007KT 10SM CLR 07/05 A2999 RMK AO2 SLP157 T00670050
2026-04-26 05:52:00,METAR KDPA 260552Z 07006KT 10SM CLR 07/05 A3001 RMK AO2 SLP163 T00720050 10133 20067 401720067 55004
2026-04-26 04:52:00,METAR KDPA 260452Z 05008KT 10SM CLR 08/05 A3000 RMK AO2 SLP161 T00780050
2026-04-26 03:52:00,METAR KDPA 260352Z 07006KT 10SM CLR 08/06 A3001 RMK AO2 SLP163 T00780056
2026-04-26 02:52:00,METAR KDPA 260252Z 05006KT 10SM CLR 08/06 A3002 RMK AO2 SLP168 T00780056 51013
2026-04-26 01:52:00,METAR KDPA 260152Z 05008KT 10SM CLR 09/06 A3001 RMK AO2 SLP164 T00940056
2026-04-26 00:52:00,METAR KDPA 260052Z 05011KT 10SM CLR 11/06 A3000 RMK AO2 SLP162 T01110056
2026-04-25 23:52:00,METAR KDPA 252352Z 06010KT 10SM CLR 13/07 A2998 RMK AO2 SLP153 T01330067 10172 20133 51005
2026-04-25 22:52:00,METAR KDPA 252252Z 05013G19KT 10SM CLR 15/07 A2998 RMK AO2 SLP153 T01500072
2026-04-25 21:52:00,METAR KDPA 252152Z 05011KT 10SM CLR 16/07 A2997 RMK AO2 SLP150 T01610072
2026-04-25 20:52:00,METAR KDPA 252052Z 07011G17KT 10SM CLR 16/08 A2996 RMK AO2 SLP147 T01610078 56004
2026-04-25 19:52:00,METAR KDPA 251952Z 07010KT 10SM CLR 17/08 A2997 RMK AO2 SLP149 T01670083
2026-04-25 18:52:00,METAR KDPA 251852Z 06011G18KT 10SM CLR 17/08 A2997 RMK AO2 SLP147 T01670083
2026-04-25 17:52:00,METAR KDPA 251752Z 08008KT 10SM CLR 16/08 A2997 RMK AO2 SLP150 T01610083 10161 20089 53001
2026-04-25 16:52:00,METAR KDPA 251652Z 07009KT 10SM CLR 15/08 A2996 RMK AO2 SLP147 T01500083
2026-04-25 15:52:00,METAR KDPA 251552Z 02009KT 10SM CLR 13/08 A2998 RMK AO2 SLP152 T01330078
2026-04-25 15:05:00,SPECI KDPA 251505Z 02010KT 10SM SCT014 12/08 A2998 RMK AO2 T01170078
2026-04-25 14:52:00,METAR KDPA 251452Z 06012KT 10SM BKN014 12/08 A2997 RMK AO2 SLP150 T01170078 53001
2026-04-25 13:52:00,METAR KDPA 251352Z 06009KT 10SM OVC011 10/08 A2996 RMK AO2 SLP147 T01000078
2026-04-25 13:45:00,SPECI KDPA 251345Z 03011KT 10SM OVC011 10/08 A2997 RMK AO2 T01000078
2026-04-25 12:52:00,METAR KDPA 251252Z 06008KT 10SM OVC009 09/08 A2997 RMK AO2 CIG 008V013 SLP149 T00940078
2026-04-25 11:52:00,METAR KDPA 251152Z COR 03007KT 10SM OVC007 09/08 A2997 RMK AO2 SLP147 T00890078 10100 20083 53020
2026-04-25 10:52:00,METAR KDPA 251052Z 03010KT 10SM OVC007 08/07 A2994 RMK AO2 SLP139 T00830072
2026-04-25 09:52:00,METAR KDPA 250952Z 03007KT 9SM OVC005 09/08 A2992 RMK AO2 SLP131 T00890083
2026-04-25 08:52:00,METAR KDPA 250852Z 07008KT 10SM OVC006 09/08 A2991 RMK AO2 SLP127 T00890078 53018
2026-04-25 07:52:00,METAR KDPA 250752Z 05008KT 10SM OVC007 09/08 A2988 RMK AO2 SLP118 T00890078
2026-04-25 07:20:00,SPECI KDPA 250720Z 05007KT 10SM BKN008 09/08 A2987 RMK AO2 T00890078
2026-04-25 07:12:00,SPECI KDPA 250712Z 05007KT 10SM SCT009 09/07 A2987 RMK AO2 T00890072
2026-04-25 06:52:00,METAR KDPA 250652Z 07005KT 10SM CLR 09/07 A2987 RMK AO2 SLP114 T00890072
2026-04-25 05:52:00,METAR KDPA 250552Z 04006KT 10SM CLR 09/08 A2986 RMK AO2 SLP109 T00940083 10206 20094 402110094 53012
2026-04-25 04:52:00,METAR KDPA 250452Z 36006KT 10SM CLR 12/09 A2984 RMK AO2 SLP102 T01220089
2026-04-25 03:52:00,METAR KDPA 250352Z 01005KT 10SM CLR 13/10 A2983 RMK AO2 SLP099 T01280100
2026-04-25 02:52:00,METAR KDPA 250252Z 01005KT 10SM CLR 14/11 A2982 RMK AO2 SLP096 T01440106 53023
2026-04-25 01:52:00,METAR KDPA 250152Z 33007KT 10SM CLR 17/11 A2980 RMK AO2 SLP088 T01720106
2026-04-25 00:52:00,METAR KDPA 250052Z 31006KT 10SM CLR 18/11 A2977 RMK AO2 SLP076 T01830106
2026-04-24 23:52:00,METAR KDPA 242352Z 29012KT 10SM SCT049 21/11 A2975 RMK AO2 SLP071 T02060106 10206 20183 53007
2026-04-24 22:52:00,METAR KDPA 242252Z 30010KT 10SM FEW041 20/11 A2974 RMK AO2 SLP066 T02000111
2026-04-24 21:52:00,METAR KDPA 242152Z 29010KT 10SM FEW032 20/12 A2973 RMK AO2 SLP063 T02000122
2026-04-24 20:52:00,METAR KDPA 242052Z 27010KT 10SM BKN033 19/13 A2973 RMK AO2 SLP064 T01940133 58001
2026-04-24 19:52:00,METAR KDPA 241952Z 27012KT 10SM FEW027 OVC035 19/13 A2974 RMK AO2 SLP067 T01940133
2026-04-24 19:03:00,SPECI KDPA 241903Z 28013KT 10SM BKN032 19/13 A2973 RMK AO2 T01890128
2026-04-24 18:52:00,METAR KDPA 241852Z 25012KT 10SM BKN029 BKN034 19/13 A2973 RMK AO2 SLP064 T01890128
2026-04-24 18:33:00,SPECI KDPA 241833Z 27013KT 10SM BKN027 19/13 A2972 RMK AO2 T01890133
2026-04-24 17:52:00,METAR KDPA 241752Z 28012G18KT 10SM CLR 19/13 A2971 RMK AO2 SLP058 T01890133 10206 20178 50005
2026-04-24 17:16:00,SPECI KDPA 241716Z 27012KT 10SM SCT026 19/13 A2972 RMK AO2 T01890133
2026-04-24 16:52:00,METAR KDPA 241652Z 26010KT 10SM BKN027 19/13 A2972 RMK AO2 SLP059 T01890133
2026-04-24 16:49:00,SPECI KDPA 241649Z 26010KT 10SM BKN027 19/13 A2972 RMK AO2
2026-04-24 15:52:00,METAR KDPA 241552Z 27012KT 10SM CLR 20/13 A2970 RMK AO2 SLP052 T02000133
2026-04-24 14:52:00,METAR KDPA 241452Z 28015G21KT 10SM CLR 19/14 A2968 RMK AO2 SLP048 T01940139 51032
2026-04-24 13:52:00,METAR KDPA 241352Z 26012KT 10SM FEW033 FEW049 SCT070 20/16 A2966 RMK AO2 SLP039 T02000156
2026-04-24 12:52:00,METAR KDPA 241252Z 22007KT 10SM BKN100 19/16 A2964 RMK AO2 SLP031 T01940156
2026-04-24 11:52:00,METAR KDPA 241152Z 14008KT 10SM CLR 18/15 A2959 RMK AO2 SLP015 60000 T01780150 10211 20167 58016
2026-04-24 10:52:00,METAR KDPA 241052Z 16006KT 10SM FEW042 SCT060 17/14 A2961 RMK AO2 SLP023 T01720144
2026-04-24 10:26:00,SPECI KDPA 241026Z 17004KT 10SM SCT030 OVC041 18/15 A2963 RMK AO2 T01830150
2026-04-24 09:52:00,METAR KDPA 240952Z 20006KT 10SM OVC029 19/15 A2963 RMK AO2 RAB20E29 SLP030 P0000 T01890150
2026-04-24 08:52:00,METAR KDPA 240852Z 19009KT 10SM OVC043 19/14 A2964 RMK AO2 RAB05E14 SLP030 P0000 60000 T01940144 56014
2026-04-24 07:52:00,METAR KDPA 240752Z 19011G20KT 10SM FEW055 19/14 A2965 RMK AO2 SLP034 T01940139
2026-04-24 06:52:00,METAR KDPA 240652Z 18014KT 10SM BKN060 21/14 A2966 RMK AO2 SLP039 T02060139
2026-04-24 05:52:00,METAR KDPA 240552Z 18015G23KT 10SM CLR 21/13 A2968 RMK AO2 SLP044 T02060133 10244 20206 402670089 58010
2026-04-24 04:52:00,METAR KDPA 240452Z 17015G23KT 10SM FEW095 21/13 A2970 RMK AO2 LTG DSNT E SLP050 T02110133
2026-04-24 03:52:00,METAR KDPA 240352Z 18014G21KT 10SM OVC085 22/13 A2971 RMK AO2 SLP056 T02220128
2026-04-24 02:52:00,METAR KDPA 240252Z 17010KT 10SM CLR 22/12 A2971 RMK AO2 SLP055 T02170117 53008
2026-04-24 01:52:00,METAR KDPA 240152Z 17009KT 10SM CLR 22/12 A2969 RMK AO2 SLP050 T02170117
2026-04-24 00:52:00,METAR KDPA 240052Z 18010KT 10SM CLR 23/11 A2969 RMK AO2 SLP049 T02280111
2026-04-23 23:52:00,METAR KDPA 232352Z 18017G24KT 10SM CLR 24/11 A2969 RMK AO2 PK WND 19029/2325 SLP050 T02440111 10267 20244 56023
2026-04-23 22:52:00,METAR KDPA 232252Z 18016G30KT 10SM FEW065 26/12 A2971 RMK AO2 PK WND 18030/2248 SLP057 T02560117
2026-04-23 21:52:00,METAR KDPA 232152Z 19014G24KT 10SM FEW065 26/12 A2973 RMK AO2 PK WND 18028/2135 SLP064 T02610122
2026-04-23 20:52:00,METAR KDPA 232052Z 18017G26KT 10SM FEW065 26/12 A2976 RMK AO2 PK WND 17028/2006 SLP074 T02560122 58030
2026-04-23 19:52:00,METAR KDPA 231952Z 20015G23KT 10SM SCT060 26/13 A2979 RMK AO2 PK WND 21028/1924 SLP085 T02610128
2026-04-23 18:52:00,METAR KDPA 231852Z 18014G22KT 10SM SCT055 26/14 A2982 RMK AO2 SLP094 T02560139
2026-04-23 17:52:00,METAR KDPA 231752Z 19012G22KT 10SM SCT048 BKN060 24/14 A2985 RMK AO2 SLP104 T02440144 10250 20117 56014
2026-04-23 16:52:00,METAR KDPA 231652Z 18011G18KT 10SM SCT047 24/15 A2985 RMK AO2 SLP107 T02390150
2026-04-23 15:52:00,METAR KDPA 231552Z 17010KT 10SM CLR 23/16 A2987 RMK AO2 SLP112 T02330156
2026-04-23 14:52:00,METAR KDPA 231452Z 18007KT 10SM CLR 22/15 A2989 RMK AO2 SLP118 T02170150 58013
2026-04-23 13:52:00,METAR KDPA 231352Z 17005KT 10SM CLR 19/15 A2990 RMK AO2 SLP124 T01940150
2026-04-23 12:52:00,METAR KDPA 231252Z 17007KT 5SM BR CLR 15/13 A2991 RMK AO2 SLP129 T01500133
2026-04-23 11:52:00,METAR KDPA 231152Z AUTO 18005KT 3SM BR CLR 11/10 A2993 RMK AO2 SLP132 T01110100 10111 20089 53005
2026-04-23 10:52:00,METAR KDPA 231052Z AUTO 15003KT 6SM BR CLR 10/08 A2991 RMK AO2 SLP129 T01000083
2026-04-23 09:52:00,METAR KDPA 230952Z 17005KT 9SM CLR 09/07 A2990 RMK AO2 SLP125 T00890072
2026-04-23 08:52:00,METAR KDPA 230852Z 00000KT 10SM CLR 10/06 A2991 RMK AO2 SLP126 T01000061 58010
2026-04-23 07:52:00,METAR KDPA 230752Z 00000KT 10SM CLR 11/06 A2993 RMK AO2 SLP132 T01060061
2026-04-23 06:52:00,METAR KDPA 230652Z 00000KT 10SM CLR 10/05 A2993 RMK AO2 SLP133 T01000050
2026-04-23 05:52:00,METAR KDPA 230552Z 00000KT 10SM CLR 11/04 A2994 RMK AO2 SLP137 T01060044 10178 20100 402500100 50002
2026-04-23 04:52:00,METAR KDPA 230452Z 00000KT 10SM CLR 11/03 A2995 RMK AO2 SLP139 T01110033
2026-04-23 03:52:00,METAR KDPA 230352Z 00000KT 10SM CLR 11/03 A2995 RMK AO2 SLP140 T01110028
2026-04-23 02:52:00,METAR KDPA 230252Z 08006KT 10SM CLR 12/03 A2994 RMK AO2 SLP136 T01170028 51006
2026-04-23 01:52:00,METAR KDPA 230152Z 07007KT 10SM CLR 13/06 A2993 RMK AO2 SLP135 T01330061
2026-04-23 00:52:00,METAR KDPA 230052Z 06007KT 10SM CLR 16/09 A2992 RMK AO2 SLP132 T01560094
2026-04-22 23:52:00,METAR KDPA 222352Z 05006KT 10SM CLR 18/10 A2992 RMK AO2 SLP129 T01830100 10250 20183 53000
2026-04-22 22:52:00,METAR KDPA 222252Z 09011KT 10SM CLR 21/11 A2991 RMK AO2 SLP127 T02060111
2026-04-22 21:52:00,METAR KDPA 222152Z 08012KT 10SM CLR 23/13 A2991 RMK AO2 SLP126 T02280133
2026-04-22 20:52:00,METAR KDPA 222052Z 03005KT 10SM FEW048 25/15 A2992 RMK AO2 SLP127 T02500150 58009
2026-04-22 19:52:00,METAR KDPA 221952Z 00000KT 10SM FEW038 23/14 A2993 RMK AO2 SLP133 T02330144
2026-04-22 18:52:00,METAR KDPA 221852Z VRB04KT 10SM CLR 23/15 A2994 RMK AO2 SLP135 T02330150
2026-04-22 17:52:00,METAR KDPA 221752Z 00000KT 10SM CLR 22/15 A2995 RMK AO2 SLP138 T02220150 10228 20156 50001
2026-04-22 17:39:00,SPECI KDPA 221739Z 00000KT 10SM SCT027 23/16 A2995 RMK AO2 T02280156
2026-04-22 16:52:00,METAR KDPA 221652Z VRB03KT 10SM BKN026 22/16 A2995 RMK AO2 SLP140 T02170156
2026-04-22 15:52:00,METAR KDPA 221552Z 29004KT 10SM OVC022 19/15 A2996 RMK AO2 SLP141 T01940150
2026-04-22 14:52:00,METAR KDPA 221452Z 28010KT 10SM OVC020 19/15 A2994 RMK AO2 SLP137 T01890150 51007
2026-04-22 14:02:00,SPECI KDPA 221402Z 27012KT 10SM BKN017 18/15 A2993 RMK AO2 T01830150
2026-04-22 13:52:00,METAR KDPA 221352Z 26012G18KT 10SM FEW017 18/15 A2994 RMK AO2 SLP134 T01830150
2026-04-22 12:52:00,METAR KDPA 221252Z 25009KT 10SM CLR 17/14 A2993 RMK AO2 SLP133 T01670144
2026-04-22 11:52:00,METAR KDPA 221152Z 24011KT 10SM CLR 16/13 A2992 RMK AO2 SLP130 T01560133 10156 20122 53012
2026-04-22 10:52:00,METAR KDPA 221052Z 23009KT 10SM CLR 15/13 A2991 RMK AO2 SLP125 T01500128
2026-04-22 09:52:00,METAR KDPA 220952Z 23006KT 10SM CLR 14/12 A2989 RMK AO2 SLP120 T01440122
2026-04-22 08:52:00,METAR KDPA 220852Z 22007KT 10SM SCT100 15/13 A2989 RMK AO2 SLP118 T01500128 55001
2026-04-22 07:52:00,METAR KDPA 220752Z 21003KT 10SM CLR 13/11 A2988 RMK AO2 SLP116 T01280111
2026-04-22 06:52:00,METAR KDPA 220652Z 00000KT 10SM CLR 13/12 A2988 RMK AO2 SLP117 T01330117
2026-04-22 05:52:00,METAR KDPA 220552Z 00000KT 10SM CLR 14/12 A2989 RMK AO2 SLP118 T01440117 10228 20133 402440083 58000
2026-04-22 04:52:00,METAR KDPA 220452Z 00000KT 10SM CLR 16/12 A2989 RMK AO2 SLP118 T01610122
2026-04-22 03:52:00,METAR KDPA 220352Z 24006KT 10SM CLR 17/12 A2989 RMK AO2 SLP119 T01670122
2026-04-22 02:52:00,METAR KDPA 220252Z 23006KT 10SM CLR 17/12 A2989 RMK AO2 SLP119 T01720122 52010
2026-04-22 01:52:00,METAR KDPA 220152Z 23004KT 10SM CLR 18/12 A2988 RMK AO2 SLP117 T01830122
2026-04-22 00:52:00,METAR KDPA 220052Z 22005KT 10SM CLR 21/12 A2987 RMK AO2 SLP112 T02110122
2026-04-21 23:52:00,METAR KDPA 212352Z 27007KT 10SM CLR 23/12 A2986 RMK AO2 SLP110 T02280122 10244 20211 53004
2026-04-21 22:52:00,METAR KDPA 212252Z 26012G20KT 10SM FEW060 24/12 A2985 RMK AO2 SLP108 T02390117
2026-04-21 21:52:00,METAR KDPA 212152Z AUTO 25012G27KT 10SM OVC060 23/12 A2984 RMK AO2 PK WND 25029/2126 SLP103 T02330117
2026-04-21 20:52:00,METAR KDPA 212052Z AUTO 25014G20KT 10SM FEW060 SCT100 24/12 A2985 RMK AO2 LTG DSNT SE SLP105 T02390117 56014
2026-04-21 20:29:00,SPECI KDPA 212029Z 25010G22KT 10SM FEW055 BKN100 24/12 A2985 RMK AO2 LTG DSNT SE T02390117
2026-04-21 20:07:00,SPECI KDPA 212007Z 27009KT 10SM VCTS FEW055 OVC100 22/11 A2986 RMK AO2 LTG DSNT NE AND E T02170111
2026-04-21 19:52:00,METAR KDPA 211952Z 25012G22KT 10SM FEW055 BKN100 22/11 A2986 RMK AO2 LTG DSNT NE AND E SLP109 T02170111
2026-04-21 18:52:00,METAR KDPA 211852Z 24013G21KT 10SM CLR 21/11 A2987 RMK AO2 PK WND 24029/1813 SLP114 T02110106
2026-04-21 17:52:00,METAR KDPA 211752Z 24015G23KT 10SM CLR 22/10 A2989 RMK AO2 PK WND 21027/1707 SLP120 T02170100 10222 20094 57018
2026-04-21 16:52:00,METAR KDPA 211652Z 22018G26KT 10SM CLR 21/10 A2990 RMK AO2 PK WND 22026/1628 SLP124 T02110100
2026-04-21 15:52:00,METAR KDPA 211552Z 22015G25KT 10SM CLR 19/09 A2993 RMK AO2 PK WND 22026/1458 SLP135 T01940094
2026-04-21 14:52:00,METAR KDPA 211452Z 23017G24KT 10SM CLR 17/08 A2994 RMK AO2 SLP139 T01720078 58016
2026-04-21 13:52:00,METAR KDPA 211352Z 20012KT 10SM CLR 15/07 A2996 RMK AO2 SLP146 T01500067
2026-04-21 12:52:00,METAR KDPA 211252Z 18010KT 10SM CLR 12/06 A2998 RMK AO2 SLP152 T01170056
2026-04-21 11:52:00,METAR KDPA 211152Z 19010KT 10SM CLR 09/04 A2999 RMK AO2 SLP157 T00940044 10100 20083 56012
2026-04-21 10:52:00,METAR KDPA 211052Z AUTO 19011KT 10SM CLR 08/03 A3000 RMK AO2 SLP161 T00830028
2026-04-21 09:52:00,METAR KDPA 210952Z 19012KT 10SM CLR 09/02 A3001 RMK AO2 SLP165 T00940022
2026-04-21 08:52:00,METAR KDPA 210852Z 18009KT 10SM CLR 09/01 A3003 RMK AO2 SLP170 T00890011 56020
2026-04-21 07:52:00,METAR KDPA 210752Z 18010KT 10SM CLR 09/01 A3004 RMK AO2 SLP173 T00940006
2026-04-21 06:52:00,METAR KDPA 210652Z 18008KT 10SM CLR 09/01 A3006 RMK AO2 SLP182 T00890006
2026-04-21 05:52:00,METAR KDPA 210552Z 17007KT 10SM CLR 08/00 A3009 RMK AO2 SLP191 T00830000 10128 20078 401331022 56012
2026-04-21 04:52:00,METAR KDPA 210452Z 17007KT 10SM CLR 09/M01 A3009 RMK AO2 SLP192 T00891006
2026-04-21 03:52:00,METAR KDPA 210352Z 19009KT 10SM CLR 10/M01 A3011 RMK AO2 SLP197 T01001011
2026-04-21 02:52:00,METAR KDPA 210252Z 17008KT 10SM CLR 10/M03 A3012 RMK AO2 SLP204 T01001028 56009
2026-04-21 01:52:00,METAR KDPA 210152Z 18009KT 10SM CLR 09/M03 A3013 RMK AO2 SLP206 T00941028
2026-04-21 00:52:00,METAR KDPA 210052Z 19007KT 10SM CLR 11/M03 A3013 RMK AO2 SLP209 T01111033
2026-04-20 23:52:00,METAR KDPA 202352Z 18012G21KT 10SM CLR 13/M04 A3015 RMK AO2 SLP215 T01281039 10133 20100 58028
2026-04-20 22:52:00,METAR KDPA 202252Z 18011KT 10SM CLR 13/M04 A3019 RMK AO2 SLP227 T01281039
2026-04-20 21:52:00,METAR KDPA 202152Z 19009G18KT 10SM CLR 13/M02 A3022 RMK AO2 SLP236 T01331022
2026-04-20 20:52:00,METAR KDPA 202052Z 16012G18KT 10SM CLR 12/M04 A3024 RMK AO2 SLP244 T01221039 58025
2026-04-20 19:52:00,METAR KDPA 201952Z 19012KT 10SM CLR 12/M02 A3027 RMK AO2 SLP254 T01221017
2026-04-20 18:52:00,METAR KDPA 201852Z 22009G17KT 10SM CLR 12/M03 A3029 RMK AO2 SLP262 T01171033
2026-04-20 17:52:00,METAR KDPA 201752Z 16013G18KT 10SM CLR 11/M05 A3031 RMK AO2 SLP269 T01061050 10111 21011 58012
2026-04-20 16:52:00,METAR KDPA 201652Z VRB05KT 10SM CLR 09/M07 A3033 RMK AO2 SLP278 T00891072
2026-04-20 15:52:00,METAR KDPA 201552Z AUTO 06003KT 10SM CLR 08/M07 A3034 RMK AO2 SLP280 T00831067
2026-04-20 14:52:00,METAR KDPA 201452Z 16004KT 10SM CLR 07/M05 A3035 RMK AO2 SLP282 T00721050 50004
2026-04-20 13:52:00,METAR KDPA 201352Z 12004KT 10SM CLR 06/M02 A3035 RMK AO2 SLP283 T00561022
2026-04-20 12:52:00,METAR KDPA 201252Z 00000KT 10SM CLR 03/00 A3035 RMK AO2 SLP284 T00330000
2026-04-20 11:52:00,METAR KDPA 201152Z 00000KT 9SM CLR M01/M02 A3034 RMK AO2 SNE12 SLP279 P0000 60000 70004 T10111017 10017 21022 53018
2026-04-20 10:52:00,METAR KDPA 201052Z COR 00000KT 10SM CLR M01/M01 A3031 RMK AO2 UPB50E52SNB52 SLP269 P0000 T10061011
2026-04-20 09:52:00,METAR KDPA 200952Z 00000KT 10SM CLR M01/M01 A3029 RMK AO2 SLP263 T10061011
2026-04-20 08:52:00,METAR KDPA 200852Z 00000KT 9SM CLR 01/00 A3028 RMK AO2 SLP260 T00060000 53007
2026-04-20 07:52:00,METAR KDPA 200752Z 00000KT 10SM CLR 01/M01 A3027 RMK AO2 SLP257 T00061011
2026-04-20 06:52:00,METAR KDPA 200652Z 00000KT 10SM CLR 02/M02 A3027 RMK AO2 SLP255 T00171017
2026-04-20 05:52:00,METAR KDPA 200552Z 36004KT 10SM CLR 01/M02 A3026 RMK AO2 SLP253 T00111022 10083 20006 401000006 53013
2026-04-20 04:52:00,METAR KDPA 200452Z 02005KT 10SM CLR 02/M03 A3024 RMK AO2 SLP247 T00171033
2026-04-20 03:52:00,METAR KDPA 200352Z 31004KT 10SM BKN085 05/M03 A3023 RMK AO2 SLP241 T00501028
2026-04-20 02:52:00,METAR KDPA 200252Z 31004KT 10SM BKN085 06/M03 A3022 RMK AO2 SLP239 T00561033 53023
2026-04-20 01:52:00,METAR KDPA 200152Z 30003KT 10SM OVC085 07/M03 A3020 RMK AO2 SLP231 T00671033
2026-04-20 00:52:00,METAR KDPA 200052Z 33005KT 10SM OVC085 07/M06 A3017 RMK AO2 SLP222 T00721056
2026-04-19 23:52:00,METAR KDPA 192352Z COR 33008KT 10SM SCTBKN080 08/M06 A3015 RMK AO2 SLP216 60004 T00781056 10100 20050 53009
2026-04-19 22:52:00,METAR KDPA 192252Z 34010KT 10SM FEW060 BKN080 09/M04 A3014 RMK AO2 SLP212 T00891039
2026-04-19 21:52:00,METAR KDPA 192152Z 29013G20KT 10SM BKN080 09/M02 A3013 RMK AO2 SLP209 T00891022
2026-04-19 20:52:00,METAR KDPA 192052Z AUTO 33014KT 10SM FEW041 SCT050 OVC070 09/M01 A3012 RMK AO2 RAB1959E35 SLP206 P0001 60004 T00941006 51005
2026-04-19 19:52:00,METAR KDPA 191952Z AUTO 30011KT 10SM FEW045 FEW100 09/02 A3012 RMK AO2 RAB04E26 SLP205 P0002 T00890022
2026-04-19 19:22:00,SPECI KDPA 191922Z 25006KT 7SM -RA SCT017 SCT026 BKN046 06/03 A3013 RMK AO2 RAB04 P0002 T00610033
2026-04-19 19:15:00,SPECI KDPA 191915Z 24008G25KT 2 1/2SM +RA BKN017 BKN026 OVC070 06/02 A3013 RMK AO2 RAB04 P0002 T00560022
2026-04-19 18:52:00,METAR KDPA 191852Z 34008KT 10SM FEW036 SCT070 OVC110 07/02 A3014 RMK AO2 PK WND 31034/1814 WSHFT 1809 RAB16E34 SLP210 P0001 T00670022
2026-04-19 18:29:00,SPECI KDPA 191829Z 34017G27KT 10SM -RA SCT034 BKN049 OVC110 06/02 A3013 RMK AO2 PK WND 31034/1814 WSHFT 1809 LTG DSNT E RAB16 P0001 T00560022
2026-04-19 17:52:00,METAR KDPA 191752Z 28015G24KT 10SM BKN048 BKN060 08/M01 A3011 RMK AO2 SLP201 T00831006 10094 20017 50000
2026-04-19 16:52:00,METAR KDPA 191652Z 30012G22KT 10SM FEW033 SCT044 OVC055 07/M02 A3012 RMK AO2 SLP204 T00721017
2026-04-19 15:52:00,METAR KDPA 191552Z 27013KT 10SM OVC075 08/M03 A3011 RMK AO2 SLP201 T00781028
2026-04-19 14:52:00,METAR KDPA 191452Z 31009KT 10SM FEW065 OVC080 07/M04 A3011 RMK AO2 SLP200 T00721039 51006
2026-04-19 13:52:00,METAR KDPA 191352Z 26010KT 10SM OVC090 06/M02 A3010 RMK AO2 SLP200 T00561022
2026-04-19 12:52:00,METAR KDPA 191252Z 25008KT 10SM SCT110 04/M03 A3010 RMK AO2 SLP198 T00391028
2026-04-19 11:52:00,METAR KDPA 191152Z 24005KT 10SM CLR 02/M02 A3009 RMK AO2 SLP194 T00171017 10022 20006 53001
2026-04-19 10:52:00,METAR KDPA 191052Z 23006KT 10SM CLR 01/M02 A3008 RMK AO2 SLP193 T00061017
2026-04-19 09:52:00,METAR KDPA 190952Z 24004KT 10SM CLR 01/M02 A3009 RMK AO2 SLP193 T00111017
2026-04-19 08:52:00,METAR KDPA 190852Z 24006KT 10SM CLR 01/M02 A3008 RMK AO2 SLP193 T00111017 53004
2026-04-19 07:52:00,METAR KDPA 190752Z 24005KT 10SM CLR 02/M02 A3007 RMK AO2 SLP189 T00171022
2026-04-19 06:52:00,METAR KDPA 190652Z 24006KT 10SM CLR 02/M02 A3007 RMK AO2 SLP189 T00171022
2026-04-19 05:52:00,METAR KDPA 190552Z 23005KT 10SM CLR 02/M02 A3007 RMK AO2 SLP189 T00221022 10072 20022 401670022 51004
2026-04-19 04:52:00,METAR KDPA 190452Z 26006KT 10SM CLR 03/M02 A3007 RMK AO2 SLP187 T00331022
2026-04-19 03:52:00,METAR KDPA 190352Z 28008KT 10SM CLR 05/M03 A3007 RMK AO2 SLP186 T00501028
2026-04-19 02:52:00,METAR KDPA 190252Z 27009KT 10SM CLR 05/M02 A3006 RMK AO2 SLP184 T00501022 53018
2026-04-19 01:52:00,METAR KDPA 190152Z 28009KT 10SM CLR 06/M03 A3004 RMK AO2 SLP178 T00561033
2026-04-19 00:52:00,METAR KDPA 190052Z AUTO 29015G26KT 10SM CLR 06/M04 A3002 RMK AO2 PK WND 28030/0033 SLP169 T00611039
2026-04-18 23:52:00,METAR KDPA 182352Z 27021G33KT 10SM FEW050 07/M03 A3000 RMK AO2 PK WND 30033/2344 SLP164 T00721033 10100 20072 53023
2026-04-18 22:52:00,METAR KDPA 182252Z 27022G33KT 10SM SCT049 08/M03 A2998 RMK AO2 PK WND 26036/2230 SLP154 T00831028
2026-04-18 21:52:00,METAR KDPA 182152Z 28023G37KT 10SM FEW048 09/M02 A2996 RMK AO2 PK WND 28038/2131 SLP148 T00891022
2026-04-18 20:52:00,METAR KDPA 182052Z 27023G33KT 10SM FEW046 09/M01 A2993 RMK AO2 PK WND 27033/2007 SLP139 T00941011 51008
2026-04-18 19:52:00,METAR KDPA 181952Z 27019G26KT 10SM OVC045 09/01 A2993 RMK AO2 PK WND 27033/1858 SLP135 T00940006
2026-04-18 18:52:00,METAR KDPA 181852Z 27014G27KT 250V310 10SM FEW039 08/00 A2992 RMK AO2 PK WND 27029/1840 SLP134 T00830000
2026-04-18 17:52:00,METAR KDPA 181752Z 28016G28KT 10SM FEW036 08/00 A2991 RMK AO2 PK WND 25030/1704 SLP129 T00780000 10083 20050 51022
2026-04-18 16:52:00,METAR KDPA 181652Z 28018G27KT 10SM FEW031 07/01 A2989 RMK AO2 PK WND 27027/1631 SLP124 T00720006
2026-04-18 16:04:00,SPECI KDPA 181604Z 31019G26KT 10SM SCT027 07/00 A2988 RMK AO2 PK WND 31026/1603 T00670000
2026-04-18 15:52:00,METAR KDPA 181552Z 28019G26KT 10SM BKN026 07/01 A2988 RMK AO2 PK WND 28028/1514 SLP120 T00670006
2026-04-18 14:52:00,METAR KDPA 181452Z 28015G23KT 10SM SCT021 06/01 A2984 RMK AO2 SLP107 T00560011 53026
2026-04-18 13:52:00,METAR KDPA 181352Z 28015G23KT 10SM FEW022 06/01 A2982 RMK AO2 SLP097 T00560011
2026-04-18 13:27:00,SPECI KDPA 181327Z 28010G21KT 10SM SCT022 06/02 A2981 RMK AO2 T00610022
2026-04-18 13:03:00,SPECI KDPA 181303Z 28015G22KT 10SM BKN021 07/02 A2980 RMK AO2 T00670022
2026-04-18 12:52:00,METAR KDPA 181252Z 27014KT 10SM SCT021 07/02 A2979 RMK AO2 SLP086 T00670022
2026-04-18 11:52:00,METAR KDPA 181152Z 29017G24KT 10SM SCT023 SCT070 07/03 A2977 RMK AO2 SLP078 60009 70057 T00720028 10167 20072 53033
2026-04-18 10:59:00,SPECI KDPA 181059Z 29013KT 10SM OVC017 08/04 A2972 RMK AO2 T00780044
2026-04-18 10:52:00,METAR KDPA 181052Z 29011G20KT 10SM OVC010 08/05 A2972 RMK AO2 SLP060 T00780050
2026-04-18 09:52:00,METAR KDPA 180952Z 28017KT 10SM OVC010 09/07 A2968 RMK AO2 PK WND 26027/0856 SLP048 T00890072
2026-04-18 08:52:00,METAR KDPA 180852Z 28019G25KT 10SM OVC007 11/09 A2967 RMK AO2 CIG 006V010 SLP042 60009 T01060094 53007
2026-04-18 07:52:00,METAR KDPA 180752Z 25013G22KT 10SM OVC007 13/13 A2962 RMK AO2 PK WND 27026/0726 RAE0655 CIG 005V009 SLP026 P0000 T01330128
2026-04-18 06:52:00,METAR KDPA 180652Z 21011KT 10SM -RA SCT012 BKN080 OVC095 16/15 A2960 RMK AO2 SLP018 P0009 T01610150
2026-04-18 05:52:00,METAR KDPA 180552Z 23018G31KT 7SM RA OVC095 17/15 A2964 RMK AO2 PK WND 23032/0538 RAB28 SLP034 P0002 60048 T01670150 10250 20167 402670094 55006
2026-04-18 04:52:00,METAR KDPA 180452Z 22012G21KT 10SM SCT090 OVC110 17/16 A2962 RMK AO2 PK WND 22027/0401 RAE44 TSB0357E12 SLP026 P0008 T01670156
2026-04-18 04:18:00,SPECI KDPA 180418Z 21017G26KT 7SM VCTS RA FEW080 OVC100 17/16 A2963 RMK AO2 PK WND 22027/0401 LTG DSNT S AND NW TSB0357E12 PRESFR P0006 T01670156
2026-04-18 04:03:00,SPECI KDPA 180403Z 22020G27KT 6SM -TSRA BR FEW040 BKN090 OVC110 17/16 A2967 RMK AO2 PK WND 22027/0401 LTG DSNT ALQDS TSB0357 P0003 T01670156
2026-04-18 03:52:00,METAR KDPA 180352Z 22018G28KT 5SM VCTS RA BR FEW028 BKN075 OVC090 17/16 A2967 RMK AO2 PK WND 22028/0352 LTG DSNT W-NE TSB03E18B36E51 SLP044 P0016 T01670156
2026-04-18 03:42:00,SPECI KDPA 180342Z 23017G26KT 4SM TSRA BR BKN070 OVC095 17/16 A2967 RMK AO2 PK WND 22026/0338 LTG DSNT ALQDS TSB03E18B36 P0013 T01670156
2026-04-18 03:21:00,SPECI KDPA 180321Z 23013KT 5SM RA BR FEW060 BKN075 OVC085 17/16 A2967 RMK AO2 LTG DSNT ALQDS TSB03E18 PRESRR P0007 T01720161
2026-04-18 03:09:00,SPECI KDPA 180309Z 25011KT 5SM TSRA BR OVC080 17/16 A2965 RMK AO2 LTG DSNT ALQDS TSB03 P0004 T01720161
2026-04-18 02:52:00,METAR KDPA 180252Z 25013G20KT 7SM VCTS -RA SCT046 OVC080 17/16 A2966 RMK AO2 PK WND 23045/0223 LTG DSNT ALQDS TSE13 SLP042 P0017 60022 T01720161 53020
2026-04-18 02:37:00,SPECI KDPA 180237Z 22016G31KT 3SM VCTS RA BR FEW028 BKN049 OVC100 17/16 A2968 RMK AO2 PK WND 23045/0223 LTG DSNT ALQDS TSE13 P0015 T01720161
2026-04-18 02:29:00,SPECI KDPA 180229Z 23021G45KT 1 3/4SM VCTS +RA BR FEW022 BKN047 OVC100 18/16 A2969 RMK AO2 PK WND 23045/0223 LTG DSNT ALQDS TSE13 PRESRR P0012 T01780161
2026-04-18 02:19:00,SPECI KDPA 180219Z 17011KT 9SM VCTS -RA FEW034 SCT048 OVC100 22/19 A2961 RMK AO2 PK WND 19033/0154 LTG DSNT ALQDS TSE13 PRESFR P0002 T02170189
2026-04-18 01:52:00,METAR KDPA 180152Z 19020G34KT 5SM TSRA BKN048 BKN060 OVC100 22/18 A2962 RMK AO2 PK WND 18034/0152 LTG DSNT ALQDS RAB19 TSB41 SLP026 P0005 T02220183
2026-04-18 01:41:00,SPECI KDPA 180141Z 19012G22KT 8SM -TSRA SCT048 BKN060 OVC095 23/18 A2962 RMK AO2 PK WND 18030/0103 LTG DSNT ALQDS RAB19 TSB41 P0001 T02280178
2026-04-18 00:52:00,METAR KDPA 180052Z 17017G30KT 10SM SCT050 BKN055 25/17 A2959 RMK AO2 PK WND 18032/0023 LTG DSNT W AND NW SLP017 T02500172
2026-04-17 23:52:00,METAR KDPA 172352Z 18020G29KT 10SM FEW080 25/17 A2960 RMK AO2 PK WND 16031/2325 SLP022 T02500167 10267 20239 56031
2026-04-17 22:52:00,METAR KDPA 172252Z 17018G29KT 10SM FEW050 SCT065 26/17 A2964 RMK AO2 PK WND 18033/2236 SLP035 T02560167
2026-04-17 21:52:00,METAR KDPA 172152Z 16021G33KT 10SM SCT060 26/16 A2965 RMK AO2 PK WND 17036/2058 SLP037 T02610156
2026-04-17 20:52:00,METAR KDPA 172052Z 18016G27KT 10SM FEW055 SCT070 27/17 A2970 RMK AO2 PK WND 18031/2037 SLP054 T02670167 56044
2026-04-17 19:52:00,METAR KDPA 171952Z 16015G26KT 10SM FEW043 SCT050 SCT060 26/18 A2972 RMK AO2 PK WND 16028/1922 SLP063 T02560178
2026-04-17 18:52:00,METAR KDPA 171852Z 18015G27KT 10SM FEW039 FEW049 26/18 A2979 RMK AO2 PK WND 16030/1839 SLP087 T02560183
2026-04-17 17:52:00,METAR KDPA 171752Z 18016G23KT 10SM SCT055 24/18 A2983 RMK AO2 PK WND 17027/1738 SLP100 T02440178 10244 20100 58019
2026-04-17 16:52:00,METAR KDPA 171652Z 17012G20KT 10SM CLR 23/17 A2985 RMK AO2 SLP107 T02280172
2026-04-17 15:52:00,METAR KDPA 171552Z 18013KT 10SM CLR 22/17 A2989 RMK AO2 SLP118 T02170167
2026-04-17 14:52:00,METAR KDPA 171452Z 15009KT 10SM CLR 21/16 A2989 RMK AO2 SLP119 T02110156 58005
2026-04-17 13:52:00,METAR KDPA 171352Z 15009KT 10SM CLR 18/14 A2990 RMK AO2 SLP124 T01830139
2026-04-17 12:52:00,METAR KDPA 171252Z 15007KT 7SM CLR 13/13 A2990 RMK AO2 SLP125 T01330128
2026-04-17 12:38:00,SPECI KDPA 171238Z 15004KT 7SM CLR 13/13 A2990 RMK AO2 T01330128
2026-04-17 11:58:00,SPECI KDPA 171158Z 12005KT 2SM BR CLR 11/11 A2990 RMK AO2 T01110111
2026-04-17 11:52:00,METAR KDPA 171152Z 00000KT 1 1/4SM BR BKN002 10/10 A2990 RMK AO2 RAB45E47 SLP125 P0000 60000 70002 T01000100 10111 20094 56005
2026-04-17 11:39:00,SPECI KDPA 171139Z 00000KT 1/2SM FG VV002 10/10 A2991 RMK AO2 T01000100 RVRNO
2026-04-17 10:52:00,METAR KDPA 171052Z 00000KT 1/4SM FG VV002 10/10 A2990 RMK AO2 SLP125 T01000100 RVRNO
2026-04-17 10:13:00,SPECI KDPA 171013Z 13004KT 1/4SM FG VV002 11/11 A2990 RMK AO2 T01060106 RVRNO
2026-04-17 09:52:00,METAR KDPA 170952Z 14004KT 1/2SM FG VV002 11/11 A2991 RMK AO2 SLP125 T01110111 RVRNO
2026-04-17 08:52:00,METAR KDPA 170852Z 13005KT 1/4SM FG VV002 11/11 A2992 RMK AO2 SLP130 T01110111 56004 RVRNO
2026-04-17 08:45:00,SPECI KDPA 170845Z 14005KT 1/2SM FG VV002 11/11 A2992 RMK AO2 T01110111 RVRNO
2026-04-17 08:17:00,SPECI KDPA 170817Z 12004KT 1/4SM FG VV002 11/11 A2992 RMK AO2 T01060106 RVRNO
2026-04-17 08:08:00,SPECI KDPA 170808Z 12004KT 1/2SM FG VV002 11/11 A2992 RMK AO2 T01060106 RVRNO
2026-04-17 07:57:00,SPECI KDPA 170757Z 12004KT 1 3/4SM BR OVC004 11/10 A2992 RMK AO2 T01060100
2026-04-17 07:52:00,METAR KDPA 170752Z 13005KT 3SM BR BKN004 10/10 A2992 RMK AO2 SLP131 T01000100
2026-04-17 07:37:00,SPECI KDPA 170737Z 00000KT 4SM BR SCT004 10/09 A2992 RMK AO2 T01000094
2026-04-17 06:52:00,METAR KDPA 170652Z 10003KT 5SM BR CLR 10/09 A2993 RMK AO2 SLP134 T01000094
2026-04-17 05:52:00,METAR KDPA 170552Z 09003KT 6SM BR CLR 11/10 A2993 RMK AO2 SLP135 T01060100 10211 20106 402280106 50002
2026-04-17 04:52:00,METAR KDPA 170452Z 07003KT 7SM CLR 11/10 A2994 RMK AO2 SLP137 T01110100
2026-04-17 03:52:00,METAR KDPA 170352Z 08004KT 7SM CLR 12/11 A2993 RMK AO2 SLP135 T01170106
2026-04-17 02:52:00,METAR KDPA 170252Z 09004KT 8SM CLR 13/12 A2993 RMK AO2 SLP133 T01280117 53023
2026-04-17 01:52:00,METAR KDPA 170152Z 08005KT 10SM CLR 14/12 A2990 RMK AO2 SLP123 T01390122
2026-04-17 00:52:00,METAR KDPA 170052Z 07009KT 10SM CLR 17/13 A2987 RMK AO2 SLP114 T01670128
2026-04-16 23:52:00,METAR KDPA 162352Z 27007KT 10SM CLR 21/13 A2986 RMK AO2 SLP107 T02110133 10228 20194 53008
2026-04-16 22:52:00,METAR KDPA 162252Z 29011KT 10SM CLR 22/13 A2985 RMK AO2 SLP104 T02170133
2026-04-16 21:52:00,METAR KDPA 162152Z 27008G18KT 10SM SCT041 BKN050 22/14 A2984 RMK AO2 SLP101 T02220139
2026-04-16 20:52:00,METAR KDPA 162052Z 28010KT 10SM FEW042 22/14 A2983 RMK AO2 SLP099 T02220139 51009
2026-04-16 19:52:00,METAR KDPA 161952Z 28010G19KT 10SM SCT037 SCT046 22/14 A2983 RMK AO2 SLP097 T02170139
2026-04-16 18:52:00,METAR KDPA 161852Z 27010G18KT 10SM FEW028 FEW043 SCT055 21/14 A2981 RMK AO2 SLP092 T02110144
2026-04-16 18:18:00,SPECI KDPA 161818Z 29009KT 10SM SCT023 SCT049 21/16 A2981 RMK AO2 LTG DSNT E T02060156
2026-04-16 17:52:00,METAR KDPA 161752Z 31011KT 10SM BKN021 BKN047 19/16 A2980 RMK AO2 SLP090 60002 T01940156 10200 20156 52017
2026-04-16 16:52:00,METAR KDPA 161652Z 25014G21KT 10SM BKN016 20/16 A2979 RMK AO2 RAE1558 SLP085 P0000 T02000161
2026-04-16 16:43:00,SPECI KDPA 161643Z 27013G21KT 10SM SCT016 19/16 A2978 RMK AO2 RAE1558 P0000 T01940161
2026-04-16 16:29:00,SPECI KDPA 161629Z 25012G21KT 10SM BKN014 BKN020 BKN049 19/16 A2978 RMK AO2 LTG DSNT E RAE1558 P0000 T01890161
2026-04-16 15:59:00,SPECI KDPA 161559Z 26011G18KT 10SM BKN009 BKN013 OVC019 18/17 A2978 RMK AO2 RAE58 CIG 007V011 P0000 T01780167
2026-04-16 15:52:00,METAR KDPA 161552Z 24010G20KT 9SM -RA SCT009 BKN012 OVC018 17/16 A2977 RMK AO2 SLP080 P0001 T01720161
2026-04-16 15:30:00,SPECI KDPA 161530Z 24011KT 6SM -RA BR BKN009 OVC019 17/16 A2977 RMK AO2 CIG 007V014 P0001 T01720161
2026-04-16 14:52:00,METAR KDPA 161452Z 25010KT 8SM -RA BKN013 BKN018 OVC026 17/16 A2975 RMK AO2 RAB32 SLP072 P0001 60001 T01720161 53009
2026-04-16 14:36:00,SPECI KDPA 161436Z 23013G20KT 9SM -RA SCT014 BKN020 OVC027 18/16 A2974 RMK AO2 RAB32 P0000 T01830161
2026-04-16 13:52:00,METAR KDPA 161352Z 22012KT 10SM BKN013 OVC017 18/16 A2974 RMK AO2 SLP068 T01780161
2026-04-16 13:05:00,SPECI KDPA 161305Z 22012KT 10SM BKN011 BKN016 17/16 A2974 RMK AO2 T01670156
2026-04-16 12:52:00,METAR KDPA 161252Z 20009KT 10SM SCT009 BKN016 17/16 A2973 RMK AO2 SLP065 T01670156
2026-04-16 12:35:00,SPECI KDPA 161235Z 20008KT 10SM BKN009 OVC014 16/15 A2974 RMK AO2 T01610150
2026-04-16 11:52:00,METAR KDPA 161152Z 20009G19KT 10SM OVC013 16/14 A2973 RMK AO2 RAB1057E06 SLP063 P0000 60001 70051 T01560144 10161 20144 53001
2026-04-16 10:52:00,METAR KDPA 161052Z 16008KT 10SM OVC023 15/14 A2972 RMK AO2 RAB07E18 SLP060 P0000 T01500139
2026-04-16 10:38:00,SPECI KDPA 161038Z 16006KT 10SM OVC028 15/14 A2972 RMK AO2 RAB07E18 P0000 T01500139
2026-04-16 09:52:00,METAR KDPA 160952Z 17005KT 10SM OVC034 15/14 A2973 RMK AO2 RAB0853E04 SLP063 P0001 T01500139
2026-04-16 08:52:00,METAR KDPA 160852Z 24003KT 7SM BKN049 OVC090 14/14 A2973 RMK AO2 SLP064 T01440139 57009
2026-04-16 07:52:00,METAR KDPA 160752Z 15009KT 10SM FEW038 14/14 A2972 RMK AO2 SLP062 T01440139
2026-04-16 06:52:00,METAR KDPA 160652Z 16011KT 10SM BKN050 OVC060 15/14 A2976 RMK AO2 SLP074 T01500144
2026-04-16 05:52:00,METAR KDPA 160552Z 12008KT 10SM BKN065 OVC085 15/14 A2975 RMK AO2 RAE36 SLP073 P0001 60045 T01500144 10217 20144 402280144 50001
2026-04-16 04:52:00,METAR KDPA 160452Z 01003KT 8SM -RA BKN070 BKN085 OVC110 15/14 A2980 RMK AO2 SLP090 P0011 T01500144
2026-04-16 04:01:00,SPECI KDPA 160401Z 31004KT 5SM RA BR BKN049 BKN065 OVC090 15/14 A2982 RMK AO2 LTG DSNT SW P0001 T01500139
2026-04-16 03:52:00,METAR KDPA 160352Z 31004KT 2 1/2SM RA BR BKN047 OVC065 15/14 A2981 RMK AO2 PK WND 32046/0259 WSHFT 0251 LTG DSNT S AND SW RAB0259 SLP095 P0033 T01500139
2026-04-16 03:40:00,SPECI KDPA 160340Z 32007KT 4SM RA BR BKN045 OVC060 15/14 A2981 RMK AO2 PK WND 32046/0259 WSHFT 0251 LTG DSNT SW RAB0259 P0025 T01500139
2026-04-16 03:25:00,SPECI KDPA 160325Z 35009G19KT 4SM VCTS -RA BR FEW023 BKN043 OVC049 14/14 A2979 RMK AO2 PK WND 32046/0259 WSHFT 0251 LTG DSNT ALQDS RAB0259 P0019 T01440139
2026-04-16 03:08:00,SPECI KDPA 160308Z 33021G46KT 2 1/2SM RA BR SCT023 BKN039 OVC060 15/13 A2979 RMK AO2 PK WND 32046/0259 WSHFT 0251 LTG DSNT ALQDS RAB0259 PRESRR P0009 T01500133
2026-04-16 03:05:00,SPECI KDPA 160305Z 33030G46KT 4SM RA BKN023 BKN039 OVC060 16/13 A2979 RMK AO2 PK WND 32046/0259 WSHFT 0251 LTG DSNT N AND W RAB0259 P0003 T01610133
2026-04-16 02:52:00,METAR KDPA 160252Z AUTO 22015G23KT 10SM BKN023 BKN060 OVC095 21/17 A2975 RMK AO2 PK WND 21029/0210 LTG DSNT NW SLP071 T02060172 53007
2026-04-16 01:52:00,METAR KDPA 160152Z AUTO 22018G26KT 10SM BKN023 BKN028 21/17 A2974 RMK AO2 PK WND 19030/0053 SLP068 T02060167
2026-04-16 01:35:00,SPECI KDPA 160135Z AUTO 20016G30KT 10SM BKN027 BKN033 21/16 A2973 RMK AO2 PK WND 19030/0053 T02060161
2026-04-16 00:52:00,METAR KDPA 160052Z 20019G28KT 10SM BKN031 BKN040 OVC070 21/17 A2973 RMK AO2 PK WND 21028/0045 SLP066 T02110167
2026-04-15 23:52:00,METAR KDPA 152352Z 19014G23KT 10SM BKN047 OVC060 22/17 A2973 RMK AO2 PK WND 19027/2336 SLP064 60000 T02170167 10228 20183 56022
2026-04-15 23:08:00,SPECI KDPA 152308Z 19015G26KT 10SM SCT025 SCT065 BKN075 22/17 A2975 RMK AO2 PK WND 19026/2304 T02220172
2026-04-15 22:52:00,METAR KDPA 152252Z 19013G23KT 10SM SCT023 BKN029 23/18 A2975 RMK AO2 SLP070 T02280178
2026-04-15 21:52:00,METAR KDPA 152152Z 20009KT 10SM FEW021 22/18 A2977 RMK AO2 SLP078 T02220178
2026-04-15 20:52:00,METAR KDPA 152052Z 22010KT 10SM FEW017 21/17 A2980 RMK AO2 SLP086 60000 T02110172 58008
2026-04-15 19:52:00,METAR KDPA 151952Z 21008KT 10SM FEW014 SCT090 BKN110 19/17 A2981 RMK AO2 SLP092 T01940167
2026-04-15 18:52:00,METAR KDPA 151852Z 23012KT 10SM OVC100 18/17 A2983 RMK AO2 RAB09E19 SLP097 P0000 T01830167
2026-04-15 17:52:00,METAR KDPA 151752Z 21014G20KT 10SM FEW095 BKN120 18/16 A2982 RMK AO2 PRESRR SLP095 60005 T01830161 10183 20161 51025
2026-04-15 16:52:00,METAR KDPA 151652Z 20013G19KT 10SM FEW011 18/16 A2981 RMK AO2 SLP092 T01780161
2026-04-15 15:52:00,METAR KDPA 151552Z 17013KT 10SM FEW080 OVC110 17/16 A2979 RMK AO2 RAE1454B24E38 SLP087 P0000 T01720156
2026-04-15 14:52:00,METAR KDPA 151452Z 16007KT 10SM -RA FEW055 OVC110 17/16 A2974 RMK AO2 RAB01E17B35 SLP067 P0000 60005 T01720161 58020
2026-04-15 13:52:00,METAR KDPA 151352Z 19007KT 10SM OVC110 17/16 A2978 RMK AO2 RAB14E30 SLP081 P0001 T01670156
2026-04-15 12:52:00,METAR KDPA 151252Z 22004KT 10SM FEW090 16/16 A2978 RMK AO2 RAE35 SLP079 P0004 T01610156
2026-04-15 11:52:00,METAR KDPA 151152Z 24008KT 5SM RA BR SCT050 SCT070 OVC085 17/15 A2981 RMK AO2 SLP088 P0014 60019 70063 T01670150 10211 20167 53030
2026-04-15 10:52:00,METAR KDPA 151052Z 26005KT 10SM -RA FEW065 BKN085 OVC110 18/16 A2976 RMK AO2 SLP074 P0005 T01780161
2026-04-15 09:52:00,METAR KDPA 150952Z 22010KT 10SM -RA FEW075 BKN100 20/17 A2975 RMK AO2 LTG DSNT SE RAB51 SLP071 P0000 T02000172
2026-04-15 08:52:00,METAR KDPA 150852Z 21010KT 10SM SCT039 21/18 A2972 RMK AO2 LTG DSNT N AND NW SLP057 T02060183 53000
2026-04-15 07:52:00,METAR KDPA 150752Z 16006KT 10SM SCT039 OVC055 18/18 A2972 RMK AO2 LTG DSNT N SLP057 T01830178
2026-04-15 06:52:00,METAR KDPA 150652Z 14008KT 10SM CLR 18/17 A2970 RMK AO2 SLP052 T01780172
2026-04-15 05:52:00,METAR KDPA 150552Z VRB03KT 10SM BKN055 BKN070 OVC090 18/17 A2971 RMK AO2 LTG DSNT NE AND E RAE22 TSE02 SLP057 P0026 60042 T01780172 10261 20178 402720144 51000
2026-04-15 05:16:00,SPECI KDPA 150516Z 33005G16KT 3SM VCTS -RA BR SCT021 BKN040 OVC065 18/17 A2971 RMK AO2 LTG DSNT NW-E TSE02 P0026 T01830167
2026-04-15 05:10:00,SPECI KDPA 150510Z 1 3/4SM VCTS +RA BR SCT025 BKN040 OVC080 18/17 A2971 RMK AO2 LTG DSNT NW-E TSE02 P0026 T01830172
2026-04-15 05:06:00,SPECI KDPA 150506Z VRB05KT 2SM VCTS RA BR BKN027 BKN046 OVC080 18/17 A2972 RMK AO2 LTG DSNT N-E TSE02 P0020 T01780172
2026-04-15 05:00:00,SPECI KDPA 150500Z 13006KT 2SM +TSRA BR SCT030 BKN048 OVC060 18/17 A2970 RMK AO2 VIS 1 1/4V5 LTG DSNT NE AND E P0010 T01780167
2026-04-15 04:52:00,METAR KDPA 150452Z 08006KT 3SM TSRA BR SCT036 BKN048 OVC070 18/17 A2971 RMK AO2 LTG DSNT NE AND E RAE31B43 TSE32B43 PRESFR SLP055 P0012 T01780172
2026-04-15 04:49:00,SPECI KDPA 150449Z 06004KT 5SM TSRA BR FEW036 BKN046 OVC070 18/17 A2972 RMK AO2 LTG DSNT NE AND E RAE31B43 TSE32B43 P0007
2026-04-15 04:38:00,SPECI KDPA 150438Z 11005KT 10SM VCTS FEW034 BKN045 OVC070 18/17 A2972 RMK AO2 LTG DSNT ALQDS RAE31 TSE32 P0003 T01780172
2026-04-15 03:52:00,METAR KDPA 150352Z 00000KT 7SM -TSRA BKN033 BKN041 OVC050 18/17 A2971 RMK AO2 PK WND 33026/0310 LTG DSNT ALQDS RAB06 TSB02 SLP058 P0004 T01830172
2026-04-15 03:08:00,SPECI KDPA 150308Z 35014G21KT 10SM -TSRA FEW032 BKN055 OVC090 19/16 A2972 RMK AO2 LTG DSNT ALQDS RAB06 TSB02 PRESRR P0000 T01940156
2026-04-15 02:52:00,METAR KDPA 150252Z AUTO 19012G30KT 10SM VCTS SCT070 BKN085 BKN110 26/19 A2967 RMK AO2 PK WND 20030/0245 LTG DSNT W-NE TSB37E52 SLP041 T02560189 53001
2026-04-15 02:37:00,SPECI KDPA 150237Z AUTO 19017G28KT 10SM TS SCT070 SCT090 25/18 A2966 RMK AO2 PK WND 19028/0236 LTG DSNT W-NE TSB37 T02500183
2026-04-15 01:52:00,METAR KDPA 150152Z AUTO 20012G24KT 10SM CLR 25/18 A2966 RMK AO2 PK WND 21027/0109 SLP038 T02500183
2026-04-15 00:52:00,METAR KDPA 150052Z AUTO 19014G24KT 10SM CLR 26/18 A2966 RMK AO2 PK WND 18027/0033 SLP040 T02560183
2026-04-14 23:52:00,METAR KDPA 142352Z 21017G24KT 10SM CLR 26/18 A2966 RMK AO2 PK WND 19034/2312 SLP040 T02610178 10272 20256 58022
2026-04-14 22:52:00,METAR KDPA 142252Z 20012G25KT 10SM FEW040 SCT050 26/19 A2968 RMK AO2 PK WND 21033/2234 SLP047 T02610189
2026-04-14 21:52:00,METAR KDPA 142152Z 20018G26KT 10SM FEW034 SCT046 BKN050 26/19 A2972 RMK AO2 PK WND 18032/2124 SLP060 T02560194
2026-04-14 20:52:00,METAR KDPA 142052Z 18019G25KT 10SM SCT036 26/19 A2973 RMK AO2 SLP063 T02610189 58018
2026-04-14 19:52:00,METAR KDPA 141952Z 20016G24KT 10SM SCT040 26/18 A2977 RMK AO2 SLP074 T02610183
2026-04-14 18:52:00,METAR KDPA 141852Z 21017G23KT 10SM BKN037 27/18 A2978 RMK AO2 SLP080 T02670183
2026-04-14 17:52:00,METAR KDPA 141752Z 22013G23KT 10SM FEW030 26/18 A2979 RMK AO2 SLP081 60002 T02560178 10256 20144 58015
2026-04-14 16:52:00,METAR KDPA 141652Z 22012KT 10SM SCT031 24/18 A2982 RMK AO2 SLP093 T02440178
2026-04-14 15:52:00,METAR KDPA 141552Z 19009KT 10SM SCT032 OVC039 21/17 A2983 RMK AO2 SLP095 T02110167
2026-04-14 14:52:00,METAR KDPA 141452Z 16012KT 10SM FEW039 19/16 A2983 RMK AO2 SLP097 60002 T01890161 58001
2026-04-14 13:52:00,METAR KDPA 141352Z 16011G18KT 10SM OVC037 16/13 A2985 RMK AO2 SLP105 T01560133
2026-04-14 12:52:00,METAR KDPA 141252Z 15009KT 10SM FEW043 OVC055 14/13 A2983 RMK AO2 RAE15 SLP099 P0002 T01440133
2026-04-14 12:09:00,SPECI KDPA 141209Z 15008KT 9SM -RA FEW038 BKN095 OVC110 14/13 A2983 RMK AO2 LTG DSNT SW P0002 T01440133
2026-04-14 11:52:00,METAR KDPA 141152Z 14010KT 9SM VCTS -RA SCT042 BKN050 OVC085 14/13 A2983 RMK AO2 LTG DSNT ALQDS RAE25B41 TSB14E30 SLP099 P0004 60004 70005 T01440133 10211 20144 50007
2026-04-14 11:36:00,SPECI KDPA 141136Z 13007KT 10SM VCTS SCT043 OVC055 14/13 A2983 RMK AO2 LTG DSNT ALQDS RAE25 TSB14E30 P0003 T01440133
2026-04-14 11:20:00,SPECI KDPA 141120Z 00000KT 8SM -TSRA BKN055 OVC100 15/13 A2983 RMK AO2 LTG DSNT ALQDS TSB14 P0003 T01500133
2026-04-14 10:52:00,METAR KDPA 141052Z 04004KT 10SM VCTS -RA BKN033 BKN040 OVC070 16/13 A2983 RMK AO2 LTG DSNT ALQDS RAB46 SLP100 P0000 T01610133
2026-04-14 10:24:00,SPECI KDPA 141024Z 06008KT 10SM VCTS SCT035 BKN042 OVC080 16/13 A2982 RMK AO2 LTG DSNT SW-N T01610133
2026-04-14 09:52:00,METAR KDPA 140952Z 07008KT 10SM BKN038 BKN050 OVC060 17/13 A2982 RMK AO2 LTG DSNT W-N SLP093 T01670133
2026-04-14 09:08:00,SPECI KDPA 140908Z 07007KT 10SM FEW027 SCT035 BKN048 16/13 A2979 RMK AO2 T01610128
2026-04-14 08:52:00,METAR KDPA 140852Z 02012KT 10SM BKN025 BKN036 OVC070 17/13 A2981 RMK AO2 LTG DSNT NE SLP091 T01670133 53018
2026-04-14 08:29:00,SPECI KDPA 140829Z 35017G24KT 10SM BKN023 OVC032 18/14 A2981 RMK AO2 LTG DSNT NE T01830144
2026-04-14 07:52:00,METAR KDPA 140752Z 21012G25KT 10SM CLR 21/17 A2974 RMK AO2 SLP067 T02060167
2026-04-14 06:52:00,METAR KDPA 140652Z 21013G23KT 10SM CLR 21/17 A2975 RMK AO2 PK WND 20028/0618 SLP069 T02060172
2026-04-14 05:52:00,METAR KDPA 140552Z 20017G28KT 10SM FEW050 21/17 A2976 RMK AO2 PK WND 21028/0551 SLP072 T02110172 10228 20211 402500161 50001
2026-04-14 04:52:00,METAR KDPA 140452Z 20016G24KT 10SM CLR 21/17 A2978 RMK AO2 SLP079 T02110172
2026-04-14 03:52:00,METAR KDPA 140352Z 19014G23KT 10SM CLR 22/17 A2977 RMK AO2 PK WND 18026/0255 SLP075 T02170172
2026-04-14 02:52:00,METAR KDPA 140252Z 18015G26KT 10SM CLR 22/17 A2976 RMK AO2 PK WND 19028/0216 SLP072 T02220172 56019
2026-04-14 01:52:00,METAR KDPA 140152Z 19015KT 10SM CLR 22/17 A2976 RMK AO2 PK WND 18027/0130 SLP072 T02220172
2026-04-14 00:52:00,METAR KDPA 140052Z 17014G21KT 10SM FEW120 22/16 A2977 RMK AO2 SLP078 T02170161
2026-04-13 23:52:00,METAR KDPA 132352Z 16007KT 10SM FEW055 22/15 A2981 RMK AO2 LTG DSNT E RAE2253 TSE2257 SLP091 P0000 60000 T02220150 10250 20217 56009
2026-04-13 23:03:00,SPECI KDPA 132303Z 18010KT 10SM FEW028 SCT100 23/16 A2983 RMK AO2 RAE2253 TSE2257 P0000 T02280161
2026-04-13 22:52:00,METAR KDPA 132252Z 18011KT 10SM -TSRA FEW026 SCT110 22/17 A2983 RMK AO2 RAB36 TSB42 SLP096 P0000 T02220167
2026-04-13 22:48:00,SPECI KDPA 132248Z 18011KT 10SM -TSRA SCT026 SCT110 23/17 A2982 RMK AO2 RAB36 TSB42 P0000
2026-04-13 21:52:00,METAR KDPA 132152Z 17015G23KT 10SM CLR 24/18 A2984 RMK AO2 SLP101 T02440178
2026-04-13 20:52:00,METAR KDPA 132052Z 20008KT 10SM CLR 25/18 A2985 RMK AO2 SLP104 T02500178 58021
2026-04-13 19:52:00,METAR KDPA 131952Z 22006KT 10SM FEW100 FEW120 23/19 A2987 RMK AO2 SLP110 T02280189
2026-04-13 18:52:00,METAR KDPA 131852Z 23011KT 10SM FEW033 22/18 A2992 RMK AO2 LTG DSNT W SLP130 T02170178
2026-04-13 17:52:00,METAR KDPA 131752Z 21010KT 10SM FEW021 BKN031 OVC035 22/18 A2991 RMK AO2 SLP126 60001 T02220183 10222 20172 58009
2026-04-13 16:52:00,METAR KDPA 131652Z 22012KT 10SM BKN017 OVC025 21/18 A2992 RMK AO2 SLP130 T02060183
2026-04-13 16:19:00,SPECI KDPA 131619Z 22009KT 10SM OVC016 21/18 A2993 RMK AO2 T02060178
2026-04-13 15:52:00,METAR KDPA 131552Z 23007KT 10SM OVC013 20/18 A2993 RMK AO2 SLP133 T02000183
2026-04-13 14:59:00,SPECI KDPA 131459Z 21007KT 7SM OVC011 18/18 A2994 RMK AO2 T01830178
2026-04-13 14:52:00,METAR KDPA 131452Z 22006KT 6SM BR OVC003 18/18 A2994 RMK AO2 SLP136 60001 T01830178 53008
2026-04-13 13:59:00,SPECI KDPA 131359Z 22007KT 6SM BR OVC003 18/17 A2992 RMK AO2 T01780172
2026-04-13 13:52:00,METAR KDPA 131352Z COR 21007KT 5SM BR OVC003 18/17 A2992 RMK AO2 RAE02 SLP130 P0001 T01780172
2026-04-13 13:47:00,SPECI KDPA 131347Z 21006KT 4SM BR OVC015 18/17 A2992 RMK AO2 RAE02 P0001
2026-04-13 12:52:00,METAR KDPA 131252Z 22008KT 2SM -RA BR FEW006 OVC016 17/17 A2992 RMK AO2 RAB13E17B45 SLP127 P0000 T01720167
2026-04-13 12:39:00,SPECI KDPA 131239Z 22009KT 2 1/2SM BR FEW006 OVC016 17/17 A2991 RMK AO2 RAB13E17 P0000 T01720167
2026-04-13 12:18:00,SPECI KDPA 131218Z 22010KT 2 1/2SM BR FEW009 OVC014 17/17 A2990 RMK AO2 RAB13E17 P0000 T01720167
2026-04-13 12:09:00,SPECI KDPA 131209Z 22008KT 2 1/2SM BR OVC012 17/17 A2990 RMK AO2 T01720167
2026-04-13 11:52:00,METAR KDPA 131152Z 22010KT 4SM BR BKN009 BKN024 OVC033 17/17 A2989 RMK AO2 SLP117 60000 70019 T01720167 10178 20161 53023
2026-04-13 10:52:00,METAR KDPA 131052Z 22010KT 10SM BKN009 BKN027 OVC031 17/16 A2986 RMK AO2 SLP108 T01720161
2026-04-13 09:52:00,METAR KDPA 130952Z 24012KT 10SM OVC009 17/16 A2985 RMK AO2 SLP103 T01720161
2026-04-13 09:11:00,SPECI KDPA 130911Z 24012G21KT 10SM OVC009 18/17 A2983 RMK AO2 T01780167
2026-04-13 08:52:00,METAR KDPA 130852Z 23014G23KT 10SM OVC010 17/16 A2982 RMK AO2 CIG 008V014 SLP093 60000 T01720161 53004
2026-04-13 08:40:00,SPECI KDPA 130840Z 23015KT 10SM OVC010 17/16 A2981 RMK AO2 CIG 007V014 T01720161
2026-04-13 08:00:00,SPECI KDPA 130800Z 23013G21KT 10SM OVC009 17/16 A2981 RMK AO2 CIG 007V012 T01670161
2026-04-13 07:52:00,METAR KDPA 130752Z 23014KT 10SM OVC010 17/16 A2980 RMK AO2 CIG 008V012 SLP088 T01670161
2026-04-13 07:08:00,SPECI KDPA 130708Z 23013KT 10SM OVC010 17/16 A2981 RMK AO2 CIG 007V014 T01670156
2026-04-13 06:52:00,METAR KDPA 130652Z 23011KT 10SM BKN008 OVC012 17/16 A2980 RMK AO2 RAE0555 CIG 007V011 SLP089 P0000 T01670156
2026-04-13 05:52:00,METAR KDPA 130552Z 23014KT 10SM -RA OVC009 16/16 A2981 RMK AO2 PK WND 22027/0531 RAE18B40 SLP089 P0000 60019 T01610156 10167 20156 402610128 53005
2026-04-13 05:13:00,SPECI KDPA 130513Z 22018G25KT 10SM -RA BKN010 BKN015 OVC021 16/15 A2979 RMK AO2 PK WND 21026/0501 P0000 T01610150
2026-04-13 05:02:00,SPECI KDPA 130502Z 21016G26KT 8SM -RA SCT010 BKN017 OVC021 16/15 A2978 RMK AO2 PK WND 21026/0501 P0000 T01610150
2026-04-13 04:52:00,METAR KDPA 130452Z 21015KT 3SM RA BR BKN010 BKN018 OVC031 16/15 A2978 RMK AO2 SLP079 P0007 T01560150
2026-04-13 04:49:00,SPECI KDPA 130449Z 21014KT 3SM RA BR SCT008 BKN012 OVC026 16/15 A2978 RMK AO2 P0006
2026-04-13 03:52:00,METAR KDPA 130352Z 22010KT 6SM -RA BR SCT008 OVC021 16/16 A2979 RMK AO2 SLP084 P0006 T01610156
2026-04-13 03:27:00,SPECI KDPA 130327Z AUTO 22011G19KT 7SM -RA BKN026 OVC033 16/16 A2981 RMK AO2 P0004 T01610156
2026-04-13 02:52:00,METAR KDPA 130252Z AUTO 21011KT 6SM -RA BR FEW020 BKN036 OVC044 16/15 A2981 RMK AO2 SLP093 P0004 60006 T01610150 51004
2026-04-13 02:38:00,SPECI KDPA 130238Z AUTO 20013G18KT 5SM -RA BR SCT019 BKN028 OVC034 16/15 A2981 RMK AO2 P0003 T01610150
2026-04-13 01:52:00,METAR KDPA 130152Z AUTO 22008KT 9SM -RA SCT044 OVC055 17/15 A2981 RMK AO2 PK WND 22037/0053 SLP092 P0002 T01670150
2026-04-13 00:52:00,METAR KDPA 130052Z 21022G38KT 9SM -RA SCT046 BKN065 OVC080 19/14 A2982 RMK AO2 PK WND 21038/0050 SLP095 P0000 T01940139
2026-04-12 23:52:00,METAR KDPA 122352Z 20018G30KT 10SM -RA OVC100 23/12 A2980 RMK AO2 PK WND 21032/2256 RAB25 SLP088 P0000 60000 T02280122 10261 20228 55010
2026-04-12 22:52:00,METAR KDPA 122252Z 20013G30KT 10SM BKN110 24/12 A2979 RMK AO2 PK WND 21034/2204 SLP085 T02440122
2026-04-12 21:52:00,METAR KDPA 122152Z 20022G39KT 10SM SCT060 OVC090 25/12 A2981 RMK AO2 PK WND 22039/2100 SLP093 T02500122
2026-04-12 20:52:00,METAR KDPA 122052Z 21024G34KT 10SM FEW060 SCT085 BKN110 26/13 A2983 RMK AO2 PK WND 20036/2003 SLP098 T02560128 58021
2026-04-12 19:52:00,METAR KDPA 121952Z 21013G29KT 10SM BKN060 BKN090 26/14 A2985 RMK AO2 PK WND 21034/1933 SLP105 T02560139
2026-04-12 18:52:00,METAR KDPA 121852Z 22018G30KT 10SM SCT120 25/14 A2988 RMK AO2 PK WND 23040/1834 SLP115 T02500139
2026-04-12 17:52:00,METAR KDPA 121752Z 21021G36KT 10SM CLR 25/14 A2989 RMK AO2 PK WND 23038/1722 SLP120 T02500144 10256 20150 58022
2026-04-12 16:52:00,METAR KDPA 121652Z 22020G30KT 10SM SCT110 24/14 A2992 RMK AO2 PK WND 21032/1556 SLP130 T02440144
2026-04-12 15:52:00,METAR KDPA 121552Z 21017G27KT 10SM CLR 23/15 A2994 RMK AO2 PK WND 19028/1538 SLP137 T02330150
2026-04-12 14:52:00,METAR KDPA 121452Z 20014KT 10SM CLR 19/14 A2996 RMK AO2 SLP145 T01940139 58012
2026-04-12 13:52:00,METAR KDPA 121352Z 19012KT 10SM FEW120 16/12 A2998 RMK AO2 SLP154 T01610122
2026-04-12 12:52:00,METAR KDPA 121252Z 20014G24KT 10SM FEW110 16/12 A2999 RMK AO2 SLP157 T01610117
2026-04-12 11:52:00,METAR KDPA 121152Z 20016G25KT 10SM CLR 15/11 A3000 RMK AO2 PK WND 18030/1107 SLP158 T01500111 10161 20128 55014
2026-04-12 10:52:00,METAR KDPA 121052Z 18014G30KT 10SM FEW110 16/11 A2999 RMK AO2 PK WND 19030/1050 SLP156 T01560111
2026-04-12 09:52:00,METAR KDPA 120952Z 18009KT 10SM FEW120 13/08 A3002 RMK AO2 SLP165 T01280078
2026-04-12 08:52:00,METAR KDPA 120852Z 17008KT 10SM FEW120 13/07 A3004 RMK AO2 SLP172 T01330067 56024
2026-04-12 07:52:00,METAR KDPA 120752Z 16011KT 10SM FEW110 13/06 A3006 RMK AO2 SLP179 T01280056
2026-04-12 06:52:00,METAR KDPA 120652Z AUTO 16012KT 10SM FEW110 13/05 A3008 RMK AO2 SLP186 T01330050
2026-04-12 05:52:00,METAR KDPA 120552Z 16009KT 10SM BKN110 13/06 A3011 RMK AO2 SLP197 60000 T01330056 10133 20111 401391017 58018
2026-04-12 04:52:00,METAR KDPA 120452Z 14007KT 10SM SCT100 12/05 A3013 RMK AO2 SLP203 T01170050
2026-04-12 03:52:00,METAR KDPA 120352Z 13007KT 10SM OVC040 11/04 A3015 RMK AO2 SLP212 T01110044
2026-04-12 02:52:00,METAR KDPA 120252Z 13010KT 10SM FEW100 BKN120 11/04 A3016 RMK AO2 SLP217 60000 T01110039 58021
2026-04-12 01:52:00,METAR KDPA 120152Z 10006KT 10SM SCT034 SCT080 OVC095 11/04 A3019 RMK AO2 RAB11E26 SLP225 P0000 T01110039
2026-04-12 00:52:00,METAR KDPA 120052Z 12008KT 10SM SCT050 BKN100 12/04 A3021 RMK AO2 SLP232 T01170039
2026-04-11 23:52:00,METAR KDPA 112352Z 11007KT 10SM FEW095 SCT110 13/04 A3023 RMK AO2 SLP240 T01280039 10139 20117 58021
2026-04-11 22:52:00,METAR KDPA 112252Z 16008KT 10SM BKN070 14/04 A3026 RMK AO2 SLP251 T01390044
2026-04-11 21:52:00,METAR KDPA 112152Z 18007KT 10SM CLR 13/03 A3028 RMK AO2 SLP258 T01330033
2026-04-11 20:52:00,METAR KDPA 112052Z 14008KT 10SM CLR 14/03 A3029 RMK AO2 SLP261 T01390028 56030
2026-04-11 19:52:00,METAR KDPA 111952Z 13008KT 10SM CLR 13/01 A3032 RMK AO2 SLP271 T01330011
2026-04-11 18:52:00,METAR KDPA 111852Z 12005KT 10SM SCT100 13/M02 A3035 RMK AO2 SLP281 T01281017
2026-04-11 17:52:00,METAR KDPA 111752Z 00000KT 10SM CLR 12/M03 A3038 RMK AO2 SLP292 T01171028 10122 21006 58018
2026-04-11 16:52:00,METAR KDPA 111652Z 12009KT 10SM CLR 11/M02 A3041 RMK AO2 SLP303 T01111022
2026-04-11 15:52:00,METAR KDPA 111552Z 12008KT 10SM CLR 11/M01 A3042 RMK AO2 SLP306 T01061011
2026-04-11 14:52:00,METAR KDPA 111452Z 11009KT 10SM CLR 10/00 A3043 RMK AO2 SLP310 T01000000 53007
2026-04-11 13:52:00,METAR KDPA 111352Z 13008KT 10SM CLR 08/01 A3042 RMK AO2 SLP305 T00830011
2026-04-11 12:52:00,METAR KDPA 111252Z 13003KT 8SM CLR 05/02 A3041 RMK AO2 SLP302 T00500022
2026-04-11 11:52:00,METAR KDPA 111152Z AUTO 00000KT 7SM CLR M01/M02 A3041 RMK AO2 SLP304 T10061017 10022 21017 50008
2026-04-11 10:52:00,METAR KDPA 111052Z 01003KT 7SM CLR M01/M01 A3041 RMK AO2 SLP305 T10061011
2026-04-11 09:52:00,METAR KDPA 110952Z 00000KT 6SM BR CLR M01/M01 A3040 RMK AO2 SLP300 T10061006
2026-04-11 08:52:00,METAR KDPA 110852Z 01003KT 6SM BR CLR 00/00 A3039 RMK AO2 SLP296 T00000000 53004
2026-04-11 07:52:00,METAR KDPA 110752Z 00000KT 8SM CLR 01/01 A3038 RMK AO2 SLP295 T00110011
2026-04-11 06:52:00,METAR KDPA 110652Z 00000KT 8SM CLR 02/01 A3038 RMK AO2 SLP292 T00170011
2026-04-11 05:52:00,METAR KDPA 110552Z 00000KT 9SM CLR 02/01 A3037 RMK AO2 SLP290 T00220011 10106 20022 401220022 55002
2026-04-11 04:52:00,METAR KDPA 110452Z 00000KT 9SM CLR 03/02 A3037 RMK AO2 SLP288 T00280022
2026-04-11 03:52:00,METAR KDPA 110352Z 06004KT 9SM CLR 04/02 A3037 RMK AO2 SLP289 T00390022
2026-04-11 02:52:00,METAR KDPA 110252Z 10003KT 7SM CLR 05/04 A3038 RMK AO2 SLP292 T00500039 53021
2026-04-11 01:52:00,METAR KDPA 110152Z AUTO 07007KT 8SM CLR 06/04 A3037 RMK AO2 SLP287 T00610044
2026-04-11 00:52:00,METAR KDPA 110052Z VRB04KT 10SM FEW049 08/02 A3033 RMK AO2 SLP274 T00830022
2026-04-10 23:52:00,METAR KDPA 102352Z 36005KT 10SM SCT034 11/05 A3032 RMK AO2 SLP270 T01060050 10122 20094 53010
2026-04-10 22:52:00,METAR KDPA 102252Z 35010KT 10SM SCT041 BKN049 11/04 A3031 RMK AO2 SLP265 T01110044
2026-04-10 21:52:00,METAR KDPA 102152Z 03004KT 10SM BKN031 OVC041 11/05 A3029 RMK AO2 SLP261 T01110050
2026-04-10 20:52:00,METAR KDPA 102052Z 30003KT 10SM FEW030 OVC041 11/05 A3029 RMK AO2 SLP260 T01110050 50006
2026-04-10 20:21:00,SPECI KDPA 102021Z VRB03KT 10SM SCT021 OVC034 10/06 A3029 RMK AO2 T01000056
2026-04-10 19:52:00,METAR KDPA 101952Z 33005KT 10SM BKN023 OVC028 09/06 A3030 RMK AO2 SLP263 T00940056
2026-04-10 18:52:00,METAR KDPA 101852Z 33009KT 10SM OVC017 09/06 A3028 RMK AO2 SLP257 T00940056
2026-04-10 17:52:00,METAR KDPA 101752Z 33006KT 10SM OVC018 09/06 A3027 RMK AO2 SLP253 60000 T00940061 10100 20067 51017
2026-04-10 17:16:00,SPECI KDPA 101716Z 36007KT 10SM OVC016 09/06 A3026 RMK AO2 T00940061
2026-04-10 16:52:00,METAR KDPA 101652Z 35008KT 10SM BKN014 OVC035 09/07 A3025 RMK AO2 SLP245 T00940067
2026-04-10 16:20:00,SPECI KDPA 101620Z 36009KT 10SM OVC012 08/06 A3024 RMK AO2 T00780056
2026-04-10 15:52:00,METAR KDPA 101552Z 02010KT 10SM OVC009 07/06 A3024 RMK AO2 SLP242 T00720061
2026-04-10 14:52:00,METAR KDPA 101452Z 02008KT 10SM OVC007 08/07 A3021 RMK AO2 RAE07 SLP234 P0000 60000 T00780067 53022
2026-04-10 14:19:00,SPECI KDPA 101419Z 03006KT 10SM BKN008 OVC025 07/07 A3020 RMK AO2 RAE07 P0000 T00720067
2026-04-10 14:10:00,SPECI KDPA 101410Z 03006KT 10SM SCT008 OVC025 07/06 A3019 RMK AO2 RAE07 P0000 T00720061
2026-04-10 13:52:00,METAR KDPA 101352Z 07004KT 7SM -RA FEW015 OVC023 07/06 A3018 RMK AO2 RAE31B32 SLP224 P0000 T00670061
2026-04-10 13:31:00,SPECI KDPA 101331Z 05005KT 8SM SCT007 SCT012 OVC020 07/06 A3018 RMK AO2 RAE31 P0000 T00670061
2026-04-10 12:52:00,METAR KDPA 101252Z 36013G18KT 4SM -RA BR OVC007 07/06 A3017 RMK AO2 CIG 005V010 SLP219 P0000 T00670061
2026-04-10 12:20:00,SPECI KDPA 101220Z 35011KT 5SM -RA BR OVC006 07/06 A3015 RMK AO2 CIG 004V009 P0000 T00670061
2026-04-10 12:08:00,SPECI KDPA 101208Z 36010KT 3SM -RA BR BKN004 OVC009 07/07 A3015 RMK AO2 CIG 003V007 P0000 T00670067
2026-04-10 11:52:00,METAR KDPA 101152Z 35009KT 2 1/2SM -RA BR OVC004 07/07 A3015 RMK AO2 RAB29 SLP211 P0001 60031 70032 T00670067 10078 20061 53030
2026-04-10 11:45:00,SPECI KDPA 101145Z 35008KT 2 1/2SM -RA BR OVC004 07/07 A3014 RMK AO2 RAB29 P0000 T00670067
2026-04-10 10:52:00,METAR KDPA 101052Z 03004KT 5SM BR OVC004 07/07 A3010 RMK AO2 SLP195 T00720067
2026-04-10 09:52:00,METAR KDPA 100952Z 06005KT 6SM BR OVC004 07/07 A3008 RMK AO2 RAE01 SLP186 P0000 T00720067
2026-04-10 09:43:00,SPECI KDPA 100943Z 05006KT 6SM BR OVC004 07/07 A3008 RMK AO2 RAE01 P0000 T00720067
2026-04-10 09:21:00,SPECI KDPA 100921Z 05005KT 7SM BKN005 OVC075 07/07 A3006 RMK AO2 RAE01 P0000 T00670067
2026-04-10 08:52:00,METAR KDPA 100852Z 11007KT 6SM -RA BR FEW004 BKN039 OVC080 07/07 A3006 RMK AO2 SLP179 P0016 60030 T00670067 58014
2026-04-10 07:52:00,METAR KDPA 100752Z 09003KT 4SM RA BR FEW047 BKN065 OVC080 07/06 A3010 RMK AO2 SLP194 P0013 T00670056
2026-04-10 06:52:00,METAR KDPA 100652Z 01007KT 6SM -RA BR BKN065 OVC080 07/05 A3013 RMK AO2 SLP203 P0001 T00670050
2026-04-10 05:52:00,METAR KDPA 100552Z 02010KT 10SM -RA OVC085 08/06 A3010 RMK AO2 RAB0457 SLP193 P0000 60000 T00780056 10161 20078 402060078 55007
2026-04-10 04:52:00,METAR KDPA 100452Z 02009KT 10SM FEW060 SCT075 OVC090 11/06 A3009 RMK AO2 RAE02 SLP187 P0000 T01110056
2026-04-10 03:52:00,METAR KDPA 100352Z 04007KT 10SM -RA FEW070 OVC090 12/08 A3009 RMK AO2 RAB51 PRESFR SLP188 P0000 T01220083
2026-04-10 02:52:00,METAR KDPA 100252Z 00000KT 10SM OVC080 13/08 A3012 RMK AO2 SLP199 60000 T01280083 55008
2026-04-10 01:52:00,METAR KDPA 100152Z 00000KT 10SM SCT110 13/08 A3010 RMK AO2 SLP194 T01330083
2026-04-10 00:52:00,METAR KDPA 100052Z 36006KT 10SM OVC100 13/08 A3011 RMK AO2 RAE14 SLP196 P0000 T01280083
2026-04-09 23:52:00,METAR KDPA 092352Z 30014G19KT 10SM -RA OVC075 16/08 A3015 RMK AO2 RAB2255 TSB2258E13 SLP209 P0001 60001 T01610078 10206 20161 53011
2026-04-09 23:19:00,SPECI KDPA 092319Z 31010KT 8SM -RA OVC070 18/07 A3013 RMK AO2 RAB2255 TSB2258E13 P0000 T01780072
2026-04-09 23:04:00,SPECI KDPA 092304Z 32006KT 10SM -TSRA BKN070 BKN090 OVC110 18/08 A3012 RMK AO2 RAB2255 TSB2258 P0000 T01780083
2026-04-09 22:52:00,METAR KDPA 092252Z 30004KT 10SM FEW060 BKN075 OVC110 18/07 A3012 RMK AO2 RAB27E37 SLP198 P0000 T01830072
2026-04-09 21:52:00,METAR KDPA 092152Z 24006KT 10SM OVC070 19/06 A3012 RMK AO2 SLP199 T01940056
2026-04-09 20:52:00,METAR KDPA 092052Z 25007KT 10SM BKN080 BKN095 20/05 A3011 RMK AO2 SLP196 T02000050 58008
2026-04-09 19:52:00,METAR KDPA 091952Z 24008KT 10SM BKN080 21/05 A3013 RMK AO2 SLP201 T02060050
2026-04-09 18:52:00,METAR KDPA 091852Z 26010G15KT 10SM BKN080 19/04 A3014 RMK AO2 SLP203 T01940044
2026-04-09 17:52:00,METAR KDPA 091752Z 25006G18KT 10SM CLR 19/04 A3014 RMK AO2 SLP204 60000 T01890044 10189 20106 50002
2026-04-09 16:52:00,METAR KDPA 091652Z 25010KT 10SM CLR 18/03 A3015 RMK AO2 SLP207 T01830033
2026-04-09 15:52:00,METAR KDPA 091552Z 26010G15KT 10SM BKN095 17/05 A3015 RMK AO2 SLP209 T01720050
2026-04-09 14:52:00,METAR KDPA 091452Z 26011KT 10SM BKN100 16/04 A3013 RMK AO2 SLP203 60000 T01560039 51012
2026-04-09 13:52:00,METAR KDPA 091352Z 22008KT 10SM FEW080 BKN100 13/07 A3013 RMK AO2 SLP202 T01330072
2026-04-09 12:52:00,METAR KDPA 091252Z 21006KT 10SM OVC085 12/08 A3011 RMK AO2 RAB07E21 SLP196 P0000 T01170083
2026-04-09 11:52:00,METAR KDPA 091152Z 23007KT 10SM OVC090 11/08 A3010 RMK AO2 SLP192 60000 T01060078 10161 20100 53021
2026-04-09 10:52:00,METAR KDPA 091052Z 24004KT 10SM BKN100 BKN110 11/07 A3007 RMK AO2 SLP182 T01110067
2026-04-09 09:52:00,METAR KDPA 090952Z 28007KT 10SM SCT100 BKN120 12/07 A3006 RMK AO2 SLP176 T01220072
2026-04-09 08:52:00,METAR KDPA 090852Z 27010KT 10SM SCT090 SCT110 14/07 A3004 RMK AO2 RAB23E34 SLP169 P0000 60000 T01440072 53001
2026-04-09 07:52:00,METAR KDPA 090752Z 21013G22KT 10SM OVC090 15/07 A2999 RMK AO2 SLP155 T01500067
2026-04-09 06:52:00,METAR KDPA 090652Z 20012KT 10SM OVC090 14/07 A2999 RMK AO2 WSHFT 0539 RAB0556E35 SLP155 P0000 T01440072
2026-04-09 05:59:00,SPECI KDPA 090559Z 24012KT 10SM -RA OVC085 16/06 A3003 RMK AO2 WSHFT 0539 RAB56 P0000 T01560061
2026-04-09 05:52:00,METAR KDPA 090552Z 24013G24KT 10SM FEW070 OVC090 16/06 A3003 RMK AO2 PK WND 19028/0536 WSHFT 0538 SLP169 T01610056 10200 20156 402110017 53010
2026-04-09 04:52:00,METAR KDPA 090452Z 19015G24KT 10SM OVC110 16/05 A3000 RMK AO2 PK WND 18030/0402 SLP158 T01560050
2026-04-09 03:52:00,METAR KDPA 090352Z 19017G27KT 10SM OVC100 17/05 A3000 RMK AO2 PK WND 18031/0338 SLP159 T01670050
2026-04-09 02:52:00,METAR KDPA 090252Z 19018G29KT 10SM CLR 17/05 A3000 RMK AO2 PK WND 19029/0246 SLP159 T01720050 53003
2026-04-09 01:52:00,METAR KDPA 090152Z 19018G27KT 10SM CLR 18/05 A3000 RMK AO2 PK WND 18027/0151 SLP159 T01780050
2026-04-09 00:52:00,METAR KDPA 090052Z AUTO 19014G22KT 10SM CLR 19/05 A2999 RMK AO2 PK WND 21028/0003 SLP158 T01890050
2026-04-08 23:52:00,METAR KDPA 082352Z 21019G32KT 10SM CLR 20/04 A2999 RMK AO2 PK WND 21037/2304 SLP157 T02000039 10211 20156 55009
2026-04-08 22:52:00,METAR KDPA 082252Z 20018G35KT 10SM CLR 21/05 A2998 RMK AO2 PK WND 21037/2228 SLP153 T02110050
2026-04-08 21:52:00,METAR KDPA 082152Z 21025G39KT 10SM CLR 21/04 A2999 RMK AO2 PK WND 21039/2146 SLP157 T02110044
2026-04-08 20:52:00,METAR KDPA 082052Z 19019G33KT 10SM CLR 20/04 A3002 RMK AO2 PK WND 18034/2035 SLP166 T02000044 58031
2026-04-08 19:52:00,METAR KDPA 081952Z 19021G34KT 10SM CLR 19/04 A3005 RMK AO2 PK WND 19034/1949 SLP177 T01940044
2026-04-08 18:52:00,METAR KDPA 081852Z 19022G34KT 10SM CLR 18/04 A3009 RMK AO2 PK WND 18034/1844 SLP190 T01830039
2026-04-08 17:52:00,METAR KDPA 081752Z 19016G26KT 10SM CLR 16/02 A3011 RMK AO2 PK WND 17028/1722 SLP201 T01560022 10156 20033 58029
2026-04-08 16:52:00,METAR KDPA 081652Z 18014G24KT 10SM CLR 14/01 A3014 RMK AO2 PK WND 17027/1628 SLP211 T01390011
2026-04-08 15:52:00,METAR KDPA 081552Z 17017G25KT 10SM CLR 10/M02 A3018 RMK AO2 SLP224 T01001017
2026-04-08 14:52:00,METAR KDPA 081452Z 16018KT 10SM CLR 08/M02 A3020 RMK AO2 PK WND 16028/1421 SLP233 T00781022 58016
2026-04-08 13:52:00,METAR KDPA 081352Z 16015G25KT 10SM CLR 06/M03 A3023 RMK AO2 SLP242 T00611028
2026-04-08 12:52:00,METAR KDPA 081252Z 16011KT 10SM FEW090 04/M03 A3025 RMK AO2 SLP249 T00441033
2026-04-08 11:52:00,METAR KDPA 081152Z 15009G17KT 10SM BKN080 03/M04 A3025 RMK AO2 SLP251 60001 70001 T00331039 10033 20017 56011
2026-04-08 10:52:00,METAR KDPA 081052Z 14011KT 10SM BKN080 03/M04 A3026 RMK AO2 SLP253 T00281039
2026-04-08 09:52:00,METAR KDPA 080952Z 13008KT 10SM BKN080 03/M03 A3027 RMK AO2 SLP258 T00281033
2026-04-08 08:52:00,METAR KDPA 080852Z 13006KT 10SM SCT100 02/M02 A3028 RMK AO2 RAE27 SLP262 P0000 60001 T00221022 58011
2026-04-08 07:52:00,METAR KDPA 080752Z 14006KT 10SM -RA OVC060 02/M03 A3030 RMK AO2 UPB16E20RAB20 SLP268 P0001 T00171028
2026-04-08 06:52:00,METAR KDPA 080652Z 13007KT 10SM SCT055 02/M04 A3030 RMK AO2 SLP269 T00221039
2026-04-08 05:52:00,METAR KDPA 080552Z 12007KT 10SM CLR 02/M04 A3032 RMK AO2 SLP273 T00171039 10033 20006 400501033 58022
2026-04-08 04:52:00,METAR KDPA 080452Z 12004KT 10SM OVC080 01/M04 A3035 RMK AO2 SLP284 T00111039
2026-04-08 03:52:00,METAR KDPA 080352Z 11005KT 10SM BKN065 01/M04 A3036 RMK AO2 SLP290 T00111044
2026-04-08 02:52:00,METAR KDPA 080252Z 10006KT 10SM CLR 01/M06 A3038 RMK AO2 SLP297 T00111056 53001
2026-04-08 01:52:00,METAR KDPA 080152Z 09009KT 10SM FEW080 01/M06 A3037 RMK AO2 SLP292 T00111061
2026-04-08 00:52:00,METAR KDPA 080052Z 10008KT 10SM CLR 02/M08 A3037 RMK AO2 SLP294 T00221078
2026-04-07 23:52:00,METAR KDPA 072352Z 11006KT 10SM CLR 03/M13 A3038 RMK AO2 SLP296 T00331128 10050 20033 58014
2026-04-07 22:52:00,METAR KDPA 072252Z 09009KT 10SM CLR 04/M11 A3040 RMK AO2 SLP302 T00391111
2026-04-07 21:52:00,METAR KDPA 072152Z VRB05KT 10SM CLR 04/M10 A3041 RMK AO2 SLP306 T00441100
2026-04-07 20:52:00,METAR KDPA 072052Z 08009KT 10SM CLR 04/M08 A3042 RMK AO2 SLP310 T00441083 58021
2026-04-07 19:52:00,METAR KDPA 071952Z 10009KT 10SM CLR 04/M08 A3045 RMK AO2 SLP318 T00441083
2026-04-07 18:52:00,METAR KDPA 071852Z 06009KT 10SM CLR 04/M08 A3047 RMK AO2 SLP327 T00391083
2026-04-07 17:52:00,METAR KDPA 071752Z 09007KT 10SM CLR 04/M08 A3049 RMK AO2 SLP332 T00391083 10039 21028 58012
2026-04-07 16:52:00,METAR KDPA 071652Z 06007KT 010V090 10SM CLR 02/M08 A3051 RMK AO2 SLP341 T00221083
2026-04-07 15:52:00,METAR KDPA 071552Z 09006G15KT 10SM CLR 02/M10 A3053 RMK AO2 SLP345 T00171100
2026-04-07 14:52:00,METAR KDPA 071452Z 08008G17KT 10SM CLR 01/M09 A3052 RMK AO2 SLP344 T00111089 51015
2026-04-07 13:52:00,METAR KDPA 071352Z 05010KT 10SM CLR M01/M09 A3051 RMK AO2 SLP340 T10061094
2026-04-07 12:52:00,METAR KDPA 071252Z 05011KT 10SM CLR M02/M09 A3050 RMK AO2 SLP337 T10171089
2026-04-07 11:52:00,METAR KDPA 071152Z AUTO 04010KT 10SM CLR M03/M08 A3048 RMK AO2 SLP328 T10281078 11006 21033 53018
2026-04-07 10:52:00,METAR KDPA 071052Z AUTO 04008KT 10SM CLR M03/M07 A3046 RMK AO2 SLP321 T10281072
2026-04-07 09:52:00,METAR KDPA 070952Z 04010KT 10SM CLR M02/M07 A3045 RMK AO2 SLP317 T10221067
2026-04-07 08:52:00,METAR KDPA 070852Z 04006KT 10SM FEW026 M02/M06 A3043 RMK AO2 SLP309 T10171056 51014
2026-04-07 07:52:00,METAR KDPA 070752Z 05005KT 10SM CLR M02/M05 A3042 RMK AO2 SLP306 T10171050
2026-04-07 06:52:00,METAR KDPA 070652Z 04009KT 10SM CLR M01/M05 A3040 RMK AO2 SLP300 T10111050
2026-04-07 05:52:00,METAR KDPA 070552Z 04008KT 10SM FEW021 M01/M04 A3038 RMK AO2 SLP295 T10061044 10083 21006 401061006 51022
2026-04-07 04:52:00,METAR KDPA 070452Z 05011KT 10SM CLR 00/M03 A3036 RMK AO2 SLP287 T00001033
2026-04-07 03:52:00,METAR KDPA 070352Z 05010KT 10SM FEW016 BKN070 01/M02 A3034 RMK AO2 SLP281 T00111022
2026-04-07 02:52:00,METAR KDPA 070252Z 04013KT 10SM OVC070 03/M01 A3032 RMK AO2 WSHFT 0217 SLP272 T00281006 53037
2026-04-07 02:37:00,SPECI KDPA 070237Z 06016KT 10SM OVC070 03/00 A3031 RMK AO2 WSHFT 0217 PRESRR T00330000
2026-04-07 01:52:00,METAR KDPA 070152Z 36010KT 10SM OVC070 06/M04 A3027 RMK AO2 SLP255 T00611044
2026-04-07 00:52:00,METAR KDPA 070052Z 35011KT 10SM BKN065 07/M04 A3023 RMK AO2 SLP241 T00721044
2026-04-06 23:52:00,METAR KDPA 062352Z 30014KT 10SM BKN060 09/M04 A3020 RMK AO2 SLP232 T00891039 10106 20078 53004
2026-04-06 22:52:00,METAR KDPA 062252Z 29015G20KT 10SM FEW060 09/M04 A3020 RMK AO2 PK WND 29027/2228 SLP231 T00891039
2026-04-06 21:52:00,METAR KDPA 062152Z 30014G22KT 10SM FEW060 09/M03 A3020 RMK AO2 PK WND 28030/2058 SLP230 T00891033
2026-04-06 20:52:00,METAR KDPA 062052Z 28018G24KT 10SM SCT050 BKN060 11/M01 A3019 RMK AO2 PK WND 27026/2022 SLP228 T01061011 58015
2026-04-06 19:52:00,METAR KDPA 061952Z 29015G25KT 10SM BKN055 09/M01 A3021 RMK AO2 PK WND 28028/1933 SLP235 T00941011
2026-04-06 18:52:00,METAR KDPA 061852Z 29012G21KT 10SM FEW043 BKN060 09/01 A3023 RMK AO2 SLP240 T00940006
2026-04-06 17:52:00,METAR KDPA 061752Z 28017G23KT 10SM BKN046 BKN060 09/00 A3024 RMK AO2 SLP242 T00890000 10094 20044 50002
2026-04-06 16:59:00,SPECI KDPA 061659Z 29015G22KT 10SM SCT037 SCT049 08/00 A3025 RMK AO2 T00830000
2026-04-06 16:52:00,METAR KDPA 061652Z 30011G22KT 10SM BKN022 08/00 A3024 RMK AO2 SLP245 T00830000
2026-04-06 15:52:00,METAR KDPA 061552Z 29015KT 10SM BKN022 07/01 A3025 RMK AO2 SLP247 T00720006
2026-04-06 15:06:00,SPECI KDPA 061506Z 29014G22KT 10SM BKN022 07/02 A3023 RMK AO2 T00720017
2026-04-06 14:59:00,SPECI KDPA 061459Z 32012G21KT 10SM FEW024 07/02 A3023 RMK AO2 T00720022
2026-04-06 14:52:00,METAR KDPA 061452Z 32012KT 10SM BKN017 07/02 A3023 RMK AO2 SLP241 T00670022 51018
2026-04-06 14:10:00,SPECI KDPA 061410Z 32011G19KT 10SM BKN017 07/03 A3022 RMK AO2 T00670028
2026-04-06 13:52:00,METAR KDPA 061352Z COR 32015KT 10SM BKN017 06/02 A3022 RMK AO2 SLP238 T00610022
2026-04-06 12:52:00,METAR KDPA 061252Z 30010KT 10SM CLR 05/03 A3020 RMK AO2 SLP232 T00500033
2026-04-06 11:52:00,METAR KDPA 061152Z 32009KT 10SM CLR 04/03 A3018 RMK AO2 SLP223 60000 70005 T00440028 10061 20033 53015
2026-04-06 10:52:00,METAR KDPA 061052Z 31009KT 10SM FEW015 05/03 A3014 RMK AO2 SLP211 T00500033
2026-04-06 10:47:00,SPECI KDPA 061047Z 31009KT 10SM FEW015 05/03 A3014 RMK AO2
2026-04-06 10:14:00,SPECI KDPA 061014Z 32013KT 10SM BKN015 06/04 A3014 RMK AO2 T00560039
2026-04-06 09:52:00,METAR KDPA 060952Z 29007KT 10SM CLR 04/03 A3013 RMK AO2 SLP206 T00440033
2026-04-06 08:52:00,METAR KDPA 060852Z 26005KT 10SM FEW040 04/03 A3012 RMK AO2 SLP201 60000 T00440033 56010
2026-04-06 07:52:00,METAR KDPA 060752Z 23005KT 10SM FEW039 04/03 A3012 RMK AO2 SLP203 T00390033
2026-04-06 06:52:00,METAR KDPA 060652Z 23004KT 10SM FEW050 FEW060 BKN080 05/04 A3013 RMK AO2 RAE0555 SLP207 P0000 T00500039
2026-04-06 05:52:00,METAR KDPA 060552Z 28004KT 10SM -RA FEW028 BKN043 OVC065 06/04 A3015 RMK AO2 RAE0453B21 SLP212 P0005 60005 T00610039 10100 20061 401110022 55003
2026-04-06 04:52:00,METAR KDPA 060452Z 23009KT 10SM -RA FEW045 BKN060 OVC080 07/03 A3014 RMK AO2 RAB36 SLP212 P0000 T00720028
2026-04-06 03:52:00,METAR KDPA 060352Z 23008KT 10SM BKN095 07/01 A3015 RMK AO2 SLP215 T00720011
2026-04-06 02:52:00,METAR KDPA 060252Z 23008KT 10SM CLR 07/01 A3016 RMK AO2 SLP217 T00670011 58001
2026-04-06 01:52:00,METAR KDPA 060152Z 23007KT 10SM CLR 07/01 A3016 RMK AO2 SLP219 T00720006
2026-04-06 00:52:00,METAR KDPA 060052Z 25008KT 10SM CLR 09/M01 A3016 RMK AO2 SLP218 T00891006
2026-04-05 23:52:00,METAR KDPA 052352Z 25012KT 10SM CLR 10/M02 A3016 RMK AO2 SLP217 T01001022 10111 20083 58003
2026-04-05 22:52:00,METAR KDPA 052252Z 30011KT 10SM CLR 11/M03 A3016 RMK AO2 SLP219 T01061033
2026-04-05 21:52:00,METAR KDPA 052152Z 29015G23KT 10SM CLR 11/M04 A3016 RMK AO2 SLP218 T01061044
2026-04-05 20:52:00,METAR KDPA 052052Z 30018G25KT 10SM CLR 11/M04 A3017 RMK AO2 PK WND 31026/2001 SLP219 T01061039 58001
2026-04-05 19:52:00,METAR KDPA 051952Z 29014G22KT 10SM CLR 11/M04 A3017 RMK AO2 SLP221 T01061039
2026-04-05 18:52:00,METAR KDPA 051852Z 30013G21KT 10SM CLR 09/M04 A3017 RMK AO2 SLP221 T00941039
2026-04-05 17:52:00,METAR KDPA 051752Z 28017KT 10SM CLR 08/M03 A3017 RMK AO2 SLP221 T00831028 10083 20022 51010
2026-04-05 16:52:00,METAR KDPA 051652Z 29014G21KT 10SM CLR 07/M01 A3016 RMK AO2 SLP218 T00721006
2026-04-05 15:52:00,METAR KDPA 051552Z 29012G22KT 10SM FEW030 06/M01 A3015 RMK AO2 SLP216 T00561011
2026-04-05 14:52:00,METAR KDPA 051452Z 30015G22KT 10SM SCT030 04/M02 A3014 RMK AO2 PK WND 31026/1357 SLP212 T00391022 53027
2026-04-05 12:52:00,METAR KDPA 051252Z 29014G23KT 10SM OVC031 02/M02 A3008 RMK AO2 SLP194 T00221017
2026-04-05 11:52:00,METAR KDPA 051152Z 29015KT 10SM BKN039 02/M02 A3006 RMK AO2 PK WND 28026/1059 SLP185 T00221022 10044 20022 53019
2026-04-05 10:52:00,METAR KDPA 051052Z 28014G25KT 10SM OVC037 03/M02 A3004 RMK AO2 SLP176 T00281022
2026-04-05 09:52:00,METAR KDPA 050952Z 28017G24KT 10SM OVC042 03/M02 A3002 RMK AO2 SLP170 T00281022
2026-04-05 08:52:00,METAR KDPA 050852Z 27015G23KT 10SM BKN039 03/00 A3000 RMK AO2 SLP165 T00330000 53006
2026-04-05 07:52:00,METAR KDPA 050752Z 27015G22KT 10SM OVC050 04/M01 A2999 RMK AO2 SLP158 T00391011
2026-04-05 06:52:00,METAR KDPA 050652Z 26011G22KT 10SM OVC050 04/M03 A2999 RMK AO2 PK WND 27026/0614 SLP158 T00391028
2026-04-05 05:52:00,METAR KDPA 050552Z 27015G28KT 10SM OVC042 04/M01 A2998 RMK AO2 PK WND 27031/0537 SLP158 T00441011 10056 20044 401110044 53006
2026-04-05 04:52:00,METAR KDPA 050452Z 26012G18KT 10SM BKN033 OVC045 04/01 A2997 RMK AO2 SLP153 T00440011
2026-04-05 03:52:00,METAR KDPA 050352Z 25014G24KT 10SM SCT034 BKN041 OVC055 04/01 A2997 RMK AO2 SLP152 T00440006
2026-04-05 02:52:00,METAR KDPA 050252Z 24012G25KT 10SM FEW034 OVC048 05/M01 A2997 RMK AO2 SLP152 T00501006 50009
2026-04-05 01:52:00,METAR KDPA 050152Z 25013G24KT 10SM SCT045 OVC055 05/M01 A2997 RMK AO2 PK WND 26041/0101 SLP153 T00501011
2026-04-05 00:52:00,METAR KDPA 050052Z 26022G38KT 10SM BKN040 BKN050 06/00 A2996 RMK AO2 PK WND 26038/0044 SLP148 T00560000
2026-04-04 23:52:00,METAR KDPA 042352Z 26019G33KT 10SM OVC042 06/01 A2994 RMK AO2 PK WND 24033/2352 SLP143 T00560011 10083 20056 51016
2026-04-04 23:14:00,SPECI KDPA 042314Z 27021G31KT 10SM BKN030 OVC035 06/01 A2993 RMK AO2 PK WND 28031/2314 T00560006
2026-04-04 23:03:00,SPECI KDPA 042303Z 26017G27KT 10SM BKN028 OVC034 06/01 A2993 RMK AO2 PK WND 28027/2255 T00560011
2026-04-04 22:52:00,METAR KDPA 042252Z 27021G32KT 10SM OVC030 06/01 A2993 RMK AO2 PK WND 27032/2246 SLP139 T00610011
2026-04-04 22:27:00,SPECI KDPA 042227Z 26019G29KT 10SM BKN026 OVC035 06/02 A2992 RMK AO2 PK WND 27031/2157 T00610017
2026-04-04 22:03:00,SPECI KDPA 042203Z 26019G31KT 10SM FEW022 SCT027 OVC034 07/02 A2991 RMK AO2 PK WND 27031/2157 T00670017
2026-04-04 21:52:00,METAR KDPA 042152Z 26017G28KT 10SM BKN022 BKN028 OVC034 07/02 A2991 RMK AO2 PK WND 28037/2117 SLP133 T00670022
2026-04-04 20:52:00,METAR KDPA 042052Z 26024G34KT 10SM OVC020 07/03 A2989 RMK AO2 PK WND 26034/2042 SLP126 T00720028 53007
2026-04-04 19:52:00,METAR KDPA 041952Z 27019G30KT 10SM OVC017 08/04 A2988 RMK AO2 PK WND 27032/1913 SLP121 T00830044
2026-04-04 19:18:00,SPECI KDPA 041918Z 28019G32KT 10SM OVC017 08/04 A2988 RMK AO2 PK WND 27032/1913 T00830044
2026-04-04 18:52:00,METAR KDPA 041852Z 26015G21KT 10SM OVC011 08/06 A2988 RMK AO2 PK WND 25026/1832 SLP122 T00780056
2026-04-04 17:52:00,METAR KDPA 041752Z 25015G23KT 10SM OVC010 08/06 A2987 RMK AO2 PK WND 27027/1702 CIG 007V013 SLP118 60000 T00780056 10111 20072 53009
2026-04-04 17:30:00,SPECI KDPA 041730Z 25015G26KT 10SM OVC010 08/06 A2987 RMK AO2 PK WND 27027/1702 CIG 007V014 T00780061
2026-04-04 16:52:00,METAR KDPA 041652Z 26017G26KT 10SM OVC006 08/07 A2987 RMK AO2 PK WND 24026/1604 SLP117 T00780067
2026-04-04 15:52:00,METAR KDPA 041552Z 26013G22KT 9SM OVC005 08/08 A2984 RMK AO2 PK WND 27027/1454 SLP109 T00830078
2026-04-04 15:48:00,SPECI KDPA 041548Z 25013G21KT 9SM OVC005 09/08 A2984 RMK AO2 PK WND 27027/1454
2026-04-04 15:18:00,SPECI KDPA 041518Z 25014G24KT 7SM OVC004 09/08 A2984 RMK AO2 PK WND 27027/1454 T00890083
2026-04-04 15:01:00,SPECI KDPA 041501Z 26014G27KT 8SM OVC005 09/09 A2984 RMK AO2 PK WND 27027/1454 CIG 002V008 T00940089
2026-04-04 14:52:00,METAR KDPA 041452Z 26019G29KT 6SM BR OVC003 09/09 A2983 RMK AO2 PK WND 26029/1442 CIG 002V008 SLP106 60000 T00940089 53016
2026-04-04 14:49:00,SPECI KDPA 041449Z 26021G29KT 3SM BR OVC003 09/09 A2983 RMK AO2 PK WND 26029/1442 CIG 002V006
2026-04-04 14:41:00,SPECI KDPA 041441Z 26017G28KT 1 1/4SM BR OVC003 11/11 A2983 RMK AO2 PK WND 24028/1437 PRESRR T01060106
2026-04-04 14:28:00,SPECI KDPA 041428Z 26014KT 2 1/2SM BR OVC003 11/11 A2981 RMK AO2 T01060106
2026-04-04 14:18:00,SPECI KDPA 041418Z 25012KT 1 1/2SM BR OVC002 11/11 A2979 RMK AO2 T01110106
2026-04-04 13:49:00,METAR KDPA 041349Z 25008KT 3/4SM BR OVC002 11/11 A2978 RMK AO2 LTG DSNT SW RAB12E22 SLP088 P0000 T01060106 RVRNO
2026-04-04 13:48:00,SPECI KDPA 041348Z 25008KT 3/4SM BR OVC002 11/11 A2978 RMK AO2 RAB12E22 P0000 RVRNO
2026-04-04 13:18:00,SPECI KDPA 041318Z 17006KT 2 1/2SM -RA BR OVC003 10/10 A2979 RMK AO2 RAB12 P0000 T01000100
2026-04-04 12:52:00,METAR KDPA 041252Z 17006KT 4SM BR OVC003 09/08 A2981 RMK AO2 RAE19 SLP098 P0000 T00890083
2026-04-04 12:42:00,SPECI KDPA 041242Z 17005KT 4SM BR OVC003 08/08 A2981 RMK AO2 RAE19 P0000 T00830083
2026-04-04 12:13:00,SPECI KDPA 041213Z 17005KT 5SM -RA BR SCT006 OVC100 08/08 A2982 RMK AO2 P0000 T00830083
2026-04-04 11:52:00,METAR KDPA 041152Z 10004KT 5SM -RA BR FEW070 OVC100 08/08 A2978 RMK AO2 RAB1059 SLP088 P0000 60007 70044 T00830078 10083 20056 56032
2026-04-04 11:18:00,SPECI KDPA 041118Z 07006KT 6SM -RA BR FEW009 SCT075 BKN120 08/08 A2980 RMK AO2 RAB1059 PRESFR P0000 T00780078
2026-04-04 10:52:00,METAR KDPA 041052Z 10004KT 7SM FEW004 BKN010 OVC100 08/08 A2982 RMK AO2 LTG DSNT SE RAE32 SLP100 P0002 T00780078
2026-04-04 10:04:00,SPECI KDPA 041004Z 10005KT 8SM -RA FEW013 BKN070 OVC095 08/07 A2984 RMK AO2 LTG DSNT E AND SE P0000 T00780072
2026-04-04 09:52:00,METAR KDPA 040952Z 12006KT 7SM VCTS -RA SCT011 BKN070 OVC090 08/07 A2984 RMK AO2 LTG DSNT NE-SE RAB15 SLP107 P0005 T00780072
2026-04-04 09:43:00,SPECI KDPA 040943Z 08009KT 5SM VCTS RA BR BKN009 BKN018 OVC034 08/07 A2984 RMK AO2 LTG DSNT SE-SW RAB15 PRESFR P0005 T00780072
2026-04-04 09:40:00,SPECI KDPA 040940Z 09009KT 5SM -RA BR SCT004 BKN011 OVC018 08/07 A2984 RMK AO2 LTG DSNT SE-SW RAB15 P0005 T00780072
2026-04-04 08:52:00,METAR KDPA 040852Z 5SM BR OVC004 07/07 A2988 RMK AO2 LTG DSNT W-N PRESRR SLP120 T00720067 56023
2026-04-04 07:52:00,METAR KDPA 040752Z 01006KT 6SM BR OVC004 06/06 A2989 RMK AO2 LTG DSNT W-NE SLP124 T00610056
2026-04-04 07:33:00,SPECI KDPA 040733Z 03009KT 7SM OVC004 06/06 A2990 RMK AO2 LTG DSNT ALQDS T00610056
2026-04-04 06:52:00,METAR KDPA 040652Z 07009KT 9SM OVC005 06/05 A2991 RMK AO2 LTG DSNT W-N SLP130 T00560050
2026-04-04 05:52:00,METAR KDPA 040552Z 07008KT 10SM BKN009 OVC024 06/04 A2995 RMK AO2 RAE50 SLP144 P0019 60037 T00560044 10067 20039 401500039 58027
2026-04-04 05:32:00,SPECI KDPA 040532Z 07011KT 5SM RA BR BKN009 OVC030 05/04 A2997 RMK AO2 P0006 T00500044
2026-04-04 05:25:00,SPECI KDPA 040525Z 05008KT 10SM -RA OVC010 05/04 A2997 RMK AO2 P0000 T00500039
2026-04-04 05:09:00,SPECI KDPA 040509Z 07008KT 10SM VCTS -RA BKN010 BKN015 OVC110 05/04 A2998 RMK AO2 LTG DSNT W P0000 T00500039
2026-04-04 04:57:00,SPECI KDPA 040457Z 08007KT 10SM -RA BKN014 BKN034 BKN110 05/04 A3000 RMK AO2 LTG DSNT S-W P0000 T00500039
2026-04-04 04:52:00,METAR KDPA 040452Z 06008KT 10SM -RA SCT016 BKN038 BKN070 05/03 A2999 RMK AO2 LTG DSNT ALQDS RAB0354E08B48 SLP160 P0000 T00500033
2026-04-04 04:04:00,SPECI KDPA 040404Z 08013KT 10SM -RA BKN021 BKN055 OVC095 04/03 A3000 RMK AO2 LTG DSNT SE RAB0354 P0000 T00440028
2026-04-04 03:52:00,METAR KDPA 040352Z 05011KT 10SM SCT021 BKN050 OVC110 04/03 A3001 RMK AO2 LTG DSNT SE AND S RAE0256 PRESFR SLP167 P0000 T00440028
2026-04-04 03:25:00,SPECI KDPA 040325Z 09011G18KT 10SM BKN020 OVC110 04/03 A3004 RMK AO2 LTG DSNT SE AND S RAE0256 P0000 T00440028
2026-04-04 02:52:00,METAR KDPA 040252Z 07011G23KT 10SM -RA BKN030 BKN060 OVC110 04/02 A3003 RMK AO2 PK WND 08028/0227 LTG DSNT N AND NE AND S TSB0153E26 SLP173 P0018 60018 T00390022 58012
2026-04-04 02:30:00,SPECI KDPA 040230Z 07017G28KT 5SM VCTS RA SCT018 BKN035 OVC055 04/02 A3005 RMK AO2 PK WND 08028/0227 LTG DSNT N AND E TSB0153E26 P0018 T00440017
2026-04-04 01:59:00,SPECI KDPA 040159Z 05013G25KT 5SM +TSRA OVC019 05/01 A3009 RMK AO2 LTG DSNT SE AND W AND NW TSB53 PRESRR P0004 T00500011
2026-04-04 01:52:00,METAR KDPA 040152Z 08016G25KT 10SM -RA OVC019 05/01 A3006 RMK AO2 PK WND 06029/0056 LTG DSNT SE AND W AND NW RAB48 SLP184 P0000 T00500011
2026-04-04 00:52:00,METAR KDPA 040052Z 07013G25KT 10SM OVC019 06/03 A3007 RMK AO2 PK WND 07026/0040 SLP188 T00560028
2026-04-03 23:52:00,METAR KDPA 032352Z 07016G25KT 10SM OVC021 07/03 A3006 RMK AO2 SLP185 T00670033 10150 20067 50002
2026-04-03 22:52:00,METAR KDPA 032252Z 06015G20KT 10SM OVC025 08/04 A3008 RMK AO2 SLP189 T00780039
2026-04-03 21:52:00,METAR KDPA 032152Z 07017KT 10SM OVC023 10/06 A3007 RMK AO2 SLP184 T01000056
2026-04-03 20:52:00,METAR KDPA 032052Z 07015KT 10SM OVC029 12/07 A3006 RMK AO2 SLP181 T01220067 55002
2026-04-03 19:52:00,METAR KDPA 031952Z 07010KT 10SM BKN032 14/08 A3005 RMK AO2 SLP177 T01440078
2026-04-03 18:52:00,METAR KDPA 031852Z VRB03KT 10SM CLR 13/07 A3007 RMK AO2 SLP182 T01280072
2026-04-03 17:52:00,METAR KDPA 031752Z VRB03KT 10SM CLR 11/06 A3007 RMK AO2 SLP181 T01110061 10111 20072 51002
2026-04-03 17:04:00,SPECI KDPA 031704Z 00000KT 10SM FEW017 10/06 A3006 RMK AO2 T01000056
2026-04-03 16:52:00,METAR KDPA 031652Z 00000KT 10SM BKN016 10/06 A3006 RMK AO2 SLP181 T01000061
2026-04-03 16:04:00,SPECI KDPA 031604Z 26008KT 10SM OVC015 09/06 A3007 RMK AO2 T00890061
2026-04-03 15:52:00,METAR KDPA 031552Z 26008KT 10SM OVC014 09/06 A3008 RMK AO2 SLP186 T00890061
2026-04-03 14:52:00,METAR KDPA 031452Z COR 28010KT 10SM OVC013 08/06 A3006 RMK AO2 SLP180 T00780056 51024
2026-04-03 13:52:00,METAR KDPA 031352Z 24008KT 10SM OVC012 07/05 A3004 RMK AO2 SLP175 T00720050
2026-04-03 12:52:00,METAR KDPA 031252Z 26010KT 10SM OVC012 07/05 A3002 RMK AO2 SLP165 T00720050
2026-04-03 11:52:00,METAR KDPA 031152Z 25010KT 10SM OVC013 08/06 A2999 RMK AO2 SLP155 70076 T00780056 10150 20078 53034
2026-04-03 08:52:00,METAR KDPA 030852Z 26012G18KT 10SM OVC014 09/07 A2988 RMK AO2 PK WND 26031/0834 SLP119 T00890067 51036
2026-04-03 05:52:00,METAR KDPA 030552Z 25017G25KT 10SM OVC019 15/12 A2978 RMK AO2 PK WND 25029/0540 SLP082 60051 T01500122 10200 20150 402060033 53026
2026-04-03 05:27:00,SPECI KDPA 030527Z 25012KT 10SM BKN023 BKN030 OVC035 16/14 A2975 RMK AO2 T01610139
2026-04-03 04:52:00,METAR KDPA 030452Z 23009KT 10SM SCT029 BKN040 16/14 A2973 RMK AO2 SLP066 T01560139
2026-04-03 03:52:00,METAR KDPA 030352Z 22011KT 10SM FEW040 16/14 A2970 RMK AO2 LTG DSNT E-S RAE15 TSE23 SLP059 P0016 T01560144
2026-04-03 03:42:00,SPECI KDPA 030342Z 22012KT 10SM FEW040 SCT055 16/14 A2970 RMK AO2 LTG DSNT E-S RAE15 TSE23 P0016 T01610144
2026-04-03 03:29:00,SPECI KDPA 030329Z 22012KT 10SM VCTS FEW041 SCT050 BKN065 16/14 A2969 RMK AO2 LTG DSNT NE-S RAE15 TSE23 P0016 T01610139
2026-04-03 03:08:00,SPECI KDPA 030308Z 20008G15KT 3SM -TSRA BR FEW023 BKN030 OVC100 16/15 A2969 RMK AO2 LTG DSNT ALQDS P0016 T01560150
2026-04-03 03:05:00,SPECI KDPA 030305Z 19009G21KT 1 3/4SM TSRA BR BKN023 BKN070 OVC095 16/15 A2969 RMK AO2 LTG DSNT ALQDS P0016 T01560150
2026-04-03 02:57:00,SPECI KDPA 030257Z 25014G21KT 2SM -TSRA BR FEW015 BKN025 OVC050 16/14 A2972 RMK AO2 LTG DSNT ALQDS PRESRR P0009 T01560144
2026-04-03 02:50:00,METAR KDPA 030250Z 28011G17KT 3SM +TSRA BR BKN022 BKN039 OVC070 16/14 A2970 RMK AO2 LTG DSNT NE AND S AND SW RAB13 TSB11E26B49 SLP057 P0016 60035 T01610144 53020
2026-04-03 02:49:00,SPECI KDPA 030249Z 28011G17KT 3SM +TSRA BR BKN022 BKN041 OVC070 16/14 A2969 RMK AO2 LTG DSNT NE AND S AND SW RAB13 TSB11E26B49 P0015
2026-04-03 02:32:00,SPECI KDPA 030232Z 21009KT 10SM VCTS -RA FEW042 BKN070 OVC110 17/15 A2967 RMK AO2 LTG DSNT ALQDS RAB13 TSB11E26 P0005 T01670150
2026-04-03 02:17:00,SPECI KDPA 030217Z 19008G19KT 5SM TSRA BR FEW039 SCT055 BKN070 16/14 A2965 RMK AO2 LTG DSNT ALQDS RAB13 TSB11 P0004 T01610144
2026-04-03 01:52:00,METAR KDPA 030152Z 19013KT 10SM FEW060 BKN090 BKN110 16/12 A2965 RMK AO2 PK WND 22043/0109 LTG DSNT ALQDS RAB0058E44 TSB00E23 SLP041 P0019 T01560122
2026-04-03 01:29:00,SPECI KDPA 030129Z 19017G26KT 10SM VCTS -RA FEW022 SCT075 OVC090 16/13 A2964 RMK AO2 PK WND 22043/0109 LTG DSNT ALQDS RAB0058 TSB00E23 P0018 T01610128
2026-04-03 01:22:00,SPECI KDPA 030122Z 19018G33KT 10SM -TSRA SCT019 BKN075 OVC090 16/13 A2964 RMK AO2 PK WND 22043/0109 LTG DSNT ALQDS RAB0058 TSB00 P0018 T01610128
2026-04-03 01:12:00,SPECI KDPA 030112Z 20023G43KT 4SM -TSRA SCT017 BKN026 OVC100 18/15 A2965 RMK AO2 PK WND 22043/0109 LTG DSNT ALQDS RAB0058 TSB00 P0017 T01780150
2026-04-03 01:01:00,SPECI KDPA 030101Z 22020G35KT 1 1/2SM +TSRA BR SCT015 BKN026 OVC033 19/17 A2965 RMK AO2 PK WND 22031/0058 LTG DSNT ALQDS RAB0058 TSB00 P0014 T01890167
2026-04-03 00:52:00,METAR KDPA 030052Z 20023G36KT 10SM VCTS BKN026 BKN110 19/16 A2965 RMK AO2 PK WND 19036/0050 LTG DSNT SW-N PRESRR SLP041 T01940161
2026-04-03 00:49:00,SPECI KDPA 030049Z 19022G36KT 10SM BKN026 BKN110 19/16 A2964 RMK AO2 PK WND 19036/0042 LTG DSNT SW-N
2026-04-02 23:52:00,METAR KDPA 022352Z 18024G35KT 10SM FEW027 20/16 A2961 RMK AO2 PK WND 19038/2256 SLP029 60003 T02000161 10206 20167 58006
2026-04-02 22:52:00,METAR KDPA 022252Z 18023G35KT 10SM FEW060 BKN075 OVC085 20/17 A2962 RMK AO2 PK WND 18038/2206 SLP032 T02000167
2026-04-02 21:52:00,METAR KDPA 022152Z 19020G34KT 10SM FEW025 BKN060 OVC080 20/17 A2964 RMK AO2 PK WND 18043/2118 RAB07E10B36E46 SLP038 P0000 T02000167
2026-04-02 21:30:00,SPECI KDPA 022130Z 19025G38KT 10SM FEW028 SCT060 OVC080 20/17 A2964 RMK AO2 PK WND 18043/2118 LTG DSNT N AND NE RAB07E10 P0000 T02000167
2026-04-02 21:17:00,SPECI KDPA 022117Z 19024G39KT 10SM VCTS SCT028 BKN044 OVC075 21/17 A2964 RMK AO2 PK WND 18039/2102 LTG DSNT N AND NE RAB07E10 P0000 T02060167
2026-04-02 21:06:00,SPECI KDPA 022106Z 19025G39KT 10SM VCTS BKN028 BKN037 OVC060 21/17 A2964 RMK AO2 PK WND 18039/2102 LTG DSNT N AND NW T02060167
2026-04-02 20:59:00,SPECI KDPA 022059Z 20021G37KT 10SM VCTS BKN030 OVC037 21/17 A2963 RMK AO2 PK WND 20037/2056 LTG DSNT NW T02060167
2026-04-02 20:52:00,METAR KDPA 022052Z 19024G37KT 10SM VCTS BKN028 OVC037 20/16 A2963 RMK AO2 PK WND 18040/1955 LTG DSNT NW SLP035 60003 T02000161 55015
2026-04-02 20:48:00,SPECI KDPA 022048Z 19019G38KT 10SM VCTS BKN029 BKN038 OVC047 21/16 A2963 RMK AO2 PK WND 18040/1955 LTG DSNT NW
2026-04-02 20:37:00,SPECI KDPA 022037Z 18023G37KT 10SM VCTS SCT031 BKN038 OVC046 20/17 A2963 RMK AO2 PK WND 18040/1955 LTG DSNT SW T02000167
2026-04-02 19:52:00,METAR KDPA 021952Z 18023G35KT 10SM FEW028 BKN044 OVC055 20/17 A2965 RMK AO2 PK WND 19036/1914 RAE36 SLP042 P0002 T02000172
2026-04-02 19:30:00,SPECI KDPA 021930Z 19017G32KT 9SM -RA SCT022 BKN035 OVC050 19/17 A2966 RMK AO2 PK WND 19036/1914 P0002 T01890172
2026-04-02 18:52:00,METAR KDPA 021852Z 18020G29KT 9SM -RA SCT024 BKN029 OVC034 19/17 A2968 RMK AO2 PK WND 19029/1852 RAB19 SLP050 P0001 T01940172
2026-04-02 18:45:00,SPECI KDPA 021845Z 18014G22KT 9SM -RA BKN024 OVC031 19/17 A2969 RMK AO2 RAB19 P0000 T01890172
2026-04-02 17:52:00,METAR KDPA 021752Z 16011KT 6SM BR FEW007 SCT029 OVC034 17/16 A2971 RMK AO2 SLP062 60022 T01670156 10167 20039 58033
2026-04-02 17:40:00,SPECI KDPA 021740Z 16009G21KT 5SM BR FEW006 BKN028 OVC043 16/15 A2972 RMK AO2 T01560150
2026-04-02 17:18:00,SPECI KDPA 021718Z 15009KT 4SM BR BKN006 OVC022 13/13 A2973 RMK AO2 CIG 004V009 T01330133
2026-04-02 16:52:00,METAR KDPA 021652Z 13004KT 3SM BR OVC004 11/11 A2975 RMK AO2 LTG DSNT NW RAE28 CIG 003V007 SLP077 P0007 T01110106
2026-04-02 16:38:00,SPECI KDPA 021638Z 00000KT 3SM BR OVC004 10/10 A2976 RMK AO2 LTG DSNT NE RAE28 P0007 T01000100
2026-04-02 16:25:00,SPECI KDPA 021625Z 09004KT 3SM VCTS -RA BR OVC004 09/09 A2977 RMK AO2 P0007 T00940094
2026-04-02 16:17:00,SPECI KDPA 021617Z 11006KT 2 1/2SM VCTS -RA BR OVC003 09/09 A2977 RMK AO2 LTG DSNT S P0007 T00890089
2026-04-02 15:52:00,METAR KDPA 021552Z 12006KT 1 3/4SM RA BR OVC003 08/08 A2979 RMK AO2 SLP090 P0009 T00830083
2026-04-02 15:33:00,SPECI KDPA 021533Z 12003KT 3SM -RA BR OVC003 08/07 A2980 RMK AO2 LTG DSNT NW P0005 T00780072
2026-04-02 15:24:00,SPECI KDPA 021524Z VRB03KT 2 1/2SM -RA BR OVC003 07/07 A2980 RMK AO2 LTG DSNT NW P0005 T00720067
2026-04-02 15:11:00,SPECI KDPA 021511Z 10007KT 1 1/4SM RA BR OVC003 06/06 A2980 RMK AO2 LTG DSNT SW AND W P0005 T00610061
2026-04-02 14:52:00,METAR KDPA 021452Z 10005KT 2 1/2SM -RA BR OVC003 06/06 A2981 RMK AO2 RAB17 SLP099 P0002 60006 T00610061 56007
2026-04-02 14:49:00,SPECI KDPA 021449Z 10007KT 2SM -RA BR OVC003 06/06 A2981 RMK AO2 RAB17 P0002
2026-04-02 14:04:00,SPECI KDPA 021404Z 09007KT 1 1/2SM BR OVC003 05/05 A2982 RMK AO2 T00500050
2026-04-02 13:52:00,METAR KDPA 021352Z 10009KT 2SM BR OVC003 05/05 A2983 RMK AO2 LTG DSNT E RAB1259E39 SLP106 P0003 T00500050
2026-04-02 13:49:00,SPECI KDPA 021349Z 09008KT 2SM BR OVC003 05/04 A2983 RMK AO2 LTG DSNT E RAB1259E39 P0003
2026-04-02 13:38:00,SPECI KDPA 021338Z 09008KT 3SM -RA BR OVC003 05/04 A2984 RMK AO2 LTG DSNT SE RAB1259 P0003 T00500044
2026-04-02 13:30:00,SPECI KDPA 021330Z 10009KT 1 1/2SM RA BR OVC003 05/04 A2984 RMK AO2 LTG DSNT SE RAB1259 P0003 T00500044
2026-04-02 12:52:00,METAR KDPA 021252Z 10008KT 2 1/2SM BR OVC003 04/04 A2987 RMK AO2 LTG DSNT S RAB28E38 SLP121 P0001 T00440044
2026-04-02 12:40:00,SPECI KDPA 021240Z 09007KT 2 1/2SM BR OVC004 04/04 A2987 RMK AO2 RAB28E38 P0001 T00440039
2026-04-02 12:18:00,SPECI KDPA 021218Z 09008KT 4SM BR OVC004 04/04 A2987 RMK AO2 T00390039
2026-04-02 11:52:00,METAR KDPA 021152Z 08010KT 6SM BR OVC005 04/03 A2988 RMK AO2 RAE17B39E50 SLP124 P0000 60098 70112 T00390033 10039 20033 58015
2026-04-02 10:52:00,METAR KDPA 021052Z AUTO 08010KT 8SM -RA OVC006 04/03 A2991 RMK AO2 SLP136 P0011 T00390033
2026-04-02 09:52:00,METAR KDPA 020952Z AUTO 11011G19KT 5SM RA BR OVC007 04/03 A2992 RMK AO2 SLP139 P0006 T00390028
2026-04-02 08:52:00,METAR KDPA 020852Z 09015G26KT 6SM RA BR OVC007 04/03 A2992 RMK AO2 PK WND 08027/0811 SLP139 P0019 60081 T00390028 58031
2026-04-02 08:10:00,SPECI KDPA 020810Z 09017G26KT 6SM -RA BR BKN008 OVC024 04/03 A2995 RMK AO2 PK WND 09026/0804 LTG DSNT SW PRESFR P0011 T00390028
2026-04-02 07:52:00,METAR KDPA 020752Z 09013KT 2 1/2SM +RA BR BKN008 BKN015 OVC020 04/03 A2998 RMK AO2 SLP159 P0044 T00390033
2026-04-02 07:50:00,SPECI KDPA 020750Z 09014G24KT 3SM +RA BR BKN008 BKN015 OVC020 04/03 A2998 RMK AO2 P0041
2026-04-02 07:33:00,SPECI KDPA 020733Z 09014G20KT 2 1/2SM +RA BR BKN008 BKN012 OVC024 04/03 A2999 RMK AO2 P0026 T00390033
2026-04-02 07:18:00,SPECI KDPA 020718Z 10011KT 3SM RA BR BKN008 OVC026 04/03 A3001 RMK AO2 P0014 T00390033
2026-04-02 07:07:00,SPECI KDPA 020707Z 10012KT 2 1/2SM +RA BR BKN008 OVC012 04/03 A3001 RMK AO2 P0009 T00390028
2026-04-02 06:52:00,METAR KDPA 020652Z 10011KT 3SM +RA BR OVC008 04/03 A3002 RMK AO2 CIG 006V011 SLP171 P0018 T00390028
2026-04-02 05:57:00,SPECI KDPA 020557Z 09012G20KT 8SM -RA BKN009 BKN065 OVC090 03/03 A3003 RMK AO2 P0000 T00330028
2026-04-02 05:52:00,METAR KDPA 020552Z 07013G20KT 8SM -RA SCT011 BKN065 OVC090 03/03 A3002 RMK AO2 SLP173 P0008 60014 T00330028 10044 20028 400440017 58022
2026-04-02 05:27:00,SPECI KDPA 020527Z 09014KT 5SM RA BR SCT017 BKN080 OVC100 03/03 A3003 RMK AO2 PRESFR P0006 T00330028
2026-04-02 04:52:00,METAR KDPA 020452Z 08013KT 7SM RA OVC018 04/02 A3007 RMK AO2 RAB16 PRESFR SLP188 P0006 T00390022
2026-04-02 03:52:00,METAR KDPA 020352Z 07013G21KT 10SM OVC021 04/01 A3007 RMK AO2 SLP190 T00440006
2026-04-02 02:52:00,METAR KDPA 020252Z 05013KT 10SM BKN022 OVC050 03/01 A3009 RMK AO2 SLP196 T00330006 58016
2026-04-02 02:35:00,SPECI KDPA 020235Z 06014KT 10SM BKN022 OVC030 03/01 A3011 RMK AO2 T00330006
2026-04-02 02:20:00,SPECI KDPA 020220Z 05014G23KT 10SM SCT022 OVC030 03/00 A3012 RMK AO2 T00330000
2026-04-02 01:52:00,METAR KDPA 020152Z 07014G21KT 10SM OVC024 03/00 A3013 RMK AO2 SLP209 T00280000
2026-04-02 00:52:00,METAR KDPA 020052Z 05010KT 10SM OVC024 03/00 A3015 RMK AO2 SLP218 T00280000
2026-04-02 00:25:00,SPECI KDPA 020025Z 07013KT 10SM OVC029 03/00 A3015 RMK AO2 T00330000
2026-04-01 23:52:00,METAR KDPA 012352Z 07014KT 10SM FEW017 BKN032 OVC085 03/00 A3014 RMK AO2 PK WND 06028/2325 SLP213 T00330000 10044 20028 58000
2026-04-01 22:52:00,METAR KDPA 012252Z 06014G25KT 10SM SCT017 BKN035 OVC046 04/00 A3014 RMK AO2 PK WND 04026/2222 SLP213 T00390000
2026-04-01 22:25:00,SPECI KDPA 012225Z 05019G26KT 10SM BKN017 BKN034 OVC047 04/00 A3014 RMK AO2 PK WND 04026/2222 T00390000
2026-04-01 22:14:00,SPECI KDPA 012214Z 05016KT 10SM SCT017 OVC035 04/01 A3013 RMK AO2 T00390006
2026-04-01 21:52:00,METAR KDPA 012152Z 04012G21KT 10SM BKN017 BKN024 OVC035 04/01 A3015 RMK AO2 SLP215 T00390006
2026-04-01 20:52:00,METAR KDPA 012052Z 06019G25KT 10SM BKN016 OVC024 04/00 A3014 RMK AO2 PK WND 07026/2029 SLP213 T00390000 58017
2026-04-01 19:52:00,METAR KDPA 011952Z 03017KT 10SM OVC015 04/00 A3017 RMK AO2 SLP222 T00390000
2026-04-01 18:52:00,METAR KDPA 011852Z 05016KT 10SM OVC015 03/00 A3020 RMK AO2 SLP232 T00280000
2026-04-01 17:52:00,METAR KDPA 011752Z 04014G23KT 10SM OVC016 03/M01 A3019 RMK AO2 SLP231 T00331006 10033 20017 56001
2026-04-01 16:52:00,METAR KDPA 011652Z 05016G26KT 10SM OVC015 03/M01 A3019 RMK AO2 PK WND 04028/1558 SLP230 T00281006
2026-04-01 16:47:00,SPECI KDPA 011647Z 04018G26KT 10SM OVC015 03/M01 A3019 RMK AO2 PK WND 04028/1558
2026-04-01 15:52:00,METAR KDPA 011552Z 04018G27KT 10SM OVC013 02/M01 A3020 RMK AO2 PK WND 03027/1546 SLP232 T00221006
2026-04-01 14:52:00,METAR KDPA 011452Z 03015G26KT 10SM OVC012 02/00 A3020 RMK AO2 PK WND 05027/1403 SLP231 T00220000 51009
2026-04-01 13:52:00,METAR KDPA 011352Z 04016G25KT 10SM OVC013 02/M01 A3019 RMK AO2 SLP230 T00171006
2026-04-01 12:52:00,METAR KDPA 011252Z 04016G23KT 10SM OVC012 02/M01 A3018 RMK AO2 SLP223 T00221006
2026-04-01 12:10:00,SPECI KDPA 011210Z 04013KT 10SM OVC014 02/M01 A3017 RMK AO2 T00171006
2026-04-01 11:52:00,METAR KDPA 011152Z 02016G21KT 10SM BKN015 OVC090 02/M01 A3017 RMK AO2 PK WND 03027/1120 SLP220 70009 T00171006 10044 20017 53021
2026-04-01 11:43:00,SPECI KDPA 011143Z 03016KT 10SM BKN015 BKN090 OVC110 02/M01 A3017 RMK AO2 PK WND 03027/1120 T00171006
2026-04-01 10:52:00,METAR KDPA 011052Z 04016G24KT 10SM BKN110 02/M01 A3013 RMK AO2 SLP207 T00221011
2026-04-01 09:52:00,METAR KDPA 010952Z 03013G21KT 10SM BKN120 03/M01 A3012 RMK AO2 PK WND 03026/0906 SLP201 T00281006
2026-04-01 08:52:00,METAR KDPA 010852Z 04015G26KT 10SM CLR 03/00 A3011 RMK AO2 PK WND 04028/0821 SLP196 T00280000 51006
2026-04-01 07:52:00,METAR KDPA 010752Z 05015G29KT 10SM SCT020 03/01 A3010 RMK AO2 PK WND 04029/0745 SLP195 T00330006
2026-04-01 07:25:00,SPECI KDPA 010725Z 05012KT 10SM BKN019 03/01 A3012 RMK AO2 T00330006
2026-04-01 07:06:00,SPECI KDPA 010706Z 05016G23KT 10SM SCT017 03/01 A3011 RMK AO2 T00330011
2026-04-01 06:52:00,METAR KDPA 010652Z 05014G25KT 10SM BKN017 04/01 A3011 RMK AO2 PK WND 04027/0610 SLP198 T00390011
2026-04-01 06:42:00,SPECI KDPA 010642Z AUTO 05015G21KT 10SM BKN017 04/01 A3010 RMK AO2 PK WND 04027/0610 T00390011
2026-04-01 05:52:00,METAR KDPA 010552Z 03017G26KT 10SM SCT016 SCT021 04/02 A3009 RMK AO2 PK WND 03026/0544 SLP190 T00440017 10100 20044 401940044 53017
2026-04-01 05:34:00,SPECI KDPA 010534Z 04013G25KT 10SM BKN016 OVC021 05/02 A3009 RMK AO2 T00500022
2026-04-01 05:24:00,SPECI KDPA 010524Z 05017G25KT 10SM OVC013 05/02 A3008 RMK AO2 T00500022
2026-04-01 04:52:00,METAR KDPA 010452Z 04011KT 10SM OVC009 06/04 A3005 RMK AO2 SLP177 T00560039
2026-04-01 04:23:00,SPECI KDPA 010423Z 05011KT 10SM BKN010 OVC075 06/04 A3003 RMK AO2 T00560039
2026-04-01 03:52:00,METAR KDPA 010352Z 04006KT 10SM FEW011 OVC070 06/04 A3004 RMK AO2 SLP173 T00560039
2026-04-01 03:49:00,SPECI KDPA 010349Z 05005KT 10SM SCT011 OVC070 06/04 A3004 RMK AO2
2026-04-01 02:52:00,METAR KDPA 010252Z 05009KT 10SM OVC010 07/05 A3001 RMK AO2 SLP163 T00670050 51038
2026-04-01 02:40:00,SPECI KDPA 010240Z 06009KT 10SM OVC010 07/05 A3002 RMK AO2 PRESRR T00670050
2026-04-01 02:27:00,SPECI KDPA 010227Z 07009KT 10SM OVC009 07/05 A3000 RMK AO2 T00670050
2026-04-01 01:52:00,METAR KDPA 010152Z 06010KT 9SM OVC012 08/06 A2998 RMK AO2 SLP152 T00780061
2026-04-01 00:52:00,METAR KDPA 010052Z 02010KT 10SM OVC013 09/08 A2993 RMK AO2 SLP136 T00940078
2026-04-01 00:29:00,SPECI KDPA 010029Z 01014KT 10SM BKN014 BKN020 OVC055 09/08 A2992 RMK AO2 T00940078
2026-03-31 23:52:00,METAR KDPA 312352Z 01010KT 10SM OVC021 10/08 A2990 RMK AO2 SLP124 60001 T01000083 10189 20100 53033
2026-03-31 23:41:00,SPECI KDPA 312341Z 02011KT 10SM FEW013 OVC021 10/08 A2989 RMK AO2 T01000083
2026-03-31 23:01:00,SPECI KDPA 312301Z 01014KT 10SM BKN013 OVC024 11/09 A2987 RMK AO2 T01060089
2026-03-31 22:52:00,METAR KDPA 312252Z 36014KT 10SM SCT013 OVC024 12/09 A2987 RMK AO2 SLP112 T01170094
2026-03-31 21:52:00,METAR KDPA 312152Z 02009KT 10SM OVC017 13/10 A2983 RMK AO2 WSHFT 2051 SLP099 T01280100
2026-03-31 21:11:00,SPECI KDPA 312111Z 32012KT 8SM SCT021 OVC028 17/14 A2980 RMK AO2 WSHFT 2051 LTG DSNT N AND NE AND S T01720144
2026-03-31 20:52:00,METAR KDPA 312052Z AUTO 29015G22KT 10SM BKN021 OVC030 19/16 A2980 RMK AO2 LTG DSNT N AND SE AND S SLP087 60001 T01890156 53010
2026-03-31 19:52:00,METAR KDPA 311952Z 23010G17KT 10SM BKN035 BKN075 19/16 A2978 RMK AO2 LTG DSNT SE-SW RAB42E51 SLP081 P0000 T01890156
2026-03-31 18:52:00,METAR KDPA 311852Z 23008KT 9SM BKN035 18/16 A2977 RMK AO2 RAB1753E18 PRESRR SLP079 P0001 T01830161
2026-03-31 17:52:00,METAR KDPA 311752Z 22008KT 9SM FEW043 SCT120 17/15 A2977 RMK AO2 RAE41 SLP076 P0000 60008 T01720150 10189 20161 50001
2026-03-31 16:52:00,METAR KDPA 311652Z 19009KT 8SM -RA BKN110 17/15 A2978 RMK AO2 LTG DSNT SE AND S SLP082 P0003 T01670150
2026-03-31 15:52:00,METAR KDPA 311552Z 19011KT 9SM -RA FEW049 SCT080 BKN120 17/14 A2979 RMK AO2 PK WND 19028/1513 LTG DSNT ALQDS RAB15 TSB16E47 SLP084 P0005 T01670144
2026-03-31 15:16:00,SPECI KDPA 311516Z 20014G28KT 6SM -TSRA BKN045 BKN055 18/14 A2978 RMK AO2 PK WND 19028/1513 LTG DSNT SE-W RAB15 TSB16 P0002 T01780139
2026-03-31 14:52:00,METAR KDPA 311452Z 20012G21KT 9SM SCT045 18/14 A2976 RMK AO2 LTG DSNT SE-SW SLP075 60000 T01830139 51001
2026-03-31 13:52:00,METAR KDPA 311352Z 20012G21KT 10SM FEW055 FEW120 18/13 A2976 RMK AO2 LTG DSNT E-SW RAB08E39 SLP074 P0000 T01780133
2026-03-31 12:52:00,METAR KDPA 311252Z 21014KT 10SM FEW100 SCT120 18/13 A2976 RMK AO2 SLP074 T01780133
2026-03-31 11:52:00,METAR KDPA 311152Z 18011KT 10SM SCT100 SCT120 17/13 A2976 RMK AO2 SLP073 70062 T01720133 10194 20167 55009
2026-03-31 10:52:00,METAR KDPA 311052Z 18010KT 10SM CLR 17/13 A2976 RMK AO2 SLP071 T01670133
2026-03-31 09:52:00,METAR KDPA 310952Z 21007KT 10SM CLR 17/14 A2979 RMK AO2 SLP081 T01720139
2026-03-31 08:52:00,METAR KDPA 310852Z 24009KT 10SM FEW065 SCT090 19/14 A2979 RMK AO2 PRESFR SLP082 T01890139 51011
2026-03-31 07:52:00,METAR KDPA 310752Z 20009KT 10SM CLR 18/14 A2978 RMK AO2 LTG DSNT N AND NW SLP079 T01830144
2026-03-31 06:52:00,METAR KDPA 310652Z 19011KT 10SM CLR 18/14 A2977 RMK AO2 SLP074 T01830144
2026-03-31 05:52:00,METAR KDPA 310552Z 18014KT 10SM CLR 19/15 A2975 RMK AO2 SLP071 60062 T01890150 10250 20167 402670067 55005
2026-03-31 04:52:00,METAR KDPA 310452Z 17014KT 10SM SCT070 19/16 A2975 RMK AO2 LTG DSNT NE AND E RAE0356 TSE03 SLP069 P0000 T01890156
2026-03-31 04:34:00,SPECI KDPA 310434Z 17014KT 10SM BKN070 BKN090 19/16 A2975 RMK AO2 LTG DSNT NE AND E RAE0356 TSE03 P0000 T01890156
2026-03-31 04:03:00,SPECI KDPA 310403Z 16013KT 10SM VCTS SCT011 BKN090 18/15 A2976 RMK AO2 LTG DSNT ALQDS RAE0356 TSE03 P0000 T01780150
2026-03-31 03:52:00,METAR KDPA 310352Z 18018G30KT 7SM -TSRA BKN018 17/13 A2977 RMK AO2 PK WND 19037/0338 LTG DSNT ALQDS RAE02B21 TSE01B22 SLP077 P0062 T01720133
2026-03-31 03:48:00,SPECI KDPA 310348Z 18021G30KT 2SM -TSRA BKN018 17/14 A2977 RMK AO2 PK WND 19037/0338 LTG DSNT ALQDS RAE02B21 TSE01B22 P0062
2026-03-31 03:36:00,SPECI KDPA 310336Z 21024G37KT 3/4SM +TSRA BKN024 BKN110 17/14 A2977 RMK AO2 PK WND 23037/0330 LTG DSNT ALQDS RAE02B21 TSE01B22 P0047 T01720139 RVRNO
2026-03-31 03:30:00,SPECI KDPA 310330Z 23022G37KT 1 3/4SM +TSRA BR SCT032 SCT065 BKN110 18/16 A2977 RMK AO2 PK WND 23037/0330 LTG DSNT ALQDS RAE02B21 TSE01B22 P0020 T01780156
2026-03-31 03:28:00,SPECI KDPA 310328Z 20017G35KT 3SM +TSRA SCT039 SCT065 SCT110 19/16 A2979 RMK AO2 PK WND 22035/0324 LTG DSNT ALQDS RAE02B21 TSE01B22 P0010 T01890156
2026-03-31 03:07:00,SPECI KDPA 310307Z 20012G23KT 10SM VCTS FEW110 20/16 A2977 RMK AO2 PK WND 21030/0254 LTG DSNT ALQDS RAE02 TSE01 P0000 T02000156
2026-03-31 02:52:00,METAR KDPA 310252Z 21027G39KT 9SM -TSRA FEW050 SCT110 21/16 A2977 RMK AO2 PK WND 20039/0249 LTG DSNT ALQDS RAB30 TSE29B46 SLP078 P0000 60000 T02060156 53017
2026-03-31 02:35:00,SPECI KDPA 310235Z 19017G26KT 10SM VCTS -RA FEW065 SCT110 23/14 A2976 RMK AO2 PK WND 18026/0235 LTG DSNT S-W RAB30 TSE29 PRESFR P0000 T02280139
2026-03-31 01:52:00,METAR KDPA 310152Z 21011G23KT 10SM CLR 23/13 A2976 RMK AO2 PRESRR SLP076 T02280133
2026-03-31 00:52:00,METAR KDPA 310052Z 19012G23KT 10SM CLR 24/13 A2971 RMK AO2 SLP057 T02390128
2026-03-30 23:52:00,METAR KDPA 302352Z 20012G23KT 10SM CLR 25/12 A2972 RMK AO2 PK WND 19028/2258 SLP062 T02500122 10267 20233 56018
2026-03-30 22:52:00,METAR KDPA 302252Z 20015G28KT 10SM CLR 26/12 A2973 RMK AO2 PK WND 21030/2238 SLP064 T02610122
2026-03-30 21:52:00,METAR KDPA 302152Z 22018G25KT 10SM CLR 27/12 A2975 RMK AO2 PK WND 21028/2059 SLP071 T02670122
2026-03-30 20:52:00,METAR KDPA 302052Z 22018G30KT 10SM CLR 26/12 A2977 RMK AO2 PK WND 21030/2050 SLP080 T02610117 56029
2026-03-30 19:52:00,METAR KDPA 301952Z 21013G22KT 10SM CLR 26/12 A2980 RMK AO2 SLP088 T02610122
2026-03-30 18:52:00,METAR KDPA 301852Z 19015G21KT 10SM CLR 24/12 A2982 RMK AO2 SLP097 T02440117
2026-03-30 17:52:00,METAR KDPA 301752Z 22011KT 10SM CLR 23/11 A2986 RMK AO2 SLP110 T02330111 10233 20094 58017
2026-03-30 16:52:00,METAR KDPA 301652Z AUTO 21013KT 10SM CLR 22/11 A2989 RMK AO2 SLP119 T02170106
2026-03-30 15:52:00,METAR KDPA 301552Z 20014KT 10SM CLR 20/09 A2989 RMK AO2 SLP122 T02000094
2026-03-30 14:52:00,METAR KDPA 301452Z 20013KT 10SM SCT085 17/08 A2991 RMK AO2 SLP128 T01670078 58008
2026-03-30 13:52:00,METAR KDPA 301352Z 18007KT 10SM OVC085 14/07 A2993 RMK AO2 SLP134 T01390072
2026-03-30 12:52:00,METAR KDPA 301252Z 17007KT 10SM OVC080 11/06 A2994 RMK AO2 SLP137 T01110056
2026-03-30 11:52:00,METAR KDPA 301152Z 17006KT 10SM OVC075 09/04 A2994 RMK AO2 SLP138 T00940044 10100 20067 56004
2026-03-30 10:52:00,METAR KDPA 301052Z 17005KT 10SM CLR 07/03 A2994 RMK AO2 SLP138 T00720033
2026-03-30 09:52:00,METAR KDPA 300952Z 17005KT 10SM CLR 08/03 A2994 RMK AO2 SLP140 T00780028
2026-03-30 08:52:00,METAR KDPA 300852Z 17005KT 10SM CLR 08/02 A2995 RMK AO2 SLP143 T00830017 58012
2026-03-30 07:52:00,METAR KDPA 300752Z 17004KT 10SM CLR 08/02 A2996 RMK AO2 SLP148 T00830017
2026-03-30 06:52:00,METAR KDPA 300652Z 18003KT 10SM CLR 09/01 A2998 RMK AO2 SLP151 T00940011
2026-03-30 05:52:00,METAR KDPA 300552Z 18005KT 10SM CLR 10/01 A2998 RMK AO2 SLP154 T01000006 10150 20078 401720033 58018
2026-03-30 04:52:00,METAR KDPA 300452Z 18007KT 10SM CLR 09/01 A3000 RMK AO2 SLP159 T00940011
2026-03-30 03:52:00,METAR KDPA 300352Z 18004KT 10SM CLR 11/01 A3003 RMK AO2 SLP170 T01110006
2026-03-30 02:52:00,METAR KDPA 300252Z 18005KT 10SM FEW049 12/01 A3004 RMK AO2 SLP173 T01170006 53004
2026-03-30 01:52:00,METAR KDPA 300152Z 19006KT 10SM OVC043 14/01 A3003 RMK AO2 SLP170 T01390006
2026-03-30 00:52:00,METAR KDPA 300052Z 19010KT 10SM OVC046 14/M01 A3002 RMK AO2 SLP167 T01441006
2026-03-29 23:52:00,METAR KDPA 292352Z 19009KT 10SM BKN045 BKN055 15/M01 A3003 RMK AO2 SLP170 T01501006 10172 20150 55013
2026-03-29 22:52:00,METAR KDPA 292252Z 19013KT 10SM SCT050 BKN060 16/M01 A3002 RMK AO2 SLP168 T01561011
2026-03-29 21:52:00,METAR KDPA 292152Z 19013KT 10SM OVC050 16/M02 A3004 RMK AO2 SLP173 T01611022
2026-03-29 20:52:00,METAR KDPA 292052Z 21011G20KT 10SM OVC060 16/M02 A3007 RMK AO2 SLP183 T01611017 56023
2026-03-29 19:52:00,METAR KDPA 291952Z 22013G18KT 10SM OVC065 16/M02 A3009 RMK AO2 SLP191 T01561022
2026-03-29 18:52:00,METAR KDPA 291852Z 20011G20KT 10SM OVC075 16/M03 A3011 RMK AO2 PK WND 21027/1815 SLP197 T01611033
2026-03-29 17:52:00,METAR KDPA 291752Z 19014G22KT 10SM SCT085 16/M03 A3013 RMK AO2 SLP206 T01611028 10167 20039 58021
2026-03-29 16:52:00,METAR KDPA 291652Z 20011KT 10SM OVC090 14/M02 A3016 RMK AO2 SLP216 T01441017
2026-03-29 15:52:00,METAR KDPA 291552Z 20012KT 10SM OVC090 12/M02 A3019 RMK AO2 SLP226 T01171017
2026-03-29 14:52:00,METAR KDPA 291452Z 19014G20KT 10SM OVC100 11/M02 A3020 RMK AO2 SLP230 T01061022 58009
2026-03-29 13:52:00,METAR KDPA 291352Z 19012KT 10SM OVC100 08/M02 A3021 RMK AO2 SLP236 T00831022
2026-03-29 12:52:00,METAR KDPA 291252Z 18011KT 10SM BKN110 06/M02 A3022 RMK AO2 SLP239 T00611017
2026-03-29 11:52:00,METAR KDPA 291152Z 17008KT 10SM BKN110 03/M02 A3023 RMK AO2 SLP240 T00331017 10056 20033 56011
2026-03-29 10:52:00,METAR KDPA 291052Z 16006KT 10SM OVC110 04/M01 A3024 RMK AO2 SLP243 T00391011
2026-03-29 09:52:00,METAR KDPA 290952Z 19008KT 10SM BKN120 04/M01 A3024 RMK AO2 SLP246 T00441011
2026-03-29 08:52:00,METAR KDPA 290852Z 18007KT 10SM BKN120 04/M01 A3026 RMK AO2 SLP251 T00441011 58012
2026-03-29 07:52:00,METAR KDPA 290752Z 19007KT 10SM OVC110 05/M01 A3028 RMK AO2 SLP257 T00501006
2026-03-29 06:52:00,METAR KDPA 290652Z 18006KT 10SM BKN110 04/M01 A3029 RMK AO2 SLP261 T00441011
2026-03-29 05:52:00,METAR KDPA 290552Z 20007KT 10SM CLR 06/M02 A3030 RMK AO2 SLP264 T00561017 10083 20056 400891061 55004
2026-03-29 04:52:00,METAR KDPA 290452Z 19011KT 10SM BKN100 06/M02 A3029 RMK AO2 SLP263 T00561017
2026-03-29 03:52:00,METAR KDPA 290352Z 19011KT 10SM BKN100 06/M02 A3030 RMK AO2 SLP267 T00611022
2026-03-29 02:52:00,METAR KDPA 290252Z 18012KT 10SM CLR 06/M02 A3031 RMK AO2 SLP269 T00611022 58012
2026-03-29 01:52:00,METAR KDPA 290152Z 18008KT 10SM FEW100 06/M03 A3033 RMK AO2 SLP276 T00611028
2026-03-29 00:52:00,METAR KDPA 290052Z 18008KT 10SM BKN100 07/M04 A3033 RMK AO2 SLP279 T00671039
2026-03-28 23:52:00,METAR KDPA 282352Z 20012G22KT 10SM OVC100 08/M04 A3034 RMK AO2 SLP282 T00831044 10089 20044 56033
2026-03-28 22:52:00,METAR KDPA 282252Z 20011KT 10SM OVC110 08/M04 A3037 RMK AO2 SLP291 T00831044
2026-03-28 21:52:00,METAR KDPA 282152Z 21012KT 10SM OVC120 09/M04 A3040 RMK AO2 SLP302 T00891044
2026-03-28 20:52:00,METAR KDPA 282052Z 21010G19KT 10SM CLR 08/M06 A3044 RMK AO2 SLP315 T00831061 56043
2026-03-28 19:52:00,METAR KDPA 281952Z 22012KT 10SM CLR 08/M07 A3048 RMK AO2 SLP329 T00781072
2026-03-28 18:52:00,METAR KDPA 281852Z AUTO 22011KT 10SM CLR 06/M07 A3052 RMK AO2 SLP342 T00611072
2026-03-28 17:52:00,METAR KDPA 281752Z 20009G18KT 10SM CLR 04/M08 A3057 RMK AO2 SLP360 T00441078 10056 21044 58022
2026-03-28 16:52:00,METAR KDPA 281652Z 24010G15KT 10SM CLR 04/M09 A3060 RMK AO2 SLP370 T00391089
2026-03-28 15:52:00,METAR KDPA 281552Z 23007KT 10SM CLR 02/M10 A3062 RMK AO2 SLP376 T00221100
2026-03-28 14:52:00,METAR KDPA 281452Z 17004KT 10SM CLR 00/M11 A3064 RMK AO2 SLP383 T00001106 50006
2026-03-28 13:52:00,METAR KDPA 281352Z 00000KT 10SM CLR M01/M11 A3064 RMK AO2 SLP383 T10111106
2026-03-28 12:52:00,METAR KDPA 281252Z 29005KT 10SM CLR M03/M09 A3065 RMK AO2 SLP386 T10281094
2026-03-28 11:52:00,METAR KDPA 281152Z 29004KT 10SM CLR M04/M09 A3062 RMK AO2 SLP377 T10441094 10000 21061 53002
2026-03-28 10:52:00,METAR KDPA 281052Z 33003KT 10SM CLR M05/M10 A3060 RMK AO2 SLP371 T10501100
2026-03-28 09:52:00,METAR KDPA 280952Z 01004KT 10SM CLR M04/M11 A3060 RMK AO2 SLP370 T10441106
2026-03-28 08:52:00,METAR KDPA 280852Z AUTO 33006KT 10SM CLR M02/M11 A3061 RMK AO2 SLP374 T10221106 53013
2026-03-28 07:52:00,METAR KDPA 280752Z 36007KT 10SM CLR M02/M10 A3059 RMK AO2 SLP368 T10221100
2026-03-28 06:52:00,METAR KDPA 280652Z 01012KT 10SM CLR M01/M09 A3059 RMK AO2 SLP366 T10111089
2026-03-28 05:52:00,METAR KDPA 280552Z 36009KT 10SM CLR 00/M09 A3058 RMK AO2 SLP362 T00001089 10061 21017 400831017 53026
2026-03-28 04:52:00,METAR KDPA 280452Z 01008KT 10SM CLR 01/M09 A3055 RMK AO2 SLP352 T00061089
2026-03-28 03:52:00,METAR KDPA 280352Z 34009G20KT 10SM CLR 02/M09 A3052 RMK AO2 SLP344 T00221089
2026-03-28 02:52:00,METAR KDPA 280252Z 33012G19KT 10SM FEW070 04/M09 A3050 RMK AO2 SLP335 T00391089 53029
2026-03-28 01:52:00,METAR KDPA 280152Z 31012G19KT 10SM OVC070 05/M08 A3047 RMK AO2 SLP324 T00501078
2026-03-28 00:52:00,METAR KDPA 280052Z 31010KT 10SM OVC080 06/M08 A3043 RMK AO2 SLP310 T00561083
2026-03-27 23:52:00,METAR KDPA 272352Z 31010G19KT 10SM BKN075 06/M08 A3041 RMK AO2 SLP304 T00611083 10083 20044 53010
2026-03-27 22:52:00,METAR KDPA 272252Z 30011G18KT 10SM BKN070 07/M08 A3039 RMK AO2 SLP297 T00671078
2026-03-27 21:52:00,METAR KDPA 272152Z 32015G25KT 10SM BKN065 08/M07 A3038 RMK AO2 SLP293 T00781067
2026-03-27 20:52:00,METAR KDPA 272052Z 30019G28KT 270V340 10SM BKN055 08/M06 A3038 RMK AO2 PK WND 30028/2050 SLP294 T00781061 58006
2026-03-27 19:52:00,METAR KDPA 271952Z 33016G25KT 10SM BKN050 BKN055 06/M06 A3039 RMK AO2 SLP297 T00611056
2026-03-27 18:52:00,METAR KDPA 271852Z 31017G23KT 10SM CLR 06/M04 A3040 RMK AO2 SLP302 T00561044
2026-03-27 17:52:00,METAR KDPA 271752Z 33012KT 10SM CLR 04/M06 A3040 RMK AO2 SLP301 T00441056 10050 21011 58004
2026-03-27 16:52:00,METAR KDPA 271652Z 35010KT 10SM CLR 03/M05 A3040 RMK AO2 SLP303 T00331050
2026-03-27 15:52:00,METAR KDPA 271552Z 36012KT 10SM FEW028 02/M05 A3042 RMK AO2 SLP307 T00171050
2026-03-25 14:52:00,METAR KDPA 251452Z 20013G20KT 10SM CLR 11/M02 A3002 RMK AO2 SLP168 T01061017 58019
2026-03-25 13:52:00,METAR KDPA 251352Z 18012KT 10SM CLR 08/M01 A3003 RMK AO2 SLP173 T00831011
2026-03-25 12:52:00,METAR KDPA 251252Z 17008KT 10SM CLR 06/M02 A3006 RMK AO2 SLP183 T00561017
2026-03-25 11:52:00,METAR KDPA 251152Z 16008KT 10SM SCT070 04/M02 A3007 RMK AO2 SLP188 T00391022 10061 20033 58013
2026-03-25 10:52:00,METAR KDPA 251052Z 16009KT 10SM CLR 05/M02 A3008 RMK AO2 SLP189 T00501022
2026-03-25 09:52:00,METAR KDPA 250952Z 16005KT 10SM BKN070 06/M03 A3012 RMK AO2 SLP202 T00561028
2026-03-25 08:52:00,METAR KDPA 250852Z 16007KT 10SM CLR 06/M03 A3011 RMK AO2 SLP201 T00561028 58019
2026-03-25 07:52:00,METAR KDPA 250752Z 00000KT 10SM CLR 04/M02 A3014 RMK AO2 SLP211 T00391022
2026-03-25 06:52:00,METAR KDPA 250652Z 08003KT 10SM CLR 05/M03 A3016 RMK AO2 SLP216 T00501033
2026-03-25 05:52:00,METAR KDPA 250552Z 12003KT 10SM CLR 05/M04 A3017 RMK AO2 SLP221 T00501039 10094 20044 401111028 56012
2026-03-25 04:52:00,METAR KDPA 250452Z 12003KT 10SM CLR 05/M04 A3018 RMK AO2 SLP225 T00501044
2026-03-25 03:52:00,METAR KDPA 250352Z 09004KT 10SM CLR 06/M04 A3020 RMK AO2 SLP231 T00561039
2026-03-25 02:52:00,METAR KDPA 250252Z 10006KT 10SM CLR 07/M05 A3021 RMK AO2 SLP234 T00671050 55004
2026-03-25 01:52:00,METAR KDPA 250152Z 10007KT 10SM CLR 07/M07 A3019 RMK AO2 SLP231 T00671072
2026-03-25 00:52:00,METAR KDPA 250052Z 11006KT 10SM CLR 08/M08 A3021 RMK AO2 SLP235 T00781078
2026-03-24 23:52:00,METAR KDPA 242352Z 09005KT 10SM CLR 09/M08 A3022 RMK AO2 SLP239 T00941083 10111 20072 56008
2026-03-24 22:52:00,METAR KDPA 242252Z 18004KT 10SM CLR 11/M08 A3022 RMK AO2 SLP238 T01111078
2026-03-24 21:52:00,METAR KDPA 242152Z 17007KT 10SM CLR 11/M07 A3023 RMK AO2 SLP241 T01061072
2026-03-24 20:52:00,METAR KDPA 242052Z 16008KT 10SM CLR 10/M07 A3024 RMK AO2 SLP246 T01001072 58025
2026-03-24 19:52:00,METAR KDPA 241952Z AUTO 17007KT 10SM SCT080 09/M07 A3026 RMK AO2 SLP255 T00891072
2026-03-24 18:52:00,METAR KDPA 241852Z 20008KT 10SM BKN090 08/M08 A3030 RMK AO2 SLP265 T00781078
2026-03-24 17:52:00,METAR KDPA 241752Z 19008KT 10SM BKN085 BKN120 07/M08 A3032 RMK AO2 SLP273 T00721078 10072 21028 58017
2026-03-24 16:52:00,METAR KDPA 241652Z 17014KT 9SM OVC085 06/M07 A3033 RMK AO2 SLP279 T00611067
2026-03-24 15:52:00,METAR KDPA 241552Z 19011KT 10SM FEW090 04/M07 A3036 RMK AO2 SLP290 T00441072
2026-03-24 14:52:00,METAR KDPA 241452Z 16009G18KT 10SM FEW100 03/M07 A3037 RMK AO2 SLP292 T00281067 53002
2026-03-24 13:52:00,METAR KDPA 241352Z 19012KT 10SM CLR 01/M07 A3037 RMK AO2 SLP291 T00111067
2026-03-24 12:52:00,METAR KDPA 241252Z 17005KT 10SM FEW120 M01/M07 A3036 RMK AO2 SLP291 T10111072
2026-03-24 11:52:00,METAR KDPA 241152Z 17004KT 10SM FEW120 M03/M08 A3036 RMK AO2 SLP291 T10281083 11006 21028 56003
2026-03-24 10:52:00,METAR KDPA 241052Z 17006KT 10SM SCT110 M02/M08 A3036 RMK AO2 SLP290 T10171083
2026-03-24 09:52:00,METAR KDPA 240952Z AUTO 18007KT 10SM SCT110 M01/M09 A3036 RMK AO2 SLP289 T10111089
2026-03-24 08:52:00,METAR KDPA 240852Z 17003KT 10SM CLR M01/M07 A3037 RMK AO2 SLP292 T10111072 58012
2026-03-24 07:52:00,METAR KDPA 240752Z 15004KT 10SM FEW120 M01/M06 A3039 RMK AO2 SLP298 T10111061
2026-03-24 06:52:00,METAR KDPA 240652Z 00000KT 10SM CLR M01/M07 A3041 RMK AO2 SLP305 T10111067
2026-03-24 05:52:00,METAR KDPA 240552Z 00000KT 10SM CLR M01/M06 A3041 RMK AO2 SLP306 T10111061 10033 21022 400671028 55002
2026-03-24 04:52:00,METAR KDPA 240452Z 15004KT 10SM CLR M02/M07 A3040 RMK AO2 SLP302 T10171067
2026-03-24 03:52:00,METAR KDPA 240352Z 13005KT 10SM CLR M02/M07 A3041 RMK AO2 SLP306 T10171067
2026-03-24 02:52:00,METAR KDPA 240252Z 12007KT 10SM CLR M01/M07 A3042 RMK AO2 SLP309 T10061072 50001
2026-03-24 01:52:00,METAR KDPA 240152Z 12005KT 10SM CLR 00/M07 A3043 RMK AO2 SLP313 T00001072
2026-03-24 00:52:00,METAR KDPA 240052Z 10009KT 10SM CLR 02/M08 A3042 RMK AO2 SLP309 T00171078
2026-03-23 23:52:00,METAR KDPA 232352Z 08009KT 10SM CLR 03/M08 A3041 RMK AO2 SLP307 T00331083 10067 20033 53004
2026-03-23 22:52:00,METAR KDPA 232252Z VRB06KT 10SM CLR 06/M10 A3040 RMK AO2 SLP301 T00611100
2026-03-23 21:52:00,METAR KDPA 232152Z 03004KT 10SM CLR 06/M12 A3040 RMK AO2 SLP300 T00611117
2026-03-23 20:52:00,METAR KDPA 232052Z 10SM CLR 06/M11 A3040 RMK AO2 SLP303 T00611111 58008
2026-03-23 19:52:00,METAR KDPA 231952Z 01007G16KT 330V040 10SM CLR 06/M11 A3041 RMK AO2 SLP306 T00611106
2026-03-23 18:52:00,METAR KDPA 231852Z 02008KT 10SM CLR 05/M11 A3042 RMK AO2 SLP310 T00501106
2026-03-23 17:52:00,METAR KDPA 231752Z 36013G20KT 10SM CLR 04/M10 A3043 RMK AO2 SLP311 T00441100 10044 21017 51015
2026-03-23 16:52:00,METAR KDPA 231652Z 02009G22KT 10SM CLR 03/M09 A3042 RMK AO2 SLP308 T00331089
2026-03-23 15:52:00,METAR KDPA 231552Z 02014G23KT 10SM CLR 02/M08 A3040 RMK AO2 SLP301 T00221083
2026-03-23 14:52:00,METAR KDPA 231452Z AUTO 36015G22KT 10SM FEW037 02/M07 A3038 RMK AO2 PK WND 36027/1440 SLP296 T00171072 51025
2026-03-23 13:52:00,METAR KDPA 231352Z 35017G26KT 10SM CLR 00/M07 A3035 RMK AO2 PK WND 02027/1332 SLP287 T00001072
2026-03-23 12:52:00,METAR KDPA 231252Z 34013KT 10SM CLR M01/M07 A3034 RMK AO2 SLP282 T10111072
2026-03-23 11:52:00,METAR KDPA 231152Z 34014G22KT 10SM CLR M01/M07 A3031 RMK AO2 SLP271 T10111067 11006 21028 53026
2026-03-23 10:52:00,METAR KDPA 231052Z 34012G17KT 10SM OVC026 M01/M05 A3028 RMK AO2 SLP262 T10061050
2026-03-23 09:52:00,METAR KDPA 230952Z 36007KT 10SM OVC028 M01/M04 A3025 RMK AO2 SLP252 T10111044
2026-03-23 08:52:00,METAR KDPA 230852Z 36008KT 10SM BKN028 M02/M05 A3023 RMK AO2 SLP244 T10221050 51022
2026-03-23 08:42:00,SPECI KDPA 230842Z 36008KT 10SM BKN029 M02/M05 A3023 RMK AO2 T10221050
2026-03-23 07:52:00,METAR KDPA 230752Z 35007KT 10SM CLR M02/M04 A3021 RMK AO2 SLP239 T10221044
2026-03-23 06:52:00,METAR KDPA 230652Z 01007KT 10SM CLR M03/M05 A3019 RMK AO2 SLP232 T10281050
2026-03-23 05:52:00,METAR KDPA 230552Z 01008KT 10SM CLR M02/M04 A3016 RMK AO2 SLP220 T10171039 10017 21017 402001017 53031
2026-03-23 04:52:00,METAR KDPA 230452Z 01011KT 10SM CLR M01/M04 A3012 RMK AO2 SLP207 T10111039
2026-03-23 03:52:00,METAR KDPA 230352Z 01012KT 10SM CLR M01/M03 A3009 RMK AO2 SLP196 T10061033
2026-03-23 02:52:00,METAR KDPA 230252Z 36012KT 10SM CLR 00/M03 A3007 RMK AO2 SLP187 T00001033 51023
2026-03-23 01:52:00,METAR KDPA 230152Z 36014KT 10SM CLR 00/M03 A3005 RMK AO2 SLP182 T00001028
2026-03-23 00:52:00,METAR KDPA 230052Z 01017G24KT 10SM SCT023 SCT110 01/M03 A3003 RMK AO2 PK WND 35027/0036 SLP173 T00111033
2026-03-23 00:20:00,SPECI KDPA 230020Z 01016KT 10SM BKN025 02/M03 A3002 RMK AO2 PK WND 36026/0010 T00171028
2026-03-22 23:52:00,METAR KDPA 222352Z 36015KT 10SM SCT110 02/M03 A3000 RMK AO2 SLP163 60000 T00171033 10050 20017 53016
2026-03-22 22:52:00,METAR KDPA 222252Z 04013KT 10SM OVC095 02/M02 A2993 RMK AO2 PK WND 02029/2203 UPB11E13RAB13E27 SLP138 P0000 T00171022
2026-03-22 21:52:00,METAR KDPA 222152Z 02018G26KT 10SM FEW020 BKN095 OVC110 02/M02 A2995 RMK AO2 PK WND 01028/2115 RAB2054E03 SLP143 P0000 T00221022
2026-03-22 21:44:00,SPECI KDPA 222144Z 03015G27KT 10SM SCT020 BKN090 OVC110 02/M02 A2995 RMK AO2 PK WND 01028/2115 RAB2054E03 P0000 T00221017
2026-03-22 20:52:00,METAR KDPA 222052Z 01016G22KT 10SM BKN018 OVC090 02/M01 A2995 RMK AO2 PK WND 04029/2018 RAB11E45 PRESRR SLP143 P0000 60000 T00221011 51026
2026-03-22 20:07:00,SPECI KDPA 222007Z 02020KT 10SM SCT018 OVC100 03/M02 A2990 RMK AO2 T00281017
2026-03-22 19:52:00,METAR KDPA 221952Z 01019G31KT 10SM BKN018 BKN100 03/M01 A2989 RMK AO2 PK WND 01032/1911 SLP123 T00281011
2026-03-22 19:38:00,SPECI KDPA 221938Z 02017G28KT 10SM BKN019 03/M01 A2990 RMK AO2 PK WND 01032/1911 PRESRR T00331011
2026-03-22 19:26:00,SPECI KDPA 221926Z 02015G29KT 10SM SCT019 03/M01 A2987 RMK AO2 PK WND 01032/1911 T00331011
2026-03-22 19:14:00,SPECI KDPA 221914Z 02021G32KT 10SM BKN020 03/M01 A2985 RMK AO2 PK WND 01032/1911 T00331011
2026-03-22 19:07:00,SPECI KDPA 221907Z 02024G31KT 10SM SCT020 04/M01 A2986 RMK AO2 PK WND 02031/1902 T00391011
2026-03-22 18:52:00,METAR KDPA 221852Z 01020G29KT 10SM BKN020 04/M01 A2987 RMK AO2 PK WND 02031/1811 SLP115 T00391006
2026-03-22 17:52:00,METAR KDPA 221752Z 02017G27KT 10SM BKN018 04/01 A2981 RMK AO2 PK WND 02032/1735 SLP096 T00440006 10094 20044 50015
2026-03-22 17:48:00,SPECI KDPA 221748Z 01021G27KT 10SM BKN018 05/01 A2982 RMK AO2 PK WND 02032/1735
2026-03-22 16:52:00,METAR KDPA 221652Z 06015G26KT 10SM CLR 07/01 A2978 RMK AO2 PK WND 04026/1649 SLP082 T00670011
2026-03-22 15:52:00,METAR KDPA 221552Z 06016G23KT 10SM CLR 07/02 A2977 RMK AO2 PK WND 03026/1500 SLP080 T00670017
2026-03-22 14:52:00,METAR KDPA 221452Z 04015G25KT 10SM CLR 08/02 A2973 RMK AO2 PK WND 03027/1417 SLP066 T00780017 51016
2026-03-22 13:52:00,METAR KDPA 221352Z 06011KT 10SM CLR 07/02 A2970 RMK AO2 PK WND 04029/1321 SLP055 T00720017
2026-03-22 12:52:00,METAR KDPA 221252Z 03012KT 10SM CLR 07/03 A2972 RMK AO2 PK WND 03027/1158 PRESFR SLP063 T00720028
2026-03-22 11:52:00,METAR KDPA 221152Z 04018KT 10SM CLR 09/04 A2968 RMK AO2 PK WND 06029/1127 SLP050 T00940039 10200 20094 53047
2026-03-22 10:52:00,METAR KDPA 221052Z 06009KT 10SM CLR 14/09 A2960 RMK AO2 SLP019 T01390094
2026-03-22 09:52:00,METAR KDPA 220952Z 00000KT 10SM CLR 17/11 A2956 RMK AO2 SLP004 T01670106
2026-03-22 09:33:00,SPECI KDPA 220933Z 34006KT 10SM CLR 17/11 A2956 RMK AO2 T01670111
2026-03-22 08:52:00,METAR KDPA 220852Z 21010KT 10SM CLR 19/11 A2954 RMK AO2 SLP999 T01890111 58015
2026-03-22 07:52:00,METAR KDPA 220752Z 22009KT 10SM CLR 19/10 A2956 RMK AO2 SLP005 T01890100
2026-03-22 06:52:00,METAR KDPA 220652Z 22016G24KT 10SM CLR 20/09 A2957 RMK AO2 SLP010 T02000094
2026-03-22 05:52:00,METAR KDPA 220552Z 20014G25KT 10SM CLR 20/09 A2958 RMK AO2 PK WND 21026/0529 SLP015 T02000089 10217 20189 402440044 58015
2026-03-22 04:52:00,METAR KDPA 220452Z 21012KT 10SM CLR 19/08 A2961 RMK AO2 SLP023 T01940078
2026-03-22 03:52:00,METAR KDPA 220352Z 21012KT 10SM CLR 21/07 A2962 RMK AO2 SLP026 T02060072
2026-03-22 02:52:00,METAR KDPA 220252Z 21013KT 10SM CLR 21/07 A2963 RMK AO2 SLP032 T02110072 56013
2026-03-22 01:52:00,METAR KDPA 220152Z AUTO 20012KT 10SM CLR 22/08 A2964 RMK AO2 SLP036 T02170078
2026-03-22 00:52:00,METAR KDPA 220052Z AUTO 20010KT 10SM CLR 21/08 A2965 RMK AO2 SLP040 T02060078
2026-03-21 23:52:00,METAR KDPA 212352Z 22009KT 10SM CLR 22/08 A2967 RMK AO2 SLP045 T02170078 10244 20172 56016
2026-03-21 22:52:00,METAR KDPA 212252Z 22011KT 10SM CLR 24/08 A2967 RMK AO2 SLP047 T02390078
2026-03-21 21:52:00,METAR KDPA 212152Z 21013G22KT 10SM CLR 24/08 A2969 RMK AO2 SLP052 T02390083
2026-03-21 20:52:00,METAR KDPA 212052Z 20010KT 10SM CLR 23/08 A2972 RMK AO2 SLP063 T02280078 56044
2026-03-21 19:52:00,METAR KDPA 211952Z 20012KT 10SM CLR 21/07 A2976 RMK AO2 SLP077 T02060067
2026-03-21 18:52:00,METAR KDPA 211852Z 19011KT 10SM CLR 19/06 A2980 RMK AO2 SLP093 T01940056
2026-03-21 17:52:00,METAR KDPA 211752Z 18010KT 10SM CLR 17/05 A2985 RMK AO2 SLP109 T01720050 10172 20067 58020
2026-03-21 16:52:00,METAR KDPA 211652Z 18010KT 10SM CLR 15/07 A2988 RMK AO2 SLP120 T01500067
2026-03-21 15:52:00,METAR KDPA 211552Z 17011KT 10SM OVC110 13/06 A2991 RMK AO2 SLP130 T01280061
2026-03-21 14:52:00,METAR KDPA 211452Z 16011KT 9SM OVC110 11/06 A2991 RMK AO2 SLP130 T01110056 58004
2026-03-21 13:52:00,METAR KDPA 211352Z 16007KT 9SM CLR 09/05 A2993 RMK AO2 SLP137 T00940050
2026-03-21 12:52:00,METAR KDPA 211252Z 12005KT 8SM CLR 08/04 A2992 RMK AO2 SLP136 T00780039
2026-03-21 11:52:00,METAR KDPA 211152Z 13004KT 10SM CLR 07/03 A2992 RMK AO2 SLP136 T00670033 10067 20044 55007
2026-03-21 10:52:00,METAR KDPA 211052Z 10003KT 6SM BR CLR 05/03 A2991 RMK AO2 SLP132 T00500033
2026-03-21 09:52:00,METAR KDPA 210952Z 00000KT 6SM BR CLR 05/03 A2992 RMK AO2 SLP134 T00500033
2026-03-21 08:52:00,METAR KDPA 210852Z 36003KT 6SM BR CLR 04/03 A2995 RMK AO2 SLP140 T00440033 55001
2026-03-21 07:52:00,METAR KDPA 210752Z 00000KT 7SM CLR 06/03 A2994 RMK AO2 SLP139 T00610028
2026-03-21 06:52:00,METAR KDPA 210652Z 08003KT 7SM CLR 05/02 A2995 RMK AO2 SLP140 T00500022
2026-03-21 05:52:00,METAR KDPA 210552Z 09003KT 7SM CLR 06/03 A2995 RMK AO2 SLP141 T00560033 10111 20050 402170028 50001
2026-03-21 04:52:00,METAR KDPA 210452Z 00000KT 9SM CLR 07/03 A2996 RMK AO2 SLP144 T00670033
2026-03-21 03:52:00,METAR KDPA 210352Z 00000KT 9SM CLR 07/03 A2995 RMK AO2 SLP143 T00670033
2026-03-21 02:52:00,METAR KDPA 210252Z 06005KT 10SM CLR 08/04 A2994 RMK AO2 SLP141 T00780039 51018
2026-03-21 01:52:00,METAR KDPA 210152Z 05005KT 10SM CLR 08/04 A2994 RMK AO2 SLP141 T00830039
2026-03-21 00:52:00,METAR KDPA 210052Z 06005KT 10SM CLR 09/04 A2992 RMK AO2 SLP135 T00940044
2026-03-20 23:52:00,METAR KDPA 202352Z 08008KT 10SM CLR 11/05 A2989 RMK AO2 SLP123 T01110050 10217 20111 53029
2026-03-20 22:52:00,METAR KDPA 202252Z 08011KT 10SM CLR 14/07 A2986 RMK AO2 SLP113 T01440067
2026-03-20 21:52:00,METAR KDPA 202152Z 34010KT 10SM CLR 19/08 A2982 RMK AO2 SLP099 T01940083
2026-03-20 20:52:00,METAR KDPA 202052Z AUTO 33013KT 10SM CLR 21/09 A2980 RMK AO2 SLP092 T02060089 53010
2026-03-20 19:52:00,METAR KDPA 201952Z AUTO 32014KT 10SM CLR 21/09 A2979 RMK AO2 SLP087 T02110089
2026-03-20 18:52:00,METAR KDPA 201852Z 30013G18KT 10SM CLR 21/09 A2978 RMK AO2 SLP085 T02110094
2026-03-20 17:52:00,METAR KDPA 201752Z 29010KT 10SM CLR 20/09 A2977 RMK AO2 SLP083 T02000089 10200 20083 50000
2026-03-20 16:52:00,METAR KDPA 201652Z 28010KT 10SM CLR 18/08 A2978 RMK AO2 SLP086 T01830078
2026-03-20 15:52:00,METAR KDPA 201552Z 29013G19KT 10SM CLR 17/07 A2979 RMK AO2 SLP089 T01720072
2026-03-20 14:52:00,METAR KDPA 201452Z 25009KT 10SM CLR 14/07 A2977 RMK AO2 SLP084 T01390072 58005
2026-03-20 13:52:00,METAR KDPA 201352Z 23013KT 10SM CLR 11/06 A2978 RMK AO2 SLP088 T01110061
2026-03-20 12:52:00,METAR KDPA 201252Z 23008KT 10SM CLR 09/06 A2979 RMK AO2 SLP089 T00890056
2026-03-20 11:52:00,METAR KDPA 201152Z 21010KT 10SM CLR 08/05 A2979 RMK AO2 SLP090 7//// T00780050 10100 20028 58013
2026-03-20 10:52:00,METAR KDPA 201052Z 21008KT 10SM CLR 08/05 A2981 RMK AO2 SLP095 T00830050
2026-03-20 09:52:00,METAR KDPA 200952Z AUTO 21007KT 10SM CLR 08/04 A2982 RMK AO2 SLP098 T00830044
2026-03-20 08:52:00,METAR KDPA 200852Z 18007KT 10SM CLR 07/04 A2983 RMK AO2 SLP101 T00720044 57035
2026-03-20 07:52:00,METAR KDPA 200752Z 18005KT 10SM CLR 04/02 A2986 RMK AO2 SLP113 T00440017
2026-03-20 06:52:00,METAR KDPA 200652Z 16003KT 10SM CLR 03/01 A2990 RMK AO2 SLP126 T00280011
2026-03-20 05:52:00,METAR KDPA 200552Z 00000KT 10SM CLR 04/01 A2993 RMK AO2 SLP138 T00390006 10094 20033 401891006 56022
2026-03-20 04:52:00,METAR KDPA 200452Z 00000KT 10SM CLR 04/01 A2995 RMK AO2 SLP145 T00440006
2026-03-20 03:52:00,METAR KDPA 200352Z 00000KT 10SM CLR 04/00 A2997 RMK AO2 SLP153 T00440000
2026-03-20 02:52:00,METAR KDPA 200252Z 04004KT 10SM CLR 04/00 A3000 RMK AO2 SLP163 T00440000 58007
2026-03-20 01:52:00,METAR KDPA 200152Z 07005KT 10SM CLR 07/M01 A3001 RMK AO2 SLP168 T00671006
2026-03-20 00:52:00,METAR KDPA 200052Z 08006KT 10SM CLR 08/M01 A3003 RMK AO2 SLP173 T00781006
2026-03-19 23:52:00,METAR KDPA 192352Z AUTO 08008KT 10SM CLR 09/01 A3002 RMK AO2 SLP171 T00940011 10189 20094 58001
2026-03-19 22:52:00,METAR KDPA 192252Z 07010KT 9SM CLR 12/03 A3004 RMK AO2 SLP175 T01220028
2026-03-19 21:52:00,METAR KDPA 192152Z 08013KT 9SM CLR 16/03 A3003 RMK AO2 WSHFT 2059 SLP174 T01560033
2026-03-19 21:19:00,SPECI KDPA 192119Z 07011KT 9SM CLR 16/04 A3003 RMK AO2 WSHFT 2059 T01610039
2026-03-19 20:52:00,METAR KDPA 192052Z 14007KT 10SM CLR 19/05 A3002 RMK AO2 SLP169 T01890050 58016
2026-03-19 19:52:00,METAR KDPA 191952Z 15004KT 10SM CLR 18/04 A3003 RMK AO2 SLP172 T01780044
2026-03-19 18:52:00,METAR KDPA 191852Z 05003KT 10SM CLR 17/04 A3006 RMK AO2 SLP183 T01670039
2026-03-19 17:52:00,METAR KDPA 191752Z VRB03KT 10SM CLR 16/04 A3007 RMK AO2 SLP186 6//// T01560039 10156 21006 55005
2026-03-19 16:52:00,METAR KDPA 191652Z 13005KT 10SM CLR 14/04 A3007 RMK AO2 SLP185 T01390039
2026-03-19 15:52:00,METAR KDPA 191552Z VRB03KT 10SM CLR 11/03 A3008 RMK AO2 SLP190 T01060033
2026-03-19 14:52:00,METAR KDPA 191452Z VRB03KT 9SM CLR 07/02 A3008 RMK AO2 SLP193 6//// T00720017 51018
2026-03-19 13:52:00,METAR KDPA 191352Z 18003KT 8SM CLR 05/01 A3007 RMK AO2 SLP190 T00500011 PNO
2026-03-19 12:52:00,METAR KDPA 191252Z 00000KT 6SM BR FEW080 02/00 A3005 RMK AO2 SLP183 T00170000 PNO
2026-03-19 11:52:00,METAR KDPA 191152Z 15004KT 7SM CLR 01/M01 A3003 RMK AO2 SLP175 6//// 7//// T00061011 10017 21006 58000 PNO
2026-03-19 10:52:00,METAR KDPA 191052Z 19004KT 8SM BKN100 01/M01 A3004 RMK AO2 SLP180 T00111006 PNO $
2026-03-19 09:52:00,METAR KDPA 190952Z 09005KT 8SM BKN095 01/M01 A3002 RMK AO2 SLP171 T00111011 PNO $
2026-03-19 08:52:00,METAR KDPA 190852Z 00000KT 7SM CLR 01/M01 A3003 RMK AO2 SLP175 6//// T00061011 58002 PNO $
2026-03-19 07:52:00,METAR KDPA 190752Z 00000KT 8SM SCT110 01/M01 A3003 RMK AO2 SLP176 T00111011 PNO $
2026-03-19 06:52:00,METAR KDPA 190652Z 00000KT 9SM SCT120 01/M01 A3004 RMK AO2 SLP179 T00111006 PNO $
2026-03-19 05:52:00,METAR KDPA 190552Z 02004KT 10SM CLR 01/M01 A3004 RMK AO2 SLP179 6//// T00111006 10044 20006 400671050 56004 PNO $
2026-03-19 04:52:00,METAR KDPA 190452Z 31003KT 10SM CLR 01/M01 A3005 RMK AO2 SLP182 T00111006 PNO $
2026-03-19 03:52:00,METAR KDPA 190352Z 00000KT 10SM CLR 01/M01 A3004 RMK AO2 SLP180 T00111011 PNO $
2026-03-19 02:52:00,METAR KDPA 190252Z 00000KT 10SM CLR 02/M01 A3005 RMK AO2 SLP184 6//// T00221011 51012 PNO $
2026-03-19 01:52:00,METAR KDPA 190152Z 34006KT 10SM CLR 02/M01 A3005 RMK AO2 SLP182 T00221011 PNO $
2026-03-19 00:52:00,METAR KDPA 190052Z 31006KT 10SM CLR 03/M01 A3003 RMK AO2 SLP178 T00331006 PNO $
2026-03-18 23:52:00,METAR KDPA 182352Z 27009KT 10SM CLR 04/00 A3002 RMK AO2 SLP172 6//// T00440000 10067 20022 53015 PNO $
2026-03-18 22:52:00,METAR KDPA 182252Z 24009KT 10SM CLR 06/00 A2999 RMK AO2 SLP162 T00610000 PNO $
2026-03-18 21:52:00,METAR KDPA 182152Z 25009KT 10SM CLR 06/00 A2997 RMK AO2 SLP157 T00610000 PNO $
2026-03-18 20:52:00,METAR KDPA 182052Z 25007KT 10SM CLR 06/M01 A2997 RMK AO2 SLP158 6//// T00611006 55007 PNO $
2026-03-18 19:52:00,METAR KDPA 181952Z 20006KT 10SM OVC038 06/M01 A2996 RMK AO2 SLP155 T00561011 PNO $
2026-03-18 18:52:00,METAR KDPA 181852Z 22007KT 10SM OVC040 04/M02 A2998 RMK AO2 SLP160 T00391017 PNO $
2026-03-18 17:52:00,METAR KDPA 181752Z 19010KT 10SM BKN044 02/M03 A2999 RMK AO2 SLP165 6//// T00221028 10022 21044 56005 PNO $
2026-03-18 16:52:00,METAR KDPA 181652Z 18015G22KT CLR 01/M04 A3000 RMK AO2 SLP166 T00061044 RVRNO PNO $
2026-03-18 15:52:00,METAR KDPA 181552Z 18014KT BKN055 M01/M05 A3000 RMK AO2 SLP170 T10111050 RVRNO PNO $
2026-03-18 14:52:00,METAR KDPA 181452Z 17011G23KT 10SM BKN031 OVC060 M03/M06 A3001 RMK AO2 SLP172 6//// T10281056 58003 PNO
2026-03-18 13:52:00,METAR KDPA 181352Z 16014KT 9SM BKN030 BKN047 OVC060 M03/M06 A3001 RMK AO2 SNB05E47 SLP174 T10331061 PNO
2026-03-18 12:52:00,METAR KDPA 181252Z 17012KT 7SM BKN036 OVC050 M04/M07 A3002 RMK AO2 SLP175 T10391067 PNO
2026-03-18 12:20:00,SPECI KDPA 181220Z 17011KT 10SM SCT012 BKN040 OVC060 M04/M07 A3001 RMK AO2 T10441067 PNO
2026-03-18 11:52:00,METAR KDPA 181152Z 17014KT 10SM OVC011 M04/M06 A3002 RMK AO2 SNE1054 SLP176 6//// 7//// T10441061 11044 21050 56008 PNO
2026-03-18 11:06:00,SPECI KDPA 181106Z 16011KT 10SM BKN011 OVC043 M04/M06 A3002 RMK AO2 SNE1054 T10441061 PNO $
2026-03-18 10:52:00,METAR KDPA 181052Z 16009KT 5SM -SN BR SCT015 OVC043 M05/M06 A3002 RMK AO2 SNB04 SLP176 T10501061 PNO $
2026-03-18 10:44:00,SPECI KDPA 181044Z 16010KT 3SM -SN BR FEW010 SCT018 OVC043 M05/M06 A3002 RMK AO2 SNB04 T10501061 PNO $
2026-03-18 10:17:00,SPECI KDPA 181017Z 17011KT 2 1/2SM -SN BR SCT010 OVC015 M04/M06 A3002 RMK AO2 SNB04 T10441061 PNO $
2026-03-18 09:52:00,METAR KDPA 180952Z 17011KT 10SM BKN011 OVC037 M04/M06 A3002 RMK AO2 SNE11B20E34 SLP178 T10441061 PNO $
2026-03-18 09:16:00,SPECI KDPA 180916Z 17011KT 9SM BKN012 OVC035 M05/M07 A3003 RMK AO2 SNE11 T10501067 PNO $
2026-03-18 08:52:00,METAR KDPA 180852Z 16010KT 5SM -SN BR SCT011 OVC044 M05/M07 A3004 RMK AO2 SLP185 6//// T10501067 58023 PNO $
2026-03-18 08:06:00,SPECI KDPA 180806Z 17010KT 3SM -SN BR FEW009 OVC033 M05/M07 A3006 RMK AO2 T10501067 PNO $
2026-03-18 07:59:00,SPECI KDPA 180759Z 17009KT 2SM -SN BR OVC034 M05/M07 A3007 RMK AO2 T10501067 PNO $
2026-03-18 07:52:00,METAR KDPA 180752Z 18011KT 3SM -SN BR BKN034 OVC060 M05/M07 A3007 RMK AO2 SLP194 T10501067 PNO $
2026-03-18 07:42:00,SPECI KDPA 180742Z 18012KT 4SM -SN BR BKN042 OVC060 M05/M07 A3007 RMK AO2 T10501072 PNO $
2026-03-18 07:35:00,SPECI KDPA 180735Z 18011KT 2 1/2SM -SN BR BKN040 OVC060 M05/M07 A3008 RMK AO2 T10501067 PNO $
2026-03-18 06:52:00,METAR KDPA 180652Z 18010KT 3SM -SN BR OVC032 M05/M07 A3009 RMK AO2 SLP201 T10501072 PNO $
2026-03-18 06:44:00,SPECI KDPA 180644Z 18010KT 2 1/2SM -SN BR OVC032 M05/M07 A3010 RMK AO2 T10501072 PNO $
2026-03-18 06:30:00,SPECI KDPA 180630Z 18011KT 3SM -SN BR FEW012 OVC030 M05/M07 A3010 RMK AO2 T10501072 PNO $
2026-03-18 06:00:00,SPECI KDPA 180600Z 18010KT 2 1/2SM -SN BR FEW014 OVC026 M05/M07 A3011 RMK AO2 T10501072 PNO $
2026-03-18 05:52:00,METAR KDPA 180552Z 18009KT 3SM -SN BR OVC026 M05/M07 A3011 RMK AO2 SNB01 SLP209 6//// T10501072 11050 21061 410501111 58013 PNO $
2026-03-18 05:28:00,SPECI KDPA 180528Z 18012KT 2SM -SN OVC024 M05/M08 A3013 RMK AO2 SNB01 T10501078 PNO $
2026-03-18 04:52:00,METAR KDPA 180452Z 20013KT 10SM BKN055 OVC070 M05/M10 A3014 RMK AO2 SLP217 T10501100 PNO $
2026-03-18 03:52:00,METAR KDPA 180352Z 20008KT 10SM OVC075 M05/M11 A3015 RMK AO2 SLP223 T10501106 PNO $
2026-03-18 02:52:00,METAR KDPA 180252Z 18007KT 10SM BKN080 OVC090 M06/M12 A3015 RMK AO2 SLP223 6//// T10561117 55007 PNO $
2026-03-18 01:52:00,METAR KDPA 180152Z 20005KT 10SM OVC100 M06/M12 A3015 RMK AO2 SLP223 T10611122 PNO $
2026-03-18 00:52:00,METAR KDPA 180052Z 22008KT 10SM OVC100 M06/M13 A3017 RMK AO2 SLP229 T10611128 PNO $
2026-03-17 23:52:00,METAR KDPA 172352Z 23008KT 10SM OVC110 M06/M14 A3017 RMK AO2 SLP230 6//// T10611144 11061 21072 53003 PNO $
2026-03-17 22:52:00,METAR KDPA 172252Z 22008KT 10SM FEW120 M06/M14 A3017 RMK AO2 SLP229 T10611144 PNO $
2026-03-17 21:52:00,METAR KDPA 172152Z 23011KT 10SM CLR M06/M14 A3016 RMK AO2 SLP226 T10611139 PNO $
2026-03-17 20:52:00,METAR KDPA 172052Z 21007KT 10SM CLR M06/M15 A3016 RMK AO2 SLP227 6//// T10611150 58009 PNO $
2026-03-17 19:52:00,METAR KDPA 171952Z 28008KT 10SM CLR M07/M16 A3018 RMK AO2 SLP232 T10671156 PNO $
2026-03-17 18:52:00,METAR KDPA 171852Z 26011KT 10SM CLR M07/M17 A3020 RMK AO2 SLP240 T10671172 PNO $
2026-03-17 17:52:00,METAR KDPA 171752Z 25010G14KT 10SM CLR M07/M17 A3019 RMK AO2 SLP237 6//// T10721167 11072 21111 51014 PNO $
2026-03-17 16:52:00,METAR KDPA 171652Z COR 28007KT 10SM CLR M08/M16 A3018 RMK AO2 SLP232 T10781156 PNO $
2026-03-17 15:52:00,METAR KDPA 171552Z 30007KT CLR M08/M16 A3017 RMK AO2 SLP230 T10831156 RVRNO PNO $
2026-03-17 14:52:00,METAR KDPA 171452Z 30005KT 10SM CLR M10/M16 A3015 RMK AO2 SLP223 6//// T11001161 51023 PNO
2026-03-17 13:52:00,METAR KDPA 171352Z 31009KT 10SM CLR M11/M16 A3013 RMK AO2 SLP216 T11061161 PNO
2026-03-17 12:52:00,METAR KDPA 171252Z 31007KT 10SM CLR M11/M16 A3011 RMK AO2 SLP210 T11111156 PNO
2026-03-17 11:52:00,METAR KDPA 171152Z 30009KT 10SM CLR M11/M14 A3008 RMK AO2 SLP199 6//// 7//// T11111144 11078 21111 53022 PNO $
2026-03-17 10:52:00,METAR KDPA 171052Z 31010KT 10SM CLR M11/M13 A3006 RMK AO2 SLP191 T11061133 PNO $
2026-03-17 09:52:00,METAR KDPA 170952Z 31012KT 10SM FEW025 SCT031 OVC065 M09/M14 A3003 RMK AO2 SLP180 T10891144 PNO $
2026-03-17 08:52:00,METAR KDPA 170852Z 32012KT 10SM OVC065 M08/M14 A3001 RMK AO2 SLP175 6//// T10831139 53019 PNO $
2026-03-17 07:52:00,METAR KDPA 170752Z 33010KT 9SM OVC060 M08/M16 A3000 RMK AO2 SNE04 SLP169 T10831161 PNO $
2026-03-17 06:52:00,METAR KDPA 170652Z 32008KT 9SM SN OVC055 M08/M14 A2997 RMK AO2 SLP160 T10781144 PNO $
2026-03-17 06:02:00,SPECI KDPA 170602Z 32010KT 5SM SN SCT024 BKN031 OVC043 M08/M12 A2996 RMK AO2 T10781117 PNO $
2026-03-17 05:52:00,METAR KDPA 170552Z 32011KT 4SM SN BKN020 BKN031 OVC037 M08/M12 A2996 RMK AO2 SNB0456 SLP156 6//// T10781117 11050 21078 410171078 51009 PNO $
2026-03-17 05:48:00,SPECI KDPA 170548Z 32011KT 3SM SN BKN020 OVC031 M08/M11 A2996 RMK AO2 SNB0456 PNO $
2026-03-17 05:30:00,SPECI KDPA 170530Z 30010KT 1 3/4SM SN SCT016 BKN022 OVC029 M08/M11 A2996 RMK AO2 SNB0456 T10781111 PNO $
2026-03-17 05:12:00,SPECI KDPA 170512Z 33012KT 3SM SN SCT012 OVC026 M08/M12 A2995 RMK AO2 SNB0456 T10781117 PNO $
2026-03-17 04:56:00,SPECI KDPA 170456Z 34011KT 1 3/4SM SN SCT014 BKN027 OVC042 M08/M11 A2995 RMK AO2 VIS 1V4 SNB56 T10781111 PNO $
2026-03-17 04:52:00,METAR KDPA 170452Z AUTO 32013KT 3SM HZ SCT016 BKN027 OVC035 M07/M11 A2995 RMK AO2 SLP153 T10721111 PNO $
2026-03-17 03:52:00,METAR KDPA 170352Z 30012KT 10SM OVC042 M07/M13 A2993 RMK AO2 SLP146 T10671128 PNO $
2026-03-17 02:52:00,METAR KDPA 170252Z 29014G24KT 10SM OVC040 M07/M13 A2991 RMK AO2 SLP140 6//// T10671128 51027 PNO $
2026-03-17 01:52:00,METAR KDPA 170152Z 30015G26KT 10SM OVC037 M06/M13 A2989 RMK AO2 PK WND 30028/0129 SLP134 T10611128 PNO $
2026-03-17 00:52:00,METAR KDPA 170052Z 28014G21KT 10SM FEW027 OVC038 M06/M11 A2987 RMK AO2 PK WND 28026/0037 SLP126 T10611106 PNO $
2026-03-16 23:52:00,METAR KDPA 162352Z 29015G24KT 10SM FEW028 OVC037 M05/M09 A2983 RMK AO2 PK WND 29030/2321 SLP112 6//// T10501094 11028 21050 53021 PNO $
2026-03-16 22:52:00,METAR KDPA 162252Z 28016G27KT 10SM SCT024 BKN036 OVC075 M04/M09 A2981 RMK AO2 PK WND 29030/2230 SLP104 T10441089 PNO $
2026-03-16 22:44:00,SPECI KDPA 162244Z 29019G27KT 10SM SCT022 SCT028 OVC036 M04/M09 A2980 RMK AO2 PK WND 29030/2230 T10441089 PNO $
2026-03-16 22:23:00,SPECI KDPA 162223Z 29018G28KT 10SM FEW021 BKN026 OVC032 M04/M08 A2979 RMK AO2 PK WND 29030/2205 T10441083 PNO $
2026-03-16 21:52:00,METAR KDPA 162152Z 28017G27KT 10SM FEW026 OVC035 M03/M09 A2977 RMK AO2 PK WND 32034/2055 UPE2053 SLP091 T10281089 PNO $
2026-03-16 21:50:00,SPECI KDPA 162150Z 31018G30KT 10SM FEW026 OVC037 M03/M09 A2977 RMK AO2 PK WND 32034/2055 UPE2053 PNO $
2026-03-16 21:43:00,SPECI KDPA 162143Z 31022G32KT 10SM BKN028 OVC037 M03/M09 A2977 RMK AO2 PK WND 32034/2055 UPE2053 T10281089 PNO $
2026-03-16 20:52:00,METAR KDPA 162052Z 32022G30KT 10SM UP OVC034 M03/M09 A2974 RMK AO2 PK WND 32035/2023 UPB1958E03B21SNE1958B03E21 SLP081 6//// T10281089 53021 PNO $
2026-03-16 19:52:00,METAR KDPA 161952Z 31020G30KT -SN FEW024 SCT030 OVC037 M03/M08 A2971 RMK AO2 PK WND 31035/1904 UPB01E04SNE00B04 SLP069 T10281078 RVRNO PNO $
2026-03-16 19:22:00,SPECI KDPA 161922Z 31020G32KT 4SM -SN SCT024 OVC032 M03/M07 A2969 RMK AO2 PK WND 31035/1904 UPB01E04SNE00B04 T10331072 PNO
2026-03-16 19:15:00,SPECI KDPA 161915Z 32021G33KT 2 1/2SM -SN SCT024 BKN030 OVC037 M03/M08 A2969 RMK AO2 PK WND 31035/1904 UPB01E04SNE00B04 T10331078 PNO
2026-03-16 19:08:00,SPECI KDPA 161908Z 31021G35KT 3SM -SN BKN026 OVC033 M04/M08 A2969 RMK AO2 PK WND 31035/1904 UPB01E04SNE00B04 T10391078 PNO
2026-03-16 18:52:00,METAR KDPA 161852Z 32022G37KT 4SM -SN SCT023 OVC032 M04/M08 A2968 RMK AO2 PK WND 32037/1850 UPB01E02SNB02 SLP060 T10391083 PNO
2026-03-16 18:39:00,SPECI KDPA 161839Z 32021G32KT 3SM -SN SCT024 OVC032 M04/M07 A2967 RMK AO2 PK WND 31036/1823 UPB01E02SNB02 T10391072 PNO $
2026-03-16 18:34:00,SPECI KDPA 161834Z 31021G32KT 2SM -SN BKN027 OVC036 M04/M07 A2967 RMK AO2 PK WND 31036/1823 UPB01E02SNB02 T10391072 PNO $
2026-03-16 18:04:00,SPECI KDPA 161804Z 31022G33KT 2SM -SN FEW025 BKN032 OVC039 M04/M08 A2966 RMK AO2 PK WND 31033/1802 UPB01E02SNB02 T10391078 PNO $
2026-03-16 17:52:00,METAR KDPA 161752Z 31021G38KT BLSN SCT029 BKN037 OVC046 M03/M09 A2966 RMK AO2 PK WND 31038/1747 SLP050 6//// T10331089 11033 21050 51022 RVRNO PNO $
2026-03-16 16:52:00,METAR KDPA 161652Z 32020G34KT 4SM BLSN SCT023 BKN030 OVC036 M04/M08 A2963 RMK AO2 PK WND 31036/1612 SLP043 T10391078 PNO $
2026-03-16 16:46:00,SPECI KDPA 161646Z 31022G34KT 2 1/2SM BLSN FEW021 BKN028 OVC038 M04/M08 A2963 RMK AO2 PK WND 31036/1612 PNO $
2026-03-16 16:31:00,SPECI KDPA 161631Z 31019G34KT 5SM BLSN FEW021 BKN032 OVC039 M04/M08 A2963 RMK AO2 PK WND 31036/1612 T10391078 PNO $
2026-03-16 16:07:00,SPECI KDPA 161607Z 30021G32KT 4SM BLSN BKN021 OVC036 M04/M07 A2962 RMK AO2 PK WND 30032/1607 T10391072 PNO $
2026-03-16 15:52:00,METAR KDPA 161552Z 30020G31KT 2 1/2SM BLSN SCT022 BKN028 OVC034 M04/M07 A2962 RMK AO2 PK WND 29031/1552 SLP037 T10391067 PNO $
2026-03-16 14:52:00,METAR KDPA 161452Z 32019G29KT 3SM BLSN SCT017 BKN024 OVC031 M04/M07 A2959 RMK AO2 PK WND 30032/1432 SLP028 6//// T10441072 51045 PNO $
2026-03-16 14:44:00,SPECI KDPA 161444Z 31016G27KT 2 1/2SM BLSN FEW017 BKN027 OVC034 M04/M07 A2958 RMK AO2 PK WND 30032/1432 T10441072 PNO $
2026-03-16 14:28:00,SPECI KDPA 161428Z 29019G30KT 1 3/4SM BLSN SCT020 BKN029 OVC034 M04/M07 A2958 RMK AO2 PK WND 29030/1428 T10441067 PNO $
2026-03-16 13:57:00,SPECI KDPA 161357Z 30014G22KT 3SM BLSN FEW017 BKN030 OVC038 M04/M07 A2956 RMK AO2 T10441072 PNO $
2026-03-16 13:52:00,METAR KDPA 161352Z 30014G26KT 2SM BLSN FEW017 BKN028 OVC036 M04/M07 A2956 RMK AO2 PK WND 30030/1254 SLP018 T10441072 PNO $
2026-03-16 13:45:00,SPECI KDPA 161345Z 31020G29KT 1 3/4SM BLSN FEW017 BKN028 OVC035 M05/M08 A2956 RMK AO2 PK WND 30030/1254 T10501078 PNO $
2026-03-16 12:52:00,METAR KDPA 161252Z 31019G31KT 2 1/2SM BLSN FEW018 SCT023 OVC034 M05/M07 A2951 RMK AO2 PK WND 32031/1155 UPB1159E08B19E33SNE1159B15E19 PRESRR SLP002 T10501072 PNO $
2026-03-16 12:40:00,SPECI KDPA 161240Z 31017G29KT 2 1/2SM BLSN FEW016 BKN042 OVC070 M05/M08 A2950 RMK AO2 PK WND 32031/1155 UPB1159E08B19E33SNE1159B15E19 T10501078 PNO $
2026-03-16 12:12:00,SPECI KDPA 161212Z 31018G31KT 3SM BR FEW017 FEW024 OVC046 M05/M07 A2947 RMK AO2 PK WND 32031/1155 UPB1159E08SNE1159 P0000 T10501072
2026-03-16 12:02:00,SPECI KDPA 161202Z 32021G31KT 2 1/2SM UP BR FEW015 OVC041 M05/M07 A2946 RMK AO2 PK WND 32031/1155 VIS 2V5 UPB1159SNE1159 P0000 T10501072
2026-03-16 11:52:00,METAR KDPA 161152Z 31022G31KT 1 3/4SM -SN BR FEW015 SCT021 OVC036 M05/M07 A2945 RMK AO2 PK WND 33032/1115 SLP982 P0000 60003 7//// T10501072 11017 21050 53037
2026-03-16 10:52:00,METAR KDPA 161052Z 32021G33KT 1SM -SN BR FEW019 OVC027 M04/M06 A2941 RMK AO2 PK WND 32036/1027 SLP966 P0000 T10441061 RVRNO $
2026-03-16 10:44:00,SPECI KDPA 161044Z 32023G35KT 1SM -SN BR FEW017 OVC029 M04/M06 A2940 RMK AO2 PK WND 32036/1027 P0000 T10441061 RVRNO $
2026-03-16 09:59:00,SPECI KDPA 160959Z 31020G27KT 2SM SN BR SCT016 SCT022 OVC029 M03/M05 A2936 RMK AO2 PK WND 31027/0959 P0000 T10331050 $
2026-03-16 09:52:00,METAR KDPA 160952Z AUTO 32019G28KT 3SM SN BR FEW016 OVC031 M03/M06 A2936 RMK AO2 PK WND 32032/0936 SLP948 P0000 T10331056 $
2026-03-16 09:48:00,SPECI KDPA 160948Z AUTO 32021G31KT 3SM SN BR FEW016 OVC031 M03/M06 A2937 RMK AO2 PK WND 32032/0936 P0000 $
2026-03-16 09:25:00,SPECI KDPA 160925Z 31019G26KT 2SM SN BR OVC016 M03/M05 A2936 RMK AO2 PK WND 30029/0906 P0000 T10331050 $
2026-03-16 09:18:00,SPECI KDPA 160918Z 31016KT 1 1/4SM SN BR OVC011 M03/M05 A2936 RMK AO2 PK WND 30029/0906 P0000 T10331050 $
2026-03-16 09:10:00,SPECI KDPA 160910Z 31017G29KT 1SM SN BR VV009 M03/M04 A2936 RMK AO2 PK WND 30029/0906 P0000 T10331044 RVRNO $
2026-03-16 09:04:00,SPECI KDPA 160904Z 31016G28KT 3/4SM SN BR VV010 M03/M04 A2936 RMK AO2 PK WND 30028/0857 P0000 T10331044 RVRNO $
2026-03-16 08:52:00,METAR KDPA 160852Z 31018G27KT 1 1/4SM SN BR OVC013 M03/M05 A2934 RMK AO2 PK WND 31030/0816 SLP940 P0000 60003 T10331050 51022 $
2026-03-16 08:19:00,SPECI KDPA 160819Z 30018G30KT 1SM SN BR VV010 M03/M04 A2935 RMK AO2 PK WND 31030/0816 P0000 T10331044 RVRNO $
2026-03-16 07:52:00,METAR KDPA 160752Z 31019G28KT 3/4SM SN BR VV010 M03/M04 A2933 RMK AO2 PK WND 32028/0751 SLP936 P0002 T10281039 RVRNO $
2026-03-16 07:34:00,SPECI KDPA 160734Z 30017G24KT 1SM SN BR VV010 M03/M04 A2935 RMK AO2 P0001 T10281039 RVRNO $
2026-03-16 06:52:00,METAR KDPA 160652Z 28012KT 3/4SM SN BR VV009 M02/M03 A2934 RMK AO2 SLP939 P0001 T10221033 RVRNO $
2026-03-16 06:45:00,SPECI KDPA 160645Z 28013G20KT 3/4SM SN BR BKN009 OVC018 M02/M03 A2934 RMK AO2 P0001 T10221033 RVRNO $
2026-03-16 06:38:00,SPECI KDPA 160638Z 29012KT 1 1/4SM SN BR BKN011 OVC018 M02/M03 A2932 RMK AO2 P0001 T10221033 $
2026-03-16 06:31:00,SPECI KDPA 160631Z 31012G19KT 1 3/4SM SN BR BKN016 OVC020 M02/M03 A2931 RMK AO2 P0000 T10171033 $
2026-03-16 05:52:00,METAR KDPA 160552Z 33013KT 5SM SN BR BKN015 OVC021 M02/M03 A2928 RMK AO2 PK WND 34027/0458 SLP917 P0000 6//// T10171033 10017 21017 401561017 56016 $
2026-03-16 05:47:00,SPECI KDPA 160547Z 33014G22KT 5SM SN BR BKN014 OVC019 M02/M03 A2930 RMK AO2 PK WND 34027/0458 PRESRR P0000 $
2026-03-16 05:35:00,SPECI KDPA 160535Z 34014G24KT 3SM SN BR SCT012 BKN019 OVC036 M02/M03 A2927 RMK AO2 PK WND 34027/0458 PRESRR P0000 T10171028 $
2026-03-16 05:28:00,SPECI KDPA 160528Z 34015G27KT 2 1/2SM SN BR BKN016 BKN022 OVC038 M02/M03 A2924 RMK AO2 PK WND 34027/0458 P0000 T10171028 $
2026-03-16 05:14:00,SPECI KDPA 160514Z 35016G24KT 2SM SN BR FEW009 BKN013 OVC037 M02/M03 A2925 RMK AO2 PK WND 34027/0458 P0000 T10171028 $
2026-03-16 05:07:00,SPECI KDPA 160507Z 34017G27KT 2SM SN BR SCT013 BKN018 OVC037 M01/M02 A2926 RMK AO2 PK WND 34027/0458 P0000 T10111022 $
2026-03-16 04:52:00,METAR KDPA 160452Z 35018KT 4SM SN BR FEW010 SCT015 OVC033 M01/M03 A2927 RMK AO2 PK WND 33027/0438 PRESFR SLP917 T10111028 PNO $
2026-03-16 04:45:00,SPECI KDPA 160445Z 35018G27KT 5SM SN BR FEW009 SCT015 OVC031 M01/M02 A2930 RMK AO2 PK WND 33027/0438 T10111022 PNO $
2026-03-16 04:37:00,SPECI KDPA 160437Z 34019G25KT 3SM SN BR FEW009 SCT020 OVC029 M01/M02 A2931 RMK AO2 PK WND 36026/0405 T10111022 PNO $
2026-03-16 04:20:00,SPECI KDPA 160420Z 34017G25KT 2 1/2SM SN BR FEW009 BKN016 OVC021 M01/M02 A2929 RMK AO2 PK WND 36026/0405 PRESFR T10111017 PNO $
2026-03-16 04:07:00,SPECI KDPA 160407Z 34017G26KT 2 1/2SM SN BR BKN013 OVC019 M01/M02 A2931 RMK AO2 PK WND 36026/0405 T10061017 PNO $
2026-03-16 03:58:00,SPECI KDPA 160358Z 33012G23KT 3SM SN BR FEW009 OVC015 M01/M02 A2933 RMK AO2 T10061017 PNO $
2026-03-16 03:52:00,METAR KDPA 160352Z 35016G23KT 2 1/2SM SN BR BKN014 OVC028 M01/M02 A2932 RMK AO2 PK WND 36032/0326 UPB29E31SNE29B31 PRESRR SLP934 P0002 T10061017
2026-03-16 03:44:00,SPECI KDPA 160344Z 35015KT 2 1/2SM SN BR SCT011 BKN017 OVC026 00/M01 A2931 RMK AO2 PK WND 36032/0326 UPB29E31SNE29B31 P0002 T00001011
2026-03-16 03:35:00,SPECI KDPA 160335Z 36019G32KT 3SM SN BR FEW009 BKN014 OVC034 00/M02 A2931 RMK AO2 PK WND 36032/0326 UPB29E31SNE29B31 P0002 T00001017
2026-03-16 03:32:00,SPECI KDPA 160332Z 35021G32KT 2 1/2SM SN BR FEW009 BKN025 OVC034 00/M01 A2930 RMK AO2 PK WND 36032/0326 UPB29E31SNE29B31 P0002 T00001011
2026-03-16 03:17:00,SPECI KDPA 160317Z 35017G29KT 1 3/4SM -SN BR SCT009 OVC015 00/M01 A2930 RMK AO2 PK WND 34029/0314 P0001 T00001011
2026-03-16 02:56:00,SPECI KDPA 160256Z 35022G29KT 1 3/4SM -SN BR OVC012 01/M01 A2930 RMK AO2 PK WND 35029/0256 P0000 T00061006
2026-03-16 02:52:00,METAR KDPA 160252Z 34018G27KT 3SM -SN BR OVC012 01/M01 A2931 RMK AO2 PK WND 01029/0212 RAE51SNB36 SLP929 P0004 60037 T00061006 55001
2026-03-16 01:52:00,METAR KDPA 160152Z 02018G26KT 5SM RA BR BKN013 OVC026 01/00 A2926 RMK AO2 PK WND 02027/0119 SLP910 P0016 T00110000
2026-03-16 00:52:00,METAR KDPA 160052Z 36017G27KT 4SM RA BR BKN012 OVC021 01/00 A2932 RMK AO2 PK WND 01027/0046 LTG DSNT E AND SE SLP932 P0017 T00110000
2026-03-15 23:52:00,METAR KDPA 152352Z 02015KT 7SM -RA BKN010 OVC036 02/01 A2931 RMK AO2 PK WND 02026/2324 LTG DSNT E TSE2253B03E18 SLP932 P0017 60078 T00170006 10156 20017 53008
2026-03-15 23:35:00,SPECI KDPA 152335Z 02014KT 7SM -RA BKN006 BKN010 OVC029 02/01 A2931 RMK AO2 PK WND 02026/2324 LTG DSNT SE TSE2253B03E18 P0015 T00170011
2026-03-15 23:23:00,SPECI KDPA 152323Z 02019G25KT 5SM RA BR SCT006 BKN011 OVC019 02/01 A2931 RMK AO2 LTG DSNT NE AND E TSE2253B03E18 P0014 T00220011
2026-03-15 23:18:00,SPECI KDPA 152318Z 01015KT 3SM VCTS RA BR BKN008 BKN012 OVC024 02/01 A2933 RMK AO2 LTG DSNT NE AND E TSE2253B03E18 P0013 T00220011
2026-03-15 23:05:00,SPECI KDPA 152305Z 02009G19KT 2 1/2SM +TSRA BR BKN006 OVC040 02/02 A2932 RMK AO2 LTG DSNT ALQDS TSE2253B03 PRESRR P0007 T00220017
2026-03-15 22:54:00,SPECI KDPA 152254Z 02017KT 3SM VCTS +RA BR FEW006 OVC038 02/02 A2928 RMK AO2 LTG DSNT ALQDS TSE53 P0000 T00220017
2026-03-15 22:52:00,METAR KDPA 152252Z 03016KT 3SM +TSRA BR OVC038 02/02 A2928 RMK AO2 LTG DSNT ALQDS TSB33 PRESFR SLP919 P0043 T00220017
2026-03-15 22:48:00,SPECI KDPA 152248Z 03017KT 3SM +TSRA BR OVC034 02/02 A2928 RMK AO2 LTG DSNT ALQDS TSB33 PRESFR P0041
2026-03-15 22:39:00,SPECI KDPA 152239Z 03015G25KT 2SM +TSRA BR FEW006 OVC025 03/02 A2931 RMK AO2 LTG DSNT E-SW TSB33 PRESFR P0035 T00280017
2026-03-15 22:32:00,SPECI KDPA 152232Z 35016G25KT 2SM VCTS +RA BR SCT007 OVC016 03/02 A2934 RMK AO2 LTG DSNT ALQDS P0027 T00280022
2026-03-15 22:23:00,SPECI KDPA 152223Z 33015G25KT 2SM VCTS +RA BR OVC007 03/03 A2935 RMK AO2 LTG DSNT SW-N PRESRR P0014 T00330028
2026-03-15 22:00:00,SPECI KDPA 152200Z 02013KT 4SM -RA BR BKN005 OVC018 04/04 A2928 RMK AO2 LTG DSNT W P0001 T00390039
2026-03-15 21:52:00,METAR KDPA 152152Z 01013KT 3SM -RA BR SCT005 OVC017 04/04 A2929 RMK AO2 WSHFT 2039 LTG DSNT W SLP923 P0011 T00440039
2026-03-15 21:47:00,SPECI KDPA 152147Z 36016KT 2 1/2SM RA BR SCT005 OVC017 04/04 A2929 RMK AO2 WSHFT 2039 P0011
2026-03-15 21:40:00,SPECI KDPA 152140Z 36014KT 3SM RA BR SCT005 OVC017 04/04 A2930 RMK AO2 WSHFT 2039 P0009 T00440039
2026-03-15 21:01:00,SPECI KDPA 152101Z 34017G23KT 2SM RA BR FEW008 BKN026 OVC036 07/06 A2930 RMK AO2 WSHFT 2039 LTG DSNT N AND NE P0002 T00670061
2026-03-15 20:54:00,SPECI KDPA 152054Z 32017G32KT 3SM +RA BR FEW007 BKN026 OVC036 08/07 A2930 RMK AO2 WSHFT 2039 LTG DSNT N PRESRR P0000 T00830072
2026-03-15 20:52:00,METAR KDPA 152052Z 33013G32KT 1 1/2SM RA BR FEW008 SCT027 OVC036 08/07 A2929 RMK AO2 PK WND 31032/2046 WSHFT 2034 LTG DSNT N RAE15B50 PRESRR SLP923 P0003 60007 T00830072 55012
2026-03-15 20:28:00,SPECI KDPA 152028Z 19020G29KT 10SM VCTS SCT027 OVC037 15/13 A2923 RMK AO2 PK WND 19029/2028 LTG DSNT W-N RAE15 P0001 T01500128
2026-03-15 19:52:00,METAR KDPA 151952Z 19015G25KT 8SM -RA BKN026 OVC035 14/12 A2926 RMK AO2 PK WND 18027/1922 SLP910 P0004 T01440122
2026-03-15 18:52:00,METAR KDPA 151852Z 18015G26KT 10SM -RA FEW022 FEW027 OVC037 14/12 A2929 RMK AO2 PK WND 17031/1826 RAB1757 SLP921 P0000 T01390117
2026-03-15 17:52:00,METAR KDPA 151752Z 18015G24KT 10SM FEW026 OVC036 13/11 A2933 RMK AO2 RAB26E45 SLP933 P0000 60015 T01280111 10128 20028 56021
2026-03-15 16:52:00,METAR KDPA 151652Z 17016G23KT 10SM SCT024 BKN049 OVC070 12/11 A2935 RMK AO2 RAE42 SLP941 P0009 T01220106
2026-03-15 16:50:00,SPECI KDPA 151650Z 17013G22KT 10SM SCT024 BKN049 OVC075 12/11 A2935 RMK AO2 RAE42 P0009
2026-03-15 16:35:00,SPECI KDPA 151635Z 17015KT 8SM -RA BKN022 OVC065 11/10 A2937 RMK AO2 PRESFR P0009 T01110100
2026-03-15 15:52:00,METAR KDPA 151552Z 19012G22KT 4SM +RA OVC075 11/08 A2939 RMK AO2 PK WND 17026/1527 RAB13 SLP955 P0006 T01110083
2026-03-15 14:52:00,METAR KDPA 151452Z 16013KT 10SM FEW060 FEW120 11/03 A2941 RMK AO2 LTG DSNT W SLP961 T01060033 56048
2026-03-15 13:52:00,METAR KDPA 151352Z 14009KT 10SM CLR 07/00 A2943 RMK AO2 SLP969 T00720000
2026-03-15 12:52:00,METAR KDPA 151252Z 10006KT 10SM CLR 04/M02 A2950 RMK AO2 PRESFR SLP996 T00391017
2026-03-15 11:52:00,METAR KDPA 151152Z 09006KT 10SM CLR 03/M02 A2955 RMK AO2 SLP013 60000 T00281022 10028 20022 56053
2026-03-15 10:52:00,METAR KDPA 151052Z 07008KT 10SM FEW110 02/M02 A2960 RMK AO2 PRESFR SLP030 T00221017
2026-03-15 09:52:00,METAR KDPA 150952Z 07008KT 10SM SCT110 03/M02 A2966 RMK AO2 RAB0856E12 SLP050 P0000 T00281017
2026-03-15 09:10:00,SPECI KDPA 150910Z 07009KT 10SM -RA FEW065 BKN090 OVC110 03/M02 A2970 RMK AO2 RAB0856 P0000 T00281022
2026-03-15 08:52:00,METAR KDPA 150852Z 09009KT 10SM VCTS FEW060 SCT070 BKN090 03/M03 A2971 RMK AO2 LTG DSNT N SLP068 T00281028 58044
