Time_recorded,METAR
2026-05-02 15:30:00,METAR VVPB 021530Z 04001KT 8000 FEW017 SCT060 26/25 Q1010 NOSIG
2026-05-02 15:00:00,METAR VVPB 021500Z VRB01KT 8000 FEW017 SCT060 26/25 Q1010 NOSIG
2026-05-02 14:30:00,METAR VVPB 021430Z 29001KT 8000 FEW017 SCT060 27/23 Q1009 NOSIG
2026-05-02 14:00:00,METAR VVPB 021400Z VRB01KT 6000 FEW017 SCT060 27/23 Q1009 NOSIG
2026-05-02 13:30:00,METAR VVPB 021330Z 22003KT 6000 FEW017 SCT060 27/24 Q1009 NOSIG
2026-05-02 13:00:00,METAR VVPB 021300Z 27004KT 6000 FEW017 SCT060 27/24 Q1009 NOSIG
2026-05-02 12:30:00,METAR VVPB 021230Z 28006KT 5000 FU SCT013 SCT050 27/24 Q1009 NOSIG
2026-05-02 12:00:00,METAR VVPB 021200Z 26006KT 9000 FEW015 SCT050 27/24 Q1008 NOSIG
2026-05-02 11:30:00,METAR VVPB 021130Z 27005KT 9999 FEW015 SCT050 28/24 Q1008 NOSIG
2026-05-02 11:00:00,METAR VVPB 021100Z 22002KT 5000 FU FEW015 SCT050 28/26 Q1008 TEMPO 3000 -RA FU
2026-05-02 10:30:00,METAR VVPB 021030Z 36003KT 4000 -RA FU FEW015 SCT050 27/26 Q1007 TEMPO TL1100 2000 RA FU
2026-05-02 10:00:00,METAR VVPB 021000Z 04003KT 4000 -TSRA FEW015 FEW017CB SCT050 28/26 Q1007 BECMG TL1100 6000 NSW
2026-05-02 09:30:00,METAR VVPB 020930Z COR 06003KT 5000 FU TS FEW015 FEW017CB SCT050 29/25 Q1006 NOSIG
2026-05-02 09:00:00,METAR VVPB 020900Z 13003KT 5000 FU FEW017 SCT050 30/24 Q1006 NOSIG
2026-05-02 08:30:00,METAR VVPB 020830Z 10004KT 9000 FEW017 SCT050 31/24 Q1006 NOSIG
2026-05-02 08:00:00,METAR VVPB 020800Z 07008KT 9999 FEW017 SCT050 31/24 Q1006 NOSIG
2026-05-02 07:30:00,METAR VVPB 020730Z 08006KT 9999 FEW017 SCT050 30/24 Q1007 NOSIG
2026-05-02 07:00:00,METAR VVPB 020700Z 05004KT 9999 FEW017 SCT050 31/23 Q1007 NOSIG
2026-05-02 06:30:00,METAR VVPB 020630Z 03004KT 9999 FEW017 SCT050 31/22 Q1008 NOSIG
2026-05-02 06:00:00,METAR VVPB 020600Z 05005KT 9999 FEW017 SCT050 31/22 Q1008 NOSIG
2026-05-02 05:30:00,METAR VVPB 020530Z 04007KT 9999 FEW017 SCT050 32/23 Q1009 NOSIG
2026-05-02 05:00:00,METAR VVPB 020500Z 03005KT 9999 FEW017 SCT050 32/23 Q1009 NOSIG
2026-05-02 04:30:00,METAR VVPB 020430Z 04006KT 9999 FEW017 SCT050 33/23 Q1010 NOSIG
2026-05-02 04:00:00,METAR VVPB 020400Z 04005KT 9999 FEW017 SCT050 32/24 Q1010 NOSIG
2026-05-02 03:30:00,METAR VVPB 020330Z 03005KT 9999 FEW017 SCT050 32/23 Q1010 NOSIG
2026-05-02 03:00:00,METAR VVPB 020300Z 07003KT 9999 FEW017 SCT050 32/23 Q1011 NOSIG
2026-05-02 02:30:00,METAR VVPB 020230Z 07003KT 9999 FEW017 SCT050 31/23 Q1011 NOSIG
2026-05-02 02:00:00,METAR VVPB 020200Z 04003KT 9999 SCT017 SCT050 30/22 Q1011 NOSIG
2026-05-02 01:30:00,METAR VVPB 020130Z 35002KT 9999 SCT017 SCT050 29/23 Q1011 NOSIG
2026-05-02 01:00:00,METAR VVPB 020100Z 33002KT 9999 SCT017 SCT050 28/23 Q1011 NOSIG
2026-05-02 00:30:00,METAR VVPB 020030Z 28004KT 9999 SCT017 SCT050 27/23 Q1011 NOSIG
2026-05-02 00:00:00,METAR VVPB 020000Z 28004KT 7000 SCT017 SCT050 26/23 Q1010 NOSIG
2026-05-01 23:30:00,METAR VVPB 012330Z 25004KT 7000 SCT017 SCT050 25/23 Q1010 NOSIG
2026-05-01 23:00:00,METAR VVPB 012300Z 29002KT 7000 SCT017 SCT050 24/23 Q1010 NOSIG
2026-05-01 22:30:00,METAR VVPB 012230Z 24002KT 9999 FEW020 24/23 Q1010 NOSIG
2026-05-01 22:00:00,METAR VVPB 012200Z 24002KT 9999 FEW020 24/23 Q1009 NOSIG
2026-05-01 21:30:00,METAR VVPB 012130Z 22002KT 9999 FEW020 24/23 Q1009 NOSIG
2026-05-01 21:00:00,METAR VVPB 012100Z 22002KT 9999 FEW020 24/23 Q1009 NOSIG
2026-05-01 20:30:00,METAR VVPB 012030Z 22002KT 9999 FEW020 24/23 Q1009 NOSIG
2026-05-01 20:00:00,METAR VVPB 012000Z 29004KT 9999 FEW020 24/23 Q1009 NOSIG
2026-05-01 19:30:00,METAR VVPB 011930Z 26002KT 9999 FEW020 25/23 Q1009 NOSIG
2026-05-01 19:00:00,METAR VVPB 011900Z COR 21001KT 9999 FEW020 25/23 Q1009 NOSIG
2026-05-01 18:30:00,METAR VVPB 011830Z 26002KT 9999 FEW020 25/23 Q1010 NOSIG
2026-05-01 18:00:00,METAR VVPB 011800Z 30002KT 9999 FEW020 25/23 Q1010 NOSIG
2026-05-01 17:30:00,METAR VVPB 011730Z 26003KT 9999 FEW020 25/23 Q1010 NOSIG
2026-05-01 17:00:00,METAR VVPB 011700Z 29002KT 9999 FEW020 SCT060 25/23 Q1011 NOSIG
2026-05-01 16:30:00,METAR VVPB 011630Z 28002KT 9999 FEW020 SCT060 25/23 Q1011 NOSIG
2026-05-01 16:00:00,METAR VVPB 011600Z 19001KT 9999 FEW020 SCT060 25/23 Q1011 NOSIG
2026-05-01 15:30:00,METAR VVPB 011530Z 13002KT 9999 FEW020 SCT060 25/23 Q1012 NOSIG
2026-05-01 15:00:00,METAR VVPB 011500Z 12002KT 9999 FEW020 SCT060 25/23 Q1012 NOSIG
2026-05-01 14:30:00,METAR VVPB 011430Z 12001KT 9999 FEW020 SCT060 25/23 Q1012 NOSIG
2026-05-01 14:00:00,METAR VVPB 011400Z 08002KT 9999 FEW020 SCT060 25/23 Q1012 NOSIG
2026-05-01 13:30:00,METAR VVPB 011330Z 08002KT 9999 FEW020 SCT060 25/23 Q1011 NOSIG
2026-05-01 13:00:00,METAR VVPB 011300Z 01002KT 9999 FEW020 SCT060 25/22 Q1011 NOSIG
2026-05-01 12:30:00,METAR VVPB 011230Z 03003KT 9999 FEW020 SCT060 26/22 Q1010 NOSIG
2026-05-01 12:00:00,METAR VVPB 011200Z 04004KT 9999 FEW020 SCT060 26/22 Q1010 NOSIG
2026-05-01 11:30:00,METAR VVPB 011130Z 04004KT 9999 FEW020 SCT060 26/22 Q1010 NOSIG
2026-05-01 11:00:00,METAR VVPB 011100Z 04004KT 9999 FEW020 SCT060 26/22 Q1010 NOSIG
2026-05-01 10:30:00,METAR VVPB 011030Z 04005KT 9999 FEW020 SCT060 27/22 Q1010 NOSIG
2026-05-01 10:00:00,METAR VVPB 011000Z 06006KT 9999 FEW020 27/21 Q1009 NOSIG
2026-05-01 09:30:00,METAR VVPB 010930Z 03006KT 9999 FEW020 28/21 Q1009 NOSIG
2026-05-01 09:00:00,METAR VVPB 010900Z 03006KT 9999 FEW020 28/21 Q1010 NOSIG
2026-05-01 08:30:00,METAR VVPB 010830Z 03007KT 9999 FEW020 28/21 Q1009 NOSIG
2026-05-01 08:00:00,METAR VVPB 010800Z 06006KT 9999 FEW020 29/21 Q1010 NOSIG
2026-05-01 07:30:00,METAR VVPB 010730Z 04007KT 9999 FEW020 29/21 Q1010 NOSIG
2026-05-01 07:00:00,METAR VVPB 010700Z 06008KT 9999 FEW020 28/20 Q1010 NOSIG
2026-05-01 06:30:00,METAR VVPB 010630Z 06009KT 9999 FEW020 29/19 Q1010 NOSIG
2026-05-01 06:00:00,METAR VVPB 010600Z 06009KT 9999 FEW020 29/19 Q1011 NOSIG
2026-05-01 05:30:00,METAR VVPB 010530Z 05009KT 9999 FEW020 30/19 Q1011 NOSIG
2026-05-01 05:00:00,METAR VVPB 010500Z 04007KT 9999 FEW020 30/18 Q1012 NOSIG
2026-05-01 04:30:00,METAR VVPB 010430Z 07007KT 9999 FEW020 29/20 Q1012 NOSIG
2026-05-01 04:00:00,METAR VVPB 010400Z 07005KT 9999 FEW020 SCT060 29/20 Q1013 NOSIG
2026-05-01 03:30:00,METAR VVPB 010330Z 08004KT 9999 FEW020 SCT060 29/19 Q1013 NOSIG
2026-05-01 03:00:00,METAR VVPB 010300Z 06004KT 9999 FEW020 SCT060 28/18 Q1014 NOSIG
2026-05-01 02:30:00,METAR VVPB 010230Z 09005KT 9999 FEW020 SCT060 28/19 Q1014 NOSIG
2026-05-01 02:00:00,METAR VVPB 010200Z VRB02KT 9999 FEW020 SCT060 27/19 Q1014 NOSIG
2026-05-01 01:30:00,METAR VVPB 010130Z VRB02KT 9999 FEW020 SCT060 27/20 Q1014 NOSIG
2026-05-01 01:00:00,METAR VVPB 010100Z 27005KT 9999 FEW020 SCT060 26/19 Q1014 NOSIG
2026-05-01 00:30:00,METAR VVPB 010030Z 29005KT 9999 FEW017 SCT040 25/20 Q1014 NOSIG
2026-05-01 00:00:00,METAR VVPB 010000Z 30002KT 9999 FEW017 SCT040 24/21 Q1014 NOSIG
2026-04-30 23:30:00,METAR VVPB 302330Z 28002KT 9999 FEW017 23/21 Q1014 NOSIG
2026-04-30 23:00:00,METAR VVPB 302300Z 32001KT 9999 FEW017 22/21 Q1013 NOSIG
2026-04-30 22:30:00,METAR VVPB 302230Z 32002KT 9999 FEW017 22/20 Q1013 NOSIG
2026-04-30 22:00:00,METAR VVPB 302200Z 19001KT 9999 FEW017 23/21 Q1013 NOSIG
2026-04-30 21:30:00,METAR VVPB 302130Z 20003KT 9999 FEW017 23/20 Q1012 NOSIG
2026-04-30 21:00:00,METAR VVPB 302100Z 20002KT 9999 FEW017 23/20 Q1012 NOSIG
2026-04-30 20:30:00,METAR VVPB 302030Z 20002KT 9999 FEW017 23/20 Q1012 NOSIG
2026-04-30 20:00:00,METAR VVPB 302000Z 20002KT 9999 FEW017 23/20 Q1012 NOSIG
2026-04-30 19:30:00,METAR VVPB 301930Z 21003KT 9999 FEW017 23/20 Q1013 NOSIG
2026-04-30 19:00:00,METAR VVPB 301900Z 21003KT 9999 FEW017 23/21 Q1013 NOSIG
2026-04-30 18:30:00,METAR VVPB 301830Z 23003KT 9999 FEW020 23/21 Q1013 NOSIG
2026-04-30 18:00:00,METAR VVPB 301800Z 23004KT 9999 FEW020 23/21 Q1013 NOSIG
2026-04-30 17:30:00,METAR VVPB 301730Z 23002KT 9999 FEW020 23/21 Q1014 NOSIG
2026-04-30 17:00:00,METAR VVPB 301700Z 27005KT 9999 FEW020 23/21 Q1014 NOSIG
2026-04-30 16:30:00,METAR VVPB 301630Z 25003KT 9999 FEW020 23/21 Q1014 NOSIG
2026-04-30 16:00:00,METAR VVPB 301600Z 20003KT 9999 FEW020 24/20 Q1015 NOSIG
2026-04-30 15:00:00,METAR VVPB 301500Z 24004KT 9999 FEW020 24/21 Q1015 NOSIG
2026-04-30 14:30:00,METAR VVPB 301430Z 25003KT 9999 FEW020 24/21 Q1015 NOSIG
2026-04-30 14:00:00,METAR VVPB 301400Z 28005KT 9999 FEW020 SCT060 24/21 Q1015 NOSIG
2026-04-30 13:30:00,METAR VVPB 301330Z 30004KT 9999 FEW020 SCT060 24/21 Q1015 NOSIG
2026-04-30 13:00:00,METAR VVPB 301300Z 30004KT 9999 FEW020 SCT060 24/21 Q1014 NOSIG
2026-04-30 12:30:00,METAR VVPB 301230Z 31004KT 9999 SCT020 SCT060 24/21 Q1013 NOSIG
2026-04-30 12:00:00,METAR VVPB 301200Z 32003KT 9999 SCT020 SCT060 25/20 Q1013 NOSIG
2026-04-30 11:30:00,METAR VVPB 301130Z 32004KT 9999 SCT020 SCT060 25/20 Q1013 NOSIG
2026-04-30 11:00:00,METAR VVPB 301100Z 32006KT 9999 SCT020 SCT060 26/20 Q1012 NOSIG
2026-04-30 10:30:00,METAR VVPB 301030Z 31006KT 9999 SCT020 SCT060 26/20 Q1012 NOSIG
2026-04-30 10:00:00,METAR VVPB 301000Z 30007KT 9999 SCT020 SCT060 27/20 Q1012 NOSIG
2026-04-30 09:30:00,METAR VVPB 300930Z 31007KT 9999 SCT020 BKN040 27/20 Q1012 NOSIG
2026-04-30 09:00:00,METAR VVPB 300900Z 30007KT 9999 SCT020 BKN040 27/20 Q1013 NOSIG
2026-04-30 08:30:00,METAR VVPB 300830Z 31007KT 9999 SCT020 BKN040 28/20 Q1013 NOSIG
2026-04-30 08:00:00,METAR VVPB 300800Z 30006KT 9999 SCT020 BKN040 28/19 Q1013 NOSIG
2026-04-30 07:30:00,METAR VVPB 300730Z 30006KT 9999 SCT020 BKN040 28/19 Q1013 NOSIG
2026-04-30 07:00:00,METAR VVPB 300700Z 32008KT 9999 SCT020 BKN040 28/20 Q1013 NOSIG
2026-04-30 06:30:00,METAR VVPB 300630Z 31009KT 9999 SCT020 BKN040 28/20 Q1014 NOSIG
2026-04-30 06:00:00,METAR VVPB 300600Z 32007KT 9999 SCT020 BKN040 28/20 Q1014 NOSIG
2026-04-30 05:30:00,METAR VVPB 300530Z 31006KT 9999 SCT020 BKN040 28/20 Q1015 NOSIG
2026-04-30 05:00:00,METAR VVPB 300500Z 32005KT 9999 SCT020 BKN040 27/20 Q1015 NOSIG
2026-04-30 04:30:00,METAR VVPB 300430Z 28006KT 9999 SCT020 BKN040 27/22 Q1015 NOSIG
2026-04-30 04:00:00,METAR VVPB 300400Z 28005KT 9999 SCT020 BKN040 26/22 Q1015 NOSIG
2026-04-30 03:30:00,METAR VVPB 300330Z 29006KT 7000 -RA SCT013 BKN030 24/22 Q1016 NOSIG
2026-04-30 03:00:00,METAR VVPB 300300Z 32006KT 6000 -RA SCT013 BKN030 25/22 Q1016 NOSIG
2026-04-30 02:30:00,METAR VVPB 300230Z 27005KT 9999 SCT015 BKN050 26/21 Q1016 NOSIG
2026-04-30 02:00:00,METAR VVPB 300200Z 25006KT 9999 SCT015 BKN050 27/22 Q1016 NOSIG
2026-04-30 01:30:00,METAR VVPB 300130Z 25007KT 9999 SCT015 BKN050 26/22 Q1015 NOSIG
2026-04-30 01:00:00,METAR VVPB 300100Z 23005KT 9999 SCT015 BKN050 26/22 Q1015 NOSIG
2026-04-30 00:30:00,METAR VVPB 300030Z 24004KT 9999 SCT015 BKN050 26/22 Q1015 NOSIG
2026-04-30 00:00:00,METAR VVPB 300000Z 26005KT 9999 SCT015 BKN050 25/22 Q1015 NOSIG
2026-04-29 23:30:00,METAR VVPB 292330Z 28005KT 9999 SCT015 BKN040 25/22 Q1015 NOSIG
2026-04-29 23:00:00,METAR VVPB 292300Z 30006KT 9999 FEW015 BKN040 25/22 Q1015 NOSIG
2026-04-29 22:30:00,METAR VVPB 292230Z 31007KT 9999 FEW015 BKN040 25/22 Q1014 NOSIG
2026-04-29 22:00:00,METAR VVPB 292200Z 34008KT 9999 FEW015 BKN040 25/22 Q1014 NOSIG
2026-04-29 21:30:00,METAR VVPB 292130Z 34006KT 9999 FEW015 BKN050 25/22 Q1013 NOSIG
2026-04-29 21:00:00,METAR VVPB 292100Z 34006KT 9999 FEW015 BKN050 26/22 Q1013 NOSIG
2026-04-29 20:30:00,METAR VVPB 292030Z 35004KT 9999 FEW015 BKN050 25/23 Q1012 NOSIG
2026-04-29 20:00:00,METAR VVPB 292000Z 34005KT 9999 FEW015 BKN050 25/23 Q1012 NOSIG
2026-04-29 19:30:00,METAR VVPB 291930Z COR 34006KT 9999 FEW015 BKN050 25/24 Q1012 NOSIG
2026-04-29 19:00:00,METAR VVPB 291900Z 33004KT 9999 FEW015 BKN050 25/24 Q1012 NOSIG
2026-04-29 18:30:00,METAR VVPB 291830Z 33005KT 9999 FEW013 BKN040 25/24 Q1013 NOSIG
2026-04-29 18:00:00,METAR VVPB 291800Z 31006KT 6000 -RA SCT010 BKN040 25/24 Q1013 TEMPO 3500 RA BR
2026-04-29 17:30:00,METAR VVPB 291730Z COR 29005KT 6000 -RA FEW020 BKN050 25/24 Q1014 TEMPO 3500 RA BR
2026-04-29 17:00:00,METAR VVPB 291700Z 31005KT 9999 FEW020 BKN060 25/24 Q1013 NOSIG
2026-04-29 16:30:00,METAR VVPB 291630Z 32005KT 9999 FEW020 BKN060 26/23 Q1014 NOSIG
2026-04-29 16:00:00,METAR VVPB 291600Z 30005KT 9999 FEW020 BKN060 26/23 Q1014 NOSIG
2026-04-29 15:30:00,METAR VVPB 291530Z 25004KT 9999 FEW020 BKN060 26/23 Q1014 NOSIG
2026-04-29 15:00:00,METAR VVPB 291500Z 23004KT 9999 FEW015 BKN050 26/23 Q1014 NOSIG
2026-04-29 14:30:00,METAR VVPB 291430Z 24004KT 9999 FEW015 BKN050 26/23 Q1014 NOSIG
2026-04-29 14:00:00,METAR VVPB 291400Z 27004KT 9999 FEW015 BKN050 25/23 Q1014 NOSIG
2026-04-29 13:30:00,METAR VVPB 291330Z 28005KT 9999 FEW015 BKN050 25/23 Q1013 NOSIG
2026-04-29 13:00:00,METAR VVPB 291300Z 24005KT 9999 FEW015 BKN050 26/23 Q1013 NOSIG
2026-04-29 12:30:00,METAR VVPB 291230Z 24005KT 9999 FEW015 BKN050 25/23 Q1012 NOSIG
2026-04-29 12:00:00,METAR VVPB 291200Z 26006KT 9999 SCT015 BKN050 25/23 Q1012 NOSIG
2026-04-29 11:30:00,METAR VVPB 291130Z 27008KT 9999 SCT015 BKN050 25/23 Q1012 NOSIG
2026-04-29 11:00:00,METAR VVPB 291100Z 26007KT 7000 -RA SCT015 BKN050 25/23 Q1011 TEMPO TL1130 4000 RA
2026-04-29 10:30:00,METAR VVPB 291030Z 26008KT 9999 SCT015 BKN050 26/22 Q1011 NOSIG
2026-04-29 10:00:00,METAR VVPB 291000Z 28008KT 9999 SCT015 BKN050 26/22 Q1010 NOSIG
2026-04-29 09:30:00,METAR VVPB 290930Z 29010KT 9999 SCT015 BKN050 26/22 Q1010 NOSIG
2026-04-29 09:00:00,METAR VVPB 290900Z 28009KT 7000 -RA SCT015 FEW017CB BKN050 27/24 Q1009 TEMPO 4000 SHRA
2026-04-29 08:30:00,METAR VVPB 290830Z 30008KT 9999 VCTS SCT015 FEW017CB BKN060 28/22 Q1009 TEMPO TL0920 4000 TSRA
2026-04-29 08:00:00,METAR VVPB 290800Z 32003KT 9999 VCTS SCT015 FEW017CB BKN060 29/23 Q1009 TEMPO TL0920 4000 TSRA
2026-04-29 07:30:00,METAR VVPB 290730Z 04002KT 9999 FEW015 FEW017CB SCT060 28/23 Q1009 TEMPO TL0920 25017G27KT 2500 +TSRA
2026-04-29 07:00:00,METAR VVPB 290700Z 05005KT 9999 FEW015 FEW017CB SCT060 29/22 Q1009 TEMPO FM0730 25017G27KT 2500 +TSRA
2026-04-29 06:30:00,METAR VVPB 290630Z 03007KT 9999 FEW015 FEW017CB 29/22 Q1009 TEMPO FM0710 25017G27KT 2500 +TSRA
2026-04-29 06:00:00,METAR VVPB 290600Z 02009KT 9999 FEW020 31/21 Q1009 TEMPO FM0710 25017G27KT 2500 +TSRA BKN010 SCT015CB
2026-04-29 05:30:00,METAR VVPB 290530Z 04008KT 9999 FEW020 33/21 Q1010 NOSIG
2026-04-29 05:00:00,METAR VVPB 290500Z 03008KT CAVOK 33/20 Q1010 NOSIG
2026-04-29 04:30:00,METAR VVPB 290430Z 02008KT CAVOK 33/20 Q1010 NOSIG
2026-04-29 04:00:00,METAR VVPB 290400Z 36007KT CAVOK 33/19 Q1010 NOSIG
2026-04-29 03:30:00,METAR VVPB 290330Z 36006KT CAVOK 33/19 Q1011 NOSIG
2026-04-29 03:00:00,METAR VVPB 290300Z 01005KT CAVOK 33/20 Q1011 NOSIG
2026-04-29 02:30:00,METAR VVPB 290230Z 27002KT CAVOK 32/20 Q1011 NOSIG
2026-04-29 02:00:00,METAR VVPB 290200Z 31004KT 9999 FEW017 31/20 Q1011 NOSIG
2026-04-29 01:30:00,METAR VVPB 290130Z 27004KT CAVOK 30/20 Q1011 NOSIG
2026-04-29 01:00:00,METAR VVPB 290100Z 24002KT CAVOK 29/20 Q1010 NOSIG
2026-04-29 00:30:00,METAR VVPB 290030Z 32003KT CAVOK 28/21 Q1010 NOSIG
2026-04-29 00:00:00,METAR VVPB 290000Z VRB01KT CAVOK 27/21 Q1010 NOSIG
2026-04-28 23:30:00,METAR VVPB 282330Z VRB02KT CAVOK 25/22 Q1009 NOSIG
2026-04-28 23:00:00,METAR VVPB 282300Z 28002KT 9999 FEW020 23/21 Q1009 NOSIG
2026-04-28 22:30:00,METAR VVPB 282230Z 29001KT 9999 FEW020 23/21 Q1008 NOSIG
2026-04-28 22:00:00,METAR VVPB 282200Z 29001KT 9999 FEW020 23/22 Q1007 NOSIG
2026-04-28 21:30:00,METAR VVPB 282130Z 29003KT 9999 FEW020 23/22 Q1007 NOSIG
2026-04-28 21:00:00,METAR VVPB 282100Z 35002KT 9999 FEW020 23/22 Q1007 NOSIG
2026-04-28 20:30:00,METAR VVPB 282030Z VRB02KT 9999 FEW020 23/21 Q1006 NOSIG
2026-04-28 20:00:00,METAR VVPB 282000Z 34001KT 9999 FEW020 23/21 Q1006 NOSIG
2026-04-28 19:30:00,METAR VVPB 281930Z 20002KT 9999 FEW020 24/21 Q1006 NOSIG
2026-04-28 19:00:00,METAR VVPB 281900Z 00000KT 9999 FEW020 23/21 Q1006 NOSIG
2026-04-28 18:30:00,METAR VVPB 281830Z VRB02KT 9999 FEW020 24/22 Q1007 NOSIG
2026-04-28 18:00:00,METAR VVPB 281800Z VRB01KT 9999 FEW020 24/20 Q1007 NOSIG
2026-04-28 17:30:00,METAR VVPB 281730Z VRB02KT 9999 FEW020 24/22 Q1007 NOSIG
2026-04-28 17:00:00,METAR VVPB 281700Z 21002KT 9999 FEW020 25/23 Q1007 NOSIG
2026-04-28 16:30:00,METAR VVPB 281630Z 20003KT 9999 FEW020 25/23 Q1008 NOSIG
2026-04-28 16:00:00,METAR VVPB 281600Z 22002KT 8000 FEW020 25/23 Q1008 NOSIG
2026-04-28 15:30:00,METAR VVPB 281530Z 36001KT 6000 FEW017 SCT060 24/23 Q1008 NOSIG
2026-04-28 15:00:00,METAR VVPB 281500Z 30001KT 7000 FEW017 SCT060 25/23 Q1008 NOSIG
2026-04-28 14:30:00,METAR VVPB 281430Z 33001KT 7000 FEW017 SCT060 25/24 Q1008 NOSIG
2026-04-28 14:00:00,METAR VVPB 281400Z 36001KT 8000 FEW017 SCT060 25/24 Q1008 NOSIG
2026-04-28 13:30:00,METAR VVPB 281330Z VRB02KT 9999 FEW017 SCT060 26/24 Q1008 NOSIG
2026-04-28 13:00:00,METAR VVPB 281300Z VRB02KT 9999 FEW017 SCT060 25/24 Q1007 NOSIG
2026-04-28 12:30:00,METAR VVPB 281230Z 11002KT 9999 FEW017 SCT060 26/24 Q1007 NOSIG
2026-04-28 12:00:00,METAR VVPB 281200Z 13002KT 9999 FEW017 SCT060 26/24 Q1007 NOSIG
2026-04-28 11:30:00,METAR VVPB 281130Z 13003KT 9999 FEW017 SCT060 26/23 Q1006 NOSIG
2026-04-28 11:00:00,METAR VVPB 281100Z 14002KT 9999 FEW017 SCT060 27/23 Q1007 NOSIG
2026-04-28 10:30:00,METAR VVPB 281030Z 14003KT 9999 FEW017 SCT060 27/23 Q1006 NOSIG
2026-04-28 10:00:00,METAR VVPB 281000Z 10006KT 9999 FEW017 SCT060 27/23 Q1006 NOSIG
2026-04-28 09:30:00,METAR VVPB 280930Z 11007KT 9999 FEW017 SCT060 28/23 Q1006 NOSIG
2026-04-28 09:00:00,METAR VVPB 280900Z 11007KT 9999 FEW017 SCT060 28/22 Q1006 NOSIG
2026-04-28 08:30:00,METAR VVPB 280830Z 14006KT 9999 FEW017 SCT060 28/22 Q1007 NOSIG
2026-04-28 08:00:00,METAR VVPB 280800Z 19004KT 9999 FEW017 SCT060 29/20 Q1007 NOSIG
2026-04-28 07:30:00,METAR VVPB 280730Z 21005KT 9999 FEW017 SCT060 29/20 Q1007 NOSIG
2026-04-28 07:00:00,METAR VVPB 280700Z 24006KT 9999 FEW017 SCT060 29/20 Q1007 NOSIG
2026-04-28 06:30:00,METAR VVPB 280630Z 24007KT 9999 FEW017 SCT060 29/20 Q1008 NOSIG
2026-04-28 06:00:00,METAR VVPB 280600Z 23008KT 9999 FEW017 BKN060 28/20 Q1008 NOSIG
2026-04-28 05:30:00,METAR VVPB 280530Z 24006KT 9999 FEW017 BKN060 28/20 Q1008 NOSIG
2026-04-28 05:00:00,METAR VVPB 280500Z 23006KT 9999 FEW017 BKN060 28/20 Q1009 NOSIG
2026-04-28 04:30:00,METAR VVPB 280430Z 23007KT 9999 FEW015 BKN060 27/21 Q1009 NOSIG
2026-04-28 04:00:00,METAR VVPB 280400Z 23007KT 9999 FEW015 BKN060 26/21 Q1009 NOSIG
2026-04-28 03:30:00,METAR VVPB 280330Z 22009KT 9999 FEW015 BKN060 25/22 Q1009 TEMPO 4000 RA
2026-04-28 03:00:00,METAR VVPB 280300Z 21007KT 8000 FEW015 FEW017CB BKN050 25/22 Q1010 TEMPO 4000 TSRA
2026-04-28 02:30:00,METAR VVPB 280230Z 21006KT 7000 -TSRA SCT015 FEW017CB BKN050 24/22 Q1011 TEMPO 3500 TSRA
2026-04-28 02:00:00,METAR VVPB 280200Z 22005KT 4500 RA SCT015 FEW017CB BKN050 24/22 Q1011 BECMG TL0230 6000 -RA
2026-04-28 01:30:00,METAR VVPB 280130Z 26011KT 7000 -TSRA SCT015 FEW017CB BKN050 25/22 Q1011 TEMPO TL0200 30015G25KT 3000 TSRA
2026-04-28 01:00:00,METAR VVPB 280100Z 31012KT 7000 -TSRA SCT015 FEW017CB BKN050 27/22 Q1011 TEMPO TL0150 30015G25KT 2800 +TSRA
2026-04-28 00:30:00,METAR VVPB 280030Z 34002KT 9999 SCT020 SCT040 27/23 Q1009 TEMPO FM0110 TL0150 4000 SHRA BKN013 FEW017CB
2026-04-28 00:00:00,METAR VVPB 280000Z 11001KT 9999 FEW020 26/23 Q1008 NOSIG
2026-04-27 23:30:00,METAR VVPB 272330Z 01001KT 9999 FEW020 25/23 Q1008 NOSIG
2026-04-27 23:00:00,METAR VVPB 272300Z 22001KT 9999 FEW020 26/23 Q1008 NOSIG
2026-04-27 22:30:00,METAR VVPB 272230Z 22003KT 9999 FEW020 SCT060 25/23 Q1007 NOSIG
2026-04-27 22:00:00,METAR VVPB 272200Z 21002KT 9999 FEW020 SCT060 25/23 Q1007 NOSIG
2026-04-27 21:30:00,METAR VVPB 272130Z 30001KT 9999 FEW020 SCT060 25/23 Q1007 NOSIG
2026-04-27 21:00:00,METAR VVPB 272100Z 01001KT 9999 FEW020 SCT060 25/23 Q1007 NOSIG
2026-04-27 20:30:00,METAR VVPB 272030Z 14002KT 9999 FEW020 SCT060 25/23 Q1007 NOSIG
2026-04-27 20:00:00,METAR VVPB 272000Z 36001KT 9999 FEW020 SCT060 25/23 Q1007 NOSIG
2026-04-27 19:30:00,METAR VVPB 271930Z 36003KT 9999 FEW020 SCT060 25/23 Q1007 NOSIG
2026-04-27 19:00:00,METAR VVPB 271900Z 28002KT 9999 FEW020 SCT060 26/23 Q1007 NOSIG
2026-04-27 18:30:00,METAR VVPB 271830Z 22005KT 9999 FEW020 SCT060 26/23 Q1006 NOSIG
2026-04-27 18:00:00,METAR VVPB 271800Z 22005KT 9999 FEW020 SCT060 26/23 Q1007 NOSIG
2026-04-27 17:30:00,METAR VVPB 271730Z 20004KT 9999 FEW020 SCT060 26/23 Q1007 NOSIG
2026-04-27 17:00:00,METAR VVPB 271700Z 18003KT 9999 FEW020 BKN060 27/23 Q1008 NOSIG
2026-04-27 16:30:00,METAR VVPB 271630Z 22004KT 9999 FEW020 BKN060 27/23 Q1008 NOSIG
2026-04-27 16:00:00,METAR VVPB 271600Z 22004KT 9999 FEW020 BKN060 27/23 Q1008 NOSIG
2026-04-27 15:30:00,METAR VVPB 271530Z 22004KT 9999 FEW020 BKN060 27/23 Q1008 NOSIG
2026-04-27 15:00:00,METAR VVPB 271500Z 22004KT 9999 FEW020 BKN060 27/23 Q1009 NOSIG
2026-04-27 14:30:00,METAR VVPB 271430Z 25003KT 9999 FEW020 BKN060 27/23 Q1009 NOSIG
2026-04-27 14:00:00,METAR VVPB 271400Z 16003KT 9999 FEW020 BKN060 27/24 Q1008 NOSIG
2026-04-27 13:30:00,METAR VVPB 271330Z 13003KT 9999 FEW020 BKN060 27/24 Q1008 NOSIG
2026-04-27 13:00:00,METAR VVPB 271300Z 06001KT 9999 FEW020 BKN060 27/23 Q1008 NOSIG
2026-04-27 12:30:00,METAR VVPB 271230Z 27004KT 9999 FEW020 BKN060 27/23 Q1008 NOSIG
2026-04-27 12:00:00,METAR VVPB 271200Z 27005KT 9999 FEW020 BKN060 27/23 Q1007 NOSIG
2026-04-27 11:30:00,METAR VVPB 271130Z 26006KT 9999 FEW020 BKN060 28/23 Q1007 NOSIG
2026-04-27 11:00:00,METAR VVPB 271100Z 18006KT 9999 FEW020 BKN060 28/23 Q1006 NOSIG
2026-04-27 10:30:00,METAR VVPB 271030Z 21007KT 9999 -TSRA FEW020CB SCT060 30/23 Q1006 BECMG TL1115 NSW
2026-04-27 10:00:00,METAR VVPB 271000Z 22005KT 8000 TS FEW020CB SCT060 31/24 Q1007 TEMPO TL1050 4000 TSRA
2026-04-27 09:30:00,METAR VVPB 270930Z 12003KT 9999 VCTS FEW020CB SCT060 31/22 Q1006 NOSIG
2026-04-27 09:00:00,METAR VVPB 270900Z 11004KT 9999 FEW020CB SCT060 31/22 Q1006 NOSIG
2026-04-27 08:30:00,METAR VVPB 270830Z 08007KT 9999 FEW020CB SCT060 31/22 Q1006 NOSIG
2026-04-27 08:00:00,METAR VVPB 270800Z 07007KT 9999 FEW020 SCT060 30/22 Q1006 NOSIG
2026-04-27 07:30:00,METAR VVPB 270730Z 06008KT 9999 FEW020 SCT060 31/22 Q1006 NOSIG
2026-04-27 07:00:00,METAR VVPB 270700Z 05008KT 9999 FEW020 32/21 Q1006 NOSIG
2026-04-27 06:30:00,METAR VVPB 270630Z 06010KT 9999 FEW020 31/22 Q1007 NOSIG
2026-04-27 06:00:00,METAR VVPB 270600Z 06009KT 9999 FEW020 32/23 Q1007 NOSIG
2026-04-27 05:30:00,METAR VVPB 270530Z 06009KT 9999 FEW020 33/23 Q1008 NOSIG
2026-04-27 05:00:00,METAR VVPB 270500Z VRB01KT 9999 FEW020 33/21 Q1008 NOSIG
2026-04-27 04:30:00,METAR VVPB 270430Z 16004KT 090V230 9999 FEW020 SCT060 33/22 Q1009 NOSIG
2026-04-27 04:00:00,METAR VVPB 270400Z 19003KT 140V250 9999 FEW020 SCT060 32/22 Q1009 NOSIG
2026-04-27 03:30:00,METAR VVPB 270330Z VRB03KT 9999 FEW020 SCT060 32/22 Q1010 NOSIG
2026-04-27 03:00:00,METAR VVPB 270300Z 07002KT 9999 FEW020 SCT060 30/23 Q1010 NOSIG
2026-04-27 02:30:00,METAR VVPB 270230Z 06003KT 9999 FEW020 SCT060 30/23 Q1010 NOSIG
2026-04-27 02:00:00,METAR VVPB 270200Z VRB01KT 9999 FEW020 SCT060 29/23 Q1011 NOSIG
2026-04-27 01:30:00,METAR VVPB 270130Z VRB02KT 9999 FEW020 SCT060 28/23 Q1010 NOSIG
2026-04-27 01:00:00,METAR VVPB 270100Z 15004KT 9999 FEW020 SCT060 27/23 Q1010 NOSIG
2026-04-27 00:30:00,METAR VVPB 270030Z 20003KT 9999 FEW020 SCT060 26/22 Q1010 NOSIG
2026-04-27 00:00:00,METAR VVPB 270000Z 19003KT 9999 FEW020 SCT060 26/22 Q1010 NOSIG
2026-04-26 23:30:00,METAR VVPB 262330Z 22003KT 9999 FEW020 SCT060 26/22 Q1010 NOSIG
2026-04-26 23:00:00,METAR VVPB 262300Z 22004KT 9999 FEW020 25/22 Q1010 NOSIG
2026-04-26 22:30:00,METAR VVPB 262230Z 22003KT 9999 FEW017 25/23 Q1010 NOSIG
2026-04-26 22:00:00,METAR VVPB 262200Z 21002KT 9999 FEW017 25/23 Q1009 NOSIG
2026-04-26 21:30:00,METAR VVPB 262130Z 21002KT 9999 FEW017 25/24 Q1009 NOSIG
2026-04-26 21:00:00,METAR VVPB 262100Z 16002KT 8000 FEW017 25/24 Q1008 NOSIG
2026-04-26 20:30:00,METAR VVPB 262030Z COR 29002KT 7000 FEW017 25/24 Q1009 NOSIG
2026-04-26 20:00:00,METAR VVPB 262000Z 20002KT 7000 FEW017 25/24 Q109 NOSIG
2026-04-26 19:30:00,METAR VVPB 261930Z 20002KT 9999 FEW017 25/24 Q109 NOSIG
2026-04-26 19:00:00,METAR VVPB 261900Z 20002KT 9999 FEW017 25/24 Q109 NOSIG
2026-04-26 18:30:00,METAR VVPB 261830Z 28002KT 9999 FEW020 25/24 Q109 NOSIG
2026-04-26 18:00:00,METAR VVPB 261800Z 31003KT 9999 FEW020 25/24 Q1010 NOSIG
2026-04-26 17:30:00,METAR VVPB 261730Z 33003KT 9999 FEW020 26/24 Q1010 NOSIG
2026-04-26 17:00:00,METAR VVPB 261700Z 33003KT 9999 FEW020 26/24 Q1010 NOSIG
2026-04-26 16:30:00,METAR VVPB 261630Z 33001KT 9999 FEW020 26/24 Q1010 NOSIG
2026-04-26 16:00:00,METAR VVPB 261600Z 36003KT 9999 SCT020 26/24 Q1011 NOSIG
2026-04-26 15:30:00,METAR VVPB 261530Z 01002KT 9999 SCT020 26/24 Q1011 NOSIG
2026-04-26 15:00:00,METAR VVPB 261500Z 07002KT 9999 SCT020 26/24 Q1011 NOSIG
2026-04-26 14:30:00,METAR VVPB 261430Z 13002KT 9999 SCT020 26/24 Q1011 NOSIG
2026-04-26 14:00:00,METAR VVPB 261400Z 09004KT 9999 SCT020 26/24 Q1011 NOSIG
2026-04-26 13:30:00,METAR VVPB 261330Z 11003KT 9999 SCT020 26/24 Q1010 NOSIG
2026-04-26 13:00:00,METAR VVPB 261300Z 09003KT 9999 SCT020 26/24 Q1010 NOSIG
2026-04-26 12:30:00,METAR VVPB 261230Z 06003KT 9999 SCT020 SCT050 26/24 Q1010 NOSIG
2026-04-26 12:00:00,METAR VVPB 261200Z 05003KT 9999 SCT020 SCT050 27/24 Q1010 NOSIG
2026-04-26 11:30:00,METAR VVPB 261130Z 09005KT 9999 SCT020 SCT050 27/24 Q1010 NOSIG
2026-04-26 11:00:00,METAR VVPB 261100Z 08006KT 9999 SCT020 SCT050 27/23 Q1009 NOSIG
2026-04-26 10:30:00,METAR VVPB 261030Z 06006KT 9999 SCT020 SCT050 28/23 Q1009 NOSIG
2026-04-26 10:00:00,METAR VVPB 261000Z 08006KT 9999 SCT020 SCT050 28/24 Q1009 NOSIG
2026-04-26 09:30:00,METAR VVPB 260930Z 09007KT 9999 SCT020 SCT050 28/23 Q1009 NOSIG
2026-04-26 09:00:00,METAR VVPB 260900Z 09008KT 9999 SCT020 SCT050 29/23 Q1008 NOSIG
2026-04-26 08:30:00,METAR VVPB 260830Z 07008KT 9999 SCT020 SCT050 28/23 Q1009 NOSIG
2026-04-26 08:00:00,METAR VVPB 260800Z 06008KT 9999 SCT020 SCT050 29/23 Q1009 NOSIG
2026-04-26 07:30:00,METAR VVPB 260730Z 06008KT 9999 SCT020 SCT050 29/23 Q1009 NOSIG
2026-04-26 07:00:00,METAR VVPB 260700Z 07009KT 9999 SCT020 SCT050 29/23 Q1009 NOSIG
2026-04-26 06:30:00,METAR VVPB 260630Z 06009KT 9999 SCT020 SCT050 30/23 Q1010 NOSIG
2026-04-26 06:00:00,METAR VVPB 260600Z 08009KT 9999 SCT020 SCT050 30/23 Q1010 NOSIG
2026-04-26 05:30:00,METAR VVPB 260530Z 07010KT 9999 SCT020 SCT050 29/23 Q1011 NOSIG
2026-04-26 05:00:00,METAR VVPB 260500Z 06008KT 9999 SCT020 SCT050 30/23 Q1011 NOSIG
2026-04-26 04:30:00,METAR VVPB 260430Z 09006KT 9999 SCT020 SCT050 30/23 Q1012 NOSIG
2026-04-26 04:00:00,METAR VVPB 260400Z 08008KT 9999 SCT020 SCT050 30/23 Q1012 NOSIG
2026-04-26 03:30:00,METAR VVPB 260330Z 07005KT 9999 SCT020 SCT050 30/24 Q1012 NOSIG
2026-04-26 03:00:00,METAR VVPB 260300Z 06004KT 9999 SCT020 29/24 Q1013 NOSIG
2026-04-26 02:30:00,METAR VVPB 260230Z 05002KT 9999 SCT020 29/22 Q1013 NOSIG
2026-04-26 02:00:00,METAR VVPB 260200Z 11003KT 9999 SCT020 29/23 Q1013 NOSIG
2026-04-26 01:30:00,METAR VVPB 260130Z 11003KT 9999 SCT020 28/24 Q1013 NOSIG
2026-04-26 01:00:00,METAR VVPB 260100Z 15001KT 9999 SCT020 27/24 Q1013 NOSIG
2026-04-26 00:30:00,METAR VVPB 260030Z 33001KT 9999 SCT020 27/24 Q1013 NOSIG
2026-04-26 00:00:00,METAR VVPB 260000Z 03001KT 9999 SCT020 26/24 Q1013 NOSIG
2026-04-25 23:30:00,METAR VVPB 252330Z 20002KT 9999 SCT020 26/24 Q1012 NOSIG
2026-04-25 23:00:00,METAR VVPB 252300Z 22002KT 9999 SCT020 25/24 Q1012 NOSIG
2026-04-25 22:30:00,METAR VVPB 252230Z 20001KT 9999 SCT020 25/24 Q1012 NOSIG
2026-04-25 22:00:00,METAR VVPB 252200Z 22002KT 9999 SCT020 25/24 Q1012 NOSIG
2026-04-25 21:30:00,METAR VVPB 252130Z 22002KT 9999 SCT020 25/24 Q1011 NOSIG
2026-04-25 21:00:00,METAR VVPB 252100Z 22002KT 9999 SCT020 25/24 Q1011 NOSIG
2026-04-25 20:30:00,METAR VVPB 252030Z 18002KT 9999 SCT020 25/24 Q1011 NOSIG
2026-04-25 20:00:00,METAR VVPB 252000Z 18001KT 9999 SCT020 25/24 Q1011 NOSIG
2026-04-25 19:30:00,METAR VVPB 251930Z 18001KT 9999 SCT020 25/24 Q1011 NOSIG
2026-04-25 19:00:00,METAR VVPB 251900Z 16002KT 9999 SCT020 25/24 Q1012 NOSIG
2026-04-25 18:30:00,METAR VVPB 251830Z 16002KT 9999 SCT020 25/24 Q1012 NOSIG
2026-04-25 18:00:00,METAR VVPB 251800Z 13002KT 9999 SCT020 25/24 Q1012 NOSIG
2026-04-25 17:30:00,METAR VVPB 251730Z 11001KT 9999 SCT020 26/24 Q1012 NOSIG
2026-04-25 17:00:00,METAR VVPB 251700Z COR 33001KT 9999 SCT020 26/24 Q1013 NOSIG
2026-04-25 16:30:00,METAR VVPB 251630Z 02003KT 9999 SCT020 26/24 Q1013 NOSIG
2026-04-25 16:00:00,METAR VVPB 251600Z 36003KT 9999 SCT020 26/24 Q1013 NOSIG
2026-04-25 15:30:00,METAR VVPB 251530Z 36003KT 9999 SCT020 26/24 Q1014 NOSIG
2026-04-25 15:00:00,METAR VVPB 251500Z 35002KT 9999 SCT020 26/24 Q1014 NOSIG
2026-04-25 14:30:00,METAR VVPB 251430Z 34003KT 9999 -RA SCT020 26/24 Q1014 NOSIG
2026-04-25 14:00:00,METAR VVPB 251400Z 34003KT 9999 SCT020 26/24 Q1014 NOSIG
2026-04-25 13:30:00,METAR VVPB 251330Z 36003KT 9999 FEW020 26/24 Q1014 NOSIG
2026-04-25 13:00:00,METAR VVPB 251300Z 04003KT 9999 FEW020 26/24 Q1013 NOSIG
2026-04-25 12:30:00,METAR VVPB 251230Z 04003KT 9999 FEW020 26/23 Q1013 NOSIG
2026-04-25 12:00:00,METAR VVPB 251200Z 02003KT 9999 FEW020 26/23 Q1012 NOSIG
2026-04-25 11:30:00,METAR VVPB 251130Z 01004KT 9999 FEW020 26/23 Q1012 NOSIG
2026-04-25 11:00:00,METAR VVPB 251100Z 04005KT 9999 FEW020 27/23 Q1012 NOSIG
2026-04-25 10:30:00,METAR VVPB 251030Z 05004KT 9999 FEW020 27/23 Q1011 NOSIG
2026-04-25 10:00:00,METAR VVPB 251000Z 05005KT 9999 SCT020 27/23 Q1011 NOSIG
2026-04-25 09:30:00,METAR VVPB 250930Z 08006KT 9999 SCT020 28/23 Q1011 NOSIG
2026-04-25 09:00:00,METAR VVPB 250900Z 06006KT 9999 SCT020 28/23 Q1011 NOSIG
2026-04-25 08:30:00,METAR VVPB 250830Z 08007KT 9999 SCT020 28/23 Q1011 NOSIG
2026-04-25 08:00:00,METAR VVPB 250800Z 05007KT 9999 SCT020 28/22 Q1011 NOSIG
2026-04-25 07:30:00,METAR VVPB 250730Z 05007KT 9999 SCT020 29/22 Q1011 NOSIG
2026-04-25 07:00:00,METAR VVPB 250700Z 03007KT 9999 SCT020 29/22 Q1012 NOSIG
2026-04-25 06:30:00,METAR VVPB 250630Z 03008KT 9999 SCT017 FEW020CB 29/23 Q1012 NOSIG
2026-04-25 06:00:00,METAR VVPB 250600Z 03008KT 9999 SCT017 FEW020CB 29/22 Q1012 NOSIG
2026-04-25 05:30:00,METAR VVPB 250530Z 04008KT 9999 SCT017 FEW020CB 29/22 Q1013 NOSIG
2026-04-25 05:00:00,METAR VVPB 250500Z 03008KT 9999 SCT020 SCT060 29/23 Q1013 NOSIG
2026-04-25 04:30:00,METAR VVPB 250430Z 36007KT 9999 SCT020 SCT060 30/23 Q1014 NOSIG
2026-04-25 04:00:00,METAR VVPB 250400Z 33005KT 9999 SCT020 SCT060 29/23 Q1014 NOSIG
2026-04-25 03:30:00,METAR VVPB 250330Z 36006KT 9999 SCT013 BKN050 28/23 Q1014 NOSIG
2026-04-25 03:00:00,METAR VVPB 250300Z 36006KT 9999 SCT013 BKN050 27/23 Q1015 NOSIG
2026-04-25 02:30:00,METAR VVPB 250230Z 36007KT 9999 SCT013 BKN050 27/24 Q1015 NOSIG
2026-04-25 02:00:00,METAR VVPB 250200Z 32005KT 9999 SCT013 BKN050 27/24 Q1015 NOSIG
2026-04-25 01:30:00,METAR VVPB 250130Z 33005KT 8000 SCT013 BKN050 27/24 Q1015 NOSIG
2026-04-25 01:00:00,METAR VVPB 250100Z 32004KT 8000 SCT013 BKN050 26/24 Q1015 NOSIG
2026-04-25 00:30:00,METAR VVPB 250030Z 30004KT 8000 SCT013 BKN050 26/24 Q1014 NOSIG
2026-04-25 00:00:00,METAR VVPB 250000Z 31003KT 8000 SCT015 BKN050 26/23 Q1014 NOSIG
2026-04-24 23:30:00,METAR VVPB 242330Z 30003KT 9999 SCT015 BKN050 26/23 Q1013 NOSIG
2026-04-24 23:00:00,METAR VVPB 242300Z 29004KT 9999 FEW020 BKN050 25/23 Q1013 NOSIG
2026-04-24 22:30:00,METAR VVPB 242230Z 30003KT 9999 FEW020 BKN050 25/23 Q1013 NOSIG
2026-04-24 22:00:00,METAR VVPB 242200Z 28003KT 9999 FEW020 BKN050 25/23 Q1012 NOSIG
2026-04-24 21:30:00,METAR VVPB 242130Z 24003KT 9999 FEW020 BKN045 25/22 Q1012 NOSIG
2026-04-24 21:00:00,METAR VVPB 242100Z 26003KT 9999 FEW020 BKN040 25/22 Q1012 NOSIG
2026-04-24 20:30:00,METAR VVPB 242030Z 24002KT 9999 FEW020 BKN040 25/22 Q1011 NOSIG
2026-04-24 20:00:00,METAR VVPB 242000Z 24001KT 9999 FEW020 BKN040 25/23 Q1011 NOSIG
2026-04-24 19:30:00,METAR VVPB 241930Z 25002KT 9999 FEW020 BKN040 25/23 Q1011 NOSIG
2026-04-24 19:00:00,METAR VVPB 241900Z 27003KT 9999 FEW020 BKN040 25/23 Q1011 NOSIG
2026-04-24 18:30:00,METAR VVPB 241830Z 27001KT 9999 FEW020 BKN040 25/23 Q1011 NOSIG
2026-04-24 18:00:00,METAR VVPB 241800Z 30002KT 9999 FEW020 BKN040 25/23 Q1011 NOSIG
2026-04-24 17:30:00,METAR VVPB 241730Z 31004KT 9999 FEW020 BKN040 25/23 Q1012 NOSIG
2026-04-24 17:00:00,METAR VVPB 241700Z 30003KT 9999 FEW020 BKN040 26/22 Q1012 NOSIG
2026-04-24 16:30:00,METAR VVPB 241630Z 20004KT 9999 FEW020 BKN035 26/22 Q1012 NOSIG
2026-04-24 16:00:00,METAR VVPB 241600Z 19003KT 9999 FEW020 BKN040 26/22 Q1013 NOSIG
2026-04-24 15:30:00,METAR VVPB 241530Z 21003KT 9999 SCT015 BKN050 26/22 Q1013 NOSIG
2026-04-24 15:00:00,METAR VVPB 241500Z 21003KT 9999 SCT015 BKN050 26/22 Q1013 NOSIG
2026-04-24 14:30:00,METAR VVPB 241430Z 21003KT 9999 SCT015 BKN050 26/22 Q1013 NOSIG
2026-04-24 14:00:00,METAR VVPB 241400Z 23004KT 9999 SCT015 BKN050 26/22 Q1013 NOSIG
2026-04-24 13:30:00,METAR VVPB 241330Z 23004KT 9999 SCT015 BKN050 26/22 Q1013 NOSIG
2026-04-24 13:00:00,METAR VVPB 241300Z 25002KT 9999 SCT015 BKN050 26/22 Q1012 NOSIG
2026-04-24 12:30:00,METAR VVPB 241230Z 21002KT 9999 SCT015 SCT050 26/22 Q1012 NOSIG
2026-04-24 12:00:00,METAR VVPB 241200Z 32002KT 9999 SCT015 SCT050 26/22 Q1012 NOSIG
2026-04-24 11:30:00,METAR VVPB 241130Z 22001KT 9999 SCT015 SCT050 26/22 Q1011 NOSIG
2026-04-24 11:00:00,METAR VVPB 241100Z 14005KT 9999 SCT015 SCT050 25/23 Q1010 NOSIG
2026-04-24 10:30:00,METAR VVPB 241030Z 12003KT 9999 SCT015 SCT050 26/23 Q1010 NOSIG
2026-04-24 10:00:00,METAR VVPB 241000Z 02003KT 9999 SCT015 SCT050 25/22 Q1010 NOSIG
2026-04-24 09:30:00,METAR VVPB 240930Z 36006KT 9999 SCT015 SCT050 25/22 Q1009 NOSIG
2026-04-24 09:00:00,METAR VVPB 240900Z 36007KT 9999 SCT015 SCT050 26/22 Q1009 NOSIG
2026-04-24 08:30:00,METAR VVPB 240830Z 35006KT 9999 SCT015 SCT050 26/22 Q1009 NOSIG
2026-04-24 08:00:00,METAR VVPB 240800Z 36007KT 9999 SCT015 SCT050 27/23 Q1009 NOSIG
2026-04-24 07:30:00,METAR VVPB 240730Z 35007KT 9999 SCT015 SCT050 27/23 Q1010 NOSIG
2026-04-24 07:00:00,METAR VVPB 240700Z 36007KT 9999 SCT015 SCT050 26/23 Q1010 NOSIG
2026-04-24 06:30:00,METAR VVPB 240630Z 35008KT 9999 SCT013 SCT050 26/23 Q1010 NOSIG
2026-04-24 06:00:00,METAR VVPB 240600Z 34007KT 9000 SCT013 SCT050 27/24 Q1011 NOSIG
2026-04-24 05:30:00,METAR VVPB 240530Z 33008KT 9000 SCT013 SCT050 27/24 Q1011 NOSIG
2026-04-24 05:00:00,METAR VVPB 240500Z 33008KT 9000 SCT013 SCT050 27/24 Q1011 NOSIG
2026-04-24 04:30:00,METAR VVPB 240430Z 34009KT 9000 SCT013 SCT050 27/24 Q1011 NOSIG
2026-04-24 04:00:00,METAR VVPB 240400Z 34009KT 7000 -RA SCT013 SCT050 27/24 Q1011 NOSIG
2026-04-24 03:30:00,METAR VVPB 240330Z 34009KT 7000 SCT015 BKN050 27/24 Q1011 NOSIG
2026-04-24 03:00:00,METAR VVPB 240300Z 32008KT 9000 SCT015 SCT050 28/24 Q1011 NOSIG
2026-04-24 02:30:00,METAR VVPB 240230Z 32008KT 9000 SCT013 SCT050 28/24 Q1011 NOSIG
2026-04-24 02:00:00,METAR VVPB 240200Z VRB02KT 9999 SCT013 SCT050 28/24 Q1010 NOSIG
2026-04-24 01:30:00,METAR VVPB 240130Z 27006KT 9999 SCT013 SCT050 28/24 Q1010 NOSIG
2026-04-24 01:00:00,METAR VVPB 240100Z 27005KT 9000 SCT015 SCT050 27/24 Q1010 NOSIG
2026-04-24 00:30:00,METAR VVPB 240030Z 28007KT 8000 SCT013 BKN050 27/24 Q1010 NOSIG
2026-04-24 00:00:00,METAR VVPB 240000Z 29006KT 8000 SCT013 BKN060 27/24 Q1010 NOSIG
2026-04-23 23:30:00,METAR VVPB 232330Z 30005KT 8000 SCT012 BKN060 27/24 Q1009 NOSIG
2026-04-23 23:00:00,METAR VVPB 232300Z 29003KT 8000 SCT012 SCT050 26/24 Q1009 NOSIG
2026-04-23 22:30:00,METAR VVPB 232230Z 14002KT 9999 SCT012 SCT050 26/24 Q1009 NOSIG
2026-04-23 22:00:00,METAR VVPB 232200Z 31003KT 9999 SCT012 26/24 Q1009 NOSIG
2026-04-23 19:00:00,METAR VVPB 231900Z 26004KT 9999 FEW017 26/23 Q1007 NOSIG
2026-04-23 18:30:00,METAR VVPB 231830Z 28005KT 9999 FEW017 SCT050 26/23 Q1007 NOSIG
2026-04-23 18:00:00,METAR VVPB 231800Z 28005KT 9999 FEW017 SCT050 26/23 Q1007 NOSIG
2026-04-23 17:30:00,METAR VVPB 231730Z 29005KT 9999 FEW017 SCT050 26/23 Q1008 NOSIG
2026-04-23 17:00:00,METAR VVPB 231700Z 30008KT 9999 FEW017 SCT050 27/23 Q1008 NOSIG
2026-04-23 16:30:00,METAR VVPB 231630Z 30008KT 9999 FEW017 SCT050 27/23 Q1008 NOSIG
2026-04-23 16:00:00,METAR VVPB 231600Z 30008KT 9999 FEW017 SCT050 27/23 Q1009 NOSIG
2026-04-23 15:30:00,METAR VVPB 231530Z 31008KT 9999 FEW017 SCT050 27/23 Q1009 NOSIG
2026-04-23 15:00:00,METAR VVPB 231500Z 31012KT 9999 FEW020 SCT050 27/23 Q1009 NOSIG
2026-04-23 14:30:00,METAR VVPB 231430Z 31008KT 9999 FEW020 SCT050 27/23 Q1008 NOSIG
2026-04-23 14:00:00,METAR VVPB 231400Z 30008KT 9999 FEW020 SCT050 28/23 Q1008 NOSIG
2026-04-23 13:30:00,METAR VVPB 231330Z 32008KT 9999 FEW020 SCT050 28/23 Q1007 NOSIG
2026-04-23 13:00:00,METAR VVPB 231300Z 30007KT 9999 FEW020 BKN050 29/21 Q1007 NOSIG
2026-04-23 12:30:00,METAR VVPB 231230Z 29007KT 9999 FEW020 BKN050 29/21 Q1007 NOSIG
2026-04-23 12:00:00,METAR VVPB 231200Z 29007KT 9999 FEW020 SCT060 29/21 Q1006 NOSIG
2026-04-23 11:30:00,METAR VVPB 231130Z 31004KT 9999 FEW020 SCT060 30/22 Q1006 NOSIG
2026-04-23 11:00:00,METAR VVPB 231100Z 31006KT 9999 FEW020 SCT060 30/22 Q1006 NOSIG
2026-04-23 10:30:00,METAR VVPB 231030Z 31004KT 9999 FEW020 SCT060 30/21 Q1005 NOSIG
2026-04-23 10:00:00,METAR VVPB 231000Z 28007KT 9999 FEW020 SCT060 30/21 Q1005 NOSIG
2026-04-23 09:30:00,METAR VVPB 230930Z 27006KT 9999 FEW020 SCT060 31/22 Q1005 NOSIG
2026-04-23 09:00:00,METAR VVPB 230900Z 28004KT 9999 FEW020 SCT060 32/22 Q1004 NOSIG
2026-04-23 08:30:00,METAR VVPB 230830Z 08005KT 050V110 9999 FEW020 SCT060 31/22 Q1004 NOSIG
2026-04-23 08:00:00,METAR VVPB 230800Z 07008KT 9000 FEW020 SCT060 32/22 Q1003 NOSIG
2026-04-23 07:30:00,METAR VVPB 230730Z 07008KT 9999 FEW020 33/23 Q1004 NOSIG
2026-04-23 07:00:00,METAR VVPB 230700Z 06008KT 9999 FEW020 34/23 Q1004 NOSIG
2026-04-23 06:30:00,METAR VVPB 230630Z 04008KT 9999 FEW020 34/23 Q1004 NOSIG
2026-04-23 06:00:00,METAR VVPB 230600Z 02006KT 9999 FEW020 35/22 Q1004 NOSIG
2026-04-23 05:30:00,METAR VVPB 230530Z 05005KT 010V090 9999 FEW020 36/23 Q1005 NOSIG
2026-04-23 05:00:00,METAR VVPB 230500Z 02005KT 320V080 9999 FEW020 35/23 Q1005 NOSIG
2026-04-23 04:30:00,METAR VVPB 230430Z 06005KT 020V090 9999 FEW020 35/23 Q1006 NOSIG
2026-04-23 04:00:00,METAR VVPB 230400Z 06006KT 9999 FEW020 35/24 Q1006 NOSIG
2026-04-23 03:30:00,METAR VVPB 230330Z 04005KT 9999 FEW020 34/24 Q1006 NOSIG
2026-04-23 03:00:00,METAR VVPB 230300Z 06006KT 9999 FEW020 33/25 Q1006 NOSIG
2026-04-23 02:30:00,METAR VVPB 230230Z 05005KT 040V110 9999 FEW020 33/24 Q1006 NOSIG
2026-04-23 02:00:00,METAR VVPB 230200Z 04004KT 010V070 9999 FEW020 33/24 Q1007 NOSIG
2026-04-23 01:30:00,METAR VVPB 230130Z VRB01KT 9999 FEW020 32/25 Q1006 NOSIG
2026-04-23 01:00:00,METAR VVPB 230100Z VRB02KT 9999 FEW020 33/22 Q1006 NOSIG
2026-04-23 00:30:00,METAR VVPB 230030Z 23003KT 9999 FEW020 32/23 Q1006 NOSIG
2026-04-23 00:00:00,METAR VVPB 230000Z 32001KT 9999 FEW020 30/22 Q1006 NOSIG
2026-04-22 23:30:00,METAR VVPB 222330Z 31002KT 9999 SCT020 28/23 Q1005 NOSIG
2026-04-22 23:00:00,METAR VVPB 222300Z 36001KT 9999 SCT020 26/24 Q1005 NOSIG
2026-04-22 22:30:00,METAR VVPB 222230Z 35001KT 9999 SCT020 26/24 Q1005 NOSIG
2026-04-22 22:00:00,METAR VVPB 222200Z 03001KT 9999 SCT020 26/24 Q1004 NOSIG
2026-04-22 21:30:00,METAR VVPB 222130Z 06002KT 9999 SCT020 26/24 Q1004 NOSIG
2026-04-22 21:00:00,METAR VVPB 222100Z 36001KT 9999 SCT020 26/24 Q1004 NOSIG
2026-04-22 20:30:00,METAR VVPB 222030Z 31002KT 9999 SCT020 26/23 Q1004 NOSIG
2026-04-22 20:00:00,METAR VVPB 222000Z 14003KT 9999 SCT020 27/23 Q1004 NOSIG
2026-04-22 19:30:00,METAR VVPB 221930Z 14003KT 9999 SCT020 27/23 Q1004 NOSIG
2026-04-22 19:00:00,METAR VVPB 221900Z 11002KT 9999 SCT020 27/24 Q1005 NOSIG
2026-04-22 18:30:00,METAR VVPB 221830Z 11002KT 9999 SCT020 27/24 Q1005 NOSIG
2026-04-22 18:00:00,METAR VVPB 221800Z 05001KT 9999 SCT020 27/24 Q1005 NOSIG
2026-04-22 17:30:00,METAR VVPB 221730Z 05001KT 9999 SCT020 27/24 Q1005 NOSIG
2026-04-22 17:00:00,METAR VVPB 221700Z 05002KT 9999 SCT020 27/24 Q1006 NOSIG
2026-04-22 16:30:00,METAR VVPB 221630Z 08003KT 9999 SCT020 28/23 Q1006 NOSIG
2026-04-22 16:00:00,METAR VVPB 221600Z 09001KT 9999 SCT020 29/23 Q1006 NOSIG
2026-04-22 15:30:00,METAR VVPB 221530Z 13002KT 9999 SCT020 30/22 Q1006 NOSIG
2026-04-22 15:00:00,METAR VVPB 221500Z 22004KT 9999 SCT020 31/22 Q1006 NOSIG
2026-04-22 14:30:00,METAR VVPB 221430Z 18002KT 9999 FEW020 30/22 Q1006 NOSIG
2026-04-22 14:00:00,METAR VVPB 221400Z 18002KT 9999 FEW020 30/22 Q1005 NOSIG
2026-04-22 13:30:00,METAR VVPB 221330Z 21002KT 9999 FEW020 31/22 Q1005 NOSIG
2026-04-22 13:00:00,METAR VVPB 221300Z 19002KT 9999 FEW020 30/23 Q1005 NOSIG
2026-04-22 12:30:00,METAR VVPB 221230Z 13001KT 9999 FEW020 30/22 Q1005 NOSIG
2026-04-22 12:00:00,METAR VVPB 221200Z 12003KT 9999 FEW020 30/22 Q1004 NOSIG
2026-04-22 11:30:00,METAR VVPB 221130Z 08003KT 9999 FEW020 30/22 Q1004 NOSIG
2026-04-22 11:00:00,METAR VVPB 221100Z 11005KT 9999 FEW020 31/21 Q1004 NOSIG
2026-04-22 10:30:00,METAR VVPB 221030Z 10005KT 9999 FEW020 32/22 Q1004 NOSIG
2026-04-22 10:00:00,METAR VVPB 221000Z 10005KT 9999 FEW020 32/21 Q1004 NOSIG
2026-04-22 09:30:00,METAR VVPB 220930Z 12006KT 9999 FEW020 33/21 Q1004 NOSIG
2026-04-22 09:00:00,METAR VVPB 220900Z 11008KT 9999 FEW020 34/21 Q1004 NOSIG
2026-04-22 08:30:00,METAR VVPB 220830Z 09008KT 9999 FEW020 34/21 Q1004 NOSIG
2026-04-22 08:00:00,METAR VVPB 220800Z 09008KT 9999 FEW020 34/21 Q1004 NOSIG
2026-04-22 07:30:00,METAR VVPB 220730Z 07007KT 9999 FEW020 34/22 Q1004 NOSIG
2026-04-22 07:00:00,METAR VVPB 220700Z 08008KT 9999 FEW020 33/22 Q1005 NOSIG
2026-04-22 06:30:00,METAR VVPB 220630Z 07009KT 9999 FEW020 34/22 Q1005 NOSIG
2026-04-22 06:00:00,METAR VVPB 220600Z 06007KT 9999 FEW020 34/23 Q1006 NOSIG
2026-04-22 05:30:00,METAR VVPB 220530Z 05008KT 9999 FEW020 34/23 Q1006 NOSIG
2026-04-22 05:00:00,METAR VVPB 220500Z 08007KT 9999 FEW020 34/23 Q1007 NOSIG
2026-04-22 04:30:00,METAR VVPB 220430Z 08007KT 9999 FEW020 33/23 Q1007 NOSIG
2026-04-22 04:00:00,METAR VVPB 220400Z 05005KT 9999 FEW020 34/22 Q1008 NOSIG
2026-04-22 03:30:00,METAR VVPB 220330Z 09005KT 9999 FEW020 34/24 Q1008 NOSIG
2026-04-22 03:00:00,METAR VVPB 220300Z 12004KT 9999 FEW020 33/23 Q1008 NOSIG
2026-04-22 02:30:00,METAR VVPB 220230Z 16003KT 9999 FEW020 33/22 Q1008 NOSIG
2026-04-22 02:00:00,METAR VVPB 220200Z 15003KT 9999 FEW020 32/22 Q1008 NOSIG
2026-04-22 01:30:00,METAR VVPB 220130Z 22002KT 9999 FEW020 31/22 Q1008 NOSIG
2026-04-22 01:00:00,METAR VVPB 220100Z 22003KT 9999 FEW017 30/22 Q1008 NOSIG
2026-04-22 00:30:00,METAR VVPB 220030Z 23002KT 9999 FEW017 29/21 Q1008 NOSIG
2026-04-22 00:00:00,METAR VVPB 220000Z 30003KT 9999 FEW017 28/22 Q1007 NOSIG
2026-04-21 23:30:00,METAR VVPB 212330Z 33003KT 9999 SCT017 26/22 Q1007 NOSIG
2026-04-21 23:00:00,METAR VVPB 212300Z 34002KT 9999 SCT017 25/22 Q1006 NOSIG
2026-04-21 22:30:00,METAR VVPB 212230Z 12001KT 9999 SCT017 26/23 Q1006 NOSIG
2026-04-21 22:00:00,METAR VVPB 212200Z 26002KT 9999 SCT017 26/23 Q1006 NOSIG
2026-04-21 21:30:00,METAR VVPB 212130Z 30004KT 9999 SCT017 25/23 Q1005 NOSIG
2026-04-21 21:00:00,METAR VVPB 212100Z 36002KT 9999 SCT017 26/23 Q1005 NOSIG
2026-04-21 20:30:00,METAR VVPB 212030Z 35002KT 9999 SCT017 26/23 Q1005 NOSIG
2026-04-21 20:00:00,METAR VVPB 212000Z 35002KT 9999 SCT017 25/23 Q1005 NOSIG
2026-04-21 19:30:00,METAR VVPB 211930Z 27001KT 9999 SCT017 25/23 Q1005 NOSIG
2026-04-21 19:00:00,METAR VVPB 211900Z 36001KT 9999 SCT017 25/24 Q1005 NOSIG
2026-04-21 18:30:00,METAR VVPB 211830Z 10002KT 9999 SCT017 26/24 Q1005 NOSIG
2026-04-21 18:00:00,METAR VVPB 211800Z 10002KT 9999 SCT017 26/23 Q1006 NOSIG
2026-04-21 17:30:00,METAR VVPB 211730Z 15001KT 9999 SCT017 26/23 Q1006 NOSIG
2026-04-21 17:00:00,METAR VVPB 211700Z 16002KT 9999 SCT017 26/23 Q1006 NOSIG
2026-04-21 16:30:00,METAR VVPB 211630Z 31001KT 9999 SCT017 26/23 Q1007 NOSIG
2026-04-21 16:00:00,METAR VVPB 211600Z 35002KT 9999 SCT017 26/23 Q1007 NOSIG
2026-04-21 15:30:00,METAR VVPB 211530Z 03001KT 9999 SCT017 27/23 Q1008 NOSIG
2026-04-21 15:00:00,METAR VVPB 211500Z 01002KT 9999 SCT017 27/23 Q1008 NOSIG
2026-04-21 14:30:00,METAR VVPB 211430Z 05002KT 9999 SCT017 27/23 Q1007 NOSIG
2026-04-21 14:00:00,METAR VVPB 211400Z 04003KT 9999 SCT017 27/23 Q1007 NOSIG
2026-04-21 13:30:00,METAR VVPB 211330Z 06002KT 9999 SCT017 28/22 Q1007 NOSIG
2026-04-21 13:00:00,METAR VVPB 211300Z 30003KT 9999 SCT017 28/22 Q1006 NOSIG
2026-04-21 12:30:00,METAR VVPB 211230Z 35002KT 9999 FEW020 28/22 Q1006 NOSIG
2026-04-21 12:00:00,METAR VVPB 211200Z 09002KT 9999 FEW020 29/22 Q1006 NOSIG
2026-04-21 11:30:00,METAR VVPB 211130Z 14002KT 9999 FEW020 29/22 Q1006 NOSIG
2026-04-21 11:00:00,METAR VVPB 211100Z 06004KT 9999 FEW020 29/22 Q1005 NOSIG
2026-04-21 10:30:00,METAR VVPB 211030Z 18001KT 9999 FEW020 31/21 Q1005 NOSIG
2026-04-21 10:00:00,METAR VVPB 211000Z 09004KT 9999 FEW020 31/21 Q1005 NOSIG
2026-04-21 09:30:00,METAR VVPB 210930Z 11005KT 9999 FEW020 32/21 Q1005 NOSIG
2026-04-21 09:00:00,METAR VVPB 210900Z 11005KT 9999 FEW020 32/21 Q1005 NOSIG
2026-04-21 08:30:00,METAR VVPB 210830Z 10008KT 9999 FEW020 33/21 Q1005 NOSIG
2026-04-21 08:00:00,METAR VVPB 210800Z 08009KT 9999 FEW020 33/21 Q1005 NOSIG
2026-04-21 07:30:00,METAR VVPB 210730Z 08009KT 9999 FEW020 32/21 Q1005 NOSIG
2026-04-21 07:00:00,METAR VVPB 210700Z 07008KT 9999 FEW020 33/22 Q1005 NOSIG
2026-04-21 06:30:00,METAR VVPB 210630Z 07008KT 9999 FEW020 33/22 Q1006 NOSIG
2026-04-21 06:00:00,METAR VVPB 210600Z 08007KT 9999 FEW020 33/23 Q1006 NOSIG
2026-04-21 05:30:00,METAR VVPB 210530Z 08006KT 9999 FEW020 32/23 Q1007 NOSIG
2026-04-21 05:00:00,METAR VVPB 210500Z 08007KT 9999 FEW020 32/23 Q1007 NOSIG
2026-04-21 04:30:00,METAR VVPB 210430Z 08006KT 9999 FEW020 33/22 Q1008 NOSIG
2026-04-21 04:00:00,METAR VVPB 210400Z 06005KT 9999 FEW020 33/23 Q1008 NOSIG
2026-04-21 03:30:00,METAR VVPB 210330Z 09004KT 9999 FEW020 32/23 Q1009 NOSIG
2026-04-21 03:00:00,METAR VVPB 210300Z 04003KT 9999 FEW020 31/23 Q1009 NOSIG
2026-04-21 02:30:00,METAR VVPB 210230Z 02003KT 9999 FEW020 30/23 Q1009 NOSIG
2026-04-21 02:00:00,METAR VVPB 210200Z 12002KT 9999 FEW020 29/23 Q1009 NOSIG
2026-04-21 01:30:00,METAR VVPB 210130Z 13002KT 9999 FEW020 29/23 Q1009 NOSIG
2026-04-21 01:00:00,METAR VVPB 210100Z 32002KT 9999 FEW020 28/22 Q1009 NOSIG
2026-04-21 00:30:00,METAR VVPB 210030Z 34001KT 9000 FEW017 SCT060 27/23 Q1009 NOSIG
2026-04-21 00:00:00,METAR VVPB 210000Z 34001KT 8000 FEW017 SCT060 26/23 Q1009 NOSIG
2026-04-20 23:30:00,METAR VVPB 202330Z 33002KT 7000 FEW017 SCT060 25/23 Q1008 NOSIG
2026-04-20 23:00:00,METAR VVPB 202300Z 11001KT 4500 BR FEW017 SCT060 24/23 Q1008 BECMG TL0015 7000 NSW
2026-04-20 22:30:00,METAR VVPB 202230Z 13001KT 7000 FEW017 SCT060 24/23 Q1007 BECMG TL2345 4000 BR
2026-04-20 22:00:00,METAR VVPB 202200Z 12001KT 9000 FEW017 SCT060 24/22 Q1007 NOSIG
2026-04-20 21:30:00,METAR VVPB 202130Z 11001KT 9999 FEW017 SCT060 24/22 Q1007 NOSIG
2026-04-20 21:00:00,METAR VVPB 202100Z 06001KT 9999 FEW017 SCT060 24/22 Q1007 NOSIG
2026-04-20 20:30:00,METAR VVPB 202030Z 32001KT 9999 FEW017 SCT060 24/22 Q1007 NOSIG
2026-04-20 20:00:00,METAR VVPB 202000Z 36003KT 9999 FEW017 SCT060 24/23 Q1007 NOSIG
2026-04-20 19:30:00,METAR VVPB 201930Z 36003KT 9999 FEW017 SCT060 24/23 Q1007 NOSIG
2026-04-20 19:00:00,METAR VVPB 201900Z 03002KT 9999 FEW017 SCT060 25/23 Q1007 NOSIG
2026-04-20 18:30:00,METAR VVPB 201830Z 27001KT 9999 FEW017 SCT060 25/22 Q1007 NOSIG
2026-04-20 18:00:00,METAR VVPB 201800Z 22004KT 9999 FEW017 SCT060 26/22 Q1007 NOSIG
2026-04-20 17:30:00,METAR VVPB 201730Z 22003KT 9999 FEW017 SCT060 26/22 Q1008 NOSIG
2026-04-20 17:00:00,METAR VVPB 201700Z 23003KT 9999 FEW017 SCT060 26/22 Q1008 NOSIG
2026-04-20 16:30:00,METAR VVPB 201630Z 22003KT 9999 FEW017 SCT060 26/22 Q1009 NOSIG
2026-04-20 16:00:00,METAR VVPB 201600Z 18002KT 9999 FEW017 SCT060 26/22 Q1009 NOSIG
2026-04-20 15:30:00,METAR VVPB 201530Z 21001KT 9999 FEW017 SCT060 26/23 Q1010 NOSIG
2026-04-20 15:00:00,METAR VVPB 201500Z 20001KT 9999 FEW017 SCT060 26/22 Q1010 NOSIG
2026-04-20 14:30:00,METAR VVPB 201430Z 14001KT 9999 FEW017 SCT060 26/22 Q1010 NOSIG
2026-04-20 14:00:00,METAR VVPB 201400Z 04010KT 9999 FEW017 SCT060 26/22 Q1009 NOSIG
2026-04-20 13:30:00,METAR VVPB 201330Z 02003KT 9999 FEW017 SCT060 26/22 Q1009 NOSIG
2026-04-20 13:00:00,METAR VVPB 201300Z 21002KT 9999 FEW017 SCT060 27/23 Q1009 NOSIG
2026-04-20 12:30:00,METAR VVPB 201230Z 11003KT 9999 FEW017 SCT060 27/22 Q1008 NOSIG
2026-04-20 12:00:00,METAR VVPB 201200Z 26002KT 9999 FEW017 SCT060 27/21 Q1008 NOSIG
2026-04-20 11:30:00,METAR VVPB 201130Z 28003KT 9999 FEW017 SCT060 28/21 Q1008 NOSIG
2026-04-20 11:00:00,METAR VVPB 201100Z 20002KT 9999 FEW017 SCT060 28/21 Q1007 NOSIG
2026-04-20 10:30:00,METAR VVPB 201030Z 26004KT 9999 FEW017 SCT060 28/21 Q1007 NOSIG
2026-04-20 10:00:00,METAR VVPB 201000Z 29005KT 9999 FEW017 SCT060 29/21 Q1007 NOSIG
2026-04-20 09:30:00,METAR VVPB 200930Z 02002KT 9999 FEW017 FEW020CB SCT060 30/22 Q1007 NOSIG
2026-04-20 09:00:00,METAR VVPB 200900Z 10003KT 9999 FEW017 FEW020CB 30/21 Q1007 TEMPO TL1010 4500 TSRA
2026-04-20 08:30:00,METAR VVPB 200830Z COR 07006KT 9999 VCTS FEW017 FEW020CB 30/22 Q1006 TEMPO FM0905 4500 TSRA
2026-04-20 08:00:00,METAR VVPB 200800Z 06007KT 9999 FEW020 31/21 Q1007 NOSIG
2026-04-20 07:30:00,METAR VVPB 200730Z 06007KT 9999 FEW020 31/22 Q1007 NOSIG
2026-04-20 07:00:00,METAR VVPB 200700Z 07009KT 9999 FEW020 31/22 Q1007 NOSIG
2026-04-20 06:30:00,METAR VVPB 200630Z 05008KT 9999 FEW020 32/22 Q1007 NOSIG
2026-04-20 06:00:00,METAR VVPB 200600Z 05008KT 9999 FEW020 31/23 Q1008 NOSIG
2026-04-20 05:30:00,METAR VVPB 200530Z 06007KT 9999 FEW020 31/24 Q1008 NOSIG
2026-04-20 05:00:00,METAR VVPB 200500Z 03006KT 9999 FEW020 31/24 Q1009 NOSIG
2026-04-20 04:30:00,METAR VVPB 200430Z 01003KT 9999 FEW020 32/22 Q1009 NOSIG
2026-04-20 04:00:00,METAR VVPB 200400Z 03004KT 9999 FEW020 31/24 Q1010 NOSIG
2026-04-20 03:30:00,METAR VVPB 200330Z 03003KT 9999 FEW020 30/23 Q1010 NOSIG
2026-04-20 03:00:00,METAR VVPB 200300Z 06004KT 9999 FEW020 30/24 Q1010 NOSIG
2026-04-20 02:30:00,METAR VVPB 200230Z 30004KT 9999 FEW020 29/23 Q1010 NOSIG
2026-04-20 02:00:00,METAR VVPB 200200Z 33006KT 9999 FEW020 28/23 Q1011 NOSIG
2026-04-20 01:30:00,METAR VVPB 200130Z 32006KT 9999 FEW020 28/23 Q1010 NOSIG
2026-04-20 01:00:00,METAR VVPB 200100Z 29005KT 8000 FEW020 SCT060 27/22 Q1010 NOSIG
2026-04-20 00:30:00,METAR VVPB 200030Z 29005KT 8000 FEW020 SCT060 27/22 Q1010 NOSIG
2026-04-20 00:00:00,METAR VVPB 200000Z 28004KT 8000 FEW020 SCT060 26/22 Q1009 NOSIG
2026-04-19 23:30:00,METAR VVPB 192330Z 27002KT 5000 BR FEW020 SCT060 25/23 Q1009 BECMG TL0030 7000 NSW
2026-04-19 23:00:00,METAR VVPB 192300Z 32003KT 4500 BR FEW020 SCT060 24/23 Q1008 BECMG TL0030 7000 NSW
2026-04-19 22:30:00,METAR VVPB 192230Z 30003KT 5000 BR FEW020 SCT060 24/23 Q1008 NOSIG
2026-04-19 22:00:00,METAR VVPB 192200Z 30003KT 8000 FEW020 SCT060 25/23 Q1008 NOSIG
2026-04-19 21:30:00,METAR VVPB 192130Z 26001KT 8000 FEW020 SCT060 25/23 Q1008 NOSIG
2026-04-19 21:00:00,METAR VVPB 192100Z 28001KT 8000 FEW020 SCT060 25/23 Q1007 NOSIG
2026-04-19 20:30:00,METAR VVPB 192030Z 26001KT 8000 FEW020 SCT060 25/23 Q1008 NOSIG
2026-04-19 20:00:00,METAR VVPB 192000Z 28002KT 9999 FEW020 SCT060 25/23 Q1008 NOSIG
2026-04-19 19:30:00,METAR VVPB 191930Z 29003KT 9999 FEW020 SCT060 25/23 Q1008 NOSIG
2026-04-19 19:00:00,METAR VVPB 191900Z 29003KT 9999 FEW020 SCT060 26/23 Q1008 NOSIG
2026-04-19 18:30:00,METAR VVPB 191830Z 27002KT 9999 FEW020 SCT060 26/23 Q1009 NOSIG
2026-04-19 18:00:00,METAR VVPB 191800Z 05002KT 9999 FEW020 SCT060 26/23 Q1009 NOSIG
2026-04-19 17:30:00,METAR VVPB 191730Z 05003KT 9999 FEW020 SCT060 26/24 Q1009 NOSIG
2026-04-19 17:00:00,METAR VVPB 191700Z 03002KT 9999 FEW020 SCT060 26/24 Q1010 NOSIG
2026-04-19 16:30:00,METAR VVPB 191630Z 04002KT 9999 SCT020 SCT060 26/23 Q1010 NOSIG
2026-04-19 16:00:00,METAR VVPB 191600Z 02001KT 9999 SCT020 SCT060 26/23 Q1010 NOSIG
2026-04-19 15:30:00,METAR VVPB 191530Z 26005KT 9999 SCT020 SCT060 27/23 Q1011 NOSIG
2026-04-19 15:00:00,METAR VVPB 191500Z 30004KT 9999 SCT020 SCT060 27/23 Q1011 NOSIG
2026-04-19 14:30:00,METAR VVPB 191430Z 22004KT 9999 SCT020 SCT060 27/23 Q1011 NOSIG
2026-04-19 14:00:00,METAR VVPB 191400Z 23002KT 9999 FEW020 BKN050 27/23 Q1010 NOSIG
2026-04-19 13:30:00,METAR VVPB 191330Z 27007KT 9999 FEW020 BKN050 27/23 Q1010 NOSIG
2026-04-19 13:00:00,METAR VVPB 191300Z 27004KT 9999 FEW020 BKN050 27/23 Q1010 NOSIG
2026-04-19 12:30:00,METAR VVPB 191230Z 24004KT 9999 FEW020 BKN050 27/23 Q1010 NOSIG
2026-04-19 12:00:00,METAR VVPB 191200Z 23004KT 9999 FEW020 BKN050 27/23 Q1009 NOSIG
2026-04-19 11:30:00,METAR VVPB 191130Z 19002KT 9999 FEW020 BKN050 27/23 Q1009 NOSIG
2026-04-19 11:00:00,METAR VVPB 191100Z 03003KT 8000 FEW020 BKN050 27/23 Q1008 NOSIG
2026-04-19 10:30:00,METAR VVPB 191030Z 36004KT 8000 FEW020 BKN060 27/23 Q1008 NOSIG
2026-04-19 10:00:00,METAR VVPB 191000Z 31003KT 9999 FEW020 BKN060 27/23 Q1007 NOSIG
2026-04-19 09:30:00,METAR VVPB 190930Z 04003KT 9999 FEW020 BKN060 27/23 Q1007 NOSIG
2026-04-19 09:00:00,METAR VVPB 190900Z 09005KT 9999 FEW020 BKN060 27/23 Q1007 NOSIG
2026-04-19 08:30:00,METAR VVPB 190830Z 05007KT 9999 FEW020 SCT060 28/23 Q1007 NOSIG
2026-04-19 08:00:00,METAR VVPB 190800Z 04006KT 9999 FEW020 SCT060 29/23 Q1007 NOSIG
2026-04-19 07:30:00,METAR VVPB 190730Z 03006KT 9999 FEW020 SCT060 30/23 Q1007 NOSIG
2026-04-19 07:00:00,METAR VVPB 190700Z 05006KT 9999 FEW020 30/22 Q1007 NOSIG
2026-04-19 06:30:00,METAR VVPB 190630Z 04006KT 9999 FEW020 30/23 Q1007 NOSIG
2026-04-19 06:00:00,METAR VVPB 190600Z 03006KT 9999 FEW020 30/23 Q1008 NOSIG
2026-04-19 05:30:00,METAR VVPB 190530Z 06007KT 9999 FEW020 30/23 Q1009 NOSIG
2026-04-19 05:00:00,METAR VVPB 190500Z 03006KT 9999 SCT020 30/23 Q1009 NOSIG
2026-04-19 04:30:00,METAR VVPB 190430Z 03006KT 9999 SCT020 30/24 Q1010 NOSIG
2026-04-19 04:00:00,METAR VVPB 190400Z 06005KT 9999 SCT018 29/24 Q1010 NOSIG
2026-04-19 03:30:00,METAR VVPB 190330Z 02006KT 9999 SCT018 30/24 Q1010 NOSIG
2026-04-19 03:00:00,METAR VVPB 190300Z 03004KT 9999 SCT017 30/24 Q1010 NOSIG
2026-04-19 02:30:00,METAR VVPB 190230Z 02004KT 9999 SCT017 29/24 Q1011 NOSIG
2026-04-19 02:00:00,METAR VVPB 190200Z 33002KT 9999 SCT015 SCT060 28/24 Q1011 NOSIG
2026-04-19 01:30:00,METAR VVPB 190130Z 32002KT 8000 SCT013 SCT060 28/24 Q1011 NOSIG
2026-04-19 01:00:00,METAR VVPB 190100Z 31004KT 8000 SCT013 SCT060 27/24 Q1011 NOSIG
2026-04-19 00:30:00,METAR VVPB 190030Z 29004KT 9000 BKN013 27/24 Q1010 NOSIG
2026-04-19 00:00:00,METAR VVPB 190000Z 30002KT 7000 BKN013 26/24 Q1010 NOSIG
2026-04-18 23:30:00,METAR VVPB 182330Z COR 35002KT 7000 BKN013 26/24 Q1010 NOSIG
2026-04-18 23:00:00,METAR VVPB 182300Z 35003KT 5000 BR BKN013 25/24 Q1009 NOSIG
2026-04-18 22:30:00,METAR VVPB 182230Z 35003KT 9999 SCT017 SCT060 25/24 Q1009 NOSIG
2026-04-18 22:00:00,METAR VVPB 182200Z 07003KT 9999 SCT017 SCT060 25/24 Q1009 NOSIG
2026-04-18 21:30:00,METAR VVPB 182130Z 10002KT 9999 SCT017 SCT060 26/24 Q1009 NOSIG
2026-04-18 21:00:00,METAR VVPB 182100Z 32002KT 9999 SCT017 SCT060 25/24 Q1009 NOSIG
2026-04-18 20:30:00,METAR VVPB 182030Z 27001KT 9999 SCT017 SCT060 25/23 Q1008 NOSIG
2026-04-18 20:00:00,METAR VVPB 182000Z 27002KT 9999 SCT017 SCT060 25/23 Q1008 NOSIG
2026-04-18 19:30:00,METAR VVPB 181930Z 22001KT 9999 SCT017 SCT060 26/23 Q1008 NOSIG
2026-04-18 19:00:00,METAR VVPB 181900Z 16001KT 9999 SCT017 SCT060 26/23 Q1009 NOSIG
2026-04-18 18:30:00,METAR VVPB 181830Z 16001KT 9999 SCT017 SCT060 25/23 Q1009 NOSIG
2026-04-18 18:00:00,METAR VVPB 181800Z 16002KT 9999 SCT017 SCT060 26/23 Q1009 NOSIG
2026-04-18 17:30:00,METAR VVPB 181730Z 27002KT 9999 SCT017 SCT060 25/23 Q1010 NOSIG
2026-04-18 17:00:00,METAR VVPB 181700Z 29002KT 9999 SCT017 SCT060 25/23 Q1010 NOSIG
2026-04-18 16:30:00,METAR VVPB 181630Z 29003KT 9999 SCT017 SCT060 25/23 Q1010 NOSIG
2026-04-18 16:00:00,METAR VVPB 181600Z 33003KT 9999 SCT017 SCT060 26/22 Q1010 NOSIG
2026-04-18 15:00:00,METAR VVPB 181500Z 35001KT 9999 SCT017 SCT060 26/22 Q1010 NOSIG
2026-04-18 14:30:00,METAR VVPB 181430Z 12001KT 9999 SCT017 SCT060 26/22 Q1010 NOSIG
2026-04-18 14:00:00,METAR VVPB 181400Z 08003KT 9999 SCT017 SCT060 26/22 Q1010 NOSIG
2026-04-18 13:30:00,METAR VVPB 181330Z 06006KT 9999 SCT017 SCT060 26/22 Q1009 NOSIG
2026-04-18 13:00:00,METAR VVPB 181300Z 09006KT 9999 SCT017 SCT060 26/22 Q1009 NOSIG
2026-04-18 12:30:00,METAR VVPB 181230Z 07005KT 9999 SCT020 SCT060 27/23 Q1009 NOSIG
2026-04-18 12:00:00,METAR VVPB 181200Z 08004KT 9999 SCT020 SCT060 27/23 Q1008 NOSIG
2026-04-18 11:30:00,METAR VVPB 181130Z 09004KT 9999 SCT020 SCT060 27/23 Q1008 NOSIG
2026-04-18 11:00:00,METAR VVPB 181100Z 08006KT 9999 SCT020 SCT060 27/23 Q1008 NOSIG
2026-04-18 10:30:00,METAR VVPB 181030Z 08007KT 9999 SCT020 SCT060 28/23 Q1008 NOSIG
2026-04-18 10:00:00,METAR VVPB 181000Z 08007KT 9999 SCT020 SCT060 28/23 Q1008 NOSIG
2026-04-18 09:30:00,METAR VVPB 180930Z 07009KT 9999 SCT020 SCT060 28/23 Q1007 NOSIG
2026-04-18 09:00:00,METAR VVPB 180900Z 07008KT 9999 SCT020 SCT060 29/23 Q1007 NOSIG
2026-04-18 08:30:00,METAR VVPB 180830Z 09008KT 9999 SCT020 SCT060 30/23 Q1008 NOSIG
2026-04-18 08:00:00,METAR VVPB 180800Z 07009KT 9999 SCT020 SCT060 30/23 Q1008 NOSIG
2026-04-18 07:30:00,METAR VVPB 180730Z 06010KT 9999 SCT020 SCT060 30/23 Q1008 NOSIG
2026-04-18 07:00:00,METAR VVPB 180700Z 06007KT 9999 SCT020 SCT060 30/23 Q1008 NOSIG
2026-04-18 06:30:00,METAR VVPB 180630Z 06008KT 9999 SCT017 SCT060 30/23 Q1009 NOSIG
2026-04-18 06:00:00,METAR VVPB 180600Z 08007KT 9999 SCT017 SCT060 30/24 Q1009 NOSIG
2026-04-18 05:30:00,METAR VVPB 180530Z 03004KT 9999 SCT017 SCT060 31/24 Q1010 NOSIG
2026-04-18 05:00:00,METAR VVPB 180500Z 06004KT 9999 SCT017 SCT060 30/23 Q1010 NOSIG
2026-04-18 04:30:00,METAR VVPB 180430Z 02005KT 9999 SCT017 SCT060 29/23 Q1011 NOSIG
2026-04-18 04:00:00,METAR VVPB 180400Z 04004KT 9999 SCT017 SCT060 28/23 Q1011 NOSIG
2026-04-18 03:30:00,METAR VVPB 180330Z 04005KT 9999 SCT017 SCT060 28/23 Q1011 NOSIG
2026-04-18 03:00:00,METAR VVPB 180300Z 04005KT 9999 SCT017 SCT060 29/23 Q1011 NOSIG
2026-04-18 02:30:00,METAR VVPB 180230Z 04004KT 9999 SCT017 SCT060 28/24 Q1011 NOSIG
2026-04-18 02:00:00,METAR VVPB 180200Z 03005KT 9999 SCT017 SCT060 28/24 Q1011 NOSIG
2026-04-18 01:30:00,METAR VVPB 180130Z 02005KT 7000 SCT017 SCT060 28/24 Q1011 NOSIG
2026-04-18 01:00:00,METAR VVPB 180100Z 34006KT 7000 FEW017 SCT060 28/24 Q1011 NOSIG
2026-04-18 00:30:00,METAR VVPB 180030Z 34005KT 7000 FEW017 SCT060 27/25 Q1011 NOSIG
2026-04-18 00:00:00,METAR VVPB 180000Z 32004KT 7000 FEW017 SCT060 27/25 Q1010 NOSIG
2026-04-17 23:30:00,METAR VVPB 172330Z 32003KT 6000 FEW017 SCT060 26/25 Q1009 NOSIG
2026-04-17 23:00:00,METAR VVPB 172300Z 31002KT 6000 SCT017 SCT060 26/25 Q1009 NOSIG
2026-04-17 22:30:00,METAR VVPB 172230Z 29002KT 7000 SCT017 26/24 Q1009 NOSIG
2026-04-17 22:00:00,METAR VVPB 172200Z 34002KT 8000 FEW017 26/24 Q1009 NOSIG
2026-04-17 21:30:00,METAR VVPB 172130Z 29002KT 8000 FEW017 26/24 Q1009 NOSIG
2026-04-17 21:00:00,METAR VVPB 172100Z 31004KT 8000 FEW017 26/25 Q1009 NOSIG
2026-04-17 20:30:00,METAR VVPB 172030Z 32003KT 8000 FEW017 26/25 Q1009 NOSIG
2026-04-17 20:00:00,METAR VVPB 172000Z 32003KT 8000 FEW017 27/25 Q1009 NOSIG
2026-04-17 19:30:00,METAR VVPB 171930Z 36003KT 8000 FEW017 26/25 Q1009 NOSIG
2026-04-17 19:00:00,METAR VVPB 171900Z 03002KT 8000 FEW017 26/25 Q1009 NOSIG
2026-04-17 18:30:00,METAR VVPB 171830Z 33004KT 8000 FEW017 27/25 Q1009 NOSIG
2026-04-17 18:00:00,METAR VVPB 171800Z 23003KT 8000 FEW017 27/25 Q1009 NOSIG
2026-04-17 17:30:00,METAR VVPB 171730Z 23003KT 8000 FEW017 27/25 Q1009 NOSIG
2026-04-17 17:00:00,METAR VVPB 171700Z 19002KT 9999 FEW017 26/25 Q1010 NOSIG
2026-04-17 16:30:00,METAR VVPB 171630Z 13005KT 9999 FEW017 26/25 Q1010 NOSIG
2026-04-17 16:00:00,METAR VVPB 171600Z 09002KT 9999 FEW017 26/24 Q1010 NOSIG
2026-04-17 15:30:00,METAR VVPB 171530Z 09005KT 9999 FEW020 26/24 Q1011 NOSIG
2026-04-17 15:00:00,METAR VVPB 171500Z 03003KT 9999 FEW020 26/24 Q1010 NOSIG
2026-04-17 14:30:00,METAR VVPB 171430Z 04004KT 9999 FEW020 27/24 Q1010 NOSIG
2026-04-17 14:00:00,METAR VVPB 171400Z 35004KT 9999 FEW020 27/24 Q1010 NOSIG
2026-04-17 13:30:00,METAR VVPB 171330Z 34004KT 9999 FEW020 27/24 Q1009 NOSIG
2026-04-17 13:00:00,METAR VVPB 171300Z 32004KT 9999 FEW020 27/24 Q1009 NOSIG
2026-04-17 12:30:00,METAR VVPB 171230Z 07003KT 9999 SCT015 27/24 Q1008 NOSIG
2026-04-17 12:00:00,METAR VVPB 171200Z 05004KT 9999 SCT015 28/24 Q1007 NOSIG
2026-04-17 11:30:00,METAR VVPB 171130Z 09005KT 9999 SCT015 28/24 Q1007 NOSIG
2026-04-17 11:00:00,METAR VVPB 171100Z 07005KT 9999 SCT015 28/24 Q1006 NOSIG
2026-04-17 10:30:00,METAR VVPB 171030Z 07003KT 9999 SCT015 29/24 Q1006 NOSIG
2026-04-17 10:00:00,METAR VVPB 171000Z 09005KT 9999 SCT015 29/24 Q1006 NOSIG
2026-04-17 09:30:00,METAR VVPB 170930Z 09007KT 9999 SCT015 30/24 Q1006 NOSIG
2026-04-17 09:00:00,METAR VVPB 170900Z 09007KT 9999 SCT015 29/24 Q1006 NOSIG
2026-04-17 08:30:00,METAR VVPB 170830Z 10007KT 9999 SCT015 30/24 Q1006 NOSIG
2026-04-17 08:00:00,METAR VVPB 170800Z 09006KT 9999 SCT015 31/25 Q1006 NOSIG
2026-04-17 07:30:00,METAR VVPB 170730Z 09006KT 9999 SCT015 31/25 Q1007 NOSIG
2026-04-17 07:00:00,METAR VVPB 170700Z 08008KT 9000 SCT015 31/24 Q1008 NOSIG
2026-04-17 06:30:00,METAR VVPB 170630Z 07008KT 9000 SCT015 30/24 Q1008 NOSIG
2026-04-17 06:00:00,METAR VVPB 170600Z 07008KT 9000 SCT015 30/24 Q1009 NOSIG
2026-04-17 05:30:00,METAR VVPB 170530Z 06009KT 9000 SCT015 30/24 Q1009 NOSIG
2026-04-17 05:00:00,METAR VVPB 170500Z 07009KT 9000 SCT015 31/25 Q1009 NOSIG
2026-04-17 04:30:00,METAR VVPB 170430Z 12004KT 9000 BKN015 32/23 Q1010 NOSIG
2026-04-17 04:00:00,METAR VVPB 170400Z 08004KT 6000 BKN015 31/25 Q1010 NOSIG
2026-04-17 03:30:00,METAR VVPB 170330Z 07005KT 6000 BKN015 31/25 Q1010 NOSIG
2026-04-17 03:00:00,METAR VVPB 170300Z 06004KT 6000 BKN015 30/25 Q1010 NOSIG
2026-04-17 02:30:00,METAR VVPB 170230Z 35004KT 5000 BKN015 29/24 Q1010 NOSIG
2026-04-17 02:00:00,METAR VVPB 170200Z 34006KT 5000 BKN015 28/24 Q1010 NOSIG
2026-04-17 01:30:00,METAR VVPB 170130Z 34006KT 6000 BKN015 28/24 Q1010 NOSIG
2026-04-17 01:00:00,METAR VVPB 170100Z 34004KT 8000 FEW020 28/24 Q1010 NOSIG
2026-04-17 00:30:00,METAR VVPB 170030Z 32003KT 8000 FEW020 27/23 Q1010 NOSIG
2026-04-17 00:00:00,METAR VVPB 170000Z 30004KT 9000 FEW020 26/22 Q1009 NOSIG
2026-04-16 23:30:00,METAR VVPB 162330Z 35004KT 8000 FEW020 25/22 Q1009 NOSIG
2026-04-16 23:00:00,METAR VVPB 162300Z 34003KT 8000 FEW020 25/22 Q1008 NOSIG
2026-04-16 22:30:00,METAR VVPB 162230Z 36002KT 7000 FEW020 25/23 Q1008 NOSIG
2026-04-16 22:00:00,METAR VVPB 162200Z 34004KT 9999 FEW020 25/22 Q1007 NOSIG
2026-04-16 21:30:00,METAR VVPB 162130Z 31004KT 9999 FEW020 25/22 Q1007 NOSIG
2026-04-16 21:00:00,METAR VVPB 162100Z 31003KT 9999 FEW020 25/23 Q1006 NOSIG
2026-04-16 20:30:00,METAR VVPB 162030Z 31004KT 9999 FEW020 26/23 Q1006 NOSIG
2026-04-16 20:00:00,METAR VVPB 162000Z 23003KT 9999 FEW020 26/24 Q1006 NOSIG
2026-04-16 19:30:00,METAR VVPB 161930Z 00000KT 9999 FEW020 26/24 Q1007 NOSIG
2026-04-16 19:00:00,METAR VVPB 161900Z 03002KT 9999 FEW020 26/24 Q1007 NOSIG
2026-04-16 18:30:00,METAR VVPB 161830Z 35002KT 9999 FEW020 26/24 Q1007 NOSIG
2026-04-16 18:00:00,METAR VVPB 161800Z 33002KT 8000 FEW020 26/24 Q1007 NOSIG
2026-04-16 17:30:00,METAR VVPB 161730Z 27002KT 8000 FEW020 26/24 Q1007 NOSIG
2026-04-16 17:00:00,METAR VVPB 161700Z 35003KT 9000 FEW020 26/25 Q1007 NOSIG
2026-04-16 16:30:00,METAR VVPB 161630Z 03001KT 9000 FEW020 26/25 Q1007 NOSIG
2026-04-16 16:00:00,METAR VVPB 161600Z 06002KT 8000 FEW020 27/24 Q1007 NOSIG
2026-04-16 15:30:00,METAR VVPB 161530Z 27001KT 9000 FEW020 28/24 Q1007 NOSIG
2026-04-16 15:00:00,METAR VVPB 161500Z 31001KT 9999 FEW020 27/24 Q1007 NOSIG
2026-04-16 14:30:00,METAR VVPB 161430Z 02002KT 9999 FEW020 27/24 Q1007 NOSIG
2026-04-16 14:00:00,METAR VVPB 161400Z 31002KT 9999 FEW020 27/24 Q1007 NOSIG
2026-04-16 13:30:00,METAR VVPB 161330Z 01002KT 9999 FEW020 28/25 Q1007 NOSIG
2026-04-16 13:00:00,METAR VVPB 161300Z 02001KT 9999 FEW020 28/25 Q1007 NOSIG
2026-04-16 12:30:00,METAR VVPB 161230Z 03002KT 8000 FEW020 28/25 Q1006 NOSIG
2026-04-16 12:00:00,METAR VVPB 161200Z 11002KT 8000 FEW020 28/25 Q1006 NOSIG
2026-04-16 11:30:00,METAR VVPB 161130Z 13002KT 8000 FEW020 29/25 Q1006 NOSIG
2026-04-16 11:00:00,METAR VVPB 161100Z 14001KT 8000 FEW020 29/24 Q1006 NOSIG
2026-04-16 10:30:00,METAR VVPB 161030Z 11004KT 8000 FEW017 SCT060 29/25 Q1005 NOSIG
2026-04-16 10:00:00,METAR VVPB 161000Z 10001KT 8000 FEW017 SCT060 30/24 Q1005 NOSIG
2026-04-16 09:30:00,METAR VVPB 160930Z 35005KT 8000 FEW017 BKN060 29/25 Q1006 NOSIG
2026-04-16 09:00:00,METAR VVPB 160900Z 06001KT 8000 -RA FEW017 FEW020CB BKN060 30/24 Q1006 NOSIG
2026-04-16 08:30:00,METAR VVPB 160830Z 13002KT 9999 FEW017 FEW020CB SCT060 29/24 Q1006 NOSIG
2026-04-16 08:00:00,METAR VVPB 160800Z 06004KT 9999 FEW020 SCT060 29/24 Q1006 NOSIG
2026-04-16 07:30:00,METAR VVPB 160730Z 06007KT 9999 FEW020 SCT060 30/24 Q1006 NOSIG
2026-04-16 07:00:00,METAR VVPB 160700Z 06007KT 9999 FEW020 SCT060 32/22 Q1006 NOSIG
2026-04-16 06:30:00,METAR VVPB 160630Z 07009KT 9999 FEW020 33/21 Q1007 NOSIG
2026-04-16 06:00:00,METAR VVPB 160600Z 06007KT CAVOK 34/22 Q1007 NOSIG
2026-04-16 05:30:00,METAR VVPB 160530Z 06006KT CAVOK 34/23 Q1008 NOSIG
2026-04-16 05:00:00,METAR VVPB 160500Z 04006KT CAVOK 34/23 Q1008 NOSIG
2026-04-16 04:30:00,METAR VVPB 160430Z 10006KT CAVOK 34/23 Q1008 NOSIG
2026-04-16 04:00:00,METAR VVPB 160400Z 07004KT CAVOK 33/24 Q1009 NOSIG
2026-04-16 03:30:00,METAR VVPB 160330Z 04004KT CAVOK 33/25 Q1009 NOSIG
2026-04-16 03:00:00,METAR VVPB 160300Z 07005KT CAVOK 32/25 Q1009 NOSIG
2026-04-16 02:30:00,METAR VVPB 160230Z 03002KT CAVOK 32/24 Q1009 NOSIG
2026-04-16 02:00:00,METAR VVPB 160200Z 35003KT 9999 FEW020 31/24 Q1009 NOSIG
2026-04-16 01:30:00,METAR VVPB 160130Z 30005KT 9999 FEW020 30/23 Q1009 NOSIG
2026-04-16 01:00:00,METAR VVPB 160100Z 33004KT 9999 FEW020 29/23 Q1009 NOSIG
2026-04-16 00:30:00,METAR VVPB 160030Z VRB02KT 9999 FEW020 28/22 Q1007 NOSIG
2026-04-16 00:00:00,METAR VVPB 160000Z VRB02KT 9999 FEW020 28/22 Q1007 NOSIG
2026-04-15 23:30:00,METAR VVPB 152330Z 30001KT 9999 FEW020 27/22 Q1007 NOSIG
2026-04-15 23:00:00,METAR VVPB 152300Z 23003KT 9999 FEW020 27/22 Q1006 NOSIG
2026-04-15 22:30:00,METAR VVPB 152230Z 29003KT 9999 FEW020 26/22 Q1006 NOSIG
2026-04-15 22:00:00,METAR VVPB 152200Z 30002KT 9999 FEW020 26/22 Q1005 NOSIG
2026-04-15 21:30:00,METAR VVPB 152130Z 29002KT 9999 FEW020 26/22 Q1005 NOSIG
2026-04-15 21:00:00,METAR VVPB 152100Z VRB01KT 9999 FEW020 27/21 Q1005 NOSIG
2026-04-15 20:30:00,METAR VVPB 152030Z VRB01KT 9999 FEW020 26/21 Q1004 NOSIG
2026-04-15 20:00:00,METAR VVPB 152000Z 27003KT 9999 FEW020 27/21 Q1004 NOSIG
2026-04-15 19:30:00,METAR VVPB 151930Z 31002KT 9999 FEW020 26/22 Q1004 NOSIG
2026-04-15 19:00:00,METAR VVPB 151900Z VRB01KT 9999 FEW020 26/22 Q1005 NOSIG
2026-04-15 18:30:00,METAR VVPB 151830Z 32002KT 9999 FEW020 27/22 Q1005 NOSIG
2026-04-15 18:00:00,METAR VVPB 151800Z 30002KT 9999 FEW020 27/21 Q1005 NOSIG
2026-04-15 17:30:00,METAR VVPB 151730Z 28003KT 9999 FEW020 27/22 Q1005 NOSIG
2026-04-15 17:00:00,METAR VVPB 151700Z 31003KT 9999 FEW020 28/23 Q1006 NOSIG
2026-04-15 16:30:00,METAR VVPB 151630Z VRB01KT 9999 FEW020 27/24 Q1006 NOSIG
2026-04-15 16:00:00,METAR VVPB 151600Z 31004KT 9999 FEW020 27/24 Q1006 NOSIG
2026-04-15 15:30:00,METAR VVPB 151530Z VRB02KT 9999 FEW020 27/24 Q1007 NOSIG
2026-04-15 15:00:00,METAR VVPB 151500Z 02003KT 9999 FEW020 SCT060 28/24 Q1007 NOSIG
2026-04-15 14:30:00,METAR VVPB 151430Z VRB01KT 9999 FEW020 SCT060 28/24 Q1006 NOSIG
2026-04-15 14:00:00,METAR VVPB 151400Z VRB02KT 9999 FEW020 SCT060 29/24 Q1006 NOSIG
2026-04-15 13:30:00,METAR VVPB 151330Z VRB02KT 9999 FEW020 SCT060 28/24 Q1006 NOSIG
2026-04-15 13:00:00,METAR VVPB 151300Z VRB02KT 9999 FEW020 SCT060 29/24 Q1006 NOSIG
2026-04-15 12:30:00,METAR VVPB 151230Z 03003KT 9999 FEW020 SCT060 29/24 Q1005 NOSIG
2026-04-15 12:00:00,METAR VVPB 151200Z 33001KT 9999 FEW017 BKN060 29/24 Q1005 NOSIG
2026-04-15 11:30:00,METAR VVPB 151130Z 04001KT 9999 FEW017 BKN060 30/24 Q1005 NOSIG
2026-04-15 11:00:00,METAR VVPB 151100Z 02004KT 9999 FEW017 BKN060 30/24 Q1004 NOSIG
2026-04-15 10:30:00,METAR VVPB 151030Z 09003KT 9999 FEW020 SCT060 30/23 Q1005 NOSIG
2026-04-15 10:00:00,METAR VVPB 151000Z 10002KT 9999 FEW020 SCT060 30/23 Q1004 NOSIG
2026-04-15 09:30:00,METAR VVPB 150930Z 08004KT 9999 FEW020 31/24 Q1004 NOSIG
2026-04-15 09:00:00,METAR VVPB 150900Z 06006KT 9999 FEW020 31/23 Q1004 NOSIG
2026-04-15 08:30:00,METAR VVPB 150830Z 04006KT 9999 FEW020 33/23 Q1003 NOSIG
2026-04-15 08:00:00,METAR VVPB 150800Z 05007KT 9999 FEW020 35/22 Q1003 NOSIG
2026-04-15 07:30:00,METAR VVPB 150730Z 06008KT 9999 FEW020 35/22 Q1004 NOSIG
2026-04-15 07:00:00,METAR VVPB 150700Z 07007KT 9999 FEW020 35/23 Q1004 NOSIG
2026-04-15 06:30:00,METAR VVPB 150630Z 05007KT 9999 FEW020 34/23 Q1005 NOSIG
2026-04-15 06:00:00,METAR VVPB 150600Z 05007KT 9999 FEW020 34/23 Q1006 NOSIG
2026-04-15 05:30:00,METAR VVPB 150530Z 05007KT 9999 FEW020 34/24 Q1006 NOSIG
2026-04-15 05:00:00,METAR VVPB 150500Z 05006KT 9999 FEW020 34/24 Q1007 NOSIG
2026-04-15 04:30:00,METAR VVPB 150430Z 06008KT 9999 FEW020 33/24 Q1007 NOSIG
2026-04-15 04:00:00,METAR VVPB 150400Z 05006KT 9999 FEW020 34/25 Q1007 NOSIG
2026-04-15 03:30:00,METAR VVPB 150330Z 04006KT 9999 FEW020 34/25 Q1008 NOSIG
2026-04-15 03:00:00,METAR VVPB 150300Z 05005KT 9999 FEW020 33/25 Q1008 NOSIG
2026-04-15 02:30:00,METAR VVPB 150230Z 13002KT 9999 FEW020 34/23 Q1008 NOSIG
2026-04-15 02:00:00,METAR VVPB 150200Z 16002KT 9999 FEW020 33/23 Q1008 NOSIG
2026-04-15 01:30:00,METAR VVPB 150130Z 20002KT 9999 FEW020 33/23 Q1008 NOSIG
2026-04-15 01:00:00,METAR VVPB 150100Z 22002KT 9999 FEW020 31/22 Q1007 NOSIG
2026-04-15 00:30:00,METAR VVPB 150030Z 26003KT 9999 FEW020 30/23 Q1007 NOSIG
2026-04-15 00:00:00,METAR VVPB 150000Z 24001KT 9999 FEW020 28/25 Q1006 NOSIG
2026-04-14 23:30:00,METAR VVPB 142330Z 03001KT 9999 SCT020 27/25 Q1006 NOSIG
2026-04-14 23:00:00,METAR VVPB 142300Z 04001KT 9999 SCT020 27/25 Q1006 NOSIG
2026-04-14 22:30:00,METAR VVPB 142230Z 02002KT 9999 SCT020 26/25 Q1005 NOSIG
2026-04-14 22:00:00,METAR VVPB 142200Z 02001KT 9999 SCT020 27/25 Q1005 NOSIG
2026-04-14 21:30:00,METAR VVPB 142130Z 01002KT 9999 SCT020 26/25 Q1006 NOSIG
2026-04-14 21:00:00,METAR VVPB 142100Z 04002KT 9999 SCT020 26/25 Q1004 NOSIG
2026-04-14 20:30:00,METAR VVPB 142030Z 01002KT 9999 SCT020 27/25 Q1004 NOSIG
2026-04-14 20:00:00,METAR VVPB 142000Z COR 03001KT 9999 SCT020 27/25 Q1004 NOSIG
2026-04-14 19:30:00,METAR VVPB 141930Z 32001KT 9999 SCT020 27/25 Q1004 NOSIG
2026-04-14 19:00:00,METAR VVPB 141900Z 32002KT 9999 SCT020 27/25 Q1005 NOSIG
2026-04-14 18:30:00,METAR VVPB 141830Z 09002KT 9999 SCT020 27/25 Q1005 NOSIG
2026-04-14 18:00:00,METAR VVPB 141800Z 09002KT 9999 SCT020 27/24 Q1005 NOSIG
2026-04-14 17:30:00,METAR VVPB 141730Z 32001KT 9999 SCT020 27/24 Q1005 NOSIG
2026-04-14 17:00:00,METAR VVPB 141700Z 02002KT 9999 SCT020 28/24 Q1006 NOSIG
2026-04-14 16:30:00,METAR VVPB 141630Z 01001KT 9999 SCT020 28/24 Q1006 NOSIG
2026-04-14 16:00:00,METAR VVPB 141600Z 04001KT 9999 SCT020 28/24 Q1006 NOSIG
2026-04-14 15:30:00,METAR VVPB 141530Z 04001KT 9999 SCT020 28/24 Q1007 NOSIG
2026-04-14 15:00:00,METAR VVPB 141500Z 32001KT 9999 SCT020 29/24 Q1007 NOSIG
2026-04-14 14:30:00,METAR VVPB 141430Z 01002KT 9999 FEW020 29/24 Q1007 NOSIG
2026-04-14 14:00:00,METAR VVPB 141400Z 35001KT 9999 FEW020 29/24 Q1007 NOSIG
2026-04-14 13:30:00,METAR VVPB 141330Z 04002KT 9999 FEW020 29/25 Q1007 NOSIG
2026-04-14 13:00:00,METAR VVPB 141300Z 34002KT 9999 FEW020 30/25 Q1006 NOSIG
2026-04-14 12:30:00,METAR VVPB 141230Z 10002KT 9999 FEW020 SCT060 30/25 Q1006 NOSIG
2026-04-14 12:00:00,METAR VVPB 141200Z VRB01KT 9999 FEW020 SCT060 30/25 Q1005 NOSIG
2026-04-14 11:30:00,METAR VVPB 141130Z VRB01KT 9000 FEW020 SCT060 31/25 Q1005 NOSIG
2026-04-14 11:00:00,METAR VVPB 141100Z 14004KT 8000 FEW020 SCT060 31/24 Q1005 NOSIG
2026-04-14 10:30:00,METAR VVPB 141030Z 12004KT 9999 FEW020 SCT100 31/24 Q1005 NOSIG
2026-04-14 10:00:00,METAR VVPB 141000Z 07005KT 9999 FEW020 32/23 Q1005 NOSIG
2026-04-14 09:30:00,METAR VVPB 140930Z 04004KT 9999 FEW020 33/24 Q1005 NOSIG
2026-04-14 09:00:00,METAR VVPB 140900Z 05005KT 9999 FEW020 34/23 Q1005 NOSIG
2026-04-14 08:30:00,METAR VVPB 140830Z 07006KT 9999 FEW020 35/23 Q1005 NOSIG
2026-04-14 08:00:00,METAR VVPB 140800Z 08007KT 9999 FEW020 36/23 Q1005 NOSIG
2026-04-14 07:30:00,METAR VVPB 140730Z 09008KT 9999 FEW020 35/22 Q1005 NOSIG
2026-04-14 07:00:00,METAR VVPB 140700Z 06007KT 9999 FEW020 35/22 Q1005 NOSIG
2026-04-14 06:30:00,METAR VVPB 140630Z 07007KT 9999 FEW020 35/23 Q1006 NOSIG
2026-04-14 06:00:00,METAR VVPB 140600Z 06007KT 9999 FEW020 34/23 Q1007 NOSIG
2026-04-14 05:30:00,METAR VVPB 140530Z 07008KT 9999 FEW020 34/23 Q1007 NOSIG
2026-04-14 05:00:00,METAR VVPB 140500Z 06008KT 9999 FEW020 35/24 Q1008 NOSIG
2026-04-14 04:30:00,METAR VVPB 140430Z 06007KT 9999 FEW020 35/25 Q1008 NOSIG
2026-04-14 04:00:00,METAR VVPB 140400Z 07007KT 9999 FEW020 34/25 Q1008 NOSIG
2026-04-14 03:30:00,METAR VVPB 140330Z 09005KT 9999 FEW020 36/23 Q1009 NOSIG
2026-04-14 03:00:00,METAR VVPB 140300Z 13003KT 9999 FEW020 35/23 Q1009 NOSIG
2026-04-14 02:30:00,METAR VVPB 140230Z 16004KT 9999 FEW020 34/23 Q1009 NOSIG
2026-04-14 02:00:00,METAR VVPB 140200Z 19003KT 9999 FEW020 34/22 Q1009 NOSIG
2026-04-14 01:30:00,METAR VVPB 140130Z 20004KT 9999 FEW020 33/22 Q1009 NOSIG
2026-04-14 01:00:00,METAR VVPB 140100Z VRB02KT 8000 FEW020 32/23 Q1009 NOSIG
2026-04-14 00:30:00,METAR VVPB 140030Z VRB01KT 8000 FEW020 31/23 Q1009 NOSIG
2026-04-14 00:00:00,METAR VVPB 140000Z VRB01KT 8000 FEW020 30/23 Q1008 NOSIG
2026-04-13 23:30:00,METAR VVPB 132330Z 30002KT 7000 FEW020 27/24 Q1008 NOSIG
2026-04-13 23:00:00,METAR VVPB 132300Z VRB01KT 7000 FEW020 27/24 Q1007 NOSIG
2026-04-13 22:30:00,METAR VVPB 132230Z VRB01KT 8000 FEW020 27/24 Q1007 NOSIG
2026-04-13 22:00:00,METAR VVPB 132200Z VRB01KT 8000 FEW020 28/23 Q1007 NOSIG
2026-04-13 21:30:00,METAR VVPB 132130Z VRB01KT 9999 FEW020 27/23 Q1006 NOSIG
2026-04-13 21:00:00,METAR VVPB 132100Z VRB01KT 9999 FEW020 27/24 Q1006 NOSIG
2026-04-13 20:30:00,METAR VVPB 132030Z VRB01KT 9999 FEW020 27/23 Q1006 NOSIG
2026-04-13 20:00:00,METAR VVPB 132000Z 02001KT 9999 FEW020 27/23 Q1006 NOSIG
2026-04-13 19:30:00,METAR VVPB 131930Z 01001KT 9999 FEW020 28/24 Q1006 NOSIG
2026-04-13 19:00:00,METAR VVPB 131900Z VRB01KT 9999 FEW020 28/22 Q1006 NOSIG
2026-04-13 18:30:00,METAR VVPB 131830Z 16003KT 9999 FEW020 29/22 Q1006 NOSIG
2026-04-13 18:00:00,METAR VVPB 131800Z 18002KT 9999 FEW020 30/22 Q1007 NOSIG
2026-04-13 17:30:00,METAR VVPB 131730Z 16003KT 9999 FEW020 34/21 Q1007 NOSIG
2026-04-13 17:00:00,METAR VVPB 131700Z 22003KT 9999 FEW020 34/21 Q1007 NOSIG
2026-04-13 16:30:00,METAR VVPB 131630Z 20003KT 9999 FEW020 30/21 Q1007 NOSIG
2026-04-13 16:00:00,METAR VVPB 131600Z 19003KT 9999 FEW020 31/22 Q1008 NOSIG
2026-04-13 15:30:00,METAR VVPB 131530Z 19003KT 9999 FEW020 31/21 Q1008 NOSIG
2026-04-13 15:00:00,METAR VVPB 131500Z 17001KT 9999 FEW020 31/22 Q1008 NOSIG
2026-04-13 14:30:00,METAR VVPB 131430Z 23003KT 9999 FEW020 31/22 Q1008 NOSIG
2026-04-13 14:00:00,METAR VVPB 131400Z 19003KT 9999 FEW020 30/23 Q1008 NOSIG
2026-04-13 13:30:00,METAR VVPB 131330Z 23002KT 9999 FEW020 31/23 Q1008 NOSIG
2026-04-13 13:00:00,METAR VVPB 131300Z 20002KT 9999 FEW020 30/23 Q1008 NOSIG
2026-04-13 12:30:00,METAR VVPB 131230Z 16003KT 9999 FEW020 31/23 Q1007 NOSIG
2026-04-13 12:00:00,METAR VVPB 131200Z 18004KT 9999 FEW020 31/23 Q1007 NOSIG
2026-04-13 11:30:00,METAR VVPB 131130Z 15005KT 9999 FEW020 31/23 Q1006 NOSIG
2026-04-13 11:00:00,METAR VVPB 131100Z 12006KT 9999 FEW020 31/22 Q1006 NOSIG
2026-04-13 10:30:00,METAR VVPB 131030Z 12007KT 9999 FEW020 31/22 Q1006 NOSIG
2026-04-13 10:00:00,METAR VVPB 131000Z 12005KT 9999 FEW020 32/22 Q1006 NOSIG
2026-04-13 09:30:00,METAR VVPB 130930Z 11007KT 9999 FEW020 32/22 Q1005 NOSIG
2026-04-13 09:00:00,METAR VVPB 130900Z 09008KT 9999 FEW020 33/22 Q1005 NOSIG
2026-04-13 08:30:00,METAR VVPB 130830Z 09008KT 9999 FEW020 34/22 Q1005 NOSIG
2026-04-13 08:00:00,METAR VVPB 130800Z 10008KT 9999 FEW020 34/22 Q1005 NOSIG
2026-04-13 07:30:00,METAR VVPB 130730Z 10007KT 9999 FEW020 34/22 Q1006 NOSIG
2026-04-13 07:00:00,METAR VVPB 130700Z 07007KT 9999 FEW020 34/23 Q1006 NOSIG
2026-04-13 06:30:00,METAR VVPB 130630Z 07008KT 9999 FEW020 34/23 Q1006 NOSIG
2026-04-13 06:00:00,METAR VVPB 130600Z 08008KT 9999 FEW020 35/24 Q1007 NOSIG
2026-04-13 05:30:00,METAR VVPB 130530Z 03007KT 9999 FEW020 34/24 Q1007 NOSIG
2026-04-13 05:00:00,METAR VVPB 130500Z 05008KT 9999 FEW020 35/24 Q1007 NOSIG
2026-04-13 04:30:00,METAR VVPB 130430Z 04008KT 9999 FEW020 35/25 Q1008 NOSIG
2026-04-13 04:00:00,METAR VVPB 130400Z 04007KT 9999 FEW020 35/25 Q1008 NOSIG
2026-04-13 03:30:00,METAR VVPB 130330Z 22005KT 9999 FEW020 37/19 Q1008 NOSIG
2026-04-13 03:00:00,METAR VVPB 130300Z 21004KT 9999 FEW020 37/19 Q1008 NOSIG
2026-04-13 02:30:00,METAR VVPB 130230Z 21006KT 9999 FEW020 35/21 Q1008 NOSIG
2026-04-13 02:00:00,METAR VVPB 130200Z 22005KT 9999 FEW020 34/21 Q1008 NOSIG
2026-04-13 01:30:00,METAR VVPB 130130Z 21004KT 9999 FEW020 33/22 Q1008 NOSIG
2026-04-13 01:00:00,METAR VVPB 130100Z 19003KT 9999 FEW020 32/22 Q1008 NOSIG
2026-04-13 00:30:00,METAR VVPB 130030Z 34001KT 8000 NSC 30/23 Q1008 NOSIG
2026-04-13 00:00:00,METAR VVPB 130000Z 32002KT 7000 FEW020 28/24 Q1008 NOSIG
2026-04-12 23:30:00,METAR VVPB 122330Z 01002KT 6000 FEW020 27/24 Q1007 NOSIG
2026-04-12 23:00:00,METAR VVPB 122300Z 36001KT 7000 FEW020 27/24 Q1006 NOSIG
2026-04-12 22:30:00,METAR VVPB 122230Z 33002KT 7000 FEW020 26/24 Q1006 NOSIG
2026-04-12 22:00:00,METAR VVPB 122200Z 28002KT 9000 FEW020 27/24 Q1005 NOSIG
2026-04-12 21:30:00,METAR VVPB 122130Z 20001KT 7000 FEW020 27/25 Q1005 NOSIG
2026-04-12 21:00:00,METAR VVPB 122100Z 07001KT 7000 FEW020 27/25 Q1005 NOSIG
2026-04-12 20:30:00,METAR VVPB 122030Z 14003KT 8000 FEW020 28/25 Q1005 NOSIG
2026-04-12 20:00:00,METAR VVPB 122000Z 24001KT 9000 FEW020 28/25 Q1004 NOSIG
2026-04-12 19:30:00,METAR VVPB 121930Z 05001KT 8000 FEW020 28/25 Q1005 NOSIG
2026-04-12 19:00:00,METAR VVPB 121900Z 03001KT 9999 FEW020 27/24 Q1005 NOSIG
2026-04-12 18:30:00,METAR VVPB 121830Z 03002KT 8000 FEW020 28/24 Q1005 NOSIG
2026-04-12 18:00:00,METAR VVPB 121800Z 32002KT 9000 FEW020 28/24 Q1005 NOSIG
2026-04-12 17:30:00,METAR VVPB 121730Z 36002KT 9999 FEW020 28/24 Q1005 NOSIG
2026-04-12 17:00:00,METAR VVPB 121700Z 36002KT 9999 FEW020 28/24 Q1005 NOSIG
2026-04-12 16:30:00,METAR VVPB 121630Z 07001KT 9999 FEW020 29/24 Q1006 NOSIG
2026-04-12 16:00:00,METAR VVPB 121600Z 03001KT 9999 FEW020 29/24 Q1006 NOSIG
2026-04-12 15:00:00,METAR VVPB 121500Z 02001KT 9999 FEW020 29/25 Q1006 NOSIG
2026-04-12 14:30:00,METAR VVPB 121430Z 02001KT 9999 FEW020 30/24 Q1006 NOSIG
2026-04-12 14:00:00,METAR VVPB 121400Z 09002KT 9999 FEW020 30/24 Q1006 NOSIG
2026-04-12 13:30:00,METAR VVPB 121330Z 09002KT 9999 FEW020 30/25 Q1005 NOSIG
2026-04-12 13:00:00,METAR VVPB 121300Z 06001KT 9999 FEW020 30/24 Q1005 NOSIG
2026-04-12 12:30:00,METAR VVPB 121230Z 35001KT 9999 FEW020 31/24 Q1005 NOSIG
2026-04-12 12:00:00,METAR VVPB 121200Z 26001KT 9999 FEW020 31/24 Q1004 NOSIG
2026-04-12 11:30:00,METAR VVPB 121130Z 04002KT 9999 FEW020 31/24 Q1003 NOSIG
2026-04-12 11:00:00,METAR VVPB 121100Z 08005KT 9999 FEW020 31/24 Q1003 NOSIG
2026-04-12 10:30:00,METAR VVPB 121030Z 09007KT 9999 FEW020 32/24 Q1003 NOSIG
2026-04-12 10:00:00,METAR VVPB 121000Z 09007KT 9999 FEW020 33/24 Q1003 NOSIG
2026-04-12 09:30:00,METAR VVPB 120930Z 07007KT 9999 FEW020 34/23 Q1003 NOSIG
2026-04-12 09:00:00,METAR VVPB 120900Z 09008KT 9999 FEW020 36/21 Q1003 NOSIG
2026-04-12 08:30:00,METAR VVPB 120830Z 09009KT 9999 FEW020 36/21 Q1003 NOSIG
2026-04-12 08:00:00,METAR VVPB 120800Z 09009KT 9999 FEW020 36/22 Q1003 NOSIG
2026-04-12 07:30:00,METAR VVPB 120730Z 08007KT 9999 FEW020 36/22 Q1003 NOSIG
2026-04-12 07:00:00,METAR VVPB 120700Z 08008KT 9999 FEW020 35/23 Q1004 NOSIG
2026-04-12 06:30:00,METAR VVPB 120630Z 06008KT 9999 FEW020 36/24 Q1004 NOSIG
2026-04-12 06:00:00,METAR VVPB 120600Z 06008KT 9999 FEW020 36/24 Q1005 NOSIG
2026-04-12 05:30:00,METAR VVPB 120530Z 06009KT 9999 FEW020 35/24 Q1005 NOSIG
2026-04-12 05:00:00,METAR VVPB 120500Z 11004KT 9999 FEW020 39/20 Q1006 NOSIG
2026-04-12 04:30:00,METAR VVPB 120430Z 21004KT 9999 FEW020 38/20 Q1006 NOSIG
2026-04-12 04:00:00,METAR VVPB 120400Z 20005KT 9999 FEW020 38/20 Q1006 NOSIG
2026-04-12 03:30:00,METAR VVPB 120330Z 18005KT 9999 FEW020 37/20 Q1007 NOSIG
2026-04-12 03:00:00,METAR VVPB 120300Z 24005KT 9999 FEW020 36/20 Q1007 NOSIG
2026-04-12 02:30:00,METAR VVPB 120230Z 23006KT 9999 FEW020 36/20 Q1007 NOSIG
2026-04-12 02:00:00,METAR VVPB 120200Z 23008KT 9999 FEW020 35/20 Q1007 NOSIG
2026-04-12 01:30:00,METAR VVPB 120130Z 23006KT 9999 FEW020 35/21 Q1007 NOSIG
2026-04-12 01:00:00,METAR VVPB 120100Z 21005KT 9999 FEW020 33/21 Q1007 NOSIG
2026-04-12 00:30:00,METAR VVPB 120030Z 20005KT 9999 FEW020 32/21 Q1007 NOSIG
2026-04-12 00:00:00,METAR VVPB 120000Z 21004KT 8000 FEW020 31/21 Q1006 NOSIG
2026-04-11 23:30:00,METAR VVPB 112330Z 21004KT 8000 FEW020 30/21 Q1006 NOSIG
2026-04-11 23:00:00,METAR VVPB 112300Z 21004KT 7000 FEW020 29/21 Q1005 NOSIG
2026-04-11 22:30:00,METAR VVPB 112230Z 21004KT 9999 FEW020 30/21 Q1005 NOSIG
2026-04-11 22:00:00,METAR VVPB 112200Z 21003KT 9999 FEW020 30/21 Q1005 NOSIG
2026-04-11 21:30:00,METAR VVPB 112130Z 20004KT 9999 FEW020 29/21 Q1005 NOSIG
2026-04-11 21:00:00,METAR VVPB 112100Z 19004KT 9999 FEW020 29/22 Q1004 NOSIG
2026-04-11 20:30:00,METAR VVPB 112030Z 21004KT 9999 FEW020 30/22 Q1004 NOSIG
2026-04-11 20:00:00,METAR VVPB 112000Z 21003KT 9999 FEW020 29/22 Q1004 NOSIG
2026-04-11 19:30:00,METAR VVPB 111930Z 22003KT 9999 FEW020 31/21 Q1004 NOSIG
2026-04-11 19:00:00,METAR VVPB 111900Z 21003KT 9999 FEW020 32922 Q1004 NOSIG
2026-04-11 18:30:00,METAR VVPB 111830Z 23002KT 9999 FEW020 30/22 Q1004 NOSIG
2026-04-11 18:00:00,METAR VVPB 111800Z VRB01KT 9999 FEW020 30/23 Q1005 NOSIG
2026-04-11 17:30:00,METAR VVPB 111730Z VRB01KT 9999 FEW020 30/23 Q1005 NOSIG
2026-04-11 17:00:00,METAR VVPB 111700Z VRB01KT 9999 FEW020 30/23 Q1005 NOSIG
2026-04-11 16:30:00,METAR VVPB 111630Z VRB01KT 9999 FEW020 31/23 Q1006 NOSIG
2026-04-11 16:00:00,METAR VVPB 111600Z VRB02KT 9999 FEW020 31/23 Q1006 NOSIG
2026-04-11 15:30:00,METAR VVPB 111530Z VRB01KT 9999 FEW020 31/22 Q1006 NOSIG
2026-04-11 15:00:00,METAR VVPB 111500Z 20003KT 9999 FEW020 32/22 Q1006 NOSIG
2026-04-11 14:30:00,METAR VVPB 111430Z 19003KT 9999 FEW020 32/22 Q1006 NOSIG
2026-04-11 14:00:00,METAR VVPB 111400Z 19003KT 9999 FEW020 32/22 Q1006 NOSIG
2026-04-11 13:30:00,METAR VVPB 111330Z 19004KT 9999 FEW020 32/22 Q1005 NOSIG
2026-04-11 13:00:00,METAR VVPB 111300Z 21003KT 9999 FEW020 32/23 Q1005 NOSIG
2026-04-11 12:30:00,METAR VVPB 111230Z 18003KT 9999 FEW020 32/24 Q1005 NOSIG
2026-04-11 12:00:00,METAR VVPB 111200Z 14003KT 9999 FEW020 32/24 Q1004 NOSIG
2026-04-11 11:30:00,METAR VVPB 111130Z 12004KT 9999 FEW020 32/23 Q1004 NOSIG
2026-04-11 11:00:00,METAR VVPB 111100Z 08003KT 9999 FEW020 33/22 Q1004 NOSIG
2026-04-11 10:30:00,METAR VVPB 111030Z 08005KT 9999 FEW020 33/22 Q1003 NOSIG
2026-04-11 10:00:00,METAR VVPB 111000Z 09007KT 9999 FEW020 34/22 Q1003 NOSIG
2026-04-11 09:30:00,METAR VVPB 110930Z 08008KT 9999 FEW020 34/21 Q1003 NOSIG
2026-04-11 09:00:00,METAR VVPB 110900Z 09007KT 9999 FEW020 35/22 Q1003 NOSIG
2026-04-11 08:30:00,METAR VVPB 110830Z 09008KT 9999 FEW020 35/22 Q1003 NOSIG
2026-04-11 08:00:00,METAR VVPB 110800Z 06008KT 9999 FEW020 35/22 Q1004 NOSIG
2026-04-11 07:30:00,METAR VVPB 110730Z 09007KT 9999 FEW020 36/23 Q1004 NOSIG
2026-04-11 07:00:00,METAR VVPB 110700Z 07007KT 9999 FEW020 35/24 Q1005 NOSIG
2026-04-11 06:30:00,METAR VVPB 110630Z 04007KT 9999 FEW020 35/23 Q1005 NOSIG
2026-04-11 06:00:00,METAR VVPB 110600Z 03007KT 9999 FEW020 35/25 Q1006 NOSIG
2026-04-11 05:30:00,METAR VVPB 110530Z 03006KT 9999 FEW020 35/25 Q1006 NOSIG
2026-04-11 05:00:00,METAR VVPB 110500Z 02006KT 9999 FEW020 35/25 Q1007 NOSIG
2026-04-11 04:30:00,METAR VVPB 110430Z 02006KT 9999 FEW020 35/24 Q1007 NOSIG
2026-04-11 04:00:00,METAR VVPB 110400Z 05007KT 9999 FEW020 35/25 Q1008 NOSIG
2026-04-11 03:30:00,METAR VVPB 110330Z 01004KT 9999 FEW020 36/24 Q1008 NOSIG
2026-04-11 03:00:00,METAR VVPB 110300Z 10002KT 9999 FEW020 37/23 Q1008 NOSIG
2026-04-11 02:30:00,METAR VVPB 110230Z 12002KT 9999 FEW020 35/23 Q1008 NOSIG
2026-04-11 02:00:00,METAR VVPB 110200Z 17004KT 140V220 9999 FEW020 34/22 Q1008 NOSIG
2026-04-11 01:30:00,METAR VVPB 110130Z 18003KT 140V220 9999 FEW020 33/22 Q1008 NOSIG
2026-04-11 01:00:00,METAR VVPB 110100Z 18003KT 9000 FEW020 32/22 Q1008 NOSIG
2026-04-11 00:30:00,METAR VVPB 110030Z 19004KT 9000 FEW020 31/22 Q1008 NOSIG
2026-04-11 00:00:00,METAR VVPB 110000Z 19005KT 9000 FEW020 30/22 Q1007 NOSIG
2026-04-10 23:30:00,METAR VVPB 102330Z 18003KT 9999 FEW020 28/22 Q1007 NOSIG
2026-04-10 23:00:00,METAR VVPB 102300Z 18002KT 9999 FEW020 28/22 Q1007 NOSIG
2026-04-10 22:30:00,METAR VVPB 102230Z 20002KT 9999 FEW020 28/22 Q1006 NOSIG
2026-04-10 22:00:00,METAR VVPB 102200Z 18002KT 9999 FEW020 28/23 Q1006 NOSIG
2026-04-10 21:30:00,METAR VVPB 102130Z 21002KT 9999 FEW020 29/21 Q1006 NOSIG
2026-04-10 21:00:00,METAR VVPB 102100Z 21003KT 9999 FEW020 28/22 Q1005 NOSIG
2026-04-10 20:30:00,METAR VVPB 102030Z 19004KT 9999 FEW020 29/22 Q1005 NOSIG
2026-04-10 20:00:00,METAR VVPB 102000Z 19004KT 9999 FEW020 28/22 Q1005 NOSIG
2026-04-10 19:30:00,METAR VVPB 101930Z 19002KT 9999 FEW020 29/23 Q1005 NOSIG
2026-04-10 19:00:00,METAR VVPB 101900Z 07001KT 9999 FEW020 29/24 Q1005 NOSIG
2026-04-10 18:30:00,METAR VVPB 101830Z 23002KT 9999 FEW020 29/24 Q1006 NOSIG
2026-04-10 18:00:00,METAR VVPB 101800Z 23002KT 9999 FEW020 29/24 Q1006 NOSIG
2026-04-10 17:30:00,METAR VVPB 101730Z 25002KT 9999 FEW020 29/23 Q1006 NOSIG
2026-04-10 17:00:00,METAR VVPB 101700Z 22002KT 9999 FEW020 30/23 Q1006 NOSIG
2026-04-10 16:30:00,METAR VVPB 101630Z 23003KT 9999 FEW020 30/23 Q1007 NOSIG
2026-04-10 16:00:00,METAR VVPB 101600Z 20002KT 9999 FEW020 31/22 Q1007 NOSIG
2026-04-10 15:30:00,METAR VVPB 101530Z 22003KT 9999 FEW020 31/23 Q1007 NOSIG
2026-04-10 15:00:00,METAR VVPB 101500Z 22003KT 9999 FEW020 31/23 Q1007 NOSIG
2026-04-10 14:30:00,METAR VVPB 101430Z 22004KT 9999 FEW020 31/24 Q1007 NOSIG
2026-04-10 14:00:00,METAR VVPB 101400Z 13002KT 9999 FEW020 30/24 Q1007 NOSIG
2026-04-10 13:30:00,METAR VVPB 101330Z 13003KT 9999 FEW020 30/23 Q1007 NOSIG
2026-04-10 13:00:00,METAR VVPB 101300Z 15005KT 9999 FEW020 31/23 Q1007 NOSIG
2026-04-10 12:30:00,METAR VVPB 101230Z 14005KT 9999 FEW020 30/23 Q1006 NOSIG
2026-04-10 12:00:00,METAR VVPB 101200Z 11007KT 9999 FEW020TCU 30/22 Q1006 NOSIG
2026-04-10 11:30:00,METAR VVPB 101130Z 11008KT 9999 FEW020TCU 31/22 Q1006 NOSIG
2026-04-10 11:00:00,METAR VVPB 101100Z 11008KT 9999 FEW020TCU 31/22 Q1006 NOSIG
2026-04-10 10:30:00,METAR VVPB 101030Z 10008KT 9999 FEW020 32/22 Q1005 NOSIG
2026-04-10 10:00:00,METAR VVPB 101000Z 10009KT 9999 FEW020 33/22 Q1005 NOSIG
2026-04-10 09:30:00,METAR VVPB 100930Z 09009KT CAVOK 33/21 Q1005 NOSIG
2026-04-10 09:00:00,METAR VVPB 100900Z 08009KT CAVOK 34/21 Q1005 NOSIG
2026-04-10 08:30:00,METAR VVPB 100830Z 07008KT CAVOK 34/22 Q1005 NOSIG
2026-04-10 08:00:00,METAR VVPB 100800Z 08010KT CAVOK 35/22 Q1005 NOSIG
2026-04-10 07:30:00,METAR VVPB 100730Z 09010KT CAVOK 35/23 Q1005 NOSIG
2026-04-10 07:00:00,METAR VVPB 100700Z 07008KT CAVOK 35/23 Q1006 NOSIG
2026-04-10 06:30:00,METAR VVPB 100630Z 07008KT CAVOK 35/23 Q1006 NOSIG
2026-04-10 06:00:00,METAR VVPB 100600Z 07008KT CAVOK 35/23 Q1007 NOSIG
2026-04-10 05:30:00,METAR VVPB 100530Z 11007KT CAVOK 35/24 Q1007 NOSIG
2026-04-10 05:00:00,METAR VVPB 100500Z 07009KT CAVOK 35/25 Q1008 NOSIG
2026-04-10 04:30:00,METAR VVPB 100430Z VRB02KT 9999 FEW020 38/21 Q1008 NOSIG
2026-04-10 04:00:00,METAR VVPB 100400Z 24005KT 9999 FEW020 37/21 Q1009 NOSIG
2026-04-10 03:30:00,METAR VVPB 100330Z 26005KT 9999 FEW020 37/21 Q1009 NOSIG
2026-04-10 03:00:00,METAR VVPB 100300Z 26005KT 9999 FEW020 36/20 Q1009 NOSIG
2026-04-10 02:30:00,METAR VVPB 100230Z 24004KT 9999 FEW020 35/20 Q1009 NOSIG
2026-04-10 02:00:00,METAR VVPB 100200Z 26004KT 9999 FEW020 34/22 Q1009 NOSIG
2026-04-10 01:30:00,METAR VVPB 100130Z 29005KT 9000 FEW020 33/22 Q1009 NOSIG
2026-04-10 01:00:00,METAR VVPB 100100Z 30004KT 9000 FEW020 31/22 Q1009 NOSIG
2026-04-10 00:00:00,METAR VVPB 100000Z 20002KT 9000 FEW020 29/23 Q1008 NOSIG
2026-04-09 23:30:00,METAR VVPB 092330Z 24002KT 7000 FEW020 28/22 Q1008 NOSIG
2026-04-09 23:00:00,METAR VVPB 092300Z 30001KT 7000 FEW020 27/24 Q1008 NOSIG
2026-04-09 22:30:00,METAR VVPB 092230Z 12002KT 8000 FEW020 27/23 Q1007 NOSIG
2026-04-09 22:00:00,METAR VVPB 092200Z 18002KT 8000 FEW020 27/23 Q1007 NOSIG
2026-04-09 21:30:00,METAR VVPB 092130Z 26004KT 9999 FEW020 28/22 Q1007 NOSIG
2026-04-09 21:00:00,METAR VVPB 092100Z 25003KT 9999 FEW020 28/22 Q1006 NOSIG
2026-04-09 20:30:00,METAR VVPB 092030Z 28002KT 9999 FEW020 27/23 Q1006 NOSIG
2026-04-09 20:00:00,METAR VVPB 092000Z 24001KT 9999 FEW020 27/23 Q1006 NOSIG
2026-04-09 19:30:00,METAR VVPB 091930Z 21003KT 9999 FEW020 28/23 Q1006 NOSIG
2026-04-09 19:00:00,METAR VVPB 091900Z 17004KT 9999 FEW020 28/23 Q1006 NOSIG
2026-04-09 18:30:00,METAR VVPB 091830Z 15002KT 9999 FEW020 28/23 Q1007 NOSIG
2026-04-09 18:00:00,METAR VVPB 091800Z 14002KT 9999 FEW020 28/23 Q1007 NOSIG
2026-04-09 17:30:00,METAR VVPB 091730Z 30002KT 9999 FEW020 28/22 Q1007 NOSIG
2026-04-09 17:00:00,METAR VVPB 091700Z 35002KT 9999 FEW020 28/23 Q1008 NOSIG
2026-04-09 16:30:00,METAR VVPB 091630Z 33001KT 9999 FEW017 28/23 Q1008 NOSIG
2026-04-09 16:00:00,METAR VVPB 091600Z 24001KT 9999 FEW017 SCT050 29/22 Q1008 NOSIG
2026-04-09 15:30:00,METAR VVPB 091530Z 13002KT 9999 FEW017 SCT050 30/22 Q1008 NOSIG
2026-04-09 15:00:00,METAR VVPB 091500Z 22004KT 9999 FEW017 SCT050 31/22 Q1008 NOSIG
2026-04-09 14:30:00,METAR VVPB 091430Z 22005KT 9999 SCT017 SCT050 30/22 Q1008 NOSIG
2026-04-09 14:00:00,METAR VVPB 091400Z 24005KT 9999 SCT017 SCT050 31/21 Q1008 NOSIG
2026-04-09 13:30:00,METAR VVPB 091330Z 17004KT 9999 SCT015 SCT050 30/21 Q1008 NOSIG
2026-04-09 13:00:00,METAR VVPB 091300Z 21006KT 9999 VCTS SCT015 FEW017CB SCT040 32/21 Q1008 TEMPO TL1410 4500 TSRA
2026-04-09 12:30:00,METAR VVPB 091230Z 20005KT 9999 VCTS SCT015 FEW017CB SCT060 31/23 Q1007 TEMPO FM1255 4000 TSRA
2026-04-09 12:00:00,METAR VVPB 091200Z 18002KT 9999 SCT020 29/24 Q1007 NOSIG
2026-04-09 11:30:00,METAR VVPB 091130Z 15006KT 9999 FEW017 29/23 Q1006 NOSIG
2026-04-09 11:00:00,METAR VVPB 091100Z 12004KT 9999 FEW017 29/23 Q1006 NOSIG
2026-04-09 10:30:00,METAR VVPB 091030Z 10007KT 9999 FEW017 30/23 Q1006 NOSIG
2026-04-09 10:00:00,METAR VVPB 091000Z 09008KT 9999 FEW020 31/23 Q1006 NOSIG
2026-04-09 09:30:00,METAR VVPB 090930Z 10007KT 9999 FEW020 33/22 Q1006 NOSIG
2026-04-09 09:00:00,METAR VVPB 090900Z 08007KT 9999 FEW020 34/21 Q1006 NOSIG
2026-04-09 08:30:00,METAR VVPB 090830Z 09007KT 9999 FEW020 34/22 Q1006 NOSIG
2026-04-09 08:00:00,METAR VVPB 090800Z 09009KT 9999 FEW020 34/22 Q1006 NOSIG
2026-04-09 07:30:00,METAR VVPB 090730Z 08008KT 9999 FEW020 34/21 Q1006 NOSIG
2026-04-09 07:00:00,METAR VVPB 090700Z 09008KT 9999 FEW020 34/22 Q1006 NOSIG
2026-04-09 06:30:00,METAR VVPB 090630Z 07007KT 9999 FEW020 34/22 Q1007 NOSIG
2026-04-09 06:00:00,METAR VVPB 090600Z 06006KT 9999 FEW020 34/22 Q1007 NOSIG
2026-04-09 05:30:00,METAR VVPB 090530Z 08007KT 9999 FEW020 34/24 Q1008 NOSIG
2026-04-09 05:00:00,METAR VVPB 090500Z 05007KT 9999 FEW020 33/24 Q1008 NOSIG
2026-04-09 04:30:00,METAR VVPB 090430Z 04007KT 9999 FEW020 33/24 Q1008 NOSIG
2026-04-09 04:00:00,METAR VVPB 090400Z 04008KT 9999 FEW020 34/25 Q1009 NOSIG
2026-04-09 03:30:00,METAR VVPB 090330Z 03005KT 9999 FEW020 35/24 Q1009 NOSIG
2026-04-09 03:00:00,METAR VVPB 090300Z 19003KT 9999 FEW020 36/20 Q1009 NOSIG
2026-04-09 02:30:00,METAR VVPB 090230Z 03002KT 9999 FEW020 35/25 Q1009 NOSIG
2026-04-09 02:00:00,METAR VVPB 090200Z 34002KT 9999 FEW020 34/24 Q1009 NOSIG
2026-04-09 01:30:00,METAR VVPB 090130Z 02001KT 9999 FEW020 32/22 Q1009 NOSIG
2026-04-09 01:00:00,METAR VVPB 090100Z 30005KT 9999 FEW020 31/22 Q1009 NOSIG
2026-04-09 00:30:00,METAR VVPB 090030Z 30005KT 8000 SCT020 30/22 Q1009 NOSIG
2026-04-09 00:00:00,METAR VVPB 090000Z 32005KT 8000 SCT020 29/24 Q1008 NOSIG
2026-04-08 23:30:00,METAR VVPB 082330Z 36002KT 6000 SCT020 28/25 Q1008 NOSIG
2026-04-08 23:00:00,METAR VVPB 082300Z 15002KT 6000 SCT020 27/24 Q1007 NOSIG
2026-04-08 22:30:00,METAR VVPB 082230Z 15003KT 7000 SCT020 27/25 Q1007 NOSIG
2026-04-08 22:00:00,METAR VVPB 082200Z 13002KT 7000 SCT020 27/25 Q1007 NOSIG
2026-04-08 21:30:00,METAR VVPB 082130Z 18001KT 9000 FEW020 28/25 Q1007 NOSIG
2026-04-08 21:00:00,METAR VVPB 082100Z 11002KT 9000 FEW020 27/25 Q1006 NOSIG
2026-04-08 20:30:00,METAR VVPB 082030Z 25002KT 9999 FEW020 27/25 Q1006 NOSIG
2026-04-08 20:00:00,METAR VVPB 082000Z 02002KT 9999 FEW020 27/25 Q1006 NOSIG
2026-04-08 19:30:00,METAR VVPB 081930Z 05002KT 9999 FEW020 27/25 Q1006 NOSIG
2026-04-08 19:00:00,METAR VVPB 081900Z COR 09002KT 9999 FEW020 27/24 Q1006 NOSIG
2026-04-08 18:30:00,METAR VVPB 081830Z 01001KT 9999 FEW020 28/24 Q1006 NOSIG
2026-04-08 18:00:00,METAR VVPB 081800Z 33001KT 9999 FEW020 28/24 Q1007 NOSIG
2026-04-08 17:30:00,METAR VVPB 081730Z 35002KT 9999 FEW020 28/24 Q1007 NOSIG
2026-04-08 17:00:00,METAR VVPB 081700Z 35003KT 9999 FEW020 28/24 Q1007 NOSIG
2026-04-08 16:30:00,METAR VVPB 081630Z 08002KT 9999 FEW020 28/24 Q1007 NOSIG
2026-04-08 16:00:00,METAR VVPB 081600Z 08002KT 9999 FEW020 28/24 Q1008 NOSIG
2026-04-08 15:30:00,METAR VVPB 081530Z 08002KT 9999 FEW020 28/25 Q1008 NOSIG
2026-04-08 15:00:00,METAR VVPB 081500Z 12002KT 9999 FEW020 29/25 Q1008 NOSIG
2026-04-08 14:30:00,METAR VVPB 081430Z 10002KT 9999 FEW020 30/24 Q1007 NOSIG
2026-04-08 14:00:00,METAR VVPB 081400Z 13003KT 9999 FEW020 29/25 Q1007 NOSIG
2026-04-08 13:30:00,METAR VVPB 081330Z 16002KT 9999 FEW020 30/25 Q1007 NOSIG
2026-04-08 13:00:00,METAR VVPB 081300Z 11003KT 9999 FEW020 30/25 Q1007 NOSIG
2026-04-08 12:30:00,METAR VVPB 081230Z 13001KT 9999 FEW020 30/24 Q1006 NOSIG
2026-04-08 12:00:00,METAR VVPB 081200Z 13002KT 9999 FEW020 30/24 Q1006 NOSIG
2026-04-08 11:30:00,METAR VVPB 081130Z 06003KT 9999 FEW020 31/24 Q1006 NOSIG
2026-04-08 11:00:00,METAR VVPB 081100Z 05004KT 9999 FEW020 31/24 Q1006 NOSIG
2026-04-08 10:30:00,METAR VVPB 081030Z 07004KT CAVOK 32/24 Q1005 NOSIG
2026-04-08 10:00:00,METAR VVPB 081000Z 07005KT CAVOK 33/24 Q1005 NOSIG
2026-04-08 09:30:00,METAR VVPB 080930Z 09007KT CAVOK 35/22 Q1005 NOSIG
2026-04-08 09:00:00,METAR VVPB 080900Z 10008KT CAVOK 36/21 Q1005 NOSIG
2026-04-08 08:30:00,METAR VVPB 080830Z 11008KT CAVOK 37/22 Q1005 NOSIG
2026-04-08 08:00:00,METAR VVPB 080800Z 09009KT CAVOK 36/21 Q1005 NOSIG
2026-04-08 07:30:00,METAR VVPB 080730Z 09009KT CAVOK 36/23 Q1005 NOSIG
2026-04-08 07:00:00,METAR VVPB 080700Z 07007KT CAVOK 37/23 Q1006 NOSIG
2026-04-08 06:30:00,METAR VVPB 080630Z 08009KT CAVOK 37/23 Q1006 NOSIG
2026-04-08 06:00:00,METAR VVPB 080600Z 07007KT CAVOK 38/24 Q1006 NOSIG
2026-04-08 05:30:00,METAR VVPB 080530Z 06006KT CAVOK 38/24 Q1007 NOSIG
2026-04-08 05:00:00,METAR VVPB 080500Z 11006KT CAVOK 39/22 Q1008 NOSIG
2026-04-08 04:30:00,METAR VVPB 080430Z 11006KT CAVOK 38/22 Q1008 NOSIG
2026-04-08 04:00:00,METAR VVPB 080400Z 12005KT CAVOK 38/22 Q1009 NOSIG
2026-04-08 03:30:00,METAR VVPB 080330Z 12004KT CAVOK 37/22 Q1009 NOSIG
2026-04-08 03:00:00,METAR VVPB 080300Z 12004KT CAVOK 36/21 Q1009 NOSIG
2026-04-08 02:30:00,METAR VVPB 080230Z 18004KT CAVOK 36/21 Q1009 NOSIG
2026-04-08 02:00:00,METAR VVPB 080200Z 17005KT CAVOK 35/20 Q1009 NOSIG
2026-04-08 01:30:00,METAR VVPB 080130Z 20003KT CAVOK 34/21 Q1009 NOSIG
2026-04-08 01:00:00,METAR VVPB 080100Z 15003KT CAVOK 32/22 Q1009 NOSIG
2026-04-08 00:30:00,METAR VVPB 080030Z VRB02KT 9000 FEW020 30/22 Q1009 NOSIG
2026-04-08 00:00:00,METAR VVPB 080000Z VRB02KT 9000 FEW020 28/23 Q1008 NOSIG
2026-04-07 23:30:00,METAR VVPB 072330Z VRB01KT 9000 FEW020 27/22 Q1008 NOSIG
2026-04-07 23:00:00,METAR VVPB 072300Z 19003KT 9999 FEW020 27/22 Q1007 NOSIG
2026-04-07 22:30:00,METAR VVPB 072230Z 22003KT 9999 FEW020 28/22 Q1007 NOSIG
2026-04-07 22:00:00,METAR VVPB 072200Z 23004KT 9999 FEW020 29/21 Q1006 NOSIG
2026-04-07 21:30:00,METAR VVPB 072130Z 24003KT 9999 FEW020 28/22 Q1006 NOSIG
2026-04-07 21:00:00,METAR VVPB 072100Z 20002KT 9999 FEW020 28/23 Q1006 NOSIG
2026-04-07 20:30:00,METAR VVPB 072030Z VRB01KT 9999 FEW020 28/23 Q1006 NOSIG
2026-04-07 20:00:00,METAR VVPB 072000Z VRB01KT 9999 FEW020 28/24 Q1006 NOSIG
2026-04-07 19:30:00,METAR VVPB 071930Z VRB01KT 9999 FEW020 28/25 Q1006 NOSIG
2026-04-07 19:00:00,METAR VVPB 071900Z COR VRB01KT 9999 FEW020 28/24 Q1006 NOSIG
2026-04-07 18:30:00,METAR VVPB 071830Z VRB01KT 9999 FEW020 28/24 Q1006 NOSIG
2026-04-07 18:00:00,METAR VVPB 071800Z VRB01KT 9999 FEW020 28/25 Q1006 NOSIG
2026-04-07 17:30:00,METAR VVPB 071730Z VRB01KT 9999 FEW020 28/25 Q1006 NOSIG
2026-04-07 17:00:00,METAR VVPB 071700Z VRB01KT 9999 FEW020 30/22 Q1007 NOSIG
2026-04-07 16:30:00,METAR VVPB 071630Z 00000KT 9999 FEW020 30/22 Q1007 NOSIG
2026-04-07 16:00:00,METAR VVPB 071600Z VRB01KT 9999 FEW020 29/23 Q1007 NOSIG
2026-04-07 15:30:00,METAR VVPB 071530Z 21003KT 9999 FEW020 31/22 Q1007 NOSIG
2026-04-07 15:00:00,METAR VVPB 071500Z VRB01KT 9999 FEW020 31/22 Q1007 NOSIG
2026-04-07 14:30:00,METAR VVPB 071430Z VRB01KT 9999 FEW020 31/23 Q1007 NOSIG
2026-04-07 14:00:00,METAR VVPB 071400Z VRB01KT 9999 FEW020 31/23 Q1006 NOSIG
2026-04-07 13:30:00,METAR VVPB 071330Z 21002KT 9999 FEW020 32/23 Q1006 NOSIG
2026-04-07 13:00:00,METAR VVPB 071300Z 21003KT 9999 FEW020 32/23 Q1006 NOSIG
2026-04-07 12:30:00,METAR VVPB 071230Z 12003KT 9999 FEW020 31/21 Q1006 NOSIG
2026-04-07 12:00:00,METAR VVPB 071200Z 15002KT 9999 FEW020 31/22 Q1006 NOSIG
2026-04-07 11:30:00,METAR VVPB 071130Z 11003KT 9999 FEW020 31/22 Q1005 NOSIG
2026-04-07 11:00:00,METAR VVPB 071100Z 11004KT 9999 FEW020 32/21 Q1005 NOSIG
2026-04-07 10:30:00,METAR VVPB 071030Z 09005KT CAVOK 33/22 Q1005 NOSIG
2026-04-07 10:00:00,METAR VVPB 071000Z 10006KT CAVOK 33/22 Q1004 NOSIG
2026-04-07 09:30:00,METAR VVPB 070930Z 09006KT CAVOK 34/22 Q1004 NOSIG
2026-04-07 09:00:00,METAR VVPB 070900Z 09007KT CAVOK 35/21 Q1004 NOSIG
2026-04-07 08:30:00,METAR VVPB 070830Z 08006KT CAVOK 36/21 Q1004 NOSIG
2026-04-07 08:00:00,METAR VVPB 070800Z 10007KT CAVOK 35/23 Q1004 NOSIG
2026-04-07 07:30:00,METAR VVPB 070730Z 08007KT CAVOK 35/23 Q1005 NOSIG
2026-04-07 07:00:00,METAR VVPB 070700Z 07007KT CAVOK 35/23 Q1005 NOSIG
2026-04-07 06:30:00,METAR VVPB 070630Z 06008KT CAVOK 35/24 Q1005 NOSIG
2026-04-07 06:00:00,METAR VVPB 070600Z 04007KT CAVOK 35/23 Q1006 NOSIG
2026-04-07 05:30:00,METAR VVPB 070530Z 05007KT CAVOK 34/25 Q1006 NOSIG
2026-04-07 05:00:00,METAR VVPB 070500Z 04009KT CAVOK 36/25 Q1006 NOSIG
2026-04-07 04:30:00,METAR VVPB 070430Z 29005KT CAVOK 38/20 Q1007 NOSIG
2026-04-07 04:00:00,METAR VVPB 070400Z 19005KT CAVOK 38/20 Q1007 NOSIG
2026-04-07 03:30:00,METAR VVPB 070330Z 22005KT CAVOK 37/20 Q1008 NOSIG
2026-04-07 03:00:00,METAR VVPB 070300Z 22006KT CAVOK 37/20 Q1008 NOSIG
2026-04-07 02:30:00,METAR VVPB 070230Z 21006KT CAVOK 36/19 Q1008 NOSIG
2026-04-07 02:00:00,METAR VVPB 070200Z 19005KT 9999 FEW020 35/19 Q1008 NOSIG
2026-04-07 01:30:00,METAR VVPB 070130Z 21004KT 9999 FEW020 34/21 Q1008 NOSIG
2026-04-07 01:00:00,METAR VVPB 070100Z 21004KT 9999 FEW020 33/21 Q1007 NOSIG
2026-04-07 00:30:00,METAR VVPB 070030Z 21004KT 9999 FEW020 32/20 Q1007 NOSIG
2026-04-07 00:00:00,METAR VVPB 070000Z 22004KT 9999 FEW020 32/19 Q1007 NOSIG
2026-04-06 23:30:00,METAR VVPB 062330Z 23004KT 9999 FEW020 31/19 Q1006 NOSIG
2026-04-06 23:00:00,METAR VVPB 062300Z 23004KT 9999 FEW020 30/20 Q1006 NOSIG
2026-04-06 22:30:00,METAR VVPB 062230Z 24004KT 9999 FEW020 31/19 Q1006 NOSIG
2026-04-06 22:00:00,METAR VVPB 062200Z 32002KT 9999 FEW020 30/22 Q1005 NOSIG
2026-04-06 21:30:00,METAR VVPB 062130Z 22003KT 9999 FEW020 27/22 Q1005 NOSIG
2026-04-06 21:00:00,METAR VVPB 062100Z 20005KT 9999 FEW020 27/22 Q1005 NOSIG
2026-04-06 20:30:00,METAR VVPB 062030Z 02001KT 9999 FEW020 27/25 Q1005 NOSIG
2026-04-06 20:00:00,METAR VVPB 062000Z 02001KT 9999 FEW020 27/25 Q1005 NOSIG
2026-04-06 19:30:00,METAR VVPB 061930Z 34001KT 9999 FEW020 28/24 Q1005 NOSIG
2026-04-06 19:00:00,METAR VVPB 061900Z 34001KT 9999 FEW020 28/24 Q1005 NOSIG
2026-04-06 18:30:00,METAR VVPB 061830Z 34001KT 9999 FEW020 27/24 Q1005 NOSIG
2026-04-06 18:00:00,METAR VVPB 061800Z 34001KT 9999 FEW020 28/24 Q1005 NOSIG
2026-04-06 17:30:00,METAR VVPB 061730Z 36001KT 9999 FEW020 27/24 Q1005 NOSIG
2026-04-06 17:00:00,METAR VVPB 061700Z 27001KT 9999 FEW020 28/24 Q1006 NOSIG
2026-04-06 16:30:00,METAR VVPB 061630Z 21002KT 9999 FEW020 30/23 Q1006 NOSIG
2026-04-06 16:00:00,METAR VVPB 061600Z 21004KT 9999 FEW020 31/23 Q1006 NOSIG
2026-04-06 15:30:00,METAR VVPB 061530Z 19004KT 9999 FEW020 30/23 Q1006 NOSIG
2026-04-06 15:00:00,METAR VVPB 061500Z 22001KT 9999 FEW020 31/23 Q1006 NOSIG
2026-04-06 14:30:00,METAR VVPB 061430Z 24003KT 9999 FEW020 31/23 Q1006 NOSIG
2026-04-06 14:00:00,METAR VVPB 061400Z 17002KT 9999 FEW020 30/24 Q1006 NOSIG
2026-04-06 13:30:00,METAR VVPB 061330Z 13002KT 9999 FEW020 30/24 Q1005 NOSIG
2026-04-06 13:00:00,METAR VVPB 061300Z 12001KT 9999 FEW020 31/23 Q1005 NOSIG
2026-04-06 12:30:00,METAR VVPB 061230Z 11003KT 9999 FEW020 31/22 Q1005 NOSIG
2026-04-06 12:00:00,METAR VVPB 061200Z 12002KT 9999 FEW020 33/22 Q1004 NOSIG
2026-04-06 11:30:00,METAR VVPB 061130Z VRB02KT 9999 FEW020 33/22 Q1004 NOSIG
2026-04-06 11:00:00,METAR VVPB 061100Z 13002KT 9999 FEW020 33/22 Q1004 NOSIG
2026-04-06 10:30:00,METAR VVPB 061030Z 11003KT 9999 FEW020 33/22 Q1004 NOSIG
2026-04-06 10:00:00,METAR VVPB 061000Z 10006KT 9999 FEW020 33/22 Q1003 NOSIG
2026-04-06 09:30:00,METAR VVPB 060930Z 12007KT 9999 FEW020 34/22 Q1003 NOSIG
2026-04-06 09:00:00,METAR VVPB 060900Z 11006KT 9999 FEW020 35/21 Q1003 NOSIG
2026-04-06 08:30:00,METAR VVPB 060830Z 11007KT CAVOK 35/21 Q1004 NOSIG
2026-04-06 08:00:00,METAR VVPB 060800Z 09008KT CAVOK 35/21 Q1004 NOSIG
2026-04-06 07:30:00,METAR VVPB 060730Z 11007KT CAVOK 35/23 Q1004 NOSIG
2026-04-06 07:00:00,METAR VVPB 060700Z 09006KT CAVOK 35/23 Q1004 NOSIG
2026-04-06 06:30:00,METAR VVPB 060630Z 05007KT CAVOK 35/24 Q1005 NOSIG
2026-04-06 06:00:00,METAR VVPB 060600Z 05008KT CAVOK 35/24 Q1005 NOSIG
2026-04-06 05:30:00,METAR VVPB 060530Z 03008KT CAVOK 34/24 Q1005 NOSIG
2026-04-06 05:00:00,METAR VVPB 060500Z 03008KT 310V060 CAVOK 35/24 Q1006 NOSIG
2026-04-06 04:30:00,METAR VVPB 060430Z 28005KT 240V320 CAVOK 38/20 Q1006 NOSIG
2026-04-06 04:00:00,METAR VVPB 060400Z 21004KT 9999 FEW020 38/20 Q1006 NOSIG
2026-04-06 03:30:00,METAR VVPB 060330Z 20005KT 9999 FEW020 37/19 Q1007 NOSIG
2026-04-06 03:00:00,METAR VVPB 060300Z 21005KT 9999 FEW020 36/19 Q1007 NOSIG
2026-04-06 02:30:00,METAR VVPB 060230Z 22006KT 9999 FEW020 36/19 Q1007 NOSIG
2026-04-06 02:00:00,METAR VVPB 060200Z 21007KT 9999 FEW020 34/19 Q1007 NOSIG
2026-04-06 01:30:00,METAR VVPB 060130Z 21006KT 9999 FEW020 33/20 Q1007 NOSIG
2026-04-06 01:00:00,METAR VVPB 060100Z 21005KT 8000 FEW020 32/20 Q1007 NOSIG
2026-04-06 00:30:00,METAR VVPB 060030Z 22005KT 8000 FEW020 SCT060 31/20 Q1007 NOSIG
2026-04-06 00:00:00,METAR VVPB 060000Z 22003KT 8000 FEW020 SCT060 31/20 Q1006 NOSIG
2026-04-05 23:30:00,METAR VVPB 052330Z 23004KT 8000 FEW020 SCT060 30/19 Q1006 NOSIG
2026-04-05 23:00:00,METAR VVPB 052300Z 23004KT 9000 FEW020 SCT060 30/20 Q1006 NOSIG
2026-04-05 22:30:00,METAR VVPB 052230Z 21002KT 9000 FEW020 SCT060 30/20 Q1005 NOSIG
2026-04-05 22:00:00,METAR VVPB 052200Z 21002KT 9000 FEW020 SCT060 28/21 Q1005 NOSIG
2026-04-05 21:30:00,METAR VVPB 052130Z 20002KT 9000 FEW017 SCT060 28/22 Q1005 NOSIG
2026-04-05 21:00:00,METAR VVPB 052100Z 25002KT 9999 FEW017 SCT060 29/21 Q1004 NOSIG
2026-04-05 20:30:00,METAR VVPB 052030Z 02002KT 9999 FEW017 SCT060 27/22 Q1004 NOSIG
2026-04-05 20:00:00,METAR VVPB 052000Z 25005KT 9999 FEW017 SCT060 29/21 Q1004 NOSIG
2026-04-05 19:30:00,METAR VVPB 051930Z 25005KT 9999 FEW017 SCT060 29/21 Q1004 NOSIG
2026-04-05 19:00:00,METAR VVPB 051900Z 22002KT 9999 FEW017 SCT060 29/23 Q1004 NOSIG
2026-04-05 18:00:00,METAR VVPB 051800Z 13003KT 9999 FEW017 SCT060 30/23 Q1004 NOSIG
2026-04-05 17:30:00,METAR VVPB 051730Z 30003KT 9999 FEW017 28/24 Q1005 NOSIG
2026-04-05 17:00:00,METAR VVPB 051700Z 30003KT 9999 FEW017 28/24 Q1005 NOSIG
2026-04-05 16:30:00,METAR VVPB 051630Z 24002KT 9999 FEW017 30/23 Q1005 NOSIG
2026-04-05 16:00:00,METAR VVPB 051600Z 22002KT 9999 FEW017 30/23 Q1005 NOSIG
2026-04-05 15:00:00,METAR VVPB 051500Z 17001KT 9999 FEW017 30/25 Q1005 NOSIG
2026-04-05 13:00:00,METAR VVPB 051300Z 12001KT 9999 FEW017 30/25 Q1004 NOSIG
2026-04-05 12:30:00,METAR VVPB 051230Z 16003KT 9999 FEW017 30/24 Q1004 NOSIG
2026-04-05 12:00:00,METAR VVPB 051200Z 13002KT 9999 FEW017 30/24 Q1003 NOSIG
2026-04-05 11:30:00,METAR VVPB 051130Z 07003KT 9999 FEW017 31/24 Q1003 NOSIG
2026-04-05 11:00:00,METAR VVPB 051100Z 10003KT 9999 FEW017 32/23 Q1003 NOSIG
2026-04-05 10:30:00,METAR VVPB 051030Z 09003KT 9999 FEW017 33/23 Q1002 NOSIG
2026-04-05 10:00:00,METAR VVPB 051000Z 09004KT 9999 FEW017 33/22 Q1002 NOSIG
2026-04-05 09:30:00,METAR VVPB 050930Z 07005KT 9999 FEW017 33/22 Q1002 NOSIG
2026-04-05 09:00:00,METAR VVPB 050900Z 09005KT 9999 FEW017 34/23 Q1002 NOSIG
2026-04-05 08:30:00,METAR VVPB 050830Z 08005KT 9999 FEW017 34/24 Q1002 NOSIG
2026-04-05 08:00:00,METAR VVPB 050800Z 08005KT 9999 FEW017 34/24 Q1002 NOSIG
2026-04-05 07:30:00,METAR VVPB 050730Z 06006KT 9999 FEW017 34/24 Q1002 NOSIG
2026-04-05 07:00:00,METAR VVPB 050700Z 06006KT 9999 FEW017 34/25 Q1003 NOSIG
2026-04-05 06:30:00,METAR VVPB 050630Z 06007KT 9999 FEW017 33/25 Q1004 NOSIG
2026-04-05 06:00:00,METAR VVPB 050600Z 05007KT 9999 FEW017 35/26 Q1004 NOSIG
2026-04-05 05:30:00,METAR VVPB 050530Z 05006KT 9999 FEW017 35/25 Q1004 NOSIG
2026-04-05 05:00:00,METAR VVPB 050500Z 05005KT 9999 FEW017 35/16 Q1005 NOSIG
2026-04-05 04:30:00,METAR VVPB 050430Z 07005KT 9999 FEW017 37/19 Q1005 NOSIG
2026-04-05 04:00:00,METAR VVPB 050400Z 04005KT 9999 FEW017 36/20 Q1006 NOSIG
2026-04-05 03:30:00,METAR VVPB 050330Z 06003KT 9999 FEW017 35/25 Q1006 NOSIG
2026-04-05 03:00:00,METAR VVPB 050300Z 11003KT 9999 FEW017 35/22 Q1006 NOSIG
2026-04-05 02:30:00,METAR VVPB 050230Z 13002KT 9999 FEW017 33/23 Q1006 NOSIG
2026-04-05 02:00:00,METAR VVPB 050200Z 15004KT 9999 FEW017 33/23 Q1007 NOSIG
2026-04-05 01:30:00,METAR VVPB 050130Z 21003KT 9000 FEW017 31/23 Q1006 NOSIG
2026-04-05 01:00:00,METAR VVPB 050100Z 18004KT 8000 FEW017 30/22 Q1006 NOSIG
2026-04-05 00:30:00,METAR VVPB 050030Z 19004KT 7000 FEW017 29/22 Q1006 NOSIG
2026-04-05 00:00:00,METAR VVPB 050000Z 18004KT 7000 FEW017 27/22 Q1006 NOSIG
2026-04-04 23:30:00,METAR VVPB 042330Z 21004KT 6000 FEW015 27/22 Q1005 NOSIG
2026-04-04 23:00:00,METAR VVPB 042300Z 20002KT 5000 BR FEW015 26/23 Q1005 NOSIG
2026-04-04 22:30:00,METAR VVPB 042230Z 19002KT 5000 BR FEW015 26/24 Q1005 NOSIG
2026-04-04 22:00:00,METAR VVPB 042200Z 18002KT 4500 BR FEW015 26/24 Q1005 NOSIG
2026-04-04 21:30:00,METAR VVPB 042130Z 29002KT 4500 BR FEW015 26/24 Q1004 NOSIG
2026-04-04 21:00:00,METAR VVPB 042100Z 31002KT 4000 BR FEW015 26/25 Q1004 NOSIG
2026-04-04 20:30:00,METAR VVPB 042030Z VRB01KT 5000 BR FEW015 26/25 Q1004 BECMG 3000 BR
2026-04-04 20:00:00,METAR VVPB 042000Z 30002KT 5000 BR FEW015 26/25 Q1004 BECMG 3000 BR
2026-04-04 19:30:00,METAR VVPB 041930Z 30002KT 6000 FEW015 26/25 Q1004 BECMG 3000 BR
2026-04-04 19:00:00,METAR VVPB 041900Z 32003KT 7000 FEW015 27/24 Q1005 NOSIG
2026-04-04 18:30:00,METAR VVPB 041830Z 31002KT 8000 FEW015 27/24 Q1005 NOSIG
2026-04-04 18:00:00,METAR VVPB 041800Z 31002KT 8000 FEW015 27/24 Q1005 NOSIG
2026-04-04 17:30:00,METAR VVPB 041730Z 32003KT 8000 FEW015 27/24 Q1005 NOSIG
2026-04-04 17:00:00,METAR VVPB 041700Z 34003KT 8000 FEW015 28/24 Q1005 NOSIG
2026-04-04 16:30:00,METAR VVPB 041630Z 22002KT 8000 FEW015 29/24 Q1006 NOSIG
2026-04-04 16:00:00,METAR VVPB 041600Z 29003KT 9999 FEW020 29/24 Q1006 NOSIG
2026-04-04 15:30:00,METAR VVPB 041530Z 26003KT 9999 FEW020 29/24 Q1006 NOSIG
2026-04-04 15:00:00,METAR VVPB 041500Z 27003KT 9999 FEW020 29/24 Q1006 NOSIG
2026-04-04 14:30:00,METAR VVPB 041430Z 25003KT 9999 FEW020 30/24 Q1006 NOSIG
2026-04-04 14:00:00,METAR VVPB 041400Z 26002KT 9999 FEW020 30/23 Q1005 NOSIG
2026-04-04 13:30:00,METAR VVPB 041330Z 17002KT 9999 FEW020 30/23 Q1005 NOSIG
2026-04-04 13:00:00,METAR VVPB 041300Z 32004KT 9999 FEW020 30/24 Q1005 NOSIG
2026-04-04 12:30:00,METAR VVPB 041230Z 20001KT 9999 FEW020 SCT060 31/23 Q1004 NOSIG
2026-04-04 12:00:00,METAR VVPB 041200Z 19002KT 9999 FEW020 SCT060 31/23 Q1004 NOSIG
2026-04-04 11:30:00,METAR VVPB 041130Z 18002KT 9999 FEW020 SCT060 31/23 Q1003 NOSIG
2026-04-04 11:00:00,METAR VVPB 041100Z 17004KT 9999 FEW020 SCT060 31/23 Q1003 NOSIG
2026-04-04 10:30:00,METAR VVPB 041030Z 14005KT 9999 FEW020 SCT060 31/22 Q1003 NOSIG
2026-04-04 10:00:00,METAR VVPB 041000Z 12006KT 9999 FEW020 SCT060 32/21 Q1003 NOSIG
2026-04-04 09:30:00,METAR VVPB 040930Z 12005KT 9999 FEW020 SCT060 33/22 Q1003 NOSIG
2026-04-04 09:00:00,METAR VVPB 040900Z 09005KT 9999 FEW020 SCT060 33/23 Q1003 NOSIG
2026-04-04 08:30:00,METAR VVPB 040830Z 09007KT 9999 FEW020 SCT060 32/22 Q1003 NOSIG
2026-04-04 08:00:00,METAR VVPB 040800Z 05008KT 9999 FEW020 SCT060 32/23 Q1003 NOSIG
2026-04-04 07:30:00,METAR VVPB 040730Z 06008KT 9999 FEW020 SCT060 32/24 Q1003 NOSIG
2026-04-04 07:00:00,METAR VVPB 040700Z 06008KT 9999 FEW020 SCT060 33/24 Q1003 NOSIG
2026-04-04 06:30:00,METAR VVPB 040630Z 05007KT 9999 FEW020 SCT060 34/24 Q1003 NOSIG
2026-04-04 06:00:00,METAR VVPB 040600Z 06008KT 9999 FEW020 SCT060 36/24 Q1004 NOSIG
2026-04-04 05:30:00,METAR VVPB 040530Z 20004KT 9999 FEW020 SCT060 38/21 Q1004 NOSIG
2026-04-04 05:00:00,METAR VVPB 040500Z 21004KT 9999 FEW020 SCT060 37/21 Q1005 NOSIG
2026-04-04 04:30:00,METAR VVPB 040430Z 19004KT 9999 FEW020 SCT060 37/21 Q1005 NOSIG
2026-04-04 04:00:00,METAR VVPB 040400Z 19004KT 9999 FEW020 SCT060 36/20 Q1006 NOSIG
2026-04-04 03:30:00,METAR VVPB 040330Z 19005KT 9999 FEW020 SCT060 35/20 Q1006 NOSIG
2026-04-04 03:00:00,METAR VVPB 040300Z 20005KT 9999 FEW020 SCT060 36/20 Q1007 NOSIG
2026-04-04 02:30:00,METAR VVPB 040230Z 22006KT 9999 FEW020 SCT060 34/19 Q1007 NOSIG
2026-04-04 02:00:00,METAR VVPB 040200Z 19004KT 9999 FEW020 SCT060 34/20 Q1007 NOSIG
2026-04-04 01:30:00,METAR VVPB 040130Z 19004KT 9999 FEW020 SCT060 34/20 Q1007 NOSIG
2026-04-04 01:00:00,METAR VVPB 040100Z 14002KT 9000 FEW020 SCT060 31/22 Q1006 NOSIG
2026-04-04 00:30:00,METAR VVPB 040030Z 15002KT 9999 FEW020 30/22 Q1006 NOSIG
2026-04-04 00:00:00,METAR VVPB 040000Z 17003KT 9999 FEW020 29/21 Q1006 NOSIG
2026-04-03 23:30:00,METAR VVPB 032330Z 21003KT 9999 FEW020 30/20 Q1005 NOSIG
2026-04-03 23:00:00,METAR VVPB 032300Z 21005KT 7000 FEW020 30/20 Q1005 NOSIG
2026-04-03 22:30:00,METAR VVPB 032230Z 21004KT 7000 FEW020 29/20 Q1005 NOSIG
2026-04-03 22:00:00,METAR VVPB 032200Z 21005KT 9999 FEW020 29/20 Q1004 NOSIG
2026-04-03 21:30:00,METAR VVPB 032130Z 22005KT 9999 FEW020 29/21 Q1004 NOSIG
2026-04-03 21:00:00,METAR VVPB 032100Z 21004KT 9999 FEW020 29/21 Q1004 NOSIG
2026-04-03 20:30:00,METAR VVPB 032030Z 22004KT 9999 FEW020 30/21 Q1004 NOSIG
2026-04-03 20:00:00,METAR VVPB 032000Z 22003KT 9999 FEW020 30/21 Q1004 NOSIG
2026-04-03 19:30:00,METAR VVPB 031930Z 23002KT 9999 FEW020 28/22 Q1004 NOSIG
2026-04-03 19:00:00,METAR VVPB 031900Z VRB02KT 9999 FEW020 29/23 Q1004 NOSIG
2026-04-03 18:30:00,METAR VVPB 031830Z 20003KT 9999 FEW020 29/23 Q1004 NOSIG
2026-04-03 18:00:00,METAR VVPB 031800Z 21003KT 9999 FEW020 28/24 Q1005 NOSIG
2026-04-03 17:30:00,METAR VVPB 031730Z VRB01KT 9999 FEW020 SCT060 28/24 Q1005 NOSIG
2026-04-03 17:00:00,METAR VVPB 031700Z VRB01KT 9999 FEW020 SCT060 28/24 Q1005 NOSIG
2026-04-03 16:30:00,METAR VVPB 031630Z VRB01KT 9999 FEW020 SCT060 30/23 Q1006 NOSIG
2026-04-03 16:00:00,METAR VVPB 031600Z 23003KT 9999 FEW020 SCT060 31/23 Q1006 NOSIG
2026-04-03 15:30:00,METAR VVPB 031530Z 21003KT 9999 FEW020 SCT060 31/23 Q1006 NOSIG
2026-04-03 15:00:00,METAR VVPB 031500Z 20004KT 9999 FEW020 SCT060 31/22 Q1006 NOSIG
2026-04-03 14:30:00,METAR VVPB 031430Z 20005KT 9999 FEW020 SCT060 31/23 Q1006 NOSIG
2026-04-03 14:00:00,METAR VVPB 031400Z 20005KT 9999 FEW020 SCT060 31/24 Q1005 NOSIG
2026-04-03 13:30:00,METAR VVPB 031330Z VRB01KT 9999 FEW020 SCT060 29/25 Q1005 NOSIG
2026-04-03 13:00:00,METAR VVPB 031300Z VRB01KT 9999 FEW020 SCT060 28/24 Q1005 NOSIG
2026-04-03 12:30:00,METAR VVPB 031230Z 12001KT 9999 FEW020 SCT060 29/24 Q1005 NOSIG
2026-04-03 12:00:00,METAR VVPB 031200Z 11001KT 9999 FEW020 SCT060 29/24 Q1005 NOSIG
2026-04-03 11:30:00,METAR VVPB 031130Z 05003KT 9999 FEW020 SCT060 29/24 Q1005 NOSIG
2026-04-03 11:00:00,METAR VVPB 031100Z 09002KT 9999 FEW020 31/23 Q1004 NOSIG
2026-04-03 10:30:00,METAR VVPB 031030Z 11004KT 9999 FEW020 31/23 Q1004 NOSIG
2026-04-03 10:00:00,METAR VVPB 031000Z 12004KT 9999 FEW020 32/23 Q1004 NOSIG
2026-04-03 09:30:00,METAR VVPB 030930Z 13005KT CAVOK 32/22 Q1003 NOSIG
2026-04-03 09:00:00,METAR VVPB 030900Z 11008KT CAVOK 33/21 Q1003 NOSIG
2026-04-03 08:30:00,METAR VVPB 030830Z 10007KT CAVOK 33/22 Q1004 NOSIG
2026-04-03 08:00:00,METAR VVPB 030800Z 09007KT CAVOK 33/22 Q1004 NOSIG
2026-04-03 07:30:00,METAR VVPB 030730Z 10007KT CAVOK 33/22 Q1004 NOSIG
2026-04-03 07:00:00,METAR VVPB 030700Z 07007KT CAVOK 33/22 Q1004 NOSIG
2026-04-03 06:30:00,METAR VVPB 030630Z 05006KT CAVOK 32/23 Q1005 NOSIG
2026-04-03 06:00:00,METAR VVPB 030600Z 04005KT CAVOK 32/23 Q1006 NOSIG
2026-04-03 05:30:00,METAR VVPB 030530Z 04005KT 9999 FEW020 32/24 Q1006 NOSIG
2026-04-03 05:00:00,METAR VVPB 030500Z 06007KT 9999 FEW020 32/24 Q1007 NOSIG
2026-04-03 04:30:00,METAR VVPB 030430Z 06008KT 9999 FEW020 32/25 Q1007 NOSIG
2026-04-03 04:00:00,METAR VVPB 030400Z 04005KT 9999 FEW017 34/25 Q1008 NOSIG
2026-04-03 03:30:00,METAR VVPB 030330Z 06004KT 9999 FEW017 33/25 Q1008 NOSIG
2026-04-03 03:00:00,METAR VVPB 030300Z 11003KT 9999 FEW017 32/25 Q1008 NOSIG
2026-04-03 02:30:00,METAR VVPB 030230Z 13004KT 9999 FEW017 31/25 Q1008 NOSIG
2026-04-03 02:00:00,METAR VVPB 030200Z 13004KT 7000 FEW017 30/24 Q1009 NOSIG
2026-04-03 01:30:00,METAR VVPB 030130Z 17003KT 7000 FEW015 29/23 Q1009 NOSIG
2026-04-03 01:00:00,METAR VVPB 030100Z 16003KT 7000 FEW013 29/23 Q1009 NOSIG
2026-04-03 00:30:00,METAR VVPB 030030Z VRB02KT 6000 FEW010 28/24 Q1009 NOSIG
2026-04-03 00:00:00,METAR VVPB 030000Z VRB01KT 3200 BR SCT005 27/24 Q1009 BECMG TL0045 6000 NSW
2026-04-02 23:30:00,METAR VVPB 022330Z VRB01KT 2500 BR SCT005 26/25 Q1008 BECMG TL0020 4000 BR
2026-04-02 23:00:00,METAR VVPB 022300Z 26002KT 2500 BR FEW020 25/25 Q1008 BECMG TL2350 3500 BR
2026-04-02 22:30:00,METAR VVPB 022230Z 31002KT 2500 BR FEW020 26/25 Q1008 BECMG TL2350 3500 BR
2026-04-02 22:00:00,METAR VVPB 022200Z 31002KT 2700 BR FEW020 26/25 Q1007 BECMG TL2350 3500 BR
2026-04-02 21:30:00,METAR VVPB 022130Z 31002KT 3500 BR FEW020 26/25 Q1007 BECMG TL2230 2500 BR
2026-04-02 21:00:00,METAR VVPB 022100Z COR VRB02KT 5000 BR FEW020 26/25 Q1007 NOSIG
2026-04-02 20:30:00,METAR VVPB 022030Z 36003KT 5000 BR FEW020 26/25 Q1007 NOSIG
2026-04-02 20:00:00,METAR VVPB 022000Z 31003KT 9999 FEW020 26/25 Q1007 NOSIG
2026-04-02 19:30:00,METAR VVPB 021930Z 34002KT 9999 FEW020 26/25 Q1007 NOSIG
2026-04-02 18:30:00,METAR VVPB 021830Z 34002KT 9999 FEW020 27/24 Q1007 NOSIG
2026-04-02 18:00:00,METAR VVPB 021800Z VRB01KT 9999 FEW020 27/24 Q1007 NOSIG
2026-04-02 17:30:00,METAR VVPB 021730Z VRB01KT 9999 FEW020 28/23 Q1008 NOSIG
2026-04-02 17:00:00,METAR VVPB 021700Z VRB02KT 9999 FEW020 28/23 Q1008 NOSIG
2026-04-02 16:30:00,METAR VVPB 021630Z 15003KT 9999 FEW020 SCT060 28/24 Q1008 NOSIG
2026-04-02 16:00:00,METAR VVPB 021600Z VRB01KT 9999 FEW020 SCT060 27/25 Q1009 NOSIG
2026-04-02 15:30:00,METAR VVPB 021530Z VRB02KT 9999 FEW020 SCT060 28/25 Q1009 NOSIG
2026-04-02 15:00:00,METAR VVPB 021500Z VRB01KT 9999 FEW020 SCT060 28/25 Q1009 NOSIG
2026-04-02 14:30:00,METAR VVPB 021430Z VRB02KT 9999 FEW020 SCT060 29/24 Q1008 NOSIG
2026-04-02 14:00:00,METAR VVPB 021400Z 00000KT 9999 FEW020 SCT060 29/24 Q1008 NOSIG
2026-04-02 13:30:00,METAR VVPB 021330Z 16002KT 9999 FEW020 SCT060 29/25 Q1008 NOSIG
2026-04-02 13:00:00,METAR VVPB 021300Z VRB01KT 9999 FEW020 SCT060 29/24 Q1008 NOSIG
2026-04-02 12:30:00,METAR VVPB 021230Z 08003KT 9999 FEW015 SCT050 29/24 Q1007 NOSIG
2026-04-02 12:00:00,METAR VVPB 021200Z 10003KT 9999 FEW015 SCT050 29/24 Q1007 NOSIG
2026-04-02 11:30:00,METAR VVPB 021130Z 06003KT 9999 FEW015 SCT050 29/24 Q1007 NOSIG
2026-04-02 11:00:00,METAR VVPB 021100Z 04002KT 9999 FEW015 SCT050 30/23 Q1007 NOSIG
2026-04-02 10:30:00,METAR VVPB 021030Z 34002KT 9999 FEW015 SCT050 31/23 Q1006 NOSIG
2026-04-02 10:00:00,METAR VVPB 021000Z 36002KT 9999 FEW015 SCT050 31/23 Q1006 NOSIG
2026-04-02 09:30:00,METAR VVPB 020930Z 05003KT 9999 FEW015 SCT050 31/23 Q1006 NOSIG
2026-04-02 09:00:00,METAR VVPB 020900Z 04004KT 9999 FEW015 SCT050 32/23 Q1006 NOSIG
2026-04-02 08:30:00,METAR VVPB 020830Z 36004KT 9999 FEW015 SCT050 32/23 Q1006 NOSIG
2026-04-02 08:00:00,METAR VVPB 020800Z 35005KT 9999 FEW015 SCT050 32/24 Q1007 NOSIG
2026-04-02 07:30:00,METAR VVPB 020730Z 02003KT 9999 FEW015 SCT050 32/24 Q1007 NOSIG
2026-04-02 07:00:00,METAR VVPB 020700Z 36004KT 9999 FEW015 SCT050 32/24 Q1007 NOSIG
2026-04-02 06:30:00,METAR VVPB 020630Z 03003KT 9999 SCT015 SCT050 31/25 Q1009 NOSIG
2026-04-02 06:00:00,METAR VVPB 020600Z 04004KT 9000 SCT015 SCT050 30/25 Q1009 NOSIG
2026-04-02 05:30:00,METAR VVPB 020530Z 05006KT 9000 SCT015 SCT050 29/25 Q1010 NOSIG
2026-04-02 05:00:00,METAR VVPB 020500Z 05007KT 8000 SCT015 SCT050 29/24 Q1011 NOSIG
2026-04-02 04:30:00,METAR VVPB 020430Z 06007KT 9000 SCT015 SCT050 29/24 Q1011 NOSIG
2026-04-02 04:00:00,METAR VVPB 020400Z 06007KT 9000 SCT015 BKN040 29/24 Q1012 NOSIG
2026-04-02 03:30:00,METAR VVPB 020330Z 09006KT 8000 SCT015 BKN040 29/24 Q1012 NOSIG
2026-04-02 03:00:00,METAR VVPB 020300Z 08008KT 8000 SCT015 BKN040 29/24 Q1012 NOSIG
2026-04-02 02:30:00,METAR VVPB 020230Z 06005KT 8000 SCT015 BKN040 30/25 Q1013 NOSIG
2026-04-02 02:00:00,METAR VVPB 020200Z 08005KT 8000 SCT015 BKN040 28/24 Q1013 NOSIG
2026-04-02 01:30:00,METAR VVPB 020130Z 09003KT 7000 SCT015 BKN040 27/24 Q1013 NOSIG
2026-04-02 01:00:00,METAR VVPB 020100Z 07004KT 6000 SCT015 BKN040 26/24 Q1012 NOSIG
2026-04-02 00:30:00,METAR VVPB 020030Z 08004KT 6000 SCT013 BKN030 26/24 Q1012 NOSIG
2026-04-02 00:00:00,METAR VVPB 020000Z 05003KT 5000 BR SCT013 BKN030 25/24 Q1012 BECMG TL0035 6000 NSW
2026-04-01 23:30:00,METAR VVPB 012330Z 04002KT 4500 BR SCT013 BKN030 25/24 Q1012 BECMG TL0035 6000 NSW
2026-04-01 23:00:00,METAR VVPB 012300Z 04002KT 3500 BR SCT013 BKN020 25/24 Q1012 BECMG TL2335 2500 BR
2026-04-01 22:30:00,METAR VVPB 012230Z 30003KT 5000 BR SCT020 25/24 Q1011 NOSIG
2026-04-01 22:00:00,METAR VVPB 012200Z 05002KT 5000 BR SCT020 25/24 Q1011 NOSIG
2026-04-01 21:30:00,METAR VVPB 012130Z 03003KT 5000 BR SCT020 25/24 Q1011 NOSIG
2026-04-01 21:00:00,METAR VVPB 012100Z 35002KT 5000 BR SCT020 25/24 Q1011 NOSIG
2026-04-01 20:30:00,METAR VVPB 012030Z 36002KT 5000 BR SCT020 25/24 Q1010 NOSIG
2026-04-01 20:00:00,METAR VVPB 012000Z 33002KT 5000 BR SCT020 25/24 Q1010 NOSIG
2026-04-01 19:30:00,METAR VVPB 011930Z 33002KT 5000 BR SCT020 25/24 Q1010 NOSIG
2026-04-01 19:00:00,METAR VVPB 011900Z 34002KT 5000 BR SCT020 25/24 Q1010 NOSIG
2026-04-01 18:30:00,METAR VVPB 011830Z 35002KT 6000 SCT020 25/24 Q1010 BECMG TL1910 3500 BR
2026-04-01 18:00:00,METAR VVPB 011800Z 32001KT 7000 SCT020 26/24 Q1011 NOSIG
2026-04-01 17:30:00,METAR VVPB 011730Z 31003KT 8000 SCT020 26/24 Q1011 NOSIG
2026-04-01 17:00:00,METAR VVPB 011700Z 31003KT 8000 SCT020 26/24 Q1011 NOSIG
2026-04-01 16:30:00,METAR VVPB 011630Z 28003KT 7000 SCT020 26/24 Q1011 NOSIG
2026-04-01 16:00:00,METAR VVPB 011600Z 23002KT 7000 SCT020 26/24 Q1012 NOSIG
2026-04-01 15:30:00,METAR VVPB 011530Z 23001KT 9000 SCT017 26/24 Q1012 NOSIG
2026-04-01 15:00:00,METAR VVPB 011500Z 24001KT 9000 SCT017 26/24 Q1012 NOSIG
2026-04-01 14:00:00,METAR VVPB 011400Z 28003KT 7000 SCT017 26/24 Q1011 NOSIG
2026-04-01 13:30:00,METAR VVPB 011330Z 32004KT 9999 SCT015 27/25 Q1011 NOSIG
2026-04-01 13:00:00,METAR VVPB 011300Z 33002KT 9999 SCT015 26/25 Q1011 NOSIG
2026-04-01 12:30:00,METAR VVPB 011230Z 34003KT 9999 SCT015 26/24 Q1010 NOSIG
2026-04-01 12:00:00,METAR VVPB 011200Z 01004KT 9999 SCT015 27/25 Q1010 NOSIG
2026-04-01 11:30:00,METAR VVPB 011130Z 01003KT 9999 SCT015 27/24 Q1009 NOSIG
2026-04-01 11:00:00,METAR VVPB 011100Z 34003KT 9999 SCT015 27/24 Q1009 NOSIG
2026-04-01 10:30:00,METAR VVPB 011030Z 35003KT 9999 SCT015 27/24 Q1008 NOSIG
2026-04-01 10:00:00,METAR VVPB 011000Z 35005KT 9999 SCT015 28/24 Q1008 NOSIG
2026-04-01 09:30:00,METAR VVPB 010930Z 35005KT 9999 SCT015 28/24 Q1008 NOSIG
2026-04-01 09:00:00,METAR VVPB 010900Z 01006KT 9999 SCT015 29/24 Q1008 NOSIG
2026-04-01 08:30:00,METAR VVPB 010830Z 35005KT 9999 SCT015 29/24 Q1008 NOSIG
2026-04-01 08:00:00,METAR VVPB 010800Z 34007KT 9999 SCT015 29/24 Q1009 NOSIG
2026-04-01 07:30:00,METAR VVPB 010730Z 34009KT 9999 SCT015 30/24 Q1009 NOSIG
2026-04-01 07:00:00,METAR VVPB 010700Z 34010KT 9999 SCT015 30/24 Q1009 NOSIG
2026-04-01 06:30:00,METAR VVPB 010630Z 34010KT 9999 SCT017 29/24 Q1009 NOSIG
2026-04-01 06:00:00,METAR VVPB 010600Z 34012KT 9999 SCT017 29/24 Q1010 NOSIG
2026-04-01 05:30:00,METAR VVPB 010530Z 35012KT 9999 FEW020 29/24 Q1011 NOSIG
2026-04-01 05:00:00,METAR VVPB 010500Z 34014KT 9999 FEW020 30/24 Q1011 NOSIG
2026-04-01 04:30:00,METAR VVPB 010430Z 34012KT 9999 FEW020 30/24 Q1011 NOSIG
2026-04-01 04:00:00,METAR VVPB 010400Z 34012KT 9999 FEW020 31/23 Q1011 NOSIG
2026-04-01 03:30:00,METAR VVPB 010330Z 34011KT 9999 FEW020 31/23 Q1011 NOSIG
2026-04-01 03:00:00,METAR VVPB 010300Z 31012KT 9999 FEW020 33/22 Q1011 NOSIG
2026-04-01 02:30:00,METAR VVPB 010230Z 32009KT 9999 FEW020 32/22 Q1011 NOSIG
2026-04-01 02:00:00,METAR VVPB 010200Z 32003KT 9999 FEW020 31/22 Q1011 NOSIG
2026-04-01 01:30:00,METAR VVPB 010130Z 18003KT 9999 FEW020 30/22 Q1010 NOSIG
2026-04-01 01:00:00,METAR VVPB 010100Z 20003KT 9999 FEW020 30/22 Q1010 NOSIG
2026-04-01 00:30:00,METAR VVPB 010030Z 20003KT 9999 FEW020 28/22 Q1010 NOSIG
2026-04-01 00:00:00,METAR VVPB 010000Z 22002KT 9999 FEW020 27/22 Q1009 NOSIG
2026-03-31 23:30:00,METAR VVPB 312330Z 18003KT 9999 FEW020 26/22 Q1008 NOSIG
2026-03-31 23:00:00,METAR VVPB 312300Z 19002KT 9999 FEW020 26/22 Q1008 NOSIG
2026-03-31 22:30:00,METAR VVPB 312230Z 21003KT 9999 FEW020 26/21 Q1008 NOSIG
2026-03-31 22:00:00,METAR VVPB 312200Z 21002KT 9999 FEW020 26/22 Q1007 NOSIG
2026-03-31 21:30:00,METAR VVPB 312130Z 22002KT 9999 FEW020 26/22 Q1007 NOSIG
2026-03-31 21:00:00,METAR VVPB 312100Z 15002KT 9999 FEW020 26/22 Q1007 NOSIG
2026-03-31 20:30:00,METAR VVPB 312030Z 24003KT 9999 FEW020 26/22 Q1006 NOSIG
2026-03-31 20:00:00,METAR VVPB 312000Z 23003KT 9999 FEW020 26/23 Q1006 NOSIG
2026-03-31 19:30:00,METAR VVPB 311930Z 30001KT 9999 FEW020 26/24 Q1007 NOSIG
2026-03-31 19:00:00,METAR VVPB 311900Z 30001KT 9999 FEW020 26/24 Q1007 NOSIG
2026-03-31 18:30:00,METAR VVPB 311830Z 04001KT 9999 FEW020 26/24 Q1007 NOSIG
2026-03-31 18:00:00,METAR VVPB 311800Z 04001KT 9999 FEW020 26/24 Q1007 NOSIG
2026-03-31 17:30:00,METAR VVPB 311730Z 36001KT 9999 FEW020 26/24 Q1008 NOSIG
2026-03-31 17:00:00,METAR VVPB 311700Z 34001KT 9999 FEW020 28/23 Q1008 NOSIG
2026-03-31 16:30:00,METAR VVPB 311630Z 25004KT 9999 FEW020 28/22 Q1008 NOSIG
2026-03-31 16:00:00,METAR VVPB 311600Z VRB01KT 9999 FEW020 28/21 Q1008 NOSIG
2026-03-31 15:30:00,METAR VVPB 311530Z 16003KT 9999 FEW020 27/23 Q1008 NOSIG
2026-03-31 15:00:00,METAR VVPB 311500Z 14003KT 9999 FEW020 29/22 Q1008 NOSIG
2026-03-31 14:30:00,METAR VVPB 311430Z 15002KT 9999 FEW020 29/22 Q1008 NOSIG
2026-03-31 14:00:00,METAR VVPB 311400Z 22002KT 9999 FEW020 30/22 Q1007 NOSIG
2026-03-31 13:30:00,METAR VVPB 311330Z VRB01KT 9999 FEW020 28/24 Q1007 NOSIG
2026-03-31 13:00:00,METAR VVPB 311300Z 16001KT 9999 FEW020 29/23 Q1007 NOSIG
2026-03-31 12:30:00,METAR VVPB 311230Z 12001KT 9999 FEW020 29/24 Q1007 NOSIG
2026-03-31 12:00:00,METAR VVPB 311200Z 11002KT 9999 FEW020 SCT060 29/23 Q1006 NOSIG
2026-03-31 11:30:00,METAR VVPB 311130Z 11002KT 9999 FEW020 30/23 Q1006 NOSIG
2026-03-31 11:00:00,METAR VVPB 311100Z 09004KT 9999 FEW020 30/23 Q1006 NOSIG
2026-03-31 10:30:00,METAR VVPB 311030Z 07004KT 9999 FEW020 31/23 Q1006 NOSIG
2026-03-31 10:00:00,METAR VVPB 311000Z 06004KT 9999 FEW020 32/24 Q1005 NOSIG
2026-03-31 09:30:00,METAR VVPB 310930Z 10006KT 9999 FEW020 34/21 Q1005 NOSIG
2026-03-31 09:00:00,METAR VVPB 310900Z 11006KT 9999 FEW020 34/21 Q1005 NOSIG
2026-03-31 08:30:00,METAR VVPB 310830Z 09007KT 9999 FEW020 34/20 Q1006 NOSIG
2026-03-31 08:00:00,METAR VVPB 310800Z 06006KT 9999 FEW020 34/20 Q1006 NOSIG
2026-03-31 07:30:00,METAR VVPB 310730Z 05007KT 9999 FEW020 35/19 Q1006 NOSIG
2026-03-31 07:00:00,METAR VVPB 310700Z 05007KT 9999 FEW020 34/21 Q1006 NOSIG
2026-03-31 06:30:00,METAR VVPB 310630Z 07006KT 9999 FEW020 33/21 Q1007 NOSIG
2026-03-31 06:00:00,METAR VVPB 310600Z 05007KT 9999 FEW020 33/21 Q1007 NOSIG
2026-03-31 05:30:00,METAR VVPB 310530Z 05007KT 9999 FEW020 33/22 Q1008 NOSIG
2026-03-31 05:00:00,METAR VVPB 310500Z 04008KT 9999 FEW020 34/23 Q1008 NOSIG
2026-03-31 04:30:00,METAR VVPB 310430Z 18004KT 9999 FEW020 37/18 Q1009 NOSIG
2026-03-31 04:00:00,METAR VVPB 310400Z 18004KT 9999 FEW020 36/18 Q1009 NOSIG
2026-03-31 03:30:00,METAR VVPB 310330Z 20005KT 9999 FEW020 36/19 Q1009 NOSIG
2026-03-31 03:00:00,METAR VVPB 310300Z 17005KT 9999 FEW020 35/20 Q1010 NOSIG
2026-03-31 02:30:00,METAR VVPB 310230Z 17004KT 9999 FEW020 33/20 Q1010 NOSIG
2026-03-31 02:00:00,METAR VVPB 310200Z 21004KT 9999 FEW020 33/19 Q1010 NOSIG
2026-03-31 01:30:00,METAR VVPB 310130Z 23003KT 9999 FEW017 31/21 Q1010 NOSIG
2026-03-31 01:00:00,METAR VVPB 310100Z 21004KT 9999 FEW017 29/21 Q1010 NOSIG
2026-03-31 00:30:00,METAR VVPB 310030Z VRB01KT 9999 FEW017 28/20 Q1009 NOSIG
2026-03-31 00:00:00,METAR VVPB 310000Z 20004KT 9999 FEW017 26/21 Q1009 NOSIG
2026-03-30 23:30:00,METAR VVPB 302330Z VRB02KT 9999 FEW017 25/20 Q1009 NOSIG
2026-03-30 23:00:00,METAR VVPB 302300Z 21004KT 9999 FEW017 SCT050 25/20 Q1008 NOSIG
2026-03-30 22:30:00,METAR VVPB 302230Z 20004KT 9999 FEW017 SCT050 26/19 Q1008 NOSIG
2026-03-30 22:00:00,METAR VVPB 302200Z 20004KT 9999 FEW017 SCT050 25/19 Q1007 NOSIG
2026-03-30 21:30:00,METAR VVPB 302130Z VRB02KT 9999 FEW017 SCT050 25/19 Q1007 NOSIG
2026-03-30 21:00:00,METAR VVPB 302100Z VRB02KT 9999 FEW017 SCT050 25/19 Q1007 NOSIG
2026-03-30 20:30:00,METAR VVPB 302030Z VRB02KT 9999 FEW017 SCT050 27/18 Q1007 NOSIG
2026-03-30 20:00:00,METAR VVPB 302000Z VRB01KT 9999 FEW017 SCT050 27/20 Q1007 NOSIG
2026-03-30 19:30:00,METAR VVPB 301930Z COR VRB02KT 9999 FEW017 26/22 Q1007 NOSIG
2026-03-30 19:00:00,METAR VVPB 301900Z VRB02KT 9999 FEW017 26/22 Q1007 NOSIG
2026-03-30 18:30:00,METAR VVPB 301830Z 21002KT 9999 FEW017 26/19 Q1007 NOSIG
2026-03-30 18:00:00,METAR VVPB 301800Z VRB01KT 9999 FEW017 25/23 Q1008 NOSIG
2026-03-30 17:30:00,METAR VVPB 301730Z 26002KT 9999 FEW017 26/24 Q1008 NOSIG
2026-03-30 17:00:00,METAR VVPB 301700Z VRB01KT 9999 FEW017 26/24 Q1008 NOSIG
2026-03-30 16:30:00,METAR VVPB 301630Z 13002KT 9999 FEW017 27/24 Q1008 NOSIG
2026-03-30 16:00:00,METAR VVPB 301600Z 13002KT 9999 FEW017 27/24 Q1008 NOSIG
2026-03-30 15:30:00,METAR VVPB 301530Z 13002KT 9999 FEW017 27/24 Q1008 NOSIG
2026-03-30 15:00:00,METAR VVPB 301500Z 11002KT 9999 FEW017 27/24 Q1008 NOSIG
2026-03-30 14:30:00,METAR VVPB 301430Z 12001KT 9999 FEW017 27/24 Q1008 NOSIG
2026-03-30 14:00:00,METAR VVPB 301400Z VRB02KT 9999 FEW017 28/24 Q1008 NOSIG
2026-03-30 13:30:00,METAR VVPB 301330Z 11004KT 9999 FEW017 28/25 Q1008 NOSIG
2026-03-30 13:00:00,METAR VVPB 301300Z 13003KT 9999 FEW017 28/25 Q1007 NOSIG
2026-03-30 12:30:00,METAR VVPB 301230Z 14002KT 9999 FEW017 28/25 Q1007 NOSIG
2026-03-30 12:00:00,METAR VVPB 301200Z 11003KT 9999 FEW017 28/24 Q1007 NOSIG
2026-03-30 11:30:00,METAR VVPB 301130Z VRB01KT 9999 FEW017 28/24 Q1006 NOSIG
2026-03-30 11:00:00,METAR VVPB 301100Z 13001KT 9999 FEW017 28/24 Q1006 NOSIG
2026-03-30 10:30:00,METAR VVPB 301030Z 03006KT 9999 FEW017 29/24 Q1006 NOSIG
2026-03-30 10:00:00,METAR VVPB 301000Z 05004KT 9999 FEW017 31/23 Q1006 NOSIG
2026-03-30 09:30:00,METAR VVPB 300930Z 08006KT 9999 FEW017 32/23 Q1005 NOSIG
2026-03-30 09:00:00,METAR VVPB 300900Z 09007KT 9999 FEW017 33/22 Q1005 NOSIG
2026-03-30 08:30:00,METAR VVPB 300830Z 09007KT 9999 FEW017 33/21 Q1005 NOSIG
2026-03-30 08:00:00,METAR VVPB 300800Z 08008KT 9999 FEW017 34/20 Q1006 NOSIG
2026-03-30 07:30:00,METAR VVPB 300730Z 07008KT 9999 FEW017 34/21 Q1006 NOSIG
2026-03-30 07:00:00,METAR VVPB 300700Z 10007KT 9999 FEW017 33/22 Q1006 NOSIG
2026-03-30 06:30:00,METAR VVPB 300630Z 07008KT 9999 FEW017 34/22 Q1007 NOSIG
2026-03-30 06:00:00,METAR VVPB 300600Z 06007KT 9999 FEW017 34/22 Q1007 NOSIG
2026-03-30 05:30:00,METAR VVPB 300530Z 05007KT 9999 FEW017 33/23 Q1008 NOSIG
2026-03-30 05:00:00,METAR VVPB 300500Z 07006KT 9999 FEW017 33/23 Q1008 NOSIG
2026-03-30 04:30:00,METAR VVPB 300430Z 04004KT 9999 FEW017 33/23 Q1009 NOSIG
2026-03-30 04:00:00,METAR VVPB 300400Z 09003KT 9999 FEW017 33/22 Q1009 NOSIG
2026-03-30 03:30:00,METAR VVPB 300330Z 10005KT 9999 FEW017 32/22 Q1010 NOSIG
2026-03-30 03:00:00,METAR VVPB 300300Z 10003KT 9999 FEW017 31/22 Q1010 NOSIG
2026-03-30 02:30:00,METAR VVPB 300230Z 13004KT 9999 FEW017 30/23 Q1010 NOSIG
2026-03-30 02:00:00,METAR VVPB 300200Z 14002KT 9999 FEW015 30/23 Q1010 NOSIG
2026-03-30 01:30:00,METAR VVPB 300130Z 12002KT 9999 FEW015 29/22 Q1010 NOSIG
2026-03-30 01:00:00,METAR VVPB 300100Z 21003KT 9999 FEW015 27/22 Q1009 NOSIG
2026-03-30 00:30:00,METAR VVPB 300030Z 18003KT 9000 FEW015 SCT050 26/22 Q1009 NOSIG
2026-03-30 00:00:00,METAR VVPB 300000Z 25001KT 6000 FEW015 SCT050 25/22 Q1009 NOSIG
2026-03-29 23:30:00,METAR VVPB 292330Z 07002KT 4000 BR FEW015 SCT050 24/23 Q1009 BECMG TL0100 6000 NSW
2026-03-29 23:00:00,METAR VVPB 292300Z 23003KT 5000 BR FEW015 SCT050 24/22 Q1008 BECMG TL2335 2800 BR
2026-03-29 22:30:00,METAR VVPB 292230Z 18002KT 5000 BR FEW015 SCT050 24/22 Q1008 BECMG TL2310 2500 BR
2026-03-29 22:00:00,METAR VVPB 292200Z 08001KT 5000 BR FEW015 SCT050 24/22 Q1008 BECMG TL2245 2500 BR
2026-03-29 21:30:00,METAR VVPB 292130Z 15001KT 6000 FEW015 SCT050 24/22 Q1007 NOSIG
2026-03-29 21:00:00,METAR VVPB 292100Z 15001KT 6000 FEW015 SCT050 24/22 Q1008 NOSIG
2026-03-29 20:30:00,METAR VVPB 292030Z 16003KT 5000 BR FEW015 SCT050 24/22 Q1007 NOSIG
2026-03-29 20:00:00,METAR VVPB 292000Z 16003KT 5000 BR FEW015 SCT050 24/23 Q1007 NOSIG
2026-03-29 19:30:00,METAR VVPB 291930Z 18002KT 5000 BR FEW015 SCT050 24/23 Q1008 NOSIG
2026-03-29 19:00:00,METAR VVPB 291900Z 18002KT 5000 BR FEW015 SCT050 25/23 Q1008 NOSIG
2026-03-29 18:00:00,METAR VVPB 291800Z 19002KT 5000 BR FEW015 SCT050 25/24 Q1008 NOSIG
2026-03-29 17:30:00,METAR VVPB 291730Z 19002KT 5000 BR FEW015 SCT050 25/24 Q1008 NOSIG
2026-03-29 17:00:00,METAR VVPB 291700Z 22001KT 5000 BR FEW015 SCT050 25/24 Q1009 NOSIG
2026-03-29 16:30:00,METAR VVPB 291630Z 20002KT 5000 BR FEW015 SCT050 25/24 Q1009 NOSIG
2026-03-29 16:00:00,METAR VVPB 291600Z 16002KT 5000 BR FEW015 SCT050 25/24 Q1009 NOSIG
2026-03-29 15:30:00,METAR VVPB 291530Z 12002KT 6000 FEW015 SCT050 25/24 Q1009 NOSIG
2026-03-29 15:00:00,METAR VVPB 291500Z 33001KT 6000 FEW015 SCT050 25/24 Q1009 NOSIG
2026-03-29 14:30:00,METAR VVPB 291430Z 20001KT 6000 FEW017 SCT060 26/24 Q1009 NOSIG
2026-03-29 14:00:00,METAR VVPB 291400Z 11003KT 6000 FEW017 SCT060 25/24 Q1009 NOSIG
2026-03-29 13:30:00,METAR VVPB 291330Z 10003KT 5000 BR FEW017 SCT060 26/24 Q1009 NOSIG
2026-03-29 13:00:00,METAR VVPB 291300Z 13002KT 7000 FEW017 SCT060 26/24 Q1009 NOSIG
2026-03-29 12:30:00,METAR VVPB 291230Z 25003KT 7000 FEW017 SCT060 27/23 Q1009 NOSIG
2026-03-29 12:00:00,METAR VVPB 291200Z 25002KT 8000 FEW017 SCT060 27/23 Q1008 NOSIG
2026-03-29 11:30:00,METAR VVPB 291130Z 24001KT 7000 FEW017 SCT060 27/23 Q1008 NOSIG
2026-03-29 11:00:00,METAR VVPB 291100Z 25001KT 7000 FEW020 SCT060 27/23 Q1008 NOSIG
2026-03-29 10:30:00,METAR VVPB 291030Z 10004KT 8000 FEW020 SCT060 27/23 Q1007 NOSIG
2026-03-29 10:00:00,METAR VVPB 291000Z 04004KT 8000 FEW020 SCT060 28/23 Q1007 NOSIG
2026-03-29 09:30:00,METAR VVPB 290930Z 06006KT 8000 FEW020 SCT060 28/24 Q1007 NOSIG
2026-03-29 09:00:00,METAR VVPB 290900Z 09007KT 8000 FEW020 SCT060 29/24 Q1007 NOSIG
2026-03-29 08:30:00,METAR VVPB 290830Z 08007KT 8000 FEW020 SCT060 29/24 Q1006 NOSIG
2026-03-29 08:00:00,METAR VVPB 290800Z 07006KT 8000 FEW020 SCT060 29/24 Q1007 NOSIG
2026-03-29 07:30:00,METAR VVPB 290730Z 05006KT 8000 FEW020 SCT060 29/24 Q1007 NOSIG
2026-03-29 07:00:00,METAR VVPB 290700Z 06006KT 8000 FEW020 SCT060 30/24 Q1007 NOSIG
2026-03-29 06:00:00,METAR VVPB 290600Z 02006KT 7000 FEW020 SCT060 29/24 Q1009 NOSIG
2026-03-29 05:30:00,METAR VVPB 290530Z 03006KT 7000 FEW020 SCT060 29/24 Q1009 NOSIG
2026-03-29 05:00:00,METAR VVPB 290500Z 03009KT 7000 FEW020 SCT060 29/24 Q1010 NOSIG
2026-03-29 04:30:00,METAR VVPB 290430Z 05009KT 9999 FEW020 SCT060 30/24 Q1010 NOSIG
2026-03-29 04:00:00,METAR VVPB 290400Z 03006KT 9999 FEW020 SCT060 30/24 Q1010 NOSIG
2026-03-29 03:30:00,METAR VVPB 290330Z 04006KT 9999 FEW020 SCT060 30/24 Q1010 NOSIG
2026-03-29 03:00:00,METAR VVPB 290300Z 05004KT 8000 FEW017 SCT060 29/24 Q1010 NOSIG
2026-03-29 02:30:00,METAR VVPB 290230Z 01004KT 8000 FEW017 SCT060 29/23 Q1011 NOSIG
2026-03-29 02:00:00,METAR VVPB 290200Z 36004KT 7000 SCT013 28/24 Q1011 NOSIG
2026-03-29 01:30:00,METAR VVPB 290130Z 06001KT 6000 SCT013 27/24 Q1011 NOSIG
2026-03-29 01:00:00,METAR VVPB 290100Z 13003KT 7000 SCT013 26/23 Q1010 NOSIG
2026-03-29 00:30:00,METAR VVPB 290030Z 23003KT 6000 SCT013 25/23 Q1010 NOSIG
2026-03-29 00:00:00,METAR VVPB 290000Z 21002KT 4500 BR SCT010 24/23 Q1009 BECMG TL0030 6000 NSW
2026-03-28 23:30:00,METAR VVPB 282330Z 21003KT 2500 BR SCT010 23/22 Q1009 BECMG TL0015 4000 BR
2026-03-28 23:00:00,METAR VVPB 282300Z 22002KT 2000 BR SCT010 23/22 Q1008 BECMG TL0015 4000 BR
2026-03-28 22:30:00,METAR VVPB 282230Z VRB01KT 3500 BR SCT010 23/22 Q1007 BECMG TL2330 2000 BR
2026-03-28 22:00:00,METAR VVPB 282200Z 15003KT 3500 BR SCT005 23/22 Q1007 NOSIG
2026-03-28 21:30:00,METAR VVPB 282130Z 16005KT 2500 BR SCT005 24/23 Q1007 TEMPO 0800 FG VV002
2026-03-28 21:00:00,METAR VVPB 282100Z 15003KT 1400 BR BKN010 24/24 Q1007 TEMPO 0800 FG VV002
2026-03-28 20:30:00,METAR VVPB 282030Z 00000KT 2500 BR SCT013 SCT050 24/23 Q1007 BECMG 1400 BR
2026-03-28 20:00:00,METAR VVPB 282000Z VRB01KT 2500 BR SCT013 SCT050 25/24 Q1006 BECMG 1400 BR
2026-03-28 19:30:00,METAR VVPB 281930Z 20003KT 2500 BR SCT013 SCT050 25/24 Q1006 BECMG 1400 BR
2026-03-28 19:00:00,METAR VVPB 281900Z VRB02KT 2500 BR SCT013 SCT050 25/24 Q1007 NOSIG
2026-03-28 18:30:00,METAR VVPB 281830Z 27003KT 2700 BR SCT013 SCT050 25/24 Q1007 NOSIG
2026-03-28 18:00:00,METAR VVPB 281800Z 31004KT 2700 BR SCT013 SCT050 25/24 Q1007 NOSIG
2026-03-28 17:30:00,METAR VVPB 281730Z 32003KT 2700 BR SCT013 SCT050 25/24 Q1007 NOSIG
2026-03-28 17:00:00,METAR VVPB 281700Z 36001KT 2700 BR SCT013 SCT050 25/24 Q1008 NOSIG
2026-03-28 16:30:00,METAR VVPB 281630Z VRB02KT 2500 BR SCT013 SCT050 25/24 Q1008 NOSIG
2026-03-28 16:00:00,METAR VVPB 281600Z 22003KT 2200 BR SCT013 SCT050 25/23 Q1008 NOSIG
2026-03-28 15:30:00,METAR VVPB 281530Z VRB02KT 2500 BR SCT013 SCT050 24/24 Q1008 NOSIG
2026-03-28 15:00:00,METAR VVPB 281500Z 31002KT 2500 BR SCT013 SCT050 25/24 Q1009 NOSIG
2026-03-28 14:30:00,METAR VVPB 281430Z 33003KT 3200 BR SCT013 SCT050 25/24 Q1009 NOSIG
2026-03-28 14:00:00,METAR VVPB 281400Z 34001KT 3500 BR SCT013 SCT050 25/24 Q1008 NOSIG
2026-03-28 13:30:00,METAR VVPB 281330Z VRB01KT 3500 BR SCT013 SCT050 25/24 Q1008 NOSIG
2026-03-28 13:00:00,METAR VVPB 281300Z VRB02KT 5000 BR SCT015 SCT050 25/24 Q1008 BECMG 3000 BR
2026-03-28 12:30:00,METAR VVPB 281230Z 24001KT 6000 SCT015 SCT050 25/24 Q1008 NOSIG
2026-03-28 12:00:00,METAR VVPB 281200Z 15002KT 6000 SCT015 SCT050 25/24 Q1007 NOSIG
2026-03-28 11:30:00,METAR VVPB 281130Z 09002KT 6000 SCT015 SCT050 26/24 Q1007 NOSIG
2026-03-28 11:00:00,METAR VVPB 281100Z 32002KT 5000 BR SCT015 SCT050 26/23 Q1007 NOSIG
2026-03-28 10:30:00,METAR VVPB 281030Z 08005KT 5000 BR SCT015 SCT050 26/24 Q1007 NOSIG
2026-03-28 10:00:00,METAR VVPB 281000Z 34005KT 5000 BR SCT015 SCT050 26/24 Q1007 NOSIG
2026-03-28 09:30:00,METAR VVPB 280930Z 35004KT 5000 BR SCT015 SCT050 26/24 Q1007 NOSIG
2026-03-28 09:00:00,METAR VVPB 280900Z 36004KT 6000 FEW015 SCT050 26/23 Q1007 NOSIG
2026-03-28 08:30:00,METAR VVPB 280830Z 02005KT 7000 FEW015 SCT050 28/24 Q1006 NOSIG
2026-03-28 08:00:00,METAR VVPB 280800Z 02005KT 9000 FEW015 SCT050 28/24 Q1006 NOSIG
2026-03-28 07:30:00,METAR VVPB 280730Z 35004KT 9000 SCT015 SCT050 28/24 Q1007 NOSIG
2026-03-28 07:00:00,METAR VVPB 280700Z 34006KT 9000 SCT015 SCT050 28/24 Q1007 NOSIG
2026-03-28 06:30:00,METAR VVPB 280630Z 34005KT 9000 SCT015 SCT050 28/24 Q1008 NOSIG
2026-03-28 06:00:00,METAR VVPB 280600Z 01006KT 8000 SCT015 SCT050 28/24 Q1008 NOSIG
2026-03-28 05:30:00,METAR VVPB 280530Z 03006KT 7000 SCT015 SCT050 28/24 Q1009 NOSIG
2026-03-28 05:00:00,METAR VVPB 280500Z 02003KT 7000 SCT015 SCT050 28/24 Q1009 NOSIG
2026-03-28 04:30:00,METAR VVPB 280430Z 36004KT 6000 SCT015 SCT050 28/24 Q1009 NOSIG
2026-03-28 04:00:00,METAR VVPB 280400Z 03003KT 5000 BR SCT015 SCT050 27/24 Q1010 BECMG TL0430 8000 NSW
2026-03-28 03:30:00,METAR VVPB 280330Z 01004KT 4500 BR SCT015 SCT050 27/24 Q1010 BECMG TL0430 8000 NSW
2026-03-28 03:00:00,METAR VVPB 280300Z 04004KT 4000 BR SCT015 SCT050 26/24 Q1010 BECMG TL0430 8000 NSW
2026-03-28 02:30:00,METAR VVPB 280230Z 35004KT 5000 BR SCT015 SCT060 26/24 Q1011 BECMG TL0310 8000 NSW
2026-03-28 02:00:00,METAR VVPB 280200Z 33003KT 5000 BR SCT015 SCT060 25/24 Q1011 BECMG TL0230 8000 NSW
2026-03-28 01:30:00,METAR VVPB 280130Z 32003KT 4500 BR SCT015 SCT060 25/24 Q1010 BECMG TL0150 8000 NSW
2026-03-28 01:00:00,METAR VVPB 280100Z 34003KT 3500 BR SCT015 SCT060 25/24 Q1010 BECMG TL0140 8000 NSW
2026-03-28 00:30:00,METAR VVPB 280030Z 36002KT 3500 BR SCT015 SCT060 25/24 Q1010 BECMG TL0115 7000 NSW
2026-03-28 00:00:00,METAR VVPB 280000Z 10001KT 4000 BR SCT015 25/24 Q1009 BECMG TL0100 6000 NSW
2026-03-27 23:30:00,METAR VVPB 272330Z VRB01KT 4000 BR FEW015 25/24 Q1009 BECMG TL0020 6000 NSW
2026-03-27 23:00:00,METAR VVPB 272300Z 18002KT 3000 BR FEW015 24/23 Q1008 BECMG TL0020 6000 NSW
2026-03-27 22:30:00,METAR VVPB 272230Z 17003KT 3000 BR FEW015 24/23 Q1008 BECMG TL0020 6000 NSW
2026-03-27 22:00:00,METAR VVPB 272200Z 28001KT 3500 BR FEW015 25/23 Q1008 NOSIG
2026-03-27 21:30:00,METAR VVPB 272130Z VRB01KT 4000 BR FEW020 25/24 Q1007 NOSIG
2026-03-27 21:00:00,METAR VVPB 272100Z 23001KT 4500 BR FEW020 25/24 Q1007 NOSIG
2026-03-27 20:30:00,METAR VVPB 272030Z 17001KT 6000 FEW020 25/24 Q1007 BECMG 3000 BR
2026-03-27 20:00:00,METAR VVPB 272000Z 28003KT 6000 FEW020 25/24 Q1007 BECMG 3000 BR
2026-03-27 19:30:00,METAR VVPB 271930Z 28003KT 6000 FEW020 25/24 Q1007 BECMG TL2000 3000 BR
2026-03-27 19:00:00,METAR VVPB 271900Z 27004KT 7000 FEW020 25/24 Q1007 BECMG TL2000 3000 BR
2026-03-27 18:30:00,METAR VVPB 271830Z 30003KT 7000 FEW020 25/24 Q1007 BECMG TL2000 3000 BR
2026-03-27 18:00:00,METAR VVPB 271800Z 30002KT 8000 FEW020 25/24 Q1007 NOSIG
2026-03-27 17:30:00,METAR VVPB 271730Z 30003KT 8000 FEW020 25/24 Q1007 NOSIG
2026-03-27 17:00:00,METAR VVPB 271700Z 26003KT 8000 FEW020 26/24 Q1008 NOSIG
2026-03-27 16:30:00,METAR VVPB 271630Z 29002KT 8000 FEW020 26/24 Q1008 NOSIG
2026-03-27 16:00:00,METAR VVPB 271600Z 32002KT 8000 FEW020 26/24 Q1008 NOSIG
2026-03-25 15:00:00,METAR VVPB 251500Z VRB02KT 9999 FEW020 SCT060 24/23 Q1011 NOSIG
2026-03-25 14:30:00,METAR VVPB 251430Z VRB01KT 9999 FEW020 SCT060 25/23 Q1011 NOSIG
2026-03-25 14:00:00,METAR VVPB 251400Z 14002KT 9999 FEW020 SCT060 25/23 Q1011 NOSIG
2026-03-25 13:30:00,METAR VVPB 251330Z VRB01KT 9999 FEW020 SCT050 25/23 Q1011 NOSIG
2026-03-25 13:00:00,METAR VVPB 251300Z VRB02KT 9999 FEW015 SCT050 25/23 Q1011 NOSIG
2026-03-25 12:30:00,METAR VVPB 251230Z 10004KT 9999 FEW015 SCT050 25/23 Q1011 NOSIG
2026-03-25 12:00:00,METAR VVPB 251200Z 08005KT 9999 FEW015 SCT050 25/23 Q1011 NOSIG
2026-03-25 11:30:00,METAR VVPB 251130Z 08006KT 9999 FEW015 SCT050 25/23 Q1010 NOSIG
2026-03-25 11:00:00,METAR VVPB 251100Z 08007KT 9999 FEW015 SCT050 26/23 Q1010 NOSIG
2026-03-25 10:30:00,METAR VVPB 251030Z 08009KT 9999 FEW015 SCT050 26/23 Q1010 NOSIG
2026-03-25 10:00:00,METAR VVPB 251000Z 07009KT 9999 FEW015 SCT050 27/22 Q1009 NOSIG
2026-03-25 09:30:00,METAR VVPB 250930Z 07009KT 9999 FEW015 SCT050 27/22 Q1009 NOSIG
2026-03-25 09:00:00,METAR VVPB 250900Z 08010KT 9999 FEW015 SCT050 28/22 Q1009 NOSIG
2026-03-25 08:30:00,METAR VVPB 250830Z 06009KT 9999 FEW015 SCT050 28/22 Q1009 NOSIG
2026-03-25 08:00:00,METAR VVPB 250800Z 06008KT 9999 FEW015 SCT050 28/22 Q1010 NOSIG
2026-03-25 07:30:00,METAR VVPB 250730Z 07006KT 9999 FEW015 SCT050 28/22 Q1010 NOSIG
2026-03-25 07:00:00,METAR VVPB 250700Z 06006KT 9999 FEW015 SCT050 29/22 Q1010 NOSIG
2026-03-25 06:30:00,METAR VVPB 250630Z 05005KT 9999 SCT015 SCT050 28/23 Q1011 NOSIG
2026-03-25 06:00:00,METAR VVPB 250600Z 05006KT 9999 SCT015 SCT050 28/22 Q1011 NOSIG
2026-03-25 05:30:00,METAR VVPB 250530Z 03006KT 9999 SCT015 SCT050 28/22 Q1011 NOSIG
2026-03-25 05:00:00,METAR VVPB 250500Z 02006KT 9999 SCT015 SCT050 28/21 Q1012 NOSIG
2026-03-25 04:30:00,METAR VVPB 250430Z 03007KT 9999 SCT015 SCT050 27/21 Q1012 NOSIG
2026-03-25 04:00:00,METAR VVPB 250400Z 02005KT 9999 SCT015 BKN050 27/21 Q1013 NOSIG
2026-03-25 03:30:00,METAR VVPB 250330Z 04004KT 9999 SCT015 BKN050 27/22 Q1013 NOSIG
2026-03-25 03:00:00,METAR VVPB 250300Z 06003KT 9999 SCT015 BKN050 26/21 Q1013 NOSIG
2026-03-25 02:30:00,METAR VVPB 250230Z 32002KT 9999 SCT015 BKN050 26/21 Q1013 NOSIG
2026-03-25 02:00:00,METAR VVPB 250200Z 12004KT 9999 SCT015 BKN050 26/22 Q1013 NOSIG
2026-03-25 01:30:00,METAR VVPB 250130Z 15003KT 9999 SCT015 BKN050 25/22 Q1013 NOSIG
2026-03-25 01:00:00,METAR VVPB 250100Z 16003KT 9000 SCT013 BKN040 24/22 Q1012 NOSIG
2026-03-25 00:30:00,METAR VVPB 250030Z 16003KT 5000 BR SCT013 BKN040 24/22 Q1012 BECMG TL0040 6000 NSW
2026-03-25 00:00:00,METAR VVPB 250000Z 21003KT 3500 BR SCT013 BKN040 24/22 Q1011 BECMG TL0040 6000 NSW
2026-03-24 23:30:00,METAR VVPB 242330Z 22004KT 2500 BR SCT006 BKN040 23/22 Q1011 BECMG TL0035 4000 BR
2026-03-24 23:00:00,METAR VVPB 242300Z 22004KT 2500 BR SCT006 BKN040 23/22 Q1011 NOSIG
2026-03-24 22:30:00,METAR VVPB 242230Z 24004KT 3500 BR SCT013 BKN040 23/22 Q1011 BECMG TL2315 2000 BR
2026-03-24 22:00:00,METAR VVPB 242200Z 26006KT 3500 BR SCT013 BKN040 23/22 Q1010 BECMG TL2240 2000 BR
2026-03-24 21:30:00,METAR VVPB 242130Z 26007KT 3500 BR SCT013 BKN040 23/22 Q1010 BECMG TL2205 2000 BR
2026-03-24 21:00:00,METAR VVPB 242100Z 26007KT 3500 BR SCT013 BKN040 23/22 Q1010 BECMG TL2205 2000 BR
2026-03-24 20:30:00,METAR VVPB 242030Z 26006KT 4000 BR SCT013 BKN040 23/22 Q1009 BECMG TL2115 2000 BR
2026-03-24 20:00:00,METAR VVPB 242000Z 27006KT 4000 BR SCT013 BKN040 23/22 Q1009 BECMG TL2115 2000 BR
2026-03-24 19:30:00,METAR VVPB 241930Z 28005KT 4000 BR SCT020 23/22 Q1009 BECMG TL2115 2000 BR
2026-03-24 19:00:00,METAR VVPB 241900Z 27004KT 9999 FEW020 22/21 Q1009 NOSIG
2026-03-24 18:30:00,METAR VVPB 241830Z 34001KT 9999 FEW020 22/21 Q1009 NOSIG
2026-03-24 18:00:00,METAR VVPB 241800Z 16002KT 9999 FEW020 23/22 Q1009 NOSIG
2026-03-24 17:30:00,METAR VVPB 241730Z 17002KT 9999 FEW020 23/22 Q1010 NOSIG
2026-03-24 17:00:00,METAR VVPB 241700Z 18002KT 9999 FEW020 24/22 Q1010 NOSIG
2026-03-24 16:30:00,METAR VVPB 241630Z 18002KT 9999 FEW020 24/22 Q1010 NOSIG
2026-03-24 16:00:00,METAR VVPB 241600Z 18002KT 9999 FEW020 24/22 Q1010 NOSIG
2026-03-24 15:30:00,METAR VVPB 241530Z 28001KT 9999 FEW020 24/22 Q1010 NOSIG
2026-03-24 15:00:00,METAR VVPB 241500Z 24003KT 9999 FEW020 25/22 Q1011 NOSIG
2026-03-24 14:30:00,METAR VVPB 241430Z 24002KT 9999 FEW020 25/22 Q1011 NOSIG
2026-03-24 14:00:00,METAR VVPB 241400Z 24004KT 9999 FEW020 25/23 Q1010 NOSIG
2026-03-24 13:30:00,METAR VVPB 241330Z 27003KT 9999 FEW020 25/23 Q1010 NOSIG
2026-03-24 13:00:00,METAR VVPB 241300Z 31004KT 9999 FEW020 25/22 Q1010 NOSIG
2026-03-24 12:30:00,METAR VVPB 241230Z 31004KT 9999 FEW020 25/22 Q1009 NOSIG
2026-03-24 12:00:00,METAR VVPB 241200Z 32003KT 9999 FEW020 25/22 Q1009 NOSIG
2026-03-24 11:30:00,METAR VVPB 241130Z 36003KT 9999 FEW020 25/22 Q1009 NOSIG
2026-03-24 11:00:00,METAR VVPB 241100Z 04004KT 9999 FEW020 26/22 Q1008 NOSIG
2026-03-24 10:30:00,METAR VVPB 241030Z 06006KT 9999 FEW020 27/22 Q1008 NOSIG
2026-03-24 10:00:00,METAR VVPB 241000Z 06006KT 9999 FEW020 28/22 Q1008 NOSIG
2026-03-24 09:30:00,METAR VVPB 240930Z 05007KT 9999 FEW017 28/21 Q1008 NOSIG
2026-03-24 09:00:00,METAR VVPB 240900Z 07006KT 9999 FEW017 29/22 Q1008 NOSIG
2026-03-24 08:30:00,METAR VVPB 240830Z 04006KT 9999 FEW017 29/22 Q1008 NOSIG
2026-03-24 08:00:00,METAR VVPB 240800Z 03005KT 9999 FEW015 29/22 Q1008 NOSIG
2026-03-24 07:30:00,METAR VVPB 240730Z 04006KT 9999 FEW015 29/22 Q1008 NOSIG
2026-03-24 07:00:00,METAR VVPB 240700Z 02006KT 9999 FEW015 29/22 Q1009 NOSIG
2026-03-24 06:30:00,METAR VVPB 240630Z 36005KT 9999 FEW015 29/22 Q1009 NOSIG
2026-03-24 06:00:00,METAR VVPB 240600Z 01006KT 9999 FEW015 29/22 Q1009 NOSIG
2026-03-24 05:30:00,METAR VVPB 240530Z 35006KT 9000 FEW015 29/22 Q1010 NOSIG
2026-03-24 05:00:00,METAR VVPB 240500Z 35008KT 9000 SCT015 28/22 Q1010 NOSIG
2026-03-24 04:30:00,METAR VVPB 240430Z 36007KT 9000 SCT015 29/22 Q1011 NOSIG
2026-03-24 04:00:00,METAR VVPB 240400Z 35007KT 8000 SCT015 28/22 Q1011 NOSIG
2026-03-24 03:30:00,METAR VVPB 240330Z 31005KT 8000 SCT015 28/21 Q1011 NOSIG
2026-03-24 03:00:00,METAR VVPB 240300Z 31005KT 8000 SCT015 28/21 Q1012 NOSIG
2026-03-24 02:30:00,METAR VVPB 240230Z 33005KT 8000 SCT015 27/21 Q1012 NOSIG
2026-03-24 02:00:00,METAR VVPB 240200Z 33003KT 8000 SCT015 27/21 Q1012 NOSIG
2026-03-24 01:30:00,METAR VVPB 240130Z VRB02KT 8000 SCT015 26/20 Q1012 NOSIG
2026-03-24 01:00:00,METAR VVPB 240100Z VRB02KT 8000 SCT015 24/21 Q1012 NOSIG
2026-03-24 00:30:00,METAR VVPB 240030Z 11003KT 8000 SCT015 23/21 Q1011 NOSIG
2026-03-24 00:00:00,METAR VVPB 240000Z 08003KT 7000 SCT015 22/21 Q1011 NOSIG
2026-03-23 23:30:00,METAR VVPB 232330Z 09002KT 4500 BR SCT013 22/21 Q1011 BECMG TL0040 7000 NSW
2026-03-23 23:00:00,METAR VVPB 232300Z 12003KT 4000 BR FEW013 22/22 Q1010 BECMG TL0040 7000 NSW
2026-03-23 22:30:00,METAR VVPB 232230Z 15002KT 5000 BR FEW013 23/22 Q1010 NOSIG
2026-03-23 22:00:00,METAR VVPB 232200Z 17002KT 5000 BR FEW015 23/22 Q1010 BECMG TL2230 3000 BR
2026-03-23 21:30:00,METAR VVPB 232130Z 22003KT 6000 FEW015 23/22 Q1010 BECMG TL2230 3000 BR
2026-03-23 21:00:00,METAR VVPB 232100Z 25004KT 6000 FEW015 23/22 Q1009 BECMG TL2230 3000 BR
2026-03-23 20:30:00,METAR VVPB 232030Z 29003KT 7000 FEW015 23/22 Q1009 NOSIG
2026-03-23 20:00:00,METAR VVPB 232000Z 28003KT 7000 FEW015 23/22 Q1009 NOSIG
2026-03-23 19:30:00,METAR VVPB 231930Z 27004KT 8000 FEW015 23/22 Q1009 NOSIG
2026-03-23 19:00:00,METAR VVPB 231900Z 28004KT 9999 FEW015 23/21 Q1009 NOSIG
2026-03-23 18:30:00,METAR VVPB 231830Z 28003KT 9999 FEW015 23/22 Q1009 NOSIG
2026-03-23 18:00:00,METAR VVPB 231800Z 26002KT 9999 FEW015 23/22 Q1009 NOSIG
2026-03-23 17:30:00,METAR VVPB 231730Z 26002KT 9999 FEW020 23/21 Q1010 NOSIG
2026-03-23 17:00:00,METAR VVPB 231700Z 22002KT 9999 FEW020 24/22 Q1010 NOSIG
2026-03-23 16:30:00,METAR VVPB 231630Z 23001KT 9999 FEW020 24/21 Q1010 NOSIG
2026-03-23 16:00:00,METAR VVPB 231600Z 18002KT 9999 FEW020 24/21 Q1010 NOSIG
2026-03-23 15:30:00,METAR VVPB 231530Z 19002KT 9999 FEW020 25/21 Q1011 NOSIG
2026-03-21 14:30:00,METAR VVPB 211430Z 14002KT 9999 FEW015 SCT040 24/22 Q1013 NOSIG
2026-03-21 14:00:00,METAR VVPB 211400Z 15003KT 9999 FEW015 SCT040 24/22 Q1013 NOSIG
2026-03-21 13:30:00,METAR VVPB 211330Z 12005KT 9999 FEW015 SCT040 25/22 Q1013 NOSIG
2026-03-21 13:00:00,METAR VVPB 211300Z 11005KT 9999 FEW015 SCT040 25/22 Q1013 NOSIG
2026-03-21 12:30:00,METAR VVPB 211230Z 09006KT 9999 FEW015 SCT040 25/23 Q1013 NOSIG
2026-03-21 12:00:00,METAR VVPB 211200Z 09008KT 9999 FEW017 25/22 Q1012 NOSIG
2026-03-21 11:30:00,METAR VVPB 211130Z 09008KT 9999 FEW017 25/23 Q1012 NOSIG
2026-03-21 11:00:00,METAR VVPB 211100Z 08009KT 9999 FEW017 25/23 Q1012 NOSIG
2026-03-21 10:30:00,METAR VVPB 211030Z 08009KT 9999 FEW017 26/22 Q1011 NOSIG
2026-03-21 10:00:00,METAR VVPB 211000Z 09008KT 9999 FEW017 27/22 Q1011 NOSIG
2026-03-21 09:30:00,METAR VVPB 210930Z 08010KT 9999 FEW017 28/21 Q1011 NOSIG
2026-03-21 09:00:00,METAR VVPB 210900Z 08010KT 9999 FEW017 28/21 Q1011 NOSIG
2026-03-21 08:30:00,METAR VVPB 210830Z 08009KT 9999 FEW017 29/21 Q1011 NOSIG
2026-03-21 08:00:00,METAR VVPB 210800Z 08010KT 9999 FEW017 29/21 Q1012 NOSIG
2026-03-21 07:30:00,METAR VVPB 210730Z 07010KT 9999 FEW017 30/20 Q1012 NOSIG
2026-03-21 07:00:00,METAR VVPB 210700Z 07010KT 9999 BKN017 30/21 Q1012 NOSIG
2026-03-21 06:30:00,METAR VVPB 210630Z 08007KT 9999 BKN017 30/21 Q1013 NOSIG
2026-03-21 06:00:00,METAR VVPB 210600Z 07008KT 9999 BKN017 29/22 Q1013 NOSIG
2026-03-21 05:30:00,METAR VVPB 210530Z 08008KT 9999 BKN017 29/22 Q1014 NOSIG
2026-03-21 04:30:00,METAR VVPB 210430Z 06006KT 9999 BKN017 28/22 Q1015 NOSIG
2026-03-21 04:00:00,METAR VVPB 210400Z 04005KT 9000 BKN015 27/22 Q1015 NOSIG
2026-03-21 03:30:00,METAR VVPB 210330Z 05003KT 9000 BKN013 27/22 Q1016 NOSIG
2026-03-21 03:00:00,METAR VVPB 210300Z 03003KT 9000 BKN013 27/23 Q1016 NOSIG
2026-03-21 02:30:00,METAR VVPB 210230Z 02003KT 8000 BKN013 26/23 Q1016 NOSIG
2026-03-21 02:00:00,METAR VVPB 210200Z 08002KT 8000 BKN013 25/23 Q1015 NOSIG
2026-03-21 01:30:00,METAR VVPB 210130Z 11002KT 6000 BKN015 25/23 Q1015 NOSIG
2026-03-21 01:00:00,METAR VVPB 210100Z 14003KT 6000 BKN015 24/22 Q1015 NOSIG
2026-03-21 00:30:00,METAR VVPB 210030Z 15002KT 5000 BR BKN013 24/22 Q1015 NOSIG
2026-03-21 00:00:00,METAR VVPB 210000Z 15002KT 6000 SCT013 SCT040 24/22 Q1014 NOSIG
2026-03-20 23:30:00,METAR VVPB 202330Z COR 14002KT 7000 SCT013 SCT040 24/22 Q1014 BECMG TL2345 4000 BR
2026-03-20 23:00:00,METAR VVPB 202300Z 12002KT 5000 BR SCT015 SCT040 24/22 Q1013 BECMG TL2330 2500 BR
2026-03-20 22:30:00,METAR VVPB 202230Z 11002KT 5000 BR SCT015 SCT040 24/22 Q1013 BECMG TL2300 2500 BR
2026-03-20 21:30:00,METAR VVPB 202130Z 29001KT 5000 BR SCT015 SCT040 24/23 Q1012 BECMG 2500 BR
2026-03-20 21:00:00,METAR VVPB 202100Z 08001KT 5000 BR SCT015 SCT040 24/23 Q1012 BECMG 2500 BR
2026-03-20 20:30:00,METAR VVPB 202030Z 11002KT 5000 BR SCT015 SCT040 23/22 Q1012 BECMG 2500 BR
2026-03-20 19:30:00,METAR VVPB 201930Z 28002KT 6000 FEW020 SCT060 23/22 Q1012 NOSIG
2026-03-20 18:30:00,METAR VVPB 201830Z 31002KT 6000 FEW020 SCT060 23/22 Q1012 NOSIG
2026-03-20 18:00:00,METAR VVPB 201800Z 30004KT 9999 FEW020 SCT060 23/22 Q1012 NOSIG
2026-03-20 17:30:00,METAR VVPB 201730Z 28002KT 9999 SCT020 SCT050 24/22 Q1012 NOSIG
2026-03-20 16:30:00,METAR VVPB 201630Z 29002KT 9999 SCT020 SCT050 24/22 Q1013 NOSIG
2026-03-20 16:00:00,METAR VVPB 201600Z 29003KT 9999 SCT020 SCT050 24/22 Q1013 NOSIG
2026-03-20 15:30:00,METAR VVPB 201530Z 30001KT 9999 SCT020 SCT050 24/22 Q1013 NOSIG
2026-03-20 15:00:00,METAR VVPB 201500Z 33002KT 9999 SCT020 SCT050 24/22 Q1012 NOSIG
2026-03-20 14:30:00,METAR VVPB 201430Z 29002KT 9999 SCT020 SCT050 25/22 Q1012 NOSIG
2026-03-20 14:00:00,METAR VVPB 201400Z 27003KT 9999 SCT020 SCT050 25/22 Q1012 NOSIG
2026-03-20 13:30:00,METAR VVPB 201330Z 34002KT 9999 SCT017 SCT050 25/22 Q1012 NOSIG
2026-03-20 12:30:00,METAR VVPB 201230Z 03002KT 9999 SCT017 SCT050 25/22 Q1011 NOSIG
2026-03-20 11:30:00,METAR VVPB 201130Z 11004KT 9999 SCT017 SCT050 26/22 Q1010 NOSIG
2026-03-20 10:30:00,METAR VVPB 201030Z 06005KT 9999 SCT015 SCT050 26/22 Q1010 NOSIG
2026-03-20 10:00:00,METAR VVPB 201000Z 09008KT 9999 SCT015 SCT050 26/22 Q1009 NOSIG
2026-03-20 09:30:00,METAR VVPB 200930Z 08007KT 9999 FEW015 27/22 Q1009 NOSIG
2026-03-20 09:00:00,METAR VVPB 200900Z 08009KT 9999 FEW015 28/22 Q1009 NOSIG
2026-03-20 08:30:00,METAR VVPB 200830Z 07009KT 9999 FEW015 29/21 Q1009 NOSIG
2026-03-20 08:00:00,METAR VVPB 200800Z 08009KT 9999 FEW015 29/21 Q1009 NOSIG
2026-03-20 07:30:00,METAR VVPB 200730Z 07008KT 9999 FEW015 29/21 Q1010 NOSIG
2026-03-20 06:30:00,METAR VVPB 200630Z 01004KT 9999 FEW015 29/22 Q1011 NOSIG
2026-03-20 06:00:00,METAR VVPB 200600Z 04005KT 9999 FEW015 29/22 Q1011 NOSIG
2026-03-20 05:30:00,METAR VVPB 200530Z 03005KT 9999 SCT015 29/22 Q1012 NOSIG
2026-03-20 05:00:00,METAR VVPB 200500Z 02004KT 9999 SCT015 29/21 Q1012 NOSIG
2026-03-20 04:30:00,METAR VVPB 200430Z 05005KT 9999 SCT015 28/22 Q1012 NOSIG
2026-03-20 04:00:00,METAR VVPB 200400Z 10005KT 9999 SCT015 28/22 Q1013 NOSIG
2026-03-20 03:30:00,METAR VVPB 200330Z 04005KT 9999 SCT015 28/22 Q1013 NOSIG
2026-03-20 03:00:00,METAR VVPB 200300Z 04002KT 9999 SCT015 27/22 Q1014 NOSIG
2026-03-20 02:30:00,METAR VVPB 200230Z 03004KT 9000 SCT015 27/21 Q1014 NOSIG
2026-03-20 02:00:00,METAR VVPB 200200Z 03002KT 9000 SCT015 26/22 Q1014 NOSIG
2026-03-20 01:30:00,METAR VVPB 200130Z 05002KT 7000 FEW017 26/22 Q1013 NOSIG
2026-03-20 01:00:00,METAR VVPB 200100Z 13002KT 7000 FEW017 25/22 Q1013 NOSIG
2026-03-20 00:30:00,METAR VVPB 200030Z 19002KT 6000 FEW017 24/22 Q1012 NOSIG
2026-03-20 00:00:00,METAR VVPB 200000Z 21002KT 6000 FEW015 SCT060 23/21 Q1012 NOSIG
2026-03-19 23:30:00,METAR VVPB 192330Z 23002KT 6000 FEW015 SCT060 22/21 Q1012 NOSIG
2026-03-19 23:00:00,METAR VVPB 192300Z 22001KT 4000 BR FEW010 22/21 Q1011 BECMG TL0040 6000 NSW
2026-03-19 22:30:00,METAR VVPB 192230Z 23003KT 4000 BR FEW010 22/21 Q1011 NOSIG
2026-03-19 22:00:00,METAR VVPB 192200Z 28004KT 5000 BR FEW010 22/21 Q1010 BECMG TL2245 3000 BR
2026-03-19 21:30:00,METAR VVPB 192130Z 30002KT 6000 FEW015 22/21 Q1010 BECMG 3000 BR
2026-03-19 21:00:00,METAR VVPB 192100Z COR 30003KT 6000 FEW015 22/21 Q1010 BECMG 3000 BR
2026-03-19 20:30:00,METAR VVPB 192030Z 32001KT 8000 FEW015 22/20 Q1010 BECMG 3000 BR
2026-03-19 20:00:00,METAR VVPB 192000Z 25003KT 8000 FEW020 22/21 Q1010 NOSIG
2026-03-19 19:30:00,METAR VVPB 191930Z 26001KT 8000 FEW020 22/21 Q1010 NOSIG
2026-03-19 19:00:00,METAR VVPB 191900Z 30001KT 8000 FEW020 22/21 Q1010 NOSIG
2026-03-19 18:30:00,METAR VVPB 191830Z 30002KT 8000 FEW020 22/21 Q1010 NOSIG
2026-03-19 18:00:00,METAR VVPB 191800Z 21001KT 8000 FEW020 22/21 Q1010 NOSIG
2026-03-19 17:30:00,METAR VVPB 191730Z 21003KT 8000 FEW020 23/21 Q1010 NOSIG
2026-03-19 17:00:00,METAR VVPB 191700Z 22003KT 8000 FEW020 23/21 Q1011 NOSIG
2026-03-19 16:30:00,METAR VVPB 191630Z 14001KT 8000 FEW020 23/22 Q1011 NOSIG
2026-03-19 16:00:00,METAR VVPB 191600Z 32002KT 8000 FEW020 23/22 Q1011 NOSIG
2026-03-19 15:30:00,METAR VVPB 191530Z 32003KT 9999 FEW017 23/22 Q1012 NOSIG
2026-03-19 14:30:00,METAR VVPB 191430Z 20002KT 9999 FEW017 24/22 Q1011 NOSIG
2026-03-19 14:00:00,METAR VVPB 191400Z 17001KT 9999 FEW017 24/22 Q1011 NOSIG
2026-03-19 13:30:00,METAR VVPB 191330Z 11003KT 9999 FEW017 24/22 Q1011 NOSIG
2026-03-19 13:00:00,METAR VVPB 191300Z 10003KT 9999 FEW017 24/22 Q1011 NOSIG
2026-03-19 12:30:00,METAR VVPB 191230Z 09004KT 9999 FEW017 24/21 Q1011 NOSIG
2026-03-19 12:00:00,METAR VVPB 191200Z 08003KT 9999 FEW017 SCT060 25/22 Q1010 NOSIG
2026-03-19 11:30:00,METAR VVPB 191130Z 07003KT 9999 FEW017 SCT060 25/21 Q1010 NOSIG
2026-03-19 11:00:00,METAR VVPB 191100Z 08006KT 9999 FEW017 SCT060 25/21 Q1010 NOSIG
2026-03-19 10:30:00,METAR VVPB 191030Z 07007KT 9999 FEW017 SCT060 26/21 Q1010 NOSIG
2026-03-19 10:00:00,METAR VVPB 191000Z 08010KT 9999 FEW017 SCT060 26/20 Q1010 NOSIG
2026-03-19 09:30:00,METAR VVPB 190930Z 08010KT 9999 FEW017 SCT060 27/19 Q1010 NOSIG
2026-03-19 09:00:00,METAR VVPB 190900Z 08009KT 9999 FEW017 SCT060 27/20 Q1010 NOSIG
2026-03-19 08:30:00,METAR VVPB 190830Z 08010KT 9999 FEW017 SCT060 27/20 Q1010 NOSIG
2026-03-19 08:00:00,METAR VVPB 190800Z 07010KT 9999 FEW017 SCT060 27/20 Q1011 NOSIG
2026-03-19 07:30:00,METAR VVPB 190730Z 07010KT 9999 FEW017 SCT060 28/21 Q1011 NOSIG
2026-03-19 07:00:00,METAR VVPB 190700Z 07007KT 9999 FEW017 SCT060 28/22 Q1011 NOSIG
2026-03-19 06:30:00,METAR VVPB 190630Z 07005KT 9999 FEW020 28/21 Q1012 NOSIG
2026-03-19 06:00:00,METAR VVPB 190600Z 08005KT 9999 FEW020 28/21 Q1012 NOSIG
2026-03-19 05:30:00,METAR VVPB 190530Z 03006KT 9999 FEW020 27/21 Q1013 NOSIG
2026-03-19 05:00:00,METAR VVPB 190500Z 02006KT 9999 FEW020 28/21 Q1014 NOSIG
2026-03-19 04:30:00,METAR VVPB 190430Z 02006KT 9999 FEW020 27/21 Q1014 NOSIG
2026-03-19 04:00:00,METAR VVPB 190400Z 03004KT 9999 FEW020 28/21 Q1015 NOSIG
2026-03-19 03:30:00,METAR VVPB 190330Z 34005KT 9999 FEW015 28/21 Q1015 NOSIG
2026-03-19 03:00:00,METAR VVPB 190300Z 35004KT 9999 FEW015 27/21 Q1015 NOSIG
2026-03-19 02:30:00,METAR VVPB 190230Z 35003KT 9999 FEW015 26/21 Q1015 NOSIG
2026-03-19 02:00:00,METAR VVPB 190200Z 32003KT 9999 FEW015 26/21 Q1015 NOSIG
2026-03-19 01:30:00,METAR VVPB 190130Z 02002KT 8000 FEW015 25/21 Q1015 NOSIG
2026-03-19 01:00:00,METAR VVPB 190100Z 06002KT 8000 FEW015 25/22 Q1015 NOSIG
2026-03-19 00:30:00,METAR VVPB 190030Z VRB02KT 6000 FEW015 23/21 Q1014 NOSIG
2026-03-19 00:00:00,METAR VVPB 190000Z 22002KT 6000 FEW015 23/21 Q1014 NOSIG
2026-03-18 23:30:00,METAR VVPB 182330Z 21003KT 3500 BR FEW015 22/20 Q1013 BECMG TL0030 7000 NSW
2026-03-18 23:00:00,METAR VVPB 182300Z 23003KT 4000 BR FEW015 21/20 Q1013 BECMG TL0030 7000 NSW
2026-03-18 22:30:00,METAR VVPB 182230Z VRB02KT 6000 SCT015 SCT050 21/20 Q1012 BECMG 4000 BR
2026-03-18 22:00:00,METAR VVPB 182200Z 25001KT 6000 SCT015 SCT050 21/20 Q1012 BECMG 4000 BR
2026-03-18 21:30:00,METAR VVPB 182130Z 23002KT 6000 SCT015 SCT050 22/21 Q1012 BECMG 4000 BR
2026-03-18 20:30:00,METAR VVPB 182030Z 23003KT 6000 FEW015 SCT050 22/21 Q1012 BECMG 4000 BR
2026-03-18 20:00:00,METAR VVPB 182000Z 23002KT 6000 FEW015 SCT050 22/21 Q1012 BECMG 4000 BR
2026-03-18 19:30:00,METAR VVPB 181930Z 23002KT 6000 FEW015 SCT050 22/21 Q1012 BECMG 4000 BR
2026-03-18 19:00:00,METAR VVPB 181900Z 25003KT 6000 FEW015 SCT050 22/21 Q1012 BECMG 4000 BR
2026-03-18 18:30:00,METAR VVPB 181830Z 26004KT 6000 FEW015 SCT050 22/21 Q1012 BECMG 4000 BR
2026-03-18 18:00:00,METAR VVPB 181800Z 28003KT 6000 FEW015 SCT050 22/21 Q1013 BECMG 4000 BR
2026-03-18 17:30:00,METAR VVPB 181730Z 29004KT 7000 FEW015 SCT050 22/21 Q1013 BECMG 4000 BR
2026-03-18 16:30:00,METAR VVPB 181630Z 31002KT 7000 FEW017 SCT060 23/21 Q1013 NOSIG
2026-03-18 15:30:00,METAR VVPB 181530Z 22002KT 7000 FEW017 SCT060 23/22 Q1014 NOSIG
2026-03-18 15:00:00,METAR VVPB 181500Z 15002KT 8000 FEW020 SCT060 23/22 Q1014 NOSIG
2026-03-18 14:30:00,METAR VVPB 181430Z 09002KT 9999 FEW020 SCT060 23/22 Q1014 NOSIG
2026-03-18 14:00:00,METAR VVPB 181400Z 06003KT 9999 FEW020 SCT060 24/22 Q1014 NOSIG
2026-03-18 13:30:00,METAR VVPB 181330Z 35001KT 9999 FEW020 SCT060 24/22 Q1013 NOSIG
2026-03-18 13:00:00,METAR VVPB 181300Z VRB02KT 9999 FEW020 SCT060 24/22 Q1013 NOSIG
2026-03-18 12:30:00,METAR VVPB 181230Z 10003KT 9999 FEW020 SCT060 24/22 Q1013 NOSIG
2026-03-18 12:00:00,METAR VVPB 181200Z 09003KT 9999 FEW020 24/22 Q1013 NOSIG
2026-03-18 11:30:00,METAR VVPB 181130Z 11003KT 9999 FEW020 24/22 Q1012 NOSIG
2026-03-18 10:30:00,METAR VVPB 181030Z 07005KT 9999 FEW020 25/21 Q1012 NOSIG
2026-03-18 10:00:00,METAR VVPB 181000Z 07008KT 9999 FEW020 26/21 Q1012 NOSIG
2026-03-18 09:30:00,METAR VVPB 180930Z 07008KT 9999 FEW020 26/21 Q1011 NOSIG
2026-03-18 09:00:00,METAR VVPB 180900Z 06009KT 9999 FEW020 26/21 Q1011 NOSIG
2026-03-18 08:30:00,METAR VVPB 180830Z 06010KT 9999 FEW020 27/20 Q1011 NOSIG
2026-03-18 08:00:00,METAR VVPB 180800Z 06010KT 9999 FEW020 28/20 Q1011 NOSIG
2026-03-18 07:30:00,METAR VVPB 180730Z 07012KT 9999 FEW020 28/20 Q1011 NOSIG
2026-03-18 07:00:00,METAR VVPB 180700Z 07012KT 9999 FEW020 28/20 Q1011 NOSIG
2026-03-18 06:30:00,METAR VVPB 180630Z 04005KT 9999 FEW020 29/21 Q1012 NOSIG
2026-03-18 06:00:00,METAR VVPB 180600Z 08004KT 9999 FEW020 28/21 Q1012 NOSIG
2026-03-18 05:30:00,METAR VVPB 180530Z 08005KT 9999 FEW020 28/20 Q1013 NOSIG
2026-03-18 05:00:00,METAR VVPB 180500Z 09005KT 9999 FEW020 27/20 Q1014 NOSIG
2026-03-18 04:30:00,METAR VVPB 180430Z 06008KT 9999 FEW020 27/20 Q1014 NOSIG
2026-03-18 04:00:00,METAR VVPB 180400Z 07006KT 9999 FEW020 27/20 Q1015 NOSIG
2026-03-18 03:30:00,METAR VVPB 180330Z 02005KT 9999 FEW020 27/20 Q1016 NOSIG
2026-03-18 03:00:00,METAR VVPB 180300Z 06002KT 9999 FEW017 27/20 Q1016 NOSIG
2026-03-18 02:30:00,METAR VVPB 180230Z 34004KT 9999 FEW017 26/20 Q1016 NOSIG
2026-03-18 02:00:00,METAR VVPB 180200Z 32004KT 9999 FEW017 25/19 Q1016 NOSIG
2026-03-18 01:30:00,METAR VVPB 180130Z 10001KT 9999 FEW017 25/20 Q1015 NOSIG
2026-03-18 01:00:00,METAR VVPB 180100Z 28004KT 9999 FEW017 23/20 Q1015 NOSIG
2026-03-18 00:30:00,METAR VVPB 180030Z 25002KT 9999 FEW017 22/20 Q1015 NOSIG
2026-03-18 00:00:00,METAR VVPB 180000Z 27003KT 8000 SCT017 SCT050 21/20 Q1014 NOSIG
2026-03-17 23:30:00,METAR VVPB 172330Z 25004KT 6000 SCT017 SCT050 20/20 Q1014 NOSIG
2026-03-17 23:00:00,METAR VVPB 172300Z 29005KT 6000 BKN017 20/19 Q1013 NOSIG
2026-03-17 22:30:00,METAR VVPB 172230Z 32002KT 8000 BKN017 20/19 Q1013 NOSIG
2026-03-17 22:00:00,METAR VVPB 172200Z 31003KT 8000 BKN017 20/19 Q1012 NOSIG
2026-03-17 21:30:00,METAR VVPB 172130Z 26004KT 7000 BKN017 20/19 Q1012 NOSIG
2026-03-17 21:00:00,METAR VVPB 172100Z 20003KT 6000 BKN017 21/19 Q1012 NOSIG
2026-03-17 20:30:00,METAR VVPB 172030Z 27002KT 6000 SCT017 20/19 Q1012 NOSIG
2026-03-17 20:00:00,METAR VVPB 172000Z 20001KT 6000 SCT017 21/20 Q1012 NOSIG
2026-03-17 19:30:00,METAR VVPB 171930Z 08002KT 6000 SCT017 21/20 Q1012 BECMG TL2000 3500 BR
2026-03-17 19:00:00,METAR VVPB 171900Z 08002KT 6000 SCT017 21/20 Q1012 BECMG TL2000 3500 BR
2026-03-17 18:30:00,METAR VVPB 171830Z 07001KT 7000 SCT017 22/20 Q1013 BECMG TL1900 3500 BR
2026-03-17 18:00:00,METAR VVPB 171800Z 17001KT 7000 SCT017 22/20 Q1013 BECMG TL1900 3500 BR
2026-03-17 17:30:00,METAR VVPB 171730Z 24003KT 9000 SCT017 22/20 Q1013 NOSIG
2026-03-17 17:00:00,METAR VVPB 171700Z 21002KT 9000 SCT017 22/20 Q1014 NOSIG
2026-03-17 16:30:00,METAR VVPB 171630Z 25002KT 9000 SCT017 22/21 Q1014 NOSIG
2026-03-17 16:00:00,METAR VVPB 171600Z 22002KT 9999 SCT017 22/21 Q1014 NOSIG
2026-03-17 15:30:00,METAR VVPB 171530Z 14002KT 9999 FEW017 22/21 Q1014 NOSIG
2026-03-17 15:00:00,METAR VVPB 171500Z 11004KT 9999 FEW017 23/21 Q1014 NOSIG
2026-03-17 14:30:00,METAR VVPB 171430Z 09005KT 9999 FEW017 23/21 Q1014 NOSIG
2026-03-17 14:00:00,METAR VVPB 171400Z 09005KT 9999 FEW020 23/21 Q1014 NOSIG
2026-03-17 13:30:00,METAR VVPB 171330Z 09005KT 9999 FEW020 23/21 Q1014 NOSIG
2026-03-17 12:30:00,METAR VVPB 171230Z 10007KT 9999 FEW020 23/21 Q1013 NOSIG
2026-03-17 12:00:00,METAR VVPB 171200Z 10008KT 9999 FEW020 24/21 Q1013 NOSIG
2026-03-17 11:30:00,METAR VVPB 171130Z 09009KT 9999 FEW020 24/21 Q1012 NOSIG
2026-03-17 11:00:00,METAR VVPB 171100Z 09009KT 9999 FEW020 24/20 Q1012 NOSIG
2026-03-17 10:30:00,METAR VVPB 171030Z 09010KT 9999 FEW020 25/20 Q1012 NOSIG
2026-03-17 10:00:00,METAR VVPB 171000Z 09010KT 9999 FEW020 25/20 Q1012 NOSIG
2026-03-17 09:30:00,METAR VVPB 170930Z 09012KT 9999 FEW020 26/19 Q1011 NOSIG
2026-03-17 09:00:00,METAR VVPB 170900Z 08012KT 9999 FEW020 27/19 Q1011 NOSIG
2026-03-17 08:30:00,METAR VVPB 170830Z 09013KT 9999 FEW020 27/18 Q1011 NOSIG
2026-03-17 08:00:00,METAR VVPB 170800Z 09013KT 9999 FEW020 28/18 Q1012 NOSIG
2026-03-17 07:30:00,METAR VVPB 170730Z 09011KT 9999 FEW020 28/18 Q1012 NOSIG
2026-03-17 07:00:00,METAR VVPB 170700Z 08012KT 9999 FEW020 28/18 Q1012 NOSIG
2026-03-17 06:30:00,METAR VVPB 170630Z 08012KT 9999 FEW020 28/18 Q1013 NOSIG
2026-03-17 06:00:00,METAR VVPB 170600Z 08011KT 9999 FEW020 SCT050 28/17 Q1013 NOSIG
2026-03-17 05:30:00,METAR VVPB 170530Z 07009KT 9999 FEW020 SCT050 29/18 Q1013 NOSIG
2026-03-17 05:00:00,METAR VVPB 170500Z 12006KT 9999 FEW020 SCT050 28/18 Q1014 NOSIG
2026-03-17 04:30:00,METAR VVPB 170430Z 12006KT 9999 FEW020 28/18 Q1014 NOSIG
2026-03-17 04:00:00,METAR VVPB 170400Z 12005KT 9999 FEW020 27/17 Q1015 NOSIG
2026-03-17 03:30:00,METAR VVPB 170330Z 13006KT 9999 FEW020 27/17 Q1015 NOSIG
2026-03-17 03:00:00,METAR VVPB 170300Z 11005KT 9999 FEW020 26/18 Q1015 NOSIG
2026-03-17 02:30:00,METAR VVPB 170230Z 07005KT 9999 FEW020 26/19 Q1015 NOSIG
2026-03-17 02:00:00,METAR VVPB 170200Z VRB02KT 9999 FEW020 25/19 Q1015 NOSIG
2026-03-17 01:30:00,METAR VVPB 170130Z VRB01KT 9999 FEW020 25/19 Q1015 NOSIG
2026-03-17 01:00:00,METAR VVPB 170100Z VRB01KT 9999 FEW020 24/19 Q1015 NOSIG
2026-03-17 00:30:00,METAR VVPB 170030Z 27003KT 9999 FEW015 23/19 Q1015 NOSIG
2026-03-17 00:00:00,METAR VVPB 170000Z 31002KT 8000 FEW015 21/19 Q1015 NOSIG
2026-03-16 23:30:00,METAR VVPB 162330Z 01002KT 5000 BR FEW015 20/18 Q1014 BECMG TL0030 8000 NSW
2026-03-16 23:00:00,METAR VVPB 162300Z 23002KT 8000 FEW015 SCT060 20/18 Q1014 BECMG TL2330 3500 BR
2026-03-16 22:30:00,METAR VVPB 162230Z 23002KT 8000 SCT015 SCT060 20/18 Q1013 BECMG TL2300 4000 BR
2026-03-16 22:00:00,METAR VVPB 162200Z 19002KT 8000 SCT015 SCT060 20/19 Q1013 NOSIG
2026-03-16 21:30:00,METAR VVPB 162130Z 16003KT 8000 SCT015 SCT060 20/19 Q1013 NOSIG
2026-03-16 21:00:00,METAR VVPB 162100Z 19003KT 8000 SCT015 SCT060 20/19 Q1013 NOSIG
2026-03-16 20:30:00,METAR VVPB 162030Z 19003KT 8000 SCT015 SCT060 20/19 Q1013 NOSIG
2026-03-16 20:00:00,METAR VVPB 162000Z 19002KT 8000 SCT015 SCT060 20/19 Q1013 NOSIG
2026-03-16 19:30:00,METAR VVPB 161930Z 17002KT 8000 SCT015 SCT060 20/19 Q1013 NOSIG
2026-03-16 19:00:00,METAR VVPB 161900Z 14002KT 9999 SCT015 SCT060 20/19 Q1013 NOSIG
2026-03-16 18:30:00,METAR VVPB 161830Z 11002KT 9999 SCT015 SCT060 20/19 Q1014 NOSIG
2026-03-16 18:00:00,METAR VVPB 161800Z 11002KT 9999 SCT015 SCT060 21/19 Q1014 NOSIG
2026-03-16 17:30:00,METAR VVPB 161730Z 19001KT 9999 SCT015 SCT060 21/20 Q1015 NOSIG
2026-03-16 17:00:00,METAR VVPB 161700Z 20002KT 9999 SCT015 SCT060 21/20 Q1015 NOSIG
2026-03-16 16:30:00,METAR VVPB 161630Z 20002KT 9999 SCT015 SCT060 22/20 Q1015 NOSIG
2026-03-16 16:00:00,METAR VVPB 161600Z 20001KT 9999 SCT015 SCT060 22/20 Q1015 NOSIG
2026-03-16 15:30:00,METAR VVPB 161530Z 15003KT 9999 SCT015 SCT060 22/20 Q1015 NOSIG
2026-03-16 15:00:00,METAR VVPB 161500Z 11003KT 9999 SCT015 SCT060 22/20 Q1015 NOSIG
2026-03-16 14:30:00,METAR VVPB 161430Z 09004KT 9999 SCT015 SCT060 22/20 Q1015 NOSIG
2026-03-16 14:00:00,METAR VVPB 161400Z 09004KT 9999 SCT020 SCT060 23/20 Q1015 NOSIG
2026-03-16 13:30:00,METAR VVPB 161330Z 09803KT 9999 SCT020 SCT060 23/20 Q1015 NOSIG
2026-03-16 12:30:00,METAR VVPB 161230Z 08004KT 9999 SCT020 SCT060 23/20 Q1015 NOSIG
2026-03-16 12:00:00,METAR VVPB 161200Z 08004KT 9999 SCT020 SCT060 23/20 Q1014 NOSIG
2026-03-16 11:30:00,METAR VVPB 161130Z 09006KT 9999 SCT020 SCT060 23/20 Q1014 NOSIG
2026-03-16 11:00:00,METAR VVPB 161100Z 09007KT 9999 SCT020 SCT060 24/20 Q1014 NOSIG
2026-03-16 10:30:00,METAR VVPB 161030Z COR 09007KT 9999 SCT020 SCT060 25/20 Q1014 NOSIG
2026-03-16 10:00:00,METAR VVPB 161000Z 07009KT 9999 SCT020 SCT060 25/20 Q1013 NOSIG
2026-03-16 09:30:00,METAR VVPB 160930Z 07010KT 9999 SCT020 SCT050 25/19 Q1013 NOSIG
2026-03-16 09:00:00,METAR VVPB 160900Z 08011KT 9999 SCT020 SCT050 25/18 Q1013 NOSIG
2026-03-16 08:30:00,METAR VVPB 160830Z 08011KT 9999 SCT020 SCT050 26/19 Q1013 NOSIG
2026-03-16 08:00:00,METAR VVPB 160800Z 10009KT 9999 SCT020 SCT050 26/20 Q1013 NOSIG
2026-03-16 07:30:00,METAR VVPB 160730Z 09009KT 9999 SCT020 SCT050 26/20 Q1013 NOSIG
2026-03-16 07:00:00,METAR VVPB 160700Z 07008KT 9999 SCT020 SCT050 25/20 Q1014 NOSIG
2026-03-16 06:30:00,METAR VVPB 160630Z 08009KT 9999 -RA SCT020 SCT050 25/19 Q1015 NOSIG
2026-03-16 06:00:00,METAR VVPB 160600Z 08010KT 9999 SCT020 SCT050 26/20 Q1015 NOSIG
2026-03-16 05:30:00,METAR VVPB 160530Z 07010KT 9999 SCT020 SCT050 26/20 Q1016 NOSIG
2026-03-16 05:00:00,METAR VVPB 160500Z 09008KT 9999 SCT020 SCT050 27/19 Q1016 NOSIG
2026-03-16 04:30:00,METAR VVPB 160430Z 09007KT 9999 SCT020 SCT050 26/19 Q1016 NOSIG
2026-03-16 04:00:00,METAR VVPB 160400Z 09008KT 9999 SCT020 SCT050 27/19 Q1017 NOSIG
2026-03-16 03:30:00,METAR VVPB 160330Z 09006KT 9999 SCT020 SCT050 26/19 Q1017 NOSIG
2026-03-16 03:00:00,METAR VVPB 160300Z 14004KT 9000 SCT020 SCT050 26/19 Q1018 NOSIG
2026-03-16 02:30:00,METAR VVPB 160230Z 27002KT 9000 SCT020 SCT050 26/19 Q1018 NOSIG
2026-03-16 02:00:00,METAR VVPB 160200Z 20003KT 9000 SCT020 SCT050 23/19 Q1017 NOSIG
2026-03-16 01:30:00,METAR VVPB 160130Z 14003KT 8000 SCT020 SCT050 22/20 Q1017 NOSIG
2026-03-16 01:00:00,METAR VVPB 160100Z 07003KT 8000 SCT020 SCT050 22/20 Q1017 NOSIG
2026-03-16 00:30:00,METAR VVPB 160030Z VRB01KT 8000 FEW020 SCT060 21/19 Q1017 NOSIG
2026-03-16 00:00:00,METAR VVPB 160000Z 27002KT 8000 SCT020 21/19 Q1016 NOSIG
2026-03-15 23:30:00,METAR VVPB 152330Z 30002KT 8000 SCT020 20/19 Q1016 NOSIG
2026-03-15 23:00:00,METAR VVPB 152300Z 20003KT 9999 FEW020 20/19 Q1015 NOSIG
2026-03-15 22:30:00,METAR VVPB 152230Z 19002KT 9999 FEW020 20/19 Q1015 NOSIG
2026-03-15 22:00:00,METAR VVPB 152200Z 16003KT 9999 FEW020 20/19 Q1015 NOSIG
2026-03-15 21:30:00,METAR VVPB 152130Z 18002KT 9999 FEW020 20/19 Q1015 NOSIG
2026-03-15 21:00:00,METAR VVPB 152100Z 18001KT 9999 FEW020 20/19 Q1015 NOSIG
2026-03-15 20:30:00,METAR VVPB 152030Z COR 20003KT 9999 FEW020 21/19 Q1015 NOSIG
2026-03-15 20:00:00,METAR VVPB 152000Z 18002KT 9999 FEW020 21/19 Q1015 NOSIG
2026-03-15 19:30:00,METAR VVPB 151930Z 15002KT 9999 FEW020 21/20 Q1016 NOSIG
2026-03-15 19:00:00,METAR VVPB 151900Z 15002KT 9999 FEW020 21/20 Q1016 NOSIG
2026-03-15 18:30:00,METAR VVPB 151830Z 18002KT 9999 FEW020 21/20 Q1016 NOSIG
2026-03-15 18:00:00,METAR VVPB 151800Z 20003KT 9999 FEW020 21/20 Q1016 NOSIG
2026-03-15 17:30:00,METAR VVPB 151730Z 20002KT 9999 FEW020 21/20 Q1017 NOSIG
2026-03-15 17:00:00,METAR VVPB 151700Z 14003KT 9999 FEW020 22/20 Q1018 NOSIG
2026-03-15 16:30:00,METAR VVPB 151630Z 08001KT 9999 FEW020 22/20 Q1018 NOSIG
2026-03-15 16:00:00,METAR VVPB 151600Z 11002KT 9999 FEW020 22/20 Q1018 NOSIG
2026-03-15 15:30:00,METAR VVPB 151530Z 09004KT 9999 FEW020 22/20 Q1018 NOSIG
2026-03-15 15:00:00,METAR VVPB 151500Z 09003KT 9999 FEW020 22/20 Q1018 NOSIG
2026-03-15 14:30:00,METAR VVPB 151430Z 08004KT 9999 FEW020 23/20 Q1018 NOSIG
2026-03-15 14:00:00,METAR VVPB 151400Z 08004KT 9999 FEW020 23/20 Q1018 NOSIG
2026-03-15 13:30:00,METAR VVPB 151330Z 08004KT 9999 FEW020 23/19 Q1018 NOSIG
2026-03-15 13:00:00,METAR VVPB 151300Z 09004KT 9999 FEW020 SCT060 23/19 Q1017 NOSIG
2026-03-15 12:30:00,METAR VVPB 151230Z 09007KT 9999 FEW020 SCT060 23/19 Q1017 NOSIG
2026-03-15 12:00:00,METAR VVPB 151200Z 09005KT 9999 FEW020 SCT060 23/19 Q1017 NOSIG
2026-03-15 11:30:00,METAR VVPB 151130Z 07007KT 9999 FEW020 SCT060 24/19 Q1016 NOSIG
2026-03-15 11:00:00,METAR VVPB 151100Z 07008KT 9999 FEW020 SCT060 24/19 Q1016 NOSIG
2026-03-15 10:30:00,METAR VVPB 151030Z 07010KT 9999 FEW020 SCT060 25/19 Q1016 NOSIG
2026-03-15 10:00:00,METAR VVPB 151000Z 08010KT 9999 FEW020 SCT060 25/19 Q1016 NOSIG
2026-03-15 09:30:00,METAR VVPB 150930Z 06011KT 9999 FEW020 SCT060 25/19 Q1016 NOSIG
2026-03-15 09:00:00,METAR VVPB 150900Z 06012KT 9999 FEW020 SCT060 26/19 Q1016 NOSIG
2026-03-15 08:30:00,METAR VVPB 150830Z 06011KT 9999 FEW020 SCT060 25/19 Q1016 NOSIG
2026-03-15 08:00:00,METAR VVPB 150800Z 06012KT 9999 FEW020 SCT060 26/19 Q1016 NOSIG
