Time_recorded,METAR
2026-05-02 15:30:00,METAR WIII 021530Z 18004KT 5000 HZ SCT020 27/25 Q1008 NOSIG
2026-05-02 15:00:00,METAR WIII 021500Z 22002KT 5000 HZ SCT020 27/25 Q1008 NOSIG
2026-05-02 14:30:00,METAR WIII 021430Z 20003KT 6000 BKN020 27/25 Q1009 NOSIG
2026-05-02 14:00:00,METAR WIII 021400Z 17005KT 6000 SCT020 27/25 Q1009 NOSIG
2026-05-02 13:30:00,METAR WIII 021330Z 16005KT 7000 SCT020 28/25 Q1009 NOSIG
2026-05-02 13:00:00,METAR WIII 021300Z 16005KT 150V210 6000 SCT020 28/25 Q1008 NOSIG
2026-05-02 12:30:00,METAR WIII 021230Z 15005KT 110V190 6000 FEW020 28/25 Q1008 NOSIG
2026-05-02 12:00:00,METAR WIII 021200Z VRB01KT 8000 FEW020 29/25 Q1007 NOSIG
2026-05-02 11:30:00,METAR WIII 021130Z VRB02KT 8000 FEW020 29/25 Q1006 NOSIG
2026-05-02 11:00:00,METAR WIII 021100Z VRB02KT 8000 FEW020 29/25 Q1006 NOSIG
2026-05-02 10:30:00,METAR WIII 021030Z 34003KT 9000 FEW020 29/25 Q1007 NOSIG
2026-05-02 10:00:00,METAR WIII 021000Z 35006KT 9000 FEW020 29/25 Q1007 NOSIG
2026-05-02 09:30:00,METAR WIII 020930Z 33006KT 9999 FEW020 30/25 Q1006 NOSIG
2026-05-02 09:00:00,METAR WIII 020900Z 36007KT 9999 FEW018CB FEW020 30/25 Q1006 NOSIG RMK CB TO SE
2026-05-02 08:30:00,METAR WIII 020830Z 36008KT 9000 FEW018CB FEW020 30/25 Q1006 NOSIG RMK CB TO SE
2026-05-02 08:00:00,METAR WIII 020800Z 35008KT 320V030 9000 VCTS FEW018CB FEW020 31/25 Q1 006 NOSIG RMK CB TO SE
2026-05-02 07:30:00,METAR WIII 020730Z 36008KT 330V050 9999 TS FEW018CB FEW020 31/25 Q1006 NOSIG RMK CB TO SE
2026-05-02 07:06:00,SPECI WIII 020706Z 33009KT 310V020 9999 TS FEW018CB FEW020 31/25 Q1006 NOSIG RMK CB TO SE
2026-05-02 07:00:00,METAR WIII 020700Z 33009KT 9999 FEW018CB FEW020 31/25 Q1007 NOSIG RMK CB TO SE
2026-05-02 06:30:00,METAR WIII 020630Z 32011KT 9999 FEW018CB SCT020 31/25 Q1007 NOSIG RMK CB TO N AND SE
2026-05-02 06:00:00,METAR WIII 020600Z 32010KT 9999 FEW018CB SCT020 31/25 Q1007 NOSIG RMK CB TO S
2026-05-02 05:30:00,METAR WIII 020530Z 32010KT 9999 FEW018CB SCT020 31/25 Q1008 NOSIG RMK CB TO S
2026-05-02 05:00:00,METAR WIII 020500Z 30010KT 300V020 9999 VCTS FEW018CB SCT020 31/26 Q1 008 NOSIG RMK CB TO S
2026-05-02 04:30:00,METAR WIII 020430Z 36009KT 8000 -RA FEW018CB SCT020 32/25 Q1009 BECMG AT0500 NSW RMK CB TO S
2026-05-02 04:00:00,METAR WIII 020400Z 32006KT 320V040 9999 SCT020 31/25 Q1009 NOSIG
2026-05-02 03:30:00,METAR WIII 020330Z 34005KT 9000 SCT020 31/24 Q1009 NOSIG
2026-05-02 03:00:00,METAR WIII 020300Z 01004KT 270V020 9000 SCT020 32/24 Q1010 NOSIG
2026-05-02 02:30:00,METAR WIII 020230Z 29004KT 260V320 8000 FEW020 31/23 Q1010 NOSIG
2026-05-02 02:00:00,METAR WIII 020200Z 09004KT 6000 FEW020 31/24 Q1010 NOSIG
2026-05-02 01:30:00,METAR WIII 020130Z 23002KT 5000 HZ FEW020 30/24 Q1010 NOSIG
2026-05-02 01:00:00,METAR WIII 020100Z VRB02KT 5000 HZ FEW020 29/24 Q1009 NOSIG
2026-05-02 00:30:00,METAR WIII 020030Z VRB01KT 4500 HZ FEW020 28/24 Q1009 NOSIG
2026-05-02 00:00:00,METAR WIII 020000Z VRB02KT 5000 HZ FEW020 27/24 Q1008 NOSIG
2026-05-01 23:30:00,METAR WIII 012330Z VRB02KT 6000 FEW020 25/23 Q1008 NOSIG
2026-05-01 23:00:00,METAR WIII 012300Z 16003KT 120V200 5000 HZ FEW020 26/23 Q1008 NOSIG
2026-05-01 22:30:00,METAR WIII 012230Z VRB02KT 5000 HZ FEW020 26/23 Q1007 NOSIG
2026-05-01 22:00:00,METAR WIII 012200Z 19003KT 150V230 5000 HZ FEW020 26/24 Q1007 NOSIG
2026-05-01 21:00:00,METAR WIII 012100Z VRB02KT 5000 HZ SCT020 26/24 Q1007 NOSIG
2026-05-01 20:00:00,METAR WIII 012000Z VRB02KT 5000 HZ SCT020 25/24 Q1007 NOSIG
2026-05-01 19:30:00,METAR WIII 011930Z VRB01KT 5000 HZ FEW020 26/24 Q1008 NOSIG
2026-05-01 19:00:00,METAR WIII 011900Z VRB01KT 5000 HZ FEW020 26/24 Q1008 NOSIG
2026-05-01 18:30:00,METAR WIII 011830Z 23002KT 5000 HZ FEW020 26/24 Q1008 NOSIG
2026-05-01 18:00:00,METAR WIII 011800Z 22003KT 5000 HZ FEW020 26/24 Q1008 NOSIG
2026-05-01 17:30:00,METAR WIII 011730Z 22002KT 5000 HZ SCT020 26/24 Q1009 NOSIG
2026-05-01 17:00:00,METAR WIII 011700Z 25003KT 4500 HZ SCT020 26/24 Q1009 NOSIG
2026-05-01 16:30:00,METAR WIII 011630Z 24002KT 7000 SCT020 26/24 Q1009 NOSIG
2026-05-01 16:00:00,METAR WIII 011600Z VRB02KT 8000 SCT020 27/24 Q1009 NOSIG
2026-05-01 15:30:00,METAR WIII 011530Z VRB02KT 8000 SCT020 26/23 Q1009 NOSIG
2026-05-01 15:00:00,METAR WIII 011500Z 21003KT 8000 SCT020 27/23 Q1009 NOSIG
2026-05-01 14:30:00,METAR WIII 011430Z 22003KT 8000 SCT020 26/23 Q1009 NOSIG
2026-05-01 14:00:00,METAR WIII 011400Z 21003KT 170V240 8000 SCT020 27/23 Q1009 NOSIG
2026-05-01 13:30:00,METAR WIII 011330Z 15004KT 090V180 8000 SCT020 27/23 Q1008 NOSIG
2026-05-01 13:00:00,METAR WIII 011300Z 17004KT 120V190 8000 SCT020 27/23 Q1008 NOSIG
2026-05-01 12:30:00,METAR WIII 011230Z 18005KT 9000 SCT020 27/23 Q1008 NOSIG
2026-05-01 12:00:00,METAR WIII 011200Z 20005KT 150V230 9000 SCT020 27/24 Q1008 NOSIG
2026-05-01 11:30:00,METAR WIII 011130Z 19004KT 130V250 8000 SCT020 27/23 Q1008 NOSIG
2026-05-01 11:00:00,METAR WIII 011100Z 19005KT 160V230 8000 SCT020 28/23 Q1008 NOSIG
2026-05-01 10:30:00,METAR WIII 011030Z 18005KT 140V210 8000 FEW018CB SCT020 28/23 Q1008 NOSIG RMK CB TO W
2026-05-01 10:00:00,METAR WIII 011000Z 16003KT 9000 FEW018CB SCT020 29/24 Q1008 TEMPO FM1010 TS RMK CB TO SE AND SW
2026-05-01 09:30:00,METAR WIII 010930Z 09003KT 9999 FEW018CB SCT020 30/24 Q1007 NOSIG RMK CB TO SW
2026-05-01 09:00:00,METAR WIII 010900Z 04007KT 9999 FEW018CB SCT020 30/24 Q1007 NOSIG RMK CB TO S
2026-05-01 08:30:00,METAR WIII 010830Z 02010KT 9999 FEW018CB SCT020 31/24 Q1006 NOSIG RMK CB TO S
2026-05-01 08:00:00,METAR WIII 010800Z 02011KT 9999 FEW018CB FEW020 32/24 Q1006 NOSIG RMK CB TO S
2026-05-01 07:30:00,METAR WIII 010730Z 01011KT 9999 FEW018CB FEW020 32/25 Q1006 NOSIG RMK CB TO S
2026-05-01 07:00:00,METAR WIII 010700Z 36011KT 9999 FEW020 32/25 Q1007 NOSIG
2026-05-01 06:30:00,METAR WIII 010630Z 01011KT 9999 FEW020 32/24 Q1007 NOSIG
2026-05-01 06:00:00,METAR WIII 010600Z 35008KT 310V040 9999 FEW020 33/25 Q1008 NOSIG
2026-05-01 05:30:00,METAR WIII 010530Z 35008KT 310V040 9999 FEW020 33/25 Q1008 NOSIG
2026-05-01 05:00:00,METAR WIII 010500Z 35006KT 270V050 9999 FEW020 33/24 Q1009 NOSIG
2026-05-01 04:30:00,METAR WIII 010430Z VRB03KT 9999 FEW020 33/23 Q1009 NOSIG
2026-05-01 04:00:00,METAR WIII 010400Z 22003KT 9999 FEW020 32/23 Q1010 NOSIG
2026-05-01 03:30:00,METAR WIII 010330Z 08003KT 9999 FEW020 33/23 Q1010 NOSIG
2026-05-01 03:00:00,METAR WIII 010300Z VRB02KT 9999 FEW020 30/23 Q1011 NOSIG
2026-05-01 02:30:00,METAR WIII 010230Z VRB03KT 9999 FEW020 30/24 Q1011 NOSIG
2026-05-01 02:00:00,METAR WIII 010200Z 14003KT 9000 FEW020 29/23 Q1011 NOSIG
2026-05-01 01:30:00,METAR WIII 010130Z 14004KT 9000 FEW020 29/24 Q1011 NOSIG
2026-05-01 01:00:00,METAR WIII 010100Z 14004KT 090V150 8000 FEW020 28/25 Q1011 NOSIG
2026-05-01 00:30:00,METAR WIII 010030Z 14006KT 130V200 4500 BR FEW020 26/25 Q1010 NOSIG
2026-05-01 00:00:00,METAR WIII 010000Z 12004KT 3500 BR FEW020 26/25 Q1010 NOSIG
2026-04-30 23:30:00,METAR WIII 302330Z 12003KT 3000 BR FEW020 25/24 Q1009 NOSIG
2026-04-30 23:00:00,METAR WIII 302300Z 16004KT 130V210 3000 BR FEW020 25/24 Q1009 NOSIG
2026-04-30 22:30:00,METAR WIII 302230Z 16004KT 5000 BR FEW020 25/24 Q1009 NOSIG
2026-04-30 22:00:00,METAR WIII 302200Z 18003KT 4200 BR FEW020 25/24 Q1008 NOSIG
2026-04-30 21:30:00,METAR WIII 302130Z 20004KT 4500 BR FEW020 25/24 Q1008 NOSIG
2026-04-30 21:00:00,METAR WIII 302100Z 18004KT 4000 BR SCT020 25/25 Q1008 NOSIG
2026-04-30 20:00:00,METAR WIII 302000Z 20004KT 5000 BR FEW020 26/24 Q1009 NOSIG
2026-04-30 19:30:00,METAR WIII 301930Z 20003KT 6000 SCT020 26/24 Q1009 NOSIG
2026-04-30 19:00:00,METAR WIII 301900Z 17006KT 5000 BR SCT020 26/25 Q1009 NOSIG
2026-04-30 18:30:00,METAR WIII 301830Z 18003KT 5000 BR FEW020 26/24 Q1010 NOSIG
2026-04-30 18:00:00,METAR WIII 301800Z 16003KT 5000 BR FEW020 26/24 Q1010 NOSIG
2026-04-30 17:30:00,METAR WIII 301730Z 15002KT 5000 BR FEW020 26/25 Q1011 NOSIG
2026-04-30 17:00:00,METAR WIII 301700Z COR 15002KT 5000 BR FEW020 25/24 Q1011 NOSIG
2026-04-30 16:30:00,METAR WIII 301630Z 05003KT 6000 SCT020 26/25 Q1012 NOSIG
2026-04-30 16:00:00,METAR WIII 301600Z 14005KT 6000 SCT020 25/24 Q1012 NOSIG
2026-04-30 15:00:00,METAR WIII 301500Z 16004KT 7000 SCT020 25/24 Q1012 NOSIG
2026-04-30 14:30:00,METAR WIII 301430Z 16005KT 7000 SCT020 25/24 Q1012 NOSIG
2026-04-30 14:00:00,METAR WIII 301400Z 14005KT 6000 FEW017CB SCT020 25/24 Q1012 RERA NOSIG RMK CB TO E
2026-04-30 13:30:00,METAR WIII 301330Z 14005KT 6000 -RA FEW018CB SCT020 25/24 Q1012 NOSIG RMK CB TO E
2026-04-30 13:00:00,METAR WIII 301300Z 18005KT 5000 -RA FEW017CB SCT020 25/24 Q1011 BECMG FM1340 7000 NSW RMK CB TO E
2026-04-30 12:30:00,METAR WIII 301230Z 13005KT 4000 -RA FEW016CB SCT018 25/24 Q1011 R ETS NOSIG RMK CB TO N
2026-04-30 12:00:00,METAR WIII 301200Z 11009KT 1500 TSRA FEW016CB BKN018 25/24 Q1010 TEMP O FM1225 3000 -TSRA RMK CB ALL RWY
2026-04-30 11:38:00,SPECI WIII 301138Z 14008KT 1000 +TSRA FEW016CB OVC018 26/25 Q1010 NOSIG RMK CB ALL RWY
2026-04-30 11:30:00,METAR WIII 301130Z 16012KT 140V200 3000 RA FEW016CB BKN018 26/25 Q1010 TEMPO FM1155 2000 +RA RMK CB ALL RWY
2026-04-30 11:24:00,SPECI WIII 301124Z COR 16013KT 5000 -RA FEW016CB BKN020 26/24 Q1010 TEMPO FM1140 4000 RA RMK CB ALL RWY
2026-04-30 11:00:00,METAR WIII 301100Z 19009KT 8000 FEW018CB SCT020 28/25 Q1009 NOSIG RMK CB TO S
2026-04-30 10:30:00,METAR WIII 301030Z VRB04KT 7000 VCTS FEW018CB SCT020 29/25 Q1009 TEMP O FM1045 5000 -RA RMK CB TO S
2026-04-30 10:00:00,METAR WIII 301000Z 33006KT 9999 FEW018CB SCT020 30/25 Q1008 NOSIG RMK CB TO S
2026-04-30 09:30:00,METAR WIII 300930Z 34006KT 9999 FEW018CB SCT020 30/25 Q1007 NOSIG RMK CB TO S
2026-04-30 09:00:00,METAR WIII 300900Z 33009KT 9999 FEW018CB SCT020 31/26 Q1007 NOSIG RMK CB TO S
2026-04-30 08:30:00,METAR WIII 300830Z 35008KT 9000 FEW018CB SCT020 31/25 Q1007 NOSIG RMK CB TO SE
2026-04-30 08:00:00,METAR WIII 300800Z 31007KT 5000 HZ FEW016CB SCT020 30/26 Q1007 RERA NOSIG RMK CB TO SE
2026-04-30 07:44:00,SPECI WIII 300744Z 30006KT 230V320 3000 RA FEW016CB SCT020 29/26 Q1007 NOSIG RMK CB IN CLMB OUT
2026-04-30 07:30:00,METAR WIII 300730Z 32017G31KT 1000 +RA FEW016CB BKN020 29/26 Q1007 WS ALL RWY TEMPO TL0820 2000 RA RMK CB IN CLMB OUT
2026-04-30 07:00:00,METAR WIII 300700Z 22008KT 5000 -RA FEW018CB BKN020 29/26 Q1007 TEMPO TL0740 4000 RA RMK CB IN APCH
2026-04-30 06:30:00,METAR WIII 300630Z 31008KT 250V350 9000 VCTS FEW018CB BKN020 30/26 Q1008 RERA NOSIG RMK CB IN APCH
2026-04-30 06:00:00,METAR WIII 300600Z 05007KT 4800 RA FEW018CB BKN020 30/26 Q1008 TEMPO FM0615 3000 TSRA RMK CB TO W
2026-04-30 05:37:00,SPECI WIII 300537Z COR 05006KT 6000 -RA FEW018CB BKN020 31/25 Q1008 TEMPO TL0615 4000 RA RMK CB TO W
2026-04-30 05:30:00,METAR WIII 300530Z 09005KT 9000 FEW018CB BKN020 32/25 Q1008 TEMPO FM0 540 4000 -RA RMK CB TO SW
2026-04-30 05:00:00,METAR WIII 300500Z 17008KT 9000 FEW018CB SCT020 32/25 Q1009 NOSIG RMK CB TO E
2026-04-30 04:30:00,METAR WIII 300430Z 05008KT 350V100 8000 FEW018CB SCT020 33/26 Q1009 NOSIG RMK CB TO S
2026-04-30 04:00:00,METAR WIII 300400Z 01006KT 340V050 9000 SCT020 32/25 Q1010 NOSIG
2026-04-30 03:30:00,METAR WIII 300330Z 06005KT 9000 SCT020 32/25 Q1010 NOSIG
2026-04-30 03:00:00,METAR WIII 300300Z 05006KT 8000 SCT020 32/25 Q1010 NOSIG
2026-04-30 02:30:00,METAR WIII 300230Z 06005KT 7000 SCT021 31/26 Q1011 NOSIG
2026-04-30 02:17:00,SPECI WIII 300217Z 08005KT 7000 SCT021 31/26 Q1010 NOSIG
2026-04-30 02:00:00,METAR WIII 300200Z 03004KT 4800 HZ SCT020 30/26 Q1010 NOSIG
2026-04-30 01:30:00,METAR WIII 300130Z 12004KT 4000 HZ FEW020 30/26 Q1010 NOSIG
2026-04-30 01:00:00,METAR WIII 300100Z 09003KT 2500 HZ FEW020 29/26 Q1010 NOSIG
2026-04-30 00:30:00,METAR WIII 300030Z 11003KT 4000 HZ FEW018 29/25 Q1009 NOSIG
2026-04-29 23:30:00,METAR WIII 292330Z VRB02KT 3000 BR SCT020 27/25 Q1009 NOSIG
2026-04-29 23:00:00,METAR WIII 292300Z VRB02KT 4000 BR SCT020 27/25 Q1008 NOSIG
2026-04-29 22:30:00,METAR WIII 292230Z VRB02KT 4000 BR SCT020 27/25 Q1008 NOSIG
2026-04-29 22:00:00,METAR WIII 292200Z VRB02KT 4000 BR SCT020 27/25 Q1008 NOSIG
2026-04-29 21:30:00,METAR WIII 292130Z VRB02KT 3000 BR SCT020 27/25 Q1008 NOSIG
2026-04-29 21:00:00,METAR WIII 292100Z VRB02KT 3000 BR SCT020 27/25 Q1008 NOSIG
2026-04-29 20:30:00,METAR WIII 292030Z 25002KT 3000 BR SCT020 27/25 Q1008 NOSIG
2026-04-29 20:00:00,METAR WIII 292000Z 22004KT 190V250 3000 BR SCT020 26/25 Q1008 NOSIG
2026-04-29 19:30:00,METAR WIII 291930Z VRB02KT 3000 BR SCT020 27/25 Q1008 NOSIG
2026-04-29 19:00:00,METAR WIII 291900Z 25004KT 3000 BR SCT020 26/25 Q1008 NOSIG
2026-04-29 18:30:00,METAR WIII 291830Z 23002KT 4000 BR FEW020 26/25 Q1008 NOSIG
2026-04-29 18:14:00,SPECI WIII 291814Z 23002KT 4000 BR SCT020 26/25 Q1009 NOSIG
2026-04-29 18:00:00,METAR WIII 291800Z 21005KT 3000 RA BR FEW016CB BKN020 27/25 Q1009 TEM PO FM1805 4000 -RA RMK CB ALL RWY
2026-04-29 17:30:00,METAR WIII 291730Z 26006KT 4000 -RA FEW016CB BKN020 27/25 Q1009 RESHR A NOSIG RMK CB TO W
2026-04-29 17:00:00,METAR WIII 291700Z 23006KT 3000 SHRA FEW016CB BKN020 27/25 Q1010 TEMPO FM1705 TSRA RMK CB ALL RWY
2026-04-29 16:30:00,METAR WIII 291630Z 25004KT 5000 HZ BKN020 27/25 Q1010 NOSIG
2026-04-29 16:00:00,METAR WIII 291600Z 22003KT 5000 HZ SCT020 28/25 Q1010 NOSIG
2026-04-29 15:30:00,METAR WIII 291530Z 22003KT 5000 HZ SCT020 28/25 Q1010 NOSIG
2026-04-29 15:00:00,METAR WIII 291500Z VRB02KT 5000 HZ SCT020 28/25 Q1010 NOSIG
2026-04-29 14:30:00,METAR WIII 291430Z 21003KT 5000 HZ SCT020 28/25 Q1010 NOSIG
2026-04-29 14:00:00,METAR WIII 291400Z 23003KT 5000 HZ SCT020 28/25 Q1010 NOSIG
2026-04-29 13:30:00,METAR WIII 291330Z 23005KT 5000 HZ SCT020 28/25 Q1010 NOSIG
2026-04-29 13:00:00,METAR WIII 291300Z 05003KT 6000 SCT020 28/25 Q1009 NOSIG
2026-04-29 12:30:00,METAR WIII 291230Z 04005KT 8000 SCT020 29/25 Q1008 NOSIG
2026-04-29 12:00:00,METAR WIII 291200Z 03004KT 8000 SCT020 29/25 Q1008 NOSIG
2026-04-29 11:30:00,METAR WIII 291130Z 05006KT 8000 SCT020 29/25 Q1007 NOSIG
2026-04-29 11:00:00,METAR WIII 291100Z 03006KT 7000 SCT020 29/25 Q1007 NOSIG
2026-04-29 10:30:00,METAR WIII 291030Z 02006KT 7000 SCT020 30/25 Q1007 NOSIG
2026-04-29 10:00:00,METAR WIII 291000Z 03008KT 7000 SCT020 30/25 Q1006 NOSIG
2026-04-29 09:30:00,METAR WIII 290930Z 03007KT 7000 SCT020 30/26 Q1006 NOSIG
2026-04-29 09:00:00,METAR WIII 290900Z 03007KT 7000 SCT020 31/26 Q1006 NOSIG
2026-04-29 08:30:00,METAR WIII 290830Z 03008KT 7000 SCT020 30/25 Q1006 NOSIG
2026-04-29 08:00:00,METAR WIII 290800Z 03010KT 8000 FEW020 31/25 Q1006 NOSIG
2026-04-29 07:30:00,METAR WIII 290730Z 02011KT 8000 FEW018CB FEW020 32/25 Q1006 NOSIG RMK CB TO SW
2026-04-29 07:00:00,METAR WIII 290700Z 02013KT 9999 FEW018CB FEW020 32/25 Q1006 NOSIG RMK CB TO SW
2026-04-29 06:30:00,METAR WIII 290630Z 04012KT 9999 FEW018CB FEW020 32/26 Q1007 NOSIG RMK CB TO SW
2026-04-29 06:00:00,METAR WIII 290600Z 05012KT 9999 FEW018CB FEW020 33/26 Q1007 NOSIG RMK CB TO SW
2026-04-29 05:30:00,METAR WIII 290530Z 04011KT 010V080 9000 VCTS FEW018CB FEW020 33/26 Q1 007 NOSIG RMK CB TO SW
2026-04-29 05:00:00,METAR WIII 290500Z 05011KT 9000 FEW020 33/25 Q1008 NOSIG
2026-04-29 04:30:00,METAR WIII 290430Z 05011KT 360V070 8000 FEW020 33/25 Q1008 NOSIG
2026-04-29 04:00:00,METAR WIII 290400Z 05009KT 8000 FEW020 33/26 Q1009 NOSIG
2026-04-29 03:30:00,METAR WIII 290330Z 05008KT 7000 FEW020 32/26 Q1009 NOSIG
2026-04-29 03:00:00,METAR WIII 290300Z 05008KT 8000 FEW020 32/26 Q1009 NOSIG
2026-04-29 02:30:00,METAR WIII 290230Z 08007KT 8000 FEW020 31/25 Q1010 NOSIG
2026-04-29 02:00:00,METAR WIII 290200Z 10008KT 7000 FEW020 31/25 Q1009 NOSIG
2026-04-29 01:30:00,METAR WIII 290130Z 10008KT 5000 HZ FEW020 30/25 Q1009 NOSIG
2026-04-29 01:00:00,METAR WIII 290100Z 12006KT 4000 HZ FEW020 29/25 Q1009 NOSIG
2026-04-29 00:30:00,METAR WIII 290030Z 15005KT 2400 HZ FEW020 28/25 Q1009 NOSIG
2026-04-29 00:00:00,METAR WIII 290000Z 15003KT 100V200 2400 HZ FEW020 28/25 Q1008 NOSIG
2026-04-28 23:30:00,METAR WIII 282330Z 16003KT 120V190 2100 BR FEW020 27/25 Q1008 NOSIG
2026-04-28 23:00:00,METAR WIII 282300Z 17002KT 2200 BR FEW020 27/25 Q1008 NOSIG
2026-04-28 22:30:00,METAR WIII 282230Z 21002KT 3300 BR FEW020 27/25 Q1007 NOSIG
2026-04-28 22:00:00,METAR WIII 282200Z 15002KT 4100 BR FEW020 27/25 Q1007 NOSIG
2026-04-28 21:30:00,METAR WIII 282130Z 17001KT 3400 HZ FEW020 26/25 Q1007 NOSIG
2026-04-28 21:00:00,METAR WIII 282100Z 27001KT 3100 HZ FEW002 26/25 Q1007 NOSIG
2026-04-28 20:30:00,METAR WIII 282030Z 22002KT 3700 BR FEW020 26/25 Q1007 NOSIG
2026-04-28 20:00:00,METAR WIII 282000Z 22001KT 3600 HZ FEW020 27/25 Q1007 NOSIG
2026-04-28 19:30:00,METAR WIII 281930Z 24002KT 4500 HZ FEW020 27/25 Q1007 NOSIG
2026-04-28 19:00:00,METAR WIII 281900Z 19003KT 150V230 4700 HZ FEW020 27/25 Q1008 NOSIG
2026-04-28 18:30:00,METAR WIII 281830Z 18005KT 5000 HZ FEW020 27/25 Q1008 NOSIG
2026-04-28 18:00:00,METAR WIII 281800Z 19004KT 5000 HZ FEW020 27/25 Q1008 NOSIG
2026-04-28 17:30:00,METAR WIII 281730Z 18005KT 5000 HZ FEW020 27/26 Q1008 NOSIG
2026-04-28 17:00:00,METAR WIII 281700Z 18005KT 4500 HZ FEW020 28/26 Q1009 NOSIG
2026-04-28 16:30:00,METAR WIII 281630Z 17006KT 6000 FEW020 28/26 Q1009 NOSIG
2026-04-28 16:00:00,METAR WIII 281600Z 16007KT 6000 SCT020 28/26 Q1009 NOSIG
2026-04-28 15:30:00,METAR WIII 281530Z 16006KT 130V190 6000 SCT020 28/26 Q1009 NOSIG
2026-04-28 15:00:00,METAR WIII 281500Z 16006KT 6000 SCT021 28/26 Q1009 NOSIG
2026-04-28 14:30:00,METAR WIII 281430Z 09004KT 8000 BKN021 29/26 Q1009 NOSIG
2026-04-28 14:00:00,METAR WIII 281400Z 06002KT 9999 SCT020 28/26 Q1008 NOSIG
2026-04-28 13:30:00,METAR WIII 281330Z 03003KT 9999 FEW018CB SCT020 29/26 Q1008 NOSIG RMK CB TO S
2026-04-28 13:00:00,METAR WIII 281300Z 34002KT 9999 FEW018CB BKN020 28/25 Q1008 NOSIG RMK CB TO S
2026-04-28 12:30:00,METAR WIII 281230Z 02005KT 350V030 8000 VCTS FEW018CB SCT020 28/25 Q1 007 NOSIG RMK CB TO S
2026-04-28 12:00:00,METAR WIII 281200Z 04005KT 8000 VCTS FEW018CB SCT020 28/25 Q1007 NOSIG RMK CB TO S
2026-04-28 11:30:00,METAR WIII 281130Z 05006KT 8000 FEW018CB SCT020 29/25 Q1007 NOSIG RMK CB TO S
2026-04-28 11:00:00,METAR WIII 281100Z 03006KT 360V060 8000 VCTS FEW018CB SCT020 29/26 Q1006 NOSIG RMK CB TO SE
2026-04-28 10:30:00,METAR WIII 281030Z 05010KT 9000 VCTS FEW018CB SCT020 29/26 Q1007 NOSI G RMK CB TO SE
2026-04-28 09:30:00,METAR WIII 280930Z 02008KT 9999 FEW020 30/25 Q1006 NOSIG
2026-04-28 09:00:00,METAR WIII 280900Z 03008KT 350V050 9999 FEW020 31/26 Q1005 NOSIG
2026-04-28 08:30:00,METAR WIII 280830Z 03007KT 360V040 9999 FEW020 31/26 Q1005 NOSIG
2026-04-28 08:00:00,METAR WIII 280800Z 02007KT 340V040 9999 FEW020 31/26 Q1005 NOSIG
2026-04-28 07:30:00,METAR WIII 280730Z 03007KT 350V020 9999 FEW020 31/25 Q1006 NOSIG
2026-04-28 07:00:00,METAR WIII 280700Z 02007KT 360V060 9999 FEW020 32/25 Q1006 NOSIG
2026-04-28 06:30:00,METAR WIII 280630Z 04008KT 360V070 9999 FEW020 32/25 Q1006 NOSIG
2026-04-28 06:00:00,METAR WIII 280600Z 03008KT 9999 FEW020 32/25 Q1007 NOSIG
2026-04-28 05:30:00,METAR WIII 280530Z 02006KT 340V050 9999 FEW020 31/24 Q1008 NOSIG
2026-04-28 05:00:00,METAR WIII 280500Z 03006KT 350V060 9999 SCT020 32/25 Q1008 NOSIG
2026-04-28 04:30:00,METAR WIII 280430Z 03006KT 340V100 9000 SCT020 31/25 Q1009 NOSIG
2026-04-28 04:00:00,METAR WIII 280400Z VRB03KT 9000 SCT020 30/25 Q1009 NOSIG
2026-04-28 03:30:00,METAR WIII 280330Z 04004KT 340V080 6000 SCT020 30/25 Q1010 NOSIG
2026-04-28 03:00:00,METAR WIII 280300Z 01002KT 280V070 7000 SCT020 29/25 Q1010 NOSIG
2026-04-28 02:30:00,METAR WIII 280230Z VRB02KT 5000 HZ FEW020 28/25 Q1010 NOSIG
2026-04-28 02:00:00,METAR WIII 280200Z 07004KT 050V110 3000 BR FEW020 26/25 Q1010 NOSIG
2026-04-28 01:30:00,METAR WIII 280130Z 14004KT 3000 -RA BR BKN020 26/25 Q1010 NOSIG
2026-04-28 01:00:00,METAR WIII 280100Z VRB02KT 3500 -RA BR FEW018CB BKN020 26/25 Q1010 NO SIG RMK CB TO SE
2026-04-28 00:30:00,METAR WIII 280030Z 33004KT 300V030 5000 -RA SCT018CB BKN020 25/25 Q1010 BECMG FM0115 7000 NSW RMK CB ALL RWY
2026-04-28 00:18:00,SPECI WIII 280018Z 36005KT 320V040 5000 -TSRA BR SCT016CB BKN018 25/25 Q1009 NOSIG RMK CB ALL RWY
2026-04-28 00:00:00,METAR WIII 280000Z 34009KT 300V020 1500 +TSRA SCT016CB BKN018 25/25 Q 1010 TEMPO TL0115 4000 -TSRA RMK CB ALL RWY
2026-04-27 23:46:00,SPECI WIII 272346Z 36010KT 300V050 0200 +TSRA SCT016CB BKN018 25/24 Q1010 NOSIG RMK CB ALL RWY
2026-04-27 23:36:00,SPECI WIII 272336Z COR 02006KT 340V070 0500 TSRA SCT015CB BKN017 26/25 Q1010 TEMPO TL0024 0600 RMK CB ALL RWY
2026-04-27 23:30:00,METAR WIII 272330Z 30005KT 260V350 1000 +TSRA SCT017CB BKN018 26/25 Q1010 TEMPO TL0015 0600 RMK CB ALL RWY
2026-04-27 23:17:00,SPECI WIII 272317Z 29006KT 260V340 4500 -TSRA SCT018CB BKN020 26/25 Q1009 NOSIG RMK CB ALL RWY
2026-04-27 23:00:00,METAR WIII 272300Z 27008KT 280V010 7000 VCTS FEW018CB BKN020 26/25 Q1009 TEMPO FM2310 3000 TSRA RMK CB TO E AND W
2026-04-27 22:30:00,METAR WIII 272230Z 31008KT 270V330 8000 FEW018CB BKN020 26/24 Q1008 NOSIG RMK CB TO E AND W
2026-04-27 22:00:00,METAR WIII 272200Z VRB02KT 7000 FEW018CB SCT020 26/25 Q1008 NOSIG RMK CB TO E AND W
2026-04-27 21:30:00,METAR WIII 272130Z 02003KT 6000 FEW018CB SCT020 26/25 Q1007 NOSIG RMK CB TO E AND W
2026-04-27 21:00:00,METAR WIII 272100Z VRB02KT 7000 FEW018CB SCT020 26/24 Q1007 NOSIG RMK CB TO N
2026-04-27 20:30:00,METAR WIII 272030Z 08004KT 6000 TS FEW018CB SCT020 26/25 Q1007 RE RA NOSIG RMK CB TO NE AND NW
2026-04-27 20:00:00,METAR WIII 272000Z 07005KT 4000 -RA BR FEW018CB SCT020 25/24 Q1007 NO SIG RMK CB TO NE
2026-04-27 19:30:00,METAR WIII 271930Z 08005KT 050V120 4000 -TSRA SCT018CB BKN020 25/24 Q1007 TEMPO TL1945 TS RMK CB ALL RWY
2026-04-27 19:00:00,METAR WIII 271900Z 08005KT 4000 -TSRA SCT018CB BKN020 25/24 Q1008 TEMPO TL1945 TS RMK CB ALL RWY
2026-04-27 18:30:00,METAR WIII 271830Z 09005KT 050V120 2500 TSRA FEW019CB SCT020 26/25 Q1 008 TEMPO TL1915 TS RMK CB ALL RWY
2026-04-27 18:00:00,METAR WIII 271800Z VRB02KT 2700 -TSRA FEW019CB SCT020 29/26 Q1008 TEMPO TL1900 TSRA RMK CB TO E
2026-04-27 17:30:00,METAR WIII 271730Z VRB01KT 3000 TS FEW019CB SCT020 29/26 Q1008 TEMPO FM1735 TSRA RMK CB TO E
2026-04-27 17:00:00,METAR WIII 271700Z VRB02KT 3000 TS FEW019CB SCT020 30/25 Q1009 TEMPO FM1705 TSRA RMK CB TO E
2026-04-27 16:48:00,SPECI WIII 271648Z VRB02KT 3500 TS FEW019CB SCT020 29/25 Q1009 NOSIG RMK CB TO E
2026-04-27 16:30:00,METAR WIII 271630Z VRB01KT 3500 HZ FEW019CB SCT020 30/25 Q1009 NOSIG RMK CB TO E
2026-04-27 16:00:00,METAR WIII 271600Z VRB01KT 5000 HZ FEW020 30/25 Q1009 NOSIG
2026-04-27 15:30:00,METAR WIII 271530Z 30002KT 5000 HZ FEW020 30/25 Q1009 NOSIG
2026-04-27 15:00:00,METAR WIII 271500Z VRB02KT 5000 HZ FEW020 29/25 Q1009 NOSIG
2026-04-27 14:30:00,METAR WIII 271430Z VRB02KT 7000 FEW020 29/25 Q1009 NOSIG
2026-04-27 14:00:00,METAR WIII 271400Z 04002KT 7000 FEW020 29/25 Q1009 NOSIG
2026-04-27 13:30:00,METAR WIII 271330Z VRB01KT 7000 FEW020 29/25 Q1008 NOSIG
2026-04-27 13:00:00,METAR WIII 271300Z 33003KT 9000 FEW020 30/25 Q1008 NOSIG
2026-04-27 12:30:00,METAR WIII 271230Z 33003KT 9000 FEW020 30/25 Q1007 NOSIG
2026-04-27 12:00:00,METAR WIII 271200Z 01004KT 9000 FEW020 30/25 Q1007 NOSIG
2026-04-27 11:30:00,METAR WIII 271130Z 36003KT 9000 FEW020 30/25 Q1007 NOSIG
2026-04-27 11:00:00,METAR WIII 271100Z 35004KT 9999 FEW020 30/25 Q1006 NOSIG
2026-04-27 10:30:00,METAR WIII 271030Z 34004KT 9999 FEW020 31/24 Q1006 NOSIG
2026-04-27 10:00:00,METAR WIII 271000Z 36007KT 9999 FEW020 31/24 Q1006 NOSIG
2026-04-27 09:30:00,METAR WIII 270930Z 01005KT 9999 FEW020 32/24 Q1006 NOSIG
2026-04-27 09:00:00,METAR WIII 270900Z 01007KT 9999 FEW020 32/24 Q1005 NOSIG
2026-04-27 08:30:00,METAR WIII 270830Z 01008KT 9999 FEW020 32/24 Q1005 NOSIG
2026-04-27 08:00:00,METAR WIII 270800Z 02009KT 9999 FEW020 33/24 Q1005 NOSIG
2026-04-27 07:30:00,METAR WIII 270730Z 36008KT 9999 FEW020 34/24 Q1006 NOSIG
2026-04-27 07:00:00,METAR WIII 270700Z 36008KT 9000 FEW020 34/24 Q1006 NOSIG
2026-04-27 06:30:00,METAR WIII 270630Z 36008KT 340V050 7000 FEW020 34/24 Q1006 NOSIG
2026-04-27 06:00:00,METAR WIII 270600Z COR 02010KT 330V050 5000 HZ FEW020 34/24 Q1007 NOSIG
2026-04-27 05:30:00,METAR WIII 270530Z 36010KT 5000 HZ SCT020 33/25 Q1007 NOSIG
2026-04-27 05:00:00,METAR WIII 270500Z 35008KT 5000 HZ SCT020 33/25 Q1008 NOSIG
2026-04-27 04:30:00,METAR WIII 270430Z 01008KT 340V050 5000 HZ SCT020 33/25 Q1008 NOSIG
2026-04-27 04:00:00,METAR WIII 270400Z 03003KT 340V100 5000 HZ SCT020 34/23 Q1008 NOSIG
2026-04-27 03:30:00,METAR WIII 270330Z 32003KT 5000 HZ SCT020 33/22 Q1009 NOSIG
2026-04-27 03:00:00,METAR WIII 270300Z VRB03KT 5000 HZ FEW020 33/23 Q1009 NOSIG
2026-04-27 02:30:00,METAR WIII 270230Z 21002KT 5000 HZ FEW020 31/24 Q1010 NOSIG
2026-04-27 02:00:00,METAR WIII 270200Z 21004KT 140V240 5000 HZ FEW020 31/25 Q1010 NOSIG
2026-04-27 01:30:00,METAR WIII 270130Z 21003KT 150V240 5000 HZ FEW020 30/25 Q1010 NOSIG
2026-04-27 01:00:00,METAR WIII 270100Z 24004KT 5000 HZ FEW020 29/25 Q1009 NOSIG
2026-04-27 00:30:00,METAR WIII 270030Z 23004KT 3000 HZ FEW020 28/25 Q1009 NOSIG
2026-04-27 00:00:00,METAR WIII 270000Z 19005KT 3000 HZ FEW020 27/25 Q1009 NOSIG
2026-04-26 23:30:00,METAR WIII 262330Z 17006KT 140V200 3000 HZ FEW020 26/25 Q1009 NOSIG
2026-04-26 23:00:00,METAR WIII 262300Z 09001KT 3000 HZ FEW020 26/25 Q1008 NOSIG
2026-04-26 22:30:00,METAR WIII 262230Z 35001KT 4500 HZ FEW020 26/24 Q1008 NOSIG
2026-04-26 21:30:00,METAR WIII 262130Z 20003KT 160V220 7000 FEW020 26/24 Q1007 NOSIG
2026-04-26 21:00:00,METAR WIII 262100Z 17003KT 140V210 9000 FEW020 26/24 Q1007 NOSIG
2026-04-26 20:30:00,METAR WIII 262030Z 23002KT 9000 FEW020 26/24 Q1008 NOSIG
2026-04-26 20:00:00,METAR WIII 262000Z 23002KT 9000 FEW020 27/24 Q1008 NOSIG
2026-04-26 19:30:00,METAR WIII 261930Z 19002KT 9000 FEW020 27/24 Q1008 NOSIG
2026-04-26 19:00:00,METAR WIII 261900Z 18006KT 8000 FEW020 27/24 Q1008 NOSIG
2026-04-26 18:30:00,METAR WIII 261830Z 15004KT 8000 FEW020 27/25 Q1008 NOSIG
2026-04-26 18:00:00,METAR WIII 261800Z 18008KT 7000 FEW020 28/25 Q1009 NOSIG
2026-04-26 17:30:00,METAR WIII 261730Z 16005KT 6000 FEW020 28/25 Q1009 NOSIG
2026-04-26 17:00:00,METAR WIII 261700Z 18007KT 6000 FEW020 28/25 Q1009 NOSIG
2026-04-26 16:30:00,METAR WIII 261630Z 18007KT 6000 FEW020 28/25 Q1009 NOSIG
2026-04-26 16:00:00,METAR WIII 261600Z 18005KT 6000 FEW020 28/26 Q1009 NOSIG
2026-04-26 15:30:00,METAR WIII 261530Z 17007KT 150V220 8000 FEW020 29/26 Q1009 NOSIG
2026-04-26 15:00:00,METAR WIII 261500Z 20003KT 8000 FEW020 28/26 Q1010 NOSIG
2026-04-26 14:30:00,METAR WIII 261430Z 20004KT 9999 FEW020 28/25 Q1009 NOSIG
2026-04-26 14:00:00,METAR WIII 261400Z 18002KT 8000 FEW020 29/25 Q1009 NOSIG
2026-04-26 13:30:00,METAR WIII 261330Z 19002KT 9000 FEW018CB SCT020 29/26 Q1009 NOSIG RMK CB TO S
2026-04-26 13:00:00,METAR WIII 261300Z 28002KT 9999 FEW018CB SCT020 29/25 Q1009 NOSIG RMK CB TO S
2026-04-26 12:30:00,METAR WIII 261230Z 33002KT 8000 FEW020 29/25 Q1009 NOSIG
2026-04-26 12:00:00,METAR WIII 261200Z 35003KT 8000 FEW020 29/25 Q1008 NOSIG
2026-04-26 11:30:00,METAR WIII 261130Z 35005KT 8000 FEW020 29/25 Q1007 NOSIG
2026-04-26 11:00:00,METAR WIII 261100Z 34006KT 8000 FEW020 29/25 Q1007 NOSIG
2026-04-26 10:30:00,METAR WIII 261030Z 34006KT 9000 FEW020 30/25 Q1006 NOSIG
2026-04-26 10:00:00,METAR WIII 261000Z 34007KT 300V030 9000 FEW020 30/25 Q1006 NOSIG
2026-04-26 09:30:00,METAR WIII 260930Z 33008KT 9000 FEW020 31/25 Q1006 NOSIG
2026-04-26 09:00:00,METAR WIII 260900Z 33009KT 9000 FEW020 31/25 Q1006 NOSIG
2026-04-26 08:30:00,METAR WIII 260830Z 34010KT 9999 FEW020 32/25 Q1006 NOSIG
2026-04-26 08:00:00,METAR WIII 260800Z 34010KT 9999 FEW020 32/25 Q1006 NOSIG
2026-04-26 07:30:00,METAR WIII 260730Z 35011KT 9999 FEW020 32/25 Q1006 NOSIG
2026-04-26 07:00:00,METAR WIII 260700Z 34010KT 330V030 9999 FEW020 32/25 Q1006 NOSIG
2026-04-26 06:30:00,METAR WIII 260630Z 35010KT 320V030 9999 FEW020 32/25 Q1007 NOSIG
2026-04-26 06:00:00,METAR WIII 260600Z 34010KT 320V020 9999 FEW020 32/25 Q1007 NOSIG
2026-04-26 05:30:00,METAR WIII 260530Z 34011KT 300V030 9999 FEW020 32/25 Q1007 NOSIG
2026-04-26 05:00:00,METAR WIII 260500Z 01009KT 330V040 9999 FEW020 33/25 Q1008 NOSIG
2026-04-26 04:30:00,METAR WIII 260430Z 02009KT 320V050 9999 FEW020 33/24 Q1008 NOSIG
2026-04-26 04:00:00,METAR WIII 260400Z 04010KT 360V060 9999 FEW020 33/24 Q1009 NOSIG
2026-04-26 03:30:00,METAR WIII 260330Z 04010KT 9999 SCT020 32/24 Q1009 NOSIG
2026-04-26 03:00:00,METAR WIII 260300Z 31006KT 270V030 9999 SCT020 32/25 Q1009 NOSIG
2026-04-26 02:30:00,METAR WIII 260230Z COR 33005KT 310V050 9999 SCT020 31/25 Q1010 NOSIG
2026-04-26 02:00:00,METAR WIII 260200Z 32005KT 250V340 9000 SCT020 30/26 Q1010 NOSIG
2026-04-26 01:30:00,METAR WIII 260130Z 31005KT 8000 BKN020 29/26 Q1010 NOSIG
2026-04-26 01:00:00,METAR WIII 260100Z 35002KT 7000 SCT020 29/26 Q1010 NOSIG
2026-04-26 00:30:00,METAR WIII 260030Z VRB02KT 6000 SCT020 29/26 Q1010 NOSIG
2026-04-26 00:00:00,METAR WIII 260000Z 21003KT 4500 HZ FEW020 28/26 Q1009 NOSIG
2026-04-25 23:30:00,METAR WIII 252330Z 23002KT 4500 HZ FEW020 27/25 Q1009 NOSIG
2026-04-25 23:00:00,METAR WIII 252300Z VRB02KT 6000 FEW020 27/25 Q1009 NOSIG
2026-04-25 22:30:00,METAR WIII 252230Z VRB03KT 7000 FEW020 27/25 Q1009 NOSIG
2026-04-25 22:00:00,METAR WIII 252200Z 17003KT 7000 SCT020 27/25 Q1008 NOSIG
2026-04-25 21:30:00,METAR WIII 252130Z VRB03KT 7000 SCT020 27/25 Q1008 NOSIG
2026-04-25 21:00:00,METAR WIII 252100Z VRB01KT 7000 SCT020 27/25 Q1008 NOSIG
2026-04-25 20:30:00,METAR WIII 252030Z VRB01KT 7000 FEW020 27/25 Q1008 NOSIG
2026-04-25 20:00:00,METAR WIII 252000Z 07002KT 8000 FEW020 27/25 Q1008 NOSIG
2026-04-25 19:30:00,METAR WIII 251930Z 07002KT 6000 FEW020 27/25 Q1008 NOSIG
2026-04-25 19:00:00,METAR WIII 251900Z 06002KT 5000 HZ FEW020 27/25 Q1008 NOSIG
2026-04-25 18:30:00,METAR WIII 251830Z 05002KT 5000 HZ FEW020 28/25 Q1009 NOSIG
2026-04-25 18:00:00,METAR WIII 251800Z COR 36002KT 5000 HZ FEW020 28/26 Q1009 NOSIG
2026-04-25 17:30:00,METAR WIII 251730Z 06003KT 5000 HZ FEW020 28/26 Q1009 NOSIG
2026-04-25 17:00:00,METAR WIII 251700Z 05004KT 5000 HZ FEW020 28/26 Q1009 NOSIG
2026-04-25 16:30:00,METAR WIII 251630Z 06005KT 5000 HZ SCT018 28/26 Q1010 NOSIG
2026-04-25 16:00:00,METAR WIII 251600Z 06005KT 5000 HZ SCT018 28/26 Q1010 NOSIG
2026-04-25 15:30:00,METAR WIII 251530Z 07003KT 7000 SCT018 28/26 Q1010 NOSIG
2026-04-25 15:00:00,METAR WIII 251500Z 06006KT 7000 SCT018 29/26 Q1010 NOSIG
2026-04-25 14:30:00,METAR WIII 251430Z 06006KT 7000 FEW018 28/26 Q1010 NOSIG
2026-04-25 14:00:00,METAR WIII 251400Z 07005KT 8000 FEW020 28/25 Q1010 NOSIG
2026-04-25 13:30:00,METAR WIII 251330Z 06007KT 8000 FEW020 29/25 Q1010 NOSIG
2026-04-25 13:00:00,METAR WIII 251300Z 05008KT 8000 FEW020 29/26 Q1010 NOSIG
2026-04-25 12:30:00,METAR WIII 251230Z 04009KT 9999 SCT020 29/25 Q1009 NOSIG
2026-04-25 12:00:00,METAR WIII 251200Z 05008KT 9999 SCT020 29/26 Q1009 NOSIG
2026-04-25 11:30:00,METAR WIII 251130Z 04008KT 9999 SCT020 29/26 Q1009 NOSIG
2026-04-25 11:00:00,METAR WIII 251100Z 05008KT 9999 SCT020 29/26 Q1008 NOSIG
2026-04-25 10:30:00,METAR WIII 251030Z 04009KT 9999 FEW020 29/26 Q1008 NOSIG
2026-04-25 10:00:00,METAR WIII 251000Z 04013KT 9999 FEW020 30/25 Q1008 NOSIG
2026-04-25 09:30:00,METAR WIII 250930Z 04013KT 9999 FEW020 31/25 Q1007 NOSIG
2026-04-25 09:00:00,METAR WIII 250900Z 05015KT 9999 FEW020 31/26 Q1007 NOSIG
2026-04-25 08:30:00,METAR WIII 250830Z 04015KT 9999 FEW020 32/26 Q1007 NOSIG
2026-04-25 08:00:00,METAR WIII 250800Z 05015KT 9999 FEW018TCU FEW020 32/26 Q1006 NOSIG RMK TCU TO S
2026-04-25 07:30:00,METAR WIII 250730Z 05016KT 9999 FEW018TCU FEW020 32/26 Q1007 NOSIG RMK TCU TO SE
2026-04-25 07:00:00,METAR WIII 250700Z 05016KT 340V050 9999 FEW018TCU FEW020 33/26 Q1007 NOSIG RMK TCU TO SE
2026-04-25 06:30:00,METAR WIII 250630Z 04012KT 9999 FEW020 33/26 Q1007 NOSIG
2026-04-25 06:00:00,METAR WIII 250600Z 04013KT 9999 FEW020 33/25 Q1008 NOSIG
2026-04-25 05:30:00,METAR WIII 250530Z 05013KT 9999 FEW020 33/25 Q1008 NOSIG
2026-04-25 05:00:00,METAR WIII 250500Z 05014KT 9999 FEW020 33/25 Q1008 NOSIG
2026-04-25 04:30:00,METAR WIII 250430Z 06011KT 9999 FEW020 33/25 Q1009 NOSIG
2026-04-25 04:00:00,METAR WIII 250400Z 03009KT 9999 FEW020 33/25 Q1009 NOSIG
2026-04-25 03:30:00,METAR WIII 250330Z 05009KT 9000 FEW020 32/24 Q1010 NOSIG
2026-04-25 03:00:00,METAR WIII 250300Z 08006KT 8000 FEW020 31/24 Q1010 NOSIG
2026-04-25 02:30:00,METAR WIII 250230Z 10005KT 8000 FEW020 31/24 Q1010 NOSIG
2026-04-25 02:00:00,METAR WIII 250200Z 12004KT 7000 FEW020 30/24 Q1010 NOSIG
2026-04-25 01:30:00,METAR WIII 250130Z 13005KT 5000 HZ FEW020 29/24 Q1009 NOSIG
2026-04-25 01:00:00,METAR WIII 250100Z 14004KT 5000 HZ FEW020 29/24 Q1009 NOSIG
2026-04-25 00:30:00,METAR WIII 250030Z 11004KT 4000 HZ FEW020 29/25 Q1009 NOSIG
2026-04-25 00:00:00,METAR WIII 250000Z VRB02KT 4000 BR FEW018CB FEW020 27/26 Q1009 NOSIG RMK CB TO N
2026-04-24 23:30:00,METAR WIII 242330Z VRB01KT 4000 BR FEW018 26/25 Q1009 NOSIG
2026-04-24 23:00:00,METAR WIII 242300Z 23004KT 4000 BR FEW018CB SCT020 27/26 Q1008 NOSIG RMK CB TO NE
2026-04-24 22:30:00,METAR WIII 242230Z 26003KT 5000 VCTS FEW018CB FEW020 26/25 Q1008 NOSIG RMK CB TO N
2026-04-24 22:00:00,METAR WIII 242200Z VRB02KT 5000 HZ FEW020 27/25 Q1008 NOSIG
2026-04-24 21:30:00,METAR WIII 242130Z VRB01KT 6000 FEW018CB FEW020 27/25 Q1008 NOSIG RMK CB TO NW
2026-04-24 21:00:00,METAR WIII 242100Z 17003KT 140V200 6000 VCTS FEW018CB FEW020 28/25 Q1 007 NOSIG RMK CB TO NW
2026-04-24 20:30:00,METAR WIII 242030Z VRB02KT 7000 FEW018CB FEW020 28/25 Q1008 NOSIG RMK CB TO NW
2026-04-24 20:00:00,METAR WIII 242000Z VRB02KT 7000 FEW018 FEW020 28/26 Q1008 NOSIG RMK CB TO NW
2026-04-24 19:30:00,METAR WIII 241930Z 19003KT 160V220 7000 VCTS FEW018CB FEW020 28/26 Q1 008 NOSIG RMK CB TO NW
2026-04-24 19:00:00,METAR WIII 241900Z 13003KT 100V180 7000 VCTS FEW018CB FEW020 29/26 Q1 008 NOSIG RMK CB TO NW
2026-04-24 18:30:00,METAR WIII 241830Z 10004KT 7000 FEW020 29/26 Q1008 NOSIG
2026-04-24 18:00:00,METAR WIII 241800Z 10004KT 8000 FEW020 29/25 Q1008 NOSIG
2026-04-24 17:30:00,METAR WIII 241730Z 12003KT 090V160 8000 FEW020 29/25 Q1008 NOSIG
2026-04-24 17:00:00,METAR WIII 241700Z 12004KT 8000 FEW020 29/25 Q1009 NOSIG
2026-04-24 16:30:00,METAR WIII 241630Z 10004KT 8000 FEW020 29/26 Q1008 NOSIG
2026-04-24 16:00:00,METAR WIII 241600Z 09003KT 040V130 8000 FEW020 29/26 Q1009 NOSIG
2026-04-24 15:30:00,METAR WIII 241530Z 09004KT 060V120 8000 FEW020 29/26 Q1008 NOSIG
2026-04-24 15:00:00,METAR WIII 241500Z 08006KT 050V120 8000 FEW020 29/26 Q1009 NOSIG
2026-04-24 14:30:00,METAR WIII 241430Z 08005KT 060V130 8000 FEW020 29/26 Q1009 NOSIG
2026-04-24 14:00:00,METAR WIII 241400Z 07005KT 8000 FEW020 29/26 Q1009 NOSIG
2026-04-24 13:30:00,METAR WIII 241330Z 07006KT 8000 FEW020 28/26 Q1009 NOSIG
2026-04-24 13:00:00,METAR WIII 241300Z 07008KT 8000 FEW020 29/26 Q1008 NOSIG
2026-04-24 12:30:00,METAR WIII 241230Z 06008KT 9000 FEW020 29/26 Q1008 NOSIG
2026-04-24 12:00:00,METAR WIII 241200Z 05008KT 9000 FEW020 29/26 Q1008 NOSIG
2026-04-24 11:30:00,METAR WIII 241130Z 04009KT 9000 FEW020 29/26 Q1007 NOSIG
2026-04-24 11:00:00,METAR WIII 241100Z 05009KT 9000 FEW018CB FEW020 29/25 Q1007 NOSIG RMK CB TO SW
2026-04-24 10:30:00,METAR WIII 241030Z 05010KT 9999 FEW018CB FEW020 30/25 Q1007 NOSIG RMK CB TO SW
2026-04-24 10:00:00,METAR WIII 241000Z 04010KT 9999 VCTS FEW018CB FEW020 31/25 Q1006 NOSIG RMK CB TO SW
2026-04-24 09:30:00,METAR WIII 240930Z 04012KT 9999 FEW018CB FEW020 31/25 Q1006 NOSIG RMK CB TO SW
2026-04-24 09:00:00,METAR WIII 240900Z 05012KT 9999 FEW018CB FEW020 32/24 Q1005 NOSIG RMK CB TO SW
2026-04-24 08:30:00,METAR WIII 240830Z 05011KT 9999 FEW018CB FEW020 32/25 Q1005 NOSIG RMK CB TO SW
2026-04-24 08:00:00,METAR WIII 240800Z 04011KT 9999 FEW018CB FEW020 33/25 Q1005 NOSIG RMK CB TO SW
2026-04-24 07:30:00,METAR WIII 240730Z 04012KT 9999 FEW018CB FEW020 33/26 Q1005 NOSIG RMK CB TO SW
2026-04-24 07:00:00,METAR WIII 240700Z 05011KT 9999 FEW018CB FEW020 33/25 Q1006 NOSIG RMK CB TO S
2026-04-24 06:30:00,METAR WIII 240630Z 05011KT 9999 FEW020 33/25 Q1006 NOSIG
2026-04-24 06:00:00,METAR WIII 240600Z 05011KT 9999 FEW020 33/26 Q1007 NOSIG
2026-04-24 05:30:00,METAR WIII 240530Z 05013KT 9999 FEW020 33/25 Q1007 NOSIG
2026-04-24 05:00:00,METAR WIII 240500Z 06015KT 9999 FEW020 33/25 Q1007 NOSIG
2026-04-24 04:30:00,METAR WIII 240430Z 07015KT 9999 SCT020 33/25 Q1008 NOSIG
2026-04-24 04:00:00,METAR WIII 240400Z 07013KT 9999 SCT020 33/25 Q1008 NOSIG
2026-04-24 03:30:00,METAR WIII 240330Z 07011KT 9999 SCT020 32/24 Q1009 NOSIG
2026-04-24 03:00:00,METAR WIII 240300Z 08011KT 9999 SCT020 32/23 Q1009 NOSIG
2026-04-24 02:30:00,METAR WIII 240230Z 07010KT 9000 FEW020 31/24 Q1009 NOSIG
2026-04-24 02:00:00,METAR WIII 240200Z 08010KT 9000 FEW020 31/24 Q1008 NOSIG
2026-04-24 01:30:00,METAR WIII 240130Z 08010KT 8000 FEW020 31/24 Q1009 NOSIG
2026-04-24 01:00:00,METAR WIII 240100Z 10007KT 8000 FEW020 30/25 Q1009 NOSIG
2026-04-24 00:30:00,METAR WIII 240030Z 12005KT 6000 FEW020 29/25 Q1008 NOSIG
2026-04-24 00:00:00,METAR WIII 240000Z 11006KT 5000 HZ FEW020 28/25 Q1008 NOSIG
2026-04-23 23:30:00,METAR WIII 232330Z 11006KT 4500 HZ FEW020 27/25 Q1008 NOSIG
2026-04-23 23:00:00,METAR WIII 232300Z 10005KT 3500 HZ FEW020 27/25 Q1007 NOSIG
2026-04-23 22:30:00,METAR WIII 232230Z 11005KT 5000 HZ FEW020 27/25 Q1007 NOSIG
2026-04-23 22:00:00,METAR WIII 232200Z 12005KT 5000 HZ FEW020 27/25 Q1007 NOSIG
2026-04-23 21:30:00,METAR WIII 232130Z 13005KT 5000 HZ FEW020 27/25 Q1006 NOSIG
2026-04-23 21:00:00,METAR WIII 232100Z 14005KT 5000 HZ FEW020 27/25 Q1007 NOSIG
2026-04-23 20:30:00,METAR WIII 232030Z 15005KT 5000 HZ FEW020 27/25 Q1007 NOSIG
2026-04-23 20:00:00,METAR WIII 232000Z 15003KT 6000 FEW020 27/25 Q1007 NOSIG
2026-04-23 19:30:00,METAR WIII 231930Z 17003KT 6000 FEW020 27/25 Q1007 NOSIG
2026-04-23 19:00:00,METAR WIII 231900Z 18003KT 8000 FEW020 28/25 Q1007 NOSIG
2026-04-23 18:30:00,METAR WIII 231830Z 13005KT 090V170 9999 FEW020 28/25 Q1007 NOSIG
2026-04-23 18:00:00,METAR WIII 231800Z 13005KT 090V160 9999 FEW020 28/25 Q1008 NOSIG
2026-04-23 17:30:00,METAR WIII 231730Z 11006KT 9999 FEW020 28/25 Q1008 NOSIG
2026-04-23 17:00:00,METAR WIII 231700Z 11006KT 070V130 9999 FEW020 28/25 Q1009 NOSIG
2026-04-23 16:30:00,METAR WIII 231630Z 11005KT 9000 FEW020 28/25 Q1009 NOSIG
2026-04-23 16:00:00,METAR WIII 231600Z 11005KT 9999 FEW020 29/25 Q1009 NOSIG
2026-04-23 15:30:00,METAR WIII 231530Z 08007KT 9999 FEW020 28/25 Q1009 NOSIG
2026-04-23 15:00:00,METAR WIII 231500Z 11007KT 9999 FEW020 29/25 Q1009 NOSIG
2026-04-23 14:30:00,METAR WIII 231430Z 08006KT 9999 SCT020 28/25 Q1009 NOSIG
2026-04-23 14:00:00,METAR WIII 231400Z 07006KT 9999 FEW020 28/25 Q1009 NOSIG
2026-04-23 13:30:00,METAR WIII 231330Z 06006KT 9000 FEW020 28/26 Q1008 NOSIG
2026-04-23 13:00:00,METAR WIII 231300Z 07005KT 9000 FEW020 28/25 Q1008 NOSIG
2026-04-23 12:30:00,METAR WIII 231230Z 06005KT 8000 FEW020 28/25 Q1007 NOSIG
2026-04-23 12:00:00,METAR WIII 231200Z 05007KT 8000 FEW020 28/25 Q1007 NOSIG
2026-04-23 11:30:00,METAR WIII 231130Z 06007KT 8000 FEW020 28/25 Q1006 NOSIG
2026-04-23 11:00:00,METAR WIII 231100Z 05009KT 8000 FEW020 29/25 Q1006 NOSIG
2026-04-23 10:30:00,METAR WIII 231030Z 03009KT 8000 FEW020 30/26 Q1006 NOSIG
2026-04-23 10:00:00,METAR WIII 231000Z 04010KT 8000 SCT020 30/26 Q1005 NOSIG
2026-04-23 09:30:00,METAR WIII 230930Z 05009KT 8000 SCT020 30/25 Q1005 NOSIG
2026-04-23 09:00:00,METAR WIII 230900Z 04009KT 8000 SCT020 30/25 Q1005 NOSIG
2026-04-23 08:00:00,METAR WIII 230800Z 04010KT 8000 SCT020 31/25 Q1005 NOSIG
2026-04-23 07:30:00,METAR WIII 230730Z 04010KT 7000 SCT020 31/25 Q1005 NOSIG
2026-04-23 07:00:00,METAR WIII 230700Z 04008KT 7000 SCT020 31/25 Q1006 NOSIG
2026-04-23 06:30:00,METAR WIII 230630Z 04009KT 5000 HZ SCT020 31/25 Q1006 NOSIG
2026-04-23 06:00:00,METAR WIII 230600Z 05008KT 5000 HZ SCT020 31/24 Q1006 NOSIG
2026-04-23 05:30:00,METAR WIII 230530Z 04010KT 5000 HZ SCT020 33/25 Q1006 NOSIG
2026-04-23 05:00:00,METAR WIII 230500Z 06010KT 4800 HZ SCT020 33/26 Q1007 NOSIG
2026-04-23 04:30:00,METAR WIII 230430Z 05011KT 4800 HZ SCT020 32/25 Q1007 NOSIG
2026-04-23 04:00:00,METAR WIII 230400Z 10007KT 060V150 4500 HZ BKN019 31/25 Q1008 NOSIG
2026-04-23 03:30:00,METAR WIII 230330Z 09007KT 060V180 3000 HZ BKN019 31/25 Q1008 NOSIG
2026-04-23 03:00:00,METAR WIII 230300Z COR 10008KT 070V140 4000 HZ BKN019 31/25 Q1008 NOS IG
2026-04-23 02:30:00,METAR WIII 230230Z 10006KT 4000 HZ FEW020 30/25 Q1009 NOSIG
2026-04-23 02:00:00,METAR WIII 230200Z 11006KT 060V140 4000 HZ FEW020 29/25 Q1009 NOSIG
2026-04-23 01:30:00,METAR WIII 230130Z 12004KT 5000 HZ FEW020 29/25 Q1009 NOSIG
2026-04-23 01:00:00,METAR WIII 230100Z 12004KT 5000 HZ FEW020 28/24 Q1009 NOSIG
2026-04-23 00:30:00,METAR WIII 230030Z 12004KT 5000 HZ FEW020 28/24 Q1009 NOSIG
2026-04-23 00:00:00,METAR WIII 230000Z 12004KT 5000 HZ FEW020 27/24 Q1009 NOSIG
2026-04-22 23:30:00,METAR WIII 222330Z 10002KT 5000 HZ FEW020 27/23 Q1008 NOSIG
2026-04-22 23:00:00,METAR WIII 222300Z 14003KT 110V180 5000 HZ FEW020 27/23 Q1008 NOSIG
2026-04-22 22:30:00,METAR WIII 222230Z 11002KT 7000 SCT020 27/23 Q1007 NOSIG
2026-04-22 22:00:00,METAR WIII 222200Z 15002KT 7000 SCT020 27/23 Q1007 NOSIG
2026-04-22 21:30:00,METAR WIII 222130Z 16003KT 130V210 7000 SCT019 27/23 Q1007 NOSIG
2026-04-22 21:00:00,METAR WIII 222100Z 14003KT 110V170 7000 SCT020 27/23 Q1007 NOSIG
2026-04-22 20:30:00,METAR WIII 222030Z 15003KT 130V190 7000 SCT020 27/23 Q1007 NOSIG
2026-04-22 20:00:00,METAR WIII 222000Z 16003KT 110V200 7000 SCT020 27/23 Q1007 NOSIG
2026-04-22 19:30:00,METAR WIII 221930Z 16002KT 7000 SCT020 27/23 Q1007 NOSIG
2026-04-22 19:00:00,METAR WIII 221900Z 18004KT 150V230 7000 SCT021 27/24 Q1007 NOSIG
2026-04-22 18:30:00,METAR WIII 221830Z 17004KT 9000 SCT020 27/24 Q1007 NOSIG
2026-04-22 18:00:00,METAR WIII 221800Z 14003KT 090V170 8000 SCT020 27/24 Q1008 NOSIG
2026-04-22 17:30:00,METAR WIII 221730Z 15004KT 120V190 9000 SCT020 27/24 Q1008 NOSIG
2026-04-22 17:00:00,METAR WIII 221700Z 14004KT 110V170 9000 SCT020 27/24 Q1009 NOSIG
2026-04-22 16:30:00,METAR WIII 221630Z 14003KT 110V180 8000 FEW018CB SCT020 28/24 Q1009 NOSIG RMK CB TO E
2026-04-22 16:00:00,METAR WIII 221600Z 17007KT 130V200 7000 FEW018CB SCT020 28/24 Q1009 NOSIG RMK CB TO SE
2026-04-22 15:30:00,METAR WIII 221530Z VRB02KT 6000 FEW018CB SCT020 29/25 Q1009 NOSIG RMK CB TO SE
2026-04-22 15:00:00,METAR WIII 221500Z 01003KT 240V350 6000 FEW018CB FEW020 29/25 Q1009 NOSIG RMK CB TO SE
2026-04-22 14:30:00,METAR WIII 221430Z 01004KT 250V020 6000 SCT020 29/25 Q1009 NOSIG
2026-04-22 14:00:00,METAR WIII 221400Z 01005KT 8000 SCT020 29/25 Q1009 NOSIG
2026-04-22 13:30:00,METAR WIII 221330Z 01005KT 340V040 8000 SCT020 29/25 Q1009 NOSIG
2026-04-22 13:00:00,METAR WIII 221300Z 34004KT 6000 SCT020 29/25 Q1009 NOSIG
2026-04-22 12:30:00,METAR WIII 221230Z 34007KT 7000 FEW020 30/25 Q1008 NOSIG
2026-04-22 12:00:00,METAR WIII 221200Z 34005KT 8000 SCT020 29/25 Q1008 NOSIG
2026-04-22 11:30:00,METAR WIII 221130Z 34005KT 9000 SCT020 30/25 Q1007 NOSIG
2026-04-22 11:00:00,METAR WIII 221100Z 36006KT 7000 FEW020 30/24 Q1007 NOSIG
2026-04-22 10:30:00,METAR WIII 221030Z 35008KT 7000 FEW020 30/24 Q1006 NOSIG
2026-04-22 10:00:00,METAR WIII 221000Z 34008KT 9000 FEW020 31/24 Q1006 NOSIG
2026-04-22 09:30:00,METAR WIII 220930Z 34009KT 8000 FEW020 31/25 Q1005 NOSIG
2026-04-22 09:00:00,METAR WIII 220900Z 34008KT 7000 FEW020 31/25 Q1005 NOSIG
2026-04-22 08:30:00,METAR WIII 220830Z 33010KT 7000 FEW020 32/25 Q1005 NOSIG
2026-04-22 08:00:00,METAR WIII 220800Z 33010KT 7000 FEW020 32/25 Q1005 NOSIG
2026-04-22 07:30:00,METAR WIII 220730Z 34009KT 7000 FEW020 33/25 Q1005 NOSIG
2026-04-22 07:00:00,METAR WIII 220700Z 32009KT 280V030 7000 FEW020 33/26 Q1006 NOSIG
2026-04-22 06:30:00,METAR WIII 220630Z 32009KT 300V360 7000 SCT020 32/25 Q1006 NOSIG
2026-04-22 06:00:00,METAR WIII 220600Z 32006KT 240V020 7000 SCT020 33/24 Q1007 NOSIG
2026-04-22 05:30:00,METAR WIII 220530Z 28005KT 8000 SCT020 33/24 Q1007 NOSIG
2026-04-22 05:00:00,METAR WIII 220500Z 26005KT 8000 SCT020 32/24 Q1008 NOSIG
2026-04-22 04:30:00,METAR WIII 220430Z 26005KT 9000 SCT020 32/24 Q1008 NOSIG
2026-04-22 04:00:00,METAR WIII 220400Z 28005KT 240V310 7000 SCT020 32/24 Q1008 NOSIG
2026-04-22 03:30:00,METAR WIII 220330Z 26006KT 6000 SCT020 31/25 Q1009 NOSIG
2026-04-22 03:00:00,METAR WIII 220300Z 25007KT 220V310 6000 SCT019 31/24 Q1009 NOSIG
2026-04-22 02:30:00,METAR WIII 220230Z 27007KT 5000 HZ SCT020 31/25 Q1009 NOSIG
2026-04-22 02:00:00,METAR WIII 220200Z 25006KT 4000 HZ FEW020 30/26 Q1009 NOSIG
2026-04-22 01:30:00,METAR WIII 220130Z 24004KT 210V280 4000 HZ FEW020 29/25 Q1009 NOSIG
2026-04-22 01:00:00,METAR WIII 220100Z 21005KT 180V240 4000 HZ FEW020 28/25 Q1009 NOSIG
2026-04-22 00:30:00,METAR WIII 220030Z 22005KT 180V250 2200 HZ FEW020 28/25 Q1009 NOSIG
2026-04-22 00:00:00,METAR WIII 220000Z 21002KT 1700 HZ SCT020 27/25 Q1008 NOSIG
2026-04-21 23:30:00,METAR WIII 212330Z 22002KT 1400 BR SCT020 26/25 Q1008 NOSIG
2026-04-21 23:00:00,METAR WIII 212300Z 22002KT 1600 BR BKN020 26/25 Q1008 NOSIG
2026-04-21 22:30:00,METAR WIII 212230Z 22002KT 3000 HZ FEW018CB SCT020 27/25 Q1007 NOSIG RMK CB TO N
2026-04-21 22:00:00,METAR WIII 212200Z VRB02KT 4000 HZ SCT020 26/25 Q1007 NOSIG
2026-04-21 21:30:00,METAR WIII 212130Z VRB02KT 4000 HZ FEW018CB SCT020 26/25 Q1007 NOSIG RMK CB TO NE
2026-04-21 21:00:00,METAR WIII 212100Z 21004KT 4100 HZ FEW020 26/25 Q1008 NOSIG
2026-04-21 20:30:00,METAR WIII 212030Z 22004KT 4000 HZ FEW020 26/25 Q1007 NOSIG
2026-04-21 20:00:00,METAR WIII 212000Z VRB02KT 4300 HZ FEW020 27/25 Q1008 NOSIG
2026-04-21 19:30:00,METAR WIII 211930Z 19004KT 150V230 6000 FEW020 27/25 Q1008 NOSIG
2026-04-21 19:00:00,METAR WIII 211900Z 19004KT 6000 SCT020 27/24 Q1008 NOSIG
2026-04-21 18:30:00,METAR WIII 211830Z 21003KT 6000 SCT020 27/24 Q1008 NOSIG
2026-04-21 18:00:00,METAR WIII 211800Z 23004KT 4500 HZ SCT020 26/24 Q1009 NOSIG
2026-04-21 17:30:00,METAR WIII 211730Z 21004KT 4500 HZ SCT020 27/24 Q1009 NOSIG
2026-04-21 17:00:00,METAR WIII 211700Z 21004KT 4500 HZ SCT020 27/24 Q1009 NOSIG
2026-04-21 16:30:00,METAR WIII 211630Z 21004KT 5000 HZ SCT020 27/24 Q1010 NOSIG
2026-04-21 16:00:00,METAR WIII 211600Z 24004KT 5000 HZ SCT020 27/24 Q1009 NOSIG
2026-04-21 15:30:00,METAR WIII 211530Z 21004KT 180V240 5000 HZ SCT020 27/24 Q1009 NOSIG
2026-04-21 15:00:00,METAR WIII 211500Z 22003KT 5000 HZ SCT020 27/24 Q1009 NOSIG
2026-04-21 14:30:00,METAR WIII 211430Z 24003KT 4000 HZ SCT020 27/24 Q1009 NOSIG
2026-04-21 14:00:00,METAR WIII 211400Z 24003KT 4700 HZ SCT020 27/25 Q1009 NOSIG
2026-04-21 13:30:00,METAR WIII 211330Z 25005KT 6000 SCT020 27/24 Q1009 NOSIG
2026-04-21 13:00:00,METAR WIII 211300Z 25007KT 6000 SCT020 27/25 Q1008 NOSIG
2026-04-21 12:30:00,METAR WIII 211230Z 27007KT 5000 HZ SCT020 28/25 Q1008 NOSIG
2026-04-21 12:00:00,METAR WIII 211200Z 30004KT 230V310 5000 HZ SCT020 29/26 Q1007 NOSIG
2026-04-21 11:30:00,METAR WIII 211130Z 31005KT 5000 HZ SCT020 29/26 Q1007 NOSIG
2026-04-21 11:00:00,METAR WIII 211100Z 32008KT 5000 HZ SCT020 29/26 Q1006 NOSIG
2026-04-21 10:30:00,METAR WIII 211030Z 32006KT 5000 HZ SCT020 30/26 Q1006 NOSIG
2026-04-21 10:00:00,METAR WIII 211000Z 32006KT 5000 HZ SCT020 30/26 Q1006 NOSIG
2026-04-21 09:30:00,METAR WIII 210930Z 32007G17KT 290V020 7000 SCT020 31/25 Q1006 NOSIG
2026-04-21 09:00:00,METAR WIII 210900Z 33007KT 7000 SCT020 31/25 Q1006 NOSIG
2026-04-21 08:30:00,METAR WIII 210830Z 35008KT 8000 SCT020 31/25 Q1005 NOSIG
2026-04-21 08:00:00,METAR WIII 210800Z 02009KT 8000 VCTS FEW019CB FEW020 32/24 Q1005 NOSIG RMK CB TO SW
2026-04-21 07:30:00,METAR WIII 210730Z 02009KT 9999 FEW019CB FEW020 32/24 Q1005 NOSIG RMK CB TO S
2026-04-21 07:00:00,METAR WIII 210700Z 02010KT 340V050 6000 FEW019CB SCT020 32/24 Q1006 NOSIG RMK CB TO S
2026-04-21 06:30:00,METAR WIII 210630Z 01009KT 6000 VCTS FEW019CB FEW020 33/24 Q1006 NOSIG RMK CB TO S
2026-04-21 06:00:00,METAR WIII 210600Z 02009KT 5000 HZ FEW020 33/24 Q1006 NOSIG
2026-04-21 05:30:00,METAR WIII 210530Z 03009KT 5000 HZ FEW020 32/24 Q1007 NOSIG
2026-04-21 05:00:00,METAR WIII 210500Z 04007KT 5000 HZ SCT020 32/23 Q1008 NOSIG
2026-04-21 04:30:00,METAR WIII 210430Z 36007KT 5000 HZ FEW020 33/24 Q1008 NOSIG
2026-04-21 04:00:00,METAR WIII 210400Z 36007KT 5000 HZ FEW020 33/24 Q1009 NOSIG
2026-04-21 03:30:00,METAR WIII 210330Z 03007KT 5000 HZ FEW020 32/23 Q1009 NOSIG
2026-04-21 03:00:00,METAR WIII 210300Z 05004KT 5000 HZ FEW020 32/23 Q1009 NOSIG
2026-04-21 02:30:00,METAR WIII 210230Z 08004KT 300V040 5000 HZ FEW020 31/23 Q1009 NOSIG
2026-04-21 02:00:00,METAR WIII 210200Z VRB04KT 5000 HZ FEW020 31/24 Q1009 NOSIG
2026-04-21 01:30:00,METAR WIII 210130Z 16004KT 5000 HZ FEW020 29/24 Q1009 NOSIG
2026-04-21 01:00:00,METAR WIII 210100Z 17005KT 4000 HZ FEW020 29/24 Q1009 NOSIG
2026-04-21 00:30:00,METAR WIII 210030Z 17006KT 3500 HZ FEW020 28/25 Q1009 NOSIG
2026-04-21 00:00:00,METAR WIII 210000Z 15005KT 3500 HZ FEW020 27/25 Q1008 NOSIG
2026-04-20 23:30:00,METAR WIII 202330Z 14005KT 3000 BR FEW020 27/25 Q1008 NOSIG
2026-04-20 23:00:00,METAR WIII 202300Z 18003KT 3000 BR FEW020 26/25 Q1008 NOSIG
2026-04-20 22:30:00,METAR WIII 202230Z 15004KT 4500 BR FEW020 26/25 Q1007 NOSIG
2026-04-20 22:00:00,METAR WIII 202200Z 18006KT 4000 BR FEW020 26/25 Q1007 NOSIG
2026-04-20 21:30:00,METAR WIII 202130Z 19005KT 3500 BR SCT020 26/25 Q1007 NOSIG
2026-04-20 21:00:00,METAR WIII 202100Z 19005KT 4500 BR FEW020 26/25 Q1007 NOSIG
2026-04-20 20:30:00,METAR WIII 202030Z 20004KT 5000 BR FEW020 26/25 Q1008 NOSIG
2026-04-20 20:00:00,METAR WIII 202000Z 22003KT 3500 BR FEW020 26/25 Q1008 NOSIG
2026-04-20 19:30:00,METAR WIII 201930Z 30003KT 3000 BR FEW020 27/25 Q1008 NOSIG
2026-04-20 19:00:00,METAR WIII 201900Z 25004KT 3500 BR FEW018CB SCT022 27/25 Q1008 NOSIG RMK CB TO NW
2026-04-20 18:30:00,METAR WIII 201830Z 22005KT 4000 HZ FEW018CB FEW020 26/25 Q1009 RETS NOSIG RMK CB TO NW
2026-04-20 18:00:00,METAR WIII 201800Z 25005KT 4000 TS HZ FEW018CB FEW020 26/25 Q1009 NOS IG RMK CB TO N
2026-04-20 17:30:00,METAR WIII 201730Z 24005KT 4000 HZ FEW018CB FEW020 26/25 Q1009 NOSIG RMK CB TO N
2026-04-20 17:00:00,METAR WIII 201700Z 22003KT 4500 HZ FEW018CB FEW020 27/25 Q1009 NOSIG RMK CB TO N
2026-04-20 16:30:00,METAR WIII 201630Z 20005KT 5000 HZ FEW018CB FEW020 27/25 Q1009 NOSIG RMK CB TO NW
2026-04-20 16:00:00,METAR WIII 201600Z 23004KT 4500 HZ FEW018CB FEW020 27/25 Q1009 NOSIG RMK CB TO NW
2026-04-20 15:30:00,METAR WIII 201530Z VRB04KT 7000 FEW020 28/25 Q1009 NOSIG
2026-04-20 15:00:00,METAR WIII 201500Z VRB03KT 8000 FEW020 28/25 Q1009 NOSIG
2026-04-20 14:30:00,METAR WIII 201430Z 07003KT 8000 FEW020 28/25 Q1009 NOSIG
2026-04-20 14:00:00,METAR WIII 201400Z 07004KT 8000 FEW020 28/25 Q1008 NOSIG
2026-04-20 13:30:00,METAR WIII 201330Z 05004KT 8000 FEW020 28/25 Q1008 NOSIG
2026-04-20 13:00:00,METAR WIII 201300Z 06005KT 8000 FEW020 28/25 Q1008 NOSIG
2026-04-20 12:30:00,METAR WIII 201230Z 07006KT 8000 FEW020 28/25 Q1008 NOSIG
2026-04-20 12:00:00,METAR WIII 201200Z 06006KT 8000 FEW020 28/25 Q1007 NOSIG
2026-04-20 11:30:00,METAR WIII 201130Z 06006KT 7000 FEW020 28/25 Q1007 NOSIG
2026-04-20 11:00:00,METAR WIII 201100Z 05007KT 010V080 7000 FEW020 29/25 Q1006 NOSIG
2026-04-20 10:30:00,METAR WIII 201030Z 05011KT 9999 FEW020 30/24 Q1006 NOSIG
2026-04-20 10:00:00,METAR WIII 201000Z 05014KT 9999 FEW020 30/24 Q1006 NOSIG
2026-04-20 09:30:00,METAR WIII 200930Z 04014KT 9999 FEW020 31/24 Q1006 NOSIG
2026-04-20 09:00:00,METAR WIII 200900Z 04012KT 9999 FEW020 31/25 Q1006 NOSIG
2026-04-20 08:30:00,METAR WIII 200830Z 04014KT 9999 FEW020 31/25 Q1006 NOSIG
2026-04-20 08:00:00,METAR WIII 200800Z 04015KT 9999 FEW020 32/25 Q1006 NOSIG
2026-04-20 07:30:00,METAR WIII 200730Z 04013KT 9999 FEW020 32/26 Q1006 NOSIG
2026-04-20 07:00:00,METAR WIII 200700Z 05014KT 360V080 9000 FEW020 32/25 Q1006 NOSIG
2026-04-20 06:30:00,METAR WIII 200630Z 04014KT 360V080 9000 FEW019TCU FEW020 32/25 Q1007 RMK TCU TO SW
2026-04-20 06:00:00,METAR WIII 200600Z 04014KT 9000 FEW020 32/25 Q1007 NOSIG
2026-04-20 05:30:00,METAR WIII 200530Z 05012KT 020V080 9000 FEW020 32/25 Q1008 NOSIG
2026-04-20 05:00:00,METAR WIII 200500Z 04010KT 9000 FEW020 33/24 Q1008 NOSIG
2026-04-20 04:30:00,METAR WIII 200430Z 04009KT 9000 FEW020 32/25 Q1008 NOSIG
2026-04-20 04:00:00,METAR WIII 200400Z 05009KT 9000 SCT020 32/24 Q1009 NOSIG
2026-04-20 03:30:00,METAR WIII 200330Z 04009KT 9000 SCT020 32/24 Q1009 NOSIG
2026-04-20 03:00:00,METAR WIII 200300Z 06009KT 9000 SCT020 31/24 Q1009 NOSIG
2026-04-20 02:30:00,METAR WIII 200230Z 07006KT 9000 SCT020 31/24 Q1009 NOSIG
2026-04-20 02:00:00,METAR WIII 200200Z 07006KT 9000 SCT020 30/25 Q1010 NOSIG
2026-04-20 01:30:00,METAR WIII 200130Z VRB05KT 080V160 9000 SCT020 30/24 Q1010 NOSIG
2026-04-20 01:00:00,METAR WIII 200100Z COR 16005KT 8000 FEW019CB SCT020 29/24 Q1009 NOSIG RMK CB TO NE
2026-04-20 00:30:00,METAR WIII 200030Z 15004KT 6000 VCTS FEW018CB FEW020 28/24 Q1009 NOSIG RMK CB TO NE
2026-04-20 00:00:00,METAR WIII 200000Z 15004KT 5000 HZ FEW020 28/24 Q1009 NOSIG
2026-04-19 23:30:00,METAR WIII 192330Z 14003KT 5000 HZ FEW020 27/24 Q1009 NOSIG
2026-04-19 23:00:00,METAR WIII 192300Z 14003KT 5000 HZ FEW020 27/24 Q1009 NOSIG
2026-04-19 22:30:00,METAR WIII 192230Z 21003KT 6000 FEW020 26/24 Q1008 NOSIG
2026-04-19 22:00:00,METAR WIII 192200Z 15003KT 6000 SCT020 26/24 Q1008 NOSIG
2026-04-19 21:30:00,METAR WIII 192130Z 15004KT 6000 SCT020 26/24 Q1008 NOSIG
2026-04-19 21:00:00,METAR WIII 192100Z 14004KT 6000 SCT020 26/24 Q1008 NOSIG
2026-04-19 20:30:00,METAR WIII 192030Z 14005KT 7000 FEW020 26/24 Q1008 NOSIG
2026-04-19 20:00:00,METAR WIII 192000Z 15005KT 7000 FEW020 27/24 Q1008 NOSIG
2026-04-19 19:30:00,METAR WIII 191930Z VRB06KT 7000 SCT020 27/24 Q1008 NOSIG
2026-04-19 19:00:00,METAR WIII 191900Z 16006KT 7000 SCT020 26/24 Q1008 NOSIG
2026-04-19 18:30:00,METAR WIII 191830Z 20004KT 9000 SCT020 26/24 Q1009 NOSIG
2026-04-19 18:00:00,METAR WIII 191800Z 17004KT 9000 SCT020 26/24 Q1009 NOSIG
2026-04-19 17:30:00,METAR WIII 191730Z 14004KT 8000 SCT020 26/24 Q1009 NOSIG
2026-04-19 17:00:00,METAR WIII 191700Z 14005KT 100V190 8000 SCT020 26/24 Q1010 NOSIG
2026-04-19 16:30:00,METAR WIII 191630Z 14005KT 110V180 7000 FEW019CB BKN020 26/24 Q1010 N OSIG RMK CB TO SE
2026-04-19 16:00:00,METAR WIII 191600Z 13003KT 080V180 9000 FEW019CB SCT020 26/24 Q1010 NOSIG RMK CB TO SE
2026-04-19 15:30:00,METAR WIII 191530Z 16006KT 110V220 9000 FEW019CB SCT020 26/24 Q1010 NOSIG RMK CB TO SE
2026-04-19 15:00:00,METAR WIII 191500Z 17006KT 140V210 8000 FEW019CB SCT020 26/24 Q1010 NOSIG RMK CB TO SE
2026-04-19 14:30:00,METAR WIII 191430Z 17005KT 120V220 8000 VCTS FEW019CB SCT020 BKN055 26/24 Q1010 NOSIG RMK CB TO E
2026-04-19 14:00:00,METAR WIII 191400Z 18007KT 140V220 9000 BKN020 27/24 Q1010 NOSIG
2026-04-19 13:30:00,METAR WIII 191330Z 17004KT 120V200 9000 FEW018CB SCT020 28/24 Q1010 TEMPO FM1340 4000 TSRA RMK CB TO SE
2026-04-19 13:00:00,METAR WIII 191300Z 18007KT 150V210 8000 FEW018CB SCT020 28/24 Q10 09 TEMPO FM1315 3000 TSRA RMK CB TO S AND E
2026-04-19 12:30:00,METAR WIII 191230Z 26005KT 6000 FEW018CB SCT020 29/25 Q1009 TEMPO FM1 250 4000 RA RMK CB TO SE
2026-04-19 12:00:00,METAR WIII 191200Z 31003KT 9999 FEW018CB SCT020 29/25 Q1008 NOSIG RMK CB TO SE AND SW
2026-04-19 11:30:00,METAR WIII 191130Z 01006KT 9000 FEW018CB SCT020 29/25 Q1008 NOSIG RMK CB TO SE
2026-04-19 11:00:00,METAR WIII 191100Z 01007KT 9999 FEW018CB SCT020 29/25 Q1007 NOSIG RMK CB TO SE AND SW
2026-04-19 10:30:00,METAR WIII 191030Z 01010KT 9999 VCTS FEW018CB SCT020 30/25 Q1007 NOSI G RMK CB TO E AND S
2026-04-19 10:00:00,METAR WIII 191000Z 02010KT 9999 FEW018CB SCT020 30/25 Q1006 NOSIG RMK CB TO E AND S
2026-04-19 09:30:00,METAR WIII 190930Z 01013KT 9999 FEW018CB SCT020 31/25 Q1006 NOSIG RMK CB TO SE
2026-04-19 09:00:00,METAR WIII 190900Z 02011KT 9999 FEW018CB SCT020 31/25 Q1006 NOSIG RMK CB TO SE
2026-04-19 08:30:00,METAR WIII 190830Z 02011KT 9999 FEW020 31/25 Q1006 NOSIG
2026-04-19 08:00:00,METAR WIII 190800Z 04011KT 9999 FEW020 32/25 Q1006 NOSIG
2026-04-19 07:30:00,METAR WIII 190730Z 03011KT 9999 FEW020 32/26 Q1006 NOSIG
2026-04-19 07:00:00,METAR WIII 190700Z 04011KT 8000 FEW020 32/26 Q1007 NOSIG
2026-04-19 06:30:00,METAR WIII 190630Z 05010KT 7000 FEW020 32/26 Q1007 NOSIG
2026-04-19 06:00:00,METAR WIII 190600Z 04010KT 010V080 7000 FEW020 32/25 Q1008 NOSIG
2026-04-19 05:30:00,METAR WIII 190530Z 05013KT 9000 FEW020 32/25 Q1008 NOSIG
2026-04-19 05:00:00,METAR WIII 190500Z 04012KT 9000 FEW020 32/25 Q1009 NOSIG
2026-04-19 04:30:00,METAR WIII 190430Z 03010KT 9000 FEW020 32/25 Q1009 NOSIG
2026-04-19 04:00:00,METAR WIII 190400Z COR 03011KT 9000 SCT020 32/25 Q1010 NOSIG
2026-04-19 03:30:00,METAR WIII 190330Z 04010KT 020V080 9000 SCT020 32/25 Q1010 NOSIG
2026-04-19 03:00:00,METAR WIII 190300Z 04008KT 020V080 7000 SCT020 32/25 Q1010 NOSIG
2026-04-19 02:30:00,METAR WIII 190230Z VRB05KT 5000 HZ SCT020 31/25 Q1010 NOSIG
2026-04-19 02:00:00,METAR WIII 190200Z VRB05KT 5000 HZ SCT020 30/25 Q1011 NOSIG
2026-04-19 01:30:00,METAR WIII 190130Z 08004KT 360V120 6000 FEW020 29/25 Q1010 NOSIG
2026-04-19 01:00:00,METAR WIII 190100Z VRB02KT 5000 HZ FEW020 29/25 Q1010 NOSIG
2026-04-19 00:30:00,METAR WIII 190030Z VRB02KT 4500 HZ NSC 27/25 Q1010 NOSIG
2026-04-19 00:00:00,METAR WIII 190000Z VRB02KT 3000 HZ NSC 26/24 Q1010 NOSIG
2026-04-18 23:30:00,METAR WIII 182330Z 24004KT 2000 BR FEW020 25/24 Q1009 NOSIG
2026-04-18 23:00:00,METAR WIII 182300Z 25004KT 2500 BR FEW020 25/24 Q1009 NOSIG
2026-04-18 22:30:00,METAR WIII 182230Z VRB03KT 4000 HZ FEW020 25/24 Q1008 NOSIG
2026-04-18 22:00:00,METAR WIII 182200Z 19003KT 6000 SCT020 25/24 Q1008 NOSIG
2026-04-18 21:30:00,METAR WIII 182130Z VRB02KT 7000 FEW020 25/24 Q1008 NOSIG
2026-04-18 21:00:00,METAR WIII 182100Z VRB02KT 7000 FEW020 25/24 Q1009 NOSIG
2026-04-18 20:30:00,METAR WIII 182030Z 23002KT 7000 FEW020 25/24 Q1009 NOSIG
2026-04-18 20:00:00,METAR WIII 182000Z 21004KT 7000 FEW020 25/24 Q1009 NOSIG
2026-04-18 19:30:00,METAR WIII 181930Z VRB03KT 7000 FEW020 25/24 Q1009 NOSIG
2026-04-18 19:00:00,METAR WIII 181900Z VRB02KT 7000 FEW020 26/24 Q1009 NOSIG
2026-04-18 18:30:00,METAR WIII 181830Z VRB02KT 6000 FEW020 26/24 Q1009 NOSIG
2026-04-18 18:00:00,METAR WIII 181800Z VRB02KT 6000 FEW020 26/23 Q1009 NOSIG
2026-04-18 17:30:00,METAR WIII 181730Z 20003KT 160V230 6000 FEW020 26/23 Q1009 NOSIG
2026-04-18 17:00:00,METAR WIII 181700Z VRB02KT 6000 FEW020 26/23 Q1010 NOSIG
2026-04-18 16:30:00,METAR WIII 181630Z 18004KT 140V220 6000 FEW020 27/23 Q1010 NOSIG
2026-04-18 16:00:00,METAR WIII 181600Z 15004KT 120V220 6000 FEW020 27/23 Q1010 NOSIG
2026-04-18 15:00:00,METAR WIII 181500Z 18003KT 150V220 6000 SCT020 27/24 Q1010 NOSIG
2026-04-18 14:30:00,METAR WIII 181430Z 15003KT 110V200 5000 -RA SCT018 27/24 Q1010 BECMG AT1450 NSW
2026-04-18 14:00:00,METAR WIII 181400Z 20003KT 150V240 5000 -RA BKN020 27/24 Q1010 TEMPO FM1415 4000 RA
2026-04-18 13:30:00,METAR WIII 181330Z 20005KT 6000 RA BKN020 27/24 Q1010 TEMPO FM1345 4000 +RA
2026-04-18 13:00:00,METAR WIII 181300Z 19006KT 070V240 8000 SCT020 28/24 Q1009 NOSIG
2026-04-18 12:30:00,METAR WIII 181230Z 06006KT 9000 SCT020 28/25 Q1009 NOSIG
2026-04-18 12:00:00,METAR WIII 181200Z 05006KT 9000 SCT020 29/25 Q1008 NOSIG
2026-04-18 11:30:00,METAR WIII 181130Z 05005KT 020V080 9000 SCT020 29/25 Q1008 NOSIG
2026-04-18 11:00:00,METAR WIII 181100Z 04008KT 9999 FEW020 29/25 Q1007 NOSIG
2026-04-18 10:30:00,METAR WIII 181030Z 04010KT 360V060 9999 FEW020 30/25 Q1007 NOSIG
2026-04-18 10:00:00,METAR WIII 181000Z 04011KT 9999 FEW020 30/25 Q1007 NOSIG
2026-04-18 09:30:00,METAR WIII 180930Z 04011KT 360V070 9999 FEW020 31/25 Q1007 NOSIG
2026-04-18 09:00:00,METAR WIII 180900Z 04011KT 010V070 9999 FEW020 31/25 Q1007 NOSIG
2026-04-18 08:30:00,METAR WIII 180830Z 05013KT 9999 FEW020 31/25 Q1006 NOSIG
2026-04-18 08:00:00,METAR WIII 180800Z 05011KT 010V080 9999 FEW020 32/25 Q1006 NOSIG
2026-04-18 07:30:00,METAR WIII 180730Z 04010KT 360V070 9999 FEW020 31/25 Q1007 NOSIG
2026-04-18 07:00:00,METAR WIII 180700Z 04014KT 010V100 9999 FEW020 32/25 Q1006 NOSIG
2026-04-18 06:30:00,METAR WIII 180630Z 04014KT 010V070 9999 FEW020 32/24 Q1007 NOSIG
2026-04-18 06:00:00,METAR WIII 180600Z 05013KT 9000 FEW020 32/25 Q1008 NOSIG
2026-04-18 05:30:00,METAR WIII 180530Z 04013KT 8000 FEW020 32/24 Q1008 NOSIG
2026-04-18 05:00:00,METAR WIII 180500Z 05013KT 8000 SCT020 32/24 Q1009 NOSIG
2026-04-18 04:30:00,METAR WIII 180430Z 05012KT 7000 SCT020 32/25 Q1009 RERA NOSIG
2026-04-18 04:00:00,METAR WIII 180400Z 04008KT 6000 -RA SCT020 30/26 Q1009 NOSIG
2026-04-18 03:36:00,SPECI WIII 180336Z 05010KT 5000 -RA FEW018CB SCT020 31/26 Q1010 TEMPO FM0345 3000 TSRA RMK CB TO NW
2026-04-18 03:30:00,METAR WIII 180330Z 04010KT 8000 SCT020 32/25 Q1010 NOSIG RMK TEMPO FM 0350 4000 TSRA
2026-04-18 03:00:00,METAR WIII 180300Z 08008KT 8000 SCT020 31/25 Q1010 NOSIG
2026-04-18 02:30:00,METAR WIII 180230Z 08008KT 8000 SCT020 31/25 Q1010 NOSIG
2026-04-18 02:00:00,METAR WIII 180200Z 08007KT 7000 SCT020 30/25 Q1010 NOSIG
2026-04-18 01:30:00,METAR WIII 180130Z 10008KT 5000 HZ FEW020 30/25 Q1009 NOSIG
2026-04-18 01:00:00,METAR WIII 180100Z 10005KT 3000 HZ FEW020 29/25 Q1009 NOSIG
2026-04-18 00:30:00,METAR WIII 180030Z 15004KT 3500 HZ SCT020 28/25 Q1009 NOSIG
2026-04-18 00:00:00,METAR WIII 180000Z 16004KT 080V170 3000 BR SCT020 27/25 Q1009 NOSIG
2026-04-17 23:30:00,METAR WIII 172330Z 20003KT 4000 BR BKN020 27/25 Q1009 NOSIG
2026-04-17 23:00:00,METAR WIII 172300Z 12003KT 4000 BR BKN020 26/25 Q1008 NOSIG
2026-04-17 22:30:00,METAR WIII 172230Z 11003KT 4500 BR BKN020 26/25 Q1007 NOSIG
2026-04-17 22:00:00,METAR WIII 172200Z 13003KT 4500 BR BKN020 27/25 Q1008 NOSIG
2026-04-17 21:30:00,METAR WIII 172130Z VRB02KT 4500 BR BKN020 27/25 Q1008 NOSIG
2026-04-17 21:00:00,METAR WIII 172100Z 18003KT 150V210 4400 BR SCT020 27/25 Q1008 NOSIG
2026-04-17 20:00:00,METAR WIII 172000Z VRB02KT 4500 HZ SCT020 27/25 Q1007 NOSIG
2026-04-17 19:30:00,METAR WIII 171930Z VRB02KT 4400 HZ SCT018 27/25 Q1007 NOSIG
2026-04-17 19:00:00,METAR WIII 171900Z 19002KT 4500 HZ SCT018 27/25 Q1008 NOSIG
2026-04-17 18:30:00,METAR WIII 171830Z 17004KT 5000 HZ SCT017 27/25 Q1008 NOSIG
2026-04-17 18:00:00,METAR WIII 171800Z 17004KT 5000 HZ SCT020 27/25 Q1009 NOSIG
2026-04-17 17:30:00,METAR WIII 171730Z 18003KT 140V210 4000 HZ SCT020 27/25 Q1009 NOSIG
2026-04-17 17:00:00,METAR WIII 171700Z 20002KT 4600 HZ FEW020 27/25 Q1009 NOSIG
2026-04-17 16:30:00,METAR WIII 171630Z VRB02KT 5000 HZ FEW020 27/25 Q1009 NOSIG
2026-04-17 16:00:00,METAR WIII 171600Z 19004KT 150V230 7000 SCT020 28/25 Q1009 NOSIG
2026-04-17 15:30:00,METAR WIII 171530Z 18002KT 7000 SCT020 28/25 Q1009 NOSIG
2026-04-17 15:00:00,METAR WIII 171500Z 18004KT 140V230 7000 SCT020 28/25 Q1009 NOSIG
2026-04-17 14:30:00,METAR WIII 171430Z 20004KT 170V230 7000 SCT020 28/25 Q1009 NOSIG
2026-04-17 14:00:00,METAR WIII 171400Z 20004KT 160V230 7000 SCT020 28/25 Q1009 NOSIG
2026-04-17 13:30:00,METAR WIII 171330Z 18003KT 160V220 7000 SCT020 28/25 Q1009 NOSIG
2026-04-17 13:00:00,METAR WIII 171300Z 07007KT 7000 SCT020 28/25 Q1008 NOSIG
2026-04-17 12:30:00,METAR WIII 171230Z 07007KT 9000 SCT020 28/25 Q1008 NOSIG
2026-04-17 12:00:00,METAR WIII 171200Z 06007KT 9000 FEW018CB SCT020 29/25 Q1008 NOSIG RMK CB TO SW
2026-04-17 11:30:00,METAR WIII 171130Z 07007KT 9999 VCTS FEW018CB FEW020 29/25 Q1007 NOSI G RMK CB TO SW
2026-04-17 11:00:00,METAR WIII 171100Z 05009KT 9999 FEW018CB FEW020 29/25 Q1007 NOSIG RMK CB TO SW
2026-04-17 10:30:00,METAR WIII 171030Z 05012KT 9999 FEW018CB FEW020 30/25 Q1007 NOSIG RMK CB TO S
2026-04-17 10:00:00,METAR WIII 171000Z 05013KT 010V090 9999 FEW018CB FEW020 30/25 Q1006 NOSIG RMK CB TO S
2026-04-17 09:30:00,METAR WIII 170930Z 04013KT 9999 FEW018CB FEW020 31/25 Q1006 NOSIG RMK CB TO S
2026-04-17 09:00:00,METAR WIII 170900Z 03012KT 9999 FEW018CB FEW020 31/25 Q1006 NOSIG RMK CB TO S
2026-04-17 08:30:00,METAR WIII 170830Z 04012KT 9999 FEW018CB FEW020 31/25 Q1006 NOSIG RMK CB TO S
2026-04-17 08:00:00,METAR WIII 170800Z 04012KT 9999 FEW018CB FEW020 32/25 Q1006 NOSIG RMK CB TO SW
2026-04-17 07:30:00,METAR WIII 170730Z 04011KT 9999 FEW018CB FEW020 32/26 Q1006 NOSIG RMK CB TO SW
2026-04-17 07:00:00,METAR WIII 170700Z 05011KT 9999 FEW018CB FEW020 32/26 Q1007 NOSIG RMK CB TO SW
2026-04-17 06:30:00,METAR WIII 170630Z 05011KT 9999 FEW018CB FEW020 32/26 Q1008 NOSIG RMK CB TO SW
2026-04-17 06:00:00,METAR WIII 170600Z 04011KT 360V060 9999 FEW018CB FEW020 32/26 Q1008 NOSIG RMK CB TO S
2026-04-17 05:30:00,METAR WIII 170530Z 03012KT 360V080 9999 FEW018TCU FEW020 32/25 Q1009 NOSIG RMK TCU TO S
2026-04-17 05:00:00,METAR WIII 170500Z 05011KT 9999 FEW020 32/25 Q1009 NOSIG
2026-04-17 04:30:00,METAR WIII 170430Z 08012KT 010V070 9999 FEW020 32/25 Q1009 NOSIG
2026-04-17 04:00:00,METAR WIII 170400Z 07010KT 9999 FEW020 32/24 Q1010 NOSIG
2026-04-17 03:30:00,METAR WIII 170330Z 04006KT 340V110 9999 FEW020 31/24 Q1010 NOSIG
2026-04-17 03:00:00,METAR WIII 170300Z 07005KT 010V110 9999 FEW020 30/24 Q1010 NOSIG
2026-04-17 02:30:00,METAR WIII 170230Z 11005KT 080V180 9999 FEW020 29/24 Q1010 NOSIG
2026-04-17 02:00:00,METAR WIII 170200Z 11005KT 080V160 8000 FEW020 28/24 Q1010 NOSIG
2026-04-17 01:30:00,METAR WIII 170130Z 11006KT 5000 HZ FEW020 28/24 Q1011 NOSIG
2026-04-17 01:00:00,METAR WIII 170100Z 14006KT 090V180 4000 HZ FEW020 27/25 Q1010 NOSIG
2026-04-17 00:30:00,METAR WIII 170030Z 15004KT 130V200 4500 BR SCT020 26/25 Q1010 NOSIG
2026-04-17 00:00:00,METAR WIII 170000Z 15005KT 120V180 4000 BR SCT020 26/25 Q1009 NOSIG
2026-04-16 23:30:00,METAR WIII 162330Z VRB05KT 4000 BR SCT018 26/25 Q1009 NOSIG
2026-04-16 23:00:00,METAR WIII 162300Z VRB02KT 4200 BR BKN018 25/25 Q1009 NOSIG
2026-04-16 22:30:00,METAR WIII 162230Z VRB01KT 4000 BR FEW018CB SCT020 25/24 Q1009 NOSIG RMK CB TO E
2026-04-16 22:00:00,METAR WIII 162200Z 14003KT 4000 BR FEW018CB SCT020 25/24 Q1009 NOSIG RMK CB TO E
2026-04-16 21:30:00,METAR WIII 162130Z 18003KT 4000 BR FEW018CB SCT020 25/24 Q1009 NOSIG RMK CB TO E
2026-04-16 21:00:00,METAR WIII 162100Z 23004KT 4500 BR FEW018CB SCT020 25/24 Q1009 NOSIG RMK CB TO E
2026-04-16 20:30:00,METAR WIII 162030Z 22004KT 6000 SCT020 25/24 Q1009 NOSIG
2026-04-16 20:00:00,METAR WIII 162000Z 20005KT 170V230 6000 FEW018CB SCT020 25/24 Q1009 NOSIG RMK CB TO E
2026-04-16 19:30:00,METAR WIII 161930Z 18005KT 140V220 6000 FEW018CB SCT020 25/24 Q1009 NOSIG RMK CB TO E
2026-04-16 19:00:00,METAR WIII 161900Z 16003KT 130V190 4500 BR SCT020 25/24 Q1009 NOSIG
2026-04-16 18:30:00,METAR WIII 161830Z 18004KT 3500 BR SCT020 25/24 Q1009 NOSIG
2026-04-16 18:00:00,METAR WIII 161800Z 24004KT 4000 BR SCT020 26/25 Q1010 NOSIG
2026-04-16 17:30:00,METAR WIII 161730Z 28005KT 210V310 4500 BR FEW018CB SCT020 26/25 Q101 0 NOSIG RMK CB TO NW
2026-04-16 17:00:00,METAR WIII 161700Z 21006KT 7000 VCTS FEW018CB SCT020 26/25 Q1010 RETS NOSIG RMK CB TO NW
2026-04-16 16:30:00,METAR WIII 161630Z 18006KT 6000 TS FEW018CB SCT020 25/24 Q1011 NOSIG RMK CB TO N
2026-04-16 16:00:00,METAR WIII 161600Z 20005KT 6000 VCTS FEW018CB SCT020 25/24 Q1011 RETS NOSIG RMK CBTO NW
2026-04-16 15:30:00,METAR WIII 161530Z 19006KT 6000 TS FEW018CB SCT020 25/24 Q1010 BECMG FM1610 NSW RMK CB TO N
2026-04-16 15:00:00,METAR WIII 161500Z 20004KT 7000 VCTS FEW016CB SCT018 25/24 Q1010 NOSI G RMK CB TO W AND N
2026-04-16 14:30:00,METAR WIII 161430Z 33006KT 280V350 5000 -TSRA SCT013CB BKN015 25/24 Q1010 TEMPO FM1445 6000 TS RMK CB TO N AND NW
2026-04-16 14:15:00,SPECI WIII 161415Z 34008KT 330V060 1500 TSRA SCT011CB OVC013 25/24 Q1010 TEMPO TL1445 3000 RMK CB ALL RWY
2026-04-16 14:00:00,METAR WIII 161400Z 13014G28KT 0500 +TSRA SCT011CB OVC013 25/24 Q1010 WS ALL RWY TEMPO TL1430 0700 +TSRA RMK CB ALL RWY
2026-04-16 13:45:00,SPECI WIII 161345Z COR 14012G24KT 0400 +TSRA SCT013CB OVC015 26/25 Q1010 WS ALL RWY TEMPO TL1400 0250 +TSRA RMK CB ALL RWY
2026-04-16 13:36:00,SPECI WIII 161336Z 13011KT 0800 +TSRA SCT014CB OVC016 26/25 Q1010 TEMPO TL1430 1500 TSRA RMK CB ALL RWY
2026-04-16 13:30:00,METAR WIII 161330Z 15011KT 100V200 5000 -TSRA SCT015CB BKN017 26/25 Q1009 WS ALL RWY TEMPO TL1430 3000 TSRA RMK CB ALL RWY
2026-04-16 13:00:00,METAR WIII 161300Z 23006KT 6000 -RA FEW016CB SCT018 28/25 Q1009 TEMPO FM1305 3000 TSRA RMK CB TO S
2026-04-16 12:30:00,METAR WIII 161230Z VRB03KT 6000 FEW015CB SCT018 29/25 Q1009 RETS NOSI G RMK CB TO S
2026-04-16 12:04:00,SPECI WIII 161204Z 01003KT 330V040 6000 TS FEW015CB SCT018 29/26 Q1008 TEMPO TL1245 TS RMK CB TO S
2026-04-16 12:00:00,METAR WIII 161200Z 05005KT 7000 VCTS FEW015CB SCT018 29/25 Q1008 TEMPO TL1245 TS RMK CB TO S
2026-04-16 11:30:00,METAR WIII 161130Z 04005KT 7000 FEW020 29/25 Q1008 NOSIG
2026-04-16 11:00:00,METAR WIII 161100Z 05007KT 6000 FEW020 29/25 Q1006 NOSIG
2026-04-16 10:30:00,METAR WIII 161030Z 03007KT 7000 FEW020 30/25 Q1007 NOSIG
2026-04-16 10:00:00,METAR WIII 161000Z 03008KT 7000 FEW020 30/25 Q1007 NOSIG
2026-04-16 09:30:00,METAR WIII 160930Z 02010KT 7000 FEW020 31/25 Q1006 NOSIG
2026-04-16 09:00:00,METAR WIII 160900Z 03011KT 7000 FEW018 31/25 Q1006 NOSIG
2026-04-16 08:30:00,METAR WIII 160830Z 02010KT 7000 SCT018 31/24 Q1006 NOSIG
2026-04-16 08:00:00,METAR WIII 160800Z 04011KT 7000 SCT018 32/25 Q1006 NOSIG
2026-04-16 07:30:00,METAR WIII 160730Z 03010KT 7000 FEW015CB SCT018 31/24 Q1006 NOSIG RMK CB TO S
2026-04-16 07:00:00,METAR WIII 160700Z 03011KT 7000 FEW015CB SCT018 32/25 Q1007 NOSIG RMK CB IN APCH
2026-04-16 06:30:00,METAR WIII 160630Z 04011KT 7000 VCTS FEW018CB FEW020 32/25 Q1007 RETS TEMPO TL0645 TS RMK CB TO W
2026-04-16 06:00:00,METAR WIII 160600Z 04012KT 7000 TS FEW018CB FEW020 32/25 Q1007 BECMG AT0645 NSW RMK CB TO SW
2026-04-16 05:30:00,METAR WIII 160530Z 04011KT 7000 FEW020 32/25 Q1008 NOSIG
2026-04-16 05:00:00,METAR WIII 160500Z 05008KT 7000 FEW020 32/25 Q1008 NOSIG
2026-04-16 04:30:00,METAR WIII 160430Z 07007KT 7000 FEW020 32/25 Q1009 NOSIG
2026-04-16 04:00:00,METAR WIII 160400Z 07006KT 7000 FEW020 32/25 Q1009 NOSIG
2026-04-16 03:30:00,METAR WIII 160330Z 04006KT 8000 FEW020 32/25 Q1010 NOSIG
2026-04-16 03:00:00,METAR WIII 160300Z 04006KT 8000 FEW020 31/25 Q1010 NOSIG
2026-04-16 02:30:00,METAR WIII 160230Z 06005KT 020V090 6000 FEW020 31/25 Q1010 NOSIG
2026-04-16 02:00:00,METAR WIII 160200Z VRB02KT 5000 HZ FEW020 30/25 Q1010 NOSIG
2026-04-16 01:30:00,METAR WIII 160130Z VRB03KT 5000 HZ FEW020 29/24 Q1010 NOSIG
2026-04-16 01:00:00,METAR WIII 160100Z VRB03KT 4500 HZ FEW020 29/25 Q1010 NOSIG
2026-04-16 00:30:00,METAR WIII 160030Z 19003KT 4700 HZ FEW020 28/25 Q1009 NOSIG
2026-04-16 00:00:00,METAR WIII 160000Z 19006KT 3500 HZ FEW020 26/25 Q1009 NOSIG
2026-04-15 23:30:00,METAR WIII 152330Z 16005KT 3500 BR FEW020 26/25 Q1008 NOSIG
2026-04-15 23:00:00,METAR WIII 152300Z 18003KT 3500 BR FEW020 26/24 Q1008 NOSIG
2026-04-15 22:30:00,METAR WIII 152230Z 17004KT 5000 BR FEW020 26/25 Q1008 NOSIG
2026-04-15 22:00:00,METAR WIII 152200Z 19002KT 6000 SCT020 26/24 Q1008 NOSIG
2026-04-15 21:30:00,METAR WIII 152130Z 17005KT 6000 SCT020 26/24 Q1008 NOSIG
2026-04-15 21:00:00,METAR WIII 152100Z 22002KT 5000 BR SCT020 26/25 Q1008 NOSIG
2026-04-15 20:30:00,METAR WIII 152030Z 20003KT 5000 BR SCT020 26/25 Q1008 NOSIG
2026-04-15 20:00:00,METAR WIII 152000Z 27002KT 3500 BR SCT020 26/25 Q1008 NOSIG
2026-04-15 19:30:00,METAR WIII 151930Z 24003KT 3000 BR SCT020 26/24 Q1008 NOSIG
2026-04-15 19:00:00,METAR WIII 151900Z 25005KT 5000 HZ SCT020 26/25 Q1008 NOSIG
2026-04-15 18:30:00,METAR WIII 151830Z 25004KT 6000 SCT020 26/25 Q1009 NOSIG
2026-04-15 18:00:00,METAR WIII 151800Z 28004KT 230V320 7000 BKN020 27/24 Q1009 NOSIG
2026-04-15 17:30:00,METAR WIII 151730Z 33004KT 220V330 7000 BKN020 27/24 Q1010 NOSIG
2026-04-15 17:00:00,METAR WIII 151700Z 17003KT 120V220 8000 BKN020 27/24 Q1010 NOSIG
2026-04-15 16:30:00,METAR WIII 151630Z VRB02KT 6000 BKN020 26/24 Q1010 NOSIG
2026-04-15 16:00:00,METAR WIII 151600Z VRB01KT 6000 BKN020 26/25 Q1010 NOSIG
2026-04-15 15:30:00,METAR WIII 151530Z COR VRB02KT 6000 BKN020 26/24 Q1010 RERA NOSIG
2026-04-15 15:00:00,METAR WIII 151500Z COR VRB01KT 4500 -RA FEW018CB SCT020 26/25 Q1010 RETS BECMG FM1520 NSW RMK CB TO N
2026-04-15 14:30:00,METAR WIII 151430Z VRB01KT 5000 -TSRA FEW019CB SCT020 26/25 Q1010 TEM PO FM1500 6000 TS RMK CB ALL RWY
2026-04-15 14:00:00,METAR WIII 151400Z VRB02KT 5000 -TSRA FEW018CB SCT020 26/25 Q1010 TEMPO FM1430 6000 TS RMK CB ALL RWY
2026-04-15 13:30:00,METAR WIII 151330Z 18004KT 140V220 6000 TS FEW018CB SCT020 26/25 Q100 9 TEMPO FM1345 4000 TSRA RMK CB ALL RWY
2026-04-15 13:00:00,METAR WIII 151300Z 18010KT 7000 FEW018CB SCT020 26/25 Q1009 RERA NOSI G
2026-04-15 12:30:00,METAR WIII 151230Z 18010KT 150V230 4000 RA FEW018CB BKN020 26/25 Q100 9 NOSIG RMK CB TO E AND W
2026-04-15 12:12:00,SPECI WIII 151212Z 17010KT 130V220 6000 -RA FEW018CB SCT019 27/24 Q1009 NOSIG RMK CB TO SE
2026-04-15 12:00:00,METAR WIII 151200Z 17010KT 6000 -TSRA FEW018CB BKN019 27/24 Q1009 TEMPO FM1210 4000 TSRA RMK CB TO SW AND SE
2026-04-15 11:47:00,SPECI WIII 151147Z COR 20008KT 170V230 8000 TS FEW018CB BKN019 27/24 Q1009 TEMPO FM1200 4000 TSRA RMK CB TO SW AND SE
2026-04-15 11:30:00,METAR WIII 151130Z 30005KT 230V330 8000 VCTS FEW018CB SCT020 29/2 5 Q1008 TEMPO FM1200 4000 TSRA RMK CB TO SW AND SE
2026-04-15 11:00:00,METAR WIII 151100Z 35005KT 320V020 8000 VCTS FEW018CB SCT020 29/25 Q1008 TEMPO FM1140 4000 TSRA RMK CB TO SW AND SE
2026-04-15 10:48:00,SPECI WIII 151048Z 35007KT 7000 VCTS FEW018CB SCT026 29/25 Q1008 NOSIG RMK CB TO SW AND SE
2026-04-15 10:30:00,METAR WIII 151030Z 01007KT 8000 FEW018CB SCT020 30/25 Q1008 TEMPO FM1 040 TS RMK CB TO SW AND SE
2026-04-15 10:00:00,METAR WIII 151000Z 36010KT 9999 VCTS FEW018CB SCT020 30/26 Q1007 NOSI G RMK CB TO SW AND SE
2026-04-15 09:30:00,METAR WIII 150930Z 36011KT 9999 FEW018CB SCT020 31/25 Q1007 NOSIG RMK CB TO SW AND SE
2026-04-15 09:16:00,SPECI WIII 150916Z 01010KT 340V040 9999 VCTS FEW018CB SCT020 31/25 Q1007 NOSIG RMK CB TO SW AND SE
2026-04-15 09:00:00,METAR WIII 150900Z 01010KT 9999 SCT020 31/25 Q1007 NOSIG
2026-04-15 08:30:00,METAR WIII 150830Z 36009KT 9999 SCT020 32/25 Q1007 NOSIG
2026-04-15 08:00:00,METAR WIII 150800Z 02006KT 9999 FEW020 32/24 Q1006 NOSIG
2026-04-15 07:30:00,METAR WIII 150730Z 02011KT 9999 FEW020 32/24 Q1006 NOSIG
2026-04-15 07:00:00,METAR WIII 150700Z 01011KT 9999 FEW020 32/24 Q1007 NOSIG
2026-04-15 06:30:00,METAR WIII 150630Z 01011KT 9999 FEW020 32/23 Q1007 NOSIG
2026-04-15 06:00:00,METAR WIII 150600Z 02010KT 9999 FEW020 32/24 Q1007 NOSIG
2026-04-15 05:30:00,METAR WIII 150530Z 34010KT 9999 FEW020 33/23 Q1008 NOSIG
2026-04-15 05:00:00,METAR WIII 150500Z 35006KT 9999 FEW020 32/23 Q1008 NOSIG
2026-04-15 04:30:00,METAR WIII 150430Z 34006KT 330V030 9000 FEW020 32/23 Q1009 NOSIG
2026-04-15 04:00:00,METAR WIII 150400Z 35005KT 9999 FEW020 32/23 Q1009 NOSIG
2026-04-15 03:30:00,METAR WIII 150330Z 30005KT 240V340 9000 FEW020 31/23 Q1010 NOSIG
2026-04-15 03:00:00,METAR WIII 150300Z 26006KT 170V310 8000 FEW020 31/23 Q1010 NOSIG
2026-04-15 02:30:00,METAR WIII 150230Z 27005KT 6000 FEW020 31/24 Q1010 NOSIG
2026-04-15 02:00:00,METAR WIII 150200Z 26006KT 5000 HZ FEW020 30/25 Q1010 NOSIG
2026-04-15 01:30:00,METAR WIII 150130Z 24006KT 4500 HZ FEW020 29/25 Q1010 NOSIG
2026-04-15 01:00:00,METAR WIII 150100Z 22005KT 4500 HZ FEW020 28/24 Q1010 NOSIG
2026-04-15 00:30:00,METAR WIII 150030Z VRB02KT 4000 HZ FEW020 27/24 Q1010 NOSIG
2026-04-15 00:00:00,METAR WIII 150000Z VRB02KT 5000 HZ FEW020 26/24 Q1010 NOSIG
2026-04-14 23:30:00,METAR WIII 142330Z COR VRB04KT 5000 HZ FEW020 26/24 Q1009 NOSIG
2026-04-14 23:00:00,METAR WIII 142300Z 20004KT 5000 BR FEW020 26/24 Q1009 NOSIG
2026-04-14 22:30:00,METAR WIII 142230Z 17002KT 6000 FEW020 26/24 Q1008 NOSIG
2026-04-14 22:00:00,METAR WIII 142200Z VRB01KT 6000 SCT020 26/24 Q1008 NOSIG
2026-04-14 21:30:00,METAR WIII 142130Z 22003KT 150V260 5000 HZ SCT020 26/24 Q1008 NOSIG
2026-04-14 21:00:00,METAR WIII 142100Z 21004KT 5000 HZ FEW018CB SCT020 26/24 Q1009 NOSIG RMK CB TO S
2026-04-14 20:30:00,METAR WIII 142030Z 21005KT 5000 HZ FEW018CB SCT020 26/24 Q1009 NOSIG RMK CB TO S
2026-04-14 20:00:00,METAR WIII 142000Z 22004KT 6000 FEW018CB SCT020 26/24 Q1009 TEMPO FM2 010 3000 TSRA RMK CB TO SW
2026-04-14 19:30:00,METAR WIII 141930Z 20003KT 160V230 8000 SCT020 26/24 Q1009 NOSIG
2026-04-14 19:00:00,METAR WIII 141900Z 19007KT 150V230 8000 SCT020 26/24 Q1009 NOSIG
2026-04-14 18:30:00,METAR WIII 141830Z 16007KT 6000 FEW018CB FEW020 26/23 Q1009 NOSIG RMK CB TO W
2026-04-14 18:00:00,METAR WIII 141800Z 15004KT 6000 FEW018CB FEW020 26/23 Q1010 NOSIG RMK CB TO NW
2026-04-14 17:30:00,METAR WIII 141730Z 18004KT 6000 FEW018CB FEW020 26/23 Q1010 NOSIG RMK CB TO W
2026-04-14 17:00:00,METAR WIII 141700Z 18007KT 6000 FEW020 26/23 Q1010 NOSIG
2026-04-14 16:30:00,METAR WIII 141630Z 17007KT 6000 FEW020 26/23 Q1011 NOSIG
2026-04-14 16:00:00,METAR WIII 141600Z 15004KT 6000 FEW020 27/23 Q1011 NOSIG
2026-04-14 15:30:00,METAR WIII 141530Z 15006KT 7000 FEW020 26/23 Q1010 NOSIG
2026-04-14 15:00:00,METAR WIII 141500Z 13006KT 7000 SCT020 27/23 Q1011 NOSIG
2026-04-14 14:30:00,METAR WIII 141430Z 12010KT 7000 SCT020 27/23 Q1011 NOSIG
2026-04-14 14:00:00,METAR WIII 141400Z 12010KT 7000 SCT020 27/23 Q1010 NOSIG
2026-04-14 13:30:00,METAR WIII 141330Z 13008KT 7000 VCTS FEW018CB FEW020 27/23 Q1010 NOSIG RMK CB TO NW
2026-04-14 13:00:00,METAR WIII 141300Z 13008KT 8000 FEW020 27/22 Q1010 NOSIG
2026-04-14 12:30:00,METAR WIII 141230Z 14007KT 8000 SCT020 26/22 Q1009 NOSIG
2026-04-14 12:00:00,METAR WIII 141200Z 15008KT 130V210 8000 SCT020 26/23 Q1009 NOSIG
2026-04-14 11:30:00,METAR WIII 141130Z 15007KT 130V190 8000 SCT020 27/23 Q1009 NOSIG
2026-04-14 05:00:00,METAR WIII 140500Z 04008KT 8000 FEW019CB SCT020 33/25 Q1010 TEMPO FM0510 TS RMK CB TO S
2026-04-14 04:30:00,METAR WIII 140430Z 05008KT 8000 SCT020 33/25 Q1010 NOSIG
2026-04-14 04:00:00,METAR WIII 140400Z 03008KT 010V080 8000 FEW020 33/25 Q1010 NOSIG
2026-04-14 03:30:00,METAR WIII 140330Z 07007KT 050V120 8000 SCT020 33/24 Q1011 NOSIG
2026-04-14 03:00:00,METAR WIII 140300Z 06007KT 8000 SCT020 32/25 Q1011 NOSIG
2026-04-14 02:30:00,METAR WIII 140230Z 05006KT 030V120 8000 SCT020 32/25 Q1011 NOSIG
2026-04-14 02:00:00,METAR WIII 140200Z 12005KT 8000 FEW020 31/25 Q1011 NOSIG
2026-04-14 01:30:00,METAR WIII 140130Z 12005KT 8000 FEW020 31/25 Q1011 NOSIG
2026-04-14 01:00:00,METAR WIII 140100Z 13003KT 8000 FEW020 29/25 Q1011 NOSIG
2026-04-14 00:30:00,METAR WIII 140030Z VRB03KT 5000 HZ FEW020 29/25 Q1010 NOSIG
2026-04-14 00:00:00,METAR WIII 140000Z VRB03KT 5000 HZ FEW020 28/25 Q1010 NOSIG
2026-04-13 23:30:00,METAR WIII 132330Z VRB02KT 5000 HZ FEW020 27/25 Q1010 NOSIG
2026-04-13 23:00:00,METAR WIII 132300Z VRB02KT 5000 HZ FEW020 27/25 Q1010 NOSIG
2026-04-13 22:30:00,METAR WIII 132230Z VRB02KT 8000 SCT020 27/25 Q1009 NOSIG
2026-04-13 22:00:00,METAR WIII 132200Z VRB03KT 8000 SCT020 27/25 Q1009 NOSIG
2026-04-13 21:30:00,METAR WIII 132130Z VRB03KT 7000 SCT020 27/25 Q1009 NOSIG
2026-04-13 21:00:00,METAR WIII 132100Z VRB02KT 8000 SCT020 27/25 Q1009 NOSIG
2026-04-13 20:30:00,METAR WIII 132030Z 19002KT 8000 SCT020 27/25 Q1009 NOSIG
2026-04-13 20:00:00,METAR WIII 132000Z VRB02KT 8000 SCT020 27/25 Q1009 NOSIG
2026-04-13 19:30:00,METAR WIII 131930Z 18004KT 8000 SCT020 27/25 Q1009 NOSIG
2026-04-13 19:00:00,METAR WIII 131900Z 17004KT 8000 SCT020 27/25 Q1009 NOSIG
2026-04-13 18:30:00,METAR WIII 131830Z 17006KT 8000 SCT020 27/25 Q1009 NOSIG
2026-04-13 18:00:00,METAR WIII 131800Z 17006KT 8000 BKN022 27/25 Q1010 NOSIG
2026-04-13 17:30:00,METAR WIII 131730Z 22007KT 7000 SCT020 26/25 Q1010 NOSIG
2026-04-13 17:00:00,METAR WIII 131700Z 16005KT 8000 SCT020 27/25 Q1010 NOSIG
2026-04-13 16:30:00,METAR WIII 131630Z 15004KT 8000 SCT020 27/25 Q1010 NOSIG
2026-04-13 16:00:00,METAR WIII 131600Z 16007KT 8000 SCT020 27/25 Q1011 NOSIG
2026-04-13 15:30:00,METAR WIII 131530Z 17007KT 7000 SCT020 27/25 Q1011 NOSIG
2026-04-13 15:00:00,METAR WIII 131500Z 18004KT 8000 SCT020 27/25 Q1011 NOSIG
2026-04-13 14:30:00,METAR WIII 131430Z 21003KT 9999 SCT020 27/25 Q1010 NOSIG
2026-04-13 14:00:00,METAR WIII 131400Z 18007KT 9000 BKN022 27/25 Q1010 NOSIG
2026-04-13 13:30:00,METAR WIII 131330Z 19008KT 8000 FEW018CB BKN022 28/25 Q1010 NOSIG RMK CB TO SE
2026-04-13 13:00:00,METAR WIII 131300Z 08005KT 8000 VCTS FEW018CB SCT020 29/25 Q1010 NOSI G RMK CB TO SE AND NW
2026-04-13 12:30:00,METAR WIII 131230Z 05008KT 8000 FEW020 29/25 Q1010 NOSIG
2026-04-13 12:00:00,METAR WIII 131200Z 03007KT 8000 FEW020 29/25 Q1010 NOSIG
2026-04-13 11:30:00,METAR WIII 131130Z 05007KT 8000 FEW020 29/26 Q1009 NOSIG
2026-04-13 11:00:00,METAR WIII 131100Z 01006KT 340V040 8000 VCTS FEW017CB SCT020 30/25 Q1009 NOSIG RMK CB TO W
2026-04-13 10:30:00,METAR WIII 131030Z 02009KT 8000 VCTS FEW017CB SCT020 30/24 Q1008 NOSIG RMK CB TO SW
2026-04-13 10:00:00,METAR WIII 131000Z 04010KT 8000 FEW017CB SCT020 30/25 Q1008 NOSIG RMK CB TO SW
2026-04-13 09:30:00,METAR WIII 130930Z 04013KT 8000 VCTS FEW017CB FEW020 31/25 Q1007 TEMPO FM0935 5000 RA RMK CB TO SW
2026-04-13 09:00:00,METAR WIII 130900Z 04009KT 9999 FEW022 31/26 Q1006 NOSIG
2026-04-13 08:30:00,METAR WIII 130830Z 05009KT 9999 FEW022 31/26 Q1007 NOSIG
2026-04-13 08:00:00,METAR WIII 130800Z 04009KT 9999 FEW022 32/26 Q1006 NOSIG
2026-04-13 07:30:00,METAR WIII 130730Z 02009KT 360V060 9999 FEW022 32/26 Q1007 NOSIG
2026-04-13 07:00:00,METAR WIII 130700Z 04007KT 350V070 9999 FEW020 33/26 Q1007 NOSIG
2026-04-13 06:30:00,METAR WIII 130630Z 03008KT 9999 FEW020 32/25 Q1008 NOSIG
2026-04-13 06:00:00,METAR WIII 130600Z 05010KT 9999 FEW020 32/25 Q1008 NOSIG
2026-04-13 05:30:00,METAR WIII 130530Z 03010KT 9999 FEW020 32/26 Q1009 NOSIG
2026-04-13 05:00:00,METAR WIII 130500Z 03008KT 9999 FEW020 32/25 Q1010 NOSIG
2026-04-13 04:30:00,METAR WIII 130430Z 04011KT 9999 SCT020 32/25 Q1010 NOSIG
2026-04-13 04:00:00,METAR WIII 130400Z 05010KT 9999 SCT020 32/25 Q1010 NOSIG
2026-04-13 03:30:00,METAR WIII 130330Z 05010KT 9999 SCT020 31/25 Q1011 NOSIG
2026-04-13 03:00:00,METAR WIII 130300Z 05006KT 9999 SCT020 31/26 Q1011 NOSIG
2026-04-13 02:30:00,METAR WIII 130230Z 06006KT 9999 SCT020 31/26 Q1011 NOSIG
2026-04-13 02:00:00,METAR WIII 130200Z 07005KT 8000 FEW020 30/25 Q1011 NOSIG
2026-04-13 01:30:00,METAR WIII 130130Z 09005KT 7000 FEW020 30/25 Q1011 NOSIG
2026-04-13 01:00:00,METAR WIII 130100Z VRB02KT 7000 FEW020 29/24 Q1011 NOSIG
2026-04-13 00:30:00,METAR WIII 130030Z VRB01KT 8000 NSC 28/24 Q1011 NOSIG
2026-04-13 00:00:00,METAR WIII 130000Z VRB01KT 5000 HZ FEW020 27/25 Q1011 NOSIG
2026-04-12 23:30:00,METAR WIII 122330Z VRB01KT 4000 HZ FEW020 25/24 Q1010 NOSIG
2026-04-12 23:00:00,METAR WIII 122300Z VRB01KT 5000 HZ FEW020 26/24 Q1010 NOSIG
2026-04-12 22:30:00,METAR WIII 122230Z 26001KT 5000 HZ FEW020 26/24 Q1010 NOSIG
2026-04-12 22:00:00,METAR WIII 122200Z VRB02KT 8000 FEW020 26/24 Q1009 NOSIG
2026-04-12 21:30:00,METAR WIII 122130Z 20003KT 8000 FEW020 26/25 Q1009 NOSIG
2026-04-12 21:00:00,METAR WIII 122100Z 18004KT 7000 FEW020 26/25 Q1009 NOSIG
2026-04-12 20:30:00,METAR WIII 122030Z 16004KT 8000 FEW020 26/25 Q1009 NOSIG
2026-04-12 20:00:00,METAR WIII 122000Z 18003KT 8000 FEW020 26/25 Q1009 NOSIG
2026-04-12 19:30:00,METAR WIII 121930Z 18003KT 8000 FEW020 26/25 Q1009 NOSIG
2026-04-12 19:00:00,METAR WIII 121900Z VRB02KT 8000 FEW020 26/25 Q1009 NOSIG
2026-04-12 18:30:00,METAR WIII 121830Z 14003KT 9999 FEW020 27/25 Q1009 NOSIG
2026-04-12 18:00:00,METAR WIII 121800Z 16003KT 9999 FEW020 27/25 Q1010 NOSIG
2026-04-12 17:30:00,METAR WIII 121730Z 15002KT 9999 FEW020 27/25 Q1010 NOSIG
2026-04-12 17:00:00,METAR WIII 121700Z VRB02KT 9999 FEW020 27/26 Q1011 NOSIG
2026-04-12 16:30:00,METAR WIII 121630Z VRB02KT 9999 FEW020 27/25 Q1011 NOSIG
2026-04-12 16:00:00,METAR WIII 121600Z VRB02KT 9999 FEW020 27/25 Q1011 NOSIG
2026-04-12 15:00:00,METAR WIII 121500Z VRB02KT 7000 -RA SCT020 26/25 Q1011 NOSIG
2026-04-12 14:30:00,METAR WIII 121430Z 08004KT 5000 -RA BKN020 26/25 Q1011 NOSIG
2026-04-12 14:00:00,METAR WIII 121400Z 25004KT 5000 -RA BKN018 26/25 Q1011 RETSRA NOSIG
2026-04-12 13:30:00,METAR WIII 121330Z 36004KT 5000 -TSRA FEW018CB SCT020 26/25 Q1011 BEC MG FM1350 7000 NSW RMK CB TO NE
2026-04-12 13:00:00,METAR WIII 121300Z 18003KT 5000 -TSRA FEW018CB SCT020 26/24 Q1011 BEC MG FM1325 7000 NSW RMK CB TO E
2026-04-12 12:30:00,METAR WIII 121230Z 29011KT 5000 -TSRA FEW018CB SCT020 27/25 Q1010 TEM PO FM1240 3000 TSRA RMK CB TO NW
2026-04-12 12:00:00,METAR WIII 121200Z 30011KT 280V360 5000 -TSRA FEW018CB SCT020 28/26 Q1009 TEMPO FM1220 3000 TSRA RMK CB TO NW
2026-04-12 11:30:00,METAR WIII 121130Z 03005KT 5000 -TSRA FEW018CB SCT020 28/25 Q1008 NOSIG RMK CB TO W
2026-04-12 11:00:00,METAR WIII 121100Z 08008KT 5000 -TSRA FEW018CB SCT020 28/24 Q1008 TEMPO FM1110 3000 TSRA RMK CB TO SW
2026-04-12 10:37:00,SPECI WIII 121037Z 08008KT 6000 -TSRA FEW018CB BKN020 29/25 Q1008 TEMPO FM1050 3000 TSRA RMK CB TO E AND SW
2026-04-12 10:30:00,METAR WIII 121030Z 06007KT 8000 VCTS FEW018CB SCT020 30/26 Q1008 NOSI G RMK CB TO E
2026-04-12 10:00:00,METAR WIII 121000Z 03006KT 340V060 9000 VCTS FEW018CB FEW020 30/26 Q1007 NOSIG RMK CB TO SE
2026-04-12 09:30:00,METAR WIII 120930Z 32007KT 9000 VCTS FEW018CB FEW020 30/26 Q1007 NOSI G RMK CB TO E
2026-04-12 09:00:00,METAR WIII 120900Z 34008KT 9000 FEW018CB FEW020 31/26 Q1006 NOSIG RMK CB TO E
2026-04-12 08:30:00,METAR WIII 120830Z 33008KT 9999 FEW020 32/26 Q1006 NOSIG
2026-04-12 08:00:00,METAR WIII 120800Z 32008KT 9999 FEW020 33/26 Q1006 NOSIG
2026-04-12 07:30:00,METAR WIII 120730Z 29008KT 280V350 9999 FEW020 33/26 Q1006 NOSIG
2026-04-12 07:00:00,METAR WIII 120700Z 32008KT 9999 FEW020 33/26 Q1007 NOSIG
2026-04-12 06:30:00,METAR WIII 120630Z 31005KT 260V010 8000 SCT020 33/25 Q1007 NOSIG
2026-04-12 06:00:00,METAR WIII 120600Z 27004KT 220V320 8000 SCT020 32/24 Q1008 NOSIG
2026-04-12 05:30:00,METAR WIII 120530Z 27007KT 230V310 8000 SCT020 33/25 Q1008 NOSIG
2026-04-12 05:00:00,METAR WIII 120500Z 28006KT 230V310 8000 SCT020 32/25 Q1009 NOSIG
2026-04-12 04:30:00,METAR WIII 120430Z 26003KT 210V300 8000 SCT020 33/24 Q1009 NOSIG
2026-04-12 04:00:00,METAR WIII 120400Z VRB03KT 8000 SCT020 32/24 Q1010 NOSIG
2026-04-12 03:30:00,METAR WIII 120330Z VRB02KT 7000 SCT020 32/24 Q1010 NOSIG
2026-04-12 03:00:00,METAR WIII 120300Z 23002KT 7000 FEW020 31/24 Q1011 NOSIG
2026-04-12 02:30:00,METAR WIII 120230Z 25004KT 190V290 7000 FEW020 31/25 Q1011 NOSIG
2026-04-12 02:00:00,METAR WIII 120200Z 25006KT 210V280 7000 FEW020 30/25 Q1012 NOSIG
2026-04-12 01:30:00,METAR WIII 120130Z 26005KT 230V290 7000 FEW020 30/25 Q1012 NOSIG
2026-04-12 01:00:00,METAR WIII 120100Z 24005KT 210V270 7000 FEW020 28/25 Q1011 NOSIG
2026-04-12 00:30:00,METAR WIII 120030Z 25004KT 5000 HZ FEW020 27/25 Q1011 NOSIG
2026-04-12 00:00:00,METAR WIII 120000Z 23003KT 4000 HZ FEW020 26/25 Q1011 NOSIG
2026-04-11 23:30:00,METAR WIII 112330Z COR 18002KT 4000 BR FEW020 25/24 Q1010 NOSIG
2026-04-11 23:00:00,METAR WIII 112300Z 20002KT 5000 BR FEW020 25/24 Q1010 NOSIG
2026-04-11 22:30:00,METAR WIII 112230Z VRB02KT 5000 BR FEW020 25/24 Q1010 NOSIG
2026-04-11 22:00:00,METAR WIII 112200Z VRB02KT 5000 BR FEW020 25/24 Q1010 NOSIG
2026-04-11 21:30:00,METAR WIII 112130Z VRB02KT 7000 FEW020 25/24 Q1010 NOSIG
2026-04-11 21:00:00,METAR WIII 112100Z VRB02KT 8000 FEW020 25/24 Q1009 NOSIG
2026-04-11 20:30:00,METAR WIII 112030Z 24003KT 9999 FEW020 25/24 Q1009 NOSIG
2026-04-11 20:00:00,METAR WIII 112000Z VRB02KT 9000 FEW020 26/24 Q1009 NOSIG
2026-04-11 19:30:00,METAR WIII 111930Z VRB02KT 9000 SCT020 26/24 Q1009 NOSIG
2026-04-11 19:00:00,METAR WIII 111900Z 21004KT 9000 SCT020 26/24 Q1010 NOSIG
2026-04-11 18:30:00,METAR WIII 111830Z 17004KT 110V210 8000 SCT020 26/24 Q1010 NOSIG
2026-04-11 18:00:00,METAR WIII 111800Z 16004KT 130V190 8000 SCT020 26/24 Q1011 NOSIG
2026-04-11 17:30:00,METAR WIII 111730Z 16005KT 8000 SCT020 OVC140 26/24 Q1011 NOSIG
2026-04-11 17:00:00,METAR WIII 111700Z 14005KT 110V170 8000 SCT020 26/24 Q1012 RERA NOSIG
2026-04-11 16:30:00,METAR WIII 111630Z 14005KT 110V170 7000 -RA FEW018CB SCT020 26/25 Q1012 NOSIG RMK CB TO SE
2026-04-11 16:00:00,METAR WIII 111600Z 15009KT 130V190 6000 -RA FEW018CB SCT020 27/25 Q10 12 NOSIG RMK CB TO NE
2026-04-11 15:30:00,METAR WIII 111530Z 15009KT 120V190 6000 FEW018CB SCT020 27/25 Q1012 N OSIG RMK CB TO NE
2026-04-11 15:00:00,METAR WIII 111500Z 15004KT 120V180 6000 FEW018CB SCT020 27/25 Q1012 RERA NOSIG RMK CB TO NE
2026-04-11 14:30:00,METAR WIII 111430Z 15006KT 6000 -RA FEW018CB SCT020 28/26 Q1012 NOSIG RMK CB TO SE AND NE
2026-04-11 14:00:00,METAR WIII 111400Z 18005KT 7000 -RA FEW018CB SCT020 28/25 Q1012 NOSIG RMK CB TO SE
2026-04-11 13:30:00,METAR WIII 111330Z 18005KT 140V220 6000 -RA FEW018CB SCT020 28/25 Q10 12 NOSIG RMK CB TO S
2026-04-11 13:18:00,SPECI WIII 111318Z 17003KT 140V210 6000 -RA FEW018CB SCT020 28/25 Q1012 NOSIG RMK CB TO SE
2026-04-11 13:00:00,METAR WIII 111300Z 20002KT 7000 FEW018CB SCT020 29/25 Q1012 NOSIG RMK CB TO SE
2026-04-11 12:30:00,METAR WIII 111230Z VRB02KT 6000 FEW018CB SCT020 29/25 Q1011 NOSIG RMK CB TO SE
2026-04-11 12:00:00,METAR WIII 111200Z 26004KT 8000 FEW018CB FEW020 28/25 Q1010 NOSIG RMK CB TO SE
2026-04-11 11:30:00,METAR WIII 111130Z 29003KT 7000 FEW020 29/25 Q1009 NOSIG
2026-04-11 11:00:00,METAR WIII 111100Z 26004KT 7000 FEW018CB FEW020 29/25 Q1009 NOSIG RMK CB TO SE
2026-04-11 10:30:00,METAR WIII 111030Z 28007KT 9999 FEW018CB FEW020 29/25 Q1009 NOSIG RMK CB TO SE
2026-04-11 10:00:00,METAR WIII 111000Z 30007KT 9999 SCT020 30/25 Q1008 NOSIG
2026-04-11 09:30:00,METAR WIII 110930Z 31006KT 9999 SCT190 29/25 Q1008 NOSIG
2026-04-11 09:00:00,METAR WIII 110900Z COR 30008KT 9999 SCT020 29/25 Q1007 RERA NOSIG
2026-04-11 08:30:00,METAR WIII 110830Z 30010KT 8000 -RA FEW018CB SCT020 29/25 Q1008 RETS BECMG FM0845 NSW RMK CB TO SE
2026-04-11 08:13:00,SPECI WIII 110813Z 29010KT 8000 -TSRA FEW016CB SCT020 29/25 Q1008 TEMPO FM0830 -RA RMK CB TO S
2026-04-11 08:00:00,METAR WIII 110800Z 30010KT 8000 TS FEW016CB SCT020 30/25 Q1008 TEMPO FM0815 3000 TSRA RMK CB TO S
2026-04-11 07:30:00,METAR WIII 110730Z 32013KT 8000 TS SCT016CB SCT020 31/25 Q1008 TEMPO FM0735 33012G25KT 3000 TSRA RMK CB TO S
2026-04-11 07:04:00,SPECI WIII 110704Z 32012KT 9000 TS FEW018CB FEW020 33/25 Q1008 TEMPO FM0720 3000 TSRA RMK CB TO S
2026-04-11 07:00:00,METAR WIII 110700Z 32012KT 9999 FEW018CB FEW020 33/25 Q1008 TEMPO FM0 720 3000 TSRA RMK CB TO W
2026-04-11 06:30:00,METAR WIII 110630Z 33010KT 290V020 9999 SCT020 33/26 Q1008 NOSIG
2026-04-11 06:00:00,METAR WIII 110600Z 30005KT 250V340 9999 SCT020 33/24 Q1009 NOSIG
2026-04-11 05:30:00,METAR WIII 110530Z 28006KT 210V330 9999 FEW020 33/24 Q1009 NOSIG
2026-04-11 05:00:00,METAR WIII 110500Z 32005KT 280V070 9999 SCT020 32/24 Q1010 NOSIG
2026-04-11 04:30:00,METAR WIII 110430Z 25005KT 210V310 9999 SCT020 32/24 Q1010 NOSIG
2026-04-11 04:00:00,METAR WIII 110400Z 28004KT 9999 SCT020 32/23 Q1011 NOSIG
2026-04-11 03:00:00,METAR WIII 110300Z 25003KT 160V320 9999 SCT020 31/24 Q1012 NOSIG
2026-04-11 02:30:00,METAR WIII 110230Z 25004KT 9999 FEW020 31/24 Q1011 NOSIG
2026-04-11 02:00:00,METAR WIII 110200Z 22005KT 9999 FEW020 30/24 Q1012 NOSIG
2026-04-11 01:30:00,METAR WIII 110130Z 20005KT 150V250 8000 FEW020 29/24 Q1012 NOSIG
2026-04-11 01:00:00,METAR WIII 110100Z 18005KT 140V220 6000 FEW020 28/24 Q1012 NOSIG
2026-04-11 00:30:00,METAR WIII 110030Z 17005KT 6000 VCTS FEW018CB SCT020 28/24 Q1011 NOSIG RMK CB TO N
2026-04-11 00:00:00,METAR WIII 110000Z 16005KT 5000 VCTS FEW018CB SCT020 26/25 Q1011 NOSIG RMK CB TO N
2026-04-10 23:30:00,METAR WIII 102330Z 17007KT 5000 VCTS FEW018CB SCT020 26/24 Q1011 NOSIG RMK CB TO N
2026-04-10 23:00:00,METAR WIII 102300Z 18007KT 6000 SCT020 26/24 Q1010 NOSIG
2026-04-10 22:30:00,METAR WIII 102230Z 18008KT 6000 FEW020 26/23 Q1010 NOSIG
2026-04-10 22:00:00,METAR WIII 102200Z 17005KT 5000 HZ SCT020 26/24 Q1010 NOSIG
2026-04-10 21:30:00,METAR WIII 102130Z 19003KT 5000 BR FEW020 26/24 Q1010 NOSIG
2026-04-10 21:00:00,METAR WIII 102100Z 21001KT 5000 BR FEW020 25/24 Q1009 NOSIG
2026-04-10 20:30:00,METAR WIII 102030Z 22001KT 4000 BR FEW020 25/24 Q1009 NOSIG
2026-04-10 20:00:00,METAR WIII 102000Z 15002KT 4500 HZ FEW020 25/24 Q1009 NOSIG
2026-04-10 19:30:00,METAR WIII 101930Z 30002KT 6000 FEW020 26/24 Q1009 NOSIG
2026-04-10 19:00:00,METAR WIII 101900Z 27002KT 8000 FEW020 26/24 Q1009 NOSIG
2026-04-10 18:30:00,METAR WIII 101830Z VRB02KT 9000 FEW020 26/24 Q1010 NOSIG
2026-04-10 18:00:00,METAR WIII 101800Z 25003KT 9000 FEW020 26/24 Q1011 NOSIG
2026-04-10 17:30:00,METAR WIII 101730Z 24003KT 9000 FEW020 26/24 Q1011 NOSIG
2026-04-10 17:00:00,METAR WIII 101700Z 23003KT 9999 FEW020 27/24 Q1011 NOSIG
2026-04-10 16:30:00,METAR WIII 101630Z 25005KT 9000 FEW020 27/24 Q1012 NOSIG
2026-04-10 16:00:00,METAR WIII 101600Z 23006KT 8000 FEW020 27/24 Q1012 NOSIG
2026-04-10 15:30:00,METAR WIII 101530Z 22006KT 8000 FEW020 27/24 Q1012 NOSIG
2026-04-10 15:00:00,METAR WIII 101500Z 21004KT 9999 FEW020 27/24 Q1012 NOSIG
2026-04-10 14:30:00,METAR WIII 101430Z 22004KT 9999 FEW020 27/24 Q1013 NOSIG
2026-04-10 14:00:00,METAR WIII 101400Z 23005KT 9999 FEW020 28/24 Q1013 NOSIG
2026-04-10 13:30:00,METAR WIII 101330Z 23007KT 9999 FEW020 28/24 Q1012 NOSIG
2026-04-10 13:00:00,METAR WIII 101300Z 24007KT 9999 FEW020 28/24 Q1012 NOSIG
2026-04-10 12:30:00,METAR WIII 101230Z 23006KT 9999 FEW020 28/24 Q1012 NOSIG
2026-04-10 12:00:00,METAR WIII 101200Z 23007KT 9999 FEW020 28/23 Q1011 NOSIG
2026-04-10 11:30:00,METAR WIII 101130Z 23007KT 9999 FEW020 28/23 Q1011 NOSIG
2026-04-10 11:00:00,METAR WIII 101100Z 22009KT 9999 FEW020 29/23 Q1010 NOSIG
2026-04-10 10:30:00,METAR WIII 101030Z 22010KT 9999 FEW020 30/24 Q1010 NOSIG
2026-04-10 10:00:00,METAR WIII 101000Z 22008KT 9999 FEW020 30/24 Q1009 NOSIG
2026-04-10 09:30:00,METAR WIII 100930Z 24006KT 9999 FEW020 30/24 Q1009 NOSIG
2026-04-10 09:00:00,METAR WIII 100900Z 24006KT 210V340 9999 SCT020 30/25 Q1008 NOSIG
2026-04-10 08:30:00,METAR WIII 100830Z 25006KT 9000 SCT020 30/25 Q1008 NOSIG
2026-04-10 08:00:00,METAR WIII 100800Z 25006KT 8000 -RA FEW018CB BKN020 29/25 Q1008 BECMG AT0820 NSW RMK CB TO E
2026-04-10 07:30:00,METAR WIII 100730Z 20006KT 170V230 7000 -RA FEW018CB BKN020 28/24 Q1008 RETS NOSIG RMK CB TO SE AND N
2026-04-10 07:21:00,SPECI WIII 100721Z 22006KT 170V290 3000 TSRA FEW018CB BKN020 27/24 Q1009 TEMPO TL0750 -TSRA RMK CB ALL RWY
2026-04-10 07:11:00,SPECI WIII 100711Z 23010KT 200V300 1000 +TSRA SCT016CB BKN020 30/25 Q1009 TEMPO TL0720 3000 TSRA RMK CB ALL RWY
2026-04-10 07:00:00,METAR WIII 100700Z 31010KT 270V350 2000 +TSRA SCT016CB BKN020 30/25 Q1009 WS ALL RWY TEMPO TL0720 3000 TSRA RMK CB ALL RWY
2026-04-10 06:58:00,SPECI WIII 100658Z 31010KT 270V350 1000 +TSRA SCT016CB BKN020 30/25 Q1009 WS ALL RWY TEMPO TL0720 3000 TSRA RMK CB ALL RWY
2026-04-10 06:32:00,SPECI WIII 100632Z COR 31010KT 270V360 5000 -TSRA FEW015CB SCT020 32/25 Q1009 TEMPO FM0645 4000 TSRA RMK CB IN CLIMB OUT
2026-04-10 06:30:00,METAR WIII 100630Z 32014KT 7000 FEW015CB SCT036 32/25 Q1009 TEMPO FM0645 4000 TSRA FEW018CB RMK CB TO S
2026-04-10 06:00:00,METAR WIII 100600Z 31010KT 7000 SCT017 32/25 Q1010 NOSIG
2026-04-10 05:30:00,METAR WIII 100530Z 34011KT 9999 FEW015 SCT020 32/25 Q1010 NOSIG RMK T CU IN CLIMB OUT
2026-04-10 05:00:00,METAR WIII 100500Z 27008KT 9999 SCT020 32/24 Q1011 NOSIG
2026-04-10 04:30:00,METAR WIII 100430Z 28009KT 250V340 9999 SCT020 32/24 Q1011 NOSIG
2026-04-10 04:00:00,METAR WIII 100400Z 27010KT 9999 SCT020 32/24 Q1011 NOSIG
2026-04-10 03:30:00,METAR WIII 100330Z 26011KT 9000 FEW020 31/24 Q1012 NOSIG
2026-04-10 03:00:00,METAR WIII 100300Z 26012KT 9000 FEW020 31/24 Q1012 NOSIG
2026-04-10 02:30:00,METAR WIII 100230Z 24010KT 9000 FEW020 31/24 Q1012 NOSIG
2026-04-10 02:00:00,METAR WIII 100200Z 23010KT 8000 FEW021 31/24 Q1012 NOSIG
2026-04-10 01:30:00,METAR WIII 100130Z 24008KT 7000 FEW021 30/24 Q1012 NOSIG
2026-04-10 01:00:00,METAR WIII 100100Z 24008KT 7000 FEW021 29/24 Q1012 NOSIG
2026-04-10 00:30:00,METAR WIII 100030Z 24008KT 9000 FEW021 29/24 Q1012 NOSIG
2026-04-10 00:00:00,METAR WIII 100000Z 21007KT 9000 FEW020 27/24 Q1011 NOSIG
2026-04-09 23:30:00,METAR WIII 092330Z 22007KT 8000 FEW020 26/24 Q1011 NOSIG
2026-04-09 23:00:00,METAR WIII 092300Z 22006KT 8000 FEW020 25/23 Q1010 NOSIG
2026-04-09 22:30:00,METAR WIII 092230Z 23004KT 7000 FEW020 25/23 Q1010 NOSIG
2026-04-09 22:00:00,METAR WIII 092200Z VRB02KT 7000 FEW020 25/23 Q1010 NOSIG
2026-04-09 21:30:00,METAR WIII 092130Z 21002KT 7000 FEW020 26/23 Q1010 NOSIG
2026-04-09 21:00:00,METAR WIII 092100Z VRB02KT 7000 FEW020 24/23 Q1010 NOSIG
2026-04-09 20:30:00,METAR WIII 092030Z 23005KT 7000 FEW020 26/23 Q1010 NOSIG
2026-04-09 20:00:00,METAR WIII 092000Z 23005KT 6000 FEW020 26/23 Q1010 NOSIG
2026-04-09 19:30:00,METAR WIII 091930Z 23004KT 6000 FEW020 26/23 Q1010 NOSIG
2026-04-09 19:00:00,METAR WIII 091900Z 23004KT 7000 FEW020 25/23 Q1011 NOSIG
2026-04-09 18:30:00,METAR WIII 091830Z 25006KT 7000 FEW020 25/23 Q1011 NOSIG
2026-04-09 18:00:00,METAR WIII 091800Z 24005KT 7000 FEW020 26/23 Q1011 NOSIG
2026-04-09 17:30:00,METAR WIII 091730Z 24005KT 7000 FEW020 26/23 Q1012 NOSIG
2026-04-09 17:00:00,METAR WIII 091700Z 23005KT 7000 FEW020 27/23 Q1012 NOSIG
2026-04-09 16:30:00,METAR WIII 091630Z 23005KT 7000 FEW020 26/23 Q1012 NOSIG
2026-04-09 16:00:00,METAR WIII 091600Z 24004KT 7000 FEW020 26/23 Q1012 NOSIG
2026-04-09 15:30:00,METAR WIII 091530Z 24005KT 7000 FEW020 26/23 Q1012 NOSIG
2026-04-09 15:00:00,METAR WIII 091500Z 23006KT 7000 FEW020 27/24 Q1012 NOSIG
2026-04-09 14:30:00,METAR WIII 091430Z 24005KT 7000 FEW020 26/23 Q1011 NOSIG
2026-04-09 14:00:00,METAR WIII 091400Z 23007KT 7000 FEW020 27/23 Q1011 NOSIG
2026-04-09 13:30:00,METAR WIII 091330Z 23008KT 7000 FEW020 27/23 Q1011 NOSIG
2026-04-09 13:00:00,METAR WIII 091300Z 23008KT 8000 FEW020 27/23 Q1011 NOSIG
2026-04-09 12:30:00,METAR WIII 091230Z 22008KT 8000 FEW020 27/23 Q1010 NOSIG
2026-04-09 12:00:00,METAR WIII 091200Z 22008KT 8000 FEW020 27/23 Q1010 NOSIG
2026-04-09 11:30:00,METAR WIII 091130Z 22009KT 8000 FEW020 27/23 Q1010 NOSIG
2026-04-09 11:00:00,METAR WIII 091100Z 24011KT 9999 FEW020 27/23 Q1010 NOSIG
2026-04-09 10:30:00,METAR WIII 091030Z 23011KT 9999 FEW020 28/23 Q1009 NOSIG
2026-04-09 10:00:00,METAR WIII 091000Z 24011KT 9999 FEW020 28/23 Q1010 NOSIG
2026-04-09 09:30:00,METAR WIII 090930Z 25010KT 9999 FEW020 29/24 Q1009 NOSIG
2026-04-09 09:00:00,METAR WIII 090900Z 24010KT 9999 FEW020 29/23 Q1008 NOSIG
2026-04-09 08:30:00,METAR WIII 090830Z 25011KT 9999 SCT020 30/24 Q1009 NOSIG
2026-04-09 08:00:00,METAR WIII 090800Z 24010KT 9999 FEW020 29/24 Q1009 NOSIG
2026-04-09 07:30:00,METAR WIII 090730Z 23010KT 9999 FEW020 29/23 Q1009 NOSIG
2026-04-09 07:00:00,METAR WIII 090700Z 23016KT 9999 SCT020 29/24 Q1009 NOSIG
2026-04-09 06:30:00,METAR WIII 090630Z 23016KT 9999 SCT020 31/25 Q1010 NOSIG
2026-04-09 06:00:00,METAR WIII 090600Z 23018KT 9999 SCT020 30/25 Q1011 NOSIG
2026-04-09 05:30:00,METAR WIII 090530Z 24016KT 210V270 9999 FEW020 31/25 Q1011 NOSIG
2026-04-09 05:00:00,METAR WIII 090500Z 25015KT 200V280 9999 FEW020 32/25 Q1011 NOSIG
2026-04-09 04:30:00,METAR WIII 090430Z 24014KT 210V270 9999 FEW020 31/24 Q1012 NOSIG
2026-04-09 04:00:00,METAR WIII 090400Z 25017KT 9999 FEW020 31/24 Q1012 WS ALL RWY NOSIG
2026-04-09 03:30:00,METAR WIII 090330Z 25015KT 210V270 9999 FEW020 30/25 Q1012 NOSIG
2026-04-09 03:00:00,METAR WIII 090300Z 23013KT 9999 FEW020 30/24 Q1012 NOSIG
2026-04-09 02:30:00,METAR WIII 090230Z 23014KT 190V250 9999 FEW020 30/24 Q1012 NOSIG
2026-04-09 02:00:00,METAR WIII 090200Z 23013KT 200V280 9999 FEW020 29/24 Q1012 NOSIG
2026-04-09 01:30:00,METAR WIII 090130Z 23011KT 9999 FEW020 28/24 Q1012 NOSIG
2026-04-09 01:00:00,METAR WIII 090100Z 22015KT 9999 FEW020 28/24 Q1012 NOSIG
2026-04-09 00:30:00,METAR WIII 090030Z 23015G25KT 9999 FEW020 27/24 Q1012 NOSIG
2026-04-09 00:00:00,METAR WIII 090000Z 22006KT 180V240 9000 FEW020 27/24 Q1011 NOSIG
2026-04-08 23:30:00,METAR WIII 082330Z VRB02KT 9000 FEW020 26/24 Q1010 NOSIG
2026-04-08 23:00:00,METAR WIII 082300Z 22002KT 9000 FEW020 25/24 Q1010 NOSIG
2026-04-08 22:30:00,METAR WIII 082230Z COR 19005KT 160V230 9000 FEW020 26/24 Q1010 NOSIG
2026-04-08 22:00:00,METAR WIII 082200Z 19003KT 160V220 9000 FEW020 26/24 Q1009 NOSIG
2026-04-08 21:30:00,METAR WIII 082130Z 21004KT 8000 FEW020 26/24 Q1009 NOSIG
2026-04-08 21:00:00,METAR WIII 082100Z 20004KT 9000 FEW020 26/24 Q1009 NOSIG
2026-04-08 20:30:00,METAR WIII 082030Z 22003KT 8000 FEW020 25/24 Q1010 NOSIG
2026-04-08 20:00:00,METAR WIII 082000Z 22002KT 9000 FEW020 25/24 Q1010 NOSIG
2026-04-08 19:30:00,METAR WIII 081930Z 23003KT 9000 FEW020 25/24 Q1010 NOSIG
2026-04-08 19:00:00,METAR WIII 081900Z 21002KT 9000 FEW020 26/24 Q1010 NOSIG
2026-04-08 18:30:00,METAR WIII 081830Z 23005KT 9999 FEW020 26/25 Q1010 NOSIG
2026-04-08 18:00:00,METAR WIII 081800Z 18005KT 9999 FEW020 26/25 Q1011 NOSIG
2026-04-08 17:30:00,METAR WIII 081730Z 21002KT 9999 FEW020 26/24 Q1011 NOSIG
2026-04-08 17:00:00,METAR WIII 081700Z 20003KT 9999 FEW020 26/24 Q1011 NOSIG
2026-04-08 16:30:00,METAR WIII 081630Z 22004KT 9000 FEW020 26/24 Q1011 NOSIG
2026-04-08 16:00:00,METAR WIII 081600Z 22003KT 9000 FEW020 26/25 Q1011 NOSIG
2026-04-08 15:30:00,METAR WIII 081530Z 22006KT 9000 FEW020 26/25 Q1011 NOSIG
2026-04-08 15:00:00,METAR WIII 081500Z 22006KT 9000 FEW020 26/25 Q1011 NOSIG
2026-04-08 14:30:00,METAR WIII 081430Z 22003KT 9000 FEW020 26/25 Q1011 NOSIG
2026-04-08 14:00:00,METAR WIII 081400Z 22002KT 7000 FEW020 27/25 Q1011 NOSIG
2026-04-08 13:30:00,METAR WIII 081330Z 19004KT 5000 -RA BKN018 26/25 Q1011 RETS NOSIG
2026-04-08 13:17:00,SPECI WIII 081317Z 16004KT 5000 -TSRA FEW016CB BKN018 27/25 Q1011 BECMG FM1400 7000 NSW RMK CB TO N
2026-04-08 13:00:00,METAR WIII 081300Z VRB03KT 5000 -RA FEW016CB BKN018 26/25 Q1011 N OSIG RMK CB TO N
2026-04-08 12:30:00,METAR WIII 081230Z VRB03KT 5000 -RA FEW016CB BKN018 27/25 Q1011 BECMG FM1300 NSW RMK CB ALL RWY
2026-04-08 12:00:00,METAR WIII 081200Z 35003KT 3000 TSRA SCT016CB OVC018 26/25 Q1010 TEMPO FM1230 -TSRA RMK CB ALL RWY
2026-04-08 11:30:00,METAR WIII 081130Z 32002KT 3000 TSRA SCT016CB OVC018 26/25 Q1010 TEMPO FM1230 -RA RMK CB ALL RWY
2026-04-08 11:00:00,METAR WIII 081100Z 23010KT 3000 RA SCT016CB OVC018 27/25 Q1010 TEMPO FM1130 -RA RMK CB ALL RWY
2026-04-08 10:30:00,METAR WIII 081030Z 28006KT 4000 -RA SCT016CB OVC018 27/25 Q1009 TEMPO TL1040 RA RMK CB ALL RWY
2026-04-08 10:00:00,METAR WIII 081000Z 26004KT 4000 -RA SCT016CB OVC018 26/25 Q1008 RETS TEMPO TL1045 3000 RA RMK CB ALL RWY
2026-04-08 09:30:00,METAR WIII 080930Z 23010KT 2000 -TSRA SCT015CB OVC017 26/24 Q1009 TEM PO FM0945 TS RMK CB ALL RWY
2026-04-08 09:00:00,METAR WIII 080900Z 24012KT 0600 +TSRA SCT015CB OVC017 26/25 Q1009 TEMPO FM0915 3000 TSRA RMK CB ALL RWY
2026-04-08 08:30:00,METAR WIII 080830Z 19007KT 150V220 3000 TSRA SCT015CB BKN017 27/24 Q1 008 TEMPO FM0845 -TSRA RMK CB ALL RWY
2026-04-08 08:11:00,SPECI WIII 080811Z 19007KT 110V210 0700 +TSRA SCT016CB BKN018 27/24 Q1008 TEMPO FM0845 4000 -TSRA RMK CB ALL RWY
2026-04-08 08:00:00,METAR WIII 080800Z 33009KT 140V210 8000 TS FEW017CB BKN019 30/24 Q100 8 TEMPO FM0830 4000 TSRA RMK CB ALL RWY
2026-04-08 07:30:00,METAR WIII 080730Z 32009KT 9000 FEW018CB SCT020 31/24 Q1008 RETS NOSIG RMK CB TO SE
2026-04-08 07:00:00,METAR WIII 080700Z 27011KT 8000 TS FEW018CB SCT020 31/24 Q1009 BECMG FM0800 NSW RMK CB TO SE
2026-04-08 06:33:00,SPECI WIII 080633Z 29014G24KT 9000 TS FEW018 SCT020 32/25 Q1008 NOSIG RMK CB TO SE
2026-04-08 06:30:00,METAR WIII 080630Z 29015KT 9000 VCTS FEW018CB SCT020 32/24 Q1009 TEMP O FM0645 TS RMK CB TO SW
2026-04-08 06:00:00,METAR WIII 080600Z 30012KT 9999 FEW018CB SCT020 32/25 Q1009 TEMPO FM0620 TS RMK CB TO W
2026-04-08 05:30:00,METAR WIII 080530Z 30011KT 9999 FEW018CB SCT020 32/25 Q1009 NOSIG RMK CB TO SW
2026-04-08 05:00:00,METAR WIII 080500Z 30007KT 9999 SCT020 32/24 Q1010 NOSIG
2026-04-08 04:30:00,METAR WIII 080430Z 30007KT 9999 SCT020 32/24 Q1010 NOSIG
2026-04-08 04:00:00,METAR WIII 080400Z 32005KT 9999 SCT020 32/24 Q1011 NOSIG
2026-04-08 03:30:00,METAR WIII 080330Z 30004KT 110V270 9999 SCT020 32/23 Q1011 NOSIG
2026-04-08 03:00:00,METAR WIII 080300Z 24003KT 240V330 9999 FEW020 31/24 Q1012 NOSIG
2026-04-08 02:30:00,METAR WIII 080230Z 22003KT 9999 FEW020 30/24 Q1012 NOSIG
2026-04-08 02:00:00,METAR WIII 080200Z 23004KT 9999 FEW020 30/24 Q1012 NOSIG
2026-04-08 01:30:00,METAR WIII 080130Z 22006KT 9999 FEW020 29/25 Q1011 NOSIG
2026-04-08 01:00:00,METAR WIII 080100Z 22006KT 8000 FEW020 28/25 Q1011 NOSIG
2026-04-08 00:30:00,METAR WIII 080030Z 23004KT 190V260 7000 FEW020 27/24 Q1011 NOSIG
2026-04-08 00:00:00,METAR WIII 080000Z 22004KT 8000 FEW020 26/24 Q1011 NOSIG
2026-04-07 23:30:00,METAR WIII 072330Z 21003KT 7000 FEW020 25/24 Q1010 NOSIG
2026-04-07 23:00:00,METAR WIII 072300Z 24004KT 7000 FEW020 25/23 Q1010 NOSIG
2026-04-07 22:30:00,METAR WIII 072230Z 26005KT 7000 FEW020 24/23 Q1010 NOSIG
2026-04-07 22:00:00,METAR WIII 072200Z 23004KT 7000 FEW020 25/24 Q1009 NOSIG
2026-04-07 21:30:00,METAR WIII 072130Z 22004KT 190V250 7000 FEW020 25/24 Q1009 NOSIG
2026-04-07 21:00:00,METAR WIII 072100Z 22004KT 7000 SCT020 25/24 Q1010 NOSIG
2026-04-07 20:30:00,METAR WIII 072030Z 24004KT 7000 SCT020 25/24 Q1010 NOSIG
2026-04-07 20:00:00,METAR WIII 072000Z 24006KT 7000 SCT020 25/24 Q1010 NOSIG
2026-04-07 19:30:00,METAR WIII 071930Z 23006KT 7000 SCT020 25/24 Q1010 NOSIG
2026-04-07 19:00:00,METAR WIII 071900Z 23007KT 210V270 7000 SCT020 26/24 Q1010 NOSIG
2026-04-07 18:30:00,METAR WIII 071830Z 23011KT 9999 SCT020 26/24 Q1010 NOSIG
2026-04-07 18:00:00,METAR WIII 071800Z 26009KT 9999 SCT020 26/24 Q1010 NOSIG
2026-04-07 17:30:00,METAR WIII 071730Z 26009KT 8000 SCT020 26/24 Q1010 NOSIG
2026-04-07 17:00:00,METAR WIII 071700Z 25007KT 9999 FEW020 26/24 Q1010 NOSIG
2026-04-07 16:30:00,METAR WIII 071630Z 26007KT 8000 FEW020 26/25 Q1010 NOSIG
2026-04-07 16:00:00,METAR WIII 071600Z 25007KT 8000 FEW020 26/24 Q1011 NOSIG
2026-04-07 15:30:00,METAR WIII 071530Z 26007KT 8000 FEW020 26/25 Q1011 NOSIG
2026-04-07 15:00:00,METAR WIII 071500Z 25006KT 9999 SCT022 26/25 Q1011 NOSIG
2026-04-07 14:30:00,METAR WIII 071430Z 22007KT 9999 SCT022 27/25 Q1010 NOSIG
2026-04-07 14:00:00,METAR WIII 071400Z 22008KT 9999 SCT020 27/25 Q1010 NOSIG
2026-04-07 13:30:00,METAR WIII 071330Z 21010KT 8000 BKN022 27/25 Q1010 NOSIG
2026-04-07 13:00:00,METAR WIII 071300Z 23010KT 4500 HZ SCT020 28/25 Q1010 NOSIG
2026-04-07 12:30:00,METAR WIII 071230Z 30004KT 260V330 6000 FEW020 29/24 Q1009 NOSIG
2026-04-07 12:00:00,METAR WIII 071200Z 31005KT 270V330 6000 FEW020 29/24 Q1009 NOSIG
2026-04-07 11:30:00,METAR WIII 071130Z 32004KT 290V360 7000 FEW020 29/24 Q1009 NOSIG
2026-04-07 11:00:00,METAR WIII 071100Z 33005KT 290V350 5000 HZ FEW020 29/25 Q1008 NOSIG
2026-04-07 10:30:00,METAR WIII 071030Z 35006KT 320V040 8000 FEW020 30/25 Q1008 NOSIG
2026-04-07 10:00:00,METAR WIII 071000Z 34007KT 300V010 8000 FEW020 30/25 Q1008 NOSIG
2026-04-07 09:30:00,METAR WIII 070930Z 35007KT 310V040 9999 SCT020 31/24 Q1007 NOSIG
2026-04-07 09:00:00,METAR WIII 070900Z 01006KT 320V050 9999 SCT020 32/24 Q1007 NOSIG
2026-04-07 08:30:00,METAR WIII 070830Z 30006KT 250V010 9999 SCT020 32/24 Q1007 RETS NOSIG
2026-04-07 08:00:00,METAR WIII 070800Z 27005KT 190V310 9000 TS FEW018CB SCT020 32/24 Q1007 NOSIG RMK CB TO SW
2026-04-07 07:30:00,METAR WIII 070730Z 23006KT 9000 TS FEW018CB SCT020 31/24 Q1008 NOSIG RMK CB TO SW
2026-04-07 07:00:00,METAR WIII 070700Z 35007KT 330V030 9000 TS FEW018CB SCT020 33/23 Q100 8 NOSIG RMK CB TO SW
2026-04-07 06:37:00,SPECI WIII 070637Z 36008KT 320V030 9999 TS FEW016CB SCT020 33/24 Q1008 NOSIG RMK CB TO S
2026-04-07 06:30:00,METAR WIII 070630Z 36008KT 320V040 9999 FEW016CB SCT020 32/24 Q1008 N OSIG RMK CB TO S
2026-04-07 06:00:00,METAR WIII 070600Z 35006KT 290V060 8000 SCT020 32/25 Q1008 NOSIG
2026-04-07 05:30:00,METAR WIII 070530Z 01005KT 8000 FEW016CB SCT020 32/24 Q1009 NOSIG RMK CB TO SE
2026-04-07 05:00:00,METAR WIII 070500Z 02004KT 320V090 8000 FEW016CB SCT020 32/24 Q1010 TEMPO FM0520 TS RMK CB TO SE
2026-04-07 04:30:00,METAR WIII 070430Z 36004KT 9000 SCT020 32/23 Q1010 NOSIG
2026-04-07 04:00:00,METAR WIII 070400Z 36004KT 8000 SCT020 32/23 Q1011 NOSIG
2026-04-07 03:30:00,METAR WIII 070330Z 30004KT 8000 SCT020 31/24 Q1011 NOSIG
2026-04-07 03:00:00,METAR WIII 070300Z 27004KT 230V310 8000 FEW020 31/25 Q1011 NOSIG
2026-04-07 02:30:00,METAR WIII 070230Z 23003KT 180V270 9000 FEW020 30/24 Q1011 NOSIG
2026-04-07 02:00:00,METAR WIII 070200Z 23004KT 190V260 9000 FEW020 29/25 Q1011 NOSIG
2026-04-07 01:30:00,METAR WIII 070130Z 22006KT 170V250 8000 NSC 28/25 Q1011 NOSIG
2026-04-07 01:00:00,METAR WIII 070100Z 22006KT 140V260 8000 NSC 28/25 Q1011 NOSIG
2026-04-07 00:30:00,METAR WIII 070030Z 20005KT 6000 FEW020 27/25 Q1011 NOSIG
2026-04-07 00:00:00,METAR WIII 070000Z 22005KT 4000 HZ FEW020 26/24 Q1011 NOSIG
2026-04-06 23:30:00,METAR WIII 062330Z 22003KT 5000 HZ FEW020 25/24 Q1011 NOSIG
2026-04-06 23:00:00,METAR WIII 062300Z 20003KT 6000 SCT020 25/24 Q1010 NOSIG
2026-04-06 22:30:00,METAR WIII 062230Z 22005KT 7000 SCT020 25/24 Q1010 NOSIG
2026-04-06 22:00:00,METAR WIII 062200Z 22005KT 6000 SCT020 25/24 Q1010 NOSIG
2026-04-06 21:30:00,METAR WIII 062130Z 21003KT 5000 HZ FEW020 25/24 Q1010 NOSIG
2026-04-06 21:00:00,METAR WIII 062100Z 23004KT 4000 BR FEW020 25/24 Q1010 NOSIG
2026-04-06 20:30:00,METAR WIII 062030Z 22004KT 4000 BR FEW020 25/24 Q1010 NOSIG
2026-04-06 20:00:00,METAR WIII 062000Z 21004KT 4000 BR FEW020 25/24 Q1009 NOSIG
2026-04-06 19:30:00,METAR WIII 061930Z 23004KT 2200 BR FEW020 25/24 Q1010 NOSIG
2026-04-06 19:00:00,METAR WIII 061900Z 22004KT 2500 BR FEW020 25/24 Q1010 NOSIG
2026-04-06 18:30:00,METAR WIII 061830Z 24003KT 2500 BR FEW020 26/24 Q1010 NOSIG
2026-04-06 18:00:00,METAR WIII 061800Z 25004KT 3900 BR FEW020 25/24 Q1010 NOSIG
2026-04-06 17:30:00,METAR WIII 061730Z 25004KT 4300 HZ FEW020 26/24 Q1011 NOSIG
2026-04-06 17:00:00,METAR WIII 061700Z 19004KT 3800 HZ FEW020 26/24 Q1011 NOSIG
2026-04-06 16:30:00,METAR WIII 061630Z 19004KT 130V220 4200 HZ FEW020 26/24 Q1011 NOSIG
2026-04-06 16:00:00,METAR WIII 061600Z 17005KT 120V210 3600 HZ FEW020 27/24 Q1011 NOSIG
2026-04-06 15:30:00,METAR WIII 061530Z 15005KT 120V190 4600 HZ SCT020 27/24 Q1011 NOSIG
2026-04-06 15:00:00,METAR WIII 061500Z 17003KT 140V200 4400 HZ SCT020 27/24 Q1011 NOSIG
2026-04-06 14:30:00,METAR WIII 061430Z 18005KT 150V220 4800 HZ SCT020 27/24 Q1011 NOSIG
2026-04-06 14:00:00,METAR WIII 061400Z 17005KT 5000 FEW020 27/24 Q1011 NOSIG
2026-04-06 13:30:00,METAR WIII 061330Z 15005KT 6000 FEW020 27/24 Q1011 NOSIG
2026-04-06 13:00:00,METAR WIII 061300Z 14005KT 7000 FEW020 27/24 Q1011 NOSIG
2026-04-06 12:30:00,METAR WIII 061230Z VRB02KT 7000 FEW020 27/24 Q1010 NOSIG
2026-04-06 12:00:00,METAR WIII 061200Z 14003KT 7000 FEW020 27/24 Q1010 NOSIG
2026-04-06 11:30:00,METAR WIII 061130Z 16003KT 120V210 7000 FEW020 27/23 Q1010 NOSIG
2026-04-06 11:00:00,METAR WIII 061100Z VRB02KT 6000 FEW020 27/24 Q1009 NOSIG
2026-04-06 10:30:00,METAR WIII 061030Z 25005KT 6000 FEW020 27/24 Q1009 NOSIG
2026-04-06 10:00:00,METAR WIII 061000Z 24005KT 7000 FEW020 27/24 Q1008 NOSIG
2026-04-06 09:30:00,METAR WIII 060930Z 24002KT 8000 FEW020 28/24 Q1008 NOSIG
2026-04-06 09:00:00,METAR WIII 060900Z 24003KT 210V280 8000 FEW020 28/23 Q1007 NOSIG
2026-04-06 08:30:00,METAR WIII 060830Z 25006KT 8000 FEW020 27/24 Q1008 NOSIG
2026-04-06 08:00:00,METAR WIII 060800Z 25004KT 200V280 8000 FEW020 26/24 Q1008 RETS NOSIG
2026-04-06 07:30:00,METAR WIII 060730Z 26005KT 240V300 8000 TS FEW016CB SCT018 26/23 Q100 8 NOSIG RMK CB TO W
2026-04-06 07:10:00,SPECI WIII 060710Z 24005KT 200V280 5000 FEW016CB SCT018 25/23 Q1008 RETSRA BECMG AT0730 8000 RMK CB TO SW
2026-04-06 07:00:00,METAR WIII 060700Z 24012G25KT 180V310 2000 TSRA FEW016CB SCT018 25/22 Q1008 TEMPO FM0720 4000 -TSRA RMK CB TO SW
2026-04-06 06:30:00,METAR WIII 060630Z 15011G30KT 060V210 0600 0100E TS +SHRA SCT010CB OV C012 25/21 Q1009 WS ALL RWY NOSIG RMK CB OVER THE FIELD
2026-04-06 06:19:00,SPECI WIII 060619Z 17009G22KT 100V210 1000 0100E R06/P2000 R07L/P2000 R07R/P2000 R24/P2000 TS +SHRA SCT012CB OVC015 25/22 Q1009 WS ALL RWY NOSIG RMK CB OVER THE FIELD
2026-04-06 06:07:00,SPECI WIII 060607Z 20011G26KT 150V230 3000 1000E TS SHRA SCT012CB BKN015 27/23 Q1009 WS ALL RWY TEMPO FM0615 TSRA RMK CB IN APCH
2026-04-06 06:01:00,SPECI WIII 060601Z 19010G26KT 150V230 5000 1500E SHRA SCT015CB BKN018 29/23 Q1009 TEMPO FM0615 TSRA RMK CB IN APCH
2026-04-06 06:00:00,METAR WIII 060600Z 24008KT 170V270 5000 -RA SCT015CB BKN018 30/23 Q1009 TEMPO FM0615 TSRA RMK CB TO S
2026-04-06 05:30:00,METAR WIII 060530Z 28005KT 220V360 7000 SCT015TCU BKN018 32/23 Q1009 NOSIG RMK TCU TO SE
2026-04-06 05:00:00,METAR WIII 060500Z 26005KT 170V330 8000 SCT020 32/23 Q1010 NOSIG
2026-04-06 04:30:00,METAR WIII 060430Z 25008KT 170V270 9999 SCT020 32/24 Q1010 NOSIG
2026-04-06 04:00:00,METAR WIII 060400Z 27004KT 9999 SCT020 31/24 Q1011 NOSIG
2026-04-06 03:30:00,METAR WIII 060330Z 25006KT 9000 SCT020 31/24 Q1011 NOSIG
2026-04-06 03:00:00,METAR WIII 060300Z 25004KT 9000 FEW020 30/25 Q1012 NOSIG
2026-04-06 02:30:00,METAR WIII 060230Z 27003KT 8000 FEW020 30/25 Q1012 NOSIG
2026-04-06 02:00:00,METAR WIII 060200Z 27004KT 6000 FEW020 30/25 Q1011 NOSIG
2026-04-06 01:30:00,METAR WIII 060130Z 21003KT 160V220 6000 FEW020 29/24 Q1011 NOSIG
2026-04-06 01:00:00,METAR WIII 060100Z 18004KT 140V210 7000 FEW020 28/23 Q1011 NOSIG
2026-04-06 00:30:00,METAR WIII 060030Z 21004KT 170V240 7000 FEW020 27/24 Q1011 NOSIG
2026-04-06 00:00:00,METAR WIII 060000Z 19004KT 170V230 6000 FEW020 26/24 Q1010 NOSIG
2026-04-05 23:30:00,METAR WIII 052330Z 19004KT 150V230 7000 FEW020 25/23 Q1010 NOSIG
2026-04-05 23:00:00,METAR WIII 052300Z 17002KT 8000 SCT020 25/23 Q1010 NOSIG
2026-04-05 22:30:00,METAR WIII 052230Z VRB02KT 9000 SCT020 25/23 Q1010 NOSIG
2026-04-05 22:00:00,METAR WIII 052200Z COR VRB02KT 8000 SCT020 25/23 Q1010 NOSIG
2026-04-05 21:30:00,METAR WIII 052130Z VRB02KT 6000 SCT020 25/23 Q1009 NOSIG
2026-04-05 21:00:00,METAR WIII 052100Z 22003KT 190V260 7000 SCT020 25/23 Q1009 NOSIG
2026-04-05 20:30:00,METAR WIII 052030Z 23002KT 7000 SCT020 25/24 Q1009 NOSIG
2026-04-05 20:00:00,METAR WIII 052000Z 24003KT 6000 BKN020 25/23 Q1009 NOSIG
2026-04-05 19:30:00,METAR WIII 051930Z 19003KT 5000 HZ SCT020 25/24 Q1009 NOSIG
2026-04-05 19:00:00,METAR WIII 051900Z 22003KT 4000 BR SCT020 25/24 Q1009 NOSIG
2026-04-05 18:30:00,METAR WIII 051830Z 25005KT 4000 BR BKN022 25/24 Q1009 NOSIG
2026-04-05 18:00:00,METAR WIII 051800Z 20004KT 9999 SCT020 26/23 Q1009 NOSIG
2026-04-05 17:30:00,METAR WIII 051730Z 19004KT 9999 SCT020 26/23 Q1010 NOSIG
2026-04-05 17:00:00,METAR WIII 051700Z 18003KT 8000 FEW020 26/23 Q1010 NOSIG
2026-04-05 16:30:00,METAR WIII 051630Z 18004KT 9999 SCT020 26/24 Q1010 NOSIG
2026-04-05 16:00:00,METAR WIII 051600Z 20004KT 9999 SCT020 26/24 Q1011 NOSIG
2026-04-05 15:08:00,SPECI WIII 051508Z 16007KT 9999 TS FEW018CB SCT020 26/24 Q1011 NOSIG RMK CB TO S
2026-04-05 15:00:00,METAR WIII 051500Z 18010KT 9999 SCT020 26/24 Q1011 NOSIG
2026-04-05 13:00:00,METAR WIII 051300Z 16006KT 9999 FEW018CB SCT020 27/23 Q1010 NOSIG RMK CB TO S
2026-04-05 12:30:00,METAR WIII 051230Z VRB03KT 8000 SCT020 27/23 Q1010 NOSIG
2026-04-05 12:00:00,METAR WIII 051200Z 19007KT 8000 FEW018CB SCT020 27/22 Q1009 TEMPO FM1225 3000 TSRA RMK CB TO S
2026-04-05 11:30:00,METAR WIII 051130Z 24006KT 8000 VCTS FEW018CB SCT020 27/23 Q1009 NOSIG RMK CB TO S
2026-04-05 11:00:00,METAR WIII 051100Z 28008KT 8000 FEW018CB SCT020 28/24 Q1009 NOSIG RMK CB TO S
2026-04-05 10:30:00,METAR WIII 051030Z 03009KT 300V040 8000 FEW018CB SCT020 30/24 Q1008 WS ALL RWY TEMPO FM1035 TS RMK CB TO S
2026-04-05 10:00:00,METAR WIII 051000Z 04013KT 9000 FEW018CB FEW020 31/24 Q1007 TEMPO FM1015 TS RMK CB TO SW
2026-04-05 09:30:00,METAR WIII 050930Z 04013KT 9999 FEW018CB FEW020 31/24 Q1007 NOSIG RMK CB TO SW
2026-04-05 09:00:00,METAR WIII 050900Z 05014KT 9999 VCTS FEW018CB FEW020 32/25 Q1007 NOSI G RMK CB TO SW
2026-04-05 08:30:00,METAR WIII 050830Z 04014KT 9999 FEW018CB FEW020 32/25 Q1006 NOSIG RMK CB TO SW
2026-04-05 08:00:00,METAR WIII 050800Z 04013KT 9999 VCTS FEW018CB FEW020 32/25 Q1006 NOSIG RMK CB TO SW
2026-04-05 07:30:00,METAR WIII 050730Z 04012KT 9999 FEW018CB FEW020 32/26 Q1006 NOSIG RMK CB TO SW
2026-04-05 07:00:00,METAR WIII 050700Z 04012KT 9999 FEW018CB FEW020 32/26 Q1007 RETS NOSIG RMK CB TO SW
2026-04-05 06:30:00,METAR WIII 050630Z 04013KT 9999 TS FEW018CB FEW020 32/25 Q1007 NOSIG RMK CB TO S
2026-04-05 06:11:00,SPECI WIII 050611Z 04011KT 9999 TS FEW018CB FEW020 32/25 Q1007 NOSIG RMK CB TO S
2026-04-05 06:00:00,METAR WIII 050600Z 05012KT 9999 FEW018CB FEW020 32/25 Q1007 NOSIG RMK CB TO SW
2026-04-05 05:30:00,METAR WIII 050530Z 05012KT 9999 FEW018CB FEW020 32/26 Q1008 NOSIG RMK CB TO SW
2026-04-05 05:00:00,METAR WIII 050500Z 06014KT 9999 FEW018CB FEW020 32/25 Q1008 TEMPO FM0515 TS RMK CB TO SW
2026-04-05 04:30:00,METAR WIII 050430Z 05013KT 9999 SCT020 32/25 Q1009 NOSIG
2026-04-05 04:00:00,METAR WIII 050400Z 06012KT 9999 FEW020 32/25 Q1009 NOSIG
2026-04-05 03:30:00,METAR WIII 050330Z 06010KT 9999 FEW020 32/25 Q1010 NOSIG
2026-04-05 03:00:00,METAR WIII 050300Z 07011KT 9999 FEW020 32/25 Q1010 NOSIG
2026-04-05 02:30:00,METAR WIII 050230Z 08010KT 9999 FEW020 31/24 Q1010 NOSIG
2026-04-05 02:00:00,METAR WIII 050200Z 09010KT 9999 FEW020 31/24 Q1009 NOSIG
2026-04-05 01:30:00,METAR WIII 050130Z 09008KT 9999 FEW020 30/25 Q1009 NOSIG
2026-04-05 01:00:00,METAR WIII 050100Z 11008KT 9999 FEW020 29/25 Q1009 NOSIG
2026-04-05 00:30:00,METAR WIII 050030Z 10006KT 8000 FEW020 28/25 Q1009 NOSIG
2026-04-05 00:00:00,METAR WIII 050000Z VRB02KT 8000 FEW020 27/25 Q1009 NOSIG
2026-04-04 23:30:00,METAR WIII 042330Z 12002KT 5000 HZ FEW020 26/24 Q1008 NOSIG
2026-04-04 23:00:00,METAR WIII 042300Z VRB01KT 5000 HZ FEW020 25/24 Q1008 NOSIG
2026-04-04 22:30:00,METAR WIII 042230Z VRB01KT 7000 FEW020 25/24 Q1007 NOSIG
2026-04-04 22:00:00,METAR WIII 042200Z 16002KT 7000 FEW020 26/24 Q1007 NOSIG
2026-04-04 21:30:00,METAR WIII 042130Z 16002KT 7000 FEW020 26/24 Q1007 NOSIG
2026-04-04 21:00:00,METAR WIII 042100Z VRB01KT 7000 FEW020 25/24 Q1007 NOSIG
2026-04-04 20:30:00,METAR WIII 042030Z VRB02KT 7000 FEW020 26/24 Q1007 NOSIG
2026-04-04 20:00:00,METAR WIII 042000Z 14002KT 7000 FEW020 26/24 Q1007 NOSIG
2026-04-04 19:30:00,METAR WIII 041930Z 17002KT 7000 FEW020 26/24 Q1007 NOSIG
2026-04-04 19:00:00,METAR WIII 041900Z VRB01KT 6000 FEW020 26/24 Q1007 NOSIG
2026-04-04 18:30:00,METAR WIII 041830Z 22003KT 6000 FEW020 26/24 Q1008 NOSIG
2026-04-04 18:00:00,METAR WIII 041800Z 20003KT 6000 FEW020 26/24 Q1009 NOSIG
2026-04-04 17:30:00,METAR WIII 041730Z VRB02KT 7000 FEW020 26/24 Q1009 NOSIG
2026-04-04 17:00:00,METAR WIII 041700Z 16002KT 6000 FEW020 26/24 Q1009 NOSIG
2026-04-04 16:30:00,METAR WIII 041630Z 11004KT 6000 FEW020 26/24 Q1009 NOSIG
2026-04-04 16:00:00,METAR WIII 041600Z 12004KT 7000 FEW018CB FEW020 26/24 Q1010 NOSIG RMK CB TO NW
2026-04-04 15:30:00,METAR WIII 041530Z 13005KT 6000 FEW018CB FEW020 26/24 Q1010 NOSIG RMK CB TO NW
2026-04-04 15:00:00,METAR WIII 041500Z 14005KT 7000 FEW018CB FEW020 26/24 Q1010 NOSIG RMK CB TO N
2026-04-04 14:30:00,METAR WIII 041430Z 13003KT 7000 FEW020 26/24 Q1010 NOSIG
2026-04-04 14:00:00,METAR WIII 041400Z 14003KT 8000 FEW018CB FEW020 26/24 Q1009 NOSIG RMK CB TO N
2026-04-04 13:30:00,METAR WIII 041330Z 14007KT 8000 FEW020 26/24 Q1009 NOSIG
2026-04-04 13:00:00,METAR WIII 041300Z 15007KT 8000 FEW020 26/24 Q1009 NOSIG
2026-04-04 12:30:00,METAR WIII 041230Z 16008KT 9999 FEW020 26/24 Q1008 NOSIG
2026-04-04 12:00:00,METAR WIII 041200Z 16004KT 9999 SCT020 26/24 Q1008 RERA NOSIG
2026-04-04 11:30:00,METAR WIII 041130Z 14010KT 9999 -RA FEW018CB SCT020 26/24 Q1007 RETS BECMG AT1200 NSW RMK CB TO S AND W
2026-04-04 11:00:00,METAR WIII 041100Z 14011KT 8000 -TSRA SCT018CB BKN020 26/24 Q1007 BECMG FM1130 -RA RMK CB ALL RWY
2026-04-04 10:49:00,SPECI WIII 041049Z 13009KT 8000 -TSRA SCT018CB BKN020 26/25 Q1007 NOSIG RMK CB ALL RWY
2026-04-04 10:30:00,METAR WIII 041030Z 13011KT 6000 -RA SCT018CB BKN020 27/24 Q1007 RETS TEMPO TL1100 4000 TSRA RMK CB ALL RWY
2026-04-04 10:00:00,METAR WIII 041000Z 15010KT 7000 -TSRA SCT018CB BKN020 27/24 Q1007 TEMPO TL1030 3000 TSRA RMK CB ALL RWY
2026-04-04 09:30:00,METAR WIII 040930Z 20010G20KT 9999 VCTS FEW018CB BKN020 28/24 Q1007 TEMPO FM1000 20015G35KT 3000 TSRA RMK CB TO SE AND SW
2026-04-04 09:00:00,METAR WIII 040900Z 19012KT 9999 FEW018CB SCT020 29/25 Q1007 WS RWY07R AND RWY25L NOSIG RMK CB TO SE AND SW
2026-04-04 08:30:00,METAR WIII 040830Z 06011KT 9999 VCTS FEW018CB SCT020 30/26 Q1006 NOSI G RMK CB TO SE AND SW
2026-04-04 08:00:00,METAR WIII 040800Z 04014KT 9999 VCTS FEW018CB FEW020 31/25 Q1006 NOSIG RMK CB TO SE AND SW
2026-04-04 07:30:00,METAR WIII 040730Z 03017KT 9999 VCTS FEW018CB FEW020 32/25 Q1006 NOSI G RMK CB TO SE AND SW
2026-04-04 07:00:00,METAR WIII 040700Z 05015KT 9999 VCTS FEW018CB FEW020 32/25 Q1006 NOSIG RMK CB TO S
2026-04-04 06:30:00,METAR WIII 040630Z 04016KT 010V070 9000 FEW018CB FEW020 32/25 Q1006 NOSIG RMK CB TO S
2026-04-04 06:00:00,METAR WIII 040600Z 04011KT 9000 FEW018CB FEW020 32/26 Q1007 NOSIG RMK CB TO S
2026-04-04 05:30:00,METAR WIII 040530Z 03012KT 360V060 9000 FEW018CB FEW020 32/26 Q1007 NOSIG RMK CB TO SW
2026-04-04 05:00:00,METAR WIII 040500Z 05011KT 9000 FEW018CB FEW020 32/26 Q1008 NOSIG RMK CB TO SW
2026-04-04 04:30:00,METAR WIII 040430Z 04011KT 010V070 8000 SCT020 32/25 Q1008 NOSIG
2026-04-04 04:00:00,METAR WIII 040400Z 05008KT 9000 FEW020 32/25 Q1009 NOSIG
2026-04-04 03:30:00,METAR WIII 040330Z COR 05010KT 020V080 8000 SCT020 31/26 Q1009 NOSIG
2026-04-04 03:00:00,METAR WIII 040300Z VRB02KT 8000 SCT020 30/25 Q1009 NOSIG
2026-04-04 02:30:00,METAR WIII 040230Z 11004KT 070V150 8000 FEW020 30/25 Q1010 NOSIG
2026-04-04 02:00:00,METAR WIII 040200Z 19003KT 140V220 8000 FEW020 28/25 Q1009 NOSIG
2026-04-04 01:30:00,METAR WIII 040130Z 16003KT 090V200 8000 FEW020 27/24 Q1009 NOSIG
2026-04-04 01:00:00,METAR WIII 040100Z VRB02KT 6000 FEW020 26/24 Q1009 NOSIG
2026-04-04 00:30:00,METAR WIII 040030Z VRB03KT 7000 FEW020 26/24 Q1009 NOSIG
2026-04-04 00:00:00,METAR WIII 040000Z 22006KT 190V270 6000 FEW020 25/24 Q1009 NOSIG
2026-04-03 23:30:00,METAR WIII 032330Z 15006KT 7000 FEW020 25/24 Q1009 NOSIG
2026-04-03 23:00:00,METAR WIII 032300Z 16007KT 7000 FEW020 25/24 Q1008 NOSIG
2026-04-03 22:30:00,METAR WIII 032230Z 14005KT 8000 FEW020 25/24 Q1008 NOSIG
2026-04-03 22:00:00,METAR WIII 032200Z 17005KT 7000 SCT020 25/24 Q1008 RERA NOSIG
2026-04-03 21:30:00,METAR WIII 032130Z 17005KT 6000 -RA BKN020 24/24 Q1008 NOSIG
2026-04-03 21:00:00,METAR WIII 032100Z 18004KT 5000 -RA BKN018 24/24 Q1008 NOSIG
2026-04-03 20:30:00,METAR WIII 032030Z 18005KT 5000 -RA BKN018 24/24 Q1008 NOSIG
2026-04-03 20:00:00,METAR WIII 032000Z 16005KT 5000 -RA FEW016CB BKN018 24/24 Q1008 RETS NOSIG RMK CB TO E
2026-04-03 19:30:00,METAR WIII 031930Z 20005KT 3500 TSRA FEW015CB BKN017 24/24 Q1009 BECMG FM2030 5000 BR RMK CB TO NE
2026-04-03 19:00:00,METAR WIII 031900Z 15005KT 110V200 4000 -TSRA FEW015CB BKN017 25/24 Q1009 NOSIG RMK CB TO NE
2026-04-03 18:30:00,METAR WIII 031830Z 17004KT 130V210 5000 -TSRA FEW015CB SCT020 25/24 Q1009 NOSIG RMK CB TO N
2026-04-03 18:00:00,METAR WIII 031800Z 17005KT 130V220 5000 -TSRA FEW010CB BKN012 25/23 Q1010 NOSIG RMK CB TO N
2026-04-03 17:30:00,METAR WIII 031730Z 19004KT 160V220 5000 1500E -TSRA FEW012CB BKN015 25/24 Q1010 RESHRA WS ALL RWY NOSIG RMK CB IN APCH
2026-04-03 17:23:00,SPECI WIII 031723Z 18004KT 120V220 5000 -TSRA FEW010CB BKN012 25/24 Q1010 RESHRA WS ALL RWY NOSIG RMK CB IN PACH
2026-04-03 17:00:00,METAR WIII 031700Z 35008KT 3000 TS SHRA SCT010CB BKN012 24/24 Q1010 T EMPO TL1730 TSRA RMK CB IN APCH
2026-04-03 16:49:00,SPECI WIII 031649Z 35009KT 1500 TS +SHRA SCT010CB BKN012 24/23 Q1010 NOSIG RMK CB OVER THE FIELD
2026-04-03 16:30:00,METAR WIII 031630Z 01016KT 0500 TS +SHRA SCT010CB OVC012 24/24 Q1011 TEMPO TL1720 2000 +TSRA RMK CB OVER THE FIELD
2026-04-03 16:20:00,SPECI WIII 031620Z 36014KT 290V040 1000 0300E TS +SHRA SCT010CB OVC012 24/23 Q1011 TEMPO TL1720 2000 +TSRA RMK CB OVER THE FIELD
2026-04-03 16:10:00,SPECI WIII 031610Z 31006KT 270V020 2000 0300E TS +SHRA SCT012CB OVC015 26/25 Q1011 NOSIG RMK CB OVER THE FIELD
2026-04-03 16:00:00,METAR WIII 031600Z 28006KT 3000 1500E TSRA SCT013CB BKN018 26/25 Q1011 TEMPO TL1700 2000 +TSRA RMK CB IN APCH AND IN CLIMB OUT
2026-04-03 15:30:00,METAR WIII 031530Z 25005KT 210V270 3000 TSRA FEW013CB BKN020 26/25 Q1010 BECMG FM1630 4000 RA RMK CB TO N
2026-04-03 15:00:00,METAR WIII 031500Z 26005KT 3000 TSRA FEW013CB BKN017 26/25 Q1010 RESHRA TEMPO TL1600 TSRA RMK CB TO N
2026-04-03 14:37:00,SPECI WIII 031437Z 26005KT 240V300 3000 1500W TS SHRA FEW013CB BKN017 26/25 Q1010 NOSIG RMK CB IN APCH
2026-04-03 14:30:00,METAR WIII 031430Z 25006KT 3000 0900W +SHRA FEW013TCU BKN017 26/25 Q1010 NOSIG RMK TCU IN APCH
2026-04-03 14:14:00,SPECI WIII 031414Z 25006KT 3000 SHRA FEW013TCU BKN017 26/25 Q1010 RETS TEMPO TL1500 5000 HZ RMK TCU IN APCH
2026-04-03 14:00:00,METAR WIII 031400Z 26006KT 5000 TS HZ FEW013CB BKN017 26/25 Q1010 RER A NOSIG RMK CB TO NW
2026-04-03 13:41:00,SPECI WIII 031341Z 28006KT 240V310 5000 1500W -TSRA SCT013CB BKN017 27/25 Q1010 NOSIG RMK CB IN APCH
2026-04-03 13:30:00,METAR WIII 031330Z 21006KT 170V230 3000 1500W -TSRA SCT014CB BKN020 27/25 Q1010 TEMPO TL1400 2000 RMK CB IN APCH
2026-04-03 13:00:00,METAR WIII 031300Z 07010KT 5000 1500W TS HZ FEW015CB SCT023 29/26 Q1009 TEMPO FM1315 3000 TSRA RMK CB IN APCH
2026-04-03 12:30:00,METAR WIII 031230Z 06010KT 8000 VCTS FEW018CB SCT020 29/25 Q1009 NOSIG RMK CB TO SW
2026-04-03 12:00:00,METAR WIII 031200Z 05011KT 8000 TS FEW018CB SCT020 29/26 Q1008 NOSIG RMK CB TO S
2026-04-03 11:30:00,METAR WIII 031130Z 04012KT 8000 TS FEW018CB SCT020 29/26 Q1007 NOSIG RMK CB TO S
2026-04-03 11:00:00,METAR WIII 031100Z 03012KT 7000 FEW018CB SCT020 30/25 Q1007 NOSIG RMK CB TO SE
2026-04-03 10:30:00,METAR WIII 031030Z 03012KT 8000 FEW018CB FEW020 30/25 Q1007 NOSIG RMK CB TO SE
2026-04-03 10:00:00,METAR WIII 031000Z 04012KT 9000 FEW018CB FEW020 30/25 Q1007 NOSIG RMK CB TO S
2026-04-03 09:30:00,METAR WIII 030930Z 04014KT 9000 FEW018CB FEW020 31/25 Q1006 NOSIG RMK CB TO S
2026-04-03 09:00:00,METAR WIII 030900Z 03013KT 9999 FEW018CB FEW020 31/25 Q1006 NOSIG RMK CB TO SW
2026-04-03 08:30:00,METAR WIII 030830Z 03012KT 9999 FEW018CB FEW020 32/25 Q1006 NOSIG RMK CB TO SW
2026-04-03 08:00:00,METAR WIII 030800Z 03013KT 9999 FEW020 32/25 Q1006 NOSIG
2026-04-03 07:30:00,METAR WIII 030730Z 03011KT 9999 FEW020 33/26 Q1007 NOSIG
2026-04-03 07:00:00,METAR WIII 030700Z 04011KT 9999 FEW020 33/25 Q1007 NOSIG
2026-04-03 06:30:00,METAR WIII 030630Z 04010KT 9000 FEW020 33/25 Q1007 NOSIG
2026-04-03 06:00:00,METAR WIII 030600Z 05011KT 9000 FEW020 33/24 Q1008 NOSIG
2026-04-03 05:30:00,METAR WIII 030530Z 04010KT 9000 FEW020 33/25 Q1008 NOSIG
2026-04-03 05:00:00,METAR WIII 030500Z 05010KT 9000 FEW020 33/25 Q1009 NOSIG
2026-04-03 04:30:00,METAR WIII 030430Z 06007KT 9999 FEW020 33/24 Q1009 NOSIG
2026-04-03 04:00:00,METAR WIII 030400Z 06007KT 9999 FEW020 33/23 Q1010 NOSIG
2026-04-03 03:30:00,METAR WIII 030330Z 08005KT 9999 FEW020 32/23 Q1010 NOSIG
2026-04-03 03:00:00,METAR WIII 030300Z 11005KT 9999 FEW020 32/23 Q1010 NOSIG
2026-04-03 02:30:00,METAR WIII 030230Z 16006KT 120V210 9999 FEW020 31/23 Q1011 NOSIG
2026-04-03 02:00:00,METAR WIII 030200Z 14006KT 9999 FEW020 30/23 Q1011 NOSIG
2026-04-03 01:30:00,METAR WIII 030130Z 13006KT 8000 FEW020 29/24 Q1011 NOSIG
2026-04-03 01:00:00,METAR WIII 030100Z 17006KT 7000 FEW020 28/24 Q1011 NOSIG
2026-04-03 00:30:00,METAR WIII 030030Z 16005KT 130V190 4400 HZ FEW020 27/24 Q1011 NOSIG
2026-04-03 00:00:00,METAR WIII 030000Z 16005KT 4500 HZ FEW020 26/24 Q1010 NOSIG
2026-04-02 23:30:00,METAR WIII 022330Z 14004KT 4500 HZ FEW020 25/24 Q1010 NOSIG
2026-04-02 23:00:00,METAR WIII 022300Z 17005KT 4500 HZ FEW020 25/24 Q1010 NOSIG
2026-04-02 22:30:00,METAR WIII 022230Z 14005KT 6000 FEW020 25/24 Q1010 NOSIG
2026-04-02 22:00:00,METAR WIII 022200Z 24003KT 6000 FEW020 25/23 Q1009 NOSIG
2026-04-02 21:30:00,METAR WIII 022130Z 25004KT 6000 FEW020 25/23 Q1009 NOSIG
2026-04-02 21:00:00,METAR WIII 022100Z 24004KT 7000 FEW020 25/23 Q1009 NOSIG
2026-04-02 20:30:00,METAR WIII 022030Z 24003KT 8000 FEW020 25/23 Q1009 NOSIG
2026-04-02 20:00:00,METAR WIII 022000Z 20004KT 8000 FEW020 25/23 Q1009 NOSIG
2026-04-02 19:30:00,METAR WIII 021930Z 05004KT 6000 FEW020 26/23 Q1009 NOSIG
2026-04-02 19:00:00,METAR WIII 021900Z VRB02KT 8000 FEW020 26/23 Q1009 NOSIG
2026-04-02 18:30:00,METAR WIII 021830Z 14003KT 120V180 8000 FEW020 25/23 Q1009 NOSIG
2026-04-02 18:00:00,METAR WIII 021800Z 14004KT 100V190 8000 FEW020 25/23 Q1009 NOSIG
2026-04-02 17:30:00,METAR WIII 021730Z VRB02KT 7000 FEW020 25/23 Q1010 NOSIG
2026-04-02 17:00:00,METAR WIII 021700Z 13004KT 090V160 7000 FEW020 26/23 Q1010 NOSIG
2026-04-02 16:30:00,METAR WIII 021630Z 14006KT 120V180 8000 FEW020 26/23 Q1011 NOSIG
2026-04-02 16:00:00,METAR WIII 021600Z 12005KT 8000 FEW020 26/23 Q1011 NOSIG
2026-04-02 15:30:00,METAR WIII 021530Z 11006KT 8000 FEW020 26/23 Q1012 NOSIG
2026-04-02 15:00:00,METAR WIII 021500Z 13006KT 100V160 7000 FEW020 26/23 Q1012 NOSIG
2026-04-02 14:30:00,METAR WIII 021430Z 13007KT 7000 FEW020 26/23 Q1012 NOSIG
2026-04-02 14:00:00,METAR WIII 021400Z 13008KT 7000 FEW020 27/23 Q1012 NOSIG
2026-04-02 13:30:00,METAR WIII 021330Z 14006KT 110V170 8000 SCT020 26/23 Q1011 NOSIG
2026-04-02 13:00:00,METAR WIII 021300Z 15006KT 090V180 7000 SCT020 26/24 Q1011 NOSIG
2026-04-02 12:30:00,METAR WIII 021230Z 16007KT 7000 SCT020 26/24 Q1011 NOSIG
2026-04-02 12:00:00,METAR WIII 021200Z 15006KT 120V180 7000 FEW015CB SCT020 26/24 Q1010 RETS NOSIG RMK CB TO S
2026-04-02 11:30:00,METAR WIII 021130Z 15006KT 5000 TS HZ FEW015CB SCT020 27/24 Q1009 NOS IG RMK CB TO S
2026-04-02 11:00:00,METAR WIII 021100Z 14006KT 120V190 5000 TS HZ FEW015CB SCT020 27/24 Q1009 NOSIG RMK CB TO S
2026-04-02 10:30:00,METAR WIII 021030Z 17010KT 140V200 5000 -RA SCT020 28/25 Q1009 NOSIG
2026-04-02 10:00:00,METAR WIII 021000Z 29003KT 220V020 6000 SCT020 30/24 Q1008 NOSIG
2026-04-02 09:30:00,METAR WIII 020930Z 34004KT 310V030 7000 SCT020 30/24 Q1008 NOSIG
2026-04-02 09:00:00,METAR WIII 020900Z 35008KT 330V040 7000 SCT020 31/24 Q1007 NOSIG
2026-04-02 08:30:00,METAR WIII 020830Z 34010KT 320V020 7000 SCT020 32/24 Q1007 NOSIG
2026-04-02 08:00:00,METAR WIII 020800Z 35009KT 320V030 7000 SCT020 32/25 Q1007 NOSIG
2026-04-02 07:30:00,METAR WIII 020730Z 36008KT 330V090 7000 SCT020 33/23 Q1008 NOSIG
2026-04-02 07:00:00,METAR WIII 020700Z 02008KT 350V060 7000 SCT020 33/23 Q1008 NOSIG
2026-04-02 06:30:00,METAR WIII 020630Z 01010KT 9999 FEW020 33/23 Q1008 NOSIG
2026-04-02 06:00:00,METAR WIII 020600Z 03010KT 9999 FEW020 33/23 Q1009 NOSIG
2026-04-02 05:30:00,METAR WIII 020530Z 04008KT 350V050 9999 FEW020 32/23 Q1010 NOSIG
2026-04-02 05:00:00,METAR WIII 020500Z 04009KT 350V060 9999 FEW020 32/23 Q1010 NOSIG
2026-04-02 04:30:00,METAR WIII 020430Z 04008KT 9000 FEW020 32/24 Q1011 NOSIG
2026-04-02 04:00:00,METAR WIII 020400Z 05008KT 9000 FEW020 32/23 Q1011 NOSIG
2026-04-02 03:30:00,METAR WIII 020330Z 05005KT 020V080 9000 FEW020 32/22 Q1011 NOSIG
2026-04-02 03:00:00,METAR WIII 020300Z 05005KT 340V080 8000 FEW020 31/24 Q1012 NOSIG
2026-04-02 02:30:00,METAR WIII 020230Z VRB03KT 8000 FEW020 31/24 Q1012 NOSIG
2026-04-02 02:00:00,METAR WIII 020200Z VRB02KT 7000 FEW020 30/24 Q1011 NOSIG
2026-04-02 01:30:00,METAR WIII 020130Z VRB03KT 6000 FEW020 29/25 Q1011 NOSIG
2026-04-02 01:00:00,METAR WIII 020100Z VRB03KT 6000 FEW020 29/24 Q1011 NOSIG
2026-04-02 00:30:00,METAR WIII 020030Z 18004KT 6000 FEW020 28/25 Q1011 NOSIG
2026-04-02 00:00:00,METAR WIII 020000Z VRB03KT 5000 HZ FEW020 27/24 Q1011 NOSIG
2026-04-01 23:30:00,METAR WIII 012330Z VRB01KT 4000 HZ FEW020 26/24 Q1010 NOSIG
2026-04-01 23:00:00,METAR WIII 012300Z VRB02KT 7000 FEW020 26/24 Q1010 NOSIG
2026-04-01 22:30:00,METAR WIII 012230Z COR VRB02KT 7000 FEW020 26/24 Q1010 NOSIG
2026-04-01 21:30:00,METAR WIII 012130Z 19003KT 7000 FEW020 26/24 Q1010 NOSIG
2026-04-01 21:00:00,METAR WIII 012100Z 17004KT 7000 FEW020 26/24 Q1009 NOSIG
2026-04-01 20:30:00,METAR WIII 012030Z 19003KT 7000 FEW020 26/24 Q1009 NOSIG
2026-04-01 20:00:00,METAR WIII 012000Z VRB02KT 8000 FEW020 26/24 Q1009 NOSIG
2026-04-01 19:30:00,METAR WIII 011930Z 15004KT 8000 FEW020 26/24 Q1010 NOSIG
2026-04-01 19:00:00,METAR WIII 011900Z 15003KT 8000 FEW020 26/24 Q1010 NOSIG
2026-04-01 18:30:00,METAR WIII 011830Z VRB02KT 7000 SCT020 27/24 Q1010 NOSIG
2026-04-01 18:00:00,METAR WIII 011800Z 14005KT 8000 SCT020 27/24 Q1011 NOSIG
2026-04-01 17:30:00,METAR WIII 011730Z 15005KT 9000 SCT020 27/24 Q1011 NOSIG
2026-04-01 17:00:00,METAR WIII 011700Z 17005KT 130V210 9000 FEW020 27/24 Q1011 NOSIG
2026-04-01 16:30:00,METAR WIII 011630Z 15005KT 9000 FEW020 27/24 Q1011 NOSIG
2026-04-01 16:00:00,METAR WIII 011600Z VRB01KT 9000 FEW020 27/24 Q1011 NOSIG
2026-04-01 15:30:00,METAR WIII 011530Z 14002KT 9000 FEW020 27/24 Q1011 NOSIG
2026-04-01 15:00:00,METAR WIII 011500Z 15002KT 9000 SCT020 27/24 Q1011 NOSIG
2026-04-01 14:00:00,METAR WIII 011400Z 15006KT 9000 SCT020 27/24 Q1011 NOSIG
2026-04-01 13:30:00,METAR WIII 011330Z 17006KT 9000 FEW018CB SCT020 27/23 Q1011 NOSIG RMK CB TO NE
2026-04-01 13:00:00,METAR WIII 011300Z 15005KT 8000 FEW018CB SCT020 27/23 Q1010 TEMPO FM1 315 4000 -RA RMK CB TO SE
2026-04-01 12:30:00,METAR WIII 011230Z 20004KT 150V230 7000 FEW018CB SCT020 28/23 Q1010 N OSIG RMK CB TO E
2026-04-01 12:00:00,METAR WIII 011200Z 19004KT 130V210 7000 FEW018CB SCT020 28/23 Q1009 NOSIG RMK CB TO SE
2026-04-01 11:30:00,METAR WIII 011130Z 20007KT 160V230 7000 FEW018CB SCT020 28/23 Q1009 NOSIG RMK CB TO SE
2026-04-01 11:00:00,METAR WIII 011100Z 04004KT 7000 VCTS FEW018CB SCT020 29/25 Q1008 NOSIG RMK CB TO SE
2026-04-01 10:30:00,METAR WIII 011030Z 03005KT 360V070 9000 VCTS FEW018CB SCT020 30/24 Q1 008 NOSIG RMK CB TO SE
2026-04-01 10:00:00,METAR WIII 011000Z 04004KT 360V080 9000 FEW018CB SCT020 30/24 Q1007 NOSIG RMK CB TO S
2026-04-01 09:30:00,METAR WIII 010930Z 03007KT 350V070 9000 VCTS FEW018CB FEW020 31/25 Q1 007 NOSIG RMK CB TO SE AND S
2026-04-01 09:19:00,SPECI WIII 010919Z COR 03008KT 9000 VCTS FEW018CB FEW020 31/25 Q1007 NOSIG RMK CB TO S
2026-04-01 09:00:00,METAR WIII 010900Z 03010KT 360V060 9000 FEW020 31/24 Q1006 NOSIG
2026-04-01 08:30:00,METAR WIII 010830Z 02012KT 9000 FEW020 32/23 Q1006 NOSIG
2026-04-01 08:00:00,METAR WIII 010800Z 02011KT 350V060 9000 FEW020 32/25 Q1007 NOSIG
2026-04-01 07:30:00,METAR WIII 010730Z 02011KT 350V060 9999 FEW020 32/25 Q1007 NOSIG
2026-04-01 07:00:00,METAR WIII 010700Z 03011KT 350V060 9999 FEW020 32/24 Q1008 NOSIG
2026-04-01 06:30:00,METAR WIII 010630Z 03012KT 360V060 9999 FEW018CB SCT020 32/24 Q1009 N OSIG RMK CB TO SW
2026-04-01 06:00:00,METAR WIII 010600Z 05011KT 360V100 9999 FEW018CB SCT020 32/25 Q1009 N OSIG RMK CB TO SW
2026-04-01 05:30:00,METAR WIII 010530Z 04013KT 020V080 9999 VCTS FEW018CB SCT020 32/25 Q1009 NOSIG RMK CB TO SW
2026-04-01 05:00:00,METAR WIII 010500Z 04012KT 360V070 9999 SCT020 32/25 Q1010 NOSIG
2026-04-01 04:30:00,METAR WIII 010430Z 05011KT 9999 SCT020 32/25 Q1010 NOSIG
2026-04-01 04:00:00,METAR WIII 010400Z 04010KT 9000 SCT020 32/25 Q1010 NOSIG
2026-04-01 03:30:00,METAR WIII 010330Z 04010KT 9000 SCT020 31/25 Q1011 NOSIG
2026-04-01 03:00:00,METAR WIII 010300Z 05009KT 020V100 9000 SCT020 31/25 Q1011 NOSIG
2026-04-01 02:30:00,METAR WIII 010230Z 10009KT 070V130 9000 SCT020 31/25 Q1011 NOSIG
2026-04-01 02:00:00,METAR WIII 010200Z 12009KT 090V160 9000 SCT020 30/25 Q1011 NOSIG
2026-04-01 01:30:00,METAR WIII 010130Z 10008KT 060V140 8000 FEW021 30/25 Q1011 NOSIG
2026-04-01 01:00:00,METAR WIII 010100Z 12006KT 6000 FEW020 28/25 Q1010 NOSIG
2026-04-01 00:30:00,METAR WIII 010030Z VRB03KT 5000 HZ FEW020 27/25 Q1010 NOSIG
2026-04-01 00:00:00,METAR WIII 010000Z 21004KT 4500 BR FEW020 26/25 Q1010 NOSIG
2026-03-31 23:30:00,METAR WIII 312330Z VRB03KT 3500 BR FEW020 26/25 Q1010 NOSIG
2026-03-31 23:00:00,METAR WIII 312300Z 12005KT 5000 BR FEW020 26/24 Q1009 RETS NOSIG
2026-03-31 22:30:00,METAR WIII 312230Z VRB03KT 6000 TS FEW018CB FEW020 26/24 Q1009 NOSIG RMK CB TO N
2026-03-31 22:00:00,METAR WIII 312200Z 13003KT 6000 VCTS FEW018CB FEW020 26/24 Q1009 NOSIG RMK CB TO NE
2026-03-31 21:30:00,METAR WIII 312130Z VRB03KT 6000 FEW020 26/24 Q1009 NOSIG
2026-03-31 21:00:00,METAR WIII 312100Z 15003KT 6000 FEW020 26/24 Q1008 NOSIG
2026-03-31 20:30:00,METAR WIII 312030Z 15003KT 6000 FEW020 26/24 Q1008 NOSIG
2026-03-31 20:00:00,METAR WIII 312000Z 15004KT 6000 FEW020 26/24 Q1009 NOSIG
2026-03-31 19:30:00,METAR WIII 311930Z 14004KT 5000 HZ FEW020 26/25 Q1009 NOSIG
2026-03-31 19:00:00,METAR WIII 311900Z 16004KT 4000 HZ FEW020 26/24 Q1009 NOSIG
2026-03-31 18:30:00,METAR WIII 311830Z 18005KT 4000 HZ FEW020 26/25 Q1010 NOSIG
2026-03-31 18:00:00,METAR WIII 311800Z 18005KT 4500 HZ FEW020 27/25 Q1010 NOSIG
2026-03-31 17:30:00,METAR WIII 311730Z 17008KT 4500 HZ FEW020 27/25 Q1010 NOSIG
2026-03-31 17:00:00,METAR WIII 311700Z 18008KT 4500 HZ FEW018CB FEW020 27/25 Q1010 NOSIG RMK CB TO N
2026-03-31 16:30:00,METAR WIII 311630Z 19006KT 5000 HZ FEW020 27/25 Q1011 NOSIG
2026-03-31 16:00:00,METAR WIII 311600Z 18006KT 5000 HZ FEW020 27/25 Q1011 NOSIG
2026-03-31 15:30:00,METAR WIII 311530Z 18005KT 5000 HZ FEW020 27/25 Q1011 NOSIG
2026-03-31 15:00:00,METAR WIII 311500Z 17004KT 5000 HZ SCT020 28/25 Q1010 NOSIG
2026-03-31 14:30:00,METAR WIII 311430Z 06005KT 5000 HZ FEW020 28/25 Q1010 NOSIG
2026-03-31 14:00:00,METAR WIII 311400Z 36005KT 5000 HZ FEW020 28/25 Q1010 NOSIG
2026-03-31 13:30:00,METAR WIII 311330Z 33004KT 5000 HZ FEW020 28/25 Q1010 NOSIG
2026-03-31 13:00:00,METAR WIII 311300Z 36004KT 6000 FEW020 28/25 Q1010 NOSIG
2026-03-31 12:30:00,METAR WIII 311230Z 35003KT 7000 FEW020 28/25 Q1009 NOSIG
2026-03-31 12:00:00,METAR WIII 311200Z 36004KT 6000 FEW020 28/25 Q1009 NOSIG
2026-03-31 11:30:00,METAR WIII 311130Z 07003KT 9000 FEW018CB FEW020 28/25 Q1008 NOSIG RMK CB TO S
2026-03-31 11:00:00,METAR WIII 311100Z 01005KT 9999 VCTS FEW018CB FEW020 29/24 Q1008 NOSIG RMK CB TO S
2026-03-31 10:30:00,METAR WIII 311030Z 36005KT 9999 FEW020 29/24 Q1008 NOSIG
2026-03-31 10:00:00,METAR WIII 311000Z 36006KT 9999 SCT020 30/25 Q1007 NOSIG
2026-03-31 09:30:00,METAR WIII 310930Z 34007KT 9999 SCT020 30/24 Q1007 NOSIG
2026-03-31 09:00:00,METAR WIII 310900Z COR 34007KT 9999 FEW018CB SCT020 30/25 Q1007 NOSIG RMK CB TO SW
2026-03-31 08:30:00,METAR WIII 310830Z 35008KT 9999 FEW018CB FEW020 31/25 Q1007 NOSIG RMK CB TO SW
2026-03-31 08:00:00,METAR WIII 310800Z 36009KT 9999 FEW018CB FEW020 31/25 Q1007 NOSIG RMK CB TO SW
2026-03-31 07:30:00,METAR WIII 310730Z 36009KT 9999 FEW018CB FEW020 31/25 Q1007 NOSIG RMK CB TO SW
2026-03-31 07:00:00,METAR WIII 310700Z 01009KT 9999 FEW018CB SCT020 31/25 Q1008 NOSIG RMK CB TO S
2026-03-31 06:30:00,METAR WIII 310630Z 01008KT 320V100 9999 SCT020 32/25 Q1008 NOSIG
2026-03-31 06:00:00,METAR WIII 310600Z 03007KT 330V060 9999 SCT020 31/25 Q1009 NOSIG
2026-03-31 05:30:00,METAR WIII 310530Z 33007KT 280V010 9999 SCT020 31/25 Q1010 NOSIG
2026-03-31 05:00:00,METAR WIII 310500Z 36007KT 9999 SCT020 30/25 Q1010 NOSIG
2026-03-31 04:30:00,METAR WIII 310430Z 35004KT 300V020 9000 SCT020 30/25 Q1011 NOSIG
2026-03-31 04:00:00,METAR WIII 310400Z 02004KT 280V060 9000 SCT020 29/25 Q1011 NOSIG
2026-03-31 03:30:00,METAR WIII 310330Z 34006KT 320V040 7000 SCT020 29/25 Q1012 NOSIG
2026-03-31 03:00:00,METAR WIII 310300Z 34004KT 330V040 5000 HZ FEW018CB SCT020 28/25 Q1012 NOSIG RMK CB TO N
2026-03-31 02:30:00,METAR WIII 310230Z 02004KT 310V030 4500 VCTS HZ FEW018CB SCT020 28/25 Q1012 NOSIG RMK CB TO N
2026-03-31 02:00:00,METAR WIII 310200Z 07004KT 6000 VCTS FEW018CB SCT020 28/25 Q1012 NOSIG RMK CB TO NW
2026-03-31 01:30:00,METAR WIII 310130Z VRB02KT 6000 VCTS FEW018CB SCT020 27/25 Q1011 NOSIG RMK CB TO NW
2026-03-31 01:00:00,METAR WIII 310100Z COR 14003KT 6000 VCTS FEW018CB SCT020 27/25 Q1011 NOSIG RMK CB TO NW
2026-03-31 00:30:00,METAR WIII 310030Z 20003KT 6000 VCTS FEW018CB SCT020 26/25 Q1011 NOSIG RMK CB TO NW
2026-03-31 00:00:00,METAR WIII 310000Z VRB05KT 4000 BR SCT020 26/24 Q1010 NOSIG
2026-03-30 23:30:00,METAR WIII 302330Z 17005KT 4700 BR SCT020 25/24 Q1009 NOSIG
2026-03-30 23:00:00,METAR WIII 302300Z VRB02KT 4100 BR SCT020 25/24 Q1009 NOSIG
2026-03-30 22:30:00,METAR WIII 302230Z 18002KT 4500 BR SCT020 25/24 Q1009 NOSIG
2026-03-30 22:00:00,METAR WIII 302200Z VRB02KT 5000 BR SCT020 26/24 Q1009 NOSIG
2026-03-30 21:30:00,METAR WIII 302130Z 15003KT 110V190 5000 BR SCT020 25/24 Q1009 NOSIG
2026-03-30 21:00:00,METAR WIII 302100Z 18002KT 4500 BR SCT020 25/24 Q1009 NOSIG
2026-03-30 20:30:00,METAR WIII 302030Z VRB02KT 4400 BR SCT020 25/24 Q1008 NOSIG
2026-03-30 20:00:00,METAR WIII 302000Z VRB02KT 4500 BR FEW020 25/24 Q1008 NOSIG
2026-03-30 19:30:00,METAR WIII 301930Z 22003KT 200V260 6000 FEW020 25/24 Q1009 NOSIG
2026-03-30 19:00:00,METAR WIII 301900Z 16003KT 6000 FEW020 25/24 Q1009 NOSIG
2026-03-30 18:30:00,METAR WIII 301830Z 16005KT 8000 FEW020 26/24 Q1010 NOSIG
2026-03-30 18:00:00,METAR WIII 301800Z 14005KT 8000 FEW020 26/24 Q1010 NOSIG
2026-03-30 17:30:00,METAR WIII 301730Z 16004KT 7000 SCT020 26/24 Q1011 NOSIG
2026-03-30 17:00:00,METAR WIII 301700Z 17004KT 110V180 8000 SCT020 26/24 Q1011 NOSIG
2026-03-30 16:30:00,METAR WIII 301630Z 15005KT 8000 SCT020 26/24 Q1011 NOSIG
2026-03-30 16:00:00,METAR WIII 301600Z 14004KT 8000 FEW020 26/24 Q1011 NOSIG
2026-03-30 15:30:00,METAR WIII 301530Z 15003KT 8000 FEW020 26/24 Q1011 NOSIG
2026-03-30 15:00:00,METAR WIII 301500Z 18004KT 8000 SCT020 26/24 Q1011 NOSIG
2026-03-30 14:30:00,METAR WIII 301430Z 14003KT 9999 SCT020 26/24 Q1011 NOSIG
2026-03-30 14:00:00,METAR WIII 301400Z 13003KT 9999 SCT020 26/24 Q1011 NOSIG
2026-03-30 13:30:00,METAR WIII 301330Z 15005KT 8000 FEW018CB SCT020 26/24 Q1010 NOSIG RMK CB TO E AND W
2026-03-30 13:00:00,METAR WIII 301300Z 15006KT 8000 SCT020 26/24 Q1010 NOSIG
2026-03-30 12:30:00,METAR WIII 301230Z VRB02KT 8000 SCT020 26/24 Q1010 NOSIG
2026-03-30 12:00:00,METAR WIII 301200Z VRB03KT 8000 SCT020 25/23 Q1010 NOSIG
2026-03-30 11:30:00,METAR WIII 301130Z VRB03KT 8000 SCT020 25/23 Q1009 RERA NOSIG
2026-03-30 11:00:00,METAR WIII 301100Z VRB03KT 7000 -RA SCT020 25/23 Q1009 NOSIG
2026-03-30 10:30:00,METAR WIII 301030Z VRB03KT 7000 -RA FEW018CB SCT020 25/23 Q1008 NOSIG RMK CB TO S
2026-03-30 10:00:00,METAR WIII 301000Z 26007KT 8000 VCTS FEW018CB SCT020 24/23 Q1008 RERA NOSIG RMK CB TO NW
2026-03-30 09:30:00,METAR WIII 300930Z 28010KT 6000 -TSRA FEW015CB SCT017 24/23 Q1008 NOS IG RMK CB TO W AND NW
2026-03-30 09:08:00,SPECI WIII 300908Z 22014KT 200V300 4500 -TSRA FEW014CB BKN016 24/23 Q1008 NOSIG RMK CB ALL RWY
2026-03-30 09:00:00,METAR WIII 300900Z 20018G35KT 190V330 0800 +TSRA SCT014CB OVC016 24/23 Q1007 WS ALL RWY BECMG AT0920 4000 -TSRA RMK CB ALL RWY
2026-03-30 08:38:00,SPECI WIII 300838Z 12014KT 070V160 0800 +TSRA SCT015CB BKN017 26/22 Q1007 TEMPO TL0900 1000 TSRA RMK CB ALL RWY
2026-03-30 08:30:00,METAR WIII 300830Z 12014KT 080V150 5000 -TSRA FEW015CB BKN017 28/22 Q1007 TEMPO FM0835 2000 TSRA RMK CB ALL RWY
2026-03-30 08:20:00,SPECI WIII 300820Z 33010G23KT 340V120 7000 TS FEW015CB BKN017 29/22 Q1007 WS ALL RWY TEMPO FM0835 2000 TSRA RMK CB ALL RWY
2026-03-30 08:00:00,METAR WIII 300800Z 33012KT 8000 TS FEW018CB FEW020 31/26 Q1007 TEMPO FM0820 3000 TSRA RMK CB TO SE AND W
2026-03-30 07:42:00,SPECI WIII 300742Z 33011KT 9000 TS FEW018CB FEW020 32/26 Q1007 TEMPO FM0820 3000 TSRA RMK CB TO SE AND W
2026-03-30 07:30:00,METAR WIII 300730Z 34011KT 9999 VCTS FEW018CB FEW020 31/26 Q1006 NOSIG RMK CB TO W
2026-03-30 07:13:00,SPECI WIII 300713Z 33010G21KT 300V360 9999 FEW020 32/26 Q1007 NOSIG
2026-03-30 07:00:00,METAR WIII 300700Z 33010KT 300V360 9999 FEW020 31/25 Q1007 NOSIG
2026-03-30 06:30:00,METAR WIII 300630Z 33010KT 280V360 7000 SCT020 31/26 Q1007 NOSIG
2026-03-30 06:00:00,METAR WIII 300600Z 32008KT 270V360 5000 1500N HZ FEW015TCU SCT018 31/26 Q1008 NOSIG RMK TCU TO N
2026-03-30 05:30:00,METAR WIII 300530Z 31007KT 280V350 7000 FEW020 32/25 Q1009 NOSIG
2026-03-30 05:00:00,METAR WIII 300500Z 31008KT 270V340 7000 SCT020 32/24 Q1009 NOSIG
2026-03-30 04:30:00,METAR WIII 300430Z 26006KT 210V300 7000 SCT020 32/24 Q1010 NOSIG
2026-03-30 04:00:00,METAR WIII 300400Z 32005KT 280V040 7000 SCT020 32/25 Q1010 NOSIG
2026-03-30 03:30:00,METAR WIII 300330Z 29006KT 230V340 7000 SCT020 31/24 Q1011 NOSIG
2026-03-30 03:00:00,METAR WIII 300300Z 30006KT 260V360 7000 SCT020 31/25 Q1011 NOSIG
2026-03-30 02:30:00,METAR WIII 300230Z 28007KT 250V310 7000 SCT020 29/24 Q1011 NOSIG
2026-03-30 02:00:00,METAR WIII 300200Z 27007KT 230V320 7000 FEW017 29/25 Q1011 NOSIG
2026-03-30 01:30:00,METAR WIII 300130Z 25005KT 220V290 7000 FEW018 28/24 Q1011 NOSIG
2026-03-30 01:00:00,METAR WIII 300100Z 24004KT 7000 FEW020 28/24 Q1011 NOSIG
2026-03-30 00:30:00,METAR WIII 300030Z 24005KT 9000 SCT020 26/24 Q1011 NOSIG
2026-03-30 00:00:00,METAR WIII 300000Z 27007KT 7000 SCT020 26/24 Q1010 NOSIG
2026-03-29 23:35:00,SPECI WIII 292335Z 28005KT 6000 VCTS FEW018CB SCT020 26/24 Q1010 NOSIG RMK CB TO N
2026-03-29 23:30:00,METAR WIII 292330Z 29004KT 4000 BR FEW018CB SCT020 26/24 Q1010 NOSIG RMK CB TO N
2026-03-29 23:05:00,SPECI WIII 292305Z 27004KT 4000 BR FEW018CB SCT020 25/24 Q1009 NOSIG RMK CB TO N
2026-03-29 23:00:00,METAR WIII 292300Z 25004KT 6000 FEW018CB SCT020 25/24 Q1009 NOSIG RMK CB TO NW
2026-03-29 22:30:00,METAR WIII 292230Z 24005KT 6000 FEW018CB SCT020 25/24 Q1009 NOSIG
2026-03-29 22:00:00,METAR WIII 292200Z 23005KT 6000 FEW018CB SCT020 26/24 Q1009 NOSIG RMK CB TO NW
2026-03-29 21:30:00,METAR WIII 292130Z 24004KT 4600 BR FEW018CB SCT020 26/25 Q1008 NOSIG RMK CB TO NW
2026-03-29 21:00:00,METAR WIII 292100Z 23003KT 6000 FEW018CB SCT020 26/25 Q1008 NOSIG RMK CB TO NW
2026-03-29 20:30:00,METAR WIII 292030Z 22006KT 3700 VCTS BR FEW018CB SCT020 26/25 Q1008 NOSIG RMK CB TO NW
2026-03-29 20:06:00,SPECI WIII 292006Z 21006KT 4000 BR SCT020 26/25 Q1009 NOSIG
2026-03-29 20:00:00,METAR WIII 292000Z 21006KT 170V230 6000 SCT020 26/25 Q1009 NOSIG
2026-03-29 19:30:00,METAR WIII 291930Z 18004KT 6000 SCT020 26/25 Q1009 NOSIG
2026-03-29 19:00:00,METAR WIII 291900Z 22004KT 190V250 6000 SCT020 26/25 Q1009 RERA NOSIG
2026-03-29 18:30:00,METAR WIII 291830Z 18003KT 150V210 5000 -RA FEW019 26/25 Q1009 NO SIG
2026-03-29 18:00:00,METAR WIII 291800Z VRB02KT 6000 -RA SCT019 26/25 Q1009 NOSIG
2026-03-29 17:30:00,METAR WIII 291730Z VRB02KT 6000 -RA SCT019 26/24 Q1010 NOSIG
2026-03-29 17:00:00,METAR WIII 291700Z 16003KT 110V200 6000 -RA SCT019 27/24 Q1010 NOSIG
2026-03-29 16:30:00,METAR WIII 291630Z 15004KT 6000 SCT020 27/25 Q1010 NOSIG
2026-03-29 16:00:00,METAR WIII 291600Z 15004KT 6000 SCT020 27/25 Q1011 NOSIG
2026-03-29 15:30:00,METAR WIII 291530Z COR VRB02KT 5000 HZ SCT020 27/25 Q1010 RERA NOSIG
2026-03-29 15:00:00,METAR WIII 291500Z VRB02KT 5000 -RA SCT020 27/25 Q1010 NOSIG
2026-03-29 14:30:00,METAR WIII 291430Z 16004KT 120V180 4800 -RA BKN020 27/25 Q1010 NOSIG
2026-03-29 14:00:00,METAR WIII 291400Z 14004KT 100V170 5000 -RA BKN020 27/25 Q1010 NOSIG
2026-03-29 13:30:00,METAR WIII 291330Z 16004KT 130V200 4500 -RA BKN020 27/25 Q1009 BECMG FM1400 7000 NSW
2026-03-29 13:00:00,METAR WIII 291300Z 17004KT 140V210 4000 -RA BKN020 27/25 Q1009 NOSIG
2026-03-29 12:30:00,METAR WIII 291230Z 16005KT 5000 -RA FEW018CB BKN020 28/26 Q1009 TEMPO TL1330 3000 RA RMK CB TO S AND W
2026-03-29 12:16:00,SPECI WIII 291216Z 03004KT 5000 -RA FEW018CB BKN020 28/26 Q1008 TEMPO TL1330 3000 RA RMK CB TO S AND W
2026-03-29 12:00:00,METAR WIII 291200Z 07004KT 7000 FEW018CB BKN020 28/26 Q1008 RERA TEMPO TL1230 5000 RA RMK CB TO S AND W
2026-03-29 11:30:00,METAR WIII 291130Z 03004KT 9000 -RA FEW018CB BKN020 29/26 Q1007 TEMPO TL1230 5000 RA RMK CB TO S
2026-03-29 11:00:00,METAR WIII 291100Z 06004KT 9999 FEW018CB SCT020 29/25 Q1007 TEMPO FM1125 4000 RA RMK CB TO SE AND SW
2026-03-29 10:30:00,METAR WIII 291030Z 02005KT 330V040 9999 FEW018CB SCT020 29/25 Q1006 NOSIG RMK CB TO SE AND SW
2026-03-29 10:00:00,METAR WIII 291000Z 02007KT 330V040 9999 FEW018CB SCT020 29/25 Q1006 NOSIG RMK CB TO SE AND SW
2026-03-29 09:30:00,METAR WIII 290930Z 02009KT 320V030 9999 VCTS FEW018CB SCT020 30/25 Q1006 NOSIG RMK CB TO SE AND SW
2026-03-29 09:00:00,METAR WIII 290900Z 35006KT 340V050 9999 FEW018CB SCT020 30/25 Q1006 NOSIG RMK CB TO SE AND SW
2026-03-29 08:30:00,METAR WIII 290830Z 36010KT 9999 FEW018CB SCT020 31/25 Q1005 NOSIG RMK CB TO S AND W
2026-03-29 08:00:00,METAR WIII 290800Z 35011KT 9999 FEW018CB SCT020 31/26 Q1006 NOSIG RMK CB TO SE
2026-03-29 07:30:00,METAR WIII 290730Z 02011KT 320V030 9999 FEW020 32/25 Q1006 NOSIG
2026-03-29 07:00:00,METAR WIII 290700Z 02011KT 340V040 9999 SCT020 32/25 Q1006 NOSIG
2026-03-29 06:30:00,METAR WIII 290630Z 36009KT 320V050 7000 SCT020 31/25 Q1007 NOSIG
2026-03-29 06:00:00,METAR WIII 290600Z 36010KT 320V060 7000 FEW019CB SCT020 32/25 Q1007 NOSIG RMK CB TO SW
2026-03-29 05:30:00,METAR WIII 290530Z 35010KT 320V040 7000 SCT020 32/25 Q1008 NOSIG
2026-03-29 05:00:00,METAR WIII 290500Z 01008KT 340V050 7000 SCT020 31/25 Q1008 NOSIG
2026-03-29 04:30:00,METAR WIII 290430Z 03007KT 350V060 7000 SCT020 31/24 Q1009 NOSIG
2026-03-29 04:00:00,METAR WIII 290400Z 04009KT 010V070 7000 SCT020 31/25 Q1009 NOSIG
2026-03-29 03:30:00,METAR WIII 290330Z 04007KT 360V080 6000 SCT020 31/25 Q1009 NOSIG
2026-03-29 03:00:00,METAR WIII 290300Z 05004KT 330V110 6000 SCT020 31/24 Q1010 NOSIG
2026-03-29 02:30:00,METAR WIII 290230Z VRB03KT 6000 SCT020 31/25 Q1010 NOSIG
2026-03-29 02:00:00,METAR WIII 290200Z VRB02KT 5000 HZ SCT020 30/25 Q1010 NOSIG
2026-03-29 01:30:00,METAR WIII 290130Z VRB02KT 5000 HZ FEW020 29/25 Q1009 NOSIG
2026-03-29 01:00:00,METAR WIII 290100Z VRB03KT 4000 HZ FEW020 28/25 Q1009 NOSIG
2026-03-29 00:30:00,METAR WIII 290030Z 15003KT 4000 BR FEW020 27/25 Q1009 NOSIG
2026-03-29 00:00:00,METAR WIII 290000Z 21002KT 4000 BR FEW020 26/25 Q1008 NOSIG
2026-03-28 23:30:00,METAR WIII 282330Z 23002KT 4000 BR FEW020 26/25 Q1008 NOSIG
2026-03-28 23:00:00,METAR WIII 282300Z 16002KT 4000 BR FEW020 26/25 Q1008 NOSIG
2026-03-28 22:30:00,METAR WIII 282230Z 14003KT 5000 BR FEW020 25/24 Q1007 NOSIG
2026-03-28 22:00:00,METAR WIII 282200Z 13002KT 5000 BR FEW020 25/24 Q1007 NOSIG
2026-03-28 21:30:00,METAR WIII 282130Z 14002KT 4000 BR FEW020 26/25 Q1007 NOSIG
2026-03-28 21:00:00,METAR WIII 282100Z 16002KT 4000 BR FEW020 26/25 Q1007 NOSIG
2026-03-28 20:30:00,METAR WIII 282030Z 36002KT 4500 BR FEW020 26/25 Q1008 NOSIG
2026-03-28 20:00:00,METAR WIII 282000Z 10002KT 5000 HZ FEW020 26/25 Q1008 NOSIG
2026-03-28 19:30:00,METAR WIII 281930Z 16002KT 6000 FEW020 26/25 Q1008 NOSIG
2026-03-28 19:00:00,METAR WIII 281900Z 20003KT 6000 FEW020 26/25 Q1008 NOSIG
2026-03-28 18:30:00,METAR WIII 281830Z 22002KT 5000 HZ SCT020 26/24 Q1008 NOSIG
2026-03-28 18:00:00,METAR WIII 281800Z 25003KT 5000 HZ FEW200 26/25 Q1009 NOSIG
2026-03-28 17:30:00,METAR WIII 281730Z VRB02KT 7000 SCT018 27/24 Q1009 NOSIG
2026-03-28 17:00:00,METAR WIII 281700Z 20003KT 160V230 7000 FEW018 27/25 Q1009 NOSIG
2026-03-28 16:30:00,METAR WIII 281630Z VRB02KT 7000 FEW020 27/25 Q1009 NOSIG
2026-03-28 16:00:00,METAR WIII 281600Z 14002KT 6000 FEW020 28/25 Q1009 NOSIG
2026-03-28 15:30:00,METAR WIII 281530Z 13002KT 7000 FEW020 28/25 Q1009 NOSIG
2026-03-28 15:00:00,METAR WIII 281500Z VRB02KT 6000 SCT020 28/25 Q1009 NOSIG
2026-03-28 14:30:00,METAR WIII 281430Z VRB01KT 7000 SCT020 28/25 Q1009 NOSIG
2026-03-28 14:00:00,METAR WIII 281400Z 10002KT 7000 SCT020 28/25 Q1009 NOSIG
2026-03-28 13:30:00,METAR WIII 281330Z VRB02KT 7000 SCT020 28/25 Q1009 NOSIG
2026-03-28 13:00:00,METAR WIII 281300Z 03003KT 340V070 5000 HZ FEW017CB SCT020 28/25 Q100 8 NOSIG RMK CB TO S
2026-03-28 12:30:00,METAR WIII 281230Z 01004KT 330V050 7000 FEW019CB SCT020 28/25 Q1008 NOSIG RMK CB TO S
2026-03-28 12:00:00,METAR WIII 281200Z 36005KT 310V050 8000 SCT020 28/24 Q1007 NOSIG
2026-03-28 11:30:00,METAR WIII 281130Z 36005KT 300V030 8000 SCT020 28/24 Q1007 NOSIG
2026-03-28 11:00:00,METAR WIII 281100Z 35007KT 300V040 9000 SCT020 29/25 Q1006 NOSIG
2026-03-28 10:30:00,METAR WIII 281030Z 32006KT 9000 SCT020 30/24 Q1006 NOSIG
2026-03-28 10:00:00,METAR WIII 281000Z 28006KT 250V330 9000 SCT020 31/23 Q1005 NOSIG
2026-03-28 09:30:00,METAR WIII 280930Z COR 29008KT 9000 SCT020 31/24 Q1005 NOSIG
2026-03-28 09:00:00,METAR WIII 280900Z 31007KT 280V340 9000 SCT020 31/24 Q1005 NOSIG
2026-03-28 08:30:00,METAR WIII 280830Z 31008KT 270V340 9000 SCT020 31/24 Q1005 NOSIG
2026-03-28 08:00:00,METAR WIII 280800Z 32009KT 280V340 9000 SCT020 30/24 Q1005 NOSIG
2026-03-28 07:30:00,METAR WIII 280730Z 33010KT 9000 SCT020 31/25 Q1006 NOSIG
2026-03-28 07:00:00,METAR WIII 280700Z 33010KT 280V360 9999 SCT020 30/25 Q1007 NOSIG
2026-03-28 06:30:00,METAR WIII 280630Z 33010KT 9999 SCT020 29/25 Q1008 NOSIG
2026-03-28 06:00:00,METAR WIII 280600Z 36006KT 9999 SCT020 30/25 Q1008 NOSIG
2026-03-28 05:30:00,METAR WIII 280530Z 33004KT 300V020 9999 SCT020 29/24 Q1008 NOSIG
2026-03-28 05:00:00,METAR WIII 280500Z 33005KT 270V010 9999 SCT020 28/24 Q1009 NOSIG
2026-03-28 04:30:00,METAR WIII 280430Z 29005KT 9999 SCT020 28/23 Q1009 NOSIG
2026-03-28 04:00:00,METAR WIII 280400Z 32004KT 9999 SCT020 27/23 Q1009 NOSIG
2026-03-28 03:30:00,METAR WIII 280330Z 05004KT 8000 SCT020 26/23 Q1010 NOSIG
2026-03-28 03:00:00,METAR WIII 280300Z 32003KT 8000 SCT020 25/23 Q1011 NOSIG
2026-03-28 02:30:00,METAR WIII 280230Z 22006KT 8000 BKN020 25/24 Q1011 RETS NOSIG
2026-03-28 02:00:00,METAR WIII 280200Z 11003KT 090V160 8000 VCTS FEW018CB BKN020 24/23 Q1010 NOSIG RMK CB TO NE AND NW
2026-03-28 01:30:00,METAR WIII 280130Z 08004KT 8000 TS SCT018CB BKN020 24/22 Q1009 BECMG AT0200 NSW RMK CB ALL RWY
2026-03-28 01:14:00,SPECI WIII 280114Z 08007KT 7000 VCTS SCT018CB BKN020 23/22 Q1009 BECMG AT0130 NSW RMK CB ALL RWY
2026-03-28 01:00:00,METAR WIII 280100Z 04009KT 360V060 8000 -TSRA FEW018CB SCT020 23/22 Q1009 BECMG AT0130 NSW RMK CB TO NE
2026-03-28 00:38:00,SPECI WIII 280038Z 02010KT 340V050 3000 TSRA SCT016CB BKN018 24/23 Q1010 TEMPO TL0130 3000 TSRA RMK CB ALL RWY
2026-03-28 00:30:00,METAR WIII 280030Z 34012KT 300V030 0200 +TSRA SCT016CB OVC018CB 23/23 Q1009 TEMPO TL0130 3000 TSRA RMK CB OVER THE FIELD
2026-03-28 00:21:00,SPECI WIII 280021Z 34010KT 300V030 0200 +TSRA SCT016CB OVC018 23/23 Q1009 TEMPO TL0130 3000 TSRA RMK CB ALL RWY
2026-03-28 00:13:00,SPECI WIII 280013Z 33010G21KT 290V010 1000 +TSRA SCT016CB OVC018 24/23 Q1009 TEMPO TL0130 3000 TSRA RMK CB OVER THE FIELD
2026-03-28 00:00:00,METAR WIII 280000Z 28008KT 250V320 2000 TSRA SCT016CB OVC018 26/25 Q1009 TEMPO FM0010 1500 +TSRA RMK CB OVER THE FIELD
2026-03-27 23:30:00,METAR WIII 272330Z VRB02KT 5000 VCTS -RA FEW016CB BKN020 27/25 Q1008 TEMPO FM2350 4000 TSRA RMK CB TO SW AND NW
2026-03-27 23:00:00,METAR WIII 272300Z VRB02KT 6000 VCTS FEW016CB SCT020 26/25 Q1008 TEMPO FM2310 4000 TSRA RMK CB TO NW
2026-03-27 22:30:00,METAR WIII 272230Z VRB02KT 6000 VCTS FEW018CB SCT020 26/25 Q1008 NOSI G RMK CB TO NW
2026-03-27 22:00:00,METAR WIII 272200Z 15004KT 100V210 6000 VCTS FEW018CB SCT020 26/25 Q1007 NOSIG RMK CB TO NW
2026-03-27 21:30:00,METAR WIII 272130Z 14004KT 6000 VCTS FEW018CB SCT020 26/25 Q1006 NOSIG RMK CB TO NW
2026-03-27 21:00:00,METAR WIII 272100Z VRB02KT 6000 VCTS FEW018CB SCT020 26/25 Q1006 NOSIG RMK CB TO W AND SW
2026-03-27 20:30:00,METAR WIII 272030Z VRB02KT 6000 FEW020 26/25 Q1006 NOSIG
2026-03-27 20:00:00,METAR WIII 272000Z 10002KT 6000 SCT020 26/25 Q1006 NOSIG
2026-03-27 19:30:00,METAR WIII 271930Z 17003KT 120V220 6000 SCT020 26/25 Q1007 NOSIG
2026-03-27 19:00:00,METAR WIII 271900Z 18005KT 150V210 6000 -RA BKN019 26/25 Q1007 BECMG AT1940 NSW
2026-03-27 18:30:00,METAR WIII 271830Z 15003KT 120V190 3000 RA BKN019 28/25 Q1008 TEMPO TL1930 4000 RA
2026-03-27 18:00:00,METAR WIII 271800Z VRB02KT 7000 BKN020 27/25 Q1008 NOSIG
2026-03-27 17:30:00,METAR WIII 271730Z 11003KT 7000 SCT020 27/25 Q1008 NOSIG
2026-03-27 17:00:00,METAR WIII 271700Z 00000KT 5000 HZ FEW020 27/25 Q1008 NOSIG
2026-03-27 16:30:00,METAR WIII 271630Z 05003KT 7000 FEW020 27/25 Q1008 NOSIG
2026-03-27 16:00:00,METAR WIII 271600Z 05001KT 7000 FEW020 27/25 Q1008 NOSIG
2026-03-25 15:00:00,METAR WIII 251500Z 24002KT 7000 VCTS FEW018 SCT020 27/24 Q1008 NOSIG RMK CB TO NE AND NW
2026-03-25 14:30:00,METAR WIII 251430Z 21003KT 8000 FEW018CB SCT020 27/24 Q1008 NOSIG RMK CB TO NE AND NW
2026-03-25 14:05:00,SPECI WIII 251405Z 20004KT 7000 TS FEW018CB SCT020 27/24 Q1008 NOSIG RMK CB TO N
2026-03-25 14:00:00,METAR WIII 251400Z 23003KT 7000 FEW018CB SCT020 27/24 Q1008 NOSIG RMK CB TO N
2026-03-25 13:30:00,METAR WIII 251330Z 07002KT 7000 FEW018CB SCT020 27/25 Q1008 NOSIG RMK CB TO N
2026-03-25 13:05:00,SPECI WIII 251305Z VRB01KT 6000 TS FEW018CB SCT020 27/25 Q1008 NOSIG RMK CB ALL RWY
2026-03-25 13:00:00,METAR WIII 251300Z 36005KT 7000 VCTS FEW018CB SCT020 27/25 Q1008 NOSI G
2026-03-25 12:30:00,METAR WIII 251230Z 17005KT 080V200 8000 VCTS FEW018CB SCT020 27/24 Q1 008 NOSIG RMK CB TO N
2026-03-25 12:16:00,SPECI WIII 251216Z VRB03KT 7000 FEW018CB SCT020 27/25 Q1008 RERA NOSIG RMK CB TO N
2026-03-25 12:00:00,METAR WIII 251200Z VRB03KT 5000 -RA FEW018CB SCT020 27/25 Q1007 BECMG FM1210 8000 NSW RMK CB TO N
2026-03-25 11:45:00,SPECI WIII 251145Z 13005KT 5000 -RA FEW018CB SCT020 27/25 Q1007 BECMG FM1210 8000 NSW RMK CB TO NW
2026-03-25 11:30:00,METAR WIII 251130Z 16005KT 110V200 2500 RA FEW018CB SCT020 27/25 Q1007 TEMPO FM1150 5000 -RA RMK CB TO S
2026-03-25 11:00:00,METAR WIII 251100Z 17006KT 5000 -RA FEW018CB BKN020 27/25 Q1006 NOSIG RMK CB TO SE
2026-03-25 10:52:00,SPECI WIII 251052Z 17006KT 4000 -RA FEW018CB BKN020 28/25 Q1006 NOSIG RMK CB TO SE
2026-03-25 10:30:00,METAR WIII 251030Z 12005KT 6000 FEW018CB SCT020 27/25 Q1006 RERA NOSIG RMK CB TO S
2026-03-25 10:00:00,METAR WIII 251000Z 14007KT 5000 -RA FEW018CB SCT020 29/25 Q1006 BECMG FM1020 6000 NSW RMK CB TO SE
2026-03-25 09:48:00,SPECI WIII 250948Z 36006KT 360V130 3500 RA FEW018CB SCT020 29/24 Q1006 BECMG FM1020 6000 NSW RMK CB TO S
2026-03-25 09:30:00,METAR WIII 250930Z 36007KT 360V100 7000 VCTS FEW018CB SCT020 29/24 Q1006 BECMG FM1000 NSW RMK CB TO E
2026-03-25 09:08:00,SPECI WIII 250908Z 36007KT 310V020 6000 -TSRA FEW018CB SCT020 29/24 Q1006 TEMPO FM0915 3000 TSRA RMK CB TO E AND SE
2026-03-25 09:00:00,METAR WIII 250900Z 34010KT 300V010 6000 -RA FEW018CB SCT020 30/24 Q1006 TEMPO FM0905 3000 TSRA RMK CB TO SE
2026-03-25 08:51:00,SPECI WIII 250851Z 34010KT 5000 -RA FEW018CB SCT020 30/24 Q1006 TEMPO FM0905 3000 TSRA RMK CB TO SE AND S
2026-03-25 08:30:00,METAR WIII 250830Z 34011KT 300V010 9999 VCTS FEW018CB SCT020 30/24 Q1 005 NOSIG RMK CB TO SE
2026-03-25 08:00:00,METAR WIII 250800Z 33010KT 300V360 9999 FEW018CB FEW020 31/25 Q1006 NOSIG RMK CB TO SE
2026-03-25 07:30:00,METAR WIII 250730Z 33010KT 300V010 9999 FEW018CB FEW020 31/25 Q1006 NOSIG RMK CB TO SE
2026-03-25 07:00:00,METAR WIII 250700Z 34010KT 300V010 9999 FEW018CB FEW020 31/25 Q1006 NOSIG RMK CB TO SE
2026-03-25 06:30:00,METAR WIII 250630Z 34010KT 300V360 9999 FEW018CB SCT020 31/25 Q1006 NOSIG RMK CB TO SE
2026-03-25 06:00:00,METAR WIII 250600Z 34012KT 9999 FEW018CB SCT020 31/25 Q1006 NOSIG RMK CB TO SE
2026-03-25 05:30:00,METAR WIII 250530Z 32012KT 9999 FEW018CB SCT020 31/25 Q1007 NOSIG RMK CB TO SE
2026-03-25 05:00:00,METAR WIII 250500Z 32012KT 310V010 9999 FEW018CB SCT020 31/25 Q1007 NOSIG RMK CB TO E
2026-03-25 04:30:00,METAR WIII 250430Z 34012KT 280V340 9999 FEW018CB BKN020 30/25 Q1007 NOSIG RMK CB TO NE
2026-03-25 04:00:00,METAR WIII 250400Z 32011KT 9999 FEW018CB BKN020 30/25 Q1008 NOSIG RMK CB TO NE
2026-03-25 03:30:00,METAR WIII 250330Z 29008KT 270V330 9999 BKN022 30/25 Q1008 NOSIG
2026-03-25 03:00:00,METAR WIII 250300Z 28009KT 9999 SCT020 30/25 Q1008 NOSIG
2026-03-25 02:30:00,METAR WIII 250230Z 28008KT 9999 SCT022 29/25 Q1008 NOSIG
2026-03-25 02:00:00,METAR WIII 250200Z 27010KT 9999 SCT022 29/25 Q1008 NOSIG
2026-03-25 01:30:00,METAR WIII 250130Z 23008KT 200V260 8000 FEW020 28/25 Q1008 NOSIG
2026-03-25 01:00:00,METAR WIII 250100Z 23005KT 5000 HZ FEW020 27/25 Q1008 NOSIG
2026-03-25 00:30:00,METAR WIII 250030Z 21004KT 4000 HZ FEW020 26/24 Q1008 NOSIG
2026-03-25 00:00:00,METAR WIII 250000Z 17004KT 3500 BR FEW020 26/24 Q1007 NOSIG
2026-03-24 23:30:00,METAR WIII 242330Z 15004KT 3000 BR FEW020 25/24 Q1007 NOSIG
2026-03-24 23:00:00,METAR WIII 242300Z 18004KT 3000 BR FEW020 25/24 Q1007 NOSIG
2026-03-24 22:30:00,METAR WIII 242230Z 19003KT 4000 BR FEW020 25/24 Q1006 NOSIG
2026-03-24 22:00:00,METAR WIII 242200Z 23003KT 4000 BR FEW020 25/24 Q1006 NOSIG
2026-03-24 21:30:00,METAR WIII 242130Z 36003KT 5000 HZ FEW020 25/24 Q1006 NOSIG
2026-03-24 21:00:00,METAR WIII 242100Z 17003KT 5000 HZ FEW020 26/24 Q1006 NOSIG
2026-03-24 20:30:00,METAR WIII 242030Z 22002KT 5000 HZ FEW020 25/24 Q1006 NOSIG
2026-03-24 20:00:00,METAR WIII 242000Z 26002KT 5000 HZ FEW020 25/24 Q1006 NOSIG
2026-03-24 19:30:00,METAR WIII 241930Z 23002KT 5000 HZ FEW020 25/24 Q1007 NOSIG
2026-03-24 19:00:00,METAR WIII 241900Z 19002KT 6000 FEW018CB FEW020 26/24 Q1007 NOSIG RMK CB TO N
2026-03-24 18:30:00,METAR WIII 241830Z VRB02KT 6000 FEW020 26/24 Q1007 NOSIG
2026-03-24 18:00:00,METAR WIII 241800Z 23003KT 200V270 7000 FEW020 26/24 Q1007 NOSIG
2026-03-24 17:30:00,METAR WIII 241730Z 23003KT 7000 FEW020 27/24 Q1007 NOSIG
2026-03-24 17:00:00,METAR WIII 241700Z 25003KT 5000 HZ FEW020 26/23 Q1007 NOSIG
2026-03-24 16:30:00,METAR WIII 241630Z 25003KT 5000 HZ FEW020 26/24 Q1007 NOSIG
2026-03-24 16:00:00,METAR WIII 241600Z 23003KT 5000 HZ FEW020 27/24 Q1007 NOSIG
2026-03-24 15:30:00,METAR WIII 241530Z VRB02KT 5000 HZ FEW020 28/25 Q1008 NOSIG
2026-03-24 15:00:00,METAR WIII 241500Z VRB01KT 5000 HZ FEW020 27/25 Q1008 NOSIG
2026-03-24 14:30:00,METAR WIII 241430Z VRB01KT 8000 FEW020 28/25 Q1008 NOSIG
2026-03-24 14:00:00,METAR WIII 241400Z 21003KT 8000 FEW020 28/25 Q1008 NOSIG
2026-03-24 13:30:00,METAR WIII 241330Z VRB02KT 7000 FEW020 28/25 Q1008 NOSIG
2026-03-24 13:00:00,METAR WIII 241300Z 31004KT 270V340 7000 FEW020 28/25 Q1007 NOSIG
2026-03-24 12:30:00,METAR WIII 241230Z 32004KT 270V350 8000 FEW020 28/25 Q1007 NOSIG
2026-03-24 12:00:00,METAR WIII 241200Z 31003KT 270V350 8000 FEW020 28/25 Q1006 NOSIG
2026-03-24 11:30:00,METAR WIII 241130Z 34006KT 290V020 8000 FEW020 28/25 Q1006 NOSIG
2026-03-24 11:00:00,METAR WIII 241100Z 33007KT 290V020 9000 FEW020 29/24 Q1005 NOSIG
2026-03-24 10:30:00,METAR WIII 241030Z 33006KT 300V020 9999 FEW020 29/24 Q1005 NOSIG
2026-03-24 10:00:00,METAR WIII 241000Z 36005KT 320V060 9999 FEW020 30/24 Q1005 NOSIG
2026-03-24 09:30:00,METAR WIII 240930Z 33005KT 270V020 9999 FEW020 30/24 Q1005 NOSIG
2026-03-24 09:00:00,METAR WIII 240900Z 32009KT 280V350 9999 FEW018CB SCT020 31/24 Q1005 NOSIG RMK CB TO S
2026-03-24 08:30:00,METAR WIII 240830Z 31009KT 9999 FEW018CB SCT020 30/23 Q1005 NOSIG RMK CB TO S
2026-03-24 08:00:00,METAR WIII 240800Z 34009KT 9999 FEW020 30/24 Q1005 NOSIG
2026-03-24 07:30:00,METAR WIII 240730Z 32011KT 290V350 9999 FEW020 30/24 Q1005 NOSIG
2026-03-24 07:00:00,METAR WIII 240700Z 33010KT 290V010 9999 FEW020 30/24 Q1006 NOSIG
2026-03-24 06:30:00,METAR WIII 240630Z 32010KT 280V360 9999 FEW020 30/24 Q1006 NOSIG
2026-03-24 06:00:00,METAR WIII 240600Z 32010KT 290V360 9999 SCT020 29/24 Q1006 NOSIG
2026-03-24 05:30:00,METAR WIII 240530Z 33009KT 270V350 9999 FEW020 29/25 Q1007 NOSIG
2026-03-24 05:00:00,METAR WIII 240500Z 28004KT 240V340 8000 SCT020 28/25 Q1007 NOSIG
2026-03-24 04:30:00,METAR WIII 240430Z 28004KT 5000 -RA BKN020 26/24 Q1008 NOSIG
2026-03-24 04:05:00,SPECI WIII 240405Z 29006KT 260V330 3000 RA BKN018 28/25 Q1008 BECMG FM0425 5000 -RA
2026-03-24 03:30:00,METAR WIII 240330Z 28004KT 230V310 6000 -RA SCT018 28/25 Q1009 NOSIG
2026-03-24 03:00:00,METAR WIII 240300Z 24003KT 4000 -RA BKN018 26/25 Q1009 NOSIG
2026-03-24 02:30:00,METAR WIII 240230Z 24003KT 5000 -RA BKN018 26/25 Q1009 TEMPO FM0240 3000 RA
2026-03-24 02:00:00,METAR WIII 240200Z 34006KT 300V010 2000 +RA BKN016 26/25 Q1009 BECMG FM0215 5000 -RA
2026-03-24 01:30:00,METAR WIII 240130Z VRB03KT 4000 -RA FEW016CB BKN020 27/24 Q1009 TEMPO FM0140 3000 RA RMK CB IN APCH
2026-03-24 01:00:00,METAR WIII 240100Z 23004KT 5000 HZ FEW016CB BKN020 27/24 Q1009 TEMPO FM0115 3000 RA RMK CB IN APCH
2026-03-24 00:30:00,METAR WIII 240030Z 23003KT 5000 HZ FEW015CB SCT020 26/24 Q1008 NOSIG RMK CB IN APCH
2026-03-24 00:00:00,METAR WIII 240000Z 24003KT 5000 HZ FEW020 26/24 Q1008 NOSIG
2026-03-23 23:30:00,METAR WIII 232330Z 23003KT 7000 FEW020 25/24 Q1008 NOSIG
2026-03-23 23:00:00,METAR WIII 232300Z 22004KT 7000 FEW020 26/24 Q1008 NOSIG
2026-03-23 22:30:00,METAR WIII 232230Z 22003KT 7000 SCT020 26/24 Q1008 NOSIG
2026-03-23 22:00:00,METAR WIII 232200Z 24003KT 7000 SCT020 25/24 Q1008 NOSIG
2026-03-23 21:30:00,METAR WIII 232130Z 24003KT 7000 SCT020 26/24 Q1008 NOSIG
2026-03-23 21:00:00,METAR WIII 232100Z 26005KT 230V290 7000 SCT020 26/24 Q1007 NOSIG
2026-03-23 20:30:00,METAR WIII 232030Z 24002KT 7000 SCT020 26/25 Q1007 NOSIG
2026-03-23 20:00:00,METAR WIII 232000Z 29005KT 7000 SCT020 26/24 Q1007 NOSIG
2026-03-23 19:30:00,METAR WIII 231930Z 31003KT 7000 SCT020 26/24 Q1008 NOSIG
2026-03-23 19:00:00,METAR WIII 231900Z 26004KT 7000 SCT020 26/25 Q1008 NOSIG
2026-03-23 18:30:00,METAR WIII 231830Z VRB01KT 8000 SCT020 26/25 Q1008 NOSIG
2026-03-23 18:00:00,METAR WIII 231800Z VRB02KT 8000 SCT020 26/25 Q1008 NOSIG
2026-03-23 17:30:00,METAR WIII 231730Z 34004KT 280V020 8000 SCT020 26/24 Q1008 NOSIG
2026-03-23 17:00:00,METAR WIII 231700Z 35006KT 310V070 8000 SCT020 26/24 Q1009 NOSIG
2026-03-23 16:30:00,METAR WIII 231630Z 31003KT 270V350 8000 VCTS FEW019CB FEW020 27/25 Q1009 NOSIG RMK CB TO N
2026-03-23 16:00:00,METAR WIII 231600Z VRB02KT 8000 VCTS FEW019CB FEW020 27/25 Q1009 NOSIG RMK CB TO N
2026-03-23 15:30:00,METAR WIII 231530Z VRB01KT 8000 SCT020 28/25 Q1009 NOSIG
2026-03-23 15:00:00,METAR WIII 231500Z 19003KT 150V220 8000 SCT020 28/24 Q1009 NOSIG
2026-03-23 14:30:00,METAR WIII 231430Z 21003KT 7000 SCT020 27/25 Q1009 NOSIG
2026-03-23 14:00:00,METAR WIII 231400Z 24005KT 7000 SCT020 27/25 Q1009 NOSIG
2026-03-23 13:30:00,METAR WIII 231330Z 31003KT 260V340 7000 SCT020 28/25 Q1008 NOSIG
2026-03-23 13:00:00,METAR WIII 231300Z 32008KT 260V030 7000 FEW019CB SCT020 29/25 Q1008 NOSIG RMK CB TO S
2026-03-23 12:30:00,METAR WIII 231230Z 34008KT 8000 FEW018CB FEW020 28/25 Q1008 NOSIG RMK CB TO SE AND SW
2026-03-23 12:00:00,METAR WIII 231200Z 34009KT 8000 FEW018CB FEW020 28/25 Q1008 NOSIG RMK CB TO S
2026-03-23 11:30:00,METAR WIII 231130Z 34011KT 8000 FEW018CB FEW020 29/25 Q1007 NOSIG RMK CB TO S
2026-03-23 11:00:00,METAR WIII 231100Z 33010KT 8000 FEW018CB FEW020 29/25 Q1007 NOSIG RMK CB TO S
2026-03-23 10:30:00,METAR WIII 231030Z 33011KT 9000 FEW018CB FEW020 29/24 Q1007 NOSIG RMK CB TO S
2026-03-23 10:00:00,METAR WIII 231000Z 34011KT 290V010 9999 FEW020 30/24 Q1006 NOSIG
2026-03-23 09:30:00,METAR WIII 230930Z 35012KT 9999 FEW020 30/24 Q1006 NOSIG
2026-03-23 09:00:00,METAR WIII 230900Z 33012KT 9999 SCT020 30/24 Q1006 NOSIG
2026-03-23 08:30:00,METAR WIII 230830Z 32017KT 280V010 9999 SCT020 30/24 Q1006 NOSIG
2026-03-23 08:00:00,METAR WIII 230800Z 33017KT 290V360 9999 FEW020 31/24 Q1006 NOSIG
2026-03-23 07:30:00,METAR WIII 230730Z 32016KT 290V350 9999 FEW020 32/24 Q1006 NOSIG
2026-03-23 07:00:00,METAR WIII 230700Z 34016KT 9999 FEW020 32/25 Q1006 NOSIG
2026-03-23 06:30:00,METAR WIII 230630Z 34010KT 310V020 9999 FEW020 32/25 Q1006 NOSIG
2026-03-23 06:00:00,METAR WIII 230600Z 34009KT 260V020 9999 FEW020 32/23 Q1007 NOSIG
2026-03-23 05:30:00,METAR WIII 230530Z 32010KT 290V360 9999 FEW020 32/23 Q1007 NOSIG
2026-03-23 05:00:00,METAR WIII 230500Z 33010KT 290V360 9999 FEW020 32/23 Q1007 NOSIG
2026-03-23 04:30:00,METAR WIII 230430Z 34007KT 290V020 9999 FEW020 31/23 Q1008 NOSIG
2026-03-23 04:00:00,METAR WIII 230400Z 31006KT 240V340 9999 FEW020 31/23 Q1009 NOSIG
2026-03-23 03:30:00,METAR WIII 230330Z 29006KT 200V350 9999 FEW020 32/24 Q1009 NOSIG
2026-03-23 03:00:00,METAR WIII 230300Z 28005KT 230V330 9999 FEW020 31/23 Q1009 NOSIG
2026-03-23 02:30:00,METAR WIII 230230Z 32005KT 270V010 CAVOK 30/23 Q1009 NOSIG
2026-03-23 02:00:00,METAR WIII 230200Z VRB02KT CAVOK 29/23 Q1009 NOSIG
2026-03-23 01:30:00,METAR WIII 230130Z 26004KT 220V290 CAVOK 28/23 Q1009 NOSIG
2026-03-23 01:00:00,METAR WIII 230100Z 25005KT 220V280 9999 FEW020 27/24 Q1009 NOSIG
2026-03-23 00:30:00,METAR WIII 230030Z 23005KT 9000 FEW020 26/24 Q1009 NOSIG
2026-03-23 00:00:00,METAR WIII 230000Z 17004KT 8000 FEW020 25/23 Q1009 NOSIG
2026-03-22 23:30:00,METAR WIII 222330Z 15004KT 8000 FEW020 25/23 Q1009 NOSIG
2026-03-22 23:00:00,METAR WIII 222300Z 16003KT 8000 FEW020 25/23 Q1008 NOSIG
2026-03-22 22:30:00,METAR WIII 222230Z VRB03KT 9000 FEW020 24/23 Q1008 NOSIG
2026-03-22 22:00:00,METAR WIII 222200Z 24004KT 9000 FEW020 24/23 Q1008 NOSIG
2026-03-22 21:30:00,METAR WIII 222130Z 25004KT 8000 FEW020 24/23 Q1008 NOSIG
2026-03-22 21:00:00,METAR WIII 222100Z 25004KT 8000 FEW020 25/24 Q1008 NOSIG
2026-03-22 20:30:00,METAR WIII 222030Z 24005KT 8000 FEW020 25/24 Q1008 NOSIG
2026-03-22 20:00:00,METAR WIII 222000Z 25005KT 7000 FEW020 25/24 Q1008 NOSIG
2026-03-22 19:30:00,METAR WIII 221930Z 25004KT 8000 FEW020 25/24 Q1008 NOSIG
2026-03-22 19:00:00,METAR WIII 221900Z 23004KT 9000 FEW020 25/23 Q1008 NOSIG
2026-03-22 18:30:00,METAR WIII 221830Z 24003KT 9999 NSC 25/23 Q1009 NOSIG
2026-03-22 18:00:00,METAR WIII 221800Z 26005KT 9999 NSC 25/23 Q1009 NOSIG
2026-03-22 17:30:00,METAR WIII 221730Z 24004KT 9999 FEW020 26/23 Q1009 NOSIG
2026-03-22 17:00:00,METAR WIII 221700Z 25005KT 9999 FEW020 26/23 Q1010 NOSIG
2026-03-22 16:30:00,METAR WIII 221630Z 26005KT 9999 FEW020 26/23 Q1010 NOSIG
2026-03-22 16:00:00,METAR WIII 221600Z 25005KT 9999 FEW020 26/23 Q1010 NOSIG
2026-03-22 15:30:00,METAR WIII 221530Z 27005KT 9999 FEW020 27/23 Q1010 NOSIG
2026-03-22 15:00:00,METAR WIII 221500Z 27005KT 9999 FEW020 27/23 Q1010 NOSIG
2026-03-22 14:30:00,METAR WIII 221430Z 24003KT 9999 FEW020 27/23 Q1010 NOSIG
2026-03-22 14:00:00,METAR WIII 221400Z 24005KT 9999 FEW020 28/23 Q1010 NOSIG
2026-03-22 13:30:00,METAR WIII 221330Z VRB02KT 9999 SCT020 28/24 Q1009 NOSIG
2026-03-22 13:00:00,METAR WIII 221300Z VRB02KT 9000 FEW018CB SCT020 29/23 Q1009 NOSIG RMK CB TO E
2026-03-22 12:30:00,METAR WIII 221230Z VRB02KT 8000 FEW019 SCT020 28/24 Q1009 NOSIG
2026-03-22 11:30:00,METAR WIII 221130Z 22008KT 130V260 7000 TS FEW019CB SCT020 30/23 Q1008 NOSIG RMK CB TO E
2026-03-22 11:00:00,METAR WIII 221100Z 35005KT 300V040 7000 TS FEW019CB SCT020 31/25 Q100 7 NOSIG RMK CB TO SE
2026-03-22 10:30:00,METAR WIII 221030Z 34008KT 300V020 8000 SCT020 31/25 Q1007 NOSIG
2026-03-22 10:00:00,METAR WIII 221000Z 33008KT 290V010 9000 SCT020 32/24 Q1006 NOSIG
2026-03-22 09:30:00,METAR WIII 220930Z 33006KT 290V010 9000 SCT020 32/23 Q1006 NOSIG
2026-03-22 08:30:00,METAR WIII 220830Z 30007KT 250V360 8000 FEW020 33/24 Q1006 NOSIG
2026-03-22 08:00:00,METAR WIII 220800Z 33006KT 250V030 8000 FEW020 32/24 Q1007 NOSIG
2026-03-22 07:30:00,METAR WIII 220730Z 33007KT 280V360 8000 FEW020 32/24 Q1007 NOSIG
2026-03-22 06:30:00,METAR WIII 220630Z 32007KT 280V360 8000 FEW020 32/23 Q1008 NOSIG
2026-03-22 05:30:00,METAR WIII 220530Z 34008KT 270V010 7000 FEW020 31/24 Q1009 NOSIG
2026-03-22 05:00:00,METAR WIII 220500Z 34008KT 280V020 7000 FEW020 31/24 Q1010 NOSIG
2026-03-22 04:30:00,METAR WIII 220430Z VRB02KT 7000 FEW020 31/22 Q1010 NOSIG
2026-03-22 04:00:00,METAR WIII 220400Z VRB03KT 7000 FEW020 31/24 Q1011 NOSIG
2026-03-22 03:30:00,METAR WIII 220330Z VRB02KT 7000 FEW020 30/24 Q1011 NOSIG
2026-03-22 03:00:00,METAR WIII 220300Z VRB02KT 7000 FEW020 29/23 Q1011 NOSIG
2026-03-22 02:30:00,METAR WIII 220230Z 14003KT 080V210 7000 FEW020 29/23 Q1011 NOSIG
2026-03-22 02:00:00,METAR WIII 220200Z 22003KT 180V340 7000 FEW020 28/23 Q1011 NOSIG
2026-03-22 01:30:00,METAR WIII 220130Z 22004KT 190V280 7000 FEW020 28/24 Q1011 NOSIG
2026-03-22 01:00:00,METAR WIII 220100Z 21005KT 7000 SCT020 26/24 Q1010 NOSIG
2026-03-22 00:30:00,METAR WIII 220030Z 21006KT 9999 FEW020 26/24 Q1010 NOSIG
2026-03-22 00:00:00,METAR WIII 220000Z 21008KT 7000 FEW020 25/24 Q1010 NOSIG
2026-03-21 23:30:00,METAR WIII 212330Z 21005KT 8000 FEW020 25/24 Q1010 NOSIG
2026-03-21 23:00:00,METAR WIII 212300Z 21006KT 9999 FEW020 24/23 Q1009 NOSIG
2026-03-21 22:30:00,METAR WIII 212230Z 22007KT 9999 FEW020 25/24 Q1009 NOSIG
2026-03-21 22:00:00,METAR WIII 212200Z 22002KT 9999 FEW020 25/24 Q1009 NOSIG
2026-03-21 21:30:00,METAR WIII 212130Z 20007KT 9999 FEW020 25/24 Q1009 NOSIG
2026-03-21 21:00:00,METAR WIII 212100Z 20005KT 9999 FEW020 25/24 Q1009 NOSIG
2026-03-21 20:30:00,METAR WIII 212030Z 21004KT 9999 FEW020 25/24 Q1008 NOSIG
2026-03-21 19:30:00,METAR WIII 211930Z 24006KT 8000 FEW020 25/24 Q1008 NOSIG
2026-03-21 19:00:00,METAR WIII 211900Z 27007KT 7000 FEW020 25/24 Q1008 NOSIG
2026-03-21 18:30:00,METAR WIII 211830Z 23003KT 5000 HZ FEW020 25/24 Q1009 NOSIG
2026-03-21 18:00:00,METAR WIII 211800Z 25003KT 5000 HZ FEW020 25/24 Q1009 NOSIG
2026-03-21 17:30:00,METAR WIII 211730Z VRB02KT 8000 FEW020 26/24 Q1009 NOSIG
2026-03-21 17:00:00,METAR WIII 211700Z 22003KT 180V260 8000 FEW020 26/24 Q1010 NOSIG
2026-03-21 16:30:00,METAR WIII 211630Z 21003KT 8000 FEW020 26/24 Q1010 NOSIG
2026-03-21 16:00:00,METAR WIII 211600Z 21004KT 8000 FEW020 26/25 Q1010 NOSIG
2026-03-21 15:30:00,METAR WIII 211530Z 21004KT 180V240 8000 FEW020 26/25 Q1010 NOSIG
2026-03-21 14:30:00,METAR WIII 211430Z 18003KT 130V220 8000 FEW020 26/25 Q1010 NOSIG
2026-03-21 14:00:00,METAR WIII 211400Z 19007KT 8000 FEW020 27/25 Q1010 NOSIG
2026-03-21 13:30:00,METAR WIII 211330Z VRB01KT 7000 FEW020 26/25 Q1010 NOSIG
2026-03-21 13:00:00,METAR WIII 211300Z 10004KT 7000 FEW020 26/25 Q1009 RERA NOSIG
2026-03-21 12:30:00,METAR WIII 211230Z 15005KT 120V180 5000 -RA FEW016CB BKN018 26/25 Q1009 BECMG AT1430 NSW RMK CB TO E
2026-03-21 12:00:00,METAR WIII 211200Z 20004KT 130V230 4000 -RA FEW015CB BKN018 26/25 Q10 09 BECMG FM1300 6000 NSW RMK CB TO E
2026-03-21 11:30:00,METAR WIII 211130Z 19006KT 140V240 4000 -RA FEW015CB BKN018 27/25 Q1008 BECMG FM1230 6000 NSW RMK CB ALL RWY
2026-03-21 11:23:00,SPECI WIII 211123Z 16009KT 140V200 3000 RA SCT015CB BKN018 27/25 Q1008 BECMG FM1230 5000 -RA RMK CB ALL RWY
2026-03-21 11:00:00,METAR WIII 211100Z 27005KT 220V310 8000 VCTS FEW016CB BKN020 29/24 Q1008 TEMPO FM1110 4000 TSRA RMK CB TO S
2026-03-21 10:30:00,METAR WIII 211030Z 30008KT 9000 VCTS FEW016CB BKN020 29/23 Q1007 TEMPO FM1045 4000 TSRA RMK CB TO S
2026-03-21 10:00:00,METAR WIII 211000Z 31009KT 9000 FEW018CB SCT020 30/23 Q1007 TEMPO FM1020 4000 TSRA RMK CB TO S
2026-03-21 09:30:00,METAR WIII 210930Z 30012KT 9999 SCT020 30/25 Q1006 NOSIG
2026-03-21 09:00:00,METAR WIII 210900Z 31012KT 290V350 9999 SCT020 31/25 Q1006 NOSIG
2026-03-21 08:30:00,METAR WIII 210830Z 31013KT 9999 SCT020 31/25 Q1006 NOSIG
2026-03-21 08:00:00,METAR WIII 210800Z 32014KT 9999 SCT020 31/25 Q1007 NOSIG
2026-03-21 07:30:00,METAR WIII 210730Z 31014KT 280V350 9999 SCT020 31/25 Q1007 NOSIG
2026-03-21 07:00:00,METAR WIII 210700Z 32011KT 280V350 9999 SCT022 30/25 Q1008 NOSIG
2026-03-21 06:30:00,METAR WIII 210630Z 33011KT 290V360 9999 SCT022 31/25 Q1008 NOSIG
2026-03-21 06:00:00,METAR WIII 210600Z 33011KT 9999 SCT022 30/24 Q1009 NOSIG
2026-03-21 05:30:00,METAR WIII 210530Z 34009KT 310V030 9999 SCT022 31/24 Q1009 NOSIG
2026-03-21 04:30:00,METAR WIII 210430Z 01009KT 320V060 8000 BKN022 30/24 Q1010 NOSIG
2026-03-21 04:00:00,METAR WIII 210400Z VRB03KT 8000 SCT022 30/25 Q1010 NOSIG
2026-03-21 03:30:00,METAR WIII 210330Z VRB02KT 8000 SCT022 30/24 Q1010 NOSIG
2026-03-21 03:00:00,METAR WIII 210300Z VRB02KT 9000 SCT022 29/24 Q1011 NOSIG
2026-03-21 02:30:00,METAR WIII 210230Z VRB02KT 9000 FEW022 29/25 Q1011 NOSIG
2026-03-21 02:00:00,METAR WIII 210200Z 10004KT 050V140 8000 FEW020 29/24 Q1011 NOSIG
2026-03-21 01:30:00,METAR WIII 210130Z 10003KT 060V150 7000 FEW020 28/24 Q1011 NOSIG
2026-03-21 01:00:00,METAR WIII 210100Z 07003KT 050V120 5000 HZ FEW020 28/24 Q1011 NOSIG
2026-03-21 00:30:00,METAR WIII 210030Z VRB02KT 4000 BR FEW020 27/25 Q1010 NOSIG
2026-03-21 00:00:00,METAR WIII 210000Z VRB01KT 3000 BR FEW020 26/25 Q1010 NOSIG
2026-03-20 23:30:00,METAR WIII 202330Z 34003KT 290V360 2000 BR FEW020 26/25 Q1010 NOSIG
2026-03-20 23:00:00,METAR WIII 202300Z VRB02KT 4000 BR FEW020 26/24 Q1010 NOSIG
2026-03-20 22:30:00,METAR WIII 202230Z VRB01KT 5000 HZ FEW020 26/24 Q1009 NOSIG
2026-03-20 21:30:00,METAR WIII 202130Z 21001KT 7000 FEW020 26/24 Q1009 NOSIG
2026-03-20 21:00:00,METAR WIII 202100Z VRB02KT 7000 FEW020 26/24 Q1009 RETS NOSIG
2026-03-20 20:30:00,METAR WIII 202030Z 20004KT 7000 TS FEW018CB FEW020 26/24 Q1009 NOSIG RMK CB TO NE
2026-03-20 20:00:00,METAR WIII 202000Z VRB02KT 7000 FEW020 26/24 Q1009 NOSIG
2026-03-20 19:30:00,METAR WIII 201930Z VRB01KT 6000 FEW020 26/24 Q1009 NOSIG
2026-03-20 18:30:00,METAR WIII 201830Z 25002KT 5000 BR SCT020 25/24 Q1009 NOSIG
2026-03-20 18:00:00,METAR WIII 201800Z VRB01KT 6000 SCT020 26/24 Q1010 NOSIG
2026-03-20 17:30:00,METAR WIII 201730Z VRB01KT 4800 BR SCT020 26/24 Q1010 NOSIG
2026-03-20 17:00:00,METAR WIII 201700Z VRB02KT 5000 BR SCT020 26/24 Q1010 NOSIG
2026-03-20 16:30:00,METAR WIII 201630Z VRB01KT 3700 BR SCT020 26/25 Q1011 NOSIG
2026-03-20 16:00:00,METAR WIII 201600Z VRB02KT 6000 SCT020 26/25 Q1011 NOSIG
2026-03-20 15:30:00,METAR WIII 201530Z VRB02KT 6000 SCT020 26/24 Q1011 NOSIG
2026-03-20 15:00:00,METAR WIII 201500Z 14004KT 090V170 5000 BR SCT020 26/24 Q1011 NOSIG
2026-03-20 14:30:00,METAR WIII 201430Z VRB02KT 6000 SCT020 26/24 Q1010 NOSIG
2026-03-20 14:00:00,METAR WIII 201400Z VRB02KT 6000 SCT020 25/24 Q1010 RERA NOSIG
2026-03-20 13:30:00,METAR WIII 201330Z 07004KT 010V140 6000 -RA FEW018CB SCT020 25/24 Q1010 NOSIG RMK CB TO NW
2026-03-20 12:45:00,SPECI WIII 201245Z 07005KT 040V100 5000 -TSRA FEW016CB BKN018 24/24 Q1010 TEMPO FM1300 6000 -RA RMK CB TO NE
2026-03-20 12:30:00,METAR WIII 201230Z 09006KT 100V210 3000 TSRA SCT016CB OVC018 25/24 Q1010 TEMPO TL1300 5000 -RA RMK CB ALL RWY
2026-03-20 12:18:00,SPECI WIII 201218Z 17006KT 130V220 2000 R07R/1800 R25R/0900 R06/1000 TSRA SCT016CB OVC018 24/24 Q1010 TEMPO TL1230 4000 -TSRA RMK CB ALL RWY
2026-03-20 11:49:00,SPECI WIII 201149Z 18010KT 150V210 0800 +TSRA SCT016CB OVC018 24/23 Q1009 TEMPO TL1215 3000 TSRA RMK CB ALL RWY
2026-03-20 11:43:00,SPECI WIII 201143Z 19013KT 160V220 2000 TSRA SCT016CB BKN018 24/23 Q1009 TEMPO TL1215 5000 -TSRA RMK CB ALL RWY
2026-03-20 11:30:00,METAR WIII 201130Z 20014G26KT 5000 -TSRA SCT016CB BKN018 28/25 Q1008 TEMPO FM1145 TSRA RMK CB TO S
2026-03-20 11:13:00,SPECI WIII 201113Z 33007KT 300V010 6000 -TSRA FEW016CB BKN018 29/25 Q1007 TEMPO FM1125 4000 TSRA RMK CB TO S
2026-03-20 11:00:00,METAR WIII 201100Z 33007KT 310V020 8000 VCTS FEW016CB SCT020 30/24 Q1 007 TEMPO FM1115 4000 TSRA RMK CB TO S
2026-03-20 10:30:00,METAR WIII 201030Z 33006KT 300V010 9999 SCT020 30/24 Q1006 NOSIG
2026-03-20 10:00:00,METAR WIII 201000Z 33010KT 270V360 9999 SCT020 31/24 Q1006 NOSIG
2026-03-20 09:30:00,METAR WIII 200930Z 33010KT 300V360 9999 FEW020 31/24 Q1005 NOSIG
2026-03-20 09:00:00,METAR WIII 200900Z 33010KT 290V020 9999 FEW020 32/23 Q1006 NOSIG
2026-03-20 08:30:00,METAR WIII 200830Z 35009KT 310V020 9999 FEW020 32/24 Q1006 NOSIG
2026-03-20 08:00:00,METAR WIII 200800Z 35011KT 310V010 9999 FEW020 33/23 Q1006 NOSIG
2026-03-20 07:30:00,METAR WIII 200730Z 35010KT 320V020 9999 FEW020 33/23 Q1006 NOSIG
2026-03-20 06:30:00,METAR WIII 200630Z 01008KT 310V050 9999 FEW020 33/24 Q1007 NOSIG
2026-03-20 06:00:00,METAR WIII 200600Z 01007KT 310V040 9999 FEW020 33/24 Q1007 NOSIG
2026-03-20 05:30:00,METAR WIII 200530Z 01009KT 300V050 9999 FEW020 33/23 Q1008 NOSIG
2026-03-20 05:00:00,METAR WIII 200500Z 33006KT 290V090 9999 FEW020 34/22 Q1008 NOSIG
2026-03-20 04:30:00,METAR WIII 200430Z 26005KT 200V330 9999 FEW020 33/22 Q1009 NOSIG
2026-03-20 04:00:00,METAR WIII 200400Z VRB02KT 9999 FEW020 32/22 Q1009 NOSIG
2026-03-20 03:30:00,METAR WIII 200330Z VRB03KT 9999 FEW020 32/23 Q1010 NOSIG
2026-03-20 03:00:00,METAR WIII 200300Z VRB03KT 9999 FEW020 32/24 Q1010 NOSIG
2026-03-20 02:30:00,METAR WIII 200230Z 33003KT 270V070 9999 FEW020 30/23 Q1010 NOSIG
2026-03-20 02:00:00,METAR WIII 200200Z VRB03KT 9999 FEW020 30/23 Q1010 NOSIG
2026-03-20 01:30:00,METAR WIII 200130Z 29003KT 250V360 9000 FEW020 30/24 Q1010 NOSIG
2026-03-20 01:00:00,METAR WIII 200100Z VRB02KT 5000 HZ FEW020 29/23 Q1010 NOSIG
2026-03-20 00:30:00,METAR WIII 200030Z 24003KT 200V270 5000 HZ FEW020 29/23 Q1010 NOSIG
2026-03-20 00:00:00,METAR WIII 200000Z 24003KT 5000 HZ FEW020 28/24 Q1010 NOSIG
2026-03-19 23:30:00,METAR WIII 192330Z 22003KT 5000 HZ FEW020 26/24 Q1010 NOSIG
2026-03-19 23:00:00,METAR WIII 192300Z 24005KT 5000 HZ SCT020 26/24 Q1009 NOSIG
2026-03-19 22:30:00,METAR WIII 192230Z 24003KT 5000 HZ SCT020 26/24 Q1009 NOSIG
2026-03-19 22:00:00,METAR WIII 192200Z VRB02KT 5000 HZ SCT020 27/23 Q1009 NOSIG
2026-03-19 21:30:00,METAR WIII 192130Z 15003KT 130V190 5000 HZ SCT020 27/23 Q1008 NOSIG
2026-03-19 21:00:00,METAR WIII 192100Z 17003KT 150V210 5000 HZ BKN020 28/23 Q1008 NOSIG
2026-03-19 20:30:00,METAR WIII 192030Z 26002KT 5000 HZ BKN020 27/24 Q1008 NOSIG
2026-03-19 20:00:00,METAR WIII 192000Z VRB01KT 5000 HZ BKN020 27/24 Q1009 NOSIG
2026-03-19 19:30:00,METAR WIII 191930Z VRB01KT 5000 HZ BKN020 28/24 Q1009 NOSIG
2026-03-19 19:00:00,METAR WIII 191900Z 31002KT 5000 HZ BKN020 27/24 Q1010 NOSIG
2026-03-19 18:30:00,METAR WIII 191830Z 31003KT 280V340 5000 HZ SCT020 28/25 Q1010 NOSIG
2026-03-19 18:00:00,METAR WIII 191800Z VRB01KT 4400 HZ SCT020 28/25 Q1010 NOSIG
2026-03-19 17:30:00,METAR WIII 191730Z VRB02KT 3700 HZ SCT020 29/24 Q1010 NOSIG
2026-03-19 17:00:00,METAR WIII 191700Z 15003KT 120V180 4400 HZ SCT020 29/24 Q1011 NOSIG
2026-03-19 16:30:00,METAR WIII 191630Z 14003KT 110V180 6000 SCT020 29/24 Q1010 NOSIG
2026-03-19 16:00:00,METAR WIII 191600Z 11002KT 7000 SCT020 28/24 Q1011 NOSIG
2026-03-19 15:30:00,METAR WIII 191530Z 07003KT 030V090 7000 SCT020 28/24 Q1011 NOSIG
2026-03-19 15:00:00,METAR WIII 191500Z 10005KT 7000 SCT020 29/23 Q1011 NOSIG
2026-03-19 14:30:00,METAR WIII 191430Z 12003KT 090V150 5000 HZ SCT020 29/24 Q1011 NOSIG
2026-03-19 14:00:00,METAR WIII 191400Z 11004KT 080V140 5000 HZ SCT017 29/24 Q1011 NOSIG
2026-03-19 13:30:00,METAR WIII 191330Z 16003KT 120V210 5000 HZ SCT020 30/23 Q1010 NOSIG
2026-03-19 13:00:00,METAR WIII 191300Z 17001KT 5000 HZ SCT020 29/24 Q1010 NOSIG
2026-03-19 12:30:00,METAR WIII 191230Z 32003KT 280V010 6000 VCTS FEW018 SCT020 30/23 Q1009 NOSIG RMK CB TO E AND SE
2026-03-19 12:00:00,METAR WIII 191200Z 32005KT 6000 VCTS FEW018CB SCT020 29/23 Q1008 NOSIG RMK CB TO E AND SE
2026-03-19 11:30:00,METAR WIII 191130Z 32006KT 5000 HZ SCT020 30/23 Q1008 NOSIG
2026-03-19 11:00:00,METAR WIII 191100Z 32006KT 6000 SCT020 30/24 Q1007 NOSIG
2026-03-19 10:30:00,METAR WIII 191030Z 34005KT 300V010 8000 SCT020 30/23 Q1007 NOSIG
2026-03-19 10:00:00,METAR WIII 191000Z 33007KT 300V360 9999 FEW020 31/23 Q1006 NOSIG
2026-03-19 09:30:00,METAR WIII 190930Z 34007KT 9999 FEW020 32/23 Q1006 NOSIG
2026-03-19 09:00:00,METAR WIII 190900Z 33007KT 300V010 9999 FEW020 32/22 Q1006 NOSIG
2026-03-19 08:30:00,METAR WIII 190830Z 32009KT 280V360 8000 FEW020 32/22 Q1006 NOSIG
2026-03-19 07:30:00,METAR WIII 190730Z 34010KT 300V020 8000 FEW020 32/22 Q1007 NOSIG
2026-03-19 07:00:00,METAR WIII 190700Z 33010KT 290V010 8000 FEW020 32/23 Q1008 NOSIG
2026-03-19 06:30:00,METAR WIII 190630Z 32011KT 280V350 7000 FEW020 32/23 Q1008 NOSIG
2026-03-19 06:00:00,METAR WIII 190600Z 35009KT 300V030 5000 HZ BKN020 31/24 Q1009 NOSIG
2026-03-19 05:30:00,METAR WIII 190530Z 33008KT 280V030 5000 HZ BKN019 32/23 Q1009 NOSIG
2026-03-19 05:00:00,METAR WIII 190500Z 35007KT 320V050 5000 HZ SCT020 32/24 Q1009 NOSIG
2026-03-19 04:30:00,METAR WIII 190430Z 36007KT 330V040 5000 HZ SCT020 32/25 Q1009 NOSIG
2026-03-19 04:00:00,METAR WIII 190400Z 34007KT 270V010 7000 FEW020 31/24 Q1010 NOSIG
2026-03-19 03:30:00,METAR WIII 190330Z VRB03KT 6000 FEW020 31/24 Q1010 NOSIG
2026-03-19 03:00:00,METAR WIII 190300Z VRB02KT 6000 FEW020 31/23 Q1010 NOSIG
2026-03-19 02:30:00,METAR WIII 190230Z VRB02KT 6000 FEW020 30/23 Q1011 NOSIG
2026-03-19 02:00:00,METAR WIII 190200Z VRB02KT 6000 FEW020 29/23 Q1011 NOSIG
2026-03-19 01:30:00,METAR WIII 190130Z 18005KT 140V190 5000 HZ FEW020 29/23 Q1010 NOSIG
2026-03-19 01:00:00,METAR WIII 190100Z 14007KT 100V180 7000 FEW020 28/23 Q1010 NOSIG
2026-03-19 00:30:00,METAR WIII 190030Z 15007KT 120V180 7000 FEW020 27/23 Q1010 NOSIG
2026-03-19 00:00:00,METAR WIII 190000Z 15006KT 7000 FEW020 27/23 Q1010 NOSIG
2026-03-18 23:30:00,METAR WIII 182330Z 16004KT 7000 FEW020 25/23 Q1010 NOSIG
2026-03-18 23:00:00,METAR WIII 182300Z VRB02KT 7000 FEW020 25/23 Q1010 NOSIG
2026-03-18 22:30:00,METAR WIII 182230Z 18004KT 140V210 9000 FEW020 26/23 Q1009 NOSIG
2026-03-18 22:00:00,METAR WIII 182200Z 19004KT 8000 FEW020 26/23 Q1009 NOSIG
2026-03-18 21:30:00,METAR WIII 182130Z 20003KT 7000 FEW020 26/23 Q1009 NOSIG
2026-03-18 21:00:00,METAR WIII 182100Z 22003KT 6000 FEW020 26/23 Q1009 NOSIG
2026-03-18 20:30:00,METAR WIII 182030Z 21003KT 6000 SCT020 26/23 Q1009 NOSIG
2026-03-18 20:00:00,METAR WIII 182000Z 21003KT 4900 HZ FEW020 26/23 Q1009 NOSIG
2026-03-18 19:30:00,METAR WIII 181930Z 25005KT 4600 HZ FEW020 25/23 Q1010 NOSIG
2026-03-18 19:00:00,METAR WIII 181900Z VRB02KT 3900 HZ FEW020 26/23 Q1010 NOSIG
2026-03-18 18:30:00,METAR WIII 181830Z VRB02KT 5000 HZ NSC 27/23 Q1010 NOSIG
2026-03-18 18:00:00,METAR WIII 181800Z VRB02KT 7000 NSC 26/23 Q1010 NOSIG
2026-03-18 17:30:00,METAR WIII 181730Z VRB02KT 6000 NSC 27/23 Q1010 NOSIG
2026-03-18 16:30:00,METAR WIII 181630Z 18003KT 9000 FEW020 26/23 Q1010 NOSIG
2026-03-18 15:30:00,METAR WIII 181530Z 24003KT 8000 NSC 27/22 Q1011 NOSIG
2026-03-18 15:00:00,METAR WIII 181500Z 23003KT 7000 NSC 28/22 Q1011 NOSIG
2026-03-18 14:30:00,METAR WIII 181430Z 24004KT 6000 NSC 27/23 Q1011 NOSIG
2026-03-18 14:00:00,METAR WIII 181400Z 23003KT 8000 NSC 28/23 Q1011 NOSIG
2026-03-18 13:30:00,METAR WIII 181330Z 25005KT 6000 FEW020 28/23 Q1010 NOSIG
2026-03-18 13:00:00,METAR WIII 181300Z 25005KT 220V280 6000 FEW020 29/24 Q1010 NOSIG
2026-03-18 12:30:00,METAR WIII 181230Z 26005KT 6000 FEW020 29/24 Q1009 NOSIG
2026-03-18 12:00:00,METAR WIII 181200Z 31010KT 6000 FEW020 29/24 Q1009 NOSIG
2026-03-18 11:30:00,METAR WIII 181130Z 32010KT 6000 FEW018CB FEW020 29/24 Q1009 NOSIG RMK CB TO SE
2026-03-18 10:30:00,METAR WIII 181030Z 31016KT 9000 FEW020 30/25 Q1008 NOSIG
2026-03-18 10:00:00,METAR WIII 181000Z 32016KT 9999 FEW020 31/24 Q1008 NOSIG
2026-03-18 09:30:00,METAR WIII 180930Z 31016KT 9999 FEW020 31/24 Q1007 NOSIG
2026-03-18 09:00:00,METAR WIII 180900Z 33016KT 9999 FEW020 31/24 Q1007 NOSIG
2026-03-18 08:30:00,METAR WIII 180830Z 32017KT 9999 FEW020 31/25 Q1007 NOSIG
2026-03-18 08:00:00,METAR WIII 180800Z 31017KT 9999 FEW220 32/25 Q1007 NOSIG
2026-03-18 07:30:00,METAR WIII 180730Z 31016KT 9999 FEW020 32/25 Q1008 NOSIG
2026-03-18 07:00:00,METAR WIII 180700Z 33016KT 9999 FEW020 32/25 Q1008 NOSIG
2026-03-18 06:30:00,METAR WIII 180630Z 33010KT 290V010 8000 SCT020 33/23 Q1008 NOSIG
2026-03-18 06:00:00,METAR WIII 180600Z 31009KT 270V350 8000 SCT020 33/23 Q1009 NOSIG
2026-03-18 05:30:00,METAR WIII 180530Z 34009KT 290V030 8000 SCT020 33/23 Q1010 NOSIG
2026-03-18 05:00:00,METAR WIII 180500Z 27007KT 210V310 7000 FEW020 32/20 Q1010 NOSIG
2026-03-18 04:30:00,METAR WIII 180430Z 31006KT 260V010 7000 FEW020 32/22 Q1011 NOSIG
2026-03-18 04:00:00,METAR WIII 180400Z 31007KT 270V010 7000 FEW020 32/22 Q1011 NOSIG
2026-03-18 03:30:00,METAR WIII 180330Z 29007KT 260V330 6000 FEW020 31/23 Q1012 NOSIG
2026-03-18 03:00:00,METAR WIII 180300Z 31005KT 260V360 5000 HZ FEW020 31/23 Q1012 NOSIG
2026-03-18 02:30:00,METAR WIII 180230Z 34002KT 5000 HZ FEW020 31/23 Q1012 NOSIG
2026-03-18 02:00:00,METAR WIII 180200Z VRB02KT 4900 HZ FEW020 30/24 Q1012 NOSIG
2026-03-18 01:30:00,METAR WIII 180130Z VRB01KT 4800 HZ FEW020 28/23 Q1012 NOSIG
2026-03-18 01:00:00,METAR WIII 180100Z VRB02KT 4600 HZ FEW020 27/23 Q1011 NOSIG
2026-03-18 00:30:00,METAR WIII 180030Z VRB03KT 4500 HZ FEW020 27/24 Q1011 NOSIG
2026-03-18 00:00:00,METAR WIII 180000Z VRB03KT 4500 HZ FEW020 26/24 Q1011 NOSIG
2026-03-17 23:30:00,METAR WIII 172330Z 20005KT 5000 HZ FEW020 25/23 Q1011 NOSIG
2026-03-17 23:00:00,METAR WIII 172300Z 24005KT 5000 BR FEW020 25/23 Q1010 NOSIG
2026-03-17 22:30:00,METAR WIII 172230Z 25005KT 6000 FEW020 24/23 Q1010 NOSIG
2026-03-17 22:00:00,METAR WIII 172200Z 22004KT 7000 FEW020 25/23 Q1010 NOSIG
2026-03-17 21:30:00,METAR WIII 172130Z 23004KT 7000 FEW020 25/23 Q1010 NOSIG
2026-03-17 21:00:00,METAR WIII 172100Z 20003KT 8000 FEW020 25/23 Q1010 NOSIG
2026-03-17 20:30:00,METAR WIII 172030Z 25005KT 8000 FEW020 25/24 Q1010 NOSIG
2026-03-17 20:00:00,METAR WIII 172000Z 27005KT 7000 FEW020 25/24 Q1010 NOSIG
2026-03-17 19:30:00,METAR WIII 171930Z 26003KT 6000 FEW020 25/24 Q1010 NOSIG
2026-03-17 19:00:00,METAR WIII 171900Z 26004KT 6000 FEW020 25/24 Q1010 NOSIG
2026-03-17 18:30:00,METAR WIII 171830Z 26004KT 6000 FEW020 25/24 Q1010 NOSIG
2026-03-17 18:00:00,METAR WIII 171800Z 25004KT 6000 FEW020 26/24 Q1011 NOSIG
2026-03-17 17:30:00,METAR WIII 171730Z 28004KT 260V320 6000 FEW020 27/23 Q1011 NOSIG
2026-03-17 17:00:00,METAR WIII 171700Z 29005KT 6000 FEW020 27/23 Q1011 NOSIG
2026-03-17 16:30:00,METAR WIII 171630Z 29004KT 260V340 6000 FEW020 28/23 Q1011 NOSIG
2026-03-17 16:00:00,METAR WIII 171600Z 28006KT 6000 FEW020 28/23 Q1011 NOSIG
2026-03-17 15:30:00,METAR WIII 171530Z 29006KT 6000 FEW020 28/24 Q1011 NOSIG
2026-03-17 15:00:00,METAR WIII 171500Z 28005KT 250V320 6000 SCT020 28/25 Q1011 NOSIG
2026-03-17 14:30:00,METAR WIII 171430Z 30004KT 270V350 7000 SCT020 29/24 Q1011 NOSIG
2026-03-17 14:00:00,METAR WIII 171400Z 31005KT 7000 FEW020 28/24 Q1011 NOSIG
2026-03-17 13:30:00,METAR WIII 171330Z 31005KT 290V350 8000 FEW020 28/24 Q1010 NOSIG
2026-03-17 13:00:00,METAR WIII 171300Z 32004KT 260V030 8000 FEW020 28/24 Q1010 NOSIG
2026-03-17 12:30:00,METAR WIII 171230Z 33004KT 8000 FEW020 28/24 Q1009 NOSIG
2026-03-17 12:00:00,METAR WIII 171200Z 32004KT 8000 FEW020 29/24 Q1009 NOSIG
2026-03-17 11:30:00,METAR WIII 171130Z 32007KT 290V360 8000 FEW020 29/23 Q1008 NOSIG
2026-03-17 11:00:00,METAR WIII 171100Z 33007KT 8000 FEW020 29/23 Q1008 NOSIG
2026-03-17 10:30:00,METAR WIII 171030Z 32008KT 9999 FEW020 30/22 Q1007 NOSIG
2026-03-17 10:00:00,METAR WIII 171000Z 33009KT 9999 FEW020 31/22 Q1007 NOSIG
2026-03-17 09:30:00,METAR WIII 170930Z 33009KT 9999 FEW020 31/22 Q1007 NOSIG
2026-03-17 09:00:00,METAR WIII 170900Z 34009KT 310V020 9999 FEW020 31/23 Q1007 NOSIG
2026-03-17 08:30:00,METAR WIII 170830Z 32009KT 9999 FEW020 31/22 Q1007 NOSIG
2026-03-17 08:00:00,METAR WIII 170800Z 33010KT 290V360 9999 FEW020 32/22 Q1007 NOSIG
2026-03-17 07:30:00,METAR WIII 170730Z 32010KT 310V010 9999 FEW020 32/22 Q1008 NOSIG
2026-03-17 07:00:00,METAR WIII 170700Z 32011KT 290V350 9999 FEW020 32/22 Q1008 NOSIG
2026-03-17 06:30:00,METAR WIII 170630Z 32012KT 290V020 9999 FEW020 32/22 Q1009 NOSIG
2026-03-17 06:00:00,METAR WIII 170600Z 33010KT 280V010 9999 SCT020 32/24 Q1009 NOSIG
2026-03-17 05:30:00,METAR WIII 170530Z 32010KT 270V010 9999 SCT020 32/23 Q1010 NOSIG
2026-03-17 05:00:00,METAR WIII 170500Z 32009KT 290V010 9999 SCT020 32/23 Q1010 NOSIG
2026-03-17 04:30:00,METAR WIII 170430Z 32010KT 260V010 9999 FEW020 32/23 Q1010 NOSIG
2026-03-17 04:00:00,METAR WIII 170400Z 30010KT 260V350 9999 FEW020 32/23 Q1011 NOSIG
2026-03-17 03:30:00,METAR WIII 170330Z 27007KT 250V310 9999 FEW020 31/23 Q1011 NOSIG
2026-03-17 03:00:00,METAR WIII 170300Z 29006KT 210V330 9999 FEW020 31/23 Q1012 NOSIG
2026-03-17 02:30:00,METAR WIII 170230Z 30005KT 250V360 9999 FEW020 31/23 Q1012 NOSIG
2026-03-17 02:00:00,METAR WIII 170200Z 28004KT 210V360 9999 FEW020 30/22 Q1012 NOSIG
2026-03-17 01:30:00,METAR WIII 170130Z 28005KT 250V320 9000 FEW020 29/22 Q1012 NOSIG
2026-03-17 01:00:00,METAR WIII 170100Z 25005KT 220V300 8000 FEW020 28/23 Q1011 NOSIG
2026-03-17 00:30:00,METAR WIII 170030Z 25003KT 5000 HZ FEW020 27/22 Q1010 NOSIG
2026-03-17 00:00:00,METAR WIII 170000Z 25005KT 4000 HZ FEW020 26/23 Q1010 NOSIG
2026-03-16 23:30:00,METAR WIII 162330Z 23005KT 3500 HZ FEW020 25/22 Q1010 NOSIG
2026-03-16 23:00:00,METAR WIII 162300Z 22005KT 5000 HZ FEW020 25/23 Q1010 NOSIG
2026-03-16 22:30:00,METAR WIII 162230Z 22005KT 7000 FEW020 25/23 Q1010 NOSIG
2026-03-16 22:00:00,METAR WIII 162200Z 25004KT 7000 FEW020 25/23 Q1010 NOSIG
2026-03-16 21:30:00,METAR WIII 162130Z 25006KT 7000 FEW020 25/23 Q1010 NOSIG
2026-03-16 21:00:00,METAR WIII 162100Z 25006KT 7000 SCT020 25/24 Q1010 NOSIG
2026-03-16 20:30:00,METAR WIII 162030Z 25005KT 7000 SCT020 25/24 Q1010 NOSIG
2026-03-16 20:00:00,METAR WIII 162000Z 24009KT 7000 SCT020 25/24 Q1010 NOSIG
2026-03-16 19:30:00,METAR WIII 161930Z 27009KT 7000 SCT020 26/24 Q1010 NOSIG
2026-03-16 19:00:00,METAR WIII 161900Z 28006KT 7000 SCT020 26/24 Q1010 NOSIG
2026-03-16 18:30:00,METAR WIII 161830Z 27005KT 8000 SCT018 26/24 Q1010 NOSIG
2026-03-16 18:00:00,METAR WIII 161800Z 28006KT 8000 SCT018 26/24 Q1010 NOSIG
2026-03-16 17:30:00,METAR WIII 161730Z 26006KT 8000 SCT018 26/25 Q1011 NOSIG
2026-03-16 17:00:00,METAR WIII 161700Z 30007KT 9999 SCT018 27/25 Q1011 NOSIG
2026-03-16 16:30:00,METAR WIII 161630Z 31006KT 8000 SCT018 27/24 Q1011 NOSIG
2026-03-16 16:00:00,METAR WIII 161600Z 32007KT 5000 HZ SCT018 28/25 Q1011 NOSIG
2026-03-16 15:30:00,METAR WIII 161530Z 30006KT 4000 HZ SCT020 28/25 Q1011 NOSIG
2026-03-16 15:00:00,METAR WIII 161500Z 31004KT 270V330 4500 HZ SCT020 28/25 Q1011 NOSIG
2026-03-16 14:30:00,METAR WIII 161430Z 31004KT 4000 HZ SCT020 28/25 Q1011 NOSIG
2026-03-16 14:00:00,METAR WIII 161400Z 29005KT 5000 HZ SCT020 28/25 Q1010 NOSIG
2026-03-16 13:30:00,METAR WIII 161330Z 32004KT 7000 SCT018 28/25 Q1010 NOSIG
2026-03-16 13:00:00,METAR WIII 161300Z 32004KT 9999 FEW020 28/25 Q1009 NOSIG
2026-03-16 12:30:00,METAR WIII 161230Z 35004KT 8000 FEW020 28/25 Q1009 NOSIG
2026-03-16 12:00:00,METAR WIII 161200Z 35004KT 330V030 8000 FEW020 28/24 Q1008 NOSIG
2026-03-16 11:30:00,METAR WIII 161130Z 35006KT 8000 FEW020 29/24 Q1008 NOSIG
2026-03-16 11:00:00,METAR WIII 161100Z 35007KT 300V030 9000 FEW020 29/24 Q1007 NOSIG
2026-03-16 10:30:00,METAR WIII 161030Z 34008KT 330V040 9999 FEW020 30/24 Q1007 NOSIG
2026-03-16 10:00:00,METAR WIII 161000Z 33008KT 300V020 9999 FEW020 30/23 Q1007 NOSIG
2026-03-16 09:30:00,METAR WIII 160930Z 34008KT 9999 FEW020 31/23 Q1007 NOSIG
2026-03-16 09:00:00,METAR WIII 160900Z 34010KT 9999 FEW020 31/23 Q1007 NOSIG
2026-03-16 08:30:00,METAR WIII 160830Z 33010KT 300V360 9999 FEW020 31/23 Q1007 NOSIG
2026-03-16 08:00:00,METAR WIII 160800Z 33010KT 9999 FEW020 32/23 Q1007 NOSIG
2026-03-16 07:30:00,METAR WIII 160730Z 33011KT 290V010 9999 FEW020 31/22 Q1007 NOSIG
2026-03-16 07:00:00,METAR WIII 160700Z 32011KT 9999 FEW020 32/21 Q1008 NOSIG
2026-03-16 06:30:00,METAR WIII 160630Z 31009KT 270V350 9999 FEW020 32/22 Q1008 NOSIG
2026-03-16 06:00:00,METAR WIII 160600Z 33010KT 9999 FEW020 32/22 Q1009 NOSIG
2026-03-16 05:30:00,METAR WIII 160530Z 33008KT 300V020 9999 FEW020 31/23 Q1009 NOSIG
2026-03-16 05:00:00,METAR WIII 160500Z 34006KT 280V360 9999 FEW020 31/24 Q1010 NOSIG
2026-03-16 04:30:00,METAR WIII 160430Z 31008KT 250V030 9999 SCT020 32/24 Q1010 NOSIG
2026-03-16 04:00:00,METAR WIII 160400Z 30008KT 250V340 9999 SCT020 30/23 Q1011 NOSIG
2026-03-16 03:30:00,METAR WIII 160330Z 29009KT 250V320 9999 FEW020 30/23 Q1011 NOSIG
2026-03-16 03:00:00,METAR WIII 160300Z 26010KT 230V300 9999 FEW020 31/23 Q1011 NOSIG
2026-03-16 02:30:00,METAR WIII 160230Z 28010KT 220V310 9999 FEW020 30/23 Q1011 NOSIG
2026-03-16 02:00:00,METAR WIII 160200Z 28011KT 240V300 8000 FEW020 29/24 Q1011 NOSIG
2026-03-16 01:30:00,METAR WIII 160130Z 26007KT 230V290 5000 HZ FEW020 28/24 Q1011 NOSIG
2026-03-16 01:00:00,METAR WIII 160100Z 25005KT 5000 HZ NSC 27/24 Q1011 NOSIG
2026-03-16 00:30:00,METAR WIII 160030Z 22006KT 5000 HZ FEW020 27/24 Q1010 NOSIG
2026-03-16 00:00:00,METAR WIII 160000Z 19006KT 5000 HZ FEW020 26/24 Q1010 NOSIG
2026-03-15 23:30:00,METAR WIII 152330Z 19005KT 6000 FEW020 26/24 Q1010 NOSIG
2026-03-15 23:00:00,METAR WIII 152300Z 21004KT 6000 FEW020 25/24 Q1010 NOSIG
2026-03-15 22:30:00,METAR WIII 152230Z 24004KT 7000 FEW020 25/24 Q1010 NOSIG
2026-03-15 22:00:00,METAR WIII 152200Z 24004KT 7000 FEW020 25/24 Q1010 NOSIG
2026-03-15 21:30:00,METAR WIII 152130Z 29006KT 7000 FEW020 25/24 Q1010 NOSIG
2026-03-15 21:00:00,METAR WIII 152100Z 29007KT 7000 FEW020 26/24 Q1010 NOSIG
2026-03-15 20:30:00,METAR WIII 152030Z 24007KT 7000 FEW018CB FEW020 25/24 Q1010 NOSIG RMK CB TO N
2026-03-15 20:00:00,METAR WIII 152000Z 22007KT 7000 VCTS FEW018CB FEW020 26/24 Q1009 NOSIG RMK CB TO N
2026-03-15 19:30:00,METAR WIII 151930Z 20007KT 7000 FEW020 26/24 Q1009 NOSIG
2026-03-15 19:00:00,METAR WIII 151900Z 21003KT 7000 FEW020 26/24 Q1010 NOSIG
2026-03-15 18:30:00,METAR WIII 151830Z 22004KT 7000 FEW020 26/24 Q1010 NOSIG
2026-03-15 18:00:00,METAR WIII 151800Z 21003KT 150V240 7000 FEW020 26/24 Q1010 NOSIG
2026-03-15 17:30:00,METAR WIII 151730Z 21006KT 7000 FEW020 27/24 Q1010 NOSIG
2026-03-15 17:00:00,METAR WIII 151700Z 22003KT 7000 FEW020 27/24 Q1011 NOSIG
2026-03-15 16:30:00,METAR WIII 151630Z COR 24003KT 210V270 7000 FEW020 26/24 Q1011 NOSIG
2026-03-15 16:00:00,METAR WIII 151600Z 22004KT 8000 FEW020 27/24 Q1011 NOSIG
2026-03-15 15:30:00,METAR WIII 151530Z 23005KT 7000 FEW020 26/24 Q1011 NOSIG
2026-03-15 15:00:00,METAR WIII 151500Z 24005KT 8000 FEW020 27/24 Q1011 NOSIG
2026-03-15 14:30:00,METAR WIII 151430Z 23005KT 8000 FEW020 27/23 Q1011 NOSIG
2026-03-15 14:00:00,METAR WIII 151400Z 23005KT 8000 FEW020 27/23 Q1011 NOSIG
2026-03-15 13:30:00,METAR WIII 151330Z 24004KT 8000 FEW020 27/22 Q1011 NOSIG
2026-03-15 13:00:00,METAR WIII 151300Z 25006KT 8000 FEW020 27/21 Q1010 NOSIG
2026-03-15 12:30:00,METAR WIII 151230Z 24006KT 8000 FEW020 28/20 Q1010 NOSIG
2026-03-15 12:00:00,METAR WIII 151200Z 25007KT 8000 FEW020 28/20 Q1009 NOSIG
2026-03-15 11:30:00,METAR WIII 151130Z 27006KT 230V300 9000 FEW020 29/23 Q1008 NOSIG
2026-03-15 11:00:00,METAR WIII 151100Z 31005KT 9999 FEW020 30/22 Q1008 NOSIG
2026-03-15 10:30:00,METAR WIII 151030Z 31008KT 9999 FEW020 30/23 Q1007 NOSIG
2026-03-15 10:00:00,METAR WIII 151000Z 31010KT 280V350 9999 FEW020 31/24 Q1007 NOSIG
2026-03-15 09:30:00,METAR WIII 150930Z 31011KT 9999 FEW020 30/24 Q1007 NOSIG
2026-03-15 09:00:00,METAR WIII 150900Z 32010KT 280V350 9999 FEW018 31/24 Q1007 NOSIG
2026-03-15 08:30:00,METAR WIII 150830Z 32013KT 290V010 9999 FEW020 31/23 Q1007 NOSIG
2026-03-15 08:00:00,METAR WIII 150800Z 33011KT 290V360 9999 FEW018 32/24 Q1007 NOSIG
