Time_recorded,METAR
2026-05-02 14:53:00,METAR KSRQ 021453Z 21013G21KT 10SM FEW013 29/23 A2988 RMK AO2 SLP118 T02890233 53013
2026-05-02 13:53:00,METAR KSRQ 021353Z 20013G19KT 10SM CLR 28/23 A2987 RMK AO2 SLP113 T02830233
2026-05-02 13:18:00,SPECI KSRQ 021318Z 19017G24KT 10SM SCT010 27/24 A2985 RMK AO2 T02720239
2026-05-02 12:53:00,METAR KSRQ 021253Z 19015G19KT 10SM BKN011 OVC042 27/23 A2985 RMK AO2 SLP106 T02670228
2026-05-02 12:45:00,SPECI KSRQ 021245Z 16005KT 10SM BKN012 OVC042 25/22 A2985 RMK AO2 T02500217
2026-05-02 11:53:00,METAR KSRQ 021153Z 12004KT 10SM CLR 23/21 A2984 RMK AO2 SLP105 T02280206 10250 20217 53000
2026-05-02 10:53:00,METAR KSRQ 021053Z 15006KT 10SM CLR 22/20 A2983 RMK AO2 SLP101 T02170200
2026-05-02 09:53:00,METAR KSRQ 020953Z 14006KT 10SM CLR 22/20 A2984 RMK AO2 SLP103 T02220200
2026-05-02 08:53:00,METAR KSRQ 020853Z AUTO 12004KT 10SM CLR 23/21 A2984 RMK AO2 SLP104 T02280206 56010
2026-05-02 07:53:00,METAR KSRQ 020753Z AUTO 21005KT 10SM CLR 24/21 A2985 RMK AO2 SLP108 T02440211
2026-05-02 06:53:00,METAR KSRQ 020653Z AUTO 22004KT 10SM CLR 25/21 A2986 RMK AO2 SLP111 T02500211
2026-05-02 05:53:00,METAR KSRQ 020553Z AUTO 22004KT 10SM CLR 24/21 A2987 RMK AO2 SLP115 T02440206 10261 20244 58007
2026-05-02 04:53:00,METAR KSRQ 020453Z AUTO 22006KT 10SM CLR 25/21 A2988 RMK AO2 SLP119 T02500211 403000239
2026-05-02 03:53:00,METAR KSRQ 020353Z 20005KT 10SM CLR 24/21 A2989 RMK AO2 SLP119 T02440206
2026-05-02 02:53:00,METAR KSRQ 020253Z 22005KT 10SM CLR 25/21 A2989 RMK AO2 SLP122 T02500211 51014
2026-05-02 01:53:00,METAR KSRQ 020153Z 24005KT 10SM SCT017 25/21 A2989 RMK AO2 SLP121 T02500211
2026-05-02 00:53:00,METAR KSRQ 020053Z 24005KT 10SM FEW017 26/21 A2987 RMK AO2 SLP114 T02560206
2026-05-01 23:53:00,METAR KSRQ 012353Z 24007KT 10SM CLR 26/21 A2985 RMK AO2 SLP108 T02610206 10300 20261 53001
2026-05-01 22:53:00,METAR KSRQ 012253Z 23008KT 10SM CLR 27/21 A2984 RMK AO2 SLP104 T02670206
2026-05-01 21:53:00,METAR KSRQ 012153Z 22009KT 10SM CLR 28/21 A2984 RMK AO2 SLP104 T02780206
2026-05-01 20:53:00,METAR KSRQ 012053Z 23010KT 10SM CLR 28/21 A2985 RMK AO2 SLP106 T02830211 58022
2026-05-01 19:53:00,METAR KSRQ 011953Z 25011KT 10SM CLR 28/22 A2987 RMK AO2 SLP114 T02830217
2026-05-01 18:53:00,METAR KSRQ 011853Z 24010KT 10SM CLR 29/22 A2990 RMK AO2 SLP125 T02940217
2026-05-01 17:53:00,METAR KSRQ 011753Z 23008KT 10SM CLR 28/22 A2991 RMK AO2 SLP128 T02830217 10294 20244 58007
2026-05-01 16:53:00,METAR KSRQ 011653Z 26009G16KT 10SM CLR 28/21 A2993 RMK AO2 SLP134 T02830211
2026-05-01 15:53:00,METAR KSRQ 011553Z 24009KT 10SM CLR 28/21 A2994 RMK AO2 SLP137 T02780211
2026-05-01 14:53:00,METAR KSRQ 011453Z 22007KT 10SM CLR 27/22 A2993 RMK AO2 SLP135 T02720217 51008
2026-05-01 13:53:00,METAR KSRQ 011353Z 27006KT 10SM FEW015 27/22 A2993 RMK AO2 SLP133 T02670217
2026-05-01 12:53:00,METAR KSRQ 011253Z 29007KT 10SM SCT015 26/22 A2992 RMK AO2 SLP130 T02610217
2026-05-01 11:53:00,METAR KSRQ 011153Z 26007KT 10SM FEW014 24/22 A2991 RMK AO2 SLP127 T02440217 10250 20239 53008
2026-05-01 10:53:00,METAR KSRQ 011053Z 25003KT 10SM SCT014 24/21 A2989 RMK AO2 SLP120 T02390211
2026-05-01 09:53:00,METAR KSRQ 010953Z AUTO 27005KT 10SM FEW015 24/21 A2988 RMK AO2 SLP119 T02390211
2026-05-01 08:53:00,METAR KSRQ 010853Z AUTO 27007KT 10SM FEW015 24/21 A2988 RMK AO2 SLP118 T02440211 55005
2026-05-01 07:53:00,METAR KSRQ 010753Z AUTO 27007KT 10SM FEW015 24/21 A2987 RMK AO2 SLP114 T02440211
2026-05-01 06:53:00,METAR KSRQ 010653Z AUTO 28009KT 10SM CLR 24/21 A2989 RMK AO2 SLP120 T02440211
2026-05-01 05:53:00,METAR KSRQ 010553Z AUTO 27006KT 10SM CLR 24/21 A2990 RMK AO2 SLP124 T02440211 10261 20244 58003
2026-05-01 04:53:00,METAR KSRQ 010453Z AUTO 25008KT 10SM CLR 25/21 A2991 RMK AO2 SLP128 T02500211 402890233
2026-05-01 03:53:00,METAR KSRQ 010353Z 25007KT 10SM CLR 25/21 A2991 RMK AO2 SLP128 T02500211
2026-05-01 03:32:00,SPECI KSRQ 010332Z 26007KT 10SM SCT016 SCT025 25/21 A2992 RMK AO2 T02500211
2026-05-01 02:53:00,METAR KSRQ 010253Z 22006KT 10SM BKN015 25/22 A2991 RMK AO2 SLP126 T02500217 51006
2026-05-01 02:49:00,SPECI KSRQ 010249Z 23005KT 10SM BKN015 BKN023 25/22 A2990 RMK AO2
2026-05-01 01:53:00,METAR KSRQ 010153Z 24007KT 10SM FEW016 SCT034 25/21 A2991 RMK AO2 SLP127 T02500211
2026-05-01 00:53:00,METAR KSRQ 010053Z 24007KT 10SM SCT015 26/22 A2989 RMK AO2 SLP120 T02560217
2026-05-01 00:40:00,SPECI KSRQ 010040Z 25006KT 10SM SCT016 26/22 A2989 RMK AO2 T02560217
2026-04-30 23:53:00,METAR KSRQ 302353Z 26008KT 10SM BKN017 BKN024 26/21 A2988 RMK AO2 SLP117 T02610211 10289 20261 55001
2026-04-30 22:53:00,METAR KSRQ 302253Z 24008KT 10SM BKN017 27/21 A2987 RMK AO2 SLP113 T02670211
2026-04-30 22:32:00,SPECI KSRQ 302232Z 25008KT 10SM BKN018 27/22 A2987 RMK AO2 T02670217
2026-04-30 21:53:00,METAR KSRQ 302153Z 24010KT 10SM SCT017 27/22 A2987 RMK AO2 SLP114 T02720217
2026-04-30 20:53:00,METAR KSRQ 302053Z 27009KT 10SM FEW018 SCT024 28/21 A2988 RMK AO2 SLP117 T02780211 56010
2026-04-30 20:23:00,SPECI KSRQ 302023Z 24009KT 10SM SCT018 BKN027 27/21 A2988 RMK AO2 T02720211
2026-04-30 19:53:00,METAR KSRQ 301953Z AUTO 25012KT 10SM FEW014 28/22 A2989 RMK AO2 SLP120 T02780217
2026-04-30 18:53:00,METAR KSRQ 301853Z AUTO 23010G17KT 10SM CLR 28/22 A2990 RMK AO2 SLP124 T02780222
2026-04-30 17:53:00,METAR KSRQ 301753Z 24008KT 10SM CLR 28/22 A2991 RMK AO2 SLP127 T02830222 10289 20244 58002
2026-04-30 16:53:00,METAR KSRQ 301653Z 22011KT 10SM CLR 28/22 A2992 RMK AO2 SLP132 T02780222
2026-04-30 14:53:00,METAR KSRQ 301453Z 21008KT 10SM FEW015 27/22 A2992 RMK AO2 SLP130 T02720217 50003
2026-04-30 14:41:00,SPECI KSRQ 301441Z 21006KT 10SM SCT013 27/22 A2991 RMK AO2 T02670217
2026-04-30 14:02:00,SPECI KSRQ 301402Z 24007KT 10SM BKN009 26/22 A2993 RMK AO2 T02560217
2026-04-30 13:53:00,METAR KSRQ 301353Z 23005KT 10SM BKN014 26/22 A2993 RMK AO2 SLP134 T02560217
2026-04-30 12:53:00,METAR KSRQ 301253Z 25005KT 10SM BKN014 25/22 A2993 RMK AO2 SLP135 T02500222
2026-04-30 11:53:00,METAR KSRQ 301153Z 26005KT 10SM FEW012 24/22 A2991 RMK AO2 SLP127 T02440217 10244 20233 53008
2026-04-30 10:53:00,METAR KSRQ 301053Z 19004KT 10SM SCT014 24/22 A2989 RMK AO2 SLP119 T02390217
2026-04-30 09:53:00,METAR KSRQ 300953Z 26004KT 10SM FEW015 24/21 A2989 RMK AO2 SLP122 T02390206
2026-04-30 08:53:00,METAR KSRQ 300853Z AUTO 00000KT 10SM CLR 24/21 A2988 RMK AO2 SLP119 T02390211 56013
2026-04-30 07:53:00,METAR KSRQ 300753Z AUTO 30005KT 10SM CLR 24/22 A2989 RMK AO2 SLP121 T02390217
2026-04-30 06:53:00,METAR KSRQ 300653Z AUTO 32006KT 10SM CLR 23/21 A2990 RMK AO2 SLP124 T02330211
2026-04-30 05:53:00,METAR KSRQ 300553Z AUTO 31004KT 10SM CLR 23/21 A2992 RMK AO2 SLP132 T02330211 10250 20233 58008
2026-04-30 04:53:00,METAR KSRQ 300453Z AUTO 31008KT 10SM CLR 24/22 A2994 RMK AO2 SLP138 T02390217 402940206
2026-04-30 03:53:00,METAR KSRQ 300353Z 30009KT 10SM CLR 24/22 A2995 RMK AO2 SLP140 T02440217
2026-04-30 02:53:00,METAR KSRQ 300253Z 29008KT 10SM FEW011 24/22 A2995 RMK AO2 SLP140 T02440217 51013
2026-04-30 01:53:00,METAR KSRQ 300153Z 28009KT 10SM CLR 25/22 A2994 RMK AO2 SLP139 T02500217
2026-04-30 00:53:00,METAR KSRQ 300053Z 27009KT 10SM CLR 25/22 A2992 RMK AO2 SLP132 T02500217
2026-04-29 23:53:00,METAR KSRQ 292353Z 25009KT 10SM FEW012 26/22 A2991 RMK AO2 SLP127 T02560217 10294 20256 55009
2026-04-29 22:53:00,METAR KSRQ 292253Z 25009KT 10SM FEW012 26/22 A2991 RMK AO2 SLP127 T02610217
2026-04-29 21:53:00,METAR KSRQ 292153Z 24011KT 10SM FEW011 27/22 A2992 RMK AO2 SLP129 T02670217
2026-04-29 20:53:00,METAR KSRQ 292053Z 27012KT 10SM CLR 28/22 A2994 RMK AO2 SLP136 T02780217 58023
2026-04-29 19:53:00,METAR KSRQ 291953Z 24011KT 10SM CLR 28/21 A2995 RMK AO2 SLP142 T02780211
2026-04-29 18:53:00,METAR KSRQ 291853Z 25011KT 10SM CLR 29/21 A2999 RMK AO2 SLP155 T02890206
2026-04-29 17:53:00,METAR KSRQ 291753Z 23012KT 10SM CLR 29/19 A3000 RMK AO2 SLP159 T02890194 10294 20211 58018
2026-04-29 16:53:00,METAR KSRQ 291653Z 22010KT 10SM CLR 29/19 A3003 RMK AO2 SLP167 T02940189
2026-04-29 15:53:00,METAR KSRQ 291553Z 25009KT 10SM CLR 29/18 A3006 RMK AO2 SLP177 T02940183
2026-04-29 14:53:00,METAR KSRQ 291453Z 00000KT 10SM CLR 28/19 A3006 RMK AO2 SLP177 T02780189 51013
2026-04-29 13:53:00,METAR KSRQ 291353Z 16005KT 10SM CLR 26/20 A3005 RMK AO2 SLP174 T02610200
2026-04-29 12:53:00,METAR KSRQ 291253Z 08004KT 10SM CLR 23/19 A3004 RMK AO2 SLP172 T02280194
2026-04-29 11:53:00,METAR KSRQ 291153Z 10005KT 10SM CLR 21/19 A3002 RMK AO2 SLP165 T02110189 10233 20206 53010
2026-04-29 10:53:00,METAR KSRQ 291053Z 10004KT 10SM CLR 21/18 A3000 RMK AO2 SLP157 T02060183
2026-04-29 09:53:00,METAR KSRQ 290953Z 06005KT 10SM CLR 21/18 A3000 RMK AO2 SLP158 T02110183
2026-04-29 08:53:00,METAR KSRQ 290853Z AUTO 11003KT 10SM CLR 21/18 A2999 RMK AO2 SLP155 T02110183 56007
2026-04-29 07:53:00,METAR KSRQ 290753Z AUTO 08003KT 10SM CLR 22/18 A2999 RMK AO2 SLP155 T02170183
2026-04-29 06:53:00,METAR KSRQ 290653Z AUTO 14007KT 10SM CLR 22/18 A2998 RMK AO2 SLP152 T02220183
2026-04-29 05:53:00,METAR KSRQ 290553Z AUTO 13007KT 10SM CLR 23/18 A3001 RMK AO2 SLP162 T02280178 10272 20228 58018
2026-04-29 04:53:00,METAR KSRQ 290453Z 13007KT 10SM CLR 24/18 A3003 RMK AO2 SLP168 T02390178 403220194
2026-04-29 03:53:00,METAR KSRQ 290353Z 11007KT 10SM CLR 24/18 A3006 RMK AO2 SLP177 T02440178
2026-04-29 02:53:00,METAR KSRQ 290253Z 13009KT 10SM CLR 26/18 A3006 RMK AO2 SLP180 T02610178 53014
2026-04-29 01:53:00,METAR KSRQ 290153Z 04007KT 10SM BKN050 26/18 A3005 RMK AO2 SLP174 T02610178
2026-04-29 00:53:00,METAR KSRQ 290053Z 34004KT 10SM FEW080 26/17 A3004 RMK AO2 SLP170 T02610167
2026-04-28 23:53:00,METAR KSRQ 282353Z 32007KT 10SM CLR 27/16 A3002 RMK AO2 SLP166 T02720161 10322 20272 55005
2026-04-28 22:53:00,METAR KSRQ 282253Z 33010KT 10SM FEW070 28/16 A3002 RMK AO2 SLP165 T02830161
2026-04-28 21:53:00,METAR KSRQ 282153Z 31014KT 10SM CLR 29/18 A3002 RMK AO2 SLP165 T02890178
2026-04-28 20:53:00,METAR KSRQ 282053Z 30014G22KT 10SM FEW075 31/17 A3004 RMK AO2 SLP171 T03060172 58015
2026-04-28 19:53:00,METAR KSRQ 281953Z 03010G17KT 10SM CLR 32/14 A3005 RMK AO2 SLP176 T03170144
2026-04-28 18:53:00,METAR KSRQ 281853Z 28015KT 10SM CLR 30/19 A3008 RMK AO2 SLP184 T03000194
2026-04-28 17:53:00,METAR KSRQ 281753Z 28010G19KT 10SM CLR 30/18 A3008 RMK AO2 SLP186 T03000183 10317 20206 58010
2026-04-28 16:53:00,METAR KSRQ 281653Z 12008KT 10SM CLR 30/17 A3010 RMK AO2 SLP193 T03000167
2026-04-28 15:53:00,METAR KSRQ 281553Z VRB05KT 10SM CLR 29/17 A3012 RMK AO2 SLP198 T02890172
2026-04-28 14:53:00,METAR KSRQ 281453Z 07006KT 10SM CLR 27/18 A3012 RMK AO2 SLP197 T02720178 51008
2026-04-28 13:53:00,METAR KSRQ 281353Z 07007KT 10SM CLR 25/19 A3011 RMK AO2 SLP196 T02500189
2026-04-28 12:53:00,METAR KSRQ 281253Z 05006KT 10SM CLR 22/19 A3011 RMK AO2 SLP195 T02220189
2026-04-28 11:53:00,METAR KSRQ 281153Z 07007KT 10SM FEW005 21/19 A3009 RMK AO2 SLP189 70005 T02060189 10222 20194 53013
2026-04-28 10:53:00,METAR KSRQ 281053Z 05006KT 10SM FEW007 19/18 A3008 RMK AO2 SLP184 T01940183
2026-04-28 10:38:00,SPECI KSRQ 281038Z 04007KT 10SM FEW007 20/18 A3007 RMK AO2 T02000183
2026-04-28 09:53:00,METAR KSRQ 280953Z 05006KT 10SM CLR 20/18 A3006 RMK AO2 SLP178 T02000183
2026-04-28 08:53:00,METAR KSRQ 280853Z AUTO 05008KT 10SM CLR 21/18 A3005 RMK AO2 SLP176 T02060183 55007
2026-04-28 07:53:00,METAR KSRQ 280753Z AUTO 06007KT 10SM BKN060 21/18 A3004 RMK AO2 SLP173 T02110183
2026-04-28 06:53:00,METAR KSRQ 280653Z AUTO 06006KT 10SM CLR 22/18 A3006 RMK AO2 SLP177 T02170183
2026-04-28 05:53:00,METAR KSRQ 280553Z AUTO 06006KT 10SM CLR 22/18 A3007 RMK AO2 SLP183 T02220183 10278 20222 58001
2026-04-28 04:53:00,METAR KSRQ 280453Z AUTO 08008KT 10SM CLR 23/18 A3008 RMK AO2 SLP186 T02330183 403390217
2026-04-28 03:53:00,METAR KSRQ 280353Z 07009KT 10SM CLR 24/18 A3008 RMK AO2 SLP186 T02390183
2026-04-28 02:53:00,METAR KSRQ 280253Z 08010G17KT 10SM CLR 24/18 A3008 RMK AO2 SLP184 T02440178 51027
2026-04-28 01:53:00,METAR KSRQ 280153Z 07012G20KT 10SM FEW070 26/18 A3006 RMK AO2 SLP177 T02560183
2026-04-28 00:53:00,METAR KSRQ 280053Z 07011KT 10SM BKN065 27/18 A3003 RMK AO2 SLP168 T02670183
2026-04-27 23:53:00,METAR KSRQ 272353Z 07008G20KT 10SM FEW080 OVC100 28/18 A3000 RMK AO2 RAE2256 SLP157 P0000 60005 T02780178 10339 20267 53013
2026-04-27 22:53:00,METAR KSRQ 272253Z 08005KT 10SM -RA OVC050 27/22 A2997 RMK AO2 RAB23 SLP149 P0005 T02670217
2026-04-27 21:53:00,METAR KSRQ 272153Z 30014KT 10SM SCT065 SCT080 BKN100 30/20 A2996 RMK AO2 SLP145 T03000200
2026-04-27 20:53:00,METAR KSRQ 272053Z 29014G19KT 10SM FEW065 SCT080 30/22 A2996 RMK AO2 SLP144 T03000217 56009
2026-04-27 19:53:00,METAR KSRQ 271953Z 07007KT 10SM FEW060 OVC090 31/17 A2996 RMK AO2 SLP144 T03110172
2026-04-27 18:53:00,METAR KSRQ 271853Z 05008KT 10SM FEW050 BKN100 31/17 A2997 RMK AO2 SLP148 T03110172
2026-04-27 17:53:00,METAR KSRQ 271753Z 05006G19KT 10SM FEW080 FEW090 33/18 A2999 RMK AO2 SLP153 T03280183 10328 20261 58007
2026-04-27 16:53:00,METAR KSRQ 271653Z 05005KT 10SM SCT040 SCT048 31/19 A3000 RMK AO2 SLP158 T03060189
2026-04-27 15:53:00,METAR KSRQ 271553Z 10008KT 10SM SCT030 29/19 A3001 RMK AO2 SLP160 T02940194
2026-04-27 15:07:00,SPECI KSRQ 271507Z VRB05KT 10SM SCT024 28/20 A3001 RMK AO2 T02830200
2026-04-27 14:53:00,METAR KSRQ 271453Z 04008KT 10SM BKN024 28/21 A3001 RMK AO2 SLP161 T02780206 52014
2026-04-27 13:53:00,METAR KSRQ 271353Z 04007KT 10SM BKN019 27/21 A2999 RMK AO2 SLP155 T02670206
2026-04-27 12:53:00,METAR KSRQ 271253Z 36004KT 10SM CLR 26/21 A2998 RMK AO2 SLP153 T02610206
2026-04-27 11:53:00,METAR KSRQ 271153Z 00000KT 10SM FEW018 SCT023 24/22 A2997 RMK AO2 SLP147 T02390217 10239 20217 53017
2026-04-27 10:53:00,METAR KSRQ 271053Z 00000KT 10SM FEW015 SCT021 22/21 A2995 RMK AO2 SLP140 T02220206
2026-04-27 09:53:00,METAR KSRQ 270953Z AUTO 31006KT 10SM CLR 22/20 A2994 RMK AO2 SLP136 T02220200
2026-04-27 08:53:00,METAR KSRQ 270853Z AUTO 32003KT 10SM SCT028 23/21 A2992 RMK AO2 SLP131 T02280206 51004
2026-04-27 08:49:00,SPECI KSRQ 270849Z AUTO 33003KT 10SM BKN028 23/21 A2992 RMK AO2
2026-04-27 08:41:00,SPECI KSRQ 270841Z AUTO 32003KT 10SM SCT026 BKN032 23/21 A2992 RMK AO2 T02280206
2026-04-27 08:28:00,SPECI KSRQ 270828Z AUTO 31004KT 10SM FEW015 BKN025 23/21 A2992 RMK AO2 T02280206
2026-04-27 08:03:00,SPECI KSRQ 270803Z AUTO 30003KT 10SM FEW016 22/21 A2991 RMK AO2 T02220206
2026-04-27 07:53:00,METAR KSRQ 270753Z AUTO 00000KT 10SM BKN016 23/21 A2992 RMK AO2 SLP129 T02280206
2026-04-27 06:53:00,METAR KSRQ 270653Z AUTO 31003KT 10SM CLR 22/19 A2991 RMK AO2 SLP126 T02220194
2026-04-27 05:53:00,METAR KSRQ 270553Z AUTO 00000KT 10SM FEW018 22/19 A2992 RMK AO2 SLP132 T02220194 10244 20222 50003
2026-04-27 05:41:00,SPECI KSRQ 270541Z AUTO 00000KT 10SM SCT019 22/19 A2993 RMK AO2 T02220194
2026-04-27 05:20:00,SPECI KSRQ 270520Z AUTO 00000KT 10SM BKN019 23/20 A2994 RMK AO2 T02280200
2026-04-27 04:53:00,METAR KSRQ 270453Z AUTO 00000KT 10SM CLR 23/19 A2994 RMK AO2 SLP138 T02280194 402890206
2026-04-27 03:53:00,METAR KSRQ 270353Z AUTO 32005KT 10SM CLR 23/19 A2993 RMK AO2 SLP133 T02280194
2026-04-27 02:53:00,METAR KSRQ 270253Z 31008KT 10SM CLR 23/19 A2991 RMK AO2 SLP129 T02280194 53009
2026-04-27 01:53:00,METAR KSRQ 270153Z 33005KT 10SM CLR 23/19 A2990 RMK AO2 SLP125 T02330189
2026-04-27 00:53:00,METAR KSRQ 270053Z 31008KT 10SM CLR 23/19 A2989 RMK AO2 SLP122 T02330194
2026-04-26 23:53:00,METAR KSRQ 262353Z 31008KT 10SM CLR 25/19 A2989 RMK AO2 SLP119 T02500189 10289 20250 53002
2026-04-26 22:53:00,METAR KSRQ 262253Z 32010KT 10SM CLR 27/18 A2988 RMK AO2 SLP117 T02670178
2026-04-26 21:53:00,METAR KSRQ 262153Z 29012KT 10SM CLR 27/19 A2988 RMK AO2 SLP119 T02720194
2026-04-26 20:53:00,METAR KSRQ 262053Z 29014KT 10SM CLR 28/20 A2988 RMK AO2 SLP118 T02780200 58009
2026-04-26 19:53:00,METAR KSRQ 261953Z 29011KT 10SM FEW016 28/21 A2989 RMK AO2 SLP121 T02780206
2026-04-26 18:53:00,METAR KSRQ 261853Z 23011KT 10SM CLR 28/22 A2990 RMK AO2 SLP124 T02830217
2026-04-26 17:53:00,METAR KSRQ 261753Z 22010KT 10SM SCT015 28/21 A2991 RMK AO2 SLP127 T02780211 10283 20222 58003
2026-04-26 16:53:00,METAR KSRQ 261653Z 24010KT 10SM SCT015 28/21 A2992 RMK AO2 SLP131 T02780211
2026-04-26 15:53:00,METAR KSRQ 261553Z 19009KT 10SM CLR 27/21 A2992 RMK AO2 SLP132 T02720211
2026-04-26 14:53:00,METAR KSRQ 261453Z 22009KT 10SM CLR 26/21 A2992 RMK AO2 SLP130 T02610206 51008
2026-04-26 13:53:00,METAR KSRQ 261353Z 21007KT 10SM CLR 26/21 A2992 RMK AO2 SLP130 T02560206
2026-04-26 12:53:00,METAR KSRQ 261253Z 22007KT 10SM FEW010 24/22 A2991 RMK AO2 SLP128 T02440217
2026-04-26 12:00:00,SPECI KSRQ 261200Z 20006KT 10SM CLR 23/22 A2990 RMK AO2 T02280217
2026-04-26 11:53:00,METAR KSRQ 261153Z 18003KT 10SM BKN008 22/21 A2990 RMK AO2 SLP123 T02220211 10222 20206 53015
2026-04-26 10:53:00,METAR KSRQ 261053Z 16004KT 10SM BKN008 21/20 A2988 RMK AO2 SLP119 T02110200
2026-04-26 10:24:00,SPECI KSRQ 261024Z 19004KT 10SM SCT013 22/21 A2987 RMK AO2 T02170206
2026-04-26 09:53:00,METAR KSRQ 260953Z 16003KT 10SM BKN011 21/19 A2986 RMK AO2 SLP110 T02110194
2026-04-26 08:53:00,METAR KSRQ 260853Z AUTO 18004KT 10SM SCT013 21/19 A2985 RMK AO2 SLP107 T02110194 56005
2026-04-26 08:31:00,SPECI KSRQ 260831Z AUTO 17004KT 10SM BKN013 22/19 A2985 RMK AO2 T02170194
2026-04-26 07:53:00,METAR KSRQ 260753Z AUTO 20004KT 10SM CLR 22/20 A2985 RMK AO2 SLP108 T02170200
2026-04-26 06:53:00,METAR KSRQ 260653Z AUTO 16003KT 10SM CLR 22/20 A2985 RMK AO2 SLP108 T02220200
2026-04-26 05:53:00,METAR KSRQ 260553Z AUTO 00000KT 10SM CLR 22/20 A2987 RMK AO2 SLP112 T02220200 10244 20222 58005
2026-04-26 04:53:00,METAR KSRQ 260453Z AUTO 00000KT 10SM CLR 23/20 A2988 RMK AO2 SLP117 T02280200 402830194
2026-04-26 03:53:00,METAR KSRQ 260353Z AUTO 13004KT 10SM CLR 23/21 A2989 RMK AO2 SLP120 T02330206
2026-04-26 02:53:00,METAR KSRQ 260253Z 26003KT 10SM BKN110 24/21 A2988 RMK AO2 SLP118 T02390206 51014
2026-04-26 01:53:00,METAR KSRQ 260153Z 24003KT 10SM SCT120 24/21 A2987 RMK AO2 SLP114 T02390211
2026-04-26 00:53:00,METAR KSRQ 260053Z 22004KT 10SM CLR 24/21 A2985 RMK AO2 SLP109 T02440206
2026-04-25 23:53:00,METAR KSRQ 252353Z 31005KT 10SM CLR 24/20 A2984 RMK AO2 SLP104 T02440200 10283 20244 55009
2026-04-25 22:53:00,METAR KSRQ 252253Z 19006KT 10SM CLR 25/20 A2980 RMK AO2 PRESFR SLP092 T02500200
2026-04-25 21:53:00,METAR KSRQ 252153Z 27010KT 10SM CLR 26/21 A2985 RMK AO2 SLP109 T02610211
2026-04-25 20:53:00,METAR KSRQ 252053Z 26012KT 10SM CLR 27/21 A2987 RMK AO2 SLP113 T02670211 58008
2026-04-25 19:53:00,METAR KSRQ 251953Z 24012KT 10SM CLR 27/21 A2988 RMK AO2 LTG DSNT NE SLP119 T02670206
2026-04-25 18:53:00,METAR KSRQ 251853Z 24012KT 10SM CLR 27/21 A2990 RMK AO2 LTG DSNT NE AND E SLP123 T02720211
2026-04-25 17:53:00,METAR KSRQ 251753Z 23013KT 10SM CLR 28/21 A2989 RMK AO2 SLP121 T02780206 10283 20206 50001
2026-04-25 16:53:00,METAR KSRQ 251653Z 21013KT 10SM CLR 28/21 A2990 RMK AO2 SLP123 T02780206
2026-04-25 15:53:00,METAR KSRQ 251553Z 22012KT 10SM CLR 27/21 A2990 RMK AO2 SLP123 T02720206
2026-04-25 14:53:00,METAR KSRQ 251453Z 21010KT 10SM CLR 27/18 A2989 RMK AO2 SLP120 T02720183 53001
2026-04-25 13:53:00,METAR KSRQ 251353Z 15007KT 10SM CLR 26/18 A2988 RMK AO2 SLP119 T02610178
2026-04-25 12:53:00,METAR KSRQ 251253Z VRB04KT 10SM CLR 24/18 A2989 RMK AO2 SLP121 T02390183
2026-04-25 11:53:00,METAR KSRQ 251153Z 10003KT 10SM CLR 21/16 A2989 RMK AO2 SLP119 T02060161 10222 20194 53008
2026-04-25 10:53:00,METAR KSRQ 251053Z 00000KT 10SM CLR 19/15 A2987 RMK AO2 SLP114 T01940150
2026-04-25 09:53:00,METAR KSRQ 250953Z 11003KT 10SM CLR 21/16 A2986 RMK AO2 SLP111 T02060156
2026-04-25 08:53:00,METAR KSRQ 250853Z AUTO 12003KT 10SM CLR 21/16 A2986 RMK AO2 SLP112 T02060161 56006
2026-04-25 07:53:00,METAR KSRQ 250753Z AUTO 13005KT 10SM CLR 21/16 A2986 RMK AO2 SLP112 T02110161
2026-04-25 06:53:00,METAR KSRQ 250653Z AUTO 00000KT 10SM CLR 22/16 A2986 RMK AO2 SLP112 T02170156
2026-04-25 05:53:00,METAR KSRQ 250553Z AUTO 00000KT 10SM CLR 22/16 A2988 RMK AO2 SLP118 T02220156 10239 20217 58007
2026-04-25 04:53:00,METAR KSRQ 250453Z AUTO 10003KT 10SM BKN070 23/16 A2990 RMK AO2 SLP125 T02280156 402940189
2026-04-25 03:53:00,METAR KSRQ 250353Z AUTO 03004KT 10SM FEW070 23/16 A2991 RMK AO2 SLP127 T02280156
2026-04-25 02:53:00,METAR KSRQ 250253Z 01003KT 10SM CLR 23/17 A2990 RMK AO2 SLP125 T02280167 52009
2026-04-25 01:53:00,METAR KSRQ 250153Z 35004KT 10SM CLR 22/17 A2989 RMK AO2 SLP121 T02220167
2026-04-25 00:53:00,METAR KSRQ 250053Z 32007KT 10SM CLR 23/16 A2988 RMK AO2 SLP119 T02330161
2026-04-24 23:53:00,METAR KSRQ 242353Z 28006KT 10SM CLR 24/17 A2987 RMK AO2 SLP115 T02390167 10278 20239 55002
2026-04-24 22:53:00,METAR KSRQ 242253Z 28007KT 10SM CLR 25/16 A2987 RMK AO2 SLP113 T02500161
2026-04-24 21:53:00,METAR KSRQ 242153Z 27010KT 10SM CLR 26/16 A2988 RMK AO2 SLP117 T02560161
2026-04-24 20:53:00,METAR KSRQ 242053Z 25010KT 10SM CLR 27/14 A2988 RMK AO2 SLP117 T02670139 56016
2026-04-24 19:53:00,METAR KSRQ 241953Z 24011KT 10SM CLR 27/16 A2989 RMK AO2 SLP120 T02720156
2026-04-24 18:53:00,METAR KSRQ 241853Z 22011KT 10SM CLR 27/16 A2991 RMK AO2 SLP128 T02670156
2026-04-24 17:53:00,METAR KSRQ 241753Z 24012KT 10SM CLR 27/16 A2993 RMK AO2 SLP133 T02720161 10294 20200 58016
2026-04-24 16:53:00,METAR KSRQ 241653Z 10SM FEW055 29/16 A2994 RMK AO2 SLP138 T02890156
2026-04-24 15:53:00,METAR KSRQ 241553Z 15009KT 10SM CLR 28/13 A2997 RMK AO2 SLP147 T02780133
2026-04-24 14:53:00,METAR KSRQ 241453Z 13005G17KT 10SM SCT070 26/14 A2997 RMK AO2 SLP149 T02610144 50003
2026-04-24 13:53:00,METAR KSRQ 241353Z 13008KT 100V160 10SM CLR 26/14 A2998 RMK AO2 SLP150 T02560144
2026-04-24 12:53:00,METAR KSRQ 241253Z 10006KT 10SM CLR 23/16 A2998 RMK AO2 SLP150 T02280156
2026-04-24 11:53:00,METAR KSRQ 241153Z 08003KT 10SM CLR 20/16 A2997 RMK AO2 SLP147 T02000156 10217 20189 53009
2026-04-24 10:53:00,METAR KSRQ 241053Z 07005KT 10SM SCT110 19/15 A2995 RMK AO2 SLP141 T01940150
2026-04-24 09:53:00,METAR KSRQ 240953Z AUTO 09003KT 10SM OVC110 20/16 A2994 RMK AO2 SLP138 T02000156
2026-04-24 08:53:00,METAR KSRQ 240853Z AUTO 11003KT 10SM BKN110 19/16 A2994 RMK AO2 SLP138 T01940161 56017
2026-04-24 07:53:00,METAR KSRQ 240753Z AUTO 10004KT 10SM CLR 20/17 A2995 RMK AO2 SLP139 T02000167
2026-04-24 06:53:00,METAR KSRQ 240653Z AUTO 11005KT 10SM CLR 21/16 A2996 RMK AO2 SLP144 T02060161
2026-04-24 05:53:00,METAR KSRQ 240553Z AUTO 14007KT 10SM OVC044 22/17 A2999 RMK AO2 SLP154 T02170167 10233 20217 58007
2026-04-24 04:53:00,METAR KSRQ 240453Z AUTO 14006KT 10SM OVC034 22/17 A3000 RMK AO2 SLP159 T02170172 402890178
2026-04-24 03:53:00,METAR KSRQ 240353Z 14008KT 10SM SCT034 BKN047 22/17 A3000 RMK AO2 SLP159 T02220172
2026-04-24 02:53:00,METAR KSRQ 240253Z 13008KT 10SM SCT030 23/17 A3001 RMK AO2 SLP161 T02280172 51013
2026-04-24 01:53:00,METAR KSRQ 240153Z 06003KT 10SM BKN048 OVC070 23/17 A3000 RMK AO2 SLP159 T02330172
2026-04-24 00:53:00,METAR KSRQ 240053Z 36004KT 10SM FEW049 23/17 A2998 RMK AO2 SLP152 T02280167
2026-04-23 23:53:00,METAR KSRQ 232353Z 30009KT 10SM CLR 23/17 A2997 RMK AO2 SLP149 T02330167 10289 20233 55002
2026-04-23 22:53:00,METAR KSRQ 232253Z 27009KT 10SM CLR 24/17 A2997 RMK AO2 SLP147 T02440167
2026-04-23 21:53:00,METAR KSRQ 232153Z 28009KT 10SM CLR 25/17 A2997 RMK AO2 SLP149 T02500167
2026-04-23 20:53:00,METAR KSRQ 232053Z 27009KT 10SM CLR 26/17 A2998 RMK AO2 SLP151 T02560167 58012
2026-04-23 19:53:00,METAR KSRQ 231953Z 24009KT 10SM FEW080 26/16 A2999 RMK AO2 SLP156 T02610161
2026-04-23 18:53:00,METAR KSRQ 231853Z 24011KT 10SM SCT060 SCT080 26/17 A3002 RMK AO2 WSHFT 1832 SLP163 T02610167
2026-04-23 17:53:00,METAR KSRQ 231753Z 11009KT 10SM FEW050 27/13 A3003 RMK AO2 SLP169 T02720128 10283 20189 58020
2026-04-23 16:53:00,METAR KSRQ 231653Z 11010KT 10SM CLR 27/13 A3006 RMK AO2 SLP179 T02720133
2026-04-23 15:53:00,METAR KSRQ 231553Z 10008KT 10SM FEW044 27/14 A3009 RMK AO2 SLP187 T02670139
2026-04-23 14:53:00,METAR KSRQ 231453Z 13008KT 10SM CLR 25/15 A3009 RMK AO2 SLP190 T02500150 53003
2026-04-23 13:53:00,METAR KSRQ 231353Z 11010KT 10SM CLR 24/15 A3009 RMK AO2 SLP188 T02440150
2026-04-23 12:53:00,METAR KSRQ 231253Z 10006KT 10SM CLR 22/16 A3008 RMK AO2 SLP185 T02170156
2026-04-23 11:53:00,METAR KSRQ 231153Z 07006KT 10SM CLR 19/14 A3009 RMK AO2 SLP187 T01890144 10194 20178 53007
2026-04-23 10:53:00,METAR KSRQ 231053Z 08005KT 10SM CLR 18/14 A3007 RMK AO2 SLP182 T01780139
2026-04-23 09:53:00,METAR KSRQ 230953Z 09004KT 10SM CLR 18/14 A3006 RMK AO2 SLP180 T01830139
2026-04-23 08:53:00,METAR KSRQ 230853Z AUTO 09005KT 10SM CLR 18/14 A3007 RMK AO2 SLP180 T01830139 56012
2026-04-23 07:53:00,METAR KSRQ 230753Z AUTO 09004KT 10SM CLR 19/14 A3008 RMK AO2 SLP184 T01890139
2026-04-23 06:53:00,METAR KSRQ 230653Z AUTO 11005KT 10SM CLR 19/13 A3008 RMK AO2 SLP185 T01890133
2026-04-23 05:53:00,METAR KSRQ 230553Z AUTO 10007KT 10SM CLR 19/14 A3010 RMK AO2 SLP192 T01940139 10233 20194 58006
2026-04-23 04:53:00,METAR KSRQ 230453Z AUTO 10009KT 10SM CLR 21/14 A3011 RMK AO2 SLP195 T02060139 402830161
2026-04-23 03:53:00,METAR KSRQ 230353Z AUTO 11008KT 10SM CLR 21/14 A3012 RMK AO2 SLP198 T02110139
2026-04-23 02:53:00,METAR KSRQ 230253Z 09008KT 10SM CLR 22/14 A3012 RMK AO2 SLP198 T02170139 51014
2026-04-23 01:53:00,METAR KSRQ 230153Z 08005KT 10SM CLR 23/13 A3011 RMK AO2 SLP196 T02280133
2026-04-23 00:53:00,METAR KSRQ 230053Z 36003KT 10SM CLR 22/16 A3009 RMK AO2 SLP189 T02170156
2026-04-22 23:53:00,METAR KSRQ 222353Z 33008KT 10SM CLR 23/16 A3008 RMK AO2 SLP184 T02330156 10283 20233 58008
2026-04-22 22:53:00,METAR KSRQ 222253Z 29012KT 10SM SCT070 24/14 A3009 RMK AO2 SLP188 T02440144
2026-04-22 21:53:00,METAR KSRQ 222153Z 28012KT 10SM FEW065 SCT080 26/15 A3009 RMK AO2 SLP190 T02560150
2026-04-22 20:53:00,METAR KSRQ 222053Z 28014KT 10SM FEW065 SCT085 26/14 A3010 RMK AO2 SLP192 T02560144 56023
2026-04-22 19:53:00,METAR KSRQ 221953Z 12010G16KT 090V150 10SM FEW065 BKN080 28/11 A3012 RMK AO2 SLP197 T02830111
2026-04-22 18:53:00,METAR KSRQ 221853Z 10009KT 10SM BKN065 OVC075 28/12 A3014 RMK AO2 SLP207 T02780117
2026-04-22 17:53:00,METAR KSRQ 221753Z 10005KT 10SM BKN060 27/12 A3017 RMK AO2 SLP214 T02670117 10278 20172 56015
2026-04-22 16:53:00,METAR KSRQ 221653Z 12011G21KT 10SM SCT055 26/12 A3017 RMK AO2 SLP216 T02610117
2026-04-22 15:53:00,METAR KSRQ 221553Z 12011G21KT 080V150 10SM FEW055 26/12 A3020 RMK AO2 SLP225 T02610117
2026-04-22 14:53:00,METAR KSRQ 221453Z 10010KT 10SM FEW048 25/12 A3021 RMK AO2 SLP229 T02500117 58006
2026-04-22 13:53:00,METAR KSRQ 221353Z 12011G16KT 10SM SCT055 23/12 A3022 RMK AO2 SLP231 T02330122
2026-04-22 12:53:00,METAR KSRQ 221253Z 10007KT 10SM CLR 20/13 A3022 RMK AO2 SLP232 T02000128
2026-04-22 11:53:00,METAR KSRQ 221153Z 04005KT 10SM CLR 18/12 A3023 RMK AO2 SLP234 T01780122 10183 20161 53015
2026-04-22 10:53:00,METAR KSRQ 221053Z 05004KT 10SM CLR 16/12 A3020 RMK AO2 SLP226 T01610117
2026-04-22 09:53:00,METAR KSRQ 220953Z 07005KT 10SM BKN050 17/12 A3019 RMK AO2 SLP223 T01720117
2026-04-22 08:53:00,METAR KSRQ 220853Z AUTO 05004KT 10SM FEW048 16/11 A3018 RMK AO2 SLP220 T01610111 56010
2026-04-22 07:53:00,METAR KSRQ 220753Z AUTO 00000KT 10SM CLR 17/11 A3019 RMK AO2 SLP222 T01720111
2026-04-22 06:53:00,METAR KSRQ 220653Z AUTO 05003KT 10SM CLR 17/11 A3020 RMK AO2 SLP226 T01720111
2026-04-22 05:53:00,METAR KSRQ 220553Z AUTO 08005KT 10SM CLR 18/11 A3021 RMK AO2 SLP230 T01830106 10250 20183 58009
2026-04-22 04:53:00,METAR KSRQ 220453Z AUTO 09004KT 10SM CLR 19/11 A3024 RMK AO2 SLP239 T01890106 402940172
2026-04-22 03:53:00,METAR KSRQ 220353Z AUTO 08005KT 10SM CLR 20/10 A3025 RMK AO2 SLP241 T02000100
2026-04-22 02:53:00,METAR KSRQ 220253Z 09007KT 10SM CLR 21/10 A3024 RMK AO2 SLP239 T02110100 51021
2026-04-22 01:53:00,METAR KSRQ 220153Z 09008G16KT 10SM CLR 22/09 A3023 RMK AO2 SLP236 T02220094
2026-04-22 00:53:00,METAR KSRQ 220053Z 08007KT 10SM CLR 23/08 A3020 RMK AO2 SLP227 T02330083
2026-04-21 23:53:00,METAR KSRQ 212353Z 09010G18KT 10SM CLR 25/08 A3018 RMK AO2 SLP219 T02500078 10294 20250 53007
2026-04-21 22:53:00,METAR KSRQ 212253Z 08012G21KT 10SM CLR 27/08 A3016 RMK AO2 SLP213 T02670078
2026-04-21 21:53:00,METAR KSRQ 212153Z 10010G19KT 10SM CLR 28/07 A3016 RMK AO2 SLP212 T02780072
2026-04-21 20:53:00,METAR KSRQ 212053Z 10012G21KT 10SM CLR 28/08 A3016 RMK AO2 SLP212 T02830078 56015
2026-04-21 19:53:00,METAR KSRQ 211953Z 09010G24KT 10SM CLR 29/08 A3017 RMK AO2 SLP215 T02890083
2026-04-21 18:53:00,METAR KSRQ 211853Z 07017G24KT 10SM CLR 28/09 A3019 RMK AO2 SLP221 T02830094
2026-04-21 17:53:00,METAR KSRQ 211753Z 06012G23KT 10SM CLR 28/09 A3020 RMK AO2 SLP226 T02830094 10283 20183 58016
2026-04-21 16:53:00,METAR KSRQ 211653Z 10017G29KT 10SM CLR 27/10 A3022 RMK AO2 PK WND 10029/1653 SLP233 T02720100
2026-04-21 15:53:00,METAR KSRQ 211553Z 08009G25KT 10SM FEW050 26/12 A3024 RMK AO2 SLP240 T02610117
2026-04-21 14:53:00,METAR KSRQ 211453Z 06012G21KT 10SM SCT045 25/13 A3025 RMK AO2 PK WND 08026/1440 SLP242 T02500128 51007
2026-04-21 13:53:00,METAR KSRQ 211353Z 06008G17KT 10SM CLR 23/13 A3025 RMK AO2 SLP241 T02330128
2026-04-21 12:53:00,METAR KSRQ 211253Z 05009KT 10SM CLR 21/12 A3024 RMK AO2 SLP240 T02110122
2026-04-21 11:53:00,METAR KSRQ 211153Z 04008KT 10SM CLR 18/12 A3023 RMK AO2 SLP235 T01830117 10194 20172 53013
2026-04-21 10:53:00,METAR KSRQ 211053Z 05007KT 10SM CLR 18/11 A3020 RMK AO2 SLP227 T01780111
2026-04-21 09:53:00,METAR KSRQ 210953Z AUTO 04010KT 10SM CLR 18/11 A3019 RMK AO2 SLP222 T01780111
2026-04-21 08:53:00,METAR KSRQ 210853Z AUTO 04009KT 10SM CLR 18/11 A3019 RMK AO2 SLP222 T01780111 55001
2026-04-21 07:53:00,METAR KSRQ 210753Z AUTO 04008G17KT 10SM CLR 18/11 A3019 RMK AO2 SLP221 T01830111
2026-04-21 06:53:00,METAR KSRQ 210653Z AUTO 04009KT 10SM CLR 18/12 A3018 RMK AO2 SLP219 T01830122
2026-04-21 05:53:00,METAR KSRQ 210553Z AUTO 03010KT 10SM CLR 19/12 A3019 RMK AO2 SLP223 T01940122 10256 20194 50006
2026-04-21 04:53:00,METAR KSRQ 210453Z AUTO 03008KT 10SM CLR 20/13 A3019 RMK AO2 SLP223 T02000128 403060194
2026-04-21 03:53:00,METAR KSRQ 210353Z AUTO 05012KT 10SM CLR 21/12 A3018 RMK AO2 SLP219 T02110122
2026-04-21 02:53:00,METAR KSRQ 210253Z 06009G17KT 10SM CLR 22/13 A3017 RMK AO2 SLP216 T02170128 51024
2026-04-21 01:53:00,METAR KSRQ 210153Z 05010G18KT 10SM CLR 23/13 A3016 RMK AO2 SLP211 T02280133
2026-04-21 00:53:00,METAR KSRQ 210053Z 05014G23KT 10SM CLR 24/14 A3013 RMK AO2 SLP202 T02390139
2026-04-20 23:53:00,METAR KSRQ 202353Z 06011G22KT 10SM CLR 26/14 A3010 RMK AO2 SLP192 T02560144 10306 20256 53012
2026-04-20 22:53:00,METAR KSRQ 202253Z 05012G20KT 10SM CLR 27/15 A3008 RMK AO2 SLP184 T02720150
2026-04-20 21:53:00,METAR KSRQ 202153Z 04015G23KT 10SM FEW050 28/16 A3006 RMK AO2 SLP179 T02830156
2026-04-20 20:53:00,METAR KSRQ 202053Z 03011G19KT 10SM FEW050 SCT055 29/16 A3006 RMK AO2 SLP180 T02940161 56013
2026-04-20 19:53:00,METAR KSRQ 201953Z 05011G19KT 10SM SCT049 29/16 A3008 RMK AO2 SLP184 T02940161
2026-04-20 18:53:00,METAR KSRQ 201853Z 03013G19KT 10SM SCT045 29/17 A3009 RMK AO2 SLP189 T02940172
2026-04-20 17:53:00,METAR KSRQ 201753Z 03011G20KT 10SM SCT045 29/17 A3010 RMK AO2 SLP193 T02940172 10300 20200 51001
2026-04-20 16:53:00,METAR KSRQ 201653Z 08012G22KT 10SM FEW043 29/18 A3010 RMK AO2 SLP192 T02940178
2026-04-20 15:53:00,METAR KSRQ 201553Z 06010G19KT 10SM CLR 28/18 A3011 RMK AO2 SLP194 T02830178
2026-04-20 14:53:00,METAR KSRQ 201453Z 06013KT 10SM CLR 27/17 A3010 RMK AO2 SLP192 T02670172 51007
2026-04-20 13:53:00,METAR KSRQ 201353Z 04015G22KT 10SM CLR 24/16 A3010 RMK AO2 SLP190 T02390156
2026-04-20 12:53:00,METAR KSRQ 201253Z 04011G21KT 10SM CLR 22/15 A3009 RMK AO2 SLP189 T02170150
2026-04-20 11:53:00,METAR KSRQ 201153Z 04010KT 10SM CLR 20/14 A3008 RMK AO2 SLP184 T02000139 10217 20194 53015
2026-04-20 10:53:00,METAR KSRQ 201053Z 03010KT 10SM CLR 19/13 A3006 RMK AO2 SLP179 T01940133
2026-04-20 09:53:00,METAR KSRQ 200953Z AUTO 03010KT 10SM CLR 19/13 A3004 RMK AO2 SLP173 T01940133
2026-04-20 08:53:00,METAR KSRQ 200853Z AUTO 03010G16KT 10SM CLR 20/13 A3004 RMK AO2 SLP170 T02000133 56004
2026-04-20 07:53:00,METAR KSRQ 200753Z AUTO 04008KT 10SM CLR 21/14 A3004 RMK AO2 SLP171 T02060144
2026-04-20 06:53:00,METAR KSRQ 200653Z AUTO 04007KT 10SM CLR 22/17 A3004 RMK AO2 SLP170 T02170167
2026-04-20 05:53:00,METAR KSRQ 200553Z AUTO 35003KT 10SM CLR 21/17 A3005 RMK AO2 SLP174 T02060172 10233 20206 50004
2026-04-20 04:53:00,METAR KSRQ 200453Z 02003KT 10SM CLR 22/18 A3005 RMK AO2 SLP175 T02220183 402830206
2026-04-20 03:53:00,METAR KSRQ 200353Z 36006KT 10SM FEW022 23/19 A3004 RMK AO2 SLP172 T02280189
2026-04-20 03:40:00,SPECI KSRQ 200340Z 35004KT 10SM SCT022 23/19 A3004 RMK AO2 T02280189
2026-04-20 03:06:00,SPECI KSRQ 200306Z 34008KT 10SM FEW024 BKN029 23/19 A3004 RMK AO2 T02330189
2026-04-20 02:53:00,METAR KSRQ 200253Z 34006KT 10SM FEW021 FEW028 23/19 A3004 RMK AO2 SLP171 T02280189 52014
2026-04-20 01:53:00,METAR KSRQ 200153Z 33006KT 10SM FEW020 23/19 A3003 RMK AO2 SLP167 T02280189
2026-04-20 00:53:00,METAR KSRQ 200053Z 32010KT 10SM CLR 23/18 A3001 RMK AO2 SLP161 T02280183
2026-04-19 23:53:00,METAR KSRQ 192353Z 32010KT 10SM CLR 23/18 A3000 RMK AO2 SLP157 T02330178 10283 20233 55004
2026-04-19 22:53:00,METAR KSRQ 192253Z 31012G20KT 10SM CLR 26/17 A3000 RMK AO2 SLP157 T02560167
2026-04-19 21:53:00,METAR KSRQ 192153Z 29011KT 10SM CLR 26/17 A2999 RMK AO2 SLP156 T02610172
2026-04-19 20:53:00,METAR KSRQ 192053Z 29012KT 10SM CLR 26/18 A3001 RMK AO2 SLP161 T02610178 58015
2026-04-19 19:53:00,METAR KSRQ 191953Z 28012KT 10SM CLR 27/16 A3002 RMK AO2 SLP165 T02670161
2026-04-19 18:53:00,METAR KSRQ 191853Z 29013KT 10SM CLR 27/18 A3004 RMK AO2 SLP172 T02720178
2026-04-19 17:53:00,METAR KSRQ 191753Z 29013KT 10SM FEW060 28/18 A3005 RMK AO2 SLP175 T02830178 10283 20228 58002
2026-04-19 16:53:00,METAR KSRQ 191653Z 31011KT 10SM FEW060 28/18 A3006 RMK AO2 SLP178 T02780183
2026-04-19 15:53:00,METAR KSRQ 191553Z 32011G18KT 10SM FEW031 27/17 A3006 RMK AO2 SLP178 T02720172
2026-04-19 14:53:00,METAR KSRQ 191453Z 33008KT 10SM BKN060 27/18 A3006 RMK AO2 SLP177 T02720178 53013
2026-04-19 13:53:00,METAR KSRQ 191353Z 34009KT 10SM CLR 27/18 A3004 RMK AO2 SLP173 T02720178
2026-04-19 12:53:00,METAR KSRQ 191253Z 35006KT 10SM CLR 24/19 A3003 RMK AO2 SLP169 T02390189
2026-04-19 11:53:00,METAR KSRQ 191153Z 02003KT 10SM CLR 23/19 A3002 RMK AO2 SLP165 T02280194 10228 20206 51012
2026-04-19 10:53:00,METAR KSRQ 191053Z 00000KT 10SM CLR 21/18 A3001 RMK AO2 SLP160 T02110183
2026-04-19 10:20:00,SPECI KSRQ 191020Z 00000KT 10SM FEW003 21/18 A3000 RMK AO2 T02110178
2026-04-19 09:53:00,METAR KSRQ 190953Z AUTO 35005KT 10SM CLR 21/18 A3000 RMK AO2 SLP157 T02110178
2026-04-19 08:53:00,METAR KSRQ 190853Z AUTO 00000KT 10SM CLR 21/18 A2998 RMK AO2 SLP153 T02110178 56013
2026-04-19 07:53:00,METAR KSRQ 190753Z AUTO 02003KT 10SM CLR 22/18 A2998 RMK AO2 SLP153 T02220183
2026-04-19 06:53:00,METAR KSRQ 190653Z AUTO 02004KT 10SM BKN060 23/18 A3000 RMK AO2 SLP158 T02280183
2026-04-19 05:53:00,METAR KSRQ 190553Z AUTO 06003KT 10SM SCT060 23/18 A3002 RMK AO2 SLP166 T02280183 10250 20228 53001
2026-04-19 04:53:00,METAR KSRQ 190453Z 06004KT 10SM SCT065 23/19 A3002 RMK AO2 SLP166 T02330189 402940200
2026-04-19 03:53:00,METAR KSRQ 190353Z 02003KT 10SM CLR 23/18 A3002 RMK AO2 SLP164 T02330183
2026-04-19 02:53:00,METAR KSRQ 190253Z 36005KT 10SM CLR 24/19 A3002 RMK AO2 SLP164 T02390194 53014
2026-04-19 02:27:00,SPECI KSRQ 190227Z 35006KT 10SM FEW003 24/20 A3001 RMK AO2 T02390200
2026-04-19 01:53:00,METAR KSRQ 190153Z 34006KT 10SM CLR 24/21 A3000 RMK AO2 SLP159 T02390206
2026-04-19 00:53:00,METAR KSRQ 190053Z 33009KT 10SM CLR 24/21 A2999 RMK AO2 SLP154 T02440206
2026-04-18 23:53:00,METAR KSRQ 182353Z 30009KT 10SM CLR 25/21 A2998 RMK AO2 SLP151 T02500206 10289 20250 52001
2026-04-18 22:53:00,METAR KSRQ 182253Z 29011KT 10SM CLR 26/21 A2998 RMK AO2 SLP150 T02610206
2026-04-18 21:53:00,METAR KSRQ 182153Z 27011KT 10SM CLR 27/21 A2998 RMK AO2 SLP150 T02670206
2026-04-18 20:53:00,METAR KSRQ 182053Z 25010KT 10SM CLR 28/21 A2998 RMK AO2 SLP149 T02780211 58015
2026-04-18 19:53:00,METAR KSRQ 181953Z 24012KT 10SM CLR 28/21 A2999 RMK AO2 SLP154 T02830211
2026-04-18 18:53:00,METAR KSRQ 181853Z 23011KT 10SM CLR 28/21 A3001 RMK AO2 SLP160 T02780211
2026-04-18 17:53:00,METAR KSRQ 181753Z 23013KT 10SM FEW070 28/21 A3002 RMK AO2 SLP164 T02780211 10294 20217 58005
2026-04-18 16:53:00,METAR KSRQ 181653Z 23012KT 10SM SCT060 28/21 A3003 RMK AO2 SLP167 T02830206
2026-04-18 15:53:00,METAR KSRQ 181553Z 24010KT 10SM FEW041 SCT060 27/21 A3003 RMK AO2 SLP169 T02720206
2026-04-18 14:53:00,METAR KSRQ 181453Z 14006KT 10SM CLR 28/19 A3003 RMK AO2 SLP169 T02830194 51005
2026-04-18 13:53:00,METAR KSRQ 181353Z 13006KT 10SM CLR 26/21 A3003 RMK AO2 SLP167 T02610211
2026-04-18 12:53:00,METAR KSRQ 181253Z 13006KT 10SM CLR 23/21 A3003 RMK AO2 SLP167 T02330206
2026-04-18 11:53:00,METAR KSRQ 181153Z 10005KT 10SM CLR 22/20 A3002 RMK AO2 SLP164 T02170200 10217 20200 53014
2026-04-18 10:53:00,METAR KSRQ 181053Z 08005KT 10SM FEW060 21/19 A3000 RMK AO2 SLP157 T02060189
2026-04-18 09:53:00,METAR KSRQ 180953Z 09004KT 10SM CLR 21/18 A2999 RMK AO2 SLP154 T02060183
2026-04-18 08:53:00,METAR KSRQ 180853Z AUTO 07004KT 10SM CLR 21/18 A2997 RMK AO2 SLP149 T02060178 55010
2026-04-18 07:53:00,METAR KSRQ 180753Z AUTO 00000KT 10SM CLR 21/17 A2997 RMK AO2 SLP149 T02060167
2026-04-18 06:53:00,METAR KSRQ 180653Z AUTO 04003KT 10SM CLR 21/17 A2998 RMK AO2 SLP151 T02060167
2026-04-18 05:53:00,METAR KSRQ 180553Z AUTO 00000KT 10SM CLR 21/17 A3000 RMK AO2 SLP159 T02110172 10250 20206 58007
2026-04-18 04:53:00,METAR KSRQ 180453Z AUTO 00000KT 10SM CLR 22/17 A3002 RMK AO2 SLP164 T02170167 403000189
2026-04-18 03:53:00,METAR KSRQ 180353Z AUTO 07003KT 10SM CLR 23/18 A3002 RMK AO2 SLP165 T02280178
2026-04-18 02:53:00,METAR KSRQ 180253Z AUTO 00000KT 10SM CLR 23/17 A3002 RMK AO2 SLP166 T02280172 51012
2026-04-18 01:53:00,METAR KSRQ 180153Z AUTO 35004KT 10SM CLR 23/18 A3002 RMK AO2 SLP165 T02280178
2026-04-18 00:53:00,METAR KSRQ 180053Z 34005KT 10SM CLR 24/16 A3001 RMK AO2 SLP160 T02440156
2026-04-17 23:53:00,METAR KSRQ 172353Z 31007KT 10SM CLR 25/14 A2999 RMK AO2 SLP154 T02500144 10300 20250 56007
2026-04-17 22:53:00,METAR KSRQ 172253Z 27010KT 10SM CLR 26/15 A2999 RMK AO2 SLP155 T02610150
2026-04-17 21:53:00,METAR KSRQ 172153Z 28010KT 10SM CLR 28/16 A3000 RMK AO2 SLP158 T02780156
2026-04-17 20:53:00,METAR KSRQ 172053Z 29012KT 10SM CLR 28/15 A3001 RMK AO2 SLP161 T02830150 56016
2026-04-17 19:53:00,METAR KSRQ 171953Z 26012KT 10SM CLR 28/15 A3002 RMK AO2 SLP166 T02830150
2026-04-17 18:53:00,METAR KSRQ 171853Z 29012KT 10SM CLR 29/16 A3004 RMK AO2 SLP170 T02890161
2026-04-17 17:53:00,METAR KSRQ 171753Z VRB05KT 10SM CLR 29/14 A3006 RMK AO2 SLP177 T02940144 10300 20194 58015
2026-04-17 16:53:00,METAR KSRQ 171653Z VRB04KT 10SM CLR 29/13 A3008 RMK AO2 SLP184 T02890133
2026-04-17 15:53:00,METAR KSRQ 171553Z 04008KT 010V080 10SM CLR 29/14 A3010 RMK AO2 SLP191 T02890139
2026-04-17 14:53:00,METAR KSRQ 171453Z 11005KT 10SM CLR 27/14 A3010 RMK AO2 SLP192 T02720139 51007
2026-04-17 13:53:00,METAR KSRQ 171353Z 11003KT 10SM CLR 24/19 A3009 RMK AO2 SLP189 T02440189
2026-04-17 12:53:00,METAR KSRQ 171253Z 10004KT 10SM CLR 21/17 A3010 RMK AO2 SLP191 T02110172
2026-04-17 11:53:00,METAR KSRQ 171153Z 08003KT 10SM CLR 19/17 A3008
2026-04-17 10:53:00,METAR KSRQ 171053Z 09003KT 10SM CLR 19/16 A3006 RMK AO2 SLP177 T01890161
2026-04-17 09:53:00,METAR KSRQ 170953Z AUTO 10006KT 10SM CLR 19/16 A3004 RMK AO2 SLP173 T01940161
2026-04-17 08:53:00,METAR KSRQ 170853Z AUTO 11006KT 10SM CLR 19/16 A3003 RMK AO2 SLP168 T01940161 56009
2026-04-17 07:53:00,METAR KSRQ 170753Z AUTO 11005KT 10SM CLR 20/16 A3003 RMK AO2 SLP168 T02000161
2026-04-17 06:53:00,METAR KSRQ 170653Z AUTO 13007KT 10SM CLR 20/17 A3003 RMK AO2 SLP168 T02000167
2026-04-17 05:53:00,METAR KSRQ 170553Z AUTO 08003KT 10SM CLR 21/17 A3006 RMK AO2 SLP177 T02060167 10233 20206 58005
2026-04-17 04:53:00,METAR KSRQ 170453Z AUTO 07004KT 10SM CLR 21/17 A3007 RMK AO2 SLP181 T02110172 402780167
2026-04-17 03:53:00,METAR KSRQ 170353Z AUTO 02003KT 10SM CLR 22/17 A3007 RMK AO2 SLP182 T02170167
2026-04-17 02:53:00,METAR KSRQ 170253Z 02004KT 10SM CLR 21/16 A3007 RMK AO2 SLP182 T02110161 53007
2026-04-17 01:53:00,METAR KSRQ 170153Z 33006KT 10SM CLR 22/17 A3006 RMK AO2 SLP179 T02220167
2026-04-17 00:53:00,METAR KSRQ 170053Z 32007KT 10SM CLR 22/16 A3005 RMK AO2 SLP175 T02220161
2026-04-16 23:53:00,METAR KSRQ 162353Z 31009KT 10SM CLR 23/16 A3005 RMK AO2 SLP175 T02330156 10278 20233 56002
2026-04-16 22:53:00,METAR KSRQ 162253Z 28011KT 10SM CLR 25/16 A3005 RMK AO2 SLP175 T02500161
2026-04-16 21:53:00,METAR KSRQ 162153Z 28013KT 10SM CLR 26/16 A3005 RMK AO2 SLP176 T02610156
2026-04-16 20:53:00,METAR KSRQ 162053Z 29015KT 10SM CLR 27/15 A3006 RMK AO2 SLP177 T02670150 56024
2026-04-16 19:53:00,METAR KSRQ 161953Z AUTO 29015G21KT 10SM CLR 27/16 A3008 RMK AO2 SLP184 T02720156
2026-04-16 18:53:00,METAR KSRQ 161853Z AUTO 29013KT 10SM CLR 27/14 A3010 RMK AO2 SLP193 T02720144
2026-04-16 17:53:00,METAR KSRQ 161753Z 26012KT 10SM CLR 27/14 A3013 RMK AO2 SLP201 T02670139 10267 20178 58013
2026-04-16 16:53:00,METAR KSRQ 161653Z 23010KT 10SM CLR 26/14 A3015 RMK AO2 SLP208 T02610144
2026-04-16 15:53:00,METAR KSRQ 161553Z 25008KT 10SM CLR 26/14 A3015 RMK AO2 SLP210 T02610139
2026-04-16 14:53:00,METAR KSRQ 161453Z 18004KT 10SM CLR 25/13 A3017
2026-04-16 13:53:00,METAR KSRQ 161353Z COR 10004KT 10SM CLR 24/15 A3016
2026-04-16 12:53:00,METAR KSRQ 161253Z 07004KT 10SM CLR 21/16 A3014
2026-04-16 11:53:00,METAR KSRQ 161153Z COR 05004KT 10SM CLR 18/15 A3013
2026-04-16 09:53:00,METAR KSRQ 160953Z COR 09003KT 10SM CLR 18/14 A3012
2026-04-15 23:53:00,METAR KSRQ 152353Z 31007KT 10SM CLR 23/14 A3009
2026-04-15 22:53:00,METAR KSRQ 152253Z AUTO 28008KT 10SM CLR 25/14 A3009
2026-04-15 21:53:00,METAR KSRQ 152153Z 29009KT 10SM CLR 25/14 A3009
2026-04-15 20:53:00,METAR KSRQ 152053Z 29009KT 10SM CLR 26/14 A3019
2026-04-15 19:53:00,METAR KSRQ 151953Z 28010KT 10SM CLR 26/14 A3011
2026-04-15 18:53:00,METAR KSRQ 151853Z AUTO 240011KT 10SM CLR 26/14 A3014
2026-04-15 17:53:00,METAR KSRQ 151753Z AUTO 250012KT 10SM CLR 27/14 A3014
2026-04-15 16:53:00,METAR KSRQ 151653Z AUTO 10005KT 10SM CLR 27/13 A3015
2026-04-15 15:53:00,METAR KSRQ 151553Z AUTO 09003G15KT 10SM CLR 26/13 A3017
2026-04-15 14:53:00,METAR KSRQ 151453Z AUTO 12009KT 10SM 039BKN 24/14 A3018
2026-04-15 13:53:00,METAR KSRQ 151353Z AUTO 09008KT 10SM CLR 23/15 A3018
2026-04-15 12:53:00,METAR KSRQ 151253Z AUTO 08004KT 10SM CLR 21/16 A3017
2026-04-15 11:53:00,METAR KSRQ 151153Z AUTO 07003KT 10SM CLR 19/16 A3015
2026-04-15 10:53:00,METAR KSRQ 151053Z AUTO 00000KT 10SM CLR 18/16 A3013
2026-04-15 09:53:00,METAR KSRQ 150953Z AUTO 12004KT 10SM CLR 18/16 A3011
2026-04-15 03:53:00,METAR KSRQ 150353Z 10009KT 10SM SCT065 23/16 A3016
2026-04-15 02:53:00,METAR KSRQ 150253Z 03004KT 10SM FEW060 24/18 A3016
2026-04-15 01:53:00,METAR KSRQ 150153Z 03004KT 10SM SCT047 BKN060 23/18 A3014
2026-04-14 23:53:00,METAR KSRQ 142353Z 32010KT 10SM CLR 24/17 A3012
2026-04-14 21:53:00,METAR KSRQ 142153Z AUTO 29013KT 10SM CLR 27/16 A3011
2026-04-14 20:53:00,METAR KSRQ 142053Z AUTO 270010KT 10SM CLR 27/15 A3012
2026-04-14 19:53:00,METAR KSRQ 141953Z AUTO 270012KT 10SM CLR 27/17 A3013
2026-04-14 18:53:00,METAR KSRQ 141853Z AUTO 25011G20KT 10SM CLR 27/16 A3015
2026-04-14 17:53:00,METAR KSRQ 141753Z AUTO 08007G16KT 10SM SCT060 28/14 A3018
2026-04-14 16:53:00,METAR KSRQ 141653Z AUTO 10009G15KT 10SM FEW055 27/13 A3020
2026-04-14 15:53:00,METAR KSRQ 141553Z AUTO 09006G14KT 10SM FEW047 27/14 A3022
2026-04-14 14:53:00,METAR KSRQ 141453Z AUTO 10011G15KT 10SM SCT042 26/15 A3023
2026-04-14 13:53:00,METAR KSRQ 141353Z AUTO 07006KT 10SM SCT042 23/17 A3022
2026-04-14 12:53:00,METAR KSRQ 141253Z AUTO 07006KT 10SM CLR 22/16 A3021
2026-04-14 11:53:00,METAR KSRQ 141153Z AUTO 04004KT 10SM CLR 19/16 A3020
2026-04-14 09:53:00,METAR KSRQ 140953Z AUTO 00000KT 10SM CLR 18/15 A3018
2026-04-14 03:53:00,METAR KSRQ 140353Z AUTO 09010G16KT 10SM CLR 22/15 A3021
2026-04-14 01:53:00,METAR KSRQ 140153Z AUTO 08006KT 10SM CLR 24/14 A3020
2026-04-14 00:53:00,METAR KSRQ 140053Z AUTO 07008KT 10SM CLR 26/14 A3018
2026-04-13 23:53:00,METAR KSRQ 132353Z 10007KT 10SM FEW065 27/13 A3016
2026-04-13 22:53:00,METAR KSRQ 132253Z AUTO 09010KT 10SM FEW065 29/12 A3015
2026-04-13 21:53:00,METAR KSRQ 132153Z 07007KT 10SM SCT065 29/13 A3016
2026-04-13 20:53:00,METAR KSRQ 132053Z 08007KT 10SM SCT065 29/13 A3017
2026-04-13 19:53:00,METAR KSRQ 131953Z AUTO 08010G17KT 10SM FEW060 29/13 A3019
2026-04-13 18:53:00,METAR KSRQ 131853Z AUTO 05008G17KT 10SM CLR 28/13 A3022
2026-04-13 17:53:00,METAR KSRQ 131753Z AUTO 05010G16KT 10SM CLR 28/14 A3025
2026-04-13 16:53:00,METAR KSRQ 131653Z AUTO 09011G18KT 10SM CLR 28/14 A3027
2026-04-13 15:53:00,METAR KSRQ 131553Z AUTO 10011G18KT 10SM CLR 26/14 A3029
2026-04-13 14:53:00,METAR KSRQ 131453Z AUTO 13011G19KT 10SM CLR 25/14 A3030
2026-04-13 13:53:00,METAR KSRQ 131353Z AUTO 10008KT 10SM CLR 23/14 A3031
2026-04-13 12:53:00,METAR KSRQ 131253Z AUTO 10004KT 10SM CLR 21/16 A3029
2026-04-13 11:53:00,METAR KSRQ 131153Z AUTO 07004KT 10SM CLR 19/14 A3028
2026-04-13 09:53:00,METAR KSRQ 130953Z AUTO 08005KT 10SM CLR 18/11 A3024
2026-04-13 03:53:00,METAR KSRQ 130353Z AUTO 07008G15KT 10SM CLR 22/15 A3028
2026-04-13 01:53:00,METAR KSRQ 130153Z AUTO 09006KT 10SM CLR 24/13 A3025
2026-04-13 00:53:00,METAR KSRQ 130053Z AUTO 08006KT 10SM CLR 25/13 A3020
2026-04-12 22:53:00,METAR KSRQ 122253Z AUTO VRB06G15KT 10SM CLR 28/11 A3020
2026-04-12 21:53:00,METAR KSRQ 122153Z AUTO 08006G17KT 10SM FEW070 29/12 A3019
2026-04-12 20:53:00,METAR KSRQ 122053Z AUTO 09012KT 10SM CLR 29/12 A3019
2026-04-12 19:53:00,METAR KSRQ 121953Z AUTO 09012G20KT 10SM CLR 30/12 A3020
2026-04-12 18:53:00,METAR KSRQ 121853Z AUTO 08011G19KT 10SM CLR 29/13 A3022
2026-04-12 17:53:00,METAR KSRQ 121753Z 12012G19KT 10SM CLR 28/13 A3025
2026-04-12 16:53:00,METAR KSRQ 121653Z AUTO 07012G20KT 10SM FEW049 27/14 A3027
2026-04-12 15:53:00,METAR KSRQ 121553Z AUTO 08008G18KT 10SM SCT042 26/14 A3029
2026-04-12 14:53:00,METAR KSRQ 121453Z AUTO 11008KT 10SM SCT034 BKN043 24/16 A3029
2026-04-12 13:53:00,METAR KSRQ 121353Z AUTO 09007KT 10SM SCT037 BKN045 23/16 A3028
2026-04-12 12:53:00,METAR KSRQ 121253Z AUTO 06008KT 10SM CLR 21/15 A3027
2026-04-12 11:53:00,METAR KSRQ 121153Z AUTO 05004KT 10SM CLR 18/15 A3025
2026-04-12 10:53:00,METAR KSRQ 121053Z AUTO 05005KT 10SM CLR 18/14 A3023
2026-04-12 09:53:00,METAR KSRQ 120953Z AUTO 05004KT 10SM CLR 18/15 A3021
2026-04-12 02:53:00,METAR KSRQ 120253Z 09008KT 10SM CLR 22/15 A3024
2026-04-12 01:53:00,METAR KSRQ 120153Z 08010KT 10SM CLR 24/14 A3024
2026-04-11 23:53:00,METAR KSRQ 112353Z 09004KT 7SM CLR 26/12 A3018
2026-04-11 22:53:00,METAR KSRQ 112253Z 11010G18KT 4SM HZ FEW041 SCT070 27/12 A3017
2026-04-11 21:53:00,METAR KSRQ 112153Z 07009KT 10SM FEW070 28/12 A3015
2026-04-11 20:53:00,METAR KSRQ 112053Z 05007KT 10SM FEW 070 29/12 A3016
2026-04-11 19:53:00,METAR KSRQ 111953Z 11011G18KT 10SM CLR 29/10 A3017
2026-04-11 18:53:00,METAR KSRQ 111853Z 08012G18KTKT 10SM CLR 28/12 A3018
2026-04-11 17:53:00,METAR KSRQ 111753Z 06006G18KT 10SM CLR 28/11 A3021
2026-04-11 16:53:00,METAR KSRQ 111653Z 06015G21KT 10SM CLR 27/12 A3023
2026-04-11 15:53:00,METAR KSRQ 111553Z COR 06011G17KT 10SM FEW049 26/12 A3024
2026-04-11 14:53:00,METAR KSRQ 111453Z COR 07013G17KT 10SM CLR 24/13 A3025
2026-04-11 13:53:00,METAR KSRQ 111353Z COR 06009G17KT 10SM CLR 23/14 A3024
2026-04-11 12:53:00,METAR KSRQ 111253Z COR 06007KTKT 10SM CLR 21/15 A3024
2026-04-11 10:53:00,METAR KSRQ 111053Z 04006KT 10SM CLR 17/15 A3021
2026-04-11 09:53:00,METAR KSRQ 110953Z 04005KT 10SM CLR 18/15 A3020
2026-04-11 02:53:00,METAR KSRQ 110253Z 07008G15KT 10SM CLR 22/16 A3021
2026-04-10 23:53:00,METAR KSRQ 102353Z 05008KT 10SM CLR 26/14 A3015
2026-04-10 22:53:00,METAR KSRQ 102253Z 07008G18KT 10SM CLR 28/13 A3013
2026-04-10 21:53:00,METAR KSRQ 102153Z COR 04012G17KT 10SM CLR 28/14 A3013
2026-04-10 20:53:00,METAR KSRQ 102053Z COR 04009G19KT 10SM SCT060 BKN080 29/14 A3013
2026-04-10 18:53:00,METAR KSRQ 101853Z COR 06007KT 10SM BKN050 BKN055 28/15 A3017
2026-04-10 17:53:00,METAR KSRQ 101753Z 06009G17KT 10SM FEW045 BKN055 27/16 A3019
2026-04-10 16:53:00,METAR KSRQ 101653Z COR 06009KTKT 10SM SCT044 27/16 A3020
2026-04-10 15:53:00,METAR KSRQ 101553Z COR 07008G16KT 10SM SCT038 SCT048 26/16 A3021
2026-04-10 14:53:00,METAR KSRQ 101453Z 07012G20KT 10SM FEW020 24/16 A3020
2026-04-10 13:53:00,METAR KSRQ 101353Z COR 07010G17KT 10SM CLR 23/16 A3020
2026-04-10 12:53:00,METAR KSRQ 101253Z COR 04010KT 10SM CLR 21/16 A3019
2026-04-10 11:53:00,METAR KSRQ 101153Z COR 04007KT 10SM OVC090 18/15 A3018
2026-04-10 10:53:00,METAR KSRQ 101053Z COR 04007KT 10SM OVC085 18/16 A3017
2026-04-09 20:53:00,METAR KSRQ 092053Z 05017G26KT 10SM FEW033 27/18 A3009
2026-04-09 19:53:00,METAR KSRQ 091953Z 04016G26KT 10SM FEW041 28/17 A3009
2026-04-09 18:53:00,METAR KSRQ 091853Z 04017G24KT 10SM SCT038 SCT048 BKN060 28/17 A3009
2026-04-09 17:53:00,METAR KSRQ 091753Z 06014G26KT 10SM BKN041 BKN050 27/17 A3011
2026-04-09 16:53:00,METAR KSRQ 091653Z 07018G26KT 10SM SCT037 27/18 A3012
2026-04-09 15:53:00,METAR KSRQ 091553Z 08012G23KT 10SM SCT032 BKN005 26/17 A3013
2026-04-09 14:53:00,METAR KSRQ 091453Z 07017G31KT 10SM -RA FEW028 BKN034 25/17 A3013
2026-04-09 13:53:00,METAR KSRQ 091353Z 06013G25KT 10SM BKN020 23/18 A3012
2026-04-09 12:53:00,METAR KSRQ 091253Z 07013G23KT 10SM BKN016 22/17 A3012
2026-04-09 11:53:00,METAR KSRQ 091153Z 06015G22KT 10SM SCT015 OVC045 21/17 A3011
2026-04-09 10:55:00,METAR KSRQ 091055Z 05011G20KT 10SM OVC014 20/17 A3010
2026-04-09 10:04:00,METAR KSRQ 091004Z 05012G20KT 10SM SCT013 BKN028 20/17 20/17 A3008
2026-04-09 01:53:00,METAR KSRQ 090153Z 06012G24KT 10SM FEW021 SCT033 BKN050 21/17 A3007
2026-04-09 00:53:00,METAR KSRQ 090053Z 07014G27KT 10SM BKN024 OVC038 22/17 A3005 RMK PK WND 06030/0034Z
2026-04-08 23:53:00,METAR KSRQ 082353Z 07015G30KT 10SM BKN075 22/16 A3003
2026-04-08 22:53:00,METAR KSRQ 082253Z 06015G34KT 10SM FEW027 24/17 A3002 RMK PK WND 07034/2212
2026-04-08 21:53:00,METAR KSRQ 082153Z 06015G34KT 10SM FEW027 24/17 A3000 RMK PK WND 06034/2147
2026-04-08 20:53:00,METAR KSRQ 082053Z 07018G25KT 10SM FEW044 BKN060 OVC095 25/18 A3000
2026-04-08 19:53:00,METAR KSRQ 081953Z 06016G27KT 10SM FEW055 FEW120 28/17 A2998 RMK PK WIND 07028/1934Z
2026-04-08 18:53:00,METAR KSRQ 081853Z 07014G25KT 10SM SCT046 BKN060 BKN075 28/17 A3000
2026-04-08 17:53:00,METAR KSRQ 081753Z 05015G24KT 10SM BKN036 BKN045 BKN060 27/17 A3001
2026-04-08 16:53:00,METAR KSRQ 081653Z 06013G23KT 10SM SCT032 BKN043 27/17 A3002
2026-04-08 15:53:00,METAR KSRQ 081553Z 05013G22KT 10SM SCT030 SCT065 27/18 A3003
2026-04-08 14:53:00,METAR KSRQ 081453Z 05015G23KT 10SM SCT027 OVC065 24/17 A3003
2026-04-08 12:53:00,METAR KSRQ 081253Z 05012G19KT 10SM SCT065 BKN090 BKN120 21/17 A3002
2026-04-08 11:53:00,METAR KSRQ 081153Z 05011KT 10SM BKN021 OVC090 19/17 A3001
2026-04-08 10:53:00,METAR KSRQ 081053Z 04009KT 10SM OVC020 19/16 A3000
2026-04-08 09:53:00,METAR KSRQ 080953Z 04007KT 10SM BKN020 18/16 A2997
2026-04-08 01:53:00,METAR KSRQ 080153Z 05011G25KT 10SM OVC085 20/16 A2997
2026-04-07 23:53:00,METAR KSRQ 072353Z 05018G29KT 10SM BKN021 21/16 A2994
2026-04-07 22:53:00,METAR KSRQ 072253Z 04016G24KT 10SM OVC027 22/16 A2992 RMK PEAK WND 02027/2023
2026-04-07 20:53:00,METAR KSRQ 072053Z 04017G26KT 10SM SCT024 BKN033 OVC080 23/17 A2990 RMK PEAK WND 02027/2023
2026-04-07 19:53:00,METAR KSRQ 071953Z 05016G26KT 10SM BKN026 24/17 A2990
2026-04-07 18:53:00,METAR KSRQ 071853Z 05012G24KT 10SM OVC023 23/18 A2991
2026-04-07 17:53:00,METAR KSRQ 071753Z 05015G25KT 10SM BKN019 BKN026 OVC090 23/18 A2993
2026-04-07 17:29:00,METAR KSRQ 071729Z 05017G24KT 10SM BKN017 23/18 A2994
2026-04-07 16:53:00,METAR KSRQ 071653Z 04013G23KT 10SM BKN009 22/18 A2994
2026-04-07 15:53:00,METAR KSRQ 071553Z 03014G25KT 10SM BKN009 21/18 A2995
2026-04-07 15:10:00,METAR KSRQ 071510Z 03015G23KT 10SM -RA BKN006 BKN030 OVC060 19/18 A2994
2026-04-07 13:53:00,METAR KSRQ 071353Z 03011G21KT 3SM +RA BR BKN007 OVC065 18/17 A2994
2026-04-07 13:04:00,SPECI KSRQ 071304Z 02012G22KT 3SM RA FEW006 BKN031 OVC060 19/18 A2992
2026-04-07 12:59:00,SPECI KSRQ 071259Z 02014KT 2SM +RA FEW006 BKN031 OVC060 19/18 A2992
2026-04-07 12:49:00,SPECI KSRQ 071249Z 02013G21KT 2 1/2SM +RA OVC009 19/18 A2992
2026-04-07 12:10:00,SPECI KSRQ 071210Z 01009KT 2 1/2SM +RA OVC009 20/18 A2992
2026-04-07 11:53:00,METAR KSRQ 071153Z 02011KT 4SM +RA OVC009 20/18 A2991
2026-04-07 11:36:00,SPECI KSRQ 071136Z 04011G17KT 2SM +RA OVC009 20/18 A2990 RMK 009V014
2026-04-07 10:53:00,METAR KSRQ 071053Z 07009KT 10SM -RA OVC009 21/18 A2989 RMK CIG 009V014
2026-04-07 08:01:00,SPECI KSRQ 070801Z AUTO 05009G18KT 10SM OVC009 21/18 A2989 RMK AO2 T02060183
2026-04-07 07:39:00,SPECI KSRQ 070739Z AUTO 05009KT 10SM OVC010 21/18 A2990 RMK AO2 CIG 008V012 T02110183
2026-04-07 07:02:00,SPECI KSRQ 070702Z AUTO 06009KT 10SM OVC009 21/18 A2992 RMK AO2 CIG 008V013 T02110183
2026-04-07 06:53:00,METAR KSRQ 070653Z AUTO 06009G17KT 10SM OVC010 21/18 A2992 RMK AO2 SLP132 T02110183
2026-04-07 05:53:00,METAR KSRQ 070553Z AUTO 05012G19KT 10SM OVC012 21/19 A2993 RMK AO2 SLP135 T02110189 10261 20211 58013
2026-04-07 04:53:00,METAR KSRQ 070453Z AUTO 06013G21KT 10SM OVC011 22/19 A2995 RMK AO2 SLP142 T02170189 402940211
2026-04-07 04:42:00,SPECI KSRQ 070442Z AUTO 07011G21KT 10SM BKN011 BKN039 22/19 A2995 RMK AO2 T02170189
2026-04-07 03:53:00,METAR KSRQ 070353Z AUTO 05011G19KT 10SM FEW011 FEW070 22/19 A2995 RMK AO2 SLP142 T02170189
2026-04-07 02:53:00,METAR KSRQ 070253Z 07012KT 10SM FEW012 SCT018 SCT110 22/19 A2997 RMK AO2 SLP148 T02220189 51019
2026-04-07 01:53:00,METAR KSRQ 070153Z 06011G18KT 10SM FEW012 22/19 A2997 RMK AO2 SLP147 T02220189
2026-04-07 00:53:00,METAR KSRQ 070053Z 04011G20KT 10SM FEW033 BKN090 OVC100 23/18 A2994 RMK AO2 SLP138 T02330183
2026-04-06 23:53:00,METAR KSRQ 062353Z 34008KT 10SM CLR 26/18 A2992 RMK AO2 SLP129 60000 T02560178 10294 20256 53002
2026-04-06 22:53:00,METAR KSRQ 062253Z 32011KT 10SM CLR 27/18 A2991 RMK AO2 LTG DSNT NE RAB2157E12 SLP127 P0000 T02670178
2026-04-06 21:53:00,METAR KSRQ 062153Z VRB03KT 10SM FEW026 BKN033 OVC042 26/19 A2991 RMK AO2 LTG DSNT NE SLP128 T02610194
2026-04-06 21:35:00,SPECI KSRQ 062135Z 16008KT 10SM VCTS SCT026 BKN033 26/19 A2991 RMK AO2 LTG DSNT NE T02610189
2026-04-06 21:29:00,SPECI KSRQ 062129Z 12007KT 10SM BKN026 BKN033 27/19 A2991 RMK AO2 LTG DSNT NE T02670189
2026-04-06 21:15:00,SPECI KSRQ 062115Z 29009KT 10SM VCTS CLR 28/22 A2991 RMK AO2 LTG DSNT NE AND E T02830217
2026-04-06 20:53:00,METAR KSRQ 062053Z 28011KT 10SM FEW039 SCT049 28/22 A2991 RMK AO2 LTG DSNT E SLP127 T02780217 55012
2026-04-06 20:50:00,SPECI KSRQ 062050Z 28012KT 10SM FEW039 SCT049 28/22 A2991 RMK AO2 LTG DSNT E
2026-04-06 20:35:00,SPECI KSRQ 062035Z 27014KT 10SM VCTS FEW040 SCT049 29/22 A2991 RMK AO2 LTG DSNT NE-SE T02890217
2026-04-06 19:53:00,METAR KSRQ 061953Z 28011KT 10SM CLR 28/22 A2992 RMK AO2 LTG DSNT E AND SE SLP131 T02830217
2026-04-06 18:53:00,METAR KSRQ 061853Z 27014KT 10SM CLR 29/21 A2994 RMK AO2 SLP139 T02890211
2026-04-06 17:53:00,METAR KSRQ 061753Z 26010KT 10SM CLR 29/21 A2997 RMK AO2 SLP149 T02890206 10289 20222 58014
2026-04-06 16:53:00,METAR KSRQ 061653Z 28008KT 10SM FEW033 BKN043 BKN070 27/21 A3000 RMK AO2 SLP158 T02720206
2026-04-06 15:53:00,METAR KSRQ 061553Z VRB03KT 10SM FEW028 28/20 A3001 RMK AO2 SLP162 T02780200
2026-04-06 14:53:00,METAR KSRQ 061453Z VRB04KT 10SM FEW019 SCT050 27/20 A3001 RMK AO2 SLP163 T02670200 51003
2026-04-06 13:53:00,METAR KSRQ 061353Z VRB05KT 10SM CLR 25/20 A3001 RMK AO2 SLP162 T02500200
2026-04-06 12:53:00,METAR KSRQ 061253Z 04006KT 10SM CLR 23/20 A3001 RMK AO2 SLP162 T02330200
2026-04-06 11:53:00,METAR KSRQ 061153Z AUTO 04004KT 10SM BKN080 22/20 A3000 RMK AO2 SLP159 T02220200 10233 20211 51005
2026-04-06 10:53:00,METAR KSRQ 061053Z AUTO 00000KT 10SM BKN070 21/19 A3000 RMK AO2 SLP158 T02110194
2026-04-06 09:53:00,METAR KSRQ 060953Z AUTO 00000KT 10SM CLR 21/19 A2999 RMK AO2 SLP156 T02110194
2026-04-06 08:53:00,METAR KSRQ 060853Z AUTO 05004KT 10SM CLR 22/19 A2999 RMK AO2 SLP154 T02220194 56018
2026-04-06 07:53:00,METAR KSRQ 060753Z AUTO 03003KT 10SM CLR 22/19 A3000 RMK AO2 SLP159 T02220194
2026-04-06 06:53:00,METAR KSRQ 060653Z AUTO 02004KT 10SM CLR 23/19 A3002 RMK AO2 SLP164 T02280194
2026-04-06 05:53:00,METAR KSRQ 060553Z AUTO 35004KT 10SM FEW050 BKN060 OVC085 24/19 A3004 RMK AO2 SLP172 T02390194 10250 20233 58011
2026-04-06 04:53:00,METAR KSRQ 060453Z 00000KT 10SM OVC055 24/20 A3006 RMK AO2 SLP179 T02390200 402940200
2026-04-06 03:53:00,METAR KSRQ 060353Z 33003KT 10SM OVC050 24/20 A3007 RMK AO2 SLP181 T02390200
2026-04-06 02:53:00,METAR KSRQ 060253Z 33004KT 10SM SCT048 SCT080 24/19 A3007 RMK AO2 SLP183 T02440194 50015
2026-04-06 01:53:00,METAR KSRQ 060153Z 00000KT 10SM OVC045 24/19 A3008 RMK AO2 SLP184 T02440194
2026-04-06 00:53:00,METAR KSRQ 060053Z 01003KT 10SM BKN047 OVC070 24/19 A3006 RMK AO2 SLP177 T02440194
2026-04-05 23:53:00,METAR KSRQ 052353Z 30007KT 10SM SCT050 25/19 A3003 RMK AO2 SLP167 T02500189 10289 20250 53004
2026-04-05 22:53:00,METAR KSRQ 052253Z 29011KT 10SM CLR 26/19 A3001 RMK AO2 LTG DSNT E AND SE SLP162 T02610194
2026-04-05 21:53:00,METAR KSRQ 052153Z 28012KT 10SM CLR 27/19 A3001 RMK AO2 LTG DSNT E SLP161 T02720194
2026-04-05 20:53:00,METAR KSRQ 052053Z 28013KT 10SM CLR 28/20 A3002 RMK AO2 SLP164 T02780200 56019
2026-04-05 19:53:00,METAR KSRQ 051953Z 26010KT 10SM CLR 28/21 A3003 RMK AO2 SLP167 T02830206
2026-04-05 18:53:00,METAR KSRQ 051853Z 25008KT 10SM CLR 28/21 A3005 RMK AO2 SLP174 T02830206
2026-04-05 17:53:00,METAR KSRQ 051753Z 24009KT 10SM FEW042 SCT050 BKN070 28/21 A3007 RMK AO2 SLP182 T02830206 10294 20206 58017
2026-04-05 16:53:00,METAR KSRQ 051653Z 10SM SCT042 BKN049 BKN060 29/18 A3009 RMK AO2 SLP189 T02890183
2026-04-05 15:53:00,METAR KSRQ 051553Z 12007KT 10SM FEW029 BKN039 BKN055 27/19 A3011 RMK AO2 SLP195 T02720189
2026-04-05 15:29:00,SPECI KSRQ 051529Z 11004KT 10SM SCT028 27/20 A3012 RMK AO2 T02720200
2026-04-05 15:18:00,SPECI KSRQ 051518Z 11007KT 10SM BKN026 BKN032 27/19 A3012 RMK AO2 T02720194
2026-04-05 14:53:00,METAR KSRQ 051453Z 11009KT 10SM SCT022 27/21 A3012 RMK AO2 SLP199 T02720206 50001
2026-04-05 12:53:00,METAR KSRQ 051253Z 08005KT 10SM CLR 22/21 A3012 RMK AO2 SLP200 T02220206
2026-04-05 11:53:00,METAR KSRQ 051153Z 07007KT 10SM CLR 21/19 A3012 RMK AO2 SLP198 T02060194 10222 20200 51009
2026-04-05 10:53:00,METAR KSRQ 051053Z VRB03KT 10SM CLR 21/19 A3011 RMK AO2 SLP196 T02060189
2026-04-05 09:53:00,METAR KSRQ 050953Z 07005KT 10SM CLR 21/19 A3010 RMK AO2 SLP192 T02060189
2026-04-05 08:53:00,METAR KSRQ 050853Z AUTO 07004KT 10SM CLR 21/19 A3009 RMK AO2 SLP189 T02060189 56013
2026-04-05 07:53:00,METAR KSRQ 050753Z AUTO 07004KT 10SM CLR 21/19 A3010 RMK AO2 SLP191 T02110189
2026-04-05 06:53:00,METAR KSRQ 050653Z AUTO 10006KT 10SM CLR 22/18 A3011 RMK AO2 SLP196 T02170183
2026-04-05 05:53:00,METAR KSRQ 050553Z AUTO 10007KT 10SM CLR 22/18 A3013 RMK AO2 SLP202 T02220183 10250 20222 58006
2026-04-05 04:53:00,METAR KSRQ 050453Z AUTO 10005KT 10SM CLR 23/17 A3015 RMK AO2 SLP208 T02280172 403060206
2026-04-05 03:53:00,METAR KSRQ 050353Z AUTO 10008KT 10SM CLR 23/16 A3015 RMK AO2 SLP209 T02330161
2026-04-05 02:53:00,METAR KSRQ 050253Z 09004KT 10SM CLR 24/17 A3015 RMK AO2 SLP208 T02440172 53019
2026-04-05 01:53:00,METAR KSRQ 050153Z 02004KT 10SM FEW049 BKN060 24/18 A3013 RMK AO2 SLP202 T02440178
2026-04-05 00:53:00,METAR KSRQ 050053Z 33003KT 10SM OVC060 24/18 A3011 RMK AO2 SLP194 T02440178
2026-04-04 23:53:00,METAR KSRQ 042353Z 32006KT 10SM FEW060 BKN080 BKN090 24/19 A3009 RMK AO2 RAE02 SLP188 P0000 60000 T02440189 10306 20244 55000
2026-04-04 22:53:00,METAR KSRQ 042253Z 31008KT 10SM -RA SCT060 BKN080 BKN100 26/19 A3009 RMK AO2 RAB45 SLP188 P0000 T02560189
2026-04-04 21:53:00,METAR KSRQ 042153Z 27009KT 10SM FEW060 FEW080 27/17 A3009 RMK AO2 SLP187 T02720172
2026-04-04 20:53:00,METAR KSRQ 042053Z 28010KT 10SM FEW055 29/15 A3009 RMK AO2 SLP188 T02890150 56024
2026-04-04 19:53:00,METAR KSRQ 041953Z 28011KT 10SM CLR 28/17 A3011 RMK AO2 SLP196 T02830172
2026-04-04 18:53:00,METAR KSRQ 041853Z 26012KT 10SM SCT055 29/17 A3014 RMK AO2 SLP204 T02890172
2026-04-04 17:53:00,METAR KSRQ 041753Z 14008KT 100V160 10SM SCT055 31/16 A3016 RMK AO2 SLP212 T03060156 10306 20206 58011
2026-04-04 16:53:00,METAR KSRQ 041653Z 09010G17KT 10SM CLR 29/15 A3017 RMK AO2 SLP217 T02940150
2026-04-04 15:53:00,METAR KSRQ 041553Z 12011KT 10SM CLR 28/12 A3019 RMK AO2 SLP222 T02780122
2026-04-04 14:53:00,METAR KSRQ 041453Z 10007KT 070V130 10SM CLR 27/17 A3019 RMK AO2 SLP223 T02670172 51005
2026-04-04 13:53:00,METAR KSRQ 041353Z 09009KT 10SM CLR 24/19 A3019 RMK AO2 SLP223 T02440189
2026-04-04 12:53:00,METAR KSRQ 041253Z 10007KT 10SM CLR 22/19 A3019 RMK AO2 SLP223 T02220189
2026-04-04 11:53:00,METAR KSRQ 041153Z 07005KT 10SM CLR 21/19 A3018 RMK AO2 SLP218 T02060189 10222 20206 53010
2026-04-04 10:53:00,METAR KSRQ 041053Z 09005KT 10SM CLR 21/19 A3016 RMK AO2 SLP213 T02060189
2026-04-04 09:53:00,METAR KSRQ 040953Z 08003KT 10SM CLR 21/19 A3015 RMK AO2 SLP210 T02060189
2026-04-04 08:53:00,METAR KSRQ 040853Z AUTO 09004KT 10SM CLR 21/19 A3015 RMK AO2 SLP208 T02110189 56013
2026-04-04 07:53:00,METAR KSRQ 040753Z AUTO 09004KT 10SM CLR 21/19 A3015 RMK AO2 SLP208 T02110189
2026-04-04 06:53:00,METAR KSRQ 040653Z AUTO 11006KT 10SM CLR 22/19 A3016 RMK AO2 SLP213 T02170189
2026-04-04 05:53:00,METAR KSRQ 040553Z AUTO 11006KT 10SM CLR 22/19 A3019 RMK AO2 SLP221 T02220189 10289 20222 58003
2026-04-04 04:53:00,METAR KSRQ 040453Z AUTO 10008KT 10SM CLR 23/19 A3020 RMK AO2 SLP226 T02330189 403220217
2026-04-04 03:53:00,METAR KSRQ 040353Z 11008KT 10SM CLR 24/18 A3020 RMK AO2 SLP227 T02390183
2026-04-04 02:53:00,METAR KSRQ 040253Z 11010KT 10SM CLR 25/18 A3019 RMK AO2 SLP224 T02500183 53024
2026-04-04 01:53:00,METAR KSRQ 040153Z 11009KT 10SM FEW050 26/18 A3017 RMK AO2 SLP216 T02610183
2026-04-04 00:53:00,METAR KSRQ 040053Z 09007KT 10SM FEW055 SCT070 28/18 A3015 RMK AO2 SLP207 T02780178
2026-04-03 23:53:00,METAR KSRQ 032353Z 11009KT 10SM SCT060 29/17 A3012 RMK AO2 SLP199 T02890167 10322 20289 55000
2026-04-03 22:53:00,METAR KSRQ 032253Z 10008G17KT 10SM CLR 31/14 A3010 RMK AO2 SLP193 T03060144
2026-04-03 21:53:00,METAR KSRQ 032153Z 10008G16KT 10SM CLR 32/15 A3011 RMK AO2 LTG DSNT S SLP194 T03170150
2026-04-03 20:53:00,METAR KSRQ 032053Z 10008G17KT 10SM CLR 31/15 A3012 RMK AO2 SLP200 T03110150 58019
2026-04-03 19:53:00,METAR KSRQ 031953Z 10009KT 10SM SCT070 31/16 A3014 RMK AO2 SLP206 T03110156
2026-04-03 18:53:00,METAR KSRQ 031853Z 14010KT 10SM FEW050 FEW070 31/17 A3017 RMK AO2 SLP215 T03110167
2026-04-03 17:53:00,METAR KSRQ 031753Z 11013G21KT 10SM CLR 30/18 A3018 RMK AO2 SLP218 T03000178 10306 20222 58013
2026-04-03 16:53:00,METAR KSRQ 031653Z 09013G23KT 10SM CLR 29/18 A3019 RMK AO2 SLP223 T02890183
2026-04-03 15:53:00,METAR KSRQ 031553Z 11010G19KT 10SM SCT030 28/19 A3022 RMK AO2 SLP231 T02780194
2026-04-03 15:11:00,SPECI KSRQ 031511Z 11013G22KT 10SM SCT024 27/20 A3022 RMK AO2 T02670200
2026-04-03 14:53:00,METAR KSRQ 031453Z 11011G19KT 10SM BKN021 26/21 A3021 RMK AO2 SLP231 T02610206 51016
2026-04-03 13:53:00,METAR KSRQ 031353Z 10012G17KT 10SM FEW014 25/21 A3020 RMK AO2 SLP226 T02500206
2026-04-03 12:53:00,METAR KSRQ 031253Z 10009G18KT 10SM CLR 23/21 A3019 RMK AO2 SLP222 T02330206
2026-04-03 11:53:00,METAR KSRQ 031153Z 07006KT 10SM CLR 22/20 A3017 RMK AO2 SLP214 60000 70019 T02220200 10222 20217 53017
2026-04-03 08:53:00,METAR KSRQ 030853Z AUTO 10007KT 10SM OVC090 22/20 A3012 RMK AO2 RAB39E48 SLP198 P0000 60000 T02170200 58013
2026-04-03 05:53:00,METAR KSRQ 030553Z AUTO 08006KT 10SM FEW031 SCT060 SCT095 22/19 A3016 RMK AO2 SLP211 60002 T02170194 10222 20211 58002
2026-04-03 04:53:00,METAR KSRQ 030453Z AUTO 06007KT 10SM FEW022 SCT032 BKN060 22/19 A3016 RMK AO2 SLP211 T02170194 403110189
2026-04-03 03:53:00,METAR KSRQ 030353Z AUTO 09006KT 10SM BKN044 22/19 A3016 RMK AO2 SLP213 T02170194
2026-04-03 02:53:00,METAR KSRQ 030253Z 11006KT 10SM SCT022 SCT031 22/19 A3016 RMK AO2 RAB20E31 SLP212 P0000 60002 T02170194 51023
2026-04-03 02:34:00,SPECI KSRQ 030234Z 10006KT 10SM BKN021 BKN033 BKN060 22/19 A3015 RMK AO2 RAB20E31 P0000 T02170194
2026-04-03 01:53:00,METAR KSRQ 030153Z 10007KT 10SM CLR 21/19 A3015 RMK AO2 SLP208 T02110189
2026-04-03 01:07:00,SPECI KSRQ 030107Z 10005KT 10SM CLR 21/19 A3013 RMK AO2 LTG DSNT E T02110189
2026-04-03 00:53:00,METAR KSRQ 030053Z 10006KT 10SM VCTS CLR 21/19 A3012 RMK AO2 LTG DSNT E RAE23 SLP200 P0002 T02110189
2026-04-02 23:53:00,METAR KSRQ 022353Z 11007KT 10SM VCTS -RA SCT031 BKN100 22/18 A3009 RMK AO2 LTG DSNT E RAB23 SLP190 P0017 60017 T02220183 10311 20222 50008
2026-04-02 23:41:00,SPECI KSRQ 022341Z 14004KT 3SM VCTS RA FEW023 BKN033 OVC095 22/19 A3010 RMK AO2 LTG DSNT E AND SE RAB23 P0016 T02220189
2026-04-02 23:31:00,SPECI KSRQ 022331Z 10010G15KT 1 3/4SM VCTS +RA SCT022 OVC031 23/19 A3013 RMK AO2 LTG DSNT E AND SE RAB23 P0011 T02280194
2026-04-02 23:21:00,SPECI KSRQ 022321Z 02007KT 10SM VCTS SCT023 OVC036 24/19 A3012 RMK AO2 LTG DSNT N-SE T02390194
2026-04-02 23:14:00,SPECI KSRQ 022314Z 35008KT 10SM VCTS BKN022 BKN032 OVC039 24/19 A3012 RMK AO2 LTG DSNT N-SE T02390194
2026-04-02 22:53:00,METAR KSRQ 022253Z 01011G17KT 10SM VCTS BKN037 BKN043 OVC060 23/19 A3011 RMK AO2 LTG DSNT N AND SE RAB35E51 TSB03E10 SLP196 P0000 T02330194
2026-04-02 22:16:00,SPECI KSRQ 022216Z 15010KT 10SM VCTS FEW026 BKN032 OVC048 26/19 A3009 RMK AO2 LTG DSNT N-SE TSB03E10 T02610189
2026-04-02 22:09:00,SPECI KSRQ 022209Z 00000KT 10SM SCT033 BKN040 OVC060 27/18 A3008 RMK AO2 LTG DSNT ALQDS TSB03 T02720183
2026-04-02 21:53:00,METAR KSRQ 022153Z 26006KT 10SM VCTS FEW045 BKN050 BKN065 28/19 A3008 RMK AO2 LTG DSNT N-SE SLP185 T02780189
2026-04-02 21:02:00,SPECI KSRQ 022102Z 28012KT 10SM VCTS FEW060 SCT075 28/18 A3007 RMK AO2 LTG DSNT SE T02830183
2026-04-02 20:53:00,METAR KSRQ 022053Z 29012KT 10SM FEW060 BKN075 28/19 A3007 RMK AO2 LTG DSNT SE SLP182 T02830189 56019
2026-04-02 19:53:00,METAR KSRQ 021953Z 26011KT 10SM FEW055 SCT085 28/18 A3009 RMK AO2 SLP187 T02780183
2026-04-02 18:53:00,METAR KSRQ 021853Z AUTO 12007G15KT 080V150 10SM SCT050 SCT075 31/17 A3009 RMK AO2 SLP190 T03060172
2026-04-02 17:53:00,METAR KSRQ 021753Z 10009KT 10SM FEW045 FEW060 SCT080 30/18 A3013 RMK AO2 SLP201 T03000178 10300 20194 58014
2026-04-02 16:53:00,METAR KSRQ 021653Z 09010G17KT 10SM BKN042 BKN060 BKN075 29/18 A3015 RMK AO2 SLP208 T02890178
2026-04-02 15:53:00,METAR KSRQ 021553Z 07011G19KT 10SM FEW037 27/18 A3016 RMK AO2 SLP214 T02720178
2026-04-02 14:53:00,METAR KSRQ 021453Z 09009KT 10SM FEW027 26/18 A3017 RMK AO2 SLP214 T02610183 51012
2026-04-02 13:53:00,METAR KSRQ 021353Z 08009KT 10SM CLR 24/18 A3016 RMK AO2 SLP211 T02390178
2026-04-02 12:53:00,METAR KSRQ 021253Z 09006KT 10SM CLR 22/17 A3015 RMK AO2 SLP209 T02170172
2026-04-02 11:53:00,METAR KSRQ 021153Z 08007KT 10SM CLR 19/17 A3013 RMK AO2 SLP202 T01940167 10217 20189 53011
2026-04-02 10:53:00,METAR KSRQ 021053Z 07006KT 10SM CLR 19/16 A3011 RMK AO2 SLP194 T01940161
2026-04-02 09:53:00,METAR KSRQ 020953Z 08004KT 10SM CLR 20/16 A3009 RMK AO2 SLP188 T02000161
2026-04-02 08:53:00,METAR KSRQ 020853Z AUTO 10006KT 10SM CLR 20/16 A3010 RMK AO2 SLP191 T02000161 58015
2026-04-02 07:53:00,METAR KSRQ 020753Z AUTO 10008KT 10SM CLR 21/17 A3011 RMK AO2 SLP196 T02060167
2026-04-02 06:53:00,METAR KSRQ 020653Z AUTO 10005KT 10SM CLR 21/17 A3013 RMK AO2 SLP202 T02060167
2026-04-02 05:53:00,METAR KSRQ 020553Z AUTO 11009KT 10SM CLR 22/17 A3014 RMK AO2 SLP206 T02170167 10250 20217 58002
2026-04-02 04:53:00,METAR KSRQ 020453Z AUTO 09008KT 10SM CLR 22/17 A3015 RMK AO2 SLP209 T02170167 403060183
2026-04-02 03:53:00,METAR KSRQ 020353Z AUTO 09007KT 10SM CLR 22/17 A3015 RMK AO2 SLP209 T02220167
2026-04-02 02:53:00,METAR KSRQ 020253Z 10008KT 10SM CLR 23/17 A3015 RMK AO2 SLP208 T02280167 51014
2026-04-02 01:53:00,METAR KSRQ 020153Z 10009KT 10SM FEW110 24/17 A3014 RMK AO2 SLP204 T02390167
2026-04-02 00:53:00,METAR KSRQ 020053Z 11010KT 10SM BKN090 BKN110 24/16 A3012 RMK AO2 SLP199 T02440161
2026-04-01 23:53:00,METAR KSRQ 012353Z 00000KT 10SM OVC080 24/18 A3011 RMK AO2 SLP194 60000 T02440183 10306 20239 53001
2026-04-01 22:53:00,METAR KSRQ 012253Z 19007G14KT 10SM FEW037 SCT044 OVC055 26/18 A3010 RMK AO2 RAB28E40 SLP190 P0000 T02560178
2026-04-01 21:53:00,METAR KSRQ 012153Z 28013KT 10SM FEW075 26/18 A3009 RMK AO2 SLP187 T02560183
2026-04-01 20:53:00,METAR KSRQ 012053Z 27012KT 10SM FEW075 27/18 A3010 RMK AO2 SLP192 T02720183 56016
2026-04-01 19:53:00,METAR KSRQ 011953Z AUTO 26013KT 10SM FEW070 28/18 A3012 RMK AO2 WSHFT 1929 SLP200 T02780183
2026-04-01 19:49:00,SPECI KSRQ 011949Z 25012KT 10SM CLR 28/18 A3013 RMK AO2 WSHFT 1929
2026-04-01 18:53:00,METAR KSRQ 011853Z 13007G16KT 10SM FEW070 29/13 A3015 RMK AO2 SLP209 T02940133
2026-04-01 17:53:00,METAR KSRQ 011753Z 08008KT 10SM SCT065 29/14 A3018 RMK AO2 SLP219 T02940144 10294 20189 58012
2026-04-01 16:53:00,METAR KSRQ 011653Z 07007KT 10SM FEW049 28/15 A3020 RMK AO2 SLP225 T02780150
2026-04-01 15:53:00,METAR KSRQ 011553Z 12010G18KT 10SM FEW042 27/16 A3020 RMK AO2 SLP227 T02720161
2026-04-01 14:53:00,METAR KSRQ 011453Z 10010KT 10SM CLR 26/17 A3022 RMK AO2 SLP231 T02610172 51014
2026-04-01 13:53:00,METAR KSRQ 011353Z 09011G18KT 10SM CLR 24/18 A3021 RMK AO2 SLP228 T02390178
2026-04-01 12:53:00,METAR KSRQ 011253Z 09005KT 10SM CLR 21/17 A3020 RMK AO2 SLP224 T02110172
2026-04-01 11:53:00,METAR KSRQ 011153Z 07005KT 10SM CLR 19/16 A3018 RMK AO2 SLP217 T01890161 10211 20183 53015
2026-04-01 10:53:00,METAR KSRQ 011053Z 08005KT 10SM CLR 19/16 A3015 RMK AO2 SLP208 T01890161 $
2026-04-01 09:53:00,METAR KSRQ 010953Z 07005KT 10SM CLR 19/16 A3013 RMK AO2 SLP203 T01890161
2026-04-01 08:53:00,METAR KSRQ 010853Z AUTO 07003KT 10SM CLR 19/16 A3013 RMK AO2 SLP203 T01890161 56017
2026-04-01 07:53:00,METAR KSRQ 010753Z AUTO 09003KT 10SM CLR 19/16 A3014 RMK AO2 SLP206 T01940161
2026-04-01 06:53:00,METAR KSRQ 010653Z AUTO 10005KT 10SM CLR 21/16 A3016 RMK AO2 SLP213 T02060161
2026-04-01 05:53:00,METAR KSRQ 010553Z AUTO 09006KT 10SM CLR 21/16 A3018 RMK AO2 SLP219 T02110156 10256 20211 58003
2026-04-01 04:53:00,METAR KSRQ 010453Z AUTO 10006KT 10SM CLR 21/16 A3019 RMK AO2 SLP223 T02110156 403110194
2026-04-01 03:53:00,METAR KSRQ 010353Z 10008KT 10SM CLR 22/15 A3020 RMK AO2 SLP227 T02220150
2026-04-01 02:53:00,METAR KSRQ 010253Z 09007KT 10SM CLR 23/14 A3019 RMK AO2 SLP222 T02330139 51014
2026-04-01 01:53:00,METAR KSRQ 010153Z 09007KT 10SM CLR 24/13 A3018 RMK AO2 SLP219 T02440133
2026-04-01 00:53:00,METAR KSRQ 010053Z 10009G17KT 10SM SCT060 26/16 A3017 RMK AO2 SLP214 T02560156
2026-03-31 23:53:00,METAR KSRQ 312353Z 30004KT 10SM FEW060 BKN075 25/19 A3015 RMK AO2 SLP209 T02500189 10311 20250 55000
2026-03-31 22:53:00,METAR KSRQ 312253Z 28006KT 10SM FEW060 FEW080 26/18 A3014 RMK AO2 SLP204 T02560183
2026-03-31 21:53:00,METAR KSRQ 312153Z 25009KT 10SM FEW065 SCT085 26/19 A3014 RMK AO2 SLP205 T02610189
2026-03-31 20:53:00,METAR KSRQ 312053Z 26012KT 10SM SCT065 BKN090 27/19 A3015 RMK AO2 WSHFT 1958 SLP209 T02720189 56022
2026-03-31 20:18:00,SPECI KSRQ 312018Z 26011KT 10SM FEW060 SCT080 26/19 A3016 RMK AO2 WSHFT 1958 T02610189
2026-03-31 19:53:00,METAR KSRQ 311953Z 20007KT 130V270 10SM SCT060 30/16 A3016 RMK AO2 SLP213 T03000161
2026-03-31 18:53:00,METAR KSRQ 311853Z 07010G16KT 10SM SCT060 29/16 A3019 RMK AO2 SLP222 T02890156
2026-03-31 17:53:00,METAR KSRQ 311753Z 10006G14KT 10SM FEW046 30/17 A3021 RMK AO2 SLP231 T03000172 10300 20200 58015
2026-03-31 16:53:00,METAR KSRQ 311653Z 09008G16KT 10SM SCT043 29/18 A3024 RMK AO2 SLP240 T02890178
2026-03-31 15:53:00,METAR KSRQ 311553Z 10008KT 10SM FEW035 28/18 A3026 RMK AO2 SLP247 T02780183
2026-03-31 14:53:00,METAR KSRQ 311453Z 11011G17KT 10SM CLR 26/19 A3026 RMK AO2 SLP246 T02610189 50004
2026-03-31 13:53:00,METAR KSRQ 311353Z 10012G19KT 10SM CLR 24/19 A3026 RMK AO2 SLP246 T02390189
2026-03-31 12:53:00,METAR KSRQ 311253Z 08006KT 10SM CLR 22/19 A3026 RMK AO2 SLP245 T02170189
2026-03-31 11:53:00,METAR KSRQ 311153Z 09004KT 10SM CLR 20/18 A3025 RMK AO2 SLP242 70015 T02000183 10217 20194 53014
2026-03-31 10:53:00,METAR KSRQ 311053Z 08005KT 10SM CLR 20/18 A3023 RMK AO2 SLP237 T02000178
2026-03-31 09:53:00,METAR KSRQ 310953Z 07005KT 10SM CLR 20/18 A3021 RMK AO2 SLP230 T02000178
2026-03-31 08:53:00,METAR KSRQ 310853Z AUTO 09005KT 10SM CLR 21/18 A3021 RMK AO2 SLP228 T02060183 55006
2026-03-31 07:53:00,METAR KSRQ 310753Z AUTO 09006KT 10SM CLR 21/18 A3020 RMK AO2 SLP227 T02110183
2026-03-31 06:53:00,METAR KSRQ 310653Z AUTO 10006KT 10SM CLR 21/18 A3022 RMK AO2 SLP231 T02110183
2026-03-31 05:53:00,METAR KSRQ 310553Z AUTO 10007KT 10SM CLR 22/18 A3022 RMK AO2 SLP234 T02170183 10239 20217 58009
2026-03-31 04:53:00,METAR KSRQ 310453Z AUTO 09007KT 10SM CLR 22/18 A3024 RMK AO2 SLP240 T02170183 403060189
2026-03-31 03:53:00,METAR KSRQ 310353Z AUTO 10007KT 10SM CLR 22/18 A3025 RMK AO2 SLP241 T02220183
2026-03-31 02:53:00,METAR KSRQ 310253Z 08006KT 10SM FEW036 23/18 A3025 RMK AO2 SLP243 T02280183 51013
2026-03-31 01:53:00,METAR KSRQ 310153Z 10004KT 10SM CLR 23/18 A3025 RMK AO2 SLP241 T02280183
2026-03-31 00:53:00,METAR KSRQ 310053Z AUTO 08004KT 10SM FEW075 23/19 A3023 RMK AO2 SLP235 T02330194
2026-03-30 23:53:00,METAR KSRQ 302353Z 08004KT 10SM CLR 23/20 A3021 RMK AO2 RAE15 SLP230 P0000 60015 T02330200 10306 20222 53005
2026-03-30 22:53:00,METAR KSRQ 302253Z 05005KT 10SM -RA BKN100 23/20 A3020 RMK AO2 SLP225 P0000 T02330200
2026-03-30 21:53:00,METAR KSRQ 302153Z 05006KT 10SM -RA SCT080 OVC095 23/19 A3021 RMK AO2 SLP228 P0015 T02280189
2026-03-30 21:18:00,SPECI KSRQ 302118Z 06008G16KT 5SM -RA FEW043 BKN055 OVC085 23/19 A3020 RMK AO2 P0013 T02280194
2026-03-30 21:09:00,SPECI KSRQ 302109Z 06009G22KT 2SM +RA SCT045 BKN055 OVC070 23/19 A3020 RMK AO2 P0012 T02280189
2026-03-30 20:53:00,METAR KSRQ 302053Z 05015G21KT 10SM -RA SCT043 BKN050 OVC070 25/18 A3020 RMK AO2 RAB52 SLP225 P0000 60000 T02500178 55017
2026-03-30 19:53:00,METAR KSRQ 301953Z 10007KT 10SM SCT049 BKN090 BKN110 29/17 A3019 RMK AO2 SLP223 T02940167
2026-03-30 18:53:00,METAR KSRQ 301853Z 13009KT 10SM FEW046 31/18 A3022 RMK AO2 SLP231 T03060178
2026-03-30 17:53:00,METAR KSRQ 301753Z 12010KT 10SM SCT065 BKN100 28/17 A3025 RMK AO2 SLP243 T02830172 10289 20200 58012
2026-03-30 16:53:00,METAR KSRQ 301653Z 12012G20KT 10SM FEW039 BKN049 OVC110 28/18 A3026 RMK AO2 SLP247 T02780178
2026-03-30 15:53:00,METAR KSRQ 301553Z 09011G19KT 10SM FEW029 BKN039 27/18 A3028 RMK AO2 SLP252 T02720183
2026-03-30 14:53:00,METAR KSRQ 301453Z 11014G20KT 10SM SCT026 26/19 A3029 RMK AO2 SLP255 T02610189 50007
2026-03-30 14:50:00,SPECI KSRQ 301450Z 11010G20KT 10SM BKN025 26/18 A3029 RMK AO2
2026-03-30 13:53:00,METAR KSRQ 301353Z 10011G18KT 10SM FEW020 24/18 A3027 RMK AO2 SLP251 T02390183
2026-03-30 12:53:00,METAR KSRQ 301253Z 07009KT 10SM CLR 22/18 A3027 RMK AO2 SLP248 T02170178
2026-03-30 11:53:00,METAR KSRQ 301153Z 08005KT 10SM CLR 20/17 A3025 RMK AO2 SLP242 T02000172 10206 20189 53005
2026-03-30 10:53:00,METAR KSRQ 301053Z 06006KT 10SM FEW060 19/17 A3023 RMK AO2 SLP237 T01940172
2026-03-30 09:53:00,METAR KSRQ 300953Z AUTO 05006KT 10SM FEW060 19/17 A3023 RMK AO2 SLP237 T01940167 $
2026-03-30 08:53:00,METAR KSRQ 300853Z AUTO 06005KT 10SM BKN060 20/17 A3023 RMK AO2 SLP236 T02000172 56007 $
2026-03-30 07:53:00,METAR KSRQ 300753Z AUTO 07007KT 10SM OVC060 21/17 A3023 RMK AO2 SLP237 T02060172 $
2026-03-30 06:53:00,METAR KSRQ 300653Z AUTO 07009KT 10SM SCT065 21/17 A3024 RMK AO2 SLP241 T02060172 $
2026-03-30 05:53:00,METAR KSRQ 300553Z AUTO 07008KT 10SM CLR 21/17 A3025 RMK AO2 SLP243 T02060172 10250 20206 58008 $
2026-03-30 05:26:00,SPECI KSRQ 300526Z AUTO 07009G17KT 10SM SCT023 21/17 A3026 RMK AO2 T02110172 $
2026-03-30 04:53:00,METAR KSRQ 300453Z AUTO 07009KT 10SM BKN025 21/17 A3027 RMK AO2 SLP248 T02110172 402890206 $
2026-03-30 04:45:00,SPECI KSRQ 300445Z AUTO 07010KT 10SM BKN025 21/17 A3027 RMK AO2 T02110172 $
2026-03-30 03:53:00,METAR KSRQ 300353Z AUTO 07010KT 10SM FEW027 FEW034 SCT080 22/17 A3028 RMK AO2 SLP251 T02170167 $
2026-03-30 02:53:00,METAR KSRQ 300253Z 08009G18KT 10SM FEW047 BKN085 23/17 A3028 RMK AO2 SLP252 T02280167 51016 $
2026-03-30 01:53:00,METAR KSRQ 300153Z 09008G18KT 10SM FEW031 FEW041 23/17 A3027 RMK AO2 SLP249 T02330167 $
2026-03-30 00:53:00,METAR KSRQ 300053Z 07014G22KT 10SM FEW041 SCT048 BKN060 24/16 A3025 RMK AO2 SLP241 T02440161 $
2026-03-29 23:53:00,METAR KSRQ 292353Z 06011G24KT 10SM BKN043 BKN120 25/17 A3023 RMK AO2 SLP236 60000 T02500167 10289 20250 53006 $
2026-03-29 22:53:00,METAR KSRQ 292253Z 06011G22KT 10SM BKN110 26/17 A3022 RMK AO2 SLP231 T02610167 $
2026-03-29 21:53:00,METAR KSRQ 292153Z 06013G20KT 10SM SCT046 SCT060 OVC100 27/16 A3022 RMK AO2 SLP231 T02720161 $
2026-03-29 20:53:00,METAR KSRQ 292053Z 08010G17KT 10SM SCT045 BKN055 OVC120 27/17 A3021 RMK AO2 SLP230 60000 T02720167 56015 $
2026-03-29 19:53:00,METAR KSRQ 291953Z 07013G21KT 10SM FEW046 BKN090 BKN120 27/16 A3022 RMK AO2 SLP232 T02720161 $
2026-03-29 18:53:00,METAR KSRQ 291853Z 06010G17KT 10SM FEW042 SCT120 27/18 A3024 RMK AO2 RAE1759B15E35 SLP238 P0000 T02720178 $
2026-03-29 17:53:00,METAR KSRQ 291753Z 07014G19KT 10SM -RA BKN100 26/17 A3026 RMK AO2 RAB49 SLP245 P0000 60000 T02610172 10267 20206 58010 $
2026-03-29 16:53:00,METAR KSRQ 291653Z 09014G23KT 10SM OVC100 26/17 A3028 RMK AO2 SLP252 T02560167 $
2026-03-29 14:53:00,METAR KSRQ 291453Z 09014G26KT 10SM FEW025 OVC100 24/18 A3029 RMK AO2 PK WND 07027/1407 SLP256 T02440178 51016 $
2026-03-29 13:53:00,METAR KSRQ 291353Z 07013G24KT 10SM FEW020 SCT075 OVC110 23/18 A3028 RMK AO2 PK WND 07027/1313 SLP251 T02330178 $
2026-03-29 12:53:00,METAR KSRQ 291253Z 07014G22KT 10SM SCT080 21/17 A3026 RMK AO2 SLP245 T02110172 $
2026-03-29 11:53:00,METAR KSRQ 291153Z 07012G21KT 10SM CLR 21/17 A3024 RMK AO2 SLP240 T02060172 10222 20206 53018 $
2026-03-29 10:53:00,METAR KSRQ 291053Z 07012G21KT 10SM FEW080 21/17 A3022 RMK AO2 SLP231 T02060172 $
2026-03-29 09:53:00,METAR KSRQ 290953Z AUTO 06010KT 10SM CLR 21/17 A3020 RMK AO2 SLP226 T02110172 $
2026-03-29 08:53:00,METAR KSRQ 290853Z AUTO 06011G20KT 10SM CLR 21/17 A3019 RMK AO2 SLP222 T02110172 55006 $
2026-03-29 07:53:00,METAR KSRQ 290753Z AUTO 06012G21KT 10SM CLR 21/17 A3018 RMK AO2 SLP220 T02110172 $
2026-03-29 06:53:00,METAR KSRQ 290653Z AUTO 07011G17KT 10SM CLR 22/17 A3020 RMK AO2 SLP224 T02170172 $
2026-03-29 05:53:00,METAR KSRQ 290553Z AUTO 07011G19KT 10SM FEW023 22/18 A3021 RMK AO2 SLP228 T02220178 10261 20222 50002 $
2026-03-29 04:53:00,METAR KSRQ 290453Z AUTO 07012G21KT 10SM FEW023 22/18 A3021 RMK AO2 SLP229 T02220183 402940183
2026-03-29 04:48:00,SPECI KSRQ 290448Z AUTO 06011G19KT 10SM SCT023 22/18 A3021 RMK AO2
2026-03-29 04:03:00,SPECI KSRQ 290403Z AUTO 06009KT 10SM BKN024 BKN028 22/18 A3020 RMK AO2 T02220183
2026-03-29 03:53:00,METAR KSRQ 290353Z AUTO 04011KT 10SM SCT024 22/18 A3020 RMK AO2 SLP226 T02220178
2026-03-29 02:53:00,METAR KSRQ 290253Z 06009KT 10SM FEW027 BKN070 23/18 A3020 RMK AO2 SLP226 T02280178 51030
2026-03-29 01:53:00,METAR KSRQ 290153Z 04012KT 10SM SCT048 BKN060 23/18 A3018 RMK AO2 PK WND 05026/0133 SLP220 T02280178
2026-03-29 00:53:00,METAR KSRQ 290053Z 04012G24KT 10SM CLR 24/18 A3015 RMK AO2 PK WND 05026/0029 SLP209 T02390178
2026-03-28 23:53:00,METAR KSRQ 282353Z 02006KT 10SM CLR 25/19 A3011 RMK AO2 SLP197 T02500189 10294 20250 53008
2026-03-28 22:53:00,METAR KSRQ 282253Z 33010KT 10SM CLR 26/18 A3011 RMK AO2 SLP194 T02560183
2026-03-28 21:53:00,METAR KSRQ 282153Z 31011KT 10SM CLR 28/18 A3008 RMK AO2 SLP187 T02780183
2026-03-28 20:53:00,METAR KSRQ 282053Z 28015KT 10SM CLR 28/19 A3009 RMK AO2 SLP188 T02830194 58018
2026-03-28 19:53:00,METAR KSRQ 281953Z 29012KT 10SM CLR 29/19 A3011 RMK AO2 SLP194 T02890194
2026-03-28 18:53:00,METAR KSRQ 281853Z 28013KT 10SM CLR 28/20 A3013 RMK AO2 SLP201 T02780200
2026-03-28 17:53:00,METAR KSRQ 281753Z 28011KT 10SM CLR 28/20 A3014 RMK AO2 SLP206 T02780200 10294 20189 58013
2026-03-28 16:53:00,METAR KSRQ 281653Z 36006KT 10SM CLR 29/17 A3016 RMK AO2 SLP213 T02890172
2026-03-28 15:53:00,METAR KSRQ 281553Z 10SM CLR 28/18 A3017 RMK AO2 SLP216 T02780178
2026-03-28 14:53:00,METAR KSRQ 281453Z 02006KT 10SM CLR 26/18 A3018 RMK AO2 SLP219 T02610183 51012
2026-03-28 13:53:00,METAR KSRQ 281353Z 02008KT 10SM CLR 24/18 A3017 RMK AO2 SLP216 T02440183
2026-03-28 12:53:00,METAR KSRQ 281253Z 36005KT 10SM CLR 22/19 A3017 RMK AO2 SLP215 T02170189
2026-03-28 11:53:00,METAR KSRQ 281153Z 00000KT 9SM CLR 19/18 A3015 RMK AO2 SLP207 T01890178 10206 20183 53013
2026-03-28 10:53:00,METAR KSRQ 281053Z 35003KT 10SM BKN065 19/18 A3013 RMK AO2 SLP202 T01890178
2026-03-28 09:53:00,METAR KSRQ 280953Z 35005KT 10SM CLR 19/18 A3011 RMK AO2 SLP197 T01940178
2026-03-28 08:53:00,METAR KSRQ 280853Z AUTO 30006KT 10SM CLR 19/18 A3011 RMK AO2 SLP194 T01940178 56004
2026-03-28 07:53:00,METAR KSRQ 280753Z AUTO 31005KT 10SM CLR 19/18 A3011 RMK AO2 SLP194 T01940178
2026-03-28 06:53:00,METAR KSRQ 280653Z AUTO 32003KT 10SM CLR 19/18 A3011 RMK AO2 SLP195 T01940178
2026-03-28 05:53:00,METAR KSRQ 280553Z AUTO 00000KT 10SM CLR 20/18 A3012 RMK AO2 SLP198 T02000183 10217 20200 58002
2026-03-28 04:53:00,METAR KSRQ 280453Z AUTO 06004KT 10SM FEW070 21/18 A3014 RMK AO2 SLP205 T02060178 402830189
2026-03-28 03:53:00,METAR KSRQ 280353Z 01003KT 10SM CLR 21/18 A3013 RMK AO2 SLP201 T02060178
2026-03-28 02:53:00,METAR KSRQ 280253Z 33004KT 10SM CLR 21/19 A3012 RMK AO2 SLP200 T02110189 53015
2026-03-28 01:53:00,METAR KSRQ 280153Z 32005KT 10SM CLR 21/18 A3011 RMK AO2 SLP196 T02110183
2026-03-28 00:53:00,METAR KSRQ 280053Z AUTO 34006KT 10SM CLR 21/18 A3009 RMK AO2 SLP188 T02110183
2026-03-27 23:53:00,METAR KSRQ 272353Z 31009KT 10SM CLR 22/18 A3008 RMK AO2 SLP185 T02170183 10278 20217 53009
2026-03-27 22:53:00,METAR KSRQ 272253Z 32009KT 10SM FEW070 24/19 A3006 RMK AO2 SLP180 T02390189
2026-03-27 21:53:00,METAR KSRQ 272153Z 27011KT 10SM FEW065 25/19 A3006 RMK AO2 SLP177 T02500194
2026-03-27 20:53:00,METAR KSRQ 272053Z 28012KT 10SM CLR 26/18 A3005 RMK AO2 SLP176 T02610183 56022
2026-03-27 19:53:00,METAR KSRQ 271953Z 27012KT 10SM FEW065 27/18 A3007 RMK AO2 SLP183 T02670183
2026-03-27 18:53:00,METAR KSRQ 271853Z 28013KT 10SM CLR 27/19 A3009 RMK AO2 SLP188 T02670189
2026-03-27 17:53:00,METAR KSRQ 271753Z 27012KT 10SM BKN050 BKN070 27/17 A3012 RMK AO2 LTG DSNT S SLP198 T02720172 10283 20194 58009
2026-03-27 16:53:00,METAR KSRQ 271653Z 26007KT 10SM CLR 27/18 A3013 RMK AO2 SLP202 T02720183
2026-03-25 15:02:00,SPECI KSRQ 251502Z 09008KT 10SM OVC015 24/19 A3014 RMK AO2 T02390189
2026-03-25 14:53:00,METAR KSRQ 251453Z 07009KT 10SM OVC014 23/19 A3014 RMK AO2 SLP206 T02330189 51014
2026-03-25 13:53:00,METAR KSRQ 251353Z 06010KT 6SM HZ BKN011 23/19 A3013 RMK AO2 SLP203 T02280189
2026-03-25 13:42:00,SPECI KSRQ 251342Z 07006KT 6SM HZ OVC011 22/19 A3013 RMK AO2 T02220189
2026-03-25 12:53:00,METAR KSRQ 251253Z 05008KT 10SM OVC007 21/18 A3012 RMK AO2 SLP199 T02060183
2026-03-25 12:34:00,SPECI KSRQ 251234Z 04007KT 10SM BKN008 20/18 A3011 RMK AO2 T02000183
2026-03-25 12:25:00,SPECI KSRQ 251225Z 03005KT 10SM SCT008 20/18 A3011 RMK AO2 T02000183
2026-03-25 11:53:00,METAR KSRQ 251153Z 04005KT 10SM CLR 19/18 A3010 RMK AO2 SLP192 T01940178 10206 20194 53010
2026-03-25 10:53:00,METAR KSRQ 251053Z 03005KT 10SM CLR 19/18 A3008 RMK AO2 SLP187 T01940178
2026-03-25 09:53:00,METAR KSRQ 250953Z 04005KT 10SM CLR 20/18 A3007 RMK AO2 SLP183 T02000178
2026-03-25 09:15:00,SPECI KSRQ 250915Z AUTO 02006KT 10SM FEW013 BKN070 20/18 A3007 RMK AO2 T02000178
2026-03-25 08:53:00,METAR KSRQ 250853Z AUTO 03006KT 10SM OVC012 21/18 A3007 RMK AO2 SLP181 T02060178 56006
2026-03-25 07:53:00,METAR KSRQ 250753Z AUTO 05008KT 10SM BKN010 20/18 A3008 RMK AO2 SLP184 T02000178
2026-03-25 07:51:00,SPECI KSRQ 250751Z AUTO 04008KT 10SM BKN010 20/18 A3008 RMK AO2
2026-03-25 06:53:00,METAR KSRQ 250653Z AUTO 04006KT 10SM BKN030 20/18 A3009 RMK AO2 SLP188 T02000178
2026-03-25 06:18:00,SPECI KSRQ 250618Z AUTO 05006KT 10SM SCT027 20/18 A3009 RMK AO2 T02000178
2026-03-25 05:53:00,METAR KSRQ 250553Z AUTO 04007KT 10SM BKN025 20/18 A3010 RMK AO2 SLP191 T02000178 10217 20200 56001
2026-03-25 05:48:00,SPECI KSRQ 250548Z AUTO 04008KT 10SM BKN023 20/17 A3010 RMK AO2
2026-03-25 05:02:00,SPECI KSRQ 250502Z AUTO 05006KT 10SM SCT017 SCT030 21/17 A3010 RMK AO2 T02060172
2026-03-25 04:53:00,METAR KSRQ 250453Z AUTO 06007KT 10SM BKN017 21/18 A3010 RMK AO2 SLP192 T02060178 402500167
2026-03-25 04:00:00,SPECI KSRQ 250400Z AUTO 00000KT 10SM BKN017 21/18 A3010 RMK AO2 T02060183
2026-03-25 03:53:00,METAR KSRQ 250353Z 00000KT 10SM BKN034 21/18 A3010 RMK AO2 SLP193 T02060183
2026-03-25 02:53:00,METAR KSRQ 250253Z 32006KT 10SM BKN034 22/18 A3010 RMK AO2 SLP192 T02170183 51008
2026-03-25 01:53:00,METAR KSRQ 250153Z 32006KT 10SM BKN036 21/18 A3010 RMK AO2 SLP192 T02110183
2026-03-25 00:53:00,METAR KSRQ 250053Z 34008KT 10SM SCT014 21/18 A3010 RMK AO2 SLP191 T02110183
2026-03-24 23:53:00,METAR KSRQ 242353Z 32010KT 10SM CLR 22/18 A3008 RMK AO2 SLP184 T02170178 10250 20217 53009
2026-03-24 22:53:00,METAR KSRQ 242253Z 29010KT 10SM CLR 22/18 A3005 RMK AO2 SLP176 T02220178
2026-03-24 21:53:00,METAR KSRQ 242153Z 27011KT 10SM CLR 23/18 A3005 RMK AO2 SLP175 T02330178
2026-03-24 20:53:00,METAR KSRQ 242053Z 28012KT 10SM CLR 24/18 A3005 RMK AO2 SLP175 T02390183 56016
2026-03-24 19:53:00,METAR KSRQ 241953Z 29013KT 10SM CLR 24/18 A3006 RMK AO2 SLP179 T02440178
2026-03-24 18:53:00,METAR KSRQ 241853Z 26011KT 10SM CLR 24/18 A3008 RMK AO2 SLP185 T02390178
2026-03-24 17:53:00,METAR KSRQ 241753Z 26011KT 10SM CLR 24/18 A3010 RMK AO2 SLP191 T02440178 10250 20178 58004
2026-03-24 16:53:00,METAR KSRQ 241653Z 25010KT 10SM CLR 24/18 A3011 RMK AO2 SLP195 T02440178
2026-03-24 15:53:00,METAR KSRQ 241553Z 24009KT 10SM CLR 24/18 A3012 RMK AO2 SLP197 T02390178
2026-03-24 14:53:00,METAR KSRQ 241453Z 25008KT 10SM CLR 23/18 A3011 RMK AO2 SLP196 T02280178 51013
2026-03-24 13:53:00,METAR KSRQ 241353Z 30006KT 10SM CLR 22/18 A3010 RMK AO2 SLP192 T02220178
2026-03-24 12:53:00,METAR KSRQ 241253Z 27006KT 10SM CLR 21/18 A3009 RMK AO2 SLP188 T02110178
2026-03-24 11:53:00,METAR KSRQ 241153Z AUTO 31003KT 10SM CLR 18/16 A3007 RMK AO2 SLP183 T01780161 10194 20167 53007
2026-03-24 10:53:00,METAR KSRQ 241053Z AUTO 31004KT 10SM CLR 17/16 A3007 RMK AO2 SLP181 T01720156
2026-03-24 09:53:00,METAR KSRQ 240953Z AUTO 32005KT 10SM CLR 18/16 A3005 RMK AO2 SLP176 T01780156
2026-03-24 08:53:00,METAR KSRQ 240853Z AUTO 29003KT 10SM CLR 18/15 A3005 RMK AO2 SLP176 T01780150 56010
2026-03-24 07:53:00,METAR KSRQ 240753Z AUTO 28005KT 10SM CLR 18/16 A3006 RMK AO2 SLP178 T01830156
2026-03-24 06:53:00,METAR KSRQ 240653Z AUTO 27006KT 10SM CLR 19/16 A3007 RMK AO2 SLP182 T01940161
2026-03-24 05:53:00,METAR KSRQ 240553Z AUTO 28005KT 10SM CLR 19/16 A3008 RMK AO2 SLP186 T01940161 10211 20194 58003
2026-03-24 04:53:00,METAR KSRQ 240453Z 27005KT 10SM CLR 19/16 A3009 RMK AO2 SLP189 T01940161 402440139
2026-03-24 03:53:00,METAR KSRQ 240353Z 26005KT 10SM CLR 19/16 A3009 RMK AO2 SLP189 T01940161
2026-03-24 02:53:00,METAR KSRQ 240253Z 26005KT 10SM CLR 20/16 A3009 RMK AO2 SLP190 T02000161 50002
2026-03-24 01:53:00,METAR KSRQ 240153Z 26005KT 10SM CLR 20/16 A3010 RMK AO2 SLP192 T02000161
2026-03-24 00:53:00,METAR KSRQ 240053Z 26005KT 10SM CLR 21/16 A3009 RMK AO2 SLP188 T02060156
2026-03-23 23:53:00,METAR KSRQ 232353Z 27006KT 10SM CLR 21/16 A3009 RMK AO2 SLP188 T02110156 10244 20211 53006
2026-03-23 22:53:00,METAR KSRQ 232253Z 28008KT 10SM CLR 22/16 A3008 RMK AO2 SLP185 T02220156
2026-03-23 21:53:00,METAR KSRQ 232153Z 28010KT 10SM CLR 23/16 A3008 RMK AO2 SLP184 T02280156
2026-03-23 20:53:00,METAR KSRQ 232053Z 27012KT 10SM CLR 24/16 A3007 RMK AO2 SLP182 T02390156 56016
2026-03-23 19:53:00,METAR KSRQ 231953Z 26012KT 10SM CLR 23/16 A3008 RMK AO2 SLP185 T02330156
2026-03-23 18:53:00,METAR KSRQ 231853Z 27011KT 10SM CLR 24/16 A3010 RMK AO2 SLP191 T02390161
2026-03-23 17:53:00,METAR KSRQ 231753Z 26010KT 10SM CLR 24/16 A3012 RMK AO2 SLP198 T02390156 10244 20144 58010
2026-03-23 16:53:00,METAR KSRQ 231653Z 26010KT 10SM CLR 24/16 A3013 RMK AO2 SLP203 T02390156
2026-03-23 15:53:00,METAR KSRQ 231553Z AUTO 25009KT 10SM CLR 24/16 A3014 RMK AO2 SLP207 T02390156
2026-03-23 14:53:00,METAR KSRQ 231453Z AUTO 26006KT 10SM CLR 22/16 A3015 RMK AO2 SLP208 T02220156 53017
2026-03-23 13:53:00,METAR KSRQ 231353Z AUTO 29006KT 10SM CLR 22/17 A3013 RMK AO2 SLP203 T02170167
2026-03-23 12:53:00,METAR KSRQ 231253Z AUTO 00000KT 10SM CLR 19/16 A3012 RMK AO2 SLP197 T01890161
2026-03-23 11:53:00,METAR KSRQ 231153Z AUTO 00000KT 10SM CLR 15/14 A3010 RMK AO2 SLP192 T01500139 10172 20139 53009
2026-03-23 10:53:00,METAR KSRQ 231053Z AUTO 00000KT 10SM CLR 14/13 A3008 RMK AO2 SLP186 T01440133
2026-03-23 09:53:00,METAR KSRQ 230953Z AUTO 00000KT 10SM CLR 14/13 A3007 RMK AO2 SLP183 T01440128
2026-03-23 08:53:00,METAR KSRQ 230853Z AUTO 00000KT 10SM CLR 15/13 A3007 RMK AO2 SLP182 T01500133 56009
2026-03-23 07:53:00,METAR KSRQ 230753Z AUTO 00000KT 10SM CLR 16/14 A3008 RMK AO2 SLP185 T01610139
2026-03-23 06:53:00,METAR KSRQ 230653Z AUTO 00000KT 10SM CLR 17/15 A3009 RMK AO2 SLP188 T01670150
2026-03-23 05:53:00,METAR KSRQ 230553Z AUTO 00000KT 10SM CLR 17/14 A3010 RMK AO2 SLP192 T01720144 10206 20172 57003
2026-03-23 04:53:00,METAR KSRQ 230453Z 30003KT 10SM CLR 17/14 A3010 RMK AO2 SLP191 T01720144 402440128
2026-03-23 03:53:00,METAR KSRQ 230353Z 32004KT 10SM CLR 18/15 A3011 RMK AO2 SLP195 T01830150
2026-03-23 02:53:00,METAR KSRQ 230253Z 31004KT 10SM CLR 18/15 A3011 RMK AO2 SLP195 T01830150 53007
2026-03-23 01:53:00,METAR KSRQ 230153Z 31005KT 10SM CLR 19/14 A3010 RMK AO2 SLP193 T01890144
2026-03-23 00:53:00,METAR KSRQ 230053Z 29007KT 10SM CLR 20/14 A3009 RMK AO2 SLP188 T02000144
2026-03-22 23:53:00,METAR KSRQ 222353Z 27006KT 10SM CLR 21/14 A3009 RMK AO2 SLP187 T02060139 10239 20206 55001
2026-03-22 22:53:00,METAR KSRQ 222253Z 26007KT 10SM CLR 22/12 A3008 RMK AO2 SLP186 T02220122
2026-03-22 21:53:00,METAR KSRQ 222153Z 27008KT 10SM CLR 23/07 A3008 RMK AO2 SLP187 T02330072
2026-03-22 20:53:00,METAR KSRQ 222053Z 28009KT 10SM CLR 23/11 A3009 RMK AO2 SLP188 T02330111 56014
2026-03-22 19:53:00,METAR KSRQ 221953Z 29010KT 10SM CLR 23/16 A3010 RMK AO2 SLP192 T02330156
2026-03-22 18:53:00,METAR KSRQ 221853Z 27011KT 10SM CLR 23/16 A3011 RMK AO2 SLP195 T02330156
2026-03-22 17:53:00,METAR KSRQ 221753Z 28011KT 10SM CLR 23/16 A3013 RMK AO2 SLP201 T02330156 10244 20133 58004
2026-03-22 16:53:00,METAR KSRQ 221653Z 25013KT 10SM CLR 24/15 A3014 RMK AO2 SLP206 T02390150
2026-03-22 15:53:00,METAR KSRQ 221553Z 26007KT 10SM CLR 24/14 A3014 RMK AO2 SLP205 T02390139
2026-03-22 14:53:00,METAR KSRQ 221453Z 30005KT 10SM CLR 23/13 A3014 RMK AO2 SLP205 T02330133 51012
2026-03-22 13:53:00,METAR KSRQ 221353Z 35003KT 10SM CLR 21/14 A3013 RMK AO2 SLP203 T02110144
2026-03-22 12:53:00,METAR KSRQ 221253Z 00000KT 10SM CLR 18/15 A3012 RMK AO2 SLP200 T01780150
2026-03-22 11:53:00,METAR KSRQ 221153Z 00000KT 10SM CLR 13/12 A3010 RMK AO2 SLP193 T01330117 10161 20128 51015
2026-03-22 10:53:00,METAR KSRQ 221053Z 00000KT 10SM CLR 13/11 A3009 RMK AO2 SLP189 T01280111
2026-03-22 09:53:00,METAR KSRQ 220953Z 00000KT 10SM CLR 14/12 A3008 RMK AO2 SLP184 T01390117
2026-03-22 08:53:00,METAR KSRQ 220853Z AUTO 00000KT 10SM CLR 14/12 A3006 RMK AO2 SLP178 T01440122 55007
2026-03-22 07:53:00,METAR KSRQ 220753Z AUTO 00000KT 10SM CLR 14/12 A3006 RMK AO2 SLP177 T01390117
2026-03-22 06:53:00,METAR KSRQ 220653Z AUTO 00000KT 10SM CLR 16/12 A3007 RMK AO2 SLP180 T01560117
2026-03-22 05:53:00,METAR KSRQ 220553Z AUTO 34003KT 10SM CLR 16/12 A3008 RMK AO2 SLP185 T01560117 10200 20156 58007
2026-03-22 04:53:00,METAR KSRQ 220453Z 32004KT 10SM CLR 17/12 A3009 RMK AO2 SLP188 T01670117 402440122
2026-03-22 03:53:00,METAR KSRQ 220353Z 31004KT 10SM CLR 17/12 A3010 RMK AO2 SLP190 T01720117
2026-03-22 02:53:00,METAR KSRQ 220253Z 31005KT 10SM CLR 17/11 A3010 RMK AO2 SLP192 T01720111 53005
2026-03-22 01:53:00,METAR KSRQ 220153Z 32006KT 10SM CLR 18/11 A3009 RMK AO2 SLP190 T01780111
2026-03-22 00:53:00,METAR KSRQ 220053Z 32007KT 10SM CLR 18/12 A3009 RMK AO2 SLP188 T01830117
2026-03-21 23:53:00,METAR KSRQ 212353Z 30010KT 10SM CLR 20/12 A3009 RMK AO2 SLP187 T02000122 10244 20200 53002
2026-03-21 22:53:00,METAR KSRQ 212253Z 29011KT 10SM CLR 21/12 A3008 RMK AO2 SLP185 T02110122
2026-03-21 21:53:00,METAR KSRQ 212153Z 29010KT 10SM CLR 23/12 A3008 RMK AO2 SLP185 T02280122
2026-03-21 20:53:00,METAR KSRQ 212053Z 27011KT 10SM CLR 23/11 A3008 RMK AO2 SLP185 T02330111 56015
2026-03-21 19:53:00,METAR KSRQ 211953Z 27011KT 10SM CLR 24/11 A3009 RMK AO2 SLP187 T02390111
2026-03-21 18:53:00,METAR KSRQ 211853Z 26012KT 10SM CLR 24/12 A3011 RMK AO2 SLP193 T02440117
2026-03-21 17:53:00,METAR KSRQ 211753Z 27010KT 10SM CLR 24/12 A3012 RMK AO2 SLP200 T02440117 10244 20122 58010
2026-03-21 16:53:00,METAR KSRQ 211653Z 27009KT 10SM CLR 24/13 A3014 RMK AO2 SLP206 T02390133
2026-03-21 15:53:00,METAR KSRQ 211553Z 27008KT 10SM CLR 22/13 A3016 RMK AO2 SLP210 T02220133
2026-03-21 14:53:00,METAR KSRQ 211453Z 27006KT 10SM CLR 22/14 A3016 RMK AO2 SLP210 T02170144 51014
2026-03-21 13:53:00,METAR KSRQ 211353Z 35003KT 10SM CLR 20/14 A3015 RMK AO2 SLP207 T02000144
2026-03-21 12:53:00,METAR KSRQ 211253Z 01004KT 10SM CLR 17/13 A3014 RMK AO2 SLP206 T01670133
2026-03-21 11:53:00,METAR KSRQ 211153Z 00000KT 10SM CLR 12/11 A3012 RMK AO2 SLP197 T01220106 10156 20122 53015
2026-03-21 10:53:00,METAR KSRQ 211053Z 00000KT 10SM CLR 13/11 A3010 RMK AO2 SLP191 T01280106
2026-03-21 09:53:00,METAR KSRQ 210953Z 00000KT 10SM CLR 14/11 A3008 RMK AO2 SLP185 T01390111
2026-03-21 08:53:00,METAR KSRQ 210853Z AUTO 07003KT 10SM CLR 14/11 A3007 RMK AO2 SLP182 T01440111 58010
2026-03-21 07:53:00,METAR KSRQ 210753Z AUTO 00000KT 10SM CLR 14/10 A3009 RMK AO2 SLP187 T01440100
2026-03-21 06:53:00,METAR KSRQ 210653Z AUTO 00000KT 10SM CLR 15/11 A3009 RMK AO2 SLP189 T01500106
2026-03-21 05:53:00,METAR KSRQ 210553Z AUTO 00000KT 10SM CLR 15/10 A3010 RMK AO2 SLP191 T01500100 10217 20144 58009
2026-03-21 04:53:00,METAR KSRQ 210453Z 00000KT 10SM CLR 17/11 A3011 RMK AO2 SLP194 T01670111 402720128
2026-03-21 03:53:00,METAR KSRQ 210353Z 03006KT 10SM CLR 17/11 A3012 RMK AO2 SLP200 T01720111
2026-03-21 02:53:00,METAR KSRQ 210253Z 01006KT 10SM CLR 18/11 A3013 RMK AO2 SLP201 T01780111 53021
2026-03-21 01:53:00,METAR KSRQ 210153Z 01007KT 10SM CLR 19/11 A3010 RMK AO2 SLP193 T01940111
2026-03-21 00:53:00,METAR KSRQ 210053Z 33007KT 10SM CLR 20/11 A3008 RMK AO2 SLP184 T02000106
2026-03-20 23:53:00,METAR KSRQ 202353Z 34005KT 10SM CLR 22/09 A3006 RMK AO2 SLP179 T02170094 10272 20217 53005
2026-03-20 22:53:00,METAR KSRQ 202253Z 34009KT 10SM CLR 23/11 A3004 RMK AO2 SLP173 T02330106
2026-03-20 21:53:00,METAR KSRQ 202153Z 34009KT 10SM CLR 25/10 A3004 RMK AO2 SLP171 T02500100
2026-03-20 20:53:00,METAR KSRQ 202053Z 34012G19KT 10SM CLR 26/10 A3005 RMK AO2 SLP174 T02560100 56020
2026-03-20 19:53:00,METAR KSRQ 201953Z 34009G18KT 10SM CLR 27/09 A3006 RMK AO2 SLP177 T02670089
2026-03-20 18:53:00,METAR KSRQ 201853Z 02009G18KT 330V050 10SM CLR 26/08 A3008 RMK AO2 SLP183 T02610078
2026-03-20 17:53:00,METAR KSRQ 201753Z 03011G15KT 10SM CLR 26/09 A3011 RMK AO2 SLP194 T02560089 10261 20133 58014
2026-03-20 16:53:00,METAR KSRQ 201653Z 06009G19KT 10SM CLR 24/09 A3013 RMK AO2 SLP202 T02440094
2026-03-20 15:53:00,METAR KSRQ 201553Z 07011KT 10SM CLR 23/11 A3014 RMK AO2 SLP207 T02280111
2026-03-20 14:53:00,METAR KSRQ 201453Z 04013G17KT 10SM CLR 21/11 A3015 RMK AO2 SLP208 T02110111 50004
2026-03-20 13:53:00,METAR KSRQ 201353Z 05008KT CLR 19/08 A3015 RMK AO2 SLP209 T01890078 $
2026-03-20 12:53:00,METAR KSRQ 201253Z 04009KT 10SM CLR 16/07 A3014 RMK AO2 SLP207 T01610067
2026-03-20 11:53:00,METAR KSRQ 201153Z 04006KT 10SM CLR 13/07 A3014 RMK AO2 SLP204 T01330072 10150 20128 51010
2026-03-20 10:53:00,METAR KSRQ 201053Z 02007KT 10SM CLR 13/08 A3013 RMK AO2 SLP201 T01330083
2026-03-20 09:53:00,METAR KSRQ 200953Z AUTO 02007KT 10SM CLR 13/09 A3012 RMK AO2 SLP198 T01330089
2026-03-20 08:53:00,METAR KSRQ 200853Z AUTO 03006KT 10SM CLR 13/08 A3011 RMK AO2 SLP194 T01330083 56011
2026-03-20 07:53:00,METAR KSRQ 200753Z AUTO 03007KT 10SM CLR 13/08 A3011 RMK AO2 SLP197 T01330078
2026-03-20 06:53:00,METAR KSRQ 200653Z AUTO 04007KT 10SM CLR 14/07 A3013 RMK AO2 SLP201 T01390072
2026-03-20 05:53:00,METAR KSRQ 200553Z AUTO 04008KT 10SM CLR 15/07 A3014 RMK AO2 SLP205 T01500067 10211 20150 58004
2026-03-20 04:53:00,METAR KSRQ 200453Z AUTO 03007KT 10SM CLR 16/07 A3015 RMK AO2 SLP209 T01560072 402500117
2026-03-20 03:53:00,METAR KSRQ 200353Z AUTO 03010KT 10SM CLR 17/07 A3016 RMK AO2 SLP211 T01670072
2026-03-20 02:53:00,METAR KSRQ 200253Z 04009KT 10SM CLR 18/08 A3015 RMK AO2 SLP210 T01780078 51025
2026-03-20 01:53:00,METAR KSRQ 200153Z 05007KT 10SM CLR 18/09 A3013 RMK AO2 SLP203 T01830089
2026-03-20 00:53:00,METAR KSRQ 200053Z 06008KT 10SM CLR 19/08 A3010 RMK AO2 SLP193 T01940083
2026-03-19 23:53:00,METAR KSRQ 192353Z 06009G18KT 10SM CLR 21/09 A3008 RMK AO2 SLP185 T02110094 10250 20211 53007
2026-03-19 22:53:00,METAR KSRQ 192253Z 07013KT 10SM CLR 23/10 A3006 RMK AO2 SLP179 T02280100
2026-03-19 21:53:00,METAR KSRQ 192153Z 07011G19KT 10SM CLR 24/10 A3005 RMK AO2 SLP175 T02390100
2026-03-19 20:53:00,METAR KSRQ 192053Z VRB06G18KT 10SM FEW055 24/09 A3006 RMK AO2 SLP178 T02440094 56021
2026-03-19 19:53:00,METAR KSRQ 191953Z 33013G21KT 10SM CLR 23/09 A3007 RMK AO2 SLP182 T02330094
2026-03-19 18:53:00,METAR KSRQ 191853Z 02010G17KT 10SM CLR 24/09 A3009 RMK AO2 SLP189 T02390094
2026-03-19 17:53:00,METAR KSRQ 191753Z 04008G15KT 10SM CLR 23/09 A3012 RMK AO2 SLP200 T02280089 10233 20117 58016
2026-03-19 16:53:00,METAR KSRQ 191653Z 02007G18KT 10SM CLR 22/09 A3015 RMK AO2 SLP209 T02170094
2026-03-19 15:53:00,METAR KSRQ 191553Z 36009KT 10SM CLR 19/09 A3016 RMK AO2 SLP213 T01940089
2026-03-19 14:53:00,METAR KSRQ 191453Z 01012KT 10SM CLR 17/07 A3017 RMK AO2 SLP216 T01720072 50007
2026-03-19 13:53:00,METAR KSRQ 191353Z 02009KT 10SM CLR 16/05 A3018 RMK AO2 SLP217 T01560050
2026-03-19 12:53:00,METAR KSRQ 191253Z 03011KT 10SM CLR 14/03 A3017 RMK AO2 SLP214 T01390028
2026-03-19 11:53:00,METAR KSRQ 191153Z 03007KT 10SM CLR 12/03 A3015 RMK AO2 SLP209 T01170033 10133 20117 53010
2026-03-19 10:53:00,METAR KSRQ 191053Z 03009KT 10SM CLR 12/04 A3014 RMK AO2 SLP204 T01220039
2026-03-19 09:53:00,METAR KSRQ 190953Z AUTO 03008KT 10SM CLR 12/04 A3012 RMK AO2 SLP198 T01220044
2026-03-19 08:53:00,METAR KSRQ 190853Z AUTO 03008KT 10SM CLR 12/03 A3012 RMK AO2 SLP199 T01220033 58009
2026-03-19 07:53:00,METAR KSRQ 190753Z AUTO 02009KT 10SM CLR 12/03 A3013 RMK AO2 SLP203 T01220033
2026-03-19 06:53:00,METAR KSRQ 190653Z AUTO 03007KT 10SM CLR 12/05 A3014 RMK AO2 SLP206 T01220050
2026-03-19 05:53:00,METAR KSRQ 190553Z AUTO 05007KT 10SM CLR 13/06 A3015 RMK AO2 SLP208 T01330061 10189 20133 58004
2026-03-19 04:53:00,METAR KSRQ 190453Z AUTO 04013G18KT 10SM CLR 14/07 A3016 RMK AO2 SLP213 T01440072 402280083
2026-03-19 03:53:00,METAR KSRQ 190353Z AUTO 04006KT 10SM CLR 15/07 A3016 RMK AO2 SLP214 T01500067
2026-03-19 02:53:00,METAR KSRQ 190253Z 05006KT 10SM CLR 16/06 A3016 RMK AO2 SLP212 T01610061 51015
2026-03-19 01:53:00,METAR KSRQ 190153Z 06005KT 10SM CLR 17/07 A3015 RMK AO2 SLP209 T01670067
2026-03-19 00:53:00,METAR KSRQ 190053Z 01004KT 10SM CLR 18/05 A3013 RMK AO2 SLP201 T01780050
2026-03-18 23:53:00,METAR KSRQ 182353Z 02005KT 10SM CLR 19/04 A3011 RMK AO2 SLP196 T01890039 10228 20189 53006
2026-03-18 22:53:00,METAR KSRQ 182253Z 35009KT 10SM CLR 21/04 A3010 RMK AO2 SLP190 T02110039
2026-03-18 21:53:00,METAR KSRQ 182153Z 36009G22KT 10SM CLR 22/03 A3009 RMK AO2 SLP187 T02220033
2026-03-18 20:53:00,METAR KSRQ 182053Z 35008KT 10SM CLR 22/03 A3009 RMK AO2 SLP190 T02220028 56027
2026-03-18 19:53:00,METAR KSRQ 181953Z 02011G16KT 10SM CLR 22/02 A3011 RMK AO2 SLP196 T02170022
2026-03-18 18:53:00,METAR KSRQ 181853Z 01009G19KT 10SM CLR 22/02 A3014 RMK AO2 SLP205 T02170022
2026-03-18 17:53:00,METAR KSRQ 181753Z 05008G17KT 10SM BKN047 21/02 A3018 RMK AO2 SLP217 T02060022 10206 20089 58014
2026-03-18 16:53:00,METAR KSRQ 181653Z 03008G18KT 10SM SCT049 19/03 A3020 RMK AO2 SLP226 T01890028
2026-03-18 15:53:00,METAR KSRQ 181553Z 02010KT 10SM CLR 17/03 A3021 RMK AO2 SLP231 T01720033
2026-03-18 14:53:00,METAR KSRQ 181453Z 02012KT 10SM CLR 16/03 A3022 RMK AO2 SLP231 T01560033 51018
2026-03-18 13:53:00,METAR KSRQ 181353Z 02011KT 10SM CLR 13/02 A3021 RMK AO2 SLP228 T01280017
2026-03-18 12:53:00,METAR KSRQ 181253Z 02009G18KT 10SM CLR 10/01 A3019 RMK AO2 SLP224 T01000006
2026-03-18 11:53:00,METAR KSRQ 181153Z 03007KT 10SM CLR 09/00 A3016 RMK AO2 SLP213 T00890000 10117 20083 53004
2026-03-18 10:53:00,METAR KSRQ 181053Z AUTO 03008KT 10SM CLR 09/00 A3015 RMK AO2 SLP210 T00890000
2026-03-18 09:53:00,METAR KSRQ 180953Z AUTO 03009KT 10SM CLR 09/M01 A3014 RMK AO2 SLP206 T00941006
2026-03-18 08:53:00,METAR KSRQ 180853Z AUTO 02010KT 10SM CLR 10/M01 A3015 RMK AO2 SLP209 T01001006 56014
2026-03-18 07:53:00,METAR KSRQ 180753Z AUTO 02011G18KT 10SM CLR 11/00 A3016 RMK AO2 SLP211 T01110000
2026-03-18 06:53:00,METAR KSRQ 180653Z AUTO 03011G19KT 10SM CLR 11/M01 A3017 RMK AO2 SLP215 T01111006
2026-03-18 05:53:00,METAR KSRQ 180553Z AUTO 03012G19KT 10SM CLR 12/02 A3019 RMK AO2 SLP223 T01170022 10128 20111 50004
2026-03-18 04:53:00,METAR KSRQ 180453Z 01009KT 10SM CLR 12/04 A3020 RMK AO2 SLP225 T01170039 401670094
2026-03-18 03:53:00,METAR KSRQ 180353Z 02009KT 10SM CLR 12/04 A3020 RMK AO2 SLP224 T01220039
2026-03-18 02:53:00,METAR KSRQ 180253Z 36010KT 10SM CLR 12/04 A3018 RMK AO2 SLP219 T01220039 53009
2026-03-18 01:53:00,METAR KSRQ 180153Z 35009KT 10SM CLR 12/03 A3017 RMK AO2 SLP214 T01220028
2026-03-18 00:53:00,METAR KSRQ 180053Z 34010KT 10SM CLR 12/02 A3016 RMK AO2 SLP211 T01220022
2026-03-17 23:53:00,METAR KSRQ 172353Z 35011KT 10SM CLR 13/02 A3015 RMK AO2 SLP210 T01280022 10167 20128 53017
2026-03-17 22:53:00,METAR KSRQ 172253Z 35010KT 10SM CLR 14/02 A3014 RMK AO2 SLP206 T01440022
2026-03-17 21:53:00,METAR KSRQ 172153Z 34011KT 10SM CLR 16/02 A3011 RMK AO2 SLP196 T01560022
2026-03-17 20:53:00,METAR KSRQ 172053Z 34011KT 10SM CLR 16/01 A3011 RMK AO2 SLP194 T01610011 56018
2026-03-17 19:53:00,METAR KSRQ 171953Z 35014G20KT 10SM CLR 16/02 A3012 RMK AO2 SLP199 T01610022
2026-03-17 18:53:00,METAR KSRQ 171853Z 35013G21KT 10SM CLR 16/00 A3014 RMK AO2 SLP206 T01610000
2026-03-17 17:53:00,METAR KSRQ 171753Z 34010G19KT 10SM CLR 16/01 A3016 RMK AO2 SLP212 T01560011 10156 20094 58006
2026-03-17 16:53:00,METAR KSRQ 171653Z 35015G20KT 10SM CLR 14/01 A3018 RMK AO2 SLP218 T01440011
2026-03-17 15:53:00,METAR KSRQ 171553Z 35013G20KT 10SM FEW065 13/00 A3018 RMK AO2 SLP218 T01330000
2026-03-17 14:53:00,METAR KSRQ 171453Z 36014KT 10SM FEW100 12/01 A3018 RMK AO2 SLP218 T01170006 51011
2026-03-17 13:53:00,METAR KSRQ 171353Z 01014KT 10SM BKN095 11/M01 A3018 RMK AO2 SLP217 T01061006
2026-03-17 12:53:00,METAR KSRQ 171253Z 02016G27KT 10SM FEW055 BKN090 09/M01 A3016 RMK AO2 PK WND 35027/1249 SLP212 T00941006
2026-03-17 11:53:00,METAR KSRQ 171153Z 03014G21KT 10SM OVC039 09/00 A3014 RMK AO2 PK WND 35026/1101 SLP207 70049 T00940000 10156 20094 53026
2026-03-17 10:53:00,METAR KSRQ 171053Z 01016G25KT 10SM OVC037 10/01 A3011 RMK AO2 SLP194 T01000011
2026-03-17 09:53:00,METAR KSRQ 170953Z 01014G21KT 10SM OVC036 12/02 A3009 RMK AO2 SLP189 T01220017
2026-03-17 08:53:00,METAR KSRQ 170853Z AUTO 36012G18KT 10SM OVC035 13/04 A3007 RMK AO2 PRESRR SLP181 T01330039 53019
2026-03-17 07:53:00,METAR KSRQ 170753Z AUTO 01011G19KT 10SM OVC039 14/06 A3003 RMK AO2 SLP170 T01440056
2026-03-17 06:53:00,METAR KSRQ 170653Z AUTO 36010G19KT 10SM BKN039 15/06 A3004 RMK AO2 SLP172 T01500056
2026-03-17 05:53:00,METAR KSRQ 170553Z AUTO 36014G26KT 10SM BKN035 16/08 A3001 RMK AO2 PK WND 35027/0518 SLP162 60000 T01560083 10222 20156 53015
2026-03-17 04:53:00,METAR KSRQ 170453Z AUTO 35017G24KT 10SM FEW025 OVC033 17/10 A2998 RMK AO2 PK WND 35029/0419 SLP153 T01670100 402830167
2026-03-17 03:53:00,METAR KSRQ 170353Z AUTO 35014G23KT 10SM FEW023 BKN031 18/13 A2997 RMK AO2 PK WND 01026/0343 SLP147 T01830128
2026-03-17 03:48:00,SPECI KSRQ 170348Z AUTO 34010G26KT 10SM SCT023 OVC031 18/13 A2997 RMK AO2 PK WND 01026/0343
2026-03-17 03:28:00,SPECI KSRQ 170328Z AUTO 34014G23KT 10SM BKN029 18/13 A2996 RMK AO2 T01830133
2026-03-17 03:00:00,SPECI KSRQ 170300Z AUTO 33014G20KT 10SM SCT028 18/14 A2996 RMK AO2 T01830139
2026-03-17 02:53:00,METAR KSRQ 170253Z AUTO 34011G24KT 10SM BKN026 18/14 A2995 RMK AO2 SLP143 60000 T01830139 51036
2026-03-17 01:53:00,METAR KSRQ 170153Z 32012G22KT 10SM OVC022 19/15 A2992 RMK AO2 SLP132 T01890150
2026-03-17 01:05:00,SPECI KSRQ 170105Z 31011KT 10SM BKN017 19/17 A2991 RMK AO2 T01940172
2026-03-17 00:53:00,METAR KSRQ 170053Z 31013G18KT 10SM BKN014 20/18 A2990 RMK AO2 PK WND 30031/0026 WSHFT 0010 RAE44 SLP124 P0000 T02000178
2026-03-17 00:44:00,SPECI KSRQ 170044Z 31013KT 10SM BKN014 BKN110 20/18 A2990 RMK AO2 PK WND 30031/0026 WSHFT 0010 RAE44 P0000 T02000178
2026-03-17 00:30:00,SPECI KSRQ 170030Z 31021G31KT 10SM -RA SCT012 BKN025 OVC110 21/18 A2990 RMK AO2 PK WND 30031/0026 WSHFT 0010 P0000 T02060178
2026-03-16 23:53:00,METAR KSRQ 162353Z 19007KT 10SM -RA FEW090 SCT120 22/18 A2985 RMK AO2 RAB2255 SLP106 P0005 60049 T02170183 10278 20200 50002
2026-03-16 23:03:00,SPECI KSRQ 162303Z 28015G24KT 10SM -RA BKN095 BKN110 22/19 A2987 RMK AO2 LTG DSNT ALQDS RAB2255 P0002 T02170189
2026-03-16 22:53:00,METAR KSRQ 162253Z 27013G19KT 10SM VCTS FEW040 FEW075 BKN095 22/19 A2987 RMK AO2 PK WND 29030/2158 WSHFT 2143 LTG DSNT ALQDS RAB2159E44 TSB13E36 SLP114 P0044 T02170189
2026-03-16 22:42:00,SPECI KSRQ 162242Z 26008KT 10SM VCTS -RA SCT029 BKN075 BKN090 21/19 A2986 RMK AO2 PK WND 29030/2158 WSHFT 2143 LTG DSNT ALQDS RAB2159 TSB13E36 P0044 T02060189
2026-03-16 22:34:00,SPECI KSRQ 162234Z 27008KT 3SM -TSRA BR BKN031 BKN055 OVC085 21/18 A2986 RMK AO2 PK WND 29030/2158 WSHFT 2143 LTG DSNT ALQDS RAB2159 TSB13 P0044 T02060183
2026-03-16 22:30:00,SPECI KSRQ 162230Z 28007KT 1 1/2SM TSRA BR BKN031 BKN050 OVC070 20/18 A2986 RMK AO2 PK WND 29030/2158 WSHFT 2143 LTG DSNT ALQDS RAB2159 TSB13 PRESFR P0044 T02000183
2026-03-16 22:22:00,SPECI KSRQ 162222Z 28013G22KT 3/4SM +TSRA BR FEW019 BKN027 OVC055 20/18 A2987 RMK AO2 PK WND 29030/2158 WSHFT 2143 LTG DSNT ALQDS RAB2159 TSB13 P0039 T02000178
2026-03-16 22:13:00,SPECI KSRQ 162213Z 27014G24KT 1 1/2SM +TSRA FEW018 BKN028 OVC055 21/18 A2989 RMK AO2 PK WND 29030/2158 WSHFT 2143 LTG DSNT ALQDS RAB2159 TSB13 PRESRR P0013 T02060178
2026-03-16 22:11:00,SPECI KSRQ 162211Z 28016G24KT 2SM VCTS RA BR SCT021 BKN030 OVC055 21/18 A2989 RMK AO2 PK WND 29030/2158 WSHFT 2143 LTG DSNT ALQDS RAB2159 PRESRR P0009 T02060183
2026-03-16 22:03:00,SPECI KSRQ 162203Z 30017G30KT 9SM VCTS -RA FEW007 BKN021 OVC040 22/18 A2987 RMK AO2 PK WND 29030/2158 WSHFT 2143 LTG DSNT ALQDS RAB2159 P0002 T02220183
2026-03-16 21:53:00,METAR KSRQ 162153Z 27015G22KT 230V300 10SM VCTS FEW007 SCT019 OVC024 25/23 A2987 RMK AO2 LTG DSNT W-NE PRESRR SLP113 T02500228
2026-03-16 21:07:00,SPECI KSRQ 162107Z 21014G21KT 10SM FEW007 SCT021 BKN028 26/23 A2984 RMK AO2 LTG DSNT W AND NW T02560228
2026-03-16 20:53:00,METAR KSRQ 162053Z 21012KT 10SM FEW007 26/23 A2984 RMK AO2 LTG DSNT NW SLP104 T02560228 58013
2026-03-16 20:30:00,SPECI KSRQ 162030Z 20014G23KT 10SM SCT008 26/23 A2985 RMK AO2 T02610228
2026-03-16 20:19:00,SPECI KSRQ 162019Z 21013G23KT 10SM SCT009 BKN021 26/23 A2985 RMK AO2 T02610228
2026-03-16 19:53:00,METAR KSRQ 161953Z 20015G22KT 10SM SCT009 BKN014 BKN023 27/23 A2985 RMK AO2 SLP108 T02670228
2026-03-16 19:17:00,SPECI KSRQ 161917Z 21014KT 10SM BKN009 BKN080 27/23 A2986 RMK AO2 T02720228
2026-03-16 19:09:00,SPECI KSRQ 161909Z 19017G23KT 10SM BKN010 27/23 A2986 RMK AO2 T02720228
2026-03-16 19:00:00,SPECI KSRQ 161900Z 19014G23KT 10SM SCT010 28/23 A2987 RMK AO2 T02780233
2026-03-16 18:53:00,METAR KSRQ 161853Z 20016G23KT 10SM BKN007 27/23 A2987 RMK AO2 PK WND 21030/1809 SLP114 T02720228
2026-03-16 18:08:00,SPECI KSRQ 161808Z 20018G25KT 10SM BKN007 28/23 A2988 RMK AO2 T02780233
2026-03-16 18:00:00,SPECI KSRQ 161800Z 20018G25KT 10SM FEW009 27/23 A2988 RMK AO2 T02720228
2026-03-16 17:53:00,METAR KSRQ 161753Z 20019G26KT 10SM BKN007 28/23 A2988 RMK AO2 PK WND 21030/1719 SLP118 T02780233 10283 20206 50008
2026-03-16 16:53:00,METAR KSRQ 161653Z 19017G27KT 10SM BKN008 28/23 A2988 RMK AO2 PK WND 19032/1623 SLP118 T02780228
2026-03-16 15:53:00,METAR KSRQ 161553Z 19016G28KT 10SM BKN008 27/23 A2987 RMK AO2 PK WND 17031/1455 SLP114 T02720228
2026-03-16 15:06:00,SPECI KSRQ 161506Z 18017G30KT 10SM BKN008 27/23 A2985 RMK AO2 PK WND 17031/1455 T02720228
2026-03-16 14:53:00,METAR KSRQ 161453Z 18018G29KT 10SM FEW011 FEW110 27/23 A2986 RMK AO2 PK WND 18031/1443 SLP109 T02670228 58008
2026-03-16 14:07:00,SPECI KSRQ 161407Z 18018G25KT 10SM BKN007 BKN011 26/23 A2986 RMK AO2 T02610228
2026-03-16 14:00:00,SPECI KSRQ 161400Z 18017G25KT 10SM BKN011 26/23 A2986 RMK AO2 CIG 009V013 T02610228
2026-03-16 13:53:00,METAR KSRQ 161353Z 18014G26KT 10SM BKN008 BKN011 26/23 A2986 RMK AO2 PK WND 19026/1314 SLP112 T02560228
2026-03-16 13:26:00,SPECI KSRQ 161326Z 18016G25KT 10SM BKN008 BKN011 25/23 A2987 RMK AO2 PK WND 19026/1314 T02500228
2026-03-16 13:13:00,SPECI KSRQ 161313Z 17013G18KT 10SM BKN011 25/22 A2987 RMK AO2 T02500222
2026-03-16 12:53:00,METAR KSRQ 161253Z 16008KT 10SM FEW011 23/22 A2988 RMK AO2 SLP116 T02330217
2026-03-16 11:53:00,METAR KSRQ 161153Z AUTO 12005KT 10SM CLR 21/20 A2988 RMK AO2 SLP118 70015 T02110200 10217 20200 51006
2026-03-16 10:53:00,METAR KSRQ 161053Z AUTO 13005KT 10SM SCT011 21/19 A2988 RMK AO2 SLP117 T02110194
2026-03-16 10:50:00,SPECI KSRQ 161050Z AUTO 13005KT 10SM SCT012 21/19 A2988 RMK AO2
2026-03-16 10:27:00,SPECI KSRQ 161027Z AUTO 13006KT 10SM BKN010 21/19 A2987 RMK AO2 T02060194
2026-03-16 10:03:00,SPECI KSRQ 161003Z AUTO 13006KT 10SM BKN009 21/19 A2986 RMK AO2 CIG 008V012 T02060194
2026-03-16 09:53:00,METAR KSRQ 160953Z AUTO 14005KT 10SM SCT010 21/19 A2986 RMK AO2 SLP111 T02060189
2026-03-16 08:53:00,METAR KSRQ 160853Z AUTO 13006KT 10SM BKN120 21/19 A2986 RMK AO2 SLP111 T02060189 58021
2026-03-16 07:53:00,METAR KSRQ 160753Z AUTO 14006KT 10SM BKN120 21/18 A2989 RMK AO2 SLP121 T02060183
2026-03-16 06:53:00,METAR KSRQ 160653Z AUTO 14004KT 10SM CLR 21/18 A2991 RMK AO2 SLP126 T02060183
2026-03-16 05:53:00,METAR KSRQ 160553Z AUTO 15008KT 10SM CLR 21/18 A2992 RMK AO2 SLP132 60000 T02060183 10217 20200 56020
2026-03-16 04:53:00,METAR KSRQ 160453Z 13007KT 10SM SCT070 21/18 A2994 RMK AO2 SLP138 T02060183 403000189
2026-03-16 03:53:00,METAR KSRQ 160353Z 14009KT 10SM FEW100 21/18 A2996 RMK AO2 SLP145 T02060178
2026-03-16 02:53:00,METAR KSRQ 160253Z 12006KT 10SM FEW075 BKN120 21/18 A2998 RMK AO2 LTG DSNT W SLP152 60000 T02060178 53008
2026-03-16 01:53:00,METAR KSRQ 160153Z 14009KT 10SM FEW110 21/18 A2996 RMK AO2 LTG DSNT W AND NW RAE05 TSE04 SLP146 P0000 T02060183
2026-03-16 01:33:00,SPECI KSRQ 160133Z 11007KT 10SM FEW110 21/18 A2997 RMK AO2 LTG DSNT NE RAE05 TSE04 P0000 T02060183
2026-03-16 01:10:00,SPECI KSRQ 160110Z 11009KT 10SM VCTS FEW034 SCT080 BKN090 21/18 A2997 RMK AO2 LTG DSNT N AND NE RAE05 TSE04 P0000 T02060183
2026-03-16 00:53:00,METAR KSRQ 160053Z 11011G24KT 10SM -TSRA FEW015 SCT037 BKN120 21/18 A2997 RMK AO2 PK WND 14029/0043 LTG DSNT N AND NE RAE2354B39 TSB19 SLP149 P0000 T02110183
2026-03-16 00:25:00,SPECI KSRQ 160025Z 13016G21KT 10SM TS FEW023 SCT027 BKN033 21/19 A2997 RMK AO2 LTG DSNT NE AND E RAE2354 TSB19 P0000 T02110189
2026-03-16 00:09:00,SPECI KSRQ 160009Z 13013KT 10SM VCTS BKN023 OVC027 22/19 A2997 RMK AO2 LTG DSNT ALQDS RAE2354 P0000 T02170189
2026-03-15 23:53:00,METAR KSRQ 152353Z 12011KT 10SM -RA SCT023 BKN028 OVC100 22/19 A2996 RMK AO2 LTG DSNT N AND E RAE03B44 TSE23 SLP144 P0000 60015 T02170194 10294 20217 51011
2026-03-15 23:50:00,SPECI KSRQ 152350Z 12012KT 10SM -RA SCT023 BKN033 OVC100 22/19 A2996 RMK AO2 LTG DSNT ALQDS RAE03B44 TSE23 P0000
2026-03-15 23:29:00,SPECI KSRQ 152329Z 13015G24KT 10SM VCTS FEW029 SCT045 OVC100 22/19 A2995 RMK AO2 LTG DSNT N AND E AND S RAE03 TSE23 P0000 T02170194
2026-03-15 22:53:00,METAR KSRQ 152253Z 16011G25KT 5SM TSRA FEW027 BKN050 OVC075 22/19 A2995 RMK AO2 PK WND 13027/2235 WSHFT 2145 LTG DSNT SE RAB18 TSB50 SLP140 P0015 T02220194
2026-03-15 22:37:00,SPECI KSRQ 152237Z 12015G27KT 3SM VCTS -RA FEW023 SCT030 OVC060 23/19 A2994 RMK AO2 PK WND 13027/2235 WSHFT 2145 LTG DSNT SE RAB18 P0012 T02280194
2026-03-15 22:34:00,SPECI KSRQ 152234Z 12016G24KT 1 3/4SM VCTS RA FEW023 BKN060 OVC080 23/19 A2994 RMK AO2 WSHFT 2145 LTG DSNT SE RAB18 P0012 T02280194
2026-03-15 22:31:00,SPECI KSRQ 152231Z 12010G23KT 1 3/4SM +RA SCT023 BKN029 OVC080 23/19 A2993 RMK AO2 WSHFT 2145 LTG DSNT SE AND S RAB18 P0012 T02280189
2026-03-15 22:05:00,SPECI KSRQ 152205Z 12014G23KT 10SM BKN022 BKN030 OVC120 26/19 A2992 RMK AO2 WSHFT 2145 LTG DSNT SE T02560189
2026-03-15 21:53:00,METAR KSRQ 152153Z 13015G25KT 10SM SCT020 BKN025 BKN029 27/21 A2993 RMK AO2 PK WND 20028/2056 LTG DSNT NE AND SE SLP133 T02720206
2026-03-15 20:53:00,METAR KSRQ 152053Z 19017G25KT 10SM FEW100 28/22 A2991 RMK AO2 PK WND 20028/2035 LTG DSNT NE AND E SLP129 T02830222 56022
2026-03-15 19:53:00,METAR KSRQ 151953Z 20016G22KT 10SM CLR 29/22 A2994 RMK AO2 LTG DSNT NE AND E SLP136 T02890222
2026-03-15 18:53:00,METAR KSRQ 151853Z 18016G23KT 10SM CLR 29/22 A2995 RMK AO2 PK WND 20027/1801 LTG DSNT N-E TSE01 SLP141 T02940222
2026-03-15 18:14:00,SPECI KSRQ 151814Z 18018G27KT 10SM BKN015 29/22 A2996 RMK AO2 PK WND 20027/1801 LTG DSNT N-SE TSE01 T02940217
2026-03-15 18:07:00,SPECI KSRQ 151807Z 19017G27KT 10SM VCTS BKN015 29/22 A2997 RMK AO2 PK WND 20027/1801 LTG DSNT N-SE TSE01 T02940217
2026-03-15 17:57:00,SPECI KSRQ 151757Z 18017G28KT 10SM TS BKN015 29/22 A2998 RMK AO2 LTG DSNT N AND SE T02940217
2026-03-15 17:53:00,METAR KSRQ 151753Z 18018G28KT 10SM TS CLR 29/22 A2998 RMK AO2 PK WND 17028/1753 LTG DSNT N AND SE TSB46 SLP151 T02940217 10300 20194 56012
2026-03-15 17:30:00,SPECI KSRQ 151730Z 20016G24KT 10SM VCTS CLR 29/22 A2998 RMK AO2 LTG DSNT N-SE T02940217
2026-03-15 17:21:00,SPECI KSRQ 151721Z 20015G24KT 10SM FEW028 29/22 A2999 RMK AO2 T02940217
2026-03-15 17:03:00,SPECI KSRQ 151703Z 19013G19KT 10SM VCTS FEW030 SCT035 BKN070 29/22 A2999 RMK AO2 T02890217
2026-03-15 16:53:00,METAR KSRQ 151653Z 20011G18KT 10SM SCT033 BKN044 BKN070 28/22 A3000 RMK AO2 SLP156 T02830222
2026-03-15 15:53:00,METAR KSRQ 151553Z 14008KT 10SM SCT029 BKN034 OVC043 29/21 A3001 RMK AO2 SLP163 T02890211
2026-03-15 15:37:00,SPECI KSRQ 151537Z 16008KT 10SM BKN027 BKN035 28/21 A3002 RMK AO2 T02830211
2026-03-15 14:53:00,METAR KSRQ 151453Z 13004KT 10SM BKN110 26/19 A3002 RMK AO2 SLP166 T02610194 51010
2026-03-15 13:53:00,METAR KSRQ 151353Z 12005KT 10SM FEW095 SCT120 24/18 A3001 RMK AO2 SLP162 T02440178
2026-03-15 12:53:00,METAR KSRQ 151253Z 10005KT 10SM FEW025 BKN100 21/19 A3001 RMK AO2 SLP160 T02110189
2026-03-15 11:53:00,METAR KSRQ 151153Z 08003KT 10SM FEW049 FEW110 19/18 A2999 RMK AO2 SLP155 T01940178 10206 20189 51009
2026-03-15 10:53:00,METAR KSRQ 151053Z 00000KT 10SM FEW048 19/18 A2999 RMK AO2 SLP155 T01940178
2026-03-15 09:53:00,METAR KSRQ 150953Z AUTO 00000KT 10SM CLR 19/18 A2998 RMK AO2 SLP150 T01890178
2026-03-15 08:53:00,METAR KSRQ 150853Z AUTO 00000KT 10SM CLR 19/18 A2996 RMK AO2 SLP146 T01940178 58020
