Time_recorded,METAR
2026-05-02 14:56:00,METAR KHND 021456Z 00000KT 10SM CLR 20/M08 A3006 RMK AO2 SLP175 T02001078 51014 $
2026-05-02 13:56:00,METAR KHND 021356Z 15004KT 10SM CLR 16/M06 A3005 RMK AO2 SLP173 T01561061 $
2026-05-02 12:56:00,METAR KHND 021256Z 15005KT 10SM CLR 13/M07 A3003 RMK AO2 SLP167 T01331067 $
2026-05-02 11:56:00,METAR KHND 021156Z AUTO 14005KT 10SM CLR 13/M07 A3001 RMK AO2 SLP162 T01331067 10211 20133 56001 $
2026-05-02 10:56:00,METAR KHND 021056Z AUTO 19003KT 10SM CLR 13/M07 A3001 RMK AO2 SLP162 T01331067 $
2026-05-02 09:56:00,METAR KHND 020956Z AUTO 15006KT 10SM CLR 14/M06 A3001 RMK AO2 SLP160 T01441056 $
2026-05-02 08:56:00,METAR KHND 020856Z AUTO 17006KT 10SM CLR 16/M06 A3001 RMK AO2 SLP161 T01561061 50007 $
2026-05-02 07:56:00,METAR KHND 020756Z AUTO 17006KT 10SM CLR 16/M06 A3002 RMK AO2 SLP163 T01611061 $
2026-05-02 06:56:00,METAR KHND 020656Z AUTO VRB03KT 10SM CLR 18/M07 A3001 RMK AO2 SLP160 T01831072 402890139 $
2026-05-02 05:56:00,METAR KHND 020556Z AUTO 00000KT 10SM CLR 21/M08 A2999 RMK AO2 SLP151 T02111078 10283 20200 51019 $
2026-05-02 04:56:00,METAR KHND 020456Z AUTO 00000KT 10SM CLR 22/M07 A2998 RMK AO2 SLP147 T02171072 $
2026-05-02 03:56:00,METAR KHND 020356Z AUTO 07004KT 10SM CLR 24/M08 A2996 RMK AO2 SLP140 T02391083 $
2026-05-02 02:56:00,METAR KHND 020256Z 06008KT 10SM CLR 26/M10 A2993 RMK AO2 SLP131 T02561100 53004 $
2026-05-02 01:57:00,METAR KHND 020157Z 03006KT 10SM 27/M08 A2992 RMK SP
2026-05-02 01:56:00,METAR KHND 020156Z 06009KT 10SM CLR 27/M08 A2992 RMK AO2 SLP127 T02671078 $
2026-05-02 00:56:00,METAR KHND 020056Z 02010KT 10SM CLR 28/M07 A2991 RMK AO2 SLP126 T02781067 $
2026-05-01 23:56:00,METAR KHND 012356Z 05007KT 10SM CLR 28/M06 A2992 RMK AO2 SLP126 T02781056 10289 20250 56015 $
2026-05-01 22:56:00,METAR KHND 012256Z 05007KT 10SM CLR 27/M05 A2992 RMK AO2 SLP129 T02721050 $
2026-05-01 21:56:00,METAR KHND 012156Z 04007KT 330V090 10SM CLR 27/M05 A2994 RMK AO2 SLP135 T02721050 $
2026-05-01 20:56:00,METAR KHND 012056Z 04011G17KT 10SM CLR 28/M05 A2997 RMK AO2 SLP140 T02831050 58018 $
2026-05-01 19:56:00,METAR KHND 011956Z 02009G15KT 10SM CLR 27/M05 A2999 RMK AO2 SLP146 T02721050 $
2026-05-01 18:56:00,METAR KHND 011856Z 04007KT 010V070 10SM CLR 26/M06 A3001 RMK AO2 SLP155 T02611056 $
2026-05-01 17:56:00,METAR KHND 011756Z 04009KT 10SM CLR 25/M06 A3002 RMK AO2 SLP160 T02501061 10256 20139 50005 $
2026-05-01 16:56:00,METAR KHND 011656Z 05009KT 10SM FEW120 23/M06 A3002 RMK AO2 SLP163 T02331056 $
2026-05-01 15:56:00,METAR KHND 011556Z 00000KT 10SM CLR 22/M03 A3002 RMK AO2 SLP159 T02171028 $
2026-05-01 14:56:00,METAR KHND 011456Z 00000KT 10SM CLR 19/M02 A3000 RMK AO2 SLP156 T01941017 53020 $
2026-05-01 13:56:00,METAR KHND 011356Z 15005KT 10SM CLR 17/M03 A2998 RMK AO2 SLP150 T01671028 $
2026-05-01 12:56:00,METAR KHND 011256Z AUTO 17003KT 10SM CLR 14/M04 A2995 RMK AO2 SLP141 T01441039 $
2026-05-01 11:56:00,METAR KHND 011156Z AUTO VRB05KT 10SM CLR 18/M04 A2994 RMK AO2 SLP134 T01781039 10228 20150 53009 $
2026-05-01 10:56:00,METAR KHND 011056Z AUTO 23003KT 10SM CLR 16/M04 A2992 RMK AO2 SLP130 T01561044 $
2026-05-01 09:56:00,METAR KHND 010956Z AUTO 10003KT 10SM CLR 18/M04 A2991 RMK AO2 SLP125 T01831044 $
2026-05-01 08:56:00,METAR KHND 010856Z AUTO 02003KT 10SM CLR 20/M04 A2991 RMK AO2 SLP123 T02001044 50009 $
2026-05-01 07:56:00,METAR KHND 010756Z AUTO 05005KT 10SM CLR 21/M05 A2991 RMK AO2 SLP123 T02111050 $
2026-05-01 06:56:00,METAR KHND 010656Z AUTO 06006KT 10SM CLR 22/M06 A2990 RMK AO2 SLP118 T02171056 402830122 $
2026-05-01 05:56:00,METAR KHND 010556Z AUTO 01005KT 10SM CLR 23/M05 A2988 RMK AO2 SLP112 T02281050 10278 20200 52016 $
2026-05-01 04:56:00,METAR KHND 010456Z AUTO 00000KT 10SM CLR 22/M02 A2986 RMK AO2 SLP108 T02171022 $
2026-05-01 03:56:00,METAR KHND 010356Z AUTO 06003KT 10SM CLR 24/M05 A2985 RMK AO2 SLP102 T02441050 $
2026-05-01 02:56:00,METAR KHND 010256Z 03005KT 10SM CLR 26/M05 A2983 RMK AO2 SLP096 T02561050 53003 $
2026-05-01 01:56:00,METAR KHND 010156Z 01013KT 10SM CLR 27/M05 A2981 RMK AO2 SLP091 T02721050 $
2026-05-01 00:56:00,METAR KHND 010056Z 04008KT 360V070 10SM CLR 28/M04 A2981 RMK AO2 SLP093 T02781039 $
2026-04-30 23:56:00,METAR KHND 302356Z 06005KT 10SM CLR 27/M03 A2982 RMK AO2 SLP096 T02721033 10283 20250 56023 $
2026-04-30 22:56:00,METAR KHND 302256Z 36011G15KT 10SM CLR 28/M03 A2984 RMK AO2 SLP102 T02781033 $
2026-04-30 21:56:00,METAR KHND 302156Z 35007KT 10SM FEW120 27/M03 A2987 RMK AO2 SLP111 T02721033 $
2026-04-30 20:56:00,METAR KHND 302056Z VRB03KT 10SM CLR 26/M03 A2989 RMK AO2 SLP120 T02611033 56022 $
2026-04-30 19:56:00,METAR KHND 301956Z 05009KT 10SM CLR 26/M03 A2991 RMK AO2 SLP125 T02611033 $
2026-04-30 19:33:00,METAR KHND 301933Z 010/10G16KT 10SM CLR 26/M03 A2992 RMK OZ
2026-04-30 18:56:00,METAR KHND 301856Z 01010G16KT 10SM CLR 26/M03 A2994 RMK AO2 SLP135 T02611033 $
2026-04-30 17:56:00,METAR KHND 301756Z 02012G19KT 10SM CLR 25/M03 A2996 RMK AO2 SLP142 T02501028 10250 20122 58004 $
2026-04-30 16:56:00,METAR KHND 301656Z 02008G14KT 10SM CLR 23/M02 A2997 RMK AO2 SLP146 T02331022 $
2026-04-30 15:56:00,METAR KHND 301556Z 03007KT 10SM CLR 22/M02 A2997 RMK AO2 SLP147 T02171022 $
2026-04-30 14:56:00,METAR KHND 301456Z 00000KT 10SM CLR 19/M02 A2997 RMK AO2 SLP147 T01941017 53012 $
2026-04-30 13:56:00,METAR KHND 301356Z 09003KT 10SM CLR 16/M02 A2996 RMK AO2 SLP144 T01561017 $
2026-04-30 12:56:00,METAR KHND 301256Z 17004KT 10SM CLR 13/M04 A2994 RMK AO2 SLP139 T01281039 $
2026-04-30 11:56:00,METAR KHND 301156Z 16007KT 10SM CLR 13/M03 A2993 RMK AO2 SLP136 T01331033 10189 20133 53001 $
2026-04-30 10:56:00,METAR KHND 301056Z 17006KT 10SM CLR 14/M06 A2993 RMK AO2 SLP135 T01391061 $
2026-04-30 09:56:00,METAR KHND 300956Z 16006KT 10SM CLR 15/M04 A2993 RMK AO2 SLP133 T01501044 $
2026-04-30 08:56:00,METAR KHND 300856Z 16008KT 10SM CLR 16/M04 A2993 RMK AO2 SLP134 T01611044 58005 $
2026-04-30 07:56:00,METAR KHND 300756Z 18006KT 10SM CLR 17/M06 A2994 RMK AO2 SLP139 T01671056 $
2026-04-30 06:56:00,METAR KHND 300656Z 17005KT 10SM CLR 18/M06 A2995 RMK AO2 SLP140 T01781056 402780106 $
2026-04-30 05:56:00,METAR KHND 300556Z 18006KT 10SM CLR 19/M06 A2995 RMK AO2 SLP141 T01891056 10278 20189 50012 $
2026-04-30 04:56:00,METAR KHND 300456Z 20006KT 10SM CLR 21/M06 A2995 RMK AO2 SLP140 T02111061 $
2026-04-30 03:56:00,METAR KHND 300356Z 19004KT 10SM CLR 23/M06 A2994 RMK AO2 SLP135 T02281056 $
2026-04-30 02:56:00,METAR KHND 300256Z 03004KT 10SM CLR 24/M04 A2991 RMK AO2 SLP125 T02441044 55001 $
2026-04-30 01:56:00,METAR KHND 300156Z 02006KT 10SM CLR 26/M06 A2990 RMK AO2 SLP122 T02561061 $
2026-04-30 00:56:00,METAR KHND 300056Z 01005KT 10SM CLR 27/M07 A2990 RMK AO2 SLP126 T02671067 $
2026-04-29 23:56:00,METAR KHND 292356Z VRB03KT 10SM CLR 27/M07 A2992 RMK AO2 SLP130 T02671067 10278 20217 56024 $
2026-04-29 22:56:00,METAR KHND 292256Z VRB05KT 10SM CLR 27/M06 A2993 RMK AO2 SLP133 T02721061 $
2026-04-29 21:56:00,METAR KHND 292156Z 08006KT 10SM CLR 26/M06 A2996 RMK AO2 SLP146 T02611061 $
2026-04-29 20:56:00,METAR KHND 292056Z VRB06KT 10SM CLR 26/M05 A2999 RMK AO2 SLP155 T02561050 58022 $
2026-04-29 19:56:00,METAR KHND 291956Z 24004KT 10SM CLR 24/M05 A3001 RMK AO2 SLP162 T02441050 $
2026-04-29 18:56:00,METAR KHND 291856Z VRB04KT 10SM CLR 23/M02 A3004 RMK AO2 SLP173 T02281022 $
2026-04-29 17:56:00,METAR KHND 291756Z VRB03KT 10SM CLR 22/M01 A3006 RMK AO2 SLP178 T02171006 10222 20106 58005 $
2026-04-29 16:56:00,METAR KHND 291656Z 04006KT 10SM CLR 21/M01 A3007 RMK AO2 SLP181 T02111011 $
2026-04-29 15:56:00,METAR KHND 291556Z 06007KT 10SM CLR 20/M01 A3008 RMK AO2 SLP184 T02001006 $
2026-04-29 14:56:00,METAR KHND 291456Z 04005KT 10SM CLR 18/M01 A3008 RMK AO2 SLP184 T01831006 51014 $
2026-04-29 13:56:00,METAR KHND 291356Z 00000KT 10SM CLR 15/M02 A3007 RMK AO2 SLP183 T01501017 $
2026-04-29 12:56:00,METAR KHND 291256Z AUTO 11003KT 10SM CLR 11/M04 A3004 RMK AO2 SLP179 T01061044 $
2026-04-29 11:56:00,METAR KHND 291156Z AUTO 17003KT 10SM CLR 12/M07 A3003 RMK AO2 SLP173 T01221067 10183 20122 53004 $
2026-04-29 10:56:00,METAR KHND 291056Z AUTO 20006KT 10SM CLR 13/M07 A3002 RMK AO2 SLP169 T01331067 $
2026-04-29 09:56:00,METAR KHND 290956Z AUTO 19005KT 10SM CLR 13/M06 A3002 RMK AO2 SLP168 T01331056 $
2026-04-29 08:56:00,METAR KHND 290856Z AUTO 16008KT 10SM CLR 14/M04 A3002 RMK AO2 SLP167 T01441044 50002 $
2026-04-29 07:56:00,METAR KHND 290756Z AUTO 05004KT 10SM CLR 17/M05 A3003 RMK AO2 SLP169 T01671050 $
2026-04-29 06:56:00,METAR KHND 290656Z AUTO 18006KT 10SM CLR 17/M04 A3002 RMK AO2 SLP167 T01721044 402500089 $
2026-04-29 05:56:00,METAR KHND 290556Z AUTO 20005KT 10SM CLR 19/M04 A3001 RMK AO2 SLP165 T01891044 10250 20189 51013 $
2026-04-29 04:56:00,METAR KHND 290456Z AUTO 24006KT 10SM CLR 21/M04 A3000 RMK AO2 SLP160 T02111044 $
2026-04-29 03:56:00,METAR KHND 290356Z AUTO 00000KT 10SM CLR 21/M06 A2999 RMK AO2 SLP158 T02111056 $
2026-04-29 02:56:00,METAR KHND 290256Z 12005KT 10SM CLR 22/M06 A2997 RMK AO2 SLP151 T02221056 53003 $
2026-04-29 01:56:00,METAR KHND 290156Z 07008KT 10SM CLR 23/M05 A2995 RMK AO2 SLP146 T02331050 $
2026-04-29 00:56:00,METAR KHND 290056Z 11006KT 10SM CLR 24/M06 A2996 RMK AO2 SLP149 T02391056 $
2026-04-28 23:56:00,METAR KHND 282356Z VRB03KT 10SM CLR 24/M06 A2996 RMK AO2 SLP151 T02391056 10244 20189 56025 $
2026-04-28 22:56:00,METAR KHND 282256Z 32005KT 10SM CLR 24/M06 A2998 RMK AO2 SLP157 T02441061 $
2026-04-28 21:56:00,METAR KHND 282156Z VRB04KT 10SM CLR 23/M07 A3001 RMK AO2 SLP167 T02331067 $
2026-04-28 20:56:00,METAR KHND 282056Z VRB04KT 10SM CLR 23/M07 A3004 RMK AO2 SLP177 T02331072 56021 $
2026-04-28 19:56:00,METAR KHND 281956Z 27004KT 10SM CLR 22/M04 A3007 RMK AO2 SLP186 T02221044 $
2026-04-28 18:56:00,METAR KHND 281856Z 25004KT 10SM CLR 21/M01 A3009 RMK AO2 SLP192 T02111006 $
2026-04-28 17:56:00,METAR KHND 281756Z 00000KT 10SM CLR 19/00 A3011 RMK AO2 SLP202 T01890000 10194 20089 51007 $
2026-04-28 16:56:00,METAR KHND 281656Z 34004KT 10SM CLR 18/01 A3010 RMK AO2 SLP198 T01830006 $
2026-04-28 15:56:00,METAR KHND 281556Z 08006KT 10SM CLR 17/01 A3011 RMK AO2 SLP200 T01670011 $
2026-04-28 14:56:00,METAR KHND 281456Z 05008KT 10SM CLR 15/01 A3009 RMK AO2 SLP194 T01500011 53019 $
2026-04-28 13:56:00,METAR KHND 281356Z 15003KT 10SM CLR 12/01 A3007 RMK AO2 SLP188 T01170011 $
2026-04-28 12:56:00,METAR KHND 281256Z 18006KT 10SM CLR 09/M01 A3004 RMK AO2 SLP181 T00941011 $
2026-04-28 11:56:00,METAR KHND 281156Z AUTO 17006KT 10SM CLR 09/M01 A3003 RMK AO2 SLP175 T00941006 10144 20089 53005 $
2026-04-28 10:56:00,METAR KHND 281056Z AUTO 20005KT 10SM CLR 10/M02 A3002 RMK AO2 SLP171 T01001017 $
2026-04-28 09:56:00,METAR KHND 280956Z AUTO 19005KT 10SM CLR 12/M01 A3001 RMK AO2 SLP169 T01171006 $
2026-04-28 08:56:00,METAR KHND 280856Z AUTO 17005KT 10SM CLR 12/M01 A3001 RMK AO2 SLP169 T01171006 51009 $
2026-04-28 07:56:00,METAR KHND 280756Z AUTO 00000KT 10SM CLR 12/00 A3001 RMK AO2 SLP168 T01170000 $
2026-04-28 06:56:00,METAR KHND 280656Z AUTO 00000KT 10SM CLR 14/01 A2999 RMK AO2 SLP163 T01390006 402170100 $
2026-04-28 05:56:00,METAR KHND 280556Z AUTO 08004KT 10SM CLR 14/01 A2998 RMK AO2 SLP160 T01440006 10211 20144 51024 $
2026-04-28 04:56:00,METAR KHND 280456Z AUTO 02003KT 10SM CLR 17/00 A2997 RMK AO2 SLP155 T01670000 $
2026-04-28 03:56:00,METAR KHND 280356Z AUTO 01007KT 10SM CLR 17/01 A2995 RMK AO2 SLP147 T01720006 $
2026-04-28 02:56:00,METAR KHND 280256Z 25010KT 10SM CLR 19/M04 A2991 RMK AO2 SLP134 T01891039 53014 $
2026-04-28 01:56:00,METAR KHND 280156Z 24009KT 10SM CLR 20/M02 A2989 RMK AO2 SLP126 T02001022 $
2026-04-28 00:56:00,METAR KHND 280056Z 27012G23KT 10SM CLR 21/M02 A2987 RMK AO2 SLP121 T02061017 $
2026-04-27 23:56:00,METAR KHND 272356Z 24015G19KT 10SM CLR 21/M03 A2986 RMK AO2 SLP117 T02111028 10217 20167 55006 $
2026-04-27 22:56:00,METAR KHND 272256Z 24014G19KT 10SM CLR 22/M04 A2986 RMK AO2 SLP115 T02171044 $
2026-04-27 21:56:00,METAR KHND 272156Z 29008KT 10SM CLR 21/M03 A2987 RMK AO2 SLP119 T02111028 $
2026-04-27 20:56:00,METAR KHND 272056Z 25014G21KT 10SM CLR 21/M03 A2988 RMK AO2 SLP124 T02061028 57013 $
2026-04-27 19:56:00,METAR KHND 271956Z 20015G21KT 10SM CLR 19/M04 A2990 RMK AO2 SLP129 T01941039 $
2026-04-27 18:56:00,METAR KHND 271856Z 22017KT 10SM CLR 18/M01 A2991 RMK AO2 SLP132 T01831011 $
2026-04-27 17:56:00,METAR KHND 271756Z 22013KT 10SM CLR 17/M01 A2992 RMK AO2 SLP138 T01671006 10167 20100 50005 $
2026-04-27 16:56:00,METAR KHND 271656Z 22014KT 10SM CLR 16/01 A2992 RMK AO2 SLP138 T01560006 $
2026-04-27 15:56:00,METAR KHND 271556Z 20016KT 10SM CLR 14/01 A2992 RMK AO2 SLP137 T01390011 $
2026-04-27 14:56:00,METAR KHND 271456Z 19017KT 10SM CLR 12/01 A2991 RMK AO2 SLP135 T01220011 51013 $
2026-04-27 13:56:00,METAR KHND 271356Z 21017KT 10SM CLR 11/01 A2989 RMK AO2 SLP131 T01110006 $
2026-04-27 12:56:00,METAR KHND 271256Z 18012KT 10SM CLR 10/00 A2988 RMK AO2 SLP128 T01000000 $
2026-04-27 11:56:00,METAR KHND 271156Z AUTO 19014KT 10SM CLR 11/00 A2986 RMK AO2 PK WND 21028/1115 SLP120 T01060000 10150 20106 53003 $
2026-04-27 10:56:00,METAR KHND 271056Z AUTO 21021KT 10SM CLR 11/01 A2985 RMK AO2 SLP114 T01110006 $
2026-04-27 09:56:00,METAR KHND 270956Z AUTO 19012KT 10SM CLR 12/01 A2985 RMK AO2 SLP115 T01170011 $
2026-04-27 08:56:00,METAR KHND 270856Z AUTO 19016KT 10SM CLR 12/01 A2985 RMK AO2 SLP117 T01220011 50006 $
2026-04-27 07:56:00,METAR KHND 270756Z AUTO 18012KT 10SM CLR 13/02 A2986 RMK AO2 SLP118 T01330017 $
2026-04-27 06:56:00,METAR KHND 270656Z AUTO 19012KT 10SM CLR 14/02 A2985 RMK AO2 SLP113 T01440017 401940111 $
2026-04-27 05:56:00,METAR KHND 270556Z AUTO 21013KT 10SM CLR 15/01 A2984 RMK AO2 SLP110 T01500011 10194 20150 51012 $
2026-04-27 04:56:00,METAR KHND 270456Z AUTO 21009KT 10SM CLR 16/M01 A2983 RMK AO2 SLP106 T01611006 $
2026-04-27 03:56:00,METAR KHND 270356Z AUTO 22010KT 10SM CLR 17/M01 A2982 RMK AO2 SLP103 T01671011 $
2026-04-27 02:56:00,METAR KHND 270256Z 22010KT 10SM CLR 18/M01 A2980 RMK AO2 SLP096 T01781006 53005 $
2026-04-27 01:56:00,METAR KHND 270156Z 22010KT 10SM CLR 19/01 A2979 RMK AO2 SLP092 T01890006 $
2026-04-27 00:56:00,METAR KHND 270056Z 23011KT 10SM FEW110 18/01 A2979 RMK AO2 SLP092 T01830011 $
2026-04-26 23:56:00,METAR KHND 262356Z 23006KT 10SM BKN120 19/02 A2979 RMK AO2 SLP091 T01940017 10194 20150 58006 $
2026-04-26 22:56:00,METAR KHND 262256Z 22010KT 10SM FEW120 18/02 A2979 RMK AO2 SLP094 T01830017 $
2026-04-26 21:56:00,METAR KHND 262156Z 27008KT 10SM BKN060 BKN120 19/02 A2980 RMK AO2 SLP097 T01890017 $
2026-04-26 20:56:00,METAR KHND 262056Z 25012G20KT 10SM BKN060 OVC095 18/02 A2980 RMK AO2 SLP099 T01780017 53005 $
2026-04-26 19:56:00,METAR KHND 261956Z 23016G21KT 10SM BKN060 OVC100 18/02 A2979 RMK AO2 PK WND 21027/1905 SLP093 T01780017 $
2026-04-26 18:56:00,METAR KHND 261856Z 23018G23KT 10SM SCT100 17/02 A2979 RMK AO2 PK WND 22026/1818 SLP092 T01720017 $
2026-04-26 17:56:00,METAR KHND 261756Z 21015KT 10SM OVC085 15/02 A2979 RMK AO2 SLP094 T01500017 10156 20111 53016 $
2026-04-26 16:56:00,METAR KHND 261656Z 22018KT 10SM OVC080 16/02 A2977 RMK AO2 SLP084 T01560022 $
2026-04-26 15:56:00,METAR KHND 261556Z 23020KT 10SM BKN090 14/02 A2975 RMK AO2 SLP079 T01390017 $
2026-04-26 14:56:00,METAR KHND 261456Z 20017G24KT 10SM CLR 13/02 A2974 RMK AO2 PK WND 23027/1400 SLP074 T01280022 53013 $
2026-04-26 13:56:00,METAR KHND 261356Z 23023G28KT 10SM CLR 12/02 A2969 RMK AO2 PK WND 22030/1342 SLP059 T01220017 $
2026-04-26 12:56:00,METAR KHND 261256Z 21013KT 10SM SCT049 11/02 A2971 RMK AO2 SLP064 T01110017 $
2026-04-26 11:56:00,METAR KHND 261156Z AUTO 21015G20KT 10SM SCT100 11/02 A2969 RMK AO2 SLP059 60000 T01110017 10139 20111 58005 $
2026-04-26 10:56:00,METAR KHND 261056Z AUTO 23015G18KT 10SM BKN046 BKN060 12/03 A2971 RMK AO2 SLP064 T01170028 $
2026-04-26 09:56:00,METAR KHND 260956Z AUTO 20014G19KT 10SM FEW047 OVC060 12/03 A2970 RMK AO2 SLP062 T01220028 $
2026-04-26 08:56:00,METAR KHND 260856Z AUTO 21016G23KT 10SM SCT047 BKN055 12/02 A2971 RMK AO2 PK WND 21028/0815 SLP064 60000 T01220022 50000 $
2026-04-26 07:56:00,METAR KHND 260756Z AUTO 21015G22KT 10SM FEW070 13/03 A2971 RMK AO2 SLP064 T01280033 $
2026-04-26 06:56:00,METAR KHND 260656Z AUTO 21014KT 10SM BKN055 BKN100 13/05 A2972 RMK AO2 PK WND 24028/0625 RAE08 SLP066 P0000 T01330050 402390133 $
2026-04-26 05:56:00,METAR KHND 260556Z AUTO 22016G26KT 10SM -RA OVC080 14/06 A2971 RMK AO2 PK WND 24026/0553 RAB45 SLP063 P0000 60000 T01390061 10228 20139 51016 $
2026-04-26 04:56:00,METAR KHND 260456Z AUTO 25009G19KT 10SM OVC100 16/04 A2970 RMK AO2 SLP059 T01610039 $
2026-04-26 03:56:00,METAR KHND 260356Z AUTO 24018KT 10SM OVC110 19/01 A2967 RMK AO2 SLP047 T01890011 $
2026-04-26 02:56:00,METAR KHND 260256Z 27008KT 10SM BKN110 19/01 A2966 RMK AO2 SLP045 T01940006 58005 $
2026-04-26 01:56:00,METAR KHND 260156Z 22013G26KT 10SM OVC095 21/M01 A2967 RMK AO2 PK WND 21026/0150 SLP047 T02061006 $
2026-04-26 00:56:00,METAR KHND 260056Z 23015KT 10SM OVC100 22/M02 A2968 RMK AO2 SLP050 T02171022 $
2026-04-25 23:56:00,METAR KHND 252356Z 23014KT 10SM BKN110 22/M02 A2968 RMK AO2 SLP050 T02221022 10239 20211 56014 $
2026-04-25 22:56:00,METAR KHND 252256Z 21019G25KT 10SM BKN110 22/M02 A2969 RMK AO2 PK WND 22027/2245 SLP052 T02171017 $
2026-04-25 21:56:00,METAR KHND 252156Z 21021G25KT 10SM BKN100 22/M01 A2970 RMK AO2 SLP056 T02171006 $
2026-04-25 20:56:00,METAR KHND 252056Z 22016G24KT 10SM FEW110 22/01 A2973 RMK AO2 PK WND 22028/2009 SLP064 T02170006 56008 $
2026-04-25 19:56:00,METAR KHND 251956Z 23015KT 10SM CLR 23/00 A2973 RMK AO2 PK WND 21028/1906 SLP063 T02280000 $
2026-04-25 18:56:00,METAR KHND 251856Z 22016G22KT 10SM CLR 23/00 A2974 RMK AO2 SLP067 T02330000 $
2026-04-25 17:56:00,METAR KHND 251756Z 21015KT 10SM CLR 23/M01 A2975 RMK AO2 SLP070 T02281006 10228 20161 56000 $
2026-04-25 16:56:00,METAR KHND 251656Z 22014G22KT 10SM CLR 22/01 A2976 RMK AO2 SLP072 T02170006 $
2026-04-25 15:56:00,METAR KHND 251556Z 20014KT 10SM CLR 20/00 A2974 RMK AO2 SLP069 T02000000 $
2026-04-25 14:56:00,METAR KHND 251456Z 21013G17KT 10SM CLR 18/00 A2975 RMK AO2 SLP071 T01830000 53015 $
2026-04-25 13:56:00,METAR KHND 251356Z 18014KT 10SM CLR 17/M01 A2972 RMK AO2 SLP061 T01671011 $
2026-04-25 12:56:00,METAR KHND 251256Z AUTO 17015KT 10SM CLR 16/M01 A2971 RMK AO2 SLP058 T01611011 $
2026-04-25 11:56:00,METAR KHND 251156Z AUTO 17014KT 10SM CLR 16/01 A2971 RMK AO2 SLP055 T01610006 10211 20161 58009 $
2026-04-25 10:56:00,METAR KHND 251056Z AUTO 20015KT 10SM CLR 17/01 A2972 RMK AO2 SLP061 T01670011 $
2026-04-25 09:56:00,METAR KHND 250956Z AUTO 21014KT 10SM CLR 18/00 A2973 RMK AO2 SLP063 T01780000 $
2026-04-25 08:56:00,METAR KHND 250856Z AUTO 20014KT 10SM CLR 18/M01 A2973 RMK AO2 SLP065 T01831011 58003 $
2026-04-25 07:56:00,METAR KHND 250756Z AUTO 21010KT 10SM CLR 19/M02 A2975 RMK AO2 SLP068 T01891017 $
2026-04-25 06:56:00,METAR KHND 250656Z AUTO 20013KT 10SM CLR 20/M03 A2976 RMK AO2 SLP072 T02001033 402780133 $
2026-04-25 05:56:00,METAR KHND 250556Z AUTO 19011KT 10SM CLR 21/M04 A2974 RMK AO2 SLP066 T02111039 10272 20211 51011 $
2026-04-25 04:56:00,METAR KHND 250456Z AUTO 19011KT 10SM CLR 21/M11 A2974 RMK AO2 SLP065 T02111106 $
2026-04-25 03:56:00,METAR KHND 250356Z AUTO 21007KT 10SM CLR 22/M12 A2973 RMK AO2 SLP063 T02221122 $
2026-04-25 02:56:00,METAR KHND 250256Z 23011KT 10SM CLR 24/M12 A2971 RMK AO2 SLP057 T02391122 55005 $
2026-04-25 01:56:00,METAR KHND 250156Z 23015KT 10SM CLR 25/M11 A2971 RMK AO2 SLP058 T02501106 $
2026-04-25 00:56:00,METAR KHND 250056Z 24016G24KT 10SM CLR 26/M13 A2971 RMK AO2 SLP059 T02611133 $
2026-04-24 23:56:00,METAR KHND 242356Z 23017G22KT 10SM CLR 27/M11 A2973 RMK AO2 PK WND 21026/2319 SLP063 T02721111 10278 20239 56021 $
2026-04-24 22:56:00,METAR KHND 242256Z 24016KT 10SM CLR 27/M09 A2974 RMK AO2 SLP066 T02721094 $
2026-04-24 21:56:00,METAR KHND 242156Z 25014G20KT 10SM CLR 28/M10 A2977 RMK AO2 SLP076 T02781100 $
2026-04-24 20:56:00,METAR KHND 242056Z 20009G15KT 10SM CLR 26/M08 A2979 RMK AO2 SLP085 T02611083 56024 $
2026-04-24 19:56:00,METAR KHND 241956Z 22013G21KT 10SM CLR 26/M10 A2981 RMK AO2 SLP092 T02611100 $
2026-04-24 18:56:00,METAR KHND 241856Z 20010G16KT 10SM CLR 26/M12 A2983 RMK AO2 SLP099 T02561117 $
2026-04-24 17:56:00,METAR KHND 241756Z 17007KT 10SM CLR 24/M11 A2987 RMK AO2 SLP111 T02441111 10244 20133 56005 $
2026-04-24 16:56:00,METAR KHND 241656Z 23009KT 10SM CLR 23/M10 A2987 RMK AO2 SLP113 T02281100 $
2026-04-24 15:56:00,METAR KHND 241556Z 25005KT 10SM CLR 21/M08 A2987 RMK AO2 SLP114 T02061083 $
2026-04-24 14:56:00,METAR KHND 241456Z 20010KT 10SM CLR 18/M09 A2988 RMK AO2 SLP119 T01781089 52004 $
2026-04-24 13:56:00,METAR KHND 241356Z 22010KT 10SM CLR 14/M09 A2988 RMK AO2 SLP121 T01441089 $
2026-04-24 12:56:00,METAR KHND 241256Z 21011KT 10SM CLR 13/M09 A2987 RMK AO2 SLP116 T01331094 $
2026-04-24 11:56:00,METAR KHND 241156Z AUTO 22011KT 10SM CLR 13/M09 A2987 RMK AO2 SLP117 T01331094 10172 20133 56006 $
2026-04-24 10:56:00,METAR KHND 241056Z AUTO 21011KT 10SM CLR 14/M09 A2987 RMK AO2 SLP117 T01441094 $
2026-04-24 09:56:00,METAR KHND 240956Z AUTO 20007KT 10SM CLR 14/M09 A2988 RMK AO2 SLP118 T01391094 $
2026-04-24 08:56:00,METAR KHND 240856Z AUTO 20008KT 10SM CLR 16/M09 A2989 RMK AO2 SLP122 T01561094 58007 $
2026-04-24 07:56:00,METAR KHND 240756Z AUTO 21009KT 10SM CLR 16/M10 A2991 RMK AO2 SLP129 T01561100 $
2026-04-24 06:56:00,METAR KHND 240656Z AUTO 22006KT 10SM CLR 16/M09 A2991 RMK AO2 SLP131 T01611094 402440111 $
2026-04-24 05:56:00,METAR KHND 240556Z AUTO 19006KT 10SM CLR 17/M08 A2991 RMK AO2 SLP130 T01721083 10244 20172 51008 $
2026-04-24 04:56:00,METAR KHND 240456Z AUTO 18005KT 10SM CLR 18/M09 A2991 RMK AO2 SLP130 T01831089 $
2026-04-24 03:56:00,METAR KHND 240356Z AUTO 21007KT 10SM CLR 21/M08 A2990 RMK AO2 SLP127 T02061083 $
2026-04-24 02:56:00,METAR KHND 240256Z 19008KT 10SM CLR 22/M08 A2989 RMK AO2 SLP122 T02171078 55004 $
2026-04-24 01:56:00,METAR KHND 240156Z 17006KT 10SM CLR 23/M07 A2988 RMK AO2 SLP121 T02331067 $
2026-04-24 00:56:00,METAR KHND 240056Z 23003KT 10SM CLR 23/M07 A2989 RMK AO2 SLP124 T02331072 $
2026-04-23 23:56:00,METAR KHND 232356Z VRB05KT 10SM CLR 23/M07 A2990 RMK AO2 SLP129 T02331072 10244 20200 56022 $
2026-04-23 22:56:00,METAR KHND 232256Z 00000KT 10SM CLR 23/M07 A2992 RMK AO2 SLP133 T02331072 $
2026-04-23 21:56:00,METAR KHND 232156Z VRB03KT 10SM CLR 23/M07 A2995 RMK AO2 SLP141 T02331072 $
2026-04-23 20:56:00,METAR KHND 232056Z 00000KT 10SM CLR 22/M08 A2997 RMK AO2 SLP151 T02221078 58019 $
2026-04-23 19:56:00,METAR KHND 231956Z 04008KT 360V060 10SM CLR 22/M07 A3000 RMK AO2 SLP159 T02221072 $
2026-04-23 18:56:00,METAR KHND 231856Z 03009KT 10SM CLR 21/M07 A3001 RMK AO2 SLP165 T02111067 $
2026-04-23 17:56:00,METAR KHND 231756Z VRB04KT 10SM CLR 20/M08 A3003 RMK AO2 SLP171 T02001078 10200 20111 58002 $
2026-04-23 16:56:00,METAR KHND 231656Z 04008KT 10SM CLR 19/M06 A3004 RMK AO2 SLP176 T01891061 $
2026-04-23 15:56:00,METAR KHND 231556Z 02010KT 10SM CLR 18/M05 A3004 RMK AO2 SLP174 T01831050 $
2026-04-23 14:56:00,METAR KHND 231456Z 21003KT 10SM CLR 15/M04 A3004 RMK AO2 SLP175 T01501039 53016 $
2026-04-23 13:56:00,METAR KHND 231356Z 20005KT 10SM CLR 12/M04 A3001 RMK AO2 SLP170 T01171039 $
2026-04-23 12:56:00,METAR KHND 231256Z 16005KT 10SM CLR 12/M04 A2999 RMK AO2 SLP162 T01171044 $
2026-04-23 11:56:00,METAR KHND 231156Z 19006KT 10SM CLR 11/M06 A2998 RMK AO2 SLP158 T01111056 10178 20111 53007 $
2026-04-23 10:56:00,METAR KHND 231056Z 19006KT 10SM CLR 12/M05 A2998 RMK AO2 SLP154 T01221050 $
2026-04-23 09:56:00,METAR KHND 230956Z 04005KT 10SM CLR 15/M05 A2996 RMK AO2 SLP147 T01501050 $
2026-04-23 08:56:00,METAR KHND 230856Z 17005KT 10SM CLR 14/M05 A2996 RMK AO2 SLP147 T01441050 53013 $
2026-04-23 07:56:00,METAR KHND 230756Z 20009KT 10SM CLR 16/M05 A2995 RMK AO2 SLP143 T01561050 $
2026-04-23 06:56:00,METAR KHND 230656Z 20012KT 10SM CLR 17/M04 A2993 RMK AO2 SLP136 T01671044 402440117 $
2026-04-23 05:56:00,METAR KHND 230556Z 19011KT 10SM CLR 17/M06 A2992 RMK AO2 SLP134 T01721056 10233 20172 50013 $
2026-04-23 04:56:00,METAR KHND 230456Z 17007KT 10SM CLR 18/M07 A2992 RMK AO2 SLP135 T01781067 $
2026-04-23 03:56:00,METAR KHND 230356Z 25005KT 10SM CLR 20/M07 A2990 RMK AO2 SLP129 T02001067 $
2026-04-23 02:56:00,METAR KHND 230256Z 25010G16KT 10SM CLR 21/M06 A2988 RMK AO2 SLP121 T02061061 56008 $
2026-04-23 01:56:00,METAR KHND 230156Z 26012KT 10SM CLR 22/M07 A2988 RMK AO2 SLP122 T02171067 $
2026-04-23 00:56:00,METAR KHND 230056Z 24008KT 10SM CLR 23/M06 A2989 RMK AO2 SLP125 T02281061 $
2026-04-22 23:56:00,METAR KHND 222356Z 24012KT 10SM CLR 23/M05 A2990 RMK AO2 SLP128 T02331050 10244 20189 56018 $
2026-04-22 22:56:00,METAR KHND 222256Z 25010G22KT 10SM CLR 24/M05 A2992 RMK AO2 SLP132 T02441050 $
2026-04-22 21:56:00,METAR KHND 222156Z 22015G22KT 10SM CLR 24/M06 A2994 RMK AO2 PK WND 21026/2125 SLP140 T02391061 $
2026-04-22 20:56:00,METAR KHND 222056Z 21017KT 10SM CLR 23/M08 A2996 RMK AO2 SLP147 T02331083 56024 $
2026-04-22 19:56:00,METAR KHND 221956Z 22016G23KT 10SM CLR 23/M06 A2998 RMK AO2 SLP154 T02281061 $
2026-04-22 18:56:00,METAR KHND 221856Z 19012G20KT 10SM CLR 21/M02 A3001 RMK AO2 SLP166 T02061022 $
2026-04-22 17:56:00,METAR KHND 221756Z 20013G18KT 10SM CLR 19/M02 A3004 RMK AO2 SLP174 T01891017 10189 20117 50001 $
2026-04-22 16:56:00,METAR KHND 221656Z 22015KT 10SM CLR 17/00 A3004 RMK AO2 SLP177 T01720000 $
2026-04-22 15:56:00,METAR KHND 221556Z 21017KT 10SM CLR 16/01 A3004 RMK AO2 SLP176 T01560006 $
2026-04-22 14:56:00,METAR KHND 221456Z 21016KT 10SM CLR 14/01 A3003 RMK AO2 SLP173 T01390011 51007 $
2026-04-22 13:56:00,METAR KHND 221356Z 20015KT 10SM CLR 13/01 A3003 RMK AO2 WSHFT 1309 SLP171 T01280011 $
2026-04-22 13:29:00,SPECI KHND 221329Z 20016KT 10SM CLR 13/01 A3002 RMK AO2 WSHFT 1309 $
2026-04-22 12:56:00,METAR KHND 221256Z 19008KT 10SM CLR 12/01 A3001 RMK AO2 SLP164 T01220011 $
2026-04-22 11:56:00,METAR KHND 221156Z 19011KT 10SM CLR 13/01 A3001 RMK AO2 SLP161 7//// T01280011 10178 20128 51017 $
2026-04-22 10:56:00,METAR KHND 221056Z 23013G21KT 10SM CLR 13/02 A2999 RMK AO2 PK WND 21027/1006 SLP153 T01330017 $
2026-04-22 09:56:00,METAR KHND 220956Z 22016G24KT 10SM CLR 14/02 A2998 RMK AO2 PK WND 21027/0941 SLP149 T01390017 $
2026-04-22 08:56:00,METAR KHND 220856Z 23016G22KT 10SM CLR 14/02 A2996 RMK AO2 PK WND 24026/0830 SLP141 T01440022 50002 $
2026-04-22 07:56:00,METAR KHND 220756Z 23018G27KT 10SM CLR 16/01 A2997 RMK AO2 PK WND 24034/0707 SLP144 T01560011 $
2026-04-22 06:56:00,METAR KHND 220656Z 23024G30KT 10SM CLR 16/01 A2995 RMK AO2 PK WND 20033/0637 SLP138 T01610011 403110161 $
2026-04-22 05:56:00,METAR KHND 220556Z 22019G28KT 10SM CLR 18/01 A2995 RMK AO2 PK WND 22028/0552 SLP139 T01780011 10289 20178 51031 $
2026-04-22 04:56:00,METAR KHND 220456Z 22021KT 10SM CLR 18/04 A2991 RMK AO2 PK WND 21029/0428 SLPNO T01830039 $
2026-04-22 03:56:00,METAR KHND 220356Z 24018G22KT 10SM CLR 20/04 A2990 RMK AO2 SLP120 T02000044 $
2026-04-22 02:56:00,METAR KHND 220256Z 26007KT 10SM CLR 22/04 A2985 RMK AO2 PK WND 21026/0204 SLP105 T02220039 53019 $
2026-04-22 01:56:00,METAR KHND 220156Z 23019G26KT 10SM CLR 24/02 A2981 RMK AO2 PK WND 23034/0129 SLP091 T02440017 $
2026-04-22 00:56:00,METAR KHND 220056Z 23020G26KT 10SM CLR 28/M06 A2978 RMK AO2 PK WND 21033/0039 SLP077 T02781061 $
2026-04-21 23:56:00,METAR KHND 212356Z 22024G30KT 10SM CLR 29/M07 A2979 RMK AO2 PK WND 20038/2317 SLP081 T02891067 10311 20267 56016 $
2026-04-21 22:56:00,METAR KHND 212256Z 21025G29KT 10SM CLR 29/M07 A2981 RMK AO2 PK WND 20035/2206 SLP085 T02941072 $
2026-04-21 21:56:00,METAR KHND 212156Z 19022G34KT 10SM CLR 30/M10 A2982 RMK AO2 PK WND 18034/2151 SLP088 T03001100 $
2026-04-21 20:56:00,METAR KHND 212056Z 19027G30KT 10SM CLR 30/M12 A2985 RMK AO2 PK WND 19032/1957 SLP097 T03001117 56026 $
2026-04-21 19:56:00,METAR KHND 211956Z 19023G29KT 10SM CLR 30/M09 A2987 RMK AO2 PK WND 19030/1945 SLP104 T03001089 $
2026-04-21 18:56:00,METAR KHND 211856Z 22016G23KT 10SM CLR 29/M04 A2990 RMK AO2 SLP114 T02891044 $
2026-04-21 17:56:00,METAR KHND 211756Z AUTO 22012G17KT 10SM CLR 27/M02 A2993 RMK AO2 SLP126 6//// T02671017 10267 20172 $
2026-04-21 15:56:00,METAR KHND 211556Z 23008KT 10SM CLR 23/M02 A2994 RMK AO2 SLP132 T02331017 $
2026-04-21 14:56:00,METAR KHND 211456Z 20007KT 10SM CLR 21/M02 A2994 RMK AO2 SLP131 T02111022 51008 $
2026-04-21 13:56:00,METAR KHND 211356Z 18005KT 10SM CLR 18/M03 A2993 RMK AO2 SLP131 T01781033 $
2026-04-21 12:56:00,METAR KHND 211256Z 18006KT 10SM CLR 18/M02 A2992 RMK AO2 SLP126 T01831022 $
2026-04-21 11:56:00,METAR KHND 211156Z AUTO 16009KT 10SM CLR 19/M01 A2991 RMK AO2 SLP121 T01891006 10244 20178 56001 $
2026-04-21 10:56:00,METAR KHND 211056Z AUTO 17007KT 10SM CLR 18/M02 A2991 RMK AO2 SLP122 T01831017 $
2026-04-21 09:56:00,METAR KHND 210956Z AUTO 22009KT 10SM CLR 19/M02 A2991 RMK AO2 SLP120 T01941022 $
2026-04-21 08:56:00,METAR KHND 210856Z AUTO 23011KT 10SM CLR 21/M03 A2992 RMK AO2 SLP121 T02061028 50001 $
2026-04-21 07:56:00,METAR KHND 210756Z AUTO 20012KT 10SM CLR 22/M03 A2992 RMK AO2 SLP121 T02221028 $
2026-04-21 06:56:00,METAR KHND 210656Z AUTO 21011KT 10SM CLR 23/M03 A2992 RMK AO2 SLP121 T02281033 403220139 $
2026-04-21 05:56:00,METAR KHND 210556Z AUTO 19011KT 10SM CLR 24/M04 A2991 RMK AO2 SLP121 T02441044 10311 20244 50010 $
2026-04-21 04:56:00,METAR KHND 210456Z AUTO 15008KT 10SM CLR 24/M06 A2992 RMK AO2 SLP122 T02441056 $
2026-04-21 03:56:00,METAR KHND 210356Z AUTO 17008KT 10SM CLR 25/M06 A2990 RMK AO2 SLP119 T02501056 $
2026-04-21 02:56:00,METAR KHND 210256Z 19009KT 10SM CLR 26/M07 A2988 RMK AO2 SLP112 T02611067 53002 $
2026-04-21 01:56:00,METAR KHND 210156Z 19015KT 10SM CLR 28/M06 A2987 RMK AO2 SLP110 T02831061 $
2026-04-21 00:56:00,METAR KHND 210056Z 19017G22KT 10SM CLR 30/M06 A2987 RMK AO2 SLP110 T03001056 $
2026-04-20 23:56:00,METAR KHND 202356Z 19017G21KT 10SM CLR 31/M06 A2988 RMK AO2 PK WND 16026/2316 SLP110 T03111061 10322 20267 56014 $
2026-04-20 22:56:00,METAR KHND 202256Z 17015G25KT 10SM CLR 32/M04 A2988 RMK AO2 PK WND 15028/2209 SLP111 T03171039 $
2026-04-20 21:56:00,METAR KHND 202156Z 17020G26KT 10SM CLR 32/M04 A2990 RMK AO2 PK WND 17027/2141 SLP117 T03171039 $
2026-04-20 20:56:00,METAR KHND 202056Z 16020G28KT 10SM CLR 31/M03 A2992 RMK AO2 PK WND 15028/2056 SLP123 T03111028 58022 $
2026-04-20 19:56:00,METAR KHND 201956Z 16019G25KT 10SM CLR 32/M03 A2995 RMK AO2 PK WND 16030/1942 WSHFT 1905 SLP133 T03171033 $
2026-04-20 19:25:00,SPECI KHND 201925Z 16010G16KT 130V190 10SM CLR 31/M04 A2996 RMK AO2 PK WND 15026/1905 WSHFT 1905 $
2026-04-20 18:56:00,METAR KHND 201856Z 13014G21KT 10SM CLR 31/M03 A2996 RMK AO2 SLP137 T03061033 $
2026-04-20 17:56:00,METAR KHND 201756Z 04007KT 10SM CLR 27/M02 A2999 RMK AO2 SLP149 T02671022 10272 20139 51006 $
2026-04-20 16:56:00,METAR KHND 201656Z VRB06KT 10SM CLR 25/M03 A2998 RMK AO2 SLP147 T02501033 $
2026-04-20 15:56:00,METAR KHND 201556Z 00000KT 10SM CLR 24/M05 A2998 RMK AO2 SLP144 T02391050 $
2026-04-20 14:56:00,METAR KHND 201456Z 20004KT 10SM CLR 21/M04 A2996 RMK AO2 SLP140 T02111044 53012 $
2026-04-20 13:56:00,METAR KHND 201356Z 17005KT 10SM SCT110 16/M04 A2994 RMK AO2 SLP137 T01561039 $
2026-04-20 12:56:00,METAR KHND 201256Z 18005KT 10SM CLR 16/M04 A2993 RMK AO2 SLP132 T01561039 $
2026-04-20 11:56:00,METAR KHND 201156Z AUTO 18005KT 10SM CLR 16/M05 A2993 RMK AO2 SLP131 T01561050 10200 20156 53001 $
2026-04-20 10:56:00,METAR KHND 201056Z AUTO 17009KT 10SM CLR 17/M06 A2992 RMK AO2 SLP126 T01721056 $
2026-04-20 09:56:00,METAR KHND 200956Z AUTO 19005KT 10SM CLR 17/M06 A2992 RMK AO2 SLP128 T01671056 $
2026-04-20 08:56:00,METAR KHND 200856Z AUTO 19006KT 10SM CLR 18/M05 A2992 RMK AO2 SLP129 T01781050 50003 $
2026-04-20 07:56:00,METAR KHND 200756Z AUTO 19007KT 10SM CLR 19/M05 A2992 RMK AO2 SLP130 T01941050 $
2026-04-20 06:56:00,METAR KHND 200656Z AUTO 19007KT 10SM CLR 19/M04 A2992 RMK AO2 SLP128 T01941044 402940100 $
2026-04-20 05:56:00,METAR KHND 200556Z AUTO 16006KT 10SM FEW120 19/M03 A2991 RMK AO2 SLP126 T01941028 10289 20194 50013 $
2026-04-20 04:56:00,METAR KHND 200456Z AUTO 19006KT 10SM FEW120 22/M05 A2992 RMK AO2 SLP127 T02221050 $
2026-04-20 03:56:00,METAR KHND 200356Z AUTO 29003KT 10SM CLR 24/M08 A2990 RMK AO2 SLP121 T02441083 $
2026-04-20 02:56:00,METAR KHND 200256Z 00000KT 10SM CLR 27/M09 A2987 RMK AO2 SLP111 T02721089 53001 $
2026-04-20 01:56:00,METAR KHND 200156Z 36006KT 10SM CLR 28/M09 A2986 RMK AO2 SLP110 T02781094 $
2026-04-20 00:56:00,METAR KHND 200056Z 05010KT 10SM CLR 29/M09 A2986 RMK AO2 SLP110 T02891094 $
2026-04-19 23:56:00,METAR KHND 192356Z 04010KT 10SM CLR 28/M11 A2987 RMK AO2 SLP114 T02831106 10294 20222 56028 $
2026-04-19 22:56:00,METAR KHND 192256Z VRB03KT 10SM CLR 29/M11 A2989 RMK AO2 SLP120 T02891106 $
2026-04-19 21:56:00,METAR KHND 192156Z VRB04KT 10SM CLR 28/M11 A2992 RMK AO2 SLP132 T02781111 $
2026-04-19 20:56:00,METAR KHND 192056Z VRB04KT 10SM CLR 26/M12 A2996 RMK AO2 SLP146 T02561122 58015 $
2026-04-19 19:56:00,METAR KHND 191956Z VRB03KT 10SM CLR 24/M13 A2998 RMK AO2 SLP154 T02441133 $
2026-04-19 18:56:00,METAR KHND 191856Z 30004KT 10SM CLR 23/M14 A3000 RMK AO2 SLP161 T02331144 $
2026-04-19 17:56:00,METAR KHND 191756Z 03004KT 10SM CLR 22/M14 A3001 RMK AO2 SLP164 T02221144 10222 20100 50000 $
2026-04-19 16:56:00,METAR KHND 191656Z 00000KT 10SM CLR 21/M14 A3001 RMK AO2 SLP165 T02111144 $
2026-04-19 15:56:00,METAR KHND 191556Z 27003KT 10SM CLR 20/M14 A3000 RMK AO2 SLP162 T02001139 $
2026-04-19 14:56:00,METAR KHND 191456Z 00000KT 10SM CLR 17/M13 A3000 RMK AO2 SLP161 T01721133 53006 $
2026-04-19 13:56:00,METAR KHND 191356Z 17007KT 10SM CLR 11/M11 A2999 RMK AO2 SLP160 T01111111 $
2026-04-19 12:56:00,METAR KHND 191256Z 17007KT 10SM CLR 11/M12 A2998 RMK AO2 SLP156 T01061117 $
2026-04-19 11:56:00,METAR KHND 191156Z AUTO 16006KT 10SM CLR 11/M14 A2998 RMK AO2 SLP158 T01111144 10144 20100 56005 $
2026-04-19 10:56:00,METAR KHND 191056Z AUTO 17006KT 10SM CLR 11/M14 A2999 RMK AO2 SLP159 T01111144 $
2026-04-19 09:56:00,METAR KHND 190956Z AUTO 18007KT 10SM CLR 12/M16 A2999 RMK AO2 SLP160 T01221156 $
2026-04-19 08:56:00,METAR KHND 190856Z AUTO 17006KT 10SM CLR 12/M16 A3000 RMK AO2 SLP162 T01221156 58001 $
2026-04-19 07:56:00,METAR KHND 190756Z AUTO 18005KT 10SM CLR 12/M15 A3001 RMK AO2 SLP167 T01221150 $
2026-04-19 06:56:00,METAR KHND 190656Z AUTO 18004KT 10SM CLR 14/M15 A3001 RMK AO2 SLP166 T01391150 402440056 $
2026-04-19 05:56:00,METAR KHND 190556Z AUTO 16007KT 10SM CLR 14/M11 A3000 RMK AO2 SLP165 T01391111 10239 20139 50004 $
2026-04-19 04:56:00,METAR KHND 190456Z AUTO 18006KT 10SM CLR 16/M11 A3001 RMK AO2 SLP169 T01561106 $
2026-04-19 03:56:00,METAR KHND 190356Z AUTO 16007KT 10SM CLR 17/M09 A3001 RMK AO2 SLP167 T01721094 $
2026-04-19 02:56:00,METAR KHND 190256Z 00000KT 10SM CLR 21/M14 A2999 RMK AO2 SLP160 T02111139 55006 $
2026-04-19 01:56:00,METAR KHND 190156Z 32004KT 10SM CLR 23/M16 A2999 RMK AO2 SLP161 T02281156 $
2026-04-19 00:56:00,METAR KHND 190056Z 36006KT 10SM CLR 24/M16 A2999 RMK AO2 SLP164 T02391156 $
2026-04-18 23:56:00,METAR KHND 182356Z 06004KT 10SM CLR 23/M16 A3001 RMK AO2 SLP168 T02331156 10244 20194 56024 $
2026-04-18 22:56:00,METAR KHND 182256Z 12003KT 10SM CLR 24/M16 A3002 RMK AO2 SLP172 T02391156 $
2026-04-18 21:56:00,METAR KHND 182156Z 03008KT 360V070 10SM CLR 23/M16 A3005 RMK AO2 SLP185 T02281161 $
2026-04-18 20:56:00,METAR KHND 182056Z 03011G15KT 10SM CLR 23/M16 A3008 RMK AO2 SLP194 T02331161 58022 $
2026-04-18 19:56:00,METAR KHND 181956Z 01008KT 10SM CLR 21/M16 A3012 RMK AO2 SLP206 T02111161 $
2026-04-18 18:56:00,METAR KHND 181856Z VRB06KT 10SM CLR 21/M17 A3014 RMK AO2 SLP214 T02061167 $
2026-04-18 17:56:00,METAR KHND 181756Z 02011KT 10SM CLR 19/M16 A3015 RMK AO2 SLP218 T01941161 10194 20056 50001 $
2026-04-18 16:56:00,METAR KHND 181656Z 03009G14KT 10SM CLR 18/M16 A3016 RMK AO2 SLP220 T01781161 $
2026-04-18 15:56:00,METAR KHND 181556Z VRB05KT 10SM CLR 16/M15 A3016 RMK AO2 SLP221 T01561150 $
2026-04-18 14:56:00,METAR KHND 181456Z 00000KT 10SM CLR 13/M16 A3015 RMK AO2 SLP218 T01281156 53016 $
2026-04-18 13:56:00,METAR KHND 181356Z 15005KT 10SM CLR 08/M13 A3013 RMK AO2 SLP215 T00781128 $
2026-04-18 12:56:00,METAR KHND 181256Z AUTO 17005KT 10SM CLR 06/M13 A3011 RMK AO2 SLP210 T00561128 $
2026-04-18 11:56:00,METAR KHND 181156Z AUTO 18004KT 10SM CLR 07/M14 A3010 RMK AO2 SLP203 T00721139 10128 20067 58001 $
2026-04-18 10:56:00,METAR KHND 181056Z AUTO 18003KT 10SM CLR 08/M16 A3010 RMK AO2 SLP204 T00781161 $
2026-04-18 09:56:00,METAR KHND 180956Z AUTO 00000KT 10SM CLR 07/M14 A3010 RMK AO2 SLP205 T00721139 $
2026-04-18 08:56:00,METAR KHND 180856Z AUTO 18006KT 10SM CLR 07/M15 A3010 RMK AO2 SLP206 T00721150 50000 $
2026-04-18 07:56:00,METAR KHND 180756Z AUTO 17004KT 10SM CLR 08/M14 A3010 RMK AO2 SLP208 T00831139 $
2026-04-18 06:56:00,METAR KHND 180656Z AUTO 15006KT 10SM CLR 10/M12 A3010 RMK AO2 SLP205 T01001122 401940094 $
2026-04-18 05:56:00,METAR KHND 180556Z AUTO 33003KT 10SM CLR 13/M15 A3010 RMK AO2 SLP204 T01281150 10194 20122 51011 $
2026-04-18 04:56:00,METAR KHND 180456Z AUTO 21003KT 10SM CLR 13/M15 A3010 RMK AO2 SLP204 T01281150 $
2026-04-18 03:56:00,METAR KHND 180356Z AUTO 09004KT 10SM CLR 14/M16 A3008 RMK AO2 SLP197 T01441161 $
2026-04-18 02:56:00,METAR KHND 180256Z 06005KT 10SM CLR 17/M18 A3007 RMK AO2 SLP191 T01671183 55003 $
2026-04-18 01:56:00,METAR KHND 180156Z 05007KT 10SM CLR 18/M19 A3006 RMK AO2 SLP189 T01781194 $
2026-04-18 00:56:00,METAR KHND 180056Z 05010KT 10SM CLR 18/M21 A3006 RMK AO2 SLP190 T01831206 $
2026-04-17 23:56:00,METAR KHND 172356Z 06013KT 10SM CLR 19/M19 A3008 RMK AO2 SLP193 T01891194 10194 20133 56023 $
2026-04-17 22:56:00,METAR KHND 172256Z 04011KT 10SM CLR 18/M19 A3009 RMK AO2 SLP197 T01831194 $
2026-04-17 21:56:00,METAR KHND 172156Z 03015G19KT 10SM CLR 18/M19 A3012 RMK AO2 SLP207 T01831194 $
2026-04-17 20:56:00,METAR KHND 172056Z 05015G19KT 10SM CLR 17/M19 A3015 RMK AO2 SLP217 T01721194 58020 $
2026-04-17 19:56:00,METAR KHND 171956Z 01018G22KT 10SM CLR 16/M19 A3017 RMK AO2 PK WND 03027/1930 SLP223 T01611194 $
2026-04-17 18:56:00,METAR KHND 171856Z 01016G26KT 10SM CLR 15/M19 A3020 RMK AO2 PK WND 02026/1849 SLP232 T01501194 $
2026-04-17 17:56:00,METAR KHND 171756Z 01018G22KT 10SM CLR 14/M19 A3021 RMK AO2 PK WND 03026/1706 SLP236 T01391194 10144 20094 51009 $
2026-04-17 16:56:00,METAR KHND 171656Z 36017G23KT 10SM CLR 13/M20 A3021 RMK AO2 SLP237 T01281200 $
2026-04-17 15:56:00,METAR KHND 171556Z 36016G22KT 10SM CLR 12/M20 A3020 RMK AO2 SLP234 T01171200 $
2026-04-17 14:56:00,METAR KHND 171456Z 01019G23KT 10SM CLR 11/M18 A3018 RMK AO2 SLP227 T01061183 51034 $
2026-04-17 13:56:00,METAR KHND 171356Z 01020G25KT 10SM CLR 09/M19 A3015 RMK AO2 PK WND 01031/1309 SLP216 T00941194 $
2026-04-17 12:56:00,METAR KHND 171256Z 01022G29KT 10SM CLR 09/M17 A3011 RMK AO2 PK WND 01033/1227 SLP202 T00941172 $
2026-04-17 11:56:00,METAR KHND 171156Z AUTO 03018G25KT 10SM CLR 10/M15 A3007 RMK AO2 PK WND 36039/1110 SLP188 T01001150 10206 20100 51035 $
2026-04-17 10:56:00,METAR KHND 171056Z AUTO 02025G39KT 10SM CLR 11/M14 A3004 RMK AO2 PK WND 36039/1054 SLP175 T01111144 $
2026-04-17 09:56:00,METAR KHND 170956Z AUTO 02025G35KT 10SM CLR 12/M14 A3001 RMK AO2 PK WND 01045/0945 SLP162 T01221139 $
2026-04-17 08:56:00,METAR KHND 170856Z AUTO 02018G27KT 10SM CLR 14/M14 A2996 RMK AO2 PK WND 36033/0846 SLP147 T01391139 51044 $
2026-04-17 07:56:00,METAR KHND 170756Z AUTO 02015G20KT 10SM CLR 17/M14 A2993 RMK AO2 SLP133 T01671144 $
2026-04-17 06:56:00,METAR KHND 170656Z AUTO 02013KT 10SM CLR 19/M16 A2986 RMK AO2 SLP109 T01941161 402670167 $
2026-04-17 05:56:00,METAR KHND 170556Z AUTO 01006KT 10SM CLR 20/M06 A2982 RMK AO2 SLP096 T02001056 10250 20194 53022 $
2026-04-17 04:56:00,METAR KHND 170456Z AUTO 21007KT 10SM CLR 19/M02 A2978 RMK AO2 SLP082 T01941022 $
2026-04-17 03:56:00,METAR KHND 170356Z AUTO 19009KT 10SM CLR 21/M02 A2977 RMK AO2 SLP078 T02061017 $
2026-04-17 02:56:00,METAR KHND 170256Z 21009KT 10SM CLR 23/M03 A2976 RMK AO2 SLP073 T02281028 53002 $
2026-04-17 01:56:00,METAR KHND 170156Z 22016G22KT 10SM CLR 23/M02 A2974 RMK AO2 PK WND 21027/0100 SLP067 T02331022 $
2026-04-17 00:56:00,METAR KHND 170056Z 20020G25KT 10SM CLR 24/M02 A2974 RMK AO2 PK WND 21026/0031 SLP066 T02441017 $
2026-04-16 23:56:00,METAR KHND 162356Z 23016G23KT 10SM CLR 25/M02 A2975 RMK AO2 PK WND 20026/2310 SLP071 T02501022 10267 20228 56016 $
2026-04-16 22:56:00,METAR KHND 162256Z 24015G24KT 10SM CLR 26/M03 A2976 RMK AO2 PK WND 24026/2230 SLP073 T02561033 $
2026-04-16 21:56:00,METAR KHND 162156Z 22019G24KT 10SM CLR 26/M06 A2978 RMK AO2 PK WND 20028/2106 SLP077 T02611056 $
2026-04-16 20:56:00,METAR KHND 162056Z 22014G24KT 10SM CLR 26/M04 A2980 RMK AO2 SLP087 T02561039 58017 $
2026-04-16 19:56:00,METAR KHND 161956Z 20019G24KT 10SM CLR 25/M08 A2983 RMK AO2 PK WND 20028/1916 SLP097 T02501078 $
2026-04-16 18:56:00,METAR KHND 161856Z 21014G24KT 10SM CLR 23/M06 A2984 RMK AO2 SLP102 T02331061 $
2026-04-16 17:56:00,METAR KHND 161756Z 20015G25KT 10SM CLR 22/M06 A2986 RMK AO2 SLP106 T02221061 10222 20167 58006 $
2026-04-16 16:56:00,METAR KHND 161656Z 22012KT 10SM CLR 21/M04 A2988 RMK AO2 SLP114 T02111039 $
2026-04-16 15:56:00,METAR KHND 161556Z 19015KT 10SM CLR 20/M02 A2987 RMK AO2 SLP110 T02001022 $
2026-04-16 14:56:00,METAR KHND 161456Z 20010KT 10SM CLR 19/M01 A2987 RMK AO2 SLP113 T01891006 53012 $
2026-04-16 13:56:00,METAR KHND 161356Z 16011KT 10SM CLR 18/01 A2985 RMK AO2 SLP106 T01780006 $
2026-04-16 12:56:00,METAR KHND 161256Z 18013KT 10SM CLR 17/01 A2984 RMK AO2 SLP102 T01720006 $
2026-04-16 11:56:00,METAR KHND 161156Z 20013KT 10SM CLR 17/01 A2984 RMK AO2 SLP100 T01720011 10206 20167 58010 $
2026-04-16 10:56:00,METAR KHND 161056Z 17010KT 10SM CLR 18/00 A2986 RMK AO2 SLP106 T01780000 $
2026-04-16 09:56:00,METAR KHND 160956Z 19016KT 10SM CLR 19/M01 A2985 RMK AO2 SLP104 T01891011 $
2026-04-16 08:56:00,METAR KHND 160856Z 21013KT 10SM CLR 19/M02 A2987 RMK AO2 SLP110 T01891017 58010 $
2026-04-16 07:56:00,METAR KHND 160756Z 23008KT 10SM CLR 18/M04 A2989 RMK AO2 SLP118 T01831039 $
2026-04-16 06:56:00,METAR KHND 160656Z 23009KT 10SM CLR 19/M05 A2990 RMK AO2 SLP121 T01941050 402780122 $
2026-04-16 05:56:00,METAR KHND 160556Z 24007KT 10SM CLR 21/M04 A2990 RMK AO2 SLP121 T02061044 10272 20200 50002 $
2026-04-16 04:56:00,METAR KHND 160456Z 22007KT 10SM CLR 21/M06 A2991 RMK AO2 SLP126 T02111056 $
2026-04-16 03:56:00,METAR KHND 160356Z 23008KT 10SM CLR 23/M06 A2991 RMK AO2 SLP126 T02281061 $
2026-04-16 02:56:00,METAR KHND 160256Z 24011KT 10SM CLR 23/M08 A2989 RMK AO2 SLP122 T02331078 53000 $
2026-04-16 01:56:00,METAR KHND 160156Z 24010KT 10SM CLR 25/M09 A2988 RMK AO2 SLP119 T02501094 $
2026-04-16 00:56:00,METAR KHND 160056Z 23014G20KT 10SM CLR 27/M07 A2988 RMK AO2 SLP117 T02671067 $
2026-04-15 23:56:00,METAR KHND 152356Z 26009KT 10SM CLR 27/M06 A2989 RMK AO2 SLP120 T02721056 10278 20222 56024 $
2026-04-15 22:56:00,METAR KHND 152256Z 24011G17KT 10SM CLR 27/M07 A2991 RMK AO2 SLP124 T02721067 $
2026-04-15 21:56:00,METAR KHND 152156Z 19011G15KT 170V230 10SM CLR 27/M06 A2994 RMK AO2 SLP135 T02721056 $
2026-04-15 20:56:00,METAR KHND 152056Z 24008KT 10SM CLR 26/M06 A2997 RMK AO2 SLP146 T02611056 58023 $
2026-04-15 19:56:00,METAR KHND 151956Z 18008G16KT 10SM CLR 24/M06 A3000 RMK AO2 SLP156 T02441061 $
2026-04-15 18:56:00,METAR KHND 151856Z VRB04KT 10SM CLR 24/M04 A3002 RMK AO2 SLP165 T02391044 $
2026-04-15 17:56:00,METAR KHND 151756Z 24007G14KT 180V260 10SM CLR 22/M04 A3004 RMK AO2 SLP173 T02221044 10228 20122 50000 $
2026-04-15 16:56:00,METAR KHND 151656Z 22011KT 10SM CLR 22/M03 A3004 RMK AO2 SLP173 T02221033 $
2026-04-15 15:56:00,METAR KHND 151556Z 22005KT 10SM CLR 18/M04 A3004 RMK AO2 SLP175 T01831039 $
2026-04-15 14:56:00,METAR KHND 151456Z 23011KT 10SM CLR 16/M05 A3004 RMK AO2 SLP174 T01561050 53011 $
2026-04-15 13:56:00,METAR KHND 151356Z 21009KT 10SM CLR 13/M07 A3002 RMK AO2 SLP171 T01331067 $
2026-04-15 12:56:00,METAR KHND 151256Z 21009KT 10SM CLR 13/M07 A3000 RMK AO2 SLP164 T01331072 $
2026-04-15 11:56:00,METAR KHND 151156Z AUTO 21011KT 10SM CLR 13/M08 A3000 RMK AO2 SLP162 T01331078 10167 20128 52001 $
2026-04-15 10:56:00,METAR KHND 151056Z AUTO 21010KT 10SM CLR 14/M08 A3000 RMK AO2 SLP161 T01391083 $
2026-04-15 09:56:00,METAR KHND 150956Z AUTO 19012KT 10SM CLR 15/M09 A3000 RMK AO2 SLP160 T01501089 $
2026-04-15 08:56:00,METAR KHND 150856Z AUTO 21009KT 10SM CLR 15/M09 A3000 RMK AO2 SLP161 T01501089 50000 $
2026-04-15 07:56:00,METAR KHND 150756Z AUTO 21011KT 10SM CLR 16/M09 A3000 RMK AO2 SLP163 T01611089 $
2026-04-15 06:56:00,METAR KHND 150656Z AUTO 21009KT 10SM CLR 16/M09 A3000 RMK AO2 SLP162 T01561089 402330094 $
2026-04-15 05:56:00,METAR KHND 150556Z AUTO 17006KT 10SM CLR 17/M08 A3000 RMK AO2 SLP162 T01671083 10233 20167 50008 $
2026-04-15 04:56:00,METAR KHND 150456Z AUTO 19006KT 10SM CLR 18/M08 A3000 RMK AO2 SLP164 T01781083 $
2026-04-15 03:56:00,METAR KHND 150356Z AUTO 22009KT 10SM CLR 19/M09 A3000 RMK AO2 SLP162 T01941089 $
2026-04-15 02:56:00,METAR KHND 150256Z 22009KT 10SM CLR 21/M07 A2997 RMK AO2 SLP155 T02061072 53001 $
2026-04-15 01:56:00,METAR KHND 150156Z 24007KT 10SM CLR 22/M07 A2996 RMK AO2 SLP152 T02221072 $
2026-04-15 00:56:00,METAR KHND 150056Z 34005KT 10SM CLR 23/M05 A2996 RMK AO2 SLP151 T02281050 $
2026-04-14 23:56:00,METAR KHND 142356Z VRB03KT 10SM CLR 23/M05 A2997 RMK AO2 SLP154 T02281050 10233 20178 56018 $
2026-04-14 22:56:00,METAR KHND 142256Z 00000KT 10SM CLR 23/M03 A2998 RMK AO2 SLP155 T02331033 $
2026-04-14 21:56:00,METAR KHND 142156Z 23007KT 4SM HZ CLR 23/M03 A3000 RMK AO2 SLP162 T02281028 $
2026-04-14 20:56:00,METAR KHND 142056Z 26005KT 10SM CLR 22/M02 A3003 RMK AO2 SLP172 T02171022 58015 $
2026-04-14 19:56:00,METAR KHND 141956Z 25006KT 10SM CLR 21/M02 A3005 RMK AO2 SLP181 T02061017 $
2026-04-14 18:56:00,METAR KHND 141856Z VRB04KT 9SM CLR 19/00 A3007 RMK AO2 SLP187 T01940000 $
2026-04-14 17:56:00,METAR KHND 141756Z 26005KT 10SM CLR 19/01 A3007 RMK AO2 SLP190 T01890006 10189 20094 53008 $
2026-04-14 16:56:00,METAR KHND 141656Z 31004KT 10SM CLR 17/01 A3006 RMK AO2 SLP187 T01720006 $
2026-04-14 15:56:00,METAR KHND 141556Z VRB04KT 10SM CLR 15/01 A3005 RMK AO2 SLP184 T01500011 $
2026-04-14 14:56:00,METAR KHND 141456Z 20007KT 10SM CLR 13/01 A3005 RMK AO2 SLP184 T01280006 53016 $
2026-04-14 13:56:00,METAR KHND 141356Z 21008KT 10SM CLR 10/00 A3002 RMK AO2 SLP176 T01000000 $
2026-04-14 12:56:00,METAR KHND 141256Z 21009KT 10SM CLR 10/00 A3000 RMK AO2 SLP168 T01000000 $
2026-04-14 11:56:00,METAR KHND 141156Z AUTO 21007KT 10SM FEW070 11/00 A2999 RMK AO2 SLP166 T01060000 10139 20106 53007 $
2026-04-14 10:56:00,METAR KHND 141056Z AUTO 22010KT 10SM SCT065 OVC080 12/00 A2999 RMK AO2 SLP162 T01170000 $
2026-04-14 09:56:00,METAR KHND 140956Z AUTO 21008KT 10SM BKN090 12/00 A2997 RMK AO2 SLP156 T01220000 $
2026-04-14 08:56:00,METAR KHND 140856Z AUTO 13004KT 10SM SCT110 12/00 A2997 RMK AO2 SLP155 T01220000 50008 $
2026-04-14 07:56:00,METAR KHND 140756Z AUTO 16005KT 10SM CLR 13/00 A2997 RMK AO2 SLP156 T01280000 $
2026-04-14 06:56:00,METAR KHND 140656Z AUTO 17008KT 10SM BKN100 OVC120 14/00 A2995 RMK AO2 SLP149 T01390000 402000106 $
2026-04-14 05:56:00,METAR KHND 140556Z AUTO 21015KT 10SM BKN100 BKN120 14/01 A2994 RMK AO2 SLP147 T01390006 10189 20139 50015 $
2026-04-14 04:56:00,METAR KHND 140456Z AUTO 23010KT 10SM FEW090 SCT120 14/01 A2995 RMK AO2 SLP149 T01390006 $
2026-04-14 03:56:00,METAR KHND 140356Z AUTO 25008KT 10SM SCT100 14/M01 A2993 RMK AO2 SLP142 T01441006 $
2026-04-14 02:56:00,METAR KHND 140256Z 20008KT 10SM OVC095 16/M01 A2990 RMK AO2 SLP132 T01561006 53010 $
2026-04-14 01:56:00,METAR KHND 140156Z 26012KT 10SM CLR 17/M06 A2986 RMK AO2 SLP118 T01721056 $
2026-04-14 00:56:00,METAR KHND 140056Z 24009G16KT 10SM CLR 18/M06 A2985 RMK AO2 SLP115 T01831056 $
2026-04-13 23:56:00,METAR KHND 132356Z 24010KT 10SM OVC110 18/M05 A2987 RMK AO2 SLP120 T01831050 10200 20172 56014 $
2026-04-13 22:56:00,METAR KHND 132256Z 22012KT 10SM OVC085 18/M03 A2988 RMK AO2 SLP126 T01781028 $
2026-04-13 21:56:00,METAR KHND 132156Z 22010G15KT 10SM OVC085 18/M03 A2989 RMK AO2 SLP128 T01831028 $
2026-04-13 20:56:00,METAR KHND 132056Z 23011KT 10SM BKN095 19/M03 A2991 RMK AO2 SLP133 T01941028 58020 $
2026-04-13 19:56:00,METAR KHND 131956Z 23008G17KT 10SM CLR 19/M02 A2993 RMK AO2 SLP139 T01941022 $
2026-04-13 18:56:00,METAR KHND 131856Z 22010KT 200V260 10SM CLR 18/M02 A2995 RMK AO2 SLP149 T01831017 $
2026-04-13 17:56:00,METAR KHND 131756Z 22010G16KT 10SM CLR 17/M02 A2997 RMK AO2 SLP155 T01721017 10172 20106 58003 $
2026-04-13 16:56:00,METAR KHND 131656Z 21014KT 10SM CLR 16/M01 A2998 RMK AO2 SLP157 T01611006 $
2026-04-13 15:56:00,METAR KHND 131556Z 22009G18KT 10SM CLR 14/01 A2998 RMK AO2 SLP158 T01440011 $
2026-04-13 14:56:00,METAR KHND 131456Z 19010KT 10SM CLR 13/01 A2998 RMK AO2 SLP159 T01280011 53012 $
2026-04-13 13:56:00,METAR KHND 131356Z 18010KT 10SM CLR 11/01 A2996 RMK AO2 SLP153 T01110011 $
2026-04-13 12:56:00,METAR KHND 131256Z 17007KT 10SM CLR 11/01 A2995 RMK AO2 SLP149 T01110011 $
2026-04-13 11:56:00,METAR KHND 131156Z 17009KT 10SM CLR 12/01 A2994 RMK AO2 SLP146 T01170006 10156 20106 52001 $
2026-04-13 10:56:00,METAR KHND 131056Z 20014KT 10SM FEW085 12/01 A2995 RMK AO2 SLP145 T01170006 $
2026-04-13 09:56:00,METAR KHND 130956Z 22015KT 10SM BKN080 13/01 A2993 RMK AO2 SLP141 T01280006 $
2026-04-13 08:56:00,METAR KHND 130856Z 21018KT 10SM FEW085 13/M01 A2994 RMK AO2 SLP142 T01331011 51007 $
2026-04-13 07:56:00,METAR KHND 130756Z 23020G24KT 10SM CLR 14/M03 A2992 RMK AO2 SLP137 T01391028 $
2026-04-13 06:56:00,METAR KHND 130656Z 22014G20KT 10SM CLR 15/M03 A2993 RMK AO2 SLP138 T01501028 402280139 $
2026-04-13 05:56:00,METAR KHND 130556Z 21014G20KT 10SM CLR 16/M02 A2992 RMK AO2 SLP134 T01561017 10194 20156 51017 $
2026-04-13 04:56:00,METAR KHND 130456Z 22015KT 10SM CLR 16/01 A2991 RMK AO2 SLP132 T01610011 $
2026-04-13 03:56:00,METAR KHND 130356Z 20011KT 10SM CLR 17/00 A2990 RMK AO2 SLP130 T01670000 $
2026-04-13 02:56:00,METAR KHND 130256Z 23012KT 10SM CLR 18/03 A2986 RMK AO2 SLP117 T01780033 53002 $
2026-04-13 01:56:00,METAR KHND 130156Z 22015G23KT 10SM CLR 18/04 A2986 RMK AO2 PK WND 24026/0109 SLP116 T01780039 $
2026-04-13 00:56:00,METAR KHND 130056Z 24021G25KT 10SM BKN110 19/03 A2986 RMK AO2 PK WND 25027/0025 SLP116 T01890028 $
2026-04-12 23:56:00,METAR KHND 122356Z 26019G27KT 10SM OVC110 19/03 A2986 RMK AO2 PK WND 24028/2341 SLP115 T01940028 10228 20194 55001 $
2026-04-12 22:56:00,METAR KHND 122256Z 22020G23KT 10SM FEW085 22/01 A2984 RMK AO2 PK WND 24031/2217 SLP104 T02220011 $
2026-04-12 21:56:00,METAR KHND 122156Z 24016G24KT 10SM FEW080 BKN100 22/01 A2986 RMK AO2 SLP111 T02170011 $
2026-04-12 20:56:00,METAR KHND 122056Z 24011G18KT 200V270 10SM FEW075 21/01 A2986 RMK AO2 SLP113 T02110011 58005 $
2026-04-12 19:56:00,METAR KHND 121956Z 26017KT 10SM CLR 21/02 A2987 RMK AO2 PK WND 25031/1934 SLP115 T02110017 $
2026-04-12 18:56:00,METAR KHND 121856Z 23019G25KT 10SM CLR 21/02 A2988 RMK AO2 PK WND 24032/1818 SLP117 T02110017 $
2026-04-12 17:56:00,METAR KHND 121756Z 24025G29KT 10SM CLR 19/02 A2988 RMK AO2 PK WND 23031/1738 SLP118 T01940017 10194 20139 50002 $
2026-04-12 16:56:00,METAR KHND 121656Z 22021G29KT 10SM CLR 18/01 A2988 RMK AO2 PK WND 24030/1619 SLP120 T01830011 $
2026-04-12 15:56:00,METAR KHND 121556Z 24023G29KT 10SM CLR 17/M01 A2987 RMK AO2 PK WND 23029/1552 SLP116 T01721011 $
2026-04-12 14:56:00,METAR KHND 121456Z 21019G27KT 10SM CLR 16/M02 A2987 RMK AO2 PK WND 22027/1447 SLP117 T01611017 53021 $
2026-04-12 13:56:00,METAR KHND 121356Z 19021KT 10SM CLR 14/M02 A2985 RMK AO2 SLP108 T01441017 $
2026-04-12 12:56:00,METAR KHND 121256Z 18016G21KT 10SM CLR 14/M02 A2982 RMK AO2 SLP098 T01441022 $
2026-04-12 11:56:00,METAR KHND 121156Z AUTO 19015KT 10SM CLR 15/M02 A2980 RMK AO2 SLP091 T01501017 10189 20150 55004 $
2026-04-12 10:56:00,METAR KHND 121056Z AUTO 20014KT 10SM CLR 16/01 A2980 RMK AO2 SLP090 T01560011 $
2026-04-12 09:56:00,METAR KHND 120956Z AUTO 22015KT 10SM CLR 16/02 A2980 RMK AO2 SLP092 T01560017 $
2026-04-12 08:56:00,METAR KHND 120856Z AUTO 23010KT 10SM CLR 16/01 A2982 RMK AO2 SLP096 T01610011 56011 $
2026-04-12 07:56:00,METAR KHND 120756Z AUTO 23013KT 10SM CLR 17/01 A2982 RMK AO2 SLP097 T01720011 $
2026-04-12 06:56:00,METAR KHND 120656Z AUTO 21014KT 10SM CLR 18/01 A2984 RMK AO2 SLP104 T01830006 402560139 $
2026-04-12 05:56:00,METAR KHND 120556Z AUTO 22007KT 10SM CLR 19/00 A2985 RMK AO2 SLP107 T01940000 10250 20194 51011 $
2026-04-12 04:56:00,METAR KHND 120456Z AUTO 22009KT 10SM CLR 20/M01 A2984 RMK AO2 SLP105 T02001011 $
2026-04-12 03:56:00,METAR KHND 120356Z AUTO 22006KT 10SM CLR 21/M01 A2984 RMK AO2 SLP104 T02111011 $
2026-04-12 02:56:00,METAR KHND 120256Z 23013G21KT 10SM CLR 22/M02 A2982 RMK AO2 SLP098 T02171017 53001 $
2026-04-12 01:56:00,METAR KHND 120156Z 23010KT 10SM CLR 23/M04 A2981 RMK AO2 SLP094 T02281039 $
2026-04-12 00:56:00,METAR KHND 120056Z 24015KT 10SM CLR 24/M04 A2981 RMK AO2 SLP094 T02391039 $
2026-04-11 23:56:00,METAR KHND 112356Z 23015G24KT 10SM CLR 24/M04 A2981 RMK AO2 PK WND 24026/2307 SLP094 T02441044 10256 20211 56017 $
2026-04-11 22:56:00,METAR KHND 112256Z 20021KT 10SM CLR 25/M05 A2982 RMK AO2 PK WND 21027/2229 SLP096 T02501050 $
2026-04-11 21:56:00,METAR KHND 112156Z 23016G25KT 10SM CLR 24/M03 A2985 RMK AO2 PK WND 21027/2117 SLP106 T02441028 $
2026-04-11 20:56:00,METAR KHND 112056Z 22013G26KT 10SM CLR 24/M03 A2987 RMK AO2 PK WND 23028/2035 SLP111 T02391028 56019 $
2026-04-11 19:56:00,METAR KHND 111956Z 22021G26KT 10SM CLR 23/M03 A2988 RMK AO2 PK WND 22031/1941 SLP115 T02331033 $
2026-04-11 18:56:00,METAR KHND 111856Z 22021G27KT 10SM CLR 22/M02 A2991 RMK AO2 PK WND 21027/1850 SLP127 T02221022 $
2026-04-11 17:56:00,METAR KHND 111756Z 19019G27KT 10SM CLR 21/M02 A2993 RMK AO2 PK WND 21030/1709 SLP132 T02111022 10211 20139 53009 $
2026-04-11 16:56:00,METAR KHND 111656Z 21023G31KT 10SM CLR 19/M02 A2990 RMK AO2 PK WND 21031/1656 SLP124 T01941017 $
2026-04-11 15:56:00,METAR KHND 111556Z 21021G27KT 10SM CLR 18/03 A2991 RMK AO2 PK WND 21027/1556 SLP125 T01780033 $
2026-04-11 14:56:00,METAR KHND 111456Z 22023G28KT 10SM CLR 16/04 A2990 RMK AO2 PK WND 21028/1448 SLP123 T01610044 50008 $
2026-04-11 13:56:00,METAR KHND 111356Z 21017KT 10SM CLR 15/04 A2990 RMK AO2 SLP124 T01500039 $
2026-04-11 13:03:00,METAR KHND 111303Z 17010KT 10SM CLR 14/04 A2989 RMK OZ
2026-04-11 12:56:00,METAR KHND 111256Z 17010KT 10SM CLR 14/04 A2989 RMK AO2 SLP122 T01440044 $
2026-04-11 11:56:00,METAR KHND 111156Z 22013KT 10SM CLR 16/04 A2987 RMK AO2 SLP111 T01560039 10206 20156 53003 $
2026-04-11 10:56:00,METAR KHND 111056Z 21015KT 10SM CLR 16/03 A2985 RMK AO2 SLP104 T01610028 $
2026-04-11 09:56:00,METAR KHND 110956Z 20014G20KT 10SM CLR 17/02 A2985 RMK AO2 SLP104 T01720022 $
2026-04-11 08:56:00,METAR KHND 110856Z 21012KT 10SM CLR 18/03 A2986 RMK AO2 SLP108 T01780028 50004 $
2026-04-11 07:56:00,METAR KHND 110756Z 19013KT 10SM CLR 18/03 A2987 RMK AO2 SLP111 T01830028 $
2026-04-11 06:56:00,METAR KHND 110656Z 22011KT 10SM CLR 19/03 A2985 RMK AO2 SLP103 T01940028 402830189 $
2026-04-11 05:56:00,METAR KHND 110556Z 21012KT 10SM CLR 21/02 A2985 RMK AO2 SLP103 T02060022 10283 20206 51015 $
2026-04-11 04:56:00,METAR KHND 110456Z 21014KT 10SM CLR 22/02 A2985 RMK AO2 SLP102 T02170022 $
2026-04-11 03:56:00,METAR KHND 110356Z 22013KT 10SM CLR 23/02 A2983 RMK AO2 SLP098 T02280017 $
2026-04-11 02:56:00,METAR KHND 110256Z 21014KT 10SM BKN100 24/02 A2980 RMK AO2 PK WND 18027/0220 SLP088 T02440022 55004 $
2026-04-11 01:56:00,METAR KHND 110156Z 22017KT 10SM SCT110 26/00 A2980 RMK AO2 SLP087 T02560000 $
2026-04-11 00:56:00,METAR KHND 110056Z 22016G22KT 10SM CLR 27/00 A2981 RMK AO2 SLP087 T02670000 $
2026-04-10 23:56:00,METAR KHND 102356Z 23011G16KT 10SM BKN100 27/01 A2982 RMK AO2 SLP091 T02720011 10283 20250 56021 $
2026-04-10 22:56:00,METAR KHND 102256Z 26013G19KT 10SM CLR 28/01 A2983 RMK AO2 SLP095 T02780011 $
2026-04-10 21:56:00,METAR KHND 102156Z 21013G18KT 10SM CLR 28/02 A2986 RMK AO2 SLP103 T02780017 $
2026-04-10 20:56:00,METAR KHND 102056Z 20014G25KT 160V220 10SM CLR 27/02 A2988 RMK AO2 PK WND 21027/2034 SLP112 T02720017 58014 $
2026-04-10 19:56:00,METAR KHND 101956Z 19021G27KT 10SM CLR 27/03 A2991 RMK AO2 PK WND 20027/1948 SLP119 T02670028 $
2026-04-10 18:56:00,METAR KHND 101856Z 24013G26KT 10SM CLR 26/03 A2992 RMK AO2 PK WND 22027/1839 SLP126 T02560033 $
2026-04-10 17:56:00,METAR KHND 101756Z 22018G23KT 10SM CLR 24/04 A2993 RMK AO2 PK WND 24026/1746 SLP128 T02440039 10244 20189 53004 $
2026-04-10 16:56:00,METAR KHND 101656Z 21019G24KT 10SM CLR 23/05 A2992 RMK AO2 PK WND 21026/1645 SLP126 T02330050 $
2026-04-10 15:56:00,METAR KHND 101556Z 21020G26KT 10SM CLR 22/06 A2991 RMK AO2 PK WND 21026/1551 SLP123 T02170061 $
2026-04-10 14:56:00,METAR KHND 101456Z 21018KT 10SM CLR 20/06 A2991 RMK AO2 SLP124 T02000061 53012 $
2026-04-10 13:56:00,METAR KHND 101356Z 22014KT 10SM CLR 19/06 A2989 RMK AO2 SLP118 T01890061 $
2026-04-10 12:56:00,METAR KHND 101256Z 21017G20KT 10SM CLR 19/06 A2988 RMK AO2 SLP111 T01940061 $
2026-04-10 11:56:00,METAR KHND 101156Z 20012KT 10SM CLR 19/06 A2988 RMK AO2 SLP110 T01940056 10233 20194 55000 $
2026-04-10 10:56:00,METAR KHND 101056Z 22017G24KT 10SM CLR 20/06 A2987 RMK AO2 PK WND 23026/1042 SLP106 T02000056 $
2026-04-10 09:56:00,METAR KHND 100956Z 23017KT 10SM CLR 21/06 A2987 RMK AO2 SLP107 T02060056 $
2026-04-10 08:56:00,METAR KHND 100856Z 22018KT 10SM CLR 21/06 A2988 RMK AO2 SLP109 T02110061 50001 $
2026-04-10 07:56:00,METAR KHND 100756Z 19011KT 10SM CLR 22/06 A2989 RMK AO2 SLP111 T02170061 $
2026-04-10 06:56:00,METAR KHND 100656Z 19015KT 10SM CLR 22/07 A2988 RMK AO2 SLP110 T02220067 403110183 $
2026-04-10 05:56:00,METAR KHND 100556Z 20014KT 10SM CLR 23/04 A2987 RMK AO2 SLP108 T02330039 10289 20233 53014 $
2026-04-10 04:56:00,METAR KHND 100456Z 22011KT 10SM CLR 24/03 A2986 RMK AO2 SLP104 T02440028 $
2026-04-10 03:56:00,METAR KHND 100356Z 22013KT 10SM CLR 26/02 A2984 RMK AO2 SLP096 T02560022 $
2026-04-10 02:56:00,METAR KHND 100256Z 20010KT 10SM CLR 26/00 A2983 RMK AO2 SLP094 T02610000 58000 $
2026-04-10 01:56:00,METAR KHND 100156Z 22011KT 10SM CLR 27/01 A2983 RMK AO2 SLP095 T02670011 $
2026-04-10 00:56:00,METAR KHND 100056Z 24014KT 10SM CLR 28/M02 A2984 RMK AO2 SLP097 T02781017 $
2026-04-09 23:56:00,METAR KHND 092356Z 23012G19KT 10SM CLR 29/M02 A2983 RMK AO2 SLP094 T02891022 10311 20272 56006 $
2026-04-09 22:56:00,METAR KHND 092256Z 23013G21KT 10SM CLR 29/M03 A2984 RMK AO2 SLP094 T02941033 $
2026-04-09 21:56:00,METAR KHND 092156Z 21016G22KT 10SM CLR 31/M04 A2984 RMK AO2 PK WND 24026/2134 SLP095 T03061039 $
2026-04-09 20:56:00,METAR KHND 092056Z 23012G18KT 10SM CLR 30/M03 A2985 RMK AO2 SLP099 T03001028 58020 $
2026-04-09 19:56:00,METAR KHND 091956Z 19011G19KT 10SM CLR 30/M01 A2988 RMK AO2 SLP106 T03001011 $
2026-04-09 18:56:00,METAR KHND 091856Z 24012G17KT 10SM CLR 28/M02 A2990 RMK AO2 SLP118 T02831022 $
2026-04-09 17:56:00,METAR KHND 091756Z 21008KT 10SM CLR 27/M03 A2992 RMK AO2 SLP122 T02721033 10272 20183 50003 $
2026-04-09 16:56:00,METAR KHND 091656Z 25007KT 10SM CLR 25/M03 A2992 RMK AO2 SLP125 T02501028 $
2026-04-09 15:56:00,METAR KHND 091556Z 21010KT 10SM CLR 24/M03 A2992 RMK AO2 SLP124 T02391028 $
2026-04-09 14:56:00,METAR KHND 091456Z 21013KT 10SM CLR 21/M03 A2991 RMK AO2 SLP119 T02111028 53013 $
2026-04-09 13:56:00,METAR KHND 091356Z 20011KT 10SM CLR 20/M03 A2988 RMK AO2 SLP111 T02001033 $
2026-04-09 12:56:00,METAR KHND 091256Z 17007KT 10SM CLR 18/M03 A2987 RMK AO2 SLP106 T01831033 $
2026-04-09 11:56:00,METAR KHND 091156Z 18008KT 10SM CLR 19/M04 A2986 RMK AO2 SLP104 T01941039 10228 20194 55001 $
2026-04-09 10:56:00,METAR KHND 091056Z 18007KT 10SM CLR 21/M04 A2986 RMK AO2 SLP102 T02061039 $
2026-04-09 09:56:00,METAR KHND 090956Z 18009KT 10SM CLR 21/M04 A2986 RMK AO2 SLP103 T02111039 $
2026-04-09 08:56:00,METAR KHND 090856Z 18010KT 10SM CLR 22/M04 A2987 RMK AO2 SLP103 T02171039 50001 $
2026-04-09 07:56:00,METAR KHND 090756Z 19011KT 10SM CLR 22/M05 A2987 RMK AO2 SLP106 T02171050 $
2026-04-09 06:56:00,METAR KHND 090656Z 20007KT 10SM CLR 22/M07 A2987 RMK AO2 SLP107 T02171067 403280178 $
2026-04-09 05:56:00,METAR KHND 090556Z 20008KT 10SM CLR 22/M08 A2987 RMK AO2 SLP105 T02221078 10322 20222 51016 $
2026-04-09 04:56:00,METAR KHND 090456Z 17007KT 10SM CLR 24/M08 A2986 RMK AO2 SLP103 T02391078 $
2026-04-09 03:56:00,METAR KHND 090356Z 21007KT 10SM CLR 26/M08 A2985 RMK AO2 SLP098 T02561078 $
2026-04-09 02:56:00,METAR KHND 090256Z 24010KT 10SM CLR 28/M07 A2982 RMK AO2 SLP088 T02831067 53002 $
2026-04-09 01:56:00,METAR KHND 090156Z 24011KT 10SM CLR 30/M04 A2981 RMK AO2 SLP084 T03001044 $
2026-04-09 00:56:00,METAR KHND 090056Z 23011KT 10SM CLR 32/M04 A2980 RMK AO2 SLP082 T03171039 $
2026-04-08 23:56:00,METAR KHND 082356Z 04009KT 10SM CLR 32/M05 A2981 RMK AO2 SLP084 T03221050 10328 20278 56021 $
2026-04-08 22:56:00,METAR KHND 082256Z 36010KT 10SM CLR 32/M05 A2983 RMK AO2 SLP090 T03221050 $
2026-04-08 21:56:00,METAR KHND 082156Z 15007KT 10SM CLR 32/M05 A2985 RMK AO2 SLP100 T03221050 $
2026-04-08 20:56:00,METAR KHND 082056Z 34004KT 10SM CLR 31/M05 A2988 RMK AO2 SLP107 T03111050 58024 $
2026-04-08 19:56:00,METAR KHND 081956Z 34007KT 10SM CLR 31/M04 A2990 RMK AO2 SLP117 T03061039 $
2026-04-08 18:56:00,METAR KHND 081856Z VRB04KT 10SM CLR 29/M04 A2993 RMK AO2 SLP128 T02891039 $
2026-04-08 17:56:00,METAR KHND 081756Z VRB03KT 10SM CLR 28/M03 A2995 RMK AO2 SLP134 T02831033 10283 20178 51006 $
2026-04-08 16:56:00,METAR KHND 081656Z 31004KT 10SM CLR 27/M03 A2995 RMK AO2 SLP135 T02671033 $
2026-04-08 15:56:00,METAR KHND 081556Z 26004KT 10SM CLR 24/M04 A2994 RMK AO2 SLP131 T02441039 $
2026-04-08 14:56:00,METAR KHND 081456Z 21009KT 10SM CLR 22/M04 A2993 RMK AO2 SLP128 T02171039 53014 $
2026-04-08 13:56:00,METAR KHND 081356Z 20011KT 10SM CLR 19/M05 A2992 RMK AO2 SLP123 T01891050 $
2026-04-08 12:56:00,METAR KHND 081256Z 20012KT 10SM CLR 19/M06 A2990 RMK AO2 SLP117 T01891061 $
2026-04-08 11:56:00,METAR KHND 081156Z AUTO 20012KT 10SM CLR 21/M07 A2989 RMK AO2 SLP111 T02061067 10222 20183 56002 $
2026-04-08 10:56:00,METAR KHND 081056Z AUTO 21011KT 10SM CLR 20/M08 A2989 RMK AO2 SLP113 T02001078 $
2026-04-08 09:56:00,METAR KHND 080956Z AUTO 20006KT 10SM CLR 19/M08 A2989 RMK AO2 SLP114 T01891083 $
2026-04-08 08:56:00,METAR KHND 080856Z AUTO 20010KT 10SM CLR 21/M09 A2989 RMK AO2 SLP115 T02061089 55002 $
2026-04-08 07:56:00,METAR KHND 080756Z AUTO 21010KT 10SM CLR 21/M08 A2989 RMK AO2 SLP114 T02061083 $
2026-04-08 06:56:00,METAR KHND 080656Z AUTO 20010KT 10SM CLR 21/M08 A2990 RMK AO2 SLP117 T02111078 403220161 $
2026-04-08 05:56:00,METAR KHND 080556Z AUTO 19006KT 10SM CLR 22/M08 A2990 RMK AO2 SLP117 T02221078 10322 20222 51012 $
2026-04-08 04:56:00,METAR KHND 080456Z AUTO 20005KT 10SM CLR 23/M06 A2990 RMK AO2 SLP117 T02281056 $
2026-04-08 03:56:00,METAR KHND 080356Z AUTO 14004KT 10SM CLR 26/M07 A2988 RMK AO2 SLP113 T02611072 $
2026-04-08 02:56:00,METAR KHND 080256Z 27004KT 10SM CLR 28/M07 A2986 RMK AO2 SLP105 T02781067 55000 $
2026-04-08 01:56:00,METAR KHND 080156Z 27007KT 10SM CLR 30/M07 A2986 RMK AO2 SLP104 T03001072 $
2026-04-08 00:56:00,METAR KHND 080056Z 23010KT 10SM CLR 31/M08 A2986 RMK AO2 SLP103 T03111083 $
2026-04-07 23:56:00,METAR KHND 072356Z 21008KT 10SM CLR 32/M09 A2987 RMK AO2 SLP105 T03221089 10322 20256 56022 $
2026-04-07 22:56:00,METAR KHND 072256Z 28003KT 10SM CLR 31/M09 A2988 RMK AO2 SLP110 T03111089 $
2026-04-07 21:56:00,METAR KHND 072156Z VRB06KT 10SM CLR 31/M08 A2991 RMK AO2 SLP118 T03111078 $
2026-04-07 20:56:00,METAR KHND 072056Z VRB04KT 10SM CLR 30/M07 A2993 RMK AO2 SLP128 T03001067 58023 $
2026-04-07 19:56:00,METAR KHND 071956Z 06006KT 10SM CLR 29/M07 A2996 RMK AO2 SLP138 T02891067 $
2026-04-07 18:56:00,METAR KHND 071856Z VRB04KT 10SM CLR 28/M08 A2999 RMK AO2 SLP148 T02781078 $
2026-04-07 17:56:00,METAR KHND 071756Z VRB04KT 10SM CLR 26/M07 A3001 RMK AO2 SLP156 T02611067 10267 20161 50000 $
2026-04-07 16:56:00,METAR KHND 071656Z 00000KT 10SM CLR 24/M03 A3001 RMK AO2 SLP159 T02441028 $
2026-04-07 15:56:00,METAR KHND 071556Z 22006KT 10SM CLR 22/M01 A3001 RMK AO2 SLP159 T02171011 $
2026-04-07 14:56:00,METAR KHND 071456Z 22008KT 10SM CLR 19/M01 A3001 RMK AO2 SLP157 T01941006 53019 $
2026-04-07 13:56:00,METAR KHND 071356Z 24010KT 10SM CLR 17/M02 A2998 RMK AO2 SLP149 T01721017 $
2026-04-07 12:56:00,METAR KHND 071256Z 20011KT 10SM CLR 17/M02 A2996 RMK AO2 SLP141 T01671017 $
2026-04-07 11:56:00,METAR KHND 071156Z 20010KT 10SM CLR 17/M02 A2994 RMK AO2 SLP135 T01671017 10206 20167 53000 $
2026-04-07 10:56:00,METAR KHND 071056Z 21011KT 10SM CLR 18/M03 A2994 RMK AO2 SLP132 T01781028 $
2026-04-07 09:56:00,METAR KHND 070956Z 21010KT 10SM CLR 18/M07 A2994 RMK AO2 SLP132 T01831067 $
2026-04-07 08:56:00,METAR KHND 070856Z 21012KT 10SM CLR 20/M09 A2994 RMK AO2 SLP133 T02001089 53004 $
2026-04-07 07:56:00,METAR KHND 070756Z 21011KT 10SM CLR 19/M12 A2994 RMK AO2 SLP135 T01941117 $
2026-04-07 06:56:00,METAR KHND 070656Z 21007KT 10SM CLR 19/M13 A2993 RMK AO2 SLP133 T01941133 403060150 $
2026-04-07 05:56:00,METAR KHND 070556Z 18007KT 10SM CLR 21/M13 A2993 RMK AO2 SLP132 T02061128 10300 20200 51009 $
2026-04-07 04:56:00,METAR KHND 070456Z 17007KT 10SM CLR 21/M12 A2993 RMK AO2 SLP130 T02111122 $
2026-04-07 03:56:00,METAR KHND 070356Z 16007KT 10SM CLR 23/M12 A2992 RMK AO2 SLP129 T02281117 $
2026-04-07 02:56:00,METAR KHND 070256Z 21009KT 10SM CLR 26/M12 A2990 RMK AO2 SLP122 T02561117 53003 $
2026-04-07 01:56:00,METAR KHND 070156Z 22009KT 10SM CLR 28/M12 A2989 RMK AO2 SLP117 T02781122 $
2026-04-07 00:56:00,METAR KHND 070056Z 22007KT 10SM CLR 29/M11 A2989 RMK AO2 SLP116 T02891111 $
2026-04-06 23:56:00,METAR KHND 062356Z 22008G15KT 10SM CLR 30/M12 A2989 RMK AO2 SLP118 T03001122 10306 20244 56020 $
2026-04-06 22:56:00,METAR KHND 062256Z 19008KT 10SM CLR 30/M13 A2990 RMK AO2 SLP120 T03001128 $
2026-04-06 21:56:00,METAR KHND 062156Z 13004KT 10SM CLR 29/M11 A2993 RMK AO2 SLP128 T02941106 $
2026-04-06 20:56:00,METAR KHND 062056Z 00000KT 10SM CLR 28/M09 A2996 RMK AO2 SLP139 T02831089 58017 $
2026-04-06 19:56:00,METAR KHND 061956Z 00000KT 10SM CLR 26/M08 A2997 RMK AO2 SLP147 T02611083 $
2026-04-06 18:56:00,METAR KHND 061856Z 07005KT 10SM CLR 26/M08 A2999 RMK AO2 SLP154 T02611083 $
2026-04-06 17:56:00,METAR KHND 061756Z 07003KT 10SM CLR 25/M09 A3001 RMK AO2 SLP159 T02501089 10250 20156 50002 $
2026-04-06 16:56:00,METAR KHND 061656Z 05004KT 10SM CLR 25/M08 A3001 RMK AO2 SLP160 T02501078 $
2026-04-06 15:56:00,METAR KHND 061556Z 00000KT 10SM CLR 21/M07 A3001 RMK AO2 SLP159 T02111067 $
2026-04-06 14:56:00,METAR KHND 061456Z 17005KT 10SM CLR 18/M07 A3000 RMK AO2 SLP158 T01781072 53007 $
2026-04-06 13:56:00,METAR KHND 061356Z 17007KT 10SM CLR 16/M08 A2999 RMK AO2 SLP151 T01611078 $
2026-04-06 12:56:00,METAR KHND 061256Z 19006KT 10SM CLR 16/M08 A2997 RMK AO2 SLP147 T01561083 $
2026-04-06 11:56:00,METAR KHND 061156Z AUTO 17007KT 10SM CLR 16/M08 A2998 RMK AO2 SLP149 T01561083 10183 20150 56006 $
2026-04-06 10:56:00,METAR KHND 061056Z AUTO 17007KT 10SM CLR 16/M07 A2998 RMK AO2 SLP151 T01611072 $
2026-04-06 09:56:00,METAR KHND 060956Z AUTO 18004KT 10SM CLR 18/M09 A2999 RMK AO2 SLP153 T01781089 $
2026-04-06 08:56:00,METAR KHND 060856Z AUTO 18006KT 10SM CLR 17/M08 A3000 RMK AO2 SLP156 T01721083 58002 $
2026-04-06 07:56:00,METAR KHND 060756Z AUTO 18005KT 10SM CLR 17/M09 A3001 RMK AO2 SLP160 T01721094 $
2026-04-06 06:56:00,METAR KHND 060656Z AUTO 19007KT 10SM CLR 18/M09 A3001 RMK AO2 SLP160 T01781094 402890094 $
2026-04-06 05:56:00,METAR KHND 060556Z AUTO 16007KT 10SM CLR 18/M07 A3001 RMK AO2 SLP161 T01831072 10289 20183 50003 $
2026-04-06 04:56:00,METAR KHND 060456Z AUTO 17004KT 10SM CLR 19/M09 A3001 RMK AO2 SLP163 T01941094 $
2026-04-06 03:56:00,METAR KHND 060356Z AUTO 16005KT 10SM CLR 21/M05 A3001 RMK AO2 SLP163 T02061050 $
2026-04-06 02:56:00,METAR KHND 060256Z 00000KT 10SM CLR 24/M07 A3000 RMK AO2 SLP158 T02391072 55006 $
2026-04-06 01:56:00,METAR KHND 060156Z 34005KT 10SM CLR 27/M09 A3000 RMK AO2 SLP159 T02721089 $
2026-04-06 00:56:00,METAR KHND 060056Z VRB03KT 10SM CLR 28/M08 A3000 RMK AO2 SLP158 T02781083 $
2026-04-05 23:56:00,METAR KHND 052356Z 01006KT 10SM CLR 29/M08 A3002 RMK AO2 SLP165 T02891083 10289 20228 56022 $
2026-04-05 22:56:00,METAR KHND 052256Z 04006KT 10SM CLR 28/M08 A3004 RMK AO2 SLP171 T02831083 $
2026-04-05 21:56:00,METAR KHND 052156Z 00000KT 10SM CLR 27/M09 A3006 RMK AO2 SLP180 T02721089 $
2026-04-05 20:56:00,METAR KHND 052056Z 00000KT 10SM CLR 27/M09 A3009 RMK AO2 SLP189 T02671089 58025 $
2026-04-05 19:56:00,METAR KHND 051956Z 34009KT 10SM CLR 26/M07 A3012 RMK AO2 SLP199 T02561072 $
2026-04-05 18:56:00,METAR KHND 051856Z VRB06KT 10SM CLR 24/M07 A3015 RMK AO2 SLP209 T02441072 $
2026-04-05 17:56:00,METAR KHND 051756Z 04009KT 10SM CLR 23/M07 A3017 RMK AO2 SLP219 T02281067 10228 20094 58001 $
2026-04-05 16:56:00,METAR KHND 051656Z 02008KT 10SM CLR 21/M08 A3018 RMK AO2 SLP222 T02111078 $
2026-04-05 15:56:00,METAR KHND 051556Z 06004KT 10SM CLR 19/M08 A3018 RMK AO2 SLP222 T01891083 $
2026-04-05 14:56:00,METAR KHND 051456Z 10SM CLR 16/M06 A3017 RMK AO2 SLP220 T01611056 53014 $
2026-04-05 12:56:00,METAR KHND 051256Z 10005KT 10SM CLR 13/M08 A3013 RMK AO2 SLP207 T01281083 $
2026-04-05 11:56:00,METAR KHND 051156Z 14003KT 10SM CLR 11/M09 A3013 RMK AO2 SLP205 T01111089 10150 20106 57005 $
2026-04-05 10:56:00,METAR KHND 051056Z 10003KT 10SM CLR 12/M08 A3013 RMK AO2 SLP208 T01171083 $
2026-04-05 09:56:00,METAR KHND 050956Z 17003KT 10SM CLR 12/M07 A3014 RMK AO2 SLP209 T01221072 $
2026-04-05 08:56:00,METAR KHND 050856Z 17006KT 10SM CLR 13/M08 A3014 RMK AO2 SLP211 T01281078 50006 $
2026-04-05 07:56:00,METAR KHND 050756Z 17005KT 10SM CLR 13/M09 A3014 RMK AO2 SLP213 T01281089 $
2026-04-05 06:56:00,METAR KHND 050656Z 00000KT 10SM CLR 14/M08 A3013 RMK AO2 SLP207 T01391083 402560094 $
2026-04-05 05:56:00,METAR KHND 050556Z 16007KT 10SM CLR 14/M09 A3012 RMK AO2 SLP206 T01441094 10256 20144 51008 $
2026-04-05 04:56:00,METAR KHND 050456Z 17007KT 10SM CLR 16/M08 A3012 RMK AO2 SLP206 T01561083 $
2026-04-05 03:56:00,METAR KHND 050356Z 15003KT 10SM CLR 18/M08 A3011 RMK AO2 SLP204 T01781083 $
2026-04-05 02:56:00,METAR KHND 050256Z 00000KT 10SM CLR 22/M12 A3010 RMK AO2 SLP196 T02171122 56005 $
2026-04-05 01:56:00,METAR KHND 050156Z 02006KT 10SM CLR 23/M15 A3010 RMK AO2 SLP196 T02331150 $
2026-04-05 00:56:00,METAR KHND 050056Z 36009KT 10SM CLR 24/M14 A3010 RMK AO2 SLP196 T02441144 $
2026-04-04 23:56:00,METAR KHND 042356Z 02010KT 10SM CLR 25/M13 A3011 RMK AO2 SLP199 T02501133 10250 20194 56025 $
2026-04-04 22:56:00,METAR KHND 042256Z 04011KT 10SM CLR 24/M12 A3014 RMK AO2 SLP209 T02441117 $
2026-04-04 21:56:00,METAR KHND 042156Z 05013KT 10SM CLR 24/M10 A3016 RMK AO2 SLP218 T02391100 $
2026-04-04 20:56:00,METAR KHND 042056Z 35014G18KT 10SM CLR 23/M09 A3019 RMK AO2 SLP228 T02331094 58025 $
2026-04-04 19:56:00,METAR KHND 041956Z 01010G17KT 10SM CLR 22/M09 A3023 RMK AO2 SLP239 T02221089 $
2026-04-04 18:56:00,METAR KHND 041856Z 03010KT 360V070 10SM CLR 21/M09 A3026 RMK AO2 SLP250 T02111089 $
2026-04-04 17:56:00,METAR KHND 041756Z 01012KT 10SM CLR 19/M08 A3027 RMK AO2 SLP257 T01941078 10194 20111 58003 $
2026-04-04 16:56:00,METAR KHND 041656Z 04010KT 10SM CLR 17/M08 A3028 RMK AO2 SLP261 T01721078 $
2026-04-04 15:56:00,METAR KHND 041556Z 04008KT 10SM CLR 16/M08 A3028 RMK AO2 SLP262 T01561078 $
2026-04-04 14:56:00,METAR KHND 041456Z 05004KT 10SM CLR 14/M07 A3028 RMK AO2 SLP262 T01391072 53012 $
2026-04-04 13:56:00,METAR KHND 041356Z 08006KT 10SM CLR 12/M08 A3027 RMK AO2 SLP259 T01171078 $
2026-04-04 12:56:00,METAR KHND 041256Z 07005KT 10SM CLR 12/M08 A3025 RMK AO2 SLP252 T01171083 $
2026-04-04 11:56:00,METAR KHND 041156Z AUTO 04005KT 10SM CLR 12/M09 A3024 RMK AO2 SLP249 T01221089 10156 20094 56003 $
2026-04-04 10:56:00,METAR KHND 041056Z AUTO 10006KT 10SM CLR 11/M08 A3024 RMK AO2 SLP249 T01111083 $
2026-04-04 09:56:00,METAR KHND 040956Z AUTO 16004KT 10SM CLR 10/M07 A3025 RMK AO2 SLP253 T01001072 $
2026-04-04 08:56:00,METAR KHND 040856Z AUTO 06005KT 10SM CLR 13/M08 A3025 RMK AO2 SLP254 T01281083 50004 $
2026-04-04 07:56:00,METAR KHND 040756Z AUTO 01003KT 10SM CLR 14/M08 A3026 RMK AO2 SLP257 T01391083 $
2026-04-04 06:56:00,METAR KHND 040656Z AUTO 05006KT 10SM CLR 15/M08 A3025 RMK AO2 SLP253 T01501083 402110111 $
2026-04-04 05:56:00,METAR KHND 040556Z AUTO 00000KT 10SM CLR 14/M09 A3024 RMK AO2 SLP250 T01441089 10206 20144 51015 $
2026-04-04 04:56:00,METAR KHND 040456Z AUTO 06005KT 10SM CLR 16/M11 A3023 RMK AO2 SLP246 T01611106 $
2026-04-04 03:56:00,METAR KHND 040356Z AUTO 08004KT 10SM CLR 16/M10 A3022 RMK AO2 SLP241 T01611100 $
2026-04-04 02:56:00,METAR KHND 040256Z 02006KT 10SM CLR 18/M11 A3020 RMK AO2 SLP233 T01831111 53003 $
2026-04-04 01:56:00,METAR KHND 040156Z 02011KT 10SM CLR 19/M12 A3019 RMK AO2 SLP230 T01891117 $
2026-04-04 00:56:00,METAR KHND 040056Z 04015KT 10SM CLR 20/M12 A3018 RMK AO2 SLP228 T02001122 $
2026-04-03 23:56:00,METAR KHND 032356Z 03012KT 10SM CLR 21/M13 A3019 RMK AO2 SLP229 T02061133 10211 20150 56016 $
2026-04-03 22:56:00,METAR KHND 032256Z 04013G21KT 10SM CLR 21/M13 A3019 RMK AO2 SLP231 T02061128 $
2026-04-03 21:56:00,METAR KHND 032156Z 04010G20KT 10SM CLR 19/M13 A3022 RMK AO2 SLP239 T01941133 $
2026-04-03 20:56:00,METAR KHND 032056Z 05012G20KT 10SM CLR 18/M13 A3024 RMK AO2 SLP247 T01831128 58012 $
2026-04-03 19:56:00,METAR KHND 031956Z 04017G25KT 10SM CLR 17/M12 A3026 RMK AO2 PK WND 01027/1913 SLP253 T01721122 $
2026-04-03 18:56:00,METAR KHND 031856Z 01017KT 10SM CLR 16/M12 A3027 RMK AO2 PK WND 02027/1812 SLP257 T01611122 $
2026-04-03 17:56:00,METAR KHND 031756Z 04021G25KT 10SM CLR 16/M13 A3028 RMK AO2 PK WND 02027/1740 SLP260 T01561133 10156 20111 52007 $
2026-04-03 16:56:00,METAR KHND 031656Z 04016G22KT 10SM CLR 14/M13 A3026 RMK AO2 SLP256 T01441128 $
2026-04-03 15:56:00,METAR KHND 031556Z 36017G22KT 10SM CLR 13/M12 A3026 RMK AO2 SLP256 T01331117 $
2026-04-03 14:56:00,METAR KHND 031456Z 01015G20KT 10SM CLR 12/M12 A3025 RMK AO2 SLP252 T01221117 51032 $
2026-04-03 13:56:00,METAR KHND 031356Z 36011G18KT 10SM CLR 11/M12 A3022 RMK AO2 SLP241 T01111122 $
2026-04-03 12:56:00,METAR KHND 031256Z 02014G21KT 10SM CLR 11/M13 A3019 RMK AO2 SLP230 T01111128 $
2026-04-03 11:56:00,METAR KHND 031156Z AUTO 03016G23KT 10SM CLR 12/M13 A3015 RMK AO2 SLP216 T01171133 10194 20117 53030 $
2026-04-03 08:56:00,METAR KHND 030856Z AUTO 05012KT 10SM CLR 14/M07 A3006 RMK AO2 SLP183 T01441072 51037 $
2026-04-03 05:56:00,METAR KHND 030556Z AUTO 08003KT 10SM CLR 18/01 A2994 RMK AO2 SLP142 T01780006 10228 20167 51034 $
2026-04-03 04:56:00,METAR KHND 030456Z AUTO 19007KT 10SM CLR 18/02 A2991 RMK AO2 SLP131 T01780022 $
2026-04-03 03:56:00,METAR KHND 030356Z AUTO 20011KT 10SM CLR 19/03 A2987 RMK AO2 SLP119 T01890028 $
2026-04-03 02:56:00,METAR KHND 030256Z 21010KT 10SM CLR 20/03 A2983 RMK AO2 SLP106 T02000028 53014 $
2026-04-03 01:56:00,METAR KHND 030156Z 21011KT 10SM CLR 21/03 A2982 RMK AO2 SLP100 T02110028 $
2026-04-03 00:56:00,METAR KHND 030056Z 22012KT 10SM CLR 22/03 A2981 RMK AO2 SLP094 T02220028 $
2026-04-02 23:56:00,METAR KHND 022356Z 21014KT 10SM CLR 23/03 A2979 RMK AO2 SLP088 T02280028 10228 20178 56009 $
2026-04-02 22:56:00,METAR KHND 022256Z 21017KT 10SM CLR 22/03 A2979 RMK AO2 SLP090 T02170033 $
2026-04-02 21:56:00,METAR KHND 022156Z 21020G23KT 10SM CLR 21/04 A2980 RMK AO2 SLP091 T02110039 $
2026-04-02 20:56:00,METAR KHND 022056Z 21015G22KT 10SM CLR 21/04 A2982 RMK AO2 PK WND 20027/2044 SLP099 T02060039 58011 $
2026-04-02 19:56:00,METAR KHND 021956Z 21020KT 10SM CLR 19/04 A2984 RMK AO2 SLP106 T01890044 $
2026-04-02 18:56:00,METAR KHND 021856Z 21021G24KT 10SM CLR 18/04 A2985 RMK AO2 PK WND 20026/1842 SLP110 T01830044 $
2026-04-02 17:56:00,METAR KHND 021756Z 20018G22KT 10SM CLR 18/04 A2985 RMK AO2 SLP112 T01780044 10183 20133 53013 $
2026-04-02 16:56:00,METAR KHND 021656Z 22017G23KT 10SM CLR 17/05 A2984 RMK AO2 PK WND 21028/1606 SLP108 T01670050 $
2026-04-02 15:56:00,METAR KHND 021556Z 21020G26KT 10SM CLR 16/05 A2982 RMK AO2 PK WND 20028/1524 SLP102 T01560050 $
2026-04-02 14:56:00,METAR KHND 021456Z 21021KT 10SM CLR 14/05 A2981 RMK AO2 SLP098 T01440050 53015 $
2026-04-02 13:56:00,METAR KHND 021356Z 22014G23KT 10SM CLR 13/05 A2979 RMK AO2 SLP091 T01330050 $
2026-04-02 12:56:00,METAR KHND 021256Z 21015G24KT 10SM CLR 14/04 A2978 RMK AO2 SLP085 T01390044 $
2026-04-02 11:56:00,METAR KHND 021156Z 22020KT 10SM CLR 14/04 A2977 RMK AO2 PK WND 21027/1057 SLP080 T01440044 10178 20144 55008 $
2026-04-02 10:56:00,METAR KHND 021056Z 21020G28KT 10SM CLR 15/04 A2975 RMK AO2 PK WND 20028/1048 SLP075 T01500044 $
2026-04-02 09:56:00,METAR KHND 020956Z 20015KT 10SM CLR 15/05 A2978 RMK AO2 PK WND 21027/0909 SLP084 T01500050 $
2026-04-02 08:56:00,METAR KHND 020856Z 22018KT 10SM CLR 16/05 A2979 RMK AO2 PK WND 20026/0815 SLP088 T01560050 55005 $
2026-04-02 07:56:00,METAR KHND 020756Z 20019KT 10SM CLR 16/04 A2979 RMK AO2 PK WND 21028/0658 SLP087 T01610044 $
2026-04-02 06:56:00,METAR KHND 020656Z 21025KT 10SM CLR 17/04 A2980 RMK AO2 PK WND 21029/0653 SLP091 T01670044 402390139 $
2026-04-02 05:56:00,METAR KHND 020556Z 21019G25KT 10SM CLR 18/03 A2981 RMK AO2 PK WND 23026/0517 SLP095 T01780033 10239 20178 51007 $
2026-04-02 04:56:00,METAR KHND 020456Z 21019G25KT 10SM CLR 19/01 A2981 RMK AO2 PK WND 21026/0433 SLP094 T01890011 $
2026-04-02 03:56:00,METAR KHND 020356Z 22019G24KT 10SM CLR 20/02 A2980 RMK AO2 PK WND 23028/0341 SLP092 T02000017 $
2026-04-02 02:56:00,METAR KHND 020256Z 21012KT 10SM CLR 21/01 A2979 RMK AO2 SLP088 T02060006 58003 $
2026-04-02 01:56:00,METAR KHND 020156Z 24014G21KT 10SM CLR 22/01 A2979 RMK AO2 SLP090 T02170006 $
2026-04-02 00:56:00,METAR KHND 020056Z 24015KT 10SM CLR 23/01 A2980 RMK AO2 SLP091 T02280006 $
2026-04-01 23:56:00,METAR KHND 012356Z 23013KT 10SM CLR 23/00 A2980 RMK AO2 SLP091 T02330000 10239 20194 56018 $
2026-04-01 22:56:00,METAR KHND 012256Z 24014G19KT 10SM CLR 23/02 A2981 RMK AO2 SLP095 T02330017 $
2026-04-01 21:56:00,METAR KHND 012156Z 24012G21KT 10SM CLR 23/01 A2984 RMK AO2 SLP104 T02330011 $
2026-04-01 20:56:00,METAR KHND 012056Z 22013G21KT 10SM CLR 23/02 A2986 RMK AO2 SLP111 T02280017 58016 $
2026-04-01 19:56:00,METAR KHND 011956Z 22006G17KT 10SM CLR 22/02 A2988 RMK AO2 SLP121 T02170017 $
2026-04-01 18:56:00,METAR KHND 011856Z 22013KT 10SM CLR 21/03 A2989 RMK AO2 SLP125 T02110033 $
2026-04-01 17:56:00,METAR KHND 011756Z 22017G20KT 10SM CLR 20/04 A2990 RMK AO2 SLP129 T02000039 10200 20139 51015 $
2026-04-01 16:56:00,METAR KHND 011656Z 22014G19KT 10SM CLR 18/04 A2989 RMK AO2 SLP125 T01830039 $
2026-04-01 15:56:00,METAR KHND 011556Z 21016KT 10SM CLR 17/04 A2988 RMK AO2 SLP122 T01670044 $
2026-04-01 14:56:00,METAR KHND 011456Z 22016KT 10SM CLR 16/05 A2986 RMK AO2 SLP114 T01560050 53021 $
2026-04-01 13:56:00,METAR KHND 011356Z 22013KT 10SM CLR 14/06 A2984 RMK AO2 SLP108 T01390056 $
2026-04-01 12:56:00,METAR KHND 011256Z 21016KT 10SM FEW100 14/06 A2980 RMK AO2 SLP094 T01390061 $
2026-04-01 11:56:00,METAR KHND 011156Z AUTO 22015KT 10SM CLR 14/06 A2979 RMK AO2 SLP088 T01440061 10167 20144 51004 $
2026-04-01 10:56:00,METAR KHND 011056Z AUTO 22014KT 10SM SCT055 SCT070 14/06 A2978 RMK AO2 PK WND 21028/1029 SLP085 T01440061 $
2026-04-01 09:56:00,METAR KHND 010956Z AUTO 24020G26KT 10SM FEW050 15/06 A2979 RMK AO2 PK WND 23032/0858 SLP085 T01500061 $
2026-04-01 08:56:00,METAR KHND 010856Z AUTO 23027G32KT 10SM CLR 15/06 A2978 RMK AO2 PK WND 23032/0851 PRESFR SLP081 T01500061 58027 $
2026-04-01 07:56:00,METAR KHND 010756Z AUTO 19012KT 10SM SCT048 BKN095 15/06 A2984 RMK AO2 PK WND 21026/0715 SLP101 T01500061 $
2026-04-01 06:56:00,METAR KHND 010656Z AUTO 20016G28KT 10SM FEW090 15/06 A2985 RMK AO2 PK WND 20028/0650 SLP106 T01500061 402610150 $
2026-04-01 05:56:00,METAR KHND 010556Z AUTO 19008KT 10SM FEW070 OVC095 17/05 A2986 RMK AO2 SLP111 T01670050 10244 20167 50005 $
2026-04-01 04:56:00,METAR KHND 010456Z AUTO 24011G20KT 10SM SCT065 OVC080 18/06 A2988 RMK AO2 SLP118 T01780056 $
2026-04-01 03:56:00,METAR KHND 010356Z AUTO 24010KT 10SM FEW065 SCT095 OVC120 19/06 A2986 RMK AO2 SLP109 T01890056 $
2026-04-01 02:56:00,METAR KHND 010256Z 25016G23KT 10SM OVC110 20/04 A2985 RMK AO2 SLP104 T02000044 53007 $
2026-04-01 01:56:00,METAR KHND 010156Z 27017G23KT 10SM CLR 22/03 A2984 RMK AO2 PK WND 25027/0135 SLP100 T02170033 $
2026-04-01 00:56:00,METAR KHND 010056Z 26019G27KT 10SM CLR 23/01 A2983 RMK AO2 PK WND 24029/0003 SLP097 T02330011 $
2026-03-31 23:56:00,METAR KHND 312356Z 23020G25KT 10SM OVC100 24/01 A2983 RMK AO2 PK WND 24029/2329 SLP095 T02440006 10261 20244 56023 $
2026-03-31 22:56:00,METAR KHND 312256Z 24019G31KT 10SM SCT100 25/01 A2985 RMK AO2 PK WND 22036/2204 SLP101 T02500006 $
2026-03-31 21:56:00,METAR KHND 312156Z 22018G26KT 10SM FEW100 26/01 A2987 RMK AO2 PK WND 22032/2144 SLP108 T02610006 $
2026-03-31 20:56:00,METAR KHND 312056Z 23023G33KT 10SM SCT110 26/00 A2990 RMK AO2 PK WND 20034/2039 SLP118 T02610000 56017 $
2026-03-31 19:56:00,METAR KHND 311956Z 21026G35KT 10SM OVC120 26/01 A2992 RMK AO2 PK WND 21038/1920 SLP124 T02560011 $
2026-03-31 18:56:00,METAR KHND 311856Z 21034G42KT 10SM FEW120 25/02 A2993 RMK AO2 PK WND 20042/1852 SLP126 T02500017 $
2026-03-31 17:56:00,METAR KHND 311756Z 23021G33KT 10SM CLR 24/01 A2995 RMK AO2 PK WND 24035/1706 SLP136 T02440006 10244 20206 50014 $
2026-03-31 16:56:00,METAR KHND 311656Z 24025G41KT 10SM CLR 23/01 A2997 RMK AO2 PK WND 23041/1647 PRESRR SLP141 T02330011 $
2026-03-31 15:56:00,METAR KHND 311556Z 23018G22KT 10SM CLR 24/M02 A2993 RMK AO2 SLP126 T02391017 $
2026-03-31 14:56:00,METAR KHND 311456Z 22020G26KT 10SM CLR 23/M01 A2991 RMK AO2 PK WND 22026/1455 SLP120 T02331011 50013 $
2026-03-31 13:56:00,METAR KHND 311356Z 20011KT 10SM CLR 21/M02 A2991 RMK AO2 SLP121 T02111017 $
2026-03-31 12:56:00,METAR KHND 311256Z AUTO 19006KT 10SM CLR 21/M01 A2989 RMK AO2 SLP115 T02061011 $
2026-03-31 11:56:00,METAR KHND 311156Z AUTO 20015KT 10SM CLR 21/M02 A2987 RMK AO2 SLP106 T02111017 10244 20200 55009 $
2026-03-31 10:56:00,METAR KHND 311056Z AUTO 20015KT 10SM CLR 22/M03 A2986 RMK AO2 SLP104 T02171028 $
2026-03-31 09:56:00,METAR KHND 310956Z AUTO 20013KT 10SM CLR 21/M05 A2989 RMK AO2 SLP112 T02061050 $
2026-03-31 08:56:00,METAR KHND 310856Z AUTO 21012KT 10SM CLR 22/M06 A2990 RMK AO2 SLP116 T02171056 55002 $
2026-03-31 07:56:00,METAR KHND 310756Z AUTO 22020KT 10SM CLR 22/M04 A2988 RMK AO2 PK WND 21026/0719 SLP108 T02221044 $
2026-03-31 06:56:00,METAR KHND 310656Z AUTO 23017G23KT 10SM CLR 23/M07 A2989 RMK AO2 SLP112 T02331072 403000189 $
2026-03-31 05:56:00,METAR KHND 310556Z AUTO 23008KT 10SM CLR 24/M08 A2990 RMK AO2 SLP116 T02441078 10283 20244 50008 $
2026-03-31 04:56:00,METAR KHND 310456Z AUTO 22010KT 10SM CLR 25/M08 A2991 RMK AO2 SLP119 T02501078 $
2026-03-31 03:56:00,METAR KHND 310356Z AUTO 24014KT 10SM CLR 26/M07 A2990 RMK AO2 SLP116 T02611072 $
2026-03-31 02:56:00,METAR KHND 310256Z 23011KT 10SM CLR 27/M08 A2988 RMK AO2 SLP109 T02671078 55003 $
2026-03-31 01:56:00,METAR KHND 310156Z 20008KT 10SM CLR 27/M11 A2987 RMK AO2 SLP110 T02721106 $
2026-03-31 00:56:00,METAR KHND 310056Z 23010G21KT 10SM CLR 28/M11 A2988 RMK AO2 SLP110 T02781106 $
2026-03-30 23:56:00,METAR KHND 302356Z 24017G20KT 10SM CLR 28/M13 A2989 RMK AO2 PK WND 23027/2323 SLP113 T02831128 10300 20283 55012 $
2026-03-30 22:56:00,METAR KHND 302256Z 22021G25KT 10SM CLR 29/M13 A2989 RMK AO2 SLP111 T02891133 $
2026-03-30 21:56:00,METAR KHND 302156Z 24020G25KT 10SM CLR 29/M14 A2991 RMK AO2 PK WND 23029/2143 SLP120 T02941139 $
2026-03-30 20:56:00,METAR KHND 302056Z 23019G25KT 10SM CLR 29/M13 A2993 RMK AO2 PK WND 22030/2021 SLP124 T02891133 58018 $
2026-03-30 19:56:00,METAR KHND 301956Z 23017G25KT 10SM CLR 29/M13 A2995 RMK AO2 PK WND 23029/1946 SLP132 T02941133 $
2026-03-30 18:56:00,METAR KHND 301856Z 22018G23KT 10SM CLR 29/M13 A2997 RMK AO2 SLP137 T02891128 $
2026-03-30 17:56:00,METAR KHND 301756Z 21017G24KT 10SM CLR 28/M12 A2998 RMK AO2 SLP144 T02831117 10289 20189 51008 $
2026-03-30 16:56:00,METAR KHND 301656Z 21017KT 10SM CLR 27/M08 A2998 RMK AO2 SLP144 T02671078 $
2026-03-30 15:56:00,METAR KHND 301556Z 20015KT 10SM CLR 25/M03 A2997 RMK AO2 SLP139 T02501033 $
2026-03-30 14:56:00,METAR KHND 301456Z 19015G20KT 10SM CLR 23/M02 A2996 RMK AO2 SLP135 T02331017 51012 $
2026-03-30 13:56:00,METAR KHND 301356Z 20008KT 10SM CLR 19/M03 A2995 RMK AO2 SLP135 T01891028 $
2026-03-30 12:56:00,METAR KHND 301256Z 22013KT 10SM CLR 22/M03 A2994 RMK AO2 SLP130 T02171028 $
2026-03-30 11:56:00,METAR KHND 301156Z AUTO 20014KT 10SM CLR 20/M10 A2992 RMK AO2 SLP123 T02001100 10244 20200 55002 $
2026-03-30 10:56:00,METAR KHND 301056Z AUTO 21012KT 10SM CLR 21/M11 A2992 RMK AO2 SLP120 T02061106 $
2026-03-30 09:56:00,METAR KHND 300956Z AUTO 21016KT 10SM CLR 22/M12 A2992 RMK AO2 SLP120 T02171117 $
2026-03-30 08:56:00,METAR KHND 300856Z AUTO 20012KT 10SM CLR 23/M12 A2993 RMK AO2 SLP123 T02281117 50002 $
2026-03-30 07:56:00,METAR KHND 300756Z AUTO 21011KT 10SM CLR 24/M12 A2993 RMK AO2 SLP125 T02391117 $
2026-03-30 06:56:00,METAR KHND 300656Z AUTO 18013KT 10SM CLR 24/M12 A2993 RMK AO2 SLP125 T02391117 403280194 $
2026-03-30 05:56:00,METAR KHND 300556Z AUTO 19011KT 10SM CLR 23/M11 A2992 RMK AO2 SLP124 T02331111 10322 20228 51012 $
2026-03-30 04:56:00,METAR KHND 300456Z AUTO 17008KT 10SM CLR 24/M10 A2991 RMK AO2 SLP121 T02441100 $
2026-03-30 03:56:00,METAR KHND 300356Z AUTO 19005KT 10SM CLR 26/M11 A2990 RMK AO2 SLP117 T02611106 $
2026-03-30 02:56:00,METAR KHND 300256Z 24009KT 10SM CLR 29/M11 A2988 RMK AO2 SLP110 T02891106 56004 $
2026-03-30 01:56:00,METAR KHND 300156Z 24011KT 10SM CLR 29/M09 A2989 RMK AO2 SLP113 T02941089 $
2026-03-30 00:56:00,METAR KHND 300056Z 24019KT 10SM CLR 31/M11 A2989 RMK AO2 SLP112 T03061106 $
2026-03-29 23:56:00,METAR KHND 292356Z 24016G21KT 10SM CLR 32/M09 A2990 RMK AO2 SLP114 T03221089 10328 20267 56018 $
2026-03-29 22:56:00,METAR KHND 292256Z 24012G20KT 10SM CLR 32/M07 A2991 RMK AO2 SLP117 T03221072 $
2026-03-29 21:56:00,METAR KHND 292156Z 24015G22KT 10SM CLR 32/M06 A2993 RMK AO2 SLP122 T03221056 $
2026-03-29 20:56:00,METAR KHND 292056Z 22011G17KT 10SM CLR 33/M06 A2995 RMK AO2 SLP133 T03281056 58021 $
2026-03-29 19:56:00,METAR KHND 291956Z VRB03KT 10SM CLR 31/M04 A2998 RMK AO2 SLP142 T03061044 $
2026-03-29 18:56:00,METAR KHND 291856Z 05008KT 10SM CLR 29/M03 A3000 RMK AO2 SLP149 T02941028 $
2026-03-29 17:56:00,METAR KHND 291756Z VRB06KT 10SM CLR 27/M03 A3002 RMK AO2 SLP157 T02671028 10267 20194 51009 $
2026-03-29 16:56:00,METAR KHND 291656Z VRB04KT 10SM CLR 25/01 A3001 RMK AO2 SLP157 T02500006 $
2026-03-29 15:56:00,METAR KHND 291556Z 21004KT 10SM CLR 24/00 A3000 RMK AO2 SLP154 T02390000 $
2026-03-29 14:56:00,METAR KHND 291456Z 20010KT 10SM CLR 22/M01 A2999 RMK AO2 SLP148 T02221011 51016 $
2026-03-29 13:56:00,METAR KHND 291356Z 23009KT 10SM CLR 21/M04 A2997 RMK AO2 SLP142 T02061039 $
2026-03-29 12:56:00,METAR KHND 291256Z AUTO 25004KT 10SM CLR 21/M06 A2996 RMK AO2 SLP136 T02061056 $
2026-03-29 11:56:00,METAR KHND 291156Z AUTO 16007KT 10SM CLR 20/M07 A2994 RMK AO2 SLP129 T02001067 10233 20200 55004 $
2026-03-29 10:56:00,METAR KHND 291056Z AUTO 20013KT 10SM CLR 22/M07 A2994 RMK AO2 SLP127 T02171072 $
2026-03-29 09:56:00,METAR KHND 290956Z AUTO 19013KT 10SM CLR 22/M08 A2995 RMK AO2 SLP130 T02221078 $
2026-03-29 08:56:00,METAR KHND 290856Z AUTO 19011KT 10SM CLR 21/M11 A2995 RMK AO2 SLP134 T02061106 58001 $
2026-03-29 07:56:00,METAR KHND 290756Z AUTO 20007KT 10SM CLR 22/M11 A2996 RMK AO2 SLP137 T02221111 $
2026-03-29 06:56:00,METAR KHND 290656Z AUTO 18005KT 10SM CLR 23/M11 A2996 RMK AO2 SLP136 T02281111 403280189 $
2026-03-29 05:56:00,METAR KHND 290556Z AUTO 18007KT 10SM CLR 23/M11 A2996 RMK AO2 SLP135 T02331106 10317 20217 50011 $
2026-03-29 04:56:00,METAR KHND 290456Z AUTO 18007KT 10SM CLR 22/M11 A2996 RMK AO2 SLP136 T02221106 $
2026-03-29 03:56:00,METAR KHND 290356Z AUTO 19006KT 10SM CLR 24/M09 A2995 RMK AO2 SLP133 T02391094 $
2026-03-29 02:56:00,METAR KHND 290256Z 21011KT 10SM CLR 27/M11 A2992 RMK AO2 SLP124 T02671106 53003 $
2026-03-29 01:56:00,METAR KHND 290156Z 23008KT 10SM CLR 29/M09 A2991 RMK AO2 SLP121 T02941089 $
2026-03-29 00:56:00,METAR KHND 290056Z 21016G19KT 10SM CLR 31/M08 A2991 RMK AO2 SLP119 T03061078 $
2026-03-28 23:56:00,METAR KHND 282356Z 24015KT 10SM CLR 32/M11 A2991 RMK AO2 SLP119 T03171111 10328 20289 56017 $
2026-03-28 22:56:00,METAR KHND 282256Z 21014G22KT 10SM CLR 32/M13 A2992 RMK AO2 SLP121 T03221128 $
2026-03-28 21:56:00,METAR KHND 282156Z 24016G21KT 10SM CLR 32/M14 A2994 RMK AO2 SLP128 T03221139 $
2026-03-28 20:56:00,METAR KHND 282056Z 22013G22KT 10SM CLR 32/M12 A2997 RMK AO2 SLP139 T03171122 56019 $
2026-03-28 19:56:00,METAR KHND 281956Z 21018G22KT 10SM CLR 31/M11 A2999 RMK AO2 SLP144 T03111106 $
2026-03-28 18:56:00,METAR KHND 281856Z 21016KT 10SM CLR 31/M09 A3001 RMK AO2 SLP150 T03111094 $
2026-03-28 17:56:00,METAR KHND 281756Z 22014G23KT 10SM CLR 29/M09 A3003 RMK AO2 SLP159 T02891089 10289 20200 53009 $
2026-03-28 16:56:00,METAR KHND 281656Z 22017KT 10SM CLR 28/M07 A3002 RMK AO2 SLP156 T02781072 $
2026-03-28 15:56:00,METAR KHND 281556Z 21008KT 10SM CLR 26/M06 A3001 RMK AO2 SLP154 T02611056 $
2026-03-28 14:56:00,METAR KHND 281456Z 21013KT 10SM CLR 23/M04 A3000 RMK AO2 SLP151 T02281044 53015 $
2026-03-28 13:56:00,METAR KHND 281356Z 19010KT 10SM CLR 21/M04 A2998 RMK AO2 SLP144 T02061044 $
2026-03-28 12:56:00,METAR KHND 281256Z 20012KT 10SM CLR 21/M05 A2996 RMK AO2 SLP136 T02111050 $
2026-03-28 11:56:00,METAR KHND 281156Z AUTO 14005KT 10SM CLR 21/M04 A2995 RMK AO2 SLP132 T02111044 10244 20189 55003 $
2026-03-28 10:56:00,METAR KHND 281056Z AUTO 19008KT 10SM CLR 21/M04 A2995 RMK AO2 SLP132 T02061044 $
2026-03-28 09:56:00,METAR KHND 280956Z AUTO 17010KT 10SM CLR 20/M04 A2995 RMK AO2 SLP135 T02001039 $
2026-03-28 08:56:00,METAR KHND 280856Z AUTO 19007KT 10SM CLR 21/M04 A2996 RMK AO2 SLP138 T02061039 58002 $
2026-03-28 07:56:00,METAR KHND 280756Z AUTO 16006KT 10SM CLR 22/M04 A2997 RMK AO2 SLP140 T02171039 $
2026-03-28 06:56:00,METAR KHND 280656Z AUTO 00000KT 10SM CLR 24/M04 A2997 RMK AO2 SLP141 T02391044 403220189 $
2026-03-28 05:56:00,METAR KHND 280556Z AUTO 17003KT 10SM CLR 24/M04 A2997 RMK AO2 SLP140 T02441044 10322 20233 50006 $
2026-03-28 04:56:00,METAR KHND 280456Z AUTO 18004KT 10SM CLR 23/M04 A2998 RMK AO2 SLP145 T02331044 $
2026-03-28 03:56:00,METAR KHND 280356Z AUTO 22007KT 10SM CLR 25/M03 A2997 RMK AO2 SLP143 T02501028 $
2026-03-28 02:56:00,METAR KHND 280256Z 15004KT 10SM CLR 26/M02 A2995 RMK AO2 SLP136 T02611017 55001 $
2026-03-28 01:56:00,METAR KHND 280156Z 00000KT 10SM CLR 30/M04 A2994 RMK AO2 SLP130 T03001044 $
2026-03-28 00:56:00,METAR KHND 280056Z 00000KT 10SM CLR 31/M04 A2994 RMK AO2 SLP131 T03111044 $
2026-03-27 23:56:00,METAR KHND 272356Z 29005KT 10SM CLR 32/M04 A2995 RMK AO2 SLP133 T03171044 10322 20256 56027 $
2026-03-27 22:56:00,METAR KHND 272256Z 36003KT 10SM CLR 31/M05 A2998 RMK AO2 SLP143 T03061050 $
2026-03-27 21:56:00,METAR KHND 272156Z 05004KT 10SM CLR 30/M05 A3001 RMK AO2 SLP151 T03001050 $
2026-03-27 20:56:00,METAR KHND 272056Z 04005KT 10SM CLR 29/M06 A3004 RMK AO2 SLP163 T02941056 58027 $
2026-03-27 19:56:00,METAR KHND 271956Z VRB06KT 10SM CLR 28/M06 A3007 RMK AO2 SLP173 T02831061 $
2026-03-27 18:56:00,METAR KHND 271856Z 01012KT 10SM CLR 27/M07 A3010 RMK AO2 SLP183 T02721072 $
2026-03-27 17:56:00,METAR KHND 271756Z 02007KT 10SM CLR 26/M07 A3012 RMK AO2 SLP194 T02561067 10256 20189 50001 $
2026-03-27 16:56:00,METAR KHND 271656Z 02008KT 10SM CLR 24/M06 A3013 RMK AO2 SLP196 T02391056 $
2026-03-27 15:56:00,METAR KHND 271556Z 05007KT 10SM CLR 22/M04 A3012 RMK AO2 SLP194 T02221044 $
2026-03-25 14:56:00,METAR KHND 251456Z 17004KT 10SM CLR 22/04 A3002 RMK AO2 SLP157 T02220039 53010 $
2026-03-25 13:56:00,METAR KHND 251356Z 18005KT 10SM CLR 19/03 A3001 RMK AO2 SLP154 T01940028 $
2026-03-25 10:56:00,METAR KHND 251056Z AUTO 12003KT 10SM CLR 23/02 A2998 RMK AO2 SLP141 T02280022 $
2026-03-25 09:56:00,METAR KHND 250956Z AUTO 23007KT 10SM CLR 23/02 A2999 RMK AO2 SLP143 T02280022 $
2026-03-25 08:56:00,METAR KHND 250856Z AUTO 17007KT 10SM CLR 23/02 A3000 RMK AO2 SLP146 T02330022 53001 $
2026-03-25 07:56:00,METAR KHND 250756Z AUTO 18010KT 10SM CLR 24/02 A2999 RMK AO2 SLP146 T02390017 $
2026-03-25 06:56:00,METAR KHND 250656Z AUTO 19005KT 10SM CLR 24/02 A2999 RMK AO2 SLP146 T02440017 403560189 $
2026-03-25 05:56:00,METAR KHND 250556Z AUTO 20007KT 10SM CLR 26/02 A2999 RMK AO2 SLP146 T02560017 10356 20250 51012 $
2026-03-25 04:56:00,METAR KHND 250456Z AUTO 17007KT 10SM CLR 27/02 A2999 RMK AO2 SLP145 T02720017 $
2026-03-25 03:56:00,METAR KHND 250356Z AUTO 20007KT 10SM CLR 29/02 A2998 RMK AO2 SLP141 T02890017 $
2026-03-25 02:56:00,METAR KHND 250256Z 18010KT 10SM CLR 31/02 A2996 RMK AO2 SLP135 T03110017 53003 $
2026-03-25 01:56:00,METAR KHND 250156Z 15012KT 10SM CLR 33/01 A2994 RMK AO2 SLP129 T03280011 $
2026-03-25 00:56:00,METAR KHND 250056Z 15011KT 10SM CLR 34/01 A2994 RMK AO2 SLP125 T03440011 $
2026-03-24 23:56:00,METAR KHND 242356Z VRB04KT 10SM CLR 35/02 A2995 RMK AO2 SLP130 T03500022 10356 20300 56018 $
2026-03-24 22:56:00,METAR KHND 242256Z 00000KT 10SM CLR 34/03 A2996 RMK AO2 SLP133 T03440028 $
2026-03-24 21:56:00,METAR KHND 242156Z 06008KT 10SM CLR 34/03 A2998 RMK AO2 SLP138 T03440033 $
2026-03-24 20:56:00,METAR KHND 242056Z VRB06KT 10SM CLR 33/03 A3000 RMK AO2 SLP148 T03330028 58020 $
2026-03-24 19:56:00,METAR KHND 241956Z 06007KT 10SM CLR 32/03 A3003 RMK AO2 SLP159 T03170033 $
2026-03-24 18:56:00,METAR KHND 241856Z VRB03KT 10SM CLR 30/02 A3005 RMK AO2 SLP166 T03000017 $
2026-03-24 17:56:00,METAR KHND 241756Z 00000KT 10SM CLR 30/02 A3007 RMK AO2 SLP170 T03000017 10300 20189 51007 $
2026-03-24 16:56:00,METAR KHND 241656Z 30003KT 10SM CLR 28/01 A3006 RMK AO2 SLP170 T02780011 $
2026-03-24 15:56:00,METAR KHND 241556Z 22004KT 10SM CLR 26/02 A3005 RMK AO2 SLP168 T02560017 $
2026-03-24 14:56:00,METAR KHND 241456Z 16007KT 10SM CLR 21/03 A3004 RMK AO2 SLP166 T02110028 53016 $
2026-03-24 13:56:00,METAR KHND 241356Z 17006KT 10SM CLR 19/01 A3002 RMK AO2 SLP160 T01890011 $
2026-03-24 12:56:00,METAR KHND 241256Z AUTO 17004KT 10SM CLR 21/01 A3001 RMK AO2 SLP151 T02060011 $
2026-03-24 11:56:00,METAR KHND 241156Z AUTO 21005KT 10SM CLR 21/01 A2999 RMK AO2 SLP146 T02060006 10250 20206 53004 $
2026-03-24 10:56:00,METAR KHND 241056Z AUTO 26005KT 10SM CLR 22/01 A2999 RMK AO2 SLP142 T02220011 $
2026-03-24 09:56:00,METAR KHND 240956Z AUTO 22010KT 10SM CLR 23/00 A2998 RMK AO2 SLP139 T02280000 $
2026-03-24 08:56:00,METAR KHND 240856Z AUTO 22009KT 10SM CLR 23/M01 A2998 RMK AO2 SLP139 T02331006 51007 $
2026-03-24 07:56:00,METAR KHND 240756Z AUTO 20009KT 10SM CLR 24/M01 A2998 RMK AO2 SLP140 T02391011 $
2026-03-24 06:56:00,METAR KHND 240656Z AUTO 20007KT 10SM CLR 24/M02 A2997 RMK AO2 SLP138 T02441022 403500172 $
2026-03-24 05:56:00,METAR KHND 240556Z AUTO 21008KT 10SM CLR 25/M03 A2996 RMK AO2 SLP134 T02501028 10344 20250 51013 $
2026-03-24 04:56:00,METAR KHND 240456Z AUTO 20007KT 10SM CLR 26/M02 A2995 RMK AO2 SLP133 T02611017 $
2026-03-24 03:56:00,METAR KHND 240356Z AUTO 17007KT 10SM CLR 28/M01 A2995 RMK AO2 SLP131 T02781006 $
2026-03-24 02:56:00,METAR KHND 240256Z 21006KT 10SM CLR 29/M01 A2992 RMK AO2 SLP123 T02941006 53012 $
2026-03-24 01:56:00,METAR KHND 240156Z 27011KT 10SM CLR 32/00 A2991 RMK AO2 SLP119 T03170000 $
2026-03-24 00:56:00,METAR KHND 240056Z 25008KT 10SM CLR 33/M01 A2989 RMK AO2 SLP112 T03331006 $
2026-03-23 23:56:00,METAR KHND 232356Z 24009KT 10SM CLR 34/M01 A2989 RMK AO2 SLP108 T03441011 10350 20294 56014 $
2026-03-23 22:56:00,METAR KHND 232256Z 21007KT 10SM CLR 35/M02 A2990 RMK AO2 SLP112 T03501017 $
2026-03-23 21:56:00,METAR KHND 232156Z 23008KT 10SM CLR 34/M02 A2992 RMK AO2 SLP118 T03391022 $
2026-03-23 20:56:00,METAR KHND 232056Z VRB03KT 10SM CLR 34/M04 A2993 RMK AO2 SLP123 T03391039 58022 $
2026-03-23 19:56:00,METAR KHND 231956Z 00000KT 10SM CLR 32/01 A2996 RMK AO2 SLP132 T03220011 $
2026-03-23 18:56:00,METAR KHND 231856Z 06005KT 10SM CLR 31/01 A2998 RMK AO2 SLP142 T03110006 $
2026-03-23 17:56:00,METAR KHND 231756Z 32004KT 10SM CLR 29/00 A3000 RMK AO2 SLP149 T02940000 10294 20172 50006 $
2026-03-23 16:56:00,METAR KHND 231656Z 29004KT 10SM CLR 27/M01 A3001 RMK AO2 SLP153 T02721006 $
2026-03-23 15:56:00,METAR KHND 231556Z 25004KT 10SM CLR 24/00 A2999 RMK AO2 SLP148 T02440000 $
2026-03-23 14:56:00,METAR KHND 231456Z 16005KT 10SM CLR 20/01 A2998 RMK AO2 SLP145 T02000006 53020 $
2026-03-23 13:56:00,METAR KHND 231356Z 17003KT 10SM CLR 18/M01 A2994 RMK AO2 SLP130 T01831011 $
2026-03-23 12:56:00,METAR KHND 231256Z AUTO 16007KT 10SM CLR 18/M01 A2992 RMK AO2 SLP124 T01831011 $
2026-03-23 11:56:00,METAR KHND 231156Z AUTO 26010KT 10SM CLR 21/M01 A2991 RMK AO2 SLP118 T02061006 10233 20200 55000 $
2026-03-23 10:56:00,METAR KHND 231056Z AUTO 21009KT 10SM CLR 21/M01 A2990 RMK AO2 SLP113 T02061006 $
2026-03-23 09:56:00,METAR KHND 230956Z AUTO 22010KT 10SM CLR 21/M01 A2991 RMK AO2 SLP117 T02111006 $
2026-03-23 08:56:00,METAR KHND 230856Z AUTO 22009KT 10SM CLR 22/M01 A2991 RMK AO2 SLP119 T02221006 55003 $
2026-03-23 07:56:00,METAR KHND 230756Z AUTO 21010KT 10SM CLR 22/M01 A2990 RMK AO2 SLP117 T02221011 $
2026-03-23 06:56:00,METAR KHND 230656Z AUTO 22006KT 10SM CLR 23/M01 A2991 RMK AO2 SLP119 T02281011 403390211 $
2026-03-23 05:56:00,METAR KHND 230556Z AUTO 21009KT 10SM CLR 23/M02 A2992 RMK AO2 SLP124 T02281022 10339 20228 51014 $
2026-03-23 04:56:00,METAR KHND 230456Z AUTO 17007KT 10SM CLR 24/M03 A2991 RMK AO2 SLP121 T02441028 $
2026-03-23 03:56:00,METAR KHND 230356Z AUTO 19007KT 10SM CLR 24/M02 A2989 RMK AO2 SLP115 T02441017 $
2026-03-23 02:56:00,METAR KHND 230256Z 16006KT 10SM CLR 27/M01 A2988 RMK AO2 SLP108 T02721006 55001 $
2026-03-23 01:56:00,METAR KHND 230156Z 00000KT 10SM CLR 31/M02 A2987 RMK AO2 SLP105 T03111022 $
2026-03-23 00:56:00,METAR KHND 230056Z 00000KT 10SM CLR 33/M03 A2987 RMK AO2 SLP104 T03281028 $
2026-03-22 23:56:00,METAR KHND 222356Z 07003KT 10SM CLR 33/M03 A2988 RMK AO2 SLP106 T03331028 10339 20267 56016 $
2026-03-22 22:56:00,METAR KHND 222256Z 25005KT 10SM CLR 33/M03 A2989 RMK AO2 SLP109 T03331028 $
2026-03-22 21:56:00,METAR KHND 222156Z 34005KT 10SM CLR 32/M02 A2991 RMK AO2 SLP114 T03221017 $
2026-03-22 20:56:00,METAR KHND 222056Z 34005KT 10SM CLR 31/M01 A2993 RMK AO2 SLP124 T03111011 58015 $
2026-03-22 19:56:00,METAR KHND 221956Z 02005KT 10SM CLR 30/M02 A2996 RMK AO2 SLP136 T03001017 $
2026-03-22 18:56:00,METAR KHND 221856Z 02006KT 10SM CLR 29/M02 A2997 RMK AO2 SLP139 T02891022 $
2026-03-22 17:56:00,METAR KHND 221756Z 00000KT 10SM CLR 27/M01 A2998 RMK AO2 SLP143 T02671011 10272 20211 50011 $
2026-03-22 16:56:00,METAR KHND 221656Z 35003KT 10SM CLR 27/M01 A2998 RMK AO2 SLP142 T02671006 $
2026-03-22 15:56:00,METAR KHND 221556Z 20006KT 10SM CLR 24/02 A2996 RMK AO2 SLP137 T02440022 $
2026-03-22 14:56:00,METAR KHND 221456Z 22009KT 10SM CLR 22/02 A2994 RMK AO2 SLP131 T02220017 53017 $
2026-03-22 13:56:00,METAR KHND 221356Z 22010KT 10SM CLR 21/01 A2992 RMK AO2 SLP123 T02110011 $
2026-03-22 12:56:00,METAR KHND 221256Z AUTO 23008KT 10SM CLR 22/01 A2990 RMK AO2 SLP114 T02170011 $
2026-03-22 11:56:00,METAR KHND 221156Z AUTO 20013KT 10SM CLR 23/01 A2989 RMK AO2 SLP110 T02280011 10261 20222 55004 $
2026-03-22 10:56:00,METAR KHND 221056Z AUTO 21011KT 10SM CLR 23/M01 A2988 RMK AO2 SLP106 T02281006 $
2026-03-22 09:56:00,METAR KHND 220956Z AUTO 21011KT 10SM CLR 24/M01 A2989 RMK AO2 SLP107 T02391011 $
2026-03-22 08:56:00,METAR KHND 220856Z AUTO 18007KT 10SM CLR 23/M02 A2990 RMK AO2 SLP113 T02281017 56000 $
2026-03-22 07:56:00,METAR KHND 220756Z AUTO 21009KT 10SM CLR 24/M02 A2990 RMK AO2 SLP112 T02391017 $
2026-03-22 06:56:00,METAR KHND 220656Z AUTO 17010KT 10SM CLR 25/M04 A2990 RMK AO2 SLP109 T02501039 403500183 $
2026-03-22 05:56:00,METAR KHND 220556Z AUTO 21007KT 10SM CLR 25/M06 A2990 RMK AO2 SLP113 T02501061 10339 20244 51006 $
2026-03-22 04:56:00,METAR KHND 220456Z AUTO 17008KT 10SM CLR 26/M07 A2990 RMK AO2 SLP113 T02611067 $
2026-03-22 03:56:00,METAR KHND 220356Z AUTO 18008KT 10SM CLR 27/M07 A2990 RMK AO2 SLP112 T02721072 $
2026-03-22 02:56:00,METAR KHND 220256Z 22007KT 10SM CLR 29/M07 A2988 RMK AO2 SLP109 T02941067 53005 $
2026-03-22 01:56:00,METAR KHND 220156Z 23009KT 10SM CLR 31/M07 A2988 RMK AO2 SLP108 T03111067 $
2026-03-22 00:56:00,METAR KHND 220056Z 24014KT 10SM CLR 33/M04 A2987 RMK AO2 SLP105 T03281039 $
2026-03-21 23:56:00,METAR KHND 212356Z 21018G22KT 10SM CLR 34/M04 A2987 RMK AO2 SLP102 T03391039 10350 20328 58016 $
2026-03-21 22:56:00,METAR KHND 212256Z 24017G21KT 10SM CLR 34/M06 A2989 RMK AO2 SLP108 T03441056 $
2026-03-21 21:56:00,METAR KHND 212156Z 21012G21KT 10SM CLR 34/M04 A2990 RMK AO2 SLP111 T03441039 $
2026-03-21 20:56:00,METAR KHND 212056Z 24015G21KT 10SM CLR 34/M04 A2992 RMK AO2 SLP119 T03441039 58019 $
2026-03-21 19:56:00,METAR KHND 211956Z 22013G17KT 10SM CLR 34/M03 A2995 RMK AO2 SLP126 T03441028 $
2026-03-21 18:56:00,METAR KHND 211856Z 23011KT 10SM CLR 33/M02 A2997 RMK AO2 SLP133 T03331022 $
2026-03-21 17:56:00,METAR KHND 211756Z 24014G19KT 10SM CLR 33/M02 A2998 RMK AO2 SLP139 T03281022 10328 20183 50000 $
2026-03-21 16:56:00,METAR KHND 211656Z 15010KT 10SM CLR 31/M02 A2999 RMK AO2 SLP143 T03061022 $
2026-03-21 15:56:00,METAR KHND 211556Z 22005KT 10SM CLR 27/M02 A2999 RMK AO2 SLP144 T02721017 $
2026-03-21 14:56:00,METAR KHND 211456Z 21012KT 10SM CLR 24/M03 A2998 RMK AO2 SLP140 T02391028 53005 $
2026-03-21 13:56:00,METAR KHND 211356Z 19008KT 10SM CLR 20/M03 A2996 RMK AO2 SLP138 T02001033 $
2026-03-21 12:56:00,METAR KHND 211256Z 20009KT 10SM CLR 21/M04 A2996 RMK AO2 SLP134 T02061039 $
2026-03-21 11:56:00,METAR KHND 211156Z AUTO 20008KT 10SM CLR 20/M03 A2996 RMK AO2 SLP135 T02001033 10250 20189 58003 $
2026-03-21 10:56:00,METAR KHND 211056Z AUTO 18006KT 10SM CLR 22/M04 A2996 RMK AO2 SLP134 T02171039 $
2026-03-21 09:56:00,METAR KHND 210956Z AUTO 24010KT 10SM CLR 23/M03 A2997 RMK AO2 SLP136 T02331033 $
2026-03-21 08:56:00,METAR KHND 210856Z AUTO 16003KT 10SM CLR 21/M03 A2997 RMK AO2 SLP138 T02061028 56003 $
2026-03-21 07:56:00,METAR KHND 210756Z AUTO 22007KT 10SM CLR 24/M03 A2998 RMK AO2 SLP140 T02391033 $
2026-03-21 06:56:00,METAR KHND 210656Z AUTO 22010KT 10SM CLR 25/M03 A2997 RMK AO2 SLP138 T02501033 403670156 $
2026-03-21 05:56:00,METAR KHND 210556Z AUTO 18006KT 10SM CLR 23/M03 A2998 RMK AO2 SLP144 T02331028 10367 20228 51004 $
2026-03-21 04:56:00,METAR KHND 210456Z AUTO 17007KT 10SM CLR 24/M02 A2998 RMK AO2 SLP143 T02441022 $
2026-03-21 03:56:00,METAR KHND 210356Z AUTO 23008KT 10SM CLR 27/M03 A2998 RMK AO2 SLP144 T02671028 $
2026-03-21 02:56:00,METAR KHND 210256Z 00000KT 10SM CLR 31/M02 A2997 RMK AO2 SLP140 T03061017 55004 $
2026-03-21 01:56:00,METAR KHND 210156Z 06006KT 10SM CLR 32/M02 A2997 RMK AO2 SLP141 T03221017 $
2026-03-21 00:56:00,METAR KHND 210056Z 07006KT 10SM CLR 35/M02 A2997 RMK AO2 SLP139 T03501017 $
2026-03-20 23:56:00,METAR KHND 202356Z 01003KT 10SM CLR 36/M03 A2999 RMK AO2 SLP142 T03561028 10367 20289 56029 $
2026-03-20 22:56:00,METAR KHND 202256Z 28004KT 10SM CLR 36/M02 A3001 RMK AO2 SLP151 T03611022 $
2026-03-20 21:56:00,METAR KHND 202156Z 04004KT 10SM CLR 34/M02 A3004 RMK AO2 SLP162 T03441022 $
2026-03-20 20:56:00,METAR KHND 202056Z 00000KT 10SM CLR 34/M02 A3008 RMK AO2 SLP173 T03391017 58024 $
2026-03-20 19:56:00,METAR KHND 201956Z VRB03KT 10SM CLR 32/M02 A3011 RMK AO2 SLP188 T03171022 $
2026-03-20 18:56:00,METAR KHND 201856Z 06005KT 10SM CLR 31/M02 A3014 RMK AO2 SLP195 T03061022 $
2026-03-20 17:56:00,METAR KHND 201756Z VRB04KT 10SM CLR 29/M02 A3015 RMK AO2 SLP201 T02891022 10289 20156 51003 $
2026-03-20 16:56:00,METAR KHND 201656Z 06003KT 10SM CLR 28/M02 A3015 RMK AO2 SLP201 T02781017 $
2026-03-20 15:56:00,METAR KHND 201556Z 00000KT 10SM CLR 24/M01 A3015 RMK AO2 SLP202 T02441011 $
2026-03-20 14:56:00,METAR KHND 201456Z 19006KT 10SM CLR 19/M01 A3014 RMK AO2 SLP202 T01891006 53011 $
2026-03-20 13:56:00,METAR KHND 201356Z 20007KT 10SM CLR 16/M02 A3013 RMK AO2 SLP197 T01561017 $
2026-03-20 12:56:00,METAR KHND 201256Z 16006KT 10SM CLR 17/M02 A3011 RMK AO2 SLP191 T01671017 $
2026-03-20 11:56:00,METAR KHND 201156Z AUTO 21008KT 10SM CLR 18/M02 A3010 RMK AO2 SLP185 T01831022 10233 20183 55004 $
2026-03-20 10:56:00,METAR KHND 201056Z AUTO 19008KT 10SM CLR 19/M03 A3010 RMK AO2 SLP183 T01891028 $
2026-03-20 09:56:00,METAR KHND 200956Z AUTO 18007KT 10SM CLR 21/M03 A3011 RMK AO2 SLP185 T02061028 $
2026-03-20 08:56:00,METAR KHND 200856Z AUTO 19007KT 10SM CLR 21/M03 A3012 RMK AO2 SLP189 T02061028 52002 $
2026-03-20 07:56:00,METAR KHND 200756Z AUTO 20008KT 10SM CLR 21/M03 A3012 RMK AO2 SLP189 T02111028 $
2026-03-20 06:56:00,METAR KHND 200656Z AUTO 19007KT 10SM CLR 22/M02 A3011 RMK AO2 SLP188 T02221022 403560150 $
2026-03-20 05:56:00,METAR KHND 200556Z AUTO 18007KT 10SM CLR 23/M03 A3011 RMK AO2 SLP188 T02331028 10350 20228 51007 $
2026-03-20 04:56:00,METAR KHND 200456Z AUTO 18007KT 10SM CLR 24/M02 A3011 RMK AO2 SLP189 T02391022 $
2026-03-20 03:56:00,METAR KHND 200356Z AUTO 19008KT 10SM CLR 26/M02 A3010 RMK AO2 SLP186 T02561022 $
2026-03-20 02:56:00,METAR KHND 200256Z 00000KT 10SM CLR 28/00 A3009 RMK AO2 SLP183 T02780000 53002 $
2026-03-20 01:56:00,METAR KHND 200156Z 06004KT 10SM CLR 32/M02 A3008 RMK AO2 SLP181 T03171017 $
2026-03-20 00:56:00,METAR KHND 200056Z 06007KT 10SM CLR 34/M02 A3008 RMK AO2 SLP178 T03391022 $
2026-03-19 23:56:00,METAR KHND 192356Z 01005KT 10SM CLR 35/M03 A3009 RMK AO2 SLP179 T03501028 10356 20289 56024 $
2026-03-19 22:56:00,METAR KHND 192256Z 29004KT 10SM CLR 36/M03 A3011 RMK AO2 SLP185 T03561033 $
2026-03-19 21:56:00,METAR KHND 192156Z 27004KT 10SM CLR 34/M02 A3013 RMK AO2 SLP193 T03441022 $
2026-03-19 20:56:00,METAR KHND 192056Z 36007KT 10SM CLR 33/M02 A3016 RMK AO2 SLP204 T03331017 58020 $
2026-03-19 19:56:00,METAR KHND 191956Z 36004KT 10SM CLR 32/M01 A3019 RMK AO2 SLP216 T03221011 $
2026-03-19 18:56:00,METAR KHND 191856Z VRB04KT 10SM CLR 30/M01 A3021 RMK AO2 SLP224 T03001006 $
2026-03-19 17:56:00,METAR KHND 191756Z VRB03KT 10SM CLR 29/M01 A3023 RMK AO2 SLP228 T02891011 10289 20150 50005 $
2026-03-19 16:56:00,METAR KHND 191656Z 08005KT 10SM CLR 27/M01 A3023 RMK AO2 SLP230 T02721006 $
2026-03-19 15:56:00,METAR KHND 191556Z 00000KT 10SM CLR 24/M01 A3022 RMK AO2 SLP229 T02441006 $
2026-03-19 14:56:00,METAR KHND 191456Z 18006KT 10SM CLR 19/M01 A3021 RMK AO2 SLP225 T01941006 53019 $
2026-03-19 13:56:00,METAR KHND 191356Z 20005KT 10SM CLR 16/M03 A3018 RMK AO2 SLP216 T01561028 $
2026-03-19 12:56:00,METAR KHND 191256Z AUTO 18006KT 10SM CLR 16/M03 A3016 RMK AO2 SLP206 T01611033 $
2026-03-19 11:56:00,METAR KHND 191156Z AUTO 18008KT 10SM CLR 17/M03 A3015 RMK AO2 SLP202 T01671028 10222 20156 55001 $
2026-03-19 10:56:00,METAR KHND 191056Z AUTO 18007KT 10SM CLR 17/M04 A3014 RMK AO2 SLP198 T01721039 $
2026-03-19 09:56:00,METAR KHND 190956Z AUTO 19006KT 10SM CLR 18/M05 A3014 RMK AO2 SLP198 T01831050 $
2026-03-19 08:56:00,METAR KHND 190856Z AUTO 18007KT 10SM CLR 19/M06 A3015 RMK AO2 SLP202 T01941056 50001 $
2026-03-19 07:56:00,METAR KHND 190756Z AUTO 19006KT 10SM CLR 19/M06 A3015 RMK AO2 SLP204 T01941056 $
2026-03-19 06:56:00,METAR KHND 190656Z AUTO 16006KT 10SM CLR 20/M04 A3016 RMK AO2 SLP206 T02001039 403440144 $
2026-03-19 05:56:00,METAR KHND 190556Z AUTO 18008KT 10SM CLR 22/M04 A3015 RMK AO2 SLP201 T02171039 10339 20211 51014 $
2026-03-19 04:56:00,METAR KHND 190456Z AUTO 17008KT 10SM CLR 23/M02 A3014 RMK AO2 SLP200 T02281022 $
2026-03-19 03:56:00,METAR KHND 190356Z AUTO 17006KT 10SM CLR 24/M02 A3013 RMK AO2 SLP197 T02441022 $
2026-03-19 02:56:00,METAR KHND 190256Z AUTO 11004KT 10SM CLR 27/M01 A3010 RMK AO2 SLP190 T02721011 53004 $
2026-03-19 01:56:00,METAR KHND 190156Z AUTO 06004KT 10SM CLR 31/M03 A3009 RMK AO2 SLP184 T03111028 $
2026-03-19 00:56:00,METAR KHND 190056Z AUTO 08004KT 10SM CLR 33/M03 A3008 RMK AO2 SLP179 T03331033 $
2026-03-18 23:56:00,METAR KHND 182356Z AUTO VRB03KT 10SM CLR 33/M03 A3009 RMK AO2 SLP182 T03331028 10344 20278 56020 $
2026-03-18 22:56:00,METAR KHND 182256Z VRB03KT 10SM CLR 33/M02 A3011 RMK AO2 SLP188 T03281017 $
2026-03-18 21:56:00,METAR KHND 182156Z VRB05KT 10SM CLR 33/00 A3012 RMK AO2 SLP191 T03330000 $
2026-03-18 20:56:00,METAR KHND 182056Z 04004KT 10SM CLR 32/01 A3015 RMK AO2 SLP202 T03220006 58017 $
2026-03-18 19:56:00,METAR KHND 181956Z 01003KT 10SM CLR 31/02 A3018 RMK AO2 SLP212 T03060017 $
2026-03-18 18:56:00,METAR KHND 181856Z 36005KT 10SM CLR 29/01 A3020 RMK AO2 SLP219 T02890006 $
2026-03-18 17:56:00,METAR KHND 181756Z 05004KT 10SM CLR 28/01 A3021 RMK AO2 SLP222 T02780006 10278 20144 51010 $
2026-03-18 16:56:00,METAR KHND 181656Z 00000KT 10SM CLR 26/01 A3020 RMK AO2 SLP222 T02610011 $
2026-03-18 15:56:00,METAR KHND 181556Z 17005KT 10SM CLR 23/02 A3018 RMK AO2 SLP217 T02330022 $
2026-03-18 14:56:00,METAR KHND 181456Z 17006KT 10SM CLR 18/02 A3017 RMK AO2 SLP216 T01780022 53016 $
2026-03-18 13:56:00,METAR KHND 181356Z 17008KT 10SM CLR 14/02 A3015 RMK AO2 SLP209 T01440017 $
2026-03-18 12:56:00,METAR KHND 181256Z AUTO 18008KT 10SM CLR 16/02 A3014 RMK AO2 SLP200 T01610017 $
2026-03-18 11:56:00,METAR KHND 181156Z AUTO 17005KT 10SM CLR 16/02 A3012 RMK AO2 SLP195 T01610017 10211 20156 51007 $
2026-03-18 10:56:00,METAR KHND 181056Z AUTO 21009KT 10SM CLR 18/02 A3011 RMK AO2 SLP190 T01780017 $
2026-03-18 09:56:00,METAR KHND 180956Z AUTO 22008KT 10SM CLR 19/02 A3011 RMK AO2 SLP189 T01940017 $
2026-03-18 08:56:00,METAR KHND 180856Z AUTO 21009KT 10SM CLR 19/02 A3010 RMK AO2 SLP186 T01940017 53002 $
2026-03-18 07:56:00,METAR KHND 180756Z AUTO 20007KT 10SM CLR 19/01 A3009 RMK AO2 SLP187 T01890011 $
2026-03-18 06:56:00,METAR KHND 180656Z AUTO 19010KT 10SM CLR 19/01 A3009 RMK AO2 SLP186 T01940011 403110117 $
2026-03-18 05:56:00,METAR KHND 180556Z AUTO 18010KT 10SM CLR 21/02 A3009 RMK AO2 SLP187 T02060017 10311 20206 51010 $
2026-03-18 04:56:00,METAR KHND 180456Z AUTO 17008KT 10SM CLR 22/02 A3008 RMK AO2 SLP183 T02170017 $
2026-03-18 03:56:00,METAR KHND 180356Z AUTO 18008KT 10SM CLR 23/02 A3007 RMK AO2 SLP182 T02280017 $
2026-03-18 02:56:00,METAR KHND 180256Z 19005KT 10SM CLR 24/03 A3006 RMK AO2 SLP180 T02390028 53004 $
2026-03-18 01:56:00,METAR KHND 180156Z 09003KT 10SM CLR 28/02 A3005 RMK AO2 SLP174 T02830022 $
2026-03-18 00:56:00,METAR KHND 180056Z 00000KT 10SM CLR 31/02 A3004 RMK AO2 SLP169 T03110017 $
2026-03-17 23:56:00,METAR KHND 172356Z 35005KT 10SM CLR 31/02 A3005 RMK AO2 SLP171 T03110017 10311 20244 56022 $
2026-03-17 22:56:00,METAR KHND 172256Z 00000KT 10SM CLR 31/01 A3007 RMK AO2 SLP179 T03060011 $
2026-03-17 21:56:00,METAR KHND 172156Z 36005KT 10SM CLR 29/01 A3009 RMK AO2 SLP187 T02940011 $
2026-03-17 20:56:00,METAR KHND 172056Z VRB03KT 10SM CLR 29/01 A3012 RMK AO2 SLP195 T02890006 58020 $
2026-03-17 19:56:00,METAR KHND 171956Z 00000KT 10SM CLR 27/01 A3015 RMK AO2 SLP207 T02720006 $
2026-03-17 18:56:00,METAR KHND 171856Z 36006KT 10SM CLR 26/00 A3017 RMK AO2 SLP214 T02610000 $
2026-03-17 17:56:00,METAR KHND 171756Z 02004KT 10SM CLR 24/M01 A3018 RMK AO2 SLP220 T02391006 10244 20117 51004 $
2026-03-17 16:56:00,METAR KHND 171656Z 00000KT 10SM CLR 23/M01 A3018 RMK AO2 SLP218 T02331006 $
2026-03-17 15:56:00,METAR KHND 171556Z 00000KT 10SM CLR 19/M01 A3018 RMK AO2 SLP221 T01891006 $
2026-03-17 14:56:00,METAR KHND 171456Z 18006KT 10SM CLR 15/M01 A3017 RMK AO2 SLP218 T01501006 51010 $
2026-03-17 13:56:00,METAR KHND 171356Z 15005KT 10SM CLR 12/00 A3015 RMK AO2 SLP214 T01220000 $
2026-03-17 12:56:00,METAR KHND 171256Z 18005KT 10SM CLR 13/M01 A3015 RMK AO2 SLP210 T01331011 $
2026-03-17 11:56:00,METAR KHND 171156Z AUTO 18007KT 10SM CLR 14/M02 A3013 RMK AO2 SLP204 T01391017 10178 20133 55002 $
2026-03-17 10:56:00,METAR KHND 171056Z AUTO 19005KT 10SM CLR 14/M02 A3013 RMK AO2 SLP203 T01441022 $
2026-03-17 09:56:00,METAR KHND 170956Z AUTO 17006KT 10SM CLR 15/M02 A3013 RMK AO2 SLP203 T01501017 $
2026-03-17 08:56:00,METAR KHND 170856Z AUTO 19006KT 10SM CLR 16/M02 A3014 RMK AO2 SLP206 T01611017 51003 $
2026-03-17 07:56:00,METAR KHND 170756Z AUTO 18006KT 10SM CLR 16/M01 A3014 RMK AO2 SLP206 T01561011 $
2026-03-17 06:56:00,METAR KHND 170656Z AUTO 18005KT 10SM CLR 17/M02 A3014 RMK AO2 SLP207 T01721017 402610094 $
2026-03-17 05:56:00,METAR KHND 170556Z AUTO 18005KT 10SM CLR 17/M02 A3013 RMK AO2 SLP205 T01721022 10261 20172 51015 $
2026-03-17 04:56:00,METAR KHND 170456Z AUTO 16007KT 10SM CLR 18/M01 A3012 RMK AO2 SLP203 T01831006 $
2026-03-17 03:56:00,METAR KHND 170356Z AUTO 15005KT 10SM CLR 19/M01 A3011 RMK AO2 SLP198 T01941006 $
2026-03-17 02:56:00,METAR KHND 170256Z VRB03KT 10SM CLR 23/M02 A3009 RMK AO2 SLP192 T02281022 53003 $
2026-03-17 01:56:00,METAR KHND 170156Z 00000KT 10SM CLR 24/M02 A3008 RMK AO2 SLP190 T02441022 $
2026-03-17 00:56:00,METAR KHND 170056Z 06006KT 10SM CLR 26/M03 A3008 RMK AO2 SLP188 T02611028 $
2026-03-16 23:56:00,METAR KHND 162356Z 05007KT 10SM CLR 26/M03 A3008 RMK AO2 SLP187 T02611028 10261 20211 56021 $
2026-03-16 22:56:00,METAR KHND 162256Z 08006KT 10SM CLR 26/M03 A3010 RMK AO2 SLP191 T02611028 $
2026-03-16 21:56:00,METAR KHND 162156Z 05012G17KT 10SM CLR 26/M03 A3012 RMK AO2 SLP200 T02561028 $
2026-03-16 20:56:00,METAR KHND 162056Z 08008G15KT 10SM CLR 25/M04 A3015 RMK AO2 SLP210 T02501039 58022 $
2026-03-16 19:56:00,METAR KHND 161956Z 03010G16KT 10SM CLR 24/M04 A3018 RMK AO2 SLP220 T02441039 $
2026-03-16 18:56:00,METAR KHND 161856Z 04008KT 10SM CLR 23/M06 A3020 RMK AO2 SLP230 T02281061 $
2026-03-16 17:56:00,METAR KHND 161756Z 06005KT 10SM CLR 21/M07 A3021 RMK AO2 SLP235 T02111067 10211 20094 58001 $
2026-03-16 16:56:00,METAR KHND 161656Z VRB05KT 10SM CLR 19/M08 A3023 RMK AO2 SLP239 T01941083 $
2026-03-16 15:56:00,METAR KHND 161556Z 00000KT 10SM CLR 17/M09 A3023 RMK AO2 SLP242 T01721089 $
2026-03-16 14:56:00,METAR KHND 161456Z 17004KT 10SM CLR 12/M06 A3022 RMK AO2 SLP239 T01221061 53016 $
2026-03-16 13:56:00,METAR KHND 161356Z 17003KT 10SM CLR 09/M07 A3019 RMK AO2 SLP230 T00941067 $
2026-03-16 12:56:00,METAR KHND 161256Z AUTO 17005KT 10SM CLR 11/M08 A3016 RMK AO2 SLP220 T01061078 $
2026-03-16 11:56:00,METAR KHND 161156Z AUTO 19004KT 10SM CLR 12/M07 A3016 RMK AO2 SLP218 T01171072 10161 20117 55001 $
2026-03-16 10:56:00,METAR KHND 161056Z AUTO 00000KT 10SM CLR 14/M08 A3015 RMK AO2 SLP212 T01391083 $
2026-03-16 09:56:00,METAR KHND 160956Z AUTO 00000KT 10SM CLR 15/M07 A3017 RMK AO2 SLP217 T01501072 $
2026-03-16 08:56:00,METAR KHND 160856Z AUTO 18004KT 10SM CLR 14/M05 A3017 RMK AO2 SLP217 T01391050 51007 $
2026-03-16 07:56:00,METAR KHND 160756Z AUTO 20003KT 10SM CLR 15/M04 A3016 RMK AO2 SLP215 T01501044 $
2026-03-16 06:56:00,METAR KHND 160656Z AUTO 17004KT 10SM CLR 14/M04 A3016 RMK AO2 SLP214 T01441039 402610139 $
2026-03-16 05:56:00,METAR KHND 160556Z AUTO 19006KT 10SM CLR 16/M03 A3015 RMK AO2 SLP211 T01561033 10256 20156 53017 $
2026-03-16 04:56:00,METAR KHND 160456Z AUTO 00000KT 10SM CLR 18/M03 A3013 RMK AO2 SLP202 T01781033 $
2026-03-16 03:56:00,METAR KHND 160356Z AUTO 00000KT 10SM CLR 19/M05 A3010 RMK AO2 SLP193 T01891050 $
2026-03-16 02:56:00,METAR KHND 160256Z 15003KT 10SM CLR 21/M06 A3010 RMK AO2 SLP192 T02111061 53004 $
2026-03-16 01:56:00,METAR KHND 160156Z 05007KT 10SM CLR 23/M07 A3008 RMK AO2 SLP188 T02331067 $
2026-03-16 00:56:00,METAR KHND 160056Z 09006KT 10SM CLR 25/M07 A3007 RMK AO2 SLP182 T02501067 $
2026-03-15 23:56:00,METAR KHND 152356Z 04005KT 10SM CLR 26/M06 A3008 RMK AO2 SLP184 T02561061 10261 20233 58013 $
2026-03-15 22:56:00,METAR KHND 152256Z 06004KT 10SM CLR 26/M06 A3010 RMK AO2 SLP189 T02561061 $
2026-03-15 21:56:00,METAR KHND 152156Z 03007KT 10SM CLR 26/M06 A3012 RMK AO2 SLP192 T02561056 $
2026-03-15 20:56:00,METAR KHND 152056Z 05010KT 10SM CLR 26/M05 A3012 RMK AO2 SLP198 T02561050 58009 $
2026-03-15 19:56:00,METAR KHND 151956Z 03010KT 10SM CLR 25/M05 A3013 RMK AO2 SLP200 T02501050 $
2026-03-15 18:56:00,METAR KHND 151856Z 04011KT 10SM CLR 24/M04 A3015 RMK AO2 SLP207 T02441044 $
2026-03-15 17:56:00,METAR KHND 151756Z 04010KT 10SM CLR 23/M04 A3015 RMK AO2 SLP209 T02331044 10233 20139 51022 $
2026-03-15 16:56:00,METAR KHND 151656Z 03014KT 10SM CLR 22/M05 A3014 RMK AO2 SLP203 T02221050 $
2026-03-15 15:56:00,METAR KHND 151556Z 36008KT 10SM CLR 21/M04 A3011 RMK AO2 SLP195 T02111044 $
2026-03-15 14:56:00,METAR KHND 151456Z 06009KT 10SM CLR 19/M04 A3008 RMK AO2 SLP185 T01891044 51031 $
2026-03-15 13:56:00,METAR KHND 151356Z 15003KT 10SM CLR 14/M03 A3005 RMK AO2 SLP176 T01391033 $
2026-03-15 12:56:00,METAR KHND 151256Z 17004KT 10SM CLR 17/M04 A3002 RMK AO2 SLP162 T01671039 $
2026-03-15 11:56:00,METAR KHND 151156Z AUTO 22008KT 10SM CLR 18/M04 A2998 RMK AO2 SLP147 T01781044 10222 20167 53007 $
2026-03-15 10:56:00,METAR KHND 151056Z AUTO 24003KT 10SM CLR 17/M04 A2997 RMK AO2 SLP145 T01721039 $
2026-03-15 09:56:00,METAR KHND 150956Z AUTO 30007KT 10SM CLR 22/M04 A2996 RMK AO2 SLP137 T02221044 $
2026-03-15 08:56:00,METAR KHND 150856Z AUTO 18005KT 10SM CLR 18/M03 A2996 RMK AO2 SLP140 T01781033 51009 $
