Time_recorded,METAR
2026-05-02 15:30:00,METAR WSSS 021530Z VRB02KT 9999 FEW016 FEW018TCU FEW020CB SCT280 28/25 Q1010 NOSIG
2026-05-02 15:00:00,METAR WSSS 021500Z 32003KT 9999 FEW016 FEW018TCU FEW020CB SCT280 28/25 Q1010 NOSIG
2026-05-02 14:30:00,METAR WSSS 021430Z VRB02KT 9999 FEW016 FEW018TCU BKN300 29/24 Q1010 NOSIG
2026-05-02 14:00:00,METAR WSSS 021400Z 34002KT 9999 FEW016 FEW018TCU BKN300 28/24 Q1009 NOSIG
2026-05-02 13:30:00,METAR WSSS 021330Z 31003KT 270V350 9999 FEW016 FEW018TCU BKN300 29/24 Q1009 NOSIG
2026-05-02 13:00:00,METAR WSSS 021300Z 32004KT 270V340 9999 FEW018 SCT030 BKN300 29/24 Q1008 NOSIG
2026-05-02 12:30:00,METAR WSSS 021230Z VRB02KT 9999 FEW018TCU SCT030 BKN300 29/24 Q1008 NOSIG
2026-05-02 12:00:00,METAR WSSS 021200Z VRB02KT 9999 FEW018TCU SCT030 BKN300 29/24 Q1007 NOSIG
2026-05-02 11:30:00,METAR WSSS 021130Z 25003KT 220V320 9999 FEW018TCU SCT030 BKN300 29/24 Q1007 NOSIG
2026-05-02 11:00:00,METAR WSSS 021100Z 27004KT 240V340 9999 FEW016 FEW018TCU BKN300 29/24 Q1006 NOSIG
2026-05-02 10:30:00,METAR WSSS 021030Z 07008KT 040V100 9999 FEW016 FEW018TCU BKN300 30/25 Q1006 NOSIG
2026-05-02 10:00:00,METAR WSSS 021000Z 09007G17KT 040V140 9999 VCSH FEW016 FEW018TCU BKN300 31/26 Q1006 NOSIG
2026-05-02 09:30:00,METAR WSSS 020930Z 04007KT 010V100 9999 VCSH FEW017CB FEW018TCU BKN300 31/25 Q1006 NOSIG
2026-05-02 09:00:00,METAR WSSS 020900Z 04008KT 9999 FEW018TCU FEW020CB BKN300 31/24 Q1006 NOSIG
2026-05-02 08:30:00,METAR WSSS 020830Z 07010KT 030V100 9999 FEW018CB FEW020TCU BKN300 31/25 Q1006 NOSIG
2026-05-02 08:00:00,METAR WSSS 020800Z 02006KT 340V050 9999 FEW018CB FEW020TCU BKN300 33/24 Q1006 NOSIG
2026-05-02 07:30:00,METAR WSSS 020730Z 08005KT 010V160 9999 FEW018CB FEW020TCU BKN300 33/24 Q1006 NOSIG
2026-05-02 07:00:00,METAR WSSS 020700Z 07007KT 010V140 9999 FEW018CB FEW020TCU BKN300 33/23 Q1007 NOSIG
2026-05-02 06:30:00,METAR WSSS 020630Z 04008KT 350V080 9999 FEW020TCU BKN300 32/23 Q1007 NOSIG
2026-05-02 06:00:00,METAR WSSS 020600Z 01009KT 9999 FEW018TCU FEW020CB BKN300 32/25 Q1008 NOSIG
2026-05-02 05:30:00,METAR WSSS 020530Z 03010KT 010V070 9999 FEW018CB FEW020TCU BKN300 31/24 Q1009 NOSIG
2026-05-02 05:00:00,METAR WSSS 020500Z 12005KT 030V170 9999 VCSH FEW017CB FEW018TCU BKN300 32/23 Q1009 NOSIG
2026-05-02 04:30:00,METAR WSSS 020430Z 14006KT 090V180 9999 VCSH FEW017TCU BKN300 32/24 Q1010 NOSIG
2026-05-02 04:00:00,METAR WSSS 020400Z 08005KT 030V130 9999 FEW018TCU BKN300 32/24 Q1010 NOSIG
2026-05-02 03:50:00,SPECI WSSS 020350Z VRB04KT 9999 FEW018TCU BKN300 33/25 Q1010 NOSIG
2026-05-02 03:30:00,METAR WSSS 020330Z VRB03KT 9999 FEW018 FEW020TCU BKN300 31/25 Q1010 NOSIG
2026-05-02 03:00:00,METAR WSSS 020300Z 16006KT 120V180 9999 FEW018 FEW020TCU BKN300 31/25 Q1010 NOSIG
2026-05-02 02:30:00,METAR WSSS 020230Z 17005KT 9999 SCT018 FEW020TCU BKN300 30/25 Q1010 NOSIG
2026-05-02 02:00:00,METAR WSSS 020200Z VRB04KT 9999 FEW018 FEW020TCU BKN300 31/25 Q1010 NOSIG
2026-05-02 01:30:00,METAR WSSS 020130Z VRB01KT 9999 FEW018 FEW020TCU BKN300 30/25 Q1010 NOSIG
2026-05-02 01:00:00,METAR WSSS 020100Z 17004KT 110V200 9999 FEW018 FEW020TCU BKN300 29/25 Q1010 NOSIG
2026-05-02 00:30:00,METAR WSSS 020030Z VRB01KT 9999 FEW018 FEW020TCU BKN300 29/25 Q1009 NOSIG
2026-05-02 00:00:00,METAR WSSS 020000Z VRB01KT 8000 FEW016 FEW018TCU BKN300 27/25 Q1009 NOSIG
2026-05-01 23:30:00,METAR WSSS 012330Z 00000KT 9999 FEW016 FEW017CB FEW018TCU BKN300 26/24 Q1008 NOSIG
2026-05-01 23:00:00,METAR WSSS 012300Z 00000KT 9999 FEW016 FEW018TCU BKN300 26/24 Q1008 NOSIG
2026-05-01 22:30:00,METAR WSSS 012230Z VRB01KT 9999 FEW016 BKN300 26/24 Q1008 NOSIG
2026-05-01 22:00:00,METAR WSSS 012200Z 00000KT 9000 FEW016 BKN300 26/24 Q1008 NOSIG
2026-05-01 21:30:00,METAR WSSS 012130Z 32003KT 280V340 8000 FEW016 BKN300 27/24 Q1007 NOSIG
2026-05-01 21:00:00,METAR WSSS 012100Z 32003KT 9999 FEW016 BKN300 27/25 Q1008 NOSIG
2026-05-01 20:30:00,METAR WSSS 012030Z VRB02KT 9999 FEW018 BKN300 26/25 Q1008 NOSIG
2026-05-01 20:00:00,METAR WSSS 012000Z 32002KT 9999 FEW018 BKN300 26/24 Q1008 NOSIG
2026-05-01 19:30:00,METAR WSSS 011930Z 32001KT 9999 FEW018 BKN300 26/24 Q1008 NOSIG
2026-05-01 19:00:00,METAR WSSS 011900Z 36001KT 9999 FEW018 BKN300 26/24 Q1009 NOSIG
2026-05-01 18:30:00,METAR WSSS 011830Z 32002KT 9999 FEW018 BKN300 26/24 Q1009 NOSIG
2026-05-01 18:00:00,METAR WSSS 011800Z 31002KT 9999 FEW018 BKN300 26/24 Q1009 NOSIG
2026-05-01 17:30:00,METAR WSSS 011730Z 33003KT 9999 FEW018 BKN300 26/24 Q1010 NOSIG
2026-05-01 17:00:00,METAR WSSS 011700Z 35002KT 9999 FEW018 BKN300 26/24 Q1010 NOSIG
2026-05-01 16:30:00,METAR WSSS 011630Z VRB02KT 9999 FEW018 BKN300 27/24 Q1010 NOSIG
2026-05-01 16:00:00,METAR WSSS 011600Z 32003KT 280V340 9999 FEW018 BKN300 27/24 Q1010 NOSIG
2026-05-01 15:30:00,METAR WSSS 011530Z 34004KT 9999 FEW018 BKN300 27/24 Q1010 NOSIG
2026-05-01 15:00:00,METAR WSSS 011500Z 35004KT 9999 FEW018 BKN300 26/25 Q1010 NOSIG
2026-05-01 14:30:00,METAR WSSS 011430Z 34003KT 9999 FEW018 BKN300 26/25 Q1010 NOSIG
2026-05-01 14:00:00,METAR WSSS 011400Z 36003KT 9999 FEW018 BKN300 27/25 Q1010 NOSIG
2026-05-01 13:30:00,METAR WSSS 011330Z 32004KT 9999 FEW018 BKN300 27/25 Q1009 NOSIG
2026-05-01 13:00:00,METAR WSSS 011300Z 35004KT 9999 FEW018 BKN300 27/25 Q1009 NOSIG
2026-05-01 12:30:00,METAR WSSS 011230Z 33004KT 290V350 9999 FEW018 BKN300 28/25 Q1009 NOSIG
2026-05-01 12:00:00,METAR WSSS 011200Z 32005KT 9999 FEW018 BKN300 28/25 Q1008 NOSIG
2026-05-01 11:30:00,METAR WSSS 011130Z 33004KT 290V360 9999 FEW018 SCT160 28/25 Q1008 NOSIG
2026-05-01 11:00:00,METAR WSSS 011100Z 33005KT 300V360 9999 FEW018 FEW020TCU SCT160 28/25 Q1008 NOSIG
2026-05-01 10:30:00,METAR WSSS 011030Z 34004KT 9999 FEW018 FEW020TCU SCT160 29/25 Q1008 NOSIG
2026-05-01 10:00:00,METAR WSSS 011000Z 32003KT 290V010 9999 FEW018 FEW020TCU SCT160 29/25 Q1007 NOSIG
2026-05-01 09:30:00,METAR WSSS 010930Z 33004KT 290V360 9999 FEW016 FEW018TCU SCT160 29/25 Q1007 NOSIG
2026-05-01 09:00:00,METAR WSSS 010900Z VRB02KT 9999 -SHRA FEW016TCU SCT160 29/25 Q1007 NOSIG
2026-05-01 08:30:00,METAR WSSS 010830Z 29003KT 230V340 9000 -SHRA FEW014 FEW016TCU BKN160 28/25 Q1007 NOSIG
2026-05-01 08:00:00,METAR WSSS 010800Z 18004KT 120V210 9000 -SHRA FEW014 FEW016TCU BKN160 29/24 Q1007 NOSIG
2026-05-01 07:30:00,METAR WSSS 010730Z 19006KT 9999 VCSH FEW017TCU FEW020CB BKN270 29/24 Q1008 NOSIG
2026-05-01 07:00:00,METAR WSSS 010700Z 18008KT 9999 VCSH FEW018TCU FEW020CB BKN270 29/24 Q1008 NOSIG
2026-05-01 06:30:00,METAR WSSS 010630Z 17009KT 9999 VCSH FEW015 FEW018TCU FEW020CB BKN270 29/24 Q1008 NOSIG
2026-05-01 06:00:00,METAR WSSS 010600Z 15011KT 9000 VCSH FEW015 FEW018TCU FEW020CB SCT270 30/24 Q1009 RETS NOSIG
2026-05-01 05:30:00,METAR WSSS 010530Z 11007KT 050V150 9999 TS FEW015 FEW017CB FEW018TCU SCT180 31/24 Q1009 BECMG TL0600 NSW
2026-05-01 05:00:00,METAR WSSS 010500Z VRB03KT 9000 TS FEW015 FEW016CB FEW017TCU SCT160 31/24 Q1010 BECMG TL0530 NSW
2026-05-01 04:30:00,METAR WSSS 010430Z VRB02KT 7000 -TSRA FEW015 FEW016CB FEW017TCU SCT160 29/25 Q1010 BECMG FM0500 TL0530 NSW
2026-05-01 04:00:00,METAR WSSS 010400Z 05006KT 020V080 4500 -TSRA FEW013 FEW016CB SCT017TCU 28/25 Q1011 BECMG FM0430 TL0445 6000 NSW
2026-05-01 03:30:00,METAR WSSS 010330Z 05010KT 020V080 4500 -TSRA FEW013 FEW016CB SCT017TCU 30/26 Q1011 TEMPO TL0430 2500 TSRA
2026-05-01 03:00:00,METAR WSSS 010300Z 12003KT 060V200 8000 VCTS FEW015 FEW017CB FEW018TCU SCT300 31/24 Q1011 TEMPO TL0400 3000 TSRA
2026-05-01 02:30:00,METAR WSSS 010230Z 08005KT 020V130 9999 FEW016 FEW018TCU SCT300 31/25 Q1010 NOSIG
2026-05-01 02:00:00,METAR WSSS 010200Z 35004KT 310V040 9999 FEW016 FEW018TCU SCT300 31/25 Q1010 NOSIG
2026-05-01 01:30:00,METAR WSSS 010130Z 35004KT 300V050 9999 VCSH FEW015 FEW018TCU SCT300 31/26 Q1010 NOSIG
2026-05-01 01:00:00,METAR WSSS 010100Z 09005KT 020V170 9999 VCSH SCT015 FEW018TCU SCT300 29/26 Q1010 NOSIG
2026-05-01 00:30:00,METAR WSSS 010030Z 11003KT 070V150 9000 -SHRA SCT015 FEW017TCU FEW020CB SCT300 29/25 Q1010 NOSIG
2026-05-01 00:00:00,METAR WSSS 010000Z VRB01KT 9999 VCSH FEW015 FEW017CB FEW018TCU SCT040 29/26 Q1009 NOSIG
2026-04-30 23:30:00,METAR WSSS 302330Z VRB02KT 9999 FEW015 FEW018TCU FEW020CB BKN300 28/25 Q1009 TEMPO FM2340 TL0010 4000 SHRA
2026-04-30 23:00:00,METAR WSSS 302300Z VRB01KT 9999 FEW018TCU FEW020CB BKN300 27/25 Q1009 NOSIG
2026-04-30 22:30:00,METAR WSSS 302230Z 06003KT 010V100 9999 FEW018TCU FEW020CB BKN300 29/25 Q1009 NOSIG
2026-04-30 22:00:00,METAR WSSS 302200Z 05004KT 010V100 9999 FEW018 FEW020CB BKN300 29/25 Q1009 NOSIG
2026-04-30 21:30:00,METAR WSSS 302130Z 07003KT 040V100 9999 FEW018 FEW020TCU BKN300 28/25 Q1009 NOSIG
2026-04-30 21:00:00,METAR WSSS 302100Z VRB02KT 9999 FEW018 FEW020TCU BKN300 28/25 Q1008 NOSIG
2026-04-30 20:30:00,METAR WSSS 302030Z VRB01KT 9999 FEW018TCU FEW020CB BKN300 28/25 Q1008 NOSIG
2026-04-30 20:00:00,METAR WSSS 302000Z VRB02KT 9999 FEW017CB FEW018TCU BKN300 28/25 Q1009 NOSIG
2026-04-30 19:30:00,METAR WSSS 301930Z 01005KT 340V050 9999 FEW017CB FEW018TCU BKN300 28/25 Q1009 NOSIG
2026-04-30 19:00:00,METAR WSSS 301900Z 35003KT 320V020 9999 FEW017CB FEW018TCU BKN300 28/25 Q1009 NOSIG
2026-04-30 18:30:00,METAR WSSS 301830Z 35003KT 9999 FEW018 FEW020TCU BKN300 28/25 Q1009 NOSIG
2026-04-30 18:00:00,METAR WSSS 301800Z 32003KT 9999 FEW018 BKN300 28/25 Q1010 NOSIG
2026-04-30 17:30:00,METAR WSSS 301730Z 03004KT 350V060 9999 FEW018 BKN300 29/25 Q1010 NOSIG
2026-04-30 17:00:00,METAR WSSS 301700Z 05005KT 9999 FEW018 BKN300 30/25 Q1010 NOSIG
2026-04-30 16:30:00,METAR WSSS 301630Z 04006KT 010V070 9999 FEW018 BKN300 30/25 Q1010 NOSIG
2026-04-30 16:00:00,METAR WSSS 301600Z 06005KT 360V100 9999 FEW018 BKN300 30/25 Q1011 NOSIG
2026-04-30 15:00:00,METAR WSSS 301500Z 05005KT 010V070 9999 FEW018 BKN300 30/25 Q1011 NOSIG
2026-04-30 14:30:00,METAR WSSS 301430Z 02005KT 330V070 9999 FEW018 BKN160 29/25 Q1010 NOSIG
2026-04-30 14:00:00,METAR WSSS 301400Z 36004KT 9999 FEW018 BKN160 29/25 Q1010 NOSIG
2026-04-30 13:30:00,METAR WSSS 301330Z 36005KT 340V040 9999 FEW018 BKN160 29/25 Q1010 NOSIG
2026-04-30 13:00:00,METAR WSSS 301300Z 03007KT 360V060 9999 FEW018 BKN160 30/25 Q1009 NOSIG
2026-04-30 12:30:00,METAR WSSS 301230Z 04009KT 9999 FEW018 BKN160 30/25 Q1008 NOSIG
2026-04-30 12:00:00,METAR WSSS 301200Z 04009KT 9999 FEW016 BKN160 30/25 Q1008 NOSIG
2026-04-30 11:30:00,METAR WSSS 301130Z 04010KT 9999 FEW016 FEW018TCU BKN160 30/25 Q1008 NOSIG
2026-04-30 11:00:00,METAR WSSS 301100Z 06010KT 030V090 9999 FEW016 FEW018TCU BKN160 31/25 Q1007 NOSIG
2026-04-30 10:30:00,METAR WSSS 301030Z VRB02KT 9999 FEW016 FEW018TCU BKN160 30/24 Q1007 NOSIG
2026-04-30 10:00:00,METAR WSSS 301000Z 06007KT 360V140 9999 FEW016 FEW018CB FEW020TCU BKN160 31/25 Q1007 NOSIG
2026-04-30 09:30:00,METAR WSSS 300930Z 05011KT 9999 FEW016 FEW018CB FEW020TCU SCT160 32/25 Q1007 NOSIG
2026-04-30 09:00:00,METAR WSSS 300900Z 04011KT 9999 FEW016 FEW018CB FEW020TCU SCT160 33/25 Q1007 NOSIG
2026-04-30 08:30:00,METAR WSSS 300830Z 05010KT 020V090 9999 FEW018 FEW020TCU SCT160 33/24 Q1007 NOSIG
2026-04-30 08:00:00,METAR WSSS 300800Z VRB09G23KT 9999 FEW018 FEW020TCU BKN300 33/26 Q1007 NOSIG
2026-04-30 07:30:00,METAR WSSS 300730Z 07008KT 040V110 9999 FEW018 FEW020TCU BKN300 33/25 Q1007 NOSIG
2026-04-30 07:00:00,METAR WSSS 300700Z 06008KT 010V160 9999 FEW018 FEW020TCU BKN300 32/25 Q1007 NOSIG
2026-04-30 06:30:00,METAR WSSS 300630Z 07010G22KT 050V110 9999 FEW018 FEW020TCU BKN300 31/25 Q1008 NOSIG
2026-04-30 06:00:00,METAR WSSS 300600Z 08008KT 030V110 9999 -SHRA FEW012 FEW017TCU SCT030 32/26 Q1008 NOSIG
2026-04-30 05:43:00,SPECI WSSS 300543Z 08013KT 030V100 9999 3000S -SHRA FEW012 FEW017TCU SCT030 30/26 Q1009 NOSIG
2026-04-30 05:30:00,METAR WSSS 300530Z 02006KT 310V080 9999 SCT020 SCT170 34/24 Q1009 NOSIG
2026-04-30 05:00:00,METAR WSSS 300500Z 01005KT 310V110 9999 FEW020 BKN170 34/22 Q1009 NOSIG
2026-04-30 04:30:00,METAR WSSS 300430Z VRB03KT 9999 FEW020 BKN170 34/23 Q1010 NOSIG
2026-04-30 04:00:00,METAR WSSS 300400Z 02004KT 340V070 9999 FEW020 BKN300 33/23 Q1010 NOSIG
2026-04-30 03:30:00,METAR WSSS 300330Z 34006KT 9999 FEW020 BKN300 33/24 Q1010 NOSIG
2026-04-30 03:00:00,METAR WSSS 300300Z 35005KT 320V030 9999 FEW020 BKN300 32/24 Q1010 NOSIG
2026-04-30 02:30:00,METAR WSSS 300230Z 34005KT 9999 FEW020 BKN300 32/24 Q1010 NOSIG
2026-04-30 02:00:00,METAR WSSS 300200Z 35005KT 320V020 9999 FEW020 BKN300 32/24 Q1010 NOSIG
2026-04-30 01:30:00,METAR WSSS 300130Z 01004KT 340V070 9999 FEW020 BKN300 31/26 Q1010 NOSIG
2026-04-30 01:00:00,METAR WSSS 300100Z 36003KT 330V050 9999 FEW018 FEW020TCU BKN300 30/26 Q1010 NOSIG
2026-04-30 00:30:00,METAR WSSS 300030Z VRB02KT 9000 FEW018 FEW020CB BKN300 30/26 Q1010 NOSIG
2026-04-30 00:00:00,METAR WSSS 300000Z VRB02KT 9000 FEW016 FEW018TCU BKN300 29/26 Q1009 NOSIG
2026-04-29 23:30:00,METAR WSSS 292330Z 32003KT 280V350 9000 FEW016 FEW018TCU BKN300 27/25 Q1009 NOSIG
2026-04-29 23:00:00,METAR WSSS 292300Z 00000KT 7000 FEW016 FEW018TCU BKN300 27/25 Q1009 NOSIG
2026-04-29 22:30:00,METAR WSSS 292230Z 33003KT 300V010 9000 FEW016 FEW020CB BKN300 27/25 Q1009 NOSIG
2026-04-29 22:00:00,METAR WSSS 292200Z 32003KT 9999 FEW016 FEW020CB BKN300 27/25 Q1009 NOSIG
2026-04-29 21:30:00,METAR WSSS 292130Z 31003KT 9999 FEW016 FEW020CB BKN300 27/25 Q1008 NOSIG
2026-04-29 21:00:00,METAR WSSS 292100Z 33003KT 9999 FEW016 FEW020CB BKN300 27/26 Q1008 NOSIG
2026-04-29 20:30:00,METAR WSSS 292030Z 34002KT 9999 FEW016 BKN300 27/26 Q1008 NOSIG
2026-04-29 20:00:00,METAR WSSS 292000Z 32003KT 9999 FEW016 BKN300 27/26 Q1009 NOSIG
2026-04-29 19:30:00,METAR WSSS 291930Z 34004KT 9999 FEW016 BKN300 27/26 Q1008 NOSIG
2026-04-29 19:00:00,METAR WSSS 291900Z 34003KT 9999 FEW016 BKN300 28/26 Q1009 NOSIG
2026-04-29 18:30:00,METAR WSSS 291830Z 32003KT 9999 FEW016 BKN300 28/26 Q1009 NOSIG
2026-04-29 18:00:00,METAR WSSS 291800Z 34004KT 9999 FEW016 BKN300 28/26 Q1010 NOSIG
2026-04-29 17:30:00,METAR WSSS 291730Z 33002KT 9999 FEW016 BKN300 28/25 Q1010 NOSIG
2026-04-29 17:00:00,METAR WSSS 291700Z 33004KT 9999 FEW016 BKN300 28/25 Q1010 NOSIG
2026-04-29 16:30:00,METAR WSSS 291630Z 33004KT 9999 FEW016 BKN300 28/25 Q1010 NOSIG
2026-04-29 16:00:00,METAR WSSS 291600Z 33003KT 9999 FEW016 BKN300 28/25 Q1010 NOSIG
2026-04-29 15:30:00,METAR WSSS 291530Z 32003KT 290V350 9999 FEW016 BKN300 29/25 Q1010 NOSIG
2026-04-29 15:00:00,METAR WSSS 291500Z 35003KT 9999 FEW016 BKN300 28/25 Q1010 NOSIG
2026-04-29 14:30:00,METAR WSSS 291430Z 34004KT 9999 FEW016 BKN300 29/25 Q1010 NOSIG
2026-04-29 14:00:00,METAR WSSS 291400Z 34004KT 9999 FEW016 BKN300 28/25 Q1009 NOSIG
2026-04-29 13:30:00,METAR WSSS 291330Z 34003KT 9999 FEW016 BKN300 28/25 Q1009 NOSIG
2026-04-29 13:00:00,METAR WSSS 291300Z 34003KT 9999 FEW016 BKN300 29/24 Q1009 NOSIG
2026-04-29 12:30:00,METAR WSSS 291230Z 33002KT 9999 FEW016 BKN300 29/24 Q1009 NOSIG
2026-04-29 12:00:00,METAR WSSS 291200Z VRB02KT 9999 FEW016 BKN300 30/24 Q1008 NOSIG
2026-04-29 11:30:00,METAR WSSS 291130Z 31003KT 260V350 9999 FEW016 FEW018TCU BKN300 30/25 Q1007 NOSIG
2026-04-29 11:00:00,METAR WSSS 291100Z 33005KT 290V360 9999 FEW016 FEW018TCU BKN300 30/25 Q1007 NOSIG
2026-04-29 10:30:00,METAR WSSS 291030Z 35007KT 9999 FEW016 FEW018TCU BKN300 31/25 Q1007 NOSIG
2026-04-29 10:00:00,METAR WSSS 291000Z 02007KT 330V080 9999 FEW018TCU FEW020CB BKN300 31/24 Q1006 NOSIG
2026-04-29 09:30:00,METAR WSSS 290930Z 04008KT 010V070 9999 FEW018TCU FEW020CB BKN300 32/24 Q1006 NOSIG
2026-04-29 09:00:00,METAR WSSS 290900Z 04009KT 340V090 9999 FEW018 FEW020CB BKN300 32/24 Q1006 NOSIG
2026-04-29 08:30:00,METAR WSSS 290830Z 05010KT 020V090 9999 FEW018 FEW020CB BKN300 32/25 Q1006 NOSIG
2026-04-29 08:00:00,METAR WSSS 290800Z 07010G20KT 010V120 9999 FEW018TCU FEW020CB BKN300 32/24 Q1006 NOSIG
2026-04-29 07:30:00,METAR WSSS 290730Z 09010KT 030V140 9999 FEW018TCU FEW020CB SCT040 BKN300 33/25 Q1007 NOSIG
2026-04-29 07:00:00,METAR WSSS 290700Z 09010KT 060V130 9999 FEW018TCU FEW020CB BKN300 33/24 Q1007 NOSIG
2026-04-29 06:30:00,METAR WSSS 290630Z 09009KT 060V150 9999 FEW018TCU FEW020CB BKN300 33/25 Q1008 NOSIG
2026-04-29 06:00:00,METAR WSSS 290600Z VRB07KT 9999 FEW018CB SCT020 BKN300 33/25 Q1008 NOSIG
2026-04-29 05:30:00,METAR WSSS 290530Z 08008KT 040V110 9999 FEW018 FEW020CB BKN300 32/25 Q1009 NOSIG
2026-04-29 05:00:00,METAR WSSS 290500Z 10008KT 070V180 9999 FEW018 FEW020CB BKN300 33/25 Q1009 NOSIG
2026-04-29 04:30:00,METAR WSSS 290430Z VRB07KT 9999 SCT018 FEW020TCU BKN300 32/26 Q1009 NOSIG
2026-04-29 04:00:00,METAR WSSS 290400Z 08007KT 350V130 9999 SCT018 FEW020TCU BKN300 32/25 Q1010 NOSIG
2026-04-29 03:30:00,METAR WSSS 290330Z 05006KT 350V100 9999 SCT018 FEW020TCU BKN300 32/25 Q1010 NOSIG
2026-04-29 03:00:00,METAR WSSS 290300Z 05006KT 350V100 9999 SCT018 BKN300 32/25 Q1010 NOSIG
2026-04-29 02:30:00,METAR WSSS 290230Z 03006KT 340V090 9999 SCT018 BKN300 32/25 Q1011 NOSIG
2026-04-29 02:00:00,METAR WSSS 290200Z 03007KT 350V080 9999 SCT018 BKN300 31/26 Q1010 NOSIG
2026-04-29 01:30:00,METAR WSSS 290130Z 02006KT 330V060 9999 FEW018 BKN300 31/26 Q1010 NOSIG
2026-04-29 01:00:00,METAR WSSS 290100Z 35005KT 320V020 9999 FEW018 BKN300 30/26 Q1010 NOSIG
2026-04-29 00:30:00,METAR WSSS 290030Z 34003KT 9999 FEW018 FEW020TCU BKN300 28/26 Q1009 NOSIG
2026-04-29 00:00:00,METAR WSSS 290000Z 33003KT 9000 FEW016 FEW018TCU BKN300 28/26 Q1009 NOSIG
2026-04-28 23:30:00,METAR WSSS 282330Z 34003KT 320V020 9000 FEW016 FEW020TCU BKN300 27/26 Q1009 NOSIG
2026-04-28 23:00:00,METAR WSSS 282300Z 35002KT 9000 FEW018 FEW020TCU BKN300 27/26 Q1008 NOSIG
2026-04-28 22:30:00,METAR WSSS 282230Z 32002KT 9999 FEW018 FEW020TCU BKN300 27/26 Q1008 NOSIG
2026-04-28 22:00:00,METAR WSSS 282200Z 36003KT 330V070 9999 FEW018 BKN300 27/25 Q1008 NOSIG
2026-04-28 21:30:00,METAR WSSS 282130Z VRB02KT 9999 FEW016 BKN300 27/26 Q1008 NOSIG
2026-04-28 21:00:00,METAR WSSS 282100Z VRB01KT 9999 FEW016 BKN300 27/25 Q1007 NOSIG
2026-04-28 20:30:00,METAR WSSS 282030Z 35003KT 9999 FEW016 BKN300 27/25 Q1007 NOSIG
2026-04-28 20:00:00,METAR WSSS 282000Z VRB02KT 9999 FEW016 BKN300 27/25 Q1007 NOSIG
2026-04-28 19:30:00,METAR WSSS 281930Z 03004KT 340V060 9999 FEW016 BKN300 28/25 Q1007 NOSIG
2026-04-28 19:00:00,METAR WSSS 281900Z 04005KT 010V070 9999 FEW016 BKN300 29/25 Q1007 NOSIG
2026-04-28 18:30:00,METAR WSSS 281830Z VRB02KT 9999 FEW016 BKN300 29/25 Q1008 NOSIG
2026-04-28 18:00:00,METAR WSSS 281800Z 03006KT 9999 FEW016 BKN300 29/25 Q1008 NOSIG
2026-04-28 17:30:00,METAR WSSS 281730Z 36003KT 320V060 9999 FEW016 BKN300 28/25 Q1008 NOSIG
2026-04-28 17:00:00,METAR WSSS 281700Z 36003KT 270V080 9999 FEW016 BKN300 28/25 Q1009 NOSIG
2026-04-28 16:30:00,METAR WSSS 281630Z 35003KT 320V030 9999 FEW016 BKN300 28/25 Q1009 NOSIG
2026-04-28 16:00:00,METAR WSSS 281600Z 34004KT 9999 FEW016 BKN300 28/25 Q1010 NOSIG
2026-04-28 15:30:00,METAR WSSS 281530Z 33004KT 9999 FEW016 BKN300 28/25 Q1009 NOSIG
2026-04-28 15:00:00,METAR WSSS 281500Z 34004KT 9999 FEW018 BKN300 29/25 Q1009 NOSIG
2026-04-28 14:30:00,METAR WSSS 281430Z 35003KT 310V020 9999 FEW018 BKN300 28/25 Q1009 NOSIG
2026-04-28 14:00:00,METAR WSSS 281400Z 03005KT 340V080 9999 FEW018 BKN300 29/25 Q1009 NOSIG
2026-04-28 13:30:00,METAR WSSS 281330Z 04006KT 9999 FEW018 BKN300 29/25 Q1008 NOSIG
2026-04-28 13:00:00,METAR WSSS 281300Z 04006KT 020V080 9999 FEW018 BKN300 29/25 Q1008 NOSIG
2026-04-28 12:30:00,METAR WSSS 281230Z 04007KT 010V080 9999 FEW020 BKN300 29/25 Q1008 NOSIG
2026-04-28 12:00:00,METAR WSSS 281200Z 03009KT 9999 FEW020 BKN300 29/25 Q1007 NOSIG
2026-04-28 11:30:00,METAR WSSS 281130Z 03009KT 010V070 9999 FEW020 BKN300 30/25 Q1007 NOSIG
2026-04-28 11:00:00,METAR WSSS 281100Z 08009KT 040V100 9999 FEW018TCU BKN300 30/25 Q1007 NOSIG
2026-04-28 10:30:00,METAR WSSS 281030Z 09009KT 9999 FEW018TCU BKN300 31/25 Q1006 NOSIG
2026-04-28 10:00:00,METAR WSSS 281000Z 09010KT 050V110 9999 FEW018TCU FEW020CB BKN300 31/25 Q1006 NOSIG
2026-04-28 09:30:00,METAR WSSS 280930Z 10012KT 9999 FEW018TCU FEW020CB SCT300 31/25 Q1006 NOSIG
2026-04-28 09:00:00,METAR WSSS 280900Z 09013KT 9999 FEW018TCU FEW020CB SCT300 31/25 Q1005 NOSIG
2026-04-28 08:30:00,METAR WSSS 280830Z 09013KT 9000 FEW018TCU FEW020CB SCT040 32/25 Q1006 NOSIG
2026-04-28 08:00:00,METAR WSSS 280800Z 09013KT 9999 FEW018TCU FEW020CB SCT300 33/25 Q1006 NOSIG
2026-04-28 07:30:00,METAR WSSS 280730Z 09011KT 9999 FEW018TCU FEW020CB SCT300 33/26 Q1006 NOSIG
2026-04-28 07:00:00,METAR WSSS 280700Z 10009KT 050V120 9999 FEW018TCU FEW020CB BKN300 33/25 Q1006 NOSIG
2026-04-28 06:30:00,METAR WSSS 280630Z 09009KT 060V120 9999 FEW018TCU FEW020CB BKN300 33/25 Q1007 NOSIG
2026-04-28 06:00:00,METAR WSSS 280600Z 11008KT 070V140 9999 FEW020TCU BKN300 33/26 Q1007 NOSIG
2026-04-28 05:30:00,METAR WSSS 280530Z 09008KT 040V160 9999 FEW020TCU BKN300 33/25 Q1008 NOSIG
2026-04-28 05:00:00,METAR WSSS 280500Z 11008KT 070V150 9999 FEW020TCU BKN300 32/26 Q1008 NOSIG
2026-04-28 04:30:00,METAR WSSS 280430Z 10008KT 040V150 9999 FEW020 BKN300 32/26 Q1009 NOSIG
2026-04-28 04:00:00,METAR WSSS 280400Z 09008KT 050V140 9999 FEW020 BKN300 32/26 Q1009 NOSIG
2026-04-28 03:30:00,METAR WSSS 280330Z 09007KT 060V130 9999 FEW018 BKN300 32/26 Q1009 NOSIG
2026-04-28 03:00:00,METAR WSSS 280300Z 05006KT 010V100 9999 FEW018 BKN300 32/26 Q1010 NOSIG
2026-04-28 02:30:00,METAR WSSS 280230Z 06007KT 360V120 9999 FEW018 BKN300 31/26 Q1010 NOSIG
2026-04-28 02:00:00,METAR WSSS 280200Z 04007KT 010V090 9999 FEW018 BKN300 30/26 Q1010 NOSIG
2026-04-28 01:30:00,METAR WSSS 280130Z 04006KT 360V100 9999 FEW018 BKN300 30/26 Q1010 NOSIG
2026-04-28 01:00:00,METAR WSSS 280100Z 04006KT 010V100 9999 FEW018 FEW020TCU BKN300 30/26 Q1009 NOSIG
2026-04-28 00:30:00,METAR WSSS 280030Z 36004KT 340V040 9999 FEW018 FEW020TCU BKN300 29/26 Q1009 NOSIG
2026-04-28 00:00:00,METAR WSSS 280000Z 35003KT 330V050 6000 FEW018 BKN300 28/26 Q1008 NOSIG
2026-04-27 23:46:00,SPECI WSSS 272346Z 35003KT 330V060 6000 FEW018 BKN300 28/26 Q1008 NOSIG
2026-04-27 23:30:00,METAR WSSS 272330Z 36003KT 340V040 5000 BR FEW018 BKN300 26/26 Q1008 BECMG FM0015 TL0045 NSW
2026-04-27 23:00:00,METAR WSSS 272300Z VRB02KT 5000 BR FEW016 BKN300 26/25 Q1008 BECMG FM0015 TL0045 NSW
2026-04-27 22:30:00,METAR WSSS 272230Z VRB02KT 8000 FEW016 BKN300 26/25 Q1007 NOSIG
2026-04-27 22:00:00,METAR WSSS 272200Z VRB01KT 8000 FEW016 BKN300 26/25 Q1007 NOSIG
2026-04-27 21:30:00,METAR WSSS 272130Z VRB01KT 7000 FEW016 BKN300 26/25 Q1007 NOSIG
2026-04-27 21:00:00,METAR WSSS 272100Z VRB02KT 7000 FEW016 BKN300 26/25 Q1007 NOSIG
2026-04-27 20:30:00,METAR WSSS 272030Z 34002KT 7000 FEW016 BKN300 26/25 Q1007 NOSIG
2026-04-27 20:00:00,METAR WSSS 272000Z 35003KT 7000 FEW016 BKN300 26/25 Q1007 NOSIG
2026-04-27 19:30:00,METAR WSSS 271930Z 32003KT 8000 FEW016 BKN300 26/25 Q1007 NOSIG
2026-04-27 19:00:00,METAR WSSS 271900Z 32002KT 8000 FEW016 BKN300 26/25 Q1008 NOSIG
2026-04-27 18:30:00,METAR WSSS 271830Z 31003KT 8000 FEW016 BKN300 26/25 Q1008 NOSIG
2026-04-27 18:00:00,METAR WSSS 271800Z 32003KT 290V360 7000 FEW016 BKN300 27/25 Q1008 NOSIG
2026-04-27 17:30:00,METAR WSSS 271730Z 32003KT 8000 FEW016 BKN300 27/25 Q1009 NOSIG
2026-04-27 17:00:00,METAR WSSS 271700Z 29003KT 260V330 9999 FEW016 BKN300 27/25 Q1009 NOSIG
2026-04-27 16:30:00,METAR WSSS 271630Z 33003KT 300V020 9999 FEW016 BKN300 27/24 Q1010 NOSIG
2026-04-27 16:00:00,METAR WSSS 271600Z 33005KT 9999 FEW016 BKN300 27/25 Q1010 NOSIG
2026-04-27 15:30:00,METAR WSSS 271530Z 33003KT 9999 FEW016 BKN300 27/25 Q1010 NOSIG
2026-04-27 15:00:00,METAR WSSS 271500Z 32003KT 9999 FEW016 BKN300 27/24 Q1010 NOSIG
2026-04-27 14:30:00,METAR WSSS 271430Z 00000KT 9999 FEW016 BKN300 27/24 Q1010 NOSIG
2026-04-27 14:00:00,METAR WSSS 271400Z 30002KT 9999 FEW016 BKN300 27/24 Q1010 NOSIG
2026-04-27 13:30:00,METAR WSSS 271330Z 33003KT 9999 FEW016 SCT050 BKN300 27/24 Q1010 NOSIG
2026-04-27 13:00:00,METAR WSSS 271300Z 29003KT 8000 FEW016 SCT050 BKN300 28/23 Q1009 NOSIG
2026-04-27 12:30:00,METAR WSSS 271230Z 30005KT 260V330 9999 FEW015 FEW017TCU BKN300 28/23 Q1009 NOSIG
2026-04-27 12:00:00,METAR WSSS 271200Z 09005KT 030V120 9999 FEW015 FEW017TCU BKN300 29/25 Q1009 NOSIG
2026-04-27 11:30:00,METAR WSSS 271130Z 11005KT 080V140 9999 FEW015 FEW017TCU BKN300 30/25 Q1008 NOSIG
2026-04-27 11:00:00,METAR WSSS 271100Z 06006KT 020V120 9999 FEW015 FEW017TCU BKN300 30/25 Q1007 NOSIG
2026-04-27 10:30:00,METAR WSSS 271030Z 07005KT 020V110 9999 FEW018TCU SCT280 BKN300 30/26 Q1007 NOSIG
2026-04-27 10:00:00,METAR WSSS 271000Z 07007KT 030V100 9999 FEW018TCU FEW020CB SCT280 BKN300 30/25 Q1007 NOSIG
2026-04-27 09:30:00,METAR WSSS 270930Z 03006KT 350V070 9999 FEW018TCU FEW020CB BKN280 30/25 Q1007 NOSIG
2026-04-27 09:00:00,METAR WSSS 270900Z 07006KT 030V100 9999 FEW016 FEW018TCU FEW020CB BKN280 30/25 Q1006 NOSIG
2026-04-27 08:30:00,METAR WSSS 270830Z 09008KT 060V120 9999 FEW018 FEW020TCU BKN270 30/25 Q1007 NOSIG
2026-04-27 08:00:00,METAR WSSS 270800Z 13008KT 9999 FEW018 FEW020TCU BKN270 30/25 Q1007 NOSIG
2026-04-27 07:30:00,METAR WSSS 270730Z 10006KT 9999 FEW018TCU BKN270 30/26 Q1007 NOSIG
2026-04-27 07:00:00,METAR WSSS 270700Z 13007KT 080V160 9999 FEW015 FEW018TCU BKN270 29/26 Q1007 NOSIG
2026-04-27 06:30:00,METAR WSSS 270630Z 11011KT 080V140 9999 -SHRA FEW015 FEW017TCU FEW020CB SCT280 29/26 Q1007 NOSIG
2026-04-27 06:00:00,METAR WSSS 270600Z 10006KT 050V160 9000 -SHRA FEW015 FEW017TCU FEW020CB SCT280 29/26 Q1008 NOSIG
2026-04-27 05:30:00,METAR WSSS 270530Z 09008KT 060V120 8000 -SHRA FEW015 FEW017TCU FEW020CB SCT280 30/25 Q1008 NOSIG
2026-04-27 05:00:00,METAR WSSS 270500Z VRB02KT 9999 FEW018TCU FEW020CB SCT300 31/24 Q1009 NOSIG
2026-04-27 04:30:00,METAR WSSS 270430Z VRB03KT 9000 -SHRA FEW016TCU FEW018CB SCT280 30/25 Q1009 NOSIG
2026-04-27 04:00:00,METAR WSSS 270400Z 03005KT 330V070 5000 -SHRA FEW016TCU FEW018CB SCT270 28/25 Q1010 RESHRA NOSIG
2026-04-27 03:33:00,SPECI WSSS 270333Z 06011KT 3000 SHRA FEW013 SCT016TCU FEW018CB 28/24 Q1010 TEMPO TL0400 TSRA BECMG FM0400 TL0415 6000 NSW
2026-04-27 03:30:00,METAR WSSS 270330Z 06010KT 7000 3000E -SHRA FEW013 SCT016TCU FEW018CB 29/25 Q1010 TEMPO TL0400 4000 TSRA
2026-04-27 03:00:00,METAR WSSS 270300Z 33003KT 280V360 9999 -SHRA FEW016TCU SCT018 BKN300 30/25 Q1010 NOSIG
2026-04-27 02:30:00,METAR WSSS 270230Z 05005KT 360V100 9999 FEW018 FEW020TCU BKN300 31/25 Q1010 NOSIG
2026-04-27 02:00:00,METAR WSSS 270200Z 35005KT 320V020 9999 FEW018 FEW020TCU BKN300 31/25 Q1010 NOSIG
2026-04-27 01:30:00,METAR WSSS 270130Z 03006KT 330V070 9999 FEW018 FEW020TCU BKN300 30/26 Q1009 NOSIG
2026-04-27 01:00:00,METAR WSSS 270100Z 35003KT 320V080 9999 FEW018TCU FEW020CB BKN300 30/26 Q1009 NOSIG
2026-04-27 00:30:00,METAR WSSS 270030Z 33003KT 300V360 9999 FEW018TCU FEW020CB BKN300 29/26 Q1009 NOSIG
2026-04-27 00:00:00,METAR WSSS 270000Z VRB01KT 9999 FEW018 FEW020CB BKN300 27/25 Q1009 NOSIG
2026-04-26 23:30:00,METAR WSSS 262330Z 31002KT 9999 FEW018 FEW020CB BKN300 27/25 Q1008 NOSIG
2026-04-26 23:00:00,METAR WSSS 262300Z 31002KT 9999 FEW018 FEW020CB BKN300 26/25 Q1008 NOSIG
2026-04-26 22:30:00,METAR WSSS 262230Z 33003KT 9999 FEW018 BKN300 27/25 Q1008 NOSIG
2026-04-26 22:00:00,METAR WSSS 262200Z VRB01KT 9999 FEW018 BKN300 26/25 Q1007 NOSIG
2026-04-26 21:30:00,METAR WSSS 262130Z 35001KT 9999 FEW018 BKN300 27/25 Q1007 NOSIG
2026-04-26 21:00:00,METAR WSSS 262100Z 32002KT 9999 FEW018 BKN300 27/25 Q1007 NOSIG
2026-04-26 20:30:00,METAR WSSS 262030Z 33003KT 9999 FEW018 BKN300 27/25 Q1007 NOSIG
2026-04-26 20:00:00,METAR WSSS 262000Z 33002KT 9999 FEW018 BKN300 27/25 Q1007 NOSIG
2026-04-26 19:30:00,METAR WSSS 261930Z VRB01KT 9999 FEW018 BKN300 27/25 Q1007 NOSIG
2026-04-26 19:00:00,METAR WSSS 261900Z 35003KT 9999 FEW018 BKN300 27/25 Q1007 NOSIG
2026-04-26 18:30:00,METAR WSSS 261830Z 35002KT 9999 FEW018 BKN300 27/25 Q1008 NOSIG
2026-04-26 18:00:00,METAR WSSS 261800Z 35002KT 9999 FEW018 BKN300 27/25 Q1008 NOSIG
2026-04-26 17:30:00,METAR WSSS 261730Z VRB02KT 9999 FEW018 BKN300 27/25 Q1008 NOSIG
2026-04-26 17:00:00,METAR WSSS 261700Z 34002KT 9999 FEW018 BKN300 27/25 Q1009 NOSIG
2026-04-26 16:30:00,METAR WSSS 261630Z 34003KT 9999 FEW018 BKN300 27/25 Q1009 NOSIG
2026-04-26 16:00:00,METAR WSSS 261600Z 34003KT 9999 FEW018 BKN300 27/26 Q1009 NOSIG
2026-04-26 15:30:00,METAR WSSS 261530Z 32002KT 9999 FEW018 BKN300 27/25 Q1009 NOSIG
2026-04-26 15:00:00,METAR WSSS 261500Z 33003KT 9999 FEW018 BKN300 27/25 Q1009 NOSIG
2026-04-26 14:30:00,METAR WSSS 261430Z 34004KT 9999 FEW018 BKN300 28/26 Q1009 NOSIG
2026-04-26 14:00:00,METAR WSSS 261400Z 33003KT 9999 FEW018 BKN300 28/26 Q1009 NOSIG
2026-04-26 13:30:00,METAR WSSS 261330Z 35005KT 9999 FEW018 BKN300 28/25 Q1009 NOSIG
2026-04-26 13:00:00,METAR WSSS 261300Z 35005KT 9999 FEW018 BKN300 28/25 Q1009 NOSIG
2026-04-26 12:30:00,METAR WSSS 261230Z 34004KT 9999 FEW018 BKN300 28/25 Q1008 NOSIG
2026-04-26 12:00:00,METAR WSSS 261200Z 35004KT 310V050 9999 FEW018 BKN300 29/25 Q1008 NOSIG
2026-04-26 11:30:00,METAR WSSS 261130Z 04007KT 010V080 9999 FEW018 BKN300 30/25 Q1008 NOSIG
2026-04-26 11:00:00,METAR WSSS 261100Z VRB03KT 9999 FEW018 FEW020TCU BKN300 29/26 Q1007 NOSIG
2026-04-26 10:30:00,METAR WSSS 261030Z 17003KT 110V220 9999 FEW018 FEW020TCU BKN300 29/25 Q1007 NOSIG
2026-04-26 10:00:00,METAR WSSS 261000Z 16005KT 120V200 9999 FEW018 FEW020TCU BKN300 29/25 Q1006 NOSIG
2026-04-26 09:30:00,METAR WSSS 260930Z VRB06KT 9999 FEW018 FEW020TCU BKN300 31/25 Q1006 NOSIG
2026-04-26 09:00:00,METAR WSSS 260900Z VRB04KT 9999 FEW018 FEW020TCU BKN300 30/26 Q1006 NOSIG
2026-04-26 08:30:00,METAR WSSS 260830Z 20004KT 160V230 9999 FEW018 FEW020TCU BKN300 30/26 Q1006 NOSIG
2026-04-26 08:00:00,METAR WSSS 260800Z 17003KT 130V220 9999 FEW016 FEW018TCU BKN300 30/26 Q1007 NOSIG
2026-04-26 07:30:00,METAR WSSS 260730Z 18003KT 130V210 9999 -SHRA FEW012 FEW016CB SCT017TCU 28/25 Q1007 NOSIG
2026-04-26 07:00:00,METAR WSSS 260700Z 19006KT 9999 -SHRA FEW012 FEW016CB SCT017TCU 28/26 Q1007 NOSIG
2026-04-26 06:30:00,METAR WSSS 260630Z 21008KT 9999 -SHRA FEW012 FEW016CB SCT017TCU 28/25 Q1008 NOSIG
2026-04-26 06:00:00,METAR WSSS 260600Z VRB04KT 9999 -SHRA FEW012 FEW016CB SCT017TCU 29/24 Q1008 TEMPO TL0630 3000 SHRA
2026-04-26 05:30:00,METAR WSSS 260530Z 03008KT 340V060 9999 -SHRA FEW014 FEW017CB SCT018TCU 31/25 Q1008 NOSIG
2026-04-26 05:15:00,SPECI WSSS 260515Z 36010KT 9999 -SHRA FEW014 FEW017CB SCT018TCU 30/26 Q1009 NOSIG
2026-04-26 05:00:00,METAR WSSS 260500Z 17008KT 140V200 9999 FEW014 FEW017CB SCT018TCU 30/26 Q1009 RETS NOSIG
2026-04-26 04:30:00,METAR WSSS 260430Z 36005KT 280V050 8000 -TSRA FEW014 FEW017CB SCT018TCU 31/25 Q1009 BECMG FM0445 TL0500 NSW
2026-04-26 04:00:00,METAR WSSS 260400Z 01009KT 8000 -TSRA FEW014 FEW018CB SCT020TCU 31/25 Q1010 BECMG FM0445 TL0500 NSW
2026-04-26 03:39:00,SPECI WSSS 260339Z 36010KT 320V040 9999 VCTS FEW014 FEW018CB SCT020TCU 32/25 Q1010 BECMG FM0415 TL0430 NSW
2026-04-26 03:30:00,METAR WSSS 260330Z 35008KT 310V020 9999 VCSH FEW016 FEW018CB SCT020TCU 32/25 Q1010 NOSIG
2026-04-26 03:00:00,METAR WSSS 260300Z 36009KT 330V030 9999 SCT018 FEW020TCU BKN300 32/26 Q1010 NOSIG
2026-04-26 02:30:00,METAR WSSS 260230Z 36008KT 9999 SCT016 FEW018TCU BKN300 31/26 Q1010 NOSIG
2026-04-26 02:00:00,METAR WSSS 260200Z 36006KT 310V040 9000 SCT016 FEW018TCU BKN300 31/26 Q1010 NOSIG
2026-04-26 01:30:00,METAR WSSS 260130Z 34003KT 270V030 9000 FEW016 FEW018TCU BKN300 30/26 Q1010 NOSIG
2026-04-26 01:00:00,METAR WSSS 260100Z 34004KT 300V010 9000 FEW016 FEW018TCU BKN300 30/26 Q1010 NOSIG
2026-04-26 00:30:00,METAR WSSS 260030Z 33004KT 300V360 9000 FEW016 FEW018CB SCT170 29/26 Q1010 NOSIG
2026-04-26 00:00:00,METAR WSSS 260000Z 33004KT 9999 FEW016 FEW018CB SCT170 28/25 Q1009 NOSIG
2026-04-25 23:30:00,METAR WSSS 252330Z 34003KT 9999 FEW016 FEW018TCU SCT160 28/26 Q1009 NOSIG
2026-04-25 23:00:00,METAR WSSS 252300Z 33003KT 9999 FEW016 FEW018TCU BKN160 27/26 Q1009 NOSIG
2026-04-25 22:30:00,METAR WSSS 252230Z 33003KT 9999 FEW016 BKN150 28/25 Q1008 NOSIG
2026-04-25 22:00:00,METAR WSSS 252200Z 34003KT 9999 FEW016 BKN150 28/25 Q1008 NOSIG
2026-04-25 21:30:00,METAR WSSS 252130Z 35002KT 9999 FEW016 BKN150 28/25 Q1008 NOSIG
2026-04-25 21:00:00,METAR WSSS 252100Z 32003KT 290V360 9999 FEW016 BKN150 28/25 Q1008 NOSIG
2026-04-25 20:30:00,METAR WSSS 252030Z VRB02KT 9999 FEW016 BKN160 27/25 Q1008 NOSIG
2026-04-25 20:00:00,METAR WSSS 252000Z 33003KT 300V360 9999 FEW016 SCT160 BKN280 27/25 Q1008 NOSIG
2026-04-25 19:30:00,METAR WSSS 251930Z 33004KT 9999 FEW016 SCT030 BKN280 27/25 Q1008 NOSIG
2026-04-25 19:00:00,METAR WSSS 251900Z 34003KT 9999 FEW016 SCT040 BKN280 27/25 Q1008 NOSIG
2026-04-25 18:30:00,METAR WSSS 251830Z VRB02KT 9999 FEW018 SCT040 BKN270 28/25 Q1009 NOSIG
2026-04-25 18:00:00,METAR WSSS 251800Z 05004KT 010V090 9999 FEW018 BKN270 28/25 Q1009 NOSIG
2026-04-25 17:30:00,METAR WSSS 251730Z 06005KT 020V100 9999 FEW018 BKN270 28/25 Q1009 NOSIG
2026-04-25 17:00:00,METAR WSSS 251700Z 07006KT 030V090 9999 FEW018 BKN270 28/25 Q1010 NOSIG
2026-04-25 16:30:00,METAR WSSS 251630Z 36005KT 9999 FEW018 BKN270 28/26 Q1010 NOSIG
2026-04-25 16:00:00,METAR WSSS 251600Z 35003KT 9999 FEW018 BKN270 28/25 Q1010 NOSIG
2026-04-25 15:30:00,METAR WSSS 251530Z 34004KT 9999 FEW018 BKN270 28/23 Q1010 NOSIG
2026-04-25 15:00:00,METAR WSSS 251500Z VRB02KT 9999 FEW018 BKN270 28/23 Q1011 NOSIG
2026-04-25 14:30:00,METAR WSSS 251430Z 08006KT 060V130 9999 FEW018 BKN270 28/23 Q1011 NOSIG
2026-04-25 14:00:00,METAR WSSS 251400Z 10005KT 020V140 9999 FEW018 BKN270 29/23 Q1011 NOSIG
2026-04-25 13:30:00,METAR WSSS 251330Z 06005KT 020V080 9999 FEW018 SCT270 30/25 Q1011 NOSIG
2026-04-25 13:00:00,METAR WSSS 251300Z 04006KT 010V080 9999 FEW018 FEW020CB BKN300 30/25 Q1010 NOSIG
2026-04-25 12:30:00,METAR WSSS 251230Z 04008KT 9999 FEW018 FEW020CB BKN300 30/25 Q1010 NOSIG
2026-04-25 12:00:00,METAR WSSS 251200Z 04009KT 9999 FEW018 FEW020CB BKN300 30/25 Q1009 NOSIG
2026-04-25 11:30:00,METAR WSSS 251130Z 04009KT 9999 FEW018TCU BKN300 30/25 Q1008 NOSIG
2026-04-25 11:00:00,METAR WSSS 251100Z 04009KT 010V070 9999 FEW018TCU FEW020CB BKN300 31/25 Q1008 NOSIG
2026-04-25 10:30:00,METAR WSSS 251030Z 04010KT 9999 FEW018 FEW020TCU BKN300 31/24 Q1008 NOSIG
2026-04-25 10:00:00,METAR WSSS 251000Z 04011KT 9999 FEW018TCU FEW020CB BKN300 32/24 Q1007 NOSIG
2026-04-25 09:30:00,METAR WSSS 250930Z 04010KT 9999 FEW018 FEW020CB BKN300 32/24 Q1007 NOSIG
2026-04-25 09:00:00,METAR WSSS 250900Z 04012KT 360V060 9999 FEW018 FEW020CB BKN300 33/24 Q1007 NOSIG
2026-04-25 08:30:00,METAR WSSS 250830Z 03012KT 360V060 9999 FEW018 FEW020CB BKN300 33/24 Q1006 NOSIG
2026-04-25 08:00:00,METAR WSSS 250800Z 03012KT 9999 FEW018 FEW020CB BKN300 34/24 Q1006 NOSIG
2026-04-25 07:30:00,METAR WSSS 250730Z 02011KT 350V060 9999 FEW020 BKN300 34/24 Q1007 NOSIG
2026-04-25 07:00:00,METAR WSSS 250700Z 36010KT 320V040 9999 FEW020 BKN300 34/25 Q1007 NOSIG
2026-04-25 06:30:00,METAR WSSS 250630Z 35009KT 9999 SCT020 BKN300 34/25 Q1007 NOSIG
2026-04-25 06:00:00,METAR WSSS 250600Z 35010KT 9999 FEW020 BKN300 34/25 Q1008 NOSIG
2026-04-25 05:30:00,METAR WSSS 250530Z 36008KT 290V030 9999 FEW020 BKN300 33/25 Q1008 NOSIG
2026-04-25 05:00:00,METAR WSSS 250500Z 36008KT 320V030 9999 FEW020TCU BKN300 33/25 Q1009 NOSIG
2026-04-25 04:30:00,METAR WSSS 250430Z 35008KT 320V020 9999 FEW018TCU SCT020 BKN300 32/25 Q1009 NOSIG
2026-04-25 04:00:00,METAR WSSS 250400Z 36009KT 340V040 9999 FEW018TCU SCT020 BKN300 32/25 Q1010 NOSIG
2026-04-25 03:30:00,METAR WSSS 250330Z 02007KT 340V060 9999 SCT020 BKN300 32/26 Q1010 NOSIG
2026-04-25 03:00:00,METAR WSSS 250300Z 35007KT 320V020 9999 SCT018 BKN300 32/26 Q1010 NOSIG
2026-04-25 02:30:00,METAR WSSS 250230Z 35006KT 310V050 9999 SCT018 BKN300 32/26 Q1010 NOSIG
2026-04-25 02:00:00,METAR WSSS 250200Z 35008KT 300V030 9999 FEW018 BKN300 31/26 Q1010 NOSIG
2026-04-25 01:30:00,METAR WSSS 250130Z 36007KT 9999 FEW018 BKN300 31/26 Q1010 NOSIG
2026-04-25 01:00:00,METAR WSSS 250100Z 36007KT 9999 FEW018 BKN300 30/25 Q1010 NOSIG
2026-04-25 00:30:00,METAR WSSS 250030Z 36006KT 9999 FEW018 BKN300 29/26 Q1009 NOSIG
2026-04-25 00:00:00,METAR WSSS 250000Z 34004KT 300V360 9999 FEW018 FEW020TCU BKN300 29/26 Q1009 NOSIG
2026-04-24 23:30:00,METAR WSSS 242330Z 34003KT 310V030 9999 FEW018 FEW020TCU BKN300 28/26 Q1009 NOSIG
2026-04-24 23:00:00,METAR WSSS 242300Z 03006KT 360V060 9999 FEW018 FEW020TCU BKN300 28/25 Q1008 NOSIG
2026-04-24 22:30:00,METAR WSSS 242230Z 36003KT 330V050 9999 FEW018 FEW020TCU BKN300 27/25 Q1008 NOSIG
2026-04-24 22:00:00,METAR WSSS 242200Z 03007KT 360V060 9999 FEW016 BKN300 28/25 Q1008 NOSIG
2026-04-24 21:30:00,METAR WSSS 242130Z 36003KT 330V080 9999 FEW016 BKN300 27/25 Q1008 NOSIG
2026-04-24 21:00:00,METAR WSSS 242100Z 03005KT 9999 FEW016 BKN300 28/25 Q1008 NOSIG
2026-04-24 20:30:00,METAR WSSS 242030Z 02004KT 340V070 9999 FEW016 BKN300 28/25 Q1008 NOSIG
2026-04-24 20:00:00,METAR WSSS 242000Z 04005KT 9999 FEW016 BKN300 28/25 Q1008 NOSIG
2026-04-24 19:30:00,METAR WSSS 241930Z VRB02KT 9999 FEW016 BKN300 27/25 Q1008 NOSIG
2026-04-24 19:00:00,METAR WSSS 241900Z 33003KT 300V360 9999 FEW016 BKN300 28/25 Q1008 NOSIG
2026-04-24 18:30:00,METAR WSSS 241830Z 35003KT 330V050 9999 FEW016 BKN300 27/25 Q1008 NOSIG
2026-04-24 18:00:00,METAR WSSS 241800Z 36004KT 330V040 9999 FEW016 BKN300 28/25 Q1008 NOSIG
2026-04-24 17:30:00,METAR WSSS 241730Z VRB02KT 9999 FEW016 BKN300 28/25 Q1008 NOSIG
2026-04-24 17:00:00,METAR WSSS 241700Z VRB02KT 9999 FEW016 BKN300 28/25 Q1009 NOSIG
2026-04-24 16:30:00,METAR WSSS 241630Z VRB02KT 9999 FEW016 BKN300 28/25 Q1009 NOSIG
2026-04-24 16:00:00,METAR WSSS 241600Z 36003KT 330V060 9999 FEW018 BKN300 28/25 Q1009 NOSIG
2026-04-24 15:30:00,METAR WSSS 241530Z 03006KT 350V050 9999 FEW018 BKN300 29/25 Q1010 NOSIG
2026-04-24 15:00:00,METAR WSSS 241500Z 04007KT 9999 FEW016 BKN300 29/25 Q1009 NOSIG
2026-04-24 14:30:00,METAR WSSS 241430Z 03007KT 350V070 9999 FEW016 BKN300 29/25 Q1009 NOSIG
2026-04-24 14:00:00,METAR WSSS 241400Z 03004KT 340V070 9999 FEW016 BKN300 29/25 Q1009 NOSIG
2026-04-24 13:30:00,METAR WSSS 241330Z 03006KT 010V070 9999 FEW016 BKN300 29/25 Q1009 NOSIG
2026-04-24 13:00:00,METAR WSSS 241300Z 06007KT 9999 FEW018 BKN300 29/25 Q1008 NOSIG
2026-04-24 12:30:00,METAR WSSS 241230Z 06006KT 020V080 9999 FEW018 BKN300 29/25 Q1008 NOSIG
2026-04-24 12:00:00,METAR WSSS 241200Z 04008KT 010V070 9999 FEW018 BKN300 29/25 Q1007 NOSIG
2026-04-24 11:30:00,METAR WSSS 241130Z 04008KT 9999 FEW018TCU BKN300 29/25 Q1007 NOSIG
2026-04-24 11:00:00,METAR WSSS 241100Z 05008KT 020V080 9999 FEW018TCU BKN300 30/25 Q1006 NOSIG
2026-04-24 10:30:00,METAR WSSS 241030Z 04009KT 9999 FEW018TCU SCT280 30/25 Q1006 NOSIG
2026-04-24 10:00:00,METAR WSSS 241000Z 03008KT 9999 FEW018TCU SCT280 30/25 Q1006 NOSIG
2026-04-24 09:30:00,METAR WSSS 240930Z 04008KT 010V070 9999 FEW018TCU SCT270 31/25 Q1006 NOSIG
2026-04-24 09:00:00,METAR WSSS 240900Z 03009KT 010V070 9999 FEW017CB FEW018TCU SCT270 31/25 Q1006 RETS NOSIG
2026-04-24 08:30:00,METAR WSSS 240830Z 04011KT 9999 TS FEW017CB FEW018TCU SCT170 31/25 Q1006 BECMG FM0945 TL1000 NSW
2026-04-24 08:00:00,METAR WSSS 240800Z 09010KT 060V140 9999 TS FEW017CB FEW018TCU SCT170 31/25 Q1006 BECMG FM0945 NSW
2026-04-24 07:30:00,METAR WSSS 240730Z 09011KT 060V120 9999 FEW017CB FEW018TCU SCT020 31/25 Q1006 NOSIG
2026-04-24 07:12:00,SPECI WSSS 240712Z 10011KT 060V120 9999 -SHRA FEW017CB FEW018TCU SCT020 31/25 Q1006 NOSIG
2026-04-24 07:00:00,METAR WSSS 240700Z 01008KT 340V040 9999 FEW017CB FEW018TCU SCT020 31/25 Q1006 NOSIG
2026-04-24 06:30:00,METAR WSSS 240630Z 07011KT 030V100 9999 FEW017CB FEW018TCU SCT020 33/25 Q1006 NOSIG
2026-04-24 06:00:00,METAR WSSS 240600Z 08011KT 040V120 9999 FEW017CB FEW018TCU SCT020 32/26 Q1007 NOSIG
2026-04-24 05:30:00,METAR WSSS 240530Z 07010KT 040V110 9999 FEW017CB FEW018TCU SCT300 33/26 Q1007 NOSIG
2026-04-24 05:00:00,METAR WSSS 240500Z 07009KT 030V100 9999 VCSH FEW017CB FEW018TCU SCT300 32/26 Q1008 NOSIG
2026-04-24 04:30:00,METAR WSSS 240430Z 05011KT 020V080 9999 VCSH FEW015TCU FEW017CB SCT018 32/26 Q1009 NOSIG
2026-04-24 04:00:00,METAR WSSS 240400Z 09008KT 030V120 9999 VCSH FEW016TCU SCT018 BKN300 32/26 Q1009 NOSIG
2026-04-24 03:30:00,METAR WSSS 240330Z 07008KT 010V130 9999 VCSH FEW016TCU SCT018 BKN300 32/26 Q1009 NOSIG
2026-04-24 03:00:00,METAR WSSS 240300Z 10007KT 060V130 9999 SCT018 FEW020TCU BKN300 31/27 Q1009 NOSIG
2026-04-24 02:30:00,METAR WSSS 240230Z 09005KT 360V140 9999 SCT018 BKN300 31/26 Q1009 NOSIG
2026-04-24 02:00:00,METAR WSSS 240200Z 08005KT 050V160 9999 FEW018 BKN300 31/25 Q1009 NOSIG
2026-04-24 01:30:00,METAR WSSS 240130Z 08006KT 040V140 9999 FEW017TCU BKN300 30/26 Q1009 NOSIG
2026-04-24 01:00:00,METAR WSSS 240100Z VRB04KT 9999 FEW017TCU BKN300 29/26 Q1009 NOSIG
2026-04-24 00:30:00,METAR WSSS 240030Z 09004G14KT 030V200 7000 -SHRA FEW016 FEW018TCU BKN300 29/25 Q1009 NOSIG
2026-04-24 00:00:00,METAR WSSS 240000Z 05005KT 010V120 9999 FEW016 FEW018TCU BKN300 29/25 Q1008 NOSIG
2026-04-23 23:30:00,METAR WSSS 232330Z 06005KT 020V100 9999 FEW016 FEW018TCU BKN300 29/26 Q1008 NOSIG
2026-04-23 23:00:00,METAR WSSS 232300Z 05004KT 340V110 9999 VCSH FEW016 FEW018TCU SCT300 28/25 Q1007 NOSIG
2026-04-23 22:30:00,METAR WSSS 232230Z 07005KT 020V100 9999 FEW016 BKN300 29/25 Q1007 NOSIG
2026-04-23 22:00:00,METAR WSSS 232200Z 06004KT 010V100 9999 FEW016 BKN300 29/25 Q1007 NOSIG
2026-04-23 21:30:00,METAR WSSS 232130Z 04005KT 9999 FEW016 BKN300 28/26 Q1007 NOSIG
2026-04-23 21:00:00,METAR WSSS 232100Z 03005KT 360V060 9999 FEW016 BKN300 28/25 Q1007 NOSIG
2026-04-23 20:30:00,METAR WSSS 232030Z 02004KT 350V060 9999 FEW016 BKN300 28/25 Q1007 NOSIG
2026-04-23 20:00:00,METAR WSSS 232000Z 02004KT 9999 FEW016 BKN300 28/25 Q1007 NOSIG
2026-04-23 19:30:00,METAR WSSS 231930Z 04005KT 010V080 9999 FEW016 BKN300 28/25 Q1007 NOSIG
2026-04-23 19:00:00,METAR WSSS 231900Z 04006KT 010V070 9999 FEW016 BKN300 28/25 Q1007 NOSIG
2026-04-23 18:30:00,METAR WSSS 231830Z 03006KT 9999 SCT016 BKN300 29/26 Q1007 NOSIG
2026-04-23 18:00:00,METAR WSSS 231800Z 04006KT 010V080 9999 FEW016 BKN300 29/26 Q1007 NOSIG
2026-04-23 17:30:00,METAR WSSS 231730Z 08007KT 9999 FEW016 FEW018TCU BKN300 29/26 Q1008 NOSIG
2026-04-23 17:00:00,METAR WSSS 231700Z 09006KT 9999 FEW016 BKN300 29/26 Q1008 NOSIG
2026-04-23 16:30:00,METAR WSSS 231630Z 08007KT 9999 FEW016 BKN300 29/26 Q1008 NOSIG
2026-04-23 16:00:00,METAR WSSS 231600Z 10008KT 9999 FEW016 BKN300 29/25 Q1008 NOSIG
2026-04-23 15:30:00,METAR WSSS 231530Z 10008KT 070V130 9999 FEW016 FEW018TCU BKN300 29/26 Q1009 NOSIG
2026-04-23 15:00:00,METAR WSSS 231500Z 10007KT 050V130 9999 FEW016 FEW018TCU BKN300 29/26 Q1009 NOSIG
2026-04-23 14:30:00,METAR WSSS 231430Z 08007KT 030V140 9999 FEW016 FEW018TCU BKN300 30/26 Q1008 NOSIG
2026-04-23 14:00:00,METAR WSSS 231400Z 09008KT 040V120 9999 FEW016 FEW018TCU BKN300 30/25 Q1008 NOSIG
2026-04-23 13:30:00,METAR WSSS 231330Z 07006KT 040V100 9999 FEW016 FEW018TCU BKN300 30/25 Q1008 NOSIG
2026-04-23 13:00:00,METAR WSSS 231300Z 06007KT 010V100 9999 FEW018 BKN300 30/25 Q1008 NOSIG
2026-04-23 12:30:00,METAR WSSS 231230Z 06008KT 020V090 9999 FEW016 BKN300 29/25 Q1007 NOSIG
2026-04-23 12:00:00,METAR WSSS 231200Z 05008KT 9999 FEW016 FEW018TCU BKN300 30/25 Q1007 NOSIG
2026-04-23 11:30:00,METAR WSSS 231130Z 04009KT 010V070 9999 FEW016 FEW018TCU SCT280 30/25 Q1007 NOSIG
2026-04-23 11:00:00,METAR WSSS 231100Z 09008KT 9999 FEW016 FEW018TCU BKN280 30/25 Q1006 NOSIG
2026-04-23 10:30:00,METAR WSSS 231030Z 08008KT 9999 FEW015 FEW018TCU FEW020CB BKN270 30/25 Q1006 NOSIG
2026-04-23 10:00:00,METAR WSSS 231000Z 08010KT 9999 VCSH FEW015 FEW017TCU FEW018CB BKN270 30/25 Q1006 NOSIG
2026-04-23 09:30:00,METAR WSSS 230930Z 08012KT 040V120 9999 FEW017TCU FEW018CB SCT040 BKN270 31/24 Q1006 NOSIG
2026-04-23 09:00:00,METAR WSSS 230900Z 09011G21KT 050V110 9999 VCSH FEW017TCU FEW018CB BKN270 31/25 Q1006 NOSIG
2026-04-23 08:30:00,METAR WSSS 230830Z 09010KT 060V140 9999 VCSH FEW017TCU FEW018CB BKN270 32/24 Q1006 NOSIG
2026-04-23 08:00:00,METAR WSSS 230800Z 10009KT 070V130 9999 FEW017TCU FEW018CB SCT270 32/23 Q1006 NOSIG
2026-04-23 07:30:00,METAR WSSS 230730Z 08009KT 040V120 9999 FEW017TCU FEW018CB SCT270 32/24 Q1006 NOSIG
2026-04-23 07:00:00,METAR WSSS 230700Z 05008KT 020V110 9999 FEW017TCU FEW018CB SCT300 33/24 Q1006 NOSIG
2026-04-23 06:30:00,METAR WSSS 230630Z 09007KT 010V130 9999 FEW018TCU FEW020CB BKN300 34/23 Q1006 NOSIG
2026-04-23 06:00:00,METAR WSSS 230600Z 08007KT 030V120 9999 FEW018TCU FEW020CB BKN300 33/23 Q1007 NOSIG
2026-04-23 05:30:00,METAR WSSS 230530Z 08005KT 020V120 9999 VCSH FEW018TCU FEW020CB BKN300 33/22 Q1007 NOSIG
2026-04-23 05:00:00,METAR WSSS 230500Z 12006KT 090V170 9999 FEW018TCU BKN300 33/24 Q1008 NOSIG
2026-04-23 04:30:00,METAR WSSS 230430Z 08006KT 030V120 9999 FEW018TCU BKN300 32/25 Q1008 NOSIG
2026-04-23 04:00:00,METAR WSSS 230400Z 09007KT 040V120 9999 FEW018TCU BKN300 32/26 Q1008 NOSIG
2026-04-23 03:30:00,METAR WSSS 230330Z 08007G17KT 010V130 9999 FEW018 BKN300 32/25 Q1009 NOSIG
2026-04-23 03:00:00,METAR WSSS 230300Z 06005KT 360V110 9999 FEW018 BKN300 31/24 Q1009 NOSIG
2026-04-23 02:30:00,METAR WSSS 230230Z 07005KT 010V130 9999 FEW018 BKN300 31/25 Q1009 NOSIG
2026-04-23 02:00:00,METAR WSSS 230200Z 12004KT 050V200 9999 FEW018 BKN300 31/25 Q1009 NOSIG
2026-04-23 01:30:00,METAR WSSS 230130Z 12004KT 010V150 9999 FEW016 BKN300 30/25 Q1009 NOSIG
2026-04-23 01:00:00,METAR WSSS 230100Z 06004KT 030V150 9999 FEW016 BKN300 30/25 Q1009 NOSIG
2026-04-23 00:30:00,METAR WSSS 230030Z 05004KT 020V090 9999 FEW016 BKN300 29/25 Q1009 NOSIG
2026-04-23 00:00:00,METAR WSSS 230000Z 06004KT 9999 FEW018 BKN300 29/24 Q1008 NOSIG
2026-04-22 23:30:00,METAR WSSS 222330Z 04005KT 350V080 9999 FEW018 BKN300 28/25 Q1008 NOSIG
2026-04-22 23:00:00,METAR WSSS 222300Z 03004KT 330V070 9999 FEW018 BKN300 27/24 Q1008 NOSIG
2026-04-22 22:30:00,METAR WSSS 222230Z 03004KT 340V080 9999 FEW018 BKN300 27/24 Q1007 NOSIG
2026-04-22 22:00:00,METAR WSSS 222200Z VRB02KT 9999 FEW018 BKN300 27/24 Q1007 NOSIG
2026-04-22 21:30:00,METAR WSSS 222130Z 35002KT 9999 FEW018 BKN300 26/24 Q1007 NOSIG
2026-04-22 21:00:00,METAR WSSS 222100Z 36002KT 9999 FEW018 BKN300 26/24 Q1007 NOSIG
2026-04-22 20:30:00,METAR WSSS 222030Z VRB02KT 9999 FEW018 BKN300 26/24 Q1007 NOSIG
2026-04-22 20:00:00,METAR WSSS 222000Z VRB02KT 9999 FEW018 BKN300 26/24 Q1007 NOSIG
2026-04-22 19:30:00,METAR WSSS 221930Z 04004KT 9999 FEW018 BKN300 28/24 Q1007 NOSIG
2026-04-22 19:00:00,METAR WSSS 221900Z 03005KT 350V060 9999 FEW018 BKN300 27/24 Q1007 NOSIG
2026-04-22 18:30:00,METAR WSSS 221830Z 03006KT 350V050 9999 FEW018 BKN300 27/24 Q1008 NOSIG
2026-04-22 18:00:00,METAR WSSS 221800Z 04006KT 9999 FEW018 BKN300 28/24 Q1008 NOSIG
2026-04-22 17:30:00,METAR WSSS 221730Z 04006KT 010V070 9999 FEW016 SCT150 BKN300 28/24 Q1008 NOSIG
2026-04-22 17:00:00,METAR WSSS 221700Z 03006KT 360V060 9999 FEW016 SCT150 BKN300 28/24 Q1009 NOSIG
2026-04-22 16:30:00,METAR WSSS 221630Z VRB02KT 9999 FEW015 BKN150 27/25 Q1009 NOSIG
2026-04-22 16:00:00,METAR WSSS 221600Z 02003KT 320V070 9999 FEW015 BKN150 28/25 Q1009 NOSIG
2026-04-22 15:30:00,METAR WSSS 221530Z 34003KT 310V010 9999 FEW015 BKN150 27/25 Q1009 RETS NOSIG
2026-04-22 15:00:00,METAR WSSS 221500Z 33003KT 9999 TS FEW015 FEW017CB BKN150 27/25 Q1009 BECMG FM1515 TL1530 NSW
2026-04-22 14:46:00,SPECI WSSS 221446Z 34004KT 9999 TS FEW015 FEW017CB SCT030 BKN150 27/25 Q1009 BECMG FM1515 TL1530 NSW
2026-04-22 14:30:00,METAR WSSS 221430Z 34004KT 9999 FEW015 SCT030 BKN150 27/25 Q1009 NOSIG
2026-04-22 14:00:00,METAR WSSS 221400Z VRB02KT 9999 FEW015 SCT030 BKN150 27/25 Q1009 NOSIG
2026-04-22 13:30:00,METAR WSSS 221330Z 01004KT 280V090 9999 FEW015 SCT030 BKN150 28/25 Q1008 NOSIG
2026-04-22 13:00:00,METAR WSSS 221300Z VRB02KT 9999 FEW015 SCT030 BKN150 27/26 Q1008 NOSIG
2026-04-22 12:30:00,METAR WSSS 221230Z VRB02KT 9999 -SHRA FEW012 FEW017TCU FEW018CB SCT030 27/26 Q1007 NOSIG
2026-04-22 12:00:00,METAR WSSS 221200Z 30003KT 260V360 8000 -SHRA FEW012 FEW017TCU SCT030 27/26 Q1007 RETS NOSIG
2026-04-22 11:30:00,METAR WSSS 221130Z COR VRB02KT 6000 -TSRA FEW010 FEW016CB FEW017TCU SCT150 27/25 Q1006 RESHRA BECMG FM1145 TL1200 NSW
2026-04-22 11:00:00,METAR WSSS 221100Z 31006KT 270V030 4000 TSRA FEW010 FEW016CB SCT017TCU 27/25 Q1006 RESHRA BECMG FM1115 TL1130 6000 NSW
2026-04-22 10:43:00,SPECI WSSS 221043Z 33008KT 2000 +TSRA FEW008 FEW016CB SCT017TCU 27/25 Q1006 BECMG TL1100 4000 TSRA BECMG FM1115 TL1130 6000 NSW
2026-04-22 10:30:00,METAR WSSS 221030Z 32010KT 3000 +SHRA FEW008 SCT017TCU 27/25 Q1006 BECMG FM1045 TL1100 6000 NSW
2026-04-22 10:09:00,SPECI WSSS 221009Z 34010KT 9999 -SHRA FEW012 FEW017TCU SCT030 30/25 Q1006 TEMPO TL1030 2500 +SHRA
2026-04-22 10:00:00,METAR WSSS 221000Z 09006KT 030V120 9000 -SHRA FEW012 FEW017TCU SCT030 31/24 Q1006 NOSIG
2026-04-22 09:30:00,METAR WSSS 220930Z 06004KT 010V120 9999 FEW017CB FEW018TCU SCT040 31/24 Q1006 NOSIG
2026-04-22 09:00:00,METAR WSSS 220900Z 05006KT 330V100 9999 FEW018TCU FEW020CB SCT030 31/24 Q1006 NOSIG
2026-04-22 08:30:00,METAR WSSS 220830Z 34006KT 310V060 7000 -SHRA FEW014 FEW016CB FEW017TCU SCT030 30/25 Q1006 RESHRA NOSIG
2026-04-22 08:20:00,SPECI WSSS 220820Z 34006KT 310V010 7000 -SHRA FEW014 FEW016CB FEW017TCU SCT030 30/24 Q1006 RESHRA NOSIG
2026-04-22 08:00:00,METAR WSSS 220800Z 12006G16KT 5000 +SHRA FEW012 FEW016CB SCT017TCU 31/24 Q1006 TEMPO FM0805 TL0940 3000 +SHRA
2026-04-22 07:30:00,METAR WSSS 220730Z 14007KT 070V180 9999 FEW018TCU FEW020CB SCT300 31/24 Q1006 NOSIG
2026-04-22 07:00:00,METAR WSSS 220700Z VRB03KT 9999 FEW018TCU FEW020CB BKN300 32/24 Q1007 NOSIG
2026-04-22 06:30:00,METAR WSSS 220630Z 01004KT 260V060 9999 FEW018TCU FEW020CB BKN300 33/22 Q1007 NOSIG
2026-04-22 06:00:00,METAR WSSS 220600Z VRB04KT 9999 FEW020TCU BKN300 33/22 Q1007 NOSIG
2026-04-22 05:30:00,METAR WSSS 220530Z 17005KT 130V250 9999 FEW020TCU BKN300 31/23 Q1008 NOSIG
2026-04-22 05:00:00,METAR WSSS 220500Z VRB02KT 9999 FEW020TCU BKN300 32/24 Q1008 NOSIG
2026-04-22 04:30:00,METAR WSSS 220430Z VRB03KT 9999 FEW018TCU BKN300 31/24 Q1009 NOSIG
2026-04-22 04:00:00,METAR WSSS 220400Z 19004KT 150V230 9999 FEW018TCU BKN300 30/24 Q1009 NOSIG
2026-04-22 03:30:00,METAR WSSS 220330Z 02004KT 320V120 9999 FEW018TCU BKN300 31/24 Q1009 NOSIG
2026-04-22 03:00:00,METAR WSSS 220300Z VRB03KT 9999 FEW018 BKN300 31/25 Q1009 NOSIG
2026-04-22 02:30:00,METAR WSSS 220230Z VRB03KT 8000 FEW016 BKN300 30/25 Q1009 NOSIG
2026-04-22 02:00:00,METAR WSSS 220200Z VRB03KT 6000 FEW016 BKN300 29/25 Q1009 NOSIG
2026-04-22 01:30:00,METAR WSSS 220130Z 35003KT 310V060 6000 FEW016 BKN300 28/25 Q1009 NOSIG
2026-04-22 01:00:00,METAR WSSS 220100Z COR 01003KT 340V080 4000 BR FEW016 BKN300 27/25 Q1009 BECMG FM0115 TL0130 6000 NSW
2026-04-22 00:30:00,METAR WSSS 220030Z 35003KT 310V010 4000 BR FEW016 SCT150 BKN300 26/25 Q1008 BECMG FM0045 TL0115 6000 NSW
2026-04-22 00:00:00,METAR WSSS 220000Z 35003KT 4000 BR FEW016 SCT150 BKN300 26/25 Q1008 BECMG FM0045 TL0115 6000 NSW
2026-04-21 23:30:00,METAR WSSS 212330Z 36003KT 320V040 3000 BR FEW016 SCT150 BKN300 25/25 Q1008 BECMG FM0045 TL0100 6000 NSW
2026-04-21 23:00:00,METAR WSSS 212300Z 35002KT 4000 BR FEW016 SCT150 BKN300 25/24 Q1007 BECMG FM0045 6000 NSW
2026-04-21 22:30:00,METAR WSSS 212230Z 34003KT 5000 BR FEW016 SCT150 BKN300 25/24 Q1007 NOSIG
2026-04-21 22:00:00,METAR WSSS 212200Z 34003KT 5000 BR FEW016 SCT150 BKN300 25/25 Q1007 NOSIG
2026-04-21 21:30:00,METAR WSSS 212130Z 36003KT 350V060 5000 BR FEW016 SCT150 BKN300 25/25 Q1007 NOSIG
2026-04-21 21:00:00,METAR WSSS 212100Z 36002KT 8000 FEW016 SCT150 BKN300 25/25 Q1007 NOSIG
2026-04-21 20:30:00,METAR WSSS 212030Z VRB02KT 8000 FEW016 SCT150 BKN300 25/25 Q1007 NOSIG
2026-04-21 20:00:00,METAR WSSS 212000Z 31002KT 9999 FEW016 SCT150 BKN300 25/24 Q1008 NOSIG
2026-04-21 19:30:00,METAR WSSS 211930Z VRB02KT 9999 FEW016 BKN150 25/24 Q1008 NOSIG
2026-04-21 19:00:00,METAR WSSS 211900Z VRB01KT 9999 FEW016 BKN150 25/25 Q1008 NOSIG
2026-04-21 18:30:00,METAR WSSS 211830Z 00000KT 9999 FEW016 SCT170 BKN300 25/25 Q1009 NOSIG
2026-04-21 18:00:00,METAR WSSS 211800Z VRB01KT 9000 FEW016 SCT170 BKN300 25/25 Q1009 NOSIG
2026-04-21 17:30:00,METAR WSSS 211730Z VRB01KT 9000 FEW016 SCT160 BKN300 25/25 Q1010 NOSIG
2026-04-21 17:00:00,METAR WSSS 211700Z VRB02KT 9999 FEW016 SCT160 BKN300 26/25 Q1010 NOSIG
2026-04-21 16:30:00,METAR WSSS 211630Z VRB01KT 9999 FEW016 SCT170 BKN300 25/24 Q1010 NOSIG
2026-04-21 16:00:00,METAR WSSS 211600Z VRB02KT 9999 FEW016 SCT170 BKN300 25/24 Q1010 NOSIG
2026-04-21 15:30:00,METAR WSSS 211530Z 00000KT 9999 FEW018 SCT170 BKN300 25/24 Q1010 NOSIG
2026-04-21 15:00:00,METAR WSSS 211500Z VRB02KT 9999 FEW018 SCT170 BKN300 25/24 Q1010 NOSIG
2026-04-21 14:30:00,METAR WSSS 211430Z VRB01KT 9999 FEW018 SCT160 BKN300 25/24 Q1010 NOSIG
2026-04-21 14:00:00,METAR WSSS 211400Z VRB02KT 9999 FEW018 SCT160 BKN300 25/24 Q1009 NOSIG
2026-04-21 13:30:00,METAR WSSS 211330Z VRB01KT 9999 FEW018 SCT160 25/24 Q1009 NOSIG
2026-04-21 13:00:00,METAR WSSS 211300Z VRB01KT 9999 FEW018 SCT160 25/24 Q1009 NOSIG
2026-04-21 12:30:00,METAR WSSS 211230Z 22003KT 9999 FEW018 BKN160 26/24 Q1009 NOSIG
2026-04-21 12:00:00,METAR WSSS 211200Z 24002KT 9999 FEW018 BKN160 26/24 Q1008 NOSIG
2026-04-21 11:30:00,METAR WSSS 211130Z VRB02KT 9999 FEW018 BKN180 26/24 Q1008 NOSIG
2026-04-21 11:00:00,METAR WSSS 211100Z VRB02KT 9999 -RA FEW018 BKN170 26/24 Q1008 NOSIG
2026-04-21 10:30:00,METAR WSSS 211030Z VRB02KT 9999 -RA FEW018 BKN170 25/24 Q1008 NOSIG
2026-04-21 10:00:00,METAR WSSS 211000Z VRB02KT 9999 -RA FEW018 SCT060 BKN160 25/24 Q1008 NOSIG
2026-04-21 09:30:00,METAR WSSS 210930Z 33003KT 9999 -RA FEW018 BKN160 25/24 Q1008 NOSIG
2026-04-21 09:00:00,METAR WSSS 210900Z 32004KT 290V350 9999 -RA FEW014 FEW018TCU BKN170 25/24 Q1008 RETS NOSIG
2026-04-21 08:30:00,METAR WSSS 210830Z 32005KT 300V360 9999 -TSRA FEW014 FEW017CB FEW018TCU BKN160 25/24 Q1008 BECMG TL0850 NSW
2026-04-21 08:00:00,METAR WSSS 210800Z 33005KT 9999 -TSRA FEW014 FEW017CB FEW018TCU BKN160 25/24 Q1008 BECMG TL0820 NSW
2026-04-21 07:35:00,SPECI WSSS 210735Z 35006KT 9999 -TSRA FEW014 FEW017CB FEW018TCU BKN160 26/24 Q1008 BECMG FM0755 TL0815 NSW
2026-04-21 07:30:00,METAR WSSS 210730Z 36006KT 330V030 9999 -RA FEW014 FEW017CB FEW018TCU SCT160 26/24 Q1008 NOSIG
2026-04-21 07:00:00,METAR WSSS 210700Z 03006KT 360V060 9999 -RA FEW014 FEW017CB FEW018TCU SCT160 26/24 Q1008 RETS NOSIG
2026-04-21 06:30:00,METAR WSSS 210630Z 34006KT 9999 -TSRA FEW013 FEW017CB FEW018TCU BKN040 26/24 Q1009 BECMG FM0700 TL0720 NSW
2026-04-21 06:00:00,METAR WSSS 210600Z 12003KT 8000 TS FEW013 FEW017CB FEW018TCU BKN040 27/24 Q1009 TEMPO FM0615 TL0705 3500 TSRA BECMG FM0715 TL0735 NSW
2026-04-21 05:30:00,METAR WSSS 210530Z 19009KT 9999 4000E -TSRA FEW015 FEW017CB FEW018TCU BKN040 27/24 Q1009 TEMPO TL0620 3500 TSRA BECMG FM0645 TL0710 NSW
2026-04-21 05:00:00,METAR WSSS 210500Z 19010KT 9999 -TSRA FEW017CB FEW018TCU BKN040 27/25 Q1009 TEMPO FM0510 TL0550 3500 TSRA BECMG FM0600 TL0620 NSW
2026-04-21 04:30:00,METAR WSSS 210430Z 20006KT 170V230 9999 -TSRA FEW015 FEW017CB FEW018TCU SCT050 28/25 Q1009 TEMPO FM0450 TL0520 3500 TSRA BECMG FM0550 TL0605 NSW
2026-04-21 04:00:00,METAR WSSS 210400Z 27005KT 230V310 7000 -TSRA FEW015 FEW017CB FEW018TCU SCT040 26/23 Q1010 RESHRA BECMG TL0420 NSW
2026-04-21 03:41:00,SPECI WSSS 210341Z 32009KT 300V360 3000 +TSRA FEW015 FEW017CB FEW018TCU BKN030 26/24 Q1010 BECMG FM0400 TL0415 6000 NSW
2026-04-21 03:30:00,METAR WSSS 210330Z 02010KT 3000 +SHRA FEW015 FEW017CB FEW018TCU BKN030 26/24 Q1010 TEMPO TL0350 +TSRA BECMG FM0350 TL0405 6000 NSW
2026-04-21 03:10:00,SPECI WSSS 210310Z 02013KT 2500 +SHRA FEW015 FEW017CB BKN018TCU 26/25 Q1010 BECMG TL0320 4000 SHRA BECMG FM0330 TL0345 6000 NSW
2026-04-21 03:00:00,METAR WSSS 210300Z 32008KT 250V350 2500 +SHRA FEW015 FEW017CB BKN018TCU 29/25 Q1010 BECMG FM0305 TL0315 4000 SHRA BECMG FM0320 TL0335 6000 NSW
2026-04-21 02:45:00,SPECI WSSS 210245Z 35004KT 290V030 4000 +SHRA FEW016 SCT018TCU FEW020CB 30/25 Q1010 BECMG FM0305 TL0320 6000 NSW
2026-04-21 02:30:00,METAR WSSS 210230Z 32003KT 240V030 9999 FEW018TCU SCT020 BKN300 30/25 Q1010 NOSIG
2026-04-21 02:00:00,METAR WSSS 210200Z 36005KT 340V060 9999 FEW018TCU SCT020 BKN150 31/25 Q1010 NOSIG
2026-04-21 01:30:00,METAR WSSS 210130Z 34005KT 310V010 9999 FEW018TCU SCT150 BKN300 30/25 Q1010 NOSIG
2026-04-21 01:00:00,METAR WSSS 210100Z 33004KT 300V360 9999 FEW018TCU SCT150 BKN300 29/25 Q1009 NOSIG
2026-04-21 00:30:00,METAR WSSS 210030Z 34003KT 300V010 9999 FEW018TCU FEW020CB BKN300 29/25 Q1009 NOSIG
2026-04-21 00:00:00,METAR WSSS 210000Z VRB02KT 9000 FEW018TCU FEW020CB BKN300 28/25 Q1009 NOSIG
2026-04-20 23:30:00,METAR WSSS 202330Z VRB01KT 8000 FEW016 FEW020TCU BKN300 27/25 Q1008 NOSIG
2026-04-20 23:00:00,METAR WSSS 202300Z VRB01KT 6000 FEW016 FEW020TCU BKN300 26/25 Q1008 NOSIG
2026-04-20 22:30:00,METAR WSSS 202230Z 33002KT 8000 FEW016 BKN300 26/25 Q1008 NOSIG
2026-04-20 22:00:00,METAR WSSS 202200Z VRB02KT 8000 FEW016 BKN300 27/25 Q1008 NOSIG
2026-04-20 21:30:00,METAR WSSS 202130Z 33003KT 9000 FEW016 BKN300 26/25 Q1007 NOSIG
2026-04-20 21:00:00,METAR WSSS 202100Z 33003KT 9999 FEW016 BKN300 27/25 Q1008 NOSIG
2026-04-20 20:30:00,METAR WSSS 202030Z VRB02KT 9999 FEW018 BKN300 27/25 Q1008 NOSIG
2026-04-20 20:00:00,METAR WSSS 202000Z 33004KT 9999 FEW018 FEW020CB BKN300 27/25 Q1008 NOSIG
2026-04-20 19:30:00,METAR WSSS 201930Z 33003KT 9999 FEW018 FEW020CB BKN300 27/25 Q1008 NOSIG
2026-04-20 19:00:00,METAR WSSS 201900Z 34002KT 9999 FEW018 FEW020CB BKN300 27/25 Q1008 NOSIG
2026-04-20 18:30:00,METAR WSSS 201830Z 32002KT 9999 FEW016 FEW020CB SCT080 27/25 Q1009 NOSIG
2026-04-20 18:00:00,METAR WSSS 201800Z VRB01KT 9999 FEW016 SCT080 27/25 Q1009 NOSIG
2026-04-20 17:30:00,METAR WSSS 201730Z 35003KT 310V010 9999 FEW016 SCT280 27/25 Q1009 NOSIG
2026-04-20 17:00:00,METAR WSSS 201700Z 34005KT 9999 FEW016 SCT280 27/24 Q1010 NOSIG
2026-04-20 16:30:00,METAR WSSS 201630Z 34004KT 9999 FEW016 SCT070 28/25 Q1010 NOSIG
2026-04-20 16:00:00,METAR WSSS 201600Z 35003KT 9999 FEW016 SCT070 27/25 Q1010 NOSIG
2026-04-20 15:30:00,METAR WSSS 201530Z 35005KT 9999 FEW016 SCT140 BKN280 27/25 Q1010 NOSIG
2026-04-20 15:00:00,METAR WSSS 201500Z 34005KT 9999 FEW016 SCT140 BKN280 27/25 Q1009 NOSIG
2026-04-20 14:30:00,METAR WSSS 201430Z 35005KT 9999 FEW016 SCT280 27/25 Q1009 NOSIG
2026-04-20 14:00:00,METAR WSSS 201400Z 04007KT 010V070 9999 FEW016 FEW018TCU FEW020CB SCT280 28/25 Q1009 RETS NOSIG
2026-04-20 13:30:00,METAR WSSS 201330Z 04006KT 9999 TS FEW015 FEW017CB FEW018TCU SCT030 29/25 Q1009 BECMG FM1400 TL1415 NSW
2026-04-20 13:00:00,METAR WSSS 201300Z 04007KT 010V070 9999 TS FEW015 FEW017CB FEW018TCU SCT025 29/25 Q1008 BECMG FM1400 TL1415 NSW
2026-04-20 12:30:00,METAR WSSS 201230Z 04007KT 9999 TS FEW015 FEW017CB FEW018TCU SCT025 29/25 Q1008 BECMG TL1245 NSW
2026-04-20 12:00:00,METAR WSSS 201200Z 05006KT 020V090 9999 TS SCT017 FEW018CB SCT170 29/25 Q1008 BECMG FM1230 TL1245 NSW
2026-04-20 11:30:00,METAR WSSS 201130Z 04008KT 010V070 9999 TS FEW017CB FEW018TCU SCT170 29/25 Q1007 BECMG FM1230 TL1245 NSW
2026-04-20 11:00:00,METAR WSSS 201100Z 04007KT 010V080 9999 FEW017CB FEW018TCU SCT170 29/25 Q1007 NOSIG
2026-04-20 10:30:00,METAR WSSS 201030Z 03010KT 9999 FEW018CB FEW020TCU SCT300 29/24 Q1007 NOSIG
2026-04-20 10:00:00,METAR WSSS 201000Z 04010KT 9999 FEW018CB FEW020TCU BKN300 30/25 Q1006 NOSIG
2026-04-20 09:30:00,METAR WSSS 200930Z 04011KT 9999 FEW018CB FEW020TCU BKN300 30/24 Q1006 NOSIG
2026-04-20 09:00:00,METAR WSSS 200900Z 04011KT 9999 FEW018CB FEW020TCU BKN300 31/25 Q1006 NOSIG
2026-04-20 08:30:00,METAR WSSS 200830Z 04011KT 9999 FEW018CB FEW020TCU BKN300 31/25 Q1006 NOSIG
2026-04-20 08:00:00,METAR WSSS 200800Z 36012KT 9999 FEW018CB SCT020 BKN300 31/25 Q1006 NOSIG
2026-04-20 07:30:00,METAR WSSS 200730Z 36012KT 9999 FEW018TCU SCT020 BKN300 32/26 Q1006 NOSIG
2026-04-20 07:00:00,METAR WSSS 200700Z 03008KT 360V060 9999 FEW018TCU SCT020 BKN300 32/24 Q1006 NOSIG
2026-04-20 06:30:00,METAR WSSS 200630Z 08009KT 050V110 9999 FEW018TCU SCT020 BKN300 31/25 Q1007 NOSIG
2026-04-20 06:00:00,METAR WSSS 200600Z 09010KT 040V120 9999 SCT020 BKN300 31/25 Q1008 NOSIG
2026-04-20 05:30:00,METAR WSSS 200530Z 03007KT 350V050 9999 SCT017 FEW018TCU BKN300 31/25 Q1008 NOSIG
2026-04-20 05:00:00,METAR WSSS 200500Z 06008KT 020V100 9999 SCT018 BKN300 31/25 Q1009 NOSIG
2026-04-20 04:30:00,METAR WSSS 200430Z 06008KT 360V110 9999 SCT018 BKN300 31/25 Q1009 NOSIG
2026-04-20 04:00:00,METAR WSSS 200400Z 06009KT 010V090 9999 SCT017 SCT170 BKN300 32/26 Q1010 NOSIG
2026-04-20 03:30:00,METAR WSSS 200330Z 07010KT 020V090 9999 SCT017 SCT170 BKN300 30/25 Q1010 NOSIG
2026-04-20 03:00:00,METAR WSSS 200300Z 04007KT 9999 SCT017 SCT170 BKN300 30/26 Q1010 NOSIG
2026-04-20 02:30:00,METAR WSSS 200230Z 01009KT 9999 SCT017 FEW020TCU BKN300 29/25 Q1011 NOSIG
2026-04-20 02:00:00,METAR WSSS 200200Z 36008KT 9999 FEW018 FEW020TCU BKN300 29/25 Q1011 NOSIG
2026-04-20 01:30:00,METAR WSSS 200130Z 36010KT 9999 FEW018TCU BKN300 28/25 Q1010 NOSIG
2026-04-20 01:00:00,METAR WSSS 200100Z 36008KT 9999 FEW018TCU SCT160 BKN300 28/25 Q1010 NOSIG
2026-04-20 00:30:00,METAR WSSS 200030Z 35004KT 9000 FEW018TCU SCT170 BKN300 27/25 Q1010 NOSIG
2026-04-20 00:00:00,METAR WSSS 200000Z 34003KT 9999 FEW016 FEW018TCU FEW020CB BKN300 27/25 Q1010 NOSIG
2026-04-19 23:30:00,METAR WSSS 192330Z 34003KT 9999 FEW016 FEW018TCU BKN300 26/25 Q1009 NOSIG
2026-04-19 23:00:00,METAR WSSS 192300Z 35004KT 8000 FEW016 FEW018TCU BKN300 25/24 Q1009 NOSIG
2026-04-19 22:30:00,METAR WSSS 192230Z 32002KT 9999 FEW016 FEW018CB BKN300 26/24 Q1009 NOSIG
2026-04-19 22:00:00,METAR WSSS 192200Z 33003KT 9999 FEW016 FEW018CB BKN300 26/25 Q1008 NOSIG
2026-04-19 21:30:00,METAR WSSS 192130Z 32004KT 9999 FEW016 FEW018CB BKN300 26/25 Q1008 NOSIG
2026-04-19 21:00:00,METAR WSSS 192100Z 32003KT 9999 FEW016 FEW018CB BKN300 26/24 Q1008 NOSIG
2026-04-19 20:30:00,METAR WSSS 192030Z 33003KT 9999 FEW016 FEW018CB BKN300 25/24 Q1008 NOSIG
2026-04-19 20:00:00,METAR WSSS 192000Z 35002KT 9999 FEW016 FEW018CB BKN300 26/24 Q1008 NOSIG
2026-04-19 19:30:00,METAR WSSS 191930Z 32003KT 300V010 9999 FEW016 BKN300 26/24 Q1009 NOSIG
2026-04-19 19:00:00,METAR WSSS 191900Z 31004KT 9999 FEW016 BKN300 26/25 Q1009 NOSIG
2026-04-19 18:30:00,METAR WSSS 191830Z 32004KT 9999 FEW016 SCT280 27/25 Q1009 NOSIG
2026-04-19 18:00:00,METAR WSSS 191800Z 33003KT 9000 FEW016 SCT280 26/25 Q1009 NOSIG
2026-04-19 17:30:00,METAR WSSS 191730Z 33004KT 9000 FEW016 BKN270 26/25 Q1009 NOSIG
2026-04-19 17:00:00,METAR WSSS 191700Z 34004KT 8000 FEW016 BKN270 26/25 Q1009 NOSIG
2026-04-19 16:30:00,METAR WSSS 191630Z 34004KT 6000 FEW016 BKN270 26/25 Q1010 NOSIG
2026-04-19 16:00:00,METAR WSSS 191600Z 33002KT 6000 FEW016 BKN270 26/25 Q1010 NOSIG
2026-04-19 15:30:00,METAR WSSS 191530Z 32004KT 8000 FEW016 BKN270 26/25 Q1010 NOSIG
2026-04-19 15:00:00,METAR WSSS 191500Z 33004KT 8000 FEW016 BKN270 26/25 Q1010 NOSIG
2026-04-19 14:30:00,METAR WSSS 191430Z VRB02KT 6000 FEW016 BKN270 26/25 Q1009 NOSIG
2026-04-19 14:00:00,METAR WSSS 191400Z VRB02KT 6000 FEW016 BKN270 26/25 Q1009 NOSIG
2026-04-19 13:30:00,METAR WSSS 191330Z 33002KT 6000 FEW016 BKN270 26/25 Q1009 NOSIG
2026-04-19 13:00:00,METAR WSSS 191300Z 32004KT 9999 FEW016 SCT160 27/25 Q1009 NOSIG
2026-04-19 12:30:00,METAR WSSS 191230Z 32005KT 9000 -RA FEW016 BKN160 27/25 Q1009 NOSIG
2026-04-19 12:00:00,METAR WSSS 191200Z 31004KT 280V340 9000 -RA FEW016 BKN160 25/24 Q1008 NOSIG
2026-04-19 11:30:00,METAR WSSS 191130Z VRB01KT 8000 -SHRA FEW016TCU FEW018CB BKN150 25/24 Q1008 RETS NOSIG
2026-04-19 11:00:00,METAR WSSS 191100Z 08006KT 020V110 4500 -TSRA FEW012 FEW014CB FEW016TCU BKN150 27/23 Q1008 RESHRA BECMG TL1115 6000 NSW
2026-04-19 10:41:00,SPECI WSSS 191041Z 09015KT 2000 TSRA FEW010 FEW013CB SCT014TCU BKN140 27/23 Q1008 BECMG FM1050 TL1100 4000 BECMG FM1115 TL1125 6000 NSW
2026-04-19 10:30:00,METAR WSSS 191030Z 36009KT 330V040 2000 TSRA FEW010 FEW013CB SCT014TCU BKN140 26/23 Q1008 RESHRA BECMG FM1050 TL1100 4000 BECMG FM1110 TL1120 6000 NSW
2026-04-19 10:06:00,SPECI WSSS 191006Z 34009KT 1000 R20R/P2000N R20C/P2000N R20L/P2000N +TSRA FEW008 FEW013CB SCT014TCU BKN140 27/25 Q1008 BECMG FM1015 TL1030 3900 TSRA BECMG FM1040 TL1050 6000 NSW
2026-04-19 10:00:00,METAR WSSS 191000Z 32006KT 270V360 2000 +TSRA FEW010 FEW014CB SCT015TCU BKN150 27/24 Q1007 BECMG FM1015 TL1030 4000 TSRA BECMG FM1045 TL1100 6000 NSW
2026-04-19 09:49:00,SPECI WSSS 190949Z 30005KT 250V330 4000 TSRA FEW013 FEW015CB FEW016TCU SCT160 27/25 Q1007 BECMG FM1015 TL1030 6000 NSW
2026-04-19 09:30:00,METAR WSSS 190930Z 23007KT 190V280 4000 -TSRA FEW013 FEW015CB FEW016TCU SCT160 27/25 Q1007 BECMG FM0945 TL1000 6000 NSW
2026-04-19 09:00:00,METAR WSSS 190900Z 15007KT 120V180 7000 -TSRA FEW014 FEW015CB FEW016TCU SCT160 29/25 Q1006 BECMG FM0945 TL1000 NSW
2026-04-19 08:30:00,METAR WSSS 190830Z 08007KT 010V130 9000 VCTS FEW014 FEW016CB FEW018TCU SCT160 30/24 Q1006 BECMG FM0900 TL0915 NSW
2026-04-19 08:00:00,METAR WSSS 190800Z 06009KT 020V100 9000 VCTS FEW014 FEW015CB SCT017TCU 30/25 Q1006 BECMG TL0815 NSW
2026-04-19 07:34:00,SPECI WSSS 190734Z 03007KT 350V060 9000 VCTS FEW014 FEW015CB SCT017TCU 30/25 Q1007 BECMG FM0800 TL0815 NSW
2026-04-19 07:30:00,METAR WSSS 190730Z 03008KT 360V060 9000 VCSH FEW014 SCT016TCU FEW018CB 30/25 Q1007 NOSIG
2026-04-19 07:00:00,METAR WSSS 190700Z 04008KT 9000 VCSH FEW014 SCT016TCU FEW018CB 31/24 Q1007 NOSIG
2026-04-19 06:30:00,METAR WSSS 190630Z 07010KT 030V100 9000 VCSH FEW014 SCT016TCU FEW018CB 31/24 Q1008 NOSIG
2026-04-19 06:00:00,METAR WSSS 190600Z 06007KT 010V100 8000 -SHRA FEW014 SCT016TCU FEW018CB 31/23 Q1008 NOSIG
2026-04-19 05:30:00,METAR WSSS 190530Z VRB04KT 7000 -SHRA FEW014 SCT016TCU FEW018CB 31/25 Q1008 NOSIG
2026-04-19 05:00:00,METAR WSSS 190500Z VRB04KT 9000 -SHRA SCT017TCU FEW018CB SCT300 31/25 Q1009 NOSIG
2026-04-19 04:30:00,METAR WSSS 190430Z VRB04KT 9000 -SHRA FEW015 FEW017TCU FEW020CB BKN300 32/24 Q1009 NOSIG
2026-04-19 04:00:00,METAR WSSS 190400Z 18006KT 110V250 9999 FEW017TCU BKN300 31/25 Q1010 NOSIG
2026-04-19 03:30:00,METAR WSSS 190330Z VRB04KT 9999 FEW016 FEW018TCU BKN300 32/24 Q1010 NOSIG
2026-04-19 03:00:00,METAR WSSS 190300Z 08006KT 020V150 9999 FEW016 FEW018TCU BKN300 32/25 Q1010 NOSIG
2026-04-19 02:30:00,METAR WSSS 190230Z 09005KT 040V150 9999 FEW018 FEW020TCU BKN300 32/25 Q1010 NOSIG
2026-04-19 02:00:00,METAR WSSS 190200Z VRB05KT 9999 FEW016 FEW018TCU FEW020CB BKN300 31/25 Q1010 NOSIG
2026-04-19 01:30:00,METAR WSSS 190130Z VRB02KT 9999 FEW016 FEW018TCU FEW020CB BKN300 31/25 Q1011 NOSIG
2026-04-19 01:00:00,METAR WSSS 190100Z VRB02KT 9999 FEW016 FEW018TCU FEW020CB BKN300 30/25 Q1010 NOSIG
2026-04-19 00:30:00,METAR WSSS 190030Z VRB02KT 9999 FEW016 FEW018TCU FEW020CB BKN300 29/25 Q1010 NOSIG
2026-04-19 00:00:00,METAR WSSS 190000Z 34003KT 310V010 9999 FEW018 FEW020TCU BKN300 27/25 Q1009 NOSIG
2026-04-18 23:30:00,METAR WSSS 182330Z 33003KT 9999 FEW018 BKN300 27/25 Q1009 NOSIG
2026-04-18 23:00:00,METAR WSSS 182300Z 32003KT 9999 FEW018 BKN300 27/25 Q1008 NOSIG
2026-04-18 22:30:00,METAR WSSS 182230Z 33003KT 9999 FEW014 FEW020TCU BKN300 27/25 Q1008 NOSIG
2026-04-18 22:00:00,METAR WSSS 182200Z 34003KT 9999 FEW014 BKN300 27/25 Q1008 NOSIG
2026-04-18 21:30:00,METAR WSSS 182130Z 34003KT 9999 FEW018 BKN300 26/25 Q1008 NOSIG
2026-04-18 21:00:00,METAR WSSS 182100Z 36002KT 9999 FEW018 BKN300 27/25 Q1008 NOSIG
2026-04-18 20:30:00,METAR WSSS 182030Z VRB02KT 9999 FEW018 FEW020CB BKN300 27/25 Q1008 NOSIG
2026-04-18 20:00:00,METAR WSSS 182000Z 33003KT 9999 FEW018 FEW020CB BKN300 27/25 Q1008 NOSIG
2026-04-18 19:30:00,METAR WSSS 181930Z 33002KT 9999 FEW018 FEW020CB BKN300 27/25 Q1008 NOSIG
2026-04-18 19:00:00,METAR WSSS 181900Z 33002KT 9999 FEW018 FEW020CB BKN300 28/25 Q1009 NOSIG
2026-04-18 18:30:00,METAR WSSS 181830Z 33002KT 9999 FEW018 BKN300 27/26 Q1009 NOSIG
2026-04-18 18:00:00,METAR WSSS 181800Z 32003KT 9999 FEW018 BKN300 28/26 Q1009 NOSIG
2026-04-18 17:30:00,METAR WSSS 181730Z 34003KT 9999 FEW018 BKN300 28/25 Q1009 NOSIG
2026-04-18 17:00:00,METAR WSSS 181700Z 33005KT 9999 FEW018 BKN300 28/25 Q1010 NOSIG
2026-04-18 16:30:00,METAR WSSS 181630Z 35004KT 300V070 9999 FEW018 BKN300 28/25 Q1010 NOSIG
2026-04-18 16:00:00,METAR WSSS 181600Z 05005KT 9999 FEW018 BKN300 29/25 Q1010 NOSIG
2026-04-18 15:00:00,METAR WSSS 181500Z 36003KT 310V070 9999 FEW018 BKN300 28/25 Q1010 NOSIG
2026-04-18 14:30:00,METAR WSSS 181430Z 36004KT 320V050 9999 FEW018 BKN300 28/25 Q1009 NOSIG
2026-04-18 14:00:00,METAR WSSS 181400Z 06005KT 010V100 9999 FEW018 BKN300 29/25 Q1009 NOSIG
2026-04-18 13:30:00,METAR WSSS 181330Z 05005KT 010V110 9999 FEW018 BKN300 29/25 Q1009 NOSIG
2026-04-18 13:00:00,METAR WSSS 181300Z 06006KT 9999 FEW018 BKN300 29/25 Q1009 NOSIG
2026-04-18 12:30:00,METAR WSSS 181230Z VRB02KT 9999 FEW018 BKN300 28/25 Q1008 NOSIG
2026-04-18 12:00:00,METAR WSSS 181200Z 34004KT 9999 FEW016 BKN300 28/25 Q1008 NOSIG
2026-04-18 11:30:00,METAR WSSS 181130Z 33004KT 9999 FEW016 BKN300 28/25 Q1008 NOSIG
2026-04-18 11:00:00,METAR WSSS 181100Z 33004KT 9999 FEW016 FEW018TCU SCT150 28/25 Q1007 NOSIG
2026-04-18 10:30:00,METAR WSSS 181030Z VRB01KT 9999 FEW016 FEW018TCU SCT040 28/26 Q1007 NOSIG
2026-04-18 10:00:00,METAR WSSS 181000Z VRB02KT 9999 FEW016 FEW018TCU SCT040 28/25 Q1007 NOSIG
2026-04-18 09:30:00,METAR WSSS 180930Z 30005KT 180V350 9999 FEW016 FEW018TCU SCT040 28/24 Q1007 NOSIG
2026-04-18 09:00:00,METAR WSSS 180900Z VRB03KT 9999 -SHRA FEW010 FEW017CB FEW018TCU SCT040 29/23 Q1007 TEMPO TL1000 4000 SHRA
2026-04-18 08:30:00,METAR WSSS 180830Z 09008KT 020V120 9999 FEW018CB FEW020TCU SCT060 BKN300 31/25 Q1006 TEMPO FM0845 TL0930 4000 SHRA
2026-04-18 08:00:00,METAR WSSS 180800Z 10010KT 020V120 9999 FEW018CB FEW020TCU BKN300 31/23 Q1007 NOSIG
2026-04-18 07:30:00,METAR WSSS 180730Z 11009KT 040V160 9999 FEW018CB FEW020TCU BKN300 32/23 Q1007 NOSIG
2026-04-18 07:00:00,METAR WSSS 180700Z 08008G18KT 030V110 9999 FEW018CB FEW020TCU BKN300 33/23 Q1007 NOSIG
2026-04-18 06:30:00,METAR WSSS 180630Z 08008KT 040V120 9999 FEW018CB FEW020TCU BKN300 33/23 Q1008 NOSIG
2026-04-18 06:00:00,METAR WSSS 180600Z 03008KT 9999 FEW018CB FEW020TCU BKN300 33/24 Q1008 NOSIG
2026-04-18 05:30:00,METAR WSSS 180530Z 06009KT 010V100 9999 FEW018CB FEW020TCU BKN300 34/23 Q1009 NOSIG
2026-04-18 05:00:00,METAR WSSS 180500Z 09008KT 060V130 9999 FEW018CB FEW020TCU BKN300 33/24 Q1009 NOSIG
2026-04-18 04:30:00,METAR WSSS 180430Z 07007KT 360V130 9999 FEW020TCU BKN300 32/25 Q1009 NOSIG
2026-04-18 04:00:00,METAR WSSS 180400Z 11006KT 040V160 9999 FEW020 BKN300 33/25 Q1010 NOSIG
2026-04-18 03:30:00,METAR WSSS 180330Z 10006KT 070V180 9999 SCT018 BKN300 32/24 Q1010 NOSIG
2026-04-18 03:00:00,METAR WSSS 180300Z 11006KT 070V160 9999 SCT018 BKN300 33/24 Q1010 NOSIG
2026-04-18 02:30:00,METAR WSSS 180230Z 02006KT 9999 SCT018 BKN300 31/25 Q1010 NOSIG
2026-04-18 02:00:00,METAR WSSS 180200Z 04006KT 360V080 9999 SCT018 BKN300 31/25 Q1010 NOSIG
2026-04-18 01:30:00,METAR WSSS 180130Z 02006KT 330V070 9999 FEW016 BKN300 30/24 Q1009 NOSIG
2026-04-18 01:00:00,METAR WSSS 180100Z 35005KT 9999 FEW016 FEW018TCU BKN300 30/25 Q1009 NOSIG
2026-04-18 00:30:00,METAR WSSS 180030Z VRB02KT 9999 FEW016 FEW018TCU BKN300 29/25 Q1009 NOSIG
2026-04-18 00:00:00,METAR WSSS 180000Z 34003KT 300V360 9999 FEW018TCU BKN300 28/26 Q1009 NOSIG
2026-04-17 23:30:00,METAR WSSS 172330Z 33003KT 300V010 7000 FEW018TCU BKN300 27/26 Q1009 NOSIG
2026-04-17 23:00:00,METAR WSSS 172300Z VRB02KT 7000 FEW016 FEW018TCU BKN300 26/25 Q1008 NOSIG
2026-04-17 22:30:00,METAR WSSS 172230Z VRB02KT 9000 FEW016 BKN300 27/25 Q1008 NOSIG
2026-04-17 22:00:00,METAR WSSS 172200Z 33003KT 9999 FEW016 BKN300 27/26 Q1008 NOSIG
2026-04-17 21:30:00,METAR WSSS 172130Z 33002KT 9999 FEW016 BKN300 26/25 Q1008 NOSIG
2026-04-17 21:00:00,METAR WSSS 172100Z VRB02KT 9999 FEW014 BKN300 27/25 Q1008 NOSIG
2026-04-17 20:30:00,METAR WSSS 172030Z 33003KT 9999 FEW014 BKN300 27/26 Q1008 NOSIG
2026-04-17 20:00:00,METAR WSSS 172000Z 33003KT 9999 FEW014 BKN300 27/26 Q1008 NOSIG
2026-04-17 19:30:00,METAR WSSS 171930Z 34002KT 9999 FEW016 BKN300 27/25 Q1008 NOSIG
2026-04-17 19:00:00,METAR WSSS 171900Z 33003KT 9999 FEW016 BKN300 28/25 Q1008 NOSIG
2026-04-17 18:30:00,METAR WSSS 171830Z VRB02KT 9999 FEW016 BKN300 27/25 Q1009 NOSIG
2026-04-17 18:00:00,METAR WSSS 171800Z 33003KT 300V020 9999 FEW016 BKN300 27/25 Q1009 NOSIG
2026-04-17 17:30:00,METAR WSSS 171730Z VRB02KT 9999 FEW016 BKN300 27/25 Q1009 NOSIG
2026-04-17 17:00:00,METAR WSSS 171700Z 02003KT 330V070 9999 FEW016 BKN300 28/25 Q1010 NOSIG
2026-04-17 16:30:00,METAR WSSS 171630Z VRB03KT 9999 FEW018 BKN300 29/25 Q1010 NOSIG
2026-04-17 16:00:00,METAR WSSS 171600Z 06005KT 020V120 9999 FEW018 BKN300 29/25 Q1010 NOSIG
2026-04-17 15:30:00,METAR WSSS 171530Z 08004KT 010V130 9999 FEW016 BKN300 29/25 Q1010 NOSIG
2026-04-17 15:00:00,METAR WSSS 171500Z 07004KT 040V160 9999 FEW016 BKN300 29/25 Q1010 NOSIG
2026-04-17 14:30:00,METAR WSSS 171430Z 05005KT 010V090 9999 FEW018 BKN300 29/25 Q1009 NOSIG
2026-04-17 14:00:00,METAR WSSS 171400Z 05005KT 020V090 9999 FEW018 BKN300 29/25 Q1009 NOSIG
2026-04-17 13:30:00,METAR WSSS 171330Z 04007KT 9999 FEW018 BKN300 29/25 Q1009 NOSIG
2026-04-17 13:00:00,METAR WSSS 171300Z 04006KT 9999 FEW018 BKN300 29/25 Q1008 NOSIG
2026-04-17 12:30:00,METAR WSSS 171230Z 05006KT 020V080 9999 FEW016 BKN300 29/24 Q1008 NOSIG
2026-04-17 12:00:00,METAR WSSS 171200Z 06006KT 350V080 9999 FEW016 BKN300 29/24 Q1007 NOSIG
2026-04-17 11:30:00,METAR WSSS 171130Z 07007KT 030V120 9999 FEW016 BKN300 30/24 Q1007 NOSIG
2026-04-17 11:00:00,METAR WSSS 171100Z 08007KT 010V120 9999 FEW018 BKN300 30/24 Q1006 NOSIG
2026-04-17 10:30:00,METAR WSSS 171030Z 08005KT 050V110 9999 FEW018 BKN300 30/24 Q1006 NOSIG
2026-04-17 10:00:00,METAR WSSS 171000Z 09006KT 030V140 9999 FEW018 BKN300 30/24 Q1006 NOSIG
2026-04-17 09:30:00,METAR WSSS 170930Z 09005KT 020V140 9999 FEW018 SCT160 30/24 Q1007 NOSIG
2026-04-17 09:00:00,METAR WSSS 170900Z 04006KT 9999 FEW018 BKN160 30/24 Q1007 NOSIG
2026-04-17 08:30:00,METAR WSSS 170830Z VRB06G16KT 9999 FEW018 BKN160 30/25 Q1007 NOSIG
2026-04-17 08:00:00,METAR WSSS 170800Z 08007KT 050V110 9999 FEW018 BKN160 30/25 Q1008 NOSIG
2026-04-17 07:30:00,METAR WSSS 170730Z 11007KT 040V160 9999 FEW018 SCT030 BKN300 31/25 Q1008 NOSIG
2026-04-17 07:00:00,METAR WSSS 170700Z 16009KT 120V190 9999 SCT018 FEW020TCU BKN300 32/25 Q1008 NOSIG
2026-04-17 06:30:00,METAR WSSS 170630Z 12007KT 060V160 6000 -SHRA FEW013 FEW017CB FEW018TCU SCT040 30/25 Q1008 RESHRA NOSIG
2026-04-17 06:08:00,SPECI WSSS 170608Z 15012KT 120V180 5000 2000N R20R/P2000N R20C/1300U R20L/1300N +SHRA FEW012 FEW016CB BKN018TCU 30/25 Q1009 BECMG FM0640 TL0650 NSW
2026-04-17 06:00:00,METAR WSSS 170600Z 17014KT 7000 3000E -SHRA FEW012 FEW016CB SCT017TCU 31/25 Q1009 TEMPO FM0610 TL0650 4000 SHRA
2026-04-17 05:30:00,METAR WSSS 170530Z 14011KT 100V170 9999 FEW017TCU FEW018CB SCT030 BKN300 32/24 Q1009 NOSIG
2026-04-17 05:00:00,METAR WSSS 170500Z 16009KT 110V190 9999 VCSH FEW017TCU FEW018CB SCT030 BKN300 32/25 Q1010 NOSIG
2026-04-17 04:37:00,SPECI WSSS 170437Z 17014KT 9999 VCSH FEW017TCU FEW018CB BKN300 32/24 Q1010 NOSIG
2026-04-17 04:30:00,METAR WSSS 170430Z 11009KT 070V150 9999 VCSH FEW017TCU FEW018CB BKN300 32/24 Q1010 NOSIG
2026-04-17 04:00:00,METAR WSSS 170400Z 13009KT 090V150 9999 FEW018TCU FEW020CB BKN300 33/24 Q1011 NOSIG
2026-04-17 03:30:00,METAR WSSS 170330Z 09006KT 040V140 9999 FEW018 FEW020TCU BKN300 31/25 Q1011 NOSIG
2026-04-17 03:00:00,METAR WSSS 170300Z 09006KT 050V200 9999 FEW018 FEW020TCU BKN300 33/26 Q1011 NOSIG
2026-04-17 02:30:00,METAR WSSS 170230Z 13007KT 080V170 9999 FEW018 FEW020TCU BKN300 32/25 Q1011 NOSIG
2026-04-17 02:00:00,METAR WSSS 170200Z 15007KT 9999 SCT018 FEW020TCU BKN300 31/25 Q1011 NOSIG
2026-04-17 01:30:00,METAR WSSS 170130Z 13005KT 090V210 9999 SCT018 FEW020TCU BKN300 31/24 Q1011 NOSIG
2026-04-17 01:00:00,METAR WSSS 170100Z 14005KT 110V170 9999 FEW018 FEW020TCU BKN300 30/24 Q1010 NOSIG
2026-04-17 00:30:00,METAR WSSS 170030Z 12006KT 080V150 9999 FEW018 BKN300 29/25 Q1010 NOSIG
2026-04-17 00:00:00,METAR WSSS 170000Z 12004KT 080V150 9999 FEW016 FEW018TCU FEW020CB BKN300 29/25 Q1009 NOSIG
2026-04-16 23:30:00,METAR WSSS 162330Z 14005KT 9999 FEW016 FEW018TCU FEW020CB BKN300 28/25 Q1009 NOSIG
2026-04-16 23:00:00,METAR WSSS 162300Z 12004KT 9999 FEW016 FEW018TCU FEW020CB BKN300 28/25 Q1009 NOSIG
2026-04-16 22:30:00,METAR WSSS 162230Z 10003KT 080V150 9999 FEW016 FEW018TCU FEW020CB BKN300 28/25 Q1008 NOSIG
2026-04-16 22:00:00,METAR WSSS 162200Z VRB03KT 9000 SCT016 BKN300 28/25 Q1008 NOSIG
2026-04-16 21:30:00,METAR WSSS 162130Z VRB02KT 9999 SCT016 BKN300 28/25 Q1008 NOSIG
2026-04-16 21:00:00,METAR WSSS 162100Z 06003KT 360V090 9999 FEW016 BKN300 28/25 Q1008 NOSIG
2026-04-16 20:30:00,METAR WSSS 162030Z 06004KT 030V130 9999 FEW016 BKN300 28/25 Q1008 NOSIG
2026-04-16 20:00:00,METAR WSSS 162000Z 08004KT 030V110 9999 FEW016 BKN300 29/25 Q1008 NOSIG
2026-04-16 19:30:00,METAR WSSS 161930Z 07004KT 030V090 9999 FEW016 BKN300 29/25 Q1008 NOSIG
2026-04-16 19:00:00,METAR WSSS 161900Z 09004KT 9999 FEW016 BKN300 28/25 Q1009 NOSIG
2026-04-16 18:30:00,METAR WSSS 161830Z 09004KT 050V170 9999 FEW016 BKN300 28/25 Q1009 NOSIG
2026-04-16 18:00:00,METAR WSSS 161800Z 08004KT 020V170 9999 FEW016 BKN300 29/26 Q1009 NOSIG
2026-04-16 17:30:00,METAR WSSS 161730Z 07005KT 040V110 9999 FEW016 BKN300 29/26 Q1009 NOSIG
2026-04-16 17:00:00,METAR WSSS 161700Z 03004KT 360V070 9999 FEW016 BKN300 29/25 Q1010 NOSIG
2026-04-16 16:30:00,METAR WSSS 161630Z 06005KT 9999 FEW016 BKN300 29/25 Q1010 NOSIG
2026-04-16 16:00:00,METAR WSSS 161600Z 08006KT 9999 FEW016 BKN300 29/25 Q1010 NOSIG
2026-04-16 15:30:00,METAR WSSS 161530Z 11005KT 9999 FEW018 BKN300 29/25 Q1010 NOSIG
2026-04-16 15:00:00,METAR WSSS 161500Z 09006KT 9999 FEW018 BKN300 29/25 Q1010 NOSIG
2026-04-16 14:30:00,METAR WSSS 161430Z 10007KT 9999 FEW018 BKN300 29/25 Q1010 NOSIG
2026-04-16 14:00:00,METAR WSSS 161400Z 09005KT 9999 FEW018 BKN300 29/25 Q1009 NOSIG
2026-04-16 13:30:00,METAR WSSS 161330Z 09004KT 060V120 9999 FEW018 BKN300 29/25 Q1009 NOSIG
2026-04-16 13:00:00,METAR WSSS 161300Z 09008KT 9999 FEW018 BKN300 29/25 Q1008 NOSIG
2026-04-16 12:30:00,METAR WSSS 161230Z 10008KT 9999 FEW018 BKN300 29/25 Q1008 NOSIG
2026-04-16 12:00:00,METAR WSSS 161200Z 10009KT 9999 FEW018 BKN300 29/25 Q1007 NOSIG
2026-04-16 11:30:00,METAR WSSS 161130Z 10007KT 9999 FEW018 FEW020TCU SCT280 29/25 Q1007 NOSIG
2026-04-16 11:00:00,METAR WSSS 161100Z 11008KT 9999 FEW018 FEW020TCU SCT280 29/24 Q1007 NOSIG
2026-04-16 10:30:00,METAR WSSS 161030Z 12008KT 9999 FEW018TCU SCT270 30/25 Q1007 NOSIG
2026-04-16 10:00:00,METAR WSSS 161000Z 10009KT 9999 FEW020TCU SCT270 30/25 Q1006 NOSIG
2026-04-16 09:30:00,METAR WSSS 160930Z 09009KT 9999 FEW020TCU SCT270 31/24 Q1006 NOSIG
2026-04-16 09:00:00,METAR WSSS 160900Z 09010KT 060V120 9999 FEW020TCU SCT270 31/25 Q1006 NOSIG
2026-04-16 08:30:00,METAR WSSS 160830Z 09010KT 9999 FEW018CB FEW020TCU BKN300 32/24 Q1006 NOSIG
2026-04-16 08:00:00,METAR WSSS 160800Z 10008KT 070V140 9999 FEW018CB FEW020TCU BKN300 32/24 Q1007 NOSIG
2026-04-16 07:30:00,METAR WSSS 160730Z 09009KT 9999 FEW020TCU BKN300 32/25 Q1007 NOSIG
2026-04-16 07:00:00,METAR WSSS 160700Z 10008KT 9999 FEW020TCU BKN300 31/24 Q1008 NOSIG
2026-04-16 06:30:00,METAR WSSS 160630Z 13011KT 9999 FEW018CB FEW020TCU BKN300 31/23 Q1008 NOSIG
2026-04-16 06:00:00,METAR WSSS 160600Z 13011KT 100V180 9999 FEW018CB FEW020TCU BKN300 33/24 Q1008 NOSIG
2026-04-16 05:30:00,METAR WSSS 160530Z 19008KT 130V220 9999 VCSH FEW018CB SCT020 BKN300 33/24 Q1009 NOSIG
2026-04-16 05:00:00,METAR WSSS 160500Z VRB05KT 9999 FEW018TCU SCT020 BKN300 33/23 Q1009 NOSIG
2026-04-16 04:30:00,METAR WSSS 160430Z 16007KT 110V210 9999 FEW018TCU SCT020 BKN300 32/23 Q1010 NOSIG
2026-04-16 04:00:00,METAR WSSS 160400Z 12005KT 070V190 9999 FEW018CB FEW020TCU BKN300 32/23 Q1010 NOSIG
2026-04-16 03:30:00,METAR WSSS 160330Z 11007KT 080V140 9999 FEW018TCU BKN300 32/23 Q1010 NOSIG
2026-04-16 03:00:00,METAR WSSS 160300Z 12007KT 9999 FEW018TCU BKN300 32/23 Q1010 NOSIG
2026-04-16 02:30:00,METAR WSSS 160230Z 13006KT 090V180 9999 FEW018TCU BKN300 31/24 Q1010 NOSIG
2026-04-16 02:00:00,METAR WSSS 160200Z 11005KT 050V190 9999 FEW018TCU BKN300 31/24 Q1010 NOSIG
2026-04-16 01:30:00,METAR WSSS 160130Z 13005KT 100V170 9999 FEW018 FEW020TCU BKN300 30/24 Q1010 NOSIG
2026-04-16 01:00:00,METAR WSSS 160100Z 08004KT 060V190 9999 FEW018 FEW020TCU BKN300 29/24 Q1010 NOSIG
2026-04-16 00:30:00,METAR WSSS 160030Z 09003KT 030V160 9999 FEW018 FEW020TCU BKN300 30/24 Q1009 NOSIG
2026-04-16 00:00:00,METAR WSSS 160000Z 18003KT 110V200 9999 FEW016 BKN300 29/25 Q1009 NOSIG
2026-04-15 23:30:00,METAR WSSS 152330Z 20002KT 9999 FEW016 BKN300 27/24 Q1008 NOSIG
2026-04-15 23:00:00,METAR WSSS 152300Z VRB02KT 9000 FEW016 BKN300 27/24 Q1008 NOSIG
2026-04-15 22:30:00,METAR WSSS 152230Z VRB02KT 9000 FEW016 BKN300 26/23 Q1008 NOSIG
2026-04-15 22:00:00,METAR WSSS 152200Z 19002KT 6000 FEW016 BKN300 27/23 Q1008 NOSIG
2026-04-15 21:30:00,METAR WSSS 152130Z 19003KT 8000 FEW016 BKN300 27/24 Q1008 NOSIG
2026-04-15 21:00:00,METAR WSSS 152100Z 21002KT 6000 FEW016 BKN300 26/24 Q1008 NOSIG
2026-04-15 20:30:00,METAR WSSS 152030Z 20001KT 6000 FEW016 BKN300 27/24 Q1008 NOSIG
2026-04-15 20:00:00,METAR WSSS 152000Z 20001KT 9999 FEW016 BKN300 27/24 Q1008 NOSIG
2026-04-15 19:30:00,METAR WSSS 151930Z VRB01KT 9999 FEW016 BKN300 26/25 Q1008 NOSIG
2026-04-15 19:00:00,METAR WSSS 151900Z VRB02KT 9999 FEW016 BKN300 27/25 Q1008 NOSIG
2026-04-15 18:30:00,METAR WSSS 151830Z 20001KT 9999 FEW016 BKN300 27/24 Q1009 NOSIG
2026-04-15 18:00:00,METAR WSSS 151800Z 20002KT 9999 FEW016 BKN300 27/24 Q1009 NOSIG
2026-04-15 17:30:00,METAR WSSS 151730Z VRB02KT 9999 FEW016 BKN300 27/24 Q1009 NOSIG
2026-04-15 17:00:00,METAR WSSS 151700Z VRB02KT 9999 FEW016 BKN300 27/24 Q1009 NOSIG
2026-04-15 16:30:00,METAR WSSS 151630Z 21003KT 9999 FEW016 BKN300 28/24 Q1010 NOSIG
2026-04-15 16:00:00,METAR WSSS 151600Z 13003KT 100V180 9999 FEW016 BKN300 28/24 Q1010 NOSIG
2026-04-15 15:30:00,METAR WSSS 151530Z 15004KT 120V180 9999 FEW016 BKN300 28/24 Q1010 NOSIG
2026-04-15 15:00:00,METAR WSSS 151500Z 16005KT 9999 FEW016 BKN300 28/24 Q1009 NOSIG
2026-04-15 14:30:00,METAR WSSS 151430Z 15005KT 9999 FEW016 BKN300 29/24 Q1009 NOSIG
2026-04-15 14:00:00,METAR WSSS 151400Z 19004KT 9999 FEW016 BKN300 28/24 Q1009 NOSIG
2026-04-15 13:30:00,METAR WSSS 151330Z 18005KT 9999 FEW016 BKN300 28/24 Q1009 NOSIG
2026-04-15 13:00:00,METAR WSSS 151300Z 16005KT 9999 FEW016 BKN300 28/24 Q1008 NOSIG
2026-04-15 12:30:00,METAR WSSS 151230Z 18005KT 9999 FEW016 BKN300 28/24 Q1008 NOSIG
2026-04-15 12:00:00,METAR WSSS 151200Z 15005KT 9999 FEW018 BKN300 29/24 Q1008 NOSIG
2026-04-15 11:30:00,METAR WSSS 151130Z 17005KT 9999 FEW018 BKN300 29/24 Q1008 NOSIG
2026-04-15 11:00:00,METAR WSSS 151100Z 16004KT 9999 FEW018 BKN300 30/24 Q1007 NOSIG
2026-04-15 10:30:00,METAR WSSS 151030Z 18005KT 9999 FEW018 FEW020TCU BKN300 30/24 Q1007 NOSIG
2026-04-15 10:00:00,METAR WSSS 151000Z 17007KT 9999 FEW020TCU BKN300 31/24 Q1007 NOSIG
2026-04-15 09:30:00,METAR WSSS 150930Z 16008KT 9999 FEW020TCU BKN300 31/24 Q1006 NOSIG
2026-04-15 09:00:00,METAR WSSS 150900Z 16008KT 9999 FEW020TCU BKN300 31/23 Q1007 NOSIG
2026-04-15 08:30:00,METAR WSSS 150830Z 17007KT 9999 FEW020TCU SCT280 BKN300 32/23 Q1007 NOSIG
2026-04-15 08:00:00,METAR WSSS 150800Z 17006KT 140V220 9999 FEW020TCU BKN280 31/24 Q1007 NOSIG
2026-04-15 07:30:00,METAR WSSS 150730Z 17007KT 9999 FEW020TCU BKN280 31/23 Q1007 NOSIG
2026-04-15 07:00:00,METAR WSSS 150700Z 18008KT 150V210 9999 FEW020 BKN280 31/24 Q1008 NOSIG
2026-04-15 06:30:00,METAR WSSS 150630Z 17006KT 120V210 9999 FEW018 BKN280 31/24 Q1008 NOSIG
2026-04-15 06:00:00,METAR WSSS 150600Z 17006KT 140V200 9999 FEW018 BKN280 31/24 Q1009 NOSIG
2026-04-15 05:30:00,METAR WSSS 150530Z 16005KT 110V190 9999 FEW018 BKN280 30/24 Q1009 NOSIG
2026-04-15 05:00:00,METAR WSSS 150500Z 16006KT 100V220 9999 FEW018 BKN280 30/24 Q1010 NOSIG
2026-04-15 04:30:00,METAR WSSS 150430Z 17004KT 130V230 9999 FEW016 BKN270 29/24 Q1010 NOSIG
2026-04-15 04:00:00,METAR WSSS 150400Z 18006KT 140V240 9999 FEW016 FEW018TCU BKN270 28/24 Q1011 NOSIG
2026-04-15 03:30:00,METAR WSSS 150330Z 17009KT 9999 FEW015 FEW017TCU FEW018CB BKN270 28/24 Q1011 NOSIG
2026-04-15 03:00:00,METAR WSSS 150300Z 16011KT 9999 FEW015 FEW017TCU FEW018CB BKN270 28/24 Q1011 NOSIG
2026-04-15 02:30:00,METAR WSSS 150230Z 16013KT 130V190 9000 -SHRA FEW015 FEW017TCU FEW018CB BKN270 28/24 Q1011 NOSIG
2026-04-15 02:00:00,METAR WSSS 150200Z 17010KT 140V200 8000 -SHRA FEW015 SCT017TCU FEW018CB 30/25 Q1011 NOSIG
2026-04-15 01:30:00,METAR WSSS 150130Z 17007KT 7000 -SHRA FEW015 FEW017TCU FEW020CB SCT270 29/25 Q1011 NOSIG
2026-04-15 01:00:00,METAR WSSS 150100Z 22003KT 150V260 8000 FEW016 FEW018TCU SCT270 29/25 Q1010 NOSIG
2026-04-15 00:30:00,METAR WSSS 150030Z VRB02KT 9000 FEW018TCU FEW020CB SCT270 28/25 Q1010 NOSIG
2026-04-15 00:00:00,METAR WSSS 150000Z 26003KT 190V310 8000 FEW018TCU FEW020CB BKN300 28/25 Q1010 NOSIG
2026-04-14 23:30:00,METAR WSSS 142330Z VRB02KT 9999 FEW018TCU BKN300 28/25 Q1009 NOSIG
2026-04-14 23:00:00,METAR WSSS 142300Z VRB01KT 9999 FEW018TCU SCT020 BKN300 28/25 Q1009 NOSIG
2026-04-14 22:30:00,METAR WSSS 142230Z VRB02KT 9999 SCT018 BKN300 28/25 Q1008 NOSIG
2026-04-14 22:00:00,METAR WSSS 142200Z VRB02KT 9999 SCT018 BKN300 28/24 Q1008 NOSIG
2026-04-14 21:30:00,METAR WSSS 142130Z VRB01KT 9999 SCT018 BKN300 27/25 Q1008 NOSIG
2026-04-14 21:00:00,METAR WSSS 142100Z 00000KT 9999 SCT018 BKN300 27/24 Q1008 NOSIG
2026-04-14 20:30:00,METAR WSSS 142030Z 18004KT 9999 SCT018 BKN300 28/24 Q1008 NOSIG
2026-04-14 20:00:00,METAR WSSS 142000Z 21003KT 9999 SCT018 BKN300 27/25 Q1008 NOSIG
2026-04-14 19:30:00,METAR WSSS 141930Z 20003KT 110V250 9999 FEW018 BKN300 27/25 Q1008 NOSIG
2026-04-14 19:00:00,METAR WSSS 141900Z 20004KT 9999 FEW018 BKN300 27/25 Q1009 NOSIG
2026-04-14 18:30:00,METAR WSSS 141830Z 19005KT 9999 FEW018 BKN300 27/25 Q1009 NOSIG
2026-04-14 18:00:00,METAR WSSS 141800Z 20003KT 170V270 9999 FEW018 BKN300 28/25 Q1009 NOSIG
2026-04-14 17:30:00,METAR WSSS 141730Z 18004KT 140V200 9999 FEW018 BKN300 28/25 Q1010 NOSIG
2026-04-14 17:00:00,METAR WSSS 141700Z 19006KT 9999 FEW018 BKN300 28/25 Q1010 NOSIG
2026-04-14 16:30:00,METAR WSSS 141630Z 20003KT 120V220 9999 FEW018 BKN300 28/25 Q1010 NOSIG
2026-04-14 16:00:00,METAR WSSS 141600Z 16004KT 110V200 9999 FEW018 BKN300 29/25 Q1011 NOSIG
2026-04-14 15:30:00,METAR WSSS 141530Z VRB02KT 9999 FEW018 BKN300 28/25 Q1011 NOSIG
2026-04-14 15:00:00,METAR WSSS 141500Z 00000KT 9999 FEW018 BKN300 27/26 Q1011 NOSIG
2026-04-14 14:30:00,METAR WSSS 141430Z VRB01KT 9999 FEW016 FEW018CB BKN300 27/26 Q1010 NOSIG
2026-04-14 14:00:00,METAR WSSS 141400Z 32004KT 9999 FEW016 FEW018CB BKN300 28/26 Q1010 NOSIG
2026-04-14 13:30:00,METAR WSSS 141330Z 34004KT 9999 FEW016 FEW018CB BKN300 28/26 Q1010 NOSIG
2026-04-14 13:00:00,METAR WSSS 141300Z 34004KT 300V010 9999 FEW016 FEW018CB BKN300 28/25 Q1010 NOSIG
2026-04-14 12:30:00,METAR WSSS 141230Z 33004KT 9999 FEW016 BKN300 28/25 Q1009 NOSIG
2026-04-14 12:00:00,METAR WSSS 141200Z 33004KT 9999 FEW016 BKN300 28/25 Q1009 NOSIG
2026-04-14 11:30:00,METAR WSSS 141130Z 35005KT 9999 FEW016 BKN300 27/25 Q1008 NOSIG
2026-04-14 11:00:00,METAR WSSS 141100Z 34005KT 310V010 9999 FEW016 BKN300 27/25 Q1008 NOSIG
2026-04-14 10:30:00,METAR WSSS 141030Z 33004KT 310V010 9999 -SHRA FEW017TCU SCT030 28/25 Q1008 NOSIG
2026-04-14 10:00:00,METAR WSSS 141000Z 34008KT 9999 FEW017CB FEW018TCU SCT030 29/24 Q1007 NOSIG
2026-04-14 09:30:00,METAR WSSS 140930Z VRB03KT 9999 FEW017CB FEW018TCU BKN300 30/25 Q1007 RETS NOSIG
2026-04-14 09:00:00,METAR WSSS 140900Z 08008KT 050V110 9999 TS FEW017CB FEW018TCU BKN300 31/25 Q1007 BECMG FM0945 TL1000 NSW
2026-04-14 08:33:00,SPECI WSSS 140833Z 16008KT 130V200 9999 TS FEW017CB FEW018TCU BKN300 32/24 Q1007 TEMPO FM0930 TL1020 3000 TSRA
2026-04-14 08:30:00,METAR WSSS 140830Z 15008KT 110V180 9999 FEW018CB FEW020TCU BKN300 32/24 Q1007 TEMPO FM0930 TL1020 3000 TSRA
2026-04-14 08:00:00,METAR WSSS 140800Z 16007KT 140V200 9999 FEW018CB FEW020TCU BKN300 32/25 Q1007 RETS NOSIG
2026-04-14 07:30:00,METAR WSSS 140730Z 17012KT 9999 TS FEW017CB FEW018TCU BKN300 32/26 Q1007 BECMG FM0740 TL0750 NSW
2026-04-14 07:00:00,METAR WSSS 140700Z 17012KT 9999 TS FEW017CB FEW018TCU SCT040 BKN300 32/25 Q1008 BECMG FM0720 TL0730 NSW
2026-04-14 06:30:00,METAR WSSS 140630Z 18009KT 130V210 9999 FEW018CB FEW020TCU BKN300 33/24 Q1008 NOSIG
2026-04-14 06:00:00,METAR WSSS 140600Z 17008KT 140V210 9999 FEW018CB FEW020TCU BKN300 34/24 Q1009 NOSIG
2026-04-14 05:30:00,METAR WSSS 140530Z 18008KT 130V210 9999 FEW017CB FEW018TCU BKN300 33/24 Q1009 NOSIG
2026-04-14 05:09:00,SPECI WSSS 140509Z VRB05KT 9999 FEW018 FEW020TCU BKN300 34/25 Q1010 NOSIG
2026-04-14 05:00:00,METAR WSSS 140500Z 18005KT 130V300 9999 FEW018 FEW020TCU BKN300 32/24 Q1010 NOSIG
2026-04-14 04:30:00,METAR WSSS 140430Z 16005KT 110V220 9999 FEW018 BKN300 33/25 Q1010 NOSIG
2026-04-14 04:00:00,METAR WSSS 140400Z 14006KT 100V180 9999 FEW018 BKN300 32/24 Q1011 NOSIG
2026-04-14 03:30:00,METAR WSSS 140330Z 14005KT 110V180 9999 FEW018 BKN300 33/24 Q1011 NOSIG
2026-04-14 03:00:00,METAR WSSS 140300Z VRB04KT 9999 FEW018 BKN300 32/23 Q1011 NOSIG
2026-04-14 02:30:00,METAR WSSS 140230Z 11005KT 070V230 9999 FEW018 BKN300 31/25 Q1011 NOSIG
2026-04-14 02:00:00,METAR WSSS 140200Z 07006KT 020V110 9999 FEW016 BKN300 31/25 Q1011 NOSIG
2026-04-14 01:30:00,METAR WSSS 140130Z 08006KT 040V120 9999 FEW016 BKN300 31/25 Q1011 NOSIG
2026-04-14 01:00:00,METAR WSSS 140100Z 10007KT 050V140 9999 FEW018 BKN300 30/25 Q1011 NOSIG
2026-04-14 00:30:00,METAR WSSS 140030Z 09005KT 020V140 9999 FEW018 BKN300 30/25 Q1010 NOSIG
2026-04-14 00:00:00,METAR WSSS 140000Z 10004KT 080V140 9999 FEW018 BKN300 29/26 Q1010 NOSIG
2026-04-13 23:30:00,METAR WSSS 132330Z 10005KT 9999 FEW016 BKN300 29/26 Q1010 NOSIG
2026-04-13 23:00:00,METAR WSSS 132300Z 09005KT 050V130 9999 FEW016 BKN300 29/25 Q1009 NOSIG
2026-04-13 22:30:00,METAR WSSS 132230Z 10005KT 040V130 9999 FEW016 SCT150 BKN300 29/26 Q1009 NOSIG
2026-04-13 22:00:00,METAR WSSS 132200Z VRB04KT 9999 FEW016 BKN150 29/26 Q1009 NOSIG
2026-04-13 21:30:00,METAR WSSS 132130Z VRB03KT 9999 FEW016 BKN150 29/26 Q1009 NOSIG
2026-04-13 21:00:00,METAR WSSS 132100Z 12004KT 080V190 9999 FEW018 BKN150 29/26 Q1009 NOSIG
2026-04-13 20:30:00,METAR WSSS 132030Z VRB02KT 9999 FEW018 BKN150 29/26 Q1009 NOSIG
2026-04-13 20:00:00,METAR WSSS 132000Z 09004KT 030V120 9999 FEW018 BKN150 29/26 Q1008 NOSIG
2026-04-13 19:30:00,METAR WSSS 131930Z 08005KT 340V130 9999 FEW018 BKN150 29/26 Q1009 NOSIG
2026-04-13 19:00:00,METAR WSSS 131900Z 09005KT 060V120 9999 FEW018 BKN150 29/26 Q1009 NOSIG
2026-04-13 18:30:00,METAR WSSS 131830Z 09005KT 060V120 9999 FEW016 BKN150 29/26 Q1010 NOSIG
2026-04-13 18:00:00,METAR WSSS 131800Z 10004KT 060V150 9999 FEW016 BKN150 29/26 Q1010 NOSIG
2026-04-13 17:30:00,METAR WSSS 131730Z 10004KT 9999 FEW016 BKN140 29/25 Q1010 NOSIG
2026-04-13 17:00:00,METAR WSSS 131700Z 13006KT 100V200 9999 FEW016 BKN140 29/25 Q1011 NOSIG
2026-04-13 16:30:00,METAR WSSS 131630Z 13005KT 020V180 9999 FEW016 BKN140 29/25 Q1011 NOSIG
2026-04-13 16:00:00,METAR WSSS 131600Z 11004KT 030V150 9999 FEW016 BKN140 29/26 Q1011 NOSIG
2026-04-13 15:30:00,METAR WSSS 131530Z 13004KT 080V180 9999 FEW016 BKN140 29/25 Q1011 NOSIG
2026-04-13 15:00:00,METAR WSSS 131500Z 15004KT 080V190 9999 FEW018 BKN140 29/25 Q1011 NOSIG
2026-04-13 14:30:00,METAR WSSS 131430Z 10004KT 060V130 9999 FEW018 BKN130 29/25 Q1011 NOSIG
2026-04-13 14:00:00,METAR WSSS 131400Z 04005KT 330V090 9999 FEW018 BKN130 29/25 Q1010 NOSIG
2026-04-13 13:30:00,METAR WSSS 131330Z 03006KT 360V060 9999 FEW018 SCT140 29/25 Q1010 NOSIG
2026-04-13 13:00:00,METAR WSSS 131300Z 03007KT 9999 FEW018 SCT140 29/25 Q1009 NOSIG
2026-04-13 12:30:00,METAR WSSS 131230Z 04006KT 010V070 9999 FEW018 BKN140 29/25 Q1009 NOSIG
2026-04-13 12:00:00,METAR WSSS 131200Z 12005KT 030V170 9999 FEW018 BKN140 29/25 Q1009 NOSIG
2026-04-13 11:30:00,METAR WSSS 131130Z 12004KT 080V210 9999 FEW018 SCT150 BKN180 29/24 Q1009 NOSIG
2026-04-13 11:00:00,METAR WSSS 131100Z 12006KT 9999 FEW018 BKN180 29/24 Q1009 NOSIG
2026-04-13 10:30:00,METAR WSSS 131030Z 14009KT 9999 FEW018 BKN180 28/25 Q1008 NOSIG
2026-04-13 10:00:00,METAR WSSS 131000Z 11012KT 9999 FEW018 FEW020CB BKN180 29/25 Q1008 NOSIG
2026-04-13 09:30:00,METAR WSSS 130930Z 09013KT 9999 FEW018 FEW020CB SCT180 BKN300 31/25 Q1008 NOSIG
2026-04-13 09:00:00,METAR WSSS 130900Z 09011KT 9999 FEW018TCU FEW020CB BKN300 32/23 Q1008 NOSIG
2026-04-13 08:30:00,METAR WSSS 130830Z 09012KT 9999 FEW018TCU FEW020CB BKN300 32/24 Q1007 NOSIG
2026-04-13 08:00:00,METAR WSSS 130800Z 10011KT 9999 FEW018TCU FEW020CB BKN300 31/25 Q1007 NOSIG
2026-04-13 07:30:00,METAR WSSS 130730Z 09009KT 9999 FEW018TCU FEW020CB BKN300 31/25 Q1007 NOSIG
2026-04-13 07:00:00,METAR WSSS 130700Z 09009KT 9999 FEW018TCU FEW020CB BKN300 32/24 Q1008 NOSIG
2026-04-13 06:30:00,METAR WSSS 130630Z 08008KT 050V110 9999 FEW018TCU FEW020CB BKN300 34/25 Q1008 NOSIG
2026-04-13 06:00:00,METAR WSSS 130600Z 09008KT 030V110 9999 FEW018TCU FEW020CB BKN300 33/24 Q1009 NOSIG
2026-04-13 05:30:00,METAR WSSS 130530Z 08008KT 040V100 9999 FEW018TCU FEW020CB BKN300 33/26 Q1009 NOSIG
2026-04-13 05:00:00,METAR WSSS 130500Z 10007KT 060V120 9999 FEW018 FEW020TCU BKN300 33/24 Q1010 NOSIG
2026-04-13 04:30:00,METAR WSSS 130430Z 09007KT 9999 SCT018 BKN300 32/25 Q1011 NOSIG
2026-04-13 04:00:00,METAR WSSS 130400Z 09007KT 050V120 9999 FEW018 BKN300 32/26 Q1011 NOSIG
2026-04-13 03:30:00,METAR WSSS 130330Z 09010KT 060V130 9999 FEW018 BKN300 32/26 Q1011 NOSIG
2026-04-13 03:00:00,METAR WSSS 130300Z 09010KT 060V120 9999 FEW018 BKN300 31/25 Q1011 NOSIG
2026-04-13 02:30:00,METAR WSSS 130230Z 11009KT 9999 SCT018 BKN300 31/25 Q1012 NOSIG
2026-04-13 02:00:00,METAR WSSS 130200Z 12009KT 090V150 9999 SCT018 BKN300 30/25 Q1012 NOSIG
2026-04-13 01:30:00,METAR WSSS 130130Z 09007KT 060V130 9999 FEW018 BKN300 30/26 Q1011 NOSIG
2026-04-13 01:00:00,METAR WSSS 130100Z 10004KT 050V150 9999 FEW018 BKN300 30/26 Q1011 NOSIG
2026-04-13 00:30:00,METAR WSSS 130030Z 06004KT 020V120 9999 FEW018 BKN300 29/26 Q1011 NOSIG
2026-04-13 00:00:00,METAR WSSS 130000Z 05004KT 020V080 9999 FEW018 BKN300 28/26 Q1010 NOSIG
2026-04-12 23:30:00,METAR WSSS 122330Z 05004KT 360V130 9999 FEW016 BKN300 28/25 Q1010 NOSIG
2026-04-12 23:00:00,METAR WSSS 122300Z 04006KT 020V090 9999 FEW016 BKN300 28/26 Q1009 NOSIG
2026-04-12 22:30:00,METAR WSSS 122230Z 05005KT 020V090 9999 FEW016 BKN300 28/25 Q1009 NOSIG
2026-04-12 22:00:00,METAR WSSS 122200Z 08005KT 9999 FEW016 BKN300 28/25 Q1009 NOSIG
2026-04-12 21:30:00,METAR WSSS 122130Z 08006KT 060V120 9999 FEW016 SCT160 BKN300 28/25 Q1009 NOSIG
2026-04-12 21:00:00,METAR WSSS 122100Z 09006KT 9999 FEW016 SCT160 BKN300 28/26 Q1008 NOSIG
2026-04-12 20:30:00,METAR WSSS 122030Z 09005KT 9999 FEW016 BKN300 28/25 Q1009 NOSIG
2026-04-12 20:00:00,METAR WSSS 122000Z 08005KT 9999 FEW016 BKN300 28/26 Q1009 NOSIG
2026-04-12 19:30:00,METAR WSSS 121930Z 11004KT 9999 FEW016 BKN300 28/26 Q1009 NOSIG
2026-04-12 19:00:00,METAR WSSS 121900Z 11005KT 9999 FEW016 BKN300 28/26 Q1009 NOSIG
2026-04-12 18:30:00,METAR WSSS 121830Z 11005KT 9999 FEW016 BKN300 28/26 Q1010 NOSIG
2026-04-12 18:00:00,METAR WSSS 121800Z 11003KT 9999 SCT016 BKN300 28/26 Q1010 NOSIG
2026-04-12 17:30:00,METAR WSSS 121730Z 10004KT 9999 FEW018 BKN300 28/26 Q1010 NOSIG
2026-04-12 17:00:00,METAR WSSS 121700Z 11003KT 060V140 9999 FEW018 BKN300 28/25 Q1011 NOSIG
2026-04-12 16:30:00,METAR WSSS 121630Z 10005KT 9999 FEW018 BKN300 28/25 Q1011 NOSIG
2026-04-12 16:00:00,METAR WSSS 121600Z 11005KT 080V140 9999 FEW018 BKN300 28/25 Q1011 NOSIG
2026-04-12 15:00:00,METAR WSSS 121500Z 13004KT 9999 FEW018 BKN300 28/24 Q1010 NOSIG
2026-04-12 14:30:00,METAR WSSS 121430Z 10003KT 080V140 9000 FEW018 BKN300 28/24 Q1010 NOSIG
2026-04-12 14:00:00,METAR WSSS 121400Z 11005KT 9999 FEW018 BKN300 28/24 Q1010 NOSIG
2026-04-12 13:41:00,SPECI WSSS 121341Z 11004KT 070V160 9999 FEW018 BKN300 28/24 Q1009 NOSIG
2026-04-12 13:30:00,METAR WSSS 121330Z 00000KT 9999 FEW018 BKN300 26/24 Q1009 NOSIG
2026-04-12 13:00:00,METAR WSSS 121300Z 00000KT 9999 FEW018 BKN300 27/24 Q1009 NOSIG
2026-04-12 12:30:00,METAR WSSS 121230Z 32002KT 9999 FEW018 BKN300 27/24 Q1008 NOSIG
2026-04-12 12:00:00,METAR WSSS 121200Z 05003KT 010V070 9999 FEW018 BKN300 28/24 Q1008 NOSIG
2026-04-12 11:30:00,METAR WSSS 121130Z 09003KT 040V130 9999 FEW018 BKN300 29/24 Q1008 NOSIG
2026-04-12 11:00:00,METAR WSSS 121100Z VRB02KT 9999 FEW018 FEW020CB BKN300 28/24 Q1007 NOSIG
2026-04-12 10:30:00,METAR WSSS 121030Z VRB01KT 9999 FEW018TCU BKN300 28/24 Q1007 NOSIG
2026-04-12 10:00:00,METAR WSSS 121000Z VRB02KT 9999 FEW020 BKN300 30/23 Q1007 NOSIG
2026-04-12 09:30:00,METAR WSSS 120930Z 15005KT 110V180 9999 FEW020 SCT280 BKN300 29/24 Q1007 NOSIG
2026-04-12 09:00:00,METAR WSSS 120900Z 12003KT 080V180 9999 FEW020 BKN280 30/23 Q1007 NOSIG
2026-04-12 08:30:00,METAR WSSS 120830Z VRB02KT 9999 FEW020 SCT270 29/23 Q1007 NOSIG
2026-04-12 08:00:00,METAR WSSS 120800Z 19005KT 160V220 9999 FEW020 SCT270 29/24 Q1007 NOSIG
2026-04-12 07:30:00,METAR WSSS 120730Z 19004KT 9999 FEW018 SCT200 28/23 Q1007 NOSIG
2026-04-12 07:00:00,METAR WSSS 120700Z 15005KT 9999 FEW018 FEW020TCU SCT200 28/24 Q1008 NOSIG
2026-04-12 06:30:00,METAR WSSS 120630Z 16005KT 130V190 9999 FEW018 FEW020TCU SCT190 28/24 Q1009 NOSIG
2026-04-12 06:00:00,METAR WSSS 120600Z 20005KT 170V230 9999 FEW018 SCT180 28/23 Q1010 NOSIG
2026-04-12 05:30:00,METAR WSSS 120530Z 17009KT 9999 FEW018TCU FEW020CB SCT180 28/24 Q1010 NOSIG
2026-04-12 05:00:00,METAR WSSS 120500Z 19009KT 9999 FEW016 FEW018TCU FEW020CB SCT180 28/24 Q1010 NOSIG
2026-04-12 04:30:00,METAR WSSS 120430Z 19008KT 9999 FEW015 FEW017TCU FEW018CB SCT150 28/24 Q1011 RETS NOSIG
2026-04-12 04:00:00,METAR WSSS 120400Z 20009KT 9999 TS FEW014 FEW016TCU FEW017CB SCT030 28/24 Q1011 BECMG TL0415 NSW
2026-04-12 03:30:00,METAR WSSS 120330Z 20011KT 6000 -TSRA FEW012 FEW015CB SCT016TCU 27/24 Q1011 RESHRA BECMG FM0400 TL0415 NSW
2026-04-12 03:10:00,SPECI WSSS 120310Z 19014KT 4000 +TSRA FEW012 FEW015CB SCT016TCU 27/24 Q1011 TEMPO TL0400 2500 BECMG FM0415 TL0430 6000 NSW
2026-04-12 03:00:00,METAR WSSS 120300Z 15009KT 110V180 3500 +SHRA SCT014 FEW016CB SCT017TCU 30/26 Q1012 TEMPO TL0400 2500 +TSRA BECMG FM0415 TL0430 6000 NSW
2026-04-12 02:30:00,METAR WSSS 120230Z 13006KT 090V170 9999 SCT016 FEW018CB BKN300 30/26 Q1011 NOSIG
2026-04-12 02:00:00,METAR WSSS 120200Z 11006KT 9999 FEW017 FEW018CB BKN300 30/26 Q1011 NOSIG
2026-04-12 01:30:00,METAR WSSS 120130Z 13007KT 9999 FEW018TCU SCT050 BKN300 30/25 Q1011 NOSIG
2026-04-12 01:00:00,METAR WSSS 120100Z 11005KT 080V160 9999 FEW018TCU SCT040 BKN300 29/24 Q1011 NOSIG
2026-04-12 00:30:00,METAR WSSS 120030Z 12004KT 090V150 9999 FEW018 FEW020TCU SCT040 BKN300 29/25 Q1011 NOSIG
2026-04-12 00:00:00,METAR WSSS 120000Z 13003KT 9999 FEW018 FEW020TCU BKN300 28/25 Q1010 NOSIG
2026-04-11 23:30:00,METAR WSSS 112330Z 11003KT 9999 FEW018 FEW020TCU BKN300 28/25 Q1010 NOSIG
2026-04-11 23:00:00,METAR WSSS 112300Z 10006KT 9999 FEW018 FEW020TCU BKN300 28/25 Q1009 NOSIG
2026-04-11 22:30:00,METAR WSSS 112230Z VRB02KT 9999 FEW018 SCT150 BKN300 27/25 Q1009 NOSIG
2026-04-11 22:00:00,METAR WSSS 112200Z VRB02KT 9999 FEW018 SCT150 BKN300 27/25 Q1009 NOSIG
2026-04-11 21:30:00,METAR WSSS 112130Z VRB02KT 9999 FEW018 BKN300 27/25 Q1009 NOSIG
2026-04-11 21:00:00,METAR WSSS 112100Z 16003KT 110V220 9999 FEW018 BKN300 28/25 Q1009 NOSIG
2026-04-11 20:30:00,METAR WSSS 112030Z VRB02KT 9999 FEW018 BKN300 27/25 Q1008 NOSIG
2026-04-11 20:00:00,METAR WSSS 112000Z VRB03KT 9999 FEW018 BKN280 28/24 Q1008 NOSIG
2026-04-11 19:30:00,METAR WSSS 111930Z VRB01KT 9999 FEW018 BKN280 26/24 Q1009 NOSIG
2026-04-11 19:00:00,METAR WSSS 111900Z VRB01KT 9999 FEW018 BKN280 26/24 Q1009 NOSIG
2026-04-11 18:30:00,METAR WSSS 111830Z 34001KT 9999 FEW018 SCT280 26/23 Q1009 NOSIG
2026-04-11 18:00:00,METAR WSSS 111800Z 35002KT 9999 FEW018 SCT280 26/24 Q1010 NOSIG
2026-04-11 17:30:00,METAR WSSS 111730Z 00000KT 9999 FEW018 BKN280 27/24 Q1010 NOSIG
2026-04-11 17:00:00,METAR WSSS 111700Z 15004KT 9999 FEW018 SCT050 BKN280 28/23 Q1011 NOSIG
2026-04-11 16:30:00,METAR WSSS 111630Z 15004KT 110V190 9999 FEW018 BKN280 27/25 Q1011 NOSIG
2026-04-11 16:00:00,METAR WSSS 111600Z 14003KT 100V170 9999 FEW018 BKN280 28/25 Q1011 NOSIG
2026-04-11 15:30:00,METAR WSSS 111530Z 11004KT 080V150 9999 FEW018 BKN270 27/24 Q1011 NOSIG
2026-04-11 15:00:00,METAR WSSS 111500Z 12007KT 9999 FEW016 BKN270 27/25 Q1011 NOSIG
2026-04-11 14:30:00,METAR WSSS 111430Z 11006KT 9999 FEW016 SCT050 28/25 Q1011 NOSIG
2026-04-11 14:00:00,METAR WSSS 111400Z 12007KT 070V150 9999 FEW016 FEW018CB BKN040 28/24 Q1011 NOSIG
2026-04-11 13:30:00,METAR WSSS 111330Z 14004KT 8000 -RA FEW018CB SCT040 BKN160 27/25 Q1010 NOSIG
2026-04-11 13:00:00,METAR WSSS 111300Z 12006KT 8000 -RA FEW012 FEW018CB BKN160 27/25 Q1010 RETS NOSIG
2026-04-11 12:30:00,METAR WSSS 111230Z 08006KT 8000 -TSRA FEW016CB FEW018TCU BKN160 28/25 Q1010 BECMG FM1315 TL1330 NSW
2026-04-11 12:00:00,METAR WSSS 111200Z 16004KT 7000 -TSRA FEW014CB FEW016TCU BKN160 28/25 Q1009 TEMPO TL1215 TL1245 3000 TSRA BECMG FM1245 TL1300 NSW
2026-04-11 11:30:00,METAR WSSS 111130Z 14005KT 7000 -TSRA FEW013 FEW015CB FEW016TCU BKN160 28/26 Q1008 BECMG FM1200 TL1215 NSW
2026-04-11 11:00:00,METAR WSSS 111100Z 10005KT 6000 -TSRA FEW013 FEW015CB FEW016TCU SCT025 28/26 Q1008 BECMG TL1115 NSW
2026-04-11 10:30:00,METAR WSSS 111030Z 15005KT 110V170 6000 -TSRA FEW012 FEW015CB FEW016TCU SCT025 29/25 Q1008 BECMG FM1100 TL1115 NSW
2026-04-11 10:00:00,METAR WSSS 111000Z 17006KT 4500 -TSRA FEW012 FEW015CB SCT016TCU 29/26 Q1008 BECMG FM1050 TL1100 6000 NSW
2026-04-11 09:30:00,METAR WSSS 110930Z 13005KT 080V160 9000 -SHRA FEW014 SCT017TCU FEW018CB 30/25 Q1007 TEMPO FM0950 TL1040 4000 TSRA
2026-04-11 09:00:00,METAR WSSS 110900Z 11007KT 090V160 9999 VCSH FEW016 FEW018TCU FEW020CB SCT025 30/25 Q1007 NOSIG
2026-04-11 08:30:00,METAR WSSS 110830Z 16007KT 9999 VCSH FEW016 FEW018TCU SCT025 30/25 Q1007 NOSIG
2026-04-11 08:00:00,METAR WSSS 110800Z 18008KT 9999 FEW018TCU SCT025 31/25 Q1007 NOSIG
2026-04-11 07:30:00,METAR WSSS 110730Z 15008KT 110V190 9999 FEW020TCU SCT270 31/26 Q1008 NOSIG
2026-04-11 07:00:00,METAR WSSS 110700Z 15007KT 110V180 9999 FEW020TCU SCT270 31/26 Q1008 NOSIG
2026-04-11 06:30:00,METAR WSSS 110630Z 16008KT 9999 FEW020TCU SCT030 30/25 Q1008 NOSIG
2026-04-11 06:00:00,METAR WSSS 110600Z 17006KT 130V210 9999 FEW020TCU SCT270 31/25 Q1009 NOSIG
2026-04-11 05:30:00,METAR WSSS 110530Z 18004KT 120V250 9999 FEW018TCU SCT270 31/25 Q1010 NOSIG
2026-04-11 05:00:00,METAR WSSS 110500Z 17007KT 9999 FEW018TCU SCT270 31/26 Q1010 NOSIG
2026-04-11 04:30:00,METAR WSSS 110430Z 19010KT 9999 FEW018TCU SCT300 30/25 Q1011 NOSIG
2026-04-11 04:00:00,METAR WSSS 110400Z VRB05KT 9999 FEW018TCU FEW020CB SCT300 32/24 Q1011 NOSIG
2026-04-11 03:30:00,METAR WSSS 110330Z 10005KT 030V160 9999 FEW016 FEW018TCU FEW020CB BKN300 31/25 Q1012 NOSIG
2026-04-11 03:00:00,METAR WSSS 110300Z 10007KT 070V140 9999 FEW016 FEW018TCU FEW020CB BKN300 31/25 Q1012 NOSIG
2026-04-11 02:30:00,METAR WSSS 110230Z 10007KT 060V120 9999 FEW016 FEW018TCU FEW020CB SCT300 31/26 Q1012 NOSIG
2026-04-11 02:00:00,METAR WSSS 110200Z 12005KT 080V150 9000 -SHRA FEW015 FEW017TCU FEW020CB SCT300 30/25 Q1012 NOSIG
2026-04-11 01:30:00,METAR WSSS 110130Z VRB03KT 8000 -SHRA FEW015 FEW017TCU FEW020CB SCT300 29/26 Q1012 NOSIG
2026-04-11 01:00:00,METAR WSSS 110100Z 13005KT 100V160 8000 -SHRA FEW015 SCT017TCU FEW020CB 29/26 Q1012 NOSIG
2026-04-11 00:40:00,SPECI WSSS 110040Z 10006KT 080V140 8000 3500NE -SHRA FEW015 FEW017TCU FEW020CB SCT030 29/25 Q1012 NOSIG
2026-04-11 00:30:00,METAR WSSS 110030Z 16006KT 090V200 9999 FEW016 FEW018TCU SCT030 29/25 Q1012 NOSIG
2026-04-11 00:00:00,METAR WSSS 110000Z 16003KT 120V200 9999 FEW016 FEW018TCU BKN300 28/25 Q1011 NOSIG
2026-04-10 23:30:00,METAR WSSS 102330Z 05004KT 330V100 9999 FEW016 FEW018TCU BKN300 28/25 Q1011 NOSIG
2026-04-10 23:00:00,METAR WSSS 102300Z 10005KT 070V130 9999 FEW016 FEW018TCU BKN300 28/25 Q1010 NOSIG
2026-04-10 22:30:00,METAR WSSS 102230Z 05005KT 020V080 9999 FEW018 BKN300 28/25 Q1010 NOSIG
2026-04-10 22:00:00,METAR WSSS 102200Z 04006KT 9999 FEW018 BKN300 28/25 Q1010 NOSIG
2026-04-10 21:30:00,METAR WSSS 102130Z 03003KT 340V080 9999 FEW018 BKN300 28/25 Q1010 NOSIG
2026-04-10 21:00:00,METAR WSSS 102100Z VRB02KT 9999 FEW018 BKN300 27/25 Q1010 NOSIG
2026-04-10 20:30:00,METAR WSSS 102030Z VRB02KT 9999 FEW018 BKN300 27/25 Q1010 NOSIG
2026-04-10 20:00:00,METAR WSSS 102000Z VRB02KT 9999 FEW018 BKN300 27/25 Q1010 NOSIG
2026-04-10 19:30:00,METAR WSSS 101930Z VRB02KT 9999 FEW018 BKN300 27/25 Q1010 NOSIG
2026-04-10 19:00:00,METAR WSSS 101900Z 04004KT 360V090 9999 FEW018 BKN300 28/25 Q1010 NOSIG
2026-04-10 18:30:00,METAR WSSS 101830Z 04004KT 360V070 9999 FEW018 BKN300 28/25 Q1010 NOSIG
2026-04-10 18:00:00,METAR WSSS 101800Z 36003KT 320V050 9999 FEW018 BKN300 28/26 Q1011 NOSIG
2026-04-10 17:30:00,METAR WSSS 101730Z 04006KT 9999 FEW018 BKN300 28/25 Q1011 NOSIG
2026-04-10 17:00:00,METAR WSSS 101700Z 04005KT 9999 FEW018 BKN300 29/25 Q1011 NOSIG
2026-04-10 16:30:00,METAR WSSS 101630Z 36003KT 330V070 9999 FEW018 BKN300 28/25 Q1012 NOSIG
2026-04-10 16:00:00,METAR WSSS 101600Z 04006KT 9999 FEW018 SCT170 BKN300 29/25 Q1012 NOSIG
2026-04-10 15:30:00,METAR WSSS 101530Z 02005KT 330V080 9999 FEW018 BKN170 29/25 Q1012 NOSIG
2026-04-10 15:00:00,METAR WSSS 101500Z 04005KT 020V120 9999 FEW018 BKN160 29/25 Q1012 NOSIG
2026-04-10 14:30:00,METAR WSSS 101430Z 05005KT 030V090 9999 FEW018 BKN180 29/25 Q1012 NOSIG
2026-04-10 14:00:00,METAR WSSS 101400Z 05004KT 010V090 9999 FEW018 SCT170 BKN300 29/25 Q1012 NOSIG
2026-04-10 13:30:00,METAR WSSS 101330Z 05005KT 010V100 9999 FEW018TCU SCT150 BKN300 29/25 Q1011 NOSIG
2026-04-10 13:00:00,METAR WSSS 101300Z 04006KT 360V060 9999 -SHRA FEW018TCU SCT070 29/25 Q1011 NOSIG
2026-04-10 12:30:00,METAR WSSS 101230Z 35005KT 9999 FEW018 SCT040 28/25 Q1010 NOSIG
2026-04-10 12:00:00,METAR WSSS 101200Z 03008KT 9999 FEW018TCU SCT270 29/25 Q1010 NOSIG
2026-04-10 11:30:00,METAR WSSS 101130Z 04007KT 350V080 9999 FEW018 FEW020TCU BKN270 29/25 Q1010 NOSIG
2026-04-10 11:00:00,METAR WSSS 101100Z 35004KT 9999 FEW018 FEW020TCU BKN270 28/24 Q1010 NOSIG
2026-04-10 10:30:00,METAR WSSS 101030Z 35006KT 9999 FEW018TCU FEW020CB SCT270 28/24 Q1009 RETS NOSIG
2026-04-10 10:00:00,METAR WSSS 101000Z 35006KT 280V040 9999 VCTS FEW014 FEW017CB FEW018TCU SCT040 29/24 Q1009 BECMG FM1015 TL1030 NSW
2026-04-10 09:40:00,SPECI WSSS 100940Z 17004KT 140V200 9999 VCTS FEW014 FEW017CB FEW018TCU SCT040 31/23 Q1009 BECMG FM1015 TL1030 NSW
2026-04-10 09:30:00,METAR WSSS 100930Z 17007KT 9999 VCSH FEW018TCU FEW020CB BKN300 31/23 Q1008 NOSIG
2026-04-10 09:00:00,METAR WSSS 100900Z 17008KT 9999 FEW018TCU FEW020CB BKN300 32/24 Q1008 NOSIG
2026-04-10 08:30:00,METAR WSSS 100830Z 18008KT 9999 FEW018TCU SCT280 BKN300 31/23 Q1008 NOSIG
2026-04-10 08:00:00,METAR WSSS 100800Z 16008KT 9999 FEW018TCU SCT280 BKN300 32/23 Q1009 NOSIG
2026-04-10 07:30:00,METAR WSSS 100730Z 17009KT 140V200 9999 FEW018TCU SCT280 32/24 Q1009 NOSIG
2026-04-10 07:00:00,METAR WSSS 100700Z 18007KT 9999 FEW018TCU SCT280 32/24 Q1009 NOSIG
2026-04-10 06:30:00,METAR WSSS 100630Z 16008KT 9999 FEW020 BKN280 31/24 Q1010 NOSIG
2026-04-10 06:00:00,METAR WSSS 100600Z 16008KT 120V180 9999 FEW020 BKN280 32/24 Q1011 NOSIG
2026-04-10 05:30:00,METAR WSSS 100530Z 17008KT 130V200 9999 FEW020 BKN280 31/24 Q1011 NOSIG
2026-04-10 05:00:00,METAR WSSS 100500Z 16007KT 120V200 9999 FEW020 BKN280 31/24 Q1012 NOSIG
2026-04-10 04:30:00,METAR WSSS 100430Z 14007KT 090V180 9999 FEW020 BKN300 31/25 Q1012 NOSIG
2026-04-10 04:00:00,METAR WSSS 100400Z 12004KT 040V190 9999 FEW020 BKN300 31/25 Q1012 NOSIG
2026-04-10 03:30:00,METAR WSSS 100330Z VRB02KT 9999 FEW020 BKN300 31/23 Q1012 NOSIG
2026-04-10 03:00:00,METAR WSSS 100300Z 05005KT 360V100 9999 FEW020 BKN300 31/23 Q1012 NOSIG
2026-04-10 02:30:00,METAR WSSS 100230Z 01004KT 310V060 9999 FEW020 BKN300 31/24 Q1013 NOSIG
2026-04-10 02:00:00,METAR WSSS 100200Z 34005KT 300V030 9999 FEW018 BKN300 30/24 Q1013 NOSIG
2026-04-10 01:30:00,METAR WSSS 100130Z 35003KT 330V030 8000 FEW018 BKN300 29/25 Q1013 NOSIG
2026-04-10 01:00:00,METAR WSSS 100100Z 35004KT 290V020 8000 FEW018 BKN300 28/24 Q1012 NOSIG
2026-04-10 00:30:00,METAR WSSS 100030Z 34003KT 9999 FEW018 SCT080 BKN300 27/25 Q1012 NOSIG
2026-04-10 00:00:00,METAR WSSS 100000Z 36003KT 7000 FEW018 SCT080 BKN300 26/25 Q1012 NOSIG
2026-04-09 23:30:00,METAR WSSS 092330Z VRB02KT 6000 FEW018TCU SCT060 BKN300 26/25 Q1011 NOSIG
2026-04-09 23:00:00,METAR WSSS 092300Z VRB01KT 6000 FEW017TCU SCT060 BKN300 26/25 Q1011 RETS NOSIG
2026-04-09 22:30:00,METAR WSSS 092230Z VRB02KT 7000 -TSRA FEW016CB FEW017TCU SCT040 BKN300 27/24 Q1011 BECMG FM2300 TL2315 NSW
2026-04-09 22:00:00,METAR WSSS 092200Z VRB04KT 8000 TS FEW016CB FEW017TCU SCT030 BKN300 27/24 Q1011 BECMG FM2230 TL2245 NSW
2026-04-09 21:30:00,METAR WSSS 092130Z 32003KT 8000 FEW018CB SCT030 BKN300 26/25 Q1010 TEMPO FM2145 TL2245 25012G25KT 3000 TSRA
2026-04-09 21:00:00,METAR WSSS 092100Z 32003KT 9000 FEW018CB BKN300 26/25 Q1011 TEMPO FM2145 TL2245 25012KT 4000 SHRA
2026-04-09 20:30:00,METAR WSSS 092030Z 32003KT 9000 FEW018 BKN300 27/25 Q1011 NOSIG
2026-04-09 20:00:00,METAR WSSS 092000Z 31003KT 9999 FEW018 BKN300 26/25 Q1011 NOSIG
2026-04-09 19:30:00,METAR WSSS 091930Z 32002KT 9999 FEW018 BKN300 26/25 Q1011 NOSIG
2026-04-09 19:00:00,METAR WSSS 091900Z 34002KT 9999 FEW018 BKN300 26/24 Q1011 NOSIG
2026-04-09 18:30:00,METAR WSSS 091830Z VRB02KT 9999 FEW018 BKN300 26/24 Q1011 NOSIG
2026-04-09 18:00:00,METAR WSSS 091800Z 00000KT 9999 FEW018 BKN300 26/25 Q1012 NOSIG
2026-04-09 17:30:00,METAR WSSS 091730Z VRB02KT 9999 FEW018 FEW020CB BKN300 26/25 Q1012 NOSIG
2026-04-09 17:00:00,METAR WSSS 091700Z VRB01KT 9999 FEW018 BKN300 27/24 Q1012 NOSIG
2026-04-09 16:30:00,METAR WSSS 091630Z 00000KT 9999 FEW018 BKN300 27/24 Q1013 NOSIG
2026-04-09 16:00:00,METAR WSSS 091600Z 00000KT 9999 FEW018 BKN300 27/25 Q1013 NOSIG
2026-04-09 15:30:00,METAR WSSS 091530Z 00000KT 9999 FEW018 BKN300 27/25 Q1013 NOSIG
2026-04-09 15:00:00,METAR WSSS 091500Z 34002KT 9999 FEW018 BKN300 26/25 Q1012 NOSIG
2026-04-09 14:30:00,METAR WSSS 091430Z 00000KT 9999 FEW018 BKN300 27/25 Q1012 NOSIG
2026-04-09 14:00:00,METAR WSSS 091400Z VRB02KT 9999 FEW018 BKN300 27/24 Q1011 NOSIG
2026-04-09 13:30:00,METAR WSSS 091330Z 35002KT 9999 FEW018 BKN300 27/25 Q1011 NOSIG
2026-04-09 13:00:00,METAR WSSS 091300Z 34003KT 9999 FEW018 SCT280 27/25 Q1010 NOSIG
2026-04-09 12:30:00,METAR WSSS 091230Z 34004KT 9999 FEW018 SCT280 28/25 Q1010 NOSIG
2026-04-09 12:00:00,METAR WSSS 091200Z 09003KT 040V130 8000 FEW018 BKN280 28/25 Q1009 NOSIG
2026-04-09 11:30:00,METAR WSSS 091130Z 11004KT 070V140 6000 FEW018 BKN280 28/25 Q1009 NOSIG
2026-04-09 11:00:00,METAR WSSS 091100Z 10004KT 050V130 8000 FEW020 BKN280 28/25 Q1009 NOSIG
2026-04-09 10:30:00,METAR WSSS 091030Z 10005KT 070V130 8000 FEW020 BKN280 29/25 Q1009 NOSIG
2026-04-09 10:00:00,METAR WSSS 091000Z 09006KT 6000 FEW020 BKN280 29/25 Q1009 NOSIG
2026-04-09 09:30:00,METAR WSSS 090930Z 10004KT 060V120 6000 FEW020 SCT170 BKN280 29/25 Q1009 NOSIG
2026-04-09 09:00:00,METAR WSSS 090900Z 09003KT 050V150 7000 FEW020 SCT170 BKN280 30/25 Q1009 NOSIG
2026-04-09 08:30:00,METAR WSSS 090830Z 10005KT 060V150 7000 FEW020 SCT170 BKN270 29/25 Q1009 NOSIG
2026-04-09 08:00:00,METAR WSSS 090800Z 10005KT 040V120 7000 FEW018 SCT170 BKN270 29/25 Q1009 NOSIG
2026-04-09 07:30:00,METAR WSSS 090730Z 10005KT 060V150 7000 FEW016 SCT170 BKN270 29/25 Q1009 NOSIG
2026-04-09 07:00:00,METAR WSSS 090700Z 15004KT 110V200 7000 FEW018 SCT170 BKN270 29/25 Q1010 NOSIG
2026-04-09 06:30:00,METAR WSSS 090630Z 17005KT 7000 FEW018 SCT170 BKN260 28/26 Q1010 NOSIG
2026-04-09 06:00:00,METAR WSSS 090600Z 16006KT 140V200 6000 FEW018 FEW020TCU BKN270 28/25 Q1011 NOSIG
2026-04-09 05:30:00,METAR WSSS 090530Z 17005KT 150V210 8000 FEW016 FEW018TCU SCT160 BKN270 29/26 Q1011 NOSIG
2026-04-09 05:00:00,METAR WSSS 090500Z 17009KT 8000 FEW016 FEW018TCU SCT160 29/26 Q1011 NOSIG
2026-04-09 04:30:00,METAR WSSS 090430Z 15004KT 060V200 8000 -SHRA FEW015 FEW016CB SCT018TCU 30/27 Q1012 NOSIG
2026-04-09 04:00:00,METAR WSSS 090400Z VRB02KT 6000 -SHRA FEW012 FEW015CB SCT017TCU 29/26 Q1012 RESHRA NOSIG
2026-04-09 03:45:00,SPECI WSSS 090345Z VRB02KT 6000 -SHRA FEW012 FEW015CB SCT017TCU 28/26 Q1012 RESHRA NOSIG
2026-04-09 03:30:00,METAR WSSS 090330Z 22005KT 170V290 4000 SHRA FEW012 FEW015CB SCT017TCU 27/26 Q1013 BECMG FM0400 TL0415 6000 NSW
2026-04-09 03:00:00,METAR WSSS 090300Z 18006KT 6000 FEW015 FEW017CB SCT018TCU 28/26 Q1013 RETS NOSIG
2026-04-09 02:30:00,METAR WSSS 090230Z 16007KT 6000 -TSRA FEW014 FEW016CB SCT018TCU 28/25 Q1013 BECMG FM0245 TL0300 NSW
2026-04-09 02:12:00,SPECI WSSS 090212Z VRB05KT 6000 -TSRA FEW016 FEW018CB SCT020TCU 29/25 Q1013 BECMG FM0245 TL0300 NSW
2026-04-09 02:00:00,METAR WSSS 090200Z VRB02KT 5000 HZ FEW016 FEW018CB FEW020TCU BKN300 30/25 Q1013 BECMG FM0300 TL0330 NSW
2026-04-09 01:30:00,METAR WSSS 090130Z 33004KT 290V010 4000 HZ FEW018 FEW020TCU BKN300 29/25 Q1012 NOSIG
2026-04-09 01:00:00,METAR WSSS 090100Z 31004KT 250V010 6000 FEW018 SCT020TCU 29/25 Q1012 NOSIG
2026-04-09 00:30:00,METAR WSSS 090030Z 32003KT 6000 FEW016 FEW020TCU BKN050 28/25 Q1011 NOSIG
2026-04-09 00:00:00,METAR WSSS 090000Z 00000KT 6000 FEW018 FEW020TCU SCT040 28/25 Q1011 NOSIG
2026-04-08 23:30:00,METAR WSSS 082330Z VRB01KT 7000 FEW018 FEW020TCU BKN300 26/24 Q1011 NOSIG
2026-04-08 23:00:00,METAR WSSS 082300Z VRB01KT 8000 FEW018 FEW020TCU BKN300 26/24 Q1010 NOSIG
2026-04-08 22:30:00,METAR WSSS 082230Z VRB01KT 9000 FEW018 FEW020CB BKN300 26/24 Q1010 NOSIG
2026-04-08 22:00:00,METAR WSSS 082200Z 00000KT 9999 FEW018 FEW020CB BKN300 26/24 Q1010 NOSIG
2026-04-08 21:30:00,METAR WSSS 082130Z VRB01KT 9999 FEW018 BKN300 26/24 Q1010 NOSIG
2026-04-08 21:00:00,METAR WSSS 082100Z 32003KT 9999 FEW018 BKN300 26/24 Q1009 NOSIG
2026-04-08 20:30:00,METAR WSSS 082030Z 34003KT 9999 FEW018 BKN300 25/24 Q1009 NOSIG
2026-04-08 20:00:00,METAR WSSS 082000Z 36003KT 9999 FEW018 BKN300 25/24 Q1009 NOSIG
2026-04-08 19:30:00,METAR WSSS 081930Z 00000KT 9999 FEW018 BKN300 25/23 Q1009 NOSIG
2026-04-08 19:00:00,METAR WSSS 081900Z 34002KT 9999 FEW018 BKN300 25/23 Q1010 NOSIG
2026-04-08 18:30:00,METAR WSSS 081830Z 32002KT 9999 FEW018 BKN300 25/23 Q1010 NOSIG
2026-04-08 18:00:00,METAR WSSS 081800Z 33003KT 9999 FEW018 BKN300 26/23 Q1011 NOSIG
2026-04-08 17:30:00,METAR WSSS 081730Z 33004KT 9999 FEW018 BKN300 26/23 Q1011 NOSIG
2026-04-08 17:00:00,METAR WSSS 081700Z 34003KT 9999 FEW018 BKN300 25/23 Q1011 NOSIG
2026-04-08 16:30:00,METAR WSSS 081630Z VRB01KT 9999 FEW018 BKN300 26/22 Q1012 NOSIG
2026-04-08 16:00:00,METAR WSSS 081600Z 32003KT 9999 FEW018 BKN300 26/22 Q1011 NOSIG
2026-04-08 15:30:00,METAR WSSS 081530Z 34003KT 9999 FEW018 BKN300 26/23 Q1011 NOSIG
2026-04-08 15:00:00,METAR WSSS 081500Z VRB02KT 9999 FEW018 BKN300 26/22 Q1011 NOSIG
2026-04-08 14:30:00,METAR WSSS 081430Z 34004KT 9999 FEW018 BKN300 26/22 Q1011 NOSIG
2026-04-08 14:00:00,METAR WSSS 081400Z 34004KT 9999 FEW018 BKN300 26/22 Q1011 NOSIG
2026-04-08 13:30:00,METAR WSSS 081330Z 31005KT 9999 FEW018 SCT300 27/23 Q1010 NOSIG
2026-04-08 13:00:00,METAR WSSS 081300Z 34006KT 9999 FEW018 SCT300 27/24 Q1010 NOSIG
2026-04-08 12:30:00,METAR WSSS 081230Z 34005KT 310V010 9999 FEW018CB SCT160 27/24 Q1010 NOSIG
2026-04-08 12:00:00,METAR WSSS 081200Z 36005KT 330V040 9999 FEW018CB SCT160 27/23 Q1009 RETS NOSIG
2026-04-08 11:30:00,METAR WSSS 081130Z 36011KT 9999 -TSRA FEW017CB FEW018TCU SCT300 27/23 Q1009 BECMG TL1200 NSW
2026-04-08 11:00:00,METAR WSSS 081100Z 01012KT 9999 -TSRA FEW015 FEW017CB FEW018TCU SCT070 28/24 Q1009 BECMG FM1130 TL1200 NSW
2026-04-08 10:47:00,SPECI WSSS 081047Z 36012KT 9999 -TSRA FEW015 FEW017CB FEW018TCU SCT070 29/25 Q1009 BECMG FM1130 TL1200 NSW
2026-04-08 10:30:00,METAR WSSS 081030Z 07009KT 9999 VCTS FEW017CB FEW018TCU SCT070 30/25 Q1009 BECMG FM1130 TL1200 NSW
2026-04-08 10:00:00,METAR WSSS 081000Z 09009KT 060V120 9999 VCSH FEW017CB FEW018TCU SCT070 31/25 Q1008 NOSIG
2026-04-08 09:30:00,METAR WSSS 080930Z 14005KT 070V180 9999 VCSH FEW017CB FEW018TCU SCT300 31/25 Q1008 NOSIG
2026-04-08 09:00:00,METAR WSSS 080900Z 16008KT 130V190 9999 VCSH FEW017CB FEW018TCU BKN300 31/25 Q1008 NOSIG
2026-04-08 08:30:00,METAR WSSS 080830Z 15009KT 120V180 9999 FEW017CB FEW018TCU BKN300 32/23 Q1008 NOSIG
2026-04-08 08:00:00,METAR WSSS 080800Z 16008KT 9999 FEW020CB BKN300 32/23 Q1008 NOSIG
2026-04-08 07:30:00,METAR WSSS 080730Z 18009KT 9999 FEW020CB BKN300 32/25 Q1008 NOSIG
2026-04-08 07:00:00,METAR WSSS 080700Z 16009KT 9999 FEW020CB BKN300 32/26 Q1009 NOSIG
2026-04-08 06:30:00,METAR WSSS 080630Z 17008KT 9999 FEW020TCU BKN300 32/26 Q1009 NOSIG
2026-04-08 06:00:00,METAR WSSS 080600Z 18009KT 9999 FEW020TCU BKN300 32/26 Q1009 NOSIG
2026-04-08 05:30:00,METAR WSSS 080530Z 18010KT 9999 FEW020TCU SCT160 BKN300 32/26 Q1010 NOSIG
2026-04-08 05:00:00,METAR WSSS 080500Z VRB03KT 9999 FEW020 SCT160 BKN300 33/24 Q1010 NOSIG
2026-04-08 04:30:00,METAR WSSS 080430Z VRB04KT 9999 FEW020 SCT160 BKN300 32/24 Q1011 NOSIG
2026-04-08 04:00:00,METAR WSSS 080400Z VRB03KT 9999 FEW020 SCT160 BKN300 32/25 Q1011 NOSIG
2026-04-08 03:30:00,METAR WSSS 080330Z VRB04KT 9999 FEW018 SCT160 BKN300 32/26 Q1011 NOSIG
2026-04-08 03:00:00,METAR WSSS 080300Z VRB02KT 9999 FEW018 SCT160 BKN300 31/26 Q1012 NOSIG
2026-04-08 02:30:00,METAR WSSS 080230Z VRB04KT 9999 FEW018 BKN300 30/25 Q1012 NOSIG
2026-04-08 02:00:00,METAR WSSS 080200Z VRB02KT 8000 FEW018 BKN160 30/25 Q1012 NOSIG
2026-04-08 01:30:00,METAR WSSS 080130Z 34003KT 300V010 8000 FEW018 BKN160 30/25 Q1012 NOSIG
2026-04-08 01:00:00,METAR WSSS 080100Z 34003KT 300V030 6000 FEW018 BKN160 28/25 Q1012 NOSIG
2026-04-08 00:30:00,METAR WSSS 080030Z 33003KT 280V010 4000 HZ FEW018 BKN160 28/25 Q1012 BECMG FM0100 TL0115 6000 NSW
2026-04-08 00:00:00,METAR WSSS 080000Z VRB02KT 4000 HZ FEW018 BKN160 27/25 Q1011 BECMG FM0030 TL0045 6000 NSW
2026-04-07 23:30:00,METAR WSSS 072330Z VRB02KT 3000 BR FEW018 SCT160 BKN300 26/25 Q1011 BECMG FM0030 TL0045 6000 NSW
2026-04-07 23:00:00,METAR WSSS 072300Z 33002KT 3000 BR FEW018 BKN160 26/25 Q1010 BECMG FM2345 TL0015 6000 NSW
2026-04-07 22:30:00,METAR WSSS 072230Z 34002KT 4000 BR FEW018 BKN160 26/25 Q1010 BECMG FM2345 TL0015 6000 NSW
2026-04-07 22:00:00,METAR WSSS 072200Z VRB02KT 4000 BR FEW018 BKN160 26/25 Q1010 NOSIG
2026-04-07 21:30:00,METAR WSSS 072130Z VRB02KT 5000 BR FEW018 BKN160 26/25 Q1010 NOSIG
2026-04-07 21:00:00,METAR WSSS 072100Z VRB01KT 5000 BR FEW018 BKN160 25/25 Q1010 NOSIG
2026-04-07 20:30:00,METAR WSSS 072030Z VRB02KT 5000 BR FEW018 SCT160 BKN300 25/24 Q1009 NOSIG
2026-04-07 20:00:00,METAR WSSS 072000Z VRB01KT 5000 BR FEW018 BKN300 25/24 Q1009 NOSIG
2026-04-07 19:30:00,METAR WSSS 071930Z 32003KT 5000 BR FEW018 BKN300 25/25 Q1009 NOSIG
2026-04-07 19:00:00,METAR WSSS 071900Z 32002KT 5000 BR FEW018 BKN300 25/25 Q1009 NOSIG
2026-04-07 18:30:00,METAR WSSS 071830Z 33003KT 6000 FEW018 SCT160 BKN300 26/25 Q1010 NOSIG
2026-04-07 18:00:00,METAR WSSS 071800Z 34003KT 6000 FEW016 BKN160 26/25 Q1010 NOSIG
2026-04-07 17:30:00,METAR WSSS 071730Z 34004KT 7000 FEW016 BKN300 26/25 Q1011 NOSIG
2026-04-07 17:00:00,METAR WSSS 071700Z 35003KT 330V030 8000 FEW016 BKN300 26/25 Q1011 NOSIG
2026-04-07 16:30:00,METAR WSSS 071630Z 35003KT 310V010 8000 FEW016 BKN300 26/25 Q1012 NOSIG
2026-04-07 16:00:00,METAR WSSS 071600Z 33004KT 9000 FEW016 BKN300 26/25 Q1012 NOSIG
2026-04-07 15:30:00,METAR WSSS 071530Z VRB01KT 9000 FEW016 BKN300 25/25 Q1011 NOSIG
2026-04-07 15:00:00,METAR WSSS 071500Z VRB02KT 8000 FEW016 BKN300 25/24 Q1011 NOSIG
2026-04-07 14:30:00,METAR WSSS 071430Z VRB01KT 6000 FEW016 BKN300 25/25 Q1010 NOSIG
2026-04-07 14:00:00,METAR WSSS 071400Z VRB01KT 8000 FEW018 BKN300 25/24 Q1010 NOSIG
2026-04-07 13:30:00,METAR WSSS 071330Z 32002KT 9999 FEW018 BKN300 25/25 Q1010 NOSIG
2026-04-07 13:00:00,METAR WSSS 071300Z VRB02KT 9999 FEW018 BKN300 26/25 Q1010 NOSIG
2026-04-07 12:30:00,METAR WSSS 071230Z VRB01KT 9999 FEW018 SCT160 BKN300 26/25 Q1010 NOSIG
2026-04-07 12:00:00,METAR WSSS 071200Z 20004KT 180V240 9999 FEW018 SCT160 BKN300 26/24 Q1010 NOSIG
2026-04-07 11:30:00,METAR WSSS 071130Z 18005KT 9999 FEW018 BKN160 26/24 Q1009 NOSIG
2026-04-07 11:00:00,METAR WSSS 071100Z 19007KT 9999 FEW018 BKN160 27/24 Q1009 NOSIG
2026-04-07 10:30:00,METAR WSSS 071030Z 19007KT 9999 FEW018 BKN160 27/24 Q1009 NOSIG
2026-04-07 10:00:00,METAR WSSS 071000Z 19004KT 9999 FEW016 BKN150 27/24 Q1008 NOSIG
2026-04-07 09:30:00,METAR WSSS 070930Z 17007KT 140V200 9999 FEW016 BKN150 27/24 Q1008 NOSIG
2026-04-07 09:00:00,METAR WSSS 070900Z 16005KT 120V190 9999 FEW016 BKN150 27/24 Q1009 NOSIG
2026-04-07 08:30:00,METAR WSSS 070830Z 13004KT 030V160 9000 -RA FEW015 SCT140 BKN160 26/24 Q1009 NOSIG
2026-04-07 08:00:00,METAR WSSS 070800Z 36004KT 9000 -RA FEW015 SCT140 BKN160 26/24 Q1009 NOSIG
2026-04-07 07:30:00,METAR WSSS 070730Z 34004KT 8000 -RA FEW015 BKN160 25/24 Q1010 NOSIG
2026-04-07 07:00:00,METAR WSSS 070700Z VRB02KT 7000 -RA FEW015 BKN160 26/23 Q1010 RERA NOSIG
2026-04-07 06:30:00,METAR WSSS 070630Z VRB01KT 5000 RA FEW015 FEW018TCU BKN150 25/24 Q1010 BECMG FM0700 TL0715 NSW
2026-04-07 06:00:00,METAR WSSS 070600Z VRB01KT 4500 RA FEW015 FEW016TCU FEW018CB BKN150 25/23 Q1011 BECMG FM0630 TL0645 6000 NSW
2026-04-07 05:30:00,METAR WSSS 070530Z VRB02KT 4500 RA FEW014 FEW016TCU FEW018CB BKN150 25/24 Q1012 BECMG FM0600 TL0615 6000 NSW
2026-04-07 05:00:00,METAR WSSS 070500Z VRB01KT 4500 RA FEW014 FEW016TCU FEW018CB BKN150 26/23 Q1012 RETS BECMG FM0530 TL0545 6000 NSW
2026-04-07 04:30:00,METAR WSSS 070430Z 21006KT 180V260 4000 TSRA FEW014 FEW015CB FEW016TCU BKN150 25/23 Q1012 BECMG FM0445 TL0500 6000 NSW
2026-04-07 04:00:00,METAR WSSS 070400Z 23007KT 170V270 2000 TSRA FEW010 FEW014CB FEW015TCU BKN150 24/23 Q1012 BECMG FM0415 TL0430 6000 NSW
2026-04-07 03:30:00,METAR WSSS 070330Z 24006KT 200V290 2000 TSRA FEW010 FEW014CB SCT015TCU 25/23 Q1013 BECMG FM0345 TL0400 6000 NSW
2026-04-07 03:00:00,METAR WSSS 070300Z 23010KT 200V280 2000 TSRA FEW010 FEW014CB SCT015TCU 26/23 Q1013 BECMG FM0330 TL0345 6000 NSW
2026-04-07 02:44:00,SPECI WSSS 070244Z 23012KT 200V280 2000 TSRA FEW010 FEW014CB SCT015TCU 26/23 Q1013 BECMG FM0330 TL0345 6000 NSW
2026-04-07 02:37:00,SPECI WSSS 070237Z 22012G22KT 200V270 2500 SHRA FEW012 SCT015TCU FEW016CB 26/23 Q1013 TEMPO TL0315 TSRA BECMG FM0330 TL0345 6000 NSW
2026-04-07 02:30:00,METAR WSSS 070230Z 22014KT 200V270 4500 -SHRA FEW012 SCT016TCU FEW017CB 28/23 Q1012 TEMPO FM0240 TL0340 2800 TSRA BECMG FM0400 TL0415 6000
2026-04-07 02:00:00,METAR WSSS 070200Z 18005KT 140V200 9999 FEW015 FEW018TCU FEW020CB BKN300 30/25 Q1012 TEMPO FM0230 TL0330 3000 BECMG FM0345 6000 RA
2026-04-07 01:30:00,METAR WSSS 070130Z 15004KT 100V210 9999 FEW016 FEW018TCU BKN300 31/25 Q1012 NOSIG
2026-04-07 01:00:00,METAR WSSS 070100Z 12004KT 100V160 9999 FEW016 FEW018TCU BKN300 30/25 Q1011 NOSIG
2026-04-07 00:30:00,METAR WSSS 070030Z 09005KT 9999 FEW016 FEW020TCU BKN300 29/25 Q1011 NOSIG
2026-04-07 00:00:00,METAR WSSS 070000Z 10004KT 080V160 9999 FEW018 FEW020TCU BKN300 29/25 Q1011 NOSIG
2026-04-06 23:30:00,METAR WSSS 062330Z 12003KT 080V140 9999 FEW018 FEW020TCU BKN300 28/25 Q1010 NOSIG
2026-04-06 23:00:00,METAR WSSS 062300Z 12003KT 9999 FEW018 FEW020TCU BKN300 28/25 Q1010 NOSIG
2026-04-06 22:30:00,METAR WSSS 062230Z 10004KT 080V140 9999 FEW018 BKN300 28/25 Q1009 NOSIG
2026-04-06 22:00:00,METAR WSSS 062200Z 10005KT 9999 FEW018 BKN300 28/25 Q1009 NOSIG
2026-04-06 21:30:00,METAR WSSS 062130Z 12005KT 9999 FEW018 BKN300 28/25 Q1009 NOSIG
2026-04-06 21:00:00,METAR WSSS 062100Z 12005KT 9999 FEW018 BKN300 28/25 Q1009 NOSIG
2026-04-06 20:30:00,METAR WSSS 062030Z 10003KT 9999 FEW018 BKN300 28/25 Q1009 NOSIG
2026-04-06 20:00:00,METAR WSSS 062000Z 09003KT 9999 FEW018 BKN300 28/24 Q1009 NOSIG
2026-04-06 19:30:00,METAR WSSS 061930Z 10004KT 9999 FEW018 BKN300 28/25 Q1009 NOSIG
2026-04-06 19:00:00,METAR WSSS 061900Z 13004KT 100V180 9999 FEW018 BKN300 28/25 Q1010 NOSIG
2026-04-06 18:30:00,METAR WSSS 061830Z 18003KT 9999 FEW018 BKN300 28/25 Q1010 NOSIG
2026-04-06 18:00:00,METAR WSSS 061800Z 19003KT 9999 FEW018 BKN300 28/25 Q1011 NOSIG
2026-04-06 17:30:00,METAR WSSS 061730Z 21002KT 9999 FEW018 BKN300 28/25 Q1011 NOSIG
2026-04-06 17:00:00,METAR WSSS 061700Z VRB01KT 9999 FEW018 BKN300 28/24 Q1011 NOSIG
2026-04-06 16:30:00,METAR WSSS 061630Z 14005KT 9999 FEW018 BKN300 29/25 Q1011 NOSIG
2026-04-06 16:00:00,METAR WSSS 061600Z 12004KT 080V140 9999 FEW018 BKN300 29/25 Q1011 NOSIG
2026-04-06 15:30:00,METAR WSSS 061530Z 09005KT 9999 FEW018 BKN300 30/25 Q1011 NOSIG
2026-04-06 15:00:00,METAR WSSS 061500Z 14004KT 110V200 9999 FEW018 BKN300 28/24 Q1011 NOSIG
2026-04-06 14:30:00,METAR WSSS 061430Z 19004KT 9999 FEW018 BKN300 29/23 Q1011 NOSIG
2026-04-06 14:00:00,METAR WSSS 061400Z 18004KT 9999 FEW018 BKN300 29/22 Q1010 NOSIG
2026-04-06 13:30:00,METAR WSSS 061330Z 20003KT 9999 FEW018 BKN300 29/21 Q1010 NOSIG
2026-04-06 13:00:00,METAR WSSS 061300Z 18002KT 9999 FEW018 BKN300 28/22 Q1009 NOSIG
2026-04-06 12:30:00,METAR WSSS 061230Z 19003KT 9999 FEW018 BKN300 29/22 Q1009 NOSIG
2026-04-06 12:00:00,METAR WSSS 061200Z 18005KT 9999 FEW020 BKN300 29/22 Q1009 NOSIG
2026-04-06 11:30:00,METAR WSSS 061130Z 18006KT 9999 FEW020 BKN300 29/22 Q1008 NOSIG
2026-04-06 11:00:00,METAR WSSS 061100Z 17006KT 9999 FEW020 BKN300 30/22 Q1008 NOSIG
2026-04-06 10:30:00,METAR WSSS 061030Z 17008KT 9999 FEW020 BKN300 31/22 Q1008 NOSIG
2026-04-06 10:00:00,METAR WSSS 061000Z 17009KT 9999 FEW020 BKN300 31/22 Q1008 NOSIG
2026-04-06 09:30:00,METAR WSSS 060930Z 19009KT 9999 FEW020 BKN300 32/22 Q1008 NOSIG
2026-04-06 09:00:00,METAR WSSS 060900Z 18010KT 9999 FEW020 BKN300 32/23 Q1008 NOSIG
2026-04-06 08:30:00,METAR WSSS 060830Z 16011KT 9999 FEW020 BKN300 32/22 Q1008 NOSIG
2026-04-06 08:00:00,METAR WSSS 060800Z 17011KT 150V210 9999 FEW020 BKN300 33/22 Q1008 NOSIG
2026-04-06 07:30:00,METAR WSSS 060730Z 18011KT 150V220 9999 FEW020 BKN300 33/21 Q1008 NOSIG
2026-04-06 07:00:00,METAR WSSS 060700Z 17012KT 9999 FEW020 BKN300 33/22 Q1008 NOSIG
2026-04-06 06:30:00,METAR WSSS 060630Z 19009KT 9999 FEW020 BKN300 33/21 Q1009 NOSIG
2026-04-06 06:00:00,METAR WSSS 060600Z 20009KT 150V250 9999 FEW020 BKN300 33/24 Q1010 NOSIG
2026-04-06 05:30:00,METAR WSSS 060530Z 18010KT 150V220 9999 FEW020 SCT150 BKN300 31/24 Q1010 NOSIG
2026-04-06 05:00:00,METAR WSSS 060500Z 18009KT 150V210 9999 FEW020 SCT150 BKN300 31/24 Q1011 NOSIG
2026-04-06 04:30:00,METAR WSSS 060430Z 18008KT 150V210 9999 FEW018 SCT070 BKN300 30/23 Q1011 NOSIG
2026-04-06 04:00:00,METAR WSSS 060400Z 18010KT 9999 FEW018 SCT060 BKN300 30/24 Q1011 NOSIG
2026-04-06 03:30:00,METAR WSSS 060330Z 21009KT 180V250 9999 FEW018 SCT060 BKN150 29/23 Q1012 NOSIG
2026-04-06 03:00:00,METAR WSSS 060300Z 21010KT 170V240 9999 FEW016 BKN150 30/23 Q1012 NOSIG
2026-04-06 02:30:00,METAR WSSS 060230Z 20009KT 9999 FEW016 SCT050 BKN150 29/23 Q1012 NOSIG
2026-04-06 02:00:00,METAR WSSS 060200Z 22005KT 170V270 9999 FEW016 SCT040 BKN150 28/23 Q1012 NOSIG
2026-04-06 01:30:00,METAR WSSS 060130Z 23006KT 180V280 9999 FEW016 FEW018TCU SCT040 28/23 Q1011 NOSIG
2026-04-06 01:00:00,METAR WSSS 060100Z 21010KT 180V240 9999 FEW016 FEW018TCU SCT040 28/24 Q1011 NOSIG
2026-04-06 00:30:00,METAR WSSS 060030Z 22006KT 200V270 9999 FEW017TCU SCT040 27/23 Q1012 NOSIG
2026-04-06 00:00:00,METAR WSSS 060000Z 21013KT 190V250 9999 -SHRA FEW014 SCT016 FEW017CB FEW018TCU 26/23 Q1011 RETS NOSIG
2026-04-05 23:30:00,METAR WSSS 052330Z 22011KT 9000 -TSRA FEW014 SCT016 FEW017CB FEW018TCU 26/23 Q1011 BECMG FM2340 TL2350 NSW
2026-04-05 23:00:00,METAR WSSS 052300Z 21011KT 8000 -TSRA SCT016 FEW017CB FEW018TCU 26/23 Q1011 BECMG FM2315 TL2330 NSW
2026-04-05 22:43:00,SPECI WSSS 052243Z 20014G24KT 170V230 8000 -TSRA SCT016 FEW017CB FEW018TCU 26/23 Q1010 BECMG FM2315 TL2330 NSW
2026-04-05 22:30:00,METAR WSSS 052230Z 19018KT 8000 -TSRA SCT016 FEW017CB FEW018TCU 26/24 Q1010 TEMPO TL2315 3000 TSRA BECMG FM2315 TL2330 NSW
2026-04-05 22:17:00,SPECI WSSS 052217Z 19015G25KT 9000 TS SCT016 FEW017CB FEW018TCU 26/23 Q1010 TEMPO TL2300 3000 TSRA BECMG FM2300 TL2315 NSW
2026-04-05 22:00:00,METAR WSSS 052200Z 17005KT 9999 TS FEW016 FEW018CB BKN300 28/25 Q1009 TEMPO FM2215 TL2300 3000 TSRA BECMG FM2300 TL2315 NSW
2026-04-05 21:30:00,METAR WSSS 052130Z 19003KT 9999 FEW016 FEW018CB BKN300 27/25 Q1009 NOSIG
2026-04-05 21:00:00,METAR WSSS 052100Z 18004KT 9999 FEW018 FEW020CB BKN300 27/25 Q1009 NOSIG
2026-04-05 20:30:00,METAR WSSS 052030Z 16004KT 130V190 9999 FEW018 FEW020CB BKN300 28/25 Q1009 NOSIG
2026-04-05 20:00:00,METAR WSSS 052000Z 13004KT 100V170 9999 FEW018 FEW020CB BKN300 28/25 Q1009 NOSIG
2026-04-05 19:30:00,METAR WSSS 051930Z 14005KT 9999 FEW018 FEW020CB BKN300 28/25 Q1009 NOSIG
2026-04-05 19:00:00,METAR WSSS 051900Z 13005KT 9999 FEW018 BKN300 28/25 Q1009 NOSIG
2026-04-05 18:30:00,METAR WSSS 051830Z 11004KT 080V140 9999 FEW018 BKN300 29/25 Q1009 NOSIG
2026-04-05 18:00:00,METAR WSSS 051800Z 11004KT 080V150 9999 FEW018 BKN300 29/25 Q1010 NOSIG
2026-04-05 17:30:00,METAR WSSS 051730Z 12005KT 080V160 9999 FEW018 BKN300 29/25 Q1010 NOSIG
2026-04-05 17:00:00,METAR WSSS 051700Z 12006KT 080V150 9999 FEW018 BKN300 29/25 Q1010 NOSIG
2026-04-05 16:30:00,METAR WSSS 051630Z 09005KT 040V120 9999 SCT018 BKN300 29/25 Q1010 NOSIG
2026-04-05 16:00:00,METAR WSSS 051600Z 11005KT 080V160 9999 SCT018 BKN300 29/25 Q1010 NOSIG
2026-04-05 15:30:00,METAR WSSS 051530Z 09006KT 040V120 9999 FEW018 BKN300 29/25 Q1010 NOSIG
2026-04-05 15:00:00,METAR WSSS 051500Z VRB05KT 9999 FEW018 BKN300 29/24 Q1010 NOSIG
2026-04-05 13:00:00,METAR WSSS 051300Z 06006KT 030V090 9999 FEW018 BKN300 29/25 Q1009 NOSIG
2026-04-05 12:30:00,METAR WSSS 051230Z 06007KT 9999 FEW018 BKN300 29/25 Q1008 NOSIG
2026-04-05 12:00:00,METAR WSSS 051200Z 05008KT 9999 FEW018 BKN300 29/25 Q1008 NOSIG
2026-04-05 11:30:00,METAR WSSS 051130Z 03007KT 010V070 9999 FEW018 BKN300 30/25 Q1008 NOSIG
2026-04-05 11:00:00,METAR WSSS 051100Z VRB03KT 9999 FEW018TCU BKN300 30/24 Q1008 NOSIG
2026-04-05 10:30:00,METAR WSSS 051030Z VRB04KT 9999 FEW018TCU FEW020CB BKN300 30/24 Q1007 NOSIG
2026-04-05 10:00:00,METAR WSSS 051000Z VRB03KT 9999 FEW018 FEW020CB BKN300 31/24 Q1006 NOSIG
2026-04-05 09:30:00,METAR WSSS 050930Z 12005KT 080V150 9999 FEW018 FEW020CB BKN300 31/25 Q1006 NOSIG
2026-04-05 09:00:00,METAR WSSS 050900Z 11007KT 9999 FEW018 FEW020CB BKN300 31/25 Q1006 NOSIG
2026-04-05 08:30:00,METAR WSSS 050830Z 12010KT 9999 FEW018 FEW020CB SCT050 BKN300 31/25 Q1007 NOSIG
2026-04-05 08:00:00,METAR WSSS 050800Z 15010KT 100V180 9999 FEW018 FEW020CB SCT050 BKN300 31/24 Q1006 NOSIG
2026-04-05 07:30:00,METAR WSSS 050730Z 16009KT 140V200 9999 FEW018TCU FEW020CB SCT050 BKN300 32/24 Q1007 NOSIG
2026-04-05 07:00:00,METAR WSSS 050700Z 17010KT 9999 FEW018TCU FEW020CB BKN300 33/24 Q1007 NOSIG
2026-04-05 06:30:00,METAR WSSS 050630Z 15008KT 100V180 9999 FEW018TCU FEW020CB BKN300 33/23 Q1008 NOSIG
2026-04-05 06:00:00,METAR WSSS 050600Z 15007KT 120V180 9999 FEW018TCU FEW020CB BKN300 32/22 Q1008 NOSIG
2026-04-05 05:30:00,METAR WSSS 050530Z 18007KT 130V210 9999 FEW018TCU FEW020CB BKN300 33/23 Q1008 NOSIG
2026-04-05 05:00:00,METAR WSSS 050500Z 16005KT 090V200 9999 FEW018TCU FEW020CB BKN300 33/23 Q1009 NOSIG
2026-04-05 04:30:00,METAR WSSS 050430Z 15007KT 120V200 9999 FEW018TCU FEW020CB BKN300 32/23 Q1009 NOSIG
2026-04-05 04:00:00,METAR WSSS 050400Z 17006KT 120V220 9999 FEW018TCU BKN300 32/24 Q1010 NOSIG
2026-04-05 03:30:00,METAR WSSS 050330Z 36003KT 320V080 9999 SCT018 FEW020TCU BKN300 31/25 Q1010 NOSIG
2026-04-05 03:00:00,METAR WSSS 050300Z 34004KT 9999 SCT018 FEW020TCU BKN300 31/26 Q1010 NOSIG
2026-04-05 02:30:00,METAR WSSS 050230Z VRB02KT 9999 SCT018 BKN300 30/25 Q1010 NOSIG
2026-04-05 02:00:00,METAR WSSS 050200Z 31004KT 280V340 9999 SCT018 BKN300 30/25 Q1010 NOSIG
2026-04-05 01:30:00,METAR WSSS 050130Z 33004KT 290V010 7000 FEW018 BKN300 29/26 Q1010 NOSIG
2026-04-05 01:00:00,METAR WSSS 050100Z 33004KT 5000 HZ FEW018 BKN300 30/25 Q1009 BECMG TL0130 6000 NSW
2026-04-05 00:30:00,METAR WSSS 050030Z 34003KT 6000 FEW018 BKN300 29/26 Q1009 NOSIG
2026-04-05 00:00:00,METAR WSSS 050000Z 33003KT 4500 HZ FEW018 BKN300 27/26 Q1008 BECMG TL0030 6000 NSW
2026-04-04 23:30:00,METAR WSSS 042330Z 31002KT 4000 BR FEW018 BKN300 26/25 Q1008 BECMG TL0015 6000 NSW
2026-04-04 23:00:00,METAR WSSS 042300Z 32003KT 4500 BR FEW018 BKN300 26/25 Q1008 BECMG FM2345 TL0000 6000 NSW
2026-04-04 22:30:00,METAR WSSS 042230Z 32003KT 7000 FEW018 BKN300 26/25 Q1008 NOSIG
2026-04-04 22:00:00,METAR WSSS 042200Z 34002KT 7000 FEW018 BKN300 26/25 Q1008 NOSIG
2026-04-04 21:30:00,METAR WSSS 042130Z 31003KT 7000 FEW018 BKN300 26/25 Q1007 NOSIG
2026-04-04 21:00:00,METAR WSSS 042100Z 34003KT 9000 FEW018 BKN300 27/25 Q1007 NOSIG
2026-04-04 20:30:00,METAR WSSS 042030Z 34004KT 9000 FEW018 BKN300 27/25 Q1007 NOSIG
2026-04-04 20:00:00,METAR WSSS 042000Z 34003KT 9000 FEW018 BKN300 26/25 Q1007 NOSIG
2026-04-04 19:30:00,METAR WSSS 041930Z 02003KT 320V070 9000 FEW018 BKN300 27/25 Q1008 NOSIG
2026-04-04 19:00:00,METAR WSSS 041900Z 36003KT 330V040 9000 FEW018 BKN300 27/25 Q1008 NOSIG
2026-04-04 18:30:00,METAR WSSS 041830Z VRB02KT 9000 FEW018 BKN300 26/25 Q1008 NOSIG
2026-04-04 18:00:00,METAR WSSS 041800Z 02004KT 340V050 9000 FEW018 BKN300 28/25 Q1009 NOSIG
2026-04-04 17:30:00,METAR WSSS 041730Z 36003KT 320V100 9000 FEW018 BKN300 27/25 Q1009 NOSIG
2026-04-04 17:00:00,METAR WSSS 041700Z 04004KT 010V070 9000 FEW018 BKN300 28/24 Q1009 NOSIG
2026-04-04 16:30:00,METAR WSSS 041630Z VRB02KT 8000 FEW018 BKN300 27/25 Q1009 NOSIG
2026-04-04 16:00:00,METAR WSSS 041600Z 05003KT 010V090 9999 FEW018 BKN300 28/25 Q1010 NOSIG
2026-04-04 15:30:00,METAR WSSS 041530Z 05004KT 020V090 9999 FEW018 BKN300 29/25 Q1009 NOSIG
2026-04-04 15:00:00,METAR WSSS 041500Z 05004KT 350V090 9999 FEW018 BKN300 28/25 Q1009 NOSIG
2026-04-04 14:30:00,METAR WSSS 041430Z VRB02KT 9000 FEW018 BKN300 27/25 Q1009 NOSIG
2026-04-04 14:00:00,METAR WSSS 041400Z 34003KT 300V050 9000 FEW016 BKN300 27/25 Q1009 NOSIG
2026-04-04 13:30:00,METAR WSSS 041330Z 36005KT 340V050 8000 FEW015 FEW018TCU SCT040 27/25 Q1009 RESHRA NOSIG
2026-04-04 13:12:00,SPECI WSSS 041312Z 35007KT 6000 -SHRA FEW014 FEW016TCU SCT025 27/25 Q1009 RESHRA NOSIG
2026-04-04 13:00:00,METAR WSSS 041300Z 34006KT 3000 +SHRA FEW013 FEW015CB SCT016TCU 27/25 Q1009 BECMG TL1330 6000 NSW
2026-04-04 12:43:00,SPECI WSSS 041243Z 01006KT 330V040 2000 +SHRA FEW013 FEW015CB SCT016TCU 27/25 Q1009 BECMG FM1315 TL1330 6000 NSW
2026-04-04 12:30:00,METAR WSSS 041230Z 01005KT 350V060 3500 SHRA FEW015 FEW016CB SCT017TCU 28/25 Q1008 BECMG FM1300 TL1315 6000 NSW
2026-04-04 12:00:00,METAR WSSS 041200Z 35007KT 9999 SCT018 SCT030 28/24 Q1008 NOSIG
2026-04-04 11:30:00,METAR WSSS 041130Z 04007KT 9999 SCT016 FEW018TCU SCT030 30/25 Q1007 NOSIG
2026-04-04 11:00:00,METAR WSSS 041100Z 10006KT 040V120 9999 FEW018TCU SCT040 30/24 Q1007 NOSIG
2026-04-04 10:30:00,METAR WSSS 041030Z 09007KT 050V140 9999 FEW018TCU SCT040 BKN300 31/24 Q1007 NOSIG
2026-04-04 10:00:00,METAR WSSS 041000Z 17007KT 120V200 9999 FEW018TCU FEW020CB BKN300 31/24 Q1006 NOSIG
2026-04-04 09:30:00,METAR WSSS 040930Z 16006KT 110V200 9999 FEW018TCU FEW020CB BKN300 32/23 Q1006 NOSIG
2026-04-04 09:00:00,METAR WSSS 040900Z 14007KT 120V180 9999 FEW018CB FEW020TCU BKN300 32/23 Q1005 NOSIG
2026-04-04 08:30:00,METAR WSSS 040830Z 13008KT 090V160 9999 FEW018CB FEW020TCU BKN300 32/24 Q1006 NOSIG
2026-04-04 08:00:00,METAR WSSS 040800Z 12006KT 080V170 9999 FEW018CB FEW020TCU BKN300 32/23 Q1006 NOSIG
2026-04-04 07:30:00,METAR WSSS 040730Z 11007KT 070V140 9999 FEW020TCU BKN300 31/24 Q1006 NOSIG
2026-04-04 07:00:00,METAR WSSS 040700Z 11007KT 080V150 9999 FEW020TCU BKN300 32/23 Q1007 NOSIG
2026-04-04 06:30:00,METAR WSSS 040630Z 12009KT 090V160 9999 FEW020TCU BKN300 32/24 Q1007 NOSIG
2026-04-04 06:00:00,METAR WSSS 040600Z 09007KT 040V130 9999 FEW020TCU BKN300 33/24 Q1007 NOSIG
2026-04-04 05:30:00,METAR WSSS 040530Z 12008KT 060V160 9999 FEW018 FEW020CB BKN300 32/25 Q1008 NOSIG
2026-04-04 05:00:00,METAR WSSS 040500Z 16010KT 130V190 9999 FEW018 FEW020CB BKN300 32/24 Q1008 NOSIG
2026-04-04 04:30:00,METAR WSSS 040430Z 16009KT 130V190 9999 FEW017TCU SCT018 32/24 Q1009 NOSIG
2026-04-04 04:19:00,SPECI WSSS 040419Z 17010KT 140V200 9999 FEW017TCU SCT018 32/24 Q1009 NOSIG
2026-04-04 04:00:00,METAR WSSS 040400Z 11004KT 040V170 9999 SCT017 FEW018TCU BKN300 31/24 Q1010 NOSIG
2026-04-04 03:30:00,METAR WSSS 040330Z VRB04KT 9999 SCT018 FEW020TCU BKN300 32/25 Q1010 NOSIG
2026-04-04 03:00:00,METAR WSSS 040300Z 11007KT 040V140 9999 SCT018 FEW020TCU BKN300 31/24 Q1010 NOSIG
2026-04-04 02:30:00,METAR WSSS 040230Z 04005KT 340V120 9999 SCT018 BKN300 30/24 Q1010 NOSIG
2026-04-04 02:00:00,METAR WSSS 040200Z 05006KT 030V090 9999 SCT018 BKN300 29/24 Q1010 NOSIG
2026-04-04 01:30:00,METAR WSSS 040130Z 03008KT 360V060 9999 SCT018 BKN300 30/25 Q1010 NOSIG
2026-04-04 01:00:00,METAR WSSS 040100Z 36007KT 330V040 9999 FEW018 BKN300 29/25 Q1010 NOSIG
2026-04-04 00:30:00,METAR WSSS 040030Z 35005KT 9999 FEW018 BKN300 29/25 Q1009 NOSIG
2026-04-04 00:00:00,METAR WSSS 040000Z 34004KT 9999 FEW018 BKN300 28/25 Q1009 NOSIG
2026-04-03 23:30:00,METAR WSSS 032330Z 34005KT 9999 FEW018 BKN300 27/24 Q1009 NOSIG
2026-04-03 23:00:00,METAR WSSS 032300Z 34004KT 9999 FEW018 BKN300 27/24 Q1009 NOSIG
2026-04-03 22:30:00,METAR WSSS 032230Z 01003KT 320V070 9999 FEW018 BKN300 27/24 Q1008 NOSIG
2026-04-03 22:00:00,METAR WSSS 032200Z VRB02KT 9999 FEW018 BKN300 26/24 Q1008 NOSIG
2026-04-03 21:30:00,METAR WSSS 032130Z VRB02KT 9999 FEW018 BKN300 26/24 Q1008 NOSIG
2026-04-03 21:00:00,METAR WSSS 032100Z 01005KT 340V070 9999 FEW018 BKN300 27/24 Q1008 NOSIG
2026-04-03 20:30:00,METAR WSSS 032030Z 01004KT 340V040 9999 FEW018 BKN300 26/24 Q1008 NOSIG
2026-04-03 20:00:00,METAR WSSS 032000Z 02006KT 9999 FEW018 SCT160 BKN300 27/24 Q1008 NOSIG
2026-04-03 19:30:00,METAR WSSS 031930Z 02006KT 9999 FEW018 SCT160 BKN300 27/24 Q1008 NOSIG
2026-04-03 19:00:00,METAR WSSS 031900Z 35006KT 9999 FEW018 BKN300 27/24 Q1009 NOSIG
2026-04-03 18:30:00,METAR WSSS 031830Z 01008KT 9999 FEW018 BKN300 27/24 Q1009 NOSIG
2026-04-03 18:00:00,METAR WSSS 031800Z 01006KT 340V040 9999 FEW018 BKN300 27/24 Q1009 NOSIG
2026-04-03 17:30:00,METAR WSSS 031730Z 35004KT 330V030 9999 FEW018 BKN300 27/24 Q1010 NOSIG
2026-04-03 17:00:00,METAR WSSS 031700Z 35005KT 9999 FEW018 BKN300 27/24 Q1010 NOSIG
2026-04-03 16:30:00,METAR WSSS 031630Z 36005KT 9999 FEW018 BKN300 27/24 Q1011 NOSIG
2026-04-03 16:00:00,METAR WSSS 031600Z 01007KT 9999 FEW018 BKN300 28/24 Q1011 NOSIG
2026-04-03 15:30:00,METAR WSSS 031530Z 04008KT 9999 FEW018 BKN300 28/24 Q1011 NOSIG
2026-04-03 15:00:00,METAR WSSS 031500Z 04009KT 9999 FEW018 BKN300 28/24 Q1011 NOSIG
2026-04-03 14:30:00,METAR WSSS 031430Z 03009KT 360V070 9999 FEW018 BKN300 28/24 Q1010 NOSIG
2026-04-03 14:00:00,METAR WSSS 031400Z 02008KT 350V050 9999 FEW018 BKN300 28/24 Q1010 NOSIG
2026-04-03 13:30:00,METAR WSSS 031330Z 04010KT 9999 FEW018 BKN300 28/24 Q1010 NOSIG
2026-04-03 13:00:00,METAR WSSS 031300Z 03010KT 350V060 9999 FEW018 BKN300 28/23 Q1009 NOSIG
2026-04-03 12:30:00,METAR WSSS 031230Z 01008KT 9999 FEW018 SCT030 BKN300 28/23 Q1009 NOSIG
2026-04-03 12:00:00,METAR WSSS 031200Z 02009KT 9999 FEW018 BKN300 28/23 Q1009 NOSIG
2026-04-03 11:30:00,METAR WSSS 031130Z 03011KT 9999 FEW018TCU BKN300 29/23 Q1008 NOSIG
2026-04-03 11:00:00,METAR WSSS 031100Z 04010KT 360V080 9999 FEW018TCU BKN300 29/24 Q1008 NOSIG
2026-04-03 10:30:00,METAR WSSS 031030Z 04012KT 9999 FEW018TCU FEW020CB SCT300 30/24 Q1008 NOSIG
2026-04-03 10:00:00,METAR WSSS 031000Z 06011KT 020V090 9999 FEW018TCU FEW020CB SCT300 31/24 Q1007 NOSIG
2026-04-03 09:30:00,METAR WSSS 030930Z 09012KT 9999 FEW018TCU FEW020CB BKN300 32/24 Q1006 NOSIG
2026-04-03 09:00:00,METAR WSSS 030900Z 10008KT 060V160 9999 FEW020TCU BKN300 33/24 Q1007 NOSIG
2026-04-03 08:30:00,METAR WSSS 030830Z VRB07KT 9999 FEW020TCU BKN300 33/22 Q1007 NOSIG
2026-04-03 08:00:00,METAR WSSS 030800Z VRB08KT 9999 FEW020TCU BKN300 33/22 Q1007 NOSIG
2026-04-03 07:30:00,METAR WSSS 030730Z 12006KT 070V170 9999 FEW020TCU BKN300 33/21 Q1007 NOSIG
2026-04-03 07:00:00,METAR WSSS 030700Z 12008KT 050V160 9999 FEW020TCU BKN300 33/22 Q1007 NOSIG
2026-04-03 06:30:00,METAR WSSS 030630Z 09006KT 050V150 9999 FEW020TCU BKN300 33/22 Q1008 NOSIG
2026-04-03 06:00:00,METAR WSSS 030600Z 10007KT 040V140 9999 FEW020TCU BKN300 33/23 Q1008 NOSIG
2026-04-03 05:30:00,METAR WSSS 030530Z 08006KT 020V120 9999 FEW022 BKN350 32/23 Q1009 NOSIG
2026-04-03 05:00:00,METAR WSSS 030500Z 11006KT 040V180 9999 FEW020 BKN350 31/23 Q1009 NOSIG
2026-04-03 04:30:00,METAR WSSS 030430Z VRB04KT 9999 FEW020 BKN350 32/22 Q1010 NOSIG
2026-04-03 04:00:00,METAR WSSS 030400Z VRB06KT 9999 FEW020 BKN350 32/23 Q1010 NOSIG
2026-04-03 03:30:00,METAR WSSS 030330Z 36006KT 290V050 9999 FEW020 BKN300 31/23 Q1010 NOSIG
2026-04-03 03:00:00,METAR WSSS 030300Z 02006KT 340V060 9999 FEW018 BKN300 31/24 Q1010 NOSIG
2026-04-03 02:30:00,METAR WSSS 030230Z 34008KT 310V030 9999 FEW016 BKN300 30/24 Q1011 NOSIG
2026-04-03 02:00:00,METAR WSSS 030200Z 01007KT 330V060 9999 FEW018 BKN300 30/24 Q1011 NOSIG
2026-04-03 01:30:00,METAR WSSS 030130Z 35006KT 320V040 9999 FEW018 BKN300 30/24 Q1010 NOSIG
2026-04-03 01:00:00,METAR WSSS 030100Z 01007KT 9999 FEW018 BKN350 29/24 Q1010 NOSIG
2026-04-03 00:30:00,METAR WSSS 030030Z 35006KT 9999 FEW018 BKN350 28/24 Q1010 NOSIG
2026-04-03 00:00:00,METAR WSSS 030000Z 36005KT 330V050 9999 FEW018 BKN300 28/24 Q1009 NOSIG
2026-04-02 23:30:00,METAR WSSS 022330Z 02005KT 330V040 9999 FEW018 BKN300 27/24 Q1009 NOSIG
2026-04-02 23:00:00,METAR WSSS 022300Z 04007KT 360V070 9999 FEW018 BKN300 27/23 Q1009 NOSIG
2026-04-02 22:30:00,METAR WSSS 022230Z 01004KT 320V090 9999 FEW018 BKN300 27/23 Q1009 NOSIG
2026-04-02 22:00:00,METAR WSSS 022200Z 04007KT 9999 FEW018 BKN300 27/23 Q1009 NOSIG
2026-04-02 21:30:00,METAR WSSS 022130Z 04007KT 010V080 9999 FEW018 BKN300 27/24 Q1009 NOSIG
2026-04-02 21:00:00,METAR WSSS 022100Z 04007KT 9999 FEW018 BKN300 27/24 Q1009 NOSIG
2026-04-02 20:30:00,METAR WSSS 022030Z 04006KT 360V080 9999 FEW018 BKN300 27/23 Q1009 NOSIG
2026-04-02 20:00:00,METAR WSSS 022000Z 04005KT 9999 FEW018 BKN300 27/23 Q1009 NOSIG
2026-04-02 19:30:00,METAR WSSS 021930Z 02004KT 9999 FEW018 BKN300 27/24 Q1010 NOSIG
2026-04-02 19:00:00,METAR WSSS 021900Z 03006KT 9999 FEW018 BKN300 27/23 Q1010 NOSIG
2026-04-02 18:30:00,METAR WSSS 021830Z 04005KT 9999 FEW018 BKN300 27/24 Q1010 NOSIG
2026-04-02 18:00:00,METAR WSSS 021800Z 03006KT 9999 FEW018 BKN300 28/24 Q1011 NOSIG
2026-04-02 17:30:00,METAR WSSS 021730Z 02006KT 9999 FEW018 BKN300 28/24 Q1011 NOSIG
2026-04-02 17:00:00,METAR WSSS 021700Z 03007KT 9999 FEW018 BKN300 28/24 Q1011 NOSIG
2026-04-02 16:30:00,METAR WSSS 021630Z 04008KT 9999 FEW018 BKN300 28/24 Q1011 NOSIG
2026-04-02 16:00:00,METAR WSSS 021600Z 03008KT 010V070 9999 FEW018 BKN300 28/24 Q1012 NOSIG
2026-04-02 15:30:00,METAR WSSS 021530Z 04008KT 9999 FEW018 BKN300 28/23 Q1011 NOSIG
2026-04-02 15:00:00,METAR WSSS 021500Z 03008KT 9999 FEW018 BKN300 28/24 Q1011 NOSIG
2026-04-02 14:30:00,METAR WSSS 021430Z 04009KT 9999 FEW018 BKN300 28/24 Q1011 NOSIG
2026-04-02 14:00:00,METAR WSSS 021400Z 03009KT 360V060 9999 FEW018 BKN300 28/23 Q1011 NOSIG
2026-04-02 13:30:00,METAR WSSS 021330Z 04009KT 9999 FEW018 BKN300 28/23 Q1010 NOSIG
2026-04-02 13:00:00,METAR WSSS 021300Z 04008KT 9999 FEW018 BKN300 28/24 Q1010 NOSIG
2026-04-02 12:30:00,METAR WSSS 021230Z 02008KT 350V050 9999 FEW018 BKN300 28/24 Q1010 NOSIG
2026-04-02 12:00:00,METAR WSSS 021200Z 04010KT 9999 FEW018 BKN300 29/24 Q1009 NOSIG
2026-04-02 11:30:00,METAR WSSS 021130Z 04010KT 9000 FEW018 SCT050 BKN300 29/24 Q1009 NOSIG
2026-04-02 11:00:00,METAR WSSS 021100Z 04012KT 9999 FEW018TCU SCT050 BKN300 29/23 Q1009 NOSIG
2026-04-02 10:30:00,METAR WSSS 021030Z 04011KT 9999 FEW018TCU SCT050 BKN300 30/24 Q1008 NOSIG
2026-04-02 10:00:00,METAR WSSS 021000Z 05011KT 020V080 9999 FEW018TCU BKN300 30/24 Q1008 NOSIG
2026-04-02 09:30:00,METAR WSSS 020930Z 08011KT 9999 FEW018TCU SCT020 BKN300 31/24 Q1007 NOSIG
2026-04-02 09:00:00,METAR WSSS 020900Z 08009KT 030V140 9999 FEW018TCU SCT020 BKN300 31/24 Q1007 NOSIG
2026-04-02 08:30:00,METAR WSSS 020830Z 07010KT 020V120 9999 FEW020TCU BKN300 32/22 Q1008 NOSIG
2026-04-02 08:00:00,METAR WSSS 020800Z 09010KT 050V120 9999 FEW020TCU BKN300 32/23 Q1008 NOSIG
2026-04-02 07:30:00,METAR WSSS 020730Z 08009KT 030V120 9999 FEW022 BKN300 32/23 Q1008 NOSIG
2026-04-02 07:00:00,METAR WSSS 020700Z 08010KT 050V140 9999 FEW022 BKN300 32/24 Q1008 NOSIG
2026-04-02 06:30:00,METAR WSSS 020630Z 09008KT 030V130 9999 FEW020TCU BKN300 32/24 Q1009 NOSIG
2026-04-02 06:00:00,METAR WSSS 020600Z 11007KT 080V140 9999 FEW020 BKN300 31/24 Q1010 NOSIG
2026-04-02 05:30:00,METAR WSSS 020530Z 11007KT 030V160 9999 FEW018TCU BKN300 31/23 Q1010 NOSIG
2026-04-02 05:00:00,METAR WSSS 020500Z 10005KT 050V170 9999 FEW018TCU BKN300 31/23 Q1010 NOSIG
2026-04-02 04:30:00,METAR WSSS 020430Z 09006KT 050V150 9999 FEW018TCU SCT020 BKN300 31/23 Q1011 NOSIG
2026-04-02 04:00:00,METAR WSSS 020400Z VRB07KT 9999 FEW018TCU SCT020 BKN300 31/23 Q1011 NOSIG
2026-04-02 03:30:00,METAR WSSS 020330Z 36005KT 310V060 9999 FEW020 BKN300 31/23 Q1012 NOSIG
2026-04-02 03:00:00,METAR WSSS 020300Z VRB03KT 9999 FEW020 BKN300 31/24 Q1012 NOSIG
2026-04-02 02:30:00,METAR WSSS 020230Z 04004KT 350V100 9999 FEW020 BKN300 30/24 Q1012 NOSIG
2026-04-02 02:00:00,METAR WSSS 020200Z 02007KT 330V080 9999 FEW020 BKN300 30/23 Q1012 NOSIG
2026-04-02 01:30:00,METAR WSSS 020130Z 36004KT 330V040 9999 FEW018TCU BKN300 29/23 Q1012 NOSIG
2026-04-02 01:00:00,METAR WSSS 020100Z 34004KT 9999 FEW018TCU BKN300 29/24 Q1011 NOSIG
2026-04-02 00:30:00,METAR WSSS 020030Z 32003KT 9999 FEW018TCU BKN300 28/25 Q1011 NOSIG
2026-04-02 00:00:00,METAR WSSS 020000Z 35004KT 9999 FEW018TCU BKN300 27/25 Q1010 NOSIG
2026-04-01 23:30:00,METAR WSSS 012330Z VRB02KT 9999 FEW018TCU SCT040 BKN300 26/24 Q1010 NOSIG
2026-04-01 23:00:00,METAR WSSS 012300Z 31002KT 9999 FEW018 SCT040 BKN300 26/24 Q1010 NOSIG
2026-04-01 22:30:00,METAR WSSS 012230Z VRB02KT 9999 FEW018 SCT050 BKN300 26/24 Q1010 NOSIG
2026-04-01 22:00:00,METAR WSSS 012200Z 36003KT 9999 FEW018 BKN300 26/24 Q1010 NOSIG
2026-04-01 21:30:00,METAR WSSS 012130Z 36002KT 9999 FEW018 BKN300 26/24 Q1010 NOSIG
2026-04-01 21:00:00,METAR WSSS 012100Z 36001KT 9999 FEW018 BKN300 26/24 Q1010 NOSIG
2026-04-01 20:30:00,METAR WSSS 012030Z VRB02KT 9999 FEW018 SCT030 BKN300 26/24 Q1010 NOSIG
2026-04-01 20:00:00,METAR WSSS 012000Z 34002KT 9999 FEW018 BKN300 26/24 Q1010 NOSIG
2026-04-01 19:30:00,METAR WSSS 011930Z 32002KT 9999 FEW018 BKN300 26/24 Q1010 NOSIG
2026-04-01 19:00:00,METAR WSSS 011900Z 35003KT 9999 FEW018 SCT030 BKN300 26/24 Q1010 NOSIG
2026-04-01 18:30:00,METAR WSSS 011830Z 32003KT 9999 FEW018 SCT030 BKN300 27/24 Q1011 NOSIG
2026-04-01 18:00:00,METAR WSSS 011800Z 32002KT 9999 FEW018 BKN300 27/24 Q1011 NOSIG
2026-04-01 17:30:00,METAR WSSS 011730Z VRB02KT 9999 FEW018 BKN300 27/24 Q1011 NOSIG
2026-04-01 17:00:00,METAR WSSS 011700Z 33003KT 300V020 9999 FEW018 BKN300 27/24 Q1011 NOSIG
2026-04-01 16:30:00,METAR WSSS 011630Z 34003KT 9999 FEW018 FEW020CB BKN300 27/24 Q1012 NOSIG
2026-04-01 16:00:00,METAR WSSS 011600Z 35004KT 320V050 9999 FEW018 FEW020CB BKN300 27/24 Q1012 NOSIG
2026-04-01 15:30:00,METAR WSSS 011530Z 34004KT 9999 FEW018 FEW020CB BKN300 27/24 Q1012 NOSIG
2026-04-01 15:00:00,METAR WSSS 011500Z 34005KT 9999 FEW018 FEW020CB BKN300 27/24 Q1012 NOSIG
2026-04-01 14:30:00,METAR WSSS 011430Z 33003KT 290V030 9999 FEW018 BKN300 27/23 Q1011 NOSIG
2026-04-01 14:00:00,METAR WSSS 011400Z 35005KT 9999 FEW018 BKN300 27/23 Q1011 NOSIG
2026-04-01 13:30:00,METAR WSSS 011330Z 36005KT 320V030 9999 FEW018 BKN300 27/23 Q1010 NOSIG
2026-04-01 13:00:00,METAR WSSS 011300Z 01006KT 340V050 9999 FEW018 BKN300 27/23 Q1010 NOSIG
2026-04-01 12:30:00,METAR WSSS 011230Z 01007KT 350V050 9999 FEW018 BKN300 28/23 Q1009 NOSIG
2026-04-01 12:00:00,METAR WSSS 011200Z 03007KT 010V070 9999 FEW020 BKN300 29/23 Q1009 NOSIG
2026-04-01 11:30:00,METAR WSSS 011130Z 03008KT 360V060 9999 FEW020 BKN300 29/22 Q1008 NOSIG
2026-04-01 11:00:00,METAR WSSS 011100Z 04010KT 9999 FEW020 BKN300 30/22 Q1008 NOSIG
2026-04-01 10:30:00,METAR WSSS 011030Z 03010KT 9999 FEW020CB BKN300 30/22 Q1007 NOSIG
2026-04-01 10:00:00,METAR WSSS 011000Z 03010KT 9999 FEW020CB BKN300 31/23 Q1007 NOSIG
2026-04-01 09:30:00,METAR WSSS 010930Z 03011KT 360V060 9999 FEW020 BKN300 32/24 Q1007 NOSIG
2026-04-01 09:00:00,METAR WSSS 010900Z 03011KT 350V050 9999 FEW020TCU BKN300 33/23 Q1007 NOSIG
2026-04-01 08:30:00,METAR WSSS 010830Z 04011KT 010V070 9999 FEW020TCU BKN300 34/23 Q1007 NOSIG
2026-04-01 08:00:00,METAR WSSS 010800Z 01010KT 330V070 9999 FEW020TCU BKN300 34/23 Q1007 NOSIG
2026-04-01 07:30:00,METAR WSSS 010730Z 09009KT 030V140 9999 FEW020TCU BKN300 32/25 Q1007 NOSIG
2026-04-01 07:00:00,METAR WSSS 010700Z 10011G21KT 060V120 9999 FEW020TCU BKN300 31/25 Q1008 NOSIG
2026-04-01 06:30:00,METAR WSSS 010630Z 10008KT 060V130 9999 FEW020 BKN300 31/25 Q1009 NOSIG
2026-04-01 06:00:00,METAR WSSS 010600Z 10009KT 040V150 9999 SCT020 BKN300 31/24 Q1009 NOSIG
2026-04-01 05:30:00,METAR WSSS 010530Z 09010KT 050V130 9999 SCT020 BKN300 32/25 Q1010 NOSIG
2026-04-01 05:00:00,METAR WSSS 010500Z 10008KT 060V160 9999 SCT020 BKN300 31/24 Q1010 NOSIG
2026-04-01 04:30:00,METAR WSSS 010430Z 09005KT 040V170 9999 SCT020 BKN300 31/24 Q1011 NOSIG
2026-04-01 04:00:00,METAR WSSS 010400Z 36004KT 310V060 9999 SCT020 BKN300 31/25 Q1011 NOSIG
2026-04-01 03:30:00,METAR WSSS 010330Z 35005KT 310V040 9999 SCT020 BKN300 31/25 Q1012 NOSIG
2026-04-01 03:00:00,METAR WSSS 010300Z 02005KT 320V070 9999 FEW020 BKN300 31/25 Q1012 NOSIG
2026-04-01 02:30:00,METAR WSSS 010230Z 36006KT 330V040 9999 FEW018 FEW020TCU BKN300 30/24 Q1012 NOSIG
2026-04-01 02:00:00,METAR WSSS 010200Z 36006KT 320V070 9999 FEW018 FEW020TCU BKN300 30/25 Q1012 NOSIG
2026-04-01 01:30:00,METAR WSSS 010130Z 35006KT 9999 FEW018 FEW020TCU BKN300 30/25 Q1011 NOSIG
2026-04-01 01:00:00,METAR WSSS 010100Z 01007KT 340V040 9999 FEW018 BKN300 29/25 Q1011 NOSIG
2026-04-01 00:30:00,METAR WSSS 010030Z 34005KT 9999 FEW018 FEW020TCU BKN300 28/25 Q1010 NOSIG
2026-04-01 00:00:00,METAR WSSS 010000Z 34004KT 9999 FEW018 FEW020TCU BKN300 27/25 Q1010 NOSIG
2026-03-31 23:30:00,METAR WSSS 312330Z 34004KT 9999 FEW018 FEW020TCU BKN300 26/24 Q1010 NOSIG
2026-03-31 23:00:00,METAR WSSS 312300Z 34004KT 9999 FEW018 FEW020TCU BKN300 26/24 Q1009 NOSIG
2026-03-31 22:30:00,METAR WSSS 312230Z 34005KT 9999 FEW018 BKN300 26/24 Q1009 NOSIG
2026-03-31 22:00:00,METAR WSSS 312200Z 33003KT 290V360 9999 FEW018 BKN300 26/25 Q1009 NOSIG
2026-03-31 21:30:00,METAR WSSS 312130Z 34003KT 9999 SCT018 SCT160 26/25 Q1009 NOSIG
2026-03-31 21:00:00,METAR WSSS 312100Z 01003KT 340V060 9999 SCT018 SCT160 27/25 Q1009 NOSIG
2026-03-31 20:30:00,METAR WSSS 312030Z 35003KT 310V040 9999 SCT018 BKN300 26/24 Q1009 NOSIG
2026-03-31 20:00:00,METAR WSSS 312000Z 03004KT 340V050 9000 FEW016 SCT160 BKN300 27/25 Q1009 NOSIG
2026-03-31 19:30:00,METAR WSSS 311930Z 04006KT 8000 FEW016 BKN300 27/25 Q1009 NOSIG
2026-03-31 19:00:00,METAR WSSS 311900Z 03007KT 8000 FEW016 BKN300 27/24 Q1009 NOSIG
2026-03-31 18:30:00,METAR WSSS 311830Z 03007KT 010V070 9999 FEW018 SCT160 BKN300 28/24 Q1009 NOSIG
2026-03-31 18:00:00,METAR WSSS 311800Z 03008KT 9999 FEW018 SCT160 BKN300 28/24 Q1010 NOSIG
2026-03-31 17:30:00,METAR WSSS 311730Z 05005KT 360V110 9999 FEW018 BKN160 28/24 Q1010 NOSIG
2026-03-31 17:00:00,METAR WSSS 311700Z 08004KT 360V120 9999 FEW018 BKN160 28/25 Q1010 NOSIG
2026-03-31 16:30:00,METAR WSSS 311630Z 07005KT 040V110 9999 FEW018 BKN160 28/24 Q1011 NOSIG
2026-03-31 16:00:00,METAR WSSS 311600Z 05005KT 020V090 9999 FEW018 BKN160 28/24 Q1011 NOSIG
2026-03-31 15:30:00,METAR WSSS 311530Z 03006KT 9999 FEW018 BKN160 28/24 Q1011 NOSIG
2026-03-31 15:00:00,METAR WSSS 311500Z 04006KT 020V080 9999 FEW016 BKN160 28/25 Q1010 NOSIG
2026-03-31 14:30:00,METAR WSSS 311430Z 06007KT 020V100 9999 FEW016 SCT160 BKN300 28/25 Q1010 NOSIG
2026-03-31 14:00:00,METAR WSSS 311400Z 04007KT 9999 FEW016 SCT160 BKN300 28/25 Q1010 NOSIG
2026-03-31 13:30:00,METAR WSSS 311330Z 04006KT 010V080 9999 FEW016 BKN300 28/25 Q1009 NOSIG
2026-03-31 13:00:00,METAR WSSS 311300Z 04007KT 9999 FEW016 BKN300 28/25 Q1009 NOSIG
2026-03-31 12:30:00,METAR WSSS 311230Z 04007KT 010V070 9999 FEW016 SCT280 28/25 Q1009 NOSIG
2026-03-31 12:00:00,METAR WSSS 311200Z 02006KT 340V060 9999 FEW016 SCT280 28/25 Q1009 NOSIG
2026-03-31 11:30:00,METAR WSSS 311130Z 03007KT 9999 FEW016 BKN280 28/25 Q1008 NOSIG
2026-03-31 11:00:00,METAR WSSS 311100Z 05006KT 010V100 9999 FEW016 BKN280 28/25 Q1008 NOSIG
2026-03-31 10:30:00,METAR WSSS 311030Z 04007KT 360V080 9999 FEW016 SCT200 28/25 Q1007 NOSIG
2026-03-31 10:00:00,METAR WSSS 311000Z 04007KT 020V080 9999 FEW018 SCT200 28/24 Q1007 NOSIG
2026-03-31 09:30:00,METAR WSSS 310930Z 03006KT 350V070 9999 FEW018 SCT190 28/24 Q1007 NOSIG
2026-03-31 09:00:00,METAR WSSS 310900Z 04006KT 360V080 9999 FEW018 BKN180 28/24 Q1007 NOSIG
2026-03-31 08:30:00,METAR WSSS 310830Z 05005KT 020V100 9999 FEW018 BKN180 28/24 Q1008 NOSIG
2026-03-31 08:00:00,METAR WSSS 310800Z 04006KT 9999 FEW018 FEW020TCU BKN180 28/24 Q1008 NOSIG
2026-03-31 07:30:00,METAR WSSS 310730Z 03006KT 340V080 9999 FEW018TCU FEW020CB BKN180 28/24 Q1009 NOSIG
2026-03-31 07:00:00,METAR WSSS 310700Z 34004KT 300V010 9999 FEW018TCU FEW020CB SCT160 27/25 Q1009 RETS NOSIG
2026-03-31 06:30:00,METAR WSSS 310630Z 34003KT 310V040 9999 -TSRA FEW017CB FEW018TCU SCT050 BKN160 27/24 Q1010 BECMG TL0640 NSW
2026-03-31 06:00:00,METAR WSSS 310600Z 33003KT 9999 -TSRA FEW017CB FEW018TCU SCT050 BKN160 26/24 Q1010 BECMG TL0610 NSW
2026-03-31 05:36:00,SPECI WSSS 310536Z 33005KT 300V020 8000 -TSRA FEW016CB FEW017TCU SCT050 26/24 Q1011 BECMG FM0600 TL0610 NSW
2026-03-31 05:30:00,METAR WSSS 310530Z 03010KT 350V050 8000 -TSRA FEW016CB FEW017TCU SCT050 26/23 Q1011 RESHRA BECMG FM0600 TL0610 NSW
2026-03-31 05:00:00,METAR WSSS 310500Z VRB07KT 6000 TSRA FEW016CB FEW017TCU SCT040 28/24 Q1011 BECMG FM0540 TL0550 NSW
2026-03-31 04:30:00,METAR WSSS 310430Z 20008KT 180V240 9000 VCTS FEW017CB FEW018TCU SCT300 30/23 Q1011 TEMPO FM0445 4000 TSRA
2026-03-31 04:00:00,METAR WSSS 310400Z VRB03KT 9999 VCTS FEW017CB FEW018TCU BKN300 32/24 Q1011 TEMPO FM0520 4000 TSRA
2026-03-31 03:30:00,METAR WSSS 310330Z VRB04KT 9999 VCSH FEW018TCU FEW020CB BKN300 33/24 Q1012 NOSIG
2026-03-31 03:21:00,SPECI WSSS 310321Z VRB03KT 9999 FEW018TCU FEW020CB BKN300 33/24 Q1012 NOSIG
2026-03-31 03:00:00,METAR WSSS 310300Z 02005KT 340V070 9999 FEW018TCU BKN300 31/25 Q1012 NOSIG
2026-03-31 02:30:00,METAR WSSS 310230Z 36004KT 300V050 9999 FEW018TCU SCT160 30/24 Q1012 NOSIG
2026-03-31 02:00:00,METAR WSSS 310200Z 36005KT 320V050 9999 FEW018TCU BKN160 30/25 Q1012 NOSIG
2026-03-31 01:30:00,METAR WSSS 310130Z 35005KT 320V050 8000 FEW018TCU BKN160 30/25 Q1012 NOSIG
2026-03-31 01:00:00,METAR WSSS 310100Z 32004KT 280V360 8000 FEW018TCU SCT160 BKN300 29/25 Q1011 NOSIG
2026-03-31 00:30:00,METAR WSSS 310030Z 32003KT 8000 FEW016 FEW018TCU SCT160 BKN300 28/25 Q1011 NOSIG
2026-03-31 00:00:00,METAR WSSS 310000Z 33003KT 6000 FEW016 FEW018TCU SCT160 BKN300 27/24 Q1010 NOSIG
2026-03-30 23:30:00,METAR WSSS 302330Z 34003KT 6000 FEW016 FEW018TCU SCT160 27/24 Q1010 NOSIG
2026-03-30 23:00:00,METAR WSSS 302300Z 33003KT 6000 FEW016 BKN160 26/25 Q1010 NOSIG
2026-03-30 22:30:00,METAR WSSS 302230Z 33003KT 300V060 9000 FEW016 BKN170 27/25 Q1010 NOSIG
2026-03-30 22:00:00,METAR WSSS 302200Z 33003KT 9000 FEW016 BKN170 27/25 Q1010 NOSIG
2026-03-30 21:30:00,METAR WSSS 302130Z VRB02KT 9000 FEW016 BKN160 26/25 Q1010 NOSIG
2026-03-30 21:00:00,METAR WSSS 302100Z 36004KT 9000 FEW016 SCT160 BKN300 26/25 Q1009 NOSIG
2026-03-30 20:30:00,METAR WSSS 302030Z 01003KT 330V060 8000 FEW016 BKN300 27/25 Q1010 NOSIG
2026-03-30 20:00:00,METAR WSSS 302000Z 02003KT 340V070 9999 FEW018 BKN300 27/25 Q1010 NOSIG
2026-03-30 19:30:00,METAR WSSS 301930Z 04005KT 9999 FEW018 BKN300 27/25 Q1010 NOSIG
2026-03-30 19:00:00,METAR WSSS 301900Z 35003KT 320V020 9999 FEW018 BKN300 27/25 Q1010 NOSIG
2026-03-30 18:30:00,METAR WSSS 301830Z 36004KT 9999 FEW016 BKN300 27/25 Q1011 NOSIG
2026-03-30 18:00:00,METAR WSSS 301800Z 35004KT 9000 FEW016 BKN300 27/25 Q1011 NOSIG
2026-03-30 17:30:00,METAR WSSS 301730Z 35005KT 9000 FEW016 BKN300 27/25 Q1011 NOSIG
2026-03-30 17:00:00,METAR WSSS 301700Z 33004KT 9000 FEW016 BKN300 27/24 Q1012 NOSIG
2026-03-30 16:30:00,METAR WSSS 301630Z 36005KT 330V040 9000 FEW016 BKN300 27/25 Q1012 NOSIG
2026-03-30 16:00:00,METAR WSSS 301600Z 02005KT 350V060 9000 FEW016 BKN300 28/24 Q1012 NOSIG
2026-03-30 15:30:00,METAR WSSS 301530Z 03007KT 360V070 9000 FEW016 SCT160 BKN300 28/24 Q1012 NOSIG
2026-03-30 15:00:00,METAR WSSS 301500Z 03007KT 010V070 9000 FEW016 SCT160 BKN300 28/24 Q1012 NOSIG
2026-03-30 14:30:00,METAR WSSS 301430Z 03003KT 340V100 9000 FEW016 BKN160 28/25 Q1012 NOSIG
2026-03-30 14:00:00,METAR WSSS 301400Z 34003KT 310V010 9000 FEW016 BKN300 27/24 Q1011 NOSIG
2026-03-30 13:30:00,METAR WSSS 301330Z 34003KT 310V010 9000 FEW016 BKN300 27/24 Q1010 NOSIG
2026-03-30 13:00:00,METAR WSSS 301300Z 03006KT 350V060 9000 FEW018 BKN300 28/24 Q1010 NOSIG
2026-03-30 12:30:00,METAR WSSS 301230Z 02006KT 350V050 9999 FEW018 SCT170 BKN300 28/24 Q1010 NOSIG
2026-03-30 12:00:00,METAR WSSS 301200Z 03009KT 9999 FEW018 BKN300 28/24 Q1009 NOSIG
2026-03-30 11:30:00,METAR WSSS 301130Z 03008KT 360V070 9999 FEW018 BKN300 29/24 Q1009 NOSIG
2026-03-30 11:00:00,METAR WSSS 301100Z 02008KT 9999 FEW018 BKN300 29/24 Q1008 NOSIG
2026-03-30 10:30:00,METAR WSSS 301030Z 04007KT 9999 FEW018 FEW020TCU BKN300 29/24 Q1008 NOSIG
2026-03-30 10:00:00,METAR WSSS 301000Z 04008KT 010V090 9999 FEW020TCU SCT280 30/24 Q1008 NOSIG
2026-03-30 09:30:00,METAR WSSS 300930Z 05010KT 9999 FEW018CB FEW020TCU SCT280 30/23 Q1007 NOSIG
2026-03-30 09:00:00,METAR WSSS 300900Z 05010KT 360V080 9999 FEW018CB FEW020TCU SCT280 31/23 Q1007 NOSIG
2026-03-30 08:30:00,METAR WSSS 300830Z 05011KT 020V080 9000 FEW018TCU FEW020CB SCT280 32/23 Q1007 NOSIG
2026-03-30 08:00:00,METAR WSSS 300800Z 09014KT 020V110 9000 FEW018TCU FEW020CB SCT270 32/24 Q1007 NOSIG
2026-03-30 07:30:00,METAR WSSS 300730Z 10014KT 060V120 8000 FEW018TCU FEW020CB SCT270 32/24 Q1008 NOSIG
2026-03-30 07:00:00,METAR WSSS 300700Z 10013KT 040V130 7000 FEW018TCU BKN300 33/24 Q1008 NOSIG
2026-03-30 06:30:00,METAR WSSS 300630Z VRB07KT 9999 FEW018TCU FEW020CB BKN300 33/24 Q1008 NOSIG
2026-03-30 06:00:00,METAR WSSS 300600Z 09008KT 050V130 9000 FEW018TCU FEW020CB BKN300 33/24 Q1009 NOSIG
2026-03-30 05:30:00,METAR WSSS 300530Z 08007KT 040V130 9000 FEW018TCU FEW020CB BKN300 33/25 Q1009 NOSIG
2026-03-30 05:00:00,METAR WSSS 300500Z 08006KT 010V150 9999 FEW020TCU BKN300 32/24 Q1010 NOSIG
2026-03-30 04:30:00,METAR WSSS 300430Z 02006KT 330V080 9999 FEW020TCU BKN300 32/23 Q1011 NOSIG
2026-03-30 04:00:00,METAR WSSS 300400Z 34005KT 220V030 9999 FEW020 BKN300 32/24 Q1011 NOSIG
2026-03-30 03:30:00,METAR WSSS 300330Z 01006KT 320V090 9999 FEW018 BKN300 31/24 Q1011 NOSIG
2026-03-30 03:00:00,METAR WSSS 300300Z 01006KT 340V040 9999 FEW018 BKN300 30/24 Q1011 NOSIG
2026-03-30 02:30:00,METAR WSSS 300230Z 36007KT 310V040 9000 FEW016 BKN300 30/24 Q1011 NOSIG
2026-03-30 02:00:00,METAR WSSS 300200Z 02007KT 8000 FEW016 BKN300 29/25 Q1011 NOSIG
2026-03-30 01:30:00,METAR WSSS 300130Z 36007KT 6000 FEW016 BKN300 29/24 Q1010 NOSIG
2026-03-30 01:00:00,METAR WSSS 300100Z 01006KT 6000 FEW018 BKN300 28/25 Q1010 NOSIG
2026-03-30 00:30:00,METAR WSSS 300030Z 35005KT 6000 FEW018 BKN300 28/25 Q1010 NOSIG
2026-03-30 00:00:00,METAR WSSS 300000Z 34004KT 7000 FEW018 BKN300 27/24 Q1010 NOSIG
2026-03-29 23:30:00,METAR WSSS 292330Z 34004KT 7000 FEW018 BKN300 26/24 Q1009 NOSIG
2026-03-29 23:00:00,METAR WSSS 292300Z 34002KT 7000 FEW018 BKN300 25/24 Q1009 NOSIG
2026-03-29 22:30:00,METAR WSSS 292230Z 33003KT 9999 FEW018 BKN300 26/23 Q1009 NOSIG
2026-03-29 22:00:00,METAR WSSS 292200Z 34003KT 9999 FEW018 BKN300 26/24 Q1008 NOSIG
2026-03-29 21:30:00,METAR WSSS 292130Z 35003KT 9999 FEW018 BKN300 26/24 Q1008 NOSIG
2026-03-29 21:00:00,METAR WSSS 292100Z 35004KT 9999 FEW018 BKN300 26/24 Q1008 NOSIG
2026-03-29 20:30:00,METAR WSSS 292030Z 35003KT 9999 FEW018 BKN300 26/24 Q1009 NOSIG
2026-03-29 20:00:00,METAR WSSS 292000Z 34004KT 9999 FEW018 BKN300 26/24 Q1009 NOSIG
2026-03-29 19:30:00,METAR WSSS 291930Z 34003KT 9999 FEW018 BKN300 26/24 Q1009 NOSIG
2026-03-29 19:00:00,METAR WSSS 291900Z 35004KT 9999 FEW018 BKN300 26/23 Q1009 NOSIG
2026-03-29 18:30:00,METAR WSSS 291830Z 35004KT 9999 FEW018 BKN300 26/24 Q1009 NOSIG
2026-03-29 18:00:00,METAR WSSS 291800Z 34004KT 9999 FEW018 BKN300 27/24 Q1010 NOSIG
2026-03-29 17:30:00,METAR WSSS 291730Z 36005KT 330V030 9999 FEW018 BKN300 27/24 Q1010 NOSIG
2026-03-29 17:00:00,METAR WSSS 291700Z 35005KT 320V030 9999 FEW018 BKN300 27/24 Q1011 NOSIG
2026-03-29 16:30:00,METAR WSSS 291630Z 35005KT 9999 FEW018 BKN300 27/24 Q1011 NOSIG
2026-03-29 16:00:00,METAR WSSS 291600Z 34005KT 9999 FEW018 BKN300 27/24 Q1011 NOSIG
2026-03-29 15:30:00,METAR WSSS 291530Z 35004KT 9999 FEW018 BKN300 27/24 Q1011 NOSIG
2026-03-29 15:00:00,METAR WSSS 291500Z 36005KT 9999 FEW018 BKN300 27/24 Q1011 NOSIG
2026-03-29 14:30:00,METAR WSSS 291430Z 35005KT 9999 FEW018 BKN300 27/24 Q1010 NOSIG
2026-03-29 14:00:00,METAR WSSS 291400Z 35005KT 9999 FEW018 BKN300 27/24 Q1010 NOSIG
2026-03-29 13:30:00,METAR WSSS 291330Z 35006KT 9999 FEW018 BKN300 27/24 Q1009 NOSIG
2026-03-29 13:00:00,METAR WSSS 291300Z 34006KT 9999 FEW018 BKN300 27/24 Q1009 NOSIG
2026-03-29 12:30:00,METAR WSSS 291230Z 01008KT 9999 FEW018 BKN300 27/24 Q1009 NOSIG
2026-03-29 12:00:00,METAR WSSS 291200Z 01009KT 9000 FEW018 BKN300 28/24 Q1008 NOSIG
2026-03-29 11:30:00,METAR WSSS 291130Z 01011KT 7000 FEW018 BKN300 28/23 Q1008 NOSIG
2026-03-29 11:00:00,METAR WSSS 291100Z 02010KT 7000 FEW020 BKN300 29/24 Q1007 NOSIG
2026-03-29 10:30:00,METAR WSSS 291030Z 02009KT 350V050 7000 FEW020 BKN300 29/24 Q1007 NOSIG
2026-03-29 10:00:00,METAR WSSS 291000Z 01010KT 340V040 7000 FEW018 FEW020TCU BKN300 30/24 Q1007 NOSIG
2026-03-29 09:30:00,METAR WSSS 290930Z 36009KT 8000 FEW018 FEW020TCU SCT280 30/24 Q1007 NOSIG
2026-03-29 09:00:00,METAR WSSS 290900Z 35007KT 8000 FEW018CB FEW020TCU BKN280 30/24 Q1007 NOSIG
2026-03-29 08:30:00,METAR WSSS 290830Z 01010KT 8000 FEW018CB FEW020TCU BKN280 31/24 Q1007 NOSIG
2026-03-29 08:00:00,METAR WSSS 290800Z 02010KT 340V070 8000 FEW018CB FEW020TCU BKN280 31/24 Q1007 NOSIG
2026-03-29 07:30:00,METAR WSSS 290730Z 01010KT 8000 FEW016 FEW018CB FEW020TCU BKN280 30/24 Q1007 NOSIG
2026-03-29 07:00:00,METAR WSSS 290700Z 04009KT 360V080 8000 FEW016 FEW018CB FEW020TCU BKN280 31/23 Q1008 NOSIG
2026-03-29 06:30:00,METAR WSSS 290630Z 04007KT 010V070 8000 FEW018 FEW020TCU BKN280 31/24 Q1008 NOSIG
2026-03-29 06:00:00,METAR WSSS 290600Z 04008KT 9000 FEW018 FEW020TCU BKN280 30/24 Q1009 NOSIG
2026-03-29 05:30:00,METAR WSSS 290530Z 04008KT 350V070 8000 FEW016 FEW018CB SCT020TCU 31/24 Q1010 NOSIG
2026-03-29 05:00:00,METAR WSSS 290500Z 01006KT 320V060 8000 FEW016 FEW018CB FEW020TCU SCT280 31/24 Q1010 NOSIG
2026-03-29 04:30:00,METAR WSSS 290430Z 33005KT 270V360 7000 FEW018 FEW020TCU SCT160 BKN280 31/24 Q1010 NOSIG
2026-03-29 04:00:00,METAR WSSS 290400Z 01005KT 320V070 8000 FEW018 FEW020TCU SCT160 BKN280 30/24 Q1011 NOSIG
2026-03-29 03:30:00,METAR WSSS 290330Z 35006KT 290V060 8000 FEW018 FEW020TCU SCT170 BKN280 30/24 Q1011 NOSIG
2026-03-29 03:00:00,METAR WSSS 290300Z 35006KT 300V050 8000 FEW018 BKN280 30/24 Q1011 NOSIG
2026-03-29 02:30:00,METAR WSSS 290230Z 35007KT 330V030 9999 FEW018 SCT280 BKN300 29/24 Q1011 NOSIG
2026-03-29 02:00:00,METAR WSSS 290200Z 36008KT 6000 FEW018 SCT160 BKN300 29/24 Q1010 NOSIG
2026-03-29 01:30:00,METAR WSSS 290130Z 36008KT 6000 FEW018 BKN300 29/24 Q1010 NOSIG
2026-03-29 01:00:00,METAR WSSS 290100Z 36007KT 340V040 9000 FEW018 BKN300 29/24 Q1010 NOSIG
2026-03-29 00:30:00,METAR WSSS 290030Z 35006KT 9000 FEW018 BKN300 28/24 Q1009 NOSIG
2026-03-29 00:00:00,METAR WSSS 290000Z 34004KT 310V010 9999 FEW018 BKN300 27/24 Q1009 NOSIG
2026-03-28 23:30:00,METAR WSSS 282330Z 33003KT 9999 FEW018 BKN300 26/24 Q1008 NOSIG
2026-03-28 23:00:00,METAR WSSS 282300Z 35004KT 320V050 9999 FEW018 BKN300 26/23 Q1008 NOSIG
2026-03-28 22:30:00,METAR WSSS 282230Z 04007KT 010V070 9999 FEW018 SCT150 BKN300 27/24 Q1008 NOSIG
2026-03-28 22:00:00,METAR WSSS 282200Z 03007KT 9999 FEW018 SCT050 BKN300 27/23 Q1007 NOSIG
2026-03-28 21:30:00,METAR WSSS 282130Z 04006KT 9999 FEW018 SCT050 BKN300 27/23 Q1008 NOSIG
2026-03-28 21:00:00,METAR WSSS 282100Z 03006KT 9999 FEW018 SCT050 BKN300 27/23 Q1008 NOSIG
2026-03-28 20:30:00,METAR WSSS 282030Z 01004KT 340V070 9999 FEW018 SCT050 BKN300 26/23 Q1008 NOSIG
2026-03-28 20:00:00,METAR WSSS 282000Z 04005KT 9999 FEW018 SCT050 BKN300 27/23 Q1008 NOSIG
2026-03-28 19:30:00,METAR WSSS 281930Z 35003KT 9999 FEW018 BKN300 25/23 Q1008 NOSIG
2026-03-28 19:00:00,METAR WSSS 281900Z 01004KT 340V050 9999 FEW018 BKN300 26/23 Q1008 NOSIG
2026-03-28 18:30:00,METAR WSSS 281830Z 04005KT 9999 FEW018 BKN300 27/23 Q1008 NOSIG
2026-03-28 18:00:00,METAR WSSS 281800Z 02007KT 9999 FEW018 BKN300 27/23 Q1009 NOSIG
2026-03-28 17:30:00,METAR WSSS 281730Z 36006KT 9999 FEW018 BKN300 26/23 Q1009 NOSIG
2026-03-28 17:00:00,METAR WSSS 281700Z 35005KT 9999 FEW018 BKN300 26/23 Q1009 NOSIG
2026-03-28 16:30:00,METAR WSSS 281630Z 35005KT 9999 FEW018 BKN300 26/22 Q1009 NOSIG
2026-03-28 16:00:00,METAR WSSS 281600Z 35006KT 9999 FEW018 BKN300 26/22 Q1010 NOSIG
2026-03-28 15:30:00,METAR WSSS 281530Z 36004KT 9999 FEW018 BKN300 26/22 Q1010 NOSIG
2026-03-28 15:00:00,METAR WSSS 281500Z 35007KT 9999 FEW018 BKN300 26/22 Q1009 NOSIG
2026-03-28 14:30:00,METAR WSSS 281430Z 36006KT 9999 FEW020 BKN300 26/23 Q1009 NOSIG
2026-03-28 14:00:00,METAR WSSS 281400Z 01007KT 340V050 9999 FEW020 BKN300 27/23 Q1008 NOSIG
2026-03-28 13:30:00,METAR WSSS 281330Z 35006KT 9999 FEW020 BKN300 27/23 Q1008 NOSIG
2026-03-28 13:00:00,METAR WSSS 281300Z 01008KT 350V050 9999 FEW020 BKN300 27/23 Q1007 NOSIG
2026-03-28 12:30:00,METAR WSSS 281230Z 02010KT 360V060 9999 FEW020 BKN300 27/23 Q1007 NOSIG
2026-03-28 12:00:00,METAR WSSS 281200Z 02011KT 9999 FEW020 BKN300 28/23 Q1007 NOSIG
2026-03-28 11:30:00,METAR WSSS 281130Z 02013KT 9999 FEW020 BKN300 28/22 Q1007 NOSIG
2026-03-28 11:00:00,METAR WSSS 281100Z 01011KT 9999 FEW020 BKN300 28/22 Q1006 NOSIG
2026-03-28 10:30:00,METAR WSSS 281030Z 02011KT 9999 FEW020 BKN300 29/22 Q1006 NOSIG
2026-03-28 10:00:00,METAR WSSS 281000Z 03012KT 360V060 9999 FEW020 BKN300 29/22 Q1006 NOSIG
2026-03-28 09:30:00,METAR WSSS 280930Z 03012KT 360V060 9999 FEW020 BKN300 30/22 Q1006 NOSIG
2026-03-28 09:00:00,METAR WSSS 280900Z 03011KT 360V070 9999 FEW020 SCT060 BKN300 30/23 Q1006 NOSIG
2026-03-28 08:30:00,METAR WSSS 280830Z 03011KT 360V060 9999 SCT020 BKN270 30/23 Q1007 NOSIG
2026-03-28 08:00:00,METAR WSSS 280800Z 03009KT 360V060 9999 SCT020 BKN270 30/23 Q1007 NOSIG
2026-03-28 07:30:00,METAR WSSS 280730Z 03011KT 360V060 9999 SCT020 BKN270 31/23 Q1007 NOSIG
2026-03-28 07:00:00,METAR WSSS 280700Z 03011KT 350V050 9999 SCT020 BKN270 30/23 Q1007 NOSIG
2026-03-28 06:30:00,METAR WSSS 280630Z 02012KT 350V050 9999 SCT020 BKN270 31/23 Q1008 NOSIG
2026-03-28 06:00:00,METAR WSSS 280600Z 35008KT 320V020 9999 SCT020 SCT280 30/23 Q1008 NOSIG
2026-03-28 05:30:00,METAR WSSS 280530Z 01009KT 330V070 9999 SCT020 BKN300 32/23 Q1009 NOSIG
2026-03-28 05:00:00,METAR WSSS 280500Z 36010KT 9999 SCT020 BKN300 31/23 Q1009 NOSIG
2026-03-28 04:30:00,METAR WSSS 280430Z 01010KT 320V050 9999 SCT020 BKN300 30/22 Q1010 NOSIG
2026-03-28 04:00:00,METAR WSSS 280400Z 03010KT 340V050 9999 SCT020 BKN300 31/22 Q1010 NOSIG
2026-03-28 03:30:00,METAR WSSS 280330Z 02011KT 340V050 9999 SCT020 BKN300 30/23 Q1010 NOSIG
2026-03-28 03:00:00,METAR WSSS 280300Z 01012KT 9999 FEW018 BKN300 30/22 Q1010 NOSIG
2026-03-28 02:30:00,METAR WSSS 280230Z 02012KT 9999 SCT018 BKN300 30/23 Q1010 NOSIG
2026-03-28 02:00:00,METAR WSSS 280200Z 02012KT 9999 FEW018 BKN300 30/23 Q1010 NOSIG
2026-03-28 01:30:00,METAR WSSS 280130Z 36011KT 340V040 9999 FEW018 BKN300 29/23 Q1009 NOSIG
2026-03-28 01:00:00,METAR WSSS 280100Z 35009KT 9999 FEW018 BKN300 29/23 Q1009 NOSIG
2026-03-28 00:30:00,METAR WSSS 280030Z 36006KT 9999 FEW018 BKN300 27/23 Q1009 NOSIG
2026-03-28 00:00:00,METAR WSSS 280000Z 35005KT 9999 FEW018 BKN300 26/23 Q1008 NOSIG
2026-03-27 23:30:00,METAR WSSS 272330Z 34004KT 9999 FEW018 BKN300 26/23 Q1008 NOSIG
2026-03-27 23:00:00,METAR WSSS 272300Z 34004KT 300V010 9999 FEW018 BKN300 26/23 Q1008 NOSIG
2026-03-27 22:30:00,METAR WSSS 272230Z 35004KT 9999 FEW018 BKN300 25/23 Q1007 NOSIG
2026-03-27 22:00:00,METAR WSSS 272200Z 34005KT 9999 FEW018 BKN300 26/23 Q1007 NOSIG
2026-03-27 21:30:00,METAR WSSS 272130Z 36005KT 9999 FEW018 BKN300 26/23 Q1007 NOSIG
2026-03-27 21:00:00,METAR WSSS 272100Z 01007KT 9999 FEW018 BKN300 26/23 Q1007 NOSIG
2026-03-27 20:30:00,METAR WSSS 272030Z 35006KT 9999 FEW020 BKN300 26/23 Q1007 NOSIG
2026-03-27 20:00:00,METAR WSSS 272000Z 35005KT 9999 FEW020 BKN300 26/23 Q1007 NOSIG
2026-03-27 19:30:00,METAR WSSS 271930Z 02008KT 9999 FEW018 BKN300 27/23 Q1007 NOSIG
2026-03-27 19:00:00,METAR WSSS 271900Z 36008KT 9999 FEW018 BKN300 26/23 Q1007 NOSIG
2026-03-27 18:30:00,METAR WSSS 271830Z 03007KT 9999 FEW018 BKN300 27/23 Q1007 NOSIG
2026-03-27 18:00:00,METAR WSSS 271800Z 03008KT 9999 FEW018 BKN300 27/23 Q1008 NOSIG
2026-03-27 17:30:00,METAR WSSS 271730Z 03006KT 9999 FEW018 BKN300 27/23 Q1008 NOSIG
2026-03-27 17:00:00,METAR WSSS 271700Z 03008KT 010V070 9999 FEW018 BKN300 27/23 Q1009 NOSIG
2026-03-27 16:30:00,METAR WSSS 271630Z 01007KT 9999 FEW018 BKN300 27/23 Q1009 NOSIG
2026-03-27 16:00:00,METAR WSSS 271600Z 35005KT 9999 FEW018 BKN300 26/23 Q1010 NOSIG
2026-03-23 15:00:00,METAR WSSS 231500Z 35005KT 320V020 9999 FEW018 BKN300 26/23 Q1010 NOSIG
2026-03-23 14:30:00,METAR WSSS 231430Z 36007KT 9999 FEW020 BKN300 26/23 Q1010 NOSIG
2026-03-23 14:00:00,METAR WSSS 231400Z 36008KT 9999 FEW020 BKN300 26/23 Q1009 NOSIG
2026-03-23 13:30:00,METAR WSSS 231330Z 36008KT 9999 FEW020 BKN300 27/23 Q1009 NOSIG
2026-03-23 13:00:00,METAR WSSS 231300Z 35007KT 9999 FEW020 BKN300 27/23 Q1009 NOSIG
2026-03-23 12:30:00,METAR WSSS 231230Z 35009KT 9999 FEW020 BKN300 27/23 Q1009 NOSIG
2026-03-23 12:00:00,METAR WSSS 231200Z 36011KT 9999 FEW020 BKN300 27/23 Q1009 NOSIG
2026-03-23 11:30:00,METAR WSSS 231130Z 01012KT 9999 FEW020 BKN300 28/23 Q1008 NOSIG
2026-03-23 11:00:00,METAR WSSS 231100Z 36015KT 9999 FEW020 BKN300 29/22 Q1008 NOSIG
2026-03-23 10:30:00,METAR WSSS 231030Z 36013KT 9999 FEW020 BKN300 30/22 Q1007 NOSIG
2026-03-23 10:00:00,METAR WSSS 231000Z 36015KT 9999 FEW020 BKN300 30/22 Q1007 NOSIG
2026-03-23 09:30:00,METAR WSSS 230930Z 36015KT 9999 FEW020 BKN300 31/22 Q1007 NOSIG
2026-03-23 09:00:00,METAR WSSS 230900Z 01015KT 9999 FEW020 BKN300 31/22 Q1007 NOSIG
2026-03-23 08:30:00,METAR WSSS 230830Z 01014KT 9999 FEW022 BKN300 32/22 Q1007 NOSIG
2026-03-23 08:00:00,METAR WSSS 230800Z 36014KT 9999 FEW022 BKN300 32/21 Q1008 NOSIG
2026-03-23 07:30:00,METAR WSSS 230730Z 36014KT 9999 FEW022 BKN300 32/21 Q1008 NOSIG
2026-03-23 07:00:00,METAR WSSS 230700Z 01014KT 9999 FEW022 BKN300 33/21 Q1008 NOSIG
2026-03-23 06:30:00,METAR WSSS 230630Z 01014KT 9999 FEW022 BKN300 32/22 Q1009 NOSIG
2026-03-23 06:00:00,METAR WSSS 230600Z 02014KT 9999 FEW022 BKN300 32/21 Q1009 NOSIG
2026-03-23 05:30:00,METAR WSSS 230530Z 36013KT 9999 FEW020 BKN300 32/22 Q1010 NOSIG
2026-03-23 05:00:00,METAR WSSS 230500Z 36012KT 330V030 9999 FEW020 BKN300 32/22 Q1010 NOSIG
2026-03-23 04:30:00,METAR WSSS 230430Z 36014KT 9999 FEW020 BKN300 31/21 Q1011 NOSIG
2026-03-23 04:00:00,METAR WSSS 230400Z 36013KT 320V020 9999 FEW020 BKN300 31/22 Q1011 NOSIG
2026-03-23 03:30:00,METAR WSSS 230330Z 36012KT 9999 FEW018 BKN300 30/22 Q1011 NOSIG
2026-03-23 03:00:00,METAR WSSS 230300Z 36011KT 9999 FEW018 BKN300 30/23 Q1012 NOSIG
2026-03-23 02:30:00,METAR WSSS 230230Z 01013KT 9999 FEW018 BKN300 29/23 Q1012 NOSIG
2026-03-23 02:00:00,METAR WSSS 230200Z 36013KT 8000 FEW018 BKN300 29/23 Q1012 NOSIG
2026-03-23 01:30:00,METAR WSSS 230130Z 36011KT 6000 FEW018 BKN300 28/23 Q1011 NOSIG
2026-03-23 01:00:00,METAR WSSS 230100Z 01010KT 6000 FEW018 BKN300 27/23 Q1011 NOSIG
2026-03-23 00:30:00,METAR WSSS 230030Z 01010KT 6000 FEW018 BKN300 27/23 Q1011 NOSIG
2026-03-23 00:00:00,METAR WSSS 230000Z 01007KT 4500 HZ FEW018 BKN300 26/23 Q1011 BECMG FM0100 TL0130 6000 NSW
2026-03-22 23:30:00,METAR WSSS 222330Z 36005KT 330V030 5000 HZ FEW018 BKN300 25/22 Q1010 NOSIG
2026-03-22 23:00:00,METAR WSSS 222300Z 35006KT 5000 HZ FEW018 BKN300 25/22 Q1010 NOSIG
2026-03-22 22:30:00,METAR WSSS 222230Z 36007KT 7000 FEW018 BKN300 25/22 Q1010 NOSIG
2026-03-22 22:00:00,METAR WSSS 222200Z 35005KT 300V020 6000 FEW018 BKN300 25/22 Q1010 NOSIG
2026-03-22 21:30:00,METAR WSSS 222130Z 34005KT 5000 HZ FEW018 BKN300 25/22 Q1010 NOSIG
2026-03-22 21:00:00,METAR WSSS 222100Z 33005KT 5000 HZ FEW018 BKN300 25/22 Q1010 NOSIG
2026-03-22 20:30:00,METAR WSSS 222030Z 34007KT 6000 FEW018 BKN300 25/22 Q1009 NOSIG
2026-03-22 20:00:00,METAR WSSS 222000Z 34007KT 7000 FEW018 BKN300 25/22 Q1009 NOSIG
2026-03-22 19:30:00,METAR WSSS 221930Z 34005KT 7000 FEW018 BKN300 25/22 Q1009 NOSIG
2026-03-22 19:00:00,METAR WSSS 221900Z 34007KT 6000 FEW018 BKN300 25/22 Q1010 NOSIG
2026-03-22 18:30:00,METAR WSSS 221830Z 33005KT 7000 FEW018 BKN300 26/22 Q1010 NOSIG
2026-03-22 18:00:00,METAR WSSS 221800Z 33003KT 300V010 9999 FEW018 BKN300 25/22 Q1010 NOSIG
2026-03-22 17:30:00,METAR WSSS 221730Z 33006KT 9999 FEW018 BKN300 26/22 Q1011 NOSIG
2026-03-22 17:00:00,METAR WSSS 221700Z 33003KT 300V360 9999 FEW018 BKN300 25/22 Q1011 NOSIG
2026-03-22 16:30:00,METAR WSSS 221630Z 35006KT 9999 FEW018 BKN300 25/22 Q1011 NOSIG
2026-03-22 16:00:00,METAR WSSS 221600Z 35005KT 9999 FEW018 BKN300 26/22 Q1011 NOSIG
2026-03-22 15:30:00,METAR WSSS 221530Z 35006KT 320V020 9999 FEW018 BKN300 26/22 Q1011 NOSIG
2026-03-22 15:00:00,METAR WSSS 221500Z 35007KT 9999 FEW018 BKN300 26/22 Q1011 NOSIG
2026-03-22 14:30:00,METAR WSSS 221430Z 36009KT 9999 FEW018 BKN300 26/22 Q1011 NOSIG
2026-03-22 14:00:00,METAR WSSS 221400Z COR 36010KT 9999 FEW018 BKN300 26/22 Q1010 NOSIG
2026-03-22 13:30:00,METAR WSSS 221330Z 36010KT 9999 FEW018 BKN300 27/22 Q1010 NOSIG
2026-03-22 13:00:00,METAR WSSS 221300Z 36012KT 9999 FEW018 BKN300 26/22 Q1010 NOSIG
2026-03-22 12:30:00,METAR WSSS 221230Z 01012KT 9999 FEW018 BKN300 27/22 Q1010 NOSIG
2026-03-22 12:00:00,METAR WSSS 221200Z 01014KT 9999 FEW018 BKN300 27/21 Q1009 NOSIG
2026-03-22 11:30:00,METAR WSSS 221130Z 36014KT 9999 FEW018 BKN300 28/20 Q1009 NOSIG
2026-03-22 11:00:00,METAR WSSS 221100Z 01014KT 9999 FEW020 BKN300 29/20 Q1009 NOSIG
2026-03-22 10:30:00,METAR WSSS 221030Z 01014KT 9999 FEW023 BKN300 30/21 Q1009 NOSIG
2026-03-22 10:00:00,METAR WSSS 221000Z 01012KT 9999 FEW023 BKN300 30/21 Q1008 NOSIG
2026-03-22 09:30:00,METAR WSSS 220930Z 36012KT 9999 FEW023 BKN300 30/22 Q1008 NOSIG
2026-03-22 09:00:00,METAR WSSS 220900Z 36012KT 9999 FEW023 BKN300 31/22 Q1008 NOSIG
2026-03-22 08:30:00,METAR WSSS 220830Z 01014KT 9999 FEW023 BKN300 31/21 Q1009 NOSIG
2026-03-22 08:00:00,METAR WSSS 220800Z 01013KT 9999 FEW023 BKN300 32/22 Q1009 NOSIG
2026-03-22 07:30:00,METAR WSSS 220730Z 01013KT 9999 FEW022 BKN300 32/22 Q1010 NOSIG
2026-03-22 07:00:00,METAR WSSS 220700Z 01012KT 340V050 9999 SCT022 BKN300 32/22 Q1010 NOSIG
2026-03-22 06:30:00,METAR WSSS 220630Z 02012KT 350V050 9999 SCT022 BKN300 32/21 Q1010 NOSIG
2026-03-22 06:00:00,METAR WSSS 220600Z 01012KT 9999 SCT022 BKN300 31/21 Q1011 NOSIG
2026-03-22 05:30:00,METAR WSSS 220530Z 01011KT 340V040 9999 SCT022 BKN300 31/22 Q1011 NOSIG
2026-03-22 05:00:00,METAR WSSS 220500Z 01011KT 310V040 9999 SCT022 BKN300 31/21 Q1012 NOSIG
2026-03-22 04:30:00,METAR WSSS 220430Z 01012KT 330V040 9999 SCT022 BKN300 31/22 Q1012 NOSIG
2026-03-22 04:00:00,METAR WSSS 220400Z 36013KT 9999 SCT022 BKN300 31/21 Q1012 NOSIG
2026-03-22 03:30:00,METAR WSSS 220330Z 36014KT 330V030 9999 SCT020 BKN300 30/21 Q1012 NOSIG
2026-03-22 03:00:00,METAR WSSS 220300Z 36014KT 9999 SCT020 BKN300 30/21 Q1012 NOSIG
2026-03-22 02:30:00,METAR WSSS 220230Z 36017KT 9999 FEW020 BKN300 29/21 Q1012 NOSIG
2026-03-22 02:00:00,METAR WSSS 220200Z 01015KT 9999 FEW020 BKN300 29/21 Q1012 NOSIG
2026-03-22 01:30:00,METAR WSSS 220130Z 01009KT 340V040 9999 FEW018 BKN300 28/22 Q1012 NOSIG
2026-03-22 01:00:00,METAR WSSS 220100Z 02010KT 9999 FEW018 BKN300 27/22 Q1012 NOSIG
2026-03-22 00:30:00,METAR WSSS 220030Z 36008KT 9999 FEW018 BKN300 27/23 Q1011 NOSIG
2026-03-22 00:00:00,METAR WSSS 220000Z 34005KT 9999 FEW018 BKN300 26/23 Q1011 NOSIG
2026-03-21 23:30:00,METAR WSSS 212330Z 33005KT 9999 FEW018 BKN300 25/22 Q1011 NOSIG
2026-03-21 23:00:00,METAR WSSS 212300Z 34005KT 9999 FEW018 BKN300 25/22 Q1010 NOSIG
2026-03-21 22:30:00,METAR WSSS 212230Z 34006KT 9999 FEW018 BKN300 25/22 Q1010 NOSIG
2026-03-21 22:00:00,METAR WSSS 212200Z 34005KT 9999 FEW018 BKN300 25/22 Q1010 NOSIG
2026-03-21 21:30:00,METAR WSSS 212130Z 34003KT 9999 FEW018 BKN300 25/22 Q1010 NOSIG
2026-03-21 21:00:00,METAR WSSS 212100Z 35005KT 9999 FEW018 BKN300 25/22 Q1009 NOSIG
2026-03-21 20:30:00,METAR WSSS 212030Z 34006KT 9999 FEW018 BKN300 25/22 Q1009 NOSIG
2026-03-21 20:00:00,METAR WSSS 212000Z 34005KT 9999 FEW018 BKN300 25/22 Q1009 NOSIG
2026-03-21 19:30:00,METAR WSSS 211930Z 34005KT 9999 FEW018 BKN300 25/22 Q1010 NOSIG
2026-03-21 19:00:00,METAR WSSS 211900Z 34004KT 9999 FEW018 BKN300 25/22 Q1010 NOSIG
2026-03-21 18:30:00,METAR WSSS 211830Z 33004KT 9999 FEW018 BKN300 26/22 Q1010 NOSIG
2026-03-21 18:00:00,METAR WSSS 211800Z 34005KT 9999 FEW018 BKN300 25/22 Q1011 NOSIG
2026-03-21 17:30:00,METAR WSSS 211730Z 34005KT 9999 FEW018 BKN300 25/22 Q1011 NOSIG
2026-03-21 17:00:00,METAR WSSS 211700Z 35005KT 9999 FEW018 BKN300 25/22 Q1011 NOSIG
2026-03-21 16:30:00,METAR WSSS 211630Z 36007KT 9999 FEW018 BKN300 25/22 Q1011 NOSIG
2026-03-21 16:00:00,METAR WSSS 211600Z 34006KT 9999 FEW018 BKN300 26/22 Q1011 NOSIG
2026-03-21 15:30:00,METAR WSSS 211530Z 35005KT 9999 FEW018 BKN300 26/22 Q1011 NOSIG
2026-03-21 15:00:00,METAR WSSS 211500Z 35007KT 9999 FEW018 BKN300 26/23 Q1011 NOSIG
2026-03-21 14:30:00,METAR WSSS 211430Z 34007KT 9999 FEW018 BKN300 26/22 Q1011 NOSIG
2026-03-21 14:00:00,METAR WSSS 211400Z 34008KT 9999 FEW018 BKN300 27/22 Q1010 NOSIG
2026-03-21 13:30:00,METAR WSSS 211330Z 36012KT 9999 FEW018 BKN300 26/23 Q1010 NOSIG
2026-03-21 13:00:00,METAR WSSS 211300Z 36012KT 9999 FEW018 BKN300 27/23 Q1010 NOSIG
2026-03-21 12:30:00,METAR WSSS 211230Z 01014KT 9999 FEW018 BKN300 27/22 Q1009 NOSIG
2026-03-21 12:00:00,METAR WSSS 211200Z 02014KT 9999 FEW020 BKN300 28/22 Q1009 NOSIG
2026-03-21 11:30:00,METAR WSSS 211130Z 01015KT 9999 FEW020 BKN300 28/22 Q1008 NOSIG
2026-03-21 11:00:00,METAR WSSS 211100Z 01014KT 9999 FEW020 BKN300 29/22 Q1008 NOSIG
2026-03-21 10:30:00,METAR WSSS 211030Z 36013KT 9999 FEW022 BKN300 30/22 Q1008 NOSIG
2026-03-21 10:00:00,METAR WSSS 211000Z 01014KT 9999 FEW022 BKN300 31/22 Q1007 NOSIG
2026-03-21 09:30:00,METAR WSSS 210930Z 01013KT 9999 FEW022 BKN300 32/22 Q1007 NOSIG
2026-03-21 09:00:00,METAR WSSS 210900Z 01013KT 9999 FEW022 BKN300 32/23 Q1008 NOSIG
2026-03-21 08:30:00,METAR WSSS 210830Z 36013KT 340V040 9999 FEW022 BKN300 32/23 Q1008 NOSIG
2026-03-21 08:00:00,METAR WSSS 210800Z 01012KT 340V040 9999 FEW022 BKN300 32/23 Q1008 NOSIG
2026-03-21 07:30:00,METAR WSSS 210730Z 01012KT 340V040 9999 FEW022 BKN300 32/22 Q1009 NOSIG
2026-03-21 07:00:00,METAR WSSS 210700Z 01011KT 350V060 9999 FEW022 BKN300 32/22 Q1009 NOSIG
2026-03-21 06:30:00,METAR WSSS 210630Z 01012KT 350V050 9999 FEW022 BKN300 32/23 Q1010 NOSIG
2026-03-21 06:00:00,METAR WSSS 210600Z 01012KT 340V050 9999 FEW022 BKN300 33/23 Q1010 NOSIG
2026-03-21 05:30:00,METAR WSSS 210530Z 01011KT 350V060 9999 FEW022 BKN300 31/23 Q1011 NOSIG
2026-03-21 05:00:00,METAR WSSS 210500Z 36012KT 340V040 9999 FEW020 BKN300 32/23 Q1011 NOSIG
2026-03-21 04:30:00,METAR WSSS 210430Z 01012KT 330V040 9999 SCT020 BKN300 32/23 Q1012 NOSIG
2026-03-21 04:00:00,METAR WSSS 210400Z 35012KT 9999 SCT020 BKN300 30/23 Q1012 NOSIG
2026-03-21 03:30:00,METAR WSSS 210330Z 36012KT 9999 SCT020 SCT300 30/23 Q1013 NOSIG
2026-03-21 03:00:00,METAR WSSS 210300Z 36012KT 9999 SCT020 BKN300 30/23 Q1013 NOSIG
2026-03-21 02:30:00,METAR WSSS 210230Z 02013KT 330V030 9999 FEW018 BKN300 30/23 Q1013 NOSIG
2026-03-21 02:00:00,METAR WSSS 210200Z 36013KT 9999 FEW018 BKN300 30/23 Q1013 NOSIG
2026-03-21 01:30:00,METAR WSSS 210130Z 36012KT 9999 FEW018 BKN300 29/23 Q1012 NOSIG
2026-03-21 01:00:00,METAR WSSS 210100Z 01011KT 9999 FEW018 BKN300 28/23 Q1012 NOSIG
2026-03-21 00:30:00,METAR WSSS 210030Z 01009KT 9999 FEW018 BKN300 27/23 Q1011 NOSIG
2026-03-21 00:00:00,METAR WSSS 210000Z 36008KT 9999 FEW018 BKN300 27/23 Q1011 NOSIG
2026-03-20 23:30:00,METAR WSSS 202330Z 34006KT 9999 FEW016 BKN300 26/23 Q1011 NOSIG
2026-03-20 23:00:00,METAR WSSS 202300Z 34007KT 9999 FEW016 BKN300 26/23 Q1010 NOSIG
2026-03-20 22:30:00,METAR WSSS 202230Z 35006KT 9999 FEW016 BKN300 26/23 Q1010 NOSIG
2026-03-20 22:00:00,METAR WSSS 202200Z 35006KT 330V030 9999 FEW016 BKN300 26/23 Q1010 NOSIG
2026-03-20 21:30:00,METAR WSSS 202130Z 35007KT 9999 FEW016 BKN300 26/23 Q1010 NOSIG
2026-03-20 21:00:00,METAR WSSS 202100Z 35006KT 9999 FEW016 BKN300 26/23 Q1010 NOSIG
2026-03-20 20:30:00,METAR WSSS 202030Z 36006KT 9999 FEW018 BKN300 26/23 Q1010 NOSIG
2026-03-20 20:00:00,METAR WSSS 202000Z 36007KT 9999 FEW018 BKN300 26/23 Q1010 NOSIG
2026-03-20 19:30:00,METAR WSSS 201930Z 01008KT 9999 FEW018 BKN300 26/23 Q1010 NOSIG
2026-03-20 19:00:00,METAR WSSS 201900Z 36008KT 9999 FEW018 BKN300 26/23 Q1011 NOSIG
2026-03-20 18:30:00,METAR WSSS 201830Z 35005KT 9999 FEW018 BKN300 26/23 Q1011 NOSIG
2026-03-20 18:00:00,METAR WSSS 201800Z 36007KT 9999 FEW018 BKN300 26/23 Q1011 NOSIG
2026-03-20 17:30:00,METAR WSSS 201730Z 35006KT 9999 FEW020 SCT030 BKN300 26/23 Q1012 NOSIG
2026-03-20 17:00:00,METAR WSSS 201700Z 35006KT 9999 FEW020 BKN300 26/23 Q1012 NOSIG
2026-03-20 16:30:00,METAR WSSS 201630Z 36006KT 9999 FEW018 BKN300 26/24 Q1012 NOSIG
2026-03-20 16:00:00,METAR WSSS 201600Z 36006KT 9999 FEW018 BKN300 26/23 Q1012 NOSIG
2026-03-20 15:30:00,METAR WSSS 201530Z 01008KT 330V030 9999 FEW018 BKN300 27/23 Q1012 NOSIG
2026-03-20 15:00:00,METAR WSSS 201500Z 36005KT 330V040 9999 FEW018 BKN300 27/23 Q1012 NOSIG
2026-03-20 14:30:00,METAR WSSS 201430Z 01006KT 9999 FEW018 BKN300 26/23 Q1011 NOSIG
2026-03-20 14:00:00,METAR WSSS 201400Z 36005KT 330V030 9999 FEW018 BKN300 27/22 Q1011 NOSIG
2026-03-20 13:30:00,METAR WSSS 201330Z 02007KT 350V050 9999 FEW020 BKN300 27/23 Q1010 NOSIG
2026-03-20 13:00:00,METAR WSSS 201300Z 03010KT 360V060 9999 FEW020 BKN300 28/23 Q1010 NOSIG
2026-03-20 12:30:00,METAR WSSS 201230Z 02011KT 9999 FEW020 BKN300 28/23 Q1009 NOSIG
2026-03-20 12:00:00,METAR WSSS 201200Z 03012KT 9999 FEW020 BKN300 28/23 Q1009 NOSIG
2026-03-20 11:30:00,METAR WSSS 201130Z 03012KT 9999 FEW020 BKN300 28/22 Q1008 NOSIG
2026-03-20 11:00:00,METAR WSSS 201100Z 01011KT 350V060 9999 FEW020 BKN300 28/23 Q1008 NOSIG
2026-03-20 10:30:00,METAR WSSS 201030Z 02015KT 9999 FEW020 BKN300 29/22 Q1007 NOSIG
2026-03-20 10:00:00,METAR WSSS 201000Z 36015KT 9999 FEW020 BKN300 30/23 Q1007 NOSIG
2026-03-20 09:30:00,METAR WSSS 200930Z 36012KT 9999 FEW020 BKN300 31/23 Q1007 NOSIG
2026-03-20 09:00:00,METAR WSSS 200900Z 36013KT 320V030 9999 FEW020 BKN300 31/23 Q1007 NOSIG
2026-03-20 08:30:00,METAR WSSS 200830Z 36013KT 9999 FEW020 BKN300 32/23 Q1007 NOSIG
2026-03-20 08:00:00,METAR WSSS 200800Z 36013KT 9999 FEW020 BKN300 32/23 Q1008 NOSIG
2026-03-20 07:30:00,METAR WSSS 200730Z 36014KT 9999 FEW020 BKN300 32/24 Q1008 NOSIG
2026-03-20 07:00:00,METAR WSSS 200700Z 36013KT 9999 FEW020 BKN300 32/24 Q1008 NOSIG
2026-03-20 06:30:00,METAR WSSS 200630Z 36012KT 9999 FEW020 BKN300 33/24 Q1009 NOSIG
2026-03-20 06:00:00,METAR WSSS 200600Z 01014KT 9999 FEW020 BKN300 32/23 Q1009 NOSIG
2026-03-20 05:30:00,METAR WSSS 200530Z 01014KT 9999 FEW020 BKN300 32/23 Q1010 NOSIG
2026-03-20 05:00:00,METAR WSSS 200500Z 36013KT 9999 FEW020 BKN300 32/23 Q1010 NOSIG
2026-03-20 04:30:00,METAR WSSS 200430Z 36012KT 330V030 9999 FEW020 BKN300 32/23 Q1011 NOSIG
2026-03-20 04:00:00,METAR WSSS 200400Z 36011KT 9999 FEW020 BKN300 31/23 Q1012 NOSIG
2026-03-20 03:30:00,METAR WSSS 200330Z 36011KT 9999 FEW020 BKN300 31/23 Q1012 NOSIG
2026-03-20 03:00:00,METAR WSSS 200300Z 36009KT 9999 FEW020 BKN300 30/23 Q1012 NOSIG
2026-03-20 02:30:00,METAR WSSS 200230Z 35008KT 320V040 9999 FEW020 BKN300 30/23 Q1012 NOSIG
2026-03-20 02:00:00,METAR WSSS 200200Z 36009KT 9999 FEW020 BKN300 29/23 Q1013 NOSIG
2026-03-20 01:30:00,METAR WSSS 200130Z 35007KT 9999 FEW018 BKN300 29/24 Q1012 NOSIG
2026-03-20 01:00:00,METAR WSSS 200100Z 36007KT 9999 FEW018 BKN300 28/24 Q1012 NOSIG
2026-03-20 00:30:00,METAR WSSS 200030Z 35004KT 9999 FEW018 BKN300 27/24 Q1012 NOSIG
2026-03-20 00:00:00,METAR WSSS 200000Z 35005KT 9999 FEW018 BKN300 26/23 Q1011 NOSIG
2026-03-19 23:30:00,METAR WSSS 192330Z 35006KT 9999 FEW018 BKN300 26/23 Q1011 NOSIG
2026-03-19 23:00:00,METAR WSSS 192300Z 35006KT 9999 FEW018 BKN300 25/23 Q1010 NOSIG
2026-03-19 22:30:00,METAR WSSS 192230Z 34005KT 9999 FEW018 BKN300 26/23 Q1010 NOSIG
2026-03-19 22:00:00,METAR WSSS 192200Z 34004KT 9999 FEW018 BKN300 25/23 Q1010 NOSIG
2026-03-19 21:30:00,METAR WSSS 192130Z 34003KT 9999 FEW018 BKN300 25/22 Q1010 NOSIG
2026-03-19 21:00:00,METAR WSSS 192100Z VRB02KT 9999 FEW018 SCT180 BKN300 25/23 Q1010 NOSIG
2026-03-19 20:30:00,METAR WSSS 192030Z VRB02KT 9999 FEW018 BKN300 26/23 Q1010 NOSIG
2026-03-19 20:00:00,METAR WSSS 192000Z 33003KT 9999 FEW018 BKN300 26/23 Q1010 NOSIG
2026-03-19 19:30:00,METAR WSSS 191930Z 33003KT 310V010 9999 FEW018 BKN300 26/23 Q1010 NOSIG
2026-03-19 19:00:00,METAR WSSS 191900Z 35004KT 310V020 9999 FEW018 BKN300 26/23 Q1010 NOSIG
2026-03-19 18:30:00,METAR WSSS 191830Z 35004KT 9999 FEW018 BKN300 26/23 Q1010 NOSIG
2026-03-19 18:00:00,METAR WSSS 191800Z 36006KT 340V040 9999 FEW018 BKN300 26/23 Q1011 NOSIG
2026-03-19 17:30:00,METAR WSSS 191730Z 36007KT 9999 FEW018 BKN300 26/23 Q1011 NOSIG
2026-03-19 17:00:00,METAR WSSS 191700Z 01011KT 9999 FEW018 BKN300 27/23 Q1011 NOSIG
2026-03-19 16:30:00,METAR WSSS 191630Z 02009KT 9999 FEW018 BKN300 27/23 Q1011 NOSIG
2026-03-19 16:00:00,METAR WSSS 191600Z 01008KT 9999 FEW018 BKN300 27/23 Q1011 NOSIG
2026-03-19 15:30:00,METAR WSSS 191530Z 01010KT 9999 FEW018 BKN300 27/23 Q1011 NOSIG
2026-03-19 15:00:00,METAR WSSS 191500Z 36009KT 9999 FEW018 BKN300 27/23 Q1011 NOSIG
2026-03-19 14:30:00,METAR WSSS 191430Z 35008KT 9999 FEW018 BKN300 27/23 Q1011 NOSIG
2026-03-19 14:00:00,METAR WSSS 191400Z 36010KT 9999 FEW018 BKN300 27/23 Q1011 NOSIG
2026-03-19 13:30:00,METAR WSSS 191330Z 36010KT 9999 FEW018 BKN300 27/23 Q1010 NOSIG
2026-03-19 13:00:00,METAR WSSS 191300Z 36009KT 9999 FEW018 BKN300 27/23 Q1010 NOSIG
2026-03-19 12:30:00,METAR WSSS 191230Z 01013KT 9999 FEW018 BKN300 27/23 Q1010 NOSIG
2026-03-19 12:00:00,METAR WSSS 191200Z 01013KT 9999 FEW018 BKN300 28/23 Q1009 NOSIG
2026-03-19 11:30:00,METAR WSSS 191130Z 01013KT 9999 FEW018 BKN300 28/23 Q1009 NOSIG
2026-03-19 11:00:00,METAR WSSS 191100Z 01012KT 9999 FEW018 BKN300 28/23 Q1008 NOSIG
2026-03-19 10:30:00,METAR WSSS 191030Z 02012KT 9999 FEW018 BKN300 30/22 Q1008 NOSIG
2026-03-19 10:00:00,METAR WSSS 191000Z 36011KT 330V030 9999 FEW018TCU BKN300 30/23 Q1008 NOSIG
2026-03-19 09:30:00,METAR WSSS 190930Z 36014KT 330V030 9999 FEW018TCU BKN300 31/23 Q1007 NOSIG
2026-03-19 09:00:00,METAR WSSS 190900Z 35013KT 9999 FEW018TCU BKN300 31/23 Q1008 NOSIG
2026-03-19 08:30:00,METAR WSSS 190830Z 02012KT 9999 FEW018TCU SCT020 BKN350 31/23 Q1008 NOSIG
2026-03-19 08:00:00,METAR WSSS 190800Z 36013KT 9999 FEW018TCU SCT020 BKN350 33/23 Q1008 NOSIG
2026-03-19 07:30:00,METAR WSSS 190730Z 36012KT 9999 FEW020TCU SCT022 BKN350 33/23 Q1009 NOSIG
2026-03-19 07:00:00,METAR WSSS 190700Z 35011KT 330V030 9999 FEW020TCU SCT022 BKN350 33/23 Q1009 NOSIG
2026-03-19 06:30:00,METAR WSSS 190630Z 01009KT 330V040 9999 SCT020 BKN350 33/23 Q1010 NOSIG
2026-03-19 06:00:00,METAR WSSS 190600Z 35008KT 320V040 9999 SCT020 BKN350 33/22 Q1010 NOSIG
2026-03-19 05:30:00,METAR WSSS 190530Z 01009KT 330V030 9999 FEW020 BKN350 32/22 Q1011 NOSIG
2026-03-19 05:00:00,METAR WSSS 190500Z 36010KT 330V050 9999 FEW020 BKN350 32/23 Q1011 NOSIG
2026-03-19 04:30:00,METAR WSSS 190430Z 36010KT 330V030 9999 SCT020 BKN350 32/22 Q1012 NOSIG
2026-03-19 04:00:00,METAR WSSS 190400Z 36011KT 9999 SCT020 BKN350 32/23 Q1012 NOSIG
2026-03-19 03:30:00,METAR WSSS 190330Z 36010KT 9999 SCT020 BKN350 31/22 Q1013 NOSIG
2026-03-19 03:00:00,METAR WSSS 190300Z 36010KT 330V030 9999 SCT020 BKN350 30/23 Q1013 NOSIG
2026-03-19 02:30:00,METAR WSSS 190230Z 35009KT 320V020 9999 SCT018 BKN350 30/24 Q1013 NOSIG
2026-03-19 02:00:00,METAR WSSS 190200Z 36011KT 9999 SCT018 BKN350 29/24 Q1012 NOSIG
2026-03-19 01:30:00,METAR WSSS 190130Z 01012KT 9999 FEW018 BKN350 29/24 Q1012 NOSIG
2026-03-19 01:00:00,METAR WSSS 190100Z 36010KT 9999 FEW018 BKN350 28/24 Q1012 NOSIG
2026-03-19 00:30:00,METAR WSSS 190030Z 01008KT 9999 FEW016 BKN300 27/24 Q1012 NOSIG
2026-03-19 00:00:00,METAR WSSS 190000Z 35006KT 9000 FEW016 BKN300 27/24 Q1011 NOSIG
2026-03-18 23:30:00,METAR WSSS 182330Z 35006KT 9000 FEW016 BKN300 25/23 Q1011 NOSIG
2026-03-18 23:00:00,METAR WSSS 182300Z 36006KT 9000 FEW016 BKN300 25/23 Q1010 NOSIG
2026-03-18 22:30:00,METAR WSSS 182230Z 36006KT 9999 FEW016 BKN300 26/23 Q1010 NOSIG
2026-03-18 22:00:00,METAR WSSS 182200Z 36006KT 9999 FEW018 BKN300 25/23 Q1010 NOSIG
2026-03-18 21:30:00,METAR WSSS 182130Z 35005KT 9999 FEW018 BKN300 25/23 Q1010 NOSIG
2026-03-18 21:00:00,METAR WSSS 182100Z 36005KT 9999 FEW018 BKN300 25/23 Q1010 NOSIG
2026-03-18 20:30:00,METAR WSSS 182030Z 34004KT 300V010 9999 FEW018 BKN300 26/24 Q1010 NOSIG
2026-03-18 20:00:00,METAR WSSS 182000Z 36005KT 9999 FEW018 BKN300 25/23 Q1010 NOSIG
2026-03-18 19:30:00,METAR WSSS 181930Z 01006KT 9999 FEW018 BKN300 25/24 Q1010 NOSIG
2026-03-18 19:00:00,METAR WSSS 181900Z 35006KT 9999 FEW018 BKN300 26/24 Q1010 NOSIG
2026-03-18 18:30:00,METAR WSSS 181830Z 36007KT 9999 FEW018 BKN300 26/24 Q1011 NOSIG
2026-03-18 18:00:00,METAR WSSS 181800Z 36007KT 9999 FEW018 BKN300 26/24 Q1011 NOSIG
2026-03-18 17:30:00,METAR WSSS 181730Z 36007KT 9999 FEW018 BKN300 26/23 Q1011 NOSIG
2026-03-18 17:00:00,METAR WSSS 181700Z 01008KT 9999 FEW018 BKN300 27/23 Q1012 NOSIG
2026-03-18 16:30:00,METAR WSSS 181630Z 02009KT 9999 FEW018 BKN300 27/23 Q1012 NOSIG
2026-03-18 16:00:00,METAR WSSS 181600Z 01008KT 9999 FEW018 BKN300 27/23 Q1012 NOSIG
2026-03-18 15:30:00,METAR WSSS 181530Z 35007KT 9999 FEW018 BKN300 27/23 Q1012 NOSIG
2026-03-18 15:00:00,METAR WSSS 181500Z 36005KT 340V050 9999 FEW018 BKN300 27/23 Q1012 NOSIG
2026-03-18 14:30:00,METAR WSSS 181430Z 02008KT 350V050 9999 FEW018 BKN300 27/24 Q1012 NOSIG
2026-03-18 14:00:00,METAR WSSS 181400Z 36007KT 330V030 9999 FEW018 BKN300 27/24 Q1011 NOSIG
2026-03-18 13:30:00,METAR WSSS 181330Z 36008KT 9999 FEW018 BKN300 27/24 Q1011 NOSIG
2026-03-18 13:00:00,METAR WSSS 181300Z 02008KT 9999 FEW018 BKN300 27/23 Q1010 NOSIG
2026-03-18 12:30:00,METAR WSSS 181230Z 03009KT 360V060 9999 FEW018 BKN300 28/23 Q1010 NOSIG
2026-03-18 12:00:00,METAR WSSS 181200Z 03009KT 9999 FEW018 BKN300 28/23 Q1010 NOSIG
2026-03-18 11:30:00,METAR WSSS 181130Z 02012KT 9999 FEW020 BKN300 28/23 Q1009 NOSIG
2026-03-18 11:00:00,METAR WSSS 181100Z 01011KT 9999 FEW020 BKN300 29/23 Q1009 NOSIG
2026-03-18 10:30:00,METAR WSSS 181030Z 01011KT 9999 FEW020 BKN300 30/23 Q1009 NOSIG
2026-03-18 10:00:00,METAR WSSS 181000Z 01012KT 9999 FEW020 BKN300 30/23 Q1008 NOSIG
2026-03-18 09:30:00,METAR WSSS 180930Z 01011KT 9999 FEW020TCU BKN300 31/23 Q1008 NOSIG
2026-03-18 09:00:00,METAR WSSS 180900Z 02012KT 350V050 9999 FEW018TCU FEW020CB BKN300 31/23 Q1008 NOSIG
2026-03-18 08:30:00,METAR WSSS 180830Z 02013KT 9999 FEW018TCU FEW020CB SCT300 31/23 Q1008 NOSIG
2026-03-18 08:00:00,METAR WSSS 180800Z 04012KT 9999 FEW018TCU FEW020CB SCT035 32/23 Q1009 NOSIG
2026-03-18 07:30:00,METAR WSSS 180730Z 35012KT 330V030 9999 FEW020TCU SCT022 BKN300 32/24 Q1009 NOSIG
2026-03-18 07:00:00,METAR WSSS 180700Z 36013KT 9999 FEW020TCU BKN300 32/24 Q1009 NOSIG
2026-03-18 06:30:00,METAR WSSS 180630Z 36012KT 330V030 9999 FEW020TCU BKN300 32/24 Q1010 NOSIG
2026-03-18 06:00:00,METAR WSSS 180600Z 36012KT 9999 FEW020TCU BKN300 32/24 Q1010 NOSIG
2026-03-18 05:30:00,METAR WSSS 180530Z 35011KT 9999 FEW020TCU BKN300 32/24 Q1011 NOSIG
2026-03-18 05:00:00,METAR WSSS 180500Z 01009KT 9999 FEW020TCU SCT022 BKN300 32/24 Q1012 NOSIG
2026-03-18 04:30:00,METAR WSSS 180430Z 36009KT 330V030 9999 FEW020TCU SCT022 BKN300 31/24 Q1012 NOSIG
2026-03-18 04:00:00,METAR WSSS 180400Z 36009KT 330V040 9999 SCT020 BKN300 31/23 Q1013 NOSIG
2026-03-18 03:30:00,METAR WSSS 180330Z 36007KT 310V040 9999 SCT020 BKN300 31/24 Q1013 NOSIG
2026-03-18 03:00:00,METAR WSSS 180300Z 01008KT 340V050 9999 FEW018 FEW020TCU BKN300 30/24 Q1013 NOSIG
2026-03-18 02:30:00,METAR WSSS 180230Z 36008KT 330V030 9999 SCT018 BKN300 29/24 Q1013 NOSIG
2026-03-18 02:00:00,METAR WSSS 180200Z 34008KT 9999 SCT020 BKN300 29/24 Q1013 NOSIG
2026-03-18 01:30:00,METAR WSSS 180130Z 02010KT 9999 FEW018 BKN300 28/24 Q1013 NOSIG
2026-03-18 01:00:00,METAR WSSS 180100Z 02008KT 9999 FEW018 BKN300 28/24 Q1012 NOSIG
2026-03-18 00:30:00,METAR WSSS 180030Z 01009KT 9999 FEW018 BKN300 28/24 Q1012 NOSIG
2026-03-18 00:00:00,METAR WSSS 180000Z 02008KT 9999 FEW018 BKN300 27/24 Q1011 NOSIG
2026-03-17 23:30:00,METAR WSSS 172330Z 01006KT 350V050 9999 FEW016 BKN300 26/23 Q1011 NOSIG
2026-03-17 23:00:00,METAR WSSS 172300Z 35004KT 9999 FEW016 SCT150 BKN300 26/23 Q1011 NOSIG
2026-03-17 22:30:00,METAR WSSS 172230Z 34005KT 9999 FEW016 SCT150 BKN300 26/23 Q1011 NOSIG
2026-03-17 22:00:00,METAR WSSS 172200Z 35004KT 9999 FEW016 BKN300 26/23 Q1010 NOSIG
2026-03-17 21:30:00,METAR WSSS 172130Z 36004KT 330V050 9999 FEW016 BKN300 26/23 Q1010 NOSIG
2026-03-17 21:00:00,METAR WSSS 172100Z 02004KT 340V040 9999 FEW016 BKN300 26/23 Q1010 NOSIG
2026-03-17 20:30:00,METAR WSSS 172030Z 36005KT 9999 FEW016 BKN300 26/23 Q1010 NOSIG
2026-03-17 20:00:00,METAR WSSS 172000Z 36005KT 9999 FEW016 BKN300 26/23 Q1010 NOSIG
2026-03-17 19:30:00,METAR WSSS 171930Z 36006KT 9999 FEW016 BKN300 26/23 Q1010 NOSIG
2026-03-17 19:00:00,METAR WSSS 171900Z 01008KT 9999 FEW016 BKN300 26/23 Q1010 NOSIG
2026-03-17 18:30:00,METAR WSSS 171830Z 36008KT 9999 FEW016 BKN300 26/23 Q1011 NOSIG
2026-03-17 18:00:00,METAR WSSS 171800Z 35007KT 9999 FEW018 BKN300 26/23 Q1011 NOSIG
2026-03-17 17:30:00,METAR WSSS 171730Z 01008KT 9999 FEW018 BKN300 27/23 Q1011 NOSIG
2026-03-17 17:00:00,METAR WSSS 171700Z 03007KT 9999 FEW018 BKN300 27/23 Q1012 NOSIG
2026-03-17 16:30:00,METAR WSSS 171630Z 01008KT 9999 FEW018 BKN300 27/23 Q1012 NOSIG
2026-03-17 16:00:00,METAR WSSS 171600Z 35006KT 9999 FEW018 BKN300 26/23 Q1012 NOSIG
2026-03-17 15:30:00,METAR WSSS 171530Z 01007KT 9999 FEW018 BKN300 27/23 Q1012 NOSIG
2026-03-17 07:30:00,METAR WSSS 170730Z 01012KT 330V050 9999 FEW018TCU FEW020CB BKN300 32/24 Q1009 NOSIG
2026-03-17 07:00:00,METAR WSSS 170700Z 01011KT 340V040 9999 FEW020TCU SCT022 BKN300 32/24 Q1009 NOSIG
2026-03-17 06:30:00,METAR WSSS 170630Z 36010KT 340V040 9999 FEW020TCU SCT022 BKN300 32/23 Q1010 NOSIG
2026-03-17 06:00:00,METAR WSSS 170600Z 01010KT 340V040 9999 FEW020TCU SCT022 BKN300 32/24 Q1010 NOSIG
2026-03-17 05:30:00,METAR WSSS 170530Z 35010KT 330V040 9999 FEW020TCU SCT022 BKN300 32/24 Q1011 NOSIG
2026-03-17 05:00:00,METAR WSSS 170500Z 02008KT 330V050 9999 FEW020TCU SCT022 BKN300 31/24 Q1011 NOSIG
2026-03-17 04:30:00,METAR WSSS 170430Z 36009KT 320V020 9999 FEW020TCU SCT022 BKN300 31/23 Q1012 NOSIG
2026-03-17 04:00:00,METAR WSSS 170400Z 36010KT 310V030 9999 FEW020TCU SCT022 BKN300 31/23 Q1012 NOSIG
2026-03-17 03:30:00,METAR WSSS 170330Z 01010KT 350V050 9999 FEW018TCU SCT020 BKN300 31/23 Q1012 NOSIG
2026-03-17 03:00:00,METAR WSSS 170300Z 02009KT 340V040 9999 SCT020 BKN300 30/23 Q1013 NOSIG
2026-03-17 02:30:00,METAR WSSS 170230Z 02008KT 350V060 9999 SCT020 BKN300 30/24 Q1013 NOSIG
2026-03-17 02:00:00,METAR WSSS 170200Z 01011KT 9999 SCT020 BKN300 29/23 Q1012 NOSIG
2026-03-17 01:30:00,METAR WSSS 170130Z 02010KT 350V050 9999 FEW018 BKN300 29/23 Q1012 NOSIG
2026-03-17 01:00:00,METAR WSSS 170100Z 03011KT 350V060 9999 FEW018 BKN300 28/23 Q1011 NOSIG
2026-03-17 00:30:00,METAR WSSS 170030Z 36007KT 9999 FEW018 BKN300 27/24 Q1011 NOSIG
2026-03-17 00:00:00,METAR WSSS 170000Z 35005KT 330V030 9999 FEW018 BKN300 27/24 Q1011 NOSIG
2026-03-16 23:30:00,METAR WSSS 162330Z 35004KT 9999 FEW018 BKN300 25/23 Q1011 NOSIG
2026-03-16 23:00:00,METAR WSSS 162300Z 33003KT 300V010 9999 FEW018 BKN300 25/23 Q1010 NOSIG
2026-03-16 22:30:00,METAR WSSS 162230Z 02006KT 9999 FEW018 BKN300 26/23 Q1010 NOSIG
2026-03-16 22:00:00,METAR WSSS 162200Z 01007KT 340V040 9999 FEW018 BKN300 26/23 Q1010 NOSIG
2026-03-16 21:30:00,METAR WSSS 162130Z 36006KT 9999 FEW018 BKN300 26/23 Q1009 NOSIG
2026-03-16 21:00:00,METAR WSSS 162100Z 01008KT 9999 FEW016 BKN300 26/23 Q1009 NOSIG
2026-03-16 20:30:00,METAR WSSS 162030Z 36007KT 9999 FEW016 BKN300 25/24 Q1009 NOSIG
2026-03-16 20:00:00,METAR WSSS 162000Z 01008KT 9999 FEW016 BKN300 26/23 Q1009 NOSIG
2026-03-16 19:30:00,METAR WSSS 161930Z 36007KT 9999 FEW016 BKN300 26/24 Q1010 NOSIG
2026-03-16 19:00:00,METAR WSSS 161900Z 36008KT 9999 FEW016 BKN300 26/23 Q1010 NOSIG
2026-03-16 18:30:00,METAR WSSS 161830Z 36008KT 9999 FEW016 BKN300 26/24 Q1010 NOSIG
2026-03-16 18:00:00,METAR WSSS 161800Z 36008KT 9999 FEW018 BKN300 26/24 Q1010 NOSIG
2026-03-16 17:30:00,METAR WSSS 161730Z 36007KT 9999 FEW018 BKN300 26/24 Q1011 NOSIG
2026-03-16 17:00:00,METAR WSSS 161700Z 35007KT 9999 FEW018 BKN300 26/24 Q1011 NOSIG
2026-03-16 16:30:00,METAR WSSS 161630Z 35007KT 9999 FEW018 BKN300 26/23 Q1012 NOSIG
2026-03-16 16:00:00,METAR WSSS 161600Z 36007KT 9999 FEW018 BKN300 26/23 Q1012 NOSIG
2026-03-16 15:30:00,METAR WSSS 161530Z 36007KT 9999 FEW018 BKN300 26/23 Q1012 NOSIG
2026-03-16 15:00:00,METAR WSSS 161500Z 36007KT 9999 FEW018 BKN300 26/23 Q1012 NOSIG
2026-03-16 14:30:00,METAR WSSS 161430Z 36007KT 9999 FEW018 BKN300 27/23 Q1011 NOSIG
2026-03-16 14:00:00,METAR WSSS 161400Z 02009KT 9999 FEW018 BKN300 27/23 Q1011 NOSIG
2026-03-16 13:30:00,METAR WSSS 161330Z 01008KT 9999 FEW018 BKN300 27/23 Q1011 NOSIG
2026-03-16 13:00:00,METAR WSSS 161300Z 01009KT 9999 FEW018 BKN300 27/24 Q1010 NOSIG
2026-03-16 12:30:00,METAR WSSS 161230Z 35010KT 9999 FEW018 BKN300 27/24 Q1010 NOSIG
2026-03-16 12:00:00,METAR WSSS 161200Z 36009KT 9999 FEW018 BKN300 27/24 Q1009 NOSIG
2026-03-16 11:30:00,METAR WSSS 161130Z 01012KT 9999 FEW018 BKN300 28/23 Q1009 NOSIG
2026-03-16 11:00:00,METAR WSSS 161100Z 01011KT 9999 FEW020 BKN300 28/23 Q1008 NOSIG
2026-03-16 10:30:00,METAR WSSS 161030Z 01012KT 9999 FEW020 BKN300 29/23 Q1008 NOSIG
2026-03-16 10:00:00,METAR WSSS 161000Z 36013KT 9999 FEW020 BKN300 29/23 Q1008 NOSIG
2026-03-16 09:30:00,METAR WSSS 160930Z 36013KT 9999 FEW020TCU BKN300 30/23 Q1008 NOSIG
2026-03-16 09:00:00,METAR WSSS 160900Z 01014KT 340V040 9999 FEW020TCU BKN350 31/23 Q1008 NOSIG
2026-03-16 08:30:00,METAR WSSS 160830Z 35014KT 9999 FEW020TCU BKN350 32/23 Q1008 NOSIG
2026-03-16 08:00:00,METAR WSSS 160800Z 36015KT 9999 FEW020TCU BKN350 32/23 Q1008 NOSIG
2026-03-16 07:30:00,METAR WSSS 160730Z 36016KT 9999 FEW020TCU BKN350 32/23 Q1008 NOSIG
2026-03-16 07:00:00,METAR WSSS 160700Z 36015KT 9999 FEW020TCU BKN350 32/24 Q1009 NOSIG
2026-03-16 06:30:00,METAR WSSS 160630Z 36014KT 9999 FEW022 BKN350 32/24 Q1010 NOSIG
2026-03-16 06:00:00,METAR WSSS 160600Z 36014KT 9999 FEW022 BKN350 32/23 Q1010 NOSIG
2026-03-16 05:30:00,METAR WSSS 160530Z 36013KT 9999 FEW022 BKN350 31/23 Q1011 NOSIG
2026-03-16 05:00:00,METAR WSSS 160500Z 36013KT 9999 SCT022 BKN350 32/24 Q1011 NOSIG
2026-03-16 04:30:00,METAR WSSS 160430Z 36013KT 9999 FEW020TCU BKN350 31/24 Q1012 NOSIG
2026-03-16 04:00:00,METAR WSSS 160400Z 01012KT 9999 FEW020 BKN300 31/24 Q1012 NOSIG
2026-03-16 03:30:00,METAR WSSS 160330Z 36011KT 320V020 9999 FEW020 BKN300 31/24 Q1012 NOSIG
2026-03-16 03:00:00,METAR WSSS 160300Z 36010KT 9999 SCT020 BKN300 30/24 Q1012 NOSIG
2026-03-16 02:30:00,METAR WSSS 160230Z 36010KT 320V020 9999 FEW018 BKN300 29/24 Q1012 NOSIG
2026-03-16 02:00:00,METAR WSSS 160200Z 36010KT 9999 FEW018 BKN300 29/24 Q1012 NOSIG
2026-03-16 01:30:00,METAR WSSS 160130Z 36008KT 9999 FEW018 BKN300 29/24 Q1012 NOSIG
2026-03-16 01:00:00,METAR WSSS 160100Z 34006KT 310V010 8000 FEW018 BKN300 28/24 Q1011 NOSIG
2026-03-16 00:30:00,METAR WSSS 160030Z 33005KT 300V360 8000 FEW018 BKN300 27/24 Q1011 NOSIG
2026-03-16 00:00:00,METAR WSSS 160000Z 33004KT 8000 FEW018 BKN300 26/24 Q1011 NOSIG
2026-03-15 23:30:00,METAR WSSS 152330Z 33004KT 9000 FEW018 SCT160 BKN300 26/23 Q1011 NOSIG
2026-03-15 23:00:00,METAR WSSS 152300Z 34004KT 9000 FEW018 BKN160 26/23 Q1010 NOSIG
2026-03-15 22:30:00,METAR WSSS 152230Z 34005KT 9999 FEW018 BKN160 26/23 Q1010 NOSIG
2026-03-15 22:00:00,METAR WSSS 152200Z 33003KT 9999 FEW018 BKN160 26/23 Q1010 NOSIG
2026-03-15 21:30:00,METAR WSSS 152130Z 33003KT 9999 FEW018 BKN160 26/23 Q1010 NOSIG
2026-03-15 21:00:00,METAR WSSS 152100Z 33003KT 9999 FEW018 BKN160 26/23 Q1010 NOSIG
2026-03-15 20:30:00,METAR WSSS 152030Z 34003KT 9999 FEW018 BKN160 26/23 Q1010 NOSIG
2026-03-15 20:00:00,METAR WSSS 152000Z 36004KT 9999 FEW018 BKN160 26/23 Q1010 NOSIG
2026-03-15 19:30:00,METAR WSSS 151930Z 36004KT 9999 FEW018 BKN160 26/23 Q1011 NOSIG
2026-03-15 19:00:00,METAR WSSS 151900Z 35005KT 9999 FEW018 BKN160 26/23 Q1011 NOSIG
2026-03-15 18:30:00,METAR WSSS 151830Z 36005KT 9999 FEW018 BKN160 26/23 Q1011 NOSIG
2026-03-15 18:00:00,METAR WSSS 151800Z 35007KT 9999 FEW018 BKN160 26/23 Q1011 NOSIG
2026-03-15 17:30:00,METAR WSSS 151730Z 36005KT 9999 FEW016 BKN160 26/23 Q1011 NOSIG
2026-03-15 17:00:00,METAR WSSS 151700Z 35007KT 9999 FEW016 BKN160 26/23 Q1012 NOSIG
2026-03-15 16:30:00,METAR WSSS 151630Z 35006KT 9999 FEW016 BKN160 26/23 Q1012 NOSIG
2026-03-15 16:00:00,METAR WSSS 151600Z 34006KT 9999 FEW016 BKN160 26/24 Q1012 NOSIG
2026-03-15 15:30:00,METAR WSSS 151530Z 34006KT 9999 FEW016 BKN160 26/23 Q1012 NOSIG
2026-03-15 15:00:00,METAR WSSS 151500Z 35006KT 9999 FEW016 BKN160 26/23 Q1012 NOSIG
2026-03-15 14:30:00,METAR WSSS 151430Z 36007KT 9999 FEW016 SCT160 BKN300 27/23 Q1012 NOSIG
2026-03-15 14:00:00,METAR WSSS 151400Z 36008KT 9999 FEW016 SCT160 BKN300 26/24 Q1012 NOSIG
2026-03-15 13:30:00,METAR WSSS 151330Z 36007KT 9999 FEW016 SCT160 27/23 Q1011 NOSIG
2026-03-15 13:00:00,METAR WSSS 151300Z 35006KT 320V020 9999 FEW016 SCT160 27/24 Q1011 NOSIG
2026-03-15 12:30:00,METAR WSSS 151230Z 35008KT 9999 SCT016 SCT170 27/23 Q1010 NOSIG
2026-03-15 12:00:00,METAR WSSS 151200Z 35009KT 9999 FEW018 SCT170 BKN300 27/23 Q1010 NOSIG
2026-03-15 11:30:00,METAR WSSS 151130Z 36009KT 9999 FEW018 BKN170 27/23 Q1010 NOSIG
2026-03-15 11:00:00,METAR WSSS 151100Z 36011KT 9999 FEW018 BKN170 28/23 Q1009 NOSIG
2026-03-15 10:30:00,METAR WSSS 151030Z 35009KT 320V020 9999 FEW018 BKN160 28/23 Q1009 NOSIG
2026-03-15 10:00:00,METAR WSSS 151000Z 36011KT 9999 FEW018 BKN160 29/24 Q1009 NOSIG
2026-03-15 09:30:00,METAR WSSS 150930Z 35011KT 9999 FEW018 BKN160 29/23 Q1009 NOSIG
2026-03-15 09:00:00,METAR WSSS 150900Z 35010KT 9999 FEW018 SCT040 BKN160 29/23 Q1009 NOSIG
2026-03-15 08:30:00,METAR WSSS 150830Z 36013KT 9999 FEW018 SCT040 BKN160 29/23 Q1009 NOSIG
2026-03-15 08:00:00,METAR WSSS 150800Z 35012KT 9999 FEW016 SCT040 BKN160 29/24 Q1010 NOSIG
