Time_recorded,METAR
2026-05-02 14:53:00,METAR KCXO 021453Z 35007KT 10SM CLR 18/12 A3016 RMK AO2 SLP210 T01780122 51021
2026-05-02 13:53:00,METAR KCXO 021353Z 36006KT 10SM CLR 14/12 A3014 RMK AO2 SLP206 T01440117
2026-05-02 12:53:00,METAR KCXO 021253Z 35005KT 10SM CLR 12/11 A3011 RMK AO2 SLP196 T01220106
2026-05-02 11:53:00,METAR KCXO 021153Z 33003KT 9SM CLR 10/09 A3009 RMK AO2 SLP190 70123 T01000094 10122 20094 51023
2026-05-02 10:53:00,METAR KCXO 021053Z 36004KT 10SM CLR 11/09 A3007 RMK AO2 SLP180 T01060094
2026-05-02 09:53:00,METAR KCXO 020953Z AUTO 35006KT 10SM CLR 11/09 A3006 RMK AO2 SLP176 T01060094
2026-05-02 08:53:00,METAR KCXO 020853Z AUTO 35004KT 10SM CLR 11/10 A3003 RMK AO2 SLP167 T01060100 53002
2026-05-02 07:53:00,METAR KCXO 020753Z AUTO 34004KT 10SM CLR 11/10 A3002 RMK AO2 SLP164 T01110100
2026-05-02 06:53:00,METAR KCXO 020653Z AUTO 02004KT 10SM SCT048 12/11 A3002 RMK AO2 SLP165 T01170106
2026-05-02 05:53:00,METAR KCXO 020553Z AUTO 02006KT 10SM FEW038 OVC046 12/11 A3002 RMK AO2 SLP164 60010 T01220106 10139 20122 401830122 51012
2026-05-02 05:12:00,SPECI KCXO 020512Z AUTO 05008KT 10SM FEW011 SCT014 BKN038 12/11 A3002 RMK AO2 T01220106
2026-05-02 04:53:00,METAR KCXO 020453Z AUTO 02007KT 10SM BKN011 OVC036 12/11 A3002 RMK AO2 SLP163 T01220111
2026-05-02 03:53:00,METAR KCXO 020353Z AUTO 03008KT 10SM OVC011 13/12 A3002 RMK AO2 SLP164 T01280117
2026-05-02 02:53:00,METAR KCXO 020253Z AUTO 01007KT 10SM BKN012 OVC017 13/12 A2999 RMK AO2 RAE04 SLP152 P0000 60010 T01280117 53018
2026-05-02 02:25:00,SPECI KCXO 020225Z AUTO 03007KT 360V060 10SM SCT011 BKN019 OVC047 13/12 A2998 RMK AO2 RAE04 P0000 T01280117
2026-05-02 02:08:00,SPECI KCXO 020208Z AUTO 01007KT 10SM FEW008 BKN013 OVC019 13/12 A2998 RMK AO2 RAE04 P0000 T01280117
2026-05-02 01:53:00,METAR KCXO 020153Z AUTO 36007KT 10SM -RA BKN010 OVC017 13/12 A2997 RMK AO2 SLP146 P0004 T01280117
2026-05-02 00:53:00,METAR KCXO 020053Z 01008KT 10SM -RA SCT008 BKN014 OVC019 13/12 A2994 RMK AO2 SLP135 P0006 T01330122
2026-05-02 00:28:00,SPECI KCXO 020028Z 34006KT 9SM -RA BKN009 OVC014 14/13 A2995 RMK AO2 CIG 006V012 PRESRR P0005 T01390128
2026-05-01 23:53:00,METAR KCXO 012353Z 01006KT 6SM RA BR OVC012 14/13 A2993 RMK AO2 RAB07 SLP133 P0004 60022 T01390128 10161 20139 53021
2026-05-01 23:40:00,SPECI KCXO 012340Z VRB05G15KT 10SM -RA SCT009 OVC014 14/13 A2991 RMK AO2 RAB07 PRESRR P0003 T01440128
2026-05-01 23:25:00,SPECI KCXO 012325Z VRB05KT 5SM -RA BR BKN009 OVC014 14/14 A2988 RMK AO2 RAB07 CIG 007V012 P0003 T01440139
2026-05-01 23:01:00,SPECI KCXO 012301Z 02004G14KT 10SM OVC010 15/14 A2989 RMK AO2 LTG DSNT SE CIG 006V014 PRESRR T01500139
2026-05-01 22:53:00,METAR KCXO 012253Z 04009G16KT 360V070 10SM VCTS OVC009 15/14 A2986 RMK AO2 RAE36 CIG 006V014 SLP111 P0002 T01500139
2026-05-01 22:45:00,SPECI KCXO 012245Z 06008G17KT 10SM VCTS OVC009 15/14 A2984 RMK AO2 RAE36 CIG 006V013 P0002 T01500139
2026-05-01 21:53:00,METAR KCXO 012153Z 02006KT 9SM -RA FEW007 OVC013 15/14 A2990 RMK AO2 LTG DSNT SE SLP123 P0005 T01500139
2026-05-01 20:53:00,METAR KCXO 012053Z 03005KT 10SM -RA BKN007 OVC013 16/14 A2987 RMK AO2 SLP112 P0008 60011 T01560144 53007
2026-05-01 19:53:00,METAR KCXO 011953Z 36006KT 7SM -RA OVC006 16/15 A2987 RMK AO2 LTG DSNT SE-W RAB10 CIG 005V009 SLP113 P0002 T01560150
2026-05-01 18:53:00,METAR KCXO 011853Z 06008G17KT 010V070 10SM OVC006 16/15 A2984 RMK AO2 LTG DSNT SE AND S RAE31 PRESRR SLP101 P0001 T01610150
2026-05-01 17:53:00,METAR KCXO 011753Z 02008KT 9SM -RA OVC006 16/16 A2985 RMK AO2 LTG DSNT S RAE1658B18 SLP105 P0001 60091 T01610156 10167 20156 58019
2026-05-01 16:53:00,METAR KCXO 011653Z VRB05KT 10SM -RA BKN006 BKN041 OVC070 16/16 A2989 RMK AO2 LTG DSNT E AND SE PRESFR SLP119 P0019 T01610156
2026-05-01 16:46:00,SPECI KCXO 011646Z 02008KT 5SM -RA BR BKN006 BKN050 OVC070 16/16 A2990 RMK AO2 LTG DSNT E AND SE PRESFR P0019 T01610156
2026-05-01 16:32:00,SPECI KCXO 011632Z 01009KT 2 1/2SM +RA BR SCT006 BKN055 OVC070 16/15 A2993 RMK AO2 LTG DSNT SE AND S P0017 T01610150
2026-05-01 15:53:00,METAR KCXO 011553Z 01005KT 2 1/2SM RA BR OVC006 16/15 A2995 RMK AO2 RAE07B33 SLP140 P0002 T01610150
2026-05-01 14:53:00,METAR KCXO 011453Z 05008KT 9SM -RA BKN006 BKN050 OVC060 16/16 A2990 RMK AO2 SLP124 P0012 60069 T01610156 58013
2026-05-01 14:07:00,SPECI KCXO 011407Z 00000KT 2 1/2SM RA BR BKN007 BKN055 OVC070 16/15 A2995 RMK AO2 LTG DSNT E P0003 T01560150
2026-05-01 13:53:00,METAR KCXO 011353Z VRB05KT 2 1/2SM RA BR SCT006 BKN050 OVC090 16/15 A2993 RMK AO2 LTG DSNT NE-SE TSE00B09E24 SLP132 P0026 T01560150
2026-05-01 13:48:00,SPECI KCXO 011348Z 01006KT 2 1/2SM RA BR FEW006 BKN050 OVC090 16/15 A2993 RMK AO2 LTG DSNT NE-SE TSE00B09E24 P0024
2026-05-01 13:39:00,SPECI KCXO 011339Z 03005KT 3SM RA BR FEW006 BKN049 OVC090 16/15 A2993 RMK AO2 LTG DSNT SE AND S TSE00B09E24 P0021 T01560150
2026-05-01 13:32:00,SPECI KCXO 011332Z 03009KT 2 1/2SM VCTS RA BR SCT006 OVC034 16/15 A2993 RMK AO2 LTG DSNT SE AND S TSE00B09E24 P0019 T01560150
2026-05-01 13:24:00,SPECI KCXO 011324Z VRB05KT 2SM VCTS RA BR SCT006 BKN024 OVC039 16/15 A2995 RMK AO2 LTG DSNT SE AND S TSE00B09E24 P0017 T01560150
2026-05-01 13:11:00,SPECI KCXO 011311Z 01008KT 1 1/2SM +TSRA BR BKN005 BKN019 OVC030 16/16 A2993 RMK AO2 LTG DSNT E-S TSE00B09 P0012 T01610156
2026-05-01 13:00:00,SPECI KCXO 011300Z 03004KT 1 3/4SM VCTS +RA BR BKN005 OVC026 16/16 A2994 RMK AO2 LTG DSNT SE-SW TSE00 P0004 T01610156
2026-05-01 12:53:00,METAR KCXO 011253Z 01004KT 2 1/2SM TSRA BR BKN005 OVC028 16/16 A2994 RMK AO2 LTG DSNT ALQDS TSB45 SLP137 P0031 T01610156
2026-05-01 12:45:00,SPECI KCXO 011245Z 36004KT 3SM TSRA BR BKN005 BKN012 OVC028 16/16 A2993 RMK AO2 LTG DSNT NE AND E AND W TSB45 P0028 T01610156
2026-05-01 12:39:00,SPECI KCXO 011239Z 01006KT 2 1/2SM RA BR BKN005 BKN012 OVC027 16/16 A2992 RMK AO2 LTG DSNT E P0027 T01610156
2026-05-01 12:32:00,SPECI KCXO 011232Z 35006KT 1 1/4SM RA BR BKN007 BKN012 OVC029 16/16 A2991 RMK AO2 LTG DSNT E AND SE P0025 T01610161
2026-05-01 12:17:00,SPECI KCXO 011217Z VRB04KT 1 1/4SM VCTS +RA BR BKN007 OVC015 17/16 A2993 RMK AO2 LTG DSNT S AND SW P0020 T01670161
2026-05-01 12:10:00,SPECI KCXO 011210Z 01004KT 1 3/4SM +RA BR OVC007 17/16 A2993 RMK AO2 LTG DSNT S P0010 T01670161
2026-05-01 11:53:00,METAR KCXO 011153Z 03005KT 5SM RA BR BKN006 OVC045 17/16 A2988 RMK AO2 SLP118 P0015 60059 70060 T01670156 10183 20167 58002
2026-05-01 10:53:00,METAR KCXO 011053Z 01006KT 7SM RA BKN006 OVC010 17/16 A2989 RMK AO2 LTG DSNT SE AND S TSE06 CIG 004V008 SLP118 P0016 T01670161
2026-05-01 10:15:00,SPECI KCXO 011015Z AUTO VRB05KT 4SM RA BR BKN006 OVC010 17/16 A2987 RMK AO2 LTG DSNT SE AND SW TSE06 P0010 T01670161
2026-05-01 10:06:00,SPECI KCXO 011006Z AUTO 06007KT 2 1/2SM +RA BR BKN008 OVC012 17/16 A2988 RMK AO2 LTG DSNT SE TSE06 CIG 005V010 PRESFR P0006 T01670161
2026-05-01 09:53:00,METAR KCXO 010953Z AUTO 34003KT 4SM TSRA BR BKN008 OVC018 17/16 A2992 RMK AO2 LTG DSNT SE-SW RAE14B21 TSB22E37B38 SLP130 P0010 T01720161
2026-05-01 09:29:00,SPECI KCXO 010929Z AUTO 01007KT 10SM -TSRA BKN008 OVC090 17/17 A2988 RMK AO2 LTG DSNT ALQDS RAE14B21 TSB22 CIG 005V012 P0001 T01720167
2026-05-01 09:22:00,SPECI KCXO 010922Z AUTO 02006KT 10SM -TSRA SCT008 OVC095 17/17 A2987 RMK AO2 LTG DSNT ALQDS RAE14B21 TSB22 P0000 T01720167
2026-05-01 09:16:00,SPECI KCXO 010916Z AUTO 02005KT 10SM SCT010 SCT035 OVC090 17/17 A2987 RMK AO2 LTG DSNT ALQDS RAE14 P0000 T01720167
2026-05-01 09:03:00,SPECI KCXO 010903Z AUTO 02005KT 7SM -RA SCT008 BKN028 OVC100 17/17 A2989 RMK AO2 LTG DSNT SE-SW P0000 T01720167
2026-05-01 08:53:00,METAR KCXO 010853Z AUTO 01006KT 3SM VCTS RA BR SCT008 BKN011 OVC029 17/17 A2989 RMK AO2 LTG DSNT SE-SW SLP119 P0014 60018 T01720167 55007
2026-05-01 08:50:00,SPECI KCXO 010850Z AUTO 02006KT 3SM VCTS RA BR BKN008 BKN013 OVC023 17/17 A2989 RMK AO2 LTG DSNT SE-SW P0013
2026-05-01 08:46:00,SPECI KCXO 010846Z AUTO 02003KT 2 1/2SM +RA BR BKN006 BKN013 OVC018 17/17 A2989 RMK AO2 LTG DSNT SE-SW P0012 T01720167
2026-05-01 08:37:00,SPECI KCXO 010837Z AUTO 35007KT 3SM VCTS +RA BR OVC006 17/17 A2990 RMK AO2 LTG DSNT SE-W P0005 T01720167
2026-05-01 07:53:00,METAR KCXO 010753Z AUTO 02006KT 9SM RA OVC006 18/17 A2988 RMK AO2 LTG DSNT SW RAE17B51 SLP113 P0001 T01780172
2026-05-01 06:53:00,METAR KCXO 010653Z AUTO 11004KT 9SM -RA OVC007 18/17 A2989 RMK AO2 LTG DSNT W SLP120 P0003 T01830172
2026-05-01 05:53:00,METAR KCXO 010553Z AUTO VRB06KT 10SM -RA OVC006 18/18 A2991 RMK AO2 LTG DSNT S AND SW RAB33 SLP125 P0000 60000 T01830178 10200 20183 402280183 53004
2026-05-01 04:53:00,METAR KCXO 010453Z AUTO 02006KT 10SM OVC007 19/18 A2991 RMK AO2 LTG DSNT E-SW TSE10 SLP124 T01890178
2026-05-01 04:16:00,SPECI KCXO 010416Z AUTO 00000KT 10SM VCTS OVC007 19/18 A2991 RMK AO2 LTG DSNT N AND SW TSE10 PRESRR T01890178
2026-05-01 03:53:00,METAR KCXO 010353Z AUTO 09005KT 10SM TS OVC008 19/18 A2989 RMK AO2 LTG DSNT NW RAB40E52 TSB52 CIG 006V011 SLP117 P0000 T01890178
2026-05-01 02:53:00,METAR KCXO 010253Z AUTO 07008KT 10SM OVC008 19/18 A2990 RMK AO2 LTG DSNT NW SLP121 T01940178 53017
2026-05-01 02:08:00,SPECI KCXO 010208Z AUTO 03006KT 10SM OVC008 19/18 A2988 RMK AO2 CIG 007V011 T01940178
2026-05-01 01:53:00,METAR KCXO 010153Z AUTO 02007KT 10SM OVC010 19/18 A2987 RMK AO2 SLP112 T01940178
2026-05-01 00:53:00,METAR KCXO 010053Z VRB05KT 10SM OVC014 20/18 A2985 RMK AO2 SLP103 T02000178
2026-05-01 00:42:00,SPECI KCXO 010042Z 02005KT 10SM BKN014 OVC120 20/18 A2985 RMK AO2 T02000178
2026-05-01 00:22:00,SPECI KCXO 010022Z 03004KT 10SM SCT014 BKN120 21/18 A2984 RMK AO2 T02060178
2026-04-30 23:53:00,METAR KCXO 302353Z 03005KT 10SM OVC014 21/18 A2985 RMK AO2 SLP104 60001 T02110183 10228 20200 55010
2026-04-30 22:53:00,METAR KCXO 302253Z VRB05KT 10SM OVC010 21/18 A2981 RMK AO2 SLP092 T02060183
2026-04-30 21:53:00,METAR KCXO 302153Z 06008KT 030V090 10SM OVC010 21/18 A2982 RMK AO2 SLP094 T02060183
2026-04-30 20:53:00,METAR KCXO 302053Z 01007KT 10SM OVC010 21/18 A2988 RMK AO2 SLP114 60001 T02060183 55005
2026-04-30 20:35:00,SPECI KCXO 302035Z 36011G18KT 10SM OVC009 21/18 A2988 RMK AO2 CIG 008V013 T02060183
2026-04-30 20:19:00,SPECI KCXO 302019Z 36009G17KT 340V040 10SM BKN010 21/19 A2988 RMK AO2 T02110189
2026-04-30 19:53:00,METAR KCXO 301953Z 36008G15KT 320V030 10SM FEW012 FEW023 22/19 A2987 RMK AO2 SLP110 T02220189
2026-04-30 19:20:00,SPECI KCXO 301920Z 02011G17KT 10SM FEW013 SCT023 OVC044 23/19 A2987 RMK AO2 LTG DSNT NE T02280194
2026-04-30 18:53:00,METAR KCXO 301853Z 36007KT 10SM FEW009 SCT018 OVC022 23/20 A2988 RMK AO2 LTG DSNT N AND NE RAB10E28 SLP115 P0001 T02280200
2026-04-30 18:35:00,SPECI KCXO 301835Z 35009KT 10SM SCT007 BKN010 OVC018 22/20 A2989 RMK AO2 LTG DSNT NW-NE RAB10E28 P0001 T02220200
2026-04-30 18:12:00,SPECI KCXO 301812Z 34007KT 2 1/2SM -RA BR OVC005 21/21 A2989 RMK AO2 LTG DSNT N RAB10 P0000 T02110206
2026-04-30 17:53:00,METAR KCXO 301753Z 34007KT 7SM OVC005 22/21 A2989 RMK AO2 LTG DSNT N AND NE RAB1659E09 SLP120 P0000 60000 T02170206 10228 20206 53008
2026-04-30 16:53:00,METAR KCXO 301653Z 01003KT 10SM OVC005 22/21 A2987 RMK AO2 LTG DSNT N SLP110 T02220211
2026-04-30 16:19:00,SPECI KCXO 301619Z 04003KT 10SM OVC005 22/21 A2987 RMK AO2 T02220211
2026-04-30 15:53:00,METAR KCXO 301553Z VRB03KT 10SM OVC004 22/21 A2987 RMK AO2 SLP111 T02170206
2026-04-30 15:50:00,SPECI KCXO 301550Z 00000KT 10SM OVC004 22/21 A2987 RMK AO2
2026-04-30 14:53:00,METAR KCXO 301453Z 34003KT 10SM OVC005 21/21 A2988 RMK AO2 SLP114 T02110206 53009
2026-04-30 13:53:00,METAR KCXO 301353Z 01004KT 10SM OVC004 21/21 A2986 RMK AO2 SLP109 T02110206
2026-04-30 12:53:00,METAR KCXO 301253Z 00000KT 10SM OVC004 21/20 A2985 RMK AO2 SLP105 T02060200
2026-04-30 12:51:00,SPECI KCXO 301251Z 00000KT 10SM OVC004 21/20 A2985 RMK AO2
2026-04-30 11:53:00,METAR KCXO 301153Z 00000KT 10SM OVC005 21/20 A2985 RMK AO2 SLP106 60001 7//// T02060200 10211 20206 53006
2026-04-30 11:27:00,SPECI KCXO 301127Z VRB03KT 9SM BKN005 BKN026 OVC030 21/20 A2983 RMK AO2 T02060200
2026-04-30 11:15:00,SPECI KCXO 301115Z 02003KT 4SM BR SCT005 OVC026 21/20 A2984 RMK AO2 T02060200
2026-04-30 10:53:00,METAR KCXO 301053Z 01004KT 2 1/2SM BR OVC005 21/20 A2984 RMK AO2 RAB31E52 SLP102 P0001 T02060200
2026-04-30 10:45:00,SPECI KCXO 301045Z 01004KT 2SM -RA BR OVC005 21/20 A2984 RMK AO2 RAB31 P0001 T02060200
2026-04-30 09:53:00,METAR KCXO 300953Z AUTO 35004KT 8SM OVC005 21/20 A2984 RMK AO2 RAB26E38 CIG 003V009 SLP103 P0000 T02060200
2026-04-30 08:53:00,METAR KCXO 300853Z AUTO 00000KT 5SM BR OVC005 21/20 A2983 RMK AO2 RAE05 CIG 003V008 SLP099 P0000 60000 T02060200 58009
2026-04-30 08:45:00,SPECI KCXO 300845Z AUTO 00000KT 3SM BR OVC005 21/20 A2985 RMK AO2 RAE05 CIG 003V008 P0000 T02060200
2026-04-30 07:53:00,METAR KCXO 300753Z AUTO 35005KT 2SM -RA BR OVC005 21/21 A2986 RMK AO2 RAB45 CIG 004V009 SLP107 P0000 T02110206
2026-04-30 07:48:00,SPECI KCXO 300748Z AUTO 36005KT 2 1/2SM -RA BR OVC005 21/21 A2986 RMK AO2 RAB45 CIG 004V009 P0000
2026-04-30 07:12:00,SPECI KCXO 300712Z AUTO 01006KT 3SM BR OVC004 21/21 A2985 RMK AO2 T02110206
2026-04-30 06:53:00,METAR KCXO 300653Z AUTO 36004KT 2 1/2SM BR OVC004 21/21 A2985 RMK AO2 SLP105 T02110211
2026-04-30 06:19:00,SPECI KCXO 300619Z AUTO 33004KT 2 1/2SM BR OVC004 21/21 A2986 RMK AO2 T02110211
2026-04-30 06:00:00,SPECI KCXO 300600Z AUTO 33004KT 4SM BR OVC004 21/21 A2987 RMK AO2 T02110211
2026-04-30 05:53:00,METAR KCXO 300553Z AUTO 32003KT 4SM BR OVC005 21/21 A2986 RMK AO2 SLP109 60000 T02110206 10278 20211 403060211 58005
2026-04-30 04:53:00,METAR KCXO 300453Z AUTO 32004KT 6SM BR OVC006 22/21 A2988 RMK AO2 SLP116 T02170211
2026-04-30 04:28:00,SPECI KCXO 300428Z AUTO 33008KT 7SM BKN006 BKN035 OVC060 22/21 A2988 RMK AO2 T02170211
2026-04-30 04:05:00,SPECI KCXO 300405Z AUTO 35003KT 7SM SCT006 SCT035 BKN060 22/22 A2988 RMK AO2 T02220217
2026-04-30 03:53:00,METAR KCXO 300353Z AUTO 35006KT 8SM BKN006 BKN020 OVC035 22/22 A2988 RMK AO2 RAE02B24E33 SLP114 P0000 T02220217
2026-04-30 03:50:00,SPECI KCXO 300350Z AUTO 34006KT 8SM BKN006 BKN020 OVC032 22/22 A2988 RMK AO2 RAE02B24E33 P0000
2026-04-30 03:34:00,SPECI KCXO 300334Z AUTO 36008KT 8SM SCT006 OVC020 23/22 A2987 RMK AO2 RAE02B24E33 P0000 T02280222
2026-04-30 02:53:00,METAR KCXO 300253Z AUTO 00000KT 7SM -RA OVC024 24/23 A2986 RMK AO2 RAB0157 SLPNO P0000 60000 T02440233 53018
2026-04-30 02:23:00,SPECI KCXO 300223Z AUTO 00000KT 8SM -RA BKN029 OVC035 26/23 A2985 RMK AO2 RAB0157 P0000 T02610228
2026-04-30 01:53:00,METAR KCXO 300153Z AUTO 17006KT 10SM OVC032 26/22 A2983 RMK AO2 SLP097 T02610222
2026-04-30 00:53:00,METAR KCXO 300053Z 14003KT 10SM OVC036 27/23 A2981 RMK AO2 SLP091 T02670228
2026-04-29 23:53:00,METAR KCXO 292353Z 14003KT 9SM FEW039 OVC048 28/23 A2981 RMK AO2 SLP090 60000 T02780233 10306 20278 58002
2026-04-29 22:53:00,METAR KCXO 292253Z 14003KT 9SM BKN035 OVC048 28/23 A2980 RMK AO2 RAB11E20 SLP088 P0000 T02780233
2026-04-29 21:53:00,METAR KCXO 292153Z 16006KT 10SM FEW038 OVC060 29/23 A2983 RMK AO2 SLP098 T02890233
2026-04-29 20:53:00,METAR KCXO 292053Z 17011KT 9SM BKN075 29/23 A2982 RMK AO2 SLP092 T02940228 58032
2026-04-29 19:53:00,METAR KCXO 291953Z 17005KT 9SM FEW034 OVC046 30/22 A2985 RMK AO2 SLP103 T03000222
2026-04-29 18:53:00,METAR KCXO 291853Z 20005KT 10SM BKN042 OVC049 30/22 A2988 RMK AO2 SLP114 T03000217
2026-04-29 18:14:00,SPECI KCXO 291814Z 17006KT 10SM SCT027 BKN036 OVC047 29/22 A2990 RMK AO2 T02890217
2026-04-29 18:05:00,SPECI KCXO 291805Z 19005KT 8SM BKN027 BKN036 OVC045 28/22 A2991 RMK AO2 T02830222
2026-04-29 17:53:00,METAR KCXO 291753Z 15007KT 8SM SCT027 OVC036 28/23 A2991 RMK AO2 SLP125 6//// T02830228 58007
2026-04-29 17:40:00,SPECI KCXO 291740Z 20004KT 8SM SCT025 BKN034 OVC041 28/23 A2992 RMK AO2 T02830228
2026-04-29 16:53:00,METAR KCXO 291653Z AUTO 10SM SCT024 BKN029 OVC070 28/22 A2993 RMK AO2 SLP130 T02780222 $
2026-04-29 16:46:00,SPECI KCXO 291646Z AUTO 10SM SCT022 BKN027 OVC070 28/22 A2993 RMK AO2 T02780222 $
2026-04-29 16:36:00,SPECI KCXO 291636Z AUTO 16005KT 10SM SCT022 BKN033 OVC070 28/22 A2993 RMK AO2 T02780222 $
2026-04-29 16:24:00,SPECI KCXO 291624Z AUTO 16004KT 10SM SCT022 BKN027 OVC070 27/22 A2993 RMK AO2 T02720222 $
2026-04-29 15:53:00,METAR KCXO 291553Z COR 14006KT 10SM SCT021 BKN033 OVC065 27/22 A2993 RMK AO2 SLP132 T02720222 $
2026-04-29 15:51:00,SPECI KCXO 291551Z AUTO 14005KT FEW021 BKN033 OVC065 27/22 A2993 RMK AO2 PWINO $
2026-04-29 14:53:00,METAR KCXO 291453Z AUTO 19005KT 10SM FEW016 BKN021 BKN026 A2992 RMK AO2 SLPNO 6//// 53010 $
2026-04-29 14:29:00,SPECI KCXO 291429Z AUTO 15005KT 10SM SCT014 BKN026 A2991 RMK AO2 PNO $
2026-04-29 14:19:00,SPECI KCXO 291419Z 09003KT 9SM BKN014 OVC024 26/23 A2991 RMK AO2 T02610228
2026-04-29 13:53:00,METAR KCXO 291353Z 08003KT 9SM SCT014 OVC022 26/22 A2991 RMK AO2 SLP126 T02560222
2026-04-29 12:53:00,METAR KCXO 291253Z 12005KT 7SM BKN024 OVC060 24/23 A2989 RMK AO2 SLP119 T02390228
2026-04-29 12:51:00,SPECI KCXO 291251Z 12005KT 7SM BKN024 OVC060 24/23 A2990 RMK AO2
2026-04-29 12:35:00,SPECI KCXO 291235Z 11003KT 6SM BR FEW019 SCT024 OVC060 23/22 A2990 RMK AO2 T02330222
2026-04-29 11:53:00,METAR KCXO 291153Z 00000KT 6SM BR BKN016 OVC024 23/22 A2989 RMK AO2 SLP118 T02330222 10250 20233 53006
2026-04-29 10:53:00,METAR KCXO 291053Z 00000KT 8SM SCT016 OVC022 23/22 A2988 RMK AO2 SLP112 T02330222 $
2026-04-29 09:53:00,METAR KCXO 290953Z AUTO 17005KT 10SM OVC022 24/22 A2986 RMK AO2 SLP108 T02440222 $
2026-04-29 08:53:00,METAR KCXO 290853Z AUTO 18004KT 10SM BKN017 OVC022 24/22 A2987 RMK AO2 SLP111 T02440222 55017 $
2026-04-29 08:34:00,SPECI KCXO 290834Z AUTO 20006KT 10SM SCT017 BKN021 24/22 A2987 RMK AO2 T02440222 $
2026-04-29 08:16:00,SPECI KCXO 290816Z AUTO 18007KT 10SM SCT021 24/22 A2986 RMK AO2 T02440222 $
2026-04-29 07:53:00,METAR KCXO 290753Z AUTO 16008KT 9SM OVC021 24/23 A2986 RMK AO2 SLP106 T02440228 $
2026-04-29 06:53:00,METAR KCXO 290653Z AUTO 14005KT 10SM OVC023 24/22 A2990 RMK AO2 SLP119 T02440222 $
2026-04-29 05:53:00,METAR KCXO 290553Z AUTO 12005KT 10SM OVC023 25/22 A2992 RMK AO2 SLP128 T02500222 10306 20239 403390233 53005 $
2026-04-29 05:01:00,SPECI KCXO 290501Z AUTO 13004KT 10SM BKN023 24/22 A2991 RMK AO2 T02440222 $
2026-04-29 04:53:00,METAR KCXO 290453Z AUTO 14004KT 10SM SCT022 24/22 A2991 RMK AO2 SLP126 T02440222 $
2026-04-29 04:29:00,SPECI KCXO 290429Z AUTO 16005KT 10SM SCT024 24/22 A2991 RMK AO2 T02440217 $
2026-04-29 03:53:00,METAR KCXO 290353Z AUTO 16005KT 10SM BKN024 25/22 A2992 RMK AO2 SLPNO T02500222 $
2026-04-29 03:24:00,SPECI KCXO 290324Z AUTO 16003KT 10SM BKN025 26/22 A2992 RMK AO2 T02560222 $
2026-04-29 02:53:00,METAR KCXO 290253Z AUTO 15005KT 10SM CLR 26/22 A2991 RMK AO2 SLP124 T02560222 53017 $
2026-04-29 01:53:00,METAR KCXO 290153Z AUTO 15007KT 10SM CLR 27/22 A2988 RMK AO2 SLP113 T02670222 $
2026-04-29 00:53:00,METAR KCXO 290053Z 16013KT 10SM CLR 28/22 A2987 RMK AO2 SLP109 T02830222 $
2026-04-28 23:53:00,METAR KCXO 282353Z 17015KT 10SM CLR 31/21 A2986 RMK AO2 SLP106 T03060206 10339 20306 55006 $
2026-04-28 22:53:00,METAR KCXO 282253Z 19015G20KT 10SM CLR 32/21 A2985 RMK AO2 SLP103 T03220211 $
2026-04-28 21:53:00,METAR KCXO 282153Z 17012G22KT 10SM FEW041 32/22 A2985 RMK AO2 PK WND 15027/2103 SLP105 T03220222 $
2026-04-28 20:53:00,METAR KCXO 282053Z 15016G24KT 10SM CLR 33/22 A2988 RMK AO2 PK WND 16026/2035 SLP112 T03330217 $
2026-04-28 19:53:00,METAR KCXO 281953Z 17016G23KT 10SM CLR 34/21 A2990 RMK AO2 SLP122 T03390211 $
2026-04-28 18:53:00,METAR KCXO 281853Z 16018G25KT 10SM CLR 33/22 A2992 RMK AO2 PK WND 16026/1836 SLP126 T03330217
2026-04-28 17:53:00,METAR KCXO 281753Z 20013G21KT 10SM CLR 33/21 A2994 RMK AO2 SLP133 T03280211 10328 20233 $
2026-04-28 16:53:00,METAR KCXO 281653Z 17009G20KT 10SM CLR 32/22 A2995 RMK AO2 SLP138 T03170217 $
2026-04-28 15:59:00,SPECI KCXO 281559Z 16012KT 10SM FEW015 29/22 A2996 RMK AO2 T02890217 $
2026-04-28 14:53:00,METAR KCXO 281453Z 17014KT 10SM CLR 28/22 A2995 RMK AO2 SLP136 T02780222 50004
2026-04-28 14:34:00,SPECI KCXO 281434Z 16013G19KT 10SM SCT015 27/22 A2995 RMK AO2 T02670222
2026-04-28 13:53:00,METAR KCXO 281353Z 15010KT 10SM BKN012 26/23 A2995 RMK AO2 SLP137 T02560228
2026-04-28 13:49:00,SPECI KCXO 281349Z 16009KT 10SM BKN012 26/23 A2995 RMK AO2
2026-04-28 12:53:00,METAR KCXO 281253Z 15007KT 8SM CLR 24/23 A2993 RMK AO2 SLP132 T02390228
2026-04-28 12:32:00,SPECI KCXO 281232Z 15006KT 7SM SCT014 24/23 A2993 RMK AO2 T02390228
2026-04-28 11:53:00,METAR KCXO 281153Z 13005KT 6SM BR OVC014 23/23 A2992 RMK AO2 SLP127 T02330228 10244 20233 53008
2026-04-28 11:30:00,SPECI KCXO 281130Z 14006KT 7SM OVC014 24/23 A2991 RMK AO2 T02390228
2026-04-28 10:53:00,METAR KCXO 281053Z 14005KT 8SM OVC016 24/23 A2989 RMK AO2 SLP118 T02390228
2026-04-28 09:53:00,METAR KCXO 280953Z AUTO 15006KT 8SM OVC018 24/23 A2988 RMK AO2 SLP115 T02390228
2026-04-28 09:07:00,SPECI KCXO 280907Z AUTO 16008KT 9SM BKN020 24/23 A2989 RMK AO2 T02440233
2026-04-28 08:53:00,METAR KCXO 280853Z AUTO 16006KT 9SM FEW020 24/23 A2989 RMK AO2 SLP118 T02440233 56012
2026-04-28 07:53:00,METAR KCXO 280753Z AUTO 14005KT 8SM FEW010 24/23 A2990 RMK AO2 SLP122 T02390233
2026-04-28 06:53:00,METAR KCXO 280653Z AUTO 14008KT 8SM FEW024 24/23 A2991 RMK AO2 SLP125 T02390233
2026-04-28 06:42:00,SPECI KCXO 280642Z AUTO 13004KT 8SM FEW016 SCT024 24/23 A2992 RMK AO2 T02390233
2026-04-28 05:53:00,METAR KCXO 280553Z AUTO 10005KT 8SM OVC025 24/23 A2993 RMK AO2 SLP130 T02390228 10283 20239 403280239 51014
2026-04-28 05:12:00,SPECI KCXO 280512Z AUTO 12005KT 9SM BKN024 24/23 A2992 RMK AO2 T02440228
2026-04-28 04:53:00,METAR KCXO 280453Z AUTO 13005KT 9SM FEW011 SCT023 24/23 A2992 RMK AO2 SLP127 T02440228
2026-04-28 04:06:00,SPECI KCXO 280406Z AUTO 16009KT 10SM FEW012 BKN024 25/23 A2991 RMK AO2 T02500228
2026-04-28 03:53:00,METAR KCXO 280353Z AUTO 15009KT 10SM FEW012 SCT023 25/23 A2991 RMK AO2 SLP124 T02500228
2026-04-28 02:53:00,METAR KCXO 280253Z AUTO 15010KT 10SM CLR 26/23 A2988 RMK AO2 SLP116 T02560228 53014
2026-04-28 01:53:00,METAR KCXO 280153Z AUTO 14010KT 10SM SCT036 27/23 A2987 RMK AO2 SLP111 T02670228
2026-04-28 00:53:00,METAR KCXO 280053Z 13007KT 10SM BKN037 28/23 A2985 RMK AO2 SLP105 T02780228
2026-04-27 23:53:00,METAR KCXO 272353Z 12005KT 10SM OVC037 28/23 A2984 RMK AO2 SLP101 T02830233 10328 20283 53002
2026-04-27 22:53:00,METAR KCXO 272253Z 16010KT 10SM FEW038 BKN050 30/23 A2983 RMK AO2 SLP098 T03000228
2026-04-27 21:53:00,METAR KCXO 272153Z 16012KT 9SM FEW043 BKN050 31/23 A2983 RMK AO2 SLP097 T03110228
2026-04-27 20:53:00,METAR KCXO 272053Z 17009KT 10SM OVC046 31/22 A2984 RMK AO2 SLP099 T03110222 58012
2026-04-27 19:53:00,METAR KCXO 271953Z 19009KT 9SM SCT037 BKN048 31/23 A2985 RMK AO2 SLP103 T03110228
2026-04-27 18:53:00,METAR KCXO 271853Z 17011KT 9SM SCT033 BKN042 BKN049 31/23 A2986 RMK AO2 SLP108 T03110228
2026-04-27 18:24:00,SPECI KCXO 271824Z 17013KT 9SM SCT030 BKN040 31/23 A2987 RMK AO2 T03060228
2026-04-27 17:53:00,METAR KCXO 271753Z 17012G17KT 9SM BKN027 OVC034 30/23 A2987 RMK AO2 SLP111 T03000233 10300 20250 50002
2026-04-27 17:49:00,SPECI KCXO 271749Z 16010KT 9SM BKN027 OVC034 29/23 A2988 RMK AO2
2026-04-27 17:37:00,SPECI KCXO 271737Z 18007G17KT 8SM SCT027 OVC034 29/23 A2988 RMK AO2 T02940228
2026-04-27 16:53:00,METAR KCXO 271653Z 17009KT 9SM SCT021 OVC028 29/23 A2988 RMK AO2 SLP112 T02940233
2026-04-27 15:53:00,METAR KCXO 271553Z 17011KT 10SM SCT022 OVC029 28/23 A2987 RMK AO2 SLP109 T02830233
2026-04-27 14:53:00,METAR KCXO 271453Z 19011KT 10SM BKN018 BKN025 OVC030 27/23 A2986 RMK AO2 SLP108 T02720228 51016
2026-04-27 14:42:00,SPECI KCXO 271442Z 21011G16KT 10SM BKN018 OVC025 27/23 A2986 RMK AO2 T02720228
2026-04-27 13:53:00,METAR KCXO 271353Z 18006KT 9SM BKN017 OVC024 26/23 A2985 RMK AO2 SLP104 T02610233
2026-04-27 12:53:00,METAR KCXO 271253Z 16007KT 9SM BKN015 OVC023 25/23 A2983 RMK AO2 SLP097 T02500233
2026-04-27 11:53:00,METAR KCXO 271153Z 17006KT 10SM SCT017 BKN023 OVC028 25/23 A2981 RMK AO2 SLP092 T02500228 10250 20250 53012 $
2026-04-27 10:53:00,METAR KCXO 271053Z 16007KT 10SM SCT018 OVC023 25/23 A2979 RMK AO2 SLP084 T02500228 $
2026-04-27 09:53:00,METAR KCXO 270953Z AUTO 16007KT 10SM SCT018 OVC025 25/22 A2978 RMK AO2 SLP081 T02500222 $
2026-04-27 08:53:00,METAR KCXO 270853Z AUTO 16006KT 10SM BKN016 OVC023 25/22 A2978 RMK AO2 SLP080 T02500222 58009 $
2026-04-27 07:53:00,METAR KCXO 270753Z AUTO 18006KT 10SM OVC018 25/22 A2979 RMK AO2 SLP083 T02500222 $
2026-04-27 06:53:00,METAR KCXO 270653Z AUTO 16007KT 10SM OVC018 25/22 A2980 RMK AO2 SLP088 T02500222 $
2026-04-27 05:53:00,METAR KCXO 270553Z AUTO 17007KT 10SM BKN017 OVC023 25/22 A2981 RMK AO2 SLP089 T02500222 10278 20239 403060228 53004 $
2026-04-27 04:53:00,METAR KCXO 270453Z AUTO 15010KT 10SM OVC022 24/22 A2980 RMK AO2 SLP088 T02440222 $
2026-04-27 04:20:00,SPECI KCXO 270420Z AUTO 16010KT 10SM SCT013 OVC020 24/22 A2980 RMK AO2 T02440222 $
2026-04-27 03:53:00,METAR KCXO 270353Z AUTO 17009KT 10SM OVC014 24/22 A2980 RMK AO2 SLP086 T02440222 $
2026-04-27 03:44:00,SPECI KCXO 270344Z AUTO 15008KT 10SM OVC015 24/22 A2979 RMK AO2 T02440222 $
2026-04-27 03:07:00,SPECI KCXO 270307Z AUTO 15009G18KT 10SM BKN014 BKN022 24/22 A2980 RMK AO2 T02440222 $
2026-04-27 02:53:00,METAR KCXO 270253Z AUTO 14010KT 10SM FEW015 24/22 A2980 RMK AO2 SLP087 T02440222 53012 $
2026-04-27 01:53:00,METAR KCXO 270153Z AUTO 14008KT 10SM CLR 25/22 A2977 RMK AO2 SLP079 T02500217 $
2026-04-27 00:53:00,METAR KCXO 270053Z 15008KT 10SM CLR 26/22 A2976 RMK AO2 SLP074 T02610217 $
2026-04-26 23:53:00,METAR KCXO 262353Z 14009KT 10SM CLR 28/22 A2976 RMK AO2 SLP074 60000 T02780222 10306 20261 58009 $
2026-04-26 22:53:00,METAR KCXO 262253Z 15011KT 10SM SCT025 29/23 A2977 RMK AO2 SLP077 T02890228 $
2026-04-26 21:53:00,METAR KCXO 262153Z 15011KT 10SM SCT027 BKN033 BKN041 29/22 A2978 RMK AO2 SLP080 T02890222 $
2026-04-26 20:53:00,METAR KCXO 262053Z 17014KT 10SM SCT023 29/23 A2979 RMK AO2 SLP083 60000 T02940228 56021 $
2026-04-26 20:26:00,SPECI KCXO 262026Z 16011G17KT 10SM FEW023 SCT028 BKN035 30/23 A2979 RMK AO2 T03000233 $
2026-04-26 19:53:00,METAR KCXO 261953Z 11009KT 10SM BKN023 BKN029 BKN037 29/23 A2980 RMK AO2 SLP088 T02940233 $
2026-04-26 19:46:00,SPECI KCXO 261946Z 14009KT 10SM SCT023 BKN029 BKN036 29/23 A2981 RMK AO2 T02940228 $
2026-04-26 19:07:00,SPECI KCXO 261907Z 15013G18KT 10SM FEW022 SCT027 BKN039 28/22 A2982 RMK AO2 T02830222 $
2026-04-26 18:53:00,METAR KCXO 261853Z 15011KT 10SM BKN024 BKN034 29/23 A2983 RMK AO2 RAE15 SLP098 P0000 T02890233 $
2026-04-26 18:17:00,SPECI KCXO 261817Z 14006KT 10SM FEW019 BKN030 BKN038 27/24 A2984 RMK AO2 RAE15 P0000 T02720239 $
2026-04-26 18:06:00,SPECI KCXO 261806Z 12006KT 10SM -RA SCT019 BKN028 OVC037 26/23 A2985 RMK AO2 P0000 T02610233 $
2026-04-26 17:53:00,METAR KCXO 261753Z 12007KT 7SM -RA FEW021 BKN033 OVC039 26/23 A2985 RMK AO2 RAB46 SLP105 P0000 60000 T02610228 10272 20233 50007 $
2026-04-26 17:04:00,SPECI KCXO 261704Z 13008KT 10SM FEW016 BKN033 OVC046 26/23 A2986 RMK AO2 T02610228 $
2026-04-26 16:53:00,METAR KCXO 261653Z 09008KT 10SM SCT016 BKN022 OVC031 26/23 A2986 RMK AO2 SLP109 T02610228 $
2026-04-26 16:24:00,SPECI KCXO 261624Z 09006KT 10SM BKN018 OVC043 27/23 A2986 RMK AO2 T02670228 $
2026-04-26 15:53:00,METAR KCXO 261553Z 14006KT 10SM OVC041 27/23 A2985 RMK AO2 SLP105 T02670228 $
2026-04-26 15:01:00,SPECI KCXO 261501Z 16009KT 10SM BKN010 OVC031 25/23 A2984 RMK AO2 T02500228 $
2026-04-26 14:53:00,METAR KCXO 261453Z 16007KT 10SM BKN029 OVC039 25/23 A2983 RMK AO2 SLP099 T02500233 51005 $
2026-04-26 14:51:00,SPECI KCXO 261451Z 15008KT 10SM BKN029 OVC039 25/23 A2983 RMK AO2 $
2026-04-26 13:53:00,METAR KCXO 261353Z 13007KT 10SM FEW007 FEW024 OVC036 24/23 A2983 RMK AO2 SLP097 T02390228 $
2026-04-26 13:41:00,SPECI KCXO 261341Z 13006KT 9SM FEW007 SCT025 OVC036 24/23 A2983 RMK AO2 T02390228 $
2026-04-26 13:14:00,SPECI KCXO 261314Z 12005KT 7SM FEW007 BKN018 OVC028 23/23 A2982 RMK AO2 T02330228 $
2026-04-26 12:53:00,METAR KCXO 261253Z 14003KT 7SM FEW013 SCT019 OVC025 23/22 A2982 RMK AO2 SLP094 T02330222 $
2026-04-26 11:53:00,METAR KCXO 261153Z 00000KT 9SM OVC027 23/22 A2980 RMK AO2 SLP087 T02330222 10233 20228 53010 $
2026-04-26 10:53:00,METAR KCXO 261053Z 14005KT 10SM FEW020 BKN025 OVC032 23/22 A2978 RMK AO2 SLP081 T02330222 $
2026-04-26 09:53:00,METAR KCXO 260953Z AUTO 14005KT 10SM OVC022 23/22 A2977 RMK AO2 SLP075 T02330222 $
2026-04-26 08:53:00,METAR KCXO 260853Z AUTO 15004KT 10SM OVC021 23/22 A2977 RMK AO2 SLP077 T02330222 53002 $
2026-04-26 07:53:00,METAR KCXO 260753Z AUTO 13005KT 9SM OVC020 23/22 A2976 RMK AO2 SLP073 T02280222 $
2026-04-26 06:53:00,METAR KCXO 260653Z AUTO 08005KT 8SM OVC017 23/22 A2977 RMK AO2 SLP075 T02280222 $
2026-04-26 05:53:00,METAR KCXO 260553Z AUTO 12005KT 8SM BKN016 23/22 A2976 RMK AO2 SLP075 T02280222 10289 20228 403280222 50005 $
2026-04-26 04:53:00,METAR KCXO 260453Z AUTO 13004KT 8SM BKN015 23/22 A2978 RMK AO2 SLP079 T02330222 $
2026-04-26 04:50:00,SPECI KCXO 260450Z AUTO 13005KT 8SM BKN013 23/22 A2978 RMK AO2 $
2026-04-26 03:53:00,METAR KCXO 260353Z AUTO 15006KT 9SM CLR 23/22 A2975 RMK AO2 SLP069 T02330222 $
2026-04-26 02:53:00,METAR KCXO 260253Z AUTO 12004KT 10SM CLR 24/22 A2976 RMK AO2 SLP073 T02440222 53015 $
2026-04-26 01:53:00,METAR KCXO 260153Z AUTO 13006KT 10SM BKN031 BKN043 26/22 A2974 RMK AO2 SLP067 T02560222 $
2026-04-26 00:53:00,METAR KCXO 260053Z 14009KT 9SM CLR 27/22 A2972 RMK AO2 SLP059 T02670222 $
2026-04-25 23:53:00,METAR KCXO 252353Z 16012G18KT 9SM CLR 29/23 A2972 RMK AO2 SLP058 T02890228 10328 20289 58004 $
2026-04-25 22:53:00,METAR KCXO 252253Z 13010KT 10SM CLR 30/23 A2972 RMK AO2 SLP061 T03000233 $
2026-04-25 21:53:00,METAR KCXO 252153Z 14008KT 10SM FEW043 SCT050 31/22 A2972 RMK AO2 SLP060 T03110222 $
2026-04-25 20:53:00,METAR KCXO 252053Z 16008KT 10SM FEW041 32/22 A2973 RMK AO2 SLP062 T03170217 58024 $
2026-04-25 19:53:00,METAR KCXO 251953Z 16006KT 10SM CLR 31/22 A2975 RMK AO2 SLP071 T03110222 $
2026-04-25 18:53:00,METAR KCXO 251853Z VRB04KT 10SM BKN032 BKN041 30/22 A2978 RMK AO2 SLP080 T03000217 $
2026-04-25 17:53:00,METAR KCXO 251753Z 21005KT 10SM SCT032 SCT041 BKN048 29/22 A2980 RMK AO2 SLP087 T02890217 10306 20228 50003 $
2026-04-25 16:53:00,METAR KCXO 251653Z 21006KT 10SM SCT029 BKN037 28/22 A2980 RMK AO2 SLP088 T02830217 $
2026-04-25 15:53:00,METAR KCXO 251553Z 19010KT 9SM FEW023 BKN030 28/22 A2979 RMK AO2 SLP084 T02830217 $
2026-04-25 15:48:00,SPECI KCXO 251548Z 19009KT 4SM HZ SCT023 OVC030 28/22 A2979 RMK AO2 $
2026-04-25 15:15:00,SPECI KCXO 251515Z 18009KT 4SM HZ BKN019 BKN026 27/22 A2979 RMK AO2 T02720222 $
2026-04-25 15:08:00,SPECI KCXO 251508Z 19012KT 4SM HZ SCT020 28/22 A2978 RMK AO2 T02830222 $
2026-04-25 15:00:00,SPECI KCXO 251500Z 19008G17KT 160V230 4SM HZ SCT016 BKN022 28/23 A2979 RMK AO2 T02780228 $
2026-04-25 14:53:00,METAR KCXO 251453Z 19010G17KT 3SM HZ SCT014 27/22 A2978 RMK AO2 SLP081 T02670222 58001 $
2026-04-25 14:45:00,SPECI KCXO 251445Z 19008KT 3SM HZ SCT013 BKN023 26/23 A2978 RMK AO2 T02610228 $
2026-04-25 14:36:00,SPECI KCXO 251436Z 21009KT 3SM HZ BKN011 BKN017 26/22 A2979 RMK AO2 T02560222 $
2026-04-25 14:00:00,SPECI KCXO 251400Z VRB06KT 2SM BR OVC006 24/23 A2980 RMK AO2 CIG 005V011 T02390228 $
2026-04-25 13:53:00,METAR KCXO 251353Z 19005KT 1SM BR OVC006 24/23 A2980 RMK AO2 CIG 004V008 SLP088 T02390228 $
2026-04-25 13:46:00,SPECI KCXO 251346Z 19004KT 1SM BR OVC006 23/23 A2980 RMK AO2 CIG 004V008 T02330228 $
2026-04-25 12:53:00,METAR KCXO 251253Z 17007KT 1SM BR BKN004 OVC016 23/22 A2979 RMK AO2 SLP084 T02280222 $
2026-04-25 11:53:00,METAR KCXO 251153Z 08004KT 1SM BR OVC004 23/22 A2979 RMK AO2 SLP085 T02280217 10228 20222 53012 $
2026-04-25 11:32:00,SPECI KCXO 251132Z 08004KT 1 1/2SM BR SCT005 OVC008 23/22 A2979 RMK AO2 T02280217 $
2026-04-25 11:23:00,SPECI KCXO 251123Z 07004KT 2SM BR BKN008 OVC032 23/22 A2979 RMK AO2 CIG 005V013 T02280217 $
2026-04-25 11:20:00,SPECI KCXO 251120Z 07005KT 3SM BR BKN011 OVC032 23/22 A2978 RMK AO2 CIG 005V013 T02280217 $
2026-04-25 10:53:00,METAR KCXO 251053Z 08005KT 3SM BR OVC031 22/21 A2977 RMK AO2 SLP078 T02220211 $
2026-04-25 10:18:00,SPECI KCXO 251018Z AUTO 00000KT 5SM BR BKN030 22/22 A2976 RMK AO2 T02220217 $
2026-04-25 09:53:00,METAR KCXO 250953Z AUTO 18004KT 6SM BR FEW013 OVC029 23/22 A2975 RMK AO2 SLP071 T02280217 $
2026-04-25 08:53:00,METAR KCXO 250853Z AUTO 15003KT 6SM BR OVC025 23/22 A2976 RMK AO2 SLP072 T02280217 50000 $
2026-04-25 07:53:00,METAR KCXO 250753Z AUTO 16003KT 6SM BR OVC019 23/22 A2976 RMK AO2 SLP073 T02280222 $
2026-04-25 07:12:00,SPECI KCXO 250712Z AUTO 11004KT 7SM OVC015 23/22 A2977 RMK AO2 T02280217
2026-04-25 06:53:00,METAR KCXO 250653Z AUTO 12005KT 7SM OVC011 23/22 A2976 RMK AO2 SLP074 T02280217
2026-04-25 06:17:00,SPECI KCXO 250617Z AUTO 12004KT 6SM BR BKN011 BKN017 22/21 A2975 RMK AO2 T02220211
2026-04-25 05:53:00,METAR KCXO 250553Z AUTO 14005KT 6SM BR CLR 22/21 A2976 RMK AO2 SLP072 T02220206 10267 20217 403000211 53005
2026-04-25 04:53:00,METAR KCXO 250453Z AUTO 18006KT 9SM FEW014 23/22 A2974 RMK AO2 SLP067 T02330217
2026-04-25 03:53:00,METAR KCXO 250353Z AUTO 16006KT 10SM FEW023 23/22 A2974 RMK AO2 SLP067 T02330217
2026-04-25 03:41:00,SPECI KCXO 250341Z AUTO 17006KT 10SM SCT023 24/22 A2974 RMK AO2 T02390217
2026-04-25 02:53:00,METAR KCXO 250253Z AUTO 14004KT 10SM OVC022 24/22 A2974 RMK AO2 SLP068 T02390217 53012
2026-04-25 02:39:00,SPECI KCXO 250239Z AUTO 14005KT 10SM BKN022 OVC033 24/22 A2973 RMK AO2 T02390217
2026-04-25 01:53:00,METAR KCXO 250153Z AUTO 15005KT 10SM FEW025 SCT030 BKN047 24/22 A2973 RMK AO2 SLP063 T02390217
2026-04-25 01:27:00,SPECI KCXO 250127Z 14006KT 10SM SCT024 BKN031 OVC042 25/22 A2972 RMK AO2 T02500217
2026-04-25 01:12:00,SPECI KCXO 250112Z 13006KT 10SM BKN025 OVC035 25/22 A2972 RMK AO2 T02500222
2026-04-25 00:53:00,METAR KCXO 250053Z 13005KT 10SM SCT025 BKN035 26/22 A2971 RMK AO2 SLP059 T02560217
2026-04-25 00:07:00,SPECI KCXO 250007Z 14010KT 10SM SCT024 BKN034 26/22 A2971 RMK AO2 T02610222
2026-04-24 23:53:00,METAR KCXO 242353Z 15009KT 10SM BKN024 OVC034 27/22 A2971 RMK AO2 SLP056 T02670222 10300 20267 56009
2026-04-24 23:35:00,SPECI KCXO 242335Z 14012KT 10SM BKN023 BKN033 28/22 A2971 RMK AO2 T02780222
2026-04-24 22:53:00,METAR KCXO 242253Z 14009KT 10SM CLR 28/22 A2971 RMK AO2 SLP059 T02780222
2026-04-24 21:53:00,METAR KCXO 242153Z 16010KT 10SM FEW034 30/22 A2972 RMK AO2 SLP058 T03000217
2026-04-24 20:53:00,METAR KCXO 242053Z 15010KT 10SM BKN036 OVC060 29/21 A2973 RMK AO2 SLP064 T02890211 58018
2026-04-24 19:53:00,METAR KCXO 241953Z 17010KT 10SM SCT035 OVC050 29/21 A2975 RMK AO2 SLP071 T02890211
2026-04-24 18:53:00,METAR KCXO 241853Z 17009G15KT 10SM BKN048 29/21 A2977 RMK AO2 SLP077 T02940206
2026-04-24 17:53:00,METAR KCXO 241753Z 20009KT 10SM SCT037 BKN045 28/21 A2979 RMK AO2 SLP083 T02830206 10294 20217 58014
2026-04-24 17:13:00,SPECI KCXO 241713Z 18009G19KT 10SM BKN030 BKN037 28/21 A2980 RMK AO2 T02830206
2026-04-24 16:53:00,METAR KCXO 241653Z 20010G17KT 10SM BKN027 28/21 A2980 RMK AO2 SLP087 T02830206
2026-04-24 16:35:00,SPECI KCXO 241635Z 18013G21KT 10SM SCT026 28/21 A2980 RMK AO2 T02830206
2026-04-24 16:11:00,SPECI KCXO 241611Z 19011KT 10SM BKN025 28/21 A2981 RMK AO2 T02780211
2026-04-24 15:53:00,METAR KCXO 241553Z 19012G18KT 10SM FEW018 SCT036 27/21 A2982 RMK AO2 SLP095 T02670211
2026-04-24 15:35:00,SPECI KCXO 241535Z 18011G17KT 10SM SCT016 BKN036 27/22 A2982 RMK AO2 T02670217
2026-04-24 14:53:00,METAR KCXO 241453Z 19007KT 10SM BKN015 BKN022 OVC029 24/21 A2983 RMK AO2 SLP097 T02390211 51017
2026-04-24 13:53:00,METAR KCXO 241353Z 17005KT 10SM BKN013 OVC023 23/21 A2982 RMK AO2 SLP093 T02280211
2026-04-24 13:45:00,SPECI KCXO 241345Z 18005KT 10SM BKN013 OVC021 23/21 A2982 RMK AO2 T02280211
2026-04-24 12:53:00,METAR KCXO 241253Z 18005KT 10SM FEW006 BKN026 OVC050 22/21 A2980 RMK AO2 SLP087 T02220211
2026-04-24 12:01:00,SPECI KCXO 241201Z 18005KT 10SM FEW007 OVC019 22/21 A2978 RMK AO2 T02170206
2026-04-24 11:53:00,METAR KCXO 241153Z 17005KT 10SM OVC020 22/21 A2978 RMK AO2 SLP080 T02170206 10217 20211 55004
2026-04-24 10:53:00,METAR KCXO 241053Z 16004KT 10SM SCT009 SCT015 OVC020 22/21 A2977 RMK AO2 SLP079 T02170206
2026-04-24 10:30:00,SPECI KCXO 241030Z AUTO 17004KT 10SM SCT008 BKN015 OVC055 22/21 A2978 RMK AO2 T02170206
2026-04-24 10:23:00,SPECI KCXO 241023Z AUTO 16004KT 10SM SCT008 SCT015 OVC055 22/21 A2978 RMK AO2 T02170206
2026-04-24 09:53:00,METAR KCXO 240953Z AUTO 14004KT 10SM OVC055 22/21 A2977 RMK AO2 SLP079 T02170206
2026-04-24 08:53:00,METAR KCXO 240853Z AUTO 15005KT 10SM SCT016 OVC060 22/21 A2979 RMK AO2 SLP083 T02170206 58011
2026-04-24 07:53:00,METAR KCXO 240753Z AUTO 16006KT 10SM FEW032 BKN045 OVC050 22/21 A2980 RMK AO2 SLP085 T02170206
2026-04-24 07:22:00,SPECI KCXO 240722Z AUTO 14006KT 10SM FEW011 BKN043 OVC050 21/20 A2980 RMK AO2 T02110200
2026-04-24 07:15:00,SPECI KCXO 240715Z AUTO 14005KT 10SM BKN014 BKN021 OVC043 22/21 A2980 RMK AO2 T02170206
2026-04-24 07:02:00,SPECI KCXO 240702Z AUTO 16004KT 10SM SCT012 BKN019 BKN043 22/21 A2981 RMK AO2 T02170206
2026-04-24 06:53:00,METAR KCXO 240653Z AUTO 17004KT 10SM BKN012 BKN020 21/21 A2982 RMK AO2 SLP094 T02110206
2026-04-24 05:53:00,METAR KCXO 240553Z AUTO 16007KT 10SM SCT047 22/21 A2982 RMK AO2 SLP095 T02170206 10256 20217 402940206 58006
2026-04-24 05:41:00,SPECI KCXO 240541Z AUTO 17007KT 10SM FEW013 SCT022 22/21 A2982 RMK AO2 T02170206
2026-04-24 04:53:00,METAR KCXO 240453Z AUTO 16009KT 10SM BKN016 BKN022 22/21 A2983 RMK AO2 SLP099 T02220206
2026-04-24 03:53:00,METAR KCXO 240353Z AUTO 15007KT 10SM BKN017 22/21 A2984 RMK AO2 SLP103 T02220206
2026-04-24 02:53:00,METAR KCXO 240253Z AUTO 15010KT 10SM CLR 23/20 A2984 RMK AO2 SLP101 T02280200 53007
2026-04-24 01:53:00,METAR KCXO 240153Z AUTO 16011KT 10SM OVC060 24/20 A2983 RMK AO2 SLP097 T02390200
2026-04-24 00:53:00,METAR KCXO 240053Z 15011KT 10SM OVC060 24/19 A2982 RMK AO2 SLP094 T02440194
2026-04-23 23:53:00,METAR KCXO 232353Z 14011KT 10SM FEW050 BKN060 26/19 A2982 RMK AO2 SLP094 T02560194 10294 20256 55001
2026-04-23 22:53:00,METAR KCXO 232253Z 15017G22KT 10SM OVC060 27/20 A2981 RMK AO2 SLP091 T02720200
2026-04-23 21:53:00,METAR KCXO 232153Z 14011G20KT 10SM SCT038 SCT049 27/19 A2981 RMK AO2 SLP090 T02720194
2026-04-23 20:53:00,METAR KCXO 232053Z 17015G23KT 10SM FEW036 SCT060 29/21 A2982 RMK AO2 SLP096 T02940206 56026
2026-04-23 19:53:00,METAR KCXO 231953Z 16009G16KT 10SM BKN034 BKN041 OVC060 29/21 A2984 RMK AO2 SLP103 T02890206
2026-04-23 18:53:00,METAR KCXO 231853Z 16011KT 10SM SCT037 BKN046 BKN060 28/19 A2986 RMK AO2 SLP109 T02780194
2026-04-23 17:53:00,METAR KCXO 231753Z 16013KT 10SM SCT037 SCT045 SCT060 28/19 A2990 RMK AO2 RAE1654 SLP122 P0000 60000 T02830189 10294 20206 58013
2026-04-23 16:53:00,METAR KCXO 231653Z 17010KT 10SM -RA FEW029 SCT033 OVC050 27/20 A2994 RMK AO2 RAB06 SLP134 P0000 T02720200
2026-04-23 15:53:00,METAR KCXO 231553Z 17010KT 10SM BKN046 25/19 A2995 RMK AO2 SLP139 T02500194
2026-04-23 15:39:00,SPECI KCXO 231539Z 18011KT 10SM FEW017 SCT023 BKN046 25/20 A2995 RMK AO2 T02500200
2026-04-23 15:11:00,SPECI KCXO 231511Z 17008KT 10SM SCT016 BKN023 BKN039 24/21 A2994 RMK AO2 T02440206
2026-04-23 14:53:00,METAR KCXO 231453Z 16010KT 10SM SCT013 SCT019 BKN033 24/21 A2994 RMK AO2 SLP135 T02440206 50004
2026-04-23 14:39:00,SPECI KCXO 231439Z 16011KT 10SM BKN015 BKN021 24/21 A2994 RMK AO2 T02390206
2026-04-23 14:06:00,SPECI KCXO 231406Z 14010KT 10SM BKN010 BKN014 OVC020 23/21 A2994 RMK AO2 CIG 007V011 T02280206
2026-04-23 13:53:00,METAR KCXO 231353Z 14007KT 10SM OVC008 23/21 A2994 RMK AO2 CIG 006V012 SLP136 T02280211
2026-04-23 13:09:00,SPECI KCXO 231309Z 15007KT 10SM OVC005 21/21 A2995 RMK AO2 CIG 004V008 T02110206
2026-04-23 13:00:00,SPECI KCXO 231300Z 13004KT 7SM OVC004 21/21 A2994 RMK AO2 CIG 003V008 T02110206
2026-04-23 12:53:00,METAR KCXO 231253Z 13004KT 2SM BR OVC004 21/21 A2994 RMK AO2 SLP136 T02110206
2026-04-23 12:42:00,SPECI KCXO 231242Z 13005KT 2SM BR OVC004 21/20 A2994 RMK AO2 T02110200
2026-04-23 12:15:00,SPECI KCXO 231215Z 12005KT 2SM BR OVC006 21/20 A2993 RMK AO2 CIG 003V008 T02060200
2026-04-23 11:53:00,METAR KCXO 231153Z 13004KT 9SM BKN006 OVC019 21/20 A2993 RMK AO2 SLP131 70067 T02060200 10211 20206 53004
2026-04-23 10:53:00,METAR KCXO 231053Z 14004KT 10SM BKN009 OVC034 21/20 A2992 RMK AO2 CIG 005V012 SLP128 T02060200
2026-04-23 10:39:00,SPECI KCXO 231039Z 14005KT 10SM FEW006 BKN010 OVC027 21/20 A2992 RMK AO2 T02060200
2026-04-23 09:53:00,METAR KCXO 230953Z AUTO 13006KT 10SM FEW006 FEW011 OVC021 21/20 A2991 RMK AO2 SLP126 T02060200
2026-04-23 09:37:00,SPECI KCXO 230937Z AUTO 13006KT 10SM SCT008 OVC019 21/20 A2992 RMK AO2 T02060200
2026-04-23 08:53:00,METAR KCXO 230853Z AUTO 14005KT 10SM BKN009 OVC015 21/20 A2992 RMK AO2 CIG 006V011 SLP128 T02060200 56010
2026-04-23 08:04:00,SPECI KCXO 230804Z AUTO 14005KT 10SM BKN007 OVC015 21/20 A2992 RMK AO2 CIG 005V011 T02110200
2026-04-23 07:53:00,METAR KCXO 230753Z AUTO 14006KT 10SM SCT009 OVC017 21/20 A2993 RMK AO2 SLP131 T02060200
2026-04-23 06:53:00,METAR KCXO 230653Z AUTO 16006KT 10SM OVC017 21/20 A2995 RMK AO2 SLP137 T02110200
2026-04-23 05:53:00,METAR KCXO 230553Z AUTO 14005KT 9SM FEW007 SCT012 OVC017 21/21 A2996 RMK AO2 SLP142 T02110206 10211 20206 402940167 56007
2026-04-23 05:44:00,SPECI KCXO 230544Z AUTO 13004KT 9SM SCT007 OVC017 21/20 A2996 RMK AO2 T02110200
2026-04-23 04:53:00,METAR KCXO 230453Z AUTO 12005KT 9SM BKN007 BKN013 21/20 A2997 RMK AO2 CIG 005V010 SLP144 T02110200
2026-04-23 03:53:00,METAR KCXO 230353Z AUTO 11004KT 9SM BKN008 OVC016 21/20 A2998 RMK AO2 SLP147 T02060200
2026-04-23 03:45:00,SPECI KCXO 230345Z AUTO 12005KT 10SM SCT008 BKN016 21/20 A2997 RMK AO2 T02060200
2026-04-23 03:35:00,SPECI KCXO 230335Z AUTO 13003KT 10SM BKN008 BKN013 BKN022 21/20 A2997 RMK AO2 T02060200
2026-04-23 03:02:00,SPECI KCXO 230302Z AUTO 12006KT 10SM FEW007 BKN015 BKN024 21/20 A2998 RMK AO2 T02110200
2026-04-23 02:53:00,METAR KCXO 230253Z AUTO 14007KT 10SM FEW006 FEW015 SCT024 21/20 A2998 RMK AO2 SLP150 T02110200 53005
2026-04-23 02:26:00,SPECI KCXO 230226Z AUTO 13007KT 10SM SCT006 SCT010 BKN033 21/20 A2998 RMK AO2 T02110200
2026-04-23 01:53:00,METAR KCXO 230153Z AUTO 10005KT 10SM BKN006 BKN023 OVC030 21/20 A2998 RMK AO2 SLP149 T02110200
2026-04-23 00:53:00,METAR KCXO 230053Z 14007KT 10SM BKN007 21/21 A2997 RMK AO2 SLP146 T02110206
2026-04-23 00:51:00,SPECI KCXO 230051Z 13007KT 10SM BKN007 21/21 A2997 RMK AO2
2026-04-23 00:36:00,SPECI KCXO 230036Z 12007KT 10SM FEW007 21/21 A2996 RMK AO2 T02110206
2026-04-22 23:53:00,METAR KCXO 222353Z 12005KT 10SM FEW085 21/20 A2996 RMK AO2 LTG DSNT NW RAE39 TSE19 SLP143 P0001 60049 T02110200 10294 20206 50002
2026-04-22 23:28:00,SPECI KCXO 222328Z 14006KT 10SM -RA FEW040 OVC080 21/20 A2997 RMK AO2 LTG DSNT NW TSE19 P0001 T02060200
2026-04-22 23:19:00,SPECI KCXO 222319Z 13008KT 10SM VCTS -RA SCT032 SCT050 OVC080 21/20 A2997 RMK AO2 LTG DSNT E AND NW TSE19 PRESFR P0001 T02110200
2026-04-22 23:09:00,SPECI KCXO 222309Z 16009KT 9SM -TSRA FEW018 BKN029 OVC080 21/20 A2998 RMK AO2 LTG DSNT W AND NW P0001 T02110200
2026-04-22 23:02:00,SPECI KCXO 222302Z 14010KT 2 1/2SM -TSRA BR FEW018 BKN027 OVC049 21/19 A2998 RMK AO2 LTG DSNT W P0001 T02110194
2026-04-22 22:53:00,METAR KCXO 222253Z 15012G23KT 1/2SM +TSRA FG SCT010 BKN018 OVC039 21/19 A2998 RMK AO2 LTG DSNT NE AND W RAB46 TSB14 SLP151 P0048 T02110194
2026-04-22 22:46:00,SPECI KCXO 222246Z 18015G22KT 1 1/4SM -TSRA FEW009 BKN026 OVC048 22/19 A2998 RMK AO2 LTG DSNT NE AND SE RAB46 TSB14 P0016 T02220194
2026-04-22 22:44:00,SPECI KCXO 222244Z 19015G22KT 7SM TS SCT017 BKN026 OVC045 23/19 A2998 RMK AO2 LTG DSNT NE AND SE TSB14 T02280194
2026-04-22 22:20:00,SPECI KCXO 222220Z 14011G19KT 10SM TS FEW033 SCT047 24/19 A2997 RMK AO2 LTG DSNT NE AND SE AND SW TSB14 T02440194
2026-04-22 21:53:00,METAR KCXO 222153Z 11011G17KT 10SM VCTS BKN060 27/21 A2995 RMK AO2 LTG DSNT NE-S SLP140 T02670206
2026-04-22 21:51:00,SPECI KCXO 222151Z 10011G17KT 10SM VCTS BKN060 BKN085 26/21 A2995 RMK AO2 LTG DSNT NE-S
2026-04-22 20:53:00,METAR KCXO 222053Z 15007KT 10SM SCT065 BKN085 29/19 A2997 RMK AO2 LTG DSNT SE SLP144 T02940189 56029
2026-04-22 19:53:00,METAR KCXO 221953Z 10005KT 10SM FEW075 28/19 A3000 RMK AO2 SLP155 T02830194
2026-04-22 18:53:00,METAR KCXO 221853Z 10007KT 10SM CLR 27/20 A3002 RMK AO2 SLP161 T02720200
2026-04-22 17:53:00,METAR KCXO 221753Z 14006KT 10SM FEW042 BKN075 OVC085 26/21 A3005 RMK AO2 SLP173 60018 T02610206 10261 20172 58011
2026-04-22 16:53:00,METAR KCXO 221653Z 11003KT 10SM SCT015 SCT042 BKN065 24/21 A3008 RMK AO2 RAB06E43 SLP181 P0000 T02440206
2026-04-22 16:43:00,SPECI KCXO 221643Z 10004KT 10SM SCT011 BKN075 OVC090 23/20 A3008 RMK AO2 RAB06E43 P0000 T02330200
2026-04-22 16:36:00,SPECI KCXO 221636Z 11004KT 10SM -RA BKN011 OVC075 23/20 A3008 RMK AO2 RAB06 P0000 T02330200
2026-04-22 15:53:00,METAR KCXO 221553Z 14005KT 5SM BR OVC005 22/21 A3009 RMK AO2 CIG 004V010 SLP187 T02170206
2026-04-22 15:17:00,SPECI KCXO 221517Z 13003KT 2SM BR OVC002 21/20 A3008 RMK AO2 T02060200
2026-04-22 14:53:00,METAR KCXO 221453Z VRB04KT 3/4SM BR OVC002 20/20 A3009 RMK AO2 RAE34 TSE10 SLP186 P0015 60018 T02000200 58002
2026-04-22 14:50:00,SPECI KCXO 221450Z 00000KT 3/4SM BR OVC002 20/19 A3009 RMK AO2 RAE34 TSE10 P0015
2026-04-22 14:16:00,SPECI KCXO 221416Z 09004KT 1SM RA BR BKN002 OVC031 19/18 A3009 RMK AO2 TSE10 P0015 T01890183
2026-04-22 14:07:00,SPECI KCXO 221407Z 12005KT 1SM -TSRA BR BKN002 OVC022 19/18 A3009 RMK AO2 P0013 T01890183
2026-04-22 14:00:00,SPECI KCXO 221400Z 10005KT 1/2SM TSRA FG OVC002 19/18 A3010 RMK AO2 P0010 T01890183
2026-04-22 13:53:00,METAR KCXO 221353Z 00000KT 1/4SM TSRA FG OVC002 19/18 A3010 RMK AO2 RAB10 TSB53 SLP190 P0003 T01890183
2026-04-22 12:53:00,METAR KCXO 221253Z 07004KT 1/8SM FG OVC002 18/17 A3009 RMK AO2 SLP187 T01780172
2026-04-22 11:53:00,METAR KCXO 221153Z 00000KT 1/8SM FG OVC002 17/17 A3008 RMK AO2 SLP184 70032 T01720172 10172 20167 53004
2026-04-22 11:30:00,SPECI KCXO 221130Z 15003KT 1/8SM FG OVC002 17/17 A3007 RMK AO2 T01720167
2026-04-22 11:15:00,SPECI KCXO 221115Z 14003KT 1/4SM FG OVC002 17/17 A3007 RMK AO2 T01720167
2026-04-22 10:53:00,METAR KCXO 221053Z 08003KT 1SM BR OVC003 17/17 A3007 RMK AO2 SLP182 T01720167
2026-04-22 09:53:00,METAR KCXO 220953Z AUTO 07004KT 3SM BR OVC002 17/17 A3007 RMK AO2 SLP180 T01720167
2026-04-22 09:50:00,SPECI KCXO 220950Z AUTO 07006KT 3SM BR OVC002 17/17 A3007 RMK AO2
2026-04-22 09:34:00,SPECI KCXO 220934Z AUTO 09004KT 2 1/2SM BR OVC002 17/17 A3007 RMK AO2 T01720167
2026-04-22 08:53:00,METAR KCXO 220853Z AUTO 09003KT 6SM BR OVC003 17/17 A3007 RMK AO2 SLP181 T01720167 56016
2026-04-22 07:53:00,METAR KCXO 220753Z AUTO 08005KT 6SM BR OVC004 17/17 A3008 RMK AO2 SLP184 T01720167
2026-04-22 07:09:00,SPECI KCXO 220709Z AUTO 08005KT 7SM OVC004 17/16 A3009 RMK AO2 T01720161
2026-04-22 06:53:00,METAR KCXO 220653Z AUTO 09004KT 7SM OVC005 17/16 A3010 RMK AO2 SLP191 T01720161
2026-04-22 05:53:00,METAR KCXO 220553Z AUTO 08005KT 10SM OVC006 17/16 A3012 RMK AO2 CIG 005V009 SLP196 T01670161 10183 20167 401940156 58004
2026-04-22 05:39:00,SPECI KCXO 220539Z AUTO 07005KT 10SM OVC008 17/16 A3012 RMK AO2 CIG 005V009 T01670161
2026-04-22 04:53:00,METAR KCXO 220453Z AUTO 08005KT 10SM BKN013 BKN020 OVC024 17/16 A3012 RMK AO2 SLP199 T01670156
2026-04-22 04:39:00,SPECI KCXO 220439Z AUTO 08004KT 10SM BKN013 BKN026 OVC110 17/16 A3013 RMK AO2 T01670156
2026-04-22 03:53:00,METAR KCXO 220353Z AUTO 08007KT 10SM FEW110 17/16 A3013 RMK AO2 SLP201 T01670156
2026-04-22 02:53:00,METAR KCXO 220253Z AUTO 00000KT 10SM OVC110 17/16 A3014 RMK AO2 SLP205 T01720161 53004
2026-04-22 01:53:00,METAR KCXO 220153Z AUTO 00000KT 9SM BKN110 17/16 A3013 RMK AO2 SLP201 T01720161
2026-04-22 00:53:00,METAR KCXO 220053Z 12003KT 10SM BKN100 18/17 A3013 RMK AO2 SLP202 T01780167
2026-04-21 23:53:00,METAR KCXO 212353Z 13005KT 10SM SCT012 BKN085 18/16 A3013 RMK AO2 RAE03 SLP201 P0000 60006 T01830161 10194 20172 56008
2026-04-21 23:51:00,SPECI KCXO 212351Z 13005KT 10SM SCT012 BKN085 18/16 A3013 RMK AO2 RAE03 P0000
2026-04-21 23:43:00,SPECI KCXO 212343Z 13007KT 10SM BKN012 18/17 A3014 RMK AO2 RAE03 P0000 T01830167
2026-04-21 23:33:00,SPECI KCXO 212333Z 13007KT 10SM SCT009 BKN015 19/17 A3013 RMK AO2 RAE03 P0000 T01890172
2026-04-21 23:25:00,SPECI KCXO 212325Z 12007KT 10SM BKN011 BKN017 BKN120 18/17 A3014 RMK AO2 RAE03 P0000 T01830167
2026-04-21 22:53:00,METAR KCXO 212253Z 14006KT 10SM -RA SCT013 BKN028 19/17 A3015 RMK AO2 RAB00 SLP207 P0000 T01890167
2026-04-21 22:45:00,SPECI KCXO 212245Z 12005KT 10SM -RA FEW010 BKN026 BKN090 18/17 A3014 RMK AO2 RAB00 P0000 T01830167
2026-04-21 21:53:00,METAR KCXO 212153Z 11006KT 10SM SCT038 18/17 A3015 RMK AO2 RAE49 SLP209 P0002 T01830167
2026-04-21 20:53:00,METAR KCXO 212053Z 15007KT 10SM -RA FEW032 SCT048 OVC110 18/17 A3018 RMK AO2 SLP217 P0003 60004 T01830167 58017
2026-04-21 20:10:00,SPECI KCXO 212010Z 11005KT 8SM -RA SCT016 BKN070 OVC090 19/16 A3020 RMK AO2 P0002 T01890161
2026-04-21 19:53:00,METAR KCXO 211953Z 14006KT 10SM -RA SCT011 BKN019 OVC060 19/16 A3021 RMK AO2 SLP226 P0000 T01890161
2026-04-21 19:38:00,SPECI KCXO 211938Z 15006KT 10SM -RA BKN011 BKN032 OVC039 19/16 A3021 RMK AO2 P0000 T01890161
2026-04-21 18:53:00,METAR KCXO 211853Z 00000KT 10SM -RA FEW009 OVC047 18/16 A3023 RMK AO2 SLP234 P0001 T01780156
2026-04-21 18:51:00,SPECI KCXO 211851Z 08003KT 10SM -RA FEW009 OVC047 18/16 A3023 RMK AO2 P0001
2026-04-21 17:53:00,METAR KCXO 211753Z 00000KT 10SM -RA FEW036 OVC044 17/15 A3024 RMK AO2 SLP237 P0002 60026 T01720150 10172 20156 50002
2026-04-21 16:53:00,METAR KCXO 211653Z 09003KT 6SM -RA BR BKN040 BKN047 OVC060 16/14 A3024 RMK AO2 SLP239 P0009 T01610144
2026-04-21 15:53:00,METAR KCXO 211553Z 10004KT 10SM -RA FEW049 OVC060 17/14 A3025 RMK AO2 SLP241 P0007 T01720144
2026-04-21 14:53:00,METAR KCXO 211453Z 08003KT 5SM RA BR BKN095 OVC110 16/15 A3023 RMK AO2 SLP234 P0007 60008 T01610150 51014
2026-04-21 13:53:00,METAR KCXO 211353Z 11006KT 10SM -RA BKN100 OVC120 17/14 A3022 RMK AO2 RAB37 SLP232 P0001 T01670144
2026-04-21 12:53:00,METAR KCXO 211253Z 10004KT 10SM OVC100 16/14 A3021 RMK AO2 SLP227 T01610144
2026-04-21 11:53:00,METAR KCXO 211153Z 09004KT 10SM FEW038 SCT120 16/15 A3019 RMK AO2 SLP220 60009 70013 T01610150 10167 20156 56000
2026-04-21 10:53:00,METAR KCXO 211053Z 07004KT 7SM FEW040 SCT110 16/14 A3019 RMK AO2 SLP221 T01560144
2026-04-21 09:53:00,METAR KCXO 210953Z AUTO 13004KT 10SM CLR 16/14 A3017 RMK AO2 RAE13 SLP214 P0000 T01610144
2026-04-21 08:53:00,METAR KCXO 210853Z AUTO 13007G16KT 110V180 10SM -RA BKN100 OVC120 17/16 A3019 RMK AO2 SLP221 P0007 60009 T01670156 58019
2026-04-21 07:53:00,METAR KCXO 210753Z AUTO 00000KT 7SM -RA OVC100 16/15 A3023 RMK AO2 RAB14 SLP234 P0002 T01560150
2026-04-21 06:53:00,METAR KCXO 210653Z AUTO 00000KT 10SM FEW029 SCT035 OVC080 16/14 A3026 RMK AO2 SLP243 T01560144
2026-04-21 06:04:00,SPECI KCXO 210604Z AUTO 32003KT 10SM BKN028 16/14 A3025 RMK AO2 T01560139
2026-04-21 05:53:00,METAR KCXO 210553Z AUTO 31003KT 10SM BKN030 16/14 A3025 RMK AO2 SLP240 60004 T01610139 10172 20150 402110117 53010
2026-04-21 04:53:00,METAR KCXO 210453Z AUTO 00000KT 10SM FEW110 16/13 A3022 RMK AO2 SLP230 T01610133
2026-04-21 03:53:00,METAR KCXO 210353Z AUTO 09003KT 10SM FEW050 FEW100 16/13 A3021 RMK AO2 RAB0258E45 SLP227 P0001 T01560133
2026-04-21 02:53:00,METAR KCXO 210253Z AUTO 07003KT 10SM FEW090 SCT120 16/14 A3022 RMK AO2 RAE12 SLP230 P0000 60003 T01560139 56008
2026-04-21 01:53:00,METAR KCXO 210153Z AUTO 00000KT 10SM -RA FEW060 SCT120 16/14 A3022 RMK AO2 RAE14B37 SLP231 P0000 T01610139
2026-04-21 00:53:00,METAR KCXO 210053Z 09003KT 10SM -RA BKN110 16/14 A3022 RMK AO2 RAE2358B20 SLP230 P0003 T01610139
2026-04-20 23:53:00,METAR KCXO 202353Z 00000KT 10SM -RA BKN100 BKN120 17/15 A3024 RMK AO2 RAB08 SLP238 P0000 60000 T01720150 10211 20172 55007
2026-04-20 22:53:00,METAR KCXO 202253Z 11003KT 10SM OVC110 19/12 A3023 RMK AO2 SLP236 T01890117
2026-04-20 21:53:00,METAR KCXO 202153Z 00000KT 10SM BKN080 BKN095 19/11 A3025 RMK AO2 RAB2056E11 SLP242 P0000 T01940111
2026-04-20 20:53:00,METAR KCXO 202053Z 12003KT 10SM BKN095 OVC110 20/09 A3026 RMK AO2 SLP245 T02000094 55002
2026-04-20 19:53:00,METAR KCXO 201953Z 12007KT 10SM CLR 21/09 A3025 RMK AO2 SLP243 T02060089
2026-04-20 18:53:00,METAR KCXO 201853Z 12006KT 10SM CLR 19/08 A3026 RMK AO2 SLP245 T01940083
2026-04-20 17:53:00,METAR KCXO 201753Z 10008KT 10SM CLR 20/09 A3027 RMK AO2 SLP248 T02000089 10200 20139 58008
2026-04-20 16:53:00,METAR KCXO 201653Z 10010KT 10SM CLR 19/08 A3030 RMK AO2 SLP259 T01940078
2026-04-20 15:53:00,METAR KCXO 201553Z 09008KT 10SM CLR 17/09 A3031 RMK AO2 SLP263 T01720089
2026-04-20 15:28:00,SPECI KCXO 201528Z 08006KT 10SM FEW075 SCT120 17/09 A3031 RMK AO2 T01670089
2026-04-20 14:53:00,METAR KCXO 201453Z 10006KT 10SM FEW070 FEW110 16/08 A3029 RMK AO2 SLP256 T01610083 51007
2026-04-20 13:53:00,METAR KCXO 201353Z 08008KT 10SM SCT080 15/08 A3029 RMK AO2 SLP255 T01500078
2026-04-20 12:53:00,METAR KCXO 201253Z 07005KT 10SM SCT090 14/08 A3029 RMK AO2 SLP256 T01440078
2026-04-20 11:53:00,METAR KCXO 201153Z 06004KT 10SM OVC090 14/08 A3027 RMK AO2 SLP248 T01390083 10139 20117 53009
2026-04-20 10:53:00,METAR KCXO 201053Z 00000KT 10SM CLR 13/09 A3026 RMK AO2 SLP246 T01330089
2026-04-20 09:53:00,METAR KCXO 200953Z AUTO 00000KT 10SM CLR 14/10 A3025 RMK AO2 SLP240 T01390100
2026-04-20 08:53:00,METAR KCXO 200853Z AUTO 00000KT 10SM CLR 12/11 A3024 RMK AO2 SLP239 T01170106 58005
2026-04-20 07:53:00,METAR KCXO 200753Z AUTO 00000KT 10SM CLR 12/11 A3026 RMK AO2 SLP244 T01170106
2026-04-20 06:53:00,METAR KCXO 200653Z AUTO 00000KT 10SM CLR 12/11 A3026 RMK AO2 SLP246 T01170106
2026-04-20 05:53:00,METAR KCXO 200553Z AUTO 30003KT 10SM CLR 12/11 A3026 RMK AO2 SLP245 T01170106 10211 20117 402280111 55002
2026-04-20 04:53:00,METAR KCXO 200453Z AUTO 00000KT 10SM CLR 12/11 A3025 RMK AO2 SLP243 T01170106
2026-04-20 03:53:00,METAR KCXO 200353Z AUTO 00000KT 10SM CLR 12/11 A3027 RMK AO2 SLP248 T01170106
2026-04-20 02:53:00,METAR KCXO 200253Z AUTO 00000KT 10SM CLR 12/10 A3027 RMK AO2 SLP248 T01220100 53016
2026-04-20 01:53:00,METAR KCXO 200153Z AUTO 00000KT 10SM CLR 14/10 A3023 RMK AO2 SLP236 T01390100
2026-04-20 00:53:00,METAR KCXO 200053Z 00000KT 10SM CLR 17/10 A3021 RMK AO2 SLP228 T01670100
2026-04-19 23:53:00,METAR KCXO 192353Z 05004KT 10SM CLR 21/06 A3022 RMK AO2 SLP231 T02110061 10228 20206 58011
2026-04-19 22:53:00,METAR KCXO 192253Z 09004KT 10SM CLR 22/06 A3024 RMK AO2 SLP237 T02170056
2026-04-19 21:53:00,METAR KCXO 192153Z 10006KT 10SM CLR 22/04 A3024 RMK AO2 SLP237 T02170039
2026-04-19 20:53:00,METAR KCXO 192053Z 07008KT 10SM CLR 23/04 A3025 RMK AO2 SLP243 T02280044 56020 $
2026-04-19 19:53:00,METAR KCXO 191953Z 10009G20KT 10SM CLR 23/04 A3027 RMK AO2 SLP249 T02280044 $
2026-04-19 18:53:00,METAR KCXO 191853Z 08010G20KT 10SM CLR 22/04 A3029 RMK AO2 SLP254 T02170044 $
2026-04-19 17:53:00,METAR KCXO 191753Z 09011G19KT 10SM CLR 21/06 A3031 RMK AO2 SLP263 T02060056 10206 20111 58007 $
2026-04-19 16:53:00,METAR KCXO 191653Z 09007KT 10SM CLR 19/08 A3033 RMK AO2 SLP268 T01890078 $
2026-04-19 15:53:00,METAR KCXO 191553Z 06009G20KT 030V110 10SM CLR 17/07 A3033 RMK AO2 SLP267 T01670072 $
2026-04-19 14:53:00,METAR KCXO 191453Z 07011G19KT 10SM CLR 15/07 A3034 RMK AO2 SLP271 T01500072 53021 $
2026-04-19 13:53:00,METAR KCXO 191353Z 06009G15KT 10SM CLR 13/09 A3031 RMK AO2 SLP263 T01330089 $
2026-04-19 12:53:00,METAR KCXO 191253Z VRB03KT 10SM CLR 12/10 A3030 RMK AO2 SLP258 T01170100 $
2026-04-19 11:53:00,METAR KCXO 191153Z 02006KT 10SM CLR 11/10 A3027 RMK AO2 SLP250 60026 70052 T01110100 10122 20111 55008 $
2026-04-19 10:53:00,METAR KCXO 191053Z VRB04KT 10SM SCT050 12/11 A3026 RMK AO2 RAE14 SLP243 P0000 T01170106 $
2026-04-19 10:16:00,SPECI KCXO 191016Z 10005KT 10SM SCT008 BKN046 OVC100 12/11 A3027 RMK AO2 RAE14 P0000 T01170106 $
2026-04-19 09:53:00,METAR KCXO 190953Z 07008KT 7SM RA FEW065 BKN090 OVC110 12/10 A3026 RMK AO2 SLP244 P0017 T01170100 $
2026-04-19 09:10:00,SPECI KCXO 190910Z 07005KT 7SM RA SCT014 BKN050 OVC100 12/11 A3027 RMK AO2 PRESFR P0003 T01170106 $
2026-04-19 09:03:00,SPECI KCXO 190903Z 06006KT 8SM RA BKN014 BKN050 OVC110 12/11 A3028 RMK AO2 P0001 T01170106 $
2026-04-19 08:53:00,METAR KCXO 190853Z VRB03KT 10SM -RA SCT014 BKN043 OVC110 12/11 A3030 RMK AO2 SLP258 P0004 60009 T01220111 53020 $
2026-04-19 07:53:00,METAR KCXO 190753Z 02007KT 6SM RA BR FEW012 BKN046 OVC060 12/11 A3026 RMK AO2 LTG DSNT S SLP246 P0004 T01220111 $
2026-04-19 07:41:00,SPECI KCXO 190741Z 01007G17KT 330V050 9SM -RA FEW010 BKN042 OVC060 12/11 A3027 RMK AO2 P0003 T01220111 $
2026-04-19 07:19:00,SPECI KCXO 190719Z 03004KT 10SM -RA OVC010 12/11 A3026 RMK AO2 CIG 006V017 P0001 T01220111 $
2026-04-19 07:00:00,SPECI KCXO 190700Z 03007KT 10SM -RA BKN008 OVC090 12/11 A3025 RMK AO2 LTG DSNT E AND SE CIG 006V013 P0001 T01220111 $
2026-04-19 06:53:00,METAR KCXO 190653Z VRB06KT 10SM -RA SCT008 BKN012 OVC090 12/11 A3024 RMK AO2 LTG DSNT E AND SE RAB17 SLP239 P0001 T01220111 $
2026-04-19 06:48:00,SPECI KCXO 190648Z 02005KT 9SM -RA BKN010 OVC090 12/11 A3024 RMK AO2 LTG DSNT NE-S RAB17 CIG 006V014 P0001 $
2026-04-19 06:33:00,SPECI KCXO 190633Z 02007G16KT 10SM VCTS -RA OVC012 12/11 A3025 RMK AO2 LTG DSNT N AND NE AND S RAB17 P0000 T01220106 $
2026-04-19 05:53:00,METAR KCXO 190553Z 36011G18KT 10SM BKN014 OVC090 12/11 A3023 RMK AO2 SLP233 60026 T01220106 10161 20122 402830122 53016 $
2026-04-19 05:32:00,SPECI KCXO 190532Z 36011G18KT 10SM BKN014 BKN090 OVC110 12/11 A3021 RMK AO2 T01220106 $
2026-04-19 04:53:00,METAR KCXO 190453Z 36008KT 10SM BKN090 OVC110 12/11 A3021 RMK AO2 RAE15 SLP225 P0001 T01220111 $
2026-04-19 03:53:00,METAR KCXO 190353Z 02007G17KT 6SM +RA BR FEW060 BKN100 OVC110 12/11 A3019 RMK AO2 RAE0255B23 TSB20E35 SLP220 P0006 T01220111 $
2026-04-19 03:41:00,SPECI KCXO 190341Z 36007G16KT 7SM RA BKN090 OVC110 12/11 A3020 RMK AO2 RAE0255B23 TSB20E35 P0003 T01220111 $
2026-04-19 03:26:00,SPECI KCXO 190326Z 01011G21KT 10SM -TSRA OVC090 13/11 A3020 RMK AO2 RAE0255B23 TSB20 P0000 T01280111 $
2026-04-19 02:53:00,METAR KCXO 190253Z 01010G21KT 10SM -RA FEW090 BKN100 13/11 A3018 RMK AO2 LTG DSNT W SLP218 P0002 60019 T01280111 51035 $
2026-04-19 01:53:00,METAR KCXO 190153Z 01008KT 340V060 10SM -RA FEW026 BKN090 OVC110 13/12 A3015 RMK AO2 TSE03 SLP209 P0003 T01330117 $
2026-04-19 01:39:00,SPECI KCXO 190139Z 01010G17KT 330V040 10SM -RA SCT025 SCT070 OVC095 14/12 A3013 RMK AO2 TSE03 P0003 T01390117 $
2026-04-19 01:09:00,SPECI KCXO 190109Z 35010KT 10SM -RA BKN023 OVC085 14/12 A3012 RMK AO2 LTG DSNT NE TSE03 P0001 T01390122 $
2026-04-19 00:53:00,METAR KCXO 190053Z 33006KT 4SM TSRA SCT016 OVC021 14/12 A3012 RMK AO2 LTG DSNT S AND W RAE27B42 TSB37 SLP198 P0014 T01440117 $
2026-04-19 00:43:00,SPECI KCXO 190043Z 02007KT 350V050 6SM -TSRA BKN016 OVC022 15/12 A3010 RMK AO2 LTG DSNT S AND W RAE27B42 TSB37 P0009 T01500117 $
2026-04-19 00:30:00,SPECI KCXO 190030Z 35007KT 10SM VCTS OVC016 16/12 A3010 RMK AO2 LTG DSNT S AND SW RAE27 P0000 T01560117 $
2026-04-18 23:53:00,METAR KCXO 182353Z 34012G24KT 10SM -RA OVC016 16/12 A3008 RMK AO2 PK WND 35028/2332 SLP183 P0000 60000 T01610122 10283 20161 53032 $
2026-04-18 22:53:00,METAR KCXO 182253Z 34014G28KT 10SM -RA OVC018 17/13 A3003 RMK AO2 PK WND 33029/2216 LTG DSNT SE AND S RAB2157 SLP168 P0000 T01720133 $
2026-04-18 21:53:00,METAR KCXO 182153Z 34010G22KT 10SM OVC016 20/16 A3001 RMK AO2 RAE23 SLP160 P0000 T02000161 $
2026-04-18 21:36:00,SPECI KCXO 182136Z 35009G17KT 10SM BKN015 BKN060 OVC085 21/17 A3001 RMK AO2 RAE23 P0000 T02060172 $
2026-04-18 20:53:00,METAR KCXO 182053Z 36011G19KT 10SM -RA FEW021 BKN060 OVC090 23/19 A2998 RMK AO2 WSHFT 2032 RAB43 SLP150 P0000 60000 T02280189 56004 $
2026-04-18 19:53:00,METAR KCXO 181953Z 12005KT 10SM OVC085 26/22 A2999 RMK AO2 SLP152 T02610217 $
2026-04-18 19:15:00,SPECI KCXO 181915Z 13006KT 10SM SCT028 OVC085 26/22 A2999 RMK AO2 T02610217 $
2026-04-18 18:53:00,METAR KCXO 181853Z 11006KT 10SM BKN028 OVC040 26/21 A2999 RMK AO2 SLP153 T02560211 $
2026-04-18 18:48:00,SPECI KCXO 181848Z 10005KT 10SM BKN028 OVC038 26/21 A2999 RMK AO2 $
2026-04-18 17:53:00,METAR KCXO 181753Z 36005KT 10SM OVC080 27/20 A2999 RMK AO2 SLP153 T02670200 10272 20217 50013 $
2026-04-18 16:53:00,METAR KCXO 181653Z 34006KT 10SM CLR 27/21 A3000 RMK AO2 SLP157 T02720206 $
2026-04-18 16:12:00,SPECI KCXO 181612Z 33007KT 10SM FEW020 SCT029 BKN065 27/21 A2999 RMK AO2 T02670206 $
2026-04-18 15:53:00,METAR KCXO 181553Z 33005KT 10SM BKN021 BKN026 25/21 A2998 RMK AO2 SLP149 T02500206 $
2026-04-18 14:53:00,METAR KCXO 181453Z 32004KT 10SM OVC037 25/21 A2995 RMK AO2 SLP140 T02500206 53031 $
2026-04-18 13:53:00,METAR KCXO 181353Z 00000KT 10SM OVC032 24/20 A2993 RMK AO2 PRESRR SLP133 T02390200 $
2026-04-18 13:07:00,SPECI KCXO 181307Z 21004KT 10SM SCT029 23/20 A2988 RMK AO2 T02280200 $
2026-04-18 12:53:00,METAR KCXO 181253Z 19006KT 10SM BKN028 23/20 A2988 RMK AO2 SLP114 T02280200 $
2026-04-18 11:53:00,METAR KCXO 181153Z 21004KT 10SM OVC023 22/19 A2986 RMK AO2 SLP109 T02170194 10217 20194 53006 $
2026-04-18 10:53:00,METAR KCXO 181053Z 20008KT 10SM OVC020 22/19 A2983 RMK AO2 SLP098 T02170194 $
2026-04-18 09:53:00,METAR KCXO 180953Z AUTO 18004KT 10SM OVC019 21/19 A2984 RMK AO2 SLP100 T02060194 $
2026-04-18 09:36:00,SPECI KCXO 180936Z AUTO 19005KT 10SM BKN020 21/19 A2984 RMK AO2 T02060194 $
2026-04-18 08:53:00,METAR KCXO 180853Z AUTO 18005KT 10SM CLR 20/19 A2984 RMK AO2 SLP102 T02000189 58014 $
2026-04-18 07:53:00,METAR KCXO 180753Z AUTO 16004KT 10SM CLR 19/18 A2987 RMK AO2 SLP110 T01940183 $
2026-04-18 06:53:00,METAR KCXO 180653Z AUTO 15003KT 10SM CLR 20/18 A2989 RMK AO2 SLP119 T02000183 $
2026-04-18 05:53:00,METAR KCXO 180553Z AUTO 16005KT 10SM CLR 21/19 A2988 RMK AO2 SLP116 T02110189 10256 20211 403000194 57012 $
2026-04-18 04:53:00,METAR KCXO 180453Z AUTO 17007KT 10SM CLR 22/19 A2990 RMK AO2 SLP120 T02220189
2026-04-18 03:53:00,METAR KCXO 180353Z AUTO 17010KT 10SM CLR 23/19 A2991 RMK AO2 SLP123 T02280189
2026-04-18 02:53:00,METAR KCXO 180253Z AUTO 16008KT 10SM FEW028 23/19 A2992 RMK AO2 SLP128 T02330189 53012
2026-04-18 02:33:00,SPECI KCXO 180233Z AUTO 17009KT 10SM SCT028 SCT055 24/19 A2991 RMK AO2 T02390189
2026-04-18 02:26:00,SPECI KCXO 180226Z AUTO 16012G19KT 10SM BKN028 BKN035 BKN055 24/19 A2991 RMK AO2 T02390189
2026-04-18 01:53:00,METAR KCXO 180153Z AUTO 16012KT 10SM SCT030 OVC055 24/19 A2990 RMK AO2 SLP121 T02440189
2026-04-18 00:53:00,METAR KCXO 180053Z 16014G19KT 10SM FEW030 OVC065 25/19 A2989 RMK AO2 SLP119 T02500189
2026-04-17 23:53:00,METAR KCXO 172353Z 16016G24KT 10SM SCT030 BKN037 OVC070 26/19 A2988 RMK AO2 SLP116 T02560194 10300 20256 55005
2026-04-17 22:53:00,METAR KCXO 172253Z 16015KT 10SM FEW040 OVC060 27/19 A2988 RMK AO2 PK WND 17026/2201 SLP115 T02670194
2026-04-17 21:53:00,METAR KCXO 172153Z 16013KT 10SM SCT036 BKN046 OVC065 27/20 A2988 RMK AO2 SLP115 T02720200
2026-04-17 20:53:00,METAR KCXO 172053Z 14014G21KT 10SM SCT038 BKN048 BKN070 29/21 A2990 RMK AO2 SLP121 T02890211 58016
2026-04-17 19:53:00,METAR KCXO 171953Z 17016G22KT 10SM SCT038 BKN050 BKN065 29/19 A2992 RMK AO2 SLP130 T02890194
2026-04-17 18:53:00,METAR KCXO 171853Z 16014G26KT 10SM FEW038 SCT050 BKN060 29/20 A2994 RMK AO2 PK WND 18026/1845 SLP134 T02890200
2026-04-17 17:53:00,METAR KCXO 171753Z 16016G23KT 10SM FEW032 SCT055 29/21 A2995 RMK AO2 PK WND 15026/1711 SLP137 T02940206 10294 20200 58010
2026-04-17 16:53:00,METAR KCXO 171653Z 15011G19KT 10SM FEW031 SCT040 BKN055 28/21 A2996 RMK AO2 SLP143 T02830206
2026-04-17 16:37:00,SPECI KCXO 171637Z 17014G21KT 10SM FEW029 SCT050 28/20 A2996 RMK AO2 T02830200
2026-04-17 16:00:00,SPECI KCXO 171600Z 17012G22KT 10SM BKN026 BKN038 27/20 A2997 RMK AO2 T02670200
2026-04-17 15:53:00,METAR KCXO 171553Z 16011G22KT 10SM SCT024 SCT029 BKN038 27/21 A2997 RMK AO2 SLP146 T02720206
2026-04-17 15:06:00,SPECI KCXO 171506Z 16011KT 10SM FEW017 SCT022 BKN047 26/21 A2997 RMK AO2 T02610211
2026-04-17 14:53:00,METAR KCXO 171453Z 16011G19KT 5SM HZ SCT014 BKN022 BKN032 26/21 A2998 RMK AO2 SLP148 T02560211 51003
2026-04-17 14:51:00,SPECI KCXO 171451Z 16011G19KT 5SM HZ SCT013 BKN019 BKN024 26/22 A2998 RMK AO2
2026-04-17 14:17:00,SPECI KCXO 171417Z 16010KT 5SM BR BKN010 BKN016 OVC023 23/21 A2998 RMK AO2 T02330211
2026-04-17 14:15:00,SPECI KCXO 171415Z 16010KT 5SM BR BKN009 BKN016 OVC023 24/22 A2998 RMK AO2 T02390217
2026-04-17 13:53:00,METAR KCXO 171353Z 15010KT 3SM BR SCT010 BKN014 OVC022 23/22 A2998 RMK AO2 SLP149 T02280217
2026-04-17 13:41:00,SPECI KCXO 171341Z 15008KT 3SM BR OVC013 22/21 A2998 RMK AO2 T02220211
2026-04-17 13:19:00,SPECI KCXO 171319Z 15006KT 3SM BR FEW009 BKN015 OVC023 22/21 A2997 RMK AO2 T02220211
2026-04-17 13:14:00,SPECI KCXO 171314Z 15007KT 2SM BR BKN015 OVC023 22/21 A2997 RMK AO2 T02170211
2026-04-17 13:03:00,SPECI KCXO 171303Z 14006KT 2SM BR BKN014 OVC023 21/21 A2997 RMK AO2 T02110206
2026-04-17 12:53:00,METAR KCXO 171253Z 14007KT 2SM BR FEW009 BKN016 OVC023 21/20 A2997 RMK AO2 SLP144 T02110200
2026-04-17 11:53:00,METAR KCXO 171153Z 14003KT 2SM BR SCT008 OVC019 20/19 A2995 RMK AO2 SLP138 T02000194 10206 20194 53006
2026-04-17 11:46:00,SPECI KCXO 171146Z 14003KT 2SM BR SCT008 OVC019 20/19 A2995 RMK AO2 T02000194
2026-04-17 11:13:00,SPECI KCXO 171113Z 12003KT 6SM BR BKN008 OVC017 19/19 A2994 RMK AO2 T01940189
2026-04-17 10:53:00,METAR KCXO 171053Z 12003KT 6SM BR OVC017 19/19 A2993 RMK AO2 SLP132 T01940189
2026-04-17 10:38:00,SPECI KCXO 171038Z AUTO 13003KT 7SM SCT009 OVC017 19/19 A2993 RMK AO2 T01940189
2026-04-17 10:03:00,SPECI KCXO 171003Z 14003KT 9SM BKN014 19/19 A2993 RMK AO2 T01940189
2026-04-17 09:53:00,METAR KCXO 170953Z 17003KT 9SM BKN016 19/19 A2993 RMK AO2 SLP131 T01940189
2026-04-17 08:53:00,METAR KCXO 170853Z 14004KT 8SM SCT014 19/19 A2993 RMK AO2 SLP132 T01940189 56015
2026-04-17 07:53:00,METAR KCXO 170753Z 16004KT 10SM CLR 20/19 A2994 RMK AO2 SLP134 T02000189
2026-04-17 06:53:00,METAR KCXO 170653Z 17007KT 10SM CLR 21/19 A2996 RMK AO2 SLP140 T02060194
2026-04-17 05:53:00,METAR KCXO 170553Z 16007KT 10SM CLR 21/19 A2998 RMK AO2 SLP146 T02060194 10267 20200 403110194 58004
2026-04-17 04:53:00,METAR KCXO 170453Z 14004KT 10SM CLR 21/18 A2999 RMK AO2 SLP153 T02060183
2026-04-17 03:53:00,METAR KCXO 170353Z 14005KT 10SM CLR 22/19 A3000 RMK AO2 SLP154 T02170189
2026-04-17 02:53:00,METAR KCXO 170253Z 16008KT 10SM CLR 23/19 A2999 RMK AO2 SLP151 T02330189 53014
2026-04-17 01:53:00,METAR KCXO 170153Z 16009KT 10SM FEW030 24/19 A2998 RMK AO2 SLP148 T02440194
2026-04-17 00:53:00,METAR KCXO 170053Z 16009KT 10SM FEW048 26/19 A2996 RMK AO2 SLP141 T02560194
2026-04-16 23:53:00,METAR KCXO 162353Z 14008G19KT 10SM FEW040 FEW070 27/20 A2995 RMK AO2 SLP138 T02670200 10311 20267 55008
2026-04-16 22:53:00,METAR KCXO 162253Z 15013KT 10SM CLR 29/20 A2995 RMK AO2 SLP136 T02940200
2026-04-16 21:53:00,METAR KCXO 162153Z 14012G20KT 10SM FEW045 OVC075 29/21 A2996 RMK AO2 SLP140 T02940206
2026-04-16 20:53:00,METAR KCXO 162053Z 14011KT 10SM BKN080 28/21 A2997 RMK AO2 SLP146 T02830206 56023
2026-04-16 19:53:00,METAR KCXO 161953Z 17013G17KT 10SM FEW046 BKN075 31/19 A2999 RMK AO2 SLP152 T03110194
2026-04-16 18:53:00,METAR KCXO 161853Z 20011G17KT 10SM SCT050 30/18 A3001 RMK AO2 SLP160 T03000178
2026-04-16 17:53:00,METAR KCXO 161753Z 17010G18KT 10SM FEW040 SCT050 30/19 A3004 RMK AO2 PK WND 17026/1730 RAB11E18 SLP169 P0000 60000 T03000189 10300 20211 58003
2026-04-16 16:53:00,METAR KCXO 161653Z 18011KT 10SM CLR 29/19 A3005 RMK AO2 RAB30E46 SLP172 P0000 T02940189
2026-04-16 15:53:00,METAR KCXO 161553Z 20012KT 10SM FEW036 28/20 A3006 RMK AO2 SLP173 T02780200
2026-04-16 15:25:00,SPECI KCXO 161525Z 17012KT 10SM FEW021 SCT028 27/20 A3005 RMK AO2 T02670200
2026-04-16 14:53:00,METAR KCXO 161453Z 17010KT 10SM SCT016 BKN025 OVC040 26/21 A3005 RMK AO2 SLP172 T02610211 51014
2026-04-16 14:39:00,SPECI KCXO 161439Z 18008KT 10SM FEW015 BKN030 24/21 A3005 RMK AO2 T02440206
2026-04-16 14:28:00,SPECI KCXO 161428Z 19008KT 10SM FEW011 BKN028 OVC047 24/21 A3005 RMK AO2 T02390206
2026-04-16 14:12:00,SPECI KCXO 161412Z 17007KT 10SM SCT009 BKN014 OVC028 23/21 A3005 RMK AO2 T02330211
2026-04-16 13:53:00,METAR KCXO 161353Z 18006KT 10SM BKN010 BKN013 OVC028 23/22 A3005 RMK AO2 SLP171 T02280217
2026-04-16 13:29:00,SPECI KCXO 161329Z 19004KT 8SM FEW006 BKN013 OVC024 23/22 A3004 RMK AO2 T02280217
2026-04-16 12:53:00,METAR KCXO 161253Z 14003KT 6SM BR BKN012 OVC024 22/21 A3003 RMK AO2 SLP166 T02170206
2026-04-16 12:17:00,SPECI KCXO 161217Z 00000KT 6SM BR FEW010 BKN018 OVC026 21/21 A3002 RMK AO2 T02110206
2026-04-16 11:53:00,METAR KCXO 161153Z 15003KT 8SM BKN013 OVC020 22/21 A3001 RMK AO2 SLP159 70005 T02170206 10217 20194 53016
2026-04-16 11:38:00,SPECI KCXO 161138Z 00000KT 9SM BKN014 OVC021 22/21 A3001 RMK AO2 T02170206
2026-04-16 10:53:00,METAR KCXO 161053Z 00000KT 9SM BKN008 OVC016 22/21 A2999 RMK AO2 CIG 006V012 SLP153 T02170206
2026-04-16 09:53:00,METAR KCXO 160953Z AUTO 18005KT 9SM OVC007 21/21 A2998 RMK AO2 SLP148 T02110206
2026-04-16 09:24:00,SPECI KCXO 160924Z AUTO 00000KT 9SM BKN007 OVC015 21/21 A2998 RMK AO2 T02110206
2026-04-16 09:04:00,SPECI KCXO 160904Z AUTO 16007KT 9SM FEW007 BKN016 21/20 A2996 RMK AO2 T02060200
2026-04-16 08:53:00,METAR KCXO 160853Z AUTO 16007KT 8SM BKN016 21/20 A2996 RMK AO2 SLP143 T02060200 58012
2026-04-16 07:53:00,METAR KCXO 160753Z AUTO 14005KT 8SM CLR 20/19 A2998 RMK AO2 SLP148 T02000194
2026-04-16 06:53:00,METAR KCXO 160653Z AUTO 15005KT 10SM CLR 19/18 A2999 RMK AO2 SLP152 T01940183
2026-04-16 05:53:00,METAR KCXO 160553Z AUTO 00000KT 10SM CLR 20/19 A3000 RMK AO2 SLP155 T02000189 10261 20200 403000194 50002
2026-04-16 04:53:00,METAR KCXO 160453Z AUTO 18005KT 10SM CLR 22/19 A3000 RMK AO2 SLP156 T02170194
2026-04-16 03:53:00,METAR KCXO 160353Z AUTO 16010KT 10SM CLR 23/19 A3000 RMK AO2 SLP154 T02280189
2026-04-16 02:53:00,METAR KCXO 160253Z AUTO 17009KT 10SM CLR 23/19 A2999 RMK AO2 SLP153 T02330189 53009
2026-04-16 01:53:00,METAR KCXO 160153Z AUTO 15008KT 10SM CLR 23/18 A2997 RMK AO2 SLP147 T02330183
2026-04-16 00:53:00,METAR KCXO 160053Z 13007KT 10SM FEW037 SCT046 24/19 A2996 RMK AO2 SLP142 T02440189
2026-04-15 23:53:00,METAR KCXO 152353Z 16012KT 10SM FEW040 SCT055 BKN085 26/19 A2996 RMK AO2 SLP143 T02610189 10300 20261 53000
2026-04-15 22:53:00,METAR KCXO 152253Z 14008KT 10SM SCT043 BKN050 OVC080 27/19 A2996 RMK AO2 SLP143 T02720194
2026-04-15 21:53:00,METAR KCXO 152153Z 14009KT 10SM SCT043 BKN070 27/19 A2996 RMK AO2 SLP143 T02670194
2026-04-15 20:53:00,METAR KCXO 152053Z 14012KT 10SM SCT044 SCT055 BKN070 28/19 A2996 RMK AO2 SLP143 T02830189 58008
2026-04-15 19:53:00,METAR KCXO 151953Z 16012KT 10SM BKN043 BKN055 29/19 A2998 RMK AO2 SLP148 T02940194
2026-04-15 18:53:00,METAR KCXO 151853Z 16017KT 10SM FEW039 FEW055 29/18 A2997 RMK AO2 SLP147 T02890183
2026-04-15 17:53:00,METAR KCXO 151753Z 17014G22KT 10SM SCT036 29/19 A2999 RMK AO2 SLP151 60005 T02890194 10294 20194 58007
2026-04-15 16:53:00,METAR KCXO 151653Z 18016G21KT 10SM SCT030 BKN038 BKN049 27/19 A3001 RMK AO2 PK WND 17026/1622 SLP158 T02670194
2026-04-15 15:53:00,METAR KCXO 151553Z 17018G23KT 10SM FEW028 26/19 A3001 RMK AO2 RAB01E10 SLP158 P0000 T02610194
2026-04-15 15:20:00,SPECI KCXO 151520Z 16014KT 10SM FEW017 SCT024 25/20 A3000 RMK AO2 RAB01E10 P0000 T02500200
2026-04-15 14:53:00,METAR KCXO 151453Z 15012KT 10SM SCT017 BKN023 24/21 A3001 RMK AO2 SLP159 60005 T02440206 58000
2026-04-15 14:03:00,SPECI KCXO 151403Z 14008KT 10SM SCT006 SCT022 22/21 A3003 RMK AO2 T02170206
2026-04-15 13:53:00,METAR KCXO 151353Z 13006KT 10SM CLR 22/21 A3003 RMK AO2 RAE09 SLP165 P0000 T02170206
2026-04-15 12:53:00,METAR KCXO 151253Z 09004KT 8SM -RA FEW006 BKN048 OVC060 20/19 A3003 RMK AO2 RAB28 SLP165 P0005 T02000189
2026-04-15 12:49:00,SPECI KCXO 151249Z 08004KT 6SM -RA BR FEW006 BKN037 OVC060 20/19 A3003 RMK AO2 RAB28 P0005
2026-04-15 12:32:00,SPECI KCXO 151232Z VRB03KT 2SM RA BR SCT004 BKN012 OVC017 20/19 A3003 RMK AO2 RAB28 P0003 T02000194
2026-04-15 12:16:00,SPECI KCXO 151216Z 00000KT 6SM BR FEW004 BKN015 OVC020 19/19 A3003 RMK AO2 T01940189
2026-04-15 11:53:00,METAR KCXO 151153Z 00000KT 5SM BR BKN016 BKN020 OVC034 19/19 A3001 RMK AO2 SLP159 T01940189 10211 20194 53007 $
2026-04-15 10:53:00,METAR KCXO 151053Z 00000KT 7SM FEW016 BKN023 OVC036 20/19 A2999 RMK AO2 SLP154 T02000189
2026-04-15 09:53:00,METAR KCXO 150953Z AUTO 00000KT 7SM FEW018 BKN028 OVC034 20/19 A2999 RMK AO2 SLP152 T02000189
2026-04-15 09:39:00,SPECI KCXO 150939Z AUTO 00000KT 7SM FEW017 SCT022 OVC028 19/19 A2999 RMK AO2 T01940189
2026-04-15 08:53:00,METAR KCXO 150853Z AUTO 09003KT 10SM FEW017 BKN032 OVC042 20/19 A2999 RMK AO2 SLP152 T02000189 55009
2026-04-15 07:53:00,METAR KCXO 150753Z AUTO 15003KT 10SM FEW014 OVC032 21/19 A2999 RMK AO2 SLP151 T02060194
2026-04-15 06:53:00,METAR KCXO 150653Z AUTO 15005KT 10SM BKN017 BKN024 20/19 A3000 RMK AO2 SLP155 T02000189
2026-04-15 05:53:00,METAR KCXO 150553Z AUTO 16005KT 10SM CLR 21/19 A3002 RMK AO2 SLP161 60000 T02110189 10261 20211 402940206 50001
2026-04-15 04:53:00,METAR KCXO 150453Z AUTO 17008KT 10SM FEW016 FEW021 BKN041 22/19 A3002 RMK AO2 RAB23E49 SLP163 P0000 T02170194
2026-04-15 04:48:00,SPECI KCXO 150448Z AUTO 17009KT 10SM -RA FEW015 SCT020 OVC041 22/19 A3002 RMK AO2 RAB23 P0000
2026-04-15 03:53:00,METAR KCXO 150353Z AUTO 14011KT 10SM BKN018 BKN026 OVC033 22/20 A3001 RMK AO2 SLP160 T02220200
2026-04-15 02:53:00,METAR KCXO 150253Z AUTO 14009KT 10SM SCT018 OVC027 22/20 A3001 RMK AO2 SLP159 60000 T02220200 53006
2026-04-15 02:22:00,SPECI KCXO 150222Z AUTO 14008KT 10SM FEW018 BKN029 23/20 A3000 RMK AO2 T02280200
2026-04-15 01:53:00,METAR KCXO 150153Z AUTO 15011KT 10SM FEW020 SCT032 23/20 A2999 RMK AO2 RAB18E23 SLP154 P0000 T02280200
2026-04-15 00:53:00,METAR KCXO 150053Z 14010KT 10SM CLR 24/19 A2999 RMK AO2 SLP151 T02390194
2026-04-14 23:53:00,METAR KCXO 142353Z 15015G23KT 10SM FEW030 BKN043 26/20 A2999 RMK AO2 RAB11E40 SLP153 P0000 60000 T02610200 10294 20261 55011
2026-04-14 22:53:00,METAR KCXO 142253Z 15013G22KT 10SM SCT032 SCT041 28/20 A2999 RMK AO2 SLP151 T02780200
2026-04-14 21:53:00,METAR KCXO 142153Z 15011KT 10SM FEW035 SCT070 28/21 A3000 RMK AO2 RAB34E43 SLP155 P0000 T02830211
2026-04-14 20:53:00,METAR KCXO 142053Z 13009G17KT 10SM FEW029 SCT041 OVC065 28/21 A3002 RMK AO2 SLP163 60000 T02780206 56018
2026-04-14 19:53:00,METAR KCXO 141953Z 15013G20KT 10SM FEW035 BKN065 28/19 A3004 RMK AO2 RAB08E25 SLP168 P0000 T02780194
2026-04-14 18:53:00,METAR KCXO 141853Z 17012KT 10SM OVC060 27/19 A3006 RMK AO2 SLP175 T02720194
2026-04-14 17:53:00,METAR KCXO 141753Z 17008KT 10SM FEW036 BKN047 OVC060 27/20 A3008 RMK AO2 RAB38E47 SLP181 P0000 60000 T02670200 10278 20206 58002
2026-04-14 16:53:00,METAR KCXO 141653Z 17013KT 10SM SCT032 BKN046 27/19 A3009 RMK AO2 SLP185 T02670189
2026-04-14 16:06:00,SPECI KCXO 141606Z 20008KT 10SM SCT025 BKN035 BKN042 26/20 A3009 RMK AO2 T02610200
2026-04-14 15:53:00,METAR KCXO 141553Z 20008G19KT 10SM BKN025 OVC036 26/19 A3009 RMK AO2 SLP187 T02560194
2026-04-14 15:30:00,SPECI KCXO 141530Z 16013G20KT 10SM FEW022 SCT027 BKN037 26/19 A3009 RMK AO2 T02610194
2026-04-14 15:09:00,SPECI KCXO 141509Z 19010KT 10SM SCT022 BKN028 BKN035 24/20 A3008 RMK AO2 T02440200
2026-04-14 14:53:00,METAR KCXO 141453Z 18010G15KT 10SM SCT014 SCT026 BKN031 23/20 A3008 RMK AO2 SLP183 T02330200 51001
2026-04-14 14:51:00,SPECI KCXO 141451Z 18006KT 10SM SCT014 SCT026 BKN031 23/20 A3008 RMK AO2
2026-04-14 14:30:00,SPECI KCXO 141430Z 17009KT 10SM SCT014 BKN022 OVC029 23/20 A3008 RMK AO2 T02330200
2026-04-14 14:21:00,SPECI KCXO 141421Z 16009KT 10SM SCT012 SCT022 OVC030 24/21 A3008 RMK AO2 T02390211
2026-04-14 14:10:00,SPECI KCXO 141410Z 18010KT 10SM SCT009 BKN015 OVC030 23/21 A3009 RMK AO2 T02280211
2026-04-14 14:04:00,SPECI KCXO 141404Z 18007KT 10SM BKN011 OVC028 22/21 A3009 RMK AO2 T02220206
2026-04-14 13:53:00,METAR KCXO 141353Z 18009KT 10SM SCT009 SCT015 OVC026 22/21 A3009 RMK AO2 SLP185 T02220206
2026-04-14 13:20:00,SPECI KCXO 141320Z 14007KT 9SM SCT008 BKN015 OVC029 21/21 A3008 RMK AO2 T02110206
2026-04-14 12:53:00,METAR KCXO 141253Z 14005KT 3SM BR FEW006 BKN012 OVC019 21/21 A3008 RMK AO2 SLP182 T02110206
2026-04-14 12:01:00,SPECI KCXO 141201Z 13003KT 3SM BR SCT009 BKN013 OVC033 21/19 A3006 RMK AO2 T02060194
2026-04-14 11:53:00,METAR KCXO 141153Z 14004KT 3SM BR FEW009 SCT013 OVC030 21/19 A3006 RMK AO2 SLP175 70002 T02060194 10222 20206 50000
2026-04-14 10:53:00,METAR KCXO 141053Z 14003KT 8SM FEW009 BKN023 OVC029 21/19 A3006 RMK AO2 SLP176 T02060194
2026-04-14 10:36:00,SPECI KCXO 141036Z AUTO 15003KT 9SM SCT010 BKN018 OVC030 21/19 A3006 RMK AO2 T02060194
2026-04-14 10:26:00,SPECI KCXO 141026Z AUTO 15003KT 9SM BKN010 OVC015 21/20 A3006 RMK AO2 T02060200
2026-04-14 09:53:00,METAR KCXO 140953Z AUTO 16005KT 10SM OVC009 21/20 A3006 RMK AO2 SLP174 T02110200
2026-04-14 08:53:00,METAR KCXO 140853Z AUTO 16005KT 10SM OVC012 21/20 A3006 RMK AO2 SLP174 T02060200 58016
2026-04-14 08:00:00,SPECI KCXO 140800Z AUTO 15005KT 10SM BKN014 BKN023 21/20 A3007 RMK AO2 T02110200
2026-04-14 07:53:00,METAR KCXO 140753Z AUTO 17004KT 10SM SCT014 BKN025 21/20 A3007 RMK AO2 SLP180 T02110200
2026-04-14 06:53:00,METAR KCXO 140653Z AUTO 16008KT 10SM SCT016 BKN029 OVC037 22/20 A3009 RMK AO2 SLP186 T02170200
2026-04-14 05:53:00,METAR KCXO 140553Z AUTO 16007KT 10SM FEW010 BKN024 OVC044 22/21 A3010 RMK AO2 SLP190 T02170206 10250 20217 402890211 56001
2026-04-14 04:53:00,METAR KCXO 140453Z AUTO 16010KT 10SM FEW018 BKN024 22/20 A3010 RMK AO2 SLP190 T02220200
2026-04-14 03:53:00,METAR KCXO 140353Z AUTO 15010KT 10SM CLR 22/20 A3010 RMK AO2 SLP191 T02220200
2026-04-14 02:53:00,METAR KCXO 140253Z AUTO 15010KT 10SM OVC045 23/21 A3011 RMK AO2 SLP192 T02330206 53017
2026-04-14 01:53:00,METAR KCXO 140153Z AUTO 15011KT 10SM OVC048 23/20 A3008 RMK AO2 SLP183 T02330200
2026-04-14 00:53:00,METAR KCXO 140053Z 15011KT 10SM SCT037 OVC048 24/21 A3007 RMK AO2 SLP178 T02390206
2026-04-14 00:29:00,SPECI KCXO 140029Z 14009KT 10SM SCT026 BKN035 OVC050 24/21 A3006 RMK AO2 T02440206
2026-04-14 00:22:00,SPECI KCXO 140022Z 14007KT 10SM BKN026 BKN033 OVC050 24/21 A3006 RMK AO2 T02440206
2026-04-14 00:09:00,SPECI KCXO 140009Z 13008KT 10SM SCT022 BKN032 OVC050 25/21 A3006 RMK AO2 T02500206
2026-04-13 23:53:00,METAR KCXO 132353Z 13008KT 10SM BKN022 OVC050 25/21 A3005 RMK AO2 SLP174 60002 T02500206 10289 20250 55010
2026-04-13 22:53:00,METAR KCXO 132253Z 13012G20KT 10SM BKN023 BKN031 OVC045 26/21 A3005 RMK AO2 SLP173 T02610206
2026-04-13 21:53:00,METAR KCXO 132153Z 15010G16KT 10SM BKN025 BKN032 OVC041 27/21 A3006 RMK AO2 SLP177 T02720211
2026-04-13 21:41:00,SPECI KCXO 132141Z 14008KT 10SM FEW022 BKN027 BKN036 27/21 A3006 RMK AO2 T02670211
2026-04-13 20:53:00,METAR KCXO 132053Z 15013G20KT 10SM FEW022 BKN044 BKN085 28/22 A3009 RMK AO2 SLP185 60002 T02830217 58014
2026-04-13 20:00:00,SPECI KCXO 132000Z 15012KT 10SM FEW025 SCT031 BKN042 27/22 A3010 RMK AO2 T02720222
2026-04-13 19:53:00,METAR KCXO 131953Z 16012G18KT 10SM BKN025 BKN036 OVC055 27/22 A3010 RMK AO2 RAE49 SLP191 P0002 T02670217
2026-04-13 18:53:00,METAR KCXO 131853Z 16010KT 10SM -RA BKN025 BKN036 OVC055 26/21 A3011 RMK AO2 RAB03E13B44 SLP194 P0000 T02610206
2026-04-13 17:53:00,METAR KCXO 131753Z 17008KT 10SM FEW026 SCT032 OVC048 27/21 A3013 RMK AO2 SLP199 T02720211 10278 20217 58005
2026-04-13 17:35:00,SPECI KCXO 131735Z 16011KT 10SM SCT024 SCT031 OVC048 27/21 A3013 RMK AO2 T02720206
2026-04-13 17:25:00,SPECI KCXO 131725Z 17011KT 10SM BKN024 BKN031 OVC046 27/21 A3014 RMK AO2 T02720211
2026-04-13 16:53:00,METAR KCXO 131653Z 17007KT 10SM SCT020 BKN034 OVC043 26/21 A3015 RMK AO2 SLP207 T02560211
2026-04-13 16:23:00,SPECI KCXO 131623Z 19010KT 10SM FEW022 OVC030 26/21 A3015 RMK AO2 T02560206
2026-04-13 15:53:00,METAR KCXO 131553Z 19010KT 10SM SCT017 BKN024 OVC031 25/21 A3015 RMK AO2 SLP206 T02500206
2026-04-13 15:03:00,SPECI KCXO 131503Z 17011KT 10SM BKN015 OVC027 25/22 A3014 RMK AO2 T02500217
2026-04-13 14:53:00,METAR KCXO 131453Z 16012KT 10SM BKN013 OVC029 24/21 A3014 RMK AO2 SLP204 T02440211 50006
2026-04-13 14:27:00,SPECI KCXO 131427Z 16010KT 10SM BKN012 OVC023 24/21 A3015 RMK AO2 T02390211
2026-04-13 14:17:00,SPECI KCXO 131417Z 16010KT 10SM SCT011 BKN025 OVC090 24/21 A3015 RMK AO2 T02390211
2026-04-13 13:53:00,METAR KCXO 131353Z 16007KT 10SM FEW027 BKN043 OVC090 23/21 A3015 RMK AO2 SLP205 T02280211
2026-04-13 12:53:00,METAR KCXO 131253Z 16007KT 10SM BKN046 OVC090 22/21 A3013 RMK AO2 SLP201 T02170206
2026-04-13 11:53:00,METAR KCXO 131153Z 15003KT 10SM SCT035 OVC044 22/21 A3013 RMK AO2 SLP198 70032 T02170206 10217 20206 53006
2026-04-13 10:53:00,METAR KCXO 131053Z 16008KT 10SM OVC037 22/21 A3011 RMK AO2 SLP191 T02170206
2026-04-13 09:53:00,METAR KCXO 130953Z AUTO 17007KT 10SM SCT029 BKN034 OVC095 22/21 A3010 RMK AO2 SLP190 T02170206
2026-04-13 08:53:00,METAR KCXO 130853Z AUTO 15005KT 10SM FEW013 BKN032 OVC085 22/21 A3011 RMK AO2 SLP192 T02170206 58010
2026-04-13 08:29:00,SPECI KCXO 130829Z AUTO 13005KT 10SM FEW020 OVC030 22/21 A3011 RMK AO2 LTG DSNT NW T02170206
2026-04-13 08:02:00,SPECI KCXO 130802Z AUTO 13006KT 10SM FEW019 SCT024 OVC028 22/21 A3011 RMK AO2 T02170206
2026-04-13 07:53:00,METAR KCXO 130753Z AUTO 14006KT 10SM FEW017 SCT024 OVC030 22/21 A3011 RMK AO2 SLP193 T02170206
2026-04-13 06:53:00,METAR KCXO 130653Z AUTO 13006KT 9SM OVC024 22/21 A3014 RMK AO2 SLP202 T02170206
2026-04-13 05:53:00,METAR KCXO 130553Z AUTO 12005KT 8SM OVC019 21/20 A3014 RMK AO2 LTG DSNT NW SLP203 60003 T02060200 10211 20189 402440189 50003
2026-04-13 05:35:00,SPECI KCXO 130535Z AUTO 13005KT 9SM FEW009 OVC018 21/20 A3014 RMK AO2 T02060200
2026-04-13 05:28:00,SPECI KCXO 130528Z AUTO 13003KT 9SM FEW009 BKN014 OVC020 21/19 A3014 RMK AO2 T02060194
2026-04-13 05:22:00,SPECI KCXO 130522Z AUTO 12004KT 10SM BKN010 OVC017 21/19 A3014 RMK AO2 T02060194
2026-04-13 04:53:00,METAR KCXO 130453Z AUTO 00000KT 10SM OVC009 21/20 A3015 RMK AO2 CIG 007V012 SLP205 T02060200
2026-04-13 04:50:00,SPECI KCXO 130450Z AUTO 00000KT 10SM OVC009 21/20 A3014 RMK AO2 CIG 007V013
2026-04-13 04:37:00,SPECI KCXO 130437Z AUTO 00000KT 10SM BKN011 BKN120 20/19 A3013 RMK AO2 T02000194
2026-04-13 03:53:00,METAR KCXO 130353Z AUTO 11005KT 10SM CLR 19/18 A3013 RMK AO2 RAE12 SLP200 P0001 T01940183
2026-04-13 02:53:00,METAR KCXO 130253Z AUTO 14006KT 10SM -RA FEW065 BKN120 20/19 A3012 RMK AO2 RAB01E10B48 SLP197 P0000 60002 T02000189 51012
2026-04-13 01:53:00,METAR KCXO 130153Z AUTO 11008KT 10SM BKN120 19/18 A3009 RMK AO2 LTG DSNT S RAB0056E25 SLP186 P0002 T01890183
2026-04-13 00:53:00,METAR KCXO 130053Z 34003KT 10SM FEW080 OVC120 19/18 A3015 RMK AO2 LTG DSNT SW AND W RAE13B27E37 SLP208 P0000 T01890178
2026-04-13 00:18:00,SPECI KCXO 130018Z 29005KT 10SM BKN005 BKN011 OVC120 19/18 A3012 RMK AO2 LTG DSNT SE AND W AND NW RAE13 P0000 T01940183
2026-04-13 00:13:00,SPECI KCXO 130013Z 26008KT 10SM SCT005 BKN011 OVC022 19/19 A3012 RMK AO2 LTG DSNT SE AND W AND NW RAE13 P0000 T01940189
2026-04-13 00:04:00,SPECI KCXO 130004Z 22006KT 10SM -RA BKN004 OVC011 21/19 A3011 RMK AO2 LTG DSNT ALQDS CIG 003V009 PRESRR P0000 T02060194
2026-04-12 23:53:00,METAR KCXO 122353Z 20007KT 10SM -RA OVC005 21/21 A3009 RMK AO2 LTG DSNT ALQDS SLP185 P0003 60028 T02110206 10244 20200 53007
2026-04-12 23:22:00,SPECI KCXO 122322Z 20007G17KT 10SM -RA BKN008 BKN110 21/20 A3008 RMK AO2 LTG DSNT E-S CIG 006V011 PRESRR P0001 T02110200
2026-04-12 23:13:00,SPECI KCXO 122313Z 14011KT 10SM -RA FEW010 BKN110 21/19 A3005 RMK AO2 LTG DSNT SE-SW P0000 T02060194
2026-04-12 22:53:00,METAR KCXO 122253Z 14013G21KT 10SM VCTS -RA SCT120 20/18 A3006 RMK AO2 LTG DSNT ALQDS RAB2159E14B39 SLP175 P0001 T02000183
2026-04-12 22:50:00,SPECI KCXO 122250Z 15014G21KT 10SM VCTS -RA SCT120 20/18 A3006 RMK AO2 LTG DSNT ALQDS RAB2159E14B39 P0001
2026-04-12 22:30:00,SPECI KCXO 122230Z 16009KT 10SM FEW100 20/18 A3007 RMK AO2 LTG DSNT ALQDS RAB2159E14 P0001 T02000183
2026-04-12 22:15:00,SPECI KCXO 122215Z 16011KT 10SM VCTS FEW100 SCT120 20/18 A3006 RMK AO2 LTG DSNT ALQDS RAB2159E14 P0001 T02000183
2026-04-12 22:07:00,SPECI KCXO 122207Z 15012KT 10SM -RA SCT120 21/19 A3006 RMK AO2 LTG DSNT ALQDS RAB2159 P0001 T02060194
2026-04-12 21:53:00,METAR KCXO 122153Z 15012KT 4SM BR FEW007 SCT011 BKN110 21/20 A3007 RMK AO2 PK WND 15028/2100 LTG DSNT ALQDS RAE36 TSB2054E09 SLP178 P0001 T02110200
2026-04-12 21:49:00,SPECI KCXO 122149Z 14012KT 4SM BR FEW007 SCT011 BKN110 22/21 A3006 RMK AO2 PK WND 15028/2100 LTG DSNT ALQDS RAE36 TSB2054E09 P0001
2026-04-12 21:42:00,SPECI KCXO 122142Z 13012G20KT 4SM BR SCT009 BKN012 BKN110 22/21 A3005 RMK AO2 PK WND 15028/2100 LTG DSNT ALQDS RAE36 TSB2054E09 P0001 T02170206
2026-04-12 21:34:00,SPECI KCXO 122134Z 15013G20KT 4SM -RA BR FEW009 SCT012 BKN110 22/21 A3007 RMK AO2 PK WND 15028/2100 LTG DSNT ALQDS TSB2054E09 PRESRR P0001 T02170206
2026-04-12 21:15:00,SPECI KCXO 122115Z 13014G24KT 4SM VCTS -RA BR FEW090 BKN110 22/21 A3005 RMK AO2 PK WND 15028/2100 LTG DSNT ALQDS TSB2054E09 P0001 T02170206
2026-04-12 21:07:00,SPECI KCXO 122107Z 13017G28KT 4SM -TSRA BR FEW080 SCT090 OVC110 22/21 A3006 RMK AO2 PK WND 15028/2100 LTG DSNT ALQDS TSB2054 P0001 T02170206
2026-04-12 21:00:00,SPECI KCXO 122100Z 14018G28KT 2 1/2SM -TSRA BR SCT070 SCT085 OVC110 22/21 A3007 RMK AO2 PK WND 15028/2100 LTG DSNT ALQDS TSB2054 P0000 T02170206
2026-04-12 20:53:00,METAR KCXO 122053Z 13013G22KT 2 1/2SM VCTS RA BR FEW041 BKN075 OVC110 22/21 A3007 RMK AO2 LTG DSNT ALQDS RAB07 TSB20E35 PRESFR SLP181 P0023 60023 T02220211 58019
2026-04-12 20:35:00,SPECI KCXO 122035Z 14011KT 1 1/4SM VCTS +RA BR FEW021 BKN043 OVC075 22/21 A3010 RMK AO2 LTG DSNT SE-SW RAB07 TSB20E35 P0018 T02220206
2026-04-12 20:29:00,SPECI KCXO 122029Z 15013KT 2 1/2SM +TSRA BR SCT021 BKN043 OVC090 23/21 A3010 RMK AO2 LTG DSNT SE-SW RAB07 TSB20 P0012 T02280211
2026-04-12 20:20:00,SPECI KCXO 122020Z 16009KT 2 1/2SM TSRA BR FEW017 BKN023 OVC046 23/21 A3011 RMK AO2 LTG DSNT S-W RAB07 TSB20 P0002 T02280206
2026-04-12 19:53:00,METAR KCXO 121953Z 16012G21KT 10SM FEW017 BKN023 OVC031 24/21 A3011 RMK AO2 LTG DSNT S AND SW SLP192 T02390206
2026-04-12 19:28:00,SPECI KCXO 121928Z 14012G17KT 10SM BKN015 OVC023 24/21 A3010 RMK AO2 LTG DSNT SW T02440206
2026-04-12 19:14:00,SPECI KCXO 121914Z 14014G19KT 10SM BKN014 BKN022 OVC043 24/21 A3010 RMK AO2 LTG DSNT SW T02440211
2026-04-12 18:53:00,METAR KCXO 121853Z 15011KT 10SM FEW017 BKN036 OVC042 24/21 A3011 RMK AO2 RAB22E32B36E46 SLP192 P0000 T02390211
2026-04-12 18:33:00,SPECI KCXO 121833Z 13012KT 10SM SCT018 BKN022 OVC035 23/21 A3012 RMK AO2 RAB22E32 P0000 T02330211
2026-04-12 17:53:00,METAR KCXO 121753Z 13007KT 10SM FEW020 SCT026 OVC039 23/21 A3013 RMK AO2 RAE05B12E30 SLP200 P0001 60001 T02280211 10239 20206 58006
2026-04-12 17:48:00,SPECI KCXO 121748Z 13007KT 10SM FEW014 SCT021 OVC039 23/21 A3013 RMK AO2 RAE05B12E30 P0001
2026-04-12 17:26:00,SPECI KCXO 121726Z 13005KT 6SM -RA BR SCT014 BKN025 OVC040 23/21 A3015 RMK AO2 RAE05B12 P0001 T02280211
2026-04-12 17:06:00,SPECI KCXO 121706Z 11004KT 10SM FEW020 BKN039 OVC050 23/21 A3014 RMK AO2 RAE05 P0000 T02280211
2026-04-12 16:53:00,METAR KCXO 121653Z 13005KT 10SM -RA FEW018 BKN023 OVC034 23/21 A3015 RMK AO2 SLP206 P0000 T02280211
2026-04-12 15:53:00,METAR KCXO 121553Z 12005KT 10SM -RA FEW016 BKN033 OVC042 23/21 A3015 RMK AO2 RAB19 SLP205 P0000 T02330211
2026-04-12 14:56:00,SPECI KCXO 121456Z 14008KT 10SM SCT017 BKN031 OVC040 24/21 A3014 RMK AO2 T02390211
2026-04-12 14:53:00,METAR KCXO 121453Z 16008KT 10SM BKN012 BKN025 OVC030 23/21 A3014 RMK AO2 SLP202 T02330211 51013
2026-04-12 13:53:00,METAR KCXO 121353Z 14009KT 10SM OVC014 22/21 A3012 RMK AO2 SLP198 T02170206
2026-04-12 13:43:00,SPECI KCXO 121343Z 12006KT 10SM BKN011 OVC016 22/21 A3013 RMK AO2 T02170206
2026-04-12 13:00:00,SPECI KCXO 121300Z 13005KT 10SM BKN009 BKN019 OVC100 21/21 A3012 RMK AO2 T02110206
2026-04-12 12:53:00,METAR KCXO 121253Z 13007KT 10SM SCT005 BKN011 OVC018 21/21 A3011 RMK AO2 SLP194 T02110206
2026-04-12 12:26:00,SPECI KCXO 121226Z 09005KT 10SM BKN005 BKN019 21/20 A3011 RMK AO2 T02060200
2026-04-12 12:16:00,SPECI KCXO 121216Z 11005KT 10SM FEW005 SCT019 SCT100 21/19 A3010 RMK AO2 T02060194
2026-04-12 12:01:00,SPECI KCXO 121201Z 12007KT 10SM FEW014 SCT020 BKN100 21/19 A3010 RMK AO2 T02060194
2026-04-12 11:53:00,METAR KCXO 121153Z 11007KT 10SM BKN015 BKN023 OVC100 21/19 A3010 RMK AO2 RAB07E38 SLP188 P0001 60002 70002 T02060194 10211 20206 50000
2026-04-12 11:37:00,SPECI KCXO 121137Z 09005KT 10SM -RA SCT015 BKN021 OVC045 21/19 A3011 RMK AO2 RAB07 P0001 T02060194
2026-04-12 10:53:00,METAR KCXO 121053Z 10005KT 10SM FEW023 SCT029 OVC045 21/19 A3010 RMK AO2 SLP190 T02060194
2026-04-12 10:50:00,SPECI KCXO 121050Z 11005KT 10SM SCT025 BKN038 OVC045 21/19 A3010 RMK AO2
2026-04-12 10:39:00,SPECI KCXO 121039Z AUTO 12004KT 10SM FEW021 BKN026 OVC080 21/19 A3010 RMK AO2 T02060194
2026-04-12 09:53:00,METAR KCXO 120953Z AUTO 09003KT 10SM FEW011 BKN040 OVC060 21/19 A3010 RMK AO2 RAB07E32 SLP188 P0001 T02060194
2026-04-12 09:51:00,SPECI KCXO 120951Z AUTO 10003KT 10SM FEW011 BKN040 OVC060 21/19 A3010 RMK AO2 RAB07E32 P0001
2026-04-12 09:33:00,SPECI KCXO 120933Z AUTO 10004KT 10SM BKN013 BKN020 OVC025 21/19 A3010 RMK AO2 RAB07E32 P0001 T02060194
2026-04-12 08:53:00,METAR KCXO 120853Z AUTO 13004KT 10SM BKN016 BKN021 OVC027 21/19 A3010 RMK AO2 RAB31E49 SLP189 P0000 60000 T02060194 58006
2026-04-12 07:53:00,METAR KCXO 120753Z AUTO 14007KT 10SM BKN019 BKN030 OVC055 21/19 A3010 RMK AO2 RAB16E29 SLP190 P0000 T02060194
2026-04-12 06:53:00,METAR KCXO 120653Z AUTO 12006KT 10SM FEW010 BKN025 OVC048 21/19 A3012 RMK AO2 RAB12E22 SLP196 P0000 T02110194
2026-04-12 06:40:00,SPECI KCXO 120640Z AUTO 13006KT 10SM SCT010 BKN027 OVC046 21/19 A3012 RMK AO2 RAB12E22 P0000 T02060194
2026-04-12 05:53:00,METAR KCXO 120553Z AUTO 12009KT 10SM BKN011 OVC050 21/19 A3012 RMK AO2 SLP195 T02110194 10250 20211 402940206 58009
2026-04-12 04:53:00,METAR KCXO 120453Z AUTO 13009KT 10SM BKN012 OVC020 21/19 A3013 RMK AO2 SLP199 T02110194
2026-04-12 03:53:00,METAR KCXO 120353Z AUTO 13008KT 10SM BKN016 BKN027 22/19 A3014 RMK AO2 SLP204 T02170189
2026-04-12 03:16:00,SPECI KCXO 120316Z AUTO 14007KT 10SM BKN018 22/19 A3015 RMK AO2 T02170189
2026-04-12 02:53:00,METAR KCXO 120253Z AUTO 15006KT 10SM SCT019 22/19 A3015 RMK AO2 SLP205 T02220189 53011
2026-04-12 01:53:00,METAR KCXO 120153Z AUTO 15011KT 10SM FEW022 23/19 A3013 RMK AO2 SLP199 T02280189
2026-04-12 00:53:00,METAR KCXO 120053Z 16011KT 10SM FEW027 SCT037 24/19 A3012 RMK AO2 SLP196 T02390189
2026-04-11 23:53:00,METAR KCXO 112353Z 15013KT 10SM BKN120 25/18 A3011 RMK AO2 SLP194 60000 T02500183 10294 20250 55006
2026-04-11 22:53:00,METAR KCXO 112253Z 16014G19KT 10SM FEW036 BKN120 26/18 A3011 RMK AO2 SLP194 T02610183
2026-04-11 21:53:00,METAR KCXO 112153Z 14010G18KT 10SM FEW034 FEW120 27/19 A3012 RMK AO2 SLP195 T02720189
2026-04-11 20:53:00,METAR KCXO 112053Z 16011G16KT 10SM FEW032 SCT042 SCT049 27/20 A3013 RMK AO2 RAB10E44 SLP201 P0000 60000 T02670200 56024
2026-04-11 19:53:00,METAR KCXO 111953Z 15010KT 10SM SCT037 SCT050 BKN120 27/19 A3016 RMK AO2 SLP209 T02720189
2026-04-11 18:53:00,METAR KCXO 111853Z 15012G19KT 10SM FEW035 BKN090 BKN110 29/20 A3017 RMK AO2 RAB10E21 SLP215 P0000 T02940200
2026-04-11 17:53:00,METAR KCXO 111753Z 14010KT 10SM SCT028 BKN042 BKN080 26/19 A3021 RMK AO2 RAB29E38 SLP225 P0000 60000 T02610194 10272 20206 58011
2026-04-11 16:53:00,METAR KCXO 111653Z 12008G18KT 10SM FEW029 27/19 A3023 RMK AO2 SLP233 T02670194
2026-04-11 15:53:00,METAR KCXO 111553Z 13009KT 10SM FEW020 SCT026 OVC033 25/20 A3025 RMK AO2 SLP239 T02500200
2026-04-11 15:45:00,SPECI KCXO 111545Z 12006KT 10SM FEW018 BKN037 OVC050 24/20 A3024 RMK AO2 T02440200
2026-04-11 14:53:00,METAR KCXO 111453Z 13009KT 10SM SCT013 OVC020 23/21 A3024 RMK AO2 SLP236 T02330206 51013
2026-04-11 14:46:00,SPECI KCXO 111446Z 13007KT 10SM SCT012 OVC020 23/21 A3024 RMK AO2 T02280206
2026-04-11 14:31:00,SPECI KCXO 111431Z 13007KT 10SM BKN014 OVC019 22/21 A3024 RMK AO2 T02220206
2026-04-11 13:53:00,METAR KCXO 111353Z VRB06KT 10SM BKN009 BKN016 OVC022 21/21 A3023 RMK AO2 SLP232 T02110206
2026-04-11 12:53:00,METAR KCXO 111253Z 11006KT 9SM BKN009 OVC014 21/20 A3021 RMK AO2 SLP228 T02060200
2026-04-11 12:19:00,SPECI KCXO 111219Z 12006KT 9SM OVC009 21/20 A3020 RMK AO2 CIG 006V011 T02060200
2026-04-11 11:53:00,METAR KCXO 111153Z 12006KT 6SM BR OVC011 21/19 A3020 RMK AO2 CIG 006V013 SLP223 70016 T02060194 10206 20206 53008
2026-04-11 11:25:00,SPECI KCXO 111125Z 12006KT 10SM BKN010 OVC016 21/20 A3019 RMK AO2 CIG 007V013 T02060200
2026-04-11 10:53:00,METAR KCXO 111053Z 12005KT 6SM BR OVC008 21/20 A3019 RMK AO2 SLP220 T02060200
2026-04-11 09:53:00,METAR KCXO 110953Z AUTO 14004KT 8SM OVC008 21/20 A3018 RMK AO2 CIG 005V011 SLP216 T02060200
2026-04-11 09:35:00,SPECI KCXO 110935Z AUTO 13005KT 9SM BKN009 OVC018 21/20 A3018 RMK AO2 T02060200
2026-04-11 09:22:00,SPECI KCXO 110922Z AUTO 12006KT 9SM SCT009 BKN014 OVC023 21/20 A3018 RMK AO2 T02060200
2026-04-11 09:11:00,SPECI KCXO 110911Z AUTO 12005KT 9SM SCT009 OVC016 21/20 A3017 RMK AO2 T02060200
2026-04-11 08:53:00,METAR KCXO 110853Z AUTO 12005KT 9SM OVC010 21/20 A3018 RMK AO2 CIG 006V012 SLP215 T02060200 56009
2026-04-11 08:42:00,SPECI KCXO 110842Z AUTO 13005KT 9SM OVC010 21/20 A3018 RMK AO2 CIG 007V013 T02060200
2026-04-11 07:53:00,METAR KCXO 110753Z AUTO 12006KT 9SM OVC008 21/20 A3018 RMK AO2 CIG 006V010 SLP216 T02060200
2026-04-11 06:53:00,METAR KCXO 110653Z AUTO 14008KT 8SM OVC005 21/20 A3019 RMK AO2 CIG 004V009 SLP222 T02060200
2026-04-11 05:53:00,METAR KCXO 110553Z AUTO 13006KT 7SM OVC005 21/20 A3020 RMK AO2 CIG 004V008 SLP224 T02060200 10206 20194 402670189 58001
2026-04-11 04:53:00,METAR KCXO 110453Z AUTO 09003KT 5SM BR BKN005 OVC015 20/19 A3021 RMK AO2 SLP227 T02000189
2026-04-11 03:53:00,METAR KCXO 110353Z AUTO 00000KT 8SM SCT007 OVC020 20/19 A3022 RMK AO2 SLP229 T02000189
2026-04-11 03:13:00,SPECI KCXO 110313Z AUTO 09003KT 9SM FEW008 SCT015 OVC026 19/19 A3021 RMK AO2 T01940189
2026-04-11 02:53:00,METAR KCXO 110253Z AUTO 00000KT 10SM FEW015 OVC027 19/19 A3021 RMK AO2 SLP225 T01940189 53015
2026-04-11 02:34:00,SPECI KCXO 110234Z AUTO 00000KT 10SM FEW019 SCT024 OVC029 20/19 A3020 RMK AO2 T02000189
2026-04-11 01:53:00,METAR KCXO 110153Z AUTO 09003KT 10SM FEW027 20/19 A3019 RMK AO2 SLP220 T02000189
2026-04-11 00:53:00,METAR KCXO 110053Z 11004KT 10SM CLR 19/18 A3017 RMK AO2 SLP215 T01940183
2026-04-10 23:53:00,METAR KCXO 102353Z 08003KT 10SM SCT100 20/19 A3016 RMK AO2 RAE48 SLP211 P0004 60016 T02000189 10261 20200 58003
2026-04-10 22:53:00,METAR KCXO 102253Z 14007KT 10SM -RA BKN090 OVC110 21/19 A3017 RMK AO2 RAB13 SLP212 P0000 T02060189
2026-04-10 21:53:00,METAR KCXO 102153Z 13003KT 10SM FEW036 BKN090 OVC110 21/19 A3017 RMK AO2 RAE46 SLP212 P0001 T02110194
2026-04-10 20:53:00,METAR KCXO 102053Z 12005KT 6SM -RA BR FEW037 BKN070 OVC085 22/21 A3017 RMK AO2 LTG DSNT SE AND SW AND NW SLP213 P0006 60011 T02170206 58002
2026-04-10 20:17:00,SPECI KCXO 102017Z 11004KT 10SM -RA FEW045 SCT050 OVC100 22/20 A3018 RMK AO2 LTG DSNT N AND NW P0001 T02170200
2026-04-10 19:53:00,METAR KCXO 101953Z AUTO VRB04KT 10SM VCTS -RA FEW055 SCT080 OVC100 21/19 A3018 RMK AO2 LTG DSNT W-N RAB12 TSB33E48 SLP218 P0004 T02110194
2026-04-10 19:39:00,SPECI KCXO 101939Z 08006KT 6SM -TSRA BR FEW055 BKN080 OVC100 21/18 A3018 RMK AO2 RAB12 TSB33 P0004 T02060183
2026-04-10 19:17:00,SPECI KCXO 101917Z 14008G20KT 10SM -RA SCT027 BKN042 OVC080 22/18 A3018 RMK AO2 LTG DSNT SW-N RAB12 P0000 T02170183
2026-04-10 19:08:00,SPECI KCXO 101908Z 13015G25KT 10SM VCTS BKN023 BKN032 OVC038 23/18 A3018 RMK AO2 LTG DSNT SW-N T02330183
2026-04-10 18:53:00,METAR KCXO 101853Z 08008KT 10SM BKN022 BKN027 BKN043 25/19 A3018 RMK AO2 LTG DSNT W RAB13E35 SLP215 P0001 T02500194
2026-04-10 18:51:00,SPECI KCXO 101851Z 09009KT 060V120 10SM FEW022 BKN027 BKN041 26/20 A3018 RMK AO2 LTG DSNT W RAB13E35 P0001
2026-04-10 18:30:00,SPECI KCXO 101830Z VRB05KT 10SM -RA SCT026 BKN043 OVC100 26/22 A3018 RMK AO2 LTG DSNT E RAB13 P0001 T02560217
2026-04-10 18:11:00,SPECI KCXO 101811Z 15010G15KT 10SM BKN026 BKN031 BKN039 26/19 A3019 RMK AO2 LTG DSNT SE AND S T02560189
2026-04-10 17:53:00,METAR KCXO 101753Z 12004KT 10SM VCTS BKN024 BKN032 26/19 A3020 RMK AO2 LTG DSNT E-S SLP222 T02560194 10267 20189 58003
2026-04-10 17:51:00,SPECI KCXO 101751Z 00000KT 10SM VCTS BKN024 BKN032 26/19 A3020 RMK AO2 LTG DSNT E-S
2026-04-10 17:43:00,SPECI KCXO 101743Z 15006KT 10SM BKN024 BKN034 OVC050 26/19 A3020 RMK AO2 LTG DSNT E-S T02560189
2026-04-10 17:21:00,SPECI KCXO 101721Z 11007KT 10SM FEW022 BKN030 OVC050 25/19 A3021 RMK AO2 LTG DSNT S T02500194
2026-04-10 16:53:00,METAR KCXO 101653Z 11008KT 10SM BKN022 BKN030 BKN048 26/19 A3022 RMK AO2 SLP230 T02560194
2026-04-10 15:53:00,METAR KCXO 101553Z 12007KT 10SM BKN017 OVC021 24/19 A3021 RMK AO2 LTG DSNT S SLP228 T02390194
2026-04-10 15:24:00,SPECI KCXO 101524Z VRB06KT 10SM OVC015 23/19 A3021 RMK AO2 T02280189
2026-04-10 14:53:00,METAR KCXO 101453Z 09003KT 10SM OVC012 22/19 A3021 RMK AO2 SLP225 T02170189 51016
2026-04-10 13:53:00,METAR KCXO 101353Z 08003KT 10SM OVC010 20/18 A3019 RMK AO2 SLP221 T02000183
2026-04-10 13:37:00,SPECI KCXO 101337Z 08006KT 10SM SCT008 BKN012 BKN017 20/18 A3019 RMK AO2 T02000183
2026-04-10 13:30:00,SPECI KCXO 101330Z VRB05KT 10SM SCT008 SCT017 BKN030 19/18 A3018 RMK AO2 T01940183
2026-04-10 12:53:00,METAR KCXO 101253Z 08006KT 5SM BR SCT024 OVC030 19/18 A3017 RMK AO2 SLP214 T01890178
2026-04-10 11:53:00,METAR KCXO 101153Z 08004KT 5SM BR BKN024 19/18 A3016 RMK AO2 SLP209 T01890178 10200 20189 53006
2026-04-10 11:45:00,SPECI KCXO 101145Z 09004KT 5SM BR BKN024 19/18 A3015 RMK AO2 T01890178
2026-04-10 11:13:00,SPECI KCXO 101113Z 11004KT 9SM SCT026 19/18 A3015 RMK AO2 T01890178
2026-04-10 10:53:00,METAR KCXO 101053Z 09005KT 5SM BR FEW020 BKN025 19/18 A3015 RMK AO2 SLP206 T01890178
2026-04-10 10:51:00,SPECI KCXO 101051Z 09005KT 9SM FEW015 SCT020 BKN025 19/18 A3015 RMK AO2
2026-04-10 09:53:00,METAR KCXO 100953Z AUTO 08005KT 9SM FEW020 19/18 A3014 RMK AO2 SLP203 T01890178
2026-04-10 08:53:00,METAR KCXO 100853Z AUTO 12004KT 10SM BKN120 19/18 A3014 RMK AO2 SLP202 T01890183 56007
2026-04-10 08:40:00,SPECI KCXO 100840Z AUTO 11004KT 10SM SCT029 BKN120 19/18 A3014 RMK AO2 T01890183
2026-04-10 08:18:00,SPECI KCXO 100818Z AUTO 11005KT 10SM BKN028 OVC034 19/18 A3014 RMK AO2 T01940178
2026-04-10 07:53:00,METAR KCXO 100753Z AUTO 10004KT 10SM SCT024 BKN033 19/18 A3014 RMK AO2 SLP204 T01940183
2026-04-10 07:49:00,SPECI KCXO 100749Z AUTO 09004KT 10SM FEW016 SCT024 BKN033 19/18 A3014 RMK AO2
2026-04-10 06:53:00,METAR KCXO 100653Z AUTO 00000KT 10SM OVC022 19/18 A3016 RMK AO2 SLP210 T01940183
2026-04-10 06:35:00,SPECI KCXO 100635Z AUTO 13003KT 10SM BKN022 19/18 A3016 RMK AO2 T01940183
2026-04-10 05:53:00,METAR KCXO 100553Z AUTO 11006KT 10SM CLR 20/18 A3015 RMK AO2 SLP206 T02000178 10244 20200 402830144 58002
2026-04-10 05:16:00,SPECI KCXO 100516Z AUTO 12005KT 10SM SCT026 21/18 A3016 RMK AO2 T02060183
2026-04-10 04:53:00,METAR KCXO 100453Z AUTO 12006KT 10SM SCT020 OVC028 21/18 A3016 RMK AO2 SLP210 T02060183
2026-04-10 03:53:00,METAR KCXO 100353Z AUTO 14005KT 10SM FEW021 BKN026 21/18 A3016 RMK AO2 SLP209 T02110178
2026-04-10 03:42:00,SPECI KCXO 100342Z AUTO 13007KT 10SM BKN025 21/18 A3016 RMK AO2 T02110178
2026-04-10 02:53:00,METAR KCXO 100253Z AUTO 13006KT 10SM CLR 22/17 A3016 RMK AO2 SLP209 T02170172 53018
2026-04-10 01:53:00,METAR KCXO 100153Z AUTO 14009KT 10SM CLR 22/17 A3014 RMK AO2 SLP202 T02220167
2026-04-10 00:53:00,METAR KCXO 100053Z 15009KT 10SM CLR 23/17 A3012 RMK AO2 SLP196 T02330167
2026-04-09 23:53:00,METAR KCXO 092353Z 14007KT 10SM CLR 24/17 A3010 RMK AO2 SLP190 T02440167 10283 20244 55001
2026-04-09 22:53:00,METAR KCXO 092253Z 12008KT 10SM CLR 26/15 A3009 RMK AO2 SLP185 T02610150
2026-04-09 21:53:00,METAR KCXO 092153Z 12008KT 10SM FEW055 SCT075 BKN095 27/16 A3010 RMK AO2 SLP189 T02670156
2026-04-09 20:53:00,METAR KCXO 092053Z 11007KT 10SM FEW060 BKN075 27/16 A3010 RMK AO2 SLP191 T02720156 56024
2026-04-09 19:53:00,METAR KCXO 091953Z 17007KT 10SM SCT047 BKN080 28/16 A3012 RMK AO2 SLP198 T02780156
2026-04-09 18:53:00,METAR KCXO 091853Z 11006KT 10SM SCT044 BKN060 27/16 A3015 RMK AO2 SLP207 T02720161
2026-04-09 17:53:00,METAR KCXO 091753Z VRB06KT 10SM FEW037 26/16 A3017 RMK AO2 SLP215 T02560161 10267 20167 58003
2026-04-09 16:53:00,METAR KCXO 091653Z 14009KT 110V170 10SM BKN033 BKN040 25/17 A3019 RMK AO2 SLP220 T02500172
2026-04-09 16:36:00,SPECI KCXO 091636Z 14008KT 10SM BKN029 BKN035 24/17 A3019 RMK AO2 T02440172
2026-04-09 16:11:00,SPECI KCXO 091611Z 16008KT 10SM SCT024 BKN030 24/17 A3019 RMK AO2 T02390172
2026-04-09 15:53:00,METAR KCXO 091553Z 13006KT 10SM BKN016 23/17 A3019 RMK AO2 SLP221 T02330172
2026-04-09 15:29:00,SPECI KCXO 091529Z 12007KT 10SM BKN016 22/18 A3019 RMK AO2 T02220178
2026-04-09 15:06:00,SPECI KCXO 091506Z 12006KT 10SM BKN011 21/18 A3019 RMK AO2 T02110178
2026-04-09 14:53:00,METAR KCXO 091453Z 08006KT 10SM BKN009 19/18 A3018 RMK AO2 SLP219 T01940178 51012
2026-04-09 14:43:00,SPECI KCXO 091443Z 09005KT 10SM BKN006 BKN020 19/18 A3019 RMK AO2 T01940178
2026-04-09 14:41:00,SPECI KCXO 091441Z 11006KT 10SM SCT006 SCT020 19/18 A3019 RMK AO2 T01940183
2026-04-09 14:13:00,SPECI KCXO 091413Z 11005KT 10SM OVC005 18/18 A3018 RMK AO2 T01830178
2026-04-09 13:53:00,METAR KCXO 091353Z 10007KT 4SM BR OVC004 18/17 A3018 RMK AO2 SLP219 T01780172
2026-04-09 13:36:00,SPECI KCXO 091336Z 08005KT 2 1/2SM BR OVC003 17/17 A3018 RMK AO2 T01720167
2026-04-09 12:53:00,METAR KCXO 091253Z 08006KT 1SM BR OVC003 17/16 A3017 RMK AO2 SLP213 T01670161
2026-04-09 12:18:00,SPECI KCXO 091218Z 09006KT 1/2SM FG OVC002 17/16 A3015 RMK AO2 T01670161
2026-04-09 11:53:00,METAR KCXO 091153Z 08005KT 1/8SM FG OVC002 17/16 A3015 RMK AO2 SLP206 T01670161 10172 20144 53006
2026-04-09 11:26:00,SPECI KCXO 091126Z 08004KT 1/2SM FG OVC002 16/16 A3015 RMK AO2 T01610156
2026-04-09 11:03:00,SPECI KCXO 091103Z 07004KT 1SM BR VV004 15/14 A3014 RMK AO2 T01500144
2026-04-09 10:53:00,METAR KCXO 091053Z 00000KT 1/2SM FG VV005 15/14 A3014 RMK AO2 SLP202 T01500144
2026-04-09 10:51:00,SPECI KCXO 091051Z 00000KT 1/2SM FG VV004 15/14 A3014 RMK AO2
2026-04-09 10:41:00,SPECI KCXO 091041Z 00000KT 1/2SM FG FEW002 OVC008 15/15 A3014 RMK AO2 T01500150
2026-04-09 10:33:00,SPECI KCXO 091033Z 00000KT 3/4SM BR SCT002 OVC010 15/14 A3013 RMK AO2 T01500144
2026-04-09 10:28:00,SPECI KCXO 091028Z AUTO 00000KT 2SM BR SCT003 OVC014 16/14 A3013 RMK AO2 T01560144
2026-04-09 10:22:00,SPECI KCXO 091022Z AUTO 00000KT 1 1/2SM BR SCT003 OVC019 14/14 A3013 RMK AO2 T01440139
2026-04-09 10:00:00,SPECI KCXO 091000Z AUTO 00000KT 3/4SM BR SCT003 OVC021 15/14 A3013 RMK AO2 T01500144
2026-04-09 09:57:00,SPECI KCXO 090957Z AUTO 00000KT 1 1/2SM BR BKN003 OVC021 15/15 A3013 RMK AO2 T01500150
2026-04-09 09:53:00,METAR KCXO 090953Z AUTO 00000KT 2 1/2SM BR SCT003 OVC021 16/15 A3013 RMK AO2 SLP200 T01560150
2026-04-09 09:36:00,SPECI KCXO 090936Z AUTO 00000KT 3/4SM BR SCT004 OVC020 15/15 A3013 RMK AO2 T01500150
2026-04-09 09:27:00,SPECI KCXO 090927Z AUTO 00000KT 1 1/2SM BR FEW005 OVC019 16/16 A3013 RMK AO2 T01610161
2026-04-09 08:53:00,METAR KCXO 090853Z AUTO 10003KT 8SM FEW005 BKN017 17/17 A3012 RMK AO2 SLP198 T01720167 56002
2026-04-09 08:41:00,SPECI KCXO 090841Z AUTO 11003KT 8SM FEW006 OVC014 17/17 A3012 RMK AO2 T01720167
2026-04-09 08:16:00,SPECI KCXO 090816Z AUTO 08004KT 9SM BKN014 17/17 A3013 RMK AO2 T01720167
2026-04-09 07:53:00,METAR KCXO 090753Z AUTO 08005KT 10SM FEW013 17/16 A3013 RMK AO2 SLP199 T01720161
2026-04-09 06:53:00,METAR KCXO 090653Z AUTO 09003KT 8SM CLR 16/15 A3013 RMK AO2 SLP200 T01610150
2026-04-09 05:53:00,METAR KCXO 090553Z AUTO 12003KT 10SM CLR 17/16 A3013 RMK AO2 SLP201 T01720161 10250 20172 402780111 51003
2026-04-09 04:53:00,METAR KCXO 090453Z AUTO 14003KT 10SM CLR 18/16 A3013 RMK AO2 SLP200 T01780161
2026-04-09 03:53:00,METAR KCXO 090353Z AUTO 12004KT 10SM CLR 18/16 A3014 RMK AO2 SLP202 T01830156
2026-04-09 02:53:00,METAR KCXO 090253Z AUTO 14004KT 10SM CLR 19/15 A3012 RMK AO2 SLP198 T01940150 53023
2026-04-09 02:13:00,SPECI KCXO 090213Z AUTO 15004KT 10SM CLR 20/15 A3010 RMK AO2 T02000150
2026-04-09 01:53:00,METAR KCXO 090153Z 14005KT 10SM CLR 21/14 A3009 RMK AO2 SLP187 T02060144
2026-04-09 00:53:00,METAR KCXO 090053Z 14007KT 10SM CLR 22/14 A3007 RMK AO2 SLP179 T02220139
2026-04-08 23:53:00,METAR KCXO 082353Z 14010G14KT 10SM BKN055 BKN065 25/13 A3005 RMK AO2 SLP175 T02500133 10278 20244 55000
2026-04-08 22:53:00,METAR KCXO 082253Z 12010G16KT 10SM FEW060 27/13 A3005 RMK AO2 SLP172 T02670133
2026-04-08 21:53:00,METAR KCXO 082153Z 15013G20KT 110V180 10SM SCT055 27/14 A3005 RMK AO2 SLP171 T02720139
2026-04-08 20:53:00,METAR KCXO 082053Z 17009G15KT 10SM SCT060 27/13 A3005 RMK AO2 SLP174 T02720133 58022
2026-04-08 19:53:00,METAR KCXO 081953Z 16012KT 10SM BKN055 27/13 A3008 RMK AO2 SLP183 T02670128
2026-04-08 18:53:00,METAR KCXO 081853Z 13007G19KT 10SM SCT050 25/12 A3010 RMK AO2 SLP191 T02500117
2026-04-08 17:53:00,METAR KCXO 081753Z 16009G20KT 110V180 10SM FEW048 26/13 A3012 RMK AO2 SLP196 T02560133 10261 20111 58004
2026-04-08 16:53:00,METAR KCXO 081653Z 12008G17KT 10SM FEW046 24/13 A3014 RMK AO2 SLP204 T02440128
2026-04-08 15:53:00,METAR KCXO 081553Z VRB06KT 10SM FEW042 23/13 A3014 RMK AO2 SLP204 T02330128
2026-04-08 14:53:00,METAR KCXO 081453Z 09005KT 10SM CLR 22/13 A3013 RMK AO2 SLP202 T02170133 51013
2026-04-08 13:53:00,METAR KCXO 081353Z 06004KT 10SM CLR 18/12 A3013 RMK AO2 SLP199 T01830122
2026-04-08 12:53:00,METAR KCXO 081253Z 00000KT 10SM CLR 13/13 A3011 RMK AO2 SLP195 T01330128
2026-04-08 11:53:00,METAR KCXO 081153Z 32003KT 10SM SCT100 11/11 A3010 RMK AO2 SLP189 T01110106 10150 20111 53007 $
2026-04-08 10:53:00,METAR KCXO 081053Z 00000KT 10SM CLR 12/11 A3008 RMK AO2 SLP185 T01170106
2026-04-08 09:53:00,METAR KCXO 080953Z AUTO 33003KT 10SM FEW110 13/11 A3008 RMK AO2 SLP183 T01330111
2026-04-08 08:53:00,METAR KCXO 080853Z AUTO 00000KT 10SM CLR 14/12 A3007 RMK AO2 SLP182 T01390117 56010
2026-04-08 07:53:00,METAR KCXO 080753Z AUTO 00000KT 10SM CLR 14/11 A3008 RMK AO2 SLP182 T01390111
2026-04-08 06:53:00,METAR KCXO 080653Z AUTO 00000KT 10SM CLR 14/12 A3010 RMK AO2 SLP189 T01390117
2026-04-08 05:53:00,METAR KCXO 080553Z AUTO 00000KT 10SM CLR 14/11 A3010 RMK AO2 SLP192 T01390106 10222 20133 402560072 50002
2026-04-08 04:53:00,METAR KCXO 080453Z AUTO 00000KT 10SM CLR 14/11 A3011 RMK AO2 SLP195 T01390106
2026-04-08 03:53:00,METAR KCXO 080353Z AUTO 00000KT 10SM CLR 15/10 A3012 RMK AO2 SLP196 T01500100
2026-04-08 02:53:00,METAR KCXO 080253Z AUTO 00000KT 10SM CLR 16/10 A3010 RMK AO2 SLP189 T01560100 53021
2026-04-08 01:53:00,METAR KCXO 080153Z AUTO 00000KT 10SM CLR 16/09 A3007 RMK AO2 SLP181 T01610089
2026-04-08 00:53:00,METAR KCXO 080053Z 13003KT 10SM CLR 19/08 A3004 RMK AO2 SLP171 T01940078
2026-04-07 23:53:00,METAR KCXO 072353Z 12004KT 10SM CLR 22/06 A3003 RMK AO2 SLP168 T02220056 10256 20217 55007
2026-04-07 22:53:00,METAR KCXO 072253Z 13005KT 10SM CLR 23/06 A3003 RMK AO2 SLP168 T02330056
2026-04-07 21:53:00,METAR KCXO 072153Z 08006KT 10SM CLR 24/04 A3004 RMK AO2 SLP171 T02390039
2026-04-07 20:53:00,METAR KCXO 072053Z VRB04G14KT 10SM CLR 24/04 A3005 RMK AO2 SLP175 T02440044 56031
2026-04-07 19:53:00,METAR KCXO 071953Z 13005KT 10SM CLR 24/05 A3008 RMK AO2 SLP185 T02390050
2026-04-07 18:53:00,METAR KCXO 071853Z 07006KT 10SM CLR 23/04 A3011 RMK AO2 SLP194 T02330039
2026-04-07 17:53:00,METAR KCXO 071753Z 10SM CLR 22/04 A3015 RMK AO2 SLP207 T02220039 10222 20089 58009
2026-04-07 16:53:00,METAR KCXO 071653Z 13009KT 10SM CLR 21/04 A3017 RMK AO2 SLP214 T02110039
2026-04-07 15:53:00,METAR KCXO 071553Z 09010G15KT 10SM CLR 19/03 A3018 RMK AO2 SLP217 T01940033
2026-04-07 14:53:00,METAR KCXO 071453Z VRB06KT 10SM CLR 18/07 A3018 RMK AO2 SLP216 T01780067 51012
2026-04-07 13:53:00,METAR KCXO 071353Z 09006KT 10SM CLR 16/07 A3016 RMK AO2 SLP212 T01560067
2026-04-07 12:53:00,METAR KCXO 071253Z 08005KT 10SM CLR 12/05 A3016 RMK AO2 SLP210 T01170050
2026-04-07 11:53:00,METAR KCXO 071153Z 00000KT 10SM CLR 10/05 A3014 RMK AO2 SLP204 T01000050 10117 20072 55002 $
2026-04-07 10:53:00,METAR KCXO 071053Z 00000KT 10SM CLR 08/06 A3013 RMK AO2 SLP201 T00780061 $
2026-04-07 09:53:00,METAR KCXO 070953Z AUTO 33003KT 10SM CLR 08/06 A3014 RMK AO2 SLP204 T00780061 $
2026-04-07 08:53:00,METAR KCXO 070853Z AUTO 32004KT 10SM CLR 08/05 A3015 RMK AO2 SLP206 T00780050 55006 $
2026-04-07 07:53:00,METAR KCXO 070753Z AUTO 00000KT 10SM CLR 11/07 A3014 RMK AO2 SLP204 T01110067
2026-04-07 06:53:00,METAR KCXO 070653Z AUTO 34003KT 10SM CLR 08/06 A3016 RMK AO2 SLP211 T00830061
2026-04-07 05:53:00,METAR KCXO 070553Z AUTO 00000KT 10SM CLR 09/07 A3016 RMK AO2 SLP212 T00890067 10222 20089 402390083 58001
2026-04-07 04:53:00,METAR KCXO 070453Z AUTO 00000KT 10SM CLR 09/07 A3017 RMK AO2 SLP214 T00890072
2026-04-07 03:53:00,METAR KCXO 070353Z AUTO 32003KT 10SM CLR 09/07 A3018 RMK AO2 SLP216 T00940072
2026-04-07 02:53:00,METAR KCXO 070253Z AUTO 32003KT 10SM CLR 11/08 A3017 RMK AO2 SLP215 T01110078 53010
2026-04-07 01:53:00,METAR KCXO 070153Z AUTO 00000KT 10SM CLR 13/08 A3015 RMK AO2 SLP210 T01280078
2026-04-07 00:53:00,METAR KCXO 070053Z 34003KT 10SM CLR 16/07 A3014 RMK AO2 SLP206 T01610067
2026-04-06 23:53:00,METAR KCXO 062353Z 01005KT 10SM CLR 22/04 A3014 RMK AO2 SLP203 T02220039 10239 20211 55010
2026-04-06 22:53:00,METAR KCXO 062253Z 02006KT 10SM CLR 23/04 A3014 RMK AO2 SLP203 T02330039
2026-04-06 21:53:00,METAR KCXO 062153Z VRB05KT 10SM CLR 23/04 A3015 RMK AO2 SLP208 T02330044
2026-04-06 20:53:00,METAR KCXO 062053Z VRB04KT 10SM CLR 23/04 A3017 RMK AO2 SLP213 T02280044 58029
2026-04-06 19:53:00,METAR KCXO 061953Z VRB05KT 10SM CLR 22/04 A3020 RMK AO2 SLP223 T02220039
2026-04-06 18:53:00,METAR KCXO 061853Z VRB06G18KT 10SM CLR 22/04 A3023 RMK AO2 SLP234 T02170044
2026-04-06 17:53:00,METAR KCXO 061753Z VRB06G15KT 10SM CLR 21/05 A3025 RMK AO2 SLP243 T02110050 10217 20083 58014
2026-04-06 16:53:00,METAR KCXO 061653Z 07009G19KT 10SM CLR 20/05 A3028 RMK AO2 SLP253 T02000050
2026-04-06 15:53:00,METAR KCXO 061553Z 04010G20KT 10SM CLR 19/03 A3029 RMK AO2 SLP256 T01890028
2026-04-06 14:53:00,METAR KCXO 061453Z 03008KT 10SM CLR 17/06 A3030 RMK AO2 SLP257 T01670056 51015
2026-04-06 13:53:00,METAR KCXO 061353Z 01005KT 10SM CLR 13/07 A3030 RMK AO2 SLP257 T01280072
2026-04-06 12:53:00,METAR KCXO 061253Z 34005KT 10SM CLR 09/07 A3028 RMK AO2 SLP252 T00940067
2026-04-06 11:53:00,METAR KCXO 061153Z 35004KT 10SM CLR 08/06 A3025 RMK AO2 SLP243 T00830061 10128 20083 53001 $
2026-04-06 10:53:00,METAR KCXO 061053Z 33004KT 10SM CLR 09/07 A3024 RMK AO2 SLP240 T00890067 $
2026-04-06 09:53:00,METAR KCXO 060953Z AUTO 34005KT 10SM CLR 09/07 A3024 RMK AO2 SLP240 T00940072 $
2026-04-06 08:53:00,METAR KCXO 060853Z AUTO 34004KT 10SM CLR 09/08 A3025 RMK AO2 SLP242 T00940078 53001 $
2026-04-06 07:53:00,METAR KCXO 060753Z AUTO 35004KT 10SM CLR 12/09 A3024 RMK AO2 SLP238 T01170089 $
2026-04-06 06:53:00,METAR KCXO 060653Z AUTO 32004KT 10SM CLR 12/09 A3025 RMK AO2 SLP242 T01220089 $
2026-04-06 05:53:00,METAR KCXO 060553Z AUTO 33003KT 10SM CLR 13/09 A3025 RMK AO2 SLP240 T01280089 10172 20122 401890122 58003 $
2026-04-06 04:53:00,METAR KCXO 060453Z AUTO 33003KT 10SM CLR 14/08 A3026 RMK AO2 SLP243 T01440078 $
2026-04-06 03:53:00,METAR KCXO 060353Z AUTO 34004KT 10SM CLR 16/08 A3025 RMK AO2 SLP243 T01560078 $
2026-04-06 02:53:00,METAR KCXO 060253Z AUTO 35004KT 10SM CLR 16/08 A3025 RMK AO2 SLP243 T01560083 53011 $
2026-04-06 01:53:00,METAR KCXO 060153Z AUTO 01003KT 10SM OVC110 16/11 A3024 RMK AO2 SLP237 T01560106 $
2026-04-06 00:53:00,METAR KCXO 060053Z 34003KT 10SM OVC120 16/12 A3023 RMK AO2 SLP236 T01560117 $
2026-04-05 23:53:00,METAR KCXO 052353Z 00000KT 10SM SCT120 17/11 A3022 RMK AO2 SLP232 T01720106 10189 20172 56001 $
2026-04-05 22:53:00,METAR KCXO 052253Z 00000KT 10SM CLR 18/09 A3022 RMK AO2 SLP232 T01830089 $
2026-04-05 21:53:00,METAR KCXO 052153Z VRB04KT 10SM CLR 18/07 A3021 RMK AO2 SLP229 T01830072 $
2026-04-05 20:53:00,METAR KCXO 052053Z 35008KT 10SM CLR 18/07 A3022 RMK AO2 SLP232 T01830067 58012 $
2026-04-05 19:53:00,METAR KCXO 051953Z VRB04KT 10SM CLR 19/08 A3024 RMK AO2 SLP237 T01890078 $
2026-04-05 18:53:00,METAR KCXO 051853Z VRB04KT 10SM CLR 19/09 A3025 RMK AO2 SLP240 T01890089 $
2026-04-05 17:53:00,METAR KCXO 051753Z 36007KT 10SM CLR 19/09 A3026 RMK AO2 SLP244 T01890094 10189 20150 58002 $
2026-04-05 16:53:00,METAR KCXO 051653Z 36010G17KT 10SM CLR 18/09 A3027 RMK AO2 SLP248 T01780094 $
2026-04-05 15:53:00,METAR KCXO 051553Z 03008G16KT 10SM CLR 16/09 A3026 RMK AO2 SLP246 T01610094 $
2026-04-05 14:53:00,METAR KCXO 051453Z 01007KT 10SM BKN037 16/10 A3026 RMK AO2 SLP246 T01560100 51019 $
2026-04-05 12:53:00,METAR KCXO 051253Z VRB06KT 10SM FEW025 15/10 A3023 RMK AO2 SLP234 T01500100 $
2026-04-05 12:42:00,SPECI KCXO 051242Z 01006KT 10SM FEW025 15/10 A3022 RMK AO2 T01500100 $
2026-04-05 11:53:00,METAR KCXO 051153Z VRB06KT 10SM OVC024 15/11 A3021 RMK AO2 SLP227 70075 T01500106 10161 20150 53013 $
2026-04-05 11:45:00,SPECI KCXO 051145Z 35006KT 10SM BKN024 OVC065 15/11 A3021 RMK AO2 T01500106 $
2026-04-05 10:53:00,METAR KCXO 051053Z 02007KT 340V040 10SM BKN032 OVC060 16/11 A3019 RMK AO2 SLP221 T01560111 $
2026-04-05 10:01:00,SPECI KCXO 051001Z AUTO 01007KT 10SM SCT027 OVC033 16/12 A3018 RMK AO2 T01610122 $
2026-04-05 09:53:00,METAR KCXO 050953Z AUTO 02005KT 10SM BKN027 OVC033 16/12 A3018 RMK AO2 SLP216 T01610122 $
2026-04-05 09:15:00,SPECI KCXO 050915Z AUTO 01006KT 10SM BKN027 BKN035 OVC060 16/12 A3017 RMK AO2 T01610122 $
2026-04-05 08:53:00,METAR KCXO 050853Z AUTO 02010KT 10SM FEW027 SCT034 OVC060 16/12 A3017 RMK AO2 SLP213 T01610122 53002 $
2026-04-05 08:38:00,SPECI KCXO 050838Z AUTO 01006G15KT 10SM FEW028 OVC060 16/13 A3017 RMK AO2 T01610128 $
2026-04-05 08:02:00,SPECI KCXO 050802Z AUTO 01009G16KT 10SM BKN029 OVC060 16/13 A3016 RMK AO2 T01610128 $
2026-04-05 07:53:00,METAR KCXO 050753Z AUTO 01008KT 10SM SCT028 OVC060 16/13 A3016 RMK AO2 SLP209 T01610128 $
2026-04-05 07:12:00,SPECI KCXO 050712Z AUTO 03010G16KT 10SM SCT020 OVC060 16/13 A3016 RMK AO2 T01610128 $
2026-04-05 06:53:00,METAR KCXO 050653Z AUTO 36009G15KT 10SM BKN019 OVC060 16/13 A3016 RMK AO2 SLP211 T01610133 $
2026-04-05 06:48:00,SPECI KCXO 050648Z AUTO 01008G15KT 10SM BKN019 OVC060 16/14 A3016 RMK AO2 $
2026-04-05 06:23:00,SPECI KCXO 050623Z AUTO 36007G19KT 10SM SCT016 OVC060 16/14 A3017 RMK AO2 T01610144 $
2026-04-05 06:09:00,SPECI KCXO 050609Z AUTO 01008G15KT 10SM FEW008 BKN017 OVC055 16/14 A3017 RMK AO2 T01610144 $
2026-04-05 05:53:00,METAR KCXO 050553Z AUTO 36009G17KT 10SM BKN008 OVC013 17/16 A3017 RMK AO2 RAB20E37 CIG 006V012 SLP212 P0001 60001 T01670156 10194 20161 402780161 50010 $
2026-04-05 04:53:00,METAR KCXO 050453Z AUTO 01005KT 10SM OVC008 17/16 A3017 RMK AO2 SLP212 T01670161 $
2026-04-05 03:53:00,METAR KCXO 050353Z AUTO 36007KT 10SM OVC007 17/16 A3015 RMK AO2 SLP207 T01670161 $
2026-04-05 02:53:00,METAR KCXO 050253Z AUTO 35008KT 10SM OVC006 17/16 A3013 RMK AO2 SLP201 60000 T01670156 53015 $
2026-04-05 02:15:00,SPECI KCXO 050215Z AUTO 34007KT 10SM OVC005 16/16 A3013 RMK AO2 T01610156
2026-04-05 01:53:00,METAR KCXO 050153Z AUTO 33009KT 10SM OVC004 16/16 A3012 RMK AO2 RAE06 SLP197 P0000 T01610156
2026-04-05 00:53:00,METAR KCXO 050053Z 34011KT 10SM -RA OVC004 17/16 A3009 RMK AO2 SLP188 P0000 T01670161
2026-04-05 00:48:00,SPECI KCXO 050048Z 34008KT 10SM -RA OVC004 17/16 A3009 RMK AO2 P0000
2026-04-04 23:53:00,METAR KCXO 042353Z 34008KT 10SM -RA BKN007 BKN032 19/18 A3006 RMK AO2 LTG DSNT E SLP177 P0006 60074 T01940183 10278 20194 53010
2026-04-04 23:37:00,SPECI KCXO 042337Z 36005KT 10SM -RA BKN008 BKN032 OVC110 19/19 A3006 RMK AO2 LTG DSNT E AND SE P0005 T01940189
2026-04-04 23:28:00,SPECI KCXO 042328Z 35005KT 10SM -RA SCT008 BKN034 BKN060 19/19 A3005 RMK AO2 LTG DSNT E-S P0005 T01940189
2026-04-04 22:53:00,METAR KCXO 042253Z 36005KT 4SM RA BR BKN090 OVC110 19/19 A3004 RMK AO2 LTG DSNT E-S TSE22 SLP168 P0011 T01940189
2026-04-04 22:40:00,SPECI KCXO 042240Z 35005KT 6SM RA BR BKN090 OVC110 19/19 A3004 RMK AO2 LTG DSNT NE-S TSE22 P0007 T01940189
2026-04-04 22:28:00,SPECI KCXO 042228Z 02004KT 5SM VCTS RA BR SCT090 OVC110 19/19 A3004 RMK AO2 LTG DSNT NE-S TSE22 P0004 T01940189
2026-04-04 21:56:00,SPECI KCXO 042156Z 36005KT 3SM -TSRA BR BKN034 BKN055 OVC100 19/18 A3005 RMK AO2 LTG DSNT ALQDS P0000 T01940183
2026-04-04 21:53:00,METAR KCXO 042153Z 02005KT 1 3/4SM TSRA BR BKN034 BKN055 OVC085 19/19 A3005 RMK AO2 LTG DSNT ALQDS RAB2058 TSB17E50B52 SLP173 P0057 T01940189
2026-04-04 21:24:00,SPECI KCXO 042124Z 35010KT 1SM +TSRA BR FEW025 BKN039 OVC049 19/18 A3005 RMK AO2 LTG DSNT ALQDS RAB2058 TSB17 P0020 T01940178
2026-04-04 21:17:00,SPECI KCXO 042117Z 31007KT 2SM TSRA BR FEW023 BKN037 OVC049 20/18 A3006 RMK AO2 LTG DSNT SW-NW RAB2058 TSB17 P0012 T02000178
2026-04-04 21:08:00,SPECI KCXO 042108Z 34007G17KT 4SM VCTS RA BKN037 OVC049 21/17 A3006 RMK AO2 LTG DSNT ALQDS RAB2058 PRESRR P0006 T02110172
2026-04-04 20:53:00,METAR KCXO 042053Z 34014G21KT 10SM BKN037 BKN049 OVC065 23/18 A3003 RMK AO2 LTG DSNT ALQDS SLP166 T02330183 55004
2026-04-04 19:53:00,METAR KCXO 041953Z 18010KT 10SM FEW120 27/19 A3002 RMK AO2 LTG DSNT ALQDS SLP162 T02670194
2026-04-04 18:53:00,METAR KCXO 041853Z 21007KT 10SM FEW065 27/19 A3003 RMK AO2 SLP166 T02670194
2026-04-04 17:53:00,METAR KCXO 041753Z 21006KT 10SM FEW030 SCT036 BKN047 27/19 A3004 RMK AO2 SLP171 T02670194 10272 20222 51005
2026-04-04 16:53:00,METAR KCXO 041653Z 19011KT 10SM FEW027 SCT034 SCT046 26/19 A3005 RMK AO2 SLP171 T02610194
2026-04-04 16:23:00,SPECI KCXO 041623Z 19009KT 10SM SCT025 BKN032 BKN046 26/21 A3005 RMK AO2 T02610206
2026-04-04 15:53:00,METAR KCXO 041553Z 20009KT 10SM BKN024 BKN032 OVC045 26/21 A3005 RMK AO2 SLP173 T02560206
2026-04-04 14:53:00,METAR KCXO 041453Z 17009G16KT 10SM SCT017 BKN023 24/21 A3003 RMK AO2 SLP166 T02440211 53005
2026-04-04 14:50:00,SPECI KCXO 041450Z 18008KT 10SM SCT017 BKN023 24/21 A3003 RMK AO2
2026-04-04 13:53:00,METAR KCXO 041353Z 15009KT 10SM FEW019 SCT025 BKN031 23/21 A3000 RMK AO2 SLP157 T02280211
2026-04-04 12:53:00,METAR KCXO 041253Z 14004KT 10SM FEW018 BKN028 22/21 A3001 RMK AO2 SLP160 T02220206
2026-04-04 12:24:00,SPECI KCXO 041224Z 19004KT 10SM BKN026 22/21 A3001 RMK AO2 T02220206
2026-04-04 11:53:00,METAR KCXO 041153Z 17007KT 10SM FEW031 22/21 A2999 RMK AO2 SLP153 60000 70001 T02220206 10239 20222 55002
2026-04-04 10:53:00,METAR KCXO 041053Z 17004KT 10SM FEW020 FEW026 OVC030 22/21 A2999 RMK AO2 SLP152 T02220206
2026-04-04 10:45:00,SPECI KCXO 041045Z 14004KT 10SM FEW019 OVC030 22/20 A2998 RMK AO2 T02220200
2026-04-04 10:26:00,SPECI KCXO 041026Z AUTO 17006KT 10SM FEW019 BKN027 22/21 A2998 RMK AO2 T02220206
2026-04-04 09:53:00,METAR KCXO 040953Z AUTO 15007KT 10SM CLR 22/20 A2997 RMK AO2 SLP146 T02220200
2026-04-04 08:53:00,METAR KCXO 040853Z AUTO 16006KT 10SM FEW022 BKN035 23/20 A3000 RMK AO2 SLP154 60000 T02280200 50009
2026-04-04 08:13:00,SPECI KCXO 040813Z AUTO 16005KT 10SM SCT024 SCT032 OVC039 23/20 A3001 RMK AO2 T02330200
2026-04-04 07:53:00,METAR KCXO 040753Z AUTO 16006KT 10SM SCT021 OVC027 23/20 A3001 RMK AO2 SLP158 T02330200
2026-04-04 07:36:00,SPECI KCXO 040736Z AUTO 16008KT 10SM BKN021 BKN030 OVC037 23/20 A3002 RMK AO2 T02330200
2026-04-04 07:01:00,SPECI KCXO 040701Z AUTO 17012G19KT 10SM FEW017 FEW025 OVC038 23/20 A3001 RMK AO2 T02330200
2026-04-04 06:53:00,METAR KCXO 040653Z AUTO 18010KT 10SM SCT017 BKN025 OVC038 23/21 A3001 RMK AO2 RAB03E19 SLP159 P0000 T02330206
2026-04-04 05:53:00,METAR KCXO 040553Z AUTO 14012G21KT 10SM BKN017 BKN024 BKN034 23/21 A2997 RMK AO2 RAB17E35 SLP145 P0000 60000 T02330206 10250 20233 402890211 56009
2026-04-04 05:00:00,SPECI KCXO 040500Z AUTO 17014G23KT 10SM BKN016 BKN090 BKN120 24/21 A2999 RMK AO2 T02390206
2026-04-04 04:53:00,METAR KCXO 040453Z AUTO 17015G22KT 10SM SCT016 BKN038 BKN090 24/21 A2998 RMK AO2 SLP150 T02390206
2026-04-04 04:51:00,SPECI KCXO 040451Z AUTO 16016G22KT 10SM SCT016 SCT038 BKN090 23/21 A2998 RMK AO2
2026-04-04 04:21:00,SPECI KCXO 040421Z AUTO 15014G23KT 10SM BKN018 24/21 A2999 RMK AO2 T02390206
2026-04-04 04:02:00,SPECI KCXO 040402Z AUTO 16014G22KT 10SM SCT018 24/21 A3000 RMK AO2 T02390206
2026-04-04 03:53:00,METAR KCXO 040353Z AUTO 16016G24KT 10SM SCT018 BKN022 23/21 A3000 RMK AO2 RAB33E43 SLP155 P0000 T02330206
2026-04-04 03:13:00,SPECI KCXO 040313Z AUTO 14010KT 10SM SCT019 OVC043 24/21 A3000 RMK AO2 T02390206
2026-04-04 03:01:00,SPECI KCXO 040301Z AUTO 16012G17KT 10SM BKN021 OVC043 24/21 A3000 RMK AO2 T02390206
2026-04-04 02:53:00,METAR KCXO 040253Z AUTO 15013KT 10SM SCT020 OVC045 24/21 A3000 RMK AO2 RAB38E47 SLP155 P0000 60000 T02390206 53006
2026-04-04 01:53:00,METAR KCXO 040153Z AUTO 15013G20KT 10SM SCT021 BKN050 24/21 A2999 RMK AO2 SLP153 T02390206
2026-04-04 01:42:00,SPECI KCXO 040142Z AUTO 15012G20KT 10SM BKN021 BKN031 OVC050 24/21 A2999 RMK AO2 T02390206
2026-04-04 00:53:00,METAR KCXO 040053Z 15010KT 10SM FEW049 24/20 A2997 RMK AO2 RAE2354 SLP147 P0000 T02390200
2026-04-03 23:53:00,METAR KCXO 032353Z 16014G21KT 10SM -RA SCT028 BKN039 BKN050 25/20 A2998 RMK AO2 RAB39 SLP148 P0000 60000 T02500200 10289 20244 53004
2026-04-03 22:53:00,METAR KCXO 032253Z 16014G21KT 10SM FEW027 26/20 A2997 RMK AO2 SLP145 T02610200
2026-04-03 21:53:00,METAR KCXO 032153Z 16016G21KT 10SM CLR 27/20 A2996 RMK AO2 PK WND 16026/2111 SLP142 T02720200
2026-04-03 20:53:00,METAR KCXO 032053Z 14016G23KT 10SM FEW030 FEW039 28/21 A2997 RMK AO2 RAB04E13 SLP144 P0000 60000 T02780206 56015
2026-04-03 19:53:00,METAR KCXO 031953Z 14016G21KT 10SM SCT029 BKN035 28/21 A2998 RMK AO2 PK WND 16026/1935 SLP149 T02830211
2026-04-03 18:53:00,METAR KCXO 031853Z 15017G25KT 10SM FEW025 SCT034 28/21 A2999 RMK AO2 SLP153 T02780211
2026-04-03 18:26:00,SPECI KCXO 031826Z 14008KT 10SM FEW021 SCT027 BKN032 26/22 A3000 RMK AO2 T02610217
2026-04-03 18:16:00,SPECI KCXO 031816Z 14009KT 10SM SCT024 BKN028 BKN034 26/21 A3001 RMK AO2 T02560211
2026-04-03 17:53:00,METAR KCXO 031753Z 14011KT 10SM FEW022 26/21 A3001 RMK AO2 RAE1654 SLP159 P0000 60001 T02610211 10272 20217 58008
2026-04-03 16:53:00,METAR KCXO 031653Z 14012KT 10SM -RA SCT022 BKN040 OVC065 24/21 A3004 RMK AO2 RAB42 SLP168 P0000 T02440211
2026-04-03 16:49:00,SPECI KCXO 031649Z 15013G20KT 10SM -RA SCT022 BKN030 OVC065 24/21 A3004 RMK AO2 RAB42 P0000
2026-04-03 16:37:00,SPECI KCXO 031637Z 16011G21KT 10SM BKN022 BKN031 OVC060 26/21 A3003 RMK AO2 T02560206
2026-04-03 16:10:00,SPECI KCXO 031610Z 16010KT 10SM SCT023 SCT028 BKN034 26/22 A3003 RMK AO2 T02560217
2026-04-03 15:53:00,METAR KCXO 031553Z 17007KT 10SM BKN025 BKN035 25/22 A3003 RMK AO2 RAE38 SLP167 P0001 T02500217
2026-04-03 15:03:00,SPECI KCXO 031503Z 16009KT 10SM -RA BKN017 BKN027 OVC049 24/21 A3003 RMK AO2 P0000 T02390211
2026-04-03 14:53:00,METAR KCXO 031453Z 15007KT 10SM -RA FEW015 BKN036 OVC050 24/21 A3002 RMK AO2 RAB47 SLP163 P0000 60000 T02390211 51016
2026-04-03 13:53:00,METAR KCXO 031353Z 16008KT 10SM SCT041 23/21 A3001 RMK AO2 SLP159 T02330206
2026-04-03 12:53:00,METAR KCXO 031253Z 14005KT 10SM SCT021 BKN030 22/21 A2999 RMK AO2 SLP153 T02220206
2026-04-03 12:12:00,SPECI KCXO 031212Z 14005KT 10SM SCT023 BKN031 BKN044 22/21 A2998 RMK AO2 T02170206 $
2026-04-03 11:53:00,METAR KCXO 031153Z 14005KT 10SM BKN023 BKN027 BKN041 22/21 A2997 RMK AO2 SLP147 70015 T02170206 10228 20211 53012 $
2026-04-03 09:18:00,SPECI KCXO 030918Z AUTO 15006KT 10SM SCT022 BKN026 OVC032 22/20 A2994 RMK AO2 T02170200 
2026-04-03 08:53:00,METAR KCXO 030853Z AUTO 15006KT 10SM FEW022 BKN033 22/20 A2994 RMK AO2 SLP136 T02170200 58001
2026-04-03 08:19:00,SPECI KCXO 030819Z AUTO 15006KT 10SM SCT019 BKN034 OVC041 22/20 A2994 RMK AO2 T02220200
2026-04-03 08:05:00,SPECI KCXO 030805Z AUTO 15006KT 10SM BKN019 BKN028 OVC039 22/21 A2995 RMK AO2 T02220206
2026-04-03 05:53:00,METAR KCXO 030553Z AUTO 16012KT 10SM CLR 23/20 A2994 RMK AO2 SLP136 T02280200 10250 20222 402610222 50004
2026-04-03 04:53:00,METAR KCXO 030453Z AUTO 17013KT 10SM CLR 23/21 A2995 RMK AO2 SLP137 T02280206
2026-04-03 04:32:00,SPECI KCXO 030432Z AUTO 16012KT 10SM FEW014 FEW021 BKN032 23/21 A2994 RMK AO2 T02280206
2026-04-03 03:53:00,METAR KCXO 030353Z AUTO 16008KT 10SM BKN019 BKN024 OVC031 23/21 A2994 RMK AO2 SLP136 T02280211
2026-04-03 03:34:00,SPECI KCXO 030334Z AUTO 15008KT 10SM SCT013 OVC019 22/21 A2994 RMK AO2 T02220211
2026-04-03 03:19:00,SPECI KCXO 030319Z AUTO 15006KT 10SM BKN013 OVC023 22/21 A2993 RMK AO2 T02220206
2026-04-03 03:00:00,SPECI KCXO 030300Z AUTO 15006KT 10SM BKN016 22/21 A2993 RMK AO2 T02220206
2026-04-03 02:53:00,METAR KCXO 030253Z AUTO 15008KT 10SM SCT016 22/21 A2993 RMK AO2 SLP133 T02220206 53009
2026-04-03 01:53:00,METAR KCXO 030153Z AUTO 15006KT 10SM CLR 22/20 A2991 RMK AO2 SLP126 T02220200
2026-04-03 00:53:00,METAR KCXO 030053Z 15010KT 10SM CLR 23/20 A2991 RMK AO2 SLP124 T02330200
2026-04-02 23:53:00,METAR KCXO 022353Z 16012G23KT 5SM HZ CLR 25/20 A2990 RMK AO2 SLP123 60013 T02500200 10261 20222 55017
2026-04-02 22:53:00,METAR KCXO 022253Z 17015G26KT 5SM HZ FEW023 26/21 A2990 RMK AO2 PK WND 17026/2249 SLP122 T02560206
2026-04-02 21:53:00,METAR KCXO 022153Z 13010KT 5SM HZ FEW029 SCT080 24/22 A2992 RMK AO2 RAB2057E18B36E51 TSE03 SLP128 P0003 T02440217
2026-04-02 21:09:00,SPECI KCXO 022109Z 10008KT 5SM -RA BR SCT021 BKN038 OVC100 23/21 A2995 RMK AO2 RAB2057 TSE03 P0003 T02280211
2026-04-02 20:53:00,METAR KCXO 022053Z 04003KT 3SM TS BR FEW024 BKN050 OVC100 23/22 A2996 RMK AO2 LTG DSNT NE AND NW RAB04E20 TSB42 SLP140 P0000 60010 T02280217 58015
2026-04-02 20:42:00,SPECI KCXO 022042Z 08009KT 3SM TS BR FEW019 BKN050 OVC100 23/22 A2995 RMK AO2 LTG DSNT W-NE RAB04E20 TSB42 P0000 T02280217
2026-04-02 20:00:00,SPECI KCXO 022000Z 07007KT 3SM BR SCT031 BKN038 OVC110 23/22 A2997 RMK AO2 LTG DSNT N AND W T02280217
2026-04-02 19:53:00,METAR KCXO 021953Z 07008KT 2SM BR SCT029 BKN036 OVC048 23/22 A2997 RMK AO2 LTG DSNT W-NE RAB1855E39 SLP144 P0009 T02280217
2026-04-02 19:37:00,SPECI KCXO 021937Z 03003KT 2SM -RA BR SCT029 BKN037 OVC055 23/22 A2998 RMK AO2 LTG DSNT W-NE RAB1855 P0009 T02280217
2026-04-02 19:30:00,SPECI KCXO 021930Z 05003KT 2SM -RA BR BKN029 BKN038 OVC046 22/22 A2998 RMK AO2 LTG DSNT W-NE RAB1855 P0009 T02220217
2026-04-02 18:53:00,METAR KCXO 021853Z 03004KT 2SM BR SCT033 BKN040 OVC080 23/21 A2999 RMK AO2 LTG DSNT NW RAE47 SLP153 P0001 T02280211
2026-04-02 17:53:00,METAR KCXO 021753Z 06003KT 3SM -RA BR FEW050 SCT070 OVC090 23/21 A3000 RMK AO2 RAB07 SLP155 P0002 60002 T02330211 10256 20228 51010
2026-04-02 16:53:00,METAR KCXO 021653Z 15010KT 10SM FEW034 SCT043 26/19 A2998 RMK AO2 SLP150 T02560189
2026-04-02 15:53:00,METAR KCXO 021553Z 18015G21KT 10SM BKN100 26/19 A2998 RMK AO2 SLP150 T02560189
2026-04-02 14:53:00,METAR KCXO 021453Z 17015KT 10SM SCT095 24/19 A2997 RMK AO2 SLP145 T02440194 53018
2026-04-02 13:53:00,METAR KCXO 021353Z 16013KT 10SM BKN095 24/20 A2994 RMK AO2 SLP135 T02390200
2026-04-02 12:53:00,METAR KCXO 021253Z 17009KT 10SM FEW032 FEW050 OVC095 23/20 A2994 RMK AO2 SLP135 T02330200
2026-04-02 11:53:00,METAR KCXO 021153Z 17009KT 10SM SCT023 SCT033 BKN095 23/19 A2992 RMK AO2 SLP127 T02280194 10233 20228 53023
2026-04-02 11:40:00,SPECI KCXO 021140Z 17010KT 10SM FEW020 BKN042 OVC090 23/20 A2992 RMK AO2 T02330200
2026-04-02 10:53:00,METAR KCXO 021053Z 17007KT 10SM OVC019 23/20 A2989 RMK AO2 PRESRR SLP118 T02330200
2026-04-02 09:53:00,METAR KCXO 020953Z AUTO 17011KT 10SM SCT017 BKN029 OVC047 23/20 A2986 RMK AO2 SLP108 T02330200
2026-04-02 08:53:00,METAR KCXO 020853Z AUTO 16013KT 10SM BKN019 BKN028 BKN045 23/20 A2985 RMK AO2 SLP103 T02330200 58015
2026-04-02 07:53:00,METAR KCXO 020753Z AUTO 16013KT 10SM FEW019 BKN025 OVC032 23/20 A2987 RMK AO2 SLP109 T02330200
2026-04-02 06:53:00,METAR KCXO 020653Z AUTO 17008KT 10SM BKN020 OVC028 23/20 A2990 RMK AO2 SLP120 T02280200
2026-04-02 05:53:00,METAR KCXO 020553Z AUTO 17011KT 10SM BKN020 BKN035 OVC042 23/20 A2989 RMK AO2 SLP118 T02280200 10244 20222 403000189 58004
2026-04-02 04:53:00,METAR KCXO 020453Z AUTO 16011KT 10SM SCT021 BKN025 BKN039 23/20 A2991 RMK AO2 SLP123 T02330200
2026-04-02 04:43:00,SPECI KCXO 020443Z AUTO 16012KT 10SM SCT019 BKN025 OVC040 23/20 A2991 RMK AO2 T02330200
2026-04-02 04:04:00,SPECI KCXO 020404Z AUTO 16012G19KT 10SM FEW019 SCT025 BKN035 23/19 A2991 RMK AO2 T02330194
2026-04-02 03:53:00,METAR KCXO 020353Z AUTO 16008KT 10SM SCT019 BKN025 OVC034 23/19 A2991 RMK AO2 SLP124 T02330194
2026-04-02 03:17:00,SPECI KCXO 020317Z AUTO 15008KT 10SM BKN024 BKN033 23/19 A2990 RMK AO2 T02280189
2026-04-02 02:53:00,METAR KCXO 020253Z AUTO 14008KT 10SM CLR 22/19 A2990 RMK AO2 SLP123 T02220189 58001
2026-04-02 01:53:00,METAR KCXO 020153Z AUTO 16012KT 10SM CLR 24/18 A2991 RMK AO2 SLP124 T02390183
2026-04-02 00:53:00,METAR KCXO 020053Z 16011KT 10SM CLR 24/18 A2991 RMK AO2 SLP125 T02440183
2026-04-01 23:53:00,METAR KCXO 012353Z 16013G22KT 10SM FEW042 26/18 A2991 RMK AO2 SLP124 T02610183 10300 20261 56010
2026-04-01 22:53:00,METAR KCXO 012253Z 14010KT 10SM SCT050 BKN060 27/18 A2992 RMK AO2 SLP128 T02670183
2026-04-01 21:53:00,METAR KCXO 012153Z 16013KT 10SM SCT048 BKN060 BKN110 27/18 A2992 RMK AO2 PK WND 15028/2104 LTG DSNT N AND NW SLP129 T02670178
2026-04-01 20:53:00,METAR KCXO 012053Z 15021G27KT 10SM BKN041 BKN049 28/18 A2994 RMK AO2 PK WND 14028/2040 LTG DSNT NW SLP134 T02830183 58029
2026-04-01 20:10:00,SPECI KCXO 012010Z 14012G20KT 10SM SCT029 BKN036 BKN044 28/20 A2995 RMK AO2 LTG DSNT W AND NW T02780200
2026-04-01 19:53:00,METAR KCXO 011953Z 16013G19KT 10SM BKN029 29/21 A2996 RMK AO2 LTG DSNT SW-NW SLP142 T02940211
2026-04-01 19:00:00,SPECI KCXO 011900Z 16014G19KT 10SM FEW025 BKN100 27/20 A2999 RMK AO2 T02670200
2026-04-01 18:53:00,METAR KCXO 011853Z 16013G19KT 10SM BKN025 BKN030 BKN100 26/20 A3000 RMK AO2 PK WND 15028/1818 LTG DSNT E SLP155 T02610200
2026-04-01 18:33:00,SPECI KCXO 011833Z 15017G24KT 10SM BKN025 BKN033 27/21 A3001 RMK AO2 PK WND 15028/1818 LTG DSNT E AND SE T02720206
2026-04-01 17:53:00,METAR KCXO 011753Z 16012G20KT 10SM FEW021 BKN100 28/22 A3002 RMK AO2 SLP163 T02830217 10289 20194 58000
2026-04-01 17:49:00,SPECI KCXO 011749Z 14011KT 10SM FEW021 BKN100 29/22 A3002 RMK AO2 LTG DSNT SE
2026-04-01 17:34:00,SPECI KCXO 011734Z 18012KT 10SM VCTS FEW032 OVC100 27/21 A3003 RMK AO2 LTG DSNT SE T02670206
2026-04-01 16:53:00,METAR KCXO 011653Z 18010KT 10SM FEW024 SCT029 BKN100 28/21 A3003 RMK AO2 LTG DSNT E AND SE SLP166 T02780211
2026-04-01 15:53:00,METAR KCXO 011553Z 16010KT 10SM FEW016 SCT023 SCT028 26/21 A3002 RMK AO2 SLP164 T02610211
2026-04-01 15:01:00,SPECI KCXO 011501Z 17009KT 10SM BKN015 BKN022 OVC036 24/21 A3002 RMK AO2 T02440206
2026-04-01 14:53:00,METAR KCXO 011453Z 17007KT 10SM BKN013 BKN019 OVC027 24/21 A3003 RMK AO2 SLP164 T02390206 50005
2026-04-01 13:53:00,METAR KCXO 011353Z 12007KT 8SM FEW020 BKN025 OVC042 21/21 A3004 RMK AO2 SLP168 T02110206
2026-04-01 12:53:00,METAR KCXO 011253Z 13003KT 5SM BR FEW014 BKN021 OVC027 20/19 A3002 RMK AO2 SLP162 T02000194
2026-04-01 11:53:00,METAR KCXO 011153Z 09003KT 6SM BR BKN022 OVC041 19/19 A3001 RMK AO2 SLP159 T01940189 10211 20189 53003
2026-04-01 11:05:00,SPECI KCXO 011105Z 11003KT 3SM BR SCT017 SCT021 OVC028 19/18 A3000 RMK AO2 T01940183
2026-04-01 10:55:00,SPECI KCXO 011055Z 00000KT 3SM BR SCT021 BKN030 BKN038 19/19 A3000 RMK AO2 T01940189
2026-04-01 10:53:00,METAR KCXO 011053Z 00000KT 2 1/2SM BR SCT021 BKN026 BKN032 19/19 A3000 RMK AO2 SLP157 T01940189
2026-04-01 10:12:00,SPECI KCXO 011012Z AUTO 09003KT 7SM SCT017 BKN032 20/19 A3000 RMK AO2 T02000189
2026-04-01 09:53:00,METAR KCXO 010953Z AUTO 09003KT 7SM SCT015 BKN021 OVC032 20/19 A3000 RMK AO2 SLP155 T02000189
2026-04-01 09:51:00,SPECI KCXO 010951Z AUTO 09004KT 7SM SCT015 BKN021 OVC032 20/19 A3000 RMK AO2
2026-04-01 08:53:00,METAR KCXO 010853Z AUTO 14005KT 10SM FEW017 FEW033 20/19 A3000 RMK AO2 SLP154 T02000194 58005
2026-04-01 07:53:00,METAR KCXO 010753Z AUTO 16006KT 10SM FEW017 SCT025 BKN031 21/19 A3001 RMK AO2 SLP157 T02110194
2026-04-01 06:53:00,METAR KCXO 010653Z AUTO 15009KT 10SM FEW020 SCT026 21/19 A3001 RMK AO2 SLP159 T02060194
2026-04-01 06:49:00,SPECI KCXO 010649Z AUTO 15009KT 10SM SCT019 BKN026 21/19 A3001 RMK AO2
2026-04-01 05:53:00,METAR KCXO 010553Z AUTO 14006KT 10SM FEW013 FEW022 21/19 A3002 RMK AO2 SLP164 T02060189 10267 20206 403000183 51005
2026-04-01 04:53:00,METAR KCXO 010453Z AUTO 15005KT 10SM CLR 21/19 A3002 RMK AO2 SLP163 T02060189
2026-04-01 03:53:00,METAR KCXO 010353Z AUTO 15007KT 10SM CLR 21/19 A3003 RMK AO2 SLP164 T02110189
2026-04-01 02:53:00,METAR KCXO 010253Z AUTO 13007KT 10SM CLR 22/19 A3001 RMK AO2 SLP159 T02220189 53013
2026-04-01 01:53:00,METAR KCXO 010153Z AUTO 14008KT 10SM CLR 23/18 A2999 RMK AO2 SLP154 T02330183
2026-04-01 00:53:00,METAR KCXO 010053Z 16010KT 10SM CLR 24/17 A2998 RMK AO2 SLP148 T02440167
2026-03-31 23:53:00,METAR KCXO 312353Z 16013KT 10SM SCT045 27/17 A2997 RMK AO2 SLP147 60000 T02670172 10300 20267 55008
2026-03-31 22:53:00,METAR KCXO 312253Z 15015KT 10SM BKN045 28/18 A2997 RMK AO2 SLP146 T02830178
2026-03-31 21:53:00,METAR KCXO 312153Z 14011KT 10SM FEW020 FEW038 SCT100 27/19 A2998 RMK AO2 PK WND 16026/2124 RAB32E43 SLP149 P0000 T02720194
2026-03-31 20:53:00,METAR KCXO 312053Z 17017G22KT 10SM SCT039 SCT050 BKN060 29/19 A3000 RMK AO2 SLP155 T02940189 56026
2026-03-31 19:53:00,METAR KCXO 311953Z 16014G22KT 10SM FEW038 SCT046 SCT095 30/19 A3002 RMK AO2 SLP162 T03000189
2026-03-31 18:53:00,METAR KCXO 311853Z 17013G18KT 10SM SCT044 BKN055 28/18 A3005 RMK AO2 SLP173 T02830178
2026-03-31 17:53:00,METAR KCXO 311753Z 16014G19KT 10SM FEW041 SCT048 29/18 A3008 RMK AO2 SLP182 T02940183 10294 20189 58005
2026-03-31 16:53:00,METAR KCXO 311653Z 18010G20KT 10SM CLR 27/18 A3010 RMK AO2 SLP188 T02720178
2026-03-31 15:53:00,METAR KCXO 311553Z 18014G20KT 10SM FEW027 BKN034 BKN044 26/18 A3010 RMK AO2 SLP188 T02610183
2026-03-31 15:14:00,SPECI KCXO 311514Z 19007KT 10SM FEW016 SCT027 BKN045 25/21 A3009 RMK AO2 T02500206
2026-03-31 14:53:00,METAR KCXO 311453Z 19008KT 10SM SCT013 BKN017 OVC035 23/20 A3009 RMK AO2 SLP187 T02280200 53004
2026-03-31 14:34:00,SPECI KCXO 311434Z 18009KT 10SM FEW007 BKN018 OVC024 22/21 A3009 RMK AO2 T02170206
2026-03-31 13:53:00,METAR KCXO 311353Z 16009KT 7SM OVC005 21/20 A3008 RMK AO2 SLP184 T02060200
2026-03-31 13:48:00,SPECI KCXO 311348Z 16009KT 6SM BR OVC005 21/20 A3008 RMK AO2
2026-03-31 13:05:00,SPECI KCXO 311305Z 16006KT 3SM BR OVC003 21/20 A3009 RMK AO2 T02060200
2026-03-31 12:53:00,METAR KCXO 311253Z 14008KT 2SM BR OVC003 20/19 A3008 RMK AO2 SLP182 T02000194
2026-03-31 12:24:00,SPECI KCXO 311224Z 13006KT 2SM BR BKN004 BKN014 19/19 A3007 RMK AO2 T01940189
2026-03-31 12:12:00,SPECI KCXO 311212Z 13006KT 2SM BR FEW004 BKN014 19/19 A3007 RMK AO2 T01940189
2026-03-31 12:03:00,SPECI KCXO 311203Z 12006KT 2SM BR FEW014 19/18 A3007 RMK AO2 T01890183
2026-03-31 11:53:00,METAR KCXO 311153Z 12004KT 5SM BR SCT014 19/18 A3007 RMK AO2 SLP179 T01890183 10200 20183 55001
2026-03-31 11:25:00,SPECI KCXO 311125Z 14004KT 6SM BR SCT016 19/18 A3007 RMK AO2 T01890183
2026-03-31 11:14:00,SPECI KCXO 311114Z 13003KT 6SM BR BKN016 19/18 A3007 RMK AO2 T01890183 $
2026-03-31 10:53:00,METAR KCXO 311053Z 14004KT 6SM BR FEW020 19/18 A3007 RMK AO2 SLP178 T01890183 $
2026-03-31 09:53:00,METAR KCXO 310953Z AUTO 15005KT 7SM SCT017 SCT022 19/18 A3007 RMK AO2 SLP178 T01890183 $
2026-03-31 09:33:00,SPECI KCXO 310933Z AUTO 15005KT 7SM BKN016 19/19 A3007 RMK AO2 T01940189 $
2026-03-31 09:11:00,SPECI KCXO 310911Z AUTO 14005KT 8SM FEW017 19/18 A3007 RMK AO2 T01940183 $
2026-03-31 08:53:00,METAR KCXO 310853Z AUTO 16006KT 9SM BKN020 19/19 A3007 RMK AO2 SLP179 T01940189 58010 $
2026-03-31 08:16:00,SPECI KCXO 310816Z AUTO 16006KT 10SM SCT020 20/19 A3008 RMK AO2 T02000189
2026-03-31 07:53:00,METAR KCXO 310753Z AUTO 15008KT 10SM BKN019 20/19 A3009 RMK AO2 SLP185 T02000189
2026-03-31 06:53:00,METAR KCXO 310653Z AUTO 17006KT 10SM FEW029 20/19 A3010 RMK AO2 SLP188 T02000189
2026-03-31 05:53:00,METAR KCXO 310553Z AUTO 16004KT 8SM FEW020 19/18 A3010 RMK AO2 SLP190 T01890183 10250 20189 402940139 51002
2026-03-31 05:15:00,SPECI KCXO 310515Z AUTO 14004KT 9SM SCT020 BKN030 20/19 A3010 RMK AO2 T02000189
2026-03-31 04:53:00,METAR KCXO 310453Z AUTO 14004KT 10SM BKN018 19/18 A3010 RMK AO2 SLP189 T01940183
2026-03-31 04:28:00,SPECI KCXO 310428Z AUTO 13003KT 10SM SCT015 19/18 A3010 RMK AO2 T01940183
2026-03-31 04:20:00,SPECI KCXO 310420Z AUTO 14004KT 10SM SCT013 BKN018 20/18 A3010 RMK AO2 T02000183
2026-03-31 03:53:00,METAR KCXO 310353Z AUTO 13005KT 10SM FEW015 20/18 A3010 RMK AO2 SLP190 T02000183
2026-03-31 02:53:00,METAR KCXO 310253Z AUTO 14008KT 10SM CLR 21/18 A3010 RMK AO2 SLP188 T02110183 53015
2026-03-31 01:53:00,METAR KCXO 310153Z AUTO 14012KT 10SM CLR 22/18 A3008 RMK AO2 SLP182 T02170178
2026-03-31 00:53:00,METAR KCXO 310053Z 14012G18KT 10SM CLR 23/17 A3006 RMK AO2 SLP176 T02330172
2026-03-30 23:53:00,METAR KCXO 302353Z 13014G20KT 10SM CLR 26/17 A3005 RMK AO2 SLP173 T02560167 10294 20256 55004
2026-03-30 22:53:00,METAR KCXO 302253Z 16012G21KT 10SM FEW046 28/17 A3005 RMK AO2 SLP171 T02780167
2026-03-30 21:53:00,METAR KCXO 302153Z 16011KT 10SM FEW049 FEW060 28/16 A3005 RMK AO2 SLP172 T02830161
2026-03-30 20:53:00,METAR KCXO 302053Z 16009G17KT 10SM SCT048 SCT055 27/16 A3006 RMK AO2 SLP177 T02720161 56033
2026-03-30 19:53:00,METAR KCXO 301953Z 15011KT 10SM FEW055 28/16 A3009 RMK AO2 SLP186 T02830161
2026-03-30 18:53:00,METAR KCXO 301853Z 20011G17KT 10SM FEW050 28/16 A3013 RMK AO2 SLP199 T02830156
2026-03-30 17:53:00,METAR KCXO 301753Z 16011KT 10SM CLR 27/16 A3016 RMK AO2 SLP210 T02720161 10278 20167 58012
2026-03-30 17:00:00,SPECI KCXO 301700Z VRB06KT 10SM FEW026 SCT033 BKN040 26/18 A3018 RMK AO2 T02610178
2026-03-30 16:53:00,METAR KCXO 301653Z 15009G17KT 10SM BKN014 26/18 A3018 RMK AO2 SLP217 T02560178
2026-03-30 15:53:00,METAR KCXO 301553Z 15008KT 6SM HZ BKN014 23/18 A3019 RMK AO2 SLP220 T02280183
2026-03-30 15:33:00,SPECI KCXO 301533Z 15008KT 3SM HZ BKN010 BKN014 22/19 A3019 RMK AO2 CIG 006V013 T02170189
2026-03-30 15:05:00,SPECI KCXO 301505Z 00000KT 2SM BR BKN006 OVC010 19/19 A3019 RMK AO2 CIG 004V008 T01940189
2026-03-30 14:53:00,METAR KCXO 301453Z 00000KT 2SM BR OVC004 19/19 A3020 RMK AO2 CIG 002V007 SLP222 T01940189 51012
2026-03-30 14:49:00,SPECI KCXO 301449Z 00000KT 1 1/2SM BR OVC004 19/19 A3020 RMK AO2 CIG 002V006
2026-03-30 14:29:00,SPECI KCXO 301429Z 00000KT 3/4SM BR OVC002 19/19 A3019 RMK AO2 T01890189
2026-03-30 14:21:00,SPECI KCXO 301421Z COR 00000KT 3/4SM BR OVC002 19/19 A3019 RMK AO2 T01890189
2026-03-30 14:13:00,SPECI KCXO 301413Z 00000KT 3/4SM BR OVC002 19/19 A3019 RMK AO2 T01890189
2026-03-30 13:53:00,METAR KCXO 301353Z 00000KT 1/4SM FG VV002 18/18 A3018 RMK AO2 SLP216 T01830178
2026-03-30 13:05:00,SPECI KCXO 301305Z 00000KT 1/4SM FG BKN002 OVC100 17/17 A3016 RMK AO2 T01720172
2026-03-30 12:53:00,METAR KCXO 301253Z 00000KT M1/4SM FG BKN002 OVC110 17/17 A3016 RMK AO2 SLP210 T01720167
2026-03-30 12:30:00,SPECI KCXO 301230Z 00000KT M1/4SM FG VV002 17/17 A3016 RMK AO2 T01720167
2026-03-30 11:53:00,METAR KCXO 301153Z 00000KT 1/4SM FG VV002 17/16 A3014 RMK AO2 SLP204 T01670161 10172 20139 53003
2026-03-30 10:53:00,METAR KCXO 301053Z 13003KT 1/4SM FG VV002 16/16 A3013 RMK AO2 SLP198 T01610156
2026-03-30 10:12:00,SPECI KCXO 301012Z AUTO 00000KT 1/4SM FG VV002 14/14 A3013 RMK AO2 T01440144
2026-03-30 10:00:00,SPECI KCXO 301000Z AUTO 00000KT 3/4SM BR VV004 14/13 A3013 RMK AO2 T01390133
2026-03-30 09:53:00,METAR KCXO 300953Z AUTO 00000KT 1/4SM FG VV006 14/14 A3013 RMK AO2 SLP200 T01440139
2026-03-30 09:26:00,SPECI KCXO 300926Z AUTO 00000KT 1/4SM FG VV008 15/15 A3013 RMK AO2 T01500150
2026-03-30 09:15:00,SPECI KCXO 300915Z AUTO 00000KT 3/4SM BR VV009 15/15 A3013 RMK AO2 T01500150
2026-03-30 09:13:00,SPECI KCXO 300913Z AUTO 00000KT 1 1/4SM BR FEW010 16/16 A3013 RMK AO2 T01560156
2026-03-30 08:53:00,METAR KCXO 300853Z AUTO 00000KT 5SM BR CLR 16/16 A3013 RMK AO2 SLP201 T01610156 58009
2026-03-30 08:01:00,SPECI KCXO 300801Z AUTO 14004KT 5SM BR CLR 16/16 A3014 RMK AO2 T01610156
2026-03-30 07:53:00,METAR KCXO 300753Z AUTO 14003KT 2 1/2SM BR CLR 17/16 A3015 RMK AO2 SLP205 T01670161
2026-03-30 06:53:00,METAR KCXO 300653Z AUTO 14004KT 7SM CLR 17/16 A3015 RMK AO2 SLP208 T01670156
2026-03-30 05:53:00,METAR KCXO 300553Z AUTO 13003KT 10SM CLR 17/17 A3016 RMK AO2 SLP211 T01720167 10256 20172 402890094 50002
2026-03-30 04:53:00,METAR KCXO 300453Z AUTO 15006KT 10SM CLR 18/17 A3017 RMK AO2 SLP212 T01830167
2026-03-30 03:53:00,METAR KCXO 300353Z AUTO 16007KT 10SM CLR 19/17 A3017 RMK AO2 SLP213 T01940172
2026-03-30 02:53:00,METAR KCXO 300253Z AUTO 15009KT 10SM CLR 20/17 A3016 RMK AO2 SLP209 T02000172 53012
2026-03-30 01:53:00,METAR KCXO 300153Z AUTO 14006KT 10SM CLR 21/17 A3014 RMK AO2 SLP203 T02110167
2026-03-30 00:53:00,METAR KCXO 300053Z 14008KT 10SM CLR 23/16 A3012 RMK AO2 SLP198 T02280161
2026-03-29 23:53:00,METAR KCXO 292353Z 16012KT 10SM CLR 26/16 A3012 RMK AO2 SLP198 T02560156 10289 20250 56009
2026-03-29 22:53:00,METAR KCXO 292253Z 15012G21KT 10SM CLR 27/16 A3013 RMK AO2 SLP200 T02720161
2026-03-29 21:53:00,METAR KCXO 292153Z 15011KT 10SM FEW050 28/15 A3013 RMK AO2 SLP201 T02830150
2026-03-29 20:53:00,METAR KCXO 292053Z 16009KT 10SM CLR 27/15 A3015 RMK AO2 SLP207 T02670150 56034
2026-03-29 20:20:00,SPECI KCXO 292020Z 17012G19KT 10SM FEW050 28/15 A3016 RMK AO2 T02780150
2026-03-29 19:53:00,METAR KCXO 291953Z 18011G21KT 10SM SCT049 28/15 A3018 RMK AO2 SLP217 T02780150
2026-03-29 18:53:00,METAR KCXO 291853Z 21007KT 10SM CLR 27/15 A3021 RMK AO2 SLP229 T02670150
2026-03-29 17:53:00,METAR KCXO 291753Z 16010G14KT 10SM CLR 25/14 A3025 RMK AO2 SLP241 T02500144 10256 20100 58013
2026-03-29 16:53:00,METAR KCXO 291653Z 20010G15KT 10SM CLR 23/13 A3028 RMK AO2 SLP250 T02330133
2026-03-29 15:53:00,METAR KCXO 291553Z 17007KT 10SM CLR 22/12 A3029 RMK AO2 SLP255 T02220122
2026-03-29 14:53:00,METAR KCXO 291453Z 14003KT 10SM CLR 19/09 A3029 RMK AO2 SLP254 T01940089 51012
2026-03-29 13:53:00,METAR KCXO 291353Z 00000KT 10SM CLR 16/10 A3028 RMK AO2 SLP251 T01610100
2026-03-29 12:53:00,METAR KCXO 291253Z 00000KT 10SM CLR 11/09 A3027 RMK AO2 SLP247 T01110094
2026-03-29 11:53:00,METAR KCXO 291153Z 00000KT 10SM CLR 10/08 A3025 RMK AO2 SLP242 T01000083 10122 20094 53004
2026-03-29 10:53:00,METAR KCXO 291053Z 00000KT 10SM CLR 10/08 A3024 RMK AO2 SLP239 T01000083
2026-03-29 09:53:00,METAR KCXO 290953Z AUTO 00000KT 10SM CLR 10/08 A3023 RMK AO2 SLP236 T01000083
2026-03-29 08:53:00,METAR KCXO 290853Z AUTO 00000KT 10SM CLR 11/08 A3024 RMK AO2 SLP239 T01060083 56014
2026-03-29 07:53:00,METAR KCXO 290753Z AUTO 00000KT 10SM CLR 11/08 A3025 RMK AO2 SLP242 T01110083
2026-03-29 06:53:00,METAR KCXO 290653Z AUTO 00000KT 10SM CLR 11/08 A3027 RMK AO2 SLP249 T01110083
2026-03-29 05:53:00,METAR KCXO 290553Z AUTO 00000KT 10SM CLR 12/08 A3028 RMK AO2 SLP252 T01170083 10228 20117 402440117 58007
2026-03-29 04:53:00,METAR KCXO 290453Z AUTO 00000KT 10SM CLR 14/08 A3030 RMK AO2 SLP257 T01390083
2026-03-29 03:53:00,METAR KCXO 290353Z AUTO 00000KT 10SM CLR 14/09 A3030 RMK AO2 SLP259 T01390089
2026-03-29 02:53:00,METAR KCXO 290253Z AUTO 00000KT 10SM CLR 16/08 A3030 RMK AO2 SLP260 T01610083 53005
2026-03-29 01:53:00,METAR KCXO 290153Z AUTO 02003KT 10SM BKN050 19/07 A3029 RMK AO2 SLP256 T01940072
2026-03-29 00:53:00,METAR KCXO 290053Z VRB03KT 10SM OVC050 22/08 A3029 RMK AO2 SLP256 T02170083
2026-03-28 23:53:00,METAR KCXO 282353Z 00000KT 10SM OVC048 23/08 A3029 RMK AO2 SLP255 T02280083 10244 20200 56009
2026-03-28 22:53:00,METAR KCXO 282253Z 03004KT 10SM OVC043 23/08 A3029 RMK AO2 SLP255 T02280078
2026-03-28 21:53:00,METAR KCXO 282153Z 30004KT 10SM OVC045 23/08 A3030 RMK AO2 SLP257 T02330078
2026-03-28 20:53:00,METAR KCXO 282053Z 27004KT 10SM OVC041 23/08 A3032 RMK AO2 SLP263 T02330078 58027
2026-03-28 19:53:00,METAR KCXO 281953Z 03004KT 10SM CLR 23/06 A3034 RMK AO2 SLP272 T02330061
2026-03-28 18:53:00,METAR KCXO 281853Z VRB05KT 10SM SCT040 22/06 A3038 RMK AO2 SLP283 T02170056
2026-03-28 17:53:00,METAR KCXO 281753Z 06009G15KT 10SM OVC040 20/04 A3040 RMK AO2 SLP291 T02000044 10211 20150 58009
2026-03-28 16:53:00,METAR KCXO 281653Z 03006KT 10SM OVC037 19/03 A3042 RMK AO2 SLP297 T01890028
2026-03-28 15:53:00,METAR KCXO 281553Z VRB06KT 10SM OVC036 19/02 A3044 RMK AO2 SLP304 T01890022
2026-03-28 14:53:00,METAR KCXO 281453Z 03007KT 010V100 10SM CLR 17/02 A3042 RMK AO2 SLP301 T01720022 51015
2026-03-28 13:53:00,METAR KCXO 281353Z 06007G17KT 10SM CLR 16/04 A3042 RMK AO2 SLP297 T01610039
2026-03-28 12:53:00,METAR KCXO 281253Z 04005KT 10SM CLR 15/07 A3040 RMK AO2 SLP292 T01500067
2026-03-28 11:53:00,METAR KCXO 281153Z VRB04KT 10SM CLR 15/10 A3038 RMK AO2 SLP284 T01500100 10206 20150 53020
2026-03-28 10:53:00,METAR KCXO 281053Z 36003KT 10SM CLR 16/11 A3035 RMK AO2 SLP276 T01560111
2026-03-28 09:53:00,METAR KCXO 280953Z AUTO VRB03KT 10SM CLR 16/12 A3033 RMK AO2 SLP267 T01610117
2026-03-28 08:53:00,METAR KCXO 280853Z AUTO 05006G14KT 10SM CLR 17/12 A3032 RMK AO2 SLP264 T01720117 52009
2026-03-28 07:53:00,METAR KCXO 280753Z AUTO 03007G15KT 010V070 10SM CLR 18/12 A3031 RMK AO2 SLP261 T01780122
2026-03-28 06:53:00,METAR KCXO 280653Z AUTO 03011G21KT 10SM CLR 19/13 A3030 RMK AO2 SLP258 T01890128
2026-03-28 05:53:00,METAR KCXO 280553Z AUTO 03009G25KT 010V070 10SM SCT024 21/15 A3029 RMK AO2 SLP255 T02060150 10278 20194 403000150 51021
2026-03-28 05:51:00,SPECI KCXO 280551Z AUTO 04014G25KT 10SM SCT024 21/15 A3029 RMK AO2
2026-03-28 05:30:00,SPECI KCXO 280530Z AUTO 02008G17KT 10SM BKN025 BKN080 21/16 A3029 RMK AO2 T02110156
2026-03-28 04:53:00,METAR KCXO 280453Z AUTO 03013G22KT 10SM FEW028 SCT045 BKN070 22/16 A3027 RMK AO2 SLP248 T02220161
2026-03-28 03:53:00,METAR KCXO 280353Z AUTO 33005KT 10SM FEW060 19/16 A3023 RMK AO2 SLP234 T01940161
2026-03-28 02:53:00,METAR KCXO 280253Z AUTO 34003KT 10SM CLR 19/17 A3020 RMK AO2 SLP224 T01940167 53023
2026-03-28 01:53:00,METAR KCXO 280153Z AUTO 33003KT 10SM CLR 21/17 A3018 RMK AO2 SLP215 T02060167
2026-03-28 00:53:00,METAR KCXO 280053Z 00000KT 10SM SCT070 24/17 A3015 RMK AO2 SLP208 T02390167
2026-03-27 23:53:00,METAR KCXO 272353Z 02005KT 10SM CLR 28/16 A3013 RMK AO2 SLP201 T02780156 10300 20256 53010
2026-03-27 22:53:00,METAR KCXO 272253Z 30003KT 10SM FEW070 29/16 A3011 RMK AO2 SLP193 T02940156
2026-03-27 21:53:00,METAR KCXO 272153Z 10003KT 10SM SCT060 30/15 A3010 RMK AO2 SLP191 T03000150
2026-03-27 20:53:00,METAR KCXO 272053Z VRB04KT 10SM CLR 29/16 A3010 RMK AO2 SLP191 T02940156 57017
2026-03-27 19:53:00,METAR KCXO 271953Z 00000KT 10SM CLR 28/16 A3012 RMK AO2 SLP196 T02830161
2026-03-27 18:53:00,METAR KCXO 271853Z 10SM CLR 28/16 A3014 RMK AO2 SLP203 T02780161
2026-03-27 17:53:00,METAR KCXO 271753Z 00000KT 10SM SCT038 26/17 A3015 RMK AO2 SLP208 T02610172 10261 20156 50005
2026-03-27 16:53:00,METAR KCXO 271653Z 30007G14KT 10SM SCT034 BKN042 26/17 A3017 RMK AO2 SLP214 T02560172
2026-03-27 16:34:00,SPECI KCXO 271634Z 19006KT 10SM SCT033 BKN040 26/17 A3017 RMK AO2 T02560172
2026-03-27 15:53:00,METAR KCXO 271553Z 28004KT 10SM BKN026 BKN033 23/17 A3016 RMK AO2 SLP211 T02330172
2026-03-25 14:53:00,METAR KCXO 251453Z 17006KT 3SM BR BKN005 OVC012 20/19 A3013 RMK AO2 CIG 004V008 SLP199 T02000194 51014
2026-03-25 14:30:00,SPECI KCXO 251430Z 16006KT 3SM BR OVC005 20/20 A3012 RMK AO2 CIG 002V008 T02000200
2026-03-25 14:08:00,SPECI KCXO 251408Z 17004KT 2 1/2SM BR OVC002 19/19 A3013 RMK AO2 T01940194
2026-03-25 14:00:00,SPECI KCXO 251400Z 14004KT 1 3/4SM BR OVC002 19/19 A3012 RMK AO2 T01940194
2026-03-25 13:53:00,METAR KCXO 251353Z 00000KT 3/4SM BR OVC002 19/19 A3012 RMK AO2 SLP197 T01940189
2026-03-25 13:40:00,SPECI KCXO 251340Z 00000KT 1/4SM FG BKN002 OVC110 19/18 A3012 RMK AO2 T01890183
2026-03-25 12:53:00,METAR KCXO 251253Z 00000KT 1/8SM FG BKN002 OVC120 18/18 A3011 RMK AO2 SLP193 T01830178
2026-03-25 11:53:00,METAR KCXO 251153Z 00000KT 1/8SM FG VV002 18/17 A3009 RMK AO2 SLP185 T01780172 10194 20167 51002
2026-03-25 11:04:00,SPECI KCXO 251104Z 11003KT 1/8SM FG VV002 18/17 A3008 RMK AO2 T01780172
2026-03-25 10:53:00,METAR KCXO 251053Z 00000KT 3/4SM BR OVC002 18/17 A3009 RMK AO2 SLP185 T01780172
2026-03-25 10:40:00,SPECI KCXO 251040Z 00000KT 1 1/2SM BR OVC003 18/17 A3009 RMK AO2 T01780172
2026-03-25 10:32:00,SPECI KCXO 251032Z AUTO 00000KT 3/4SM BR OVC003 18/17 A3008 RMK AO2 T01780172
2026-03-25 10:10:00,SPECI KCXO 251010Z AUTO 00000KT 1SM BR BKN003 OVC016 17/17 A3008 RMK AO2 T01720167
2026-03-25 10:03:00,SPECI KCXO 251003Z AUTO 00000KT 1SM BR SCT003 BKN006 OVC016 17/17 A3008 RMK AO2 T01720167
2026-03-25 09:53:00,METAR KCXO 250953Z AUTO 00000KT 3/4SM BR BKN003 OVC017 17/17 A3008 RMK AO2 SLP183 T01720172
2026-03-25 09:39:00,SPECI KCXO 250939Z AUTO 00000KT 1/2SM FG BKN003 OVC017 18/17 A3008 RMK AO2 T01780172
2026-03-25 09:31:00,SPECI KCXO 250931Z AUTO 00000KT 1/4SM FG VV002 17/16 A3008 RMK AO2 T01720161
2026-03-25 09:12:00,SPECI KCXO 250912Z AUTO 00000KT 3/4SM BR BKN002 OVC015 17/17 A3008 RMK AO2 T01720167
2026-03-25 08:53:00,METAR KCXO 250853Z AUTO 00000KT 2 1/2SM BR FEW003 BKN015 18/17 A3008 RMK AO2 SLP183 T01780167 56006
2026-03-25 08:45:00,SPECI KCXO 250845Z AUTO 00000KT 1SM BR FEW007 BKN015 18/17 A3008 RMK AO2 T01780167
2026-03-25 08:37:00,SPECI KCXO 250837Z AUTO 00000KT 1 3/4SM BR BKN015 17/17 A3008 RMK AO2 VIS 3/4V5 T01720167
2026-03-25 07:53:00,METAR KCXO 250753Z AUTO 00000KT 8SM FEW006 BKN015 18/18 A3008 RMK AO2 SLP184 T01830178
2026-03-25 07:39:00,SPECI KCXO 250739Z AUTO 00000KT 9SM FEW006 BKN015 18/18 A3008 RMK AO2 T01830178
2026-03-25 07:32:00,SPECI KCXO 250732Z AUTO 00000KT 10SM BKN006 BKN015 18/18 A3008 RMK AO2 T01830178
2026-03-25 07:24:00,SPECI KCXO 250724Z AUTO 12003KT 10SM SCT006 OVC014 19/18 A3008 RMK AO2 T01890178
2026-03-25 07:15:00,SPECI KCXO 250715Z AUTO 00000KT 10SM BKN006 BKN012 OVC016 19/18 A3008 RMK AO2 T01890178
2026-03-25 07:04:00,SPECI KCXO 250704Z AUTO 14004KT 10SM SCT006 OVC012 19/18 A3009 RMK AO2 T01940183
2026-03-25 06:53:00,METAR KCXO 250653Z AUTO 15005KT 10SM BKN013 19/18 A3009 RMK AO2 SLP185 T01890178
2026-03-25 06:42:00,SPECI KCXO 250642Z AUTO 15005KT 10SM BKN013 19/18 A3009 RMK AO2 T01890178
2026-03-25 06:27:00,SPECI KCXO 250627Z AUTO 14005KT 10SM SCT009 BKN015 19/18 A3009 RMK AO2 T01940178
2026-03-25 06:21:00,SPECI KCXO 250621Z AUTO 14006KT 10SM BKN011 19/18 A3009 RMK AO2 T01890178
2026-03-25 06:12:00,SPECI KCXO 250612Z AUTO 13003KT 10SM SCT009 18/17 A3009 RMK AO2 T01830167
2026-03-25 05:53:00,METAR KCXO 250553Z AUTO 13003KT 10SM CLR 18/17 A3010 RMK AO2 SLP189 T01830167 10261 20183 402890144 51010
2026-03-25 04:53:00,METAR KCXO 250453Z AUTO 13003KT 10SM CLR 19/17 A3009 RMK AO2 SLP188 T01940172
2026-03-25 03:53:00,METAR KCXO 250353Z AUTO 15005KT 10SM CLR 21/17 A3008 RMK AO2 SLP183 T02060172
2026-03-25 02:53:00,METAR KCXO 250253Z AUTO 15007KT 10SM CLR 21/17 A3007 RMK AO2 SLP178 T02110172 53010
2026-03-25 01:53:00,METAR KCXO 250153Z AUTO 14007KT 10SM CLR 22/18 A3005 RMK AO2 SLP172 T02220183
2026-03-25 00:53:00,METAR KCXO 250053Z 14006KT 10SM CLR 24/18 A3004 RMK AO2 SLP169 T02390178
2026-03-24 23:53:00,METAR KCXO 242353Z 16011KT 10SM CLR 26/18 A3004 RMK AO2 SLP168 T02610178 10289 20250 55007
2026-03-24 22:53:00,METAR KCXO 242253Z 18006KT 10SM SCT065 28/15 A3003 RMK AO2 SLP167 T02780150
2026-03-24 21:53:00,METAR KCXO 242153Z 22011KT 10SM CLR 29/14 A3003 RMK AO2 SLP167 T02890144
2026-03-24 20:53:00,METAR KCXO 242053Z 20006KT 10SM FEW070 27/16 A3006 RMK AO2 SLP175 T02720156 56024
2026-03-24 19:53:00,METAR KCXO 241953Z 21008KT 10SM SCT045 SCT055 27/17 A3007 RMK AO2 SLP179 T02720172
2026-03-24 18:53:00,METAR KCXO 241853Z 19007KT 10SM SCT042 BKN055 27/17 A3010 RMK AO2 SLP189 T02670167
2026-03-24 17:53:00,METAR KCXO 241753Z 21007KT 10SM FEW041 SCT049 26/17 A3013 RMK AO2 SLP200 T02560172 10261 20189 58006
2026-03-24 16:53:00,METAR KCXO 241653Z 14003KT 10SM FEW022 24/18 A3015 RMK AO2 SLP206 T02440183
2026-03-24 16:40:00,SPECI KCXO 241640Z 14007KT 110V180 10SM SCT022 24/18 A3015 RMK AO2 T02440183
2026-03-24 16:26:00,SPECI KCXO 241626Z 15007KT 10SM BKN022 24/18 A3015 RMK AO2 T02390183
2026-03-24 16:15:00,SPECI KCXO 241615Z 15004KT 10SM SCT018 23/18 A3015 RMK AO2 T02280178
2026-03-24 15:53:00,METAR KCXO 241553Z 11005KT 10SM BKN016 BKN021 BKN036 23/19 A3015 RMK AO2 SLP205 T02280189
2026-03-24 15:31:00,SPECI KCXO 241531Z 11003KT 10SM FEW016 SCT023 OVC034 22/18 A3015 RMK AO2 T02170183
2026-03-24 15:14:00,SPECI KCXO 241514Z 12004KT 9SM SCT011 OVC024 22/19 A3015 RMK AO2 T02170189
2026-03-24 15:00:00,SPECI KCXO 241500Z 09003KT 9SM BKN011 OVC026 22/18 A3015 RMK AO2 T02170183
2026-03-24 14:53:00,METAR KCXO 241453Z 06003KT 3SM HZ SCT011 OVC026 22/18 A3015 RMK AO2 SLP205 T02170183 53012
2026-03-24 14:31:00,SPECI KCXO 241431Z 07004KT 3SM BR FEW009 SCT013 OVC026 20/19 A3014 RMK AO2 T02000189
2026-03-24 14:19:00,SPECI KCXO 241419Z 00000KT 3SM BR SCT009 BKN013 OVC024 20/19 A3014 RMK AO2 T02000194
2026-03-24 13:53:00,METAR KCXO 241353Z 08004KT 3SM BR FEW009 OVC022 19/19 A3013 RMK AO2 SLP201 T01940189
2026-03-24 13:37:00,SPECI KCXO 241337Z 07004KT 3SM BR OVC020 19/19 A3013 RMK AO2 T01940189
2026-03-24 13:00:00,SPECI KCXO 241300Z 00000KT 2SM BR OVC018 19/18 A3012 RMK AO2 T01890183
2026-03-24 12:53:00,METAR KCXO 241253Z COR 00000KT 2SM BR BKN014 OVC020 19/18 A3012 RMK AO2 SLP197 T01890183
2026-03-24 12:27:00,SPECI KCXO 241227Z 00000KT 6SM BR OVC010 18/18 A3012 RMK AO2 T01830178
2026-03-24 11:53:00,METAR KCXO 241153Z 00000KT 5SM BR OVC008 19/18 A3011 RMK AO2 CIG 007V012 SLP194 T01890183 10189 20144 51010
2026-03-24 10:53:00,METAR KCXO 241053Z AUTO 20003KT 7SM OVC005 19/18 A3010 RMK AO2 SLP191 T01890183 $
2026-03-24 10:49:00,SPECI KCXO 241049Z AUTO 20003KT 7SM OVC005 19/18 A3010 RMK AO2 $
2026-03-24 10:25:00,SPECI KCXO 241025Z AUTO 21004KT 3SM BR BKN002 OVC006 18/17 A3010 RMK AO2 T01780172 $
2026-03-24 10:08:00,SPECI KCXO 241008Z AUTO 00000KT 1 1/4SM BR OVC002 18/17 A3008 RMK AO2 T01780172
2026-03-24 09:53:00,METAR KCXO 240953Z AUTO 00000KT 1/2SM FG VV002 16/16 A3008 RMK AO2 SLP183 T01610161
2026-03-24 09:40:00,SPECI KCXO 240940Z AUTO 00000KT 1 1/2SM BR OVC002 16/15 A3008 RMK AO2 T01560150
2026-03-24 09:33:00,SPECI KCXO 240933Z AUTO 00000KT 3/4SM BR OVC002 15/15 A3008 RMK AO2 T01500150
2026-03-24 09:04:00,SPECI KCXO 240904Z AUTO 00000KT 1/2SM FG VV007 16/15 A3008 RMK AO2 T01560150
2026-03-24 08:55:00,SPECI KCXO 240855Z AUTO 00000KT 1 1/2SM BR BKN007 16/15 A3009 RMK AO2 T01560150
2026-03-24 08:53:00,METAR KCXO 240853Z AUTO 00000KT 3SM BR BKN007 16/15 A3009 RMK AO2 SLP184 T01610150 58004
2026-03-24 08:49:00,SPECI KCXO 240849Z AUTO 00000KT 3SM BR SCT007 16/15 A3009 RMK AO2
2026-03-24 08:45:00,SPECI KCXO 240845Z AUTO 00000KT 1 1/2SM BR SCT007 15/14 A3009 RMK AO2 T01500144
2026-03-24 07:53:00,METAR KCXO 240753Z AUTO 33003KT 3/4SM BR VV008 16/15 A3010 RMK AO2 SLP189 T01560150
2026-03-24 07:32:00,SPECI KCXO 240732Z AUTO 00000KT 3SM BR CLR 17/16 A3011 RMK AO2 T01670161
2026-03-24 07:27:00,SPECI KCXO 240727Z AUTO 00000KT 1 1/4SM BR CLR 17/16 A3011 RMK AO2 T01670161
2026-03-24 07:20:00,SPECI KCXO 240720Z AUTO 00000KT 2SM BR CLR 17/17 A3011 RMK AO2 T01720167
2026-03-24 06:53:00,METAR KCXO 240653Z AUTO 00000KT 9SM CLR 17/17 A3010 RMK AO2 SLP190 T01670167
2026-03-24 05:53:00,METAR KCXO 240553Z AUTO 18003KT 10SM CLR 19/18 A3010 RMK AO2 SLP189 T01890178 10272 20183 402890122 50003
2026-03-24 04:53:00,METAR KCXO 240453Z AUTO 14005KT 10SM CLR 18/17 A3011 RMK AO2 SLP192 T01830167
2026-03-24 03:53:00,METAR KCXO 240353Z AUTO 15003KT 10SM CLR 21/18 A3011 RMK AO2 SLP194 T02060178
2026-03-24 02:53:00,METAR KCXO 240253Z AUTO 15007KT 10SM CLR 21/17 A3009 RMK AO2 SLP186 T02110172 53010
2026-03-24 01:53:00,METAR KCXO 240153Z AUTO 13003KT 10SM CLR 22/17 A3007 RMK AO2 SLP182 T02220167
2026-03-24 00:53:00,METAR KCXO 240053Z 00000KT 10SM CLR 22/16 A3007 RMK AO2 SLP179 T02220161
2026-03-23 23:53:00,METAR KCXO 232353Z 15003KT 10SM CLR 27/16 A3006 RMK AO2 SLP175 T02720156 10289 20239 55005
2026-03-23 22:53:00,METAR KCXO 232253Z VRB03KT 10SM FEW055 28/15 A3005 RMK AO2 SLP173 T02780150
2026-03-23 21:53:00,METAR KCXO 232153Z 13003KT 10SM CLR 28/14 A3005 RMK AO2 SLP174 T02780144
2026-03-23 20:53:00,METAR KCXO 232053Z 23005KT 10SM CLR 28/14 A3007 RMK AO2 SLP180 T02780144 56023
2026-03-23 19:53:00,METAR KCXO 231953Z 20006KT 10SM CLR 27/14 A3009 RMK AO2 SLP186 T02720144
2026-03-23 18:53:00,METAR KCXO 231853Z 21009G16KT 10SM CLR 26/16 A3012 RMK AO2 SLP196 T02560156
2026-03-23 18:09:00,SPECI KCXO 231809Z 23009KT 10SM SCT027 26/17 A3014 RMK AO2 T02560172
2026-03-23 17:53:00,METAR KCXO 231753Z 10SM BKN027 24/17 A3014 RMK AO2 SLP204 T02440172 10250 20122 50005
2026-03-23 17:06:00,SPECI KCXO 231706Z 21008KT 10SM BKN021 24/18 A3015 RMK AO2 T02390178
2026-03-23 16:53:00,METAR KCXO 231653Z 20007KT 10SM SCT020 23/18 A3015 RMK AO2 SLP207 T02330178
2026-03-23 16:33:00,SPECI KCXO 231633Z 21008KT 10SM BKN016 22/18 A3015 RMK AO2 T02220183
2026-03-23 16:20:00,SPECI KCXO 231620Z 26007KT 10SM OVC014 22/18 A3015 RMK AO2 T02170178
2026-03-23 15:53:00,METAR KCXO 231553Z 25005KT 10SM BKN008 OVC014 19/18 A3014 RMK AO2 CIG 005V012 SLP203 T01940178
2026-03-23 15:37:00,SPECI KCXO 231537Z 00000KT 10SM OVC005 19/18 A3014 RMK AO2 CIG 005V009 T01890183
2026-03-23 15:09:00,SPECI KCXO 231509Z 25004KT 9SM OVC003 18/18 A3013 RMK AO2 T01830178
2026-03-23 15:01:00,SPECI KCXO 231501Z 26006KT 2SM BR OVC003 18/18 A3013 RMK AO2 T01830178
2026-03-23 14:53:00,METAR KCXO 231453Z 26003KT 3/4SM BR OVC003 18/18 A3013 RMK AO2 SLP199 T01830183 51014
2026-03-23 14:51:00,SPECI KCXO 231451Z 28003KT 1/2SM FG OVC003 18/18 A3013 RMK AO2
2026-03-23 14:00:00,SPECI KCXO 231400Z 33003KT 1/4SM FG VV002 17/16 A3012 RMK AO2 T01670161
2026-03-23 13:53:00,METAR KCXO 231353Z 00000KT 1/2SM FG OVC003 16/16 A3012 RMK AO2 SLP196 T01610156
2026-03-23 13:28:00,SPECI KCXO 231328Z 00000KT 1 1/2SM BR OVC004 15/15 A3010 RMK AO2 T01500150
2026-03-23 13:21:00,SPECI KCXO 231321Z 00000KT 2 1/2SM BR OVC005 15/14 A3010 RMK AO2 T01500144
2026-03-23 13:09:00,SPECI KCXO 231309Z 00000KT 1/2SM FG OVC005 14/14 A3010 RMK AO2 T01390139
2026-03-23 13:00:00,SPECI KCXO 231300Z 00000KT 1/4SM FG OVC004 14/13 A3009 RMK AO2 T01390133
2026-03-23 12:53:00,METAR KCXO 231253Z 00000KT 1/2SM FG OVC004 13/13 A3008 RMK AO2 SLP185 T01330128
2026-03-23 12:15:00,SPECI KCXO 231215Z 00000KT 1/2SM FG VV004 12/12 A3007 RMK AO2 T01220117
2026-03-23 12:05:00,SPECI KCXO 231205Z 00000KT 1/2SM FG FEW001 OVC005 12/12 A3006 RMK AO2 T01220117
2026-03-23 11:53:00,METAR KCXO 231153Z 00000KT 8SM FEW001 OVC006 12/12 A3006 RMK AO2 SLP176 T01220117 10167 20122 53016 $
2026-03-23 11:08:00,SPECI KCXO 231108Z 00000KT 7SM BKN008 12/12 A3004 RMK AO2 T01220117 $
2026-03-23 10:53:00,METAR KCXO 231053Z 00000KT 10SM SCT008 13/12 A3004 RMK AO2 SLP168 T01280122 $
2026-03-23 10:40:00,SPECI KCXO 231040Z AUTO 00000KT 10SM SCT007 12/12 A3003 RMK AO2 T01220117 $
2026-03-23 10:32:00,SPECI KCXO 231032Z AUTO 00000KT 9SM BKN007 12/12 A3004 RMK AO2 T01220117 $
2026-03-23 10:23:00,SPECI KCXO 231023Z AUTO 00000KT 9SM SCT008 13/12 A3003 RMK AO2 T01280122 $
2026-03-23 09:57:00,SPECI KCXO 230957Z AUTO 00000KT 3SM BR CLR 13/12 A3002 RMK AO2 T01280122 $
2026-03-23 09:48:00,METAR KCXO 230948Z AUTO 00000KT 1 1/2SM BR CLR 13/12 A3001 RMK AO2 VIS 1V4 SLP161 T01280122 $
2026-03-23 09:47:00,SPECI KCXO 230947Z AUTO 00000KT 1 3/4SM BR CLR 13/12 A3001 RMK AO2 VIS 1V4 $
2026-03-23 08:53:00,METAR KCXO 230853Z AUTO 00000KT 9SM CLR 13/13 A3001 RMK AO2 SLP160 T01330133 50003 $
2026-03-23 07:53:00,METAR KCXO 230753Z AUTO 00000KT 10SM CLR 14/13 A3002 RMK AO2 SLP162 T01440133 $
2026-03-23 06:53:00,METAR KCXO 230653Z AUTO 00000KT 10SM CLR 16/14 A3001 RMK AO2 SLP159 T01610139 $
2026-03-23 05:53:00,METAR KCXO 230553Z AUTO 15005KT 10SM CLR 16/13 A3000 RMK AO2 SLP157 T01560133 10278 20156 403000156 51010 $
2026-03-23 04:53:00,METAR KCXO 230453Z AUTO 15006KT 10SM CLR 18/13 A3000 RMK AO2 SLP156 T01780133 $
2026-03-23 03:53:00,METAR KCXO 230353Z AUTO 18005KT 10SM CLR 21/12 A2999 RMK AO2 SLP153 T02060122 $
2026-03-23 02:53:00,METAR KCXO 230253Z AUTO 18007KT 10SM CLR 22/13 A2997 RMK AO2 SLP147 T02170128 53020 $
2026-03-23 01:53:00,METAR KCXO 230153Z AUTO 17005KT 10SM CLR 23/12 A2995 RMK AO2 SLP138 T02280122 $
2026-03-23 00:53:00,METAR KCXO 230053Z 18008KT 10SM CLR 25/13 A2993 RMK AO2 SLP131 T02500128 $
2026-03-22 23:53:00,METAR KCXO 222353Z 19013KT 10SM CLR 28/14 A2992 RMK AO2 SLP127 T02780139 10300 20267 56003 $
2026-03-22 22:53:00,METAR KCXO 222253Z 18012KT 10SM CLR 29/14 A2992 RMK AO2 SLP128 T02890139 $
2026-03-22 21:53:00,METAR KCXO 222153Z 21012KT 10SM CLR 29/14 A2992 RMK AO2 SLP127 T02940139 $
2026-03-22 20:53:00,METAR KCXO 222053Z 20012KT 10SM CLR 29/14 A2993 RMK AO2 SLP131 T02940144 56022 $
2026-03-22 19:53:00,METAR KCXO 221953Z 20014G22KT 10SM CLR 29/15 A2995 RMK AO2 SLP137 T02890150 $
2026-03-22 18:53:00,METAR KCXO 221853Z 22009G20KT 170V250 10SM CLR 28/17 A2996 RMK AO2 SLP143 T02780167 $
2026-03-22 17:53:00,METAR KCXO 221753Z 20011G20KT 10SM CLR 27/17 A2999 RMK AO2 SLP153 T02720167 10272 20178 58003 $
2026-03-22 16:53:00,METAR KCXO 221653Z 22011G19KT 10SM CLR 25/17 A3000 RMK AO2 SLP157 T02500167 $
2026-03-22 15:53:00,METAR KCXO 221553Z 21011KT 10SM FEW023 23/17 A3001 RMK AO2 SLP158 T02330167 $
2026-03-22 15:28:00,SPECI KCXO 221528Z 20014G24KT 10SM SCT021 22/17 A3001 RMK AO2 T02220167 $
2026-03-22 14:53:00,METAR KCXO 221453Z 21012G26KT 10SM BKN018 21/16 A3000 RMK AO2 PK WND 22026/1449 SLP155 T02110161 53010 $
2026-03-22 13:53:00,METAR KCXO 221353Z 21011G20KT 10SM OVC017 20/17 A2999 RMK AO2 SLP151 T02000172 $
2026-03-22 12:53:00,METAR KCXO 221253Z 19008KT 10SM OVC015 18/17 A2997 RMK AO2 SLP145 T01830167 $
2026-03-22 12:49:00,SPECI KCXO 221249Z 20007KT 10SM OVC015 18/17 A2997 RMK AO2 $
2026-03-22 11:53:00,METAR KCXO 221153Z 19006KT 10SM OVC011 18/17 A2995 RMK AO2 SLP140 T01780167 10194 20172 53005 $
2026-03-22 10:53:00,METAR KCXO 221053Z 20006KT 10SM OVC010 18/17 A2994 RMK AO2 SLP136 T01780167 $
2026-03-22 09:53:00,METAR KCXO 220953Z AUTO 20006KT 10SM BKN011 18/17 A2994 RMK AO2 SLP134 T01780167 $
2026-03-22 09:30:00,SPECI KCXO 220930Z AUTO 19005KT 10SM BKN010 18/17 A2994 RMK AO2 T01780172 $
2026-03-22 09:17:00,SPECI KCXO 220917Z AUTO 20005KT 10SM SCT009 18/17 A2994 RMK AO2 T01780167 $
2026-03-22 08:53:00,METAR KCXO 220853Z AUTO 20005KT 10SM BKN009 18/17 A2994 RMK AO2 SLP135 T01780172 58011 $
2026-03-22 08:33:00,SPECI KCXO 220833Z AUTO 19005KT 10SM BKN009 18/17 A2994 RMK AO2 T01830172 $
2026-03-22 08:23:00,SPECI KCXO 220823Z AUTO 19006KT 10SM BKN010 18/17 A2994 RMK AO2 T01830172 $
2026-03-22 07:53:00,METAR KCXO 220753Z AUTO 19007KT 10SM FEW010 18/17 A2995 RMK AO2 SLP139 T01830172 $
2026-03-22 06:53:00,METAR KCXO 220653Z AUTO 19007KT 10SM CLR 19/17 A2996 RMK AO2 SLP143 T01890167 $
2026-03-22 05:53:00,METAR KCXO 220553Z AUTO 19007KT 10SM CLR 19/17 A2997 RMK AO2 SLP146 T01890167 10283 20189 403060178 58003 $
2026-03-22 04:53:00,METAR KCXO 220453Z AUTO 18007KT 10SM CLR 20/16 A2998 RMK AO2 SLP150 T02000156
2026-03-22 03:53:00,METAR KCXO 220353Z AUTO 19008KT 10SM CLR 21/16 A2998 RMK AO2 SLP150 T02110156
2026-03-22 02:53:00,METAR KCXO 220253Z AUTO 20008KT 10SM CLR 23/14 A2998 RMK AO2 SLP148 T02280144 53013
2026-03-22 01:53:00,METAR KCXO 220153Z AUTO 19009KT 10SM CLR 24/14 A2997 RMK AO2 SLP144 T02440144
2026-03-22 00:53:00,METAR KCXO 220053Z 21007KT 10SM CLR 26/14 A2995 RMK AO2 SLP139 T02610139
2026-03-21 23:53:00,METAR KCXO 212353Z 19014G18KT 10SM CLR 28/13 A2994 RMK AO2 SLP136 T02830133 10306 20261 55009
2026-03-21 22:53:00,METAR KCXO 212253Z 19012KT 10SM CLR 30/12 A2994 RMK AO2 SLP135 T03000117
2026-03-21 21:53:00,METAR KCXO 212153Z 18015G20KT 10SM CLR 30/14 A2995 RMK AO2 SLP139 T03000144
2026-03-21 20:53:00,METAR KCXO 212053Z 18013KT 10SM CLR 30/15 A2997 RMK AO2 SLP145 T03000150 56028
2026-03-21 19:53:00,METAR KCXO 211953Z 19011G19KT 10SM CLR 29/14 A2999 RMK AO2 SLP153 T02890139
2026-03-21 18:53:00,METAR KCXO 211853Z 21008G19KT 10SM CLR 28/14 A3002 RMK AO2 SLP164 T02780144
2026-03-21 17:53:00,METAR KCXO 211753Z 23008G17KT 10SM CLR 26/16 A3005 RMK AO2 SLP174 T02610161 10267 20189 58005
2026-03-21 16:53:00,METAR KCXO 211653Z 20009KT 10SM CLR 25/16 A3007 RMK AO2 SLP180 T02500161
2026-03-21 15:53:00,METAR KCXO 211553Z 20012KT 10SM CLR 23/17 A3007 RMK AO2 SLP181 T02330167
2026-03-21 14:53:00,METAR KCXO 211453Z 22009KT 10SM FEW016 21/17 A3007 RMK AO2 SLP178 T02110167 53009
2026-03-21 14:44:00,SPECI KCXO 211444Z 20012KT 10SM SCT016 22/17 A3007 RMK AO2 T02170167
2026-03-21 13:53:00,METAR KCXO 211353Z 23008KT 10SM OVC016 20/17 A3006 RMK AO2 SLP176 T02000167
2026-03-21 12:53:00,METAR KCXO 211253Z 21008KT 10SM BKN015 19/17 A3005 RMK AO2 SLP171 T01890167
2026-03-21 11:53:00,METAR KCXO 211153Z 21007KT 10SM OVC016 19/17 A3004 RMK AO2 SLP169 T01890167 10194 20178 53001
2026-03-21 10:53:00,METAR KCXO 211053Z 21011KT 10SM OVC015 19/17 A3003 RMK AO2 SLP167 T01940167
2026-03-21 10:45:00,SPECI KCXO 211045Z 21008KT 10SM OVC015 19/17 A3003 RMK AO2 T01940167
2026-03-21 09:53:00,METAR KCXO 210953Z AUTO 21006KT 10SM OVC013 19/17 A3003 RMK AO2 SLP165 T01940172
2026-03-21 08:53:00,METAR KCXO 210853Z AUTO 21009KT 10SM OVC014 19/17 A3004 RMK AO2 SLP168 T01940172 58008
2026-03-21 07:53:00,METAR KCXO 210753Z AUTO 20009KT 10SM OVC013 19/17 A3005 RMK AO2 SLP172 T01940167
2026-03-21 07:12:00,SPECI KCXO 210712Z AUTO 20007KT 10SM OVC014 19/17 A3006 RMK AO2 T01890167
2026-03-21 06:53:00,METAR KCXO 210653Z AUTO 18005KT 10SM BKN015 18/16 A3006 RMK AO2 SLP175 T01830161
2026-03-21 06:50:00,SPECI KCXO 210650Z AUTO 17004KT 10SM BKN015 18/16 A3006 RMK AO2
2026-03-21 05:53:00,METAR KCXO 210553Z AUTO 19005KT 10SM CLR 18/16 A3007 RMK AO2 SLP178 T01830156 10267 20183 402830106 50000
2026-03-21 04:53:00,METAR KCXO 210453Z AUTO 18007KT 10SM CLR 19/16 A3007 RMK AO2 SLP180 T01940156
2026-03-21 03:53:00,METAR KCXO 210353Z AUTO 19009KT 10SM CLR 21/16 A3008 RMK AO2 SLP182 T02060156
2026-03-21 02:53:00,METAR KCXO 210253Z AUTO 17009KT 10SM CLR 22/16 A3007 RMK AO2 SLP178 T02170156 53010
2026-03-21 01:53:00,METAR KCXO 210153Z AUTO 15004KT 10SM CLR 21/16 A3004 RMK AO2 SLP172 T02110161
2026-03-21 00:53:00,METAR KCXO 210053Z 13007KT 10SM CLR 23/14 A3004 RMK AO2 SLP170 T02330144
2026-03-20 23:53:00,METAR KCXO 202353Z 20010KT 10SM CLR 27/14 A3004 RMK AO2 SLP169 T02670139 10283 20250 56010
2026-03-20 22:53:00,METAR KCXO 202253Z 21007KT 10SM CLR 28/15 A3004 RMK AO2 SLP171 T02780150
2026-03-20 21:53:00,METAR KCXO 202153Z 21005KT 10SM CLR 28/15 A3005 RMK AO2 SLP174 T02780150
2026-03-20 20:53:00,METAR KCXO 202053Z 21009KT 10SM CLR 27/16 A3007 RMK AO2 SLP178 T02720156 56029
2026-03-20 19:53:00,METAR KCXO 201953Z 20009KT 150V220 10SM CLR 27/15 A3009 RMK AO2 SLP185 T02670150
2026-03-20 18:53:00,METAR KCXO 201853Z VRB05KT 10SM CLR 25/16 A3013 RMK AO2 SLP199 T02500156
2026-03-20 17:53:00,METAR KCXO 201753Z 20012G16KT 10SM CLR 25/16 A3015 RMK AO2 SLP208 T02500156 10250 20106 58005
2026-03-20 16:53:00,METAR KCXO 201653Z 23012G18KT 10SM CLR 23/16 A3017 RMK AO2 SLP213 T02330156
2026-03-20 16:35:00,SPECI KCXO 201635Z 22010G19KT 10SM SCT024 23/16 A3018 RMK AO2 T02280156
2026-03-20 16:18:00,SPECI KCXO 201618Z 23010KT 10SM BKN024 23/16 A3018 RMK AO2 T02280161
2026-03-20 15:53:00,METAR KCXO 201553Z 23009KT 10SM FEW020 22/16 A3018 RMK AO2 SLP217 T02170156
2026-03-20 15:28:00,SPECI KCXO 201528Z 22012G19KT 10SM SCT015 21/16 A3017 RMK AO2 T02060161
2026-03-20 15:12:00,SPECI KCXO 201512Z 20010KT 10SM BKN014 21/17 A3018 RMK AO2 T02060167
2026-03-20 14:53:00,METAR KCXO 201453Z 22008G16KT 10SM SCT012 19/16 A3017 RMK AO2 SLP215 T01940161 51009
2026-03-20 14:24:00,SPECI KCXO 201424Z 21006KT 10SM FEW009 17/16 A3017 RMK AO2 T01720161
2026-03-20 13:53:00,METAR KCXO 201353Z 18003KT 3SM BR FEW019 16/15 A3017 RMK AO2 SLP213 T01560150
2026-03-20 13:43:00,SPECI KCXO 201343Z 00000KT 3SM BR SCT019 14/14 A3016 RMK AO2 T01440144
2026-03-20 13:12:00,SPECI KCXO 201312Z 00000KT 3SM BR BKN019 12/12 A3016 RMK AO2 T01220122
2026-03-20 12:53:00,METAR KCXO 201253Z 00000KT 3SM BR CLR 11/10 A3015 RMK AO2 SLP209 T01060100
2026-03-20 12:28:00,SPECI KCXO 201228Z 00000KT 5SM BR SCT006 11/10 A3015 RMK AO2 T01060100
2026-03-20 11:53:00,METAR KCXO 201153Z 00000KT 5SM BR CLR 11/11 A3014 RMK AO2 SLP205 T01110106 10167 20106 53006 $
2026-03-20 10:53:00,METAR KCXO 201053Z 00000KT 7SM CLR 11/11 A3013 RMK AO2 SLP201 T01110111 $
2026-03-20 10:39:00,SPECI KCXO 201039Z AUTO 00000KT 3/4SM BR VV004 11/11 A3013 RMK AO2 T01110106 $
2026-03-20 10:37:00,SPECI KCXO 201037Z AUTO 00000KT 3/4SM BR CLR 11/11 A3013 RMK AO2 T01110106 $
2026-03-20 10:26:00,SPECI KCXO 201026Z AUTO 00000KT 1SM BR CLR 11/11 A3013 RMK AO2 T01110111 $
2026-03-20 10:16:00,SPECI KCXO 201016Z AUTO 00000KT 3/4SM BR CLR 12/12 A3013 RMK AO2 T01170117 $
2026-03-20 10:02:00,SPECI KCXO 201002Z AUTO 00000KT 1 3/4SM BR CLR 12/12 A3012 RMK AO2 T01170117 $
2026-03-20 09:53:00,METAR KCXO 200953Z AUTO 00000KT 3/4SM BR CLR 12/12 A3012 RMK AO2 SLP199 T01170117 $
2026-03-20 09:51:00,SPECI KCXO 200951Z AUTO 00000KT 3/4SM BR CLR 12/12 A3012 RMK AO2 $
2026-03-20 09:40:00,SPECI KCXO 200940Z AUTO 00000KT 1SM BR CLR 12/12 A3012 RMK AO2 T01220122 $
2026-03-20 09:30:00,SPECI KCXO 200930Z AUTO 00000KT 3/4SM BR CLR 12/12 A3012 RMK AO2 T01220117 $
2026-03-20 09:19:00,SPECI KCXO 200919Z AUTO 00000KT 1 3/4SM BR CLR 12/11 A3012 RMK AO2 T01220111 $
2026-03-20 08:53:00,METAR KCXO 200853Z AUTO 00000KT 4SM BR CLR 12/12 A3013 RMK AO2 SLP199 T01220117 58008 $
2026-03-20 08:40:00,SPECI KCXO 200840Z AUTO 00000KT 3SM BR CLR 13/12 A3013 RMK AO2 T01280117 $
2026-03-20 08:29:00,SPECI KCXO 200829Z AUTO 00000KT 1 3/4SM BR CLR 12/12 A3014 RMK AO2 T01220117 $
2026-03-20 07:53:00,METAR KCXO 200753Z AUTO 00000KT 10SM CLR 13/12 A3015 RMK AO2 SLP207 T01330122 $
2026-03-20 06:53:00,METAR KCXO 200653Z AUTO 19003KT 10SM CLR 16/14 A3015 RMK AO2 SLP206 T01610139
2026-03-20 05:53:00,METAR KCXO 200553Z AUTO 18004KT 10SM CLR 16/13 A3015 RMK AO2 SLP207 T01610128 10250 20161 402610072 53002
2026-03-20 04:53:00,METAR KCXO 200453Z AUTO 20007KT 10SM CLR 18/13 A3014 RMK AO2 SLP203 T01830133
2026-03-20 03:53:00,METAR KCXO 200353Z AUTO 19006KT 10SM CLR 17/14 A3015 RMK AO2 SLP207 T01670139
2026-03-20 02:53:00,METAR KCXO 200253Z AUTO 00000KT 10SM CLR 18/13 A3014 RMK AO2 SLP205 T01780133 53010
2026-03-20 01:53:00,METAR KCXO 200153Z AUTO 00000KT 10SM CLR 20/13 A3013 RMK AO2 SLP200 T02000133
2026-03-20 00:53:00,METAR KCXO 200053Z 17003KT 10SM CLR 21/11 A3011 RMK AO2 SLP195 T02110106
2026-03-19 23:53:00,METAR KCXO 192353Z 19008KT 10SM CLR 25/10 A3012 RMK AO2 SLP196 T02500100 10261 20228 55013
2026-03-19 22:53:00,METAR KCXO 192253Z 18006KT 10SM CLR 26/10 A3011 RMK AO2 SLP195 T02610100
2026-03-19 21:53:00,METAR KCXO 192153Z AUTO 17008KT 110V190 10SM CLR 26/11 A3014 RMK AO2 SLP203 T02610111
2026-03-19 20:53:00,METAR KCXO 192053Z AUTO 19008KT 10SM CLR 26/12 A3015 RMK AO2 SLP208 T02560117 58028
2026-03-19 19:53:00,METAR KCXO 191953Z AUTO 23008KT 10SM CLR 26/12 A3019 RMK AO2 SLP220 T02560117
2026-03-19 18:53:00,METAR KCXO 191853Z AUTO 00000KT 10SM CLR 23/12 A3021 RMK AO2 SLP229 T02330122
2026-03-19 17:53:00,METAR KCXO 191753Z AUTO 18006G14KT 10SM CLR 23/13 A3024 RMK AO2 SLP237 T02330128 10233 20072 58003
2026-03-19 16:53:00,METAR KCXO 191653Z AUTO 20007KT 10SM CLR 22/13 A3025 RMK AO2 SLP242 T02170128
2026-03-19 15:53:00,METAR KCXO 191553Z AUTO 20008KT 10SM CLR 20/13 A3026 RMK AO2 SLP243 T02000133
2026-03-19 14:53:00,METAR KCXO 191453Z AUTO 20005KT 10SM CLR 17/12 A3025 RMK AO2 SLP240 T01670122 52014
2026-03-19 13:53:00,METAR KCXO 191353Z 00000KT 8SM CLR 12/12 A3024 RMK AO2 SLP237 T01220117
2026-03-19 12:53:00,METAR KCXO 191253Z 00000KT 10SM CLR 08/08 A3021 RMK AO2 SLP230 T00780078
2026-03-19 11:53:00,METAR KCXO 191153Z 00000KT 10SM CLR 08/08 A3020 RMK AO2 SLP226 T00830078 10111 20078 53007
2026-03-19 10:56:00,SPECI KCXO 191056Z 00000KT 10SM CLR 09/08 A3018 RMK AO2 T00890078
2026-03-19 10:53:00,METAR KCXO 191053Z 00000KT 5SM BR CLR 08/08 A3018 RMK AO2 SLP219 T00830078
2026-03-19 10:39:00,SPECI KCXO 191039Z 00000KT 2 1/2SM BR CLR 08/08 A3018 RMK AO2 T00830078
2026-03-19 09:53:00,METAR KCXO 190953Z AUTO 00000KT 10SM CLR 09/08 A3017 RMK AO2 SLP215 T00940083
2026-03-19 08:53:00,METAR KCXO 190853Z AUTO 00000KT 10SM CLR 10/08 A3018 RMK AO2 SLP219 T01000083 58010
2026-03-19 07:53:00,METAR KCXO 190753Z AUTO 19003KT 10SM CLR 11/09 A3020 RMK AO2 SLP224 T01110089
2026-03-19 06:53:00,METAR KCXO 190653Z AUTO 15003KT 10SM CLR 11/09 A3021 RMK AO2 SLP227 T01110094
2026-03-19 05:53:00,METAR KCXO 190553Z AUTO 15003KT 10SM CLR 12/09 A3021 RMK AO2 SLP229 T01220089 10206 20122 402330033 50001
2026-03-19 04:53:00,METAR KCXO 190453Z AUTO 18004KT 10SM CLR 14/09 A3022 RMK AO2 SLP230 T01390094
2026-03-19 03:53:00,METAR KCXO 190353Z AUTO 17007KT 10SM CLR 14/10 A3021 RMK AO2 SLP229 T01440100
2026-03-19 02:53:00,METAR KCXO 190253Z AUTO 15007KT 10SM CLR 14/09 A3021 RMK AO2 SLP227 T01440094 53015
2026-03-19 01:53:00,METAR KCXO 190153Z AUTO 14007KT 10SM CLR 17/09 A3019 RMK AO2 SLP221 T01670094
2026-03-19 00:53:00,METAR KCXO 190053Z 13007KT 10SM CLR 18/09 A3017 RMK AO2 SLP216 T01830089
2026-03-18 23:53:00,METAR KCXO 182353Z 15011KT 10SM CLR 21/09 A3017 RMK AO2 SLP214 T02110089 10233 20206 55005
2026-03-18 22:53:00,METAR KCXO 182253Z 16008KT 10SM CLR 23/08 A3016 RMK AO2 SLP211 T02280078
2026-03-18 21:53:00,METAR KCXO 182153Z 22006G16KT 10SM CLR 23/08 A3017 RMK AO2 SLP213 T02280078
2026-03-18 20:53:00,METAR KCXO 182053Z 19008KT 10SM CLR 23/08 A3018 RMK AO2 SLP218 T02280078 56025
2026-03-18 19:53:00,METAR KCXO 181953Z 19009G14KT 10SM CLR 23/07 A3020 RMK AO2 SLP224 T02280072
2026-03-18 18:53:00,METAR KCXO 181853Z 17011G20KT 150V220 10SM CLR 22/07 A3023 RMK AO2 SLP235 T02170067
2026-03-18 17:53:00,METAR KCXO 181753Z 18009G22KT 10SM CLR 21/08 A3025 RMK AO2 SLP244 T02110083 10211 20033 58007
2026-03-18 16:53:00,METAR KCXO 181653Z 16013G25KT 10SM CLR 19/08 A3027 RMK AO2 SLP248 T01940083
2026-03-18 15:53:00,METAR KCXO 181553Z 17013G18KT 10SM CLR 18/08 A3026 RMK AO2 SLP247 T01780083
2026-03-18 15:28:00,SPECI KCXO 181528Z 18011G16KT 10SM CLR 17/08 A3028 RMK AO2 T01670078
2026-03-18 14:53:00,METAR KCXO 181453Z 17008KT 10SM CLR 15/07 A3027 RMK AO2 SLP250 T01500072 53022
2026-03-18 13:53:00,METAR KCXO 181353Z 15004KT 10SM CLR 09/06 A3024 RMK AO2 SLP238 T00940061
2026-03-18 12:53:00,METAR KCXO 181253Z 00000KT 10SM CLR 04/03 A3021 RMK AO2 SLP231 T00440033
2026-03-18 11:53:00,METAR KCXO 181153Z 00000KT 10SM CLR 04/02 A3021 RMK AO2 PRESRR SLP229 T00390022 10072 20033 53006
2026-03-18 10:53:00,METAR KCXO 181053Z 00000KT 10SM CLR 04/02 A3018 RMK AO2 SLP220 T00440022
2026-03-18 09:53:00,METAR KCXO 180953Z AUTO 00000KT 10SM CLR 07/03 A3018 RMK AO2 SLP217 T00670028
2026-03-18 08:53:00,METAR KCXO 180853Z AUTO 15003KT 10SM CLR 06/02 A3019 RMK AO2 SLP223 T00610022 58023
2026-03-18 07:53:00,METAR KCXO 180753Z AUTO 17004KT 10SM CLR 07/02 A3022 RMK AO2 SLP232 T00670022
2026-03-18 06:53:00,METAR KCXO 180653Z AUTO 15003KT 10SM CLR 06/02 A3024 RMK AO2 SLP238 T00610017
2026-03-18 05:53:00,METAR KCXO 180553Z AUTO 00000KT 10SM CLR 07/01 A3026 RMK AO2 SLP246 T00670011 10144 20061 401611017 51004
2026-03-18 04:53:00,METAR KCXO 180453Z AUTO 16005KT 10SM CLR 06/01 A3025 RMK AO2 SLP245 T00610006
2026-03-18 03:53:00,METAR KCXO 180353Z AUTO 17005KT 10SM CLR 08/M01 A3026 RMK AO2 SLP247 T00831006
2026-03-18 02:53:00,METAR KCXO 180253Z AUTO 17008KT 10SM CLR 09/M03 A3025 RMK AO2 SLP244 T00941028 53009
2026-03-18 01:53:00,METAR KCXO 180153Z AUTO 15007KT 10SM CLR 09/M03 A3024 RMK AO2 SLP241 T00941028
2026-03-18 00:53:00,METAR KCXO 180053Z 16007KT 10SM CLR 11/M04 A3023 RMK AO2 SLP235 T01061039
2026-03-17 23:53:00,METAR KCXO 172353Z 17010KT 10SM CLR 14/M06 A3022 RMK AO2 SLP235 T01441061 10161 20122 56017
2026-03-17 22:53:00,METAR KCXO 172253Z 19011KT 10SM CLR 16/M06 A3022 RMK AO2 SLP235 T01561061
2026-03-17 21:53:00,METAR KCXO 172153Z 17008KT 10SM CLR 16/M07 A3025 RMK AO2 SLP243 T01611067
2026-03-17 20:53:00,METAR KCXO 172053Z 16006KT 10SM CLR 16/M06 A3027 RMK AO2 SLP252 T01561061 58034
2026-03-17 19:53:00,METAR KCXO 171953Z VRB04KT 10SM CLR 15/M07 A3031 RMK AO2 SLP265 T01501072
2026-03-17 18:53:00,METAR KCXO 171853Z 15007KT 10SM CLR 14/M08 A3035 RMK AO2 SLP278 T01441078
2026-03-17 17:53:00,METAR KCXO 171753Z 10SM CLR 12/M09 A3038 RMK AO2 SLP286 T01221094 10128 21011 58005
2026-03-17 16:53:00,METAR KCXO 171653Z VRB03KT 10SM CLR 11/M09 A3039 RMK AO2 SLP292 T01061089
2026-03-17 15:53:00,METAR KCXO 171553Z 05004KT 10SM CLR 09/M10 A3039 RMK AO2 SLP292 T00891100
2026-03-17 14:53:00,METAR KCXO 171453Z 13006KT 10SM CLR 07/M08 A3039 RMK AO2 SLP291 T00721078 51017
2026-03-17 13:53:00,METAR KCXO 171353Z 00000KT 10SM CLR 03/M02 A3039 RMK AO2 SLP290 T00281017
2026-03-17 12:53:00,METAR KCXO 171253Z 00000KT 10SM CLR M01/M02 A3036 RMK AO2 SLP282 T10061022
2026-03-17 11:53:00,METAR KCXO 171153Z 00000KT 10SM CLR M01/M03 A3034 RMK AO2 SLP274 T10111028 10017 21017 53001
2026-03-17 10:53:00,METAR KCXO 171053Z AUTO 00000KT 10SM CLR M02/M04 A3033 RMK AO2 SLP271 T10171039
2026-03-17 09:53:00,METAR KCXO 170953Z AUTO 00000KT 10SM CLR M01/M04 A3033 RMK AO2 SLP271 T10111039
2026-03-17 08:53:00,METAR KCXO 170853Z AUTO 00000KT 10SM CLR M01/M04 A3034 RMK AO2 SLP273 T10061039 58005
2026-03-17 07:53:00,METAR KCXO 170753Z AUTO 00000KT 10SM CLR 01/M04 A3035 RMK AO2 SLP276 T00061039
2026-03-17 06:53:00,METAR KCXO 170653Z AUTO 33003KT 10SM CLR 01/M04 A3037 RMK AO2 SLP283 T00111039
2026-03-17 05:53:00,METAR KCXO 170553Z AUTO 00000KT 10SM CLR 02/M04 A3035 RMK AO2 SLP278 T00171039 10078 20017 401280017 53008
2026-03-17 04:53:00,METAR KCXO 170453Z AUTO 00000KT 10SM CLR 02/M04 A3034 RMK AO2 SLP274 T00221044
2026-03-17 03:53:00,METAR KCXO 170353Z AUTO 35004KT 10SM CLR 04/M08 A3034 RMK AO2 SLP273 T00391078
2026-03-17 02:53:00,METAR KCXO 170253Z AUTO 35007KT 10SM CLR 06/M09 A3033 RMK AO2 SLP270 T00561094 53021
2026-03-17 01:53:00,METAR KCXO 170153Z AUTO 33008KT 10SM CLR 07/M09 A3029 RMK AO2 SLP258 T00671094
2026-03-17 00:53:00,METAR KCXO 170053Z 33008KT 10SM CLR 07/M10 A3028 RMK AO2 SLP255 T00721100
2026-03-16 23:53:00,METAR KCXO 162353Z 33012G21KT 10SM CLR 08/M12 A3027 RMK AO2 SLP249 T00781117 10128 20078 53014
2026-03-16 22:53:00,METAR KCXO 162253Z 33012G19KT 10SM CLR 08/M11 A3024 RMK AO2 SLP239 T00831106
2026-03-16 21:53:00,METAR KCXO 162153Z 34012G22KT 10SM CLR 10/M09 A3023 RMK AO2 PK WND 32030/2054 SLP236 T01001094
2026-03-16 20:53:00,METAR KCXO 162053Z 35014G24KT 320V020 10SM CLR 12/M10 A3023 RMK AO2 PK WND 33034/2027 SLP234 T01221100 56023
2026-03-16 19:53:00,METAR KCXO 161953Z 32015G27KT 280V350 10SM CLR 12/M10 A3024 RMK AO2 PK WND 32029/1932 SLP238 T01171100
2026-03-16 18:53:00,METAR KCXO 161853Z 34018G28KT 10SM CLR 12/M10 A3027 RMK AO2 PK WND 33032/1818 SLP251 T01171100
2026-03-16 17:53:00,METAR KCXO 161753Z 33019G33KT 10SM CLR 11/M10 A3030 RMK AO2 PK WND 32033/1753 SLP258 T01061100 10106 20050 50004
2026-03-16 16:53:00,METAR KCXO 161653Z 34016G28KT 10SM CLR 10/M09 A3030 RMK AO2 PK WND 33035/1609 SLP260 T01001089
2026-03-16 15:53:00,METAR KCXO 161553Z 35015G31KT 10SM CLR 09/M09 A3029 RMK AO2 PK WND 34031/1545 SLP256 T00891094
2026-03-16 14:53:00,METAR KCXO 161453Z 36014G26KT 10SM CLR 07/M07 A3028 RMK AO2 PK WND 35026/1448 SLP254 T00671067 51020
2026-03-16 13:53:00,METAR KCXO 161353Z 35010G22KT 10SM CLR 06/M06 A3027 RMK AO2 PK WND 32031/1311 SLP250 T00561056
2026-03-16 12:53:00,METAR KCXO 161253Z 35015G25KT 10SM CLR 06/M06 A3025 RMK AO2 PK WND 34027/1157 SLP242 T00561056
2026-03-16 11:53:00,METAR KCXO 161153Z 34012G32KT 10SM CLR 07/M06 A3022 RMK AO2 PK WND 33032/1145 SLP232 70028 T00671061 10122 20067 53041
2026-03-16 10:53:00,METAR KCXO 161053Z 34017G28KT 10SM OVC110 08/M05 A3018 RMK AO2 PK WND 36031/1009 SLP216 T00781050
2026-03-16 09:53:00,METAR KCXO 160953Z AUTO 34016G30KT 10SM OVC100 09/M06 A3014 RMK AO2 PK WND 35036/0928 SLP203 T00891061
2026-03-16 08:53:00,METAR KCXO 160853Z AUTO 34012G26KT 330V040 10SM OVC090 09/M03 A3010 RMK AO2 PK WND 32026/0849 SLP191 T00941028 51040
2026-03-16 07:53:00,METAR KCXO 160753Z AUTO 35011G26KT 310V020 10SM OVC085 10/M03 A3009 RMK AO2 PK WND 35033/0730 SLP186 T01001033
2026-03-16 06:53:00,METAR KCXO 160653Z AUTO 34013G26KT 10SM BKN090 10/M04 A3005 RMK AO2 PK WND 34033/0642 SLP172 T01001039
2026-03-16 05:53:00,METAR KCXO 160553Z AUTO 36012G24KT 340V040 10SM OVC090 13/M04 A2998 RMK AO2 PK WND 34034/0535 SLP151 60028 T01281039 10272 20128 402890128 51041
2026-03-16 04:53:00,METAR KCXO 160453Z AUTO 35017G27KT 10SM FEW095 15/01 A2994 RMK AO2 PK WND 02029/0430 SLP136 T01500006
2026-03-16 03:53:00,METAR KCXO 160353Z AUTO 35012G23KT 10SM CLR 16/03 A2991 RMK AO2 SLP125 T01610033
2026-03-16 02:53:00,METAR KCXO 160253Z AUTO 35014G25KT 10SM SCT065 17/04 A2986 RMK AO2 PK WND 33030/0206 SLP109 60028 T01720044 51084
2026-03-16 01:53:00,METAR KCXO 160153Z AUTO 34015G29KT 10SM OVC065 18/06 A2981 RMK AO2 PK WND 33029/0150 PRESRR SLP093 T01830061
2026-03-16 00:53:00,METAR KCXO 160053Z 34013G21KT 10SM FEW047 BKN065 BKN075 18/14 A2974 RMK AO2 PK WND 33037/0011 WSHFT 0008 LTG DSNT E RAB12E35 TSB09E38 SLP068 P0028 T01830139
2026-03-16 00:44:00,SPECI KCXO 160044Z 35013G20KT 10SM VCTS FEW022 SCT050 BKN065 18/14 A2972 RMK AO2 PK WND 33037/0011 WSHFT 0008 LTG DSNT NE-SE RAB12E35 TSB09E38 P0028 T01830144
2026-03-16 00:30:00,SPECI KCXO 160030Z 35008G20KT 4SM -TSRA FEW021 BKN050 OVC095 17/14 A2971 RMK AO2 PK WND 33037/0011 WSHFT 0008 LTG DSNT NE RAB12 TSB09 P0028 T01720144
2026-03-16 00:22:00,SPECI KCXO 160022Z 01014G36KT 1/2SM +TSRA SCT021 BKN044 BKN095 17/14 A2971 RMK AO2 PK WND 33037/0011 WSHFT 0008 LTG DSNT NE RAB12 TSB09 P0025 T01720144
2026-03-16 00:17:00,SPECI KCXO 160017Z 35019G37KT 1SM -TSRA FEW034 BKN044 BKN095 21/14 A2972 RMK AO2 PK WND 33037/0011 LTG DSNT NE RAB12 TSB09 PRESRR P0006 T02060139
2026-03-16 00:15:00,SPECI KCXO 160015Z 35019G37KT 8SM -TSRA SCT044 BKN095 23/14 A2971 RMK AO2 PK WND 33037/0011 LTG DSNT NE RAB12 TSB09 PRESRR P0001 T02280139
2026-03-16 00:05:00,SPECI KCXO 160005Z 30005KT 10SM VCTS FEW095 27/18 A2963 RMK AO2 LTG DSNT N AND NE PRESRR T02670178
2026-03-15 23:53:00,METAR KCXO 152353Z 22008KT 10SM CLR 27/18 A2961 RMK AO2 LTG DSNT NW-NE SLP023 60000 T02720178 10289 20250 55003
2026-03-15 22:53:00,METAR KCXO 152253Z 20012G18KT 10SM CLR 28/18 A2960 RMK AO2 SLP019 T02830183
2026-03-15 21:53:00,METAR KCXO 152153Z 23011G21KT 10SM FEW043 29/18 A2961 RMK AO2 RAE06 SLP025 P0000 T02890183
2026-03-15 20:53:00,METAR KCXO 152053Z 21012G23KT 10SM -RA SCT042 28/18 A2962 RMK AO2 PK WND 18029/2017 RAB49 SLP027 P0000 60000 T02830178 56027
2026-03-15 19:53:00,METAR KCXO 151953Z 21018G27KT 10SM SCT040 27/18 A2963 RMK AO2 PK WND 21027/1953 SLP031 T02720178
2026-03-15 18:53:00,METAR KCXO 151853Z 20016G24KT 10SM BKN034 BKN042 27/18 A2966 RMK AO2 PK WND 21028/1837 RAB44E50 SLP042 P0000 T02670183
2026-03-15 18:00:00,SPECI KCXO 151800Z 21013G25KT 10SM BKN029 OVC036 26/18 A2969 RMK AO2 T02560183
2026-03-15 17:53:00,METAR KCXO 151753Z 19015G25KT 10SM SCT027 OVC034 25/18 A2970 RMK AO2 PK WND 20027/1743 SLP054 T02500183 10250 20189 58012
2026-03-15 16:53:00,METAR KCXO 151653Z 20014G23KT 10SM OVC025 23/18 A2973 RMK AO2 PK WND 19028/1629 SLP064 T02330178
2026-03-15 15:53:00,METAR KCXO 151553Z 19015G23KT 10SM BKN029 OVC033 23/18 A2973 RMK AO2 SLP066 T02280178
2026-03-15 14:53:00,METAR KCXO 151453Z 19013G20KT 10SM BKN018 BKN024 OVC031 22/18 A2974 RMK AO2 SLP066 T02170178 55001
2026-03-15 13:53:00,METAR KCXO 151353Z 18011G20KT 10SM FEW013 OVC029 21/18 A2973 RMK AO2 SLP065 T02060183
2026-03-15 13:46:00,SPECI KCXO 151346Z 18012KT 10SM FEW014 OVC029 21/18 A2973 RMK AO2 T02060183
2026-03-15 12:53:00,METAR KCXO 151253Z 18010KT 10SM OVC014 19/18 A2973 RMK AO2 SLP063 T01940178
2026-03-15 12:44:00,SPECI KCXO 151244Z 18009G18KT 10SM BKN014 BKN019 OVC027 19/18 A2973 RMK AO2 T01940178
2026-03-15 11:53:00,METAR KCXO 151153Z 18006KT 10SM BKN016 OVC029 19/18 A2974 RMK AO2 SLP067 T01890178 10189 20172 56005
2026-03-15 11:43:00,SPECI KCXO 151143Z 17007KT 10SM SCT014 BKN022 OVC029 19/18 A2973 RMK AO2 T01890178
2026-03-15 10:53:00,METAR KCXO 151053Z 17008KT 10SM BKN014 OVC027 19/18 A2974 RMK AO2 SLP068 T01890178
2026-03-15 10:50:00,SPECI KCXO 151050Z 18008KT 10SM BKN014 OVC027 18/18 A2974 RMK AO2
2026-03-15 09:53:00,METAR KCXO 150953Z AUTO 17008KT 10SM BKN019 OVC023 18/17 A2975 RMK AO2 SLP072 T01830172
2026-03-15 08:53:00,METAR KCXO 150853Z AUTO 16007KT 10SM BKN023 18/17 A2978 RMK AO2 SLP080 T01830172 58018
2026-03-15 08:42:00,SPECI KCXO 150842Z AUTO 16007KT 10SM SCT022 18/17 A2978 RMK AO2 T01780172
2026-03-15 08:08:00,SPECI KCXO 150808Z AUTO 17007KT 10SM BKN021 18/17 A2979 RMK AO2 T01830172
