Time_recorded,METAR
2026-05-02 14:53:00,METAR KBNA 021453Z 00000KT 10SM FEW250 15/02 A3007 RMK AO2 SLP180 T01500017 51008 $
2026-05-02 13:53:00,METAR KBNA 021353Z 08005KT 10SM FEW250 14/02 A3007 RMK AO2 SLP180 T01390022 $
2026-05-02 12:53:00,METAR KBNA 021253Z 06004KT 10SM FEW250 12/03 A3006 RMK AO2 SLP178 T01170028 $
2026-05-02 11:53:00,METAR KBNA 021153Z 00000KT 10SM FEW250 08/04 A3005 RMK AO2 SLP173 T00780039 10111 20072 53007 $
2026-05-02 10:53:00,METAR KBNA 021053Z 35004KT 10SM FEW250 09/02 A3004 RMK AO2 SLP169 T00890022 $
2026-05-02 09:53:00,METAR KBNA 020953Z 02004KT 10SM SCT220 09/02 A3003 RMK AO2 SLP166 T00940022 $
2026-05-02 08:53:00,METAR KBNA 020853Z 36005KT 10SM BKN220 09/02 A3003 RMK AO2 SLP166 T00940022 56007 $
2026-05-02 07:53:00,METAR KBNA 020753Z 01006KT 10SM OVC200 10/02 A3003 RMK AO2 SLP166 T01000022 $
2026-05-02 06:53:00,METAR KBNA 020653Z 01006KT 10SM OVC200 11/02 A3004 RMK AO2 SLP168 T01060017 $
2026-05-02 05:53:00,METAR KBNA 020553Z 36005KT 10SM BKN250 11/02 A3005 RMK AO2 SLP172 T01060017 10161 20106 402000072 55005 $
2026-05-02 04:53:00,METAR KBNA 020453Z 36007KT 10SM BKN250 12/01 A3003 RMK AO2 SLP165 T01170011 $
2026-05-02 03:53:00,METAR KBNA 020353Z 36008KT 10SM BKN250 12/01 A3005 RMK AO2 SLP172 T01220011 $
2026-05-02 02:53:00,METAR KBNA 020253Z 35010G19KT 10SM BKN250 13/01 A3006 RMK AO2 SLP178 T01330006 51029 $
2026-05-02 01:53:00,METAR KBNA 020153Z 35008KT 10SM BKN250 14/00 A3005 RMK AO2 SLP173 T01390000 $
2026-05-02 00:53:00,METAR KBNA 020053Z 36006KT 10SM FEW060 SCT250 14/M02 A3003 RMK AO2 SLP166 T01441017 $
2026-05-01 23:53:00,METAR KBNA 012353Z 35010G18KT 10SM BKN250 16/M03 A2998 RMK AO2 SLP149 T01611033 10200 20161 53002 $
2026-05-01 22:53:00,METAR KBNA 012253Z 35013KT 10SM FEW200 BKN250 17/M03 A2997 RMK AO2 SLP145 T01721033 $
2026-05-01 21:53:00,METAR KBNA 012153Z 33015G21KT 10SM FEW060 FEW210 BKN250 18/M01 A2996 RMK AO2 SLP143 T01831011 $
2026-05-01 20:53:00,METAR KBNA 012053Z 31016G23KT 10SM FEW060 SCT210 BKN250 18/03 A2997 RMK AO2 SLP147 T01830028 58010 $
2026-05-01 19:53:00,METAR KBNA 011953Z 32012G18KT 10SM FEW055 SCT200 BKN250 19/03 A2999 RMK AO2 SLP152 T01940033 $
2026-05-01 18:53:00,METAR KBNA 011853Z 32011G20KT 10SM FEW045 SCT200 BKN250 19/03 A3001 RMK AO2 SLP158 T01940033 $
2026-05-01 17:53:00,METAR KBNA 011753Z 33012KT 10SM SCT045 BKN250 19/07 A3000 RMK AO2 SLP157 T01890067 10194 20089 58002 $
2026-05-01 16:53:00,METAR KBNA 011653Z 30005G20KT 10SM FEW050 BKN250 19/06 A3001 RMK AO2 SLP160 T01940056 $
2026-05-01 15:53:00,METAR KBNA 011553Z 30009G20KT 10SM FEW055 SCT200 SCT250 18/03 A3002 RMK AO2 SLP162 T01830033 $
2026-05-01 14:53:00,METAR KBNA 011453Z 34008KT 10SM FEW055 SCT200 SCT250 18/02 A3001 RMK AO2 SLP159 T01780022 50004 $
2026-05-01 13:53:00,METAR KBNA 011353Z 00000KT 10SM SCT250 16/05 A3001 RMK AO2 SLP160 T01610050 $
2026-05-01 12:53:00,METAR KBNA 011253Z 29004KT 10SM FEW250 13/06 A3002 RMK AO2 SLP161 T01280061 $
2026-05-01 11:53:00,METAR KBNA 011153Z 00000KT 10SM FEW250 09/07 A3000 RMK AO2 SLP156 T00940067 10106 20072 53006 $
2026-05-01 10:53:00,METAR KBNA 011053Z 00000KT 10SM FEW200 08/06 A2997 RMK AO2 SLP147 T00780056 $
2026-05-01 09:53:00,METAR KBNA 010953Z 00000KT 10SM BKN200 08/06 A2997 RMK AO2 SLP148 T00830056 $
2026-05-01 08:53:00,METAR KBNA 010853Z 00000KT 10SM SCT200 08/05 A2998 RMK AO2 SLP149 T00830050 55008 $
2026-05-01 07:53:00,METAR KBNA 010753Z 00000KT 10SM SCT200 09/05 A2997 RMK AO2 SLP147 T00940050 $
2026-05-01 06:53:00,METAR KBNA 010653Z 00000KT 10SM SCT150 10/06 A2999 RMK AO2 SLP154 T01000056 $
2026-05-01 05:53:00,METAR KBNA 010553Z 00000KT 10SM SCT150 11/05 A3000 RMK AO2 SLP157 T01060050 10167 20100 401940100 58003 $
2026-05-01 04:53:00,METAR KBNA 010453Z 00000KT 10SM BKN150 11/05 A3001 RMK AO2 SLP161 T01060050 $
2026-05-01 03:53:00,METAR KBNA 010353Z 35003KT 10SM BKN150 14/03 A3001 RMK AO2 SLP161 T01390033 $
2026-05-01 02:53:00,METAR KBNA 010253Z 02005KT 10SM BKN180 14/03 A3001 RMK AO2 SLP159 T01390033 51012 $
2026-05-01 01:53:00,METAR KBNA 010153Z 01005KT 10SM SCT250 14/02 A3000 RMK AO2 SLP155 T01440022 $
2026-05-01 00:53:00,METAR KBNA 010053Z 01006KT 10SM BKN250 16/02 A2999 RMK AO2 SLP152 T01560017 $
2026-04-30 23:53:00,METAR KBNA 302353Z 01009KT 10SM BKN250 17/01 A2997 RMK AO2 SLP147 T01670006 10194 20167 55006 $
2026-04-30 22:53:00,METAR KBNA 302253Z 36009G18KT 10SM BKN250 18/01 A2997 RMK AO2 SLP146 T01780006 $
2026-04-30 21:53:00,METAR KBNA 302153Z 02009G18KT 10SM BKN250 19/01 A2998 RMK AO2 SLP149 T01890006 $
2026-04-30 20:53:00,METAR KBNA 302053Z 36009G18KT 10SM BKN250 19/01 A2999 RMK AO2 SLP153 T01890006 58016 $
2026-04-30 19:53:00,METAR KBNA 301953Z 02011G20KT 10SM BKN250 18/M01 A3001 RMK AO2 PK WND 35028/1914 SLP160 T01831006 $
2026-04-30 18:53:00,METAR KBNA 301853Z 35006G22KT 10SM BKN200 18/01 A3003 RMK AO2 PK WND 35026/1818 SLP165 T01780011 $
2026-04-30 17:53:00,METAR KBNA 301753Z 36012G21KT 10SM BKN250 17/M01 A3004 RMK AO2 SLP169 T01721006 10172 20117 56007 $
2026-04-30 16:53:00,METAR KBNA 301653Z 35012G19KT 10SM BKN250 17/02 A3004 RMK AO2 SLP169 T01720017 $
2026-04-30 14:53:00,METAR KBNA 301453Z 01017G27KT 10SM SCT250 16/M01 A3006 RMK AO2 PK WND 02027/1447 SLP175 T01561011 51008 $
2026-04-30 13:53:00,METAR KBNA 301353Z 02015G29KT 10SM FEW250 14/M01 A3006 RMK AO2 PK WND 02029/1345 SLP175 T01441006 $
2026-04-30 12:53:00,METAR KBNA 301253Z 36012G21KT 10SM FEW250 13/02 A3006 RMK AO2 SLP176 T01280022 $
2026-04-30 11:53:00,METAR KBNA 301153Z 36007KT 10SM FEW250 12/03 A3003 RMK AO2 SLP167 T01170033 10150 20106 53016 $
2026-04-30 10:53:00,METAR KBNA 301053Z 01006KT 10SM CLR 11/04 A3001 RMK AO2 SLP158 T01110039 $
2026-04-30 09:53:00,METAR KBNA 300953Z 36006KT 10SM CLR 11/04 A3000 RMK AO2 SLP157 T01110044 $
2026-04-30 08:53:00,METAR KBNA 300853Z 01007KT 10SM CLR 12/05 A2998 RMK AO2 SLP151 T0117003
2026-04-30 07:53:00,METAR KBNA 300753Z 36008KT 10SM BKN200 13/06 A2998 RMK AO2 SLP148 T01280056 $
2026-04-30 06:53:00,METAR KBNA 300653Z 36011KT 10SM SCT200 14/06 A2997 RMK AO2 SLP146 T01390061
2026-04-30 05:53:00,METAR KBNA 300553Z 35008KT 10SM BKN200 15/07 A2999 RMK AO2 SLP153 T01500072 10194 20150 402390150 53000 $
2026-04-30 04:53:00,METAR KBNA 300453Z 36009KT 10SM BKN150 16/07 A2998 RMK AO2 SLP147 T01560072 $
2026-04-30 03:53:00,METAR KBNA 300353Z 01012G26KT 10SM BKN150 16/08 A2999 RMK AO2 PK WND 34028/0318 SLP151 T01610078 $
2026-04-30 02:53:00,METAR KBNA 300253Z 34007G19KT 10SM BKN130 17/09 A2999 RMK AO2 SLP153 T01670089 53024 $
2026-04-30 01:53:00,METAR KBNA 300153Z 01009KT 10SM FEW039 BKN110 18/09 A2996 RMK AO2 SLP141 T01780094 $
2026-04-30 00:53:00,METAR KBNA 300053Z 35009G22KT 10SM SCT042 BKN250 18/10 A2993 RMK AO2 SLP132 T01830100 $
2026-04-29 23:53:00,METAR KBNA 292353Z 35008G16KT 10SM SCT046 BKN250 19/10 A2992 RMK AO2 SLP127 T01940100 10222 20189 56004 $
2026-04-29 22:53:00,METAR KBNA 292253Z 33009G23KT 10SM SCT040 BKN250 19/11 A2992 RMK AO2 PK WND 25029/2247 SLP128 T01940106 $
2026-04-29 21:53:00,METAR KBNA 292153Z 32011G17KT 300V040 10SM SCT034 BKN250 21/11 A2993 RMK AO2 SLP129 T02060111 $
2026-04-29 21:35:00,SPECI KBNA 292135Z 33009G24KT 10SM BKN032 BKN040 19/12 A2993 RMK AO2 T01940117 $
2026-04-29 20:53:00,METAR KBNA 292053Z 34009G24KT 10SM BKN029 BKN036 19/13 A2993 RMK AO2 SLP132 T01890128 50000 $
2026-04-29 19:53:00,METAR KBNA 291953Z 34012G21KT 10SM BKN027 BKN034 BKN250 21/13 A2994 RMK AO2 SLP134 T02060133 $
2026-04-29 18:53:00,METAR KBNA 291853Z 33014G19KT 10SM BKN026 BKN035 BKN046 BKN250 22/14 A2993 RMK AO2 PK WND 35027/1759 SLP131 T02220144 $
2026-04-29 17:53:00,METAR KBNA 291753Z 32015G21KT 10SM BKN022 BKN042 BKN060 21/14 A2993 RMK AO2 PK WND 34027/1732 SLP131 60000 T02110144 10239 20178 53006 $
2026-04-29 16:53:00,METAR KBNA 291653Z 29009G19KT 10SM FEW010 BKN022 BKN035 23/16 A2991 RMK AO2 SLP124 T02280161 $
2026-04-29 16:45:00,SPECI KBNA 291645Z 29014G19KT 10SM FEW010 BKN022 BKN035 23/16 A2991 RMK AO2 T02280161 $
2026-04-29 16:10:00,SPECI KBNA 291610Z 27009G14KT 10SM FEW008 BKN014 BKN025 22/17 A2991 RMK AO2 T02170172 $
2026-04-29 15:53:00,METAR KBNA 291553Z 26009G16KT 10SM FEW008 BKN023 OVC031 21/18 A2991 RMK AO2 RAB09E27 SLP125 P0000 T02110178 $
2026-04-29 15:39:00,SPECI KBNA 291539Z 26009G16KT 10SM FEW008 BKN023 OVC031 21/18 A2991 RMK AO2 RAB09E27 P0000 T02060178 $
2026-04-29 15:11:00,SPECI KBNA 291511Z 26009G18KT 4SM -RA BR SCT013 OVC024 19/17 A2992 RMK AO2 RAB09 P0000 T01940172 $
2026-04-29 14:53:00,METAR KBNA 291453Z 25011G19KT 10SM BKN011 OVC020 20/17 A2991 RMK AO2 SLP124 T02000167 53006 $
2026-04-29 13:53:00,METAR KBNA 291353Z 20008G15KT 10SM OVC010 19/17 A2988 RMK AO2 SLP114 T01940167 $
2026-04-29 12:53:00,METAR KBNA 291253Z 22004G15KT 10SM OVC010 18/16 A2990 RMK AO2 SLP120 T01830156 $
2026-04-29 11:53:00,METAR KBNA 291153Z 21010G17KT 10SM OVC011 18/15 A2989 RMK AO2 SLP118 60005 70042 T01780150 10178 20167 53014 $
2026-04-29 11:14:00,SPECI KBNA 291114Z 21007KT 10SM BKN014 OVC100 17/15 A2989 RMK AO2 T01720150 $
2026-04-29 10:53:00,METAR KBNA 291053Z 20005KT 10SM SCT013 BKN100 17/14 A2988 RMK AO2 SLP113 T01720144 $
2026-04-29 09:53:00,METAR KBNA 290953Z 20009G18KT 10SM BKN011 17/15 A2986 RMK AO2 SLP106 T01720150 $
2026-04-29 09:17:00,SPECI KBNA 290917Z 22006G14KT 10SM BKN011 BKN090 17/15 A2985 RMK AO2 T01720150 $
2026-04-29 08:53:00,METAR KBNA 290853Z 20008G17KT 10SM FEW010 SCT090 17/15 A2985 RMK AO2 SLP103 60005 T01720150 55034 $
2026-04-29 07:53:00,METAR KBNA 290753Z VRB04G16KT 10SM FEW013 SCT120 OVC250 17/15 A2984 RMK AO2 RAE0655 SLP098 P0000 T01720150 $
2026-04-29 06:53:00,METAR KBNA 290653Z 18018G25KT 10SM -RA FEW046 SCT100 SCT120 17/15 A2984 RMK AO2 PK WND 19038/0606 PRESFR SLP099 TSE19 P0005 T01720150 $
2026-04-29 06:21:00,SPECI KBNA 290621Z 18021G36KT 10SM FEW090 OVC110 17/15 A2987 RMK AO2 PK WND 19038/0606 TSE19 P0003 T01720150 $
2026-04-29 06:05:00,SPECI KBNA 290605Z 16019G29KT 5SM -TSRA BR SCT070 BKN090CB OVC100 17/15 A2988 RMK AO2 PK WND 17029/0605 PRESFR TSB59 OCNL LTGICCG OHD TS OHD MOV E P0003 T01720150 $
2026-04-29 05:53:00,METAR KBNA 290553Z 19015G28KT 4SM RA BR SCT070 OVC090 18/16 A2995 RMK AO2 PK WND 19028/0549 PRESFR SLP138 P0010 60037 T01780156 10217 20178 402780172 58012 $
2026-04-29 04:53:00,METAR KBNA 290453Z 20007KT 4SM -RA BR OVC100 19/17 A2997 RMK AO2 RAB13 SLP143 OCNL LTGICCC DSNT W CB DSNT W P0005 T01890167 $
2026-04-29 03:53:00,METAR KBNA 290353Z 00000KT 10SM BKN100 OVC150 19/17 A2998 RMK AO2 SLP147 T01890167 $
2026-04-29 03:43:00,SPECI KBNA 290343Z 19004KT 10SM SCT100 OVC150 19/17 A2998 RMK AO2 T01890167 $
2026-04-29 03:04:00,SPECI KBNA 290304Z 20009KT 8SM SCT015 BKN026 OVC090 19/17 A2998 RMK AO2 T01890172 $
2026-04-29 02:53:00,METAR KBNA 290253Z 00000KT 10SM FEW015 OVC095 19/17 A2999 RMK AO2 RAE01 SLP151 P0000 60022 T01890172 55005 $
2026-04-29 01:53:00,METAR KBNA 290153Z 15013G34KT 7SM -RA BKN090 OVC110 19/16 A2991 RMK AO2 PK WND 13034/0145 TSE48 SLP125 P0012 T01940161 $
2026-04-29 00:53:00,METAR KBNA 290053Z 20018G27KT 4SM -TSRA BR FEW050 SCT070CB OVC100 21/18 A3001 RMK AO2 PK WND 20028/0021 TSB13 SLP157 OCNL LTGICCA OHD TS OHD MOV E P0010 T02060183 $
2026-04-29 00:19:00,SPECI KBNA 290019Z 20018G27KT 5SM -TSRA BR BKN050CB OVC095 21/18 A3001 RMK AO2 PK WND 20028/0002 TSB13 OCNL LTGIC W TS W MOV E P0000 T02110178 $
2026-04-28 23:53:00,METAR KBNA 282353Z 20018G28KT 8SM -RA FEW026 BKN050 OVC110 22/18 A3001 RMK AO2 PK WND 20037/2339 RAB50 SLP156 P0000 60000 T02170178 10278 20217 53023 $
2026-04-28 22:53:00,METAR KBNA 282253Z 20015G25KT 10SM SCT025 BKN033 OVC150 23/18 A2997 RMK AO2 SLP142 T02330178 $
2026-04-28 21:53:00,METAR KBNA 282153Z 18013G22KT 10SM SCT026 BKN050 BKN160 OVC250 24/18 A2992 RMK AO2 SLP127 T02440183 $
2026-04-28 20:53:00,METAR KBNA 282053Z 20014G22KT 10SM SCT034 BKN047 BKN250 27/18 A2994 RMK AO2 SLP132 T02670178 58027 $
2026-04-28 19:53:00,METAR KBNA 281953Z 20008G23KT 10SM FEW028 BKN038 BKN250 27/17 A2999 RMK AO2 SLP147 T02670172 $
2026-04-28 18:53:00,METAR KBNA 281853Z 22009KT 10SM FEW026 BKN032 26/18 A3001 RMK AO2 SLP156 T02610178 $
2026-04-28 17:53:00,METAR KBNA 281753Z 20010KT 10SM SCT026 BKN034 25/17 A3002 RMK AO2 SLP158 T02500172 10250 20172 58012 $
2026-04-28 16:53:00,METAR KBNA 281653Z 22011G19KT 10SM BKN024 OVC034 23/17 A3004 RMK AO2 SLP165 T02330172 $
2026-04-28 16:04:00,SPECI KBNA 281604Z 21008G18KT 190V250 10SM BKN024 BKN040 24/17 A3005 RMK AO2 T02390172 $
2026-04-28 15:53:00,METAR KBNA 281553Z 21010G23KT 150V240 10SM SCT022 BKN038 24/17 A3005 RMK AO2 PK WND 20036/1455 SLP170 T02390172 $
2026-04-28 14:53:00,METAR KBNA 281453Z 20019G30KT 10SM FEW015 SCT020 SCT250 22/17 A3005 RMK AO2 PK WND 20034/1426 SLP169 T02170167 51013 $
2026-04-28 13:53:00,METAR KBNA 281353Z 18013KT 10SM FEW012 SCT130 SCT250 19/16 A3005 RMK AO2 SLP169 T01940161 $
2026-04-28 12:53:00,METAR KBNA 281253Z 17008KT 10SM FEW025 SCT200 BKN250 18/16 A3002 RMK AO2 SLP160 T01780161 $
2026-04-28 11:53:00,METAR KBNA 281153Z 17011KT 10SM FEW025 SCT090 BKN130 BKN200 17/16 A3001 RMK AO2 SLP157 60136 70136 T01720156 10239 20172 53012 $
2026-04-28 10:53:00,METAR KBNA 281053Z 18009KT 10SM SCT090 OVC200 17/16 A3000 RMK AO2 SLP151 T01720156 $
2026-04-28 09:53:00,METAR KBNA 280953Z 15003KT 10SM SCT100 OVC150 17/15 A2990 RMK AO2 RAE43 TSE21 PRESFR SLP118 P0010 T01720150 $
2026-04-28 09:27:00,SPECI KBNA 280927Z 19013KT 6SM -RA BR BKN100 OVC110 17/16 A2997 RMK AO2 TSE21 P0007 T01720156 $
2026-04-28 08:53:00,METAR KBNA 280853Z 20012G22KT 7SM TSRA BKN090CB OVC100 18/16 A2998 RMK AO2 PK WND 27049/0756 WSHFT 0740 SLP145 OCNL LTGICCCCG OHD TS OHD MOV NE P0036 60126 T01780156 50026 $
2026-04-28 08:20:00,SPECI KBNA 280820Z 21012KT 7SM -TSRA SCT024CB SCT060 OVC090 18/15 A2998 RMK AO2 PK WND 27049/0756 WSHFT 0740 FRQ LTGICCCCG OHD TS OHD MOV NE P0030 T01780150 $
2026-04-28 08:04:00,SPECI KBNA 280804Z 26007G49KT 210V300 2 1/2SM +TSRA BR FEW015 BKN060CB OVC120 17/15 A2999 RMK AO2 PK WND 27049/0756 WSHFT 0740 FRQ LTGICCCCG OHD TS OHD MOV NE P0027 T01720150 $
2026-04-28 07:57:00,SPECI KBNA 280757Z COR 28025G49KT 250V320 2 1/2SM -TSRA BR FEW015 BKN060CB OVC120 19/16 A3001 RMK AO2 PK WND 27049/0756 WSHFT 0740 PRESRR FRQ LTGICCCCG OHD TS OHD MOV NE P0000 T01940161 $
2026-04-28 07:53:00,METAR KBNA 280753Z 29017G29KT 9SM -TSRA BKN060CB OVC110 21/18 A3000 RMK AO2 PK WND 29029/0752 WSHFT 0735 RAE17B51 PRESRR SLP152 FRQ LTGICCCCG OHD TS OHD MOV NE P0004 T02110178 $
2026-04-28 07:49:00,SPECI KBNA 280749Z 29015G23KT 10SM TS BKN060CB OVC110 21/18 A2998 RMK AO2 WSHFT 0735 RAE17 PRESRR FRQ LTGICCCCG OHD TS OHD MOV NE P0004 $
2026-04-28 07:16:00,SPECI KBNA 280716Z COR 17011G19KT 10SM -TSRA BKN025CB OVC036 22/18 A2991 RMK AO2 FRQ LTGICCCCG OHD TS OHD MOV NE P0004 T02170178 $
2026-04-28 06:53:00,METAR KBNA 280653Z 17008G37KT 1 3/4SM +TSRA BR BKN033CB BKN044 OVC050 24/17 A2991 RMK AO2 PK WND 20037/0646 SLP122 FRQ LGTICCCCG OHD TS OHD MOV NE P0086 T02390172 $
2026-04-28 06:40:00,SPECI KBNA 280640Z 19006KT 1 1/2SM +TSRA BR BKN028CB BKN035 OVC050 21/18 A2992 RMK AO2 PK WND 20032/0603 PRESFR FRQ LGTICCCCG OHD TS OHD MOV NE P0070 T02060183 $
2026-04-28 06:17:00,SPECI KBNA 280617Z COR 26013G20KT 1 3/4SM TSRA BR SCT045CB BKN070 OVC100 21/18 A2996 RMK AO2 PK WND 20032/0603 PRESRR FRQ LTGICCCCCG OHD TS OHD MOV NE P0018 T02110183 $
2026-04-28 05:53:00,METAR KBNA 280553Z 20017G30KT 3SM -TSRA BR BKN047CB BKN095 OVC120 21/18 A2990 RMK AO2 PK WND 19035/0502 RAB17 TSB19 SLP119 FRQ LTGICCCCG OHD TS OHD MOV NE P0000 60000 T02110183 10267 20211 402890161 55001 $
2026-04-28 05:22:00,SPECI KBNA 280522Z 20015G32KT 9SM -TSRA BKN042CB OVC200 23/17 A2990 RMK AO2 PK WND 19035/0502 RAB17 TSB19 FRQ LTGICCCCG TS OHD MOV NE P0000 T02330172 $
2026-04-28 04:53:00,METAR KBNA 280453Z 20018G29KT 10SM FEW050 FEW080 OVC250 24/16 A2990 RMK AO2 PK WND 20033/0408 SLP118 FRQ LTGICCC SW-NE CB DSNT SW-NE T02440161 $
2026-04-28 03:53:00,METAR KBNA 280353Z 19018G29KT 10SM BKN041 BKN050 BKN250 25/16 A2991 RMK AO2 PK WND 21033/0343 SLP120 OCNL LTGIC DSNT W CB DSNT W T02500161 $
2026-04-28 02:53:00,METAR KBNA 280253Z COR 18014G20KT 10SM SCT041 BKN050 BKN250 26/16 A2990 RMK AO2 OCNL LTGIC DSNT NW CB DSNTNW SLP120 T02560156 53012 $
2026-04-28 01:53:00,METAR KBNA 280153Z 17017G26KT 10SM SCT048 BKN065 BKN250 26/16 A2989 RMK AO2 PK WND 18026/0142 SLP114 T02560156 $
2026-04-28 00:53:00,METAR KBNA 280053Z 19016G27KT 10SM SCT047 BKN060 BKN250 26/16 A2988 RMK AO2 PK WND 18027/0046 SLP111 T02610156 $
2026-04-27 23:53:00,METAR KBNA 272353Z 18016G28KT 10SM SCT050 SCT065 BKN250 27/16 A2987 RMK AO2 PK WND 18030/2303 SLP108 T02670156 10289 20267 56012 $
2026-04-27 22:53:00,METAR KBNA 272253Z 18014G26KT 10SM SCT050 BKN070 BKN250 27/16 A2988 RMK AO2 PK WND 16034/2157 SLP112 T02720156 $
2026-04-27 21:53:00,METAR KBNA 272153Z 17016G34KT 10SM SCT055 SCT250 28/15 A2989 RMK AO2 PK WND 15036/2124 SLP115 T02830150 $
2026-04-27 20:53:00,METAR KBNA 272053Z 17021G36KT 10SM FEW047 SCT100 BKN250 28/15 A2990 RMK AO2 PK WND 17036/2048 SLP120 T02830150 58019 $
2026-04-27 19:53:00,METAR KBNA 271953Z 19017G37KT 10SM FEW046 SCT095 BKN250 28/15 A2993 RMK AO2 PK WND 19037/1942 SLP131 T02780150 $
2026-04-27 18:53:00,METAR KBNA 271853Z 18019G32KT 10SM FEW043 SCT150 SCT250 27/15 A2997 RMK AO2 PK WND 16033/1806 SLP141 T02720150 $
2026-04-27 17:53:00,METAR KBNA 271753Z 17020G33KT 10SM FEW050 SCT190 SCT250 28/15 A2996 RMK AO2 PK WND 19034/1736 SLP138 T02780150 10278 20183 58012 $
2026-04-27 16:53:00,METAR KBNA 271653Z 17016G30KT 10SM FEW040 SCT200 BKN250 26/15 A2999 RMK AO2 PK WND 17032/1605 SLP147 T02610150 $
2026-04-27 15:53:00,METAR KBNA 271553Z 16013G23KT 10SM FEW160 SCT220 BKN250 24/15 A3000 RMK AO2 PK WND 15028/1514 SLP152 T02440150 $
2026-04-27 14:53:00,METAR KBNA 271453Z 16014G24KT 10SM FEW150 BKN180 OVC250 22/14 A3000 RMK AO2 PK WND 18029/1402 SLP152 T02220144 58000 $
2026-04-27 13:53:00,METAR KBNA 271353Z 17013G22KT 10SM SCT190 OVC250 22/14 A3002 RMK AO2 SLP160 T02170139 $
2026-04-27 12:53:00,METAR KBNA 271253Z 17010KT 10SM SCT200 BKN250 20/13 A3001 RMK AO2 SLP157 T02000133 $
2026-04-27 11:53:00,METAR KBNA 271153Z 16009KT 10SM SCT200 BKN250 18/12 A3000 RMK AO2 SLP152 T01830122 10183 20161 53008 $
2026-04-27 10:53:00,METAR KBNA 271053Z 14005KT 10SM BKN250 16/11 A2998 RMK AO2 SLP146 T01610111 $
2026-04-27 09:53:00,METAR KBNA 270953Z 14004KT 10SM BKN250 16/11 A2996 RMK AO2 SLP140 T01610111 $
2026-04-27 08:53:00,METAR KBNA 270853Z 00000KT 10SM BKN250 17/12 A2997 RMK AO2 SLP144 T01670117 51003 $
2026-04-27 07:53:00,METAR KBNA 270753Z 00000KT 10SM BKN250 16/12 A2997 RMK AO2 SLP142 T01610117 $
2026-04-27 06:53:00,METAR KBNA 270653Z 14003KT 10SM BKN250 18/11 A2997 RMK AO2 SLP143 T01830111 $
2026-04-27 05:53:00,METAR KBNA 270553Z 13005KT 10SM SCT250 18/11 A2996 RMK AO2 SLP141 T01830111 10256 20183 402890139 51003 $
2026-04-27 04:53:00,METAR KBNA 270453Z 15003KT 10SM FEW250 20/11 A2996 RMK AO2 SLP139 T02000106 $
2026-04-27 03:53:00,METAR KBNA 270353Z 15006KT 10SM FEW250 20/11 A2996 RMK AO2 SLP140 T02000111 $
2026-04-27 02:53:00,METAR KBNA 270253Z 11007KT 10SM FEW070 FEW250 22/11 A2995 RMK AO2 SLP138 T02170111 52019 $
2026-04-27 01:53:00,METAR KBNA 270153Z 18003KT 10SM BKN070 BKN250 22/12 A2994 RMK AO2 SLP132 T02170117 $
2026-04-27 00:53:00,METAR KBNA 270053Z 10005KT 10SM FEW050 SCT250 24/12 A2991 RMK AO2 SLP125 T02390117 $
2026-04-26 23:53:00,METAR KBNA 262353Z 11004KT 10SM FEW050 BKN250 26/11 A2990 RMK AO2 SLP119 T02560106 10289 20256 55001 $
2026-04-26 22:53:00,METAR KBNA 262253Z 06004KT 10SM FEW060 BKN250 27/10 A2989 RMK AO2 SLP116 T02720100 $
2026-04-26 21:53:00,METAR KBNA 262153Z 12008KT 10SM SCT065 BKN250 28/09 A2989 RMK AO2 SLP116 T02780089 $
2026-04-26 20:53:00,METAR KBNA 262053Z 09006KT 10SM SCT065 BKN250 28/09 A2990 RMK AO2 SLP119 T02830089 56016 $
2026-04-26 19:53:00,METAR KBNA 261953Z VRB03KT 10SM SCT065 BKN250 28/10 A2992 RMK AO2 SLP126 T02780100 $
2026-04-26 18:53:00,METAR KBNA 261853Z 13008KT 10SM SCT060 SCT250 27/10 A2993 RMK AO2 SLP129 T02720100 $
2026-04-26 17:53:00,METAR KBNA 261753Z 07006KT 10SM SCT055 SCT250 27/11 A2995 RMK AO2 SLP136 T02720111 10272 20156 58007 $
2026-04-26 16:53:00,METAR KBNA 261653Z VRB03KT 10SM SCT045 SCT250 26/09 A2997 RMK AO2 SLP141 T02610094 $
2026-04-26 15:53:00,METAR KBNA 261553Z 08006KT 10SM FEW040 24/14 A2997 RMK AO2 SLP143 T02440139 $
2026-04-26 14:53:00,METAR KBNA 261453Z 10005KT 10SM FEW250 22/14 A2997 RMK AO2 SLP144 T02220139 53014 $
2026-04-26 13:53:00,METAR KBNA 261353Z 00000KT 10SM FEW020 21/13 A2995 RMK AO2 SLP138 T02060133 $
2026-04-26 12:53:00,METAR KBNA 261253Z 05006KT 10SM FEW020 FEW250 17/14 A2994 RMK AO2 SLP135 T01720144 $
2026-04-26 12:28:00,SPECI KBNA 261228Z 06003KT 7SM FEW055 SCT250 17/14 A2993 RMK AO2 T01670144 $
2026-04-26 12:14:00,SPECI KBNA 261214Z COR 05003KT 7SM SCT055 BKN250 16/14 A2993 RMK AO2 T01560144 $
2026-04-26 11:53:00,METAR KBNA 261153Z 04003KT 4SM BR SCT060 BKN250 16/14 A2993 RMK AO2 SLP130 T01560144 10172 20139 51011 $
2026-04-26 11:46:00,SPECI KBNA 261146Z 00000KT 4SM BR SCT060 BKN250 15/14 A2993 RMK AO2 T01500144 $
2026-04-26 11:32:00,SPECI KBNA 261132Z 00000KT 1/4SM FG SCT060 BKN250 14/13 A2993 RMK AO2 T01440133 RVRNO $
2026-04-26 10:53:00,METAR KBNA 261053Z 00000KT 1/8SM FG VV002 14/13 A2992 RMK AO2 TWR VIS 1 SLP127 T01390128 RVRNO $
2026-04-26 10:45:00,SPECI KBNA 261045Z 18003KT 1/8SM FG VV002 14/13 A2992 RMK AO2 TWR VIS 1 T01390128 RVRNO $
2026-04-26 10:28:00,SPECI KBNA 261028Z 19003KT 1/2SM FG BKN002 BKN150 14/13 A2991 RMK AO2 TWR VIS 1 T01390128 RVRNO $
2026-04-26 09:53:00,METAR KBNA 260953Z 00000KT 4SM BR FEW020 SCT200 14/13 A2991 RMK AO2 SLP122 T01440133 $
2026-04-26 08:53:00,METAR KBNA 260853Z 00000KT 8SM CLR 15/13 A2990 RMK AO2 SLP118 T01500133 53003 $
2026-04-26 07:53:00,METAR KBNA 260753Z 00000KT 6SM BR CLR 16/14 A2988 RMK AO2 SLP113 T01610144 $
2026-04-26 06:53:00,METAR KBNA 260653Z 05003KT 7SM CLR 16/14 A2987 RMK AO2 SLP110 T01610139 $
2026-04-26 05:53:00,METAR KBNA 260553Z 00000KT 10SM CLR 17/14 A2989 RMK AO2 SLP114 T01670144 10250 20167 402830167 51008 $
2026-04-26 04:53:00,METAR KBNA 260453Z 00000KT 10SM CLR 17/15 A2988 RMK AO2 SLP112 T01720150 $
2026-04-26 03:53:00,METAR KBNA 260353Z 00000KT 10SM CLR 18/15 A2988 RMK AO2 SLP112 T01830150 $
2026-04-26 02:53:00,METAR KBNA 260253Z 12005KT 10SM FEW120 19/16 A2986 RMK AO2 SLP106 T01890156 51017 $
2026-04-26 01:53:00,METAR KBNA 260153Z 17003KT 10SM FEW120 21/13 A2985 RMK AO2 SLP103 T02060133 $
2026-04-26 00:53:00,METAR KBNA 260053Z 02008KT 10SM FEW065 FEW120 SCT250 23/12 A2982 RMK AO2 SLP093 T02280117 $
2026-04-25 23:53:00,METAR KBNA 252353Z 36011KT 10SM FEW060 SCT120 SCT250 25/11 A2981 RMK AO2 SLP089 T02500111 10283 20244 53010 $
2026-04-25 22:53:00,METAR KBNA 252253Z 03011KT 10SM FEW055 SCT120 SCT250 26/12 A2980 RMK AO2 SLP085 T02560117 $
2026-04-25 21:53:00,METAR KBNA 252153Z 02010G26KT 10SM FEW055 FEW110 BKN250 26/12 A2978 RMK AO2 PK WND 35026/2146 SLP078 T02610122 $
2026-04-25 20:53:00,METAR KBNA 252053Z 36011G19KT 10SM SCT050 SCT085 BKN110 BKN250 27/13 A2978 RMK AO2 SLP079 T02670128 56013 $
2026-04-25 19:53:00,METAR KBNA 251953Z 35010KT 10SM SCT046 BKN070 BKN110 BKN250 26/13 A2979 RMK AO2 SLP082 T02610133 $
2026-04-25 18:53:00,METAR KBNA 251853Z VRB03KT 10SM SCT060 BKN110 BKN250 28/13 A2980 RMK AO2 SLP086 T02780133 $
2026-04-25 17:53:00,METAR KBNA 251753Z VRB05KT 10SM SCT040 BKN100 BKN250 27/14 A2982 RMK AO2 SLP091 T02720144 10272 20189 58004 $
2026-04-25 16:53:00,METAR KBNA 251653Z 04004KT 10SM FEW030 SCT060 BKN090 BKN250 26/15 A2984 RMK AO2 SLP098 T02560150 $
2026-04-25 15:53:00,METAR KBNA 251553Z 02007KT 10SM FEW025 SCT040 BKN060 BKN250 24/15 A2984 RMK AO2 SLP099 T02390150 $
2026-04-25 14:53:00,METAR KBNA 251453Z 06007KT 10SM FEW019 SCT055 BKN070 BKN220 23/16 A2983 RMK AO2 SLP097 T02280161 58000 $
2026-04-25 13:53:00,METAR KBNA 251353Z 04005KT 10SM FEW030 BKN070 BKN210 BKN250 21/16 A2984 RMK AO2 SLP099 T02060161 $
2026-04-25 12:53:00,METAR KBNA 251253Z 03004KT 10SM SCT023 SCT070 BKN250 19/16 A2985 RMK AO2 SLP101 T01940161 $
2026-04-25 11:53:00,METAR KBNA 251153Z 02004KT 7SM SCT023 BKN250 18/16 A2984 RMK AO2 SLP097 T01830161 10194 20172 53009 $
2026-04-25 10:53:00,METAR KBNA 251053Z 35003KT 10SM FEW025 FEW060 SCT200 18/16 A2982 RMK AO2 SLP093 T01780156 $
2026-04-25 09:53:00,METAR KBNA 250953Z 08004KT 10SM FEW060 SCT200 18/16 A2980 RMK AO2 SLP086 T01830156 $
2026-04-25 08:53:00,METAR KBNA 250853Z 07004KT 9SM SCT022 BKN065 18/16 A2981 RMK AO2 SLP087 T01830161 55007 $
2026-04-25 07:53:00,METAR KBNA 250753Z 05004KT 9SM BKN070 19/16 A2981 RMK AO2 SLP087 T01890161 $
2026-04-25 06:53:00,METAR KBNA 250653Z 02004KT 10SM BKN070 19/17 A2981 RMK AO2 SLP089 T01940167 $
2026-04-25 05:53:00,METAR KBNA 250553Z 32003KT 10SM BKN065 19/16 A2983 RMK AO2 SLP095 60000 T01890156 10233 20183 402720139 58000 $
2026-04-25 04:53:00,METAR KBNA 250453Z 33003KT 10SM FEW055 SCT120 20/16 A2983 RMK AO2 SLP094 T02000156 $
2026-04-25 03:53:00,METAR KBNA 250353Z 00000KT 10SM BKN060 OVC110 20/16 A2983 RMK AO2 SLP096 T02000161 $
2026-04-25 02:53:00,METAR KBNA 250253Z 00000KT 10SM BKN070 OVC085 21/14 A2983 RMK AO2 RAB41E52 SLP095 P0000 60000 T02110144 53006 $
2026-04-25 01:53:00,METAR KBNA 250153Z 23003KT 10SM FEW065 OVC085 22/14 A2982 RMK AO2 SLP093 T02220139 $
2026-04-25 00:53:00,METAR KBNA 250053Z 25003KT 10SM FEW075 OVC100 23/14 A2981 RMK AO2 SLP090 T02280139 $
2026-04-24 23:53:00,METAR KBNA 242353Z 27005KT 10SM SCT055 BKN075 OVC120 23/14 A2981 RMK AO2 SLP090 T02330139 10267 20233 52002 $
2026-04-24 22:53:00,METAR KBNA 242253Z 21008KT 10SM BKN065 BKN110 OVC250 25/12 A2981 RMK AO2 SLP088 T02500117 $
2026-04-24 21:53:00,METAR KBNA 242153Z 23006KT 10SM BKN070 OVC250 26/12 A2981 RMK AO2 SLP090 T02560117 $
2026-04-24 20:53:00,METAR KBNA 242053Z 20011G19KT 10SM SCT075 OVC250 26/11 A2981 RMK AO2 SLP088 T02560111 56017 $
2026-04-24 19:53:00,METAR KBNA 241953Z 19009KT 10SM SCT100 BKN250 26/11 A2982 RMK AO2 SLP093 T02610106 $
2026-04-24 18:53:00,METAR KBNA 241853Z 19008KT 10SM FEW090 BKN250 27/11 A2983 RMK AO2 SLP097 T02670106 $
2026-04-24 17:53:00,METAR KBNA 241753Z 21009G18KT 10SM SCT060 SCT090 SCT170 BKN250 27/11 A2986 RMK AO2 SLP105 T02670106 10272 20156 58017 $
2026-04-24 16:53:00,METAR KBNA 241653Z 24011G22KT 200V280 10SM SCT060 SCT090 BKN170 BKN250 26/12 A2988 RMK AO2 SLP113 T02610117 $
2026-04-24 15:53:00,METAR KBNA 241553Z 24009G19KT 10SM FEW060 SCT100 BKN250 25/12 A2990 RMK AO2 SLP119 T02500122 $
2026-04-24 14:53:00,METAR KBNA 241453Z 19008KT 10SM FEW090 BKN250 23/13 A2991 RMK AO2 SLP122 T02330128 51003 $
2026-04-24 13:53:00,METAR KBNA 241353Z 20008KT 10SM BKN085 BKN250 22/13 A2991 RMK AO2 SLP121 T02170128 $
2026-04-24 12:53:00,METAR KBNA 241253Z 18006KT 10SM BKN250 19/12 A2990 RMK AO2 SLP119 T01890117 $
2026-04-24 11:53:00,METAR KBNA 241153Z 18004KT 10SM BKN250 16/11 A2990 RMK AO2 SLP120 T01560106 10172 20139 53005 $
2026-04-24 10:53:00,METAR KBNA 241053Z 17004KT 10SM FEW250 14/10 A2988 RMK AO2 SLP114 T01390100 $
2026-04-24 09:53:00,METAR KBNA 240953Z 18004KT 10SM CLR 14/10 A2988 RMK AO2 SLP113 T01440100 $
2026-04-24 08:53:00,METAR KBNA 240853Z 17004KT 10SM CLR 16/09 A2988 RMK AO2 SLP114 T01610094 56012 $
2026-04-24 07:53:00,METAR KBNA 240753Z 17004KT 10SM CLR 16/09 A2989 RMK AO2 SLP116 T01610094 $
2026-04-24 06:53:00,METAR KBNA 240653Z 14003KT 10SM CLR 17/09 A2990 RMK AO2 SLP119 T01670094 $
2026-04-24 05:53:00,METAR KBNA 240553Z 00000KT 10SM CLR 17/09 A2992 RMK AO2 SLP126 T01720089 10250 20172 402940117 55002 $
2026-04-24 04:53:00,METAR KBNA 240453Z 18003KT 10SM CLR 18/09 A2992 RMK AO2 SLP125 T01780089 $
2026-04-24 03:53:00,METAR KBNA 240353Z 17003KT 10SM CLR 19/08 A2991 RMK AO2 SLP122 T01890083 $
2026-04-24 02:53:00,METAR KBNA 240253Z 18003KT 10SM CLR 21/08 A2993 RMK AO2 SLP128 T02060083 50002 $
2026-04-24 01:53:00,METAR KBNA 240153Z 00000KT 10SM CLR 21/08 A2993 RMK AO2 SLP128 T02110078 $
2026-04-24 00:53:00,METAR KBNA 240053Z 21004KT 10SM FEW080 23/07 A2992 RMK AO2 SLP128 T02280072 $
2026-04-23 23:53:00,METAR KBNA 232353Z 20007KT 10SM FEW090 25/07 A2992 RMK AO2 SLP127 T02500072 10294 20250 56009 $
2026-04-23 22:53:00,METAR KBNA 232253Z 20012G17KT 10SM FEW090 27/06 A2993 RMK AO2 SLP130 T02720061 $
2026-04-23 21:53:00,METAR KBNA 232153Z 19010KT 10SM FEW095 28/07 A2993 RMK AO2 SLP130 T02830067 $
2026-04-23 20:53:00,METAR KBNA 232053Z 21012G19KT 10SM FEW075 SCT100 27/07 A2995 RMK AO2 SLP136 T02670072 56025 $
2026-04-23 19:53:00,METAR KBNA 231953Z 21013G20KT 10SM SCT075 27/08 A2997 RMK AO2 SLP145 T02720078 $
2026-04-23 18:53:00,METAR KBNA 231853Z 20009KT 10SM SCT070 27/08 A3000 RMK AO2 SLP152 T02720078 $
2026-04-23 17:53:00,METAR KBNA 231753Z 18012G19KT 10SM SCT040 28/09 A3002 RMK AO2 SLP161 T02830089 10283 20128 58020 $
2026-04-23 16:53:00,METAR KBNA 231653Z 19011G16KT 10SM FEW250 26/09 A3006 RMK AO2 SLP172 T02610094 $
2026-04-23 15:53:00,METAR KBNA 231553Z 19009KT 10SM FEW250 25/10 A3008 RMK AO2 SLP182 T02500100 $
2026-04-23 14:53:00,METAR KBNA 231453Z 22004KT 10SM FEW250 24/10 A3008 RMK AO2 SLP181 T02390100 51001 $
2026-04-23 13:53:00,METAR KBNA 231353Z 19008KT 10SM FEW250 22/10 A3008 RMK AO2 SLP181 T02170100 $
2026-04-23 12:53:00,METAR KBNA 231253Z 16003KT 10SM FEW250 17/09 A3008 RMK AO2 SLP182 T01670094 $
2026-04-23 11:53:00,METAR KBNA 231153Z 14003KT 10SM FEW250 12/09 A3008 RMK AO2 SLP182 T01220089 10161 20117 53007
2026-04-23 10:53:00,METAR KBNA 231053Z 00000KT 10SM CLR 12/08 A3007 RMK AO2 SLP178 T01220083
2026-04-23 09:53:00,METAR KBNA 230953Z 00000KT 10SM CLR 14/09 A3006 RMK AO2 SLP173 T01390089
2026-04-23 08:53:00,METAR KBNA 230853Z 00000KT 10SM CLR 13/08 A3006 RMK AO2 SLP174 T01330083 55001
2026-04-23 07:53:00,METAR KBNA 230753Z 00000KT 10SM CLR 14/09 A3006 RMK AO2 SLP173 T01390089
2026-04-23 06:53:00,METAR KBNA 230653Z 00000KT 10SM CLR 15/09 A3006 RMK AO2 SLP172 T01500089
2026-04-23 05:53:00,METAR KBNA 230553Z 00000KT 10SM CLR 16/09 A3006 RMK AO2 SLP175 T01560089 10256 20150 402830106 58002
2026-04-23 04:53:00,METAR KBNA 230453Z 19005KT 10SM CLR 16/09 A3007 RMK AO2 SLP177 T01610089
2026-04-23 03:53:00,METAR KBNA 230353Z 18004KT 10SM CLR 17/09 A3007 RMK AO2 SLP177 T01720089
2026-04-23 02:53:00,METAR KBNA 230253Z 19005KT 10SM CLR 18/09 A3007 RMK AO2 SLP178 T01830089 53009
2026-04-23 01:53:00,METAR KBNA 230153Z 00000KT 10SM CLR 20/07 A3006 RMK AO2 SLP176 T02000072
2026-04-23 00:53:00,METAR KBNA 230053Z 26004KT 10SM CLR 23/06 A3005 RMK AO2 SLP171 T02280061
2026-04-22 23:53:00,METAR KBNA 222353Z 25005KT 10SM FEW085 26/06 A3004 RMK AO2 SLP169 T02560056 10283 20256 56010
2026-04-22 22:53:00,METAR KBNA 222253Z 24006KT 10SM FEW085 27/04 A3005 RMK AO2 SLP171 T02720044
2026-04-22 21:53:00,METAR KBNA 222153Z 24006KT 10SM FEW085 28/06 A3006 RMK AO2 SLP173 T02780061
2026-04-22 20:53:00,METAR KBNA 222053Z 26007G16KT 10SM FEW080 28/07 A3008 RMK AO2 SLP180 T02780067 58026
2026-04-22 19:53:00,METAR KBNA 221953Z 22013G22KT 10SM FEW080 27/06 A3010 RMK AO2 SLP189 T02720056
2026-04-22 18:53:00,METAR KBNA 221853Z 25009KT 10SM FEW060 27/06 A3013 RMK AO2 SLP198 T02720061
2026-04-22 17:53:00,METAR KBNA 221753Z 28008KT 10SM FEW050 26/06 A3015 RMK AO2 SLP206 T02610061 10267 20122 58022
2026-04-22 16:53:00,METAR KBNA 221653Z VRB03KT 10SM CLR 24/05 A3019 RMK AO2 SLP218 T02440050
2026-04-22 15:53:00,METAR KBNA 221553Z 25006G15KT 10SM CLR 24/06 A3021 RMK AO2 SLP226 T02390056
2026-04-22 14:53:00,METAR KBNA 221453Z 25009KT 10SM CLR 22/07 A3022 RMK AO2 SLP228 T02220067 51006
2026-04-22 13:53:00,METAR KBNA 221353Z 25009KT 10SM CLR 20/06 A3022 RMK AO2 SLP227 T02000061
2026-04-22 12:53:00,METAR KBNA 221253Z 17004KT 10SM CLR 16/08 A3021 RMK AO2 SLP225 T01610083
2026-04-22 11:53:00,METAR KBNA 221153Z 19005KT 10SM CLR 12/07 A3020 RMK AO2 SLP224 T01220072 10172 20106 53011
2026-04-22 10:53:00,METAR KBNA 221053Z 18004KT 10SM CLR 11/06 A3019 RMK AO2 SLP219 T01110061
2026-04-22 09:53:00,METAR KBNA 220953Z 21003KT 10SM CLR 13/07 A3018 RMK AO2 SLP214 T01280067
2026-04-22 08:53:00,METAR KBNA 220853Z 20003KT 10SM CLR 13/06 A3017 RMK AO2 SLP211 T01330061 55004
2026-04-22 07:53:00,METAR KBNA 220753Z 17003KT 10SM CLR 14/06 A3016 RMK AO2 SLP209 T01390056
2026-04-22 06:53:00,METAR KBNA 220653Z 20007KT 10SM CLR 16/06 A3017 RMK AO2 SLP210 T01560056
2026-04-22 05:53:00,METAR KBNA 220553Z 20008KT 10SM CLR 16/06 A3018 RMK AO2 SLP215 T01610056 10239 20161 402780083 58001
2026-04-22 04:53:00,METAR KBNA 220453Z 20006KT 10SM FEW250 17/06 A3019 RMK AO2 SLP218 T01720056
2026-04-22 03:53:00,METAR KBNA 220353Z 21006KT 10SM SCT250 19/06 A3019 RMK AO2 SLP218 T01940056
2026-04-22 02:53:00,METAR KBNA 220253Z 21008KT 10SM SCT250 21/05 A3018 RMK AO2 SLP216 T02060050 53008
2026-04-22 01:53:00,METAR KBNA 220153Z 22006KT 10SM SCT250 22/04 A3018 RMK AO2 SLP214 T02170044
2026-04-22 00:53:00,METAR KBNA 220053Z 23004KT 10SM BKN250 23/03 A3016 RMK AO2 SLP209 T02280033
2026-04-21 23:53:00,METAR KBNA 212353Z 22005KT 10SM BKN250 24/03 A3016 RMK AO2 SLP209 T02440028 10278 20244 56004
2026-04-21 22:53:00,METAR KBNA 212253Z 25007KT 10SM BKN250 26/01 A3016 RMK AO2 SLP211 T02560011
2026-04-21 21:53:00,METAR KBNA 212153Z 23011G20KT 10SM SCT250 27/01 A3016 RMK AO2 SLP211 T02670011
2026-04-21 20:53:00,METAR KBNA 212053Z 24009KT 10SM SCT250 27/M01 A3017 RMK AO2 SLP213 T02721006 56024
2026-04-21 19:53:00,METAR KBNA 211953Z 26008G18KT 10SM BKN250 27/02 A3019 RMK AO2 SLP221 T02720017 $
2026-04-21 18:53:00,METAR KBNA 211853Z 19014G22KT 10SM BKN250 26/03 A3022 RMK AO2 SLP229 T02610033 $
2026-04-21 17:53:00,METAR KBNA 211753Z 26008KT 10SM BKN250 26/03 A3024 RMK AO2 SLP238 T02610033 10261 20094 58021 $
2026-04-21 16:53:00,METAR KBNA 211653Z 21008KT 10SM SCT250 24/05 A3026 RMK AO2 SLP243 T02390050 $
2026-04-21 15:53:00,METAR KBNA 211553Z 22007KT 10SM SCT250 23/06 A3029 RMK AO2 SLP254 T02330061 $
2026-04-21 14:53:00,METAR KBNA 211453Z 25006KT 10SM SCT250 22/06 A3031 RMK AO2 SLP259 T02170061 51003 $
2026-04-21 13:53:00,METAR KBNA 211353Z 18003KT 10SM SCT250 17/08 A3031 RMK AO2 SLP259 T01720078 $
2026-04-21 12:53:00,METAR KBNA 211253Z 00000KT 10SM FEW250 13/07 A3031 RMK AO2 SLP260 T01330072 $
2026-04-21 11:53:00,METAR KBNA 211153Z 00000KT 10SM FEW250 09/06 A3030 RMK AO2 SLP257 T00940061 10106 20083 53015 $
2026-04-21 10:53:00,METAR KBNA 211053Z 00000KT 10SM FEW250 09/06 A3027 RMK AO2 SLP247 T00940056 $
2026-04-21 09:53:00,METAR KBNA 210953Z 00000KT 10SM CLR 09/05 A3026 RMK AO2 SLP243 T00940050 $
2026-04-21 08:53:00,METAR KBNA 210853Z 19003KT 10SM CLR 09/06 A3025 RMK AO2 SLP242 T00940056 56010 $
2026-04-21 07:53:00,METAR KBNA 210753Z 19006KT 10SM CLR 09/06 A3026 RMK AO2 SLP243 T00940061 $
2026-04-21 06:53:00,METAR KBNA 210653Z 18004KT 10SM CLR 09/06 A3027 RMK AO2 SLP247 T00940061 $
2026-04-21 05:53:00,METAR KBNA 210553Z 18004KT 10SM CLR 11/07 A3028 RMK AO2 SLP253 T01060067 10206 20106 402330061 51002 $
2026-04-21 04:53:00,METAR KBNA 210453Z 18004KT 10SM CLR 12/07 A3028 RMK AO2 SLP252 T01170067 $
2026-04-21 03:53:00,METAR KBNA 210353Z 18004KT 10SM CLR 13/07 A3028 RMK AO2 SLP252 T01330067 $
2026-04-21 02:53:00,METAR KBNA 210253Z 18003KT 10SM CLR 14/06 A3028 RMK AO2 SLP251 T01440056 53012 $
2026-04-21 01:53:00,METAR KBNA 210153Z 02003KT 10SM CLR 17/04 A3026 RMK AO2 SLP244 T01720044 $
2026-04-21 00:53:00,METAR KBNA 210053Z 02007KT 10SM CLR 18/04 A3025 RMK AO2 SLP240 T01780044 $
2026-04-20 23:53:00,METAR KBNA 202353Z 35008KT 10SM CLR 21/03 A3024 RMK AO2 SLP239 T02060033 10233 20206 58004 $
2026-04-20 22:53:00,METAR KBNA 202253Z 35007G18KT 10SM CLR 22/03 A3025 RMK AO2 SLP242 T02170033 $
2026-04-20 21:53:00,METAR KBNA 202153Z 35008G15KT 10SM FEW070 23/04 A3025 RMK AO2 SLP242 T02280044 $
2026-04-20 20:53:00,METAR KBNA 202053Z 30007G19KT 10SM FEW070 23/05 A3026 RMK AO2 PK WND 03028/2039 SLP243 T02280050 58010 $
2026-04-20 19:53:00,METAR KBNA 201953Z 35009G16KT 290V010 10SM FEW070 23/06 A3027 RMK AO2 SLP249 T02330056 $
2026-04-20 18:53:00,METAR KBNA 201853Z 32010G18KT 10SM FEW065 22/05 A3029 RMK AO2 SLP254 T02220050 $
2026-04-20 17:53:00,METAR KBNA 201753Z 33013KT 10SM FEW060 21/04 A3029 RMK AO2 SLP254 T02110044 10217 20083 58003 $
2026-04-20 16:53:00,METAR KBNA 201653Z 31006KT 10SM CLR 21/05 A3030 RMK AO2 SLP259 T02060050 $
2026-04-20 15:53:00,METAR KBNA 201553Z 31006KT 10SM FEW065 19/04 A3031 RMK AO2 SLP261 T01940039 $
2026-04-20 14:53:00,METAR KBNA 201453Z 26009KT 10SM CLR 17/03 A3030 RMK AO2 SLP258 T01720033 50005 $
2026-04-20 13:53:00,METAR KBNA 201353Z 00000KT 10SM CLR 16/04 A3030 RMK AO2 SLP260 T01560039 $
2026-04-20 12:53:00,METAR KBNA 201253Z 02005KT 10SM CLR 12/04 A3031 RMK AO2 SLP261 T01220044 $
2026-04-20 11:53:00,METAR KBNA 201153Z 00000KT 10SM CLR 08/03 A3028 RMK AO2 SLP253 T00830028 10083 20061 53008 $
2026-04-20 10:53:00,METAR KBNA 201053Z 18005KT 10SM CLR 06/03 A3026 RMK AO2 SLP245 T00610028 $
2026-04-20 09:53:00,METAR KBNA 200953Z 19003KT 10SM CLR 07/03 A3026 RMK AO2 SLP244 T00670028 $
2026-04-20 08:53:00,METAR KBNA 200853Z 00000KT 10SM CLR 08/03 A3026 RMK AO2 SLP245 T00780028 55004 $
2026-04-20 07:53:00,METAR KBNA 200753Z 19004KT 10SM CLR 07/03 A3025 RMK AO2 SLP241 T00720028 $
2026-04-20 06:53:00,METAR KBNA 200653Z 19004KT 10SM CLR 08/03 A3026 RMK AO2 SLP244 T00780033 $
2026-04-20 05:53:00,METAR KBNA 200553Z 18005KT 10SM CLR 08/04 A3027 RMK AO2 SLP248 T00780039 10172 20078 401940072 53001 $
2026-04-20 04:53:00,METAR KBNA 200453Z 19004KT 10SM CLR 08/04 A3027 RMK AO2 SLP248 T00830039 $
2026-04-20 03:53:00,METAR KBNA 200353Z 17005KT 10SM CLR 09/03 A3026 RMK AO2 SLP247 T00940033 $
2026-04-20 02:53:00,METAR KBNA 200253Z 18004KT 10SM CLR 11/03 A3027 RMK AO2 SLP247 T01060028 53011 $
2026-04-20 01:53:00,METAR KBNA 200153Z 00000KT 10SM CLR 12/01 A3025 RMK AO2 SLP243 T01220006 $
2026-04-20 00:53:00,METAR KBNA 200053Z 29003KT 10SM FEW200 16/M01 A3024 RMK AO2 SLP238 T01611011 $
2026-04-19 23:53:00,METAR KBNA 192353Z 32007KT 300V010 10SM FEW080 17/M01 A3023 RMK AO2 SLP236 T01721011 10194 20172 56001 $
2026-04-19 22:53:00,METAR KBNA 192253Z 34008G19KT 10SM FEW080 18/M01 A3023 RMK AO2 SLP236 T01831011 $
2026-04-19 21:53:00,METAR KBNA 192153Z 31008KT 10SM FEW080 19/M01 A3023 RMK AO2 SLP236 T01891011 $
2026-04-19 20:53:00,METAR KBNA 192053Z 29012G21KT 10SM FEW075 18/M02 A3024 RMK AO2 SLP237 T01831017 58020 $
2026-04-19 19:53:00,METAR KBNA 191953Z 34012G24KT 10SM FEW075 19/M01 A3026 RMK AO2 SLP246 T01891011 $
2026-04-19 18:53:00,METAR KBNA 191853Z 29009G15KT 270V360 10SM SCT050 SCT250 18/M02 A3027 RMK AO2 PK WND 03027/1836 SLP250 T01831017 $
2026-04-19 17:53:00,METAR KBNA 191753Z 36010G20KT 330V040 10SM SCT050 SCT250 17/M02 A3030 RMK AO2 PK WND 01027/1741 SLP258 T01721022 10178 20083 58002 $
2026-04-19 16:53:00,METAR KBNA 191653Z 32013G21KT 10SM FEW030 FEW250 17/M03 A3031 RMK AO2 SLP262 T01671033 $
2026-04-19 15:53:00,METAR KBNA 191553Z 00000KT 10SM FEW250 15/M03 A3032 RMK AO2 SLP267 T01501028 $
2026-04-19 14:53:00,METAR KBNA 191453Z 05004KT 10SM FEW250 13/01 A3030 RMK AO2 SLP261 T01330006 51008 $
2026-04-19 13:53:00,METAR KBNA 191353Z 35005KT 10SM FEW250 12/02 A3030 RMK AO2 SLP260 T01220022 $
2026-04-19 12:53:00,METAR KBNA 191253Z 35005KT 10SM FEW250 10/05 A3029 RMK AO2 SLP257 T01000050 $
2026-04-19 11:53:00,METAR KBNA 191153Z 32003KT 10SM FEW250 08/05 A3028 RMK AO2 SLP253 70001 T00830050 10094 20072 52010 $
2026-04-19 10:53:00,METAR KBNA 191053Z 33003KT 10SM FEW250 07/05 A3026 RMK AO2 SLP247 T00720050 $
2026-04-19 09:53:00,METAR KBNA 190953Z VRB05KT 10SM SCT250 08/06 A3026 RMK AO2 SLP246 T00830056 $
2026-04-19 08:53:00,METAR KBNA 190853Z 33006KT 10SM BKN100 09/06 A3025 RMK AO2 SLP240 T00890061 53011 $
2026-04-19 07:53:00,METAR KBNA 190753Z 29004KT 10SM FEW100 09/06 A3024 RMK AO2 SLP237 T00890061 $
2026-04-19 06:53:00,METAR KBNA 190653Z 32006KT 10SM OVC100 09/06 A3022 RMK AO2 SLP231 T00940061 $
2026-04-19 05:53:00,METAR KBNA 190553Z 33005KT 10SM OVC080 09/06 A3021 RMK AO2 SLP229 60000 T00940061 10111 20089 402330089 51018 $
2026-04-19 04:53:00,METAR KBNA 190453Z 33006KT 10SM OVC065 09/06 A3021 RMK AO2 SLP227 T00940061 $
2026-04-19 03:53:00,METAR KBNA 190353Z 35006KT 8SM FEW036 OVC049 09/06 A3019 RMK AO2 RAB39E49 SLP221 P0000 T00890061 $
2026-04-19 02:53:00,METAR KBNA 190253Z 34009KT 10SM FEW014 OVC045 09/06 A3016 RMK AO2 RAB15E25 SLP210 P0000 60000 T00940056 53035 $
2026-04-19 01:53:00,METAR KBNA 190153Z 33007KT 10SM FEW018 SCT024 OVC040 09/06 A3013 RMK AO2 PK WND 35027/0108 SLP199 T00940056 $
2026-04-19 00:53:00,METAR KBNA 190053Z 35012G27KT 10SM SCT016 OVC032 09/05 A3008 RMK AO2 PK WND 34037/0020 RAB29E38 SLP183 P0000 T00940050 $
2026-04-18 23:53:00,METAR KBNA 182353Z 34013G19KT 10SM BKN013 OVC020 11/07 A3006 RMK AO2 PK WND 36026/2306 RAB18E31 SLP175 P0000 60001 T01110072 10217 20111 53030 $
2026-04-18 22:53:00,METAR KBNA 182253Z 32013G20KT 10SM BKN015 BKN055 OVC100 13/08 A3004 RMK AO2 PK WND 36029/2221 SLP169 T01280083 $
2026-04-18 22:19:00,SPECI KBNA 182219Z 34015G27KT 10SM SCT013 BKN029 BKN055 BKN250 15/12 A2999 RMK AO2 PK WND 32027/2159 T01500117 $
2026-04-18 21:53:00,METAR KBNA 182153Z 28005KT 10SM FEW039 BKN055 BKN100 BKN250 19/15 A2996 RMK AO2 RAB08E20 SLP141 P0001 T01940150 $
2026-04-18 20:53:00,METAR KBNA 182053Z 29007KT 10SM SCT070 BKN100 BKN250 21/14 A2996 RMK AO2 SLP142 T02110139 56002 $
2026-04-18 19:53:00,METAR KBNA 181953Z 26004KT 10SM FEW050 BKN075 BKN100 BKN250 21/14 A2997 RMK AO2 SLP144 T02060139 $
2026-04-18 18:53:00,METAR KBNA 181853Z 16003KT 10SM BKN070 BKN100 BKN250 19/13 A2996 RMK AO2 SLP139 T01940133 $
2026-04-18 17:53:00,METAR KBNA 181753Z 14006KT 10SM BKN055 OVC075 18/13 A2997 RMK AO2 SLP144 60000 T01830133 10233 20172 50006 $
2026-04-18 16:53:00,METAR KBNA 181653Z VRB04KT 10SM OVC055 18/13 A3000 RMK AO2 RAE13 SLP155 P0000 T01780133 $
2026-04-18 15:53:00,METAR KBNA 181553Z 34007KT 5SM -RA BR FEW018 OVC035 17/13 A3000 RMK AO2 PK WND 35027/1507 WSHFT 1445 RAB33 SLP153 P0000 T01720133 $
2026-04-18 15:05:00,SPECI KBNA 181505Z 32014G24KT 10SM SCT024 BKN031 OVC070 20/14 A2997 RMK AO2 WSHFT 1445 T02000139 $
2026-04-18 14:53:00,METAR KBNA 181453Z 31017G27KT 10SM SCT023 BKN031 OVC070 20/14 A2995 RMK AO2 PK WND 31028/1451 SLP137 T02000144 53017 $
2026-04-18 13:53:00,METAR KBNA 181353Z VRB05KT 10SM BKN095 BKN170 BKN250 23/16 A2993 RMK AO2 SLP129 T02280156 $
2026-04-18 12:53:00,METAR KBNA 181253Z 20011KT 10SM FEW050 SCT080 BKN170 BKN250 22/16 A2990 RMK AO2 SLP119 T02220156 $
2026-04-18 11:53:00,METAR KBNA 181153Z 20008KT 10SM BKN060 BKN080 BKN210 21/15 A2990 RMK AO2 SLP119 T02060150 10206 20178 53012 $
2026-04-18 10:53:00,METAR KBNA 181053Z 19004KT 10SM BKN070 BKN210 18/15 A2989 RMK AO2 SLP113 T01830150 $
2026-04-18 09:53:00,METAR KBNA 180953Z 00000KT 10SM OVC210 19/14 A2988 RMK AO2 SLP111 T01940144 $
2026-04-18 08:53:00,METAR KBNA 180853Z 18004KT 10SM OVC200 19/14 A2987 RMK AO2 SLP107 T01940144 56010 $
2026-04-18 07:53:00,METAR KBNA 180753Z 17004KT 10SM FEW250 19/14 A2987 RMK AO2 SLP107 T01940144 $
2026-04-18 06:53:00,METAR KBNA 180653Z 19004KT 10SM FEW140 19/14 A2988 RMK AO2 SLP111 T01940144
2026-04-18 05:53:00,METAR KBNA 180553Z 19005KT 10SM FEW050 19/14 A2990 RMK AO2 SLP118 T01940144 10267 20194 402940139 58012
2026-04-18 04:53:00,METAR KBNA 180453Z 20004KT 10SM FEW050 FEW140 21/15 A2992 RMK AO2 SLP125 T02060150
2026-04-18 03:53:00,METAR KBNA 180353Z 21005KT 10SM SCT250 22/15 A2994 RMK AO2 SLP132 T02170150
2026-04-18 02:53:00,METAR KBNA 180253Z 16003KT 10SM BKN250 23/15 A2994 RMK AO2 SLP131 T02330150 53010
2026-04-18 01:53:00,METAR KBNA 180153Z 17006KT 10SM SCT250 22/16 A2989 RMK AO2 SLP118 T02220156
2026-04-18 00:53:00,METAR KBNA 180053Z 16004KT 10SM SCT250 23/16 A2988 RMK AO2 SLP114 T02330156
2026-04-17 23:53:00,METAR KBNA 172353Z 18007KT 10SM FEW050 SCT250 27/15 A2991 RMK AO2 SLP122 T02670150 10294 20267 56025
2026-04-17 22:53:00,METAR KBNA 172253Z 20009KT 10SM FEW055 SCT250 28/16 A2993 RMK AO2 SLP130 T02830156
2026-04-17 21:53:00,METAR KBNA 172153Z 18012KT 10SM FEW055 FEW070 SCT250 29/16 A2995 RMK AO2 SLP135 T02940156
2026-04-17 20:53:00,METAR KBNA 172053Z 22007KT 10SM SCT050TCU SCT090 BKN250 28/16 A2998 RMK AO2 SLP146 TCU W T02830156 56024
2026-04-17 19:53:00,METAR KBNA 171953Z 21008KT 10SM FEW044 SCT060TCU 28/16 A3000 RMK AO2 SLP154 TCU W T02780161
2026-04-17 18:53:00,METAR KBNA 171853Z 18003KT 10SM FEW042 SCT055TCU BKN070 28/16 A3003 RMK AO2 SLP163 TCU SW-NW T02780161
2026-04-17 17:53:00,METAR KBNA 171753Z VRB06KT 10SM FEW034 SCT044TCU BKN055 27/16 A3005 RMK AO2 SLP171 TCU SE AND SW T02670161 10267 20144 58011
2026-04-17 16:53:00,METAR KBNA 171653Z 18007KT 10SM SCT043 BKN055 26/16 A3007 RMK AO2 SLP176 T02560156
2026-04-17 15:53:00,METAR KBNA 171553Z 00000KT 10SM BKN045TCU BKN060 23/16 A3008 RMK AO2 SLP182 TCU SW-NW T02330161
2026-04-17 14:53:00,METAR KBNA 171453Z 21003KT 10SM SCT047 BKN250 21/15 A3009 RMK AO2 SLP183 T02110150 53009
2026-04-17 13:53:00,METAR KBNA 171353Z 13004KT 10SM FEW055 SCT250 19/14 A3007 RMK AO2 SLP179 T01890144
2026-04-17 12:53:00,METAR KBNA 171253Z 16004KT 10SM FEW055 SCT250 16/14 A3007 RMK AO2 SLP179 T01610139
2026-04-17 11:53:00,METAR KBNA 171153Z 18003KT 10SM FEW050 SCT250 14/13 A3006 RMK AO2 SLP174 70067 T01440133 10161 20139 53011
2026-04-17 10:53:00,METAR KBNA 171053Z 12003KT 10SM FEW050 FEW250 14/13 A3005 RMK AO2 SLP169 T01440128
2026-04-17 09:53:00,METAR KBNA 170953Z 00000KT 10SM FEW130 15/13 A3003 RMK AO2 SLP164 T01500133
2026-04-17 08:53:00,METAR KBNA 170853Z 19005KT 10SM FEW055 SCT090 BKN130 15/14 A3003 RMK AO2 SLP162 T01500139 55007
2026-04-17 07:53:00,METAR KBNA 170753Z 08006KT 10SM FEW065 SCT100 BKN140 16/13 A3002 RMK AO2 SLP161 T01560133
2026-04-17 06:53:00,METAR KBNA 170653Z 00000KT 10SM FEW160 14/13 A3004 RMK AO2 SLP166 T01440128
2026-04-17 05:53:00,METAR KBNA 170553Z 01006KT 10SM SCT170 16/13 A3005 RMK AO2 SLP169 60067 T01610128 10256 20150 402890150 55015
2026-04-17 04:53:00,METAR KBNA 170453Z VRB03KT 10SM FEW080 SCT095 BKN120 17/13 A3004 RMK AO2 RAE02B28E38 SLP168 P0001 T01670128
2026-04-17 03:53:00,METAR KBNA 170353Z 16010KT 10SM -RA OVC100 16/13 A3005 RMK AO2 RAB0259 SLP171 P0003 T01610133
2026-04-17 02:53:00,METAR KBNA 170253Z VRB05KT 10SM SCT055 SCT080 OVC110 16/12 A3009 RMK AO2 RAE01 SLP185 P0002 60063 T01610122 51034
2026-04-17 01:53:00,METAR KBNA 170153Z 36016G28KT 9SM -RA FEW047 OVC095 16/12 A3007 RMK AO2 PK WND 34029/0054 TSE23 PRESFR SLP177 P0008 T01560122
2026-04-17 01:29:00,SPECI KBNA 170129Z COR 35009G19KT 8SM RA FEW036 SCT047 OVC100 16/12 A3010 RMK AO2 PK WND 34029/0054 TSE23 OCNL LTGIC DSNT E-SE CB DSNT E-SE P0005 T01560122
2026-04-17 00:55:00,SPECI KBNA 170055Z COR 33016G34KT 2SM TSRA BR SCT036 BKN046 OVC085 16/13 A3011 RMK AO2 PK WND 34029/0054 FRQ LTGCGCA OHD TS OHD MOV SE P0000 T01560128
2026-04-17 00:53:00,METAR KBNA 170053Z 33016G28KT 1SM TSRA BR SCT029 BKN043CB OVC120 16/13 A3011 RMK AO2 PK WND 30054/0033 RAB34 TSB28 SLP191 CONS LTGCGICCA OHD TS OHD MOV SE P0053 T01560128 RVRNO
2026-04-17 00:36:00,SPECI KBNA 170036Z COR 30035G45KT 1SM TSRA BR SQ SCT044CB BKN120 BKN250 18/12 A3013 RMK AO2 PK WND 30054/0033 RAB34 TSB28 PRESRR CONS LTGCGICCA W-N TS W-N MOV SE P0000 T01780122 RVRNO
2026-04-17 00:34:00,SPECI KBNA 170034Z 28009G16KT 1SM TSRA SCT044CB BKN120 BKN250 21/12 A3011 RMK AO2 PK WND 30054/0033 SFC VIS 7 RAB34 TSB28 PRESRR CONS LTGCGICCA W-N TS W-N MOV SE P0000 T02060122
2026-04-16 23:53:00,METAR KBNA 162353Z 24004KT 10SM SCT065 SCT250 26/13 A2999 RMK AO2 SLP148 CB DSNT NW T02560128 10289 20256 53001
2026-04-16 22:53:00,METAR KBNA 162253Z 21009KT 10SM SCT065 SCT200 27/12 A2997 RMK AO2 SLP141 T02720122
2026-04-16 21:53:00,METAR KBNA 162153Z 26009G14KT 10SM SCT065 SCT180 28/11 A2998 RMK AO2 SLP145 T02830111
2026-04-16 20:53:00,METAR KBNA 162053Z 26010KT 10SM FEW050 FEW160 SCT250 28/12 A2999 RMK AO2 SLP148 T02830117 58016
2026-04-16 19:53:00,METAR KBNA 161953Z 26011G17KT 10SM SCT050 BKN150 BKN250 28/13 A3001 RMK AO2 SLP156 T02780133
2026-04-16 18:53:00,METAR KBNA 161853Z 26007KT 10SM FEW048 BKN060 BKN140 BKN250 26/14 A3003 RMK AO2 SLP163 T02560139
2026-04-16 17:53:00,METAR KBNA 161753Z 26007KT 10SM SCT043 BKN060 BKN160 BKN250 27/14 A3004 RMK AO2 SLP164 T02670144 10272 20206 51006
2026-04-16 16:53:00,METAR KBNA 161653Z 22011G17KT 10SM SCT042 BKN055 BKN130 BKN160 26/14 A3003 RMK AO2 SLP163 T02560144
2026-04-16 15:53:00,METAR KBNA 161553Z 22007KT 10SM FEW035 SCT100 BKN180 26/16 A3003 RMK AO2 SLP164 T02560156
2026-04-16 14:53:00,METAR KBNA 161453Z 19014KT 10SM FEW065 SCT095 SCT180 24/15 A3002 RMK AO2 SLP159 T02440150 58003
2026-04-16 13:53:00,METAR KBNA 161353Z 21008G17KT 10SM FEW031 SCT065 SCT100 22/15 A3003 RMK AO2 SLP162 T02220150
2026-04-16 12:53:00,METAR KBNA 161253Z 22006KT 10SM SCT032 BKN065 BKN080 21/14 A3005 RMK AO2 SLP171 T02110144
2026-04-16 11:53:00,METAR KBNA 161153Z 21009G17KT 10SM SCT065 BKN080 21/13 A3003 RMK AO2 SLP162 T02060133 10211 20172 53006
2026-04-16 10:53:00,METAR KBNA 161053Z 20010KT 10SM BKN080 21/12 A3001 RMK AO2 SLP157 T02060122
2026-04-16 09:53:00,METAR KBNA 160953Z 21009KT 10SM BKN075 21/12 A3001 RMK AO2 SLP156 T02060122
2026-04-16 08:53:00,METAR KBNA 160853Z 20008KT 10SM BKN065 20/12 A3001 RMK AO2 SLP155 T02000117 55004
2026-04-16 07:53:00,METAR KBNA 160753Z 20004KT 10SM CLR 18/11 A3001 RMK AO2 SLP154 T01780111
2026-04-16 06:53:00,METAR KBNA 160653Z 17003KT 10SM FEW090 18/11 A3001 RMK AO2 SLP155 T01780106
2026-04-16 05:53:00,METAR KBNA 160553Z 16003KT 10SM CLR 19/11 A3002 RMK AO2 SLP159 T01940106 10272 20194 403060172 50000
2026-04-16 04:53:00,METAR KBNA 160453Z 19003KT 10SM FEW250 20/11 A3003 RMK AO2 SLP161 T02000106
2026-04-16 03:53:00,METAR KBNA 160353Z 20005KT 10SM FEW250 21/11 A3003 RMK AO2 SLP162 T02060106
2026-04-16 02:53:00,METAR KBNA 160253Z 19005KT 10SM SCT250 21/11 A3002 RMK AO2 SLP160 T02060106 51007
2026-04-16 01:53:00,METAR KBNA 160153Z 19005KT 10SM SCT250 22/11 A3002 RMK AO2 SLP159 T02170106
2026-04-16 00:53:00,METAR KBNA 160053Z 20005KT 10SM SCT250 24/09 A3001 RMK AO2 SLP157 T02440094
2026-04-15 23:53:00,METAR KBNA 152353Z 20007KT 10SM BKN250 27/09 A3000 RMK AO2 SLP153 T02670094 10306 20267 55002
2026-04-15 22:53:00,METAR KBNA 152253Z 19012KT 10SM BKN250 28/09 A3000 RMK AO2 SLP151 T02830094
2026-04-15 21:53:00,METAR KBNA 152153Z 19013G19KT 10SM BKN250 29/09 A3000 RMK AO2 SLP152 T02890089
2026-04-15 20:53:00,METAR KBNA 152053Z 22010KT 10SM FEW090 BKN250 29/07 A3000 RMK AO2 SLP154 T02940067 56019
2026-04-15 19:53:00,METAR KBNA 151953Z 21016G22KT 10SM FEW085 BKN250 30/08 A3002 RMK AO2 SLP158 T03000078
2026-04-15 18:53:00,METAR KBNA 151853Z 20016G21KT 10SM FEW065 SCT200 BKN250 29/10 A3004 RMK AO2 SLP165 T02940100
2026-04-15 17:53:00,METAR KBNA 151753Z 19011G28KT 10SM FEW055 SCT200 BKN250 28/12 A3006 RMK AO2 PK WND 18028/1743 SLP173 T02830122 10289 20183 58010
2026-04-15 16:53:00,METAR KBNA 151653Z 23008G15KT 10SM FEW055 BKN250 28/13 A3009 RMK AO2 SLP181 T02780128
2026-04-15 15:53:00,METAR KBNA 151553Z 21011G17KT 10SM SCT050 BKN250 25/13 A3010 RMK AO2 SLP187 T02500133
2026-04-15 14:53:00,METAR KBNA 151453Z 21009KT 10SM FEW050 BKN250 24/13 A3009 RMK AO2 SLP183 T02440128 51008
2026-04-15 13:53:00,METAR KBNA 151353Z 21007G17KT 10SM SCT050 BKN250 22/12 A3009 RMK AO2 SLP183 T02170117
2026-04-15 12:53:00,METAR KBNA 151253Z 20008KT 10SM FEW100 BKN250 20/11 A3009 RMK AO2 SLP183 T02000111 $
2026-04-15 11:53:00,METAR KBNA 151153Z 19009KT 10SM BKN250 18/11 A3007 RMK AO2 SLP175 T01830111 10206 20172 53008 $
2026-04-15 10:53:00,METAR KBNA 151053Z 20006KT 10SM BKN250 18/11 A3006 RMK AO2 SLP173 T01780106 $
2026-04-15 09:53:00,METAR KBNA 150953Z 19007KT 10SM BKN250 18/11 A3005 RMK AO2 SLP169 T01780106 $
2026-04-15 08:53:00,METAR KBNA 150853Z 19005KT 10SM BKN250 18/10 A3004 RMK AO2 SLP167 T01830100 55004 $
2026-04-15 07:53:00,METAR KBNA 150753Z 19006KT 10SM BKN250 18/10 A3003 RMK AO2 SLP164 T01780100 $
2026-04-15 06:53:00,METAR KBNA 150653Z 18006KT 10SM FEW250 18/09 A3005 RMK AO2 SLP167 T01830094 $
2026-04-15 05:53:00,METAR KBNA 150553Z 19007KT 10SM CLR 20/09 A3006 RMK AO2 SLP171 T02000094 10261 20200 402890172 56002 $
2026-04-15 04:53:00,METAR KBNA 150453Z 21006KT 10SM FEW250 22/08 A3006 RMK AO2 SLP172 T02170078 $
2026-04-15 03:53:00,METAR KBNA 150353Z 21006KT 10SM FEW250 21/10 A3005 RMK AO2 SLP170 T02110100 $
2026-04-15 02:53:00,METAR KBNA 150253Z 00000KT 10SM CLR 22/14 A3006 RMK AO2 SLP173 T02170144 53004 $
2026-04-15 01:53:00,METAR KBNA 150153Z 00000KT 10SM CLR 23/14 A3006 RMK AO2 SLP173 T02280144 $
2026-04-15 00:53:00,METAR KBNA 150053Z 20006KT 10SM FEW250 23/14 A3005 RMK AO2 SLP168 T02330144 $
2026-04-14 23:53:00,METAR KBNA 142353Z 21008KT 10SM FEW050 SCT250 26/14 A3005 RMK AO2 SLP170 T02610144 10289 20261 58008 $
2026-04-14 22:53:00,METAR KBNA 142253Z 21009G16KT 10SM FEW049 FEW060 SCT250 27/14 A3006 RMK AO2 SLP174 T02720144 $
2026-04-14 21:53:00,METAR KBNA 142153Z 23008G17KT 10SM FEW050 BKN060 BKN250 28/15 A3006 RMK AO2 SLP174 T02780150 $
2026-04-14 20:53:00,METAR KBNA 142053Z 20009KT 10SM BKN060 28/15 A3007 RMK AO2 SLP177 T02830150 58013 $
2026-04-14 19:53:00,METAR KBNA 141953Z 23009KT 10SM BKN060 27/14 A3009 RMK AO2 SLP184 T02720144 $
2026-04-14 18:53:00,METAR KBNA 141853Z 20011G20KT 10SM BKN048 28/14 A3010 RMK AO2 SLP186 T02830144 $
2026-04-14 17:53:00,METAR KBNA 141753Z 20010G18KT 10SM SCT045 BKN065 BKN250 28/15 A3011 RMK AO2 SLP190 T02830150 10283 20172 58015 $
2026-04-14 16:53:00,METAR KBNA 141653Z 20013G22KT 10SM BKN042 BKN250 27/14 A3014 RMK AO2 PK WND 20026/1556 SLP199 T02720144 $
2026-04-14 15:53:00,METAR KBNA 141553Z 21009G19KT 10SM FEW045 BKN250 26/15 A3015 RMK AO2 SLP204 T02610150 $
2026-04-14 14:53:00,METAR KBNA 141453Z 23008G17KT 10SM BKN050 BKN250 24/15 A3016 RMK AO2 SLP206 T02440150 51012 $
2026-04-14 13:53:00,METAR KBNA 141353Z 23006KT 10SM BKN050 BKN250 23/14 A3015 RMK AO2 SLP205 T02280144 $
2026-04-14 12:53:00,METAR KBNA 141253Z 21009KT 10SM FEW200 SCT250 21/13 A3014 RMK AO2 SLP200 T02060133 $
2026-04-14 11:53:00,METAR KBNA 141153Z 18007KT 10SM FEW200 BKN250 17/13 A3012 RMK AO2 SLP195 70002 T01720128 10217 20172 53007 $
2026-04-14 10:53:00,METAR KBNA 141053Z 19007KT 10SM BKN250 18/12 A3011 RMK AO2 SLP191 T01780122 $
2026-04-14 09:53:00,METAR KBNA 140953Z 18006KT 10SM BKN075 18/13 A3011 RMK AO2 SLP189 T01830128 $
2026-04-14 08:53:00,METAR KBNA 140853Z 18005KT 10SM SCT150 18/12 A3010 RMK AO2 SLP187 T01780122 56006 $
2026-04-14 07:53:00,METAR KBNA 140753Z 21007KT 10SM CLR 21/12 A3010 RMK AO2 SLP188 T02060122 $
2026-04-14 06:53:00,METAR KBNA 140653Z 21008KT 10SM CLR 21/12 A3010 RMK AO2 SLP186 T02110122 $
2026-04-14 05:53:00,METAR KBNA 140553Z 21007KT 10SM CLR 22/12 A3012 RMK AO2 SLP193 T02170122 10233 20189 402610189 56009 $
2026-04-14 04:53:00,METAR KBNA 140453Z 20006KT 10SM SCT110 19/12 A3013 RMK AO2 SLP198 T01940122 $
2026-04-14 03:53:00,METAR KBNA 140353Z 19006KT 10SM BKN120 20/13 A3013 RMK AO2 SLP199 T02000133 $
2026-04-14 02:53:00,METAR KBNA 140253Z 18008KT 10SM FEW060 BKN120 BKN180 21/13 A3015 RMK AO2 SLP204 T02060133 50003 $
2026-04-14 01:53:00,METAR KBNA 140153Z 18010KT 10SM BKN060 BKN130 BKN180 22/14 A3015 RMK AO2 SLP204 T02170139 $
2026-04-14 00:53:00,METAR KBNA 140053Z 18005KT 10SM FEW055 BKN130 BKN180 21/13 A3014 RMK AO2 SLP202 T02110133
2026-04-13 23:53:00,METAR KBNA 132353Z 18011KT 10SM SCT130 BKN180 BKN250 23/13 A3014 RMK AO2 SLP199 60001 T02330128 10261 20206 56007
2026-04-13 22:53:00,METAR KBNA 132253Z 17013KT 10SM FEW050 BKN130 BKN250 24/13 A3014 RMK AO2 SLP199 T02440133
2026-04-13 21:53:00,METAR KBNA 132153Z 20014G22KT 10SM FEW050 BKN140 BKN250 26/13 A3014 RMK AO2 SLP201 T02560133
2026-04-13 20:53:00,METAR KBNA 132053Z 19013G22KT 10SM SCT048 BKN110 BKN150 25/14 A3016 RMK AO2 SLP206 60001 T02500144 56022
2026-04-13 19:53:00,METAR KBNA 131953Z 19008KT 10SM FEW044 SCT110 BKN150 BKN250 23/16 A3018 RMK AO2 RAE12 SLP213 P0000 T02330156
2026-04-13 18:53:00,METAR KBNA 131853Z 18004KT 10SM -RA FEW045 BKN110 BKN150 BKN250 21/16 A3019 RMK AO2 SLP219 P0001 T02110161
2026-04-13 17:53:00,METAR KBNA 131753Z 18005KT 7SM -RA FEW043 SCT090 OVC110 20/16 A3022 RMK AO2 SLP229 P0001 60001 T02000161 10222 20200 58007
2026-04-13 16:53:00,METAR KBNA 131653Z 19009KT 10SM -RA SCT090 OVC110 22/14 A3024 RMK AO2 RAB03E27B49 SLP234 P0000 T02170144
2026-04-13 15:53:00,METAR KBNA 131553Z 20009KT 10SM BKN100 BKN150 BKN250 22/13 A3025 RMK AO2 RAE11 SLP237 P0000 T02170128
2026-04-13 14:53:00,METAR KBNA 131453Z 19008KT 10SM -RA BKN100 OVC150 21/13 A3024 RMK AO2 RAB43 SLP236 P0000 60000 T02060128 51014
2026-04-13 13:53:00,METAR KBNA 131353Z 21008KT 10SM SCT100 BKN140 BKN250 21/11 A3024 RMK AO2 SLP234 T02110106
2026-04-13 12:53:00,METAR KBNA 131253Z 18007KT 10SM FEW070 SCT095 BKN130 BKN250 21/11 A3022 RMK AO2 SLP228 T02110106 $
2026-04-13 11:53:00,METAR KBNA 131153Z 19009KT 10SM FEW070 BKN100 BKN150 BKN250 21/10 A3020 RMK AO2 SLP220 60000 T02060100 10233 20206 53008 $
2026-04-13 10:53:00,METAR KBNA 131053Z 19007KT 10SM BKN070 OVC110 21/11 A3019 RMK AO2 RAB28E32 SLP216 P0000 T02060111 $
2026-04-13 09:53:00,METAR KBNA 130953Z 17005KT 10SM FEW055 BKN080 OVC100 21/12 A3018 RMK AO2 SLP215 T02110117 $
2026-04-13 08:53:00,METAR KBNA 130853Z 20004KT 10SM BKN070 OVC090 22/11 A3018 RMK AO2 SLP212 T02220106 53004 $
2026-04-13 07:53:00,METAR KBNA 130753Z 18007KT 10SM BKN090 22/11 A3017 RMK AO2 SLP210 T02220106 $
2026-04-13 06:53:00,METAR KBNA 130653Z VRB04KT 10SM BKN095 23/10 A3016 RMK AO2 SLP207 T02280100 $
2026-04-13 05:53:00,METAR KBNA 130553Z 19007KT 10SM BKN110 23/09 A3016 RMK AO2 SLP207 T02280094 10267 20217 402940117 51008 $
2026-04-13 04:53:00,METAR KBNA 130453Z 19011KT 10SM BKN110 23/09 A3015 RMK AO2 SLP203 T02330089 $
2026-04-13 03:53:00,METAR KBNA 130353Z 21007G17KT 10SM BKN170 24/08 A3016 RMK AO2 SLP206 T02390083 $
2026-04-13 02:53:00,METAR KBNA 130253Z 17007KT 10SM FEW170 22/08 A3014 RMK AO2 SLP199 T02220083 53003 $
2026-04-13 01:53:00,METAR KBNA 130153Z 17009KT 10SM FEW200 24/08 A3013 RMK AO2 SLP198 T02390078 $
2026-04-13 00:53:00,METAR KBNA 130053Z 17008KT 10SM FEW050 SCT200 24/07 A3012 RMK AO2 SLP196 T02440072 $
2026-04-12 23:53:00,METAR KBNA 122353Z 18011KT 10SM BKN200 27/06 A3013 RMK AO2 PK WND 20030/2300 SLP198 T02670061 10294 20267 56010 $
2026-04-12 22:53:00,METAR KBNA 122253Z 18013G22KT 10SM BKN230 28/05 A3013 RMK AO2 SLP198 T02780050 $
2026-04-12 21:53:00,METAR KBNA 122153Z 21013G21KT 10SM BKN230 28/06 A3014 RMK AO2 PK WND 19027/2102 SLP200 T02830056 $
2026-04-12 20:53:00,METAR KBNA 122053Z 19014G20KT 10SM FEW050 BKN250 29/07 A3016 RMK AO2 PK WND 20032/1958 SLP207 T02890067 56020 $
2026-04-12 19:53:00,METAR KBNA 121953Z 22010G26KT 10SM FEW050 SCT150 BKN250 29/07 A3017 RMK AO2 PK WND 21030/1938 SLP212 T02890067 $
2026-04-12 18:53:00,METAR KBNA 121853Z 19012G20KT 10SM FEW050 FEW080 SCT190 BKN250 29/08 A3020 RMK AO2 PK WND 20033/1842 SLP220 T02940078 $
2026-04-12 17:53:00,METAR KBNA 121753Z 19019G32KT 10SM FEW040 BKN250 29/07 A3022 RMK AO2 PK WND 19032/1750 SLP228 T02890072 10294 20122 58017 $
2026-04-12 16:53:00,METAR KBNA 121653Z 21011G21KT 10SM FEW040 BKN250 28/08 A3025 RMK AO2 PK WND 24028/1622 SLP236 T02830083 $
2026-04-12 15:53:00,METAR KBNA 121553Z 20009KT 10SM SCT250 27/09 A3026 RMK AO2 SLP242 T02720094 $
2026-04-12 14:53:00,METAR KBNA 121453Z 17007KT 10SM FEW250 25/11 A3027 RMK AO2 SLP245 T02500111 51008 $
2026-04-12 13:53:00,METAR KBNA 121353Z 18004KT 10SM FEW250 21/13 A3027 RMK AO2 SLP245 T02060128 $
2026-04-12 12:53:00,METAR KBNA 121253Z 00000KT 10SM FEW250 16/13 A3026 RMK AO2 SLP242 T01610128 $
2026-04-12 11:53:00,METAR KBNA 121153Z 18004KT 10SM BKN250 12/11 A3025 RMK AO2 SLP238 T01220111 10161 20117 53007 $
2026-04-12 10:53:00,METAR KBNA 121053Z 15003KT 8SM BKN250 13/11 A3022 RMK AO2 SLP229 T01280111 $
2026-04-12 09:53:00,METAR KBNA 120953Z 00000KT 9SM BKN250 14/12 A3022 RMK AO2 SLP229 T01390117 $
2026-04-12 08:53:00,METAR KBNA 120853Z 17003KT 10SM SCT250 14/12 A3022 RMK AO2 SLP230 T01390122 56006 $
2026-04-12 07:53:00,METAR KBNA 120753Z 18003KT 10SM CLR 16/13 A3023 RMK AO2 SLP230 T01560128 $
2026-04-12 06:53:00,METAR KBNA 120653Z 00000KT 10SM CLR 16/13 A3024 RMK AO2 SLP234 T01610128 $
2026-04-12 05:53:00,METAR KBNA 120553Z 00000KT 10SM CLR 16/13 A3024 RMK AO2 SLP235 T01610133 10239 20161 402890139 56003 $
2026-04-12 04:53:00,METAR KBNA 120453Z 19004KT 10SM FEW250 17/13 A3025 RMK AO2 SLP237 T01720133 $
2026-04-12 03:53:00,METAR KBNA 120353Z 00000KT 10SM FEW250 18/13 A3024 RMK AO2 SLP236 T01830133 $
2026-04-12 02:53:00,METAR KBNA 120253Z 05003KT 10SM FEW250 21/13 A3025 RMK AO2 SLP239 T02060128 50002 $
2026-04-12 01:53:00,METAR KBNA 120153Z 07003KT 10SM SCT250 22/13 A3026 RMK AO2 SLP241 T02170128 $
2026-04-12 00:53:00,METAR KBNA 120053Z 02006KT 10SM FEW120 SCT250 23/12 A3025 RMK AO2 SLP239 T02280122 $
2026-04-11 23:53:00,METAR KBNA 112353Z 02005KT 10SM FEW150 BKN250 24/12 A3025 RMK AO2 SLP238 T02390122 10289 20239 55003 $
2026-04-11 22:53:00,METAR KBNA 112253Z 08005KT 10SM FEW120 BKN250 26/12 A3024 RMK AO2 SLP237 T02560122 $
2026-04-11 21:53:00,METAR KBNA 112153Z 01005KT 10SM FEW080 SCT120 BKN250 26/12 A3025 RMK AO2 SLP237 T02610122 $
2026-04-11 20:53:00,METAR KBNA 112053Z 01006KT 10SM FEW060 SCT085 SCT120 BKN250 26/12 A3026 RMK AO2 SLP240 T02560122 56019 $
2026-04-11 19:53:00,METAR KBNA 111953Z 26007KT 10SM SCT080 SCT120 BKN250 28/11 A3027 RMK AO2 SLP246 T02830111 $
2026-04-11 18:53:00,METAR KBNA 111853Z VRB05KT 10SM SCT060 SCT110 SCT250 26/11 A3029 RMK AO2 SLP253 T02560111 $
2026-04-11 17:53:00,METAR KBNA 111753Z 32009KT 10SM SCT050 SCT100 SCT250 27/11 A3031 RMK AO2 SLP259 T02720111 10283 20150 58006 $
2026-04-11 16:53:00,METAR KBNA 111653Z 00000KT 10SM FEW050 SCT150 SCT250 27/11 A3033 RMK AO2 SLP267 T02670111 $
2026-04-11 15:53:00,METAR KBNA 111553Z 24005KT 10SM FEW100 FEW250 24/11 A3034 RMK AO2 SLP269 T02440111 $
2026-04-11 14:53:00,METAR KBNA 111453Z 00000KT 10SM SCT080 SCT100 BKN250 21/11 A3033 RMK AO2 SLP267 T02110111 53001 $
2026-04-11 13:53:00,METAR KBNA 111353Z 00000KT 10SM BKN080 BKN120 BKN250 18/12 A3033 RMK AO2 SLP264 T01830117 $
2026-04-11 12:53:00,METAR KBNA 111253Z 00000KT 10SM SCT120 BKN250 17/12 A3033 RMK AO2 SLP265 T01720117 $
2026-04-11 11:53:00,METAR KBNA 111153Z 00000KT 10SM BKN120 BKN250 14/10 A3033 RMK AO2 SLP266 T01440100 10161 20139 53015 $
2026-04-11 10:53:00,METAR KBNA 111053Z 00000KT 10SM FEW095 SCT120 14/10 A3031 RMK AO2 SLP260 T01390100 $
2026-04-11 09:53:00,METAR KBNA 110953Z 00000KT 10SM OVC110 16/09 A3030 RMK AO2 SLP254 T01610094 $
2026-04-11 08:53:00,METAR KBNA 110853Z 00000KT 10SM OVC110 16/09 A3028 RMK AO2 SLP250 T01610094 51003 $
2026-04-11 07:53:00,METAR KBNA 110753Z 00000KT 10SM BKN110 16/09 A3028 RMK AO2 SLP249 T01560094 $
2026-04-11 06:53:00,METAR KBNA 110653Z 00000KT 10SM FEW250 14/09 A3028 RMK AO2 SLP250 T01440089 $
2026-04-11 05:53:00,METAR KBNA 110553Z 00000KT 10SM CLR 16/09 A3028 RMK AO2 SLP248 T01610089 10233 20150 402670106 55003 $
2026-04-11 04:53:00,METAR KBNA 110453Z 19005KT 10SM CLR 16/09 A3027 RMK AO2 SLP245 T01560094 $
2026-04-11 03:53:00,METAR KBNA 110353Z 19003KT 10SM CLR 17/09 A3027 RMK AO2 SLP247 T01720089 $
2026-04-11 02:53:00,METAR KBNA 110253Z 18005KT 10SM CLR 18/09 A3028 RMK AO2 SLP250 T01830089 53009 $
2026-04-11 01:53:00,METAR KBNA 110153Z 17004KT 10SM FEW250 20/08 A3027 RMK AO2 SLP246 T02000078 $
2026-04-11 00:53:00,METAR KBNA 110053Z 21004KT 10SM FEW070 SCT250 22/07 A3026 RMK AO2 SLP243 T02220072 $
2026-04-10 23:53:00,METAR KBNA 102353Z 19004KT 10SM FEW070 BKN250 23/08 A3026 RMK AO2 SLP242 T02330078 10267 20233 55000 $
2026-04-10 22:53:00,METAR KBNA 102253Z 19008KT 10SM FEW075 BKN250 26/07 A3025 RMK AO2 SLP238 T02560072 $
2026-04-10 21:53:00,METAR KBNA 102153Z 23006KT 10SM SCT075 BKN250 26/08 A3024 RMK AO2 SLP237 T02610078 $
2026-04-10 20:53:00,METAR KBNA 102053Z 00000KT 10SM SCT070 SCT250 26/07 A3026 RMK AO2 SLP241 T02610072 56019 $
2026-04-10 19:53:00,METAR KBNA 101953Z 22006KT 10SM FEW070 SCT250 26/07 A3027 RMK AO2 SLP246 T02560072 $
2026-04-10 18:53:00,METAR KBNA 101853Z 20006KT 10SM FEW070 SCT250 26/07 A3029 RMK AO2 SLP253 T02560067 $
2026-04-10 17:53:00,METAR KBNA 101753Z 19009KT 10SM SCT250 25/07 A3031 RMK AO2 SLP261 T02500067 10250 20106 58018 $
2026-04-10 16:53:00,METAR KBNA 101653Z 19010G15KT 10SM FEW250 23/06 A3035 RMK AO2 SLP272 T02330061 $
2026-04-10 15:53:00,METAR KBNA 101553Z 20010G17KT 10SM FEW250 22/06 A3036 RMK AO2 SLP277 T02220056 $
2026-04-10 14:53:00,METAR KBNA 101453Z 19009KT 10SM SCT250 20/04 A3037 RMK AO2 SLP280 T02000044 50005 $
2026-04-10 13:53:00,METAR KBNA 101353Z 18007KT 10SM SCT250 17/04 A3037 RMK AO2 SLP280 T01720039 $
2026-04-10 12:53:00,METAR KBNA 101253Z 16003KT 10SM SCT250 13/03 A3038 RMK AO2 SLP283 T01330033 $
2026-04-10 11:53:00,METAR KBNA 101153Z 18004KT 10SM BKN250 11/02 A3035 RMK AO2 SLP275 T01110022 10139 20111 53018 $
2026-04-10 10:53:00,METAR KBNA 101053Z 18004KT 10SM BKN250 12/02 A3033 RMK AO2 SLP267 T01170017 $
2026-04-10 09:53:00,METAR KBNA 100953Z 17003KT 10SM FEW250 12/02 A3031 RMK AO2 SLP261 T01220022 $
2026-04-10 08:53:00,METAR KBNA 100853Z 19005KT 10SM CLR 12/03 A3030 RMK AO2 SLP257 T01220028 53005 $
2026-04-10 07:53:00,METAR KBNA 100753Z 00000KT 10SM CLR 12/03 A3029 RMK AO2 SLP254 T01220033 $
2026-04-10 06:53:00,METAR KBNA 100653Z 19003KT 10SM CLR 13/04 A3028 RMK AO2 SLP250 T01330044 $
2026-04-10 05:53:00,METAR KBNA 100553Z 16003KT 10SM CLR 14/05 A3028 RMK AO2 SLP251 T01390050 10222 20139 402500122 55003 $
2026-04-10 04:53:00,METAR KBNA 100453Z 16003KT 10SM CLR 15/06 A3028 RMK AO2 SLP250 T01500056 $
2026-04-10 03:53:00,METAR KBNA 100353Z 19003KT 10SM CLR 15/07 A3029 RMK AO2 SLP253 T01500067 $
2026-04-10 02:53:00,METAR KBNA 100253Z 18004KT 10SM CLR 17/06 A3029 RMK AO2 SLP254 T01670061 51010 $
2026-04-10 01:53:00,METAR KBNA 100153Z 19003KT 10SM CLR 18/06 A3028 RMK AO2 SLP251 T01830056 $
2026-04-10 00:53:00,METAR KBNA 100053Z 18004KT 10SM FEW250 21/05 A3028 RMK AO2 SLP249 T02060050 $
2026-04-09 23:53:00,METAR KBNA 092353Z 18006KT 10SM FEW250 22/04 A3026 RMK AO2 SLP244 T02220044 10250 20217 56005 $
2026-04-09 22:53:00,METAR KBNA 092253Z 18009KT 10SM CLR 24/04 A3026 RMK AO2 SLP245 T02390044 $
2026-04-09 21:53:00,METAR KBNA 092153Z 22004KT 10SM CLR 24/04 A3027 RMK AO2 SLP245 T02440039 $
2026-04-09 20:53:00,METAR KBNA 092053Z 12004KT 10SM CLR 24/04 A3028 RMK AO2 SLP249 T02440044 56026 $
2026-04-09 19:53:00,METAR KBNA 091953Z 00000KT 10SM CLR 24/04 A3030 RMK AO2 SLP257 T02390039 $
2026-04-09 18:53:00,METAR KBNA 091853Z 20004KT 10SM CLR 24/03 A3033 RMK AO2 SLP266 T02390033 $
2026-04-09 17:53:00,METAR KBNA 091753Z 21006KT 10SM CLR 22/03 A3036 RMK AO2 SLP275 T02170033 10228 20128 58012 $
2026-04-09 16:53:00,METAR KBNA 091653Z 20008KT 10SM CLR 21/02 A3037 RMK AO2 SLP281 T02110022 $
2026-04-09 15:53:00,METAR KBNA 091553Z 20009KT 10SM CLR 19/01 A3039 RMK AO2 SLP286 T01940011 $
2026-04-09 14:53:00,METAR KBNA 091453Z 16009KT 10SM CLR 18/01 A3039 RMK AO2 SLP288 T01780006 50004 $
2026-04-09 13:53:00,METAR KBNA 091353Z 17011KT 10SM CLR 16/00 A3040 RMK AO2 SLP290 T01610000 $
2026-04-09 12:53:00,METAR KBNA 091253Z 17010KT 10SM CLR 14/01 A3039 RMK AO2 SLP289 T01440011 $
2026-04-09 11:53:00,METAR KBNA 091153Z 18007KT 10SM CLR 13/02 A3038 RMK AO2 SLP284 T01280022 10167 20122 53012 $
2026-04-09 10:53:00,METAR KBNA 091053Z 15007KT 10SM FEW250 12/03 A3036 RMK AO2 SLP278 T01220028 $
2026-04-09 09:53:00,METAR KBNA 090953Z 17007KT 10SM CLR 13/03 A3035 RMK AO2 SLP272 T01330033 $
2026-04-09 08:53:00,METAR KBNA 090853Z 17008KT 10SM CLR 14/03 A3034 RMK AO2 SLP270 T01390033 53014 $
2026-04-09 07:53:00,METAR KBNA 090753Z 18010KT 10SM FEW250 15/03 A3032 RMK AO2 SLP263 T01500033 $
2026-04-09 06:53:00,METAR KBNA 090653Z 19011KT 10SM FEW250 16/04 A3031 RMK AO2 SLP260 T01560039 $
2026-04-09 05:53:00,METAR KBNA 090553Z 18010KT 10SM SCT250 17/04 A3030 RMK AO2 SLP256 T01670039 10217 20161 402500078 52013 $
2026-04-09 04:53:00,METAR KBNA 090453Z 18008KT 10SM BKN250 17/04 A3029 RMK AO2 SLP252 T01720044 $
2026-04-09 03:53:00,METAR KBNA 090353Z 18008KT 10SM BKN250 18/05 A3028 RMK AO2 SLP249 T01780050 $
2026-04-09 02:53:00,METAR KBNA 090253Z 18008KT 10SM BKN250 18/06 A3026 RMK AO2 SLP244 T01780061 53013 $
2026-04-09 01:53:00,METAR KBNA 090153Z 18003KT 10SM SCT250 18/06 A3025 RMK AO2 SLP242 T01830061 $
2026-04-09 00:53:00,METAR KBNA 090053Z 19004KT 10SM BKN250 19/06 A3023 RMK AO2 SLP235 T01890061 $
2026-04-08 23:53:00,METAR KBNA 082353Z 18008KT 10SM BKN250 22/05 A3023 RMK AO2 SLP233 T02170050 10250 20217 53001 $
2026-04-08 22:53:00,METAR KBNA 082253Z 18007KT 10SM BKN250 23/05 A3022 RMK AO2 SLP231 T02330050 $
2026-04-08 21:53:00,METAR KBNA 082153Z 16008KT 10SM BKN250 24/05 A3022 RMK AO2 SLP229 T02440050 $
2026-04-08 20:53:00,METAR KBNA 082053Z 17005G14KT 10SM BKN250 25/04 A3022 RMK AO2 SLP231 T02500044 58017 $
2026-04-08 19:53:00,METAR KBNA 081953Z 20009G15KT 10SM SCT250 25/05 A3024 RMK AO2 SLP236 T02500050 $
2026-04-08 18:53:00,METAR KBNA 081853Z 17010G17KT 10SM SCT250 24/04 A3026 RMK AO2 SLP243 T02390044 $
2026-04-08 17:53:00,METAR KBNA 081753Z 21009G18KT 10SM SCT250 23/04 A3027 RMK AO2 SLP248 T02280044 10228 20078 58018 $
2026-04-08 16:53:00,METAR KBNA 081653Z 19008G18KT 10SM SCT250 22/04 A3030 RMK AO2 SLP256 T02170039 $
2026-04-08 15:53:00,METAR KBNA 081553Z 16009KT 10SM SCT250 18/03 A3032 RMK AO2 SLP264 T01830028 $
2026-04-08 14:53:00,METAR KBNA 081453Z 14005KT 10SM BKN250 16/02 A3033 RMK AO2 SLP267 T01560017 51006
2026-04-08 13:53:00,METAR KBNA 081353Z 14004KT 10SM BKN250 12/01 A3033 RMK AO2 SLP267 T01170011
2026-04-08 12:53:00,METAR KBNA 081253Z 08004KT 10SM BKN250 09/00 A3032 RMK AO2 SLP267 T00940000 $
2026-04-08 11:53:00,METAR KBNA 081153Z 08003KT 10SM BKN250 08/00 A3031 RMK AO2 SLP262 T00780000 10111 20078 53007 $
2026-04-08 10:53:00,METAR KBNA 081053Z 05005KT 10SM BKN250 08/00 A3029 RMK AO2 SLP257 T00780000 $
2026-04-08 09:53:00,METAR KBNA 080953Z 05006KT 10SM BKN250 08/00 A3029 RMK AO2 SLP255 T00830000 $
2026-04-08 08:53:00,METAR KBNA 080853Z 05008KT 10SM BKN250 09/00 A3029 RMK AO2 SLP254 T00890000 58001 $
2026-04-08 07:53:00,METAR KBNA 080753Z 02006KT 10SM BKN250 09/00 A3029 RMK AO2 SLP254 T00890000 $
2026-04-08 06:53:00,METAR KBNA 080653Z 05005KT 10SM BKN250 10/M01 A3029 RMK AO2 SLP255 T01001006 $
2026-04-08 05:53:00,METAR KBNA 080553Z 04009KT 10SM BKN250 11/00 A3029 RMK AO2 SLP255 T01060000 10167 20106 402000072 58005 $
2026-04-08 04:53:00,METAR KBNA 080453Z 03008KT 10SM BKN250 11/00 A3030 RMK AO2 SLP258 T01110000 $
2026-04-08 03:53:00,METAR KBNA 080353Z 03009KT 10SM FEW250 12/01 A3031 RMK AO2 SLP261 T01220006 $
2026-04-08 02:53:00,METAR KBNA 080253Z 03008KT 10SM FEW250 13/01 A3031 RMK AO2 SLP261 T01280011 53014 $
2026-04-08 01:53:00,METAR KBNA 080153Z 03007KT 10SM FEW250 14/02 A3029 RMK AO2 SLP256 T01390017 $
2026-04-08 00:53:00,METAR KBNA 080053Z 03008KT 10SM FEW250 15/02 A3027 RMK AO2 SLP249 T01500017 $
2026-04-07 23:53:00,METAR KBNA 072353Z 04009KT 10SM FEW250 17/02 A3026 RMK AO2 SLP247 T01670017 10200 20167 55000 $
2026-04-07 22:53:00,METAR KBNA 072253Z 05008KT 10SM FEW250 18/02 A3026 RMK AO2 SLP244 T01830017 $
2026-04-07 21:53:00,METAR KBNA 072153Z 04009KT 10SM FEW250 19/01 A3026 RMK AO2 SLP245 T01940011
2026-04-07 20:53:00,METAR KBNA 072053Z 03010KT 10SM CLR 19/02 A3026 RMK AO2 SLP246 T01940017 56022 $
2026-04-07 19:53:00,METAR KBNA 071953Z 02011KT 10SM FEW250 19/02 A3028 RMK AO2 SLP253 T01940017 $
2026-04-07 18:53:00,METAR KBNA 071853Z 05010KT 10SM FEW250 19/02 A3031 RMK AO2 SLP261 T01890017 $
2026-04-07 17:53:00,METAR KBNA 071753Z 01006G18KT 10SM FEW250 18/01 A3033 RMK AO2 SLP269 T01830006 10183 20094 58010 $
2026-04-07 16:53:00,METAR KBNA 071653Z 03008G16KT 10SM FEW250 17/M01 A3035 RMK AO2 SLP275 T01671006 $
2026-04-07 15:53:00,METAR KBNA 071553Z 06009KT 10SM FEW250 16/M01 A3036 RMK AO2 SLP280 T01561006 $
2026-04-07 14:53:00,METAR KBNA 071453Z 06011KT 10SM FEW250 14/M01 A3036 RMK AO2 SLP278 T01441006 53016 $
2026-04-07 13:53:00,METAR KBNA 071353Z 04009KT 10SM CLR 13/00 A3034 RMK AO2 SLP271 T01280000 $
2026-04-07 12:53:00,METAR KBNA 071253Z 36006KT 10SM CLR 11/00 A3033 RMK AO2 SLP268 T01110000 $
2026-04-07 11:53:00,METAR KBNA 071153Z 35007KT 10SM FEW250 09/M01 A3031 RMK AO2 SLP263 T00941006 10122 20072 53015 $
2026-04-07 10:53:00,METAR KBNA 071053Z 32003KT 10SM CLR 08/01 A3028 RMK AO2 SLP252 T00830006 $
2026-04-07 09:53:00,METAR KBNA 070953Z 00000KT 10SM CLR 08/01 A3027 RMK AO2 SLP246 T00780006 $
2026-04-07 08:53:00,METAR KBNA 070853Z 36006KT 10SM CLR 10/M01 A3027 RMK AO2 SLP247 T01001006 53000 $
2026-04-07 07:53:00,METAR KBNA 070753Z 00000KT 10SM CLR 09/01 A3026 RMK AO2 SLP243 T00940011 $
2026-04-07 06:53:00,METAR KBNA 070653Z 03006KT 10SM CLR 11/M01 A3027 RMK AO2 SLP246 T01111006 $
2026-04-07 05:53:00,METAR KBNA 070553Z 36008KT 10SM CLR 12/M01 A3027 RMK AO2 SLP247 T01221006 10189 20122 402110050 53004 $
2026-04-07 04:53:00,METAR KBNA 070453Z 36009KT 10SM CLR 13/M01 A3025 RMK AO2 SLP242 T01331006 $
2026-04-07 03:53:00,METAR KBNA 070353Z 34005KT 10SM CLR 14/M01 A3025 RMK AO2 SLP242 T01391006 $
2026-04-07 02:53:00,METAR KBNA 070253Z 34005KT 10SM CLR 16/00 A3025 RMK AO2 SLP242 T01560000 53019 $
2026-04-07 01:53:00,METAR KBNA 070153Z 35006KT 10SM CLR 16/01 A3023 RMK AO2 SLP236 T01610006 $
2026-04-07 00:53:00,METAR KBNA 070053Z 35008KT 10SM FEW250 18/02 A3021 RMK AO2 SLP227 T01780017 $
2026-04-06 23:53:00,METAR KBNA 062353Z 36010KT 10SM FEW065 SCT250 19/01 A3020 RMK AO2 SLP224 T01940011 10211 20167 56007 $
2026-04-06 22:53:00,METAR KBNA 062253Z 28005KT 10SM FEW070 SCT250 21/01 A3020 RMK AO2 SLP226 T02060006 $
2026-04-06 21:53:00,METAR KBNA 062153Z 35008G17KT 10SM FEW070 BKN250 21/01 A3021 RMK AO2 SLP226 T02060006 $
2026-04-06 20:53:00,METAR KBNA 062053Z 02009KT 10SM FEW070 BKN250 21/02 A3022 RMK AO2 SLP230 T02110017 56024 $
2026-04-06 19:53:00,METAR KBNA 061953Z 01010KT 10SM FEW070 BKN250 21/02 A3024 RMK AO2 SLP237 T02060017 $
2026-04-06 18:53:00,METAR KBNA 061853Z 02006KT 10SM BKN250 20/01 A3026 RMK AO2 SLP246 T02000011 $
2026-04-06 17:53:00,METAR KBNA 061753Z 32005KT 10SM BKN250 18/01 A3029 RMK AO2 SLP256 T01780011 10183 20056 58013 $
2026-04-06 16:53:00,METAR KBNA 061653Z VRB03KT 10SM BKN250 18/01 A3032 RMK AO2 SLP264 T01780011 $
2026-04-06 15:53:00,METAR KBNA 061553Z 03005KT 10SM BKN250 15/00 A3033 RMK AO2 SLP269 T01500000 $
2026-04-06 14:53:00,METAR KBNA 061453Z 05004KT 10SM SCT250 13/00 A3033 RMK AO2 SLP269 T01330000 51004 $
2026-04-06 13:53:00,METAR KBNA 061353Z 04004KT 10SM SCT250 12/02 A3032 RMK AO2 SLP267 T01170017 $
2026-04-06 12:53:00,METAR KBNA 061253Z 29003KT 10SM SCT250 09/03 A3032 RMK AO2 SLP268 T00890033 $
2026-04-06 11:53:00,METAR KBNA 061153Z 00000KT 10SM BKN250 07/02 A3032 RMK AO2 SLP265 T00670017 10094 20050 51012 $
2026-04-06 10:53:00,METAR KBNA 061053Z 00000KT 10SM BKN250 05/02 A3031 RMK AO2 SLP263 T00500017 $
2026-04-06 09:53:00,METAR KBNA 060953Z 35003KT 10SM SCT250 08/01 A3029 RMK AO2 SLP256 T00780011 $
2026-04-06 08:53:00,METAR KBNA 060853Z 36005KT 10SM SCT250 07/01 A3028 RMK AO2 SLP252 T00720011 55003 $
2026-04-06 07:53:00,METAR KBNA 060753Z 35006KT 10SM FEW250 08/01 A3028 RMK AO2 SLP251 T00780011 $
2026-04-06 06:53:00,METAR KBNA 060653Z 35007KT 10SM FEW250 09/01 A3028 RMK AO2 SLP253 T00890011 $
2026-04-06 05:53:00,METAR KBNA 060553Z 35005KT 10SM SCT250 09/02 A3029 RMK AO2 SLP255 T00940017 10156 20089 401780078 58002 $
2026-04-06 04:53:00,METAR KBNA 060453Z 35007KT 10SM SCT250 10/02 A3030 RMK AO2 SLP259 T01000017 $
2026-04-06 03:53:00,METAR KBNA 060353Z 34006KT 10SM FEW250 11/02 A3030 RMK AO2 SLP259 T01060017 $
2026-04-06 02:53:00,METAR KBNA 060253Z 34007KT 10SM CLR 12/01 A3030 RMK AO2 SLP259 T01170011 51024 $
2026-04-06 01:53:00,METAR KBNA 060153Z 35006KT 10SM CLR 13/01 A3028 RMK AO2 SLP252 T01280006 $
2026-04-06 00:53:00,METAR KBNA 060053Z 34006KT 10SM FEW250 14/00 A3025 RMK AO2 SLP242 T01390000 $
2026-04-05 23:53:00,METAR KBNA 052353Z 33011KT 10SM FEW250 16/M01 A3022 RMK AO2 SLP234 T01561011 10178 20144 53006 $
2026-04-05 22:53:00,METAR KBNA 052253Z 35012G29KT 10SM FEW250 17/00 A3021 RMK AO2 PK WND 01029/2253 SLP228 T01720000 $
2026-04-05 21:53:00,METAR KBNA 052153Z 35014G27KT 10SM FEW250 18/00 A3020 RMK AO2 PK WND 01027/2139 SLP226 T01780000 $
2026-04-05 20:53:00,METAR KBNA 052053Z 31009G19KT 10SM CLR 18/02 A3021 RMK AO2 SLP227 T01780017 56017 $
2026-04-05 19:53:00,METAR KBNA 051953Z 30010G19KT 10SM BKN250 17/02 A3022 RMK AO2 SLP230 T01720017 $
2026-04-05 18:53:00,METAR KBNA 051853Z 34008KT 10SM SCT250 17/02 A3024 RMK AO2 SLP238 T01670017 $
2026-04-05 17:53:00,METAR KBNA 051753Z 33011G18KT 10SM FEW040 SCT250 14/02 A3026 RMK AO2 SLP244 T01440017 10144 20078 50004 $
2026-04-05 16:53:00,METAR KBNA 051653Z 35010G19KT 10SM FEW030 SCT250 13/02 A3026 RMK AO2 SLP245 T01330017 $
2026-04-05 15:53:00,METAR KBNA 051553Z 32008G17KT 10SM FEW030 SCT250 12/01 A3026 RMK AO2 SLP243 T01170011 $
2026-04-05 14:53:00,METAR KBNA 051453Z 33007KT 10SM FEW030 SCT250 11/02 A3024 RMK AO2 SLP238 T01060017 53007 $
2026-04-05 12:53:00,METAR KBNA 051253Z 33007KT 10SM FEW030 BKN250 09/04 A3023 RMK AO2 SLP236 T00890039 $
2026-04-05 11:53:00,METAR KBNA 051153Z 33006KT 10SM FEW030 SCT250 08/03 A3022 RMK AO2 SLP233 60005 70086 T00780033 10133 20078 53017 $
2026-04-05 10:53:00,METAR KBNA 051053Z 32007KT 10SM FEW029 08/04 A3020 RMK AO2 SLP224 T00830044 $
2026-04-05 09:53:00,METAR KBNA 050953Z 33006KT 10SM BKN110 09/05 A3019 RMK AO2 SLP219 T00890050 $
2026-04-05 08:53:00,METAR KBNA 050853Z 33005KT 10SM OVC100 09/06 A3017 RMK AO2 RAE09 SLP213 P0000 60005 T00940061 51020 $
2026-04-05 07:53:00,METAR KBNA 050753Z 33011G20KT 7SM -RA FEW025 SCT041 OVC095 09/06 A3016 RMK AO2 PK WND 36031/0723 SLP211 P0005 T00940061 $
2026-04-05 06:53:00,METAR KBNA 050653Z 33010G19KT 5SM -RA BR FEW010 SCT026 OVC035 12/09 A3013 RMK AO2 PK WND 34028/0608 RAB0559 SLP199 P0000 T01170094 $
2026-04-05 05:53:00,METAR KBNA 050553Z 32011KT 8SM SCT009 BKN026 OVC070 13/12 A3011 RMK AO2 RAB28E52 SLP192 P0006 60032 T01330117 10194 20133 402720133 53007 $
2026-04-05 05:28:00,SPECI KBNA 050528Z 33012KT 2 1/2SM RA BR SCT008 BKN014 OVC019 13/12 A3011 RMK AO2 RAB28 P0003 T01330117 $
2026-04-05 04:53:00,METAR KBNA 050453Z 32014KT 10SM SCT008 BKN017 OVC040 14/13 A3010 RMK AO2 PK WND 35026/0437 RAE50 SLP187 P0010 T01440128 $
2026-04-05 03:53:00,METAR KBNA 050353Z 30005KT 5SM -RA BR BKN007 BKN010 OVC040 17/16 A3009 RMK AO2 SLP183 P0004 T01720156 $
2026-04-05 02:53:00,METAR KBNA 050253Z 30007KT 8SM -RA BKN028 BKN060 OVC100 18/16 A3009 RMK AO2 SLP183 P0006 60012 T01780156 51010 $
2026-04-05 02:27:00,SPECI KBNA 050227Z 31005KT 7SM -RA SCT009 BKN030 OVC070 18/16 A3009 RMK AO2 P0005 T01780161 $
2026-04-05 02:00:00,SPECI KBNA 050200Z 27004KT 3SM -RA BR FEW007 BKN010 OVC018 18/17 A3009 RMK AO2 P0002 T01830167 $
2026-04-05 01:53:00,METAR KBNA 050153Z 29006KT 4SM -RA BR BKN010 BKN015 BKN100 18/17 A3008 RMK AO2 SLP181 P0006 T01830167 $
2026-04-05 01:07:00,SPECI KBNA 050107Z 24003KT 7SM -RA BKN014 BKN100 19/17 A3007 RMK AO2 P0002 T01890167 $
2026-04-05 00:53:00,METAR KBNA 050053Z 00000KT 7SM -RA SCT014 SCT065 BKN100 BKN250 19/17 A3007 RMK AO2 RAB35 SLP178 P0000 T01890172 $
2026-04-04 23:53:00,METAR KBNA 042353Z 22003KT 10SM FEW035 SCT070 BKN110 BKN250 19/18 A3006 RMK AO2 RAE11 SLP174 P0000 60049 T01940178 10272 20194 51020 $
2026-04-04 22:53:00,METAR KBNA 042253Z 21005KT 9SM -RA SCT050 OVC100 20/18 A3006 RMK AO2 SLP173 P0010 T02000178 $
2026-04-04 22:05:00,SPECI KBNA 042205Z 23006G20KT 4SM -RA BR FEW023 BKN050 OVC080 19/17 A3006 RMK AO2 P0003 T01940172 $
2026-04-04 21:57:00,SPECI KBNA 042157Z 25012G21KT 2 1/2SM RA BR FEW017 BKN044 OVC090 20/17 A3006 RMK AO2 P0000 T02000172 $
2026-04-04 21:53:00,METAR KBNA 042153Z COR 25011G19KT 210V270 2SM RA BR FEW017 BKN038 OVC080 20/17 A3006 RMK AO2 PK WND 25034/2123 RAB18 TSE22 SLP173 P0039 T02000172 $
2026-04-04 21:49:00,SPECI KBNA 042149Z 27010G16KT 1 3/4SM VCTS RA BR FEW015 OVC033 20/18 A3006 RMK AO2 PK WND 25034/2123 RAB18 TSE22 P0037 $
2026-04-04 21:40:00,METAR KBNA 042140Z COR 23007G18KT 2SM TSRA BR BKN028CB BKN036 OVC060 19/17 A3006 RMK A02 PK WND 25034/2123 RAB18 OCNL LTG ICCC TS W MOV E
2026-04-04 21:38:00,SPECI KBNA 042138Z 22008G22KT 1 1/2SM RA BR BKN030 BKN047 OVC060 19/17 A3006 RMK AO2 PK WND 25034/2123 RAB18 TSE22 P0032 T01940172 $
2026-04-04 21:35:00,SPECI KBNA 042135Z 24009G22KT 3/4SM VCTS RA BR BKN030 BKN047 OVC070 19/17 A3006 RMK AO2 PK WND 25034/2123 RAB18 TSE22 P0032 T01940172 RVRNO $
2026-04-04 21:30:00,SPECI KBNA 042130Z 24014G34KT 1/4SM VCTS +RA FG BKN023 BKN047 OVC065 19/17 A3005 RMK AO2 PK WND 25034/2123 TWR VIS 1/2 RAB18 TSE22 P0026 T01940172 RVRNO $
2026-04-04 21:25:00,SPECI KBNA 042125Z 24014G34KT 1/2SM VCTS +RA SCT021 BKN047 OVC075 21/17 A3005 RMK AO2 PK WND 25034/2123 RAB18 TSE22 PRESRR P0009 T02060172 RVRNO $
2026-04-04 21:23:00,SPECI KBNA 042123Z 24017G34KT 1 1/2SM VCTS +RA FEW024 BKN045 OVC060 22/17 A3005 RMK AO2 PK WND 25034/2123 RAB18 TSE22 PRESRR P0000 T02220167 $
2026-04-04 20:53:00,METAR KBNA 042053Z 20018G32KT 10SM SCT050 SCT065 BKN090 BKN250 27/14 A3000 RMK AO2 PK WND 19032/2048 SLP152 T02670144 58026 $
2026-04-04 19:53:00,METAR KBNA 041953Z 20014G28KT 10SM SCT045 SCT055 BKN110 BKN250 27/15 A3003 RMK AO2 PK WND 20030/1902 SLP161 T02670150 $
2026-04-04 18:53:00,METAR KBNA 041853Z 21013G23KT 10SM BKN044 BKN110 BKN250 26/14 A3006 RMK AO2 SLP173 T02610144 $
2026-04-04 17:53:00,METAR KBNA 041753Z 20015G24KT 10SM BKN040 BKN050 BKN110 BKN250 25/14 A3008 RMK AO2 PK WND 20030/1707 SLP180 T02500144 10267 20189 58010 $
2026-04-04 16:53:00,METAR KBNA 041653Z 19021G36KT 10SM BKN040 BKN050 BKN250 27/14 A3010 RMK AO2 PK WND 19036/1642 SLP186 T02670144 $
2026-04-04 15:53:00,METAR KBNA 041553Z 20014G25KT 10SM BKN035 BKN050 BKN110 BKN250 26/16 A3010 RMK AO2 PK WND 19033/1528 SLP186 T02560156 $
2026-04-04 14:53:00,METAR KBNA 041453Z 21014G27KT 10SM BKN030 BKN110 BKN250 24/16 A3011 RMK AO2 PK WND 21032/1431 SLP190 T02390156 55001 $
2026-04-04 13:53:00,METAR KBNA 041353Z 19015G21KT 10SM FEW040 FEW120 SCT250 23/16 A3011 RMK AO2 SLP188 T02330156 $
2026-04-04 12:53:00,METAR KBNA 041253Z 18009G17KT 10SM FEW120 BKN250 21/15 A3011 RMK AO2 SLP191 T02110150 $
2026-04-04 11:53:00,METAR KBNA 041153Z 14004KT 10SM SCT120 BKN250 19/14 A3011 RMK AO2 SLP192 T01890144 10211 20183 50003 $
2026-04-04 10:53:00,METAR KBNA 041053Z 12003KT 10SM FEW250 19/14 A3012 RMK AO2 SLP192 T01940139 $
2026-04-04 09:53:00,METAR KBNA 040953Z 12003KT 10SM FEW250 19/13 A3011 RMK AO2 SLP190 T01890133 $
2026-04-04 08:53:00,METAR KBNA 040853Z 15004KT 10SM FEW250 19/13 A3011 RMK AO2 SLP188 T01940133 55007 $
2026-04-04 07:53:00,METAR KBNA 040753Z 14007KT 10SM FEW050 FEW250 20/13 A3010 RMK AO2 SLP186 T02000133 $
2026-04-04 06:53:00,METAR KBNA 040653Z 15003KT 10SM SCT250 21/13 A3012 RMK AO2 SLP192 T02060128 $
2026-04-04 05:53:00,METAR KBNA 040553Z 16005KT 10SM BKN250 20/13 A3013 RMK AO2 SLP195 T02000128 10267 20194 403060194 58008 $
2026-04-04 04:53:00,METAR KBNA 040453Z 13005KT 10SM FEW050 FEW250 21/13 A3015 RMK AO2 SLP202 T02060128 $
2026-04-04 03:53:00,METAR KBNA 040353Z 15003KT 10SM FEW250 22/13 A3016 RMK AO2 SLP205 T02220128 $
2026-04-04 02:53:00,METAR KBNA 040253Z 00000KT 10SM FEW250 23/13 A3015 RMK AO2 SLP204 T02330128 53013 $
2026-04-04 01:53:00,METAR KBNA 040153Z 18004KT 10SM FEW250 23/13 A3014 RMK AO2 SLP200 T02330128 $
2026-04-04 00:53:00,METAR KBNA 040053Z 20005KT 10SM FEW250 24/13 A3012 RMK AO2 SLP193 T02390128 $
2026-04-03 23:53:00,METAR KBNA 032353Z 18013KT 10SM FEW070 SCT250 27/13 A3011 RMK AO2 SLP190 T02670128 10306 20267 56004 $
2026-04-03 22:53:00,METAR KBNA 032253Z 17014KT 10SM FEW070 SCT250 28/13 A3011 RMK AO2 SLP190 T02830128 $
2026-04-03 21:53:00,METAR KBNA 032153Z 18014G22KT 10SM FEW070 SCT250 29/11 A3012 RMK AO2 PK WND 17026/2136 SLP193 T02890106 $
2026-04-03 20:53:00,METAR KBNA 032053Z 18011G20KT 10SM FEW065 SCT250 30/13 A3012 RMK AO2 SLP193 T03000128 56016 $
2026-04-03 19:53:00,METAR KBNA 031953Z 19013G20KT 10SM SCT070 SCT250 30/12 A3014 RMK AO2 SLP199 T03000122 $
2026-04-03 18:53:00,METAR KBNA 031853Z 21012G24KT 10SM SCT055 BKN250 29/13 A3016 RMK AO2 SLP204 T02940128 $
2026-04-03 17:53:00,METAR KBNA 031753Z 19008G23KT 10SM SCT055 SCT110 BKN250 29/13 A3017 RMK AO2 SLP210 T02890133 10289 20206 58009 $
2026-04-03 16:53:00,METAR KBNA 031653Z 21014G25KT 10SM FEW048 SCT110 SCT250 28/12 A3019 RMK AO2 PK WND 17026/1640 SLP216 T02780122 $
2026-04-03 15:53:00,METAR KBNA 031553Z 22010G20KT 10SM FEW038 SCT250 27/14 A3020 RMK AO2 SLP220 T02670144 $
2026-04-03 14:53:00,METAR KBNA 031453Z 22010KT 10SM FEW035 SCT100 SCT250 25/16 A3020 RMK AO2 SLP220 T02500156 51014 $
2026-04-03 13:53:00,METAR KBNA 031353Z 19010KT 10SM BKN100 BKN250 23/16 A3020 RMK AO2 SLP219 T02330156 $
2026-04-03 12:53:00,METAR KBNA 031253Z 19010KT 10SM FEW080 SCT110 BKN150 BKN250 22/15 A3018 RMK AO2 SLP213 T02170150 $
2026-04-03 11:53:00,METAR KBNA 031153Z 19008KT 10SM FEW075 BKN100 BKN140 BKN250 21/14 A3016 RMK AO2 SLP207 VIRGA W T02060144 10233 20206 53015 $
2026-04-03 08:53:00,METAR KBNA 030853Z 19009KT 10SM BKN100 23/14 A3012 RMK AO2 SLP191 T02280144 51005 $
2026-04-03 05:53:00,METAR KBNA 030553Z 20006KT 10SM BKN075 23/13 A3010 RMK AO2 SLP187 T02330133 10261 20228 53014 $
2026-04-03 04:53:00,METAR KBNA 030453Z 19007KT 10SM BKN120 23/13 A3009 RMK AO2 SLP182 T02330133 $
2026-04-03 03:53:00,METAR KBNA 030353Z 19010KT 10SM BKN150 24/13 A3007 RMK AO2 SLP177 T02390128 $
2026-04-03 02:53:00,METAR KBNA 030253Z 19008KT 10SM BKN250 24/12 A3006 RMK AO2 SLP173 T02440122 53017 $
2026-04-03 01:53:00,METAR KBNA 030153Z 18008KT 10SM BKN250 24/12 A3004 RMK AO2 SLP166 T02440122 $
2026-04-03 00:53:00,METAR KBNA 030053Z 19009KT 10SM BKN250 25/12 A3002 RMK AO2 SLP160 T02500122 $
2026-04-02 23:53:00,METAR KBNA 022353Z 20014KT 10SM FEW075 FEW130 BKN250 27/12 A3001 RMK AO2 PK WND 18037/2257 SLP156 T02670117 10289 20267 56006 $
2026-04-02 22:53:00,METAR KBNA 022253Z 18019G30KT 10SM SCT070 SCT130 BKN250 27/12 A3001 RMK AO2 PK WND 21034/2156 SLP156 T02720117 $
2026-04-02 21:53:00,METAR KBNA 022153Z 21020G35KT 10SM FEW065 SCT120 BKN250 28/11 A3001 RMK AO2 PK WND 22038/2150 SLP156 T02830111 $
2026-04-02 20:53:00,METAR KBNA 022053Z 18019G35KT 10SM SCT065 SCT110 BKN250 28/11 A3003 RMK AO2 PK WND 20035/2042 SLP161 T02830111 56021 $
2026-04-02 19:53:00,METAR KBNA 021953Z 19014G22KT 10SM SCT065 BKN120 BKN250 28/12 A3005 RMK AO2 PK WND 18037/1909 SLP168 T02830122
2026-04-02 18:53:00,METAR KBNA 021853Z 20019G32KT 10SM FEW055 SCT070 BKN110 BKN250 28/11 A3007 RMK AO2 PK WND 18035/1833 SLP174 T02780111
2026-04-02 17:53:00,METAR KBNA 021753Z 20014G22KT 10SM FEW040 SCT050 BKN250 27/14 A3009 RMK AO2 PK WND 20031/1702 SLP183 T02720139 58008 $
2026-04-02 16:53:00,METAR KBNA 021653Z COR 20016G28KT 10SM FEW038 SCT055 BKN250 28/13 A3011 RMK AO2 PK WND 21030/1630 SLP188 T02780150 50008
2026-04-02 15:53:00,METAR KBNA 021553Z 19019G25KT 10SM FEW034 BKN250 25/16 A3012 RMK AO2 SLP193 T02500156 $
2026-04-02 14:53:00,METAR KBNA 021453Z 19012G20KT 10SM FEW030 BKN250 23/15 A3011 RMK AO2 SLP192 T02280150 50008 $
2026-04-02 13:53:00,METAR KBNA 021353Z 19016G21KT 10SM FEW035 BKN250 21/14 A3012 RMK AO2 SLP192 T02110144 $
2026-04-02 12:53:00,METAR KBNA 021253Z 10009KT 10SM BKN250 19/14 A3011 RMK AO2 SLP189 T01940139 $
2026-04-02 11:53:00,METAR KBNA 021153Z 19010KT 10SM BKN250 19/14 A3009 RMK AO2 SLP183 T01890139 53012 $
2026-04-02 10:53:00,METAR KBNA 021053Z 20008KT 10SM FEW250 19/14 A3007 RMK AO2 SLP176 T01890139 $
2026-04-02 09:53:00,METAR KBNA 020953Z 19010KT 10SM FEW250 20/16 A3005 RMK AO2 SLP169 T02000156 $
2026-04-02 08:53:00,METAR KBNA 020853Z 17008KT 10SM FEW250 20/17 A3005 RMK AO2 SLP170 T02000167 50005 $
2026-04-02 07:53:00,METAR KBNA 020753Z 00000KT 10SM CLR 21/17 A3006 RMK AO2 SLP173 T02110167 $
2026-04-02 06:53:00,METAR KBNA 020653Z 17005KT 10SM FEW250 21/16 A3006 RMK AO2 SLP171 T02110161 $
2026-04-02 05:53:00,METAR KBNA 020553Z 17003KT 10SM FEW250 21/17 A3004 RMK AO2 SLP164 T02110167 402830183 55006 $
2026-04-02 04:53:00,METAR KBNA 020453Z 16004KT 10SM FEW250 21/17 A3003 RMK AO2 SLP162 T02110167 $
2026-04-02 03:53:00,METAR KBNA 020353Z 17008KT 10SM FEW250 22/15 A3003 RMK AO2 SLP164 T02170150 $
2026-04-02 02:53:00,METAR KBNA 020253Z 17009KT 10SM FEW250 22/14 A3006 RMK AO2 SLP172 T02220144 50009 $
2026-04-02 01:53:00,METAR KBNA 020153Z 19008KT 10SM FEW250 23/14 A3007 RMK AO2 SLP175 T02280144 $
2026-04-02 00:53:00,METAR KBNA 020053Z 17007KT 10SM FEW120 FEW250 23/14 A3004 RMK AO2 SLP168 T02330144 $
2026-04-01 23:53:00,METAR KBNA 012353Z 19009G16KT 10SM FEW070 FEW120 SCT250 26/14 A3003 RMK AO2 SLP163 T02560139 56006 $
2026-04-01 22:53:00,METAR KBNA 012253Z COR 19008KT 10SM FEW050 SCT070 BKN250 27/14 A3003 RMK AO2 SLP164 T02670144 $
2026-04-01 21:53:00,METAR KBNA 012153Z 20013KT 10SM SCT050 BKN250 28/14 A3003 RMK AO2 SLP162 T02780144 $
2026-04-01 20:53:00,METAR KBNA 012053Z 18012KT 10SM FEW040 SCT049 BKN250 28/14 A3005 RMK AO2 SLP168 T02780144 56029 $
2026-04-01 19:53:00,METAR KBNA 011953Z 20013G22KT 10SM SCT039 BKN250 28/15 A3007 RMK AO2 SLP177 T02780150 $
2026-04-01 18:53:00,METAR KBNA 011853Z 20014G20KT 10SM BKN031 BKN250 27/16 A3010 RMK AO2 SLP186 T02670161 $
2026-04-01 17:53:00,METAR KBNA 011753Z 19015G19KT 10SM SCT028 BKN033 BKN250 26/16 A3013 RMK AO2 SLP198 T02560161 10256 20189 58006 $
2026-04-01 16:53:00,METAR KBNA 011653Z 20012G20KT 10SM BKN027 BKN055 BKN250 25/16 A3015 RMK AO2 SLP202 T02500161 $
2026-04-01 15:53:00,METAR KBNA 011553Z 23011G19KT 10SM BKN025 BKN070 BKN250 23/16 A3015 RMK AO2 SLP205 T02330161 $
2026-04-01 14:53:00,METAR KBNA 011453Z 21008G17KT 180V240 10SM BKN020 BKN070 BKN250 23/16 A3015 RMK AO2 SLP206 T02280161 51015 $
2026-04-01 14:04:00,SPECI KBNA 011404Z 21009KT 10SM BKN020 BKN100 BKN250 22/16 A3015 RMK AO2 T02170161
2026-04-01 13:53:00,METAR KBNA 011353Z 20008KT 10SM SCT022 BKN060 BKN100 BKN250 22/16 A3015 RMK AO2 SLP205 T02170161
2026-04-01 12:53:00,METAR KBNA 011253Z 18006KT 10SM FEW035 SCT080 SCT160 21/16 A3014 RMK AO2 SLP200 T02060156 $
2026-04-01 11:53:00,METAR KBNA 011153Z 19008KT 10SM BKN080 19/15 A3011 RMK AO2 SLP191 T01940150 10211 20183 53017 $
2026-04-01 10:53:00,METAR KBNA 011053Z 20005KT 10SM FEW080 19/14 A3009 RMK AO2 SLP185 T01890144 $
2026-04-01 09:53:00,METAR KBNA 010953Z 19003KT 10SM FEW250 18/14 A3007 RMK AO2 SLP178 T01830144 $
2026-04-01 08:53:00,METAR KBNA 010853Z 19004KT 10SM FEW250 19/14 A3006 RMK AO2 SLP173 T01890139 57006 $
2026-04-01 07:53:00,METAR KBNA 010753Z 18008KT 10SM BKN100 20/14 A3007 RMK AO2 SLP174 T02000144 $
2026-04-01 06:53:00,METAR KBNA 010653Z 19007KT 10SM BKN090 20/14 A3007 RMK AO2 SLP178 T02000144 $
2026-04-01 05:53:00,METAR KBNA 010553Z 20008KT 10SM BKN100 21/14 A3008 RMK AO2 SLP178 T02110139 10250 20211 402720161 58003 $
2026-04-01 04:53:00,METAR KBNA 010453Z 20010KT 10SM SCT250 22/14 A3009 RMK AO2 SLP183 T02170139
2026-04-01 03:53:00,METAR KBNA 010353Z 19012KT 10SM FEW250 22/14 A3009 RMK AO2 SLP183 T02170139
2026-04-01 02:53:00,METAR KBNA 010253Z 21008KT 10SM FEW250 22/14 A3009 RMK AO2 SLP182 T02170139 51006
2026-04-01 01:53:00,METAR KBNA 010153Z 19010KT 10SM FEW250 23/14 A3008 RMK AO2 SLP182 T02280139
2026-04-01 00:53:00,METAR KBNA 010053Z 18010KT 10SM FEW055 FEW250 23/14 A3007 RMK AO2 SLP177 T02330139
2026-03-31 23:53:00,METAR KBNA 312353Z 20010KT 10SM FEW060 SCT250 25/13 A3007 RMK AO2 SLP177 T02500133 10272 20250 56010
2026-03-31 22:53:00,METAR KBNA 312253Z 20009G20KT 10SM SCT065 SCT250 26/13 A3007 RMK AO2 SLP177 T02610133
2026-03-31 21:53:00,METAR KBNA 312153Z 20014G20KT 10SM SCT055 SCT080 BKN250 27/14 A3008 RMK AO2 SLP181 T02670139
2026-03-31 20:53:00,METAR KBNA 312053Z 19010KT 10SM SCT049 BKN060 BKN075 26/13 A3010 RMK AO2 SLP186 T02610133 56019
2026-03-31 19:53:00,METAR KBNA 311953Z 19015G20KT 10SM SCT046 BKN065 26/14 A3010 RMK AO2 PK WND 20028/1907 SLP188 T02610139
2026-03-31 18:53:00,METAR KBNA 311853Z 24011G21KT 10SM BKN042 BKN250 26/14 A3013 RMK AO2 PK WND 20031/1803 SLP198 T02560139
2026-03-31 17:53:00,METAR KBNA 311753Z 22015G29KT 10SM BKN033 BKN250 26/14 A3015 RMK AO2 PK WND 20031/1725 SLP205 T02560144 10261 20161 58008
2026-03-31 16:53:00,METAR KBNA 311653Z 23012G24KT 10SM BKN030 BKN250 26/15 A3017 RMK AO2 PK WND 18027/1619 SLP211 T02560150
2026-03-31 15:53:00,METAR KBNA 311553Z 23008G20KT 10SM SCT027 SCT250 24/16 A3018 RMK AO2 SLP214 T02390156
2026-03-31 14:53:00,METAR KBNA 311453Z 22011G21KT 10SM SCT045 SCT250 23/15 A3018 RMK AO2 SLP214 T02280150 58001
2026-03-31 13:53:00,METAR KBNA 311353Z 19015G22KT 10SM FEW043 FEW250 22/14 A3018 RMK AO2 SLP214 T02170144
2026-03-31 12:53:00,METAR KBNA 311253Z 18008KT 10SM FEW040 FEW100 SCT250 19/14 A3019 RMK AO2 SLP217 T01940144
2026-03-31 11:53:00,METAR KBNA 311153Z 18005KT 10SM FEW100 SCT250 16/14 A3018 RMK AO2 SLP215 T01610139 10194 20161 51014
2026-03-31 10:53:00,METAR KBNA 311053Z 18006KT 10SM CLR 17/14 A3017 RMK AO2 SLP211 T01720139
2026-03-31 09:53:00,METAR KBNA 310953Z 17004KT 10SM CLR 17/13 A3015 RMK AO2 SLP206 T01720133
2026-03-31 08:53:00,METAR KBNA 310853Z 19008KT 10SM CLR 18/14 A3014 RMK AO2 SLP200 T01830139 53001
2026-03-31 07:53:00,METAR KBNA 310753Z 18008KT 10SM CLR 19/14 A3013 RMK AO2 SLP198 T01890139
2026-03-31 06:53:00,METAR KBNA 310653Z 19010KT 10SM CLR 19/13 A3013 RMK AO2 SLP198 T01940133
2026-03-31 05:53:00,METAR KBNA 310553Z 18004KT 10SM CLR 18/13 A3014 RMK AO2 SLP200 T01780128 10222 20178 402500144 56005
2026-03-31 04:53:00,METAR KBNA 310453Z 17008KT 10SM CLR 19/13 A3014 RMK AO2 SLP201 T01890128
2026-03-31 03:53:00,METAR KBNA 310353Z 17011KT 10SM FEW150 19/13 A3014 RMK AO2 SLP202 T01940128
2026-03-31 02:53:00,METAR KBNA 310253Z 16006KT 10SM FEW055 19/13 A3015 RMK AO2 SLP206 T01890128 50003
2026-03-31 01:53:00,METAR KBNA 310153Z 17007KT 10SM FEW055 20/13 A3015 RMK AO2 SLP205 T02000128
2026-03-31 00:53:00,METAR KBNA 310053Z 17008KT 10SM FEW055 20/13 A3014 RMK AO2 SLP203 T02000128
2026-03-30 23:53:00,METAR KBNA 302353Z 18011KT 10SM FEW060 22/13 A3014 RMK AO2 SLP202 T02220128 10250 20217 57008
2026-03-30 22:53:00,METAR KBNA 302253Z 18011KT 10SM FEW042 BKN060 23/13 A3015 RMK AO2 PK WND 20030/2203 SLP204 T02280128
2026-03-30 21:53:00,METAR KBNA 302153Z 19010G19KT 10SM BKN042 BKN050 BKN250 23/13 A3016 RMK AO2 SLP208 T02330128
2026-03-30 20:53:00,METAR KBNA 302053Z 20013G20KT 10SM BKN044 24/13 A3016 RMK AO2 SLP210 T02390128 58030
2026-03-30 19:53:00,METAR KBNA 301953Z 21013G22KT 10SM BKN038 BKN250 24/13 A3019 RMK AO2 SLP219 T02390128
2026-03-30 18:53:00,METAR KBNA 301853Z 21013G21KT 10SM BKN036 BKN070 BKN250 22/12 A3023 RMK AO2 SLP233 T02220122
2026-03-30 17:53:00,METAR KBNA 301753Z 20012G20KT 10SM BKN033 BKN070 BKN250 22/12 A3025 RMK AO2 SLP240 T02170122 10222 20150 58017
2026-03-30 16:53:00,METAR KBNA 301653Z 22011G21KT 10SM SCT030 BKN065 BKN250 21/12 A3028 RMK AO2 SLP249 T02060122
2026-03-30 15:53:00,METAR KBNA 301553Z 21012G21KT 10SM BKN047 BKN065 BKN250 19/12 A3030 RMK AO2 PK WND 20026/1456 SLP256 T01940117
2026-03-30 14:53:00,METAR KBNA 301453Z 21010G26KT 10SM BKN034 BKN044 BKN070 BKN250 18/11 A3030 RMK AO2 PK WND 19026/1444 SLP259 T01780111 51006
2026-03-30 13:53:00,METAR KBNA 301353Z 20013G20KT 10SM BKN033 BKN070 BKN130 BKN250 17/11 A3030 RMK AO2 SLP258 T01720106
2026-03-30 12:53:00,METAR KBNA 301253Z COR 19009KT 10SM SCT030 BKN070 BKN130 BKN250 16/11 A3031 RMK AO2 SLP259 T01560106
2026-03-30 11:53:00,METAR KBNA 301153Z 19011G18KT 10SM BKN070 BKN130 BKN250 15/10 A3029 RMK AO2 SLP252 T01500100 10156 20144 53011
2026-03-30 10:53:00,METAR KBNA 301053Z 19010G18KT 10SM BKN120 15/10 A3027 RMK AO2 SLP245 T01500100
2026-03-30 09:53:00,METAR KBNA 300953Z 18013G17KT 10SM BKN120 14/09 A3026 RMK AO2 SLP243 T01440094
2026-03-30 08:53:00,METAR KBNA 300853Z 19013KT 10SM SCT120 14/09 A3025 RMK AO2 SLP240 T01440094 56006
2026-03-30 07:53:00,METAR KBNA 300753Z 19013KT 10SM FEW080 15/09 A3026 RMK AO2 SLP242 T01500089
2026-03-30 06:53:00,METAR KBNA 300653Z 18014G21KT 10SM FEW080 15/09 A3026 RMK AO2 SLP244 T01500089
2026-03-30 05:53:00,METAR KBNA 300553Z 18017KT 10SM CLR 16/09 A3027 RMK AO2 PK WND 18027/0517 SLP247 T01560089 10200 20156 402280022 58000
2026-03-30 04:53:00,METAR KBNA 300453Z 18014G28KT 10SM FEW080 16/09 A3029 RMK AO2 PK WND 19028/0449 SLP252 T01610089
2026-03-30 03:53:00,METAR KBNA 300353Z 18011KT 10SM CLR 17/08 A3028 RMK AO2 PK WND 19026/0342 SLP251 T01720083
2026-03-30 02:53:00,METAR KBNA 300253Z 18012G22KT 10SM CLR 18/08 A3027 RMK AO2 SLP247 T01780083 53010
2026-03-30 01:53:00,METAR KBNA 300153Z 17009KT 10SM CLR 18/07 A3026 RMK AO2 SLP243 T01780072
2026-03-30 00:53:00,METAR KBNA 300053Z 17007KT 10SM SCT250 18/07 A3023 RMK AO2 SLP237 T01780067
2026-03-29 23:53:00,METAR KBNA 292353Z 18009KT 10SM CLR 20/06 A3024 RMK AO2 SLP239 T02000061 10228 20200 56008
2026-03-29 22:53:00,METAR KBNA 292253Z 20012G20KT 10SM SCT250 22/06 A3024 RMK AO2 PK WND 19027/2223 SLP239 T02170056
2026-03-29 21:53:00,METAR KBNA 292153Z 19013G21KT 10SM SCT250 22/05 A3024 RMK AO2 PK WND 18026/2108 SLP239 T02220050
2026-03-29 20:53:00,METAR KBNA 292053Z 19017G23KT 10SM BKN250 23/04 A3026 RMK AO2 PK WND 18026/2003 SLP247 T02280039 56031
2026-03-29 19:53:00,METAR KBNA 291953Z 18016G22KT 10SM BKN250 22/04 A3029 RMK AO2 PK WND 20030/1910 SLP256 T02220039
2026-03-29 18:53:00,METAR KBNA 291853Z 19013G24KT 10SM SCT050 BKN250 21/03 A3032 RMK AO2 SLP267 T02110033
2026-03-29 17:53:00,METAR KBNA 291753Z 18015G21KT 10SM SCT050 BKN250 21/02 A3036 RMK AO2 PK WND 21028/1720 SLP279 T02060022 10206 20044 58015
2026-03-29 16:53:00,METAR KBNA 291653Z 17015KT 10SM FEW080 SCT250 19/01 A3039 RMK AO2 PK WND 18026/1622 SLP288 T01940011
2026-03-29 14:53:00,METAR KBNA 291453Z 17012G24KT 10SM FEW140 FEW250 16/M02 A3040 RMK AO2 PK WND 15030/1431 SLP294 T01561022 51007
2026-03-29 13:53:00,METAR KBNA 291353Z 17013G22KT 10SM FEW140 FEW250 13/M03 A3040 RMK AO2 SLP293 T01281028
2026-03-29 12:53:00,METAR KBNA 291253Z 17007KT 10SM BKN140 BKN250 10/M02 A3040 RMK AO2 SLP292 T01001017
2026-03-29 11:53:00,METAR KBNA 291153Z 18004KT 10SM FEW050 SCT120 SCT250 04/M02 A3038 RMK AO2 SLP288 T00441022 10078 20022 53003
2026-03-29 10:53:00,METAR KBNA 291053Z 19004KT 10SM FEW050 SCT120 04/M01 A3037 RMK AO2 SLP286 T00391006
2026-03-29 09:53:00,METAR KBNA 290953Z 19004KT 10SM FEW055 02/M02 A3037 RMK AO2 SLP283 T00221017
2026-03-29 08:53:00,METAR KBNA 290853Z 17003KT 10SM FEW050 03/M02 A3037 RMK AO2 SLP285 T00331017 55005
2026-03-29 07:53:00,METAR KBNA 290753Z 18003KT 10SM CLR 04/M02 A3037 RMK AO2 SLP285 T00391022
2026-03-29 06:53:00,METAR KBNA 290653Z 00000KT 10SM CLR 05/M04 A3038 RMK AO2 SLP288 T00501044
2026-03-29 05:53:00,METAR KBNA 290553Z 00000KT 10SM CLR 07/M06 A3039 RMK AO2 SLP290 T00671056 10133 20056 401610028 56005
2026-03-29 04:53:00,METAR KBNA 290453Z 00000KT 10SM CLR 09/M07 A3039 RMK AO2 SLP291 T00891067
2026-03-29 03:53:00,METAR KBNA 290353Z 07005KT 10SM CLR 09/M07 A3039 RMK AO2 SLP293 T00891067
2026-03-29 02:53:00,METAR KBNA 290253Z 06005KT 10SM CLR 09/M07 A3040 RMK AO2 SLP296 T00941067 57001
2026-03-29 01:53:00,METAR KBNA 290153Z 05005KT 10SM CLR 11/M07 A3041 RMK AO2 SLP297 T01061067
2026-03-29 00:53:00,METAR KBNA 290053Z 03006KT 10SM CLR 11/M07 A3040 RMK AO2 SLP295 T01111072
2026-03-28 23:53:00,METAR KBNA 282353Z 04008KT 10SM CLR 13/M08 A3040 RMK AO2 SLP297 T01331078 10161 20128 56016
2026-03-28 22:53:00,METAR KBNA 282253Z 05006KT 10SM CLR 14/M08 A3042 RMK AO2 SLP301 T01441083
2026-03-28 21:53:00,METAR KBNA 282153Z 05010G15KT 10SM CLR 16/M08 A3043 RMK AO2 SLP305 T01561078
2026-03-28 20:53:00,METAR KBNA 282053Z 06008KT 020V090 10SM CLR 16/M08 A3045 RMK AO2 SLP312 T01561083 58030
2026-03-28 19:53:00,METAR KBNA 281953Z 06012G18KT 10SM CLR 15/M07 A3048 RMK AO2 SLP323 T01501072
2026-03-28 18:53:00,METAR KBNA 281853Z 07012G18KT 10SM CLR 14/M07 A3052 RMK AO2 SLP333 T01441072
2026-03-28 17:53:00,METAR KBNA 281753Z 04012G19KT 10SM CLR 13/M06 A3054 RMK AO2 PK WND 02030/1707 SLP343 T01331061 10133 20033 58016
2026-03-28 16:53:00,METAR KBNA 281653Z 06012G18KT 10SM CLR 11/M05 A3057 RMK AO2 SLP352 T01111050
2026-03-28 15:53:00,METAR KBNA 281553Z 06010KT 10SM CLR 09/M06 A3059 RMK AO2 SLP359 T00941056
2026-03-28 14:53:00,METAR KBNA 281453Z 06013KT 10SM CLR 08/M04 A3059 RMK AO2 SLP360 T00831044 51008
2026-03-28 13:53:00,METAR KBNA 281353Z 05011G21KT 10SM CLR 07/M04 A3059 RMK AO2 SLP359 T00671039
2026-03-28 12:53:00,METAR KBNA 281253Z 06009KT 10SM CLR 05/M03 A3058 RMK AO2 SLP357 T00501033
2026-03-28 11:53:00,METAR KBNA 281153Z 04008KT 10SM CLR 03/M03 A3057 RMK AO2 SLP352 T00331028 10056 20028 53015
2026-03-28 10:53:00,METAR KBNA 281053Z 04007KT 10SM CLR 03/M03 A3055 RMK AO2 SLP347 T00331028
2026-03-28 09:53:00,METAR KBNA 280953Z 03010KT 10SM CLR 04/M02 A3053 RMK AO2 SLP339 T00441022
2026-03-28 08:53:00,METAR KBNA 280853Z 04009KT 10SM CLR 04/M02 A3052 RMK AO2 SLP336 T00441017 51007
2026-03-28 07:53:00,METAR KBNA 280753Z 03010KT 10SM CLR 05/M01 A3051 RMK AO2 SLP333 T00501011
2026-03-28 06:53:00,METAR KBNA 280653Z 02014KT 10SM FEW034 05/M01 A3051 RMK AO2 PK WND 01026/0605 SLP332 T00501011
2026-03-28 05:53:00,METAR KBNA 280553Z 35013KT 10SM FEW034 06/M01 A3050 RMK AO2 PK WND 01028/0454 SLP328 T00561011 10100 20056 402330056 51012
2026-03-28 04:53:00,METAR KBNA 280453Z 35014G24KT 10SM SCT030 06/00 A3050 RMK AO2 PK WND 36028/0442 SLP325 T00610000
2026-03-28 03:53:00,METAR KBNA 280353Z 35014G25KT 10SM FEW030 FEW250 07/01 A3048 RMK AO2 PK WND 36028/0337 SLP320 T00670006
2026-03-28 02:53:00,METAR KBNA 280253Z 35014G19KT 10SM FEW025 07/02 A3047 RMK AO2 PK WND 35031/0200 SLP314 T00720022 53035
2026-03-28 01:53:00,METAR KBNA 280153Z 35016G34KT 10SM SCT025 08/03 A3043 RMK AO2 PK WND 01034/0145 SLP302 T00830028
2026-03-28 01:25:00,SPECI KBNA 280125Z 36016G29KT 10SM SCT025 09/03 A3041 RMK AO2 PK WND 01031/0102 T00890028
2026-03-28 00:53:00,METAR KBNA 280053Z 35015G24KT 10SM FEW013 OVC021 09/04 A3040 RMK AO2 PK WND 01028/0049 SLP290 T00940044
2026-03-28 00:32:00,SPECI KBNA 280032Z 35013G25KT 10SM SCT013 OVC021 09/05 A3038 RMK AO2 PK WND 36027/0010 T00940050
2026-03-27 23:53:00,METAR KBNA 272353Z 34012G25KT 10SM OVC012 09/06 A3036 RMK AO2 PK WND 01026/2349 SLP280 T00940061 10167 20094 51041
2026-03-27 22:53:00,METAR KBNA 272253Z 33011KT 9SM OVC012 10/07 A3032 RMK AO2 PK WND 02027/2158 SLP266 T01000072
2026-03-27 22:45:00,SPECI KBNA 272245Z 34011KT 10SM OVC013 10/07 A3032 RMK AO2 PK WND 02027/2158 T01000072
2026-03-27 21:53:00,METAR KBNA 272153Z 34014G27KT 10SM OVC018 12/07 A3028 RMK AO2 PK WND 31032/2111 SLP250 T01220072
2026-03-27 20:53:00,METAR KBNA 272053Z 34012G26KT 10SM OVC018 13/08 A3024 RMK AO2 PK WND 01034/2050 SLP236 T01330083 53020
2026-03-27 19:53:00,METAR KBNA 271953Z 34013G24KT 10SM OVC020 15/09 A3020 RMK AO2 PK WND 36029/1926 SLP224 T01500089
2026-03-27 18:53:00,METAR KBNA 271853Z 34013G26KT 10SM OVC018 16/10 A3019 RMK AO2 PK WND 36030/1814 SLP220 T01560100
2026-03-27 17:53:00,METAR KBNA 271753Z 33014G21KT 10SM OVC019 17/11 A3018 RMK AO2 PK WND 36029/1723 SLP214 T01670106 10233 20167 53039 $
2026-03-27 17:15:00,SPECI KBNA 271715Z 32016G24KT 10SM BKN024 OVC046 18/11 A3015 RMK AO2 T01830111 $
2026-03-27 16:53:00,METAR KBNA 271653Z 33015G22KT 10SM BKN038 OVC060 19/12 A3013 RMK AO2 SLP198 T01940117 $
2026-03-25 14:53:00,METAR KBNA 251453Z 17011G19KT 10SM FEW070 SCT150 SCT250 18/06 A3020 RMK AO2 SLP222 T01780056 50007
2026-03-25 13:53:00,METAR KBNA 251353Z 17012KT 10SM BKN070 BKN170 16/04 A3020 RMK AO2 SLP225 T01560044
2026-03-25 12:53:00,METAR KBNA 251253Z 17007KT 10SM BKN070 BKN150 14/04 A3021 RMK AO2 SLP227 T01440039
2026-03-25 11:53:00,METAR KBNA 251153Z 18007KT 10SM BKN075 BKN150 BKN200 13/03 A3018 RMK AO2 SLP216 T01280028 10128 20089 53005
2026-03-25 10:53:00,METAR KBNA 251053Z 16008KT 10SM FEW080 SCT200 11/02 A3017 RMK AO2 SLP213 T01110022
2026-03-25 09:53:00,METAR KBNA 250953Z 17005KT 10SM FEW090 SCT200 09/02 A3016 RMK AO2 SLP212 T00940022
2026-03-25 08:53:00,METAR KBNA 250853Z 18003KT 10SM SCT200 10/02 A3016 RMK AO2 SLP210 T01000017 56008
2026-03-25 07:53:00,METAR KBNA 250753Z 00000KT 10SM BKN250 11/01 A3017 RMK AO2 SLP213 T01110006
2026-03-25 06:53:00,METAR KBNA 250653Z 00000KT 10SM BKN200 12/00 A3017 RMK AO2 SLP215 T01220000
2026-03-25 05:53:00,METAR KBNA 250553Z 03004KT 10SM SCT200 13/M01 A3019 RMK AO2 SLP219 T01281006 10178 20128 402110056 58006
2026-03-25 04:53:00,METAR KBNA 250453Z 00000KT 10SM BKN140 14/M02 A3019 RMK AO2 SLP221 T01441017
2026-03-25 03:53:00,METAR KBNA 250353Z 00000KT 10SM BKN140 14/M02 A3020 RMK AO2 SLP226 T01441017
2026-03-25 02:53:00,METAR KBNA 250253Z 06007KT 10SM BKN140 BKN250 15/M02 A3020 RMK AO2 SLP226 T01501022 55000
2026-03-25 01:53:00,METAR KBNA 250153Z 05008KT 10SM BKN140 BKN250 16/M02 A3020 RMK AO2 SLP224 T01561017
2026-03-25 00:53:00,METAR KBNA 250053Z 07005KT 10SM SCT150 BKN250 16/M03 A3019 RMK AO2 SLP223 T01611033
2026-03-24 23:53:00,METAR KBNA 242353Z COR 01007KT 10SM FEW150 BKN250 17/M04 A3020 RMK AO2 SLP227 T01721044 10211 20167 53008
2026-03-24 22:53:00,METAR KBNA 242253Z 01010KT 10SM BKN250 18/M04 A3018 RMK AO2 SLP218 T01831044
2026-03-24 21:53:00,METAR KBNA 242153Z 36007KT 10SM BKN250 20/M04 A3017 RMK AO2 SLP214 T02001039
2026-03-24 20:53:00,METAR KBNA 242053Z 00000KT 10SM BKN250 20/M06 A3018 RMK AO2 SLP217 T02001056 56022
2026-03-24 19:53:00,METAR KBNA 241953Z VRB04KT 10SM BKN250 19/M04 A3019 RMK AO2 SLP221 T01941044
2026-03-24 18:53:00,METAR KBNA 241853Z 10005KT 10SM BKN250 18/M05 A3022 RMK AO2 SLP230 T01831050
2026-03-24 17:53:00,METAR KBNA 241753Z VRB05KT 10SM BKN250 17/M04 A3024 RMK AO2 SLP239 T01721039 10183 20056 58032
2026-03-24 16:53:00,METAR KBNA 241653Z 11007KT 10SM SCT250 16/M03 A3028 RMK AO2 SLP251 T01561033
2026-03-24 15:53:00,METAR KBNA 241553Z 04004KT 10SM FEW180 FEW250 13/M01 A3031 RMK AO2 SLP264 T01331006
2026-03-24 14:53:00,METAR KBNA 241453Z 02006KT 10SM FEW170 SCT250 11/M01 A3034 RMK AO2 SLP273 T01061006 53009
2026-03-24 13:53:00,METAR KBNA 241353Z 07007KT 10SM FEW170 SCT250 08/M01 A3032 RMK AO2 SLP267 T00831011
2026-03-24 12:53:00,METAR KBNA 241253Z 05004KT 10SM FEW150 SCT250 07/M01 A3032 RMK AO2 SLP267 T00671011
2026-03-24 11:53:00,METAR KBNA 241153Z 05008KT 10SM FEW150 SCT200 06/M01 A3031 RMK AO2 SLP264 T00561011 10089 20056 53001 $
2026-03-24 10:53:00,METAR KBNA 241053Z 06011KT 10SM BKN200 06/M02 A3030 RMK AO2 PRESFR SLP259 T00611017 $
2026-03-24 09:53:00,METAR KBNA 240953Z 04009KT 10SM BKN150 07/M01 A3032 RMK AO2 SLP267 T00671011
2026-03-24 08:53:00,METAR KBNA 240853Z 04010KT 10SM BKN200 07/M02 A3031 RMK AO2 SLP263 T00671017 50005
2026-03-24 07:53:00,METAR KBNA 240753Z 04008KT 10SM SCT200 07/M02 A3032 RMK AO2 SLP267 T00671017
2026-03-24 06:53:00,METAR KBNA 240653Z 05013KT 10SM SCT200 08/M02 A3030 RMK AO2 SLP260 T00781022
2026-03-24 05:53:00,METAR KBNA 240553Z 05012KT 10SM BKN200 09/M04 A3029 RMK AO2 SLP258 T00891039 10144 20089 402500072 58003
2026-03-24 04:53:00,METAR KBNA 240453Z 05011KT 10SM SCT250 09/M03 A3030 RMK AO2 SLP260 T00941033
2026-03-24 03:53:00,METAR KBNA 240353Z 02009KT 10SM CLR 10/M02 A3030 RMK AO2 SLP261 T01001022
2026-03-24 02:53:00,METAR KBNA 240253Z 01008KT 10SM FEW250 11/M02 A3030 RMK AO2 SLP262 T01061022 53016
2026-03-24 01:53:00,METAR KBNA 240153Z 02011KT 10SM FEW180 SCT250 12/M03 A3028 RMK AO2 SLP254 T01221033
2026-03-24 00:53:00,METAR KBNA 240053Z 02009KT 10SM SCT180 BKN250 13/M03 A3027 RMK AO2 SLP251 T01331033
2026-03-23 23:53:00,METAR KBNA 232353Z 04014KT 10SM SCT210 SCT250 14/M04 A3026 RMK AO2 PK WND 02028/2318 SLP245 T01441044 10167 20133 56003
2026-03-23 22:53:00,METAR KBNA 232253Z 36013KT 10SM SCT200 SCT250 16/M02 A3026 RMK AO2 PK WND 02033/2157 SLP244 T01561017
2026-03-23 21:53:00,METAR KBNA 232153Z 36015G29KT 10SM SCT250 16/M01 A3026 RMK AO2 PK WND 36032/2108 SLP244 T01611011
2026-03-23 20:53:00,METAR KBNA 232053Z 03011G28KT 10SM BKN250 16/00 A3027 RMK AO2 PK WND 02030/2008 SLP247 T01610000 58002
2026-03-23 19:53:00,METAR KBNA 231953Z 02013G28KT 10SM SCT250 16/02 A3026 RMK AO2 PK WND 02028/1946 SLP246 T01560017
2026-03-23 18:53:00,METAR KBNA 231853Z 01010G26KT 10SM FEW036 SCT250 15/02 A3028 RMK AO2 PK WND 01027/1817 SLP250 T01500017
2026-03-23 17:53:00,METAR KBNA 231753Z 35013G19KT 10SM FEW034 SCT250 13/02 A3027 RMK AO2 SLP246 T01280017 10133 20072 50010 $
2026-03-23 16:53:00,METAR KBNA 231653Z 36014G27KT 10SM BKN030 12/02 A3027 RMK AO2 PK WND 02029/1628 SLP247 T01220022
2026-03-23 16:46:00,SPECI KBNA 231646Z 01015G27KT 10SM BKN030 12/02 A3027 RMK AO2 PK WND 02029/1628 T01170022
2026-03-23 15:53:00,METAR KBNA 231553Z 35014G27KT 10SM BKN025 10/02 A3027 RMK AO2 PK WND 36029/1552 SLP246 T01000017
2026-03-23 14:53:00,METAR KBNA 231453Z 35013G29KT 10SM OVC019 08/03 A3024 RMK AO2 PK WND 02029/1446 SLP236 T00830028 51038
2026-03-23 13:53:00,METAR KBNA 231353Z 35012G26KT 10SM BKN015 OVC020 08/03 A3020 RMK AO2 PK WND 01026/1341 SLP223 T00780028 $
2026-03-23 12:53:00,METAR KBNA 231253Z 34013G26KT 8SM OVC011 07/03 A3017 RMK AO2 PK WND 01027/1238 SLP212 T00720033 $
2026-03-23 11:53:00,METAR KBNA 231153Z 34014G30KT 10SM OVC012 08/04 A3013 RMK AO2 PK WND 36030/1149 SLP198 T00780039 10250 20078 53049 $
2026-03-23 11:25:00,SPECI KBNA 231125Z 35014G24KT 10SM OVC014 08/04 A3010 RMK AO2 PK WND 36026/1105 T00830044 $
2026-03-23 10:53:00,METAR KBNA 231053Z 34011G25KT 10SM OVC017 09/04 A3007 RMK AO2 PK WND 34030/1003 SLP179 T00940044 $
2026-03-23 09:53:00,METAR KBNA 230953Z 33012KT 10SM OVC017 11/06 A3002 RMK AO2 SLP162 T01060056 $
2026-03-23 09:19:00,SPECI KBNA 230919Z 34012G20KT 10SM BKN020 BKN110 11/06 A2999 RMK AO2 T01110061 $
2026-03-23 08:53:00,METAR KBNA 230853Z 32013G20KT 10SM FEW030 SCT110 12/06 A2998 RMK AO2 PK WND 34027/0829 SLP145 T01170056 53043 $
2026-03-23 07:53:00,METAR KBNA 230753Z 34015G26KT 10SM FEW030 14/07 A2994 RMK AO2 PK WND 34028/0724 SLP133 T01440072 $
2026-03-23 06:53:00,METAR KBNA 230653Z 34012G25KT 10SM CLR 22/10 A2987 RMK AO2 PK WND 36027/0641 SLP106 T02170100 $
2026-03-23 05:53:00,METAR KBNA 230553Z 25007KT 10SM CLR 24/09 A2985 RMK AO2 SLP099 T02440094 10289 20244 403110178 51020 $
2026-03-23 04:53:00,METAR KBNA 230453Z 23005KT 10SM CLR 25/09 A2984 RMK AO2 SLP095 T02500089 $
2026-03-23 03:53:00,METAR KBNA 230353Z 23007G16KT 190V260 10SM CLR 26/09 A2981 RMK AO2 SLP087 T02560094 $
2026-03-23 02:53:00,METAR KBNA 230253Z 22008G17KT 10SM CLR 26/09 A2979 RMK AO2 SLP080 T02610094 51006 $
2026-03-23 01:53:00,METAR KBNA 230153Z 21012G19KT 10SM CLR 27/11 A2979 RMK AO2 SLP079 T02720106 $
2026-03-23 00:53:00,METAR KBNA 230053Z 21010G22KT 10SM CLR 28/12 A2978 RMK AO2 SLP077 T02780117 $
2026-03-22 23:53:00,METAR KBNA 222353Z 21012G23KT 10SM CLR 29/12 A2977 RMK AO2 SLP073 T02890122 10311 20289 55000 $
2026-03-22 22:53:00,METAR KBNA 222253Z 21014G21KT 10SM CLR 30/12 A2976 RMK AO2 SLP071 T03000117 $
2026-03-22 21:53:00,METAR KBNA 222153Z 20016G28KT 10SM CLR 31/12 A2976 RMK AO2 PK WND 20030/2119 SLP069 T03060122 $
2026-03-22 20:53:00,METAR KBNA 222053Z 20017G25KT 10SM CLR 31/14 A2977 RMK AO2 PK WND 19033/2001 SLP074 T03110139 56024 $
2026-03-22 19:53:00,METAR KBNA 221953Z 20015G27KT 10SM FEW250 31/14 A2979 RMK AO2 PK WND 20027/1950 SLP080 T03110139 $
2026-03-22 18:53:00,METAR KBNA 221853Z 24011G22KT 10SM FEW065 30/14 A2981 RMK AO2 SLP088 T03000139 $
2026-03-22 17:53:00,METAR KBNA 221753Z 22014G24KT 10SM FEW060 29/14 A2984 RMK AO2 SLP098 T02940144 10294 20189 58015 $
2026-03-22 16:53:00,METAR KBNA 221653Z 19014G19KT 10SM CLR 28/14 A2986 RMK AO2 SLP104 T02780144 $
2026-03-22 15:53:00,METAR KBNA 221553Z 21012KT 10SM FEW250 26/14 A2988 RMK AO2 SLP110 T02560144 $
2026-03-22 14:53:00,METAR KBNA 221453Z 21010G20KT 10SM FEW250 24/14 A2989 RMK AO2 SLP113 T02390139 51003 $
2026-03-22 13:53:00,METAR KBNA 221353Z 22008KT 10SM CLR 22/14 A2988 RMK AO2 SLP114 T02220139 $
2026-03-22 12:53:00,METAR KBNA 221253Z 21008KT 10SM CLR 20/13 A2989 RMK AO2 SLP113 T02000133 $
2026-03-22 11:53:00,METAR KBNA 221153Z 21007KT 10SM CLR 18/13 A2988 RMK AO2 SLP110 T01830133 10217 20178 53005 $
2026-03-22 10:53:00,METAR KBNA 221053Z 21007KT 10SM CLR 18/13 A2987 RMK AO2 SLP107 T01830133 $
2026-03-22 09:53:00,METAR KBNA 220953Z 20008KT 10SM CLR 19/13 A2986 RMK AO2 SLP106 T01940133 $
2026-03-22 08:53:00,METAR KBNA 220853Z 20008KT 10SM CLR 19/13 A2986 RMK AO2 SLP105 T01940133 58009 $
2026-03-22 07:53:00,METAR KBNA 220753Z 20007KT 10SM CLR 20/13 A2987 RMK AO2 SLP109 T02000133 $
2026-03-22 06:53:00,METAR KBNA 220653Z 20006KT 10SM CLR 20/13 A2989 RMK AO2 SLP113 T02000128 $
2026-03-22 05:53:00,METAR KBNA 220553Z 20006KT 10SM CLR 22/13 A2989 RMK AO2 SLP115 T02170128 10283 20211 403170150 50002 $
2026-03-22 04:53:00,METAR KBNA 220453Z 21006KT 10SM CLR 23/13 A2989 RMK AO2 SLP115 T02330128 $
2026-03-22 03:53:00,METAR KBNA 220353Z 22007KT 10SM CLR 24/12 A2989 RMK AO2 SLP115 T02440122 $
2026-03-22 02:53:00,METAR KBNA 220253Z 21007KT 10SM FEW250 24/12 A2988 RMK AO2 SLP112 T02440117 51013 $
2026-03-22 01:53:00,METAR KBNA 220153Z 20007KT 10SM FEW250 23/12 A2988 RMK AO2 SLP111 T02330122 $
2026-03-22 00:53:00,METAR KBNA 220053Z 22006KT 10SM FEW120 FEW250 26/12 A2986 RMK AO2 SLP105 T02610117 $
2026-03-21 23:53:00,METAR KBNA 212353Z 23003KT 10SM FEW150 SCT250 28/09 A2985 RMK AO2 SLP100 T02830089 10317 20278 53003 $
2026-03-21 22:53:00,METAR KBNA 212253Z 27007G15KT 230V300 10SM FEW090 SCT250 30/09 A2983 RMK AO2 SLP096 T03000094 $
2026-03-21 21:53:00,METAR KBNA 212153Z 23008KT 9SM FEW090 SCT250 31/11 A2983 RMK AO2 SLP094 T03060111 $
2026-03-21 20:53:00,METAR KBNA 212053Z 23005G17KT 10SM FEW075 FEW120 SCT250 31/12 A2984 RMK AO2 SLP096 T03110122 56022 $
2026-03-21 19:53:00,METAR KBNA 211953Z 19014G19KT 10SM FEW120 FEW180 SCT250 31/13 A2985 RMK AO2 SLP101 T03110128 $
2026-03-21 18:53:00,METAR KBNA 211853Z 20008KT 10SM SCT180 SCT250 29/13 A2988 RMK AO2 SLP111 T02940128 $
2026-03-21 17:53:00,METAR KBNA 211753Z 20012G18KT 10SM FEW180 SCT250 28/13 A2990 RMK AO2 SLP119 T02830128 10283 20156 58016 $
2026-03-21 16:53:00,METAR KBNA 211653Z 21008KT 10SM SCT180 SCT250 26/12 A2993 RMK AO2 SLP128 T02610122 $
2026-03-21 15:53:00,METAR KBNA 211553Z VRB04KT 10SM FEW250 25/12 A2995 RMK AO2 SLP133 T02500122 $
2026-03-21 14:53:00,METAR KBNA 211453Z 25010KT 10SM FEW250 23/12 A2995 RMK AO2 SLP136 T02330117 50003 $
2026-03-21 13:53:00,METAR KBNA 211353Z 17005KT 10SM SCT250 21/12 A2995 RMK AO2 SLP137 T02060117 $
2026-03-21 12:53:00,METAR KBNA 211253Z 19005KT 10SM SCT250 17/11 A2995 RMK AO2 SLP137 T01720111 $
2026-03-21 11:53:00,METAR KBNA 211153Z 20006KT 10SM FEW200 FEW250 16/10 A2994 RMK AO2 SLP133 T01610100 10217 20150 50002 $
2026-03-21 10:53:00,METAR KBNA 211053Z 21005KT 10SM SCT250 17/10 A2994 RMK AO2 SLP134 T01670100 $
2026-03-21 09:53:00,METAR KBNA 210953Z 25003KT 10SM SCT250 19/10 A2995 RMK AO2 SLP134 T01940100 $
2026-03-21 08:53:00,METAR KBNA 210853Z 25004KT 10SM FEW250 21/09 A2994 RMK AO2 SLP131 T02060094 56005 $
2026-03-21 07:53:00,METAR KBNA 210753Z 23004KT 10SM FEW250 21/10 A2994 RMK AO2 SLP132 T02110100 $
2026-03-21 06:53:00,METAR KBNA 210653Z 24005KT 10SM FEW250 22/10 A2995 RMK AO2 SLP133 T02170100 $
2026-03-21 05:53:00,METAR KBNA 210553Z 21005KT 10SM CLR 21/10 A2995 RMK AO2 SLP135 T02060100 10256 20206 402830094 58004 $
2026-03-21 04:53:00,METAR KBNA 210453Z 22006KT 10SM FEW250 22/09 A2996 RMK AO2 SLP139 T02170094 $
2026-03-21 03:53:00,METAR KBNA 210353Z 21008KT 10SM FEW250 22/09 A2997 RMK AO2 SLP143 T02170094 $
2026-03-21 02:53:00,METAR KBNA 210253Z 20008KT 10SM FEW250 21/09 A2996 RMK AO2 SLP142 T02110094 52008 $
2026-03-21 01:53:00,METAR KBNA 210153Z 20006KT 10SM CLR 22/09 A2996 RMK AO2 SLP141 T02170094 $
2026-03-21 00:53:00,METAR KBNA 210053Z 22006KT 10SM FEW250 23/09 A2994 RMK AO2 SLP136 T02330094 $
2026-03-20 23:53:00,METAR KBNA 202353Z 23008KT 10SM FEW080 SCT250 26/09 A2994 RMK AO2 SLP135 T02560094 10283 20256 53001 $
2026-03-20 22:53:00,METAR KBNA 202253Z 22008KT 10SM FEW075 BKN250 27/09 A2993 RMK AO2 SLP131 T02670094 $
2026-03-20 21:53:00,METAR KBNA 202153Z 26012G23KT 220V290 10SM FEW070 BKN250 27/09 A2993 RMK AO2 SLP129 T02720094 $
2026-03-20 20:53:00,METAR KBNA 202053Z 23012G26KT 10SM FEW070 BKN250 28/09 A2994 RMK AO2 PK WND 19026/2041 SLP133 T02780089 56031 $
2026-03-20 19:53:00,METAR KBNA 201953Z 26014G22KT 10SM FEW065 BKN250 28/09 A2996 RMK AO2 PK WND 24027/1917 SLP141 T02780089 $
2026-03-20 18:53:00,METAR KBNA 201853Z 24011G21KT 10SM FEW065 BKN250 27/09 A2999 RMK AO2 SLP152 T02720089 $
2026-03-20 17:53:00,METAR KBNA 201753Z 22011G27KT 10SM CLR 26/09 A3003 RMK AO2 PK WND 18027/1749 SLP165 T02560094 10256 20094 58020 $
2026-03-20 16:53:00,METAR KBNA 201653Z 22013G22KT 10SM SCT250 24/09 A3005 RMK AO2 PK WND 21028/1628 SLP172 T02440094 $
2026-03-20 15:53:00,METAR KBNA 201553Z 21016G26KT 10SM SCT250 22/08 A3008 RMK AO2 PK WND 22030/1532 SLP182 T02170083 $
2026-03-20 14:53:00,METAR KBNA 201453Z 21011G21KT 10SM SCT250 20/08 A3009 RMK AO2 SLP186 T02000078 58004 $
2026-03-20 13:53:00,METAR KBNA 201353Z 19011KT 10SM SCT250 17/08 A3011 RMK AO2 SLP192 T01720078 $
2026-03-20 12:53:00,METAR KBNA 201253Z 17007KT 10SM FEW180 SCT250 13/07 A3011 RMK AO2 SLP195 T01280067 $
2026-03-20 11:53:00,METAR KBNA 201153Z 18007KT 10SM SCT250 09/05 A3010 RMK AO2 SLP191 T00940050 10128 20094 56002 $
2026-03-20 10:53:00,METAR KBNA 201053Z 17006KT 10SM FEW110 09/05 A3010 RMK AO2 SLP191 T00940050 $
2026-03-20 09:53:00,METAR KBNA 200953Z 18006KT 10SM FEW110 10/05 A3010 RMK AO2 SLP190 T01000050 $
2026-03-20 08:53:00,METAR KBNA 200853Z 16006KT 10SM FEW150 11/05 A3011 RMK AO2 SLP192 T01060050 58006 $
2026-03-20 07:53:00,METAR KBNA 200753Z 17005KT 10SM CLR 11/05 A3011 RMK AO2 SLP193 T01110050 $
2026-03-20 06:53:00,METAR KBNA 200653Z 18005KT 10SM CLR 12/05 A3012 RMK AO2 SLP197 T01220050 $
2026-03-20 05:53:00,METAR KBNA 200553Z 17005KT 10SM CLR 13/05 A3013 RMK AO2 SLP198 T01280050 10189 20122 402330050 57004 $
2026-03-20 04:53:00,METAR KBNA 200453Z 17005KT 10SM CLR 13/05 A3013 RMK AO2 SLP200 T01330050 $
2026-03-20 03:53:00,METAR KBNA 200353Z 18005KT 10SM FEW120 13/05 A3013 RMK AO2 SLP201 T01330050 $
2026-03-20 02:53:00,METAR KBNA 200253Z 18005KT 10SM FEW120 16/05 A3014 RMK AO2 SLP203 T01560050 53010 $
2026-03-20 01:53:00,METAR KBNA 200153Z 18004KT 10SM CLR 16/04 A3012 RMK AO2 SLP198 T01610044
2026-03-20 00:53:00,METAR KBNA 200053Z 18004KT 10SM CLR 18/04 A3010 RMK AO2 SLP192 T01830039
2026-03-19 23:53:00,METAR KBNA 192353Z 18005KT 10SM FEW250 19/04 A3011 RMK AO2 SLP193 T01890039 10233 20189 55006
2026-03-19 22:53:00,METAR KBNA 192253Z 17005KT 10SM FEW250 22/04 A3010 RMK AO2 SLP190 T02220039
2026-03-19 21:53:00,METAR KBNA 192153Z 19007KT 10SM FEW250 23/03 A3011 RMK AO2 SLP192 T02280033
2026-03-19 20:53:00,METAR KBNA 192053Z 18010KT 10SM FEW250 23/03 A3012 RMK AO2 SLP198 T02280033 56019
2026-03-19 19:53:00,METAR KBNA 191953Z 20004KT 10SM FEW250 23/03 A3013 RMK AO2 SLP201 T02280033
2026-03-19 18:53:00,METAR KBNA 191853Z 20007G14KT 10SM FEW250 22/02 A3016 RMK AO2 SLP211 T02170022
2026-03-19 17:53:00,METAR KBNA 191753Z 25005KT 10SM FEW250 20/02 A3018 RMK AO2 SLP219 T02000017 10206 20072 56007
2026-03-19 16:53:00,METAR KBNA 191653Z 18007KT 10SM FEW250 18/02 A3019 RMK AO2 SLP221 T01830017
2026-03-19 15:53:00,METAR KBNA 191553Z 14004KT 10SM FEW250 16/01 A3019 RMK AO2 SLP224 T01610006 $
2026-03-19 14:53:00,METAR KBNA 191453Z 21007KT 10SM FEW200 SCT250 13/M01 A3020 RMK AO2 SLP227 T01331006 50011
2026-03-19 13:53:00,METAR KBNA 191353Z 17004KT 10SM FEW140 SCT200 11/M01 A3021 RMK AO2 SLP229 T01061006
2026-03-19 12:53:00,METAR KBNA 191253Z 16004KT 10SM BKN160 08/01 A3018 RMK AO2 SLP220 T00780011
2026-03-19 11:53:00,METAR KBNA 191153Z 15003KT 10SM OVC170 08/M02 A3017 RMK AO2 SLP216 T00781017 10078 20050 53005
2026-03-19 10:53:00,METAR KBNA 191053Z 00000KT 10SM BKN200 07/M02 A3016 RMK AO2 SLP214 T00721017
2026-03-19 09:53:00,METAR KBNA 190953Z 00000KT 10SM BKN250 07/M02 A3015 RMK AO2 SLP209 T00721017
2026-03-19 08:53:00,METAR KBNA 190853Z 19003KT 10SM SCT250 07/M02 A3015 RMK AO2 SLP210 T00671017 56006
2026-03-19 07:53:00,METAR KBNA 190753Z 17007KT 10SM BKN250 06/M02 A3016 RMK AO2 SLP212 T00561017
2026-03-19 06:53:00,METAR KBNA 190653Z 17006KT 10SM FEW250 05/M02 A3017 RMK AO2 SLP217 T00501017
2026-03-19 05:53:00,METAR KBNA 190553Z 15006KT 10SM FEW250 06/M02 A3017 RMK AO2 SLP218 T00611022 10128 20056 401440011 50003
2026-03-19 04:53:00,METAR KBNA 190453Z 17006KT 10SM CLR 07/M02 A3018 RMK AO2 SLP219 T00721022
2026-03-19 03:53:00,METAR KBNA 190353Z 19006KT 10SM CLR 07/M02 A3017 RMK AO2 SLP218 T00721017
2026-03-19 02:53:00,METAR KBNA 190253Z 19005KT 10SM CLR 08/M02 A3016 RMK AO2 SLP215 T00831017 52010
2026-03-19 01:53:00,METAR KBNA 190153Z 18007KT 10SM CLR 08/M01 A3015 RMK AO2 SLP211 T00781011
2026-03-19 00:53:00,METAR KBNA 190053Z 18006KT 10SM CLR 10/M02 A3015 RMK AO2 SLP210 T01001017
2026-03-18 23:53:00,METAR KBNA 182353Z 18010KT 10SM CLR 13/M02 A3013 RMK AO2 SLP204 60000 T01281022 10144 20078 55005
2026-03-18 22:53:00,METAR KBNA 182253Z 17012KT 10SM CLR 14/M02 A3013 RMK AO2 SLP204 T01441022
2026-03-18 21:53:00,METAR KBNA 182153Z 18014G19KT 10SM FEW110 14/M02 A3014 RMK AO2 SLP206 T01441022
2026-03-18 20:53:00,METAR KBNA 182053Z 18015G20KT 10SM FEW040 SCT110 13/M02 A3015 RMK AO2 SLP210 60000 T01281017 58028
2026-03-18 19:53:00,METAR KBNA 181953Z 16010KT 10SM FEW027 SCT037 BKN100 11/01 A3017 RMK AO2 RAB12E34 SLP218 P0000 T01060011 $
2026-03-18 18:53:00,METAR KBNA 181853Z 19008KT 10SM FEW025 BKN055 OVC090 09/M01 A3021 RMK AO2 RAB23E46 SLP233 P0000 T00891011 $
2026-03-18 17:53:00,METAR KBNA 181753Z 19012G16KT 10SM FEW050 BKN080 OVC200 09/M04 A3023 RMK AO2 RAB12E23 SLP239 P0000 60000 T00941044 10094 20028 58015 $
2026-03-18 16:53:00,METAR KBNA 181653Z 20009KT 10SM SCT042 BKN055 OVC070 08/M07 A3026 RMK AO2 SLP250 T00781072 $
2026-03-18 15:53:00,METAR KBNA 181553Z 18013KT 10SM FEW043 SCT055 BKN075 OVC200 07/M07 A3026 RMK AO2 SLP249 T00721067 $
2026-03-18 14:53:00,METAR KBNA 181453Z 18012KT 10SM FEW047 BKN060 OVC100 07/M09 A3028 RMK AO2 SLP255 T00671089 51011
2026-03-18 13:53:00,METAR KBNA 181353Z 16007KT 10SM BKN070 OVC085 04/M09 A3027 RMK AO2 SLP254 T00441089
2026-03-18 12:53:00,METAR KBNA 181253Z 19010KT 10SM BKN070 OVC085 03/M09 A3027 RMK AO2 SLP253 T00331094
2026-03-18 11:53:00,METAR KBNA 181153Z 16009KT 10SM OVC085 02/M10 A3024 RMK AO2 SLP244 T00221100 10022 20011 56000
2026-03-18 10:53:00,METAR KBNA 181053Z 16005KT 10SM OVC060 02/M09 A3025 RMK AO2 SLP246 T00221094
2026-03-18 09:53:00,METAR KBNA 180953Z 16005KT 10SM OVC070 02/M11 A3023 RMK AO2 SLP240 T00171106
2026-03-18 08:53:00,METAR KBNA 180853Z 17007KT 10SM BKN080 OVC100 02/M11 A3024 RMK AO2 SLP245 T00171106 58007
2026-03-18 07:53:00,METAR KBNA 180753Z 15004KT 10SM OVC070 02/M10 A3026 RMK AO2 SLP251 T00171100
2026-03-18 06:53:00,METAR KBNA 180653Z 14003KT 10SM OVC065 01/M10 A3027 RMK AO2 SLP254 T00111100
2026-03-18 05:53:00,METAR KBNA 180553Z 13003KT 10SM FEW070 OVC090 01/M09 A3026 RMK AO2 SLP252 T00111094 10033 20006 400501039 55004
2026-03-18 04:53:00,METAR KBNA 180453Z 12004KT 10SM BKN200 01/M10 A3025 RMK AO2 SLP247 T00111100
2026-03-18 03:53:00,METAR KBNA 180353Z 07006KT 10SM BKN250 02/M11 A3027 RMK AO2 SLP253 T00171106
2026-03-18 02:53:00,METAR KBNA 180253Z 02004KT 10SM CLR 02/M12 A3028 RMK AO2 SLP257 T00221122 53006
2026-03-18 01:53:00,METAR KBNA 180153Z 00000KT 10SM BKN150 BKN180 BKN250 03/M16 A3026 RMK AO2 SLP251 T00281156
2026-03-18 00:53:00,METAR KBNA 180053Z 28003KT 10SM BKN170 BKN240 03/M16 A3025 RMK AO2 SLP248 T00281156
2026-03-17 23:53:00,METAR KBNA 172353Z VRB05KT 10SM BKN190 BKN250 03/M16 A3026 RMK AO2 SLP250 T00331156 10050 20022 50003
2026-03-17 22:53:00,METAR KBNA 172253Z 29008KT 10SM BKN250 03/M16 A3026 RMK AO2 SLP252 T00331161
2026-03-17 21:53:00,METAR KBNA 172153Z 29009G16KT 10SM FEW050 SCT250 05/M15 A3026 RMK AO2 SLP249 T00501150
2026-03-17 20:53:00,METAR KBNA 172053Z 30008G18KT 10SM FEW045 SCT250 04/M15 A3025 RMK AO2 SLP246 T00441150 56010
2026-03-17 19:53:00,METAR KBNA 171953Z 29009G15KT 10SM FEW045 FEW250 04/M14 A3025 RMK AO2 SLP246 T00391144
2026-03-17 18:53:00,METAR KBNA 171853Z 26007G15KT 230V300 10SM FEW045 04/M13 A3026 RMK AO2 SLP251 T00391133
2026-03-17 17:53:00,METAR KBNA 171753Z 27006G15KT 10SM FEW040 03/M14 A3028 RMK AO2 SLP257 T00281144 10028 21039 50002
2026-03-17 16:53:00,METAR KBNA 171653Z 32013G18KT 10SM FEW040 02/M14 A3029 RMK AO2 SLP262 T00171144
2026-03-17 15:53:00,METAR KBNA 171553Z 32008G16KT 10SM FEW040 00/M14 A3028 RMK AO2 SLP259 T00001139
2026-03-17 14:53:00,METAR KBNA 171453Z 31009KT 10SM FEW040 M02/M14 A3027 RMK AO2 SLP255 T10171139 51027
2026-03-17 13:53:00,METAR KBNA 171353Z 28010G18KT 10SM FEW040 M03/M14 A3025 RMK AO2 SLP249 T10281144
2026-03-17 12:53:00,METAR KBNA 171253Z 27008KT 10SM FEW035 M04/M13 A3023 RMK AO2 SLP242 T10391133
2026-03-17 11:53:00,METAR KBNA 171153Z 30006KT 10SM FEW032 M04/M12 A3019 RMK AO2 SLP229 T10391122 11011 21039 51024 $
2026-03-17 10:53:00,METAR KBNA 171053Z 29008KT 10SM FEW038 M03/M12 A3017 RMK AO2 SLP222 T10331122 $
2026-03-17 09:53:00,METAR KBNA 170953Z 30010G17KT 10SM BKN034 M02/M10 A3014 RMK AO2 SLP212 T10171100 $
2026-03-17 08:53:00,METAR KBNA 170853Z 29010KT 10SM BKN034 M02/M08 A3012 RMK AO2 SLP203 T10171083 50002 $
2026-03-17 07:53:00,METAR KBNA 170753Z 30009KT 10SM BKN038 OVC060 M01/M08 A3012 RMK AO2 SLP204 T10111083 $
2026-03-17 06:53:00,METAR KBNA 170653Z 31005KT 10SM SCT043 OVC055 M01/M08 A3012 RMK AO2 SLP204 T10111083 $
2026-03-17 05:53:00,METAR KBNA 170553Z 30003KT 10SM SCT046 BKN055 M02/M08 A3011 RMK AO2 SLP201 T10171083 10017 21017 401001017 53005 $
2026-03-17 04:53:00,METAR KBNA 170453Z 32005KT 10SM FEW050 M02/M08 A3011 RMK AO2 SLP200 T10171083
2026-03-17 03:53:00,METAR KBNA 170353Z 34006KT 10SM CLR M01/M08 A3010 RMK AO2 SLP197 T10061083
2026-03-17 02:53:00,METAR KBNA 170253Z 30005KT 10SM FEW050 00/M09 A3010 RMK AO2 SLP195 T00001089 51029
2026-03-17 01:53:00,METAR KBNA 170153Z 29009KT 10SM FEW050 01/M09 A3009 RMK AO2 SLP191 T00061094
2026-03-17 00:53:00,METAR KBNA 170053Z 32008KT 280V340 10SM FEW050 01/M09 A3006 RMK AO2 SLP181 T00061094
2026-03-16 23:53:00,METAR KBNA 162353Z 30010G18KT 10SM BKN050 BKN060 01/M09 A3001 RMK AO2 PK WND 28029/2310 SLP165 60000 T00111089 10028 20011 51027
2026-03-16 22:53:00,METAR KBNA 162253Z 30013G26KT 10SM BKN050 BKN060 02/M09 A2999 RMK AO2 PK WND 28026/2200 SLP158 T00171089
2026-03-16 21:53:00,METAR KBNA 162153Z 29012G24KT 10SM BKN040 BKN055 02/M08 A2996 RMK AO2 PK WND 29028/2141 SNE18 SLP150 P0000 T00171083
2026-03-16 20:53:00,METAR KBNA 162053Z 29015G27KT 9SM -SN BKN040 OVC055 02/M08 A2993 RMK AO2 PK WND 27028/2008 SNB37 SLP137 P0000 60000 T00171078 53018
2026-03-16 20:37:00,SPECI KBNA 162037Z 29013G25KT 10SM -SN BKN048 OVC060 02/M08 A2992 RMK AO2 PK WND 27028/2008 SNB37 P0000 T00171083
2026-03-16 19:53:00,METAR KBNA 161953Z 30014G25KT 10SM BKN045 OVC060 02/M08 A2990 RMK AO2 PK WND 29026/1922 SLP128 T00221078
2026-03-16 18:53:00,METAR KBNA 161853Z 29014G24KT 10SM FEW036 BKN050 OVC065 03/M06 A2989 RMK AO2 PK WND 27026/1806 SLP122 T00281061
2026-03-16 17:53:00,METAR KBNA 161753Z 28011G20KT 10SM BKN036 BKN048 OVC055 02/M07 A2987 RMK AO2 PK WND 29027/1712 SLP117 T00171067 10033 20011 53013
2026-03-16 16:53:00,METAR KBNA 161653Z 29016G26KT 10SM FEW034 BKN041 OVC055 02/M07 A2985 RMK AO2 PK WND 27026/1610 SLP109 T00171067
2026-03-16 15:53:00,METAR KBNA 161553Z 28014G21KT 10SM SCT033 BKN044 OVC055 02/M06 A2984 RMK AO2 SLP104 T00221056
2026-03-16 14:53:00,METAR KBNA 161453Z 30009G21KT 10SM SCT040 OVC055 03/M06 A2983 RMK AO2 PK WND 31026/1409 SLP101 T00281061 51007
2026-03-16 13:53:00,METAR KBNA 161353Z 28012G28KT 10SM BKN033 OVC040 03/M04 A2983 RMK AO2 PK WND 26028/1341 SLP100 T00281044 $
2026-03-16 12:53:00,METAR KBNA 161253Z COR 28013KT 10SM OVC036 03/M04 A2982 RMK AO2 SLP095 T00281039 $
2026-03-16 11:53:00,METAR KBNA 161153Z 29011G19KT 10SM OVC034 03/M03 A2981 RMK AO2 SLP093 60010 70066 T00331033 10100 20028 53044 $
2026-03-16 10:53:00,METAR KBNA 161053Z 29014G27KT 10SM BKN029 OVC040 03/M03 A2978 RMK AO2 PK WND 27028/1030 PRESRR SLP081 T00331033 $
2026-03-16 09:53:00,METAR KBNA 160953Z 30017G28KT 10SM BKN024 OVC035 04/M01 A2970 RMK AO2 PK WND 27030/0913 SLP054 T00391011 $
2026-03-16 09:27:00,SPECI KBNA 160927Z 28016G27KT 10SM FEW014 BKN022 OVC029 04/M01 A2969 RMK AO2 PK WND 27030/0913 T00391011 $
2026-03-16 08:53:00,METAR KBNA 160853Z 29014G24KT 6SM BR OVC012 05/03 A2968 RMK AO2 SLP047 60010 T00500028 53023 $
2026-03-16 07:53:00,METAR KBNA 160753Z 28012G21KT 10SM OVC013 07/04 A2964 RMK AO2 PK WND 28026/0737 RAE05 PRESFR SLP034 P0000 T00720044 $
2026-03-16 07:00:00,SPECI KBNA 160700Z 28007KT 10SM -RA BKN013 OVC017 09/07 A2965 RMK AO2 P0000 T00940072 $
2026-03-16 06:53:00,METAR KBNA 160653Z 27009KT 10SM -RA SCT011 BKN017 OVC025 09/07 A2964 RMK AO2 TSB01E28 SLP033 P0010 T00940072 $
2026-03-16 06:37:00,SPECI KBNA 160637Z 28011G19KT 10SM -RA SCT009 BKN014 OVC024 10/07 A2964 RMK AO2 TSB01E28 P0009 T01000072 $
2026-03-16 06:29:00,SPECI KBNA 160629Z 28009G15KT 6SM -RA BR BKN011 BKN022 OVC041 10/08 A2964 RMK AO2 TSB01E28 P0009 T01000078 $
2026-03-16 06:02:00,SPECI KBNA 160602Z 28008G22KT 7SM TSRA FEW016 BKN060CB OVC080 10/07 A2963 RMK AO2 TSB01 PRESRR OCNL LTGICCCCG OHD TS OHD MOV E P0002 T01000072 $
2026-03-16 05:53:00,METAR KBNA 160553Z 29013G25KT 6SM RA BR FEW014 SCT055 OVC080 10/07 A2961 RMK AO2 PK WND 31031/0516 TSE14B49E51 SLP022 P0021 60056 T01000067 10233 20100 402610100 53044 $
2026-03-16 05:28:00,SPECI KBNA 160528Z 30013G26KT 5SM RA FEW013 BKN050 OVC070 12/08 A2955 RMK AO2 PK WND 31031/0516 TSE14 OCNL LTG DSNT E P0013 T01170083 $
2026-03-16 05:20:00,SPECI KBNA 160520Z 30012G31KT 5SM RA SCT012 BKN027 OVC070 12/09 A2957 RMK AO2 PK WND 31031/0516 TSE14 OCNL LTG DSNT E P0010 T01220094 $
2026-03-16 04:53:00,METAR KBNA 160453Z 27012G20KT 4SM TSRA BR SCT012 BKN017CB OVC075 14/12 A2952 RMK AO2 PK WND 25034/0355 WSHFT 0344 SLP990 FREQ LTGICCCCG OHD TS OHD MOV E P0029 T01440122 $
2026-03-16 04:11:00,SPECI KBNA 160411Z 24008G27KT 210V290 5SM TSRA BR FEW025 BKN044CB OVC070 14/12 A2950 RMK AO2 PK WND 25034/0355 WSHFT 0344 FREQ LTGICCCCG OHD TS OHD MOV E P0015 T01440117 $
2026-03-16 03:58:00,SPECI KBNA 160358Z AUTO 25012G43KT 2SM +TSRA BR FEW025 BKN044CB OVC065 15/12 A2955 RMK AO2 PK WND 25034/0355 WSHFT 0344 VIS 1V5 FREQ LTGICCCCG OHD TS OHD MOV E P0008 T01500122 $
2026-03-16 03:53:00,METAR KBNA 160353Z 27026G43KT 3SM -TSRA BR FEW039 BKN055CB OVC095 18/15 A2956 RMK AO2 PK WND 27043/0353 RAB05 PRESRR SLP003 FRQ LTGICCCCG OHD TS OHD MOV E FROPA P0006 T01830150 $
2026-03-16 02:53:00,METAR KBNA 160253Z 18017G33KT 10SM TS FEW070 BKN090CB OVC110 22/12 A2948 RMK AO2 PK WND 20037/0155 TSB52 SLP975 OCNL LTGICCCCG OHD TS OHD MOV E T02220117 56031 $
2026-03-16 01:53:00,METAR KBNA 160153Z 17019G31KT 10SM FEW055 OVC075 23/11 A2950 RMK AO2 PK WND 18032/0125 SLP983 T02280111 $
2026-03-16 00:53:00,METAR KBNA 160053Z 18015G26KT 10SM BKN065 23/11 A2953 RMK AO2 PK WND 20030/2359 SLP993 T02280111 $
2026-03-15 23:53:00,METAR KBNA 152353Z 18014G28KT 10SM SCT060 BKN250 23/11 A2957 RMK AO2 PK WND 18045/2310 SLP008 T02330106 10261 20233 55026 $
2026-03-15 22:53:00,METAR KBNA 152253Z 16022G31KT 10SM FEW060 BKN250 24/10 A2957 RMK AO2 PK WND 19041/2230 SLP007 T02440100 $
2026-03-15 21:53:00,METAR KBNA 152153Z 18019G35KT 10SM FEW065 BKN240 25/09 A2961 RMK AO2 PK WND 20043/2110 SLP019 T02500094 $
2026-03-15 20:53:00,METAR KBNA 152053Z 18022G39KT 10SM SCT065 BKN240 25/10 A2965 RMK AO2 PK WND 19041/1958 SLP033 T02500100 56036 $
2026-03-15 19:53:00,METAR KBNA 151953Z 18020G38KT 10SM BKN240 25/09 A2967 RMK AO2 PK WND 20044/1914 SLP040 T02500089 $
2026-03-15 18:53:00,METAR KBNA 151853Z 20024G43KT 10SM BKN055 BKN240 25/09 A2971 RMK AO2 PK WND 21043/1846 SLP055 T02500089 $
2026-03-15 17:53:00,METAR KBNA 151753Z 19023G35KT 10SM BKN050 OVC200 23/10 A2976 RMK AO2 PK WND 19040/1655 SLP071 T02330100 10233 20161 58031 $
2026-03-15 16:53:00,METAR KBNA 151653Z 19018G33KT 10SM SCT048 BKN210 BKN250 23/11 A2980 RMK AO2 PK WND 20037/1653 SLP085 T02330111 $
2026-03-15 15:53:00,METAR KBNA 151553Z 18019G34KT 10SM SCT043 BKN210 BKN250 22/11 A2982 RMK AO2 PK WND 19034/1549 SLP095 T02170106 $
2026-03-15 14:53:00,METAR KBNA 151453Z 17012G20KT 10SM SCT047 BKN250 20/11 A2985 RMK AO2 SLP104 T02000111 58004 $
2026-03-15 13:53:00,METAR KBNA 151353Z 17015KT 10SM FEW050 BKN240 18/10 A2986 RMK AO2 SLP108 T01780100 $
2026-03-15 12:53:00,METAR KBNA 151253Z 17011KT 10SM FEW045 BKN220 BKN250 17/09 A2987 RMK AO2 SLP110 T01720089 $
2026-03-15 11:53:00,METAR KBNA 151153Z 16010KT 10SM FEW080 SCT250 16/08 A2986 RMK AO2 SLP107 T01610078 10172 20150 56002 $
2026-03-15 10:53:00,METAR KBNA 151053Z 16012KT 10SM FEW250 17/06 A2986 RMK AO2 SLP108 T01670061 $
2026-03-15 09:53:00,METAR KBNA 150953Z 17011KT 10SM FEW250 17/05 A2987 RMK AO2 SLP107 T01670050 $
2026-03-15 08:53:00,METAR KBNA 150853Z 17013KT 10SM FEW250 17/04 A2987 RMK AO2 SLP108 T01670039 58019 $
