Time_recorded,METAR
2026-05-02 15:30:00,METAR RCKH 021530Z 23005KT 180V270 9999 FEW018 SCT027 BKN042 28/23 Q1011 NOSIG RMK A2987
2026-05-02 15:00:00,METAR RCKH 021500Z 24005KT 220V280 9999 FEW014 SCT040 BKN060 28/23 Q1011 NOSIG RMK A2987
2026-05-02 14:30:00,METAR RCKH 021430Z 25005KT 190V270 9999 FEW014 BKN034 BKN052 28/23 Q1011 NOSIG RMK A2987
2026-05-02 14:00:00,METAR RCKH 021400Z 25006KT 9999 FEW014 BKN030 BKN050 28/23 Q1011 NOSIG RMK A2988
2026-05-02 13:30:00,METAR RCKH 021330Z 24005KT 200V270 9999 FEW014 BKN024 BKN044 28/23 Q1011 NOSIG RMK A2987
2026-05-02 13:00:00,METAR RCKH 021300Z 25004KT 9999 FEW014 BKN025 BKN040 28/23 Q1011 NOSIG RMK A2987
2026-05-02 12:30:00,METAR RCKH 021230Z 25004KT 210V280 9999 FEW014 BKN026 BKN045 27/23 Q1011 NOSIG RMK A2986
2026-05-02 12:00:00,METAR RCKH 021200Z 25004KT 230V290 9999 FEW015 BKN036 27/23 Q1010 NOSIG RMK A2985
2026-05-02 11:30:00,METAR RCKH 021130Z 28004KT 250V310 9999 FEW015 SCT048 27/22 Q1010 NOSIG RMK A2984
2026-05-02 11:00:00,METAR RCKH 021100Z 29005KT 9999 FEW018 SCT045 BKN150 27/22 Q1010 NOSIG RMK A2983
2026-05-02 10:30:00,METAR RCKH 021030Z 27006KT 9999 FEW015 SCT045 BKN075 27/22 Q1010 NOSIG RMK A2983
2026-05-02 10:00:00,METAR RCKH 021000Z 28007KT 260V330 9999 FEW020 SCT050 BKN180 28/22 Q1009 NOSIG RMK A2982
2026-05-02 09:30:00,METAR RCKH 020930Z 26006KT 220V310 9999 FEW020 SCT050 BKN180 29/22 Q1009 NOSIG RMK A2981
2026-05-02 09:23:00,SPECI RCKH 020923Z 25005KT 220V310 9999 FEW025 SCT050 BKN200 29/22 Q1009 NOSIG RMK A2981
2026-05-02 09:00:00,METAR RCKH 020900Z 25008KT 190V300 9999 SCT040 SCT060 BKN200 29/23 Q1009 NOSIG RMK 27006KT/R09 A2980
2026-05-02 08:30:00,METAR RCKH 020830Z 25008KT 220V290 9999 FEW020 SCT060 BKN200 29/22 Q1009 NOSIG RMK 25007KT/R09 A2980
2026-05-02 08:00:00,METAR RCKH 020800Z 25007KT 220V300 9999 FEW025 SCT200 30/22 Q1009 NOSIG RMK 24007KT/R09 A2980
2026-05-02 07:30:00,METAR RCKH 020730Z 26008KT 230V300 9999 FEW030 SCT210 30/22 Q1009 NOSIG RMK 24008KT/R09 A2981
2026-05-02 07:00:00,METAR RCKH 020700Z 25010KT 210V280 9999 FEW030 SCT210 30/22 Q1010 NOSIG RMK 24009KT/R09 A2983
2026-05-02 06:30:00,METAR RCKH 020630Z 25009KT 220V280 9999 FEW020 SCT180 30/22 Q1010 NOSIG RMK 25010KT/R09 A2983
2026-05-02 06:00:00,METAR RCKH 020600Z 26009KT 220V290 9999 FEW020 SCT200 30/22 Q1010 NOSIG RMK 24008KT/R09 A2984
2026-05-02 05:30:00,METAR RCKH 020530Z 25010KT 220V290 9999 FEW020 SCT200 30/21 Q1010 NOSIG RMK 25009KT/R09 A2985
2026-05-02 05:00:00,METAR RCKH 020500Z 25009KT 210V280 9999 FEW020 SCT200 30/21 Q1011 NOSIG RMK 23006KT/R09 A2986
2026-05-02 04:30:00,METAR RCKH 020430Z 25008KT 200V290 9999 FEW025 BKN200 30/21 Q1011 NOSIG RMK 25009KT/R09 A2987
2026-05-02 04:00:00,METAR RCKH 020400Z 24009KT 210V280 9999 FEW025 SCT180 BKN200 30/21 Q1011 NOSIG RMK 24010KT/R09 A2988
2026-05-02 03:30:00,METAR RCKH 020330Z 22008KT 180V280 8000 FEW018 BKN200 30/22 Q1012 NOSIG RMK 23008KT/R09 A2989
2026-05-02 03:00:00,METAR RCKH 020300Z 25008KT 220V290 7000 FEW018 SCT100 BKN200 30/21 Q1012 NOSIG RMK 25009KT/R09 A2990
2026-05-02 02:46:00,SPECI RCKH 020246Z 25008KT 8000 FEW018 SCT025 BKN200 30/21 Q1012 NOSIG RMK 24009KT/R09 A2990
2026-05-02 02:30:00,METAR RCKH 020230Z 23007KT 200V270 8000 FEW018 SCT025 BKN200 30/21 Q1012 NOSIG RMK A2990
2026-05-02 02:00:00,METAR RCKH 020200Z 22005KT 190V250 8000 SCT018 SCT030 BKN200 29/21 Q1012 NOSIG RMK A2991
2026-05-02 01:30:00,METAR RCKH 020130Z 11003KT 050V170 8000 SCT018 SCT030 BKN150 28/20 Q1013 NOSIG RMK A2992
2026-05-02 01:00:00,METAR RCKH 020100Z VRB04KT 8000 FEW015 SCT025 BKN180 29/21 Q1013 NOSIG RMK A2992
2026-05-02 00:30:00,METAR RCKH 020030Z VRB04KT 8000 FEW015 SCT180 28/21 Q1013 NOSIG RMK A2992
2026-05-02 00:00:00,METAR RCKH 020000Z VRB04KT 9000 FEW015 SCT200 27/20 Q1013 NOSIG RMK A2992
2026-05-01 23:30:00,METAR RCKH 012330Z VRB02KT 9000 FEW015 SCT200 28/21 Q1013 NOSIG RMK A2992
2026-05-01 23:00:00,METAR RCKH 012300Z VRB01KT 9999 FEW016 SCT140 27/20 Q1012 NOSIG RMK A2991
2026-05-01 22:30:00,METAR RCKH 012230Z VRB01KT 9999 FEW016 SCT080 26/20 Q1012 NOSIG RMK A2990
2026-05-01 22:00:00,METAR RCKH 012200Z VRB01KT 9999 FEW016 25/20 Q1012 NOSIG RMK A2990
2026-05-01 21:00:00,METAR RCKH 012100Z 07002KT 9999 FEW014 24/20 Q1011 NOSIG RMK A2988
2026-05-01 20:00:00,METAR RCKH 012000Z 03003KT 9999 FEW014 24/20 Q1011 NOSIG RMK A2988
2026-05-01 19:00:00,METAR RCKH 011900Z VRB02KT 9999 FEW014 25/20 Q1012 NOSIG RMK A2990
2026-05-01 18:00:00,METAR RCKH 011800Z 01004KT 9999 FEW014 26/20 Q1012 NOSIG RMK A2990
2026-05-01 17:00:00,METAR RCKH 011700Z VRB02KT 9999 FEW014 26/19 Q1013 NOSIG RMK A2992
2026-05-01 16:00:00,METAR RCKH 011600Z 33005KT 290V360 9999 FEW014 SCT032 BKN056 26/19 Q1013 NOSIG RMK A2994
2026-05-01 15:30:00,METAR RCKH 011530Z 01005KT 330V030 9999 FEW014 SCT032 BKN056 26/19 Q1014 NOSIG RMK A2995
2026-05-01 15:00:00,METAR RCKH 011500Z 02005KT 330V070 9999 FEW015 SCT026 BKN032 26/19 Q1014 NOSIG RMK A2995
2026-05-01 14:30:00,METAR RCKH 011430Z 33005KT 300V010 9999 FEW016 SCT028 BKN035 27/19 Q1014 NOSIG RMK A2995
2026-05-01 14:00:00,METAR RCKH 011400Z 33004KT 260V020 9999 FEW017 SCT028 BKN035 27/19 Q1013 NOSIG RMK A2994
2026-05-01 13:30:00,METAR RCKH 011330Z 30005KT 9999 FEW015 SCT022 BKN029 26/20 Q1013 NOSIG RMK A2993
2026-05-01 13:00:00,METAR RCKH 011300Z 28006KT 240V330 9999 FEW017 SCT025 BKN033 26/20 Q1013 NOSIG RMK A2993
2026-05-01 12:30:00,METAR RCKH 011230Z 28008KT 9999 FEW015 SCT030 BKN040 26/20 Q1013 NOSIG RMK A2992
2026-05-01 12:00:00,METAR RCKH 011200Z 27007KT 9999 FEW017 SCT040 BKN060 26/20 Q1012 NOSIG RMK A2991
2026-05-01 11:30:00,METAR RCKH 011130Z 27005KT 240V300 9999 FEW016 SCT040 BKN060 26/20 Q1012 NOSIG RMK A2991
2026-05-01 11:00:00,METAR RCKH 011100Z 27006KT 250V310 9999 FEW015 SCT030 BKN070 26/20 Q1012 NOSIG RMK A2990
2026-05-01 10:30:00,METAR RCKH 011030Z 26007KT 9999 FEW015 SCT035 BKN070 26/20 Q1012 NOSIG RMK A2989
2026-05-01 10:00:00,METAR RCKH 011000Z 28006KT 250V310 9999 FEW020 SCT035 BKN080 27/20 Q1011 NOSIG RMK A2988
2026-05-01 09:48:00,SPECI RCKH 010948Z 29007KT 9999 FEW015 BKN035 BKN100 27/20 Q1011 NOSIG RMK A2988
2026-05-01 09:30:00,METAR RCKH 010930Z VRB04KT 9999 FEW015 SCT030 BKN180 27/21 Q1011 NOSIG RMK 28009KT/R09 A2988
2026-05-01 09:00:00,METAR RCKH 010900Z 26010KT 230V290 9999 FEW020 SCT030 BKN200 27/21 Q1011 NOSIG RMK 28010KT/R09 A2987
2026-05-01 08:30:00,METAR RCKH 010830Z 26007KT 220V300 9999 FEW020 SCT090 BKN200 28/21 Q1011 NOSIG RMK 26008KT/R09 A2987
2026-05-01 08:00:00,METAR RCKH 010800Z 25007KT 220V310 9999 FEW015 BKN090 BKN200 28/21 Q1011 NOSIG RMK 27007KT/R09 A2987
2026-05-01 07:30:00,METAR RCKH 010730Z 28007KT 240V320 9999 SCT025 BKN070 BKN100 27/21 Q1012 NOSIG RMK 28009KT/R09 A2989
2026-05-01 07:00:00,METAR RCKH 010700Z 26010KT 9999 FEW020 BKN070 BKN220 27/21 Q1012 NOSIG RMK 28011KT/R09 A2989
2026-05-01 06:30:00,METAR RCKH 010630Z 26008KT 230V290 9999 FEW015 SCT035 BKN080 28/21 Q1012 NOSIG RMK 27009KT/R09 A2989
2026-05-01 06:00:00,METAR RCKH 010600Z 26009KT 230V300 9999 FEW015 BKN080 BKN100 28/20 Q1012 NOSIG RMK 26009KT/R09 A2990
2026-05-01 05:30:00,METAR RCKH 010530Z 25009KT 220V290 9999 FEW015 BKN080 BKN100 28/20 Q1012 NOSIG RMK 25009KT/R09 A2991
2026-05-01 05:00:00,METAR RCKH 010500Z 25007KT 200V300 9999 FEW015 SCT070 BKN200 29/20 Q1013 NOSIG RMK 25008KT/R09 A2992
2026-05-01 04:30:00,METAR RCKH 010430Z 23007KT 170V270 9999 FEW015 SCT080 BKN120 29/21 Q1013 NOSIG RMK 25008KT/R09 A2993
2026-05-01 04:00:00,METAR RCKH 010400Z 25008KT 220V290 9999 FEW015 BKN080 BKN120 29/20 Q1013 NOSIG RMK 24008KT/R09 A2994
2026-05-01 03:30:00,METAR RCKH 010330Z 26007KT 230V290 9999 FEW015 BKN080 BKN120 28/21 Q1014 NOSIG RMK 26008KT/R09 A2995
2026-05-01 03:00:00,METAR RCKH 010300Z 25010KT 220V300 9999 FEW015 BKN060 BKN080 28/20 Q1014 NOSIG RMK 26010KT/R09 A2995
2026-05-01 02:30:00,METAR RCKH 010230Z 27007KT 220V310 9999 FEW015 SCT060 BKN080 28/20 Q1014 NOSIG RMK A2995
2026-05-01 02:00:00,METAR RCKH 010200Z 25006KT 190V320 9000 FEW015 SCT060 BKN080 28/20 Q1014 NOSIG RMK A2996
2026-05-01 01:30:00,METAR RCKH 010130Z 28004KT 210V020 6000 FEW015 BKN060 BKN080 28/20 Q1014 NOSIG RMK A2996
2026-05-01 01:00:00,METAR RCKH 010100Z VRB02KT 6000 FEW015 BKN060 BKN080 28/20 Q1014 NOSIG RMK A2996
2026-05-01 00:30:00,METAR RCKH 010030Z VRB03KT 6000 FEW015 BKN060 BKN080 27/20 Q1014 NOSIG RMK A2996
2026-05-01 00:00:00,METAR RCKH 010000Z 34003KT 280V080 6000 FEW015 BKN070 26/20 Q1014 NOSIG RMK A2995
2026-04-30 23:30:00,METAR RCKH 302330Z 03004KT 010V070 6000 FEW015 BKN060 25/20 Q1014 NOSIG RMK A2995
2026-04-30 23:00:00,METAR RCKH 302300Z 03004KT 360V070 5000 HZ FEW013 SCT045 BKN080 24/19 Q1013 NOSIG RMK A2994
2026-04-30 22:30:00,METAR RCKH 302230Z 03004KT 360V060 5000 HZ FEW013 SCT035 BKN080 23/19 Q1013 NOSIG RMK A2993
2026-04-30 22:00:00,METAR RCKH 302200Z 01003KT 320V060 6000 FEW015 BKN025 BKN070 23/19 Q1013 NOSIG RMK A2993
2026-04-30 21:00:00,METAR RCKH 302100Z 02004KT 350V050 6000 FEW015 BKN035 BKN070 23/19 Q1012 NOSIG RMK A2991
2026-04-30 20:00:00,METAR RCKH 302000Z 02004KT 6000 FEW015 BKN035 BKN070 23/19 Q1012 NOSIG RMK A2990
2026-04-30 19:00:00,METAR RCKH 301900Z 35003KT 310V030 6000 FEW015 BKN035 BKN070 23/19 Q1012 NOSIG RMK A2990
2026-04-30 18:00:00,METAR RCKH 301800Z 02005KT 8000 FEW015 BKN035 BKN070 24/19 Q1012 NOSIG RMK A2990
2026-04-30 17:00:00,METAR RCKH 301700Z 32005KT 8000 FEW015 BKN035 BKN070 24/19 Q1012 NOSIG RMK A2991
2026-04-30 16:00:00,METAR RCKH 301600Z 36005KT 330V040 8000 FEW015 SCT030 BKN070 24/19 Q1013 NOSIG RMK A2993
2026-04-30 15:00:00,METAR RCKH 301500Z 01003KT 330V090 9999 FEW015 SCT040 BKN090 25/20 Q1013 NOSIG RMK A2994
2026-04-30 14:30:00,METAR RCKH 301430Z 04004KT 9999 FEW015 SCT040 BKN090 25/20 Q1013 NOSIG RMK A2994
2026-04-30 14:00:00,METAR RCKH 301400Z 35005KT 330V080 9999 FEW015 SCT050 BKN090 25/20 Q1013 NOSIG RMK A2994
2026-04-30 13:30:00,METAR RCKH 301330Z 33006KT 300V010 9999 FEW015 SCT050 BKN090 25/20 Q1013 NOSIG RMK A2994
2026-04-30 13:00:00,METAR RCKH 301300Z 01006KT 330V040 9999 FEW015 BKN050 26/20 Q1013 NOSIG RMK A2992
2026-04-30 12:30:00,METAR RCKH 301230Z 01006KT 330V040 9999 FEW015 SCT045 BKN080 26/20 Q1013 NOSIG RMK A2992
2026-04-30 12:00:00,METAR RCKH 301200Z 34007KT 9999 FEW015 SCT050 BKN080 26/20 Q1012 NOSIG RMK A2991
2026-04-30 11:30:00,METAR RCKH 301130Z 34008KT 9999 FEW015 SCT050 BKN080 26/21 Q1012 NOSIG RMK A2990
2026-04-30 11:00:00,METAR RCKH 301100Z 34008KT 310V020 9999 FEW015 SCT060 BKN080 27/21 Q1012 NOSIG RMK A2989
2026-04-30 10:30:00,METAR RCKH 301030Z 31008KT 9999 FEW012 BKN060 BKN090 28/21 Q1011 NOSIG RMK A2988
2026-04-30 10:00:00,METAR RCKH 301000Z 29007KT 260V330 9999 FEW012 BKN060 BKN090 28/22 Q1011 NOSIG RMK A2988
2026-04-30 09:30:00,METAR RCKH 300930Z 28006KT 240V310 9999 FEW012 SCT060 BKN090 29/22 Q1011 NOSIG RMK A2987
2026-04-30 09:22:00,SPECI RCKH 300922Z 29006KT 240V350 9999 FEW012 SCT060 BKN090 29/22 Q1011 NOSIG RMK A2987
2026-04-30 09:00:00,METAR RCKH 300900Z 27008KT 9999 FEW012 SCT060 BKN090 29/22 Q1011 NOSIG RMK 27008KT/R09 A2986
2026-04-30 08:30:00,METAR RCKH 300830Z 27007KT 230V310 9999 FEW012 SCT025 BKN100 30/22 Q1010 NOSIG RMK 27008KT/R09 A2985
2026-04-30 08:00:00,METAR RCKH 300800Z 27007KT 230V290 9999 FEW012 SCT025 BKN100 30/22 Q1010 NOSIG RMK 27008KT/R09 A2985
2026-04-30 07:30:00,METAR RCKH 300730Z 27008KT 220V310 9999 FEW012 SCT025 BKN200 30/23 Q1010 NOSIG RMK 26008KT/R09 A2985
2026-04-30 07:00:00,METAR RCKH 300700Z 25009KT 220V300 9999 FEW012 FEW014TCU SCT025 BKN200 30/23 Q1010 NOSIG RMK 24008KT/R09 TCU NE A2985
2026-04-30 06:30:00,METAR RCKH 300630Z 25008KT 210V300 9999 FEW012 FEW014TCU SCT025 BKN200 30/22 Q1010 NOSIG RMK 25008KT/R09 TCU NE A2985
2026-04-30 06:00:00,METAR RCKH 300600Z 24007KT 200V290 9999 FEW012 SCT025 BKN200 31/22 Q1011 NOSIG RMK 24007KT/R09 A2986
2026-04-30 05:30:00,METAR RCKH 300530Z 27007KT 220V310 9999 FEW012 SCT025 BKN200 30/22 Q1011 NOSIG RMK 23006KT/R09 A2987
2026-04-30 05:00:00,METAR RCKH 300500Z 24007KT 220V290 9999 FEW012 SCT028 BKN110 31/22 Q1011 NOSIG RMK 24007KT/R09 A2988
2026-04-30 04:30:00,METAR RCKH 300430Z 25007KT 180V300 9999 FEW010 SCT022 BKN170 30/22 Q1012 NOSIG RMK 24007KT/R09 A2989
2026-04-30 04:00:00,METAR RCKH 300400Z 25007KT 220V300 9999 FEW010 SCT022 BKN210 30/22 Q1012 NOSIG RMK 24007KT/R09 A2990
2026-04-30 03:30:00,METAR RCKH 300330Z 24008KT 210V280 9999 FEW010 SCT022 BKN200 30/23 Q1012 NOSIG RMK 24007KT/R09 A2990
2026-04-30 03:18:00,SPECI RCKH 300318Z 23008KT 190V280 9999 FEW010 FEW012TCU SCT020 BKN150 30/23 Q1012 NOSIG RMK 25008KT/R09 TCU E A2990
2026-04-30 03:00:00,METAR RCKH 300300Z 24008KT 210V280 9999 FEW010 FEW012TCU SCT020 BKN150 30/24 Q1012 NOSIG RMK TCU E A2991
2026-04-30 02:30:00,METAR RCKH 300230Z 24006KT 210V280 9999 FEW010 FEW012TCU SCT023 BKN150 30/24 Q1013 NOSIG RMK TCU E A2992
2026-04-30 02:00:00,METAR RCKH 300200Z 35002KT 9999 FEW010 SCT023 BKN150 29/23 Q1013 NOSIG RMK A2992
2026-04-30 01:30:00,METAR RCKH 300130Z VRB02KT 9999 FEW010 SCT024 BKN150 29/23 Q1013 NOSIG RMK A2992
2026-04-30 01:00:00,METAR RCKH 300100Z 08003KT 050V110 9999 FEW011 SCT025 BKN150 28/23 Q1013 NOSIG RMK A2992
2026-04-30 00:30:00,METAR RCKH 300030Z VRB02KT 9999 FEW011 SCT020 BKN150 28/23 Q1013 NOSIG RMK A2992
2026-04-30 00:00:00,METAR RCKH 300000Z 08003KT 9999 FEW011 SCT020 BKN150 27/23 Q1012 NOSIG RMK A2991
2026-04-29 23:30:00,METAR RCKH 292330Z 08005KT 9999 SCT010 SCT020 BKN150 26/23 Q1012 NOSIG RMK A2990
2026-04-29 23:00:00,METAR RCKH 292300Z 09008KT 9999 SCT015 SCT020 BKN150 26/23 Q1012 NOSIG RMK A2989
2026-04-29 22:30:00,METAR RCKH 292230Z VRB02KT 9999 -DZ FEW012CB SCT015 SCT020 BKN100 27/24 Q1011 TEMPO 9000 -RA RMK CB SE A2988
2026-04-29 22:00:00,METAR RCKH 292200Z 29004KT 270V330 9999 -RA FEW010CB FEW012 SCT050 BKN080 26/24 Q1011 TEMPO 9000 -RA RMK CB NW-E A2988
2026-04-29 21:41:00,SPECI RCKH 292141Z 28007KT 9000 -RA FEW010CB FEW012 BKN050 BKN080 27/24 Q1011 TEMPO 8000 -RA RMK CB NW A2988
2026-04-29 21:00:00,METAR RCKH 292100Z 29008KT 9000 FEW012 SCT025 BKN180 27/24 Q1011 NOSIG RMK A2987
2026-04-29 20:00:00,METAR RCKH 292000Z 28004KT 9000 FEW012 SCT030 BKN150 26/24 Q1010 NOSIG RMK A2985
2026-04-29 19:00:00,METAR RCKH 291900Z VRB01KT 9000 FEW012 SCT030 BKN180 26/23 Q1010 NOSIG RMK A2984
2026-04-29 18:00:00,METAR RCKH 291800Z 03002KT 9999 FEW013 SCT030 BKN180 27/24 Q1011 NOSIG RMK A2986
2026-04-29 17:00:00,METAR RCKH 291700Z 07003KT 030V090 9999 SCT013 SCT030 27/24 Q1011 NOSIG RMK A2988
2026-04-29 16:00:00,METAR RCKH 291600Z 27003KT 9999 FEW013 SCT130 27/24 Q1012 NOSIG RMK A2990
2026-04-29 15:30:00,METAR RCKH 291530Z 30003KT 9999 FEW013 SCT030 BKN150 27/24 Q1012 NOSIG RMK A2991
2026-04-29 15:00:00,METAR RCKH 291500Z 28004KT 260V320 9999 FEW013 SCT035 BKN150 27/24 Q1013 NOSIG RMK A2992
2026-04-29 14:30:00,METAR RCKH 291430Z 28005KT 9999 FEW012 SCT025 BKN110 27/24 Q1013 NOSIG RMK A2993
2026-04-29 14:00:00,METAR RCKH 291400Z 25005KT 9999 FEW012 SCT025 BKN100 27/24 Q1013 NOSIG RMK A2993
2026-04-29 13:30:00,METAR RCKH 291330Z 26004KT 230V300 9999 FEW012 SCT025 BKN100 27/24 Q1013 NOSIG RMK A2992
2026-04-29 13:00:00,METAR RCKH 291300Z 27004KT 9999 FEW012 SCT025 BKN100 27/24 Q1012 NOSIG RMK A2991
2026-04-29 12:30:00,METAR RCKH 291230Z 25004KT 220V280 9999 FEW012 SCT025 BKN100 28/24 Q1012 NOSIG RMK A2990
2026-04-29 12:00:00,METAR RCKH 291200Z 23003KT 170V280 9999 FEW012 SCT025 BKN140 28/24 Q1012 NOSIG RMK A2989
2026-04-29 11:30:00,METAR RCKH 291130Z 20004KT 150V270 9999 FEW012 SCT025 BKN140 28/24 Q1011 NOSIG RMK A2987
2026-04-29 11:00:00,METAR RCKH 291100Z 21004KT 170V230 9999 SCT012 BKN028 BKN140 28/24 Q1011 NOSIG RMK A2987
2026-04-29 10:30:00,METAR RCKH 291030Z 22004KT 170V260 9999 SCT012 BKN028 BKN140 28/24 Q1011 NOSIG RMK A2987
2026-04-29 10:00:00,METAR RCKH 291000Z 20005KT 160V250 9999 SCT012 SCT028 BKN130 29/25 Q1010 NOSIG RMK A2985
2026-04-29 09:30:00,METAR RCKH 290930Z 18007KT 130V230 9999 FEW012 SCT028 BKN130 29/23 Q1010 NOSIG RMK A2983
2026-04-29 09:00:00,METAR RCKH 290900Z 17008KT 140V210 9999 FEW012 SCT028 BKN200 29/24 Q1009 NOSIG RMK A2982
2026-04-29 08:30:00,METAR RCKH 290830Z 17009KT 140V200 9999 SCT012 SCT030 BKN090 30/24 Q1009 NOSIG RMK A2982
2026-04-29 08:00:00,METAR RCKH 290800Z 19009KT 150V210 9999 FEW015 BKN022 BKN090 30/24 Q1010 NOSIG RMK A2983
2026-04-29 07:30:00,METAR RCKH 290730Z 18010KT 150V230 9999 FEW015 BKN022 BKN090 30/24 Q1010 NOSIG RMK A2983
2026-04-29 07:00:00,METAR RCKH 290700Z 20009KT 160V220 9999 FEW010 BKN022 BKN090 30/24 Q1010 NOSIG RMK A2984
2026-04-29 06:30:00,METAR RCKH 290630Z 18010KT 150V220 9999 FEW010 BKN022 BKN090 30/24 Q1010 NOSIG RMK A2985
2026-04-29 06:00:00,METAR RCKH 290600Z 17011KT 150V220 9999 SCT013 BKN024 BKN100 30/25 Q1010 NOSIG RMK A2985
2026-04-29 05:30:00,METAR RCKH 290530Z 18010KT 130V220 9999 SCT016 BKN028 BKN100 30/25 Q1010 NOSIG RMK A2985
2026-04-29 05:00:00,METAR RCKH 290500Z 16013KT 120V210 9999 SCT016 SCT030 BKN150 30/24 Q1011 NOSIG RMK A2986
2026-04-29 04:30:00,METAR RCKH 290430Z 18011KT 150V220 9999 SCT018 SCT050 BKN150 31/24 Q1011 NOSIG RMK A2987
2026-04-29 04:00:00,METAR RCKH 290400Z 19011KT 150V220 9999 SCT018 SCT050 BKN150 30/24 Q1011 NOSIG RMK A2988
2026-04-29 03:30:00,METAR RCKH 290330Z 17011G21KT 140V200 9999 FEW018 SCT060 BKN150 30/25 Q1011 NOSIG RMK A2988
2026-04-29 03:00:00,METAR RCKH 290300Z 17014KT 140V210 9999 FEW018 SCT070 BKN150 29/24 Q1011 NOSIG RMK A2988
2026-04-29 02:30:00,METAR RCKH 290230Z 17014G24KT 140V210 9999 FEW018 SCT150 30/23 Q1011 NOSIG RMK A2988
2026-04-29 02:00:00,METAR RCKH 290200Z 16015G27KT 130V200 9999 FEW018 SCT150 31/22 Q1011 NOSIG RMK A2988
2026-04-29 01:30:00,METAR RCKH 290130Z 17014G24KT 140V200 9999 FEW018 SCT150 31/22 Q1011 NOSIG RMK A2988
2026-04-29 01:00:00,METAR RCKH 290100Z 17013KT 130V200 9999 FEW018 SCT150 31/21 Q1011 NOSIG RMK A2988
2026-04-29 00:30:00,METAR RCKH 290030Z 14010KT 110V200 9999 FEW018 SCT150 31/21 Q1011 NOSIG RMK A2988
2026-04-29 00:00:00,METAR RCKH 290000Z 08005KT 040V140 9999 FEW018 SCT150 29/20 Q1011 NOSIG RMK A2987
2026-04-28 23:30:00,METAR RCKH 282330Z 07005KT 040V110 9999 FEW018 SCT150 28/19 Q1011 NOSIG RMK A2986
2026-04-28 23:00:00,METAR RCKH 282300Z 09003KT 050V120 9999 FEW018 SCT120 BKN220 27/20 Q1010 NOSIG RMK A2985
2026-04-28 22:30:00,METAR RCKH 282230Z 09002KT 9999 FEW018 SCT120 BKN220 26/20 Q1010 NOSIG RMK A2984
2026-04-28 22:00:00,METAR RCKH 282200Z VRB01KT 9999 FEW016 SCT100 BKN220 24/19 Q1010 NOSIG RMK A2983
2026-04-28 21:00:00,METAR RCKH 282100Z 08001KT 9999 FEW016 SCT200 24/19 Q1009 NOSIG RMK A2982
2026-04-28 20:00:00,METAR RCKH 282000Z 06002KT 9999 FEW016 SCT200 26/18 Q1009 NOSIG RMK A2981
2026-04-28 19:00:00,METAR RCKH 281900Z 06002KT 9999 FEW016 SCT200 26/18 Q1009 NOSIG RMK A2981
2026-04-28 18:00:00,METAR RCKH 281800Z VRB01KT 9999 FEW016 SCT200 27/17 Q1010 NOSIG RMK A2983
2026-04-28 17:00:00,METAR RCKH 281700Z 05003KT 9999 FEW016 SCT200 27/18 Q1010 NOSIG RMK A2985
2026-04-28 16:00:00,METAR RCKH 281600Z 03003KT 010V100 9999 FEW016 SCT200 27/19 Q1011 NOSIG RMK A2986
2026-04-28 15:30:00,METAR RCKH 281530Z 06003KT 010V080 9999 FEW016 SCT200 27/20 Q1011 NOSIG RMK A2987
2026-04-27 15:30:00,METAR RCKH 271530Z 03004KT 9999 FEW030 SCT210 26/17 Q1013 NOSIG RMK A2992
2026-04-27 15:00:00,METAR RCKH 271500Z 28003KT 240V320 9999 FEW030 SCT210 26/18 Q1013 NOSIG RMK A2992
2026-04-27 14:30:00,METAR RCKH 271430Z 26004KT 9999 FEW030 SCT210 25/17 Q1013 NOSIG RMK A2992
2026-04-27 14:00:00,METAR RCKH 271400Z 27003KT 9999 FEW030 SCT210 26/17 Q1013 NOSIG RMK A2992
2026-04-27 13:30:00,METAR RCKH 271330Z 25003KT 9999 FEW030 SCT210 26/16 Q1013 NOSIG RMK A2992
2026-04-27 13:00:00,METAR RCKH 271300Z 24003KT 200V280 9999 FEW030 SCT210 26/16 Q1013 NOSIG RMK A2992
2026-04-27 12:30:00,METAR RCKH 271230Z VRB02KT 9999 FEW030 SCT210 26/16 Q1012 NOSIG RMK A2991
2026-04-27 12:00:00,METAR RCKH 271200Z 29003KT 270V330 9999 FEW030 SCT210 26/17 Q1012 NOSIG RMK A2991
2026-04-27 11:30:00,METAR RCKH 271130Z 31004KT 290V050 9999 FEW030 SCT210 27/17 Q1012 NOSIG RMK A2990
2026-04-27 11:00:00,METAR RCKH 271100Z 27004KT 9999 FEW030 SCT210 26/15 Q1012 NOSIG RMK A2989
2026-04-27 10:30:00,METAR RCKH 271030Z 27005KT 240V310 9999 FEW030 SCT210 27/16 Q1011 NOSIG RMK A2988
2026-04-27 10:00:00,METAR RCKH 271000Z 29005KT 260V330 9999 FEW030 SCT180 BKN210 28/14 Q1011 NOSIG RMK A2987
2026-04-27 09:30:00,METAR RCKH 270930Z 29008KT 250V310 9999 FEW030 SCT180 BKN210 28/17 Q1010 NOSIG RMK A2985
2026-04-27 09:00:00,METAR RCKH 270900Z 28008KT 230V330 9999 FEW030 SCT180 BKN210 29/13 Q1010 NOSIG RMK A2985
2026-04-27 08:30:00,METAR RCKH 270830Z 29009KT 260V320 9999 FEW030 SCT180 BKN210 30/16 Q1010 NOSIG RMK A2985
2026-04-27 08:00:00,METAR RCKH 270800Z 27009KT 240V300 9999 FEW030 SCT180 BKN210 29/13 Q1010 NOSIG RMK A2984
2026-04-27 07:34:00,SPECI RCKH 270734Z 27007KT 240V310 9999 FEW030 BKN180 31/12 Q1010 NOSIG RMK A2984
2026-04-27 07:30:00,METAR RCKH 270730Z 28007KT 230V320 9999 FEW030 BKN180 31/12 Q1010 NOSIG RMK 26007KT/R09 A2984
2026-04-27 07:00:00,METAR RCKH 270700Z 26008KT 230V320 9999 FEW025 BKN200 31/13 Q1010 NOSIG RMK 27008KT/R09 A2985
2026-04-27 06:30:00,METAR RCKH 270630Z 26007KT 230V290 9999 FEW030 BKN210 31/12 Q1011 NOSIG RMK 28008KT/R09 A2986
2026-04-27 06:00:00,METAR RCKH 270600Z 27007KT 240V300 9999 FEW030 BKN210 31/13 Q1011 NOSIG RMK 27009G22KT/R09 A2987
2026-04-27 05:30:00,METAR RCKH 270530Z 25008KT 220V320 9999 FEW020 SCT110 BKN200 30/16 Q1011 NOSIG RMK 27009KT/R09 A2988
2026-04-27 05:00:00,METAR RCKH 270500Z 28007KT 250V310 9999 FEW020 SCT060 BKN150 30/16 Q1012 NOSIG RMK 28009KT/R09 A2989
2026-04-27 04:30:00,METAR RCKH 270430Z 26008KT 220V300 9999 FEW020 BKN090 BKN230 30/17 Q1012 NOSIG RMK 25008KT/R09 A2990
2026-04-27 04:00:00,METAR RCKH 270400Z 24009KT 210V270 9999 FEW020 BKN090 BKN230 30/18 Q1013 NOSIG RMK 24009KT/R09 A2992
2026-04-27 03:36:00,SPECI RCKH 270336Z VRB06KT 9999 FEW020 BKN090 BKN230 31/20 Q1013 NOSIG RMK 24009KT/R09 A2992
2026-04-27 03:30:00,METAR RCKH 270330Z 24007KT 200V280 9999 FEW020 BKN090 BKN230 30/19 Q1013 NOSIG RMK A2992
2026-04-27 03:00:00,METAR RCKH 270300Z VRB03KT 9999 FEW020 BKN060 BKN230 30/15 Q1013 NOSIG RMK A2993
2026-04-27 02:30:00,METAR RCKH 270230Z VRB03KT 9999 FEW020 SCT050 BKN200 29/17 Q1013 NOSIG RMK A2994
2026-04-27 02:00:00,METAR RCKH 270200Z 25006KT 9999 FEW020 SCT055 BKN200 28/19 Q1014 NOSIG RMK A2995
2026-04-27 01:30:00,METAR RCKH 270130Z VRB03KT 9999 FEW015 SCT050 BKN200 28/20 Q1014 NOSIG RMK A2995
2026-04-27 01:00:00,METAR RCKH 270100Z VRB03KT 9999 FEW015 SCT033 BKN200 28/20 Q1014 NOSIG RMK A2995
2026-04-27 00:30:00,METAR RCKH 270030Z 05004KT 360V100 9999 FEW017 BKN200 27/20 Q1014 NOSIG RMK A2995
2026-04-27 00:00:00,METAR RCKH 270000Z 04004KT 330V090 9999 FEW017 BKN200 27/20 Q1014 NOSIG RMK A2995
2026-04-26 23:30:00,METAR RCKH 262330Z 04004KT 9999 FEW017 BKN200 26/20 Q1013 NOSIG RMK A2994
2026-04-26 23:00:00,METAR RCKH 262300Z 05004KT 020V080 9999 FEW017 SCT220 25/20 Q1013 NOSIG RMK A2993
2026-04-26 22:30:00,METAR RCKH 262230Z 10003KT 060V140 9999 FEW016 SCT120 24/21 Q1013 NOSIG RMK A2993
2026-04-26 22:00:00,METAR RCKH 262200Z 05003KT 020V090 9999 FEW015 SCT120 23/20 Q1013 NOSIG RMK A2992
2026-04-26 21:00:00,METAR RCKH 262100Z 04003KT 9000 FEW015 SCT220 23/20 Q1012 NOSIG RMK A2990
2026-04-26 20:00:00,METAR RCKH 262000Z 03004KT 9000 FEW015 SCT220 23/21 Q1012 NOSIG RMK A2990
2026-04-26 19:00:00,METAR RCKH 261900Z 07003KT 9999 FEW015 SCT220 23/20 Q1012 NOSIG RMK A2990
2026-04-26 18:00:00,METAR RCKH 261800Z 05005KT 9999 FEW015 SCT220 24/20 Q1012 NOSIG RMK A2990
2026-04-26 17:00:00,METAR RCKH 261700Z 07005KT 9999 FEW016 SCT220 24/20 Q1012 NOSIG RMK A2990
2026-04-26 16:00:00,METAR RCKH 261600Z 32004KT 9999 FEW016 SCT220 25/20 Q1012 NOSIG RMK A2990
2026-04-26 15:30:00,METAR RCKH 261530Z 31004KT 270V010 9999 FEW016 SCT050 25/20 Q1012 NOSIG RMK A2991
2026-04-26 15:00:00,METAR RCKH 261500Z 27005KT 240V300 9999 FEW020 SCT045 BKN100 25/20 Q1012 NOSIG RMK A2991
2026-04-26 14:30:00,METAR RCKH 261430Z 25006KT 9999 FEW020 SCT045 BKN100 26/20 Q1012 NOSIG RMK A2991
2026-04-26 14:00:00,METAR RCKH 261400Z 26005KT 230V300 9999 FEW020 SCT045 BKN100 25/20 Q1012 NOSIG RMK A2991
2026-04-26 13:30:00,METAR RCKH 261330Z 25006KT 220V280 9999 FEW020 SCT050 BKN090 26/20 Q1013 NOSIG RMK A2992
2026-04-26 13:00:00,METAR RCKH 261300Z 22005KT 190V260 9999 FEW015 SCT040 BKN080 26/19 Q1013 NOSIG RMK A2992
2026-04-26 12:30:00,METAR RCKH 261230Z 22004KT 170V280 9999 FEW015 SCT040 BKN080 26/19 Q1012 NOSIG RMK A2991
2026-04-26 12:00:00,METAR RCKH 261200Z 20004KT 140V250 9999 FEW014 SCT040 BKN080 26/19 Q1012 NOSIG RMK A2990
2026-04-26 11:30:00,METAR RCKH 261130Z 21004KT 160V280 9999 FEW014 SCT038 BKN080 27/18 Q1012 NOSIG RMK A2989
2026-04-26 11:00:00,METAR RCKH 261100Z 23004KT 170V270 9999 FEW014 BKN043 BKN080 26/18 Q1011 NOSIG RMK A2988
2026-04-26 10:30:00,METAR RCKH 261030Z 27006KT 9999 FEW014 BKN048 BKN090 27/19 Q1011 NOSIG RMK A2988
2026-04-26 10:00:00,METAR RCKH 261000Z 29004KT 250V330 9999 FEW014 SCT050 BKN090 27/19 Q1011 NOSIG RMK A2987
2026-04-26 09:30:00,METAR RCKH 260930Z 26006KT 230V300 9999 FEW014 SCT050 BKN090 28/19 Q1010 NOSIG RMK A2985
2026-04-26 09:14:00,SPECI RCKH 260914Z 27006KT 240V310 9999 FEW014 SCT045 BKN180 28/20 Q1010 NOSIG RMK A2985
2026-04-26 09:00:00,METAR RCKH 260900Z 25007KT 210V280 9999 FEW014 SCT045 BKN180 28/20 Q1010 NOSIG RMK 26008KT/R09 A2985
2026-04-26 08:30:00,METAR RCKH 260830Z 26006KT 230V290 9999 FEW014 SCT050 BKN180 29/21 Q1010 NOSIG RMK 27008KT/R09 A2984
2026-04-26 08:00:00,METAR RCKH 260800Z 27007KT 240V310 9999 FEW014 SCT035 BKN180 30/21 Q1010 NOSIG RMK 28009KT/R09 A2983
2026-04-26 07:30:00,METAR RCKH 260730Z 27008KT 240V310 9999 FEW014 SCT029 BKN180 29/20 Q1010 NOSIG RMK 27010KT/R09 A2983
2026-04-26 07:00:00,METAR RCKH 260700Z 28008KT 230V330 9999 FEW014 FEW016TCU SCT029 BKN230 30/21 Q1010 NOSIG RMK 27010KT/R09 TCU E A2984
2026-04-26 06:30:00,METAR RCKH 260630Z 29009KT 240V320 9999 FEW014 FEW015TCU SCT028 BKN230 30/21 Q1010 NOSIG RMK 29011KT/R09 TCU E A2985
2026-04-26 06:00:00,METAR RCKH 260600Z 27009KT 240V310 9999 FEW015 SCT028 BKN230 30/21 Q1011 NOSIG RMK 28011KT/R09 A2986
2026-04-26 05:30:00,METAR RCKH 260530Z VRB07KT 9999 FEW015 SCT028 BKN230 30/22 Q1011 NOSIG RMK 27010KT/R09 A2987
2026-04-26 05:02:00,SPECI RCKH 260502Z 30006KT 250V040 9999 FEW015 SCT030 30/21 Q1011 NOSIG RMK 28009KT/R09 A2988
2026-04-26 05:00:00,METAR RCKH 260500Z 28007KT 230V010 9999 FEW015 SCT030 30/21 Q1011 NOSIG RMK A2988
2026-04-26 04:30:00,METAR RCKH 260430Z 33005KT 280V020 9999 FEW015 SCT030 30/20 Q1012 NOSIG RMK A2990
2026-04-26 04:00:00,METAR RCKH 260400Z VRB06KT 9999 FEW015 SCT150 29/21 Q1012 NOSIG RMK A2991
2026-04-26 03:30:00,METAR RCKH 260330Z 30005KT 240V360 9999 FEW018 SCT220 30/20 Q1013 NOSIG RMK A2992
2026-04-26 03:00:00,METAR RCKH 260300Z 36005KT 300V040 9999 FEW018 SCT220 28/20 Q1013 NOSIG RMK A2993
2026-04-26 02:30:00,METAR RCKH 260230Z 31008KT 280V010 9000 FEW015 SCT210 28/20 Q1013 NOSIG RMK A2994
2026-04-26 02:00:00,METAR RCKH 260200Z 01005KT 290V080 9000 FEW015 SCT210 27/20 Q1013 NOSIG RMK A2994
2026-04-26 01:30:00,METAR RCKH 260130Z 02005KT 330V060 9000 FEW015 SCT210 26/20 Q1013 NOSIG RMK A2994
2026-04-26 01:00:00,METAR RCKH 260100Z 01007KT 330V060 8000 FEW012 25/20 Q1014 NOSIG RMK A2995
2026-04-26 00:30:00,METAR RCKH 260030Z 33006KT 280V060 7000 FEW012 26/20 Q1013 NOSIG RMK A2994
2026-04-26 00:00:00,METAR RCKH 260000Z VRB04KT 6000 FEW010 SCT200 25/20 Q1013 NOSIG RMK A2994
2026-04-25 23:30:00,METAR RCKH 252330Z 34005KT 310V030 7000 FEW010 SCT060 BKN200 24/20 Q1013 NOSIG RMK A2993
2026-04-25 23:00:00,METAR RCKH 252300Z 33004KT 270V070 6000 FEW010 SCT060 23/20 Q1013 TEMPO 5000 BR RMK A2993
2026-04-25 22:30:00,METAR RCKH 252230Z 33005KT 300V020 6000 FEW015 SCT090 23/20 Q1013 TEMPO 5000 BR RMK A2992
2026-04-25 22:00:00,METAR RCKH 252200Z VRB02KT 6000 FEW020 23/20 Q1012 TEMPO 5000 BR RMK A2991
2026-04-25 21:00:00,METAR RCKH 252100Z 04004KT 9000 FEW025 SCT060 22/19 Q1012 NOSIG RMK A2990
2026-04-25 20:00:00,METAR RCKH 252000Z 03003KT 360V090 8000 FEW025 SCT040 BKN070 23/19 Q1012 NOSIG RMK A2990
2026-04-25 19:00:00,METAR RCKH 251900Z 35005KT 310V040 8000 FEW020 SCT035 BKN060 23/19 Q1012 NOSIG RMK A2990
2026-04-25 18:00:00,METAR RCKH 251800Z 35006KT 310V040 9000 FEW015 SCT030 BKN050 23/19 Q1012 NOSIG RMK A2990
2026-04-25 17:00:00,METAR RCKH 251700Z 35004KT 330V030 9000 FEW010 SCT030 BKN050 23/20 Q1013 NOSIG RMK A2992
2026-04-25 16:00:00,METAR RCKH 251600Z 01005KT 340V040 9999 FEW022 SCT035 BKN045 23/20 Q1013 NOSIG RMK A2993
2026-04-25 15:30:00,METAR RCKH 251530Z 02005KT 9999 FEW020 SCT030 BKN040 23/20 Q1013 NOSIG RMK A2994
2026-04-25 15:00:00,METAR RCKH 251500Z 34005KT 310V030 9999 FEW012 SCT035 BKN060 23/20 Q1014 NOSIG RMK A2995
2026-04-25 14:30:00,METAR RCKH 251430Z 36004KT 270V050 9999 FEW012 SCT035 BKN068 23/20 Q1014 NOSIG RMK A2995
2026-04-25 14:00:00,METAR RCKH 251400Z 36004KT 320V030 9999 FEW012 SCT040 BKN068 23/20 Q1014 NOSIG RMK A2995
2026-04-25 13:30:00,METAR RCKH 251330Z 32003KT 280V020 9999 FEW012 SCT040 BKN070 24/20 Q1014 NOSIG RMK A2996
2026-04-25 13:00:00,METAR RCKH 251300Z 34004KT 310V010 9999 FEW012 SCT040 BKN070 24/20 Q1014 NOSIG RMK A2995
2026-04-25 12:30:00,METAR RCKH 251230Z 32003KT 280V010 9999 FEW012 SCT045 BKN070 23/19 Q1013 NOSIG RMK A2994
2026-04-25 12:00:00,METAR RCKH 251200Z 01005KT 9999 FEW012 SCT045 BKN072 23/20 Q1013 NOSIG RMK A2993
2026-04-25 11:30:00,METAR RCKH 251130Z 03007KT 010V070 9999 FEW012 SCT045 BKN072 23/20 Q1013 NOSIG RMK A2993
2026-04-25 11:00:00,METAR RCKH 251100Z 03007KT 360V060 9999 FEW013 SCT045 BKN075 23/20 Q1013 NOSIG RMK A2994
2026-04-25 10:30:00,METAR RCKH 251030Z 03008KT 9999 VCSH FEW015 SCT040 BKN070 23/20 Q1013 NOSIG RMK A2993
2026-04-25 10:00:00,METAR RCKH 251000Z 04008KT 360V070 9999 VCSH FEW015 SCT045 BKN065 23/20 Q1013 NOSIG RMK A2992
2026-04-25 09:53:00,SPECI RCKH 250953Z 04008KT 360V060 9999 VCSH SCT015 BKN045 OVC065 23/20 Q1013 NOSIG RMK A2993
2026-04-25 09:30:00,METAR RCKH 250930Z 03008KT 350V050 7000 -RA SCT015 BKN045 OVC065 24/21 Q1013 NOSIG RMK A2992
2026-04-25 09:26:00,SPECI RCKH 250926Z 03008KT 350V050 8000 -RA SCT015 BKN045 OVC065 24/21 Q1013 NOSIG RMK A2992
2026-04-25 09:00:00,METAR RCKH 250900Z 36008KT 330V040 9000 VCSH SCT015 BKN045 OVC075 24/21 Q1013 NOSIG RMK A2993
2026-04-25 08:30:00,METAR RCKH 250830Z 36006KT 320V050 9999 VCSH FEW015 SCT045 BKN075 24/21 Q1013 NOSIG RMK A2992
2026-04-25 08:26:00,SPECI RCKH 250826Z 36006KT 320V050 9999 VCSH FEW015 SCT045 BKN075 24/21 Q1013 NOSIG RMK A2992
2026-04-25 08:02:00,SPECI RCKH 250802Z 36006KT 330V030 9999 -RA FEW012 SCT040 BKN075 24/21 Q1013 NOSIG RMK A2992
2026-04-25 08:00:00,METAR RCKH 250800Z VRB04KT 9999 -RA FEW012 SCT040 BKN075 24/22 Q1013 NOSIG RMK 36006KT/R09 A2992
2026-04-25 07:30:00,METAR RCKH 250730Z 35006KT 300V040 9999 -RA FEW015 SCT045 BKN075 24/21 Q1013 NOSIG RMK 35007KT/R09 A2992
2026-04-25 07:00:00,METAR RCKH 250700Z 34006KT 290V020 9000 -RA FEW015 SCT040 BKN065 24/22 Q1013 NOSIG RMK 33009KT/R09 A2993
2026-04-25 06:33:00,SPECI RCKH 250633Z 30004KT 270V360 5000 -SHRA FEW015 SCT030 BKN060 24/22 Q1013 TEMPO 3000 SHRA RMK 30005KT/R09 A2994
2026-04-25 06:30:00,METAR RCKH 250630Z 29005KT 260V350 9999 VCSH FEW015 SCT035 BKN070 24/21 Q1013 NOSIG RMK 30005KT/R09 A2994
2026-04-25 06:00:00,METAR RCKH 250600Z 33005KT 270V020 9999 VCSH FEW010 SCT035 BKN070 24/22 Q1013 NOSIG RMK 31007KT/R09 A2994 RA AMT 0.2MM
2026-04-25 05:30:00,METAR RCKH 250530Z 34005KT 300V030 9000 -RA FEW010 SCT030 BKN050 24/22 Q1014 NOSIG RMK 34006KT/R09 A2995
2026-04-25 05:00:00,METAR RCKH 250500Z 33007KT 300V020 8000 -SHRA FEW015 BKN040 BKN065 23/21 Q1014 NOSIG RMK 33009KT/R09 A2995
2026-04-25 04:40:00,SPECI RCKH 250440Z 33005KT 290V010 7000 -SHRA FEW015 BKN025 BKN065 24/22 Q1014 NOSIG RMK 32010KT/R09 A2996
2026-04-25 04:30:00,METAR RCKH 250430Z 32006KT 270V360 8000 -SHRA FEW015 BKN025 BKN065 24/21 Q1014 NOSIG RMK A2996
2026-04-25 04:00:00,METAR RCKH 250400Z 28006KT 7000 -SHRA FEW012 BKN025 BKN065 24/21 Q1015 NOSIG RMK A2998 RA AMT 1.2MM
2026-04-25 03:30:00,METAR RCKH 250330Z 30006KT 280V340 6000 -SHRA FEW010 BKN025 BKN070 24/22 Q1015 NOSIG RMK A2998
2026-04-25 03:00:00,METAR RCKH 250300Z 30006KT 7000 -SHRA FEW010 BKN030 BKN070 25/22 Q1015 RESHRA NOSIG RMK A2998 RA AMT 0.6MM
2026-04-25 02:44:00,SPECI RCKH 250244Z 30004KT 270V350 5000 -SHRA FEW010 BKN020 BKN060 25/22 Q1015 RESHRA NOSIG RMK A2998
2026-04-25 02:30:00,METAR RCKH 250230Z 30006KT 270V350 4000 SHRA FEW010 BKN020 BKN060 24/22 Q1015 TEMPO 3000 SHRA RMK A2999
2026-04-25 02:00:00,METAR RCKH 250200Z 33003KT 290V020 4000 SHRA FEW010 BKN020 BKN060 24/22 Q1015 TEMPO 3000 SHRA RMK A2998 RA AMT 2.0MM
2026-04-25 01:30:00,METAR RCKH 250130Z 05003KT 360V110 4000 SHRA FEW010 BKN020 BKN065 24/22 Q1015 TEMPO 3000 SHRA RMK A2998
2026-04-25 01:00:00,METAR RCKH 250100Z 01005KT 3500 SHRA FEW010 BKN020 BKN065 24/21 Q1015 TEMPO 3000 SHRA RMK A2998 RA AMT 0.4MM
2026-04-25 00:45:00,SPECI RCKH 250045Z 01005KT 330V070 3500 SHRA FEW010 BKN030 BKN065 24/21 Q1015 TEMPO 3000 SHRA RMK A2998
2026-04-25 00:30:00,METAR RCKH 250030Z 02007KT 5000 -RA FEW010 BKN030 BKN065 25/21 Q1014 NOSIG RMK A2997
2026-04-25 00:00:00,METAR RCKH 250000Z 36007KT 330V040 5000 -RA FEW010 BKN030 BKN065 25/21 Q1014 NOSIG RMK A2997
2026-04-24 23:30:00,METAR RCKH 242330Z 32004KT 290V010 5000 -RA FEW010 BKN030 BKN060 25/22 Q1014 NOSIG RMK A2996
2026-04-24 23:00:00,METAR RCKH 242300Z 31004KT 290V350 3500 -RA FEW010 BKN030 BKN060 24/22 Q1014 NOSIG RMK A2995
2026-04-24 22:30:00,METAR RCKH 242230Z VRB02KT 3500 -RA FEW010 BKN050 BKN120 24/22 Q1013 BECMG NSW RMK A2993
2026-04-24 22:00:00,METAR RCKH 242200Z 05005KT 010V080 3500 -RA FEW010 SCT030 BKN050 24/22 Q1013 NOSIG RMK A2992 RA AMT 0.2MM
2026-04-24 21:00:00,METAR RCKH 242100Z VRB02KT 4800 -RA FEW010 SCT030 BKN050 24/22 Q1012 NOSIG RMK A2991
2026-04-24 20:00:00,METAR RCKH 242000Z 04003KT 340V070 4000 -RA FEW010 SCT030 BKN050 24/22 Q1012 NOSIG RMK A2989
2026-04-24 19:00:00,METAR RCKH 241900Z 10007KT 2800 -RA FEW010 SCT030 BKN050 24/22 Q1012 NOSIG RMK A2989
2026-04-24 18:00:00,METAR RCKH 241800Z 09004KT 2000 -RA FEW010 SCT030 BKN050 24/22 Q1013 NOSIG RMK A2993
2026-04-24 17:00:00,METAR RCKH 241700Z 33004KT 290V030 2000 -RA FEW010 BKN015 BKN050 23/22 Q1013 NOSIG RMK A2993 RA AMT 8.0MM
2026-04-24 16:00:00,METAR RCKH 241600Z 32004KT 290V010 3500 -RA FEW012 BKN030 BKN050 25/21 Q1013 TEMPO 3000 SHRA RMK A2994
2026-04-24 15:30:00,METAR RCKH 241530Z 36005KT 320V030 4000 -RA FEW012 BKN030 BKN050 25/21 Q1013 NOSIG RMK A2994
2026-04-24 15:25:00,SPECI RCKH 241525Z 01006KT 330V050 4500 -RA FEW012 SCT030 BKN050 25/21 Q1013 NOSIG RMK A2994
2026-04-24 15:00:00,METAR RCKH 241500Z 02004KT 330V050 7000 VCSH FEW012 SCT030 BKN050 26/21 Q1014 NOSIG RMK A2995
2026-04-24 14:30:00,METAR RCKH 241430Z 02006KT 360V060 8000 FEW014 SCT055 BKN080 26/22 Q1014 NOSIG RMK A2995
2026-04-24 14:00:00,METAR RCKH 241400Z 33006KT 300V360 9000 FEW014 SCT060 BKN090 27/22 Q1014 NOSIG RMK A2996
2026-04-24 13:30:00,METAR RCKH 241330Z 34006KT 310V050 9999 FEW015 SCT060 BKN080 27/21 Q1014 NOSIG RMK A2995
2026-04-24 13:00:00,METAR RCKH 241300Z 36005KT 320V040 9999 FEW027 SCT060 BKN130 28/21 Q1013 NOSIG RMK A2993
2026-04-24 12:30:00,METAR RCKH 241230Z 01003KT 330V060 9999 FEW030 SCT050 BKN080 27/20 Q1013 NOSIG RMK A2992
2026-04-24 12:00:00,METAR RCKH 241200Z 05004KT 9999 FEW030 SCT050 BKN090 27/20 Q1012 NOSIG RMK A2990
2026-04-24 11:30:00,METAR RCKH 241130Z 08005KT 040V100 9999 FEW035 SCT060 BKN080 27/20 Q1012 NOSIG RMK A2990
2026-04-24 11:00:00,METAR RCKH 241100Z 05006KT 9999 SCT040 BKN110 27/20 Q1011 NOSIG RMK A2988
2026-04-24 10:30:00,METAR RCKH 241030Z 06005KT 9999 SCT040 BKN110 27/20 Q1011 NOSIG RMK A2988
2026-04-24 10:00:00,METAR RCKH 241000Z 04003KT 360V060 9999 SCT040 BKN100 27/20 Q1011 NOSIG RMK A2987
2026-04-24 09:30:00,METAR RCKH 240930Z 05006KT 9999 FEW020 SCT040 BKN100 27/20 Q1011 NOSIG RMK A2987
2026-04-24 09:00:00,METAR RCKH 240900Z 06007KT 9999 FEW012 SCT025 BKN070 27/20 Q1011 NOSIG RMK A2986
2026-04-24 08:30:00,METAR RCKH 240830Z 04009KT 9999 FEW012 SCT025 BKN060 27/21 Q1010 NOSIG RMK A2985
2026-04-24 08:22:00,SPECI RCKH 240822Z 04011KT 9999 FEW012 SCT030 BKN100 27/21 Q1010 NOSIG RMK A2985
2026-04-24 08:00:00,METAR RCKH 240800Z 32004KT 250V010 9999 FEW012 SCT030 BKN100 29/23 Q1010 NOSIG RMK A2984
2026-04-24 07:54:00,SPECI RCKH 240754Z 31004KT 240V360 9000 FEW012 SCT030 BKN070 29/23 Q1010 NOSIG RMK A2984
2026-04-24 07:30:00,METAR RCKH 240730Z 28005KT 230V310 9000 FEW012 SCT030 BKN070 28/24 Q1010 NOSIG RMK 26005KT/R09 A2984
2026-04-24 07:00:00,METAR RCKH 240700Z 26008KT 9000 -RA FEW012 FEW015CB SCT020 BKN040 28/23 Q1010 NOSIG RMK 26008KT/R09 CB NW A2984
2026-04-24 06:30:00,METAR RCKH 240630Z 25010KT 9000 FEW012 SCT020 BKN060 28/24 Q1010 NOSIG RMK 25009KT/R09 A2985
2026-04-24 06:00:00,METAR RCKH 240600Z 26009KT 210V310 9000 FEW012 BKN060 BKN100 28/24 Q1010 NOSIG RMK 26009KT/R09 A2985
2026-04-24 05:31:00,SPECI RCKH 240531Z 25008KT 9000 FEW012 BKN060 BKN150 29/24 Q1010 NOSIG RMK 24008KT/R09 A2985
2026-04-24 05:30:00,METAR RCKH 240530Z 23008KT 200V270 9000 FEW012 BKN060 BKN150 28/24 Q1010 NOSIG RMK A2985
2026-04-24 05:00:00,METAR RCKH 240500Z 22008KT 180V250 9000 FEW012 BKN060 BKN090 29/23 Q1011 NOSIG RMK A2986
2026-04-24 04:30:00,METAR RCKH 240430Z 23007KT 170V260 9999 FEW012 BKN060 BKN090 29/23 Q1011 NOSIG RMK A2986
2026-04-24 04:00:00,METAR RCKH 240400Z 25006KT 190V300 9999 FEW012 BKN050 BKN090 29/22 Q1011 NOSIG RMK A2987
2026-04-24 03:30:00,METAR RCKH 240330Z 22006KT 170V260 9999 FEW012 BKN030 BKN060 29/23 Q1011 NOSIG RMK A2988
2026-04-24 03:00:00,METAR RCKH 240300Z 21007KT 160V260 9999 FEW012 BKN030 BKN060 29/23 Q1011 NOSIG RMK A2988
2026-04-24 02:30:00,METAR RCKH 240230Z 21006KT 160V240 9999 FEW012 BKN025 BKN060 29/23 Q1012 NOSIG RMK A2989
2026-04-24 02:00:00,METAR RCKH 240200Z 18007KT 150V240 9999 FEW012 BKN025 BKN060 29/22 Q1012 NOSIG RMK A2990
2026-04-24 01:30:00,METAR RCKH 240130Z 19006KT 160V240 9999 FEW012 SCT023 BKN100 30/22 Q1012 NOSIG RMK A2989
2026-04-24 01:00:00,METAR RCKH 240100Z 17006KT 140V230 9999 FEW012 BKN050 BKN090 28/22 Q1012 NOSIG RMK A2990
2026-04-24 00:30:00,METAR RCKH 240030Z 19005KT 150V240 9999 FEW012 BKN064 BKN090 29/22 Q1012 NOSIG RMK A2989
2026-04-24 00:00:00,METAR RCKH 240000Z 22004KT 190V260 9999 FEW012 BKN064 BKN090 28/22 Q1012 NOSIG RMK A2989
2026-04-23 23:30:00,METAR RCKH 232330Z 07003KT 9999 FEW012 BKN064 BKN090 28/21 Q1011 NOSIG RMK A2988
2026-04-23 23:00:00,METAR RCKH 232300Z VRB01KT 9999 FEW018 BKN060 28/23 Q1011 NOSIG RMK A2987
2026-04-23 22:30:00,METAR RCKH 232230Z 27003KT 9999 FEW020 SCT090 27/22 Q1011 NOSIG RMK A2986
2026-04-23 22:00:00,METAR RCKH 232200Z 26005KT 230V290 9999 FEW020 SCT090 27/22 Q1010 NOSIG RMK A2984
2026-04-23 21:00:00,METAR RCKH 232100Z 23003KT 9999 FEW015 BKN060 27/21 Q1010 NOSIG RMK A2983
2026-04-23 20:00:00,METAR RCKH 232000Z 36001KT 9999 FEW012 FEW020TCU SCT040 BKN080 27/19 Q1009 NOSIG RMK TCU S A2981
2026-04-23 19:00:00,METAR RCKH 231900Z 04003KT 9999 FEW012 FEW020TCU SCT040 BKN060 27/19 Q1009 NOSIG RMK TCU W A2980
2026-04-23 18:00:00,METAR RCKH 231800Z 07005KT 9999 FEW012 FEW020TCU SCT040 BKN060 26/19 Q1009 NOSIG RMK TCU W A2981
2026-04-23 17:00:00,METAR RCKH 231700Z 04004KT 9999 FEW012 FEW020TCU SCT040 BKN070 27/19 Q1010 NOSIG RMK TCU W A2983
2026-04-23 16:00:00,METAR RCKH 231600Z 02003KT 350V060 9999 FEW020 SCT040 BKN140 28/19 Q1010 NOSIG RMK A2985
2026-04-23 15:30:00,METAR RCKH 231530Z 35004KT 320V020 9999 FEW020 SCT040 BKN140 28/19 Q1010 NOSIG RMK A2985
2026-04-23 15:00:00,METAR RCKH 231500Z 02003KT 330V080 9999 FEW020 BKN140 28/20 Q1011 NOSIG RMK A2986
2026-04-23 14:30:00,METAR RCKH 231430Z 02004KT 340V080 9999 FEW020 SCT140 28/20 Q1011 NOSIG RMK A2986
2026-04-23 14:00:00,METAR RCKH 231400Z 01005KT 320V030 9999 FEW020 SCT230 28/21 Q1011 NOSIG RMK A2986
2026-04-23 13:30:00,METAR RCKH 231330Z 02006KT 350V050 9999 FEW020 SCT200 28/21 Q1010 NOSIG RMK A2985
2026-04-23 13:00:00,METAR RCKH 231300Z 36005KT 310V040 9999 FEW020 SCT200 28/21 Q1010 NOSIG RMK A2984
2026-04-23 12:30:00,METAR RCKH 231230Z 34006KT 290V030 9999 FEW020 SCT200 28/21 Q1010 NOSIG RMK A2984
2026-04-23 12:00:00,METAR RCKH 231200Z 32005KT 290V360 9999 FEW020 SCT200 28/22 Q1010 NOSIG RMK A2983
2026-04-23 11:30:00,METAR RCKH 231130Z 32007KT 280V360 9999 FEW020 SCT200 28/22 Q1009 NOSIG RMK A2982
2026-04-23 11:00:00,METAR RCKH 231100Z 32007KT 300V020 9999 FEW012 SCT220 28/21 Q1009 NOSIG RMK A2981
2026-04-23 10:30:00,METAR RCKH 231030Z 30007KT 270V340 9999 FEW012 SCT040 BKN200 28/21 Q1009 NOSIG RMK A2980
2026-04-23 10:24:00,SPECI RCKH 231024Z 29007KT 270V340 9999 FEW012 SCT040 BKN200 28/21 Q1009 NOSIG RMK A2980
2026-04-23 10:00:00,METAR RCKH 231000Z 29006KT 230V310 9999 FEW012 SCT040 BKN200 28/22 Q1008 NOSIG RMK 31007KT/R09 A2979
2026-04-23 09:30:00,METAR RCKH 230930Z 28007KT 260V320 9999 FEW012 SCT026 BKN200 28/22 Q1008 NOSIG RMK 28009KT/R09 A2979
2026-04-23 09:00:00,METAR RCKH 230900Z 28007KT 250V310 9999 FEW012 SCT029 BKN200 29/22 Q1008 NOSIG RMK 28010KT/R09 A2978
2026-04-23 08:30:00,METAR RCKH 230830Z 28006KT 240V320 9999 FEW012 SCT029 BKN200 29/22 Q1008 NOSIG RMK 28008KT/R09 A2977
2026-04-23 08:00:00,METAR RCKH 230800Z 27009KT 240V300 9999 FEW012 SCT025 BKN040 29/22 Q1008 NOSIG RMK 27009KT/R09 A2977
2026-04-23 07:30:00,METAR RCKH 230730Z 28007KT 230V340 9999 FEW012 SCT027 29/22 Q1007 NOSIG RMK 26008KT/R09 A2976
2026-04-23 07:00:00,METAR RCKH 230700Z 29007KT 220V010 9999 FEW012 SCT030 30/22 Q1007 NOSIG RMK 27009KT/R09 A2976
2026-04-23 06:30:00,METAR RCKH 230630Z 31009KT 260V360 9999 FEW014 SCT034 30/21 Q1007 NOSIG RMK 28010KT/R09 A2976
2026-04-23 06:00:00,METAR RCKH 230600Z 28008KT 230V010 9999 FEW014 SCT028 30/21 Q1008 NOSIG RMK 28009KT/R09 A2977
2026-04-23 05:30:00,METAR RCKH 230530Z 27010KT 240V310 9999 FEW014 SCT200 31/22 Q1008 NOSIG RMK 27011KT/R09 A2977
2026-04-23 05:00:00,METAR RCKH 230500Z 26012KT 230V310 9999 FEW014 SCT200 31/21 Q1008 NOSIG RMK 28011KT/R09 A2977
2026-04-23 04:30:00,METAR RCKH 230430Z 27009KT 190V340 9999 FEW015 SCT030 31/20 Q1008 NOSIG RMK 27010KT/R09 A2978
2026-04-23 04:00:00,METAR RCKH 230400Z 26010KT 210V310 9999 FEW016 31/21 Q1008 NOSIG RMK 29009KT/R09 A2979
2026-04-23 03:30:00,METAR RCKH 230330Z 26009KT 230V290 9999 FEW015 31/21 Q1009 NOSIG RMK 28009KT/R09 A2980
2026-04-23 03:00:00,METAR RCKH 230300Z 27008KT 220V320 9999 FEW015 30/20 Q1009 NOSIG RMK 26009KT/R09 A2980
2026-04-23 02:30:00,METAR RCKH 230230Z 27008KT 220V360 9999 FEW014 SCT025 30/21 Q1009 NOSIG RMK 27008KT/R09 A2981
2026-04-23 02:03:00,SPECI RCKH 230203Z 25006KT 200V320 9999 FEW015 SCT030 30/21 Q1009 NOSIG RMK 27008KT/R09 A2980
2026-04-23 02:00:00,METAR RCKH 230200Z 25007KT 210V280 9999 FEW015 SCT030 30/20 Q1009 NOSIG RMK A2981
2026-04-23 01:30:00,METAR RCKH 230130Z 22005KT 180V270 9999 FEW015 SCT030 29/21 Q1009 NOSIG RMK A2981
2026-04-23 01:00:00,METAR RCKH 230100Z 28004KT 220V030 9999 FEW016 SCT024 BKN060 29/21 Q1009 NOSIG RMK A2981
2026-04-23 00:30:00,METAR RCKH 230030Z VRB01KT 9999 FEW015 SCT025 30/22 Q1009 NOSIG RMK A2981
2026-04-23 00:00:00,METAR RCKH 230000Z VRB02KT 9999 FEW015 SCT040 28/22 Q1009 NOSIG RMK A2981
2026-04-22 23:30:00,METAR RCKH 222330Z 09003KT 070V130 9999 FEW014 SCT070 BKN100 26/22 Q1009 NOSIG RMK A2980
2026-04-22 23:00:00,METAR RCKH 222300Z 09004KT 7000 FEW012 BKN100 25/22 Q1009 NOSIG RMK A2980
2026-04-22 22:30:00,METAR RCKH 222230Z 07003KT 040V100 7000 FEW012 BKN090 25/22 Q1009 NOSIG RMK A2980
2026-04-22 22:00:00,METAR RCKH 222200Z 08005KT 6000 FEW012 SCT090 24/22 Q1008 NOSIG RMK A2979
2026-04-22 21:00:00,METAR RCKH 222100Z 09003KT 040V100 9000 FEW012 SCT130 25/21 Q1008 NOSIG RMK A2979
2026-04-22 20:00:00,METAR RCKH 222000Z 04004KT 9000 FEW012 SCT130 25/22 Q1008 NOSIG RMK A2978
2026-04-22 19:00:00,METAR RCKH 221900Z 04003KT 8000 FEW012 SCT020 25/23 Q1008 NOSIG RMK A2978
2026-04-22 18:00:00,METAR RCKH 221800Z VRB02KT 8000 FEW012 SCT020 26/23 Q1008 NOSIG RMK A2978
2026-04-22 17:00:00,METAR RCKH 221700Z 27004KT 9999 FEW012 SCT020 26/23 Q1009 NOSIG RMK A2980
2026-04-22 16:00:00,METAR RCKH 221600Z 28003KT 250V320 9999 FEW012 SCT020 26/23 Q1009 NOSIG RMK A2981
2026-04-22 15:30:00,METAR RCKH 221530Z 27004KT 220V290 9999 FEW012 SCT020 27/23 Q1009 NOSIG RMK A2982
2026-04-22 15:00:00,METAR RCKH 221500Z 25004KT 220V290 9999 FEW012 SCT030 27/24 Q1010 NOSIG RMK A2983
2026-04-22 14:30:00,METAR RCKH 221430Z 26004KT 9999 FEW012 SCT022 27/23 Q1010 NOSIG RMK A2983
2026-04-22 14:00:00,METAR RCKH 221400Z 26006KT 9999 FEW012 SCT022 27/23 Q1009 NOSIG RMK A2982
2026-04-22 13:30:00,METAR RCKH 221330Z 24006KT 9999 FEW012 SCT022 27/23 Q1009 NOSIG RMK A2982
2026-04-22 13:00:00,METAR RCKH 221300Z 24004KT 200V260 9999 FEW012 SCT025 27/24 Q1009 NOSIG RMK A2981
2026-04-22 12:30:00,METAR RCKH 221230Z 24005KT 9999 FEW012 SCT025 28/23 Q1009 NOSIG RMK A2981
2026-04-22 12:00:00,METAR RCKH 221200Z 20003KT 150V290 9999 FEW012 SCT022 28/24 Q1009 NOSIG RMK A2980
2026-04-22 11:30:00,METAR RCKH 221130Z 20004KT 160V250 9999 FEW012 SCT023 28/23 Q1009 NOSIG RMK A2980
2026-04-22 11:00:00,METAR RCKH 221100Z 20005KT 150V260 9999 FEW011 SCT017 28/23 Q1008 NOSIG RMK A2979
2026-04-22 10:30:00,METAR RCKH 221030Z 20006KT 150V240 9999 FEW010 SCT016 BKN020 28/23 Q1008 NOSIG RMK A2978
2026-04-22 10:00:00,METAR RCKH 221000Z 20005KT 140V240 9999 FEW010 SCT016 BKN022 28/23 Q1008 NOSIG RMK A2977
2026-04-22 09:30:00,METAR RCKH 220930Z 19007KT 130V240 9999 FEW012 SCT016 BKN020 29/24 Q1008 NOSIG RMK A2977
2026-04-22 09:00:00,METAR RCKH 220900Z 19008KT 130V230 9999 FEW013 SCT017 BKN022 29/24 Q1007 NOSIG RMK A2976
2026-04-22 08:30:00,METAR RCKH 220830Z 20009KT 120V230 9999 FEW012 SCT017 BKN023 29/23 Q1007 NOSIG RMK A2976
2026-04-22 08:00:00,METAR RCKH 220800Z 15011KT 130V220 9999 FEW012 SCT018 30/24 Q1008 NOSIG RMK A2977
2026-04-22 07:30:00,METAR RCKH 220730Z 17011KT 130V210 9999 FEW014 SCT022 30/23 Q1008 NOSIG RMK A2977
2026-04-22 07:00:00,METAR RCKH 220700Z 15013KT 9999 FEW014 SCT022 30/23 Q1008 NOSIG RMK A2977
2026-04-22 06:30:00,METAR RCKH 220630Z 18012KT 140V220 9999 FEW017 30/23 Q1008 NOSIG RMK A2978
2026-04-22 06:00:00,METAR RCKH 220600Z 17013KT 130V200 9999 FEW017 30/23 Q1008 NOSIG RMK A2978
2026-04-22 05:30:00,METAR RCKH 220530Z 16014KT 130V190 9999 FEW017 31/22 Q1009 NOSIG RMK A2980
2026-04-22 05:00:00,METAR RCKH 220500Z 16016G26KT 130V200 9999 FEW015 SCT028 31/22 Q1009 NOSIG RMK A2980
2026-04-22 04:30:00,METAR RCKH 220430Z 17017KT 9999 FEW018 SCT025 30/22 Q1009 NOSIG RMK A2981
2026-04-22 04:00:00,METAR RCKH 220400Z 17016KT 9999 FEW018 SCT025 30/22 Q1009 NOSIG RMK A2982
2026-04-22 03:30:00,METAR RCKH 220330Z 17016KT 140V200 9999 FEW015 SCT220 30/21 Q1010 NOSIG RMK A2983
2026-04-22 03:00:00,METAR RCKH 220300Z 16014KT 120V210 9999 FEW015 30/21 Q1010 NOSIG RMK A2984
2026-04-22 02:30:00,METAR RCKH 220230Z 17016G26KT 130V200 9999 FEW015 30/21 Q1010 NOSIG RMK A2984
2026-04-22 02:00:00,METAR RCKH 220200Z 17012G22KT 140V210 9999 FEW018 29/21 Q1010 NOSIG RMK A2985
2026-04-22 01:30:00,METAR RCKH 220130Z 14012KT 120V190 9999 FEW015 30/20 Q1010 NOSIG RMK A2985
2026-04-22 01:00:00,METAR RCKH 220100Z 15012KT 110V190 CAVOK 30/19 Q1010 NOSIG RMK A2985
2026-04-22 00:30:00,METAR RCKH 220030Z 12008KT 070V200 9999 FEW025 29/20 Q1010 NOSIG RMK A2985
2026-04-22 00:00:00,METAR RCKH 220000Z 08006KT 9999 FEW025 28/21 Q1010 NOSIG RMK A2985
2026-04-21 23:30:00,METAR RCKH 212330Z 08006KT 9999 FEW018 27/21 Q1010 NOSIG RMK A2984
2026-04-21 23:00:00,METAR RCKH 212300Z 08007KT 040V100 9999 FEW018 25/20 Q1010 NOSIG RMK A2983
2026-04-21 22:30:00,METAR RCKH 212230Z 06004KT 040V110 9999 FEW018 SCT180 25/20 Q1010 NOSIG RMK A2983
2026-04-21 22:00:00,METAR RCKH 212200Z VRB02KT 9999 FEW018 SCT170 25/21 Q1010 NOSIG RMK A2983
2026-04-21 21:00:00,METAR RCKH 212100Z VRB02KT 9999 FEW020 SCT170 25/21 Q1009 NOSIG RMK A2982
2026-04-21 20:00:00,METAR RCKH 212000Z 08004KT 9999 FEW020 24/21 Q1009 NOSIG RMK A2980
2026-04-21 19:00:00,METAR RCKH 211900Z 08005KT 9999 FEW020 25/21 Q1009 NOSIG RMK A2981
2026-04-21 18:00:00,METAR RCKH 211800Z 29004KT 9999 FEW020 SCT170 26/21 Q1010 NOSIG RMK A2983
2026-04-21 17:00:00,METAR RCKH 211700Z 27004KT 9999 FEW020 SCT080 BKN170 26/20 Q1011 NOSIG RMK A2986
2026-04-21 16:00:00,METAR RCKH 211600Z VRB02KT 9999 FEW020 SCT080 BKN170 27/21 Q1011 NOSIG RMK A2987
2026-04-21 15:30:00,METAR RCKH 211530Z 33003KT 290V360 9999 FEW020 SCT080 BKN170 27/20 Q1011 NOSIG RMK A2988
2026-04-21 15:00:00,METAR RCKH 211500Z 34005KT 9999 FEW020 SCT080 BKN160 27/20 Q1012 NOSIG RMK A2989
2026-04-21 14:30:00,METAR RCKH 211430Z 04002KT 9999 FEW020 SCT080 BKN160 27/21 Q1012 NOSIG RMK A2989
2026-04-21 14:00:00,METAR RCKH 211400Z 02003KT 320V070 9999 FEW020 SCT080 BKN160 28/21 Q1012 NOSIG RMK A2989
2026-04-21 13:30:00,METAR RCKH 211330Z VRB02KT 9999 FEW020 SCT080 BKN160 28/21 Q1011 NOSIG RMK A2988
2026-04-21 13:00:00,METAR RCKH 211300Z 01004KT 350V050 9999 FEW020 SCT080 BKN160 28/21 Q1011 NOSIG RMK A2987
2026-04-21 12:30:00,METAR RCKH 211230Z 01004KT 350V050 9999 FEW020 SCT080 BKN180 28/21 Q1011 NOSIG RMK A2987
2026-04-21 12:00:00,METAR RCKH 211200Z 03005KT 350V050 9999 FEW020 SCT080 BKN180 28/21 Q1011 NOSIG RMK A2986
2026-04-21 11:30:00,METAR RCKH 211130Z 04006KT 350V060 9999 FEW020 SCT075 BKN150 28/21 Q1010 NOSIG RMK A2985
2026-04-21 11:00:00,METAR RCKH 211100Z 01009KT 350V050 9999 FEW018 SCT090 BKN160 29/21 Q1010 NOSIG RMK A2984
2026-04-21 10:30:00,METAR RCKH 211030Z 01008KT 320V040 9999 FEW018 SCT060 BKN130 29/21 Q1010 NOSIG RMK A2983
2026-04-21 10:00:00,METAR RCKH 211000Z 21005KT 180V250 9999 FEW018 SCT060 BKN130 30/20 Q1009 NOSIG RMK A2981
2026-04-21 09:30:00,METAR RCKH 210930Z 15008KT 110V190 9999 FEW018 FEW020TCU BKN150 31/18 Q1009 NOSIG RMK TCU SE A2981
2026-04-21 09:00:00,METAR RCKH 210900Z 17013KT 9999 FEW018 FEW020TCU SCT150 30/19 Q1009 NOSIG RMK TCU E A2981
2026-04-21 08:30:00,METAR RCKH 210830Z 17011KT 130V190 9999 FEW018 FEW020TCU BKN150 31/18 Q1009 NOSIG RMK TCU E A2980
2026-04-21 08:08:00,SPECI RCKH 210808Z 17012KT 9999 FEW015 FEW020TCU BKN150 31/19 Q1009 NOSIG RMK TCU E A2980
2026-04-21 08:00:00,METAR RCKH 210800Z 16012KT 130V190 9999 FEW015 FEW020TCU BKN150 30/19 Q1009 NOSIG RMK 17012KT/R09 TCU E A2980
2026-04-21 07:30:00,METAR RCKH 210730Z 16012KT 120V200 9999 FEW015 FEW020TCU SCT065 BKN150 31/19 Q1009 NOSIG RMK 17015KT/R09 TCU E A2980
2026-04-21 07:00:00,METAR RCKH 210700Z 17013G23KT 150V210 9999 FEW015 FEW020TCU SCT025 31/19 Q1009 NOSIG RMK 17015KT/R09 TCU E A2981
2026-04-21 06:30:00,METAR RCKH 210630Z 16012KT 130V240 9999 FEW015 FEW020TCU SCT025 BKN060 31/19 Q1009 NOSIG RMK 19012KT/R09 TCU E A2982
2026-04-21 06:00:00,METAR RCKH 210600Z 26010KT 210V310 9999 SCT015 FEW020TCU SCT080 32/20 Q1010 NOSIG RMK 23008KT/R09 TCU E A2983
2026-04-21 05:30:00,METAR RCKH 210530Z 29008KT 170V320 9999 FEW015 FEW020TCU SCT100 30/21 Q1010 NOSIG RMK 27006KT/R09 TCU E A2984
2026-04-21 05:00:00,METAR RCKH 210500Z 27009KT 240V310 9999 SCT012 FEW025TCU SCT070 30/21 Q1011 NOSIG RMK 26010KT/R09 TCU E A2986
2026-04-21 04:30:00,METAR RCKH 210430Z 24011KT 220V290 9000 FEW012 SCT030 30/22 Q1011 NOSIG RMK 25011KT/R09 A2988
2026-04-21 04:00:00,METAR RCKH 210400Z 22010KT 180V260 7000 FEW015 SCT030 BKN180 30/22 Q1011 NOSIG RMK 23012KT/R09 A2988
2026-04-21 03:30:00,METAR RCKH 210330Z 24013KT 8000 FEW020 FEW025TCU SCT030 BKN150 29/22 Q1012 NOSIG RMK 25013KT/R09 TCU ESE A2989
2026-04-21 03:08:00,SPECI RCKH 210308Z 24011KT 8000 FEW015 SCT020 FEW025TCU BKN180 30/22 Q1012 NOSIG RMK 25012KT/R09 TCU ESE A2990
2026-04-21 03:00:00,METAR RCKH 210300Z 22008KT 180V270 8000 FEW015 SCT020 FEW025TCU BKN180 31/21 Q1012 NOSIG RMK TCU ESE A2990
2026-04-21 02:30:00,METAR RCKH 210230Z VRB03KT 9999 FEW018 SCT025 31/20 Q1012 NOSIG RMK A2990
2026-04-21 02:00:00,METAR RCKH 210200Z 23004KT 160V330 9999 FEW018 SCT025 30/20 Q1012 NOSIG RMK A2991
2026-04-21 01:30:00,METAR RCKH 210130Z 09003G14KT 9999 FEW018 SCT025 30/20 Q1013 NOSIG RMK A2993
2026-04-21 01:00:00,METAR RCKH 210100Z 33004KT 260V050 9999 FEW018 SCT080 29/20 Q1013 NOSIG RMK A2993
2026-04-21 00:30:00,METAR RCKH 210030Z 03006KT 340V080 9999 FEW018 SCT025 28/19 Q1013 NOSIG RMK A2993
2026-04-21 00:00:00,METAR RCKH 210000Z 06005KT 010V100 9000 FEW015 SCT025 BKN080 28/20 Q1013 NOSIG RMK A2993
2026-04-20 23:30:00,METAR RCKH 202330Z 06003KT 340V100 9000 FEW014 SCT070 BKN220 27/21 Q1013 NOSIG RMK A2993
2026-04-20 23:00:00,METAR RCKH 202300Z 09003KT 8000 FEW014 SCT070 BKN220 27/22 Q1013 NOSIG RMK A2992
2026-04-20 22:30:00,METAR RCKH 202230Z VRB02KT 8000 FEW014 SCT120 26/22 Q1012 NOSIG RMK A2991
2026-04-20 22:00:00,METAR RCKH 202200Z 02002KT 7000 FEW012 SCT030 25/22 Q1012 NOSIG RMK A2990
2026-04-20 21:00:00,METAR RCKH 202100Z 05003KT 6000 FEW012 SCT020 25/22 Q1012 NOSIG RMK A2989
2026-04-20 20:00:00,METAR RCKH 202000Z 05002KT 8000 FEW012 SCT020 25/21 Q1011 NOSIG RMK A2988
2026-04-20 19:00:00,METAR RCKH 201900Z 07003KT 8000 FEW012 SCT020 BKN028 25/21 Q1012 NOSIG RMK A2989
2026-04-20 18:00:00,METAR RCKH 201800Z 07004KT 9999 FEW012 SCT020 BKN028 26/22 Q1012 NOSIG RMK A2990
2026-04-20 17:00:00,METAR RCKH 201700Z 06003KT 9999 FEW012 SCT020 26/22 Q1012 NOSIG RMK A2991
2026-04-20 16:00:00,METAR RCKH 201600Z VRB02KT 9999 FEW012 SCT022 BKN050 26/22 Q1013 NOSIG RMK A2993
2026-04-20 15:30:00,METAR RCKH 201530Z 29003KT 260V320 9999 FEW012 SCT020 BKN026 26/22 Q1013 NOSIG RMK A2994
2026-04-20 15:00:00,METAR RCKH 201500Z 27005KT 9999 FEW020 SCT025 BKN030 26/22 Q1013 NOSIG RMK A2994
2026-04-20 14:30:00,METAR RCKH 201430Z 25004KT 9999 FEW020 SCT025 BKN030 27/22 Q1013 NOSIG RMK A2994
2026-04-20 14:00:00,METAR RCKH 201400Z 28003KT 210V330 9999 FEW020 SCT025 BKN030 27/22 Q1013 NOSIG RMK A2993
2026-04-20 13:30:00,METAR RCKH 201330Z 28004KT 220V310 9999 FEW020 SCT025 BKN030 27/22 Q1013 NOSIG RMK A2993
2026-04-20 13:00:00,METAR RCKH 201300Z 28004KT 220V310 9999 FEW020 SCT025 BKN030 27/22 Q1013 NOSIG RMK A2993
2026-04-20 12:30:00,METAR RCKH 201230Z 26004KT 230V290 9999 FEW018 SCT023 BKN028 27/21 Q1012 NOSIG RMK A2991
2026-04-20 12:00:00,METAR RCKH 201200Z 27004KT 210V300 9999 FEW018 SCT023 BKN028 27/21 Q1012 NOSIG RMK A2990
2026-04-20 11:30:00,METAR RCKH 201130Z 27004KT 230V350 9999 FEW020 SCT026 27/21 Q1011 NOSIG RMK A2988
2026-04-20 11:00:00,METAR RCKH 201100Z 26004KT 210V300 9999 FEW020 27/21 Q1011 NOSIG RMK A2988
2026-04-20 10:30:00,METAR RCKH 201030Z 27004KT 240V310 9999 FEW020 27/21 Q1011 NOSIG RMK A2986
2026-04-20 10:00:00,METAR RCKH 201000Z 26006KT 230V290 9999 FEW020 27/21 Q1011 NOSIG RMK A2986
2026-04-20 09:30:00,METAR RCKH 200930Z 23006KT 180V280 9999 FEW020 28/21 Q1010 NOSIG RMK A2985
2026-04-20 09:00:00,METAR RCKH 200900Z 25006KT 220V300 9999 FEW020 29/21 Q1010 NOSIG RMK 26006KT/R09 A2985
2026-04-20 08:30:00,METAR RCKH 200830Z 27007KT 230V310 9999 FEW020 29/21 Q1010 NOSIG RMK 27007KT/R09 A2985
2026-04-20 08:00:00,METAR RCKH 200800Z 28007KT 240V320 9999 FEW020 29/21 Q1010 NOSIG RMK 27009KT/R09 A2985
2026-04-20 07:30:00,METAR RCKH 200730Z 27009KT 230V310 9999 FEW016 30/20 Q1010 NOSIG RMK 28011KT/R09 A2985
2026-04-20 07:00:00,METAR RCKH 200700Z 26010KT 230V310 9999 FEW020 30/21 Q1011 NOSIG RMK 27010KT/R09 A2986
2026-04-20 06:30:00,METAR RCKH 200630Z 28011KT 240V320 9999 FEW020 29/21 Q1011 NOSIG RMK 28011KT/R09 A2987
2026-04-20 06:00:00,METAR RCKH 200600Z 26011KT 240V300 9999 FEW020 30/22 Q1011 NOSIG RMK 27011KT/R09 A2987
2026-04-20 05:30:00,METAR RCKH 200530Z 27010KT 240V300 9999 FEW020 29/22 Q1011 NOSIG RMK 27011KT/R09 A2988
2026-04-20 05:00:00,METAR RCKH 200500Z 25010KT 230V290 9999 FEW017 SCT024 30/21 Q1011 NOSIG RMK 26010KT/R09 A2988
2026-04-20 04:30:00,METAR RCKH 200430Z 25010KT 220V280 9999 FEW017 SCT022 30/21 Q1012 NOSIG RMK 25010KT/R09 A2990
2026-04-20 04:00:00,METAR RCKH 200400Z 24010KT 200V290 9999 FEW016 SCT022 30/21 Q1012 NOSIG RMK 26010KT/R09 A2991
2026-04-20 03:30:00,METAR RCKH 200330Z 24009KT 210V290 9999 FEW016 SCT023 30/21 Q1013 NOSIG RMK 24009KT/R09 A2992
2026-04-20 03:00:00,METAR RCKH 200300Z 27007KT 170V340 9999 FEW016 SCT023 30/21 Q1013 NOSIG RMK 25009KT/R09 A2992
2026-04-20 02:54:00,SPECI RCKH 200254Z 27006KT 170V330 9999 FEW015 SCT024 29/21 Q1013 NOSIG RMK 26008KT/R09 A2993
2026-04-20 02:30:00,METAR RCKH 200230Z 29006KT 250V350 9999 FEW015 SCT024 30/21 Q1013 NOSIG RMK A2993
2026-04-20 02:00:00,METAR RCKH 200200Z 28008KT 230V330 9999 FEW014 SCT020 29/21 Q1013 NOSIG RMK A2994
2026-04-20 01:30:00,METAR RCKH 200130Z 26007KT 230V320 9999 FEW014 SCT020 29/21 Q1013 NOSIG RMK A2993
2026-04-20 01:00:00,METAR RCKH 200100Z 28006KT 200V330 9999 FEW012 SCT020 28/21 Q1013 NOSIG RMK A2993
2026-04-20 00:30:00,METAR RCKH 200030Z VRB02KT 9999 FEW014 SCT019 29/21 Q1013 NOSIG RMK A2993
2026-04-20 00:00:00,METAR RCKH 200000Z 06004KT 010V110 9999 FEW015 SCT021 27/21 Q1013 NOSIG RMK A2992
2026-04-19 23:30:00,METAR RCKH 192330Z 05005KT 010V080 9999 FEW016 SCT022 26/21 Q1012 NOSIG RMK A2991
2026-04-19 23:00:00,METAR RCKH 192300Z 05005KT 9999 FEW018 SCT030 26/21 Q1012 NOSIG RMK A2991
2026-04-19 22:30:00,METAR RCKH 192230Z 05004KT 9000 FEW015 FEW018TCU SCT025 25/21 Q1012 NOSIG RMK TCU SE A2990
2026-04-19 22:00:00,METAR RCKH 192200Z VRB02KT 8000 FEW015 FEW018TCU SCT025 25/21 Q1012 NOSIG RMK TCU SE A2989
2026-04-19 21:00:00,METAR RCKH 192100Z 05005KT 7000 FEW015 SCT025 BKN035 25/21 Q1011 NOSIG RMK A2987
2026-04-19 20:00:00,METAR RCKH 192000Z 06003KT 8000 FEW015 SCT025 BKN035 25/21 Q1011 NOSIG RMK A2987
2026-04-19 19:00:00,METAR RCKH 191900Z 30003KT 9000 FEW015 BKN025 25/21 Q1011 NOSIG RMK A2987
2026-04-19 18:00:00,METAR RCKH 191800Z 29003KT 9999 FEW018 SCT025 25/21 Q1011 NOSIG RMK A2988
2026-04-19 17:00:00,METAR RCKH 191700Z VRB01KT 9999 FEW015 SCT025 25/21 Q1012 NOSIG RMK A2989
2026-04-19 16:00:00,METAR RCKH 191600Z 28003KT 250V310 9999 FEW012 SCT120 25/22 Q1012 NOSIG RMK A2989
2026-04-19 15:30:00,METAR RCKH 191530Z 28005KT 9999 FEW016 SCT120 25/22 Q1012 NOSIG RMK A2990
2026-04-19 15:00:00,METAR RCKH 191500Z 26004KT 9999 FEW016 SCT120 25/22 Q1012 NOSIG RMK A2990
2026-04-19 14:30:00,METAR RCKH 191430Z 27005KT 9999 FEW016 SCT120 25/22 Q1012 NOSIG RMK A2990
2026-04-19 14:00:00,METAR RCKH 191400Z 27005KT 240V300 9999 FEW016 SCT120 25/22 Q1012 NOSIG RMK A2990
2026-04-19 13:30:00,METAR RCKH 191330Z 26005KT 9999 FEW016 SCT120 25/22 Q1012 NOSIG RMK A2989
2026-04-19 13:00:00,METAR RCKH 191300Z 26005KT 230V300 9999 FEW016 25/22 Q1011 NOSIG RMK A2988
2026-04-19 12:30:00,METAR RCKH 191230Z 26005KT 9999 FEW016 26/22 Q1011 NOSIG RMK A2987
2026-04-19 12:00:00,METAR RCKH 191200Z 25005KT 9999 FEW016 26/21 Q1011 NOSIG RMK A2986
2026-04-19 11:30:00,METAR RCKH 191130Z 27006KT 9999 FEW016 26/21 Q1010 NOSIG RMK A2985
2026-04-19 11:00:00,METAR RCKH 191100Z 28004KT 250V310 9999 FEW018 26/20 Q1010 NOSIG RMK A2984
2026-04-19 10:30:00,METAR RCKH 191030Z 28005KT 250V320 9999 FEW050 27/19 Q1010 NOSIG RMK A2984
2026-04-19 10:00:00,METAR RCKH 191000Z 27005KT 9999 FEW040 27/19 Q1009 NOSIG RMK A2982
2026-04-19 09:30:00,METAR RCKH 190930Z 28006KT 9999 FEW026 28/20 Q1009 NOSIG RMK A2982
2026-04-19 09:10:00,SPECI RCKH 190910Z 27007KT 250V310 9999 FEW070 28/20 Q1009 NOSIG RMK A2982
2026-04-19 09:00:00,METAR RCKH 190900Z 30006KT 240V360 9999 FEW070 29/21 Q1009 NOSIG RMK 28008KT/R09 A2981
2026-04-19 08:30:00,METAR RCKH 190830Z 27008KT 240V300 9999 FEW070 29/21 Q1009 NOSIG RMK 28010KT/R09 A2980
2026-04-19 08:00:00,METAR RCKH 190800Z 27009KT 240V300 9999 FEW018 29/21 Q1009 NOSIG RMK 28010KT/R09 A2980
2026-04-19 07:30:00,METAR RCKH 190730Z 26011KT CAVOK 30/21 Q1009 NOSIG RMK 29011KT/R09 A2980
2026-04-19 07:00:00,METAR RCKH 190700Z 26010KT 240V300 9999 FEW050 31/19 Q1009 NOSIG RMK 28011KT/R09 A2980
2026-04-19 06:30:00,METAR RCKH 190630Z 28009KT 240V320 9999 FEW040 30/19 Q1009 NOSIG RMK 28011KT/R09 A2981
2026-04-19 06:00:00,METAR RCKH 190600Z 27010KT 9999 FEW020 31/20 Q1009 NOSIG RMK 28011KT/R09 A2982
2026-04-19 05:30:00,METAR RCKH 190530Z 28010KT 250V310 9999 FEW018 31/20 Q1010 NOSIG RMK 28012KT/R09 A2983
2026-04-19 05:00:00,METAR RCKH 190500Z 27009KT 230V320 9999 FEW018 31/21 Q1010 NOSIG RMK 27012KT/R09 A2983
2026-04-19 04:30:00,METAR RCKH 190430Z 28011KT 240V310 9999 FEW018 30/21 Q1010 NOSIG RMK 28012KT/R09 A2984
2026-04-19 04:00:00,METAR RCKH 190400Z 25012KT 9999 FEW020 31/21 Q1010 NOSIG RMK 27012KT/R09 A2984
2026-04-19 03:30:00,METAR RCKH 190330Z 28005KT 170V330 9999 FEW040 32/22 Q1010 NOSIG RMK 26010KT/R09 A2985
2026-04-19 03:16:00,SPECI RCKH 190316Z VRB03KT 9999 FEW020 31/20 Q1011 NOSIG RMK 27009KT/R09 A2986
2026-04-19 03:00:00,METAR RCKH 190300Z VRB04KT 9999 FEW020 31/19 Q1011 NOSIG RMK A2986
2026-04-19 02:30:00,METAR RCKH 190230Z 32005KT 240V010 9999 FEW020 31/19 Q1011 NOSIG RMK A2987
2026-04-19 02:00:00,METAR RCKH 190200Z 32007KT 290V020 9999 FEW020 30/20 Q1011 NOSIG RMK A2988
2026-04-19 01:30:00,METAR RCKH 190130Z 34005KT 280V030 8000 FEW020 29/21 Q1011 NOSIG RMK A2988
2026-04-19 01:00:00,METAR RCKH 190100Z 02005KT 310V060 8000 FEW020 28/21 Q1011 NOSIG RMK A2988
2026-04-19 00:30:00,METAR RCKH 190030Z 01005KT 310V070 7000 FEW010 28/21 Q1011 NOSIG RMK A2987
2026-04-19 00:00:00,METAR RCKH 190000Z 36007KT 340V040 7000 FEW010 26/20 Q1011 NOSIG RMK A2987
2026-04-18 23:30:00,METAR RCKH 182330Z 36007KT 330V060 5000 HZ FEW010 26/21 Q1011 NOSIG RMK A2987
2026-04-18 23:10:00,SPECI RCKH 182310Z 36007KT 330V040 5000 HZ FEW010 25/21 Q1011 NOSIG RMK A2987
2026-04-18 23:00:00,METAR RCKH 182300Z 35007KT 330V030 4000 HZ FEW010 SCT020 25/21 Q1011 NOSIG RMK A2986
2026-04-18 22:30:00,METAR RCKH 182230Z 01007KT 330V040 3500 HZ FEW010 SCT020 25/21 Q1010 NOSIG RMK A2985
2026-04-18 22:00:00,METAR RCKH 182200Z 36006KT 320V030 4000 HZ FEW010 SCT020 25/21 Q1010 NOSIG RMK A2984
2026-04-18 21:00:00,METAR RCKH 182100Z 36005KT 330V030 4000 HZ FEW010 SCT020 25/21 Q1010 NOSIG RMK A2983
2026-04-18 20:00:00,METAR RCKH 182000Z 34003KT 4000 HZ FEW010 SCT020 25/21 Q1010 NOSIG RMK A2983
2026-04-18 19:00:00,METAR RCKH 181900Z 35005KT 330V040 4000 HZ FEW010 SCT020 25/21 Q1010 NOSIG RMK A2983
2026-04-18 18:00:00,METAR RCKH 181800Z 33007KT 300V360 4000 HZ FEW010 SCT020 25/21 Q1010 NOSIG RMK A2984
2026-04-18 17:00:00,METAR RCKH 181700Z 01009KT 4000 HZ FEW010 SCT020 25/21 Q1010 NOSIG RMK A2985
2026-04-18 16:00:00,METAR RCKH 181600Z 33008KT 4000 HZ FEW010 SCT020 26/22 Q1010 NOSIG RMK A2985
2026-04-18 15:54:00,SPECI RCKH 181554Z 33007KT 4000 HZ FEW010 SCT020 26/22 Q1010 NOSIG RMK A2985
2026-04-18 15:00:00,METAR RCKH 181500Z 33004KT 270V080 6000 FEW015 SCT020 26/21 Q1011 NOSIG RMK A2986
2026-04-18 14:30:00,METAR RCKH 181430Z 34004KT 300V030 8000 FEW015 27/21 Q1011 NOSIG RMK A2986
2026-04-18 14:00:00,METAR RCKH 181400Z 34006KT 280V040 9000 FEW018 27/22 Q1011 NOSIG RMK A2986
2026-04-18 13:30:00,METAR RCKH 181330Z 32007KT 290V010 9999 FEW018 27/22 Q1011 NOSIG RMK A2986
2026-04-18 13:00:00,METAR RCKH 181300Z 33006KT 290V020 9999 FEW015 27/22 Q1010 NOSIG RMK A2985
2026-04-18 12:30:00,METAR RCKH 181230Z 32006KT 270V360 9999 FEW015 26/22 Q1010 NOSIG RMK A2984
2026-04-18 12:00:00,METAR RCKH 181200Z 33006KT 300V360 9999 FEW018 27/22 Q1010 NOSIG RMK A2983
2026-04-18 11:30:00,METAR RCKH 181130Z 32007KT 250V050 9999 FEW015 27/21 Q1010 NOSIG RMK A2983
2026-04-18 11:00:00,METAR RCKH 181100Z 31009KT 270V330 9999 FEW014 27/21 Q1009 NOSIG RMK A2982
2026-04-18 10:30:00,METAR RCKH 181030Z 31009KT 270V330 9999 FEW014 27/21 Q1009 NOSIG RMK A2982
2026-04-18 10:00:00,METAR RCKH 181000Z 32010KT 290V350 9999 FEW050 27/20 Q1009 NOSIG RMK A2981
2026-04-18 09:40:00,SPECI RCKH 180940Z 32009KT 9999 FEW020 27/20 Q1009 NOSIG RMK A2981
2026-04-18 09:30:00,METAR RCKH 180930Z 31007KT 280V360 9999 FEW020 28/21 Q1009 NOSIG RMK 31012KT/R09 A2981
2026-04-18 09:00:00,METAR RCKH 180900Z 31007KT 280V350 9999 FEW020 28/21 Q1009 NOSIG RMK 30013KT/R09 A2980
2026-04-18 08:30:00,METAR RCKH 180830Z 30010KT 270V350 9999 FEW018 28/21 Q1009 NOSIG RMK 32011KT/R09 A2980
2026-04-18 08:00:00,METAR RCKH 180800Z 30011KT 240V350 9999 FEW015 SCT025 28/22 Q1009 NOSIG RMK 32011KT/R09 A2981
2026-04-18 07:30:00,METAR RCKH 180730Z 31010KT 280V360 9999 FEW015 SCT020 BKN025 28/22 Q1009 NOSIG RMK 29015KT/R09 A2981
2026-04-18 07:00:00,METAR RCKH 180700Z 29013KT 260V330 9999 FEW015 SCT020 BKN025 29/22 Q1009 NOSIG RMK 28014KT/R09 A2981
2026-04-18 06:30:00,METAR RCKH 180630Z 29012KT 260V320 9999 FEW015 SCT025 29/22 Q1009 NOSIG RMK 28014KT/R09 A2982
2026-04-18 06:00:00,METAR RCKH 180600Z 27012KT 240V340 9999 FEW014 SCT050 29/23 Q1009 NOSIG RMK 28013KT/R09 A2982
2026-04-18 05:30:00,METAR RCKH 180530Z 26012KT 240V300 9000 FEW014 SCT200 29/23 Q1010 NOSIG RMK 28013KT/R09 A2983
2026-04-18 05:00:00,METAR RCKH 180500Z 28009KT 230V340 8000 FEW014 SCT060 29/22 Q1010 NOSIG RMK 27011KT/R09 A2983
2026-04-18 04:30:00,METAR RCKH 180430Z 26011KT 240V300 7000 FEW014 BKN120 29/22 Q1010 NOSIG RMK 28013KT/R09 A2985
2026-04-18 04:00:00,METAR RCKH 180400Z 27009KT 230V330 7000 FEW014 SCT150 30/23 Q1011 NOSIG RMK 27010KT/R09 A2986
2026-04-18 03:30:00,METAR RCKH 180330Z 25008KT 220V310 7000 FEW014 SCT120 29/22 Q1011 NOSIG RMK 26008KT/R09 A2986
2026-04-18 03:00:00,METAR RCKH 180300Z 25008KT 220V310 7000 FEW014 SCT120 29/21 Q1011 NOSIG RMK 26008KT/R09 A2987
2026-04-18 02:30:00,METAR RCKH 180230Z 24008KT 210V300 6000 FEW014 SCT120 28/20 Q1011 NOSIG RMK A2987
2026-04-18 02:00:00,METAR RCKH 180200Z 25006KT 220V290 6000 FEW014 SCT120 29/21 Q1011 NOSIG RMK A2987
2026-04-18 01:30:00,METAR RCKH 180130Z 27009KT 230V300 6000 FEW014 SCT120 29/21 Q1011 NOSIG RMK A2987
2026-04-18 01:00:00,METAR RCKH 180100Z 30004KT 7000 FEW014 SCT120 30/20 Q1011 NOSIG RMK A2987
2026-04-18 00:30:00,METAR RCKH 180030Z 06003KT 320V100 7000 FEW014 SCT120 28/20 Q1011 NOSIG RMK A2986
2026-04-18 00:00:00,METAR RCKH 180000Z 03004KT 350V080 7000 FEW012 SCT120 27/20 Q1011 NOSIG RMK A2986
2026-04-17 23:30:00,METAR RCKH 172330Z 03004KT 330V080 7000 FEW012 SCT120 27/21 Q1011 NOSIG RMK A2986
2026-04-17 23:00:00,METAR RCKH 172300Z 35004KT 320V030 7000 FEW013 26/21 Q1010 NOSIG RMK A2985
2026-04-17 22:30:00,METAR RCKH 172230Z 33003KT 6000 FEW012 26/21 Q1010 NOSIG RMK A2985
2026-04-17 22:00:00,METAR RCKH 172200Z VRB01KT 7000 FEW011 SCT030 25/20 Q1010 NOSIG RMK A2984
2026-04-17 21:00:00,METAR RCKH 172100Z 03004KT 6000 FEW010 SCT030 BKN070 25/21 Q1010 TEMPO 5000 HZ RMK A2983
2026-04-17 20:00:00,METAR RCKH 172000Z VRB02KT 6000 FEW010 SCT018 BKN035 25/21 Q1009 TEMPO 5000 HZ RMK A2982
2026-04-17 19:00:00,METAR RCKH 171900Z 01006KT 340V040 9000 FEW010 SCT015 BKN030 26/22 Q1010 NOSIG RMK A2983
2026-04-17 18:00:00,METAR RCKH 171800Z 32004KT 290V350 9999 FEW010 SCT015 BKN030 26/22 Q1010 NOSIG RMK A2984
2026-04-17 17:00:00,METAR RCKH 171700Z 30005KT 9000 FEW010 SCT016 BKN025 25/22 Q1011 NOSIG RMK A2987
2026-04-17 16:00:00,METAR RCKH 171600Z 29005KT 9000 FEW011 SCT017 BKN028 25/22 Q1011 NOSIG RMK A2988
2026-04-17 15:30:00,METAR RCKH 171530Z 28004KT 240V350 9999 FEW012 SCT030 BKN070 25/22 Q1012 NOSIG RMK A2989
2026-04-17 15:00:00,METAR RCKH 171500Z 30004KT 9999 FEW012 BKN032 26/22 Q1012 NOSIG RMK A2989
2026-04-17 14:30:00,METAR RCKH 171430Z 30006KT 9999 FEW012 BKN032 26/22 Q1012 NOSIG RMK A2989
2026-04-17 14:00:00,METAR RCKH 171400Z 31006KT 260V360 9999 FEW012 BKN032 26/21 Q1012 NOSIG RMK A2990
2026-04-17 13:30:00,METAR RCKH 171330Z 31007KT 9999 FEW010 SCT015 BKN035 26/21 Q1012 NOSIG RMK A2989
2026-04-17 13:00:00,METAR RCKH 171300Z 32008KT 290V350 9999 FEW010 SCT018 BKN038 26/21 Q1011 NOSIG RMK A2988
2026-04-17 12:33:00,SPECI RCKH 171233Z 32007KT 280V010 9999 FEW012 SCT020 BKN040 26/21 Q1011 NOSIG RMK A2987
2026-04-17 12:30:00,METAR RCKH 171230Z 31006KT 280V360 9999 FEW012 SCT020 BKN042 26/21 Q1011 NOSIG RMK 30007KT/R09 A2987
2026-04-17 12:00:00,METAR RCKH 171200Z 30007KT 270V340 9999 FEW012 SCT020 BKN042 26/22 Q1011 NOSIG RMK 30008KT/R09 A2986
2026-04-17 11:30:00,METAR RCKH 171130Z 31006KT 270V340 9999 FEW010 BKN019 BKN042 26/21 Q1010 NOSIG RMK 32008KT/R09 A2985
2026-04-17 11:00:00,METAR RCKH 171100Z 30008KT 260V330 9999 FEW012 BKN020 BKN050 26/22 Q1010 NOSIG RMK 31008KT/R09 A2983
2026-04-17 10:30:00,METAR RCKH 171030Z 30008KT 270V330 9999 FEW012 SCT020 BKN060 26/22 Q1009 NOSIG RMK 32009KT/R09 A2982
2026-04-17 10:00:00,METAR RCKH 171000Z 29009KT 9999 FEW016 SCT040 26/21 Q1009 NOSIG RMK 31007KT/R09 A2981
2026-04-17 09:30:00,METAR RCKH 170930Z 28009KT 9999 FEW016 SCT040 27/21 Q1009 NOSIG RMK 32011KT/R09 A2980
2026-04-17 09:00:00,METAR RCKH 170900Z 28009KT 250V320 9999 FEW016 SCT140 28/22 Q1008 NOSIG RMK 28012KT/R09 A2979
2026-04-17 08:30:00,METAR RCKH 170830Z 28007KT 240V320 9999 FEW018 SCT140 29/21 Q1008 NOSIG RMK 28009KT/R09 A2979
2026-04-17 08:00:00,METAR RCKH 170800Z 28010KT 240V310 9999 FEW018 SCT140 28/21 Q1009 NOSIG RMK 29011KT/R09 A2980
2026-04-17 07:30:00,METAR RCKH 170730Z 29012KT 250V310 9999 FEW018 SCT140 28/21 Q1009 NOSIG RMK 29014KT/R09 A2981
2026-04-17 07:00:00,METAR RCKH 170700Z 27013KT 250V310 9999 FEW018 SCT140 28/21 Q1009 NOSIG RMK 28015KT/R09 A2981
2026-04-17 06:30:00,METAR RCKH 170630Z 27014KT 240V310 9999 FEW018 SCT120 28/22 Q1009 NOSIG RMK 27015KT/R09 A2982
2026-04-17 06:00:00,METAR RCKH 170600Z 27013KT 230V300 9000 FEW016 SCT120 29/22 Q1009 NOSIG RMK 28015KT/R09 A2982
2026-04-17 05:30:00,METAR RCKH 170530Z 26012KT 9000 FEW016 SCT120 30/22 Q1010 NOSIG RMK 27013KT/R09 A2983
2026-04-17 05:00:00,METAR RCKH 170500Z 26010KT 220V300 9999 FEW018 SCT220 30/22 Q1010 NOSIG RMK 27009KT/R09 A2983
2026-04-17 04:30:00,METAR RCKH 170430Z VRB04KT 9999 FEW030 SCT200 30/21 Q1010 NOSIG RMK 26008KT/R09 A2985
2026-04-17 04:00:00,METAR RCKH 170400Z 28007KT 240V330 9999 FEW030 SCT200 30/22 Q1011 NOSIG RMK 27007KT/R09 A2987
2026-04-17 03:30:00,METAR RCKH 170330Z 28008KT 230V320 9999 FEW018 SCT030 29/22 Q1011 NOSIG RMK 27010KT/R09 A2988
2026-04-17 03:00:00,METAR RCKH 170300Z 29010KT 250V340 9000 FEW018 SCT028 29/22 Q1012 NOSIG RMK 28011KT/R09 A2989
2026-04-17 02:51:00,SPECI RCKH 170251Z 29008KT 250V350 8000 FEW018 SCT030 28/21 Q1012 NOSIG RMK 28011KT/R09 A2989
2026-04-17 02:30:00,METAR RCKH 170230Z 28008KT 220V340 8000 FEW018 SCT030 29/21 Q1012 NOSIG RMK A2989
2026-04-17 02:00:00,METAR RCKH 170200Z 30005KT 260V020 8000 FEW018 SCT025 29/21 Q1011 NOSIG RMK A2988
2026-04-17 01:30:00,METAR RCKH 170130Z 33006KT 280V030 8000 FEW020 BKN025 BKN070 27/20 Q1011 NOSIG RMK A2988
2026-04-17 01:00:00,METAR RCKH 170100Z 35004KT 270V080 6000 FEW015 SCT030 BKN170 28/21 Q1012 NOSIG RMK A2989
2026-04-17 00:30:00,METAR RCKH 170030Z 02004KT 310V090 5000 HZ FEW015 SCT030 BKN170 27/21 Q1012 NOSIG RMK A2989
2026-04-17 00:07:00,SPECI RCKH 170007Z 01007KT 330V050 5000 HZ SCT015 SCT025 BKN200 26/21 Q1012 TEMPO 4000 HZ RMK A2989
2026-04-17 00:00:00,METAR RCKH 170000Z 36007KT 330V050 6000 SCT015 SCT025 BKN200 26/21 Q1011 NOSIG RMK A2988
2026-04-16 23:30:00,METAR RCKH 162330Z 35006KT 310V040 6000 FEW012 SCT030 BKN120 26/21 Q1011 NOSIG RMK A2988
2026-04-16 23:00:00,METAR RCKH 162300Z 32007KT 290V360 7000 FEW012 SCT030 BKN120 26/21 Q1011 NOSIG RMK A2988
2026-04-16 22:30:00,METAR RCKH 162230Z 31006KT 8000 FEW019 BKN130 25/21 Q1011 NOSIG RMK A2987
2026-04-16 22:00:00,METAR RCKH 162200Z 30004KT 9999 FEW017 BKN200 24/20 Q1010 NOSIG RMK A2985
2026-04-16 21:00:00,METAR RCKH 162100Z 32003KT 290V350 9999 FEW017 SCT050 25/21 Q1010 NOSIG RMK A2984
2026-04-16 20:00:00,METAR RCKH 162000Z 31007KT 9999 FEW017 SCT050 25/20 Q1010 NOSIG RMK A2984
2026-04-16 19:00:00,METAR RCKH 161900Z 33005KT 9999 FEW017 SCT050 26/21 Q1010 NOSIG RMK A2985
2026-04-16 18:00:00,METAR RCKH 161800Z 32005KT 300V360 9999 FEW017 SCT050 25/21 Q1011 NOSIG RMK A2986
2026-04-16 17:00:00,METAR RCKH 161700Z 30004KT 9999 FEW017 SCT050 25/21 Q1011 NOSIG RMK A2987
2026-04-16 16:00:00,METAR RCKH 161600Z 33006KT 300V360 9999 FEW018 SCT050 26/21 Q1012 NOSIG RMK A2989
2026-04-16 15:30:00,METAR RCKH 161530Z 33006KT 300V010 9999 FEW018 BKN050 26/20 Q1012 NOSIG RMK A2989
2026-04-16 15:00:00,METAR RCKH 161500Z 33006KT 290V050 9999 FEW018 BKN050 27/21 Q1012 NOSIG RMK A2990
2026-04-16 14:30:00,METAR RCKH 161430Z 33006KT 260V360 9999 FEW018 SCT050 27/21 Q1012 NOSIG RMK A2990
2026-04-16 14:00:00,METAR RCKH 161400Z 33008KT 310V020 9999 FEW018 SCT050 27/21 Q1011 NOSIG RMK A2988
2026-04-16 13:30:00,METAR RCKH 161330Z 35008KT 320V020 9999 FEW018 SCT050 27/21 Q1011 NOSIG RMK A2988
2026-04-16 13:00:00,METAR RCKH 161300Z 32008KT 290V040 9999 FEW018 SCT050 27/21 Q1011 NOSIG RMK A2987
2026-04-16 12:30:00,METAR RCKH 161230Z 32008KT 9999 FEW018 SCT055 27/22 Q1011 NOSIG RMK A2986
2026-04-16 12:00:00,METAR RCKH 161200Z 32006KT 300V360 9999 FEW018 SCT060 27/22 Q1010 NOSIG RMK A2985
2026-04-16 11:30:00,METAR RCKH 161130Z 33007KT 280V360 9999 FEW018 SCT060 27/22 Q1010 NOSIG RMK A2985
2026-04-16 11:00:00,METAR RCKH 161100Z 33006KT 300V360 9999 FEW018 SCT120 27/22 Q1010 NOSIG RMK A2983
2026-04-16 10:30:00,METAR RCKH 161030Z 30008KT 9999 FEW020 27/22 Q1010 NOSIG RMK A2983
2026-04-16 10:00:00,METAR RCKH 161000Z 31008KT 290V350 9999 FEW020 27/22 Q1010 NOSIG RMK A2983
2026-04-16 09:30:00,METAR RCKH 160930Z 32009KT 9999 FEW018 28/22 Q1009 NOSIG RMK A2982
2026-04-16 09:08:00,SPECI RCKH 160908Z 29007KT 260V320 9999 FEW018 SCT100 28/22 Q1009 NOSIG RMK A2982
2026-04-16 09:00:00,METAR RCKH 160900Z 29007KT 260V340 9999 FEW018 SCT100 28/23 Q1009 NOSIG RMK 28009KT/R09 A2982
2026-04-16 08:30:00,METAR RCKH 160830Z 32006KT 260V040 9999 FEW015 SCT035 28/23 Q1009 NOSIG RMK 30009KT/R09 A2982
2026-04-16 08:00:00,METAR RCKH 160800Z 29008KT 250V330 9999 FEW015 SCT035 29/23 Q1009 NOSIG RMK 29009KT/R09 A2982
2026-04-16 07:30:00,METAR RCKH 160730Z 29010KT 9999 SCT015 SCT035 29/23 Q1009 NOSIG RMK 28011KT/R09 A2982
2026-04-16 07:00:00,METAR RCKH 160700Z 28009KT 240V320 9999 FEW018 SCT030 29/23 Q1010 NOSIG RMK 28012KT/R09 A2983
2026-04-16 06:30:00,METAR RCKH 160630Z 29009KT 250V320 9999 FEW018 SCT035 30/22 Q1010 NOSIG RMK 28010KT/R09 A2983
2026-04-16 06:00:00,METAR RCKH 160600Z 27010KT 230V310 9999 FEW015 SCT030 30/23 Q1010 NOSIG RMK 28012KT/R09 A2984
2026-04-16 05:30:00,METAR RCKH 160530Z 27011KT 230V300 9999 FEW018 SCT170 29/22 Q1010 NOSIG RMK 27011KT/R09 A2985
2026-04-16 05:00:00,METAR RCKH 160500Z 26010KT 230V300 9999 FEW016 SCT170 30/22 Q1011 NOSIG RMK 27011KT/R09 A2986
2026-04-16 04:30:00,METAR RCKH 160430Z 26010KT 230V300 9999 FEW016 SCT040 30/23 Q1011 NOSIG RMK 26011KT/R09 A2987
2026-04-16 04:00:00,METAR RCKH 160400Z 26009KT 230V300 9999 FEW016 SCT033 30/22 Q1011 NOSIG RMK 25010KT/R09 A2988
2026-04-16 03:30:00,METAR RCKH 160330Z 25008KT 230V310 9999 FEW016 SCT027 29/22 Q1011 NOSIG RMK 26008KT/R09 A2988
2026-04-16 03:01:00,SPECI RCKH 160301Z 25009KT 9999 FEW015 SCT027 BKN200 29/21 Q1011 NOSIG RMK 25009KT/R09 A2988
2026-04-16 03:00:00,METAR RCKH 160300Z 25008KT 220V280 9999 FEW015 SCT027 BKN200 29/22 Q1011 NOSIG RMK A2988
2026-04-16 02:30:00,METAR RCKH 160230Z 24006KT 210V270 9999 FEW014 SCT025 BKN180 29/21 Q1011 NOSIG RMK A2988
2026-04-16 02:00:00,METAR RCKH 160200Z 24007KT 200V290 9999 FEW013 SCT019 BKN025 29/21 Q1011 NOSIG RMK A2988
2026-04-16 01:30:00,METAR RCKH 160130Z 25007KT 220V280 9999 FEW012 SCT017 BKN022 28/22 Q1011 NOSIG RMK A2988
2026-04-16 01:00:00,METAR RCKH 160100Z VRB01KT 9000 FEW012 SCT018 BKN022 28/22 Q1011 NOSIG RMK A2988
2026-04-16 00:30:00,METAR RCKH 160030Z VRB02KT 8000 FEW011 SCT024 28/22 Q1011 NOSIG RMK A2987
2026-04-16 00:00:00,METAR RCKH 160000Z VRB02KT 8000 FEW012 SCT030 28/22 Q1011 NOSIG RMK A2986
2026-04-15 23:30:00,METAR RCKH 152330Z 01003KT 310V080 8000 FEW010 SCT120 27/22 Q1010 NOSIG RMK A2985
2026-04-15 23:00:00,METAR RCKH 152300Z 30003KT 270V340 8000 FEW015 BKN120 27/22 Q1010 NOSIG RMK A2984
2026-04-15 22:30:00,METAR RCKH 152230Z VRB02KT 8000 FEW015 BKN120 26/22 Q1010 NOSIG RMK A2984
2026-04-15 22:00:00,METAR RCKH 152200Z VRB01KT 8000 FEW015 BKN100 25/22 Q1010 NOSIG RMK A2983
2026-04-15 21:00:00,METAR RCKH 152100Z 34004KT 8000 FEW018 SCT050 26/22 Q1009 NOSIG RMK A2982
2026-04-15 20:00:00,METAR RCKH 152000Z 01004KT 350V050 9999 FEW018 SCT050 26/22 Q1009 NOSIG RMK A2982
2026-04-15 19:00:00,METAR RCKH 151900Z 02003KT 340V040 9999 FEW018 SCT050 26/22 Q1009 NOSIG RMK A2982
2026-04-15 18:00:00,METAR RCKH 151800Z 36006KT 330V040 9999 FEW018 SCT050 26/22 Q1010 NOSIG RMK A2983
2026-04-15 17:00:00,METAR RCKH 151700Z 33006KT 300V030 9999 SCT018 BKN050 27/22 Q1010 NOSIG RMK A2985
2026-04-15 16:00:00,METAR RCKH 151600Z 33008KT 300V360 9999 SCT018 BKN050 27/22 Q1011 NOSIG RMK A2987
2026-04-15 15:30:00,METAR RCKH 151530Z 34007KT 310V010 9999 SCT018 BKN050 27/22 Q1011 NOSIG RMK A2988
2026-04-15 15:00:00,METAR RCKH 151500Z 35008KT 300V020 9999 SCT018 BKN040 27/22 Q1011 NOSIG RMK A2988
2026-04-15 14:30:00,METAR RCKH 151430Z 33007KT 300V360 9999 SCT018 BKN035 27/22 Q1011 NOSIG RMK A2987
2026-04-15 14:00:00,METAR RCKH 151400Z 33011G23KT 290V350 9999 SCT018 BKN035 27/23 Q1011 NOSIG RMK A2987
2026-04-15 13:30:00,METAR RCKH 151330Z 33008KT 310V010 9999 FEW020 BKN050 27/23 Q1011 NOSIG RMK A2986
2026-04-15 13:00:00,METAR RCKH 151300Z 31007KT 290V350 9999 FEW020 BKN050 27/23 Q1010 NOSIG RMK A2985
2026-04-15 12:30:00,METAR RCKH 151230Z 30007KT 280V350 9999 FEW020 BKN050 27/23 Q1010 NOSIG RMK A2984
2026-04-15 12:00:00,METAR RCKH 151200Z 31008KT 9999 SCT018 BKN040 27/22 Q1010 NOSIG RMK A2983
2026-04-15 11:30:00,METAR RCKH 151130Z 31007KT 280V030 9999 SCT018 BKN040 27/23 Q1009 NOSIG RMK A2981
2026-04-15 11:00:00,METAR RCKH 151100Z 30008KT 260V340 9999 FEW016 SCT040 27/22 Q1009 NOSIG RMK A2980
2026-04-15 10:30:00,METAR RCKH 151030Z 29007KT 260V330 9999 FEW015 SCT030 27/23 Q1008 NOSIG RMK A2979
2026-04-15 10:00:00,METAR RCKH 151000Z 29007KT 260V330 9999 FEW013 SCT028 27/22 Q1008 NOSIG RMK A2979
2026-04-15 09:54:00,SPECI RCKH 150954Z 28008KT 260V320 9999 FEW013 SCT028 27/22 Q1008 NOSIG RMK A2979
2026-04-15 09:30:00,METAR RCKH 150930Z 28008KT 250V310 9999 FEW012 SCT025 27/23 Q1008 NOSIG RMK 29009KT/R09 A2979
2026-04-15 09:00:00,METAR RCKH 150900Z 28009KT 9999 FEW012 SCT025 28/22 Q1008 NOSIG RMK 28010KT/R09 A2979
2026-04-15 08:30:00,METAR RCKH 150830Z 28009KT 240V320 9999 FEW012 SCT025 28/22 Q1008 NOSIG RMK 26011KT/R09 A2979
2026-04-15 08:00:00,METAR RCKH 150800Z 26010KT 240V300 9999 FEW012 SCT025 29/23 Q1008 NOSIG RMK 26010KT/R09 A2978
2026-04-15 07:30:00,METAR RCKH 150730Z 26010KT 230V290 9999 FEW014 SCT027 29/23 Q1008 NOSIG RMK 26009KT/R09 A2979
2026-04-15 07:00:00,METAR RCKH 150700Z 25011KT 220V280 9999 FEW014 SCT030 29/23 Q1009 NOSIG RMK 26010KT/R09 A2980
2026-04-15 06:30:00,METAR RCKH 150630Z 27009KT 230V300 9999 FEW014 SCT030 29/22 Q1009 NOSIG RMK 26009KT/R09 A2980
2026-04-15 06:00:00,METAR RCKH 150600Z 26010KT 220V300 9999 FEW014 SCT030 29/22 Q1009 NOSIG RMK 24010KT/R09 A2980
2026-04-15 05:30:00,METAR RCKH 150530Z 23008KT 200V270 9999 FEW014 SCT028 BKN210 29/22 Q1009 NOSIG RMK 26009KT/R09 A2981
2026-04-15 05:00:00,METAR RCKH 150500Z 25009KT 220V280 9999 FEW016 SCT022 BKN140 29/23 Q1010 NOSIG RMK 23010KT/R09 A2983
2026-04-15 04:30:00,METAR RCKH 150430Z 23009KT 200V270 9999 FEW016 SCT022 BKN140 29/22 Q1010 NOSIG RMK 23009KT/R09 A2984
2026-04-15 04:00:00,METAR RCKH 150400Z 25008KT 210V280 9999 FEW016 SCT023 BKN070 29/22 Q1010 NOSIG RMK 26009KT/R09 A2985
2026-04-15 03:50:00,SPECI RCKH 150350Z 26008KT 210V310 9999 FEW016 SCT023 BKN040 29/23 Q1011 NOSIG RMK 25009KT/R09 A2986
2026-04-15 03:30:00,METAR RCKH 150330Z 25007KT 200V290 9999 FEW015 SCT023 BKN035 29/23 Q1011 NOSIG RMK A2987
2026-04-15 03:00:00,METAR RCKH 150300Z 23007KT 190V270 9999 FEW015 SCT023 BKN035 28/22 Q1011 NOSIG RMK A2988
2026-04-15 02:30:00,METAR RCKH 150230Z 23006KT 200V310 9999 FEW015 SCT025 BKN035 28/21 Q1012 NOSIG RMK A2989
2026-04-15 02:00:00,METAR RCKH 150200Z 25006KT 220V300 9999 FEW014 SCT022 BKN032 28/22 Q1012 NOSIG RMK A2989
2026-04-15 01:30:00,METAR RCKH 150130Z VRB03KT 9999 FEW012 SCT019 BKN025 28/22 Q1011 NOSIG RMK A2988
2026-04-15 01:00:00,METAR RCKH 150100Z VRB02KT 9999 FEW012 SCT019 28/22 Q1011 NOSIG RMK A2988
2026-04-15 00:30:00,METAR RCKH 150030Z 07004KT 050V110 9999 FEW010 SCT018 27/22 Q1011 NOSIG RMK A2988
2026-04-15 00:00:00,METAR RCKH 150000Z 05005KT 360V110 9999 FEW010 SCT018 BKN026 27/22 Q1011 NOSIG RMK A2987
2026-04-14 23:30:00,METAR RCKH 142330Z 06005KT 030V090 9999 FEW010 SCT018 26/22 Q1010 NOSIG RMK A2985
2026-04-14 23:00:00,METAR RCKH 142300Z 06003KT 030V100 9999 FEW014 SCT120 26/22 Q1010 NOSIG RMK A2985
2026-04-14 22:30:00,METAR RCKH 142230Z 08003KT 9999 FEW014 SCT040 25/22 Q1010 NOSIG RMK A2984
2026-04-14 22:00:00,METAR RCKH 142200Z VRB02KT 9999 FEW014 SCT040 BKN060 25/22 Q1010 NOSIG RMK A2983
2026-04-14 21:00:00,METAR RCKH 142100Z 33002KT 9999 FEW014 SCT040 BKN060 25/22 Q1009 NOSIG RMK A2981
2026-04-14 20:00:00,METAR RCKH 142000Z 03003KT 9999 FEW014 SCT040 BKN060 25/22 Q1009 NOSIG RMK A2980
2026-04-14 19:00:00,METAR RCKH 141900Z 36005KT 310V020 9999 FEW014 SCT040 BKN060 26/22 Q1009 NOSIG RMK A2982
2026-04-14 18:00:00,METAR RCKH 141800Z 34005KT 310V010 9999 FEW014 SCT040 BKN060 26/22 Q1010 NOSIG RMK A2983
2026-04-14 17:00:00,METAR RCKH 141700Z 33003KT 290V010 9999 FEW018 SCT120 26/21 Q1010 NOSIG RMK A2985
2026-04-14 16:00:00,METAR RCKH 141600Z 33004KT 300V010 9999 FEW018 SCT100 26/21 Q1011 NOSIG RMK A2986
2026-04-14 15:30:00,METAR RCKH 141530Z 31005KT 280V350 9999 FEW018 SCT100 26/21 Q1011 NOSIG RMK A2987
2026-04-14 15:00:00,METAR RCKH 141500Z 31005KT 270V010 9999 FEW020 SCT130 26/21 Q1011 NOSIG RMK A2987
2026-04-14 14:30:00,METAR RCKH 141430Z 30007KT 9999 FEW015 SCT023 26/22 Q1011 NOSIG RMK A2987
2026-04-14 14:00:00,METAR RCKH 141400Z 30006KT 250V340 9999 FEW015 SCT023 26/22 Q1011 NOSIG RMK A2987
2026-04-14 13:30:00,METAR RCKH 141330Z 31008KT 9999 FEW015 SCT025 26/21 Q1011 NOSIG RMK A2988
2026-04-14 13:00:00,METAR RCKH 141300Z 31006KT 260V330 9999 FEW015 SCT120 26/21 Q1011 NOSIG RMK A2987
2026-04-14 12:30:00,METAR RCKH 141230Z 28007KT 9999 FEW020 SCT120 26/21 Q1011 NOSIG RMK A2986
2026-04-14 12:00:00,METAR RCKH 141200Z 29005KT 250V320 9999 FEW020 SCT120 26/21 Q1010 NOSIG RMK A2985
2026-04-14 11:30:00,METAR RCKH 141130Z 29006KT 9999 FEW020 26/21 Q1010 NOSIG RMK A2984
2026-04-14 11:00:00,METAR RCKH 141100Z 28007KT 9999 FEW015 26/21 Q1010 NOSIG RMK A2983
2026-04-14 10:30:00,METAR RCKH 141030Z 29007KT 9999 FEW015 26/21 Q1010 NOSIG RMK A2983
2026-04-14 10:13:00,SPECI RCKH 141013Z 30007KT 270V330 9999 FEW015 27/21 Q1010 NOSIG RMK A2983
2026-04-14 10:00:00,METAR RCKH 141000Z 28007KT 250V310 9999 FEW015 27/22 Q1010 NOSIG RMK 29008KT/R09 A2983
2026-04-14 09:30:00,METAR RCKH 140930Z 28008KT 230V320 9999 FEW015 28/21 Q1010 NOSIG RMK 26008KT/R09 A2983
2026-04-14 09:00:00,METAR RCKH 140900Z 25009KT 220V290 9999 FEW015 28/21 Q1010 NOSIG RMK 25009KT/R09 A2983
2026-04-14 08:30:00,METAR RCKH 140830Z 26008KT 220V290 9999 FEW018 29/20 Q1010 NOSIG RMK 25009KT/R09 A2983
2026-04-14 08:00:00,METAR RCKH 140800Z 26009KT 220V290 CAVOK 29/21 Q1010 NOSIG RMK 25010KT/R09 A2983
2026-04-14 07:30:00,METAR RCKH 140730Z 26010KT 230V290 9999 FEW015 29/20 Q1010 NOSIG RMK 26011KT/R09 A2983
2026-04-14 07:00:00,METAR RCKH 140700Z 26011KT 9999 FEW015 30/21 Q1010 NOSIG RMK 24010KT/R09 A2984
2026-04-14 06:30:00,METAR RCKH 140630Z 26011KT 230V290 9999 FEW015 29/22 Q1010 NOSIG RMK 25011KT/R09 A2985
2026-04-14 06:00:00,METAR RCKH 140600Z 27010KT 9999 FEW015 30/22 Q1011 NOSIG RMK 25011KT/R09 A2986
2026-04-14 05:30:00,METAR RCKH 140530Z 25010KT 220V290 9999 FEW015 SCT150 30/20 Q1011 NOSIG RMK 26010KT/R09 A2987
2026-04-14 05:00:00,METAR RCKH 140500Z 25010KT 220V280 9999 FEW014 SCT032 BKN150 30/21 Q1011 NOSIG RMK 25010KT/R09 A2988
2026-04-14 04:30:00,METAR RCKH 140430Z 26009KT 220V310 9999 FEW014 SCT032 BKN150 30/20 Q1012 NOSIG RMK 24010KT/R09 A2989
2026-04-14 04:00:00,METAR RCKH 140400Z 23009KT 200V300 9999 FEW012 SCT030 30/21 Q1012 NOSIG RMK 23008KT/R09 A2990
2026-04-14 03:30:00,METAR RCKH 140330Z 26009KT 220V290 9999 FEW012 SCT030 29/21 Q1012 NOSIG RMK 24009KT/R09 A2991
2026-04-14 03:08:00,SPECI RCKH 140308Z 25008KT 200V290 9999 FEW012 SCT030 30/21 Q1013 NOSIG RMK 24008KT/R09 A2992
2026-04-14 03:00:00,METAR RCKH 140300Z 26008KT 9999 FEW012 SCT030 30/20 Q1013 NOSIG RMK A2992
2026-04-14 02:30:00,METAR RCKH 140230Z 26006KT 190V300 9999 FEW012 SCT030 30/20 Q1013 NOSIG RMK A2993
2026-04-14 02:00:00,METAR RCKH 140200Z 26006KT 200V300 9999 FEW012 SCT030 30/20 Q1013 NOSIG RMK A2994
2026-04-14 01:30:00,METAR RCKH 140130Z 23006KT 200V280 9999 FEW012 SCT028 29/20 Q1013 NOSIG RMK A2994
2026-04-14 01:00:00,METAR RCKH 140100Z VRB02KT 9999 FEW012 SCT028 28/20 Q1014 NOSIG RMK A2995
2026-04-14 00:30:00,METAR RCKH 140030Z VRB02KT 9999 FEW010 SCT026 28/20 Q1013 NOSIG RMK A2994
2026-04-14 00:00:00,METAR RCKH 140000Z VRB02KT 9999 FEW010 28/18 Q1013 NOSIG RMK A2994
2026-04-13 23:30:00,METAR RCKH 132330Z 06003KT 020V120 9999 FEW010 27/18 Q1013 NOSIG RMK A2993
2026-04-13 23:00:00,METAR RCKH 132300Z 05004KT 020V100 9999 FEW010 25/19 Q1013 NOSIG RMK A2993
2026-04-13 22:30:00,METAR RCKH 132230Z 06003KT 030V100 9999 FEW010 25/18 Q1012 NOSIG RMK A2991
2026-04-13 22:00:00,METAR RCKH 132200Z 04004KT 9999 FEW010 23/19 Q1012 NOSIG RMK A2990
2026-04-13 21:00:00,METAR RCKH 132100Z 04005KT 8000 FEW010 24/20 Q1012 NOSIG RMK A2989
2026-04-13 20:00:00,METAR RCKH 132000Z 04004KT 8000 FEW010 24/21 Q1012 NOSIG RMK A2989
2026-04-13 19:00:00,METAR RCKH 131900Z 08004KT 8000 FEW010 24/22 Q1011 NOSIG RMK A2988
2026-04-13 18:00:00,METAR RCKH 131800Z 08003KT 9999 FEW010 24/21 Q1012 NOSIG RMK A2989
2026-04-13 17:00:00,METAR RCKH 131700Z 30004KT 9999 FEW010 26/22 Q1012 NOSIG RMK A2990
2026-04-13 16:00:00,METAR RCKH 131600Z 30004KT 9999 FEW010 26/22 Q1012 NOSIG RMK A2991
2026-04-13 15:30:00,METAR RCKH 131530Z 28005KT 260V320 9999 FEW010 26/22 Q1013 NOSIG RMK A2992
2026-04-13 15:00:00,METAR RCKH 131500Z 28005KT 260V320 9999 FEW009 26/22 Q1013 NOSIG RMK A2993
2026-04-13 14:30:00,METAR RCKH 131430Z 28006KT 9999 FEW009 26/22 Q1013 NOSIG RMK A2993
2026-04-13 14:00:00,METAR RCKH 131400Z 28005KT 250V310 9999 FEW009 26/22 Q1013 NOSIG RMK A2993
2026-04-13 13:30:00,METAR RCKH 131330Z 28005KT 260V320 9999 FEW009 26/22 Q1013 NOSIG RMK A2993
2026-04-13 13:00:00,METAR RCKH 131300Z 26005KT 240V300 9999 FEW009 26/22 Q1013 NOSIG RMK A2992
2026-04-13 12:30:00,METAR RCKH 131230Z 28005KT CAVOK 26/22 Q1012 NOSIG RMK A2991
2026-04-13 12:00:00,METAR RCKH 131200Z 26005KT CAVOK 27/21 Q1012 NOSIG RMK A2990
2026-04-13 11:30:00,METAR RCKH 131130Z 25005KT 220V280 CAVOK 27/21 Q1012 NOSIG RMK A2989
2026-04-13 11:00:00,METAR RCKH 131100Z 25006KT 220V290 9999 FEW020 BKN150 27/21 Q1011 NOSIG RMK A2988
2026-04-13 10:31:00,SPECI RCKH 131031Z 23006KT 200V260 9999 FEW020 BKN150 28/21 Q1011 NOSIG RMK A2987
2026-04-13 10:30:00,METAR RCKH 131030Z 25006KT 9999 FEW020 BKN150 27/21 Q1011 NOSIG RMK 23006KT/R09 A2987
2026-04-13 10:00:00,METAR RCKH 131000Z 24006KT 9999 FEW020 BKN150 28/21 Q1011 NOSIG RMK 25007KT/R09 A2986
2026-04-13 09:30:00,METAR RCKH 130930Z 25007KT 220V280 9999 FEW016 SCT150 29/19 Q1011 NOSIG RMK 24007KT/R09 A2986
2026-04-13 09:00:00,METAR RCKH 130900Z 26007KT 230V290 9999 FEW016 SCT150 30/20 Q1010 NOSIG RMK 25006KT/R09 A2985
2026-04-13 08:30:00,METAR RCKH 130830Z 25007KT 220V290 9999 FEW016 SCT150 30/20 Q1010 NOSIG RMK 23007KT/R09 A2985
2026-04-13 08:00:00,METAR RCKH 130800Z 26007KT 220V290 9999 FEW019 SCT150 31/19 Q1010 NOSIG RMK 25007KT/R09 A2985
2026-04-13 07:30:00,METAR RCKH 130730Z 26008KT 9999 FEW019 SCT200 31/17 Q1010 NOSIG RMK 24008KT/R09 A2985
2026-04-13 07:00:00,METAR RCKH 130700Z 25008KT 230V290 9999 FEW019 BKN200 31/18 Q1010 NOSIG RMK 24008KT/R09 A2985
2026-04-13 06:30:00,METAR RCKH 130630Z 25007KT 230V300 9999 FEW020 BKN220 31/19 Q1011 NOSIG RMK 24008KT/R09 A2986
2026-04-13 06:00:00,METAR RCKH 130600Z 25007KT 220V280 9999 FEW020 BKN220 31/21 Q1011 NOSIG RMK 24007KT/R09 A2987
2026-04-13 05:30:00,METAR RCKH 130530Z 24007KT 210V300 9999 FEW020 BKN220 31/21 Q1011 NOSIG RMK 24008KT/R09 A2988
2026-04-13 05:00:00,METAR RCKH 130500Z 25008KT 200V300 9999 FEW020 BKN220 30/21 Q1012 NOSIG RMK 25008KT/R09 A2989
2026-04-13 04:30:00,METAR RCKH 130430Z 27007KT 230V320 9999 FEW020 SCT200 30/20 Q1012 NOSIG RMK 25008KT/R09 A2990
2026-04-13 04:00:00,METAR RCKH 130400Z 26008KT 220V310 9999 FEW020 SCT100 BKN200 30/20 Q1013 NOSIG RMK 25008KT/R09 A2992
2026-04-13 03:30:00,METAR RCKH 130330Z 24008KT 200V290 7000 FEW020 SCT070 BKN200 30/21 Q1013 NOSIG RMK 25009KT/R09 A2993
2026-04-13 03:24:00,SPECI RCKH 130324Z 24008KT 220V300 7000 SCT020 SCT130 30/21 Q1013 NOSIG RMK 25008KT/R09 A2993
2026-04-13 03:00:00,METAR RCKH 130300Z 25008KT 200V290 7000 SCT020 SCT130 30/21 Q1013 NOSIG RMK A2993
2026-04-13 02:30:00,METAR RCKH 130230Z 20007KT 150V250 7000 FEW015 SCT025 29/22 Q1013 NOSIG RMK A2994
2026-04-13 02:00:00,METAR RCKH 130200Z 21006KT 180V260 7000 FEW015 SCT025 29/21 Q1014 NOSIG RMK A2995
2026-04-13 01:30:00,METAR RCKH 130130Z VRB02KT 7000 FEW015 SCT025 30/22 Q1014 NOSIG RMK A2995
2026-04-13 01:00:00,METAR RCKH 130100Z VRB03KT 7000 FEW015 FEW020TCU SCT025 28/21 Q1014 NOSIG RMK TCU S A2995
2026-04-13 00:30:00,METAR RCKH 130030Z 10004KT 040V130 7000 FEW015 FEW020TCU SCT025 28/22 Q1014 NOSIG RMK TCU S A2995
2026-04-13 00:00:00,METAR RCKH 130000Z 08005KT 040V100 8000 FEW015 SCT025 27/21 Q1014 NOSIG RMK A2995
2026-04-12 23:30:00,METAR RCKH 122330Z 07004KT 050V110 9000 FEW015 SCT025 BKN200 26/21 Q1013 NOSIG RMK A2994
2026-04-12 23:00:00,METAR RCKH 122300Z 08003KT 8000 FEW015 SCT020 25/20 Q1013 NOSIG RMK A2993
2026-04-12 22:30:00,METAR RCKH 122230Z 07002KT 8000 FEW015 SCT020 24/21 Q1012 NOSIG RMK A2991
2026-04-12 22:00:00,METAR RCKH 122200Z 08003KT 9999 FEW015 SCT020 23/21 Q1012 NOSIG RMK A2990
2026-04-12 21:00:00,METAR RCKH 122100Z 09003KT 9999 FEW016 23/21 Q1011 NOSIG RMK A2987
2026-04-12 20:00:00,METAR RCKH 122000Z 00000KT 9999 FEW016 25/21 Q1011 NOSIG RMK A2986
2026-04-12 19:00:00,METAR RCKH 121900Z VRB02KT 9999 FEW016 24/21 Q1010 NOSIG RMK A2985
2026-04-12 18:00:00,METAR RCKH 121800Z 08004KT 9999 FEW016 24/21 Q1011 NOSIG RMK A2986
2026-04-12 17:00:00,METAR RCKH 121700Z VRB02KT 9999 FEW016 25/21 Q1011 NOSIG RMK A2988
2026-04-12 16:00:00,METAR RCKH 121600Z 08003KT 9999 FEW016 25/21 Q1012 NOSIG RMK A2989
2026-04-12 15:00:00,METAR RCKH 121500Z 29003KT 260V340 9999 FEW016 26/21 Q1012 NOSIG RMK A2990
2026-04-12 14:30:00,METAR RCKH 121430Z VRB02KT 9999 FEW016 26/21 Q1012 NOSIG RMK A2990
2026-04-12 14:00:00,METAR RCKH 121400Z 29004KT 170V340 9999 FEW016 26/21 Q1012 NOSIG RMK A2990
2026-04-12 13:30:00,METAR RCKH 121330Z 28006KT 9999 FEW016 26/21 Q1012 NOSIG RMK A2990
2026-04-12 13:00:00,METAR RCKH 121300Z 27007KT 9999 FEW016 26/22 Q1011 NOSIG RMK A2988
2026-04-12 12:30:00,METAR RCKH 121230Z 27008KT 9999 FEW018 26/22 Q1011 NOSIG RMK A2987
2026-04-12 12:00:00,METAR RCKH 121200Z 26007KT 9999 FEW018 27/21 Q1011 NOSIG RMK A2986
2026-04-12 11:30:00,METAR RCKH 121130Z 26006KT 9999 FEW018 27/21 Q1010 NOSIG RMK A2985
2026-04-12 11:00:00,METAR RCKH 121100Z 25006KT 9999 FEW070 27/21 Q1010 NOSIG RMK A2984
2026-04-12 10:30:00,METAR RCKH 121030Z 25005KT 220V280 9999 FEW070 27/20 Q1010 NOSIG RMK A2983
2026-04-12 10:00:00,METAR RCKH 121000Z 23005KT 200V280 9999 FEW080 28/20 Q1009 NOSIG RMK A2982
2026-04-12 09:30:00,METAR RCKH 120930Z 23005KT 200V260 9999 FEW070 29/20 Q1009 NOSIG RMK A2982
2026-04-12 09:00:00,METAR RCKH 120900Z 21006KT 170V260 9999 FEW025 29/20 Q1009 NOSIG RMK A2981
2026-04-12 08:30:00,METAR RCKH 120830Z 19007KT 160V220 9999 FEW025 29/20 Q1009 NOSIG RMK A2981
2026-04-12 08:17:00,SPECI RCKH 120817Z 21007KT 180V240 9999 FEW025 29/19 Q1009 NOSIG RMK A2982
2026-04-12 08:00:00,METAR RCKH 120800Z 22008KT 9999 FEW025 30/20 Q1009 NOSIG RMK 21007KT/R09 A2981
2026-04-12 07:30:00,METAR RCKH 120730Z 22008KT 200V260 9999 FEW020 30/19 Q1009 NOSIG RMK 23007KT/R09 A2981
2026-04-12 07:00:00,METAR RCKH 120700Z 22009KT 9999 FEW020 30/20 Q1009 NOSIG RMK 22009KT/R09 A2982
2026-04-12 06:30:00,METAR RCKH 120630Z 22009KT 9999 FEW020 30/20 Q1009 NOSIG RMK 21009KT/R09 A2982
2026-04-12 06:00:00,METAR RCKH 120600Z 22008KT 190V290 9999 FEW020 31/20 Q1010 NOSIG RMK 19008KT/R09 A2983
2026-04-12 05:30:00,METAR RCKH 120530Z 23009KT 190V270 9999 FEW020 30/20 Q1010 NOSIG RMK 24008KT/R09 A2984
2026-04-12 05:00:00,METAR RCKH 120500Z 21010KT 190V250 9999 FEW020 SCT220 30/20 Q1011 NOSIG RMK 23010KT/R09 A2986
2026-04-12 04:36:00,SPECI RCKH 120436Z 21007KT 190V260 9999 FEW024 SCT220 30/20 Q1011 NOSIG RMK 23010KT/R09 A2987
2026-04-12 04:30:00,METAR RCKH 120430Z 22006KT 150V280 9999 FEW024 SCT220 30/21 Q1011 NOSIG RMK A2987
2026-04-12 04:00:00,METAR RCKH 120400Z 21008KT 170V250 9999 FEW024 SCT220 30/20 Q1011 NOSIG RMK A2988
2026-04-12 03:30:00,METAR RCKH 120330Z 21008KT 190V250 9999 FEW024 29/21 Q1012 NOSIG RMK A2989
2026-04-12 03:00:00,METAR RCKH 120300Z 21007KT 180V240 9999 FEW024 29/21 Q1012 NOSIG RMK A2990
2026-04-12 02:30:00,METAR RCKH 120230Z 21006KT 160V250 9999 FEW024 30/20 Q1012 NOSIG RMK A2991
2026-04-12 02:00:00,METAR RCKH 120200Z 18005KT 140V230 9999 FEW016 SCT024 29/20 Q1012 NOSIG RMK A2991
2026-04-12 01:30:00,METAR RCKH 120130Z 21003KT 130V290 9999 FEW016 SCT024 29/21 Q1012 NOSIG RMK A2991
2026-04-12 01:00:00,METAR RCKH 120100Z 09003KT 050V150 9999 FEW016 SCT024 29/22 Q1013 NOSIG RMK A2992
2026-04-12 00:30:00,METAR RCKH 120030Z 08004KT 040V120 9999 FEW014 SCT022 27/21 Q1013 NOSIG RMK A2992
2026-04-12 00:00:00,METAR RCKH 120000Z 08004KT 050V110 9999 FEW024 26/20 Q1012 NOSIG RMK A2991
2026-04-11 23:30:00,METAR RCKH 112330Z 09004KT 9999 FEW024 25/19 Q1012 NOSIG RMK A2990
2026-04-11 23:00:00,METAR RCKH 112300Z 09004KT 9000 FEW009 SCT016 24/19 Q1012 NOSIG RMK A2989
2026-04-11 22:30:00,METAR RCKH 112230Z 05004KT 9000 FEW008 SCT014 24/19 Q1011 NOSIG RMK A2988
2026-04-11 22:00:00,METAR RCKH 112200Z 06003KT 040V100 9000 FEW008 SCT015 BKN030 23/20 Q1011 NOSIG RMK A2987
2026-04-11 21:00:00,METAR RCKH 112100Z VRB01KT 7000 FEW008 23/21 Q1010 TEMPO 5000 BR RMK A2985
2026-04-11 20:00:00,METAR RCKH 112000Z 08004KT 7000 FEW008 24/21 Q1010 TEMPO 5000 BR RMK A2984
2026-04-11 19:00:00,METAR RCKH 111900Z 07005KT 9000 FEW010 SCT020 24/21 Q1010 NOSIG RMK A2984
2026-04-11 18:00:00,METAR RCKH 111800Z 03001KT 9999 FEW010 SCT016 BKN026 26/22 Q1010 NOSIG RMK A2985
2026-04-11 17:00:00,METAR RCKH 111700Z 22003KT 190V250 9999 FEW012 26/22 Q1011 NOSIG RMK A2987
2026-04-11 16:00:00,METAR RCKH 111600Z 26003KT 9999 FEW010 SCT018 25/22 Q1011 NOSIG RMK A2988
2026-04-11 15:30:00,METAR RCKH 111530Z 27003KT 240V300 9999 FEW012 SCT018 25/22 Q1011 NOSIG RMK A2988
2026-04-11 15:00:00,METAR RCKH 111500Z 26003KT 210V290 9999 FEW010 SCT020 25/22 Q1011 NOSIG RMK A2988
2026-04-11 14:30:00,METAR RCKH 111430Z 26003KT 230V300 9999 FEW010 SCT018 26/22 Q1011 NOSIG RMK A2988
2026-04-11 14:00:00,METAR RCKH 111400Z 26004KT 230V300 9999 FEW010 SCT018 26/22 Q1011 NOSIG RMK A2988
2026-04-11 13:30:00,METAR RCKH 111330Z VRB02KT 9999 FEW010 SCT018 26/22 Q1011 NOSIG RMK A2987
2026-04-11 13:00:00,METAR RCKH 111300Z 26003KT 220V290 9999 FEW014 26/22 Q1011 NOSIG RMK A2987
2026-04-11 12:30:00,METAR RCKH 111230Z 25003KT 210V290 9999 FEW014 26/22 Q1011 NOSIG RMK A2986
2026-04-11 12:00:00,METAR RCKH 111200Z 24003KT 210V280 9999 FEW014 26/22 Q1010 NOSIG RMK A2985
2026-04-11 11:30:00,METAR RCKH 111130Z 25004KT 180V280 9999 FEW014 26/22 Q1010 NOSIG RMK A2984
2026-04-11 11:00:00,METAR RCKH 111100Z 22006KT 200V260 9999 FEW014 27/22 Q1010 NOSIG RMK A2983
2026-04-11 10:30:00,METAR RCKH 111030Z 22006KT 9999 FEW014 27/22 Q1010 NOSIG RMK A2983
2026-04-11 10:00:00,METAR RCKH 111000Z 22006KT 200V270 9999 FEW016 27/22 Q1009 NOSIG RMK A2982
2026-04-11 09:30:00,METAR RCKH 110930Z 23007KT 9999 FEW014 28/22 Q1009 NOSIG RMK A2982
2026-04-11 09:00:00,METAR RCKH 110900Z 22008KT 180V260 9999 FEW016 SCT022 28/22 Q1009 NOSIG RMK A2982
2026-04-11 08:30:00,METAR RCKH 110830Z 21011KT 180V240 9999 FEW016 SCT022 29/22 Q1009 NOSIG RMK 20011KT/R09 A2982
2026-04-11 08:00:00,METAR RCKH 110800Z 23011KT 190V250 9999 FEW016 SCT022 29/23 Q1009 NOSIG RMK 22011KT/R09 A2982
2026-04-11 07:30:00,METAR RCKH 110730Z 23011KT 190V270 9999 FEW016 SCT022 29/22 Q1009 NOSIG RMK 22011KT/R09 A2982
2026-04-11 07:00:00,METAR RCKH 110700Z 23012KT 200V270 9999 FEW016 SCT022 29/22 Q1010 NOSIG RMK 23011KT/R09 A2983
2026-04-11 06:30:00,METAR RCKH 110630Z 23012KT 170V270 9999 FEW018 29/22 Q1010 NOSIG RMK 23012KT/R09 A2984
2026-04-11 06:00:00,METAR RCKH 110600Z 23010G20KT 200V260 9999 FEW022 30/22 Q1010 NOSIG RMK 22012KT/R09 A2984
2026-04-11 05:43:00,SPECI RCKH 110543Z 23011KT 200V270 9999 FEW022 30/22 Q1010 NOSIG RMK 24012KT/R09 A2984
2026-04-11 05:30:00,METAR RCKH 110530Z 22008KT 170V280 9999 FEW022 30/22 Q1010 NOSIG RMK A2985
2026-04-11 05:00:00,METAR RCKH 110500Z 22009KT 9999 FEW018 29/21 Q1010 NOSIG RMK A2985
2026-04-11 04:30:00,METAR RCKH 110430Z 22009KT 150V250 9999 FEW018 30/21 Q1011 NOSIG RMK A2987
2026-04-11 04:00:00,METAR RCKH 110400Z 20008KT 150V260 9999 FEW018 30/21 Q1011 NOSIG RMK A2988
2026-04-11 03:30:00,METAR RCKH 110330Z 19008KT 160V230 9999 FEW018 30/21 Q1011 NOSIG RMK A2988
2026-04-11 03:00:00,METAR RCKH 110300Z 22008KT 170V250 9999 FEW018 29/21 Q1012 NOSIG RMK A2990
2026-04-11 02:30:00,METAR RCKH 110230Z 18008KT 150V220 9999 FEW018 29/21 Q1012 NOSIG RMK A2991
2026-04-11 02:00:00,METAR RCKH 110200Z 18008KT 150V240 9999 FEW018 29/21 Q1012 NOSIG RMK A2991
2026-04-11 01:30:00,METAR RCKH 110130Z 17008KT 140V230 9999 FEW018 28/20 Q1012 NOSIG RMK A2991
2026-04-11 01:00:00,METAR RCKH 110100Z 18007KT 140V210 9999 FEW018 28/20 Q1012 NOSIG RMK A2990
2026-04-11 00:30:00,METAR RCKH 110030Z 18005KT 140V250 9999 FEW018 28/20 Q1012 NOSIG RMK A2990
2026-04-11 00:00:00,METAR RCKH 110000Z 07003KT 040V120 9999 FEW018 27/19 Q1012 NOSIG RMK A2989
2026-04-10 23:30:00,METAR RCKH 102330Z 07005KT 9999 FEW018 25/17 Q1011 NOSIG RMK A2988
2026-04-10 23:00:00,METAR RCKH 102300Z 08003KT 9999 FEW020 24/18 Q1011 NOSIG RMK A2987
2026-04-10 22:30:00,METAR RCKH 102230Z 09004KT 9999 FEW020 23/19 Q1011 NOSIG RMK A2987
2026-04-10 22:00:00,METAR RCKH 102200Z 09004KT 9999 FEW020 SCT240 23/19 Q1011 NOSIG RMK A2986
2026-04-10 21:00:00,METAR RCKH 102100Z 08003KT 9999 FEW120 22/19 Q1010 NOSIG RMK A2985
2026-04-10 20:00:00,METAR RCKH 102000Z 06003KT 9999 FEW120 23/20 Q1010 NOSIG RMK A2983
2026-04-10 19:00:00,METAR RCKH 101900Z 07003KT 9999 FEW120 23/20 Q1010 NOSIG RMK A2983
2026-04-10 18:00:00,METAR RCKH 101800Z 05004KT 9999 FEW120 24/21 Q1010 NOSIG RMK A2985
2026-04-10 17:00:00,METAR RCKH 101700Z 05003KT 9999 FEW120 24/21 Q1011 NOSIG RMK A2986
2026-04-10 16:00:00,METAR RCKH 101600Z 08004KT 9999 FEW120 25/21 Q1011 NOSIG RMK A2988
2026-04-10 15:30:00,METAR RCKH 101530Z 07003KT 290V100 9999 FEW120 25/21 Q1011 NOSIG RMK A2988
2026-04-10 15:00:00,METAR RCKH 101500Z VRB02KT CAVOK 26/21 Q1012 NOSIG RMK A2989
2026-04-10 14:30:00,METAR RCKH 101430Z VRB01KT CAVOK 26/21 Q1012 NOSIG RMK A2989
2026-04-10 14:00:00,METAR RCKH 101400Z 30003KT 270V330 CAVOK 26/21 Q1012 NOSIG RMK A2989
2026-04-10 13:30:00,METAR RCKH 101330Z 29004KT 260V320 CAVOK 26/21 Q1011 NOSIG RMK A2988
2026-04-10 13:00:00,METAR RCKH 101300Z 28006KT 240V320 CAVOK 26/21 Q1011 NOSIG RMK A2988
2026-04-10 12:30:00,METAR RCKH 101230Z 26006KT CAVOK 26/21 Q1011 NOSIG RMK A2987
2026-04-10 12:00:00,METAR RCKH 101200Z 25008KT CAVOK 26/21 Q1011 NOSIG RMK A2986
2026-04-10 11:30:00,METAR RCKH 101130Z 27007KT 240V310 9999 FEW012 26/21 Q1010 NOSIG RMK A2985
2026-04-10 11:00:00,METAR RCKH 101100Z 27008KT 240V310 9999 FEW015 SCT120 26/21 Q1010 NOSIG RMK A2984
2026-04-10 10:31:00,SPECI RCKH 101031Z 27009KT 9999 FEW015 SCT120 26/21 Q1010 NOSIG RMK A2983
2026-04-10 10:30:00,METAR RCKH 101030Z 27008KT 9999 FEW015 SCT120 26/21 Q1010 NOSIG RMK 27009KT/R09 A2983
2026-04-10 10:00:00,METAR RCKH 101000Z 28007KT 9999 FEW015 SCT120 27/21 Q1010 NOSIG RMK 27009KT/R09 A2983
2026-04-10 09:30:00,METAR RCKH 100930Z 27009KT 240V300 9999 FEW016 SCT120 27/21 Q1009 NOSIG RMK 28010KT/R09 A2982
2026-04-10 09:00:00,METAR RCKH 100900Z 27010KT 9999 FEW018 28/21 Q1009 NOSIG RMK 28010KT/R09 A2982
2026-04-10 08:30:00,METAR RCKH 100830Z 28008KT 240V320 9999 FEW018 29/20 Q1009 NOSIG RMK 29010KT/R09 A2982
2026-04-10 08:00:00,METAR RCKH 100800Z 27009KT 240V300 9999 FEW018 30/20 Q1009 NOSIG RMK 28011KT/R09 A2982
2026-04-10 07:30:00,METAR RCKH 100730Z 27010KT 240V310 9999 FEW018 30/20 Q1010 NOSIG RMK 28013KT/R09 A2983
2026-04-10 07:00:00,METAR RCKH 100700Z 29010KT 250V320 9999 FEW018 30/20 Q1010 NOSIG RMK 29012KT/R09 A2983
2026-04-10 06:30:00,METAR RCKH 100630Z 28010KT 250V320 9999 FEW018 31/21 Q1010 NOSIG RMK 28011KT/R09 A2983
2026-04-10 06:00:00,METAR RCKH 100600Z 27012KT 240V310 9999 FEW018 30/20 Q1010 NOSIG RMK 29012KT/R09 A2984
2026-04-10 05:30:00,METAR RCKH 100530Z 28010KT 230V320 9999 FEW018 30/21 Q1010 NOSIG RMK 27013KT/R09 A2985
2026-04-10 05:00:00,METAR RCKH 100500Z 27010KT 230V300 9999 FEW015 30/21 Q1011 NOSIG RMK 27011KT/R09 A2986
2026-04-10 04:30:00,METAR RCKH 100430Z 27010KT 240V310 9999 FEW015 30/22 Q1011 NOSIG RMK 27010KT/R09 A2986
2026-04-10 04:00:00,METAR RCKH 100400Z 26009KT 9999 FEW015 30/22 Q1011 NOSIG RMK 26009KT/R09 A2987
2026-04-10 03:30:00,METAR RCKH 100330Z 26009KT 230V290 9999 FEW015 30/23 Q1011 NOSIG RMK 27008KT/R09 A2988
2026-04-10 03:00:00,METAR RCKH 100300Z 26010KT 230V290 9999 FEW015 30/22 Q1012 NOSIG RMK 26010KT/R09 A2989
2026-04-10 02:30:00,METAR RCKH 100230Z 27009KT 230V310 9999 FEW015 29/22 Q1012 NOSIG RMK 27010KT/R09 A2990
2026-04-10 02:00:00,METAR RCKH 100200Z 28008KT 240V320 9999 FEW015 29/22 Q1012 NOSIG RMK 27009KT/R09 A2990
2026-04-10 01:45:00,SPECI RCKH 100145Z 28007KT 250V320 9999 FEW015 29/21 Q1012 NOSIG RMK 28008KT/R09 A2990
2026-04-10 01:30:00,METAR RCKH 100130Z 29008KT 250V320 9999 FEW015 30/21 Q1012 NOSIG RMK A2990
2026-04-10 01:00:00,METAR RCKH 100100Z 28007KT 240V330 9999 FEW015 29/21 Q1012 NOSIG RMK A2990
2026-04-10 00:30:00,METAR RCKH 100030Z 33003KT 240V040 9999 FEW015 28/22 Q1012 NOSIG RMK A2990
2026-04-10 00:00:00,METAR RCKH 100000Z 34003KT 310V020 9999 FEW010 27/22 Q1012 NOSIG RMK A2990
2026-04-09 23:30:00,METAR RCKH 092330Z 01003KT 310V070 9999 FEW010 26/23 Q1012 NOSIG RMK A2989
2026-04-09 23:00:00,METAR RCKH 092300Z 02003KT 350V060 9999 FEW010 25/22 Q1012 NOSIG RMK A2989
2026-04-09 22:30:00,METAR RCKH 092230Z 02004KT 7000 FEW010 23/22 Q1011 NOSIG RMK A2988
2026-04-09 22:00:00,METAR RCKH 092200Z 04006KT 5000 BR FEW010 23/21 Q1011 NOSIG RMK A2987
2026-04-09 21:57:00,SPECI RCKH 092157Z 04006KT 5000 BR FEW010 23/21 Q1011 NOSIG RMK A2987
2026-04-09 21:00:00,METAR RCKH 092100Z 04004KT 9999 FEW010 SCT020 24/22 Q1010 NOSIG RMK A2985
2026-04-09 20:00:00,METAR RCKH 092000Z VRB02KT 9999 FEW010 SCT020 25/22 Q1010 NOSIG RMK A2985
2026-04-09 19:00:00,METAR RCKH 091900Z 28004KT 9999 FEW010 SCT020 25/22 Q1010 NOSIG RMK A2985
2026-04-09 18:00:00,METAR RCKH 091800Z 26005KT 9999 FEW010 SCT020 25/22 Q1010 NOSIG RMK A2985
2026-04-09 17:00:00,METAR RCKH 091700Z 25004KT 9999 FEW010 SCT020 25/23 Q1011 NOSIG RMK A2987
2026-04-09 16:00:00,METAR RCKH 091600Z VRB02KT 9999 FEW010 SCT016 26/23 Q1011 NOSIG RMK A2987
2026-04-09 15:30:00,METAR RCKH 091530Z VRB02KT 9999 FEW010 SCT016 26/23 Q1011 NOSIG RMK A2988
2026-04-09 15:00:00,METAR RCKH 091500Z 23003KT 200V280 9999 FEW012 SCT020 26/23 Q1012 NOSIG RMK A2989
2026-04-09 14:30:00,METAR RCKH 091430Z 25003KT 220V290 9999 SCT010 BKN025 26/23 Q1012 NOSIG RMK A2989
2026-04-09 14:00:00,METAR RCKH 091400Z 23004KT 200V260 9999 SCT010 BKN025 27/24 Q1012 NOSIG RMK A2989
2026-04-09 13:30:00,METAR RCKH 091330Z 21005KT 9999 SCT010 BKN025 27/24 Q1011 NOSIG RMK A2988
2026-04-09 13:00:00,METAR RCKH 091300Z 20006KT 9999 SCT010 BKN025 27/24 Q1011 NOSIG RMK A2987
2026-04-09 12:30:00,METAR RCKH 091230Z 21006KT 9999 SCT010 BKN025 27/24 Q1011 NOSIG RMK A2987
2026-04-09 12:00:00,METAR RCKH 091200Z 22005KT 9999 SCT010 BKN025 27/24 Q1011 NOSIG RMK A2986
2026-04-09 11:30:00,METAR RCKH 091130Z 21007KT 9999 SCT012 BKN025 27/23 Q1010 NOSIG RMK A2985
2026-04-09 11:00:00,METAR RCKH 091100Z 20006KT 160V230 9999 FEW015 SCT020 27/23 Q1010 NOSIG RMK A2984
2026-04-09 10:30:00,METAR RCKH 091030Z 20005KT 150V240 9999 FEW015 SCT020 BKN030 27/23 Q1010 NOSIG RMK A2983
2026-04-09 10:00:00,METAR RCKH 091000Z 19007KT 160V230 9999 FEW015 SCT020 BKN030 27/23 Q1010 NOSIG RMK A2983
2026-04-09 09:43:00,SPECI RCKH 090943Z 19006KT 170V230 9999 FEW015 SCT020 BKN035 28/24 Q1010 NOSIG RMK A2983
2026-04-09 09:30:00,METAR RCKH 090930Z 22007KT 180V260 9999 FEW015 SCT020 BKN035 28/24 Q1010 NOSIG RMK 22007KT/R09 A2983
2026-04-09 09:00:00,METAR RCKH 090900Z 23008KT 9999 FEW015 SCT020 BKN035 28/24 Q1010 NOSIG RMK 20006KT/R09 A2984
2026-04-09 08:30:00,METAR RCKH 090830Z 22009G20KT 160V260 9999 FEW015 SCT020 BKN035 29/24 Q1010 NOSIG RMK 21008KT/R09 A2984
2026-04-09 08:00:00,METAR RCKH 090800Z 22009KT 170V260 9999 FEW015 SCT020 BKN035 29/24 Q1010 NOSIG RMK 21008KT/R09 A2984
2026-04-09 07:30:00,METAR RCKH 090730Z VRB08G26KT 9999 FEW015 SCT020 BKN035 29/24 Q1010 NOSIG RMK 22009KT/R09 A2985
2026-04-09 07:00:00,METAR RCKH 090700Z 22009KT 180V260 9999 FEW015 SCT020 BKN035 29/23 Q1010 NOSIG RMK 21008KT/R09 A2985
2026-04-09 06:30:00,METAR RCKH 090630Z 20009KT 180V240 9999 FEW015 SCT020 BKN035 29/23 Q1011 NOSIG RMK 22009KT/R09 A2986
2026-04-09 06:00:00,METAR RCKH 090600Z 21009KT 160V240 9999 FEW015 SCT020 BKN035 29/22 Q1011 NOSIG RMK 18010KT/R09 A2987
2026-04-09 05:30:00,METAR RCKH 090530Z 22010KT 190V260 9999 FEW015 SCT020 BKN035 29/24 Q1011 NOSIG RMK 19009KT/R09 A2988
2026-04-09 05:00:00,METAR RCKH 090500Z 22010KT 180V250 9999 FEW015 SCT020 BKN028 29/24 Q1012 NOSIG RMK 18007KT/R09 A2989
2026-04-09 04:30:00,METAR RCKH 090430Z 23010KT 180V260 9999 FEW013 SCT017 BKN025 29/24 Q1012 NOSIG RMK 18010KT/R09 A2990
2026-04-09 04:03:00,SPECI RCKH 090403Z 23011KT 190V250 9999 FEW011 SCT016 BKN025 28/24 Q1012 NOSIG RMK 21010KT/R09 A2991
2026-04-09 04:00:00,METAR RCKH 090400Z 21009KT 180V250 9999 FEW011 SCT016 BKN025 29/24 Q1012 NOSIG RMK A2991
2026-04-09 03:30:00,METAR RCKH 090330Z 20009KT 170V230 9999 FEW012 SCT018 BKN025 28/23 Q1013 NOSIG RMK A2993
2026-04-09 03:00:00,METAR RCKH 090300Z 22008KT 190V260 9999 FEW010 SCT016 BKN025 28/24 Q1013 NOSIG RMK A2993
2026-04-09 02:30:00,METAR RCKH 090230Z 21007KT 180V260 9999 FEW010 SCT016 BKN023 28/23 Q1013 NOSIG RMK A2994
2026-04-09 02:00:00,METAR RCKH 090200Z 22007KT 190V260 9999 FEW010 SCT016 BKN023 27/23 Q1013 NOSIG RMK A2994
2026-04-09 01:30:00,METAR RCKH 090130Z 25007KT 200V280 9999 FEW010 SCT016 BKN023 27/23 Q1013 NOSIG RMK A2994
2026-04-09 01:00:00,METAR RCKH 090100Z 22007KT 9000 FEW012 SCT020 27/23 Q1013 NOSIG RMK A2994
2026-04-09 00:30:00,METAR RCKH 090030Z 20006KT 150V230 8000 FEW012 SCT025 27/23 Q1013 NOSIG RMK A2993
2026-04-09 00:00:00,METAR RCKH 090000Z 22003KT 150V260 7000 FEW014 SCT025 27/23 Q1013 NOSIG RMK A2993
2026-04-08 23:30:00,METAR RCKH 082330Z VRB01KT 7000 FEW016 SCT030 27/23 Q1013 NOSIG RMK A2992
2026-04-08 23:00:00,METAR RCKH 082300Z VRB01KT 7000 FEW018 SCT060 BKN100 26/23 Q1012 NOSIG RMK A2991
2026-04-08 22:30:00,METAR RCKH 082230Z 03003KT 7000 FEW016 SCT040 BKN060 25/22 Q1012 NOSIG RMK A2990
2026-04-08 22:00:00,METAR RCKH 082200Z 04003KT 7000 FEW016 SCT035 BKN049 25/22 Q1012 NOSIG RMK A2989
2026-04-08 21:00:00,METAR RCKH 082100Z VRB02KT 9999 FEW016 SCT035 BKN049 25/22 Q1011 NOSIG RMK A2988
2026-04-08 20:00:00,METAR RCKH 082000Z 08002KT 9999 FEW016 SCT040 BKN050 25/23 Q1011 NOSIG RMK A2988
2026-04-08 19:00:00,METAR RCKH 081900Z 07002KT 9999 FEW016 SCT040 25/23 Q1012 NOSIG RMK A2989
2026-04-08 18:00:00,METAR RCKH 081800Z 30002KT 9999 FEW016 SCT040 25/22 Q1012 NOSIG RMK A2990
2026-04-08 17:00:00,METAR RCKH 081700Z 28002KT 9999 FEW016 SCT040 BKN052 25/22 Q1013 NOSIG RMK A2992
2026-04-08 16:00:00,METAR RCKH 081600Z 28003KT 9999 FEW016 SCT040 BKN052 26/22 Q1013 NOSIG RMK A2993
2026-04-08 15:30:00,METAR RCKH 081530Z 28003KT 9999 FEW016 SCT040 BKN052 26/22 Q1013 NOSIG RMK A2993
2026-04-08 15:00:00,METAR RCKH 081500Z 28003KT 250V310 9999 SCT018 BKN050 26/22 Q1013 NOSIG RMK A2994
2026-04-08 14:30:00,METAR RCKH 081430Z 28004KT 260V320 9999 SCT018 BKN050 26/22 Q1014 NOSIG RMK A2995
2026-04-08 14:00:00,METAR RCKH 081400Z 29005KT 270V330 9999 FEW018 BKN050 26/22 Q1013 NOSIG RMK A2994
2026-04-08 13:30:00,METAR RCKH 081330Z 28005KT 260V330 9999 FEW018 SCT060 26/22 Q1013 NOSIG RMK A2993
2026-04-08 13:00:00,METAR RCKH 081300Z 29004KT 9999 FEW016 SCT050 BKN080 26/22 Q1013 NOSIG RMK A2993
2026-04-08 12:30:00,METAR RCKH 081230Z 28004KT 250V310 9999 FEW016 SCT050 BKN085 26/22 Q1013 NOSIG RMK A2993
2026-04-08 12:00:00,METAR RCKH 081200Z 27004KT 9999 FEW016 SCT050 BKN080 26/22 Q1013 NOSIG RMK A2992
2026-04-08 11:30:00,METAR RCKH 081130Z 25004KT 200V290 9999 FEW016 SCT050 BKN080 26/22 Q1012 NOSIG RMK A2991
2026-04-08 11:00:00,METAR RCKH 081100Z 26004KT 220V280 9999 FEW017 SCT060 BKN080 26/22 Q1012 NOSIG RMK A2989
2026-04-08 10:30:00,METAR RCKH 081030Z 24004KT 210V280 9999 FEW018 SCT060 BKN080 27/22 Q1011 NOSIG RMK A2988
2026-04-08 10:00:00,METAR RCKH 081000Z 27004KT 230V300 9999 FEW020 BKN080 27/22 Q1011 NOSIG RMK A2988
2026-04-08 09:30:00,METAR RCKH 080930Z 25006KT 9999 FEW020 SCT070 BKN180 27/22 Q1011 NOSIG RMK A2988
2026-04-08 09:00:00,METAR RCKH 080900Z 25007KT 220V290 9999 FEW018 SCT050 BKN200 27/22 Q1011 NOSIG RMK A2988
2026-04-08 08:30:00,METAR RCKH 080830Z 24007KT 220V280 9999 FEW020 SCT035 27/22 Q1011 NOSIG RMK A2988
2026-04-08 08:00:00,METAR RCKH 080800Z 25008KT 220V290 9999 FEW020 SCT035 BKN130 28/22 Q1011 NOSIG RMK A2987
2026-04-08 07:30:00,METAR RCKH 080730Z 24009KT 210V270 9999 FEW020 SCT055 BKN070 28/22 Q1011 NOSIG RMK A2987
2026-04-08 07:00:00,METAR RCKH 080700Z 25008KT 210V280 9999 FEW020 SCT055 BKN070 28/22 Q1011 NOSIG RMK A2987
2026-04-08 06:30:00,METAR RCKH 080630Z 27008KT 240V300 9999 FEW018 BKN065 OVC200 28/22 Q1011 NOSIG RMK A2988
2026-04-08 06:00:00,METAR RCKH 080600Z 26008KT 230V310 9999 FEW020 BKN070 BKN120 29/22 Q1012 NOSIG RMK A2989
2026-04-08 05:30:00,METAR RCKH 080530Z 27008KT 240V300 9999 FEW013 SCT025 BKN120 29/22 Q1012 NOSIG RMK A2990
2026-04-08 05:00:00,METAR RCKH 080500Z 27008KT 240V310 9999 FEW018 SCT030 BKN200 30/23 Q1012 NOSIG RMK A2991
2026-04-08 04:30:00,METAR RCKH 080430Z 29007KT 240V350 9999 FEW018 SCT025 BKN140 29/22 Q1013 NOSIG RMK A2992
2026-04-08 04:00:00,METAR RCKH 080400Z VRB05KT 9999 FEW018 SCT023 BKN100 30/22 Q1013 NOSIG RMK A2994
2026-04-08 03:30:00,METAR RCKH 080330Z VRB04KT 9999 FEW015 SCT020 BKN055 28/23 Q1014 NOSIG RMK A2995
2026-04-08 03:00:00,METAR RCKH 080300Z VRB04KT 9000 SCT014 BKN020 BKN050 28/22 Q1014 NOSIG RMK A2995
2026-04-08 02:30:00,METAR RCKH 080230Z 35004KT 290V040 9000 SCT012 BKN018 BKN050 27/23 Q1014 NOSIG RMK A2995
2026-04-08 02:06:00,SPECI RCKH 080206Z 03003KT 9999 -DZ SCT010 BKN015 OVC040 26/23 Q1014 NOSIG RMK A2996
2026-04-08 02:00:00,METAR RCKH 080200Z 36003KT 290V040 9999 FEW010 BKN015 OVC040 26/22 Q1014 NOSIG RMK A2996
2026-04-08 01:30:00,METAR RCKH 080130Z VRB02KT 9999 SCT010 BKN015 OVC040 26/23 Q1014 NOSIG RMK A2995
2026-04-08 01:00:00,METAR RCKH 080100Z 30005KT 260V330 9999 SCT008 BKN015 OVC035 26/23 Q1014 NOSIG RMK A2995
2026-04-08 00:46:00,SPECI RCKH 080046Z 32004KT 270V350 9999 SCT009 BKN015 OVC035 26/23 Q1014 NOSIG RMK A2995
2026-04-08 00:30:00,METAR RCKH 080030Z 29004KT 270V350 9999 -DZ SCT008 BKN012 OVC035 26/23 Q1014 NOSIG RMK A2995
2026-04-08 00:00:00,METAR RCKH 080000Z 32005KT 280V360 9999 -RA SCT006 BKN011 OVC030 26/23 Q1013 NOSIG RMK A2994
2026-04-07 23:33:00,SPECI RCKH 072333Z 28006KT 250V310 9999 -RA SCT006 BKN012 OVC030 26/23 Q1013 NOSIG RMK A2993
2026-04-07 23:30:00,METAR RCKH 072330Z 27006KT 240V300 9999 -RA SCT006 BKN016 OVC030 26/23 Q1013 NOSIG RMK A2993
2026-04-07 23:00:00,METAR RCKH 072300Z 34004KT 320V020 9999 -RA FEW014 SCT026 BKN038 25/23 Q1013 NOSIG RMK A2992
2026-04-07 22:30:00,METAR RCKH 072230Z 30003KT 9999 -RA FEW010 SCT022 BKN036 25/23 Q1012 NOSIG RMK A2991
2026-04-07 22:00:00,METAR RCKH 072200Z 30003KT 280V340 9999 -RA FEW014 SCT026 BKN032 25/23 Q1012 NOSIG RMK A2990 RA AMT 0.2MM
2026-04-07 21:00:00,METAR RCKH 072100Z 03002KT 9000 -RA SCT008 SCT014 BKN022 25/23 Q1011 NOSIG RMK A2988 RA AMT 1.0MM
2026-04-07 20:00:00,METAR RCKH 072000Z 31003KT 280V010 9000 -RA SCT008 SCT014 BKN022 25/23 Q1011 NOSIG RMK A2988 RA AMT 1.4MM
2026-04-07 19:00:00,METAR RCKH 071900Z 17005KT 130V220 9999 -RA FEW010 SCT016 BKN022 26/22 Q1011 NOSIG RMK A2988
2026-04-07 18:00:00,METAR RCKH 071800Z 17010KT 9999 -RA FEW010 SCT016 BKN022 26/23 Q1011 NOSIG RMK A2988
2026-04-07 17:00:00,METAR RCKH 071700Z 17005KT 140V200 9000 -RA FEW010 SCT016 BKN034 26/22 Q1012 NOSIG RMK A2990 RA AMT 0.2MM
2026-04-07 16:00:00,METAR RCKH 071600Z 17009KT 8000 -RA SCT009 BKN016 OVC034 26/23 Q1012 NOSIG RMK A2990 RA AMT 0.2MM
2026-04-07 15:30:00,METAR RCKH 071530Z 17008KT 150V210 8000 -RA SCT009 BKN016 OVC028 26/24 Q1012 NOSIG RMK A2990
2026-04-07 15:00:00,METAR RCKH 071500Z 19006KT 160V240 9000 -RA SCT008 BKN016 BKN030 26/24 Q1012 NOSIG RMK A2990
2026-04-07 14:30:00,METAR RCKH 071430Z 19005KT 160V230 9000 -RA SCT008 BKN016 BKN027 26/24 Q1012 NOSIG RMK A2990
2026-04-07 14:00:00,METAR RCKH 071400Z 19005KT 160V230 9000 -RA SCT008 BKN015 BKN027 26/24 Q1012 NOSIG RMK A2990 RA AMT 0.2MM
2026-04-07 13:48:00,SPECI RCKH 071348Z 19006KT 160V220 8000 -RA SCT008 FEW012TCU BKN015 BKN035 26/24 Q1012 NOSIG RMK TCU N-NE A2990
2026-04-07 13:30:00,METAR RCKH 071330Z 19006KT 7000 -RA SCT008 FEW012TCU BKN014 BKN035 26/24 Q1012 TEMPO 5000 SHRA RMK TCU W AND N A2990
2026-04-07 13:00:00,METAR RCKH 071300Z 21008KT 180V240 9999 -RA SCT008 FEW012TCU BKN014 BKN035 26/23 Q1012 TEMPO 5000 SHRA RMK TCU SW-W-NW A2990
2026-04-07 12:30:00,METAR RCKH 071230Z 19005KT 160V260 9999 -RA SCT008 FEW012TCU BKN014 BKN035 27/24 Q1012 NOSIG RMK TCU W-NW A2989
2026-04-07 12:00:00,METAR RCKH 071200Z 19005KT 160V220 9000 -SHRA SCT006 FEW010TCU BKN012 BKN032 26/24 Q1011 RESHRA NOSIG RMK TCU NE-E A2988 RA AMT 1.6MM
2026-04-07 11:46:00,SPECI RCKH 071146Z 18007KT 150V210 5000 -SHRA SCT006 FEW010TCU BKN012 BKN032 26/24 Q1011 RESHRA NOSIG RMK TCU NE-E-SE A2988
2026-04-07 11:30:00,METAR RCKH 071130Z 21006KT 170V240 4000 SHRA SCT006 BKN010 FEW010TCU BKN030 26/24 Q1011 TEMPO 3000 SHRA RMK TCU SW-W-NW A2988
2026-04-07 11:00:00,METAR RCKH 071100Z 22006KT 8000 -SHRA SCT008 FEW010TCU BKN012 BKN045 26/24 Q1011 NOSIG RMK TCU SE AND NW A2987
2026-04-07 10:30:00,METAR RCKH 071030Z 23005KT 200V270 8000 -SHRA SCT008 FEW010TCU BKN012 BKN045 26/24 Q1011 NOSIG RMK TCU SE A2986
2026-04-07 10:00:00,METAR RCKH 071000Z 23007KT 200V270 8000 -SHRA SCT008 FEW010TCU BKN012 BKN045 27/24 Q1010 NOSIG RMK TCU SE A2985 RA AMT 0.2MM
2026-04-07 09:30:00,METAR RCKH 070930Z 25008KT 5000 -SHRA SCT008 FEW010CB BKN012 BKN035 26/24 Q1010 NOSIG RMK CB E AND NW A2984
2026-04-07 09:00:00,METAR RCKH 070900Z 23008KT 5000 -SHRA SCT006 FEW010CB BKN012 BKN035 27/24 Q1010 TEMPO 2000 SHRA RMK CB W-NW A2983
2026-04-07 08:55:00,SPECI RCKH 070855Z 24007KT 210V290 5000 -RA SCT008 SCT010CB BKN012 BKN035 27/23 Q1010 TEMPO 2000 RA RMK CB NW A2983
2026-04-07 08:30:00,METAR RCKH 070830Z 24007KT 210V290 9000 -DZ SCT008 FEW010CB BKN015 BKN035 27/23 Q1010 TEMPO 5000 -RA RMK CB N A2983
2026-04-07 08:13:00,SPECI RCKH 070813Z 25008KT 9999 -DZ SCT012 BKN025 BKN050 27/23 Q1010 TEMPO 5000 -RA RMK A2983
2026-04-07 08:10:00,SPECI RCKH 070810Z 24008KT 200V260 9999 -DZ SCT012 BKN045 BKN070 27/24 Q1010 TEMPO 5000 -RA RMK 25007KT/R09 A2983
2026-04-07 08:00:00,METAR RCKH 070800Z 26009KT 230V290 9999 FEW012 BKN045 BKN070 27/23 Q1010 NOSIG RMK 24008KT/R09 A2983
2026-04-07 07:30:00,METAR RCKH 070730Z 26009KT 240V300 9999 FEW012 BKN050 BKN080 28/24 Q1010 NOSIG RMK 25010KT/R09 A2983
2026-04-07 07:00:00,METAR RCKH 070700Z 26013KT 9999 FEW012 BKN045 BKN060 27/23 Q1010 NOSIG RMK 25010KT/R09 A2983
2026-04-07 06:30:00,METAR RCKH 070630Z 26012KT 9999 FEW013 BKN045 BKN060 28/23 Q1010 NOSIG RMK 25011KT/R09 A2983
2026-04-07 06:00:00,METAR RCKH 070600Z 27011KT 9999 FEW013 BKN045 OVC060 28/23 Q1010 NOSIG RMK 25010KT/R09 A2984
2026-04-07 05:30:00,METAR RCKH 070530Z 27010KT 9999 FEW012 BKN035 OVC055 28/23 Q1010 NOSIG RMK 25010KT/R09 A2985
2026-04-07 05:00:00,METAR RCKH 070500Z 25010KT 9999 FEW014 SCT045 BKN090 29/23 Q1011 NOSIG RMK 25011KT/R09 A2986
2026-04-07 04:30:00,METAR RCKH 070430Z 26012KT 9999 FEW012 SCT040 BKN090 30/22 Q1011 NOSIG RMK 25011KT/R09 A2986
2026-04-07 04:00:00,METAR RCKH 070400Z 25012KT 9999 FEW014 SCT040 BKN090 30/22 Q1011 NOSIG RMK 25012KT/R09 A2986
2026-04-07 03:30:00,METAR RCKH 070330Z 26010KT 230V290 9999 FEW014 SCT040 BKN090 29/22 Q1011 NOSIG RMK 24010KT/R09 A2986
2026-04-07 03:00:00,METAR RCKH 070300Z 26008KT 230V290 9999 FEW014 SCT040 BKN090 29/22 Q1011 NOSIG RMK 25008KT/R09 A2987
2026-04-07 02:51:00,SPECI RCKH 070251Z 26007KT 230V290 9999 FEW014 SCT040 BKN090 29/23 Q1011 NOSIG RMK 25008KT/R09 A2987
2026-04-07 02:30:00,METAR RCKH 070230Z 23006KT 200V270 9999 FEW014 SCT040 BKN090 28/22 Q1011 NOSIG RMK A2988
2026-04-07 02:00:00,METAR RCKH 070200Z 24006KT 210V280 9999 FEW014 SCT040 BKN095 28/22 Q1011 NOSIG RMK A2988
2026-04-07 01:30:00,METAR RCKH 070130Z 28004KT 240V350 9999 FEW014 SCT040 BKN100 29/22 Q1011 NOSIG RMK A2988
2026-04-07 01:00:00,METAR RCKH 070100Z 28004KT 230V320 9999 FEW014 SCT040 BKN100 28/22 Q1011 NOSIG RMK A2988
2026-04-07 00:30:00,METAR RCKH 070030Z VRB02KT 9999 FEW014 SCT040 BKN100 28/22 Q1011 NOSIG RMK A2988
2026-04-07 00:00:00,METAR RCKH 070000Z 05003KT 010V090 9999 FEW014 SCT040 BKN100 27/21 Q1011 NOSIG RMK A2988
2026-04-06 23:30:00,METAR RCKH 062330Z 07003KT 020V100 9999 FEW014 SCT040 BKN100 26/21 Q1011 NOSIG RMK A2987
2026-04-06 23:00:00,METAR RCKH 062300Z 06002KT 9999 FEW016 BKN100 24/20 Q1011 NOSIG RMK A2987
2026-04-06 22:30:00,METAR RCKH 062230Z 09002KT 9999 FEW018 SCT100 23/20 Q1010 NOSIG RMK A2985
2026-04-06 22:00:00,METAR RCKH 062200Z 07002KT 9999 FEW015 SCT120 23/20 Q1010 NOSIG RMK A2984
2026-04-06 21:00:00,METAR RCKH 062100Z VRB01KT 9999 FEW015 SCT150 24/20 Q1009 NOSIG RMK A2982
2026-04-06 20:00:00,METAR RCKH 062000Z 08002KT 9999 FEW015 SCT150 24/20 Q1009 NOSIG RMK A2981
2026-04-06 19:00:00,METAR RCKH 061900Z 05002KT 9999 FEW015 SCT150 24/21 Q1009 NOSIG RMK A2982
2026-04-06 18:00:00,METAR RCKH 061800Z 04004KT 9999 FEW015 SCT150 25/21 Q1010 NOSIG RMK A2983
2026-04-06 17:00:00,METAR RCKH 061700Z 05002KT 9999 FEW013 SCT130 25/22 Q1010 NOSIG RMK A2985
2026-04-06 16:00:00,METAR RCKH 061600Z 36002KT 9999 FEW014 SCT028 BKN140 26/22 Q1011 NOSIG RMK A2986
2026-04-06 15:30:00,METAR RCKH 061530Z VRB01KT 9999 FEW014 SCT070 26/22 Q1011 NOSIG RMK A2986
2026-04-06 15:00:00,METAR RCKH 061500Z VRB02KT 9999 FEW014 SCT070 26/22 Q1011 NOSIG RMK A2986
2026-04-06 14:30:00,METAR RCKH 061430Z 05003KT 010V080 9999 FEW014 26/22 Q1011 NOSIG RMK A2987
2026-04-06 14:00:00,METAR RCKH 061400Z 06004KT 9999 FEW014 SCT056 26/22 Q1011 NOSIG RMK A2987
2026-04-06 13:30:00,METAR RCKH 061330Z VRB02KT 9999 FEW012 SCT140 26/22 Q1011 NOSIG RMK A2986
2026-04-06 13:00:00,METAR RCKH 061300Z 07003KT 9999 FEW012 SCT140 26/23 Q1010 NOSIG RMK A2985
2026-04-06 12:30:00,METAR RCKH 061230Z 08003KT 9999 FEW012 26/22 Q1010 NOSIG RMK A2984
2026-04-06 12:00:00,METAR RCKH 061200Z VRB01KT 9999 FEW010 27/22 Q1010 NOSIG RMK A2983
2026-04-06 11:30:00,METAR RCKH 061130Z VRB01KT 9999 FEW010 27/22 Q1010 NOSIG RMK A2983
2026-04-06 11:00:00,METAR RCKH 061100Z VRB01KT 9999 FEW014 SCT050 27/22 Q1010 NOSIG RMK A2984
2026-04-06 10:30:00,METAR RCKH 061030Z 18003KT 140V270 9999 FEW012 SCT040 27/23 Q1010 NOSIG RMK A2983
2026-04-06 10:00:00,METAR RCKH 061000Z 20004KT 160V240 9999 FEW010 SCT025 BKN050 27/22 Q1009 NOSIG RMK A2982
2026-04-06 09:30:00,METAR RCKH 060930Z 23005KT 140V260 9999 FEW010 SCT020 BKN035 27/23 Q1009 NOSIG RMK A2981
2026-04-06 09:00:00,METAR RCKH 060900Z 23007KT 200V260 9999 FEW010 SCT022 BKN040 28/22 Q1009 NOSIG RMK A2980
2026-04-06 08:30:00,METAR RCKH 060830Z 22006KT 180V270 9999 FEW010 SCT022 BKN043 28/23 Q1009 NOSIG RMK A2981
2026-04-06 08:00:00,METAR RCKH 060800Z 19007KT 160V220 9999 FEW010 BKN024 BKN070 28/23 Q1009 NOSIG RMK A2980
2026-04-06 07:30:00,METAR RCKH 060730Z 20007KT 140V250 9999 FEW010 SCT030 29/23 Q1009 NOSIG RMK A2980
2026-04-06 07:00:00,METAR RCKH 060700Z 21009KT 170V250 9999 FEW010 SCT030 29/22 Q1009 NOSIG RMK A2980
2026-04-06 06:30:00,METAR RCKH 060630Z 19007KT 150V240 9999 FEW010 SCT030 BKN080 29/22 Q1009 NOSIG RMK A2980
2026-04-06 06:00:00,METAR RCKH 060600Z 20007KT 160V250 9999 SCT010 BKN030 BKN080 28/23 Q1009 NOSIG RMK A2982
2026-04-06 05:30:00,METAR RCKH 060530Z 20006KT 150V250 9999 SCT010 BKN030 BKN060 28/22 Q1010 NOSIG RMK A2983
2026-04-06 05:00:00,METAR RCKH 060500Z 19008KT 150V220 9999 FEW010 BKN040 BKN060 28/23 Q1010 NOSIG RMK A2983
2026-04-06 04:30:00,METAR RCKH 060430Z 19009KT 9999 FEW010 BKN040 BKN060 28/22 Q1010 NOSIG RMK A2984
2026-04-06 04:00:00,METAR RCKH 060400Z 19009KT 160V220 9999 SCT010 BKN040 BKN060 28/22 Q1010 NOSIG RMK A2985
2026-04-06 03:30:00,METAR RCKH 060330Z 19010KT 160V220 9999 SCT008 BKN040 BKN060 28/21 Q1010 NOSIG RMK A2985
2026-04-06 03:00:00,METAR RCKH 060300Z 18008KT 120V210 9999 SCT008 BKN030 BKN055 28/22 Q1011 NOSIG RMK A2988
2026-04-06 02:30:00,METAR RCKH 060230Z 18009KT 9999 SCT008 BKN030 BKN055 28/23 Q1011 NOSIG RMK A2988
2026-04-06 02:00:00,METAR RCKH 060200Z 19008KT 160V220 9999 SCT008 BKN020 BKN030 28/23 Q1011 NOSIG RMK A2988
2026-04-06 01:30:00,METAR RCKH 060130Z 18008KT 9999 VCSH SCT008 BKN020 BKN030 27/23 Q1011 NOSIG RMK A2987
2026-04-06 01:00:00,METAR RCKH 060100Z 17006KT 110V200 9999 VCSH SCT008 BKN020 BKN030 27/22 Q1011 NOSIG RMK A2987
2026-04-06 00:30:00,METAR RCKH 060030Z 13004KT 050V190 9999 SCT008 BKN020 BKN030 27/22 Q1011 NOSIG RMK A2986
2026-04-06 00:00:00,METAR RCKH 060000Z 17008KT 130V210 9999 SCT008 BKN019 BKN026 27/23 Q1011 NOSIG RMK A2986
2026-04-05 23:30:00,METAR RCKH 052330Z 18007KT 150V220 9999 SCT008 BKN019 BKN028 27/23 Q1011 NOSIG RMK A2986
2026-04-05 23:00:00,METAR RCKH 052300Z 18006KT 140V220 9999 VCSH FEW010 BKN018 BKN030 27/23 Q1011 NOSIG RMK A2986
2026-04-05 22:30:00,METAR RCKH 052230Z 16009KT 9999 VCSH FEW010 BKN018 BKN030 27/23 Q1010 NOSIG RMK A2985
2026-04-05 22:00:00,METAR RCKH 052200Z 17012KT 9999 VCSH FEW010 BKN018 BKN035 26/23 Q1009 NOSIG RMK A2982
2026-04-05 21:00:00,METAR RCKH 052100Z 17011KT 140V200 9999 VCSH FEW010 BKN018 BKN035 26/23 Q1009 NOSIG RMK A2982
2026-04-05 20:00:00,METAR RCKH 052000Z 17009KT 130V200 9999 VCSH FEW010 BKN018 BKN035 26/23 Q1009 NOSIG RMK A2980
2026-04-05 19:00:00,METAR RCKH 051900Z 16010KT 130V200 9999 FEW010 BKN018 BKN022 26/23 Q1009 NOSIG RMK A2981
2026-04-05 18:00:00,METAR RCKH 051800Z 17008KT 150V210 9999 SCT025 BKN100 26/21 Q1009 NOSIG RMK A2982
2026-04-05 17:00:00,METAR RCKH 051700Z 14005KT 090V190 9999 SCT025 BKN150 26/23 Q1009 NOSIG RMK A2982
2026-04-05 16:00:00,METAR RCKH 051600Z 18007KT 9999 SCT025 BKN150 27/22 Q1010 NOSIG RMK A2984
2026-04-05 15:30:00,METAR RCKH 051530Z 14004KT 110V180 9999 FEW016 SCT100 27/22 Q1010 NOSIG RMK A2985
2026-04-05 15:00:00,METAR RCKH 051500Z 16004KT 9999 SCT016 SCT160 27/22 Q1010 NOSIG RMK A2985
2026-04-05 13:00:00,METAR RCKH 051300Z 18006KT 140V200 9999 SCT015 BKN035 BKN075 27/23 Q1010 NOSIG RMK A2985
2026-04-05 12:30:00,METAR RCKH 051230Z 18005KT 140V210 9999 SCT015 BKN025 BKN065 27/23 Q1010 NOSIG RMK A2983
2026-04-05 12:00:00,METAR RCKH 051200Z 18006KT 150V220 9999 SCT015 BKN025 BKN085 27/23 Q1009 NOSIG RMK A2982
2026-04-05 11:30:00,METAR RCKH 051130Z 20006KT 160V250 9999 VCSH FEW010TCU SCT015 BKN020 BKN090 27/23 Q1010 NOSIG RMK TCU N A2983
2026-04-05 11:00:00,METAR RCKH 051100Z 18008KT 150V210 9000 VCSH SCT008 FEW010TCU BKN016 BKN030 27/23 Q1010 NOSIG RMK TCU N A2983
2026-04-05 10:30:00,METAR RCKH 051030Z 18007KT 150V220 9999 SCT008 BKN017 OVC026 27/23 Q1010 NOSIG RMK A2983
2026-04-05 10:00:00,METAR RCKH 051000Z 17005KT 120V230 9999 FEW012 BKN029 BKN050 27/23 Q1009 NOSIG RMK A2982
2026-04-05 09:30:00,METAR RCKH 050930Z 16006KT 130V200 9999 FEW012 SCT024 BKN050 27/23 Q1009 NOSIG RMK A2982
2026-04-05 09:00:00,METAR RCKH 050900Z 18006KT 130V230 9999 FEW012 SCT024 BKN054 27/22 Q1009 NOSIG RMK A2981
2026-04-05 08:30:00,METAR RCKH 050830Z 18006KT 130V230 9999 FEW012 SCT024 BKN054 28/23 Q1009 NOSIG RMK A2980
2026-04-05 08:00:00,METAR RCKH 050800Z 19006KT 130V260 9999 FEW012 SCT023 BKN060 28/22 Q1008 NOSIG RMK A2979
2026-04-05 07:30:00,METAR RCKH 050730Z 19008KT 160V230 9999 FEW012 BKN026 BKN062 28/22 Q1008 NOSIG RMK A2979
2026-04-05 07:00:00,METAR RCKH 050700Z 19007KT 130V240 9999 FEW012 BKN026 BKN058 28/22 Q1009 NOSIG RMK A2980
2026-04-05 06:30:00,METAR RCKH 050630Z 18006KT 130V230 9999 FEW012 BKN025 BKN060 28/21 Q1008 NOSIG RMK A2979
2026-04-05 06:00:00,METAR RCKH 050600Z 19008KT 100V210 9999 FEW012 BKN027 BKN064 28/22 Q1009 NOSIG RMK A2980
2026-04-05 05:30:00,METAR RCKH 050530Z 19007KT 110V270 9999 FEW012 BKN029 BKN064 28/21 Q1009 NOSIG RMK A2982
2026-04-05 05:00:00,METAR RCKH 050500Z 19007KT 110V270 9999 FEW014 SCT036 BKN058 28/21 Q1009 NOSIG RMK A2982
2026-04-05 04:30:00,METAR RCKH 050430Z 17005KT 120V220 9999 FEW016 SCT054 BKN100 28/21 Q1010 NOSIG RMK A2983
2026-04-05 04:00:00,METAR RCKH 050400Z 19005KT 140V230 9999 FEW016 SCT054 BKN080 28/21 Q1010 NOSIG RMK A2984
2026-04-05 03:30:00,METAR RCKH 050330Z 17005KT 120V230 9999 FEW016 SCT054 BKN080 28/21 Q1010 NOSIG RMK A2985
2026-04-05 03:00:00,METAR RCKH 050300Z 15004KT 100V230 9999 FEW016 SCT054 BKN080 27/20 Q1011 NOSIG RMK A2986
2026-04-05 02:30:00,METAR RCKH 050230Z 17007KT 120V190 9999 FEW016 SCT054 BKN080 27/20 Q1011 NOSIG RMK A2986
2026-04-05 02:00:00,METAR RCKH 050200Z 17006KT 110V220 9999 FEW016 SCT054 BKN080 27/20 Q1011 NOSIG RMK A2986
2026-04-05 01:30:00,METAR RCKH 050130Z 11005KT 070V150 9999 FEW024 SCT070 27/21 Q1010 NOSIG RMK A2985
2026-04-05 01:00:00,METAR RCKH 050100Z 10005KT 9999 FEW024 SCT070 BKN090 27/20 Q1010 NOSIG RMK A2985
2026-04-05 00:30:00,METAR RCKH 050030Z 05003KT 340V100 9000 FEW016 SCT054 BKN070 25/22 Q1010 NOSIG RMK A2985
2026-04-05 00:00:00,METAR RCKH 050000Z 06004KT 040V130 8000 FEW010 SCT080 25/21 Q1010 NOSIG RMK A2984
2026-04-04 23:30:00,METAR RCKH 042330Z 06004KT 8000 FEW010 SCT080 23/21 Q1010 NOSIG RMK A2983
2026-04-04 23:00:00,METAR RCKH 042300Z 08005KT 8000 FEW010 SCT070 23/21 Q1010 NOSIG RMK A2983
2026-04-04 22:30:00,METAR RCKH 042230Z 07005KT 7000 BR FEW015 SCT045 BKN070 22/21 Q1009 NOSIG RMK A2982
2026-04-04 22:00:00,METAR RCKH 042200Z 09004KT 9000 VCSH FEW010CB FEW014 SCT040 BKN060 22/21 Q1009 NOSIG RMK CB SE A2981
2026-04-04 21:00:00,METAR RCKH 042100Z 09005KT 9000 VCSH FEW014 SCT040 BKN060 22/21 Q1009 TEMPO 5000 SHRA RMK A2980
2026-04-04 20:00:00,METAR RCKH 042000Z 05003KT 8000 VCSH FEW014 SCT040 BKN060 22/21 Q1009 NOSIG RMK A2981
2026-04-04 19:00:00,METAR RCKH 041900Z 06006KT 6000 -SHRA FEW014 SCT040 BKN060 22/21 Q1009 NOSIG RMK A2981 RA AMT 0.4MM
2026-04-04 18:00:00,METAR RCKH 041800Z VRB02KT 5000 -SHRA FEW015 SCT025 BKN035 22/20 Q1009 NOSIG RMK A2982 RA AMT 1.4MM
2026-04-04 17:44:00,SPECI RCKH 041744Z 06004KT 7000 -SHRA FEW015 SCT030 BKN040 22/20 Q1010 TEMPO 5000 SHRA RMK A2983
2026-04-04 17:00:00,METAR RCKH 041700Z 11003KT 9000 VCSH FEW012 SCT025 BKN045 22/20 Q1010 NOSIG RMK A2983
2026-04-04 16:00:00,METAR RCKH 041600Z 08005KT 040V100 9999 VCSH FEW012 SCT030 BKN055 21/20 Q1010 NOSIG RMK A2984 RA AMT 0.4MM
2026-04-04 15:30:00,METAR RCKH 041530Z 07007KT 7000 -SHRA FEW008 SCT025 BKN050 21/20 Q1010 RESHRA NOSIG RMK A2984
2026-04-04 15:16:00,SPECI RCKH 041516Z 07005KT 5000 -SHRA FEW008 SCT025 BKN040 21/20 Q1010 RESHRA NOSIG RMK A2984
2026-04-04 15:00:00,METAR RCKH 041500Z 05003KT 360V090 4000 SHRA SCT010 FEW012CB BKN030 BKN060 21/20 Q1010 NOSIG RMK CB SE-S A2985 RA AMT 1.6MM
2026-04-04 14:39:00,SPECI RCKH 041439Z VRB03KT 3000 SHRA SCT010 BKN030 BKN060 21/20 Q1010 NOSIG RMK A2984
2026-04-04 14:30:00,METAR RCKH 041430Z 07004KT 5000 -SHRA SCT010 BKN030 BKN060 21/20 Q1010 NOSIG RMK A2985
2026-04-04 14:00:00,METAR RCKH 041400Z 09004KT 050V130 4000 -SHRA SCT006 BKN025 BKN050 21/20 Q1010 NOSIG RMK A2985 RA AMT 2.4MM
2026-04-04 13:50:00,SPECI RCKH 041350Z 07004KT 050V110 4000 -SHRA SCT006 BKN025 BKN050 21/20 Q1011 NOSIG RMK A2986
2026-04-04 13:30:00,METAR RCKH 041330Z 07008KT 6000 -SHRA SCT006 SCT010CB BKN025 BKN050 21/19 Q1010 RETSRA NOSIG RMK CB SE A2985
2026-04-04 13:09:00,SPECI RCKH 041309Z 06008KT 6000 -SHRA SCT006 SCT010CB BKN025 BKN050 21/20 Q1010 RETSRA NOSIG RMK CB SE A2984
2026-04-04 13:00:00,METAR RCKH 041300Z 06007KT 5000 VCTS SHRA SCT006 SCT010CB BKN025 BKN050 21/20 Q1010 NOSIG RMK TS SE-S MOV SE A2985 RA AMT 5.4MM
2026-04-04 12:30:00,METAR RCKH 041230Z 02007KT 3500 VCTS SHRA SCT005 SCT010CB BKN025 BKN050 21/20 Q1011 TEMPO 5000 -TSRA RMK TS SE-S MOV E A2986
2026-04-04 12:17:00,SPECI RCKH 041217Z 03007KT 360V070 3000 VCTS SHRA SCT005 SCT010CB BKN025 BKN050 21/20 Q1010 TEMPO 5000 -TSRA RMK TS SE-S MOV E A2985
2026-04-04 12:00:00,METAR RCKH 041200Z 05005KT 020V080 3000 TSRA SCT005 SCT010CB BKN025 BKN050 20/19 Q1010 TEMPO 5000 -TSRA RMK TS SE-S MOV E A2985 RA AMT 18.2MM
2026-04-04 11:42:00,SPECI RCKH 041142Z 03005KT 360V070 3000 TSRA SCT005 SCT010CB BKN025 BKN035 20/19 Q1010 TEMPO 5000 -TSRA RMK TS SE-S AND N MOV E A2984
2026-04-04 11:30:00,METAR RCKH 041130Z 04010KT 360V070 1800 +TSRA SCT005 SCT010CB BKN022 BKN035 21/19 Q1009 TEMPO 3000 TSRA RMK TS S-W AND N MOV E A2981
2026-04-04 11:14:00,SPECI RCKH 041114Z 35010KT 330V040 1800 +TSRA SCT006 SCT010CB BKN022 BKN035 22/19 Q1009 TEMPO 1000 +TSRA RMK TS W-N MOV E A2981
2026-04-04 11:09:00,SPECI RCKH 041109Z 01008KT 330V060 3000 VCTS SHRA SCT010CB SCT014 SCT026 BKN035 22/19 Q1009 TEMPO 1500 +TSRA RMK TS W-N MOV E A2980
2026-04-04 11:04:00,SPECI RCKH 041104Z 02008KT 330V060 5000 VCTS SHRA SCT010CB SCT014 SCT026 BKN035 22/19 Q1009 BECMG 5000 TSRA RMK TS W-N MOV E A2980
2026-04-04 11:00:00,METAR RCKH 041100Z 05009KT 020V080 9000 VCTS -SHRA SCT010CB SCT014 SCT026 BKN038 22/19 Q1008 BECMG 5000 TSRA RMK TS W-N MOV E A2977
2026-04-04 10:50:00,SPECI RCKH 041050Z 05009KT 9000 VCTS -SHRA SCT010CB SCT014 BKN026 BKN038 22/19 Q1008 BECMG 5000 TSRA RMK TS NW MOV E A2977
2026-04-04 10:30:00,METAR RCKH 041030Z 04007KT 9000 -SHRA SCT010TCU SCT014 BKN036 BKN052 22/19 Q1008 NOSIG RMK TCU W-N A2977
2026-04-04 10:00:00,METAR RCKH 041000Z 04009KT 8000 -SHRA SCT014 BKN036 BKN052 22/19 Q1007 NOSIG RMK A2976 RA AMT 0.2MM
2026-04-04 09:30:00,METAR RCKH 040930Z 04009KT 9999 -SHRA FEW009 FEW010TCU SCT016 BKN048 22/19 Q1007 NOSIG RMK TCU NW A2976
2026-04-04 09:00:00,METAR RCKH 040900Z 05007KT 9000 -SHRA FEW009 FEW010CB SCT016 BKN038 21/20 Q1007 RETS NOSIG RMK CB SE A2976 RA AMT 5.2MM
2026-04-04 08:48:00,SPECI RCKH 040848Z COR 07008KT 030V100 5000 VCTS -SHRA FEW006 SCT009CB SCT016 BKN038 22/20 Q1007 BECMG NSW RMK TS E MOV E A2976
2026-04-04 08:45:00,SPECI RCKH 040845Z 08009KT 4500 2000E VCTS -SHRA SCT006 SCT009CB SCT016 BKN034 21/20 Q1008 TEMPO 3000 TSRA RMK TS N-S MOV E A2977
2026-04-04 08:38:00,SPECI RCKH 040838Z 08008KT 040V100 4500 -TSRA SCT006 SCT009CB BKN014 OVC026 22/20 Q1008 TEMPO 3000 TSRA RMK TS NE-SE MOV E A2977
2026-04-04 08:30:00,METAR RCKH 040830Z 05010KT 6000 -TSRA FEW006 SCT009CB SCT014 BKN036 21/20 Q1007 RESHRA TEMPO 5000 TSRA RMK TS E MOV E A2976
2026-04-04 08:20:00,SPECI RCKH 040820Z 04010KT 3500 -TSRA SCT006 SCT009CB BKN014 OVC026 22/20 Q1007 RESHRA TEMPO 3000 TSRA RMK TS NE MOV E A2976
2026-04-04 08:12:00,SPECI RCKH 040812Z 04011KT 2500 TSRA SCT006 SCT009CB BKN014 OVC022 22/20 Q1008 TEMPO 1500 TSRA RMK TS N MOV E A2977
2026-04-04 08:09:00,SPECI RCKH 040809Z 04012KT 360V060 2500 TSRA SCT006 SCT009CB BKN016 OVC034 22/20 Q1008 TEMPO 1500 TSRA RMK TS N MOV E A2977
2026-04-04 08:06:00,SPECI RCKH 040806Z 03016KT 350V060 3500 TSRA SCT006 SCT009CB SCT020 BKN036 22/20 Q1008 TEMPO 1500 TSRA RMK TS N MOV E A2977
2026-04-04 08:02:00,SPECI RCKH 040802Z 01009KT 350V050 3500 VCTS SHRA SCT006 SCT009CB SCT022 BKN038 23/20 Q1008 TEMPO 1500 TSRA RMK TS NW-NE MOV E A2977
2026-04-04 08:00:00,METAR RCKH 040800Z 02007KT 350V060 6000 VCTS -SHRA SCT006 SCT009CB SCT022 BKN038 23/20 Q1008 TEMPO 3000 TSRA RMK TS NW-NE MOV E A2979 RA AMT 0.6MM
2026-04-04 07:47:00,SPECI RCKH 040747Z 05010KT 7000 VCTS -SHRA FEW009CB FEW014 SCT026 BKN052 23/20 Q1007 TEMPO 5000 TSRA RMK TS N MOV E A2976
2026-04-04 07:30:00,METAR RCKH 040730Z 04006G16KT 360V060 8000 -SHRA FEW009TCU FEW014 SCT026 BKN052 23/20 Q1008 NOSIG RMK TCU N A2977
2026-04-04 07:00:00,METAR RCKH 040700Z 04008KT 8000 -SHRA FEW014 SCT026 BKN058 23/20 Q1007 NOSIG RMK A2976
2026-04-04 06:30:00,METAR RCKH 040630Z 04008KT 360V090 8000 -SHRA FEW009CB FEW014 SCT026 BKN052 23/21 Q1007 NOSIG RMK CB NW A2976
2026-04-04 06:00:00,METAR RCKH 040600Z 05007KT 010V090 8000 -SHRA FEW009CB FEW014 SCT026 BKN058 24/20 Q1008 RETS NOSIG RMK CB W-N A2977 RA AMT 0.2MM
2026-04-04 05:45:00,SPECI RCKH 040545Z 06006KT 010V090 9000 -SHRA FEW009CB FEW014 SCT026 BKN058 24/21 Q1008 RETS NOSIG RMK CB W-N A2977
2026-04-04 05:30:00,METAR RCKH 040530Z 35006KT 300V040 9000 VCTS -SHRA FEW009CB FEW014 SCT022 BKN058 24/21 Q1008 NOSIG RMK TS NW MOV E A2979
2026-04-04 05:20:00,SPECI RCKH 040520Z 34007KT 300V040 9000 VCTS -SHRA FEW009CB FEW014 SCT022 BKN054 24/21 Q1008 NOSIG RMK TS NW MOV E A2979
2026-04-04 05:00:00,METAR RCKH 040500Z 32007KT 270V360 9999 VCSH FEW012TCU FEW015 SCT030 BKN060 24/20 Q1008 RETS NOSIG RMK TCU SE A2979 RA AMT 11.2MM
2026-04-04 04:52:00,SPECI RCKH 040452Z COR 32006KT 260V360 9999 VCSH FEW012TCU FEW015 SCT030 BKN060 25/20 Q1008 RETS NOSIG RMK TCU SE A2979
2026-04-04 04:47:00,SPECI RCKH 040447Z 31006KT 260V010 9000 VCTS VCSH FEW010CB FEW015 SCT025 BKN055 24/20 Q1008 NOSIG RMK TS NE MOV E A2979
2026-04-04 04:35:00,SPECI RCKH 040435Z 29010KT 270V330 8000 VCTS -SHRA FEW005 FEW010CB BKN015 OVC045 25/22 Q1008 NOSIG RMK TS NE MOV E A2979
2026-04-04 04:30:00,METAR RCKH 040430Z 31007KT 260V350 5000 -TSRA FEW005 FEW010CB BKN015 OVC030 24/23 Q1008 RESHRA NOSIG RMK TS NE MOV E A2979
2026-04-04 04:25:00,SPECI RCKH 040425Z 31006KT 260V350 3000 -TSRA FEW005 FEW010CB BKN015 OVC030 24/23 Q1009 RESHRA WS R09 TEMPO 5000 -SHRA RMK TS NE MOV E A2980
2026-04-04 04:16:00,SPECI RCKH 040416Z 21009G25KT 1500 TSRA FEW004 FEW008CB BKN012 OVC020 22/22 Q1009 WS R27 TEMPO 5000 -TSRA RMK 26006G18KT/R09 TS NE MOV E A2981
2026-04-04 04:09:00,SPECI RCKH 040409Z 17017G30KT 120V260 0600 R27/0550U +TSRA FEW003 FEW006CB BKN009 OVC015 23/21 Q1009 WS R27 TEMPO 1500 +TSRA RMK 19014G29KT/R09 TS NW-N-NE MOV E A2981
2026-04-04 04:02:00,SPECI RCKH 040402Z VRB07G27KT 0800 R27/0600D +TSRA FEW003 FEW006CB BKN009 OVC015 24/20 Q1009 WS R27 TEMPO 1500 +TSRA RMK 13010G29KT/R09 TS NW-N MOV E A2980
2026-04-04 04:00:00,METAR RCKH 040400Z VRB06KT 0800 R27/0600D +TSRA FEW003 FEW006CB BKN009 OVC015 25/21 Q1009 TEMPO 1500 +TSRA RMK 14006G22KT/R09 TS NW-N MOV E A2981 RA AMT 9.0MM
2026-04-04 03:57:00,SPECI RCKH 040357Z 24006KT 180V330 1000 R27/0650D +TSRA FEW004 FEW008CB BKN012 OVC016 27/23 Q1009 TEMPO 0800 +TSRA RMK 29005KT/R09 TS NW MOV E A2982
2026-04-04 03:54:00,SPECI RCKH 040354Z 23006KT 170V320 2000 TSRA FEW004 FEW008CB BKN015 OVC035 27/23 Q1009 TEMPO 1500 +TSRA RMK 22005KT/R09 TS NW MOV E A2982
2026-04-04 03:53:00,SPECI RCKH 040353Z 22006KT 170V260 5000 -TSRA FEW005 FEW010CB BKN020 OVC040 27/22 Q1009 TEMPO 3000 TSRA RMK 19005KT/R09 TS NW MOV E A2981
2026-04-04 03:48:00,SPECI RCKH 040348Z 22007KT 170V260 8000 -TSRA FEW010CB SCT015 BKN035 OVC060 27/23 Q1009 TEMPO 5000 TSRA RMK 18006KT/R09 TS NW MOV E A2981
2026-04-04 03:38:00,SPECI RCKH 040338Z 20009KT 160V260 9999 VCTS -SHRA FEW010CB SCT020 BKN040 OVC070 27/22 Q1009 TEMPO 5000 TSRA RMK 19008KT/R09 TS W-N MOV E A2981
2026-04-04 03:30:00,METAR RCKH 040330Z 19009KT 160V230 9999 VCTS VCSH FEW010CB SCT020 BKN040 OVC080 27/22 Q1009 TEMPO 5000 TSRA RMK 20009KT/R09 TS W MOV E A2980
2026-04-04 03:22:00,SPECI RCKH 040322Z 19009KT 160V230 9999 VCTS VCSH FEW012CB SCT020 BKN040 OVC080 28/22 Q1009 NOSIG RMK 21009KT/R09 TS W MOV E A2981
2026-04-04 03:00:00,METAR RCKH 040300Z 21010KT 160V250 9999 VCSH SCT020 BKN040 OVC080 28/23 Q1009 NOSIG RMK 21009KT/R09 A2981
2026-04-04 02:30:00,METAR RCKH 040230Z 22008KT 170V280 9999 SCT020 BKN040 OVC080 28/22 Q1009 NOSIG RMK 23009KT/R09 A2982
2026-04-04 02:00:00,METAR RCKH 040200Z 22008KT 180V270 9999 SCT015 SCT030 BKN075 28/22 Q1009 NOSIG RMK 22009KT/R09 A2981
2026-04-04 01:56:00,SPECI RCKH 040156Z 22008KT 180V270 9999 SCT015 BKN075 28/22 Q1009 NOSIG RMK 22009KT/R09 A2981
2026-04-04 01:30:00,METAR RCKH 040130Z 21008KT 170V240 9999 FEW015 SCT025 BKN095 27/22 Q1009 NOSIG RMK A2981
2026-04-04 01:00:00,METAR RCKH 040100Z 22009KT 190V250 9999 SCT015 SCT030 BKN100 27/23 Q1009 NOSIG RMK A2980
2026-04-04 00:30:00,METAR RCKH 040030Z 21006KT 170V260 9999 FEW015 SCT030 BKN120 27/22 Q1009 NOSIG RMK A2980
2026-04-04 00:00:00,METAR RCKH 040000Z 21008KT 170V240 9999 SCT015 BKN030 BKN070 27/23 Q1009 NOSIG RMK A2980
2026-04-03 23:30:00,METAR RCKH 032330Z 20005KT 9999 SCT015 BKN030 OVC090 27/22 Q1009 NOSIG RMK A2980
2026-04-03 23:00:00,METAR RCKH 032300Z 21004KT 190V250 9999 FEW012 BKN025 BKN090 26/22 Q1008 NOSIG RMK A2978
2026-04-03 22:30:00,METAR RCKH 032230Z 23003KT 9999 FEW012 BKN025 BKN090 26/22 Q1008 NOSIG RMK A2978
2026-04-03 22:00:00,METAR RCKH 032200Z VRB01KT 8000 FEW012 SCT060 BKN120 26/21 Q1008 NOSIG RMK A2977
2026-04-03 21:00:00,METAR RCKH 032100Z VRB01KT 8000 FEW012 SCT060 BKN120 25/22 Q1007 NOSIG RMK A2976
2026-04-03 20:00:00,METAR RCKH 032000Z 07003KT 8000 FEW012 SCT060 BKN120 26/23 Q1008 NOSIG RMK A2977
2026-04-03 19:00:00,METAR RCKH 031900Z 06002KT 8000 FEW012 SCT060 BKN120 26/23 Q1008 NOSIG RMK A2977
2026-04-03 18:00:00,METAR RCKH 031800Z VRB02KT 8000 FEW012 SCT060 BKN120 26/22 Q1008 NOSIG RMK A2978
2026-04-03 17:00:00,METAR RCKH 031700Z 26003KT 190V300 9999 FEW012 SCT060 BKN120 26/23 Q1009 NOSIG RMK A2981
2026-04-03 16:00:00,METAR RCKH 031600Z 16005KT 130V220 9999 FEW012 BKN025 BKN060 27/23 Q1009 NOSIG RMK A2981
2026-04-03 15:30:00,METAR RCKH 031530Z 18007KT 120V200 9999 FEW012 BKN025 BKN130 27/23 Q1009 NOSIG RMK A2982
2026-04-03 15:00:00,METAR RCKH 031500Z 16009KT 130V190 9999 FEW012 SCT019 27/23 Q1009 NOSIG RMK A2982
2026-04-03 14:30:00,METAR RCKH 031430Z 16009KT 130V200 9999 FEW012 SCT019 27/22 Q1009 NOSIG RMK A2981
2026-04-03 14:00:00,METAR RCKH 031400Z 16011KT 130V190 9999 FEW012 SCT018 27/22 Q1009 NOSIG RMK A2981
2026-04-03 13:30:00,METAR RCKH 031330Z 16011KT 9999 FEW010 SCT015 BKN020 27/22 Q1009 NOSIG RMK A2982
2026-04-03 13:00:00,METAR RCKH 031300Z 16010KT 130V210 9999 FEW012 SCT018 BKN023 27/22 Q1009 NOSIG RMK A2981
2026-04-03 12:30:00,METAR RCKH 031230Z 16012G22KT 130V200 9999 FEW013 SCT018 BKN023 27/23 Q1009 NOSIG RMK A2980
2026-04-03 12:00:00,METAR RCKH 031200Z 15012KT 120V200 9999 FEW013 SCT018 27/22 Q1008 NOSIG RMK A2978
2026-04-03 11:30:00,METAR RCKH 031130Z 15012G22KT 110V180 9999 FEW013 SCT018 27/22 Q1008 NOSIG RMK A2978
2026-04-03 11:00:00,METAR RCKH 031100Z 16013G24KT 120V190 9999 FEW018 SCT080 27/22 Q1008 NOSIG RMK A2977
2026-04-03 10:30:00,METAR RCKH 031030Z 16016G26KT 120V190 9999 FEW020 SCT080 27/22 Q1008 NOSIG RMK A2977
2026-04-03 10:00:00,METAR RCKH 031000Z 16015G25KT 130V200 9999 FEW020 SCT100 28/21 Q1007 NOSIG RMK A2976
2026-04-03 09:30:00,METAR RCKH 030930Z 16016G28KT 130V200 9999 FEW020 SCT220 28/21 Q1007 NOSIG RMK A2976
2026-04-03 09:00:00,METAR RCKH 030900Z 16016G28KT 120V200 9999 FEW020 SCT220 28/21 Q1007 NOSIG RMK A2974
2026-04-03 08:30:00,METAR RCKH 030830Z 17018G28KT 140V200 9999 FEW015 SCT210 29/21 Q1006 NOSIG RMK A2973
2026-04-03 08:00:00,METAR RCKH 030800Z 17019G32KT 140V200 9999 FEW015 SCT210 29/20 Q1007 NOSIG RMK A2974
2026-04-03 07:30:00,METAR RCKH 030730Z 16017G29KT 140V200 9999 FEW015 SCT090 29/21 Q1007 NOSIG RMK A2974
2026-04-03 07:00:00,METAR RCKH 030700Z 17018G29KT 130V200 9999 FEW015 SCT210 29/20 Q1007 NOSIG RMK A2975
2026-04-03 06:30:00,METAR RCKH 030630Z 17017G28KT 140V200 9999 FEW015 SCT210 30/20 Q1007 NOSIG RMK A2976
2026-04-03 06:00:00,METAR RCKH 030600Z 17017G28KT 140V210 9999 FEW015 SCT210 30/20 Q1008 NOSIG RMK A2977
2026-04-03 05:52:00,SPECI RCKH 030552Z 17018G28KT 140V210 9999 FEW015 SCT210 30/20 Q1008 NOSIG RMK A2977
2026-04-03 05:30:00,METAR RCKH 030530Z 17016G26KT 120V200 9999 FEW015 SCT210 30/20 Q1008 WS R09 NOSIG RMK A2979
2026-04-03 05:22:00,SPECI RCKH 030522Z 17016G26KT 120V200 9999 FEW016 SCT220 30/20 Q1008 WS R09 NOSIG RMK A2979
2026-04-03 05:00:00,METAR RCKH 030500Z 17017G29KT 140V200 9999 FEW016 SCT220 30/19 Q1009 NOSIG RMK A2980
2026-04-03 04:30:00,METAR RCKH 030430Z 17018G28KT 140V200 9999 FEW016 SCT220 30/18 Q1009 NOSIG RMK A2982
2026-04-03 04:00:00,METAR RCKH 030400Z 15015KT 110V180 9999 FEW016 SCT060 31/18 Q1010 NOSIG RMK A2983
2026-04-03 03:30:00,METAR RCKH 030330Z 15014G24KT 120V190 9999 FEW016 SCT060 30/18 Q1010 NOSIG RMK A2983
2026-04-03 03:00:00,METAR RCKH 030300Z 17016KT 140V200 9999 FEW016 SCT060 29/18 Q1010 NOSIG RMK A2985
2026-04-03 02:30:00,METAR RCKH 030230Z 14012G22KT 110V190 9999 FEW016 SCT060 30/18 Q1011 NOSIG RMK A2987
2026-04-03 02:00:00,METAR RCKH 030200Z 15013KT 120V190 9999 FEW016 SCT060 29/18 Q1011 NOSIG RMK A2987
2026-04-03 01:30:00,METAR RCKH 030130Z 13007KT 070V190 9999 FEW016 SCT060 29/19 Q1011 NOSIG RMK A2988
2026-04-03 01:00:00,METAR RCKH 030100Z 11005KT 9999 FEW016 SCT060 27/19 Q1012 NOSIG RMK A2989
2026-04-03 00:30:00,METAR RCKH 030030Z 08005KT 040V130 9999 FEW016 SCT030 BKN060 26/20 Q1012 NOSIG RMK A2989
2026-04-03 00:00:00,METAR RCKH 030000Z 08004KT 050V130 9999 FEW016 SCT030 BKN060 26/20 Q1012 NOSIG RMK A2990
2026-04-02 23:30:00,METAR RCKH 022330Z 07003KT 030V100 9999 FEW016 SCT030 BKN060 25/19 Q1012 NOSIG RMK A2990
2026-04-02 23:00:00,METAR RCKH 022300Z 04004KT 360V070 9999 FEW016 SCT030 BKN065 24/19 Q1012 NOSIG RMK A2990
2026-04-02 22:30:00,METAR RCKH 022230Z 08005KT 9999 FEW016 BKN030 BKN060 23/20 Q1011 NOSIG RMK A2988
2026-04-02 22:00:00,METAR RCKH 022200Z 08005KT 9999 FEW016 BKN030 BKN060 23/20 Q1011 NOSIG RMK A2988
2026-04-02 21:00:00,METAR RCKH 022100Z 25003KT 9999 FEW016 BKN030 BKN070 24/20 Q1011 NOSIG RMK A2987
2026-04-02 20:00:00,METAR RCKH 022000Z 29002KT 9999 FEW016 BKN030 BKN070 24/19 Q1011 NOSIG RMK A2987
2026-04-02 19:00:00,METAR RCKH 021900Z 07001KT 9999 FEW016 BKN030 BKN070 24/19 Q1011 NOSIG RMK A2988
2026-04-02 18:00:00,METAR RCKH 021800Z VRB02KT 9999 FEW016 BKN030 BKN070 24/19 Q1012 NOSIG RMK A2990
2026-04-02 17:00:00,METAR RCKH 021700Z 04005KT 010V070 9999 FEW016 BKN030 BKN070 25/20 Q1013 NOSIG RMK A2992
2026-04-02 16:00:00,METAR RCKH 021600Z 32004KT 290V360 9999 FEW016 BKN030 BKN070 25/20 Q1013 NOSIG RMK A2993
2026-04-02 15:30:00,METAR RCKH 021530Z 32004KT 9999 FEW016 BKN030 BKN070 25/20 Q1013 NOSIG RMK A2994
2026-04-02 15:00:00,METAR RCKH 021500Z 30004KT 260V340 9999 FEW016 BKN030 BKN080 25/20 Q1014 NOSIG RMK A2995
2026-04-02 14:30:00,METAR RCKH 021430Z 31003KT 270V030 9999 FEW016 BKN030 BKN080 26/20 Q1014 NOSIG RMK A2995
2026-04-02 14:00:00,METAR RCKH 021400Z VRB02KT 9999 FEW018 BKN030 BKN080 25/20 Q1014 NOSIG RMK A2995
2026-04-02 13:30:00,METAR RCKH 021330Z VRB02KT 9999 FEW018 BKN030 BKN080 25/20 Q1014 NOSIG RMK A2995
2026-04-02 13:00:00,METAR RCKH 021300Z 28004KT 260V330 9999 FEW018 BKN032 BKN080 25/20 Q1014 NOSIG RMK A2995
2026-04-02 12:30:00,METAR RCKH 021230Z 29003KT 260V330 9999 FEW020 BKN140 25/20 Q1013 NOSIG RMK A2994
2026-04-02 12:00:00,METAR RCKH 021200Z 30004KT 9999 FEW018 SCT050 BKN120 25/19 Q1013 NOSIG RMK A2993
2026-04-02 11:30:00,METAR RCKH 021130Z 32005KT 290V050 9999 FEW018 BKN050 BKN120 25/20 Q1013 NOSIG RMK A2992
2026-04-02 11:00:00,METAR RCKH 021100Z 30006KT 270V330 9999 FEW015 BKN050 BKN100 25/20 Q1012 NOSIG RMK A2991
2026-04-02 10:30:00,METAR RCKH 021030Z 29007KT 260V330 9999 FEW015 SCT050 BKN100 25/20 Q1012 NOSIG RMK A2991
2026-04-02 10:09:00,SPECI RCKH 021009Z 30008KT 9999 FEW015 SCT050 BKN100 25/19 Q1012 NOSIG RMK A2991
2026-04-02 10:00:00,METAR RCKH 021000Z 29007KT 250V360 9999 FEW015 SCT040 BKN100 25/20 Q1012 NOSIG RMK 29009KT/R09 A2990
2026-04-02 09:30:00,METAR RCKH 020930Z 30007KT 270V340 9999 FEW015 SCT020 BKN100 25/20 Q1012 NOSIG RMK 29009KT/R09 A2989
2026-04-02 09:00:00,METAR RCKH 020900Z 29007KT 260V330 9999 FEW015 SCT020 BKN060 26/20 Q1011 NOSIG RMK 30009KT/R09 A2988
2026-04-02 08:30:00,METAR RCKH 020830Z 29007KT 250V320 9999 FEW015 SCT020 BKN060 25/20 Q1011 NOSIG RMK 29008KT/R09 A2988
2026-04-02 08:00:00,METAR RCKH 020800Z 27010KT 240V310 9999 FEW015 SCT020 BKN060 26/21 Q1011 NOSIG RMK 26010KT/R09 A2988
2026-04-02 07:30:00,METAR RCKH 020730Z 26009KT 230V290 9999 FEW015 SCT020 BKN060 26/20 Q1011 NOSIG RMK 27008KT/R09 A2988
2026-04-02 07:00:00,METAR RCKH 020700Z 26010KT 220V290 9999 FEW015 BKN060 26/21 Q1012 NOSIG RMK 26010KT/R09 A2989
2026-04-02 06:30:00,METAR RCKH 020630Z 26011KT 230V290 9999 FEW015 BKN060 27/21 Q1012 NOSIG RMK 24011KT/R09 A2990
2026-04-02 06:00:00,METAR RCKH 020600Z 26012KT 9999 FEW015 BKN060 27/21 Q1012 NOSIG RMK 25011KT/R09 A2991
2026-04-02 05:30:00,METAR RCKH 020530Z 26012KT 230V290 9999 FEW015 BKN060 27/20 Q1013 NOSIG RMK 25010KT/R09 A2993
2026-04-02 05:00:00,METAR RCKH 020500Z 26013KT 230V300 9999 FEW015 SCT060 BKN200 27/20 Q1013 NOSIG RMK 25012KT/R09 A2994
2026-04-02 04:30:00,METAR RCKH 020430Z 25011KT 220V290 9000 FEW015 SCT060 BKN200 28/21 Q1014 NOSIG RMK 25012KT/R09 A2995
2026-04-02 04:00:00,METAR RCKH 020400Z 26011KT 230V290 9000 FEW012 SCT040 BKN200 28/21 Q1014 NOSIG RMK 25012KT/R09 A2997
2026-04-02 03:30:00,METAR RCKH 020330Z 26013KT 230V290 7000 FEW010 SCT015 BKN150 27/22 Q1015 NOSIG RMK 25013KT/R09 A2998
2026-04-02 03:00:00,METAR RCKH 020300Z 25011KT 6000 FEW010 SCT015 BKN100 27/21 Q1015 NOSIG RMK 24011KT/R09 A2999
2026-04-02 02:50:00,SPECI RCKH 020250Z 26011KT 230V300 5000 HZ FEW010 SCT015 BKN050 27/22 Q1015 NOSIG RMK 25012KT/R09 A2998
2026-04-02 02:30:00,METAR RCKH 020230Z 25011KT 210V290 6000 FEW010 SCT017 BKN050 27/22 Q1015 TEMPO 5000 HZ RMK 25011KT/R09 A2998
2026-04-02 02:00:00,METAR RCKH 020200Z 22007KT 6000 FEW012 SCT020 BKN050 27/21 Q1015 TEMPO 5000 HZ RMK A2999
2026-04-02 01:30:00,METAR RCKH 020130Z 25006KT 200V280 6000 FEW015 SCT025 BKN050 27/21 Q1015 TEMPO 5000 HZ RMK A2999
2026-04-02 01:00:00,METAR RCKH 020100Z VRB02KT 7000 FEW015 SCT025 BKN050 27/20 Q1015 NOSIG RMK A2998
2026-04-02 00:30:00,METAR RCKH 020030Z 04004KT 010V110 8000 FEW015 SCT025 BKN060 26/20 Q1015 NOSIG RMK A2998
2026-04-02 00:00:00,METAR RCKH 020000Z VRB02KT 8000 FEW015 SCT025 BKN040 25/19 Q1014 NOSIG RMK A2997
2026-04-01 23:30:00,METAR RCKH 012330Z 04006KT 9000 FEW015 SCT035 BKN065 25/19 Q1014 NOSIG RMK A2997
2026-04-01 23:00:00,METAR RCKH 012300Z 05004KT 9000 FEW015 SCT032 BKN065 24/20 Q1014 NOSIG RMK A2995
2026-04-01 22:30:00,METAR RCKH 012230Z 07003KT 9000 FEW015 SCT030 BKN066 24/20 Q1014 NOSIG RMK A2995
2026-04-01 22:00:00,METAR RCKH 012200Z 06003KT 020V080 7000 FEW015 SCT048 BKN065 24/20 Q1013 NOSIG RMK A2994
2026-04-01 21:00:00,METAR RCKH 012100Z VRB02KT 8000 FEW014 BKN042 BKN060 24/20 Q1013 NOSIG RMK A2992
2026-04-01 20:00:00,METAR RCKH 012000Z 08004KT 8000 FEW014 BKN042 BKN060 24/20 Q1012 NOSIG RMK A2991
2026-04-01 19:00:00,METAR RCKH 011900Z 01005KT 8000 FEW014 BKN042 BKN060 25/20 Q1012 NOSIG RMK A2991
2026-04-01 18:00:00,METAR RCKH 011800Z 01003KT 9000 FEW014 BKN027 BKN050 25/20 Q1013 NOSIG RMK A2993
2026-04-01 17:00:00,METAR RCKH 011700Z 01004KT 9999 FEW014 BKN025 BKN050 25/20 Q1013 NOSIG RMK A2994
2026-04-01 16:00:00,METAR RCKH 011600Z 02003KT 9999 FEW014 BKN030 BKN060 25/20 Q1014 NOSIG RMK A2995
2026-04-01 15:30:00,METAR RCKH 011530Z VRB01KT 9999 FEW014 BKN031 BKN060 26/20 Q1014 NOSIG RMK A2995
2026-04-01 15:00:00,METAR RCKH 011500Z VRB02KT 9999 FEW015 SCT025 BKN050 26/20 Q1013 NOSIG RMK A2994
2026-04-01 14:00:00,METAR RCKH 011400Z 04003KT 9999 FEW018 SCT050 BKN070 26/20 Q1013 NOSIG RMK A2994
2026-04-01 13:30:00,METAR RCKH 011330Z 07005KT 9999 FEW018 BKN045 BKN070 26/20 Q1013 NOSIG RMK A2993
2026-04-01 13:00:00,METAR RCKH 011300Z 08005KT 9999 FEW018 BKN045 BKN070 26/20 Q1013 NOSIG RMK A2993
2026-04-01 12:30:00,METAR RCKH 011230Z 09004KT 9999 FEW018 BKN045 BKN070 26/20 Q1012 NOSIG RMK A2991
2026-04-01 12:00:00,METAR RCKH 011200Z 09005KT 060V120 9999 FEW018 BKN040 BKN065 26/20 Q1012 NOSIG RMK A2990
2026-04-01 11:30:00,METAR RCKH 011130Z 33004KT 280V020 9999 FEW018 SCT045 BKN065 27/19 Q1012 NOSIG RMK A2990
2026-04-01 11:00:00,METAR RCKH 011100Z 28004KT 9999 FEW018 SCT045 BKN060 26/20 Q1011 NOSIG RMK A2988
2026-04-01 10:30:00,METAR RCKH 011030Z 29003KT 270V340 9999 FEW017 SCT050 BKN090 26/20 Q1011 NOSIG RMK A2988
2026-04-01 10:00:00,METAR RCKH 011000Z 31003KT 280V360 9999 FEW015 SCT050 BKN080 26/20 Q1011 NOSIG RMK A2987
2026-04-01 09:30:00,METAR RCKH 010930Z 34005KT 320V030 9999 FEW014 SCT045 BKN070 26/20 Q1011 NOSIG RMK A2987
2026-04-01 09:00:00,METAR RCKH 010900Z 32006KT 280V030 9999 FEW015 SCT040 BKN070 26/21 Q1011 NOSIG RMK A2986
2026-04-01 08:30:00,METAR RCKH 010830Z 32005KT 300V360 9000 VCSH FEW012 FEW015TCU SCT040 BKN070 26/21 Q1011 NOSIG RMK TCU SE A2987
2026-04-01 08:19:00,SPECI RCKH 010819Z 31004KT 280V070 8000 -SHRA FEW012 FEW015TCU SCT040 BKN060 25/22 Q1011 TEMPO 5000 SHRA RMK TCU S A2987
2026-04-01 08:18:00,SPECI RCKH 010818Z 31004KT 280V070 8000 -SHRA FEW012 FEW015TCU SCT040 BKN060 25/22 Q1011 TEMPO 5000 SHRA RMK 28004KT/R09 TCU S A2987
2026-04-01 08:00:00,METAR RCKH 010800Z 34006KT 300V020 6000 -SHRA FEW010 FEW014CB SCT030 BKN040 25/22 Q1011 TEMPO 4000 SHRA RMK 34008KT/R09 CB SW A2986
2026-04-01 07:30:00,METAR RCKH 010730Z 32007KT 280V040 8000 -SHRA FEW012 FEW015TCU SCT030 BKN040 26/22 Q1010 TEMPO 5000 SHRA RMK 32009KT/R09 TCU W A2985
2026-04-01 07:03:00,SPECI RCKH 010703Z 30010KT 260V340 9000 -SHRA FEW012 FEW015CB SCT030 BKN040 27/21 Q1011 TEMPO 5000 SHRA RMK 30012KT/R09 CB NW A2987
2026-04-01 07:00:00,METAR RCKH 010700Z 30010KT 260V340 9000 VCSH FEW012 FEW015CB SCT030 BKN045 27/21 Q1011 TEMPO 5000 SHRA RMK 30012KT/R09 CB NW A2987
2026-04-01 06:30:00,METAR RCKH 010630Z 28011KT 9999 FEW013 FEW016TCU SCT040 BKN090 28/22 Q1011 TEMPO 5000 SHRA RMK 28013KT/R09 TCU NW A2986
2026-04-01 06:00:00,METAR RCKH 010600Z 28011KT 250V330 9999 FEW014 SCT060 BKN200 28/20 Q1011 NOSIG RMK 28014KT/R09 A2987
2026-04-01 05:30:00,METAR RCKH 010530Z 27012KT 240V300 9999 FEW014 SCT045 BKN150 28/22 Q1011 NOSIG RMK 27013KT/R09 A2988
2026-04-01 05:00:00,METAR RCKH 010500Z 29010KT 250V330 9999 FEW018 SCT045 BKN120 29/22 Q1012 NOSIG RMK 28012KT/R09 A2989
2026-04-01 04:30:00,METAR RCKH 010430Z 29010KT 250V330 9999 SCT018 SCT050 BKN100 29/22 Q1012 NOSIG RMK 27012KT/R09 A2990
2026-04-01 04:00:00,METAR RCKH 010400Z 27011KT 240V320 9999 FEW018 BKN040 BKN090 29/22 Q1012 NOSIG RMK 27012KT/R09 A2990
2026-04-01 03:30:00,METAR RCKH 010330Z 28011KT 250V320 9999 SCT025 SCT200 29/21 Q1012 NOSIG RMK 27012KT/R09 A2991
2026-04-01 03:00:00,METAR RCKH 010300Z 27010KT 220V320 9999 SCT021 28/22 Q1012 NOSIG RMK 27011KT/R09 A2991
2026-04-01 02:30:00,METAR RCKH 010230Z 27009KT 240V320 9999 SCT023 29/21 Q1012 NOSIG RMK 25009KT/R09 A2990
2026-04-01 02:00:00,METAR RCKH 010200Z 26008KT 230V310 9999 FEW035 SCT220 28/21 Q1012 NOSIG RMK 26009KT/R09 A2990
2026-04-01 01:30:00,METAR RCKH 010130Z 25007KT 210V300 9999 FEW035 SCT180 28/21 Q1012 NOSIG RMK 25008KT/R09 A2990
2026-04-01 01:00:00,METAR RCKH 010100Z 26009KT 240V310 9999 FEW035 SCT180 28/21 Q1012 NOSIG RMK 26009KT/R09 A2990
2026-04-01 00:33:00,SPECI RCKH 010033Z 26008KT 230V290 9999 FEW035 SCT150 27/22 Q1012 NOSIG RMK 26008KT/R09 A2989
2026-04-01 00:30:00,METAR RCKH 010030Z 26007KT 230V290 9999 FEW035 SCT150 27/21 Q1012 NOSIG RMK A2989
2026-04-01 00:00:00,METAR RCKH 010000Z 26006KT 220V290 9999 FEW035 BKN150 27/22 Q1011 NOSIG RMK A2988
2026-03-31 23:30:00,METAR RCKH 312330Z 26005KT 220V320 9999 FEW035 SCT160 26/22 Q1011 NOSIG RMK A2988
2026-03-31 23:00:00,METAR RCKH 312300Z 26004KT 9999 FEW016 SCT180 25/22 Q1011 NOSIG RMK A2986
2026-03-31 22:30:00,METAR RCKH 312230Z VRB02KT 9999 FEW014 SCT035 24/21 Q1010 NOSIG RMK A2985
2026-03-31 22:00:00,METAR RCKH 312200Z 30003KT 9999 FEW014 SCT035 24/21 Q1011 NOSIG RMK A2987
2026-03-31 21:00:00,METAR RCKH 312100Z VRB01KT 8000 FEW012 SCT025 24/21 Q1010 NOSIG RMK A2985
2026-03-31 20:00:00,METAR RCKH 312000Z VRB02KT 9999 FEW014 SCT030 23/21 Q1010 NOSIG RMK A2985
2026-03-31 19:00:00,METAR RCKH 311900Z VRB02KT 9999 FEW014 SCT030 24/21 Q1010 NOSIG RMK A2985
2026-03-31 18:00:00,METAR RCKH 311800Z 04004KT 9999 FEW014 SCT030 24/21 Q1011 NOSIG RMK A2988
2026-03-31 17:00:00,METAR RCKH 311700Z 34004KT 9999 FEW014 SCT040 26/21 Q1012 NOSIG RMK A2990
2026-03-31 16:00:00,METAR RCKH 311600Z 29008KT 9999 FEW014 SCT040 25/21 Q1012 NOSIG RMK A2991
2026-03-31 15:30:00,METAR RCKH 311530Z 29007KT 9999 FEW014 25/21 Q1012 NOSIG RMK A2990
2026-03-31 15:00:00,METAR RCKH 311500Z 27005KT 9999 FEW014 25/21 Q1012 NOSIG RMK A2990
2026-03-31 14:30:00,METAR RCKH 311430Z 25003KT 220V280 9999 FEW014 SCT140 25/21 Q1012 NOSIG RMK A2989
2026-03-31 14:00:00,METAR RCKH 311400Z 20003KT 150V250 9999 FEW014 SCT140 26/21 Q1011 NOSIG RMK A2987
2026-03-31 13:30:00,METAR RCKH 311330Z 19003KT 160V250 9999 FEW014 SCT120 26/21 Q1011 NOSIG RMK A2987
2026-03-31 13:00:00,METAR RCKH 311300Z 21003KT 170V260 9999 FEW014 SCT120 26/21 Q1011 NOSIG RMK A2987
2026-03-31 12:30:00,METAR RCKH 311230Z 23004KT 190V290 9999 FEW014 SCT120 26/21 Q1011 NOSIG RMK A2986
2026-03-31 12:00:00,METAR RCKH 311200Z 23004KT 200V270 9999 FEW014 SCT120 26/21 Q1010 NOSIG RMK A2985
2026-03-31 11:30:00,METAR RCKH 311130Z 26005KT 200V290 9999 FEW016 SCT100 25/21 Q1010 NOSIG RMK A2984
2026-03-31 11:05:00,SPECI RCKH 311105Z 26006KT 9999 FEW030 BKN100 26/22 Q1010 NOSIG RMK A2983
2026-03-31 11:00:00,METAR RCKH 311100Z 25007KT 220V300 9999 FEW030 BKN100 26/22 Q1010 NOSIG RMK 27007KT/R09 A2983
2026-03-31 10:30:00,METAR RCKH 311030Z 26008KT 9999 FEW030 SCT080 26/22 Q1010 NOSIG RMK 25008KT/R09 A2983
2026-03-31 10:00:00,METAR RCKH 311000Z 25008KT 9999 FEW020 26/21 Q1009 NOSIG RMK 24008KT/R09 A2982
2026-03-31 09:30:00,METAR RCKH 310930Z 24007KT 210V270 9999 FEW020 28/21 Q1009 NOSIG RMK 23007KT/R09 A2981
2026-03-31 09:00:00,METAR RCKH 310900Z 22007KT 190V250 9999 FEW020 28/21 Q1009 NOSIG RMK 21007KT/R09 A2980
2026-03-31 08:30:00,METAR RCKH 310830Z 24008KT 200V290 9999 FEW020 SCT220 29/21 Q1009 NOSIG RMK 22008KT/R09 A2980
2026-03-31 08:00:00,METAR RCKH 310800Z 23008KT 200V270 9999 FEW020 29/21 Q1009 NOSIG RMK 23009KT/R09 A2980
2026-03-31 07:30:00,METAR RCKH 310730Z 23008KT 190V280 9999 FEW020 29/22 Q1009 NOSIG RMK 23009KT/R09 A2980
2026-03-31 07:00:00,METAR RCKH 310700Z 25010KT 9999 FEW020 29/21 Q1009 NOSIG RMK 24010KT/R09 A2981
2026-03-31 06:30:00,METAR RCKH 310630Z 25010KT 220V290 9999 FEW020 SCT220 29/22 Q1009 NOSIG RMK 23009KT/R09 A2982
2026-03-31 06:00:00,METAR RCKH 310600Z 24010KT 220V280 9999 FEW020 BKN220 29/21 Q1010 NOSIG RMK 22008KT/R09 A2983
2026-03-31 05:30:00,METAR RCKH 310530Z 25008KT 220V300 9999 FEW020 BKN220 29/21 Q1010 NOSIG RMK 23008KT/R09 A2983
2026-03-31 05:00:00,METAR RCKH 310500Z 24011KT 200V280 9999 FEW020 SCT220 29/21 Q1010 NOSIG RMK 24012KT/R09 A2985
2026-03-31 04:30:00,METAR RCKH 310430Z 24011KT 200V290 9999 FEW020 SCT220 29/20 Q1011 NOSIG RMK 24012KT/R09 A2986
2026-03-31 04:00:00,METAR RCKH 310400Z 25012KT 230V300 9999 FEW020 SCT220 29/21 Q1011 NOSIG RMK 26013KT/R09 A2988
2026-03-31 03:30:00,METAR RCKH 310330Z 25012KT 220V290 9999 FEW020 SCT220 29/21 Q1011 NOSIG RMK 25011KT/R09 A2988
2026-03-31 03:00:00,METAR RCKH 310300Z 25012KT 220V300 9999 FEW020 29/21 Q1011 NOSIG RMK 24011KT/R09 A2988
2026-03-31 02:40:00,SPECI RCKH 310240Z 25009KT 220V310 9999 FEW016 SCT024 28/21 Q1012 NOSIG RMK 25011KT/R09 A2989
2026-03-31 02:30:00,METAR RCKH 310230Z 25007KT 210V290 9999 FEW016 SCT024 28/21 Q1012 NOSIG RMK A2989
2026-03-31 02:00:00,METAR RCKH 310200Z 25006KT 190V320 9999 FEW016 29/21 Q1012 NOSIG RMK A2990
2026-03-31 01:30:00,METAR RCKH 310130Z 27005KT 210V320 9999 FEW016 SCT022 28/21 Q1012 NOSIG RMK A2990
2026-03-31 01:00:00,METAR RCKH 310100Z VRB03KT 9000 SCT016 SCT022 29/21 Q1012 NOSIG RMK A2991
2026-03-31 00:30:00,METAR RCKH 310030Z VRB03KT 9000 SCT016 SCT022 27/21 Q1012 NOSIG RMK A2990
2026-03-31 00:00:00,METAR RCKH 310000Z 03004KT 350V070 8000 SCT016 SCT120 25/21 Q1012 NOSIG RMK A2991
2026-03-30 23:30:00,METAR RCKH 302330Z 06005KT 030V100 8000 FEW010 SCT016 24/20 Q1012 NOSIG RMK A2990
2026-03-30 23:00:00,METAR RCKH 302300Z 05004KT 030V100 7000 SCT020 BKN120 24/20 Q1012 NOSIG RMK A2990
2026-03-30 22:30:00,METAR RCKH 302230Z 05004KT 030V090 8000 SCT017 BKN090 23/20 Q1012 NOSIG RMK A2989
2026-03-30 22:00:00,METAR RCKH 302200Z 05003KT 8000 FEW009 SCT090 22/20 Q1011 NOSIG RMK A2988
2026-03-30 21:00:00,METAR RCKH 302100Z 07003KT 8000 FEW009 SCT090 23/20 Q1010 NOSIG RMK A2985
2026-03-30 20:00:00,METAR RCKH 302000Z 08003KT 8000 FEW009 SCT090 23/20 Q1010 NOSIG RMK A2985
2026-03-30 19:00:00,METAR RCKH 301900Z 27003KT 9999 FEW010 SCT090 24/22 Q1011 NOSIG RMK A2987
2026-03-30 18:00:00,METAR RCKH 301800Z 28003KT 9999 FEW010 SCT090 24/22 Q1011 NOSIG RMK A2987
2026-03-30 17:00:00,METAR RCKH 301700Z 28004KT 9999 FEW010 SCT090 25/22 Q1011 NOSIG RMK A2987
2026-03-30 16:00:00,METAR RCKH 301600Z 27005KT 9999 FEW016 SCT090 25/22 Q1011 NOSIG RMK A2988
2026-03-30 15:30:00,METAR RCKH 301530Z 28005KT 9999 FEW016 SCT090 25/21 Q1011 NOSIG RMK A2987
2026-03-30 15:00:00,METAR RCKH 301500Z 30003KT 250V330 9999 FEW016 SCT100 25/21 Q1011 NOSIG RMK A2987
2026-03-30 14:30:00,METAR RCKH 301430Z 29003KT 220V330 9999 FEW016 SCT100 26/21 Q1011 NOSIG RMK A2987
2026-03-30 14:00:00,METAR RCKH 301400Z 29005KT 260V330 9999 FEW016 SCT100 26/21 Q1011 NOSIG RMK A2988
2026-03-30 13:30:00,METAR RCKH 301330Z 29004KT 250V330 9999 FEW016 SCT100 25/21 Q1011 NOSIG RMK A2987
2026-03-30 13:00:00,METAR RCKH 301300Z 27006KT 9999 FEW016 SCT100 26/20 Q1011 NOSIG RMK A2987
2026-03-30 12:30:00,METAR RCKH 301230Z 28007KT 9999 FEW016 SCT100 26/21 Q1011 NOSIG RMK A2986
2026-03-30 12:00:00,METAR RCKH 301200Z 33004KT 270V050 9999 FEW016 27/20 Q1011 NOSIG RMK A2986
2026-03-30 11:30:00,METAR RCKH 301130Z 06003KT 020V110 9999 FEW016 27/20 Q1010 NOSIG RMK A2984
2026-03-30 11:00:00,METAR RCKH 301100Z 31004KT 290V350 9999 FEW016 27/20 Q1010 NOSIG RMK A2985
2026-03-30 10:30:00,METAR RCKH 301030Z 30005KT 270V330 9999 FEW014 SCT160 27/20 Q1010 NOSIG RMK A2985
2026-03-30 10:00:00,METAR RCKH 301000Z 33004KT 280V360 9999 FEW014 SCT220 28/20 Q1010 NOSIG RMK A2985
2026-03-30 09:30:00,METAR RCKH 300930Z 30005KT 230V360 9999 FEW014 SCT120 28/21 Q1011 NOSIG RMK A2987
2026-03-30 09:00:00,METAR RCKH 300900Z 30009KT 280V340 9999 FEW014 SCT022 28/22 Q1011 NOSIG RMK 30009KT/R09 A2988
2026-03-30 08:30:00,METAR RCKH 300830Z 29009G19KT 240V330 9999 FEW014 SCT022 28/22 Q1012 NOSIG RMK 29012KT/R09 A2989
2026-03-30 08:00:00,METAR RCKH 300800Z 27012KT 240V300 9999 FEW014 SCT022 29/22 Q1011 NOSIG RMK 27012KT/R09 A2988
2026-03-30 07:30:00,METAR RCKH 300730Z 25011KT 220V290 9999 FEW014 SCT220 29/21 Q1011 NOSIG RMK 25011KT/R09 A2986
2026-03-30 07:00:00,METAR RCKH 300700Z 24010KT 190V280 9999 FEW022 SCT240 30/21 Q1010 NOSIG RMK 24010KT/R09 A2985
2026-03-30 06:30:00,METAR RCKH 300630Z 23011KT 200V270 9999 FEW022 SCT160 29/21 Q1010 NOSIG RMK 21011KT/R09 A2985
2026-03-30 06:00:00,METAR RCKH 300600Z 23012KT 200V260 9999 FEW014 30/20 Q1010 NOSIG RMK 19011KT/R09 A2985
2026-03-30 05:30:00,METAR RCKH 300530Z 23012KT CAVOK 29/20 Q1011 NOSIG RMK 20012KT/R09 A2987
2026-03-30 05:00:00,METAR RCKH 300500Z 22010KT 170V250 9999 FEW018 29/20 Q1011 NOSIG RMK 19010KT/R09 A2987
2026-03-30 04:30:00,METAR RCKH 300430Z 23011KT 170V260 9999 FEW018 29/19 Q1012 NOSIG RMK 20010KT/R09 A2989
2026-03-30 04:00:00,METAR RCKH 300400Z 21010KT 180V250 9999 FEW018 30/19 Q1012 NOSIG RMK 18008KT/R09 A2990
2026-03-30 03:30:00,METAR RCKH 300330Z 22011KT 170V260 9999 FEW018 30/20 Q1012 NOSIG RMK 19009KT/R09 A2990
2026-03-30 03:00:00,METAR RCKH 300300Z 23011KT 200V270 9999 FEW018 29/20 Q1012 NOSIG RMK 21010KT/R09 A2990
2026-03-30 02:36:00,SPECI RCKH 300236Z 23011KT 170V250 9999 FEW016 29/20 Q1012 NOSIG RMK 21010KT/R09 A2989
2026-03-30 02:30:00,METAR RCKH 300230Z 19009KT 160V240 9999 FEW016 29/20 Q1012 NOSIG RMK A2989
2026-03-30 02:00:00,METAR RCKH 300200Z 19008KT 160V240 9999 FEW016 28/21 Q1012 NOSIG RMK A2989
2026-03-30 01:30:00,METAR RCKH 300130Z 17008KT 140V220 9999 FEW016 29/20 Q1011 NOSIG RMK A2988
2026-03-30 01:00:00,METAR RCKH 300100Z 18007KT 140V230 9999 FEW016 SCT140 28/19 Q1011 NOSIG RMK A2987
2026-03-30 00:30:00,METAR RCKH 300030Z VRB02KT 9000 FEW015 SCT120 28/19 Q1011 NOSIG RMK A2987
2026-03-30 00:00:00,METAR RCKH 300000Z 08003KT 050V110 9000 FEW015 SCT120 26/19 Q1011 NOSIG RMK A2986
2026-03-29 23:30:00,METAR RCKH 292330Z 06004KT 9000 FEW015 SCT120 25/20 Q1010 NOSIG RMK A2985
2026-03-29 23:00:00,METAR RCKH 292300Z VRB01KT 9000 FEW015 24/20 Q1010 NOSIG RMK A2984
2026-03-29 22:30:00,METAR RCKH 292230Z 08003KT 6000 FEW015 23/19 Q1010 NOSIG RMK A2984
2026-03-29 22:00:00,METAR RCKH 292200Z 07002KT 6000 FEW015 23/19 Q1010 NOSIG RMK A2983
2026-03-29 21:00:00,METAR RCKH 292100Z 10002KT 8000 FEW015 23/19 Q1010 NOSIG RMK A2983
2026-03-29 20:00:00,METAR RCKH 292000Z 36003KT 310V040 8000 FEW015 SCT050 23/20 Q1010 NOSIG RMK A2984
2026-03-29 19:00:00,METAR RCKH 291900Z 01003KT 340V040 9999 FEW015 SCT050 24/19 Q1012 NOSIG RMK A2990
2026-03-29 18:00:00,METAR RCKH 291800Z 01003KT 340V040 9999 FEW015 SCT050 24/19 Q1012 NOSIG RMK A2990
2026-03-29 17:00:00,METAR RCKH 291700Z 35004KT 320V040 9999 FEW015 SCT050 25/19 Q1012 NOSIG RMK A2991
2026-03-29 16:00:00,METAR RCKH 291600Z 33005KT 300V360 9999 FEW015 SCT050 25/21 Q1013 NOSIG RMK A2992
2026-03-29 15:30:00,METAR RCKH 291530Z 33006KT 310V010 9999 FEW015 BKN050 25/21 Q1013 NOSIG RMK A2992
2026-03-29 15:00:00,METAR RCKH 291500Z 30005KT 9999 FEW015 BKN050 25/20 Q1013 NOSIG RMK A2992
2026-03-29 14:30:00,METAR RCKH 291430Z 31004KT 9999 FEW015 BKN050 25/20 Q1012 NOSIG RMK A2991
2026-03-29 14:00:00,METAR RCKH 291400Z 32005KT 280V360 9999 FEW015 BKN050 25/21 Q1012 NOSIG RMK A2991
2026-03-29 13:30:00,METAR RCKH 291330Z 31006KT 270V340 9999 FEW012 BKN050 25/21 Q1012 NOSIG RMK A2990
2026-03-29 13:00:00,METAR RCKH 291300Z 33006KT 300V030 9999 FEW012 SCT050 25/21 Q1012 NOSIG RMK A2989
2026-03-29 12:30:00,METAR RCKH 291230Z 34008KT 9999 FEW012 SCT050 25/20 Q1011 NOSIG RMK A2988
2026-03-29 12:00:00,METAR RCKH 291200Z 31008KT 260V340 9999 FEW014 SCT050 25/21 Q1011 NOSIG RMK A2986
2026-03-29 11:46:00,SPECI RCKH 291146Z 31007KT 9999 FEW014 SCT050 25/21 Q1010 NOSIG RMK A2985
2026-03-29 11:30:00,METAR RCKH 291130Z 31007KT 250V340 9999 FEW014 SCT050 25/20 Q1010 NOSIG RMK 30008KT/R09 A2984
2026-03-29 11:00:00,METAR RCKH 291100Z 29009KT 260V320 9999 FEW016 SCT120 25/20 Q1010 NOSIG RMK 30010KT/R09 A2983
2026-03-29 10:30:00,METAR RCKH 291030Z 28008KT 9999 FEW016 SCT060 BKN120 26/20 Q1009 NOSIG RMK 29012KT/R09 A2982
2026-03-29 10:00:00,METAR RCKH 291000Z 28010KT 9999 FEW016 SCT160 26/20 Q1009 NOSIG RMK 29012KT/R09 A2980
2026-03-29 09:30:00,METAR RCKH 290930Z 30008KT 260V330 9999 FEW016 SCT160 27/20 Q1008 NOSIG RMK 29012KT/R09 A2977
2026-03-29 09:00:00,METAR RCKH 290900Z 29009KT 260V330 9999 FEW020 28/19 Q1008 NOSIG RMK 31012KT/R09 A2977
2026-03-29 08:30:00,METAR RCKH 290830Z 30010KT 260V330 9999 FEW020 29/19 Q1008 NOSIG RMK 31013KT/R09 A2977
2026-03-29 08:00:00,METAR RCKH 290800Z 30011KT 260V350 9999 FEW020 29/19 Q1008 NOSIG RMK 30013KT/R09 A2977
2026-03-29 07:30:00,METAR RCKH 290730Z 30010KT 280V350 9999 FEW020 29/19 Q1008 NOSIG RMK 31014KT/R09 A2977
2026-03-29 07:00:00,METAR RCKH 290700Z 29012KT 260V330 9999 FEW020 29/19 Q1008 NOSIG RMK 31012KT/R09 A2978
2026-03-29 06:30:00,METAR RCKH 290630Z 30011KT 270V360 9999 FEW020 30/19 Q1008 NOSIG RMK 31012KT/R09 A2979
2026-03-29 06:00:00,METAR RCKH 290600Z 30010KT 250V360 9999 FEW018 30/19 Q1009 NOSIG RMK 31015KT/R09 A2980
2026-03-29 05:30:00,METAR RCKH 290530Z 31011KT 270V010 9999 FEW018 30/20 Q1009 NOSIG RMK 30012KT/R09 A2982
2026-03-29 05:00:00,METAR RCKH 290500Z 30011KT 260V010 9999 FEW018 30/20 Q1009 NOSIG RMK 30012KT/R09 A2982
2026-03-29 04:30:00,METAR RCKH 290430Z 30009KT 250V360 9000 FEW018 30/20 Q1010 NOSIG RMK 31011KT/R09 A2984
2026-03-29 04:00:00,METAR RCKH 290400Z 29009KT 260V340 9000 FEW018 30/20 Q1010 NOSIG RMK 29012KT/R09 A2985
2026-03-29 03:30:00,METAR RCKH 290330Z 31008KT 260V010 9000 FEW017 31/19 Q1011 NOSIG RMK 29013KT/R09 A2987
2026-03-29 03:00:00,METAR RCKH 290300Z 33008KT 270V080 9999 FEW017 31/18 Q1011 NOSIG RMK 29008KT/R09 A2988
2026-03-29 02:44:00,SPECI RCKH 290244Z 33008KT 290V030 9999 FEW017 30/18 Q1011 NOSIG RMK 31010KT/R09 A2988
2026-03-29 02:30:00,METAR RCKH 290230Z 35007KT 280V090 9999 FEW017 30/18 Q1012 NOSIG RMK A2989
2026-03-29 02:00:00,METAR RCKH 290200Z 02007KT 310V080 9999 FEW016 SCT050 29/18 Q1012 NOSIG RMK A2989
2026-03-29 01:30:00,METAR RCKH 290130Z 01005KT 310V060 9999 FEW015 28/19 Q1012 NOSIG RMK A2990
2026-03-29 01:00:00,METAR RCKH 290100Z 02005KT 340V070 9999 FEW014 27/19 Q1012 NOSIG RMK A2990
2026-03-29 00:30:00,METAR RCKH 290030Z 03006KT 350V060 9000 FEW014 26/20 Q1012 NOSIG RMK A2990
2026-03-29 00:00:00,METAR RCKH 290000Z 01006KT 330V060 8000 FEW012 SCT080 25/20 Q1012 NOSIG RMK A2990
2026-03-28 23:30:00,METAR RCKH 282330Z 02006KT 340V070 7000 FEW010 SCT060 24/20 Q1012 NOSIG RMK A2989
2026-03-28 23:00:00,METAR RCKH 282300Z VRB02KT 7000 SCT010 SCT060 24/20 Q1011 NOSIG RMK A2988
2026-03-28 22:30:00,METAR RCKH 282230Z 32003KT 290V350 8000 SCT014 SCT070 24/20 Q1011 NOSIG RMK A2988
2026-03-28 22:00:00,METAR RCKH 282200Z 35003KT 310V030 6000 SCT010 SCT070 23/20 Q1011 TEMPO 5000 BR RMK A2987
2026-03-28 21:00:00,METAR RCKH 282100Z 02003KT 8000 FEW014 23/20 Q1010 NOSIG RMK A2985
2026-03-28 20:00:00,METAR RCKH 282000Z 34004KT 9999 FEW014 24/19 Q1010 NOSIG RMK A2985
2026-03-28 19:00:00,METAR RCKH 281900Z 03002KT 9999 FEW014 24/19 Q1010 NOSIG RMK A2985
2026-03-28 18:00:00,METAR RCKH 281800Z VRB02KT 9999 FEW014 24/19 Q1010 NOSIG RMK A2985
2026-03-28 17:00:00,METAR RCKH 281700Z 01004KT 9999 FEW014 SCT120 24/19 Q1011 NOSIG RMK A2987
2026-03-28 16:00:00,METAR RCKH 281600Z 02004KT 320V050 9999 FEW014 SCT120 24/20 Q1011 NOSIG RMK A2988
2026-03-28 15:30:00,METAR RCKH 281530Z 01006KT 9999 FEW014 SCT120 24/20 Q1012 NOSIG RMK A2989
2026-03-28 15:00:00,METAR RCKH 281500Z 36005KT 310V040 9999 FEW015 SCT060 25/20 Q1012 NOSIG RMK A2990
2026-03-28 14:30:00,METAR RCKH 281430Z 36004KT 330V030 9999 FEW015 SCT060 25/19 Q1012 NOSIG RMK A2990
2026-03-28 14:00:00,METAR RCKH 281400Z 04003KT 9999 FEW015 SCT060 25/19 Q1012 NOSIG RMK A2990
2026-03-28 13:30:00,METAR RCKH 281330Z 04004KT 9999 FEW015 SCT060 25/19 Q1012 NOSIG RMK A2990
2026-03-28 13:00:00,METAR RCKH 281300Z 01003KT 350V070 9999 FEW015 SCT060 25/19 Q1012 NOSIG RMK A2989
2026-03-28 12:30:00,METAR RCKH 281230Z 35002KT 9999 FEW015 SCT060 25/19 Q1012 NOSIG RMK A2989
2026-03-28 12:00:00,METAR RCKH 281200Z 32004KT 280V360 9999 FEW015 SCT060 25/19 Q1011 NOSIG RMK A2988
2026-03-28 11:30:00,METAR RCKH 281130Z 34004KT 310V040 9999 FEW015 SCT060 25/20 Q1011 NOSIG RMK A2987
2026-03-28 11:00:00,METAR RCKH 281100Z 31006KT 9999 FEW013 SCT060 25/20 Q1011 NOSIG RMK A2987
2026-03-28 10:30:00,METAR RCKH 281030Z 32009KT 9999 FEW013 SCT045 25/20 Q1011 NOSIG RMK A2986
2026-03-28 10:00:00,METAR RCKH 281000Z 28009KT 260V330 9999 FEW012 SCT035 25/20 Q1010 NOSIG RMK A2985
2026-03-28 09:30:00,METAR RCKH 280930Z 28009KT 9999 FEW014 SCT024 26/20 Q1010 NOSIG RMK A2985
2026-03-28 09:00:00,METAR RCKH 280900Z 27008KT 240V310 9999 FEW014 SCT150 27/20 Q1010 NOSIG RMK A2984
2026-03-28 08:30:00,METAR RCKH 280830Z 24006KT 200V330 9999 FEW017 27/19 Q1010 NOSIG RMK A2983
2026-03-28 08:09:00,SPECI RCKH 280809Z 26007KT 220V300 9999 FEW017 27/19 Q1010 NOSIG RMK A2983
2026-03-28 08:00:00,METAR RCKH 280800Z 25009KT 230V310 9999 FEW018 27/19 Q1010 NOSIG RMK 28008KT/R09 A2983
2026-03-28 07:30:00,METAR RCKH 280730Z 26008KT 220V340 9999 FEW020 27/19 Q1010 NOSIG RMK 27008KT/R09 A2983
2026-03-28 07:00:00,METAR RCKH 280700Z 26009KT 230V290 9999 FEW018 28/19 Q1010 NOSIG RMK 25009KT/R09 A2983
2026-03-28 06:30:00,METAR RCKH 280630Z 25010KT 220V280 9999 FEW018 29/19 Q1010 NOSIG RMK 25010KT/R09 A2984
2026-03-28 06:00:00,METAR RCKH 280600Z 24009KT 210V290 9999 FEW017 29/19 Q1010 NOSIG RMK 24009KT/R09 A2984
2026-03-28 05:30:00,METAR RCKH 280530Z 25010KT 230V290 9999 FEW020 SCT180 29/19 Q1011 NOSIG RMK 25010KT/R09 A2986
2026-03-28 05:00:00,METAR RCKH 280500Z 23007KT 190V280 8000 FEW012 SCT040 BKN200 29/19 Q1011 NOSIG RMK 23008KT/R09 A2986
2026-03-28 04:30:00,METAR RCKH 280430Z 24007KT 8000 FEW012 SCT045 BKN200 29/19 Q1011 NOSIG RMK 24006KT/R09 A2988
2026-03-28 04:00:00,METAR RCKH 280400Z 25008KT 210V290 8000 FEW012 SCT045 BKN200 29/19 Q1012 NOSIG RMK 24008KT/R09 A2989
2026-03-28 03:41:00,SPECI RCKH 280341Z 23006KT 180V270 8000 FEW012 SCT045 BKN200 29/19 Q1012 NOSIG RMK 24008KT/R09 A2989
2026-03-28 03:30:00,METAR RCKH 280330Z 22006KT 180V290 8000 FEW012 SCT045 BKN200 29/19 Q1012 NOSIG RMK A2990
2026-03-28 03:00:00,METAR RCKH 280300Z VRB03KT 8000 FEW012 SCT045 BKN170 29/18 Q1012 NOSIG RMK A2991
2026-03-28 02:30:00,METAR RCKH 280230Z 20003KT 170V240 8000 FEW012 SCT045 BKN150 28/19 Q1013 NOSIG RMK A2992
2026-03-28 02:00:00,METAR RCKH 280200Z 23003KT 180V310 8000 FEW010 SCT045 BKN200 27/18 Q1013 NOSIG RMK A2993
2026-03-28 01:30:00,METAR RCKH 280130Z VRB01KT 8000 FEW010 SCT035 BKN220 28/18 Q1013 NOSIG RMK A2993
2026-03-28 01:00:00,METAR RCKH 280100Z 04004KT 320V080 7000 SCT010 SCT050 BKN100 26/19 Q1013 NOSIG RMK A2994
2026-03-28 00:30:00,METAR RCKH 280030Z 03005KT 350V070 5000 HZ SCT010 SCT045 BKN110 25/19 Q1013 NOSIG RMK A2993
2026-03-28 00:00:00,METAR RCKH 280000Z 01004KT 330V060 5000 HZ SCT010 SCT045 BKN090 24/19 Q1013 NOSIG RMK A2993
2026-03-27 23:30:00,METAR RCKH 272330Z 35004KT 320V070 5000 HZ SCT010 SCT050 BKN090 24/19 Q1013 NOSIG RMK A2992
2026-03-27 23:16:00,SPECI RCKH 272316Z 03004KT 350V080 5000 HZ SCT010 SCT040 BKN090 24/19 Q1012 NOSIG RMK A2991
2026-03-27 23:00:00,METAR RCKH 272300Z 02004KT 350V050 6000 SCT010 SCT080 23/19 Q1012 TEMPO 5000 HZ RMK A2990
2026-03-27 22:30:00,METAR RCKH 272230Z 34003KT 300V360 6000 SCT010 SCT080 23/19 Q1012 TEMPO 5000 HZ RMK A2989
2026-03-27 22:00:00,METAR RCKH 272200Z 33003KT 8000 SCT010 23/19 Q1011 NOSIG RMK A2988
2026-03-27 21:00:00,METAR RCKH 272100Z VRB02KT 9999 FEW014 SCT080 23/19 Q1011 NOSIG RMK A2986
2026-03-27 20:00:00,METAR RCKH 272000Z 34006KT 9999 FEW014 SCT080 23/19 Q1010 NOSIG RMK A2985
2026-03-27 19:00:00,METAR RCKH 271900Z 35006KT 9999 FEW014 SCT056 24/19 Q1011 NOSIG RMK A2986
2026-03-27 18:00:00,METAR RCKH 271800Z 32006KT 300V360 9999 FEW014 SCT048 24/19 Q1011 NOSIG RMK A2986
2026-03-27 17:00:00,METAR RCKH 271700Z 34004KT 300V030 9999 FEW014 SCT042 25/19 Q1011 NOSIG RMK A2987
2026-03-27 16:00:00,METAR RCKH 271600Z 35003KT 300V030 9999 FEW014 SCT042 25/19 Q1011 NOSIG RMK A2987
2026-03-25 15:00:00,METAR RCKH 251500Z 23004KT 9999 FEW014 SCT120 25/22 Q1012 NOSIG RMK A2991
2026-03-25 14:30:00,METAR RCKH 251430Z 24003KT 210V270 9999 FEW014 SCT040 25/21 Q1012 NOSIG RMK A2991
2026-03-25 14:00:00,METAR RCKH 251400Z VRB01KT 9999 FEW014 BKN040 26/20 Q1012 NOSIG RMK A2991
2026-03-25 13:30:00,METAR RCKH 251330Z VRB01KT 9999 FEW012 BKN040 BKN060 26/21 Q1012 NOSIG RMK A2991
2026-03-25 13:00:00,METAR RCKH 251300Z 26002KT 9999 FEW012 BKN040 BKN060 26/21 Q1012 NOSIG RMK A2990
2026-03-25 12:30:00,METAR RCKH 251230Z 28003KT 220V310 9999 FEW012 BKN040 BKN060 26/20 Q1012 NOSIG RMK A2990
2026-03-25 12:00:00,METAR RCKH 251200Z VRB02KT 9999 FEW012 BKN039 BKN070 26/20 Q1012 NOSIG RMK A2989
2026-03-25 11:30:00,METAR RCKH 251130Z 29004KT 250V330 9999 FEW015 SCT040 BKN070 26/20 Q1012 NOSIG RMK A2989
2026-03-25 11:00:00,METAR RCKH 251100Z VRB02KT 9999 FEW015 SCT040 BKN070 26/19 Q1011 NOSIG RMK A2988
2026-03-25 10:30:00,METAR RCKH 251030Z 30004KT 270V340 9999 FEW015 BKN040 BKN070 26/19 Q1011 NOSIG RMK A2987
2026-03-25 10:00:00,METAR RCKH 251000Z 30006KT 9999 FEW015 SCT050 BKN120 26/20 Q1011 NOSIG RMK A2987
2026-03-25 09:54:00,SPECI RCKH 250954Z 30007KT 9999 FEW020 SCT080 26/20 Q1011 NOSIG RMK A2987
2026-03-25 09:30:00,METAR RCKH 250930Z 29007KT 260V320 9999 FEW020 SCT080 26/21 Q1011 NOSIG RMK 30008KT/R09 A2986
2026-03-25 09:00:00,METAR RCKH 250900Z 29007KT 260V330 9999 FEW020 SCT070 27/21 Q1010 NOSIG RMK 30009KT/R09 A2985
2026-03-25 08:30:00,METAR RCKH 250830Z 30008KT 250V350 9999 FEW020 28/21 Q1010 NOSIG RMK 31009KT/R09 A2985
2026-03-25 08:00:00,METAR RCKH 250800Z 31008KT 280V010 9999 FEW020 28/21 Q1010 NOSIG RMK 31009KT/R09 A2985
2026-03-25 07:30:00,METAR RCKH 250730Z 30010KT 250V330 9999 FEW016 28/21 Q1010 NOSIG RMK 29013KT/R09 A2984
2026-03-25 07:00:00,METAR RCKH 250700Z 28010KT 260V320 9999 FEW016 SCT220 28/22 Q1010 NOSIG RMK 28014KT/R09 A2984
2026-03-25 06:30:00,METAR RCKH 250630Z 26014KT 240V300 9999 FEW016 SCT220 28/21 Q1010 NOSIG RMK 29014KT/R09 A2985
2026-03-25 06:00:00,METAR RCKH 250600Z 28012KT 250V310 9999 FEW016 SCT220 28/21 Q1011 NOSIG RMK 28015KT/R09 A2986
2026-03-25 05:30:00,METAR RCKH 250530Z 28011KT 250V310 9999 FEW016 SCT220 28/21 Q1011 NOSIG RMK 28014KT/R09 A2986
2026-03-25 05:00:00,METAR RCKH 250500Z 28012KT 250V340 9000 FEW016 SCT220 28/21 Q1011 NOSIG RMK 29013KT/R09 A2987
2026-03-25 04:30:00,METAR RCKH 250430Z 28011KT 250V320 9000 FEW016 28/21 Q1011 NOSIG RMK 29013KT/R09 A2988
2026-03-25 04:00:00,METAR RCKH 250400Z 01008KT 9000 FEW016 SCT034 29/21 Q1012 NOSIG RMK 28013KT/R09 A2989
2026-03-25 03:30:00,METAR RCKH 250330Z 29008KT 240V360 9000 FEW016 SCT034 29/20 Q1012 NOSIG RMK 28012KT/R09 A2990
2026-03-25 03:00:00,METAR RCKH 250300Z 29009KT 230V040 8000 FEW020 SCT034 29/21 Q1012 NOSIG RMK 28012KT/R09 A2991
2026-03-25 02:30:00,METAR RCKH 250230Z 30008KT 260V030 9000 FEW016 SCT034 28/19 Q1012 NOSIG RMK 29012KT/R09 A2991
2026-03-25 02:26:00,SPECI RCKH 250226Z 31009KT 260V030 9000 FEW016 SCT034 28/20 Q1013 NOSIG RMK 29012KT/R09 A2992
2026-03-25 02:00:00,METAR RCKH 250200Z 31005KT 220V020 9000 FEW016 SCT034 29/19 Q1013 NOSIG RMK A2992
2026-03-25 01:30:00,METAR RCKH 250130Z 31005KT 280V360 8000 FEW016 SCT034 30/19 Q1013 NOSIG RMK A2992
2026-03-25 01:00:00,METAR RCKH 250100Z 33007KT 280V030 9000 FEW016 SCT120 27/19 Q1013 NOSIG RMK A2992
2026-03-25 00:30:00,METAR RCKH 250030Z 33008KT 280V010 9000 FEW014 27/18 Q1013 NOSIG RMK A2992
2026-03-25 00:00:00,METAR RCKH 250000Z 36005KT 320V050 8000 NSC 26/19 Q1012 NOSIG RMK A2991
2026-03-24 23:30:00,METAR RCKH 242330Z 35005KT 310V050 8000 FEW014 25/19 Q1012 NOSIG RMK A2990
2026-03-24 23:00:00,METAR RCKH 242300Z 34004KT 310V010 9999 FEW015 25/19 Q1012 NOSIG RMK A2990
2026-03-24 22:30:00,METAR RCKH 242230Z 35005KT 310V030 9999 FEW015 24/19 Q1012 NOSIG RMK A2989
2026-03-24 22:00:00,METAR RCKH 242200Z 36005KT 330V030 9999 FEW015 24/19 Q1011 NOSIG RMK A2988
2026-03-24 21:00:00,METAR RCKH 242100Z 34007KT 320V020 9999 FEW015 24/19 Q1011 NOSIG RMK A2986
2026-03-24 20:00:00,METAR RCKH 242000Z 36005KT 330V030 9999 FEW015 24/19 Q1010 NOSIG RMK A2985
2026-03-24 19:00:00,METAR RCKH 241900Z 35003KT 9999 FEW015 24/20 Q1011 NOSIG RMK A2986
2026-03-24 18:00:00,METAR RCKH 241800Z 33006KT 9999 FEW015 24/20 Q1011 NOSIG RMK A2988
2026-03-24 17:00:00,METAR RCKH 241700Z 35005KT 9999 FEW015 SCT030 25/20 Q1011 NOSIG RMK A2988
2026-03-24 16:00:00,METAR RCKH 241600Z 35004KT 310V020 9999 FEW015 SCT030 25/20 Q1012 NOSIG RMK A2990
2026-03-24 15:30:00,METAR RCKH 241530Z 33005KT 300V010 9999 FEW015 SCT030 25/20 Q1012 NOSIG RMK A2990
2026-03-24 15:00:00,METAR RCKH 241500Z 34006KT 310V020 9999 FEW015 SCT035 BKN050 25/20 Q1012 NOSIG RMK A2991
2026-03-24 14:30:00,METAR RCKH 241430Z 32006KT 290V350 9999 FEW015 SCT030 BKN045 25/20 Q1012 NOSIG RMK A2991
2026-03-24 14:00:00,METAR RCKH 241400Z 29005KT 260V320 9999 FEW016 BKN040 25/20 Q1012 NOSIG RMK A2991
2026-03-24 13:30:00,METAR RCKH 241330Z 30005KT 250V360 9999 FEW016 BKN038 25/20 Q1012 NOSIG RMK A2990
2026-03-24 13:00:00,METAR RCKH 241300Z 32005KT 9999 FEW016 BKN035 25/20 Q1012 NOSIG RMK A2990
2026-03-24 12:30:00,METAR RCKH 241230Z 28005KT 250V320 9999 FEW015 BKN030 25/20 Q1012 NOSIG RMK A2989
2026-03-24 12:00:00,METAR RCKH 241200Z VRB04KT 9999 FEW015 BKN030 25/21 Q1012 NOSIG RMK A2989
2026-03-24 11:30:00,METAR RCKH 241130Z 29004KT 260V320 9999 FEW015 SCT030 25/21 Q1011 NOSIG RMK A2987
2026-03-24 11:00:00,METAR RCKH 241100Z 28005KT 250V340 9999 FEW016 SCT034 25/20 Q1011 NOSIG RMK A2987
2026-03-24 10:30:00,METAR RCKH 241030Z 29006KT 9999 FEW016 SCT028 25/20 Q1011 NOSIG RMK A2986
2026-03-24 10:02:00,SPECI RCKH 241002Z 29007KT 230V310 9999 FEW016 SCT028 26/21 Q1010 NOSIG RMK A2985
2026-03-24 10:00:00,METAR RCKH 241000Z 28008KT 9999 FEW016 SCT028 26/21 Q1011 NOSIG RMK 29009KT/R09 A2986
2026-03-24 09:30:00,METAR RCKH 240930Z 27010KT 220V310 9999 FEW018 SCT026 BKN042 26/21 Q1010 NOSIG RMK 27010KT/R09 A2985
2026-03-24 09:00:00,METAR RCKH 240900Z 25010KT 220V300 9999 FEW016 SCT024 27/21 Q1010 NOSIG RMK 26010KT/R09 A2985
2026-03-24 08:30:00,METAR RCKH 240830Z 25011KT 210V290 9999 FEW016 SCT024 27/20 Q1010 NOSIG RMK 25010KT/R09 A2984
2026-03-24 08:00:00,METAR RCKH 240800Z 25011KT 210V280 9999 FEW016 SCT024 28/20 Q1010 NOSIG RMK 22011KT/R09 A2984
2026-03-24 07:30:00,METAR RCKH 240730Z 24011KT 200V270 9999 SCT022 SCT034 28/20 Q1010 NOSIG RMK 23011KT/R09 A2985
2026-03-24 07:00:00,METAR RCKH 240700Z 24011KT 220V280 9999 SCT022 SCT034 28/20 Q1011 NOSIG RMK 24012KT/R09 A2986
2026-03-24 06:30:00,METAR RCKH 240630Z 22011KT 180V290 9999 FEW016 SCT024 28/21 Q1010 NOSIG RMK 22012KT/R09 A2985
2026-03-24 06:00:00,METAR RCKH 240600Z 21010KT 150V270 9999 FEW016 SCT024 28/20 Q1011 NOSIG RMK 22011KT/R09 A2986
2026-03-24 05:30:00,METAR RCKH 240530Z 22010KT 170V260 9999 SCT016 SCT024 28/21 Q1011 NOSIG RMK 22011KT/R09 A2987
2026-03-24 05:00:00,METAR RCKH 240500Z 22010KT 180V240 9999 FEW010 SCT032 27/20 Q1011 NOSIG RMK 22010KT/R09 A2988
2026-03-24 04:30:00,METAR RCKH 240430Z 21010KT 170V250 9999 FEW008 SCT036 27/20 Q1012 NOSIG RMK 23011KT/R09 A2989
2026-03-24 04:00:00,METAR RCKH 240400Z 23010KT 9999 FEW008 SCT030 27/20 Q1012 NOSIG RMK 22010KT/R09 A2990
2026-03-24 03:30:00,METAR RCKH 240330Z 21008KT 170V240 9999 FEW008 SCT025 BKN060 28/20 Q1013 NOSIG RMK A2992
2026-03-24 03:00:00,METAR RCKH 240300Z 20009KT 160V230 9999 FEW008 BKN025 BKN060 27/20 Q1013 NOSIG RMK A2993
2026-03-24 02:30:00,METAR RCKH 240230Z 19007KT 160V220 9999 SCT008 BKN024 BKN055 26/20 Q1013 NOSIG RMK A2994
2026-03-24 02:00:00,METAR RCKH 240200Z 22005KT 160V260 7000 SCT008 BKN025 BKN055 26/21 Q1013 NOSIG RMK A2994
2026-03-24 01:30:00,METAR RCKH 240130Z VRB03KT 7000 SCT010 BKN027 BKN058 26/21 Q1014 NOSIG RMK A2995
2026-03-24 01:00:00,METAR RCKH 240100Z 01003KT 330V050 6000 FEW010 BKN030 BKN060 25/20 Q1014 NOSIG RMK A2995
2026-03-24 00:30:00,METAR RCKH 240030Z VRB03KT 6000 FEW010 BKN030 BKN060 25/20 Q1013 NOSIG RMK A2994
2026-03-24 00:00:00,METAR RCKH 240000Z VRB02KT 6000 FEW010 BKN030 BKN060 25/20 Q1013 NOSIG RMK A2993
2026-03-23 23:30:00,METAR RCKH 232330Z 04005KT 360V070 6000 FEW010 SCT025 BKN058 24/20 Q1013 NOSIG RMK A2992
2026-03-23 23:00:00,METAR RCKH 232300Z VRB02KT 6000 FEW010 SCT025 BKN050 24/20 Q1013 NOSIG RMK A2992
2026-03-23 22:30:00,METAR RCKH 232230Z 03004KT 360V060 6000 FEW010 SCT025 BKN050 23/19 Q1012 NOSIG RMK A2991
2026-03-23 22:00:00,METAR RCKH 232200Z 06004KT 6000 FEW010 SCT025 BKN050 23/20 Q1012 NOSIG RMK A2990
2026-03-23 21:00:00,METAR RCKH 232100Z 04005KT 7000 FEW010 SCT025 BKN050 23/20 Q1012 NOSIG RMK A2990
2026-03-23 20:00:00,METAR RCKH 232000Z 08004KT 7000 FEW010 SCT025 BKN050 23/19 Q1012 NOSIG RMK A2989
2026-03-23 19:00:00,METAR RCKH 231900Z VRB02KT 7000 FEW010 SCT025 BKN050 23/19 Q1012 NOSIG RMK A2990
2026-03-23 18:00:00,METAR RCKH 231800Z 03002KT 7000 FEW010 SCT025 BKN050 24/20 Q1013 NOSIG RMK A2992
2026-03-23 17:00:00,METAR RCKH 231700Z 07003KT 030V100 6000 FEW010 SCT022 BKN040 24/19 Q1014 NOSIG RMK A2995
2026-03-23 16:00:00,METAR RCKH 231600Z 07003KT 030V100 7000 FEW010 SCT022 BKN040 24/19 Q1014 NOSIG RMK A2995
2026-03-23 15:30:00,METAR RCKH 231530Z 08004KT 7000 FEW010 SCT022 BKN040 24/19 Q1013 NOSIG RMK A2994
2026-03-23 15:00:00,METAR RCKH 231500Z 05003KT 9999 FEW012 SCT025 BKN040 25/19 Q1013 NOSIG RMK A2994
2026-03-23 14:30:00,METAR RCKH 231430Z 04003KT 360V080 9999 FEW012 SCT025 BKN040 25/19 Q1014 NOSIG RMK A2995
2026-03-23 14:00:00,METAR RCKH 231400Z 04004KT 010V080 9999 FEW012 SCT025 BKN040 26/19 Q1014 NOSIG RMK A2995
2026-03-23 13:30:00,METAR RCKH 231330Z 04004KT 010V080 9999 FEW012 SCT025 BKN040 26/19 Q1014 NOSIG RMK A2995
2026-03-23 13:00:00,METAR RCKH 231300Z 36005KT 340V040 9999 FEW012 BKN030 26/19 Q1014 NOSIG RMK A2995
2026-03-23 12:30:00,METAR RCKH 231230Z 34003KT 290V020 9999 FEW012 BKN030 26/19 Q1013 NOSIG RMK A2994
2026-03-23 12:00:00,METAR RCKH 231200Z 34003KT 310V030 9999 FEW012 BKN035 26/20 Q1013 NOSIG RMK A2993
2026-03-23 11:30:00,METAR RCKH 231130Z 35005KT 320V040 9999 FEW012 BKN035 25/20 Q1013 NOSIG RMK A2993
2026-03-23 11:00:00,METAR RCKH 231100Z 34005KT 290V040 9999 FEW012 SCT036 BKN064 25/20 Q1013 NOSIG RMK A2992
2026-03-23 10:30:00,METAR RCKH 231030Z 34007KT 310V020 9999 SCT010 BKN030 BKN050 25/20 Q1013 NOSIG RMK A2992
2026-03-23 10:26:00,SPECI RCKH 231026Z 34007KT 310V020 9999 SCT010 BKN030 BKN050 25/20 Q1013 NOSIG RMK A2992
2026-03-23 10:00:00,METAR RCKH 231000Z 28005KT 240V330 9999 FEW012 BKN030 BKN050 26/21 Q1013 NOSIG RMK 29006KT/R09 A2992
2026-03-23 09:30:00,METAR RCKH 230930Z 28007KT 250V310 9999 FEW012 BKN030 BKN050 26/21 Q1013 NOSIG RMK 30008KT/R09 A2992
2026-03-23 09:00:00,METAR RCKH 230900Z 29007KT 9999 FEW012 BKN030 BKN050 26/21 Q1012 NOSIG RMK 28009KT/R09 A2991
2026-03-23 08:30:00,METAR RCKH 230830Z 27008KT 230V300 9999 FEW012 BKN030 BKN050 26/21 Q1012 NOSIG RMK 28008KT/R09 A2991
2026-03-23 08:00:00,METAR RCKH 230800Z 27009KT 240V310 9999 FEW012 BKN036 BKN056 27/21 Q1012 NOSIG RMK 26009KT/R09 A2990
2026-03-23 07:30:00,METAR RCKH 230730Z 25009KT 210V290 9999 FEW015 SCT031 BKN220 28/21 Q1012 NOSIG RMK 26009KT/R09 A2990
2026-03-23 07:00:00,METAR RCKH 230700Z 24010KT 200V280 9999 FEW016 SCT060 BKN220 28/21 Q1012 NOSIG RMK 25009KT/R09 A2990
2026-03-23 06:30:00,METAR RCKH 230630Z 25009KT 210V290 9999 FEW018 SCT060 BKN220 28/20 Q1012 NOSIG RMK 25008KT/R09 A2990
2026-03-23 06:00:00,METAR RCKH 230600Z 26009KT 230V290 9999 FEW018 SCT060 BKN230 28/20 Q1012 NOSIG RMK 25009KT/R09 A2991
2026-03-23 05:30:00,METAR RCKH 230530Z 25009KT 220V290 9999 FEW018 SCT050 BKN180 28/20 Q1013 NOSIG RMK 25010KT/R09 A2992
2026-03-23 05:00:00,METAR RCKH 230500Z 25009KT 230V290 9999 FEW020 SCT050 BKN180 28/20 Q1013 NOSIG RMK 25010KT/R09 A2993
2026-03-23 04:44:00,SPECI RCKH 230444Z 26008KT 230V310 9999 FEW020 SCT045 BKN180 27/19 Q1013 NOSIG RMK 25009KT/R09 A2993
2026-03-23 04:30:00,METAR RCKH 230430Z 24009KT 210V280 9999 FEW020 SCT040 BKN200 27/19 Q1013 NOSIG RMK A2994
2026-03-23 04:00:00,METAR RCKH 230400Z 25009KT 220V280 9999 FEW020 SCT035 BKN060 27/20 Q1014 NOSIG RMK A2995
2026-03-23 03:30:00,METAR RCKH 230330Z 25008KT 230V290 9999 FEW020 SCT035 BKN060 28/19 Q1014 NOSIG RMK A2996
2026-03-23 03:00:00,METAR RCKH 230300Z 25008KT 220V280 9999 FEW018 SCT032 27/19 Q1014 NOSIG RMK A2997
2026-03-23 02:30:00,METAR RCKH 230230Z 24007KT 200V280 9999 FEW017 SCT030 27/19 Q1015 NOSIG RMK A2998
2026-03-23 02:00:00,METAR RCKH 230200Z 21007KT 170V250 9999 FEW015 SCT030 27/19 Q1015 NOSIG RMK A2998
2026-03-23 01:30:00,METAR RCKH 230130Z VRB02KT 9999 FEW015 SCT030 28/19 Q1015 NOSIG RMK A2998
2026-03-23 01:00:00,METAR RCKH 230100Z VRB03KT 9999 FEW016 27/19 Q1015 NOSIG RMK A2998
2026-03-23 00:30:00,METAR RCKH 230030Z VRB01KT 9999 FEW016 27/19 Q1015 NOSIG RMK A2998
2026-03-23 00:00:00,METAR RCKH 230000Z 03003KT 330V100 9999 FEW016 SCT050 25/19 Q1015 NOSIG RMK A2998
2026-03-22 23:30:00,METAR RCKH 222330Z 04003KT 360V080 9999 FEW015 24/19 Q1015 NOSIG RMK A2998
2026-03-22 23:00:00,METAR RCKH 222300Z 05004KT 8000 FEW018 SCT130 23/19 Q1014 NOSIG RMK A2997
2026-03-22 22:30:00,METAR RCKH 222230Z 08004KT 8000 FEW018 SCT130 22/19 Q1014 NOSIG RMK A2996
2026-03-22 22:00:00,METAR RCKH 222200Z 07004KT 8000 FEW018 SCT130 22/19 Q1014 NOSIG RMK A2995
2026-03-22 21:00:00,METAR RCKH 222100Z 02002KT 6000 FEW015 SCT045 23/19 Q1013 NOSIG RMK A2994
2026-03-22 20:00:00,METAR RCKH 222000Z 03002KT 7000 FEW015 SCT045 23/19 Q1013 NOSIG RMK A2993
2026-03-22 19:00:00,METAR RCKH 221900Z VRB02KT 9000 FEW015 SCT045 23/19 Q1014 NOSIG RMK A2995
2026-03-22 18:00:00,METAR RCKH 221800Z VRB02KT 9000 FEW015 BKN045 24/19 Q1014 NOSIG RMK A2997
2026-03-22 17:00:00,METAR RCKH 221700Z 36003KT 9000 FEW015 BKN060 24/18 Q1015 NOSIG RMK A2998
2026-03-22 16:00:00,METAR RCKH 221600Z 01004KT 9000 FEW015 BKN060 25/19 Q1015 NOSIG RMK A2998
2026-03-22 15:30:00,METAR RCKH 221530Z 33004KT 9000 FEW015 BKN060 25/19 Q1015 NOSIG RMK A2999
2026-03-22 15:00:00,METAR RCKH 221500Z 33004KT 300V360 9999 FEW015 BKN060 25/19 Q1015 NOSIG RMK A2999
2026-03-22 14:30:00,METAR RCKH 221430Z 33003KT 300V040 9999 FEW015 BKN060 25/19 Q1015 NOSIG RMK A2999
2026-03-22 14:00:00,METAR RCKH 221400Z 31004KT 250V360 9999 FEW015 SCT050 25/19 Q1015 NOSIG RMK A2999
2026-03-22 13:30:00,METAR RCKH 221330Z 33003KT 260V020 9999 FEW015 SCT050 25/19 Q1015 NOSIG RMK A2999
2026-03-22 13:00:00,METAR RCKH 221300Z 32004KT 290V350 9999 FEW015 SCT050 25/19 Q1015 NOSIG RMK A2998
2026-03-22 12:30:00,METAR RCKH 221230Z 32003KT 9999 FEW015 SCT050 25/19 Q1015 NOSIG RMK A2998
2026-03-22 12:00:00,METAR RCKH 221200Z 29003KT 240V010 9999 FEW014 SCT040 25/19 Q1014 NOSIG RMK A2997
2026-03-22 11:30:00,METAR RCKH 221130Z 29003KT 260V320 9999 FEW014 SCT040 25/19 Q1014 NOSIG RMK A2996
2026-03-22 11:00:00,METAR RCKH 221100Z 30004KT 9999 FEW014 SCT040 25/19 Q1014 NOSIG RMK A2995
2026-03-22 10:30:00,METAR RCKH 221030Z 30004KT 240V340 9999 FEW016 SCT030 25/19 Q1014 NOSIG RMK A2995
2026-03-22 10:00:00,METAR RCKH 221000Z 29004KT 180V350 9999 FEW016 SCT022 25/19 Q1013 NOSIG RMK A2994
2026-03-22 09:30:00,METAR RCKH 220930Z 32006KT 290V010 9999 FEW014 SCT020 26/19 Q1013 NOSIG RMK A2994
2026-03-22 09:00:00,METAR RCKH 220900Z 28006KT 230V330 9999 FEW016 26/19 Q1013 NOSIG RMK A2993
2026-03-22 08:56:00,SPECI RCKH 220856Z 28007KT 250V330 9999 FEW012 SCT020 26/19 Q1013 NOSIG RMK A2993
2026-03-22 08:30:00,METAR RCKH 220830Z 27007KT 240V310 9999 FEW012 SCT020 26/19 Q1013 NOSIG RMK 28009KT/R09 A2994
2026-03-22 08:00:00,METAR RCKH 220800Z 28009KT 240V310 9999 FEW012 26/20 Q1013 NOSIG RMK 29011KT/R09 A2994
2026-03-22 07:30:00,METAR RCKH 220730Z 29010KT 230V340 9999 FEW016 27/19 Q1013 NOSIG RMK 29013KT/R09 A2993
2026-03-22 07:00:00,METAR RCKH 220700Z 27010KT 240V320 9999 FEW018 27/19 Q1013 NOSIG RMK 28011KT/R09 A2993
2026-03-22 06:30:00,METAR RCKH 220630Z 27010KT 220V310 9999 FEW018 27/19 Q1013 NOSIG RMK 27010KT/R09 A2994
2026-03-22 06:00:00,METAR RCKH 220600Z 25010KT 210V290 CAVOK 27/19 Q1013 NOSIG RMK 26009KT/R09 A2994
2026-03-22 05:30:00,METAR RCKH 220530Z 24010KT 200V270 9999 FEW018 28/19 Q1014 NOSIG RMK 25009KT/R09 A2995
2026-03-22 05:00:00,METAR RCKH 220500Z 25009KT 210V290 9999 FEW012 28/19 Q1014 NOSIG RMK 25009KT/R09 A2996
2026-03-22 04:30:00,METAR RCKH 220430Z 25009KT 220V290 9999 FEW012 28/19 Q1014 NOSIG RMK 24008KT/R09 A2996
2026-03-22 04:07:00,SPECI RCKH 220407Z 26008KT 230V300 9999 FEW012 28/19 Q1014 NOSIG RMK 23007KT/R09 A2997
2026-03-22 04:00:00,METAR RCKH 220400Z 24007KT 200V290 9999 FEW012 28/19 Q1014 NOSIG RMK A2997
2026-03-22 03:30:00,METAR RCKH 220330Z 21005KT 170V300 9999 FEW012 27/18 Q1015 NOSIG RMK A2998
2026-03-22 03:00:00,METAR RCKH 220300Z 21003KT 140V300 9999 FEW012 27/18 Q1015 NOSIG RMK A3000
2026-03-22 02:30:00,METAR RCKH 220230Z 21006KT 180V260 9999 FEW012 27/18 Q1016 NOSIG RMK A3001
2026-03-22 02:00:00,METAR RCKH 220200Z 21001KT 9999 FEW012 27/18 Q1016 NOSIG RMK A3002
2026-03-22 01:30:00,METAR RCKH 220130Z 34004KT 250V040 9999 FEW012 26/18 Q1016 NOSIG RMK A3002
2026-03-22 01:00:00,METAR RCKH 220100Z 01005KT 320V050 9000 FEW012 24/17 Q1016 NOSIG RMK A3002
2026-03-22 00:30:00,METAR RCKH 220030Z 35005KT 320V030 9000 FEW012 23/16 Q1016 NOSIG RMK A3002
2026-03-22 00:00:00,METAR RCKH 220000Z 35008KT 330V050 9000 FEW012 22/16 Q1016 NOSIG RMK A3001
2026-03-21 23:30:00,METAR RCKH 212330Z 36008KT 340V050 9999 FEW012 21/16 Q1016 NOSIG RMK A3001
2026-03-21 23:00:00,METAR RCKH 212300Z 35007KT 320V030 8000 SCT009 21/16 Q1015 NOSIG RMK A3000
2026-03-21 22:30:00,METAR RCKH 212230Z 34007KT 8000 SCT010 21/16 Q1015 NOSIG RMK A2999
2026-03-21 22:00:00,METAR RCKH 212200Z 34005KT 300V010 8000 SCT010 21/16 Q1015 NOSIG RMK A2998
2026-03-21 21:00:00,METAR RCKH 212100Z 36005KT 330V030 9999 FEW016 21/16 Q1014 NOSIG RMK A2996
2026-03-21 20:00:00,METAR RCKH 212000Z 35006KT 330V030 9999 FEW016 21/16 Q1014 NOSIG RMK A2996
2026-03-21 19:00:00,METAR RCKH 211900Z 35008KT 9999 FEW016 SCT034 21/16 Q1014 NOSIG RMK A2997
2026-03-21 18:00:00,METAR RCKH 211800Z 33008KT 9999 FEW016 SCT034 21/16 Q1015 NOSIG RMK A2998
2026-03-21 17:00:00,METAR RCKH 211700Z 33008KT 9999 FEW016 SCT034 BKN058 22/17 Q1015 NOSIG RMK A2999
2026-03-21 16:00:00,METAR RCKH 211600Z 33007KT 300V010 9999 FEW016 SCT034 BKN058 22/17 Q1016 NOSIG RMK A3001
2026-03-21 15:30:00,METAR RCKH 211530Z 33007KT 9999 FEW016 SCT054 22/17 Q1016 NOSIG RMK A3001
2026-03-21 14:30:00,METAR RCKH 211430Z 34005KT 310V010 9999 FEW020 SCT150 23/17 Q1015 NOSIG RMK A3000
2026-03-21 14:00:00,METAR RCKH 211400Z 35004KT 310V030 9999 FEW020 SCT150 23/17 Q1015 NOSIG RMK A3000
2026-03-21 13:30:00,METAR RCKH 211330Z 35006KT 320V020 9999 FEW020 23/17 Q1015 NOSIG RMK A3000
2026-03-21 13:00:00,METAR RCKH 211300Z 35009KT 320V020 9999 FEW020 23/17 Q1015 NOSIG RMK A3000
2026-03-21 12:30:00,METAR RCKH 211230Z 35006KT 310V020 9999 FEW020 24/17 Q1015 NOSIG RMK A3000
2026-03-21 12:00:00,METAR RCKH 211200Z 36007KT 320V030 9999 FEW020 SCT150 25/17 Q1015 NOSIG RMK A2999
2026-03-21 11:30:00,METAR RCKH 211130Z 35009KT 320V040 9999 FEW020 SCT090 25/17 Q1015 NOSIG RMK A2998
2026-03-21 11:00:00,METAR RCKH 211100Z 36007KT 330V030 9999 FEW020 BKN060 26/17 Q1014 NOSIG RMK A2997
2026-03-21 10:30:00,METAR RCKH 211030Z 36006KT 320V040 9999 FEW020 BKN060 26/17 Q1014 NOSIG RMK A2996
2026-03-21 10:00:00,METAR RCKH 211000Z 31008KT 280V340 9999 FEW020 BKN060 26/18 Q1014 NOSIG RMK A2995
2026-03-21 09:30:00,METAR RCKH 210930Z 32007KT 270V350 9999 FEW020 BKN060 27/18 Q1014 NOSIG RMK A2995
2026-03-21 09:19:00,SPECI RCKH 210919Z 32008KT 270V350 9999 FEW020 BKN060 27/18 Q1014 NOSIG RMK A2995
2026-03-21 09:00:00,METAR RCKH 210900Z 32006KT 280V020 9999 FEW020 SCT060 27/19 Q1013 NOSIG RMK 31008KT/R09 A2994
2026-03-21 08:30:00,METAR RCKH 210830Z 29009KT 260V320 9999 FEW020 SCT060 27/18 Q1013 NOSIG RMK 30010KT/R09 A2994
2026-03-21 08:00:00,METAR RCKH 210800Z 30008KT 270V010 9999 FEW020 SCT060 28/18 Q1013 NOSIG RMK 32011KT/R09 A2994
2026-03-21 07:30:00,METAR RCKH 210730Z 29009KT 260V340 9999 FEW020 SCT060 28/19 Q1013 NOSIG RMK 31011KT/R09 A2994
2026-03-21 07:00:00,METAR RCKH 210700Z 31008KT 270V010 9999 FEW020 SCT200 28/19 Q1014 NOSIG RMK 30012KT/R09 A2995
2026-03-21 06:30:00,METAR RCKH 210630Z 29008KT 260V330 9999 FEW020 SCT200 28/19 Q1014 NOSIG RMK 31010KT/R09 A2995
2026-03-21 06:00:00,METAR RCKH 210600Z 30008KT 260V340 9999 FEW020 SCT200 28/20 Q1014 NOSIG RMK 29008KT/R09 A2997
2026-03-21 05:30:00,METAR RCKH 210530Z 28009KT 240V320 9999 FEW020 SCT200 28/20 Q1015 NOSIG RMK 27011KT/R09 A2998
2026-03-21 05:00:00,METAR RCKH 210500Z 27011KT 240V310 9999 FEW020 SCT200 28/20 Q1015 NOSIG RMK 28012KT/R09 A2999
2026-03-21 04:30:00,METAR RCKH 210430Z 24011KT 200V270 8000 FEW020 SCT220 28/20 Q1016 NOSIG RMK 25011KT/R09 A3001
2026-03-21 04:00:00,METAR RCKH 210400Z 24010KT 220V280 6000 FEW020 28/19 Q1016 NOSIG RMK 24010KT/R09 A3002
2026-03-21 03:30:00,METAR RCKH 210330Z 26010KT 220V300 6000 FEW020 27/19 Q1016 NOSIG RMK 25010KT/R09 A3002
2026-03-21 03:07:00,SPECI RCKH 210307Z VRB05KT 7000 FEW020 28/18 Q1016 NOSIG RMK 25008KT/R09 A3003
2026-03-21 03:00:00,METAR RCKH 210300Z 22006KT 180V260 7000 FEW020 27/19 Q1016 NOSIG RMK A3003
2026-03-21 02:30:00,METAR RCKH 210230Z 23008KT 9999 FEW016 26/19 Q1017 NOSIG RMK A3004
2026-03-21 02:00:00,METAR RCKH 210200Z 12003KT 9000 FEW016 26/18 Q1017 NOSIG RMK A3005
2026-03-21 01:30:00,METAR RCKH 210130Z VRB03KT 7000 FEW016 26/17 Q1017 NOSIG RMK A3004
2026-03-21 01:00:00,METAR RCKH 210100Z 02003KT 330V100 7000 FEW015 25/18 Q1017 NOSIG RMK A3004
2026-03-21 00:30:00,METAR RCKH 210030Z 02006KT 330V090 6000 FEW015 SCT060 23/18 Q1016 NOSIG RMK A3003
2026-03-21 00:00:00,METAR RCKH 210000Z 04004KT 010V090 5000 HZ FEW010 SCT050 23/18 Q1016 NOSIG RMK A3003
2026-03-20 23:30:00,METAR RCKH 202330Z 04005KT 360V060 5000 HZ FEW010 SCT050 22/18 Q1016 NOSIG RMK A3002
2026-03-20 23:00:00,METAR RCKH 202300Z 03005KT 5000 HZ FEW010 SCT050 22/18 Q1016 NOSIG RMK A3001
2026-03-20 22:30:00,METAR RCKH 202230Z 01003KT 330V030 5000 BR FEW010 SCT045 21/17 Q1015 TEMPO 4000 BR RMK A3000
2026-03-20 22:00:00,METAR RCKH 202200Z 35003KT 320V020 5000 BR FEW010 SCT040 21/17 Q1015 TEMPO 4000 BR RMK A3000
2026-03-20 21:00:00,METAR RCKH 202100Z 35006KT 320V020 5000 BR FEW012 SCT040 21/17 Q1015 TEMPO 4000 BR RMK A2998
2026-03-20 20:00:00,METAR RCKH 202000Z 01012KT 5000 BR FEW012 SCT040 21/17 Q1014 TEMPO 4000 BR RMK A2997
2026-03-20 19:23:00,SPECI RCKH 201923Z 01007KT 330V030 5000 BR FEW012 SCT040 21/18 Q1015 TEMPO 4000 BR RMK A2998
2026-03-20 19:00:00,METAR RCKH 201900Z 01008KT 340V040 6000 FEW012 SCT040 21/17 Q1015 TEMPO 5000 BR RMK A2998
2026-03-20 18:00:00,METAR RCKH 201800Z 35009KT 330V030 6000 FEW014 SCT040 21/17 Q1015 TEMPO 5000 HZ RMK A3000
2026-03-20 17:00:00,METAR RCKH 201700Z 35009KT 320V020 6000 FEW014 SCT040 22/17 Q1016 NOSIG RMK A3002
2026-03-20 16:00:00,METAR RCKH 201600Z 36009KT 330V030 6000 FEW014 SCT035 22/17 Q1016 NOSIG RMK A3002
2026-03-20 15:30:00,METAR RCKH 201530Z 35009KT 330V030 6000 FEW014 SCT035 22/17 Q1016 NOSIG RMK A3002
2026-03-20 15:00:00,METAR RCKH 201500Z 35007KT 310V030 8000 FEW014 SCT036 22/17 Q1016 NOSIG RMK A3002
2026-03-20 14:30:00,METAR RCKH 201430Z 35008KT 310V020 8000 FEW016 SCT034 BKN058 22/17 Q1016 NOSIG RMK A3002
2026-03-20 14:00:00,METAR RCKH 201400Z 36007KT 320V030 8000 FEW016 SCT034 BKN058 23/17 Q1016 NOSIG RMK A3002
2026-03-20 13:30:00,METAR RCKH 201330Z 36006KT 260V040 8000 FEW016 SCT034 23/17 Q1016 NOSIG RMK A3002
2026-03-20 13:00:00,METAR RCKH 201300Z 36007KT 320V030 8000 FEW016 23/17 Q1016 NOSIG RMK A3001
2026-03-20 12:30:00,METAR RCKH 201230Z 36008G18KT 330V040 9999 FEW016 23/18 Q1015 NOSIG RMK A3000
2026-03-20 12:00:00,METAR RCKH 201200Z 34007KT 300V020 9999 FEW016 SCT034 24/18 Q1015 NOSIG RMK A2998
2026-03-20 11:30:00,METAR RCKH 201130Z 32007KT 290V350 9999 FEW016 SCT038 25/18 Q1014 NOSIG RMK A2997
2026-03-20 11:00:00,METAR RCKH 201100Z 32008KT 290V350 9999 FEW018 BKN038 25/18 Q1014 NOSIG RMK A2996
2026-03-20 10:30:00,METAR RCKH 201030Z 32006KT 280V360 9999 FEW018 BKN040 25/18 Q1014 NOSIG RMK A2995
2026-03-20 10:00:00,METAR RCKH 201000Z 32005KT 280V010 9999 FEW018 SCT040 25/18 Q1014 NOSIG RMK A2995
2026-03-20 09:30:00,METAR RCKH 200930Z 30006KT 270V350 9999 FEW020 SCT220 26/18 Q1013 NOSIG RMK A2994
2026-03-20 09:00:00,METAR RCKH 200900Z 32009KT 270V360 9999 FEW020 SCT060 26/18 Q1013 NOSIG RMK A2993
2026-03-20 08:35:00,SPECI RCKH 200835Z 31006KT 260V360 9999 FEW020 SCT060 27/18 Q1013 NOSIG RMK A2993
2026-03-20 08:30:00,METAR RCKH 200830Z 28006KT 230V340 9999 FEW020 SCT060 26/19 Q1013 NOSIG RMK 29007KT/R09 A2993
2026-03-20 08:00:00,METAR RCKH 200800Z 27009KT 230V310 9999 FEW020 26/19 Q1013 NOSIG RMK 29009KT/R09 A2993
2026-03-20 07:30:00,METAR RCKH 200730Z 27010KT 240V320 9999 FEW020 27/19 Q1013 NOSIG RMK 28010KT/R09 A2994
2026-03-20 07:00:00,METAR RCKH 200700Z 27011KT 240V310 9999 FEW020 26/19 Q1013 NOSIG RMK 28012KT/R09 A2994
2026-03-20 06:30:00,METAR RCKH 200630Z 28010KT 250V320 9999 FEW020 27/18 Q1014 NOSIG RMK 27012KT/R09 A2995
2026-03-20 06:00:00,METAR RCKH 200600Z 27010KT 230V300 9999 FEW020 27/18 Q1014 NOSIG RMK 26012KT/R09 A2995
2026-03-20 05:30:00,METAR RCKH 200530Z 25010KT 230V300 9999 FEW020 28/17 Q1014 NOSIG RMK 25011KT/R09 A2996
2026-03-20 05:00:00,METAR RCKH 200500Z 25011KT 200V280 9999 FEW020 28/17 Q1014 NOSIG RMK 25010KT/R09 A2997
2026-03-20 04:30:00,METAR RCKH 200430Z 24010KT 210V280 9999 FEW020 28/18 Q1015 NOSIG RMK 27008KT/R09 A2998
2026-03-20 04:00:00,METAR RCKH 200400Z 25008KT 220V320 9999 FEW018 SCT035 28/18 Q1015 NOSIG RMK 26008KT/R09 A2999
2026-03-20 03:30:00,METAR RCKH 200330Z 27007KT 230V310 9000 FEW015 SCT035 27/18 Q1016 NOSIG RMK 27009KT/R09 A3001
2026-03-20 03:07:00,SPECI RCKH 200307Z 28006KT 240V320 7000 FEW015 SCT035 27/18 Q1016 NOSIG RMK 28007KT/R09 A3001
2026-03-20 03:00:00,METAR RCKH 200300Z 28005KT 210V360 7000 FEW015 SCT035 28/17 Q1016 NOSIG RMK A3001
2026-03-20 02:38:00,SPECI RCKH 200238Z VRB04KT 6000 FEW015 SCT200 27/17 Q1016 NOSIG RMK A3001
2026-03-20 02:30:00,METAR RCKH 200230Z 29005KT 210V350 4800 HZ FEW015 SCT200 27/17 Q1016 BECMG 5000 HZ RMK A3002
2026-03-20 02:00:00,METAR RCKH 200200Z 32003KT 230V040 4500 HZ FEW015 SCT200 26/17 Q1016 TEMPO 5000 HZ RMK A3002
2026-03-20 01:30:00,METAR RCKH 200130Z 34003KT 290V050 4500 HZ FEW015 SCT200 25/17 Q1016 NOSIG RMK A3002
2026-03-20 01:00:00,METAR RCKH 200100Z 04002KT 4000 HZ FEW015 SCT200 25/18 Q1016 NOSIG RMK A3002
2026-03-20 00:30:00,METAR RCKH 200030Z VRB03KT 3500 HZ FEW015 SCT200 23/17 Q1016 NOSIG RMK A3001
2026-03-20 00:00:00,METAR RCKH 200000Z 36005KT 320V050 3500 HZ FEW015 SCT200 22/17 Q1016 NOSIG RMK A3001
2026-03-19 23:30:00,METAR RCKH 192330Z 35005KT 310V040 4000 HZ FEW015 SCT200 21/17 Q1015 NOSIG RMK A3000
2026-03-19 23:00:00,METAR RCKH 192300Z 01004KT 6000 FEW015 21/17 Q1015 NOSIG RMK A2998
2026-03-19 22:30:00,METAR RCKH 192230Z 36005KT 320V030 6000 FEW015 20/16 Q1014 NOSIG RMK A2997
2026-03-19 22:00:00,METAR RCKH 192200Z 36005KT 330V040 6000 FEW012 20/16 Q1014 NOSIG RMK A2996
2026-03-19 21:00:00,METAR RCKH 192100Z 36005KT 330V030 5000 HZ FEW012 20/16 Q1013 NOSIG RMK A2994
2026-03-19 20:00:00,METAR RCKH 192000Z 36009KT 330V030 5000 HZ FEW012 20/16 Q1013 NOSIG RMK A2994
2026-03-19 19:00:00,METAR RCKH 191900Z 35007KT 320V030 5000 HZ FEW012 21/17 Q1013 TEMPO 4000 HZ RMK A2994
2026-03-19 18:00:00,METAR RCKH 191800Z 36009KT 5000 BR FEW012 21/17 Q1013 NOSIG RMK A2994
2026-03-19 17:00:00,METAR RCKH 191700Z 01006KT 330V030 6000 FEW012 21/17 Q1014 TEMPO 5000 BR RMK A2996
2026-03-19 16:00:00,METAR RCKH 191600Z 35009KT 320V030 8000 NSC 21/18 Q1015 NOSIG RMK A2998
2026-03-19 15:30:00,METAR RCKH 191530Z 01008KT 330V050 9000 NSC 22/18 Q1015 NOSIG RMK A2998
2026-03-19 15:00:00,METAR RCKH 191500Z 35008KT 320V030 9000 FEW016 23/18 Q1015 NOSIG RMK A2998
2026-03-19 14:30:00,METAR RCKH 191430Z 01006KT 330V030 9999 FEW016 23/17 Q1015 NOSIG RMK A2998
2026-03-19 14:00:00,METAR RCKH 191400Z 36009KT 320V040 9999 FEW015 SCT048 23/17 Q1015 NOSIG RMK A2998
2026-03-19 13:30:00,METAR RCKH 191330Z 01010KT 340V040 9999 FEW015 SCT048 23/18 Q1015 NOSIG RMK A2998
2026-03-19 13:00:00,METAR RCKH 191300Z 35008KT 320V020 9999 FEW015 BKN049 24/18 Q1014 NOSIG RMK A2997
2026-03-19 12:30:00,METAR RCKH 191230Z 01009KT 9999 FEW016 SCT060 24/18 Q1014 NOSIG RMK A2996
2026-03-19 12:00:00,METAR RCKH 191200Z 36008KT 320V050 9999 FEW016 SCT050 25/18 Q1014 NOSIG RMK A2995
2026-03-19 11:30:00,METAR RCKH 191130Z 32005KT 9999 FEW016 SCT050 25/18 Q1013 NOSIG RMK A2994
2026-03-19 11:00:00,METAR RCKH 191100Z 32006KT 290V010 9999 FEW016 SCT050 BKN120 25/18 Q1013 NOSIG RMK A2993
2026-03-19 10:30:00,METAR RCKH 191030Z 30006KT 270V340 9999 FEW016 BKN045 BKN080 25/18 Q1013 NOSIG RMK A2992
2026-03-19 10:00:00,METAR RCKH 191000Z 32006KT 290V350 9999 FEW016 SCT040 BKN080 26/18 Q1012 NOSIG RMK A2991
2026-03-19 09:45:00,SPECI RCKH 190945Z 32007KT 290V350 9999 FEW016 SCT035 BKN070 26/18 Q1012 NOSIG RMK A2991
2026-03-19 09:30:00,METAR RCKH 190930Z 29005KT 250V340 9999 FEW016 SCT035 BKN070 26/18 Q1012 NOSIG RMK 32007KT/R09 A2991
2026-03-19 09:00:00,METAR RCKH 190900Z 30005KT 270V340 9999 FEW016 SCT035 BKN070 26/18 Q1012 NOSIG RMK 31008KT/R09 A2991
2026-03-19 08:30:00,METAR RCKH 190830Z 30007KT 260V360 9999 FEW016 SCT035 BKN070 26/18 Q1012 NOSIG RMK 31009KT/R09 A2990
2026-03-19 08:00:00,METAR RCKH 190800Z 30009KT 260V350 9999 FEW018 SCT035 BKN200 26/20 Q1012 NOSIG RMK 32012KT/R09 A2989
2026-03-19 07:30:00,METAR RCKH 190730Z 29010KT 260V350 9999 FEW025 27/20 Q1011 NOSIG RMK 27014KT/R09 A2988
2026-03-19 07:00:00,METAR RCKH 190700Z 28012KT 250V320 9999 FEW018 27/20 Q1012 NOSIG RMK 29014KT/R09 A2989
2026-03-19 06:30:00,METAR RCKH 190630Z 28011KT 240V310 9999 FEW018 27/19 Q1012 NOSIG RMK 29014KT/R09 A2989
2026-03-19 06:00:00,METAR RCKH 190600Z 28010KT 240V310 9999 FEW016 SCT035 28/19 Q1012 NOSIG RMK 28012KT/R09 A2990
2026-03-19 05:30:00,METAR RCKH 190530Z 27012KT 240V320 9999 FEW016 SCT035 28/19 Q1013 NOSIG RMK 27014KT/R09 A2992
2026-03-19 05:00:00,METAR RCKH 190500Z 29011KT 250V320 9999 FEW016 SCT042 28/19 Q1013 NOSIG RMK 27013KT/R09 A2993
2026-03-19 04:30:00,METAR RCKH 190430Z 26013KT 240V300 9999 FEW016 SCT042 28/20 Q1013 NOSIG RMK 27015KT/R09 A2994
2026-03-19 04:00:00,METAR RCKH 190400Z 27011KT 230V300 9999 FEW016 SCT038 28/19 Q1014 NOSIG RMK 27013KT/R09 A2995
2026-03-19 03:30:00,METAR RCKH 190330Z VRB09KT 9999 FEW016 SCT034 27/19 Q1014 NOSIG RMK 26013KT/R09 A2997
2026-03-19 03:09:00,SPECI RCKH 190309Z 28003KT 220V330 9999 SCT016 SCT034 28/17 Q1014 NOSIG RMK 27012KT/R09 A2997
2026-03-19 03:00:00,METAR RCKH 190300Z 28006KT 210V020 9999 SCT016 SCT034 28/19 Q1015 NOSIG RMK A2998
2026-03-19 02:30:00,METAR RCKH 190230Z 30006KT 250V360 9999 SCT016 SCT034 28/17 Q1015 NOSIG RMK A2999
2026-03-19 02:00:00,METAR RCKH 190200Z VRB04KT 9999 FEW016 SCT034 28/18 Q1016 NOSIG RMK A3001
2026-03-19 01:30:00,METAR RCKH 190130Z VRB03KT 9999 FEW016 SCT030 27/18 Q1016 NOSIG RMK A3001
2026-03-19 01:00:00,METAR RCKH 190100Z 02004KT 320V120 9999 FEW016 SCT030 26/18 Q1015 NOSIG RMK A3000
2026-03-19 00:30:00,METAR RCKH 190030Z 07003KT 030V110 9999 FEW016 SCT030 26/17 Q1015 NOSIG RMK A3000
2026-03-19 00:00:00,METAR RCKH 190000Z 06004KT 9999 FEW016 SCT028 24/16 Q1015 NOSIG RMK A3000
2026-03-18 23:30:00,METAR RCKH 182330Z 05004KT 9999 FEW010 SCT016 23/16 Q1015 NOSIG RMK A2999
2026-03-18 23:00:00,METAR RCKH 182300Z VRB02KT 9999 FEW015 22/17 Q1014 NOSIG RMK A2997
2026-03-18 22:30:00,METAR RCKH 182230Z 08004KT 9999 FEW015 20/16 Q1014 NOSIG RMK A2995
2026-03-18 22:00:00,METAR RCKH 182200Z 08003KT 9999 FEW015 20/16 Q1014 NOSIG RMK A2995
2026-03-18 21:00:00,METAR RCKH 182100Z 08004KT 9999 FEW015 21/18 Q1013 NOSIG RMK A2994
2026-03-18 20:00:00,METAR RCKH 182000Z 08004KT 9999 FEW015 21/18 Q1013 NOSIG RMK A2994
2026-03-18 19:00:00,METAR RCKH 181900Z 08004KT 9999 FEW015 21/18 Q1013 NOSIG RMK A2994
2026-03-18 18:00:00,METAR RCKH 181800Z 04003KT 9999 FEW015 SCT025 23/18 Q1014 NOSIG RMK A2995
2026-03-18 17:00:00,METAR RCKH 181700Z 08003KT 9999 FEW015 SCT025 22/18 Q1014 NOSIG RMK A2996
2026-03-18 16:00:00,METAR RCKH 181600Z 08004KT 9999 FEW015 SCT025 23/18 Q1015 NOSIG RMK A2998
2026-03-18 15:30:00,METAR RCKH 181530Z 06003KT 9999 FEW015 SCT025 24/18 Q1015 NOSIG RMK A2999
2026-03-18 15:00:00,METAR RCKH 181500Z VRB02KT 9999 FEW015 24/18 Q1015 NOSIG RMK A3000
2026-03-18 14:30:00,METAR RCKH 181430Z 30003KT 260V020 9999 FEW015 25/18 Q1015 NOSIG RMK A3000
2026-03-18 14:00:00,METAR RCKH 181400Z 29004KT 260V340 9999 FEW020 25/18 Q1015 NOSIG RMK A3000
2026-03-18 13:30:00,METAR RCKH 181330Z 29003KT 9999 FEW020 25/18 Q1015 NOSIG RMK A2999
2026-03-18 13:00:00,METAR RCKH 181300Z 26004KT 230V290 9999 FEW020 24/18 Q1015 NOSIG RMK A2999
2026-03-18 12:30:00,METAR RCKH 181230Z 25003KT 9999 FEW020 25/18 Q1015 NOSIG RMK A2998
2026-03-18 12:00:00,METAR RCKH 181200Z 23005KT 200V280 9999 FEW018 25/18 Q1014 NOSIG RMK A2996
2026-03-18 11:30:00,METAR RCKH 181130Z 25004KT 9999 FEW018 25/18 Q1014 NOSIG RMK A2995
2026-03-18 11:00:00,METAR RCKH 181100Z 24004KT 210V280 9999 FEW018 25/17 Q1013 NOSIG RMK A2994
2026-03-18 10:30:00,METAR RCKH 181030Z 21005KT 190V250 9999 FEW020 SCT080 26/18 Q1013 NOSIG RMK A2994
2026-03-18 10:00:00,METAR RCKH 181000Z 23006KT 200V260 9999 FEW020 SCT080 26/18 Q1013 NOSIG RMK A2993
2026-03-18 09:30:00,METAR RCKH 180930Z 23007KT 9999 FEW020 SCT080 27/17 Q1013 NOSIG RMK A2993
2026-03-18 09:08:00,SPECI RCKH 180908Z 21007KT 170V250 9999 FEW022 SCT140 27/17 Q1013 NOSIG RMK A2993
2026-03-18 09:00:00,METAR RCKH 180900Z 22011KT 9999 FEW022 SCT140 27/17 Q1013 NOSIG RMK 20009KT/R09 A2993
2026-03-18 08:30:00,METAR RCKH 180830Z 21009KT 180V240 9999 FEW022 SCT120 28/18 Q1013 NOSIG RMK 19010KT/R09 A2992
2026-03-18 08:00:00,METAR RCKH 180800Z 22010KT 160V250 9999 FEW024 28/18 Q1013 NOSIG RMK 18011KT/R09 A2992
2026-03-18 07:30:00,METAR RCKH 180730Z 21010KT 9999 FEW024 28/17 Q1013 NOSIG RMK 18010KT/R09 A2992
2026-03-18 07:00:00,METAR RCKH 180700Z 22011KT 180V260 9999 FEW024 28/17 Q1013 NOSIG RMK 18011KT/R09 A2993
2026-03-18 06:30:00,METAR RCKH 180630Z 21012KT 180V260 9999 FEW024 28/18 Q1013 NOSIG RMK 19011KT/R09 A2994
2026-03-18 06:00:00,METAR RCKH 180600Z 21012KT 180V240 9999 FEW024 28/16 Q1014 NOSIG RMK 18012KT/R09 A2995
2026-03-18 05:30:00,METAR RCKH 180530Z 23010KT 200V260 9999 SCT022 28/15 Q1014 NOSIG RMK 20010KT/R09 A2996
2026-03-18 05:00:00,METAR RCKH 180500Z 22010KT 190V260 9999 FEW020 28/16 Q1015 NOSIG RMK 20009KT/R09 A2998
2026-03-18 04:30:00,METAR RCKH 180430Z 23010KT 180V250 9999 FEW020 28/16 Q1015 NOSIG RMK 21009KT/R09 A3000
2026-03-18 04:06:00,SPECI RCKH 180406Z 22009KT 180V270 9999 FEW020 28/15 Q1016 NOSIG RMK 20010KT/R09 A3001
2026-03-18 04:00:00,METAR RCKH 180400Z 21008KT 170V230 9999 FEW020 28/16 Q1016 NOSIG RMK A3001
2026-03-18 03:30:00,METAR RCKH 180330Z 20008KT 170V230 9999 FEW020 28/15 Q1016 NOSIG RMK A3003
2026-03-18 03:00:00,METAR RCKH 180300Z 21007KT 170V280 9999 FEW018 27/14 Q1016 NOSIG RMK A3003
2026-03-18 02:30:00,METAR RCKH 180230Z 20004KT 130V240 9999 FEW020 27/13 Q1017 NOSIG RMK A3004
2026-03-18 02:00:00,METAR RCKH 180200Z VRB02KT 9999 FEW020 28/12 Q1017 NOSIG RMK A3005
2026-03-18 01:30:00,METAR RCKH 180130Z VRB02KT 9999 FEW020 27/13 Q1017 NOSIG RMK A3005
2026-03-18 01:00:00,METAR RCKH 180100Z VRB01KT CAVOK 27/13 Q1017 NOSIG RMK A3005
2026-03-18 00:30:00,METAR RCKH 180030Z VRB02KT CAVOK 25/14 Q1017 NOSIG RMK A3005
2026-03-18 00:00:00,METAR RCKH 180000Z VRB02KT CAVOK 23/15 Q1017 NOSIG RMK A3004
2026-03-17 23:30:00,METAR RCKH 172330Z VRB02KT CAVOK 22/15 Q1016 NOSIG RMK A3003
2026-03-17 23:00:00,METAR RCKH 172300Z 04003KT 010V080 9999 FEW018 20/14 Q1016 NOSIG RMK A3003
2026-03-17 22:30:00,METAR RCKH 172230Z 04002KT 9999 FEW018 19/15 Q1016 NOSIG RMK A3002
2026-03-17 22:00:00,METAR RCKH 172200Z 09003KT 9999 FEW018 19/14 Q1016 NOSIG RMK A3001
2026-03-17 21:00:00,METAR RCKH 172100Z 08003KT 9999 FEW018 19/14 Q1015 NOSIG RMK A2999
2026-03-17 20:00:00,METAR RCKH 172000Z 07002KT 9999 FEW018 19/14 Q1015 NOSIG RMK A2998
2026-03-17 19:00:00,METAR RCKH 171900Z VRB02KT 9999 FEW018 19/14 Q1015 NOSIG RMK A3000
2026-03-17 18:00:00,METAR RCKH 171800Z 03004KT 9999 FEW018 21/14 Q1016 NOSIG RMK A3001
2026-03-17 17:00:00,METAR RCKH 171700Z 08003KT 9999 FEW018 21/13 Q1016 NOSIG RMK A3002
2026-03-17 16:00:00,METAR RCKH 171600Z VRB02KT 9999 FEW018 21/14 Q1017 NOSIG RMK A3004
2026-03-17 15:30:00,METAR RCKH 171530Z VRB02KT 9999 FEW018 22/13 Q1017 NOSIG RMK A3004
2026-03-17 15:00:00,METAR RCKH 171500Z 08004KT 9999 FEW015 22/13 Q1017 NOSIG RMK A3005
2026-03-17 14:30:00,METAR RCKH 171430Z 06004KT 020V090 9999 FEW015 SCT055 23/13 Q1017 NOSIG RMK A3005
2026-03-17 14:00:00,METAR RCKH 171400Z 04003KT 9999 FEW015 SCT055 23/13 Q1017 NOSIG RMK A3005
2026-03-17 13:30:00,METAR RCKH 171330Z 08003KT 9999 FEW015 SCT055 23/13 Q1017 NOSIG RMK A3004
2026-03-17 13:00:00,METAR RCKH 171300Z 34002KT 9999 FEW015 SCT055 24/12 Q1016 NOSIG RMK A3003
2026-03-17 12:30:00,METAR RCKH 171230Z 33004KT 9999 FEW015 BKN055 24/12 Q1016 NOSIG RMK A3003
2026-03-17 12:00:00,METAR RCKH 171200Z 33004KT 300V010 9999 FEW015 BKN055 24/13 Q1016 NOSIG RMK A3002
2026-03-17 11:30:00,METAR RCKH 171130Z 31004KT 280V010 9999 FEW015 BKN055 24/14 Q1016 NOSIG RMK A3001
2026-03-17 11:00:00,METAR RCKH 171100Z 32007KT 290V350 9999 FEW015 SCT055 24/16 Q1015 NOSIG RMK A3000
2026-03-17 10:30:00,METAR RCKH 171030Z 31009KT 280V340 9999 FEW016 SCT120 24/15 Q1015 NOSIG RMK A3000
2026-03-17 10:18:00,SPECI RCKH 171018Z 31010KT 9999 FEW018 SCT150 24/16 Q1015 NOSIG RMK A2999
2026-03-17 10:00:00,METAR RCKH 171000Z 29007KT 260V320 9999 FEW020 SCT220 24/15 Q1015 NOSIG RMK 30010KT/R09 A2999
2026-03-17 09:30:00,METAR RCKH 170930Z 27009KT 9999 FEW020 25/14 Q1015 NOSIG RMK 30012KT/R09 A2998
2026-03-17 09:00:00,METAR RCKH 170900Z 28009KT 9999 FEW020 25/13 Q1014 NOSIG RMK 29010KT/R09 A2997
2026-03-17 08:30:00,METAR RCKH 170830Z 28008KT 240V340 9999 FEW018 26/14 Q1014 NOSIG RMK 30011KT/R09 A2996
2026-03-17 08:00:00,METAR RCKH 170800Z 27010KT 240V300 9999 FEW018 26/13 Q1014 NOSIG RMK 29011KT/R09 A2995
2026-03-17 07:30:00,METAR RCKH 170730Z 28011KT 250V310 9999 FEW018 26/13 Q1014 NOSIG RMK 28012KT/R09 A2995
2026-03-17 07:00:00,METAR RCKH 170700Z 28010KT 240V320 9999 FEW018 26/15 Q1014 NOSIG RMK 27012KT/R09 A2995
2026-03-17 06:30:00,METAR RCKH 170630Z 27010KT 240V300 9999 FEW018 27/14 Q1014 NOSIG RMK 27010KT/R09 A2996
2026-03-17 06:00:00,METAR RCKH 170600Z 27010KT 240V300 9999 FEW018 27/15 Q1015 NOSIG RMK 27012KT/R09 A2998
2026-03-17 05:30:00,METAR RCKH 170530Z 27011KT 220V310 9999 FEW018 26/15 Q1015 NOSIG RMK 27011KT/R09 A2999
2026-03-17 05:00:00,METAR RCKH 170500Z 27010KT 230V310 9999 FEW020 26/16 Q1016 NOSIG RMK 26012KT/R09 A3001
2026-03-17 04:30:00,METAR RCKH 170430Z 26011KT 230V290 9999 FEW020 27/15 Q1016 NOSIG RMK 26011KT/R09 A3001
2026-03-17 04:00:00,METAR RCKH 170400Z 25012KT 220V280 9999 FEW020 27/16 Q1016 NOSIG RMK 25012KT/R09 A3002
2026-03-17 03:38:00,SPECI RCKH 170338Z VRB06KT 9999 FEW020 27/15 Q1016 NOSIG RMK 25011KT/R09 A3003
2026-03-17 03:30:00,METAR RCKH 170330Z 27007KT 230V040 9999 FEW020 27/15 Q1016 NOSIG RMK A3003
2026-03-17 03:00:00,METAR RCKH 170300Z 05006KT 340V100 9999 FEW022 27/11 Q1017 NOSIG RMK A3004
2026-03-17 02:30:00,METAR RCKH 170230Z 35004KT 290V050 9999 FEW020 27/11 Q1017 NOSIG RMK A3005
2026-03-17 02:00:00,METAR RCKH 170200Z VRB03KT 9999 FEW018 26/12 Q1018 NOSIG RMK A3007
2026-03-17 01:30:00,METAR RCKH 170130Z VRB02KT 9999 FEW018 25/14 Q1018 NOSIG RMK A3008
2026-03-17 01:00:00,METAR RCKH 170100Z VRB02KT 9999 FEW018 25/15 Q1018 NOSIG RMK A3008
2026-03-17 00:30:00,METAR RCKH 170030Z 05003KT 020V100 9999 FEW018 24/14 Q1018 NOSIG RMK A3008
2026-03-17 00:00:00,METAR RCKH 170000Z 03003KT 360V060 9999 FEW019 23/13 Q1018 NOSIG RMK A3008
2026-03-16 23:30:00,METAR RCKH 162330Z 02003KT 350V080 9999 FEW018 21/14 Q1018 NOSIG RMK A3007
2026-03-16 23:00:00,METAR RCKH 162300Z 07003KT 9999 FEW014 20/15 Q1018 NOSIG RMK A3006
2026-03-16 22:30:00,METAR RCKH 162230Z 06004KT 9999 FEW014 19/15 Q1017 NOSIG RMK A3005
2026-03-16 22:00:00,METAR RCKH 162200Z 08004KT 9999 FEW016 19/15 Q1017 NOSIG RMK A3004
2026-03-16 21:00:00,METAR RCKH 162100Z VRB02KT 9999 FEW014 SCT070 20/15 Q1016 NOSIG RMK A3003
2026-03-16 20:00:00,METAR RCKH 162000Z 05002KT 9999 FEW014 SCT070 20/14 Q1016 NOSIG RMK A3002
2026-03-16 19:00:00,METAR RCKH 161900Z 04005KT 9999 FEW016 SCT054 21/14 Q1016 NOSIG RMK A3003
2026-03-16 18:00:00,METAR RCKH 161800Z 04002KT 9999 FEW016 SCT054 22/15 Q1017 NOSIG RMK A3005
2026-03-16 17:00:00,METAR RCKH 161700Z 35003KT 320V030 9999 FEW016 SCT054 BKN070 22/14 Q1018 NOSIG RMK A3006
2026-03-16 16:00:00,METAR RCKH 161600Z 34003KT 9999 FEW016 SCT054 BKN070 23/13 Q1018 NOSIG RMK A3007
2026-03-16 15:30:00,METAR RCKH 161530Z 34004KT 300V360 9999 FEW016 SCT054 BKN070 23/13 Q1018 NOSIG RMK A3007
2026-03-16 15:00:00,METAR RCKH 161500Z 34006KT 9999 FEW018 SCT050 BKN070 23/12 Q1018 NOSIG RMK A3007
2026-03-16 14:30:00,METAR RCKH 161430Z 33005KT 290V040 9999 FEW018 SCT050 BKN070 23/13 Q1018 NOSIG RMK A3008
2026-03-16 14:00:00,METAR RCKH 161400Z 35006KT 320V030 9999 FEW018 SCT050 BKN070 23/14 Q1018 NOSIG RMK A3008
2026-03-16 13:30:00,METAR RCKH 161330Z 29005KT 250V340 9999 FEW018 SCT050 BKN070 23/15 Q1018 NOSIG RMK A3008
2026-03-16 13:00:00,METAR RCKH 161300Z 30006KT 9999 FEW018 SCT050 BKN070 23/15 Q1018 NOSIG RMK A3006
2026-03-16 12:30:00,METAR RCKH 161230Z 29005KT 260V320 9999 FEW018 SCT050 BKN070 23/15 Q1018 NOSIG RMK A3006
2026-03-16 12:00:00,METAR RCKH 161200Z 30006KT 280V350 9999 FEW018 SCT050 BKN070 23/15 Q1017 NOSIG RMK A3005
2026-03-16 11:30:00,METAR RCKH 161130Z 31006KT 250V330 9999 FEW018 SCT050 BKN070 23/15 Q1017 NOSIG RMK A3004
2026-03-16 11:00:00,METAR RCKH 161100Z 31007KT 270V360 9999 FEW016 SCT035 BKN050 23/16 Q1016 NOSIG RMK A3003
2026-03-16 10:30:00,METAR RCKH 161030Z 32008KT 280V350 9999 FEW015 SCT032 BKN045 23/15 Q1016 NOSIG RMK A3003
2026-03-16 10:00:00,METAR RCKH 161000Z 32008KT 9999 FEW014 SCT032 BKN045 23/16 Q1016 NOSIG RMK A3002
2026-03-16 09:54:00,SPECI RCKH 160954Z 32007KT 9999 FEW014 SCT030 BKN045 23/16 Q1016 NOSIG RMK A3002
2026-03-16 09:30:00,METAR RCKH 160930Z 31006KT 280V350 9999 FEW015 SCT032 BKN050 23/16 Q1016 NOSIG RMK 28009KT/R09 A3001
2026-03-16 09:00:00,METAR RCKH 160900Z 29006KT 260V340 9999 FEW017 SCT035 BKN055 24/16 Q1015 NOSIG RMK 28010KT/R09 A3000
2026-03-16 08:30:00,METAR RCKH 160830Z 28009KT 250V310 9999 FEW017 SCT035 BKN060 24/15 Q1015 NOSIG RMK 30011KT/R09 A3000
2026-03-16 08:00:00,METAR RCKH 160800Z 28010KT 240V330 9999 FEW018 SCT040 BKN060 24/15 Q1015 NOSIG RMK 29012KT/R09 A3000
2026-03-16 07:30:00,METAR RCKH 160730Z 27011KT 240V310 9999 FEW020 SCT040 25/15 Q1015 NOSIG RMK 29012KT/R09 A3000
2026-03-16 07:00:00,METAR RCKH 160700Z 28011KT 240V320 9999 FEW024 25/15 Q1015 NOSIG RMK 28012KT/R09 A3000
2026-03-16 06:30:00,METAR RCKH 160630Z 26012KT 240V310 9999 FEW024 26/15 Q1016 NOSIG RMK 28013KT/R09 A3001
2026-03-16 06:00:00,METAR RCKH 160600Z 26011KT 230V300 9999 FEW022 26/14 Q1016 NOSIG RMK 28013KT/R09 A3001
2026-03-16 05:30:00,METAR RCKH 160530Z 27012KT 240V300 9999 FEW022 26/13 Q1016 NOSIG RMK 27013KT/R09 A3003
2026-03-16 05:00:00,METAR RCKH 160500Z 28010KT 240V310 9999 FEW020 26/12 Q1016 NOSIG RMK 27013KT/R09 A3003
2026-03-16 04:30:00,METAR RCKH 160430Z 28010KT 250V310 9999 FEW020 26/12 Q1017 NOSIG RMK 28013KT/R09 A3005
2026-03-16 04:00:00,METAR RCKH 160400Z 28009KT 240V320 9999 FEW020 26/12 Q1018 NOSIG RMK 30010KT/R09 A3007
2026-03-16 03:30:00,METAR RCKH 160330Z 27010KT 240V310 9999 FEW020 26/11 Q1018 NOSIG RMK 27012KT/R09 A3008
2026-03-16 03:00:00,METAR RCKH 160300Z VRB01KT 9999 FEW020 25/09 Q1019 NOSIG RMK 25010KT/R09 A3010
2026-03-16 02:43:00,SPECI RCKH 160243Z VRB03KT 9999 FEW020 26/10 Q1019 NOSIG RMK 29008KT/R09 A3011
2026-03-16 02:30:00,METAR RCKH 160230Z 25006KT 210V330 9999 FEW020 26/10 Q1019 NOSIG RMK A3011
2026-03-16 02:00:00,METAR RCKH 160200Z 35004KT 230V040 9999 FEW020 25/08 Q1020 NOSIG RMK A3012
2026-03-16 01:30:00,METAR RCKH 160130Z 36004KT 300V030 9999 FEW020 24/09 Q1020 NOSIG RMK A3012
2026-03-16 01:00:00,METAR RCKH 160100Z VRB02KT 9999 FEW020 25/11 Q1020 NOSIG RMK A3012
2026-03-16 00:30:00,METAR RCKH 160030Z VRB01KT 9999 FEW018 24/12 Q1020 NOSIG RMK A3012
2026-03-16 00:00:00,METAR RCKH 160000Z VRB02KT 9999 FEW018 22/13 Q1019 NOSIG RMK A3011
2026-03-15 23:30:00,METAR RCKH 152330Z 02004KT 330V060 9999 FEW018 20/13 Q1019 NOSIG RMK A3011
2026-03-15 23:00:00,METAR RCKH 152300Z 08004KT 8000 FEW018 18/13 Q1019 NOSIG RMK A3010
2026-03-15 22:30:00,METAR RCKH 152230Z 06001KT 9999 FEW018 18/13 Q1019 NOSIG RMK A3010
2026-03-15 22:00:00,METAR RCKH 152200Z 07003KT 9999 FEW018 17/13 Q1019 NOSIG RMK A3009
2026-03-15 21:00:00,METAR RCKH 152100Z VRB01KT 9999 FEW016 SCT063 18/12 Q1018 NOSIG RMK A3008
2026-03-15 20:00:00,METAR RCKH 152000Z 08005KT 9999 FEW016 18/12 Q1018 NOSIG RMK A3008
2026-03-15 19:00:00,METAR RCKH 151900Z 02004KT 350V050 9999 FEW016 20/11 Q1018 NOSIG RMK A3008
2026-03-15 18:00:00,METAR RCKH 151800Z 02005KT 9999 FEW016 SCT066 20/12 Q1019 NOSIG RMK A3010
2026-03-15 17:00:00,METAR RCKH 151700Z 01006KT 330V030 9999 FEW016 SCT120 20/13 Q1020 NOSIG RMK A3012
2026-03-15 16:00:00,METAR RCKH 151600Z 02007KT 340V050 9999 FEW016 SCT070 20/13 Q1020 NOSIG RMK A3013
2026-03-15 15:30:00,METAR RCKH 151530Z 01004KT 310V040 9999 FEW015 BKN065 21/13 Q1020 NOSIG RMK A3014
2026-03-15 15:00:00,METAR RCKH 151500Z 36007KT 320V030 9999 FEW016 SCT048 21/13 Q1020 NOSIG RMK A3014
2026-03-15 14:30:00,METAR RCKH 151430Z 35006KT 320V030 9999 FEW016 SCT048 21/12 Q1020 NOSIG RMK A3014
2026-03-15 14:00:00,METAR RCKH 151400Z 34006KT 9999 FEW016 SCT048 21/12 Q1020 NOSIG RMK A3013
2026-03-15 13:30:00,METAR RCKH 151330Z 33006KT 300V010 9999 FEW016 SCT042 22/13 Q1020 NOSIG RMK A3014
2026-03-15 13:00:00,METAR RCKH 151300Z 33006KT 270V360 9999 FEW016 SCT038 BKN052 22/13 Q1020 NOSIG RMK A3014
2026-03-15 12:30:00,METAR RCKH 151230Z 34005KT 310V010 9999 FEW016 SCT038 BKN052 22/13 Q1020 NOSIG RMK A3012
2026-03-15 12:00:00,METAR RCKH 151200Z 35005KT 320V020 9999 FEW018 SCT054 22/14 Q1019 NOSIG RMK A3011
2026-03-15 11:30:00,METAR RCKH 151130Z 34005KT 300V010 9999 FEW018 SCT054 23/14 Q1019 NOSIG RMK A3010
2026-03-15 11:00:00,METAR RCKH 151100Z 32006KT 280V360 9999 FEW020 BKN060 22/14 Q1019 NOSIG RMK A3009
2026-03-15 10:30:00,METAR RCKH 151030Z 30006KT 280V350 9999 FEW020 BKN060 22/15 Q1019 NOSIG RMK A3009
2026-03-15 10:09:00,SPECI RCKH 151009Z 31008KT 280V340 9999 FEW020 BKN060 22/15 Q1018 NOSIG RMK A3008
2026-03-15 10:00:00,METAR RCKH 151000Z 30007KT 270V330 9999 FEW020 BKN060 22/15 Q1018 NOSIG RMK 31008KT/R09 A3008
2026-03-15 09:30:00,METAR RCKH 150930Z 30007KT 270V330 9999 FEW020 BKN060 23/15 Q1018 NOSIG RMK 29008KT/R09 A3008
2026-03-15 09:00:00,METAR RCKH 150900Z 30007KT 270V330 9999 FEW020 BKN060 23/15 Q1018 NOSIG RMK 31008KT/R09 A3008
2026-03-15 08:30:00,METAR RCKH 150830Z 28007KT 230V310 9999 FEW020 BKN060 24/15 Q1018 NOSIG RMK 29007KT/R09 A3007
2026-03-15 08:00:00,METAR RCKH 150800Z 30008KT 260V350 9999 FEW020 SCT040 24/15 Q1018 NOSIG RMK 29011KT/R09 A3008
