Time_recorded,METAR
2026-05-02 15:50:00,METAR LSZH 021550Z 36004KT 320V030 CAVOK 25/08 Q1018 NOSIG
2026-05-02 15:20:00,METAR LSZH 021520Z VRB02KT 9999 FEW070 25/06 Q1018 NOSIG
2026-05-02 14:50:00,METAR LSZH 021450Z VRB03KT 9999 FEW070 25/06 Q1018 NOSIG
2026-05-02 14:20:00,METAR LSZH 021420Z 35004KT 270V040 9999 FEW070 25/06 Q1019 NOSIG
2026-05-02 13:50:00,METAR LSZH 021350Z VRB03KT 9999 FEW070 25/05 Q1019 NOSIG
2026-05-02 13:20:00,METAR LSZH 021320Z VRB03KT 9999 FEW060 25/08 Q1020 NOSIG
2026-05-02 12:50:00,METAR LSZH 021250Z VRB03KT 9999 FEW060 24/08 Q1020 NOSIG
2026-05-02 12:20:00,METAR LSZH 021220Z VRB02KT 9999 FEW060 23/08 Q1021 NOSIG
2026-05-02 11:50:00,METAR LSZH 021150Z VRB03KT 9999 FEW060 23/09 Q1021 NOSIG
2026-05-02 11:20:00,METAR LSZH 021120Z VRB02KT 9999 FEW060 22/09 Q1022 NOSIG
2026-05-02 10:50:00,METAR LSZH 021050Z VRB03KT 9999 FEW060 21/09 Q1022 NOSIG
2026-05-02 10:20:00,METAR LSZH 021020Z VRB03KT 9999 FEW060 21/08 Q1022 NOSIG
2026-05-02 09:50:00,METAR LSZH 020950Z 22005KT 190V270 CAVOK 20/08 Q1023 NOSIG
2026-05-02 09:20:00,METAR LSZH 020920Z VRB03KT CAVOK 20/08 Q1023 NOSIG
2026-05-02 08:50:00,METAR LSZH 020850Z VRB02KT CAVOK 18/08 Q1023 NOSIG
2026-05-02 08:20:00,METAR LSZH 020820Z VRB02KT CAVOK 16/07 Q1024 NOSIG
2026-05-02 07:50:00,METAR LSZH 020750Z VRB02KT CAVOK 15/07 Q1024 NOSIG
2026-05-02 07:20:00,METAR LSZH 020720Z VRB01KT CAVOK 14/05 Q1024 NOSIG
2026-05-02 06:50:00,METAR LSZH 020650Z VRB01KT CAVOK 12/06 Q1024 NOSIG
2026-05-02 06:20:00,METAR LSZH 020620Z VRB02KT CAVOK 10/05 Q1024 NOSIG
2026-05-02 05:50:00,METAR LSZH 020550Z VRB01KT CAVOK 10/05 Q1024 NOSIG
2026-05-02 05:20:00,METAR LSZH 020520Z 03002KT CAVOK 08/05 Q1024 NOSIG
2026-05-02 04:50:00,METAR LSZH 020450Z 32002KT CAVOK 05/03 Q1024 NOSIG
2026-05-02 04:20:00,METAR LSZH 020420Z VRB02KT CAVOK 05/03 Q1024 NOSIG
2026-05-02 03:50:00,METAR LSZH 020350Z VRB01KT CAVOK 05/04 Q1024 NOSIG
2026-05-02 03:20:00,METAR LSZH 020320Z AUTO VRB01KT CAVOK 05/04 Q1024 NOSIG
2026-05-02 02:50:00,METAR LSZH 020250Z AUTO VRB01KT CAVOK 05/03 Q1024 NOSIG
2026-05-02 02:20:00,METAR LSZH 020220Z AUTO VRB01KT CAVOK 05/04 Q1024 NOSIG
2026-05-02 01:50:00,METAR LSZH 020150Z AUTO VRB01KT CAVOK 06/04 Q1024 NOSIG
2026-05-02 01:20:00,METAR LSZH 020120Z AUTO VRB01KT CAVOK 06/04 Q1024 NOSIG
2026-05-02 00:50:00,METAR LSZH 020050Z AUTO VRB01KT CAVOK 07/04 Q1024 NOSIG
2026-05-02 00:20:00,METAR LSZH 020020Z AUTO 32002KT CAVOK 07/03 Q1024 NOSIG
2026-05-01 23:50:00,METAR LSZH 012350Z AUTO 34002KT CAVOK 06/03 Q1024 NOSIG
2026-05-01 23:20:00,METAR LSZH 012320Z AUTO VRB01KT CAVOK 07/03 Q1024 NOSIG
2026-05-01 22:50:00,METAR LSZH 012250Z AUTO VRB01KT CAVOK 09/04 Q1024 NOSIG
2026-05-01 22:20:00,METAR LSZH 012220Z AUTO 34003KT CAVOK 09/04 Q1024 NOSIG
2026-05-01 21:50:00,METAR LSZH 012150Z AUTO 31003KT CAVOK 09/04 Q1023 NOSIG
2026-05-01 21:20:00,METAR LSZH 012120Z VRB02KT CAVOK 10/03 Q1023 NOSIG
2026-05-01 20:50:00,METAR LSZH 012050Z VRB02KT CAVOK 12/03 Q1023 NOSIG
2026-05-01 20:20:00,METAR LSZH 012020Z VRB01KT CAVOK 11/03 Q1023 NOSIG
2026-05-01 19:50:00,METAR LSZH 011950Z 02002KT CAVOK 14/03 Q1023 NOSIG
2026-05-01 19:20:00,METAR LSZH 011920Z 01003KT 320V040 CAVOK 15/03 Q1023 NOSIG
2026-05-01 18:50:00,METAR LSZH 011850Z VRB02KT CAVOK 16/02 Q1023 NOSIG
2026-05-01 18:20:00,METAR LSZH 011820Z 08004KT 050V200 CAVOK 19/01 Q1023 NOSIG
2026-05-01 17:50:00,METAR LSZH 011750Z 07004KT 020V110 CAVOK 21/M01 Q1023 NOSIG
2026-05-01 17:20:00,METAR LSZH 011720Z 04006KT 010V080 CAVOK 21/M00 Q1023 NOSIG
2026-05-01 16:50:00,METAR LSZH 011650Z 04007KT CAVOK 21/02 Q1023 NOSIG
2026-05-01 16:20:00,METAR LSZH 011620Z 04007KT 010V070 CAVOK 21/04 Q1023 NOSIG
2026-05-01 15:50:00,METAR LSZH 011550Z 04008KT CAVOK 22/05 Q1023 NOSIG
2026-05-01 15:20:00,METAR LSZH 011520Z 06005KT 350V110 CAVOK 21/05 Q1023 NOSIG
2026-05-01 14:50:00,METAR LSZH 011450Z 05007KT 020V090 CAVOK 21/05 Q1023 NOSIG
2026-05-01 14:20:00,METAR LSZH 011420Z 04007KT 360V100 CAVOK 21/05 Q1024 NOSIG
2026-05-01 13:50:00,METAR LSZH 011350Z 06006KT 360V100 CAVOK 21/06 Q1024 NOSIG
2026-05-01 13:20:00,METAR LSZH 011320Z 05006KT 350V090 CAVOK 20/05 Q1024 NOSIG
2026-05-01 12:50:00,METAR LSZH 011250Z 05004KT 010V100 CAVOK 20/06 Q1025 NOSIG
2026-05-01 12:20:00,METAR LSZH 011220Z 04005KT 350V100 CAVOK 19/04 Q1025 NOSIG
2026-05-01 11:50:00,METAR LSZH 011150Z 05008KT 010V090 CAVOK 18/04 Q1025 NOSIG
2026-05-01 11:20:00,METAR LSZH 011120Z 05005KT 010V100 CAVOK 17/03 Q1025 NOSIG
2026-05-01 10:50:00,METAR LSZH 011050Z 05004KT 310V120 CAVOK 17/03 Q1026 NOSIG
2026-05-01 10:20:00,METAR LSZH 011020Z 05005KT 360V100 CAVOK 16/02 Q1026 NOSIG
2026-05-01 09:50:00,METAR LSZH 010950Z 02004KT 320V110 CAVOK 15/M00 Q1026 NOSIG
2026-05-01 09:20:00,METAR LSZH 010920Z 36004KT 270V060 CAVOK 14/M01 Q1026 NOSIG
2026-05-01 08:50:00,METAR LSZH 010850Z 14003KT 030V190 CAVOK 13/M01 Q1026 NOSIG
2026-05-01 08:20:00,METAR LSZH 010820Z 04005KT 360V090 CAVOK 12/M02 Q1026 NOSIG
2026-05-01 07:50:00,METAR LSZH 010750Z 04004KT 340V120 CAVOK 12/M02 Q1026 NOSIG
2026-05-01 07:20:00,METAR LSZH 010720Z 04005KT 010V090 CAVOK 10/M04 Q1026 NOSIG
2026-05-01 06:50:00,METAR LSZH 010650Z VRB02KT CAVOK 09/M04 Q1026 NOSIG
2026-05-01 06:20:00,METAR LSZH 010620Z 32003KT CAVOK 08/M03 Q1026 NOSIG
2026-05-01 05:50:00,METAR LSZH 010550Z VRB02KT CAVOK 07/M02 Q1026 NOSIG
2026-05-01 05:20:00,METAR LSZH 010520Z 01003KT 330V030 CAVOK 04/M01 Q1026 NOSIG
2026-05-01 04:50:00,METAR LSZH 010450Z VRB01KT CAVOK 02/M03 Q1025 NOSIG
2026-05-01 04:20:00,METAR LSZH 010420Z 02002KT CAVOK 02/M04 Q1025 NOSIG
2026-05-01 03:50:00,METAR LSZH 010350Z VRB02KT CAVOK 03/M03 Q1025 NOSIG
2026-05-01 03:20:00,METAR LSZH 010320Z AUTO VRB03KT CAVOK 02/M04 Q1025 NOSIG
2026-05-01 02:50:00,METAR LSZH 010250Z AUTO 32005KT 300V030 CAVOK 03/M04 Q1025 NOSIG
2026-05-01 02:20:00,METAR LSZH 010220Z AUTO 29002KT CAVOK 04/M04 Q1025 NOSIG
2026-05-01 01:50:00,METAR LSZH 010150Z AUTO 33005KT CAVOK 03/M03 Q1025 NOSIG
2026-05-01 01:20:00,METAR LSZH 010120Z AUTO 32004KT CAVOK 03/M04 Q1025 NOSIG
2026-05-01 00:50:00,METAR LSZH 010050Z AUTO 32006KT CAVOK 04/M04 Q1025
2026-05-01 00:20:00,METAR LSZH 010020Z AUTO 31006KT CAVOK 04/M04 Q1025
2026-04-30 23:50:00,METAR LSZH 302350Z AUTO 35003KT 310V050 CAVOK 07/M05 Q1025
2026-04-30 23:20:00,METAR LSZH 302320Z AUTO 34007KT CAVOK 07/M05 Q1025
2026-04-30 22:50:00,METAR LSZH 302250Z AUTO 31008KT CAVOK 07/M05 Q1024
2026-04-30 22:20:00,METAR LSZH 302220Z AUTO 30008KT CAVOK 08/M05 Q1024
2026-04-30 21:50:00,METAR LSZH 302150Z AUTO 32007KT CAVOK 09/M06 Q1024
2026-04-30 21:20:00,METAR LSZH 302120Z VRB02KT CAVOK 11/M06 Q1024 NOSIG
2026-04-30 20:50:00,METAR LSZH 302050Z 04008KT 010V090 CAVOK 13/M07 Q1024 NOSIG
2026-04-30 20:20:00,METAR LSZH 302020Z 05008KT CAVOK 13/M07 Q1024 NOSIG
2026-04-30 19:50:00,METAR LSZH 301950Z 05008KT CAVOK 13/M07 Q1023 NOSIG
2026-04-30 19:20:00,METAR LSZH 301920Z 05009KT 010V070 CAVOK 14/M07 Q1023 NOSIG
2026-04-30 18:50:00,METAR LSZH 301850Z 04007KT 010V090 CAVOK 15/M07 Q1023 NOSIG
2026-04-30 18:20:00,METAR LSZH 301820Z 05007KT 010V090 CAVOK 15/M06 Q1023 NOSIG
2026-04-30 17:50:00,METAR LSZH 301750Z 05008KT CAVOK 16/M06 Q1023 NOSIG
2026-04-30 17:20:00,METAR LSZH 301720Z 05009G21KT 030V090 CAVOK 17/M05 Q1022 NOSIG
2026-04-30 16:50:00,METAR LSZH 301650Z 04013KT CAVOK 17/M04 Q1022 NOSIG
2026-04-30 16:20:00,METAR LSZH 301620Z 05009KT 020V100 CAVOK 18/M03 Q1022 NOSIG
2026-04-30 14:50:00,METAR LSZH 301450Z 06011KT 030V110 CAVOK 17/M02 Q1022 NOSIG
2026-04-30 14:20:00,METAR LSZH 301420Z 06010KT 010V090 CAVOK 18/00 Q1022 NOSIG
2026-04-30 13:50:00,METAR LSZH 301350Z 06011KT 010V110 CAVOK 18/M00 Q1022 NOSIG
2026-04-30 13:20:00,METAR LSZH 301320Z 03010KT 360V080 CAVOK 17/M01 Q1022 NOSIG
2026-04-30 12:50:00,METAR LSZH 301250Z 04013KT 010V080 CAVOK 17/M01 Q1022 NOSIG
2026-04-30 12:20:00,METAR LSZH 301220Z 06011KT 030V090 CAVOK 17/00 Q1022 NOSIG
2026-04-30 11:50:00,METAR LSZH 301150Z 05011KT 020V080 CAVOK 17/M00 Q1022 NOSIG
2026-04-30 11:20:00,METAR LSZH 301120Z 05013KT CAVOK 15/M00 Q1023 NOSIG
2026-04-30 10:50:00,METAR LSZH 301050Z 05011KT CAVOK 15/01 Q1023 NOSIG
2026-04-30 10:20:00,METAR LSZH 301020Z 04009KT 010V090 CAVOK 14/M00 Q1023 NOSIG
2026-04-30 09:50:00,METAR LSZH 300950Z 05008KT 010V100 CAVOK 14/M00 Q1023 NOSIG
2026-04-30 09:20:00,METAR LSZH 300920Z 06008KT 020V110 CAVOK 13/M00 Q1023 NOSIG
2026-04-30 08:50:00,METAR LSZH 300850Z 04010KT 010V080 CAVOK 12/M01 Q1023 NOSIG
2026-04-30 08:20:00,METAR LSZH 300820Z 05012KT 030V090 CAVOK 10/M01 Q1023 NOSIG
2026-04-30 07:50:00,METAR LSZH 300750Z 05009KT 350V110 CAVOK 10/M01 Q1023 NOSIG
2026-04-30 07:20:00,METAR LSZH 300720Z 03009KT 340V080 CAVOK 09/M02 Q1024 NOSIG
2026-04-30 06:50:00,METAR LSZH 300650Z 03007KT 340V090 CAVOK 08/M02 Q1023 NOSIG
2026-04-30 06:20:00,METAR LSZH 300620Z 02007KT 360V060 CAVOK 08/M02 Q1023 NOSIG
2026-04-30 05:50:00,METAR LSZH 300550Z 02007KT 350V050 CAVOK 07/M03 Q1023 NOSIG
2026-04-30 05:20:00,METAR LSZH 300520Z 36007KT CAVOK 06/M03 Q1023 NOSIG
2026-04-30 04:50:00,METAR LSZH 300450Z 01006KT CAVOK 06/M03 Q1023 NOSIG
2026-04-30 04:20:00,METAR LSZH 300420Z 36008KT CAVOK 06/M03 Q1023 NOSIG
2026-04-30 03:50:00,METAR LSZH 300350Z 33007KT CAVOK 05/M03 Q1022 NOSIG
2026-04-30 03:20:00,METAR LSZH 300320Z AUTO 32003KT 280V020 CAVOK 07/M03 Q1022 NOSIG
2026-04-30 02:50:00,METAR LSZH 300250Z AUTO 04006KT 350V080 CAVOK 08/M04 Q1022 NOSIG
2026-04-30 02:20:00,METAR LSZH 300220Z AUTO 06005KT 360V150 CAVOK 09/M04 Q1022 NOSIG
2026-04-30 01:50:00,METAR LSZH 300150Z AUTO VRB04KT CAVOK 09/M04 Q1022 NOSIG
2026-04-30 01:20:00,METAR LSZH 300120Z AUTO VRB03KT CAVOK 10/M03 Q1022 NOSIG
2026-04-30 00:50:00,METAR LSZH 300050Z AUTO 03007KT 280V080 CAVOK 11/M03 Q1022 NOSIG
2026-04-30 00:20:00,METAR LSZH 300020Z AUTO 04008KT 010V070 CAVOK 11/M03 Q1021 NOSIG
2026-04-29 23:50:00,METAR LSZH 292350Z AUTO 04009KT CAVOK 11/M03 Q1021 NOSIG
2026-04-29 23:20:00,METAR LSZH 292320Z AUTO 04010KT 360V070 CAVOK 11/M02 Q1021 NOSIG
2026-04-29 22:50:00,METAR LSZH 292250Z AUTO 06006KT 350V110 CAVOK 12/M02 Q1021 NOSIG
2026-04-29 22:20:00,METAR LSZH 292220Z AUTO VRB06KT CAVOK 13/M02 Q1021 NOSIG
2026-04-29 21:50:00,METAR LSZH 292150Z AUTO VRB04KT CAVOK 13/M01 Q1021 NOSIG
2026-04-29 21:20:00,METAR LSZH 292120Z 06004KT 340V130 CAVOK 13/M00 Q1021 NOSIG
2026-04-29 20:50:00,METAR LSZH 292050Z 36003KT 320V040 CAVOK 14/M00 Q1021 NOSIG
2026-04-29 20:20:00,METAR LSZH 292020Z 07006KT 020V110 CAVOK 15/M01 Q1021 NOSIG
2026-04-29 19:50:00,METAR LSZH 291950Z 06006KT 030V110 CAVOK 15/M01 Q1020 NOSIG
2026-04-29 19:20:00,METAR LSZH 291920Z 06007KT 040V120 CAVOK 15/M00 Q1020 NOSIG
2026-04-29 18:50:00,METAR LSZH 291850Z 06009KT CAVOK 16/M01 Q1019 NOSIG
2026-04-29 18:20:00,METAR LSZH 291820Z 07010KT CAVOK 17/M01 Q1019 NOSIG
2026-04-29 17:50:00,METAR LSZH 291750Z 06011KT CAVOK 18/M01 Q1019 NOSIG
2026-04-29 17:20:00,METAR LSZH 291720Z 06010KT 030V090 CAVOK 18/M00 Q1019 NOSIG
2026-04-29 16:50:00,METAR LSZH 291650Z 05011KT 020V080 CAVOK 19/M00 Q1019 NOSIG
2026-04-29 16:20:00,METAR LSZH 291620Z 05014KT CAVOK 19/01 Q1019 NOSIG
2026-04-29 15:50:00,METAR LSZH 291550Z 05014KT CAVOK 19/02 Q1018 NOSIG
2026-04-29 15:20:00,METAR LSZH 291520Z 04015KT 9999 FEW069 19/03 Q1018 NOSIG
2026-04-29 14:50:00,METAR LSZH 291450Z 04012KT CAVOK 20/03 Q1018 NOSIG
2026-04-29 14:20:00,METAR LSZH 291420Z 08011KT 030V110 9999 FEW060 19/04 Q1018 NOSIG
2026-04-29 13:50:00,METAR LSZH 291350Z 04012KT 010V080 9999 FEW058 20/05 Q1018 NOSIG
2026-04-29 13:20:00,METAR LSZH 291320Z 05008KT 020V080 9999 FEW052 19/05 Q1018 NOSIG
2026-04-29 12:50:00,METAR LSZH 291250Z 07009KT 020V110 9999 FEW048 19/06 Q1019 NOSIG
2026-04-29 12:20:00,METAR LSZH 291220Z 06011KT 030V090 9999 FEW045 18/06 Q1019 NOSIG
2026-04-29 11:50:00,METAR LSZH 291150Z 06008KT 040V100 CAVOK 18/06 Q1019 NOSIG
2026-04-29 11:20:00,METAR LSZH 291120Z 06009KT 020V100 CAVOK 17/06 Q1019 NOSIG
2026-04-29 10:50:00,METAR LSZH 291050Z 06008KT 020V090 CAVOK 16/06 Q1019 NOSIG
2026-04-29 10:20:00,METAR LSZH 291020Z VRB04KT CAVOK 15/05 Q1019 NOSIG
2026-04-29 09:50:00,METAR LSZH 290950Z 06006KT 350V130 CAVOK 15/05 Q1019 NOSIG
2026-04-29 09:20:00,METAR LSZH 290920Z 05005KT 360V120 CAVOK 15/05 Q1019 NOSIG
2026-04-29 08:50:00,METAR LSZH 290850Z 03007KT 350V100 9999 VCSH FEW070 14/04 Q1019 NOSIG
2026-04-29 08:20:00,METAR LSZH 290820Z 36004KT 300V090 9999 -SHRA FEW048 SCT072 12/04 Q1019 NOSIG
2026-04-29 07:50:00,METAR LSZH 290750Z VRB03KT 9999 -SHRA FEW062 BKN075 12/04 Q1019 NOSIG
2026-04-29 07:20:00,METAR LSZH 290720Z 35004KT 9999 -SHRA FEW068 SCT075 12/04 Q1019 NOSIG
2026-04-29 06:50:00,METAR LSZH 290650Z 35005KT 9999 VCSH FEW068 12/03 Q1019 NOSIG
2026-04-29 06:20:00,METAR LSZH 290620Z 03003KT 360V070 9999 VCSH FEW068 13/03 Q1018 NOSIG
2026-04-29 05:50:00,METAR LSZH 290550Z VRB01KT 9999 FEW075 12/04 Q1018 NOSIG
2026-04-29 05:20:00,METAR LSZH 290520Z 32003KT 9999 FEW070 BKN075 12/05 Q1018 NOSIG
2026-04-29 04:50:00,METAR LSZH 290450Z VRB02KT 9999 FEW050 SCT075 12/04 Q1018 NOSIG
2026-04-29 04:20:00,METAR LSZH 290420Z 02004KT 9999 VCSH SCT070 12/04 Q1018 NOSIG
2026-04-29 03:50:00,METAR LSZH 290350Z 02005KT 9999 -RA BKN075 12/05 Q1017 NOSIG
2026-04-29 03:20:00,METAR LSZH 290320Z AUTO 02002KT 9999 -RA FEW059 BKN071 11/09 Q1017 NOSIG
2026-04-29 02:50:00,METAR LSZH 290250Z AUTO VRB01KT 9999 -RA SCT070 BKN079 11/09 Q1017 NOSIG
2026-04-29 02:20:00,METAR LSZH 290220Z AUTO VRB01KT 9999 -RA BKN075 12/09 Q1017 NOSIG
2026-04-29 01:50:00,METAR LSZH 290150Z AUTO VRB01KT 9999 BKN069 12/09 Q1017 NOSIG
2026-04-29 01:20:00,METAR LSZH 290120Z AUTO 30005KT 9999 NSC 11/10 Q1016 NOSIG
2026-04-29 00:50:00,METAR LSZH 290050Z AUTO 33003KT 9999 NSC 11/09 Q1016 NOSIG
2026-04-29 00:20:00,METAR LSZH 290020Z AUTO 03001KT 9999 FEW070 12/09 Q1016 NOSIG
2026-04-28 23:50:00,METAR LSZH 282350Z AUTO VRB01KT 9999 FEW070 12/09 Q1017 NOSIG
2026-04-28 23:20:00,METAR LSZH 282320Z AUTO 30002KT 9999 NSC 12/09 Q1017 NOSIG
2026-04-28 22:50:00,METAR LSZH 282250Z AUTO VRB02KT 9999 NSC 12/09 Q1017 NOSIG
2026-04-28 22:20:00,METAR LSZH 282220Z AUTO 04002KT 9999 FEW071 13/09 Q1017 NOSIG
2026-04-28 21:50:00,METAR LSZH 282150Z AUTO 07004KT 040V110 9999 FEW048 SCT070 14/09 Q1017 NOSIG
2026-04-28 21:20:00,METAR LSZH 282120Z 15007KT 9999 FEW075 14/09 Q1017 NOSIG
2026-04-28 20:50:00,METAR LSZH 282050Z 15009KT CAVOK 14/09 Q1017 NOSIG
2026-04-28 20:20:00,METAR LSZH 282020Z 14010KT CAVOK 14/09 Q1017 NOSIG
2026-04-28 19:50:00,METAR LSZH 281950Z 14010KT CAVOK 14/09 Q1017 NOSIG
2026-04-28 19:20:00,METAR LSZH 281920Z 14010KT 9999 FEW060 15/09 Q1016 NOSIG
2026-04-28 18:50:00,METAR LSZH 281850Z 13008KT 9999 FEW060 15/09 Q1016 NOSIG
2026-04-28 18:20:00,METAR LSZH 281820Z 17009KT 9999 FEW075 16/09 Q1016 NOSIG
2026-04-28 17:50:00,METAR LSZH 281750Z 19009KT 9999 FEW070 17/08 Q1016 NOSIG
2026-04-28 17:20:00,METAR LSZH 281720Z 22007KT 9999 FEW055 17/08 Q1016 NOSIG
2026-04-28 16:50:00,METAR LSZH 281650Z 19007KT 150V240 9999 FEW065 18/07 Q1016 NOSIG
2026-04-28 16:20:00,METAR LSZH 281620Z VRB02KT 9999 FEW060 BKN075 20/05 Q1015 NOSIG
2026-04-28 15:50:00,METAR LSZH 281550Z VRB02KT 9999 FEW070 20/05 Q1015 NOSIG
2026-04-28 15:20:00,METAR LSZH 281520Z VRB03KT 9999 FEW070 20/06 Q1015 NOSIG
2026-04-28 14:50:00,METAR LSZH 281450Z 34003KT 320V020 9999 FEW075 20/06 Q1015 NOSIG
2026-04-28 14:20:00,METAR LSZH 281420Z 02004KT 330V100 9999 FEW075 20/06 Q1015 NOSIG
2026-04-28 13:50:00,METAR LSZH 281350Z 02006KT 9999 FEW060 20/07 Q1015 NOSIG
2026-04-28 13:20:00,METAR LSZH 281320Z 02007KT 350V060 9999 FEW075 20/06 Q1015 NOSIG
2026-04-28 12:50:00,METAR LSZH 281250Z 06008KT 9999 FEW050 19/05 Q1015 NOSIG
2026-04-28 12:20:00,METAR LSZH 281220Z 04008KT 9999 FEW065 19/06 Q1016 NOSIG
2026-04-28 11:50:00,METAR LSZH 281150Z 04008KT 020V080 9999 FEW055 19/05 Q1016 NOSIG
2026-04-28 11:20:00,METAR LSZH 281120Z 04009KT 9999 FEW060 19/05 Q1016 NOSIG
2026-04-28 10:50:00,METAR LSZH 281050Z 04007KT 010V080 9999 FEW060 19/06 Q1016 NOSIG
2026-04-28 10:20:00,METAR LSZH 281020Z 05009KT 9999 FEW060 17/05 Q1016 NOSIG
2026-04-28 09:50:00,METAR LSZH 280950Z 03009KT 360V060 CAVOK 17/04 Q1016 NOSIG
2026-04-28 09:20:00,METAR LSZH 280920Z 06004KT 350V160 CAVOK 17/05 Q1016 NOSIG
2026-04-28 08:50:00,METAR LSZH 280850Z 04004KT 340V090 CAVOK 16/04 Q1016 NOSIG
2026-04-28 08:20:00,METAR LSZH 280820Z 05005KT 350V090 9999 FEW060 15/04 Q1016 NOSIG
2026-04-28 07:50:00,METAR LSZH 280750Z VRB03KT CAVOK 14/05 Q1016 NOSIG
2026-04-28 07:20:00,METAR LSZH 280720Z VRB03KT CAVOK 12/05 Q1016 NOSIG
2026-04-28 06:50:00,METAR LSZH 280650Z 32003KT CAVOK 11/05 Q1016 NOSIG
2026-04-28 06:20:00,METAR LSZH 280620Z VRB01KT CAVOK 10/03 Q1016 NOSIG
2026-04-28 05:50:00,METAR LSZH 280550Z VRB02KT CAVOK 08/05 Q1016 NOSIG
2026-04-28 05:20:00,METAR LSZH 280520Z VRB01KT CAVOK 07/04 Q1016 NOSIG
2026-04-28 04:50:00,METAR LSZH 280450Z VRB01KT CAVOK 07/04 Q1016 NOSIG
2026-04-28 04:20:00,METAR LSZH 280420Z VRB02KT CAVOK 06/03 Q1016 NOSIG
2026-04-28 03:50:00,METAR LSZH 280350Z 36002KT CAVOK 07/04 Q1016 NOSIG
2026-04-28 03:20:00,METAR LSZH 280320Z AUTO 04001KT CAVOK 07/03 Q1016 NOSIG
2026-04-28 02:50:00,METAR LSZH 280250Z AUTO 05002KT CAVOK 08/04 Q1016 NOSIG
2026-04-28 02:20:00,METAR LSZH 280220Z AUTO VRB02KT CAVOK 07/03 Q1017 NOSIG
2026-04-28 01:50:00,METAR LSZH 280150Z AUTO 03001KT CAVOK 08/03 Q1017 NOSIG
2026-04-28 01:20:00,METAR LSZH 280120Z AUTO VRB03KT CAVOK 07/04 Q1017 NOSIG
2026-04-28 00:50:00,METAR LSZH 280050Z AUTO 34003KT CAVOK 09/04 Q1017 NOSIG
2026-04-28 00:20:00,METAR LSZH 280020Z AUTO 01002KT CAVOK 09/04 Q1017 NOSIG
2026-04-27 23:50:00,METAR LSZH 272350Z AUTO 34005KT CAVOK 10/04 Q1017 NOSIG
2026-04-27 23:20:00,METAR LSZH 272320Z AUTO 31003KT CAVOK 11/04 Q1017 NOSIG
2026-04-27 22:50:00,METAR LSZH 272250Z AUTO VRB02KT CAVOK 12/04 Q1017 NOSIG
2026-04-27 22:20:00,METAR LSZH 272220Z AUTO 36005KT 330V050 CAVOK 12/04 Q1017 NOSIG
2026-04-27 21:50:00,METAR LSZH 272150Z AUTO 33007KT CAVOK 12/04 Q1017 NOSIG
2026-04-27 21:20:00,METAR LSZH 272120Z 36004KT 330V030 CAVOK 12/05 Q1017 NOSIG
2026-04-27 20:50:00,METAR LSZH 272050Z 35005KT 320V090 CAVOK 13/05 Q1017 NOSIG
2026-04-27 20:20:00,METAR LSZH 272020Z 32005KT CAVOK 11/05 Q1017 NOSIG
2026-04-27 19:50:00,METAR LSZH 271950Z VRB02KT CAVOK 14/04 Q1017 NOSIG
2026-04-27 19:20:00,METAR LSZH 271920Z VRB03KT CAVOK 17/03 Q1017 NOSIG
2026-04-27 18:50:00,METAR LSZH 271850Z VRB03KT CAVOK 17/03 Q1017 NOSIG
2026-04-27 18:20:00,METAR LSZH 271820Z 10003KT CAVOK 19/03 Q1017 NOSIG
2026-04-27 17:50:00,METAR LSZH 271750Z 10004KT CAVOK 20/03 Q1017 NOSIG
2026-04-27 17:20:00,METAR LSZH 271720Z 09005KT CAVOK 20/03 Q1017 NOSIG
2026-04-27 16:50:00,METAR LSZH 271650Z 07006KT CAVOK 21/02 Q1017 NOSIG
2026-04-27 16:20:00,METAR LSZH 271620Z 10007KT CAVOK 21/02 Q1017 NOSIG
2026-04-27 15:50:00,METAR LSZH 271550Z 10007KT CAVOK 21/02 Q1017 NOSIG
2026-04-27 15:20:00,METAR LSZH 271520Z 09007KT 030V120 CAVOK 22/02 Q1018 NOSIG
2026-04-27 14:50:00,METAR LSZH 271450Z 09007KT CAVOK 22/01 Q1018 NOSIG
2026-04-27 14:20:00,METAR LSZH 271420Z 06006KT 020V130 CAVOK 22/M00 Q1018 NOSIG
2026-04-27 13:50:00,METAR LSZH 271350Z 06005KT 340V130 CAVOK 22/04 Q1018 NOSIG
2026-04-27 13:20:00,METAR LSZH 271320Z 07006KT 360V140 CAVOK 22/02 Q1019 NOSIG
2026-04-27 12:50:00,METAR LSZH 271250Z 05006KT 360V110 CAVOK 21/03 Q1019 NOSIG
2026-04-27 12:20:00,METAR LSZH 271220Z 08007KT 040V150 CAVOK 21/04 Q1019 NOSIG
2026-04-27 11:50:00,METAR LSZH 271150Z 09007KT 050V130 CAVOK 20/04 Q1019 NOSIG
2026-04-27 11:20:00,METAR LSZH 271120Z 06008KT 020V090 CAVOK 20/04 Q1020 NOSIG
2026-04-27 10:50:00,METAR LSZH 271050Z 05008KT CAVOK 19/03 Q1020 NOSIG
2026-04-27 10:20:00,METAR LSZH 271020Z 05004KT 010V100 CAVOK 19/04 Q1020 NOSIG
2026-04-27 09:50:00,METAR LSZH 270950Z VRB03KT CAVOK 18/05 Q1021 NOSIG
2026-04-27 09:20:00,METAR LSZH 270920Z 04005KT 360V080 CAVOK 17/04 Q1021 NOSIG
2026-04-27 08:50:00,METAR LSZH 270850Z 04006KT 360V070 CAVOK 16/03 Q1021 NOSIG
2026-04-27 08:20:00,METAR LSZH 270820Z VRB03KT CAVOK 15/03 Q1021 NOSIG
2026-04-27 07:50:00,METAR LSZH 270750Z VRB02KT CAVOK 13/05 Q1022 NOSIG
2026-04-27 07:20:00,METAR LSZH 270720Z VRB02KT CAVOK 12/04 Q1022 NOSIG
2026-04-27 06:50:00,METAR LSZH 270650Z VRB02KT CAVOK 11/04 Q1022 NOSIG
2026-04-27 06:20:00,METAR LSZH 270620Z VRB01KT CAVOK 09/03 Q1022 NOSIG
2026-04-27 05:50:00,METAR LSZH 270550Z 29001KT CAVOK 07/02 Q1022 NOSIG
2026-04-27 05:20:00,METAR LSZH 270520Z 00000KT CAVOK 05/02 Q1021 NOSIG
2026-04-27 04:50:00,METAR LSZH 270450Z 00000KT CAVOK 03/01 Q1021 NOSIG
2026-04-27 04:20:00,METAR LSZH 270420Z VRB02KT CAVOK 05/02 Q1021 NOSIG
2026-04-27 03:50:00,METAR LSZH 270350Z VRB01KT CAVOK 05/02 Q1021 NOSIG
2026-04-27 03:20:00,METAR LSZH 270320Z AUTO VRB02KT CAVOK 06/02 Q1021 NOSIG
2026-04-27 02:50:00,METAR LSZH 270250Z AUTO VRB02KT CAVOK 06/01 Q1021 NOSIG
2026-04-27 02:20:00,METAR LSZH 270220Z AUTO VRB02KT CAVOK 05/01 Q1021 NOSIG
2026-04-27 01:50:00,METAR LSZH 270150Z AUTO VRB04KT CAVOK 05/01 Q1021 NOSIG
2026-04-27 01:20:00,METAR LSZH 270120Z AUTO VRB01KT CAVOK 05/01 Q1021 NOSIG
2026-04-27 00:50:00,METAR LSZH 270050Z AUTO VRB02KT CAVOK 05/01 Q1021 NOSIG
2026-04-27 00:20:00,METAR LSZH 270020Z AUTO 36004KT CAVOK 07/02 Q1022 NOSIG
2026-04-26 23:50:00,METAR LSZH 262350Z AUTO 33004KT CAVOK 07/00 Q1022 NOSIG
2026-04-26 23:20:00,METAR LSZH 262320Z AUTO 33003KT CAVOK 07/00 Q1022 NOSIG
2026-04-26 22:50:00,METAR LSZH 262250Z AUTO VRB02KT CAVOK 07/00 Q1021 NOSIG
2026-04-26 22:20:00,METAR LSZH 262220Z AUTO 35006KT CAVOK 10/M00 Q1021 NOSIG
2026-04-26 21:50:00,METAR LSZH 262150Z AUTO 32006KT CAVOK 06/01 Q1021 NOSIG
2026-04-26 21:20:00,METAR LSZH 262120Z VRB03KT CAVOK 06/01 Q1021 NOSIG
2026-04-26 20:50:00,METAR LSZH 262050Z VRB02KT CAVOK 09/00 Q1021 NOSIG
2026-04-26 20:20:00,METAR LSZH 262020Z VRB02KT CAVOK 09/01 Q1021 NOSIG
2026-04-26 19:50:00,METAR LSZH 261950Z 36003KT CAVOK 09/01 Q1021 NOSIG
2026-04-26 19:20:00,METAR LSZH 261920Z 06004KT 030V160 CAVOK 14/00 Q1020 NOSIG
2026-04-26 18:50:00,METAR LSZH 261850Z 07004KT 060V130 CAVOK 16/M01 Q1020 NOSIG
2026-04-26 18:20:00,METAR LSZH 261820Z 08006KT 060V150 CAVOK 18/M02 Q1020 NOSIG
2026-04-26 17:50:00,METAR LSZH 261750Z 08006KT CAVOK 19/M02 Q1020 NOSIG
2026-04-26 17:20:00,METAR LSZH 261720Z 07006KT 030V110 CAVOK 19/M02 Q1020 NOSIG
2026-04-26 16:50:00,METAR LSZH 261650Z 06007KT CAVOK 20/M02 Q1020 NOSIG
2026-04-26 16:20:00,METAR LSZH 261620Z 08008KT 040V100 CAVOK 21/00 Q1020 NOSIG
2026-04-26 15:50:00,METAR LSZH 261550Z 07006KT 020V130 CAVOK 21/01 Q1020 NOSIG
2026-04-26 15:20:00,METAR LSZH 261520Z 11007KT 080V140 CAVOK 21/01 Q1020 NOSIG
2026-04-26 14:50:00,METAR LSZH 261450Z 10006KT CAVOK 20/01 Q1020 NOSIG
2026-04-26 14:20:00,METAR LSZH 261420Z 09005KT 030V150 CAVOK 20/01 Q1020 NOSIG
2026-04-26 13:50:00,METAR LSZH 261350Z 06007KT 360V110 CAVOK 21/02 Q1020 NOSIG
2026-04-26 13:20:00,METAR LSZH 261320Z 07008KT 040V120 CAVOK 20/00 Q1021 NOSIG
2026-04-26 12:50:00,METAR LSZH 261250Z 06008KT CAVOK 19/00 Q1021 NOSIG
2026-04-26 12:20:00,METAR LSZH 261220Z 05009KT 020V090 CAVOK 19/01 Q1021 NOSIG
2026-04-26 11:50:00,METAR LSZH 261150Z 05006KT 360V100 CAVOK 19/02 Q1021 NOSIG
2026-04-26 11:20:00,METAR LSZH 261120Z 05010KT 010V080 CAVOK 19/M00 Q1021 NOSIG
2026-04-26 10:50:00,METAR LSZH 261050Z 06009KT 020V100 CAVOK 18/01 Q1022 NOSIG
2026-04-26 10:20:00,METAR LSZH 261020Z 06008KT 020V090 CAVOK 18/00 Q1022 NOSIG
2026-04-26 09:50:00,METAR LSZH 260950Z 05007KT 010V090 CAVOK 18/02 Q1022 NOSIG
2026-04-26 09:20:00,METAR LSZH 260920Z 06007KT 030V100 CAVOK 17/02 Q1022 NOSIG
2026-04-26 08:50:00,METAR LSZH 260850Z 04009KT 010V070 CAVOK 16/01 Q1022 NOSIG
2026-04-26 08:20:00,METAR LSZH 260820Z 03009KT 360V070 CAVOK 15/M00 Q1022 NOSIG
2026-04-26 07:50:00,METAR LSZH 260750Z 02005KT 320V060 CAVOK 14/01 Q1022 NOSIG
2026-04-26 07:20:00,METAR LSZH 260720Z 34005KT 300V020 CAVOK 13/02 Q1022 NOSIG
2026-04-26 06:50:00,METAR LSZH 260650Z 34003KT CAVOK 11/04 Q1022 NOSIG
2026-04-26 06:20:00,METAR LSZH 260620Z VRB01KT CAVOK 09/04 Q1022 NOSIG
2026-04-26 05:50:00,METAR LSZH 260550Z 27002KT CAVOK 06/03 Q1022 NOSIG
2026-04-26 05:20:00,METAR LSZH 260520Z 32003KT CAVOK 03/02 Q1022 NOSIG
2026-04-26 04:50:00,METAR LSZH 260450Z VRB01KT CAVOK 02/01 Q1021 NOSIG
2026-04-26 04:20:00,METAR LSZH 260420Z VRB01KT CAVOK 03/02 Q1021 NOSIG
2026-04-26 03:50:00,METAR LSZH 260350Z VRB01KT CAVOK 04/02 Q1021 NOSIG
2026-04-26 03:20:00,METAR LSZH 260320Z AUTO VRB02KT CAVOK 04/01 Q1021 NOSIG
2026-04-26 02:50:00,METAR LSZH 260250Z AUTO 34001KT CAVOK 04/02 Q1021 NOSIG
2026-04-26 02:20:00,METAR LSZH 260220Z AUTO 32002KT CAVOK 05/02 Q1020 NOSIG
2026-04-26 01:50:00,METAR LSZH 260150Z AUTO 31003KT CAVOK 03/01 Q1020 NOSIG
2026-04-26 01:20:00,METAR LSZH 260120Z AUTO 30003KT CAVOK 05/02 Q1020 NOSIG
2026-04-26 00:50:00,METAR LSZH 260050Z AUTO 32002KT CAVOK 05/01 Q1020 NOSIG
2026-04-26 00:20:00,METAR LSZH 260020Z AUTO 30002KT CAVOK 05/02 Q1020 NOSIG
2026-04-25 23:50:00,METAR LSZH 252350Z AUTO VRB01KT CAVOK 07/02 Q1020 NOSIG
2026-04-25 23:20:00,METAR LSZH 252320Z AUTO 02002KT CAVOK 08/02 Q1020 NOSIG
2026-04-25 22:50:00,METAR LSZH 252250Z AUTO VRB01KT CAVOK 08/02 Q1020 NOSIG
2026-04-25 22:20:00,METAR LSZH 252220Z AUTO VRB01KT CAVOK 08/02 Q1020 NOSIG
2026-04-25 21:50:00,METAR LSZH 252150Z AUTO VRB01KT CAVOK 10/02 Q1020 NOSIG
2026-04-25 21:20:00,METAR LSZH 252120Z VRB02KT CAVOK 10/02 Q1019 NOSIG
2026-04-25 20:50:00,METAR LSZH 252050Z VRB01KT CAVOK 10/02 Q1019 NOSIG
2026-04-25 20:20:00,METAR LSZH 252020Z VRB02KT CAVOK 11/01 Q1019 NOSIG
2026-04-25 19:50:00,METAR LSZH 251950Z 01005KT CAVOK 13/02 Q1018 NOSIG
2026-04-25 19:20:00,METAR LSZH 251920Z 01005KT CAVOK 15/02 Q1018 NOSIG
2026-04-25 18:50:00,METAR LSZH 251850Z 34007KT CAVOK 14/03 Q1017 NOSIG
2026-04-25 18:20:00,METAR LSZH 251820Z 33008KT CAVOK 15/04 Q1017 NOSIG
2026-04-25 17:50:00,METAR LSZH 251750Z 30007KT CAVOK 18/03 Q1017 NOSIG
2026-04-25 17:20:00,METAR LSZH 251720Z 29007KT CAVOK 20/01 Q1016 NOSIG
2026-04-25 16:50:00,METAR LSZH 251650Z 29009KT CAVOK 21/M02 Q1016 NOSIG
2026-04-25 16:20:00,METAR LSZH 251620Z 29008KT CAVOK 22/M03 Q1016 NOSIG
2026-04-25 15:50:00,METAR LSZH 251550Z 29011KT CAVOK 22/M01 Q1016 NOSIG
2026-04-25 15:20:00,METAR LSZH 251520Z 29009KT CAVOK 22/01 Q1016 NOSIG
2026-04-25 14:50:00,METAR LSZH 251450Z 30011KT CAVOK 22/01 Q1016 NOSIG
2026-04-25 14:20:00,METAR LSZH 251420Z 29011KT CAVOK 23/00 Q1017 NOSIG
2026-04-25 13:50:00,METAR LSZH 251350Z 28009KT CAVOK 23/01 Q1017 NOSIG
2026-04-25 13:20:00,METAR LSZH 251320Z 27006KT 230V320 CAVOK 22/02 Q1017 NOSIG
2026-04-25 12:50:00,METAR LSZH 251250Z 28006KT 230V350 CAVOK 22/01 Q1017 NOSIG
2026-04-25 12:20:00,METAR LSZH 251220Z VRB02KT CAVOK 22/02 Q1017 NOSIG
2026-04-25 11:50:00,METAR LSZH 251150Z VRB02KT CAVOK 21/02 Q1017 NOSIG
2026-04-25 11:20:00,METAR LSZH 251120Z 19003KT 120V240 CAVOK 20/02 Q1018 NOSIG
2026-04-25 10:50:00,METAR LSZH 251050Z 24004KT 170V300 CAVOK 20/01 Q1018 NOSIG
2026-04-25 10:20:00,METAR LSZH 251020Z VRB02KT CAVOK 18/03 Q1018 NOSIG
2026-04-25 09:50:00,METAR LSZH 250950Z VRB02KT CAVOK 18/04 Q1018 NOSIG
2026-04-25 09:20:00,METAR LSZH 250920Z VRB02KT CAVOK 16/03 Q1019 NOSIG
2026-04-25 08:50:00,METAR LSZH 250850Z 05003KT 340V080 CAVOK 15/02 Q1019 NOSIG
2026-04-25 08:20:00,METAR LSZH 250820Z VRB02KT CAVOK 14/03 Q1019 NOSIG
2026-04-25 07:50:00,METAR LSZH 250750Z VRB02KT CAVOK 13/03 Q1019 NOSIG
2026-04-25 07:20:00,METAR LSZH 250720Z VRB01KT CAVOK 12/03 Q1019 NOSIG
2026-04-25 06:50:00,METAR LSZH 250650Z VRB01KT CAVOK 11/03 Q1019 NOSIG
2026-04-25 06:20:00,METAR LSZH 250620Z VRB01KT CAVOK 08/03 Q1019 NOSIG
2026-04-25 05:50:00,METAR LSZH 250550Z VRB01KT CAVOK 06/03 Q1019 NOSIG
2026-04-25 05:20:00,METAR LSZH 250520Z VRB01KT CAVOK 04/02 Q1019 NOSIG
2026-04-25 04:50:00,METAR LSZH 250450Z VRB02KT CAVOK 03/01 Q1019 NOSIG
2026-04-25 04:20:00,METAR LSZH 250420Z VRB01KT CAVOK 03/01 Q1018 NOSIG
2026-04-25 03:50:00,METAR LSZH 250350Z 15001KT CAVOK 04/02 Q1018 NOSIG
2026-04-25 03:20:00,METAR LSZH 250320Z AUTO 32001KT CAVOK 04/01 Q1018 NOSIG
2026-04-25 02:50:00,METAR LSZH 250250Z AUTO VRB01KT CAVOK 04/03 Q1019 NOSIG
2026-04-25 02:20:00,METAR LSZH 250220Z AUTO VRB01KT CAVOK 05/02 Q1018 NOSIG
2026-04-25 01:50:00,METAR LSZH 250150Z AUTO VRB01KT CAVOK 05/02 Q1018 NOSIG
2026-04-25 01:20:00,METAR LSZH 250120Z AUTO VRB01KT CAVOK 06/02 Q1018 NOSIG
2026-04-25 00:50:00,METAR LSZH 250050Z AUTO 30002KT CAVOK 06/01 Q1018 NOSIG
2026-04-25 00:20:00,METAR LSZH 250020Z AUTO VRB02KT CAVOK 06/01 Q1019 NOSIG
2026-04-24 23:50:00,METAR LSZH 242350Z AUTO VRB02KT CAVOK 07/01 Q1019 NOSIG
2026-04-24 23:20:00,METAR LSZH 242320Z AUTO 01002KT CAVOK 08/02 Q1019 NOSIG
2026-04-24 22:50:00,METAR LSZH 242250Z AUTO VRB02KT CAVOK 08/02 Q1019 NOSIG
2026-04-24 22:20:00,METAR LSZH 242220Z AUTO 32003KT 270V080 CAVOK 09/03 Q1019 NOSIG
2026-04-24 21:50:00,METAR LSZH 242150Z AUTO VRB01KT CAVOK 06/02 Q1019 NOSIG
2026-04-24 21:20:00,METAR LSZH 242120Z VRB03KT CAVOK 09/03 Q1019 NOSIG
2026-04-24 20:50:00,METAR LSZH 242050Z 33004KT CAVOK 07/03 Q1019 NOSIG
2026-04-24 20:20:00,METAR LSZH 242020Z VRB01KT CAVOK 13/02 Q1019 NOSIG
2026-04-24 19:50:00,METAR LSZH 241950Z VRB01KT CAVOK 13/01 Q1018 NOSIG
2026-04-24 19:20:00,METAR LSZH 241920Z VRB01KT CAVOK 14/02 Q1018 NOSIG
2026-04-24 18:50:00,METAR LSZH 241850Z 34003KT CAVOK 17/01 Q1018 NOSIG
2026-04-24 18:20:00,METAR LSZH 241820Z 30004KT CAVOK 17/02 Q1018 NOSIG
2026-04-24 17:50:00,METAR LSZH 241750Z 17002KT CAVOK 20/M02 Q1018 NOSIG
2026-04-24 17:20:00,METAR LSZH 241720Z VRB01KT CAVOK 21/M05 Q1018 NOSIG
2026-04-24 16:50:00,METAR LSZH 241650Z VRB02KT CAVOK 22/M06 Q1018 NOSIG
2026-04-24 16:20:00,METAR LSZH 241620Z VRB02KT CAVOK 22/M04 Q1018 NOSIG
2026-04-24 15:50:00,METAR LSZH 241550Z VRB02KT CAVOK 22/M06 Q1018 NOSIG
2026-04-24 15:20:00,METAR LSZH 241520Z 25003KT 200V330 CAVOK 22/M04 Q1019 NOSIG
2026-04-24 14:50:00,METAR LSZH 241450Z VRB02KT CAVOK 22/M05 Q1019 NOSIG
2026-04-24 14:20:00,METAR LSZH 241420Z VRB03KT CAVOK 22/M08 Q1019 NOSIG
2026-04-24 13:50:00,METAR LSZH 241350Z 34005KT 290V030 CAVOK 22/M06 Q1019 NOSIG
2026-04-24 13:20:00,METAR LSZH 241320Z VRB04KT CAVOK 21/M04 Q1020 NOSIG
2026-04-24 12:50:00,METAR LSZH 241250Z VRB03KT CAVOK 20/M03 Q1020 NOSIG
2026-04-24 12:20:00,METAR LSZH 241220Z VRB04KT CAVOK 20/M03 Q1020 NOSIG
2026-04-24 11:50:00,METAR LSZH 241150Z VRB03KT CAVOK 19/M01 Q1020 NOSIG
2026-04-24 11:20:00,METAR LSZH 241120Z 36006KT 310V060 CAVOK 20/01 Q1020 NOSIG
2026-04-24 10:50:00,METAR LSZH 241050Z 02006KT 330V050 CAVOK 18/M00 Q1021 NOSIG
2026-04-24 10:20:00,METAR LSZH 241020Z 04008KT 360V070 CAVOK 18/02 Q1021 NOSIG
2026-04-24 09:50:00,METAR LSZH 240950Z 04004KT 300V110 CAVOK 17/01 Q1021 NOSIG
2026-04-24 09:20:00,METAR LSZH 240920Z VRB03KT CAVOK 15/01 Q1021 NOSIG
2026-04-24 08:50:00,METAR LSZH 240850Z VRB03KT CAVOK 15/02 Q1021 NOSIG
2026-04-24 08:20:00,METAR LSZH 240820Z VRB03KT CAVOK 13/02 Q1022 NOSIG
2026-04-24 07:50:00,METAR LSZH 240750Z VRB02KT CAVOK 12/01 Q1022 NOSIG
2026-04-24 07:20:00,METAR LSZH 240720Z VRB03KT CAVOK 10/01 Q1022 NOSIG
2026-04-24 06:50:00,METAR LSZH 240650Z 30002KT CAVOK 08/02 Q1022 NOSIG
2026-04-24 06:20:00,METAR LSZH 240620Z VRB01KT CAVOK 07/01 Q1022 NOSIG
2026-04-24 05:50:00,METAR LSZH 240550Z 11001KT CAVOK 06/01 Q1022 NOSIG
2026-04-24 05:20:00,METAR LSZH 240520Z VRB02KT CAVOK 02/M01 Q1022 NOSIG
2026-04-24 04:50:00,METAR LSZH 240450Z VRB02KT CAVOK 01/M01 Q1022 NOSIG
2026-04-24 04:20:00,METAR LSZH 240420Z VRB02KT CAVOK 01/M01 Q1022 NOSIG
2026-04-24 03:50:00,METAR LSZH 240350Z VRB01KT CAVOK 01/M01 Q1022 NOSIG
2026-04-24 03:20:00,METAR LSZH 240320Z AUTO VRB01KT CAVOK 02/M01 Q1022 NOSIG
2026-04-24 02:50:00,METAR LSZH 240250Z AUTO VRB02KT CAVOK 03/00 Q1022 NOSIG
2026-04-24 02:20:00,METAR LSZH 240220Z AUTO VRB01KT CAVOK 03/M00 Q1022 NOSIG
2026-04-24 01:50:00,METAR LSZH 240150Z AUTO VRB01KT CAVOK 03/M01 Q1023 NOSIG
2026-04-24 01:20:00,METAR LSZH 240120Z AUTO 29004KT CAVOK 04/M02 Q1023 NOSIG
2026-04-24 00:50:00,METAR LSZH 240050Z AUTO VRB02KT CAVOK 04/M01 Q1023 NOSIG
2026-04-24 00:20:00,METAR LSZH 240020Z AUTO VRB01KT CAVOK 05/00 Q1023 NOSIG
2026-04-23 23:50:00,METAR LSZH 232350Z AUTO VRB02KT CAVOK 04/00 Q1023 NOSIG
2026-04-23 23:20:00,METAR LSZH 232320Z AUTO VRB02KT CAVOK 04/M01 Q1023 NOSIG
2026-04-23 22:50:00,METAR LSZH 232250Z AUTO 32004KT CAVOK 04/M00 Q1023 NOSIG
2026-04-23 22:20:00,METAR LSZH 232220Z AUTO 31003KT CAVOK 06/00 Q1023 NOSIG
2026-04-23 21:50:00,METAR LSZH 232150Z AUTO VRB02KT CAVOK 07/M00 Q1024 NOSIG
2026-04-23 21:20:00,METAR LSZH 232120Z 32004KT CAVOK 06/M00 Q1023
2026-04-23 20:50:00,METAR LSZH 232050Z 01003KT 330V040 CAVOK 07/M00 Q1023
2026-04-23 20:20:00,METAR LSZH 232020Z 31003KT CAVOK 09/M00 Q1023
2026-04-23 19:50:00,METAR LSZH 231950Z VRB03KT CAVOK 09/M00 Q1023
2026-04-23 19:20:00,METAR LSZH 231920Z 07003KT 030V140 CAVOK 12/M01 Q1023
2026-04-23 18:50:00,METAR LSZH 231850Z VRB02KT CAVOK 15/M03 Q1023
2026-04-23 18:20:00,METAR LSZH 231820Z 07004KT CAVOK 17/M04 Q1023
2026-04-23 17:50:00,METAR LSZH 231750Z 07004KT CAVOK 18/M05 Q1023
2026-04-23 17:20:00,METAR LSZH 231720Z 08006KT 040V120 CAVOK 18/M06 Q1023
2026-04-23 16:50:00,METAR LSZH 231650Z 08008KT CAVOK 19/M06 Q1023
2026-04-23 16:20:00,METAR LSZH 231620Z 05006KT 010V100 CAVOK 19/M07 Q1023
2026-04-23 15:50:00,METAR LSZH 231550Z 03010KT 360V070 CAVOK 19/M05 Q1023
2026-04-23 15:20:00,METAR LSZH 231520Z 05009KT 020V090 CAVOK 19/M04 Q1023
2026-04-23 14:50:00,METAR LSZH 231450Z 08009KT 040V120 CAVOK 19/M05 Q1024
2026-04-23 14:20:00,METAR LSZH 231420Z 05008KT 360V090 CAVOK 19/M05 Q1024
2026-04-23 13:50:00,METAR LSZH 231350Z 08009KT 050V110 CAVOK 19/M03 Q1024
2026-04-23 13:20:00,METAR LSZH 231320Z 05007KT 360V090 CAVOK 19/M02 Q1025
2026-04-23 12:50:00,METAR LSZH 231250Z 06010KT 030V100 CAVOK 18/M03 Q1025
2026-04-23 12:20:00,METAR LSZH 231220Z 07009KT 010V100 CAVOK 18/M02 Q1025
2026-04-23 11:50:00,METAR LSZH 231150Z 05011KT CAVOK 17/M02 Q1025
2026-04-23 11:20:00,METAR LSZH 231120Z 07009KT CAVOK 16/00 Q1025
2026-04-23 10:50:00,METAR LSZH 231050Z 05008KT 010V090 CAVOK 15/M02 Q1026
2026-04-23 10:20:00,METAR LSZH 231020Z 04007KT 340V090 CAVOK 15/M02 Q1026
2026-04-23 09:50:00,METAR LSZH 230950Z 01005KT 270V050 CAVOK 15/M00 Q1026
2026-04-23 09:20:00,METAR LSZH 230920Z 03007KT CAVOK 13/M01 Q1027
2026-04-23 08:50:00,METAR LSZH 230850Z 04008KT 350V070 CAVOK 12/M01 Q1027
2026-04-23 08:20:00,METAR LSZH 230820Z 03005KT 340V070 CAVOK 11/M01 Q1027
2026-04-23 07:50:00,METAR LSZH 230750Z 03005KT 340V060 CAVOK 10/M01 Q1027
2026-04-23 07:20:00,METAR LSZH 230720Z 04005KT 360V080 CAVOK 10/M01 Q1027
2026-04-23 06:50:00,METAR LSZH 230650Z VRB03KT CAVOK 09/M02 Q1026
2026-04-23 06:20:00,METAR LSZH 230620Z VRB02KT CAVOK 07/M01 Q1026
2026-04-23 05:50:00,METAR LSZH 230550Z VRB03KT CAVOK 06/M02 Q1026
2026-04-23 05:20:00,METAR LSZH 230520Z VRB02KT CAVOK 04/M02 Q1026
2026-04-23 04:50:00,METAR LSZH 230450Z VRB02KT CAVOK 02/M02 Q1025
2026-04-23 04:20:00,METAR LSZH 230420Z VRB02KT CAVOK 01/M02 Q1025
2026-04-23 03:50:00,METAR LSZH 230350Z VRB02KT CAVOK 01/M02 Q1025
2026-04-23 03:20:00,METAR LSZH 230320Z AUTO 01002KT CAVOK 01/M02 Q1025 NOSIG
2026-04-23 02:50:00,METAR LSZH 230250Z AUTO 35002KT CAVOK 03/M02 Q1025 NOSIG
2026-04-23 02:20:00,METAR LSZH 230220Z AUTO VRB02KT CAVOK 02/M01 Q1025 NOSIG
2026-04-23 01:50:00,METAR LSZH 230150Z AUTO VRB01KT CAVOK 04/M02 Q1024 NOSIG
2026-04-23 01:20:00,METAR LSZH 230120Z AUTO 32004KT 300V090 CAVOK 01/M03 Q1024 NOSIG
2026-04-23 00:50:00,METAR LSZH 230050Z AUTO VRB03KT CAVOK 02/M03 Q1024 NOSIG
2026-04-23 00:20:00,METAR LSZH 230020Z AUTO 30006KT CAVOK 03/M02 Q1024 NOSIG
2026-04-22 23:50:00,METAR LSZH 222350Z AUTO 28004KT CAVOK 05/M03 Q1024 NOSIG
2026-04-22 23:20:00,METAR LSZH 222320Z AUTO VRB02KT CAVOK 06/M03 Q1024 NOSIG
2026-04-22 22:50:00,METAR LSZH 222250Z AUTO 02003KT 310V100 CAVOK 08/M03 Q1024 NOSIG
2026-04-22 22:20:00,METAR LSZH 222220Z AUTO VRB03KT CAVOK 07/M03 Q1024 NOSIG
2026-04-22 21:50:00,METAR LSZH 222150Z AUTO VRB02KT CAVOK 09/M03 Q1024 NOSIG
2026-04-22 21:20:00,METAR LSZH 222120Z 05005KT 310V110 CAVOK 11/M04 Q1024
2026-04-22 20:50:00,METAR LSZH 222050Z 06007KT 010V100 CAVOK 11/M04 Q1023
2026-04-22 20:20:00,METAR LSZH 222020Z 06006KT 360V110 CAVOK 11/M03 Q1023
2026-04-22 19:50:00,METAR LSZH 221950Z 08004KT 360V140 CAVOK 11/M03 Q1023
2026-04-22 19:20:00,METAR LSZH 221920Z VRB01KT CAVOK 12/M03 Q1022
2026-04-22 18:50:00,METAR LSZH 221850Z 06005KT 020V140 CAVOK 12/M03 Q1022
2026-04-22 18:20:00,METAR LSZH 221820Z 06008KT 030V090 CAVOK 13/M04 Q1021
2026-04-22 17:50:00,METAR LSZH 221750Z 06008KT 020V100 CAVOK 14/M03 Q1021
2026-04-22 17:20:00,METAR LSZH 221720Z 06011KT CAVOK 14/M03 Q1021
2026-04-22 16:50:00,METAR LSZH 221650Z 05010KT 030V090 CAVOK 15/M03 Q1021
2026-04-22 16:20:00,METAR LSZH 221620Z 07011KT 020V100 CAVOK 15/M03 Q1021
2026-04-22 15:50:00,METAR LSZH 221550Z 08012KT 030V110 CAVOK 15/M04 Q1021
2026-04-22 15:20:00,METAR LSZH 221520Z 05013KT 020V100 CAVOK 16/M02 Q1020
2026-04-22 14:50:00,METAR LSZH 221450Z 06013KT 030V090 CAVOK 15/M02 Q1020
2026-04-22 14:20:00,METAR LSZH 221420Z 05013KT 010V100 CAVOK 15/M02 Q1020
2026-04-22 13:50:00,METAR LSZH 221350Z 06013G28KT 020V090 CAVOK 15/M02 Q1020
2026-04-22 13:20:00,METAR LSZH 221320Z 05009KT 020V100 CAVOK 15/M01 Q1021
2026-04-22 12:50:00,METAR LSZH 221250Z 05013KT 020V080 CAVOK 15/00 Q1021
2026-04-22 12:20:00,METAR LSZH 221220Z 08013KT 040V110 CAVOK 14/M00 Q1020 NOSIG
2026-04-22 11:50:00,METAR LSZH 221150Z 05014KT 030V090 CAVOK 14/00 Q1020 NOSIG
2026-04-22 11:20:00,METAR LSZH 221120Z 05009G20KT 020V110 CAVOK 14/02 Q1020 NOSIG
2026-04-22 10:50:00,METAR LSZH 221050Z 06013KT 030V100 CAVOK 13/01 Q1021 NOSIG
2026-04-22 10:20:00,METAR LSZH 221020Z 07013KT 040V100 CAVOK 13/02 Q1020 NOSIG
2026-04-22 09:50:00,METAR LSZH 220950Z 07012KT 030V110 CAVOK 12/02 Q1021 NOSIG
2026-04-22 09:20:00,METAR LSZH 220920Z 06013KT CAVOK 11/01 Q1021 NOSIG
2026-04-22 08:50:00,METAR LSZH 220850Z 06011KT 030V100 CAVOK 10/02 Q1021 NOSIG
2026-04-22 08:20:00,METAR LSZH 220820Z 06008KT 020V100 CAVOK 10/02 Q1021 NOSIG
2026-04-22 07:50:00,METAR LSZH 220750Z 06009KT 030V110 9999 FEW022 09/02 Q1020 NOSIG
2026-04-22 07:20:00,METAR LSZH 220720Z 06009KT 020V090 9999 FEW022 08/01 Q1020 NOSIG
2026-04-22 06:50:00,METAR LSZH 220650Z 05008KT 010V100 9999 FEW022 07/01 Q1020 NOSIG
2026-04-22 06:20:00,METAR LSZH 220620Z 07005KT 360V110 9999 FEW022 07/01 Q1020 NOSIG
2026-04-22 05:50:00,METAR LSZH 220550Z VRB03KT 9999 FEW018 06/01 Q1020 NOSIG
2026-04-22 05:20:00,METAR LSZH 220520Z 31003KT 210V340 9999 FEW020 03/01 Q1020 NOSIG
2026-04-22 04:50:00,METAR LSZH 220450Z 30005KT CAVOK 02/01 Q1020 NOSIG
2026-04-22 04:20:00,METAR LSZH 220420Z 31004KT 290V350 CAVOK 03/01 Q1019 NOSIG
2026-04-22 03:50:00,METAR LSZH 220350Z 29004KT CAVOK 03/01 Q1019 NOSIG
2026-04-22 03:20:00,METAR LSZH 220320Z AUTO 30005KT CAVOK 02/00 Q1019 NOSIG
2026-04-22 02:50:00,METAR LSZH 220250Z AUTO VRB02KT CAVOK 04/01 Q1019 NOSIG
2026-04-22 02:20:00,METAR LSZH 220220Z AUTO VRB03KT CAVOK 06/01 Q1019 NOSIG
2026-04-22 01:50:00,METAR LSZH 220150Z AUTO VRB04KT CAVOK 06/01 Q1019 NOSIG
2026-04-22 01:20:00,METAR LSZH 220120Z AUTO VRB03KT CAVOK 06/01 Q1019 NOSIG
2026-04-22 00:50:00,METAR LSZH 220050Z AUTO VRB02KT CAVOK 06/01 Q1019 NOSIG
2026-04-22 00:20:00,METAR LSZH 220020Z AUTO 32004KT 260V050 CAVOK 05/01 Q1019 NOSIG
2026-04-21 23:50:00,METAR LSZH 212350Z AUTO VRB02KT CAVOK 06/01 Q1019 NOSIG
2026-04-21 23:20:00,METAR LSZH 212320Z AUTO 05008KT CAVOK 07/01 Q1019 NOSIG
2026-04-21 22:50:00,METAR LSZH 212250Z AUTO 05010KT CAVOK 08/01 Q1019 NOSIG
2026-04-21 22:20:00,METAR LSZH 212220Z AUTO 04011KT CAVOK 08/01 Q1019 NOSIG
2026-04-21 21:50:00,METAR LSZH 212150Z AUTO 04010KT CAVOK 08/02 Q1019 NOSIG
2026-04-21 21:20:00,METAR LSZH 212120Z 04010KT CAVOK 08/02 Q1019 NOSIG
2026-04-21 20:50:00,METAR LSZH 212050Z 04009KT CAVOK 08/02 Q1019 NOSIG
2026-04-21 20:20:00,METAR LSZH 212020Z 05010KT 010V080 CAVOK 09/02 Q1019 NOSIG
2026-04-21 19:50:00,METAR LSZH 211950Z 05011KT CAVOK 09/02 Q1019 NOSIG
2026-04-21 19:20:00,METAR LSZH 211920Z 05009KT CAVOK 10/01 Q1018 NOSIG
2026-04-21 18:50:00,METAR LSZH 211850Z 05010KT CAVOK 10/01 Q1018 NOSIG
2026-04-21 18:20:00,METAR LSZH 211820Z 06010KT CAVOK 11/M00 Q1017 NOSIG
2026-04-21 17:50:00,METAR LSZH 211750Z 06008KT 030V110 9999 FEW064 12/M01 Q1017 NOSIG
2026-04-21 17:20:00,METAR LSZH 211720Z 05011KT 020V080 9999 FEW064 12/M00 Q1017 NOSIG
2026-04-21 16:50:00,METAR LSZH 211650Z 05012KT 9999 FEW064 13/M01 Q1017 NOSIG
2026-04-21 16:20:00,METAR LSZH 211620Z 06011KT 030V090 9999 FEW064 13/M01 Q1017 NOSIG
2026-04-21 15:50:00,METAR LSZH 211550Z 05011KT 010V090 9999 FEW064 14/M02 Q1016 NOSIG
2026-04-21 15:20:00,METAR LSZH 211520Z 05007KT 030V090 9999 FEW060 14/M01 Q1016 NOSIG
2026-04-21 14:50:00,METAR LSZH 211450Z 05009KT 360V100 9999 FEW060 14/M01 Q1016 NOSIG
2026-04-21 14:20:00,METAR LSZH 211420Z 06010KT 030V100 9999 FEW060 14/M01 Q1016 NOSIG
2026-04-21 13:50:00,METAR LSZH 211350Z 05012KT 010V100 9999 SCT060 13/M00 Q1016 NOSIG
2026-04-21 13:20:00,METAR LSZH 211320Z 04009KT 360V070 9999 FEW058 13/00 Q1017 NOSIG
2026-04-21 12:50:00,METAR LSZH 211250Z VRB07G17KT 9999 FEW055 13/00 Q1017 NOSIG
2026-04-21 12:20:00,METAR LSZH 211220Z 08009KT 030V110 9999 FEW055 14/02 Q1017 NOSIG
2026-04-21 11:50:00,METAR LSZH 211150Z 09010KT 060V120 9999 FEW055 13/00 Q1017 NOSIG
2026-04-21 11:20:00,METAR LSZH 211120Z 08010KT 030V120 9999 FEW050 14/02 Q1017 NOSIG
2026-04-21 10:50:00,METAR LSZH 211050Z 03010KT 360V090 9999 FEW045 13/02 Q1017 NOSIG
2026-04-21 10:20:00,METAR LSZH 211020Z 08010KT 050V110 9999 FEW045 12/01 Q1017 NOSIG
2026-04-21 09:50:00,METAR LSZH 210950Z 04011KT 010V100 9999 FEW045 12/01 Q1017 NOSIG
2026-04-21 09:20:00,METAR LSZH 210920Z 07008KT 020V110 9999 FEW040 11/02 Q1017 NOSIG
2026-04-21 08:50:00,METAR LSZH 210850Z 05007KT 020V090 9999 FEW040 10/01 Q1017 NOSIG
2026-04-21 08:20:00,METAR LSZH 210820Z 05008KT CAVOK 10/02 Q1017 NOSIG
2026-04-21 07:50:00,METAR LSZH 210750Z 05006KT 360V080 CAVOK 09/02 Q1018 NOSIG
2026-04-21 07:20:00,METAR LSZH 210720Z 06006KT 360V110 CAVOK 09/02 Q1018 NOSIG
2026-04-21 06:50:00,METAR LSZH 210650Z 36005KT 320V030 CAVOK 08/01 Q1017 NOSIG
2026-04-21 06:20:00,METAR LSZH 210620Z 35004KT 310V020 CAVOK 07/01 Q1018 NOSIG
2026-04-21 05:50:00,METAR LSZH 210550Z 35004KT CAVOK 06/01 Q1018 NOSIG
2026-04-21 05:20:00,METAR LSZH 210520Z 35002KT 9999 FEW065 04/M00 Q1017 NOSIG
2026-04-21 04:50:00,METAR LSZH 210450Z 35003KT CAVOK 03/M00 Q1017 NOSIG
2026-04-21 04:20:00,METAR LSZH 210420Z 36003KT CAVOK 03/01 Q1017 NOSIG
2026-04-21 03:50:00,METAR LSZH 210350Z VRB02KT CAVOK 03/00 Q1017 NOSIG
2026-04-21 03:20:00,METAR LSZH 210320Z AUTO 35002KT CAVOK 03/00 Q1017 NOSIG
2026-04-21 02:50:00,METAR LSZH 210250Z AUTO VRB02KT 9999 NCD 04/00 Q1017 NOSIG
2026-04-21 02:20:00,METAR LSZH 210220Z AUTO 32004KT 9999 NCD 05/00 Q1017 NOSIG
2026-04-21 01:50:00,METAR LSZH 210150Z AUTO 32006KT 9999 NCD 03/00 Q1017 NOSIG
2026-04-21 01:20:00,METAR LSZH 210120Z AUTO 30006KT 9999 FEW066 04/00 Q1017 NOSIG
2026-04-21 00:50:00,METAR LSZH 210050Z AUTO 31005KT CAVOK 05/00 Q1017 NOSIG
2026-04-20 22:50:00,METAR LSZH 202250Z AUTO 36002KT 9999 FEW070 07/00 Q1017 NOSIG
2026-04-20 22:20:00,METAR LSZH 202220Z AUTO 31003KT 9999 FEW069 07/00 Q1017 NOSIG
2026-04-20 21:50:00,METAR LSZH 202150Z AUTO 03004KT 9999 NCD 09/M00 Q1017 NOSIG
2026-04-20 21:20:00,METAR LSZH 202120Z 04009G20KT 340V090 9999 FEW070 10/M00 Q1017 NOSIG
2026-04-20 20:50:00,METAR LSZH 202050Z 04011KT 9999 FEW070 11/01 Q1017 NOSIG
2026-04-20 20:20:00,METAR LSZH 202020Z 04010KT 9999 FEW070 12/01 Q1016 NOSIG
2026-04-20 19:50:00,METAR LSZH 201950Z 04009KT 9999 SCT070 12/02 Q1016 NOSIG
2026-04-20 19:20:00,METAR LSZH 201920Z 02005KT 9999 SCT070 12/02 Q1016 NOSIG
2026-04-20 18:50:00,METAR LSZH 201850Z 36006KT 9999 SCT070 13/03 Q1016 NOSIG
2026-04-20 18:20:00,METAR LSZH 201820Z 35008KT 9999 FEW070 13/02 Q1015 NOSIG
2026-04-20 17:50:00,METAR LSZH 201750Z 04004KT 9999 FEW070 14/01 Q1015 NOSIG
2026-04-20 17:20:00,METAR LSZH 201720Z 06004KT 9999 FEW070 15/01 Q1015 NOSIG
2026-04-20 16:50:00,METAR LSZH 201650Z 07005KT 9999 FEW070 15/01 Q1015 NOSIG
2026-04-20 16:20:00,METAR LSZH 201620Z VRB03KT 9999 SCT070 16/01 Q1015 NOSIG
2026-04-20 15:50:00,METAR LSZH 201550Z VRB02KT 9999 FEW068 16/00 Q1015 NOSIG
2026-04-20 15:20:00,METAR LSZH 201520Z VRB03KT 9999 FEW068 16/M00 Q1015 NOSIG
2026-04-20 14:50:00,METAR LSZH 201450Z 23003KT 140V300 9999 FEW060 16/01 Q1015 NOSIG
2026-04-20 14:20:00,METAR LSZH 201420Z 11005KT 080V150 9999 FEW058 15/01 Q1015 NOSIG
2026-04-20 13:50:00,METAR LSZH 201350Z VRB02KT 9999 FEW058 16/02 Q1015 NOSIG
2026-04-20 13:20:00,METAR LSZH 201320Z VRB03KT 9999 FEW058 15/00 Q1016 NOSIG
2026-04-20 12:50:00,METAR LSZH 201250Z VRB04KT 9999 FEW058 16/02 Q1016 NOSIG
2026-04-20 12:20:00,METAR LSZH 201220Z VRB03KT 9999 FEW055 15/02 Q1016 NOSIG
2026-04-20 11:50:00,METAR LSZH 201150Z 05005KT 330V130 9999 FEW055 15/01 Q1016 NOSIG
2026-04-20 11:20:00,METAR LSZH 201120Z 03007KT 9999 FEW060 13/00 Q1017 NOSIG
2026-04-20 10:50:00,METAR LSZH 201050Z 36005KT 310V060 9999 FEW060 15/02 Q1017 NOSIG
2026-04-20 10:20:00,METAR LSZH 201020Z 07005KT 020V130 9999 FEW050 14/02 Q1017 NOSIG
2026-04-20 09:50:00,METAR LSZH 200950Z 05008KT 9999 FEW050 13/01 Q1017 NOSIG
2026-04-20 09:20:00,METAR LSZH 200920Z 05006KT 010V100 9999 FEW045 13/02 Q1017 NOSIG
2026-04-20 08:50:00,METAR LSZH 200850Z 06006KT 030V100 9999 FEW065 12/02 Q1018 NOSIG
2026-04-20 08:20:00,METAR LSZH 200820Z 04004KT 360V150 9999 FEW065 12/02 Q1018 NOSIG
2026-04-20 07:50:00,METAR LSZH 200750Z VRB03KT 9999 FEW065 12/03 Q1018 NOSIG
2026-04-20 07:20:00,METAR LSZH 200720Z 35004KT 310V060 9999 FEW065 10/03 Q1018 NOSIG
2026-04-20 06:50:00,METAR LSZH 200650Z 35004KT 310V060 9999 SCT065 09/02 Q1018 NOSIG
2026-04-20 06:20:00,METAR LSZH 200620Z 33004KT 9999 SCT065 08/03 Q1018 NOSIG
2026-04-20 05:50:00,METAR LSZH 200550Z 34004KT 9999 SCT070 07/03 Q1018 NOSIG
2026-04-20 05:20:00,METAR LSZH 200520Z 36004KT 9999 SCT070 07/03 Q1018 NOSIG
2026-04-20 04:50:00,METAR LSZH 200450Z 35003KT 9999 SCT070 05/02 Q1018 NOSIG
2026-04-20 04:20:00,METAR LSZH 200420Z VRB02KT 9999 SCT065 04/02 Q1018 NOSIG
2026-04-20 03:50:00,METAR LSZH 200350Z 01005KT 9999 SCT065 06/02 Q1018 NOSIG
2026-04-20 03:20:00,METAR LSZH 200320Z AUTO 35005KT 320V050 9999 SCT070 06/02 Q1018 NOSIG
2026-04-20 02:50:00,METAR LSZH 200250Z AUTO 33004KT 9999 BKN066 06/03 Q1018 NOSIG
2026-04-20 02:20:00,METAR LSZH 200220Z AUTO 33006KT 9999 BKN066 06/03 Q1018 NOSIG
2026-04-20 01:50:00,METAR LSZH 200150Z AUTO 35004KT 9999 SCT066 08/02 Q1018 NOSIG
2026-04-20 01:20:00,METAR LSZH 200120Z AUTO 34005KT 9999 BKN067 08/02 Q1018 NOSIG
2026-04-20 00:50:00,METAR LSZH 200050Z AUTO 33006KT 9999 BKN061 08/03 Q1019 NOSIG
2026-04-20 00:20:00,METAR LSZH 200020Z AUTO 32005KT 9999 BKN064 08/03 Q1019 NOSIG
2026-04-19 23:50:00,METAR LSZH 192350Z AUTO 32006KT 9999 BKN063 09/04 Q1019 NOSIG
2026-04-19 23:20:00,METAR LSZH 192320Z AUTO 33004KT 300V010 9999 BKN063 10/03 Q1019 NOSIG
2026-04-19 22:50:00,METAR LSZH 192250Z AUTO VRB01KT 9999 SCT058 SCT067 10/03 Q1019 NOSIG
2026-04-19 22:20:00,METAR LSZH 192220Z AUTO 07005KT 030V100 9999 SCT057 11/02 Q1020 NOSIG
2026-04-19 21:50:00,METAR LSZH 192150Z AUTO 05007KT 020V080 9999 FEW056 11/03 Q1020 NOSIG
2026-04-19 21:20:00,METAR LSZH 192120Z 05008KT 020V080 9999 BKN058 12/03 Q1020 NOSIG
2026-04-19 20:50:00,METAR LSZH 192050Z 04008KT 9999 SCT058 12/03 Q1020 NOSIG
2026-04-19 20:20:00,METAR LSZH 192020Z 06005KT 030V100 9999 BKN060 13/03 Q1020 NOSIG
2026-04-19 19:50:00,METAR LSZH 191950Z 04008KT 360V110 9999 SCT060 14/03 Q1020 NOSIG
2026-04-19 19:20:00,METAR LSZH 191920Z 02005KT 9999 BKN060 14/01 Q1019 NOSIG
2026-04-19 18:50:00,METAR LSZH 191850Z 02008KT 9999 BKN060 14/02 Q1019 NOSIG
2026-04-19 18:20:00,METAR LSZH 191820Z 01005KT 9999 BKN060 15/04 Q1018 NOSIG
2026-04-19 17:50:00,METAR LSZH 191750Z 35007KT 9999 BKN060 15/03 Q1018 NOSIG
2026-04-19 17:20:00,METAR LSZH 191720Z 36006KT 9999 SCT060 16/03 Q1018 NOSIG
2026-04-19 16:50:00,METAR LSZH 191650Z 01007KT 9999 FEW060 16/04 Q1018 NOSIG
2026-04-19 16:20:00,METAR LSZH 191620Z 01009KT 340V040 9999 SCT060 17/05 Q1018 NOSIG
2026-04-19 15:50:00,METAR LSZH 191550Z 30012KT 9999 FEW055 SCT065 18/04 Q1018 NOSIG
2026-04-19 15:20:00,METAR LSZH 191520Z 32013KT 290V360 9999 FEW048 SCT065 18/06 Q1018 NOSIG
2026-04-19 14:50:00,METAR LSZH 191450Z 32013KT 9999 FEW044 BKN065 18/07 Q1018 NOSIG
2026-04-19 14:20:00,METAR LSZH 191420Z 30012KT 9999 FEW044 BKN065 19/08 Q1018 NOSIG
2026-04-19 13:50:00,METAR LSZH 191350Z 34010KT 9999 FEW040 BKN070 18/08 Q1018 NOSIG
2026-04-19 13:20:00,METAR LSZH 191320Z 01014KT 9999 SCT040 SCT060 17/07 Q1018 NOSIG
2026-04-19 12:50:00,METAR LSZH 191250Z 32013KT 9999 SCT040 SCT065 19/09 Q1018 NOSIG
2026-04-19 12:20:00,METAR LSZH 191220Z 29015KT 9999 SCT041 19/09 Q1018
2026-04-19 11:50:00,METAR LSZH 191150Z 30015KT 9999 FEW040CB 19/10 Q1018
2026-04-19 11:20:00,METAR LSZH 191120Z 28013KT 9999 FEW045CB 19/09 Q1018
2026-04-19 10:50:00,METAR LSZH 191050Z 28012KT 9999 FEW045CB 19/08 Q1018
2026-04-19 10:20:00,METAR LSZH 191020Z 30013KT 9999 FEW040CB 18/08 Q1018
2026-04-19 09:50:00,METAR LSZH 190950Z 29012KT 9999 FEW040TCU SCT050 18/08 Q1018
2026-04-19 09:20:00,METAR LSZH 190920Z 26010KT 220V290 9999 FEW039 SCT051 18/10 Q1018
2026-04-19 08:50:00,METAR LSZH 190850Z 26006KT 220V290 9999 FEW075 17/10 Q1018
2026-04-19 08:20:00,METAR LSZH 190820Z 25008KT 9999 FEW075 17/10 Q1018
2026-04-19 07:50:00,METAR LSZH 190750Z 23005KT 190V260 9999 FEW075 16/09 Q1018 BECMG 29012G25KT
2026-04-19 07:20:00,METAR LSZH 190720Z 22005KT 9999 SCT073 15/09 Q1018 BECMG 29012G25KT
2026-04-19 06:50:00,METAR LSZH 190650Z 19003KT 160V230 9999 SCT078 14/10 Q1018
2026-04-19 06:20:00,METAR LSZH 190620Z 16003KT CAVOK 13/09 Q1018 NOSIG
2026-04-19 05:50:00,METAR LSZH 190550Z 15004KT CAVOK 12/09 Q1018 NOSIG
2026-04-19 05:20:00,METAR LSZH 190520Z 17003KT 9999 FEW065 11/08 Q1018 NOSIG
2026-04-19 04:50:00,METAR LSZH 190450Z 14005KT 9999 FEW064 11/08 Q1017 NOSIG
2026-04-19 04:20:00,METAR LSZH 190420Z 15005KT 9999 FEW060 11/08 Q1017 NOSIG
2026-04-19 03:50:00,METAR LSZH 190350Z 16003KT 9999 FEW058 10/08 Q1017 NOSIG
2026-04-19 03:20:00,METAR LSZH 190320Z AUTO 14004KT 9999 VCSH BKN058 FEW///TCU 10/08 Q1018 TEMPO SHRA
2026-04-19 02:50:00,METAR LSZH 190250Z AUTO VRB01KT 9999 VCSH FEW059 SCT068 10/08 Q1018 RESHRA TEMPO SHRA
2026-04-19 02:20:00,METAR LSZH 190220Z AUTO VRB01KT 9999 VCSH BKN068 FEW///CB 09/08 Q1018 TEMPO SHRA
2026-04-19 01:50:00,METAR LSZH 190150Z AUTO 14004KT 9999 FEW069 FEW///CB 10/07 Q1018 NOSIG
2026-04-19 01:20:00,METAR LSZH 190120Z AUTO 17004KT 9999 FEW071 FEW///TCU 09/07 Q1018 NOSIG
2026-04-19 00:50:00,METAR LSZH 190050Z AUTO VRB02KT 9999 FEW066 09/07 Q1018 NOSIG
2026-04-19 00:20:00,METAR LSZH 190020Z AUTO VRB01KT 9999 SCT069 09/07 Q1018 NOSIG
2026-04-18 23:50:00,METAR LSZH 182350Z AUTO 14002KT 9999 NSC 09/07 Q1018 NOSIG
2026-04-18 23:20:00,METAR LSZH 182320Z AUTO VRB01KT 9999 FEW079 09/07 Q1018 NOSIG
2026-04-18 22:50:00,METAR LSZH 182250Z AUTO VRB01KT 9999 NCD 09/08 Q1019 NOSIG
2026-04-18 22:20:00,METAR LSZH 182220Z AUTO VRB01KT 9999 FEW069 11/08 Q1019 NOSIG
2026-04-18 21:50:00,METAR LSZH 182150Z AUTO VRB01KT 9999 FEW068 10/07 Q1019 NOSIG
2026-04-18 21:20:00,METAR LSZH 182120Z VRB02KT 9999 SCT065 11/07 Q1019 NOSIG
2026-04-18 20:50:00,METAR LSZH 182050Z 05001KT 9999 FEW060 11/08 Q1019 NOSIG
2026-04-18 20:20:00,METAR LSZH 182020Z VRB01KT CAVOK 11/07 Q1019 NOSIG
2026-04-18 19:50:00,METAR LSZH 181950Z 01004KT 350V050 CAVOK 12/07 Q1019 NOSIG
2026-04-18 19:20:00,METAR LSZH 181920Z VRB02KT CAVOK 14/08 Q1019 NOSIG
2026-04-18 18:50:00,METAR LSZH 181850Z VRB02KT CAVOK 17/07 Q1019 NOSIG
2026-04-18 18:20:00,METAR LSZH 181820Z 32005KT CAVOK 17/07 Q1019 NOSIG
2026-04-18 17:50:00,METAR LSZH 181750Z 33006KT CAVOK 19/07 Q1018 NOSIG
2026-04-18 17:20:00,METAR LSZH 181720Z 33005KT CAVOK 21/07 Q1018 NOSIG
2026-04-18 16:50:00,METAR LSZH 181650Z 31004KT CAVOK 20/09 Q1018 NOSIG
2026-04-18 16:20:00,METAR LSZH 181620Z 27003KT 240V320 CAVOK 21/04 Q1018 NOSIG
2026-04-18 15:20:00,METAR LSZH 181520Z VRB02KT CAVOK 22/03 Q1019 NOSIG
2026-04-18 14:50:00,METAR LSZH 181450Z 26003KT 210V310 9999 FEW050 23/04 Q1019 NOSIG
2026-04-18 14:20:00,METAR LSZH 181420Z VRB03KT 9999 FEW055 22/03 Q1019 NOSIG
2026-04-18 13:50:00,METAR LSZH 181350Z 29006KT 220V320 9999 FEW055 22/04 Q1019 NOSIG
2026-04-18 13:20:00,METAR LSZH 181320Z VRB01KT 9999 FEW055 22/04 Q1020 NOSIG
2026-04-18 12:50:00,METAR LSZH 181250Z 03003KT 290V080 9999 FEW055 22/04 Q1020 NOSIG
2026-04-18 12:20:00,METAR LSZH 181220Z VRB04KT 9999 FEW055 22/04 Q1020 NOSIG
2026-04-18 11:50:00,METAR LSZH 181150Z VRB03KT 9999 FEW050 21/05 Q1020 NOSIG
2026-04-18 11:20:00,METAR LSZH 181120Z VRB02KT 9999 FEW045 20/06 Q1020 NOSIG
2026-04-18 10:50:00,METAR LSZH 181050Z VRB02KT 9999 FEW040 20/09 Q1020 NOSIG
2026-04-18 10:20:00,METAR LSZH 181020Z VRB03KT 9999 FEW040 19/09 Q1021 NOSIG
2026-04-18 09:50:00,METAR LSZH 180950Z VRB03KT CAVOK 18/09 Q1021 NOSIG
2026-04-18 09:20:00,METAR LSZH 180920Z VRB03KT CAVOK 17/09 Q1021 NOSIG
2026-04-18 08:50:00,METAR LSZH 180850Z VRB01KT CAVOK 16/09 Q1021 NOSIG
2026-04-18 08:20:00,METAR LSZH 180820Z VRB02KT CAVOK 15/09 Q1021 NOSIG
2026-04-18 07:50:00,METAR LSZH 180750Z VRB01KT CAVOK 13/08 Q1021 NOSIG
2026-04-18 07:20:00,METAR LSZH 180720Z VRB01KT CAVOK 12/08 Q1021 NOSIG
2026-04-18 06:50:00,METAR LSZH 180650Z VRB01KT CAVOK 11/07 Q1022 NOSIG
2026-04-18 06:20:00,METAR LSZH 180620Z VRB01KT CAVOK 09/07 Q1022 NOSIG
2026-04-18 05:50:00,METAR LSZH 180550Z VRB01KT CAVOK 08/07 Q1022 NOSIG
2026-04-18 05:20:00,METAR LSZH 180520Z 31002KT CAVOK 04/04 Q1021 NOSIG
2026-04-18 04:50:00,METAR LSZH 180450Z 00000KT 9999 MIFG NSC 05/05 Q1021 NOSIG
2026-04-18 04:20:00,METAR LSZH 180420Z VRB01KT 9999 MIFG NSC 05/05 Q1021 NOSIG
2026-04-18 03:50:00,METAR LSZH 180350Z 00000KT 9999 MIFG NSC 05/05 Q1021 NOSIG
2026-04-18 03:20:00,METAR LSZH 180320Z AUTO 29001KT CAVOK 05/04 Q1021 NOSIG
2026-04-18 02:50:00,METAR LSZH 180250Z AUTO 36001KT CAVOK 05/05 Q1021 NOSIG
2026-04-18 02:20:00,METAR LSZH 180220Z AUTO VRB01KT CAVOK 05/05 Q1021 NOSIG
2026-04-18 01:50:00,METAR LSZH 180150Z AUTO 04001KT CAVOK 06/05 Q1021 NOSIG
2026-04-18 01:20:00,METAR LSZH 180120Z AUTO 21001KT CAVOK 06/04 Q1021 NOSIG
2026-04-18 00:50:00,METAR LSZH 180050Z AUTO VRB01KT CAVOK 06/04 Q1021 NOSIG
2026-04-18 00:20:00,METAR LSZH 180020Z AUTO 05001KT CAVOK 07/05 Q1021 NOSIG
2026-04-17 23:50:00,METAR LSZH 172350Z AUTO VRB01KT CAVOK 07/05 Q1021 NOSIG
2026-04-17 23:20:00,METAR LSZH 172320Z AUTO VRB01KT CAVOK 08/06 Q1021 NOSIG
2026-04-17 22:50:00,METAR LSZH 172250Z AUTO 19001KT CAVOK 08/05 Q1021 NOSIG
2026-04-17 22:20:00,METAR LSZH 172220Z AUTO VRB01KT CAVOK 09/07 Q1021 NOSIG
2026-04-17 21:50:00,METAR LSZH 172150Z AUTO VRB01KT CAVOK 09/06 Q1021 NOSIG
2026-04-17 21:20:00,METAR LSZH 172120Z VRB01KT CAVOK 11/05 Q1021 NOSIG
2026-04-17 20:50:00,METAR LSZH 172050Z VRB01KT CAVOK 11/05 Q1021 NOSIG
2026-04-17 20:20:00,METAR LSZH 172020Z VRB01KT CAVOK 11/05 Q1021 NOSIG
2026-04-17 19:50:00,METAR LSZH 171950Z 02002KT CAVOK 12/05 Q1021 NOSIG
2026-04-17 19:20:00,METAR LSZH 171920Z VRB01KT CAVOK 15/06 Q1020 NOSIG
2026-04-17 18:50:00,METAR LSZH 171850Z VRB01KT CAVOK 14/05 Q1020 NOSIG
2026-04-17 18:20:00,METAR LSZH 171820Z AUTO VRB02KT CAVOK 17/05 Q1020
2026-04-17 17:50:00,METAR LSZH 171750Z 02003KT CAVOK 20/03 Q1020 NOSIG
2026-04-17 17:20:00,METAR LSZH 171720Z VRB03KT CAVOK 20/03 Q1020 NOSIG
2026-04-17 16:50:00,METAR LSZH 171650Z VRB03KT 9999 FEW060 21/04 Q1020 NOSIG
2026-04-17 16:20:00,METAR LSZH 171620Z VRB03KT 9999 FEW060 20/04 Q1020 NOSIG
2026-04-17 15:50:00,METAR LSZH 171550Z 31004KT 290V350 9999 FEW060 20/05 Q1020 NOSIG
2026-04-17 15:20:00,METAR LSZH 171520Z AUTO VRB03KT CAVOK 20/04 Q1020
2026-04-17 14:50:00,METAR LSZH 171450Z VRB02KT 9999 FEW060 20/04 Q1020 NOSIG
2026-04-17 14:20:00,METAR LSZH 171420Z VRB03KT 9999 FEW060 19/04 Q1020 NOSIG
2026-04-17 13:50:00,METAR LSZH 171350Z 05005KT 020V120 9999 FEW060 20/05 Q1020 NOSIG
2026-04-17 13:20:00,METAR LSZH 171320Z VRB03KT 9999 FEW060 20/05 Q1020 NOSIG
2026-04-17 12:50:00,METAR LSZH 171250Z 05005KT 320V110 9999 FEW060 20/06 Q1021 NOSIG
2026-04-17 12:20:00,METAR LSZH 171220Z 04008KT 360V090 9999 FEW055 19/06 Q1021 NOSIG
2026-04-17 11:50:00,METAR LSZH 171150Z 04007KT CAVOK 19/06 Q1021 NOSIG
2026-04-17 11:20:00,METAR LSZH 171120Z 04005KT 330V080 CAVOK 18/07 Q1021 NOSIG
2026-04-17 10:50:00,METAR LSZH 171050Z 05004KT 300V110 CAVOK 18/08 Q1021 NOSIG
2026-04-17 10:20:00,METAR LSZH 171020Z VRB04KT CAVOK 18/07 Q1022 NOSIG
2026-04-17 09:50:00,METAR LSZH 170950Z 06006KT 030V120 CAVOK 16/07 Q1022 NOSIG
2026-04-17 09:20:00,METAR LSZH 170920Z 32004KT 250V030 CAVOK 16/07 Q1022 NOSIG
2026-04-17 08:50:00,METAR LSZH 170850Z VRB01KT CAVOK 15/08 Q1022 NOSIG
2026-04-17 08:20:00,METAR LSZH 170820Z VRB03KT CAVOK 13/08 Q1022 NOSIG
2026-04-17 07:50:00,METAR LSZH 170750Z VRB03KT CAVOK 12/08 Q1022 NOSIG
2026-04-17 07:20:00,METAR LSZH 170720Z VRB02KT CAVOK 11/08 Q1022 NOSIG
2026-04-17 06:50:00,METAR LSZH 170650Z VRB01KT CAVOK 10/07 Q1022 NOSIG
2026-04-17 06:20:00,METAR LSZH 170620Z VRB01KT CAVOK 09/07 Q1022 NOSIG
2026-04-17 05:50:00,METAR LSZH 170550Z 29002KT CAVOK 07/06 Q1022 NOSIG
2026-04-17 05:20:00,METAR LSZH 170520Z 35001KT 9999 MIFG NSC 05/05 Q1022 NOSIG
2026-04-17 04:50:00,METAR LSZH 170450Z 01001KT 9999 1100NW R14/1400N R16/P2000N R28/P2000N R34/P2000N PRFG NSC 04/04 Q1022 BECMG NSW
2026-04-17 04:20:00,METAR LSZH 170420Z VRB01KT 9999 MIFG NSC 04/03 Q1022
2026-04-17 03:50:00,METAR LSZH 170350Z 27001KT 9999 MIFG NSC 03/03 Q1022
2026-04-17 03:20:00,METAR LSZH 170320Z AUTO 30001KT 9999 1200N R14/P2000N R16/P2000N R28/P2000N R34/P2000N NCD 04/04 Q1022 NOSIG
2026-04-17 02:50:00,METAR LSZH 170250Z AUTO 31003KT CAVOK 05/05 Q1022 NOSIG
2026-04-17 02:20:00,METAR LSZH 170220Z AUTO 36002KT CAVOK 05/04 Q1022 NOSIG
2026-04-17 01:50:00,METAR LSZH 170150Z AUTO 01001KT CAVOK 06/05 Q1022 NOSIG
2026-04-17 01:20:00,METAR LSZH 170120Z AUTO VRB01KT CAVOK 06/05 Q1022 NOSIG
2026-04-17 00:50:00,METAR LSZH 170050Z AUTO VRB01KT CAVOK 07/06 Q1022 NOSIG
2026-04-17 00:20:00,METAR LSZH 170020Z AUTO VRB02KT CAVOK 07/06 Q1022 NOSIG
2026-04-16 23:50:00,METAR LSZH 162350Z AUTO 32002KT CAVOK 07/06 Q1022 NOSIG
2026-04-16 23:20:00,METAR LSZH 162320Z AUTO 31003KT CAVOK 07/06 Q1022 NOSIG
2026-04-16 22:50:00,METAR LSZH 162250Z AUTO 30003KT CAVOK 08/06 Q1022 NOSIG
2026-04-16 22:20:00,METAR LSZH 162220Z AUTO 34004KT CAVOK 08/06 Q1022 NOSIG
2026-04-16 21:50:00,METAR LSZH 162150Z AUTO VRB01KT CAVOK 08/06 Q1022 NOSIG
2026-04-16 21:20:00,METAR LSZH 162120Z 27003KT CAVOK 10/06 Q1022
2026-04-16 20:50:00,METAR LSZH 162050Z AUTO 31005KT CAVOK 10/06 Q1022
2026-04-16 20:20:00,METAR LSZH 162020Z VRB01KT 9999 FEW075 10/06 Q1022
2026-04-16 19:50:00,METAR LSZH 161950Z 31004KT 9999 FEW075 11/06 Q1022
2026-04-16 19:20:00,METAR LSZH 161920Z VRB02KT 9999 SCT075 15/06 Q1022
2026-04-16 18:50:00,METAR LSZH 161850Z 36004KT 9999 BKN075 16/05 Q1022
2026-04-16 18:20:00,METAR LSZH 161820Z 02004KT 9999 SCT075 17/04 Q1022
2026-04-16 17:50:00,METAR LSZH 161750Z 02004KT 9999 FEW075 17/04 Q1022
2026-04-16 17:20:00,METAR LSZH 161720Z 36007KT 9999 FEW075 18/04 Q1022
2026-04-16 16:50:00,METAR LSZH 161650Z 36006KT 9999 FEW060 18/05 Q1022
2026-04-16 16:20:00,METAR LSZH 161620Z 35005KT 9999 FEW060 19/05 Q1022
2026-04-16 15:50:00,METAR LSZH 161550Z 01007KT 340V050 9999 FEW060 19/06 Q1022
2026-04-16 14:50:00,METAR LSZH 161450Z 34007KT 290V010 9999 FEW054 19/07 Q1022
2026-04-16 14:20:00,METAR LSZH 161420Z VRB06KT 9999 SCT060 19/06 Q1022
2026-04-16 13:50:00,METAR LSZH 161350Z VRB04KT 9999 SCT060 19/05 Q1022
2026-04-16 13:20:00,METAR LSZH 161320Z VRB04KT 9999 FEW058 SCT070 19/05 Q1022
2026-04-16 12:50:00,METAR LSZH 161250Z 01004KT 300V090 9999 FEW054 19/06 Q1023
2026-04-16 12:20:00,METAR LSZH 161220Z 33004KT 260V040 9999 FEW052 19/07 Q1023
2026-04-16 11:50:00,METAR LSZH 161150Z VRB03KT 9999 FEW050 18/07 Q1023
2026-04-16 11:20:00,METAR LSZH 161120Z VRB03KT 9999 FEW044 18/06 Q1023
2026-04-16 10:50:00,METAR LSZH 161050Z VRB02KT 9999 FEW040 17/07 Q1023
2026-04-16 10:20:00,METAR LSZH 161020Z VRB02KT 9999 FEW036 16/07 Q1023 NOSIG
2026-04-16 09:50:00,METAR LSZH 160950Z VRB02KT 9999 FEW032 16/08 Q1024 NOSIG
2026-04-16 09:20:00,METAR LSZH 160920Z 05003KT 9999 FEW028 15/08 Q1024 NOSIG
2026-04-16 08:50:00,METAR LSZH 160850Z VRB02KT 9999 FEW024 14/08 Q1024 NOSIG
2026-04-16 08:20:00,METAR LSZH 160820Z VRB01KT 9999 FEW020 SCT065 13/08 Q1024 NOSIG
2026-04-16 07:50:00,METAR LSZH 160750Z 16003KT 9999 FEW047 12/08 Q1024 NOSIG
2026-04-16 07:20:00,METAR LSZH 160720Z VRB02KT 9999 FEW046 10/07 Q1024 NOSIG
2026-04-16 06:50:00,METAR LSZH 160650Z VRB01KT 9999 FEW048 SCT066 09/07 Q1024 NOSIG
2026-04-16 06:20:00,METAR LSZH 160620Z 31003KT 9999 FEW048 BKN066 08/07 Q1024 NOSIG
2026-04-16 05:50:00,METAR LSZH 160550Z VRB01KT 9999 FEW050 BKN065 07/07 Q1024 NOSIG
2026-04-16 05:20:00,METAR LSZH 160520Z 13002KT 9999 FEW048 BKN065 07/06 Q1024 NOSIG
2026-04-16 04:50:00,METAR LSZH 160450Z VRB01KT 9999 FEW048 BKN060 06/06 Q1024 NOSIG
2026-04-16 04:20:00,METAR LSZH 160420Z 26002KT 9999 FEW047 BKN058 06/06 Q1023 NOSIG
2026-04-16 03:50:00,METAR LSZH 160350Z VRB01KT 9999 MIFG FEW048 BKN058 05/05 Q1023 TEMPO 4500 BR
2026-04-16 03:20:00,METAR LSZH 160320Z AUTO 10003KT 9999 SCT042 BKN061 05/05 Q1023 TEMPO 4500 BR
2026-04-16 02:50:00,METAR LSZH 160250Z AUTO VRB01KT 9999 0900N R14/P2000N R16/P2000N R28/P2000N R34/P2000N BCFG SCT039 04/04 Q1023 TEMPO 4500 BR
2026-04-16 02:20:00,METAR LSZH 160220Z AUTO VRB01KT 9000 1000N R14/1200N R16/P2000N R28/P2000N R34/P2000N FEW039 04/04 Q1023 TEMPO 4500 BR
2026-04-16 01:50:00,METAR LSZH 160150Z AUTO VRB01KT 9999 4900N FEW039 05/05 Q1023 TEMPO 4500 BR
2026-04-16 01:20:00,METAR LSZH 160120Z AUTO 16002KT 9999 NCD 05/05 Q1023 TEMPO 4500 BR
2026-04-16 00:50:00,METAR LSZH 160050Z AUTO VRB01KT 9000 SCT039 05/05 Q1023 TEMPO 4500 BR
2026-04-16 00:20:00,METAR LSZH 160020Z AUTO 16001KT 9999 2500N BKN038 06/06 Q1023 TEMPO 4500 BR
2026-04-15 23:50:00,METAR LSZH 152350Z AUTO VRB01KT 9999 2500N NCD 05/05 Q1023 TEMPO 4500 BR
2026-04-15 23:20:00,METAR LSZH 152320Z AUTO VRB01KT 9999 3900N NCD 06/06 Q1023 TEMPO 4500 BR
2026-04-15 22:50:00,METAR LSZH 152250Z AUTO VRB01KT CAVOK 06/06 Q1023 NOSIG
2026-04-15 22:20:00,METAR LSZH 152220Z AUTO VRB01KT CAVOK 07/07 Q1023 NOSIG
2026-04-15 21:50:00,METAR LSZH 152150Z AUTO VRB02KT CAVOK 08/07 Q1023 NOSIG
2026-04-15 21:20:00,METAR LSZH 152120Z VRB01KT 9999 FEW035 10/07 Q1023 NOSIG
2026-04-15 20:50:00,METAR LSZH 152050Z 24003KT 9999 SCT035 10/07 Q1022 NOSIG
2026-04-15 20:20:00,METAR LSZH 152020Z VRB02KT 9999 BKN035 11/07 Q1022 NOSIG
2026-04-15 19:50:00,METAR LSZH 151950Z VRB03KT 9999 BKN035 11/07 Q1022 NOSIG
2026-04-15 19:20:00,METAR LSZH 151920Z VRB01KT 9999 BKN035 11/07 Q1022 NOSIG
2026-04-15 18:50:00,METAR LSZH 151850Z 36004KT 9999 FEW031 BKN034 12/06 Q1022 NOSIG
2026-04-15 18:20:00,METAR LSZH 151820Z 36004KT 9999 FEW031 BKN034 12/06 Q1021 NOSIG
2026-04-15 17:50:00,METAR LSZH 151750Z 35003KT 9999 FEW030 BKN034 12/06 Q1021 NOSIG
2026-04-15 17:20:00,METAR LSZH 151720Z 32003KT 9999 FEW030 BKN034 12/08 Q1021 NOSIG
2026-04-15 16:50:00,METAR LSZH 151650Z 29003KT 9999 FEW030 BKN035 12/07 Q1021 NOSIG
2026-04-15 16:20:00,METAR LSZH 151620Z VRB03KT 9999 FEW030 BKN037 13/07 Q1021 NOSIG
2026-04-15 15:50:00,METAR LSZH 151550Z VRB01KT 9999 FEW028 BKN037 13/06 Q1021 NOSIG
2026-04-15 15:20:00,METAR LSZH 151520Z VRB02KT 9999 FEW028 BKN035 12/07 Q1021 NOSIG
2026-04-15 14:50:00,METAR LSZH 151450Z 35003KT 310V040 9999 FEW026 BKN034 12/06 Q1021 NOSIG
2026-04-15 14:20:00,METAR LSZH 151420Z 34004KT 9999 FEW026 BKN032 13/06 Q1021 NOSIG
2026-04-15 13:50:00,METAR LSZH 151350Z 36004KT 320V040 9999 FEW026 BKN032 13/06 Q1021 NOSIG
2026-04-15 13:20:00,METAR LSZH 151320Z 02006KT 340V050 9999 FEW025 BKN033 13/06 Q1021 NOSIG
2026-04-15 12:50:00,METAR LSZH 151250Z VRB03KT 9999 FEW024 BKN033 13/06 Q1021 NOSIG
2026-04-15 12:20:00,METAR LSZH 151220Z 11004KT 360V140 9999 FEW024 BKN033 13/06 Q1021 NOSIG
2026-04-15 11:50:00,METAR LSZH 151150Z 03004KT 330V080 9999 FEW028 BKN033 12/06 Q1022 NOSIG
2026-04-15 11:20:00,METAR LSZH 151120Z 04007KT 9999 FEW020 BKN033 12/06 Q1022 NOSIG
2026-04-15 10:50:00,METAR LSZH 151050Z 04008KT 9999 FEW019 BKN035 11/07 Q1022 NOSIG
2026-04-15 10:20:00,METAR LSZH 151020Z 04009KT 9999 FEW019 BKN035 11/06 Q1022 NOSIG
2026-04-15 09:50:00,METAR LSZH 150950Z 04009KT 010V080 9000 FEW017 BKN035 11/06 Q1022 NOSIG
2026-04-15 09:20:00,METAR LSZH 150920Z 04009KT 9000 FEW017 BKN035 10/06 Q1022 NOSIG
2026-04-15 08:50:00,METAR LSZH 150850Z 04007KT 010V080 9000 FEW014 BKN030 10/06 Q1022 NOSIG
2026-04-15 08:20:00,METAR LSZH 150820Z 04006KT 9000 FEW013 BKN030 09/06 Q1022 NOSIG
2026-04-15 07:50:00,METAR LSZH 150750Z 03007KT 9000 FEW013 BKN028 09/06 Q1022 NOSIG
2026-04-15 07:20:00,METAR LSZH 150720Z 04006KT 8000 FEW013 BKN028 09/06 Q1022 NOSIG
2026-04-15 06:50:00,METAR LSZH 150650Z 02007KT 8000 BKN030 08/06 Q1022 NOSIG
2026-04-15 06:20:00,METAR LSZH 150620Z 01007KT 340V060 7000 FEW017 BKN030 08/06 Q1022 NOSIG
2026-04-15 05:50:00,METAR LSZH 150550Z 35003KT 320V020 7000 FEW017 BKN030 08/06 Q1022 NOSIG
2026-04-15 05:20:00,METAR LSZH 150520Z 36004KT 330V030 8000 FEW017 BKN030 08/05 Q1021 NOSIG
2026-04-15 04:50:00,METAR LSZH 150450Z 01004KT 9999 FEW014 BKN030 08/06 Q1021 NOSIG
2026-04-15 04:20:00,METAR LSZH 150420Z 36006KT 9999 FEW016 BKN030 08/05 Q1021 NOSIG
2026-04-15 03:50:00,METAR LSZH 150350Z 36004KT 9999 SCT017 BKN030 08/06 Q1021 NOSIG
2026-04-15 03:20:00,METAR LSZH 150320Z AUTO 04002KT 9999 FEW018 BKN030 07/06 Q1021 NOSIG
2026-04-15 02:50:00,METAR LSZH 150250Z AUTO 01003KT 9999 FEW021 BKN029 07/06 Q1021 NOSIG
2026-04-15 02:20:00,METAR LSZH 150220Z AUTO 36004KT 9999 BKN030 08/05 Q1021 NOSIG
2026-04-15 01:50:00,METAR LSZH 150150Z AUTO 02005KT 9999 SCT030 SCT033 07/05 Q1021 NOSIG
2026-04-15 01:20:00,METAR LSZH 150120Z AUTO 34006KT 9999 FEW019 BKN032 06/05 Q1021 NOSIG
2026-04-15 00:50:00,METAR LSZH 150050Z AUTO 33006KT 9999 SCT019 SCT042 06/05 Q1022 NOSIG
2026-04-15 00:20:00,METAR LSZH 150020Z AUTO 02003KT 9999 BKN024 06/05 Q1022 NOSIG
2026-04-14 23:50:00,METAR LSZH 142350Z AUTO VRB03KT 9999 BKN030 05/04 Q1022 NOSIG
2026-04-14 23:20:00,METAR LSZH 142320Z AUTO 34004KT 9999 FEW039 06/04 Q1022 NOSIG
2026-04-14 22:50:00,METAR LSZH 142250Z AUTO VRB01KT 9999 FEW020 SCT039 07/05 Q1022 NOSIG
2026-04-14 22:20:00,METAR LSZH 142220Z AUTO 01004KT 9999 FEW028 BKN040 09/05 Q1022 NOSIG
2026-04-14 21:50:00,METAR LSZH 142150Z AUTO 05005KT 9999 BKN027 09/06 Q1022 NOSIG
2026-04-14 21:20:00,METAR LSZH 142120Z VRB03KT 9999 SCT022 BKN027 09/05 Q1022 NOSIG
2026-04-14 20:50:00,METAR LSZH 142050Z 03004KT 360V060 9999 FEW022 BKN035 09/06 Q1022 NOSIG
2026-04-14 20:20:00,METAR LSZH 142020Z 03006KT 9999 FEW022 BKN036 09/06 Q1022 NOSIG
2026-04-14 19:50:00,METAR LSZH 141950Z 02005KT 9999 FEW030 BKN033 10/06 Q1022 NOSIG
2026-04-14 19:20:00,METAR LSZH 141920Z 02005KT 9999 SCT023 BKN027 10/06 Q1022 NOSIG
2026-04-14 18:50:00,METAR LSZH 141850Z 02005KT 9999 SCT020 BKN040 10/06 Q1022 NOSIG
2026-04-14 18:20:00,METAR LSZH 141820Z 03005KT 9999 FEW024 BKN042 10/06 Q1021 NOSIG
2026-04-14 17:50:00,METAR LSZH 141750Z 04003KT 350V090 9999 SCT030 BKN040 10/06 Q1021 NOSIG
2026-04-14 17:20:00,METAR LSZH 141720Z 04004KT 9999 SCT022 BKN045 11/06 Q1021 NOSIG
2026-04-14 16:50:00,METAR LSZH 141650Z 01004KT 310V090 9999 FEW020 BKN043 11/06 Q1021 NOSIG
2026-04-14 16:20:00,METAR LSZH 141620Z 01004KT 340V040 9999 FEW020 BKN042 11/06 Q1021 NOSIG
2026-04-14 15:50:00,METAR LSZH 141550Z VRB02KT 9999 SCT030 BKN042 11/06 Q1020 NOSIG
2026-04-14 15:20:00,METAR LSZH 141520Z 02005KT 9999 SCT028 BKN036 10/06 Q1020 NOSIG
2026-04-14 14:50:00,METAR LSZH 141450Z 04005KT 020V100 9999 SCT022 BKN027 10/06 Q1020 NOSIG
2026-04-14 14:20:00,METAR LSZH 141420Z 02007KT 9999 SCT022 BKN033 10/06 Q1020 NOSIG
2026-04-14 13:50:00,METAR LSZH 141350Z 04004KT 330V110 9999 FEW024 SCT027 BKN030 11/06 Q1020 NOSIG
2026-04-14 13:20:00,METAR LSZH 141320Z 05004KT 010V090 9999 FEW020 SCT027 BKN038 11/06 Q1020 NOSIG
2026-04-14 12:50:00,METAR LSZH 141250Z 06006KT 010V090 9999 FEW018 SCT020 BKN032 11/06 Q1020
2026-04-14 12:20:00,METAR LSZH 141220Z 06006KT 030V090 9999 FEW018 BKN025 10/06 Q1020 NOSIG
2026-04-14 11:50:00,METAR LSZH 141150Z 06004KT 030V150 9999 FEW018 BKN023 10/06 Q1020 NOSIG
2026-04-14 11:20:00,METAR LSZH 141120Z 06005KT 9999 FEW015 SCT018 BKN023 10/06 Q1019 NOSIG
2026-04-14 10:50:00,METAR LSZH 141050Z VRB03KT 9999 FEW015 SCT018 BKN023 10/06 Q1019 NOSIG
2026-04-14 10:20:00,METAR LSZH 141020Z 01003KT 330V060 9999 FEW010 SCT018 BKN025 09/06 Q1019 NOSIG
2026-04-14 09:50:00,METAR LSZH 140950Z VRB03KT 9999 FEW010 SCT015 BKN020 09/05 Q1019 TEMPO BKN014
2026-04-14 09:20:00,METAR LSZH 140920Z VRB02KT 9999 SCT010 BKN025 09/06 Q1019 TEMPO BKN012
2026-04-14 08:50:00,METAR LSZH 140850Z 36003KT 300V060 9999 FEW010 SCT013 BKN025 08/06 Q1019 TEMPO BKN012
2026-04-14 08:20:00,METAR LSZH 140820Z VRB02KT 9000 FEW007 SCT009 BKN025 08/06 Q1019 TEMPO BKN010
2026-04-14 07:50:00,METAR LSZH 140750Z VRB02KT 8000 FEW005 SCT007 BKN030 07/06 Q1019 NOSIG
2026-04-14 07:20:00,METAR LSZH 140720Z 29003KT 6000 -DZ FEW004 SCT007 OVC012 06/06 Q1018 BECMG BKN015
2026-04-14 06:50:00,METAR LSZH 140650Z 30002KT 6000 -DZRA FEW004 SCT007 OVC009 06/06 Q1018 BECMG BKN010
2026-04-14 06:20:00,METAR LSZH 140620Z 30003KT 7000 FEW004 SCT007 OVC009 06/06 Q1018 BECMG BKN010
2026-04-14 05:50:00,METAR LSZH 140550Z 29004KT 4500 -DZ BR FEW005 SCT007 OVC009 06/06 Q1018 BECMG 5000 BKN010
2026-04-14 05:20:00,METAR LSZH 140520Z 28004KT 4000 -DZ BR FEW004 SCT006 OVC008 06/06 Q1017 BECMG 5000 BKN010
2026-04-14 04:50:00,METAR LSZH 140450Z 29005KT 3500 -RADZ BR FEW004 SCT006 OVC008 06/06 Q1017 BECMG 5000
2026-04-14 04:20:00,METAR LSZH 140420Z 29005KT 5000 -RADZ BR FEW004 BKN006 06/06 Q1017 TEMPO 4000
2026-04-14 03:50:00,METAR LSZH 140350Z 28003KT 250V320 6000 -DZRA FEW004 BKN007 06/05 Q1017 NOSIG
2026-04-14 03:20:00,METAR LSZH 140320Z AUTO VRB01KT 9999 SCT003 BKN007 06/05 Q1017 NOSIG
2026-04-14 02:50:00,METAR LSZH 140250Z AUTO 24002KT 9999 BKN005 BKN008 06/06 Q1016 NOSIG
2026-04-14 02:20:00,METAR LSZH 140220Z AUTO 25003KT 230V290 9999 SCT003 SCT008 BKN011 06/05 Q1016 NOSIG
2026-04-14 01:50:00,METAR LSZH 140150Z AUTO 25002KT 8000 FEW003 BKN005 06/06 Q1016 REDZ NOSIG
2026-04-14 01:20:00,METAR LSZH 140120Z AUTO VRB03KT 6000 DZ FEW004 BKN006 06/06 Q1016 NOSIG
2026-04-14 00:50:00,METAR LSZH 140050Z AUTO VRB02KT 9999 BKN006 06/06 Q1016 TEMPO BKN012
2026-04-14 00:20:00,METAR LSZH 140020Z AUTO VRB02KT 9999 -DZRA FEW006 BKN009 BKN010 06/06 Q1015 REDZ TEMPO BKN012
2026-04-13 23:50:00,METAR LSZH 132350Z AUTO 29004KT 270V330 9999 DZ BKN006 06/05 Q1015 TEMPO BKN012
2026-04-13 23:20:00,METAR LSZH 132320Z AUTO VRB02KT 9999 -RA FEW007 SCT009 BKN010 06/06 Q1015 TEMPO BKN012
2026-04-13 22:50:00,METAR LSZH 132250Z AUTO VRB02KT 9999 -SHRA SCT006 BKN011 BKN018 06/06 Q1015 TEMPO BKN012
2026-04-13 22:20:00,METAR LSZH 132220Z AUTO 27004KT 180V310 9000 -RA FEW006 BKN008 BKN017 07/06 Q1015 TEMPO BKN012
2026-04-13 21:50:00,METAR LSZH 132150Z AUTO 29005KT 9000 -SHRA FEW005 BKN009 07/05 Q1015 TEMPO BKN012
2026-04-13 21:20:00,METAR LSZH 132120Z 29007KT 260V320 8000 -RA FEW006 SCT008 BKN009 07/06 Q1014 NOSIG
2026-04-13 20:50:00,METAR LSZH 132050Z 30006KT 260V330 9000 -RA FEW006 SCT008 BKN009 07/06 Q1014 NOSIG
2026-04-13 20:20:00,METAR LSZH 132020Z 30007KT 8000 -RA FEW007 SCT008 BKN009 07/06 Q1014 NOSIG
2026-04-13 19:50:00,METAR LSZH 131950Z 30006KT 9000 -RA FEW006 SCT008 BKN009 07/06 Q1013 NOSIG
2026-04-13 19:20:00,METAR LSZH 131920Z 30007KT 260V320 7000 -RA FEW005 SCT007 BKN009 07/06 Q1013 NOSIG
2026-04-13 18:50:00,METAR LSZH 131850Z 29008KT 270V350 7000 -RA FEW005 SCT007 BKN011 07/06 Q1012 TEMPO BKN009
2026-04-13 18:20:00,METAR LSZH 131820Z 29006KT 6000 -RA FEW005 SCT009 BKN010 07/06 Q1012 TEMPO BKN009
2026-04-13 17:50:00,METAR LSZH 131750Z 30005KT 7000 -RADZ FEW005 SCT008 BKN010 07/07 Q1012 TEMPO BKN009
2026-04-13 17:20:00,METAR LSZH 131720Z 30008KT 9000 -DZ FEW006 SCT008 BKN012 08/07 Q1011 TEMPO BKN009
2026-04-13 16:50:00,METAR LSZH 131650Z 30010KT 9000 -RADZ FEW006 SCT009 BKN013 08/07 Q1011 NOSIG
2026-04-13 16:20:00,METAR LSZH 131620Z 30009KT 7000 -RA FEW006 SCT009 BKN011 08/07 Q1011 NOSIG
2026-04-13 15:50:00,METAR LSZH 131550Z 29011KT 8000 -RADZ SCT009 BKN019 08/07 Q1011 TEMPO BKN012
2026-04-13 15:20:00,METAR LSZH 131520Z 30010KT 9000 -RADZ FEW009 SCT014 BKN017 08/07 Q1010 TEMPO BKN012
2026-04-13 14:50:00,METAR LSZH 131450Z 29009KT 9999 -DZ FEW012 SCT014 BKN017 09/07 Q1010 TEMPO BKN012
2026-04-13 14:20:00,METAR LSZH 131420Z 30009KT 9999 SCT013 BKN018 09/07 Q1010 NOSIG
2026-04-13 13:50:00,METAR LSZH 131350Z 29008KT 9999 SCT013 BKN014 10/07 Q1010 BECMG BKN018
2026-04-13 13:20:00,METAR LSZH 131320Z 28006KT 250V310 9999 SCT011 BKN013 10/07 Q1010 NOSIG
2026-04-13 12:50:00,METAR LSZH 131250Z 29007KT 9999 FEW010 SCT012 BKN018 10/07 Q1010 TEMPO BKN012
2026-04-13 12:20:00,METAR LSZH 131220Z 29007KT 9999 FEW010 SCT012 BKN015 09/07 Q1010 TEMPO BKN012
2026-04-13 11:50:00,METAR LSZH 131150Z 28006KT 9999 FEW008 SCT010 BKN014 10/07 Q1010 BECMG BKN015
2026-04-13 11:20:00,METAR LSZH 131120Z 29007KT 9999 FEW007 BKN011 OVC017 09/07 Q1009 TEMPO BKN015
2026-04-13 10:50:00,METAR LSZH 131050Z 28007KT 9999 FEW006 BKN010 OVC013 09/07 Q1009 BECMG BKN012
2026-04-13 10:20:00,METAR LSZH 131020Z 31005KT 9999 SCT006 OVC010 09/07 Q1009 NOSIG
2026-04-13 09:50:00,METAR LSZH 130950Z 33004KT 9000 FEW004 BKN007 OVC013 09/07 Q1010 BECMG BKN010
2026-04-13 09:20:00,METAR LSZH 130920Z 33005KT 6000 FEW004 BKN006 08/07 Q1010 BECMG BKN010
2026-04-13 08:50:00,METAR LSZH 130850Z 33005KT 5000 -DZ BR FEW004 BKN006 08/07 Q1009 BECMG BKN010
2026-04-13 08:20:00,METAR LSZH 130820Z 33005KT 3500 -DZ BR FEW003 SCT004 BKN005 08/07 Q1009 TEMPO 5000
2026-04-13 07:50:00,METAR LSZH 130750Z 32005KT 3200 -DZ BR FEW003 BKN005 08/07 Q1009 TEMPO 5000
2026-04-13 07:20:00,METAR LSZH 130720Z 32004KT 3200 -DZ BR FEW003 SCT005 BKN006 07/07 Q1009 TEMPO BKN005
2026-04-13 06:50:00,METAR LSZH 130650Z 34006KT 3500 -DZ BR FEW004 BKN006 07/07 Q1009 TEMPO 5000
2026-04-13 06:20:00,METAR LSZH 130620Z 34005KT 7000 FEW004 BKN006 07/07 Q1009 NOSIG
2026-04-13 05:50:00,METAR LSZH 130550Z COR 31004KT 8000 FEW004 BKN006 07/07 Q1009 NOSIG
2026-04-13 05:20:00,METAR LSZH 130520Z COR 31004KT 9000 FEW006 BKN007 07/07 Q1009 NOSIG
2026-04-13 04:50:00,METAR LSZH 130450Z 32004KT 9999 FEW006 BKN007 07/07 Q1009 NOSIG
2026-04-13 04:20:00,METAR LSZH 130420Z 33005KT 9999 FEW006 BKN008 07/07 Q1009 NOSIG
2026-04-13 03:50:00,METAR LSZH 130350Z 34004KT 9999 FEW006 BKN008 07/06 Q1010 NOSIG
2026-04-13 03:20:00,METAR LSZH 130320Z AUTO 35003KT 320V030 9999 SCT006 BKN009 08/06 Q1010 NOSIG
2026-04-13 02:50:00,METAR LSZH 130250Z AUTO 36004KT 9999 BKN007 08/06 Q1010 NOSIG
2026-04-13 02:20:00,METAR LSZH 130220Z AUTO 01005KT 9999 BKN007 08/06 Q1010 NOSIG
2026-04-13 01:50:00,METAR LSZH 130150Z AUTO 01005KT 9999 BKN007 08/06 Q1010 NOSIG
2026-04-13 01:20:00,METAR LSZH 130120Z AUTO 36004KT 9999 BKN007 08/06 Q1010 NOSIG
2026-04-13 00:50:00,METAR LSZH 130050Z AUTO 02005KT 9999 BKN007 BKN010 08/06 Q1010 NOSIG
2026-04-13 00:20:00,METAR LSZH 130020Z AUTO 01004KT 9999 FEW007 SCT009 BKN010 08/06 Q1011 NOSIG
2026-04-12 23:50:00,METAR LSZH 122350Z AUTO 01006KT 340V040 9999 BKN008 08/06 Q1011 NOSIG
2026-04-12 23:20:00,METAR LSZH 122320Z AUTO 36003KT 320V020 9999 BKN009 08/06 Q1011 NOSIG
2026-04-12 22:50:00,METAR LSZH 122250Z AUTO 01004KT 340V040 9999 BKN009 08/05 Q1011 NOSIG
2026-04-12 22:20:00,METAR LSZH 122220Z AUTO 01003KT 9999 SCT009 BKN011 08/05 Q1012 NOSIG
2026-04-12 21:50:00,METAR LSZH 122150Z AUTO 36005KT 330V050 9999 BKN009 08/05 Q1012 NOSIG
2026-04-12 21:20:00,METAR LSZH 122120Z 35005KT 9999 FEW011 BKN013 08/05 Q1012 BECMG BKN008
2026-04-12 20:50:00,METAR LSZH 122050Z 03005KT 360V060 9999 FEW011 BKN013 08/05 Q1012 NOSIG
2026-04-12 20:20:00,METAR LSZH 122020Z 36004KT 310V050 9999 BKN013 08/05 Q1013 NOSIG
2026-04-12 19:50:00,METAR LSZH 121950Z 02005KT 350V060 9999 BKN013 BKN015 08/06 Q1013 NOSIG
2026-04-12 19:20:00,METAR LSZH 121920Z VRB05KT 9999 BKN013 08/06 Q1013 NOSIG
2026-04-12 18:50:00,METAR LSZH 121850Z 36005KT 9999 FEW012 BKN015 08/06 Q1013 TEMPO BKN012
2026-04-12 18:20:00,METAR LSZH 121820Z 35005KT 9999 FEW010 BKN013 08/06 Q1013 TEMPO BKN015
2026-04-12 17:50:00,METAR LSZH 121750Z 35006KT 320V020 9999 FEW010 BKN012 BKN022 08/06 Q1013 TEMPO 4500 -DZ BKN008
2026-04-12 17:20:00,METAR LSZH 121720Z 35007KT 7000 FEW008 BKN012 08/07 Q1014 TEMPO 4500 -DZ BKN008
2026-04-12 16:50:00,METAR LSZH 121650Z 36006KT 7000 -DZ FEW007 BKN008 08/07 Q1014 TEMPO 4500 TEMPO BKN012
2026-04-12 16:20:00,METAR LSZH 121620Z 01009KT 9999 4500SE BKN008 BKN011 08/07 Q1014 TEMPO BKN012
2026-04-12 15:50:00,METAR LSZH 121550Z 02009KT 9999 FEW007 BKN012 BKN016 09/06 Q1014 TEMPO BKN015
2026-04-12 14:50:00,METAR LSZH 121450Z 34009KT 9999 FEW012 SCT015 BKN024 09/06 Q1014 NOSIG
2026-04-12 14:20:00,METAR LSZH 121420Z 33009KT 9999 SCT014 BKN025 09/07 Q1014 NOSIG
2026-04-12 13:50:00,METAR LSZH 121350Z 33010KT 9999 FEW010 SCT015 BKN022 10/07 Q1014 NOSIG
2026-04-12 13:20:00,METAR LSZH 121320Z 34008KT 9999 FEW008 SCT012 BKN018 10/08 Q1014 NOSIG
2026-04-12 12:50:00,METAR LSZH 121250Z 01010KT 9999 SCT012 BKN018 10/07 Q1014 NOSIG
2026-04-12 12:20:00,METAR LSZH 121220Z 02006KT 340V060 9999 FEW012 SCT020 BKN025 11/08 Q1014 NOSIG
2026-04-12 11:50:00,METAR LSZH 121150Z 05006KT 9999 FEW010 SCT020 BKN027 11/08 Q1014 NOSIG
2026-04-12 11:20:00,METAR LSZH 121120Z 04005KT 010V070 9999 FEW010 BKN022 10/08 Q1015 NOSIG
2026-04-12 10:50:00,METAR LSZH 121050Z 03008KT 9999 FEW006 SCT010 BKN025 10/08 Q1015 NOSIG
2026-04-12 10:20:00,METAR LSZH 121020Z 02006KT 340V060 7000 2500S -DZRA FEW006 SCT010 BKN020 09/08 Q1015 TEMPO 4000 DZRA BKN012
2026-04-12 09:50:00,METAR LSZH 120950Z 02004KT 340V050 9999 4200SW -DZRA FEW005 SCT015 BKN025 10/08 Q1015 TEMPO 4000 DZRA BKN012
2026-04-12 09:20:00,METAR LSZH 120920Z 34005KT 310V030 9000 -DZRA FEW005 SCT008 BKN015 10/09 Q1015 TEMPO RA BKN012
2026-04-12 08:50:00,METAR LSZH 120850Z 34007KT 9000 FEW008 SCT010 BKN023 10/08 Q1015 TEMPO RA BKN012
2026-04-12 08:20:00,METAR LSZH 120820Z 33006KT 9999 FEW009 SCT012 BKN024 10/09 Q1015 TEMPO RA BKN012
2026-04-12 07:50:00,METAR LSZH 120750Z 30006KT 9999 FEW009 SCT012 BKN027 10/09 Q1015 TEMPO RA BKN012
2026-04-12 07:20:00,METAR LSZH 120720Z 29005KT 9999 FEW010 SCT012 BKN027 10/09 Q1016 NOSIG
2026-04-12 06:50:00,METAR LSZH 120650Z 29004KT 250V320 9999 FEW008 SCT012 BKN030 10/08 Q1016 NOSIG
2026-04-12 06:20:00,METAR LSZH 120620Z 26004KT 230V290 9999 FEW010 SCT030 BKN045 10/09 Q1016 NOSIG
2026-04-12 05:50:00,METAR LSZH 120550Z 23003KT 200V260 9999 FEW008 BKN030 10/09 Q1016 TEMPO RA
2026-04-12 05:20:00,METAR LSZH 120520Z VRB02KT 9999 -RA FEW008 SCT025 BKN030 10/09 Q1016 TEMPO RA
2026-04-12 04:50:00,METAR LSZH 120450Z VRB02KT 8000 -RA FEW008 SCT030 BKN060 10/09 Q1015 RERA TEMPO RA
2026-04-12 04:20:00,METAR LSZH 120420Z 27004KT 230V310 7000 RA FEW010 BKN025 BKN065 10/09 Q1016 TEMPO NSW
2026-04-12 03:50:00,METAR LSZH 120350Z 28005KT 240V300 7000 RA FEW010 SCT022 BKN050 10/09 Q1015 NOSIG
2026-04-12 03:20:00,METAR LSZH 120320Z AUTO 29008KT 9999 RA FEW009 BKN045 BKN050 11/09 Q1015 RESHRA NOSIG
2026-04-12 02:50:00,METAR LSZH 120250Z AUTO 29010KT 9999 4000E RA FEW016 BKN045 11/10 Q1015 NOSIG
2026-04-12 02:20:00,METAR LSZH 120220Z AUTO 28006KT 9999 -RA FEW018 BKN043 BKN048 12/10 Q1015 NOSIG
2026-04-12 01:50:00,METAR LSZH 120150Z AUTO 30010KT 9999 -RA FEW022 BKN041 13/10 Q1015 NOSIG
2026-04-12 01:20:00,METAR LSZH 120120Z AUTO 30009KT 9999 FEW032 BKN037 BKN050 13/10 Q1014 NOSIG
2026-04-12 00:50:00,METAR LSZH 120050Z AUTO 29008KT 260V320 9999 SCT016 SCT021 BKN025 13/10 Q1014 NOSIG
2026-04-12 00:20:00,METAR LSZH 120020Z AUTO 29006KT 230V330 9999 SCT014 SCT019 OVC065 14/11 Q1014 NOSIG
2026-04-11 23:50:00,METAR LSZH 112350Z AUTO 29005KT 250V330 9999 FEW012 13/11 Q1014 NOSIG
2026-04-11 23:20:00,METAR LSZH 112320Z AUTO 30005KT CAVOK 13/11 Q1013 NOSIG
2026-04-11 22:50:00,METAR LSZH 112250Z AUTO 32004KT CAVOK 11/10 Q1013 NOSIG
2026-04-11 22:20:00,METAR LSZH 112220Z AUTO 34005KT CAVOK 11/11 Q1013 NOSIG
2026-04-11 21:50:00,METAR LSZH 112150Z AUTO 31005KT 280V010 CAVOK 11/11 Q1012 NOSIG
2026-04-11 21:20:00,METAR LSZH 112120Z 32006KT CAVOK 12/11 Q1012 NOSIG
2026-04-11 20:50:00,METAR LSZH 112050Z 36004KT 9999 NSC 13/12 Q1012 NOSIG
2026-04-11 20:20:00,METAR LSZH 112020Z 29003KT CAVOK 13/12 Q1012 NOSIG
2026-04-11 19:50:00,METAR LSZH 111950Z 10003KT CAVOK 14/12 Q1012 NOSIG
2026-04-11 19:20:00,METAR LSZH 111920Z 12004KT 070V150 CAVOK 14/12 Q1012 NOSIG
2026-04-11 18:50:00,METAR LSZH 111850Z 13004KT CAVOK 14/12 Q1012 NOSIG
2026-04-11 18:20:00,METAR LSZH 111820Z 14003KT 090V200 9999 -SHRA FEW060 14/12 Q1012 NOSIG
2026-04-11 17:50:00,METAR LSZH 111750Z VRB02KT 9999 -SHRA FEW060 14/12 Q1012 NOSIG
2026-04-11 17:20:00,METAR LSZH 111720Z 35006KT 320V020 9999 -SHRA SCT050 14/12 Q1013 NOSIG
2026-04-11 16:50:00,METAR LSZH 111650Z 28009KT 9999 -SHRA FEW050 BKN070 16/11 Q1013 TEMPO SHRA
2026-04-11 16:20:00,METAR LSZH 111620Z 29011KT 9999 SHRA FEW048TCU BKN070 16/12 Q1013 TEMPO NSW
2026-04-11 15:50:00,METAR LSZH 111550Z 26008KT 9999 TS FEW048CB BKN075 21/09 Q1012 TEMPO 4500 TSRA
2026-04-11 15:20:00,METAR LSZH 111520Z 25004KT 9999 VCSH FEW048CB 22/08 Q1011 TEMPO SHRA
2026-04-11 14:50:00,METAR LSZH 111450Z 25006KT 210V280 CAVOK 23/08 Q1011 NOSIG
2026-04-11 14:20:00,METAR LSZH 111420Z VRB02KT CAVOK 22/09 Q1011 NOSIG
2026-04-11 13:50:00,METAR LSZH 111350Z VRB02KT CAVOK 21/09 Q1011 NOSIG
2026-04-11 13:20:00,METAR LSZH 111320Z VRB02KT CAVOK 21/09 Q1012 NOSIG
2026-04-11 12:50:00,METAR LSZH 111250Z VRB03KT CAVOK 21/10 Q1012 NOSIG
2026-04-11 12:20:00,METAR LSZH 111220Z VRB03KT CAVOK 20/09 Q1012 NOSIG
2026-04-11 11:50:00,METAR LSZH 111150Z VRB03KT CAVOK 19/09 Q1012 NOSIG
2026-04-11 11:20:00,METAR LSZH 111120Z VRB02KT CAVOK 18/09 Q1013 NOSIG
2026-04-11 10:50:00,METAR LSZH 111050Z 01003KT 290V090 CAVOK 17/10 Q1013 NOSIG
2026-04-11 10:20:00,METAR LSZH 111020Z VRB02KT CAVOK 16/09 Q1013 NOSIG
2026-04-11 09:50:00,METAR LSZH 110950Z VRB02KT CAVOK 15/10 Q1013 NOSIG
2026-04-11 09:20:00,METAR LSZH 110920Z VRB02KT 9999 FEW020 14/09 Q1014 NOSIG
2026-04-11 08:50:00,METAR LSZH 110850Z VRB03KT 8000 FEW016 13/09 Q1014 NOSIG
2026-04-11 08:20:00,METAR LSZH 110820Z VRB03KT 6000 FEW012 12/09 Q1014 NOSIG
2026-04-11 07:50:00,METAR LSZH 110750Z 18005KT 130V210 6000 SCT007 11/09 Q1014 NOSIG
2026-04-11 07:20:00,METAR LSZH 110720Z 14004KT 5000 BR SCT003 SCT005 BKN008 11/09 Q1014 BECMG SCT008
2026-04-11 06:50:00,METAR LSZH 110650Z VRB01KT 5000 BR FEW002 SCT003 BKN006 10/09 Q1015 BECMG SCT008
2026-04-11 06:20:00,METAR LSZH 110620Z VRB02KT 5000 BR FEW002 BKN003 10/09 Q1014 BECMG BKN006
2026-04-11 05:50:00,METAR LSZH 110550Z VRB02KT 5000 BR FEW002 BKN003 10/09 Q1014 NOSIG
2026-04-11 05:20:00,METAR LSZH 110520Z VRB01KT 5000 BR FEW002 BKN003 09/09 Q1014 NOSIG
2026-04-11 04:50:00,METAR LSZH 110450Z VRB01KT 5000 BR FEW002 BKN003 09/09 Q1014 NOSIG
2026-04-11 04:20:00,METAR LSZH 110420Z 00000KT 5000 BR FEW002 BKN004 09/09 Q1014 TEMPO 2500 BCFG
2026-04-11 03:50:00,METAR LSZH 110350Z VRB01KT 5000 2200N BR FEW002 BKN003 09/09 Q1014 TEMPO 2500 BCFG
2026-04-11 03:20:00,METAR LSZH 110320Z AUTO 21002KT 6000 FEW002 OVC003 09/08 Q1014 NOSIG
2026-04-11 02:50:00,METAR LSZH 110250Z AUTO VRB01KT 6000 FEW002 BKN004 09/08 Q1015 TEMPO BKN004
2026-04-11 02:20:00,METAR LSZH 110220Z AUTO 25001KT 6000 SCT003 BKN005 08/08 Q1015 TEMPO BKN004
2026-04-11 01:50:00,METAR LSZH 110150Z AUTO VRB01KT 7000 SCT003 BKN006 BKN007 07/07 Q1015 BECMG BKN007
2026-04-11 01:20:00,METAR LSZH 110120Z AUTO VRB01KT 7000 BKN005 07/07 Q1015 TEMPO 4500 MIFG
2026-04-11 00:50:00,METAR LSZH 110050Z AUTO VRB01KT 5000 2400N BR FEW006 07/06 Q1015 TEMPO 4500 MIFG
2026-04-11 00:20:00,METAR LSZH 110020Z AUTO VRB02KT 7000 3400N NSC 06/06 Q1015 TEMPO 4500 MIFG
2026-04-10 23:50:00,METAR LSZH 102350Z AUTO VRB01KT 8000 NSC 07/07 Q1016 NOSIG
2026-04-10 23:20:00,METAR LSZH 102320Z AUTO 29002KT 7000 NSC 07/06 Q1016 NOSIG
2026-04-10 22:50:00,METAR LSZH 102250Z AUTO VRB02KT 8000 NSC 08/08 Q1016 NOSIG
2026-04-10 22:20:00,METAR LSZH 102220Z AUTO 29003KT 9000 NSC 07/07 Q1016 NOSIG
2026-04-10 21:50:00,METAR LSZH 102150Z AUTO 24002KT 9000 NSC 09/08 Q1016 NOSIG
2026-04-10 21:20:00,METAR LSZH 102120Z 33003KT CAVOK 09/08 Q1016 NOSIG
2026-04-10 20:50:00,METAR LSZH 102050Z VRB02KT CAVOK 10/09 Q1016 NOSIG
2026-04-10 20:20:00,METAR LSZH 102020Z VRB01KT CAVOK 11/09 Q1016 NOSIG
2026-04-10 19:50:00,METAR LSZH 101950Z 32003KT CAVOK 10/09 Q1017 NOSIG
2026-04-10 19:20:00,METAR LSZH 101920Z 09004KT 9999 FEW045 12/09 Q1017 NOSIG
2026-04-10 18:50:00,METAR LSZH 101850Z 03004KT 360V070 9999 FEW045 12/09 Q1017 NOSIG
2026-04-10 18:20:00,METAR LSZH 101820Z VRB02KT 9999 FEW050 12/09 Q1017 NOSIG
2026-04-10 17:50:00,METAR LSZH 101750Z VRB02KT 9999 FEW030 13/09 Q1017 NOSIG
2026-04-10 17:20:00,METAR LSZH 101720Z 06003KT 360V140 9999 FEW030 BKN055 14/10 Q1017 NOSIG
2026-04-10 16:50:00,METAR LSZH 101650Z 05005KT 9999 FEW030 SCT050 14/10 Q1017 NOSIG
2026-04-10 16:20:00,METAR LSZH 101620Z 13004KT 090V170 9999 SCT030 BKN050 15/10 Q1017 NOSIG
2026-04-10 15:50:00,METAR LSZH 101550Z 14003KT 9999 SCT030 BKN055 16/10 Q1017 NOSIG
2026-04-10 15:20:00,METAR LSZH 101520Z 22003KT 9999 FEW045 BKN055 16/10 Q1017 NOSIG
2026-04-10 14:50:00,METAR LSZH 101450Z VRB03KT 9999 BKN035 BKN042 15/10 Q1017 NOSIG
2026-04-10 14:20:00,METAR LSZH 101420Z VRB02KT 9999 SCT035 BKN040 15/10 Q1017 NOSIG
2026-04-10 13:50:00,METAR LSZH 101350Z VRB03KT 9999 FEW035 BKN040 BKN060 15/10 Q1017 NOSIG
2026-04-10 13:20:00,METAR LSZH 101320Z 31003KT 280V360 9999 FEW030 BKN040 14/10 Q1018 NOSIG
2026-04-10 12:50:00,METAR LSZH 101250Z 34005KT 310V020 9999 FEW030 BKN040 14/09 Q1018 NOSIG
2026-04-10 12:20:00,METAR LSZH 101220Z 33006KT 9999 SCT040 14/10 Q1018 NOSIG
2026-04-10 11:50:00,METAR LSZH 101150Z 33006KT 250V020 9999 VCSH FEW040 SCT050 BKN075 14/10 Q1018 NOSIG
2026-04-10 11:20:00,METAR LSZH 101120Z 28006KT 210V310 9999 -SHRA FEW040 BKN065 13/10 Q1017 RESHRA NOSIG
2026-04-10 10:50:00,METAR LSZH 101050Z 29007KT 9999 VCSH FEW055TCU SCT065 15/08 Q1018 TEMPO SHRA
2026-04-10 10:20:00,METAR LSZH 101020Z 29009KT 9999 FEW055 SCT065 15/09 Q1017 TEMPO SHRA
2026-04-10 09:50:00,METAR LSZH 100950Z 32004KT 9999 FEW055TCU BKN060 14/08 Q1017 TEMPO SHRA
2026-04-10 09:20:00,METAR LSZH 100920Z VRB01KT 9999 VCSH SCT050 FEW055TCU BKN060 14/09 Q1017 TEMPO SHRA
2026-04-10 08:50:00,METAR LSZH 100850Z VRB02KT 9999 VCSH FEW050 BKN060 14/09 Q1017 TEMPO SHRA
2026-04-10 08:20:00,METAR LSZH 100820Z VRB02KT 9999 VCSH FEW050 BKN060 13/09 Q1017 TEMPO SHRA
2026-04-10 07:50:00,METAR LSZH 100750Z 13003KT 9999 VCSH FEW055 BKN065 12/08 Q1017 TEMPO SHRA
2026-04-10 07:20:00,METAR LSZH 100720Z 14005KT 9999 FEW060 BKN070 11/09 Q1017 TEMPO SHRA
2026-04-10 06:50:00,METAR LSZH 100650Z VRB02KT 9999 BKN060 11/08 Q1017 NOSIG
2026-04-10 06:20:00,METAR LSZH 100620Z VRB03KT 9999 BKN075 10/08 Q1017 NOSIG
2026-04-10 05:50:00,METAR LSZH 100550Z 25003KT 9999 SCT075 09/07 Q1017 RESHRA NOSIG
2026-04-10 05:20:00,METAR LSZH 100520Z VRB03KT 9999 SHRA FEW040 BKN065 09/06 Q1017 BECMG NSW
2026-04-10 04:50:00,METAR LSZH 100450Z VRB02KT 9999 -SHRA FEW040 SCT060 09/05 Q1017 TEMPO SHRA
2026-04-10 04:20:00,METAR LSZH 100420Z 16004KT CAVOK 09/05 Q1017 NOSIG
2026-04-10 03:50:00,METAR LSZH 100350Z 16004KT 110V200 CAVOK 08/04 Q1017 NOSIG
2026-04-10 03:20:00,METAR LSZH 100320Z AUTO VRB02KT CAVOK 08/04 Q1017 NOSIG
2026-04-10 02:50:00,METAR LSZH 100250Z AUTO 16005KT CAVOK 08/04 Q1017 NOSIG
2026-04-10 02:20:00,METAR LSZH 100220Z AUTO 16003KT CAVOK 08/04 Q1017 NOSIG
2026-04-10 01:50:00,METAR LSZH 100150Z AUTO 14003KT 9999 NSC 08/03 Q1017 NOSIG
2026-04-10 01:20:00,METAR LSZH 100120Z AUTO VRB03KT CAVOK 06/04 Q1017 NOSIG
2026-04-10 00:50:00,METAR LSZH 100050Z AUTO 13003KT CAVOK 08/04 Q1017 NOSIG
2026-04-10 00:20:00,METAR LSZH 100020Z AUTO 15003KT CAVOK 08/03 Q1017 NOSIG
2026-04-09 23:50:00,METAR LSZH 092350Z AUTO VRB02KT CAVOK 10/03 Q1017 NOSIG
2026-04-09 23:20:00,METAR LSZH 092320Z AUTO VRB01KT CAVOK 09/04 Q1017 NOSIG
2026-04-09 22:50:00,METAR LSZH 092250Z AUTO 23003KT 9999 NSC 10/04 Q1017 NOSIG
2026-04-09 22:20:00,METAR LSZH 092220Z AUTO 10002KT 9999 NSC 10/05 Q1017 NOSIG
2026-04-09 21:50:00,METAR LSZH 092150Z AUTO VRB01KT 9999 NCD 11/03 Q1017 NOSIG
2026-04-09 21:20:00,METAR LSZH 092120Z 31004KT 9999 FEW078 12/04 Q1017 NOSIG
2026-04-09 20:50:00,METAR LSZH 092050Z VRB03KT CAVOK 12/03 Q1017 NOSIG
2026-04-09 20:20:00,METAR LSZH 092020Z VRB02KT CAVOK 13/04 Q1017 NOSIG
2026-04-09 19:50:00,METAR LSZH 091950Z VRB02KT CAVOK 14/04 Q1017 NOSIG
2026-04-09 19:20:00,METAR LSZH 091920Z VRB02KT CAVOK 16/04 Q1017 NOSIG
2026-04-09 18:50:00,METAR LSZH 091850Z 32004KT CAVOK 15/04 Q1016 NOSIG
2026-04-09 18:20:00,METAR LSZH 091820Z 29007KT CAVOK 17/04 Q1016 NOSIG
2026-04-09 17:50:00,METAR LSZH 091750Z 28005KT CAVOK 19/04 Q1016 NOSIG
2026-04-09 17:20:00,METAR LSZH 091720Z 29005KT CAVOK 20/02 Q1016 NOSIG
2026-04-09 16:50:00,METAR LSZH 091650Z 29006KT CAVOK 22/02 Q1016 NOSIG
2026-04-09 16:20:00,METAR LSZH 091620Z 27007KT 9999 FEW075 21/M02 Q1016 NOSIG
2026-04-09 15:50:00,METAR LSZH 091550Z 29007KT 9999 FEW072 22/02 Q1016 NOSIG
2026-04-09 15:20:00,METAR LSZH 091520Z VRB02KT 9999 FEW072 22/03 Q1016 NOSIG
2026-04-09 14:50:00,METAR LSZH 091450Z VRB03KT 9999 FEW072 23/05 Q1017 NOSIG
2026-04-09 14:20:00,METAR LSZH 091420Z VRB02KT 9999 FEW066 23/07 Q1017 NOSIG
2026-04-09 13:50:00,METAR LSZH 091350Z VRB02KT 9999 FEW060 22/08 Q1017 NOSIG
2026-04-09 13:20:00,METAR LSZH 091320Z VRB02KT 9999 FEW066 21/05 Q1018 NOSIG
2026-04-09 12:50:00,METAR LSZH 091250Z VRB03KT 9999 FEW066 21/05 Q1018 NOSIG
2026-04-09 12:20:00,METAR LSZH 091220Z VRB02KT CAVOK 21/06 Q1018 NOSIG
2026-04-09 11:50:00,METAR LSZH 091150Z VRB03KT CAVOK 20/06 Q1019 NOSIG
2026-04-09 11:20:00,METAR LSZH 091120Z VRB02KT CAVOK 19/06 Q1019 NOSIG
2026-04-09 10:50:00,METAR LSZH 091050Z VRB02KT CAVOK 18/08 Q1019 NOSIG
2026-04-09 10:20:00,METAR LSZH 091020Z VRB01KT CAVOK 17/07 Q1020 NOSIG
2026-04-09 09:50:00,METAR LSZH 090950Z VRB02KT CAVOK 17/07 Q1020 NOSIG
2026-04-09 09:20:00,METAR LSZH 090920Z VRB02KT CAVOK 15/06 Q1020 NOSIG
2026-04-09 08:50:00,METAR LSZH 090850Z VRB01KT CAVOK 15/05 Q1020 NOSIG
2026-04-09 08:20:00,METAR LSZH 090820Z VRB02KT CAVOK 13/05 Q1020 NOSIG
2026-04-09 07:50:00,METAR LSZH 090750Z 31003KT 280V010 CAVOK 12/05 Q1021 NOSIG
2026-04-09 07:20:00,METAR LSZH 090720Z VRB03KT CAVOK 10/04 Q1020 NOSIG
2026-04-09 06:50:00,METAR LSZH 090650Z VRB02KT CAVOK 09/04 Q1020 NOSIG
2026-04-09 06:20:00,METAR LSZH 090620Z VRB01KT CAVOK 07/03 Q1020 NOSIG
2026-04-09 05:50:00,METAR LSZH 090550Z 31003KT CAVOK 05/03 Q1021 NOSIG
2026-04-09 05:20:00,METAR LSZH 090520Z VRB01KT CAVOK 04/02 Q1021 NOSIG
2026-04-09 04:50:00,METAR LSZH 090450Z VRB01KT CAVOK 05/02 Q1021 NOSIG
2026-04-09 04:20:00,METAR LSZH 090420Z VRB01KT CAVOK 05/03 Q1021 NOSIG
2026-04-09 03:50:00,METAR LSZH 090350Z VRB01KT CAVOK 05/02 Q1021 NOSIG
2026-04-09 03:20:00,METAR LSZH 090320Z AUTO VRB01KT CAVOK 06/03 Q1021 NOSIG
2026-04-09 02:50:00,METAR LSZH 090250Z AUTO 00000KT CAVOK 06/03 Q1021 NOSIG
2026-04-09 02:20:00,METAR LSZH 090220Z AUTO VRB01KT CAVOK 06/02 Q1021 NOSIG
2026-04-09 01:50:00,METAR LSZH 090150Z AUTO VRB03KT CAVOK 05/02 Q1021 NOSIG
2026-04-09 01:20:00,METAR LSZH 090120Z AUTO VRB02KT CAVOK 08/02 Q1022 NOSIG
2026-04-09 00:50:00,METAR LSZH 090050Z AUTO 33004KT CAVOK 07/02 Q1022 NOSIG
2026-04-09 00:20:00,METAR LSZH 090020Z AUTO 33006KT CAVOK 07/03 Q1022 NOSIG
2026-04-08 23:50:00,METAR LSZH 082350Z AUTO 32006KT CAVOK 08/03 Q1022 NOSIG
2026-04-08 23:20:00,METAR LSZH 082320Z AUTO 36005KT CAVOK 10/03 Q1022 NOSIG
2026-04-08 22:50:00,METAR LSZH 082250Z AUTO 32005KT CAVOK 11/04 Q1022 NOSIG
2026-04-08 22:20:00,METAR LSZH 082220Z AUTO 32004KT 230V040 CAVOK 12/04 Q1022 NOSIG
2026-04-08 21:50:00,METAR LSZH 082150Z AUTO 35005KT 310V020 CAVOK 14/03 Q1022 NOSIG
2026-04-08 21:20:00,METAR LSZH 082120Z 33004KT 290V030 CAVOK 13/04 Q1022 NOSIG
2026-04-08 20:50:00,METAR LSZH 082050Z 32005KT CAVOK 12/05 Q1022 NOSIG
2026-04-08 20:20:00,METAR LSZH 082020Z 31004KT CAVOK 12/06 Q1022 NOSIG
2026-04-08 19:50:00,METAR LSZH 081950Z 29004KT 230V310 CAVOK 12/06 Q1022 NOSIG
2026-04-08 19:20:00,METAR LSZH 081920Z VRB01KT CAVOK 15/06 Q1022 NOSIG
2026-04-08 18:50:00,METAR LSZH 081850Z VRB03KT CAVOK 17/06 Q1021 NOSIG
2026-04-08 18:20:00,METAR LSZH 081820Z VRB01KT CAVOK 18/06 Q1021 NOSIG
2026-04-08 17:50:00,METAR LSZH 081750Z 10004KT CAVOK 19/06 Q1021 NOSIG
2026-04-08 17:20:00,METAR LSZH 081720Z 07006KT CAVOK 21/05 Q1021 NOSIG
2026-04-08 16:50:00,METAR LSZH 081650Z 08007KT CAVOK 21/06 Q1021 NOSIG
2026-04-08 16:20:00,METAR LSZH 081620Z 09006KT CAVOK 21/06 Q1021 NOSIG
2026-04-08 15:50:00,METAR LSZH 081550Z 09006KT 040V120 CAVOK 21/07 Q1021 NOSIG
2026-04-08 15:20:00,METAR LSZH 081520Z 05006KT 020V100 CAVOK 21/06 Q1021 NOSIG
2026-04-08 14:50:00,METAR LSZH 081450Z 05007KT CAVOK 21/07 Q1021 NOSIG
2026-04-08 14:20:00,METAR LSZH 081420Z 06007KT 020V110 CAVOK 21/07 Q1022 NOSIG
2026-04-08 13:50:00,METAR LSZH 081350Z 05008KT 360V100 CAVOK 21/07 Q1022 NOSIG
2026-04-08 13:20:00,METAR LSZH 081320Z 03009KT CAVOK 21/06 Q1022 NOSIG
2026-04-08 12:50:00,METAR LSZH 081250Z 03008KT 360V060 CAVOK 21/06 Q1023 NOSIG
2026-04-08 12:20:00,METAR LSZH 081220Z 04007KT CAVOK 20/06 Q1023 NOSIG
2026-04-08 11:50:00,METAR LSZH 081150Z 05009KT CAVOK 19/06 Q1023 NOSIG
2026-04-08 11:20:00,METAR LSZH 081120Z 05006KT 010V100 CAVOK 19/06 Q1023 NOSIG
2026-04-08 10:50:00,METAR LSZH 081050Z 04006KT 360V070 CAVOK 18/06 Q1023 NOSIG
2026-04-08 10:20:00,METAR LSZH 081020Z 04005KT 360V080 CAVOK 17/06 Q1024 NOSIG
2026-04-08 09:50:00,METAR LSZH 080950Z 04005KT 320V090 CAVOK 15/05 Q1024 NOSIG
2026-04-08 09:20:00,METAR LSZH 080920Z 07003KT 010V150 CAVOK 15/04 Q1024 NOSIG
2026-04-08 08:50:00,METAR LSZH 080850Z 06005KT 020V120 CAVOK 14/03 Q1024 NOSIG
2026-04-08 08:20:00,METAR LSZH 080820Z 01003KT 310V070 CAVOK 13/03 Q1024 NOSIG
2026-04-08 07:50:00,METAR LSZH 080750Z 03005KT 350V080 CAVOK 13/02 Q1024 NOSIG
2026-04-08 07:20:00,METAR LSZH 080720Z 04005KT 360V070 CAVOK 12/02 Q1024 NOSIG
2026-04-08 06:50:00,METAR LSZH 080650Z 01004KT 330V050 CAVOK 12/03 Q1024 NOSIG
2026-04-08 06:20:00,METAR LSZH 080620Z 33005KT CAVOK 10/03 Q1024 NOSIG
2026-04-08 05:50:00,METAR LSZH 080550Z 32004KT CAVOK 08/03 Q1024 NOSIG
2026-04-08 05:20:00,METAR LSZH 080520Z 31005KT CAVOK 05/02 Q1024 NOSIG
2026-04-08 04:50:00,METAR LSZH 080450Z 33005KT CAVOK 05/02 Q1024 NOSIG
2026-04-08 04:20:00,METAR LSZH 080420Z VRB03KT CAVOK 07/02 Q1024 NOSIG
2026-04-08 03:50:00,METAR LSZH 080350Z 33005KT CAVOK 05/02 Q1024 NOSIG
2026-04-08 03:20:00,METAR LSZH 080320Z AUTO 33005KT CAVOK 07/03 Q1024 NOSIG
2026-04-08 02:50:00,METAR LSZH 080250Z AUTO 35005KT CAVOK 06/03 Q1024 NOSIG
2026-04-08 02:20:00,METAR LSZH 080220Z AUTO 33004KT CAVOK 07/03 Q1024 NOSIG
2026-04-08 01:50:00,METAR LSZH 080150Z AUTO 33004KT CAVOK 07/03 Q1024 NOSIG
2026-04-08 01:20:00,METAR LSZH 080120Z AUTO 35004KT CAVOK 10/04 Q1024 NOSIG
2026-04-08 00:50:00,METAR LSZH 080050Z AUTO 32005KT CAVOK 09/05 Q1024 NOSIG
2026-04-08 00:20:00,METAR LSZH 080020Z AUTO 31005KT CAVOK 08/05 Q1023 NOSIG
2026-04-07 23:50:00,METAR LSZH 072350Z AUTO 34007KT 330V030 CAVOK 11/06 Q1023 NOSIG
2026-04-07 23:20:00,METAR LSZH 072320Z AUTO 32007KT CAVOK 10/06 Q1023 NOSIG
2026-04-07 22:50:00,METAR LSZH 072250Z AUTO 30006KT CAVOK 12/07 Q1023 NOSIG
2026-04-07 22:20:00,METAR LSZH 072220Z AUTO 34006KT CAVOK 13/07 Q1023 NOSIG
2026-04-07 21:50:00,METAR LSZH 072150Z AUTO 33007KT CAVOK 13/06 Q1023 NOSIG
2026-04-07 21:20:00,METAR LSZH 072120Z 33004KT 300V020 CAVOK 11/05 Q1023 NOSIG
2026-04-07 20:50:00,METAR LSZH 072050Z 32003KT CAVOK 11/05 Q1023 NOSIG
2026-04-07 20:20:00,METAR LSZH 072020Z 35004KT CAVOK 13/05 Q1022 NOSIG
2026-04-07 19:50:00,METAR LSZH 071950Z 34004KT CAVOK 14/05 Q1022 NOSIG
2026-04-07 19:20:00,METAR LSZH 071920Z 02004KT CAVOK 16/03 Q1022 NOSIG
2026-04-07 18:50:00,METAR LSZH 071850Z 33004KT CAVOK 16/03 Q1022 NOSIG
2026-04-07 18:20:00,METAR LSZH 071820Z 33004KT CAVOK 18/02 Q1021 NOSIG
2026-04-07 17:50:00,METAR LSZH 071750Z 29004KT CAVOK 18/05 Q1021 NOSIG
2026-04-07 17:20:00,METAR LSZH 071720Z 30004KT CAVOK 20/07 Q1021 NOSIG
2026-04-07 16:50:00,METAR LSZH 071650Z VRB02KT CAVOK 22/03 Q1021 NOSIG
2026-04-07 16:20:00,METAR LSZH 071620Z 31003KT CAVOK 22/05 Q1021 NOSIG
2026-04-07 15:50:00,METAR LSZH 071550Z 35004KT 320V030 CAVOK 23/06 Q1021 NOSIG
2026-04-07 15:20:00,METAR LSZH 071520Z VRB02KT CAVOK 23/06 Q1021 NOSIG
2026-04-07 14:50:00,METAR LSZH 071450Z VRB02KT CAVOK 22/04 Q1022 NOSIG
2026-04-07 14:20:00,METAR LSZH 071420Z VRB03KT CAVOK 22/06 Q1022 NOSIG
2026-04-07 13:50:00,METAR LSZH 071350Z VRB03KT CAVOK 22/07 Q1022 NOSIG
2026-04-07 13:20:00,METAR LSZH 071320Z VRB03KT CAVOK 21/07 Q1022 NOSIG
2026-04-07 12:50:00,METAR LSZH 071250Z VRB02KT CAVOK 21/08 Q1023 NOSIG
2026-04-07 12:20:00,METAR LSZH 071220Z VRB02KT CAVOK 21/08 Q1023 NOSIG
2026-04-07 11:50:00,METAR LSZH 071150Z 05004KT 360V130 CAVOK 20/08 Q1023 NOSIG
2026-04-07 11:20:00,METAR LSZH 071120Z VRB02KT CAVOK 19/08 Q1023 NOSIG
2026-04-07 10:50:00,METAR LSZH 071050Z VRB02KT CAVOK 18/08 Q1024 NOSIG
2026-04-07 10:20:00,METAR LSZH 071020Z VRB02KT CAVOK 17/08 Q1024 NOSIG
2026-04-07 09:50:00,METAR LSZH 070950Z VRB02KT CAVOK 16/08 Q1024 NOSIG
2026-04-07 09:20:00,METAR LSZH 070920Z VRB02KT CAVOK 15/07 Q1024 NOSIG
2026-04-07 08:50:00,METAR LSZH 070850Z VRB02KT CAVOK 14/06 Q1025 NOSIG
2026-04-07 08:20:00,METAR LSZH 070820Z VRB02KT CAVOK 13/06 Q1025 NOSIG
2026-04-07 07:50:00,METAR LSZH 070750Z VRB01KT CAVOK 12/05 Q1025 NOSIG
2026-04-07 07:20:00,METAR LSZH 070720Z VRB01KT CAVOK 11/05 Q1025 NOSIG
2026-04-07 06:50:00,METAR LSZH 070650Z VRB01KT CAVOK 10/05 Q1025 NOSIG
2026-04-07 06:20:00,METAR LSZH 070620Z VRB01KT CAVOK 08/05 Q1025 NOSIG
2026-04-07 05:50:00,METAR LSZH 070550Z VRB02KT CAVOK 06/04 Q1025 NOSIG
2026-04-07 05:20:00,METAR LSZH 070520Z VRB02KT CAVOK 05/04 Q1024 NOSIG
2026-04-07 04:50:00,METAR LSZH 070450Z VRB02KT CAVOK 04/03 Q1024 NOSIG
2026-04-07 04:20:00,METAR LSZH 070420Z VRB01KT 9999 MIFG NSC 05/04 Q1024 NOSIG
2026-04-07 03:50:00,METAR LSZH 070350Z 10001KT CAVOK 05/04 Q1024 NOSIG
2026-04-07 03:20:00,METAR LSZH 070320Z AUTO VRB01KT CAVOK 05/04 Q1024 NOSIG
2026-04-07 02:50:00,METAR LSZH 070250Z AUTO 32003KT CAVOK 04/04 Q1024 NOSIG
2026-04-07 02:20:00,METAR LSZH 070220Z AUTO 33002KT CAVOK 06/05 Q1024 NOSIG
2026-04-07 01:50:00,METAR LSZH 070150Z AUTO VRB01KT CAVOK 06/06 Q1024 NOSIG
2026-04-07 01:20:00,METAR LSZH 070120Z AUTO VRB01KT CAVOK 06/05 Q1024 NOSIG
2026-04-07 00:50:00,METAR LSZH 070050Z AUTO 00000KT CAVOK 06/05 Q1024 NOSIG
2026-04-07 00:20:00,METAR LSZH 070020Z AUTO VRB01KT CAVOK 06/05 Q1025 NOSIG
2026-04-06 23:50:00,METAR LSZH 062350Z AUTO VRB01KT CAVOK 08/06 Q1025 NOSIG
2026-04-06 23:20:00,METAR LSZH 062320Z AUTO 28003KT CAVOK 08/06 Q1025 NOSIG
2026-04-06 22:50:00,METAR LSZH 062250Z AUTO 33004KT CAVOK 08/05 Q1025 NOSIG
2026-04-06 22:20:00,METAR LSZH 062220Z AUTO 34003KT CAVOK 08/05 Q1025 NOSIG
2026-04-06 21:50:00,METAR LSZH 062150Z AUTO 29001KT CAVOK 08/05 Q1025 NOSIG
2026-04-06 21:20:00,METAR LSZH 062120Z VRB02KT CAVOK 10/06 Q1024 NOSIG
2026-04-06 20:50:00,METAR LSZH 062050Z VRB02KT CAVOK 11/06 Q1025 NOSIG
2026-04-06 20:20:00,METAR LSZH 062020Z 03003KT CAVOK 11/07 Q1024 NOSIG
2026-04-06 19:50:00,METAR LSZH 061950Z VRB03KT CAVOK 12/06 Q1024 NOSIG
2026-04-06 19:20:00,METAR LSZH 061920Z VRB02KT CAVOK 14/06 Q1024 NOSIG
2026-04-06 18:50:00,METAR LSZH 061850Z 33003KT CAVOK 15/06 Q1024 NOSIG
2026-04-06 18:20:00,METAR LSZH 061820Z 28003KT CAVOK 14/06 Q1024 NOSIG
2026-04-06 17:50:00,METAR LSZH 061750Z 28004KT CAVOK 17/07 Q1024 NOSIG
2026-04-06 17:20:00,METAR LSZH 061720Z 30003KT CAVOK 19/06 Q1024 NOSIG
2026-04-06 16:50:00,METAR LSZH 061650Z VRB03KT CAVOK 20/06 Q1024 NOSIG
2026-04-06 16:20:00,METAR LSZH 061620Z 31003KT 260V350 9999 FEW050 20/05 Q1024 NOSIG
2026-04-06 15:50:00,METAR LSZH 061550Z 34007KT 9999 FEW050 20/05 Q1025 NOSIG
2026-04-06 14:50:00,METAR LSZH 061450Z VRB02KT 9999 FEW050 19/06 Q1025 NOSIG
2026-04-06 14:20:00,METAR LSZH 061420Z VRB02KT 9999 FEW050 20/07 Q1025 NOSIG
2026-04-06 13:50:00,METAR LSZH 061350Z VRB03KT 9999 FEW050 18/06 Q1025 NOSIG
2026-04-06 13:20:00,METAR LSZH 061320Z VRB03KT 9999 FEW050 18/06 Q1025 NOSIG
2026-04-06 12:50:00,METAR LSZH 061250Z 34004KT 260V070 9999 FEW050 18/07 Q1026 NOSIG
2026-04-06 12:20:00,METAR LSZH 061220Z VRB03KT 9999 FEW048 19/07 Q1026 NOSIG
2026-04-06 11:50:00,METAR LSZH 061150Z VRB04KT 9999 FEW044 18/07 Q1026 NOSIG
2026-04-06 11:20:00,METAR LSZH 061120Z 31004KT 260V010 9999 FEW040 18/08 Q1027 NOSIG
2026-04-06 10:50:00,METAR LSZH 061050Z 34004KT 270V050 9999 FEW040 17/07 Q1027 NOSIG
2026-04-06 10:20:00,METAR LSZH 061020Z VRB01KT 9999 FEW034 16/07 Q1027 NOSIG
2026-04-06 09:50:00,METAR LSZH 060950Z VRB02KT 9999 FEW034 16/08 Q1027 NOSIG
2026-04-06 09:20:00,METAR LSZH 060920Z VRB01KT 9999 FEW032 15/08 Q1027 NOSIG
2026-04-06 08:50:00,METAR LSZH 060850Z VRB02KT 9999 FEW032 15/07 Q1027 NOSIG
2026-04-06 08:20:00,METAR LSZH 060820Z VRB01KT 9999 FEW030 14/07 Q1027 NOSIG
2026-04-06 07:50:00,METAR LSZH 060750Z VRB02KT 9999 FEW060 13/08 Q1027 NOSIG
2026-04-06 07:20:00,METAR LSZH 060720Z VRB02KT 9999 FEW060 12/08 Q1027 NOSIG
2026-04-06 06:50:00,METAR LSZH 060650Z VRB03KT 9999 FEW060 10/07 Q1028 NOSIG
2026-04-06 06:20:00,METAR LSZH 060620Z VRB01KT 9999 FEW060 09/07 Q1027 NOSIG
2026-04-06 05:50:00,METAR LSZH 060550Z VRB01KT 9999 MIFG FEW060 07/06 Q1027 NOSIG
2026-04-06 05:20:00,METAR LSZH 060520Z 16002KT 8000 0800N R14/1500N R16/0450D R28/P2000N R34/P2000N BCFG SCT062 07/07 Q1027 NOSIG
2026-04-06 04:50:00,METAR LSZH 060450Z VRB02KT 9999 MIFG SCT063 07/07 Q1027 NOSIG
2026-04-06 04:20:00,METAR LSZH 060420Z 34001KT 9999 SCT068 08/08 Q1027 NOSIG
2026-04-06 03:50:00,METAR LSZH 060350Z 32003KT 9999 R14/P2000N R16/1200U R28/P2000N R34/P2000N SCT063 07/06 Q1026 NOSIG
2026-04-06 03:20:00,METAR LSZH 060320Z AUTO VRB01KT 9999 3900N SCT060 08/08 Q1026 NOSIG
2026-04-06 02:50:00,METAR LSZH 060250Z AUTO 16003KT 9999 BKN065 09/09 Q1026 NOSIG
2026-04-06 02:20:00,METAR LSZH 060220Z AUTO VRB02KT 9999 VCSH BKN065 09/09 Q1027 NOSIG
2026-04-06 01:50:00,METAR LSZH 060150Z AUTO 03002KT 9999 VCSH BKN065 10/09 Q1026 NOSIG
2026-04-06 01:20:00,METAR LSZH 060120Z AUTO 14004KT 9999 BKN060 10/09 Q1026 NOSIG
2026-04-06 00:50:00,METAR LSZH 060050Z AUTO 14004KT 9999 SCT055 BKN065 10/09 Q1026 NOSIG
2026-04-06 00:20:00,METAR LSZH 060020Z AUTO 15006KT 9999 -SHRA FEW050 10/09 Q1026 NOSIG
2026-04-05 23:50:00,METAR LSZH 052350Z AUTO 08003KT 9999 FEW065 11/08 Q1026 NOSIG
2026-04-05 23:20:00,METAR LSZH 052320Z AUTO VRB03KT 9999 VCSH BKN065 BKN075 11/09 Q1026 RESHRA NOSIG
2026-04-05 22:50:00,METAR LSZH 052250Z AUTO 15005KT 130V200 9999 SHRA FEW049 BKN060 BKN070 11/09 Q1025 NOSIG
2026-04-05 22:20:00,METAR LSZH 052220Z AUTO 27004KT 240V300 9999 VCSH FEW055 12/07 Q1025 RESHRA TEMPO SHRA
2026-04-05 21:50:00,METAR LSZH 052150Z AUTO 25005KT 230V290 9999 -RA FEW050 BKN065 FEW///TCU 14/06 Q1025 TEMPO SHRA
2026-04-05 21:20:00,METAR LSZH 052120Z VRB03KT 9999 SHRA FEW030 FEW050TCU BKN070 14/08 Q1024 TEMPO NSW
2026-04-05 20:50:00,METAR LSZH 052050Z 36009KT 310V040 9999 SHRA FEW020 FEW050TCU BKN075 15/06 Q1023 TEMPO NSW
2026-04-05 20:20:00,METAR LSZH 052020Z 28006KT 9999 VCSH FEW075 16/06 Q1023 TEMPO SHRA
2026-04-05 19:50:00,METAR LSZH 051950Z 31002KT 9999 FEW075 16/06 Q1023 TEMPO SHRA
2026-04-05 19:20:00,METAR LSZH 051920Z 31003KT 9999 FEW075 15/06 Q1022 NOSIG
2026-04-05 18:50:00,METAR LSZH 051850Z 29004KT 9999 FEW050 16/06 Q1022 NOSIG
2026-04-05 18:20:00,METAR LSZH 051820Z 26005KT 230V300 9999 FEW050CB 17/05 Q1022 NOSIG
2026-04-05 17:50:00,METAR LSZH 051750Z 25006KT 9999 VCSH FEW050TCU 18/06 Q1022 NOSIG
2026-04-05 17:20:00,METAR LSZH 051720Z 31013KT 9999 VCSH FEW050TCU 19/06 Q1021 TEMPO SHRA
2026-04-05 16:50:00,METAR LSZH 051650Z 30011KT 9999 FEW050TCU 19/05 Q1021 TEMPO SHRA
2026-04-05 16:20:00,METAR LSZH 051620Z 30009KT 9999 FEW050 20/06 Q1021 NOSIG
2026-04-05 15:50:00,METAR LSZH 051550Z 29009KT 9999 VCSH FEW040 22/05 Q1021 NOSIG
2026-04-05 15:20:00,METAR LSZH 051520Z 30012KT 9999 FEW065 21/04 Q1021 NOSIG
2026-04-05 14:50:00,METAR LSZH 051450Z 25010KT 220V280 9999 FEW065 23/07 Q1021 NOSIG
2026-04-05 12:50:00,METAR LSZH 051250Z 27011KT 9999 FEW080TCU 22/07 Q1022 NOSIG
2026-04-05 12:20:00,METAR LSZH 051220Z 26012KT 220V290 CAVOK 22/07 Q1022 NOSIG
2026-04-05 11:50:00,METAR LSZH 051150Z 27012KT 230V290 9999 FEW040 21/07 Q1022 NOSIG
2026-04-05 11:20:00,METAR LSZH 051120Z 26013KT CAVOK 21/06 Q1022 NOSIG
2026-04-05 10:50:00,METAR LSZH 051050Z 25012KT CAVOK 20/07 Q1022 NOSIG
2026-04-05 10:20:00,METAR LSZH 051020Z 24010KT 190V270 CAVOK 19/08 Q1023 NOSIG
2026-04-05 09:50:00,METAR LSZH 050950Z 24008KT 220V280 CAVOK 18/08 Q1023 NOSIG
2026-04-05 09:20:00,METAR LSZH 050920Z VRB02KT CAVOK 17/07 Q1023 NOSIG
2026-04-05 08:50:00,METAR LSZH 050850Z VRB04KT CAVOK 16/07 Q1023 NOSIG
2026-04-05 08:20:00,METAR LSZH 050820Z 21003KT 130V270 CAVOK 16/07 Q1023 NOSIG
2026-04-05 07:50:00,METAR LSZH 050750Z 08003KT 030V110 CAVOK 14/05 Q1023 NOSIG
2026-04-05 07:20:00,METAR LSZH 050720Z 13005KT CAVOK 12/05 Q1023 NOSIG
2026-04-05 06:50:00,METAR LSZH 050650Z 14004KT CAVOK 10/05 Q1023 NOSIG
2026-04-05 06:20:00,METAR LSZH 050620Z 13003KT CAVOK 09/05 Q1022 NOSIG
2026-04-05 05:50:00,METAR LSZH 050550Z 13005KT CAVOK 06/04 Q1022 NOSIG
2026-04-05 05:20:00,METAR LSZH 050520Z 14003KT CAVOK 06/04 Q1022 NOSIG
2026-04-05 04:50:00,METAR LSZH 050450Z 16003KT CAVOK 07/04 Q1022 NOSIG
2026-04-05 04:20:00,METAR LSZH 050420Z 16003KT 120V190 CAVOK 06/03 Q1022 NOSIG
2026-04-05 03:50:00,METAR LSZH 050350Z 15003KT CAVOK 06/04 Q1022 NOSIG
2026-04-05 03:20:00,METAR LSZH 050320Z AUTO 16006KT 9999 NCD 05/04 Q1022 NOSIG
2026-04-05 02:50:00,METAR LSZH 050250Z AUTO 19003KT CAVOK 07/05 Q1022 NOSIG
2026-04-05 02:20:00,METAR LSZH 050220Z AUTO 19002KT 9999 NSC 05/04 Q1022 NOSIG
2026-04-05 01:50:00,METAR LSZH 050150Z AUTO 17004KT CAVOK 06/05 Q1022 NOSIG
2026-04-05 01:20:00,METAR LSZH 050120Z AUTO 15003KT CAVOK 07/05 Q1022 TEMPO 4500 BCFG
2026-04-05 00:50:00,METAR LSZH 050050Z AUTO 15003KT CAVOK 07/05 Q1022 TEMPO 4500 BCFG
2026-04-05 00:20:00,METAR LSZH 050020Z AUTO VRB02KT CAVOK 06/05 Q1022 NOSIG
2026-04-04 23:50:00,METAR LSZH 042350Z AUTO 16002KT CAVOK 08/06 Q1022 NOSIG
2026-04-04 23:20:00,METAR LSZH 042320Z AUTO 17004KT CAVOK 08/07 Q1022 NOSIG
2026-04-04 22:50:00,METAR LSZH 042250Z AUTO 14005KT 9999 NSC 08/06 Q1022 NOSIG
2026-04-04 22:20:00,METAR LSZH 042220Z AUTO 17002KT CAVOK 07/06 Q1023 NOSIG
2026-04-04 21:50:00,METAR LSZH 042150Z AUTO 15004KT CAVOK 08/07 Q1023 NOSIG
2026-04-04 21:20:00,METAR LSZH 042120Z VRB02KT CAVOK 08/07 Q1023 NOSIG
2026-04-04 20:50:00,METAR LSZH 042050Z VRB01KT CAVOK 08/08 Q1023 NOSIG
2026-04-04 20:20:00,METAR LSZH 042020Z VRB01KT CAVOK 10/08 Q1023 NOSIG
2026-04-04 19:50:00,METAR LSZH 041950Z VRB01KT CAVOK 10/08 Q1023 NOSIG
2026-04-04 19:20:00,METAR LSZH 041920Z VRB01KT CAVOK 10/07 Q1023 NOSIG
2026-04-04 18:50:00,METAR LSZH 041850Z 36003KT CAVOK 11/08 Q1023 NOSIG
2026-04-04 18:20:00,METAR LSZH 041820Z VRB02KT CAVOK 14/09 Q1023 NOSIG
2026-04-04 17:50:00,METAR LSZH 041750Z 35003KT CAVOK 15/08 Q1023 NOSIG
2026-04-04 17:20:00,METAR LSZH 041720Z VRB02KT CAVOK 16/08 Q1023 NOSIG
2026-04-04 16:50:00,METAR LSZH 041650Z VRB03KT 9999 FEW046 16/08 Q1023 NOSIG
2026-04-04 16:20:00,METAR LSZH 041620Z 05004KT 9999 FEW046 17/09 Q1023 NOSIG
2026-04-04 15:50:00,METAR LSZH 041550Z 32003KT 9999 FEW046 16/08 Q1023 NOSIG
2026-04-04 15:20:00,METAR LSZH 041520Z 01004KT 310V100 9999 FEW033 SCT046 17/09 Q1023 NOSIG
2026-04-04 14:50:00,METAR LSZH 041450Z 33004KT 250V030 9999 FEW034 SCT046 17/08 Q1024 NOSIG
2026-04-04 14:20:00,METAR LSZH 041420Z VRB03KT 9999 FEW040 BKN046 16/08 Q1024 NOSIG
2026-04-04 13:50:00,METAR LSZH 041350Z 03004KT 340V070 9999 FEW036 BKN042 15/09 Q1024 NOSIG
2026-04-04 13:20:00,METAR LSZH 041320Z 35006KT 320V030 9999 SCT035 BKN042 16/08 Q1024 NOSIG
2026-04-04 12:50:00,METAR LSZH 041250Z 31006KT 290V350 9999 FEW032 SCT036 BKN040 15/07 Q1024 NOSIG
2026-04-04 12:20:00,METAR LSZH 041220Z 26008KT 220V300 9999 FEW030 BKN040 15/07 Q1024 NOSIG
2026-04-04 11:50:00,METAR LSZH 041150Z 25006KT 220V310 9999 FEW030 BKN040 15/06 Q1025 NOSIG
2026-04-04 11:20:00,METAR LSZH 041120Z 25007KT 210V320 9999 FEW030 BKN035 15/06 Q1025 NOSIG
2026-04-04 10:50:00,METAR LSZH 041050Z 26009KT 9999 SCT030 BKN035 14/06 Q1025 NOSIG
2026-04-04 10:20:00,METAR LSZH 041020Z 26008KT 210V280 9999 SCT030 BKN035 14/07 Q1025 NOSIG
2026-04-04 09:50:00,METAR LSZH 040950Z 24008KT 200V270 9999 SCT030 BKN035 13/06 Q1025 NOSIG
2026-04-04 09:20:00,METAR LSZH 040920Z 23008KT 9999 FEW025 BKN030 12/06 Q1025 NOSIG
2026-04-04 08:50:00,METAR LSZH 040850Z 20006KT 160V250 9999 SCT025 BKN030 11/07 Q1025 NOSIG
2026-04-04 08:20:00,METAR LSZH 040820Z 18006KT 9999 FEW025 SCT030 BKN035 10/07 Q1025 NOSIG
2026-04-04 07:50:00,METAR LSZH 040750Z 19004KT 9999 -RA SCT030 BKN035 10/06 Q1025 NOSIG
2026-04-04 07:20:00,METAR LSZH 040720Z 17004KT 9999 -RA SCT030 BKN035 09/06 Q1025 NOSIG
2026-04-04 06:50:00,METAR LSZH 040650Z 18005KT 9999 -RA SCT030 BKN035 09/06 Q1024 NOSIG
2026-04-04 06:20:00,METAR LSZH 040620Z 16003KT 9999 -RA SCT030 BKN035 09/05 Q1024 NOSIG
2026-04-04 05:50:00,METAR LSZH 040550Z 16004KT 9999 -RA FEW030 SCT035 BKN040 09/05 Q1024 NOSIG
2026-04-04 05:20:00,METAR LSZH 040520Z 19005KT 9999 -RA FEW025 SCT030 BKN035 09/04 Q1024 NOSIG
2026-04-04 04:50:00,METAR LSZH 040450Z VRB03KT 9999 FEW025 BKN030 09/04 Q1023 NOSIG
2026-04-04 04:20:00,METAR LSZH 040420Z 21004KT 170V240 9999 FEW025 SCT030 BKN040 09/04 Q1023 NOSIG
2026-04-04 03:50:00,METAR LSZH 040350Z 21004KT 9999 -RA FEW030 SCT035 BKN040 09/04 Q1023 NOSIG
2026-04-04 03:20:00,METAR LSZH 040320Z AUTO 24003KT 9999 VCSH SCT032 BKN037 10/03 Q1023 NOSIG
2026-04-04 02:50:00,METAR LSZH 040250Z AUTO 24003KT 9999 FEW036 SCT041 BKN060 10/03 Q1023 NOSIG
2026-04-04 02:20:00,METAR LSZH 040220Z AUTO 23004KT 9999 FEW047 SCT055 BKN070 10/03 Q1023 NOSIG
2026-04-04 01:50:00,METAR LSZH 040150Z AUTO 21003KT 9999 BKN049 10/03 Q1023 NOSIG
2026-04-04 01:20:00,METAR LSZH 040120Z AUTO 21004KT 9999 BKN050 10/03 Q1022 NOSIG
2026-04-04 00:50:00,METAR LSZH 040050Z AUTO 22004KT 9999 OVC050 09/03 Q1022 NOSIG
2026-04-04 00:20:00,METAR LSZH 040020Z AUTO 19004KT 9999 BKN050 09/03 Q1022 NOSIG
2026-04-03 23:50:00,METAR LSZH 032350Z AUTO 19004KT 9999 FEW050 09/03 Q1022 NOSIG
2026-04-03 23:20:00,METAR LSZH 032320Z AUTO 20003KT 9999 FEW065 10/03 Q1022 NOSIG
2026-04-03 22:50:00,METAR LSZH 032250Z AUTO 20004KT 9999 FEW065 10/03 Q1022 NOSIG
2026-04-03 22:20:00,METAR LSZH 032220Z AUTO 21004KT 9999 FEW070 10/02 Q1022 NOSIG
2026-04-03 21:50:00,METAR LSZH 032150Z AUTO 23004KT 9999 FEW075 10/03 Q1021 NOSIG
2026-04-03 21:20:00,METAR LSZH 032120Z 25005KT CAVOK 10/02 Q1021 NOSIG
2026-04-03 20:50:00,METAR LSZH 032050Z 24004KT 200V010 9999 BKN078 11/02 Q1021 NOSIG
2026-04-03 20:20:00,METAR LSZH 032020Z 28003KT CAVOK 10/03 Q1021 NOSIG
2026-04-03 19:50:00,METAR LSZH 031950Z 29004KT CAVOK 10/03 Q1021 NOSIG
2026-04-03 19:20:00,METAR LSZH 031920Z 29005KT CAVOK 11/02 Q1021 NOSIG
2026-04-03 18:50:00,METAR LSZH 031850Z 28005KT CAVOK 11/02 Q1020 NOSIG
2026-04-03 18:20:00,METAR LSZH 031820Z 29006KT CAVOK 11/02 Q1020 NOSIG
2026-04-03 17:50:00,METAR LSZH 031750Z 29007KT 9999 FEW055 12/02 Q1020 NOSIG
2026-04-03 17:20:00,METAR LSZH 031720Z 28006KT 9999 FEW060 13/02 Q1019 NOSIG
2026-04-03 16:50:00,METAR LSZH 031650Z 29009KT 9999 FEW068 13/02 Q1019 NOSIG
2026-04-03 16:20:00,METAR LSZH 031620Z 27007KT 9999 FEW055 14/00 Q1019 NOSIG
2026-04-03 15:50:00,METAR LSZH 031550Z 28007KT 220V320 9999 FEW060 14/01 Q1019 NOSIG
2026-04-03 15:20:00,METAR LSZH 031520Z 26007KT 9999 FEW060 14/01 Q1019 NOSIG
2026-04-03 14:50:00,METAR LSZH 031450Z 23009KT 180V260 9999 SCT055 14/01 Q1019 NOSIG
2026-04-03 14:20:00,METAR LSZH 031420Z 25009KT 210V280 9999 SCT055 15/01 Q1019 NOSIG
2026-04-03 13:50:00,METAR LSZH 031350Z 23009KT 9999 SCT055 15/02 Q1019 NOSIG
2026-04-03 13:20:00,METAR LSZH 031320Z 21004KT 170V240 9999 SCT055 13/01 Q1019 NOSIG
2026-04-03 12:50:00,METAR LSZH 031250Z 30009KT 230V340 9999 FEW050 14/01 Q1019 NOSIG
2026-04-03 12:20:00,METAR LSZH 031220Z 21007KT 160V260 9999 FEW050 14/01 Q1020 NOSIG
2026-04-03 11:50:00,METAR LSZH 031150Z 23009KT 9999 FEW045 13/01 Q1020 NOSIG
2026-04-03 11:20:00,METAR LSZH 031120Z 23009KT 9999 FEW045 13/M00 Q1020 NOSIG
2026-04-03 10:50:00,METAR LSZH 031050Z 25006KT 210V310 9999 FEW030 12/00 Q1020 NOSIG
2026-04-03 10:20:00,METAR LSZH 031020Z 25006KT 180V290 9999 FEW025 11/01 Q1020 NOSIG
2026-04-03 09:50:00,METAR LSZH 030950Z VRB05KT CAVOK 11/02 Q1020 NOSIG
2026-04-03 09:20:00,METAR LSZH 030920Z 24006KT 210V270 CAVOK 10/02 Q1020 NOSIG
2026-04-03 08:50:00,METAR LSZH 030850Z 22005KT 140V270 CAVOK 09/02 Q1020 NOSIG
2026-04-03 08:20:00,METAR LSZH 030820Z 15003KT 100V220 CAVOK 08/02 Q1020 NOSIG
2026-04-03 07:50:00,METAR LSZH 030750Z 15004KT CAVOK 07/02 Q1020 NOSIG
2026-04-03 07:20:00,METAR LSZH 030720Z 14003KT CAVOK 05/02 Q1020 NOSIG
2026-04-03 06:50:00,METAR LSZH 030650Z VRB02KT CAVOK 04/01 Q1020 NOSIG
2026-04-03 06:20:00,METAR LSZH 030620Z VRB01KT 9999 FEW056 01/M00 Q1020 NOSIG
2026-04-03 05:50:00,METAR LSZH 030550Z 19002KT 9999 FEW060 M01/M01 Q1020 NOSIG
2026-04-03 05:20:00,METAR LSZH 030520Z VRB02KT 9999 FEW060 M01/M02 Q1019 NOSIG
2026-04-03 04:50:00,METAR LSZH 030450Z 36002KT 9999 FEW030 M01/M02 Q1019 NOSIG
2026-04-03 04:20:00,METAR LSZH 030420Z 19002KT CAVOK M01/M02 Q1018 NOSIG
2026-04-03 03:50:00,METAR LSZH 030350Z 16003KT CAVOK M01/M01 Q1018 NOSIG
2026-04-03 03:20:00,METAR LSZH 030320Z AUTO 16002KT CAVOK 00/M01 Q1018 NOSIG
2026-04-03 02:50:00,METAR LSZH 030250Z AUTO 10002KT CAVOK 00/M01 Q1018 NOSIG
2026-04-03 02:20:00,METAR LSZH 030220Z AUTO VRB01KT 9999 NCD 00/M01 Q1018 NOSIG
2026-04-03 01:50:00,METAR LSZH 030150Z AUTO 12002KT 9999 FEW065 01/M00 Q1018 NOSIG
2026-04-03 01:20:00,METAR LSZH 030120Z AUTO 30001KT 9999 FEW050 01/M01 Q1018 NOSIG
2026-04-03 00:50:00,METAR LSZH 030050Z AUTO VRB01KT 9999 FEW070 03/00 Q1018 NOSIG
2026-04-03 00:20:00,METAR LSZH 030020Z AUTO 16002KT 9999 FEW070 04/00 Q1018 NOSIG
2026-04-02 23:50:00,METAR LSZH 022350Z AUTO 14003KT 9999 SCT070 04/01 Q1018 NOSIG
2026-04-02 23:20:00,METAR LSZH 022320Z AUTO 14003KT 9999 FEW055 BKN065 04/01 Q1018 NOSIG
2026-04-02 22:50:00,METAR LSZH 022250Z AUTO 15003KT 9999 SCT050 BKN070 05/01 Q1018 NOSIG
2026-04-02 22:20:00,METAR LSZH 022220Z AUTO 14002KT 9999 FEW050 BKN065 04/00 Q1018 NOSIG
2026-04-02 21:50:00,METAR LSZH 022150Z AUTO 13003KT 9999 BKN065 05/01 Q1018 NOSIG
2026-04-02 21:20:00,METAR LSZH 022120Z 15004KT 9999 FEW047 SCT070 06/00 Q1018 NOSIG
2026-04-02 20:50:00,METAR LSZH 022050Z 16003KT 9999 FEW048 SCT070 06/01 Q1017 NOSIG
2026-04-02 20:20:00,METAR LSZH 022020Z 16003KT 9999 FEW048 BKN065 07/00 Q1017 NOSIG
2026-04-02 19:50:00,METAR LSZH 021950Z 15004KT 9999 FEW048 BKN055 07/00 Q1017 NOSIG
2026-04-02 19:20:00,METAR LSZH 021920Z 15005KT 9999 FEW048 06/00 Q1017 NOSIG
2026-04-02 18:50:00,METAR LSZH 021850Z 18004KT 9999 FEW060 06/M00 Q1017 NOSIG
2026-04-02 18:20:00,METAR LSZH 021820Z 18007KT 9999 FEW060 08/M00 Q1017 NOSIG
2026-04-02 17:50:00,METAR LSZH 021750Z 20007KT 9999 FEW070 09/00 Q1016 NOSIG
2026-04-02 17:20:00,METAR LSZH 021720Z 19008KT 9999 FEW050 SCT070 09/M00 Q1016 NOSIG
2026-04-02 16:50:00,METAR LSZH 021650Z 19007KT 9999 FEW060 BKN075 10/00 Q1015 NOSIG
2026-04-02 16:20:00,METAR LSZH 021620Z 17007KT 9999 FEW060 BKN075 11/00 Q1015 NOSIG
2026-04-02 15:50:00,METAR LSZH 021550Z 17008KT 9999 SCT060 SCT075 11/00 Q1015 NOSIG
2026-04-02 15:20:00,METAR LSZH 021520Z VRB02KT 9999 BKN055 12/M00 Q1015 NOSIG
2026-04-02 14:50:00,METAR LSZH 021450Z VRB03KT 9999 SCT054 12/M01 Q1015 NOSIG
2026-04-02 14:20:00,METAR LSZH 021420Z 02004KT 340V060 9999 FEW050 11/M01 Q1015 NOSIG
2026-04-02 13:50:00,METAR LSZH 021350Z 11004KT 360V170 9999 FEW048 11/M01 Q1015 NOSIG
2026-04-02 13:20:00,METAR LSZH 021320Z 10007KT 070V160 9999 FEW048 11/M00 Q1015 NOSIG
2026-04-02 12:50:00,METAR LSZH 021250Z 08006KT 360V150 9999 FEW048 11/M00 Q1015 NOSIG
2026-04-02 12:20:00,METAR LSZH 021220Z VRB05KT 9999 FEW045 10/M01 Q1016 NOSIG
2026-04-02 11:50:00,METAR LSZH 021150Z 09006KT 010V150 9999 FEW040 10/01 Q1016 NOSIG
2026-04-02 11:20:00,METAR LSZH 021120Z 06007KT 010V120 9999 FEW039 10/01 Q1016 NOSIG
2026-04-02 10:50:00,METAR LSZH 021050Z VRB05KT 9999 FEW032 09/M00 Q1016 NOSIG
2026-04-02 10:20:00,METAR LSZH 021020Z 06007KT 020V120 9999 FEW032 08/00 Q1016 NOSIG
2026-04-02 09:50:00,METAR LSZH 020950Z 12006KT 090V180 9999 FEW028 08/01 Q1016 NOSIG
2026-04-02 09:20:00,METAR LSZH 020920Z 04005KT 330V090 9999 FEW024 07/00 Q1016 NOSIG
2026-04-02 08:50:00,METAR LSZH 020850Z 11005KT 060V170 9999 FEW020 06/M00 Q1016 NOSIG
2026-04-02 08:20:00,METAR LSZH 020820Z VRB02KT 9999 FEW017 05/M00 Q1016 NOSIG
2026-04-02 07:50:00,METAR LSZH 020750Z VRB02KT 9999 FEW013 04/M01 Q1016 NOSIG
2026-04-02 07:20:00,METAR LSZH 020720Z VRB01KT 9999 FEW013 04/M00 Q1016 NOSIG
2026-04-02 06:50:00,METAR LSZH 020650Z VRB01KT 9999 FEW017 03/00 Q1016 NOSIG
2026-04-02 06:20:00,METAR LSZH 020620Z 00000KT 9999 FEW017 00/M01 Q1016 NOSIG
2026-04-02 05:50:00,METAR LSZH 020550Z VRB02KT 9999 FEW018 01/M01 Q1016 NOSIG
2026-04-02 05:20:00,METAR LSZH 020520Z VRB03KT 9999 FEW018 M01/M01 Q1016 NOSIG
2026-04-02 04:50:00,METAR LSZH 020450Z VRB01KT 9999 FEW019 M01/M01 Q1016 NOSIG
2026-04-02 04:20:00,METAR LSZH 020420Z 11001KT 9999 FEW035 M02/M02 Q1016 NOSIG
2026-04-02 03:50:00,METAR LSZH 020350Z 04002KT 9999 FEW038 M01/M02 Q1016 NOSIG
2026-04-02 03:20:00,METAR LSZH 020320Z AUTO 02003KT 9999 FEW035 SCT039 M01/M02 Q1016 NOSIG
2026-04-02 02:50:00,METAR LSZH 020250Z AUTO 36004KT 9999 FEW035 01/M01 Q1016 NOSIG
2026-04-02 02:20:00,METAR LSZH 020220Z AUTO 02004KT 9999 FEW036 M00/M01 Q1016 NOSIG
2026-04-02 01:50:00,METAR LSZH 020150Z AUTO 01004KT 9999 FEW038 00/M01 Q1016 NOSIG
2026-04-02 01:20:00,METAR LSZH 020120Z AUTO 02003KT CAVOK M00/M02 Q1016 NOSIG
2026-04-02 00:50:00,METAR LSZH 020050Z AUTO 02002KT CAVOK 00/M01 Q1017 NOSIG
2026-04-02 00:20:00,METAR LSZH 020020Z AUTO 01003KT CAVOK 02/M01 Q1017 NOSIG
2026-04-01 23:50:00,METAR LSZH 012350Z AUTO 02004KT CAVOK 03/M00 Q1017 NOSIG
2026-04-01 23:20:00,METAR LSZH 012320Z AUTO 03005KT CAVOK 03/M01 Q1018 NOSIG
2026-04-01 22:50:00,METAR LSZH 012250Z AUTO 01003KT CAVOK 03/M01 Q1018 NOSIG
2026-04-01 22:20:00,METAR LSZH 012220Z AUTO 02004KT CAVOK 03/M01 Q1018 NOSIG
2026-04-01 21:50:00,METAR LSZH 012150Z AUTO 03003KT 9999 NCD 03/M00 Q1018 NOSIG
2026-04-01 21:20:00,METAR LSZH 012120Z VRB03KT 9999 FEW037 SCT060 02/M00 Q1019 NOSIG
2026-04-01 20:50:00,METAR LSZH 012050Z VRB02KT 9999 FEW037 SCT060 04/M00 Q1019 NOSIG
2026-04-01 20:20:00,METAR LSZH 012020Z VRB02KT 9999 FEW044 BKN050 03/M01 Q1019 NOSIG
2026-04-01 19:50:00,METAR LSZH 011950Z 06003KT 030V180 9999 BKN060 04/M01 Q1019 NOSIG
2026-04-01 19:20:00,METAR LSZH 011920Z 06003KT 9999 SCT060 05/M01 Q1020 NOSIG
2026-04-01 18:50:00,METAR LSZH 011850Z 06004KT 9999 FEW050 BKN060 06/M01 Q1020 NOSIG
2026-04-01 18:20:00,METAR LSZH 011820Z 07005KT 040V100 9999 FEW036 SCT055 BKN065 06/M01 Q1020 NOSIG
2026-04-01 17:50:00,METAR LSZH 011750Z 06005KT 9999 FEW036 SCT055 BKN066 07/M00 Q1020 NOSIG
2026-04-01 17:20:00,METAR LSZH 011720Z 07005KT 030V110 9999 FEW035 BKN070 07/M00 Q1020 NOSIG
2026-04-01 16:50:00,METAR LSZH 011650Z 04006KT 9999 FEW038 SCT060 BKN070 07/M01 Q1020 NOSIG
2026-04-01 16:20:00,METAR LSZH 011620Z 05006KT 9999 FEW038 SCT042 BKN057 07/M01 Q1020 NOSIG
2026-04-01 15:50:00,METAR LSZH 011550Z 04008KT 9999 SCT042 BKN065 07/M01 Q1020 NOSIG
2026-04-01 15:20:00,METAR LSZH 011520Z 04010KT 9999 SCT042 BKN070 08/M02 Q1020 NOSIG
2026-04-01 14:50:00,METAR LSZH 011450Z 08010KT 030V100 9999 FEW040 SCT048 BKN070 07/M01 Q1020 NOSIG
2026-04-01 13:50:00,METAR LSZH 011350Z 07005KT 030V100 9999 FEW038 SCT070 07/M01 Q1021 NOSIG
2026-04-01 13:20:00,METAR LSZH 011320Z 06011KT 9999 VCSH FEW038 BKN060 07/M00 Q1021 NOSIG
2026-04-01 12:50:00,METAR LSZH 011250Z VRB06KT 9999 FEW035 SCT055 08/M01 Q1021 NOSIG
2026-04-01 12:20:00,METAR LSZH 011220Z 09009KT 9999 FEW030 BKN035 07/M01 Q1021 NOSIG
2026-04-01 11:50:00,METAR LSZH 011150Z 08009KT 060V120 9999 FEW030 SCT035 07/M01 Q1022 NOSIG
2026-04-01 11:20:00,METAR LSZH 011120Z 10006KT 070V150 9999 FEW025 SCT035 07/02 Q1023 NOSIG
2026-04-01 10:50:00,METAR LSZH 011050Z 09008KT 9999 FEW018 BKN022 06/02 Q1023 NOSIG
2026-04-01 10:20:00,METAR LSZH 011020Z 08007KT 060V120 9999 SCT018 SCT050 05/02 Q1023 NOSIG
2026-04-01 09:50:00,METAR LSZH 010950Z 04006KT 010V080 9999 SCT014 BKN018 BKN050 04/00 Q1024 NOSIG
2026-04-01 09:20:00,METAR LSZH 010920Z 06006KT 030V110 9999 FEW010 SCT013 BKN016 04/01 Q1024 NOSIG
2026-04-01 08:50:00,METAR LSZH 010850Z 35004KT 310V030 9000 SCT009 BKN012 03/02 Q1024 BECMG BKN015
2026-04-01 08:20:00,METAR LSZH 010820Z VRB03KT 7000 SCT007 BKN012 03/02 Q1024 BECMG BKN015
2026-04-01 07:50:00,METAR LSZH 010750Z 34003KT 280V040 5000 BR VCSH BKN006 02/01 Q1024 BECMG BKN015
2026-04-01 07:20:00,METAR LSZH 010720Z 33004KT 4500 BR SCT004 BKN025 02/02 Q1024 TEMPO 2500 SHSNRA BKN008
2026-04-01 06:50:00,METAR LSZH 010650Z VRB01KT 4500 -SHRASN BR FEW006 SCT011 BKN030 01/01 Q1024 TEMPO 2500 SHSN BKN008
2026-04-01 06:20:00,METAR LSZH 010620Z 31002KT 3500 -SHSNRA BR SCT006 BKN020 01/01 Q1024 TEMPO 2500 SHSN BKN008
2026-04-01 05:50:00,METAR LSZH 010550Z 30004KT 3500 -SHSNRA BR FEW004 SCT008 BKN012 01/00 Q1024 TEMPO 5000 NSW BKN015
2026-04-01 05:20:00,METAR LSZH 010520Z VRB02KT 3500 -SHSNRA BR FEW005 SCT008 BKN012 01/01 Q1024 RESHSN TEMPO 5000 NSW BKN015
2026-04-01 04:50:00,METAR LSZH 010450Z VRB02KT 5000 -RASN BR FEW005 SCT015 BKN025 00/00 Q1024 TEMPO 2500 SHSNRA BKN008
2026-04-01 04:20:00,METAR LSZH 010420Z VRB02KT 8000 -RASN SCT006 BKN025 01/01 Q1024 TEMPO 4000 SHSNRA BKN010
2026-04-01 03:50:00,METAR LSZH 010350Z VRB02KT 8000 -RASN FEW006 BKN025 01/01 Q1024 TEMPO 4000 SHSNRA BKN010
2026-04-01 03:20:00,METAR LSZH 010320Z AUTO 35003KT 9999 -SN SCT005 SCT007 BKN024 01/01 Q1024 TEMPO -SHSNRA BKN010
2026-04-01 02:50:00,METAR LSZH 010250Z AUTO 14002KT 9999 -SN FEW005 BKN050 01/01 Q1024 NOSIG
2026-04-01 02:20:00,METAR LSZH 010220Z AUTO 13003KT 9999 FEW007 OVC050 01/01 Q1025 NOSIG
2026-04-01 01:50:00,METAR LSZH 010150Z AUTO 16003KT 9999 BKN050 01/00 Q1025 NOSIG
2026-04-01 01:20:00,METAR LSZH 010120Z AUTO 14002KT 9999 SCT045 BKN050 01/00 Q1025 RESN NOSIG
2026-04-01 00:50:00,METAR LSZH 010050Z AUTO 14004KT 9999 -SN FEW045 SCT050 BKN060 01/00 Q1026 BECMG NSW
2026-04-01 00:20:00,METAR LSZH 010020Z AUTO 14006KT 9999 FEW039 BKN050 01/00 Q1026 TEMPO 4500 -SN BKN010
2026-03-31 23:50:00,METAR LSZH 312350Z AUTO 15001KT 9999 VCSH FEW029 SCT034 BKN050 01/00 Q1026 RESN TEMPO 4500 -SN BKN010
2026-03-31 23:20:00,METAR LSZH 312320Z AUTO VRB01KT 9999 FEW033 BKN050 01/00 Q1027 TEMPO -SHRASN
2026-03-31 22:50:00,METAR LSZH 312250Z AUTO VRB01KT 9999 FEW032 SCT042 BKN049 00/00 Q1027 TEMPO -SHRASN
2026-03-31 22:20:00,METAR LSZH 312220Z AUTO VRB01KT 9999 FEW033 BKN050 BKN075 01/00 Q1027 NOSIG
2026-03-31 21:50:00,METAR LSZH 312150Z AUTO 12003KT 9999 BKN035 01/00 Q1027 NOSIG
2026-03-31 21:20:00,METAR LSZH 312120Z 14004KT 9999 SCT036 BKN050 01/00 Q1027 NOSIG
2026-03-31 20:50:00,METAR LSZH 312050Z 12003KT 9999 FEW038 BKN050 01/00 Q1027 NOSIG
2026-03-31 20:20:00,METAR LSZH 312020Z 16002KT 9999 FEW038 SCT050 01/01 Q1027 NOSIG
2026-03-31 19:50:00,METAR LSZH 311950Z 16004KT 9999 FEW050 SCT060 01/01 Q1027 NOSIG
2026-03-31 19:20:00,METAR LSZH 311920Z 14005KT 9999 FEW050 01/01 Q1027 NOSIG
2026-03-31 18:50:00,METAR LSZH 311850Z 13003KT 9999 VCSH FEW045 SCT060 02/01 Q1027 TEMPO SHRA
2026-03-31 18:20:00,METAR LSZH 311820Z 15003KT 9999 VCSH FEW035 SCT065 02/01 Q1027 TEMPO SHRA
2026-03-31 17:50:00,METAR LSZH 311750Z 19003KT 9999 VCSH FEW035 SCT055 BKN070 02/01 Q1027 TEMPO SHGSRA
2026-03-31 17:20:00,METAR LSZH 311720Z VRB02KT 9999 VCSH FEW010 FEW020TCU SCT045 BKN070 03/01 Q1026 TEMPO SHGSRA
2026-03-31 16:50:00,METAR LSZH 311650Z VRB02KT 8000 -SHRA FEW010 SCT020TCU BKN045 03/00 Q1027 TEMPO NSW
2026-03-31 16:20:00,METAR LSZH 311620Z 18005KT 9999 VCSH FEW015TCU SCT070 03/01 Q1026 TEMPO SHGSRA
2026-03-31 15:50:00,METAR LSZH 311550Z VRB02KT 9999 2000SE SHRASN FEW009 BKN020TCU 04/00 Q1026 BECMG NSW
2026-03-31 15:20:00,METAR LSZH 311520Z 31010KT 9999 VCSH FEW020TCU SCT035 04/01 Q1026 TEMPO 03010KT 2500 SHGSSN
2026-03-31 14:50:00,METAR LSZH 311450Z VRB03KT 9999 VCSH FEW020TCU SCT040 05/M01 Q1026 TEMPO 4500 SHRASN
2026-03-31 14:20:00,METAR LSZH 311420Z 12005KT 9999 VCSH FEW020TCU 05/00 Q1026 TEMPO 4500 SHRASN
2026-03-31 13:50:00,METAR LSZH 311350Z 03008KT 360V080 9999 -SHRA FEW020TCU SCT030 04/01 Q1026 TEMPO 4500 SHGSRA
2026-03-31 13:20:00,METAR LSZH 311320Z 36009KT 9999 -SHRA FEW015 BKN040 06/M03 Q1026 TEMPO 4500 SHGSRA
2026-03-31 12:50:00,METAR LSZH 311250Z VRB03KT 9999 VCSH FEW035 BKN060 06/M03 Q1026 TEMPO 4500 SHGSRA
2026-03-31 12:20:00,METAR LSZH 311220Z 01009KT 9999 VCSH FEW035 BKN060 05/M02 Q1027 TEMPO SHRA
2026-03-31 11:50:00,METAR LSZH 311150Z 34009KT 310V030 9999 FEW035 BKN060 05/M03 Q1026 TEMPO SHRA
2026-03-31 11:20:00,METAR LSZH 311120Z 33010KT 300V010 9999 FEW035 BKN055 06/M02 Q1026 NOSIG
2026-03-31 10:50:00,METAR LSZH 311050Z 36008KT 320V040 9999 FEW032 BKN045 05/M02 Q1027 NOSIG
2026-03-31 10:20:00,METAR LSZH 311020Z 01007KT 340V050 9999 FEW032 BKN045 05/M02 Q1027 NOSIG
2026-03-31 09:50:00,METAR LSZH 310950Z 04010KT 9999 FEW032 BKN045 05/M03 Q1026 NOSIG
2026-03-31 09:20:00,METAR LSZH 310920Z 01014KT 9999 FEW028 BKN045 06/M01 Q1026 NOSIG
2026-03-31 08:50:00,METAR LSZH 310850Z 02010KT 350V050 9999 FEW026 BKN045 04/M02 Q1026 NOSIG
2026-03-31 08:20:00,METAR LSZH 310820Z 01009KT 340V050 9999 FEW018 SCT025 BKN050 05/01 Q1026 NOSIG
2026-03-31 07:50:00,METAR LSZH 310750Z 34007KT 9999 FEW015 SCT025 BKN055 04/02 Q1026 NOSIG
2026-03-31 07:20:00,METAR LSZH 310720Z 35007KT 9999 -SHRASN VCSH FEW020 SCT030 BKN035 02/02 Q1025 RESHRA NOSIG
2026-03-31 06:50:00,METAR LSZH 310650Z 35006KT 9999 -SHRA VCSH FEW020 BKN027 02/00 Q1025 NOSIG
2026-03-31 06:20:00,METAR LSZH 310620Z 36004KT 320V030 9999 -SHRA FEW020 SCT030 BKN060 02/00 Q1024 NOSIG
2026-03-31 05:50:00,METAR LSZH 310550Z 01003KT 330V050 9999 FEW025 BKN075 02/M00 Q1024 NOSIG
2026-03-31 05:20:00,METAR LSZH 310520Z 36004KT 9999 FEW030 SCT045 BKN070 02/M00 Q1024 NOSIG
2026-03-31 04:50:00,METAR LSZH 310450Z 01003KT 9999 FEW025 BKN035 BKN045 01/00 Q1023 NOSIG
2026-03-31 04:20:00,METAR LSZH 310420Z VRB02KT 9999 FEW040 BKN072 01/00 Q1023 NOSIG
2026-03-31 03:50:00,METAR LSZH 310350Z 32006KT 9999 FEW025 BKN070 00/M00 Q1023 NOSIG
2026-03-31 03:20:00,METAR LSZH 310320Z AUTO 02004KT 9999 FEW036 BKN055 01/01 Q1022 NOSIG
2026-03-31 02:50:00,METAR LSZH 310250Z AUTO 35003KT 9999 FEW023 SCT065 01/01 Q1022 NOSIG
2026-03-31 02:20:00,METAR LSZH 310220Z AUTO 32004KT 9999 FEW027 00/00 Q1022 NOSIG
2026-03-31 01:50:00,METAR LSZH 310150Z AUTO 35005KT 9999 FEW035 01/01 Q1022 NOSIG
2026-03-31 01:20:00,METAR LSZH 310120Z AUTO 34005KT 9999 FEW014 SCT050 02/01 Q1022 RESN TEMPO BKN012
2026-03-31 00:50:00,METAR LSZH 310050Z AUTO 33008KT 9999 4200S -SNRA FEW009 SCT018 BKN023 02/01 Q1022 RESN TEMPO BKN012
2026-03-31 00:20:00,METAR LSZH 310020Z AUTO 34002KT 9000 FEW015 BKN023 BKN060 01/01 Q1021 RESN TEMPO SHRA BKN012
2026-03-30 23:50:00,METAR LSZH 302350Z AUTO VRB01KT 9999 -SNRA FEW008 SCT046 BKN065 02/02 Q1021 RESN TEMPO SHRA BKN012
2026-03-30 23:20:00,METAR LSZH 302320Z AUTO 33002KT 9999 -SN FEW007 BKN032 01/01 Q1021 TEMPO SHRA BKN012
2026-03-30 22:50:00,METAR LSZH 302250Z AUTO VRB01KT 9999 FEW009 SCT026 BKN031 01/01 Q1021 TEMPO SHRA BKN012
2026-03-30 22:20:00,METAR LSZH 302220Z AUTO VRB02KT 9999 4400N FEW010 BKN050 01/01 Q1021 TEMPO BKN012
2026-03-30 21:50:00,METAR LSZH 302150Z AUTO 14002KT 9999 SCT010 SCT075 02/02 Q1021 TEMPO BKN012
2026-03-30 21:20:00,METAR LSZH 302120Z 34003KT 310V010 9999 VCSH FEW015 SCT030 BKN060 02/02 Q1020 TEMPO SHRA
2026-03-30 20:50:00,METAR LSZH 302050Z VRB02KT 9999 FEW013 SCT042 BKN050 02/02 Q1020 RESHRA TEMPO SHRA
2026-03-30 20:20:00,METAR LSZH 302020Z 34005KT 280V020 7000 SHRA FEW009 SCT013 BKN018 03/02 Q1020 BECMG NSW
2026-03-30 19:50:00,METAR LSZH 301950Z VRB01KT 9999 -SHRA FEW012 FEW025TCU SCT035 BKN050 03/02 Q1020 TEMPO SHRA
2026-03-30 19:20:00,METAR LSZH 301920Z VRB02KT 9999 FEW015 SCT034 BKN055 02/02 Q1019 TEMPO 4500 SHRA
2026-03-30 18:50:00,METAR LSZH 301850Z VRB01KT 9999 FEW020 SCT050 03/02 Q1019 TEMPO 4500 SHRA
2026-03-30 18:20:00,METAR LSZH 301820Z 13002KT 9999 FEW020 SCT050 BKN065 03/02 Q1019 TEMPO 4500 SHRA
2026-03-30 17:50:00,METAR LSZH 301750Z VRB01KT 9999 FEW015 SCT050 BKN065 03/02 Q1018 TEMPO SHRA
2026-03-30 17:20:00,METAR LSZH 301720Z 20002KT 9999 VCSH FEW010 FEW015TCU SCT040 BKN050 03/02 Q1019 TEMPO SHRA
2026-03-30 16:50:00,METAR LSZH 301650Z 34008KT 300V030 6000 2500SE SHRA FEW008 SCT015TCU BKN024 03/02 Q1019 TEMPO NSW
2026-03-30 16:20:00,METAR LSZH 301620Z 28006KT 250V310 9999 -SHRA FEW013 SCT018TCU BKN030 05/02 Q1018 TEMPO 4500 SHRA
2026-03-30 15:50:00,METAR LSZH 301550Z 26010KT 9999 VCSH FEW014 BKN050 05/02 Q1018 TEMPO 4500 SHRA
2026-03-30 15:20:00,METAR LSZH 301520Z 26010KT 9999 VCSH FEW012 SCT040TCU BKN050 05/03 Q1018 TEMPO 4500 SHRA
2026-03-30 14:50:00,METAR LSZH 301450Z 24012KT 9999 FEW010 BKN070 05/03 Q1018 TEMPO SHRA
2026-03-30 14:20:00,METAR LSZH 301420Z 24010KT 9999 FEW009 SCT023TCU BKN055 05/03 Q1018 TEMPO SHRA
2026-03-30 13:50:00,METAR LSZH 301350Z 24009KT 9999 -SHRA FEW010 SCT015TCU BKN050 06/04 Q1018 TEMPO SHRA
2026-03-30 13:20:00,METAR LSZH 301320Z 25009KT 9999 -SHRA FEW010 SCT015TCU BKN020 05/03 Q1018 TEMPO SHRA
2026-03-30 12:50:00,METAR LSZH 301250Z 27011KT 6000 -SHRA FEW015 SCT020TCU BKN025 05/03 Q1018 RESHRA TEMPO SHRA
2026-03-30 12:20:00,METAR LSZH 301220Z 26016KT 230V300 8000 -SHRA FEW015 FEW025TCU BKN030 05/03 Q1018 RESHRA TEMPO SHRA
2026-03-30 11:50:00,METAR LSZH 301150Z 24012KT 9999 -SHRA FEW015 FEW030TCU BKN040 06/03 Q1018 TEMPO SHRA
2026-03-30 11:20:00,METAR LSZH 301120Z 25011KT 9999 -SHRA FEW015 BKN022 05/02 Q1019 TEMPO SHRA
2026-03-30 10:50:00,METAR LSZH 301050Z 23013KT 9999 -RA FEW015 BKN020 05/02 Q1019 TEMPO SHRA
2026-03-30 10:20:00,METAR LSZH 301020Z 23012KT 210V270 9999 -RA FEW015 BKN018 05/02 Q1020 TEMPO SHRA
2026-03-30 09:50:00,METAR LSZH 300950Z 23010KT 9999 FEW015 BKN018 05/02 Q1021 TEMPO SHRA
2026-03-30 09:20:00,METAR LSZH 300920Z 22009KT 190V250 9999 -RA FEW015 BKN018 04/01 Q1021 NOSIG
2026-03-30 08:50:00,METAR LSZH 300850Z 22008KT 190V260 9999 -RA FEW014 SCT018 BKN023 03/01 Q1022 NOSIG
2026-03-30 08:20:00,METAR LSZH 300820Z 21008KT 170V240 9999 -RA FEW014 SCT020 BKN027 03/01 Q1022 NOSIG
2026-03-30 07:50:00,METAR LSZH 300750Z 23007KT 180V250 9000 -RA FEW014 SCT020 BKN035 03/01 Q1022 NOSIG
2026-03-30 07:20:00,METAR LSZH 300720Z 24006KT 210V270 9000 -RA FEW015 SCT020 BKN040 03/01 Q1022 NOSIG
2026-03-30 06:50:00,METAR LSZH 300650Z 22009KT 9000 -RA FEW015 SCT030 BKN040 03/M00 Q1022 NOSIG
2026-03-30 06:20:00,METAR LSZH 300620Z 23010KT 9999 -RA FEW015 SCT030 BKN040 03/M00 Q1022 NOSIG
2026-03-30 05:50:00,METAR LSZH 300550Z 23008KT 200V260 9999 -RA FEW018 SCT025 BKN040 03/M00 Q1022 NOSIG
2026-03-30 05:20:00,METAR LSZH 300520Z 21007KT 170V250 9999 -RA FEW025 SCT035 BKN045 03/M00 Q1023 NOSIG
2026-03-30 04:50:00,METAR LSZH 300450Z 24010KT 210V270 9999 -RA FEW030 SCT040 BKN050 04/M01 Q1023 NOSIG
2026-03-30 04:20:00,METAR LSZH 300420Z 24010KT 9999 FEW055 BKN070 04/M01 Q1023 NOSIG
2026-03-30 03:50:00,METAR LSZH 300350Z 21006KT 9999 BKN070 03/M00 Q1023 NOSIG
2026-03-30 03:20:00,METAR LSZH 300320Z AUTO 23004KT 9999 BKN075 03/M00 Q1023 NOSIG
2026-03-30 02:50:00,METAR LSZH 300250Z AUTO 22004KT CAVOK 03/M00 Q1023 NOSIG
2026-03-30 02:20:00,METAR LSZH 300220Z AUTO 21004KT CAVOK 03/M00 Q1024 NOSIG
2026-03-30 01:50:00,METAR LSZH 300150Z AUTO 20006KT CAVOK 03/M00 Q1025 NOSIG
2026-03-30 01:20:00,METAR LSZH 300120Z AUTO 19004KT CAVOK 03/M00 Q1025 NOSIG
2026-03-30 00:50:00,METAR LSZH 300050Z AUTO 14003KT CAVOK 02/00 Q1026 NOSIG
2026-03-30 00:20:00,METAR LSZH 300020Z AUTO 12002KT CAVOK 02/00 Q1026 NOSIG
2026-03-29 23:50:00,METAR LSZH 292350Z AUTO 15005KT CAVOK 02/M00 Q1026 NOSIG
2026-03-29 23:20:00,METAR LSZH 292320Z AUTO 16003KT CAVOK 01/M00 Q1027 NOSIG
2026-03-29 22:50:00,METAR LSZH 292250Z AUTO 15004KT CAVOK 01/M00 Q1027 NOSIG
2026-03-29 22:20:00,METAR LSZH 292220Z AUTO VRB02KT CAVOK 01/M00 Q1027 NOSIG
2026-03-29 21:50:00,METAR LSZH 292150Z AUTO 32002KT CAVOK 00/M00 Q1028 NOSIG
2026-03-29 21:20:00,METAR LSZH 292120Z VRB01KT CAVOK 01/M01 Q1027 NOSIG
2026-03-29 20:50:00,METAR LSZH 292050Z VRB02KT 9999 FEW065 02/M00 Q1027 NOSIG
2026-03-29 20:20:00,METAR LSZH 292020Z VRB01KT 9999 SCT065 03/M00 Q1027 NOSIG
2026-03-29 19:50:00,METAR LSZH 291950Z VRB01KT 9999 FEW055 BKN070 04/M00 Q1027 NOSIG
2026-03-29 19:20:00,METAR LSZH 291920Z 15004KT 9999 FEW055 BKN070 04/M00 Q1027 NOSIG
2026-03-29 18:50:00,METAR LSZH 291850Z 17004KT 9999 FEW050 BKN070 05/M00 Q1028 NOSIG
2026-03-29 18:20:00,METAR LSZH 291820Z 14005KT 9999 FEW045 BKN070 05/00 Q1028 NOSIG
2026-03-29 17:50:00,METAR LSZH 291750Z 14003KT 9999 FEW030 BKN070 06/M00 Q1028 NOSIG
2026-03-29 17:20:00,METAR LSZH 291720Z 10003KT 9999 FEW025 BKN069 06/M01 Q1028 NOSIG
2026-03-29 16:50:00,METAR LSZH 291650Z 13004KT 070V170 9999 FEW025 BKN067 06/M01 Q1027 NOSIG
2026-03-29 16:20:00,METAR LSZH 291620Z 13003KT 060V170 9999 FEW025 BKN066 06/M00 Q1027 NOSIG
2026-03-29 15:50:00,METAR LSZH 291550Z VRB03KT 9999 FEW025 BKN065 06/M01 Q1027 NOSIG
2026-03-29 15:20:00,METAR LSZH 291520Z 14004KT 090V230 9999 FEW025 SCT055 BKN062 06/M00 Q1027 NOSIG
2026-03-29 14:50:00,METAR LSZH 291450Z 11005KT 080V160 9999 FEW025 SCT055 BKN062 06/M00 Q1027 NOSIG
2026-03-29 14:20:00,METAR LSZH 291420Z 09007KT 9999 FEW023 SCT050 BKN062 06/M01 Q1027 NOSIG
2026-03-29 13:50:00,METAR LSZH 291350Z 11007KT 080V150 9999 FEW016 SCT023 BKN055 06/01 Q1027 NOSIG
2026-03-29 13:20:00,METAR LSZH 291320Z 15005KT 110V180 9999 VCSH FEW016 SCT023 BKN048 06/01 Q1027 NOSIG
2026-03-29 12:50:00,METAR LSZH 291250Z 11004KT 070V170 9999 FEW010 SCT030 BKN050 05/M00 Q1027 NOSIG
2026-03-29 12:20:00,METAR LSZH 291220Z 11007KT 9999 -SHRA FEW010 SCT030 BKN045 04/01 Q1027 NOSIG
2026-03-29 11:50:00,METAR LSZH 291150Z 09005KT 9999 VCSH FEW010 SCT030 BKN040 05/00 Q1028 NOSIG
2026-03-29 11:20:00,METAR LSZH 291120Z 09005KT 9999 -SHRA FEW010 SCT030 BKN045 04/01 Q1028 NOSIG
2026-03-29 10:50:00,METAR LSZH 291050Z 07005KT 030V110 9999 VCSH FEW015 SCT040 BKN055 05/01 Q1028 NOSIG
2026-03-29 10:20:00,METAR LSZH 291020Z 06005KT 010V110 9999 FEW015 SCT035 BKN055 05/01 Q1027 NOSIG
2026-03-29 09:50:00,METAR LSZH 290950Z 08005KT 020V110 9999 VCSH FEW015 SCT030 BKN050 05/01 Q1027 NOSIG
2026-03-29 09:20:00,METAR LSZH 290920Z 05006KT 010V070 9999 FEW015 SCT030 BKN050 04/01 Q1027 NOSIG
2026-03-29 08:50:00,METAR LSZH 290850Z 05003KT 360V100 9999 FEW015 SCT030 BKN055 05/02 Q1027 NOSIG
2026-03-29 08:20:00,METAR LSZH 290820Z 04004KT 9999 FEW010 SCT030 BKN040 04/01 Q1027 NOSIG
2026-03-29 07:50:00,METAR LSZH 290750Z VRB02KT 9999 FEW010 SCT020 BKN030 03/02 Q1026 NOSIG
2026-03-29 07:20:00,METAR LSZH 290720Z VRB01KT 9999 FEW010 SCT020 BKN025 03/02 Q1026 NOSIG
2026-03-29 06:50:00,METAR LSZH 290650Z VRB01KT 9999 FEW005 SCT020 BKN030 03/02 Q1026 NOSIG
2026-03-29 06:20:00,METAR LSZH 290620Z 14002KT 6000 FEW005 BKN020 BKN030 02/02 Q1025 NOSIG
2026-03-29 05:50:00,METAR LSZH 290550Z 19002KT 5000 BR FEW003 SCT020 BKN030 02/01 Q1025 TEMPO 4000
2026-03-29 05:20:00,METAR LSZH 290520Z VRB01KT 5000 -DZ BR FEW001 SCT030 BKN040 02/01 Q1025 TEMPO 4000
2026-03-29 04:50:00,METAR LSZH 290450Z 15002KT 5000 -RA BR FEW003 SCT030 BKN040 02/01 Q1025 TEMPO 4000
2026-03-29 04:20:00,METAR LSZH 290420Z 14004KT 6000 -RADZ FEW003 SCT030 BKN040 02/01 Q1024 TEMPO 4000 -RASN
2026-03-29 03:50:00,METAR LSZH 290350Z 14003KT 5000 -DZ BR FEW003 BKN030 02/01 Q1024 RESNRA TEMPO 4000 -RASN
2026-03-29 03:20:00,METAR LSZH 290320Z AUTO VRB03KT 6000 -SNRA FEW003 SCT033 BKN039 02/02 Q1024 RESN TEMPO 4000 -RASN BKN006
2026-03-29 02:50:00,METAR LSZH 290250Z AUTO 02003KT 6000 -SNRA FEW003 SCT025 BKN030 02/02 Q1024 RESN TEMPO 4000 -RASN BKN006
2026-03-29 02:20:00,METAR LSZH 290220Z AUTO 33002KT 5000 -SNRA BR FEW004 SCT007 BKN029 02/02 Q1024 RESN TEMPO -RASN BKN006
2026-03-29 01:50:00,METAR LSZH 290150Z AUTO 03001KT 6000 -SNRA SCT004 SCT015 BKN030 02/02 Q1024 RESN TEMPO -RASN BKN006
2026-03-29 01:20:00,METAR LSZH 290120Z AUTO 13001KT 7000 -RASN FEW005 SCT006 BKN027 02/02 Q1024 RESN NOSIG
2026-03-29 00:50:00,METAR LSZH 290050Z AUTO VRB02KT 7000 BKN006 BKN030 02/02 Q1024 TEMPO -SNRA
2026-03-29 00:20:00,METAR LSZH 290020Z AUTO 13001KT 8000 SCT005 SCT026 BKN031 02/02 Q1023 RESN NOSIG
2026-03-28 23:50:00,METAR LSZH 282350Z AUTO 10002KT 8000 -SNRADZ FEW005 BKN007 BKN030 02/02 Q1023 RESN TEMPO NSW
2026-03-28 23:20:00,METAR LSZH 282320Z AUTO 11003KT 9000 -SNRA BKN006 BKN022 BKN028 02/01 Q1023 RESN TEMPO NSW
2026-03-28 22:50:00,METAR LSZH 282250Z AUTO 11003KT 9000 -SNRA SCT005 SCT010 BKN032 02/01 Q1023 NOSIG
2026-03-28 22:20:00,METAR LSZH 282220Z VRB02KT 9000 -SNRA FEW004 BKN007 BKN017 02/01 Q1023 NOSIG
2026-03-28 21:50:00,METAR LSZH 282150Z VRB02KT 9000 -SNRA FEW004 BKN008 BKN016 01/01 Q1023 NOSIG
2026-03-28 21:20:00,METAR LSZH 282120Z VRB02KT 9000 -SNRA FEW004 BKN008 BKN018 01/01 Q1023 NOSIG
2026-03-28 20:50:00,METAR LSZH 282050Z VRB01KT 8000 -SNRA FEW004 BKN007 01/01 Q1022 TEMPO 4500
2026-03-28 20:20:00,METAR LSZH 282020Z VRB01KT 6000 -SNRA FEW003 BKN006 01/00 Q1022 TEMPO 4500
2026-03-28 19:50:00,METAR LSZH 281950Z VRB02KT 6000 -SNRA FEW003 BKN007 01/01 Q1022 TEMPO 4500
2026-03-28 19:20:00,METAR LSZH 281920Z VRB03KT 8000 -RASN SCT005 BKN007 01/01 Q1022 NOSIG
2026-03-28 18:50:00,METAR LSZH 281850Z 23005KT 7000 -RASN SCT005 BKN007 02/01 Q1021 NOSIG
2026-03-28 18:20:00,METAR LSZH 281820Z VRB03KT 7000 -RASN SCT006 BKN010 02/01 Q1021 BECMG BKN007
2026-03-28 17:50:00,METAR LSZH 281750Z 28005KT 8000 -RA SCT007 BKN012 02/01 Q1021 BECMG -RASN BKN007
2026-03-28 17:20:00,METAR LSZH 281720Z 26006KT 8000 -RA FEW008 BKN013 03/01 Q1020 BECMG -RASN BKN009
2026-03-28 16:50:00,METAR LSZH 281650Z 26005KT 8000 -RA FEW008 BKN018 03/01 Q1020 BECMG -RASN BKN009
2026-03-28 16:20:00,METAR LSZH 281620Z 24006KT 8000 -RA FEW009 BKN020 03/01 Q1020 BECMG -RASN
2026-03-28 15:50:00,METAR LSZH 281550Z 26006KT 8000 -RA FEW011 BKN025 03/01 Q1020 BECMG FM1630 -RASN
2026-03-28 15:20:00,METAR LSZH 281520Z 27007KT 250V310 9000 -RA FEW019 BKN035 04/M00 Q1019 BECMG FM1630 -RASN
2026-03-28 14:50:00,METAR LSZH 281450Z VRB06KT 9999 FEW030 BKN045 05/M02 Q1019 BECMG FM1630 -RASN
2026-03-28 14:20:00,METAR LSZH 281420Z 28010KT 9999 FEW042 BKN050 06/M03 Q1019 NOSIG
2026-03-28 13:50:00,METAR LSZH 281350Z 30007KT 260V330 9999 FEW045 BKN060 07/M04 Q1019 NOSIG
2026-03-28 13:20:00,METAR LSZH 281320Z 27006KT 240V300 9999 FEW055 BKN070 07/M04 Q1019 NOSIG
2026-03-28 12:50:00,METAR LSZH 281250Z 28007KT 230V300 9999 FEW045 SCT065 07/M04 Q1019 NOSIG
2026-03-28 12:20:00,METAR LSZH 281220Z 28008KT 250V310 9999 FEW042 07/M04 Q1019 NOSIG
2026-03-28 11:50:00,METAR LSZH 281150Z 23007KT 200V280 9999 FEW042 07/M03 Q1019 NOSIG
2026-03-28 11:20:00,METAR LSZH 281120Z 24006KT 190V300 9999 FEW035 07/M02 Q1020 NOSIG
2026-03-28 10:50:00,METAR LSZH 281050Z 27004KT 210V320 9999 FEW035 06/M03 Q1020 NOSIG
2026-03-28 10:20:00,METAR LSZH 281020Z 20004KT 090V270 9999 FEW030 05/M03 Q1020 NOSIG
2026-03-28 09:50:00,METAR LSZH 280950Z VRB03KT 9999 FEW030 05/M02 Q1021 NOSIG
2026-03-28 09:20:00,METAR LSZH 280920Z 23005KT 170V300 9999 FEW025 04/M03 Q1021 NOSIG
2026-03-28 08:50:00,METAR LSZH 280850Z VRB01KT 9999 FEW020 03/M02 Q1021 NOSIG
2026-03-28 08:20:00,METAR LSZH 280820Z VRB02KT 9999 FEW020 02/M03 Q1021 NOSIG
2026-03-28 07:50:00,METAR LSZH 280750Z VRB01KT CAVOK 01/M03 Q1021 NOSIG
2026-03-28 07:20:00,METAR LSZH 280720Z VRB01KT CAVOK 00/M03 Q1021 NOSIG
2026-03-28 06:50:00,METAR LSZH 280650Z VRB01KT CAVOK M02/M04 Q1021 NOSIG
2026-03-28 06:20:00,METAR LSZH 280620Z VRB01KT CAVOK M03/M04 Q1021 NOSIG
2026-03-28 05:50:00,METAR LSZH 280550Z VRB01KT CAVOK M05/M06 Q1021 NOSIG
2026-03-28 05:20:00,METAR LSZH 280520Z 11001KT CAVOK M05/M06 Q1021 NOSIG
2026-03-28 04:50:00,METAR LSZH 280450Z VRB01KT CAVOK M05/M05 Q1021 NOSIG
2026-03-28 04:20:00,METAR LSZH 280420Z AUTO 31002KT CAVOK M04/M05 Q1021 NOSIG
2026-03-28 03:50:00,METAR LSZH 280350Z AUTO 33002KT CAVOK M05/M05 Q1021 NOSIG
2026-03-28 03:20:00,METAR LSZH 280320Z AUTO 33002KT CAVOK M05/M06 Q1021 NOSIG
2026-03-28 02:50:00,METAR LSZH 280250Z AUTO 00000KT CAVOK M05/M06 Q1021 NOSIG
2026-03-28 02:20:00,METAR LSZH 280220Z AUTO VRB01KT CAVOK M04/M05 Q1021 NOSIG
2026-03-28 01:50:00,METAR LSZH 280150Z AUTO VRB01KT CAVOK M04/M05 Q1021 NOSIG
2026-03-28 01:20:00,METAR LSZH 280120Z AUTO VRB01KT CAVOK M03/M05 Q1022 NOSIG
2026-03-28 00:50:00,METAR LSZH 280050Z AUTO VRB01KT CAVOK M04/M05 Q1022 NOSIG
2026-03-28 00:20:00,METAR LSZH 280020Z AUTO VRB02KT CAVOK M04/M06 Q1022 NOSIG
2026-03-27 23:50:00,METAR LSZH 272350Z AUTO 30003KT CAVOK M02/M04 Q1022 NOSIG
2026-03-27 23:20:00,METAR LSZH 272320Z AUTO 32004KT CAVOK M03/M05 Q1022 NOSIG
2026-03-27 22:50:00,METAR LSZH 272250Z AUTO 31003KT 9999 NCD M02/M04 Q1022 NOSIG
2026-03-27 22:20:00,METAR LSZH 272220Z 30002KT CAVOK M02/M04 Q1022 NOSIG
2026-03-27 21:50:00,METAR LSZH 272150Z 33003KT CAVOK M02/M05 Q1022 NOSIG
2026-03-27 21:20:00,METAR LSZH 272120Z 32004KT CAVOK M01/M04 Q1022 NOSIG
2026-03-27 20:50:00,METAR LSZH 272050Z 31003KT CAVOK M02/M05 Q1022 NOSIG
2026-03-27 20:20:00,METAR LSZH 272020Z VRB02KT CAVOK M00/M04 Q1022 NOSIG
2026-03-27 19:50:00,METAR LSZH 271950Z 33003KT 290V010 CAVOK 01/M05 Q1022 NOSIG
2026-03-27 19:20:00,METAR LSZH 271920Z 02003KT 290V060 9999 FEW070 02/M05 Q1022 NOSIG
2026-03-27 18:50:00,METAR LSZH 271850Z 06003KT 020V110 9999 FEW070 03/M05 Q1022 NOSIG
2026-03-27 18:20:00,METAR LSZH 271820Z 05003KT 9999 SCT065 03/M06 Q1022 NOSIG
2026-03-27 17:50:00,METAR LSZH 271750Z VRB03KT 9999 FEW065 SCT075 04/M06 Q1022 NOSIG
2026-03-27 17:20:00,METAR LSZH 271720Z 10003KT 070V130 9999 FEW060 SCT075 05/M06 Q1021 NOSIG
2026-03-27 16:50:00,METAR LSZH 271650Z 08006KT 9999 FEW046 BKN075 05/M06 Q1021 NOSIG
2026-03-27 16:20:00,METAR LSZH 271620Z 06004KT 360V120 9999 FEW045 SCT055 BKN075 05/M06 Q1021 NOSIG
2026-03-25 14:50:00,METAR LSZH 251450Z 28014KT 9999 -SHRA FEW018 SCT050 BKN075 06/02 Q1008 TEMPO 30020G32KT SHRA
2026-03-25 14:20:00,METAR LSZH 251420Z 28018KT 9999 FEW014 FEW020TCU BKN055 06/03 Q1007 RESHRA TEMPO 30020G32KT SHRA
2026-03-25 13:50:00,METAR LSZH 251350Z 29016KT 9999 SHRA FEW011 FEW030TCU BKN055 06/03 Q1007 RESHRA TEMPO 30020G32KT SHRA
2026-03-25 13:20:00,METAR LSZH 251320Z 29019KT 4500 SHRA FEW011 FEW025TCU BKN030 05/03 Q1007 TEMPO 30025G40KT NSW
2026-03-25 12:50:00,METAR LSZH 251250Z 29017KT 9000 SHRA FEW025 FEW040TCU BKN055 09/06 Q1005 TEMPO 30025G40KT NSW
2026-03-25 12:20:00,METAR LSZH 251220Z 30022G32KT 9000 SHRA FEW030 FEW040TCU BKN055 09/05 Q1005 TEMPO NSW
2026-03-25 11:50:00,METAR LSZH 251150Z 26023KT 9999 VCSH FEW055 BKN075 13/M00 Q1004 TEMPO 32022G40KT SHRA
2026-03-25 11:20:00,METAR LSZH 251120Z 24021G33KT 9999 FEW055 BKN075 14/01 Q1005 TEMPO 32022G40KT SHRA
2026-03-25 10:50:00,METAR LSZH 251050Z 25022G32KT 9999 FEW055 14/02 Q1005 TEMPO FM1200 SHRA
2026-03-25 10:20:00,METAR LSZH 251020Z 25017KT 9999 FEW055 13/02 Q1006 TEMPO 25020G38KT TEMPO FM1130 SHRA
2026-03-25 09:50:00,METAR LSZH 250950Z 24017G28KT 9999 FEW055 13/02 Q1007 NOSIG
2026-03-25 09:20:00,METAR LSZH 250920Z 25014KT 9999 FEW055 12/02 Q1007 NOSIG
2026-03-25 08:50:00,METAR LSZH 250850Z 25016KT 9999 FEW055 12/02 Q1008 NOSIG
2026-03-25 08:20:00,METAR LSZH 250820Z 24013KT 9999 FEW040 12/02 Q1009 NOSIG
2026-03-25 07:50:00,METAR LSZH 250750Z 23013G28KT 200V270 CAVOK 11/02 Q1009 NOSIG
2026-03-25 07:20:00,METAR LSZH 250720Z 24014G26KT CAVOK 11/02 Q1010 NOSIG
2026-03-25 06:50:00,METAR LSZH 250650Z 23010KT CAVOK 10/02 Q1010 NOSIG
2026-03-25 06:20:00,METAR LSZH 250620Z 21006KT 190V250 CAVOK 09/02 Q1011 NOSIG
2026-03-25 05:50:00,METAR LSZH 250550Z 24015KT CAVOK 09/02 Q1011 NOSIG
2026-03-25 05:20:00,METAR LSZH 250520Z 24013KT 190V270 CAVOK 09/02 Q1011 NOSIG
2026-03-25 04:50:00,METAR LSZH 250450Z 21008G19KT 170V250 CAVOK 08/02 Q1012 NOSIG
2026-03-25 04:20:00,METAR LSZH 250420Z AUTO 21008KT CAVOK 08/01 Q1012 NOSIG
2026-03-25 03:50:00,METAR LSZH 250350Z AUTO 20006KT CAVOK 07/01 Q1013 NOSIG
2026-03-25 03:20:00,METAR LSZH 250320Z AUTO 19006KT CAVOK 06/01 Q1013 NOSIG
2026-03-25 02:50:00,METAR LSZH 250250Z AUTO 21005KT 9999 NCD 05/01 Q1013 NOSIG
2026-03-25 02:20:00,METAR LSZH 250220Z AUTO 24005KT CAVOK 04/00 Q1014 NOSIG
2026-03-25 01:50:00,METAR LSZH 250150Z AUTO 14005KT 9999 NSC 06/02 Q1014 NOSIG
2026-03-25 01:20:00,METAR LSZH 250120Z AUTO VRB01KT 9999 NCD 05/01 Q1015 NOSIG
2026-03-25 00:50:00,METAR LSZH 250050Z AUTO 16004KT CAVOK 05/02 Q1016 NOSIG
2026-03-25 00:20:00,METAR LSZH 250020Z AUTO 15004KT CAVOK 05/02 Q1016 NOSIG
2026-03-24 23:50:00,METAR LSZH 242350Z AUTO VRB02KT CAVOK 07/02 Q1016 NOSIG
2026-03-24 23:20:00,METAR LSZH 242320Z AUTO 17006KT CAVOK 06/02 Q1016 NOSIG
2026-03-24 22:50:00,METAR LSZH 242250Z AUTO 17004KT CAVOK 05/02 Q1017 NOSIG
2026-03-24 22:20:00,METAR LSZH 242220Z 18006KT 150V210 CAVOK 09/02 Q1017 NOSIG
2026-03-24 21:50:00,METAR LSZH 242150Z 17003KT CAVOK 07/01 Q1017 NOSIG
2026-03-24 21:20:00,METAR LSZH 242120Z 15006KT CAVOK 06/01 Q1018 NOSIG
2026-03-24 20:50:00,METAR LSZH 242050Z 15005KT CAVOK 07/01 Q1018 NOSIG
2026-03-24 20:20:00,METAR LSZH 242020Z 17003KT CAVOK 08/00 Q1018 NOSIG
2026-03-24 19:50:00,METAR LSZH 241950Z 13002KT CAVOK 09/01 Q1018 NOSIG
2026-03-24 19:20:00,METAR LSZH 241920Z 15002KT CAVOK 10/M00 Q1019 NOSIG
2026-03-24 18:50:00,METAR LSZH 241850Z VRB03KT CAVOK 10/M00 Q1019 NOSIG
2026-03-24 18:20:00,METAR LSZH 241820Z 19003KT CAVOK 10/M00 Q1019 NOSIG
2026-03-24 17:50:00,METAR LSZH 241750Z 20003KT CAVOK 13/M02 Q1019 NOSIG
2026-03-24 17:20:00,METAR LSZH 241720Z 21004KT 160V250 CAVOK 13/M02 Q1019 NOSIG
2026-03-24 16:50:00,METAR LSZH 241650Z 24004KT CAVOK 14/M02 Q1019 NOSIG
2026-03-24 16:20:00,METAR LSZH 241620Z 19003KT 140V260 CAVOK 14/M01 Q1020 NOSIG
2026-03-24 15:50:00,METAR LSZH 241550Z VRB02KT CAVOK 15/M03 Q1020 NOSIG
2026-03-24 15:20:00,METAR LSZH 241520Z 16003KT 100V220 CAVOK 14/M03 Q1020 NOSIG
2026-03-24 14:50:00,METAR LSZH 241450Z VRB02KT CAVOK 15/M04 Q1020 NOSIG
2026-03-24 14:20:00,METAR LSZH 241420Z 21003KT 160V260 CAVOK 14/M03 Q1020 NOSIG
2026-03-24 13:50:00,METAR LSZH 241350Z 32004KT 250V360 CAVOK 14/M04 Q1021 NOSIG
2026-03-24 13:20:00,METAR LSZH 241320Z 24003KT 140V310 CAVOK 14/M03 Q1021 NOSIG
2026-03-24 12:50:00,METAR LSZH 241250Z VRB02KT CAVOK 13/M03 Q1022 NOSIG
2026-03-24 12:20:00,METAR LSZH 241220Z VRB03KT CAVOK 14/M00 Q1022 NOSIG
2026-03-24 11:50:00,METAR LSZH 241150Z VRB03KT 9999 FEW050 13/M02 Q1022 NOSIG
2026-03-24 11:20:00,METAR LSZH 241120Z VRB03KT 9999 FEW044 12/01 Q1023 NOSIG
2026-03-24 10:50:00,METAR LSZH 241050Z VRB03KT 9999 FEW038 12/03 Q1023 NOSIG
2026-03-24 10:20:00,METAR LSZH 241020Z VRB02KT CAVOK 10/02 Q1023 NOSIG
2026-03-24 09:50:00,METAR LSZH 240950Z VRB02KT CAVOK 09/03 Q1023 NOSIG
2026-03-24 09:20:00,METAR LSZH 240920Z VRB02KT CAVOK 08/04 Q1023 NOSIG
2026-03-24 08:50:00,METAR LSZH 240850Z 30004KT 260V360 8000 NSC 06/03 Q1024 NOSIG
2026-03-24 08:20:00,METAR LSZH 240820Z VRB03KT 6000 NSC 05/02 Q1024 NOSIG
2026-03-24 07:50:00,METAR LSZH 240750Z 30003KT 6000 NSC 03/02 Q1023 NOSIG
2026-03-24 07:20:00,METAR LSZH 240720Z 31003KT 7000 3000N VCFG NSC 02/02 Q1023 NOSIG
2026-03-24 06:50:00,METAR LSZH 240650Z VRB01KT 7000 3000N VCFG NSC 01/01 Q1023 NOSIG
2026-03-24 06:20:00,METAR LSZH 240620Z 10001KT 6000 2000N BCFG VCFG NSC M02/M02 Q1023 NOSIG
2026-03-24 05:50:00,METAR LSZH 240550Z VRB01KT 4500 0400N R14/0450U R16/1300N R28/P2000N R34/P2000N BCFG VCFG FEW001 M01/M01 Q1023 TEMPO 1200 PRFG
2026-03-24 05:20:00,METAR LSZH 240520Z 32001KT 4500 0500N R14/P2000N R16/1000N R28/P2000N R34/P2000N BCFG VCFG FEW001 M02/M02 Q1023 TEMPO 1200 PRFG
2026-03-24 04:50:00,METAR LSZH 240450Z 33002KT 7000 2000NW R14/P2000N R16/0600U R28/P2000N R34/P2000N BCFG VCFG NSC M02/M02 Q1023 TEMPO 1200 PRFG
2026-03-24 04:20:00,METAR LSZH 240420Z AUTO 35002KT 6000 R14/0650U R16/P2000N R28/P2000N R34/P2000N VCFG NCD M01/M01 Q1023 TEMPO 1200 PRFG
2026-03-24 03:50:00,METAR LSZH 240350Z AUTO VRB01KT 7000 3100NE VCFG FEW004 M01/M01 Q1022 TEMPO 1200 PRFG
2026-03-24 03:20:00,METAR LSZH 240320Z AUTO VRB01KT 9000 0500N R14/P2000N R16/P2000N R28/P2000N R34/P2000N BCFG VCFG NCD M00/M00 Q1022 TEMPO 3000 PRFG
2026-03-24 02:50:00,METAR LSZH 240250Z AUTO 32002KT 9000 4000N VCFG NCD M01/M01 Q1022 BECMG 4000 MIFG
2026-03-24 02:20:00,METAR LSZH 240220Z AUTO 33001KT 9000 2400N VCFG NCD 01/01 Q1022 BECMG 4000 MIFG
2026-03-24 01:50:00,METAR LSZH 240150Z AUTO 00000KT 8000 NCD 00/M00 Q1022 BECMG 4000 MIFG
2026-03-24 01:20:00,METAR LSZH 240120Z AUTO 16001KT CAVOK 00/M00 Q1022 BECMG 4000 MIFG
2026-03-24 00:50:00,METAR LSZH 240050Z AUTO 15001KT CAVOK 01/00 Q1022 NOSIG
2026-03-24 00:20:00,METAR LSZH 240020Z AUTO 32001KT CAVOK 01/01 Q1022 NOSIG
2026-03-23 23:50:00,METAR LSZH 232350Z AUTO 00000KT CAVOK 01/M00 Q1022 NOSIG
2026-03-23 23:20:00,METAR LSZH 232320Z AUTO 05001KT CAVOK 01/00 Q1022 NOSIG
2026-03-23 22:50:00,METAR LSZH 232250Z AUTO 31001KT CAVOK 03/02 Q1022 NOSIG
2026-03-23 22:20:00,METAR LSZH 232220Z VRB02KT CAVOK 03/01 Q1022 NOSIG
2026-03-23 21:50:00,METAR LSZH 232150Z VRB02KT CAVOK 03/02 Q1022 NOSIG
2026-03-23 21:20:00,METAR LSZH 232120Z VRB01KT CAVOK 02/00 Q1022 NOSIG
2026-03-23 20:50:00,METAR LSZH 232050Z 12004KT CAVOK 05/02 Q1021 NOSIG
2026-03-23 20:20:00,METAR LSZH 232020Z 25002KT CAVOK 04/01 Q1021 NOSIG
2026-03-23 19:50:00,METAR LSZH 231950Z 13005KT CAVOK 07/02 Q1021 NOSIG
2026-03-23 19:20:00,METAR LSZH 231920Z 13006KT CAVOK 07/02 Q1021 NOSIG
2026-03-23 18:50:00,METAR LSZH 231850Z 15005KT CAVOK 07/02 Q1021 NOSIG
2026-03-23 18:20:00,METAR LSZH 231820Z 13006KT CAVOK 08/03 Q1020 NOSIG
2026-03-23 17:50:00,METAR LSZH 231750Z 15004KT 090V200 CAVOK 09/03 Q1020 NOSIG
2026-03-23 17:20:00,METAR LSZH 231720Z VRB02KT 9999 FEW075 11/02 Q1020 NOSIG
2026-03-23 16:50:00,METAR LSZH 231650Z 29004KT 9999 BKN075 10/04 Q1019 NOSIG
2026-03-23 16:20:00,METAR LSZH 231620Z 29002KT 9999 FEW040 BKN070 11/05 Q1019 NOSIG
2026-03-23 15:50:00,METAR LSZH 231550Z 31003KT 9999 -SHRA FEW040 BKN065 11/04 Q1019 TEMPO SHRA
2026-03-23 15:20:00,METAR LSZH 231520Z VRB03KT 9999 VCSH FEW045 BKN070 12/03 Q1019 TEMPO SHRA
2026-03-23 14:50:00,METAR LSZH 231450Z 33002KT 9999 FEW050 BKN070 12/03 Q1018 TEMPO SHRA
2026-03-23 14:20:00,METAR LSZH 231420Z 25003KT 9999 VCSH FEW030 BKN070 11/04 Q1018 TEMPO SHRA
2026-03-23 13:50:00,METAR LSZH 231350Z 27008KT 9999 -SHRA FEW035 BKN072 10/04 Q1018 TEMPO SHRA
2026-03-23 13:20:00,METAR LSZH 231320Z 33004KT 300V020 9999 VCSH FEW035 SCT040 BKN075 11/03 Q1018 TEMPO SHRA
2026-03-23 12:50:00,METAR LSZH 231250Z VRB02KT 9999 FEW038 SCT045 BKN075 12/03 Q1018 NOSIG
2026-03-23 12:20:00,METAR LSZH 231220Z VRB03KT 9999 FEW036 SCT040 12/03 Q1018 NOSIG
2026-03-23 11:50:00,METAR LSZH 231150Z VRB03KT 9999 SCT035 BKN079 12/03 Q1018 NOSIG
2026-03-23 11:20:00,METAR LSZH 231120Z 21003KT 110V280 9999 SCT030 BKN075 12/03 Q1018 NOSIG
2026-03-23 10:50:00,METAR LSZH 231050Z VRB04KT 9999 FEW028 SCT037 11/04 Q1018 NOSIG
2026-03-23 10:20:00,METAR LSZH 231020Z 26006KT 230V300 9999 FEW024 SCT034 11/04 Q1018 NOSIG
2026-03-23 09:50:00,METAR LSZH 230950Z 25005KT 200V290 9999 FEW025 10/04 Q1018 NOSIG
2026-03-23 09:20:00,METAR LSZH 230920Z 22006KT 180V290 9999 FEW020 SCT050 BKN060 09/04 Q1018 NOSIG
2026-03-23 08:50:00,METAR LSZH 230850Z 21005KT 140V300 9999 FEW017 SCT050 09/04 Q1018 NOSIG
2026-03-23 08:20:00,METAR LSZH 230820Z 16004KT 9999 FEW016 SCT075 06/03 Q1017 NOSIG
2026-03-23 07:50:00,METAR LSZH 230750Z 15005KT 9000 VCSH FEW050 SCT075 05/03 Q1017 NOSIG
2026-03-23 07:20:00,METAR LSZH 230720Z 15005KT 9000 VCSH SCT050 BKN075 05/03 Q1017 NOSIG
2026-03-23 06:50:00,METAR LSZH 230650Z 15004KT 9000 VCSH SCT050 BKN075 04/03 Q1017 NOSIG
2026-03-23 06:20:00,METAR LSZH 230620Z 15005KT 9000 FEW060 BKN075 04/02 Q1016 NOSIG
2026-03-23 05:50:00,METAR LSZH 230550Z 15004KT 9000 FEW055 BKN075 03/02 Q1016 NOSIG
2026-03-23 05:20:00,METAR LSZH 230520Z 16004KT 9000 FEW055 BKN065 02/01 Q1016 NOSIG
2026-03-23 04:50:00,METAR LSZH 230450Z 15003KT 9000 SCT055 BKN075 02/01 Q1016 NOSIG
2026-03-23 04:20:00,METAR LSZH 230420Z AUTO 17003KT 9999 SCT050 SCT065 02/00 Q1015 NOSIG
2026-03-23 03:50:00,METAR LSZH 230350Z AUTO 16004KT 9999 FEW060 02/00 Q1015 NOSIG
2026-03-23 03:20:00,METAR LSZH 230320Z AUTO 15003KT 9999 FEW060 01/M00 Q1015 NOSIG
2026-03-23 02:50:00,METAR LSZH 230250Z AUTO 13002KT CAVOK 01/M01 Q1015 NOSIG
2026-03-23 02:20:00,METAR LSZH 230220Z AUTO VRB02KT CAVOK 01/M01 Q1015 NOSIG
2026-03-23 01:50:00,METAR LSZH 230150Z AUTO 14003KT CAVOK 01/M00 Q1014 NOSIG
2026-03-23 01:20:00,METAR LSZH 230120Z AUTO VRB01KT 9999 4200SE NCD 02/M00 Q1014 NOSIG
2026-03-23 00:50:00,METAR LSZH 230050Z AUTO VRB01KT CAVOK 02/00 Q1014 NOSIG
2026-03-23 00:20:00,METAR LSZH 230020Z AUTO VRB01KT CAVOK 02/00 Q1014 NOSIG
2026-03-22 23:50:00,METAR LSZH 222350Z AUTO 15003KT CAVOK 03/01 Q1014 NOSIG
2026-03-22 23:20:00,METAR LSZH 222320Z AUTO VRB01KT CAVOK 04/01 Q1013 NOSIG
2026-03-22 22:50:00,METAR LSZH 222250Z AUTO VRB02KT 9999 NCD 05/01 Q1013 NOSIG
2026-03-22 22:20:00,METAR LSZH 222220Z VRB03KT 9999 FEW055 05/02 Q1013 NOSIG
2026-03-22 21:50:00,METAR LSZH 222150Z 35003KT 320V020 9999 SCT055 06/02 Q1013 NOSIG
2026-03-22 21:20:00,METAR LSZH 222120Z 36001KT 9999 FEW055 08/02 Q1013 NOSIG
2026-03-22 20:50:00,METAR LSZH 222050Z VRB01KT 9999 FEW055 SCT060 07/02 Q1012 NOSIG
2026-03-22 20:20:00,METAR LSZH 222020Z VRB01KT 9999 FEW055 SCT060 06/02 Q1012 NOSIG
2026-03-22 19:50:00,METAR LSZH 221950Z 31003KT 9999 FEW055 07/01 Q1012 NOSIG
2026-03-22 19:20:00,METAR LSZH 221920Z VRB01KT 9999 FEW055 08/02 Q1012 NOSIG
2026-03-22 18:50:00,METAR LSZH 221850Z 01003KT 9999 FEW055 11/01 Q1011 NOSIG
2026-03-22 18:20:00,METAR LSZH 221820Z VRB03KT 9999 FEW060 11/01 Q1011 NOSIG
2026-03-22 17:50:00,METAR LSZH 221750Z 05003KT 9999 FEW060 11/01 Q1011 NOSIG
2026-03-22 17:20:00,METAR LSZH 221720Z 08005KT 030V120 9999 FEW050 12/00 Q1011 NOSIG
2026-03-22 16:50:00,METAR LSZH 221650Z 04007KT 9999 FEW050 13/00 Q1010 NOSIG
2026-03-22 16:20:00,METAR LSZH 221620Z 07007KT 9999 FEW050 13/01 Q1010 NOSIG
2026-03-22 15:50:00,METAR LSZH 221550Z 06009KT 9999 FEW050 13/01 Q1010 NOSIG
2026-03-22 15:20:00,METAR LSZH 221520Z 05010KT 9999 FEW045 13/02 Q1010 NOSIG
2026-03-22 14:50:00,METAR LSZH 221450Z 06008KT 020V100 9999 FEW045 13/02 Q1010 NOSIG
2026-03-22 14:20:00,METAR LSZH 221420Z 06009KT 020V090 9999 FEW042 13/03 Q1010 NOSIG
2026-03-22 13:50:00,METAR LSZH 221350Z 01007KT 330V040 9999 FEW042 13/03 Q1010 NOSIG
2026-03-22 13:20:00,METAR LSZH 221320Z 04006KT 340V100 9999 FEW040 12/03 Q1010 NOSIG
2026-03-22 12:50:00,METAR LSZH 221250Z VRB04KT 9999 FEW035 12/04 Q1010 NOSIG
2026-03-22 12:20:00,METAR LSZH 221220Z 07005KT 360V150 9999 FEW035 10/02 Q1010 NOSIG
2026-03-22 11:50:00,METAR LSZH 221150Z 07004KT 360V130 CAVOK 10/04 Q1011 NOSIG
2026-03-22 11:20:00,METAR LSZH 221120Z 06006KT 340V110 CAVOK 09/03 Q1011 NOSIG
2026-03-22 10:50:00,METAR LSZH 221050Z 05007KT 010V100 9000 FEW022 08/02 Q1011 NOSIG
2026-03-22 10:20:00,METAR LSZH 221020Z 04008KT 350V090 9000 SCT018 08/03 Q1011 NOSIG
2026-03-22 09:50:00,METAR LSZH 220950Z 03007KT 340V080 7000 FEW014 BKN017 07/02 Q1011 NOSIG
2026-03-22 09:20:00,METAR LSZH 220920Z 04008KT 010V080 7000 FEW013 BKN015 06/02 Q1011 NOSIG
2026-03-22 08:50:00,METAR LSZH 220850Z 04007KT 360V090 7000 BKN014 05/02 Q1011 BECMG SCT014
2026-03-22 08:20:00,METAR LSZH 220820Z 06008KT 020V090 7000 BKN012 05/02 Q1011 BECMG SCT012
2026-03-22 07:50:00,METAR LSZH 220750Z 04006KT 360V090 6000 BKN012 05/02 Q1012 TEMPO 4000
2026-03-22 07:20:00,METAR LSZH 220720Z 03005KT 350V090 6000 BKN012 05/02 Q1011 TEMPO 4000
2026-03-22 06:50:00,METAR LSZH 220650Z 36005KT 330V040 6000 FEW011 BKN013 05/02 Q1011 TEMPO 4000
2026-03-22 06:20:00,METAR LSZH 220620Z 35004KT 310V040 6000 FEW010 BKN012 04/02 Q1011 TEMPO 4000
2026-03-22 05:50:00,METAR LSZH 220550Z 36003KT 290V080 5000 BR FEW010 BKN012 04/02 Q1011 TEMPO 4000
2026-03-22 05:20:00,METAR LSZH 220520Z 35005KT 7000 FEW010 BKN012 04/02 Q1011 TEMPO 4000 BR
2026-03-22 04:50:00,METAR LSZH 220450Z 36006KT 8000 FEW011 04/02 Q1010 NOSIG
2026-03-22 04:20:00,METAR LSZH 220420Z AUTO 35004KT 310V030 8000 BKN075 04/02 Q1010 NOSIG
2026-03-22 03:50:00,METAR LSZH 220350Z AUTO 35006KT 330V040 8000 BKN060 05/03 Q1010 NOSIG
2026-03-22 03:20:00,METAR LSZH 220320Z AUTO VRB02KT 8000 FEW012 BKN055 BKN065 04/03 Q1010 NOSIG
2026-03-22 02:50:00,METAR LSZH 220250Z AUTO 34005KT 300V010 9000 FEW055 05/03 Q1010 NOSIG
2026-03-22 02:20:00,METAR LSZH 220220Z AUTO 34005KT 9000 FEW070 04/03 Q1010 NOSIG
2026-03-22 01:50:00,METAR LSZH 220150Z AUTO 33005KT 9000 FEW060 03/03 Q1010 NOSIG
2026-03-22 01:20:00,METAR LSZH 220120Z AUTO 30005KT CAVOK 04/03 Q1010 NOSIG
2026-03-22 00:50:00,METAR LSZH 220050Z AUTO 28002KT 9999 NSC 04/02 Q1011 NOSIG
2026-03-22 00:20:00,METAR LSZH 220020Z AUTO VRB01KT 9999 FEW044 05/03 Q1011 NOSIG
2026-03-21 23:50:00,METAR LSZH 212350Z AUTO 35005KT 9999 FEW039 05/03 Q1011 NOSIG
2026-03-21 23:20:00,METAR LSZH 212320Z AUTO 34005KT 9999 FEW036 05/02 Q1011 NOSIG
2026-03-21 22:50:00,METAR LSZH 212250Z AUTO 01005KT 330V040 9999 FEW033 06/02 Q1011 NOSIG
2026-03-21 22:20:00,METAR LSZH 212220Z 11005KT 060V140 9999 SCT042 07/02 Q1012 NOSIG
2026-03-21 21:50:00,METAR LSZH 212150Z 30002KT 9999 FEW040 BKN070 06/02 Q1012 NOSIG
2026-03-21 21:20:00,METAR LSZH 212120Z VRB01KT 9999 FEW043 BKN070 07/02 Q1012 NOSIG
2026-03-21 20:50:00,METAR LSZH 212050Z VRB04KT 9999 FEW055 BKN070 07/02 Q1012 NOSIG
2026-03-21 20:20:00,METAR LSZH 212020Z VRB03KT 9999 FEW050 BKN075 07/02 Q1012 TEMPO SHRA
2026-03-21 19:50:00,METAR LSZH 211950Z 07013KT 9999 SCT050 BKN075 08/03 Q1012 TEMPO SHRA
2026-03-21 19:20:00,METAR LSZH 211920Z 06013KT 9999 FEW050 SCT060 08/02 Q1012 TEMPO SHRA
2026-03-21 18:50:00,METAR LSZH 211850Z 07012KT 9999 BKN055 09/02 Q1012 TEMPO SHRA
2026-03-21 18:20:00,METAR LSZH 211820Z 06009KT 9999 SCT060 10/02 Q1012 TEMPO SHRA
2026-03-21 17:50:00,METAR LSZH 211750Z 06008KT 040V100 9999 FEW060 10/01 Q1011 NOSIG
2026-03-21 17:20:00,METAR LSZH 211720Z 04008KT 010V080 9999 FEW060 10/02 Q1011 NOSIG
2026-03-21 16:50:00,METAR LSZH 211650Z 03009KT 9999 FEW040 11/02 Q1011 NOSIG
2026-03-21 16:20:00,METAR LSZH 211620Z 02010KT 9999 VCSH FEW050 SCT060 11/00 Q1011 NOSIG
2026-03-21 15:50:00,METAR LSZH 211550Z 02009KT 9999 VCSH FEW060 SCT075 12/M00 Q1011 NOSIG
2026-03-21 14:50:00,METAR LSZH 211450Z 06007KT 360V110 9999 VCSH FEW060 SCT070 13/M01 Q1011 NOSIG
2026-03-21 14:20:00,METAR LSZH 211420Z 09008KT 010V130 9999 FEW052 SCT065 13/M02 Q1011 NOSIG
2026-03-21 13:50:00,METAR LSZH 211350Z 08007KT 010V130 9999 FEW058 13/M00 Q1012 NOSIG
2026-03-21 13:20:00,METAR LSZH 211320Z 03009KT 9999 FEW058 13/M01 Q1012 NOSIG
2026-03-21 12:50:00,METAR LSZH 211250Z 07006KT 340V120 9999 FEW055 13/M00 Q1012 NOSIG
2026-03-21 12:20:00,METAR LSZH 211220Z 10006KT 060V130 9999 FEW055 13/00 Q1012 NOSIG
2026-03-21 11:50:00,METAR LSZH 211150Z 06010KT 9999 FEW055 13/M00 Q1013 NOSIG
2026-03-21 11:20:00,METAR LSZH 211120Z 09012KT 060V120 9999 FEW055 12/M01 Q1013 NOSIG
2026-03-21 10:50:00,METAR LSZH 211050Z 06009KT 020V100 9999 FEW055 12/M00 Q1013 NOSIG
2026-03-21 10:20:00,METAR LSZH 211020Z VRB05KT 9999 FEW046 11/M01 Q1013 NOSIG
2026-03-21 09:50:00,METAR LSZH 210950Z VRB02KT CAVOK 10/00 Q1014 NOSIG
2026-03-21 09:20:00,METAR LSZH 210920Z VRB02KT CAVOK 10/01 Q1014 NOSIG
2026-03-21 08:50:00,METAR LSZH 210850Z VRB03KT CAVOK 08/M00 Q1014 NOSIG
2026-03-21 08:20:00,METAR LSZH 210820Z 32003KT CAVOK 07/01 Q1014 NOSIG
2026-03-21 07:50:00,METAR LSZH 210750Z VRB02KT CAVOK 05/01 Q1014 NOSIG
2026-03-21 07:20:00,METAR LSZH 210720Z VRB01KT CAVOK 04/00 Q1014 NOSIG
2026-03-21 06:50:00,METAR LSZH 210650Z VRB01KT CAVOK 02/M00 Q1014 NOSIG
2026-03-21 06:20:00,METAR LSZH 210620Z 33002KT CAVOK 02/M01 Q1014 NOSIG
2026-03-21 05:50:00,METAR LSZH 210550Z VRB01KT CAVOK 01/M01 Q1014 NOSIG
2026-03-21 05:20:00,METAR LSZH 210520Z VRB01KT CAVOK 02/M01 Q1014 NOSIG
2026-03-21 04:50:00,METAR LSZH 210450Z VRB01KT CAVOK 02/M01 Q1014 NOSIG
2026-03-21 04:20:00,METAR LSZH 210420Z AUTO VRB01KT CAVOK 02/M01 Q1014 NOSIG
2026-03-21 03:50:00,METAR LSZH 210350Z AUTO VRB02KT CAVOK 01/M01 Q1014 NOSIG
2026-03-21 03:20:00,METAR LSZH 210320Z AUTO VRB01KT CAVOK 01/M01 Q1014 NOSIG
2026-03-21 02:50:00,METAR LSZH 210250Z AUTO VRB01KT CAVOK 01/M02 Q1014 NOSIG
2026-03-21 02:20:00,METAR LSZH 210220Z AUTO VRB01KT CAVOK 01/M02 Q1014 NOSIG
2026-03-21 01:50:00,METAR LSZH 210150Z AUTO VRB01KT CAVOK 01/M01 Q1014 NOSIG
2026-03-21 01:20:00,METAR LSZH 210120Z AUTO VRB01KT CAVOK 01/M01 Q1015 NOSIG
2026-03-21 00:50:00,METAR LSZH 210050Z AUTO VRB02KT CAVOK M00/M02 Q1015 NOSIG
2026-03-21 00:20:00,METAR LSZH 210020Z AUTO 36002KT CAVOK 02/M01 Q1015 NOSIG
2026-03-20 23:50:00,METAR LSZH 202350Z AUTO VRB01KT 9999 NSC 02/M02 Q1015 NOSIG
2026-03-20 23:20:00,METAR LSZH 202320Z AUTO VRB02KT CAVOK 02/M02 Q1015 NOSIG
2026-03-20 22:50:00,METAR LSZH 202250Z AUTO VRB02KT CAVOK 03/M02 Q1015 NOSIG
2026-03-20 22:20:00,METAR LSZH 202220Z 32005KT CAVOK 03/M02 Q1015 NOSIG
2026-03-20 21:50:00,METAR LSZH 202150Z 28004KT CAVOK 02/M02 Q1015 NOSIG
2026-03-20 21:20:00,METAR LSZH 202120Z VRB04KT CAVOK 06/M02 Q1016 NOSIG
2026-03-20 20:50:00,METAR LSZH 202050Z 06006KT CAVOK 08/M02 Q1016 NOSIG
2026-03-20 20:20:00,METAR LSZH 202020Z 06007KT CAVOK 09/M02 Q1016 NOSIG
2026-03-20 19:50:00,METAR LSZH 201950Z 07005KT CAVOK 08/M02 Q1016 NOSIG
2026-03-20 19:20:00,METAR LSZH 201920Z 07006KT 050V120 CAVOK 10/M03 Q1016 NOSIG
2026-03-20 18:50:00,METAR LSZH 201850Z 08006KT CAVOK 11/M03 Q1016 NOSIG
2026-03-20 18:20:00,METAR LSZH 201820Z 07006KT CAVOK 11/M03 Q1016 NOSIG
2026-03-20 17:50:00,METAR LSZH 201750Z 06005KT CAVOK 12/M03 Q1016 NOSIG
2026-03-20 17:20:00,METAR LSZH 201720Z 07006KT CAVOK 12/M04 Q1016 NOSIG
2026-03-20 16:50:00,METAR LSZH 201650Z 09007KT CAVOK 13/M03 Q1016 NOSIG
2026-03-20 16:20:00,METAR LSZH 201620Z 07006KT 040V130 CAVOK 13/M04 Q1016 NOSIG
2026-03-20 15:50:00,METAR LSZH 201550Z 07007KT 030V120 CAVOK 13/M03 Q1016 NOSIG
2026-03-20 15:20:00,METAR LSZH 201520Z 09007KT 010V120 CAVOK 13/M03 Q1016 NOSIG
2026-03-20 14:50:00,METAR LSZH 201450Z 07008KT 030V120 CAVOK 14/M04 Q1016 NOSIG
2026-03-20 14:20:00,METAR LSZH 201420Z 05009KT 360V080 CAVOK 13/M04 Q1017 NOSIG
2026-03-20 13:50:00,METAR LSZH 201350Z 04006KT 350V130 CAVOK 14/M04 Q1017 NOSIG
2026-03-20 13:20:00,METAR LSZH 201320Z 06008KT 020V120 CAVOK 13/M03 Q1017 NOSIG
2026-03-20 12:50:00,METAR LSZH 201250Z 05010KT 350V090 CAVOK 13/M04 Q1017 NOSIG
2026-03-20 12:20:00,METAR LSZH 201220Z 08010G20KT 030V110 CAVOK 13/M03 Q1018 NOSIG
2026-03-20 11:50:00,METAR LSZH 201150Z 06006KT 350V140 CAVOK 12/M02 Q1018 NOSIG
2026-03-20 11:20:00,METAR LSZH 201120Z 05008KT 020V110 CAVOK 11/M02 Q1018 NOSIG
2026-03-20 10:50:00,METAR LSZH 201050Z 05008KT 360V080 CAVOK 10/M01 Q1019 NOSIG
2026-03-20 10:20:00,METAR LSZH 201020Z VRB03KT CAVOK 10/M00 Q1019 NOSIG
2026-03-20 09:50:00,METAR LSZH 200950Z 01005KT 320V050 CAVOK 09/M01 Q1019 NOSIG
2026-03-20 09:20:00,METAR LSZH 200920Z VRB04KT CAVOK 09/M01 Q1019 NOSIG
2026-03-20 08:50:00,METAR LSZH 200850Z VRB01KT CAVOK 08/M01 Q1019 NOSIG
2026-03-20 08:20:00,METAR LSZH 200820Z 35003KT 300V040 CAVOK 06/M01 Q1019 NOSIG
2026-03-20 07:50:00,METAR LSZH 200750Z 02003KT 340V070 CAVOK 05/M01 Q1019 NOSIG
2026-03-20 07:20:00,METAR LSZH 200720Z 36004KT 320V040 CAVOK 04/M00 Q1019 NOSIG
2026-03-20 06:50:00,METAR LSZH 200650Z VRB03KT CAVOK 02/M02 Q1019 NOSIG
2026-03-20 06:20:00,METAR LSZH 200620Z 32004KT CAVOK M01/M03 Q1019 NOSIG
2026-03-20 05:50:00,METAR LSZH 200550Z 02002KT CAVOK M01/M03 Q1019 NOSIG
2026-03-20 05:20:00,METAR LSZH 200520Z VRB01KT CAVOK M01/M03 Q1019 NOSIG
2026-03-20 04:50:00,METAR LSZH 200450Z VRB02KT CAVOK M01/M03 Q1018 NOSIG
2026-03-20 04:20:00,METAR LSZH 200420Z AUTO VRB01KT CAVOK M01/M03 Q1018 NOSIG
2026-03-20 03:50:00,METAR LSZH 200350Z AUTO VRB01KT CAVOK M01/M03 Q1018 NOSIG
2026-03-20 03:20:00,METAR LSZH 200320Z AUTO VRB02KT CAVOK M00/M03 Q1018 NOSIG
2026-03-20 02:50:00,METAR LSZH 200250Z AUTO 03003KT CAVOK M00/M02 Q1018 NOSIG
2026-03-20 02:20:00,METAR LSZH 200220Z AUTO VRB02KT CAVOK 00/M02 Q1018 NOSIG
2026-03-20 01:50:00,METAR LSZH 200150Z AUTO VRB02KT CAVOK 02/M02 Q1018 NOSIG
2026-03-20 01:20:00,METAR LSZH 200120Z AUTO VRB06KT CAVOK 01/M02 Q1018 NOSIG
2026-03-20 00:50:00,METAR LSZH 200050Z AUTO 01007KT CAVOK 01/M02 Q1019 NOSIG
2026-03-20 00:20:00,METAR LSZH 200020Z AUTO VRB02KT CAVOK 03/M02 Q1019 NOSIG
2026-03-19 23:50:00,METAR LSZH 192350Z AUTO 02005KT 010V150 CAVOK 03/M01 Q1019 NOSIG
2026-03-19 23:20:00,METAR LSZH 192320Z AUTO 01005KT CAVOK 02/M02 Q1019 NOSIG
2026-03-19 22:50:00,METAR LSZH 192250Z AUTO 02005KT CAVOK 04/M02 Q1020 NOSIG
2026-03-19 22:20:00,METAR LSZH 192220Z 36004KT 270V030 CAVOK 03/M01 Q1020 NOSIG
2026-03-19 21:50:00,METAR LSZH 192150Z VRB01KT CAVOK 03/M01 Q1020 NOSIG
2026-03-19 21:20:00,METAR LSZH 192120Z VRB04KT CAVOK 06/M02 Q1020 NOSIG
2026-03-19 20:50:00,METAR LSZH 192050Z 36003KT CAVOK 05/M01 Q1020 NOSIG
2026-03-19 20:20:00,METAR LSZH 192020Z 05004KT 020V080 CAVOK 07/M01 Q1020 NOSIG
2026-03-19 19:50:00,METAR LSZH 191950Z 06005KT CAVOK 09/M01 Q1020 NOSIG
2026-03-19 19:20:00,METAR LSZH 191920Z 06006KT CAVOK 09/M00 Q1020 NOSIG
2026-03-19 18:50:00,METAR LSZH 191850Z 05005KT CAVOK 10/00 Q1020 NOSIG
2026-03-19 18:20:00,METAR LSZH 191820Z 05006KT CAVOK 11/00 Q1020 NOSIG
2026-03-19 17:50:00,METAR LSZH 191750Z 05005KT CAVOK 11/00 Q1020 NOSIG
2026-03-19 17:20:00,METAR LSZH 191720Z 07006KT CAVOK 12/M01 Q1019 NOSIG
2026-03-19 16:50:00,METAR LSZH 191650Z 08005KT CAVOK 13/M01 Q1019 NOSIG
2026-03-19 16:20:00,METAR LSZH 191620Z 05011KT 010V080 CAVOK 13/M02 Q1019 NOSIG
2026-03-19 15:50:00,METAR LSZH 191550Z 07009KT 030V090 CAVOK 13/M01 Q1019 NOSIG
2026-03-19 15:20:00,METAR LSZH 191520Z 05007KT 010V120 CAVOK 14/M01 Q1019 NOSIG
2026-03-19 14:50:00,METAR LSZH 191450Z 04010KT CAVOK 14/M00 Q1019 NOSIG
2026-03-19 14:20:00,METAR LSZH 191420Z 04007KT 020V090 CAVOK 13/00 Q1020 NOSIG
2026-03-19 13:50:00,METAR LSZH 191350Z 05009KT 360V100 CAVOK 13/01 Q1020 NOSIG
2026-03-19 13:20:00,METAR LSZH 191320Z 06009KT 020V090 CAVOK 12/01 Q1020 NOSIG
2026-03-19 12:50:00,METAR LSZH 191250Z VRB06KT CAVOK 12/01 Q1020 NOSIG
2026-03-19 12:20:00,METAR LSZH 191220Z 03007KT 350V090 CAVOK 12/02 Q1021 NOSIG
2026-03-19 11:50:00,METAR LSZH 191150Z 05005KT 010V140 CAVOK 10/02 Q1021 NOSIG
2026-03-19 11:20:00,METAR LSZH 191120Z 03005KT 330V090 9000 NSC 10/02 Q1021 NOSIG
2026-03-19 10:50:00,METAR LSZH 191050Z 05006KT 010V110 9000 NSC 09/02 Q1022 NOSIG
2026-03-19 10:20:00,METAR LSZH 191020Z 06008KT 8000 NSC 09/02 Q1022 NOSIG
2026-03-19 09:50:00,METAR LSZH 190950Z 07007KT 030V110 8000 NSC 08/01 Q1022 NOSIG
2026-03-19 09:20:00,METAR LSZH 190920Z 06006KT 360V100 8000 NSC 07/02 Q1022 NOSIG
2026-03-19 08:50:00,METAR LSZH 190850Z 06004KT 360V090 8000 NSC 07/02 Q1022 NOSIG
2026-03-19 08:20:00,METAR LSZH 190820Z 04004KT 360V090 8000 NSC 06/02 Q1022 NOSIG
2026-03-19 07:50:00,METAR LSZH 190750Z 03004KT 360V070 8000 NSC 06/02 Q1022 NOSIG
2026-03-19 07:20:00,METAR LSZH 190720Z VRB03KT 6000 NSC 05/01 Q1022 NOSIG
2026-03-19 06:50:00,METAR LSZH 190650Z VRB02KT 5000 BR NSC 03/01 Q1022 TEMPO 4000 MIFG
2026-03-19 06:20:00,METAR LSZH 190620Z 33003KT 5000 BR NSC 00/M00 Q1022 TEMPO 4000 MIFG
2026-03-19 05:50:00,METAR LSZH 190550Z VRB03KT 6000 NSC M00/M01 Q1021 TEMPO 4000 MIFG
2026-03-19 05:20:00,METAR LSZH 190520Z VRB03KT 7000 NSC 00/M01 Q1021 NOSIG
2026-03-19 04:50:00,METAR LSZH 190450Z 03003KT 8000 NSC M01/M02 Q1021 NOSIG
2026-03-19 04:20:00,METAR LSZH 190420Z AUTO 35002KT 8000 NCD 01/M00 Q1021 NOSIG
2026-03-19 03:50:00,METAR LSZH 190350Z AUTO VRB01KT 9000 NCD 00/M01 Q1021 NOSIG
2026-03-19 03:20:00,METAR LSZH 190320Z AUTO 34003KT CAVOK 01/M01 Q1020 NOSIG
2026-03-19 02:50:00,METAR LSZH 190250Z AUTO 32005KT CAVOK 01/M01 Q1020 NOSIG
2026-03-19 02:20:00,METAR LSZH 190220Z AUTO 35004KT CAVOK 05/01 Q1020 NOSIG
2026-03-19 01:50:00,METAR LSZH 190150Z AUTO 34004KT CAVOK 04/01 Q1020 NOSIG
2026-03-19 01:20:00,METAR LSZH 190120Z AUTO 01004KT 330V060 CAVOK 04/00 Q1020 NOSIG
2026-03-19 00:50:00,METAR LSZH 190050Z AUTO 03003KT 330V100 CAVOK 03/M01 Q1020 NOSIG
2026-03-19 00:20:00,METAR LSZH 190020Z AUTO VRB02KT CAVOK 04/M00 Q1020 NOSIG
2026-03-18 23:50:00,METAR LSZH 182350Z AUTO VRB03KT CAVOK 05/00 Q1020 NOSIG
2026-03-18 23:20:00,METAR LSZH 182320Z AUTO VRB03KT CAVOK 05/01 Q1020 NOSIG
2026-03-18 22:50:00,METAR LSZH 182250Z AUTO 01003KT 300V070 CAVOK 06/01 Q1020 NOSIG
2026-03-18 22:20:00,METAR LSZH 182220Z VRB03KT CAVOK 06/01 Q1020 NOSIG
2026-03-18 21:50:00,METAR LSZH 182150Z VRB01KT CAVOK 07/01 Q1020 NOSIG
2026-03-18 21:20:00,METAR LSZH 182120Z VRB05KT CAVOK 07/01 Q1020 NOSIG
2026-03-18 20:50:00,METAR LSZH 182050Z VRB04KT CAVOK 05/01 Q1020 NOSIG
2026-03-18 20:20:00,METAR LSZH 182020Z 05006KT CAVOK 07/01 Q1020 NOSIG
2026-03-18 19:50:00,METAR LSZH 181950Z 05009KT 020V090 CAVOK 08/01 Q1020 NOSIG
2026-03-18 19:20:00,METAR LSZH 181920Z 06008KT CAVOK 08/01 Q1020 NOSIG
2026-03-18 18:50:00,METAR LSZH 181850Z 07009KT CAVOK 08/01 Q1020 NOSIG
2026-03-18 18:20:00,METAR LSZH 181820Z 08008KT 030V120 CAVOK 08/01 Q1019 NOSIG
2026-03-18 17:50:00,METAR LSZH 181750Z 07009KT 030V120 CAVOK 09/01 Q1019 NOSIG
2026-03-18 17:20:00,METAR LSZH 181720Z 08008KT 040V140 CAVOK 09/01 Q1019 NOSIG
2026-03-18 16:50:00,METAR LSZH 181650Z 06011KT 030V100 CAVOK 10/00 Q1019 NOSIG
2026-03-18 16:20:00,METAR LSZH 181620Z 05012KT 010V110 CAVOK 10/M00 Q1019 NOSIG
2026-03-18 15:50:00,METAR LSZH 181550Z 06015G26KT CAVOK 11/M00 Q1018 NOSIG
2026-03-18 15:20:00,METAR LSZH 181520Z 05017KT CAVOK 11/00 Q1018 NOSIG
2026-03-18 14:50:00,METAR LSZH 181450Z 06020KT CAVOK 10/00 Q1018 NOSIG
2026-03-18 14:20:00,METAR LSZH 181420Z 05019G30KT CAVOK 10/01 Q1018 NOSIG
2026-03-18 13:50:00,METAR LSZH 181350Z 05020G31KT CAVOK 10/00 Q1017 NOSIG
2026-03-18 13:20:00,METAR LSZH 181320Z 05020KT 020V080 CAVOK 11/00 Q1017 NOSIG
2026-03-18 12:50:00,METAR LSZH 181250Z 06019KT CAVOK 11/00 Q1018 NOSIG
2026-03-18 12:20:00,METAR LSZH 181220Z 05022G32KT CAVOK 11/M00 Q1018 NOSIG
2026-03-18 11:50:00,METAR LSZH 181150Z 06017KT CAVOK 10/M02 Q1018 NOSIG
2026-03-18 11:20:00,METAR LSZH 181120Z 04019G30KT CAVOK 10/M02 Q1018 NOSIG
2026-03-18 10:50:00,METAR LSZH 181050Z 04019KT CAVOK 10/M02 Q1018 NOSIG
2026-03-18 10:20:00,METAR LSZH 181020Z 06017G27KT 020V090 9999 FEW035 08/M03 Q1018 NOSIG
2026-03-18 09:50:00,METAR LSZH 180950Z 05018G32KT 020V100 CAVOK 08/M03 Q1018 NOSIG
2026-03-18 09:20:00,METAR LSZH 180920Z 05019G30KT CAVOK 07/M03 Q1018 NOSIG
2026-03-18 08:50:00,METAR LSZH 180850Z 06015KT 040V100 CAVOK 06/M02 Q1018 NOSIG
2026-03-18 08:20:00,METAR LSZH 180820Z 06015KT 030V100 CAVOK 05/M02 Q1018 NOSIG
2026-03-18 07:50:00,METAR LSZH 180750Z 07013KT 030V100 CAVOK 05/M03 Q1019 NOSIG
2026-03-18 07:20:00,METAR LSZH 180720Z 06013KT 030V090 CAVOK 04/M03 Q1019 NOSIG
2026-03-18 06:50:00,METAR LSZH 180650Z 06014KT CAVOK 04/M03 Q1019 NOSIG
2026-03-18 06:20:00,METAR LSZH 180620Z 05012KT CAVOK 03/M03 Q1018 NOSIG
2026-03-18 05:50:00,METAR LSZH 180550Z 05011KT CAVOK 03/M04 Q1018 NOSIG
2026-03-18 05:20:00,METAR LSZH 180520Z 06010KT CAVOK 03/M03 Q1018 NOSIG
2026-03-18 04:50:00,METAR LSZH 180450Z 06008KT 030V090 CAVOK 03/M03 Q1018 NOSIG
2026-03-18 04:20:00,METAR LSZH 180420Z AUTO VRB02KT CAVOK 02/M03 Q1019 NOSIG
2026-03-18 03:50:00,METAR LSZH 180350Z AUTO 36004KT 330V070 CAVOK 02/M02 Q1019 NOSIG
2026-03-18 03:20:00,METAR LSZH 180320Z AUTO 01005KT CAVOK 03/M02 Q1019 BECMG 04014KT
2026-03-18 02:50:00,METAR LSZH 180250Z AUTO 03004KT 330V070 CAVOK 03/M03 Q1019 NOSIG
2026-03-18 02:20:00,METAR LSZH 180220Z AUTO 06005KT 340V110 CAVOK 03/M01 Q1019 NOSIG
2026-03-18 01:50:00,METAR LSZH 180150Z AUTO 33004KT 300V030 CAVOK 02/M01 Q1019 NOSIG
2026-03-18 01:20:00,METAR LSZH 180120Z AUTO 33005KT 290V030 CAVOK 02/M00 Q1019 NOSIG
2026-03-18 00:50:00,METAR LSZH 180050Z AUTO 02005KT 340V060 9999 NCD 05/01 Q1019 NOSIG
2026-03-18 00:20:00,METAR LSZH 180020Z AUTO 35006KT 320V040 CAVOK 03/01 Q1019 NOSIG
2026-03-17 23:50:00,METAR LSZH 172350Z AUTO 01007KT 9999 NSC 04/02 Q1019 NOSIG
2026-03-17 23:20:00,METAR LSZH 172320Z AUTO 34005KT CAVOK 03/02 Q1019 NOSIG
2026-03-17 22:50:00,METAR LSZH 172250Z AUTO 30003KT 260V320 CAVOK 04/02 Q1019 NOSIG
2026-03-17 22:20:00,METAR LSZH 172220Z 35004KT 310V060 CAVOK 06/02 Q1020 NOSIG
2026-03-17 21:50:00,METAR LSZH 172150Z VRB02KT CAVOK 05/02 Q1020 NOSIG
2026-03-17 21:20:00,METAR LSZH 172120Z VRB03KT CAVOK 06/03 Q1020 NOSIG
2026-03-17 20:50:00,METAR LSZH 172050Z 35003KT 290V070 CAVOK 07/03 Q1020 NOSIG
2026-03-17 20:20:00,METAR LSZH 172020Z 34003KT 300V020 CAVOK 07/02 Q1020 NOSIG
2026-03-17 19:50:00,METAR LSZH 171950Z VRB03KT CAVOK 08/03 Q1020 NOSIG
2026-03-17 19:20:00,METAR LSZH 171920Z VRB02KT CAVOK 08/02 Q1020 NOSIG
2026-03-17 18:50:00,METAR LSZH 171850Z VRB01KT CAVOK 08/02 Q1020 NOSIG
2026-03-17 18:20:00,METAR LSZH 171820Z 08006KT 9999 FEW030 09/02 Q1020 NOSIG
2026-03-17 17:50:00,METAR LSZH 171750Z 07006KT 9999 FEW030 09/02 Q1020 NOSIG
2026-03-17 17:20:00,METAR LSZH 171720Z 07006KT 040V100 CAVOK 10/02 Q1020 NOSIG
2026-03-17 16:50:00,METAR LSZH 171650Z 07009KT 9999 FEW050 10/02 Q1020 NOSIG
2026-03-17 16:20:00,METAR LSZH 171620Z 06010KT 9999 FEW050 10/02 Q1019 NOSIG
2026-03-17 15:50:00,METAR LSZH 171550Z 04010KT 9999 FEW050 12/02 Q1019 NOSIG
2026-03-17 15:20:00,METAR LSZH 171520Z 07009KT 030V110 9999 FEW050 12/02 Q1019 NOSIG
2026-03-17 14:50:00,METAR LSZH 171450Z 05008KT 350V080 9999 FEW050 13/02 Q1019 NOSIG
2026-03-17 14:20:00,METAR LSZH 171420Z 05007KT 010V100 9999 SCT050 13/01 Q1020 NOSIG
2026-03-17 13:50:00,METAR LSZH 171350Z 06005KT 010V120 9999 FEW047 SCT060 13/01 Q1020 NOSIG
2026-03-17 13:20:00,METAR LSZH 171320Z 36005KT 330V080 9999 FEW060 13/01 Q1020 NOSIG
2026-03-17 12:50:00,METAR LSZH 171250Z VRB03KT 9999 FEW055 SCT065 12/02 Q1021 NOSIG
2026-03-17 12:20:00,METAR LSZH 171220Z 06006KT 030V120 9999 FEW065 BKN070 11/02 Q1021 NOSIG
2026-03-17 11:50:00,METAR LSZH 171150Z 05007KT 010V100 9999 BKN070 11/01 Q1021 NOSIG
2026-03-17 11:20:00,METAR LSZH 171120Z VRB03KT 9999 FEW060 SCT070 11/02 Q1021 NOSIG
2026-03-17 10:50:00,METAR LSZH 171050Z 09004KT 050V150 9999 BKN070 10/03 Q1022 NOSIG
2026-03-17 10:20:00,METAR LSZH 171020Z 35006KT 320V030 9999 BKN070 10/03 Q1022 NOSIG
2026-03-17 09:50:00,METAR LSZH 170950Z VRB02KT 9999 BKN070 09/03 Q1022 NOSIG
2026-03-17 09:20:00,METAR LSZH 170920Z VRB02KT 9999 BKN068 08/03 Q1022 NOSIG
2026-03-17 08:50:00,METAR LSZH 170850Z 14003KT 100V200 9999 BKN068 07/03 Q1022 NOSIG
2026-03-17 08:20:00,METAR LSZH 170820Z VRB01KT 9999 BKN068 07/03 Q1022 NOSIG
2026-03-17 07:50:00,METAR LSZH 170750Z VRB02KT 9999 BKN070 05/03 Q1022 NOSIG
2026-03-17 07:20:00,METAR LSZH 170720Z 31002KT 9999 BKN070 05/03 Q1022 NOSIG
2026-03-17 06:50:00,METAR LSZH 170650Z 27002KT 9999 BKN073 04/03 Q1022 NOSIG
2026-03-17 06:20:00,METAR LSZH 170620Z 01002KT 9999 BKN073 03/02 Q1022 NOSIG
2026-03-17 05:50:00,METAR LSZH 170550Z 33004KT 9999 BKN070 02/02 Q1022 NOSIG
2026-03-17 05:20:00,METAR LSZH 170520Z VRB01KT 9999 BKN070 03/02 Q1022 NOSIG
2026-03-17 04:50:00,METAR LSZH 170450Z VRB01KT 9999 BKN072 03/02 Q1022 NOSIG
2026-03-17 04:20:00,METAR LSZH 170420Z AUTO 35002KT 9999 BKN070 03/02 Q1022 NOSIG
2026-03-17 03:50:00,METAR LSZH 170350Z AUTO 00000KT 9999 BKN070 03/02 Q1022 NOSIG
2026-03-17 03:20:00,METAR LSZH 170320Z AUTO VRB02KT 9999 BKN070 03/02 Q1022 NOSIG
2026-03-17 02:50:00,METAR LSZH 170250Z AUTO 15002KT 9999 BKN070 04/02 Q1022 NOSIG
2026-03-17 02:20:00,METAR LSZH 170220Z AUTO 17004KT 9999 BKN070 03/02 Q1023 NOSIG
2026-03-17 01:50:00,METAR LSZH 170150Z AUTO 17002KT 9999 OVC070 03/02 Q1023 NOSIG
2026-03-17 01:20:00,METAR LSZH 170120Z AUTO 18004KT 9999 OVC075 03/02 Q1023 NOSIG
2026-03-17 00:50:00,METAR LSZH 170050Z AUTO 15003KT 9999 OVC075 03/01 Q1023 NOSIG
2026-03-17 00:20:00,METAR LSZH 170020Z AUTO VRB02KT 9999 BKN075 03/01 Q1023 NOSIG
2026-03-16 23:50:00,METAR LSZH 162350Z AUTO VRB02KT 9999 BKN075 03/01 Q1023 NOSIG
2026-03-16 23:20:00,METAR LSZH 162320Z AUTO VRB01KT 9999 FEW048 03/01 Q1024 NOSIG
2026-03-16 22:50:00,METAR LSZH 162250Z AUTO 16003KT 9999 FEW028 03/01 Q1024 NOSIG
2026-03-16 22:20:00,METAR LSZH 162220Z 15003KT 9999 FEW070 04/01 Q1024 NOSIG
2026-03-16 21:50:00,METAR LSZH 162150Z VRB01KT 9999 FEW060 03/02 Q1024 NOSIG
2026-03-16 21:20:00,METAR LSZH 162120Z VRB02KT 9999 FEW045 03/01 Q1024 NOSIG
2026-03-16 20:50:00,METAR LSZH 162050Z VRB02KT 9999 FEW027 SCT065 04/01 Q1024 NOSIG
2026-03-16 20:20:00,METAR LSZH 162020Z VRB01KT 9999 FEW050 SCT065 04/01 Q1024 NOSIG
2026-03-16 19:50:00,METAR LSZH 161950Z VRB01KT 9999 FEW030 SCT060 06/02 Q1023 NOSIG
2026-03-16 19:20:00,METAR LSZH 161920Z VRB02KT 9999 FEW045 SCT060 05/02 Q1023 NOSIG
2026-03-16 18:50:00,METAR LSZH 161850Z 20005KT 9999 FEW045 SCT060 06/02 Q1023 NOSIG
2026-03-16 18:20:00,METAR LSZH 161820Z 24006KT 9999 FEW040 SCT060 06/02 Q1022 NOSIG
2026-03-16 17:50:00,METAR LSZH 161750Z 26005KT 9999 FEW040 BKN060 07/02 Q1022 NOSIG
2026-03-16 17:20:00,METAR LSZH 161720Z 24006KT 9999 FEW040 BKN060 06/02 Q1021 NOSIG
2026-03-16 16:50:00,METAR LSZH 161650Z 28005KT 9999 FEW025 SCT040 BKN055 07/02 Q1021 NOSIG
2026-03-16 16:20:00,METAR LSZH 161620Z 28009KT 9999 VCSH FEW020 SCT035 BKN050 07/02 Q1021 NOSIG
2026-03-16 15:50:00,METAR LSZH 161550Z 29009KT 260V320 9999 FEW020 SCT025 BKN045 07/02 Q1021 NOSIG
2026-03-16 15:20:00,METAR LSZH 161520Z 30014KT 9999 VCSH FEW020 SCT025 BKN035 07/02 Q1021 NOSIG
2026-03-16 14:50:00,METAR LSZH 161450Z 31006KT 9999 VCSH FEW025 SCT035 BKN045 07/02 Q1021 NOSIG
2026-03-16 14:20:00,METAR LSZH 161420Z 31007KT 260V330 9999 FEW025 SCT040 BKN050 08/02 Q1020 NOSIG
2026-03-16 13:50:00,METAR LSZH 161350Z 28007KT 9999 FEW030 SCT040 BKN050 08/01 Q1020 NOSIG
2026-03-16 13:20:00,METAR LSZH 161320Z 25010KT 230V300 9999 FEW030 SCT038 BKN045 08/01 Q1020 NOSIG
2026-03-16 12:50:00,METAR LSZH 161250Z 25009KT 220V280 9999 FEW030 BKN035 BKN045 08/01 Q1020 NOSIG
2026-03-16 12:20:00,METAR LSZH 161220Z 26011KT 9999 FEW030 SCT038 BKN045 08/00 Q1020 NOSIG
2026-03-16 11:50:00,METAR LSZH 161150Z 25013KT 9999 FEW033 SCT038 BKN045 08/M00 Q1020 NOSIG
2026-03-16 11:20:00,METAR LSZH 161120Z 25010KT 9999 SCT035 BKN050 07/M00 Q1020 NOSIG
2026-03-16 10:50:00,METAR LSZH 161050Z 25010KT 9999 FEW033 SCT038 BKN050 08/M00 Q1020 NOSIG
2026-03-16 10:20:00,METAR LSZH 161020Z 25011KT 210V270 9999 SCT032 BKN038 07/M01 Q1020 NOSIG
2026-03-16 09:50:00,METAR LSZH 160950Z 23012KT 9999 SCT033 BKN038 06/M01 Q1020 NOSIG
2026-03-16 09:20:00,METAR LSZH 160920Z 23010KT 9999 SCT035 BKN040 06/M00 Q1020 NOSIG
2026-03-16 08:50:00,METAR LSZH 160850Z 24008KT 9999 SCT040 BKN045 06/M00 Q1021 NOSIG
2026-03-16 08:20:00,METAR LSZH 160820Z 23011KT 200V270 9999 SCT040 BKN050 05/M00 Q1020 NOSIG
2026-03-16 07:50:00,METAR LSZH 160750Z 23009KT 9999 SCT040 BKN050 05/00 Q1020 NOSIG
2026-03-16 07:20:00,METAR LSZH 160720Z 23009KT 9999 SCT040 SCT065 04/00 Q1020 NOSIG
2026-03-16 06:50:00,METAR LSZH 160650Z 21007KT 170V230 9999 FEW042 03/00 Q1020 NOSIG
2026-03-16 06:20:00,METAR LSZH 160620Z 18006KT CAVOK 02/M00 Q1020 NOSIG
2026-03-16 05:50:00,METAR LSZH 160550Z 19006KT CAVOK 01/M00 Q1019 NOSIG
2026-03-16 05:20:00,METAR LSZH 160520Z 18006KT CAVOK 00/M01 Q1019 TEMPO 4500 BR
2026-03-16 04:50:00,METAR LSZH 160450Z VRB03KT CAVOK 02/M00 Q1019 TEMPO 4500 BR
2026-03-16 04:20:00,METAR LSZH 160420Z AUTO VRB02KT CAVOK 02/00 Q1019 TEMPO 4500 BR
2026-03-16 03:50:00,METAR LSZH 160350Z AUTO 27003KT 200V010 CAVOK 01/M00 Q1019 TEMPO 4500 BR
2026-03-16 03:20:00,METAR LSZH 160320Z AUTO 21002KT 9999 NCD 00/M01 Q1018 NOSIG
2026-03-16 02:50:00,METAR LSZH 160250Z AUTO VRB02KT 9999 NSC 01/M00 Q1017 NOSIG
2026-03-16 02:20:00,METAR LSZH 160220Z AUTO 26004KT 9999 NCD 02/00 Q1018 NOSIG
2026-03-16 01:50:00,METAR LSZH 160150Z AUTO 18004KT 9999 NSC 02/01 Q1018 NOSIG
2026-03-16 01:20:00,METAR LSZH 160120Z AUTO 20005KT 9999 FEW044 03/01 Q1018 BECMG CAVOK
2026-03-16 00:50:00,METAR LSZH 160050Z AUTO 25005KT 9999 FEW032 BKN045 03/01 Q1019 BECMG CAVOK
2026-03-16 00:20:00,METAR LSZH 160020Z AUTO VRB02KT 9999 BKN045 04/01 Q1018 BECMG CAVOK
2026-03-15 23:50:00,METAR LSZH 152350Z AUTO VRB02KT 9999 BKN045 05/01 Q1019 BECMG CAVOK
2026-03-15 23:20:00,METAR LSZH 152320Z AUTO 20003KT 9999 FEW043 05/01 Q1018 BECMG CAVOK
2026-03-15 22:50:00,METAR LSZH 152250Z AUTO 20004KT 9999 FEW039 BKN044 05/01 Q1018 BECMG CAVOK
2026-03-15 22:20:00,METAR LSZH 152220Z 19004KT 110V230 9999 FEW035 BKN040 05/00 Q1018 NOSIG
2026-03-15 21:50:00,METAR LSZH 152150Z 24004KT 9999 FEW035 BKN040 04/01 Q1018 NOSIG
2026-03-15 21:20:00,METAR LSZH 152120Z VRB01KT 9999 FEW030 BKN035 05/00 Q1018 NOSIG
2026-03-15 20:50:00,METAR LSZH 152050Z 31004KT 9999 FEW030 BKN035 05/01 Q1018 NOSIG
2026-03-15 20:20:00,METAR LSZH 152020Z 01003KT 300V050 9999 FEW030 BKN035 05/M01 Q1018 NOSIG
2026-03-15 19:50:00,METAR LSZH 151950Z 34004KT 9999 FEW030 BKN035 05/00 Q1018 NOSIG
2026-03-15 19:20:00,METAR LSZH 151920Z 33006KT 9999 FEW030 BKN035 05/00 Q1018 NOSIG
2026-03-15 18:50:00,METAR LSZH 151850Z VRB02KT 9999 FEW030 BKN040 05/01 Q1017 NOSIG
2026-03-15 18:20:00,METAR LSZH 151820Z 27002KT 9999 FEW030 BKN040 05/01 Q1017 NOSIG
2026-03-15 17:50:00,METAR LSZH 151750Z 30004KT 9999 FEW030 BKN040 05/01 Q1017 NOSIG
2026-03-15 17:20:00,METAR LSZH 151720Z 33004KT 9999 FEW020 BKN035 06/M00 Q1016 NOSIG
2026-03-15 16:50:00,METAR LSZH 151650Z 31004KT 9999 FEW020 BKN035 06/01 Q1016 NOSIG
2026-03-15 16:20:00,METAR LSZH 151620Z 32004KT 9999 FEW020 BKN035 06/01 Q1016 NOSIG
2026-03-15 15:50:00,METAR LSZH 151550Z 35003KT 9999 FEW020 BKN035 06/M00 Q1015 NOSIG
2026-03-15 15:20:00,METAR LSZH 151520Z 36005KT 320V050 9999 FEW020 BKN040 06/M00 Q1015 NOSIG
2026-03-15 14:50:00,METAR LSZH 151450Z 02005KT 350V060 9999 FEW020 BKN040 06/M01 Q1015 NOSIG
2026-03-15 14:20:00,METAR LSZH 151420Z 01005KT 9999 FEW020 BKN045 06/M01 Q1015 NOSIG
2026-03-15 13:50:00,METAR LSZH 151350Z 04006KT 360V070 9999 FEW020 SCT030 BKN040 07/M00 Q1014 NOSIG
2026-03-15 13:20:00,METAR LSZH 151320Z 03007KT 9999 FEW027 BKN042 06/M00 Q1014 NOSIG
2026-03-15 12:50:00,METAR LSZH 151250Z 03007KT 9999 FEW026 BKN042 06/M00 Q1014 NOSIG
2026-03-15 12:20:00,METAR LSZH 151220Z 02008KT 340V060 9999 FEW026 BKN038 06/M00 Q1014 NOSIG
2026-03-15 11:50:00,METAR LSZH 151150Z 03006KT 340V080 9999 FEW023 SCT030 BKN035 07/M00 Q1014 NOSIG
2026-03-15 11:20:00,METAR LSZH 151120Z 03007KT 350V060 9999 FEW023 BKN032 06/M00 Q1014 NOSIG
2026-03-15 10:50:00,METAR LSZH 151050Z 04010KT 9999 FEW019 SCT023 BKN034 06/00 Q1014 NOSIG
2026-03-15 10:20:00,METAR LSZH 151020Z 04009KT 350V070 9999 FEW017 SCT022 BKN033 06/00 Q1014 NOSIG
2026-03-15 09:50:00,METAR LSZH 150950Z 02008KT 350V060 9000 FEW015 SCT020 BKN032 05/01 Q1014 NOSIG
2026-03-15 09:20:00,METAR LSZH 150920Z 07005KT 010V110 9000 FEW015 SCT020 BKN030 06/02 Q1014 NOSIG
2026-03-15 08:50:00,METAR LSZH 150850Z 03004KT 360V060 8000 FEW010 SCT015 BKN034 05/02 Q1014 NOSIG
2026-03-15 08:20:00,METAR LSZH 150820Z 36005KT 7000 FEW009 SCT015 BKN034 04/02 Q1013 NOSIG
