Time_recorded,METAR
2026-04-30 14:53:00,METAR KMSY 301453Z 02007G15KT 10SM OVC012 24/22 A2989 RMK AO2 SLP125 T02390217 51017
2026-04-30 14:36:00,SPECI KMSY 301436Z 01007KT 10SM BKN012 BKN030 OVC190 25/22 A2989 RMK AO2 T02500222
2026-04-30 14:23:00,SPECI KMSY 301423Z 30004KT 10SM SCT012 BKN029 OVC190 25/23 A2989 RMK AO2 T02500228
2026-04-30 13:53:00,METAR KMSY 301353Z 30004KT 10SM FEW020 FEW100 BKN190 OVC250 25/23 A2988 RMK AO2 SLP122 T02500228
2026-04-30 12:53:00,METAR KMSY 301253Z 32004KT 10SM FEW020 FEW075 BKN095 OVC250 24/22 A2988 RMK AO2 SLP120 T02390222
2026-04-30 11:53:00,METAR KMSY 301153Z 19004KT 10SM FEW080 BKN100 BKN250 23/22 A2984 RMK AO2 SLP108 60001 70002 T02330217 10233 20217 53003
2026-04-30 10:53:00,METAR KMSY 301053Z 19009KT 10SM BKN100 23/22 A2983 RMK AO2 SLP103 T02330217
2026-04-30 09:53:00,METAR KMSY 300953Z 18007KT 10SM FEW030 BKN110 BKN170 22/21 A2982 RMK AO2 RAE0858 SLP101 P0000 T02220206
2026-04-30 08:53:00,METAR KMSY 300853Z 14007KT 10SM -RA FEW048 BKN100 OVC160 22/20 A2983 RMK AO2 RAB37 SLP105 P0001 60001 T02170200 58030
2026-04-30 07:53:00,METAR KMSY 300753Z 19004KT 10SM FEW020 SCT110 OVC130 22/20 A2990 RMK AO2 SLP129 OCNL LTGIC DSNT NW CB DSNT NW T02170200
2026-04-30 06:53:00,METAR KMSY 300653Z 09008KT 10SM FEW040 SCT110 BKN120 OVC180 22/19 A2989 RMK AO2 RAB39E50 PRESFR SLP124 P0000 T02170194
2026-04-30 05:53:00,METAR KMSY 300553Z 09009KT 10SM SCT032 BKN130 OVC160 22/19 A2992 RMK AO2 SLP135 60001 T02170189 10267 20217 403000217 58001
2026-04-30 04:53:00,METAR KMSY 300453Z 07011KT 10SM SCT040 BKN130 OVC180 22/19 A2994 RMK AO2 RAE29 SLP143 P0000 T02220194
2026-04-30 03:53:00,METAR KMSY 300353Z 07007G20KT 10SM -RA OVC031 22/20 A2997 RMK AO2 LTG DSNT N RAB21 SLP150 P0001 T02220200
2026-04-30 02:53:00,METAR KMSY 300253Z 06010KT 10SM BKN022 OVC027 24/20 A2993 RMK AO2 SLP137 T02440200 53022
2026-04-30 02:34:00,SPECI KMSY 300234Z 06011KT 10SM SCT020 BKN027 BKN037 OVC200 24/19 A2992 RMK AO2 T02390194
2026-04-30 01:53:00,METAR KMSY 300153Z 19007KT 10SM FEW045 BKN130 BKN160 OVC250 26/21 A2990 RMK AO2 SLP129 T02560211
2026-04-30 00:53:00,METAR KMSY 300053Z 19007KT 10SM FEW040 BKN130 OVC190 26/21 A2987 RMK AO2 SLP119 CB DSNT NE T02560211
2026-04-29 23:53:00,METAR KMSY 292353Z 18008KT 10SM FEW040 BKN130 BKN250 27/21 A2986 RMK AO2 SLP115 CB DSNT NW-NE T02670211 10300 20267 53004
2026-04-29 22:53:00,METAR KMSY 292253Z 18010KT 10SM FEW035 FEW045 BKN130 BKN250 27/21 A2984 RMK AO2 SLP108 CB DSNT NW-NE T02720211
2026-04-29 21:53:00,METAR KMSY 292153Z 17013G19KT 10SM FEW035 FEW045 FEW140 BKN250 29/21 A2983 RMK AO2 SLP104 T02940211
2026-04-29 20:53:00,METAR KMSY 292053Z 17014G23KT 10SM SCT040 SCT110 BKN250 29/21 A2985 RMK AO2 SLP111 T02940211 58034
2026-04-29 19:53:00,METAR KMSY 291953Z 16011G17KT 10SM SCT040 SCT110 SCT250 30/21 A2989 RMK AO2 SLP125 T03000211
2026-04-29 18:53:00,METAR KMSY 291853Z 18008KT 10SM SCT040 BKN250 30/21 A2992 RMK AO2 SLP134 T03000211
2026-04-29 17:53:00,METAR KMSY 291753Z 15007KT 10SM BKN040 BKN250 29/21 A2995 RMK AO2 SLP145 T02890206 10294 20222 58012
2026-04-29 16:53:00,METAR KMSY 291653Z 18005KT 10SM BKN034 BKN250 28/21 A2997 RMK AO2 SLP153 T02830206
2026-04-29 15:53:00,METAR KMSY 291553Z 20008KT 10SM SCT025 BKN150 BKN250 28/21 A2998 RMK AO2 SLP157 T02780206
2026-04-29 15:28:00,SPECI KMSY 291528Z 17007KT 10SM SCT025 BKN250 27/21 A2998 RMK AO2 T02720211
2026-04-29 14:53:00,METAR KMSY 291453Z 24008KT 10SM BKN023 BKN028 BKN250 27/21 A2999 RMK AO2 SLP157 T02670211 53001
2026-04-29 14:50:00,SPECI KMSY 291450Z 24007KT 10SM BKN023 BKN028 BKN250 27/21 A2999 RMK AO2
2026-04-29 13:53:00,METAR KMSY 291353Z 18005KT 10SM FEW025 SCT250 26/22 A2998 RMK AO2 SLP153 T02560217
2026-04-29 12:53:00,METAR KMSY 291253Z 21005KT 10SM FEW022 FEW130 SCT250 24/22 A2998 RMK AO2 SLP156 T02440217
2026-04-29 11:53:00,METAR KMSY 291153Z 00000KT 10SM SCT021 BKN230 23/21 A2996 RMK AO2 SLP147 T02330211 10233 20222 53007
2026-04-29 11:35:00,SPECI KMSY 291135Z 00000KT 10SM SCT020 BKN230 22/21 A2995 RMK AO2 T02220211
2026-04-29 10:53:00,METAR KMSY 291053Z 00000KT 10SM SCT018 BKN025 BKN250 23/21 A2994 RMK AO2 SLP140 T02280211
2026-04-29 09:53:00,METAR KMSY 290953Z 19003KT 10SM SCT022 BKN250 23/21 A2993 RMK AO2 SLP137 T02280211
2026-04-29 09:38:00,SPECI KMSY 290938Z 17003KT 10SM SCT018 BKN250 23/21 A2992 RMK AO2 T02280211
2026-04-29 08:53:00,METAR KMSY 290853Z 16003KT 10SM BKN020 BKN250 23/21 A2994 RMK AO2 SLP140 T02280211 55017
2026-04-29 08:22:00,SPECI KMSY 290822Z 17004KT 10SM BKN020 BKN250 23/21 A2994 RMK AO2 T02280211
2026-04-29 07:53:00,METAR KMSY 290753Z 17006KT 10SM FEW018 SCT024 SCT150 BKN250 23/21 A2993 RMK AO2 SLP139 T02280211
2026-04-29 06:53:00,METAR KMSY 290653Z 18003KT 10SM BKN020 23/21 A2996 RMK AO2 SLP150 T02330211
2026-04-29 05:53:00,METAR KMSY 290553Z 19006KT 10SM FEW020 SCT250 23/21 A2999 RMK AO2 SLP157 T02330211 10267 20233 402890228 53003
2026-04-29 04:53:00,METAR KMSY 290453Z 18006KT 10SM FEW022 BKN250 24/21 A2999 RMK AO2 SLP157 T02390211
2026-04-29 04:28:00,SPECI KMSY 290428Z 18006KT 10SM SCT019 BKN250 24/21 A2998 RMK AO2 T02390211
2026-04-29 03:53:00,METAR KMSY 290353Z 18007KT 10SM BKN019 BKN250 24/22 A2997 RMK AO2 SLP153 T02440217
2026-04-29 02:53:00,METAR KMSY 290253Z 17007KT 10SM FEW025 24/21 A2998 RMK AO2 SLP154 T02440211 51002
2026-04-29 01:53:00,METAR KMSY 290153Z 17008KT 10SM SCT025 BKN250 24/21 A2997 RMK AO2 SLP150 T02440211
2026-04-29 00:53:00,METAR KMSY 290053Z 18006KT 10SM SCT027 SCT085 BKN250 25/21 A2998 RMK AO2 SLP155 T02500206
2026-04-28 23:53:00,METAR KMSY 282353Z 17009KT 10SM SCT023 SCT250 27/21 A2997 RMK AO2 SLP151 T02670211 10289 20267 55006
2026-04-28 22:53:00,METAR KMSY 282253Z 16012G19KT 10SM FEW025 SCT085 SCT250 27/22 A2997 RMK AO2 SLP151 T02720222
2026-04-28 21:53:00,METAR KMSY 282153Z 15015G21KT 10SM FEW035 SCT085 SCT250 28/22 A2997 RMK AO2 SLP152 T02830217
2026-04-28 20:53:00,METAR KMSY 282053Z 18012G20KT 10SM FEW030 SCT085 SCT250 28/22 A2999 RMK AO2 SLP158 T02830217 58025
2026-04-28 19:53:00,METAR KMSY 281953Z 15011KT 10SM FEW027 SCT085 BKN250 28/22 A3003 RMK AO2 SLP171 T02780217
2026-04-28 18:53:00,METAR KMSY 281853Z 16014KT 10SM FEW027 FEW085 SCT250 28/22 A3004 RMK AO2 SLP175 T02830217
2026-04-28 17:53:00,METAR KMSY 281753Z 16012KT 10SM FEW027 FEW085 SCT250 29/22 A3006 RMK AO2 SLP183 T02890217 10289 20233 50002
2026-04-28 16:53:00,METAR KMSY 281653Z COR 15012KT 10SM FEW025 SCT085 SCT250 28/21 A3007 RMK AO2 SLP187 T02830206
2026-04-28 15:53:00,METAR KMSY 281553Z 16011G15KT 10SM FEW025 27/21 A3008 RMK AO2 SLP190 T02720211
2026-04-28 14:53:00,METAR KMSY 281453Z 16013G20KT 10SM FEW023 SCT085 BKN250 27/21 A3006 RMK AO2 SLP181 T02720206 50007
2026-04-28 13:53:00,METAR KMSY 281353Z 14007KT 10SM SCT023 BKN085 BKN250 25/22 A3007 RMK AO2 SLP186 T02500222
2026-04-28 12:53:00,METAR KMSY 281253Z 10004KT 10SM FEW020 SCT085 BKN250 24/22 A3007 RMK AO2 SLP184 T02440217
2026-04-28 11:53:00,METAR KMSY 281153Z 00000KT 10SM FEW020 SCT080 BKN250 23/21 A3004 RMK AO2 SLP174 T02330211 10244 20228 53012
2026-04-28 10:53:00,METAR KMSY 281053Z 15006KT 10SM FEW020 FEW075 SCT250 23/21 A2999 RMK AO2 SLP160 T02330211
2026-04-28 09:53:00,METAR KMSY 280953Z 16004KT 10SM FEW020 SCT075 SCT250 23/21 A3000 RMK AO2 SLP161 T02280211
2026-04-28 08:53:00,METAR KMSY 280853Z 16004KT 10SM FEW020 SCT250 24/21 A3000 RMK AO2 SLP162 T02390211 55004
2026-04-28 07:53:00,METAR KMSY 280753Z 18003KT 10SM SCT020 SCT250 24/22 A3000 RMK AO2 SLP161 T02390217
2026-04-28 07:36:00,SPECI KMSY 280736Z 20005KT 10SM SCT023 SCT250 24/22 A3000 RMK AO2 T02390217
2026-04-28 06:53:00,METAR KMSY 280653Z 15006KT 10SM BKN021 BKN250 24/22 A3001 RMK AO2 SLP164 T02440217
2026-04-28 05:53:00,METAR KMSY 280553Z 15008KT 10SM SCT021 SCT250 24/21 A3001 RMK AO2 SLP166 T02440211 10272 20239 402940228 50002
2026-04-28 04:53:00,METAR KMSY 280453Z 13008KT 10SM FEW021 SCT250 24/21 A3002 RMK AO2 SLP167 T02390211
2026-04-28 03:53:00,METAR KMSY 280353Z 13007KT 10SM FEW020 FEW250 24/21 A3001 RMK AO2 SLP166 T02390206
2026-04-28 02:53:00,METAR KMSY 280253Z 14010KT 10SM FEW150 SCT250 24/21 A3001 RMK AO2 SLP165 T02440206 51012
2026-04-28 01:53:00,METAR KMSY 280153Z 15008KT 10SM FEW150 FEW250 25/21 A3000 RMK AO2 SLP163 T02500211
2026-04-28 00:53:00,METAR KMSY 280053Z 15009KT 10SM FEW025 SCT150 26/20 A2999 RMK AO2 SLP157 T02560200
2026-04-27 23:53:00,METAR KMSY 272353Z 15012KT 10SM FEW150 27/19 A2997 RMK AO2 SLP153 T02720194 10294 20272 53003
2026-04-27 22:53:00,METAR KMSY 272253Z 14014KT 10SM FEW025 SCT085 SCT250 28/20 A2996 RMK AO2 SLP149 T02830200
2026-04-27 21:53:00,METAR KMSY 272153Z 15014G20KT 10SM FEW085 SCT250 29/20 A2996 RMK AO2 SLP148 T02890200
2026-04-27 20:53:00,METAR KMSY 272053Z 15014G22KT 10SM FEW025 SCT085 SCT250 29/19 A2997 RMK AO2 SLP150 T02940194 58002
2026-04-27 19:53:00,METAR KMSY 271953Z 15014G21KT 10SM FEW025 SCT080 SCT250 29/19 A2997 RMK AO2 PK WND 17027/1916 SLP153 T02940194
2026-04-27 18:53:00,METAR KMSY 271853Z 16015G22KT 10SM FEW025 SCT080 SCT250 29/20 A2998 RMK AO2 SLP154 T02890200
2026-04-27 17:53:00,METAR KMSY 271753Z 16014G22KT 10SM FEW025 SCT080 SCT250 29/21 A2997 RMK AO2 SLP153 T02890206 10289 20228 50001
2026-04-27 16:53:00,METAR KMSY 271653Z 16012G19KT 10SM FEW025 SCT250 29/22 A2999 RMK AO2 SLP158 T02890217
2026-04-27 15:53:00,METAR KMSY 271553Z 17014G26KT 10SM FEW020 FEW250 28/21 A2998 RMK AO2 PK WND 17026/1549 SLP155 T02780211
2026-04-27 14:53:00,METAR KMSY 271453Z 16011G20KT 10SM FEW018 SCT250 27/21 A2997 RMK AO2 SLP151 T02670211 51014
2026-04-27 13:53:00,METAR KMSY 271353Z 15010G18KT 10SM SCT014 BKN250 26/22 A2996 RMK AO2 SLP149 T02560217
2026-04-27 13:31:00,SPECI KMSY 271331Z 14008KT 10SM BKN014 BKN250 25/22 A2996 RMK AO2 T02500222
2026-04-27 12:53:00,METAR KMSY 271253Z 12008KT 10SM SCT014 SCT200 24/22 A2995 RMK AO2 SLP146 T02390222
2026-04-27 12:31:00,SPECI KMSY 271231Z 12009KT 10SM BKN014 23/22 A2994 RMK AO2 T02330217
2026-04-27 11:53:00,METAR KMSY 271153Z 13008KT 10SM FEW013 FEW200 23/22 A2993 RMK AO2 SLP138 70023 T02280217 10239 20228 53014
2026-04-27 10:53:00,METAR KMSY 271053Z 13008KT 10SM FEW010 SCT250 23/22 A2991 RMK AO2 SLP130 T02280217
2026-04-27 09:53:00,METAR KMSY 270953Z 14004KT 10SM FEW010 SCT250 23/22 A2990 RMK AO2 SLP128 T02280222
2026-04-27 08:53:00,METAR KMSY 270853Z 14007KT 10SM FEW010 BKN250 23/22 A2989 RMK AO2 SLP124 T02330222 55008
2026-04-27 07:53:00,METAR KMSY 270753Z 13006KT 10SM BKN250 23/22 A2988 RMK AO2 SLP123 T02330222
2026-04-27 06:53:00,METAR KMSY 270653Z 14006KT 10SM BKN250 24/22 A2990 RMK AO2 SLP127 T02390222
2026-04-27 05:53:00,METAR KMSY 270553Z 16004KT 10SM SCT250 23/22 A2991 RMK AO2 SLP132 T02330217 10261 20233 402890200 50004
2026-04-27 04:53:00,METAR KMSY 270453Z 16005KT 10SM BKN250 24/21 A2991 RMK AO2 SLP132 T02390211
2026-04-27 03:53:00,METAR KMSY 270353Z 16005KT 10SM FEW010 FEW250 24/22 A2991 RMK AO2 SLP130 T02390217
2026-04-27 02:53:00,METAR KMSY 270253Z 17006KT 10SM FEW010 FEW250 24/22 A2990 RMK AO2 SLP128 T02440217 51010
2026-04-27 01:53:00,METAR KMSY 270153Z 15007KT 10SM FEW020 FEW250 25/22 A2989 RMK AO2 SLP126 T02500217
2026-04-27 00:53:00,METAR KMSY 270053Z 14007KT 10SM FEW025 FEW065 SCT250 26/21 A2989 RMK AO2 SLP123 T02560211
2026-04-26 23:53:00,METAR KMSY 262353Z 17009KT 10SM FEW035 FEW050 FEW250 26/22 A2987 RMK AO2 SLP119 CB DSNT NE T02610217 10289 20261 53001
2026-04-26 22:53:00,METAR KMSY 262253Z 18010KT 10SM FEW035 FEW075 27/22 A2987 RMK AO2 SLP117 T02720217
2026-04-26 21:53:00,METAR KMSY 262153Z 16013G20KT 10SM SCT035 SCT250 28/22 A2986 RMK AO2 SLP115 T02780217
2026-04-26 20:53:00,METAR KMSY 262053Z 18012KT 10SM FEW035 FEW075 SCT250 28/21 A2987 RMK AO2 SLP117 T02780211 57010
2026-04-26 19:53:00,METAR KMSY 261953Z 17010KT 10SM FEW040 SCT250 28/21 A2988 RMK AO2 SLP121 T02780206
2026-04-26 18:53:00,METAR KMSY 261853Z 17010KT 10SM FEW040 28/19 A2989 RMK AO2 SLP124 T02830194
2026-04-26 17:53:00,METAR KMSY 261753Z 14007KT 10SM FEW020 SCT250 27/18 A2990 RMK AO2 SLP127 60023 T02720178 10272 20200 58013
2026-04-26 16:53:00,METAR KMSY 261653Z 09007KT 10SM FEW015 FEW040 SCT250 25/18 A2992 RMK AO2 SLP135 T02500178
2026-04-26 15:53:00,METAR KMSY 261553Z 06010G17KT 10SM FEW035 SCT060 BKN250 23/19 A2993 RMK AO2 PK WND 03026/1456 RAB1459E28 TSB1459E27 SLP140 CB DSNT SE P0023 T02280194
2026-04-26 15:33:00,SPECI KMSY 261533Z 06012G19KT 10SM FEW035 BKN046 BKN060 21/19 A2994 RMK AO2 PK WND 03026/1456 RAB1459E28 TSB1459E27 CB DSNT SE P0023 T02110194
2026-04-26 15:17:00,SPECI KMSY 261517Z 05011G19KT 3SM TSRA BR FEW013CB BKN041 BKN055 20/18 A2994 RMK AO2 PK WND 03026/1456 RAB1459 TSB1459 OCNL LTGICCG N-NE-E TS N-NE-E MOV SE P0022 T02000183
2026-04-26 15:11:00,SPECI KMSY 261511Z 04013G22KT 1 1/2SM +TSRA BR FEW013CB BKN041 OVC055 20/18 A2994 RMK AO2 PK WND 03026/1456 RAB1459 TSB1459 OCNL LTGICCG N-NE-E TS N-NE-E MOV SE P0014 T02000183
2026-04-26 14:59:00,SPECI KMSY 261459Z 03013G26KT 10SM -TSRA BKN013 BKN024CB OVC060 21/18 A2994 RMK AO2 PK WND 03026/1456 RAB59 TSB59 OCNL LTGICCG N-NE-E TS N-NE-E MOV SE P0000 T02110178
2026-04-26 14:53:00,METAR KMSY 261453Z 03017G33KT 10SM SCT013CB BKN060 OVC100 22/18 A2994 RMK AO2 PK WND 36033/1445 RAB48E51 SLP140 CB N AND NE MOV SE P0000 60000 T02170178 53023
2026-04-26 13:53:00,METAR KMSY 261353Z COR 09004KT 10SM FEW011 SCT016 SCT065 BKN250 25/22 A2991 RMK AO2 CB DSNT N AND NW SLP130 T02500222
2026-04-26 13:19:00,SPECI KMSY 261319Z 00000KT 10SM SCT015 BKN100 24/22 A2990 RMK AO2 T02440222
2026-04-26 12:53:00,METAR KMSY 261253Z 00000KT 10SM BKN014 OVC060 24/22 A2990 RMK AO2 SLP127 T02390217
2026-04-26 12:36:00,SPECI KMSY 261236Z 04003KT 10SM BKN014 OVC060 24/22 A2989 RMK AO2 T02390222
2026-04-26 11:53:00,METAR KMSY 261153Z 00000KT 10SM FEW010 BKN055 OVC250 23/22 A2987 RMK AO2 SLP117 70085 T02330217 10233 20228 53016
2026-04-26 10:53:00,METAR KMSY 261053Z 13003KT 10SM FEW010 BKN060 OVC250 23/22 A2985 RMK AO2 SLP110 T02330217
2026-04-26 09:53:00,METAR KMSY 260953Z 14004KT 10SM FEW010 FEW250 23/21 A2984 RMK AO2 SLP106 T02280211
2026-04-26 08:53:00,METAR KMSY 260853Z 14005KT 10SM CLR 23/21 A2982 RMK AO2 SLP101 T02280211 55004
2026-04-26 07:53:00,METAR KMSY 260753Z 14004KT 10SM FEW010 SCT070 BKN250 23/22 A2981 RMK AO2 SLP096 T02330217
2026-04-26 06:53:00,METAR KMSY 260653Z 16005KT 10SM FEW010 BKN070 OVC250 23/22 A2982 RMK AO2 SLP100 T02330222
2026-04-26 05:53:00,METAR KMSY 260553Z 16003KT 10SM FEW010 FEW065 BKN250 23/22 A2983 RMK AO2 SLP105 T02330222 10267 20228 402830189 50002
2026-04-26 04:53:00,METAR KMSY 260453Z 00000KT 10SM FEW010 BKN250 23/22 A2984 RMK AO2 SLP109 T02330222
2026-04-26 03:53:00,METAR KMSY 260353Z 16003KT 10SM FEW010 BKN250 23/22 A2984 RMK AO2 SLP107 T02330222
2026-04-26 02:53:00,METAR KMSY 260253Z 18005KT 10SM FEW010 FEW030 23/22 A2983 RMK AO2 SLP103 T02330222 53011
2026-04-26 01:53:00,METAR KMSY 260153Z 18007KT 10SM FEW025 24/22 A2981 RMK AO2 SLP098 T02440217
2026-04-26 00:53:00,METAR KMSY 260053Z 18009KT 10SM FEW027 SCT250 25/22 A2980 RMK AO2 SLP093 T02500222
2026-04-26 00:30:00,SPECI KMSY 260030Z 17009KT 10SM SCT027 SCT035 BKN250 26/22 A2979 RMK AO2 T02560222
2026-04-25 23:53:00,METAR KMSY 252353Z 16010KT 10SM BKN027TCU BKN075 27/22 A2979 RMK AO2 SLP092 TCU E VCSH E T02670222 10283 20250 55001
2026-04-25 22:53:00,METAR KMSY 252253Z 16006KT 10SM BKN028 BKN050 BKN075 27/22 A2979 RMK AO2 SLP090 T02670217
2026-04-25 22:43:00,SPECI KMSY 252243Z 16006KT 10SM BKN028 BKN050 27/22 A2979 RMK AO2 T02670217
2026-04-25 21:53:00,METAR KMSY 252153Z 16006KT 10SM BKN030 BKN038 27/22 A2979 RMK AO2 SLP090 T02720217
2026-04-25 20:53:00,METAR KMSY 252053Z 16006KT 10SM BKN030 BKN038 BKN070 27/22 A2980 RMK AO2 SLP093 T02720217 58015
2026-04-25 19:53:00,METAR KMSY 251953Z 23006KT 10SM BKN030 BKN038 BKN070 28/21 A2981 RMK AO2 SLP099 T02780211
2026-04-25 18:53:00,METAR KMSY 251853Z VRB05KT 10SM SCT030 SCT070 SCT250 27/21 A2983 RMK AO2 SLP104 T02720206
2026-04-25 17:53:00,METAR KMSY 251753Z 17006KT 10SM SCT090 SCT250 25/19 A2984 RMK AO2 SLP108 60085 T02500194 10250 20189 58016
2026-04-25 16:53:00,METAR KMSY 251653Z 14006KT 10SM FEW011 FEW080 24/19 A2986 RMK AO2 SLP114 T02390194
2026-04-25 15:53:00,METAR KMSY 251553Z 11006KT 10SM SCT011 BKN150 22/19 A2988 RMK AO2 SLP120 T02220189
2026-04-25 14:53:00,METAR KMSY 251453Z 08005KT 10SM SCT006 BKN016 BKN150 21/19 A2989 RMK AO2 SLP123 60085 T02110194 53019
2026-04-25 14:15:00,SPECI KMSY 251415Z 12004KT 10SM SCT006 BKN016 OVC035 19/18 A2987 RMK AO2 T01940183
2026-04-25 14:05:00,SPECI KMSY 251405Z COR VRB03KT 10SM FEW006 SCT016 19/18 A2986 RMK AO2 T01940183 $
2026-04-25 13:53:00,METAR KMSY 251353Z 19005KT 10SM FEW006 BKN011 OVC016 19/18 A2986 RMK AO2 RAE43 TSE21 SLP113 CB DSNT S-SE P0001 T01890183 $
2026-04-25 13:22:00,SPECI KMSY 251322Z COR 16007KT 10SM -RA BKN008 OVC015 19/18 A2985 RMK AO2 TSE21 CIG 004V010 CB DSNT S-SE P0000 T01940183 $
2026-04-25 12:53:00,METAR KMSY 251253Z 11014KT 4SM -TSRA BR SCT008 BKN015CB OVC085 19/18 A2983 RMK AO2 TSE40B49 SLP106 OCNL LTGICCG E-SE TS E-SE MOV E P0084 T01940183 $
2026-04-25 12:40:00,SPECI KMSY 251240Z 08012G17KT 3SM RA BR SCT008 BKN015CB OVC036 20/19 A2983 RMK AO2 TSE40 OCNL LTGICCG DSNT E-SE CB DSNT E-SE P0083 T02000189 $
2026-04-25 12:28:00,SPECI KMSY 251228Z 00000KT 1 1/2SM -TSRA SCT008 BKN015CB OVC036 20/19 A2986 RMK AO2 FRQ LTGICCG E-SE TS E-SE MOV E P0079 T02000189 $
2026-04-25 11:57:00,SPECI KMSY 251157Z COR 07017G23KT 1 1/2SM -TSRA FEW008 OVC016CB 21/19 A2981 RMK OCNL LGTICCG ALQDS TS ALQDS MOV SE AO2 P0042 T02110194 RVRNO $
2026-04-25 11:53:00,METAR KMSY 251153Z 04012KT 1/2SM +TSRA BKN008 OVC016CB 21/20 A2983 RMK AO2 SLP104 FRQ LTGICCG ALQDS TS ALDQS MOV SE P0046 60046 70046 T02110200 10233 20211 50014 RVRNO $
2026-04-25 11:45:00,SPECI KMSY 251145Z 32014G23KT 1 1/2SM -TSRA BKN008 BKN016CB OVC030 23/22 A2983 RMK AO2 PRESRR FRQ LTGICCG ALQDS TS ALDQS MOV SE P0003 T02330222 $
2026-04-25 10:53:00,METAR KMSY 251053Z 17004KT 10SM -TSRA FEW010 SCT030CB OVC060 23/22 A2979 RMK AO2 RAB43 TSB26 SLP089 OCNL LTGIC NW-N TS NW-N MOV SE P0000 T02280217 $
2026-04-25 10:32:00,SPECI KMSY 251032Z 19004KT 10SM TS FEW010 SCT030CB OVC060 23/22 A2979 RMK AO2 TSB26 OCNL LTGIC NW TS NW MOV SE T02280217 $
2026-04-25 09:53:00,METAR KMSY 250953Z 17004KT 10SM FEW010 SCT030 BKN070 23/22 A2979 RMK AO2 SLP090 T02330217
2026-04-25 08:53:00,METAR KMSY 250853Z 17006KT 10SM FEW010 BKN080 23/22 A2978 RMK AO2 SLP089 T02330217 56013
2026-04-25 07:53:00,METAR KMSY 250753Z 16007KT 10SM FEW010 SCT080 BKN250 23/22 A2979 RMK AO2 SLP090 T02330217
2026-04-25 06:53:00,METAR KMSY 250653Z 16007KT 10SM SCT015 BKN030 BKN085 23/22 A2980 RMK AO2 SLP095 T02330217
2026-04-25 05:53:00,METAR KMSY 250553Z 15007KT 10SM FEW010 BKN030 BKN085 23/22 A2982 RMK AO2 RAE22 SLP101 P0000 60000 T02330217 10250 20228 402830206 50004
2026-04-25 04:53:00,METAR KMSY 250453Z 14004KT 10SM -RA FEW015 BKN035 BKN070 24/22 A2985 RMK AO2 RAB52 SLP110 P0000 T02390217
2026-04-25 03:53:00,METAR KMSY 250353Z 19003KT 10SM SCT020 BKN065 23/21 A2984 RMK AO2 SLP108 T02330211
2026-04-25 02:53:00,METAR KMSY 250253Z 18007KT 10SM FEW025 FEW050 23/21 A2981 RMK AO2 SLP097 T02280206 53005
2026-04-25 01:53:00,METAR KMSY 250153Z 17005KT 10SM FEW025 FEW050 23/21 A2981 RMK AO2 SLP097 CB DSNT N T02330206
2026-04-25 00:53:00,METAR KMSY 250053Z 17008KT 10SM FEW025 FEW040 FEW075 24/20 A2979 RMK AO2 SLP091 CB DSNT NW T02440200
2026-04-24 23:53:00,METAR KMSY 242353Z 16011KT 10SM FEW017 SCT023 SCT075 25/21 A2979 RMK AO2 SLP092 T02500211 10283 20250 55003
2026-04-24 22:53:00,METAR KMSY 242253Z 16013G20KT 10SM FEW028 SCT075 SCT250 26/21 A2979 RMK AO2 SLP090 T02610206
2026-04-24 21:53:00,METAR KMSY 242153Z 16014KT 10SM FEW030 SCT080 SCT250 27/21 A2979 RMK AO2 SLP091 T02720206
2026-04-24 20:53:00,METAR KMSY 242053Z 16016G21KT 10SM FEW030 FEW075 SCT250 27/21 A2980 RMK AO2 SLP095 CB DSNT NE-E T02720206 58026
2026-04-24 19:53:00,METAR KMSY 241953Z 18013G21KT 10SM FEW030 FEW080 BKN250 27/21 A2984 RMK AO2 SLP106 CB DSNT NE-E TCU DSNT S AND W AND NW T02720206
2026-04-24 18:53:00,METAR KMSY 241853Z 16013G20KT 10SM SCT025 BKN250 27/21 A2987 RMK AO2 SLP116 T02720206
2026-04-24 17:53:00,METAR KMSY 241753Z 17010G18KT 10SM SCT025 BKN130 BKN250 27/20 A2988 RMK AO2 SLP121 T02670200 10278 20211 58005
2026-04-24 16:53:00,METAR KMSY 241653Z 14008G17KT 10SM SCT025 BKN130 BKN250 27/20 A2989 RMK AO2 SLP125 T02720200
2026-04-24 16:00:00,SPECI KMSY 241600Z 17011KT 10SM SCT023 BKN250 27/20 A2990 RMK AO2 SCT V BKN T02670200
2026-04-24 15:53:00,METAR KMSY 241553Z 16010KT 10SM BKN023 BKN250 26/20 A2990 RMK AO2 SLP128 T02610200
2026-04-24 14:53:00,METAR KMSY 241453Z 17009KT 10SM BKN020 BKN250 26/20 A2990 RMK AO2 SLP127 T02560200 51007
2026-04-24 13:53:00,METAR KMSY 241353Z 17009KT 10SM BKN014 BKN250 24/21 A2989 RMK AO2 SLP124 T02390206
2026-04-24 13:14:00,SPECI KMSY 241314Z 13007KT 10SM BKN012 BKN250 23/21 A2989 RMK AO2 T02330206
2026-04-24 12:53:00,METAR KMSY 241253Z 14009KT 10SM FEW012 SCT250 23/21 A2989 RMK AO2 SLP123 T02280206
2026-04-24 11:53:00,METAR KMSY 241153Z 14004KT 10SM SCT014 SCT027 BKN250 21/20 A2988 RMK AO2 SLP120 T02110200 10217 20206 53008
2026-04-24 11:48:00,SPECI KMSY 241148Z 14004KT 10SM SCT014 SCT027 BKN250 21/20 A2987 RMK AO2
2026-04-24 11:40:00,SPECI KMSY 241140Z 14004KT 10SM BKN014 BKN025 BKN250 21/20 A2987 RMK AO2 T02110200
2026-04-24 10:53:00,METAR KMSY 241053Z 16003KT 10SM FEW008 FEW014 BKN250 21/20 A2985 RMK AO2 SLP112 T02110200
2026-04-24 09:53:00,METAR KMSY 240953Z VRB04KT 10SM FEW008 SCT017 SCT200 21/20 A2985 RMK AO2 SLP110 T02110200
2026-04-24 08:53:00,METAR KMSY 240853Z 13005KT 10SM FEW015 21/20 A2985 RMK AO2 SLP112 T02110200 56015
2026-04-24 07:53:00,METAR KMSY 240753Z 15004KT 10SM SCT015 21/19 A2986 RMK AO2 SLP115 T02110194
2026-04-24 07:21:00,SPECI KMSY 240721Z 16003KT 10SM SCT015 21/19 A2987 RMK AO2 T02110194
2026-04-24 06:53:00,METAR KMSY 240653Z 13005KT 10SM BKN017 21/19 A2988 RMK AO2 SLP122 T02110194
2026-04-24 05:53:00,METAR KMSY 240553Z 13008KT 10SM FEW016 FEW250 22/19 A2990 RMK AO2 SLP127 T02170194 10244 20217 402780178 57013
2026-04-24 04:53:00,METAR KMSY 240453Z 13010KT 10SM FEW030 22/19 A2991 RMK AO2 SLP130 T02170194
2026-04-24 03:53:00,METAR KMSY 240353Z 13009KT 10SM FEW038 FEW250 22/19 A2992 RMK AO2 SLP136 T02220189
2026-04-24 02:53:00,METAR KMSY 240253Z 13010KT 10SM FEW027 BKN038 BKN046 23/19 A2993 RMK AO2 SLP140 T02280194 52006
2026-04-24 01:53:00,METAR KMSY 240153Z 14007KT 10SM SCT022 BKN036 OVC055 23/19 A2994 RMK AO2 SLP141 T02330189
2026-04-24 00:53:00,METAR KMSY 240053Z 12013KT 10SM FEW026 SCT050 SCT250 23/18 A2991 RMK AO2 SLP132 T02330183
2026-04-23 23:53:00,METAR KMSY 232353Z 13011KT 10SM FEW028 FEW042 SCT055 SCT250 24/18 A2992 RMK AO2 SLP133 T02440178 10278 20244 55007
2026-04-23 22:53:00,METAR KMSY 232253Z 10014KT 10SM FEW038 SCT048 BKN250 25/17 A2992 RMK AO2 SLP133 T02500172
2026-04-23 21:53:00,METAR KMSY 232153Z 12012G20KT 10SM SCT040 27/17 A2992 RMK AO2 SLP134 T02670172
2026-04-23 20:53:00,METAR KMSY 232053Z 15010KT 10SM SCT045 SCT060 27/17 A2994 RMK AO2 SLP141 T02670167 58020
2026-04-23 19:53:00,METAR KMSY 231953Z 12011KT 10SM SCT048 28/16 A2997 RMK AO2 SLP151 T02780156
2026-04-23 18:53:00,METAR KMSY 231853Z 14010G19KT 10SM SCT047 27/16 A2998 RMK AO2 SLP156 T02720156
2026-04-23 17:53:00,METAR KMSY 231753Z 12010G18KT 10SM SCT045 27/15 A3000 RMK AO2 SLP160 T02670150 10267 20189 58012
2026-04-23 16:53:00,METAR KMSY 231653Z 14013KT 10SM FEW037 26/16 A3002 RMK AO2 SLP168 T02610156
2026-04-23 15:53:00,METAR KMSY 231553Z 14008KT 10SM SCT031 25/17 A3003 RMK AO2 SLP173 T02500172
2026-04-23 14:53:00,METAR KMSY 231453Z 13008G15KT 10SM FEW020 24/17 A3003 RMK AO2 SLP172 T02390172 53005
2026-04-23 13:53:00,METAR KMSY 231353Z 12012KT 10SM FEW012 23/17 A3002 RMK AO2 SLP168 T02280172
2026-04-23 12:53:00,METAR KMSY 231253Z 10007KT 10SM FEW010 21/17 A3003 RMK AO2 SLP170 T02110172
2026-04-23 11:53:00,METAR KMSY 231153Z 09006KT 10SM FEW010 FEW120 19/17 A3002 RMK AO2 SLP168 T01890167 10206 20178 53004 $
2026-04-23 10:53:00,METAR KMSY 231053Z 10008KT 10SM FEW120 FEW250 19/16 A3001 RMK AO2 SLP165 T01890161 $
2026-04-23 09:53:00,METAR KMSY 230953Z 10007KT 10SM CLR 18/16 A3001 RMK AO2 SLP164 T01830161 $
2026-04-23 08:53:00,METAR KMSY 230853Z 12006KT 10SM CLR 19/17 A3001 RMK AO2 SLP164 T01940167 56012
2026-04-23 07:53:00,METAR KMSY 230753Z 12007KT 10SM FEW200 20/17 A3001 RMK AO2 SLP165 T02000167
2026-04-23 06:53:00,METAR KMSY 230653Z 13009KT 10SM SCT200 21/17 A3002 RMK AO2 SLP170 T02060167
2026-04-23 05:53:00,METAR KMSY 230553Z 13009KT 10SM SCT150 21/17 A3004 RMK AO2 SLP175 60000 T02060167 10244 20206 402780189 57009
2026-04-23 04:53:00,METAR KMSY 230453Z 12009KT 10SM SCT140 21/17 A3005 RMK AO2 SLP177 T02110172
2026-04-23 03:53:00,METAR KMSY 230353Z 12008KT 10SM FEW120 21/18 A3006 RMK AO2 SLP182 T02110178
2026-04-23 02:53:00,METAR KMSY 230253Z 12006KT 10SM FEW035 FEW075 FEW120 21/18 A3007 RMK AO2 SLP184 60000 T02110178 53008
2026-04-23 01:53:00,METAR KMSY 230153Z 12007KT 10SM FEW035 BKN070 22/18 A3006 RMK AO2 SLP182 OCNL LTGIC DSNT NW CB DSNT NW T02170183
2026-04-23 00:53:00,METAR KMSY 230053Z 13008KT 10SM FEW035 SCT055 BKN070 22/17 A3004 RMK AO2 RAB18E47 SLP176 P0000 T02170167
2026-04-22 23:53:00,METAR KMSY 222353Z 14010KT 10SM FEW035 FEW080 SCT120 SCT250 24/18 A3004 RMK AO2 SLP176 T02440183 10278 20244 55008
2026-04-22 22:53:00,METAR KMSY 222253Z 12015KT 10SM FEW035 SCT060 SCT085 BKN250 26/17 A3004 RMK AO2 SLP174 T02560172
2026-04-22 21:53:00,METAR KMSY 222153Z 16011KT 130V200 10SM FEW035 SCT065 SCT080 BKN250 26/18 A3005 RMK AO2 SLP178 TCU DSNT NW VCSH S T02610183
2026-04-22 20:53:00,METAR KMSY 222053Z 17014G19KT 10SM SCT045TCU SCT085 SCT250 27/18 A3007 RMK AO2 SLP184 TCU S VCSH S T02670178 56025
2026-04-22 19:53:00,METAR KMSY 221953Z 11011KT 10SM FEW045 FEW060 SCT100 SCT250 28/15 A3009 RMK AO2 SLP191 T02780150
2026-04-22 18:53:00,METAR KMSY 221853Z 14013G18KT 10SM BKN050 BKN100 BKN250 27/15 A3011 RMK AO2 SLP200 T02670150
2026-04-22 17:53:00,METAR KMSY 221753Z 12008G17KT 10SM SCT046 SCT100 SCT250 27/14 A3014 RMK AO2 SLP208 T02670144 10272 20194 58010
2026-04-22 16:53:00,METAR KMSY 221653Z 15008G16KT 10SM SCT044 SCT100 26/16 A3016 RMK AO2 SLP215 T02610156
2026-04-22 15:53:00,METAR KMSY 221553Z 14009KT 10SM SCT036 SCT100 26/16 A3017 RMK AO2 SLP220 T02560156
2026-04-22 14:53:00,METAR KMSY 221453Z 13011G17KT 10SM SCT035 BKN100 24/16 A3017 RMK AO2 SLP218 T02440156 50003
2026-04-22 13:53:00,METAR KMSY 221353Z 12009KT 10SM FEW033 BKN100 24/16 A3017 RMK AO2 SLP218 T02390156
2026-04-22 12:53:00,METAR KMSY 221253Z 09008KT 10SM FEW032 BKN110 22/16 A3017 RMK AO2 SLP219 T02170156
2026-04-22 11:53:00,METAR KMSY 221153Z 10008KT 10SM FEW033 BKN110 19/15 A3016 RMK AO2 SLP215 T01940150 10211 20189 53014
2026-04-22 10:53:00,METAR KMSY 221053Z 08003KT 10SM BKN120 19/15 A3014 RMK AO2 SLP209 T01940150
2026-04-22 09:53:00,METAR KMSY 220953Z 07004KT 10SM BKN140 19/14 A3013 RMK AO2 SLP204 T01940144
2026-04-22 08:53:00,METAR KMSY 220853Z 09005KT 10SM SCT110 BKN140 19/14 A3012 RMK AO2 SLP201 T01890144 56016
2026-04-22 07:53:00,METAR KMSY 220753Z 10005KT 10SM SCT120 BKN130 19/14 A3012 RMK AO2 SLP203 T01940144
2026-04-22 06:53:00,METAR KMSY 220653Z 10006KT 10SM BKN120 19/14 A3014 RMK AO2 SLP210 T01940139
2026-04-22 05:53:00,METAR KMSY 220553Z 13006KT 10SM BKN120 21/14 A3017 RMK AO2 SLP218 T02060144 10233 20206 402670111 58009
2026-04-22 04:53:00,METAR KMSY 220453Z 11004KT 10SM BKN120 21/14 A3018 RMK AO2 SLP222 T02060139
2026-04-22 03:53:00,METAR KMSY 220353Z 10006KT 10SM BKN120 21/13 A3018 RMK AO2 SLP224 T02060133
2026-04-22 02:53:00,METAR KMSY 220253Z 11007KT 10SM OVC200 21/13 A3019 RMK AO2 SLP227 T02110128 53000
2026-04-22 01:53:00,METAR KMSY 220153Z 11006KT 10SM OVC200 22/13 A3019 RMK AO2 SLP227 T02170128
2026-04-22 00:53:00,METAR KMSY 220053Z 11012KT 10SM OVC200 22/13 A3018 RMK AO2 SLP224 T02220128
2026-04-21 23:53:00,METAR KMSY 212353Z 12009KT 10SM BKN150 OVC250 23/12 A3019 RMK AO2 SLP226 T02330117 10267 20233 56010
2026-04-21 22:53:00,METAR KMSY 212253Z 11011KT 10SM BKN150 OVC250 23/12 A3020 RMK AO2 SLP231 T02330122
2026-04-21 21:53:00,METAR KMSY 212153Z 12011KT 10SM SCT046 OVC200 24/13 A3021 RMK AO2 SLP231 T02390128
2026-04-21 20:53:00,METAR KMSY 212053Z 13011KT 10SM SCT048 OVC200 24/13 A3022 RMK AO2 SLP236 T02440133 56008
2026-04-21 19:53:00,METAR KMSY 211953Z 15010G17KT 10SM FEW040 BKN180 BKN250 26/12 A3023 RMK AO2 PK WND 14027/1854 SLP239 T02560122
2026-04-21 18:53:00,METAR KMSY 211853Z 13017G25KT 10SM FEW040 BKN180 BKN250 26/11 A3022 RMK AO2 PK WND 12030/1831 SLP236 T02610111
2026-04-21 17:53:00,METAR KMSY 211753Z 11013G23KT 10SM FEW040 BKN160 BKN250 26/13 A3024 RMK AO2 SLP244 T02610128 10267 20144 58009
2026-04-21 16:53:00,METAR KMSY 211653Z 11015G24KT 10SM BKN160 BKN250 26/13 A3026 RMK AO2 SLP249 T02560128
2026-04-21 15:53:00,METAR KMSY 211553Z 12012G21KT 10SM BKN160 BKN250 24/12 A3027 RMK AO2 SLP254 T02390122
2026-04-21 14:53:00,METAR KMSY 211453Z 09009KT 10SM BKN180 BKN250 22/12 A3027 RMK AO2 SLP253 T02170117 51006
2026-04-21 13:53:00,METAR KMSY 211353Z 08006KT 10SM BKN180 BKN250 20/13 A3026 RMK AO2 SLP251 T02000128
2026-04-21 12:53:00,METAR KMSY 211253Z 05003KT 10SM BKN180 BKN250 19/13 A3026 RMK AO2 SLP251 T01890133
2026-04-21 11:53:00,METAR KMSY 211153Z 00000KT 10SM BKN180 BKN250 14/12 A3025 RMK AO2 SLP247 T01440117 10150 20111 53007
2026-04-21 10:53:00,METAR KMSY 211053Z 08003KT 10SM SCT250 14/11 A3022 RMK AO2 SLP237 T01390106
2026-04-21 09:53:00,METAR KMSY 210953Z 00000KT 10SM SCT250 13/10 A3023 RMK AO2 SLP238 T01280100
2026-04-21 08:53:00,METAR KMSY 210853Z 00000KT 10SM SCT250 11/10 A3023 RMK AO2 SLP240 T01110100 55008
2026-04-21 07:53:00,METAR KMSY 210753Z 00000KT 10SM BKN250 12/10 A3023 RMK AO2 SLP239 T01170100
2026-04-21 06:53:00,METAR KMSY 210653Z 00000KT 10SM SCT250 13/11 A3025 RMK AO2 SLP245 T01280111
2026-04-21 05:53:00,METAR KMSY 210553Z 00000KT 10SM BKN250 14/11 A3025 RMK AO2 SLP248 T01390111 10211 20133 402390133 55000
2026-04-21 04:53:00,METAR KMSY 210453Z 00000KT 10SM BKN250 16/10 A3025 RMK AO2 SLP247 T01560100
2026-04-21 03:53:00,METAR KMSY 210353Z 00000KT 10SM SCT250 16/10 A3025 RMK AO2 SLP244 T01610100
2026-04-21 02:53:00,METAR KMSY 210253Z 00000KT 10SM BKN150 BKN250 16/10 A3026 RMK AO2 SLP248 T01610100 53007
2026-04-21 01:53:00,METAR KMSY 210153Z 16003KT 10SM BKN150 BKN250 18/09 A3025 RMK AO2 SLP246 T01830094
2026-04-21 00:53:00,METAR KMSY 210053Z 17004KT 10SM BKN180 BKN250 19/08 A3023 RMK AO2 SLP241 T01890083
2026-04-20 23:53:00,METAR KMSY 202353Z 17005KT 10SM BKN180 BKN250 21/06 A3024 RMK AO2 SLP241 T02110056 10239 20211 55006
2026-04-20 22:53:00,METAR KMSY 202253Z 12009KT 10SM SCT180 BKN250 22/05 A3022 RMK AO2 SLP236 T02220050
2026-04-20 21:53:00,METAR KMSY 202153Z 10008KT 10SM FEW180 BKN250 23/04 A3023 RMK AO2 SLP241 T02280044
2026-04-20 20:53:00,METAR KMSY 202053Z 08012G22KT 10SM FEW180 BKN250 23/03 A3025 RMK AO2 SLP247 T02280028 58012
2026-04-20 19:53:00,METAR KMSY 201953Z 08015G21KT 10SM FEW180 BKN250 23/03 A3026 RMK AO2 SLP251 T02280028
2026-04-20 18:53:00,METAR KMSY 201853Z 08015KT 10SM FEW180 BKN250 22/05 A3028 RMK AO2 SLP257 T02220050
2026-04-20 17:53:00,METAR KMSY 201753Z 07014G20KT 10SM FEW180 BKN250 22/05 A3029 RMK AO2 SLP259 T02220050 10222 20167 58008
2026-04-20 16:53:00,METAR KMSY 201653Z 10014G23KT 10SM BKN250 21/05 A3031 RMK AO2 SLP266 T02110050
2026-04-20 15:53:00,METAR KMSY 201553Z 08017KT 10SM BKN250 21/04 A3031 RMK AO2 SLP268 T02060044
2026-04-20 14:53:00,METAR KMSY 201453Z 08012G21KT 10SM BKN250 19/07 A3031 RMK AO2 PK WND 07026/1414 SLP267 T01940067 51010
2026-04-20 13:53:00,METAR KMSY 201353Z 07013G24KT 10SM BKN250 18/06 A3031 RMK AO2 SLP266 T01830056
2026-04-20 12:53:00,METAR KMSY 201253Z 07013KT 10SM BKN250 17/07 A3030 RMK AO2 SLP263 T01720067
2026-04-20 11:53:00,METAR KMSY 201153Z 07007KT 10SM BKN250 17/07 A3028 RMK AO2 SLP257 70023 T01670067 10183 20167 51017
2026-04-20 10:53:00,METAR KMSY 201053Z 06007KT 10SM BKN250 17/06 A3027 RMK AO2 SLP252 T01670061 $
2026-04-20 09:53:00,METAR KMSY 200953Z 05008G18KT 10SM BKN250 17/05 A3025 RMK AO2 SLP246 T01720050 $
2026-04-20 08:53:00,METAR KMSY 200853Z 05011G19KT 10SM BKN250 18/04 A3023 RMK AO2 SLP240 T01780044 55002 $
2026-04-20 07:53:00,METAR KMSY 200753Z 05008KT 10SM BKN250 18/04 A3023 RMK AO2 SLP239 T01780044 $
2026-04-20 06:53:00,METAR KMSY 200653Z 05013G22KT 10SM BKN250 18/04 A3023 RMK AO2 SLP241 T01830044 $
2026-04-20 05:53:00,METAR KMSY 200553Z 04011KT 10SM BKN250 19/04 A3024 RMK AO2 SLP242 T01890039 10200 20183 402330139 56002 $
2026-04-20 04:53:00,METAR KMSY 200453Z 05009KT 10SM BKN250 18/04 A3024 RMK AO2 SLP243 T01830044 $
2026-04-20 03:53:00,METAR KMSY 200353Z 04010G18KT 10SM BKN250 19/04 A3024 RMK AO2 SLP244 T01890039 $
2026-04-20 02:53:00,METAR KMSY 200253Z 02013G18KT 10SM BKN250 19/04 A3025 RMK AO2 SLP245 T01890039 53016 $
2026-04-20 01:53:00,METAR KMSY 200153Z 03011G18KT 10SM BKN250 19/04 A3023 RMK AO2 SLP239 T01940044 $
2026-04-20 00:53:00,METAR KMSY 200053Z 02008G19KT 10SM FEW110 BKN250 19/04 A3021 RMK AO2 SLP232 T01940039 $
2026-04-19 23:53:00,METAR KMSY 192353Z 01009KT 10SM FEW100 BKN250 20/04 A3020 RMK AO2 SLP229 T02000039 10211 20161 55005 $
2026-04-19 22:53:00,METAR KMSY 192253Z 36010G17KT 10SM FEW110 SCT250 21/04 A3020 RMK AO2 SLP228 T02060039 $
2026-04-19 21:53:00,METAR KMSY 192153Z 36008KT 10SM FEW100 SCT250 20/04 A3020 RMK AO2 SLP229 T02000044 $
2026-04-19 20:53:00,METAR KMSY 192053Z 01015G22KT 10SM FEW100 BKN250 20/03 A3021 RMK AO2 SLP234 T02000033 58014 $
2026-04-19 19:53:00,METAR KMSY 191953Z 02014G23KT 10SM FEW100 BKN250 20/02 A3023 RMK AO2 PK WND 02026/1939 SLP240 T02000022 $
2026-04-19 18:53:00,METAR KMSY 191853Z 04012G22KT 10SM FEW095 FEW130 BKN250 18/06 A3025 RMK AO2 PK WND 05026/1801 SLP248 T01830056 $
2026-04-19 17:53:00,METAR KMSY 191753Z 03016G24KT 10SM BKN095 BKN250 17/05 A3026 RMK AO2 PK WND 35027/1722 SLP248 60023 T01670050 10167 20139 55011 $
2026-04-19 16:53:00,METAR KMSY 191653Z 04015G28KT 10SM BKN095 BKN120 BKN250 15/06 A3023 RMK AO2 PK WND 05028/1649 SLP240 T01500061 $
2026-04-19 15:53:00,METAR KMSY 191553Z 04016G23KT 10SM BKN055 OVC120 14/07 A3027 RMK AO2 PK WND 06027/1530 RAB16E25 SLP253 P0000 T01440072 $
2026-04-19 14:53:00,METAR KMSY 191453Z 01013G25KT 10SM FEW017 OVC120 14/08 A3029 RMK AO2 PK WND 02033/1412 RAE01 PRESRR SLP259 P0000 60023 T01390083 51028 $
2026-04-19 13:53:00,METAR KMSY 191353Z 03014G24KT 10SM -RA FEW017 BKN090 OVC110 14/11 A3025 RMK AO2 SLP245 P0002 T01390111 $
2026-04-19 13:33:00,SPECI KMSY 191333Z 02014G24KT 9SM -RA SCT015 OVC110 14/12 A3025 RMK AO2 P0001 T01390117 $
2026-04-19 13:23:00,SPECI KMSY 191323Z 01011G20KT 10SM -RA BKN015 OVC110 14/12 A3025 RMK AO2 P0001 T01390117 $
2026-04-19 12:53:00,METAR KMSY 191253Z 36012G20KT 10SM -RA OVC013 14/12 A3025 RMK AO2 SLP246 P0021 T01440122 $
2026-04-19 12:26:00,SPECI KMSY 191226Z 36010G21KT 5SM RA BR OVC015 14/13 A3022 RMK AO2 P0018 T01440133 $
2026-04-19 12:18:00,SPECI KMSY 191218Z 35014G21KT 2 1/2SM RA BR SCT010 OVC015 14/13 A3022 RMK AO2 P0016 T01440133 $
2026-04-19 12:03:00,SPECI KMSY 191203Z 35013G21KT 2 1/2SM +RA BR BKN014 OVC019 15/13 A3022 RMK AO2 P0003 T01500133 $
2026-04-19 11:53:00,METAR KMSY 191153Z 35014G22KT 5SM RA BR BKN015 OVC085 16/13 A3020 RMK AO2 PK WND 36027/1134 RAB00E14B43 PRESRR SLP231 P0001 60001 70010 T01560133 10233 20156 53036 $
2026-04-19 10:53:00,METAR KMSY 191053Z 34014G28KT 10SM OVC015 16/13 A3016 RMK AO2 PK WND 35028/1047 SLP214 T01610128 $
2026-04-19 10:37:00,SPECI KMSY 191037Z 34014G26KT 10SM OVC015 17/13 A3014 RMK AO2 PK WND 35026/1028 T01670133 $
2026-04-19 09:53:00,METAR KMSY 190953Z 35010G22KT 10SM OVC013 17/14 A3011 RMK AO2 SLP199 T01720144 $
2026-04-19 08:53:00,METAR KMSY 190853Z 34014G25KT 10SM OVC013 18/14 A3010 RMK AO2 SLP194 60000 T01780144 53009
2026-04-19 08:14:00,SPECI KMSY 190814Z 34011G19KT 10SM BKN011 OVC080 20/18 A3008 RMK AO2 T02000178
2026-04-19 08:02:00,SPECI KMSY 190802Z 35012G18KT 10SM FEW018 SCT023 OVC080 21/18 A3007 RMK AO2 T02060178
2026-04-19 07:53:00,METAR KMSY 190753Z 35012G24KT 10SM SCT016 BKN023 OVC080 21/18 A3008 RMK AO2 RAE24 SLP189 P0000 T02060178
2026-04-19 07:31:00,SPECI KMSY 190731Z 33013G22KT 10SM BKN016 BKN021 OVC075 22/19 A3008 RMK AO2 RAE24 PRESRR P0000 T02220189
2026-04-19 06:53:00,METAR KMSY 190653Z 34010G19KT 10SM RA FEW024 SCT036 BKN075 23/19 A3006 RMK AO2 SLP183 P0000 T02280189
2026-04-19 05:53:00,METAR KMSY 190553Z 01004KT 3SM RA FEW020 BKN030 OVC055 23/20 A3007 RMK AO2 RAB22 SLP186 P0009 60009 T02280200 10261 20228 403000194 53012
2026-04-19 05:39:00,SPECI KMSY 190539Z 04010G18KT 3SM RA FEW020 BKN030 OVC055 23/19 A3006 RMK AO2 RAB22 P0008 T02280189
2026-04-19 05:27:00,SPECI KMSY 190527Z VRB06KT 2SM RA BR SCT020 BKN028 OVC050 23/21 A3006 RMK AO2 RAB22 P0000 T02280211
2026-04-19 04:53:00,METAR KMSY 190453Z 23005KT 10SM SCT042 BKN060 BKN120 23/21 A3005 RMK AO2 RAE02 SLP179 P0000 T02330211
2026-04-19 03:53:00,METAR KMSY 190353Z 23006KT 10SM -RA FEW035 FEW050 BKN100 BKN250 23/21 A3005 RMK AO2 RAB52 SLP180 P0000 T02330211
2026-04-19 02:53:00,METAR KMSY 190253Z 21005KT 10SM FEW050 BKN100 BKN250 24/21 A3004 RMK AO2 SLP174 T02390206 53028
2026-04-19 01:53:00,METAR KMSY 190153Z 19006KT 10SM FEW040 BKN250 24/21 A3000 RMK AO2 SLP161 T02390206
2026-04-19 00:53:00,METAR KMSY 190053Z 19005KT 10SM FEW040 FEW090 BKN250 24/21 A2997 RMK AO2 SLP153 T02440206
2026-04-18 23:53:00,METAR KMSY 182353Z 17007KT 10SM FEW040 FEW090 BKN250 26/21 A2995 RMK AO2 SLP146 T02610206 10300 20261 55004
2026-04-18 22:53:00,METAR KMSY 182253Z 18006KT 10SM FEW045 FEW090 BKN250 27/21 A2995 RMK AO2 SLP145 T02720206
2026-04-18 21:53:00,METAR KMSY 182153Z 02005KT 10SM FEW045 FEW090 BKN250 29/17 A2996 RMK AO2 SLP147 T02890172
2026-04-18 20:53:00,METAR KMSY 182053Z VRB03KT 10SM FEW045 SCT090 BKN250 29/17 A2997 RMK AO2 SLP150 T02940167 58019
2026-04-18 19:53:00,METAR KMSY 181953Z 34006KT 10SM FEW050 FEW080 BKN250 30/17 A2999 RMK AO2 SLP158 T03000172
2026-04-18 18:53:00,METAR KMSY 181853Z 05004KT 10SM FEW045 SCT080 BKN250 29/17 A3001 RMK AO2 SLP164 T02940172
2026-04-18 17:53:00,METAR KMSY 181753Z 31005KT 10SM SCT030 SCT045 BKN250 29/17 A3002 RMK AO2 SLP169 T02890167 10289 20200 50010
2026-04-18 16:53:00,METAR KMSY 181653Z 24004KT 10SM SCT029 BKN055 BKN250 26/19 A3002 RMK AO2 SLP170 T02610189
2026-04-18 15:53:00,METAR KMSY 181553Z 16008KT 10SM SCT030 BKN045 BKN250 27/19 A3002 RMK AO2 SLP167 T02670194
2026-04-18 14:53:00,METAR KMSY 181453Z 17008KT 10SM SCT020 BKN055 BKN250 25/20 A2999 RMK AO2 SLP159 T02500200 53023
2026-04-18 13:53:00,METAR KMSY 181353Z 15005KT 10SM SCT044 BKN250 24/21 A2996 RMK AO2 SLP149 T02440206
2026-04-18 12:53:00,METAR KMSY 181253Z 13005KT 10SM FEW044 SCT250 22/20 A2994 RMK AO2 SLP143 T02220200
2026-04-18 11:53:00,METAR KMSY 181153Z 09003KT 10SM FEW040 SCT200 21/18 A2992 RMK AO2 SLP136 T02060183 10217 20194 53006
2026-04-18 10:53:00,METAR KMSY 181053Z 14004KT 10SM FEW200 20/18 A2991 RMK AO2 SLP130 T02000183
2026-04-18 09:53:00,METAR KMSY 180953Z 15003KT 10SM CLR 21/18 A2990 RMK AO2 SLP129 T02060183
2026-04-18 08:53:00,METAR KMSY 180853Z 16005KT 10SM CLR 21/18 A2990 RMK AO2 SLP129 T02110183 58017
2026-04-18 07:53:00,METAR KMSY 180753Z 18004KT 10SM CLR 21/18 A2992 RMK AO2 SLP134 T02110183
2026-04-18 06:53:00,METAR KMSY 180653Z 18004KT 10SM CLR 21/18 A2994 RMK AO2 SLP141 T02110183
2026-04-18 05:53:00,METAR KMSY 180553Z 16004KT 10SM CLR 21/19 A2995 RMK AO2 SLP146 T02110189 10250 20211 402830189 58011
2026-04-18 04:53:00,METAR KMSY 180453Z 18005KT 10SM FEW200 21/18 A2999 RMK AO2 SLP157 T02110183
2026-04-18 03:53:00,METAR KMSY 180353Z 18003KT 10SM FEW200 22/19 A3000 RMK AO2 SLP160 T02170189
2026-04-18 02:53:00,METAR KMSY 180253Z 15007KT 10SM FEW015 SCT250 23/19 A2999 RMK AO2 SLP157 T02280189 51006
2026-04-18 01:53:00,METAR KMSY 180153Z 16006KT 10SM SCT270 23/18 A2998 RMK AO2 SLP156 T02280183
2026-04-18 00:53:00,METAR KMSY 180053Z 15006KT 10SM FEW035 BKN270 24/17 A2997 RMK AO2 SLP152 T02390172
2026-04-17 23:53:00,METAR KMSY 172353Z 15009KT 10SM FEW045 BKN270 25/17 A2997 RMK AO2 SLP150 T02500172 10283 20250 56010
2026-04-17 22:53:00,METAR KMSY 172253Z 15010KT 10SM FEW050 BKN270 27/16 A2997 RMK AO2 SLP151 T02670156
2026-04-17 21:53:00,METAR KMSY 172153Z 17008KT 10SM FEW050 SCT250 28/16 A2998 RMK AO2 SLP154 T02780161
2026-04-17 20:53:00,METAR KMSY 172053Z 19009KT 10SM FEW050 FEW250 28/16 A3000 RMK AO2 SLP160 T02830161 58023
2026-04-17 19:53:00,METAR KMSY 171953Z 17011KT 10SM SCT050 28/17 A3002 RMK AO2 SLP170 T02830167
2026-04-17 18:53:00,METAR KMSY 171853Z 18009G19KT 10SM SCT045 SCT250 27/16 A3004 RMK AO2 SLP175 T02720161
2026-04-17 17:53:00,METAR KMSY 171753Z 18011KT 10SM SCT036 SCT250 28/18 A3006 RMK AO2 SLP183 T02780183 10283 20200 58008
2026-04-17 16:53:00,METAR KMSY 171653Z 19011KT 10SM SCT037 SCT250 27/18 A3008 RMK AO2 SLP190 T02720178
2026-04-17 15:53:00,METAR KMSY 171553Z 16008G15KT 10SM SCT029 27/17 A3009 RMK AO2 SLP192 T02670167
2026-04-17 15:24:00,SPECI KMSY 171524Z 13008KT 10SM SCT024 26/19 A3009 RMK AO2 T02610189
2026-04-17 15:02:00,SPECI KMSY 171502Z 16006KT 10SM BKN024 25/19 A3009 RMK AO2 T02500194
2026-04-17 14:53:00,METAR KMSY 171453Z 15006KT 10SM SCT024 26/19 A3009 RMK AO2 SLP190 T02560194 51020
2026-04-17 13:53:00,METAR KMSY 171353Z 12007KT 10SM FEW015 24/19 A3007 RMK AO2 SLP184 T02390194
2026-04-17 12:53:00,METAR KMSY 171253Z 11003KT 10SM FEW015 22/19 A3005 RMK AO2 SLP178 T02220189
2026-04-17 11:53:00,METAR KMSY 171153Z 08003KT 10SM FEW015 21/18 A3003 RMK AO2 SLP170 T02060183 10211 20189 53006
2026-04-17 10:53:00,METAR KMSY 171053Z 00000KT 10SM FEW020 21/19 A3001 RMK AO2 SLP164 T02060189
2026-04-17 09:53:00,METAR KMSY 170953Z 18003KT 10SM FEW020 20/18 A3001 RMK AO2 SLP164 T02000183
2026-04-17 08:53:00,METAR KMSY 170853Z 15003KT 10SM FEW015 20/18 A3001 RMK AO2 SLP164 T02000183 56013
2026-04-17 07:53:00,METAR KMSY 170753Z 00000KT 10SM FEW015 FEW080 19/18 A3001 RMK AO2 SLP166 T01940178
2026-04-17 06:53:00,METAR KMSY 170653Z 15003KT 10SM FEW070 21/18 A3003 RMK AO2 SLP171 T02110183
2026-04-17 05:53:00,METAR KMSY 170553Z 18004KT 10SM FEW070 21/18 A3004 RMK AO2 SLP177 T02110178 10244 20211 402830206 58002
2026-04-17 04:53:00,METAR KMSY 170453Z 18003KT 10SM FEW070 21/18 A3006 RMK AO2 SLP181 T02110178
2026-04-17 03:53:00,METAR KMSY 170353Z 19004KT 10SM FEW070 22/17 A3006 RMK AO2 SLP181 T02220172
2026-04-17 02:53:00,METAR KMSY 170253Z 19004KT 10SM FEW070 22/18 A3005 RMK AO2 SLP179 T02220178 53006
2026-04-17 01:53:00,METAR KMSY 170153Z 15005KT 10SM FEW070 23/19 A3004 RMK AO2 SLP175 T02330189
2026-04-17 00:53:00,METAR KMSY 170053Z 17009KT 10SM FEW035 FEW080 24/18 A3003 RMK AO2 SLP170 T02390183
2026-04-16 23:53:00,METAR KMSY 162353Z 17009KT 10SM FEW035 FEW080 24/18 A3003 RMK AO2 SLP173 60000 T02440183 10283 20244 55004
2026-04-16 22:53:00,METAR KMSY 162253Z 17010KT 10SM FEW035 FEW080 26/18 A3003 RMK AO2 SLP173 T02560178
2026-04-16 21:53:00,METAR KMSY 162153Z 17012G20KT 10SM FEW038 SCT080 27/19 A3004 RMK AO2 SLP175 T02670189
2026-04-16 20:53:00,METAR KMSY 162053Z 17011KT 10SM FEW038 SCT080 27/19 A3005 RMK AO2 SLP177 60000 T02720189 56022
2026-04-16 19:53:00,METAR KMSY 161953Z 04003KT 10SM SCT035 BKN065 27/19 A3006 RMK AO2 RAE04 SLP184 P0000 T02670194
2026-04-16 18:53:00,METAR KMSY 161853Z 01007KT 10SM -RA BKN030 BKN080 25/21 A3009 RMK AO2 RAB40 SLP192 P0000 T02500211
2026-04-16 17:53:00,METAR KMSY 161753Z 01003KT 10SM SCT026 BKN033 BKN080 25/22 A3011 RMK AO2 RAB19E49 SLP199 P0000 60000 T02500217 10272 20211 58006
2026-04-16 16:53:00,METAR KMSY 161653Z 34005KT 10SM SCT036 BKN065 BKN080 26/21 A3012 RMK AO2 SLP202 T02560206
2026-04-16 15:53:00,METAR KMSY 161553Z 10004KT 10SM SCT024 SCT060 BKN075 27/20 A3013 RMK AO2 SLP205 T02670200
2026-04-16 14:53:00,METAR KMSY 161453Z COR 13005KT 10SM SCT022 BKN033 BKN075 26/19 A3013 RMK AO2 SLP205 T02560194 51015
2026-04-16 13:53:00,METAR KMSY 161353Z 13004KT 10SM FEW025 BKN080 BKN250 24/19 A3011 RMK AO2 SLP201 T02390194
2026-04-16 12:53:00,METAR KMSY 161253Z 11004KT 10SM FEW020 BKN070 BKN250 23/21 A3010 RMK AO2 SLP196 T02280206
2026-04-16 11:53:00,METAR KMSY 161153Z 11003KT 9SM FEW020 BKN070 BKN250 21/20 A3008 RMK AO2 SLP189 T02110200 10217 20206 53013
2026-04-16 10:53:00,METAR KMSY 161053Z 13005KT 10SM FEW013 SCT022 SCT150 22/20 A3007 RMK AO2 SLP184 T02170200
2026-04-16 09:53:00,METAR KMSY 160953Z 00000KT 10SM FEW023 FEW070 21/19 A3006 RMK AO2 SLP181 T02060189
2026-04-16 08:53:00,METAR KMSY 160853Z 11004KT 10SM FEW023 21/19 A3004 RMK AO2 SLP177 T02060189 53000
2026-04-16 07:53:00,METAR KMSY 160753Z 13003KT 10SM FEW028 FEW050 22/20 A3004 RMK AO2 SLP176 T02170200
2026-04-16 06:53:00,METAR KMSY 160653Z 15005KT 10SM FEW020 22/19 A3004 RMK AO2 SLP176 T02170194
2026-04-16 06:49:00,SPECI KMSY 160649Z 15006KT 10SM SCT018 22/19 A3004 RMK AO2
2026-04-16 06:19:00,SPECI KMSY 160619Z 14006KT 10SM BKN018 BKN023 22/19 A3005 RMK AO2 T02170194
2026-04-16 05:53:00,METAR KMSY 160553Z 17004KT 10SM FEW020 SCT026 21/19 A3006 RMK AO2 SLP180 T02110194 10250 20211 402780200 58009
2026-04-16 04:53:00,METAR KMSY 160453Z 14006KT 10SM FEW020 22/19 A3008 RMK AO2 SLP189 T02220194
2026-04-16 03:53:00,METAR KMSY 160353Z 15007KT 10SM FEW020 FEW065 22/19 A3008 RMK AO2 SLP190 T02220194
2026-04-16 02:53:00,METAR KMSY 160253Z 16005KT 10SM FEW030 FEW065 22/19 A3008 RMK AO2 SLP190 T02220189 53009
2026-04-16 01:53:00,METAR KMSY 160153Z 15007KT 10SM FEW025 SCT065 23/19 A3007 RMK AO2 SLP185 T02330189
2026-04-16 00:53:00,METAR KMSY 160053Z 15008KT 10SM FEW032 SCT060 SCT250 24/18 A3006 RMK AO2 SLP181 T02390183
2026-04-15 23:53:00,METAR KMSY 152353Z 18010KT 10SM FEW035 SCT075 SCT250 25/18 A3006 RMK AO2 SLP180 T02500183 10278 20250 55004
2026-04-15 22:53:00,METAR KMSY 152253Z 16009KT 10SM FEW042 SCT075 SCT250 26/17 A3005 RMK AO2 SLP178 T02610167
2026-04-15 21:53:00,METAR KMSY 152153Z 14010KT 10SM FEW035 SCT075 BKN250 27/17 A3005 RMK AO2 SLP180 T02670167
2026-04-15 20:53:00,METAR KMSY 152053Z 18013KT 10SM FEW035 SCT075 BKN250 28/14 A3007 RMK AO2 SLP184 T02780144 56014
2026-04-15 19:53:00,METAR KMSY 151953Z 17014G21KT 10SM FEW035 SCT075 BKN250 28/13 A3008 RMK AO2 SLP187 T02780133
2026-04-15 18:53:00,METAR KMSY 151853Z 17013KT 10SM FEW035 SCT075 BKN250 28/15 A3009 RMK AO2 SLP193 T02780150
2026-04-15 17:53:00,METAR KMSY 151753Z 16012G20KT 10SM FEW035 SCT075 BKN250 28/16 A3011 RMK AO2 SLP198 T02780156 10278 20206 50001
2026-04-15 16:53:00,METAR KMSY 151653Z 15012G20KT 10SM FEW030 BKN070 26/18 A3012 RMK AO2 SLP203 T02610178
2026-04-15 15:53:00,METAR KMSY 151553Z 16008KT 10SM FEW030 BKN049 OVC065 25/18 A3012 RMK AO2 SLP203 T02500183
2026-04-15 14:53:00,METAR KMSY 151453Z 15010KT 10SM FEW025 BKN055 OVC065 24/18 A3010 RMK AO2 SLP197 T02440183 53008
2026-04-15 13:53:00,METAR KMSY 151353Z 13010KT 10SM FEW025 BKN050 BKN250 24/19 A3009 RMK AO2 SLP193 T02390189
2026-04-15 12:53:00,METAR KMSY 151253Z 12010KT 10SM FEW025 FEW060 BKN250 22/19 A3009 RMK AO2 SLP192 T02220189
2026-04-15 12:12:00,SPECI KMSY 151212Z 12007KT 10SM SCT025 BKN060 BKN250 22/19 A3009 RMK AO2 T02170194
2026-04-15 12:01:00,SPECI KMSY 151201Z 12008KT 10SM BKN025 BKN060 21/19 A3008 RMK AO2 T02110194
2026-04-15 11:53:00,METAR KMSY 151153Z 13006KT 8SM SCT024 BKN060 BKN250 21/19 A3008 RMK AO2 SLP189 T02060189 10217 20200 53009
2026-04-15 10:53:00,METAR KMSY 151053Z 14004KT 10SM SCT026 BKN036 22/19 A3006 RMK AO2 SLP181 T02170194 $
2026-04-15 10:45:00,SPECI KMSY 151045Z 13005KT 10SM SCT026 BKN036 22/19 A3006 RMK AO2 T02170194 $
2026-04-15 09:53:00,METAR KMSY 150953Z 08004KT 10SM BKN026 BKN050 21/20 A3006 RMK AO2 SLP182 T02110200 $
2026-04-15 08:53:00,METAR KMSY 150853Z 00000KT 10SM FEW026 SCT250 21/19 A3005 RMK AO2 SLP180 T02060194 56013 $
2026-04-15 07:53:00,METAR KMSY 150753Z 13005KT 10SM FEW028 21/19 A3006 RMK AO2 SLP182 T02110194 $
2026-04-15 06:53:00,METAR KMSY 150653Z 12005KT 10SM CLR 21/19 A3007 RMK AO2 SLP184 T02060189 $
2026-04-15 05:53:00,METAR KMSY 150553Z 12009KT 10SM FEW028 21/18 A3009 RMK AO2 SLP193 T02060183 10244 20206 402720189 58009 $
2026-04-15 04:53:00,METAR KMSY 150453Z 13008KT 10SM FEW030 21/18 A3011 RMK AO2 SLP200 T02110178 $
2026-04-15 03:53:00,METAR KMSY 150353Z 13008KT 10SM FEW030 22/17 A3012 RMK AO2 SLP201 T02170172 $
2026-04-15 02:53:00,METAR KMSY 150253Z 12006KT 10SM FEW030 22/17 A3012 RMK AO2 SLP202 T02220172 53007 $
2026-04-15 01:53:00,METAR KMSY 150153Z 14007KT 10SM FEW030 SCT041 23/17 A3011 RMK AO2 SLP197 T02280172 $
2026-04-15 00:53:00,METAR KMSY 150053Z 14007KT 10SM FEW040 23/16 A3009 RMK AO2 SLP193 T02280161
2026-04-14 23:53:00,METAR KMSY 142353Z 15011KT 10SM SCT040 24/16 A3010 RMK AO2 SLP195 T02440161 10272 20244 56007
2026-04-14 22:53:00,METAR KMSY 142253Z 18010KT 10SM FEW040 26/17 A3010 RMK AO2 SLP197 T02560167
2026-04-14 21:53:00,METAR KMSY 142153Z 16011KT 10SM FEW039 26/17 A3011 RMK AO2 SLP199 T02610167
2026-04-14 20:53:00,METAR KMSY 142053Z 20009KT 10SM SCT039 27/17 A3012 RMK AO2 SLP202 T02670167 56014
2026-04-14 19:53:00,METAR KMSY 141953Z 19010KT 10SM SCT039 27/16 A3013 RMK AO2 SLP205 T02670161
2026-04-14 18:53:00,METAR KMSY 141853Z 19010KT 10SM SCT039 27/17 A3014 RMK AO2 SLP210 T02670167
2026-04-14 17:53:00,METAR KMSY 141753Z 19007KT 10SM SCT037 26/16 A3016 RMK AO2 SLP215 T02610161 10267 20200 58009
2026-04-14 16:53:00,METAR KMSY 141653Z 19010KT 10SM SCT038 26/17 A3017 RMK AO2 SLP221 T02610172
2026-04-14 15:53:00,METAR KMSY 141553Z 14008KT 10SM SCT032 26/16 A3018 RMK AO2 SLP224 T02560161
2026-04-14 14:53:00,METAR KMSY 141453Z 14010KT 10SM FEW027 24/17 A3018 RMK AO2 SLP224 T02440172 51013
2026-04-14 13:53:00,METAR KMSY 141353Z 13010KT 10SM FEW025 FEW250 23/18 A3017 RMK AO2 SLP221 T02280178
2026-04-14 12:53:00,METAR KMSY 141253Z 12009KT 10SM FEW025 FEW250 21/18 A3016 RMK AO2 SLP216 T02110178
2026-04-14 11:53:00,METAR KMSY 141153Z 13005KT 10SM FEW025 FEW250 20/18 A3015 RMK AO2 SLP211 T02000178 10206 20189 53008
2026-04-14 10:53:00,METAR KMSY 141053Z 15003KT 10SM SCT022 SCT250 19/18 A3013 RMK AO2 SLP207 T01890178
2026-04-14 09:53:00,METAR KMSY 140953Z 13003KT 10SM SCT024 SCT250 19/18 A3013 RMK AO2 SLP205 T01940183
2026-04-14 08:53:00,METAR KMSY 140853Z 14005KT 10SM FEW023 20/18 A3012 RMK AO2 SLP203 T02000183 56019
2026-04-14 07:53:00,METAR KMSY 140753Z 13009KT 10SM CLR 20/18 A3013 RMK AO2 SLP206 T02000183
2026-04-14 06:53:00,METAR KMSY 140653Z 13007KT 10SM CLR 21/18 A3015 RMK AO2 SLP213 T02060183
2026-04-14 05:53:00,METAR KMSY 140553Z 13007KT 10SM CLR 21/18 A3018 RMK AO2 SLP222 T02060183 10250 20206 402780189 58003
2026-04-14 04:53:00,METAR KMSY 140453Z 13009KT 10SM CLR 21/18 A3019 RMK AO2 SLP225 T02110183
2026-04-14 03:53:00,METAR KMSY 140353Z 13009KT 10SM CLR 22/18 A3019 RMK AO2 SLP226 T02170183
2026-04-14 02:53:00,METAR KMSY 140253Z 13008KT 10SM CLR 22/18 A3019 RMK AO2 SLP225 T02220178 53010
2026-04-14 01:53:00,METAR KMSY 140153Z 12010KT 10SM FEW032 SCT250 23/18 A3018 RMK AO2 SLP221 T02280183
2026-04-14 00:53:00,METAR KMSY 140053Z 13010KT 10SM FEW041 SCT250 24/18 A3016 RMK AO2 SLP216 T02390183
2026-04-13 23:53:00,METAR KMSY 132353Z 16007KT 10SM FEW042 25/17 A3016 RMK AO2 SLP214 T02500167 10278 20250 56009
2026-04-13 22:53:00,METAR KMSY 132253Z 16010KT 10SM FEW032 26/16 A3016 RMK AO2 SLP214 T02610156
2026-04-13 21:53:00,METAR KMSY 132153Z COR 15010KT 10SM FEW041 27/16 A3016 RMK AO2 SLP216 T02670161
2026-04-13 20:53:00,METAR KMSY 132053Z 17011KT 10SM FEW041 SCT250 27/16 A3018 RMK AO2 SLP223 T02670161 58017
2026-04-13 19:53:00,METAR KMSY 131953Z 16011G20KT 10SM FEW041 SCT250 28/17 A3020 RMK AO2 SLP230 T02780172
2026-04-13 18:53:00,METAR KMSY 131853Z COR 19012KT 10SM FEW041 SCT250 27/17 A3022 RMK AO2 SLP237 T02670172
2026-04-13 17:53:00,METAR KMSY 131753Z 16012G18KT 10SM SCT039 SCT250 27/17 A3023 RMK AO2 SLP240 T02670172 10267 20194 58008
2026-04-13 16:53:00,METAR KMSY 131653Z 15010G19KT 10SM SCT034 SCT250 26/17 A3025 RMK AO2 SLP246 T02610172
2026-04-13 15:53:00,METAR KMSY 131553Z 15009KT 10SM SCT029 SCT039 BKN250 26/18 A3027 RMK AO2 SLP252 T02560183
2026-04-13 15:40:00,SPECI KMSY 131540Z 16008G17KT 10SM BKN029 BKN044 BKN250 25/17 A3027 RMK AO2 T02500172
2026-04-13 14:53:00,METAR KMSY 131453Z 15012KT 10SM SCT023 SCT032 BKN250 24/18 A3026 RMK AO2 SLP249 T02440178 51025
2026-04-13 14:30:00,SPECI KMSY 131430Z 15009G18KT 10SM BKN023 BKN250 24/19 A3025 RMK AO2 T02440189
2026-04-13 13:53:00,METAR KMSY 131353Z 13009KT 10SM FEW025 FEW130 SCT250 23/19 A3024 RMK AO2 SLP242 T02330189
2026-04-13 12:53:00,METAR KMSY 131253Z 12009KT 10SM FEW020 FEW050 BKN250 21/18 A3021 RMK AO2 SLP232 T02110183
2026-04-13 11:53:00,METAR KMSY 131153Z 11009KT 10SM FEW022 FEW048 BKN250 19/18 A3018 RMK AO2 SLP224 T01940183 10211 20189 56002
2026-04-13 10:53:00,METAR KMSY 131053Z 15003KT 10SM SCT022 BKN250 20/18 A3018 RMK AO2 SLP224 T02000183
2026-04-13 10:08:00,SPECI KMSY 131008Z 11004KT 10SM SCT022 BKN250 19/18 A3018 RMK AO2 T01940183
2026-04-13 09:53:00,METAR KMSY 130953Z 12005KT 10SM BKN021 BKN250 21/18 A3018 RMK AO2 SLP222 T02060183
2026-04-13 08:53:00,METAR KMSY 130853Z 15004KT 10SM SCT021 BKN250 21/18 A3019 RMK AO2 SLP226 T02060183 58008
2026-04-13 08:42:00,SPECI KMSY 130842Z 13006KT 10SM BKN021 21/18 A3020 RMK AO2 T02060183
2026-04-13 07:53:00,METAR KMSY 130753Z 17003KT 10SM FEW021 SCT026 BKN032 21/18 A3021 RMK AO2 SLP234 T02060183
2026-04-13 06:53:00,METAR KMSY 130653Z 00000KT 10SM BKN023 21/18 A3021 RMK AO2 SLP234 T02060178
2026-04-13 05:53:00,METAR KMSY 130553Z 13007KT 10SM FEW020 SCT250 21/17 A3021 RMK AO2 SLP234 T02110172 10244 20211 402720172 50002
2026-04-13 04:53:00,METAR KMSY 130453Z 13010KT 10SM FEW024 SCT250 22/17 A3022 RMK AO2 SLP235 T02170172
2026-04-13 03:53:00,METAR KMSY 130353Z 13010KT 10SM FEW027 SCT250 22/17 A3021 RMK AO2 SLP232 T02170172
2026-04-13 02:53:00,METAR KMSY 130253Z 13009KT 10SM FEW025 SCT250 22/18 A3021 RMK AO2 SLP232 T02220178 53008
2026-04-13 01:53:00,METAR KMSY 130153Z 13008KT 10SM FEW030 SCT250 23/17 A3020 RMK AO2 SLP228 T02280172
2026-04-13 00:53:00,METAR KMSY 130053Z 15008KT 10SM FEW040 BKN250 23/17 A3019 RMK AO2 SLP224 T02330167
2026-04-12 23:53:00,METAR KMSY 122353Z 15010KT 10SM FEW040 BKN250 25/16 A3018 RMK AO2 SLP224 T02500161 10272 20244 56005
2026-04-12 22:53:00,METAR KMSY 122253Z 16012KT 10SM FEW045 BKN250 26/17 A3019 RMK AO2 SLP224 T02560167
2026-04-12 21:53:00,METAR KMSY 122153Z 14013KT 10SM FEW045 BKN250 27/16 A3019 RMK AO2 SLP226 T02670156
2026-04-12 20:53:00,METAR KMSY 122053Z 17012KT 10SM FEW045 BKN250 27/16 A3020 RMK AO2 SLP230 T02670161 58013
2026-04-12 19:53:00,METAR KMSY 121953Z 18013G20KT 10SM SCT042 BKN250 26/16 A3022 RMK AO2 SLP235 T02610161
2026-04-12 18:53:00,METAR KMSY 121853Z 17013KT 10SM SCT038 SCT045 BKN250 26/17 A3023 RMK AO2 SLP238 T02610167
2026-04-12 17:53:00,METAR KMSY 121753Z 14012G20KT 10SM FEW040 SCT048 BKN250 26/16 A3024 RMK AO2 SLP243 T02560161 10261 20178 58002
2026-04-12 16:53:00,METAR KMSY 121653Z 15014G22KT 10SM SCT040 BKN250 26/16 A3026 RMK AO2 SLP249 T02560156
2026-04-12 15:53:00,METAR KMSY 121553Z 14014KT 10SM BKN036 BKN250 25/16 A3027 RMK AO2 SLP251 T02500156
2026-04-12 14:53:00,METAR KMSY 121453Z 15013G20KT 10SM BKN033 BKN200 23/16 A3024 RMK AO2 SLP244 T02330156 51012
2026-04-12 13:53:00,METAR KMSY 121353Z 13010KT 10SM FEW020 SCT200 22/17 A3024 RMK AO2 SLP241 T02170167
2026-04-12 12:53:00,METAR KMSY 121253Z 11005KT 10SM FEW020 FEW200 19/17 A3022 RMK AO2 SLP237 T01940172
2026-04-12 11:53:00,METAR KMSY 121153Z 10006KT 10SM FEW020 FEW200 18/16 A3021 RMK AO2 SLP232 T01780161 10194 20172 53010
2026-04-12 10:53:00,METAR KMSY 121053Z 10008KT 10SM CLR 18/16 A3018 RMK AO2 SLP221 T01780161
2026-04-12 09:53:00,METAR KMSY 120953Z 10006KT 10SM CLR 18/17 A3017 RMK AO2 SLP220 T01830167
2026-04-12 08:53:00,METAR KMSY 120853Z 11005KT 10SM CLR 18/17 A3018 RMK AO2 SLP222 T01780167 55012
2026-04-12 07:53:00,METAR KMSY 120753Z 11005KT 10SM CLR 18/17 A3018 RMK AO2 SLP221 T01780167
2026-04-12 06:53:00,METAR KMSY 120653Z 15004KT 10SM CLR 19/18 A3020 RMK AO2 SLP230 T01890178
2026-04-12 05:53:00,METAR KMSY 120553Z 13007KT 10SM CLR 19/17 A3021 RMK AO2 SLP234 T01940172 10244 20194 402720161 56002
2026-04-12 04:53:00,METAR KMSY 120453Z 13008KT 10SM CLR 20/17 A3022 RMK AO2 SLP235 T02000167
2026-04-12 03:53:00,METAR KMSY 120353Z 14006KT 10SM CLR 21/16 A3022 RMK AO2 SLP235 T02060161
2026-04-12 02:53:00,METAR KMSY 120253Z 13007KT 10SM CLR 21/16 A3022 RMK AO2 SLP236 T02110161 53004
2026-04-12 01:53:00,METAR KMSY 120153Z 11007KT 10SM CLR 22/16 A3021 RMK AO2 SLP234 T02170156
2026-04-12 00:53:00,METAR KMSY 120053Z 13008KT 10SM FEW040 23/15 A3021 RMK AO2 SLP233 T02330150
2026-04-11 23:53:00,METAR KMSY 112353Z 11010KT 10SM FEW045 24/14 A3021 RMK AO2 SLP233 T02440144 10272 20244 56004
2026-04-11 22:53:00,METAR KMSY 112253Z 14011KT 10SM FEW050 26/14 A3021 RMK AO2 SLP233 T02610144
2026-04-11 21:53:00,METAR KMSY 112153Z 14010KT 10SM SCT050 26/14 A3021 RMK AO2 SLP234 T02610139
2026-04-11 20:53:00,METAR KMSY 112053Z 14011KT 10SM SCT045 27/15 A3022 RMK AO2 SLP237 T02670150 58016
2026-04-11 19:53:00,METAR KMSY 111953Z 13009KT 10SM SCT050 27/14 A3025 RMK AO2 SLP245 T02670144
2026-04-11 18:53:00,METAR KMSY 111853Z 13013G19KT 10SM SCT050 27/13 A3026 RMK AO2 SLP250 T02670133
2026-04-11 17:53:00,METAR KMSY 111753Z 14012G18KT 10SM SCT050 26/14 A3027 RMK AO2 SLP253 T02610139 10267 20194 58003
2026-04-11 16:53:00,METAR KMSY 111653Z 11009G21KT 10SM SCT045 26/14 A3029 RMK AO2 SLP259 T02610139
2026-04-11 15:53:00,METAR KMSY 111553Z 12013KT 10SM FEW040 26/14 A3029 RMK AO2 SLP261 T02560144
2026-04-11 14:53:00,METAR KMSY 111453Z 10009KT 10SM FEW020 FEW250 24/16 A3028 RMK AO2 SLP256 T02390156 53009
2026-04-11 13:53:00,METAR KMSY 111353Z 08008KT 10SM FEW008 21/18 A3026 RMK AO2 SLP250 T02110183
2026-04-11 12:53:00,METAR KMSY 111253Z 06007KT 10SM FEW005 20/19 A3026 RMK AO2 SLP250 T02000189
2026-04-11 12:20:00,SPECI KMSY 111220Z 05004KT 10SM SCT005 19/18 A3026 RMK AO2 T01940183
2026-04-11 12:00:00,SPECI KMSY 111200Z 04007KT 10SM BKN005 19/18 A3025 RMK AO2 T01940183
2026-04-11 11:53:00,METAR KMSY 111153Z 04005KT 10SM SCT005 SCT200 19/18 A3025 RMK AO2 SLP246 T01890183 10194 20161 53012
2026-04-11 11:24:00,SPECI KMSY 111124Z 03004KT 10SM SCT005 SCT200 18/18 A3024 RMK AO2 T01830178
2026-04-11 10:53:00,METAR KMSY 111053Z 04004KT 10SM FEW200 18/17 A3024 RMK AO2 SLP242 T01830172
2026-04-11 09:53:00,METAR KMSY 110953Z 02003KT 10SM CLR 17/17 A3023 RMK AO2 SLP239 T01720167
2026-04-11 09:22:00,SPECI KMSY 110922Z 00000KT 4SM BR FEW006 16/16 A3022 RMK AO2 T01610161
2026-04-11 09:13:00,SPECI KMSY 110913Z 00000KT 2SM BR FEW006 16/16 A3021 RMK AO2 TWR VIS 10 T01610156
2026-04-11 09:00:00,SPECI KMSY 110900Z 00000KT 3/4SM BR VV006 17/17 A3022 RMK AO2 T01670167 RVRNO
2026-04-11 08:58:00,SPECI KMSY 110858Z 00000KT 1 1/4SM BR CLR 17/17 A3022 RMK AO2 VIS 1/4V5 T01720167
2026-04-11 08:53:00,METAR KMSY 110853Z 00000KT 5SM BR CLR 16/16 A3022 RMK AO2 SLP235 T01610161 55006
2026-04-11 07:53:00,METAR KMSY 110753Z 00000KT 8SM CLR 17/17 A3022 RMK AO2 SLP234 T01720167
2026-04-11 06:53:00,METAR KMSY 110653Z 10003KT 9SM CLR 17/17 A3023 RMK AO2 SLP240 T01720167
2026-04-11 05:53:00,METAR KMSY 110553Z 00000KT 10SM CLR 18/17 A3023 RMK AO2 SLP241 T01830172 10222 20178 402610167 58008
2026-04-11 04:53:00,METAR KMSY 110453Z 05003KT 10SM FEW200 19/18 A3025 RMK AO2 SLP246 T01940178
2026-04-11 03:53:00,METAR KMSY 110353Z 11004KT 10SM FEW200 19/17 A3026 RMK AO2 SLP250 T01890172
2026-04-11 02:53:00,METAR KMSY 110253Z 10008KT 10SM FEW014 FEW120 20/18 A3026 RMK AO2 SLP249 T02000178 51014
2026-04-11 01:53:00,METAR KMSY 110153Z 10007KT 10SM FEW020 FEW060 FEW200 21/18 A3025 RMK AO2 SLP246 T02060178
2026-04-11 00:53:00,METAR KMSY 110053Z 11007KT 10SM FEW020 FEW065 BKN190 21/18 A3023 RMK AO2 SLP240 T02110178
2026-04-10 23:53:00,METAR KMSY 102353Z 12007KT 10SM FEW020 FEW065 SCT080 BKN200 22/17 A3022 RMK AO2 SLP235 60000 T02220172 10261 20222 53002
2026-04-10 22:53:00,METAR KMSY 102253Z 13012KT 10SM FEW035 FEW075 BKN250 23/17 A3020 RMK AO2 SLP230 T02330167
2026-04-10 21:53:00,METAR KMSY 102153Z 11010KT 10SM FEW030 FEW065 BKN075 BKN250 23/18 A3020 RMK AO2 SLP228 T02330178
2026-04-10 20:53:00,METAR KMSY 102053Z 10016KT 10SM FEW035 SCT065 BKN080 BKN250 23/18 A3021 RMK AO2 RAE01 SLP234 P0000 60000 T02330178 58015
2026-04-10 19:53:00,METAR KMSY 101953Z 11013KT 10SM -RA SCT025 BKN033 BKN060 BKN250 22/19 A3024 RMK AO2 PK WND 12027/1932 RAB37 SLP242 P0000 T02220194
2026-04-10 18:53:00,METAR KMSY 101853Z 10014G23KT 10SM SCT030 BKN065 BKN250 26/18 A3024 RMK AO2 SLP244 T02560178
2026-04-10 17:53:00,METAR KMSY 101753Z 07013G23KT 10SM SCT032 BKN250 25/18 A3026 RMK AO2 SLP248 TCU DSNT S T02500178 10256 20194 50001
2026-04-10 16:53:00,METAR KMSY 101653Z 08011KT 10SM SCT025 BKN032 BKN042 BKN250 24/18 A3027 RMK AO2 SLP252 T02440183
2026-04-10 16:18:00,SPECI KMSY 101618Z 11011KT 10SM SCT023 BKN035 BKN042 BKN250 24/18 A3027 RMK AO2 T02390183
2026-04-10 15:53:00,METAR KMSY 101553Z 10013G19KT 10SM BKN025 BKN030 BKN250 24/18 A3027 RMK AO2 SLP252 T02440178
2026-04-10 14:53:00,METAR KMSY 101453Z 09012G18KT 10SM SCT018 BKN025 BKN120 23/18 A3025 RMK AO2 SLP247 T02330183 51015
2026-04-10 14:44:00,SPECI KMSY 101444Z 09015KT 10SM SCT018 BKN025 BKN120 23/18 A3025 RMK AO2 T02280183
2026-04-10 13:53:00,METAR KMSY 101353Z 09012KT 10SM FEW015 SCT027 SCT250 22/18 A3024 RMK AO2 SLP242 T02220183
2026-04-10 12:53:00,METAR KMSY 101253Z 06007KT 10SM FEW012 SCT027 SCT250 20/18 A3023 RMK AO2 SLP239 T02000178
2026-04-10 12:31:00,SPECI KMSY 101231Z 07006KT 10SM SCT027 SCT250 19/18 A3022 RMK AO2 T01940178
2026-04-10 12:02:00,SPECI KMSY 101202Z 07005KT 10SM BKN028 19/18 A3021 RMK AO2 T01940178
2026-04-10 11:53:00,METAR KMSY 101153Z 07006KT 10SM FEW028 FEW120 SCT250 19/18 A3021 RMK AO2 SLP232 T01940178 10194 20167 51010
2026-04-10 10:53:00,METAR KMSY 101053Z 07005KT 10SM BKN055 19/18 A3020 RMK AO2 SLP229 T01940178 $
2026-04-10 09:53:00,METAR KMSY 100953Z 00000KT 10SM SCT055 BKN120 18/17 A3019 RMK AO2 SLP227 T01830172 $
2026-04-10 08:53:00,METAR KMSY 100853Z 07005KT 10SM SCT050 BKN180 19/17 A3018 RMK AO2 SLP222 T01890172 55009 $
2026-04-10 07:53:00,METAR KMSY 100753Z 07004KT 10SM SCT055 18/17 A3018 RMK AO2 SLP222 T01830167 $
2026-04-10 06:53:00,METAR KMSY 100653Z 06004KT 10SM FEW048 18/16 A3019 RMK AO2 SLP225 T01830161 $
2026-04-10 05:53:00,METAR KMSY 100553Z 08004KT 10SM CLR 18/16 A3021 RMK AO2 SLP231 T01780161 10206 20178 402330178 58007 $
2026-04-10 04:53:00,METAR KMSY 100453Z 07003KT 10SM CLR 19/16 A3021 RMK AO2 SLP234 T01890161
2026-04-10 03:53:00,METAR KMSY 100353Z 08003KT 10SM CLR 18/16 A3022 RMK AO2 SLP237 T01830161
2026-04-10 02:53:00,METAR KMSY 100253Z 10006KT 10SM CLR 19/16 A3023 RMK AO2 SLP238 T01890161 53008
2026-04-10 01:53:00,METAR KMSY 100153Z 10009KT 10SM FEW020 19/16 A3022 RMK AO2 SLP235 T01940156
2026-04-10 00:53:00,METAR KMSY 100053Z 11010KT 10SM FEW023 FEW250 20/16 A3021 RMK AO2 SLP232 T02000156
2026-04-09 23:53:00,METAR KMSY 092353Z 10012KT 10SM FEW028 SCT250 21/15 A3020 RMK AO2 SLP230 T02060150 10233 20206 55000
2026-04-09 22:53:00,METAR KMSY 092253Z 06011KT 10SM SCT032 SCT250 22/14 A3019 RMK AO2 SLP225 T02220144
2026-04-09 21:53:00,METAR KMSY 092153Z 07010G18KT 10SM FEW030 SCT042 SCT250 22/16 A3020 RMK AO2 SLP228 T02170156
2026-04-09 20:53:00,METAR KMSY 092053Z 07012KT 10SM FEW028 BKN042 23/15 A3020 RMK AO2 SLP230 T02280150 58010
2026-04-09 19:53:00,METAR KMSY 091953Z 08014G22KT 10SM SCT027 BKN040 22/15 A3022 RMK AO2 SLP235 T02170150
2026-04-09 18:53:00,METAR KMSY 091853Z 10013KT 10SM FEW025 BKN038 22/16 A3022 RMK AO2 SLP237 T02220156
2026-04-09 17:53:00,METAR KMSY 091753Z 09016KT 10SM FEW026 OVC037 22/16 A3023 RMK AO2 SLP240 T02220156 10228 20200 50002
2026-04-09 16:53:00,METAR KMSY 091653Z 08013KT 10SM OVC030 22/16 A3025 RMK AO2 SLP245 T02220156
2026-04-09 15:53:00,METAR KMSY 091553Z 08011KT 10SM BKN029 22/15 A3024 RMK AO2 SLP243 T02170150
2026-04-09 14:53:00,METAR KMSY 091453Z 09015G20KT 10SM OVC028 21/15 A3023 RMK AO2 SLP238 T02110150 51010
2026-04-09 13:53:00,METAR KMSY 091353Z 08012G20KT 10SM BKN023 BKN250 21/15 A3022 RMK AO2 SLP235 T02060150
2026-04-09 12:53:00,METAR KMSY 091253Z 09014G20KT 10SM FEW021 BKN028 BKN033 20/16 A3021 RMK AO2 SLP233 T02000156
2026-04-09 11:53:00,METAR KMSY 091153Z 08012G19KT 10SM BKN033 20/16 A3020 RMK AO2 SLP228 T02000161 10206 20189 53011
2026-04-09 10:53:00,METAR KMSY 091053Z 08011KT 10SM SCT023 OVC036 20/16 A3018 RMK AO2 SLP223 T02000156
2026-04-09 10:20:00,SPECI KMSY 091020Z 08010KT 10SM SCT021 BKN036 20/16 A3018 RMK AO2 T02000161
2026-04-09 09:53:00,METAR KMSY 090953Z 09009KT 10SM BKN025 19/16 A3017 RMK AO2 SLP219 T01940156
2026-04-09 09:20:00,SPECI KMSY 090920Z 09016G24KT 10SM BKN025 19/16 A3017 RMK AO2 T01940156
2026-04-09 08:53:00,METAR KMSY 090853Z 09012G21KT 10SM SCT025 SCT120 19/16 A3016 RMK AO2 SLP217 T01940156 56002
2026-04-09 08:00:00,SPECI KMSY 090800Z 10011KT 10SM BKN023 BKN029 20/16 A3016 RMK AO2 T02000156
2026-04-09 07:53:00,METAR KMSY 090753Z 09012G20KT 10SM SCT025 20/16 A3016 RMK AO2 SLP217 T02000156
2026-04-09 06:53:00,METAR KMSY 090653Z 09013KT 10SM CLR 20/15 A3017 RMK AO2 SLP218 T02000150
2026-04-09 05:53:00,METAR KMSY 090553Z 08010KT 10SM FEW060 FEW250 21/16 A3017 RMK AO2 SLP219 T02060156 10222 20189 402500122 51001
2026-04-09 04:53:00,METAR KMSY 090453Z 08006KT 10SM FEW070 19/15 A3017 RMK AO2 SLP218 T01940150
2026-04-09 03:53:00,METAR KMSY 090353Z 09005KT 10SM BKN065 20/15 A3017 RMK AO2 SLP220 T02000150
2026-04-09 02:53:00,METAR KMSY 090253Z 12007KT 10SM FEW080 19/14 A3017 RMK AO2 SLP218 T01940144 53012
2026-04-09 01:53:00,METAR KMSY 090153Z 11012KT 10SM FEW015 20/14 A3015 RMK AO2 SLP213 T02000144
2026-04-09 00:53:00,METAR KMSY 090053Z 09014KT 10SM FEW035 FEW080 21/15 A3014 RMK AO2 SLP208 T02110150
2026-04-08 23:53:00,METAR KMSY 082353Z 08011KT 10SM FEW035 SCT085 22/14 A3013 RMK AO2 SLP206 T02220144 10250 20217 53003
2026-04-08 22:53:00,METAR KMSY 082253Z 09017G23KT 10SM FEW040 BKN085 BKN250 23/13 A3013 RMK AO2 SLP205 T02280133
2026-04-08 21:53:00,METAR KMSY 082153Z 08015G21KT 10SM FEW045 BKN060 BKN250 24/13 A3012 RMK AO2 SLP202 T02390128
2026-04-08 20:53:00,METAR KMSY 082053Z 08014G21KT 10SM FEW045 FEW065 FEW250 24/13 A3012 RMK AO2 PK WND 10026/2036 SLP203 T02440128 56011
2026-04-08 19:53:00,METAR KMSY 081953Z 07014G24KT 10SM FEW045 FEW080 BKN250 24/12 A3013 RMK AO2 SLP206 T02440122
2026-04-08 18:53:00,METAR KMSY 081853Z 09014G22KT 10SM FEW045 FEW080 BKN250 25/12 A3014 RMK AO2 SLP210 T02500117
2026-04-08 17:53:00,METAR KMSY 081753Z 08015G22KT 10SM SCT036 SCT080 BKN250 24/14 A3016 RMK AO2 SLP214 T02390139 10244 20178 58001
2026-04-08 16:53:00,METAR KMSY 081653Z 09016G23KT 10SM FEW042 BKN230 24/13 A3017 RMK AO2 SLP218 T02440133
2026-04-08 15:53:00,METAR KMSY 081553Z 09012G23KT 10SM FEW043 BKN250 23/12 A3017 RMK AO2 PK WND 10026/1542 SLP218 T02330122
2026-04-08 14:53:00,METAR KMSY 081453Z 08015KT 10SM FEW033 SCT200 23/13 A3016 RMK AO2 SLP215 T02280133 52015
2026-04-08 13:53:00,METAR KMSY 081353Z 10013G19KT 10SM FEW250 21/16 A3014 RMK AO2 SLP210 T02110156
2026-04-08 12:53:00,METAR KMSY 081253Z 08005KT 10SM SCT200 18/13 A3013 RMK AO2 SLP205 T01830133 $
2026-04-08 11:53:00,METAR KMSY 081153Z VRB03KT 10SM BKN200 17/12 A3011 RMK AO2 SLP200 T01720122 10183 20122 53013 $
2026-04-08 10:53:00,METAR KMSY 081053Z 02004KT 10SM SCT250 17/12 A3009 RMK AO2 SLP192 T01720122 $
2026-04-08 09:53:00,METAR KMSY 080953Z 03004KT 10SM SCT250 17/12 A3008 RMK AO2 SLP189 T01720122 $
2026-04-08 08:53:00,METAR KMSY 080853Z 00000KT 10SM FEW250 14/13 A3008 RMK AO2 SLP187 T01440128 56009 $
2026-04-08 07:53:00,METAR KMSY 080753Z 00000KT 10SM CLR 14/13 A3008 RMK AO2 SLP188 T01390128 $
2026-04-08 06:53:00,METAR KMSY 080653Z 00000KT 10SM CLR 14/12 A3009 RMK AO2 SLP192 T01390117
2026-04-08 05:53:00,METAR KMSY 080553Z 00000KT 10SM CLR 13/10 A3010 RMK AO2 SLP196 T01330100 10228 20133 402440133 50002
2026-04-08 04:53:00,METAR KMSY 080453Z 07003KT 10SM CLR 15/10 A3010 RMK AO2 SLP197 T01500100
2026-04-08 03:53:00,METAR KMSY 080353Z 00000KT 10SM CLR 15/10 A3011 RMK AO2 SLP198 T01500100
2026-04-08 02:53:00,METAR KMSY 080253Z 00000KT 10SM CLR 16/10 A3010 RMK AO2 SLP194 T01610100 53014
2026-04-08 01:53:00,METAR KMSY 080153Z 00000KT 10SM SCT250 19/08 A3008 RMK AO2 SLP188 T01890078
2026-04-08 00:53:00,METAR KMSY 080053Z 00000KT 10SM BKN250 21/04 A3006 RMK AO2 SLP183 T02060044
2026-04-07 23:53:00,METAR KMSY 072353Z 09005KT 10SM BKN150 22/03 A3006 RMK AO2 SLP181 T02220033 10244 20217 55004
2026-04-07 22:53:00,METAR KMSY 072253Z 10008KT 10SM SCT180 BKN250 23/02 A3005 RMK AO2 SLP177 T02330017
2026-04-07 21:53:00,METAR KMSY 072153Z 09012KT 10SM FEW180 SCT250 24/M06 A3005 RMK AO2 SLP180 T02441056
2026-04-07 20:53:00,METAR KMSY 072053Z 10015KT 10SM FEW180 SCT250 24/M05 A3007 RMK AO2 SLP184 T02441050 56017
2026-04-07 19:53:00,METAR KMSY 071953Z 06013G20KT 10SM SCT250 23/03 A3009 RMK AO2 SLP191 T02330028
2026-04-07 18:53:00,METAR KMSY 071853Z 05012G21KT 10SM SCT250 23/02 A3010 RMK AO2 PK WND 04026/1838 SLP194 T02280022
2026-04-07 17:53:00,METAR KMSY 071753Z 03015G21KT 10SM SCT250 22/05 A3012 RMK AO2 SLP201 T02220050 10222 20150 58005
2026-04-07 16:53:00,METAR KMSY 071653Z 06011G19KT 10SM BKN250 21/08 A3013 RMK AO2 SLP207 T02060078
2026-04-07 15:53:00,METAR KMSY 071553Z 05012G20KT 10SM BKN250 19/07 A3013 RMK AO2 SLP206 T01940072
2026-04-07 14:53:00,METAR KMSY 071453Z 07014G20KT 10SM BKN250 18/08 A3013 RMK AO2 SLP206 T01780078 53007
2026-04-07 13:53:00,METAR KMSY 071353Z 05009KT 10SM BKN250 17/08 A3012 RMK AO2 SLP203 T01670083
2026-04-07 12:53:00,METAR KMSY 071253Z 04007KT 350V060 10SM BKN250 16/08 A3012 RMK AO2 SLP201 T01610078
2026-04-07 11:53:00,METAR KMSY 071153Z 06007KT 10SM BKN250 15/07 A3011 RMK AO2 SLP199 T01500072 10167 20150 53001
2026-04-07 10:53:00,METAR KMSY 071053Z 06010KT 10SM FEW250 15/06 A3010 RMK AO2 SLP197 T01500061
2026-04-07 09:53:00,METAR KMSY 070953Z 06008G17KT 10SM FEW250 16/07 A3010 RMK AO2 SLP194 T01560067
2026-04-07 08:53:00,METAR KMSY 070853Z 06010KT 10SM CLR 16/06 A3011 RMK AO2 SLP197 T01610061 56009
2026-04-07 07:53:00,METAR KMSY 070753Z 04010G19KT 10SM CLR 16/06 A3011 RMK AO2 SLP198 T01610061
2026-04-07 06:53:00,METAR KMSY 070653Z 04012G21KT 10SM CLR 17/06 A3012 RMK AO2 SLP203 T01670061
2026-04-07 05:53:00,METAR KMSY 070553Z 04009KT 10SM CLR 17/06 A3013 RMK AO2 SLP207 T01670061 10189 20167 402000156 56005
2026-04-07 04:53:00,METAR KMSY 070453Z 04012G21KT 10SM CLR 17/06 A3014 RMK AO2 SLP208 T01670056
2026-04-07 03:53:00,METAR KMSY 070353Z 03008KT 10SM CLR 17/06 A3014 RMK AO2 PK WND 04027/0302 SLP209 T01670056
2026-04-07 02:53:00,METAR KMSY 070253Z 04012G22KT 10SM CLR 17/03 A3015 RMK AO2 SLP212 T01720033 51013
2026-04-07 01:53:00,METAR KMSY 070153Z 04014G20KT 10SM CLR 18/03 A3014 RMK AO2 SLP209 T01780028
2026-04-07 00:53:00,METAR KMSY 070053Z 03008KT 10SM FEW250 18/04 A3012 RMK AO2 SLP202 T01830044
2026-04-06 23:53:00,METAR KMSY 062353Z 02009G17KT 10SM FEW150 SCT250 19/04 A3011 RMK AO2 SLP199 T01890044 10200 20167 55004
2026-04-06 22:53:00,METAR KMSY 062253Z 01007KT 10SM FEW150 SCT250 20/04 A3010 RMK AO2 SLP197 T02000044
2026-04-06 21:53:00,METAR KMSY 062153Z 02009KT 10SM FEW120 SCT150 BKN250 19/04 A3011 RMK AO2 SLP198 T01940044
2026-04-06 20:53:00,METAR KMSY 062053Z 35009KT 10SM BKN150 BKN250 19/05 A3012 RMK AO2 SLP202 T01890050 58019
2026-04-06 19:53:00,METAR KMSY 061953Z 02010G18KT 10SM FEW120 BKN150 BKN250 18/05 A3014 RMK AO2 SLP210 T01830050
2026-04-06 18:53:00,METAR KMSY 061853Z 36008KT 10SM FEW120 BKN150 BKN250 17/05 A3017 RMK AO2 SLP219 T01720050
2026-04-06 17:53:00,METAR KMSY 061753Z 01011G20KT 10SM FEW120 BKN150 BKN250 17/05 A3018 RMK AO2 SLP222 T01670050 10167 20156 58003
2026-04-06 16:53:00,METAR KMSY 061653Z 04014G22KT 10SM FEW120 OVC150 16/04 A3019 RMK AO2 SLP226 T01610044
2026-04-06 15:53:00,METAR KMSY 061553Z 03013G24KT 10SM SCT120 OVC140 16/04 A3021 RMK AO2 PK WND 04027/1458 SLP232 T01610039
2026-04-06 14:53:00,METAR KMSY 061453Z COR 04016G26KT 10SM FEW120 OVC150 16/05 A3019 RMK AO2 PK WND 05027/1440 SLP225 T01610050 51008
2026-04-06 13:53:00,METAR KMSY 061353Z 03013G26KT 10SM BKN120 OVC140 16/06 A3018 RMK AO2 PK WND 05027/1328 SLP223 T01610061
2026-04-06 12:53:00,METAR KMSY 061253Z 04014G24KT 10SM FEW090 OVC110 16/07 A3018 RMK AO2 SLP222 T01610067
2026-04-06 11:53:00,METAR KMSY 061153Z 04011G20KT 10SM FEW060 OVC120 17/07 A3016 RMK AO2 SLP217 70043 T01670072 10178 20167 53006 $
2026-04-06 10:53:00,METAR KMSY 061053Z 04014G22KT 10SM FEW110 17/07 A3015 RMK AO2 SLP212 T01670067 $
2026-04-06 09:53:00,METAR KMSY 060953Z 03012G19KT 10SM BKN090 OVC110 17/08 A3016 RMK AO2 SLP214 T01670078 $
2026-04-06 08:53:00,METAR KMSY 060853Z 03011G23KT 10SM BKN110 17/08 A3014 RMK AO2 SLP210 T01720078 56006 $
2026-04-06 07:53:00,METAR KMSY 060753Z 02012G23KT 10SM FEW040 BKN200 17/08 A3015 RMK AO2 SLP212 T01720083 $
2026-04-06 06:53:00,METAR KMSY 060653Z 03011G20KT 10SM FEW045 BKN200 17/09 A3015 RMK AO2 SLP213 T01720094 $
2026-04-06 05:53:00,METAR KMSY 060553Z 02009G16KT 10SM BKN200 18/10 A3016 RMK AO2 SLP216 T01780100 10206 20178 402220178 51001 $
2026-04-06 04:53:00,METAR KMSY 060453Z 01011G17KT 10SM FEW080 FEW200 18/10 A3016 RMK AO2 SLP216 T01780100 $
2026-04-06 03:53:00,METAR KMSY 060353Z 01013G20KT 10SM FEW080 BKN200 18/11 A3016 RMK AO2 SLP216 T01830111 $
2026-04-06 02:53:00,METAR KMSY 060253Z 36011G18KT 10SM FEW085 BKN190 19/12 A3016 RMK AO2 SLP216 T01890117 51018 $
2026-04-06 01:53:00,METAR KMSY 060153Z 36011G21KT 10SM FEW030 FEW085 BKN180 19/11 A3015 RMK AO2 SLP211 T01940111 $
2026-04-06 00:53:00,METAR KMSY 060053Z 35014G23KT 10SM BKN030 BKN085 19/13 A3013 RMK AO2 SLP205 T01940128 $
2026-04-05 23:53:00,METAR KMSY 052353Z 36011G20KT 10SM OVC027 21/16 A3011 RMK AO2 SLP197 60000 T02060156 10211 20183 55003 $
2026-04-05 22:53:00,METAR KMSY 052253Z 36007KT 10SM BKN024 OVC029 21/17 A3010 RMK AO2 DZE07 SLP196 P0000 T02060167 $
2026-04-05 21:53:00,METAR KMSY 052153Z 02005KT 6SM -DZ BR OVC023 19/17 A3011 RMK AO2 RAB01E11B41E44DZB44 SLP199 P0000 T01890172 $
2026-04-05 20:53:00,METAR KMSY 052053Z 36009G17KT 10SM BKN019 OVC028 19/16 A3011 RMK AO2 RAB06E16 SLP200 P0000 60000 T01940161 56012 $
2026-04-05 19:53:00,METAR KMSY 051953Z 36012KT 10SM OVC016 19/16 A3012 RMK AO2 RAE51 SLP203 P0000 T01890161 $
2026-04-05 19:16:00,SPECI KMSY 051916Z 02012G19KT 10SM -RA OVC015 19/16 A3013 RMK AO2 P0000 T01890161 $
2026-04-05 18:53:00,METAR KMSY 051853Z 36012G18KT 10SM -RA OVC013 19/16 A3013 RMK AO2 DZE04RAB31 SLP207 P0000 T01890161 $
2026-04-05 18:23:00,SPECI KMSY 051823Z 35009G17KT 10SM OVC011 19/17 A3015 RMK AO2 DZE04 P0000 T01890167 $
2026-04-05 18:08:00,SPECI KMSY 051808Z 34009G19KT 10SM OVC009 19/17 A3015 RMK AO2 DZE04 P0000 T01890167 $
2026-04-05 17:53:00,METAR KMSY 051753Z 34011G18KT 10SM -DZ OVC010 19/17 A3015 RMK AO2 RAB39E50DZB52 SLP212 P0000 60043 T01890172 10217 20189 51010 $
2026-04-05 16:53:00,METAR KMSY 051653Z 36008KT 10SM SCT008 OVC012 20/18 A3014 RMK AO2 RAE49 SLP211 P0002 T02000183 $
2026-04-05 16:08:00,SPECI KMSY 051608Z 35008KT 3SM -RA BR BKN007 BKN012 OVC038 20/19 A3014 RMK AO2 P0001 T02000194 $
2026-04-05 15:53:00,METAR KMSY 051553Z 01010G19KT 2SM -RA BR SCT009 BKN012 OVC032 21/19 A3014 RMK AO2 RAE1459B03 SLP209 P0005 T02060189 $
2026-04-05 15:43:00,SPECI KMSY 051543Z 36008G16KT 2SM -RA BR BKN007 OVC013 21/19 A3014 RMK AO2 RAE1459B03 P0003 T02060194 $
2026-04-05 15:02:00,SPECI KMSY 051502Z 02008KT 9SM BKN007 BKN014 OVC055 21/20 A3012 RMK AO2 RAE1459 P0001 T02110200 $
2026-04-05 14:57:00,SPECI KMSY 051457Z 01008KT 7SM -RA SCT007 BKN021 OVC055 21/20 A3012 RMK AO2 P0000 T02110200 $
2026-04-05 14:53:00,METAR KMSY 051453Z 02007KT 4SM -RA BR FEW007 BKN040 OVC055 21/20 A3012 RMK AO2 SLP203 P0010 60036 T02110200 51015 $
2026-04-05 12:53:00,METAR KMSY 051253Z 35007KT 10SM -RA BKN013 BKN046 OVC120 22/20 A3010 RMK AO2 RAB53 SLP194 P0000 T02170200 $
2026-04-05 12:28:00,SPECI KMSY 051228Z 01006KT 10SM SCT013 OVC120 21/19 A3008 RMK AO2 T02110194 $
2026-04-05 11:53:00,METAR KMSY 051153Z 36005KT 6SM BR BKN010 BKN048 OVC120 21/20 A3008 RMK AO2 RAE16 SLP188 P0004 60048 70061 T02110200 10222 20206 51010 $
2026-04-05 11:20:00,SPECI KMSY 051120Z 01006KT 6SM BR BKN010 BKN048 OVC120 21/20 A3007 RMK AO2 RAE16 P0004 T02110200 $
2026-04-05 10:53:00,METAR KMSY 051053Z 01007KT 4SM RA BR BKN009 BKN020 OVC045 21/20 A3007 RMK AO2 SLP184 CB DSNT E P0026 T02110200 $
2026-04-05 10:02:00,SPECI KMSY 051002Z 02006KT 3SM RA BR BKN008 BKN015CB OVC030 21/20 A3007 RMK AO2 CB OHD MOV E P0012 T02060200 $
2026-04-05 09:53:00,METAR KMSY 050953Z COR 01007KT 2SM RA BR BKN008 OVC017CB 21/20 A3006 RMK AO2 RAB28 SLP183 CB OHD MOV E P0018 T02110200 $
2026-04-05 09:46:00,SPECI KMSY 050946Z 34007G14KT 2SM RA BR BKN008 OVC017CB 21/21 A3006 RMK AO2 RAB28 TSB34E36 CB OHD MOV E P0006 T02110206 $
2026-04-05 09:44:00,SPECI KMSY 050944Z COR 33007G14KT 2SM RA BR BKN006 BKN010 OVC017CB 21/21 A3006 RMK AO2 RAB28 TSB34E36 CB OHD MOV E T02110206 PNO $
2026-04-05 09:31:00,SPECI KMSY 050931Z 34008KT 10SM -RA SCT008 BKN017 OVC085 22/21 A3005 RMK AO2 RAB28 P0000 T02170206 $
2026-04-05 08:53:00,METAR KMSY 050853Z COR 15003KT 10SM FEW030 BKN090 22/22 A3005 RMK AO2 OCNL LTGIC DSNT NW CB DSNT NW SLP177 T02220217 56015 $
2026-04-05 07:53:00,METAR KMSY 050753Z 00000KT 7SM FEW030 SCT085 22/22 A3005 RMK AO2 SLP179 T02220217 $
2026-04-05 06:53:00,METAR KMSY 050653Z 15004KT 10SM SCT012 SCT030 BKN085 22/21 A3006 RMK AO2 SLP182 OCNL LTGIC DSNT NW CB DSNT NW T02220211 $
2026-04-05 05:53:00,METAR KMSY 050553Z 00000KT 10SM SCT030 BKN200 22/21 A3009 RMK AO2 SLP192 60001 T02170206 10239 20217 402830217 58003 $
2026-04-05 04:53:00,METAR KMSY 050453Z COR 14005KT 10SM FEW020 SCT150 BKN250 22/21 A3010 RMK AO2 SLP194 T02220206 $
2026-04-05 03:53:00,METAR KMSY 050353Z 15003KT 10SM FEW030 BKN200 22/21 A3010 RMK AO2 SLP194 OCNL LTGIC DSNT NE CB DSNT NE T02220206 $
2026-04-05 02:53:00,METAR KMSY 050253Z 15003KT 10SM FEW015 FEW030 SCT120 23/21 A3010 RMK AO2 SLP195 OCNL LTGIC DSNT S CB DSNT SE AND S 60001 T02280206 53015 $
2026-04-05 01:53:00,METAR KMSY 050153Z 14006KT 10SM FEW018 SCT025 SCT110 BKN200 23/21 A3008 RMK AO2 SLP188 OCNL LTGIC DSNT NE CB DSNT NE AND SE T02330211 $
2026-04-05 00:53:00,METAR KMSY 050053Z 13008KT 10SM FEW025 SCT060 BKN190 23/21 A3006 RMK AO2 RAE02 SLP182 CB DSNT E-SE TCU DSNT S P0001 T02280206 $
2026-04-05 00:11:00,SPECI KMSY 050011Z 16006KT 10SM FEW020 SCT030 BKN042 BKN250 24/22 A3006 RMK AO2 RAE02 OCNL LTGCG DSNT SE CB DSNT N AND SE TCU DSNT S AND SW P0001 T02390217 $
2026-04-04 23:53:00,METAR KMSY 042353Z 15006KT 10SM -RA FEW015 SCT028TCU BKN100 BKN250 24/22 A3006 RMK AO2 RAB18 SLP180 CB DSNT N TCU S DSNT SW P0012 60012 T02390222 10283 20233 53004 $
2026-04-04 22:53:00,METAR KMSY 042253Z 17011G21KT 10SM FEW025 SCT065 SCT190 BKN250 27/21 A3004 RMK AO2 SLP176 CB DSNT NW-N T02670211 $
2026-04-04 21:53:00,METAR KMSY 042153Z 15014G20KT 10SM FEW030 FEW070 BKN250 27/20 A3004 RMK AO2 SLP175 CB DSNT NW TCU DSNT W SHRA DSNT W T02670200 $
2026-04-04 20:53:00,METAR KMSY 042053Z 16012G20KT 10SM FEW030 SCT065 SCT150 BKN250 28/20 A3004 RMK AO2 SLP177 CB DSNT W T02830200 58019 $
2026-04-04 19:53:00,METAR KMSY 041953Z 15013KT 10SM FEW025 FEW032 FEW055 SCT180 BKN250 27/19 A3006 RMK AO2 SLP184 CB DSNT W AND NW T02670194 $
2026-04-04 18:53:00,METAR KMSY 041853Z 15012KT 10SM FEW032 FEW065 BKN250 27/20 A3009 RMK AO2 SLP193 CB DSNT W AND NW T02670200 $
2026-04-04 17:53:00,METAR KMSY 041753Z 15013KT 10SM FEW030 SCT060 BKN180 28/19 A3010 RMK AO2 SLP195 CB DSNT SW-W T02780194 10283 20228 58002 $
2026-04-04 16:53:00,METAR KMSY 041653Z 15014KT 10SM SCT028 BKN035 BKN055 BKN180 28/19 A3011 RMK AO2 SLP197 T02780194 $
2026-04-04 15:53:00,METAR KMSY 041553Z 14013G21KT 10SM FEW026 BKN048 BKN180 27/20 A3011 RMK AO2 SLP198 T02670200 $
2026-04-04 15:31:00,SPECI KMSY 041531Z 14014G21KT 10SM FEW022 SCT029 BKN034 BKN180 27/21 A3011 RMK AO2 T02670206 $
2026-04-04 14:53:00,METAR KMSY 041453Z 14012KT 10SM SCT018 SCT023 BKN028 BKN180 26/21 A3011 RMK AO2 SLP198 T02560206 51004 $
2026-04-04 13:53:00,METAR KMSY 041353Z 12011KT 10SM BKN016 BKN025 BKN180 24/21 A3010 RMK AO2 SLP196 T02440211 $
2026-04-04 12:53:00,METAR KMSY 041253Z 12009KT 9SM SCT016 BKN024 BKN030 BKN180 23/21 A3011 RMK AO2 SLP199 T02330211 $
2026-04-04 11:53:00,METAR KMSY 041153Z 14005KT 10SM BKN018 BKN025 23/21 A3010 RMK AO2 SLP194 T02280211 10228 20228 53013 $
2026-04-04 10:53:00,METAR KMSY 041053Z 12008KT 10SM BKN017 OVC023 23/21 A3008 RMK AO2 SLP189 T02280211
2026-04-04 09:53:00,METAR KMSY 040953Z 13008KT 9SM OVC027 23/21 A3006 RMK AO2 SLP181 T02280211
2026-04-04 09:01:00,SPECI KMSY 040901Z 13006KT 9SM BKN021 23/21 A3006 RMK AO2 T02280211
2026-04-04 08:53:00,METAR KMSY 040853Z 13009KT 9SM FEW012 SCT023 23/21 A3006 RMK AO2 SLP181 T02280211 56010
2026-04-04 07:53:00,METAR KMSY 040753Z 13008KT 10SM FEW017 SCT026 23/21 A3007 RMK AO2 SLP186 T02280211
2026-04-04 07:50:00,SPECI KMSY 040750Z 13008KT 10SM SCT025 23/21 A3007 RMK AO2
2026-04-04 06:53:00,METAR KMSY 040653Z 13008KT 10SM OVC025 23/21 A3009 RMK AO2 SLP192 T02280211
2026-04-04 05:53:00,METAR KMSY 040553Z 13010KT 10SM SCT012 SCT018 OVC023 23/21 A3010 RMK AO2 SLP195 T02280211 10250 20228 402890211 58006
2026-04-04 05:00:00,SPECI KMSY 040500Z 12008KT 10SM FEW012 SCT021 23/21 A3011 RMK AO2 T02280211
2026-04-04 04:53:00,METAR KMSY 040453Z 12007KT 10SM FEW015 BKN025 23/21 A3011 RMK AO2 SLP200 T02330211
2026-04-04 03:53:00,METAR KMSY 040353Z 11008KT 10SM SCT017 BKN025 23/21 A3011 RMK AO2 SLP200 T02330211
2026-04-04 02:53:00,METAR KMSY 040253Z 11008KT 10SM FEW025 FEW250 23/21 A3011 RMK AO2 SLP200 T02330206 53008
2026-04-04 01:53:00,METAR KMSY 040153Z 11012KT 10SM FEW020 FEW250 23/21 A3010 RMK AO2 SLP197 T02330206
2026-04-04 00:53:00,METAR KMSY 040053Z 12013KT 10SM FEW022 SCT250 24/21 A3009 RMK AO2 SLP193 T02390206
2026-04-03 23:53:00,METAR KMSY 032353Z 11014KT 10SM FEW026 FEW090 SCT250 25/20 A3009 RMK AO2 SLP193 T02500200 10283 20250 57002
2026-04-03 22:53:00,METAR KMSY 032253Z 13014KT 10SM FEW025 FEW032 SCT080 BKN250 27/19 A3009 RMK AO2 SLP193 T02670194
2026-04-03 21:53:00,METAR KMSY 032153Z 13012KT 10SM SCT032 SCT090 BKN250 27/20 A3010 RMK AO2 SLP195 T02720200
2026-04-03 20:53:00,METAR KMSY 032053Z 14013G22KT 10SM SCT032 BKN250 27/19 A3010 RMK AO2 SLP195 T02720194 58012
2026-04-03 19:53:00,METAR KMSY 031953Z 12016G27KT 10SM SCT030 SCT040 SCT100 SCT250 28/19 A3011 RMK AO2 PK WND 11027/1945 SLP200 CB DSNT W T02780189
2026-04-03 18:53:00,METAR KMSY 031853Z 14013G20KT 10SM FEW029 SCT036 SCT080 BKN250 28/19 A3013 RMK AO2 SLP205 T02780194
2026-04-03 17:53:00,METAR KMSY 031753Z 10014G20KT 10SM SCT030 BKN055 BKN250 29/20 A3013 RMK AO2 SLP206 T02890200 10289 20217 58004
2026-04-03 17:00:00,SPECI KMSY 031700Z 11011KT 10SM SCT030 BKN039 BKN060 BKN150 27/20 A3015 RMK AO2 T02720200
2026-04-03 16:53:00,METAR KMSY 031653Z 12013KT 10SM BKN027 BKN036 BKN042 BKN150 27/19 A3015 RMK AO2 SLP212 T02670194
2026-04-03 15:53:00,METAR KMSY 031553Z 10008G16KT 10SM BKN021 BKN042 BKN150 BKN250 26/20 A3015 RMK AO2 SLP214 T02560200
2026-04-03 14:53:00,METAR KMSY 031453Z 11009KT 10SM BKN015 BKN031 BKN150 24/21 A3014 RMK AO2 SLP210 T02440206 51020
2026-04-03 14:45:00,SPECI KMSY 031445Z 11011KT 10SM BKN015 BKN031 BKN150 24/21 A3014 RMK AO2 T02390206
2026-04-03 13:53:00,METAR KMSY 031353Z 11008KT 10SM FEW010 FEW030 BKN150 23/21 A3012 RMK AO2 SLP204 T02280206
2026-04-03 12:53:00,METAR KMSY 031253Z 11009KT 10SM FEW015 BKN180 BKN250 22/21 A3011 RMK AO2 SLP199 T02220206
2026-04-03 11:53:00,METAR KMSY 031153Z 13006KT 10SM FEW015 BKN250 22/20 A3008 RMK AO2 SLP190 T02170200 10222 20211 53009
2026-04-03 08:53:00,METAR KMSY 030853Z 11008KT 10SM FEW013 BKN200 22/21 A3006 RMK AO2 SLP181 T02170206 58006
2026-04-03 05:53:00,METAR KMSY 030553Z 13008KT 10SM FEW012 SCT200 22/21 A3008 RMK AO2 SLP188 T02220206 10250 20222 402890211 53007
2026-04-03 04:53:00,METAR KMSY 030453Z 13011KT 10SM FEW013 BKN180 23/21 A3007 RMK AO2 SLP185 T02280206
2026-04-03 03:53:00,METAR KMSY 030353Z 13012KT 10SM FEW012 BKN200 23/21 A3006 RMK AO2 SLP181 T02280206
2026-04-03 02:53:00,METAR KMSY 030253Z 13013KT 10SM SCT032 BKN220 23/21 A3006 RMK AO2 SLP181 T02330206 51004
2026-04-03 01:53:00,METAR KMSY 030153Z 13013KT 10SM FEW020 SCT033 OVC250 23/21 A3006 RMK AO2 SLP181 T02330206
2026-04-03 00:53:00,METAR KMSY 030053Z 13009KT 10SM FEW020 FEW035 SCT160 BKN230 24/21 A3005 RMK AO2 SLP179 CB DSNT N T02440206
2026-04-02 23:53:00,METAR KMSY 022353Z 15012KT 10SM FEW025 SCT055 SCT110 BKN180 25/21 A3004 RMK AO2 SLP176 CB DSNT NW TCU DSNT SW T02500206 10289 20250 53003
2026-04-02 22:53:00,METAR KMSY 022253Z 15014KT 10SM SCT025 SCT050 SCT110 BKN250 26/20 A3004 RMK AO2 SLP175 CB DSNT SW AND W AND NW T02610200
2026-04-02 21:53:00,METAR KMSY 022153Z 16011G21KT 10SM SCT028 SCT085 BKN250 28/20 A3003 RMK AO2 SLP173 CB DSNT SW AND NW T02830200
2026-04-02 20:53:00,METAR KMSY 022053Z 15013G20KT 10SM SCT030 BKN250 28/20 A3003 RMK AO2 SLP173 CB DSNT SW AND NW T02830200 58018
2026-04-02 19:53:00,METAR KMSY 021953Z 16011KT 10SM SCT030 BKN250 27/20 A3005 RMK AO2 SLP179 CB DSNT NW T02720200
2026-04-02 18:53:00,METAR KMSY 021853Z 16012KT 10SM SCT033 BKN250 27/19 A3007 RMK AO2 SLP186 T02720194
2026-04-02 17:53:00,METAR KMSY 021753Z 15013G20KT 10SM SCT030 BKN050 OVC250 27/19 A3009 RMK AO2 SLP191 T02720189 10278 20211 50004
2026-04-02 16:53:00,METAR KMSY 021653Z 16012KT 10SM SCT025 BKN045 OVC250 26/19 A3009 RMK AO2 SLP193 T02610194
2026-04-02 15:53:00,METAR KMSY 021553Z 14015KT 10SM FEW015 BKN025 BKN045 OVC250 26/20 A3009 RMK AO2 SLP191 T02610200
2026-04-02 15:13:00,SPECI KMSY 021513Z 14012KT 10SM BKN020 BKN030 BKN250 25/21 A3009 RMK AO2 T02500206
2026-04-02 14:53:00,METAR KMSY 021453Z 13014KT 10SM SCT020 BKN030 BKN250 25/21 A3008 RMK AO2 SLP187 T02500206 53014
2026-04-02 13:53:00,METAR KMSY 021353Z 13011KT 10SM FEW010 BKN250 23/20 A3006 RMK AO2 SLP182 T02330200
2026-04-02 12:53:00,METAR KMSY 021253Z 13011KT 10SM FEW010 FEW120 BKN250 22/20 A3004 RMK AO2 SLP176 T02170200
2026-04-02 11:53:00,METAR KMSY 021153Z 13008KT 10SM FEW010 SCT120 BKN250 21/19 A3003 RMK AO2 SLP173 T02110194 10217 20211 53011
2026-04-02 10:53:00,METAR KMSY 021053Z 13007KT 10SM FEW010 BKN250 21/19 A3002 RMK AO2 SLP167 T02110194
2026-04-02 09:53:00,METAR KMSY 020953Z 13007KT 10SM FEW015 BKN250 21/20 A3000 RMK AO2 SLP161 T02110200
2026-04-02 08:53:00,METAR KMSY 020853Z 13007KT 10SM SCT019 21/20 A3000 RMK AO2 SLP162 T02110200 58004
2026-04-02 08:29:00,SPECI KMSY 020829Z 13009KT 10SM BKN017 22/20 A3000 RMK AO2 T02170200
2026-04-02 07:53:00,METAR KMSY 020753Z 13006KT 10SM FEW075 FEW120 22/20 A3002 RMK AO2 SLP169 T02170200
2026-04-02 06:53:00,METAR KMSY 020653Z 13008KT 10SM FEW015 22/20 A3003 RMK AO2 SLP170 T02170200
2026-04-02 05:53:00,METAR KMSY 020553Z 13010KT 10SM SCT014 22/20 A3002 RMK AO2 SLP167 T02170200 10250 20217 402890200 56014
2026-04-02 05:25:00,SPECI KMSY 020525Z 13008KT 10SM BKN014 22/19 A3001 RMK AO2 T02170194
2026-04-02 04:53:00,METAR KMSY 020453Z 13009KT 10SM FEW016 22/19 A3002 RMK AO2 SLP170 T02170189
2026-04-02 03:53:00,METAR KMSY 020353Z 13008KT 10SM FEW020 22/20 A3004 RMK AO2 SLP175 T02170200
2026-04-02 02:53:00,METAR KMSY 020253Z 12010KT 10SM FEW020 22/20 A3006 RMK AO2 SLP180 T02220200 50003
2026-04-02 01:53:00,METAR KMSY 020153Z 14008KT 10SM FEW020 SCT040 23/19 A3006 RMK AO2 SLP182 T02330194
2026-04-02 00:53:00,METAR KMSY 020053Z 16010KT 10SM FEW030 FEW055 FEW250 24/20 A3006 RMK AO2 SLP181 T02390200
2026-04-01 23:53:00,METAR KMSY 012353Z 16010KT 9SM FEW030 FEW100 SCT250 25/19 A3005 RMK AO2 SLP178 T02500189 10283 20250 55004
2026-04-01 22:53:00,METAR KMSY 012253Z 15011KT 10SM FEW035 FEW075 BKN250 26/19 A3004 RMK AO2 SLP177 CB DSNT SE AND S T02610194
2026-04-01 21:53:00,METAR KMSY 012153Z 14018G24KT 10SM FEW035 FEW080 BKN250 27/18 A3004 RMK AO2 SLP174 CB DSNT E AND S AND W-NW T02720183
2026-04-01 20:53:00,METAR KMSY 012053Z 16012G24KT 10SM FEW035 FEW080 BKN250 28/19 A3006 RMK AO2 SLP182 CB DSNT N AND S AND W T02780189 56021
2026-04-01 19:53:00,METAR KMSY 011953Z 15012KT 10SM FEW035 BKN200 28/19 A3007 RMK AO2 SLP186 CB DSNT N AND E AND S AND W-NW T02830189
2026-04-01 18:53:00,METAR KMSY 011853Z 16011KT 10SM SCT030 BKN100 BKN250 27/19 A3010 RMK AO2 TSE44 SLP196 CB DSNT N AND W-NW T02720194
2026-04-01 18:46:00,SPECI KMSY 011846Z 16008KT 10SM SCT030 BKN100 BKN250 26/19 A3011 RMK AO2 TSE44 CB DSNT N T02610189
2026-04-01 17:53:00,METAR KMSY 011753Z 15010KT 10SM TS BKN035CB BKN080 BKN250 27/17 A3012 RMK AO2 TSB38 SLP203 OCNL LTGICCG W TS W MOV N VCSH W T02720172 10289 20200 58006
2026-04-01 17:44:00,SPECI KMSY 011744Z 15010KT 10SM TS BKN035CB BKN080 BKN250 28/18 A3013 RMK AO2 TSB38 OCNL LTGICCG W TS W MOV N VCSH W T02830178
2026-04-01 16:53:00,METAR KMSY 011653Z 18009KT 120V200 10SM SCT030CB BKN080 BKN250 28/19 A3013 RMK AO2 SLP206 CB W MOV N T02780189
2026-04-01 15:53:00,METAR KMSY 011553Z 14010KT 10SM BKN025CB BKN250 27/20 A3014 RMK AO2 SLP209 CB SW MOV N T02720200 $
2026-04-01 15:36:00,SPECI KMSY 011536Z 17009KT 10SM BKN020 BKN030 BKN250 26/19 A3014 RMK AO2 T02560194 $
2026-04-01 14:53:00,METAR KMSY 011453Z 13009KT 10SM SCT015 BKN030 BKN250 26/21 A3014 RMK AO2 SLP209 T02560211 51016 $
2026-04-01 13:53:00,METAR KMSY 011353Z 14006KT 8SM FEW010 FEW100 SCT250 23/21 A3013 RMK AO2 SLP205 T02330211
2026-04-01 12:53:00,METAR KMSY 011253Z 12004KT 7SM FEW010 SCT250 21/21 A3012 RMK AO2 SLP201 T02110206
2026-04-01 11:53:00,METAR KMSY 011153Z 12004KT 6SM BR MIFG FEW008 FEW016 SCT250 20/20 A3009 RMK AO2 SLP192 T02000200 10211 20200 53009
2026-04-01 11:20:00,SPECI KMSY 011120Z 14003KT 3SM BR FEW002 SCT011 20/20 A3008 RMK AO2 T02000200 $
2026-04-01 11:16:00,SPECI KMSY 011116Z 12005KT 1 1/4SM BR SCT002 SCT007 21/20 A3008 RMK AO2 T02060200 $
2026-04-01 11:06:00,SPECI KMSY 011106Z 14004KT 1SM BR BKN002 21/21 A3008 RMK AO2 T02060206 RVRNO $
2026-04-01 10:53:00,METAR KMSY 011053Z 13005KT 1/4SM FG VV002 21/21 A3007 RMK AO2 SLP187 T02060206 RVRNO $
2026-04-01 10:46:00,SPECI KMSY 011046Z 13005KT 1/2SM FG VV002 21/21 A3007 RMK AO2 T02060206 RVRNO $
2026-04-01 10:31:00,SPECI KMSY 011031Z 14004KT 1SM BR BKN003 BKN015 21/21 A3006 RMK AO2 T02110206 RVRNO $
2026-04-01 09:53:00,METAR KMSY 010953Z 14005KT 9SM BKN006 BKN017 21/20 A3006 RMK AO2 SLP181 T02060200
2026-04-01 09:28:00,SPECI KMSY 010928Z 14005KT 9SM BKN006 21/20 A3006 RMK AO2 T02060200
2026-04-01 08:53:00,METAR KMSY 010853Z 14004KT 10SM FEW010 20/19 A3006 RMK AO2 SLP183 T02000194 58013
2026-04-01 07:53:00,METAR KMSY 010753Z 15004KT 10SM FEW010 21/19 A3008 RMK AO2 SLP188 T02060194
2026-04-01 06:53:00,METAR KMSY 010653Z 13005KT 10SM SCT009 21/19 A3010 RMK AO2 SLP194 T02060194
2026-04-01 06:41:00,SPECI KMSY 010641Z 13004KT 10SM SCT009 21/19 A3010 RMK AO2 T02110194
2026-04-01 06:21:00,SPECI KMSY 010621Z 13006KT 10SM BKN010 21/19 A3010 RMK AO2 CIG 010V013 T02110194
2026-04-01 05:53:00,METAR KMSY 010553Z 13005KT 10SM FEW020 21/20 A3010 RMK AO2 SLP197 T02110200 10250 20211 402780206 58002
2026-04-01 04:53:00,METAR KMSY 010453Z 13007KT 10SM FEW020 22/20 A3011 RMK AO2 SLP198 T02170200
2026-04-01 03:53:00,METAR KMSY 010353Z 14006KT 10SM FEW020 22/20 A3011 RMK AO2 SLP200 T02170200
2026-04-01 02:53:00,METAR KMSY 010253Z 13006KT 10SM FEW020 22/20 A3011 RMK AO2 SLP198 T02220200 53008
2026-04-01 01:53:00,METAR KMSY 010153Z 12007KT 10SM FEW030 FEW250 23/20 A3010 RMK AO2 SLP194 T02280200
2026-04-01 00:53:00,METAR KMSY 010053Z 15008KT 10SM FEW030 FEW065 FEW250 24/20 A3008 RMK AO2 SLP189 OCNL LTGIC DSNT E CB DSNT E AND NW T02390200
2026-03-31 23:53:00,METAR KMSY 312353Z 15010KT 10SM FEW030 FEW070 SCT250 25/19 A3008 RMK AO2 SLP190 T02500189 10278 20250 55004
2026-03-31 22:53:00,METAR KMSY 312253Z 16013KT 10SM FEW035 BKN250 26/18 A3007 RMK AO2 SLP187 CB DSNT N T02560178
2026-03-31 21:53:00,METAR KMSY 312153Z 15014KT 10SM FEW034 BKN250 27/19 A3008 RMK AO2 SLP189 T02670194
2026-03-31 20:53:00,METAR KMSY 312053Z 16013G20KT 10SM FEW029 SCT120 BKN250 27/18 A3010 RMK AO2 SLP194 CB DSNT NW T02670183 56026
2026-03-31 19:53:00,METAR KMSY 311953Z 16015KT 10SM FEW030 SCT120 BKN250 27/19 A3012 RMK AO2 SLP203 CB DSNT S T02720189
2026-03-31 18:53:00,METAR KMSY 311853Z 14014KT 10SM SCT030 SCT060 BKN120 27/19 A3015 RMK AO2 SLP212 CB DSNT NW T02720194
2026-03-31 17:53:00,METAR KMSY 311753Z 16013G19KT 10SM SCT025 SCT060 BKN120 27/20 A3017 RMK AO2 SLP221 CB DSNT NE 60000 T02720200 10272 20206 58005
2026-03-31 16:53:00,METAR KMSY 311653Z 15009KT 10SM FEW015 SCT025CB BKN060 26/21 A3019 RMK AO2 SLP225 CB NE MOV N T02610206
2026-03-31 15:53:00,METAR KMSY 311553Z 13009KT 10SM SCT020 BKN050 BKN120 24/21 A3019 RMK AO2 RAE18 SLP227 CB DSNT NE P0000 T02390206
2026-03-31 14:53:00,METAR KMSY 311453Z 14010KT 10SM -RA FEW015 BKN025CB BKN070 22/19 A3019 RMK AO2 RAB43 SLP226 CB N-E-S MOV N P0000 60000 T02220194 53010
2026-03-31 14:21:00,SPECI KMSY 311421Z 14012KT 10SM BKN025CB BKN045 BKN070 23/21 A3018 RMK AO2 CB S AND NW MOV N T02280206
2026-03-31 13:53:00,METAR KMSY 311353Z 13010KT 10SM SCT020CB SCT055 BKN120 23/20 A3017 RMK AO2 RAB20E29 SLP218 CB W MOV N P0000 T02280200
2026-03-31 12:53:00,METAR KMSY 311253Z 13008KT 10SM SCT020 BKN065 BKN100 22/20 A3017 RMK AO2 SLP219 CB DSNT SW T02170200
2026-03-31 11:53:00,METAR KMSY 311153Z 12006KT 10SM FEW020 FEW070 SCT100 21/19 A3016 RMK AO2 SLP215 CB DSNT SW 70001 T02060194 10217 20206 53009 $
2026-03-31 10:53:00,METAR KMSY 311053Z 12005KT 9SM FEW020 BKN065 21/20 A3014 RMK AO2 SLP210 T02110200
2026-03-31 09:53:00,METAR KMSY 310953Z 13006KT 9SM FEW025 21/19 A3012 RMK AO2 SLP204 T02060194
2026-03-31 09:26:00,SPECI KMSY 310926Z 13007KT 9SM SCT025 21/19 A3012 RMK AO2 T02060194
2026-03-31 08:53:00,METAR KMSY 310853Z 13005KT 9SM BKN024 21/20 A3013 RMK AO2 SLP206 T02060200 56012
2026-03-31 07:53:00,METAR KMSY 310753Z 12007KT 9SM FEW008 BKN020 21/20 A3013 RMK AO2 SLP206 T02110200
2026-03-31 06:53:00,METAR KMSY 310653Z 12008KT 9SM FEW009 BKN021 21/20 A3015 RMK AO2 SLP211 T02110200
2026-03-31 06:45:00,SPECI KMSY 310645Z 12008KT 9SM FEW009 BKN022 21/20 A3015 RMK AO2 T02110200
2026-03-31 06:37:00,SPECI KMSY 310637Z 12009KT 9SM FEW009 SCT022 22/20 A3015 RMK AO2 T02170200
2026-03-31 05:53:00,METAR KMSY 310553Z 13008KT 9SM FEW009 BKN022 21/20 A3016 RMK AO2 SLP217 T02110200 10239 20211 402610200 58006
2026-03-31 05:37:00,SPECI KMSY 310537Z 12008KT 9SM FEW009 BKN021 21/20 A3017 RMK AO2 T02110200
2026-03-31 04:49:00,METAR KMSY 310449Z 13009KT 10SM SCT011 SCT017 22/20 A3017 RMK AO2 SLP221 T02170200
2026-03-31 04:48:00,SPECI KMSY 310448Z 13009KT 10SM SCT011 SCT017 22/20 A3017 RMK AO2
2026-03-31 03:53:00,METAR KMSY 310353Z 13007KT 10SM BKN010 BKN018 22/20 A3018 RMK AO2 SLP223 T02170200
2026-03-31 03:24:00,SPECI KMSY 310324Z 12010KT 10SM BKN010 OVC021 22/20 A3018 RMK AO2 T02170200
2026-03-31 02:53:00,METAR KMSY 310253Z 13009KT 10SM BKN025 22/20 A3018 RMK AO2 SLP223 T02170200 53009
2026-03-31 01:53:00,METAR KMSY 310153Z 12007KT 10SM SCT019 BKN026 BKN250 22/19 A3016 RMK AO2 SLP217 T02170194
2026-03-31 00:53:00,METAR KMSY 310053Z 12005KT 10SM FEW030 BKN250 22/18 A3015 RMK AO2 SLP214 T02220183
2026-03-30 23:53:00,METAR KMSY 302353Z 14009KT 10SM FEW030 SCT050 BKN250 24/18 A3015 RMK AO2 SLP213 60000 T02390183 10261 20228 56008
2026-03-30 22:53:00,METAR KMSY 302253Z 14011KT 10SM FEW023 SCT045 BKN110 BKN250 25/19 A3015 RMK AO2 SLP214 T02500194
2026-03-30 21:53:00,METAR KMSY 302153Z 13012KT 10SM SCT022 SCT030 BKN065 BKN250 26/20 A3016 RMK AO2 SLP216 T02560200
2026-03-30 20:53:00,METAR KMSY 302053Z 14009KT 10SM SCT023 BKN033 BKN060 BKN250 25/19 A3018 RMK AO2 RAB1955E15 SLP221 CB DSNT NE P0000 60000 T02500194 58020
2026-03-30 19:53:00,METAR KMSY 301953Z COR 17012G18KT 10SM FEW041CB SCT070 BKN110 24/18 A3020 RMK AO2 TSB18E47 SLP231 CB E-SE MOV N T02440183
2026-03-30 19:27:00,SPECI KMSY 301927Z 14011G17KT 10SM TS SCT018CB BKN065 BKN100 26/19 A3021 RMK AO2 TSB18 OCNL LTGICCG E-SE TS E-SE MOV N T02560189
2026-03-30 18:53:00,METAR KMSY 301853Z COR 16009KT 10SM SCT020CB BKN070 BKN100 25/21 A3022 RMK AO2 TSE48 SLP236 CB N AND E MOV N T02500206
2026-03-30 17:53:00,METAR KMSY 301753Z 15007KT 7SM TS FEW012 BKN020CB BKN040 23/21 A3023 RMK AO2 RAB06E45 TSB43 SLP241 OCNL LTGICCG N-E-S TS N-E-S MOV N P0001 60001 T02280211 10228 20206 58003
2026-03-30 17:48:00,SPECI KMSY 301748Z 14009KT 6SM TS BR SCT012 BKN020CB OVC040 23/21 A3024 RMK AO2 RAB06E45 TSB43 OCNL LTGICCG N-E-S TS N-E-S MOV N P0001
2026-03-30 17:20:00,SPECI KMSY 301720Z 18004KT 7SM -RA FEW010 BKN020CB OVC040 21/20 A3024 RMK AO2 RAB06 CB S-OHD MOV N P0000 T02110200
2026-03-30 16:53:00,METAR KMSY 301653Z 12006KT 10SM SCT020 BKN040 OVC060 23/20 A3024 RMK AO2 TSE42 SLP244 CB DSNT S T02280200
2026-03-30 16:44:00,SPECI KMSY 301644Z 13009KT 10SM BKN015 BKN030 OVC060 23/20 A3024 RMK AO2 TSE42 CB DSNT S T02280200
2026-03-30 15:53:00,METAR KMSY 301553Z 36005KT 7SM TS SCT007 BKN013CB OVC035 21/19 A3024 RMK AO2 RAE01 SLP244 OCNL LTGICCG SW-W TS SW-W MOV N P0000 T02060189
2026-03-30 15:23:00,SPECI KMSY 301523Z 00000KT 7SM TS FEW007 BKN013CB OVC030 21/19 A3024 RMK AO2 RAE01 OCNL LTGICCG SW-NW TS SW-NW MOV N P0000 T02110189
2026-03-30 14:53:00,METAR KMSY 301453Z 11011KT 7SM -TSRA BKN015CB BKN035 OVC070 21/19 A3024 RMK AO2 RAB40 TSB40 SLP243 OCNL LTGICCG W-NW TS W-NW MOV N P0000 60000 T02110194 50015
2026-03-30 14:41:00,SPECI KMSY 301441Z 10013KT 9SM -TSRA BKN015CB BKN035 OVC070 22/19 A3024 RMK AO2 RAB40 TSB40 OCNL LTGICCG W TS W MOV N P0000 T02170189
2026-03-30 13:53:00,METAR KMSY 301353Z 10012KT 10SM BKN015 BKN035 OVC060 21/19 A3024 RMK AO2 SLP243 CB DSNT SW T02110189
2026-03-30 12:53:00,METAR KMSY 301253Z 11012KT 10SM BKN020 BKN040 OVC070 21/18 A3023 RMK AO2 SLP239 CB DSNT SW T02110183
2026-03-30 11:53:00,METAR KMSY 301153Z 10011KT 10SM BKN020 BKN035 OVC060 21/19 A3020 RMK AO2 SLP228 CB DSNT SW 70008 T02110189 10211 20200 53003
2026-03-30 11:12:00,SPECI KMSY 301112Z 10010KT 10SM BKN017 BKN075 21/18 A3019 RMK AO2 T02060183 $
2026-03-30 11:07:00,SPECI KMSY 301107Z 10011KT 10SM SCT017 21/19 A3019 RMK AO2 T02060189 $
2026-03-30 10:53:00,METAR KMSY 301053Z 10010KT 10SM OVC017 21/19 A3018 RMK AO2 SLP223 T02060189 $
2026-03-30 09:53:00,METAR KMSY 300953Z 10008KT 10SM OVC017 21/19 A3018 RMK AO2 SLP223 T02060189 $
2026-03-30 08:53:00,METAR KMSY 300853Z 10007KT 10SM OVC021 21/18 A3019 RMK AO2 SLP225 T02060183 56015 $
2026-03-30 07:53:00,METAR KMSY 300753Z 09007KT 10SM FEW015 BKN023 OVC028 21/18 A3020 RMK AO2 SLP230 T02060183 $
2026-03-30 06:53:00,METAR KMSY 300653Z 11009KT 10SM SCT016 BKN023 BKN028 21/18 A3021 RMK AO2 SLP234 T02060183 $
2026-03-30 05:53:00,METAR KMSY 300553Z 10008KT 9SM BKN015 BKN023 21/18 A3023 RMK AO2 SLP240 T02060183 10217 20200 402390150 58003 $
2026-03-30 05:44:00,SPECI KMSY 300544Z 11007KT 9SM BKN015 OVC028 20/18 A3023 RMK AO2 T02000183 $
2026-03-30 05:11:00,SPECI KMSY 300511Z 09009KT 9SM BKN013 BKN019 OVC029 21/18 A3024 RMK AO2 T02060183 $
2026-03-30 04:53:00,METAR KMSY 300453Z 10007KT 9SM FEW013 BKN020 20/18 A3024 RMK AO2 SLP242 T02000183 $
2026-03-30 04:33:00,SPECI KMSY 300433Z 10011KT 10SM BKN024 OVC080 20/18 A3024 RMK AO2 T02000178 $
2026-03-30 03:53:00,METAR KMSY 300353Z 10014KT 10SM FEW015 OVC080 21/18 A3024 RMK AO2 SLP242 T02060178 $
2026-03-30 02:53:00,METAR KMSY 300253Z 10012KT 10SM BKN015 BKN019 OVC080 21/18 A3024 RMK AO2 SLP242 T02060178 53003 $
2026-03-30 01:53:00,METAR KMSY 300153Z 09011KT 10SM BKN016 OVC026 21/18 A3023 RMK AO2 SLP240 T02060178 $
2026-03-30 00:53:00,METAR KMSY 300053Z 07011KT 10SM BKN018 BKN025 OVC031 21/18 A3023 RMK AO2 SLP238 T02110183 $
2026-03-30 00:32:00,SPECI KMSY 300032Z 09011KT 10SM SCT018 BKN029 OVC065 21/18 A3023 RMK AO2 T02110183 $
2026-03-29 23:53:00,METAR KMSY 292353Z 11012KT 10SM FEW020 BKN035 BKN060 22/18 A3023 RMK AO2 SLP239 T02170178 10239 20217 55004 $
2026-03-29 22:53:00,METAR KMSY 292253Z 12015KT 10SM FEW022 SCT032 BKN090 22/17 A3023 RMK AO2 SLP238 T02220172 $
2026-03-29 21:53:00,METAR KMSY 292153Z 11014KT 10SM SCT025 BKN040 BKN075 23/18 A3023 RMK AO2 SLP240 T02330178 $
2026-03-29 20:53:00,METAR KMSY 292053Z 11013KT 10SM FEW023 BKN040 OVC070 23/18 A3024 RMK AO2 SLP243 T02280178 56018 $
2026-03-29 19:53:00,METAR KMSY 291953Z 12013KT 10SM SCT024 BKN030 OVC050 23/18 A3026 RMK AO2 SLP248 T02280178 $
2026-03-29 18:53:00,METAR KMSY 291853Z 11013KT 10SM FEW022 BKN036 OVC050 23/18 A3027 RMK AO2 SLP254 T02330183 $
2026-03-29 18:15:00,SPECI KMSY 291815Z 14011KT 10SM FEW018 SCT025 BKN050 23/19 A3029 RMK AO2 T02280189 $
2026-03-29 17:53:00,METAR KMSY 291753Z 13010KT 10SM SCT018 BKN025 OVC070 22/19 A3029 RMK AO2 RAB15E43 SLP261 P0007 60008 T02220194 10233 20161 58004 $
2026-03-29 17:26:00,SPECI KMSY 291726Z 12007G21KT 3SM +RA BR BKN018 OVC029 21/19 A3030 RMK AO2 RAB15 P0003 T02110189 $
2026-03-29 17:23:00,SPECI KMSY 291723Z 12009G21KT 1 3/4SM +RA BKN020 BKN024 OVC029 21/18 A3030 RMK AO2 RAB15 P0000 T02110183 $
2026-03-29 16:53:00,METAR KMSY 291653Z 09008KT 10SM SCT019 BKN029 OVC048 22/19 A3031 RMK AO2 RAB19E35 SLP266 P0001 T02220194 $
2026-03-29 16:19:00,SPECI KMSY 291619Z 11005KT 9SM -RA SCT016 BKN021 BKN027 22/18 A3032 RMK AO2 RAB19 P0000 T02170183 $
2026-03-29 14:53:00,METAR KMSY 291453Z 08007KT 10SM FEW025 BKN039 22/17 A3031 RMK AO2 SLP265 T02170172 51016 $
2026-03-29 13:53:00,METAR KMSY 291353Z 07005KT 10SM BKN037 19/14 A3029 RMK AO2 SLP261 T01940144 $
2026-03-29 12:53:00,METAR KMSY 291253Z 08004KT 10SM FEW250 17/09 A3028 RMK AO2 SLP255 T01720094 $
2026-03-29 11:53:00,METAR KMSY 291153Z 07004KT 10SM FEW080 FEW120 16/07 A3026 RMK AO2 SLP249 T01610072 10189 20150 53005 $
2026-03-29 10:53:00,METAR KMSY 291053Z VRB03KT 10SM CLR 17/07 A3025 RMK AO2 SLP244 T01670072 $
2026-03-29 09:53:00,METAR KMSY 290953Z 07005KT 10SM CLR 17/08 A3024 RMK AO2 SLP243 T01670078 $
2026-03-29 08:53:00,METAR KMSY 290853Z 09004KT 10SM CLR 15/08 A3025 RMK AO2 SLP245 T01500078 56012 $
2026-03-29 07:53:00,METAR KMSY 290753Z 08004KT 10SM CLR 17/07 A3026 RMK AO2 SLP248 T01670072 $
2026-03-29 06:53:00,METAR KMSY 290653Z 07003KT 10SM CLR 18/07 A3027 RMK AO2 SLP252 T01830067 $
2026-03-29 05:53:00,METAR KMSY 290553Z 07006KT 10SM CLR 19/07 A3028 RMK AO2 SLP256 T01890067 10222 20189 402390172 58004 $
2026-03-29 04:53:00,METAR KMSY 290453Z 06011KT 10SM CLR 20/05 A3029 RMK AO2 SLP258 T02000050 $
2026-03-29 03:53:00,METAR KMSY 290353Z 05009G17KT 10SM CLR 21/05 A3029 RMK AO2 SLP259 T02060050 $
2026-03-29 02:53:00,METAR KMSY 290253Z 03011KT 10SM CLR 21/06 A3029 RMK AO2 SLP260 T02110056 53014 $
2026-03-29 01:53:00,METAR KMSY 290153Z 02005KT 10SM CLR 22/04 A3028 RMK AO2 SLP256 T02170044 $
2026-03-29 00:53:00,METAR KMSY 290053Z 34003KT 10SM CLR 21/09 A3026 RMK AO2 SLP249 T02060089
2026-03-28 23:53:00,METAR KMSY 282353Z 31004KT 10SM CLR 22/07 A3025 RMK AO2 SLP246 T02170072 10239 20200 55004
2026-03-28 22:53:00,METAR KMSY 282253Z 33007KT 10SM CLR 23/05 A3025 RMK AO2 SLP245 T02280050
2026-03-28 21:53:00,METAR KMSY 282153Z 01006KT 10SM CLR 23/03 A3025 RMK AO2 SLP245 T02280028
2026-03-28 20:53:00,METAR KMSY 282053Z 02012KT 10SM CLR 23/02 A3026 RMK AO2 SLP250 T02280017 58025
2026-03-28 19:53:00,METAR KMSY 281953Z 02010G17KT 10SM CLR 22/03 A3028 RMK AO2 SLP258 T02170028
2026-03-28 18:53:00,METAR KMSY 281853Z 34011KT 10SM FEW250 21/04 A3032 RMK AO2 SLP268 T02060044
2026-03-28 17:53:00,METAR KMSY 281753Z 36011G19KT 10SM FEW250 19/04 A3034 RMK AO2 SLP275 T01940039 10200 20172 58006
2026-03-28 16:53:00,METAR KMSY 281653Z 04012G20KT 10SM CLR 19/05 A3035 RMK AO2 SLP280 T01890050
2026-03-28 15:53:00,METAR KMSY 281553Z 01014G22KT 10SM CLR 18/04 A3036 RMK AO2 SLP283 T01780044
2026-03-28 14:53:00,METAR KMSY 281453Z 03014G20KT 10SM FEW050 18/07 A3035 RMK AO2 SLP281 T01830072 51023
2026-03-28 13:53:00,METAR KMSY 281353Z 01015G25KT 10SM FEW055 17/08 A3034 RMK AO2 SLP275 T01720083
2026-03-28 12:53:00,METAR KMSY 281253Z 01011G21KT 10SM FEW050 18/10 A3031 RMK AO2 SLP266 T01830100
2026-03-28 11:53:00,METAR KMSY 281153Z 02012G20KT 10SM FEW060 18/11 A3028 RMK AO2 SLP258 T01830111 10222 20183 53017
2026-03-28 10:53:00,METAR KMSY 281053Z 01012G21KT 10SM FEW060 19/13 A3027 RMK AO2 SLP252 T01890128
2026-03-28 09:53:00,METAR KMSY 280953Z 01011G20KT 10SM CLR 19/13 A3024 RMK AO2 SLP244 T01940133
2026-03-28 08:53:00,METAR KMSY 280853Z 36009G20KT 10SM CLR 20/14 A3023 RMK AO2 SLP240 T02000144 53011
2026-03-28 07:53:00,METAR KMSY 280753Z 35011G17KT 10SM SCT070 21/16 A3022 RMK AO2 SLP237 T02060156
2026-03-28 06:53:00,METAR KMSY 280653Z 34008KT 10SM BKN070 22/17 A3021 RMK AO2 SLP233 T02170167
2026-03-28 05:53:00,METAR KMSY 280553Z 29011KT 10SM CLR 21/18 A3020 RMK AO2 SLP230 T02110183 10267 20200 402780167 53011
2026-03-28 04:53:00,METAR KMSY 280453Z 25004KT 10SM FEW060 21/18 A3018 RMK AO2 SLP224 T02060178
2026-03-28 03:53:00,METAR KMSY 280353Z 25004KT 10SM BKN060 21/18 A3018 RMK AO2 SLP222 T02110178
2026-03-28 02:53:00,METAR KMSY 280253Z 20004KT 10SM CLR 22/18 A3017 RMK AO2 SLP219 T02220183 53017
2026-03-28 01:53:00,METAR KMSY 280153Z 19005KT 10SM FEW020 23/18 A3015 RMK AO2 SLP212 T02280183
2026-03-28 00:53:00,METAR KMSY 280053Z 20003KT 10SM FEW035 FEW050 FEW065 23/17 A3013 RMK AO2 SLP206 T02330172
2026-03-27 23:53:00,METAR KMSY 272353Z 36004KT 10SM FEW045 FEW060 27/16 A3012 RMK AO2 SLP202 T02670161 10278 20256 53005
2026-03-27 22:53:00,METAR KMSY 272253Z 01004KT 10SM SCT045 SCT055 27/16 A3010 RMK AO2 SLP197 T02720161
2026-03-27 21:53:00,METAR KMSY 272153Z 33005KT 10SM FEW045 SCT055 28/16 A3010 RMK AO2 SLP195 T02780161
2026-03-27 20:53:00,METAR KMSY 272053Z 34006KT 10SM SCT045 SCT060 27/17 A3011 RMK AO2 SLP197 T02720167 56021
2026-03-27 19:53:00,METAR KMSY 271953Z VRB05KT 10SM BKN045 27/18 A3012 RMK AO2 SLP202 T02720178
2026-03-27 18:53:00,METAR KMSY 271853Z VRB05KT 10SM FEW035 SCT045 26/17 A3014 RMK AO2 SLP210 T02610172
2026-03-27 17:53:00,METAR KMSY 271753Z 33008KT 10SM FEW032 SCT045 26/18 A3017 RMK AO2 SLP219 T02560178 10256 20167 50002
2026-03-27 16:53:00,METAR KMSY 271653Z 01007KT 10SM SCT020 BKN030 BKN040 26/19 A3018 RMK AO2 SLP223 T02560189
2026-03-27 16:28:00,SPECI KMSY 271628Z 02006KT 10SM SCT025 BKN035 24/19 A3019 RMK AO2 T02440189
2026-03-25 14:53:00,METAR KMSY 251453Z 00000KT 7SM FEW015 22/18 A3017 RMK SLP222 T02160184 51014
2026-03-25 13:53:00,METAR KMSY 251353Z 12003KT 5SM HZ FEW010 21/18 A3016 RMK AO2 SLP216 T02060178
2026-03-25 12:53:00,METAR KMSY 251253Z 00000KT 6SM BR FEW200 18/17 A3015 RMK AO2 SLP212 T01780167
2026-03-25 11:53:00,METAR KMSY 251153Z 00000KT 6SM BR MIFG FEW200 16/15 A3013 RMK AO2 SLP206 T01610150 10189 20156 53011
2026-03-25 10:53:00,METAR KMSY 251053Z 11003KT 7SM MIFG FEW002 17/16 A3011 RMK AO2 SLP199 T01670156
2026-03-25 09:53:00,METAR KMSY 250953Z 00000KT 8SM MIFG FEW002 16/15 A3009 RMK AO2 SLP193 T01610150
2026-03-25 08:53:00,METAR KMSY 250853Z 00000KT 7SM MIFG FEW002 16/16 A3010 RMK AO2 SLP195 T01610156 58009
2026-03-25 07:53:00,METAR KMSY 250753Z 00000KT 8SM FEW030 FEW250 17/17 A3010 RMK AO2 SLP196 T01720167
2026-03-25 06:53:00,METAR KMSY 250653Z 00000KT 9SM FEW250 18/16 A3012 RMK AO2 SLP203 T01780161
2026-03-25 05:53:00,METAR KMSY 250553Z 00000KT 9SM FEW250 18/17 A3013 RMK AO2 SLP204 T01830167 10250 20172 402610172 51005
2026-03-25 04:53:00,METAR KMSY 250453Z 00000KT 10SM SCT250 19/17 A3012 RMK AO2 SLP203 T01890167
2026-03-25 03:53:00,METAR KMSY 250353Z 15003KT 10SM BKN250 19/17 A3012 RMK AO2 SLP201 T01940172
2026-03-25 02:53:00,METAR KMSY 250253Z 15005KT 10SM SCT250 20/17 A3011 RMK AO2 SLP199 T02000167 53013
2026-03-25 01:53:00,METAR KMSY 250153Z 17005KT 10SM SCT250 21/17 A3010 RMK AO2 SLP194 T02110167
2026-03-25 00:53:00,METAR KMSY 250053Z 10005KT 10SM BKN130 BKN250 22/13 A3008 RMK AO2 SLP189 T02220128
2026-03-24 23:53:00,METAR KMSY 242353Z VRB04KT 10SM BKN130 BKN250 25/13 A3007 RMK AO2 SLP186 T02500128 10261 20233 55003
2026-03-24 22:53:00,METAR KMSY 242253Z 33003KT 10SM FEW045 BKN250 24/14 A3007 RMK AO2 SLP186 T02440144
2026-03-24 21:53:00,METAR KMSY 242153Z 34005KT 10SM FEW040 BKN250 24/15 A3008 RMK AO2 SLP187 T02440150
2026-03-24 20:53:00,METAR KMSY 242053Z 33006KT 10SM FEW030 BKN250 26/15 A3008 RMK AO2 SLP189 T02560150 56019
2026-03-24 19:53:00,METAR KMSY 241953Z VRB05KT 10SM BKN250 25/14 A3009 RMK AO2 SLP191 T02500144
2026-03-24 18:53:00,METAR KMSY 241853Z VRB04KT 10SM BKN250 23/14 A3012 RMK AO2 SLP202 T02330139
2026-03-24 17:53:00,METAR KMSY 241753Z 01004KT 10SM BKN250 24/13 A3014 RMK AO2 SLP208 T02390133 10239 20183 58007
2026-03-24 16:53:00,METAR KMSY 241653Z 34006KT 10SM BKN250 23/13 A3016 RMK AO2 SLP214 T02280128
2026-03-24 15:53:00,METAR KMSY 241553Z 08003KT 10SM SCT250 22/12 A3016 RMK AO2 SLP216 T02170117
2026-03-24 14:53:00,METAR KMSY 241453Z 08007KT 10SM FEW250 20/12 A3016 RMK AO2 SLP216 T02000117 51012
2026-03-24 13:53:00,METAR KMSY 241353Z 07007KT 10SM FEW250 19/12 A3015 RMK AO2 SLP214 T01940117
2026-03-24 12:53:00,METAR KMSY 241253Z 03008KT 10SM FEW055 FEW200 19/12 A3014 RMK AO2 SLP209 T01890122
2026-03-24 11:53:00,METAR KMSY 241153Z 03006KT 10SM FEW055 FEW200 19/12 A3012 RMK AO2 SLP204 T01890122 10194 20178 53016
2026-03-24 10:53:00,METAR KMSY 241053Z 05005KT 10SM SCT055 SCT200 19/13 A3011 RMK AO2 SLP197 T01940133
2026-03-24 09:53:00,METAR KMSY 240953Z 04005KT 10SM CLR 19/15 A3008 RMK AO2 SLP188 T01940150
2026-03-24 08:53:00,METAR KMSY 240853Z 00000KT 10SM CLR 18/17 A3008 RMK AO2 SLP187 T01780167 56007
2026-03-24 07:53:00,METAR KMSY 240753Z 29004KT 10SM CLR 18/17 A3008 RMK AO2 SLP189 T01780167
2026-03-24 06:53:00,METAR KMSY 240653Z 27007KT 10SM CLR 18/17 A3009 RMK AO2 SLP191 T01830167
2026-03-24 05:53:00,METAR KMSY 240553Z 26007KT 10SM CLR 19/17 A3010 RMK AO2 SLP195 T01890167 10244 20183 402610139 50002
2026-03-24 04:53:00,METAR KMSY 240453Z 27004KT 10SM CLR 19/17 A3011 RMK AO2 SLP198 T01890167
2026-03-24 03:53:00,METAR KMSY 240353Z 25004KT 10SM CLR 19/17 A3010 RMK AO2 SLP197 T01940172
2026-03-24 02:53:00,METAR KMSY 240253Z 24007KT 10SM CLR 21/17 A3009 RMK AO2 SLP193 T02060167 53008
2026-03-24 01:53:00,METAR KMSY 240153Z 20003KT 10SM FEW050 21/16 A3008 RMK AO2 SLP190 T02060161
2026-03-24 00:53:00,METAR KMSY 240053Z 24003KT 10SM FEW050 22/15 A3007 RMK AO2 SLP187 T02220150
2026-03-23 23:53:00,METAR KMSY 232353Z 25004KT 10SM FEW030 FEW250 24/16 A3007 RMK AO2 SLP185 T02440156 10261 20244 53000
2026-03-23 22:53:00,METAR KMSY 232253Z 30006KT 10SM FEW030 26/16 A3006 RMK AO2 SLP181 T02610156
2026-03-23 21:53:00,METAR KMSY 232153Z 35008KT 10SM FEW030 26/16 A3006 RMK AO2 SLP181 T02610156
2026-03-23 20:53:00,METAR KMSY 232053Z 35009G16KT 10SM FEW030 26/16 A3007 RMK AO2 SLP185 T02560161 56019
2026-03-23 19:53:00,METAR KMSY 231953Z 35008KT 10SM FEW030 26/17 A3008 RMK AO2 SLP190 T02560167
2026-03-23 18:53:00,METAR KMSY 231853Z 31007KT 10SM FEW030 26/16 A3010 RMK AO2 SLP195 T02560161
2026-03-23 17:53:00,METAR KMSY 231753Z 33007KT 10SM FEW030 25/16 A3012 RMK AO2 SLP204 T02500161 10250 20139 58002
2026-03-23 16:53:00,METAR KMSY 231653Z 34008KT 10SM FEW030 24/15 A3014 RMK AO2 SLP209 T02440150
2026-03-23 15:53:00,METAR KMSY 231553Z 28006KT 10SM FEW020 24/15 A3014 RMK AO2 SLP208 T02390150
2026-03-23 14:53:00,METAR KMSY 231453Z 25004KT 10SM CLR 22/16 A3013 RMK AO2 SLP206 T02220156 51018
2026-03-23 13:53:00,METAR KMSY 231353Z 24005KT 10SM CLR 20/16 A3011 RMK AO2 SLP200 T02000156
2026-03-23 12:53:00,METAR KMSY 231253Z 23003KT 10SM CLR 16/15 A3010 RMK AO2 SLP197 T01610150
2026-03-23 11:53:00,METAR KMSY 231153Z 00000KT 10SM CLR 16/14 A3008 RMK AO2 SLP189 T01560144 10178 20156 53008
2026-03-23 10:53:00,METAR KMSY 231053Z 21003KT 10SM CLR 17/15 A3006 RMK AO2 SLP181 T01670150 $
2026-03-23 09:53:00,METAR KMSY 230953Z 20006KT 10SM CLR 17/16 A3004 RMK AO2 SLP176 T01670156 $
2026-03-23 08:53:00,METAR KMSY 230853Z 21004KT 10SM CLR 17/16 A3006 RMK AO2 SLP181 T01670156 58002 $
2026-03-23 07:53:00,METAR KMSY 230753Z 22003KT 10SM CLR 17/16 A3006 RMK AO2 SLP182 T01720161 $
2026-03-23 06:53:00,METAR KMSY 230653Z 21003KT 10SM CLR 18/16 A3007 RMK AO2 SLP184 T01780161 $
2026-03-23 05:53:00,METAR KMSY 230553Z 20004KT 10SM CLR 18/16 A3006 RMK AO2 SLP183 T01780161 10233 20178 402780156 53003 $
2026-03-23 04:53:00,METAR KMSY 230453Z 20005KT 10SM CLR 18/16 A3006 RMK AO2 SLP181 T01830161 $
2026-03-23 03:53:00,METAR KMSY 230353Z 20006KT 10SM CLR 19/16 A3006 RMK AO2 SLP180 T01890161 $
2026-03-23 02:53:00,METAR KMSY 230253Z 21004KT 10SM CLR 19/16 A3005 RMK AO2 SLP180 T01940161 51016 $
2026-03-23 01:53:00,METAR KMSY 230153Z 21006KT 10SM CLR 21/16 A3004 RMK AO2 SLP174 T02060156 $
2026-03-23 00:53:00,METAR KMSY 230053Z 23007KT 10SM FEW045 22/15 A3002 RMK AO2 SLP170 T02170150 $
2026-03-22 23:53:00,METAR KMSY 222353Z 22008KT 10SM FEW045 23/15 A3001 RMK AO2 SLP163 T02330150 10278 20233 53000 $
2026-03-22 22:53:00,METAR KMSY 222253Z 22010KT 10SM FEW045 26/16 A3000 RMK AO2 SLP162 T02560156 $
2026-03-22 21:53:00,METAR KMSY 222153Z 21012KT 10SM FEW045 27/16 A3000 RMK AO2 PK WND 20027/2110 SLP162 T02670156 $
2026-03-22 20:53:00,METAR KMSY 222053Z 21013G19KT 10SM FEW045 27/16 A3000 RMK AO2 SLP163 T02720156 56019 $
2026-03-22 19:53:00,METAR KMSY 221953Z 21010KT 10SM FEW040 27/16 A3001 RMK AO2 SLP166 T02670156 $
2026-03-22 18:53:00,METAR KMSY 221853Z 22010KT 10SM FEW035 27/16 A3003 RMK AO2 SLP172 T02670161 $
2026-03-22 17:53:00,METAR KMSY 221753Z 20009KT 10SM FEW032 26/16 A3006 RMK AO2 SLP181 T02560161 10256 20156 58006 $
2026-03-22 16:53:00,METAR KMSY 221653Z 21007KT 10SM SCT030 24/17 A3008 RMK AO2 SLP188 T02440167 $
2026-03-22 15:53:00,METAR KMSY 221553Z 23011KT 10SM SCT022 23/17 A3008 RMK AO2 SLP190 T02330172 $
2026-03-22 14:53:00,METAR KMSY 221453Z 21010KT 10SM SCT017 22/18 A3008 RMK AO2 SLP188 T02170178 51015 $
2026-03-22 13:53:00,METAR KMSY 221353Z 20006KT 10SM FEW010 19/18 A3007 RMK AO2 SLP184 T01890178 $
2026-03-22 12:53:00,METAR KMSY 221253Z 18004KT 7SM FEW010 17/16 A3005 RMK AO2 SLP180 T01670161 $
2026-03-22 11:53:00,METAR KMSY 221153Z 19004KT 8SM FEW010 16/16 A3003 RMK AO2 SLP173 T01610156 10172 20161 53006 $
2026-03-22 10:53:00,METAR KMSY 221053Z 19004KT 9SM CLR 16/16 A3002 RMK AO2 SLP170 T01610156 $
2026-03-22 09:53:00,METAR KMSY 220953Z 19004KT 9SM CLR 17/16 A3002 RMK AO2 SLP167 T01670161 $
2026-03-22 08:53:00,METAR KMSY 220853Z 19005KT 7SM CLR 16/16 A3002 RMK AO2 SLP167 T01610156 58010 $
2026-03-22 07:53:00,METAR KMSY 220753Z 18003KT 7SM CLR 16/16 A3003 RMK AO2 SLP171 T01610156 $
2026-03-22 06:53:00,METAR KMSY 220653Z 18003KT 9SM CLR 17/16 A3004 RMK AO2 SLP176 T01670161 $
2026-03-22 05:53:00,METAR KMSY 220553Z 18005KT 10SM FEW250 17/16 A3005 RMK AO2 SLP178 T01720161 10233 20167 402670122 58003 $
2026-03-22 04:53:00,METAR KMSY 220453Z 18006KT 10SM FEW250 18/16 A3005 RMK AO2 SLP179 T01780161 $
2026-03-22 03:53:00,METAR KMSY 220353Z 21005KT 10SM FEW250 18/17 A3006 RMK AO2 SLP181 T01830167 $
2026-03-22 02:53:00,METAR KMSY 220253Z 22007KT 10SM CLR 19/17 A3006 RMK AO2 SLP180 T01890167 53010 $
2026-03-22 01:53:00,METAR KMSY 220153Z 22008KT 10SM CLR 19/16 A3004 RMK AO2 SLP177 T01940161 $
2026-03-22 00:53:00,METAR KMSY 220053Z 22007KT 10SM FEW250 21/14 A3003 RMK AO2 SLP173 T02060144 $
2026-03-21 23:53:00,METAR KMSY 212353Z 22010G22KT 10SM FEW030 FEW250 23/14 A3002 RMK AO2 SLP170 T02330144 10267 20233 55003 $
2026-03-21 22:53:00,METAR KMSY 212253Z 21011KT 10SM FEW030 FEW250 25/14 A3001 RMK AO2 SLP165 T02500144 $
2026-03-21 21:53:00,METAR KMSY 212153Z 25008KT 10SM FEW030 FEW250 26/14 A3002 RMK AO2 SLP167 T02610139 $
2026-03-21 20:53:00,METAR KMSY 212053Z 23011G16KT 10SM FEW030 SCT250 27/14 A3003 RMK AO2 SLP173 T02670139 56025 $
2026-03-21 19:53:00,METAR KMSY 211953Z 25011G21KT 10SM FEW010 SCT250 27/12 A3005 RMK AO2 SLP179 FU FEW010 T02670122 $
2026-03-21 18:53:00,METAR KMSY 211853Z 25008KT 10SM FEW010 FEW250 26/13 A3008 RMK AO2 SLP189 FU FEW010 T02610133 $
2026-03-21 17:53:00,METAR KMSY 211753Z VRB05KT 10SM FEW250 24/13 A3011 RMK AO2 SLP198 T02440133 10244 20128 58010 $
2026-03-21 16:53:00,METAR KMSY 211653Z 22007KT 10SM FEW250 24/13 A3013 RMK AO2 SLP204 T02390133 $
2026-03-21 15:53:00,METAR KMSY 211553Z 26006KT 10SM FEW250 22/14 A3013 RMK AO2 SLP207 T02220144 $
2026-03-21 14:53:00,METAR KMSY 211453Z 20007KT 10SM FEW010 FEW250 21/15 A3014 RMK AO2 SLP208 FU FEW010 T02060150 53008 $
2026-03-21 13:53:00,METAR KMSY 211353Z 19005KT 10SM FEW010 18/14 A3013 RMK AO2 SLP204 FU FEW010 T01780144 $
2026-03-21 12:53:00,METAR KMSY 211253Z 19004KT 10SM FEW010 FEW250 14/13 A3012 RMK AO2 SLP201 FU FEW010 T01440128 $
2026-03-21 11:53:00,METAR KMSY 211153Z 19004KT 10SM CLR 13/11 A3011 RMK AO2 SLP200 T01280111 10150 20122 53002 $
2026-03-21 10:53:00,METAR KMSY 211053Z 18005KT 10SM CLR 13/12 A3011 RMK AO2 SLP199 T01330117 $
2026-03-21 09:53:00,METAR KMSY 210953Z 00000KT 10SM CLR 13/11 A3011 RMK AO2 SLP198 T01280111 $
2026-03-21 08:53:00,METAR KMSY 210853Z 20004KT 10SM CLR 13/11 A3011 RMK AO2 SLP198 T01330111 58009 $
2026-03-21 07:53:00,METAR KMSY 210753Z 19004KT 10SM CLR 14/12 A3012 RMK AO2 SLP200 T01390117 $
2026-03-21 06:53:00,METAR KMSY 210653Z 18004KT 10SM CLR 14/11 A3013 RMK AO2 SLP204 T01390111 $
2026-03-21 05:53:00,METAR KMSY 210553Z 19004KT 10SM CLR 14/11 A3013 RMK AO2 SLP207 T01440106 10211 20144 402440106 58002 $
2026-03-21 04:53:00,METAR KMSY 210453Z 20004KT 10SM CLR 15/11 A3014 RMK AO2 SLP210 T01500106 $
2026-03-21 03:53:00,METAR KMSY 210353Z 19005KT 10SM CLR 16/11 A3015 RMK AO2 SLP211 T01560106 $
2026-03-21 02:53:00,METAR KMSY 210253Z 19006KT 10SM CLR 17/10 A3014 RMK AO2 SLP209 T01670100 51005 $
2026-03-21 01:53:00,METAR KMSY 210153Z 19007KT 10SM CLR 18/08 A3014 RMK AO2 SLP207 T01780083 $
2026-03-21 00:53:00,METAR KMSY 210053Z 18008KT 10SM CLR 19/07 A3013 RMK AO2 SLP207 T01890067 $
2026-03-20 23:53:00,METAR KMSY 202353Z 17008KT 10SM CLR 21/08 A3012 RMK AO2 SLP204 T02110078 10244 20206 55004 $
2026-03-20 22:53:00,METAR KMSY 202253Z 16011G18KT 10SM CLR 22/09 A3012 RMK AO2 SLP202 T02220094 $
2026-03-20 21:53:00,METAR KMSY 202153Z 15014G20KT 10SM CLR 23/09 A3013 RMK AO2 SLP204 T02330089 $
2026-03-20 20:53:00,METAR KMSY 202053Z 15013KT 10SM FEW030 FEW250 24/09 A3014 RMK AO2 SLP208 T02390089 56024 $
2026-03-20 19:53:00,METAR KMSY 201953Z 14011KT 10SM FEW030 FEW250 24/09 A3016 RMK AO2 SLP216 T02390094 $
2026-03-20 18:53:00,METAR KMSY 201853Z 15011KT 10SM FEW030 FEW250 23/08 A3018 RMK AO2 SLP224 T02330078 $
2026-03-20 17:53:00,METAR KMSY 201753Z 15008KT 10SM FEW025 FEW250 23/11 A3021 RMK AO2 SLP232 T02280106 10228 20106 58009 $
2026-03-20 16:53:00,METAR KMSY 201653Z 20005KT 10SM FEW025 FEW250 22/12 A3022 RMK AO2 SLP237 T02170117 $
2026-03-20 15:53:00,METAR KMSY 201553Z 17003KT 10SM FEW020 FEW250 21/13 A3023 RMK AO2 SLP239 T02060128 $
2026-03-20 14:53:00,METAR KMSY 201453Z 22005KT 10SM FEW020 FEW250 19/11 A3023 RMK AO2 SLP241 T01890111 51013 $
2026-03-20 13:53:00,METAR KMSY 201353Z 20003KT 10SM FEW010 FEW250 17/11 A3023 RMK AO2 SLP241 FU FEW010 T01670106 $
2026-03-20 12:53:00,METAR KMSY 201253Z 00000KT 10SM FEW010 FEW250 13/10 A3022 RMK AO2 SLP235 FU FEW010 T01280100 $
2026-03-20 11:53:00,METAR KMSY 201153Z 00000KT 10SM CLR 11/09 A3020 RMK AO2 SLP228 T01110089 10133 20106 53008 $
2026-03-20 10:53:00,METAR KMSY 201053Z VRB03KT 10SM CLR 12/09 A3018 RMK AO2 SLP221 T01170089 $
2026-03-20 09:53:00,METAR KMSY 200953Z 00000KT 10SM CLR 12/09 A3017 RMK AO2 SLP221 T01170089 $
2026-03-20 08:53:00,METAR KMSY 200853Z 00000KT 10SM CLR 11/09 A3018 RMK AO2 SLP221 T01110089 58008
2026-03-20 07:53:00,METAR KMSY 200753Z 00000KT 10SM CLR 11/09 A3019 RMK AO2 SLP225 T01110089
2026-03-20 06:53:00,METAR KMSY 200653Z 00000KT 10SM CLR 13/09 A3019 RMK AO2 SLP226 T01280089
2026-03-20 05:53:00,METAR KMSY 200553Z 00000KT 10SM CLR 13/09 A3020 RMK AO2 SLP229 T01330089 10189 20133 402220061 58008
2026-03-20 04:53:00,METAR KMSY 200453Z 20005KT 10SM CLR 14/08 A3021 RMK AO2 SLP234 T01390083
2026-03-20 03:53:00,METAR KMSY 200353Z 20005KT 10SM CLR 14/08 A3022 RMK AO2 SLP236 T01440078
2026-03-20 02:53:00,METAR KMSY 200253Z 18006KT 10SM CLR 15/10 A3022 RMK AO2 SLP237 T01500100 53013
2026-03-20 01:53:00,METAR KMSY 200153Z 16006KT 10SM CLR 17/08 A3021 RMK AO2 SLP232 T01670083
2026-03-20 00:53:00,METAR KMSY 200053Z 15006KT 10SM CLR 17/06 A3020 RMK AO2 SLP229 T01720061
2026-03-19 23:53:00,METAR KMSY 192353Z 15007KT 10SM CLR 19/04 A3018 RMK AO2 SLP224 T01890039 10222 20189 57002
2026-03-19 22:53:00,METAR KMSY 192253Z 16008KT 10SM FEW035 FEW250 21/04 A3019 RMK AO2 SLP225 T02060039
2026-03-19 21:53:00,METAR KMSY 192153Z 19007KT 10SM FEW015 SCT250 22/02 A3019 RMK AO2 SLP225 FU FEW015 T02170022
2026-03-19 20:53:00,METAR KMSY 192053Z 17007KT 10SM FEW250 22/02 A3019 RMK AO2 SLP226 T02220017 56027
2026-03-19 19:53:00,METAR KMSY 191953Z 00000KT 10SM FEW010 22/01 A3021 RMK AO2 SLP233 FU FEW010 T02170011
2026-03-19 18:53:00,METAR KMSY 191853Z 18007KT 10SM FEW010 22/03 A3025 RMK AO2 SLP245 FU FEW010 T02170028
2026-03-19 17:53:00,METAR KMSY 191753Z 11004KT 10SM FEW010 FEW160 20/M01 A3027 RMK AO2 SLP253 FU FEW010 T02001006 10206 20061 58009
2026-03-19 16:53:00,METAR KMSY 191653Z 00000KT 10SM FEW160 19/00 A3029 RMK AO2 SLP261 T01890000
2026-03-19 15:53:00,METAR KMSY 191553Z 00000KT 10SM FEW010 SCT160 18/03 A3030 RMK AO2 SLP262 FU FEW010 T01780028
2026-03-19 14:53:00,METAR KMSY 191453Z 00000KT 10SM FEW010 SCT160 16/01 A3030 RMK AO2 SLP263 FU FEW010 T01560011 51010
2026-03-19 13:53:00,METAR KMSY 191353Z 00000KT 10SM FEW010 FEW150 13/08 A3030 RMK AO2 SLP262 FU FEW010 T01280083
2026-03-19 12:53:00,METAR KMSY 191253Z 00000KT 10SM FEW150 08/07 A3029 RMK AO2 SLP258 T00830067
2026-03-19 11:53:00,METAR KMSY 191153Z 00000KT 10SM FEW200 07/07 A3027 RMK AO2 SLP253 T00720067 10111 20067
2026-03-19 10:53:00,METAR KMSY 191053Z COR 00000KT 10SM CLR 08/07 A3024 RMK AO2 SLP244 T00830067 $
2026-03-19 09:53:00,METAR KMSY 190953Z 00000KT 10SM CLR 07/06 A3024 RMK AO2 SLP241 T00670056 $
2026-03-19 08:53:00,METAR KMSY 190853Z 00000KT 10SM CLR 09/04 A3024 RMK SLP232 T00930043 56011
2026-03-19 05:53:00,METAR KMSY 190553Z 00000KT 10SM CLR 09/04 A3026 RMK AO2 SLP249 T00890044 10139 20089 401670050 58005
2026-03-19 04:53:00,METAR KMSY 190453Z 14003KT 10SM FEW250 11/03 A3027 RMK AO2 SLP254 T01060033
2026-03-19 03:53:00,METAR KMSY 190353Z 15004KT 10SM FEW250 11/03 A3028 RMK AO2 SLP256 T01110028
2026-03-19 02:53:00,METAR KMSY 190253Z 14006KT 10SM FEW180 SCT250 11/03 A3028 RMK AO2 SLP254 T01110033 51006
2026-03-19 01:53:00,METAR KMSY 190153Z 16004KT 10SM FEW180 SCT250 12/04 A3027 RMK AO2 SLP252 T01220039
2026-03-19 00:53:00,METAR KMSY 190053Z 17004KT 10SM FEW180 SCT250 13/03 A3027 RMK AO2 SLP253 T01280028
2026-03-18 23:53:00,METAR KMSY 182353Z 18005KT 10SM FEW150 SCT250 14/02 A3026 RMK AO2 SLP248 T01440022 10167 20144 55002
2026-03-18 22:53:00,METAR KMSY 182253Z 16005KT 10SM FEW120 SCT150 SCT250 16/02 A3024 RMK AO2 SLP244 T01560017
2026-03-18 21:53:00,METAR KMSY 182153Z VRB05KT 10SM FEW120 BKN170 BKN250 16/01 A3026 RMK AO2 SLP251 T01560011
2026-03-18 20:53:00,METAR KMSY 182053Z 20005KT 10SM FEW120 BKN170 16/02 A3026 RMK AO2 SLP250 T01560017 58019
2026-03-18 19:53:00,METAR KMSY 181953Z 17005KT 10SM FEW120 OVC170 16/02 A3028 RMK AO2 SLP256 T01560022
2026-03-18 18:53:00,METAR KMSY 181853Z VRB05KT 10SM FEW120 OVC170 16/01 A3030 RMK AO2 SLP264 T01560011
2026-03-18 17:53:00,METAR KMSY 181753Z 15008KT 10SM FEW120 BKN170 15/01 A3032 RMK AO2 SLP269 T01500006 10156 20056 58003
2026-03-18 16:53:00,METAR KMSY 181653Z 00000KT 10SM FEW130 BKN200 14/M03 A3033 RMK AO2 SLP274 T01441033
2026-03-18 15:53:00,METAR KMSY 181553Z 03003KT 10SM FEW120 BKN200 14/M04 A3034 RMK AO2 SLP275 T01391044
2026-03-18 14:53:00,METAR KMSY 181453Z COR 00000KT 10SM FEW120 BKN250 13/M03 A3033 RMK AO2 SLP272 T01331028 53009
2026-03-18 13:53:00,METAR KMSY 181353Z 14003KT 10SM FEW120 BKN250 12/01 A3031 RMK AO2 SLP267 T01170006
2026-03-18 12:53:00,METAR KMSY 181253Z 00000KT 10SM FEW120 BKN250 06/02 A3031 RMK AO2 SLP265 T00610022
2026-03-18 11:53:00,METAR KMSY 181153Z 31003KT 10SM FEW120 BKN250 06/02 A3030 RMK AO2 SLP263 T00610017 10078 20050 53009 $
2026-03-18 10:53:00,METAR KMSY 181053Z 00000KT 10SM BKN250 06/02 A3028 RMK AO2 SLP255 T00560022 $
2026-03-18 09:53:00,METAR KMSY 180953Z 00000KT 10SM BKN250 06/02 A3028 RMK AO2 SLP255 T00610017 $
2026-03-18 08:53:00,METAR KMSY 180853Z 00000KT 10SM FEW250 07/01 A3027 RMK AO2 SLP253 T00670011 55004 $
2026-03-18 07:53:00,METAR KMSY 180753Z 00000KT 10SM FEW250 06/02 A3027 RMK AO2 SLP252 T00610017 $
2026-03-18 06:53:00,METAR KMSY 180653Z 27003KT 10SM FEW250 05/02 A3029 RMK AO2 SLP258 T00500022 $
2026-03-18 05:53:00,METAR KMSY 180553Z 00000KT 10SM CLR 07/02 A3028 RMK AO2 SLP257 T00670022 10117 20056 401220050 50000 $
2026-03-18 04:53:00,METAR KMSY 180453Z 00000KT 10SM FEW250 07/03 A3029 RMK AO2 SLP259 T00670028 $
2026-03-18 03:53:00,METAR KMSY 180353Z 00000KT 10SM FEW250 06/03 A3029 RMK AO2 SLP259 T00610033
2026-03-18 02:53:00,METAR KMSY 180253Z 00000KT 10SM FEW250 08/00 A3028 RMK AO2 SLP257 T00830000 53007
2026-03-18 01:53:00,METAR KMSY 180153Z 00000KT 10SM FEW250 08/02 A3027 RMK AO2 SLP253 T00830022
2026-03-18 00:53:00,METAR KMSY 180053Z 27003KT 10SM SCT250 09/M01 A3027 RMK AO2 SLP252 T00891006
2026-03-17 23:53:00,METAR KMSY 172353Z 30003KT 10SM FEW250 11/M07 A3026 RMK AO2 SLP250 T01111072 10122 20078 55011
2026-03-17 22:53:00,METAR KMSY 172253Z 31004KT 10SM FEW250 12/M07 A3026 RMK AO2 SLP248 T01171072
2026-03-17 21:53:00,METAR KMSY 172153Z VRB05KT 10SM FEW250 12/M07 A3027 RMK AO2 SLP254 T01171072
2026-03-17 20:53:00,METAR KMSY 172053Z 35005KT 10SM FEW250 11/M08 A3029 RMK AO2 SLP261 T01111078 58030
2026-03-17 19:53:00,METAR KMSY 171953Z 29008KT 10SM FEW250 11/M07 A3033 RMK AO2 SLP273 T01061072
2026-03-17 18:53:00,METAR KMSY 171853Z 34005KT 10SM FEW250 10/M07 A3036 RMK AO2 SLP283 T01001067
2026-03-17 17:53:00,METAR KMSY 171753Z 33003KT 10SM FEW250 08/M06 A3038 RMK AO2 SLP291 T00831061 10089 20050 50005
2026-03-17 16:53:00,METAR KMSY 171653Z 33006KT 10SM FEW250 08/M06 A3039 RMK AO2 SLP294 T00781061
2026-03-17 15:53:00,METAR KMSY 171553Z 36007KT 10SM FEW250 07/M06 A3039 RMK AO2 SLP292 T00721061
2026-03-17 14:53:00,METAR KMSY 171453Z 02010KT 10SM BKN250 07/M07 A3037 RMK AO2 SLP287 T00671067 51019
2026-03-17 13:53:00,METAR KMSY 171353Z 02011G19KT 10SM BKN250 06/M06 A3036 RMK AO2 SLP284 T00611061
2026-03-17 12:53:00,METAR KMSY 171253Z 35009G15KT 10SM BKN250 06/M06 A3034 RMK AO2 SLP277 T00561061
2026-03-17 11:53:00,METAR KMSY 171153Z 36009G16KT 10SM SCT250 06/M07 A3031 RMK AO2 SLP267 T00561072 10078 20056 53017
2026-03-17 10:53:00,METAR KMSY 171053Z 35012G21KT 10SM FEW250 06/M07 A3029 RMK AO2 SLP259 T00561072
2026-03-17 09:53:00,METAR KMSY 170953Z 34010G16KT 10SM CLR 06/M07 A3026 RMK AO2 SLP250 T00611072
2026-03-17 08:53:00,METAR KMSY 170853Z 33010G16KT 10SM CLR 07/M08 A3026 RMK AO2 SLP250 T00671083 50004
2026-03-17 07:53:00,METAR KMSY 170753Z 34008KT 10SM CLR 07/M06 A3027 RMK AO2 SLP253 T00721056
2026-03-17 06:53:00,METAR KMSY 170653Z 34008KT 10SM FEW200 07/M07 A3025 RMK AO2 SLP247 T00721072
2026-03-17 05:53:00,METAR KMSY 170553Z 34010G18KT 10SM SCT220 08/M09 A3025 RMK AO2 SLP247 T00781089 10100 20078 402280078 53006
2026-03-17 04:53:00,METAR KMSY 170453Z 35009G17KT 10SM BKN220 08/M08 A3024 RMK AO2 SLP241 T00831078
2026-03-17 03:53:00,METAR KMSY 170353Z 35013G22KT 10SM BKN200 09/M10 A3022 RMK AO2 SLP237 T00891100
2026-03-17 02:53:00,METAR KMSY 170253Z 33009G16KT 10SM BKN250 09/M08 A3023 RMK AO2 SLP240 T00891083 53045
2026-03-17 01:53:00,METAR KMSY 170153Z 33012G19KT 10SM SCT100 BKN250 09/M08 A3019 RMK AO2 SLP227 T00891078
2026-03-17 00:53:00,METAR KMSY 170053Z 33019G27KT 10SM SCT100 BKN250 09/M08 A3014 RMK AO2 PK WND 33027/0053 SLP208 T00941083
2026-03-16 23:53:00,METAR KMSY 162353Z 34013G22KT 10SM SCT100 BKN250 10/M07 A3010 RMK AO2 PK WND 33032/2314 SLP195 T01001067 10139 20100 53025
2026-03-16 22:53:00,METAR KMSY 162253Z 34017G28KT 10SM SCT110 BKN250 11/M06 A3008 RMK AO2 PK WND 33033/2211 SLP187 T01111061
2026-03-16 21:53:00,METAR KMSY 162153Z 34020G34KT 10SM FEW110 SCT250 13/M06 A3004 RMK AO2 PK WND 33034/2132 SLP174 T01281056
2026-03-16 20:53:00,METAR KMSY 162053Z 32011G30KT 10SM FEW110 FEW250 13/M04 A3003 RMK AO2 PK WND 34031/2041 SLP170 T01281044 55010
2026-03-16 19:53:00,METAR KMSY 161953Z 32017G31KT 10SM FEW110 FEW250 13/M03 A3002 RMK AO2 PK WND 31032/1942 SLP167 T01281033
2026-03-16 18:53:00,METAR KMSY 161853Z 32019G34KT 10SM FEW100 FEW250 13/M04 A3003 RMK AO2 PK WND 33034/1852 SLP173 T01331039
2026-03-16 17:53:00,METAR KMSY 161753Z 32014G33KT 10SM FEW100 FEW250 12/M01 A3006 RMK AO2 PK WND 30033/1747 SLP180 T01171011 10122 20078 58003
2026-03-16 16:53:00,METAR KMSY 161653Z 32017G30KT 10SM BKN100 10/00 A3007 RMK AO2 PK WND 33031/1629 SLP185 T01000000
2026-03-16 15:53:00,METAR KMSY 161553Z 33019G29KT 10SM FEW033 BKN085 08/00 A3006 RMK AO2 PK WND 31034/1534 SLP183 T00830000
2026-03-16 14:53:00,METAR KMSY 161453Z 32017G33KT 10SM FEW032 BKN075 OVC130 08/01 A3007 RMK AO2 PK WND 33034/1358 SLP184 T00830011 53038 $
2026-03-16 13:53:00,METAR KMSY 161353Z 32020G32KT 10SM FEW035 OVC070 09/02 A3003 RMK AO2 PK WND 32032/1352 SLP173 T00940022 $
2026-03-16 12:53:00,METAR KMSY 161253Z 32015G28KT 10SM FEW030 OVC070 11/04 A2998 RMK AO2 PK WND 31030/1232 SLP153 T01110044 $
2026-03-16 11:53:00,METAR KMSY 161153Z 33016G28KT 10SM FEW028 OVC060 12/05 A2995 RMK AO2 PK WND 33033/1142 PRESRR SLP146 60063 70063 T01220050 10228 20122 53050 $
2026-03-16 10:53:00,METAR KMSY 161053Z 34018G26KT 10SM FEW028 OVC055 13/08 A2989 RMK AO2 PK WND 33036/0956 SLP124 T01330078 $
2026-03-16 09:53:00,METAR KMSY 160953Z 33020G35KT 10SM SCT021 OVC047 14/07 A2983 RMK AO2 PK WND 32035/0953 SLP104 T01390067 $
2026-03-16 09:27:00,SPECI KMSY 160927Z 33017G25KT 10SM BKN016 OVC022 14/11 A2982 RMK AO2 PK WND 31026/0856 T01390106 $
2026-03-16 08:53:00,METAR KMSY 160853Z 31014G22KT 10SM OVC010 14/13 A2981 RMK AO2 PK WND 32029/0759 WSHFT 0740 RAE0759 TSE38 SLP095 OCNL LTGICCA E CB DSNT E P0000 60063 T01440133 53023 $
2026-03-16 08:44:00,SPECI KMSY 160844Z 33015G26KT 10SM OVC010 15/13 A2980 RMK AO2 PK WND 32029/0759 WSHFT 0740 RAE0759 TSE38 OCNL LTGICCA E CB DSNT E P0000 T01500133 $
2026-03-16 08:20:00,SPECI KMSY 160820Z COR 33016G27KT 10SM TS SCT010 BKN014CB OVC021 15/14 A2977 RMK AO2 PK WND 32029/0759 WSHFT 0740 RAE0759 FRQ LTGICCACG VC NE-S TS VC NE-S MOV E P0000 T01500139 $
2026-03-16 08:00:00,SPECI KMSY 160800Z 33018G29KT 10SM TS FEW007 SCT013 OVC019CB 15/13 A2977 RMK AO2 PK WND 32029/0759 WSHFT 0740 RAE0759 FRQ LTGICCACAG NE-S TS NE-S MOV E P0000 T01500133 $
2026-03-16 07:53:00,METAR KMSY 160753Z 33017G36KT 5SM -TSRA BR FEW007 BKN024CB OVC045 15/14 A2976 RMK AO2 PK WND 32037/0742 WSHFT 0731 RAB01 TSE02B05 SLP079 FRQ LTGICCACG OHD TS OHD MOV E P0063 T01500139 $
2026-03-16 07:47:00,SPECI KMSY 160747Z 33023G37KT 3SM +TSRA BR FEW007 BKN024CB OVC055 16/15 A2975 RMK AO2 PK WND 32037/0742 WSHFT 0731 RAB01 TSE02B05 PRESRR FRQ LTGICCACG OHD TS OHD MOV E P0051 $
2026-03-16 07:28:00,SPECI KMSY 160728Z 25009KT 3SM +TSRA BR FEW014 BKN029CB OVC085 22/22 A2970 RMK AO2 RAB01 TSE02B05 CONS LTGICCACG OHD TS OHD MOV E P0010 T02220217 $
2026-03-16 07:11:00,SPECI KMSY 160711Z 18008KT 9SM -TSRA FEW014 SCT027CB BKN055 23/21 A2971 RMK AO2 RAB01 TSE02B05 FRQ LTGICCACG SW-N TS SW-N MOV E P0000 T02280211 $
2026-03-16 06:53:00,METAR KMSY 160653Z 21008KT 10SM SCT014 SCT028 23/21 A2973 RMK AO2 SLP070 OCNL LTGICCA DSNT SW-NW CB DSNT SW-NW T02280211 $
2026-03-16 05:53:00,METAR KMSY 160553Z 22013KT 10SM SCT013 23/21 A2974 RMK AO2 SLP073 T02280211 10244 20228 402780172 55015 $
2026-03-16 04:53:00,METAR KMSY 160453Z 20010KT 10SM FEW020 FEW060 23/21 A2972 RMK AO2 SLP068 T02280211 $
2026-03-16 03:53:00,METAR KMSY 160353Z 20008KT 10SM SCT023 SCT070 23/21 A2976 RMK AO2 SLP080 T02330211 $
2026-03-16 02:53:00,METAR KMSY 160253Z 23008KT 10SM FEW019 BKN050 OVC065 23/21 A2978 RMK AO2 SLP087 T02330211 53016 $
2026-03-16 01:53:00,METAR KMSY 160153Z 19009G18KT 10SM SCT017 BKN047 23/21 A2973 RMK AO2 SLP070 T02330211 $
2026-03-16 00:53:00,METAR KMSY 160053Z 17011G21KT 10SM FEW025 FEW035 BKN250 23/21 A2971 RMK AO2 SLP063 T02330206 $
2026-03-15 23:53:00,METAR KMSY 152353Z 19012G17KT 10SM SCT035 BKN250 24/20 A2973 RMK AO2 SLP072 T02440200 10278 20244 56009 $
2026-03-15 22:53:00,METAR KMSY 152253Z 18013KT 10SM SCT033 BKN250 25/19 A2974 RMK AO2 SLP073 T02500189 $
2026-03-15 21:53:00,METAR KMSY 152153Z 19016G24KT 10SM SCT035 BKN250 27/18 A2974 RMK AO2 PK WND 18026/2129 SLP073 T02670183 $
2026-03-15 20:53:00,METAR KMSY 152053Z 18014G25KT 10SM SCT040 BKN250 27/19 A2976 RMK AO2 PK WND 19029/1955 SLP081 T02670189 58023 $
2026-03-15 19:53:00,METAR KMSY 151953Z 19019G26KT 10SM SCT037 BKN250 27/18 A2978 RMK AO2 PK WND 17030/1927 SLP089 T02720178 $
2026-03-15 18:53:00,METAR KMSY 151853Z 19019G27KT 10SM SCT037 BKN250 27/18 A2981 RMK AO2 PK WND 18029/1841 SLP097 T02720183 $
2026-03-15 17:53:00,METAR KMSY 151753Z 17016G26KT 10SM SCT037 BKN050 BKN250 26/18 A2983 RMK AO2 PK WND 19027/1700 SLP104 60000 T02610183 10267 20183 58013 $
2026-03-15 16:53:00,METAR KMSY 151653Z 17015G25KT 10SM FEW025 SCT035 BKN050 26/18 A2986 RMK AO2 SLP113 T02610183 $
2026-03-15 15:53:00,METAR KMSY 151553Z 17012KT 10SM FEW020 SCT027 BKN033 BKN250 24/20 A2986 RMK AO2 SLP116 T02440200 $
2026-03-15 14:53:00,METAR KMSY 151453Z 16010KT 10SM FEW034 SCT046 BKN250 23/19 A2987 RMK AO2 SLP117 60000 T02330189 50005 $
2026-03-15 13:53:00,METAR KMSY 151353Z 16004KT 10SM FEW025 SCT034 BKN046 BKN250 21/17 A2987 RMK AO2 RAB03E12 SLP118 P0000 T02060167 $
2026-03-15 12:53:00,METAR KMSY 151253Z VRB03KT 10SM FEW028 SCT044 BKN055 BKN250 19/17 A2986 RMK AO2 SLP113 T01890172 $
2026-03-15 11:53:00,METAR KMSY 151153Z 12007KT 10SM SCT055 18/17 A2985 RMK AO2 SLP112 T01780172 10200 20172 58010 $
2026-03-15 10:53:00,METAR KMSY 151053Z 12005KT 10SM FEW040 18/17 A2987 RMK AO2 SLP117 T01780167 $
2026-03-15 09:53:00,METAR KMSY 150953Z 12006KT 9SM FEW040 18/17 A2987 RMK AO2 SLP118 T01780172 $
2026-03-15 08:53:00,METAR KMSY 150853Z 13006KT 10SM CLR 18/17 A2988 RMK AO2 SLP122 T01830172 58020 $
