Time_recorded,METAR
2026-05-02 14:56:00,METAR KSFO 021456Z 23006KT 10SM BKN011 BKN013 13/10 A2994 RMK AO2 SLP138 T01280100 53009 $
2026-05-02 13:56:00,METAR KSFO 021356Z 23007KT 10SM FEW012 BKN014 13/10 A2993 RMK AO2 SLP133 T01280100 $
2026-05-02 12:56:00,METAR KSFO 021256Z 25011KT 10SM BKN013 13/10 A2991 RMK AO2 SLP129 T01280100 $
2026-05-02 11:56:00,METAR KSFO 021156Z 24010KT 10SM BKN013 13/10 A2991 RMK AO2 SLP129 T01280100 10128 20122 56011 $
2026-05-02 10:56:00,METAR KSFO 021056Z 24010KT 10SM BKN014 13/10 A2991 RMK AO2 SLP130 T01280100 $
2026-05-02 09:56:00,METAR KSFO 020956Z 26010KT 10SM OVC013 13/10 A2992 RMK AO2 SLP133 T01280100 $
2026-05-02 08:56:00,METAR KSFO 020856Z 24008KT 10SM FEW006 BKN014 13/10 A2995 RMK AO2 SLP140 T01280100 56003 $
2026-05-02 08:13:00,SPECI KSFO 020813Z 26009KT 10SM FEW004 BKN010 13/10 A2995 RMK AO2 T01280100 $
2026-05-02 07:56:00,METAR KSFO 020756Z 25006KT 10SM FEW004 BKN009 13/10 A2995 RMK AO2 SLP141 T01280100 401720122 $
2026-05-02 07:34:00,SPECI KSFO 020734Z 25009KT 10SM FEW004 BKN009 13/10 A2995 RMK AO2 T01280100 $
2026-05-02 06:56:00,METAR KSFO 020656Z 26009KT 10SM FEW006 BKN011 13/10 A2995 RMK AO2 SLP141 T01280100 $
2026-05-02 05:56:00,METAR KSFO 020556Z 28011KT 10SM FEW004 BKN011 13/10 A2995 RMK AO2 SLP143 T01280100 10167 20128 51013 $
2026-05-02 04:56:00,METAR KSFO 020456Z 27011KT 10SM FEW004 BKN010 13/11 A2995 RMK AO2 SLP143 T01280106 $
2026-05-02 03:56:00,METAR KSFO 020356Z 28015KT 10SM FEW004 BKN011 BKN180 13/10 A2994 RMK AO2 SLP137 T01280100 $
2026-05-02 03:39:00,SPECI KSFO 020339Z 26011KT 10SM FEW005 BKN012 BKN180 13/10 A2993 RMK AO2 T01280100 $
2026-05-02 02:56:00,METAR KSFO 020256Z 28013KT 10SM FEW005 SCT012 BKN180 BKN200 13/10 A2992 RMK AO2 SLP130 T01280100 55000 $
2026-05-02 01:56:00,METAR KSFO 020156Z 27013G22KT 10SM SCT007 BKN180 BKN200 14/10 A2991 RMK AO2 PK WND 28030/0112 SLP129 T01390100 $
2026-05-02 00:56:00,METAR KSFO 020056Z 29017KT 10SM SCT007 BKN200 15/11 A2992 RMK AO2 SLP130 T01500106 $
2026-05-01 23:56:00,METAR KSFO 012356Z 27017KT 10SM FEW006 BKN200 17/11 A2992 RMK AO2 SLP130 T01670106 10172 20139 56017 $
2026-05-01 22:56:00,METAR KSFO 012256Z 29017G25KT 10SM FEW008 FEW045 BKN200 17/11 A2993 RMK AO2 SLP133 T01720106 $
2026-05-01 21:56:00,METAR KSFO 012156Z 30017KT 10SM FEW007 FEW045 BKN200 17/11 A2996 RMK AO2 SLP144 T01670111 $
2026-05-01 20:56:00,METAR KSFO 012056Z 30016KT 10SM FEW006 FEW014 BKN250 17/11 A2997 RMK AO2 SLP148 T01670111 58013 $
2026-05-01 19:56:00,METAR KSFO 011956Z 30013G19KT 10SM FEW006 SCT017 BKN250 16/11 A2998 RMK AO2 SLP152 T01610106
2026-05-01 19:24:00,SPECI KSFO 011924Z 29011KT 10SM FEW006 SCT016 BKN250 17/11 A2999 RMK AO2 T01670111
2026-05-01 18:56:00,METAR KSFO 011856Z 29009KT 10SM FEW006 BKN014 BKN250 16/11 A3000 RMK AO2 SLP158 T01560111
2026-05-01 17:56:00,METAR KSFO 011756Z 26010KT 10SM FEW004 SCT008 OVC011 14/11 A3001 RMK AO2 SLP161 T01440106 10144 20122 50005
2026-05-01 16:56:00,METAR KSFO 011656Z 25012KT 10SM FEW004 BKN009 OVC012 13/11 A3001 RMK AO2 SLP161 T01330106
2026-05-01 15:56:00,METAR KSFO 011556Z 24009KT 10SM FEW004 BKN009 OVC013 13/11 A3000 RMK AO2 SLP159 T01280106
2026-05-01 15:42:00,SPECI KSFO 011542Z 23010KT 10SM FEW004 BKN009 OVC013 13/11 A3000 RMK AO2 T01280106
2026-05-01 14:56:00,METAR KSFO 011456Z 24007KT 10SM FEW005 OVC011 13/10 A2999 RMK AO2 SLP155 T01280100 53011
2026-05-01 13:56:00,METAR KSFO 011356Z 20004KT 10SM FEW006 OVC010 12/10 A2997 RMK AO2 SLP149 T01220100
2026-05-01 12:56:00,METAR KSFO 011256Z 24008KT 10SM FEW006 OVC010 12/10 A2996 RMK AO2 SLP145 T01220100
2026-05-01 11:56:00,METAR KSFO 011156Z 24009KT 10SM FEW006 OVC010 12/10 A2996 RMK AO2 SLP144 T01220100 10128 20122 56003
2026-05-01 10:56:00,METAR KSFO 011056Z 28006KT 10SM FEW006 OVC011 12/10 A2996 RMK AO2 SLP145 T01220100
2026-05-01 09:56:00,METAR KSFO 010956Z 28009KT 10SM FEW006 OVC010 13/10 A2996 RMK AO2 SLP144 T01280100
2026-05-01 08:56:00,METAR KSFO 010856Z 28010KT 10SM FEW006 BKN012 13/10 A2997 RMK AO2 SLP147 T01280100 58004
2026-05-01 07:56:00,METAR KSFO 010756Z 29011KT 10SM FEW006 BKN013 12/10 A2998 RMK AO2 SLP152 T01220100 401890111
2026-05-01 06:56:00,METAR KSFO 010656Z 29008KT 10SM FEW006 BKN012 13/10 A2998 RMK AO2 SLP152 T01280100
2026-05-01 05:56:00,METAR KSFO 010556Z 27008KT 10SM FEW006 BKN011 13/10 A2998 RMK AO2 SLP151 T01280100 10161 20122 51011
2026-05-01 04:56:00,METAR KSFO 010456Z 28013G21KT 10SM FEW006 BKN010 13/10 A2998 RMK AO2 SLP151 T01280100
2026-05-01 03:56:00,METAR KSFO 010356Z 28013KT 10SM FEW004 BKN011 13/10 A2996 RMK AO2 SLP145 T01280100
2026-05-01 02:56:00,METAR KSFO 010256Z 28015G22KT 10SM FEW005 BKN011 13/10 A2995 RMK AO2 PK WND 27028/0157 SLP140 T01280100 53003
2026-05-01 02:19:00,SPECI KSFO 010219Z 28021KT 10SM FEW008 BKN012 13/10 A2993 RMK AO2 PK WND 27028/0157 T01330100
2026-05-01 01:56:00,METAR KSFO 010156Z 29018G30KT 10SM FEW008 SCT012 14/10 A2993 RMK AO2 PK WND 29032/0106 SLP136 T01390100
2026-05-01 00:56:00,METAR KSFO 010056Z 28021G31KT 10SM SCT009 15/10 A2994 RMK AO2 PK WND 29033/0034 SLP139 T01500100
2026-04-30 23:56:00,METAR KSFO 302356Z 29020KT 10SM FEW010 FEW043 16/10 A2994 RMK AO2 PK WND 29027/2304 SLP137 T01610100 10189 20161 58010
2026-04-30 22:56:00,METAR KSFO 302256Z 29019G27KT 10SM FEW010 FEW045 17/11 A2994 RMK AO2 PK WND 28027/2204 SLP140 T01720106
2026-04-30 21:56:00,METAR KSFO 302156Z 28018G24KT 10SM FEW012 FEW045 18/11 A2996 RMK AO2 SLP146 T01780106
2026-04-30 20:56:00,METAR KSFO 302056Z 30016KT 10SM FEW006 18/11 A2997 RMK AO2 SLP147 T01780106 56010
2026-04-30 19:56:00,METAR KSFO 301956Z 29015KT 10SM FEW006 19/11 A2997 RMK AO2 SLP150 T01890106
2026-04-30 18:56:00,METAR KSFO 301856Z 28009KT 10SM FEW006 18/10 A2999 RMK AO2 SLP154 T01780100
2026-04-30 17:56:00,METAR KSFO 301756Z 25006KT 10SM FEW006 16/10 A3000 RMK AO2 SLP157 T01610100 10161 20111 58000
2026-04-30 16:56:00,METAR KSFO 301656Z 25004G14KT 10SM FEW006 SCT017 15/10 A3000 RMK AO2 SLP158 T01500100
2026-04-30 15:56:00,METAR KSFO 301556Z 24009KT 10SM FEW005 SCT014 14/09 A3000 RMK AO2 SLP159 T01440094
2026-04-30 14:56:00,METAR KSFO 301456Z 26008KT 10SM FEW005 13/09 A3000 RMK AO2 SLP158 T01280094 53003
2026-04-30 13:56:00,METAR KSFO 301356Z 00000KT 10SM FEW006 12/09 A2999 RMK AO2 SLP155 T01170094
2026-04-30 12:56:00,METAR KSFO 301256Z 27005KT 10SM FEW008 FEW011 12/09 A2999 RMK AO2 SLP154 T01170089
2026-04-30 11:56:00,METAR KSFO 301156Z 26006KT 10SM FEW008 SCT011 12/09 A2999 RMK AO2 SLP154 T01170089 10128 20117 56009 $
2026-04-30 11:37:00,SPECI KSFO 301137Z 27008KT 10SM FEW008 SCT011 12/09 A2999 RMK AO2 T01170094 $
2026-04-30 10:56:00,METAR KSFO 301056Z 27010KT 10SM FEW008 BKN011 12/09 A2999 RMK AO2 SLP155 T01220094 $
2026-04-30 09:56:00,METAR KSFO 300956Z 28013KT 10SM FEW008 BKN011 12/09 A2999 RMK AO2 SLP156 T01220094 $
2026-04-30 08:56:00,METAR KSFO 300856Z 28015KT 10SM FEW008 BKN011 12/09 A3002 RMK AO2 SLP164 T01220094 58007 $
2026-04-30 07:56:00,METAR KSFO 300756Z 28012KT 10SM FEW008 BKN012 13/10 A3003 RMK AO2 SLP169 T01280100 401890111 $
2026-04-30 06:56:00,METAR KSFO 300656Z 27013G21KT 10SM FEW009 BKN012 13/10 A3004 RMK AO2 SLP171 T01280100 $
2026-04-30 05:56:00,METAR KSFO 300556Z 29015G21KT 10SM FEW009 BKN012 13/10 A3004 RMK AO2 SLP171 T01280100 10167 20128 51010 $
2026-04-30 05:44:00,SPECI KSFO 300544Z 28011KT 10SM FEW009 BKN012 13/10 A3004 RMK AO2 T01280100 $
2026-04-30 04:56:00,METAR KSFO 300456Z 28013KT 10SM FEW009 FEW012 13/10 A3004 RMK AO2 SLP171 T01280100 $
2026-04-30 03:56:00,METAR KSFO 300356Z 28014KT 10SM FEW009 13/10 A3003 RMK AO2 PK WND 28028/0305 SLP169 T01280100 $
2026-04-30 02:56:00,METAR KSFO 300256Z 28020G30KT 10SM FEW010 14/10 A3001 RMK AO2 PK WND 28030/0253 SLP161 T01390100 56005 $
2026-04-30 01:56:00,METAR KSFO 300156Z 27024G30KT 10SM FEW012 15/10 A3001 RMK AO2 PK WND 27032/0113 SLP161 T01500100 $
2026-04-30 00:56:00,METAR KSFO 300056Z 28022G31KT 10SM FEW012 FEW040 16/09 A3002 RMK AO2 PK WND 29032/0035 SLP164 T01560094 $
2026-04-29 23:56:00,METAR KSFO 292356Z 28024KT 10SM FEW012 FEW040 17/11 A3002 RMK AO2 PK WND 28031/2342 SLP166 T01670106 10189 20161 58013 $
2026-04-29 22:56:00,METAR KSFO 292256Z 28019G29KT 10SM FEW014 FEW040 18/11 A3004 RMK AO2 PK WND 28029/2229 SLP173 T01780106 $
2026-04-29 21:56:00,METAR KSFO 292156Z 29019G26KT 10SM FEW014 FEW040 18/11 A3005 RMK AO2 PK WND 29026/2153 SLP176 T01780111 $
2026-04-29 20:56:00,METAR KSFO 292056Z 29017KT 10SM FEW006 FEW045 19/11 A3006 RMK AO2 SLP179 T01890111 56009 $
2026-04-29 19:56:00,METAR KSFO 291956Z 30016KT 10SM FEW006 FEW050 18/11 A3006 RMK AO2 WSHFT 1858 SLP179 T01830111
2026-04-29 19:41:00,SPECI KSFO 291941Z 30015KT 10SM FEW006 FEW050 18/11 A3007 RMK AO2 WSHFT 1858 T01830111
2026-04-29 19:18:00,SPECI KSFO 291918Z 30013KT 10SM FEW050 19/11 A3007 RMK AO2 WSHFT 1858 T01890111
2026-04-29 18:56:00,METAR KSFO 291856Z 34007KT 310V010 10SM FEW050 17/13 A3008 RMK AO2 SLP185 T01720128
2026-04-29 17:56:00,METAR KSFO 291756Z 06005KT 10SM FEW014 17/12 A3009 RMK AO2 SLP188 T01670117 10167 20111 58004
2026-04-29 16:56:00,METAR KSFO 291656Z 05004KT 10SM FEW014 16/11 A3009 RMK AO2 SLP190 T01560106
2026-04-29 15:56:00,METAR KSFO 291556Z VRB03KT 10SM FEW009 FEW038 15/11 A3010 RMK AO2 SLP192 T01500111
2026-04-29 14:56:00,METAR KSFO 291456Z 14003KT 10SM FEW009 FEW038 13/11 A3010 RMK AO2 SLP192 T01330106 53006
2026-04-29 14:46:00,SPECI KSFO 291446Z VRB03KT 10SM FEW009 FEW038 13/11 A3010 RMK AO2 T01330106
2026-04-29 13:56:00,METAR KSFO 291356Z 19003KT 10SM FEW040 12/09 A3008 RMK AO2 SLP187 T01170094
2026-04-29 12:56:00,METAR KSFO 291256Z 27003KT 10SM FEW009 12/10 A3007 RMK AO2 SLP182 T01170100
2026-04-29 11:56:00,METAR KSFO 291156Z 24005KT 10SM FEW008 12/09 A3008 RMK AO2 SLP186 T01170094 10133 20117 58009
2026-04-29 10:56:00,METAR KSFO 291056Z 29003KT 10SM FEW007 SCT011 12/10 A3010 RMK AO2 SLP191 T01220100
2026-04-29 10:15:00,SPECI KSFO 291015Z 25003KT 10SM FEW007 SCT012 12/10 A3009 RMK AO2 T01220100
2026-04-29 09:56:00,METAR KSFO 290956Z 27006KT 10SM FEW007 BKN011 13/10 A3010 RMK AO2 SLP191 T01280100
2026-04-29 08:56:00,METAR KSFO 290856Z 30013KT 10SM FEW007 BKN011 13/11 A3011 RMK AO2 SLP195 T01280106 50002
2026-04-29 07:56:00,METAR KSFO 290756Z 27013KT 10SM FEW007 BKN011 13/11 A3011 RMK AO2 SLP197 T01280106 401890111
2026-04-29 07:37:00,SPECI KSFO 290737Z 27015G24KT 10SM FEW007 BKN011 13/11 A3012 RMK AO2 T01280106
2026-04-29 06:56:00,METAR KSFO 290656Z 28016KT 10SM FEW009 13/11 A3011 RMK AO2 SLP196 T01280106
2026-04-29 05:56:00,METAR KSFO 290556Z 29013KT 10SM FEW009 13/11 A3010 RMK AO2 SLP193 T01330106 10172 20133 50007
2026-04-29 04:56:00,METAR KSFO 290456Z 28010KT 10SM FEW026 13/10 A3011 RMK AO2 SLP195 T01330100
2026-04-29 03:56:00,METAR KSFO 290356Z 28014KT 10SM FEW026 14/11 A3010 RMK AO2 SLP192 T01390106
2026-04-29 02:56:00,METAR KSFO 290256Z 28014KT 10SM FEW028 14/09 A3008 RMK AO2 SLP185 T01440094 55003
2026-04-29 01:56:00,METAR KSFO 290156Z 28016KT 10SM FEW028 16/11 A3008 RMK AO2 SLP185 T01560106
2026-04-29 00:56:00,METAR KSFO 290056Z 29019KT 10SM FEW048 17/10 A3008 RMK AO2 SLP187 T01670100
2026-04-28 23:56:00,METAR KSFO 282356Z 28015G24KT 10SM FEW048 17/10 A3009 RMK AO2 SLP188 T01720100 10189 20156 55009
2026-04-28 22:56:00,METAR KSFO 282256Z 29016KT 10SM FEW046 18/10 A3008 RMK AO2 SLP187 T01830100
2026-04-28 21:56:00,METAR KSFO 282156Z 30015KT 10SM FEW046 18/11 A3010 RMK AO2 SLP192 T01830106
2026-04-28 20:56:00,METAR KSFO 282056Z 30011KT 10SM FEW050 19/09 A3011 RMK AO2 SLP197 T01890094 58009
2026-04-28 19:56:00,METAR KSFO 281956Z 03006KT 10SM FEW024 17/11 A3013 RMK AO2 SLP201 T01670106 $
2026-04-28 18:56:00,METAR KSFO 281856Z 08007KT 10SM FEW024 16/10 A3014 RMK AO2 SLP205 T01610100 $
2026-04-28 17:56:00,METAR KSFO 281756Z 35006KT 10SM FEW024 16/09 A3014 RMK AO2 SLP206 T01610089 10161 20111 51005 $
2026-04-28 16:56:00,METAR KSFO 281656Z 28005KT 10SM FEW024 16/09 A3014 RMK AO2 SLP206 T01560089 $
2026-04-28 16:12:00,SPECI KSFO 281612Z 27004KT 10SM SCT023 14/08 A3014 RMK AO2 T01440083
2026-04-28 15:56:00,METAR KSFO 281556Z 27005KT 10SM BKN023 14/08 A3014 RMK AO2 SLP205 T01390083
2026-04-28 15:23:00,SPECI KSFO 281523Z 27005KT 10SM BKN022 13/08 A3014 RMK AO2 T01330083
2026-04-28 14:56:00,METAR KSFO 281456Z 26007KT 10SM SCT021 13/08 A3013 RMK AO2 SLP201 T01280078 53009
2026-04-28 13:56:00,METAR KSFO 281356Z 26006KT 10SM FEW014 12/08 A3011 RMK AO2 SLP195 T01220083
2026-04-28 12:56:00,METAR KSFO 281256Z 27006KT 10SM FEW014 SCT021 12/08 A3010 RMK AO2 SLP193 T01170083
2026-04-28 11:56:00,METAR KSFO 281156Z 23005KT 10SM FEW016 FEW200 12/08 A3010 RMK AO2 SLP192 T01170083 10128 20111 55001
2026-04-28 10:56:00,METAR KSFO 281056Z 26005KT 10SM FEW016 SCT200 12/08 A3009 RMK AO2 SLP189 T01170083
2026-04-28 09:56:00,METAR KSFO 280956Z 20005KT 10SM SCT017 BKN200 12/08 A3009 RMK AO2 SLP190 T01170083
2026-04-28 08:56:00,METAR KSFO 280856Z 26006KT 10SM FEW016 BKN200 12/08 A3010 RMK AO2 SLP193 T01220083 58003
2026-04-28 07:56:00,METAR KSFO 280756Z 26008KT 10SM FEW016 BKN200 12/08 A3011 RMK AO2 SLP197 T01220083 401720111
2026-04-28 06:56:00,METAR KSFO 280656Z 28010KT 10SM FEW016 SCT200 13/08 A3011 RMK AO2 SLP195 T01280083
2026-04-28 05:56:00,METAR KSFO 280556Z 26009KT 10SM FEW019 FEW200 13/08 A3011 RMK AO2 SLP196 T01280083 10167 20128 51016
2026-04-28 04:56:00,METAR KSFO 280456Z 27009KT 10SM FEW024 13/08 A3011 RMK AO2 SLP195 T01280083
2026-04-28 03:56:00,METAR KSFO 280356Z 28013KT 10SM FEW024 13/08 A3009 RMK AO2 SLP189 T01280078
2026-04-28 02:56:00,METAR KSFO 280256Z 28019G26KT 10SM FEW024 13/08 A3006 RMK AO2 PK WND 29027/0230 SLP180 T01330083 51006
2026-04-28 01:56:00,METAR KSFO 280156Z 28017KT 10SM FEW024 14/08 A3006 RMK AO2 PK WND 29026/0137 SLP178 T01440083
2026-04-28 00:56:00,METAR KSFO 280056Z 28018KT 10SM FEW026 15/08 A3005 RMK AO2 PK WND 29029/0032 SLP177 T01500078
2026-04-27 23:56:00,METAR KSFO 272356Z 27015G23KT 10SM FEW026 16/08 A3005 RMK AO2 SLP174 T01610078 10172 20144 58004
2026-04-27 22:56:00,METAR KSFO 272256Z 28018G24KT 10SM FEW028 16/08 A3005 RMK AO2 SLP176 T01610078
2026-04-27 21:56:00,METAR KSFO 272156Z 27015KT 10SM FEW028 17/08 A3006 RMK AO2 SLP178 T01720078
2026-04-27 20:56:00,METAR KSFO 272056Z 27013KT 10SM FEW033 17/08 A3006 RMK AO2 SLP178 T01670078 50002
2026-04-27 19:56:00,METAR KSFO 271956Z 27013KT 10SM FEW033 16/08 A3006 RMK AO2 SLP179 T01610078
2026-04-27 18:56:00,METAR KSFO 271856Z 27010KT 10SM SCT033 16/07 A3006 RMK AO2 SLP180 T01560072
2026-04-27 17:56:00,METAR KSFO 271756Z 30010KT 10SM BKN030 16/08 A3005 RMK AO2 SLP177 T01560078 10156 20111 51009
2026-04-27 16:56:00,METAR KSFO 271656Z 26008KT 10SM BKN031 15/07 A3005 RMK AO2 SLP174 T01500067
2026-04-27 15:56:00,METAR KSFO 271556Z 32008KT 10SM SCT028 14/07 A3004 RMK AO2 SLP171 T01390072
2026-04-27 14:56:00,METAR KSFO 271456Z 32008KT 10SM SCT023 13/08 A3003 RMK AO2 SLP168 T01330078 53011
2026-04-27 13:56:00,METAR KSFO 271356Z 30006KT 10SM FEW016 SCT070 12/08 A3001 RMK AO2 SLP162 T01170078
2026-04-27 12:56:00,METAR KSFO 271256Z 32004KT 10SM FEW016 SCT070 12/08 A3000 RMK AO2 SLP158 T01170083 $
2026-04-27 11:56:00,METAR KSFO 271156Z 30006KT 10SM FEW015 SCT023 SCT070 12/08 A2999 RMK AO2 SLP157 T01220078 10133 20122 55000 $
2026-04-27 11:13:00,SPECI KSFO 271113Z 31007KT 10SM FEW014 BKN025 BKN065 13/08 A2999 RMK AO2 T01280078 $
2026-04-27 10:56:00,METAR KSFO 271056Z 27008KT 10SM FEW014 BKN065 13/08 A2999 RMK AO2 SLP155 T01280078 $
2026-04-27 09:56:00,METAR KSFO 270956Z 28008KT 10SM FEW015 OVC065 13/08 A2999 RMK AO2 SLP154 T01280078 $
2026-04-27 08:56:00,METAR KSFO 270856Z 28007KT 10SM FEW015 OVC065 13/07 A2999 RMK AO2 SLP156 T01280072 50003 $
2026-04-27 07:56:00,METAR KSFO 270756Z 30008KT 10SM FEW015 OVC065 13/08 A3000 RMK AO2 SLP157 T01330078 401670128 $
2026-04-27 06:56:00,METAR KSFO 270656Z 27011KT 10SM FEW014 OVC060 13/07 A2999 RMK AO2 SLP155 T01330072 $
2026-04-27 05:56:00,METAR KSFO 270556Z 27011KT 10SM FEW013 BKN065 13/08 A2998 RMK AO2 SLP153 T01330078 10161 20133 50006 $
2026-04-27 04:56:00,METAR KSFO 270456Z 28013KT 10SM FEW013 BKN060 13/08 A2999 RMK AO2 SLP154 T01330083 $
2026-04-27 03:56:00,METAR KSFO 270356Z 27012KT 10SM FEW015 BKN060 13/08 A2997 RMK AO2 SLP150 T01330078 $
2026-04-27 02:56:00,METAR KSFO 270256Z 28012KT 10SM FEW023 SCT033 BKN055 14/07 A2997 RMK AO2 SLP147 T01390072 53007 $
2026-04-27 01:56:00,METAR KSFO 270156Z 27008KT 10SM FEW023 SCT033 BKN047 14/07 A2996 RMK AO2 SLP143 T01390072 $
2026-04-27 00:56:00,METAR KSFO 270056Z 28013G20KT 10SM FEW023 SCT035 BKN060 15/06 A2995 RMK AO2 SLP143 T01500061 $
2026-04-26 23:56:00,METAR KSFO 262356Z 27014KT 10SM FEW023 SCT032 BKN047 16/06 A2995 RMK AO2 SLP140 T01560061 10167 20144 53001 $
2026-04-26 22:56:00,METAR KSFO 262256Z 27011G21KT 10SM FEW025 FEW038 BKN060 16/06 A2994 RMK AO2 SLP138 T01610056 $
2026-04-26 21:56:00,METAR KSFO 262156Z 26013G18KT 10SM FEW027 SCT034 BKN060 17/06 A2994 RMK AO2 SLP140 T01670056 $
2026-04-26 20:56:00,METAR KSFO 262056Z 28014KT 10SM FEW030 SCT039 BKN060 15/06 A2994 RMK AO2 SLP140 T01500061 51009 $
2026-04-26 19:56:00,METAR KSFO 261956Z 29016G20KT 10SM FEW032 SCT039 BKN060 16/06 A2994 RMK AO2 SLP137 T01610056 $
2026-04-26 18:56:00,METAR KSFO 261856Z 28012G20KT 10SM FEW032 SCT039 BKN055 16/06 A2993 RMK AO2 SLP136 T01560061 $
2026-04-26 17:56:00,METAR KSFO 261756Z 31013G20KT 10SM FEW028 SCT035 BKN060 15/07 A2992 RMK AO2 SLP130 T01500072 10161 20128 53014 $
2026-04-26 16:56:00,METAR KSFO 261656Z 29009KT 10SM FEW033 SCT047 BKN060 15/07 A2990 RMK AO2 SLP124 T01500067 $
2026-04-26 15:56:00,METAR KSFO 261556Z 28010KT 10SM FEW033 SCT041 BKN050 13/07 A2989 RMK AO2 SLP121 T01330072 $
2026-04-26 14:56:00,METAR KSFO 261456Z 30009KT 10SM FEW030 SCT048 BKN055 13/08 A2988 RMK AO2 SLP117 T01280083 53017 $
2026-04-26 13:56:00,METAR KSFO 261356Z 30010KT 10SM FEW021 BKN030 OVC050 13/08 A2986 RMK AO2 SLP110 T01280083 $
2026-04-26 12:56:00,METAR KSFO 261256Z 28011KT 10SM FEW022 BKN035 OVC050 13/10 A2984 RMK AO2 SLP103 T01280100 $
2026-04-26 11:56:00,METAR KSFO 261156Z 27011KT 10SM FEW022 SCT035 BKN055 13/09 A2983 RMK AO2 SLP100 60000 T01280094 10133 20117 56003 $
2026-04-26 10:56:00,METAR KSFO 261056Z 25005KT 10SM FEW012 BKN035 OVC055 13/09 A2983 RMK AO2 SLP101 T01330089 $
2026-04-26 10:03:00,SPECI KSFO 261003Z COR 26005KT 10SM FEW012 BKN023 OVC055 13/09 A2982 RMK AO2 T01280094 $
2026-04-26 09:56:00,METAR KSFO 260956Z 26005KT 10SM FEW012 BKN023 OVC045 13/09 A2982 RMK AO2 RAB00E14 SLP099 P0000 T01280094 $
2026-04-26 08:56:00,METAR KSFO 260856Z 19005KT 10SM FEW012 BKN023 OVC045 13/09 A2984 RMK AO2 SLP103 T01280094 56005 $
2026-04-26 07:56:00,METAR KSFO 260756Z 21007KT 10SM FEW012 BKN023 BKN045 13/09 A2984 RMK AO2 SLP106 T01280089 401500117 $
2026-04-26 06:56:00,METAR KSFO 260656Z 20008KT 10SM FEW012 SCT023 OVC038 12/09 A2984 RMK AO2 SLP105 T01220094 $
2026-04-26 05:56:00,METAR KSFO 260556Z 28008KT 10SM FEW012 SCT023 OVC035 12/10 A2985 RMK AO2 RAB21E30 SLP108 P0000 60000 T01220100 10144 20122 51006 $
2026-04-26 04:56:00,METAR KSFO 260456Z 24006KT 10SM FEW012 SCT022 OVC035 13/09 A2985 RMK AO2 RAB03E14 SLP107 P0000 T01280089 $
2026-04-26 03:56:00,METAR KSFO 260356Z 25005KT 10SM FEW017 SCT025 OVC055 13/08 A2984 RMK AO2 SLP106 T01330078 $
2026-04-26 02:56:00,METAR KSFO 260256Z 23009KT 10SM FEW017 SCT024 BKN055 13/08 A2983 RMK AO2 SLP102 T01330078 58002 $
2026-04-26 01:56:00,METAR KSFO 260156Z 26010KT 10SM FEW018 BKN048 OVC055 14/08 A2983 RMK AO2 SLP102 T01390078 $
2026-04-26 00:56:00,METAR KSFO 260056Z 26008KT 10SM FEW017 BKN036 OVC050 14/08 A2984 RMK AO2 SLP104 T01390078 $
2026-04-25 23:56:00,METAR KSFO 252356Z 25009KT 10SM SCT025 BKN039 OVC049 14/08 A2984 RMK AO2 SLP104 T01390078 10150 20133 58012 $
2026-04-25 22:56:00,METAR KSFO 252256Z 24013KT 10SM SCT017 BKN038 OVC050 14/08 A2985 RMK AO2 SLP107 T01440078 $
2026-04-25 21:56:00,METAR KSFO 252156Z 23009KT 10SM FEW015 BKN038 OVC049 15/08 A2987 RMK AO2 SLP114 T01500078 $
2026-04-25 20:56:00,METAR KSFO 252056Z 24010KT 10SM FEW027 BKN034 OVC042 14/07 A2987 RMK AO2 SLP115 T01390072 58004 $
2026-04-25 19:56:00,METAR KSFO 251956Z 26010KT 10SM FEW027 OVC042 14/08 A2987 RMK AO2 SLP116 T01390078 $
2026-04-25 18:56:00,METAR KSFO 251856Z 26011KT 10SM FEW026 OVC040 14/07 A2988 RMK AO2 SLP119 T01440072 $
2026-04-25 17:56:00,METAR KSFO 251756Z 28010KT 10SM FEW026 OVC036 14/08 A2989 RMK AO2 SLP120 T01390078 10139 20128 53004 $
2026-04-25 16:56:00,METAR KSFO 251656Z 27009KT 10SM FEW024 OVC037 13/08 A2988 RMK AO2 SLP118 T01330078 $
2026-04-25 15:56:00,METAR KSFO 251556Z 28008KT 10SM FEW024 OVC035 13/08 A2987 RMK AO2 SLP115 T01330083 $
2026-04-25 14:56:00,METAR KSFO 251456Z 28008KT 10SM FEW023 OVC033 13/08 A2987 RMK AO2 SLP116 T01280078 53004 $
2026-04-25 13:56:00,METAR KSFO 251356Z 28007KT 10SM FEW024 BKN030 OVC035 13/08 A2986 RMK AO2 SLP111 T01280078 $
2026-04-25 12:56:00,METAR KSFO 251256Z 27007KT 10SM FEW023 OVC033 13/08 A2986 RMK AO2 SLP111 T01280083 $
2026-04-25 11:56:00,METAR KSFO 251156Z 22004KT 10SM SCT021 OVC030 13/08 A2986 RMK AO2 SLP112 T01280083 10128 20122 56008 $
2026-04-25 10:56:00,METAR KSFO 251056Z 20006KT 10SM BKN032 13/07 A2987 RMK AO2 SLP114 T01280072 $
2026-04-25 10:51:00,SPECI KSFO 251051Z 21005KT 10SM BKN032 13/07 A2987 RMK AO2 $
2026-04-25 09:56:00,METAR KSFO 250956Z 24007KT 10SM BKN029 13/07 A2987 RMK AO2 SLP115 T01280072 $
2026-04-25 08:56:00,METAR KSFO 250856Z 26004KT 10SM BKN026 13/08 A2989 RMK AO2 SLP120 T01280078 58006 $
2026-04-25 07:56:00,METAR KSFO 250756Z 27006KT 10SM BKN028 13/08 A2990 RMK AO2 SLP124 T01280078 401720117 $
2026-04-25 06:56:00,METAR KSFO 250656Z 28009KT 10SM BKN028 13/07 A2990 RMK AO2 SLP126 T01280072 $
2026-04-25 05:56:00,METAR KSFO 250556Z 29011KT 10SM FEW017 BKN028 13/08 A2990 RMK AO2 SLP126 T01280083 10161 20128 50006 $
2026-04-25 05:44:00,SPECI KSFO 250544Z 28009KT 10SM FEW017 BKN028 13/09 A2991 RMK AO2 T01280089 $
2026-04-25 04:56:00,METAR KSFO 250456Z 26012KT 10SM FEW017 SCT025 13/08 A2992 RMK AO2 SLP131 T01280078 $
2026-04-25 03:56:00,METAR KSFO 250356Z 28012KT 10SM FEW017 SCT025 13/08 A2990 RMK AO2 SLP125 T01330078 $
2026-04-25 02:56:00,METAR KSFO 250256Z 28011KT 10SM FEW017 BKN021 14/09 A2989 RMK AO2 SLP120 T01390089 58007 $
2026-04-25 01:56:00,METAR KSFO 250156Z 27015G20KT 10SM FEW017 BKN022 14/09 A2990 RMK AO2 SLP124 T01440089 $
2026-04-25 01:31:00,SPECI KSFO 250131Z 27014KT 10SM FEW017 BKN022 14/09 A2990 RMK AO2 T01440089 $
2026-04-25 00:56:00,METAR KSFO 250056Z 28019KT 10SM FEW017 SCT022 16/08 A2990 RMK AO2 PK WND 29026/2357 SLP125 T01560083 $
2026-04-24 23:56:00,METAR KSFO 242356Z 26018G26KT 10SM FEW017 SCT025 SCT200 16/08 A2991 RMK AO2 PK WND 28026/2317 SLP127 T01610083 10172 20156 56009 $
2026-04-24 22:56:00,METAR KSFO 242256Z 26018G23KT 10SM FEW019 FEW026 SCT200 17/08 A2991 RMK AO2 SLP127 T01670083 $
2026-04-24 21:56:00,METAR KSFO 242156Z 26017KT 10SM FEW019 FEW026 SCT200 17/08 A2993 RMK AO2 PK WND 28026/2122 SLP133 T01670083 $
2026-04-24 20:56:00,METAR KSFO 242056Z 28017G24KT 10SM FEW026 SCT080 SCT180 16/08 A2993 RMK AO2 SLP136 T01560083 55007
2026-04-24 19:56:00,METAR KSFO 241956Z 29012KT 10SM FEW026 SCT080 SCT180 17/09 A2993 RMK AO2 SLP135 T01670089
2026-04-24 18:56:00,METAR KSFO 241856Z 28012KT 10SM FEW026 SCT032 SCT180 17/09 A2995 RMK AO2 SLP142 T01670089
2026-04-24 17:56:00,METAR KSFO 241756Z 29011G16KT 10SM SCT027 BKN032 16/08 A2996 RMK AO2 SLP144 T01610083 10161 20117 55002
2026-04-24 16:56:00,METAR KSFO 241656Z 24008KT 10SM BKN021 BKN200 14/08 A2995 RMK AO2 SLP143 T01390083
2026-04-24 15:56:00,METAR KSFO 241556Z 27007KT 10SM BKN021 BKN200 13/08 A2996 RMK AO2 SLP144 T01280078
2026-04-24 14:56:00,METAR KSFO 241456Z 26007KT 10SM BKN021 BKN200 13/08 A2996 RMK AO2 SLP145 T01280083 53000 $
2026-04-24 13:56:00,METAR KSFO 241356Z 27004KT 10SM BKN021 BKN200 12/08 A2996 RMK AO2 SLP145 T01220078 $
2026-04-24 13:23:00,SPECI KSFO 241323Z 27008KT 10SM SCT021 BKN200 12/08 A2996 RMK AO2 T01220078 $
2026-04-24 12:56:00,METAR KSFO 241256Z 26008KT 10SM BKN020 BKN200 12/08 A2996 RMK AO2 SLP144 T01220078 $
2026-04-24 12:39:00,SPECI KSFO 241239Z 25007KT 10SM BKN020 BKN200 12/08 A2996 RMK AO2 T01220083 $
2026-04-24 11:56:00,METAR KSFO 241156Z 28009KT 10SM SCT017 BKN200 12/08 A2996 RMK AO2 SLP145 T01220083 10128 20117 56009 $
2026-04-24 10:56:00,METAR KSFO 241056Z 27007KT 10SM SCT017 BKN200 12/08 A2996 RMK AO2 SLP146 T01170083 $
2026-04-24 09:56:00,METAR KSFO 240956Z 27009KT 10SM SCT016 BKN200 12/08 A2997 RMK AO2 SLP149 T01170083 $
2026-04-24 08:56:00,METAR KSFO 240856Z 26010KT 10SM SCT016 BKN200 12/08 A2999 RMK AO2 SLP154 T01220083 58009 $
2026-04-24 07:56:00,METAR KSFO 240756Z 25010KT 10SM SCT016 BKN200 12/08 A3001 RMK AO2 SLP161 T01220083 402000111 $
2026-04-24 06:56:00,METAR KSFO 240656Z 29011KT 10SM FEW016 BKN200 12/09 A3001 RMK AO2 SLP161 T01220089 $
2026-04-24 05:56:00,METAR KSFO 240556Z 25009KT 10SM FEW012 SCT200 13/09 A3002 RMK AO2 PK WND 28026/0504 SLP164 T01280089 10178 20128 51006 $
2026-04-24 04:56:00,METAR KSFO 240456Z 28019G27KT 10SM FEW012 FEW200 13/09 A3001 RMK AO2 PK WND 29029/0440 SLP162 T01280094 $
2026-04-24 03:56:00,METAR KSFO 240356Z 27018KT 10SM FEW012 FEW200 13/09 A3001 RMK AO2 PK WND 29027/0320 SLP161 T01330094 $
2026-04-24 02:56:00,METAR KSFO 240256Z COR 28020G28KT 10SM FEW015 BKN200 13/10 A3000 RMK AO2 PK WND 28028/0254 SLP158 T01330100 57006 $
2026-04-24 01:56:00,METAR KSFO 240156Z 28021KT 10SM FEW015 FEW040 BKN200 15/09 A3000 RMK AO2 PK WND 28026/0156 SLP160 T01500094 $
2026-04-24 00:56:00,METAR KSFO 240056Z 28019KT 10SM FEW013 FEW043 BKN200 17/09 A3001 RMK AO2 SLP162 T01670094 $
2026-04-23 23:56:00,METAR KSFO 232356Z 28018KT 10SM FEW015 FEW043 BKN200 18/09 A3002 RMK AO2 SLP164 T01780089 10200 20161 58015 $
2026-04-23 22:56:00,METAR KSFO 232256Z 27015KT 10SM FEW045 BKN200 18/09 A3004 RMK AO2 SLP170 T01830089 $
2026-04-23 21:56:00,METAR KSFO 232156Z 29015KT 10SM FEW047 SCT200 19/10 A3005 RMK AO2 SLP174 T01890100
2026-04-23 20:56:00,METAR KSFO 232056Z 29012KT 10SM FEW050 FEW200 19/11 A3006 RMK AO2 SLP179 T01940106 58018
2026-04-23 19:56:00,METAR KSFO 231956Z 08005KT 10SM FEW050 FEW200 18/11 A3008 RMK AO2 SLP185 T01780111
2026-04-23 18:56:00,METAR KSFO 231856Z 08006KT 10SM FEW050 FEW200 17/09 A3010 RMK AO2 SLP192 T01670094
2026-04-23 17:56:00,METAR KSFO 231756Z 09005KT 10SM FEW050 FEW200 16/11 A3011 RMK AO2 SLP197 T01610111 10161 20111 58006
2026-04-23 16:56:00,METAR KSFO 231656Z 09004KT 10SM FEW012 15/11 A3012 RMK AO2 SLP200 T01500106
2026-04-23 15:56:00,METAR KSFO 231556Z 07005KT 10SM SCT012 14/11 A3013 RMK AO2 SLP203 T01440111
2026-04-23 14:56:00,METAR KSFO 231456Z 30004KT 10SM FEW010 14/11 A3013 RMK AO2 SLP203 T01390106 55001
2026-04-23 13:56:00,METAR KSFO 231356Z 28003KT 10SM FEW010 11/09 A3013 RMK AO2 SLP201 T01110094
2026-04-23 12:56:00,METAR KSFO 231256Z 29004KT 10SM FEW200 12/11 A3013 RMK AO2 SLP203 T01170106 $
2026-04-23 11:56:00,METAR KSFO 231156Z 30005KT 10SM FEW200 12/11 A3013 RMK AO2 SLP204 70016 T01170106 10133 20117 55005 $
2026-04-23 10:56:00,METAR KSFO 231056Z 26007KT 10SM FEW200 12/11 A3013 RMK AO2 SLP203 T01220106 $
2026-04-23 09:56:00,METAR KSFO 230956Z 29007KT 10SM FEW030 12/10 A3014 RMK AO2 SLP205 T01220100 $
2026-04-23 08:56:00,METAR KSFO 230856Z 29004KT 10SM FEW028 12/09 A3015 RMK AO2 SLP209 T01170089 58010 $
2026-04-23 07:56:00,METAR KSFO 230756Z 00000KT 10SM FEW028 13/09 A3016 RMK AO2 SLP214 T01280094 401830106 $
2026-04-23 06:56:00,METAR KSFO 230656Z 30005KT 10SM FEW032 13/09 A3017 RMK AO2 SLP216 T01280094 $
2026-04-23 05:56:00,METAR KSFO 230556Z 29006KT 10SM FEW032 13/09 A3018 RMK AO2 SLP219 T01280094 10178 20128 50007 $
2026-04-23 04:56:00,METAR KSFO 230456Z 29009KT 10SM FEW030 13/09 A3018 RMK AO2 SLP220 T01330094 VISNO $
2026-04-23 03:56:00,METAR KSFO 230356Z 29012KT 10SM FEW030 14/09 A3017 RMK AO2 SLP214 T01390094 $
2026-04-23 02:56:00,METAR KSFO 230256Z 29011KT 10SM FEW017 FEW033 14/10 A3016 RMK AO2 SLP212 T01390100 55001 $
2026-04-23 01:56:00,METAR KSFO 230156Z 28012KT 10SM FEW023 FEW035 16/10 A3015 RMK AO2 SLP211 T01560100 $
2026-04-23 00:56:00,METAR KSFO 230056Z 27013KT 10SM FEW023 FEW035 17/09 A3016 RMK AO2 SLP213 T01670094 $
2026-04-22 23:56:00,METAR KSFO 222356Z 29012KT 10SM FEW023 SCT035 SCT043 18/08 A3016 RMK AO2 SLP213 T01780083 10183 20144 58004 $
2026-04-22 22:56:00,METAR KSFO 222256Z 30013KT 10SM FEW025 BKN035 BKN043 18/10 A3016 RMK AO2 SLP214 T01780100 $
2026-04-22 21:56:00,METAR KSFO 222156Z 04003KT 10SM FEW025 SCT030 BKN038 17/11 A3017 RMK AO2 SLP218 T01670106 $
2026-04-22 20:56:00,METAR KSFO 222056Z 10009KT 10SM SCT026 BKN034 16/12 A3017 RMK AO2 SLP217 T01610117 55002 $
2026-04-22 20:07:00,SPECI KSFO 222007Z 11011KT 10SM FEW009 BKN035 16/12 A3017 RMK AO2 T01560117 $
2026-04-22 19:56:00,METAR KSFO 221956Z 12012KT 10SM FEW006 SCT023 BKN029 16/12 A3017 RMK AO2 SLP216 T01560117 $
2026-04-22 19:09:00,SPECI KSFO 221909Z 13012KT 10SM FEW006 BKN021 15/11 A3018 RMK AO2 T01500111 $
2026-04-22 18:56:00,METAR KSFO 221856Z 11012KT 10SM FEW009 SCT019 BKN030 16/12 A3018 RMK AO2 SLP219 T01560117 $
2026-04-22 17:56:00,METAR KSFO 221756Z 11011KT 10SM FEW006 BKN049 15/11 A3018 RMK AO2 SLP219 60016 T01500111 10150 20111 53013 $
2026-04-22 16:56:00,METAR KSFO 221656Z 13011KT 10SM FEW006 SCT025 BKN034 14/12 A3016 RMK AO2 SLP214 T01390117 $
2026-04-22 15:56:00,METAR KSFO 221556Z 12007KT 10SM FEW006 BKN045 13/11 A3015 RMK AO2 SLP211 T01280106 $
2026-04-22 14:56:00,METAR KSFO 221456Z 15003KT 10SM FEW006 SCT047 BKN065 12/10 A3014 RMK AO2 RAE49 SLP206 P0003 60016 T01220100 53014 $
2026-04-22 14:19:00,SPECI KSFO 221419Z 00000KT 5SM -RA BR FEW006 SCT028 OVC037 11/09 A3013 RMK AO2 P0003 T01110094 $
2026-04-22 13:56:00,METAR KSFO 221356Z 00000KT 3SM RA BR FEW005 BKN017 OVC031 12/10 A3013 RMK AO2 SLP202 P0013 T01170100 $
2026-04-22 13:49:00,SPECI KSFO 221349Z 35004KT 3SM R28R/6000VP6000FT +RA BR FEW005 BKN017 OVC031 12/10 A3012 RMK AO2 P0009 T01170100 $
2026-04-22 12:56:00,METAR KSFO 221256Z 13009KT 10SM -RA SCT027 BKN035 OVC060 12/09 A3010 RMK AO2 RAB10 SLP193 P0000 T01170094 $
2026-04-22 11:56:00,METAR KSFO 221156Z 14008KT 10SM FEW016 SCT040 BKN060 12/09 A3010 RMK AO2 SLP193 70012 T01220089 10122 20106 53001 $
2026-04-22 10:56:00,METAR KSFO 221056Z 15007KT 10SM FEW016 SCT060 BKN110 12/09 A3010 RMK AO2 SLP193 T01170089 $
2026-04-22 09:56:00,METAR KSFO 220956Z 15004KT 10SM FEW016 FEW045 11/09 A3009 RMK AO2 SLP191 T01060089 $
2026-04-22 08:56:00,METAR KSFO 220856Z 17005KT 10SM FEW015 FEW050 11/09 A3010 RMK AO2 SLP192 T01110094 50008 $
2026-04-22 07:56:00,METAR KSFO 220756Z 15003KT 10SM FEW015 FEW050 12/09 A3010 RMK AO2 SLP192 T01170089 401720117 $
2026-04-22 06:56:00,METAR KSFO 220656Z 21005KT 10SM FEW019 FEW050 12/08 A3009 RMK AO2 SLP189 T01220083 $
2026-04-22 05:56:00,METAR KSFO 220556Z 22005KT 10SM FEW019 FEW045 12/08 A3007 RMK AO2 SLP184 60004 T01220083 10161 20117 51023 $
2026-04-22 04:56:00,METAR KSFO 220456Z 22007KT 10SM FEW009 FEW046 12/09 A3006 RMK AO2 SLP180 T01220089 $
2026-04-22 03:56:00,METAR KSFO 220356Z 25008KT 10SM FEW009 BKN070 13/09 A3004 RMK AO2 SLP172 T01330089 $
2026-04-22 02:56:00,METAR KSFO 220256Z 26008KT 10SM FEW009 SCT045 BKN055 13/09 A3001 RMK AO2 RAE06 SLP161 P0000 60004 T01330094 51016 $
2026-04-22 01:56:00,METAR KSFO 220156Z 27009G24KT 8SM R28R/4500VP6000FT +RA FEW009 BKN037 BKN050 13/09 A2999 RMK AO2 RAB48 SLP155 P0004 T01280089 $
2026-04-22 00:56:00,METAR KSFO 220056Z 27012KT 10SM FEW009 SCT032 BKN046 15/08 A2998 RMK AO2 SLP150 T01500078 $
2026-04-21 23:56:00,METAR KSFO 212356Z 28017G23KT 10SM FEW009 SCT037 BKN060 16/09 A2996 RMK AO2 SLP145 60000 T01560089 10172 20150 53004 $
2026-04-21 22:56:00,METAR KSFO 212256Z 25014G21KT 10SM FEW009 SCT050 BKN060 17/09 A2995 RMK AO2 SLP143 T01670089 $
2026-04-21 21:56:00,METAR KSFO 212156Z 23017G22KT 10SM FEW009 SCT040 BKN100 17/08 A2995 RMK AO2 SLP141 T01670078 $
2026-04-21 20:56:00,METAR KSFO 212056Z 23013KT 10SM FEW009 BKN031 OVC055 16/08 A2995 RMK AO2 SLP140 60000 T01560083 53006 $
2026-04-21 19:56:00,METAR KSFO 211956Z 22013KT 10SM FEW009 SCT028 BKN080 16/09 A2993 RMK AO2 RAE1859 SLP136 P0000 T01560089 $
2026-04-21 18:56:00,METAR KSFO 211856Z 26009G19KT 10SM -RA FEW009 SCT032 BKN049 17/10 A2993 RMK AO2 RAB50 SLP136 P0000 T01670100 $
2026-04-21 17:56:00,METAR KSFO 211756Z VRB06KT 10SM FEW006 SCT055 BKN120 16/11 A2993 RMK AO2 SLP134 60008 T01560106 10156 20122 53010 $
2026-04-21 16:56:00,METAR KSFO 211656Z 22008KT 10SM FEW009 SCT035 BKN055 14/10 A2992 RMK AO2 RAB24E30 SLP130 P0000 T01440100 $
2026-04-21 15:56:00,METAR KSFO 211556Z 15006KT 10SM FEW009 SCT026 BKN045 14/11 A2990 RMK AO2 RAE46 SLP126 P0005 T01390111 $
2026-04-21 14:56:00,METAR KSFO 211456Z 13008KT 10SM -RA FEW009 SCT032 BKN055 13/12 A2990 RMK AO2 RAB27E40B56 SLP123 P0000 60003 T01330117 53008 $
2026-04-21 13:56:00,METAR KSFO 211356Z 17008KT 10SM FEW009 SCT020 BKN110 13/11 A2988 RMK AO2 RAB06E33 SLP119 P0003 T01280111 $
2026-04-21 13:10:00,SPECI KSFO 211310Z 18008KT 10SM -RA FEW006 SCT017 OVC065 12/11 A2987 RMK AO2 RAB06 P0000 T01220111 $
2026-04-21 12:56:00,METAR KSFO 211256Z 15006KT 10SM FEW007 BKN018 BKN110 12/11 A2987 RMK AO2 RAB34E52 SLP114 P0000 T01220111 $
2026-04-21 12:36:00,SPECI KSFO 211236Z 16007KT 10SM -RA FEW007 BKN019 OVC050 12/11 A2987 RMK AO2 RAB34 P0000 T01220111 $
2026-04-21 12:07:00,SPECI KSFO 211207Z 14008KT 10SM FEW007 SCT019 OVC065 12/11 A2987 RMK AO2 T01220111 $
2026-04-21 11:56:00,METAR KSFO 211156Z 16007KT 10SM FEW007 BKN021 OVC070 12/11 A2987 RMK AO2 RAE00B08E48 SLP115 P0004 60022 70065 T01220111 10128 20117 58006 $
2026-04-21 10:56:00,METAR KSFO 211056Z 17008KT 10SM -RA FEW007 BKN029 OVC070 12/11 A2988 RMK AO2 RAE00B51 SLP119 P0000 T01220111 $
2026-04-21 09:56:00,METAR KSFO 210956Z 00000KT 5SM -RA BR FEW005 BKN018 OVC029 12/11 A2989 RMK AO2 SLP121 P0002 T01170111 $
2026-04-21 08:56:00,METAR KSFO 210856Z 18005KT 10SM -RA FEW007 BKN029 OVC065 12/11 A2989 RMK AO2 SLP122 P0004 60016 T01220106 50002 $
2026-04-21 07:56:00,METAR KSFO 210756Z 17007KT 10SM -RA SCT008 BKN035 OVC070 12/11 A2990 RMK AO2 SLP124 P0007 T01220106 401890122 $
2026-04-21 07:42:00,SPECI KSFO 210742Z 15005KT 10SM -RA SCT008 BKN035 OVC070 12/11 A2989 RMK AO2 P0006 T01220111 $
2026-04-21 06:56:00,METAR KSFO 210656Z 00000KT 10SM -RA SCT007 BKN016 OVC070 13/12 A2990 RMK AO2 SLP124 P0005 T01280117 $
2026-04-21 06:20:00,SPECI KSFO 210620Z 00000KT 9SM -RA SCT007 BKN017 OVC070 13/12 A2989 RMK AO2 P0002 T01280117 $
2026-04-21 05:56:00,METAR KSFO 210556Z 33003KT 9SM -RA FEW007 SCT016 OVC070 13/11 A2989 RMK AO2 SLP120 P0006 60036 T01280111 10150 20128 50005 $
2026-04-21 05:15:00,SPECI KSFO 210515Z 25003KT 9SM -RA FEW008 SCT020 OVC070 13/12 A2990 RMK AO2 P0001 T01280117 $
2026-04-21 04:56:00,METAR KSFO 210456Z 26003KT 9SM -RA FEW008 BKN023 OVC070 13/11 A2990 RMK AO2 SLP125 P0006 T01280111 $
2026-04-21 04:37:00,SPECI KSFO 210437Z 23004KT 9SM -RA FEW008 BKN023 OVC034 13/11 A2990 RMK AO2 P0004 T01280111 $
2026-04-21 03:56:00,METAR KSFO 210356Z 00000KT 9SM -RA FEW008 BKN055 OVC070 13/11 A2988 RMK AO2 RAB00 SLP118 P0009 T01280111 $
2026-04-21 02:56:00,METAR KSFO 210256Z 27005KT 9SM FEW008 BKN039 OVC045 13/12 A2987 RMK AO2 RAE53 SLP115 P0001 60015 T01330122 58004 $
2026-04-21 02:13:00,SPECI KSFO 210213Z 30007KT 3SM -RA BR FEW009 SCT034 OVC042 13/12 A2987 RMK AO2 P0000 T01330117 $
2026-04-21 01:56:00,METAR KSFO 210156Z 29007KT 9SM -RA FEW010 SCT034 OVC042 13/12 A2988 RMK AO2 SLP118 P0011 T01330117 $
2026-04-21 00:56:00,METAR KSFO 210056Z 17013KT 7SM -RA FEW034 SCT075 OVC090 14/13 A2988 RMK AO2 SLP117 P0003 T01440128 $
2026-04-20 23:56:00,METAR KSFO 202356Z 19004KT 9SM -RA FEW019 BKN034 OVC075 15/12 A2988 RMK AO2 SLP119 P0002 60006 T01500122 10183 20150 58003 $
2026-04-20 23:23:00,SPECI KSFO 202323Z 21009KT 9SM -RA FEW023 SCT029 OVC080 15/12 A2988 RMK AO2 P0001 T01500122 $
2026-04-20 22:56:00,METAR KSFO 202256Z 19016KT 9SM -RA FEW023 BKN029 OVC060 16/12 A2989 RMK AO2 SLP122 P0001 T01560117 $
2026-04-20 21:56:00,METAR KSFO 202156Z 20010KT 9SM -RA FEW023 BKN027 OVC090 16/12 A2990 RMK AO2 RAB04E17B20 SLP124 P0000 T01610122 $
2026-04-20 21:19:00,SPECI KSFO 202119Z 18010KT 10SM FEW021 BKN023 OVC028 16/13 A2989 RMK AO2 RAB04E17 P0000 T01610128 $
2026-04-20 20:56:00,METAR KSFO 202056Z 19006KT 10SM FEW024 BKN031 OVC049 16/13 A2989 RMK AO2 RAE00B19E53 SLP122 P0001 60003 T01610128 50002 $
2026-04-20 19:56:00,METAR KSFO 201956Z 13009KT 10SM -RA SCT050 BKN080 OVC095 16/13 A2990 RMK AO2 PK WND 21031/1859 WSHFT 1854 RAB14 SLP123 P0002 T01610128 $
2026-04-20 19:14:00,SPECI KSFO 201914Z 20018G28KT 10SM -RA FEW029 BKN041 17/11 A2992 RMK AO2 PK WND 21031/1859 WSHFT 1854 RAB14 P0000 T01670111 $
2026-04-20 18:56:00,METAR KSFO 201856Z 22011G22KT 200V260 10SM FEW029 BKN042 18/09 A2991 RMK AO2 SLP128 T01830094 $
2026-04-20 17:56:00,METAR KSFO 201756Z 11015KT 10SM FEW030 BKN047 18/09 A2989 RMK AO2 SLP120 60001 T01780089 10189 20128 55004 $
2026-04-20 16:56:00,METAR KSFO 201656Z 12017KT 10SM FEW030 BKN060 17/11 A2988 RMK AO2 RAE02 SLP117 P0000 T01670106 $
2026-04-20 15:56:00,METAR KSFO 201556Z 13014KT 10SM -RA BKN031 OVC090 15/09 A2989 RMK AO2 RAB00E10B37 SLP123 P0001 T01500094 $
2026-04-20 14:56:00,METAR KSFO 201456Z 14014KT 10SM BKN033 BKN100 14/06 A2990 RMK AO2 SLP123 T01440056 53008 $
2026-04-20 13:56:00,METAR KSFO 201356Z 13012KT 10SM FEW038 BKN100 14/07 A2988 RMK AO2 SLP118 T01390067 $
2026-04-20 12:56:00,METAR KSFO 201256Z 18004KT 10SM FEW018 SCT120 13/08 A2988 RMK AO2 SLP117 T01330078 $
2026-04-20 11:56:00,METAR KSFO 201156Z 20015KT 10SM FEW018 SCT120 14/06 A2987 RMK AO2 SLP116 T01390061 10150 20122 55002 $
2026-04-20 10:56:00,METAR KSFO 201056Z 19003KT 10SM SCT120 13/04 A2987 RMK AO2 SLP115 T01330039 $
2026-04-20 09:56:00,METAR KSFO 200956Z 19004KT 10SM FEW110 SCT200 13/05 A2987 RMK AO2 SLP115 T01280050 $
2026-04-20 08:56:00,METAR KSFO 200856Z 17006KT 10SM FEW022 SCT200 13/04 A2988 RMK AO2 SLP118 T01330039 58007 $
2026-04-20 07:56:00,METAR KSFO 200756Z 18012KT 10SM FEW022 BKN200 14/08 A2990 RMK AO2 SLP123 T01390083 402280111 $
2026-04-20 06:56:00,METAR KSFO 200656Z 16011KT 10SM SCT022 BKN200 14/08 A2990 RMK AO2 SLP124 T01390083 $
2026-04-20 05:56:00,METAR KSFO 200556Z 18008KT 10SM FEW019 SCT180 BKN200 15/01 A2990 RMK AO2 SLP125 T01500006 10200 20150 53019 $
2026-04-20 04:56:00,METAR KSFO 200456Z 23010KT 10SM FEW180 BKN200 15/M05 A2988 RMK AO2 SLP119 T01501050 $
2026-04-20 03:56:00,METAR KSFO 200356Z 19008KT 10SM FEW180 BKN200 16/M01 A2986 RMK AO2 SLP111 T01561006 $
2026-04-20 02:56:00,METAR KSFO 200256Z 18006KT 10SM FEW017 SCT180 BKN200 16/M01 A2985 RMK AO2 SLP106 T01611011 53008 $
2026-04-20 01:56:00,METAR KSFO 200156Z 27003KT 10SM FEW017 SCT180 BKN200 17/M01 A2984 RMK AO2 SLP104 T01671006 $
2026-04-20 00:56:00,METAR KSFO 200056Z 23017G27KT 10SM FEW015 FEW180 BKN200 18/01 A2982 RMK AO2 PK WND 22027/0052 SLP097 T01830006 $
2026-04-19 23:56:00,METAR KSFO 192356Z 24011G19KT 10SM FEW015 SCT180 BKN200 20/M03 A2982 RMK AO2 SLP099 T02001033 10228 20172 56014 $
2026-04-19 22:56:00,METAR KSFO 192256Z 25014G19KT 10SM FEW015 SCT180 BKN200 21/M05 A2983 RMK AO2 SLP102 T02111050 $
2026-04-19 21:56:00,METAR KSFO 192156Z 06004KT 10SM FEW015 SCT180 BKN200 20/09 A2985 RMK AO2 SLP108 T02000094 $
2026-04-19 20:56:00,METAR KSFO 192056Z 34009KT 10SM FEW170 BKN200 19/10 A2986 RMK AO2 SLP113 T01940100 58015 $
2026-04-19 19:56:00,METAR KSFO 191956Z 35008KT 10SM FEW180 BKN200 19/09 A2988 RMK AO2 SLP118 T01890094 $
2026-04-19 18:56:00,METAR KSFO 191856Z 31010KT 10SM FEW160 SCT180 BKN200 18/09 A2990 RMK AO2 SLP126 T01830094 $
2026-04-19 17:56:00,METAR KSFO 191756Z 32009KT 10SM FEW170 BKN200 18/09 A2991 RMK AO2 SLP127 T01780094 10178 20111 53003 $
2026-04-19 16:56:00,METAR KSFO 191656Z 03004KT 10SM FEW170 BKN200 16/10 A2990 RMK AO2 SLP125 T01560100 $
2026-04-19 15:56:00,METAR KSFO 191556Z 08003KT 10SM FEW008 SCT170 BKN200 14/09 A2989 RMK AO2 SLP123 T01390094 $
2026-04-19 14:56:00,METAR KSFO 191456Z 28005KT 10SM FEW006 SCT170 BKN200 12/08 A2990 RMK AO2 SLP124 T01220083 53006 $
2026-04-19 13:56:00,METAR KSFO 191356Z 28004KT 10SM FEW006 BKN200 12/09 A2988 RMK AO2 SLP117 T01170089 $
2026-04-19 12:56:00,METAR KSFO 191256Z 29005KT 10SM FEW003 BKN180 12/09 A2988 RMK AO2 SLP116 T01170094 $
2026-04-19 11:56:00,METAR KSFO 191156Z 29008KT 10SM FEW003 BKN180 12/10 A2988 RMK AO2 SLP117 T01220100 10139 20122 56007 $
2026-04-19 10:56:00,METAR KSFO 191056Z 29010KT 10SM FEW003 BKN180 12/10 A2988 RMK AO2 SLP118 T01220100 $
2026-04-19 09:56:00,METAR KSFO 190956Z 30010KT 10SM FEW003 BKN180 12/10 A2989 RMK AO2 SLP121 T01220100 $
2026-04-19 08:56:00,METAR KSFO 190856Z 30006KT 10SM FEW003 BKN180 13/11 A2990 RMK AO2 SLP124 T01280106 58005 $
2026-04-19 07:56:00,METAR KSFO 190756Z 30009KT 10SM FEW003 BKN180 13/11 A2991 RMK AO2 SLP128 T01330106 402220089 $
2026-04-19 06:56:00,METAR KSFO 190656Z 31009KT 10SM FEW003 BKN180 13/11 A2991 RMK AO2 SLP129 T01330106 $
2026-04-19 05:56:00,METAR KSFO 190556Z 31008KT 10SM FEW003 BKN180 14/11 A2991 RMK AO2 SLP130 T01390106 10217 20139 50004 $
2026-04-19 04:56:00,METAR KSFO 190456Z 30010KT 10SM FEW003 BKN180 14/11 A2992 RMK AO2 SLP131 T01390111 $
2026-04-19 03:56:00,METAR KSFO 190356Z 30012KT 10SM FEW004 BKN180 14/11 A2991 RMK AO2 SLP127 T01390106 $
2026-04-19 02:56:00,METAR KSFO 190256Z 30013KT 10SM FEW015 BKN180 BKN200 15/11 A2990 RMK AO2 SLP125 T01500106 56005 $
2026-04-19 01:56:00,METAR KSFO 190156Z 31009KT 10SM SCT180 BKN200 18/07 A2990 RMK AO2 SLP126 T01780072 $
2026-04-19 00:56:00,METAR KSFO 190056Z 26012KT 10SM FEW180 BKN200 22/05 A2991 RMK AO2 SLP127 T02170050 $
2026-04-18 23:56:00,METAR KSFO 182356Z 29012KT 10SM FEW180 BKN200 22/07 A2992 RMK AO2 SLP130 T02170072 10222 20150 58016 $
2026-04-18 22:56:00,METAR KSFO 182256Z 30013KT 10SM BKN200 22/09 A2993 RMK AO2 SLP136 T02170089 $
2026-04-18 21:56:00,METAR KSFO 182156Z 30009KT 10SM BKN200 22/11 A2995 RMK AO2 SLP141 T02220111 $
2026-04-18 20:56:00,METAR KSFO 182056Z 02004KT 10SM BKN200 19/09 A2996 RMK AO2 SLP145 T01890094 58013 $
2026-04-18 19:56:00,METAR KSFO 181956Z 03005KT 10SM BKN200 18/08 A2998 RMK AO2 SLP151 T01780083 $
2026-04-18 18:56:00,METAR KSFO 181856Z 02004KT 10SM BKN200 16/09 A2999 RMK AO2 SLP157 T01610094 $
2026-04-18 17:56:00,METAR KSFO 181756Z 04005KT 10SM BKN200 15/10 A3000 RMK AO2 SLP159 T01500100 10156 20089 58002 $
2026-04-18 16:56:00,METAR KSFO 181656Z 05004KT 10SM SCT200 14/09 A3000 RMK AO2 SLP160 T01390089 $
2026-04-18 15:56:00,METAR KSFO 181556Z 09003KT 10SM SCT200 14/08 A3001 RMK AO2 SLP162 T01390083 $
2026-04-18 14:56:00,METAR KSFO 181456Z 00000KT 10SM SCT200 12/07 A3001 RMK AO2 SLP161 T01220067 53000 $
2026-04-18 13:56:00,METAR KSFO 181356Z 21004KT 10SM SCT200 09/06 A3000 RMK AO2 SLP160 T00940056 $
2026-04-18 12:56:00,METAR KSFO 181256Z 24003KT 10SM FEW200 09/06 A3000 RMK AO2 SLP158 T00940056 $
2026-04-18 11:56:00,METAR KSFO 181156Z 29005KT 10SM SCT200 10/08 A3001 RMK AO2 SLP161 T01000083 10122 20100 56009 $
2026-04-18 10:56:00,METAR KSFO 181056Z 29004KT 10SM SCT200 11/08 A3002 RMK AO2 SLP164 T01060078 $
2026-04-18 09:56:00,METAR KSFO 180956Z 27006KT 10SM SCT200 11/08 A3002 RMK AO2 SLP165 T01060083 $
2026-04-18 08:56:00,METAR KSFO 180856Z 29008KT 10SM SCT200 11/08 A3003 RMK AO2 SLP169 T01110083 58003 $
2026-04-18 07:56:00,METAR KSFO 180756Z 30009KT 10SM SCT200 12/09 A3004 RMK AO2 SLP172 T01170089 402110117 $
2026-04-18 06:56:00,METAR KSFO 180656Z 29011KT 10SM BKN200 12/08 A3004 RMK AO2 SLP173 T01220083 $
2026-04-18 05:56:00,METAR KSFO 180556Z 29014KT 10SM BKN200 12/09 A3004 RMK AO2 SLP173 T01220089 10183 20122 50005 $
2026-04-18 04:56:00,METAR KSFO 180456Z 28016KT 10SM BKN200 13/08 A3005 RMK AO2 SLP174 T01280083 $
2026-04-18 03:56:00,METAR KSFO 180356Z 29015KT 10SM BKN200 13/06 A3003 RMK AO2 SLP169 T01330061 $
2026-04-18 02:56:00,METAR KSFO 180256Z 29014KT 10SM SCT180 BKN200 14/04 A3003 RMK AO2 SLP167 T01440039 55002 $
2026-04-18 01:56:00,METAR KSFO 180156Z 29015KT 10SM FEW180 BKN200 17/03 A3002 RMK AO2 SLP166 T01670028 $
2026-04-18 00:56:00,METAR KSFO 180056Z 29017KT 10SM BKN200 18/03 A3002 RMK AO2 SLP166 T01780028 $
2026-04-17 23:56:00,METAR KSFO 172356Z 28015KT 10SM BKN200 18/01 A3003 RMK AO2 SLP169 T01830011 10211 20172 58009 $
2026-04-17 22:56:00,METAR KSFO 172256Z 29018KT 10SM BKN200 19/01 A3005 RMK AO2 SLP175 T01890006 $
2026-04-17 21:56:00,METAR KSFO 172156Z 29015KT 10SM SCT200 21/M01 A3006 RMK AO2 WSHFT 2122 SLP177 T02061011 $
2026-04-17 21:42:00,SPECI KSFO 172142Z 30013KT 10SM SCT200 20/M01 A3006 RMK AO2 WSHFT 2122 T02001011 $
2026-04-17 20:56:00,METAR KSFO 172056Z 06003KT 10SM BKN200 19/M01 A3006 RMK AO2 SLP178 T01941011 58010 $
2026-04-17 19:56:00,METAR KSFO 171956Z 00000KT 10SM SCT200 18/M03 A3007 RMK AO2 SLP182 T01831028 $
2026-04-17 18:56:00,METAR KSFO 171856Z 02005KT 10SM FEW200 18/00 A3009 RMK AO2 SLP188 T01780000 $
2026-04-17 17:56:00,METAR KSFO 171756Z 34004KT 10SM FEW200 17/M05 A3009 RMK AO2 SLP188 T01671050 10167 20144 51010 $
2026-04-17 16:56:00,METAR KSFO 171656Z 03004KT 10SM FEW200 16/M01 A3008 RMK AO2 SLP185 T01611011 $
2026-04-17 15:56:00,METAR KSFO 171556Z 04009KT 10SM FEW200 15/M01 A3007 RMK AO2 SLP183 T01501006 $
2026-04-17 14:56:00,METAR KSFO 171456Z 04007KT 10SM FEW200 15/02 A3006 RMK AO2 SLP178 T01500022 53006 $
2026-04-17 13:56:00,METAR KSFO 171356Z 03011KT 10SM FEW200 14/M01 A3005 RMK AO2 SLP175 T01441006 $
2026-04-17 12:56:00,METAR KSFO 171256Z 02014KT 10SM CLR 15/02 A3004 RMK AO2 SLP172 T01500017 $
2026-04-17 11:56:00,METAR KSFO 171156Z 01014KT 10SM CLR 15/03 A3004 RMK AO2 SLP172 T01500028 10167 20128 53001 $
2026-04-17 10:56:00,METAR KSFO 171056Z 01012KT 10SM CLR 16/01 A3004 RMK AO2 SLP170 T01560011 $
2026-04-17 09:56:00,METAR KSFO 170956Z 01016KT 10SM CLR 16/03 A3003 RMK AO2 SLP168 T01610028 $
2026-04-17 08:56:00,METAR KSFO 170856Z 35011KT 10SM CLR 16/02 A3004 RMK AO2 SLP171 T01610022 57002 $
2026-04-17 07:56:00,METAR KSFO 170756Z 35012KT 10SM CLR 17/M01 A3004 RMK AO2 SLP172 T01671011 401940100 $
2026-04-17 06:56:00,METAR KSFO 170656Z 30008KT 10SM CLR 14/00 A3004 RMK AO2 SLP172 T01440000 $
2026-04-17 05:56:00,METAR KSFO 170556Z 29011KT 10SM CLR 13/07 A3004 RMK AO2 SLP173 T01280067 10183 20128 50008 $
2026-04-17 04:56:00,METAR KSFO 170456Z 29011KT 10SM CLR 13/08 A3005 RMK AO2 SLP176 T01330078 CHINO RWY L10 VISNO $
2026-04-17 03:56:00,METAR KSFO 170356Z 29015KT 10SM FEW200 14/07 A3004 RMK AO2 SLP171 T01390072 $
2026-04-17 02:56:00,METAR KSFO 170256Z 29016KT 10SM FEW200 15/07 A3002 RMK AO2 SLP165 T01500067 55002 $
2026-04-17 01:56:00,METAR KSFO 170156Z 29018KT 10SM FEW200 17/07 A3002 RMK AO2 SLP164 T01670067 $
2026-04-17 00:56:00,METAR KSFO 170056Z 28020KT 10SM FEW200 17/07 A3002 RMK AO2 PK WND 28026/0055 SLP166 T01720067 $
2026-04-16 23:56:00,METAR KSFO 162356Z 29019KT 10SM FEW200 18/04 A3002 RMK AO2 SLP166 T01830044 10194 20150 58014 $
2026-04-16 22:56:00,METAR KSFO 162256Z 29018G26KT 10SM FEW200 18/05 A3004 RMK AO2 PK WND 29026/2253 SLP171 T01830050 $
2026-04-16 21:56:00,METAR KSFO 162156Z 29016KT 10SM FEW200 18/06 A3006 RMK AO2 WSHFT 2043 SLP178 T01780056 $
2026-04-16 21:03:00,SPECI KSFO 162103Z 29014KT 10SM FEW200 19/06 A3007 RMK AO2 WSHFT 2043 T01890061 $
2026-04-16 20:56:00,METAR KSFO 162056Z 28015G21KT 10SM FEW200 19/06 A3007 RMK AO2 WSHFT 2042 SLP181 T01890061 56013 $
2026-04-16 19:56:00,METAR KSFO 161956Z 36010KT 10SM FEW200 18/00 A3008 RMK AO2 SLP185 T01780000 $
2026-04-16 18:56:00,METAR KSFO 161856Z 35011KT 10SM FEW200 17/01 A3009 RMK AO2 SLP189 T01670011 $
2026-04-16 17:56:00,METAR KSFO 161756Z 01007KT 10SM FEW017 15/06 A3010 RMK AO2 SLP194 T01500061 10150 20100 51012 $
2026-04-16 16:56:00,METAR KSFO 161656Z 01007KT 10SM FEW017 14/09 A3009 RMK AO2 SLP190 T01390089 $
2026-04-16 15:56:00,METAR KSFO 161556Z 03005KT 10SM FEW012 13/06 A3009 RMK AO2 SLP188 T01330061 $
2026-04-16 14:56:00,METAR KSFO 161456Z 04006KT 10SM FEW006 SCT013 12/09 A3007 RMK AO2 SLP182 T01220094 53008 $
2026-04-16 14:48:00,SPECI KSFO 161448Z 02007KT 10SM FEW006 SCT013 12/09 A3007 RMK AO2 T01220094 $
2026-04-16 14:20:00,SPECI KSFO 161420Z COR 00000KT 10SM FEW006 BKN013 12/09 A3006 RMK AO2 T01170089 $
2026-04-16 14:18:00,SPECI KSFO 161418Z 00000KT 10SM FEW006 BKN015 12/09 A3006 RMK AO2 T01170089 $
2026-04-16 13:56:00,METAR KSFO 161356Z 30003KT 10SM FEW006 SCT015 11/08 A3005 RMK AO2 SLP177 T01060083 $
2026-04-16 12:56:00,METAR KSFO 161256Z 31006KT 10SM FEW009 FEW018 11/08 A3004 RMK AO2 SLP172 T01060083 $
2026-04-16 11:56:00,METAR KSFO 161156Z 28011KT 10SM FEW009 SCT018 11/08 A3004 RMK AO2 SLP174 T01060078 10139 20106 56009 $
2026-04-16 11:30:00,SPECI KSFO 161130Z 27013KT 10SM FEW009 SCT018 11/07 A3004 RMK AO2 T01110072 $
2026-04-16 10:56:00,METAR KSFO 161056Z 30013KT 10SM FEW009 BKN016 11/08 A3005 RMK AO2 SLP176 T01110078 $
2026-04-16 10:34:00,SPECI KSFO 161034Z 27013KT 10SM FEW009 BKN015 12/08 A3005 RMK AO2 T01170083 $
2026-04-16 09:56:00,METAR KSFO 160956Z 30012KT 10SM FEW008 SCT015 11/08 A3006 RMK AO2 SLP179 T01110078 $
2026-04-16 09:31:00,SPECI KSFO 160931Z 28011KT 10SM FEW008 SCT014 12/08 A3007 RMK AO2 T01170083 $
2026-04-16 09:14:00,SPECI KSFO 160914Z 28013KT 10SM FEW006 SCT008 BKN014 12/09 A3007 RMK AO2 T01170089 $
2026-04-16 08:56:00,METAR KSFO 160856Z 30009G16KT 10SM FEW006 BKN008 BKN010 12/10 A3007 RMK AO2 SLP183 T01220100 56006 $
2026-04-16 08:11:00,SPECI KSFO 160811Z 29014G19KT 10SM FEW007 BKN009 BKN011 13/12 A3007 RMK AO2 T01280117 $
2026-04-16 07:56:00,METAR KSFO 160756Z 29013G17KT 10SM SCT010 BKN012 13/12 A3008 RMK AO2 SLP184 T01330117 401670100 $
2026-04-16 06:56:00,METAR KSFO 160656Z 27008KT 10SM FEW011 BKN013 13/11 A3008 RMK AO2 SLP185 T01330106 $
2026-04-16 06:23:00,SPECI KSFO 160623Z 29011KT 10SM FEW012 BKN014 14/11 A3008 RMK AO2 T01390106 $
2026-04-16 05:56:00,METAR KSFO 160556Z 29005KT 10SM BKN015 14/11 A3009 RMK AO2 SLP190 T01390106 10161 20133 51007 $
2026-04-16 05:27:00,SPECI KSFO 160527Z 29010G17KT 10SM BKN015 14/11 A3010 RMK AO2 T01390106 $
2026-04-16 04:56:00,METAR KSFO 160456Z 29010KT 10SM SCT016 13/11 A3009 RMK AO2 SLP190 T01330106 $
2026-04-16 03:56:00,METAR KSFO 160356Z 28012G20KT 10SM SCT019 BKN200 13/10 A3008 RMK AO2 SLP184 T01330100 $
2026-04-16 03:09:00,SPECI KSFO 160309Z 28015KT 10SM SCT019 14/10 A3007 RMK AO2 T01390100 $
2026-04-16 02:56:00,METAR KSFO 160256Z 28013G24KT 10SM BKN019 BKN200 14/10 A3007 RMK AO2 PK WND 29027/0201 SLP183 T01390100 56002 $
2026-04-16 02:22:00,SPECI KSFO 160222Z 28017G24KT 10SM BKN019 BKN200 14/09 A3008 RMK AO2 PK WND 29027/0201 T01390094 $
2026-04-16 01:56:00,METAR KSFO 160156Z 28017G25KT 10SM FEW020 FEW032 BKN200 14/09 A3007 RMK AO2 PK WND 28031/0130 SLP183 T01440094 $
2026-04-16 00:56:00,METAR KSFO 160056Z 28019KT 10SM FEW023 FEW032 BKN200 15/09 A3007 RMK AO2 PK WND 29032/0016 SLP183 T01500094 $
2026-04-15 23:56:00,METAR KSFO 152356Z 28021G29KT 10SM FEW023 BKN200 16/08 A3008 RMK AO2 PK WND 28031/2302 SLP185 T01610083 10167 20144 58012 $
2026-04-15 22:56:00,METAR KSFO 152256Z 28023G28KT 10SM FEW023 BKN200 17/08 A3009 RMK AO2 PK WND 29031/2212 SLP189 T01670083 $
2026-04-15 21:56:00,METAR KSFO 152156Z 28022KT 10SM SCT023 BKN200 17/08 A3010 RMK AO2 PK WND 28029/2130 SLP194 T01670083 $
2026-04-15 20:56:00,METAR KSFO 152056Z 29019G27KT 10SM BKN023 BKN200 16/09 A3011 RMK AO2 PK WND 29027/2053 SLP197 T01560089 58005 $
2026-04-15 19:56:00,METAR KSFO 151956Z 26014G21KT 10SM BKN022 BKN200 16/09 A3012 RMK AO2 SLP199 T01560089 $
2026-04-15 19:45:00,SPECI KSFO 151945Z 26015G22KT 10SM BKN022 BKN200 16/09 A3012 RMK AO2 T01560089 $
2026-04-15 19:28:00,SPECI KSFO 151928Z 28016KT 10SM SCT023 BKN200 16/09 A3012 RMK AO2 T01560089 $
2026-04-15 18:56:00,METAR KSFO 151856Z 28016KT 10SM BKN023 BKN200 14/08 A3013 RMK AO2 SLP201 T01440083 VISNO $
2026-04-15 18:44:00,SPECI KSFO 151844Z 29018KT 10SM BKN023 BKN200 15/08 A3013 RMK AO2 T01500083 $
2026-04-15 17:56:00,METAR KSFO 151756Z 28018KT 10SM SCT024 BKN200 15/08 A3013 RMK AO2 PK WND 29026/1722 SLP202 T01500078 10150 20100 51008 $
2026-04-15 16:56:00,METAR KSFO 151656Z 27011KT 10SM SCT023 BKN200 14/08 A3012 RMK AO2 SLP201 T01440078 $
2026-04-15 15:56:00,METAR KSFO 151556Z 26014KT 10SM FEW020 SCT160 BKN200 13/08 A3011 RMK AO2 SLP197 T01330078 $
2026-04-15 14:56:00,METAR KSFO 151456Z COR 28010KT 10SM FEW017 BKN200 12/08 A3010 RMK AO2 SLP194 T01220078 53008 $
2026-04-15 13:56:00,METAR KSFO 151356Z 28009KT 10SM FEW017 SCT200 11/07 A3009 RMK AO2 SLP188 T01110072 $
2026-04-15 12:56:00,METAR KSFO 151256Z 28005KT 10SM FEW014 SCT180 10/08 A3008 RMK AO2 SLP186 T01000078 $
2026-04-15 11:56:00,METAR KSFO 151156Z 28005KT 10SM FEW015 11/08 A3008 RMK AO2 SLP186 T01060078 10122 20106 56011 $
2026-04-15 10:56:00,METAR KSFO 151056Z 27009KT 10SM SCT018 12/08 A3009 RMK AO2 SLP187 T01170078 $
2026-04-15 10:37:00,SPECI KSFO 151037Z 27008KT 10SM SCT019 12/08 A3009 RMK AO2 T01170078 $
2026-04-15 09:56:00,METAR KSFO 150956Z 25005KT 10SM BKN020 12/08 A3010 RMK AO2 SLP192 T01170078 $
2026-04-15 08:56:00,METAR KSFO 150856Z 26007KT 10SM BKN020 12/08 A3011 RMK AO2 SLP197 T01220078 56010 $
2026-04-15 07:56:00,METAR KSFO 150756Z 26006KT 10SM BKN021 12/08 A3012 RMK AO2 SLP199 T01220078 401610117 $
2026-04-15 06:56:00,METAR KSFO 150656Z 27011KT 10SM BKN022 12/07 A3013 RMK AO2 SLP203 T01220072 $
2026-04-15 05:56:00,METAR KSFO 150556Z 27008KT 10SM SCT021 12/07 A3014 RMK AO2 SLP207 T01170072 10150 20117 50002 $
2026-04-15 04:56:00,METAR KSFO 150456Z 28010KT 10SM FEW028 12/07 A3015 RMK AO2 SLP209 T01170072 $
2026-04-15 03:56:00,METAR KSFO 150356Z 29013KT 10SM FEW028 12/07 A3014 RMK AO2 SLP207 T01220072 $
2026-04-15 02:56:00,METAR KSFO 150256Z 29015KT 10SM FEW028 12/07 A3014 RMK AO2 SLP206 T01220067 58010 $
2026-04-15 01:56:00,METAR KSFO 150156Z 29019KT 10SM FEW028 13/07 A3015 RMK AO2 SLP210 T01330067 $
2026-04-15 00:56:00,METAR KSFO 150056Z 28021KT 10SM FEW027 14/07 A3016 RMK AO2 PK WND 29026/0015 SLP213 T01440072 $
2026-04-14 23:56:00,METAR KSFO 142356Z 29018G27KT 10SM FEW027 15/07 A3017 RMK AO2 PK WND 29029/2302 SLP215 T01500067 10161 20139 56014 $
2026-04-14 22:56:00,METAR KSFO 142256Z 29020G28KT 10SM FEW027 15/07 A3018 RMK AO2 PK WND 29028/2255 SLP218 T01500067 $
2026-04-14 22:29:00,SPECI KSFO 142229Z 30017G26KT 10SM FEW024 SCT027 15/07 A3018 RMK AO2 PK WND 28027/2212 T01500072 $
2026-04-14 21:56:00,METAR KSFO 142156Z 28015G25KT 10SM FEW024 BKN027 16/07 A3019 RMK AO2 SLP224 T01560072 $
2026-04-14 20:56:00,METAR KSFO 142056Z 29013KT 10SM FEW024 BKN028 15/08 A3021 RMK AO2 SLP229 T01500078 58003 $
2026-04-14 20:49:00,SPECI KSFO 142049Z 28013KT 10SM FEW024 BKN028 15/08 A3021 RMK AO2 T01500078 $
2026-04-14 19:56:00,METAR KSFO 141956Z 26010G18KT 10SM FEW024 BKN031 15/07 A3021 RMK AO2 SLP230 T01500067 $
2026-04-14 19:22:00,SPECI KSFO 141922Z 30011G16KT 10SM BKN031 15/07 A3022 RMK AO2 T01500072 $
2026-04-14 18:56:00,METAR KSFO 141856Z 26011KT 10SM BKN029 14/07 A3022 RMK AO2 SLP233 T01440067 $
2026-04-14 17:56:00,METAR KSFO 141756Z 27010KT 10SM OVC027 14/07 A3022 RMK AO2 SLP232 T01390072 10144 20122 51012 $
2026-04-14 16:56:00,METAR KSFO 141656Z 28010KT 10SM BKN028 13/07 A3021 RMK AO2 SLP228 T01330072 $
2026-04-14 15:56:00,METAR KSFO 141556Z 27011KT 10SM OVC027 13/08 A3020 RMK AO2 SLP225 T01280078 $
2026-04-14 14:56:00,METAR KSFO 141456Z 27010KT 10SM OVC021 13/08 A3018 RMK AO2 SLP220 T01280083 53013 $
2026-04-14 13:56:00,METAR KSFO 141356Z 27010KT 10SM FEW009 OVC020 12/08 A3016 RMK AO2 SLP213 T01220078 $
2026-04-14 12:56:00,METAR KSFO 141256Z 27009KT 10SM FEW009 BKN019 12/08 A3015 RMK AO2 SLP209 T01220078 $
2026-04-14 11:56:00,METAR KSFO 141156Z 27011KT 10SM FEW008 BKN017 12/08 A3015 RMK AO2 SLP208 T01220083 10128 20117 53005 $
2026-04-14 11:17:00,SPECI KSFO 141117Z 27010KT 10SM FEW008 BKN016 12/09 A3014 RMK AO2 T01170089 $
2026-04-14 10:56:00,METAR KSFO 141056Z 28011KT 10SM FEW008 SCT014 12/09 A3013 RMK AO2 SLP204 T01170089 $
2026-04-14 09:56:00,METAR KSFO 140956Z 28011KT 10SM FEW012 12/09 A3013 RMK AO2 SLP201 T01170089 $
2026-04-14 08:56:00,METAR KSFO 140856Z 28014KT 10SM FEW012 12/09 A3013 RMK AO2 SLP203 T01220089 56001 $
2026-04-14 07:56:00,METAR KSFO 140756Z 27012KT 10SM FEW012 12/09 A3013 RMK AO2 SLP204 T01220094 401720100 $
2026-04-14 06:56:00,METAR KSFO 140656Z 28014KT 10SM FEW014 13/09 A3013 RMK AO2 SLP202 T01280094 $
2026-04-14 05:56:00,METAR KSFO 140556Z 28017G25KT 10SM FEW016 13/09 A3014 RMK AO2 SLP204 T01280089 10161 20128 51007 $
2026-04-14 04:56:00,METAR KSFO 140456Z 28017G25KT 10SM FEW016 13/09 A3013 RMK AO2 SLP204 T01280094 $
2026-04-14 03:56:00,METAR KSFO 140356Z 27017KT 10SM FEW035 13/09 A3012 RMK AO2 SLP200 T01280089 $
2026-04-14 02:56:00,METAR KSFO 140256Z 27017KT 10SM FEW035 13/09 A3011 RMK AO2 PK WND 29027/0206 SLP197 T01330089 53005 $
2026-04-14 01:56:00,METAR KSFO 140156Z 28020KT 10SM FEW035 14/09 A3011 RMK AO2 PK WND 29026/0135 SLP195 T01390089 $
2026-04-14 00:56:00,METAR KSFO 140056Z 27019KT 10SM FEW038 16/08 A3010 RMK AO2 PK WND 28026/0027 SLP192 T01560083 $
2026-04-13 23:56:00,METAR KSFO 132356Z 28016KT 10SM FEW038 16/07 A3010 RMK AO2 SLP192 T01610072 10172 20139 58007 $
2026-04-13 22:56:00,METAR KSFO 132256Z 28016KT 10SM SCT040 17/08 A3011 RMK AO2 SLP195 T01670078 $
2026-04-13 21:56:00,METAR KSFO 132156Z 31010KT 10SM SCT040 17/08 A3012 RMK AO2 SLP198 T01670078 $
2026-04-13 20:56:00,METAR KSFO 132056Z 03007KT 10SM BKN040 16/09 A3012 RMK AO2 SLP199 T01610089 58004 $
2026-04-13 19:56:00,METAR KSFO 131956Z 03006KT 10SM SCT040 16/09 A3013 RMK AO2 SLP204 T01560094 $
2026-04-13 18:56:00,METAR KSFO 131856Z 03005KT 10SM SCT038CB 15/09 A3014 RMK AO2 SLP204 CB OHD T01500094 $
2026-04-13 17:56:00,METAR KSFO 131756Z 03008KT 10SM SCT030 BKN043CB 14/10 A3013 RMK AO2 SLP204 CB OHD T01440100 10144 20100 51012 $
2026-04-13 16:56:00,METAR KSFO 131656Z 02007KT 10SM FEW015 BKN034 14/09 A3013 RMK AO2 SLP201 T01390094 $
2026-04-13 15:56:00,METAR KSFO 131556Z 35006KT 10SM FEW015 SCT023 13/09 A3012 RMK AO2 SLP199 T01280094 $
2026-04-13 14:56:00,METAR KSFO 131456Z 29007KT 10SM FEW017 SCT037 11/08 A3010 RMK AO2 SLP192 T01060083 53016 $
2026-04-13 13:56:00,METAR KSFO 131356Z 29008KT 10SM FEW016 BKN060 10/08 A3008 RMK AO2 SLP186 T01000083 $
2026-04-13 12:56:00,METAR KSFO 131256Z 29007KT 10SM FEW018 SCT034 SCT100 10/09 A3007 RMK AO2 SLP180 T01000089 $
2026-04-13 11:56:00,METAR KSFO 131156Z 28005KT 10SM FEW007 SCT022 BKN120 10/09 A3005 RMK AO2 SLP176 70014 T01000094 10122 20100 55001 $
2026-04-13 10:56:00,METAR KSFO 131056Z 27003KT 10SM FEW007 SCT045 BKN180 11/09 A3005 RMK AO2 SLP175 T01060094 $
2026-04-13 09:56:00,METAR KSFO 130956Z 00000KT 10SM FEW007 SCT033 BKN045 12/10 A3005 RMK AO2 SLP176 T01170100 $
2026-04-13 08:56:00,METAR KSFO 130856Z 00000KT 10SM FEW009 BKN039 BKN100 12/10 A3006 RMK AO2 SLP177 T01170100 51006 $
2026-04-13 07:56:00,METAR KSFO 130756Z 28005KT 10SM FEW008 SCT037 BKN100 12/09 A3006 RMK AO2 SLP177 T01170094 401500111 $
2026-04-13 06:56:00,METAR KSFO 130656Z 00000KT 10SM FEW007 SCT038 BKN060 12/10 A3004 RMK AO2 SLP173 T01220100 $
2026-04-13 05:56:00,METAR KSFO 130556Z 24006KT 10SM FEW009 SCT039 BKN060 12/10 A3004 RMK AO2 RAE28 SLP171 P0001 60003 T01220100 10150 20122 51020 $
2026-04-13 04:56:00,METAR KSFO 130456Z 21005KT 10SM -RA FEW011 SCT023 BKN034 13/09 A3002 RMK AO2 RAB52 SLP167 P0000 T01280094 $
2026-04-13 03:56:00,METAR KSFO 130356Z 19005KT 10SM FEW017 SCT024 BKN036 13/09 A3000 RMK AO2 SLP158 T01280089 $
2026-04-13 02:56:00,METAR KSFO 130256Z 23006KT 10SM FEW017 BKN034 BKN180 13/08 A2998 RMK AO2 SLP150 60002 T01280083 53014 $
2026-04-13 01:56:00,METAR KSFO 130156Z 26013KT 10SM FEW017 SCT026 BKN034 BKN180 13/09 A2996 RMK AO2 RAB14E49 SLP144 P0000 T01330089 $
2026-04-13 00:56:00,METAR KSFO 130056Z 24017G22KT 10SM FEW015 SCT029 BKN050 BKN150 13/10 A2995 RMK AO2 RAB12E35 SLP140 P0002 T01330100 $
2026-04-12 23:56:00,METAR KSFO 122356Z 22012KT 10SM FEW008 BKN035 BKN060 15/09 A2993 RMK AO2 SLP136 60008 T01500089 10150 20117 51003 $
2026-04-12 22:56:00,METAR KSFO 122256Z 24015G21KT 10SM FEW017 SCT027 BKN036 BKN180 14/09 A2993 RMK AO2 RAE06 SLP136 P0000 T01440089 $
2026-04-12 21:56:00,METAR KSFO 122156Z 24017G25KT 10SM -RA FEW012 SCT023 BKN045 14/11 A2993 RMK AO2 RAB35 SLP136 P0000 T01390106 $
2026-04-12 20:56:00,METAR KSFO 122056Z 21008KT 10SM FEW031 BKN045 BKN060 14/11 A2992 RMK AO2 RAE52 SLP133 P0007 60008 T01390106 51013 $
2026-04-12 19:56:00,METAR KSFO 121956Z 25014KT 8SM -RA FEW026 BKN060 OVC070 13/09 A2992 RMK AO2 PK WND 22027/1937 RAB1858 SLP132 P0001 T01280089 $
2026-04-12 18:56:00,METAR KSFO 121856Z 21017G25KT 10SM FEW029 SCT038 BKN050 14/09 A2991 RMK AO2 RAB16E32 SLP127 P0000 T01390089 VISNO $
2026-04-12 17:56:00,METAR KSFO 121756Z 22013G21KT 10SM FEW030 BKN049 BKN065 14/08 A2989 RMK AO2 SLP121 60003 T01390083 10139 20111 51012 $
2026-04-12 16:56:00,METAR KSFO 121656Z 20011KT 10SM FEW030 SCT041 BKN080 14/09 A2988 RMK AO2 RAB15E26 TSE05B08E20 SLP116 P0000 T01390089 $
2026-04-12 16:26:00,SPECI KSFO 121626Z 22007G16KT 10SM FEW029 BKN039CB OVC110 13/08 A2986 RMK AO2 RAB15E26 TSE05B08E20 CB SW MOV SE P0000 T01330078 $
2026-04-12 15:56:00,METAR KSFO 121556Z 21007KT 10SM TS FEW028 BKN039CB BKN049 13/09 A2987 RMK AO2 RAB14E31 TSB50 SLP114 OCNL LTGICCCCG VC SW TS SW MOV SE P0002 T01330089 $
2026-04-12 14:56:00,METAR KSFO 121456Z 15006KT 10SM FEW036 BKN050 BKN070 12/08 A2985 RMK AO2 RAB32E52 SLP109 P0000 60001 T01170083 53017 $
2026-04-12 13:56:00,METAR KSFO 121356Z 15009KT 10SM FEW028 SCT034 BKN065 11/08 A2983 RMK AO2 RAE18 SLP102 P0000 T01110078 $
2026-04-12 12:56:00,METAR KSFO 121256Z 23008G18KT 10SM -RA FEW024 BKN037 12/08 A2981 RMK AO2 RAB46 SLP095 P0001 T01170083 $
2026-04-12 11:56:00,METAR KSFO 121156Z 17005KT 10SM FEW024 BKN037 12/08 A2980 RMK AO2 SLP092 60008 70104 T01170078 10128 20117 53010 $
2026-04-12 10:56:00,METAR KSFO 121056Z 00000KT 10SM FEW024 BKN037 12/08 A2979 RMK AO2 RAE0958 SLP088 P0000 T01220083 $
2026-04-12 09:56:00,METAR KSFO 120956Z 25010G18KT 10SM -RA SCT024 BKN033 BKN044 12/09 A2978 RMK AO2 RAB13E27B46 SLP084 P0001 T01220089 $
2026-04-12 08:56:00,METAR KSFO 120856Z 21011KT 10SM SCT024 BKN033 BKN044 12/09 A2977 RMK AO2 RAB08E18B41E52 SLP081 P0000 60007 T01220089 53003 $
2026-04-12 07:56:00,METAR KSFO 120756Z 22008KT 10SM FEW024 BKN034 BKN042 12/08 A2977 RMK AO2 RAB0657E24 SLP080 P0001 T01220083 401670106 $
2026-04-12 06:56:00,METAR KSFO 120656Z 23011KT 10SM SCT024 BKN049 12/09 A2976 RMK AO2 RAE03B45E47 SLP077 P0006 T01220089 $
2026-04-12 06:52:00,SPECI KSFO 120652Z 22015KT 10SM SCT024 BKN049 12/08 A2976 RMK AO2 RAE03B45E47 P0006 $
2026-04-12 05:56:00,METAR KSFO 120556Z 15007KT 10SM -RA SCT017 BKN024 OVC049 12/09 A2976 RMK AO2 RAB12 SLP079 P0004 60074 T01170094 10139 20106 58002 $
2026-04-12 05:38:00,SPECI KSFO 120538Z VRB05KT 10SM -RA FEW031 BKN032 OVC049 12/09 A2978 RMK AO2 RAB12 P0001 T01170094 $
2026-04-12 04:56:00,METAR KSFO 120456Z 13012KT 10SM BKN024 BKN032 OVC049 12/09 A2977 RMK AO2 RAB23E55 SLP082 P0001 T01170089 $
2026-04-12 03:56:00,METAR KSFO 120356Z 14011KT 10SM SCT018 BKN026 OVC041 12/09 A2977 RMK AO2 SLP080 T01170089 $
2026-04-12 02:56:00,METAR KSFO 120256Z VRB06KT 10SM FEW015 SCT048 BKN100 BKN180 12/08 A2977 RMK AO2 SLP081 60069 T01170078 53009 $
2026-04-12 01:56:00,METAR KSFO 120156Z 24008KT 7SM FEW008 BKN048 BKN080 11/08 A2974 RMK AO2 RAE55 TSE03 PRESFR SLP070 P0024 T01110078 $
2026-04-12 01:53:00,SPECI KSFO 120153Z 23010KT 7SM -RA FEW008 BKN048 BKN080 11/08 A2975 RMK AO2 TSE03 P0024 $
2026-04-12 01:26:00,SPECI KSFO 120126Z 25014KT 2 1/2SM RA BR SCT018 BKN046 OVC060 11/09 A2977 RMK AO2 TSE03 P0015 T01060089 $
2026-04-12 01:12:00,SPECI KSFO 120112Z 25012G21KT 4SM R28R/6000VP6000FT RA BR SCT018 BKN046 OVC060 11/09 A2977 RMK AO2 TSE03 P0008 T01060089 $
2026-04-12 01:03:00,SPECI KSFO 120103Z 26011KT 2 1/2SM RA BR SCT018 BKN040 OVC060 11/09 A2977 RMK AO2 TSE03 TS MOV NE P0003 T01060089 $
2026-04-12 00:56:00,METAR KSFO 120056Z COR 26012KT 2 1/2SM TSRA BR SCT018 BKN036CB OVC070 11/09 A2977 RMK AO2 PK WND 19043/0026 WSHFT 0026 TSB45 SLP080 OCNL LTGIC NE TS MOV NE P0045 T01060089 $
2026-04-12 00:50:00,SPECI KSFO 120050Z COR 26012KT 3SM TSRA BR SCT018 BKN032CB OVC070 11/09 A2978 RMK AO2 PK WND 19043/0026 WSHFT 0026 TSB45 OCNL LTGIC NE TS MOV NE P0043 $
2026-04-12 00:46:00,SPECI KSFO 120046Z 26014G31KT 2 1/2SM R28R/4500VP6000FT RA BR SCT018 BKN032 OVC070 11/09 A2978 RMK AO2 PK WND 19043/0026 WSHFT 0026 P0042 T01110089 $
2026-04-12 00:39:00,SPECI KSFO 120039Z 26021G31KT 2 1/2SM R28R/2400VP6000FT +RA BR SCT018 BKN032 OVC070 11/09 A2977 RMK AO2 PK WND 19043/0026 P0037 T01110089 $
2026-04-12 00:24:00,SPECI KSFO 120024Z 19021G34KT 1SM R28R/5000VP6000FT +RA BR SCT018 BKN038 OVC070 13/12 A2974 RMK AO2 PK WND 20034/0024 P0013 T01330117 $
2026-04-12 00:20:00,SPECI KSFO 120020Z 20017G26KT 2 1/2SM +RA BR SCT018 BKN046 OVC070 13/12 A2973 RMK AO2 PK WND 17030/0007 P0010 T01330117 $
2026-04-12 00:09:00,SPECI KSFO 120009Z 17021G30KT 3SM R28R/4000VP6000FT RA BR SCT018 BKN046 OVC070 14/12 A2973 RMK AO2 PK WND 17030/0007 LTG DSNT SW P0006 T01390117 $
2026-04-11 23:56:00,METAR KSFO 112356Z 18019G28KT 2 1/2SM R28R/5000VP6000FT RA BR FEW018 BKN055 OVC075 14/12 A2974 RMK AO2 PK WND 18030/2310 SLP072 P0012 60019 T01390117 10167 20133 56027 $
2026-04-11 22:56:00,METAR KSFO 112256Z 18018G34KT 7SM RA FEW018 SCT035 OVC065 14/11 A2977 RMK AO2 PK WND 18034/2248 RAB17 SLP082 P0004 T01390111 $
2026-04-11 21:56:00,METAR KSFO 112156Z 16016G28KT 10SM FEW016 SCT035 BKN046 OVC150 16/10 A2979 RMK AO2 PK WND 18028/2148 SLP088 T01610100 $
2026-04-11 20:56:00,METAR KSFO 112056Z 14013KT 10SM FEW008 SCT024 OVC160 16/12 A2982 RMK AO2 RAE1959 SLP099 P0000 60003 T01560117 58020 $
2026-04-11 19:56:00,METAR KSFO 111956Z 19014G26KT 9SM -RA FEW008 BKN034 OVC045 14/11 A2987 RMK AO2 PK WND 20027/1913 WSHFT 1846 RAE23B50 SLP115 P0002 T01390106 $
2026-04-11 19:03:00,SPECI KSFO 111903Z 22015G27KT 3SM R28R/4500VP6000FT -RA FEW008 SCT025 OVC034 13/11 A2989 RMK AO2 WSHFT 1846 P0000 T01330106 $
2026-04-11 18:56:00,METAR KSFO 111856Z 22019G32KT 3SM R28R/4500VP6000FT RA FEW008 BKN037 OVC044 13/11 A2989 RMK AO2 PK WND 22032/1852 RAB46 SLP121 P0001 T01330106 $
2026-04-11 18:12:00,SPECI KSFO 111812Z 18016G21KT 10SM FEW008 SCT029 BKN080 16/11 A2988 RMK AO2 T01560111 $
2026-04-11 17:56:00,METAR KSFO 111756Z 19011G22KT 10SM FEW008 BKN029 BKN050 15/12 A2988 RMK AO2 RAB1658E07B31E43 SLP118 P0000 60003 T01500117 10150 20133 53001 $
2026-04-11 16:56:00,METAR KSFO 111656Z 19012KT 7SM FEW008 BKN028 OVC044 14/12 A2988 RMK AO2 RAE41 SLP116 P0003 T01440117 $
2026-04-11 16:33:00,SPECI KSFO 111633Z 18012G19KT 7SM -RA FEW008 BKN017 OVC024 13/12 A2987 RMK AO2 P0003 T01330117 $
2026-04-11 16:08:00,SPECI KSFO 111608Z 17013KT 2SM R28R/6000VP6000FT -RA BR FEW008 BKN027 OVC035 13/11 A2988 RMK AO2 P0001 T01330111 $
2026-04-11 15:56:00,METAR KSFO 111556Z 17011KT 7SM -RA FEW010 BKN045 OVC055 14/11 A2988 RMK AO2 RAB46 SLP117 P0000 T01390106 $
2026-04-11 14:56:00,METAR KSFO 111456Z 15007KT 10SM FEW010 SCT045 BKN065 14/11 A2988 RMK AO2 SLP117 T01390106 53002 $
2026-04-11 13:56:00,METAR KSFO 111356Z 17008KT 10SM FEW041 SCT050 BKN160 13/11 A2987 RMK AO2 SLP116 T01330111 $
2026-04-11 12:56:00,METAR KSFO 111256Z 15007KT 10SM FEW039 BKN050 13/12 A2987 RMK AO2 SLP114 T01330117 $
2026-04-11 11:56:00,METAR KSFO 111156Z 21006KT 10SM FEW019 OVC033 14/12 A2987 RMK AO2 SLP115 60001 70090 T01390117 10144 20133 55001 $
2026-04-11 10:56:00,METAR KSFO 111056Z 17006KT 10SM FEW019 BKN031 13/12 A2987 RMK AO2 RAB12E42 SLP115 P0001 T01330122 $
2026-04-11 09:56:00,METAR KSFO 110956Z 17005KT 10SM SCT027 BKN034 14/13 A2987 RMK AO2 SLP115 T01390128 $
2026-04-11 08:56:00,METAR KSFO 110856Z 00000KT 10SM SCT027 14/12 A2987 RMK AO2 SLP116 60000 T01390122 50003 $
2026-04-11 08:45:00,SPECI KSFO 110845Z 19003KT 10SM SCT026 14/12 A2988 RMK AO2 T01390122 $
2026-04-11 07:56:00,METAR KSFO 110756Z 00000KT 10SM SCT014 BKN020 OVC032 14/12 A2988 RMK AO2 SLP117 T01440122 401890139 $
2026-04-11 06:56:00,METAR KSFO 110656Z 22004KT 10SM BKN018 BKN028 OVC035 14/12 A2987 RMK AO2 RAE05 SLP114 P0000 T01440122 $
2026-04-11 05:56:00,METAR KSFO 110556Z 19005KT 6SM -RA BR FEW020 BKN026 OVC038 14/13 A2987 RMK AO2 RAB0458 SLP113 P0005 60026 T01390128 10167 20139 50010 $
2026-04-11 04:56:00,METAR KSFO 110456Z 22008KT 10SM FEW004 BKN025 BKN038 15/12 A2987 RMK AO2 RAB01E37 SLP113 P0001 T01500122 $
2026-04-11 03:56:00,METAR KSFO 110356Z 23006KT 10SM FEW004 BKN019 OVC043 15/13 A2985 RMK AO2 RAE47 SLP108 P0016 T01500128 $
2026-04-11 03:12:00,SPECI KSFO 110312Z 19005KT 3SM R28R/5500VP6000FT -RA BR FEW009 BKN018 OVC029 14/13 A2984 RMK AO2 P0015 T01440128 $
2026-04-11 03:02:00,SPECI KSFO 110302Z 19007KT 2 1/2SM RA BR FEW009 BKN027 OVC035 14/13 A2984 RMK AO2 P0005 T01440128 $
2026-04-11 02:56:00,METAR KSFO 110256Z 18008KT 4SM -RA BR FEW014 BKN027 OVC035 15/13 A2984 RMK AO2 RAE18B45 SLP103 P0003 60004 T01500128 53000 $
2026-04-11 02:16:00,SPECI KSFO 110216Z 20011G15KT 9SM -RA SCT014 BKN024 BKN070 16/13 A2983 RMK AO2 P0003 T01560128 $
2026-04-11 01:56:00,METAR KSFO 110156Z 17006KT 8SM -RA FEW014 SCT034 BKN060 OVC180 16/13 A2983 RMK AO2 SLP101 P0001 T01560128 $
2026-04-11 00:56:00,METAR KSFO 110056Z 21007KT 10SM -RA FEW015 SCT022 BKN055 BKN180 16/13 A2983 RMK AO2 SLP103 P0000 T01610133 $
2026-04-10 23:56:00,METAR KSFO 102356Z 22009KT 10SM -RA FEW015 SCT029 BKN060 BKN180 17/12 A2984 RMK AO2 RAB54 SLP103 P0000 60048 T01670117 10189 20144 58008 $
2026-04-10 22:56:00,METAR KSFO 102256Z 22011G23KT 10SM FEW018 BKN036 BKN180 18/11 A2984 RMK AO2 SLP105 T01780111 $
2026-04-10 22:06:00,SPECI KSFO 102206Z 22009KT 10SM SCT030 BKN038 BKN180 18/11 A2985 RMK AO2 T01830106 $
2026-04-10 21:56:00,METAR KSFO 102156Z 21010G17KT 10SM BKN029 BKN180 18/11 A2986 RMK AO2 SLP110 T01830111 $
2026-04-10 20:56:00,METAR KSFO 102056Z 20010G19KT 10SM FEW009 BKN028 BKN045 18/13 A2986 RMK AO2 RAE02 SLP111 P0000 60048 T01830133 58005 $
2026-04-10 19:56:00,METAR KSFO 101956Z 24003KT 10SM -RA FEW008 SCT018 BKN044 15/13 A2987 RMK AO2 SLP115 P0048 T01500128 $
2026-04-10 19:32:00,SPECI KSFO 101932Z 15008KT 5SM R28R/6000VP6000FT -RA BR FEW006 BKN015 OVC055 14/12 A2988 RMK AO2 P0047 T01440122 $
2026-04-10 19:26:00,SPECI KSFO 101926Z 16004KT 2SM R28R/3500VP6000FT +RA BR FEW006 BKN015 OVC048 14/13 A2988 RMK AO2 P0044 T01440133 $
2026-04-10 19:15:00,SPECI KSFO 101915Z 18005KT 3/4SM R28R/2200VP6000FT +RA BR FEW006 BKN015 OVC048 15/13 A2988 RMK AO2 SFC VIS 1 P0010 T01500128 $
2026-04-10 18:56:00,METAR KSFO 101856Z 12006KT 10SM -RA FEW006 BKN016 OVC050 16/13 A2988 RMK AO2 RAB28 SLP118 P0000 T01610133 $
2026-04-10 18:23:00,SPECI KSFO 101823Z 13005KT 10SM FEW006 BKN015 OVC075 16/13 A2988 RMK AO2 T01610133 $
2026-04-10 17:56:00,METAR KSFO 101756Z 15004KT 10SM FEW006 FEW027 BKN060 15/13 A2988 RMK AO2 RAE43 SLP116 P0002 60015 T01500133 10150 20139 53001 $
2026-04-10 17:19:00,SPECI KSFO 101719Z 14006KT 10SM -RA FEW006 SCT023 OVC050 14/13 A2987 RMK AO2 P0002 T01440128 $
2026-04-10 16:56:00,METAR KSFO 101656Z 15006KT 4SM -RA BR SCT006 BKN018 OVC035 14/13 A2987 RMK AO2 SLP116 P0004 T01390128 $
2026-04-10 16:36:00,SPECI KSFO 101636Z 15005KT 4SM -RA BR SCT007 BKN016 OVC030 14/13 A2987 RMK AO2 P0003 T01390128 $
2026-04-10 16:19:00,SPECI KSFO 101619Z 15006KT 2 1/2SM R28R/5000VP6000FT -RA BR SCT007 BKN016 OVC035 14/13 A2987 RMK AO2 P0000 T01440128 $
2026-04-10 15:56:00,METAR KSFO 101556Z 14006KT 9SM -RA SCT008 BKN017 OVC038 14/13 A2987 RMK AO2 RAB17 SLP114 P0000 T01440128 $
2026-04-10 14:56:00,METAR KSFO 101456Z 15006KT 10SM FEW008 BKN018 OVC041 14/13 A2987 RMK AO2 RAE56 SLP115 P0002 60009 T01390128 53005 $
2026-04-10 14:17:00,SPECI KSFO 101417Z 13005KT 9SM -RA FEW012 BKN021 OVC040 14/12 A2986 RMK AO2 P0000 T01390122 $
2026-04-10 13:56:00,METAR KSFO 101356Z 14006KT 7SM -RA FEW012 SCT024 OVC055 14/12 A2986 RMK AO2 RAE25B27 SLP110 P0001 T01440122 $
2026-04-10 13:25:00,SPECI KSFO 101325Z 16005KT 10SM BKN025 BKN049 OVC070 14/12 A2985 RMK AO2 RAE25 P0001 T01390122 $
2026-04-10 12:56:00,METAR KSFO 101256Z 17005KT 10SM -RA FEW033 BKN070 OVC080 14/13 A2985 RMK AO2 SLP109 P0006 T01390128 $
2026-04-10 12:27:00,SPECI KSFO 101227Z 16008KT 10SM -RA BKN031 OVC039 14/12 A2985 RMK AO2 P0003 T01390122 $
2026-04-10 11:56:00,METAR KSFO 101156Z 19007KT 10SM -RA FEW024 OVC029 15/12 A2986 RMK AO2 RAB22 SLP110 P0002 60002 70002 T01500117 10156 20150 56012 $
2026-04-10 10:56:00,METAR KSFO 101056Z 17007KT 10SM BKN021 BKN044 15/12 A2986 RMK AO2 SLP112 T01500117 $
2026-04-10 10:47:00,SPECI KSFO 101047Z 16007KT 10SM BKN021 BKN044 15/12 A2987 RMK AO2 T01500117 $
2026-04-10 09:56:00,METAR KSFO 100956Z 16007KT 10SM FEW034 BKN045 15/12 A2987 RMK AO2 SLP115 T01500117 $
2026-04-10 08:56:00,METAR KSFO 100856Z 17005KT 10SM SCT020 BKN045 15/12 A2989 RMK AO2 SLP122 T01500117 56008 $
2026-04-10 08:52:00,SPECI KSFO 100852Z 16003KT 10SM SCT020 BKN045 15/12 A2989 RMK AO2 $
2026-04-10 07:56:00,METAR KSFO 100756Z VRB04KT 10SM BKN018 BKN180 15/12 A2990 RMK AO2 SLP125 T01500117 402170122 $
2026-04-10 07:48:00,SPECI KSFO 100748Z 17003KT 10SM BKN018 BKN180 15/12 A2990 RMK AO2 T01500117 $
2026-04-10 06:56:00,METAR KSFO 100656Z 00000KT 10SM SCT017 SCT035 BKN180 15/12 A2990 RMK AO2 SLP125 T01500117 $
2026-04-10 05:56:00,METAR KSFO 100556Z 21005KT 10SM FEW020 BKN035 BKN180 15/11 A2992 RMK AO2 SLP130 T01500111 10200 20150 50006 $
2026-04-10 04:56:00,METAR KSFO 100456Z 35003KT 10SM FEW011 SCT085 BKN180 15/12 A2992 RMK AO2 SLP131 T01500117 $
2026-04-10 03:56:00,METAR KSFO 100356Z 20003KT 10SM FEW016 SCT075 15/12 A2990 RMK AO2 SLP126 T01500117 $
2026-04-10 02:56:00,METAR KSFO 100256Z 22005KT 10SM FEW009 SCT018 BKN075 BKN200 16/12 A2990 RMK AO2 SLP124 T01560117 58001 $
2026-04-10 01:56:00,METAR KSFO 100156Z 27009G19KT 10SM FEW014 SCT037 SCT090 BKN200 17/12 A2990 RMK AO2 SLP124 T01670117 $
2026-04-10 00:56:00,METAR KSFO 100056Z 28016G21KT 10SM FEW008 SCT045 SCT090 BKN200 18/12 A2991 RMK AO2 SLP126 T01780122 $
2026-04-09 23:56:00,METAR KSFO 092356Z 27020KT 10SM FEW014 FEW050 BKN200 19/12 A2990 RMK AO2 PK WND 29027/2309 SLP126 T01940122 10217 20167 56013 $
2026-04-09 22:56:00,METAR KSFO 092256Z 29019KT 10SM FEW015 FEW050 SCT150 BKN200 20/12 A2991 RMK AO2 PK WND 30026/2253 WSHFT 2158 SLP130 T02000122 $
2026-04-09 22:18:00,SPECI KSFO 092218Z 29012KT 10SM FEW027 FEW065 SCT150 BKN200 21/12 A2992 RMK AO2 WSHFT 2158 T02110122 $
2026-04-09 21:56:00,METAR KSFO 092156Z 25010G18KT 230V290 10SM FEW027 FEW065 BKN150 BKN200 21/12 A2993 RMK AO2 SLP134 T02110117 $
2026-04-09 20:56:00,METAR KSFO 092056Z 27014G22KT 10SM FEW006 SCT110 BKN200 21/12 A2994 RMK AO2 SLP138 CB DSNT E T02110122 58008 $
2026-04-09 19:56:00,METAR KSFO 091956Z 35011KT 10SM FEW006 SCT120 BKN200 19/13 A2995 RMK AO2 SLP140 T01890128 $
2026-04-09 19:14:00,SPECI KSFO 091914Z 33010G16KT 10SM FEW006 SCT016 BKN200 18/13 A2996 RMK AO2 T01830128 $
2026-04-09 18:56:00,METAR KSFO 091856Z 03006KT 10SM FEW006 BKN017 BKN200 17/13 A2996 RMK AO2 SLP146 T01720128 $
2026-04-09 18:49:00,SPECI KSFO 091849Z 04004KT 10SM FEW006 BKN012 BKN200 17/13 A2996 RMK AO2 T01720128 $
2026-04-09 17:56:00,METAR KSFO 091756Z 35009KT 10SM FEW006 SCT016 BKN120 17/13 A2996 RMK AO2 SLP146 T01670128 10172 20133 51001 $
2026-04-09 17:16:00,SPECI KSFO 091716Z 34008KT 10SM FEW006 SCT015 BKN120 16/13 A2996 RMK AO2 T01610128 $
2026-04-09 16:56:00,METAR KSFO 091656Z 30008KT 10SM FEW006 BKN014 BKN120 16/12 A2996 RMK AO2 SLP145 T01560122 $
2026-04-09 15:56:00,METAR KSFO 091556Z 30006KT 10SM FEW006 BKN013 BKN120 15/12 A2997 RMK AO2 SLP148 T01500122 $
2026-04-09 15:39:00,SPECI KSFO 091539Z 31006KT 10SM FEW006 BKN011 BKN120 14/12 A2997 RMK AO2 T01440117 $
2026-04-09 14:56:00,METAR KSFO 091456Z 28004KT 10SM FEW005 OVC008 14/12 A2996 RMK AO2 SLP145 T01390117 53002 $
2026-04-09 13:56:00,METAR KSFO 091356Z 32004KT 10SM FEW004 OVC007 13/12 A2995 RMK AO2 SLP143 T01330122 $
2026-04-09 12:56:00,METAR KSFO 091256Z 15004KT 10SM FEW004 BKN006 BKN010 13/12 A2995 RMK AO2 SLP142 T01330122 $
2026-04-09 12:30:00,SPECI KSFO 091230Z 17004KT 10SM FEW006 BKN009 BKN011 13/12 A2995 RMK AO2 T01330117 $
2026-04-09 11:56:00,METAR KSFO 091156Z 31004KT 10SM FEW006 BKN010 13/12 A2995 RMK AO2 SLP143 T01330117 10133 20122 56012 $
2026-04-09 11:19:00,SPECI KSFO 091119Z 31003KT 10SM FEW004 SCT007 BKN011 13/12 A2996 RMK AO2 T01280117 $
2026-04-09 10:56:00,METAR KSFO 091056Z 30004KT 10SM FEW004 BKN007 BKN011 13/12 A2996 RMK AO2 SLP146 T01280117 $
2026-04-09 09:56:00,METAR KSFO 090956Z 27005KT 10SM FEW004 BKN009 BKN011 13/12 A2998 RMK AO2 SLP150 T01330117 $
2026-04-09 08:56:00,METAR KSFO 090856Z 27003KT 10SM FEW004 BKN007 BKN011 13/12 A2999 RMK AO2 SLP155 T01280117 58001 $
2026-04-09 08:26:00,SPECI KSFO 090826Z 28009KT 10SM FEW004 BKN007 BKN011 12/12 A3000 RMK AO2 T01220117 $
2026-04-09 07:56:00,METAR KSFO 090756Z 32010KT 10SM FEW004 BKN012 13/12 A3000 RMK AO2 SLP158 T01280122 402220122 $
2026-04-09 06:56:00,METAR KSFO 090656Z 33006KT 10SM FEW007 13/12 A3000 RMK AO2 SLP157 T01280122 $
2026-04-09 05:56:00,METAR KSFO 090556Z 32006KT 10SM FEW004 13/12 A2999 RMK AO2 SLP156 T01330117 10189 20133 51014 $
2026-04-09 04:56:00,METAR KSFO 090456Z 30008KT 10SM FEW003 13/12 A2999 RMK AO2 SLP155 T01330117 $
2026-04-09 04:18:00,SPECI KSFO 090418Z 28011KT 10SM FEW002 SCT007 13/12 A2998 RMK AO2 T01330117 $
2026-04-09 03:56:00,METAR KSFO 090356Z 30011KT 10SM FEW002 BKN007 13/12 A2997 RMK AO2 SLP150 T01330117 $
2026-04-09 03:22:00,SPECI KSFO 090322Z 29011KT 10SM FEW002 BKN007 13/12 A2996 RMK AO2 T01330122 $
2026-04-09 02:56:00,METAR KSFO 090256Z 30008KT 10SM FEW002 FEW120 SCT150 14/12 A2995 RMK AO2 SLP142 T01390117 58002 $
2026-04-09 01:56:00,METAR KSFO 090156Z 29009KT 10SM FEW002 FEW040 SCT150 SCT200 14/12 A2995 RMK AO2 SLP142 T01440122 $
2026-04-09 00:56:00,METAR KSFO 090056Z 29017KT 10SM FEW004 FEW040 SCT150 SCT200 18/12 A2996 RMK AO2 SLP145 T01780117 $
2026-04-08 23:56:00,METAR KSFO 082356Z 29018KT 10SM FEW013 FEW040 SCT150 SCT200 18/12 A2996 RMK AO2 SLP145 T01830117 10222 20167 58011 $
2026-04-08 22:56:00,METAR KSFO 082256Z 28017KT 10SM FEW010 FEW040 SCT150 19/12 A2997 RMK AO2 PK WND 29028/2225 SLP149 T01940117 $
2026-04-08 21:56:00,METAR KSFO 082156Z 29017KT 10SM FEW045 FEW090 BKN150 20/12 A2999 RMK AO2 SLP154 T02000122 $
2026-04-08 20:56:00,METAR KSFO 082056Z 30014KT 10SM SCT090 21/12 A2999 RMK AO2 SLP156 T02110117 56015 $
2026-04-08 19:56:00,METAR KSFO 081956Z 01006KT 10SM FEW090 19/13 A3000 RMK AO2 SLP159 T01940128 $
2026-04-08 18:56:00,METAR KSFO 081856Z 31011KT 10SM FEW090 18/11 A3002 RMK AO2 SLP167 T01830111 $
2026-04-08 17:56:00,METAR KSFO 081756Z 08004KT 10SM SCT100 17/11 A3004 RMK AO2 SLP171 T01670106 10167 20122 56003 VISNO $
2026-04-08 16:56:00,METAR KSFO 081656Z 09004KT 10SM FEW009 SCT100 16/10 A3004 RMK AO2 SLP171 T01560100
2026-04-08 15:56:00,METAR KSFO 081556Z 05003KT 10SM FEW009 BKN100 14/10 A3004 RMK AO2 SLP172 T01440100
2026-04-08 14:56:00,METAR KSFO 081456Z 29005KT 10SM FEW009 BKN120 14/10 A3004 RMK AO2 SLP174 T01390100 53007
2026-04-08 13:56:00,METAR KSFO 081356Z 18003KT 10SM FEW009 BKN120 13/11 A3003 RMK AO2 SLP168 T01280106
2026-04-08 12:56:00,METAR KSFO 081256Z 30005KT 10SM FEW009 SCT120 12/10 A3003 RMK AO2 SLP167 T01220100
2026-04-08 12:15:00,SPECI KSFO 081215Z 28011KT 10SM FEW007 SCT011 SCT120 13/10 A3002 RMK AO2 T01280100
2026-04-08 11:56:00,METAR KSFO 081156Z 29012KT 10SM FEW007 BKN011 13/10 A3002 RMK AO2 SLP166 T01280100 10133 20122 56006
2026-04-08 10:56:00,METAR KSFO 081056Z 28010KT 10SM FEW007 SCT011 13/11 A3003 RMK AO2 SLP168 T01280106
2026-04-08 09:56:00,METAR KSFO 080956Z 29008KT 10SM FEW008 FEW200 12/10 A3003 RMK AO2 SLP169 T01220100
2026-04-08 08:56:00,METAR KSFO 080856Z 28007KT 10SM FEW008 13/10 A3004 RMK AO2 SLP172 T01280100 56006
2026-04-08 07:56:00,METAR KSFO 080756Z 30007KT 10SM FEW007 13/10 A3004 RMK AO2 SLP173 T01280100 401780117
2026-04-08 06:56:00,METAR KSFO 080656Z 28005KT 10SM FEW007 13/10 A3005 RMK AO2 SLP174 T01280100
2026-04-08 05:56:00,METAR KSFO 080556Z 29012KT 10SM FEW009 FEW200 13/10 A3006 RMK AO2 SLP178 T01280100 10167 20128 50008
2026-04-08 04:56:00,METAR KSFO 080456Z 28012KT 10SM FEW011 SCT014 13/10 A3006 RMK AO2 SLP179 T01330100
2026-04-08 03:56:00,METAR KSFO 080356Z 27010KT 10SM FEW016 FEW200 13/10 A3005 RMK AO2 SLP175 T01330100
2026-04-08 02:56:00,METAR KSFO 080256Z 29009KT 10SM FEW016 FEW200 13/09 A3004 RMK AO2 SLP171 T01330089 55006
2026-04-08 01:56:00,METAR KSFO 080156Z 29013KT 10SM FEW015 FEW200 14/09 A3003 RMK AO2 SLP169 T01440089
2026-04-08 00:56:00,METAR KSFO 080056Z 29013KT 10SM FEW015 SCT200 15/09 A3004 RMK AO2 SLP172 T01500094
2026-04-07 23:56:00,METAR KSFO 072356Z 27014G18KT 10SM FEW015 SCT200 16/09 A3005 RMK AO2 SLP177 T01610089 10178 20150 58011
2026-04-07 22:56:00,METAR KSFO 072256Z 28014KT 10SM SCT200 17/09 A3006 RMK AO2 SLP180 T01670089
2026-04-07 21:56:00,METAR KSFO 072156Z 29015KT 10SM SCT200 17/09 A3008 RMK AO2 SLP185 T01720089
2026-04-07 20:56:00,METAR KSFO 072056Z 31014KT 10SM FEW015 SCT200 17/09 A3009 RMK AO2 SLP188 T01720089 56014
2026-04-07 19:56:00,METAR KSFO 071956Z 30013KT 10SM FEW015 SCT200 17/09 A3010 RMK AO2 SLP192 T01670089
2026-04-07 18:56:00,METAR KSFO 071856Z 31011KT 10SM FEW015 SCT200 17/08 A3011 RMK AO2 SLP196 T01670083
2026-04-07 17:56:00,METAR KSFO 071756Z 31009KT 10SM FEW006 16/08 A3013 RMK AO2 SLP202 T01560078 10156 20117 58000
2026-04-07 16:56:00,METAR KSFO 071656Z VRB06KT 10SM FEW009 SCT019 14/08 A3013 RMK AO2 SLP204 T01390078
2026-04-07 16:40:00,SPECI KSFO 071640Z VRB06KT 10SM FEW009 SCT019 13/08 A3013 RMK AO2 T01330078
2026-04-07 15:56:00,METAR KSFO 071556Z 25009KT 10SM FEW009 BKN018 13/08 A3014 RMK AO2 SLP205 T01280078
2026-04-07 14:56:00,METAR KSFO 071456Z 27011G17KT 10SM FEW009 BKN017 12/08 A3013 RMK AO2 SLP202 T01220078 53007
2026-04-07 13:56:00,METAR KSFO 071356Z 30006KT 10SM FEW009 BKN017 12/08 A3012 RMK AO2 SLP198 T01170078
2026-04-07 12:56:00,METAR KSFO 071256Z 26009KT 10SM FEW009 OVC017 12/08 A3011 RMK AO2 SLP196 T01220078
2026-04-07 11:56:00,METAR KSFO 071156Z 29013KT 10SM FEW009 OVC017 12/08 A3011 RMK AO2 SLP195 T01220078 10128 20117 53001
2026-04-07 10:56:00,METAR KSFO 071056Z 25008KT 10SM FEW008 BKN017 12/08 A3011 RMK AO2 SLP195 T01220078
2026-04-07 09:56:00,METAR KSFO 070956Z 28009KT 10SM FEW009 BKN017 12/08 A3010 RMK AO2 SLP194 T01220078
2026-04-07 08:56:00,METAR KSFO 070856Z 28012KT 10SM FEW009 BKN017 12/08 A3011 RMK AO2 SLP195 T01220078 57002
2026-04-07 07:56:00,METAR KSFO 070756Z 27007KT 10SM FEW009 OVC017 12/08 A3011 RMK AO2 SLP196 T01220083 401670106
2026-04-07 06:56:00,METAR KSFO 070656Z 26011KT 10SM FEW008 BKN017 12/08 A3011 RMK AO2 SLP195 T01220083
2026-04-07 05:56:00,METAR KSFO 070556Z 29011KT 10SM FEW008 BKN017 13/08 A3011 RMK AO2 SLP197 T01280083 10156 20122 50011
2026-04-07 04:56:00,METAR KSFO 070456Z 28012KT 10SM FEW008 BKN017 13/08 A3012 RMK AO2 SLP198 T01280083
2026-04-07 03:56:00,METAR KSFO 070356Z 26011KT 10SM FEW008 BKN017 13/08 A3010 RMK AO2 SLP193 T01280083
2026-04-07 03:14:00,SPECI KSFO 070314Z 28015G20KT 10SM FEW009 BKN017 13/08 A3009 RMK AO2 T01280083
2026-04-07 02:56:00,METAR KSFO 070256Z 27015G23KT 10SM FEW009 SCT017 13/08 A3008 RMK AO2 SLP186 T01280083 53003
2026-04-07 01:56:00,METAR KSFO 070156Z 28009G20KT 10SM FEW009 13/08 A3007 RMK AO2 SLP182 T01330083
2026-04-07 00:56:00,METAR KSFO 070056Z 28015G23KT 10SM FEW009 14/08 A3007 RMK AO2 SLP181 T01440083
2026-04-06 23:56:00,METAR KSFO 062356Z 26015G24KT 10SM FEW009 16/09 A3007 RMK AO2 PK WND 26026/2326 SLP182 T01560089 10167 20144 56008
2026-04-06 22:56:00,METAR KSFO 062256Z 28016KT 10SM FEW008 16/09 A3008 RMK AO2 SLP185 T01610089
2026-04-06 21:56:00,METAR KSFO 062156Z 29018KT 10SM FEW008 17/09 A3009 RMK AO2 SLP187 T01670089
2026-04-06 20:56:00,METAR KSFO 062056Z 29017KT 10SM FEW006 16/09 A3010 RMK AO2 SLP191 T01610094 58003
2026-04-06 19:56:00,METAR KSFO 061956Z 30016KT 10SM FEW006 17/09 A3010 RMK AO2 SLP191 T01670094
2026-04-06 18:56:00,METAR KSFO 061856Z 30016KT 10SM FEW006 16/10 A3010 RMK AO2 SLP193 T01560100
2026-04-06 17:56:00,METAR KSFO 061756Z 30014KT 10SM FEW006 SCT013 14/09 A3010 RMK AO2 SLP193 T01440094 10150 20106 51009
2026-04-06 16:56:00,METAR KSFO 061656Z 30012KT 10SM FEW006 SCT013 14/09 A3010 RMK AO2 SLP191 T01390094
2026-04-06 15:56:00,METAR KSFO 061556Z 30010KT 10SM FEW006 SCT013 13/09 A3009 RMK AO2 SLP189 T01330094
2026-04-06 15:41:00,SPECI KSFO 061541Z 29009KT 10SM FEW006 SCT012 13/09 A3009 RMK AO2 T01280094
2026-04-06 14:56:00,METAR KSFO 061456Z 28008KT 10SM FEW006 BKN011 12/09 A3007 RMK AO2 SLP184 T01170094 53015
2026-04-06 14:45:00,SPECI KSFO 061445Z 29009KT 10SM FEW006 BKN011 12/09 A3007 RMK AO2 T01170089
2026-04-06 14:22:00,SPECI KSFO 061422Z 29011KT 10SM BKN009 11/09 A3007 RMK AO2 T01110089
2026-04-06 13:56:00,METAR KSFO 061356Z 29014KT 10SM FEW006 SCT200 11/09 A3006 RMK AO2 SLP178 T01110094
2026-04-06 12:56:00,METAR KSFO 061256Z 29013KT 10SM FEW007 SCT200 11/09 A3004 RMK AO2 SLP174 T01060089
2026-04-06 11:56:00,METAR KSFO 061156Z 29013KT 10SM SCT007 SCT200 11/09 A3003 RMK AO2 SLP169 T01110094 10133 20111 53004
2026-04-06 10:56:00,METAR KSFO 061056Z 30014KT 10SM FEW006 SCT180 11/09 A3003 RMK AO2 SLP168 T01110094
2026-04-06 09:56:00,METAR KSFO 060956Z 31013KT 10SM FEW006 SCT180 11/09 A3002 RMK AO2 SLP165 T01110089
2026-04-06 08:56:00,METAR KSFO 060856Z 30014KT 10SM FEW006 FEW180 12/09 A3002 RMK AO2 SLP165 T01170094 51006
2026-04-06 07:56:00,METAR KSFO 060756Z 30014KT 10SM FEW006 FEW180 12/09 A3002 RMK AO2 SLP164 T01170094 402720117
2026-04-06 06:56:00,METAR KSFO 060656Z 30008KT 10SM FEW005 FEW180 13/08 A3001 RMK AO2 SLP161 T01280083
2026-04-06 05:56:00,METAR KSFO 060556Z 31011KT 10SM FEW006 SCT180 13/09 A3000 RMK AO2 SLP159 T01330094 10250 20133 51009
2026-04-06 04:56:00,METAR KSFO 060456Z 30011KT 10SM BKN200 16/07 A3000 RMK AO2 SLP157 T01560072
2026-04-06 03:56:00,METAR KSFO 060356Z 29016KT 10SM SCT200 16/10 A2999 RMK AO2 SLP154 T01560100
2026-04-06 02:56:00,METAR KSFO 060256Z 30014KT 10SM SCT200 16/10 A2997 RMK AO2 SLP149 T01610100 53002
2026-04-06 01:56:00,METAR KSFO 060156Z 30013KT 10SM SCT200 18/09 A2997 RMK AO2 SLP148 T01830094
2026-04-06 00:56:00,METAR KSFO 060056Z 30014KT 10SM SCT200 22/09 A2996 RMK AO2 SLP146 T02170089
2026-04-05 23:56:00,METAR KSFO 052356Z 30013KT 10SM SCT200 24/07 A2997 RMK AO2 SLP147 T02440072 10272 20189 56008
2026-04-05 22:56:00,METAR KSFO 052256Z 31012KT 10SM SCT200 25/09 A2998 RMK AO2 WSHFT 2153 SLP150 T02500089
2026-04-05 21:56:00,METAR KSFO 052156Z 30012KT 10SM SCT200 27/08 A2998 RMK AO2 SLP152 T02670083
2026-04-05 20:56:00,METAR KSFO 052056Z 03005KT 10SM FEW200 21/12 A2999 RMK AO2 SLP156 T02110122 58014
2026-04-05 19:56:00,METAR KSFO 051956Z 02005KT 10SM FEW200 20/11 A3001 RMK AO2 SLP160 T02000111
2026-04-05 18:56:00,METAR KSFO 051856Z 03005KT 10SM FEW200 19/12 A3002 RMK AO2 SLP166 T01940117
2026-04-05 17:56:00,METAR KSFO 051756Z 03007KT 10SM FEW200 19/12 A3003 RMK AO2 SLP170 T01890117 10189 20128 50002
2026-04-05 16:56:00,METAR KSFO 051656Z 01004KT 10SM BKN200 17/13 A3003 RMK AO2 SLP170 T01720128
2026-04-05 15:56:00,METAR KSFO 051556Z 02005KT 10SM BKN200 17/13 A3003 RMK AO2 SLP170 T01670128
2026-04-05 14:56:00,METAR KSFO 051456Z 35003KT 10SM SCT200 16/12 A3003 RMK AO2 SLP168 T01610122 53004
2026-04-05 12:56:00,METAR KSFO 051256Z 00000KT 10SM FEW200 14/07 A3001 RMK AO2 SLP163 T01440067
2026-04-05 11:56:00,METAR KSFO 051156Z 00000KT 10SM SCT200 14/06 A3002 RMK AO2 SLP164 T01440056 10189 20139 56010
2026-04-05 10:56:00,METAR KSFO 051056Z 00000KT 10SM FEW200 15/06 A3002 RMK AO2 SLP166 T01500061
2026-04-05 09:56:00,METAR KSFO 050956Z 00000KT 10SM FEW200 15/04 A3003 RMK AO2 SLP169 T01500044
2026-04-05 08:56:00,METAR KSFO 050856Z 17004KT 10SM FEW200 16/07 A3005 RMK AO2 SLP174 T01560067 58002
2026-04-05 07:56:00,METAR KSFO 050756Z 34005KT 10SM SCT200 17/05 A3005 RMK AO2 SLP177 T01670050 402670106
2026-04-05 06:56:00,METAR KSFO 050656Z 00000KT 10SM SCT200 17/07 A3005 RMK AO2 SLP177 T01720067
2026-04-05 05:56:00,METAR KSFO 050556Z 29004KT 10SM SCT200 19/06 A3005 RMK AO2 SLP176 T01890061 10267 20183 50011
2026-04-05 04:56:00,METAR KSFO 050456Z 31008KT 10SM SCT200 19/07 A3005 RMK AO2 SLP176 T01940067
2026-04-05 03:56:00,METAR KSFO 050356Z 29006KT 10SM SCT200 20/06 A3004 RMK AO2 SLP171 T02000061
2026-04-05 02:56:00,METAR KSFO 050256Z 29011KT 10SM FEW180 BKN200 22/04 A3002 RMK AO2 SLP165 T02220044 53003
2026-04-05 01:56:00,METAR KSFO 050156Z 29010KT 10SM SCT180 BKN200 25/05 A3002 RMK AO2 SLP164 T02500050
2026-04-05 00:56:00,METAR KSFO 050056Z 28009KT 10SM FEW180 BKN200 27/06 A3001 RMK AO2 SLP162 T02670056
2026-04-04 23:56:00,METAR KSFO 042356Z 01004KT 10SM FEW180 BKN200 24/08 A3001 RMK AO2 SLP162 T02390083 10250 20172 56018
2026-04-04 22:56:00,METAR KSFO 042256Z 01004KT 10SM FEW180 BKN200 24/11 A3002 RMK AO2 SLP167 T02440106
2026-04-04 21:56:00,METAR KSFO 042156Z 03003KT 10SM BKN200 23/08 A3004 RMK AO2 SLP174 T02280083
2026-04-04 20:56:00,METAR KSFO 042056Z 00000KT 10SM BKN200 22/07 A3006 RMK AO2 SLP180 T02220072 58016
2026-04-04 19:56:00,METAR KSFO 041956Z 04003KT 10SM BKN200 19/11 A3008 RMK AO2 SLP187 T01940106
2026-04-04 18:56:00,METAR KSFO 041856Z 05003KT 10SM SCT200 18/11 A3010 RMK AO2 SLP193 T01830106
2026-04-04 17:56:00,METAR KSFO 041756Z 00000KT 10SM SCT200 17/10 A3011 RMK AO2 SLP196 T01720100 10172 20106 50002
2026-04-04 16:56:00,METAR KSFO 041656Z 00000KT 10SM BKN200 17/09 A3011 RMK AO2 SLP196 T01670094
2026-04-04 15:56:00,METAR KSFO 041556Z 03003KT 10SM BKN200 16/09 A3011 RMK AO2 SLP197 T01560094
2026-04-04 14:56:00,METAR KSFO 041456Z 00000KT 10SM BKN200 13/07 A3010 RMK AO2 SLP193 T01280072 53006
2026-04-04 13:56:00,METAR KSFO 041356Z 22004KT 10SM BKN200 12/06 A3009 RMK AO2 SLP190 T01170061
2026-04-04 12:56:00,METAR KSFO 041256Z 00000KT 10SM BKN200 12/06 A3008 RMK AO2 SLP186 T01220061
2026-04-04 11:56:00,METAR KSFO 041156Z 23003KT 10SM BKN200 11/06 A3008 RMK AO2 SLP187 T01110056 10172 20111 58007
2026-04-04 10:56:00,METAR KSFO 041056Z 21003KT 10SM SCT200 12/04 A3009 RMK AO2 SLP190 T01220044
2026-04-04 09:56:00,METAR KSFO 040956Z 00000KT 10SM FEW200 13/06 A3010 RMK AO2 SLP192 T01280061
2026-04-04 08:56:00,METAR KSFO 040856Z 21003KT 10SM FEW200 13/06 A3011 RMK AO2 SLP194 T01330056 56003
2026-04-04 07:56:00,METAR KSFO 040756Z 20003KT 10SM FEW200 15/05 A3011 RMK AO2 SLP195 T01500050 402330078
2026-04-04 06:56:00,METAR KSFO 040656Z 00000KT 10SM FEW200 17/02 A3011 RMK AO2 SLP194 T01670022
2026-04-04 05:56:00,METAR KSFO 040556Z 00000KT 10SM FEW200 16/02 A3011 RMK AO2 SLP197 T01560017 10206 20150 50013
2026-04-04 04:56:00,METAR KSFO 040456Z 29011KT 10SM CLR 17/M02 A3011 RMK AO2 SLP197 T01671022
2026-04-04 03:56:00,METAR KSFO 040356Z 29013KT 10SM CLR 16/00 A3009 RMK AO2 SLP190 T01610000
2026-04-04 02:56:00,METAR KSFO 040256Z 28016KT 10SM FEW200 17/M02 A3008 RMK AO2 SLP184 T01721022 53004
2026-04-04 01:56:00,METAR KSFO 040156Z 29017KT 10SM FEW200 18/M01 A3007 RMK AO2 SLP182 T01781011
2026-04-04 00:56:00,METAR KSFO 040056Z 29016KT 10SM FEW200 19/01 A3006 RMK AO2 SLP180 T01890006
2026-04-03 23:56:00,METAR KSFO 032356Z 28015KT 10SM FEW200 21/03 A3006 RMK AO2 SLP180 T02060033 10233 20156 56012
2026-04-03 22:56:00,METAR KSFO 032256Z 05003KT 10SM FEW200 22/01 A3007 RMK AO2 SLP181 T02220006
2026-04-03 21:56:00,METAR KSFO 032156Z 04003KT 10SM FEW200 21/01 A3008 RMK AO2 SLP187 T02110006
2026-04-03 20:56:00,METAR KSFO 032056Z 03003KT 10SM CLR 21/01 A3010 RMK AO2 SLP191 T02060006 58013
2026-04-03 19:56:00,METAR KSFO 031956Z 00000KT 10SM CLR 19/00 A3012 RMK AO2 SLP199 T01940000
2026-04-03 18:56:00,METAR KSFO 031856Z 00000KT 10SM CLR 18/00 A3013 RMK AO2 SLP203 T01780000
2026-04-03 17:56:00,METAR KSFO 031756Z 06003KT 10SM CLR 16/06 A3013 RMK AO2 SLP204 T01560061 10156 20078 50004
2026-04-03 16:56:00,METAR KSFO 031656Z 00000KT 10SM CLR 14/07 A3014 RMK AO2 SLP205 T01440072
2026-04-03 15:56:00,METAR KSFO 031556Z 11003KT 10SM CLR 14/07 A3013 RMK AO2 SLP204 T01440072
2026-04-03 14:56:00,METAR KSFO 031456Z 00000KT 10SM CLR 11/05 A3012 RMK AO2 SLP200 T01060050 53006
2026-04-03 13:56:00,METAR KSFO 031356Z 28003KT 10SM CLR 09/04 A3011 RMK AO2 SLP196 T00890039
2026-04-03 12:56:00,METAR KSFO 031256Z 24004KT 10SM CLR 08/04 A3011 RMK AO2 SLP195 T00830044 $
2026-04-03 11:56:00,METAR KSFO 031156Z 25005KT 10SM CLR 09/05 A3010 RMK AO2 SLP194 T00890050 10111 20083 56006 $
2026-04-03 08:56:00,METAR KSFO 030856Z 28006KT 10SM CLR 11/08 A3012 RMK AO2 SLP199 T01060078 58000
2026-04-03 05:56:00,METAR KSFO 030556Z 29007KT 10SM CLR 11/07 A3012 RMK AO2 SLP200 T01110067 10156 20111 50009
2026-04-03 04:56:00,METAR KSFO 030456Z 29010KT 10SM CLR 12/07 A3012 RMK AO2 SLP200 T01170067
2026-04-03 03:56:00,METAR KSFO 030356Z 28014KT 10SM CLR 12/07 A3011 RMK AO2 SLP195 T01220067
2026-04-03 02:56:00,METAR KSFO 030256Z 29016KT 10SM FEW017 13/07 A3010 RMK AO2 PK WND 30028/0237 SLP191 T01280067 53004
2026-04-03 01:56:00,METAR KSFO 030156Z 28021KT 10SM FEW023 14/06 A3009 RMK AO2 PK WND 28031/0129 SLP188 T01390061
2026-04-03 00:56:00,METAR KSFO 030056Z 29022G27KT 10SM FEW023 15/06 A3008 RMK AO2 PK WND 29028/0055 SLP186 T01500056
2026-04-02 23:56:00,METAR KSFO 022356Z 30020G25KT 10SM FEW030 16/06 A3008 RMK AO2 PK WND 28026/2340 SLP187 T01610056 10172 20139 56013
2026-04-02 22:56:00,METAR KSFO 022256Z 28018KT 10SM FEW030 17/06 A3009 RMK AO2 SLP189 T01670056
2026-04-02 21:56:00,METAR KSFO 022156Z 28018G23KT 10SM FEW035 17/06 A3011 RMK AO2 SLP194 T01670056
2026-04-02 20:56:00,METAR KSFO 022056Z 29014KT 10SM FEW040 17/06 A3012 RMK AO2 SLP200 T01670056 56006
2026-04-02 19:56:00,METAR KSFO 021956Z 34009G15KT 10SM SCT038 16/07 A3012 RMK AO2 SLP201 T01560067
2026-04-02 18:56:00,METAR KSFO 021856Z 01010KT 10SM SCT039 15/07 A3013 RMK AO2 SLP202 T01500067
2026-04-02 17:56:00,METAR KSFO 021756Z 07004KT 10SM FEW034 14/06 A3014 RMK AO2 SLP206 T01390061 10139 20089 53009
2026-04-02 16:56:00,METAR KSFO 021656Z 31006KT 10SM FEW030 13/06 A3013 RMK AO2 SLP203 T01330056
2026-04-02 15:56:00,METAR KSFO 021556Z COR 30006KT 10SM FEW030 13/07 A3011 RMK AO2 SLP197 T01280072
2026-04-02 14:56:00,METAR KSFO 021456Z 31008KT 10SM FEW200 11/06 A3011 RMK AO2 SLP197 T01110061 53020
2026-04-02 13:56:00,METAR KSFO 021356Z 28007KT 10SM FEW200 09/07 A3009 RMK AO2 SLP190 T00890067
2026-04-02 12:56:00,METAR KSFO 021256Z 28006KT 10SM FEW007 SCT050 09/07 A3007 RMK AO2 SLP182 T00940067
2026-04-02 11:56:00,METAR KSFO 021156Z 29010KT 10SM FEW008 SCT060 10/07 A3005 RMK AO2 SLP176 60004 70007 T01000072 10139 20100 53010
2026-04-02 10:56:00,METAR KSFO 021056Z 29010KT 10SM FEW008 SCT035 BKN060 11/08 A3003 RMK AO2 RAE0957 SLP170 P0000 T01110083
2026-04-02 10:14:00,SPECI KSFO 021014Z 30009KT 10SM FEW008 SCT028 BKN050 12/09 A3003 RMK AO2 RAE0957 P0000 T01170089
2026-04-02 09:56:00,METAR KSFO 020956Z 28010KT 10SM -RA FEW008 BKN028 OVC035 11/09 A3003 RMK AO2 RAB15 SLP169 P0000 T01110089
2026-04-02 08:56:00,METAR KSFO 020856Z 27013KT 10SM FEW008 BKN028 OVC070 12/10 A3002 RMK AO2 RAE51 SLP166 P0001 60004 T01170100 52013
2026-04-02 07:56:00,METAR KSFO 020756Z 29015KT 7SM -RA FEW009 OVC023 12/11 A3002 RMK AO2 RAB0659 SLP164 P0002 T01170106 401670117
2026-04-02 07:23:00,SPECI KSFO 020723Z 25010KT 10SM -RA FEW009 SCT022 OVC027 13/12 A3000 RMK AO2 RAB0659 P0000 T01330122
2026-04-02 06:56:00,METAR KSFO 020656Z 25012KT 10SM FEW009 SCT026 OVC037 14/12 A2999 RMK AO2 RAB03E53 SLP156 P0001 T01390122
2026-04-02 05:56:00,METAR KSFO 020556Z 23008KT 10SM FEW009 SCT030 OVC050 14/11 A2998 RMK AO2 RAB17E48 SLP153 P0000 60000 T01390111 10161 20133 51014
2026-04-02 04:56:00,METAR KSFO 020456Z 22010KT 10SM FEW009 SCT023 OVC070 14/12 A2998 RMK AO2 RAE0357 SLP151 P0000 T01390117
2026-04-02 03:56:00,METAR KSFO 020356Z 21009KT 10SM -RA FEW011 SCT047 OVC070 14/11 A2996 RMK AO2 RAB48 SLP144 P0000 T01440111
2026-04-02 02:56:00,METAR KSFO 020256Z 19009KT 10SM FEW015 FEW020 BKN070 14/10 A2995 RMK AO2 SLP140 60000 T01440100 50000
2026-04-02 01:56:00,METAR KSFO 020156Z 23007KT 10SM FEW015 SCT020 OVC085 14/10 A2995 RMK AO2 RAB26E38 SLP141 P0000 T01440100
2026-04-02 00:56:00,METAR KSFO 020056Z 24009KT 200V270 10SM FEW008 SCT024 OVC090 14/09 A2995 RMK AO2 SLP140 T01440094
2026-04-01 23:56:00,METAR KSFO 012356Z 24015G23KT 10SM FEW008 SCT021 BKN100 16/10 A2994 RMK AO2 SLP140 60003 T01610100 10167 20139 55009
2026-04-01 22:56:00,METAR KSFO 012256Z 25012G22KT 10SM FEW006 SCT016 BKN100 16/12 A2993 RMK AO2 SLP136 T01560117
2026-04-01 22:15:00,SPECI KSFO 012215Z 25010KT 10SM FEW006 SCT029 OVC110 16/12 A2995 RMK AO2 T01560122
2026-04-01 21:56:00,METAR KSFO 012156Z 26009KT 10SM FEW005 BKN025 OVC036 14/12 A2996 RMK AO2 RAE46 SLP145 P0003 T01440122
2026-04-01 20:56:00,METAR KSFO 012056Z 28013KT 9SM -RA FEW005 BKN017 OVC023 15/13 A2997 RMK AO2 RAB55 SLP149 P0000 60000 T01500128 53007
2026-04-01 19:56:00,METAR KSFO 011956Z 24014KT 10SM FEW005 BKN027 BKN032 16/12 A2996 RMK AO2 RAE07 SLP145 P0000 T01610117
2026-04-01 19:18:00,SPECI KSFO 011918Z 23012KT 10SM FEW005 SCT019 BKN026 16/12 A2996 RMK AO2 RAE07 P0000 T01560117
2026-04-01 18:56:00,METAR KSFO 011856Z 23010KT 10SM -RA FEW005 BKN030 OVC048 15/13 A2996 RMK AO2 RAB21E30B56 SLP144 P0000 T01500128
2026-04-01 17:56:00,METAR KSFO 011756Z 20009KT 10SM FEW006 SCT026 BKN040 16/11 A2995 RMK AO2 SLP141 60000 T01560111 10167 20144 51013
2026-04-01 17:30:00,SPECI KSFO 011730Z 19012KT 10SM FEW009 SCT026 BKN040 16/10 A2994 RMK AO2 T01610100
2026-04-01 16:56:00,METAR KSFO 011656Z 22007KT 10SM FEW009 BKN023 BKN065 16/11 A2994 RMK AO2 SLP139 T01560111
2026-04-01 15:56:00,METAR KSFO 011556Z 19009KT 10SM FEW009 BKN024 BKN035 15/11 A2993 RMK AO2 SLP134 T01500111
2026-04-01 14:56:00,METAR KSFO 011456Z 17003KT 10SM FEW009 BKN023 BKN060 14/11 A2991 RMK AO2 SLP128 60000 T01440111 53007
2026-04-01 13:56:00,METAR KSFO 011356Z 22004KT 10SM FEW009 BKN023 BKN060 14/12 A2991 RMK AO2 SLP126 T01440117
2026-04-01 13:33:00,SPECI KSFO 011333Z 21006KT 10SM FEW006 SCT022 BKN080 14/12 A2990 RMK AO2 T01440117
2026-04-01 13:17:00,SPECI KSFO 011317Z 22006KT 10SM FEW006 BKN021 BKN065 14/11 A2989 RMK AO2 T01440111
2026-04-01 12:56:00,METAR KSFO 011256Z 22004KT 10SM FEW006 SCT022 BKN037 14/12 A2989 RMK AO2 RAE02 SLP122 P0000 T01440117
2026-04-01 12:50:00,SPECI KSFO 011250Z 22006KT 10SM FEW006 SCT022 BKN037 14/12 A2989 RMK AO2 RAE02 P0000
2026-04-01 11:56:00,METAR KSFO 011156Z 22005KT 10SM -RA FEW006 BKN016 OVC025 14/12 A2989 RMK AO2 SLP121 P0001 60002 70005 T01440122 10161 20144 56005
2026-04-01 11:13:00,SPECI KSFO 011113Z 23003KT 10SM -RA FEW008 BKN016 OVC042 14/13 A2989 RMK AO2 P0001 T01440128
2026-04-01 10:56:00,METAR KSFO 011056Z 19004KT 10SM -RA FEW008 SCT020 OVC047 15/13 A2989 RMK AO2 RAB02E21B56 SLP121 P0001 T01500128
2026-04-01 10:27:00,SPECI KSFO 011027Z 21005KT 10SM FEW008 BKN021 BKN047 15/13 A2989 RMK AO2 RAB02E21 P0001 T01500128
2026-04-01 09:56:00,METAR KSFO 010956Z 18010KT 10SM FEW008 SCT022 BKN042 16/12 A2989 RMK AO2 SLP120 T01560122
2026-04-01 09:40:00,SPECI KSFO 010940Z 18012KT 10SM FEW008 SCT022 BKN036 16/12 A2989 RMK AO2 T01560122
2026-04-01 09:22:00,SPECI KSFO 010922Z 20010KT 10SM FEW008 SCT019 BKN025 16/12 A2990 RMK AO2 T01560117
2026-04-01 08:56:00,METAR KSFO 010856Z 21009KT 10SM FEW008 SCT028 BKN034 16/12 A2990 RMK AO2 SLP126 T01560117 50005
2026-04-01 08:49:00,SPECI KSFO 010849Z 20010KT 10SM FEW008 BKN028 BKN034 16/12 A2991 RMK AO2 T01560117
2026-04-01 07:56:00,METAR KSFO 010756Z 21014KT 10SM FEW016 SCT046 BKN065 16/12 A2991 RMK AO2 SLP126 T01560117 401940150
2026-04-01 06:56:00,METAR KSFO 010656Z 21007KT 10SM FEW018 BKN070 16/12 A2991 RMK AO2 SLP127 T01560117
2026-04-01 05:56:00,METAR KSFO 010556Z 18007KT 10SM FEW018 BKN080 16/12 A2989 RMK AO2 SLP121 60000 T01610117 10161 20156 50003
2026-04-01 04:56:00,METAR KSFO 010456Z 00000KT 10SM FEW047 BKN080 16/12 A2990 RMK AO2 SLP125 T01610117
2026-04-01 03:56:00,METAR KSFO 010356Z 18007KT 10SM FEW047 SCT070 BKN080 16/12 A2989 RMK AO2 SLP120 T01560122
2026-04-01 02:56:00,METAR KSFO 010256Z 18007KT 10SM FEW019 SCT040 BKN070 16/12 A2988 RMK AO2 SLP118 60000 T01560117 56003
2026-04-01 01:56:00,METAR KSFO 010156Z 21007KT 10SM FEW019 SCT035 BKN075 16/12 A2989 RMK AO2 RAE0059B35E52 SLP120 P0000 T01610117
2026-04-01 01:16:00,SPECI KSFO 010116Z 21009KT 10SM FEW019 SCT021 OVC070 16/12 A2988 RMK AO2 RAE0059 P0000 T01560117
2026-04-01 00:56:00,METAR KSFO 010056Z 21009KT 10SM -RA FEW019 BKN021 OVC070 16/12 A2988 RMK AO2 RAB46 SLP118 P0000 T01560122
2026-03-31 23:56:00,METAR KSFO 312356Z 18010KT 10SM FEW019 BKN021 OVC050 16/12 A2989 RMK AO2 PK WND 18026/2320 SLP122 T01610122 10194 20161 55002
2026-03-31 23:39:00,SPECI KSFO 312339Z 19010G21KT 10SM FEW019 BKN026 OVC050 16/12 A2989 RMK AO2 PK WND 18026/2320 T01610122
2026-03-31 22:56:00,METAR KSFO 312256Z 20010G19KT 10SM FEW035 SCT046 BKN070 17/12 A2988 RMK AO2 SLP119 T01670117
2026-03-31 21:56:00,METAR KSFO 312156Z 22016G21KT 10SM FEW047 SCT055 BKN085 18/11 A2990 RMK AO2 SLP123 T01830106
2026-03-31 20:56:00,METAR KSFO 312056Z 21013KT 10SM FEW034 BKN090 19/11 A2990 RMK AO2 PK WND 22027/2019 SLP123 T01890111 58000
2026-03-31 19:56:00,METAR KSFO 311956Z 24015G21KT 10SM SCT034 BKN100 19/12 A2992 RMK AO2 SLP131 T01940117
2026-03-31 18:56:00,METAR KSFO 311856Z 08003KT 10SM SCT100 BKN120 17/13 A2989 RMK AO2 SLP121 T01720128
2026-03-31 17:56:00,METAR KSFO 311756Z 08004KT 10SM SCT090 BKN110 17/13 A2990 RMK AO2 SLP124 60003 T01670128 10172 20150 53000
2026-03-31 16:56:00,METAR KSFO 311656Z 22004KT 10SM SCT090 OVC160 16/12 A2988 RMK AO2 SLP120 T01610122
2026-03-31 15:56:00,METAR KSFO 311556Z 15008KT 10SM BKN090 OVC140 16/12 A2988 RMK AO2 RAE1458 SLP118 P0000 T01560122
2026-03-31 14:56:00,METAR KSFO 311456Z VRB06KT 10SM -RA BKN090 OVC140 16/13 A2990 RMK AO2 RAE15B44 SLP123 P0001 60003 T01560133 51006 $
2026-03-31 13:56:00,METAR KSFO 311356Z 18015G24KT 10SM -RA BKN085 15/13 A2987 RMK AO2 WSHFT 1244 RAB15 SLP113 P0002 T01500128 $
2026-03-31 13:04:00,SPECI KSFO 311304Z 22011G23KT 10SM FEW015 SCT060 BKN100 16/11 A2990 RMK AO2 WSHFT 1244 T01610106 $
2026-03-31 12:56:00,METAR KSFO 311256Z 26016G25KT 10SM FEW015 SCT038 BKN100 16/11 A2992 RMK AO2 SLP131 T01610106 $
2026-03-31 11:56:00,METAR KSFO 311156Z 18009KT 10SM FEW022 BKN120 16/11 A2988 RMK AO2 SLP117 T01610106 10172 20156 58013 $
2026-03-31 10:56:00,METAR KSFO 311056Z 23011KT 10SM FEW014 BKN110 BKN140 16/11 A2990 RMK AO2 SLP123 T01610111 $
2026-03-31 09:56:00,METAR KSFO 310956Z 21011KT 10SM FEW012 BKN140 16/11 A2990 RMK AO2 SLP124 T01610111 $
2026-03-31 08:56:00,METAR KSFO 310856Z 21014KT 10SM FEW012 SCT110 BKN140 17/11 A2992 RMK AO2 PK WND 20029/0823 SLP130 T01670106 51009 $
2026-03-31 07:56:00,METAR KSFO 310756Z VRB06KT 10SM FEW014 SCT120 BKN140 16/11 A2991 RMK AO2 SLP128 T01610111 402280150 $
2026-03-31 06:56:00,METAR KSFO 310656Z 24010KT 10SM FEW015 BKN140 BKN180 16/11 A2991 RMK AO2 WSHFT 0623 SLP127 T01610111 $
2026-03-31 06:43:00,SPECI KSFO 310643Z 21009G19KT 10SM FEW140 BKN160 BKN200 16/11 A2991 RMK AO2 WSHFT 0623 T01610111 $
2026-03-31 05:56:00,METAR KSFO 310556Z 34005KT 10SM FEW140 BKN160 OVC200 17/12 A2989 RMK AO2 SLP121 T01670122 10228 20161 50005 $
2026-03-31 04:56:00,METAR KSFO 310456Z 00000KT 10SM FEW150 BKN170 OVC200 18/11 A2989 RMK AO2 SLP122 T01780106 $
2026-03-31 03:56:00,METAR KSFO 310356Z 16007KT 10SM FEW150 BKN170 OVC200 19/07 A2989 RMK AO2 SLP120 T01890072 $
2026-03-31 02:56:00,METAR KSFO 310256Z 04004KT 10SM FEW140 BKN160 OVC200 18/13 A2987 RMK AO2 SLP116 T01780128 58004 $
2026-03-31 01:56:00,METAR KSFO 310156Z VRB03KT 10SM FEW140 BKN170 OVC200 21/06 A2988 RMK AO2 SLP120 T02060061 $
2026-03-31 00:56:00,METAR KSFO 310056Z 02005KT 10SM FEW150 BKN170 OVC200 19/13 A2990 RMK AO2 SLP123 T01890133 $
2026-03-30 23:56:00,METAR KSFO 302356Z 20010KT 10SM FEW150 BKN180 OVC200 22/06 A2989 RMK AO2 SLP120 T02170061 10228 20178 58009 $
2026-03-30 22:56:00,METAR KSFO 302256Z 23009KT 10SM FEW150 BKN180 OVC200 22/07 A2990 RMK AO2 SLP125 T02170072 $
2026-03-30 21:56:00,METAR KSFO 302156Z 30012KT 10SM FEW150 SCT170 OVC200 21/11 A2991 RMK AO2 SLP128 T02110111 $
2026-03-30 20:56:00,METAR KSFO 302056Z 32011KT 10SM BKN200 OVC250 21/11 A2991 RMK AO2 SLP129 T02110111 58005 $
2026-03-30 19:56:00,METAR KSFO 301956Z 06003KT 10SM BKN200 OVC250 19/14 A2993 RMK AO2 SLP134 T01890139 $
2026-03-30 18:56:00,METAR KSFO 301856Z 02004KT 10SM BKN200 19/13 A2993 RMK AO2 SLP135 T01890128 $
2026-03-30 17:56:00,METAR KSFO 301756Z 07004KT 10SM BKN200 18/12 A2993 RMK AO2 SLP135 T01780122 10183 20150 51008 $
2026-03-30 16:56:00,METAR KSFO 301656Z 00000KT 10SM BKN200 18/13 A2993 RMK AO2 SLP134 T01780128
2026-03-30 15:56:00,METAR KSFO 301556Z 00000KT 10SM BKN200 17/11 A2992 RMK AO2 SLP131 T01720106
2026-03-30 14:56:00,METAR KSFO 301456Z 00000KT 10SM BKN200 16/07 A2990 RMK AO2 SLP126 T01610067 53008
2026-03-30 13:56:00,METAR KSFO 301356Z 00000KT 10SM BKN200 15/05 A2989 RMK AO2 SLP121 T01500050
2026-03-30 12:56:00,METAR KSFO 301256Z 27003KT 10SM BKN200 16/06 A2988 RMK AO2 SLP118 T01560056
2026-03-30 11:56:00,METAR KSFO 301156Z 26003KT 10SM BKN200 16/04 A2988 RMK AO2 SLP118 T01610044 10200 20161 57010
2026-03-30 10:56:00,METAR KSFO 301056Z 00000KT 10SM BKN200 16/05 A2989 RMK AO2 SLP120 T01610050
2026-03-30 09:56:00,METAR KSFO 300956Z 00000KT 10SM BKN200 17/06 A2990 RMK AO2 SLP126 T01720061
2026-03-30 08:56:00,METAR KSFO 300856Z 00000KT 10SM BKN200 17/11 A2991 RMK AO2 SLP128 T01720111 56003
2026-03-30 07:56:00,METAR KSFO 300756Z 04004KT 10SM BKN200 18/13 A2991 RMK AO2 SLP128 T01780128 402890128
2026-03-30 06:56:00,METAR KSFO 300656Z 00000KT 10SM BKN200 19/07 A2991 RMK AO2 SLP129 T01890072
2026-03-30 05:56:00,METAR KSFO 300556Z 30003KT 10SM BKN200 19/06 A2992 RMK AO2 SLP132 T01940056 10261 20189 53005
2026-03-30 04:56:00,METAR KSFO 300456Z 32005KT 10SM SCT180 21/07 A2992 RMK AO2 SLP132 T02060067
2026-03-30 03:56:00,METAR KSFO 300356Z 28008KT 10SM FEW180 21/03 A2991 RMK AO2 SLP127 T02110033
2026-03-30 02:56:00,METAR KSFO 300256Z 28011KT 10SM FEW180 SCT200 21/06 A2991 RMK AO2 SLP127 T02060056 56001
2026-03-30 01:56:00,METAR KSFO 300156Z 29014KT 10SM FEW180 BKN200 24/06 A2991 RMK AO2 SLP127 T02390056
2026-03-30 00:56:00,METAR KSFO 300056Z 29014KT 10SM SCT180 BKN200 26/03 A2990 RMK AO2 SLP126 T02560028
2026-03-29 23:56:00,METAR KSFO 292356Z 31010KT 10SM BKN200 26/06 A2991 RMK AO2 SLP128 T02610056 10289 20178 56016
2026-03-29 22:56:00,METAR KSFO 292256Z 29013KT 10SM BKN200 28/06 A2992 RMK AO2 SLP132 T02780061
2026-03-29 21:56:00,METAR KSFO 292156Z 31010KT 10SM SCT200 28/09 A2994 RMK AO2 SLP139 T02830089
2026-03-29 20:56:00,METAR KSFO 292056Z 04004KT 10SM BKN200 23/09 A2996 RMK AO2 SLP144 T02330094 58013
2026-03-29 19:56:00,METAR KSFO 291956Z 00000KT 10SM BKN200 23/11 A2998 RMK AO2 SLP150 T02330111
2026-03-29 18:56:00,METAR KSFO 291856Z 00000KT 10SM BKN200 19/14 A2999 RMK AO2 SLP156 T01890144
2026-03-29 17:56:00,METAR KSFO 291756Z 06004KT 10SM SCT200 18/14 A3000 RMK AO2 SLP157 T01780144 10183 20128 51007
2026-03-29 16:56:00,METAR KSFO 291656Z 06003KT 10SM FEW200 17/13 A2999 RMK AO2 SLP155 T01720133
2026-03-29 14:56:00,METAR KSFO 291456Z 00000KT 10SM FEW200 15/09 A2998 RMK AO2 SLP150 T01500089 53010
2026-03-29 13:56:00,METAR KSFO 291356Z 00000KT 10SM FEW200 14/08 A2996 RMK AO2 SLP145 T01440078
2026-03-29 12:56:00,METAR KSFO 291256Z 00000KT 10SM SCT200 13/07 A2995 RMK AO2 SLP140 T01330072
2026-03-29 11:56:00,METAR KSFO 291156Z 28003KT 10SM SCT200 14/07 A2995 RMK AO2 SLP141 T01390072 10161 20133 56008
2026-03-29 10:56:00,METAR KSFO 291056Z 00000KT 10SM SCT200 14/07 A2996 RMK AO2 SLP143 T01440072
2026-03-29 09:56:00,METAR KSFO 290956Z 00000KT 10SM BKN200 15/07 A2996 RMK AO2 SLP144 T01500067
2026-03-29 08:56:00,METAR KSFO 290856Z 00000KT 10SM SCT200 16/10 A2997 RMK AO2 SLP149 T01560100 55004
2026-03-29 07:56:00,METAR KSFO 290756Z 31003KT 10SM FEW200 16/11 A2997 RMK AO2 SLP149 T01560106 402280100
2026-03-29 06:56:00,METAR KSFO 290656Z 00000KT 10SM CLR 16/11 A2998 RMK AO2 SLP150 T01610106
2026-03-29 05:56:00,METAR KSFO 290556Z 00000KT 10SM CLR 15/09 A2998 RMK AO2 SLP153 T01500094 10211 20144 50008
2026-03-29 04:56:00,METAR KSFO 290456Z 28007KT 10SM FEW200 15/09 A2999 RMK AO2 SLP155 T01500094
2026-03-29 03:56:00,METAR KSFO 290356Z 31008KT 10SM FEW200 16/09 A2997 RMK AO2 SLP149 T01610094
2026-03-29 02:56:00,METAR KSFO 290256Z 30015KT 10SM SCT200 18/06 A2996 RMK AO2 SLP145 T01780061 55003
2026-03-29 01:56:00,METAR KSFO 290156Z 30013KT 10SM BKN200 20/03 A2996 RMK AO2 SLP143 T02000033
2026-03-29 00:56:00,METAR KSFO 290056Z 30012KT 10SM BKN200 21/06 A2996 RMK AO2 SLP145 T02110056
2026-03-28 23:56:00,METAR KSFO 282356Z 30011KT 10SM BKN200 21/08 A2997 RMK AO2 SLP148 T02110083 10228 20144 56015
2026-03-28 22:56:00,METAR KSFO 282256Z 30012KT 10SM BKN200 22/09 A2998 RMK AO2 WSHFT 2158 SLP153 T02220089
2026-03-28 22:18:00,SPECI KSFO 282218Z 31011KT 10SM FEW005 BKN200 21/09 A2999 RMK AO2 WSHFT 2158 T02110094
2026-03-28 21:56:00,METAR KSFO 282156Z 35007KT 10SM FEW005 BKN200 22/13 A2999 RMK AO2 SLP156 T02170133
2026-03-28 20:56:00,METAR KSFO 282056Z 07004KT 10SM BKN200 19/12 A3001 RMK AO2 SLP163 T01890117 58012
2026-03-28 19:56:00,METAR KSFO 281956Z 04004KT 10SM FEW008 SCT200 18/11 A3004 RMK AO2 SLP171 T01780106
2026-03-28 18:56:00,METAR KSFO 281856Z 32009KT 10SM FEW008 FEW200 16/09 A3005 RMK AO2 SLP174 T01610094
2026-03-28 17:56:00,METAR KSFO 281756Z 32012KT 10SM FEW008 16/09 A3005 RMK AO2 SLP175 T01560094 10156 20100 53011
2026-03-28 16:56:00,METAR KSFO 281656Z 30007KT 10SM FEW007 15/09 A3004 RMK AO2 SLP172 T01500089
2026-03-28 15:56:00,METAR KSFO 281556Z 30005KT 10SM FEW007 13/08 A3002 RMK AO2 SLP166 T01330083
2026-03-28 14:56:00,METAR KSFO 281456Z 29006KT 10SM FEW007 11/08 A3002 RMK AO2 SLP164 T01110083 53012
2026-03-28 13:56:00,METAR KSFO 281356Z 00000KT 10SM FEW006 10/08 A3000 RMK AO2 SLP158 T01000078
2026-03-28 12:56:00,METAR KSFO 281256Z 27006KT 10SM FEW004 11/08 A2999 RMK AO2 SLP154 T01060083
2026-03-28 11:56:00,METAR KSFO 281156Z 30010KT 10SM FEW004 11/09 A2998 RMK AO2 SLP151 T01110094 10139 20111 53005
2026-03-28 10:56:00,METAR KSFO 281056Z 30011KT 10SM FEW004 FEW200 11/09 A2997 RMK AO2 SLP149 T01110094
2026-03-28 09:56:00,METAR KSFO 280956Z 30011KT 10SM FEW004 FEW200 12/09 A2997 RMK AO2 SLP147 T01170089
2026-03-28 08:56:00,METAR KSFO 280856Z 29010KT 10SM FEW004 FEW200 12/08 A2996 RMK AO2 SLP146 T01220083 52001
2026-03-28 07:56:00,METAR KSFO 280756Z 30009KT 10SM BKN180 13/09 A2996 RMK AO2 SLP145 T01280089 402670122
2026-03-28 06:56:00,METAR KSFO 280656Z 30009KT 10SM BKN180 13/09 A2996 RMK AO2 SLP145 T01330089
2026-03-28 05:56:00,METAR KSFO 280556Z 29011KT 10SM BKN180 14/08 A2996 RMK AO2 SLP145 T01390083 10233 20139 53010
2026-03-28 04:56:00,METAR KSFO 280456Z 30007KT 10SM BKN180 17/05 A2995 RMK AO2 SLP140 T01670050
2026-03-28 03:56:00,METAR KSFO 280356Z 29013KT 10SM BKN180 18/04 A2994 RMK AO2 SLP138 T01780039
2026-03-28 02:56:00,METAR KSFO 280256Z 28015KT 10SM SCT180 BKN200 19/02 A2993 RMK AO2 PK WND 28026/0227 SLP135 T01940022 53002
2026-03-28 01:56:00,METAR KSFO 280156Z 28018KT 10SM SCT180 BKN200 20/03 A2993 RMK AO2 PK WND 28027/0119 SLP134 T02000028
2026-03-28 00:56:00,METAR KSFO 280056Z 28018KT 10SM FEW180 BKN200 22/03 A2992 RMK AO2 SLP132 T02220033
2026-03-27 23:56:00,METAR KSFO 272356Z 28018KT 10SM BKN200 23/05 A2992 RMK AO2 SLP132 T02280050 10267 20172 56014
2026-03-27 22:56:00,METAR KSFO 272256Z 05003KT 10SM FEW180 BKN200 25/07 A2993 RMK AO2 SLP133 T02500067
2026-03-27 21:56:00,METAR KSFO 272156Z 00000KT 10SM FEW180 BKN200 25/04 A2994 RMK AO2 SLP139 T02500044
2026-03-27 20:56:00,METAR KSFO 272056Z 08003KT 10SM BKN200 23/06 A2997 RMK AO2 SLP147 T02330061 56009
2026-03-27 19:56:00,METAR KSFO 271956Z 00000KT 10SM BKN200 21/13 A2997 RMK AO2 SLP150 T02110128
2026-03-27 18:56:00,METAR KSFO 271856Z 00000KT 10SM BKN200 18/13 A2998 RMK AO2 SLP153 T01780128
2026-03-27 17:56:00,METAR KSFO 271756Z 02004KT 10SM BKN200 17/13 A2999 RMK AO2 SLP156 T01720133 10172 20122 53004
2026-03-27 16:56:00,METAR KSFO 271656Z 02004KT 10SM BKN200 17/13 A2999 RMK AO2 SLP154 T01670128
2026-03-27 15:56:00,METAR KSFO 271556Z 00000KT 10SM BKN200 16/11 A2998 RMK AO2 SLP153 T01610111
2026-03-25 14:56:00,METAR KSFO 251456Z 29016KT 10SM FEW006 SCT200 12/09 A3008 RMK AO2 SLP185 T01220094 51010
2026-03-25 13:56:00,METAR KSFO 251356Z 29017KT 10SM FEW006 SCT200 12/09 A3008 RMK AO2 SLP184 T01170089
2026-03-25 13:47:00,SPECI KSFO 251347Z 28017KT 10SM FEW006 SCT200 12/08 A3007 RMK AO2 T01170078
2026-03-25 12:56:00,METAR KSFO 251256Z 28009KT 10SM SCT200 12/07 A3006 RMK AO2 SLP178 T01220072
2026-03-25 11:56:00,METAR KSFO 251156Z 29009KT 10SM SCT200 13/05 A3005 RMK AO2 SLP175 T01280050 10156 20128 55005
2026-03-25 10:56:00,METAR KSFO 251056Z 31009KT 10SM SCT200 14/02 A3005 RMK AO2 SLP174 T01390022
2026-03-25 09:56:00,METAR KSFO 250956Z 30010KT 10SM SCT200 14/01 A3005 RMK AO2 SLP176 T01440011
2026-03-25 08:56:00,METAR KSFO 250856Z 28011KT 10SM SCT200 14/M02 A3006 RMK AO2 SLP180 T01441017 53001
2026-03-25 07:56:00,METAR KSFO 250756Z 30011KT 10SM SCT200 15/M03 A3006 RMK AO2 SLP179 T01501028 402560117
2026-03-25 06:56:00,METAR KSFO 250656Z 30009KT 10SM SCT200 14/M02 A3006 RMK AO2 SLP178 T01441017
2026-03-25 05:56:00,METAR KSFO 250556Z 33006KT 10SM FEW200 15/02 A3006 RMK AO2 SLP179 T01500022 10228 20150 51014
2026-03-25 04:56:00,METAR KSFO 250456Z 29012KT 10SM FEW200 16/M04 A3005 RMK AO2 SLP177 T01611044
2026-03-25 03:56:00,METAR KSFO 250356Z 28015KT 10SM FEW200 17/M08 A3003 RMK AO2 SLP169 T01671083
2026-03-25 02:56:00,METAR KSFO 250256Z 28016KT 10SM FEW200 18/M08 A3002 RMK AO2 SLP165 T01831083 56005
2026-03-25 01:56:00,METAR KSFO 250156Z 27016KT 10SM SCT200 20/M06 A3002 RMK AO2 SLP166 T02001061
2026-03-25 00:56:00,METAR KSFO 250056Z 28016KT 10SM FEW200 21/M02 A3002 RMK AO2 PK WND 28026/0010 SLP165 T02111017
2026-03-24 23:56:00,METAR KSFO 242356Z 28018KT 10SM FEW200 23/M01 A3003 RMK AO2 PK WND 29028/2341 SLP170 T02281011 10256 20178 55011
2026-03-24 22:56:00,METAR KSFO 242256Z 30012KT 10SM FEW200 25/M03 A3003 RMK AO2 SLP169 T02501033
2026-03-24 21:56:00,METAR KSFO 242156Z 30013KT 10SM FEW200 24/M01 A3005 RMK AO2 SLP175 T02391006
2026-03-24 20:56:00,METAR KSFO 242056Z 29015KT 10SM FEW200 25/02 A3007 RMK AO2 WSHFT 2029 SLP181 T02500022 56007
2026-03-24 20:49:00,SPECI KSFO 242049Z 28016KT 10SM FEW200 25/03 A3006 RMK AO2 WSHFT 2029 T02500028
2026-03-24 19:56:00,METAR KSFO 241956Z 06003KT 10SM FEW200 20/13 A3007 RMK AO2 SLP181 T02000133
2026-03-24 18:56:00,METAR KSFO 241856Z 07005KT 10SM FEW200 19/13 A3008 RMK AO2 SLP186 T01890133
2026-03-24 17:56:00,METAR KSFO 241756Z 07004KT 10SM FEW200 18/13 A3009 RMK AO2 SLP188 T01780128 10178 20117 51008
2026-03-24 16:56:00,METAR KSFO 241656Z 03003KT 10SM FEW200 17/11 A3008 RMK AO2 SLP185 T01670106
2026-03-24 15:56:00,METAR KSFO 241556Z 00000KT 10SM FEW200 16/08 A3008 RMK AO2 SLP184 T01610083
2026-03-24 14:56:00,METAR KSFO 241456Z 29003KT 10SM FEW200 13/07 A3006 RMK AO2 SLP180 T01280072 53007 $
2026-03-24 13:56:00,METAR KSFO 241356Z COR 00000KT 10SM FEW200 13/07 A3005 RMK AO2 SLP176 T01280067 $
2026-03-24 12:56:00,METAR KSFO 241256Z 31003KT 10SM CLR 12/07 A3005 RMK AO2 SLP174 T01220067 $
2026-03-24 11:56:00,METAR KSFO 241156Z 27003KT 10SM CLR 12/06 A3004 RMK AO2 SLP173 T01220056 10150 20117 56006 $
2026-03-24 10:56:00,METAR KSFO 241056Z 25003KT 10SM CLR 13/06 A3004 RMK AO2 SLP174 T01330056 $
2026-03-24 09:56:00,METAR KSFO 240956Z 27004KT 10SM CLR 13/06 A3005 RMK AO2 SLP176 T01330056 $
2026-03-24 08:56:00,METAR KSFO 240856Z 00000KT 10SM CLR 14/06 A3006 RMK AO2 SLP179 T01390056 51001 $
2026-03-24 07:56:00,METAR KSFO 240756Z 30008KT 10SM CLR 14/05 A3006 RMK AO2 SLP179 T01440050 402440100 $
2026-03-24 06:56:00,METAR KSFO 240656Z 29008KT 10SM CLR 14/05 A3006 RMK AO2 SLP179 T01390050
2026-03-24 05:56:00,METAR KSFO 240556Z 28004KT 10SM FEW200 14/05 A3006 RMK AO2 SLP179 T01440050 10222 20144 51011
2026-03-24 04:56:00,METAR KSFO 240456Z 31006KT 10SM FEW200 15/05 A3006 RMK AO2 SLP178 T01500050
2026-03-24 03:56:00,METAR KSFO 240356Z 30008KT 10SM FEW200 17/03 A3004 RMK AO2 SLP173 T01670028
2026-03-24 02:56:00,METAR KSFO 240256Z 28016KT 10SM FEW200 19/02 A3003 RMK AO2 SLP168 T01890022 55002
2026-03-24 01:56:00,METAR KSFO 240156Z 28020G25KT 10SM FEW200 20/M01 A3002 RMK AO2 SLP166 T02001006
2026-03-24 00:56:00,METAR KSFO 240056Z 28013KT 10SM FEW200 21/01 A3003 RMK AO2 SLP167 T02110011
2026-03-23 23:56:00,METAR KSFO 232356Z 28018KT 10SM FEW200 22/M04 A3003 RMK AO2 PK WND 28026/2344 SLP169 T02221039 10244 20167 55007
2026-03-23 22:56:00,METAR KSFO 232256Z 29016KT 10SM FEW200 24/M02 A3003 RMK AO2 SLP168 T02391022
2026-03-23 21:56:00,METAR KSFO 232156Z 29014KT 10SM FEW200 23/M02 A3004 RMK AO2 SLP171 T02331022
2026-03-23 20:56:00,METAR KSFO 232056Z 30016KT 10SM FEW200 23/04 A3005 RMK AO2 SLP177 T02330039 58005
2026-03-23 19:56:00,METAR KSFO 231956Z 06004KT 10SM FEW200 18/13 A3006 RMK AO2 SLP180 T01830133
2026-03-23 18:56:00,METAR KSFO 231856Z 07005KT 10SM SCT200 18/13 A3006 RMK AO2 SLP179 T01780128
2026-03-23 17:56:00,METAR KSFO 231756Z 06003KT 10SM BKN200 17/13 A3007 RMK AO2 SLP181 T01670128 10167 20100 51007
2026-03-23 16:56:00,METAR KSFO 231656Z 09003KT 10SM FEW200 16/12 A3007 RMK AO2 SLP181 T01560117
2026-03-23 15:56:00,METAR KSFO 231556Z 00000KT 10SM FEW200 14/10 A3005 RMK AO2 SLP177 T01390100
2026-03-23 14:56:00,METAR KSFO 231456Z 00000KT 10SM FEW200 12/09 A3005 RMK AO2 SLP174 T01170089 51003
2026-03-23 13:56:00,METAR KSFO 231356Z 00000KT 10SM FEW200 10/08 A3005 RMK AO2 SLP174 T01000083
2026-03-23 12:56:00,METAR KSFO 231256Z 30005KT 10SM SCT200 11/09 A3004 RMK AO2 SLP173 T01060089
2026-03-23 11:56:00,METAR KSFO 231156Z 31007KT 10SM SCT200 11/09 A3004 RMK AO2 SLP172 T01110089 10117 20106 53003
2026-03-23 10:56:00,METAR KSFO 231056Z 30009KT 10SM FEW009 BKN200 11/09 A3003 RMK AO2 SLP169 T01110089
2026-03-23 09:56:00,METAR KSFO 230956Z 30009KT 10SM FEW009 BKN200 11/09 A3003 RMK AO2 SLP167 T01110089
2026-03-23 08:56:00,METAR KSFO 230856Z 30016KT 10SM FEW009 BKN180 11/09 A3003 RMK AO2 SLP168 T01110089 53007
2026-03-23 07:56:00,METAR KSFO 230756Z 29009KT 10SM FEW009 BKN180 11/09 A3001 RMK AO2 SLP163 T01110089 402060100
2026-03-23 06:56:00,METAR KSFO 230656Z 30009KT 10SM BKN180 12/09 A3000 RMK AO2 SLP159 T01170089
2026-03-23 05:56:00,METAR KSFO 230556Z 29012KT 10SM BKN180 12/09 A3001 RMK AO2 SLP161 T01170089 10178 20117 50011
2026-03-23 04:56:00,METAR KSFO 230456Z 29013KT 10SM BKN180 12/08 A3001 RMK AO2 SLP161 T01220083
2026-03-23 03:56:00,METAR KSFO 230356Z 28015KT 10SM BKN180 12/08 A2999 RMK AO2 PK WND 27029/0313 SLP155 T01220083
2026-03-23 02:56:00,METAR KSFO 230256Z 30018KT 10SM SCT180 BKN200 13/09 A2997 RMK AO2 SLP149 T01280089 53010
2026-03-23 01:56:00,METAR KSFO 230156Z 28016KT 10SM SCT180 BKN200 14/07 A2995 RMK AO2 PK WND 29026/0124 SLP141 T01440072
2026-03-23 00:56:00,METAR KSFO 230056Z 28020G30KT 10SM FEW180 BKN200 16/08 A2995 RMK AO2 PK WND 28030/0049 SLP141 T01560083
2026-03-22 23:56:00,METAR KSFO 222356Z 30014G25KT 10SM FEW180 BKN200 17/08 A2994 RMK AO2 PK WND 31026/2305 SLP139 T01720083 10206 20172 56011
2026-03-22 22:56:00,METAR KSFO 222256Z 30020KT 10SM SCT200 18/09 A2995 RMK AO2 SLP142 T01780094
2026-03-22 21:56:00,METAR KSFO 222156Z 32012KT 10SM FEW200 19/10 A2995 RMK AO2 SLP142 T01940100
2026-03-22 20:56:00,METAR KSFO 222056Z 31010KT 10SM FEW200 21/11 A2998 RMK AO2 SLP150 T02060106 58012
2026-03-22 19:56:00,METAR KSFO 221956Z 31011KT 10SM SCT200 20/11 A3000 RMK AO2 SLP157 T02000106
2026-03-22 18:56:00,METAR KSFO 221856Z 30014KT 10SM SCT200 18/10 A3001 RMK AO2 WSHFT 1835 SLP162 T01780100
2026-03-22 17:56:00,METAR KSFO 221756Z 33006KT 10SM SCT200 18/09 A3001 RMK AO2 SLP161 T01780094 10183 20100 50002
2026-03-22 16:56:00,METAR KSFO 221656Z 00000KT 10SM FEW200 16/09 A3001 RMK AO2 SLP163 T01560094
2026-03-22 15:56:00,METAR KSFO 221556Z 00000KT 10SM FEW200 13/09 A3001 RMK AO2 SLP161 T01330089
2026-03-22 14:56:00,METAR KSFO 221456Z 28003KT 10SM FEW200 11/08 A3000 RMK AO2 SLP159 T01110083 53015
2026-03-22 13:56:00,METAR KSFO 221356Z 29004KT 10SM FEW200 10/07 A2998 RMK AO2 SLP152 T01000072 $
2026-03-22 12:56:00,METAR KSFO 221256Z 26003KT 10SM CLR 11/08 A2997 RMK AO2 SLP149 T01060078 $
2026-03-22 11:56:00,METAR KSFO 221156Z 35003KT 10SM CLR 11/08 A2996 RMK AO2 SLP144 T01110083 10122 20100 58008 $
2026-03-22 10:56:00,METAR KSFO 221056Z 29006KT 10SM FEW007 11/08 A2997 RMK AO2 SLP148 T01060083 $
2026-03-22 09:56:00,METAR KSFO 220956Z 31012KT 10SM FEW007 11/08 A2998 RMK AO2 SLP151 T01110083 $
2026-03-22 08:56:00,METAR KSFO 220856Z 30007KT 10SM FEW007 11/08 A2998 RMK AO2 SLP153 T01110083 58001 $
2026-03-22 07:56:00,METAR KSFO 220756Z 28016KT 10SM FEW007 12/08 A2999 RMK AO2 SLP157 T01170083 402390117 $
2026-03-22 06:56:00,METAR KSFO 220656Z 28016G21KT 10SM FEW007 12/09 A3000 RMK AO2 SLP158 T01170089 $
2026-03-22 05:56:00,METAR KSFO 220556Z 28020KT 10SM FEW007 12/09 A2998 RMK AO2 PK WND 28027/0519 SLP153 T01220089 10189 20122 51006 $
2026-03-22 04:56:00,METAR KSFO 220456Z 27017G29KT 10SM CLR 12/09 A2998 RMK AO2 PK WND 29030/0405 SLP152 T01220089 $
2026-03-22 03:56:00,METAR KSFO 220356Z 30017KT 10SM CLR 13/08 A2998 RMK AO2 PK WND 29026/0340 SLP152 T01330083 $
2026-03-22 02:56:00,METAR KSFO 220256Z 30014G21KT 10SM FEW200 15/07 A2997 RMK AO2 PK WND 30028/0157 SLP147 T01500067 55002 $
2026-03-22 01:56:00,METAR KSFO 220156Z 29020G28KT 10SM FEW200 16/08 A2996 RMK AO2 PK WND 30028/0103 SLP144 T01560078 $
2026-03-22 00:56:00,METAR KSFO 220056Z 29020KT 10SM FEW200 17/09 A2996 RMK AO2 PK WND 30030/0042 SLP145 T01670089 $
2026-03-21 23:56:00,METAR KSFO 212356Z 29021G29KT 10SM FEW200 19/09 A2997 RMK AO2 PK WND 28030/2316 SLP149 T01890089 10239 20183 55005
2026-03-21 22:56:00,METAR KSFO 212256Z 29021G27KT 10SM FEW180 SCT200 20/10 A2997 RMK AO2 PK WND 27028/2229 SLP148 T02000100
2026-03-21 21:56:00,METAR KSFO 212156Z 29018KT 10SM FEW180 SCT200 21/11 A2997 RMK AO2 SLP148 T02060106
2026-03-21 20:56:00,METAR KSFO 212056Z 31016KT 10SM FEW170 BKN200 20/12 A2999 RMK AO2 SLP154 T02000117 55003
2026-03-21 19:56:00,METAR KSFO 211956Z 30016KT 10SM FEW180 BKN200 22/12 A2999 RMK AO2 SLP154 T02220117
2026-03-21 18:56:00,METAR KSFO 211856Z 30009KT 10SM FEW170 BKN200 22/12 A2999 RMK AO2 SLP156 T02170117
2026-03-21 17:56:00,METAR KSFO 211756Z 02004KT 10SM FEW170 BKN200 18/14 A2999 RMK AO2 SLP157 T01830139 10183 20133 51015
2026-03-21 16:56:00,METAR KSFO 211656Z 00000KT 10SM FEW170 BKN200 17/12 A2998 RMK AO2 SLP152 T01720122
2026-03-21 15:56:00,METAR KSFO 211556Z 32003KT 10SM BKN200 17/12 A2997 RMK AO2 SLP150 T01670122
2026-03-21 14:56:00,METAR KSFO 211456Z 30004KT 10SM BKN200 14/11 A2995 RMK AO2 SLP142 T01390111 51019
2026-03-21 13:56:00,METAR KSFO 211356Z 29008KT 10SM SCT200 13/11 A2994 RMK AO2 SLP137 T01330111
2026-03-21 12:56:00,METAR KSFO 211256Z 30010KT 10SM BKN200 14/12 A2992 RMK AO2 SLP131 T01390117
2026-03-21 11:56:00,METAR KSFO 211156Z 30011KT 10SM BKN200 14/12 A2990 RMK AO2 SLP124 T01440117 10183 20139 58002
2026-03-21 10:56:00,METAR KSFO 211056Z 29007KT 10SM SCT200 15/11 A2990 RMK AO2 SLP126 T01500106
2026-03-21 09:56:00,METAR KSFO 210956Z 29007KT 10SM SCT200 15/11 A2991 RMK AO2 SLP127 T01500111
2026-03-21 08:56:00,METAR KSFO 210856Z 30010KT 10SM CLR 16/11 A2990 RMK AO2 SLP126 T01560111 51004
2026-03-21 07:56:00,METAR KSFO 210756Z 29006KT 10SM CLR 14/11 A2990 RMK AO2 SLP125 T01440111 403170144
2026-03-21 06:56:00,METAR KSFO 210656Z 30011KT 10SM CLR 16/11 A2991 RMK AO2 SLP127 T01610111
2026-03-21 05:56:00,METAR KSFO 210556Z 34004KT 10SM CLR 18/12 A2989 RMK AO2 SLP122 T01830117 10311 20183 53010
2026-03-21 04:56:00,METAR KSFO 210456Z 29007KT 10SM CLR 20/10 A2988 RMK AO2 SLP118 T02000100
2026-03-21 03:56:00,METAR KSFO 210356Z 30007KT 10SM CLR 22/09 A2987 RMK AO2 SLP113 T02170094
2026-03-21 02:56:00,METAR KSFO 210256Z 29011KT 10SM FEW200 23/09 A2986 RMK AO2 SLP112 T02280094 55002
2026-03-21 01:56:00,METAR KSFO 210156Z 32010KT 10SM FEW200 25/11 A2986 RMK AO2 SLP111 T02500106
2026-03-21 00:56:00,METAR KSFO 210056Z 30009KT 10SM FEW200 29/11 A2986 RMK AO2 SLP110 T02890111
2026-03-20 23:56:00,METAR KSFO 202356Z 29010KT 10SM FEW200 31/11 A2987 RMK AO2 SLP114 T03110111 10317 20189 56025
2026-03-20 22:56:00,METAR KSFO 202256Z 03004KT 10SM FEW200 25/15 A2988 RMK AO2 SLP119 T02500150
2026-03-20 21:56:00,METAR KSFO 202156Z 05004KT 10SM FEW200 24/17 A2991 RMK AO2 SLP128 T02390167
2026-03-20 20:56:00,METAR KSFO 202056Z 05005KT 10SM FEW100 22/16 A2994 RMK AO2 SLP139 T02220156 58018
2026-03-20 19:56:00,METAR KSFO 201956Z 04005KT 10SM FEW100 21/16 A2996 RMK AO2 SLP146 T02060156
2026-03-20 18:56:00,METAR KSFO 201856Z 04005KT 10SM FEW100 19/16 A2998 RMK AO2 SLP150 T01940156
2026-03-20 17:56:00,METAR KSFO 201756Z 05004KT 10SM FEW100 19/14 A2999 RMK AO2 SLP157 T01890139 10194 20156 50001
2026-03-20 16:56:00,METAR KSFO 201656Z 09003KT 10SM FEW200 19/16 A3000 RMK AO2 SLP159 T01890161
2026-03-20 15:56:00,METAR KSFO 201556Z 00000KT 10SM FEW200 18/14 A3000 RMK AO2 SLP157 T01830144
2026-03-20 13:56:00,METAR KSFO 201356Z 18003KT 10SM FEW200 16/13 A2999 RMK AO2 SLP156 T01610133
2026-03-20 12:56:00,METAR KSFO 201256Z 15003KT 10SM CLR 17/14 A2999 RMK AO2 SLP155 T01670139
2026-03-20 11:56:00,METAR KSFO 201156Z 00000KT 10SM CLR 17/16 A2999 RMK AO2 SLP155 T01670156 10211 20167 56011
2026-03-20 10:56:00,METAR KSFO 201056Z 00000KT 10SM CLR 18/13 A3000 RMK AO2 SLP158 T01830133
2026-03-20 09:56:00,METAR KSFO 200956Z 00000KT 10SM CLR 18/14 A3001 RMK AO2 SLP163 T01780144
2026-03-20 08:56:00,METAR KSFO 200856Z 36003KT 10SM CLR 17/15 A3002 RMK AO2 SLP166 T01720150 55003
2026-03-20 07:56:00,METAR KSFO 200756Z 34004KT 10SM CLR 19/12 A3002 RMK AO2 SLP166 T01890122 402940100
2026-03-20 06:56:00,METAR KSFO 200656Z 00000KT 10SM CLR 21/12 A3003 RMK AO2 SLP167 T02060117
2026-03-20 05:56:00,METAR KSFO 200556Z 00000KT 10SM CLR 19/12 A3003 RMK AO2 SLP169 T01890122 10294 20189 51004
2026-03-20 04:56:00,METAR KSFO 200456Z 32003KT 10SM CLR 21/12 A3003 RMK AO2 SLP169 T02060117
2026-03-20 03:56:00,METAR KSFO 200356Z 28009KT 10SM CLR 22/07 A3002 RMK AO2 SLP167 T02220067
2026-03-20 02:56:00,METAR KSFO 200256Z 29013KT 10SM FEW200 23/04 A3002 RMK AO2 SLP166 T02280044 55002
2026-03-20 01:56:00,METAR KSFO 200156Z 29017KT 10SM FEW200 25/11 A3002 RMK AO2 SLP165 T02500111
2026-03-20 00:56:00,METAR KSFO 200056Z 29012KT 10SM CLR 27/10 A3002 RMK AO2 SLP166 T02670100
2026-03-19 23:56:00,METAR KSFO 192356Z 35004KT 10SM CLR 27/16 A3003 RMK AO2 SLP168 T02720156 10272 20172 56024
2026-03-19 22:56:00,METAR KSFO 192256Z 04005KT 10SM CLR 24/17 A3005 RMK AO2 SLP175 T02390167
2026-03-19 21:56:00,METAR KSFO 192156Z 04004KT 10SM CLR 23/16 A3007 RMK AO2 SLP183 T02280161
2026-03-19 20:56:00,METAR KSFO 192056Z 06004KT 10SM CLR 21/15 A3010 RMK AO2 SLP192 T02060150 58016
2026-03-19 19:56:00,METAR KSFO 191956Z 05004KT 10SM CLR 19/14 A3012 RMK AO2 SLP198 T01940144
2026-03-19 18:56:00,METAR KSFO 191856Z 05004KT 10SM CLR 18/14 A3013 RMK AO2 SLP203 T01780144
2026-03-19 17:56:00,METAR KSFO 191756Z 02005KT 10SM CLR 17/13 A3015 RMK AO2 SLP208 T01720133 10172 20100 51008
2026-03-19 16:56:00,METAR KSFO 191656Z 09003KT 10SM CLR 17/12 A3014 RMK AO2 SLP206 T01670122
2026-03-19 15:56:00,METAR KSFO 191556Z 00000KT 10SM CLR 15/11 A3014 RMK AO2 SLP205 T01500106
2026-03-19 14:56:00,METAR KSFO 191456Z 00000KT 10SM FEW200 13/08 A3012 RMK AO2 SLP200 T01280078 53012
2026-03-19 13:56:00,METAR KSFO 191356Z 33003KT 10SM FEW200 12/08 A3011 RMK AO2 SLP194 T01220083
2026-03-19 12:56:00,METAR KSFO 191256Z 20003KT 10SM FEW200 11/08 A3010 RMK AO2 SLP191 T01110078
2026-03-19 11:56:00,METAR KSFO 191156Z 29007KT 10SM FEW200 10/08 A3009 RMK AO2 SLP188 T01000083 10156 20100 56003 $
2026-03-19 10:56:00,METAR KSFO 191056Z 30008KT 10SM FEW200 11/08 A3009 RMK AO2 SLP188 T01060083 $
2026-03-19 09:56:00,METAR KSFO 190956Z 29007KT 10SM FEW200 11/09 A3009 RMK AO2 SLP190 T01060089 $
2026-03-19 08:56:00,METAR KSFO 190856Z 29009KT 10SM FEW200 11/09 A3010 RMK AO2 SLP191 T01060094 50003 $
2026-03-19 07:56:00,METAR KSFO 190756Z 29012KT 10SM FEW200 12/09 A3010 RMK AO2 SLP192 T01170094 402720117 $
2026-03-19 06:56:00,METAR KSFO 190656Z 28008KT 10SM CLR 13/10 A3010 RMK AO2 SLP192 T01280100 $
2026-03-19 05:56:00,METAR KSFO 190556Z 29012KT 10SM CLR 16/09 A3009 RMK AO2 SLP188 T01560094 10250 20156 53017 $
2026-03-19 04:56:00,METAR KSFO 190456Z 29008KT 10SM CLR 18/08 A3007 RMK AO2 SLP182 T01830078 $
2026-03-19 03:56:00,METAR KSFO 190356Z 31007KT 10SM CLR 21/05 A3005 RMK AO2 SLP176 T02060050 $
2026-03-19 02:56:00,METAR KSFO 190256Z 29013KT 10SM CLR 19/08 A3004 RMK AO2 SLP171 T01940078 53006 $
2026-03-19 01:56:00,METAR KSFO 190156Z 30013KT 10SM CLR 22/07 A3002 RMK AO2 SLP166 T02170072 $
2026-03-19 00:56:00,METAR KSFO 190056Z 29015KT 10SM CLR 23/09 A3002 RMK AO2 SLP164 T02330089 $
2026-03-18 23:56:00,METAR KSFO 182356Z 29017KT 10SM CLR 25/10 A3002 RMK AO2 SLP165 T02500100 10272 20178 55005 $
2026-03-18 22:56:00,METAR KSFO 182256Z 30013KT 10SM CLR 27/11 A3002 RMK AO2 SLP164 T02670111 $
2026-03-18 21:56:00,METAR KSFO 182156Z 03003KT 10SM CLR 24/14 A3002 RMK AO2 SLP166 T02440139 $
2026-03-18 20:56:00,METAR KSFO 182056Z 08003KT 10SM CLR 22/15 A3004 RMK AO2 SLP171 T02170150 58008 $
2026-03-18 19:56:00,METAR KSFO 181956Z 00000KT 10SM CLR 21/15 A3006 RMK AO2 SLP177 T02110150
2026-03-18 18:56:00,METAR KSFO 181856Z 02005KT 10SM CLR 19/15 A3006 RMK AO2 SLP179 T01940150
2026-03-18 17:56:00,METAR KSFO 181756Z 02006KT 10SM CLR 18/14 A3006 RMK AO2 SLP179 T01780139 10183 20139 51010
2026-03-18 16:56:00,METAR KSFO 181656Z 04004KT 10SM FEW200 17/13 A3006 RMK AO2 SLP178 T01720133
2026-03-18 15:56:00,METAR KSFO 181556Z 08003KT 10SM FEW200 17/13 A3004 RMK AO2 SLP173 T01670133
2026-03-18 14:56:00,METAR KSFO 181456Z 00000KT 10SM FEW200 16/12 A3003 RMK AO2 SLP169 T01610122 53009
2026-03-18 13:56:00,METAR KSFO 181356Z 21003KT 10SM FEW200 16/12 A3001 RMK AO2 SLP163 T01560117
2026-03-18 12:56:00,METAR KSFO 181256Z 30003KT 10SM CLR 14/11 A3001 RMK AO2 SLP163 T01440111
2026-03-18 11:56:00,METAR KSFO 181156Z 29005KT 10SM CLR 14/11 A3001 RMK AO2 SLP160 T01440111 10206 20144 51002
2026-03-18 10:56:00,METAR KSFO 181056Z 00000KT 10SM CLR 16/11 A3000 RMK AO2 SLP159 T01560111
2026-03-18 09:56:00,METAR KSFO 180956Z 00000KT 10SM CLR 16/11 A3001 RMK AO2 SLP161 T01610111
2026-03-18 08:56:00,METAR KSFO 180856Z 30004KT 10SM CLR 16/12 A3000 RMK AO2 SLP159 T01610117 53009
2026-03-18 07:56:00,METAR KSFO 180756Z 31003KT 10SM CLR 18/12 A2999 RMK AO2 SLP154 T01830122 402940139
2026-03-18 06:56:00,METAR KSFO 180656Z 00000KT 10SM FEW200 18/13 A2998 RMK AO2 SLP153 T01830128
2026-03-18 05:56:00,METAR KSFO 180556Z 00000KT 10SM FEW200 20/12 A2997 RMK AO2 SLP150 T02000117 10294 20194 51010
2026-03-18 04:56:00,METAR KSFO 180456Z 29007KT 10SM FEW200 21/12 A2997 RMK AO2 SLP147 T02110117
2026-03-18 03:56:00,METAR KSFO 180356Z 28008KT 10SM FEW200 22/12 A2996 RMK AO2 SLP144 T02170117
2026-03-18 02:56:00,METAR KSFO 180256Z 28011KT 10SM FEW200 23/11 A2995 RMK AO2 SLP140 T02330106 53005
2026-03-18 01:56:00,METAR KSFO 180156Z 29014KT 10SM FEW200 25/11 A2993 RMK AO2 SLP135 T02500106
2026-03-18 00:56:00,METAR KSFO 180056Z 29012KT 10SM FEW200 27/09 A2993 RMK AO2 SLP134 T02720094
2026-03-17 23:56:00,METAR KSFO 172356Z 01004KT 10SM FEW200 28/13 A2993 RMK AO2 SLP135 T02780128 10289 20172 56021
2026-03-17 22:56:00,METAR KSFO 172256Z 00000KT 10SM FEW200 28/13 A2995 RMK AO2 SLP141 T02780133
2026-03-17 21:56:00,METAR KSFO 172156Z 03003KT 10SM FEW200 24/12 A2997 RMK AO2 SLP147 T02440122
2026-03-17 20:56:00,METAR KSFO 172056Z 02005KT 10SM FEW200 21/15 A2999 RMK AO2 SLP156 T02110150 58015
2026-03-17 19:56:00,METAR KSFO 171956Z 05004KT 10SM FEW200 20/14 A3002 RMK AO2 SLP164 T02000144
2026-03-17 18:56:00,METAR KSFO 171856Z 03005KT 10SM FEW200 19/14 A3003 RMK AO2 SLP170 T01890144
2026-03-17 17:56:00,METAR KSFO 171756Z 32003KT 10SM FEW200 17/14 A3004 RMK AO2 SLP171 T01720139 10178 20144 51010 $
2026-03-17 16:56:00,METAR KSFO 171656Z 03003KT 10SM FEW200 17/13 A3003 RMK AO2 SLP170 T01720128 $
2026-03-17 15:56:00,METAR KSFO 171556Z 00000KT 10SM CLR 17/13 A3002 RMK AO2 SLP166 T01670128 $
2026-03-17 14:56:00,METAR KSFO 171456Z 00000KT 10SM CLR 15/10 A3001 RMK AO2 SLP161 T01500100 53007 $
2026-03-17 13:56:00,METAR KSFO 171356Z 00000KT 10SM CLR 15/10 A3000 RMK AO2 SLP159 T01500100 $
2026-03-17 12:56:00,METAR KSFO 171256Z 00000KT 10SM CLR 15/08 A2999 RMK AO2 SLP154 T01500078 $
2026-03-17 11:56:00,METAR KSFO 171156Z 00000KT 10SM CLR 15/10 A2999 RMK AO2 SLP155 T01500100 10183 20139 58005 $
2026-03-17 10:56:00,METAR KSFO 171056Z 27004KT 10SM CLR 15/08 A2999 RMK AO2 SLP156 T01500083 $
2026-03-17 09:56:00,METAR KSFO 170956Z 29004KT 10SM CLR 16/09 A3000 RMK AO2 SLP159 T01560089 $
2026-03-17 08:56:00,METAR KSFO 170856Z 00000KT 10SM CLR 17/11 A3000 RMK AO2 SLP160 T01670106 58000 $
2026-03-17 07:56:00,METAR KSFO 170756Z 30003KT 10SM FEW200 17/10 A3000 RMK AO2 SLP160 T01670100 402830128 $
2026-03-17 06:56:00,METAR KSFO 170656Z 29006KT 10SM FEW200 17/09 A3001 RMK AO2 SLP161 T01670094
2026-03-17 05:56:00,METAR KSFO 170556Z 29005KT 10SM FEW200 18/08 A3001 RMK AO2 SLP160 T01830083 10283 20178 51008
2026-03-17 04:56:00,METAR KSFO 170456Z 00000KT 10SM FEW200 20/08 A3000 RMK AO2 SLP159 T02000078
2026-03-17 03:56:00,METAR KSFO 170356Z 29009KT 10SM FEW200 21/07 A2999 RMK AO2 SLP156 T02110067
2026-03-17 02:56:00,METAR KSFO 170256Z 29012KT 10SM FEW200 23/07 A2998 RMK AO2 SLP153 T02280067 55000
2026-03-17 01:56:00,METAR KSFO 170156Z 29012G23KT 10SM FEW200 24/07 A2998 RMK AO2 SLP150 T02440072
2026-03-17 00:56:00,METAR KSFO 170056Z 30010KT 10SM FEW200 27/07 A2997 RMK AO2 SLP149 T02720067
2026-03-16 23:56:00,METAR KSFO 162356Z 36003KT 10SM FEW200 28/09 A2998 RMK AO2 SLP153 T02830089 10283 20172 56022
2026-03-16 22:56:00,METAR KSFO 162256Z 00000KT 10SM FEW200 28/08 A3000 RMK AO2 SLP158 T02780083
2026-03-16 21:56:00,METAR KSFO 162156Z 00000KT 10SM SCT200 28/07 A3002 RMK AO2 SLP165 T02780067
2026-03-16 20:56:00,METAR KSFO 162056Z 09003KT 10SM FEW200 23/12 A3005 RMK AO2 SLP175 T02330122 58014
2026-03-16 19:56:00,METAR KSFO 161956Z 00000KT 10SM FEW200 19/14 A3007 RMK AO2 SLP184 T01940139
2026-03-16 18:56:00,METAR KSFO 161856Z 04003KT 10SM FEW200 18/14 A3009 RMK AO2 SLP189 T01780139
2026-03-16 17:56:00,METAR KSFO 161756Z 06005KT 10SM FEW200 17/13 A3009 RMK AO2 SLP188 T01720133 10183 20133 51006
2026-03-16 16:56:00,METAR KSFO 161656Z 03003KT 10SM FEW180 17/12 A3008 RMK AO2 SLP187 T01670122
2026-03-16 15:56:00,METAR KSFO 161556Z 00000KT 10SM FEW180 16/11 A3008 RMK AO2 SLP185 T01560111
2026-03-16 14:56:00,METAR KSFO 161456Z 00000KT 10SM BKN180 14/09 A3007 RMK AO2 SLP182 T01390094 53008
2026-03-16 13:56:00,METAR KSFO 161356Z 00000KT 10SM SCT180 13/08 A3006 RMK AO2 SLP177 T01330078
2026-03-16 12:56:00,METAR KSFO 161256Z 00000KT 10SM SCT180 13/08 A3005 RMK AO2 SLP176 T01330083
2026-03-16 11:56:00,METAR KSFO 161156Z 00000KT 10SM FEW200 13/07 A3005 RMK AO2 SLP174 T01280072 10167 20128 55003
2026-03-16 10:56:00,METAR KSFO 161056Z 00000KT 10SM FEW200 14/07 A3004 RMK AO2 SLP172 T01390067
2026-03-16 09:56:00,METAR KSFO 160956Z 22004KT 10SM SCT200 14/08 A3006 RMK AO2 SLP177 T01440078
2026-03-16 08:56:00,METAR KSFO 160856Z 00000KT 10SM FEW200 16/13 A3006 RMK AO2 SLP177 T01560128 56006
2026-03-16 07:56:00,METAR KSFO 160756Z 00000KT 10SM FEW200 16/08 A3006 RMK AO2 SLP178 T01560083 402610100
2026-03-16 06:56:00,METAR KSFO 160656Z 29005KT 10SM FEW200 16/08 A3007 RMK AO2 SLP182 T01560078
2026-03-16 05:56:00,METAR KSFO 160556Z 28004KT 10SM FEW200 16/09 A3007 RMK AO2 SLP183 T01560089 10244 20156 53006
2026-03-16 04:56:00,METAR KSFO 160456Z 30005KT 10SM CLR 17/07 A3007 RMK AO2 SLP181 T01720072
2026-03-16 03:56:00,METAR KSFO 160356Z 30004KT 10SM CLR 18/07 A3006 RMK AO2 SLP178 T01780072
2026-03-16 02:56:00,METAR KSFO 160256Z 29011KT 10SM FEW200 19/06 A3006 RMK AO2 SLP177 T01940061 53001
2026-03-16 01:56:00,METAR KSFO 160156Z 28012KT 10SM FEW200 22/06 A3005 RMK AO2 SLP175 T02170061
2026-03-16 00:56:00,METAR KSFO 160056Z 29012KT 10SM FEW200 23/07 A3005 RMK AO2 SLP175 T02330067
2026-03-15 23:56:00,METAR KSFO 152356Z 28013KT 10SM FEW200 24/08 A3005 RMK AO2 SLP176 T02440083 10261 20161 56015
2026-03-15 22:56:00,METAR KSFO 152256Z 30012G17KT 10SM FEW200 26/08 A3006 RMK AO2 SLP178 T02560083
2026-03-15 21:56:00,METAR KSFO 152156Z 03006KT 10SM FEW200 23/09 A3007 RMK AO2 SLP182 T02330094
2026-03-15 20:56:00,METAR KSFO 152056Z 11003KT 10SM FEW200 21/09 A3010 RMK AO2 SLP191 T02110094 58014
2026-03-15 19:56:00,METAR KSFO 151956Z 10004KT 10SM FEW200 18/14 A3012 RMK AO2 SLP200 T01780139
2026-03-15 18:56:00,METAR KSFO 151856Z 04006KT 10SM SCT200 17/14 A3014 RMK AO2 SLP205 T01720139
2026-03-15 17:56:00,METAR KSFO 151756Z 09003KT 10SM SCT200 16/13 A3014 RMK AO2 SLP205 T01610133 10161 20100 50005
2026-03-15 16:56:00,METAR KSFO 151656Z 00000KT 10SM SCT200 15/12 A3015 RMK AO2 SLP208 T01500122
2026-03-15 15:56:00,METAR KSFO 151556Z 00000KT 10SM SCT200 14/11 A3013 RMK AO2 SLP203 T01390111
2026-03-15 14:56:00,METAR KSFO 151456Z 19003KT 10SM SCT200 12/10 A3012 RMK AO2 SLP200 T01170100 53008
2026-03-15 13:56:00,METAR KSFO 151356Z 00000KT 10SM FEW200 11/09 A3011 RMK AO2 SLP195 T01110094
2026-03-15 12:56:00,METAR KSFO 151256Z 00000KT 10SM CLR 11/09 A3010 RMK AO2 SLP193 T01110094
2026-03-15 11:56:00,METAR KSFO 151156Z 29003KT 10SM FEW010 11/09 A3010 RMK AO2 SLP192 T01110094 10122 20111 53000
2026-03-15 10:56:00,METAR KSFO 151056Z 00000KT 10SM CLR 12/10 A3009 RMK AO2 SLP190 T01170100
2026-03-15 09:56:00,METAR KSFO 150956Z 28004KT 10SM CLR 11/10 A3010 RMK AO2 SLP191 T01110100
2026-03-15 08:56:00,METAR KSFO 150856Z 29006KT 10SM FEW004 12/10 A3010 RMK AO2 SLP191 T01170100 55002
