Time_recorded,METAR
2026-05-02 15:52:00,METAR KTRM 021552Z AUTO 34006KT 10SM CLR 29/04 A2985 RMK AO2 SLP109 T02890044 TSNO $
2026-05-02 14:52:00,METAR KTRM 021452Z AUTO 32006KT 10SM CLR 24/08 A2984 RMK AO2 SLP108 T02440078 51014 TSNO $
2026-05-02 13:52:00,METAR KTRM 021352Z AUTO 30005KT 10SM CLR 19/08 A2983 RMK AO2 SLP114 T01890083 TSNO $
2026-05-02 12:52:00,METAR KTRM 021252Z AUTO 00000KT 10SM CLR 16/08 A2982 RMK AO2 SLP108 T01560083 TSNO
2026-05-02 11:52:00,METAR KTRM 021152Z AUTO 36005KT 10SM CLR 19/08 A2980 RMK AO2 SLP094 T01940078 10289 20167 53005 TSNO
2026-05-02 10:52:00,METAR KTRM 021052Z AUTO 35003KT 10SM CLR 22/09 A2979 RMK AO2 SLP091 T02220089 TSNO
2026-05-02 09:52:00,METAR KTRM 020952Z AUTO 35005KT 10SM CLR 23/08 A2979 RMK AO2 SLP089 T02330083 TSNO
2026-05-02 08:52:00,METAR KTRM 020852Z AUTO 33007KT 10SM CLR 25/09 A2979 RMK AO2 SLP089 T02500094 50004 TSNO
2026-05-02 07:52:00,METAR KTRM 020752Z AUTO 32007KT 10SM CLR 26/08 A2979 RMK AO2 SLP090 T02610083 403610200 TSNO
2026-05-02 06:52:00,METAR KTRM 020652Z AUTO 34009KT 10SM CLR 27/08 A2978 RMK AO2 SLP087 T02720078 TSNO
2026-05-02 05:52:00,METAR KTRM 020552Z AUTO 33011KT 10SM CLR 29/07 A2978 RMK AO2 SLP086 T02890067 10356 20267 51021 TSNO
2026-05-02 04:52:00,METAR KTRM 020452Z AUTO 32011KT 10SM CLR 30/05 A2977 RMK AO2 SLP082 T03000050 TSNO
2026-05-02 03:52:00,METAR KTRM 020352Z AUTO 31004KT 10SM CLR 30/02 A2975 RMK AO2 SLP077 T03000022 TSNO
2026-05-02 02:52:00,METAR KTRM 020252Z AUTO 26004KT 10SM CLR 30/03 A2972 RMK AO2 SLP065 T03000033 53006 TSNO
2026-05-02 01:52:00,METAR KTRM 020152Z AUTO 14005KT 10SM CLR 32/03 A2969 RMK AO2 SLP057 T03220028 TSNO
2026-05-02 00:52:00,METAR KTRM 020052Z AUTO 13008KT 10SM CLR 35/01 A2969 RMK AO2 SLP057 T03500011 TSNO
2026-05-01 23:52:00,METAR KTRM 012352Z AUTO 13007KT 10SM CLR 36/01 A2970 RMK AO2 SLP059 T03560011 10361 20283 56023 TSNO
2026-05-01 22:52:00,METAR KTRM 012252Z AUTO 16008KT 10SM CLR 36/02 A2971 RMK AO2 SLP063 T03560017 TSNO
2026-05-01 21:52:00,METAR KTRM 012152Z AUTO 15010G17KT 10SM CLR 35/06 A2974 RMK AO2 SLP073 T03500061 TSNO
2026-05-01 20:52:00,METAR KTRM 012052Z AUTO 12010KT 10SM CLR 34/08 A2977 RMK AO2 SLP082 T03390083 56023 TSNO
2026-05-01 19:52:00,METAR KTRM 011952Z AUTO 15009KT 10SM CLR 33/10 A2978 RMK AO2 SLP087 T03280100 TSNO
2026-05-01 18:52:00,METAR KTRM 011852Z AUTO VRB04KT 10SM CLR 31/09 A2981 RMK AO2 SLP098 T03060094 TSNO
2026-05-01 17:52:00,METAR KTRM 011752Z AUTO VRB04KT 10SM CLR 29/10 A2984 RMK AO2 SLP105 T02940100 10294 20200 50002 TSNO
2026-05-01 16:52:00,METAR KTRM 011652Z AUTO 00000KT 10SM CLR 26/11 A2985 RMK AO2 SLP118 T02610106 TSNO
2026-05-01 15:52:00,METAR KTRM 011552Z AUTO VRB05KT 10SM CLR 25/13 A2985 RMK AO2 SLP109 T02500133 TSNO
2026-05-01 14:52:00,METAR KTRM 011452Z AUTO 03004KT 10SM CLR 22/11 A2983 RMK AO2 SLP112 T02220111 53023 TSNO
2026-05-01 13:52:00,METAR KTRM 011352Z AUTO 34006KT 10SM CLR 21/11 A2980 RMK AO2 SLP092 T02060111 TSNO
2026-05-01 12:52:00,METAR KTRM 011252Z AUTO 33008KT 10SM CLR 20/11 A2977 RMK AO2 SLP085 T02000106 TSNO
2026-05-01 11:52:00,METAR KTRM 011152Z AUTO 32007KT 10SM CLR 21/11 A2976 RMK AO2 SLP080 T02110106 10239 20211 53009 TSNO
2026-05-01 10:52:00,METAR KTRM 011052Z AUTO 33007KT 10SM CLR 22/11 A2974 RMK AO2 SLP074 T02170106 TSNO
2026-05-01 09:52:00,METAR KTRM 010952Z AUTO 33010KT 10SM CLR 21/11 A2974 RMK AO2 SLP071 T02110106 TSNO
2026-05-01 08:52:00,METAR KTRM 010852Z AUTO 33012KT 10SM CLR 22/11 A2973 RMK AO2 SLP071 T02220106 50007 TSNO
2026-05-01 07:52:00,METAR KTRM 010752Z AUTO 32012G20KT 10SM CLR 23/10 A2974 RMK AO2 SLP072 T02280100 403610194 TSNO
2026-05-01 06:52:00,METAR KTRM 010652Z AUTO 33013G23KT 10SM CLR 24/10 A2973 RMK AO2 PK WND 33026/0633 SLP068 T02390100 TSNO
2026-05-01 05:52:00,METAR KTRM 010552Z AUTO 30012G23KT 10SM CLR 24/10 A2971 RMK AO2 PK WND 32026/0456 SLP064 T02390100 10356 20239 51018 TSNO
2026-05-01 04:52:00,METAR KTRM 010452Z AUTO 33017G24KT 10SM CLR 25/11 A2970 RMK AO2 PK WND 33030/0428 SLP059 T02500106 TSNO
2026-05-01 03:52:00,METAR KTRM 010352Z AUTO 32014G24KT 10SM CLR 27/11 A2969 RMK AO2 PK WND 31029/0311 SLP064 T02670106 TSNO
2026-05-01 02:52:00,METAR KTRM 010252Z AUTO 32015G24KT 10SM CLR 29/10 A2966 RMK AO2 SLP055 T02890100 53015 TSNO
2026-05-01 01:52:00,METAR KTRM 010152Z AUTO 31010KT 10SM CLR 32/07 A2963 RMK AO2 SLP036 T03220067 TSNO
2026-05-01 00:52:00,METAR KTRM 010052Z AUTO 13011KT 10SM CLR 34/02 A2962 RMK AO2 SLP031 T03440017 TSNO
2026-04-30 23:52:00,METAR KTRM 302352Z AUTO 15006KT 10SM CLR 36/M01 A2962 RMK AO2 SLP031 T03561006 10361 20300 56021 TSNO
2026-04-30 22:52:00,METAR KTRM 302252Z AUTO 16009G17KT 10SM CLR 36/01 A2963 RMK AO2 SLP037 T03560006 TSNO
2026-04-30 21:52:00,METAR KTRM 302152Z AUTO VRB06G15KT 10SM CLR 36/01 A2966 RMK AO2 SLP045 T03560011 TSNO
2026-04-30 20:52:00,METAR KTRM 302052Z AUTO 10SM CLR 35/01 A2968 RMK AO2 SLP052 T03500006 56028 TSNO
2026-04-30 19:52:00,METAR KTRM 301952Z AUTO VRB03KT 10SM CLR 34/02 A2970 RMK AO2 SLP060 T03390017 TSNO
2026-04-30 18:52:00,METAR KTRM 301852Z AUTO 10SM CLR 32/02 A2973 RMK AO2 SLP070 T03170017 TSNO
2026-04-30 17:52:00,METAR KTRM 301752Z AUTO VRB05KT 10SM CLR 31/04 A2976 RMK AO2 SLP079 T03060044 10306 20194 58010 TSNO
2026-04-30 16:52:00,METAR KTRM 301652Z AUTO 33010KT 10SM CLR 27/06 A2977 RMK AO2 SLP082 T02720056 TSNO
2026-04-30 14:52:00,METAR KTRM 301452Z AUTO 31010KT 10SM CLR 22/07 A2979 RMK AO2 SLP088 T02220072 53007 TSNO
2026-04-30 13:52:00,METAR KTRM 301352Z AUTO 33009KT 10SM CLR 21/07 A2978 RMK AO2 SLP087 T02060067 TSNO
2026-04-30 12:52:00,METAR KTRM 301252Z AUTO 33010KT 10SM CLR 19/07 A2977 RMK AO2 SLP091 T01940067 TSNO
2026-04-30 11:52:00,METAR KTRM 301152Z AUTO 32007KT 10SM CLR 20/07 A2977 RMK AO2 SLP083 T02000067 10239 20200 56009 TSNO
2026-04-30 10:52:00,METAR KTRM 301052Z AUTO 33010KT 10SM CLR 21/07 A2977 RMK AO2 SLP085 T02060067 TSNO
2026-04-30 09:52:00,METAR KTRM 300952Z AUTO 34007KT 10SM CLR 21/07 A2978 RMK AO2 SLP087 T02060072 TSNO
2026-04-30 08:52:00,METAR KTRM 300852Z AUTO 31012KT 10SM CLR 22/07 A2980 RMK AO2 SLP092 T02170072 58012 TSNO
2026-04-30 07:52:00,METAR KTRM 300752Z AUTO 32012KT 10SM CLR 22/07 A2982 RMK AO2 SLP099 T02220072 403330161 TSNO
2026-04-30 06:52:00,METAR KTRM 300652Z AUTO 32012G20KT 10SM CLR 23/07 A2983 RMK AO2 SLP102 T02330072 TSNO
2026-04-30 05:52:00,METAR KTRM 300552Z AUTO 32010G17KT 10SM CLR 24/06 A2983 RMK AO2 SLP104 T02390056 10328 20239 50014 TSNO
2026-04-30 04:52:00,METAR KTRM 300452Z AUTO 34013G20KT 10SM CLR 25/05 A2983 RMK AO2 SLP105 T02500050 TSNO
2026-04-30 03:52:00,METAR KTRM 300352Z AUTO 34011KT 10SM CLR 26/06 A2982 RMK AO2 SLP110 T02610056 TSNO
2026-04-30 02:52:00,METAR KTRM 300252Z AUTO 00000KT 10SM CLR 24/M01 A2979 RMK AO2 SLP088 T02441006 53005 TSNO
2026-04-30 01:52:00,METAR KTRM 300152Z AUTO 16006KT 10SM CLR 29/M07 A2977 RMK AO2 SLP083 T02941067 TSNO
2026-04-30 00:52:00,METAR KTRM 300052Z AUTO 15006KT 10SM CLR 32/M03 A2977 RMK AO2 SLP083 T03171033 TSNO
2026-04-29 23:52:00,METAR KTRM 292352Z AUTO 15006KT 10SM CLR 33/M02 A2978 RMK AO2 SLP094 T03281022 10333 20283 56023 TSNO
2026-04-29 22:52:00,METAR KTRM 292252Z AUTO 13009KT 090V150 10SM CLR 33/M01 A2979 RMK AO2 SLP090 T03281006 TSNO
2026-04-29 21:52:00,METAR KTRM 292152Z AUTO 11012KT 10SM CLR 33/M01 A2982 RMK AO2 SLP099 T03281006 TSNO
2026-04-29 20:52:00,METAR KTRM 292052Z AUTO 13011G19KT 10SM CLR 33/00 A2984 RMK AO2 SLP108 T03280000 56027 TSNO
2026-04-29 19:52:00,METAR KTRM 291952Z AUTO VRB03KT 10SM CLR 32/01 A2986 RMK AO2 SLP114 T03170006 TSNO
2026-04-29 18:52:00,METAR KTRM 291852Z AUTO VRB04KT 10SM CLR 31/01 A2989 RMK AO2 SLP125 T03060011 TSNO
2026-04-29 17:52:00,METAR KTRM 291752Z AUTO 27004KT 10SM CLR 29/01 A2992 RMK AO2 SLP135 T02890006 10289 20161 58006 TSNO
2026-04-29 16:52:00,METAR KTRM 291652Z AUTO 34006KT 10SM CLR 27/02 A2994 RMK AO2 SLP139 T02670017 TSNO
2026-04-29 15:52:00,METAR KTRM 291552Z AUTO 33010KT 10SM CLR 24/03 A2994 RMK AO2 SLP138 T02440033 TSNO
2026-04-29 14:52:00,METAR KTRM 291452Z AUTO 33010KT 10SM CLR 22/04 A2994 RMK AO2 SLP140 T02170039 53008 TSNO
2026-04-29 13:52:00,METAR KTRM 291352Z AUTO 34010KT 10SM CLR 19/04 A2993 RMK AO2 SLP137 T01940039 TSNO $
2026-04-29 12:52:00,METAR KTRM 291252Z AUTO 36004KT 10SM CLR 18/04 A2992 RMK AO2 SLP134 T01780039 TSNO $
2026-04-29 11:52:00,METAR KTRM 291152Z AUTO 33008KT 10SM CLR 18/04 A2992 RMK AO2 SLP132 T01830044 10228 20183 53001 TSNO
2026-04-29 10:52:00,METAR KTRM 291052Z AUTO 33006KT 10SM CLR 19/04 A2991 RMK AO2 SLP131 T01890039 TSNO
2026-04-29 09:52:00,METAR KTRM 290952Z AUTO 34005KT 10SM CLR 19/05 A2992 RMK AO2 SLP132 T01890050 TSNO
2026-04-29 08:52:00,METAR KTRM 290852Z AUTO 32009KT 10SM CLR 21/04 A2991 RMK AO2 SLP141 T02110044 58003 TSNO
2026-04-29 07:52:00,METAR KTRM 290752Z AUTO 32009KT 10SM CLR 21/05 A2992 RMK AO2 SLP133 T02110050 403000156 TSNO
2026-04-29 06:52:00,METAR KTRM 290652Z AUTO 32011KT 10SM CLR 22/06 A2993 RMK AO2 SLP137 T02220056 TSNO
2026-04-29 05:52:00,METAR KTRM 290552Z AUTO 32009KT 10SM CLR 23/06 A2992 RMK AO2 SLP134 T02280056 10294 20183 50015 TSNO
2026-04-29 04:52:00,METAR KTRM 290452Z AUTO 31008KT 10SM CLR 22/M02 A2992 RMK AO2 SLP134 T02221017 TSNO
2026-04-29 03:52:00,METAR KTRM 290352Z AUTO 32003KT 10SM CLR 19/M01 A2990 RMK AO2 SLP127 T01891006 TSNO
2026-04-29 02:52:00,METAR KTRM 290252Z AUTO 12005KT 10SM CLR 22/M03 A2988 RMK AO2 SLP118 T02171028 53001 TSNO
2026-04-29 01:52:00,METAR KTRM 290152Z AUTO 14005KT 10SM CLR 27/M03 A2987 RMK AO2 SLP114 T02671033 TSNO
2026-04-29 00:52:00,METAR KTRM 290052Z AUTO 13005KT 10SM CLR 29/M03 A2987 RMK AO2 SLP116 T02891033 TSNO
2026-04-28 23:52:00,METAR KTRM 282352Z AUTO 14008KT 10SM CLR 29/M03 A2987 RMK AO2 SLP117 T02941033 10300 20256 56019 TSNO
2026-04-28 22:52:00,METAR KTRM 282252Z AUTO 15010KT 10SM CLR 29/M02 A2989 RMK AO2 SLP121 T02941017 TSNO
2026-04-28 21:52:00,METAR KTRM 282152Z AUTO 12012G20KT 10SM CLR 29/M01 A2991 RMK AO2 SLP130 T02941006 TSNO
2026-04-28 20:52:00,METAR KTRM 282052Z AUTO 12013G26KT 10SM CLR 29/01 A2993 RMK AO2 PK WND 13026/2050 SLP136 T02940011 58021 TSNO
2026-04-28 19:52:00,METAR KTRM 281952Z AUTO 13007G16KT 100V180 10SM CLR 29/00 A2995 RMK AO2 SLP142 T02890000 TSNO
2026-04-28 18:52:00,METAR KTRM 281852Z AUTO VRB03KT 10SM CLR 27/02 A2998 RMK AO2 SLP151 T02720017 TSNO
2026-04-28 17:52:00,METAR KTRM 281752Z AUTO VRB03KT 10SM CLR 26/03 A2999 RMK AO2 SLP157 T02560028 10256 20156 58002 TSNO
2026-04-28 16:52:00,METAR KTRM 281652Z AUTO VRB05KT 10SM CLR 23/03 A3000 RMK AO2 SLP160 T02330028 TSNO
2026-04-15 08:52:00,METAR KTRM 150852Z AUTO 32008KT 10SM CLR 20/07 A2994 RMK AO2 SLP139 T02000072 50003 TSNO $
2026-04-15 07:52:00,METAR KTRM 150752Z AUTO 31005KT 10SM CLR 21/08 A2995 RMK AO2 SLP142 T02060078 402940144 TSNO $
2026-04-15 06:52:00,METAR KTRM 150652Z AUTO 33007KT 10SM CLR 21/08 A2994 RMK AO2 SLP140 T02110083 TSNO $
2026-04-15 05:52:00,METAR KTRM 150552Z AUTO 33007KT 10SM CLR 22/08 A2993 RMK AO2 SLP137 T02220083 10289 20183 50015 TSNO $
2026-04-14 21:52:00,METAR KTRM 142152Z AUTO 15010G16KT 10SM CLR 29/03 A2993 RMK AO2 SLP137 T02890028 TSNO $
2026-04-14 16:52:00,METAR KTRM 141652Z AUTO 33004KT 10SM CLR 20/04 A3003 RMK AO2 SLP171 T02000044 TSNO $
2026-04-14 11:52:00,METAR KTRM 141152Z AUTO 34009KT 10SM CLR 16/05 A2999 RMK AO2 SLP155 T01560050 10172 20156 53002 TSNO $
2026-04-14 10:52:00,METAR KTRM 141052Z AUTO 30014G23KT 10SM CLR 17/05 A2998 RMK AO2 SLP152 T01670050 TSNO $
2026-04-14 05:52:00,METAR KTRM 140552Z AUTO 35011KT 10SM CLR 17/05 A2998 RMK AO2 SLP154 T01720050 10233 20172 51018 TSNO $
2026-04-13 18:52:00,METAR KTRM 131852Z AUTO 13004KT 10SM SCT090 24/01 A2995 RMK AO2 SLP142 T02440011 TSNO $
2026-04-13 16:52:00,METAR KTRM 131652Z AUTO 18006KT 10SM CLR 22/02 A2997 RMK AO2 SLP149 T02170022 TSNO $
2026-04-13 05:52:00,METAR KTRM 130552Z AUTO 34004KT 10SM CLR 18/07 A2994 RMK AO2 SLP139 T01830067 10250 20183 50008 TSNO
2026-04-13 04:52:00,METAR KTRM 130452Z AUTO 34006KT 10SM CLR 19/08 A2994 RMK AO2 WSHFT 0349 SLP141 T01940078 TSNO
2026-04-13 01:52:00,METAR KTRM 130152Z AUTO 30010G18KT 10SM FEW095 22/08 A2990 RMK AO2 SLP125 T02220078 TSNO
2026-04-13 00:52:00,METAR KTRM 130052Z AUTO 28012G26KT 10SM BKN100 24/08 A2988 RMK AO2 PK WND 27031/0021 SLP119 T02440078 TSNO
2026-04-12 23:52:00,METAR KTRM 122352Z AUTO 28018G27KT 10SM CLR 25/07 A2986 RMK AO2 PK WND 28030/2342 SLP114 T02500067 10272 20233 55000 TSNO
2026-04-12 22:52:00,METAR KTRM 122252Z AUTO 29016G26KT 9SM FEW100 26/08 A2987 RMK AO2 PK WND 27027/2222 SLP114 T02610078 TSNO
2026-04-12 18:52:00,METAR KTRM 121852Z AUTO 33007G19KT 290V010 10SM CLR 25/05 A2991 RMK AO2 SLP128 T02500050 TSNO
2026-04-12 15:52:00,METAR KTRM 121552Z AUTO 01007KT 10SM CLR 21/05 A2991 RMK AO2 SLP130 T02110050 TSNO
2026-04-12 14:52:00,METAR KTRM 121452Z AUTO 36007KT 10SM CLR 19/06 A2991 RMK AO2 SLP130 T01890061 52024 TSNO
2026-04-12 13:52:00,METAR KTRM 121352Z AUTO 35011G18KT 10SM CLR 18/06 A2989 RMK AO2 SLP123 T01830056 TSNO
2026-04-12 12:52:00,METAR KTRM 121252Z AUTO 35009G17KT 10SM CLR 18/05 A2986 RMK AO2 SLP112 T01830050 TSNO
2026-04-12 11:52:00,METAR KTRM 121152Z AUTO 34014G20KT 10SM CLR 18/04 A2984 RMK AO2 SLP106 T01830044 10206 20183 58001 TSNO
2026-04-11 03:52:00,METAR KTRM 110352Z AUTO 23007KT 10SM CLR 26/06 A2981 RMK AO2 SLP105 T02560056 TSNO
2026-04-11 02:52:00,METAR KTRM 110252Z AUTO 21009G21KT 10SM CLR 27/05 A2978 RMK AO2 SLP096 T02670050 51008 TSNO
2026-04-10 22:52:00,METAR KTRM 102252Z AUTO 32003KT 9SM SCT110 32/07 A2975 RMK AO2 SLP077 T03170067 TSNO
2026-04-10 13:52:00,METAR KTRM 101352Z AUTO 27005KT 10SM CLR 19/08 A2983 RMK AO2 SLP105 T01940078 TSNO
2026-04-10 12:52:00,METAR KTRM 101252Z AUTO 24005KT 10SM CLR 21/08 A2981 RMK AO2 SLP098 T02060083 TSNO
2026-04-10 11:52:00,METAR KTRM 101152Z AUTO 34007KT 10SM CLR 23/08 A2980 RMK AO2 SLP094 T02330078 10261 20222 56003 TSNO
2026-04-10 10:52:00,METAR KTRM 101052Z AUTO 32004KT 10SM CLR 23/08 A2981 RMK AO2 SLP095 T02280078 TSNO
2026-04-10 07:52:00,METAR KTRM 100752Z AUTO 35008KT 10SM CLR 25/08 A2982 RMK AO2 SLP099 T02500083 403560217 TSNO
2026-04-10 06:52:00,METAR KTRM 100652Z AUTO 33011KT 10SM CLR 26/08 A2982 RMK AO2 SLP101 T02610083 TSNO
2026-04-10 05:52:00,METAR KTRM 100552Z AUTO 34008KT 10SM CLR 26/08 A2981 RMK AO2 SLP098 T02610083 10333 20261 52014 TSNO
2026-04-10 03:52:00,METAR KTRM 100352Z AUTO 32009KT 10SM CLR 28/07 A2979 RMK AO2 SLP089 T02780072 TSNO
2026-04-09 16:52:00,METAR KTRM 091652Z AUTO 09004KT 10SM CLR 27/09 A2983 RMK AO2 SLP104 T02720094 TSNO $
2026-04-09 15:52:00,METAR KTRM 091552Z AUTO 13004KT 10SM CLR 25/09 A2982 RMK AO2 SLP099 T02500094 TSNO $
2026-04-09 14:52:00,METAR KTRM 091452Z AUTO 15003KT 10SM CLR 23/09 A2980 RMK AO2 SLP094 T02280089 53017 TSNO $
2026-04-09 13:52:00,METAR KTRM 091352Z AUTO 32009KT 10SM CLR 24/07 A2978 RMK AO2 SLP087 T02390067 TSNO $
2026-04-09 12:52:00,METAR KTRM 091252Z AUTO 33009KT 10SM CLR 24/07 A2976 RMK AO2 SLP081 T02440067 TSNO $
2026-04-09 10:52:00,METAR KTRM 091052Z AUTO 33013KT 10SM CLR 26/07 A2975 RMK AO2 SLP076 T02560072 TSNO $
2026-04-09 09:52:00,METAR KTRM 090952Z AUTO 32010KT 10SM CLR 25/07 A2975 RMK AO2 SLP085 T02500072 TSNO $
2026-04-09 08:52:00,METAR KTRM 090852Z AUTO 34010KT 10SM CLR 26/08 A2975 RMK AO2 SLP076 T02610078 50001 TSNO $
2026-04-09 07:52:00,METAR KTRM 090752Z AUTO 33014KT 10SM CLR 27/08 A2975 RMK AO2 SLP079 T02670078 403670228 TSNO $
2026-04-09 06:52:00,METAR KTRM 090652Z AUTO 33012KT 10SM CLR 27/09 A2975 RMK AO2 SLP077 T02670094 TSNO $
2026-04-09 05:52:00,METAR KTRM 090552Z AUTO 34012KT 10SM CLR 27/10 A2975 RMK AO2 SLP075 T02720100 10361 20261 51015 TSNO $
2026-04-09 04:52:00,METAR KTRM 090452Z AUTO 34011G20KT 10SM CLR 28/09 A2974 RMK AO2 SLP072 T02830094 TSNO $
2026-04-09 03:52:00,METAR KTRM 090352Z AUTO 35009G18KT 10SM CLR 30/08 A2973 RMK AO2 SLP068 T03000083 TSNO $
2026-04-09 02:52:00,METAR KTRM 090252Z AUTO 31003KT 10SM CLR 27/06 A2970 RMK AO2 SLP069 T02670056 53003 TSNO $
2026-04-08 22:52:00,METAR KTRM 082252Z AUTO 14009KT 10SM CLR 37/01 A2971 RMK AO2 SLP071 T03670006 TSNO $
2026-04-08 21:52:00,METAR KTRM 082152Z AUTO 16012KT 10SM CLR 36/03 A2973 RMK AO2 SLP077 T03610028 TSNO $
2026-04-08 20:52:00,METAR KTRM 082052Z AUTO 12009G17KT 10SM CLR 36/05 A2975 RMK AO2 SLP084 T03560050 56023 TSNO $
2026-04-08 19:52:00,METAR KTRM 081952Z AUTO 10SM CLR 36/05 A2976 RMK AO2 SLP090 T03560050 TSNO $
2026-04-08 18:52:00,METAR KTRM 081852Z AUTO VRB03KT 10SM CLR 33/06 A2979 RMK AO2 SLP091 T03330056 TSNO $
2026-04-08 17:52:00,METAR KTRM 081752Z AUTO VRB05KT 10SM CLR 31/07 A2982 RMK AO2 SLP099 T03110072 10311 20228 51003 TSNO $
2026-04-08 15:52:00,METAR KTRM 081552Z AUTO 32006KT 10SM CLR 27/09 A2982 RMK AO2 SLP099 T02670094 TSNO $
2026-04-08 14:52:00,METAR KTRM 081452Z AUTO 30005KT 10SM CLR 24/09 A2981 RMK AO2 SLP095 T02440094 53017 TSNO $
2026-04-08 13:52:00,METAR KTRM 081352Z AUTO 33006KT 10SM CLR 23/09 A2979 RMK AO2 SLP088 T02280089 TSNO $
2026-04-08 11:52:00,METAR KTRM 081152Z AUTO 32006KT 10SM CLR 24/09 A2976 RMK AO2 SLP078 T02390094 10272 20239 56004 TSNO $
2026-04-08 10:52:00,METAR KTRM 081052Z AUTO 31010KT 10SM CLR 24/10 A2976 RMK AO2 SLP079 T02440100 TSNO $
2026-04-08 09:52:00,METAR KTRM 080952Z AUTO 32009KT 10SM CLR 25/09 A2976 RMK AO2 SLP090 T02500094 TSNO $
2026-04-08 08:52:00,METAR KTRM 080852Z AUTO 33012KT 10SM CLR 25/10 A2977 RMK AO2 SLP091 T02500100 58005 TSNO $
2026-04-08 07:52:00,METAR KTRM 080752Z AUTO 31007KT 10SM CLR 26/10 A2978 RMK AO2 SLP085 T02560100 TSNO $
2026-04-08 06:52:00,METAR KTRM 080652Z AUTO 30011KT 10SM CLR 27/09 A2978 RMK AO2 SLP086 T02670094 TSNO $
2026-04-08 05:52:00,METAR KTRM 080552Z AUTO 31010KT 10SM CLR 27/09 A2978 RMK AO2 SLP087 T02720094 10350 20250 51016 TSNO $
2026-04-08 04:52:00,METAR KTRM 080452Z AUTO 33008G16KT 10SM CLR 28/09 A2978 RMK AO2 SLP086 T02830089 TSNO $
2026-04-08 03:52:00,METAR KTRM 080352Z AUTO 34008KT 10SM CLR 28/08 A2977 RMK AO2 SLP081 T02830078 TSNO $
2026-04-08 02:52:00,METAR KTRM 080252Z AUTO 33005KT 10SM CLR 25/03 A2974 RMK AO2 SLP072 T02500033 55001 TSNO $
2026-04-08 01:52:00,METAR KTRM 080152Z AUTO 15006KT 10SM CLR 30/02 A2973 RMK AO2 SLPNO T03000022 TSNO $
2026-04-08 00:52:00,METAR KTRM 080052Z AUTO 15006KT 10SM CLR 34/01 A2973 RMK AO2 SLPNO T03390011 TSNO $
2026-04-07 23:52:00,METAR KTRM 072352Z AUTO 14007KT 10SM CLR 35/00 A2974 RMK AO2 SLPNO T03500000 10361 20306 56021 TSNO $
2026-04-07 22:52:00,METAR KTRM 072252Z AUTO 12007G15KT 10SM CLR 36/00 A2975 RMK AO2 SLPNO T03560000 TSNO $
2026-04-07 21:52:00,METAR KTRM 072152Z AUTO 12009KT 090V150 10SM CLR 36/00 A2978 RMK AO2 SLPNO T03560000 TSNO $
2026-04-07 20:52:00,METAR KTRM 072052Z AUTO 14011G18KT 10SM CLR 36/01 A2980 RMK AO2 SLPNO T03560011 58025 TSNO $
2026-04-07 19:52:00,METAR KTRM 071952Z AUTO 19006KT 10SM CLR 34/02 A2982 RMK AO2 SLPNO T03440022 TSNO $
2026-04-07 18:52:00,METAR KTRM 071852Z AUTO VRB03KT 10SM CLR 32/02 A2985 RMK AO2 SLPNO T03170022 TSNO $
2026-04-07 17:52:00,METAR KTRM 071752Z AUTO 01004KT 10SM CLR 31/03 A2988 RMK AO2 SLPNO T03060033 58001 TSNO $
2026-04-07 16:52:00,METAR KTRM 071652Z AUTO 32008KT 10SM CLR 28/04 A2988 RMK AO2 SLPNO T02830039 TSNO $
2026-04-07 15:52:00,METAR KTRM 071552Z AUTO 29006KT 10SM CLR 26/06 A2989 RMK AO2 SLPNO T02610056 TSNO $
2026-04-07 14:52:00,METAR KTRM 071452Z AUTO 32008KT 10SM CLR 24/04 A2988 RMK AO2 SLPNO T02390044 53012 TSNO $
2026-04-07 13:52:00,METAR KTRM 071352Z AUTO 32010G20KT 10SM CLR A2986 RMK AO2 SLPNO TSNO $
2026-04-07 12:52:00,METAR KTRM 071252Z AUTO 33011KT 10SM CLR A2985 RMK AO2 SLPNO TSNO $
2026-04-07 11:52:00,METAR KTRM 071152Z AUTO 31009KT 10SM CLR A2984 RMK AO2 SLPNO 55003 TSNO $
2026-04-07 10:52:00,METAR KTRM 071052Z AUTO 31011KT 10SM CLR A2983 RMK AO2 SLPNO TSNO $
2026-04-07 09:52:00,METAR KTRM 070952Z AUTO 31011KT 10SM CLR A2984 RMK AO2 SLPNO TSNO $
2026-04-07 08:52:00,METAR KTRM 070852Z AUTO 32009KT 10SM CLR A2985 RMK AO2 SLPNO 51007 TSNO $
2026-04-07 07:52:00,METAR KTRM 070752Z AUTO 32012G19KT 10SM CLR A2985 RMK AO2 SLPNO TSNO $
2026-04-07 06:52:00,METAR KTRM 070652Z AUTO 33015G24KT 10SM CLR A2984 RMK AO2 PK WND 33029/0635 SLPNO TSNO $
2026-04-07 05:52:00,METAR KTRM 070552Z AUTO 33016G31KT 10SM CLR A2983 RMK AO2 PK WND 33031/0543 SLPNO 51014 TSNO $
2026-04-07 04:52:00,METAR KTRM 070452Z AUTO 34017G24KT 10SM CLR A2983 RMK AO2 PK WND 32029/0433 SLPNO TSNO $
2026-04-07 03:52:00,METAR KTRM 070352Z AUTO 32010G21KT 10SM CLR A2982 RMK AO2 PK WND 30027/0327 SLPNO TSNO $
2026-04-07 02:52:00,METAR KTRM 070252Z AUTO 33012G22KT 10SM CLR A2979 RMK AO2 PK WND 33027/0153 SLPNO 53007 TSNO $
2026-04-07 01:52:00,METAR KTRM 070152Z AUTO 33015G23KT 10SM CLR A2977 RMK AO2 SLPNO TSNO $
2026-04-07 00:52:00,METAR KTRM 070052Z AUTO 33012G19KT 10SM CLR A2977 RMK AO2 SLPNO TSNO $
2026-04-06 23:52:00,METAR KTRM 062352Z AUTO 33010KT 10SM CLR A2977 RMK AO2 SLPNO 56024 TSNO $
2026-04-06 22:52:00,METAR KTRM 062252Z AUTO 31003KT 10SM CLR A2978 RMK AO2 SLPNO TSNO $
2026-04-06 21:52:00,METAR KTRM 062152Z AUTO 30010G14KT 10SM CLR A2980 RMK AO2 PRESFR SLPNO TSNO $
2026-04-06 20:52:00,METAR KTRM 062052Z AUTO 31009KT 10SM CLR A2984 RMK AO2 SLPNO 58014 TSNO $
2026-04-06 19:52:00,METAR KTRM 061952Z AUTO 31010KT 10SM CLR A2986 RMK AO2 SLPNO TSNO $
2026-04-06 18:52:00,METAR KTRM 061852Z AUTO 29006KT 10SM CLR A2987 RMK AO2 SLPNO TSNO $
2026-04-06 17:52:00,METAR KTRM 061752Z AUTO 30006KT 10SM CLR A2988 RMK AO2 SLPNO 51007 TSNO $
2026-04-06 16:52:00,METAR KTRM 061652Z AUTO 33010G19KT 10SM CLR A2988 RMK AO2 SLPNO TSNO $
2026-04-06 15:52:00,METAR KTRM 061552Z AUTO 33014KT 10SM CLR A2987 RMK AO2 SLPNO TSNO $
2026-04-06 14:52:00,METAR KTRM 061452Z AUTO 32013G20KT 10SM CLR A2986 RMK AO2 SLPNO 53014 TSNO $
2026-04-06 13:52:00,METAR KTRM 061352Z AUTO 31005KT 10SM CLR A2984 RMK AO2 SLPNO TSNO $
2026-04-06 12:52:00,METAR KTRM 061252Z AUTO 30007KT 10SM CLR A2983 RMK AO2 SLPNO TSNO $
2026-04-06 11:52:00,METAR KTRM 061152Z AUTO 30008KT 10SM CLR A2982 RMK AO2 SLPNO 57010 TSNO $
2026-04-06 10:52:00,METAR KTRM 061052Z AUTO 30007KT 10SM CLR A2983 RMK AO2 SLPNO TSNO $
2026-04-06 09:52:00,METAR KTRM 060952Z AUTO 34011G16KT 10SM CLR A2984 RMK AO2 SLPNO TSNO $
2026-04-06 08:52:00,METAR KTRM 060852Z AUTO 33011KT 10SM CLR A2985 RMK AO2 SLPNO 57007 TSNO $
2026-04-06 07:52:00,METAR KTRM 060752Z AUTO 33010G19KT 10SM CLR A2986 RMK AO2 SLPNO TSNO $
2026-04-06 06:52:00,METAR KTRM 060652Z AUTO 31006KT 10SM CLR A2986 RMK AO2 SLPNO TSNO $
2026-04-06 05:52:00,METAR KTRM 060552Z AUTO 33007KT 10SM CLR A2987 RMK AO2 SLPNO 51010 TSNO $
2026-04-06 04:52:00,METAR KTRM 060452Z AUTO 30006KT 10SM CLR A2987 RMK AO2 SLPNO TSNO $
2026-04-06 03:52:00,METAR KTRM 060352Z AUTO 35006KT 10SM CLR A2986 RMK AO2 SLPNO TSNO $
2026-04-06 02:52:00,METAR KTRM 060252Z AUTO 00000KT 10SM CLR A2984 RMK AO2 SLPNO 55003 TSNO $
2026-04-06 01:52:00,METAR KTRM 060152Z AUTO 13004KT 10SM CLR A2983 RMK AO2 SLPNO TSNO $
2026-04-06 00:52:00,METAR KTRM 060052Z AUTO 17004KT 10SM CLR A2984 RMK AO2 SLPNO TSNO $
2026-04-05 23:52:00,METAR KTRM 052352Z AUTO 13005KT 10SM CLR A2985 RMK AO2 SLPNO 56017 TSNO $
2026-04-05 22:52:00,METAR KTRM 052252Z AUTO 13008G16KT 10SM CLR A2986 RMK AO2 SLPNO TSNO $
2026-04-05 21:52:00,METAR KTRM 052152Z AUTO VRB04G14KT 10SM CLR A2988 RMK AO2 SLPNO TSNO $
2026-04-05 20:52:00,METAR KTRM 052052Z AUTO VRB04KT 10SM CLR A2990 RMK AO2 SLPNO 57020 TSNO $
2026-04-05 19:52:00,METAR KTRM 051952Z AUTO 16006KT 10SM CLR A2992 RMK AO2 SLPNO TSNO $
2026-04-05 18:52:00,METAR KTRM 051852Z AUTO 23005KT 10SM CLR A2994 RMK AO2 SLPNO TSNO $
2026-04-05 17:52:00,METAR KTRM 051752Z AUTO 27005KT 10SM CLR A2996 RMK AO2 SLPNO 51002 TSNO $
2026-04-05 16:52:00,METAR KTRM 051652Z AUTO 31007KT 10SM A2996 RMK AO2 SLPNO TSNO $
2026-04-05 15:52:00,METAR KTRM 051552Z AUTO 36006KT 10SM CLR 24/M04 A2997 RMK AO2 SLP149 T02391044 TSNO $
2026-04-05 14:52:00,METAR KTRM 051452Z AUTO 34005KT 10SM CLR 20/M06 A2996 RMK AO2 SLP146 T02001061 53011 TSNO $
2026-04-05 12:52:00,METAR KTRM 051252Z AUTO 01007KT 10SM CLR 16/M07 A2993 RMK AO2 SLP135 T01611067 TSNO $
2026-04-05 11:52:00,METAR KTRM 051152Z AUTO 34008KT 10SM CLR 17/M06 A2993 RMK AO2 SLP136 T01721061 10194 20117 56007 TSNO $
2026-04-05 10:52:00,METAR KTRM 051052Z AUTO 01007KT 10SM CLR 17/M06 A2993 RMK AO2 SLP137 T01671061 TSNO $
2026-04-05 09:52:00,METAR KTRM 050952Z AUTO 36004KT 10SM CLR 17/M06 A2994 RMK AO2 SLP140 T01721061 TSNO $
2026-04-05 08:52:00,METAR KTRM 050852Z AUTO 35005KT 10SM CLR 16/M06 A2995 RMK AO2 SLP142 T01561061 58001 TSNO $
2026-04-05 07:52:00,METAR KTRM 050752Z AUTO 01003KT 10SM CLR 14/M05 A2996 RMK AO2 SLP145 T01441050 403280122 TSNO $
2026-04-05 06:52:00,METAR KTRM 050652Z AUTO 00000KT 10SM CLR 14/M05 A2995 RMK AO2 SLP144 T01441050 TSNO $
2026-04-05 05:52:00,METAR KTRM 050552Z AUTO 01005KT 10SM CLR 19/M06 A2995 RMK AO2 SLP143 T01941061 10328 20156 50011 TSNO $
2026-04-05 04:52:00,METAR KTRM 050452Z AUTO 00000KT 10SM CLR 17/M05 A2995 RMK AO2 SLP144 T01671050 TSNO $
2026-04-05 03:52:00,METAR KTRM 050352Z AUTO 00000KT 10SM CLR 19/M04 A2993 RMK AO2 SLP138 T01941044 TSNO $
2026-04-05 02:52:00,METAR KTRM 050252Z AUTO 31005KT 10SM CLR 22/M03 A2992 RMK AO2 SLP132 T02221033 53000 TSNO $
2026-04-05 01:52:00,METAR KTRM 050152Z AUTO 28004KT 10SM CLR 29/M07 A2991 RMK AO2 SLP130 T02891067 TSNO $
2026-04-05 00:52:00,METAR KTRM 050052Z AUTO 30005KT 10SM CLR 32/M11 A2991 RMK AO2 SLP128 T03171111 TSNO $
2026-04-04 23:52:00,METAR KTRM 042352Z AUTO 24004KT 10SM CLR 32/M11 A2992 RMK AO2 SLP142 T03221106 10328 20283 56024 TSNO $
2026-04-04 22:52:00,METAR KTRM 042252Z AUTO 10SM CLR 32/M11 A2993 RMK AO2 SLP137 T03221106 TSNO $
2026-04-04 21:52:00,METAR KTRM 042152Z AUTO VRB03KT 10SM CLR 32/M11 A2996 RMK AO2 SLP146 T03171106 TSNO $
2026-04-04 20:52:00,METAR KTRM 042052Z AUTO 31008KT 10SM CLR 31/M11 A2999 RMK AO2 SLP166 T03111106 58024 TSNO $
2026-04-04 19:52:00,METAR KTRM 041952Z AUTO 28003KT 10SM CLR 30/M11 A3001 RMK AO2 SLP165 T03001106 TSNO $
2026-04-04 18:52:00,METAR KTRM 041852Z AUTO 10SM CLR 29/M11 A3004 RMK AO2 SLP172 T02891106 TSNO $
2026-04-04 17:52:00,METAR KTRM 041752Z AUTO 35003KT 10SM CLR 28/M11 A3006 RMK AO2 SLP180 T02831111 10289 20139 50005 TSNO $
2026-04-04 16:52:00,METAR KTRM 041652Z AUTO 32010KT 10SM CLR 28/M10 A3006 RMK AO2 SLP181 T02781100 TSNO $
2026-04-04 15:52:00,METAR KTRM 041552Z AUTO 31008KT 10SM CLR 26/M09 A3005 RMK AO2 SLP177 T02611094 TSNO $
2026-04-04 14:52:00,METAR KTRM 041452Z AUTO 35003KT 10SM CLR 20/M05 A3004 RMK AO2 SLP174 T02001050 53012 TSNO $
2026-04-04 13:52:00,METAR KTRM 041352Z AUTO 32007KT 10SM CLR 19/M10 A3003 RMK AO2 SLP169 T01891100 TSNO $
2026-04-04 12:52:00,METAR KTRM 041252Z AUTO 34006KT 10SM CLR 15/M09 A3001 RMK AO2 SLP164 T01501089 TSNO $
2026-04-04 11:52:00,METAR KTRM 041152Z AUTO 33004KT 10SM CLR 18/M10 A3001 RMK AO2 SLP162 T01831100 10217 20150 57012 TSNO $
2026-04-04 10:52:00,METAR KTRM 041052Z AUTO 02005KT 10SM CLR 17/M10 A3002 RMK AO2 SLP166 T01671100 TSNO $
2026-04-04 09:52:00,METAR KTRM 040952Z AUTO 31008KT 10SM CLR 20/M11 A3003 RMK AO2 SLP170 T02001111 TSNO $
2026-04-04 08:52:00,METAR KTRM 040852Z AUTO 31007KT 10SM CLR 20/M11 A3004 RMK AO2 SLP173 T02001111 58004 TSNO $
2026-04-04 07:52:00,METAR KTRM 040752Z AUTO 30008KT 10SM CLR 18/M09 A3005 RMK AO2 SLP177 T01831094 402940156 TSNO $
2026-04-04 06:52:00,METAR KTRM 040652Z AUTO 31006KT 10SM CLR 19/M10 A3005 RMK AO2 SLP177 T01891100 TSNO $
2026-04-04 05:52:00,METAR KTRM 040552Z AUTO 32007KT 10SM CLR 21/M11 A3005 RMK AO2 SLP177 T02111106 10289 20211 50014 TSNO $
2026-04-04 04:52:00,METAR KTRM 040452Z AUTO 29008KT 10SM CLR 22/M12 A3005 RMK AO2 SLP178 T02171117 TSNO $
2026-04-04 03:52:00,METAR KTRM 040352Z AUTO 34007KT 10SM CLR 23/M12 A3004 RMK AO2 SLP172 T02281117 TSNO $
2026-04-04 02:52:00,METAR KTRM 040252Z AUTO 35008KT 10SM CLR 25/M13 A3001 RMK AO2 SLP163 T02501133 53008 TSNO $
2026-04-04 01:52:00,METAR KTRM 040152Z AUTO 35007KT 10SM CLR 26/M13 A3000 RMK AO2 SLP158 T02561128 TSNO $
2026-04-04 00:52:00,METAR KTRM 040052Z AUTO 34008KT 10SM CLR 28/M12 A2998 RMK AO2 SLP152 T02781122 TSNO $
2026-04-03 23:52:00,METAR KTRM 032352Z AUTO 35007G16KT 10SM CLR 28/M12 A2999 RMK AO2 SLP155 T02831117 10294 20261 56013 TSNO $
2026-04-03 22:52:00,METAR KTRM 032252Z AUTO 35010G18KT 10SM CLR 28/M09 A2999 RMK AO2 SLP158 T02831094 TSNO $
2026-04-03 21:52:00,METAR KTRM 032152Z AUTO 30012KT 10SM CLR 29/M09 A3001 RMK AO2 SLP163 T02891089 TSNO $
2026-04-03 20:52:00,METAR KTRM 032052Z AUTO 34010G18KT 310V020 10SM CLR 28/M11 A3002 RMK AO2 SLP168 T02781111 58010 TSNO $
2026-04-03 19:52:00,METAR KTRM 031952Z AUTO 33011G23KT 10SM CLR 28/M11 A3004 RMK AO2 SLP175 T02781106 TSNO $
2026-04-03 18:52:00,METAR KTRM 031852Z AUTO 35009G19KT 10SM CLR 28/M09 A3005 RMK AO2 SLP178 T02781094 TSNO $
2026-04-03 17:52:00,METAR KTRM 031752Z AUTO 34011G24KT 10SM CLR 27/M09 A3005 RMK AO2 SLP179 T02671094 10267 20156 51022 TSNO $
2026-04-03 16:52:00,METAR KTRM 031652Z AUTO 34010KT 10SM CLR 26/M07 A3004 RMK AO2 SLP175 T02561072 TSNO $
2026-04-03 15:52:00,METAR KTRM 031552Z AUTO 32013G23KT 10SM CLR 24/M05 A3002 RMK AO2 SLP168 T02441050 TSNO $
2026-04-03 14:52:00,METAR KTRM 031452Z AUTO 30006KT 10SM CLR 23/M02 A2999 RMK AO2 SLP156 T02281017 53033 TSNO $
2026-04-03 13:52:00,METAR KTRM 031352Z AUTO 31010KT 10SM CLR 22/M02 A2995 RMK AO2 SLP143 T02171017 TSNO $
2026-04-03 12:52:00,METAR KTRM 031252Z AUTO 31004KT 10SM CLR 16/08 A2992 RMK AO2 SLP132 T01610078 TSNO $
2026-04-03 11:52:00,METAR KTRM 031152Z AUTO 34006KT 10SM CLR 18/09 A2989 RMK AO2 SLP123 T01780094 10217 20178 53008 TSNO
2026-04-03 10:52:00,METAR KTRM 031052Z AUTO 33007KT 10SM CLR 19/09 A2987 RMK AO2 SLP117 T01890089 TSNO
2026-04-03 09:52:00,METAR KTRM 030952Z AUTO 35008KT 10SM CLR 19/10 A2987 RMK AO2 SLP116 T01890100 TSNO
2026-04-03 08:52:00,METAR KTRM 030852Z AUTO 31009KT 10SM CLR 19/10 A2987 RMK AO2 SLP114 T01940100 51015 TSNO
2026-04-03 07:52:00,METAR KTRM 030752Z AUTO 33014KT 10SM CLR 21/09 A2986 RMK AO2 SLP111 T02060094 402780172 TSNO
2026-04-03 06:52:00,METAR KTRM 030652Z AUTO 34010G20KT 10SM CLR 21/09 A2985 RMK AO2 PK WND 33026/0623 SLP108 T02110094 TSNO
2026-04-03 05:52:00,METAR KTRM 030552Z AUTO 32016G25KT 10SM CLR 22/09 A2982 RMK AO2 PK WND 33028/0526 SLP100 T02170089 10278 20217 51024 TSNO
2026-04-03 04:52:00,METAR KTRM 030452Z AUTO 32015G24KT 10SM CLR 22/09 A2981 RMK AO2 SLP096 T02220089 TSNO
2026-04-03 03:52:00,METAR KTRM 030352Z AUTO 33015G23KT 10SM CLR 23/08 A2978 RMK AO2 SLP086 T02280083 TSNO
2026-04-03 02:52:00,METAR KTRM 030252Z AUTO 33012KT 10SM CLR 24/08 A2975 RMK AO2 SLP076 T02390078 53009 TSNO
2026-04-03 01:52:00,METAR KTRM 030152Z AUTO 33006KT 10SM CLR 26/07 A2974 RMK AO2 SLP072 T02560067 TSNO
2026-04-03 00:52:00,METAR KTRM 030052Z AUTO 21006KT 10SM CLR 27/06 A2973 RMK AO2 SLP067 T02720061 TSNO
2026-04-02 23:52:00,METAR KTRM 022352Z AUTO 28007KT 10SM CLR 28/06 A2972 RMK AO2 SLP066 T02780061 10278 20228 56024 TSNO
2026-04-02 22:52:00,METAR KTRM 022252Z AUTO 27006KT 10SM CLR 27/06 A2973 RMK AO2 SLP070 T02670061 TSNO
2026-04-02 21:52:00,METAR KTRM 022152Z AUTO 26004KT 10SM CLR 26/06 A2976 RMK AO2 SLP080 T02610056 TSNO $
2026-04-02 20:52:00,METAR KTRM 022052Z AUTO 34007KT 10SM CLR 26/06 A2980 RMK AO2 SLP091 T02560056 58020 TSNO $
2026-04-02 19:52:00,METAR KTRM 021952Z AUTO 34009G18KT 10SM CLR 24/06 A2983 RMK AO2 SLP102 T02440061 TSNO $
2026-04-02 18:52:00,METAR KTRM 021852Z AUTO 33011KT 10SM CLR 23/07 A2984 RMK AO2 SLP106 T02280067 TSNO $
2026-04-02 17:52:00,METAR KTRM 021752Z AUTO 33014G22KT 10SM CLR 23/07 A2985 RMK AO2 SLP111 T02280067 10233 20172 53012 TSNO $
2026-04-02 16:52:00,METAR KTRM 021652Z AUTO 33016G25KT 10SM CLR 22/07 A2984 RMK AO2 PK WND 32028/1601 SLP107 T02220072 TSNO $
2026-04-02 15:52:00,METAR KTRM 021552Z AUTO 33015G24KT 10SM CLR 22/07 A2983 RMK AO2 SLP101 T02220072 TSNO $
2026-04-02 14:52:00,METAR KTRM 021452Z AUTO 33014G21KT 10SM CLR 20/07 A2982 RMK AO2 SLP099 T02000072 53005 TSNO $
2026-04-02 13:52:00,METAR KTRM 021352Z AUTO 33009KT 10SM CLR 19/07 A2981 RMK AO2 SLP096 T01890072 TSNO $
2026-04-02 12:52:00,METAR KTRM 021252Z AUTO 30007KT 10SM CLR 18/07 A2980 RMK AO2 SLP094 T01780072 TSNO $
2026-04-02 11:52:00,METAR KTRM 021152Z AUTO 31009KT 9SM CLR 19/07 A2980 RMK AO2 SLP095 T01890072 10211 20183 55008 TSNO $
2026-04-02 10:52:00,METAR KTRM 021052Z AUTO 32008KT 10SM CLR 19/08 A2980 RMK AO2 SLP093 T01890078 TSNO
2026-04-02 09:52:00,METAR KTRM 020952Z AUTO 29007G21KT 10SM CLR 19/07 A2981 RMK AO2 SLP096 T01940072 TSNO
2026-04-02 08:52:00,METAR KTRM 020852Z AUTO 32011G22KT 10SM CLR 20/07 A2983 RMK AO2 SLP103 T02000067 53002 TSNO
2026-04-02 07:52:00,METAR KTRM 020752Z AUTO 33014G24KT 10SM CLR 20/08 A2983 RMK AO2 PK WND 34026/0732 SLP104 T02000078 403000167 TSNO
2026-04-02 06:52:00,METAR KTRM 020652Z AUTO 33014G27KT 10SM CLR 21/08 A2982 RMK AO2 PK WND 33029/0620 SLP100 T02060078 TSNO
2026-04-02 05:52:00,METAR KTRM 020552Z AUTO 33021G27KT 10SM CLR 21/07 A2982 RMK AO2 PK WND 34029/0526 SLP101 T02110072 10294 20211 51014 TSNO
2026-04-02 04:52:00,METAR KTRM 020452Z AUTO 34018G29KT 10SM CLR 22/07 A2981 RMK AO2 PK WND 34030/0418 SLP096 T02220072 TSNO
2026-04-02 03:52:00,METAR KTRM 020352Z AUTO 33018KT 10SM CLR 23/06 A2980 RMK AO2 PK WND 33028/0332 SLP093 T02330061 TSNO
2026-04-02 02:52:00,METAR KTRM 020252Z AUTO 33017G25KT 10SM CLR 24/06 A2978 RMK AO2 SLP086 T02440061 53009 TSNO
2026-04-02 01:52:00,METAR KTRM 020152Z AUTO 33013KT 10SM CLR 27/06 A2977 RMK AO2 SLP081 T02670056 TSNO
2026-04-02 00:52:00,METAR KTRM 020052Z AUTO 30008KT 10SM CLR 29/06 A2976 RMK AO2 SLP078 T02890061 TSNO
2026-04-01 23:52:00,METAR KTRM 012352Z AUTO 35008KT 10SM CLR 29/05 A2976 RMK AO2 SLP087 T02940050 10300 20261 56022 TSNO
2026-04-01 22:52:00,METAR KTRM 012252Z AUTO VRB03KT 10SM CLR 29/04 A2978 RMK AO2 SLP085 T02890044 TSNO
2026-04-01 21:52:00,METAR KTRM 012152Z AUTO 10SM CLR 29/04 A2979 RMK AO2 SLP100 T02890039 TSNO
2026-04-01 20:52:00,METAR KTRM 012052Z AUTO 29008G20KT 270V330 10SM CLR 29/04 A2982 RMK AO2 SLP100 T02940044 58020 TSNO
2026-04-01 19:52:00,METAR KTRM 011952Z AUTO 32009G15KT 10SM CLR 29/04 A2985 RMK AO2 SLP110 T02890044 TSNO
2026-04-01 18:52:00,METAR KTRM 011852Z AUTO 31012G16KT 10SM CLR 28/06 A2987 RMK AO2 SLP126 T02780056 TSNO
2026-04-01 17:52:00,METAR KTRM 011752Z AUTO 32009KT 10SM CLR 27/07 A2988 RMK AO2 SLP129 T02670067 10267 20167 51004 TSNO
2026-04-01 16:52:00,METAR KTRM 011652Z AUTO 34008KT 10SM CLR 25/08 A2988 RMK AO2 SLP120 T02500083 TSNO
2026-04-01 15:52:00,METAR KTRM 011552Z AUTO 32008KT 10SM CLR 23/09 A2987 RMK AO2 SLP116 T02330094 TSNO
2026-04-01 14:52:00,METAR KTRM 011452Z AUTO 02004KT 10SM CLR 21/10 A2987 RMK AO2 SLP114 T02110100 53024 TSNO
2026-04-01 13:52:00,METAR KTRM 011352Z AUTO 21005KT 10SM FEW090 17/09 A2984 RMK AO2 SLP106 T01670094 TSNO
2026-04-01 12:52:00,METAR KTRM 011252Z AUTO 26003KT 10SM FEW080 SCT100 19/10 A2981 RMK AO2 SLP095 T01890100 TSNO
2026-04-01 11:52:00,METAR KTRM 011152Z AUTO 33004KT 10SM OVC080 21/09 A2979 RMK AO2 SLP091 T02110094 10244 20200 56004 TSNO
2026-04-01 10:52:00,METAR KTRM 011052Z AUTO 02005KT 10SM CLR 21/07 A2980 RMK AO2 SLP101 T02110072 TSNO
2026-04-01 09:52:00,METAR KTRM 010952Z AUTO 36007KT 10SM CLR 22/07 A2978 RMK AO2 SLP087 T02220067 TSNO
2026-04-01 08:52:00,METAR KTRM 010852Z AUTO 29007KT 10SM CLR 23/06 A2981 RMK AO2 SLP095 T02280061 58002 TSNO
2026-04-01 07:52:00,METAR KTRM 010752Z AUTO 34010G20KT 10SM CLR 23/07 A2982 RMK AO2 SLP110 T02330067 403000217 TSNO
2026-04-01 06:52:00,METAR KTRM 010652Z AUTO 32011KT 10SM CLR 23/09 A2983 RMK AO2 SLP114 T02330089 TSNO
2026-04-01 05:52:00,METAR KTRM 010552Z AUTO 30011KT 10SM CLR 24/09 A2981 RMK AO2 PK WND 30026/0528 SLP106 T02390094 10283 20239 50015 TSNO
2026-04-01 04:52:00,METAR KTRM 010452Z AUTO 33014KT 10SM CLR 24/09 A2981 RMK AO2 SLP097 T02440094 TSNO
2026-04-01 03:52:00,METAR KTRM 010352Z AUTO 33010KT 10SM CLR 26/08 A2979 RMK AO2 PK WND 35032/0308 SLP100 T02560078 TSNO
2026-04-01 02:52:00,METAR KTRM 010252Z AUTO 34014G22KT 10SM CLR 25/11 A2977 RMK AO2 PK WND 35027/0232 SLP081 T02500111 51006 TSNO
2026-04-01 01:52:00,METAR KTRM 010152Z AUTO 33013KT 10SM CLR 27/10 A2975 RMK AO2 SLP086 T02720100 TSNO
2026-04-01 00:52:00,METAR KTRM 010052Z AUTO 31010KT 10SM CLR 28/10 A2977 RMK AO2 SLP084 T02780100 TSNO
2026-03-31 23:52:00,METAR KTRM 312352Z AUTO 15004KT 10SM CLR 28/11 A2975 RMK AO2 SLP076 T02830106 10300 20261 56021 TSNO
2026-03-31 22:52:00,METAR KTRM 312252Z AUTO 12006KT 10SM CLR 29/07 A2977 RMK AO2 SLP082 T02940072 TSNO
2026-03-31 21:52:00,METAR KTRM 312152Z AUTO 13010G17KT 10SM CLR 29/11 A2978 RMK AO2 SLP087 T02940111 TSNO
2026-03-31 20:52:00,METAR KTRM 312052Z AUTO 14010KT 10SM CLR 29/13 A2981 RMK AO2 SLP097 T02940133 58023 TSNO
2026-03-31 19:52:00,METAR KTRM 311952Z AUTO 14007KT 10SM CLR 28/12 A2985 RMK AO2 SLP111 T02780122 TSNO
2026-03-31 18:52:00,METAR KTRM 311852Z AUTO 14008KT 10SM CLR 27/12 A2985 RMK AO2 SLP111 T02720117 TSNO
2026-03-31 17:52:00,METAR KTRM 311752Z AUTO 00000KT 10SM CLR 27/09 A2988 RMK AO2 SLP119 T02670089 10267 20217 53011 TSNO
2026-03-31 16:52:00,METAR KTRM 311652Z AUTO 00000KT 10SM CLR 25/09 A2986 RMK AO2 SLP114 T02500094 TSNO
2026-03-31 15:52:00,METAR KTRM 311552Z AUTO VRB03KT 10SM CLR 26/06 A2985 RMK AO2 SLP111 T02560061 TSNO
2026-03-31 14:52:00,METAR KTRM 311452Z AUTO 08003KT 10SM CLR 23/07 A2984 RMK AO2 SLP108 T02280072 53017 TSNO
2026-03-31 13:52:00,METAR KTRM 311352Z AUTO 00000KT 10SM CLR 23/07 A2983 RMK AO2 SLP102 T02330072 TSNO
2026-03-31 12:52:00,METAR KTRM 311252Z AUTO 00000KT 10SM CLR 22/05 A2981 RMK AO2 SLP095 T02170050 TSNO
2026-03-31 11:52:00,METAR KTRM 311152Z AUTO 00000KT 10SM CLR 23/05 A2979 RMK AO2 SLP091 T02330050 10272 20222 56006 TSNO
2026-03-31 10:52:00,METAR KTRM 311052Z AUTO 01004KT 10SM CLR 24/05 A2980 RMK AO2 SLP092 T02390050 TSNO
2026-03-31 09:52:00,METAR KTRM 310952Z AUTO 34005KT 10SM CLR 24/06 A2979 RMK AO2 SLPNO T02390061 TSNO
2026-03-31 08:52:00,METAR KTRM 310852Z AUTO 27007KT 10SM CLR 26/07 A2981 RMK AO2 SLPNO T02610067 58004 TSNO
2026-03-31 07:52:00,METAR KTRM 310752Z AUTO 00000KT 10SM CLR 27/06 A2982 RMK AO2 SLPNO T02720061 TSNO
2026-03-31 06:52:00,METAR KTRM 310652Z AUTO 32010KT 10SM CLR 27/06 A2983 RMK AO2 SLPNO T02720061 TSNO
2026-03-31 05:52:00,METAR KTRM 310552Z AUTO 33009KT 10SM CLR 27/06 A2982 RMK AO2 SLPNO T02720056 10339 20272 50009 TSNO
2026-03-31 04:52:00,METAR KTRM 310452Z AUTO 33013KT 10SM CLR 28/06 A2983 RMK AO2 SLPNO T02780061 TSNO
2026-03-31 03:52:00,METAR KTRM 310352Z AUTO 34012G22KT 10SM CLR 29/07 A2982 RMK AO2 SLPNO T02890067 TSNO
2026-03-31 02:52:00,METAR KTRM 310252Z AUTO 35015G22KT 10SM CLR 30/06 A2980 RMK AO2 SLPNO T03000061 52002 TSNO
2026-03-31 01:52:00,METAR KTRM 310152Z AUTO 34011KT 10SM CLR 31/03 A2979 RMK AO2 SLPNO T03110033 TSNO
2026-03-31 00:52:00,METAR KTRM 310052Z AUTO 35011KT 10SM CLR 33/M02 A2979 RMK AO2 SLPNO T03281022 TSNO
2026-03-30 23:52:00,METAR KTRM 302352Z AUTO 36013G19KT 10SM CLR 34/M04 A2979 RMK AO2 SLPNO T03391039 56022 TSNO
2026-03-30 22:52:00,METAR KTRM 302252Z AUTO 33012KT 10SM CLR 35/M04 A2980 RMK AO2 SLPNO T03501044 TSNO
2026-03-30 21:52:00,METAR KTRM 302152Z AUTO 29006KT 10SM CLR A2982 RMK AO2 SLPNO TSNO $
2026-03-30 20:52:00,METAR KTRM 302052Z AUTO 29009G17KT 10SM CLR A2985 RMK AO2 SLPNO 57024 TSNO $
2026-03-30 19:52:00,METAR KTRM 301952Z AUTO 31004KT 10SM CLR A2987 RMK AO2 SLPNO TSNO $
2026-03-30 18:52:00,METAR KTRM 301852Z AUTO 33008KT 10SM CLR A2990 RMK AO2 SLPNO TSNO $
2026-03-30 17:52:00,METAR KTRM 301752Z AUTO 33004KT 9SM CLR A2992 RMK AO2 SLPNO 51003 TSNO $
2026-03-30 16:52:00,METAR KTRM 301652Z AUTO VRB04KT 10SM CLR A2992 RMK AO2 SLPNO TSNO $
2026-03-30 15:52:00,METAR KTRM 301552Z AUTO 34006KT 10SM CLR A2992 RMK AO2 SLPNO TSNO $
2026-03-30 14:52:00,METAR KTRM 301452Z AUTO 36004KT 10SM CLR A2991 RMK AO2 SLPNO 52010 TSNO $
2026-03-30 13:52:00,METAR KTRM 301352Z AUTO 36005KT 10SM CLR A2990 RMK AO2 SLPNO TSNO $
2026-03-30 12:52:00,METAR KTRM 301252Z AUTO 33004KT 10SM CLR A2989 RMK AO2 SLPNO TSNO $
2026-03-30 11:52:00,METAR KTRM 301152Z AUTO 00000KT 10SM CLR A2988 RMK AO2 SLPNO 53003 TSNO $
2026-03-30 10:52:00,METAR KTRM 301052Z AUTO 19003KT 10SM CLR A2987 RMK AO2 SLPNO TSNO $
2026-03-30 09:52:00,METAR KTRM 300952Z AUTO 23004KT 10SM CLR A2986 RMK AO2 SLPNO TSNO $
2026-03-30 08:52:00,METAR KTRM 300852Z AUTO 15010KT 10SM CLR A2987 RMK AO2 SLPNO 53020 TSNO $
2026-03-30 07:52:00,METAR KTRM 300752Z AUTO 12014G24KT 10SM CLR A2985 RMK AO2 SLPNO TSNO $
2026-03-30 06:52:00,METAR KTRM 300652Z AUTO 35003KT 10SM CLR A2982 RMK AO2 SLPNO TSNO $
2026-03-30 05:52:00,METAR KTRM 300552Z AUTO 31007KT 10SM CLR A2981 RMK AO2 SLPNO 51020 TSNO $
2026-03-30 04:52:00,METAR KTRM 300452Z AUTO 36004KT 10SM CLR A2980 RMK AO2 SLPNO TSNO $
2026-03-30 03:52:00,METAR KTRM 300352Z AUTO 33009KT 10SM CLR A2978 RMK AO2 SLPNO TSNO $
2026-03-30 02:52:00,METAR KTRM 300252Z AUTO 27014G18KT 10SM CLR A2975 RMK AO2 SLPNO 55003 TSNO $
2026-03-30 01:52:00,METAR KTRM 300152Z AUTO 00000KT 10SM CLR A2974 RMK AO2 SLPNO TSNO $
2026-03-30 00:52:00,METAR KTRM 300052Z AUTO 17003KT 10SM CLR A2975 RMK AO2 SLPNO TSNO $
2026-03-29 23:52:00,METAR KTRM 292352Z AUTO VRB03KT 10SM CLR A2976 RMK AO2 SLPNO 56024 TSNO $
2026-03-29 22:52:00,METAR KTRM 292252Z AUTO 00000KT 10SM CLR A2978 RMK AO2 SLPNO TSNO $
2026-03-29 21:52:00,METAR KTRM 292152Z AUTO 36003KT 10SM CLR A2980 RMK AO2 SLPNO TSNO $
2026-03-29 20:52:00,METAR KTRM 292052Z AUTO VRB04KT 10SM CLR A2983 RMK AO2 SLPNO 58024 TSNO $
2026-03-29 19:52:00,METAR KTRM 291952Z AUTO VRB05KT 10SM CLR A2986 RMK AO2 SLPNO TSNO $
2026-03-29 18:52:00,METAR KTRM 291852Z AUTO 14005KT 10SM CLR A2989 RMK AO2 SLPNO TSNO $
2026-03-29 17:52:00,METAR KTRM 291752Z AUTO VRB06KT 10SM CLR A2990 RMK AO2 SLPNO 51024 TSNO $
2026-03-29 16:52:00,METAR KTRM 291652Z AUTO 13011KT 10SM CLR A2989 RMK AO2 SLPNO TSNO $
2026-03-29 15:52:00,METAR KTRM 291552Z AUTO 13014G21KT 10SM CLR A2988 RMK AO2 SLPNO TSNO $
2026-03-29 14:52:00,METAR KTRM 291452Z AUTO 00000KT 10SM CLR A2983 RMK AO2 SLPNO 52017 TSNO $
2026-03-29 13:52:00,METAR KTRM 291352Z AUTO 04005KT 10SM CLR A2981 RMK AO2 SLPNO TSNO $
2026-03-29 12:52:00,METAR KTRM 291252Z AUTO 09003KT 10SM CLR A2980 RMK AO2 SLPNO TSNO $
2026-03-29 11:52:00,METAR KTRM 291152Z AUTO 01006KT 10SM CLR A2978 RMK AO2 SLPNO 57007 TSNO $
2026-03-29 10:52:00,METAR KTRM 291052Z AUTO 33012KT 10SM CLR A2978 RMK AO2 SLPNO TSNO $
2026-03-29 09:52:00,METAR KTRM 290952Z AUTO 33014KT 10SM CLR A2980 RMK AO2 SLPNO TSNO $
2026-03-29 08:52:00,METAR KTRM 290852Z AUTO 33017G22KT 10SM CLR A2980 RMK AO2 SLPNO 58010 TSNO $
2026-03-29 07:52:00,METAR KTRM 290752Z AUTO 33014KT 10SM CLR A2982 RMK AO2 SLPNO TSNO $
2026-03-29 06:52:00,METAR KTRM 290652Z AUTO 34008KT 10SM CLR A2984 RMK AO2 SLPNO TSNO $
2026-03-29 05:52:00,METAR KTRM 290552Z AUTO 34010KT 10SM CLR A2983 RMK AO2 SLPNO 51014 TSNO $
2026-03-29 04:52:00,METAR KTRM 290452Z AUTO 35011KT 10SM CLR A2983 RMK AO2 SLPNO TSNO $
2026-03-29 03:52:00,METAR KTRM 290352Z AUTO 33005KT 10SM CLR A2981 RMK AO2 SLPNO TSNO $
2026-03-29 02:52:00,METAR KTRM 290252Z AUTO 26010KT 10SM CLR A2979 RMK AO2 SLPNO 53007 TSNO $
2026-03-29 01:52:00,METAR KTRM 290152Z AUTO 00000KT 10SM CLR A2977 RMK AO2 SLPNO TSNO $
2026-03-29 00:52:00,METAR KTRM 290052Z AUTO 00000KT 10SM CLR A2977 RMK AO2 SLPNO TSNO $
2026-03-28 23:52:00,METAR KTRM 282352Z AUTO 14006KT 10SM CLR A2977 RMK AO2 SLPNO 56024 TSNO $
2026-03-28 22:52:00,METAR KTRM 282252Z AUTO 11007KT 10SM CLR A2979 RMK AO2 SLPNO TSNO $
2026-03-28 21:52:00,METAR KTRM 282152Z AUTO 13009KT 10SM CLR A2981 RMK AO2 SLPNO TSNO $
2026-03-28 20:52:00,METAR KTRM 282052Z AUTO VRB03KT 10SM CLR A2984 RMK AO2 SLPNO 57020 TSNO $
2026-03-28 19:52:00,METAR KTRM 281952Z AUTO 18006KT 10SM CLR A2986 RMK AO2 SLPNO TSNO $
2026-03-28 18:52:00,METAR KTRM 281852Z AUTO 12008KT 10SM CLR A2988 RMK AO2 SLPNO TSNO $
2026-03-28 17:52:00,METAR KTRM 281752Z AUTO 19003KT 10SM CLR A2990 RMK AO2 SLPNO 51008 TSNO $
2026-03-28 16:52:00,METAR KTRM 281652Z AUTO VRB03KT 10SM CLR A2990 RMK AO2 SLPNO TSNO $
2026-03-28 15:52:00,METAR KTRM 281552Z AUTO 00000KT 10SM CLR 28/M04 A2989 RMK AO2 SLP123 T02781039 TSNO
2026-03-28 14:52:00,METAR KTRM 281452Z AUTO 21004KT 10SM CLR 20/03 A2988 RMK AO2 SLP120 T02000033 53014 TSNO
2026-03-28 13:52:00,METAR KTRM 281352Z AUTO 35004KT 10SM CLR 14/01 A2986 RMK AO2 SLP113 T01440011 TSNO
2026-03-28 12:52:00,METAR KTRM 281252Z AUTO 00000KT 10SM CLR 13/01 A2985 RMK AO2 SLP109 T01280011 TSNO
2026-03-28 11:52:00,METAR KTRM 281152Z AUTO 00000KT 10SM CLR 16/01 A2984 RMK AO2 SLP107 T01560006 10278 20156 56003 TSNO
2026-03-28 10:52:00,METAR KTRM 281052Z AUTO 10003KT 10SM CLR 16/01 A2984 RMK AO2 SLP107 T01610006 TSNO
2026-03-28 09:52:00,METAR KTRM 280952Z AUTO 00000KT 10SM CLR 19/M01 A2984 RMK AO2 SLP108 T01941006 TSNO
2026-03-28 08:52:00,METAR KTRM 280852Z AUTO 34004KT 10SM CLR 22/M03 A2985 RMK AO2 SLP118 T02221028 50001 TSNO
2026-03-28 07:52:00,METAR KTRM 280752Z AUTO 02006KT 10SM CLR 23/M03 A2985 RMK AO2 SLP120 T02331028 TSNO
2026-03-28 06:52:00,METAR KTRM 280652Z AUTO 05003KT 10SM CLR 26/M04 A2985 RMK AO2 SLP112 T02611044 TSNO
2026-03-28 05:52:00,METAR KTRM 280552Z AUTO 35005KT 10SM CLR 28/M04 A2985 RMK AO2 SLP118 T02781039 10378 20278 51020 TSNO
2026-03-28 04:52:00,METAR KTRM 280452Z AUTO 33013KT 10SM CLR 31/M03 A2983 RMK AO2 SLP105 T03111033 TSNO
2026-03-28 03:52:00,METAR KTRM 280352Z AUTO 33009KT 10SM CLR 30/M05 A2982 RMK AO2 SLP098 T03001050 TSNO
2026-03-28 02:52:00,METAR KTRM 280252Z AUTO 10SM CLR 29/01 A2979 RMK AO2 SLPNO T02940011 53013 TSNO
2026-03-28 01:52:00,METAR KTRM 280152Z AUTO 18006KT 10SM CLR 32/02 A2977 RMK AO2 SLPNO T03220017 TSNO
2026-03-28 00:52:00,METAR KTRM 280052Z AUTO 14005KT 10SM CLR 37/M01 A2975 RMK AO2 SLPNO T03671006 TSNO
2026-03-27 23:52:00,METAR KTRM 272352Z AUTO 13009KT 10SM CLR 38/M01 A2975 RMK AO2 SLPNO T03781011 10389 20333 56017 TSNO
2026-03-27 22:52:00,METAR KTRM 272252Z AUTO 14009G18KT 10SM CLR 38/M01 A2976 RMK AO2 SLPNO T03831006 TSNO
2026-03-27 21:52:00,METAR KTRM 272152Z AUTO 13011G20KT 10SM CLR 39/01 A2977 RMK AO2 SLPNO T03890006 TSNO
2026-03-27 20:52:00,METAR KTRM 272052Z AUTO 13010G17KT 10SM CLR 38/03 A2980 RMK AO2 SLPNO T03830033 58022 TSNO
2026-03-27 19:52:00,METAR KTRM 271952Z AUTO 16006KT 10SM CLR 38/03 A2982 RMK AO2 SLPNO T03780028 TSNO
2026-03-27 18:52:00,METAR KTRM 271852Z AUTO 32004KT 10SM CLR 36/03 A2984 RMK AO2 SLPNO T03560028 TSNO
2026-03-27 17:52:00,METAR KTRM 271752Z AUTO 31003KT 10SM CLR 33/04 A2986 RMK AO2 SLPNO T03330044 50002 TSNO
2026-03-27 16:52:00,METAR KTRM 271652Z AUTO 34005KT 10SM CLR 31/07 A2986 RMK AO2 SLPNO T03110072 TSNO
2026-03-25 14:52:00,METAR KTRM 251452Z AUTO 00000KT 10SM CLR 19/12 A2991 RMK AO2 SLP129 T01940122 53010 TSNO
2026-03-25 13:52:00,METAR KTRM 251352Z AUTO 04003KT 10SM CLR 14/11 A2989 RMK AO2 SLP124 T01390106 TSNO
2026-03-25 11:52:00,METAR KTRM 251152Z AUTO 27004KT 10SM CLR 17/11 A2988 RMK AO2 SLP119 T01670111 10217 20156 55002 TSNO
2026-03-25 10:52:00,METAR KTRM 251052Z AUTO 00000KT 10SM CLR 18/11 A2987 RMK AO2 SLP125 T01780111 TSNO
2026-03-25 09:52:00,METAR KTRM 250952Z AUTO 00000KT 10SM CLR 16/11 A2988 RMK AO2 SLP120 T01610111 TSNO
2026-03-25 08:52:00,METAR KTRM 250852Z AUTO 35003KT 10SM CLR 18/11 A2988 RMK AO2 SLP122 T01830111 50000 TSNO
2026-03-25 07:52:00,METAR KTRM 250752Z AUTO 00000KT 10SM CLR 19/12 A2989 RMK AO2 SLP122 T01890117 403390150 TSNO
2026-03-25 06:52:00,METAR KTRM 250652Z AUTO 33003KT 10SM CLR 20/12 A2988 RMK AO2 SLP121 T02000122 TSNO
2026-03-25 05:52:00,METAR KTRM 250552Z AUTO 00000KT 10SM CLR 22/12 A2988 RMK AO2 SLP121 T02170122 10333 20211 51011 TSNO
2026-03-25 04:52:00,METAR KTRM 250452Z AUTO 33003KT 10SM CLR 22/12 A2988 RMK AO2 SLP118 T02170122 TSNO
2026-03-25 03:52:00,METAR KTRM 250352Z AUTO 34003KT 10SM CLR 23/12 A2986 RMK AO2 SLP113 T02330122 TSNO
2026-03-25 02:52:00,METAR KTRM 250252Z AUTO 19003KT 10SM CLR 25/12 A2985 RMK AO2 SLP109 T02500122 53006 TSNO
2026-03-25 01:52:00,METAR KTRM 250152Z AUTO 16005KT 10SM CLR 29/12 A2984 RMK AO2 SLP105 T02890122 TSNO
2026-03-25 00:52:00,METAR KTRM 250052Z AUTO 14008KT 10SM CLR 32/12 A2983 RMK AO2 SLP103 T03170122 TSNO
2026-03-24 23:52:00,METAR KTRM 242352Z AUTO 14009KT 10SM CLR 33/13 A2983 RMK AO2 SLP113 T03330128 10339 20267 56025 TSNO
2026-03-24 22:52:00,METAR KTRM 242252Z AUTO 16007KT 10SM CLR 33/13 A2985 RMK AO2 SLP111 T03280128 TSNO
2026-03-24 21:52:00,METAR KTRM 242152Z AUTO 13006KT 10SM CLR 33/13 A2987 RMK AO2 SLP118 T03280128 TSNO
2026-03-24 20:52:00,METAR KTRM 242052Z AUTO 12006KT 10SM CLR 31/14 A2991 RMK AO2 SLP129 T03110139 58019 TSNO
2026-03-24 19:52:00,METAR KTRM 241952Z AUTO VRB06KT 10SM CLR 30/14 A2993 RMK AO2 SLP138 T03000139 TSNO
2026-03-24 18:52:00,METAR KTRM 241852Z AUTO VRB05KT 10SM CLR 28/15 A2995 RMK AO2 SLP144 T02830150 TSNO
2026-03-24 17:52:00,METAR KTRM 241752Z AUTO 14005KT 10SM CLR 27/16 A2996 RMK AO2 SLP147 T02720156 10272 20150 50008 TSNO
2026-03-24 16:52:00,METAR KTRM 241652Z AUTO VRB05KT 10SM CLR 25/16 A2996 RMK AO2 SLP147 T02500161 TSNO
2026-03-24 15:52:00,METAR KTRM 241552Z AUTO 14003KT 10SM CLR 23/16 A2995 RMK AO2 SLP143 T02330161 TSNO
2026-03-24 14:52:00,METAR KTRM 241452Z AUTO 00000KT 10SM CLR 19/14 A2994 RMK AO2 SLP138 T01890139 53019 TSNO
2026-03-24 13:52:00,METAR KTRM 241352Z AUTO 00000KT 10SM CLR 16/12 A2991 RMK AO2 SLP131 T01560122 TSNO
2026-03-24 12:52:00,METAR KTRM 241252Z AUTO 00000KT 10SM CLR 17/12 A2989 RMK AO2 SLP133 T01720122 TSNO
2026-03-24 11:52:00,METAR KTRM 241152Z AUTO 00000KT 10SM CLR 18/13 A2988 RMK AO2 SLP120 T01780133 10244 20172 55001 TSNO
2026-03-24 10:52:00,METAR KTRM 241052Z AUTO 00000KT 10SM CLR 19/14 A2988 RMK AO2 SLP120 T01940139 TSNO
2026-03-24 09:52:00,METAR KTRM 240952Z AUTO 00000KT 10SM CLR 19/12 A2988 RMK AO2 SLP121 T01890122 TSNO
2026-03-24 08:52:00,METAR KTRM 240852Z AUTO 10004KT 10SM CLR 21/14 A2988 RMK AO2 SLP121 T02110144 51007 TSNO
2026-03-24 07:52:00,METAR KTRM 240752Z AUTO 17005KT 10SM CLR 23/14 A2988 RMK AO2 SLP120 T02330139 403440161 TSNO
2026-03-24 06:52:00,METAR KTRM 240652Z AUTO 18006KT 10SM CLR 23/13 A2987 RMK AO2 SLP115 T02330128 TSNO
2026-03-24 05:52:00,METAR KTRM 240552Z AUTO 22004KT 10SM CLR 22/12 A2986 RMK AO2 SLP123 T02170122 10344 20211 51019 TSNO
2026-03-24 04:52:00,METAR KTRM 240452Z AUTO 00000KT 10SM CLR 22/12 A2985 RMK AO2 SLP110 T02170122 TSNO
2026-03-24 03:52:00,METAR KTRM 240352Z AUTO 00000KT 10SM CLR 24/12 A2984 RMK AO2 SLP106 T02440122 TSNO
2026-03-24 02:52:00,METAR KTRM 240252Z AUTO 07004KT 10SM CLR 27/13 A2981 RMK AO2 SLP094 T02670128 52009 TSNO
2026-03-24 01:52:00,METAR KTRM 240152Z AUTO 18003KT 10SM CLR 31/13 A2980 RMK AO2 SLP091 T03060128 TSNO
2026-03-24 00:52:00,METAR KTRM 240052Z AUTO 19006KT 10SM CLR 33/11 A2979 RMK AO2 SLP099 T03330111 TSNO
2026-03-23 23:52:00,METAR KTRM 232352Z AUTO 17005KT 10SM CLR 34/08 A2978 RMK AO2 SLP086 T03440078 10344 20294 56016 TSNO
2026-03-23 22:52:00,METAR KTRM 232252Z AUTO 12006KT 10SM CLR 34/08 A2979 RMK AO2 SLP089 T03440083 TSNO
2026-03-23 21:52:00,METAR KTRM 232152Z AUTO 14008KT 10SM CLR 34/09 A2980 RMK AO2 SLP094 T03390094 TSNO
2026-03-23 20:52:00,METAR KTRM 232052Z AUTO 12011KT 10SM CLR 32/09 A2983 RMK AO2 SLP103 T03220094 58017 TSNO
2026-03-23 19:52:00,METAR KTRM 231952Z AUTO 15009KT 10SM CLR 32/10 A2985 RMK AO2 SLP111 T03170100 TSNO
2026-03-23 18:52:00,METAR KTRM 231852Z AUTO 15007KT 10SM CLR 31/12 A2987 RMK AO2 SLP118 T03060122 TSNO
2026-03-23 17:52:00,METAR KTRM 231752Z AUTO 17006KT 10SM CLR 29/11 A2988 RMK AO2 SLP120 T02940111 10294 20161 50013 TSNO
2026-03-23 16:52:00,METAR KTRM 231652Z AUTO VRB04KT 10SM CLR 27/11 A2988 RMK AO2 SLP121 T02670106 TSNO
2026-03-23 15:52:00,METAR KTRM 231552Z AUTO 00000KT 10SM CLR 25/09 A2986 RMK AO2 SLP112 T02500094 TSNO
2026-03-23 14:52:00,METAR KTRM 231452Z AUTO 00000KT 9SM CLR 21/10 A2984 RMK AO2 SLP107 T02110100 51021 TSNO
2026-03-23 13:52:00,METAR KTRM 231352Z AUTO 24004KT 10SM CLR 16/08 A2982 RMK AO2 SLP100 T01610078 TSNO
2026-03-23 12:52:00,METAR KTRM 231252Z AUTO 00000KT 10SM CLR 18/08 A2980 RMK AO2 SLP093 T01780083 TSNO
2026-03-23 11:52:00,METAR KTRM 231152Z AUTO 14004KT 10SM CLR 18/08 A2978 RMK AO2 SLP086 T01830083 10300 20167 53011 TSNO
2026-03-23 10:52:00,METAR KTRM 231052Z AUTO 00000KT 10SM CLR 19/08 A2977 RMK AO2 SLP081 T01890083 TSNO
2026-03-23 09:52:00,METAR KTRM 230952Z AUTO 36005KT 10SM CLR 26/09 A2975 RMK AO2 SLP078 T02560089 TSNO
2026-03-23 08:52:00,METAR KTRM 230852Z AUTO 32007KT 10SM CLR 27/08 A2975 RMK AO2 SLP076 T02720083 53003 TSNO
2026-03-23 07:52:00,METAR KTRM 230752Z AUTO 32012KT 10SM CLR 28/08 A2974 RMK AO2 SLP073 T02830083 403940233 TSNO
2026-03-23 06:52:00,METAR KTRM 230652Z AUTO 30010KT 10SM CLR 29/08 A2974 RMK AO2 SLP075 T02890078 TSNO
2026-03-23 05:52:00,METAR KTRM 230552Z AUTO 32014KT 10SM CLR 30/08 A2974 RMK AO2 SLP073 T03000078 10383 20289 51011 TSNO
2026-03-23 04:52:00,METAR KTRM 230452Z AUTO 33010KT 10SM CLR 31/08 A2974 RMK AO2 SLP073 T03060083 TSNO
2026-03-23 03:52:00,METAR KTRM 230352Z AUTO 33016KT 10SM CLR 32/08 A2972 RMK AO2 SLP074 T03170078 TSNO
2026-03-23 02:52:00,METAR KTRM 230252Z AUTO 33010G19KT 10SM CLR 33/07 A2971 RMK AO2 SLP061 T03280072 53011 TSNO
2026-03-23 01:52:00,METAR KTRM 230152Z AUTO 00000KT 9SM CLR 31/06 A2968 RMK AO2 SLP053 T03110056 TSNO
2026-03-23 00:52:00,METAR KTRM 230052Z AUTO 12004KT 10SM CLR 37/02 A2967 RMK AO2 SLP051 T03670022 TSNO
2026-03-22 23:52:00,METAR KTRM 222352Z AUTO 13007KT 10SM CLR 38/00 A2967 RMK AO2 SLP051 T03830000 10394 20339 56018 TSNO
2026-03-22 22:52:00,METAR KTRM 222252Z AUTO 19007KT 10SM CLR 39/M02 A2969 RMK AO2 SLP056 T03891017 TSNO $
2026-03-22 21:52:00,METAR KTRM 222152Z AUTO 15005KT 10SM CLR 38/M02 A2970 RMK AO2 SLP060 T03831022 TSNO $
2026-03-22 20:52:00,METAR KTRM 222052Z AUTO 33005KT 10SM CLR 38/M01 A2973 RMK AO2 SLP069 T03831006 58020 TSNO $
2026-03-22 19:52:00,METAR KTRM 221952Z AUTO 25006KT 10SM CLR 37/M01 A2975 RMK AO2 SLP077 T03721011 TSNO $
2026-03-22 18:52:00,METAR KTRM 221852Z AUTO 30006KT 10SM CLR 36/02 A2977 RMK AO2 SLP085 T03560017 TSNO $
2026-03-22 17:52:00,METAR KTRM 221752Z AUTO VRB05KT 10SM CLR 34/M01 A2979 RMK AO2 SLP089 T03391006 10339 20233 51006 TSNO $
2026-03-22 16:52:00,METAR KTRM 221652Z AUTO 33008KT 10SM CLR 32/02 A2979 RMK AO2 SLP089 T03170022 TSNO $
2026-03-22 15:52:00,METAR KTRM 221552Z AUTO 32010KT 10SM CLR 29/03 A2978 RMK AO2 SLP088 T02890028 TSNO $
2026-03-22 14:52:00,METAR KTRM 221452Z AUTO 33008KT 10SM CLR 27/04 A2977 RMK AO2 SLP083 T02670044 53015 TSNO $
2026-03-22 13:52:00,METAR KTRM 221352Z AUTO 31006KT 10SM CLR 25/04 A2975 RMK AO2 SLP084 T02500039 TSNO $
2026-03-22 12:52:00,METAR KTRM 221252Z AUTO 32011KT 10SM CLR 27/04 A2973 RMK AO2 SLP071 T02670039 TSNO $
2026-03-22 11:52:00,METAR KTRM 221152Z AUTO 31008KT 10SM CLR 27/05 A2973 RMK AO2 SLP069 T02670050 10306 20267 55006 TSNO $
2026-03-22 10:52:00,METAR KTRM 221052Z AUTO 32008KT 10SM CLR 28/06 A2972 RMK AO2 SLP068 T02780056 TSNO $
2026-03-22 09:52:00,METAR KTRM 220952Z AUTO 32010KT 10SM CLR 29/07 A2973 RMK AO2 SLP072 T02890067 TSNO $
2026-03-22 08:52:00,METAR KTRM 220852Z AUTO 32010KT 10SM CLR 29/07 A2974 RMK AO2 SLP075 T02890072 55000 TSNO $
2026-03-22 07:52:00,METAR KTRM 220752Z AUTO 34009G19KT 10SM CLR 29/07 A2974 RMK AO2 SLP075 T02940072 404220167 TSNO $
2026-03-22 06:52:00,METAR KTRM 220652Z AUTO 33013G22KT 10SM CLR 30/06 A2974 RMK AO2 SLP074 T03000056 TSNO $
2026-03-22 05:52:00,METAR KTRM 220552Z AUTO 34010KT 10SM CLR 31/04 A2974 RMK AO2 SLP075 T03060044 10400 20306 51010 TSNO $
2026-03-22 04:52:00,METAR KTRM 220452Z AUTO 34011KT 10SM CLR 32/04 A2974 RMK AO2 SLP073 T03170044 TSNO $
2026-03-22 03:52:00,METAR KTRM 220352Z AUTO 34012G20KT 10SM CLR 33/03 A2973 RMK AO2 SLP070 T03280033 TSNO $
2026-03-22 02:52:00,METAR KTRM 220252Z AUTO 31007KT 10SM CLR 33/02 A2971 RMK AO2 SLP064 T03330022 53006 TSNO $
2026-03-22 01:52:00,METAR KTRM 220152Z AUTO 31007KT 10SM CLR 36/02 A2970 RMK AO2 SLP060 T03560017 TSNO $
2026-03-22 00:52:00,METAR KTRM 220052Z AUTO 28007KT 10SM CLR 39/01 A2970 RMK AO2 SLP058 T03890011 TSNO $
2026-03-21 23:52:00,METAR KTRM 212352Z AUTO 29013G19KT 10SM CLR 40/M02 A2969 RMK AO2 SLP066 T04001017 10422 20372 56015 TSNO $
2026-03-21 22:52:00,METAR KTRM 212252Z AUTO 28013G20KT 10SM CLR 41/M02 A2970 RMK AO2 SLP061 T04111017 TSNO $
2026-03-21 21:52:00,METAR KTRM 212152Z AUTO 28013G18KT 10SM CLR 42/M02 A2972 RMK AO2 SLP066 T04221017 TSNO $
2026-03-21 20:52:00,METAR KTRM 212052Z AUTO 36006KT 10SM CLR 41/M01 A2974 RMK AO2 SLP073 T04111006 58025 TSNO $
2026-03-21 19:52:00,METAR KTRM 211952Z AUTO 29006KT 10SM CLR 41/M02 A2977 RMK AO2 SLP083 T04111017 TSNO $
2026-03-21 18:52:00,METAR KTRM 211852Z AUTO VRB04KT 10SM CLR 39/01 A2979 RMK AO2 SLP089 T03940006 TSNO $
2026-03-21 17:52:00,METAR KTRM 211752Z AUTO 31008KT 10SM CLR 37/04 A2981 RMK AO2 SLP106 T03720044 10372 20167 50002 TSNO $
2026-03-21 16:52:00,METAR KTRM 211652Z AUTO 32009KT 10SM CLR 35/03 A2982 RMK AO2 SLP099 T03500028 TSNO $
2026-03-21 15:52:00,METAR KTRM 211552Z AUTO 00000KT 10SM CLR 30/06 A2982 RMK AO2 SLP099 T03000056 TSNO $
2026-03-21 14:52:00,METAR KTRM 211452Z AUTO 01005KT 10SM CLR 24/05 A2981 RMK AO2 SLP095 T02440050 TSNO $
2026-03-21 13:52:00,METAR KTRM 211352Z AUTO 00000KT 10SM 17/04 A2979 RMK AO2 SLP100 T01720039 TSNO $
2026-03-21 12:52:00,METAR KTRM 211252Z AUTO 09003KT 10SM CLR 17/05 A2978 RMK AO2 SLP087 T01720050 TSNO
2026-03-21 11:52:00,METAR KTRM 211152Z AUTO 00000KT 10SM CLR 20/05 A2977 RMK AO2 SLP085 T02000050 10300 20200 56006 TSNO
2026-03-21 10:52:00,METAR KTRM 211052Z AUTO 34008KT 10SM CLR 28/04 A2977 RMK AO2 SLP085 T02780039 TSNO
2026-03-21 09:52:00,METAR KTRM 210952Z AUTO 33010KT 10SM CLR 30/06 A2978 RMK AO2 SLP089 T03000061 TSNO
2026-03-21 08:52:00,METAR KTRM 210852Z AUTO 33009KT 10SM CLR 29/07 A2979 RMK AO2 SLP091 T02940072 55000 TSNO
2026-03-21 07:52:00,METAR KTRM 210752Z AUTO 33007KT 10SM CLR 28/08 A2979 RMK AO2 SLP089 T02830078 404220156 TSNO
2026-03-21 06:52:00,METAR KTRM 210652Z AUTO 35004KT 10SM CLR 22/04 A2979 RMK AO2 SLP099 T02220044 TSNO
2026-03-21 05:52:00,METAR KTRM 210552Z AUTO 04004KT 10SM CLR 23/06 A2979 RMK AO2 SLP091 T02330056 10411 20228 51010 TSNO
2026-03-21 04:52:00,METAR KTRM 210452Z AUTO 00000KT 10SM CLR 24/04 A2979 RMK AO2 SLP089 T02390044 TSNO
2026-03-21 03:52:00,METAR KTRM 210352Z AUTO VRB04KT 10SM CLR 29/04 A2978 RMK AO2 SLP086 T02940039 TSNO
2026-03-21 02:52:00,METAR KTRM 210252Z AUTO 15004KT 10SM CLR 29/04 A2976 RMK AO2 SLP080 T02940044 56000 TSNO
2026-03-21 01:52:00,METAR KTRM 210152Z AUTO 00000KT 10SM CLR 34/04 A2976 RMK AO2 SLP080 T03390044 TSNO
2026-03-21 00:52:00,METAR KTRM 210052Z AUTO 16006KT 10SM CLR 39/02 A2976 RMK AO2 SLP079 T03940022 TSNO
2026-03-20 23:52:00,METAR KTRM 202352Z AUTO 15008KT 10SM CLR 42/00 A2976 RMK AO2 SLP081 T04170000 10422 20361 56025 TSNO
2026-03-20 22:52:00,METAR KTRM 202252Z AUTO 16008KT 10SM CLR 42/M01 A2978 RMK AO2 SLP088 T04171011 TSNO
2026-03-20 21:52:00,METAR KTRM 202152Z AUTO 12009KT 10SM CLR 42/01 A2981 RMK AO2 SLP095 T04170011 TSNO
2026-03-20 20:52:00,METAR KTRM 202052Z AUTO 14007KT 10SM CLR 41/02 A2984 RMK AO2 SLP106 T04110017 58022 TSNO $
2026-03-20 19:52:00,METAR KTRM 201952Z AUTO 12007KT 10SM CLR 40/05 A2987 RMK AO2 SLP115 T04000050 TSNO $
2026-03-20 18:52:00,METAR KTRM 201852Z AUTO VRB03KT 10SM CLR 39/03 A2988 RMK AO2 SLP122 T03890028 TSNO $
2026-03-20 17:52:00,METAR KTRM 201752Z AUTO VRB03KT 10SM CLR 36/04 A2990 RMK AO2 SLP127 T03610044 10367 20156 50002 TSNO
2026-03-20 16:52:00,METAR KTRM 201652Z AUTO 29003KT 10SM CLR 32/08 A2991 RMK AO2 SLP130 T03220083 TSNO
2026-03-20 15:52:00,METAR KTRM 201552Z AUTO 32003KT 10SM CLR 28/07 A2991 RMK AO2 SLP129 T02830067 TSNO
2026-03-20 14:52:00,METAR KTRM 201452Z AUTO 01005KT 10SM CLR 24/06 A2989 RMK AO2 SLP125 T02390061 53010 TSNO
2026-03-20 13:52:00,METAR KTRM 201352Z AUTO 29004KT 10SM CLR 16/06 A2988 RMK AO2 SLP119 T01560056 TSNO
2026-03-20 12:52:00,METAR KTRM 201252Z AUTO 32004KT 10SM CLR 17/04 A2987 RMK AO2 SLP117 T01670044 TSNO
2026-03-20 11:52:00,METAR KTRM 201152Z AUTO 32003KT 10SM CLR 16/06 A2986 RMK AO2 SLP115 T01610056 10239 20161 55009 TSNO
2026-03-20 10:52:00,METAR KTRM 201052Z AUTO 35004KT 10SM CLR 22/03 A2986 RMK AO2 SLP115 T02220028 TSNO
2026-03-20 09:52:00,METAR KTRM 200952Z AUTO 33003KT 10SM CLR 18/06 A2988 RMK AO2 SLP130 T01830061 TSNO
2026-03-20 08:52:00,METAR KTRM 200852Z AUTO 34003KT 10SM CLR 18/07 A2989 RMK AO2 SLP125 T01780067 50000 TSNO
2026-03-20 07:52:00,METAR KTRM 200752Z AUTO 36003KT 10SM CLR 19/07 A2990 RMK AO2 SLP135 T01940067 404220161 TSNO
2026-03-20 06:52:00,METAR KTRM 200652Z AUTO 00000KT 10SM CLR 21/04 A2990 RMK AO2 SLP125 T02060044 TSNO
2026-03-20 05:52:00,METAR KTRM 200552Z AUTO 00000KT 10SM CLR 22/06 A2989 RMK AO2 SLP125 T02220061 10411 20211 51014 TSNO
2026-03-20 04:52:00,METAR KTRM 200452Z AUTO 00000KT 10SM CLR 23/08 A2988 RMK AO2 SLP120 T02330078 TSNO
2026-03-20 03:52:00,METAR KTRM 200352Z AUTO 33003KT 10SM CLR 26/08 A2987 RMK AO2 SLP116 T02560078 TSNO
2026-03-20 02:52:00,METAR KTRM 200252Z AUTO 00000KT 10SM CLR 29/08 A2985 RMK AO2 SLP111 T02890078 53002 TSNO
2026-03-20 01:52:00,METAR KTRM 200152Z AUTO 15005KT 10SM CLR 33/06 A2984 RMK AO2 SLP117 T03280056 TSNO
2026-03-20 00:52:00,METAR KTRM 200052Z AUTO 14006KT 10SM CLR 39/04 A2984 RMK AO2 SLP107 T03890039 TSNO
2026-03-19 23:52:00,METAR KTRM 192352Z AUTO 15008KT 10SM CLR 41/02 A2985 RMK AO2 SLP109 T04110017 10422 20372 56023 TSNO
2026-03-19 22:52:00,METAR KTRM 192252Z AUTO VRB06KT 10SM CLR 42/01 A2987 RMK AO2 SLP117 T04220006 TSNO
2026-03-19 21:52:00,METAR KTRM 192152Z AUTO 14008KT 10SM CLR 42/02 A2989 RMK AO2 SLP123 T04220017 TSNO
2026-03-19 20:52:00,METAR KTRM 192052Z AUTO 15009KT 10SM CLR 42/06 A2991 RMK AO2 SLP132 T04170056 58024 TSNO
2026-03-19 19:52:00,METAR KTRM 191952Z AUTO 15006KT 10SM CLR 42/01 A2994 RMK AO2 SLP142 T04170006 TSNO
2026-03-19 18:52:00,METAR KTRM 191852Z AUTO 31005KT 10SM CLR 39/04 A2997 RMK AO2 SLP159 T03940039 TSNO
2026-03-19 17:52:00,METAR KTRM 191752Z AUTO 31006KT 10SM CLR 37/05 A2998 RMK AO2 SLP155 T03670050 10367 20161 50007 TSNO
2026-03-19 16:52:00,METAR KTRM 191652Z AUTO 34007KT 10SM CLR 33/06 A2999 RMK AO2 SLP156 T03280061 TSNO
2026-03-19 15:52:00,METAR KTRM 191552Z AUTO 34006KT 10SM CLR 29/06 A2998 RMK AO2 SLP155 T02940056 TSNO
2026-03-19 14:52:00,METAR KTRM 191452Z AUTO 35006KT 10SM CLR 23/06 A2996 RMK AO2 SLP157 T02330061 53018 TSNO
2026-03-19 13:52:00,METAR KTRM 191352Z AUTO 35005KT 10SM CLR 18/06 A2994 RMK AO2 SLP140 T01780061 TSNO
2026-03-19 12:52:00,METAR KTRM 191252Z AUTO 00000KT 10SM CLR 17/08 A2992 RMK AO2 SLP135 T01720078 TSNO
2026-03-19 11:52:00,METAR KTRM 191152Z AUTO 36006KT 10SM CLR 24/07 A2991 RMK AO2 SLP132 T02390067 10289 20189 56008 TSNO
2026-03-19 10:52:00,METAR KTRM 191052Z AUTO 01005KT 10SM CLR 24/08 A2991 RMK AO2 SLP132 T02390078 TSNO
2026-03-19 09:52:00,METAR KTRM 190952Z AUTO 01005KT 10SM CLR 23/09 A2992 RMK AO2 SLP135 T02280089 TSNO
2026-03-19 08:52:00,METAR KTRM 190852Z AUTO 36006KT 10SM CLR 21/08 A2994 RMK AO2 SLP148 T02060083 51002 TSNO
2026-03-19 07:52:00,METAR KTRM 190752Z AUTO 03003KT 10SM CLR 21/07 A2994 RMK AO2 SLP139 T02060067 404170172 TSNO
2026-03-19 06:52:00,METAR KTRM 190652Z AUTO 00000KT 10SM CLR 21/06 A2994 RMK AO2 SLP140 T02110061 TSNO
2026-03-19 05:52:00,METAR KTRM 190552Z AUTO 00000KT 10SM CLR 23/06 A2993 RMK AO2 SLP137 T02280061 10389 20222 51021 TSNO
2026-03-19 04:52:00,METAR KTRM 190452Z AUTO 00000KT 10SM CLR 22/06 A2992 RMK AO2 SLP134 T02220056 TSNO
2026-03-19 03:52:00,METAR KTRM 190352Z AUTO 30006KT 10SM CLR 27/07 A2990 RMK AO2 SLP128 T02670067 TSNO
2026-03-19 02:52:00,METAR KTRM 190252Z AUTO 13003KT 10SM CLR 27/07 A2987 RMK AO2 SLP116 T02720072 53005 TSNO
2026-03-19 01:52:00,METAR KTRM 190152Z AUTO 14006KT 10SM CLR 32/06 A2985 RMK AO2 SLP110 T03170056 TSNO
2026-03-19 00:52:00,METAR KTRM 190052Z AUTO 13007KT 10SM CLR 38/04 A2985 RMK AO2 SLP109 T03780039 TSNO
2026-03-18 23:52:00,METAR KTRM 182352Z AUTO 15010KT 10SM CLR 39/04 A2986 RMK AO2 SLP121 T03940039 10417 20356 56018 TSNO
2026-03-18 22:52:00,METAR KTRM 182252Z AUTO 16010KT 10SM CLR 41/02 A2987 RMK AO2 SLP118 T04110017 TSNO
2026-03-18 21:52:00,METAR KTRM 182152Z AUTO 13006KT 10SM CLR 41/01 A2988 RMK AO2 SLP123 T04060006 TSNO
2026-03-18 20:52:00,METAR KTRM 182052Z AUTO 10SM CLR 41/01 A2991 RMK AO2 SLP139 T04060006 58019 TSNO
2026-03-18 19:52:00,METAR KTRM 181952Z AUTO 10SM CLR 39/02 A2994 RMK AO2 SLP141 T03940017 TSNO
2026-03-18 18:52:00,METAR KTRM 181852Z AUTO 36003KT 10SM CLR 38/05 A2996 RMK AO2 SLP146 T03780050 TSNO
2026-03-18 17:52:00,METAR KTRM 181752Z AUTO 32004KT 10SM CLR 35/06 A2997 RMK AO2 SLP149 T03500061 10356 20172 50008 TSNO
2026-03-18 16:52:00,METAR KTRM 181652Z AUTO VRB04KT 10SM CLR 32/06 A2997 RMK AO2 SLP150 T03170056 TSNO
2026-03-18 15:52:00,METAR KTRM 181552Z AUTO 36004KT 10SM CLR 27/06 A2996 RMK AO2 SLP147 T02720056 TSNO
2026-03-18 14:52:00,METAR KTRM 181452Z AUTO 35004KT 10SM CLR 23/04 A2994 RMK AO2 SLP142 T02280044 53017 TSNO
2026-03-18 13:52:00,METAR KTRM 181352Z AUTO 33003KT 10SM CLR 18/04 A2992 RMK AO2 SLP135 T01830044 TSNO
2026-03-18 12:52:00,METAR KTRM 181252Z AUTO 01006KT 10SM CLR 19/05 A2990 RMK AO2 SLP128 T01940050 TSNO
2026-03-18 11:52:00,METAR KTRM 181152Z AUTO 34004KT 10SM CLR 21/05 A2989 RMK AO2 SLP124 T02110050 10244 20172 55001 TSNO
2026-03-18 10:52:00,METAR KTRM 181052Z AUTO 35004KT 10SM CLR 21/05 A2989 RMK AO2 SLP122 T02110050 TSNO
2026-03-18 09:52:00,METAR KTRM 180952Z AUTO 35005KT 10SM CLR 22/06 A2989 RMK AO2 SLP134 T02220056 TSNO
2026-03-18 08:52:00,METAR KTRM 180852Z AUTO 01006KT 10SM CLR 21/07 A2990 RMK AO2 SLP125 T02060067 51002 TSNO
2026-03-18 07:52:00,METAR KTRM 180752Z AUTO 36006KT 10SM CLR 24/06 A2989 RMK AO2 SLP134 T02390061 403940167 TSNO
2026-03-18 06:52:00,METAR KTRM 180652Z AUTO 01005KT 10SM CLR 22/07 A2989 RMK AO2 SLP124 T02220067 TSNO
2026-03-18 05:52:00,METAR KTRM 180552Z AUTO 36003KT 10SM CLR 22/08 A2989 RMK AO2 SLP123 T02220078 10389 20217 53022 TSNO
2026-03-18 04:52:00,METAR KTRM 180452Z AUTO 33003KT 10SM CLR 24/08 A2987 RMK AO2 SLP115 T02390078 TSNO
2026-03-18 03:52:00,METAR KTRM 180352Z AUTO 33003KT 10SM CLR 25/08 A2985 RMK AO2 SLP109 T02500083 TSNO
2026-03-18 02:52:00,METAR KTRM 180252Z AUTO 15004KT 10SM CLR 26/07 A2983 RMK AO2 SLP101 T02610072 53006 TSNO
2026-03-18 01:52:00,METAR KTRM 180152Z AUTO 15004KT 10SM CLR 31/08 A2981 RMK AO2 SLP097 T03110078 TSNO
2026-03-18 00:52:00,METAR KTRM 180052Z AUTO 13007KT 10SM CLR 37/06 A2980 RMK AO2 SLP095 T03670056 TSNO
2026-03-17 23:52:00,METAR KTRM 172352Z AUTO VRB04KT 10SM CLR 39/02 A2981 RMK AO2 SLP096 T03890022 10394 20356 56018 TSNO
2026-03-17 22:52:00,METAR KTRM 172252Z AUTO VRB03KT 10SM CLR 38/03 A2982 RMK AO2 SLP101 T03830028 TSNO
2026-03-17 21:52:00,METAR KTRM 172152Z AUTO 29007KT 10SM CLR 38/02 A2984 RMK AO2 SLP107 T03830022 TSNO
2026-03-17 20:52:00,METAR KTRM 172052Z AUTO VRB06KT 10SM CLR 38/02 A2986 RMK AO2 SLP115 T03780022 58025 TSNO
2026-03-17 19:52:00,METAR KTRM 171952Z AUTO 27003KT 10SM CLR 37/02 A2989 RMK AO2 SLP124 T03720017 TSNO
2026-03-17 18:52:00,METAR KTRM 171852Z AUTO 30006KT 10SM CLR 37/02 A2991 RMK AO2 SLP133 T03670022 TSNO
2026-03-17 17:52:00,METAR KTRM 171752Z AUTO VRB04KT 10SM CLR 36/01 A2993 RMK AO2 SLP140 T03560011 10356 20167 50001 TSNO
2026-03-17 16:52:00,METAR KTRM 171652Z AUTO 32003KT 10SM CLR 33/05 A2995 RMK AO2 SLP143 T03280050 TSNO
2026-03-17 15:52:00,METAR KTRM 171552Z AUTO 36004KT 10SM CLR 27/06 A2994 RMK AO2 SLP141 T02720056 TSNO
2026-03-17 14:52:00,METAR KTRM 171452Z AUTO 29004KT 10SM CLR 22/04 A2993 RMK AO2 SLP147 T02170044 53015 TSNO
2026-03-17 12:52:00,METAR KTRM 171252Z AUTO 36006KT 10SM CLR 19/03 A2989 RMK AO2 SLP124 T01890028 TSNO
2026-03-17 11:52:00,METAR KTRM 171152Z AUTO 00000KT 10SM CLR 18/03 A2989 RMK AO2 SLP123 60000 T01830033 10294 20172 55001 TSNO
2026-03-17 10:52:00,METAR KTRM 171052Z AUTO 35003KT 10SM CLR 18/03 A2988 RMK AO2 SLP119 T01830033 TSNO
2026-03-17 09:52:00,METAR KTRM 170952Z AUTO 02004KT 10SM CLR 24/02 A2989 RMK AO2 SLP123 T02390022 TSNO
2026-03-17 08:52:00,METAR KTRM 170852Z AUTO 04004KT 10SM CLR 24/02 A2989 RMK AO2 SLP133 60000 T02440017 55002 TSNO
2026-03-17 07:52:00,METAR KTRM 170752Z AUTO 01008KT 10SM CLR 26/02 A2989 RMK AO2 SLP124 T02610017 TSNO
2026-03-17 06:52:00,METAR KTRM 170652Z AUTO 28006KT 10SM CLR 27/02 A2990 RMK AO2 RAB34E43 SLPNO P0000 T02720017 TSNO
2026-03-17 04:52:00,METAR KTRM 170452Z AUTO 32007KT 10SM CLR 29/01 A2990 RMK AO2 SLPNO T02890006 TSNO
2026-03-17 03:52:00,METAR KTRM 170352Z AUTO 32008KT 10SM CLR 32/M01 A2988 RMK AO2 SLPNO T03171006 TSNO
2026-03-17 02:52:00,METAR KTRM 170252Z AUTO 29006KT 10SM CLR 29/01 A2985 RMK AO2 SLPNO T02890011 53004 TSNO
2026-03-17 01:52:00,METAR KTRM 170152Z AUTO 35005KT 10SM CLR 32/01 A2984 RMK AO2 SLPNO T03220006 TSNO
2026-03-17 00:52:00,METAR KTRM 170052Z AUTO 32008KT 10SM CLR 36/M01 A2983 RMK AO2 SLPNO T03561011 TSNO
2026-03-16 23:52:00,METAR KTRM 162352Z AUTO 33008KT 10SM CLR 36/M02 A2984 RMK AO2 SLPNO T03611017 56022 TSNO
2026-03-16 22:52:00,METAR KTRM 162252Z AUTO 36007KT 10SM CLR 37/M02 A2985 RMK AO2 SLPNO T03671022 TSNO
2026-03-16 21:52:00,METAR KTRM 162152Z AUTO 30008KT 10SM CLR 36/M03 A2987 RMK AO2 SLPNO T03611028 TSNO
2026-03-16 20:52:00,METAR KTRM 162052Z AUTO 33012KT 10SM CLR 36/M02 A2990 RMK AO2 SLPNO T03611022 58025 TSNO
2026-03-16 19:52:00,METAR KTRM 161952Z AUTO 35011G15KT 10SM CLR 36/M03 A2993 RMK AO2 SLPNO T03561033 TSNO
2026-03-16 18:52:00,METAR KTRM 161852Z AUTO VRB05KT 10SM CLR A2995 RMK AO2 SLPNO TSNO $
2026-03-16 17:52:00,METAR KTRM 161752Z AUTO 26006KT 10SM CLR A2997 RMK AO2 SLPNO 51007 TSNO $
2026-03-16 16:52:00,METAR KTRM 161652Z AUTO 35004KT 10SM CLR A2997 RMK AO2 SLPNO TSNO $
2026-03-16 15:52:00,METAR KTRM 161552Z AUTO 34006KT 10SM CLR A2997 RMK AO2 SLPNO TSNO $
2026-03-16 14:52:00,METAR KTRM 161452Z AUTO 32005KT 10SM CLR A2995 RMK AO2 SLPNO 53010 TSNO $
2026-03-16 13:52:00,METAR KTRM 161352Z AUTO 24004KT 10SM CLR A2993 RMK AO2 SLPNO TSNO $
2026-03-16 10:52:00,METAR KTRM 161052Z AUTO 00000KT 10SM CLR A2992 RMK AO2 SLPNO TSNO $
2026-03-16 09:52:00,METAR KTRM 160952Z AUTO 00000KT 10SM CLR A2993 RMK AO2 SLPNO TSNO $
2026-03-16 08:52:00,METAR KTRM 160852Z AUTO 04005KT 10SM CLR A2993 RMK AO2 SLPNO 50007 TSNO $
2026-03-16 07:52:00,METAR KTRM 160752Z AUTO 28003KT 10SM CLR A2994 RMK AO2 SLPNO TSNO $
2026-03-16 06:52:00,METAR KTRM 160652Z AUTO 33003KT 10SM CLR A2991 RMK AO2 SLPNO TSNO $
2026-03-16 05:52:00,METAR KTRM 160552Z AUTO VRB05KT 10SM CLR A2991 RMK AO2 SLPNO 51017 TSNO $
2026-03-16 04:52:00,METAR KTRM 160452Z AUTO 00000KT 10SM CLR A2990 RMK AO2 SLPNO TSNO $
2026-03-16 03:52:00,METAR KTRM 160352Z AUTO 26003KT 10SM CLR A2988 RMK AO2 SLPNO TSNO $
2026-03-16 02:52:00,METAR KTRM 160252Z AUTO 21004KT 10SM CLR A2986 RMK AO2 SLPNO 53010 TSNO $
2026-03-16 01:52:00,METAR KTRM 160152Z AUTO 14004KT 10SM CLR A2984 RMK AO2 SLPNO TSNO $
2026-03-16 00:52:00,METAR KTRM 160052Z AUTO 13007KT 10SM CLR A2983 RMK AO2 SLPNO TSNO $
2026-03-15 23:52:00,METAR KTRM 152352Z AUTO 10SM CLR A2983 RMK AO2 SLPNO 56020 TSNO $
2026-03-15 22:52:00,METAR KTRM 152252Z AUTO 29006KT 10SM CLR A2985 RMK AO2 SLPNO TSNO $
2026-03-15 21:52:00,METAR KTRM 152152Z AUTO 27007KT 10SM CLR A2986 RMK AO2 SLPNO TSNO $
2026-03-15 20:52:00,METAR KTRM 152052Z AUTO 11004KT 10SM CLR A2989 RMK AO2 SLPNO 58017 TSNO $
2026-03-15 19:52:00,METAR KTRM 151952Z AUTO VRB03KT 10SM CLR A2991 RMK AO2 SLPNO TSNO $
2026-03-15 18:52:00,METAR KTRM 151852Z AUTO 28007KT 10SM CLR A2993 RMK AO2 SLPNO TSNO $
2026-03-15 17:52:00,METAR KTRM 151752Z AUTO VRB03KT 10SM CLR A2994 RMK AO2 SLPNO 51017 TSNO $
2026-03-15 16:52:00,METAR KTRM 151652Z AUTO VRB03KT 10SM CLR A2993 RMK AO2 SLPNO TSNO $
2026-03-15 15:52:00,METAR KTRM 151552Z AUTO 03004KT 10SM CLR A2991 RMK AO2 SLPNO TSNO $
2026-03-15 14:52:00,METAR KTRM 151452Z AUTO 00000KT 10SM CLR A2989 RMK AO2 SLPNO 53020 TSNO $
2026-03-15 13:52:00,METAR KTRM 151352Z AUTO 31004KT 10SM CLR A2986 RMK AO2 SLPNO TSNO $
2026-03-15 12:52:00,METAR KTRM 151252Z AUTO 00000KT 10SM CLR A2984 RMK AO2 SLPNO TSNO $
2026-03-15 11:52:00,METAR KTRM 151152Z AUTO 33005KT 10SM CLR A2983 RMK AO2 SLPNO 53007 TSNO $
2026-03-15 10:52:00,METAR KTRM 151052Z AUTO 32007KT 10SM CLR A2982 RMK AO2 SLPNO TSNO $
2026-03-15 09:52:00,METAR KTRM 150952Z AUTO 32011KT 10SM CLR A2981 RMK AO2 SLPNO TSNO $
2026-03-15 08:52:00,METAR KTRM 150852Z AUTO 33010G20KT 10SM CLR A2981 RMK AO2 SLPNO 51003 TSNO $
