Time_recorded,METAR
2026-05-02 14:51:00,METAR KCMH 021451Z 32011G20KT 10SM SCT040 SCT250 08/M02 A3005 RMK AO2 SLP179 T00781022 51005
2026-05-02 13:51:00,METAR KCMH 021351Z 32005KT 10SM FEW027 FEW250 07/M01 A3005 RMK AO2 SLP179 T00671006
2026-05-02 12:51:00,METAR KCMH 021251Z 33008KT 10SM FEW250 04/M01 A3004 RMK AO2 SLP177 T00441011
2026-05-02 11:51:00,METAR KCMH 021151Z 33005KT 10SM FEW250 02/M01 A3003 RMK AO2 SLP174 70012 T00221011 10039 20006 51003
2026-05-02 10:51:00,METAR KCMH 021051Z 34003KT 10SM FEW250 01/M01 A3003 RMK AO2 SLP174 T00111006
2026-05-02 09:51:00,METAR KCMH 020951Z 30004KT 10SM FEW250 02/00 A3003 RMK AO2 SLP173 T00170000
2026-05-02 08:51:00,METAR KCMH 020851Z 00000KT 10SM FEW250 02/01 A3002 RMK AO2 SLP171 T00170011 55003
2026-05-02 07:51:00,METAR KCMH 020751Z 27003KT 10SM FEW002 02/02 A3002 RMK AO2 SLP169 T00220017
2026-05-02 07:25:00,SPECI KCMH 020725Z 00000KT 10SM FEW002 02/02 A3002 RMK AO2 T00220022
2026-05-02 06:51:00,METAR KCMH 020651Z 00000KT 10SM FEW080 03/02 A3003 RMK AO2 SLP172 T00280022
2026-05-02 05:51:00,METAR KCMH 020551Z 00000KT 10SM FEW039 04/03 A3003 RMK AO2 SLP174 60001 T00390033 10089 20033 56001
2026-05-02 04:51:00,METAR KCMH 020451Z 00000KT 10SM FEW046 03/03 A3004 RMK AO2 SLP174 T00330033 401280033
2026-05-02 03:51:00,METAR KCMH 020351Z 18003KT 10SM FEW090 04/04 A3003 RMK AO2 SLP173 T00440039
2026-05-02 02:51:00,METAR KCMH 020251Z 02003KT 10SM FEW090 04/03 A3004 RMK AO2 SLP175 60001 T00440033 53021
2026-05-02 01:51:00,METAR KCMH 020151Z 08003KT 10SM FEW036 BKN090 06/03 A3002 RMK AO2 RAB04E48 SLP169 P0001 T00610033
2026-05-02 00:51:00,METAR KCMH 020051Z 04006KT 10SM BKN047 OVC090 08/03 A2998 RMK AO2 SLP156 T00780028
2026-05-01 23:51:00,METAR KCMH 012351Z 33007KT 10SM FEW038 BKN080 08/02 A2997 RMK AO2 SLP153 T00830017 10128 20083 51011
2026-05-01 22:51:00,METAR KCMH 012251Z 33009KT 10SM FEW032 BKN070 09/02 A2996 RMK AO2 SLP148 T00890017
2026-05-01 21:51:00,METAR KCMH 012151Z 35009G20KT 10SM SCT025 BKN042 09/04 A2997 RMK AO2 SLP151 T00940039
2026-05-01 20:51:00,METAR KCMH 012051Z 30015KT 10SM BKN023 BKN029 OVC048 08/03 A2994 RMK AO2 SLP142 T00830033 51020
2026-05-01 19:51:00,METAR KCMH 011951Z 30016KT 10SM BKN022 BKN029 OVC047 10/04 A2994 RMK AO2 PK WND 32026/1854 SLP140 T01000039
2026-05-01 19:04:00,SPECI KCMH 011904Z 31014G26KT 10SM BKN026 BKN036 10/05 A2991 RMK AO2 PK WND 32026/1854 T01000050
2026-05-01 18:51:00,METAR KCMH 011851Z 30019G28KT 10SM SCT025 BKN035 11/06 A2990 RMK AO2 PK WND 30028/1846 SLP128 T01110056
2026-05-01 18:30:00,SPECI KCMH 011830Z 30019G26KT 10SM SCT026 BKN032 BKN045 13/07 A2989 RMK AO2 PK WND 30026/1830 T01280072
2026-05-01 17:51:00,METAR KCMH 011751Z 26013KT 10SM BKN024 BKN030 OVC036 10/06 A2988 RMK AO2 RAB00E12 SLP120 P0000 60011 T01000061 10100 20072 58002
2026-05-01 17:05:00,SPECI KCMH 011705Z 23010KT 10SM -RA BKN020 BKN031 OVC048 09/07 A2988 RMK AO2 RAB00 P0000 T00940067
2026-05-01 16:51:00,METAR KCMH 011651Z 21011KT 10SM BKN030 BKN047 10/07 A2988 RMK AO2 RAE32 SLP120 P0002 T01000067
2026-05-01 15:51:00,METAR KCMH 011551Z 20006KT 6SM -RA BR SCT041 OVC060 08/06 A2989 RMK AO2 CIG 042 NW SLP124 P0004 T00780061
2026-05-01 14:51:00,METAR KCMH 011451Z 19006KT 10SM -RA OVC047 08/05 A2989 RMK AO2 RAB1357 SLP122 P0002 60005 T00830050 58004
2026-05-01 13:51:00,METAR KCMH 011351Z 15004KT 10SM OVC060 08/04 A2988 RMK AO2 RAE29 SLP122 P0002 T00780044
2026-05-01 12:51:00,METAR KCMH 011251Z 21004KT 10SM -RA BKN046 OVC055 07/04 A2991 RMK AO2 RAB26 SLP129 P0001 T00720039
2026-05-01 11:51:00,METAR KCMH 011151Z 00000KT 10SM OVC060 07/03 A2990 RMK AO2 SLP125 T00720028 10072 20056 56006
2026-05-01 10:51:00,METAR KCMH 011051Z 18003KT 10SM BKN065 OVC100 07/02 A2990 RMK AO2 SLP126 T00670022
2026-05-01 09:51:00,METAR KCMH 010951Z 20006KT 10SM BKN100 BKN120 BKN200 07/02 A2990 RMK AO2 SLP128 T00670022
2026-05-01 08:51:00,METAR KCMH 010851Z 15003KT 10SM BKN110 BKN190 OVC250 06/03 A2992 RMK AO2 SLP132 T00610028 56012
2026-05-01 07:51:00,METAR KCMH 010751Z 18003KT 10SM BKN100 OVC200 06/03 A2993 RMK AO2 SLP136 T00610028
2026-05-01 06:51:00,METAR KCMH 010651Z 17004KT 10SM FEW090 FEW200 SCT250 06/03 A2994 RMK AO2 SLP140 T00610028
2026-05-01 05:51:00,METAR KCMH 010551Z 17003KT 10SM FEW250 06/03 A2995 RMK AO2 SLP145 T00560028 10122 20050 56012
2026-05-01 04:51:00,METAR KCMH 010451Z 00000KT 10SM FEW250 06/03 A2997 RMK AO2 SLP150 T00610033 401440056
2026-05-01 03:51:00,METAR KCMH 010351Z 00000KT 10SM FEW250 06/03 A2997 RMK AO2 SLP152 T00610028
2026-05-01 02:51:00,METAR KCMH 010251Z 00000KT 10SM CLR 07/02 A2999 RMK AO2 SLP157 T00720022 51009
2026-05-01 01:51:00,METAR KCMH 010151Z 00000KT 10SM CLR 09/01 A2998 RMK AO2 SLP155 T00940011
2026-05-01 00:51:00,METAR KCMH 010051Z 34003KT 10SM FEW070 11/M01 A2997 RMK AO2 SLP150 T01111006
2026-04-30 23:51:00,METAR KCMH 302351Z 30007KT 10SM SCT070 12/M01 A2996 RMK AO2 SLP147 T01221006 10144 20106 58002
2026-04-30 22:51:00,METAR KCMH 302251Z 28009KT 10SM SCT065 13/00 A2997 RMK AO2 SLP149 T01330000
2026-04-30 21:51:00,METAR KCMH 302151Z 30007KT 10SM SCT065 14/M01 A2996 RMK AO2 SLP148 T01391011
2026-04-30 20:51:00,METAR KCMH 302051Z 32008KT 290V350 10SM BKN065 14/00 A2997 RMK AO2 SLP149 T01390000 56006
2026-04-30 19:51:00,METAR KCMH 301951Z 30012G19KT 10SM SCT050 BKN065 14/02 A2997 RMK AO2 SLP150 T01390017
2026-04-30 18:51:00,METAR KCMH 301851Z 33013G19KT 10SM SCT035 BKN055 12/03 A2998 RMK AO2 SLP153 T01170028
2026-04-30 17:51:00,METAR KCMH 301751Z 32013G23KT 10SM SCT038 BKN046 BKN060 11/04 A2999 RMK AO2 PK WND 31032/1735 SLP156 60000 T01060039 10122 20067 50001
2026-04-30 16:51:00,METAR KCMH 301651Z 35008KT 10SM SCT026 BKN033 OVC050 11/04 A2999 RMK AO2 SLP158 VCSH S AND W T01060044
2026-04-30 15:51:00,METAR KCMH 301551Z 34007KT 10SM BKN029 BKN036 OVC050 09/04 A3000 RMK AO2 SLP159 T00940044
2026-04-30 14:51:00,METAR KCMH 301451Z 33009KT 9SM SCT020 BKN029 OVC034 08/04 A2999 RMK AO2 SLP155 60000 T00830044 51025
2026-04-30 13:51:00,METAR KCMH 301351Z 36011KT 10SM SCT018 BKN023 OVC042 08/04 A2997 RMK AO2 RAB1259E20 SLP149 P0000 T00780039
2026-04-30 13:24:00,SPECI KCMH 301324Z 35009KT 10SM SCT013 BKN018 OVC042 08/05 A2995 RMK AO2 RAB1259E20 P0000 T00780050
2026-04-30 13:03:00,SPECI KCMH 301303Z 35012G19KT 10SM -RA BKN014 OVC019 07/05 A2995 RMK AO2 RAB1259 P0000 T00720050
2026-04-30 12:51:00,METAR KCMH 301251Z 31008KT 10SM OVC017 07/06 A2994 RMK AO2 SLP138 T00720056
2026-04-30 11:51:00,METAR KCMH 301151Z 30012KT 10SM OVC017 08/04 A2991 RMK AO2 SLP130 70031 T00780044 10083 20067 53003
2026-04-30 11:15:00,SPECI KCMH 301115Z 31010KT 10SM BKN021 OVC033 08/04 A2991 RMK AO2 T00780039
2026-04-30 10:51:00,METAR KCMH 301051Z 31009KT 10SM OVC031 07/04 A2990 RMK AO2 SLP126 T00720039
2026-04-30 10:48:00,SPECI KCMH 301048Z 30011KT 10SM OVC031 07/04 A2990 RMK AO2
2026-04-30 09:51:00,METAR KCMH 300951Z 28010KT 10SM BKN028 07/04 A2990 RMK AO2 SLP125 T00670044
2026-04-30 08:51:00,METAR KCMH 300851Z 27010KT 10SM FEW022 07/04 A2990 RMK AO2 SLP124 T00670044 53001
2026-04-30 08:30:00,SPECI KCMH 300830Z 27010KT 10SM FEW022 07/04 A2990 RMK AO2 T00720044
2026-04-30 08:07:00,SPECI KCMH 300807Z 28008KT 10SM BKN021 07/05 A2990 RMK AO2 T00720050
2026-04-30 07:51:00,METAR KCMH 300751Z 27008KT 10SM FEW019 07/05 A2990 RMK AO2 SLP124 T00720050
2026-04-30 06:51:00,METAR KCMH 300651Z 28009KT 10SM FEW250 08/06 A2989 RMK AO2 SLP123 T00780056
2026-04-30 05:51:00,METAR KCMH 300551Z 27006KT 10SM FEW080 FEW250 08/06 A2989 RMK AO2 SLP123 T00830056 10133 20083 50003
2026-04-30 04:51:00,METAR KCMH 300451Z 29008KT 10SM FEW080 SCT250 09/06 A2989 RMK AO2 SLP123 T00890061 401670089
2026-04-30 03:51:00,METAR KCMH 300351Z 30008KT 10SM FEW080 SCT250 10/07 A2989 RMK AO2 SLP123 T01000067
2026-04-30 02:51:00,METAR KCMH 300251Z 30006KT 10SM FEW080 FEW200 11/09 A2988 RMK AO2 SLP120 T01060089 51018
2026-04-30 01:51:00,METAR KCMH 300151Z 30006KT 10SM SCT033 BKN080 12/09 A2988 RMK AO2 SLP120 T01170089
2026-04-30 00:51:00,METAR KCMH 300051Z 34010KT 10SM FEW020 BKN047 BKN250 13/10 A2986 RMK AO2 SLP109 T01280100
2026-04-29 23:51:00,METAR KCMH 292351Z 01007KT 8SM FEW032 SCT065 BKN090 13/11 A2983 RMK AO2 RAE2257 SLP100 P0000 60006 T01330111 10167 20133 53013
2026-04-29 22:51:00,METAR KCMH 292251Z 30012KT 7SM -RA FEW028 BKN034 BKN070 14/11 A2982 RMK AO2 RAB30 SLP096 P0004 T01440111
2026-04-29 21:51:00,METAR KCMH 292151Z 32008KT 8SM FEW024 SCT041 16/11 A2979 RMK AO2 SLP086 T01610106
2026-04-29 21:30:00,SPECI KCMH 292130Z 36008KT 10SM FEW021 SCT042 16/11 A2979 RMK AO2 T01610111
2026-04-29 20:51:00,METAR KCMH 292051Z 29008KT 10SM BKN019 BKN023 OVC030 16/12 A2979 RMK AO2 SLP088 60002 T01560122 53004
2026-04-29 20:37:00,SPECI KCMH 292037Z 29009KT 10SM SCT016 BKN022 OVC055 16/12 A2979 RMK AO2 T01560122
2026-04-29 19:51:00,METAR KCMH 291951Z 30010KT 7SM SCT012 OVC036 15/12 A2979 RMK AO2 DZB1858E30 SLP084 P0000 T01500117
2026-04-29 19:04:00,SPECI KCMH 291904Z 32009KT 5SM -DZ BR FEW009 BKN016 OVC026 14/13 A2979 RMK AO2 DZB1858 P0000 T01440128
2026-04-29 18:51:00,METAR KCMH 291851Z 31009KT 8SM BKN014 OVC022 14/12 A2979 RMK AO2 RAE51 SLP085 P0002 T01390122
2026-04-29 18:08:00,SPECI KCMH 291808Z 32008KT 10SM -RA BKN010 BKN016 OVC060 14/12 A2979 RMK AO2 P0001 T01390122
2026-04-29 17:53:00,SPECI KCMH 291753Z 33009KT 10SM -RA SCT008 BKN017 OVC060 14/13 A2978 RMK AO2 P0000 T01390128
2026-04-29 17:51:00,METAR KCMH 291751Z 32006KT 6SM -RA BR BKN010 BKN016 OVC060 14/13 A2978 RMK AO2 SLP084 P0005 60025 T01390128 10139 20128 55007
2026-04-29 17:46:00,SPECI KCMH 291746Z 33006KT 6SM -RA BR BKN010 BKN012 OVC022 14/13 A2978 RMK AO2 P0005
2026-04-29 16:51:00,METAR KCMH 291651Z 31006KT 4SM -RA BR BKN007 OVC013 14/13 A2980 RMK AO2 SLP088 P0014 T01390128
2026-04-29 16:39:00,SPECI KCMH 291639Z 33007KT 4SM -RA BR BKN007 OVC010 14/13 A2979 RMK AO2 P0013 T01390128
2026-04-29 15:51:00,METAR KCMH 291551Z 00000KT 2 1/2SM R28L/4000VP6000FT +RA BR BKN009 OVC018 13/12 A2980 RMK AO2 RAB27 SLP090 P0005 T01330122
2026-04-29 15:43:00,SPECI KCMH 291543Z 20003KT 2 1/2SM RA BR BKN009 OVC018 13/12 A2982 RMK AO2 RAB27 P0002 T01330122
2026-04-29 15:19:00,SPECI KCMH 291519Z 00000KT 10SM OVC016 13/12 A2981 RMK AO2 T01330122
2026-04-29 14:51:00,METAR KCMH 291451Z 02003KT 6SM BR BKN007 OVC016 13/12 A2981 RMK AO2 DZE1353RAB1353E09 SLP094 P0000 60001 T01330122 56006
2026-04-29 13:56:00,SPECI KCMH 291356Z 36004KT 6SM -RA BR BKN007 OVC012 13/12 A2982 RMK AO2 DZE53RAB53 P0000 T01330117
2026-04-29 13:51:00,METAR KCMH 291351Z 35005KT 5SM -DZ BR OVC010 13/12 A2982 RMK AO2 RAE01DZB01 SLP096 P0000 T01280117
2026-04-29 13:49:00,SPECI KCMH 291349Z 35005KT 5SM -DZ BR OVC010 13/12 A2982 RMK AO2 RAE01DZB01 P0000
2026-04-29 13:02:00,SPECI KCMH 291302Z 33004KT 5SM -DZ BR BKN007 OVC012 13/12 A2984 RMK AO2 RAE01DZB01 P0000 T01280122
2026-04-29 12:51:00,METAR KCMH 291251Z 34006KT 2 1/2SM -RA BR BKN007 OVC012 13/12 A2983 RMK AO2 RAB21 SLP099 P0001 T01280117
2026-04-29 12:22:00,SPECI KCMH 291222Z 31009KT 2 1/2SM -RA BR BKN009 BKN015 OVC036 13/12 A2984 RMK AO2 RAB21 P0000 T01280117
2026-04-29 12:10:00,SPECI KCMH 291210Z 30005KT 10SM SCT009 BKN015 OVC037 13/12 A2984 RMK AO2 T01280117
2026-04-29 11:51:00,METAR KCMH 291151Z 00000KT 8SM SCT029 BKN040 OVC080 13/12 A2983 RMK AO2 DZE00 SLP098 P0000 60034 70034 T01280117 10139 20122 55015
2026-04-29 10:51:00,METAR KCMH 291051Z 06004KT 8SM -DZ BKN017 OVC075 12/12 A2982 RMK AO2 RAE36DZB36 SLP095 P0000 T01220117
2026-04-29 10:19:00,SPECI KCMH 291019Z 11004KT 10SM -RA BKN017 BKN055 OVC080 13/12 A2986 RMK AO2 P0000 T01280117
2026-04-29 09:51:00,METAR KCMH 290951Z COR 13004KT 8SM -RA BKN080 OVC100 12/11 A2985 RMK AO2 TSE22 SLP105 TS MOV NE P0018 T01220111
2026-04-29 09:28:00,SPECI KCMH 290928Z 36011KT 8SM -RA BKN042 BKN070 OVC090 12/12 A2982 RMK AO2 TSE22 TS MOVE NE P0017 T01220117
2026-04-29 08:51:00,METAR KCMH 290851Z 36004KT 7SM -TSRA FEW049 SCT070CB OVC085 12/12 A2987 RMK AO2 TSB24 SLP113 OCNL LTGICCCCG TS S AND SE MOV NE P0016 60016 T01220117 57003
2026-04-29 07:51:00,METAR KCMH 290751Z 31006KT 10SM -RA BKN041 BKN070 OVC100 14/11 A2988 RMK AO2 RAB49 PRESRR SLP116 OCNL LTGIC DSNT S AND SW MOV NE P0000 T01390111
2026-04-29 06:51:00,METAR KCMH 290651Z 00000KT 10SM BKN043 OVC220 14/11 A2988 RMK AO2 SLP113 T01390106
2026-04-29 05:51:00,METAR KCMH 290551Z 04004KT 10SM SCT047 OVC220 14/11 A2989 RMK AO2 SLP116 T01390111 10200 20139 58016
2026-04-29 04:51:00,METAR KCMH 290451Z 02003KT 10SM OVC190 14/11 A2991 RMK AO2 SLP126 T01440111 402390133
2026-04-29 03:51:00,METAR KCMH 290351Z 02003KT 10SM OVC200 15/12 A2991 RMK AO2 SLP126 T01500117
2026-04-29 02:51:00,METAR KCMH 290251Z 35006KT 10SM OVC230 16/12 A2993 RMK AO2 SLP134 T01610117 51012
2026-04-29 01:51:00,METAR KCMH 290151Z 36007KT 10SM OVC250 17/12 A2993 RMK AO2 SLP132 T01670122
2026-04-29 00:51:00,METAR KCMH 290051Z 31007KT 10SM FEW055 BKN250 19/12 A2992 RMK AO2 SLP131 T01890122
2026-04-28 23:51:00,METAR KCMH 282351Z 29007KT 10SM FEW050 BKN250 20/12 A2990 RMK AO2 SLP121 T02000117 10239 20200 56003
2026-04-28 22:51:00,METAR KCMH 282251Z 26012G20KT 10SM SCT050 BKN250 22/12 A2990 RMK AO2 SLP122 T02220117
2026-04-28 21:51:00,METAR KCMH 282151Z 26012G18KT 10SM SCT047 SCT250 23/12 A2989 RMK AO2 SLP119 T02330122
2026-04-28 20:51:00,METAR KCMH 282051Z 26012G22KT 10SM FEW047 SCT055 23/13 A2991 RMK AO2 SLP124 T02280128 55004
2026-04-28 19:51:00,METAR KCMH 281951Z 27012G19KT 10SM SCT047 23/13 A2991 RMK AO2 SLP122 T02330128
2026-04-28 18:51:00,METAR KCMH 281851Z 27013G20KT 10SM SCT042 23/13 A2992 RMK AO2 SLP126 T02330133
2026-04-28 17:51:00,METAR KCMH 281751Z 25013KT 10SM SCT047 22/14 A2992 RMK AO2 SLP128 60000 T02170139 10217 20139 58003
2026-04-28 17:24:00,SPECI KCMH 281724Z 26011KT 10SM SCT036 BKN047 BKN055 21/14 A2993 RMK AO2 T02060144
2026-04-28 16:51:00,METAR KCMH 281651Z 25011G21KT 10SM BKN024 BKN035 BKN045 19/14 A2993 RMK AO2 SLP131 T01940139
2026-04-28 16:41:00,SPECI KCMH 281641Z 26011KT 10SM BKN024 BKN035 BKN045 19/14 A2993 RMK AO2 T01940139
2026-04-28 15:51:00,METAR KCMH 281551Z 23012G17KT 10SM BKN013 BKN025 OVC046 19/16 A2993 RMK AO2 RAB18E31 SLP133 P0000 T01890156
2026-04-28 15:16:00,SPECI KCMH 281516Z 21009KT 10SM BKN013 OVC018 17/16 A2994 RMK AO2 T01720156
2026-04-28 14:51:00,METAR KCMH 281451Z 21008KT 10SM BKN009 BKN017 OVC023 17/15 A2993 RMK AO2 DZE22 SLP133 P0000 60000 T01670150 53017
2026-04-28 13:51:00,METAR KCMH 281351Z 18006KT 4SM -DZ BR OVC009 14/14 A2991 RMK AO2 DZB1256 SLP126 P0000 T01440139
2026-04-28 13:22:00,SPECI KCMH 281322Z 17007KT 5SM -DZ BR BKN009 OVC014 14/13 A2990 RMK AO2 DZB1256 P0000 T01440133
2026-04-28 13:08:00,SPECI KCMH 281308Z 17007KT 7SM -DZ OVC014 14/13 A2990 RMK AO2 DZB1256 P0000 T01440128
2026-04-28 12:51:00,METAR KCMH 281251Z 17008KT 10SM FEW010 OVC015 14/13 A2989 RMK AO2 SLP121 T01440128
2026-04-28 12:20:00,SPECI KCMH 281220Z 17006KT 10SM SCT014 BKN026 OVC046 14/12 A2989 RMK AO2 T01390122
2026-04-28 11:51:00,METAR KCMH 281151Z 18008KT 10SM BKN014 OVC023 14/12 A2988 RMK AO2 SLP115 60059 70099 T01390117 10161 20133 51032
2026-04-28 10:51:00,METAR KCMH 281051Z 18008G16KT 10SM OVC014 13/12 A2987 RMK AO2 SLP111 T01330117 $
2026-04-28 10:02:00,SPECI KCMH 281002Z 17009KT 10SM BKN017 OVC250 13/11 A2984 RMK AO2 T01330111 $
2026-04-28 09:51:00,METAR KCMH 280951Z 15012G17KT 10SM SCT017 OVC250 14/11 A2984 RMK AO2 PK WND 12027/0859 RAE22 SLP100 P0000 T01390111 $
2026-04-28 08:51:00,METAR KCMH 280851Z 15011G27KT 10SM -RA FEW100 OVC200 15/13 A2978 RMK AO2 PK WND 13037/0816 SLP080 P0003 60059 T01500128 58013 $
2026-04-28 08:07:00,SPECI KCMH 280807Z 15012KT 10SM -RA FEW006 SCT075 OVC100 15/14 A2984 RMK AO2 PRESFR P0002 T01500144 $
2026-04-28 07:51:00,METAR KCMH 280751Z 16010KT 10SM RA FEW010 SCT048 OVC080 15/14 A2988 RMK AO2 SLP114 P0041 T01500144 $
2026-04-28 07:11:00,SPECI KCMH 280711Z 14006KT 10SM R28L/3500VP6000FT +RA SCT010 BKN030 OVC037 15/14 A2989 RMK AO2 VIS 1 NW LTG DSNT SW P0019 T01500144 $
2026-04-28 07:04:00,SPECI KCMH 280704Z VRB03KT 10SM R28L/5000VP6000FT +RA BKN010 BKN025 OVC075 15/14 A2990 RMK AO2 VIS 3/4 NW LTG DSNT SW P0007 T01500144 $
2026-04-28 06:51:00,METAR KCMH 280651Z 26008KT 10SM +RA SCT012 BKN080 OVC090 16/14 A2991 RMK AO2 PK WND 17026/0617 CIG 010 NW SLP124 P0015 T01560139 $
2026-04-28 05:51:00,METAR KCMH 280551Z 15015G24KT 10SM RA OVC100 16/14 A2982 RMK AO2 PK WND 16029/0506 SLP094 P0007 60035 T01610139 10194 20161 56043 $
2026-04-28 04:51:00,METAR KCMH 280451Z 15016G25KT 10SM -RA OVC100 17/14 A2983 RMK AO2 PK WND 17026/0439 RAE06B26 SLP097 DSNT OCNL LTGICCCCCG SW MOV NE P0001 T01670144 402560089
2026-04-28 03:51:00,METAR KCMH 280351Z 16016G23KT 10SM -RA BKN110 17/15 A2987 RMK AO2 SLP110 P0006 T01720150
2026-04-28 02:51:00,METAR KCMH 280251Z COR 19003KT 10SM -RA OVC100 17/17 A2995 RMK AO2 SLP139 DSNT OCNL LTGICCCCG S-SE-W MOV NE P0007 60021 T01720167 58004
2026-04-28 01:51:00,METAR KCMH 280151Z 29007KT 7SM -RA SCT060 OVC090 18/16 A2999 RMK AO2 SLP152 P0008 T01780161
2026-04-28 00:51:00,METAR KCMH 280051Z 00000KT 7SM -RA SCT050 OVC090 18/17 A2995 RMK AO2 SLP142 P0006 T01830167
2026-04-27 23:51:00,METAR KCMH 272351Z 09005KT 9SM -RA SCT050 OVC100 19/16 A2996 RMK AO2 RAB2256 SLP145 OCNL LTGIC DSNT NW CB DSNT NW P0005 60005 T01940161 10256 20194 53007
2026-04-27 22:51:00,METAR KCMH 272251Z 16004KT 10SM FEW050 BKN120 OVC170 24/12 A2996 RMK AO2 SLP142 T02390117
2026-04-27 21:51:00,METAR KCMH 272151Z 13010KT 10SM FEW050 BKN130 BKN170 24/12 A2993 RMK AO2 SLP132 T02440122
2026-04-27 20:51:00,METAR KCMH 272051Z 12011KT 10SM FEW055 SCT140 BKN190 24/12 A2994 RMK AO2 SLP137 T02440122 56022
2026-04-27 19:51:00,METAR KCMH 271951Z 14008G19KT 10SM SCT140 BKN210 25/12 A2995 RMK AO2 SLP139 T02500117
2026-04-27 18:51:00,METAR KCMH 271851Z 12012KT 10SM FEW130 BKN210 25/12 A2998 RMK AO2 SLP149 T02500117
2026-04-27 17:51:00,METAR KCMH 271751Z 12012KT 10SM FEW090 BKN250 24/12 A3001 RMK AO2 SLP158 T02440117 10244 20106 58022
2026-04-27 16:51:00,METAR KCMH 271651Z 15010G19KT 10SM SCT120 BKN250 22/11 A3004 RMK AO2 SLP170 T02220111
2026-04-27 15:51:00,METAR KCMH 271551Z 14009KT 10SM FEW100 SCT120 BKN250 20/11 A3005 RMK AO2 SLP176 T02000106
2026-04-27 14:51:00,METAR KCMH 271451Z 11009KT 10SM SCT150 BKN250 18/11 A3007 RMK AO2 SLP184 T01780106 58003
2026-04-27 13:51:00,METAR KCMH 271351Z 15009KT 10SM FEW090 FEW150 BKN250 14/09 A3009 RMK AO2 SLP188 T01440089
2026-04-27 12:51:00,METAR KCMH 271251Z 14011KT 10SM FEW100 BKN250 13/08 A3009 RMK AO2 SLP189 T01280078
2026-04-27 11:51:00,METAR KCMH 271151Z 12008KT 10SM FEW100 BKN250 11/07 A3008 RMK AO2 SLP188 T01060067 10117 20089 50002
2026-04-27 10:51:00,METAR KCMH 271051Z 12006KT 10SM BKN100 BKN250 09/06 A3009 RMK AO2 SLP188 T00940061
2026-04-27 09:51:00,METAR KCMH 270951Z 12004KT 10SM SCT250 09/06 A3009 RMK AO2 SLP188 T00940061
2026-04-27 08:51:00,METAR KCMH 270851Z 12008KT 10SM SCT250 10/07 A3008 RMK AO2 SLP185 T01000067 55004
2026-04-27 07:51:00,METAR KCMH 270751Z 11008KT 10SM FEW250 11/07 A3007 RMK AO2 SLP183 T01060067
2026-04-27 06:51:00,METAR KCMH 270651Z 10009KT 10SM FEW250 11/07 A3007 RMK AO2 SLP183 T01110067
2026-04-27 05:51:00,METAR KCMH 270551Z 10011KT 10SM CLR 12/07 A3009 RMK AO2 SLP190 T01170072 10139 20094 56005
2026-04-27 04:51:00,METAR KCMH 270451Z 00000KT 10SM CLR 11/08 A3009 RMK AO2 SLP190 T01110078 401670083
2026-04-27 03:51:00,METAR KCMH 270351Z 05003KT 10SM CLR 09/08 A3010 RMK AO2 SLP193 T00940078
2026-04-27 02:51:00,METAR KCMH 270251Z 03004KT 10SM FEW250 10/08 A3011 RMK AO2 SLP196 T01000078 53009
2026-04-27 01:51:00,METAR KCMH 270151Z 03003KT 10SM FEW250 12/08 A3009 RMK AO2 SLP189 T01220083
2026-04-27 00:51:00,METAR KCMH 270051Z 06005KT 10SM FEW250 13/08 A3007 RMK AO2 SLP182 T01280083
2026-04-26 23:51:00,METAR KCMH 262351Z 06006KT 10SM FEW250 14/08 A3008 RMK AO2 SLP186 T01390083 10167 20128 51005
2026-04-26 22:51:00,METAR KCMH 262251Z 07009KT 10SM FEW250 16/09 A3007 RMK AO2 SLP184 T01560089
2026-04-26 21:51:00,METAR KCMH 262151Z 08008KT 10SM FEW029 FEW250 16/09 A3008 RMK AO2 SLP184 T01610089
2026-04-26 20:51:00,METAR KCMH 262051Z 09008KT 10SM FEW027 FEW250 16/09 A3006 RMK AO2 SLP179 T01610094 58013
2026-04-26 19:51:00,METAR KCMH 261951Z VRB05KT 10SM SCT022 16/08 A3008 RMK AO2 SLP184 T01560083
2026-04-26 18:51:00,METAR KCMH 261851Z 09008KT 10SM BKN020 14/08 A3009 RMK AO2 SLP190 T01390083
2026-04-26 17:51:00,METAR KCMH 261751Z 09008KT 10SM OVC020 13/08 A3010 RMK AO2 SLP193 T01280078 10133 20083 50003
2026-04-26 16:51:00,METAR KCMH 261651Z 07005KT 10SM OVC018 12/07 A3011 RMK AO2 SLP197 T01220072
2026-04-26 15:51:00,METAR KCMH 261551Z 06005KT 10SM OVC016 11/07 A3011 RMK AO2 SLP196 T01110067
2026-04-26 15:31:00,SPECI KCMH 261531Z 04005KT 10SM OVC016 11/07 A3011 RMK AO2 T01110067
2026-04-26 14:51:00,METAR KCMH 261451Z 05007KT 10SM OVC013 11/07 A3009 RMK AO2 SLP190 T01060067 51006
2026-04-26 13:51:00,METAR KCMH 261351Z 05008KT 10SM OVC013 09/06 A3009 RMK AO2 SLP189 T00940061
2026-04-26 12:51:00,METAR KCMH 261251Z 03009KT 10SM OVC013 08/06 A3008 RMK AO2 SLP188 T00830061
2026-04-26 11:51:00,METAR KCMH 261151Z 02008KT 10SM OVC013 08/06 A3007 RMK AO2 SLP183 T00830056 10100 20083 53018
2026-04-26 10:51:00,METAR KCMH 261051Z 08007KT 10SM OVC013 08/06 A3005 RMK AO2 SLP176 T00830056
2026-04-26 09:51:00,METAR KCMH 260951Z 03006KT 10SM OVC013 09/06 A3003 RMK AO2 SLP169 T00890061
2026-04-26 08:51:00,METAR KCMH 260851Z 02007KT 10SM OVC013 09/06 A3002 RMK AO2 SLP164 T00890061 53007
2026-04-26 08:05:00,SPECI KCMH 260805Z 01010KT 10SM OVC013 09/06 A3000 RMK AO2 T00940061
2026-04-26 07:51:00,METAR KCMH 260751Z 03010KT 10SM OVC015 09/07 A2999 RMK AO2 SLP155 T00940067
2026-04-26 06:51:00,METAR KCMH 260651Z 04007KT 10SM OVC017 09/06 A2998 RMK AO2 SLP152 T00940061
2026-04-26 05:51:00,METAR KCMH 260551Z 04011KT 10SM OVC015 09/06 A3000 RMK AO2 SLP156 T00940061 10172 20094 50004
2026-04-26 04:51:00,METAR KCMH 260451Z 04007KT 10SM OVC017 11/07 A3000 RMK AO2 SLP157 T01060067 402170100
2026-04-26 03:51:00,METAR KCMH 260351Z 02011G19KT 10SM OVC017 11/07 A3000 RMK AO2 SLP156 T01060067
2026-04-26 02:51:00,METAR KCMH 260251Z 02015G21KT 10SM OVC015 11/07 A2999 RMK AO2 PK WND 01027/0156 SLP152 T01110072 51030
2026-04-26 01:51:00,METAR KCMH 260151Z 01016G22KT 10SM OVC017 12/09 A2997 RMK AO2 SLP146 T01220089
2026-04-26 00:51:00,METAR KCMH 260051Z 36014KT 10SM OVC019 14/11 A2993 RMK AO2 SLP134 T01440106
2026-04-26 00:15:00,SPECI KCMH 260015Z 36016G23KT 10SM SCT016 BKN029 15/12 A2991 RMK AO2 T01500117
2026-04-25 23:51:00,METAR KCMH 252351Z 35019G24KT 10SM SCT029 17/12 A2990 RMK AO2 SLP121 T01720122 10217 20172 53016
2026-04-25 22:51:00,METAR KCMH 252251Z 34010KT 10SM SCT034 20/12 A2986 RMK AO2 SLP108 T02000122
2026-04-25 21:51:00,METAR KCMH 252151Z 02010KT 10SM SCT038 SCT046 21/13 A2985 RMK AO2 SLP104 T02060128
2026-04-25 20:51:00,METAR KCMH 252051Z 01010KT 10SM BKN037 21/13 A2985 RMK AO2 SLP103 T02110128 58003
2026-04-25 19:51:00,METAR KCMH 251951Z 35010KT 10SM OVC039 19/12 A2986 RMK AO2 SLP107 T01940122
2026-04-25 18:51:00,METAR KCMH 251851Z 33011KT 10SM BKN027 OVC039 19/13 A2986 RMK AO2 SLP107 T01940128
2026-04-25 17:51:00,METAR KCMH 251751Z 32011G18KT 10SM BKN029 BKN047 19/13 A2986 RMK AO2 SLP106 T01940128 10200 20161 50005
2026-04-25 16:51:00,METAR KCMH 251651Z 35012KT 10SM BKN025 BKN046 18/13 A2986 RMK AO2 SLP109 T01780133
2026-04-25 15:51:00,METAR KCMH 251551Z 33013KT 10SM SCT022 BKN029 BKN048 18/13 A2986 RMK AO2 SLP106 T01830128
2026-04-25 14:51:00,METAR KCMH 251451Z 34012KT 10SM SCT019 BKN026 18/13 A2984 RMK AO2 SLP100 T01830133 51013
2026-04-25 13:51:00,METAR KCMH 251351Z 35007KT 9SM SCT013 OVC026 17/14 A2983 RMK AO2 SLP098 T01720139
2026-04-25 12:51:00,METAR KCMH 251251Z 31008KT 8SM SCT013 OVC025 17/14 A2982 RMK AO2 SLP094 T01670144
2026-04-25 12:13:00,SPECI KCMH 251213Z 33008KT 8SM SCT014 OVC020 16/14 A2982 RMK AO2 T01610139
2026-04-25 11:51:00,METAR KCMH 251151Z 32007KT 8SM BKN012 OVC029 16/14 A2980 RMK AO2 SLP087 60001 70011 T01610144 10167 20156 53015
2026-04-25 10:51:00,METAR KCMH 251051Z 29007KT 7SM BKN011 OVC037 16/14 A2979 RMK AO2 SLP081 T01560144
2026-04-25 09:51:00,METAR KCMH 250951Z 32007KT 10SM BKN013 BKN021 BKN075 BKN250 16/14 A2977 RMK AO2 SLP074 T01610144
2026-04-25 09:22:00,SPECI KCMH 250922Z 32007KT 10SM SCT008 BKN013 OVC026 16/15 A2977 RMK AO2 T01610150
2026-04-25 08:51:00,METAR KCMH 250851Z 27005KT 10SM OVC006 16/16 A2976 RMK AO2 RAE11 SLP072 P0000 60001 T01610156 55004
2026-04-25 08:22:00,SPECI KCMH 250822Z 24005KT 10SM OVC008 16/15 A2975 RMK AO2 RAE11 P0000 T01610150
2026-04-25 08:01:00,SPECI KCMH 250801Z 23006KT 10SM -RA BKN010 OVC017 16/15 A2975 RMK AO2 P0000 T01610150
2026-04-25 07:51:00,METAR KCMH 250751Z 23005KT 10SM -RA BKN017 OVC028 16/15 A2975 RMK AO2 CIG 010 NW SLP068 P0000 T01610150
2026-04-25 07:35:00,SPECI KCMH 250735Z 22004KT 10SM -RA BKN015 BKN090 OVC110 16/16 A2975 RMK AO2 P0000 T01610156
2026-04-25 06:51:00,METAR KCMH 250651Z 22004KT 9SM -RA FEW029 FEW047 BKN110 OVC250 16/15 A2975 RMK AO2 SLP069 P0001 T01610150
2026-04-25 05:51:00,METAR KCMH 250551Z 20006KT 6SM -RA BR FEW029 FEW047 OVC100 17/16 A2977 RMK AO2 SLP076 P0001 60010 T01670156 10256 20161 50001
2026-04-25 04:53:00,SPECI KCMH 250453Z 18003KT 4SM -RA BR SCT029 BKN055 OVC075 17/16 A2978 RMK AO2 P0000 T01720156
2026-04-25 04:51:00,METAR KCMH 250451Z 17004KT 3SM RA BR BKN029 BKN043 OVC080 17/16 A2978 RMK AO2 RAB0358 SLP080 P0009 T01720156 402780122
2026-04-25 04:40:00,SPECI KCMH 250440Z 24004KT 4SM RA BR BKN029 BKN043 OVC080 17/15 A2979 RMK AO2 RAB0358 P0006 T01720150
2026-04-25 03:51:00,METAR KCMH 250351Z 26010KT 10SM FEW020 BKN055 BKN110 OVC250 20/14 A2978 RMK AO2 SLP079 T02000139
2026-04-25 02:51:00,METAR KCMH 250251Z 31007KT 10SM SCT065 BKN110 BKN250 21/14 A2977 RMK AO2 WSHFT 0138 SLP075 T02060144 53016
2026-04-25 01:51:00,METAR KCMH 250151Z 33011KT 10SM BKN065 BKN110 OVC250 22/15 A2975 RMK AO2 WSHFT 0136 SLP068 T02170150
2026-04-25 00:51:00,METAR KCMH 250051Z 23005KT 10SM FEW065 BKN100 OVC120 24/11 A2972 RMK AO2 SLP059 T02440111
2026-04-24 23:51:00,METAR KCMH 242351Z 21008KT 10SM SCT070 BKN120 BKN170 OVC250 26/11 A2972 RMK AO2 SLP059 T02560106 10278 20256 55001
2026-04-24 22:51:00,METAR KCMH 242251Z 21012G17KT 10SM FEW065 SCT095 BKN250 27/11 A2971 RMK AO2 SLP056 TCU DSNT SW-W T02670106
2026-04-24 21:51:00,METAR KCMH 242151Z 23012KT 10SM FEW070 SCT090 SCT250 27/10 A2971 RMK AO2 SLP056 T02670100
2026-04-24 20:51:00,METAR KCMH 242051Z 19016G27KT 10SM SCT070 BKN250 27/10 A2972 RMK AO2 PK WND 19027/2051 SLP060 T02720100 56020
2026-04-24 19:51:00,METAR KCMH 241951Z 23012G20KT 10SM SCT075 SCT250 28/11 A2974 RMK AO2 SLP066 T02780106
2026-04-24 18:51:00,METAR KCMH 241851Z 22011G17KT 10SM SCT070 SCT250 27/10 A2976 RMK AO2 SLP073 T02720100
2026-04-24 17:51:00,METAR KCMH 241751Z 21014G20KT 10SM FEW065 SCT090 BKN250 26/11 A2978 RMK AO2 SLP080 T02610111 10267 20144 58017 $
2026-04-24 16:51:00,METAR KCMH 241651Z 21010G20KT 10SM FEW060 SCT080 BKN250 26/11 A2980 RMK AO2 SLP088 T02560111
2026-04-24 15:51:00,METAR KCMH 241551Z 22007KT 190V250 10SM FEW060 SCT100 BKN250 24/13 A2983 RMK AO2 SLP096 T02390128
2026-04-24 14:51:00,METAR KCMH 241451Z 19006KT 10SM FEW080 BKN250 22/12 A2983 RMK AO2 SLP098 T02220122 58009
2026-04-24 13:51:00,METAR KCMH 241351Z 19006KT 10SM SCT065 BKN250 20/11 A2984 RMK AO2 SLP101 T02000111
2026-04-24 12:51:00,METAR KCMH 241251Z 20004KT 10SM FEW055 SCT250 18/10 A2986 RMK AO2 SLP106 T01780100
2026-04-24 11:51:00,METAR KCMH 241151Z 00000KT 10SM FEW055 SCT250 14/11 A2986 RMK AO2 SLP107 T01440106 10150 20122 55001
2026-04-24 10:51:00,METAR KCMH 241051Z 00000KT 10SM FEW050 SCT250 13/09 A2986 RMK AO2 SLP107 T01280094
2026-04-24 09:51:00,METAR KCMH 240951Z 00000KT 10SM SCT250 12/10 A2986 RMK AO2 SLP108 T01220100
2026-04-24 08:51:00,METAR KCMH 240851Z 00000KT 10SM FEW250 13/10 A2986 RMK AO2 SLP108 T01330100 56002
2026-04-24 07:51:00,METAR KCMH 240751Z 00000KT 10SM FEW250 13/10 A2987 RMK AO2 SLP108 T01330100
2026-04-24 06:51:00,METAR KCMH 240651Z 00000KT 10SM FEW250 14/10 A2987 RMK AO2 SLP109 T01390100
2026-04-24 05:51:00,METAR KCMH 240551Z 11003KT 10SM SCT250 13/11 A2987 RMK AO2 SLP111 T01330111 10250 20133 55001
2026-04-24 04:51:00,METAR KCMH 240451Z 00000KT 10SM FEW250 16/11 A2986 RMK AO2 SLP107 T01560106 402720111
2026-04-24 03:51:00,METAR KCMH 240351Z 10003KT 10SM FEW250 16/11 A2987 RMK AO2 SLP110 T01610106
2026-04-24 02:51:00,METAR KCMH 240251Z 00000KT 10SM FEW250 19/10 A2988 RMK AO2 SLP112 T01890100 58000
2026-04-24 01:51:00,METAR KCMH 240151Z 19004KT 10SM CLR 21/09 A2988 RMK AO2 SLP114 T02110094
2026-04-24 00:51:00,METAR KCMH 240051Z 21003KT 10SM FEW080 FEW250 23/09 A2988 RMK AO2 SLP114 T02330089 ZCZC CLERR7CMH ALL .A CMH 0424 DH0100/PPH 0.00
2026-04-23 23:51:00,METAR KCMH 232351Z 24007KT 10SM FEW075 FEW250 25/09 A2988 RMK AO2 SLP112 T02500089 10272 20244 56005
2026-04-23 22:51:00,METAR KCMH 232251Z 24010KT 10SM FEW070 26/09 A2988 RMK AO2 SLP113 T02610089
2026-04-23 21:51:00,METAR KCMH 232151Z 00000KT 10SM FEW070 26/12 A2988 RMK AO2 SLP116 T02560117
2026-04-23 20:51:00,METAR KCMH 232051Z 20009G19KT 10SM SCT065 27/11 A2989 RMK AO2 SLP117 VCSH N-NE T02670106 58024
2026-04-23 19:51:00,METAR KCMH 231951Z 23008KT 10SM SCT065 27/12 A2992 RMK AO2 SLP126 T02670117
2026-04-23 18:51:00,METAR KCMH 231851Z 23007KT 10SM SCT055 26/12 A2995 RMK AO2 SLP136 T02560122
2026-04-23 17:51:00,METAR KCMH 231751Z 28005KT 10SM SCT049 SCT060 25/13 A2996 RMK AO2 SLP142 T02500133 10250 20133 58019
2026-04-23 16:51:00,METAR KCMH 231651Z 23007KT 10SM SCT047 24/14 A2999 RMK AO2 SLP152 T02440144
2026-04-23 15:51:00,METAR KCMH 231551Z 18004KT 10SM SCT045 SCT200 SCT250 23/14 A3001 RMK AO2 SLP160 T02280144
2026-04-23 14:51:00,METAR KCMH 231451Z 00000KT 10SM FEW070 FEW250 21/14 A3002 RMK AO2 SLP162 T02060139 50000
2026-04-23 13:51:00,METAR KCMH 231351Z 00000KT 10SM SCT060 SCT250 16/13 A3003 RMK AO2 SLP166 T01560133
2026-04-23 12:51:00,METAR KCMH 231251Z 15004KT 8SM SCT075 SCT250 14/14 A3003 RMK AO2 SLP167 T01440139
2026-04-23 11:51:00,METAR KCMH 231151Z 00000KT 5SM BR SCT050 SCT075 SCT250 13/13 A3002 RMK AO2 SLP164 70080 T01330128 10133 20111 53004
2026-04-23 10:51:00,METAR KCMH 231051Z 00000KT 4SM BR SCT085 SCT250 12/12 A3001 RMK AO2 SLP159 T01170117
2026-04-23 09:51:00,METAR KCMH 230951Z 10003KT 5SM BR FEW085 FEW250 12/12 A3000 RMK AO2 SLP156 T01220122
2026-04-23 08:51:00,METAR KCMH 230851Z 00000KT 5SM R28L/3500VP6000FT BR BKN075 12/12 A3001 RMK AO2 SLP157 T01220122 55001
2026-04-23 07:51:00,METAR KCMH 230751Z 00000KT 8SM R28L/3000VP6000FT FEW130 12/12 A3000 RMK AO2 SLP157 T01220117
2026-04-23 06:51:00,METAR KCMH 230651Z 00000KT 5SM R28L/2400VP6000FT BR SCT130 13/12 A3001 RMK AO2 SLP156 T01280122
2026-04-23 05:51:00,METAR KCMH 230551Z 14004KT 8SM FEW090 SCT200 13/13 A3001 RMK AO2 SLP159 60030 T01330133 10183 20128 56009
2026-04-23 04:51:00,METAR KCMH 230451Z 21003KT 10SM FEW080 SCT200 14/13 A3002 RMK AO2 SLP164 T01390133 402610139
2026-04-23 03:51:00,METAR KCMH 230351Z 18003KT 10SM SCT075 BKN095 15/13 A3002 RMK AO2 SLP162 T01500133
2026-04-23 02:51:00,METAR KCMH 230251Z 02006KT 10SM FEW070 BKN100 OVC110 15/13 A3004 RMK AO2 RAB06E16 SLP168 P0000 60030 T01500133 51024
2026-04-23 01:51:00,METAR KCMH 230151Z 12007KT 10SM BKN075 OVC130 16/13 A3002 RMK AO2 RAE34 SLP162 P0003 T01560133
2026-04-23 01:17:00,SPECI KCMH 230117Z 08006KT 10SM -RA OVC070 16/14 A3003 RMK AO2 LTG DSNT SE P0003 T01560139
2026-04-23 00:51:00,METAR KCMH 230051Z 36009G21KT 6SM VCTS -RA SCT050 BKN065 OVC085 16/14 A3004 RMK AO2 PK WND 34038/0012 LTG DSNT E-S RAB2357 TSE51 SLP169 TS MOV SE P0027 T01560139
2026-04-22 23:51:00,METAR KCMH 222351Z COR 17008KT 10SM TS FEW032 BKN065CB OVC100 17/13 A2996 RMK AO2 LTG DSNT ALQDS RAE49 TSE30B49 SLP144 FRQ LTGICCC TS SE-S MOV SE P0010 60050 T01720133 10261 20167 51007
2026-04-22 23:36:00,SPECI KCMH 222336Z 17008KT 10SM VCTS -RA FEW030 BKN065 OVC100 17/14 A2997 RMK AO2 LTG DSNT ALQDS TSE30 TS MOV SE P0009 T01670139
2026-04-22 22:51:00,METAR KCMH 222251Z 34006KT 8SM -TSRA FEW017 BKN060CB OVC130 18/13 A2996 RMK AO2 WSHFT 2157 LTG DSNT ALQDS GRB13E28 SLP143 OCNL LTGIC TS W MOV SE GR LESS THAN 1/4 IN P0036 T01830133
2026-04-22 22:29:00,SPECI KCMH 222229Z 34006KT 6SM -TSRA BR BKN055CB OVC075 18/16 A2996 RMK AO2 WSHFT 2157 LTG DSNT ALQDS GRB13E28 OCNL LTGIC TS OHD-W MOV SE GR LESS THAN 1/4 P0036 T01780156
2026-04-22 22:13:00,SPECI KCMH 222213Z 32011KT 6SM R28L/2000VP6000FT +TSGRRA BR BKN055CB OVC075 18/16 A2995 RMK AO2 WSHFT 2157 LTG DSNT ALQDS GRB13 FRQ LTGCCCG TS OHD MOV SE P0010 T01780156
2026-04-22 21:51:00,METAR KCMH 222151Z 10007KT 6SM TSRA BKN050CB BKN070 OVC120 19/15 A2994 RMK AO2 PK WND 23026/2112 LTG DSNT E AND W RAB14 TSB35 SLP137 FRQ LTGICCG TS W-NW MOV SE P0003 T01940150
2026-04-22 21:36:00,SPECI KCMH 222136Z 22004KT 10SM -TSRA FEW050 BKN065CB OVC120 22/16 A2994 RMK AO2 PK WND 23026/2112 LTG DSNT NE-SE RAB14 TSB35 FRQ LTGICCG TS W-NW MOV SE P0001 T02170156
2026-04-22 20:51:00,METAR KCMH 222051Z 22010G20KT 10SM VCTS FEW050 BKN065 BKN090 BKN150 24/13 A2994 RMK AO2 LTG DSNT NE AND NW RAB18E33 SLP135 P0001 60001 T02440133 58018
2026-04-22 20:41:00,SPECI KCMH 222041Z 22011G21KT 10SM VCTS FEW046 BKN065 BKN090 25/13 A2994 RMK AO2 LTG DSNT W-NE RAB18E33 P0001 T02500133
2026-04-22 19:51:00,METAR KCMH 221951Z 24016G23KT 10SM FEW048 SCT065 SCT120 26/13 A2997 RMK AO2 SLP142 T02560133
2026-04-22 18:51:00,METAR KCMH 221851Z 23008KT 10SM SCT049 SCT110 26/13 A2998 RMK AO2 SLP147 T02560128
2026-04-22 17:51:00,METAR KCMH 221751Z 26013G18KT 10SM FEW055 SCT100 24/12 A3000 RMK AO2 SLP152 T02390117 10244 20150 58008
2026-04-22 16:51:00,METAR KCMH 221651Z 23006KT 10SM FEW080 23/12 A3001 RMK AO2 SLP157 T02330117
2026-04-22 15:51:00,METAR KCMH 221551Z VRB06KT 10SM FEW075 22/11 A3002 RMK AO2 SLP162 T02220111
2026-04-22 14:51:00,METAR KCMH 221451Z 25014KT 10SM FEW070 SCT100 21/11 A3002 RMK AO2 SLP162 T02110106 52003
2026-04-22 13:51:00,METAR KCMH 221351Z 27010KT 10SM SCT065 SCT150 20/10 A3002 RMK AO2 SLP160 T02000100
2026-04-22 12:51:00,METAR KCMH 221251Z 21005KT 10SM SCT060 SCT150 17/08 A3002 RMK AO2 LTG DSNT SE SLP161 T01720078
2026-04-22 11:51:00,METAR KCMH 221151Z 18004KT 10SM BKN060 BKN250 15/07 A3001 RMK AO2 SLP160 60000 T01500072 10183 20144 53015
2026-04-22 10:51:00,METAR KCMH 221051Z 19004KT 10SM FEW050 SCT100 SCT150 15/07 A2999 RMK AO2 RAB08E27 SLP151 P0000 T01500067
2026-04-22 09:51:00,METAR KCMH 220951Z 20006KT 10SM SCT080 BKN110 BKN150 16/07 A2997 RMK AO2 SLP145 DSNT OCNL LTGICCCCG E-S MOV E T01560067
2026-04-22 08:51:00,METAR KCMH 220851Z 20007KT 10SM BKN070 OVC120 17/06 A2997 RMK AO2 RAB26E45 SLP144 P0000 60000 T01670061 55011
2026-04-22 07:51:00,METAR KCMH 220751Z 24006KT 10SM OVC065 17/06 A2997 RMK AO2 SLP142 T01720061
2026-04-22 06:51:00,METAR KCMH 220651Z 23014G21KT 10SM BKN065 OVC095 18/07 A2998 RMK AO2 RAB33E45 SLP146 P0000 T01780067
2026-04-22 05:51:00,METAR KCMH 220551Z 26012G20KT 10SM BKN090 OVC130 18/05 A3000 RMK AO2 PK WND 23028/0528 SLP155 T01830050 10228 20183 55007
2026-04-22 04:51:00,METAR KCMH 220451Z 20009KT 10SM SCT110 OVC150 18/03 A2999 RMK AO2 SLP153 T01830028 402500033
2026-04-22 03:51:00,METAR KCMH 220351Z 20006KT 10SM OVC150 19/02 A3000 RMK AO2 SLP156 T01890022
2026-04-22 02:51:00,METAR KCMH 220251Z 22007KT 10SM OVC150 20/02 A3002 RMK AO2 SLP164 T02000017 50014
2026-04-22 01:51:00,METAR KCMH 220151Z 22006KT 10SM BKN220 21/01 A3003 RMK AO2 SLP167 T02060011
2026-04-22 00:51:00,METAR KCMH 220051Z 23009KT 10SM FEW150 BKN250 22/01 A3001 RMK AO2 SLP160 T02170006
2026-04-21 23:51:00,METAR KCMH 212351Z 23010KT 10SM BKN150 OVC250 23/01 A2998 RMK AO2 PK WND 23030/2308 SLP152 T02280006 10250 20217 56003
2026-04-21 22:51:00,METAR KCMH 212251Z 23018G29KT 10SM FEW090 SCT120 BKN250 24/01 A2998 RMK AO2 PK WND 22031/2220 SLP153 T02390006
2026-04-21 21:51:00,METAR KCMH 212151Z 22017G30KT 10SM FEW150 BKN250 24/02 A2997 RMK AO2 PK WND 22031/2134 SLP148 T02440017
2026-04-21 20:51:00,METAR KCMH 212051Z 23012G28KT 10SM BKN250 24/04 A2999 RMK AO2 PK WND 24033/1954 SLP154 T02390044 56037
2026-04-21 19:51:00,METAR KCMH 211951Z 25019G32KT 10SM SCT250 24/03 A3002 RMK AO2 PK WND 21034/1910 SLP166 T02440033
2026-04-21 18:51:00,METAR KCMH 211851Z 21018G28KT 10SM FEW170 SCT250 24/03 A3005 RMK AO2 PK WND 22028/1846 SLP177 T02390033
2026-04-21 17:51:00,METAR KCMH 211751Z 19011KT 10SM FEW250 22/04 A3010 RMK AO2 SLP193 T02220039 10222 20050 58036
2026-04-21 16:51:00,METAR KCMH 211651Z 20012KT 10SM FEW250 18/01 A3015 RMK AO2 SLP210 T01780006
2026-04-21 15:51:00,METAR KCMH 211551Z 18013G20KT 10SM FEW250 17/M01 A3019 RMK AO2 SLP223 T01671011
2026-04-21 14:51:00,METAR KCMH 211451Z 19015G20KT 10SM SCT250 14/M03 A3021 RMK AO2 SLP232 T01391033 58018
2026-04-21 13:51:00,METAR KCMH 211351Z 17009KT 10SM SCT090 BKN250 11/M05 A3024 RMK AO2 SLP244 T01061050
2026-04-21 12:51:00,METAR KCMH 211251Z 16009KT 10SM SCT080 BKN250 08/M05 A3026 RMK AO2 SLP251 T00781050
2026-04-21 11:51:00,METAR KCMH 211151Z 15005KT 10SM FEW060 SCT080 SCT100 BKN250 05/M05 A3027 RMK AO2 SLP253 T00501050 10050 20033 58003
2026-04-21 10:51:00,METAR KCMH 211051Z 13005KT 10SM FEW150 SCT250 03/M05 A3027 RMK AO2 SLP256 T00331050
2026-04-21 09:51:00,METAR KCMH 210951Z 15004KT 10SM FEW140 FEW250 04/M06 A3027 RMK AO2 SLP254 T00391056
2026-04-21 08:51:00,METAR KCMH 210851Z 14003KT 10SM SCT140 04/M06 A3028 RMK AO2 SLP255 T00441061 55000
2026-04-21 07:51:00,METAR KCMH 210751Z 00000KT 10SM SCT150 04/M06 A3027 RMK AO2 SLP255 T00391061
2026-04-21 06:51:00,METAR KCMH 210651Z 13005KT 10SM FEW150 04/M06 A3027 RMK AO2 SLP254 T00391061
2026-04-21 05:51:00,METAR KCMH 210551Z 13005KT 10SM CLR 04/M06 A3028 RMK AO2 SLP256 T00441061 10094 20044 55006
2026-04-21 04:51:00,METAR KCMH 210451Z 13004KT 10SM CLR 05/M06 A3027 RMK AO2 SLP255 T00501061 401060011
2026-04-21 03:51:00,METAR KCMH 210351Z 12003KT 10SM FEW250 05/M06 A3028 RMK AO2 SLP258 T00501056
2026-04-21 02:51:00,METAR KCMH 210251Z 07003KT 10SM FEW250 06/M06 A3030 RMK AO2 SLP264 T00561056 56004
2026-04-21 01:51:00,METAR KCMH 210151Z 08005KT 10SM FEW050 FEW250 06/M07 A3030 RMK AO2 SLP266 T00611067
2026-04-21 00:51:00,METAR KCMH 210051Z 06004KT 10SM FEW070 SCT250 07/M07 A3030 RMK AO2 SLP265 T00721072
2026-04-20 23:51:00,METAR KCMH 202351Z 00000KT 10SM FEW070 SCT250 09/M08 A3031 RMK AO2 SLP267 T00941083 10106 20078 58001
2026-04-20 22:51:00,METAR KCMH 202251Z VRB05KT 10SM FEW070 FEW250 10/M08 A3032 RMK AO2 SLP272 T01001083
2026-04-20 21:51:00,METAR KCMH 202151Z 32006KT 10SM FEW070 FEW250 10/M09 A3032 RMK AO2 SLP271 T01001089
2026-04-20 20:51:00,METAR KCMH 202051Z 32009KT 10SM FEW070 FEW250 11/M08 A3031 RMK AO2 SLP268 T01061078 58013
2026-04-20 19:51:00,METAR KCMH 201951Z 34006KT 10SM FEW070 11/M07 A3033 RMK AO2 SLP275 T01061072
2026-04-20 18:51:00,METAR KCMH 201851Z 30009KT 10SM FEW065 09/M07 A3034 RMK AO2 SLP280 T00941072
2026-04-20 17:51:00,METAR KCMH 201751Z 29008G16KT 10SM BKN060 09/M06 A3035 RMK AO2 SLP282 T00891056 10089 20022 58004
2026-04-20 16:51:00,METAR KCMH 201651Z 33007KT 10SM BKN055 08/M06 A3036 RMK AO2 SLP285 T00781061
2026-04-20 15:51:00,METAR KCMH 201551Z 31005KT 10SM BKN055 07/M06 A3037 RMK AO2 SLP287 T00721056
2026-04-20 14:51:00,METAR KCMH 201451Z 02007KT 10SM BKN047 BKN060 06/M06 A3036 RMK AO2 SLP286 T00561061 51016
2026-04-20 13:51:00,METAR KCMH 201351Z 33008KT 10SM CLR 05/M04 A3035 RMK AO2 SLP282 T00501039
2026-04-20 12:51:00,METAR KCMH 201251Z 00000KT 10SM CLR 04/M02 A3034 RMK AO2 SLP278 T00391017
2026-04-20 11:51:00,METAR KCMH 201151Z 01004KT 10SM CLR 02/M02 A3032 RMK AO2 SLP270 T00221017 10050 20011 53026
2026-04-20 10:51:00,METAR KCMH 201051Z 36003KT 10SM CLR 01/M02 A3029 RMK AO2 SLP260 T00111022
2026-04-20 09:51:00,METAR KCMH 200951Z 01005KT 10SM CLR 02/M03 A3025 RMK AO2 SLP249 T00171028
2026-04-20 08:51:00,METAR KCMH 200851Z 34009KT 10SM CLR 03/M03 A3024 RMK AO2 SLP242 T00331033 53013
2026-04-20 07:51:00,METAR KCMH 200751Z 33008KT 10SM CLR 04/M02 A3021 RMK AO2 SLP234 T00391022
2026-04-20 06:51:00,METAR KCMH 200651Z 32007KT 10SM FEW070 04/M01 A3021 RMK AO2 SLP231 T00391011
2026-04-20 05:51:00,METAR KCMH 200551Z 32009KT 10SM FEW070 05/M01 A3020 RMK AO2 SLP229 T00501011 10100 20050 53009
2026-04-20 04:51:00,METAR KCMH 200451Z 31009KT 10SM FEW090 06/M01 A3018 RMK AO2 SLP223 T00611011 401390044
2026-04-20 03:51:00,METAR KCMH 200351Z 30011KT 10SM FEW050 BKN070 BKN090 07/M01 A3017 RMK AO2 SLP219 T00671011
2026-04-20 02:51:00,METAR KCMH 200251Z 33013KT 10SM FEW090 SCT110 07/M01 A3017 RMK AO2 SLP219 T00671011 53020
2026-04-20 01:51:00,METAR KCMH 200151Z 33011KT 10SM SCT055 BKN070 OVC090 08/M02 A3014 RMK AO2 PK WND 29026/0127 SLP210 T00831017
2026-04-20 00:51:00,METAR KCMH 200051Z 28009KT 10SM SCT080 BKN100 09/M02 A3012 RMK AO2 PK WND 30027/0003 SLP201 T00891022
2026-04-19 23:51:00,METAR KCMH 192351Z COR 28015G27KT 10SM SCT045 BKN065 BKN095 10/M03 A3011 RMK AO2 PK WND 31027/2347 SLP198 VIRGA NW-N 60000 T01001033 10139 20100 53012
2026-04-19 22:51:00,METAR KCMH 192251Z 30012G22KT 10SM SCT060 BKN100 11/M03 A3009 RMK AO2 PK WND 30034/2157 RAE01 SLP193 VIRGA VC NW-N VIRGA S-SW P0000 T01111033
2026-04-19 21:51:00,METAR KCMH 192151Z 29018G29KT 10SM -RA FEW060 BKN075 BKN090 12/M06 A3009 RMK AO2 PK WND 30044/2138 RAB44 SLP191 P0000 T01171056
2026-04-19 20:51:00,METAR KCMH 192051Z 29013G29KT 10SM FEW070 BKN080 12/M06 A3007 RMK AO2 PK WND 25029/2042 SLP186 T01221056 56013
2026-04-19 19:51:00,METAR KCMH 191951Z 26016G27KT 10SM SCT070 OVC085 12/M07 A3008 RMK AO2 PK WND 27030/1924 SLP188 T01221072
2026-04-19 18:51:00,METAR KCMH 191851Z 26013G26KT 10SM BKN090 12/M07 A3010 RMK AO2 PK WND 29030/1825 SLP194 T01221067
2026-04-19 17:51:00,METAR KCMH 191751Z 26019G28KT 10SM SCT080 13/M07 A3011 RMK AO2 PK WND 30031/1725 SLP197 T01281072 10128 20050 58009
2026-04-19 16:51:00,METAR KCMH 191651Z 28019G28KT 10SM SCT075 12/M07 A3013 RMK AO2 PK WND 27029/1600 SLP204 T01171072
2026-04-19 15:51:00,METAR KCMH 191551Z 29012G27KT 10SM SCT065 11/M06 A3014 RMK AO2 PK WND 29027/1548 SLP207 T01111056
2026-04-19 14:51:00,METAR KCMH 191451Z COR 30010KT 10SM FEW055 09/M05 A3014 RMK AO2 SLP208 T00941050 50000
2026-04-19 13:51:00,METAR KCMH 191351Z 28012KT 10SM FEW047 08/M04 A3015 RMK AO2 SLP210 T00831039
2026-04-19 12:51:00,METAR KCMH 191251Z 28013KT 10SM FEW050 07/M04 A3015 RMK AO2 SLP211 T00721039
2026-04-19 11:51:00,METAR KCMH 191151Z 29008KT 10SM FEW050 06/M03 A3014 RMK AO2 SLP208 70006 T00561028 10089 20044 51020
2026-04-19 10:51:00,METAR KCMH 191051Z 31008KT 10SM SCT045 05/M03 A3012 RMK AO2 SLP203 T00501028
2026-04-19 09:51:00,METAR KCMH 190951Z 30011G23KT 10SM BKN045 06/M04 A3010 RMK AO2 PK WND 31026/0939 SLP193 T00611039
2026-04-19 08:51:00,METAR KCMH 190851Z 29013KT 10SM BKN038 BKN046 OVC120 07/00 A3008 RMK AO2 SLP185 T00720000 53015
2026-04-19 07:51:00,METAR KCMH 190751Z 28013KT 10SM SCT038 OVC120 08/01 A3005 RMK AO2 SLP175 T00780006
2026-04-19 06:51:00,METAR KCMH 190651Z 31013KT 10SM FEW030 SCT049 OVC110 08/00 A3002 RMK AO2 SLP167 T00830000
2026-04-19 05:51:00,METAR KCMH 190551Z 30013G24KT 10SM SCT031 OVC110 09/M01 A3003 RMK AO2 SLP169 60000 T00891006 10111 20089 53005
2026-04-19 04:51:00,METAR KCMH 190451Z 29009KT 10SM SCT060 OVC095 09/03 A3002 RMK AO2 RAE02 SLP165 P0000 T00890033 402440089
2026-04-19 03:51:00,METAR KCMH 190351Z 29011KT 10SM -RA OVC090 09/03 A3001 RMK AO2 SLP161 RAB02 P0000 T00890033
2026-04-19 02:51:00,METAR KCMH 190251Z 30015G23KT 10SM OVC075 09/03 A3002 RMK AO2 PK WND 29026/0241 PRESRR SLP162 T00940033 53031
2026-04-19 01:51:00,METAR KCMH 190151Z 30014KT 10SM OVC070 10/04 A2998 RMK AO2 SLP150 T01000044
2026-04-19 00:51:00,METAR KCMH 190051Z 27013KT 10SM OVC055 11/05 A2995 RMK AO2 SLP139 T01060050
2026-04-18 23:51:00,METAR KCMH 182351Z 28013KT 10SM OVC044 11/06 A2992 RMK AO2 RAE07 SLP130 P0000 60005 T01110056 10189 20111 51038
2026-04-18 22:51:00,METAR KCMH 182251Z 29013G27KT 6SM -RA SCT019 OVC033 11/08 A2991 RMK AO2 PK WND 29027/2156 RAB01E21B48 SLP127 P0000 T01110083
2026-04-18 22:25:00,SPECI KCMH 182225Z 28019G26KT 10SM SCT015 OVC029 12/09 A2990 RMK AO2 PK WND 29027/2156 RAB01E21 P0000 T01220089
2026-04-18 21:51:00,METAR KCMH 182151Z COR 29015G25KT 10SM BKN013 OVC019 13/12 A2988 RMK AO2 PK WND 29030/2117 PRESRR SLP114 T01330117
2026-04-18 21:34:00,SPECI KCMH 182134Z 29022G29KT 10SM SCT015 BKN020 OVC029 15/12 A2986 RMK AO2 PK WND 29030/2117 CIG 015 NW T01500117
2026-04-18 20:51:00,METAR KCMH 182051Z 27012G20KT 10SM SCT025 OVC044 18/14 A2981 RMK AO2 SLP090 WSHFT 1938 FROPA 60005 T01830139 56004
2026-04-18 20:33:00,SPECI KCMH 182033Z 26012G20KT 10SM SCT023 BKN038 OVC047 18/14 A2981 RMK AO2 WSHFT 1938 T01830139
2026-04-18 19:58:00,SPECI KCMH 181958Z 26009G19KT 10SM FEW017 BKN027 OVC120 18/14 A2980 RMK AO2 WSHFT 1938 T01780144
2026-04-18 19:51:00,METAR KCMH 181951Z 26013G20KT 10SM SCT017 BKN070 OVC110 18/15 A2982 RMK AO2 WSHFT 1937 RAE09 SLP093 P0000 T01830150
2026-04-18 18:51:00,METAR KCMH 181851Z 21006KT 10SM -RA OVC060 17/14 A2980 RMK AO2 RAE27B48 SLP088 P0005 T01720144
2026-04-18 17:51:00,METAR KCMH 181751Z 27009KT 10SM -RA BKN045 OVC080 17/14 A2982 RMK AO2 PK WND 29032/1706 PRESRR SLP094 P0001 60001 T01720144 10244 20172 53016
2026-04-18 16:51:00,METAR KCMH 181651Z 28011KT 10SM -RA SCT027 OVC044 21/15 A2978 RMK AO2 WSHFT 1621 RAB04 SLP079 P0000 T02060150
2026-04-18 16:37:00,SPECI KCMH 181637Z 28013G24KT 10SM -RA BKN027 BKN037 OVC049 20/16 A2978 RMK AO2 WSHFT 1621 RAB04 P0000 T02000156
2026-04-18 15:51:00,METAR KCMH 181551Z 23015G28KT 10SM OVC042 24/15 A2977 RMK AO2 PK WND 23028/1532 SLP076 T02390150
2026-04-18 14:51:00,METAR KCMH 181451Z 22012G26KT 10SM BKN050 OVC180 23/14 A2977 RMK AO2 PK WND 21026/1444 SLP076 T02330139 58004
2026-04-18 13:51:00,METAR KCMH 181351Z 19013G24KT 10SM BKN050 BKN170 22/13 A2978 RMK AO2 SLP078 T02220128
2026-04-18 12:51:00,METAR KCMH 181251Z 19012KT 10SM SCT055 BKN170 OVC250 22/12 A2978 RMK AO2 SLP077 T02170117
2026-04-18 11:51:00,METAR KCMH 181151Z 19012G21KT 10SM SCT055 OVC250 21/09 A2978 RMK AO2 SLP078 T02110094 10211 20194 56006
2026-04-18 10:51:00,METAR KCMH 181051Z 18008G16KT 10SM SCT055 OVC250 21/08 A2979 RMK AO2 SLP080 T02060083
2026-04-18 09:51:00,METAR KCMH 180951Z COR 16007KT 10SM BKN055 OVC230 20/08 A2979 RMK AO2 SLP080 T02000078
2026-04-18 08:51:00,METAR KCMH 180851Z 16007KT 10SM OVC200 19/08 A2980 RMK AO2 SLP085 T01940083 56022
2026-04-18 07:51:00,METAR KCMH 180751Z 16005KT 10SM FEW095 OVC200 19/08 A2982 RMK AO2 SLP092 T01940083
2026-04-18 06:51:00,METAR KCMH 180651Z 15007KT 10SM SCT095 BKN200 OVC250 20/08 A2984 RMK AO2 SLP098 T02000083
2026-04-18 05:51:00,METAR KCMH 180551Z 14006KT 10SM SCT200 BKN250 21/08 A2987 RMK AO2 SLP108 T02060083 10244 20200 58011
2026-04-18 04:51:00,METAR KCMH 180451Z 15006KT 10SM SCT200 OVC250 21/09 A2989 RMK AO2 SLP116 T02060089 402670117
2026-04-18 03:51:00,METAR KCMH 180351Z 15005KT 10SM BKN200 OVC250 21/09 A2991 RMK AO2 SLP123 T02060094
2026-04-18 02:51:00,METAR KCMH 180251Z 16004KT 10SM OVC250 21/09 A2990 RMK AO2 SLP121 T02110089 53005
2026-04-18 01:51:00,METAR KCMH 180151Z 15003KT 10SM OVC250 22/08 A2989 RMK AO2 SLP117 T02220083
2026-04-18 00:51:00,METAR KCMH 180051Z 16004KT 10SM SCT250 23/08 A2988 RMK AO2 SLP114 T02330078
2026-04-17 23:51:00,METAR KCMH 172351Z 19006KT 10SM FEW100 SCT250 24/08 A2989 RMK AO2 SLP117 T02440083 10267 20244 56022
2026-04-17 22:51:00,METAR KCMH 172251Z 20007KT 10SM SCT250 26/08 A2990 RMK AO2 SLP121 T02610083
2026-04-17 21:51:00,METAR KCMH 172151Z 18007KT 10SM FEW075 FEW250 26/09 A2993 RMK AO2 SLP130 T02610089
2026-04-17 20:51:00,METAR KCMH 172051Z VRB03KT 10SM FEW070 BKN250 26/09 A2996 RMK AO2 SLP139 T02610089 58019
2026-04-17 19:51:00,METAR KCMH 171951Z 23007KT 10SM FEW070 BKN250 26/09 A2998 RMK AO2 SLP148 T02560089
2026-04-17 18:51:00,METAR KCMH 171851Z VRB05KT 10SM FEW060 BKN250 25/10 A3000 RMK AO2 SLP155 T02500100
2026-04-17 17:51:00,METAR KCMH 171751Z 28004KT 10SM FEW038 SCT250 24/11 A3001 RMK AO2 SLP158 T02440111 10244 20133 58008
2026-04-17 16:51:00,METAR KCMH 171651Z VRB05KT 10SM SCT036 SCT250 23/12 A3004 RMK AO2 SLP168 T02280117
2026-04-17 15:51:00,METAR KCMH 171551Z VRB04KT 10SM FEW035 FEW250 21/12 A3005 RMK AO2 SLP171 T02110122
2026-04-17 14:51:00,METAR KCMH 171451Z COR VRB06KT 10SM CLR 20/13 A3004 RMK AO2 SLP167 T02000133 53011 $
2026-04-17 13:51:00,METAR KCMH 171351Z 00000KT 10SM CLR 18/13 A3002 RMK AO2 SLP163 T01780133
2026-04-17 12:51:00,METAR KCMH 171251Z 00000KT 8SM CLR 16/13 A3001 RMK AO2 SLP159 T01610128
2026-04-17 11:51:00,METAR KCMH 171151Z 00000KT 7SM FEW250 13/12 A3000 RMK AO2 SLP157 T01330117 10167 20117 51017
2026-04-17 10:51:00,METAR KCMH 171051Z 00000KT 7SM FEW250 12/11 A2999 RMK AO2 SLP152 T01220111
2026-04-17 09:51:00,METAR KCMH 170951Z 00000KT 8SM FEW250 12/12 A2997 RMK AO2 SLP145 T01220117
2026-04-17 08:51:00,METAR KCMH 170851Z 00000KT 10SM FEW250 14/12 A2995 RMK AO2 SLP140 T01390122 53002
2026-04-17 07:51:00,METAR KCMH 170751Z 34003KT 10SM SCT250 14/12 A2994 RMK AO2 SLP136 T01390117
2026-04-17 06:51:00,METAR KCMH 170651Z 27004KT 10SM BKN250 16/12 A2994 RMK AO2 SLP133 T01560122
2026-04-17 05:51:00,METAR KCMH 170551Z 00000KT 10SM SCT250 17/12 A2995 RMK AO2 SLP136 60000 T01670122 10233 20161 53006
2026-04-17 04:51:00,METAR KCMH 170451Z 29003KT 10SM FEW060 BKN250 17/12 A2994 RMK AO2 SLP133 T01720122 402670161
2026-04-17 03:51:00,METAR KCMH 170351Z 00000KT 10SM SCT065 BKN250 18/12 A2993 RMK AO2 SLP130 T01830117
2026-04-17 02:51:00,METAR KCMH 170251Z 35007KT 10SM FEW080 BKN100 18/12 A2993 RMK AO2 RAB21E41 SLP129 P0000 60000 T01830117 53020
2026-04-17 01:51:00,METAR KCMH 170151Z 32008KT 10SM FEW070 SCT085 BKN110 20/09 A2991 RMK AO2 SLP122 T02000094
2026-04-17 00:51:00,METAR KCMH 170051Z 24006KT 10SM FEW065 22/09 A2988 RMK AO2 SLP113 T02170094
2026-04-16 23:51:00,METAR KCMH 162351Z 25013KT 10SM FEW065 FEW250 23/09 A2987 RMK AO2 SLP108 60000 T02330089 10261 20211 53007
2026-04-16 22:51:00,METAR KCMH 162251Z 26012G23KT 10SM FEW065 24/09 A2986 RMK AO2 PK WND 25027/2207 SLP105 T02440089
2026-04-16 21:51:00,METAR KCMH 162151Z 27015G23KT 10SM SCT055 SCT250 25/09 A2985 RMK AO2 PK WND 24028/2141 SLP101 T02500094
2026-04-16 20:51:00,METAR KCMH 162051Z 24016G20KT 10SM FEW055 SCT100 BKN130 BKN200 24/14 A2984 RMK AO2 SLP100 60000 T02390144 58003
2026-04-16 19:51:00,METAR KCMH 161951Z 25013KT 10SM BKN070 OVC085 22/14 A2987 RMK AO2 PK WND 25029/1933 RAB13E49 SLP109 P0000 T02170139
2026-04-16 18:51:00,METAR KCMH 161851Z 26013G27KT 10SM FEW050 BKN065 OVC090 24/13 A2986 RMK AO2 PK WND 27029/1825 SLP105 T02390133
2026-04-16 17:51:00,METAR KCMH 161751Z 24017G27KT 10SM BKN060 BKN100 OVC250 26/14 A2985 RMK AO2 PK WND 20027/1710 SLP102 T02610139 10267 20194 56012
2026-04-16 16:51:00,METAR KCMH 161651Z 21014G23KT 9SM FEW025 SCT080 BKN250 27/14 A2985 RMK AO2 SLP101 T02670139
2026-04-16 15:51:00,METAR KCMH 161551Z 22015G25KT 9SM FEW023 BKN070 BKN250 25/13 A2986 RMK AO2 SLP106 T02500133
2026-04-16 14:51:00,METAR KCMH 161451Z 22017G25KT 10SM BKN055 BKN070 BKN250 24/13 A2989 RMK AO2 SLP114 T02390128 56007
2026-04-16 13:51:00,METAR KCMH 161351Z 21011G19KT 9SM FEW100 BKN250 23/12 A2989 RMK AO2 SLP115 T02280122
2026-04-16 12:51:00,METAR KCMH 161251Z 21010G17KT 9SM FEW100 BKN250 21/12 A2990 RMK AO2 SLP120 T02060117
2026-04-16 11:51:00,METAR KCMH 161151Z 19008KT 9SM SCT090 BKN250 19/12 A2991 RMK AO2 SLP121 T01940117 10222 20183 53003
2026-04-16 10:51:00,METAR KCMH 161051Z 18006KT 10SM SCT090 BKN250 19/12 A2990 RMK AO2 SLP117 T01890122
2026-04-16 09:51:00,METAR KCMH 160951Z COR 19006KT 10SM BKN160 BKN250 19/13 A2990 RMK AO2 SLP117 T01940133
2026-04-16 08:51:00,METAR KCMH 160851Z 17004KT 10SM BKN170 BKN250 19/14 A2990 RMK AO2 SLP118 T01940139 55003
2026-04-16 07:51:00,METAR KCMH 160751Z 15006KT 10SM SCT150 BKN250 21/14 A2989 RMK AO2 SLP117 T02110139
2026-04-16 06:51:00,METAR KCMH 160651Z 22003KT 10SM SCT130 SCT250 22/14 A2989 RMK AO2 SLP115 T02170139
2026-04-16 05:51:00,METAR KCMH 160551Z 00000KT 10SM SCT170 BKN250 22/14 A2991 RMK AO2 SLP119 T02220139 10267 20222 55001
2026-04-16 04:51:00,METAR KCMH 160451Z 19003KT 10SM BKN180 BKN250 23/14 A2990 RMK AO2 SLP117 T02280144 402890183
2026-04-16 03:51:00,METAR KCMH 160351Z 19007KT 10SM FEW100 BKN250 23/15 A2988 RMK AO2 SLP112 T02330150
2026-04-16 02:51:00,METAR KCMH 160251Z 18006KT 10SM FEW090 BKN250 23/16 A2991 RMK AO2 SLP121 T02330156 50001
2026-04-16 01:51:00,METAR KCMH 160151Z 20006KT 10SM FEW080 BKN150 BKN250 25/16 A2991 RMK AO2 SLP123 T02500156
2026-04-16 00:51:00,METAR KCMH 160051Z 23007KT 10SM FEW060 FEW100 SCT150 OVC250 26/15 A2992 RMK AO2 SLP124 T02560150
2026-04-15 23:51:00,METAR KCMH 152351Z 22012G19KT 10SM FEW055 SCT085 OVC250 27/15 A2990 RMK AO2 SLP120 T02670150 10289 20267 51007
2026-04-15 22:51:00,METAR KCMH 152251Z 24013G24KT 10SM BKN065 OVC150 28/14 A2990 RMK AO2 PK WND 24027/2156 SLP119 T02780139
2026-04-15 21:51:00,METAR KCMH 152151Z 23016G25KT 10SM FEW055 BKN150 OVC250 28/14 A2989 RMK AO2 PK WND 21031/2112 SLP116 T02780144
2026-04-15 20:51:00,METAR KCMH 152051Z 21013G24KT 10SM SCT060 SCT150 BKN250 28/16 A2988 RMK AO2 PK WND 21028/2006 SLP113 T02830156 58012
2026-04-15 19:51:00,METAR KCMH 151951Z 22017G29KT 10SM SCT060 BKN075 28/16 A2991 RMK AO2 PK WND 23029/1917 SLP121 T02780156
2026-04-15 18:51:00,METAR KCMH 151851Z 21015G22KT 10SM BKN060 OVC250 28/16 A2992 RMK AO2 PK WND 21027/1827 SLP124 T02780156
2026-04-15 17:51:00,METAR KCMH 151751Z 22017G24KT 10SM SCT046 SCT100 BKN250 28/16 A2992 RMK AO2 SLP125 T02780161 10278 20200 58009
2026-04-15 16:51:00,METAR KCMH 151651Z 23016G26KT 9SM FEW040 BKN080 BKN250 26/16 A2994 RMK AO2 PK WND 20027/1556 SLP134 T02610161
2026-04-15 15:51:00,METAR KCMH 151551Z 23017G22KT 10SM SCT038 BKN080 BKN250 26/16 A2995 RMK AO2 PK WND 19026/1532 SLP136 T02560161
2026-04-15 14:54:00,METAR KCMH 151454Z 26007KT 10SM FEW070 SCT140 25/12 A3007 RMK SLP173 T02500117 58002
2026-04-15 14:51:00,METAR KCMH 151451Z 22013G24KT 9SM FEW023 SCT080 BKN160 BKN250 24/16 A2995 RMK AO2 SLP136 T02390161 58003
2026-04-15 13:51:00,METAR KCMH 151351Z 19009KT 10SM BKN047 OVC060 21/16 A2996 RMK AO2 SLP142 T02110156
2026-04-15 12:51:00,METAR KCMH 151251Z 20009KT 9SM SCT040 BKN055 OVC120 21/15 A2996 RMK AO2 SLP139 T02060150
2026-04-15 11:51:00,METAR KCMH 151151Z 18007KT 10SM BKN040 OVC050 20/15 A2996 RMK AO2 SLP138 T02000150 10211 20189 51021
2026-04-15 10:51:00,METAR KCMH 151051Z 18007KT 10SM BKN040 19/15 A2994 RMK AO2 SLP133 T01940150
2026-04-15 09:51:00,METAR KCMH 150951Z 21005KT 10SM FEW045 SCT250 19/15 A2993 RMK AO2 SLP129 T01940150
2026-04-15 08:51:00,METAR KCMH 150851Z 19009KT 10SM FEW045 FEW130 21/15 A2989 RMK AO2 SLP116 T02060150 58008
2026-04-15 07:51:00,METAR KCMH 150751Z 20007KT 10SM FEW045 SCT120 21/16 A2990 RMK AO2 SLP120 T02060156
2026-04-15 06:51:00,METAR KCMH 150651Z 18008KT 10SM FEW048 SCT130 BKN200 21/15 A2991 RMK AO2 SLP121 T02110150
2026-04-15 05:51:00,METAR KCMH 150551Z 16007KT 10SM FEW048 SCT130 BKN200 19/14 A2992 RMK AO2 SLP124 60000 T01890139 10261 20172 56016
2026-04-15 04:51:00,METAR KCMH 150451Z 15006KT 10SM FEW130 BKN200 18/13 A2993 RMK AO2 SLP128 T01830133 402890172
2026-04-15 03:51:00,METAR KCMH 150351Z 15008KT 10SM FEW050 FEW130 SCT170 18/14 A2994 RMK AO2 SLP135 T01830139
2026-04-15 02:51:00,METAR KCMH 150251Z 16006KT 10SM FEW049 SCT250 18/14 A2997 RMK AO2 SLP143 60000 T01830139 50011
2026-04-15 01:51:00,METAR KCMH 150151Z 01008G19KT 10SM SCT050 BKN085 OVC140 18/14 A3000 RMK AO2 PK WND 31047/0119 WSHFT 0115 LTG DSNT NE AND E RAB18E37 SLP153 P0000 T01780144
2026-04-15 01:24:00,SPECI KCMH 150124Z 33025G47KT 7SM RA SQ BKN042 OVC100 21/15 A3001 RMK AO2 PK WND 31047/0119 WSHFT 0109 LTG DSNT N-E RAB18 PRESRR P0000 T02060150
2026-04-15 01:22:00,SPECI KCMH 150122Z 33027G47KT 7SM VCTS RA SQ BKN042 OVC100 22/15 A3000 RMK AO2 PK WND 31047/0119 LTG DSNT N-E RAB18 P0000 T02220150
2026-04-15 00:51:00,METAR KCMH 150051Z 23010G20KT 10SM VCTS BKN075 BKN110 OVC200 26/16 A2994 RMK AO2 LTG DSNT W-NE SLP131 T02610156
2026-04-15 00:46:00,SPECI KCMH 150046Z 23013G20KT 10SM VCTS BKN075 BKN110 OVC200 26/16 A2993 RMK AO2 LTG DSNT W-N
2026-04-14 23:51:00,METAR KCMH 142351Z 22013G18KT 10SM FEW050 BKN200 26/16 A2991 RMK AO2 SLP123 T02610161 10289 20261 55002
2026-04-14 22:51:00,METAR KCMH 142251Z 22014G23KT 10SM FEW055 BKN250 27/15 A2991 RMK AO2 PK WND 20029/2208 SLP121 T02720150
2026-04-14 21:51:00,METAR KCMH 142151Z 21013G23KT 10SM SCT065 SCT250 28/15 A2991 RMK AO2 PK WND 21027/2102 SLP121 T02780150
2026-04-14 20:51:00,METAR KCMH 142051Z 23016G25KT 10SM SCT060 BKN250 28/14 A2992 RMK AO2 PK WND 21028/2040 SLP126 T02830144 56010
2026-04-14 19:51:00,METAR KCMH 141951Z 23018G29KT 10SM FEW055 SCT250 28/14 A2993 RMK AO2 PK WND 22029/1948 SLP128 T02830144
2026-04-14 18:51:00,METAR KCMH 141851Z 26014G26KT 10SM SCT050 BKN250 27/15 A2994 RMK AO2 PK WND 25026/1849 SLP132 T02720150
2026-04-14 17:51:00,METAR KCMH 141751Z 25018G27KT 10SM BKN045 BKN055 27/16 A2995 RMK AO2 PK WND 25027/1748 SLP136 T02670156 10267 20194 58017
2026-04-14 16:51:00,METAR KCMH 141651Z 24013KT 10SM FEW035 BKN075 24/16 A2999 RMK AO2 LTG DSNT NE SLP149 T02390161
2026-04-14 15:51:00,METAR KCMH 141551Z 24011G20KT 10SM OVC031 22/16 A3001 RMK AO2 LTG DSNT E SLP157 OCNL LTGICCG DSNT SE T02220161
2026-04-14 14:51:00,METAR KCMH 141451Z 24009KT 10SM BKN031 OVC042 22/15 A3000 RMK AO2 SLP154 T02220150 53003
2026-04-14 13:51:00,METAR KCMH 141351Z 22013G20KT 10SM SCT045 BKN060 BKN250 22/14 A2998 RMK AO2 SLP147 T02220144
2026-04-14 12:51:00,METAR KCMH 141251Z 22011G21KT 9SM BKN039 BKN050 20/13 A3000 RMK AO2 SLP153 T02000133
2026-04-14 11:51:00,METAR KCMH 141151Z 20009G17KT 10SM BKN048 19/13 A2999 RMK AO2 SLP152 T01940133 10200 20189 55000
2026-04-14 10:51:00,METAR KCMH 141051Z 20012G20KT 10SM BKN045 OVC060 19/13 A2999 RMK AO2 SLP149 T01940128
2026-04-14 09:51:00,METAR KCMH 140951Z 20010KT 10SM SCT045 OVC060 20/12 A2999 RMK AO2 SLP151 T02000117
2026-04-14 08:51:00,METAR KCMH 140851Z 19012KT 10SM SCT043 OVC055 20/11 A3000 RMK AO2 SLP151 T02000111 55010
2026-04-14 07:51:00,METAR KCMH 140751Z 21011G18KT 10SM OVC060 19/09 A2999 RMK AO2 SLP150 T01940094
2026-04-14 06:51:00,METAR KCMH 140651Z 20011G19KT 10SM SCT048 BKN065 BKN250 19/09 A3000 RMK AO2 SLP153 T01890094
2026-04-14 05:51:00,METAR KCMH 140551Z 19009KT 10SM FEW040 SCT250 19/09 A3003 RMK AO2 SLP162 T01890089 10228 20189 56010
2026-04-14 04:51:00,METAR KCMH 140451Z 20010KT 10SM FEW050 FEW250 20/08 A3003 RMK AO2 SLP164 T02000083 402670200
2026-04-14 03:51:00,METAR KCMH 140351Z 20012KT 10SM FEW050 SCT250 20/10 A3004 RMK AO2 SLP168 T02000100
2026-04-14 02:51:00,METAR KCMH 140251Z 19012KT 10SM BKN250 21/13 A3006 RMK AO2 SLP173 T02110128 50004
2026-04-14 01:51:00,METAR KCMH 140151Z 19008KT 10SM FEW049 FEW055 BKN250 21/14 A3006 RMK AO2 SLP174 T02110139
2026-04-14 00:51:00,METAR KCMH 140051Z 20010G18KT 10SM FEW055 BKN075 BKN250 22/15 A3006 RMK AO2 SLP172 T02220150
2026-04-13 23:51:00,METAR KCMH 132351Z 21011G21KT 10SM FEW038 SCT080 BKN250 23/16 A3005 RMK AO2 SLP169 T02280156 10267 20228 51005
2026-04-13 22:51:00,METAR KCMH 132251Z 21014G22KT 10SM FEW038 FEW055 SCT250 24/16 A3005 RMK AO2 PK WND 21027/2230 SLP168 T02390161
2026-04-13 21:51:00,METAR KCMH 132151Z 21015G22KT 10SM FEW048 SCT065 BKN250 26/16 A3004 RMK AO2 SLP164 T02560156
2026-04-13 20:51:00,METAR KCMH 132051Z 21012G18KT 10SM SCT048 BKN065 BKN250 26/15 A3003 RMK AO2 SLP163 T02560150 58007
2026-04-13 19:51:00,METAR KCMH 131951Z 20015G26KT 10SM FEW055 BKN080 BKN250 26/14 A3004 RMK AO2 PK WND 21026/1951 SLP167 T02610144
2026-04-13 18:51:00,METAR KCMH 131851Z 22014G25KT 9SM BKN055 BKN075 26/14 A3005 RMK AO2 PK WND 23026/1819 SLP170 T02560144
2026-04-13 17:51:00,METAR KCMH 131751Z 23013G26KT 10SM BKN050 OVC065 26/14 A3005 RMK AO2 PK WND 25027/1657 SLP171 T02560139 10261 20206 56005
2026-04-13 16:51:00,METAR KCMH 131651Z 24012KT 10SM BKN048 BKN055 26/14 A3006 RMK AO2 PK WND 25027/1553 SLP172 T02560144
2026-04-13 15:51:00,METAR KCMH 131551Z 23018G29KT 10SM SCT042 SCT080 24/13 A3006 RMK AO2 PK WND 22029/1548 SLP174 T02440133
2026-04-13 14:51:00,METAR KCMH 131451Z 23012G24KT 10SM BKN045 BKN075 23/13 A3007 RMK AO2 SLP176 T02280128 50007
2026-04-13 13:51:00,METAR KCMH 131351Z 22015G24KT 10SM BKN048 OVC060 22/12 A3007 RMK AO2 SLP177 T02220117
2026-04-13 12:51:00,METAR KCMH 131251Z 22014KT 10SM FEW060 BKN090 BKN120 OVC200 21/12 A3006 RMK AO2 SLP175 T02060117
2026-04-13 11:51:00,METAR KCMH 131151Z 23013KT 10SM SCT055 BKN075 OVC110 21/12 A3005 RMK AO2 PK WND 23030/1108 SLP168 60000 T02060117 10222 20200 51020
2026-04-13 10:51:00,METAR KCMH 131051Z 23014G21KT 10SM BKN055 OVC075 21/11 A3003 RMK AO2 PK WND 26028/0952 RAB0953E31 SLP161 P0000 T02110106
2026-04-13 09:51:00,METAR KCMH 130951Z 23026G38KT 10SM BKN060 OVC090 22/09 A3002 RMK AO2 PK WND 24038/0951 RAE17 SLP158 P0000 T02220089
2026-04-13 08:51:00,METAR KCMH 130851Z 22014G21KT 10SM -RA FEW060 SCT080 OVC100 22/08 A2999 RMK AO2 PK WND 22031/0752 SLP148 P0000 60000 T02170083 56008
2026-04-13 07:51:00,METAR KCMH 130751Z 22023G35KT 10SM -RA BKN090 OVC110 22/08 A2999 RMK AO2 PK WND 21035/0745 RAB48 SLP148 P0000 T02220083
2026-04-13 06:51:00,METAR KCMH 130651Z 20011KT 10SM OVC110 21/08 A3000 RMK AO2 SLP152 T02110078
2026-04-13 05:51:00,METAR KCMH 130551Z 18007KT 10SM BKN140 21/08 A3001 RMK AO2 SLP157 T02060078 10250 20200 56008
2026-04-13 04:51:00,METAR KCMH 130451Z 17006KT 10SM BKN150 21/08 A3001 RMK AO2 SLP158 T02110078 402780094
2026-04-13 03:51:00,METAR KCMH 130351Z 19007KT 10SM OVC150 22/08 A3002 RMK AO2 SLP161 T02170078
2026-04-13 02:51:00,METAR KCMH 130251Z 19007KT 10SM BKN140 OVC200 22/07 A3003 RMK AO2 SLP166 T02220072 58007
2026-04-13 01:51:00,METAR KCMH 130151Z 19008KT 10SM BKN150 OVC200 23/07 A3004 RMK AO2 SLP169 T02280072
2026-04-13 00:51:00,METAR KCMH 130051Z 20007KT 10SM SCT150 BKN200 OVC250 23/08 A3005 RMK AO2 SLP172 T02330078
2026-04-12 23:51:00,METAR KCMH 122351Z 21010KT 10SM FEW150 BKN200 OVC250 25/08 A3006 RMK AO2 SLP175 T02500078 10278 20239 56007
2026-04-12 22:51:00,METAR KCMH 122251Z 21012G28KT 10SM FEW070 FEW150 BKN200 OVC250 26/09 A3007 RMK AO2 PK WND 23028/2248 SLP179 T02610089
2026-04-12 21:51:00,METAR KCMH 122151Z 22014G26KT 10SM FEW070 FEW150 BKN200 OVC250 27/09 A3007 RMK AO2 PK WND 21029/2116 SLP178 T02670089
2026-04-12 20:51:00,METAR KCMH 122051Z 21012G22KT 10SM FEW070 BKN200 OVC250 27/10 A3008 RMK AO2 PK WND 23028/2033 SLP182 T02670100 56026
2026-04-12 19:51:00,METAR KCMH 121951Z 21015G24KT 10SM SCT070 SCT200 BKN250 27/10 A3009 RMK AO2 PK WND 23027/1932 SLP188 T02720100
2026-04-12 18:51:00,METAR KCMH 121851Z 22009G17KT 10SM BKN060 BKN120 BKN200 BKN250 26/12 A3013 RMK AO2 SLP198 T02610122
2026-04-12 17:51:00,METAR KCMH 121751Z 20011KT 10SM FEW050 SCT100 BKN230 24/11 A3016 RMK AO2 SLP210 T02390111 10239 20100 58026
2026-04-12 16:51:00,METAR KCMH 121651Z 21009KT 10SM BKN095 OVC230 22/09 A3020 RMK AO2 SLP224 T02170094
2026-04-12 15:51:00,METAR KCMH 121551Z 19010KT 10SM BKN110 OVC230 20/08 A3023 RMK AO2 SLP236 T02000083
2026-04-12 14:51:00,METAR KCMH 121451Z 19007KT 10SM BKN120 OVC230 18/07 A3024 RMK AO2 SLP238 T01780067 58002
2026-04-12 13:51:00,METAR KCMH 121351Z 17007KT 10SM BKN110 OVC230 16/04 A3024 RMK AO2 SLP241 T01560039
2026-04-12 12:51:00,METAR KCMH 121251Z 14007KT 10SM SCT140 BKN230 12/02 A3024 RMK AO2 SLP241 T01220022
2026-04-12 11:51:00,METAR KCMH 121151Z 13004KT 10SM SCT140 BKN230 10/02 A3024 RMK AO2 SLP243 T01000017 10106 20094 55002
2026-04-12 10:51:00,METAR KCMH 121051Z 14004KT 10SM SCT140 BKN230 10/02 A3024 RMK AO2 SLP240 T01000017
2026-04-12 09:51:00,METAR KCMH 120951Z 14003KT 10SM OVC230 10/01 A3024 RMK AO2 SLP242 T01000011
2026-04-12 08:51:00,METAR KCMH 120851Z 13005KT 10SM OVC220 11/01 A3025 RMK AO2 SLP244 T01060011 58016
2026-04-12 07:51:00,METAR KCMH 120751Z 13006KT 10SM SCT170 OVC250 11/01 A3027 RMK AO2 SLP250 T01060011
2026-04-12 06:51:00,METAR KCMH 120651Z 11007KT 10SM BKN190 OVC250 10/02 A3029 RMK AO2 SLP259 T01000017
2026-04-12 05:51:00,METAR KCMH 120551Z 12007KT 10SM OVC250 10/02 A3030 RMK AO2 SLP261 T01000022 10139 20094 57009
2026-04-12 04:51:00,METAR KCMH 120451Z 08004KT 10SM BKN250 09/02 A3031 RMK AO2 SLP264 T00940022 401670056
2026-04-12 03:51:00,METAR KCMH 120351Z 09005KT 10SM SCT250 10/02 A3031 RMK AO2 SLP266 T01000022
2026-04-12 02:51:00,METAR KCMH 120251Z 09005KT 10SM BKN250 11/02 A3032 RMK AO2 SLP271 T01060022 58003
2026-04-12 01:51:00,METAR KCMH 120151Z 08003KT 10SM BKN250 12/02 A3033 RMK AO2 SLP273 T01220022
2026-04-12 00:51:00,METAR KCMH 120051Z 04004KT 10SM OVC250 12/03 A3033 RMK AO2 SLP274 T01220028
2026-04-11 23:51:00,METAR KCMH 112351Z 02007KT 10SM BKN250 14/03 A3033 RMK AO2 SLP274 T01390033 10167 20139 56005
2026-04-11 22:51:00,METAR KCMH 112251Z 03004KT 10SM BKN250 16/03 A3034 RMK AO2 SLP277 T01560028
2026-04-11 21:51:00,METAR KCMH 112151Z 00000KT 10SM BKN250 16/02 A3034 RMK AO2 SLP274 T01610022
2026-04-11 20:51:00,METAR KCMH 112051Z VRB04KT 10SM BKN250 16/02 A3035 RMK AO2 SLP278 T01560022 56020
2026-04-11 19:51:00,METAR KCMH 111951Z VRB05KT 10SM BKN250 16/02 A3036 RMK AO2 SLP283 T01560022
2026-04-11 18:51:00,METAR KCMH 111851Z VRB06KT 10SM SCT250 15/02 A3039 RMK AO2 SLP292 T01500022
2026-04-11 17:51:00,METAR KCMH 111751Z VRB03KT 10SM FEW034 FEW250 14/02 A3041 RMK AO2 SLP299 T01390022 10144 20067 58003
2026-04-11 16:51:00,METAR KCMH 111651Z VRB03KT 10SM FEW034 FEW200 13/02 A3043 RMK AO2 SLP304 T01280017
2026-04-11 15:51:00,METAR KCMH 111551Z 03005KT 10SM SCT034 12/02 A3043 RMK AO2 SLP304 T01170017
2026-04-11 14:51:00,METAR KCMH 111451Z 07009KT 10SM BKN030 10/02 A3042 RMK AO2 SLP303 T01000017 50006
2026-04-11 13:51:00,METAR KCMH 111351Z 07011KT 10SM FEW030 09/02 A3042 RMK AO2 SLP303 T00940022
2026-04-11 12:51:00,METAR KCMH 111251Z 07012KT 10SM FEW030 08/03 A3041 RMK AO2 SLP300 T00780028
2026-04-11 11:51:00,METAR KCMH 111151Z 04008KT 10SM FEW020 07/04 A3040 RMK AO2 SLP296 T00670039 10094 20056 53022
2026-04-11 10:51:00,METAR KCMH 111051Z 03007KT 10SM FEW020 06/04 A3038 RMK AO2 SLP287 T00610044
2026-04-11 09:51:00,METAR KCMH 110951Z 02004KT 10SM FEW012 SCT033 07/06 A3035 RMK AO2 SLP280 T00670056
2026-04-11 09:39:00,SPECI KCMH 110939Z 04004KT 10SM SCT012 SCT031 07/06 A3035 RMK AO2 T00670056
2026-04-11 08:51:00,METAR KCMH 110851Z 02005KT 9SM SCT014 OVC029 08/06 A3034 RMK AO2 SLP274 T00780061 53006
2026-04-11 07:51:00,METAR KCMH 110751Z 02008KT 9SM BKN012 OVC029 09/07 A3033 RMK AO2 SLP269 T00890067
2026-04-11 06:51:00,METAR KCMH 110651Z 36005KT 10SM BKN014 OVC024 09/07 A3032 RMK AO2 SLP265 T00940067
2026-04-11 05:51:00,METAR KCMH 110551Z 01008KT 10SM OVC014 09/07 A3032 RMK AO2 SLP266 T00940067 10167 20094 51016
2026-04-11 04:51:00,METAR KCMH 110451Z 36011G19KT 10SM BKN014 OVC027 10/07 A3031 RMK AO2 PK WND 36029/0403 SLP262 T01000067 402330094
2026-04-11 03:51:00,METAR KCMH 110351Z 35013KT 7SM BKN010 OVC023 11/08 A3030 RMK AO2 PK WND 36027/0320 SLP258 T01060078
2026-04-11 02:51:00,METAR KCMH 110251Z 33015G22KT 10SM BKN013 BKN023 14/11 A3027 RMK AO2 SLP249 T01390111 51022
2026-04-11 02:34:00,SPECI KCMH 110234Z 34015KT 10SM BKN013 BKN023 14/12 A3027 RMK AO2 T01390117
2026-04-11 01:51:00,METAR KCMH 110151Z 34014G19KT 10SM OVC016 15/12 A3026 RMK AO2 SLP245 T01500122
2026-04-11 01:26:00,SPECI KCMH 110126Z 33011KT 10SM FEW017 BKN022 BKN055 16/13 A3024 RMK AO2 T01560128
2026-04-11 00:51:00,METAR KCMH 110051Z 31009KT 10SM BKN050 OVC080 16/12 A3023 RMK AO2 SLP235 T01610122
2026-04-10 23:51:00,METAR KCMH 102351Z 31011KT 10SM OVC055 17/12 A3021 RMK AO2 SLP227 60000 T01670117 10222 20167 51009
2026-04-10 22:51:00,METAR KCMH 102251Z 33007KT 10SM OVC055 17/12 A3020 RMK AO2 RAB06E26 SLP227 P0000 T01720117
2026-04-10 21:51:00,METAR KCMH 102151Z 30012KT 10SM OVC065 18/12 A3019 RMK AO2 RAE2058 SLP221 P0000 T01780122
2026-04-10 20:51:00,METAR KCMH 102051Z 29013KT 9SM -RA FEW060 BKN075 OVC090 17/12 A3018 RMK AO2 PK WND 29029/2032 RAB34 SLP219 P0000 60000 T01670122 55004
2026-04-10 19:51:00,METAR KCMH 101951Z 26016G24KT 10SM OVC060 22/09 A3016 RMK AO2 PK WND 27026/1930 SLP212 T02170089
2026-04-10 18:51:00,METAR KCMH 101851Z 25013KT 10SM BKN060 OVC080 22/08 A3018 RMK AO2 PK WND 26028/1812 SLP217 T02170083
2026-04-10 17:51:00,METAR KCMH 101751Z 26016KT 10SM BKN060 OVC080 22/08 A3019 RMK AO2 PK WND 24036/1659 SLP220 T02170078 10233 20133 56005
2026-04-10 16:51:00,METAR KCMH 101651Z 24016G27KT 10SM BKN065 BKN250 23/08 A3019 RMK AO2 PK WND 23029/1629 SLP220 T02280078
2026-04-10 15:51:00,METAR KCMH 101551Z 22015G27KT 10SM FEW110 BKN250 22/07 A3020 RMK AO2 PK WND 21027/1542 SLP225 T02170072
2026-04-10 14:51:00,METAR KCMH 101451Z 22017G23KT 10SM FEW110 BKN250 21/07 A3021 RMK AO2 SLP225 T02060072 58007
2026-04-10 13:51:00,METAR KCMH 101351Z 21013KT 10SM FEW110 SCT250 17/07 A3022 RMK AO2 SLP230 T01720067
2026-04-10 12:51:00,METAR KCMH 101251Z 22011KT 10SM FEW110 SCT250 16/07 A3023 RMK AO2 SLP233 T01560067
2026-04-10 11:51:00,METAR KCMH 101151Z 20006KT 8SM FEW100 FEW250 13/07 A3023 RMK AO2 SLP233 T01280072 10150 20094 53009
2026-04-10 10:51:00,METAR KCMH 101051Z 00000KT 8SM FEW100 FEW250 11/07 A3021 RMK AO2 SLP229 T01060067
2026-04-10 09:51:00,METAR KCMH 100951Z 00000KT 10SM SCT250 11/07 A3021 RMK AO2 SLP226 T01110067
2026-04-10 08:51:00,METAR KCMH 100851Z 00000KT 9SM SCT250 10/07 A3020 RMK AO2 SLP224 T01000067 55001
2026-04-10 07:51:00,METAR KCMH 100751Z 00000KT 10SM FEW250 11/07 A3020 RMK AO2 SLP223 T01110067
2026-04-10 06:51:00,METAR KCMH 100651Z 16003KT 10SM CLR 13/07 A3018 RMK AO2 SLP217 T01280067
2026-04-10 05:51:00,METAR KCMH 100551Z 17003KT 10SM CLR 15/07 A3020 RMK AO2 SLP224 T01500067 10222 20150 56010
2026-04-10 04:51:00,METAR KCMH 100451Z 17004KT 10SM FEW250 16/07 A3021 RMK AO2 SLP227 T01610067 402500106
2026-04-10 03:51:00,METAR KCMH 100351Z 19005KT 10SM SCT250 16/07 A3022 RMK AO2 SLP229 T01610067
2026-04-10 02:51:00,METAR KCMH 100251Z 19004KT 10SM SCT250 18/07 A3023 RMK AO2 SLP235 T01780067 50005
2026-04-10 01:51:00,METAR KCMH 100151Z 20007KT 10SM SCT250 19/07 A3024 RMK AO2 SLP238 T01890067
2026-04-10 00:51:00,METAR KCMH 100051Z 19005KT 10SM BKN250 19/07 A3022 RMK AO2 SLP232 T01940067
2026-04-09 23:51:00,METAR KCMH 092351Z 20008KT 10SM FEW080 BKN250 22/06 A3022 RMK AO2 SLP231 T02220061 10250 20222 55001
2026-04-09 22:51:00,METAR KCMH 092251Z 22013KT 10SM FEW075 FEW250 23/06 A3022 RMK AO2 SLP230 T02330056
2026-04-09 21:51:00,METAR KCMH 092151Z 22013G20KT 10SM FEW075 SCT150 24/06 A3022 RMK AO2 SLP229 T02440061
2026-04-09 20:51:00,METAR KCMH 092051Z 23012G20KT 10SM SCT075 SCT250 24/06 A3022 RMK AO2 SLP231 T02440061 56011
2026-04-09 19:51:00,METAR KCMH 091951Z 24011G22KT 10SM FEW070 BKN200 23/07 A3023 RMK AO2 SLP234 T02330067
2026-04-09 18:51:00,METAR KCMH 091851Z 23016G25KT 10SM SCT250 24/07 A3025 RMK AO2 SLP239 T02390067
2026-04-09 17:51:00,METAR KCMH 091751Z 23015G30KT 10SM SCT250 23/07 A3026 RMK AO2 PK WND 24030/1748 SLP242 T02280072 10233 20117 58012
2026-04-09 16:51:00,METAR KCMH 091651Z 21012G20KT 10SM SCT250 22/07 A3027 RMK AO2 SLP250 T02170072
2026-04-09 15:51:00,METAR KCMH 091551Z 21012G21KT 10SM SCT250 20/07 A3028 RMK AO2 SLP252 T02000067
2026-04-09 14:51:00,METAR KCMH 091451Z 22012KT 10SM SCT250 18/06 A3029 RMK AO2 SLP256 T01830056 58002
2026-04-09 13:51:00,METAR KCMH 091351Z 19012G21KT 10SM FEW250 16/04 A3030 RMK AO2 SLP260 T01610044
2026-04-09 12:51:00,METAR KCMH 091251Z 19009G19KT 10SM FEW250 14/02 A3030 RMK AO2 SLP261 T01390022
2026-04-09 11:51:00,METAR KCMH 091151Z 17007KT 10SM FEW250 12/01 A3030 RMK AO2 SLP259 T01170006 10122 20106 53013
2026-04-09 10:51:00,METAR KCMH 091051Z 16008KT 10SM FEW250 11/00 A3028 RMK AO2 SLP254 T01110000
2026-04-09 09:51:00,METAR KCMH 090951Z 15006KT 10SM FEW250 12/M01 A3026 RMK AO2 SLP248 T01171006
2026-04-09 08:51:00,METAR KCMH 090851Z 16005KT 10SM FEW150 BKN250 12/M01 A3026 RMK AO2 SLP246 T01171011 53000
2026-04-09 07:51:00,METAR KCMH 090751Z 14005KT 10SM SCT250 11/M02 A3026 RMK AO2 SLP245 T01111022
2026-04-09 06:51:00,METAR KCMH 090651Z 14005KT 10SM FEW150 SCT250 12/M04 A3025 RMK AO2 SLP244 T01171039
2026-04-09 05:51:00,METAR KCMH 090551Z 15005KT 10SM BKN250 12/M05 A3026 RMK AO2 SLP247 T01221050 10172 20122 58003
2026-04-09 04:51:00,METAR KCMH 090451Z 13004KT 10SM SCT250 12/M05 A3026 RMK AO2 SLP249 T01221050 401831017
2026-04-09 03:51:00,METAR KCMH 090351Z 13004KT 10SM FEW150 SCT250 13/M06 A3027 RMK AO2 SLP251 T01281056
2026-04-09 02:51:00,METAR KCMH 090251Z 14006KT 10SM FEW150 BKN250 13/M05 A3027 RMK AO2 SLP250 T01331050 58001
2026-04-09 01:51:00,METAR KCMH 090151Z 14004KT 10SM BKN250 14/M05 A3028 RMK AO2 SLP255 T01391050
2026-04-09 00:51:00,METAR KCMH 090051Z 14003KT 10SM BKN250 14/M06 A3027 RMK AO2 SLP253 T01441056
2026-04-08 23:51:00,METAR KCMH 082351Z 16005KT 10SM BKN250 17/M08 A3027 RMK AO2 SLP253 T01721078 10183 20139 56010
2026-04-08 22:51:00,METAR KCMH 082251Z 16006KT 10SM BKN250 18/M08 A3028 RMK AO2 SLP257 T01781083
2026-04-08 21:51:00,METAR KCMH 082151Z 15008KT 10SM BKN250 18/M08 A3028 RMK AO2 SLP258 T01781078
2026-04-08 20:51:00,METAR KCMH 082051Z 16009G15KT 10SM SCT250 18/M07 A3030 RMK AO2 SLP264 T01781067 57020
2026-04-08 19:51:00,METAR KCMH 081951Z VRB05KT 10SM FEW250 16/M07 A3032 RMK AO2 SLP270 T01611067
2026-04-08 18:51:00,METAR KCMH 081851Z 17007G14KT 10SM FEW250 15/M07 A3034 RMK AO2 SLP279 T01501067
2026-04-08 17:51:00,METAR KCMH 081751Z 12009KT 10SM FEW250 14/M05 A3036 RMK AO2 SLP285 T01391050 10139 21006 58021
2026-04-08 16:51:00,METAR KCMH 081651Z VRB06KT 10SM FEW250 12/M06 A3038 RMK AO2 SLP293 T01221061
2026-04-08 15:51:00,METAR KCMH 081551Z VRB04KT 10SM FEW250 11/M06 A3041 RMK AO2 SLP301 T01061056
2026-04-08 14:51:00,METAR KCMH 081451Z 14008KT 10SM FEW250 08/M06 A3042 RMK AO2 SLP307 T00831061 58005
2026-04-08 13:51:00,METAR KCMH 081351Z 10007KT 10SM FEW150 FEW250 06/M06 A3043 RMK AO2 SLP311 T00561061
2026-04-08 12:51:00,METAR KCMH 081251Z 11009KT 10SM FEW150 FEW250 02/M07 A3045 RMK AO2 SLP316 T00221072
2026-04-08 11:51:00,METAR KCMH 081151Z 10008KT 10SM FEW150 SCT250 M01/M07 A3044 RMK AO2 SLP315 T10061072 10000 21017 53008
2026-04-08 10:51:00,METAR KCMH 081051Z 10007KT 10SM CLR M01/M08 A3043 RMK AO2 SLP311 T10111078
2026-04-08 09:51:00,METAR KCMH 080951Z 10007KT 10SM FEW250 M01/M08 A3042 RMK AO2 SLP307 T10111078
2026-04-08 08:51:00,METAR KCMH 080851Z 09007KT 10SM FEW250 M01/M08 A3042 RMK AO2 SLP306 T10061083 56009
2026-04-08 07:51:00,METAR KCMH 080751Z 09006KT 10SM FEW250 M01/M08 A3043 RMK AO2 SLP310 T10061083
2026-04-08 06:51:00,METAR KCMH 080651Z 08005KT 10SM FEW250 M01/M08 A3043 RMK AO2 SLP310 T10061083
2026-04-08 05:51:00,METAR KCMH 080551Z 07004KT 10SM CLR 00/M08 A3044 RMK AO2 SLP316 T00001083 10050 20000 56003
2026-04-08 04:51:00,METAR KCMH 080451Z 07006KT 10SM FEW250 01/M08 A3045 RMK AO2 SLP317 T00061078 400781006
2026-04-08 03:51:00,METAR KCMH 080351Z 07006KT 10SM FEW250 01/M07 A3045 RMK AO2 SLP317 T00111072
2026-04-08 02:51:00,METAR KCMH 080251Z 06008KT 10SM FEW250 02/M07 A3045 RMK AO2 SLP319 T00171072 51010
2026-04-08 01:51:00,METAR KCMH 080151Z 07007KT 10SM FEW250 03/M08 A3045 RMK AO2 SLP319 T00281078
2026-04-08 00:51:00,METAR KCMH 080051Z 06007KT 10SM FEW250 04/M08 A3043 RMK AO2 SLP311 T00391078
2026-04-07 23:51:00,METAR KCMH 072351Z 06004KT 10SM FEW250 05/M09 A3042 RMK AO2 SLP309 T00501089 10078 20044 55001
2026-04-07 22:51:00,METAR KCMH 072251Z 06008KT 10SM CLR 07/M08 A3041 RMK AO2 SLP305 T00671083
2026-04-07 21:51:00,METAR KCMH 072151Z VRB06KT 10SM CLR 07/M08 A3042 RMK AO2 SLP305 T00721083
2026-04-07 20:51:00,METAR KCMH 072051Z 03006KT 10SM CLR 07/M08 A3042 RMK AO2 SLP308 T00721078 58014
2026-04-07 19:51:00,METAR KCMH 071951Z 35007KT 10SM CLR 07/M07 A3044 RMK AO2 SLP313 T00721067
2026-04-07 18:51:00,METAR KCMH 071851Z 05005KT 10SM CLR 07/M08 A3045 RMK AO2 SLP317 T00671078
2026-04-07 17:51:00,METAR KCMH 071751Z 01010KT 10SM CLR 06/M08 A3047 RMK AO2 SLP322 T00561083 10056 21006 58001
2026-04-07 16:51:00,METAR KCMH 071651Z 02008G17KT 10SM CLR 04/M09 A3047 RMK AO2 SLP324 T00441094
2026-04-07 15:51:00,METAR KCMH 071551Z 36008G16KT 10SM CLR 03/M09 A3048 RMK AO2 SLP328 T00281089
2026-04-07 14:51:00,METAR KCMH 071451Z 03009G14KT 10SM CLR 02/M08 A3047 RMK AO2 SLP322 T00221078 51023
2026-04-07 13:51:00,METAR KCMH 071351Z 35010KT 10SM CLR 01/M09 A3044 RMK AO2 SLP314 T00061094
2026-04-07 12:51:00,METAR KCMH 071251Z 34013KT 10SM FEW070 00/M10 A3043 RMK AO2 SLP309 T00001100
2026-04-07 11:51:00,METAR KCMH 071151Z 35012G21KT 10SM FEW070 M01/M09 A3040 RMK AO2 SLP299 70001 T10061089 10056 21006 53034
2026-04-07 10:51:00,METAR KCMH 071051Z 36013G25KT 10SM FEW070 00/M08 A3036 RMK AO2 SLP283 T00001078
2026-04-07 09:51:00,METAR KCMH 070951Z 36013G21KT 10SM FEW070 01/M05 A3033 RMK AO2 SLP273 T00111050
2026-04-07 08:51:00,METAR KCMH 070851Z 35015KT 10SM SCT075 03/M02 A3030 RMK AO2 SLP262 T00281017 51024
2026-04-07 07:51:00,METAR KCMH 070751Z 35007KT 10SM FEW075 03/M03 A3027 RMK AO2 SLP254 T00331028
2026-04-07 06:51:00,METAR KCMH 070651Z 33011KT 10SM SCT060 BKN080 05/M03 A3025 RMK AO2 SLP245 T00501033
2026-04-07 05:51:00,METAR KCMH 070551Z 34012KT 10SM FEW080 06/M03 A3022 RMK AO2 SLP236 T00561028 10100 20056 53010
2026-04-07 04:51:00,METAR KCMH 070451Z 32009KT 10SM FEW060 SCT080 06/M04 A3021 RMK AO2 SLP231 T00611039 401560006
2026-04-07 03:51:00,METAR KCMH 070351Z 32011KT 10SM FEW050 BKN075 07/M04 A3020 RMK AO2 SLP227 T00671039
2026-04-07 02:51:00,METAR KCMH 070251Z 33009KT 10SM SCT070 07/M03 A3019 RMK AO2 SLP226 T00721033 51019
2026-04-07 01:51:00,METAR KCMH 070151Z 32011KT 10SM FEW060 08/M03 A3018 RMK AO2 SLP223 T00781033
2026-04-07 00:51:00,METAR KCMH 070051Z 33014G20KT 10SM FEW060 09/M02 A3016 RMK AO2 SLP215 T00891022
2026-04-06 23:51:00,METAR KCMH 062351Z 31016KT 10SM FEW065 10/M03 A3013 RMK AO2 PK WND 32030/2314 SLP208 T01001028 10156 20100 53017
2026-04-06 22:51:00,METAR KCMH 062251Z 31020G28KT 10SM SCT070 12/M02 A3011 RMK AO2 PK WND 30030/2211 SLP200 T01221017
2026-04-06 21:51:00,METAR KCMH 062151Z 29020KT 10SM SCT070 13/M02 A3009 RMK AO2 PK WND 29030/2132 SLP192 T01331022
2026-04-06 20:51:00,METAR KCMH 062051Z 28020G28KT 10SM SCT065 14/M02 A3008 RMK AO2 PK WND 29031/2011 SLP190 T01391017 58011
2026-04-06 19:51:00,METAR KCMH 061951Z 28015G24KT 10SM SCT060 13/M01 A3009 RMK AO2 PK WND 30027/1932 SLP195 T01331006
2026-04-06 18:51:00,METAR KCMH 061851Z 31015G23KT 10SM BKN060 13/00 A3011 RMK AO2 SLP199 T01280000
2026-04-06 17:51:00,METAR KCMH 061751Z 28015G25KT 10SM FEW055 SCT075 14/01 A3012 RMK AO2 PK WND 30031/1722 SLP201 60001 T01440006 10144 20022 56012
2026-04-06 16:51:00,METAR KCMH 061651Z 27009G24KT 10SM SCT042 BKN048 13/03 A3013 RMK AO2 SLP205 T01330028
2026-04-06 15:51:00,METAR KCMH 061551Z 25011KT 10SM FEW040 BKN050 12/03 A3014 RMK AO2 SLP210 T01170033
2026-04-06 14:51:00,METAR KCMH 061451Z 27009KT 10SM SCT037 OVC050 09/02 A3015 RMK AO2 SLP214 60001 T00890017 55001
2026-04-06 13:51:00,METAR KCMH 061351Z 22008KT 10SM SCT055 BKN070 BKN090 07/02 A3015 RMK AO2 SLP212 T00720017
2026-04-06 12:51:00,METAR KCMH 061251Z 18006KT 10SM FEW034 BKN049 OVC060 04/02 A3016 RMK AO2 SLP216 RAB15E31 P0001 T00390017
2026-04-06 11:51:00,METAR KCMH 061151Z 18005KT 10SM SCT075 BKN100 02/01 A3016 RMK AO2 SLP217 T00220006 10033 20006 55005
2026-04-06 10:51:00,METAR KCMH 061051Z 15006KT 10SM BKN100 02/00 A3016 RMK AO2 SLP216 T00170000
2026-04-06 09:51:00,METAR KCMH 060951Z 00000KT 10SM FEW060 01/M01 A3017 RMK AO2 SLP220 T00111006
2026-04-06 08:51:00,METAR KCMH 060851Z 00000KT 10SM CLR 01/M01 A3017 RMK AO2 SLP222 T00111006 56015
2026-04-06 07:51:00,METAR KCMH 060751Z 00000KT 10SM CLR 01/M01 A3018 RMK AO2 SLP224 T00111006
2026-04-06 06:51:00,METAR KCMH 060651Z 00000KT 9SM CLR 01/01 A3019 RMK AO2 SLP226 T00110006
2026-04-06 05:51:00,METAR KCMH 060551Z 17003KT 10SM CLR 03/00 A3022 RMK AO2 SLP236 T00330000 10072 20028 50002
2026-04-06 04:51:00,METAR KCMH 060451Z 27004KT 10SM FEW049 04/M01 A3023 RMK AO2 SLP239 T00391006 401110033
2026-04-06 03:51:00,METAR KCMH 060351Z 27005KT 10SM CLR 04/M01 A3022 RMK AO2 SLP238 T00391006
2026-04-06 02:51:00,METAR KCMH 060251Z 28007KT 10SM CLR 04/M01 A3021 RMK AO2 SLP235 T00441006 51019
2026-04-06 01:51:00,METAR KCMH 060151Z 27007KT 10SM CLR 05/M01 A3020 RMK AO2 SLP229 T00501006
2026-04-06 00:51:00,METAR KCMH 060051Z 28008KT 10SM FEW043 06/M01 A3017 RMK AO2 SLP221 T00611006
2026-04-05 23:51:00,METAR KCMH 052351Z 29011G20KT 10SM SCT044 07/M01 A3015 RMK AO2 SLP214 T00721006 10083 20072 51013
2026-04-05 22:51:00,METAR KCMH 052251Z 29019G25KT 10SM BKN042 OVC049 08/M01 A3015 RMK AO2 SLP212 T00781006
2026-04-05 21:51:00,METAR KCMH 052151Z 29016G25KT 10SM OVC040 07/M01 A3013 RMK AO2 PK WND 30027/2110 SLP205 T00721011
2026-04-05 20:51:00,METAR KCMH 052051Z 30019G29KT 10SM OVC039 07/M01 A3011 RMK AO2 PK WND 30029/2050 SLP201 T00721006 51008
2026-04-05 19:51:00,METAR KCMH 051951Z 26020G26KT 10SM OVC039 07/M01 A3011 RMK AO2 PK WND 27029/1917 SLP198 T00721006
2026-04-05 18:51:00,METAR KCMH 051851Z 29019G32KT 10SM BKN037 OVC047 08/01 A3010 RMK AO2 PK WND 29032/1845 SLP197 T00830006
2026-04-05 17:51:00,METAR KCMH 051751Z 26015KT 10SM BKN033 OVC044 08/01 A3009 RMK AO2 SLP190 T00830011 10083 20050 51009
2026-04-05 17:38:00,SPECI KCMH 051738Z 28015KT 10SM BKN031 OVC040 07/01 A3009 RMK AO2 T00720011
2026-04-05 17:21:00,SPECI KCMH 051721Z 27012KT 10SM OVC029 07/02 A3009 RMK AO2 T00720017
2026-04-05 16:51:00,METAR KCMH 051651Z 27014G22KT 10SM OVC033 08/01 A3008 RMK AO2 SLP188 T00780011
2026-04-05 15:51:00,METAR KCMH 051551Z 28016KT 10SM OVC033 07/01 A3008 RMK AO2 SLP186 T00720006
2026-04-05 14:51:00,METAR KCMH 051451Z 27010G21KT 10SM OVC035 07/00 A3006 RMK AO2 SLP181 T00670000 51004
2026-04-05 12:51:00,METAR KCMH 051251Z 26013G19KT 10SM BKN041 BKN250 06/00 A3006 RMK AO2 SLP180 T00610000
2026-04-05 11:51:00,METAR KCMH 051151Z 26012KT 10SM FEW029 FEW036 BKN250 05/00 A3005 RMK AO2 SLP175 60000 70024 T00500000 10100 20050 53017
2026-04-05 11:00:00,SPECI KCMH 051100Z 27012KT 10SM SCT029 BKN036 BKN250 06/00 A3004 RMK AO2 T00560000
2026-04-05 10:51:00,METAR KCMH 051051Z 28011KT 10SM BKN029 BKN036 BKN250 06/00 A3003 RMK AO2 PK WND 28027/1010 SLP169 T00560000
2026-04-05 09:51:00,METAR KCMH 050951Z 29016G23KT 10SM BKN028 BKN039 07/02 A3001 RMK AO2 SLP159 T00670017
2026-04-05 08:51:00,METAR KCMH 050851Z 28016G23KT 10SM OVC026 07/02 A3000 RMK AO2 SLP156 60000 T00670017 53006
2026-04-05 07:51:00,METAR KCMH 050751Z 30016G24KT 10SM OVC018 08/04 A2999 RMK AO2 SLP151 T00780039
2026-04-05 06:51:00,METAR KCMH 050651Z 30016G22KT 10SM BKN017 OVC029 08/05 A2998 RMK AO2 PK WND 31026/0631 RAE21 SLP149 P0000 T00830050
2026-04-05 05:51:00,METAR KCMH 050551Z 29013G22KT 10SM -RA BKN019 OVC025 10/08 A2998 RMK AO2 RAB39 SLP149 P0000 60013 T01000078 10211 20100 53015
2026-04-05 04:51:00,METAR KCMH 050451Z 29011KT 10SM BKN021 OVC040 11/09 A2996 RMK AO2 RAE31 SLP142 P0003 T01110089 402720111
2026-04-05 03:51:00,METAR KCMH 050351Z 29014KT 9SM -RA BKN026 OVC036 12/09 A2995 RMK AO2 SLP137 P0002 T01170094
2026-04-05 02:51:00,METAR KCMH 050251Z 30019G26KT 6SM -RA BR SCT011 BKN016 OVC028 14/13 A2994 RMK AO2 PK WND 29026/0249 SLP133 P0006 60008 T01390128 52025
2026-04-05 01:51:00,METAR KCMH 050151Z 28015G25KT 5SM -RA BR BKN017 OVC024 16/14 A2992 RMK AO2 PK WND 29027/0118 RAE06B29 SLP127 P0002 T01560139
2026-04-05 01:28:00,SPECI KCMH 050128Z 29017G26KT 10SM BKN022 BKN029 OVC060 18/16 A2989 RMK AO2 PK WND 29027/0118 RAE06 P0000 T01830156
2026-04-05 00:51:00,METAR KCMH 050051Z 26016G24KT 10SM -RA SCT055 BKN075 OVC090 21/16 A2988 RMK AO2 PK WND 25028/0040 RAB51 SLP113 P0000 T02060161
2026-04-04 23:51:00,METAR KCMH 042351Z 25011G21KT 10SM BKN070 OVC100 21/16 A2986 RMK AO2 RAE2256 SLP106 P0000 60011 T02110161 10272 20194 55005
2026-04-04 22:51:00,METAR KCMH 042251Z 24013KT 8SM -RA FEW037 BKN095 BKN110 20/18 A2986 RMK AO2 PK WND 25043/2224 WSHFT 2218 RAB23 SLP106 OCNL LTGIC DSNT E P0011 T02000178
2026-04-04 22:35:00,SPECI KCMH 042235Z 24013G30KT 4SM R28L/3500VP6000FT RA BR FEW029 SCT038 BKN070 19/18 A2986 RMK AO2 PK WND 25043/2224 WSHFT 2218 RAB23 P0009 T01940178
2026-04-04 22:33:00,SPECI KCMH 042233Z 25012G43KT 1SM R28L/3500VP6000FT +RA BR FEW029 SCT038 BKN070 19/17 A2986 RMK AO2 PK WND 25043/2224 WSHFT 2218 RAB23 P0004 T01940172
2026-04-04 22:28:00,SPECI KCMH 042228Z 26021G43KT 1SM R28L/3500VP6000FT +RA FEW017 SCT055 BKN085 23/16 A2987 RMK AO2 PK WND 25043/2224 RAB23 CIG 055 NW P0000 T02280156
2026-04-04 21:51:00,METAR KCMH 042151Z 20011G27KT 10SM SCT060 SCT120 OVC180 26/14 A2986 RMK AO2 PK WND 20034/2054 SLP105 T02610144
2026-04-04 20:51:00,METAR KCMH 042051Z 21016G30KT 10SM SCT050 SCT075 SCT120 BKN180 OVC250 26/14 A2987 RMK AO2 PK WND 20036/2015 SLP111 T02610139 58028
2026-04-04 19:51:00,METAR KCMH 041951Z 21015G30KT 10SM FEW055 FEW075 SCT120 OVC250 26/14 A2991 RMK AO2 PK WND 20030/1944 SLP122 T02610144
2026-04-04 18:51:00,METAR KCMH 041851Z 22018G29KT 10SM FEW049 SCT070 BKN250 27/15 A2993 RMK AO2 PK WND 23032/1755 SLP129 T02670150
2026-04-04 17:51:00,METAR KCMH 041751Z 21017G28KT 10SM BKN047 BKN250 27/15 A2996 RMK AO2 PK WND 18032/1729 SLP139 T02670150 10267 20189 58021
2026-04-04 16:51:00,METAR KCMH 041651Z 22018G34KT 10SM BKN044 BKN250 26/16 A2999 RMK AO2 PK WND 23034/1644 SLP148 T02560156
2026-04-04 15:51:00,METAR KCMH 041551Z 21014G28KT 10SM FEW040 SCT250 25/16 A3001 RMK AO2 PK WND 21028/1542 SLP155 T02500156
2026-04-04 14:51:00,METAR KCMH 041451Z 21012G21KT 10SM FEW150 BKN250 23/15 A3002 RMK AO2 SLP162 T02330150 58012
2026-04-04 13:51:00,METAR KCMH 041351Z 20012KT 10SM FEW070 FEW150 OVC250 22/14 A3004 RMK AO2 SLP166 T02220144
2026-04-04 12:51:00,METAR KCMH 041251Z 16007KT 10SM FEW070 FEW150 OVC250 20/14 A3005 RMK AO2 SLP172 T02000144
2026-04-04 11:51:00,METAR KCMH 041151Z 15007KT 10SM FEW070 SCT150 OVC250 19/15 A3006 RMK AO2 SLP174 60008 70008 T01890150 10200 20178 56004
2026-04-04 10:51:00,METAR KCMH 041051Z 13005KT 10SM BKN070 OVC250 18/16 A3007 RMK AO2 SLP176 T01780161
2026-04-04 09:51:00,METAR KCMH 040951Z 13007KT 10SM BKN065 OVC250 18/16 A3006 RMK AO2 SLP175 T01830161
2026-04-04 08:51:00,METAR KCMH 040851Z 11006KT 10SM FEW065 BKN100 OVC120 18/17 A3007 RMK AO2 SLP178 60008 T01830167 57008
2026-04-04 07:51:00,METAR KCMH 040751Z 08003KT 10SM BKN070 BKN095 BKN130 OVC250 18/17 A3008 RMK AO2 SLP180 T01830172
2026-04-04 06:51:00,METAR KCMH 040651Z 08003KT 10SM FEW038 BKN065 OVC080 19/17 A3009 RMK AO2 RAB09E44 SLP185 P0008 T01890172
2026-04-04 05:51:00,METAR KCMH 040551Z 13004KT 10SM BKN070 OVC085 19/18 A3010 RMK AO2 RAE03 SLP186 P0000 60000 T01940178 10233 20183 58004
2026-04-04 04:51:00,METAR KCMH 040451Z 28003KT 10SM -RA OVC060 19/17 A3011 RMK AO2 LTG DSNT E RAB09 SLP190 P0000 T01940172 402560194
2026-04-04 03:51:00,METAR KCMH 040351Z 00000KT 10SM BKN065 BKN120 BKN250 20/17 A3010 RMK AO2 SLP188 T02000167
2026-04-04 02:51:00,METAR KCMH 040251Z 00000KT 10SM SCT100 BKN120 BKN150 21/17 A3011 RMK AO2 SLP190 T02060167 50006
2026-04-04 01:51:00,METAR KCMH 040151Z 17004KT 10SM BKN075 BKN130 21/17 A3011 RMK AO2 SLP192 OCNL LTG DSNT N CB DSNT N T02110167
2026-04-04 00:51:00,METAR KCMH 040051Z 19006KT 10SM FEW040 BKN075 22/17 A3010 RMK AO2 SLP187 T02170167
2026-04-03 23:51:00,METAR KCMH 032351Z 20010G17KT 10SM SCT038 BKN090 23/17 A3009 RMK AO2 SLP184 T02330172 10256 20222 55000
2026-04-03 22:51:00,METAR KCMH 032251Z 21011G21KT 10SM SCT040 BKN090 25/17 A3009 RMK AO2 SLP182 T02500167
2026-04-03 21:51:00,METAR KCMH 032151Z 21010G20KT 10SM SCT034 BKN080 25/17 A3009 RMK AO2 SLP182 T02500172
2026-04-03 20:51:00,METAR KCMH 032051Z 21014G19KT 10SM SCT034 BKN090 25/17 A3009 RMK AO2 SLP183 T02500172 58012
2026-04-03 19:51:00,METAR KCMH 031951Z 20014G22KT 10SM SCT035 BKN080 24/17 A3010 RMK AO2 SLP188 T02440172
2026-04-03 18:51:00,METAR KCMH 031851Z 22016G21KT 10SM SCT035 BKN090 24/17 A3012 RMK AO2 SLP192 T02440172
2026-04-03 17:51:00,METAR KCMH 031751Z 22014G21KT 10SM SCT027 BKN039 23/17 A3013 RMK AO2 CIG 027 NW SLP195 T02280167 10228 20194 51004
2026-04-03 17:30:00,SPECI KCMH 031730Z 21013G21KT 10SM SCT023 BKN034 OVC043 23/17 A3013 RMK AO2 T02280172
2026-04-03 16:51:00,METAR KCMH 031651Z 22016G23KT 10SM OVC029 22/17 A3012 RMK AO2 SLP193 T02220167
2026-04-03 15:51:00,METAR KCMH 031551Z 22015G24KT 10SM BKN027 OVC042 22/17 A3012 RMK AO2 PK WND 23027/1506 SLP194 T02220167
2026-04-03 14:51:00,METAR KCMH 031451Z 21015G24KT 10SM SCT024 BKN029 OVC038 21/16 A3011 RMK AO2 PK WND 22027/1424 SLP191 T02110161 51013
2026-04-03 14:09:00,SPECI KCMH 031409Z 22013G27KT 10SM SCT024 BKN029 OVC050 21/16 A3011 RMK AO2 PK WND 23027/1409 T02060156
2026-04-03 13:51:00,METAR KCMH 031351Z 22011G19KT 10SM SCT024 BKN034 OVC055 21/16 A3010 RMK AO2 SLP189 T02060156
2026-04-03 12:51:00,METAR KCMH 031251Z 21012G18KT 10SM SCT042 SCT080 BKN250 20/15 A3009 RMK AO2 SLP184 T02000150
2026-04-03 11:51:00,METAR KCMH 031151Z 20011G19KT 10SM SCT040 SCT080 BKN250 19/15 A3007 RMK AO2 SLP179 60000 T01940150 10228 20194 53015
2026-04-03 10:51:00,METAR KCMH 031051Z 19010G17KT 10SM BKN049 BKN060 20/15 A3006 RMK AO2 RAE0959 SLP173 P0000 T02000150
2026-04-03 09:51:00,METAR KCMH 030951Z 19009KT 10SM -RA FEW060 BKN120 20/14 A3004 RMK AO2 RAB48 SLP166 P0000 T02000144
2026-04-03 08:51:00,METAR KCMH 030851Z 20009KT 10SM BKN065 OVC085 21/14 A3003 RMK AO2 RAE12B32E41 SLP162 P0000 60000 T02060144 53009
2026-04-03 07:51:00,METAR KCMH 030751Z 21018G27KT 10SM -RA BKN080 OVC095 22/14 A3002 RMK AO2 PK WND 21027/0748 RAE00B46 SLP160 P0000 T02170139
2026-04-03 06:51:00,METAR KCMH 030651Z 21011G20KT 10SM -RA FEW065 BKN110 OVC130 22/13 A3000 RMK AO2 RAB50 SLP153 P0000 T02220133
2026-04-03 05:51:00,METAR KCMH 030551Z 19009KT 10SM OVC120 22/12 A3000 RMK AO2 SLP153 T02220122 10250 20222 53010
2026-04-03 04:51:00,METAR KCMH 030451Z 19011G18KT 10SM OVC170 23/12 A2999 RMK AO2 SLP149 T02280122 402720067
2026-04-03 03:51:00,METAR KCMH 030351Z 18011KT 10SM FEW140 BKN250 23/13 A2998 RMK AO2 SLP148 T02280128
2026-04-03 02:51:00,METAR KCMH 030251Z 18009KT 10SM FEW150 BKN250 23/13 A2997 RMK AO2 SLP145 T02280128 53003
2026-04-03 01:51:00,METAR KCMH 030151Z 18008KT 10SM FEW120 BKN200 OVC250 23/13 A2996 RMK AO2 SLP143 T02330128
2026-04-03 00:51:00,METAR KCMH 030051Z 16009KT 10SM FEW055 FEW120 BKN200 OVC250 24/13 A2995 RMK AO2 SLP140 SHRA DSNT SE T02390128
2026-04-02 23:51:00,METAR KCMH 022351Z 20007KT 10SM FEW055 FEW120 BKN200 OVC250 25/13 A2996 RMK AO2 SLP143 SHRA DSNT SE T02500128 10272 20250 57009
2026-04-02 22:51:00,METAR KCMH 022251Z 21011G20KT 10SM FEW055 FEW120 SCT200 OVC250 26/13 A2997 RMK AO2 SLP146 SHRA DSNT E AND SE T02610128
2026-04-02 21:51:00,METAR KCMH 022151Z 22017G28KT 10SM FEW055 OVC250 27/12 A2998 RMK AO2 PK WND 22028/2150 SLP150 T02670122
2026-04-02 20:51:00,METAR KCMH 022051Z 22013G22KT 10SM FEW055 OVC250 27/13 A2999 RMK AO2 PK WND 20029/2032 SLP152 T02720128 56020
2026-04-02 19:51:00,METAR KCMH 021951Z 21013G26KT 10SM FEW055 FEW070 BKN250 27/14 A3001 RMK AO2 PK WND 22032/1922 SLP158 T02720139
2026-04-02 18:51:00,METAR KCMH 021851Z 20017KT 10SM FEW047 FEW060 BKN250 27/15 A3002 RMK AO2 PK WND 21030/1838 SLP165 T02670150
2026-04-02 17:51:00,METAR KCMH 021751Z 18017G26KT 10SM SCT025 SCT075 BKN250 25/16 A3005 RMK AO2 PK WND 17030/1740 SLP173 T02500161 10250 20094 58015
2026-04-02 16:51:00,METAR KCMH 021651Z 20016G22KT 10SM FEW025 SCT075 SCT110 BKN250 24/16 A3007 RMK AO2 SLP180 T02390161
2026-04-02 15:51:00,METAR KCMH 021551Z 18013G20KT 10SM FEW050 SCT070 BKN250 22/16 A3009 RMK AO2 SLP187 T02170156
2026-04-02 14:51:00,METAR KCMH 021451Z 16008KT 10SM FEW045 SCT070 SCT080 BKN250 17/13 A3009 RMK AO2 SLP192 T01670133 50001
2026-04-02 13:51:00,METAR KCMH 021351Z 16008KT 10SM BKN055 BKN080 BKN250 14/12 A3010 RMK AO2 SLP195 T01390117
2026-04-02 12:51:00,METAR KCMH 021251Z 15005KT 7SM BKN045 BKN250 11/10 A3010 RMK AO2 SLP194 T01110100
2026-04-02 11:51:00,METAR KCMH 021151Z 13004KT 5SM BR SCT011 BKN037 OVC045 09/09 A3009 RMK AO2 SLP193 60009 70015 T00940089 10094 20072 56004
2026-04-02 11:49:00,SPECI KCMH 021149Z 13005KT 5SM BR SCT011 BKN037 OVC045 09/09 A3009 RMK AO2
2026-04-02 10:51:00,METAR KCMH 021051Z 04004KT 6SM BR OVC006 08/08 A3010 RMK AO2 RAE14 SLP194 P0000 T00830078
2026-04-02 10:00:00,SPECI KCMH 021000Z 12003KT 8SM -RA BKN008 BKN049 OVC090 08/07 A3010 RMK AO2 P0000 T00830072
2026-04-02 09:51:00,METAR KCMH 020951Z 11005KT 7SM -RA SCT008 BKN049 OVC090 08/07 A3010 RMK AO2 CIG 008 NW SLP194 P0008 T00780072
2026-04-02 08:51:00,METAR KCMH 020851Z 09005KT 6SM -RA BR OVC008 08/07 A3010 RMK AO2 RAB41 SLP197 P0000 60001 T00780067 55011
2026-04-02 07:51:00,METAR KCMH 020751Z 08005KT 9SM OVC008 08/07 A3010 RMK AO2 SLP195 T00780067
2026-04-02 07:41:00,SPECI KCMH 020741Z 08005KT 9SM OVC008 08/07 A3010 RMK AO2 T00780067
2026-04-02 06:51:00,METAR KCMH 020651Z 08003KT 7SM OVC010 07/06 A3011 RMK AO2 RAE38 SLP196 P0001 T00720061
2026-04-02 05:51:00,METAR KCMH 020551Z 06004KT 6SM -RA BR OVC012 07/06 A3014 RMK AO2 SLP206 P0001 60004 T00720061 10078 20067 58002
2026-04-02 04:51:00,METAR KCMH 020451Z 03005KT 9SM -RA OVC012 07/06 A3015 RMK AO2 RAB01 SLP211 P0001 T00670056 402220067
2026-04-02 03:51:00,METAR KCMH 020351Z 03009KT 10SM OVC014 07/06 A3015 RMK AO2 RAE06 SLP210 P0000 T00720056
2026-04-02 02:51:00,METAR KCMH 020251Z 03007KT 8SM -RA OVC012 07/06 A3014 RMK AO2 SLP208 P0002 60002 T00720056 50004
2026-04-02 01:51:00,METAR KCMH 020151Z 08006KT 10SM -RA OVC012 07/05 A3015 RMK AO2 RAB49 SLP211 P0000 T00720050
2026-04-02 00:51:00,METAR KCMH 020051Z 04009KT 10SM OVC012 07/05 A3013 RMK AO2 DZE05 SLP205 P0000 T00720050
2026-04-01 23:51:00,METAR KCMH 012351Z 05008KT 10SM -DZ OVC012 08/06 A3013 RMK AO2 RAE36DZB36 SLP204 P0000 60001 T00780056 10156 20078 53018
2026-04-01 22:51:00,METAR KCMH 012251Z 01010KT 9SM -RA OVC014 08/06 A3011 RMK AO2 RAE2154B25 SLP196 P0001 T00780061
2026-04-01 22:34:00,SPECI KCMH 012234Z 36010KT 10SM -RA OVC014 08/06 A3010 RMK AO2 RAE2154B25 P0000 T00830061
2026-04-01 21:59:00,SPECI KCMH 012159Z 02011KT 10SM BKN020 BKN029 OVC110 09/06 A3008 RMK AO2 RAE54 P0000 T00890061
2026-04-01 21:51:00,METAR KCMH 012151Z 04009KT 10SM -RA SCT013 BKN070 OVC120 09/06 A3008 RMK AO2 RAB40 SLP186 P0000 T00940061
2026-04-01 21:34:00,SPECI KCMH 012134Z 03013KT 10SM SCT013 BKN070 OVC120 09/06 A3008 RMK AO2 T00890061
2026-04-01 20:51:00,METAR KCMH 012051Z 01011KT 10SM OVC013 09/07 A3008 RMK AO2 SLP185 T00940067 53003
2026-04-01 19:51:00,METAR KCMH 011951Z 02013G21KT 10SM OVC013 11/07 A3006 RMK AO2 SLP178 VCSH SE T01110072
2026-04-01 18:51:00,METAR KCMH 011851Z 01014KT 10SM BKN012 BKN017 OVC050 12/08 A3007 RMK AO2 LTG DSNT S SLP181 T01220083
2026-04-01 18:21:00,SPECI KCMH 011821Z 36014KT 10SM BKN012 OVC017 13/09 A3008 RMK AO2 LTG DSNT S T01330089
2026-04-01 17:59:00,SPECI KCMH 011759Z 36017KT 10SM BKN017 BKN048 15/10 A3007 RMK AO2 T01500100
2026-04-01 17:51:00,METAR KCMH 011751Z 35016G22KT 10SM SCT015 BKN049 BKN250 16/11 A3007 RMK AO2 SLP179 60001 T01610106 10178 20128 58005
2026-04-01 17:04:00,SPECI KCMH 011704Z 02006KT 10SM SCT013 BKN050 BKN250 16/12 A3007 RMK AO2 CIG 012 NW T01610117
2026-04-01 16:51:00,METAR KCMH 011651Z 05009KT 9SM BKN013 OVC080 16/12 A3007 RMK AO2 SLP180 T01560117
2026-04-01 15:51:00,METAR KCMH 011551Z 36008KT 10SM OVC011 14/11 A3008 RMK AO2 SLP184 T01390106
2026-04-01 15:26:00,SPECI KCMH 011526Z 35011KT 10SM OVC011 13/11 A3009 RMK AO2 T01330111
2026-04-01 14:51:00,METAR KCMH 011451Z 36009KT 10SM BKN009 OVC035 15/12 A3009 RMK AO2 SLP184 60001 T01500122 51014
2026-04-01 13:51:00,METAR KCMH 011351Z 34005KT 10SM BKN005 BKN034 OVC044 13/12 A3007 RMK AO2 SLP179 T01330122
2026-04-01 12:56:00,SPECI KCMH 011256Z 33008KT 10SM BKN004 BKN049 BKN060 13/12 A3006 RMK AO2 T01330122
2026-04-01 12:51:00,METAR KCMH 011251Z 33008KT 7SM SCT003 BKN048 BKN060 13/12 A3006 RMK AO2 RAE00 SLP177 P0001 T01330122
2026-04-01 11:51:00,METAR KCMH 011151Z 00000KT 7SM -RA BKN055 BKN070 OVC100 16/14 A3004 RMK AO2 RAB45 SLP169 P0000 60000 T01610144 10200 20161 52023
2026-04-01 10:51:00,METAR KCMH 011051Z 10003KT 10SM BKN042 BKN055 OVC110 16/14 A3002 RMK AO2 SLP159 T01610144
2026-04-01 09:51:00,METAR KCMH 010951Z 35004KT 10SM SCT042 OVC049 17/14 A3000 RMK AO2 SLP154 T01670144
2026-04-01 08:51:00,METAR KCMH 010851Z 11005KT 10SM BKN043 BKN055 OVC075 16/14 A2997 RMK AO2 RAB08E19 SLP144 P0000 60000 T01610144 50003
2026-04-01 07:51:00,METAR KCMH 010751Z 08004KT 10SM SCT048 BKN060 OVC085 17/14 A2997 RMK AO2 RAE02B20E44 SLP145 P0000 T01670139
2026-04-01 06:51:00,METAR KCMH 010651Z 04008KT 10SM -RA FEW020 BKN095 OVC110 17/13 A2997 RMK AO2 RAB07 SLP144 P0000 T01720133
2026-04-01 05:51:00,METAR KCMH 010551Z 02008KT 10SM OVC060 20/13 A2996 RMK AO2 SLP140 T02000128 10244 20200 53014
2026-04-01 04:51:00,METAR KCMH 010451Z 23011G22KT 10SM BKN090 OVC110 22/13 A2994 RMK AO2 SLP132 T02170128 402610167
2026-04-01 03:51:00,METAR KCMH 010351Z 21011G21KT 10SM SCT080 BKN095 22/13 A2993 RMK AO2 SLP131 T02220128
2026-04-01 02:51:00,METAR KCMH 010251Z 22012KT 10SM FEW100 BKN130 22/13 A2992 RMK AO2 SLP128 T02220128 51014
2026-04-01 01:51:00,METAR KCMH 010151Z 22012G20KT 10SM SCT080 SCT100 SCT250 23/13 A2991 RMK AO2 SLP124 T02280128
2026-04-01 00:51:00,METAR KCMH 010051Z 22012KT 10SM FEW075 SCT100 BKN200 23/13 A2990 RMK AO2 SLP121 T02330133
2026-03-31 23:51:00,METAR KCMH 312351Z 22014G21KT 10SM FEW075 SCT110 BKN200 BKN250 24/14 A2988 RMK AO2 SLP113 T02440139 10261 20244 55012
2026-03-31 22:51:00,METAR KCMH 312251Z 22015G24KT 10SM FEW065 FEW075 SCT160 BKN220 OVC250 26/13 A2988 RMK AO2 SLP111 T02560128
2026-03-31 21:51:00,METAR KCMH 312151Z 21015G22KT 10SM SCT065 OVC170 25/13 A2989 RMK AO2 PK WND 23036/2112 SLP117 T02500133
2026-03-31 20:51:00,METAR KCMH 312051Z 22018G30KT 10SM SCT055 SCT070 BKN220 OVC250 26/13 A2992 RMK AO2 PK WND 22031/2019 SLP125 T02560128 58012
2026-03-31 19:51:00,METAR KCMH 311951Z 22018G29KT 10SM SCT055 SCT070 OVC250 25/13 A2994 RMK AO2 PK WND 23036/1906 SLP133 T02500133
2026-03-31 18:51:00,METAR KCMH 311851Z 23018G32KT 10SM SCT048 SCT060 BKN250 25/13 A2994 RMK AO2 PK WND 22032/1844 SLP133 T02500133
2026-03-31 17:51:00,METAR KCMH 311751Z 22019G36KT 10SM SCT040 BKN050 25/14 A2995 RMK AO2 PK WND 22036/1743 CIG 041 NW SLP137 T02500144 10250 20172 56018
2026-03-31 16:51:00,METAR KCMH 311651Z 22021G28KT 10SM BKN034 OVC250 23/15 A2996 RMK AO2 PK WND 21032/1603 SLP139 T02330150
2026-03-31 15:51:00,METAR KCMH 311551Z 22019G29KT 9SM BKN034 OVC250 22/15 A3000 RMK AO2 PK WND 24030/1453 SLP153 T02170150
2026-03-31 14:51:00,METAR KCMH 311451Z 22019G28KT 10SM BKN030 BKN250 21/14 A3001 RMK AO2 PK WND 22029/1432 SLP157 T02060144 58008
2026-03-31 13:51:00,METAR KCMH 311351Z 22016G23KT 8SM SCT080 20/14 A3001 RMK AO2 SLP158 T02000139
2026-03-31 12:51:00,METAR KCMH 311251Z 20009G19KT 8SM SCT080 BKN200 18/13 A3003 RMK AO2 SLP166 T01780133
2026-03-31 11:51:00,METAR KCMH 311151Z 20012G19KT 7SM SCT080 BKN200 17/13 A3003 RMK AO2 SLP166 T01720128 10189 20167 55000
2026-03-31 10:51:00,METAR KCMH 311051Z 21011G19KT 9SM SCT080 17/13 A3002 RMK AO2 SLP162 T01720128
2026-03-31 09:51:00,METAR KCMH 310951Z 20012KT 10SM FEW050 BKN080 BKN250 17/12 A3002 RMK AO2 SLP162 T01670122
2026-03-31 08:51:00,METAR KCMH 310851Z 20011G19KT 10SM SCT055 BKN250 17/12 A3003 RMK AO2 SLP165 T01720122 50006
2026-03-31 07:51:00,METAR KCMH 310751Z 21010KT 10SM BKN050 18/12 A3004 RMK AO2 SLP168 T01780117
2026-03-31 06:51:00,METAR KCMH 310651Z 20013G22KT 10SM SCT048 18/12 A3001 RMK AO2 SLP157 T01830117
2026-03-31 05:51:00,METAR KCMH 310551Z 21016G22KT 10SM BKN050 19/12 A3001 RMK AO2 SLP159 T01890117 10211 20189 56007
2026-03-31 04:51:00,METAR KCMH 310451Z 19011G18KT 10SM SCT055 19/12 A3002 RMK AO2 SLP161 T01890117 402280144
2026-03-31 03:51:00,METAR KCMH 310351Z 20011G19KT 10SM SCT055 BKN085 19/12 A3002 RMK AO2 SLP164 T01940122
2026-03-31 02:51:00,METAR KCMH 310251Z 20011KT 10SM OVC095 20/13 A3003 RMK AO2 SLP167 T02000128 51006
2026-03-31 01:51:00,METAR KCMH 310151Z 20012G17KT 10SM FEW055 SCT100 20/13 A3003 RMK AO2 SLP166 T02000128
2026-03-31 00:51:00,METAR KCMH 310051Z 20010G18KT 10SM SCT110 21/13 A3002 RMK AO2 SLP162 T02060128
2026-03-30 23:51:00,METAR KCMH 302351Z 20012G21KT 10SM BKN110 21/13 A3001 RMK AO2 SLP160 T02110128 10228 20211 58007
2026-03-30 22:51:00,METAR KCMH 302251Z 20013G23KT 10SM FEW045 FEW070 BKN110 22/13 A3002 RMK AO2 PK WND 19026/2222 SLP163 T02170128
2026-03-30 21:51:00,METAR KCMH 302151Z 19021G31KT 10SM FEW045 SCT070 SCT160 BKN250 23/12 A3004 RMK AO2 PK WND 20031/2150 SLP168 T02280122
2026-03-30 20:51:00,METAR KCMH 302051Z 19017G23KT 10SM BKN046 BKN070 BKN250 23/12 A3004 RMK AO2 PK WND 20026/2007 SLP168 T02280122 56019
2026-03-30 19:51:00,METAR KCMH 301951Z 21013G28KT 10SM BKN046 BKN070 22/12 A3005 RMK AO2 PK WND 22028/1946 SLP172 T02170117
2026-03-30 18:51:00,METAR KCMH 301851Z 20013G22KT 10SM FEW044 BKN070 BKN100 22/12 A3007 RMK AO2 PK WND 21026/1803 SLP180 T02170117
2026-03-30 17:51:00,METAR KCMH 301751Z 22014G20KT 10SM SCT040 BKN070 21/11 A3009 RMK AO2 PK WND 19029/1729 SLP188 T02110111 10211 20144 58019
2026-03-30 16:51:00,METAR KCMH 301651Z 22013G20KT 10SM SCT036 BKN085 20/11 A3012 RMK AO2 SLP195 T02000111
2026-03-30 15:51:00,METAR KCMH 301551Z 21011KT 10SM FEW032 BKN085 18/11 A3014 RMK AO2 SLP202 T01830106
2026-03-30 14:51:00,METAR KCMH 301451Z 21013G21KT 10SM FEW029 BKN080 17/09 A3015 RMK AO2 SLP208 T01670094 55002
2026-03-30 13:51:00,METAR KCMH 301351Z 23011G18KT 10SM BKN085 16/09 A3015 RMK AO2 SLP208 T01610089
2026-03-30 12:51:00,METAR KCMH 301251Z 20010KT 10SM OVC080 14/07 A3016 RMK AO2 SLP211 T01440072
2026-03-30 11:51:00,METAR KCMH 301151Z 20010KT 10SM OVC075 14/07 A3016 RMK AO2 SLP211 60000 T01440067 10161 20144 51007
2026-03-30 10:51:00,METAR KCMH 301051Z 19007KT 10SM OVC070 15/06 A3016 RMK AO2 SLP210 T01500056
2026-03-30 09:51:00,METAR KCMH 300951Z 19007KT 10SM OVC070 15/04 A3015 RMK AO2 SLP206 T01500044 $
2026-03-30 08:51:00,METAR KCMH 300851Z 18007KT 10SM OVC065 15/04 A3014 RMK AO2 SLP203 60000 T01500044 56005 $
2026-03-30 07:51:00,METAR KCMH 300751Z 19006KT 10SM OVC070 16/05 A3014 RMK AO2 SLP205 T01560050 $
2026-03-30 06:51:00,METAR KCMH 300651Z 20005KT 10SM OVC065 16/05 A3015 RMK AO2 RAE31 SLP207 P0000 T01560050 $
2026-03-30 05:51:00,METAR KCMH 300551Z 22006KT 10SM -RA OVC070 16/06 A3015 RMK AO2 RAB42 SLP209 P0000 60000 T01560056 10172 20156 53001 $
2026-03-30 04:51:00,METAR KCMH 300451Z 21007KT 10SM OVC070 17/04 A3014 RMK AO2 SLP206 T01670044 401780011 $
2026-03-30 03:51:00,METAR KCMH 300351Z 21010KT 10SM OVC070 17/04 A3015 RMK AO2 SLP208 T01670039 $
2026-03-30 02:51:00,METAR KCMH 300251Z 20007KT 10SM BKN075 OVC120 16/04 A3015 RMK AO2 SLP211 T01610039 56013 $
2026-03-30 01:51:00,METAR KCMH 300151Z 19006KT 10SM FEW080 BKN090 OVC120 16/03 A3016 RMK AO2 SLP213 T01560033 $
2026-03-30 00:51:00,METAR KCMH 300051Z 19006KT 10SM FEW095 BKN130 OVC200 16/02 A3017 RMK AO2 SLP217 T01610022 $
2026-03-29 23:51:00,METAR KCMH 292351Z 21007KT 10SM BKN110 OVC220 17/01 A3019 RMK AO2 SLP225 T01720011 10178 20161 56010 $
2026-03-29 22:51:00,METAR KCMH 292251Z 22008KT 10SM BKN110 BKN220 17/00 A3019 RMK AO2 SLP226 T01720000 $
2026-03-29 21:51:00,METAR KCMH 292151Z 21013G24KT 10SM SCT120 BKN150 BKN220 18/M02 A3020 RMK AO2 SLP228 T01781017 $
2026-03-29 20:51:00,METAR KCMH 292051Z 22012G18KT 10SM BKN130 BKN200 17/M02 A3022 RMK AO2 SLP235 T01721017 56026 $
2026-03-29 19:51:00,METAR KCMH 291951Z 23011KT 10SM SCT120 BKN200 17/M02 A3024 RMK AO2 SLP243 T01721017 $
2026-03-29 18:51:00,METAR KCMH 291851Z 22013G19KT 10SM SCT120 BKN200 17/M02 A3027 RMK AO2 SLP252 T01721022 $
2026-03-29 17:51:00,METAR KCMH 291751Z 22011G18KT 10SM SCT120 BKN200 16/M02 A3030 RMK AO2 SLP262 T01611017 10161 20017 58030 $
2026-03-29 16:51:00,METAR KCMH 291651Z 22007KT 10SM SCT110 BKN200 12/M02 A3035 RMK AO2 SLP280 T01221022 $
2026-03-29 14:51:00,METAR KCMH 291451Z 20007KT 10SM SCT120 BKN250 08/M06 A3039 RMK AO2 SLP295 T00831056 58002 $
2026-03-29 13:51:00,METAR KCMH 291351Z 16004KT 10SM BKN120 06/M06 A3040 RMK AO2 SLP299 T00561061 $
2026-03-29 12:51:00,METAR KCMH 291251Z 13004KT 10SM BKN110 04/M06 A3040 RMK AO2 SLP300 T00391056 $
2026-03-29 11:51:00,METAR KCMH 291151Z 13004KT 10SM BKN110 BKN250 02/M06 A3040 RMK AO2 SLP300 T00171061 10028 20011 50001 $
2026-03-29 10:51:00,METAR KCMH 291051Z 11003KT 10SM BKN110 BKN250 01/M06 A3040 RMK AO2 SLP299 T00111061 $
2026-03-29 09:51:00,METAR KCMH 290951Z 14003KT 10SM FEW120 BKN250 02/M07 A3040 RMK AO2 SLP301 T00171067 $
2026-03-29 08:51:00,METAR KCMH 290851Z 14007KT 10SM FEW120 BKN250 02/M07 A3040 RMK AO2 SLP298 T00221067 56022 $
2026-03-29 07:51:00,METAR KCMH 290751Z 12003KT 10SM FEW120 BKN250 02/M06 A3041 RMK AO2 SLP301 T00171056 $
2026-03-29 06:51:00,METAR KCMH 290651Z 13004KT 10SM SCT250 02/M06 A3044 RMK AO2 SLP315 T00171061 $
2026-03-29 05:51:00,METAR KCMH 290551Z 14004KT 10SM BKN250 02/M06 A3046 RMK AO2 SLP321 T00221061 10056 20011 58006 $
2026-03-29 04:51:00,METAR KCMH 290451Z 14003KT 10SM SCT250 02/M05 A3047 RMK AO2 SLP325 T00171050 400721017 $
2026-03-29 03:51:00,METAR KCMH 290351Z 14003KT 10SM FEW250 03/M06 A3048 RMK AO2 SLP327 T00331061 $
2026-03-29 02:51:00,METAR KCMH 290251Z 13004KT 10SM FEW250 03/M06 A3048 RMK AO2 SLP329 T00331061 58005 $
2026-03-29 01:51:00,METAR KCMH 290151Z 15006KT 10SM FEW250 04/M06 A3049 RMK AO2 SLP332 T00441061 $
2026-03-29 00:51:00,METAR KCMH 290051Z 18004KT 10SM FEW250 05/M06 A3050 RMK AO2 SLP336 T00501056 $
2026-03-28 23:51:00,METAR KCMH 282351Z COR 20006KT 10SM FEW250 06/M07 A3049 RMK AO2 SLP334 T00561072 10072 20044 56014 $
2026-03-28 22:51:00,METAR KCMH 282251Z 25005KT 10SM FEW250 07/M07 A3051 RMK AO2 SLP337 T00721067 $
2026-03-28 21:51:00,METAR KCMH 282151Z VRB04KT 10SM FEW250 07/M07 A3052 RMK AO2 SLP340 T00721067 $
2026-03-28 20:51:00,METAR KCMH 282051Z 25006KT 10SM FEW250 07/M09 A3054 RMK AO2 SLP348 T00671089 57023 $
2026-03-28 19:51:00,METAR KCMH 281951Z VRB03KT 10SM FEW060 07/M08 A3056 RMK AO2 SLP355 T00671078 $
2026-03-28 18:51:00,METAR KCMH 281851Z VRB03KT 10SM FEW055 06/M08 A3058 RMK AO2 SLP365 T00561083 $
2026-03-28 17:51:00,METAR KCMH 281751Z 00000KT 10SM FEW040 04/M07 A3061 RMK AO2 SLP372 T00441072 10050 21011 58010 $
2026-03-28 16:51:00,METAR KCMH 281651Z 28003KT 10SM FEW040 FEW250 04/M08 A3062 RMK AO2 SLP375 T00391078 $
2026-03-28 15:51:00,METAR KCMH 281551Z VRB04KT 10SM FEW032 FEW250 03/M08 A3063 RMK AO2 SLP381 T00281083 $
2026-03-28 14:51:00,METAR KCMH 281451Z 35008KT 10SM SCT032 SCT250 02/M07 A3064 RMK AO2 SLP382 T00171067 51023 $
2026-03-28 13:51:00,METAR KCMH 281351Z 33011KT 10SM FEW040 FEW250 01/M07 A3062 RMK AO2 SLP378 T00061067 $
2026-03-28 12:51:00,METAR KCMH 281251Z 35013KT 10SM CLR 00/M07 A3059 RMK AO2 SLP367 T00001072 $
2026-03-28 11:51:00,METAR KCMH 281151Z 33008KT 10SM CLR M01/M07 A3057 RMK AO2 SLP360 T10111072 10006 21017 51021 $
2026-03-28 10:51:00,METAR KCMH 281051Z 32009KT 10SM CLR M01/M08 A3056 RMK AO2 SLP357 T10111078 $
2026-03-28 09:51:00,METAR KCMH 280951Z 30012KT 10SM FEW050 M01/M08 A3053 RMK AO2 SLP348 T10111078 $
2026-03-28 08:51:00,METAR KCMH 280851Z 31010KT 10SM CLR M01/M08 A3050 RMK AO2 SLP337 T10111078 53017 $
2026-03-28 07:51:00,METAR KCMH 280751Z 30007KT 10SM CLR M01/M07 A3048 RMK AO2 SLP330 T10111072 $
2026-03-28 06:51:00,METAR KCMH 280651Z 32007KT 10SM CLR 00/M08 A3046 RMK AO2 SLP322 T00001078 $
2026-03-28 05:51:00,METAR KCMH 280551Z 34011KT 10SM CLR 01/M08 A3045 RMK AO2 SLP319 T00061078 10028 20006 51018 $
2026-03-28 04:51:00,METAR KCMH 280451Z 31012KT 10SM FEW040 01/M06 A3044 RMK AO2 SLP316 T00111061 401110011 $
2026-03-28 03:51:00,METAR KCMH 280351Z 30012KT 10SM FEW038 OVC050 03/M03 A3042 RMK AO2 SLP308 T00281028 $
2026-03-28 02:51:00,METAR KCMH 280251Z 30008KT 10SM BKN055 02/M03 A3040 RMK AO2 SLP300 T00221033 51020 $
2026-03-28 01:51:00,METAR KCMH 280151Z 32004KT 10SM SCT043 02/M03 A3038 RMK AO2 SLP294 T00171033 $
2026-03-28 00:51:00,METAR KCMH 280051Z 36005KT 10SM BKN034 02/M04 A3036 RMK AO2 SLP288 T00221039 $
2026-03-27 23:51:00,METAR KCMH 272351Z 36007G16KT 10SM BKN030 02/M04 A3034 RMK AO2 SLP279 T00171039 10078 20017 51024 $
2026-03-27 22:51:00,METAR KCMH 272251Z 33013G22KT 10SM BKN027 02/M04 A3032 RMK AO2 SLP274 T00221039 $
2026-03-27 21:51:00,METAR KCMH 272151Z 34012G23KT 10SM BKN029 03/M03 A3029 RMK AO2 SLP262 T00331028 $
2026-03-27 20:51:00,METAR KCMH 272051Z 35016KT 10SM BKN029 06/M02 A3026 RMK AO2 SLP253 T00561017 53017 $
2026-03-27 19:51:00,METAR KCMH 271951Z 32006G17KT 10SM SCT029 BKN200 07/M01 A3023 RMK AO2 SLP239 T00671006 $
2026-03-27 18:51:00,METAR KCMH 271851Z VRB05KT 10SM SCT026 SCT130 BKN250 06/M01 A3022 RMK AO2 SLP235 T00611006
2026-03-27 17:51:00,METAR KCMH 271751Z 02010KT 10SM SCT020 SCT110 BKN250 05/M01 A3021 RMK AO2 SLP233 T00501006 10050 20017 58002
2026-03-27 17:19:00,SPECI KCMH 271719Z 36010KT 10SM SCT020 BKN110 04/M01 A3022 RMK AO2 T00391011
2026-03-27 16:51:00,METAR KCMH 271651Z 35012KT 10SM BKN018 OVC090 03/M02 A3022 RMK AO2 SLP239 T00281017
2026-03-27 15:51:00,METAR KCMH 271551Z 02012G20KT 10SM OVC016 02/M02 A3022 RMK AO2 SLP238 T00171017
2026-03-25 14:51:00,METAR KCMH 251451Z 12006KT 10SM SCT095 BKN120 OVC200 09/M04 A3020 RMK AO2 SLP228 T00941039 58011
2026-03-25 13:51:00,METAR KCMH 251351Z 10005KT 10SM SCT095 BKN120 OVC200 08/M05 A3022 RMK AO2 SLP236 T00781050
2026-03-25 12:51:00,METAR KCMH 251251Z 07003KT 10SM SCT095 BKN120 06/M06 A3023 RMK AO2 SLP241 T00611056
2026-03-25 11:51:00,METAR KCMH 251151Z 00000KT 10SM BKN100 OVC130 06/M06 A3023 RMK AO2 SLP240 T00561061 10067 20039 53002
2026-03-25 10:51:00,METAR KCMH 251051Z 09006KT 10SM SCT110 05/M06 A3021 RMK AO2 SLP235 T00501056
2026-03-25 09:51:00,METAR KCMH 250951Z 09007KT 10SM BKN180 04/M05 A3022 RMK AO2 SLP236 T00441050
2026-03-25 08:51:00,METAR KCMH 250851Z 10007KT 10SM FEW095 BKN120 BKN250 04/M05 A3022 RMK AO2 SLP238 T00441050 56019
2026-03-25 07:51:00,METAR KCMH 250751Z 10006KT 10SM FEW130 BKN180 OVC250 05/M05 A3023 RMK AO2 SLP241 T00501050
2026-03-25 06:51:00,METAR KCMH 250651Z 00000KT 10SM BKN120 OVC150 06/M03 A3026 RMK AO2 SLP250 T00561033
2026-03-25 05:51:00,METAR KCMH 250551Z 00000KT 10SM FEW090 BKN120 06/M05 A3028 RMK AO2 SLP257 T00611050 10089 20056 55006
2026-03-25 04:51:00,METAR KCMH 250451Z 14003KT 10SM OVC110 07/M06 A3028 RMK AO2 SLP257 T00721056 401001039
2026-03-25 03:51:00,METAR KCMH 250351Z 15004KT 10SM OVC110 07/M05 A3029 RMK AO2 SLP262 T00721050
2026-03-25 02:51:00,METAR KCMH 250251Z 10003KT 10SM FEW110 SCT160 BKN250 06/M04 A3030 RMK AO2 SLP265 T00611039 50001
2026-03-25 01:51:00,METAR KCMH 250151Z 10004KT 10SM SCT120 BKN200 07/M05 A3031 RMK AO2 SLP269 T00721050
2026-03-25 00:51:00,METAR KCMH 250051Z 09004KT 10SM BKN200 08/M06 A3030 RMK AO2 SLP265 T00781056
2026-03-24 23:51:00,METAR KCMH 242351Z 10003KT 10SM BKN120 08/M06 A3030 RMK AO2 SLP266 T00831056 10100 20061 58010
2026-03-24 22:51:00,METAR KCMH 242251Z 00000KT 10SM SCT130 OVC170 09/M08 A3031 RMK AO2 SLP269 T00941083
2026-03-24 21:51:00,METAR KCMH 242151Z 30005KT 10SM FEW120 OVC170 09/M07 A3032 RMK AO2 SLP273 T00941067
2026-03-24 20:51:00,METAR KCMH 242051Z 31005KT 10SM OVC210 10/M06 A3033 RMK AO2 SLP275 T01001061 56018
2026-03-24 19:51:00,METAR KCMH 241951Z VRB03KT 10SM SCT160 BKN250 09/M07 A3033 RMK AO2 SLP276 T00891072
2026-03-24 18:51:00,METAR KCMH 241851Z VRB03KT 10SM FEW180 BKN250 08/M07 A3036 RMK AO2 SLP285 T00781072
2026-03-24 17:51:00,METAR KCMH 241751Z VRB06KT 10SM SCT250 07/M07 A3038 RMK AO2 SLP294 T00721067 10072 21033 56019
2026-03-24 16:51:00,METAR KCMH 241651Z 13005KT 10SM CLR 04/M07 A3039 RMK AO2 SLP298 T00441072
2026-03-24 15:51:00,METAR KCMH 241551Z 15007G15KT 10SM CLR 03/M08 A3043 RMK AO2 SLP310 T00331078
2026-03-24 14:51:00,METAR KCMH 241451Z 16009G17KT 10SM CLR 02/M08 A3044 RMK AO2 SLP315 T00221078 58005
2026-03-24 13:51:00,METAR KCMH 241351Z 13009KT 10SM CLR 01/M08 A3046 RMK AO2 SLP322 T00061083
2026-03-24 12:51:00,METAR KCMH 241251Z 12005KT 10SM FEW140 SCT250 M01/M06 A3047 RMK AO2 SLP326 T10111056
2026-03-24 11:51:00,METAR KCMH 241151Z 07003KT 10SM SCT140 M03/M05 A3045 RMK AO2 SLP320 T10331050 11011 21039 51013
2026-03-24 10:51:00,METAR KCMH 241051Z 00000KT 10SM SCT140 BKN250 M02/M06 A3044 RMK AO2 SLP317 T10221056
2026-03-24 09:51:00,METAR KCMH 240951Z 00000KT 10SM BKN250 M02/M06 A3043 RMK AO2 SLP311 T10221056
2026-03-24 08:51:00,METAR KCMH 240851Z 00000KT 10SM SCT250 M02/M06 A3041 RMK AO2 SLP306 T10221056 53000
2026-03-24 07:51:00,METAR KCMH 240751Z 00000KT 10SM CLR M02/M06 A3040 RMK AO2 SLP302 T10171056
2026-03-24 06:51:00,METAR KCMH 240651Z 00000KT 10SM CLR M02/M05 A3041 RMK AO2 SLP304 T10171050
2026-03-24 05:51:00,METAR KCMH 240551Z 07004KT 10SM CLR M01/M05 A3041 RMK AO2 SLP307 T10111050 10033 21011 51003
2026-03-24 04:51:00,METAR KCMH 240451Z 03006KT 10SM FEW042 FEW250 M01/M04 A3041 RMK AO2 SLP307 T10061044 400671006
2026-03-24 03:51:00,METAR KCMH 240351Z 02008G18KT 10SM SCT043 SCT250 01/M04 A3041 RMK AO2 SLP304 T00061039
2026-03-24 02:51:00,METAR KCMH 240251Z 35007KT 10SM SCT045 SCT250 01/M06 A3041 RMK AO2 SLP303 T00111056 51013
2026-03-24 01:51:00,METAR KCMH 240151Z 36008KT 10SM FEW049 FEW250 02/M07 A3040 RMK AO2 SLP302 T00171067
2026-03-24 00:51:00,METAR KCMH 240051Z 36014KT 10SM OVC047 03/M07 A3038 RMK AO2 SLP295 T00281067
2026-03-23 23:51:00,METAR KCMH 232351Z 35011KT 10SM OVC050 03/M06 A3036 RMK AO2 SLP290 T00331061 10056 20033 53020
2026-03-23 22:51:00,METAR KCMH 232251Z 33013G19KT 10SM OVC049 04/M05 A3034 RMK AO2 SLP283 BINOVC T00391050
2026-03-23 21:51:00,METAR KCMH 232151Z 34011G20KT 10SM BKN047 04/M05 A3032 RMK AO2 SLP274 T00441050
2026-03-23 20:51:00,METAR KCMH 232051Z 32012KT 10SM BKN043 OVC050 05/M03 A3031 RMK AO2 SLP268 T00501028 53012
2026-03-23 19:51:00,METAR KCMH 231951Z 33011G20KT 10SM OVC043 05/M04 A3029 RMK AO2 SLP262 BINOVC T00501039
2026-03-23 18:51:00,METAR KCMH 231851Z 29012G17KT 10SM OVC033 04/M03 A3028 RMK AO2 SLP259 T00441033
2026-03-23 17:51:00,METAR KCMH 231751Z 32013KT 10SM OVC029 03/M03 A3027 RMK AO2 SLP255 T00331033 10033 20017 51020
2026-03-23 16:51:00,METAR KCMH 231651Z 35012G22KT 10SM OVC023 02/M03 A3026 RMK AO2 SLP252 T00221028
2026-03-23 15:51:00,METAR KCMH 231551Z 34016G22KT 10SM OVC021 02/M02 A3024 RMK AO2 SLP245 T00221022
2026-03-23 14:51:00,METAR KCMH 231451Z 32012G23KT 10SM OVC021 02/M02 A3021 RMK AO2 PK WND 34027/1429 SLP234 T00221022 51047
2026-03-23 13:51:00,METAR KCMH 231351Z 33013G25KT 10SM BKN016 OVC019 02/M02 A3017 RMK AO2 PK WND 34027/1329 SLP221 T00171022
2026-03-23 12:51:00,METAR KCMH 231251Z 32015KT 10SM OVC014 02/M01 A3012 RMK AO2 PK WND 34026/1156 SLP203 T00171006
2026-03-23 11:51:00,METAR KCMH 231151Z 34014G25KT 10SM OVC011 02/M01 A3007 RMK AO2 PK WND 35029/1128 SLP183 60000 70052 T00171006 10067 20017 53042
2026-03-23 10:51:00,METAR KCMH 231051Z 34015G22KT 10SM OVC010 02/00 A3002 RMK AO2 PK WND 35027/1010 SLP167 T00170000
2026-03-23 09:51:00,METAR KCMH 230951Z 34018G26KT 10SM OVC010 02/00 A2998 RMK AO2 PK WND 35028/0933 DZE01 SLP151 P0000 T00170000 $
2026-03-23 09:17:00,SPECI KCMH 230917Z 35019G28KT 10SM OVC010 02/01 A2996 RMK AO2 PK WND 34028/0854 DZE01 P0000 T00220006 $
2026-03-23 08:51:00,METAR KCMH 230851Z 34016G22KT 5SM -DZ BR OVC006 02/01 A2994 RMK AO2 PK WND 35030/0808 DZB43 SLP136 P0000 60000 T00220011 51039 $
2026-03-23 07:51:00,METAR KCMH 230751Z 35019G25KT 8SM OVC006 03/02 A2990 RMK AO2 PK WND 35027/0720 SLP123 T00280022 $
2026-03-23 07:41:00,SPECI KCMH 230741Z 35015G24KT 8SM OVC006 03/02 A2989 RMK AO2 PK WND 35027/0720 T00280022 $
2026-03-23 07:07:00,SPECI KCMH 230707Z 35015G27KT 7SM OVC004 04/03 A2988 RMK AO2 PK WND 34027/0659 T00390028 $
2026-03-23 06:51:00,METAR KCMH 230651Z 35014G24KT 10SM OVC006 04/03 A2987 RMK AO2 PK WND 34026/0639 SLP111 T00440033 $
2026-03-23 05:51:00,METAR KCMH 230551Z 33010KT 10SM BKN009 BKN038 OVC090 07/06 A2982 RMK AO2 RAE27 SLP094 P0006 60052 T00670056 10194 20061 51019 $
2026-03-23 05:25:00,SPECI KCMH 230525Z 34008KT 10SM -RA FEW009 BKN038 OVC090 07/06 A2980 RMK AO2 P0006 T00670056 $
2026-03-23 05:00:00,SPECI KCMH 230500Z 36007KT 4SM RA BR BKN008 OVC038 07/06 A2980 RMK AO2 P0003 T00670056 $
2026-03-23 04:51:00,METAR KCMH 230451Z 35009KT 3SM +RA BR BKN048 OVC065 07/06 A2980 RMK AO2 TSE04B21E41 SLP090 TS MOV SE P0030 T00670061 403000067 $
2026-03-23 04:41:00,SPECI KCMH 230441Z 00000KT 2SM R28L/3000VP6000FT +RA BR BKN048 OVC065 07/06 A2980 RMK AO2 LTG DSNT S TSE04B21E41 TS MOV SE P0023 T00670056 $
2026-03-23 04:23:00,SPECI KCMH 230423Z 04004KT 4SM TSRA BR BKN055CB OVC075 07/06 A2980 RMK AO2 LTG DSNT ALQDS TSE04B21 OCNL LTGIC TS OHD MOV SE P0014 T00670056 $
2026-03-23 04:06:00,SPECI KCMH 230406Z 06010KT 4SM VCTS -RA BR SCT065 OVC085 07/06 A2981 RMK AO2 LTG DSNT ALQDS TSE04 CIG 065 NW TS MOV SE P0006 T00670056 $
2026-03-23 03:51:00,METAR KCMH 230351Z 02011KT 5SM -TSRA BR SCT050CB OVC065 07/06 A2981 RMK AO2 LTG DSNT ALQDS TSE0256B00 SLP091 OCNL LTGIC TS S-SW MOV SE P0010 T00670056 $
2026-03-23 03:03:00,SPECI KCMH 230303Z 05013G22KT 9SM -TSRA BR FEW032 BKN065CB OVC095 08/06 A2976 RMK AO2 LTG DSNT ALQDS TSE0256B00 OCNL LTGIC TS S MOV SE P0000 T00780061 $
2026-03-23 02:51:00,METAR KCMH 230251Z 02010KT 5SM TSRA BR SCT023 BKN055CB OVC090 08/06 A2976 RMK AO2 PK WND 29060/0219 WSHFT 0220 RAB27 TSE0157B18 SLP077 OCNL LTGIC TS SE-E MOV E P0006 60006 T00780056 51036 $
2026-03-23 02:35:00,SPECI KCMH 230235Z 05018G38KT 3SM TSRA BKN048CB OVC090 07/05 A2973 RMK AO2 PK WND 29060/0219 WSHFT 0220 RAB27 TSE0157B18 OCNL LTGIC TS S
2026-03-23 02:22:00,SPECI KCMH 230222Z COR 29029G60KT 270V350 6SM TS HZ SQ BKN048CB OVC090 09/04 A2979 RMK AO2 PK WND 29060/0219 WSHFT 0207 TSE0157B18 OCNL LTGIC TS SW-W MOV SE T00890039
2026-03-23 02:19:00,SPECI KCMH 230219Z 29037G60KT 10SM TS SQ FEW022 SCT048 OVC070 09/04 A2991 RMK AO2 PK WND 29060/0219 WSHFT 0202 TSE0157B18 CIG 050 NW PRESRR T00940044
2026-03-23 02:17:00,SPECI KCMH 230217Z 32021G34KT 290V360 10SM VCTS SCT048 BKN070 OVC090 09/04 A2988 RMK AO2 PK WND 29034/0217 WSHFT 0202 LTG DSNT W-NE TSE0157 CIG 050 NW PRESRR T00940044
2026-03-23 02:00:00,SPECI KCMH 230200Z 07012G23KT 10SM VCTS BKN075 OVC100 08/04 A2972 RMK AO2 LTG DSNT ALQDS TSE0157 T00830039
2026-03-23 01:51:00,METAR KCMH 230151Z 05017G28KT 10SM BKN075 OVC100 08/04 A2973 RMK AO2 PK WND 36035/0059 LTG DSNT W-NE TSE0059 SLP066 T00830039
2026-03-23 01:00:00,SPECI KCMH 230100Z 36023G35KT 10SM BKN080 BKN090 11/06 A2974 RMK AO2 PK WND 36035/0059 LTG DSNT E TSE0059 TS MOV E T01060061
2026-03-23 00:51:00,METAR KCMH 230051Z 36026G36KT 10SM TS FEW034 SCT080CB BKN170 12/07 A2975 RMK AO2 PK WND 36036/0050 RAB15E23 TSB15 PRESRR SLP073 OCNL LTGICCCCA TS NE MOV E P0000 T01220067
2026-03-23 00:15:00,SPECI KCMH 230015Z 34014G21KT 10SM -TSRA FEW034 SCT080CB BKN170 16/08 A2967 RMK AO2 RAB15 TSB15 FRQ LTGICCCCA TS NW MOV NE P0000 T01560083
2026-03-22 23:51:00,METAR KCMH 222351Z 03013KT 10SM FEW085 SCT250 19/12 A2965 RMK AO2 SLP039 TCU DSNT W T01940117 10300 20194 51016
2026-03-22 22:51:00,METAR KCMH 222251Z 35012KT 10SM SCT085 SCT110 SCT250 22/13 A2964 RMK AO2 SLP034 T02170128
2026-03-22 21:53:00,SPECI KCMH 222153Z 36016KT 10SM SCT075 SCT150 BKN230 24/13 A2962 RMK AO2 WSHFT 2133 LTG DSNT E TSB20E50 TS MOV E T02440133
2026-03-22 21:46:00,METAR KCMH 222146Z 35015G21KT 10SM TS SCT075CB SCT150 BKN230 26/14 A2962 RMK AO2 PK WND 25031/2117 WSHFT 2131 SLP026 TSB20 OCNL LTGICCC TS NE MOV SE T02560139
2026-03-22 21:45:00,SPECI KCMH 222145Z 35016G21KT 10SM TS SCT075CB SCT150 BKN230 26/14 A2962 RMK AO2 PK WND 25031/2117 WSHFT 2131 TSB20 OCNL LTGICCC TS NE MOV SE
2026-03-22 21:22:00,SPECI KCMH 222122Z COR 23017G31KT 10SM TS SCT075CB SCT150 BKN230 29/12 A2960 RMK AO2 PK WND 25031/2117 TSB20 OCNL LTGICCC TS NE MOV SE T02940117
2026-03-22 20:51:00,METAR KCMH 222051Z 24017G27KT 10SM SCT075TCU SCT150 BKN230 29/11 A2960 RMK AO2 PK WND 22034/2004 SLP020 TCU NW-NE T02890111 56017
2026-03-22 19:51:00,METAR KCMH 221951Z 24020G30KT 10SM FEW070 SCT150 OVC230 30/11 A2962 RMK AO2 PK WND 23031/1915 SLP023 T03000111
2026-03-22 18:51:00,METAR KCMH 221851Z 24017G28KT 10SM SCT160 SCT230 29/12 A2962 RMK AO2 PK WND 22030/1824 SLP026 T02940122
2026-03-22 17:51:00,METAR KCMH 221751Z 22016G26KT 10SM SCT160 SCT220 28/13 A2966 RMK AO2 PK WND 22029/1719 SLP038 T02830128 10283 20133 58019
2026-03-22 16:51:00,METAR KCMH 221651Z 24019G26KT 10SM BKN160 26/13 A2969 RMK AO2 PK WND 24026/1649 SLP050 T02610128
2026-03-22 15:51:00,METAR KCMH 221551Z 22011G21KT 10SM SCT160 BKN250 24/14 A2971 RMK AO2 SLP055 T02440139
2026-03-22 14:51:00,METAR KCMH 221451Z 21010KT 10SM FEW170 SCT250 21/13 A2971 RMK AO2 SLP059 T02060133 50001
2026-03-22 13:51:00,METAR KCMH 221351Z 22007KT 10SM FEW150 SCT250 17/12 A2973 RMK AO2 SLP064 T01720117
2026-03-22 12:51:00,METAR KCMH 221251Z 19006KT 10SM FEW150 SCT250 15/11 A2973 RMK AO2 SLP065 T01500106
2026-03-22 11:51:00,METAR KCMH 221151Z 19005KT 10SM FEW150 SCT250 13/09 A2971 RMK AO2 SLP058 T01330094 10139 20100 56009
2026-03-22 10:51:00,METAR KCMH 221051Z 18006KT 10SM SCT150 BKN250 13/08 A2972 RMK AO2 SLP061 T01280078
2026-03-22 09:51:00,METAR KCMH 220951Z 15003KT 10SM BKN150 BKN250 13/07 A2972 RMK AO2 SLP064 T01280067
2026-03-22 08:51:00,METAR KCMH 220851Z 00000KT 10SM SCT250 12/06 A2974 RMK AO2 SLP068 T01170056 56015
2026-03-22 07:51:00,METAR KCMH 220751Z 00000KT 10SM SCT250 12/05 A2975 RMK AO2 SLP071 T01170050
2026-03-22 06:51:00,METAR KCMH 220651Z 00000KT 10SM SCT250 12/05 A2977 RMK AO2 SLP080 T01170050
2026-03-22 05:51:00,METAR KCMH 220551Z 17003KT 10SM SCT250 12/05 A2978 RMK AO2 SLP084 T01220050 10172 20111 58011
2026-03-22 04:51:00,METAR KCMH 220451Z 00000KT 10SM SCT250 13/06 A2980 RMK AO2 SLP090 T01280056 401830039
2026-03-22 03:51:00,METAR KCMH 220351Z 15003KT 10SM SCT250 12/06 A2981 RMK AO2 SLP093 T01220056
2026-03-22 02:51:00,METAR KCMH 220251Z 14004KT 10SM SCT250 14/06 A2982 RMK AO2 SLP097 T01390061 58004
2026-03-22 01:51:00,METAR KCMH 220151Z 15005KT 10SM BKN250 14/06 A2983 RMK AO2 SLP101 T01440061
2026-03-22 00:51:00,METAR KCMH 220051Z 00000KT 10SM BKN250 15/06 A2983 RMK AO2 SLP101 T01500056
2026-03-21 23:51:00,METAR KCMH 212351Z 16004KT 10SM FEW120 FEW200 BKN250 17/06 A2983 RMK AO2 SLP102 T01720056 10183 20144 57013
2026-03-21 22:51:00,METAR KCMH 212251Z 21006KT 10SM SCT120 SCT200 BKN250 18/04 A2984 RMK AO2 SLP104 T01830044
2026-03-21 21:51:00,METAR KCMH 212151Z 00000KT 10SM FEW150 SCT200 SCT250 18/04 A2986 RMK AO2 SLP110 T01780044
2026-03-21 20:51:00,METAR KCMH 212051Z VRB05KT 10SM SCT150 SCT200 SCT250 18/04 A2987 RMK AO2 SLP114 T01780044 58029
2026-03-21 19:51:00,METAR KCMH 211951Z VRB03KT 10SM BKN140 BKN250 17/05 A2989 RMK AO2 SLP122 T01670050
2026-03-21 18:51:00,METAR KCMH 211851Z 02004KT 10SM BKN140 BKN170 BKN250 16/04 A2993 RMK AO2 SLP134 T01610039
2026-03-21 17:51:00,METAR KCMH 211751Z 00000KT 10SM CLR 14/03 A2995 RMK AO2 SLP144 T01440028 10150 20039 58013
2026-03-21 16:51:00,METAR KCMH 211651Z VRB03KT 10SM BKN130 14/03 A2998 RMK AO2 SLP150 T01390033
2026-03-21 15:51:00,METAR KCMH 211551Z VRB04KT 10SM BKN130 11/04 A2998 RMK AO2 SLP152 T01110039
2026-03-21 14:51:00,METAR KCMH 211451Z 36005KT 10SM BKN130 08/03 A2999 RMK AO2 SLP156 T00830028 51008
2026-03-21 13:51:00,METAR KCMH 211351Z 36006KT 8SM BKN150 06/03 A2999 RMK AO2 SLP156 T00560028
2026-03-21 12:51:00,METAR KCMH 211251Z 01006KT 7SM BKN180 04/02 A2998 RMK AO2 SLP153 T00440022
2026-03-21 11:51:00,METAR KCMH 211151Z 36006KT 7SM BKN180 04/02 A2997 RMK AO2 SLP149 T00390022 10100 20039 51017
2026-03-21 10:51:00,METAR KCMH 211051Z 35009KT 8SM BKN200 05/03 A2996 RMK AO2 SLP145 T00500028
2026-03-21 09:51:00,METAR KCMH 210951Z 35007KT 9SM OVC200 07/04 A2994 RMK AO2 SLP138 T00670039
2026-03-21 08:51:00,METAR KCMH 210851Z 36005KT 10SM BKN250 07/03 A2992 RMK AO2 SLP130 T00670033 51014
2026-03-21 07:51:00,METAR KCMH 210751Z 34004KT 10SM BKN250 08/04 A2991 RMK AO2 SLP126 T00830044
2026-03-21 06:51:00,METAR KCMH 210651Z 02008KT 10SM BKN250 09/04 A2989 RMK AO2 SLP120 T00940044
2026-03-21 05:51:00,METAR KCMH 210551Z 03007KT 10SM BKN250 10/06 A2987 RMK AO2 SLP115 60000 T01000061 10194 20100 51025
2026-03-21 04:51:00,METAR KCMH 210451Z 36012KT 10SM BKN250 12/07 A2985 RMK AO2 SLP107 T01220072 402060072
2026-03-21 03:51:00,METAR KCMH 210351Z 33010KT 10SM SCT250 16/07 A2982 RMK AO2 SLP097 T01560072
2026-03-21 02:51:00,METAR KCMH 210251Z COR 32011KT 10SM SCT075 BKN100 18/08 A2980 RMK AO2 SLP088 60000 T01780078 53016
2026-03-21 01:51:00,METAR KCMH 210151Z 29007KT 10SM OVC070 18/09 A2978 RMK AO2 LTG DSNT SE RAE0058 SLP084 P0000 T01780089
2026-03-21 00:51:00,METAR KCMH 210051Z 24005KT 10SM -RA FEW070 BKN095 OVC120 18/09 A2976 RMK AO2 RAB30 SLP075 P0000 T01830089
2026-03-20 23:51:00,METAR KCMH 202351Z 24008KT 10SM FEW065 SCT120 OVC230 19/09 A2975 RMK AO2 SLP072 T01940089 10206 20178 55002
2026-03-20 22:51:00,METAR KCMH 202251Z 24007KT 10SM FEW110 BKN150 OVC240 20/09 A2974 RMK AO2 SLP068 T02000094
2026-03-20 21:51:00,METAR KCMH 202151Z 21013KT 10SM BKN110 OVC220 19/09 A2973 RMK AO2 SLP067 T01940094
2026-03-20 20:51:00,METAR KCMH 202051Z 22007KT 10SM FEW090 SCT120 OVC230 19/08 A2976 RMK AO2 SLP075 T01890083 58027
2026-03-20 19:51:00,METAR KCMH 201951Z 22009G20KT 9SM SCT090 BKN100 OVC220 18/08 A2978 RMK AO2 SLP083 T01830083
2026-03-20 18:51:00,METAR KCMH 201851Z 23010G21KT 10SM OVC090 18/08 A2982 RMK AO2 PK WND 24026/1755 SLP096 T01780083
2026-03-20 17:51:00,METAR KCMH 201751Z 24021G28KT 10SM SCT120 BKN220 18/08 A2984 RMK AO2 PK WND 24028/1751 SLP103 T01830078 10183 20094 58021
2026-03-20 16:51:00,METAR KCMH 201651Z 23014G23KT 10SM SCT100 BKN220 17/07 A2986 RMK AO2 SLP112 T01670072
2026-03-20 15:51:00,METAR KCMH 201551Z 21011G18KT 8SM SCT100 BKN220 16/06 A2989 RMK AO2 SLP121 T01560056
2026-03-20 14:51:00,METAR KCMH 201451Z 21010KT 10SM FEW060 BKN120 BKN250 14/05 A2990 RMK AO2 SLP125 T01440050 56018
2026-03-20 13:51:00,METAR KCMH 201351Z 19010KT 10SM SCT060 BKN120 BKN250 13/04 A2991 RMK AO2 SLP129 T01280044
2026-03-20 12:51:00,METAR KCMH 201251Z 20008KT 10SM FEW060 SCT110 BKN250 11/03 A2993 RMK AO2 SLP136 T01110033
2026-03-20 11:51:00,METAR KCMH 201151Z 19006KT 10SM SCT100 BKN250 09/03 A2995 RMK AO2 SLP143 T00940033 10094 20072 56014
2026-03-20 10:51:00,METAR KCMH 201051Z 20006KT 10SM BKN100 BKN250 09/03 A2997 RMK AO2 SLP147 T00940028
2026-03-20 09:51:00,METAR KCMH 200951Z 19004KT 10SM BKN180 BKN250 09/03 A2998 RMK AO2 SLP151 T00890033
2026-03-20 08:51:00,METAR KCMH 200851Z 00000KT 10SM OVC150 07/03 A3000 RMK AO2 SLP157 T00720033 56022
2026-03-20 07:51:00,METAR KCMH 200751Z 00000KT 10SM BKN150 08/04 A3001 RMK AO2 SLP163 T00830039
2026-03-20 06:51:00,METAR KCMH 200651Z 00000KT 10SM SCT080 SCT150 BKN250 09/04 A3004 RMK AO2 SLP173 T00890039
2026-03-20 05:51:00,METAR KCMH 200551Z 14003KT 10SM BKN085 09/04 A3006 RMK AO2 SLP181 T00890039 10161 20089 58009
2026-03-20 04:51:00,METAR KCMH 200451Z 00000KT 10SM OVC090 10/04 A3009 RMK AO2 SLP190 T01000044 401830028
2026-03-20 03:51:00,METAR KCMH 200351Z 00000KT 10SM BKN085 OVC120 10/04 A3010 RMK AO2 SLP194 T01000044
2026-03-20 02:51:00,METAR KCMH 200251Z 13003KT 10SM FEW150 BKN250 10/04 A3009 RMK AO2 SLP193 T01000039 50001
2026-03-20 01:51:00,METAR KCMH 200151Z 13003KT 10SM SCT100 BKN250 13/03 A3011 RMK AO2 SLP197 T01280033
2026-03-20 00:51:00,METAR KCMH 200051Z 00000KT 10SM FEW090 BKN110 BKN250 15/03 A3011 RMK AO2 SLP196 T01500033
2026-03-19 23:51:00,METAR KCMH 192351Z 23004KT 10SM BKN100 BKN250 16/03 A3009 RMK AO2 SLP191 T01610033 10183 20139 53005
2026-03-19 22:51:00,METAR KCMH 192251Z 27009KT 10SM BKN095 BKN250 18/03 A3008 RMK AO2 SLP187 T01780033
2026-03-19 21:51:00,METAR KCMH 192151Z 24013KT 10SM FEW090 SCT250 18/04 A3007 RMK AO2 SLP184 T01780039
2026-03-19 20:51:00,METAR KCMH 192051Z 25009KT 10SM FEW090 FEW250 18/03 A3008 RMK AO2 SLP185 T01780033 56025
2026-03-19 19:51:00,METAR KCMH 191951Z 23009G17KT 10SM FEW050 FEW080 FEW140 FEW250 17/03 A3009 RMK AO2 SLP190 T01720033
2026-03-19 18:51:00,METAR KCMH 191851Z 22007KT 10SM FEW049 FEW140 FEW250 16/04 A3011 RMK AO2 SLP197 T01610039
2026-03-19 17:51:00,METAR KCMH 191751Z COR 20007KT 10SM FEW039 SCT140 BKN250 14/03 A3015 RMK AO2 SLP213 T01390033 10139 20033 58003
2026-03-19 16:51:00,METAR KCMH 191651Z 20007KT 180V240 10SM SCT037 SCT070 BKN085 BKN250 12/03 A3016 RMK AO2 SLP215 T01170028
2026-03-19 15:51:00,METAR KCMH 191551Z 26004KT 10SM SCT060 BKN110 BKN180 BKN250 09/02 A3017 RMK AO2 SLP219 T00940017
2026-03-19 14:51:00,METAR KCMH 191451Z 23009KT 10SM BKN055 BKN100 BKN150 OVC250 07/01 A3016 RMK AO2 SLP218 T00720011 52008
2026-03-19 13:51:00,METAR KCMH 191351Z 19006KT 10SM SCT055 BKN080 BKN130 OVC250 05/01 A3015 RMK AO2 SLP215 T00500006
2026-03-19 12:51:00,METAR KCMH 191251Z 18003KT 8SM SCT055 BKN070 OVC090 04/00 A3015 RMK AO2 SLP214 T00390000
2026-03-19 11:51:00,METAR KCMH 191151Z 17003KT 10SM SCT065 BKN090 BKN110 03/M01 A3014 RMK AO2 SLP211 T00331006 10044 20028 53010
2026-03-19 10:51:00,METAR KCMH 191051Z 18005KT 10SM SCT120 BKN150 03/M01 A3011 RMK AO2 SLP203 T00281011
2026-03-19 09:51:00,METAR KCMH 190951Z 19004KT 10SM FEW043 BKN150 04/M01 A3010 RMK AO2 SLP199 T00391006
2026-03-19 08:51:00,METAR KCMH 190851Z VRB04KT 10SM BKN043 04/M01 A3011 RMK AO2 SLP201 T00391011 55006
2026-03-19 07:51:00,METAR KCMH 190751Z 18005KT 10SM BKN044 04/M03 A3010 RMK AO2 SLP199 T00441028
2026-03-19 06:51:00,METAR KCMH 190651Z 16004KT 10SM OVC047 04/M04 A3011 RMK AO2 SLP203 T00391039
2026-03-19 05:51:00,METAR KCMH 190551Z 15003KT 10SM OVC049 04/M05 A3013 RMK AO2 SLP208 T00391050 10039 20033 58007
2026-03-19 04:51:00,METAR KCMH 190451Z 15003KT 10SM OVC050 03/M06 A3014 RMK AO2 SLP212 T00331056 400391067
2026-03-19 03:51:00,METAR KCMH 190351Z 14005KT 10SM OVC050 03/M06 A3015 RMK AO2 SLP215 T00331056
2026-03-19 02:51:00,METAR KCMH 190251Z 15004KT 10SM FEW041 OVC050 03/M06 A3015 RMK AO2 SLP217 T00331061 51010
2026-03-19 01:51:00,METAR KCMH 190151Z 15005KT 10SM OVC042 04/M06 A3014 RMK AO2 SLP215 T00391061
2026-03-19 00:51:00,METAR KCMH 190051Z 14007KT 10SM OVC042 04/M06 A3014 RMK AO2 SLP215 T00391061
2026-03-18 23:51:00,METAR KCMH 182351Z 14007KT 10SM OVC043 04/M06 A3012 RMK AO2 SLP207 60000 T00391056 10039 20017 56004
2026-03-18 22:51:00,METAR KCMH 182251Z 17007KT 10SM OVC043 04/M06 A3012 RMK AO2 SLP208 T00391061
2026-03-18 21:51:00,METAR KCMH 182151Z 18009G19KT 10SM OVC045 04/M06 A3012 RMK AO2 SLP207 T00391061
2026-03-18 20:51:00,METAR KCMH 182051Z 17011KT 10SM FEW048 OVC060 04/M07 A3013 RMK AO2 CIG 047 NW SLP211 60000 T00391072 56026
2026-03-18 19:51:00,METAR KCMH 181951Z 17010KT 10SM BKN050 OVC070 03/M08 A3015 RMK AO2 SLP217 T00281083
2026-03-18 18:51:00,METAR KCMH 181851Z 16012KT 9SM BKN060 OVC075 02/M09 A3018 RMK AO2 SNB10E48 SLP227 P0000 T00221094
2026-03-18 18:10:00,SPECI KCMH 181810Z 17012G19KT 10SM -SN BKN055 OVC075 02/M10 A3020 RMK AO2 SNB10 P0000 T00171100
2026-03-18 17:51:00,METAR KCMH 181751Z 19011G20KT 10SM BKN060 OVC075 02/M11 A3021 RMK AO2 SLP238 T00171106 10017 21061 58018
2026-03-18 16:51:00,METAR KCMH 181651Z 18014KT 10SM BKN060 OVC085 01/M11 A3023 RMK AO2 SLP246 T00111111
2026-03-18 15:51:00,METAR KCMH 181551Z 17010G17KT 9SM BKN050 OVC100 M01/M11 A3025 RMK AO2 SLP252 T10061111
2026-03-18 14:51:00,METAR KCMH 181451Z 19010KT 10SM BKN060 BKN110 OVC250 M02/M12 A3026 RMK AO2 SLP259 T10221117 58002
2026-03-18 13:51:00,METAR KCMH 181351Z 17013KT 10SM BKN060 OVC100 M03/M12 A3027 RMK AO2 SLP260 T10331122
2026-03-18 12:51:00,METAR KCMH 181251Z 15008KT 10SM FEW080 BKN120 BKN250 M05/M11 A3027 RMK AO2 SLP262 T10501106
2026-03-18 11:51:00,METAR KCMH 181151Z 14007KT 10SM SCT100 BKN110 BKN250 M06/M11 A3027 RMK AO2 SLP262 T10611111 11056 21067 55000
2026-03-18 10:51:00,METAR KCMH 181051Z 14005KT 10SM SCT130 BKN150 BKN250 M07/M11 A3026 RMK AO2 SLP260 T10671106
2026-03-18 09:51:00,METAR KCMH 180951Z 17004KT 10SM SCT130 BKN250 M06/M10 A3027 RMK AO2 SLP262 T10611100
2026-03-18 08:51:00,METAR KCMH 180851Z 16005KT 10SM BKN250 M07/M11 A3027 RMK AO2 SLP262 T10671106 50002
2026-03-18 07:51:00,METAR KCMH 180751Z 16003KT 10SM SCT250 M06/M12 A3028 RMK AO2 SLP264 T10611122
2026-03-18 06:51:00,METAR KCMH 180651Z 16003KT 10SM BKN250 M06/M13 A3027 RMK AO2 SLP262 T10611128
2026-03-18 05:51:00,METAR KCMH 180551Z 00000KT 10SM BKN140 BKN250 M06/M14 A3026 RMK AO2 SLP260 T10561139 11044 21061 58001
2026-03-18 04:51:00,METAR KCMH 180451Z 24004KT 10SM BKN150 M06/M14 A3027 RMK AO2 SLP263 T10561139 410281067
2026-03-18 03:51:00,METAR KCMH 180351Z 27005KT 10SM BKN210 M06/M14 A3028 RMK AO2 SLP264 T10561144
2026-03-18 02:51:00,METAR KCMH 180251Z 28006KT 10SM SCT250 M06/M15 A3027 RMK AO2 SLP261 T10611150 53012
2026-03-18 01:51:00,METAR KCMH 180151Z COR 25010KT 10SM SCT049 BKN250 M05/M15 A3025 RMK AO2 SLP255 T10501150
2026-03-18 00:51:00,METAR KCMH 180051Z 27009KT 10SM BKN050 M05/M15 A3024 RMK AO2 SLP251 T10501150
2026-03-17 23:51:00,METAR KCMH 172351Z 29012KT 10SM OVC055 M04/M14 A3023 RMK AO2 SLP248 60000 T10441144 11028 21056 51020
2026-03-17 22:51:00,METAR KCMH 172251Z 29012KT 10SM FEW035 OVC055 M04/M14 A3022 RMK AO2 SNE16 SLP245 P0000 T10441144
2026-03-17 22:16:00,SPECI KCMH 172216Z 30017G20KT 9SM FEW038 SCT047 OVC060 M04/M13 A3020 RMK AO2 SNE16 P0000 T10391133
2026-03-17 21:51:00,METAR KCMH 172151Z 28016KT 9SM -SN BKN040 OVC050 M04/M13 A3019 RMK AO2 SNB14 SLP234 PCPN VERY LGT P0000 T10391128
2026-03-17 21:15:00,SPECI KCMH 172115Z 29016KT 8SM -SN SCT035 BKN044 BKN050 M04/M12 A3018 RMK AO2 SNB14 PCPN VERY LGT P0000 T10441117
2026-03-17 20:51:00,METAR KCMH 172051Z 28012KT 10SM SCT049 BKN065 M03/M13 A3017 RMK AO2 SLP226 VCSH S-SW AND W AND NW 60000 T10331133 53010
2026-03-17 19:51:00,METAR KCMH 171951Z 27014G24KT 10SM FEW043 BKN055 BKN070 M04/M12 A3015 RMK AO2 SNE25 CIG 045 NW SLP220 P0000 T10391122
2026-03-17 19:40:00,SPECI KCMH 171940Z 28017KT 10SM BKN038 BKN045 OVC070 M04/M12 A3014 RMK AO2 SNE25 P0000 T10391117
2026-03-17 19:25:00,SPECI KCMH 171925Z COR 31014G21KT 5SM -SN FEW029 SCT040 BKN050 M03/M12 A3014 RMK AO2 SNE25 PCPN VERY LGT P0000 T10281117
2026-03-17 19:16:00,SPECI KCMH 171916Z 29013G24KT 2 1/2SM -SN SCT024 BKN037 BKN044 M04/M11 A3014 RMK AO2 P0000 T10441106
2026-03-17 19:02:00,SPECI KCMH 171902Z 29013G20KT 5SM -SN SCT038 BKN049 BKN065 M03/M11 A3014 RMK AO2 P0000 T10331111
2026-03-17 18:58:00,SPECI KCMH 171858Z 30013G22KT 2 1/2SM -SN FEW027 BKN035 OVC065 M04/M11 A3014 RMK AO2 P0000 T10441106
2026-03-17 18:51:00,METAR KCMH 171851Z 28016G25KT 3SM -SN SCT030 BKN039 OVC065 M05/M11 A3014 RMK AO2 PK WND 30026/1752 SNE36B49 SLP219 P0000 T10501106
2026-03-17 18:44:00,SPECI KCMH 171844Z 30017KT 10SM SCT026 BKN035 OVC048 M04/M11 A3014 RMK AO2 PK WND 30026/1752 SNE36 P0000 T10441111
2026-03-17 18:01:00,SPECI KCMH 171801Z 30011KT 6SM -SN BKN026 BKN035 OVC048 M06/M10 A3014 RMK AO2 PK WND 30026/1752 P0000 T10561100
2026-03-17 17:51:00,METAR KCMH 171751Z 29019G26KT 2 1/2SM -SN BKN027 BKN035 OVC044 M04/M12 A3014 RMK AO2 PK WND 29026/1751 SLP215 VIS E 4 P0000 60000 T10441117 11033 21067 51021
2026-03-17 17:06:00,SPECI KCMH 171706Z 28011KT 6SM R28L/3000VP6000FT -SN BKN027 BKN035 OVC044 M05/M10 A3012 RMK AO2 P0000 T10501100
2026-03-17 16:53:00,SPECI KCMH 171653Z 29016G20KT 1SM R28L/P6000FT -SN BKN027 BKN035 OVC044 M04/M11 A3012 RMK AO2 P0000 T10441111
2026-03-17 16:51:00,METAR KCMH 171651Z 29014KT 5SM -SN BKN028 BKN036 OVC044 M04/M11 A3011 RMK AO2 SLP207 P0000 T10391106
2026-03-17 15:51:00,METAR KCMH 171551Z 30013G21KT 8SM -SN BKN028 OVC033 M05/M11 A3010 RMK AO2 SLP202 PCPN VRY LGT P0000 T10501106
2026-03-17 15:07:00,SPECI KCMH 171507Z 29013KT 2SM -SN SCT022 BKN027 OVC034 M06/M10 A3008 RMK AO2 P0000 T10561100
2026-03-17 14:51:00,METAR KCMH 171451Z 28013KT 5SM -SN BKN027 OVC033 M06/M11 A3007 RMK AO2 SLP194 P0000 60000 T10561106 51025
2026-03-17 13:51:00,METAR KCMH 171351Z 26015KT 8SM -SN BKN027 OVC035 M06/M12 A3005 RMK AO2 SLP187 P0000 T10611117
2026-03-17 12:51:00,METAR KCMH 171251Z 26012KT 7SM -SN BKN029 OVC038 M07/M11 A3002 RMK AO2 SLP177 PCPN VRY LGT P0000 T10671106
2026-03-17 12:15:00,SPECI KCMH 171215Z 26013G22KT 4SM -SN FEW017 OVC025 M07/M11 A3001 RMK AO2 P0000 T10671106
2026-03-17 11:56:00,SPECI KCMH 171156Z 27015KT 1SM R28L/P6000FT -SN SCT020 OVC025 M07/M09 A3000 RMK AO2 P0000 T10671094
2026-03-17 11:51:00,METAR KCMH 171151Z 27014KT 1 1/2SM -SN BKN024 OVC032 M07/M09 A3000 RMK AO2 TWR VIS 2 SLP168 P0000 60000 T10671094 11039 21067 53026
2026-03-17 11:45:00,SPECI KCMH 171145Z 27015KT 2SM -SN BKN024 OVC032 M06/M10 A3000 RMK AO2 SFC VIS 4 P0000
2026-03-17 10:51:00,METAR KCMH 171051Z 27016G23KT 9SM -SN BKN026 BKN037 OVC070 M06/M11 A2996 RMK AO2 SLP156 PCPN VRY LGT P0000 T10611111
2026-03-17 09:51:00,METAR KCMH 170951Z 27015G23KT 9SM -SN BKN021 OVC037 M06/M09 A2994 RMK AO2 PK WND 27028/0853 SLP146 P0000 T10561089
2026-03-17 08:51:00,METAR KCMH 170851Z 27015G25KT 9SM -SN BKN022 OVC031 M05/M09 A2992 RMK AO2 PK WND 27027/0758 SLP140 P0000 60000 T10501089 51026
2026-03-17 07:51:00,METAR KCMH 170751Z 27018G27KT 9SM -SN OVC025 M05/M09 A2990 RMK AO2 PK WND 27028/0652 SNB40 SLP133 P0000 T10501094
2026-03-17 07:41:00,SPECI KCMH 170741Z 27019G27KT 10SM -SN OVC026 M05/M09 A2989 RMK AO2 PK WND 27028/0652 SNB40 P0000 T10501094
2026-03-17 06:51:00,METAR KCMH 170651Z 27020G29KT 10SM BKN022 M05/M09 A2988 RMK AO2 PK WND 29035/0600 SNE16 SLP125 P0000 T10501089
2026-03-17 06:16:00,SPECI KCMH 170616Z 28023G30KT 9SM SCT023 M05/M09 A2985 RMK AO2 PK WND 29035/0600 SNE16 P0000 T10501089
2026-03-17 05:51:00,METAR KCMH 170551Z 27015G24KT 8SM -SN FEW014 SCT020 OVC029 M04/M08 A2984 RMK AO2 PK WND 26034/0501 SLP113 P0000 60000 T10391078 11017 21039 51021
2026-03-17 04:51:00,METAR KCMH 170451Z 26013G27KT 3SM -SN BKN018 OVC026 M03/M06 A2982 RMK AO2 PK WND 27027/0442 TWR VIS 4 SLP107 P0000 T10331056 401941039
2026-03-17 04:36:00,SPECI KCMH 170436Z 27014G19KT 3SM -SN BR SCT016 BKN022 OVC027 M04/M06 A2982 RMK AO2 TWR VIS 4 CIG 015 NW P0000 T10391056
2026-03-17 04:13:00,SPECI KCMH 170413Z 27015G22KT 1 1/2SM -SN BR FEW015 OVC027 M04/M06 A2981 RMK AO2 TWR VIS 4 CIG 019 NW P0000 T10391056
2026-03-17 04:00:00,SPECI KCMH 170400Z 28012KT 1 1/2SM -SN BR FEW019 OVC038 M04/M06 A2981 RMK AO2 TWR VIS 4 P0000 T10391056
2026-03-17 03:51:00,METAR KCMH 170351Z 27015KT 9SM -SN FEW018 OVC055 M04/M07 A2980 RMK AO2 PK WND 27030/0302 SNB10 SLP099 P0000 T10391067
2026-03-17 03:39:00,SPECI KCMH 170339Z 28014KT 1/2SM R28L/P6000FT -SN BR FEW014 BKN046 M04/M06 A2979 RMK AO2 PK WND 27030/0302 SFC VIS 5 SNB10 P0000 T10391061
2026-03-17 03:20:00,SPECI KCMH 170320Z 28019G28KT 1/2SM R28L/P6000FT -SN BR FEW021 OVC028 M04/M06 A2979 RMK AO2 PK WND 27030/0302 SFC VIS 3 SNB10 P0000 T10391061
2026-03-17 03:13:00,SPECI KCMH 170313Z 28019G28KT 4SM -SN FEW023 OVC039 M04/M06 A2979 RMK AO2 PK WND 27030/0302 SNB10 P0000 T10391061
2026-03-17 02:51:00,METAR KCMH 170251Z 27020G27KT 10SM SCT045 OVC060 M03/M08 A2978 RMK AO2 PK WND 29036/0201 SNE22 SLP090 P0000 60000 T10281083 53038
2026-03-17 02:23:00,SPECI KCMH 170223Z 29021G35KT 9SM SCT031 OVC080 M03/M08 A2976 RMK AO2 PK WND 29036/0201 SNE22 P0000 T10331083
2026-03-17 01:51:00,METAR KCMH 170151Z 27022G29KT 9SM -SN BKN030 OVC036 M03/M07 A2973 RMK AO2 PK WND 28034/0137 SLP076 P0000 T10281072
2026-03-17 00:51:00,METAR KCMH 170051Z 27016G22KT 8SM -SN BKN033 OVC037 M02/M07 A2969 RMK AO2 PK WND 27031/0004 SLP060 P0000 T10221067
2026-03-16 23:51:00,METAR KCMH 162351Z 26015G24KT 9SM -SN SCT033 BKN041 OVC080 M02/M07 A2966 RMK AO2 PK WND 25032/2341 SLP050 P0000 60000 T10171072 10028 21022 53033
2026-03-16 23:31:00,SPECI KCMH 162331Z 25022G30KT 6SM -SN SCT036 BKN050 OVC075 M02/M06 A2964 RMK AO2 PK WND 23030/2329 CIG 038 NW P0000 T10171061
2026-03-16 22:51:00,METAR KCMH 162251Z 27018G32KT 8SM R28L/3000VP6000FT -SN BKN019 OVC027 M02/M06 A2961 RMK AO2 PK WND 29037/2205 SNB07 SLP030 P0000 T10221056
2026-03-16 22:14:00,SPECI KCMH 162214Z 28017G37KT 6SM R28L/5500VP6000FT -SN FEW023 BKN030 OVC060 M01/M04 A2960 RMK AO2 PK WND 29037/2205 SNB07 P0000 T10111044
2026-03-16 21:51:00,METAR KCMH 162151Z 27017KT 9SM SCT036 BKN050 OVC060 M01/M06 A2958 RMK AO2 PK WND 29031/2118 SNB31E50 SLP018 P0000 T10061056
2026-03-16 21:37:00,SPECI KCMH 162137Z 27019G29KT 9SM -SN FEW030 BKN037 OVC055 M01/M05 A2959 RMK AO2 PK WND 29031/2118 SNB31 PRESRR P0000 T10061050
2026-03-16 21:26:00,SPECI KCMH 162126Z 28019G31KT 10SM SCT031 BKN039 OVC060 M01/M05 A2957 RMK AO2 PK WND 29031/2118 T10061050
2026-03-16 20:51:00,METAR KCMH 162051Z 26019G31KT 9SM BKN029 OVC037 01/M07 A2956 RMK AO2 PK WND 26031/2048 SNE50 SLP013 P0000 60000 T00061067 55005
2026-03-16 19:51:00,METAR KCMH 161951Z 26022G29KT 5SM R28L/5000VP6000FT -SN BKN027 OVC034 00/M04 A2955 RMK AO2 PK WND 27029/1950 SLP008 P0000 T00001044
2026-03-16 19:33:00,SPECI KCMH 161933Z 28018G26KT 5SM -SN BKN021 OVC036 01/M04 A2954 RMK AO2 PK WND 27029/1859 PRESFR P0000 T00061039
2026-03-16 19:12:00,SPECI KCMH 161912Z 26017G25KT 2SM R28L/5000VP6000FT -SN BKN026 OVC040 01/M03 A2957 RMK AO2 PK WND 27029/1859 SFC VIS 3 CIG 021 NW P0000 T00061033
2026-03-16 18:51:00,METAR KCMH 161851Z 25017G31KT 5SM -SN SCT040 OVC055 02/M06 A2956 RMK AO2 PK WND 26034/1812 SNB03 CIG 037 NW SLP011 P0000 T00171056
2026-03-16 18:04:00,SPECI KCMH 161804Z 26018G28KT 10SM -SN BKN042 02/M06 A2958 RMK AO2 PK WND 27031/1752 SNB03 P0000 T00221056
2026-03-16 17:51:00,METAR KCMH 161751Z 27022G31KT 10SM BKN041 OVC070 03/M06 A2958 RMK AO2 PK WND 27039/1724 SLP016 T00281056 10061 20017 50010
2026-03-16 16:51:00,METAR KCMH 161651Z 26019G31KT 10SM BKN030 BKN037 OVC070 02/M05 A2958 RMK AO2 PK WND 27034/1616 SLP017 T00221050
2026-03-16 15:51:00,METAR KCMH 161551Z 27022G31KT 10SM BKN025 OVC034 02/M03 A2957 RMK AO2 PK WND 27032/1538 SLP013 T00171028
2026-03-16 14:51:00,METAR KCMH 161451Z 26020G30KT 10SM BKN025 BKN031 OVC050 03/M02 A2954 RMK AO2 PK WND 25035/1441 SLP004 T00281017 51043
2026-03-16 13:51:00,METAR KCMH 161351Z 25016G31KT 10SM BKN024 BKN030 OVC036 04/M01 A2952 RMK AO2 PK WND 25035/1252 SLP994 T00441006
2026-03-16 13:08:00,SPECI KCMH 161308Z 25012G32KT 10SM BKN023 OVC028 05/02 A2949 RMK AO2 PK WND 25035/1252 T00500017
2026-03-16 12:51:00,METAR KCMH 161251Z 25023G33KT 8SM BKN013 BKN028 OVC033 06/02 A2948 RMK AO2 PK WND 22033/1247 SLP983 T00560017
2026-03-16 11:51:00,METAR KCMH 161151Z 24018G28KT 7SM SCT008 OVC014 06/04 A2941 RMK AO2 PK WND 26032/1053 WSHFT 1038 RAE24 SLP958 P0001 60048 70048 T00610039 10194 20061 51038 $
2026-03-16 11:46:00,SPECI KCMH 161146Z 25020G27KT 7SM SCT008 OVC014 06/04 A2941 RMK AO2 PK WND 26032/1053 WSHFT 1038 RAE24 P0001 $
2026-03-16 10:53:00,SPECI KCMH 161053Z 26023G35KT 4SM -RA BR BKN009 BKN014 OVC021 10/08 A2936 RMK AO2 PK WND 26032/1053 WSHFT 1038 PRESRR P0000 T01000083 $
2026-03-16 10:51:00,METAR KCMH 161051Z 27025G35KT 4SM -RA BR SCT010 BKN016 OVC021 11/09 A2936 RMK AO2 PK WND 26035/1048 WSHFT 1036 RAE0958B34 PRESRR SLP937 P0002 T01060089 $
2026-03-16 10:33:00,SPECI KCMH 161033Z 18013G19KT 4SM BR FEW017 BKN022 OVC049 13/12 A2932 RMK AO2 RAE0958 P0000 T01330117 $
2026-03-16 09:51:00,METAR KCMH 160951Z 16011KT 6SM -RA BR SCT025 OVC065 13/12 A2930 RMK AO2 SLP917 P0015 T01330122 $
2026-03-16 08:51:00,METAR KCMH 160851Z 20010KT 6SM RA BR SCT027 OVC050 14/13 A2936 RMK AO2 SLP936 P0008 60030 T01390128 56005 $
2026-03-16 07:51:00,METAR KCMH 160751Z COR 22012KT 6SM RA BR SCT033 OVC050 13/12 A2936 RMK AO2 PK WND 17034/0703 WSHFT 0702 FROPA RAB06 SLP937 P0022 T01330122 $
2026-03-16 07:22:00,SPECI KCMH 160722Z COR 25023G33KT 4SM RA FEW035 OVC040 16/11 A2939 RMK AO2 PK WND 17034/0703 WSHFT 0702 FROPA RAB06 PRESRR OCNL LTGIC DSNT N CB DSNT N P0000 T01560111 $
2026-03-16 06:51:00,METAR KCMH 160651Z 17020G31KT 8SM BKN049 OVC075 19/10 A2933 RMK AO2 PK WND 16036/0625 SLP925 OCNL LTGIC DSNT NE CB DSNT NE T01890100 $
2026-03-16 05:51:00,METAR KCMH 160551Z COR 17019G31KT 10SM BKN047 OVC150 18/09 A2937 RMK AO2 PK WND 15037/0516 SLP941 OCNL LTGCC DSNT W CB DSNT W T01830094 10222 20183 58033 $
2026-03-16 04:51:00,METAR KCMH 160451Z 17018G28KT 10SM SCT070 BKN250 18/09 A2942 RMK AO2 PK WND 18033/0427 SLP955 T01830089 402500044 $
2026-03-16 03:51:00,METAR KCMH 160351Z 16017G28KT 10SM BKN250 19/07 A2944 RMK AO2 PK WND 17028/0253 SLP963 T01890072 $
2026-03-16 02:51:00,METAR KCMH 160251Z 16017G26KT 10SM BKN250 20/05 A2947 RMK AO2 PK WND 17028/0221 SLP976 T02000050 56027 $
2026-03-16 01:51:00,METAR KCMH 160151Z 16017G27KT 10SM FEW160 FEW200 BKN250 21/06 A2950 RMK AO2 PK WND 18029/0103 SLP985 T02060056 $
2026-03-16 00:51:00,METAR KCMH 160051Z 16017G27KT 10SM FEW060 BKN160 BKN200 OVC250 22/05 A2953 RMK AO2 PK WND 17027/0051 SLP997 T02170050 $
2026-03-15 23:51:00,METAR KCMH 152351Z 17014G22KT 10SM FEW060 BKN160 BKN200 OVC250 22/04 A2956 RMK AO2 SLP006 T02220044 10250 20222 56023 $
2026-03-15 22:51:00,METAR KCMH 152251Z 18013G21KT 10SM FEW060 BKN160 BKN200 OVC250 23/05 A2958 RMK AO2 PK WND 18029/2200 SLP014 T02280050 $
2026-03-15 21:51:00,METAR KCMH 152151Z 18015G31KT 10SM FEW060 FEW160 BKN200 OVC250 24/05 A2960 RMK AO2 PK WND 18033/2056 SLP020 T02390050 $
2026-03-15 20:51:00,METAR KCMH 152051Z 19018G33KT 10SM FEW060 FEW080 BKN160 BKN200 OVC250 24/04 A2962 RMK AO2 PK WND 20037/2024 SLP030 T02440044 56035 $
2026-03-15 19:51:00,METAR KCMH 151951Z 18019G37KT 10SM FEW060 FEW080 SCT160 BKN200 OVC250 24/05 A2966 RMK AO2 PK WND 20037/1943 SLP040 T02440050 $
2026-03-15 18:51:00,METAR KCMH 151851Z 18019G34KT 10SM FEW055 OVC200 23/06 A2969 RMK AO2 PK WND 16038/1817 SLP052 T02330056 $
2026-03-15 17:51:00,METAR KCMH 151751Z 17021G35KT 10SM FEW050 OVC200 23/05 A2973 RMK AO2 PK WND 18037/1731 SLP066 T02280050 10228 20072 58039 $
2026-03-15 16:51:00,METAR KCMH 151651Z 18019G32KT 10SM OVC250 22/04 A2977 RMK AO2 PK WND 18032/1639 SLP079 T02170044 $
2026-03-15 15:51:00,METAR KCMH 151551Z 19021G28KT 10SM BKN250 20/03 A2981 RMK AO2 PK WND 20028/1551 SLP095 T02000033 $
2026-03-15 14:51:00,METAR KCMH 151451Z 16015G24KT 10SM BKN250 17/02 A2985 RMK AO2 SLP107 T01670017 58018 $
2026-03-15 13:51:00,METAR KCMH 151351Z 14008KT 10SM SCT130 OVC250 12/M01 A2988 RMK AO2 SLP119 T01171011 $
2026-03-15 12:51:00,METAR KCMH 151251Z 14008KT 10SM BKN120 OVC250 08/M04 A2989 RMK AO2 SLP126 T00831044
2026-03-15 11:51:00,METAR KCMH 151151Z 13010KT 10SM BKN120 07/M06 A2990 RMK AO2 SLP129 T00721056 10078 20044 58015
2026-03-15 10:51:00,METAR KCMH 151051Z 13008KT 10SM BKN120 07/M06 A2992 RMK AO2 SLP133 T00721056
2026-03-15 09:51:00,METAR KCMH 150951Z 12008KT 10SM BKN110 07/M07 A2993 RMK AO2 SLP140 T00671067
2026-03-15 08:51:00,METAR KCMH 150851Z 11012KT 10SM BKN110 06/M07 A2995 RMK AO2 SLP144 T00611072 58030
