Time_recorded,METAR
2026-05-02 14:53:00,METAR KFRG 021453Z 00000KT 10SM BKN021 BKN026 OVC080 12/07 A2988 RMK AO2 SLP120 T01170072 58004
2026-05-02 14:46:00,SPECI KFRG 021446Z 00000KT 10SM BKN023 OVC080 12/07 A2989 RMK AO2 T01170067
2026-05-02 13:53:00,METAR KFRG 021353Z 02004KT 10SM OVC080 12/08 A2989 RMK AO2 SLP122 T01170078
2026-05-02 13:12:00,SPECI KFRG 021312Z 00000KT 10SM SCT012 BKN090 12/08 A2990 RMK AO2 T01170078
2026-05-02 13:04:00,SPECI KFRG 021304Z 04003KT 10SM BKN012 BKN085 11/08 A2990 RMK AO2 T01110078
2026-05-02 12:53:00,METAR KFRG 021253Z 00000KT 10SM FEW010 SCT015 BKN085 11/08 A2989 RMK AO2 SLP123 T01110083
2026-05-02 11:53:00,METAR KFRG 021153Z 25004KT 10SM OVC080 11/08 A2990 RMK AO2 RAE24 SLP124 P0001 60001 70001 T01060083 10106 20100 53007
2026-05-02 10:53:00,METAR KFRG 021053Z 00000KT 5SM -RA BR BKN055 OVC070 10/08 A2988 RMK AO2 RAB38 SLP117 P0000 T01000078
2026-05-02 09:53:00,METAR KFRG 020953Z AUTO 21006KT 10SM BKN075 BKN100 OVC120 10/07 A2987 RMK AO2 SLP116 T01000072
2026-05-02 08:53:00,METAR KFRG 020853Z AUTO 19006KT 10SM OVC075 11/07 A2988 RMK AO2 SLP117 T01060072 55008
2026-05-02 07:53:00,METAR KFRG 020753Z AUTO 21006KT 10SM FEW070 SCT090 BKN110 10/08 A2987 RMK AO2 SLP116 T01000083
2026-05-02 06:53:00,METAR KFRG 020653Z AUTO 23007KT 10SM FEW090 11/08 A2988 RMK AO2 SLP118 T01060078
2026-05-02 05:53:00,METAR KFRG 020553Z AUTO 22010KT 10SM CLR 11/08 A2990 RMK AO2 SLP125 T01060078 10111 20100 55003
2026-05-02 04:53:00,METAR KFRG 020453Z AUTO 20007KT 10SM SCT110 11/07 A2989 RMK AO2 SLP122 T01060067 401670067
2026-05-02 03:53:00,METAR KFRG 020353Z AUTO 20008KT 10SM FEW100 FEW120 11/06 A2990 RMK AO2 SLP123 T01060061
2026-05-02 02:53:00,METAR KFRG 020253Z AUTO 21007KT 10SM CLR 10/06 A2991 RMK AO2 SLP128 T01000061 51010
2026-05-02 01:53:00,METAR KFRG 020153Z AUTO 21009KT 10SM CLR 11/06 A2990 RMK AO2 SLP127 T01060061
2026-05-02 00:53:00,METAR KFRG 020053Z AUTO 22006KT 10SM FEW120 11/04 A2989 RMK AO2 SLP122 T01110044
2026-05-01 23:53:00,METAR KFRG 012353Z AUTO 20008KT 10SM CLR 11/06 A2988 RMK AO2 SLP118 T01110056 10167 20111 53006
2026-05-01 22:53:00,METAR KFRG 012253Z AUTO 20013KT 10SM CLR 12/05 A2987 RMK AO2 SLP114 T01170050
2026-05-01 21:53:00,METAR KFRG 012153Z AUTO 22014KT 10SM CLR 13/04 A2987 RMK AO2 SLP115 T01280039
2026-05-01 20:53:00,METAR KFRG 012053Z 21016G24KT 10SM CLR 14/03 A2986 RMK AO2 SLP111 T01390028 55006
2026-05-01 19:53:00,METAR KFRG 011953Z 20015G18KT 10SM CLR 16/03 A2985 RMK AO2 SLP107 T01610028
2026-05-01 18:53:00,METAR KFRG 011853Z 21013G19KT 200V260 10SM CLR 17/02 A2986 RMK AO2 SLP112 T01670017
2026-05-01 17:53:00,METAR KFRG 011753Z 23008KT 10SM CLR 16/M01 A2988 RMK AO2 SLP117 T01611011 10161 20094 58010
2026-05-01 16:53:00,METAR KFRG 011653Z 10SM CLR 14/M02 A2989 RMK AO2 SLP122 T01441022
2026-05-01 15:53:00,METAR KFRG 011553Z 28008KT 10SM CLR 14/M01 A2991 RMK AO2 SLP129 T01391011
2026-05-01 14:53:00,METAR KFRG 011453Z 35006G16KT 10SM CLR 13/00 A2991 RMK AO2 SLP127 T01280000 58002
2026-05-01 13:53:00,METAR KFRG 011353Z 36008KT 10SM CLR 12/01 A2991 RMK AO2 SLP129 T01170006
2026-05-01 12:53:00,METAR KFRG 011253Z 31006G14KT 10SM CLR 11/00 A2992 RMK AO2 SLP131 T01060000
2026-05-01 11:53:00,METAR KFRG 011153Z 31008KT 10SM CLR 09/01 A2991 RMK AO2 SLP129 70003 T00940006 10094 20067 51017
2026-05-01 10:53:00,METAR KFRG 011053Z 29004KT 10SM CLR 08/01 A2990 RMK AO2 SLP126 T00780006
2026-05-01 09:53:00,METAR KFRG 010953Z AUTO 30003KT 10SM CLR 07/00 A2988 RMK AO2 SLP118 T00720000
2026-05-01 08:53:00,METAR KFRG 010853Z AUTO 30004KT 10SM CLR 07/01 A2986 RMK AO2 SLP113 T00670011 51010
2026-05-01 07:53:00,METAR KFRG 010753Z AUTO 00000KT 10SM CLR 08/02 A2986 RMK AO2 SLP110 T00780017
2026-05-01 06:53:00,METAR KFRG 010653Z AUTO 33003KT 10SM SCT090 08/04 A2984 RMK AO2 SLP105 T00830039
2026-05-01 05:53:00,METAR KFRG 010553Z AUTO 32005KT 10SM SCT085 09/03 A2983 RMK AO2 SLP102 T00940033 10128 20094 51007
2026-05-01 04:53:00,METAR KFRG 010453Z AUTO 30003KT 10SM CLR 10/04 A2983 RMK AO2 SLP102 T01000044 401560083
2026-05-01 03:53:00,METAR KFRG 010353Z AUTO 31006KT 10SM OVC090 11/04 A2982 RMK AO2 SLP098 T01110044
2026-05-01 02:53:00,METAR KFRG 010253Z AUTO 30004KT 10SM FEW110 10/06 A2981 RMK AO2 SLP095 T01000061 51019
2026-05-01 01:53:00,METAR KFRG 010153Z AUTO 30004KT 10SM CLR 11/08 A2980 RMK AO2 SLP092 T01060083
2026-05-01 00:53:00,METAR KFRG 010053Z 27003KT 9SM CLR 11/10 A2978 RMK AO2 SLP083 T01110100
2026-04-30 23:53:00,METAR KFRG 302353Z 00000KT 10SM CLR 13/10 A2976 RMK AO2 SLP077 60003 T01280100 10156 20117 51010
2026-04-30 22:53:00,METAR KFRG 302253Z 24003KT 10SM FEW090 13/11 A2975 RMK AO2 RAE06 SLP076 P0000 T01330106
2026-04-30 22:10:00,SPECI KFRG 302210Z 21005KT 9SM SCT019 BKN048 OVC080 13/11 A2975 RMK AO2 RAE06 P0000 T01330106
2026-04-30 22:01:00,SPECI KFRG 302201Z 25003KT 3SM -RA SCT019 BKN031 OVC045 13/11 A2975 RMK AO2 P0000 T01330106
2026-04-30 21:53:00,METAR KFRG 302153Z 26006KT 2 1/2SM -RA BKN017 BKN031 OVC044 13/10 A2975 RMK AO2 VIS 1 1/4V5 RAB40 SLP076 P0003 T01330100
2026-04-30 20:53:00,METAR KFRG 302053Z 27004KT 10SM FEW029 BKN042 OVC060 15/09 A2973 RMK AO2 SLP066 T01500089 55004
2026-04-30 19:53:00,METAR KFRG 301953Z 00000KT 10SM FEW019 BKN060 OVC075 14/09 A2971 RMK AO2 SLP062 T01440094
2026-04-30 19:46:00,SPECI KFRG 301946Z VRB03KT 9SM SCT018 BKN060 BKN075 13/09 A2972 RMK AO2 T01330094
2026-04-30 18:53:00,METAR KFRG 301853Z 28004KT 10SM BKN018 OVC025 14/09 A2973 RMK AO2 SLP068 T01390089
2026-04-30 18:06:00,SPECI KFRG 301806Z 23003KT 5SM HZ SCT011 OVC019 12/09 A2974 RMK AO2 T01220089
2026-04-30 17:53:00,METAR KFRG 301753Z 30004KT 5SM HZ BKN011 OVC017 12/09 A2974 RMK AO2 SLP070 T01170089 10117 20094 55007
2026-04-30 16:53:00,METAR KFRG 301653Z 28005KT 5SM BR OVC010 11/09 A2973 RMK AO2 SLP068 T01110089
2026-04-30 16:23:00,SPECI KFRG 301623Z 28005KT 7SM OVC010 11/09 A2974 RMK AO2 CIG 009V014 T01110089
2026-04-30 15:53:00,METAR KFRG 301553Z 27004KT 8SM OVC008 11/09 A2975 RMK AO2 SLP075 T01110089
2026-04-30 14:53:00,METAR KFRG 301453Z 00000KT 9SM OVC007 10/08 A2976 RMK AO2 CIG 006V011 SLP077 T01000083 55003
2026-04-30 13:53:00,METAR KFRG 301353Z 19003KT 3SM BR OVC008 09/08 A2976 RMK AO2 CIG 005V010 SLP076 T00940083
2026-04-30 12:53:00,METAR KFRG 301253Z 16004KT 5SM BR OVC009 09/08 A2976 RMK AO2 CIG 005V012 SLP078 T00940083
2026-04-30 12:35:00,SPECI KFRG 301235Z 17005KT 9SM BKN007 OVC013 09/08 A2976 RMK AO2 CIG 005V009 T00940083
2026-04-30 12:02:00,SPECI KFRG 301202Z 16004KT 10SM SCT006 OVC013 09/08 A2976 RMK AO2 T00940083
2026-04-30 11:53:00,METAR KFRG 301153Z 18003KT 10SM BKN006 BKN011 OVC017 09/08 A2977 RMK AO2 RAE31 SLP080 P0000 60000 70008 T00940083 10094 20083 50004
2026-04-30 11:50:00,SPECI KFRG 301150Z 19004KT 9SM BKN006 OVC017 09/08 A2977 RMK AO2 RAE31 P0000
2026-04-30 11:26:00,SPECI KFRG 301126Z 18004KT 3SM -RA BKN004 BKN016 OVC022 09/08 A2978 RMK AO2 SFC VIS 8 P0000 T00890083
2026-04-30 11:04:00,SPECI KFRG 301104Z 17004KT 5SM -RA BR SCT004 BKN014 OVC024 09/08 A2977 RMK AO2 P0000 T00890083
2026-04-30 10:53:00,METAR KFRG 301053Z 18004KT 2SM -RA BR BKN004 OVC014 09/08 A2977 RMK AO2 RAB04 CIG 003V007 SLP081 P0000 T00890083
2026-04-30 10:44:00,SPECI KFRG 301044Z AUTO 19003KT 1 1/2SM -RA BR OVC004 09/08 A2977 RMK AO2 RAB04 CIG 003V007 P0000 T00890083
2026-04-30 10:06:00,SPECI KFRG 301006Z AUTO 16005KT 1 3/4SM -RA BR OVC005 09/08 A2976 RMK AO2 RAB04 CIG 003V008 P0000 T00890083
2026-04-30 09:53:00,METAR KFRG 300953Z AUTO 15004KT 4SM BR BKN005 OVC011 09/08 A2976 RMK AO2 RAE12 CIG 003V008 SLP076 P0000 T00890083
2026-04-30 09:44:00,SPECI KFRG 300944Z AUTO 14004KT 4SM BR BKN004 OVC011 09/08 A2975 RMK AO2 RAE12 P0000 T00890083
2026-04-30 09:23:00,SPECI KFRG 300923Z AUTO 14004KT 3SM BR FEW004 BKN011 OVC016 09/08 A2975 RMK AO2 RAE12 P0000 T00890083
2026-04-30 09:16:00,SPECI KFRG 300916Z AUTO 16004KT 2 1/2SM BR FEW005 SCT011 OVC016 09/08 A2976 RMK AO2 RAE12 P0000 T00890083
2026-04-30 09:10:00,SPECI KFRG 300910Z AUTO 16004KT 3SM -RA BR FEW005 BKN009 OVC016 09/08 A2976 RMK AO2 P0000 T00890078
2026-04-30 09:02:00,SPECI KFRG 300902Z AUTO 16004KT 3SM -RA BR SCT005 BKN010 OVC016 09/08 A2976 RMK AO2 P0000 T00890083
2026-04-30 08:53:00,METAR KFRG 300853Z AUTO 00000KT 2SM -RA BR BKN007 OVC014 09/08 A2976 RMK AO2 SLP079 P0000 60000 T00890083 58004
2026-04-30 08:45:00,SPECI KFRG 300845Z AUTO 00000KT 2 1/2SM -RA BR BKN008 OVC014 09/08 A2977 RMK AO2 P0000 T00890078
2026-04-30 07:53:00,METAR KFRG 300753Z AUTO 00000KT 8SM -RA BKN005 OVC026 09/08 A2977 RMK AO2 RAB0654 CIG 005V008 SLP082 P0000 T00890078
2026-04-30 07:49:00,SPECI KFRG 300749Z AUTO 00000KT 9SM -RA BKN005 OVC026 09/08 A2977 RMK AO2 RAB0654 CIG 005V008 P0000
2026-04-30 07:02:00,SPECI KFRG 300702Z AUTO 13004KT 9SM -RA FEW009 OVC025 09/08 A2978 RMK AO2 RAB0654 P0000 T00890078
2026-04-30 06:53:00,METAR KFRG 300653Z AUTO 10004KT 10SM SCT010 BKN025 OVC050 09/08 A2978 RMK AO2 RAE32 SLP083 P0000 T00890078
2026-04-30 06:50:00,SPECI KFRG 300650Z AUTO 09007KT 10SM BKN010 BKN023 OVC050 09/08 A2977 RMK AO2 RAE32 CIG 006V011 PRESFR P0000
2026-04-30 06:41:00,SPECI KFRG 300641Z AUTO 14005KT 10SM BKN008 OVC023 09/08 A2979 RMK AO2 RAE32 CIG 006V012 P0000 T00890078
2026-04-30 06:26:00,SPECI KFRG 300626Z AUTO 16004KT 10SM -RA SCT006 OVC011 09/08 A2980 RMK AO2 P0000 T00890078
2026-04-30 05:53:00,METAR KFRG 300553Z AUTO 08005KT 5SM -RA BR BKN008 OVC034 08/08 A2979 RMK AO2 PRESFR SLP089 P0000 60008 T00830078 10094 20083 58023
2026-04-30 05:42:00,SPECI KFRG 300542Z AUTO 14006KT 6SM -RA BR BKN006 OVC034 08/08 A2981 RMK AO2 PRESFR P0000 T00830078
2026-04-30 05:34:00,SPECI KFRG 300534Z AUTO 18006KT 6SM -RA BR SCT006 OVC033 09/08 A2983 RMK AO2 P0000 T00890078
2026-04-30 05:06:00,SPECI KFRG 300506Z 22005KT 9SM -RA BKN006 BKN060 OVC090 08/08 A2983 RMK AO2 P0000 T00830078
2026-04-30 04:53:00,METAR KFRG 300453Z 20005KT 7SM -RA FEW006 SCT060 OVC085 08/08 A2983 RMK AO2 PRESRR SLP102 P0008 T00830078 401560083
2026-04-30 04:02:00,SPECI KFRG 300402Z 12007KT 5SM RA BR SCT007 BKN065 OVC075 08/08 A2984 RMK AO2 PRESFR P0002 T00830078
2026-04-30 03:53:00,METAR KFRG 300353Z 15006KT 6SM -RA BR BKN007 BKN050 OVC075 09/08 A2985 RMK AO2 SLP109 P0000 T00890078
2026-04-30 03:03:00,SPECI KFRG 300303Z 13007KT 6SM -RA BR SCT006 BKN070 OVC090 09/08 A2986 RMK AO2 P0000 T00890078
2026-04-30 02:53:00,METAR KFRG 300253Z 15007KT 10SM -RA FEW010 SCT075 OVC090 09/08 A2986 RMK AO2 SLP112 P0000 60000 T00890078 58006
2026-04-30 02:41:00,SPECI KFRG 300241Z 14007KT 7SM -RA FEW008 OVC090 09/08 A2986 RMK AO2 P0000 T00890078
2026-04-30 01:53:00,METAR KFRG 300153Z 12004KT 10SM -RA FEW075 OVC090 09/08 A2987 RMK AO2 RAE02B35 SLP114 P0000 T00890078
2026-04-30 00:53:00,METAR KFRG 300053Z 20004KT 10SM -RA FEW007 OVC090 09/07 A2987 RMK AO2 RAB43 SLP116 P0000 T00890072
2026-04-29 23:53:00,METAR KFRG 292353Z 19005KT 10SM FEW007 SCT100 BKN120 09/07 A2988 RMK AO2 SLP118 T00940072 10122 20094 55014
2026-04-29 23:45:00,SPECI KFRG 292345Z 14005KT 10SM FEW007 BKN110 09/07 A2987 RMK AO2 T00940072
2026-04-29 22:53:00,METAR KFRG 292253Z 16006KT 10SM CLR 09/07 A2987 RMK AO2 SLP115 T00940072
2026-04-29 21:53:00,METAR KFRG 292153Z 10007KT 10SM CLR 10/07 A2988 RMK AO2 SLP118 T01000072
2026-04-29 21:09:00,SPECI KFRG 292109Z 15007KT 10SM SCT009 10/07 A2990 RMK AO2 T01000072
2026-04-29 20:53:00,METAR KFRG 292053Z 14007KT 110V180 10SM BKN009 10/07 A2992 RMK AO2 SLP132 T01000072 58020
2026-04-29 19:53:00,METAR KFRG 291953Z 18010KT 10SM BKN009 10/07 A2994 RMK AO2 SLP140 T01000072
2026-04-29 18:50:00,METAR KFRG 291850Z 15010KT 10SM BKN009 11/07 A2997 RMK AO2 SLP149 T01110072
2026-04-29 18:49:00,SPECI KFRG 291849Z 16009KT 10SM BKN009 11/07 A2997 RMK AO2
2026-04-29 17:53:00,METAR KFRG 291753Z 16010KT 10SM FEW015 12/08 A2998 RMK AO2 SLP152 T01220078 10156 20111 58005
2026-04-29 16:53:00,METAR KFRG 291653Z 14011KT 10SM CLR 13/07 A2998 RMK AO2 SLP153 T01330067
2026-04-29 15:53:00,METAR KFRG 291553Z 16011KT 10SM CLR 13/07 A3000 RMK AO2 SLP159 T01330067
2026-04-29 14:53:00,METAR KFRG 291453Z 18009KT 10SM CLR 14/07 A2999 RMK AO2 SLP157 T01440072 55007
2026-04-29 13:53:00,METAR KFRG 291353Z VRB03KT 10SM CLR 14/06 A2999 RMK AO2 SLP155 T01390061
2026-04-29 12:53:00,METAR KFRG 291253Z 11003KT 10SM CLR 13/07 A3000 RMK AO2 SLP160 T01280067
2026-04-29 11:53:00,METAR KFRG 291153Z 08003KT 10SM SCT050 12/07 A3001 RMK AO2 SLP164 T01170067 10117 20089 58005
2026-04-29 10:53:00,METAR KFRG 291053Z 00000KT 10SM OVC050 10/06 A3003 RMK AO2 SLP170 T01000061
2026-04-29 09:53:00,METAR KFRG 290953Z AUTO 00000KT 10SM OVC060 10/06 A3004 RMK AO2 SLP171 T01000061
2026-04-29 08:53:00,METAR KFRG 290853Z AUTO 00000KT 10SM BKN095 09/06 A3003 RMK AO2 SLP169 T00940056 56013
2026-04-29 07:53:00,METAR KFRG 290753Z AUTO 00000KT 10SM OVC095 10/06 A3003 RMK AO2 SLP170 T01000056
2026-04-29 06:53:00,METAR KFRG 290653Z AUTO 00000KT 10SM OVC090 10/06 A3004 RMK AO2 SLP171 T01000056
2026-04-29 05:53:00,METAR KFRG 290553Z AUTO 00000KT 10SM OVC090 10/05 A3007 RMK AO2 SLP182 T01000050 10117 20094 58002
2026-04-29 04:53:00,METAR KFRG 290453Z AUTO 00000KT 10SM OVC090 11/04 A3010 RMK AO2 SLP192 T01060044 401720061
2026-04-29 03:53:00,METAR KFRG 290353Z AUTO 18003KT 10SM OVC085 10/05 A3009 RMK AO2 SLP190 T01000050
2026-04-29 02:53:00,METAR KFRG 290253Z AUTO 12003KT 10SM OVC090 10/04 A3007 RMK AO2 SLP184 T01000044 58004
2026-04-29 01:53:00,METAR KFRG 290153Z 13007KT 10SM BKN100 11/04 A3008 RMK AO2 SLP185 T01060039
2026-04-29 00:53:00,METAR KFRG 290053Z 17007KT 10SM FEW110 11/04 A3009 RMK AO2 SLP190 T01060039
2026-04-28 23:53:00,METAR KFRG 282353Z 15007KT 10SM CLR 12/02 A3008 RMK AO2 SLP188 T01170017 10172 20117 55004
2026-04-28 22:53:00,METAR KFRG 282253Z 15007KT 10SM CLR 12/03 A3008 RMK AO2 SLP187 T01220033
2026-04-28 21:53:00,METAR KFRG 282153Z 16006KT 10SM CLR 13/04 A3009 RMK AO2 SLP189 T01330039
2026-04-28 20:53:00,METAR KFRG 282053Z 17007KT 10SM FEW070 SCT120 14/01 A3010 RMK AO2 SLP192 T01440011 56017
2026-04-28 19:53:00,METAR KFRG 281953Z 17009KT 10SM CLR 16/02 A3011 RMK AO2 SLP196 T01610022
2026-04-28 18:53:00,METAR KFRG 281853Z 16008KT 10SM CLR 16/02 A3013 RMK AO2 SLP204 T01610022
2026-04-28 17:53:00,METAR KFRG 281753Z 19008KT 10SM CLR 17/02 A3015 RMK AO2 SLP209 T01670022 10167 20100 58011
2026-04-28 16:53:00,METAR KFRG 281653Z 17005KT 10SM CLR 17/03 A3016 RMK AO2 SLP213 T01670028
2026-04-28 15:53:00,METAR KFRG 281553Z 21007KT 10SM CLR 16/02 A3018 RMK AO2 SLP219 T01610022
2026-04-28 14:53:00,METAR KFRG 281453Z 20005KT 10SM CLR 16/03 A3018 RMK AO2 SLP220 T01560033 56004
2026-04-28 13:53:00,METAR KFRG 281353Z VRB04KT 10SM CLR 16/03 A3018 RMK AO2 SLP221 T01560028
2026-04-28 12:53:00,METAR KFRG 281253Z 00000KT 10SM CLR 13/03 A3018 RMK AO2 SLP220 T01330028
2026-04-28 11:53:00,METAR KFRG 281153Z 00000KT 10SM CLR 10/04 A3019 RMK AO2 SLP224 T01000044 10100 20061 53002
2026-04-28 10:53:00,METAR KFRG 281053Z 00000KT 10SM CLR 07/03 A3018 RMK AO2 SLP221 T00720033
2026-04-28 09:53:00,METAR KFRG 280953Z AUTO 00000KT 10SM CLR 06/02 A3019 RMK AO2 SLP224 T00610022
2026-04-28 08:53:00,METAR KFRG 280853Z AUTO 36003KT 10SM CLR 07/02 A3019 RMK AO2 SLP222 T00720022 58004
2026-04-28 07:53:00,METAR KFRG 280753Z AUTO 00000KT 10SM CLR 07/02 A3019 RMK AO2 SLP224 T00670022
2026-04-28 06:53:00,METAR KFRG 280653Z AUTO 32003KT 10SM CLR 08/03 A3020 RMK AO2 SLP227 T00830028
2026-04-28 05:53:00,METAR KFRG 280553Z AUTO 00000KT 10SM CLR 08/03 A3020 RMK AO2 SLP226 T00780033 10117 20072 58024
2026-04-28 04:53:00,METAR KFRG 280453Z 32003KT 10SM CLR 09/04 A3022 RMK AO2 SLP233 T00890039 401830050
2026-04-28 03:53:00,METAR KFRG 280353Z 00000KT 10SM CLR 08/04 A3025 RMK AO2 SLP245 T00780039
2026-04-28 02:53:00,METAR KFRG 280253Z 00000KT 10SM CLR 10/04 A3027 RMK AO2 SLP250 T01000044 50006
2026-04-28 01:53:00,METAR KFRG 280153Z 00000KT 10SM CLR 10/04 A3028 RMK AO2 SLP253 T01000044
2026-04-28 00:53:00,METAR KFRG 280053Z 21003KT 10SM CLR 12/04 A3027 RMK AO2 SLP251 T01170039
2026-04-27 23:53:00,METAR KFRG 272353Z 15003KT 10SM CLR 12/03 A3025 RMK AO2 SLP244 T01170033 10172 20117 53003
2026-04-27 22:53:00,METAR KFRG 272253Z 13007KT 10SM CLR 13/03 A3024 RMK AO2 SLP241 T01330028
2026-04-27 21:53:00,METAR KFRG 272153Z 12009KT 10SM CLR 14/03 A3024 RMK AO2 SLP241 T01440028
2026-04-27 20:53:00,METAR KFRG 272053Z 14010KT 10SM CLR 16/04 A3024 RMK AO2 SLP241 T01560039 55001
2026-04-27 19:53:00,METAR KFRG 271953Z AUTO 14007KT 10SM CLR 16/04 A3023 RMK AO2 SLP238 T01610039
2026-04-27 18:53:00,METAR KFRG 271853Z 14010KT 10SM CLR 16/04 A3024 RMK AO2 SLP240 T01560039
2026-04-27 17:53:00,METAR KFRG 271753Z 15011G16KT 10SM CLR 17/04 A3024 RMK AO2 SLP242 T01720039 10183 20100 57002
2026-04-27 16:53:00,METAR KFRG 271653Z 12009G15KT 090V150 10SM CLR 18/03 A3025 RMK AO2 SLP243 T01830028
2026-04-27 15:53:00,METAR KFRG 271553Z 03007KT 10SM CLR 17/02 A3025 RMK AO2 SLP242 T01670022
2026-04-27 14:53:00,METAR KFRG 271453Z 03009G17KT 10SM CLR 16/02 A3025 RMK AO2 SLP244 T01610017 51012
2026-04-27 13:53:00,METAR KFRG 271353Z 05012KT 10SM CLR 15/03 A3024 RMK AO2 SLP239 T01500028
2026-04-27 12:53:00,METAR KFRG 271253Z 01009KT 10SM CLR 13/06 A3023 RMK AO2 SLP236 T01330056
2026-04-27 11:53:00,METAR KFRG 271153Z 02008KT 10SM CLR 10/05 A3021 RMK AO2 SLP231 T01000050 10100 20050 53004
2026-04-27 10:53:00,METAR KFRG 271053Z 01004KT 10SM CLR 07/05 A3020 RMK AO2 SLP227 T00720050
2026-04-27 09:53:00,METAR KFRG 270953Z AUTO 01004KT 10SM CLR 06/04 A3020 RMK AO2 SLP228 T00560039
2026-04-27 08:53:00,METAR KFRG 270853Z AUTO 35005KT 10SM CLR 07/04 A3020 RMK AO2 SLP228 T00720039 53006
2026-04-27 07:53:00,METAR KFRG 270753Z AUTO 34006KT 10SM CLR 08/04 A3019 RMK AO2 SLP223 T00780044
2026-04-27 06:53:00,METAR KFRG 270653Z AUTO 35005KT 10SM CLR 07/04 A3018 RMK AO2 SLP219 T00670039
2026-04-27 05:53:00,METAR KFRG 270553Z AUTO 00000KT 10SM CLR 06/03 A3018 RMK AO2 SLP221 T00610033 10094 20056 50001
2026-04-27 04:53:00,METAR KFRG 270453Z AUTO 00000KT 10SM CLR 06/03 A3019 RMK AO2 SLP222 T00560033 401330044
2026-04-27 03:53:00,METAR KFRG 270353Z AUTO 00000KT 10SM CLR 07/03 A3018 RMK AO2 SLP222 T00670033
2026-04-27 02:53:00,METAR KFRG 270253Z AUTO 00000KT 10SM CLR 07/03 A3018 RMK AO2 SLP221 T00670033 50008
2026-04-27 01:53:00,METAR KFRG 270153Z 00000KT 10SM CLR 08/04 A3018 RMK AO2 SLP221 T00780039
2026-04-27 00:53:00,METAR KFRG 270053Z 00000KT 10SM CLR 09/03 A3018 RMK AO2 SLP220 T00940033
2026-04-26 23:53:00,METAR KFRG 262353Z 12004KT 10SM CLR 09/03 A3016 RMK AO2 SLP213 T00940033 10133 20094 53010
2026-04-26 22:53:00,METAR KFRG 262253Z 13008KT 10SM CLR 11/04 A3014 RMK AO2 SLP207 T01110044
2026-04-26 21:53:00,METAR KFRG 262153Z 09008KT 10SM CLR 13/03 A3014 RMK AO2 SLP205 T01280028
2026-04-26 20:53:00,METAR KFRG 262053Z 06011KT 10SM CLR 13/03 A3013 RMK AO2 SLP202 T01280033 53003
2026-04-26 19:53:00,METAR KFRG 261953Z 05014G21KT 10SM CLR 12/03 A3012 RMK AO2 SLP199 T01220033
2026-04-26 18:53:00,METAR KFRG 261853Z 05010KT 10SM FEW031 BKN070 13/04 A3012 RMK AO2 SLP200 T01280039
2026-04-26 18:06:00,SPECI KFRG 261806Z 04011G18KT 10SM SCT028 12/04 A3012 RMK AO2 T01170044
2026-04-26 17:53:00,METAR KFRG 261753Z 06010KT 10SM BKN026 BKN055 11/04 A3012 RMK AO2 SLP199 60000 T01110039 10111 20056 50001
2026-04-26 16:53:00,METAR KFRG 261653Z 03009G16KT 10SM BKN024 OVC050 11/04 A3012 RMK AO2 SLP201 T01060044
2026-04-26 16:23:00,SPECI KFRG 261623Z 05008KT 10SM BKN023 OVC046 09/04 A3012 RMK AO2 T00940039
2026-04-26 15:53:00,METAR KFRG 261553Z 05009G16KT 10SM FEW022 BKN041 OVC048 09/04 A3013 RMK AO2 SLP202 T00890044
2026-04-26 14:53:00,METAR KFRG 261453Z 03009KT 10SM FEW018 OVC032 08/04 A3012 RMK AO2 SLP198 60000 T00780039 53006
2026-04-26 14:26:00,SPECI KFRG 261426Z 04010KT 10SM SCT017 OVC030 07/04 A3011 RMK AO2 T00720039
2026-04-26 13:53:00,METAR KFRG 261353Z 05009G20KT 10SM OVC017 06/04 A3011 RMK AO2 SLP197 T00610039
2026-04-26 13:26:00,SPECI KFRG 261326Z 04009KT 5SM BR FEW014 BKN021 OVC038 06/04 A3010 RMK AO2 T00610039
2026-04-26 12:53:00,METAR KFRG 261253Z 04009KT 3SM BR FEW019 OVC037 06/04 A3010 RMK AO2 RAB25E52 SLP192 P0000 T00560039
2026-04-26 12:51:00,SPECI KFRG 261251Z 03008KT 3SM -RA BR FEW019 OVC037 06/04 A3010 RMK AO2 RAB25 P0000
2026-04-26 12:42:00,SPECI KFRG 261242Z 03007KT 2 1/2SM -RA BR OVC037 06/04 A3010 RMK AO2 RAB25 P0000 T00560039
2026-04-26 11:53:00,METAR KFRG 261153Z AUTO 04009G16KT 10SM BKN036 OVC050 06/03 A3008 RMK AO2 SLP185 60000 70111 T00560033 10056 20044 53012
2026-04-26 11:36:00,SPECI KFRG 261136Z AUTO 04008KT 10SM FEW020 OVC036 05/03 A3007 RMK AO2 T00500033
2026-04-26 10:53:00,METAR KFRG 261053Z AUTO 02007KT 10SM SCT010 BKN019 OVC070 05/03 A3006 RMK AO2 RAE0958 SLP181 P0000 T00500033
2026-04-26 09:53:00,METAR KFRG 260953Z AUTO 04006KT 10SM -RA FEW040 BKN050 OVC065 05/03 A3005 RMK AO2 RAB09 SLP176 P0000 T00500033
2026-04-26 08:53:00,METAR KFRG 260853Z AUTO 05008KT 10SM SCT042 OVC050 05/03 A3004 RMK AO2 RAE0754 SLP173 P0000 60000 T00500033 55003
2026-04-26 07:53:00,METAR KFRG 260753Z AUTO 03006KT 10SM -RA BKN036 OVC045 05/03 A3004 RMK AO2 RAE03B43 SLP172 P0000 T00500033
2026-04-26 07:20:00,SPECI KFRG 260720Z AUTO 04007KT 10SM SCT008 OVC037 05/04 A3004 RMK AO2 RAE03 P0000 T00500039
2026-04-26 06:53:00,METAR KFRG 260653Z AUTO 04007KT 4SM -RA BR BKN007 BKN012 OVC041 05/04 A3004 RMK AO2 SLP172 P0000 T00500039
2026-04-26 06:10:00,SPECI KFRG 260610Z 04005KT 5SM -RA BR BKN006 OVC050 05/04 A3005 RMK AO2 P0000 T00500039
2026-04-26 05:53:00,METAR KFRG 260553Z 05005KT 4SM -RA BR FEW006 OVC060 05/04 A3005 RMK AO2 SLP177 P0005 60060 T00500039 10056 20044 58003
2026-04-26 04:53:00,METAR KFRG 260453Z 06006KT 3SM RA BR FEW006 BKN046 OVC065 05/04 A3006 RMK AO2 SLP181 P0012 T00500039 400940050
2026-04-26 04:51:00,SPECI KFRG 260451Z 06005KT 3SM RA BR FEW006 BKN044 OVC065 05/04 A3007 RMK AO2 P0012
2026-04-26 04:42:00,SPECI KFRG 260442Z 06005KT 2 1/2SM RA BR SCT006 OVC036 05/04 A3007 RMK AO2 P0010 T00500039
2026-04-26 04:33:00,SPECI KFRG 260433Z 05005KT 2 1/2SM RA BR BKN006 OVC035 05/04 A3007 RMK AO2 P0007 T00500039
2026-04-26 04:08:00,SPECI KFRG 260408Z 05004KT 3SM -RA BR BKN007 BKN010 OVC033 05/04 A3007 RMK AO2 P0001 T00500039
2026-04-26 04:01:00,SPECI KFRG 260401Z 06007KT 3SM -RA BR SCT007 BKN010 OVC035 05/04 A3006 RMK AO2 P0001 T00500039
2026-04-26 03:53:00,METAR KFRG 260353Z 07006KT 2 1/2SM RA BR FEW007 BKN037 OVC055 05/04 A3006 RMK AO2 SLP180 P0005 T00500044
2026-04-26 03:31:00,SPECI KFRG 260331Z 06006KT 4SM -RA BR SCT007 BKN012 OVC042 06/04 A3007 RMK AO2 P0002 T00560044
2026-04-26 02:53:00,METAR KFRG 260253Z 06004KT 3SM RA BR BKN006 OVC010 06/04 A3008 RMK AO2 CIG 004V008 SLP187 P0013 60038 T00560044 53016
2026-04-26 02:43:00,SPECI KFRG 260243Z 00000KT 3SM RA BR OVC009 06/04 A3008 RMK AO2 P0011 T00560044
2026-04-26 02:26:00,SPECI KFRG 260226Z 05003KT 3SM RA BR BKN010 BKN015 OVC021 06/04 A3007 RMK AO2 P0008 T00560044
2026-04-26 02:10:00,SPECI KFRG 260210Z 03003KT 2 1/2SM RA BR BKN008 OVC013 06/04 A3008 RMK AO2 P0004 T00560044
2026-04-26 01:53:00,METAR KFRG 260153Z 07004KT 3SM RA BR OVC008 06/04 A3007 RMK AO2 CIG 006V012 SLP182 P0013 T00560044
2026-04-26 01:27:00,SPECI KFRG 260127Z 07008KT 4SM RA BR BKN010 OVC017 06/04 A3006 RMK AO2 CIG 006V013 P0008 T00560044
2026-04-26 00:53:00,METAR KFRG 260053Z 09006KT 4SM RA BR BKN009 OVC037 06/04 A3005 RMK AO2 SLP175 P0012 T00560044
2026-04-26 00:40:00,SPECI KFRG 260040Z 10007KT 3SM RA BR BKN009 BKN036 OVC050 06/04 A3004 RMK AO2 P0010 T00560044
2026-04-26 00:21:00,SPECI KFRG 260021Z 10007KT 4SM RA BR SCT014 OVC050 05/04 A3004 RMK AO2 P0007 T00500039
2026-04-26 00:08:00,SPECI KFRG 260008Z 09007KT 4SM RA BR BKN014 BKN029 OVC050 05/04 A3003 RMK AO2 P0004 T00500039
2026-04-26 00:00:00,SPECI KFRG 260000Z 10009KT 4SM RA BR SCT012 BKN036 OVC050 05/03 A3003 RMK AO2 P0002 T00500033
2026-04-25 23:53:00,METAR KFRG 252353Z 10008KT 5SM -RA BR BKN009 OVC036 05/03 A3004 RMK AO2 SLP171 P0007 60048 T00500033 10067 20050 53003
2026-04-25 23:27:00,SPECI KFRG 252327Z 10008KT 4SM -RA BR BKN009 OVC036 05/03 A3003 RMK AO2 P0003 T00500033
2026-04-25 23:10:00,SPECI KFRG 252310Z 11008KT 3SM RA BR SCT012 BKN017 OVC055 05/04 A3003 RMK AO2 P0002 T00500039
2026-04-25 23:07:00,SPECI KFRG 252307Z 09005KT 2 1/2SM RA BR BKN012 BKN017 OVC055 05/04 A3003 RMK AO2 P0002 T00500039
2026-04-25 23:03:00,SPECI KFRG 252303Z 10006KT 3SM -RA BR SCT012 BKN017 OVC055 05/03 A3003 RMK AO2 P0001 T00500033
2026-04-25 23:01:00,SPECI KFRG 252301Z 10005KT 3SM RA BR SCT014 BKN055 OVC070 05/03 A3003 RMK AO2 P0001 T00500033
2026-04-25 22:53:00,METAR KFRG 252253Z 10007KT 2 1/2SM RA BR FEW016 SCT032 OVC055 05/03 A3002 RMK AO2 SLP166 P0009 T00500033
2026-04-25 22:21:00,SPECI KFRG 252221Z 12011G19KT 3SM -RA BR BKN055 OVC070 05/03 A3003 RMK AO2 P0004 T00500028
2026-04-25 22:08:00,SPECI KFRG 252208Z 10010KT 2 1/2SM RA BR OVC055 05/03 A3003 RMK AO2 P0003 T00500033
2026-04-25 21:55:00,SPECI KFRG 252155Z 10009G17KT 3SM RA BR FEW013 SCT048 OVC060 05/03 A3003 RMK AO2 P0001 T00500033
2026-04-25 21:53:00,METAR KFRG 252153Z 10012G17KT 2 1/2SM RA BR BKN009 BKN046 OVC065 06/04 A3003 RMK AO2 SLP169 P0014 T00560039
2026-04-25 21:49:00,SPECI KFRG 252149Z 10009G17KT 2SM RA BR BKN009 BKN046 OVC065 06/04 A3003 RMK AO2 P0014
2026-04-25 21:24:00,SPECI KFRG 252124Z 11009KT 3SM RA BR BKN009 BKN046 OVC065 06/04 A3003 RMK AO2 P0007 T00560039
2026-04-25 21:23:00,SPECI KFRG 252123Z 11008KT 3SM RA BR SCT012 BKN017 OVC065 06/04 A3004 RMK AO2 P0007 T00560039
2026-04-25 21:02:00,SPECI KFRG 252102Z AUTO 11009KT 2 1/2SM RA BR BKN048 BKN055 OVC065 06/03 A3004 RMK AO2 P0003 T00560033
2026-04-25 20:53:00,METAR KFRG 252053Z AUTO 09011KT 1 3/4SM RA BR BKN048 OVC065 06/04 A3004 RMK AO2 SLP171 P0012 60018 T00560039 58008
2026-04-25 20:32:00,SPECI KFRG 252032Z AUTO 12005KT 2 1/2SM RA BR OVC047 06/04 A3006 RMK AO2 P0006 T00560039
2026-04-25 19:53:00,METAR KFRG 251953Z AUTO 12007KT 3SM -RA BR FEW034 OVC047 06/03 A3006 RMK AO2 SLP181 P0005 T00560033
2026-04-25 18:53:00,METAR KFRG 251853Z 11009KT 4SM -RA SCT017 BKN048 OVC075 06/03 A3006 RMK AO2 SLP180 P0001 T00610033
2026-04-25 18:50:00,SPECI KFRG 251850Z 11010KT 4SM -RA BR FEW015 BKN043 OVC075 06/04 A3006 RMK AO2 P0000
2026-04-25 18:07:00,SPECI KFRG 251807Z 12008KT 8SM -RA BKN020 OVC080 07/03 A3006 RMK AO2 P0000 T00670033
2026-04-25 17:53:00,METAR KFRG 251753Z 12009KT 6SM -RA FEW022 FEW050 OVC075 07/03 A3006 RMK AO2 SLP181 P0001 60003 T00670033 10094 20067 58002
2026-04-25 16:53:00,METAR KFRG 251653Z 10008KT 4SM -RA SCT055 OVC075 07/03 A3008 RMK AO2 RAB1554 SLP185 P0002 T00720028
2026-04-25 15:53:00,METAR KFRG 251553Z 12011G18KT 10SM FEW026 OVC060 08/02 A3008 RMK AO2 RAE1459 SLP186 P0000 T00830017
2026-04-25 14:53:00,METAR KFRG 251453Z 12015G20KT 10SM -RA OVC060 08/01 A3007 RMK AO2 RAB44 SLP183 P0000 60000 T00830011 53009
2026-04-25 13:53:00,METAR KFRG 251353Z 12012G19KT 10SM OVC060 08/01 A3006 RMK AO2 SLP178 T00830006
2026-04-25 12:53:00,METAR KFRG 251253Z 11011KT 10SM OVC070 09/00 A3006 RMK AO2 SLP178 T00890000
2026-04-25 11:53:00,METAR KFRG 251153Z 10010KT 10SM FEW070 BKN120 09/01 A3004 RMK AO2 SLP174 T00890011 10089 20078 53014
2026-04-25 10:53:00,METAR KFRG 251053Z 11009KT 10SM SCT120 08/02 A3002 RMK AO2 SLP166 T00830017
2026-04-25 09:53:00,METAR KFRG 250953Z AUTO 10007KT 10SM BKN110 08/01 A3000 RMK AO2 SLP160 T00830006
2026-04-25 08:53:00,METAR KFRG 250853Z AUTO 11005KT 10SM SCT110 08/02 A3001 RMK AO2 SLP161 T00830017 53006
2026-04-25 07:53:00,METAR KFRG 250753Z AUTO 11007KT 10SM BKN120 08/02 A2999 RMK AO2 SLP157 T00830022
2026-04-25 06:53:00,METAR KFRG 250653Z AUTO 11006KT 10SM OVC100 08/03 A2998 RMK AO2 SLP153 T00830028
2026-04-25 05:53:00,METAR KFRG 250553Z AUTO 11008KT 10SM FEW021 OVC100 09/04 A2999 RMK AO2 SLP154 T00890044 10094 20083 51014
2026-04-25 04:53:00,METAR KFRG 250453Z AUTO 11006KT 10SM BKN100 OVC110 09/05 A2998 RMK AO2 SLP152 T00890050 401780083
2026-04-25 03:53:00,METAR KFRG 250353Z 12006KT 10SM OVC100 09/05 A2996 RMK AO2 SLP145 T00890050
2026-04-25 02:53:00,METAR KFRG 250253Z 12006KT 10SM SCT100 09/05 A2995 RMK AO2 SLP141 T00890050 51017
2026-04-25 02:28:00,SPECI KFRG 250228Z 14007KT 10SM SCT015 09/06 A2995 RMK AO2 T00890056
2026-04-25 01:53:00,METAR KFRG 250153Z 12009KT 10SM BKN016 09/06 A2994 RMK AO2 SLP139 T00890056
2026-04-25 01:31:00,SPECI KFRG 250131Z 13010KT 10SM BKN016 OVC110 09/06 A2993 RMK AO2 T00890056
2026-04-25 00:53:00,METAR KFRG 250053Z 13008KT 10SM OVC100 09/06 A2992 RMK AO2 SLP130 T00890056
2026-04-24 23:53:00,METAR KFRG 242353Z 15008KT 10SM CLR 09/05 A2989 RMK AO2 SLP123 T00940050 10178 20094 53023
2026-04-24 22:53:00,METAR KFRG 242253Z 14007KT 10SM CLR 11/05 A2986 RMK AO2 SLP111 T01060050
2026-04-24 21:53:00,METAR KFRG 242153Z 14010KT 10SM CLR 12/04 A2984 RMK AO2 SLP106 T01170039
2026-04-24 20:53:00,METAR KFRG 242053Z 16012KT 10SM CLR 13/04 A2983 RMK AO2 SLP100 T01280044 53006
2026-04-24 19:53:00,METAR KFRG 241953Z 14012KT 10SM CLR 14/04 A2981 RMK AO2 SLP093 T01390039
2026-04-24 18:53:00,METAR KFRG 241853Z 15011G15KT 10SM CLR 14/06 A2981 RMK AO2 SLP094 T01440056
2026-04-24 17:53:00,METAR KFRG 241753Z 32009KT 10SM CLR 17/M04 A2981 RMK AO2 SLP093 T01721039 10172 20106 58008
2026-04-24 16:53:00,METAR KFRG 241653Z 33009KT 10SM CLR 16/M01 A2982 RMK AO2 SLP097 T01611006
2026-04-24 15:53:00,METAR KFRG 241553Z 04008G15KT 360V080 10SM CLR 14/02 A2984 RMK AO2 SLP104 T01440022
2026-04-24 14:53:00,METAR KFRG 241453Z 05007G15KT 10SM SCT100 15/01 A2983 RMK AO2 SLP101 T01500011 50002
2026-04-24 13:53:00,METAR KFRG 241353Z 36007KT 10SM SCT100 12/03 A2984 RMK AO2 SLP104 T01220033
2026-04-24 12:53:00,METAR KFRG 241253Z 01011KT 10SM CLR 12/04 A2984 RMK AO2 SLP105 T01170044
2026-04-24 11:53:00,METAR KFRG 241153Z 04003KT 10SM OVC100 11/04 A2982 RMK AO2 SLP099 60000 T01060044 10139 20089 52012
2026-04-24 10:53:00,METAR KFRG 241053Z 00000KT 10SM FEW110 09/04 A2981 RMK AO2 SLP095 T00940039
2026-04-24 09:53:00,METAR KFRG 240953Z AUTO 04003KT 10SM BKN110 09/04 A2980 RMK AO2 SLP090 T00940044
2026-04-24 08:53:00,METAR KFRG 240853Z AUTO 10005KT 10SM OVC100 10/06 A2979 RMK AO2 SLP086 60000 T01000056 56004
2026-04-24 07:53:00,METAR KFRG 240753Z AUTO 14006KT 10SM OVC085 11/06 A2979 RMK AO2 RAE33 SLP088 P0000 T01060061
2026-04-24 06:53:00,METAR KFRG 240653Z AUTO 00000KT 10SM -RA FEW070 OVC095 14/07 A2979 RMK AO2 RAB53 SLP088 P0000 T01390067
2026-04-24 05:53:00,METAR KFRG 240553Z AUTO 00000KT 10SM BKN110 14/07 A2980 RMK AO2 SLP090 T01390067 10150 20128 58015
2026-04-24 04:53:00,METAR KFRG 240453Z 21003KT 10SM BKN120 13/07 A2983 RMK AO2 SLP099 T01330067 402280056
2026-04-24 03:53:00,METAR KFRG 240353Z 25003KT 10SM CLR 14/06 A2983 RMK AO2 SLP102 T01440056
2026-04-24 02:53:00,METAR KFRG 240253Z 00000KT 10SM CLR 14/07 A2985 RMK AO2 SLP106 T01390067 50006
2026-04-24 01:53:00,METAR KFRG 240153Z 00000KT 10SM CLR 14/06 A2985 RMK AO2 SLP107 T01390061
2026-04-24 01:34:00,SPECI KFRG 240134Z 26004KT 10SM CLR 14/06 A2985 RMK AO2 T01390061
2026-04-24 00:53:00,METAR KFRG 240053Z 25006KT 10SM CLR 14/06 A2984 RMK AO2 SLP106 T01440061
2026-04-23 23:53:00,METAR KFRG 232353Z 22008KT 10SM CLR 14/07 A2983 RMK AO2 SLP100 T01440072 10228 20144 53002
2026-04-23 22:53:00,METAR KFRG 232253Z 21007KT 10SM CLR 16/08 A2982 RMK AO2 SLP098 T01610078
2026-04-23 22:13:00,SPECI KFRG 232213Z 10SM FEW120 18/06 A2982 RMK AO2 T01830056
2026-04-23 21:53:00,METAR KFRG 232153Z 30010G19KT 10SM CLR 22/M02 A2982 RMK AO2 SLP097 T02171017
2026-04-23 20:53:00,METAR KFRG 232053Z 32008G17KT 10SM CLR 22/M01 A2982 RMK AO2 SLP097 T02221006 56022
2026-04-23 19:53:00,METAR KFRG 231953Z AUTO 29009G22KT 10SM CLR 22/M01 A2984 RMK AO2 SLP102 T02221006
2026-04-23 18:53:00,METAR KFRG 231853Z 30007G18KT 260V350 10SM FEW070 22/03 A2986 RMK AO2 SLP111 T02170033
2026-04-23 17:53:00,METAR KFRG 231753Z 33011G20KT 10SM CLR 21/05 A2988 RMK AO2 SLP119 T02110050 10211 20094 56021
2026-04-23 16:53:00,METAR KFRG 231653Z 33008KT 290V360 10SM CLR 19/06 A2990 RMK AO2 SLP125 T01940061
2026-04-23 15:53:00,METAR KFRG 231553Z 32009KT 10SM CLR 19/04 A2992 RMK AO2 SLP132 T01890044
2026-04-23 14:53:00,METAR KFRG 231453Z 00000KT 10SM CLR 16/09 A2995 RMK AO2 SLP141 T01610089 58008
2026-04-23 13:53:00,METAR KFRG 231353Z 25004KT 10SM CLR 13/08 A2996 RMK AO2 SLP145 T01330083
2026-04-23 12:53:00,METAR KFRG 231253Z 27003KT 7SM CLR 09/07 A2996 RMK AO2 SLP147 T00940072
2026-04-23 12:29:00,SPECI KFRG 231229Z 29003KT 7SM SCT004 08/07 A2997 RMK AO2 T00780067
2026-04-23 12:18:00,SPECI KFRG 231218Z 27003KT 5SM BR BKN003 08/07 A2997 RMK AO2 T00780067
2026-04-23 12:00:00,SPECI KFRG 231200Z 27003KT 3SM BR BKN002 07/06 A2997 RMK AO2 T00670061
2026-04-23 11:53:00,SPECI KFRG 231153Z 00000KT 1 1/4SM BR OVC002 07/06 A2997 RMK AO2 T00670061
2026-04-23 11:50:00,METAR KFRG 231150Z 26003KT 1SM BR VV002 06/06 A2997 RMK AO2 SLP149 T00610061 10083 20056 53008
2026-04-23 11:49:00,SPECI KFRG 231149Z 26003KT 1SM BR VV002 06/06 A2997 RMK AO2
2026-04-23 11:02:00,SPECI KFRG 231102Z 30003KT 1/4SM FG OVC002 06/06 A2996 RMK AO2 T00610056
2026-04-23 10:53:00,METAR KFRG 231053Z 00000KT 1/2SM FG OVC002 06/06 A2996 RMK AO2 SLP145 T00610056
2026-04-23 10:51:00,SPECI KFRG 231051Z 33003KT 1/2SM FG OVC002 06/06 A2996 RMK AO2
2026-04-23 10:43:00,SPECI KFRG 231043Z 33003KT 1 1/4SM BR OVC002 06/06 A2995 RMK AO2 T00610056
2026-04-23 10:23:00,SPECI KFRG 231023Z AUTO 00000KT 1/2SM FG OVC002 06/06 A2995 RMK AO2 T00610056
2026-04-23 10:07:00,SPECI KFRG 231007Z AUTO 01003KT 1 3/4SM BR OVC003 06/06 A2995 RMK AO2 T00610056
2026-04-23 09:53:00,METAR KFRG 230953Z AUTO 36004KT 6SM BR BKN004 06/06 A2995 RMK AO2 SLP141 T00610056
2026-04-23 08:53:00,METAR KFRG 230853Z AUTO 00000KT 7SM SCT003 06/06 A2995 RMK AO2 SLP141 T00610056 55003
2026-04-23 08:25:00,SPECI KFRG 230825Z AUTO 01007KT 3SM BR BKN003 07/06 A2995 RMK AO2 T00670061
2026-04-23 08:16:00,SPECI KFRG 230816Z AUTO 01009KT 5SM BR SCT004 07/06 A2995 RMK AO2 T00670061
2026-04-23 07:53:00,METAR KFRG 230753Z AUTO 35006KT 10SM CLR 07/06 A2994 RMK AO2 SLP138 T00720061
2026-04-23 06:53:00,METAR KFRG 230653Z AUTO 00000KT 10SM BKN060 08/06 A2994 RMK AO2 SLP138 T00780061
2026-04-23 05:53:00,METAR KFRG 230553Z AUTO 00000KT 10SM BKN055 08/07 A2996 RMK AO2 RAB12E29 SLP144 P0000 60000 T00780067 10089 20078 58009
2026-04-23 04:53:00,METAR KFRG 230453Z AUTO 00000KT 10SM SCT065 BKN090 08/06 A2998 RMK AO2 SLP153 T00780061 401000061
2026-04-23 03:53:00,METAR KFRG 230353Z AUTO 05006KT 10SM BKN080 OVC100 08/06 A2998 RMK AO2 RAB19E47 SLP154 P0000 T00830061
2026-04-23 02:53:00,METAR KFRG 230253Z 00000KT 10SM BKN085 08/06 A2998 RMK AO2 RAB02E31 SLP153 P0000 60000 T00830061 58001
2026-04-23 01:53:00,METAR KFRG 230153Z 35004KT 10SM BKN100 OVC110 08/06 A3001 RMK AO2 SLP162 T00830056
2026-04-23 00:53:00,METAR KFRG 230053Z 00000KT 10SM SCT110 08/06 A2999 RMK AO2 SLP157 T00780056
2026-04-22 23:53:00,METAR KFRG 222353Z 08004KT 10SM CLR 09/06 A2999 RMK AO2 SLP154 T00890056 10100 20089 58007
2026-04-22 23:36:00,SPECI KFRG 222336Z 06003KT 10SM SCT022 09/06 A2999 RMK AO2 T00890056
2026-04-22 22:53:00,METAR KFRG 222253Z 00000KT 10SM OVC022 09/06 A3000 RMK AO2 SLP159 T00940056
2026-04-22 21:53:00,METAR KFRG 222153Z 14005KT 10SM OVC021 09/06 A3000 RMK AO2 SLP161 T00940056
2026-04-22 20:53:00,METAR KFRG 222053Z 12009KT 10SM OVC023 09/05 A3001 RMK AO2 SLP162 T00940050 56027
2026-04-22 19:53:00,METAR KFRG 221953Z 14011G15KT 10SM OVC024 10/06 A3003 RMK AO2 SLP170 T01000056
2026-04-22 18:53:00,METAR KFRG 221853Z 15010KT 10SM OVC025 09/05 A3006 RMK AO2 SLP178 T00940050
2026-04-22 17:53:00,METAR KFRG 221753Z 15011KT 10SM OVC029 09/04 A3009 RMK AO2 SLP189 60000 T00940044 10094 20072 58017
2026-04-22 17:35:00,SPECI KFRG 221735Z 14012KT 10SM OVC029 09/04 A3009 RMK AO2 T00940039
2026-04-22 16:53:00,METAR KFRG 221653Z 15013KT 10SM OVC032 09/03 A3011 RMK AO2 SLP195 T00890033
2026-04-22 15:53:00,METAR KFRG 221553Z 15015KT 10SM OVC036 09/04 A3013 RMK AO2 SLP203 T00890039
2026-04-22 14:53:00,METAR KFRG 221453Z 15013KT 10SM OVC039 08/04 A3014 RMK AO2 RAE16 SLP206 P0000 60000 T00830039 56010
2026-04-22 13:53:00,METAR KFRG 221353Z 15016G22KT 9SM -RA BKN041 BKN050 OVC090 08/04 A3014 RMK AO2 RAB29 SLP207 P0000 T00780039
2026-04-22 12:53:00,METAR KFRG 221253Z 16015KT 10SM OVC100 08/03 A3016 RMK AO2 SLP213 T00780028
2026-04-22 11:53:00,METAR KFRG 221153Z 16013G20KT 10SM BKN060 OVC090 07/03 A3017 RMK AO2 RAE20 SLP216 P0000 60000 70002 T00720028 10072 20061 56008
2026-04-22 10:53:00,METAR KFRG 221053Z 17010KT 9SM -RA OVC070 07/04 A3019 RMK AO2 SLP222 P0000 T00670039
2026-04-22 09:53:00,METAR KFRG 220953Z AUTO 15014KT 10SM -RA BKN060 OVC075 07/04 A3016 RMK AO2 RAB37 SLP214 P0000 T00670039
2026-04-22 08:53:00,METAR KFRG 220853Z AUTO 18012KT 10SM OVC085 07/03 A3019 RMK AO2 RAB19E33 SLP225 P0000 60000 T00720028 55011
2026-04-22 07:53:00,METAR KFRG 220753Z AUTO 17011KT 10SM OVC085 07/03 A3019 RMK AO2 SLP223 T00720028
2026-04-22 06:53:00,METAR KFRG 220653Z AUTO 17010KT 10SM BKN060 OVC080 07/03 A3021 RMK AO2 RAE05 SLP229 P0000 T00670028
2026-04-22 05:53:00,METAR KFRG 220553Z AUTO 16007KT 7SM -RA BKN049 OVC080 06/03 A3023 RMK AO2 RAB0457 SLP236 P0002 60002 T00610028 10072 20061 58014
2026-04-22 04:53:00,METAR KFRG 220453Z AUTO 19007KT 10SM BKN055 OVC070 07/00 A3028 RMK AO2 SLP253 T00720000 400890011
2026-04-22 03:53:00,METAR KFRG 220353Z AUTO 19007KT 10SM OVC080 07/M01 A3028 RMK AO2 SLP255 T00721006
2026-04-22 02:53:00,METAR KFRG 220253Z 19008KT 10SM SCT065 OVC080 07/M02 A3027 RMK AO2 RAB15E52 SLP250 P0000 60000 T00671017 50001
2026-04-22 01:53:00,METAR KFRG 220153Z 18011KT 10SM FEW080 OVC100 07/M02 A3028 RMK AO2 SLP256 T00671022
2026-04-22 00:53:00,METAR KFRG 220053Z 17010KT 10SM SCT110 06/M03 A3028 RMK AO2 SLP252 T00611033
2026-04-21 23:53:00,METAR KFRG 212353Z 18013KT 10SM OVC110 06/M04 A3026 RMK AO2 SLP249 T00611039 10089 20061 58002
2026-04-21 22:53:00,METAR KFRG 212253Z 17013KT 10SM FEW100 07/M05 A3027 RMK AO2 SLP250 T00671050
2026-04-21 21:53:00,METAR KFRG 212153Z 16011KT 10SM FEW120 08/M06 A3027 RMK AO2 SLP250 T00781056
2026-04-21 20:53:00,METAR KFRG 212053Z 16009KT 10SM CLR 09/M06 A3027 RMK AO2 SLP251 T00891061 58017
2026-04-21 19:53:00,METAR KFRG 211953Z 19009KT 10SM CLR 09/M07 A3029 RMK AO2 SLP257 T00891067
2026-04-21 18:53:00,METAR KFRG 211853Z 19007G16KT 10SM CLR 08/M07 A3031 RMK AO2 SLP264 T00781067
2026-04-21 17:53:00,METAR KFRG 211753Z 21009KT 10SM CLR 08/M06 A3032 RMK AO2 SLP268 T00781061 10083 20039 58019
2026-04-21 16:53:00,METAR KFRG 211653Z 20007KT 150V230 10SM CLR 08/M05 A3034 RMK AO2 SLP276 T00781050
2026-04-21 15:53:00,METAR KFRG 211553Z 15010G16KT 10SM CLR 08/M05 A3037 RMK AO2 SLP283 T00831050
2026-04-21 14:53:00,METAR KFRG 211453Z 00000KT 10SM FEW055 07/M07 A3038 RMK AO2 SLP287 T00671067 58005
2026-04-21 13:53:00,METAR KFRG 211353Z 00000KT 10SM CLR 06/M07 A3039 RMK AO2 SLP290 T00611067
2026-04-21 12:53:00,METAR KFRG 211253Z 01009KT 10SM CLR 06/M07 A3039 RMK AO2 SLP292 T00561072
2026-04-21 11:53:00,METAR KFRG 211153Z AUTO 02008KT 10SM CLR 04/M07 A3039 RMK AO2 SLP292 T00391072 10039 20011 51016
2026-04-21 10:53:00,METAR KFRG 211053Z AUTO 35006KT 10SM CLR 02/M09 A3039 RMK AO2 SLP290 T00171089
2026-04-21 09:53:00,METAR KFRG 210953Z AUTO 34004KT 10SM CLR 01/M09 A3036 RMK AO2 SLP280 T00111089
2026-04-21 08:53:00,METAR KFRG 210853Z AUTO 33005KT 10SM CLR 02/M09 A3035 RMK AO2 SLP276 T00171094 53005
2026-04-21 07:53:00,METAR KFRG 210753Z AUTO 34006KT 10SM CLR 02/M09 A3034 RMK AO2 SLP273 T00221094
2026-04-21 06:53:00,METAR KFRG 210653Z 34006KT 10SM CLR 03/M09 A3033 RMK AO2 SLP270 T00281094
2026-04-21 05:53:00,METAR KFRG 210553Z 36009KT 10SM CLR 04/M10 A3033 RMK AO2 SLP271 T00391100 10072 20033 51009
2026-04-21 04:53:00,METAR KFRG 210453Z 35010KT 10SM FEW049 04/M07 A3033 RMK AO2 SLP271 T00441072 401170000
2026-04-21 03:53:00,METAR KFRG 210353Z 32005KT 10SM CLR 04/M05 A3032 RMK AO2 SLP267 T00441050
2026-04-21 02:53:00,METAR KFRG 210253Z 34006KT 10SM CLR 05/M06 A3030 RMK AO2 SLP262 T00501056 51024
2026-04-21 01:53:00,METAR KFRG 210153Z 32010KT 10SM CLR 06/M08 A3029 RMK AO2 SLP258 T00611078
2026-04-21 00:53:00,METAR KFRG 210053Z 32008KT 10SM CLR 07/M09 A3027 RMK AO2 SLP249 T00671094
2026-04-20 23:53:00,METAR KFRG 202353Z 32009KT 10SM CLR 07/M09 A3023 RMK AO2 SLP238 T00721094 10117 20072 51028
2026-04-20 22:53:00,METAR KFRG 202253Z 32008G17KT 10SM CLR 08/M10 A3020 RMK AO2 SLP228 T00831100
2026-04-20 21:53:00,METAR KFRG 202153Z 33010G20KT 10SM CLR 09/M09 A3018 RMK AO2 SLP221 T00941089
2026-04-20 20:53:00,METAR KFRG 202053Z 33010G22KT 10SM FEW065 10/M08 A3015 RMK AO2 SLP210 T01001078 53004
2026-04-20 19:53:00,METAR KFRG 201953Z 34017G29KT 10SM SCT065 BKN080 11/M04 A3013 RMK AO2 PK WND 36029/1952 SLP203 T01061044
2026-04-20 18:53:00,METAR KFRG 201853Z 33010G21KT 10SM FEW060 BKN090 10/M05 A3014 RMK AO2 SLP205 T01001050
2026-04-20 17:53:00,METAR KFRG 201753Z 31011G19KT 10SM FEW070 BKN085 11/M03 A3014 RMK AO2 SLP206 60000 T01061033 10117 20056 55001
2026-04-20 16:53:00,METAR KFRG 201653Z 32009G20KT 10SM SCT047 BKN060 10/M02 A3014 RMK AO2 SLP206 T01001022
2026-04-20 15:53:00,METAR KFRG 201553Z VRB05G16KT 10SM SCT041 BKN048 BKN110 09/M01 A3014 RMK AO2 RAE03 SLP207 P0000 T00941011
2026-04-20 14:53:00,METAR KFRG 201453Z 29005KT 10SM -RA FEW036 OVC044 09/M01 A3014 RMK AO2 RAB53 SLP207 P0000 60000 T00891006 55001
2026-04-20 13:53:00,METAR KFRG 201353Z 28006KT 10SM CLR 09/02 A3014 RMK AO2 SLP206 T00940017
2026-04-20 12:53:00,METAR KFRG 201253Z 25003KT 10SM SCT070 OVC085 07/01 A3015 RMK AO2 SLP209 T00720011
2026-04-20 11:53:00,METAR KFRG 201153Z 00000KT 10SM BKN070 OVC090 06/00 A3015 RMK AO2 SLP209 70003 T00560000 10056 20000 53013
2026-04-20 10:53:00,METAR KFRG 201053Z AUTO 00000KT 10SM CLR 02/M01 A3013 RMK AO2 SLP204 T00171006
2026-04-20 09:53:00,METAR KFRG 200953Z AUTO 00000KT 10SM CLR 01/M01 A3011 RMK AO2 SLP197 T00111006
2026-04-20 08:53:00,METAR KFRG 200853Z AUTO 00000KT 10SM CLR 01/M01 A3011 RMK AO2 SLP196 T00111006 53003
2026-04-20 07:53:00,METAR KFRG 200753Z AUTO 00000KT 10SM CLR 02/M01 A3010 RMK AO2 SLP194 T00171006
2026-04-20 06:53:00,METAR KFRG 200653Z AUTO 00000KT 10SM CLR 03/M01 A3010 RMK AO2 SLP193 T00281006
2026-04-20 05:53:00,METAR KFRG 200553Z AUTO 00000KT 10SM CLR 03/M01 A3010 RMK AO2 SLP193 T00331011 10067 20033 50004
2026-04-20 04:53:00,METAR KFRG 200453Z AUTO 28003KT 10SM CLR 04/M02 A3010 RMK AO2 SLP195 T00441017 401060044
2026-04-20 03:53:00,METAR KFRG 200353Z AUTO 29004KT 10SM CLR 04/01 A3010 RMK AO2 SLP192 T00440011
2026-04-20 02:53:00,METAR KFRG 200253Z 00000KT 10SM CLR 04/03 A3009 RMK AO2 SLP189 T00440028 51031
2026-04-20 01:53:00,METAR KFRG 200153Z 00000KT 10SM FEW050 OVC075 06/03 A3008 RMK AO2 SLP185 T00610033
2026-04-20 00:53:00,METAR KFRG 200053Z 06003KT 10SM FEW070 05/02 A3004 RMK AO2 SLP172 T00500022
2026-04-19 23:53:00,METAR KFRG 192353Z 00000KT 10SM FEW085 07/02 A2999 RMK AO2 SLP157 60002 T00670022 10089 20061 51024
2026-04-19 22:53:00,METAR KFRG 192253Z 30008KT 10SM CLR 08/02 A2997 RMK AO2 SLP149 T00780022
2026-04-19 21:53:00,METAR KFRG 192153Z 32008G16KT 10SM FEW023 SCT028 08/03 A2995 RMK AO2 RAE2054 SLP142 P0000 T00830028
2026-04-19 20:53:00,METAR KFRG 192053Z 31008KT 10SM -RA BKN018 OVC026 06/04 A2992 RMK AO2 SLP133 P0001 60002 T00610039 53009
2026-04-19 20:39:00,SPECI KFRG 192039Z 32012KT 10SM -RA BKN016 BKN025 OVC034 06/04 A2991 RMK AO2 P0001 T00610039
2026-04-19 20:30:00,SPECI KFRG 192030Z 32008G16KT 8SM -RA SCT014 BKN032 06/04 A2990 RMK AO2 P0001 T00610039
2026-04-19 20:02:00,SPECI KFRG 192002Z 29009KT 4SM -RA BR SCT014 BKN028 OVC035 06/04 A2991 RMK AO2 P0000 T00610044
2026-04-19 19:53:00,METAR KFRG 191953Z 30007G17KT 6SM -RA BR FEW010 BKN014 OVC080 07/05 A2989 RMK AO2 RAE27B45 SLP123 P0000 T00670050
2026-04-19 19:18:00,SPECI KFRG 191918Z 33010G20KT 10SM -RA SCT016 BKN042 OVC075 07/04 A2989 RMK AO2 P0000 T00670044
2026-04-19 18:53:00,METAR KFRG 191853Z 29009G24KT 7SM -RA BKN017 BKN050 OVC065 07/05 A2989 RMK AO2 SLP123 P0001 T00720050
2026-04-19 18:12:00,SPECI KFRG 191812Z 32012G20KT 10SM -RA SCT023 OVC060 09/04 A2987 RMK AO2 P0000 T00890044
2026-04-19 17:53:00,METAR KFRG 191753Z 32015G26KT 8SM -RA OVC023 09/04 A2985 RMK AO2 PK WND 32028/1659 RAB19 SLP109 P0001 60001 T00890044 10106 20089 53009
2026-04-19 16:53:00,METAR KFRG 191653Z 32013G21KT 10SM FEW010 BKN018 OVC024 10/07 A2984 RMK AO2 RAE10B30E46 SLP103 P0000 T01000072
2026-04-19 16:14:00,SPECI KFRG 191614Z 33013G19KT 10SM SCT009 BKN022 OVC046 10/08 A2984 RMK AO2 RAE10 P0000 T01000078
2026-04-19 16:06:00,SPECI KFRG 191606Z 33010G21KT 6SM -RA BR SCT011 BKN031 OVC045 10/08 A2982 RMK AO2 P0000 T01000083
2026-04-19 15:59:00,SPECI KFRG 191559Z 33013G21KT 2 1/2SM -RA BR SCT011 BKN015 OVC035 09/08 A2982 RMK AO2 P0000 T00940083
2026-04-19 15:53:00,METAR KFRG 191553Z 33015G23KT 1 3/4SM -RA BR BKN008 OVC020 09/08 A2983 RMK AO2 PK WND 30026/1519 RAB31E40B44 SLP100 P0000 T00940083
2026-04-19 15:43:00,SPECI KFRG 191543Z 32013G22KT 2 1/2SM BR BKN008 OVC020 09/08 A2982 RMK AO2 PK WND 30026/1519 RAB31E40 P0000 T00940078
2026-04-19 15:40:00,SPECI KFRG 191540Z 32012G23KT 2 1/2SM BR BKN012 OVC020 10/08 A2983 RMK AO2 PK WND 30026/1519 RAB31E40 P0000 T01000078
2026-04-19 15:20:00,SPECI KFRG 191520Z 31017G26KT 5SM BR SCT007 BKN014 OVC020 11/08 A2983 RMK AO2 PK WND 30026/1519 T01060083
2026-04-19 14:53:00,METAR KFRG 191453Z 29009KT 6SM BR OVC006 11/09 A2981 RMK AO2 CIG 006V011 SLP093 T01060094 53013
2026-04-19 14:27:00,SPECI KFRG 191427Z 32010KT 10SM OVC005 10/09 A2979 RMK AO2 CIG 004V010 T01000089
2026-04-19 14:09:00,SPECI KFRG 191409Z 33008KT 4SM BR OVC004 10/09 A2978 RMK AO2 T01000089
2026-04-19 13:53:00,METAR KFRG 191353Z 34010KT 2 1/2SM BR OVC004 10/09 A2977 RMK AO2 SLP081 T01000094
2026-04-19 13:37:00,SPECI KFRG 191337Z 32008KT 3SM BR OVC003 10/09 A2976 RMK AO2 T01000094
2026-04-19 12:53:00,METAR KFRG 191253Z 32005KT 3/4SM BR OVC003 10/10 A2977 RMK AO2 SLP081 T01000100
2026-04-19 12:51:00,SPECI KFRG 191251Z 32004KT 3/4SM BR OVC003 10/09 A2977 RMK AO2
2026-04-19 11:53:00,METAR KFRG 191153Z 05005KT 3/4SM BR OVC002 09/09 A2976 RMK AO2 SLP076 T00940094 10100 20089 56011
2026-04-19 11:51:00,SPECI KFRG 191151Z 05004KT 3/4SM BR OVC002 09/09 A2976 RMK AO2
2026-04-19 11:27:00,SPECI KFRG 191127Z 00000KT 3/4SM BR OVC003 09/09 A2977 RMK AO2 T00940094
2026-04-19 10:53:00,METAR KFRG 191053Z 09005KT 1 1/2SM BR OVC003 09/09 A2977 RMK AO2 SLP081 T00940089
2026-04-19 10:32:00,SPECI KFRG 191032Z AUTO 09008KT 1 1/4SM BR OVC003 09/09 A2976 RMK AO2 T00940089
2026-04-19 09:53:00,METAR KFRG 190953Z AUTO 11005KT 2 1/2SM BR OVC004 09/09 A2979 RMK AO2 SLP087 T00890089
2026-04-19 09:33:00,SPECI KFRG 190933Z AUTO 10006KT 3SM BR OVC004 09/08 A2979 RMK AO2 T00890083
2026-04-19 09:14:00,SPECI KFRG 190914Z AUTO 11004KT 2SM BR OVC004 09/09 A2981 RMK AO2 T00890089
2026-04-19 09:00:00,SPECI KFRG 190900Z AUTO 11006KT 1 1/2SM BR OVC004 09/08 A2981 RMK AO2 T00890083
2026-04-19 08:53:00,METAR KFRG 190853Z AUTO 12006KT 2SM BR BKN004 OVC008 09/09 A2982 RMK AO2 SLP097 T00890089 58027
2026-04-19 08:46:00,SPECI KFRG 190846Z AUTO 12007KT 2SM BR BKN004 OVC008 09/08 A2982 RMK AO2 PRESFR T00890083
2026-04-19 08:34:00,SPECI KFRG 190834Z AUTO 13004KT 1 1/2SM BR OVC005 09/08 A2984 RMK AO2 T00890083
2026-04-19 07:53:00,METAR KFRG 190753Z AUTO 13005KT 1SM BR OVC003 09/08 A2986 RMK AO2 SLP111 T00890083
2026-04-19 07:31:00,SPECI KFRG 190731Z AUTO 13006KT 1/2SM FG VV003 09/08 A2986 RMK AO2 T00890083
2026-04-19 07:19:00,SPECI KFRG 190719Z AUTO 12006KT 3/4SM BR OVC002 09/08 A2986 RMK AO2 T00890083
2026-04-19 07:10:00,SPECI KFRG 190710Z AUTO 11005KT 1SM BR OVC002 09/08 A2987 RMK AO2 T00890083
2026-04-19 06:53:00,METAR KFRG 190653Z AUTO 14007KT 3/4SM BR OVC002 09/08 A2987 RMK AO2 SLP116 T00890083
2026-04-19 06:20:00,SPECI KFRG 190620Z AUTO 12008KT 1 3/4SM BR OVC002 09/08 A2989 RMK AO2 T00890083
2026-04-19 06:11:00,SPECI KFRG 190611Z AUTO 12009KT 1 3/4SM BR OVC003 09/08 A2989 RMK AO2 T00890083
2026-04-19 05:53:00,METAR KFRG 190553Z AUTO 12008KT 6SM BR OVC003 09/08 A2990 RMK AO2 SLP124 T00890078 10100 20083 58017
2026-04-19 04:53:00,METAR KFRG 190453Z AUTO 13007KT 9SM OVC003 08/08 A2994 RMK AO2 SLP139 T00830078 401610083
2026-04-19 04:50:00,SPECI KFRG 190450Z AUTO 13006KT 8SM OVC003 08/08 A2994 RMK AO2
2026-04-19 04:30:00,SPECI KFRG 190430Z AUTO 14006KT 5SM BR OVC002 08/08 A2995 RMK AO2 T00830078
2026-04-19 03:53:00,METAR KFRG 190353Z AUTO 11007KT 5SM BR OVC003 08/08 A2995 RMK AO2 SLP141 T00830078
2026-04-19 02:53:00,METAR KFRG 190253Z AUTO 14011KT 6SM BR OVC003 09/08 A2995 RMK AO2 SLP143 T00890078 56013
2026-04-19 02:33:00,SPECI KFRG 190233Z 13012KT 3SM BR OVC003 09/08 A2996 RMK AO2 T00890083
2026-04-19 02:25:00,SPECI KFRG 190225Z 12012KT 1 3/4SM BR OVC003 09/08 A2996 RMK AO2 T00890083
2026-04-19 01:53:00,METAR KFRG 190153Z 12012KT 3SM BR OVC003 09/09 A2997 RMK AO2 PRESFR SLP148 T00940089
2026-04-19 01:10:00,SPECI KFRG 190110Z 12008KT 4SM BR OVC003 09/09 A3000 RMK AO2 T00940089
2026-04-19 00:53:00,METAR KFRG 190053Z 11007KT 2 1/2SM BR OVC004 09/09 A2999 RMK AO2 SLP156 T00940089
2026-04-19 00:42:00,SPECI KFRG 190042Z 11009KT 2 1/2SM BR OVC004 10/09 A3000 RMK AO2 T01000089
2026-04-19 00:22:00,SPECI KFRG 190022Z 11010KT 2 1/2SM BR OVC005 10/09 A2999 RMK AO2 T01000089
2026-04-18 23:53:00,METAR KFRG 182353Z 13009KT 7SM OVC007 10/08 A3000 RMK AO2 SLP159 T01000083 10161 20100 55004
2026-04-18 22:53:00,METAR KFRG 182253Z 13012KT 10SM OVC009 11/09 A2999 RMK AO2 SLP155 T01110089
2026-04-18 22:45:00,SPECI KFRG 182245Z 13012KT 10SM BKN009 OVC014 11/09 A2999 RMK AO2 CIG 008V012 T01110089
2026-04-18 22:29:00,SPECI KFRG 182229Z 12012KT 10SM SCT009 OVC013 12/09 A2999 RMK AO2 T01170089
2026-04-18 21:53:00,METAR KFRG 182153Z 11012KT 10SM BKN011 13/09 A3000 RMK AO2 SLP158 T01280094
2026-04-18 21:24:00,SPECI KFRG 182124Z 11009KT 10SM BKN011 13/09 A3001 RMK AO2 T01280094
2026-04-18 20:53:00,METAR KFRG 182053Z 13012KT 10SM FEW011 13/09 A3001 RMK AO2 SLP163 T01330094 56019
2026-04-18 19:53:00,METAR KFRG 181953Z 11011KT 10SM FEW020 15/10 A3002 RMK AO2 SLP167 T01500100
2026-04-18 19:25:00,SPECI KFRG 181925Z 14011KT 10SM SCT019 16/11 A3004 RMK AO2 T01560106
2026-04-18 18:53:00,METAR KFRG 181853Z 13013KT 10SM OVC018 15/11 A3005 RMK AO2 SLP176 T01500106
2026-04-18 17:53:00,METAR KFRG 181753Z 14009KT 10SM OVC018 16/11 A3007 RMK AO2 SLP181 T01560106 10161 20139 58006
2026-04-18 16:53:00,METAR KFRG 181653Z 07007KT 030V100 10SM OVC016 15/10 A3008 RMK AO2 SLP184 T01500100
2026-04-18 15:53:00,METAR KFRG 181553Z 04007G16KT 10SM OVC016 14/10 A3009 RMK AO2 SLP189 T01390100
2026-04-18 15:14:00,SPECI KFRG 181514Z 07009KT 10SM BKN015 14/10 A3008 RMK AO2 T01440100
2026-04-18 15:00:00,SPECI KFRG 181500Z 05009KT 10SM FEW017 14/09 A3008 RMK AO2 T01440094
2026-04-18 14:53:00,METAR KFRG 181453Z 06010KT 10SM BKN012 15/10 A3009 RMK AO2 SLP187 T01500100 52006
2026-04-18 13:53:00,METAR KFRG 181353Z 09008KT 10SM FEW020 16/09 A3008 RMK AO2 SLP184 T01560094
2026-04-18 13:36:00,SPECI KFRG 181336Z 07006KT 10SM SCT020 15/09 A3008 RMK AO2 T01500094
2026-04-18 13:27:00,SPECI KFRG 181327Z 06008KT 10SM BKN020 16/09 A3008 RMK AO2 T01560094
2026-04-18 13:12:00,SPECI KFRG 181312Z 08007G16KT 10SM FEW020 15/09 A3008 RMK AO2 T01500094
2026-04-18 12:53:00,METAR KFRG 181253Z 07009KT 10SM FEW019 15/09 A3008 RMK AO2 SLP184 T01500094
2026-04-18 11:53:00,METAR KFRG 181153Z 06008KT 10SM CLR 14/09 A3007 RMK AO2 SLP181 T01390094 10139 20106 53007
2026-04-18 10:53:00,METAR KFRG 181053Z 02004KT 10SM CLR 11/10 A3004 RMK AO2 SLP173 T01110100
2026-04-18 09:53:00,METAR KFRG 180953Z AUTO 03006KT 8SM CLR 11/10 A3004 RMK AO2 SLP171 T01060100
2026-04-18 08:53:00,METAR KFRG 180853Z AUTO 35003KT 7SM SCT002 11/10 A3005 RMK AO2 SLP174 T01060100 50004
2026-04-18 08:46:00,SPECI KFRG 180846Z AUTO 34003KT 6SM BR BKN002 11/10 A3005 RMK AO2 T01060100
2026-04-18 08:39:00,SPECI KFRG 180839Z AUTO 34003KT 2 1/2SM BR BKN002 11/10 A3005 RMK AO2 T01060100
2026-04-18 08:21:00,SPECI KFRG 180821Z AUTO 02004KT 3/4SM BR OVC002 11/10 A3005 RMK AO2 T01060100
2026-04-18 07:53:00,METAR KFRG 180753Z AUTO 01004KT 2 1/2SM BR BKN002 11/10 A3006 RMK AO2 SLP177 T01060100
2026-04-18 07:40:00,SPECI KFRG 180740Z AUTO 01005KT 5SM BR FEW002 11/11 A3005 RMK AO2 T01060106
2026-04-18 06:53:00,METAR KFRG 180653Z AUTO 00000KT 10SM CLR 12/11 A3004 RMK AO2 SLP173 T01170106
2026-04-18 05:53:00,METAR KFRG 180553Z AUTO 01003KT 10SM CLR 12/11 A3003 RMK AO2 SLP170 T01170106 10167 20117 53006
2026-04-18 04:53:00,METAR KFRG 180453Z AUTO 08003KT 10SM CLR 12/11 A3002 RMK AO2 SLP165 T01220111 402670122
2026-04-18 03:53:00,METAR KFRG 180353Z AUTO 10004KT 10SM CLR 12/11 A3001 RMK AO2 SLP162 T01220106
2026-04-18 02:53:00,METAR KFRG 180253Z 12003KT 10SM CLR 13/11 A3002 RMK AO2 SLP164 T01330111 50019
2026-04-18 02:25:00,SPECI KFRG 180225Z 08006KT 10SM FEW008 FEW085 13/12 A3002 RMK AO2 T01330117
2026-04-18 02:09:00,SPECI KFRG 180209Z 08007KT 10SM SCT007 BKN080 13/12 A3003 RMK AO2 T01330117
2026-04-18 01:53:00,METAR KFRG 180153Z 09006KT 10SM BKN007 BKN070 13/12 A3003 RMK AO2 SLP167 T01330117
2026-04-18 01:31:00,SPECI KFRG 180131Z 09007KT 10SM OVC006 13/12 A3002 RMK AO2 T01330117
2026-04-18 01:04:00,SPECI KFRG 180104Z 12010KT 8SM BKN005 13/12 A3000 RMK AO2 T01330122
2026-04-18 00:53:00,METAR KFRG 180053Z 11011KT 9SM SCT007 SCT055 SCT070 14/12 A3000 RMK AO2 SLP157 T01390117
2026-04-17 23:53:00,METAR KFRG 172353Z 10011G28KT 10SM BKN060 BKN070 OVC085 17/13 A2996 RMK AO2 PK WND 10028/2344 RAB26E46 SLP145 P0000 60000 T01670133 10267 20167 53039
2026-04-17 22:53:00,METAR KFRG 172253Z 05008KT 10SM SCT055 SCT070 OVC095 23/13 A2990 RMK AO2 RAB24E36 SLP125 P0000 T02330128
2026-04-17 21:53:00,METAR KFRG 172153Z 04010KT 10SM FEW060 OVC100 24/13 A2988 RMK AO2 SLP116 T02440133
2026-04-17 21:44:00,SPECI KFRG 172144Z 03011KT 10SM FEW060 OVC100 24/13 A2987 RMK AO2 T02440128
2026-04-17 20:53:00,METAR KFRG 172053Z 32008KT 10SM SCT060 25/12 A2985 RMK AO2 SLP106 60000 T02500122 53004
2026-04-17 19:53:00,METAR KFRG 171953Z 31009G16KT 10SM CLR 26/12 A2984 RMK AO2 SLP102 T02610122
2026-04-17 18:53:00,METAR KFRG 171853Z 32009KT 10SM SCT060 26/12 A2983 RMK AO2 LTG DSNT SW RAB13E24 SLP101 P0000 T02610117
2026-04-17 17:53:00,METAR KFRG 171753Z VRB03KT 10SM SCT055 BKN065 24/15 A2983 RMK AO2 SLP102 T02390150 10256 20189 58003
2026-04-17 17:25:00,SPECI KFRG 171725Z 15006KT 10SM BKN055 BKN075 24/15 A2983 RMK AO2 T02390150
2026-04-17 16:53:00,METAR KFRG 171653Z 00000KT 10SM FEW048 SCT060 26/14 A2984 RMK AO2 SLP103 T02560139
2026-04-17 15:53:00,METAR KFRG 171553Z 02005KT 10SM CLR 24/14 A2984 RMK AO2 SLP105 T02440139
2026-04-17 14:53:00,METAR KFRG 171453Z 20003KT 10SM BKN035 23/16 A2984 RMK AO2 SLP105 T02330156 50005
2026-04-17 13:53:00,METAR KFRG 171353Z 00000KT 10SM SCT042 BKN060 22/16 A2985 RMK AO2 SLP106 T02220161
2026-04-17 12:53:00,METAR KFRG 171253Z 00000KT 10SM FEW043 21/16 A2984 RMK AO2 SLP103 T02110161
2026-04-17 11:53:00,METAR KFRG 171153Z AUTO 35003KT 10SM BKN110 19/16 A2983 RMK AO2 SLP100 60000 T01890161 10189 20139 51027
2026-04-17 10:53:00,METAR KFRG 171053Z AUTO 00000KT 10SM OVC110 17/15 A2981 RMK AO2 RAE35 SLP092 P0000 T01720150
2026-04-17 09:53:00,METAR KFRG 170953Z AUTO 30004KT 10SM -RA FEW060 OVC110 17/14 A2978 RMK AO2 RAB33 SLP084 P0000 T01670139
2026-04-17 08:53:00,METAR KFRG 170853Z AUTO 00000KT 8SM CLR 15/12 A2975 RMK AO2 SLP073 T01500122 53001
2026-04-17 07:53:00,METAR KFRG 170753Z AUTO 00000KT 8SM CLR 14/12 A2974 RMK AO2 SLP069 T01440117
2026-04-17 06:53:00,METAR KFRG 170653Z AUTO 00000KT 8SM SCT100 14/12 A2975 RMK AO2 SLP073 T01440117
2026-04-17 05:53:00,METAR KFRG 170553Z AUTO 00000KT 8SM CLR 14/12 A2974 RMK AO2 SLP072 T01440117 10172 20139 58000
2026-04-17 04:53:00,METAR KFRG 170453Z AUTO 28006KT 8SM CLR 14/12 A2976 RMK AO2 PRESRR SLP077 T01440117 402780139
2026-04-17 03:53:00,METAR KFRG 170353Z AUTO 19005KT 8SM CLR 14/12 A2974 RMK AO2 SLP070 T01440117
2026-04-17 02:53:00,METAR KFRG 170253Z AUTO 19006KT 9SM CLR 15/12 A2975 RMK AO2 SLP072 T01500117 58004
2026-04-17 01:53:00,METAR KFRG 170153Z AUTO 21008KT 9SM CLR 16/12 A2976 RMK AO2 SLP077 T01610117
2026-04-17 00:53:00,METAR KFRG 170053Z 19007KT 10SM CLR 16/12 A2976 RMK AO2 SLP077 T01610117
2026-04-16 23:53:00,METAR KFRG 162353Z 19006KT 9SM CLR 17/12 A2976 RMK AO2 SLP076 T01720122 10278 20172 58010
2026-04-16 22:53:00,METAR KFRG 162253Z 20012KT 10SM CLR 19/12 A2977 RMK AO2 SLP080 T01890122
2026-04-16 21:53:00,METAR KFRG 162153Z 21008KT 10SM CLR 23/13 A2978 RMK AO2 SLP084 T02280128
2026-04-16 20:53:00,METAR KFRG 162053Z 20008KT 10SM CLR 22/14 A2979 RMK AO2 SLP087 T02170139 56023
2026-04-16 19:53:00,METAR KFRG 161953Z 19014KT 10SM CLR 24/15 A2980 RMK AO2 SLP091 T02440150
2026-04-16 18:53:00,METAR KFRG 161853Z 18011KT 10SM CLR 27/16 A2983 RMK AO2 SLP100 T02670156
2026-04-16 17:53:00,METAR KFRG 161753Z 20011KT 10SM CLR 27/16 A2986 RMK AO2 SLP110 T02720156 10278 20194 58019
2026-04-16 16:53:00,METAR KFRG 161653Z 20010KT 10SM CLR 27/16 A2988 RMK AO2 SLP117 T02720156
2026-04-16 15:53:00,METAR KFRG 161553Z 18010KT 10SM CLR 26/16 A2990 RMK AO2 SLP123 T02610156
2026-04-16 14:53:00,METAR KFRG 161453Z 19010KT 10SM CLR 23/15 A2992 RMK AO2 SLP129 T02280150 50001
2026-04-16 13:53:00,METAR KFRG 161353Z 21007KT 10SM CLR 22/14 A2992 RMK AO2 SLP130 T02220144
2026-04-16 12:53:00,METAR KFRG 161253Z 17005KT 10SM CLR 21/14 A2992 RMK AO2 SLP130 T02110144
2026-04-16 11:53:00,METAR KFRG 161153Z 18004KT 9SM CLR 19/14 A2991 RMK AO2 SLP128 T01940139 10206 20156 53009
2026-04-16 10:53:00,METAR KFRG 161053Z 17003KT 9SM CLR 16/13 A2990 RMK AO2 SLP125 T01610128
2026-04-16 09:53:00,METAR KFRG 160953Z AUTO 00000KT 10SM CLR 17/13 A2988 RMK AO2 SLP119 T01670133
2026-04-16 08:53:00,METAR KFRG 160853Z AUTO 00000KT 10SM CLR 17/13 A2988 RMK AO2 SLP118 T01720133 53005
2026-04-16 07:53:00,METAR KFRG 160753Z AUTO 00000KT 10SM CLR 18/13 A2988 RMK AO2 SLP118 T01830133
2026-04-16 06:53:00,METAR KFRG 160653Z AUTO 00000KT 10SM SCT090 20/13 A2987 RMK AO2 SLP113 T02000133
2026-04-16 05:53:00,METAR KFRG 160553Z AUTO 25003KT 10SM CLR 19/13 A2987 RMK AO2 SLP114 T01890128 10189 20172 58008
2026-04-16 04:53:00,METAR KFRG 160453Z AUTO 00000KT 10SM CLR 18/12 A2989 RMK AO2 SLP120 T01780122 402670156
2026-04-16 03:53:00,METAR KFRG 160353Z AUTO 20003KT 10SM CLR 18/12 A2988 RMK AO2 SLP117 T01780122
2026-04-16 02:53:00,METAR KFRG 160253Z 21005KT 10SM CLR 18/12 A2989 RMK AO2 SLP122 T01830117 50010
2026-04-16 01:53:00,METAR KFRG 160153Z 20005KT 10SM CLR 18/12 A2990 RMK AO2 SLP123 T01780117
2026-04-16 00:53:00,METAR KFRG 160053Z 21004KT 10SM CLR 18/12 A2989 RMK AO2 SLP119 T01780117
2026-04-15 23:53:00,METAR KFRG 152353Z 19006KT 10SM CLR 18/12 A2986 RMK AO2 SLP112 T01780117 10267 20178 52003
2026-04-15 22:53:00,METAR KFRG 152253Z 16006KT 10SM CLR 19/12 A2986 RMK AO2 SLP110 T01890122
2026-04-15 21:53:00,METAR KFRG 152153Z 20011KT 10SM CLR 21/13 A2986 RMK AO2 SLP111 T02060128
2026-04-15 20:53:00,METAR KFRG 152053Z 20015KT 10SM CLR 25/14 A2986 RMK AO2 SLP109 T02500139 57013
2026-04-15 19:53:00,METAR KFRG 151953Z 19013KT 10SM CLR 25/15 A2987 RMK AO2 SLP113 T02500150
2026-04-15 18:53:00,METAR KFRG 151853Z 20011KT 10SM CLR 25/15 A2988 RMK AO2 SLP118 T02500150
2026-04-15 17:53:00,METAR KFRG 151753Z 18010KT 10SM CLR 25/16 A2989 RMK AO2 SLP122 T02500156 10267 20206 56020
2026-04-15 16:53:00,METAR KFRG 151653Z 20009KT 10SM CLR 24/16 A2990 RMK AO2 SLP124 T02440156
2026-04-15 15:53:00,METAR KFRG 151553Z 22013KT 10SM CLR 25/16 A2993 RMK AO2 SLP134 T02500156
2026-04-15 14:53:00,METAR KFRG 151453Z 26007G16KT 10SM CLR 26/15 A2995 RMK AO2 SLP142 T02560150 50006
2026-04-15 13:53:00,METAR KFRG 151353Z VRB06KT 10SM SCT070 24/15 A2996 RMK AO2 SLP143 T02440150
2026-04-15 12:53:00,METAR KFRG 151253Z 25007KT 10SM CLR 23/15 A2995 RMK AO2 SLP140 T02330150
2026-04-15 11:53:00,METAR KFRG 151153Z 25004KT 10SM CLR 21/14 A2994 RMK AO2 SLP136 T02060144 10206 20156 53015
2026-04-15 10:53:00,METAR KFRG 151053Z AUTO 00000KT 10SM CLR 18/14 A2992 RMK AO2 SLP131 T01830139
2026-04-15 09:53:00,METAR KFRG 150953Z AUTO 00000KT 10SM CLR 17/13 A2990 RMK AO2 SLP124 T01670128
2026-04-15 08:53:00,METAR KFRG 150853Z AUTO 28004KT 10SM CLR 19/14 A2989 RMK AO2 SLP122 T01940139 55001
2026-04-15 07:53:00,METAR KFRG 150753Z AUTO 00000KT 10SM CLR 18/13 A2989 RMK AO2 SLP120 T01830128
2026-04-15 06:53:00,METAR KFRG 150653Z AUTO 29003KT 10SM CLR 20/13 A2988 RMK AO2 SLP118 T02000133
2026-04-15 05:53:00,METAR KFRG 150553Z 00000KT 10SM CLR 19/12 A2990 RMK AO2 SLP123 T01890122 10211 20172 50003
2026-04-15 04:53:00,METAR KFRG 150453Z 20003KT 10SM CLR 19/12 A2990 RMK AO2 SLP124 T01940122 402670128
2026-04-15 03:53:00,METAR KFRG 150353Z 30003KT 10SM CLR 21/12 A2991 RMK AO2 SLP127 T02110117
2026-04-15 02:53:00,METAR KFRG 150253Z 21003KT 10SM CLR 18/12 A2989 RMK AO2 SLP120 T01830117 51016
2026-04-15 01:53:00,METAR KFRG 150153Z 21006KT 10SM CLR 18/12 A2988 RMK AO2 SLP116 T01830117
2026-04-15 00:53:00,METAR KFRG 150053Z 21006KT 10SM CLR 17/11 A2986 RMK AO2 SLP112 T01720106
2026-04-14 23:53:00,METAR KFRG 142353Z 21009KT 10SM CLR 19/11 A2984 RMK AO2 SLP104 T01890106 10267 20178 56005
2026-04-14 22:53:00,METAR KFRG 142253Z 19006KT 10SM CLR 18/11 A2984 RMK AO2 SLP105 T01830106
2026-04-14 21:53:00,METAR KFRG 142153Z 19012KT 10SM CLR 19/11 A2984 RMK AO2 SLP103 T01890111
2026-04-14 20:53:00,METAR KFRG 142053Z 20012G21KT 10SM CLR 22/11 A2986 RMK AO2 SLP109 T02220111 58028
2026-04-14 19:53:00,METAR KFRG 141953Z 19012KT 10SM CLR 23/13 A2990 RMK AO2 SLP124 T02330133
2026-04-14 18:53:00,METAR KFRG 141853Z 19010KT 10SM CLR 25/14 A2992 RMK AO2 SLP130 T02500139
2026-04-14 17:53:00,METAR KFRG 141753Z 19011KT 10SM CLR 27/14 A2994 RMK AO2 SLP138 T02670144 10267 20172 56019
2026-04-14 16:53:00,METAR KFRG 141653Z 18010KT 10SM CLR 26/14 A2995 RMK AO2 SLP142 T02560144
2026-04-14 15:53:00,METAR KFRG 141553Z 16009KT 10SM CLR 26/14 A2998 RMK AO2 SLP152 T02610144
2026-04-14 15:31:00,SPECI KFRG 141531Z 19008KT 10SM CLR 26/14 A2999 RMK AO2 T02560139
2026-04-14 14:53:00,METAR KFRG 141453Z 19008KT 10SM CLR 25/14 A3000 RMK AO2 SLP157 T02500139 58004
2026-04-14 13:53:00,METAR KFRG 141353Z 21004KT 10SM CLR 24/14 A3000 RMK AO2 SLP158 T02390144
2026-04-14 12:53:00,METAR KFRG 141253Z 28003KT 10SM CLR 21/14 A3001 RMK AO2 SLP161 T02110139
2026-04-14 11:53:00,METAR KFRG 141153Z 24003KT 10SM CLR 17/13 A3001 RMK AO2 SLP161 T01720128 10172 20128 53012
2026-04-14 10:53:00,METAR KFRG 141053Z 00000KT 10SM CLR 13/11 A3000 RMK AO2 SLP156 T01280106
2026-04-14 09:53:00,METAR KFRG 140953Z AUTO 00000KT 10SM CLR 13/11 A2998 RMK AO2 SLP151 T01280111
2026-04-14 08:53:00,METAR KFRG 140853Z AUTO 00000KT 10SM CLR 14/12 A2997 RMK AO2 SLP149 T01440117 55001
2026-04-14 07:53:00,METAR KFRG 140753Z AUTO 00000KT 10SM CLR 14/11 A2997 RMK AO2 SLP146 T01440111
2026-04-14 06:53:00,METAR KFRG 140653Z AUTO 28003KT 10SM CLR 17/11 A2997 RMK AO2 SLP148 T01670111
2026-04-14 05:53:00,METAR KFRG 140553Z 00000KT 10SM CLR 17/11 A2998 RMK AO2 SLP150 T01670106 10200 20161 58008
2026-04-14 04:53:00,METAR KFRG 140453Z 23005KT 10SM CLR 17/11 A3000 RMK AO2 SLP157 T01670106 402170083
2026-04-14 03:53:00,METAR KFRG 140353Z 00000KT 10SM CLR 19/11 A2999 RMK AO2 SLP154 T01890111
2026-04-14 02:53:00,METAR KFRG 140253Z 34005KT 10SM BKN065 OVC085 18/11 A3000 RMK AO2 SLP159 T01780106 53022
2026-04-14 01:53:00,METAR KFRG 140153Z 22006KT 10SM CLR 16/10 A2997 RMK AO2 SLP148 T01610100
2026-04-14 00:53:00,METAR KFRG 140053Z 24005KT 10SM CLR 17/11 A2997 RMK AO2 SLP147 T01720106
2026-04-13 23:53:00,METAR KFRG 132353Z 22007KT 10SM SCT100 17/11 A2994 RMK AO2 SLP137 60000 T01720106 10217 20150 53000
2026-04-13 22:53:00,METAR KFRG 132253Z 21008KT 10SM CLR 18/11 A2993 RMK AO2 SLP134 T01830106
2026-04-13 21:53:00,METAR KFRG 132153Z 22011KT 10SM CLR 22/12 A2993 RMK AO2 SLP134 T02170117
2026-04-13 20:53:00,METAR KFRG 132053Z AUTO 20011KT 10SM FEW120 20/12 A2994 RMK AO2 SLP136 60000 T02000117 58022
2026-04-13 19:53:00,METAR KFRG 131953Z AUTO 21009KT 10SM SCT110 18/12 A2996 RMK AO2 RAB16E28 SLP144 P0000 T01830117
2026-04-13 18:53:00,METAR KFRG 131853Z 21009KT 8SM OVC110 15/11 A2998 RMK AO2 SLP152 T01500106
2026-04-13 17:53:00,METAR KFRG 131753Z 19010KT 8SM CLR 16/11 A3000 RMK AO2 SLP159 T01560111 10167 20111 58030
2026-04-13 16:53:00,METAR KFRG 131653Z 20011KT 9SM CLR 16/12 A3003 RMK AO2 SLP170 T01610117
2026-04-13 15:53:00,METAR KFRG 131553Z 19012KT 8SM CLR 16/11 A3006 RMK AO2 SLP180 T01560111
2026-04-13 14:53:00,METAR KFRG 131453Z 20009KT 7SM FEW008 13/11 A3009 RMK AO2 SLP189 T01330106 58027
2026-04-13 14:28:00,SPECI KFRG 131428Z 20010KT 8SM SCT008 13/10 A3010 RMK AO2 T01280100
2026-04-13 14:12:00,SPECI KFRG 131412Z 21014KT 8SM FEW008 BKN018 12/10 A3011 RMK AO2 T01220100
2026-04-13 13:53:00,METAR KFRG 131353Z 21013KT 8SM OVC018 12/10 A3012 RMK AO2 SLP201 T01220100
2026-04-13 12:53:00,METAR KFRG 131253Z 21008KT 8SM OVC016 12/10 A3015 RMK AO2 SLP210 T01220100
2026-04-13 11:53:00,METAR KFRG 131153Z 20011KT 8SM OVC020 11/09 A3017 RMK AO2 SLP216 T01110094 10111 20083 56014
2026-04-13 11:21:00,SPECI KFRG 131121Z 19010KT 8SM SCT007 BKN023 11/09 A3018 RMK AO2 T01060089
2026-04-13 10:53:00,METAR KFRG 131053Z 19008KT 8SM FEW007 10/08 A3018 RMK AO2 SLP220 T01000083
2026-04-13 09:53:00,METAR KFRG 130953Z AUTO 19008G16KT 10SM FEW009 OVC035 10/08 A3019 RMK AO2 SLP224 T01000078
2026-04-13 09:24:00,SPECI KFRG 130924Z AUTO 19011KT 10SM SCT029 BKN039 OVC047 10/08 A3020 RMK AO2 T01000078
2026-04-13 09:04:00,SPECI KFRG 130904Z AUTO 20013G20KT 10SM OVC029 10/07 A3021 RMK AO2 T01000072
2026-04-13 08:53:00,METAR KFRG 130853Z AUTO 19012KT 10SM OVC030 10/07 A3021 RMK AO2 SLP230 T01000067 56027
2026-04-13 07:53:00,METAR KFRG 130753Z AUTO 18008KT 10SM FEW033 08/05 A3023 RMK AO2 SLP238 T00830050
2026-04-13 06:53:00,METAR KFRG 130653Z AUTO 19006KT 10SM CLR 08/04 A3025 RMK AO2 SLP244 T00830044
2026-04-13 05:53:00,METAR KFRG 130553Z AUTO 19006KT 10SM CLR 09/03 A3029 RMK AO2 SLP258 T00890033 10094 20072 58019
2026-04-13 04:53:00,METAR KFRG 130453Z AUTO 18009KT 10SM CLR 09/02 A3031 RMK AO2 SLP265 T00940022 401110033
2026-04-13 03:53:00,METAR KFRG 130353Z AUTO 19009KT 10SM CLR 09/02 A3033 RMK AO2 SLP271 T00940022
2026-04-13 02:53:00,METAR KFRG 130253Z AUTO 18007KT 10SM FEW120 08/05 A3035 RMK AO2 SLP277 T00830050 58017
2026-04-13 01:53:00,METAR KFRG 130153Z 17009KT 10SM CLR 08/06 A3037 RMK AO2 SLP286 T00780056
2026-04-13 00:53:00,METAR KFRG 130053Z 17007KT 10SM CLR 08/04 A3039 RMK AO2 SLP290 T00780044
2026-04-12 23:53:00,METAR KFRG 122353Z 15008KT 10SM CLR 08/04 A3040 RMK AO2 SLP294 T00780039 10111 20078 56011
2026-04-12 22:53:00,METAR KFRG 122253Z 16011KT 10SM CLR 08/03 A3040 RMK AO2 SLP295 T00780028
2026-04-12 21:53:00,METAR KFRG 122153Z 16014KT 10SM CLR 09/02 A3041 RMK AO2 SLP299 T00890022
2026-04-12 20:53:00,METAR KFRG 122053Z 16015KT 10SM CLR 10/M01 A3043 RMK AO2 SLP305 T01001006 56023
2026-04-12 19:53:00,METAR KFRG 121953Z 14014KT 10SM CLR 10/M03 A3044 RMK AO2 SLP308 T01001028
2026-04-12 18:53:00,METAR KFRG 121853Z 16012KT 10SM CLR 11/M04 A3047 RMK AO2 SLP318 T01061044
2026-04-12 17:53:00,METAR KFRG 121753Z 14011KT 10SM CLR 11/M03 A3050 RMK AO2 SLP328 T01111028 10111 20067 56015
2026-04-12 16:53:00,METAR KFRG 121653Z 12009KT 10SM CLR 11/M03 A3051 RMK AO2 SLP330 T01111028
2026-04-12 15:53:00,METAR KFRG 121553Z 14009KT 10SM CLR 11/M01 A3053 RMK AO2 SLP338 T01061011
2026-04-12 14:53:00,METAR KFRG 121453Z 15007KT 10SM CLR 10/M01 A3054 RMK AO2 SLP343 T01001011 53005
2026-04-12 13:53:00,METAR KFRG 121353Z 11007KT 10SM CLR 09/00 A3054 RMK AO2 SLP340 T00940000
2026-04-12 12:53:00,METAR KFRG 121253Z 07009KT 10SM CLR 09/M03 A3053 RMK AO2 SLP339 T00891028
2026-04-12 11:53:00,METAR KFRG 121153Z AUTO 02006KT 10SM CLR 07/M02 A3053 RMK AO2 SLP338 T00671022 10072 20033 53018
2026-04-12 10:53:00,METAR KFRG 121053Z AUTO 01006KT 10SM CLR 04/M02 A3050 RMK AO2 SLP327 T00391022
2026-04-12 09:53:00,METAR KFRG 120953Z AUTO 02004KT 10SM CLR 04/M03 A3049 RMK AO2 SLP324 T00441028
2026-04-12 08:53:00,METAR KFRG 120853Z AUTO 00000KT 10SM CLR 05/M03 A3047 RMK AO2 SLP320 T00501033 53019
2026-04-12 07:53:00,METAR KFRG 120753Z AUTO 01004KT 10SM CLR 06/M03 A3045 RMK AO2 SLP311 T00561028
2026-04-12 06:53:00,METAR KFRG 120653Z AUTO 36007KT 10SM CLR 07/M03 A3042 RMK AO2 SLP302 T00671033
2026-04-12 05:53:00,METAR KFRG 120553Z AUTO 03006KT 10SM CLR 07/M03 A3042 RMK AO2 SLP301 T00671033 10144 20067 51017
2026-04-12 04:53:00,METAR KFRG 120453Z AUTO 03009G19KT 10SM CLR 08/M03 A3040 RMK AO2 SLP295 T00781033 401670078
2026-04-12 03:53:00,METAR KFRG 120353Z AUTO 01011KT 10SM CLR 09/M03 A3039 RMK AO2 SLP292 T00891033
2026-04-12 02:53:00,METAR KFRG 120253Z AUTO 36011KT 10SM CLR 11/M03 A3037 RMK AO2 SLP284 T01061028 51027
2026-04-12 01:53:00,METAR KFRG 120153Z 34005KT 10SM CLR 12/M03 A3036 RMK AO2 SLP280 T01171028
2026-04-12 00:53:00,METAR KFRG 120053Z 34005KT 10SM CLR 13/M04 A3032 RMK AO2 SLP268 T01331039
2026-04-11 23:53:00,METAR KFRG 112353Z 32006KT 10SM CLR 14/M04 A3029 RMK AO2 SLP256 T01441044 10167 20144 53023
2026-04-11 22:53:00,METAR KFRG 112253Z 32010G21KT 10SM CLR 16/M06 A3026 RMK AO2 SLP247 T01561056
2026-04-11 21:53:00,METAR KFRG 112153Z 33012G21KT 10SM CLR 16/M05 A3024 RMK AO2 SLP240 T01611050
2026-04-11 20:53:00,METAR KFRG 112053Z 31011KT 10SM CLR 17/M04 A3022 RMK AO2 SLP234 T01671039 55002
2026-04-11 19:53:00,METAR KFRG 111953Z 31013G22KT 10SM CLR 16/M03 A3021 RMK AO2 SLP231 T01611028
2026-04-11 18:53:00,METAR KFRG 111853Z 32009G19KT 10SM CLR 16/M02 A3022 RMK AO2 PK WND 30026/1841 SLP233 T01611017
2026-04-11 17:53:00,METAR KFRG 111753Z 33013G19KT 10SM CLR 16/M01 A3023 RMK AO2 SLP236 T01611011 10161 20122 51002
2026-04-11 16:53:00,METAR KFRG 111653Z 33014G26KT 10SM CLR 15/M02 A3023 RMK AO2 PK WND 34026/1628 SLP236 T01501022
2026-04-11 15:53:00,METAR KFRG 111553Z 36014G23KT 10SM CLR 14/M01 A3023 RMK AO2 PK WND 35026/1516 SLP237 T01391011
2026-04-11 14:53:00,METAR KFRG 111453Z 36016G26KT 10SM CLR 13/01 A3022 RMK AO2 PK WND 36026/1453 SLP234 T01330006 51019
2026-04-11 13:53:00,METAR KFRG 111353Z 36015G23KT 10SM FEW039 14/03 A3021 RMK AO2 SLP229 T01390028
2026-04-11 12:53:00,METAR KFRG 111253Z 35014G24KT 10SM CLR 13/04 A3019 RMK AO2 PK WND 36026/1237 SLP223 T01330044
2026-04-11 12:27:00,SPECI KFRG 111227Z 34014G22KT 10SM CLR 13/05 A3018 RMK AO2 T01280050
2026-04-11 11:53:00,METAR KFRG 111153Z 33007KT 10SM FEW025 13/07 A3017 RMK AO2 SLP215 T01280067 10128 20089 53026
2026-04-11 10:53:00,METAR KFRG 111053Z 33009KT 10SM CLR 12/07 A3014 RMK AO2 SLP206 T01170067
2026-04-11 09:53:00,METAR KFRG 110953Z AUTO 29003KT 10SM CLR 09/05 A3010 RMK AO2 SLP193 T00940050
2026-04-11 08:53:00,METAR KFRG 110853Z AUTO 25004KT 10SM BKN032 09/05 A3009 RMK AO2 SLP189 T00940050 55007
2026-04-11 07:53:00,METAR KFRG 110753Z AUTO 24007KT 10SM BKN120 09/05 A3008 RMK AO2 SLP186 T00940050
2026-04-11 06:53:00,METAR KFRG 110653Z AUTO 20005KT 10SM OVC110 09/05 A3008 RMK AO2 SLP185 T00940050
2026-04-11 05:53:00,METAR KFRG 110553Z AUTO 21004KT 10SM FEW090 BKN120 09/04 A3011 RMK AO2 SLP196 T00890044 10094 20072 58010
2026-04-11 04:53:00,METAR KFRG 110453Z AUTO 19007KT 10SM BKN110 09/04 A3013 RMK AO2 SLP203 T00890044 401170028
2026-04-11 03:53:00,METAR KFRG 110353Z AUTO 26005KT 10SM FEW090 OVC110 09/04 A3016 RMK AO2 SLP214 T00890039
2026-04-11 02:53:00,METAR KFRG 110253Z AUTO 20010KT 10SM BKN120 09/02 A3014 RMK AO2 SLP206 T00890022 58010
2026-04-11 01:53:00,METAR KFRG 110153Z AUTO 20008KT 10SM CLR 08/03 A3016 RMK AO2 SLP212 T00830033
2026-04-11 00:53:00,METAR KFRG 110053Z 19008KT 10SM CLR 08/04 A3016 RMK AO2 SLP212 T00830039
2026-04-10 23:53:00,METAR KFRG 102353Z 18011KT 10SM CLR 07/04 A3017 RMK AO2 SLP217 T00720044 10117 20072 58013
2026-04-10 22:53:00,METAR KFRG 102253Z AUTO 20008KT 10SM CLR 08/04 A3019 RMK AO2 SLP223 T00780039
2026-04-10 21:53:00,METAR KFRG 102153Z AUTO 18010KT 10SM CLR 08/04 A3020 RMK AO2 SLP225 T00830044
2026-04-10 20:53:00,METAR KFRG 102053Z 16012KT 10SM CLR 09/05 A3021 RMK AO2 SLP230 T00940050 56026
2026-04-10 19:53:00,METAR KFRG 101953Z 17010KT 10SM CLR 10/05 A3023 RMK AO2 SLP237 T01000050
2026-04-10 18:53:00,METAR KFRG 101853Z 17010G17KT 10SM CLR 11/05 A3026 RMK AO2 SLP246 T01060050
2026-04-10 17:53:00,METAR KFRG 101753Z 18008KT 10SM CLR 11/05 A3029 RMK AO2 SLP256 T01110050 10117 20061 58021
2026-04-10 16:53:00,METAR KFRG 101653Z 18010KT 10SM CLR 11/05 A3031 RMK AO2 SLP265 T01110050
2026-04-10 15:53:00,METAR KFRG 101553Z 18008KT 10SM CLR 11/03 A3033 RMK AO2 SLP272 T01110033
2026-04-10 14:53:00,METAR KFRG 101453Z 18008KT 10SM CLR 10/04 A3035 RMK AO2 SLP278 T01000039 58013
2026-04-10 13:53:00,METAR KFRG 101353Z 19007KT 10SM CLR 09/03 A3037 RMK AO2 SLP284 T00890033
2026-04-10 12:53:00,METAR KFRG 101253Z 24007KT 10SM CLR 08/04 A3038 RMK AO2 SLP287 T00780039
2026-04-10 11:53:00,METAR KFRG 101153Z AUTO 19008KT 10SM SCT008 06/04 A3039 RMK AO2 SLP291 T00610039 10061 20028 56004
2026-04-10 10:53:00,METAR KFRG 101053Z AUTO 20006KT 10SM OVC008 06/03 A3039 RMK AO2 SLP291 T00560033
2026-04-10 09:53:00,METAR KFRG 100953Z AUTO 21005KT 10SM OVC009 05/03 A3039 RMK AO2 SLP292 T00500033
2026-04-10 09:43:00,SPECI KFRG 100943Z AUTO 21006KT 10SM OVC009 06/03 A3040 RMK AO2 T00560033
2026-04-10 08:53:00,METAR KFRG 100853Z AUTO 20004KT 10SM OVC010 06/03 A3040 RMK AO2 SLP295 T00560033 56006
2026-04-10 08:50:00,SPECI KFRG 100850Z AUTO 21005KT 10SM OVC010 06/03 A3040 RMK AO2
2026-04-10 07:53:00,METAR KFRG 100753Z AUTO 22007KT 10SM OVC008 06/04 A3040 RMK AO2 SLP296 T00560039
2026-04-10 06:53:00,METAR KFRG 100653Z AUTO 00000KT 10SM OVC008 05/03 A3042 RMK AO2 SLP301 T00500033
2026-04-10 05:53:00,METAR KFRG 100553Z AUTO 00000KT 10SM OVC008 04/02 A3044 RMK AO2 SLP309 T00390022 10056 20039 58010
2026-04-10 05:40:00,SPECI KFRG 100540Z AUTO 00000KT 10SM BKN008 04/02 A3046 RMK AO2 T00390022
2026-04-10 05:31:00,SPECI KFRG 100531Z AUTO 35003KT 10SM SCT008 04/02 A3046 RMK AO2 T00390022
2026-04-10 04:53:00,METAR KFRG 100453Z AUTO 00000KT 10SM CLR 04/03 A3047 RMK AO2 SLP318 T00440028 400831017
2026-04-10 03:53:00,METAR KFRG 100353Z AUTO 19005KT 10SM CLR 04/03 A3046 RMK AO2 SLP316 T00440028
2026-04-10 02:53:00,METAR KFRG 100253Z AUTO 18007KT 10SM FEW012 05/03 A3047 RMK AO2 SLP320 T00500028 58006
2026-04-10 01:53:00,METAR KFRG 100153Z 16010KT 10SM OVC012 06/03 A3049 RMK AO2 SLP326 T00560028
2026-04-10 01:11:00,SPECI KFRG 100111Z 16008KT 10SM BKN013 06/02 A3049 RMK AO2 T00560022
2026-04-10 00:53:00,METAR KFRG 100053Z 15008KT 10SM SCT013 06/02 A3049 RMK AO2 SLP326 T00560022
2026-04-09 23:53:00,METAR KFRG 092353Z 15009KT 10SM CLR 05/02 A3049 RMK AO2 SLP326 T00500017 10083 20050 56010
2026-04-09 22:53:00,METAR KFRG 092253Z 15009KT 10SM CLR 06/02 A3050 RMK AO2 SLP329 T00610017
2026-04-09 21:53:00,METAR KFRG 092153Z 16009KT 10SM CLR 07/01 A3051 RMK AO2 SLP332 T00670011
2026-04-09 20:53:00,METAR KFRG 092053Z 17010KT 10SM CLR 07/01 A3052 RMK AO2 SLP336 T00720011 57021
2026-04-09 19:53:00,METAR KFRG 091953Z 14009G17KT 10SM CLR 07/01 A3054 RMK AO2 SLP343 T00720011
2026-04-09 18:53:00,METAR KFRG 091853Z 15010G16KT 10SM CLR 08/01 A3057 RMK AO2 SLP351 T00780011
2026-04-09 17:53:00,METAR KFRG 091753Z 14011KT 10SM CLR 08/01 A3059 RMK AO2 SLP358 T00780011 10078 20022 58013
2026-04-09 16:53:00,METAR KFRG 091653Z 16009KT 10SM FEW022 07/01 A3060 RMK AO2 SLP363 T00720006
2026-04-09 15:53:00,METAR KFRG 091553Z 17011G15KT 10SM CLR 07/00 A3061 RMK AO2 SLP366 T00670000
2026-04-09 14:53:00,METAR KFRG 091453Z 17011KT 10SM CLR 07/00 A3062 RMK AO2 SLP370 T00670000 56003
2026-04-09 13:53:00,METAR KFRG 091353Z 17007KT 10SM CLR 06/00 A3062 RMK AO2 SLP371 T00610000
2026-04-09 12:53:00,METAR KFRG 091253Z 16008KT 10SM CLR 06/00 A3063 RMK AO2 SLP371 T00560000
2026-04-09 11:53:00,METAR KFRG 091153Z 00000KT 10SM SCT019 02/M01 A3063 RMK AO2 SLP373 T00221011 10022 21017 53012
2026-04-09 10:53:00,METAR KFRG 091053Z 00000KT 9SM OVC019 M01/M03 A3062 RMK AO2 SLP369 T10061028
2026-04-09 10:33:00,SPECI KFRG 091033Z AUTO 00000KT 10SM BKN018 M01/M03 A3062 RMK AO2 T10061028
2026-04-09 09:53:00,METAR KFRG 090953Z AUTO 01003KT 10SM CLR M01/M03 A3060 RMK AO2 SLP364 T10061028
2026-04-09 08:53:00,METAR KFRG 090853Z AUTO 01004KT 10SM CLR M01/M03 A3060 RMK AO2 SLP361 T10111033 55004
2026-04-09 07:53:00,METAR KFRG 090753Z 36003KT 10SM CLR M01/M03 A3059 RMK AO2 SLP360 T10061028
2026-04-09 06:53:00,METAR KFRG 090653Z 00000KT 10SM CLR 00/M03 A3059 RMK AO2 SLP360 T00001028
2026-04-09 05:53:00,METAR KFRG 090553Z 00000KT 10SM CLR 00/M03 A3061 RMK AO2 SLP365 T00001028 10033 20000 58004
2026-04-09 04:53:00,METAR KFRG 090453Z 00000KT 10SM CLR 02/M02 A3063 RMK AO2 SLP371 T00171022 400781017
2026-04-09 03:53:00,METAR KFRG 090353Z 18004KT 10SM CLR 02/M02 A3062 RMK AO2 SLP370 T00221022
2026-04-09 02:53:00,METAR KFRG 090253Z 16006KT 10SM CLR 02/M02 A3062 RMK AO2 SLP369 T00221017 50010
2026-04-09 01:53:00,METAR KFRG 090153Z 17006KT 10SM CLR 02/M02 A3062 RMK AO2 SLP370 T00221022
2026-04-09 00:53:00,METAR KFRG 090053Z 17006KT 10SM CLR 03/M02 A3061 RMK AO2 SLP366 T00281022
2026-04-08 23:53:00,METAR KFRG 082353Z 20008KT 10SM CLR 03/M03 A3059 RMK AO2 SLP359 T00331028 10078 20033 58002
2026-04-08 22:53:00,METAR KFRG 082253Z 18008KT 10SM CLR 04/M04 A3060 RMK AO2 SLP362 T00391039
2026-04-08 21:53:00,METAR KFRG 082153Z 16007KT 10SM CLR 05/M04 A3060 RMK AO2 SLP364 T00501039
2026-04-08 20:53:00,METAR KFRG 082053Z 16009KT 10SM CLR 06/M04 A3060 RMK AO2 SLP361 T00561044 55003
2026-04-08 19:53:00,METAR KFRG 081953Z 17008KT 10SM CLR 06/M04 A3059 RMK AO2 SLP359 T00611044
2026-04-08 18:53:00,METAR KFRG 081853Z 17011KT 10SM CLR 07/M05 A3060 RMK AO2 SLP361 T00671050
2026-04-08 17:53:00,METAR KFRG 081753Z 00000KT 10SM CLR 07/M09 A3061 RMK AO2 SLP364 T00671094 10067 20000 58010
2026-04-08 16:53:00,METAR KFRG 081653Z 04007KT 10SM CLR 06/M10 A3061 RMK AO2 SLP367 T00611100
2026-04-08 16:24:00,SPECI KFRG 081624Z VRB06KT 10SM CLR 05/M11 A3062 RMK AO2 T00501111
2026-04-08 15:53:00,METAR KFRG 081553Z 02009KT 10SM CLR 05/M10 A3063 RMK AO2 SLP373 T00501100
2026-04-08 14:53:00,METAR KFRG 081453Z 06013G18KT 10SM CLR 03/M10 A3064 RMK AO2 SLP375 T00331100 53008
2026-04-08 13:53:00,METAR KFRG 081353Z 01014G20KT 10SM CLR 03/M09 A3062 RMK AO2 SLP369 T00281094
2026-04-08 12:53:00,METAR KFRG 081253Z 04010G20KT 10SM CLR 01/M09 A3061 RMK AO2 SLP367 T00111094
2026-04-08 11:53:00,METAR KFRG 081153Z 03014G19KT 10SM CLR 00/M09 A3061 RMK AO2 SLP367 T00001089 10000 21017 53027
2026-04-08 10:53:00,METAR KFRG 081053Z 02009KT 10SM CLR M01/M09 A3058 RMK AO2 SLP355 T10111089
2026-04-08 09:53:00,METAR KFRG 080953Z AUTO 01009KT 10SM CLR M02/M09 A3055 RMK AO2 SLP347 T10171094
2026-04-08 08:53:00,METAR KFRG 080853Z AUTO 35011G19KT 10SM CLR M01/M10 A3053 RMK AO2 SLP340 T10111100 53010
2026-04-08 07:53:00,METAR KFRG 080753Z AUTO 35007KT 10SM CLR M01/M09 A3052 RMK AO2 SLP336 T10061094
2026-04-08 06:53:00,METAR KFRG 080653Z AUTO 35011KT 10SM CLR M01/M10 A3051 RMK AO2 SLP332 T10061100
2026-04-08 05:53:00,METAR KFRG 080553Z AUTO 34007KT 10SM CLR 00/M10 A3050 RMK AO2 SLP330 T00001100 10050 20000 51016
2026-04-08 04:53:00,METAR KFRG 080453Z 34009KT 10SM CLR 01/M10 A3050 RMK AO2 SLP328 T00061100 401330006
2026-04-08 03:53:00,METAR KFRG 080353Z 34009G22KT 10SM CLR 01/M09 A3048 RMK AO2 SLP320 T00111094
2026-04-08 02:53:00,METAR KFRG 080253Z 33013G21KT 10SM CLR 02/M10 A3046 RMK AO2 PK WND 32026/0242 SLP314 T00171100 51033
2026-04-08 01:53:00,METAR KFRG 080153Z 32018G27KT 10SM CLR 03/M11 A3044 RMK AO2 PK WND 31027/0152 SLP308 T00281106
2026-04-08 00:53:00,METAR KFRG 080053Z 33010G19KT 10SM CLR 04/M11 A3041 RMK AO2 PRESRR SLP297 T00391106
2026-04-07 23:53:00,METAR KFRG 072353Z 32015G27KT 10SM CLR 05/M13 A3036 RMK AO2 PK WND 32027/2347 SLP280 T00501128 10128 20050 53040
2026-04-07 22:53:00,METAR KFRG 072253Z 32014G25KT 10SM CLR 07/M13 A3032 RMK AO2 PK WND 31026/2224 SLP267 T00671128
2026-04-07 21:53:00,METAR KFRG 072153Z 30015G28KT 10SM CLR 08/M12 A3027 RMK AO2 PK WND 30028/2153 SLP252 T00781122
2026-04-07 20:53:00,METAR KFRG 072053Z 29014G29KT 10SM CLR 09/M12 A3024 RMK AO2 PK WND 30034/2008 PRESRR SLP240 T00891122 53028
2026-04-07 19:53:00,METAR KFRG 071953Z 32016G30KT 10SM CLR 11/M09 A3019 RMK AO2 PK WND 32030/1953 SLP223 T01061094
2026-04-07 18:53:00,METAR KFRG 071853Z 31011G22KT 10SM SCT080 13/M07 A3016 RMK AO2 SLP214 T01281072
2026-04-07 17:53:00,METAR KFRG 071753Z 31014G24KT 10SM BKN075 12/M07 A3016 RMK AO2 SLP212 T01171067 10133 20083 53010
2026-04-07 16:53:00,METAR KFRG 071653Z 28014G24KT 10SM BKN075 12/M03 A3015 RMK AO2 PK WND 25026/1608 SLP208 T01221033
2026-04-07 15:53:00,METAR KFRG 071553Z 29012G24KT 10SM CLR 12/M04 A3013 RMK AO2 SLP204 T01221039
2026-04-07 14:53:00,METAR KFRG 071453Z 30014G24KT 10SM CLR 12/M03 A3013 RMK AO2 SLP202 T01171028 53007
2026-04-07 13:53:00,METAR KFRG 071353Z 30009G19KT 10SM CLR 11/M01 A3012 RMK AO2 SLP200 T01111006
2026-04-07 12:53:00,METAR KFRG 071253Z 28011G23KT 10SM BKN080 BKN095 09/M01 A3011 RMK AO2 SLP197 T00941011
2026-04-07 11:53:00,METAR KFRG 071153Z 24005KT 10SM FEW050 BKN075 BKN090 08/03 A3011 RMK AO2 RAE1059 SLP195 P0000 60000 T00780033 10078 20056 53008
2026-04-07 10:53:00,METAR KFRG 071053Z AUTO 00000KT 10SM -RA BKN060 OVC075 07/04 A3009 RMK AO2 RAB49 SLP189 P0000 T00670039
2026-04-07 09:53:00,METAR KFRG 070953Z AUTO 00000KT 10SM SCT090 OVC110 06/04 A3008 RMK AO2 SLP184 T00610039
2026-04-07 08:53:00,METAR KFRG 070853Z AUTO 02003KT 10SM BKN090 OVC110 06/03 A3008 RMK AO2 SLP187 60000 T00610033 55005
2026-04-07 07:53:00,METAR KFRG 070753Z AUTO 00000KT 10SM FEW070 SCT100 BKN120 06/04 A3007 RMK AO2 SLP183 T00610039
2026-04-07 06:53:00,METAR KFRG 070653Z AUTO 06004KT 10SM SCT055 SCT070 OVC090 07/04 A3009 RMK AO2 RAB19E41 SLP189 P0000 T00670039
2026-04-07 05:53:00,METAR KFRG 070553Z AUTO 00000KT 10SM BKN075 OVC095 07/03 A3010 RMK AO2 SLP191 T00670033 10083 20061 55002
2026-04-07 04:53:00,METAR KFRG 070453Z AUTO 00000KT 10SM BKN095 06/03 A3009 RMK AO2 SLP190 T00610028 401280044
2026-04-07 03:53:00,METAR KFRG 070353Z AUTO 10005KT 10SM OVC100 07/03 A3010 RMK AO2 SLP192 T00720028
2026-04-07 02:53:00,METAR KFRG 070253Z AUTO 10003KT 10SM SCT075 BKN120 07/02 A3010 RMK AO2 SLP193 T00720017 50009
2026-04-07 01:53:00,METAR KFRG 070153Z AUTO 00000KT 10SM OVC080 07/02 A3010 RMK AO2 SLP195 T00720017
2026-04-07 00:53:00,METAR KFRG 070053Z 03003KT 10SM OVC085 08/02 A3010 RMK AO2 SLP191 T00830017
2026-04-06 23:53:00,METAR KFRG 062353Z 22004KT 10SM BKN070 OVC090 08/01 A3008 RMK AO2 SLP184 T00830006 10128 20078 53026
2026-04-06 22:53:00,METAR KFRG 062253Z 20009KT 10SM OVC090 09/M01 A3005 RMK AO2 SLP176 T00891006
2026-04-06 21:53:00,METAR KFRG 062153Z 21005KT 10SM SCT090 10/M01 A3002 RMK AO2 SLP166 T01001006
2026-04-06 20:53:00,METAR KFRG 062053Z 31008KT 10SM FEW075 12/M06 A3000 RMK AO2 SLP158 T01221061 58006
2026-04-06 19:53:00,METAR KFRG 061953Z 31012G21KT 10SM CLR 12/M06 A3000 RMK AO2 SLP161 T01171056
2026-04-06 18:53:00,METAR KFRG 061853Z 31009G19KT 280V340 10SM CLR 11/M04 A3001 RMK AO2 SLP163 T01111044
2026-04-06 17:53:00,METAR KFRG 061753Z 32012G23KT 10SM SCT060 10/M04 A3002 RMK AO2 SLP165 T01001044 10111 20056 58009
2026-04-06 16:53:00,METAR KFRG 061653Z 31011G19KT 10SM FEW055 10/M04 A3003 RMK AO2 SLP169 T01001039
2026-04-06 16:21:00,SPECI KFRG 061621Z 32011G19KT 10SM CLR 09/M04 A3003 RMK AO2 T00941039
2026-04-06 15:53:00,METAR KFRG 061553Z 30009G19KT 280V340 10SM CLR 09/M04 A3004 RMK AO2 SLP172 T00891044
2026-04-06 14:53:00,METAR KFRG 061453Z 31012G21KT 10SM FEW048 08/M05 A3004 RMK AO2 SLP173 T00831050 51006
2026-04-06 13:53:00,METAR KFRG 061353Z 32010G19KT 10SM CLR 07/M05 A3003 RMK AO2 SLP170 T00721050
2026-04-06 12:53:00,METAR KFRG 061253Z 32012G24KT 10SM CLR 06/M06 A3003 RMK AO2 SLP170 T00611061
2026-04-06 11:53:00,METAR KFRG 061153Z AUTO 31013G21KT 10SM CLR 06/M06 A3002 RMK AO2 SLP167 70004 T00561061 10089 20044 51025
2026-04-06 10:53:00,METAR KFRG 061053Z AUTO 32014G24KT 10SM CLR 04/M07 A3001 RMK AO2 SLP162 T00441067
2026-04-06 09:53:00,METAR KFRG 060953Z AUTO 32011G21KT 10SM CLR 05/M06 A2997 RMK AO2 PK WND 33027/0854 SLP150 T00501056
2026-04-06 08:53:00,METAR KFRG 060853Z AUTO 31010G20KT 10SM CLR 06/M03 A2995 RMK AO2 SLP142 T00561028 53014
2026-04-06 07:53:00,METAR KFRG 060753Z AUTO 31007G23KT 10SM BKN060 08/M02 A2992 RMK AO2 SLP132 T00831022
2026-04-06 06:53:00,METAR KFRG 060653Z AUTO 29009G17KT 10SM OVC055 08/M02 A2991 RMK AO2 SLP128 T00831022
2026-04-06 05:53:00,METAR KFRG 060553Z AUTO 31008KT 10SM OVC055 08/M02 A2991 RMK AO2 SLP128 T00831022 10122 20078 50008
2026-04-06 04:53:00,METAR KFRG 060453Z AUTO 31007G20KT 10SM OVC055 08/00 A2992 RMK AO2 SLP131 T00830000 401330050
2026-04-06 03:53:00,METAR KFRG 060353Z AUTO 31014G31KT 10SM SCT035 OVC048 09/02 A2991 RMK AO2 PK WND 31031/0350 SLP128 T00890017
2026-04-06 02:53:00,METAR KFRG 060253Z 31007KT 10SM BKN055 09/03 A2989 RMK AO2 SLP121 T00940033 51021
2026-04-06 01:53:00,METAR KFRG 060153Z 31007KT 10SM OVC055 10/03 A2989 RMK AO2 SLP121 T01000033
2026-04-06 00:53:00,METAR KFRG 060053Z 32010KT 10SM BKN049 11/04 A2987 RMK AO2 PK WND 30028/2358 SLP115 T01060044
2026-04-06 00:09:00,SPECI KFRG 060009Z 31013G26KT 10SM FEW018 SCT025 BKN035 11/06 A2984 RMK AO2 PK WND 30028/2358 T01110061
2026-04-06 00:00:00,SPECI KFRG 060000Z 31016G28KT 10SM FEW017 BKN025 BKN032 12/07 A2983 RMK AO2 PK WND 30028/2358 T01170067
2026-04-05 23:53:00,METAR KFRG 052353Z 32012G25KT 10SM SCT021 SCT025 12/10 A2983 RMK AO2 PRESRR SLP100 60003 T01220100 10133 20117 53018
2026-04-05 22:53:00,METAR KFRG 052253Z 25008KT 10SM CLR 12/11 A2980 RMK AO2 SLP092 T01220106
2026-04-05 22:00:00,SPECI KFRG 052200Z 24010KT 10SM FEW100 12/11 A2979 RMK AO2 T01220111
2026-04-05 21:53:00,METAR KFRG 052153Z 23010KT 9SM OVC005 12/11 A2979 RMK AO2 RAE30 SLP088 P0000 T01220111
2026-04-05 21:08:00,SPECI KFRG 052108Z 21008KT 3SM -RA BR OVC005 12/11 A2976 RMK AO2 P0000 T01170111
2026-04-05 20:53:00,METAR KFRG 052053Z AUTO 23009KT 1 3/4SM -RA BR OVC005 12/11 A2977 RMK AO2 SFC VIS 3 SLP082 P0002 60003 T01220111 58004
2026-04-05 20:04:00,SPECI KFRG 052004Z AUTO 21009KT 1 3/4SM -RA BR OVC005 12/11 A2977 RMK AO2 SFC VIS 2 P0000 T01170111
2026-04-05 19:53:00,METAR KFRG 051953Z 20007KT 1 3/4SM -RA BR OVC080 12/11 A2977 RMK AO2 SFC VIS 2 1/2 SLP080 P0000 T01170111
2026-04-05 19:19:00,SPECI KFRG 051919Z 20009KT 1 3/4SM -RA BR FEW005 OVC080 12/11 A2979 RMK AO2 SFC VIS 3 P0000 T01170111
2026-04-05 18:53:00,METAR KFRG 051853Z 20007KT 4SM -RA BR OVC070 13/12 A2981 RMK AO2 RAB09 SLP093 P0001 T01280117
2026-04-05 18:31:00,SPECI KFRG 051831Z 20006KT 2SM -RA BR OVC060 13/12 A2982 RMK AO2 RAB09 P0001 T01330117
2026-04-05 18:21:00,SPECI KFRG 051821Z 22007KT 4SM -RA BR OVC065 13/12 A2982 RMK AO2 RAB09 PRESRR P0000 T01280117
2026-04-05 17:53:00,METAR KFRG 051753Z 00000KT 5SM BR OVC060 13/11 A2979 RMK AO2 RAE30 SLP087 P0001 60001 T01280111 10128 20094 58010
2026-04-05 17:02:00,SPECI KFRG 051702Z 25005KT 3SM -RA BR FEW010 SCT028 OVC037 12/11 A2984 RMK AO2 P0001 T01170106
2026-04-05 16:53:00,METAR KFRG 051653Z 00000KT 2 1/2SM -RA BR SCT008 BKN028 OVC033 12/10 A2984 RMK AO2 RAB12E23B44 SLP104 P0000 T01170100
2026-04-05 16:50:00,SPECI KFRG 051650Z 29004KT 4SM -RA BR SCT005 BKN011 OVC033 12/10 A2984 RMK AO2 RAB12E23B44 P0000
2026-04-05 16:40:00,SPECI KFRG 051640Z 30008G19KT 6SM BR BKN005 OVC011 12/10 A2985 RMK AO2 RAB12E23 CIG 004V009 P0000 T01170100
2026-04-05 16:04:00,SPECI KFRG 051604Z 22008KT 7SM OVC004 11/10 A2982 RMK AO2 T01110100
2026-04-05 15:53:00,METAR KFRG 051553Z 21010KT 7SM OVC005 11/10 A2982 RMK AO2 SLP097 T01110100
2026-04-05 15:21:00,SPECI KFRG 051521Z 21007KT 5SM BR OVC005 12/11 A2983 RMK AO2 T01170106
2026-04-05 15:13:00,SPECI KFRG 051513Z 21010KT 1 3/4SM BR OVC005 12/11 A2983 RMK AO2 SFC VIS 5 T01170106
2026-04-05 14:53:00,METAR KFRG 051453Z 20009KT 1 3/4SM BR OVC004 11/10 A2983 RMK AO2 SFC VIS 4 SLP102 60000 T01110100 56022
2026-04-05 13:06:00,SPECI KFRG 051306Z 18008KT 1 3/4SM BR OVC005 10/09 A2985 RMK AO2 SFC VIS 4 T01000094
2026-04-05 12:53:00,METAR KFRG 051253Z 19006KT 1 3/4SM BR OVC004 09/09 A2986 RMK AO2 SFC VIS 4 RAE1159 SLP113 P0000 T00940089
2026-04-05 11:53:00,METAR KFRG 051153Z 19005KT 1 3/4SM -RA BR OVC003 09/09 A2989 RMK AO2 SFC VIS 3 RAB49 SLP123 P0000 60000 T00940089 10094 20056 56027
2026-04-05 11:45:00,SPECI KFRG 051145Z 19004KT 1 3/4SM BR OVC003 09/09 A2990 RMK AO2 SFC VIS 3 T00940089
2026-04-05 11:10:00,SPECI KFRG 051110Z 14004KT 2SM BR OVC003 09/09 A2990 RMK AO2 T00890089
2026-04-05 11:04:00,SPECI KFRG 051104Z 13005KT 1 3/4SM BR OVC002 09/08 A2990 RMK AO2 T00890083
2026-04-05 10:53:00,METAR KFRG 051053Z AUTO 15005KT 2 1/2SM BR OVC002 09/08 A2991 RMK AO2 SLP128 T00890083
2026-04-05 10:40:00,SPECI KFRG 051040Z AUTO 15006KT 2SM BR OVC002 09/09 A2992 RMK AO2 VIS 1 1/4V3 T00890089
2026-04-05 10:06:00,SPECI KFRG 051006Z AUTO 12006KT 1/2SM FG VV002 08/08 A2993 RMK AO2 T00830083
2026-04-05 09:53:00,METAR KFRG 050953Z AUTO 11006KT 1/4SM FG VV002 08/08 A2993 RMK AO2 SLP135 T00830078
2026-04-05 09:15:00,SPECI KFRG 050915Z AUTO 10006KT 1/4SM FG VV002 08/07 A2996 RMK AO2 T00780072
2026-04-05 08:53:00,METAR KFRG 050853Z AUTO 11008KT 1/2SM FG VV002 08/07 A2998 RMK AO2 SLP151 60000 T00780072 56051
2026-04-05 07:53:00,METAR KFRG 050753Z AUTO 10008KT 3/4SM BR OVC002 07/07 A3002 RMK AO2 SLP167 T00720067
2026-04-05 07:38:00,SPECI KFRG 050738Z AUTO 09011KT 3/4SM BR OVC002 07/06 A3003 RMK AO2 T00670061
2026-04-05 06:53:00,METAR KFRG 050653Z AUTO 08011KT 1 1/4SM BR OVC003 06/06 A3008 RMK AO2 RAB05E14 SLP186 P0000 T00610056
2026-04-05 05:53:00,METAR KFRG 050553Z AUTO 09009KT 1 1/4SM BR OVC004 06/05 A3013 RMK AO2 RAB32E43 SLP202 P0000 60000 T00560050 10072 20050 58025
2026-04-05 05:02:00,SPECI KFRG 050502Z AUTO 08011G19KT 1 3/4SM BR OVC004 05/04 A3016 RMK AO2 T00500044
2026-04-05 04:53:00,METAR KFRG 050453Z AUTO 08012G18KT 1 3/4SM BR OVC005 05/04 A3017 RMK AO2 SLP216 T00500044 402000050
2026-04-05 04:34:00,SPECI KFRG 050434Z AUTO 09012G18KT 1 3/4SM BR OVC005 05/04 A3018 RMK AO2 T00500044
2026-04-05 03:53:00,METAR KFRG 050353Z AUTO 08009G19KT 2 1/2SM BR OVC006 05/04 A3020 RMK AO2 SLP228 T00500039
2026-04-05 03:50:00,SPECI KFRG 050350Z AUTO 08013KT 2 1/2SM BR OVC005 05/04 A3020 RMK AO2
2026-04-05 03:37:00,SPECI KFRG 050337Z AUTO 08013G20KT 3SM BR OVC005 05/04 A3021 RMK AO2 T00500039
2026-04-05 03:25:00,SPECI KFRG 050325Z AUTO 08012G20KT 2 1/2SM BR OVC006 05/04 A3021 RMK AO2 T00500039
2026-04-05 03:04:00,SPECI KFRG 050304Z AUTO 09013G22KT 1 3/4SM BR OVC006 05/04 A3022 RMK AO2 CIG 005V010 T00500039
2026-04-05 02:53:00,METAR KFRG 050253Z AUTO 10014G22KT 2SM BR BKN006 OVC010 05/04 A3022 RMK AO2 RAB11E20 CIG 005V009 SLP235 P0000 60000 T00500039 58008
2026-04-05 02:41:00,SPECI KFRG 050241Z AUTO 09015KT 2 1/2SM BR OVC008 05/04 A3024 RMK AO2 RAB11E20 CIG 007V012 P0000 T00500039
2026-04-05 02:34:00,SPECI KFRG 050234Z 10016G25KT 3SM BR OVC010 05/04 A3024 RMK AO2 RAB11E20 CIG 007V013 P0000 T00500039
2026-04-05 02:15:00,SPECI KFRG 050215Z 09017G25KT 2 1/2SM -RA BR OVC013 06/04 A3025 RMK AO2 RAB11 P0000 T00560039
2026-04-05 01:53:00,METAR KFRG 050153Z 09014G21KT 8SM BKN014 OVC019 06/03 A3025 RMK AO2 PK WND 11028/0117 SLP244 T00610028
2026-04-05 00:53:00,METAR KFRG 050053Z 09014G26KT 10SM OVC029 07/02 A3025 RMK AO2 PK WND 09032/0027 SLP245 T00670022
2026-04-05 00:41:00,SPECI KFRG 050041Z 09011G24KT 10SM OVC029 07/02 A3025 RMK AO2 PK WND 09032/0027 T00720022
2026-04-04 23:53:00,METAR KFRG 042353Z 10016G29KT 10SM OVC033 07/02 A3025 RMK AO2 PK WND 09029/2348 SLP243 60000 T00720022 10194 20072 55001
2026-04-04 22:53:00,METAR KFRG 042253Z 09013G28KT 10SM OVC035 08/03 A3025 RMK AO2 PK WND 11028/2241 RAE13 SLP243 P0000 T00780033
2026-04-04 21:53:00,METAR KFRG 042153Z 10018G29KT 10SM -RA OVC039 09/04 A3024 RMK AO2 PK WND 10029/2151 RAB50 SLP242 P0000 T00940039
2026-04-04 20:53:00,METAR KFRG 042053Z 10016G28KT 10SM OVC037 11/05 A3025 RMK AO2 PK WND 10035/2035 SLP245 T01060050 53012
2026-04-04 19:53:00,METAR KFRG 041953Z 11019G27KT 10SM OVC040 13/06 A3023 RMK AO2 PK WND 10032/1931 SLP237 T01280061
2026-04-04 18:53:00,METAR KFRG 041853Z 10020G30KT 10SM OVC041 14/07 A3024 RMK AO2 PK WND 11033/1817 SLP240 T01440067
2026-04-04 17:53:00,METAR KFRG 041753Z 11019G23KT 10SM FEW043 SCT090 19/09 A3022 RMK AO2 SLP232 T01890094 10200 20122 51004
2026-04-04 16:53:00,METAR KFRG 041653Z 01004KT 10SM BKN100 19/11 A3021 RMK AO2 SLP230 T01940106
2026-04-04 15:53:00,METAR KFRG 041553Z 08009KT 10SM CLR 19/12 A3022 RMK AO2 SLP233 T01940117
2026-04-04 14:53:00,METAR KFRG 041453Z 08006KT 10SM CLR 18/12 A3021 RMK AO2 SLP228 T01830117 51017
2026-04-04 13:53:00,METAR KFRG 041353Z 01008KT 10SM FEW019 19/13 A3020 RMK AO2 SLP224 T01890128
2026-04-04 12:53:00,METAR KFRG 041253Z 01006KT 10SM CLR 18/14 A3017 RMK AO2 SLP217 T01830139
2026-04-04 11:53:00,METAR KFRG 041153Z 00000KT 5SM BR CLR 12/11 A3016 RMK AO2 SLP212 T01220106 10122 20094 53020
2026-04-04 10:53:00,METAR KFRG 041053Z 00000KT 5SM BR CLR 10/09 A3013 RMK AO2 SLP203 T01000094
2026-04-04 09:53:00,METAR KFRG 040953Z AUTO 00000KT 6SM BR CLR 11/10 A3011 RMK AO2 SLP197 T01110100
2026-04-04 08:53:00,METAR KFRG 040853Z AUTO 00000KT 6SM BR CLR 11/09 A3010 RMK AO2 SLP192 T01060094 56004
2026-04-04 07:53:00,METAR KFRG 040753Z AUTO 00000KT 7SM CLR 10/08 A3010 RMK AO2 SLP193 T01000083
2026-04-04 06:53:00,METAR KFRG 040653Z AUTO 00000KT 7SM BKN120 10/09 A3010 RMK AO2 SLP193 T01000089
2026-04-04 05:53:00,METAR KFRG 040553Z AUTO 20003KT 7SM SCT070 BKN090 BKN120 11/09 A3011 RMK AO2 SLP196 T01060094 10106 20100 56008
2026-04-04 04:53:00,METAR KFRG 040453Z AUTO 21003KT 7SM CLR 11/09 A3011 RMK AO2 SLP197 T01060094 401390044
2026-04-04 03:53:00,METAR KFRG 040353Z AUTO 19003KT 7SM CLR 11/09 A3012 RMK AO2 SLP199 T01060094
2026-04-04 02:53:00,METAR KFRG 040253Z AUTO 19004KT 7SM CLR 11/09 A3013 RMK AO2 SLP205 T01060089 52002
2026-04-04 01:53:00,METAR KFRG 040153Z AUTO 21005KT 7SM SCT120 11/09 A3013 RMK AO2 SLP203 T01060089
2026-04-04 00:53:00,METAR KFRG 040053Z 21005KT 8SM FEW004 10/09 A3013 RMK AO2 SLP203 T01000089
2026-04-03 23:53:00,METAR KFRG 032353Z 19006KT 7SM FEW003 11/09 A3013 RMK AO2 SLP202 T01060094 10139 20106 58014
2026-04-03 22:53:00,METAR KFRG 032253Z 15005KT 9SM CLR 13/11 A3014 RMK AO2 SLP206 T01330106
2026-04-03 21:53:00,METAR KFRG 032153Z 22005KT 9SM SCT110 12/10 A3016 RMK AO2 SLP213 T01220100
2026-04-03 20:53:00,METAR KFRG 032053Z 18009KT 10SM SCT013 12/09 A3017 RMK AO2 SLP217 T01220094 56016
2026-04-03 19:53:00,METAR KFRG 031953Z 21008KT 10SM OVC010 12/09 A3018 RMK AO2 SLP221 T01220089
2026-04-03 18:53:00,METAR KFRG 031853Z 23011KT 10SM OVC012 12/09 A3020 RMK AO2 SLP226 T01220089
2026-04-03 17:53:00,METAR KFRG 031753Z 25012G20KT 10SM OVC012 13/09 A3022 RMK AO2 SLP233 T01330094 10133 20056 56023
2026-04-03 16:53:00,METAR KFRG 031653Z 24008KT 10SM OVC010 12/09 A3024 RMK AO2 CIG 007V014 SLP241 T01170089
2026-04-03 15:53:00,METAR KFRG 031553Z 22007KT 10SM OVC005 10/09 A3026 RMK AO2 SLP248 T01000089
2026-04-03 15:44:00,SPECI KFRG 031544Z 23007KT 10SM OVC005 10/09 A3027 RMK AO2 T01000089
2026-04-03 15:13:00,SPECI KFRG 031513Z 22006KT 3SM BR OVC003 09/09 A3028 RMK AO2 T00940089
2026-04-03 14:53:00,METAR KFRG 031453Z 21004KT 1 1/4SM BR OVC003 08/08 A3029 RMK AO2 SLP256 T00830078 58013
2026-04-03 14:34:00,SPECI KFRG 031434Z 00000KT 1SM BR OVC003 08/07 A3029 RMK AO2 T00780072
2026-04-03 14:21:00,SPECI KFRG 031421Z 00000KT 3/4SM BR OVC003 07/07 A3030 RMK AO2 T00720072
2026-04-03 13:53:00,METAR KFRG 031353Z 00000KT 1SM BR OVC003 07/07 A3031 RMK AO2 SLP263 T00720067
2026-04-03 13:40:00,SPECI KFRG 031340Z 09003KT 1SM BR OVC003 07/06 A3030 RMK AO2 T00670061
2026-04-03 12:53:00,METAR KFRG 031253Z 00000KT 1/2SM FG OVC003 06/06 A3032 RMK AO2 SLP266 T00610056
2026-04-03 11:53:00,METAR KFRG 031153Z AUTO 09005KT 3/4SM BR OVC003 06/05 A3033 RMK AO2 SLP269 T00560050 10056 20044 58012
2026-04-03 11:09:00,SPECI KFRG 031109Z AUTO 00000KT 3/4SM BR OVC003 05/04 A3034 RMK AO2 T00500044
2026-04-03 08:53:00,METAR KFRG 030853Z AUTO 06005KT 1 1/4SM BR OVC003 04/04 A3036 RMK AO2 SLP281 T00440039 56018
2026-04-03 06:10:00,SPECI KFRG 030610Z AUTO 07007KT 2 1/2SM BR OVC006 04/03 A3043 RMK AO2 T00440033
2026-04-03 05:53:00,METAR KFRG 030553Z AUTO 07007KT 1 3/4SM BR OVC006 04/03 A3043 RMK AO2 SLP305 T00440033 10056 20044 55010
2026-04-03 05:44:00,SPECI KFRG 030544Z AUTO 07005KT 1 3/4SM BR OVC006 04/03 A3043 RMK AO2 CIG 004V009 T00440033
2026-04-03 04:53:00,METAR KFRG 030453Z AUTO 08007KT 2 1/2SM BR BKN006 OVC011 04/03 A3043 RMK AO2 SLP304 T00440033 401000044
2026-04-03 03:53:00,METAR KFRG 030353Z AUTO 07005KT 2 1/2SM BR BKN007 OVC011 04/04 A3045 RMK AO2 SLP311 T00440039
2026-04-03 03:16:00,SPECI KFRG 030316Z AUTO 07007KT 2SM BR OVC006 04/04 A3045 RMK AO2 CIG 004V009 T00440039
2026-04-03 02:53:00,METAR KFRG 030253Z AUTO 07006KT 1 3/4SM BR OVC006 04/04 A3046 RMK AO2 CIG 004V008 SLP316 T00440039 50002
2026-04-03 02:35:00,SPECI KFRG 030235Z 07005KT 1 3/4SM BR OVC006 04/04 A3046 RMK AO2 CIG 004V010 T00440039
2026-04-03 02:07:00,SPECI KFRG 030207Z 07007KT 2 1/2SM BR OVC006 04/04 A3046 RMK AO2 CIG 005V011 T00440039
2026-04-03 01:53:00,METAR KFRG 030153Z 08007KT 3SM BR OVC008 05/03 A3046 RMK AO2 CIG 005V012 SLP316 T00500033
2026-04-03 01:28:00,SPECI KFRG 030128Z 08009KT 4SM BR OVC009 05/03 A3047 RMK AO2 CIG 006V012 T00500033
2026-04-03 00:53:00,METAR KFRG 030053Z 07007KT 7SM OVC011 05/03 A3047 RMK AO2 CIG 009V013 SLP317 T00500028
2026-04-02 23:53:00,METAR KFRG 022353Z 08012KT 10SM OVC011 06/03 A3046 RMK AO2 SLP314 T00560028 10067 20056 53002
2026-04-02 22:53:00,METAR KFRG 022253Z 06011KT 10SM OVC013 06/03 A3045 RMK AO2 SLP313 T00560028
2026-04-02 21:53:00,METAR KFRG 022153Z 07009KT 10SM OVC012 06/03 A3045 RMK AO2 SLP310 T00610033
2026-04-02 20:53:00,METAR KFRG 022053Z 06008KT 10SM OVC013 06/03 A3045 RMK AO2 SLP313 T00610033 56003
2026-04-02 19:53:00,METAR KFRG 021953Z 07007KT 10SM OVC014 07/03 A3046 RMK AO2 SLP315 T00670033
2026-04-02 18:53:00,METAR KFRG 021853Z 07008KT 10SM OVC011 07/03 A3044 RMK AO2 SLP310 T00670033
2026-04-02 17:53:00,METAR KFRG 021753Z 05009KT 10SM OVC011 06/03 A3046 RMK AO2 SLP316 60000 T00610033 10067 20056 53006
2026-04-02 16:53:00,METAR KFRG 021653Z 06010KT 10SM OVC010 06/03 A3046 RMK AO2 SLP313 T00560033
2026-04-02 15:53:00,METAR KFRG 021553Z 04012G18KT 10SM OVC010 06/03 A3044 RMK AO2 SLP309 T00610033
2026-04-02 14:53:00,METAR KFRG 021453Z 05011G18KT 10SM OVC012 06/03 A3045 RMK AO2 RAB1359E28 SLP310 P0000 60000 T00560033 50009
2026-04-02 14:50:00,SPECI KFRG 021450Z 05012G18KT 10SM OVC014 06/03 A3045 RMK AO2 RAB1359E28 P0000
2026-04-02 14:31:00,SPECI KFRG 021431Z 07012KT 10SM OVC015 06/03 A3044 RMK AO2 RAB1359E28 P0000 T00610033
2026-04-02 13:53:00,METAR KFRG 021353Z 05010KT 10SM OVC013 06/03 A3043 RMK AO2 SLP304 T00610033
2026-04-02 12:53:00,METAR KFRG 021253Z 07009KT 5SM BR OVC013 06/04 A3042 RMK AO2 RAB44E53 SLP300 P0000 T00610039
2026-04-02 12:18:00,SPECI KFRG 021218Z 05013G18KT 10SM OVC014 06/03 A3040 RMK AO2 T00610033
2026-04-02 11:53:00,METAR KFRG 021153Z AUTO 06010G23KT 10SM OVC016 07/03 A3039 RMK AO2 SLP290 60000 70007 T00670033 10089 20061 53025
2026-04-02 11:25:00,SPECI KFRG 021125Z AUTO 06010G20KT 10SM OVC015 07/04 A3037 RMK AO2 T00670039
2026-04-02 10:53:00,METAR KFRG 021053Z AUTO 06011G20KT 10SM OVC013 07/04 A3035 RMK AO2 RAE30 SLP276 P0000 T00670039
2026-04-02 09:53:00,METAR KFRG 020953Z AUTO 06010G16KT 8SM -RA OVC010 07/05 A3034 RMK AO2 RAB44 SLP273 P0000 T00670050
2026-04-02 08:53:00,METAR KFRG 020853Z AUTO 06010G22KT 10SM OVC013 07/05 A3031 RMK AO2 SLP264 60000 T00720050 51003
2026-04-02 07:53:00,METAR KFRG 020753Z AUTO 05012KT 10SM BKN016 OVC021 08/06 A3032 RMK AO2 SLP265 T00780056
2026-04-02 06:53:00,METAR KFRG 020653Z AUTO 05010G18KT 10SM OVC015 08/06 A3030 RMK AO2 RAE01 SLP260 P0000 T00830061
2026-04-02 06:07:00,SPECI KFRG 020607Z AUTO 06010G20KT 10SM BKN016 OVC032 08/07 A3029 RMK AO2 RAE01 P0000 T00830067
2026-04-02 05:53:00,METAR KFRG 020553Z AUTO 05010G19KT 10SM -RA SCT017 OVC032 09/07 A3029 RMK AO2 SLP256 P0005 60006 T00890067 10156 20089 51014
2026-04-02 05:49:00,SPECI KFRG 020549Z AUTO 05010G22KT 9SM -RA SCT017 OVC032 09/07 A3028 RMK AO2 P0005
2026-04-02 04:53:00,METAR KFRG 020453Z AUTO 06010G21KT 6SM -RA BKN020 OVC026 10/07 A3028 RMK AO2 RAB12 SLP254 P0001 T01000072 402390100
2026-04-02 03:53:00,METAR KFRG 020353Z AUTO 07015G25KT 10SM BKN017 OVC022 12/08 A3025 RMK AO2 SLP242 T01170078
2026-04-02 02:53:00,METAR KFRG 020253Z 04010KT 10SM OVC018 13/09 A3022 RMK AO2 SLP232 T01330089 50023
2026-04-02 02:33:00,SPECI KFRG 020233Z 03012KT 10SM BKN020 OVC050 13/09 A3022 RMK AO2 T01330089
2026-04-02 01:53:00,METAR KFRG 020153Z 03008KT 10SM SCT050 14/08 A3023 RMK AO2 SLP236 T01390078
2026-04-02 00:53:00,METAR KFRG 020053Z 03010KT 10SM FEW100 14/08 A3018 RMK AO2 SLP220 T01440078
2026-04-01 23:53:00,METAR KFRG 012353Z 02014KT 10SM SCT100 16/10 A3015 RMK AO2 SLP209 60001 T01560100 10239 20156 51028
2026-04-01 22:53:00,METAR KFRG 012253Z 01014G19KT 10SM BKN060 BKN080 OVC095 18/13 A3013 RMK AO2 RAB11E30 SLP201 P0000 T01830128
2026-04-01 21:53:00,METAR KFRG 012153Z 02008KT 10SM BKN043 OVC050 21/15 A3009 RMK AO2 RAB2059E25 SLP190 P0001 T02110150
2026-04-01 20:53:00,METAR KFRG 012053Z VRB03KT 10SM BKN055 OVC070 22/14 A3007 RMK AO2 SLP181 T02220139 53011
2026-04-01 19:53:00,METAR KFRG 011953Z 20006KT 10SM FEW060 FEW070 OVC095 22/13 A3004 RMK AO2 SLP171 T02220128
2026-04-01 18:53:00,METAR KFRG 011853Z 20010KT 10SM SCT100 23/13 A3003 RMK AO2 SLP169 T02280128
2026-04-01 17:53:00,METAR KFRG 011753Z 21011KT 10SM FEW120 22/13 A3003 RMK AO2 SLP169 T02220128 10233 20144 51005
2026-04-01 16:53:00,METAR KFRG 011653Z 20009KT 10SM BKN110 23/13 A3003 RMK AO2 SLP168 T02280128
2026-04-01 15:53:00,METAR KFRG 011553Z 24013G20KT 10SM FEW120 22/13 A3003 RMK AO2 SLP168 T02170128
2026-04-01 14:53:00,METAR KFRG 011453Z 22013KT 10SM CLR 19/12 A3002 RMK AO2 SLP165 T01890122 53012
2026-04-01 13:53:00,METAR KFRG 011353Z 22008KT 10SM CLR 21/13 A3001 RMK AO2 SLP160 T02060128
2026-04-01 12:53:00,METAR KFRG 011253Z 24009KT 10SM CLR 18/12 A2999 RMK AO2 SLP155 T01780117
2026-04-01 11:53:00,METAR KFRG 011153Z AUTO 22007KT 9SM FEW080 14/11 A2999 RMK AO2 SLP153 T01440106 10144 20122 53023
2026-04-01 10:53:00,METAR KFRG 011053Z AUTO 23005KT 9SM CLR 13/11 A2995 RMK AO2 SLP141 T01330106
2026-04-01 09:53:00,METAR KFRG 010953Z AUTO 22007KT 10SM CLR 14/11 A2993 RMK AO2 SLP133 T01390106
2026-04-01 08:53:00,METAR KFRG 010853Z AUTO 21011KT 8SM CLR 12/10 A2992 RMK AO2 SLP130 T01220100 53004
2026-04-01 07:53:00,METAR KFRG 010753Z AUTO 22009KT 9SM CLR 13/10 A2991 RMK AO2 SLP128 T01280100
2026-04-01 06:53:00,METAR KFRG 010653Z AUTO 21011G19KT 9SM CLR 13/10 A2989 RMK AO2 SLP122 T01280100
2026-04-01 05:53:00,METAR KFRG 010553Z AUTO 21011KT 8SM CLR 13/09 A2990 RMK AO2 SLP125 T01280094 10139 20117 58006
2026-04-01 04:53:00,METAR KFRG 010453Z AUTO 21011G20KT 8SM CLR 12/09 A2991 RMK AO2 SLP128 T01220094 402000100
2026-04-01 03:53:00,METAR KFRG 010353Z AUTO 21009G16KT 8SM CLR 12/09 A2992 RMK AO2 SLP132 T01220089
2026-04-01 02:53:00,METAR KFRG 010253Z 21010KT 8SM CLR 13/09 A2992 RMK AO2 SLP131 T01280094 50001
2026-04-01 01:53:00,METAR KFRG 010153Z 21011KT 9SM CLR 13/09 A2994 RMK AO2 SLP137 T01280089
2026-04-01 00:53:00,METAR KFRG 010053Z 22010KT 9SM CLR 13/09 A2994 RMK AO2 SLP139 T01330094
2026-03-31 23:53:00,METAR KFRG 312353Z 22011G20KT 10SM CLR 14/09 A2992 RMK AO2 SLP131 T01390094 10194 20139 50001
2026-03-31 22:53:00,METAR KFRG 312253Z 22013G19KT 10SM CLR 15/10 A2992 RMK AO2 SLP132 T01500100
2026-03-31 21:53:00,METAR KFRG 312153Z 20015G26KT 10SM CLR 16/09 A2991 RMK AO2 PK WND 20026/2147 SLP129 T01610094
2026-03-31 20:53:00,METAR KFRG 312053Z 21013KT 10SM CLR 16/09 A2991 RMK AO2 SLP130 T01610094 57029
2026-03-31 19:53:00,METAR KFRG 311953Z 21013G19KT 10SM CLR 19/11 A2994 RMK AO2 SLP138 T01890106
2026-03-31 18:53:00,METAR KFRG 311853Z 19010KT 10SM CLR 18/10 A2997 RMK AO2 SLP149 T01780100
2026-03-31 17:53:00,METAR KFRG 311753Z 18011KT 10SM CLR 17/09 A3000 RMK AO2 SLP158 T01720094 10200 20117 58005
2026-03-31 16:53:00,METAR KFRG 311653Z 19013KT 10SM CLR 19/10 A3001 RMK AO2 SLP161 T01940100
2026-03-31 15:53:00,METAR KFRG 311553Z 23013KT 10SM CLR 18/09 A3002 RMK AO2 SLP166 T01780094
2026-03-31 14:53:00,METAR KFRG 311453Z 19012KT 10SM CLR 14/08 A3002 RMK AO2 SLP165 T01440083 58009
2026-03-31 13:53:00,METAR KFRG 311353Z AUTO 21012KT 10SM CLR 16/09 A3004 RMK AO2 SLP170 T01610094
2026-03-31 12:53:00,METAR KFRG 311253Z AUTO 20008KT 10SM CLR 13/09 A3004 RMK AO2 SLP172 T01330089
2026-03-31 11:53:00,METAR KFRG 311153Z AUTO 23004KT 9SM CLR 12/08 A3004 RMK AO2 RAE03 SLP174 P0000 60000 T01170083 10117 20100 50005
2026-03-31 10:53:00,METAR KFRG 311053Z AUTO 21007KT 8SM -RA BKN060 OVC075 11/08 A3005 RMK AO2 RAB51 SLP177 P0000 T01060078
2026-03-31 09:53:00,METAR KFRG 310953Z AUTO 21006KT 8SM BKN090 BKN100 10/08 A3003 RMK AO2 SLP169 T01000078
2026-03-31 08:53:00,METAR KFRG 310853Z AUTO 20007KT 9SM SCT070 OVC090 11/08 A3003 RMK AO2 RAE10 SLP169 P0000 60000 T01060083 56014
2026-03-31 07:53:00,METAR KFRG 310753Z AUTO 21008KT 7SM -RA BKN100 OVC120 10/08 A3004 RMK AO2 RAB04E16B38 SLP172 P0000 T01000078
2026-03-31 06:53:00,METAR KFRG 310653Z AUTO 20007KT 9SM BKN110 10/07 A3005 RMK AO2 RAB00E11B43E52 SLP177 P0000 T01000072
2026-03-31 05:53:00,METAR KFRG 310553Z AUTO 20005KT 8SM SCT110 10/07 A3007 RMK AO2 SLP183 T01000072 10117 20094 58011
2026-03-31 04:53:00,METAR KFRG 310453Z AUTO 21005KT 9SM OVC095 10/07 A3009 RMK AO2 SLP190 T01000072 401830061
2026-03-31 03:53:00,METAR KFRG 310353Z AUTO 20003KT 9SM BKN120 10/07 A3010 RMK AO2 SLP193 T01000067
2026-03-31 02:53:00,METAR KFRG 310253Z AUTO 19005KT 10SM SCT085 11/07 A3010 RMK AO2 SLP194 T01060072 51009
2026-03-31 01:53:00,METAR KFRG 310153Z 21007KT 10SM SCT080 OVC100 12/07 A3010 RMK AO2 SLP194 T01170072
2026-03-31 00:53:00,METAR KFRG 310053Z AUTO 21008KT 10SM BKN100 11/07 A3010 RMK AO2 SLP195 T01110067
2026-03-30 23:53:00,METAR KFRG 302353Z 22012KT 9SM FEW100 11/07 A3008 RMK AO2 RAB2259E24 SLP185 P0000 60000 T01060067 10183 20106 50002
2026-03-30 22:53:00,METAR KFRG 302253Z 20011KT 10SM OVC090 13/07 A3009 RMK AO2 SLP188 T01280067
2026-03-30 21:53:00,METAR KFRG 302153Z 22012KT 10SM FEW100 14/07 A3008 RMK AO2 SLP185 T01390067
2026-03-30 20:53:00,METAR KFRG 302053Z 20013KT 10SM FEW095 16/07 A3007 RMK AO2 SLP182 T01560072 56020
2026-03-30 19:53:00,METAR KFRG 301953Z 20013KT 10SM CLR 17/06 A3008 RMK AO2 SLP186 T01720061
2026-03-30 18:53:00,METAR KFRG 301853Z 21011KT 10SM CLR 17/07 A3009 RMK AO2 SLP191 T01670067
2026-03-30 17:53:00,METAR KFRG 301753Z 21009KT 10SM FEW085 17/07 A3013 RMK AO2 SLP203 T01670067 10172 20078 58020
2026-03-30 16:53:00,METAR KFRG 301653Z 18012KT 10SM CLR 15/07 A3015 RMK AO2 SLP209 T01500067
2026-03-30 15:53:00,METAR KFRG 301553Z 21013G23KT 10SM SCT085 SCT110 17/06 A3017 RMK AO2 SLP217 T01670061
2026-03-30 14:53:00,METAR KFRG 301453Z 21013G21KT 10SM SCT110 14/06 A3019 RMK AO2 SLP223 T01390061 58016
2026-03-30 13:53:00,METAR KFRG 301353Z 21010KT 10SM FEW090 12/06 A3021 RMK AO2 SLP229 T01220061
2026-03-30 12:53:00,METAR KFRG 301253Z 21010KT 10SM CLR 09/06 A3022 RMK AO2 SLP235 T00940061
2026-03-30 11:53:00,METAR KFRG 301153Z 21011KT 8SM CLR 08/06 A3023 RMK AO2 SLP238 T00780056 10078 20061 56010
2026-03-30 10:53:00,METAR KFRG 301053Z AUTO 21012KT 8SM CLR 07/05 A3025 RMK AO2 SLP243 T00670050
2026-03-30 09:53:00,METAR KFRG 300953Z AUTO 21013KT 10SM CLR 07/05 A3025 RMK AO2 SLP243 T00670050
2026-03-30 08:53:00,METAR KFRG 300853Z AUTO 21012KT 10SM CLR 06/04 A3026 RMK AO2 SLP249 T00610044 56031
2026-03-30 07:53:00,METAR KFRG 300753Z AUTO 20011KT 10SM CLR 06/04 A3029 RMK AO2 SLP256 T00610044
2026-03-30 06:53:00,METAR KFRG 300653Z AUTO 20012G20KT 10SM CLR 07/04 A3032 RMK AO2 SLP267 T00670039
2026-03-30 05:53:00,METAR KFRG 300553Z AUTO 21013KT 10SM CLR 07/03 A3036 RMK AO2 PK WND 20026/0526 SLP280 T00670028 10072 20056 58015
2026-03-30 04:53:00,METAR KFRG 300453Z AUTO 21015G21KT 10SM CLR 07/02 A3037 RMK AO2 SLP284 T00670022 400941044
2026-03-30 03:53:00,METAR KFRG 300353Z AUTO 21012G18KT 10SM CLR 06/01 A3039 RMK AO2 SLP291 T00610011
2026-03-30 02:53:00,METAR KFRG 300253Z 21013G22KT 10SM CLR 06/01 A3040 RMK AO2 SLP295 T00610011 58004
2026-03-30 01:53:00,METAR KFRG 300153Z 21015G24KT 10SM CLR 06/01 A3041 RMK AO2 SLP297 T00560006
2026-03-30 00:53:00,METAR KFRG 300053Z 21014G24KT 10SM CLR 06/00 A3042 RMK AO2 PK WND 21027/2354 SLP302 T00560000
2026-03-29 23:53:00,METAR KFRG 292353Z 20016G25KT 10SM CLR 06/M01 A3041 RMK AO2 PK WND 20029/2304 SLP299 T00611011 10094 20061 58006
2026-03-29 22:53:00,METAR KFRG 292253Z 20017G30KT 10SM CLR 07/M02 A3043 RMK AO2 PK WND 21035/2202 SLP304 T00671017
2026-03-29 21:53:00,METAR KFRG 292153Z 21019G30KT 10SM CLR 08/M03 A3042 RMK AO2 PK WND 20037/2142 SLP302 T00781028
2026-03-29 20:53:00,METAR KFRG 292053Z 21021G32KT 10SM CLR 08/M02 A3043 RMK AO2 PK WND 22035/2042 SLP305 T00831022 56029
2026-03-29 19:53:00,METAR KFRG 291953Z AUTO 20019G27KT 10SM CLR 08/M02 A3045 RMK AO2 PK WND 21028/1930 SLP313 T00831022
2026-03-29 18:53:00,METAR KFRG 291853Z 21018G28KT 10SM FEW120 09/M08 A3048 RMK AO2 PK WND 21028/1844 SLP322 T00891078
2026-03-29 17:53:00,METAR KFRG 291753Z 18014KT 10SM CLR 09/M08 A3052 RMK AO2 SLP334 T00891083 10094 20000 58029
2026-03-29 16:53:00,METAR KFRG 291653Z 19013KT 10SM CLR 08/M06 A3054 RMK AO2 SLP343 T00831061
2026-03-29 14:53:00,METAR KFRG 291453Z 17013KT 10SM CLR 07/M04 A3060 RMK AO2 SLP363 T00671039 50001
2026-03-29 13:53:00,METAR KFRG 291353Z 18010KT 10SM CLR 06/M06 A3061 RMK AO2 SLP365 T00561056
2026-03-29 12:53:00,METAR KFRG 291253Z 17008KT 10SM CLR 04/M07 A3060 RMK AO2 SLP362 T00391072
2026-03-29 11:53:00,METAR KFRG 291153Z 00000KT 10SM CLR 00/M07 A3060 RMK AO2 SLP362 T00001072 10000 21044 51014
2026-03-29 10:53:00,METAR KFRG 291053Z 00000KT 10SM FEW100 M03/M08 A3059 RMK AO2 SLP359 T10331083
2026-03-29 09:53:00,METAR KFRG 290953Z AUTO 01004KT 10SM CLR M03/M09 A3057 RMK AO2 SLP353 T10281089
2026-03-29 08:53:00,METAR KFRG 290853Z AUTO 00000KT 10SM CLR M03/M09 A3056 RMK AO2 SLP347 T10281089 51000
2026-03-29 07:53:00,METAR KFRG 290753Z AUTO 00000KT 10SM CLR M03/M09 A3056 RMK AO2 SLP347 T10281089
2026-03-29 06:53:00,METAR KFRG 290653Z 00000KT 10SM CLR M01/M09 A3056 RMK AO2 SLP347 T10111094
2026-03-29 05:53:00,METAR KFRG 290553Z 00000KT 10SM CLR M02/M10 A3055 RMK AO2 SLP347 T10221100 10039 21022 51014
2026-03-29 04:53:00,METAR KFRG 290453Z 00000KT 10SM CLR 01/M11 A3055 RMK AO2 SLP345 T00061106 400671011
2026-03-29 03:53:00,METAR KFRG 290353Z 00000KT 10SM CLR 01/M11 A3053 RMK AO2 SLP340 T00111111
2026-03-29 02:53:00,METAR KFRG 290253Z 32003KT 10SM CLR 02/M12 A3051 RMK AO2 SLP333 T00221122 51021
2026-03-29 01:53:00,METAR KFRG 290153Z 34004KT 10SM CLR 03/M13 A3050 RMK AO2 SLP330 T00281128
2026-03-29 00:53:00,METAR KFRG 290053Z 34005KT 10SM CLR 03/M14 A3048 RMK AO2 SLP322 T00331139
2026-03-28 23:53:00,METAR KFRG 282353Z 31007KT 10SM CLR 04/M15 A3045 RMK AO2 SLP312 T00391150 10067 20039 53016
2026-03-28 22:53:00,METAR KFRG 282253Z 32011G18KT 10SM CLR 04/M16 A3043 RMK AO2 PK WND 35027/2218 SLP305 T00441156
2026-03-28 21:53:00,METAR KFRG 282153Z 32015G23KT 10SM CLR 05/M16 A3041 RMK AO2 PK WND 35026/2126 SLP300 T00501161
2026-03-28 20:53:00,METAR KFRG 282053Z 33011G20KT 10SM SCT080 06/M15 A3041 RMK AO2 SLP296 T00561150 55005
2026-03-28 19:53:00,METAR KFRG 281953Z 30007G21KT 270V330 10SM FEW075 05/M15 A3040 RMK AO2 SLP295 T00501150
2026-03-28 18:53:00,METAR KFRG 281853Z 36009KT 10SM BKN075 05/M14 A3041 RMK AO2 SLP298 T00501139
2026-03-28 17:53:00,METAR KFRG 281753Z 35007G19KT 310V030 10SM CLR 04/M14 A3042 RMK AO2 SLP301 T00391139 10044 20000 58001
2026-03-28 16:53:00,METAR KFRG 281653Z 34008G20KT 10SM CLR 04/M13 A3043 RMK AO2 SLP304 T00391133
2026-03-28 15:53:00,METAR KFRG 281553Z 35010G22KT 10SM CLR 03/M14 A3043 RMK AO2 SLP304 T00331144
2026-03-28 14:53:00,METAR KFRG 281453Z 36015G22KT 10SM CLR 02/M16 A3042 RMK AO2 SLP302 T00171161 51029
2026-03-28 13:53:00,METAR KFRG 281353Z 32013KT 10SM CLR 01/M12 A3041 RMK AO2 SLP297 T00111122
2026-03-28 12:53:00,METAR KFRG 281253Z 36014G23KT 10SM SCT060 01/M11 A3037 RMK AO2 SLP285 T00061111
2026-03-28 11:53:00,METAR KFRG 281153Z 34012G22KT 10SM BKN060 00/M10 A3034 RMK AO2 SLP273 T00001100 10039 20000 53038
2026-03-28 10:53:00,METAR KFRG 281053Z 33009KT 10SM FEW060 00/M10 A3029 RMK AO2 SLP258 T00001100
2026-03-28 09:53:00,METAR KFRG 280953Z AUTO 34010KT 10SM OVC060 01/M10 A3026 RMK AO2 SLP247 T00111100
2026-03-28 08:53:00,METAR KFRG 280853Z AUTO 35008KT 10SM BKN060 02/M08 A3022 RMK AO2 SLP235 T00171078 53013
2026-03-28 07:53:00,METAR KFRG 280753Z AUTO 01008KT 10SM CLR 02/M07 A3020 RMK AO2 SLP227 T00171072
2026-03-28 06:53:00,METAR KFRG 280653Z AUTO 36015G19KT 10SM BKN070 03/M08 A3019 RMK AO2 SLP224 T00281078
2026-03-28 05:53:00,METAR KFRG 280553Z AUTO 01006KT 10SM OVC070 04/M08 A3019 RMK AO2 SLP222 T00391078 10061 20028 51007
2026-03-28 04:53:00,METAR KFRG 280453Z AUTO 36007KT 10SM OVC060 04/M07 A3018 RMK AO2 SLP221 T00391072 401440028
2026-03-28 03:53:00,METAR KFRG 280353Z AUTO 36003KT 10SM CLR 03/M07 A3018 RMK AO2 SLP219 T00331072
2026-03-28 02:53:00,METAR KFRG 280253Z 36004KT 10SM CLR 03/M07 A3017 RMK AO2 SLP215 T00331072 51017
2026-03-28 01:53:00,METAR KFRG 280153Z 02005KT 10SM CLR 04/M07 A3015 RMK AO2 SLP210 T00391067
2026-03-28 00:53:00,METAR KFRG 280053Z 02006KT 10SM CLR 05/M07 A3013 RMK AO2 SLP204 T00501067
2026-03-27 23:53:00,METAR KFRG 272353Z AUTO 02009KT 10SM FEW120 06/M07 A3011 RMK AO2 SLP198 T00611072 10089 20061 51017
2026-03-27 22:53:00,METAR KFRG 272253Z AUTO 02009KT 10SM BKN120 07/M08 A3010 RMK AO2 SLP192 T00671083
2026-03-27 21:53:00,METAR KFRG 272153Z AUTO 02010KT 10SM OVC110 07/M09 A3009 RMK AO2 SLP189 T00721089
2026-03-27 20:53:00,METAR KFRG 272053Z 01016KT 10SM OVC110 08/M09 A3007 RMK AO2 PK WND 36026/2023 SLP181 T00781094 53006
2026-03-27 19:53:00,METAR KFRG 271953Z 36015G25KT 10SM CLR 08/M10 A3005 RMK AO2 PK WND 01026/1932 SLP175 T00831100
2026-03-27 18:53:00,METAR KFRG 271853Z 36017G25KT 10SM BKN120 08/M07 A3006 RMK AO2 PK WND 36026/1821 SLP178 T00831067
2026-03-27 17:53:00,METAR KFRG 271753Z 03015G27KT 10SM OVC120 09/M03 A3005 RMK AO2 PK WND 36028/1708 SLP175 T00891033 10139 20089 51028
2026-03-27 16:53:00,METAR KFRG 271653Z 36015G26KT 10SM OVC110 11/M02 A3002 RMK AO2 PK WND 36027/1607 SLP164 T01061017
2026-03-27 15:53:00,METAR KFRG 271553Z 36015G26KT 10SM FEW038 BKN110 10/M02 A3000 RMK AO2 PK WND 01026/1542 SLP160 T01001017
2026-03-25 14:53:00,METAR KFRG 251453Z 00000KT 10SM CLR 07/M04 A3041 RMK AO2 SLP298 T00671039 50003
2026-03-25 13:53:00,METAR KFRG 251353Z 04003KT 10SM CLR 06/M04 A3041 RMK AO2 SLP299 T00561039
2026-03-25 12:53:00,METAR KFRG 251253Z 25003KT 10SM CLR 04/M02 A3041 RMK AO2 SLP297 T00441017
2026-03-25 11:53:00,METAR KFRG 251153Z 00000KT 10SM CLR 02/M02 A3040 RMK AO2 SLP295 T00171017 10033 20011 52012
2026-03-25 10:53:00,METAR KFRG 251053Z 00000KT 10SM CLR 01/M02 A3039 RMK AO2 SLP291 T00111022
2026-03-25 09:53:00,METAR KFRG 250953Z AUTO 23003KT 10SM CLR 01/M03 A3038 RMK AO2 SLP287 T00111028
2026-03-25 08:53:00,METAR KFRG 250853Z AUTO 23003KT 10SM CLR 02/M03 A3037 RMK AO2 SLP283 T00171028 53002
2026-03-25 07:53:00,METAR KFRG 250753Z AUTO 24004KT 10SM CLR 02/M03 A3035 RMK AO2 SLP278 T00221028
2026-03-25 06:53:00,METAR KFRG 250653Z AUTO 22006KT 10SM CLR 03/M03 A3035 RMK AO2 SLP276 T00281028
2026-03-25 05:53:00,METAR KFRG 250553Z AUTO 23010KT 10SM CLR 03/M03 A3036 RMK AO2 SLP281 T00331028 10039 20028 58000
2026-03-25 04:53:00,METAR KFRG 250453Z AUTO 21009KT 10SM CLR 03/M01 A3037 RMK AO2 SLP283 T00331006 400781011
2026-03-25 03:53:00,METAR KFRG 250353Z AUTO 21009KT 10SM CLR 03/M01 A3037 RMK AO2 SLP283 T00331011
2026-03-25 02:53:00,METAR KFRG 250253Z 21009KT 10SM CLR 03/M03 A3036 RMK AO2 SLP281 T00331028 58001
2026-03-25 01:53:00,METAR KFRG 250153Z 21007G16KT 10SM CLR 03/M04 A3037 RMK AO2 SLP283 T00331039
2026-03-25 00:53:00,METAR KFRG 250053Z 20009KT 10SM CLR 03/M05 A3037 RMK AO2 SLP284 T00281050
2026-03-24 23:53:00,METAR KFRG 242353Z 21009KT 10SM CLR 03/M05 A3036 RMK AO2 SLP282 T00331050 10078 20033 53008
2026-03-24 22:53:00,METAR KFRG 242253Z 20012KT 10SM CLR 04/M05 A3035 RMK AO2 SLP278 T00391050
2026-03-24 21:53:00,METAR KFRG 242153Z 19008KT 10SM CLR 06/M08 A3035 RMK AO2 SLP276 T00561078
2026-03-24 20:53:00,METAR KFRG 242053Z 22012KT 10SM CLR 06/M09 A3034 RMK AO2 SLP274 T00611089 55010
2026-03-24 19:53:00,METAR KFRG 241953Z 19015KT 10SM CLR 07/M08 A3034 RMK AO2 SLP273 T00671083
2026-03-24 18:53:00,METAR KFRG 241853Z 14006KT 10SM CLR 08/M09 A3034 RMK AO2 SLP275 T00781094
2026-03-24 17:53:00,METAR KFRG 241753Z 04004KT 10SM CLR 07/M09 A3037 RMK AO2 SLP284 T00671094 10067 20006 58011
2026-03-24 16:53:00,METAR KFRG 241653Z 10SM CLR 06/M11 A3040 RMK AO2 SLP293 T00561106
2026-03-24 15:53:00,METAR KFRG 241553Z 32012G22KT 10SM CLR 06/M10 A3041 RMK AO2 SLP297 T00561100
2026-03-24 14:53:00,METAR KFRG 241453Z 35011G21KT 10SM CLR 04/M09 A3040 RMK AO2 SLP296 T00441094 53017
2026-03-24 13:53:00,METAR KFRG 241353Z 35012G20KT 10SM CLR 03/M08 A3039 RMK AO2 SLP292 T00331078
2026-03-24 12:53:00,METAR KFRG 241253Z 32013G22KT 10SM CLR 02/M07 A3036 RMK AO2 SLP282 T00221072
2026-03-24 11:53:00,METAR KFRG 241153Z 32007KT 10SM CLR 01/M06 A3035 RMK AO2 SLP279 70003 T00061056 10011 21011 53022
2026-03-24 10:53:00,METAR KFRG 241053Z 32005KT 10SM CLR M01/M06 A3033 RMK AO2 SLP271 T10061061
2026-03-24 09:53:00,METAR KFRG 240953Z AUTO 31004KT 10SM CLR M01/M06 A3031 RMK AO2 SLP264 T10061061
2026-03-24 08:53:00,METAR KFRG 240853Z AUTO 29004KT 10SM CLR M01/M07 A3029 RMK AO2 SLP256 T10111067 53018
2026-03-24 07:53:00,METAR KFRG 240753Z AUTO 32004KT 10SM CLR 00/M07 A3027 RMK AO2 SLP249 T00001067
2026-03-24 06:53:00,METAR KFRG 240653Z AUTO 34004KT 10SM CLR 01/M08 A3025 RMK AO2 SLP245 T00061078
2026-03-24 05:53:00,METAR KFRG 240553Z AUTO 35010G19KT 10SM CLR 01/M08 A3024 RMK AO2 PK WND 33026/0517 SLP239 60000 T00111078 10028 20011 53024
2026-03-24 04:53:00,METAR KFRG 240453Z AUTO 33012G20KT 10SM CLR 02/M06 A3020 RMK AO2 SLP228 T00171056 401000017
2026-03-24 03:53:00,METAR KFRG 240353Z AUTO 32011G19KT 10SM BKN047 02/M05 A3018 RMK AO2 SLP221 T00171050
2026-03-24 02:53:00,METAR KFRG 240253Z AUTO 32010G20KT 10SM CLR 02/M04 A3016 RMK AO2 SLP214 60000 T00171039 51029
2026-03-24 01:53:00,METAR KFRG 240153Z 32013G22KT 10SM FEW026 SCT035 OVC048 03/M03 A3015 RMK AO2 RAE23SNB08E16 SLP209 P0000 T00281028
2026-03-24 00:53:00,METAR KFRG 240053Z 32009KT 6SM -RA BR BKN020 OVC025 03/01 A3013 RMK AO2 RAB43 SLP202 P0000 T00280006
2026-03-23 23:53:00,METAR KFRG 232353Z 32009G16KT 10SM FEW020 BKN028 OVC049 04/M01 A3008 RMK AO2 SLP185 T00441006 10050 20039 53045
2026-03-23 22:53:00,METAR KFRG 232253Z 33010G18KT 10SM OVC050 04/M01 A3002 RMK AO2 SLP167 T00441006
2026-03-23 21:53:00,METAR KFRG 232153Z 34008G17KT 10SM FEW018 OVC042 04/00 A2998 RMK AO2 SLP153 T00440000
2026-03-23 21:02:00,SPECI KFRG 232102Z 33009G19KT 10SM FEW016 BKN030 OVC055 04/01 A2995 RMK AO2 T00440011
2026-03-23 20:53:00,METAR KFRG 232053Z 34012G20KT 10SM FEW013 BKN021 OVC031 04/01 A2994 RMK AO2 SLP139 T00440011 51021
2026-03-23 20:50:00,SPECI KFRG 232050Z 34013G20KT 10SM SCT013 BKN021 OVC031 04/01 A2994 RMK AO2
2026-03-23 20:25:00,SPECI KFRG 232025Z 34008KT 10SM OVC011 04/02 A2993 RMK AO2 T00390017
2026-03-23 19:53:00,METAR KFRG 231953Z 33011KT 5SM BR OVC009 04/02 A2991 RMK AO2 CIG 007V011 SLP128 T00440022
2026-03-23 18:53:00,METAR KFRG 231853Z 01011KT 10SM BKN014 BKN022 OVC030 05/02 A2988 RMK AO2 SLP119 T00500022
2026-03-23 18:39:00,SPECI KFRG 231839Z 36012KT 10SM BKN016 BKN023 OVC030 05/02 A2988 RMK AO2 T00500022
2026-03-23 17:53:00,METAR KFRG 231753Z 35010KT 10SM BKN011 BKN019 OVC029 04/02 A2987 RMK AO2 RAB09E28 SLP116 P0000 60003 T00440022 10050 20039 51013
2026-03-23 16:53:00,METAR KFRG 231653Z 35011KT 10SM BKN010 OVC017 04/02 A2986 RMK AO2 CIG 007V014 SLP112 T00440022
2026-03-23 16:51:00,SPECI KFRG 231651Z 34012KT 10SM BKN010 OVC017 04/02 A2986 RMK AO2 CIG 007V014
2026-03-23 16:24:00,SPECI KFRG 231624Z 35011KT 7SM BKN008 OVC017 05/03 A2984 RMK AO2 T00500033
2026-03-23 15:53:00,METAR KFRG 231553Z 02010KT 5SM BR BKN013 OVC019 04/03 A2983 RMK AO2 SLP103 T00440028
2026-03-23 14:53:00,METAR KFRG 231453Z 03010G20KT 5SM BR SCT010 BKN014 OVC036 04/03 A2981 RMK AO2 RAE34 SLP096 P0000 60003 T00440028 51019
2026-03-23 14:39:00,SPECI KFRG 231439Z 03012G22KT 3SM BR BKN010 OVC016 04/03 A2980 RMK AO2 RAE34 P0000 T00440033
2026-03-23 13:53:00,METAR KFRG 231353Z 03012G18KT 1 3/4SM -RA BR OVC012 04/03 A2979 RMK AO2 RAE01B48 SLP090 P0000 T00440028
2026-03-23 12:53:00,METAR KFRG 231253Z 03011G21KT 10SM -RA OVC010 04/03 A2976 RMK AO2 SLP076 P0003 T00440028
2026-03-23 11:53:00,METAR KFRG 231153Z 05009G24KT 3SM -RA BR BKN009 OVC034 05/04 A2972 RMK AO2 SLP066 P0002 60014 70016 T00500039 10094 20050 50011
2026-03-23 11:51:00,SPECI KFRG 231151Z 06007G24KT 2 1/2SM -RA BR BKN009 OVC034 05/04 A2974 RMK AO2 P0002
2026-03-23 10:53:00,METAR KFRG 231053Z 02017G23KT 9SM -RA OVC008 06/04 A2974 RMK AO2 SLP070 P0000 T00560044
2026-03-23 09:53:00,METAR KFRG 230953Z AUTO 03011G16KT 8SM -RA BKN007 OVC046 08/07 A2969 RMK AO2 SLP055 P0012 T00780067
2026-03-23 09:01:00,SPECI KFRG 230901Z AUTO 03010KT 5SM -RA BR BKN006 OVC044 09/08 A2970 RMK AO2 P0000 T00890083
2026-03-23 08:53:00,METAR KFRG 230853Z AUTO 02008KT 5SM -RA BR SCT006 OVC042 09/08 A2971 RMK AO2 RAB25 SLP059 P0000 60000 T00890083 55006
2026-03-23 08:51:00,SPECI KFRG 230851Z AUTO 04007KT 6SM -RA BR SCT006 OVC042 09/08 A2970 RMK AO2 RAB25 P0000
2026-03-23 08:35:00,SPECI KFRG 230835Z AUTO 04006KT 4SM -RA BR FEW014 OVC038 09/08 A2970 RMK AO2 RAB25 P0000 T00890083
2026-03-23 08:18:00,SPECI KFRG 230818Z AUTO 04007KT 2 1/2SM BR FEW014 OVC030 09/08 A2972 RMK AO2 T00890083
2026-03-23 07:53:00,METAR KFRG 230753Z AUTO 02008KT 5SM BR FEW018 OVC028 09/08 A2972 RMK AO2 SLP064 T00940083
2026-03-23 07:00:00,SPECI KFRG 230700Z AUTO 02010KT 4SM BR FEW005 OVC026 09/08 A2972 RMK AO2 T00890083
2026-03-23 06:53:00,METAR KFRG 230653Z AUTO 01009KT 4SM BR OVC025 09/08 A2972 RMK AO2 SLP065 T00940083
2026-03-23 06:10:00,SPECI KFRG 230610Z AUTO 35004KT 5SM BR SCT003 BKN017 OVC021 09/08 A2973 RMK AO2 PRESRR T00890083
2026-03-23 05:53:00,METAR KFRG 230553Z AUTO 01007KT 5SM BR OVC003 09/08 A2970 RMK AO2 RAE0454 SLP057 P0000 60002 T00890083 10106 20089 55008
2026-03-23 05:10:00,SPECI KFRG 230510Z AUTO 00000KT 3SM BR BKN004 BKN008 OVC023 09/09 A2969 RMK AO2 RAE0454 P0000 T00940094
2026-03-23 04:58:00,SPECI KFRG 230458Z AUTO 07003KT 3SM BR FEW008 BKN020 OVC110 09/09 A2969 RMK AO2 RAE54 P0000 T00940089
2026-03-23 04:53:00,METAR KFRG 230453Z AUTO 09004KT 3SM -RA BR SCT022 BKN044 BKN100 09/09 A2969 RMK AO2 SLP054 P0000 T00940089 401060056
2026-03-23 04:39:00,SPECI KFRG 230439Z AUTO 02003KT 2 1/2SM -RA BR FEW055 OVC100 09/09 A2970 RMK AO2 P0000 T00940089
2026-03-23 04:25:00,SPECI KFRG 230425Z AUTO 00000KT 3SM -RA BR OVC100 09/09 A2970 RMK AO2 P0000 T00940089
2026-03-23 04:09:00,SPECI KFRG 230409Z AUTO 06005KT 2 1/2SM -RA BR OVC095 09/09 A2970 RMK AO2 PRESFR P0000 T00940089
2026-03-23 03:53:00,METAR KFRG 230353Z AUTO 00000KT 3SM -RA BR OVC090 09/09 A2972 RMK AO2 SLP065 P0001 T00940089
2026-03-23 02:53:00,METAR KFRG 230253Z AUTO 02004KT 4SM -RA BR SCT090 OVC100 09/08 A2974 RMK AO2 SLP070 P0001 60001 T00890083 50021
2026-03-23 01:53:00,METAR KFRG 230153Z AUTO 05004KT 5SM -RA BR OVC100 09/08 A2977 RMK AO2 SLP080 P0000 T00940083
2026-03-23 00:53:00,METAR KFRG 230053Z AUTO 36009KT 8SM -RA OVC100 10/08 A2979 RMK AO2 RAB38 PRESRR SLP088 P0000 T01000083
2026-03-22 23:53:00,METAR KFRG 222353Z AUTO 11004KT 8SM CLR 10/08 A2967 RMK AO2 SLP049 T01000083 10106 20089 58011
2026-03-22 22:53:00,METAR KFRG 222253Z AUTO 03004KT 9SM CLR 11/08 A2972 RMK AO2 SLP064 T01060078
2026-03-22 21:53:00,METAR KFRG 222153Z AUTO 00000KT 8SM SCT006 11/08 A2969 RMK AO2 SLP053 T01060078
2026-03-22 20:53:00,METAR KFRG 222053Z VRB03KT 7SM OVC005 09/07 A2971 RMK AO2 SLP060 T00890072 58020
2026-03-22 19:53:00,METAR KFRG 221953Z 20005KT 5SM BR OVC006 09/08 A2973 RMK AO2 SLP067 T00940078
2026-03-22 18:53:00,METAR KFRG 221853Z 21005KT 5SM BR OVC005 09/08 A2975 RMK AO2 SLP075 T00940078
2026-03-22 17:53:00,METAR KFRG 221753Z 20010KT 5SM BR OVC005 09/07 A2977 RMK AO2 SLP080 T00890072 10094 20067 58025
2026-03-22 17:35:00,SPECI KFRG 221735Z 20009KT 3SM BR OVC005 09/07 A2978 RMK AO2 T00890072
2026-03-22 16:53:00,METAR KFRG 221653Z 20008KT 1 1/2SM BR OVC007 08/07 A2981 RMK AO2 SLP095 T00780067
2026-03-22 16:48:00,SPECI KFRG 221648Z 21008KT 1 3/4SM BR OVC007 08/06 A2982 RMK AO2
2026-03-22 15:53:00,METAR KFRG 221553Z 19014G24KT 10SM OVC009 08/06 A2982 RMK AO2 CIG 008V013 SLP098 T00830061
2026-03-22 14:53:00,METAR KFRG 221453Z 18014KT 10SM OVC008 08/06 A2984 RMK AO2 SLP105 T00830061 56028
2026-03-22 14:31:00,SPECI KFRG 221431Z 18016G23KT 10SM OVC009 08/06 A2986 RMK AO2 CIG 008V012 T00830061
2026-03-22 13:53:00,METAR KFRG 221353Z 17016G27KT 10SM OVC012 08/06 A2987 RMK AO2 PK WND 16027/1344 SLP115 T00780056
2026-03-22 12:53:00,METAR KFRG 221253Z 16017KT 10SM OVC014 07/05 A2989 RMK AO2 SLP120 T00720050
2026-03-22 12:22:00,SPECI KFRG 221222Z 16014KT 9SM OVC015 07/06 A2990 RMK AO2 T00670056
2026-03-22 11:53:00,METAR KFRG 221153Z 15011KT 7SM FEW006 OVC014 07/06 A2992 RMK AO2 SLP133 60000 T00670056 10067 20061 56010
2026-03-22 11:48:00,SPECI KFRG 221148Z 15011KT 6SM BR SCT006 OVC014 07/06 A2993 RMK AO2
2026-03-22 11:14:00,SPECI KFRG 221114Z 14008KT 7SM OVC006 07/06 A2993 RMK AO2 T00670056
2026-03-22 10:59:00,SPECI KFRG 221059Z 14010KT 7SM BKN006 OVC014 06/06 A2993 RMK AO2 T00610056
2026-03-22 10:53:00,METAR KFRG 221053Z 14011KT 7SM BKN006 BKN014 OVC045 06/06 A2993 RMK AO2 SLP135 T00610056
2026-03-22 10:44:00,SPECI KFRG 221044Z AUTO 15010KT 7SM SCT005 BKN014 OVC045 06/06 A2994 RMK AO2 T00610056
2026-03-22 10:32:00,SPECI KFRG 221032Z AUTO 14009KT 7SM SCT005 SCT014 OVC046 06/05 A2994 RMK AO2 T00610050
2026-03-22 10:25:00,SPECI KFRG 221025Z AUTO 13010KT 7SM BKN005 BKN016 OVC046 06/05 A2994 RMK AO2 T00610050
2026-03-22 10:02:00,SPECI KFRG 221002Z AUTO 13010KT 6SM BR FEW005 BKN019 OVC050 06/06 A2995 RMK AO2 T00610056
2026-03-22 09:53:00,METAR KFRG 220953Z AUTO 13009KT 8SM SCT020 BKN025 OVC050 06/05 A2995 RMK AO2 RAB34E53 SLP143 P0000 T00610050
2026-03-22 08:53:00,METAR KFRG 220853Z AUTO 12005KT 10SM SCT060 BKN070 OVC090 06/04 A2999 RMK AO2 SLP155 60000 T00610044 55000
2026-03-22 07:53:00,METAR KFRG 220753Z AUTO 13006KT 10SM BKN090 OVC110 06/04 A2998 RMK AO2 RAB0659E12 SLP152 P0000 T00610039
2026-03-22 07:13:00,SPECI KFRG 220713Z AUTO 13009KT 10SM SCT007 OVC090 06/04 A2997 RMK AO2 RAB0659E12 P0000 T00610044
2026-03-22 06:53:00,METAR KFRG 220653Z AUTO 11010KT 9SM BKN006 OVC085 06/04 A2997 RMK AO2 SLP150 T00610044
2026-03-22 06:37:00,SPECI KFRG 220637Z AUTO 11007KT 8SM BKN006 OVC095 06/04 A2998 RMK AO2 T00610044
2026-03-22 06:28:00,SPECI KFRG 220628Z AUTO 10010KT 9SM SCT006 OVC100 06/04 A2998 RMK AO2 T00610044
2026-03-22 05:53:00,METAR KFRG 220553Z AUTO 06004KT 10SM OVC110 06/M01 A2999 RMK AO2 SLP155 T00611011 10089 20056 53000
2026-03-22 04:53:00,METAR KFRG 220453Z 03004KT 10SM CLR 06/M02 A2998 RMK AO2 SLP151 T00611022 401440044
2026-03-22 03:53:00,METAR KFRG 220353Z 06003KT 10SM FEW120 07/M02 A2996 RMK AO2 SLP147 T00671022
2026-03-22 02:53:00,METAR KFRG 220253Z 04003KT 10SM CLR 07/M02 A2999 RMK AO2 SLP155 T00671022 50008
2026-03-22 01:53:00,METAR KFRG 220153Z 03005KT 10SM CLR 07/M02 A3000 RMK AO2 SLP158 T00721022
2026-03-22 00:53:00,METAR KFRG 220053Z 04005KT 10SM CLR 08/M02 A2999 RMK AO2 SLP154 T00831022
2026-03-21 23:53:00,METAR KFRG 212353Z 05008KT 10SM CLR 09/M02 A2996 RMK AO2 SLP147 T00891017 10144 20089 51018
2026-03-21 22:53:00,METAR KFRG 212253Z 02009KT 10SM CLR 10/M01 A2996 RMK AO2 SLP144 T01001011
2026-03-21 21:53:00,METAR KFRG 212153Z 04010KT 10SM CLR 11/M01 A2993 RMK AO2 SLP135 T01111011
2026-03-21 20:53:00,METAR KFRG 212053Z 02009KT 10SM CLR 12/M01 A2991 RMK AO2 SLP129 T01221006 53007
2026-03-21 19:53:00,METAR KFRG 211953Z AUTO 33010G19KT 10SM CLR 14/00 A2989 RMK AO2 SLP123 T01390000
2026-03-21 18:53:00,METAR KFRG 211853Z 33010G18KT 10SM CLR 13/01 A2988 RMK AO2 SLP119 T01330006
2026-03-21 17:53:00,METAR KFRG 211753Z 35011G20KT 10SM CLR 12/02 A2989 RMK AO2 SLP122 T01220017 10122 20083 50002
2026-03-21 16:53:00,METAR KFRG 211653Z 33013G23KT 10SM CLR 12/03 A2990 RMK AO2 SLP125 T01170028
2026-03-21 16:25:00,SPECI KFRG 211625Z 33011G24KT 10SM FEW027 11/03 A2990 RMK AO2 T01110033
2026-03-21 15:53:00,METAR KFRG 211553Z 33013G22KT 10SM BKN026 12/04 A2988 RMK AO2 SLP120 T01170039
2026-03-21 14:53:00,METAR KFRG 211453Z 34011G22KT 10SM BKN026 11/05 A2989 RMK AO2 SLP120 T01060050 53028
2026-03-21 14:43:00,SPECI KFRG 211443Z 34011G22KT 10SM FEW021 BKN026 11/06 A2988 RMK AO2 T01060056
2026-03-21 14:09:00,SPECI KFRG 211409Z 33011G19KT 10SM FEW018 BKN030 11/06 A2987 RMK AO2 T01060061
2026-03-21 14:00:00,SPECI KFRG 211400Z 34011G18KT 10SM FEW018 BKN029 11/06 A2986 RMK AO2 T01110061
2026-03-21 13:53:00,METAR KFRG 211353Z 34010G19KT 10SM SCT019 SCT029 11/06 A2986 RMK AO2 SLP110 T01060061
2026-03-21 12:53:00,METAR KFRG 211253Z 36010KT 6SM BR FEW020 10/08 A2982 RMK AO2 SLP097 T01000078
2026-03-21 12:40:00,SPECI KFRG 211240Z 35007KT 5SM BR SCT005 SCT018 09/08 A2982 RMK AO2 T00940078
2026-03-21 12:28:00,SPECI KFRG 211228Z 35007KT 3SM BR BKN005 OVC018 09/08 A2982 RMK AO2 CIG 003V008 T00940078
2026-03-21 12:15:00,SPECI KFRG 211215Z 35007KT 2SM BR OVC004 09/08 A2982 RMK AO2 T00890078
2026-03-21 11:53:00,METAR KFRG 211153Z 35008KT 1 3/4SM BR BKN006 08/07 A2980 RMK AO2 SLP092 T00780072 10078 20044 53025
2026-03-21 11:45:00,SPECI KFRG 211145Z 36004KT 2SM BR SCT006 06/06 A2980 RMK AO2 T00610056
2026-03-21 10:53:00,METAR KFRG 211053Z 22005KT 2SM BR SCT055 05/04 A2977 RMK AO2 SLP081 T00500044
2026-03-21 09:53:00,METAR KFRG 210953Z AUTO 26003KT 4SM BR SCT055 05/04 A2976 RMK AO2 SLP077 T00500044
2026-03-21 08:53:00,METAR KFRG 210853Z AUTO 00000KT 6SM BR CLR 05/04 A2973 RMK AO2 SLP067 T00500044 58011
2026-03-21 08:10:00,SPECI KFRG 210810Z AUTO 00000KT 7SM SCT011 OVC050 06/05 A2974 RMK AO2 T00610050
2026-03-21 07:53:00,METAR KFRG 210753Z AUTO 27003KT 7SM BKN012 OVC048 06/04 A2975 RMK AO2 SLP073 T00560044
2026-03-21 07:29:00,SPECI KFRG 210729Z AUTO 21003KT 7SM BKN012 OVC047 06/04 A2974 RMK AO2 T00560044
2026-03-21 06:53:00,METAR KFRG 210653Z AUTO 00000KT 8SM SCT045 06/04 A2975 RMK AO2 SLP074 T00560044
2026-03-21 06:15:00,SPECI KFRG 210615Z AUTO 24003KT 9SM FEW013 BKN044 06/04 A2976 RMK AO2 T00610044
2026-03-21 05:53:00,METAR KFRG 210553Z AUTO 21004KT 9SM OVC014 07/04 A2976 RMK AO2 SLP079 60000 T00670044 10067 20061 56010
2026-03-21 05:48:00,SPECI KFRG 210548Z AUTO 21003KT 9SM OVC014 07/05 A2976 RMK AO2
2026-03-21 04:53:00,METAR KFRG 210453Z AUTO 22008KT 9SM FEW015 BKN019 BKN044 07/04 A2977 RMK AO2 RAB0354E17 SLP082 P0000 T00670044 400940017
2026-03-21 03:53:00,METAR KFRG 210353Z AUTO 22009KT 9SM FEW025 BKN040 OVC048 07/04 A2979 RMK AO2 RAE03 SLP088 P0000 T00670039
2026-03-21 02:53:00,METAR KFRG 210253Z AUTO 20012KT 9SM -RA OVC060 06/04 A2980 RMK AO2 SLP092 P0000 60000 T00610039 58012
2026-03-21 01:53:00,METAR KFRG 210153Z AUTO 20012KT 8SM -RA OVC065 06/03 A2983 RMK AO2 SLP102 P0000 T00610033
2026-03-21 00:53:00,METAR KFRG 210053Z AUTO 20012KT 6SM -RA OVC060 07/03 A2985 RMK AO2 SLP108 P0000 T00670033
2026-03-20 23:53:00,METAR KFRG 202353Z AUTO 21014G28KT 10SM -RA OVC070 07/03 A2983 RMK AO2 PK WND 19031/2330 RAB24 SLP103 P0000 60000 T00670028 10094 20067 55001
2026-03-20 22:53:00,METAR KFRG 202253Z 19021G33KT 10SM SCT100 BKN120 07/02 A2982 RMK AO2 PK WND 20033/2249 SLP099 T00720017
2026-03-20 21:53:00,METAR KFRG 202153Z 20019G30KT 10SM CLR 07/01 A2983 RMK AO2 PK WND 21033/2123 SLP100 T00720011
2026-03-20 20:53:00,METAR KFRG 202053Z 19023G33KT 10SM CLR 08/01 A2984 RMK AO2 PK WND 19041/2037 SLP104 T00780011 56053
2026-03-20 19:53:00,METAR KFRG 201953Z 19020G33KT 10SM CLR 09/01 A2987 RMK AO2 PK WND 18036/1906 PRESFR SLP116 T00890006 $
2026-03-20 18:53:00,METAR KFRG 201853Z 19021G31KT 10SM CLR 09/01 A2993 RMK AO2 PK WND 21036/1825 SLP136 T00940011 $
2026-03-20 17:53:00,METAR KFRG 201753Z 19016KT CLR 09/02 A3000 RMK AO2 PK WND 19026/1723 SLP157 T00890017 10094 20028 58032 $
2026-03-20 16:53:00,METAR KFRG 201653Z 19014KT 10SM CLR 08/02 A3003 RMK AO2 SLP170 T00830017
2026-03-20 15:53:00,METAR KFRG 201553Z 20012KT 10SM CLR 08/00 A3008 RMK AO2 SLP186 T00780000
2026-03-20 14:53:00,METAR KFRG 201453Z 18009KT 10SM CLR 07/00 A3009 RMK AO2 SLP190 T00720000 58015
2026-03-20 13:53:00,METAR KFRG 201353Z 21007KT 10SM CLR 07/01 A3011 RMK AO2 SLP197 T00720006
2026-03-20 12:53:00,METAR KFRG 201253Z 21007KT 10SM CLR 06/M01 A3013 RMK AO2 SLP203 T00561006
2026-03-20 11:53:00,METAR KFRG 201153Z AUTO 22003KT 10SM CLR 03/M01 A3014 RMK AO2 SLP205 T00281006 10039 20017 53005
2026-03-20 10:53:00,METAR KFRG 201053Z AUTO 22003KT 10SM CLR 02/M01 A3013 RMK AO2 SLP202 T00221006
2026-03-20 09:53:00,METAR KFRG 200953Z AUTO 20004KT 10SM FEW055 02/M01 A3012 RMK AO2 SLP199 T00221011
2026-03-20 08:53:00,METAR KFRG 200853Z AUTO 22006KT 10SM BKN055 03/M02 A3012 RMK AO2 SLP200 T00331017 58023
2026-03-20 07:53:00,METAR KFRG 200753Z AUTO 21007KT 10SM BKN055 03/00 A3015 RMK AO2 SLP208 T00330000
2026-03-20 06:53:00,METAR KFRG 200653Z AUTO 21006KT 10SM OVC055 04/00 A3017 RMK AO2 SLP216 T00390000
2026-03-20 05:53:00,METAR KFRG 200553Z AUTO 21006KT 10SM OVC050 04/01 A3019 RMK AO2 SLP223 T00390006 10039 20011 56004
2026-03-20 04:53:00,METAR KFRG 200453Z AUTO 20007KT 10SM FEW060 OVC085 03/01 A3019 RMK AO2 SLP224 T00330006 400441033
2026-03-20 03:53:00,METAR KFRG 200353Z AUTO 18006KT 10SM SCT070 OVC085 03/00 A3020 RMK AO2 SLP225 T00330000
2026-03-20 02:53:00,METAR KFRG 200253Z 16004KT 10SM BKN075 02/M01 A3020 RMK AO2 SLP227 T00221011 58002
2026-03-20 01:53:00,METAR KFRG 200153Z 17004KT 10SM OVC080 02/M02 A3021 RMK AO2 SLP230 T00221017
2026-03-20 00:53:00,METAR KFRG 200053Z 14003KT 10SM OVC095 02/M03 A3021 RMK AO2 SLP231 T00171028
2026-03-19 23:53:00,METAR KFRG 192353Z 20005KT 10SM CLR 02/M03 A3021 RMK AO2 SLP229 T00171028 10044 20017 53004
2026-03-19 22:53:00,METAR KFRG 192253Z 19006KT 10SM CLR 03/M04 A3019 RMK AO2 SLP224 T00281044
2026-03-19 21:53:00,METAR KFRG 192153Z 19007KT 10SM OVC065 04/M06 A3019 RMK AO2 SLP225 T00391056
2026-03-19 20:53:00,METAR KFRG 192053Z 18005KT 10SM OVC060 03/M06 A3019 RMK AO2 SLP225 T00331056 58026
2026-03-19 19:53:00,METAR KFRG 191953Z 20006KT 10SM OVC060 03/M07 A3022 RMK AO2 SLP234 T00331072
2026-03-19 18:53:00,METAR KFRG 191853Z 19006KT 10SM OVC065 03/M07 A3025 RMK AO2 SLP242 T00331067
2026-03-19 17:53:00,METAR KFRG 191753Z 19007KT 10SM OVC070 03/M09 A3027 RMK AO2 SLP251 T00331089 10033 21006 58016
2026-03-19 16:53:00,METAR KFRG 191653Z 22004KT 10SM FEW050 OVC075 03/M06 A3030 RMK AO2 SLP259 T00281061
2026-03-19 15:53:00,METAR KFRG 191553Z 18009KT 10SM BKN050 OVC070 03/M06 A3031 RMK AO2 SLP263 T00281061
2026-03-19 14:53:00,METAR KFRG 191453Z 17006KT 10SM FEW055 OVC075 03/M06 A3032 RMK AO2 SLP266 T00281061 58001
2026-03-19 13:53:00,METAR KFRG 191353Z 17007KT 10SM BKN060 OVC085 03/M06 A3032 RMK AO2 SLP268 T00281061
2026-03-19 12:53:00,METAR KFRG 191253Z 00000KT 10SM OVC110 01/M06 A3032 RMK AO2 SLP266 T00111056
2026-03-19 11:53:00,METAR KFRG 191153Z 00000KT 10SM BKN100 M01/M06 A3032 RMK AO2 SLP267 T10111056 11011 21028 55006
2026-03-19 10:53:00,METAR KFRG 191053Z 00000KT 10SM CLR M02/M06 A3032 RMK AO2 SLP266 T10171061
2026-03-19 09:53:00,METAR KFRG 190953Z AUTO 08003KT 10SM SCT090 SCT110 M02/M06 A3033 RMK AO2 SLP269 T10221061
2026-03-19 08:53:00,METAR KFRG 190853Z AUTO 00000KT 10SM CLR M02/M06 A3034 RMK AO2 SLP274 T10171061 55008
2026-03-19 07:53:00,METAR KFRG 190753Z AUTO 00000KT 10SM OVC120 M02/M07 A3033 RMK AO2 SLP273 T10171067
2026-03-19 06:53:00,METAR KFRG 190653Z AUTO 00000KT 10SM OVC120 M02/M07 A3035 RMK AO2 SLP277 T10171072
2026-03-19 05:53:00,METAR KFRG 190553Z AUTO 00000KT 10SM OVC120 M02/M08 A3036 RMK AO2 SLP282 T10221078 11011 21039 56012
2026-03-19 04:53:00,METAR KFRG 190453Z AUTO 00000KT 10SM FEW120 M03/M08 A3037 RMK AO2 SLP283 T10331083 400171039
2026-03-19 03:53:00,METAR KFRG 190353Z AUTO 00000KT 10SM CLR M03/M08 A3038 RMK AO2 SLP289 T10331083
2026-03-19 02:53:00,METAR KFRG 190253Z 00000KT 10SM CLR M02/M09 A3040 RMK AO2 SLP294 T10171089 50002
2026-03-19 01:53:00,METAR KFRG 190153Z 00000KT 10SM CLR M01/M09 A3040 RMK AO2 SLP296 T10111094
2026-03-19 00:53:00,METAR KFRG 190053Z 17005KT 10SM CLR M02/M09 A3040 RMK AO2 SLP294 T10171094
2026-03-18 23:53:00,METAR KFRG 182353Z 18006KT 10SM CLR M01/M09 A3039 RMK AO2 SLP292 T10111094 10017 21011 55005
2026-03-18 22:53:00,METAR KFRG 182253Z 16008KT 10SM CLR M01/M10 A3038 RMK AO2 SLP289 T10111100
2026-03-18 21:53:00,METAR KFRG 182153Z 15008KT 10SM CLR 00/M11 A3040 RMK AO2 SLP294 T00001106
2026-03-18 20:53:00,METAR KFRG 182053Z 18011KT 10SM CLR 01/M12 A3041 RMK AO2 SLP296 T00061117 55003
2026-03-18 19:53:00,METAR KFRG 181953Z 20011G18KT 10SM CLR 01/M12 A3040 RMK AO2 SLP296 T00111122
2026-03-18 18:53:00,METAR KFRG 181853Z 20010G16KT 10SM CLR 01/M12 A3041 RMK AO2 SLP298 T00111122
2026-03-18 17:53:00,METAR KFRG 181753Z VRB04KT 10SM CLR 01/M14 A3041 RMK AO2 SLP299 T00111144 10011 21033 53009
2026-03-18 17:31:00,SPECI KFRG 181731Z VRB03KT 10SM CLR 01/M14 A3042 RMK AO2 T00061144
2026-03-18 16:53:00,METAR KFRG 181653Z 00000KT 10SM CLR 00/M14 A3041 RMK AO2 SLP298 T00001144
2026-03-18 15:53:00,METAR KFRG 181553Z 35008KT 10SM CLR M01/M14 A3038 RMK AO2 SLP288 T10111144
2026-03-18 14:53:00,METAR KFRG 181453Z 36012KT 10SM CLR M02/M15 A3039 RMK AO2 SLP290 T10171150 58002
2026-03-18 13:53:00,METAR KFRG 181353Z 33011KT 10SM CLR M02/M15 A3042 RMK AO2 SLP300 T10221150
2026-03-18 12:53:00,METAR KFRG 181253Z 30007KT 10SM CLR M02/M15 A3042 RMK AO2 SLP302 T10221150
2026-03-18 11:53:00,METAR KFRG 181153Z 29006KT 10SM CLR M03/M14 A3039 RMK AO2 SLP292 T10331144 11006 21039 53039
2026-03-18 10:53:00,METAR KFRG 181053Z 31006KT 10SM CLR M03/M15 A3034 RMK AO2 SLP275 T10331150
2026-03-18 09:53:00,METAR KFRG 180953Z AUTO 32007KT 10SM CLR M03/M16 A3031 RMK AO2 SLP265 T10331161
2026-03-18 08:53:00,METAR KFRG 180853Z AUTO 31007KT 10SM CLR M03/M15 A3028 RMK AO2 SLP253 T10281150 53023
2026-03-18 07:53:00,METAR KFRG 180753Z AUTO 31007G15KT 10SM CLR M02/M14 A3024 RMK AO2 SLP242 T10221144
2026-03-18 06:53:00,METAR KFRG 180653Z AUTO 33005KT 10SM CLR M02/M12 A3023 RMK AO2 SLP238 T10171122
2026-03-18 05:53:00,METAR KFRG 180553Z AUTO 31011G19KT 10SM FEW033 FEW060 M01/M09 A3021 RMK AO2 SLP229 T10061094 10028 21011 51026
2026-03-18 04:53:00,METAR KFRG 180453Z AUTO 29007KT 10SM CLR M01/M11 A3018 RMK AO2 SLP220 T10061106 401171006
2026-03-18 03:53:00,METAR KFRG 180353Z AUTO 27010KT 10SM CLR 00/M11 A3016 RMK AO2 SLP213 T00001111
2026-03-18 02:53:00,METAR KFRG 180253Z 29009G14KT 10SM FEW047 FEW060 01/M09 A3013 RMK AO2 SLP203 T00061094 53040
2026-03-18 01:53:00,METAR KFRG 180153Z 31009G18KT 10SM BKN075 OVC085 02/M11 A3008 RMK AO2 SLP187 T00171111
2026-03-18 00:53:00,METAR KFRG 180053Z 30008G16KT 10SM OVC080 02/M11 A3005 RMK AO2 PK WND 27027/0005 SLP176 T00221111
2026-03-17 23:53:00,METAR KFRG 172353Z 28012KT 10SM BKN080 03/M14 A3001 RMK AO2 SLP163 T00281144 10056 20022 51039
2026-03-17 22:53:00,METAR KFRG 172253Z 27013G25KT 10SM FEW075 03/M14 A2998 RMK AO2 PK WND 28028/2203 SLP151 T00281144
2026-03-17 21:53:00,METAR KFRG 172153Z 28016G25KT 10SM CLR 04/M14 A2993 RMK AO2 PK WND 26031/2120 SLP136 T00391139
2026-03-17 20:53:00,METAR KFRG 172053Z 28014G32KT 10SM CLR 04/M13 A2990 RMK AO2 PK WND 26032/1957 SLP124 T00441133 53016
2026-03-17 19:53:00,METAR KFRG 171953Z 29010G30KT 10SM CLR 05/M13 A2987 RMK AO2 PK WND 27035/1908 SLP114 T00501128
2026-03-17 18:53:00,METAR KFRG 171853Z 27018G27KT 10SM CLR 04/M12 A2986 RMK AO2 PK WND 27031/1817 SLP110 T00441122
2026-03-17 17:53:00,METAR KFRG 171753Z 30013G29KT 10SM CLR 05/M11 A2985 RMK AO2 PK WND 26031/1711 SLP107 T00501106 10050 20017 50004
2026-03-17 16:53:00,METAR KFRG 171653Z 28018G32KT 10SM CLR 04/M11 A2986 RMK AO2 PK WND 29032/1650 SLP111 T00391111
2026-03-17 15:53:00,METAR KFRG 171553Z 28017G30KT 10SM CLR 03/M10 A2985 RMK AO2 PK WND 29036/1513 SLP108 T00331100
2026-03-17 14:53:00,METAR KFRG 171453Z 26016G25KT 10SM CLR 03/M10 A2984 RMK AO2 PK WND 26033/1415 SLP104 T00281100 51034
2026-03-17 13:53:00,METAR KFRG 171353Z 26019G28KT 10SM CLR 03/M09 A2981 RMK AO2 PK WND 29028/1309 PRESRR SLP094 T00281094
2026-03-17 12:53:00,METAR KFRG 171253Z 26016G28KT 10SM CLR 02/M09 A2977 RMK AO2 PK WND 29031/1227 SLP080 T00221094
2026-03-17 11:53:00,METAR KFRG 171153Z 27011KT 10SM CLR 02/M08 A2974 RMK AO2 PK WND 29032/1116 SLP069 60000 70072 T00171083 10094 20017 51053
2026-03-17 10:53:00,METAR KFRG 171053Z 27012G27KT 10SM CLR 02/M09 A2969 RMK AO2 PK WND 26039/1006 SLP053 T00171089
2026-03-17 09:53:00,METAR KFRG 170953Z AUTO 27016G29KT 10SM CLR 03/M06 A2964 RMK AO2 PK WND 28029/0951 SLP035 T00281061
2026-03-17 08:53:00,METAR KFRG 170853Z AUTO 27010G25KT 10SM SCT032 04/M03 A2958 RMK AO2 PK WND 25027/0756 SLP016 60000 T00391028 51065
2026-03-17 07:53:00,METAR KFRG 170753Z AUTO 27017G32KT 10SM BKN075 05/M01 A2952 RMK AO2 PK WND 24033/0659 SLP996 T00501011
2026-03-17 06:53:00,METAR KFRG 170653Z AUTO 24017G27KT 10SM FEW018 FEW024 OVC060 08/04 A2947 RMK AO2 PK WND 27031/0616 RAB00E35 SLP980 P0000 T00780044
2026-03-17 06:32:00,SPECI KFRG 170632Z AUTO 24018G24KT 10SM -RA SCT019 BKN026 OVC050 08/06 A2945 RMK AO2 PK WND 27031/0616 RAB00 P0000 T00780056
2026-03-17 05:53:00,METAR KFRG 170553Z AUTO 27011G20KT 10SM BKN042 OVC049 09/06 A2939 RMK AO2 PK WND 19056/0500 WSHFT 0502 RAB0455E31 SLP951 P0000 60002 T00940061 10117 20089 53002
2026-03-17 05:31:00,SPECI KFRG 170531Z AUTO 25020G33KT 10SM FEW010 BKN040 OVC100 09/06 A2938 RMK AO2 PK WND 19056/0500 WSHFT 0502 RAB0455E31 PRESRR P0000 T00890061
2026-03-17 05:20:00,SPECI KFRG 170520Z AUTO 24019G34KT 10SM -RA SCT008 BKN028 OVC100 09/07 A2935 RMK AO2 PK WND 19056/0500 WSHFT 0502 RAB0455 P0000 T00890067
2026-03-17 04:53:00,METAR KFRG 170453Z AUTO 19030G47KT 6SM BR OVC006 11/11 A2930 RMK AO2 PK WND 17047/0431 SLP923 T01110106 401280072
2026-03-17 04:30:00,SPECI KFRG 170430Z AUTO 17028G44KT 7SM OVC005 12/11 A2929 RMK AO2 PK WND 17044/0422 T01170111
2026-03-17 04:08:00,SPECI KFRG 170408Z AUTO 18027G41KT 7SM OVC004 12/11 A2930 RMK AO2 PK WND 16041/0404 CIG 002V007 T01170111
2026-03-17 03:53:00,METAR KFRG 170353Z AUTO 17026G41KT 4SM BR OVC002 11/11 A2932 RMK AO2 PK WND 17043/0336 RAE39 SLP928 P0002 T01110106
2026-03-17 03:23:00,SPECI KFRG 170323Z AUTO 17023G35KT 1 1/2SM RA BR OVC002 11/11 A2933 RMK AO2 PK WND 16037/0313 P0001 T01110111
2026-03-17 02:53:00,METAR KFRG 170253Z AUTO 17024G31KT 3/4SM -RA BR VV002 11/11 A2938 RMK AO2 PK WND 16031/0252 RAB51 PRESFR SLP949 P0000 60000 T01060106 58024
2026-03-17 01:53:00,METAR KFRG 170153Z 17017G27KT 1/2SM FG VV002 11/11 A2942 RMK AO2 PK WND 18034/0058 SLP962 T01110106
2026-03-17 01:48:00,SPECI KFRG 170148Z 17017G27KT 1/2SM FG VV002 11/11 A2942 RMK AO2 PK WND 18034/0058
2026-03-17 01:41:00,SPECI KFRG 170141Z 17020G27KT 1SM BR OVC002 11/11 A2943 RMK AO2 PK WND 18034/0058 T01110111
2026-03-17 01:34:00,SPECI KFRG 170134Z 18017G27KT 2SM BR OVC002 11/11 A2943 RMK AO2 PK WND 18034/0058 T01110111
2026-03-17 00:53:00,METAR KFRG 170053Z 17020G32KT 4SM BR OVC002 11/11 A2945 RMK AO2 PK WND 17034/0033 RAE41 PRESFR SLP973 P0000 T01110111
2026-03-17 00:08:00,SPECI KFRG 170008Z 18019G27KT 6SM RA BR OVC003 11/11 A2950 RMK AO2 PK WND 19027/0002 LTG DSNT SE P0000 T01060106
2026-03-16 23:53:00,METAR KFRG 162353Z 18017G29KT 8SM -RA OVC005 11/11 A2951 RMK AO2 PK WND 17036/2307 LTG DSNT NE AND SE SLP993 P0026 60069 T01110106 10128 20111 56027
2026-03-16 23:41:00,SPECI KFRG 162341Z 19018G32KT 5SM RA BR OVC005 12/11 A2952 RMK AO2 PK WND 17036/2307 P0026 T01170111
2026-03-16 23:27:00,SPECI KFRG 162327Z 20022G34KT 2SM +RA BR OVC005 13/12 A2952 RMK AO2 PK WND 17036/2307 P0021 T01280122
2026-03-16 23:24:00,SPECI KFRG 162324Z 20022G34KT 1 3/4SM VCTS +RA BR OVC005 13/12 A2953 RMK AO2 PK WND 17036/2307 P0018 T01280122
2026-03-16 23:16:00,SPECI KFRG 162316Z 18023G36KT 2 1/2SM VCTS +RA BR OVC003 12/12 A2952 RMK AO2 PK WND 17036/2307 P0009 T01220117
2026-03-16 22:53:00,METAR KFRG 162253Z 16021G30KT 9SM -RA OVC003 11/11 A2952 RMK AO2 PK WND 16034/2216 SLP997 P0020 T01110106
2026-03-16 22:46:00,SPECI KFRG 162246Z 16021G32KT 8SM -RA OVC003 11/11 A2952 RMK AO2 PK WND 16034/2216 P0020 T01110106
2026-03-16 22:23:00,SPECI KFRG 162223Z 16020G34KT 3SM RA BR OVC005 11/11 A2954 RMK AO2 PK WND 16034/2216 P0020 T01110106
2026-03-16 22:16:00,SPECI KFRG 162216Z 17022G34KT 2 1/2SM RA BR OVC004 11/11 A2955 RMK AO2 PK WND 16034/2216 P0019 T01110106
2026-03-16 21:53:00,METAR KFRG 162153Z 19019G27KT 1 3/4SM +RA BR OVC004 11/11 A2957 RMK AO2 PK WND 18030/2121 VIS 1V4 SLP015 P0016 T01110106
2026-03-16 21:15:00,SPECI KFRG 162115Z 18021G29KT 6SM -RA BR OVC003 12/12 A2958 RMK AO2 PK WND 16029/2109 P0010 T01170117
2026-03-16 21:07:00,SPECI KFRG 162107Z 17018KT 2SM RA BR OVC003 11/11 A2958 RMK AO2 PK WND 17026/2056 VIS 3/4V5 P0010 T01110111
2026-03-16 21:00:00,SPECI KFRG 162100Z 17018G29KT 3/4SM +RA BR VV003 11/11 A2958 RMK AO2 PK WND 17026/2056 P0009 T01110106
2026-03-16 20:53:00,METAR KFRG 162053Z 18019G29KT 1 1/4SM +RA BR OVC002 11/11 A2959 RMK AO2 PK WND 17031/2015 RAB39 SLP021 P0007 60007 T01110106 58029
2026-03-16 20:23:00,SPECI KFRG 162023Z 18021G31KT 1SM BR VV002 12/11 A2961 RMK AO2 PK WND 17031/2015 T01170111
2026-03-16 19:53:00,METAR KFRG 161953Z 18020G32KT 1/4SM FG VV002 12/12 A2962 RMK AO2 PK WND 18032/1945 SLP032 T01170117
2026-03-16 19:25:00,SPECI KFRG 161925Z 18019G31KT 1/4SM FG VV002 12/12 A2963 RMK AO2 PK WND 19031/1920 T01170117
2026-03-16 19:16:00,SPECI KFRG 161916Z 18019G29KT 1/2SM FG OVC003 12/11 A2964 RMK AO2 PK WND 18029/1909 TWR VIS 1 T01170111
2026-03-16 18:53:00,METAR KFRG 161853Z 18017G29KT 1SM BR OVC004 12/11 A2965 RMK AO2 PK WND 18031/1822 SFC VIS 5 SLP040 T01170111
2026-03-16 18:41:00,SPECI KFRG 161841Z 19020G31KT 10SM OVC004 12/12 A2966 RMK AO2 PK WND 18031/1822 CIG 002V006 T01220117
2026-03-16 18:31:00,SPECI KFRG 161831Z 18022G31KT 8SM OVC002 12/12 A2967 RMK AO2 PK WND 18031/1822 T01220117
2026-03-16 17:53:00,METAR KFRG 161753Z 18017G29KT 1/4SM FG OVC002 11/11 A2968 RMK AO2 PK WND 19031/1714 SFC VIS 1/2 SLP050 60001 T01110111 10122 20106 58026
2026-03-16 16:53:00,METAR KFRG 161653Z 18016KT 1/4SM FG VV002 12/12 A2971 RMK AO2 PK WND 18027/1631 SFC VIS 1/2 RAE11 SLP060 P0000 T01170117
2026-03-16 15:53:00,METAR KFRG 161553Z 19016G23KT 1/4SM -RA FG VV002 11/11 A2973 RMK AO2 PK WND 20027/1513 RAB35 SLP067 P0000 T01110111
2026-03-16 14:53:00,METAR KFRG 161453Z 18015G31KT 1/4SM FG VV002 11/11 A2975 RMK AO2 PK WND 19031/1447 TWR VIS 1/4 SLP076 60001 T01110111 56018
2026-03-16 13:53:00,METAR KFRG 161353Z 17016G26KT 1/4SM FG VV002 12/12 A2977 RMK AO2 PK WND 17028/1303 SFC VIS 1/2 RAE01 SLP082 P0000 T01170117
2026-03-16 12:53:00,METAR KFRG 161253Z 17019G25KT 1/4SM -RA BR OVC002 12/11 A2978 RMK AO2 PK WND 17033/1204 SFC VIS 1 1/4 RAB37 SLP085 P0001 T01170111
2026-03-16 11:53:00,METAR KFRG 161153Z 16018G31KT 1/4SM FG VV002 11/11 A2981 RMK AO2 PK WND 15034/1131 TWR VIS 1/4 RAE01 SLP094 P0000 60042 70042 T01060106 10111 20083 56033
2026-03-16 10:53:00,METAR KFRG 161053Z 15022G30KT 1/4SM -RA FG VV002 11/11 A2983 RMK AO2 PK WND 17030/1023 RAB53 SLP101 P0000 T01110106
2026-03-16 10:16:00,SPECI KFRG 161016Z AUTO 15016G28KT 3/4SM BR VV002 10/10 A2986 RMK AO2 PK WND 15028/0954 T01000100
2026-03-16 10:01:00,SPECI KFRG 161001Z AUTO 15019G28KT 1 1/4SM BR OVC002 10/09 A2987 RMK AO2 PK WND 15028/0954 T01000094
2026-03-16 09:53:00,METAR KFRG 160953Z AUTO 15019G28KT 2SM BR OVC002 10/09 A2987 RMK AO2 PK WND 14032/0920 RAE35 SLP117 P0000 T01000094
2026-03-16 09:47:00,SPECI KFRG 160947Z AUTO 15020G27KT 2 1/2SM BR OVC002 10/09 A2988 RMK AO2 PK WND 14032/0920 RAE35 P0000
2026-03-16 09:02:00,SPECI KFRG 160902Z AUTO 13017G29KT 6SM -RA BR OVC004 09/08 A2990 RMK AO2 PK WND 12029/0855 P0000 T00890083
2026-03-16 08:53:00,METAR KFRG 160853Z AUTO 14017G29KT 7SM -RA OVC005 09/08 A2990 RMK AO2 PK WND 14029/0833 CIG 003V009 SLP127 P0000 60042 T00890083 56054
2026-03-16 07:53:00,METAR KFRG 160753Z AUTO 12018G24KT 7SM -RA BKN007 OVC023 08/08 A2994 RMK AO2 PK WND 11034/0701 CIG 004V012 SLP137 P0028 T00830078
2026-03-16 07:32:00,SPECI KFRG 160732Z AUTO 13020G29KT 3SM RA BR BKN007 OVC019 08/08 A2995 RMK AO2 PK WND 11034/0701 PRESFR P0027 T00830078
2026-03-16 07:20:00,SPECI KFRG 160720Z AUTO 12019G28KT 2SM +RA BR SCT007 OVC020 08/08 A2997 RMK AO2 PK WND 11034/0701 PRESFR P0023 T00830078
2026-03-16 07:12:00,SPECI KFRG 160712Z AUTO 12014G26KT 3SM +RA BR SCT009 OVC020 08/07 A2998 RMK AO2 PK WND 11034/0701 P0013 T00830072
2026-03-16 07:02:00,SPECI KFRG 160702Z AUTO 12020G34KT 2 1/2SM +RA BR SCT009 OVC022 08/08 A2999 RMK AO2 PK WND 11034/0701 VIS 1 3/4V4 PRESFR P0006 T00830078
2026-03-16 06:53:00,METAR KFRG 160653Z AUTO 12018G32KT 1 3/4SM +RA BR SCT009 BKN020 OVC033 08/07 A3001 RMK AO2 PK WND 12032/0650 RAB11E24B43 SLP161 P0014 T00830072
2026-03-16 06:50:00,SPECI KFRG 160650Z AUTO 12020G32KT 1 3/4SM +RA BR SCT009 BKN022 OVC033 08/07 A3001 RMK AO2 PK WND 12032/0650 RAB11E24B43 P0012
2026-03-16 06:44:00,SPECI KFRG 160644Z AUTO 12017G26KT 5SM -RA BR SCT009 BKN024 OVC033 08/07 A3002 RMK AO2 PK WND 11031/0609 RAB11E24B43 P0002 T00830072
2026-03-16 06:12:00,SPECI KFRG 160612Z AUTO 12017G31KT 8SM -RA FEW008 SCT033 OVC060 08/06 A3005 RMK AO2 PK WND 11031/0609 RAB11 P0000 T00780061
2026-03-16 05:53:00,METAR KFRG 160553Z AUTO 12018G30KT 10SM SCT036 BKN060 OVC070 08/06 A3006 RMK AO2 PK WND 11030/0545 SLP181 T00780061 10078 20050 58048
2026-03-16 04:53:00,METAR KFRG 160453Z AUTO 11012G24KT 10SM OVC060 07/05 A3012 RMK AO2 SLP201 T00720050 400720000
2026-03-16 03:53:00,METAR KFRG 160353Z AUTO 11019G28KT 10SM BKN060 07/04 A3017 RMK AO2 PK WND 12031/0321 SLP215 T00670044
2026-03-16 02:53:00,METAR KFRG 160253Z 11020G32KT 10SM CLR 07/04 A3021 RMK AO2 PK WND 11032/0253 SLP229 T00720039 58039
2026-03-16 01:53:00,METAR KFRG 160153Z 11016G27KT 10SM SCT033 06/03 A3026 RMK AO2 PK WND 10027/0151 SLP247 T00610028
2026-03-16 00:53:00,METAR KFRG 160053Z 11012G18KT 10SM BKN037 06/02 A3031 RMK AO2 SLP265 T00610022
2026-03-15 23:53:00,METAR KFRG 152353Z 10014G22KT 10SM CLR 05/02 A3032 RMK AO2 SLP268 T00500017 10050 20039 56025
2026-03-15 22:53:00,METAR KFRG 152253Z 10012G21KT 10SM OVC070 05/01 A3034 RMK AO2 SLP275 T00500006
2026-03-15 21:53:00,METAR KFRG 152153Z 10014KT 10SM OVC060 05/00 A3037 RMK AO2 SLP285 T00500000
2026-03-15 20:53:00,METAR KFRG 152053Z AUTO 11013G19KT 10SM OVC060 04/M01 A3040 RMK AO2 SLP294 T00441006 56021
2026-03-15 19:53:00,METAR KFRG 151953Z 10012KT 10SM OVC055 04/M01 A3040 RMK AO2 SLP296 T00441011
2026-03-15 18:53:00,METAR KFRG 151853Z 11013KT 10SM OVC060 04/M03 A3044 RMK AO2 SLP309 T00391028
2026-03-15 17:53:00,METAR KFRG 151753Z 11010KT 10SM OVC060 04/M03 A3046 RMK AO2 SLP314 T00441033 10056 20017 58009
2026-03-15 16:53:00,METAR KFRG 151653Z 12011KT 10SM OVC065 04/M05 A3048 RMK AO2 SLP320 T00441050
2026-03-15 15:53:00,METAR KFRG 151553Z 14010KT 10SM OVC065 05/M04 A3048 RMK AO2 SLP323 T00501044
2026-03-15 14:53:00,METAR KFRG 151453Z 10004KT 10SM BKN065 05/M07 A3049 RMK AO2 SLP324 T00501067 51010
2026-03-15 13:53:00,METAR KFRG 151353Z 07006KT 10SM BKN100 03/M06 A3048 RMK AO2 SLP320 T00331061
2026-03-15 12:53:00,METAR KFRG 151253Z 05006KT 10SM BKN110 02/M06 A3049 RMK AO2 SLP326 T00221061
2026-03-15 11:53:00,METAR KFRG 151153Z 07006KT 10SM CLR 02/M06 A3046 RMK AO2 SLP314 T00171056 10028 20000 51021
2026-03-15 10:53:00,METAR KFRG 151053Z AUTO 05004KT 10SM CLR 02/M06 A3046 RMK AO2 SLP314 T00171056
2026-03-15 09:53:00,METAR KFRG 150953Z AUTO 05004KT 10SM OVC120 02/M07 A3044 RMK AO2 SLP308 T00171067
2026-03-15 08:53:00,METAR KFRG 150853Z AUTO 03006KT 10SM BKN090 OVC100 02/M07 A3040 RMK AO2 SLP293 T00171067 51007
