Time_recorded,METAR
2026-05-02 15:30:00,METAR RJGG 021530Z AUTO 36007KT 9999 NSC 17/13 Q1012 NOSIG
2026-05-02 15:00:00,METAR RJGG 021500Z AUTO 36006KT 9999 NSC 17/12 Q1012 NOSIG
2026-05-02 14:30:00,METAR RJGG 021430Z AUTO 35002KT 9999 NSC 18/12 Q1013 NOSIG
2026-05-02 14:00:00,METAR RJGG 021400Z AUTO 31003KT 9999 NSC 18/12 Q1013 NOSIG
2026-05-02 13:30:00,METAR RJGG 021330Z VRB01KT 9999 FEW030 BKN/// 18/12 Q1013 NOSIG
2026-05-02 13:00:00,METAR RJGG 021300Z 31002KT 9999 FEW030 BKN180 19/10 Q1012 NOSIG
2026-05-02 12:30:00,METAR RJGG 021230Z VRB01KT 9999 FEW030 BKN180 19/12 Q1013 NOSIG
2026-05-02 12:00:00,METAR RJGG 021200Z 13003KT 050V180 9999 FEW030 BKN180 19/12 Q1012 NOSIG
2026-05-02 11:30:00,METAR RJGG 021130Z VRB01KT 9999 FEW030 BKN/// 20/12 Q1012 NOSIG
2026-05-02 11:00:00,METAR RJGG 021100Z 33005KT 9999 FEW030 BKN/// 18/12 Q1012 NOSIG
2026-05-02 10:30:00,METAR RJGG 021030Z 33004KT 9999 FEW030 BKN/// 19/13 Q1011 NOSIG
2026-05-02 10:00:00,METAR RJGG 021000Z 32005KT 9999 FEW030 BKN/// 19/14 Q1011 NOSIG
2026-05-02 09:30:00,METAR RJGG 020930Z 33006KT 9999 FEW030 SCT160 BKN180 19/14 Q1011 NOSIG
2026-05-02 09:00:00,METAR RJGG 020900Z 01009KT 9999 FEW030 BKN180 22/10 Q1010 NOSIG
2026-05-02 08:30:00,METAR RJGG 020830Z 35010KT 9999 FEW030 BKN/// 21/10 Q1010 NOSIG
2026-05-02 08:00:00,METAR RJGG 020800Z 35009KT 9999 FEW030 BKN/// 22/11 Q1010 NOSIG
2026-05-02 07:30:00,METAR RJGG 020730Z 35011KT 9999 FEW030 BKN/// 22/10 Q1010 NOSIG
2026-05-02 07:00:00,METAR RJGG 020700Z 35010KT 9999 FEW030 BKN/// 23/12 Q1010 NOSIG
2026-05-02 06:30:00,METAR RJGG 020630Z 33008KT 9999 FEW030 BKN/// 22/13 Q1010 NOSIG
2026-05-02 06:00:00,METAR RJGG 020600Z 33010KT 9999 FEW030 BKN/// 23/13 Q1010 NOSIG
2026-05-02 05:30:00,METAR RJGG 020530Z 34011KT 9999 FEW030 BKN/// 24/11 Q1010 NOSIG
2026-05-02 05:00:00,METAR RJGG 020500Z 33011KT 9999 FEW030 BKN/// 23/10 Q1010 NOSIG
2026-05-02 04:30:00,METAR RJGG 020430Z 33013KT 9999 FEW030 BKN/// 22/11 Q1010 NOSIG
2026-05-02 04:00:00,METAR RJGG 020400Z 32016KT 9999 FEW030 SCT/// 21/11 Q1010 NOSIG
2026-05-02 03:30:00,METAR RJGG 020330Z 33008KT 9999 FEW030 SCT/// 22/12 Q1010 NOSIG
2026-05-02 03:00:00,METAR RJGG 020300Z 32007KT 220V010 9999 FEW020 SCT/// 21/10 Q1010 NOSIG
2026-05-02 02:30:00,METAR RJGG 020230Z VRB02KT 9999 FEW020 SCT/// 21/09 Q1010 BECMG TL0300 30005KT
2026-05-02 02:00:00,METAR RJGG 020200Z 27010KT 9999 FEW020 SCT/// 21/07 Q1010 NOSIG
2026-05-02 01:30:00,METAR RJGG 020130Z 30010KT 9999 FEW020 20/11 Q1010 NOSIG
2026-05-02 01:00:00,METAR RJGG 020100Z 31013KT 9999 FEW020 19/11 Q1010 NOSIG
2026-05-02 00:30:00,METAR RJGG 020030Z 32013KT 9999 FEW020 19/11 Q1009 NOSIG
2026-05-02 00:00:00,METAR RJGG 020000Z 32019KT 9999 FEW020 18/10 Q1009 NOSIG
2026-05-01 23:30:00,METAR RJGG 012330Z 33016KT 9999 FEW020 18/11 Q1009 NOSIG
2026-05-01 23:00:00,METAR RJGG 012300Z 34010KT 9999 FEW020 SCT/// 18/11 Q1009 NOSIG
2026-05-01 22:30:00,METAR RJGG 012230Z 32016KT 9999 FEW015 17/11 Q1009 NOSIG
2026-05-01 22:00:00,METAR RJGG 012200Z 34014KT 9999 FEW015 17/10 Q1009 NOSIG
2026-05-01 21:30:00,METAR RJGG 012130Z 34014KT 9999 FEW015 16/11 Q1008 NOSIG
2026-05-01 21:00:00,METAR RJGG 012100Z 33015KT 9999 FEW015 16/11 Q1008 NOSIG
2026-05-01 20:30:00,METAR RJGG 012030Z AUTO 32016KT 9999 FEW047 16/11 Q1008 NOSIG
2026-05-01 20:00:00,METAR RJGG 012000Z AUTO 30021KT 9999 NCD 16/11 Q1007 NOSIG
2026-05-01 19:30:00,METAR RJGG 011930Z AUTO 31018KT 9999 SCT050 16/11 Q1006 TEMPO TL2000 31024G34KT
2026-05-01 19:00:00,METAR RJGG 011900Z AUTO 31021KT 9999 SCT050 16/11 Q1006 TEMPO TL2000 31024G34KT
2026-05-01 18:30:00,METAR RJGG 011830Z AUTO 32019KT 9999 FEW050 16/10 Q1005 TEMPO 30024G34KT
2026-05-01 18:00:00,METAR RJGG 011800Z AUTO 31027KT 9999 FEW041 16/11 Q1005 TEMPO 30026G36KT
2026-05-01 17:30:00,METAR RJGG 011730Z AUTO 31026KT 9999 FEW031 SCT038 BKN040 16/12 Q1004 TEMPO TL1800 29034G44KT
2026-05-01 17:00:00,METAR RJGG 011700Z AUTO 30019KT 9999 SCT033 SCT035 BKN038 15/12 Q1004 BECMG 28034KT TEMPO 28034G44KT
2026-05-01 16:30:00,METAR RJGG 011630Z AUTO 28018KT 9999 FEW035 SCT038 BKN041 15/12 Q1004 BECMG 28034KT TEMPO 28034G44KT
2026-05-01 16:00:00,METAR RJGG 011600Z AUTO 27018KT 9999 SCT038 BKN040 OVC050 15/11 Q1004 BECMG 27034KT TEMPO 27034G44KT
2026-05-01 15:30:00,METAR RJGG 011530Z AUTO 28023KT 9999 FEW043 SCT047 BKN048 15/11 Q1003 BECMG 27034KT TEMPO 27034G44KT
2026-05-01 15:00:00,METAR RJGG 011500Z AUTO 27027G37KT 9999 FEW044 OVC050 15/11 Q1003 NOSIG
2026-05-01 14:30:00,METAR RJGG 011430Z AUTO 27031KT 9999 FEW038 BKN050 OVC060 15/11 Q1002 TEMPO 28034G44KT
2026-05-01 14:00:00,METAR RJGG 011400Z AUTO 27026KT 9999 FEW038 SCT046 BKN050 15/11 Q1002 TEMPO 27030G40KT
2026-05-01 13:30:00,METAR RJGG 011330Z 27024KT 9999 FEW020 SCT050 BKN140 15/10 Q1001 TEMPO 27030G40KT
2026-05-01 13:00:00,METAR RJGG 011300Z 27018KT 9999 FEW020 BKN050 15/09 Q1001 TEMPO 28026G36KT
2026-05-01 12:30:00,METAR RJGG 011230Z 27019KT 9999 FEW020 BKN060 15/10 Q1001 TEMPO 27026G36KT
2026-05-01 12:00:00,METAR RJGG 011200Z 26022KT 9999 VCSH FEW020 BKN060 16/09 Q1001 TEMPO 27026G36KT
2026-05-01 11:30:00,METAR RJGG 011130Z 27022KT 9999 FEW020 BKN060 16/09 Q1000 TEMPO 27028G38KT
2026-05-01 11:00:00,METAR RJGG 011100Z 27020KT 9999 VCSH FEW020 SCT045 BKN060 16/09 Q1000 TEMPO 27028G38KT
2026-05-01 10:30:00,METAR RJGG 011030Z 27023KT 9999 VCSH FEW015 SCT050 16/09 Q1000 TEMPO 27028G38KT
2026-05-01 10:00:00,METAR RJGG 011000Z 27025KT 9999 VCSH FEW015 16/10 Q0999 TEMPO 27028G38KT
2026-05-01 09:30:00,METAR RJGG 010930Z 27025KT 9999 FEW015 FEW030CB BKN120 17/10 Q0999 TEMPO 27028G38KT
2026-05-01 09:00:00,METAR RJGG 010900Z 26023KT 9999 FEW015 FEW030CB BKN160 18/10 Q0999 TEMPO 27028G38KT
2026-05-01 08:30:00,METAR RJGG 010830Z 26025KT 9999 FEW015 FEW030CB SCT170 18/11 Q0998 TEMPO 27028G38KT
2026-05-01 08:00:00,METAR RJGG 010800Z 26020KT 9999 FEW015 19/11 Q0997 TEMPO 27028G38KT
2026-05-01 07:30:00,METAR RJGG 010730Z 26024KT 9999 FEW015 19/11 Q0997 TEMPO 27028G38KT
2026-05-01 07:00:00,METAR RJGG 010700Z 26026G37KT 9999 FEW015 FEW020CB 19/12 Q0996 NOSIG
2026-05-01 06:30:00,METAR RJGG 010630Z 27026KT 9999 FEW015 FEW020CB 19/12 Q0996 TEMPO 27028G38KT
2026-05-01 06:00:00,METAR RJGG 010600Z 27025KT 9999 FEW015 FEW020CB 20/13 Q0997 TEMPO 27028G38KT
2026-05-01 05:30:00,METAR RJGG 010530Z 27019KT 9999 FEW015 SCT080 19/14 Q0997 NOSIG
2026-05-01 05:00:00,METAR RJGG 010500Z 27014KT 9999 FEW015 SCT080 20/15 Q0998 NOSIG
2026-05-01 04:30:00,METAR RJGG 010430Z 27016KT 9999 FEW015 SCT060 19/15 Q0998 NOSIG
2026-05-01 04:00:00,METAR RJGG 010400Z 27013KT 9999 FEW015 BKN060 20/15 Q0998 BECMG 25015KT
2026-05-01 03:30:00,METAR RJGG 010330Z 27015KT 9999 FEW005 BKN060 19/15 Q0998 BECMG 25015KT
2026-05-01 03:00:00,METAR RJGG 010300Z 27016KT 9999 FEW005 SCT020 BKN060 19/16 Q0998 BECMG FM0400 25010KT
2026-05-01 02:30:00,METAR RJGG 010230Z 28010KT 9999 FEW002 SCT005 BKN025 18/17 Q0999 NOSIG
2026-05-01 02:00:00,METAR RJGG 010200Z 21014KT 6000 -SHRA FEW002 SCT005 BKN015 18/17 Q0999 NOSIG
2026-05-01 01:30:00,METAR RJGG 010130Z 12018KT 8000 VCSH FEW003 SCT005 BKN007 18/17 Q0999 BECMG TL0200 24010KT FEW005 BKN015
2026-05-01 01:00:00,METAR RJGG 010100Z 11019KT 8000 -SHRA FEW003 SCT005 BKN007 18/17 Q0999 BECMG 18015KT FEW008 BKN020
2026-05-01 00:30:00,METAR RJGG 010030Z 11020KT 8000 -SHRA FEW003 SCT005 BKN007 17/17 Q1000 BECMG TL0200 FEW008 BKN020
2026-05-01 00:00:00,METAR RJGG 010000Z 07007KT 030V100 9999 -SHRA FEW003 BKN010 16/15 Q1001 BECMG TL0100 14015KT TEMPO FEW003 BKN008
2026-04-30 23:30:00,METAR RJGG 302330Z 36009KT 9999 -SHRA FEW003 SCT008 BKN012 15/15 Q1001 TEMPO FEW003 BKN008 BECMG 14015KT
2026-04-30 23:00:00,METAR RJGG 302300Z 35011KT 320V040 5000 -SHRA BR FEW003 SCT008 BKN012 15/15 Q1002 TEMPO TL0000 3000 TSRA BR FEW003 BKN008 FEW030CB BECMG TL0000 14015KT
2026-04-30 22:30:00,METAR RJGG 302230Z 09007KT 060V130 4500 -SHRA BR FEW005 BKN013 BKN020 17/16 Q1003 TEMPO TL0000 3000 TSRA BR FEW003 BKN008 FEW030CB
2026-04-30 22:00:00,METAR RJGG 302200Z 11012KT 9999 -SHRA FEW005 SCT012 BKN015 17/16 Q1003 TEMPO 3000 TSRA BR FEW003 BKN008 FEW030CB
2026-04-30 21:30:00,METAR RJGG 302130Z VRB02KT 7000 -SHRA FEW005 SCT010 BKN013 17/15 Q1003 BECMG TL2230 12015KT TEMPO 3000 TSRA BR FEW003 BKN008 FEW030CB
2026-04-30 21:00:00,METAR RJGG 302100Z 06006KT 010V140 9999 -SHRA FEW005 SCT008 BKN010 16/15 Q1004 TEMPO 3000 TSRA BR FEW003 BKN008 FEW030CB BECMG TL2130 12015KT
2026-04-30 20:30:00,METAR RJGG 302030Z AUTO 10009KT 9000 -RA SCT009 BKN012 OVC050 //////TCU 16/15 Q1005 TEMPO 3000 TSRA BR FEW003 BKN008 FEW030CB
2026-04-30 20:00:00,METAR RJGG 302000Z AUTO 12017KT 3300 -RA BR FEW010 BKN038 BKN041 //////TCU 16/15 Q1005 TEMPO 3000 TSRA BR FEW003 BKN008 FEW030CB
2026-04-30 19:30:00,METAR RJGG 301930Z AUTO 11016KT 4100 -RA BR OVC019 //////TCU 17/15 Q1006 TEMPO 3000 SHRA BR FEW003 BKN008
2026-04-30 19:00:00,METAR RJGG 301900Z AUTO 10017KT 9999 -RA OVC020 16/15 Q1006 TEMPO 3000 RA BR FEW003 BKN008
2026-04-30 18:30:00,METAR RJGG 301830Z AUTO 11017KT 9999 -RA FEW012 SCT015 OVC020 //////TCU 16/15 Q1007 TEMPO 3000 RA BR FEW003 BKN008
2026-04-30 18:00:00,METAR RJGG 301800Z AUTO 10021KT 9999 FEW009 BKN010 OVC020 //////TCU 16/15 Q1008 TEMPO 3000 RA BR FEW003 BKN008
2026-04-30 17:30:00,METAR RJGG 301730Z AUTO 10020KT 9999 FEW008 BKN010 OVC100 16/15 Q1008 TEMPO 3000 RA BR FEW003 BKN008
2026-04-30 17:00:00,METAR RJGG 301700Z AUTO 10022KT 7000 RA FEW015 SCT080 BKN100 15/15 Q1008 TEMPO 3000 RA BR FEW003 BKN008
2026-04-30 16:30:00,METAR RJGG 301630Z AUTO 11015KT 3400 RA BR FEW006 SCT036 BKN043 //////TCU 15/15 Q1010 TEMPO 3000 RA BR FEW003 BKN008
2026-04-30 16:00:00,METAR RJGG 301600Z AUTO 10009KT 3500 RA BR FEW004 SCT010 BKN029 //////TCU 15/15 Q1011 TEMPO 3000 RA BR FEW003 BKN008
2026-04-30 15:00:00,METAR RJGG 301500Z AUTO 10015KT 3200 RA BR FEW006 SCT013 BKN036 //////TCU 16/15 Q1012 TEMPO 3000 RA BR FEW005 BKN008
2026-04-30 14:30:00,METAR RJGG 301430Z AUTO 11018KT 3700 -RA BR FEW012 SCT038 BKN042 //////TCU 16/14 Q1012 TEMPO 3000 RA BR FEW005 BKN008
2026-04-30 14:00:00,METAR RJGG 301400Z AUTO 11017KT 9000 -RA FEW012 SCT020 BKN023 16/14 Q1013 TEMPO 3000 RA BR FEW005 BKN008
2026-04-30 13:30:00,METAR RJGG 301330Z 10013KT 6000 -RA FEW005 SCT012 BKN020 15/14 Q1014 TEMPO 4000 RA BR FEW005 BKN008
2026-04-30 13:00:00,METAR RJGG 301300Z 10012KT 4500 -RA BR FEW005 SCT010 BKN020 15/14 Q1014 TEMPO FEW005 BKN008
2026-04-30 12:30:00,METAR RJGG 301230Z 09008KT 4000 RA BR FEW005 SCT012 BKN020 15/14 Q1015 TEMPO FEW005 BKN008 BECMG 10020KT
2026-04-30 12:00:00,METAR RJGG 301200Z 07007KT 6000 -RA FEW005 SCT008 BKN025 15/14 Q1015 TEMPO 3000 -RA BR FEW005 BKN008 BECMG TL1230 10012KT
2026-04-30 11:30:00,METAR RJGG 301130Z 08008KT 4000 -RA BR FEW008 SCT015 BKN025 15/14 Q1015 TEMPO 3000 -RA BR FEW005 BKN008
2026-04-30 11:00:00,METAR RJGG 301100Z 06005KT 360V090 6000 -RA FEW008 SCT015 BKN025 15/14 Q1016 TEMPO 4000 -RA BR FEW005 BKN008
2026-04-30 10:30:00,METAR RJGG 301030Z 35003KT 300V040 8000 -RA FEW008 SCT015 BKN020 14/13 Q1016 NOSIG
2026-04-30 10:00:00,METAR RJGG 301000Z 04004KT 010V090 8000 -RA FEW008 SCT015 BKN020 14/13 Q1016 NOSIG
2026-04-30 09:30:00,METAR RJGG 300930Z VRB02KT 8000 -RA FEW008 BKN020 14/13 Q1017 NOSIG
2026-04-30 09:00:00,METAR RJGG 300900Z 34003KT 310V110 8000 -RA FEW005 SCT012 BKN020 14/13 Q1017 TEMPO FEW003 BKN008 BECMG 12014KT
2026-04-30 08:30:00,METAR RJGG 300830Z VRB02KT 8000 -RA FEW005 BKN010 BKN020 14/13 Q1017 BECMG TL0900 12014KT TEMPO FEW003 BKN008
2026-04-30 08:00:00,METAR RJGG 300800Z 34003KT 290V040 8000 -RA FEW005 BKN010 BKN020 13/13 Q1017 TEMPO FEW003 BKN008 BECMG FM0900 11018KT
2026-04-30 07:30:00,METAR RJGG 300730Z VRB01KT 7000 -RA FEW005 BKN007 BKN010 13/12 Q1017 NOSIG
2026-04-30 07:00:00,METAR RJGG 300700Z 28003KT 8000 -RA FEW005 BKN007 BKN010 13/12 Q1017 NOSIG
2026-04-30 06:30:00,METAR RJGG 300630Z 31003KT 8000 -RA FEW008 BKN010 BKN020 13/12 Q1017 NOSIG
2026-04-30 06:00:00,METAR RJGG 300600Z 32004KT 9999 -RA FEW008 BKN010 BKN020 13/12 Q1018 BECMG 15010KT
2026-04-30 05:30:00,METAR RJGG 300530Z 33003KT 300V010 9999 -RA FEW008 BKN010 BKN025 13/11 Q1019 NOSIG
2026-04-30 05:00:00,METAR RJGG 300500Z 29005KT 9999 -RA FEW010 BKN013 BKN025 13/11 Q1019 NOSIG
2026-04-30 04:30:00,METAR RJGG 300430Z 25005KT 9999 -RA FEW010 BKN013 BKN025 13/11 Q1019 BECMG 15010KT
2026-04-30 04:00:00,METAR RJGG 300400Z 25005KT 9999 -RA FEW010 BKN013 BKN025 13/11 Q1019 NOSIG
2026-04-30 03:30:00,METAR RJGG 300330Z 27003KT 240V310 9999 -RA FEW015 BKN020 BKN040 13/10 Q1019 BECMG 15005KT
2026-04-30 03:00:00,METAR RJGG 300300Z 31003KT 9999 -RA FEW015 BKN030 BKN040 14/11 Q1020 BECMG 10005KT
2026-04-30 02:30:00,METAR RJGG 300230Z 32003KT 9999 -RA FEW015 BKN020 BKN040 13/10 Q1020 BECMG 10005KT
2026-04-30 02:00:00,METAR RJGG 300200Z 33004KT 9999 -RA FEW015 BKN020 BKN025 13/11 Q1020 BECMG 10005KT
2026-04-30 01:30:00,METAR RJGG 300130Z 35003KT 310V020 9999 -RA FEW015 BKN020 BKN035 13/11 Q1020 BECMG 10005KT
2026-04-30 01:00:00,METAR RJGG 300100Z 34004KT 9999 -RA FEW015 BKN025 BKN030 14/11 Q1020 BECMG 10005KT
2026-04-30 00:30:00,METAR RJGG 300030Z 31005KT 270V360 9999 -RA FEW020 BKN025 OVC110 14/10 Q1020 NOSIG
2026-04-30 00:00:00,METAR RJGG 300000Z 27006KT 240V300 9999 -RA FEW020 OVC100 14/10 Q1020 NOSIG
2026-04-29 23:30:00,METAR RJGG 292330Z 26002KT 9999 -RA FEW015 SCT040 OVC090 15/10 Q1019 NOSIG
2026-04-29 23:00:00,METAR RJGG 292300Z 27002KT 9999 -RA FEW015 BKN070 OVC090 15/09 Q1019 NOSIG
2026-04-29 22:30:00,METAR RJGG 292230Z 23002KT 9999 -RA FEW015 SCT090 OVC110 15/10 Q1019 NOSIG
2026-04-29 22:00:00,METAR RJGG 292200Z 33002KT 9999 -RA FEW015 OVC100 15/09 Q1019 NOSIG
2026-04-29 21:30:00,METAR RJGG 292130Z 34003KT 9999 -RA FEW015 OVC100 14/09 Q1019 NOSIG
2026-04-29 21:00:00,METAR RJGG 292100Z 34006KT 9999 -RA FEW015 SCT070 OVC100 15/09 Q1019 NOSIG
2026-04-29 20:30:00,METAR RJGG 292030Z AUTO 33005KT 9999 -RA NSC 15/09 Q1018 NOSIG
2026-04-29 20:00:00,METAR RJGG 292000Z AUTO 35003KT 9999 NSC 14/08 Q1018 NOSIG
2026-04-29 19:30:00,METAR RJGG 291930Z AUTO 31005KT 9999 NSC 15/09 Q1018 NOSIG
2026-04-29 19:00:00,METAR RJGG 291900Z AUTO 34005KT 9999 NSC 14/08 Q1017 NOSIG
2026-04-29 18:30:00,METAR RJGG 291830Z AUTO 34005KT 9999 NSC 15/08 Q1017 NOSIG
2026-04-29 18:00:00,METAR RJGG 291800Z AUTO 30008KT 9999 NSC 15/08 Q1017 NOSIG
2026-04-29 17:30:00,METAR RJGG 291730Z AUTO 31009KT 9999 NSC 15/09 Q1017 NOSIG
2026-04-29 17:00:00,METAR RJGG 291700Z AUTO 32011KT 9999 NSC 15/08 Q1017 NOSIG
2026-04-29 16:30:00,METAR RJGG 291630Z AUTO 33011KT 9999 NSC 15/09 Q1017 NOSIG
2026-04-29 16:00:00,METAR RJGG 291600Z AUTO 32011KT 9999 NSC 15/09 Q1017 NOSIG
2026-04-29 15:30:00,METAR RJGG 291530Z AUTO 31014KT 9999 NSC 15/09 Q1017 NOSIG
2026-04-29 15:00:00,METAR RJGG 291500Z AUTO 31010KT 9999 NSC 15/10 Q1017 NOSIG
2026-04-29 14:30:00,METAR RJGG 291430Z AUTO 32013KT 9999 NSC 15/09 Q1017 NOSIG
2026-04-29 14:00:00,METAR RJGG 291400Z AUTO 32016KT 9999 NSC 15/09 Q1017 NOSIG
2026-04-29 13:30:00,METAR RJGG 291330Z 32015KT 9999 FEW020 BKN140 16/09 Q1017 NOSIG
2026-04-29 13:00:00,METAR RJGG 291300Z 32019KT 9999 FEW020 BKN150 16/09 Q1017 NOSIG
2026-04-29 12:30:00,METAR RJGG 291230Z 32014KT 9999 FEW020 BKN140 16/09 Q1017 NOSIG
2026-04-29 12:00:00,METAR RJGG 291200Z 31011KT 9999 FEW020 BKN150 16/10 Q1017 NOSIG
2026-04-29 11:30:00,METAR RJGG 291130Z 31017KT 9999 FEW020 BKN120 16/10 Q1017 NOSIG
2026-04-29 11:00:00,METAR RJGG 291100Z 30015KT 9999 FEW020 BKN120 BKN170 16/10 Q1016 NOSIG
2026-04-29 10:30:00,METAR RJGG 291030Z 31020KT 9999 FEW020 BKN130 16/10 Q1016 NOSIG
2026-04-29 10:00:00,METAR RJGG 291000Z 32016KT 9999 FEW020 BKN120 BKN160 16/10 Q1015 NOSIG
2026-04-29 09:30:00,METAR RJGG 290930Z 32019KT 9999 FEW020 SCT130 BKN140 17/09 Q1015 NOSIG
2026-04-29 09:00:00,METAR RJGG 290900Z 33017KT 9999 FEW020 SCT130 BKN170 17/10 Q1015 NOSIG
2026-04-29 08:30:00,METAR RJGG 290830Z 32017KT 9999 FEW020 BKN140 17/10 Q1015 NOSIG
2026-04-29 08:00:00,METAR RJGG 290800Z 32018KT 9999 FEW020 SCT110 BKN130 17/10 Q1015 NOSIG
2026-04-29 07:30:00,METAR RJGG 290730Z 33016KT 9999 FEW030 BKN120 17/11 Q1014 NOSIG
2026-04-29 07:00:00,METAR RJGG 290700Z 32018KT 9999 FEW030 SCT110 BKN140 17/11 Q1014 NOSIG
2026-04-29 06:30:00,METAR RJGG 290630Z 32017KT 9999 FEW030 BKN130 BKN150 18/11 Q1014 NOSIG
2026-04-29 06:00:00,METAR RJGG 290600Z 34018KT 9999 FEW030 BKN130 18/11 Q1014 NOSIG
2026-04-29 05:30:00,METAR RJGG 290530Z 34017KT 9999 FEW030 BKN130 19/11 Q1014 NOSIG
2026-04-29 05:00:00,METAR RJGG 290500Z 33018KT 9999 FEW030 SCT100 BKN120 19/11 Q1014 NOSIG
2026-04-29 04:30:00,METAR RJGG 290430Z 33014KT 9999 FEW030 BKN100 19/12 Q1014 NOSIG
2026-04-29 04:00:00,METAR RJGG 290400Z 32017KT 9999 FEW030 BKN100 19/11 Q1014 NOSIG
2026-04-29 03:30:00,METAR RJGG 290330Z 31018KT 9999 FEW030 BKN100 18/11 Q1014 NOSIG
2026-04-29 03:00:00,METAR RJGG 290300Z 31020KT 9999 FEW030 BKN100 18/11 Q1014 NOSIG
2026-04-29 02:30:00,METAR RJGG 290230Z 31019KT 9999 FEW030 BKN100 18/11 Q1014 NOSIG
2026-04-29 02:00:00,METAR RJGG 290200Z 32017KT 9999 FEW030 BKN100 BKN160 18/11 Q1014 NOSIG
2026-04-29 01:30:00,METAR RJGG 290130Z 32020KT 9999 FEW030 BKN110 18/11 Q1014 NOSIG
2026-04-29 01:00:00,METAR RJGG 290100Z 33016KT 9999 FEW030 BKN110 18/10 Q1014 NOSIG
2026-04-29 00:30:00,METAR RJGG 290030Z 32011KT 9999 FEW030 BKN100 18/10 Q1014 NOSIG
2026-04-29 00:00:00,METAR RJGG 290000Z 32009KT 9999 FEW030 BKN100 19/10 Q1014 NOSIG
2026-04-28 23:30:00,METAR RJGG 282330Z 31010KT 9999 FEW030 BKN100 BKN/// 18/10 Q1014 NOSIG
2026-04-28 23:00:00,METAR RJGG 282300Z 31011KT 9999 FEW030 SCT050 BKN100 18/09 Q1013 NOSIG
2026-04-28 22:30:00,METAR RJGG 282230Z 31010KT 9999 FEW030 BKN100 18/10 Q1013 NOSIG
2026-04-28 22:00:00,METAR RJGG 282200Z 33014KT 9999 FEW030 SCT150 BKN/// 18/09 Q1013 NOSIG
2026-04-28 21:30:00,METAR RJGG 282130Z 32012KT 9999 FEW030 BKN150 BKN/// 18/09 Q1012 NOSIG
2026-04-28 21:00:00,METAR RJGG 282100Z 32007KT 9999 FEW030 BKN100 17/12 Q1012 NOSIG
2026-04-28 20:30:00,METAR RJGG 282030Z AUTO 33008KT 9999 NSC 17/11 Q1012 NOSIG
2026-04-28 20:00:00,METAR RJGG 282000Z AUTO 34006KT 9999 SCT047 SCT110 BKN120 17/12 Q1012 NOSIG
2026-04-28 19:30:00,METAR RJGG 281930Z AUTO 34007KT 9999 BKN046 OVC140 17/11 Q1011 NOSIG
2026-04-28 19:00:00,METAR RJGG 281900Z AUTO 34008KT 9999 FEW042 SCT046 OVC140 18/13 Q1011 NOSIG
2026-04-28 18:30:00,METAR RJGG 281830Z AUTO 34013KT 9999 BKN042 BKN048 BKN050 18/12 Q1011 NOSIG
2026-04-28 18:00:00,METAR RJGG 281800Z AUTO 33016KT 9999 BKN041 BKN044 BKN047 18/12 Q1011 NOSIG
2026-04-28 17:30:00,METAR RJGG 281730Z AUTO 33018KT 9999 BKN044 OVC160 18/12 Q1011 NOSIG
2026-04-28 17:00:00,METAR RJGG 281700Z AUTO 33014KT 9999 FEW045 BKN050 BKN120 18/14 Q1011 NOSIG
2026-04-28 16:30:00,METAR RJGG 281630Z AUTO 33012KT 9999 FEW045 SCT110 OVC120 18/14 Q1012 NOSIG
2026-04-28 16:00:00,METAR RJGG 281600Z AUTO 33008KT 9999 NSC 18/15 Q1012 NOSIG
2026-04-28 15:30:00,METAR RJGG 281530Z AUTO 35011KT 9999 NSC 19/13 Q1012 NOSIG
2026-04-28 15:00:00,METAR RJGG 281500Z AUTO 35007KT 9999 NSC 18/14 Q1012 NOSIG
2026-04-28 14:30:00,METAR RJGG 281430Z AUTO 01006KT 9999 NSC 18/15 Q1012 NOSIG
2026-04-28 14:00:00,METAR RJGG 281400Z AUTO 32014KT 9999 NSC 18/15 Q1012 NOSIG
2026-04-28 13:30:00,METAR RJGG 281330Z 32011KT 9999 FEW020 SCT180 BKN/// 19/14 Q1011 NOSIG
2026-04-28 13:00:00,METAR RJGG 281300Z 32004KT 9999 FEW020 BKN160 BKN/// 17/16 Q1012 NOSIG
2026-04-28 12:30:00,METAR RJGG 281230Z 32006KT 9999 FEW020 BKN160 18/17 Q1012 NOSIG
2026-04-28 12:00:00,METAR RJGG 281200Z VRB02KT 9999 FEW020 BKN160 18/17 Q1011 BECMG TL1300 33005KT
2026-04-28 11:30:00,METAR RJGG 281130Z 09003KT 9999 FEW020 BKN150 BKN170 19/16 Q1011 BECMG TL1230 06005KT
2026-04-28 11:00:00,METAR RJGG 281100Z 11004KT 9999 FEW020 BKN150 BKN/// 19/16 Q1011 BECMG TL1230 03005KT
2026-04-28 10:30:00,METAR RJGG 281030Z 13005KT 9999 FEW020 SCT150 BKN/// 19/16 Q1010 BECMG TL1100 07006KT
2026-04-28 10:00:00,METAR RJGG 281000Z 10005KT 9999 FEW020 BKN150 BKN/// 20/16 Q1010 BECMG TL1100 07006KT
2026-04-28 09:30:00,METAR RJGG 280930Z 09007KT 9999 FEW020 BKN150 BKN/// 20/16 Q1010 BECMG TL1000 07006KT
2026-04-28 09:00:00,METAR RJGG 280900Z 11006KT 9999 FEW020 SCT150 BKN/// 20/15 Q1010 BECMG TL1000 07006KT
2026-04-28 08:30:00,METAR RJGG 280830Z 12007KT 9999 FEW020 SCT060 21/15 Q1010 NOSIG
2026-04-28 08:00:00,METAR RJGG 280800Z 12009KT 9999 FEW020 SCT150 21/15 Q1010 NOSIG
2026-04-28 07:30:00,METAR RJGG 280730Z 10008KT 9999 FEW020 SCT150 22/14 Q1010 NOSIG
2026-04-28 07:00:00,METAR RJGG 280700Z 11009KT 9999 FEW020 SCT160 22/13 Q1010 NOSIG
2026-04-28 06:30:00,METAR RJGG 280630Z 12010KT 9999 FEW020 BKN160 23/13 Q1010 NOSIG
2026-04-28 06:00:00,METAR RJGG 280600Z 14011KT 9999 FEW020 SCT/// 23/14 Q1010 NOSIG
2026-04-28 05:30:00,METAR RJGG 280530Z 13009KT 9999 FEW020 BKN/// 22/14 Q1011 NOSIG
2026-04-28 05:00:00,METAR RJGG 280500Z 15005KT 9999 FEW020 BKN/// 22/15 Q1011 NOSIG
2026-04-28 04:30:00,METAR RJGG 280430Z 17006KT 9999 FEW020 BKN/// 19/15 Q1011 NOSIG
2026-04-28 04:00:00,METAR RJGG 280400Z 18007KT 9999 FEW020 BKN/// 19/14 Q1012 NOSIG
2026-04-28 03:30:00,METAR RJGG 280330Z 21005KT 9999 FEW020 BKN/// 19/14 Q1012 NOSIG
2026-04-28 03:00:00,METAR RJGG 280300Z 29006KT 9999 FEW020 BKN/// 19/15 Q1013 BECMG TL0430 25005KT
2026-04-28 02:30:00,METAR RJGG 280230Z 30005KT 9999 FEW020 SCT/// 19/14 Q1013 BECMG TL0400 25005KT
2026-04-28 02:00:00,METAR RJGG 280200Z 31005KT 9999 FEW020 19/14 Q1013 BECMG 25004KT
2026-04-28 01:30:00,METAR RJGG 280130Z 31005KT 9999 FEW020 SCT/// 18/13 Q1013 BECMG FM0200 25004KT
2026-04-28 01:00:00,METAR RJGG 280100Z 32006KT 9999 FEW020 BKN/// 18/13 Q1014 BECMG FM0200 25004KT
2026-04-28 00:30:00,METAR RJGG 280030Z 32006KT 9999 FEW020 18/13 Q1014 BECMG FM0200 25004KT
2026-04-28 00:00:00,METAR RJGG 280000Z 33008KT 9999 FEW030 BKN/// 18/12 Q1014 NOSIG
2026-04-27 23:30:00,METAR RJGG 272330Z 32006KT 9999 FEW030 BKN/// 17/12 Q1014 NOSIG
2026-04-27 23:00:00,METAR RJGG 272300Z 32007KT 9999 FEW050 BKN/// 16/12 Q1014 NOSIG
2026-04-27 22:30:00,METAR RJGG 272230Z 31004KT 270V330 9999 FEW050 BKN/// 16/12 Q1014 NOSIG
2026-04-27 22:00:00,METAR RJGG 272200Z 05003KT 350V090 9999 FEW050 BKN/// 15/11 Q1014 NOSIG
2026-04-27 21:30:00,METAR RJGG 272130Z 05005KT 9999 FEW050 BKN/// 15/12 Q1014 NOSIG
2026-04-27 21:00:00,METAR RJGG 272100Z 05007KT 9999 FEW050 BKN/// 15/12 Q1013 NOSIG
2026-04-27 20:30:00,METAR RJGG 272030Z AUTO 06006KT 9999 NCD 14/11 Q1013 NOSIG
2026-04-27 20:00:00,METAR RJGG 272000Z AUTO 06009KT 9999 NCD 14/11 Q1013 NOSIG
2026-04-27 19:30:00,METAR RJGG 271930Z AUTO 07005KT 9999 NSC 14/12 Q1013 NOSIG
2026-04-27 19:00:00,METAR RJGG 271900Z AUTO 07004KT 9999 NCD 15/12 Q1013 NOSIG
2026-04-27 18:30:00,METAR RJGG 271830Z AUTO 19001KT 9999 NSC 15/12 Q1012 NOSIG
2026-04-27 18:00:00,METAR RJGG 271800Z AUTO 32002KT 9999 NSC 14/11 Q1012 NOSIG
2026-04-27 17:30:00,METAR RJGG 271730Z AUTO VRB02KT 9999 NSC 16/12 Q1012 NOSIG
2026-04-27 17:00:00,METAR RJGG 271700Z AUTO 23004KT 9999 NSC 16/12 Q1012 NOSIG
2026-04-27 16:30:00,METAR RJGG 271630Z AUTO VRB02KT 9999 NSC 16/11 Q1012 NOSIG
2026-04-27 16:00:00,METAR RJGG 271600Z AUTO 34008KT 9999 NCD 14/11 Q1012 NOSIG
2026-04-27 15:30:00,METAR RJGG 271530Z AUTO 35010KT 9999 NCD 15/11 Q1011 NOSIG
2026-04-27 15:00:00,METAR RJGG 271500Z AUTO 36009KT 9999 NCD 15/11 Q1011 NOSIG
2026-04-27 14:30:00,METAR RJGG 271430Z AUTO 36009KT 9999 NCD 15/11 Q1011 NOSIG
2026-04-27 14:00:00,METAR RJGG 271400Z AUTO 34010KT 9999 NCD 16/12 Q1011 NOSIG
2026-04-27 13:30:00,METAR RJGG 271330Z 32011KT CAVOK 17/12 Q1012 NOSIG
2026-04-27 13:00:00,METAR RJGG 271300Z 31013KT CAVOK 17/13 Q1012 NOSIG
2026-04-27 12:30:00,METAR RJGG 271230Z 32013KT CAVOK 17/12 Q1012 NOSIG
2026-04-27 12:00:00,METAR RJGG 271200Z 31011KT CAVOK 17/12 Q1012 NOSIG
2026-04-27 11:30:00,METAR RJGG 271130Z 30016KT 9999 FEW020 BKN/// 17/12 Q1011 NOSIG
2026-04-27 11:00:00,METAR RJGG 271100Z 30016KT 9999 FEW020 SCT/// 17/13 Q1011 NOSIG
2026-04-27 10:30:00,METAR RJGG 271030Z 30015KT 9999 FEW020 SCT/// 18/12 Q1010 NOSIG
2026-04-27 10:00:00,METAR RJGG 271000Z 31016KT 9999 FEW020 18/12 Q1009 NOSIG
2026-04-27 09:30:00,METAR RJGG 270930Z 30019KT 9999 FEW020 18/13 Q1008 NOSIG
2026-04-27 09:00:00,METAR RJGG 270900Z 31022KT 9999 FEW020 18/13 Q1008 NOSIG
2026-04-27 08:30:00,METAR RJGG 270830Z 30018KT 9999 FEW020 19/12 Q1008 NOSIG
2026-04-27 08:00:00,METAR RJGG 270800Z 30021KT 9999 FEW020 19/12 Q1007 NOSIG
2026-04-27 07:30:00,METAR RJGG 270730Z 30023KT 9999 FEW020 19/13 Q1007 NOSIG
2026-04-27 07:00:00,METAR RJGG 270700Z 30022KT 9999 FEW020 20/13 Q1007 NOSIG
2026-04-27 06:30:00,METAR RJGG 270630Z 30021KT 9999 FEW020 20/13 Q1006 NOSIG
2026-04-27 06:00:00,METAR RJGG 270600Z 30024KT 9999 FEW020 20/13 Q1006 NOSIG
2026-04-27 05:30:00,METAR RJGG 270530Z 31022KT 9999 FEW020 20/13 Q1006 NOSIG
2026-04-27 05:00:00,METAR RJGG 270500Z 30020KT 9999 FEW020 20/13 Q1006 NOSIG
2026-04-27 04:30:00,METAR RJGG 270430Z 30021KT 9999 FEW020 20/13 Q1006 NOSIG
2026-04-27 04:00:00,METAR RJGG 270400Z 30019KT 9999 FEW020 SCT040 BKN060 20/14 Q1006 NOSIG
2026-04-27 03:30:00,METAR RJGG 270330Z 29009KT 9999 FEW020 SCT035 BKN050 19/14 Q1007 NOSIG
2026-04-27 03:00:00,METAR RJGG 270300Z 25007KT 9999 FEW020 SCT035 BKN050 18/14 Q1007 BECMG 31007KT
2026-04-27 02:30:00,METAR RJGG 270230Z 29005KT 9999 FEW010 SCT020 BKN040 18/15 Q1007 NOSIG
2026-04-27 02:00:00,METAR RJGG 270200Z 34011KT 9999 FEW010 SCT020 BKN030 17/14 Q1007 NOSIG
2026-04-27 01:30:00,METAR RJGG 270130Z 33011KT 9999 FEW010 SCT030 BKN040 18/16 Q1007 NOSIG
2026-04-27 01:00:00,METAR RJGG 270100Z 34011KT 9999 FEW005 SCT030 BKN040 18/16 Q1006 NOSIG
2026-04-27 00:30:00,METAR RJGG 270030Z 34014KT 9999 -SHRA FEW005 SCT020 BKN035 16/15 Q1007 NOSIG
2026-04-27 00:00:00,METAR RJGG 270000Z 34011KT 9999 VCSH FEW005 SCT020 BKN030 16/14 Q1007 NOSIG
2026-04-26 23:30:00,METAR RJGG 262330Z 33014KT 9999 VCSH FEW005 SCT010 BKN020 15/14 Q1007 NOSIG
2026-04-26 23:00:00,METAR RJGG 262300Z 34014KT 6000 -SHRA FEW005 SCT010 BKN020 15/14 Q1006 NOSIG
2026-04-26 22:30:00,METAR RJGG 262230Z 35014KT 9999 VCSH FEW007 BKN015 BKN020 14/13 Q1007 NOSIG
2026-04-26 22:00:00,METAR RJGG 262200Z 35012KT 9999 -SHRA FEW007 BKN015 BKN020 14/14 Q1006 NOSIG
2026-04-26 21:30:00,METAR RJGG 262130Z 36012KT 8000 -SHRA FEW007 BKN015 BKN020 14/13 Q1006 TEMPO BKN008
2026-04-26 21:00:00,METAR RJGG 262100Z 36011KT 9999 VCSH FEW007 BKN020 14/13 Q1006 TEMPO BKN008
2026-04-26 20:30:00,METAR RJGG 262030Z AUTO 36014KT 9999 OVC019 14/13 Q1006 TEMPO BKN008
2026-04-26 20:00:00,METAR RJGG 262000Z AUTO 36011KT 9999 -RA FEW007 OVC019 //////TCU 14/13 Q1007 TEMPO 4000 SHRA BR BKN008
2026-04-26 19:30:00,METAR RJGG 261930Z AUTO 36015KT 9999 -RA FEW005 SCT027 BKN070 //////TCU 14/13 Q1006 TEMPO BKN008
2026-04-26 19:00:00,METAR RJGG 261900Z AUTO 35011KT 9999 -RA FEW005 SCT090 BKN100 //////TCU 14/13 Q1007 TEMPO 4000 SHRA BR BKN008
2026-04-26 18:30:00,METAR RJGG 261830Z AUTO 32013KT 7000 RA FEW003 SCT005 BKN044 //////TCU 14/14 Q1007 TEMPO 2000 SHRA BR BKN005
2026-04-26 18:00:00,METAR RJGG 261800Z AUTO 30014KT 2900 RA BR FEW005 SCT008 BKN016 //////TCU 15/14 Q1008 TEMPO BKN005
2026-04-26 17:30:00,METAR RJGG 261730Z AUTO 35016KT 4400 RA BR FEW005 BKN007 BKN020 //////TCU 14/14 Q1007 TEMPO 2000 SHRA BR BKN005
2026-04-26 17:00:00,METAR RJGG 261700Z AUTO 33013KT 1800 +RA BR SCT003 SCT005 BKN007 //////TCU 15/14 Q1007 TEMPO BKN005
2026-04-26 16:30:00,METAR RJGG 261630Z AUTO 35012KT 6000 RA OVC036 //////TCU 15/14 Q1008 TEMPO 2000 SHRA BR BKN005
2026-04-26 16:00:00,METAR RJGG 261600Z AUTO 35013KT 7000 -RA FEW008 OVC037 //////TCU 15/14 Q1008 TEMPO 4000 SHRA BR BKN012
2026-04-26 15:30:00,METAR RJGG 261530Z AUTO 03010KT 9999 RA OVC038 //////TCU 16/14 Q1009 TEMPO 4000 SHRA BR BKN012
2026-04-26 15:00:00,METAR RJGG 261500Z AUTO 02012KT 9999 BKN037 OVC041 //////TCU 16/14 Q1010 TEMPO 4000 SHRA BR BKN012
2026-04-26 14:30:00,METAR RJGG 261430Z AUTO 03010KT 9999 BKN041 OVC050 16/13 Q1010 TEMPO 4000 SHRA BR
2026-04-26 14:00:00,METAR RJGG 261400Z AUTO 05008KT 9999 -RA FEW044 SCT048 BKN050 16/13 Q1011 TEMPO 4000 SHRA BR
2026-04-26 13:30:00,METAR RJGG 261330Z 05008KT 9999 -RA FEW020 BKN045 16/13 Q1012 TEMPO 4000 SHRA BR
2026-04-26 13:00:00,METAR RJGG 261300Z 09006KT 9999 -RA FEW020 SCT050 BKN070 17/13 Q1013 TEMPO 4000 SHRA BR BECMG 07008KT
2026-04-26 12:30:00,METAR RJGG 261230Z 07008KT 9999 -RA FEW020 SCT050 BKN070 17/12 Q1013 NOSIG
2026-04-26 12:00:00,METAR RJGG 261200Z 07008KT 9999 -RA FEW020 SCT050 BKN080 18/12 Q1014 NOSIG
2026-04-26 11:30:00,METAR RJGG 261130Z 10008KT 9999 -RA FEW020 BKN050 BKN090 18/12 Q1014 BECMG 07008KT
2026-04-26 11:00:00,METAR RJGG 261100Z 10012KT 9999 VCSH FEW020 BKN050 BKN100 18/12 Q1014 NOSIG
2026-04-26 10:30:00,METAR RJGG 261030Z 11010KT 9999 VCSH FEW020 BKN050 18/12 Q1014 NOSIG
2026-04-26 10:00:00,METAR RJGG 261000Z 11009KT 9999 VCSH FEW020 BKN050 18/12 Q1015 NOSIG
2026-04-26 09:30:00,METAR RJGG 260930Z 12011KT 9999 VCSH FEW020 BKN050 18/12 Q1015 NOSIG
2026-04-26 09:00:00,METAR RJGG 260900Z 13012KT 9999 FEW020 BKN050 18/12 Q1015 NOSIG
2026-04-26 08:30:00,METAR RJGG 260830Z 14012KT 9999 FEW020 BKN045 BKN130 19/12 Q1015 NOSIG
2026-04-26 08:00:00,METAR RJGG 260800Z 13015KT 9999 FEW030 SCT050 BKN130 19/11 Q1015 NOSIG
2026-04-26 07:30:00,METAR RJGG 260730Z 15008KT 110V190 9999 FEW030 SCT130 BKN150 19/11 Q1015 NOSIG
2026-04-26 07:00:00,METAR RJGG 260700Z 17009KT 9999 FEW030 SCT130 BKN150 19/13 Q1016 NOSIG
2026-04-26 06:30:00,METAR RJGG 260630Z 14013KT 9999 FEW030 SCT140 BKN/// 20/10 Q1016 NOSIG
2026-04-26 06:00:00,METAR RJGG 260600Z 13014KT 9999 FEW030 BKN/// 20/10 Q1016 NOSIG
2026-04-26 05:30:00,METAR RJGG 260530Z 13016KT 9999 FEW030 BKN/// 21/10 Q1016 NOSIG
2026-04-26 05:00:00,METAR RJGG 260500Z 14011KT 9999 FEW030 BKN/// 21/11 Q1016 NOSIG
2026-04-26 04:30:00,METAR RJGG 260430Z 13014KT 9999 FEW030 BKN/// 21/10 Q1017 NOSIG
2026-04-26 04:00:00,METAR RJGG 260400Z 12015KT 9999 FEW030 BKN/// 21/10 Q1017 NOSIG
2026-04-26 03:30:00,METAR RJGG 260330Z 12015KT 9999 FEW030 BKN/// 21/09 Q1017 NOSIG
2026-04-26 03:00:00,METAR RJGG 260300Z 13017KT 9999 FEW030 BKN/// 22/09 Q1018 NOSIG
2026-04-26 02:30:00,METAR RJGG 260230Z 13016KT 9999 FEW030 BKN/// 22/09 Q1018 NOSIG
2026-04-26 02:00:00,METAR RJGG 260200Z 13011KT 9999 FEW030 BKN/// 21/10 Q1019 NOSIG
2026-04-26 01:30:00,METAR RJGG 260130Z 12010KT 9999 FEW030 BKN/// 21/10 Q1019 NOSIG
2026-04-26 01:00:00,METAR RJGG 260100Z 13012KT 9999 FEW030 BKN/// 20/10 Q1019 NOSIG
2026-04-26 00:30:00,METAR RJGG 260030Z 13012KT 9999 FEW030 BKN/// 20/11 Q1020 NOSIG
2026-04-26 00:00:00,METAR RJGG 260000Z 13012KT 9999 FEW030 BKN/// 19/11 Q1020 NOSIG
2026-04-25 23:30:00,METAR RJGG 252330Z 13011KT 9999 FEW030 BKN/// 19/11 Q1020 NOSIG
2026-04-25 23:00:00,METAR RJGG 252300Z 13003KT 080V200 9999 FEW030 BKN/// 18/11 Q1020 NOSIG
2026-04-25 22:30:00,METAR RJGG 252230Z 10003KT 050V130 9999 FEW030 SCT/// 17/11 Q1020 NOSIG
2026-04-25 22:00:00,METAR RJGG 252200Z 08003KT 020V140 9999 FEW030 SCT/// 17/10 Q1021 NOSIG
2026-04-25 21:30:00,METAR RJGG 252130Z VRB02KT 9999 FEW030 SCT/// 16/11 Q1020 BECMG TL2230 10007KT
2026-04-25 21:00:00,METAR RJGG 252100Z 07003KT 010V130 9999 FEW030 BKN050 15/11 Q1020 NOSIG
2026-04-25 20:30:00,METAR RJGG 252030Z AUTO 09003KT 040V130 9999 BKN050 15/10 Q1020 NOSIG
2026-04-25 20:00:00,METAR RJGG 252000Z AUTO 11006KT 9999 SCT050 15/10 Q1020 NOSIG
2026-04-25 19:30:00,METAR RJGG 251930Z AUTO 10005KT 9999 BKN050 15/10 Q1020 NOSIG
2026-04-25 19:00:00,METAR RJGG 251900Z AUTO 09005KT 040V130 9999 SCT024 OVC050 16/10 Q1020 NOSIG
2026-04-25 18:30:00,METAR RJGG 251830Z AUTO 11007KT 9999 NSC 16/11 Q1020 NOSIG
2026-04-25 18:00:00,METAR RJGG 251800Z AUTO 10009KT 9999 SCT050 BKN060 16/11 Q1020 NOSIG
2026-04-25 17:30:00,METAR RJGG 251730Z AUTO 10012KT 9999 NSC 16/11 Q1019 NOSIG
2026-04-25 17:00:00,METAR RJGG 251700Z AUTO 11013KT 9999 NSC 16/12 Q1020 NOSIG
2026-04-25 16:30:00,METAR RJGG 251630Z AUTO 11012KT 9999 OVC050 16/12 Q1020 NOSIG
2026-04-25 16:00:00,METAR RJGG 251600Z AUTO 12009KT 9999 NSC 16/12 Q1020 NOSIG
2026-04-25 15:30:00,METAR RJGG 251530Z AUTO 13009KT 9999 NSC 16/13 Q1020 NOSIG
2026-04-25 15:00:00,METAR RJGG 251500Z AUTO 13008KT 9999 NSC 16/13 Q1021 NOSIG
2026-04-25 14:30:00,METAR RJGG 251430Z AUTO 13007KT 100V260 9999 NSC 17/13 Q1021 NOSIG
2026-04-25 14:00:00,METAR RJGG 251400Z AUTO 14008KT 9999 NSC 16/13 Q1021 NOSIG
2026-04-25 13:30:00,METAR RJGG 251330Z 14008KT 9999 FEW020 16/12 Q1021 NOSIG
2026-04-25 13:00:00,METAR RJGG 251300Z 14007KT 9999 FEW020 16/12 Q1021 NOSIG
2026-04-25 12:30:00,METAR RJGG 251230Z 15005KT 9999 FEW020 16/12 Q1021 NOSIG
2026-04-25 12:00:00,METAR RJGG 251200Z 15006KT 9999 FEW020 15/12 Q1021 NOSIG
2026-04-25 11:30:00,METAR RJGG 251130Z 15007KT 9999 FEW020 SCT060 15/12 Q1021 NOSIG
2026-04-25 11:00:00,METAR RJGG 251100Z 15008KT 9999 FEW020 16/11 Q1021 NOSIG
2026-04-25 10:30:00,METAR RJGG 251030Z 14008KT 9999 FEW020 16/11 Q1021 NOSIG
2026-04-25 10:00:00,METAR RJGG 251000Z 14012KT 9999 FEW020 SCT/// 17/11 Q1020 NOSIG
2026-04-25 09:30:00,METAR RJGG 250930Z 14011KT 9999 FEW020 SCT160 17/11 Q1020 NOSIG
2026-04-25 09:00:00,METAR RJGG 250900Z 16011KT 9999 FEW020 SCT160 BKN/// 17/12 Q1020 NOSIG
2026-04-25 08:30:00,METAR RJGG 250830Z 17010KT 9999 FEW020 SCT160 BKN/// 18/12 Q1020 NOSIG
2026-04-25 08:00:00,METAR RJGG 250800Z 18009KT 9999 FEW020 SCT/// 18/12 Q1020 NOSIG
2026-04-25 07:30:00,METAR RJGG 250730Z 18012KT 9999 FEW020 SCT/// 18/11 Q1020 NOSIG
2026-04-25 07:00:00,METAR RJGG 250700Z 19013KT 9999 FEW020 BKN/// 18/12 Q1020 NOSIG
2026-04-25 06:30:00,METAR RJGG 250630Z 19010KT 9999 FEW020 BKN/// 19/12 Q1019 NOSIG
2026-04-25 06:00:00,METAR RJGG 250600Z 19011KT 9999 FEW020 BKN/// 19/11 Q1019 NOSIG
2026-04-25 05:30:00,METAR RJGG 250530Z 22006KT 9999 FEW020 BKN/// 18/13 Q1020 BECMG FM0630 16010KT
2026-04-25 05:00:00,METAR RJGG 250500Z 23005KT 9999 FEW020 SCT060 BKN/// 18/13 Q1020 BECMG FM0530 16010KT
2026-04-25 04:30:00,METAR RJGG 250430Z 22005KT 9999 FEW020 SCT060 BKN/// 18/13 Q1020 BECMG FM0530 16010KT
2026-04-25 04:00:00,METAR RJGG 250400Z 24006KT 9999 FEW020 BKN/// 18/13 Q1020 NOSIG
2026-04-25 03:30:00,METAR RJGG 250330Z 26005KT 9999 FEW020 BKN/// 19/14 Q1020 BECMG TL0400 24006KT
2026-04-25 03:00:00,METAR RJGG 250300Z 26006KT 9999 FEW020 BKN170 18/13 Q1020 BECMG TL0330 24006KT
2026-04-25 02:30:00,METAR RJGG 250230Z 25005KT 9999 FEW015 BKN170 18/13 Q1020 NOSIG
2026-04-25 02:00:00,METAR RJGG 250200Z 26004KT 9999 FEW015 BKN170 18/13 Q1020 BECMG TL0230 24005KT
2026-04-25 01:30:00,METAR RJGG 250130Z 28004KT 9999 FEW015 SCT060 BKN170 17/13 Q1020 BECMG TL0230 24005KT
2026-04-25 01:00:00,METAR RJGG 250100Z 28004KT 9999 FEW015 BKN060 BKN170 17/13 Q1020 BECMG FM0130 24005KT
2026-04-25 00:30:00,METAR RJGG 250030Z 30004KT 9999 FEW015 SCT050 BKN170 16/13 Q1020 BECMG FM0130 24005KT
2026-04-25 00:00:00,METAR RJGG 250000Z 26003KT 9999 FEW015 SCT050 BKN170 16/12 Q1020 BECMG 24006KT
2026-04-24 23:30:00,METAR RJGG 242330Z 24004KT 9999 FEW015 BKN045 16/13 Q1020 NOSIG
2026-04-24 23:00:00,METAR RJGG 242300Z 26004KT 9999 FEW013 BKN045 16/13 Q1020 BECMG 24005KT
2026-04-24 22:30:00,METAR RJGG 242230Z 28004KT 9999 FEW014 BKN045 15/13 Q1020 BECMG 16005KT
2026-04-24 22:00:00,METAR RJGG 242200Z 25004KT 9999 FEW015 BKN040 15/13 Q1019 NOSIG
2026-04-24 21:30:00,METAR RJGG 242130Z 30003KT 9999 FEW015 BKN040 15/13 Q1019 NOSIG
2026-04-24 21:00:00,METAR RJGG 242100Z 31001KT 9999 FEW015 BKN040 15/13 Q1019 NOSIG
2026-04-24 20:30:00,METAR RJGG 242030Z AUTO VRB02KT 9999 FEW020 SCT027 OVC041 15/13 Q1018 NOSIG
2026-04-24 20:00:00,METAR RJGG 242000Z AUTO 33002KT 9999 FEW020 BKN022 BKN040 15/12 Q1018 NOSIG
2026-04-24 19:30:00,METAR RJGG 241930Z AUTO 24002KT 9999 FEW015 SCT039 BKN050 15/13 Q1018 NOSIG
2026-04-24 19:00:00,METAR RJGG 241900Z AUTO 23003KT 9999 FEW016 SCT049 BKN050 15/13 Q1018 NOSIG
2026-04-24 18:30:00,METAR RJGG 241830Z AUTO 15005KT 9999 FEW046 BKN050 OVC060 15/13 Q1017 NOSIG
2026-04-24 18:00:00,METAR RJGG 241800Z AUTO 20003KT 9999 BKN043 OVC050 15/13 Q1017 NOSIG
2026-04-24 17:30:00,METAR RJGG 241730Z AUTO 19004KT 9999 SCT043 BKN046 BKN050 15/13 Q1016 NOSIG
2026-04-24 17:00:00,METAR RJGG 241700Z AUTO 17005KT 9999 FEW041 BKN050 OVC060 15/13 Q1016 NOSIG
2026-04-24 16:30:00,METAR RJGG 241630Z AUTO 18005KT 9999 SCT042 SCT049 BKN060 15/12 Q1016 NOSIG
2026-04-24 16:00:00,METAR RJGG 241600Z AUTO 19003KT 9999 FEW042 SCT060 BKN140 15/12 Q1016 NOSIG
2026-04-24 15:30:00,METAR RJGG 241530Z AUTO 21007KT 9999 FEW048 SCT150 BKN160 16/13 Q1017 NOSIG
2026-04-24 15:00:00,METAR RJGG 241500Z AUTO 17005KT 9999 BKN048 BKN050 BKN060 15/13 Q1016 NOSIG
2026-04-24 14:30:00,METAR RJGG 241430Z AUTO 16006KT 9999 BKN050 BKN140 OVC170 15/13 Q1016 NOSIG
2026-04-24 14:00:00,METAR RJGG 241400Z AUTO 17007KT 9999 FEW049 BKN050 BKN130 15/14 Q1016 NOSIG
2026-04-24 13:30:00,METAR RJGG 241330Z 18009KT 9999 VCSH FEW020 SCT050 BKN060 16/14 Q1016 NOSIG
2026-04-24 13:00:00,METAR RJGG 241300Z 16011KT 9999 VCSH FEW020 SCT060 BKN140 16/14 Q1015 NOSIG
2026-04-24 12:30:00,METAR RJGG 241230Z 17011KT 9999 FEW020 BKN060 BKN080 16/14 Q1016 NOSIG
2026-04-24 12:00:00,METAR RJGG 241200Z 15011KT 9999 FEW020 SCT070 BKN130 16/14 Q1015 NOSIG
2026-04-24 11:30:00,METAR RJGG 241130Z 15009KT 9999 FEW020 SCT070 BKN150 16/13 Q1015 NOSIG
2026-04-24 11:00:00,METAR RJGG 241100Z 13010KT 9999 FEW020 BKN130 16/14 Q1014 NOSIG
2026-04-24 10:30:00,METAR RJGG 241030Z 16012KT 9999 FEW020 BKN140 16/14 Q1014 NOSIG
2026-04-24 10:00:00,METAR RJGG 241000Z 16009KT 9999 FEW020 SCT120 BKN150 16/14 Q1014 NOSIG
2026-04-24 09:30:00,METAR RJGG 240930Z 15006KT 9999 FEW020 BKN140 BKN/// 16/13 Q1013 NOSIG
2026-04-24 09:00:00,METAR RJGG 240900Z 15008KT 9999 FEW020 SCT120 BKN150 17/12 Q1013 NOSIG
2026-04-24 08:30:00,METAR RJGG 240830Z 16007KT 9999 FEW020 BKN140 17/12 Q1013 NOSIG
2026-04-24 08:00:00,METAR RJGG 240800Z 18007KT 9999 FEW020 SCT150 BKN/// 18/13 Q1012 NOSIG
2026-04-24 07:30:00,METAR RJGG 240730Z 19006KT 9999 FEW020 BKN150 BKN/// 18/14 Q1012 NOSIG
2026-04-24 07:00:00,METAR RJGG 240700Z 20008KT 9999 FEW020 BKN140 BKN/// 17/13 Q1012 NOSIG
2026-04-24 06:30:00,METAR RJGG 240630Z 21007KT 9999 FEW020 BKN140 18/14 Q1012 NOSIG
2026-04-24 06:00:00,METAR RJGG 240600Z 23005KT 9999 FEW020 SCT130 BKN150 18/13 Q1011 NOSIG
2026-04-24 05:30:00,METAR RJGG 240530Z 25006KT 9999 FEW020 BKN130 BKN/// 18/13 Q1011 NOSIG
2026-04-24 05:00:00,METAR RJGG 240500Z 26006KT 9999 FEW020 BKN130 BKN/// 17/13 Q1011 BECMG TL0530 24005KT
2026-04-24 04:30:00,METAR RJGG 240430Z 25008KT 9999 FEW020 BKN130 BKN/// 18/13 Q1011 NOSIG
2026-04-24 04:00:00,METAR RJGG 240400Z 25005KT 9999 FEW020 SCT130 BKN/// 18/14 Q1011 NOSIG
2026-04-24 03:30:00,METAR RJGG 240330Z 25005KT 9999 FEW020 SCT130 BKN/// 18/14 Q1011 NOSIG
2026-04-24 03:00:00,METAR RJGG 240300Z 23004KT 9999 VCSH FEW015 SCT050 BKN130 17/14 Q1011 NOSIG
2026-04-24 02:30:00,METAR RJGG 240230Z 24003KT 9999 -RA FEW015 SCT050 BKN090 17/14 Q1011 NOSIG
2026-04-24 02:00:00,METAR RJGG 240200Z 26003KT 9999 -RA FEW015 SCT050 BKN100 16/13 Q1011 NOSIG
2026-04-24 01:30:00,METAR RJGG 240130Z 29002KT 9999 FEW015 SCT110 BKN130 16/13 Q1011 NOSIG
2026-04-24 01:00:00,METAR RJGG 240100Z 27003KT 9999 FEW015 BKN110 16/13 Q1011 NOSIG
2026-04-24 00:30:00,METAR RJGG 240030Z 25004KT 9999 FEW010 BKN100 16/14 Q1011 NOSIG
2026-04-24 00:00:00,METAR RJGG 240000Z 24004KT 9999 -RA FEW010 SCT045 OVC110 16/13 Q1011 NOSIG
2026-04-23 23:30:00,METAR RJGG 232330Z 25006KT 9999 -RA FEW010 OVC120 15/13 Q1010 BECMG 27004KT
2026-04-23 23:00:00,METAR RJGG 232300Z 30005KT 9999 FEW010 SCT100 BKN120 15/13 Q1010 NOSIG
2026-04-23 22:30:00,METAR RJGG 232230Z 34007KT 9999 FEW010 SCT100 BKN120 15/13 Q1009 NOSIG
2026-04-23 22:00:00,METAR RJGG 232200Z 34007KT 9999 FEW010 BKN080 15/13 Q1009 NOSIG
2026-04-23 21:30:00,METAR RJGG 232130Z 34006KT 9999 FEW010 BKN070 15/14 Q1009 NOSIG
2026-04-23 21:00:00,METAR RJGG 232100Z 31008KT 9999 FEW010 BKN070 15/13 Q1008 NOSIG
2026-04-23 20:30:00,METAR RJGG 232030Z AUTO 30004KT 9999 NSC 15/13 Q1008 NOSIG
2026-04-23 20:00:00,METAR RJGG 232000Z AUTO 00000KT 9999 NSC 14/13 Q1008 BECMG 32005KT
2026-04-23 19:30:00,METAR RJGG 231930Z AUTO 27002KT 9999 NSC 14/14 Q1008 NOSIG
2026-04-23 19:00:00,METAR RJGG 231900Z AUTO 32003KT 9999 NSC 14/14 Q1007 NOSIG
2026-04-23 18:30:00,METAR RJGG 231830Z AUTO 31003KT 9999 NSC 14/13 Q1006 NOSIG
2026-04-23 18:00:00,METAR RJGG 231800Z AUTO 27005KT 9999 NSC 15/13 Q1006 NOSIG
2026-04-23 17:30:00,METAR RJGG 231730Z AUTO 23005KT 9999 NSC 15/13 Q1006 BECMG 27005KT
2026-04-23 17:00:00,METAR RJGG 231700Z AUTO 28007KT 9999 FEW050 OVC060 14/13 Q1006 NOSIG
2026-04-23 16:30:00,METAR RJGG 231630Z AUTO 32009KT 9999 FEW050 SCT060 OVC070 14/13 Q1006 NOSIG
2026-04-23 16:00:00,METAR RJGG 231600Z AUTO 35007KT 9999 SCT050 BKN060 OVC080 14/13 Q1006 NOSIG
2026-04-23 15:30:00,METAR RJGG 231530Z AUTO 33008KT 9999 -RA BKN050 OVC070 14/13 Q1006 NOSIG
2026-04-23 15:00:00,METAR RJGG 231500Z AUTO 34006KT 9999 -RA OVC050 14/13 Q1006 NOSIG
2026-04-23 14:30:00,METAR RJGG 231430Z AUTO 35010KT 9999 FEW024 SCT048 OVC050 14/13 Q1006 NOSIG
2026-04-23 14:00:00,METAR RJGG 231400Z AUTO 35009KT 9999 -RA FEW003 BKN047 OVC048 14/13 Q1006 NOSIG
2026-04-23 13:30:00,METAR RJGG 231330Z 36009KT 5000 -SHRA BR FEW003 SCT007 BKN030 13/13 Q1006 NOSIG
2026-04-23 13:00:00,METAR RJGG 231300Z 02009KT 5000 -SHRA BR FEW003 SCT010 BKN030 14/13 Q1006 NOSIG
2026-04-23 12:30:00,METAR RJGG 231230Z 36013KT 5000 -SHRA BR FEW003 SCT005 BKN007 13/13 Q1006 TEMPO 4000 SHRA BR BECMG FEW008 BKN020
2026-04-23 12:00:00,METAR RJGG 231200Z 36014KT 5000 -SHRA BR FEW003 SCT005 BKN035 13/13 Q1006 TEMPO 4000 SHRA BR BKN008
2026-04-23 11:30:00,METAR RJGG 231130Z 35016KT 5000 -SHRA BR FEW003 SCT007 BKN035 13/13 Q1006 TEMPO 4000 RA BR BKN007
2026-04-23 11:00:00,METAR RJGG 231100Z 35018KT 4000 -RA BR FEW002 BKN007 BKN010 13/13 Q1006 TEMPO RA BR
2026-04-23 10:30:00,METAR RJGG 231030Z 35018KT 4000 RA BR FEW002 SCT005 BKN007 13/13 Q1006 TEMPO 3000 RA BR BKN005
2026-04-23 10:00:00,METAR RJGG 231000Z 35020KT 3000 RA BR FEW002 BKN005 BKN007 13/13 Q1005 NOSIG
2026-04-23 09:30:00,METAR RJGG 230930Z 36019KT 2000 RA BR FEW002 SCT003 BKN005 13/13 Q1005 BECMG 4000 RA BR BKN008
2026-04-23 09:00:00,METAR RJGG 230900Z 36016KT 2000 RA BR FEW002 SCT003 BKN005 13/13 Q1005 BECMG 4000 RA BR BKN008
2026-04-23 08:30:00,METAR RJGG 230830Z 36017KT 2000 RA BR FEW003 BKN005 BKN010 14/13 Q1005 BECMG 4000 RA BR BKN008
2026-04-23 08:00:00,METAR RJGG 230800Z 01010KT 4000 RA BR FEW004 BKN010 BKN015 14/13 Q1005 TEMPO BKN008
2026-04-23 07:30:00,METAR RJGG 230730Z 04010KT 6000 RA FEW005 BKN010 BKN015 14/14 Q1005 TEMPO 4000 RA BR FEW005 BKN008
2026-04-23 07:00:00,METAR RJGG 230700Z 03011KT 6000 RA FEW006 BKN010 BKN018 14/14 Q1005 TEMPO 4000 RA BR FEW005 BKN008
2026-04-23 06:30:00,METAR RJGG 230630Z 02011KT 5000 RA BR FEW006 BKN010 14/14 Q1006 TEMPO 4000 RA BR FEW005 BKN008
2026-04-23 06:00:00,METAR RJGG 230600Z 02013KT 6000 RA FEW006 SCT018 OVC040 15/14 Q1006 TEMPO 4000 RA BR
2026-04-23 05:30:00,METAR RJGG 230530Z 01012KT 6000 RA FEW005 SCT020 OVC040 14/13 Q1006 TEMPO 4000 RA BR
2026-04-23 05:00:00,METAR RJGG 230500Z 02013KT 6000 RA FEW006 SCT020 OVC040 15/14 Q1007 TEMPO 4000 RA BR
2026-04-23 04:30:00,METAR RJGG 230430Z 36012KT 4500 RA BR FEW004 SCT020 OVC040 15/14 Q1007 NOSIG
2026-04-23 04:00:00,METAR RJGG 230400Z 35013KT 4000 RA BR FEW003 SCT018 OVC030 15/14 Q1008 NOSIG
2026-04-23 03:30:00,METAR RJGG 230330Z 35011KT 4000 RA BR FEW004 SCT010 BKN020 15/14 Q1008 NOSIG
2026-04-23 03:00:00,METAR RJGG 230300Z 35011KT 5000 RA BR FEW008 SCT025 OVC050 15/14 Q1009 TEMPO 4000 RA BR
2026-04-23 02:30:00,METAR RJGG 230230Z 35009KT 5000 RA BR FEW008 SCT020 OVC050 15/14 Q1009 TEMPO 4000 RA BR
2026-04-23 02:00:00,METAR RJGG 230200Z 36009KT 6000 -RA FEW010 BKN020 16/14 Q1009 NOSIG
2026-04-23 01:30:00,METAR RJGG 230130Z 35008KT 8000 -RA FEW020 BKN030 BKN050 16/14 Q1010 NOSIG
2026-04-23 01:00:00,METAR RJGG 230100Z 01007KT 8000 -RA FEW020 SCT030 BKN080 16/14 Q1010 TEMPO FM0200 4000 RA BR FEW005 BKN008
2026-04-23 00:30:00,METAR RJGG 230030Z 01009KT 9999 -RA FEW020 BKN030 BKN080 16/13 Q1010 TEMPO FM0200 4000 RA BR FEW005 BKN008
2026-04-23 00:00:00,METAR RJGG 230000Z 35007KT 9999 -RA FEW020 BKN035 BKN090 16/13 Q1010 NOSIG
2026-04-22 23:30:00,METAR RJGG 222330Z 34006KT 9999 -RA FEW020 BKN030 BKN090 16/13 Q1010 NOSIG
2026-04-22 23:00:00,METAR RJGG 222300Z 34007KT 9999 -RA FEW020 BKN030 BKN050 16/13 Q1010 NOSIG
2026-04-22 22:30:00,METAR RJGG 222230Z 34006KT 9999 VCSH FEW020 BKN030 BKN090 16/13 Q1010 NOSIG
2026-04-22 22:00:00,METAR RJGG 222200Z 36006KT 9999 FEW020 BKN030 BKN110 16/13 Q1010 NOSIG
2026-04-22 21:30:00,METAR RJGG 222130Z 35006KT 9999 FEW020 BKN050 BKN110 15/13 Q1010 NOSIG
2026-04-22 21:00:00,METAR RJGG 222100Z 35005KT 9999 FEW020 SCT030 BKN110 15/13 Q1010 NOSIG
2026-04-22 20:30:00,METAR RJGG 222030Z AUTO 35006KT 9999 NSC 15/13 Q1010 NOSIG
2026-04-22 20:00:00,METAR RJGG 222000Z AUTO 36004KT 9999 NSC 15/13 Q1010 NOSIG
2026-04-22 19:30:00,METAR RJGG 221930Z AUTO 35005KT 9999 NSC 15/13 Q1010 NOSIG
2026-04-22 19:00:00,METAR RJGG 221900Z AUTO 01004KT 9999 NSC 15/13 Q1010 NOSIG
2026-04-22 18:30:00,METAR RJGG 221830Z AUTO 35006KT 9999 NSC 15/13 Q1011 NOSIG
2026-04-22 18:00:00,METAR RJGG 221800Z AUTO 35007KT 9999 NSC 15/13 Q1011 NOSIG
2026-04-22 17:30:00,METAR RJGG 221730Z AUTO 34006KT 9999 NSC 15/13 Q1011 NOSIG
2026-04-22 17:00:00,METAR RJGG 221700Z AUTO 34003KT 9999 NSC 15/13 Q1011 NOSIG
2026-04-22 16:30:00,METAR RJGG 221630Z AUTO 33002KT 9999 NSC 15/13 Q1011 NOSIG
2026-04-22 16:00:00,METAR RJGG 221600Z AUTO 33002KT 9999 NSC 16/13 Q1011 NOSIG
2026-04-22 15:30:00,METAR RJGG 221530Z AUTO 27001KT 9999 NSC 16/13 Q1012 NOSIG
2026-04-22 15:00:00,METAR RJGG 221500Z AUTO VRB01KT 9999 NSC 16/13 Q1012 BECMG 36005KT
2026-04-22 14:30:00,METAR RJGG 221430Z AUTO 00000KT 9999 BKN025 BKN100 OVC120 16/13 Q1012 NOSIG
2026-04-22 14:00:00,METAR RJGG 221400Z AUTO VRB01KT 9999 SCT022 BKN025 BKN100 16/13 Q1012 NOSIG
2026-04-22 13:30:00,METAR RJGG 221330Z 24002KT 9999 FEW030 BKN110 16/14 Q1012 NOSIG
2026-04-22 13:00:00,METAR RJGG 221300Z 00000KT 9999 FEW030 BKN110 17/13 Q1012 NOSIG
2026-04-22 12:30:00,METAR RJGG 221230Z 06004KT 030V100 9999 FEW030 BKN110 17/13 Q1012 NOSIG
2026-04-22 12:00:00,METAR RJGG 221200Z 21004KT 9999 FEW030 SCT110 BKN130 16/14 Q1013 NOSIG
2026-04-22 11:30:00,METAR RJGG 221130Z 25003KT 9999 FEW030 BKN045 BKN120 16/14 Q1013 NOSIG
2026-04-22 11:00:00,METAR RJGG 221100Z 26003KT 9999 FEW030 BKN040 BKN120 16/13 Q1013 NOSIG
2026-04-22 10:30:00,METAR RJGG 221030Z 31003KT 9999 FEW030 BKN120 BKN150 17/13 Q1013 NOSIG
2026-04-22 10:00:00,METAR RJGG 221000Z 33005KT 9999 FEW030 SCT110 BKN130 16/12 Q1013 NOSIG
2026-04-22 09:30:00,METAR RJGG 220930Z 30004KT 9999 FEW030 SCT050 BKN120 16/12 Q1013 NOSIG
2026-04-22 09:00:00,METAR RJGG 220900Z 32003KT 9999 FEW030 SCT050 BKN120 17/12 Q1013 NOSIG
2026-04-22 08:30:00,METAR RJGG 220830Z 32004KT 9999 FEW030 SCT050 BKN120 16/11 Q1014 NOSIG
2026-04-22 08:00:00,METAR RJGG 220800Z 34005KT 9999 FEW030 SCT120 BKN150 17/09 Q1013 NOSIG
2026-04-22 07:30:00,METAR RJGG 220730Z 33004KT 9999 FEW030 BKN150 17/11 Q1014 NOSIG
2026-04-22 07:00:00,METAR RJGG 220700Z 32005KT 9999 FEW030 BKN150 17/12 Q1014 BECMG 24004KT
2026-04-22 06:30:00,METAR RJGG 220630Z 29003KT 250V320 9999 FEW030 BKN150 17/11 Q1014 NOSIG
2026-04-22 06:00:00,METAR RJGG 220600Z 30003KT 9999 FEW030 BKN150 16/08 Q1014 NOSIG
2026-04-22 05:30:00,METAR RJGG 220530Z 28003KT 9999 FEW030 BKN150 17/08 Q1014 BECMG TL0600 24005KT
2026-04-22 05:00:00,METAR RJGG 220500Z 31003KT 9999 FEW030 BKN150 16/07 Q1014 BECMG TL0600 24005KT
2026-04-22 04:30:00,METAR RJGG 220430Z 30002KT 9999 FEW030 BKN150 16/06 Q1014 BECMG TL0600 24005KT
2026-04-22 04:00:00,METAR RJGG 220400Z 32004KT 9999 FEW030 BKN150 BKN/// 17/06 Q1014 BECMG TL0530 24005KT
2026-04-22 03:30:00,METAR RJGG 220330Z 27003KT 9999 FEW030 BKN150 16/07 Q1015 BECMG TL0500 24005KT
2026-04-22 03:00:00,METAR RJGG 220300Z 29006KT 9999 FEW030 BKN150 16/06 Q1015 BECMG FM0400 24004KT
2026-04-22 02:30:00,METAR RJGG 220230Z 30008KT 9999 FEW030 BKN150 16/06 Q1016 BECMG FM0400 25004KT
2026-04-22 02:00:00,METAR RJGG 220200Z 31005KT 9999 FEW030 BKN160 BKN/// 16/04 Q1016 NOSIG
2026-04-22 01:30:00,METAR RJGG 220130Z 32007KT 9999 FEW030 SCT045 BKN160 16/04 Q1016 NOSIG
2026-04-22 01:00:00,METAR RJGG 220100Z 33009KT 9999 FEW030 SCT045 BKN160 16/03 Q1017 NOSIG
2026-04-22 00:30:00,METAR RJGG 220030Z 33010KT 9999 FEW030 SCT040 BKN170 15/02 Q1017 NOSIG
2026-04-22 00:00:00,METAR RJGG 220000Z 34010KT 9999 FEW030 SCT040 BKN180 15/02 Q1017 NOSIG
2026-04-21 23:30:00,METAR RJGG 212330Z 35010KT 9999 FEW030 SCT040 BKN180 14/01 Q1017 NOSIG
2026-04-21 23:00:00,METAR RJGG 212300Z 36012KT 9999 FEW030 SCT040 BKN180 14/01 Q1017 NOSIG
2026-04-21 22:30:00,METAR RJGG 212230Z 34012KT 9999 FEW030 BKN040 13/00 Q1017 NOSIG
2026-04-21 22:00:00,METAR RJGG 212200Z 35013KT 9999 FEW030 SCT040 BKN/// 13/00 Q1017 NOSIG
2026-04-21 21:30:00,METAR RJGG 212130Z 35011KT 9999 FEW030 SCT040 12/00 Q1017 NOSIG
2026-04-21 21:00:00,METAR RJGG 212100Z 35010KT 9999 FEW030 SCT040 11/01 Q1017 NOSIG
2026-04-21 20:30:00,METAR RJGG 212030Z AUTO 34009KT 9999 FEW037 BKN042 BKN049 12/03 Q1017 NOSIG
2026-04-21 20:00:00,METAR RJGG 212000Z AUTO 35009KT 9999 SCT038 SCT041 BKN045 10/03 Q1017 NOSIG
2026-04-21 19:30:00,METAR RJGG 211930Z AUTO 36006KT 9999 SCT045 SCT048 BKN190 10/03 Q1016 NOSIG
2026-04-21 19:00:00,METAR RJGG 211900Z AUTO 34008KT 9999 NSC 09/03 Q1017 NOSIG
2026-04-21 18:30:00,METAR RJGG 211830Z AUTO 34004KT 9999 NCD 11/01 Q1017 NOSIG
2026-04-21 18:00:00,METAR RJGG 211800Z AUTO 02004KT 9999 NCD 11/M01 Q1017 NOSIG
2026-04-21 17:30:00,METAR RJGG 211730Z AUTO 01006KT 9999 NCD 11/M04 Q1016 NOSIG
2026-04-21 17:00:00,METAR RJGG 211700Z AUTO 02006KT 9999 NCD 11/M04 Q1016 NOSIG
2026-04-21 16:30:00,METAR RJGG 211630Z AUTO 36004KT 9999 NCD 13/M04 Q1017 NOSIG
2026-04-21 16:00:00,METAR RJGG 211600Z AUTO 03004KT 360V090 9999 NCD 13/M03 Q1016 NOSIG
2026-04-21 15:30:00,METAR RJGG 211530Z AUTO 35012KT 9999 NCD 12/M00 Q1016 NOSIG
2026-04-21 15:00:00,METAR RJGG 211500Z AUTO 36011KT 9999 NSC 13/00 Q1016 NOSIG
2026-04-21 14:30:00,METAR RJGG 211430Z AUTO 35014KT 9999 NSC 13/04 Q1016 NOSIG
2026-04-21 14:00:00,METAR RJGG 211400Z AUTO 34014KT 9999 NCD 14/01 Q1016 NOSIG
2026-04-21 13:30:00,METAR RJGG 211330Z 31006KT CAVOK 15/01 Q1017 NOSIG
2026-04-21 13:00:00,METAR RJGG 211300Z 30008KT CAVOK 15/02 Q1017 BECMG TL1330 32018KT
2026-04-21 12:30:00,METAR RJGG 211230Z 29013KT CAVOK 15/02 Q1016 BECMG FM1330 TL1400 35012KT
2026-04-21 12:00:00,METAR RJGG 211200Z 29014KT CAVOK 16/03 Q1016 NOSIG
2026-04-21 11:30:00,METAR RJGG 211130Z 31015KT CAVOK 16/03 Q1015 NOSIG
2026-04-21 11:00:00,METAR RJGG 211100Z 31017KT CAVOK 16/02 Q1015 NOSIG
2026-04-21 10:30:00,METAR RJGG 211030Z 31017KT CAVOK 16/03 Q1014 NOSIG
2026-04-21 10:00:00,METAR RJGG 211000Z 31018KT CAVOK 17/02 Q1014 NOSIG
2026-04-21 09:30:00,METAR RJGG 210930Z 29017KT CAVOK 17/03 Q1014 NOSIG
2026-04-21 09:00:00,METAR RJGG 210900Z 29018KT CAVOK 18/06 Q1013 NOSIG
2026-04-21 08:30:00,METAR RJGG 210830Z 29021KT CAVOK 18/04 Q1013 NOSIG
2026-04-21 08:00:00,METAR RJGG 210800Z 29019KT CAVOK 19/06 Q1013 NOSIG
2026-04-21 07:30:00,METAR RJGG 210730Z 29018KT CAVOK 19/06 Q1013 NOSIG
2026-04-21 07:00:00,METAR RJGG 210700Z 30016KT CAVOK 19/07 Q1012 NOSIG
2026-04-21 06:30:00,METAR RJGG 210630Z 30015KT CAVOK 20/07 Q1012 NOSIG
2026-04-21 06:00:00,METAR RJGG 210600Z 30017KT CAVOK 20/06 Q1012 NOSIG
2026-04-21 05:30:00,METAR RJGG 210530Z 30017KT CAVOK 20/05 Q1013 NOSIG
2026-04-21 05:00:00,METAR RJGG 210500Z 29019KT CAVOK 19/05 Q1013 NOSIG
2026-04-21 04:30:00,METAR RJGG 210430Z 30023KT 9999 FEW015 BKN/// 18/06 Q1013 NOSIG
2026-04-21 04:00:00,METAR RJGG 210400Z 30022KT 9999 FEW015 BKN/// 18/05 Q1012 NOSIG
2026-04-21 03:30:00,METAR RJGG 210330Z 32023KT 9999 FEW015 SCT170 BKN/// 18/05 Q1012 NOSIG
2026-04-21 03:00:00,METAR RJGG 210300Z 32024KT 9999 FEW015 SCT150 BKN/// 18/06 Q1012 BECMG 31034KT TEMPO 31034G44KT
2026-04-21 02:30:00,METAR RJGG 210230Z 31025KT 9999 FEW015 SCT150 BKN/// 18/07 Q1012 TEMPO 31034G44KT
2026-04-21 02:00:00,METAR RJGG 210200Z 31028KT 9999 FEW015 SCT050 BKN/// 17/08 Q1013 TEMPO 31034G44KT
2026-04-21 01:30:00,METAR RJGG 210130Z 31031KT 9999 FEW015 SCT050 BKN/// 17/08 Q1012 TEMPO 31034G44KT
2026-04-21 01:00:00,METAR RJGG 210100Z 32026KT 9999 FEW015 SCT050 BKN/// 17/08 Q1013 TEMPO 31034G44KT
2026-04-21 00:30:00,METAR RJGG 210030Z 33026KT 9999 FEW015 SCT050 BKN/// 17/09 Q1013 TEMPO 31034G44KT
2026-04-21 00:00:00,METAR RJGG 210000Z 32032KT 9999 FEW015 BKN050 BKN/// 17/08 Q1012 TEMPO 31034G44KT
2026-04-20 23:30:00,METAR RJGG 202330Z 32031KT 9999 VCSH FEW005 BKN060 16/08 Q1012 TEMPO 31034G44KT
2026-04-20 23:00:00,METAR RJGG 202300Z 33030KT 9999 -SHRA FEW003 SCT020 BKN060 15/10 Q1012 TEMPO 31034G44KT
2026-04-20 22:30:00,METAR RJGG 202230Z 33027KT 9999 -SHRA FEW001 SCT020 BKN070 16/13 Q1011 NOSIG
2026-04-20 22:00:00,METAR RJGG 202200Z 26007KT 230V330 8000 -SHRA FEW001 SCT003 BKN020 17/16 Q1010 BECMG 31020KT
2026-04-20 21:30:00,METAR RJGG 202130Z 23005KT 7000 -SHRA FEW001 BKN005 17/17 Q1009 BECMG TL2230 28008KT FEW005 BKN030
2026-04-20 21:00:00,METAR RJGG 202100Z 21005KT 5000 -SHRA BR FEW001 BKN003 17/17 Q1009 BECMG TL2200 28008KT FEW005 BKN030
2026-04-20 20:30:00,METAR RJGG 202030Z AUTO 15005KT 6000 -RA SCT003 BKN008 OVC038 17/17 Q1009 BECMG TL2200 28008KT FEW005 BKN030
2026-04-20 20:00:00,METAR RJGG 202000Z AUTO 14006KT 4900 BR FEW002 BKN009 BKN040 17/17 Q1009 TEMPO 3000 SHRA BR FEW003 BKN005
2026-04-20 19:30:00,METAR RJGG 201930Z AUTO 13007KT 6000 FEW002 OVC016 17/16 Q1009 TEMPO 3000 SHRA BR FEW003 BKN005
2026-04-20 19:00:00,METAR RJGG 201900Z AUTO 11007KT 8000 OVC003 17/16 Q1009 TEMPO 3000 SHRA BR
2026-04-20 18:30:00,METAR RJGG 201830Z AUTO 11009KT 9999 FEW004 OVC005 17/16 Q1009 TEMPO 3000 SHRA BR
2026-04-20 18:00:00,METAR RJGG 201800Z AUTO 12009KT 9999 BKN004 OVC007 17/16 Q1010 TEMPO 3000 SHRA BR
2026-04-20 17:30:00,METAR RJGG 201730Z AUTO 13006KT 8000 BKN002 OVC005 17/16 Q1010 TEMPO 3000 SHRA BR
2026-04-20 17:00:00,METAR RJGG 201700Z AUTO 14005KT 4200 -RA BR FEW003 BKN005 BKN010 17/16 Q1010 TEMPO 3000 SHRA BR
2026-04-20 16:30:00,METAR RJGG 201630Z AUTO 13006KT 2100 -RA BR FEW004 BKN014 BKN017 17/16 Q1011 TEMPO SHRA BR FEW003 BKN008
2026-04-20 16:00:00,METAR RJGG 201600Z AUTO 12008KT 9000 -RA FEW005 OVC020 17/16 Q1011 TEMPO 3000 SHRA BR FEW003 BKN008
2026-04-20 15:30:00,METAR RJGG 201530Z AUTO 13011KT 2900 -RA BR BKN011 BKN017 OVC033 17/16 Q1011 TEMPO FEW003 BKN008
2026-04-20 15:00:00,METAR RJGG 201500Z AUTO 13011KT 9999 SCT015 SCT027 BKN033 17/15 Q1012 TEMPO 4000 -SHRA BR FEW003 BKN008
2026-04-20 14:30:00,METAR RJGG 201430Z AUTO 13013KT 9999 FEW017 SCT032 OVC036 17/15 Q1012 TEMPO 4000 -SHRA BR
2026-04-20 14:00:00,METAR RJGG 201400Z AUTO 15007KT 9999 SCT008 SCT011 BKN025 17/16 Q1012 TEMPO 4000 -SHRA BR
2026-04-20 13:30:00,METAR RJGG 201330Z 16013KT 6000 -SHRA FEW010 BKN030 17/16 Q1012 TEMPO 4000 -SHRA BR
2026-04-20 13:00:00,METAR RJGG 201300Z 13012KT 9999 -SHRA FEW020 BKN045 19/15 Q1012 NOSIG
2026-04-20 12:30:00,METAR RJGG 201230Z 12012KT 9999 FEW030 BKN050 19/15 Q1012 NOSIG
2026-04-20 12:00:00,METAR RJGG 201200Z 12012KT 9999 FEW030 BKN060 19/15 Q1013 NOSIG
2026-04-20 11:30:00,METAR RJGG 201130Z 12011KT 9999 FEW030 BKN060 19/15 Q1013 NOSIG
2026-04-20 11:00:00,METAR RJGG 201100Z 12012KT 9999 FEW030 BKN070 19/15 Q1013 NOSIG
2026-04-20 10:30:00,METAR RJGG 201030Z 13010KT 9999 FEW030 BKN070 19/15 Q1013 NOSIG
2026-04-20 10:00:00,METAR RJGG 201000Z 13011KT 9999 FEW030 BKN070 19/14 Q1013 NOSIG
2026-04-20 09:30:00,METAR RJGG 200930Z 12013KT 9999 FEW030 BKN080 19/14 Q1013 NOSIG
2026-04-20 09:00:00,METAR RJGG 200900Z 13011KT 9999 FEW030 BKN080 20/14 Q1013 NOSIG
2026-04-20 08:30:00,METAR RJGG 200830Z 14016KT 9999 FEW030 BKN080 20/14 Q1013 NOSIG
2026-04-20 08:00:00,METAR RJGG 200800Z 14014KT 9999 FEW030 SCT090 21/14 Q1013 NOSIG
2026-04-20 07:30:00,METAR RJGG 200730Z 14015KT 9999 FEW030 SCT080 21/13 Q1012 NOSIG
2026-04-20 07:00:00,METAR RJGG 200700Z 15018KT 9999 FEW030 22/13 Q1012 NOSIG
2026-04-20 06:30:00,METAR RJGG 200630Z 14017KT 9999 FEW030 23/13 Q1012 NOSIG
2026-04-20 06:00:00,METAR RJGG 200600Z 16015KT 9999 FEW030 BKN080 22/14 Q1013 NOSIG
2026-04-20 05:30:00,METAR RJGG 200530Z 15015KT 9999 FEW030 SCT080 BKN/// 22/14 Q1013 NOSIG
2026-04-20 05:00:00,METAR RJGG 200500Z 14014KT 9999 FEW030 SCT080 24/14 Q1013 NOSIG
2026-04-20 04:30:00,METAR RJGG 200430Z 13017KT 9999 FEW030 SCT/// 23/15 Q1013 NOSIG
2026-04-20 04:00:00,METAR RJGG 200400Z 13016KT 9999 FEW030 SCT/// 24/15 Q1013 NOSIG
2026-04-20 03:30:00,METAR RJGG 200330Z 17006KT 130V210 9999 FEW030 BKN/// 22/15 Q1014 NOSIG
2026-04-20 03:00:00,METAR RJGG 200300Z 23007KT 9999 FEW030 SCT/// 20/15 Q1015 BECMG FM0400 14014KT
2026-04-20 02:30:00,METAR RJGG 200230Z 23005KT 9999 FEW030 SCT160 21/17 Q1015 NOSIG
2026-04-20 02:00:00,METAR RJGG 200200Z 14011KT 110V200 9999 FEW030 SCT170 BKN/// 23/14 Q1015 NOSIG
2026-04-20 01:30:00,METAR RJGG 200130Z 12011KT 9999 FEW030 SCT170 BKN/// 22/15 Q1015 NOSIG
2026-04-20 01:00:00,METAR RJGG 200100Z 19005KT 120V260 9999 FEW030 SCT170 BKN/// 20/14 Q1016 NOSIG
2026-04-20 00:30:00,METAR RJGG 200030Z 10006KT 060V120 9999 FEW030 SCT170 BKN/// 21/14 Q1015 NOSIG
2026-04-20 00:00:00,METAR RJGG 200000Z 08005KT 030V130 9999 FEW030 BKN160 19/15 Q1016 NOSIG
2026-04-19 23:30:00,METAR RJGG 192330Z 24003KT 180V260 9999 FEW030 BKN050 18/15 Q1016 NOSIG
2026-04-19 23:00:00,METAR RJGG 192300Z VRB02KT 9999 FEW030 SCT050 BKN170 17/16 Q1015 BECMG 18005KT
2026-04-19 22:30:00,METAR RJGG 192230Z VRB01KT 9999 FEW040 BKN160 18/15 Q1015 BECMG 08005KT
2026-04-19 22:00:00,METAR RJGG 192200Z VRB02KT 9999 FEW040 BKN170 18/14 Q1015 BECMG 08005KT
2026-04-19 21:30:00,METAR RJGG 192130Z 08003KT 9999 FEW040 SCT160 BKN/// 17/14 Q1015 NOSIG
2026-04-19 21:00:00,METAR RJGG 192100Z 01004KT 9999 FEW030 SCT160 BKN/// 16/14 Q1014 NOSIG
2026-04-19 20:30:00,METAR RJGG 192030Z AUTO 34003KT 9999 NSC 15/14 Q1014 NOSIG
2026-04-19 20:00:00,METAR RJGG 192000Z AUTO 33003KT 9999 NSC 16/14 Q1014 NOSIG
2026-04-19 19:30:00,METAR RJGG 191930Z AUTO 36004KT 9999 FEW046 SCT170 OVC180 16/13 Q1014 NOSIG
2026-04-19 19:00:00,METAR RJGG 191900Z AUTO 36003KT 9999 NSC 16/14 Q1015 NOSIG
2026-04-19 18:30:00,METAR RJGG 191830Z AUTO 01004KT 9999 NSC 16/14 Q1014 NOSIG
2026-04-19 18:00:00,METAR RJGG 191800Z AUTO 36006KT 9999 NSC 15/14 Q1014 NOSIG
2026-04-19 17:30:00,METAR RJGG 191730Z AUTO 36005KT 9999 FEW047 BKN170 OVC180 17/14 Q1014 NOSIG
2026-04-19 17:00:00,METAR RJGG 191700Z AUTO 36003KT 9999 OVC048 16/14 Q1014 NOSIG
2026-04-19 16:30:00,METAR RJGG 191630Z AUTO 32003KT 9999 FEW037 BKN043 OVC050 17/15 Q1015 NOSIG
2026-04-19 16:00:00,METAR RJGG 191600Z AUTO 12003KT 9999 FEW036 OVC043 17/15 Q1015 NOSIG
2026-04-19 15:30:00,METAR RJGG 191530Z AUTO 12003KT 9999 FEW037 BKN045 OVC050 18/14 Q1015 NOSIG
2026-04-19 15:00:00,METAR RJGG 191500Z AUTO 10003KT 9999 FEW039 SCT045 BKN220 18/14 Q1015 NOSIG
2026-04-19 14:30:00,METAR RJGG 191430Z AUTO 11004KT 9999 FEW049 BKN180 17/14 Q1015 NOSIG
2026-04-19 14:00:00,METAR RJGG 191400Z AUTO 11003KT 050V130 9999 NSC 18/14 Q1015 NOSIG
2026-04-19 13:30:00,METAR RJGG 191330Z 10003KT 9999 FEW030 BKN180 18/13 Q1016 NOSIG
2026-04-19 13:00:00,METAR RJGG 191300Z 12005KT 9999 FEW030 SCT180 BKN/// 18/13 Q1016 NOSIG
2026-04-19 12:30:00,METAR RJGG 191230Z 12006KT 9999 FEW030 BKN180 18/13 Q1016 NOSIG
2026-04-19 12:00:00,METAR RJGG 191200Z 12008KT 9999 FEW030 BKN180 18/13 Q1016 NOSIG
2026-04-19 11:30:00,METAR RJGG 191130Z 12007KT 9999 FEW030 BKN180 18/13 Q1016 NOSIG
2026-04-19 11:00:00,METAR RJGG 191100Z 11007KT 9999 FEW030 SCT180 BKN/// 18/12 Q1015 NOSIG
2026-04-19 10:30:00,METAR RJGG 191030Z 12007KT 9999 FEW030 BKN180 BKN/// 18/12 Q1015 NOSIG
2026-04-19 10:00:00,METAR RJGG 191000Z 12007KT 9999 FEW030 BKN170 19/12 Q1015 NOSIG
2026-04-19 09:30:00,METAR RJGG 190930Z 13008KT 9999 FEW030 BKN160 19/12 Q1015 NOSIG
2026-04-19 09:00:00,METAR RJGG 190900Z 13009KT 9999 FEW030 BKN180 19/12 Q1014 NOSIG
2026-04-19 08:30:00,METAR RJGG 190830Z 13009KT 9999 FEW030 BKN180 19/11 Q1014 NOSIG
2026-04-19 08:00:00,METAR RJGG 190800Z 15007KT 9999 FEW030 BKN180 20/11 Q1014 NOSIG
2026-04-19 07:30:00,METAR RJGG 190730Z 13008KT 9999 FEW030 BKN180 BKN/// 20/10 Q1014 NOSIG
2026-04-19 07:00:00,METAR RJGG 190700Z 15007KT 9999 FEW030 SCT180 BKN/// 20/11 Q1014 NOSIG
2026-04-19 06:30:00,METAR RJGG 190630Z 16007KT 9999 FEW030 SCT180 BKN/// 20/11 Q1013 NOSIG
2026-04-19 06:00:00,METAR RJGG 190600Z 17006KT 9999 FEW030 SCT180 BKN/// 20/13 Q1014 NOSIG
2026-04-19 05:30:00,METAR RJGG 190530Z 20005KT 9999 FEW030 SCT180 BKN/// 19/14 Q1014 NOSIG
2026-04-19 05:00:00,METAR RJGG 190500Z 19008KT 9999 FEW030 BKN/// 19/12 Q1014 NOSIG
2026-04-19 04:30:00,METAR RJGG 190430Z 21007KT 9999 FEW030 BKN/// 19/14 Q1014 NOSIG
2026-04-19 04:00:00,METAR RJGG 190400Z 21007KT 9999 FEW030 BKN/// 20/15 Q1014 NOSIG
2026-04-19 03:30:00,METAR RJGG 190330Z 21007KT 9999 FEW030 BKN/// 19/15 Q1014 NOSIG
2026-04-19 03:00:00,METAR RJGG 190300Z 22006KT 9999 FEW030 BKN/// 19/16 Q1014 NOSIG
2026-04-19 02:30:00,METAR RJGG 190230Z 23004KT 9999 FEW030 BKN/// 19/15 Q1014 NOSIG
2026-04-19 02:00:00,METAR RJGG 190200Z 24006KT 9999 FEW030 BKN/// 19/15 Q1014 NOSIG
2026-04-19 01:30:00,METAR RJGG 190130Z 27007KT 9999 FEW030 BKN/// 19/15 Q1014 BECMG TL0300 25006KT
2026-04-19 01:00:00,METAR RJGG 190100Z 30006KT 9999 FEW030 BKN/// 18/15 Q1015 NOSIG
2026-04-19 00:30:00,METAR RJGG 190030Z 33008KT 9999 FEW030 BKN/// 19/15 Q1014 NOSIG
2026-04-19 00:00:00,METAR RJGG 190000Z 32008KT 9999 FEW030 BKN/// 17/15 Q1014 NOSIG
2026-04-18 23:30:00,METAR RJGG 182330Z 30006KT 9999 FEW030 BKN/// 17/15 Q1014 NOSIG
2026-04-18 23:00:00,METAR RJGG 182300Z VRB02KT 9999 FEW030 BKN/// 17/14 Q1015 NOSIG
2026-04-18 22:30:00,METAR RJGG 182230Z 05005KT 9999 FEW030 BKN/// 17/13 Q1014 NOSIG
2026-04-18 22:00:00,METAR RJGG 182200Z 04006KT 9999 FEW030 BKN/// 17/14 Q1014 NOSIG
2026-04-18 21:30:00,METAR RJGG 182130Z 05006KT 9999 FEW030 SCT180 BKN/// 16/14 Q1014 NOSIG
2026-04-18 21:00:00,METAR RJGG 182100Z 03005KT 9999 FEW030 BKN/// 16/14 Q1015 NOSIG
2026-04-18 20:30:00,METAR RJGG 182030Z AUTO 01004KT 9999 NSC 15/14 Q1014 NOSIG
2026-04-18 20:00:00,METAR RJGG 182000Z AUTO 34003KT 9999 NSC 14/13 Q1014 NOSIG
2026-04-18 19:30:00,METAR RJGG 181930Z AUTO 31005KT 9999 NSC 16/15 Q1015 NOSIG
2026-04-18 19:00:00,METAR RJGG 181900Z AUTO 33004KT 9999 NSC 16/15 Q1015 NOSIG
2026-04-18 18:30:00,METAR RJGG 181830Z AUTO 35007KT 9999 NSC 15/14 Q1014 NOSIG
2026-04-18 18:00:00,METAR RJGG 181800Z AUTO 34005KT 9999 NSC 15/14 Q1014 NOSIG
2026-04-18 17:30:00,METAR RJGG 181730Z AUTO 02003KT 350V050 9999 NSC 14/13 Q1014 NOSIG
2026-04-18 17:00:00,METAR RJGG 181700Z AUTO 08005KT 9999 NSC 16/14 Q1014 BECMG TL1710 02004KT
2026-04-18 16:30:00,METAR RJGG 181630Z AUTO 11008KT 9999 NSC 16/14 Q1014 BECMG FM1800 02004KT
2026-04-18 16:00:00,METAR RJGG 181600Z AUTO 12007KT 9999 NSC 16/14 Q1015 NOSIG
2026-04-18 15:00:00,METAR RJGG 181500Z AUTO 12008KT 9999 NSC 16/14 Q1015 NOSIG
2026-04-18 14:30:00,METAR RJGG 181430Z AUTO 12008KT 9999 NSC 16/14 Q1015 NOSIG
2026-04-18 14:00:00,METAR RJGG 181400Z AUTO 12009KT 9999 NSC 16/14 Q1015 NOSIG
2026-04-18 13:30:00,METAR RJGG 181330Z 13011KT 9999 FEW030 BKN/// 16/14 Q1015 NOSIG
2026-04-18 13:00:00,METAR RJGG 181300Z 13013KT 9999 FEW030 SCT/// 16/13 Q1015 NOSIG
2026-04-18 12:30:00,METAR RJGG 181230Z 12011KT 9999 FEW030 16/12 Q1014 NOSIG
2026-04-18 12:00:00,METAR RJGG 181200Z 13010KT 9999 FEW030 17/13 Q1014 NOSIG
2026-04-18 11:30:00,METAR RJGG 181130Z 12010KT 9999 FEW030 17/13 Q1014 NOSIG
2026-04-18 11:00:00,METAR RJGG 181100Z 11009KT 9999 FEW030 17/13 Q1014 NOSIG
2026-04-18 10:30:00,METAR RJGG 181030Z 11007KT 9999 FEW030 18/12 Q1014 NOSIG
2026-04-18 10:00:00,METAR RJGG 181000Z 18007KT 9999 FEW030 16/14 Q1014 NOSIG
2026-04-18 09:30:00,METAR RJGG 180930Z 20009KT 9999 FEW030 17/14 Q1013 NOSIG
2026-04-18 09:00:00,METAR RJGG 180900Z 19009KT 9999 FEW030 17/14 Q1013 NOSIG
2026-04-18 08:30:00,METAR RJGG 180830Z 18010KT 9999 FEW030 18/14 Q1013 NOSIG
2026-04-18 08:00:00,METAR RJGG 180800Z 18011KT 9999 FEW030 18/14 Q1013 NOSIG
2026-04-18 07:30:00,METAR RJGG 180730Z 20007KT 9999 FEW030 19/14 Q1013 NOSIG
2026-04-18 07:00:00,METAR RJGG 180700Z 20006KT 9999 FEW030 19/14 Q1013 NOSIG
2026-04-18 06:30:00,METAR RJGG 180630Z 22004KT 9999 FEW030 19/14 Q1013 NOSIG
2026-04-18 06:00:00,METAR RJGG 180600Z 24003KT 9999 FEW030 SCT130 19/14 Q1014 NOSIG
2026-04-18 05:30:00,METAR RJGG 180530Z 26005KT 9999 FEW030 SCT130 19/13 Q1014 BECMG 25005KT
2026-04-18 05:00:00,METAR RJGG 180500Z 25005KT 9999 FEW030 SCT140 19/13 Q1015 NOSIG
2026-04-18 04:30:00,METAR RJGG 180430Z 25004KT 9999 FEW030 20/13 Q1015 NOSIG
2026-04-18 04:00:00,METAR RJGG 180400Z 27004KT 250V320 9999 FEW030 SCT140 18/11 Q1016 BECMG TL0500 25005KT
2026-04-18 03:30:00,METAR RJGG 180330Z 29005KT 9999 FEW030 SCT/// 18/12 Q1016 BECMG FM0400 25004KT
2026-04-18 03:00:00,METAR RJGG 180300Z 30006KT 9999 FEW030 SCT180 19/13 Q1017 BECMG FM0400 25004KT
2026-04-18 02:30:00,METAR RJGG 180230Z 31007KT 9999 FEW030 BKN/// 18/13 Q1017 BECMG FM0400 25004KT
2026-04-18 02:00:00,METAR RJGG 180200Z 31006KT 9999 FEW030 BKN/// 18/13 Q1018 NOSIG
2026-04-18 01:30:00,METAR RJGG 180130Z 32008KT 9999 FEW030 BKN/// 17/12 Q1018 NOSIG
2026-04-18 01:00:00,METAR RJGG 180100Z 33008KT 9999 FEW030 BKN/// 18/12 Q1018 NOSIG
2026-04-18 00:30:00,METAR RJGG 180030Z 33009KT 9999 FEW030 BKN/// 17/12 Q1018 NOSIG
2026-04-18 00:00:00,METAR RJGG 180000Z 33007KT 9999 FEW030 SCT150 BKN/// 16/11 Q1019 NOSIG
2026-04-17 23:30:00,METAR RJGG 172330Z 33009KT 9999 FEW030 SCT150 BKN/// 16/12 Q1019 NOSIG
2026-04-17 23:00:00,METAR RJGG 172300Z 35010KT 9999 FEW030 BKN150 16/11 Q1019 NOSIG
2026-04-17 22:30:00,METAR RJGG 172230Z 36008KT 9999 FEW030 BKN150 BKN/// 15/11 Q1019 NOSIG
2026-04-17 22:00:00,METAR RJGG 172200Z 36011KT 9999 FEW030 BKN150 BKN/// 15/12 Q1019 NOSIG
2026-04-17 21:30:00,METAR RJGG 172130Z 36010KT 9999 FEW030 BKN/// 14/11 Q1019 NOSIG
2026-04-17 21:00:00,METAR RJGG 172100Z 03006KT 360V070 9999 FEW030 BKN/// 14/11 Q1019 NOSIG
2026-04-17 20:30:00,METAR RJGG 172030Z AUTO 36010KT 9999 FEW041 OVC050 14/11 Q1019 NOSIG
2026-04-17 20:00:00,METAR RJGG 172000Z AUTO 35008KT 9999 FEW031 SCT038 BKN045 14/11 Q1018 NOSIG
2026-04-17 19:30:00,METAR RJGG 171930Z AUTO 36008KT 9999 FEW038 OVC050 13/10 Q1018 NOSIG
2026-04-17 19:00:00,METAR RJGG 171900Z AUTO 01007KT 9999 FEW033 BKN045 OVC050 14/10 Q1018 NOSIG
2026-04-17 18:30:00,METAR RJGG 171830Z AUTO 02005KT 9999 FEW047 BKN049 12/09 Q1019 NOSIG
2026-04-17 18:00:00,METAR RJGG 171800Z AUTO 02004KT 9999 FEW033 SCT042 BKN240 13/10 Q1019 NOSIG
2026-04-17 17:30:00,METAR RJGG 171730Z AUTO 34005KT 310V010 9999 FEW033 BKN034 OVC240 14/11 Q1019 NOSIG
2026-04-17 17:00:00,METAR RJGG 171700Z AUTO 04006KT 9999 BKN035 OVC240 14/10 Q1019 NOSIG
2026-04-17 16:30:00,METAR RJGG 171630Z AUTO 05006KT 9999 NSC 14/10 Q1019 NOSIG
2026-04-17 16:00:00,METAR RJGG 171600Z AUTO 08007KT 9999 NSC 15/11 Q1019 BECMG TL1620 05005KT
2026-04-17 15:30:00,METAR RJGG 171530Z AUTO 12008KT 9999 NSC 15/11 Q1020 NOSIG
2026-04-17 15:00:00,METAR RJGG 171500Z AUTO 13008KT 9999 NSC 15/11 Q1020 NOSIG
2026-04-17 14:30:00,METAR RJGG 171430Z AUTO 15006KT 120V200 9999 NSC 14/11 Q1020 NOSIG
2026-04-17 14:00:00,METAR RJGG 171400Z AUTO 14009KT 9999 NSC 15/11 Q1020 NOSIG
2026-04-17 13:30:00,METAR RJGG 171330Z 13010KT 9999 FEW020 BKN/// 15/11 Q1020 NOSIG
2026-04-17 13:00:00,METAR RJGG 171300Z 15008KT 9999 FEW020 BKN/// 15/11 Q1021 NOSIG
2026-04-17 12:30:00,METAR RJGG 171230Z 14010KT 9999 FEW020 BKN/// 15/10 Q1021 NOSIG
2026-04-17 12:00:00,METAR RJGG 171200Z 13010KT 9999 FEW020 SCT040 BKN180 15/10 Q1021 NOSIG
2026-04-17 11:30:00,METAR RJGG 171130Z 13007KT 9999 FEW020 SCT040 BKN180 15/09 Q1021 NOSIG
2026-04-17 11:00:00,METAR RJGG 171100Z 15004KT 9999 FEW020 SCT040 BKN/// 14/10 Q1021 NOSIG
2026-04-17 10:30:00,METAR RJGG 171030Z 14008KT 9999 FEW020 SCT040 BKN/// 15/10 Q1020 NOSIG
2026-04-17 10:00:00,METAR RJGG 171000Z 15007KT 9999 FEW020 SCT040 BKN/// 15/10 Q1020 NOSIG
2026-04-17 09:30:00,METAR RJGG 170930Z 14014KT 9999 FEW030 SCT040 BKN/// 15/10 Q1020 NOSIG
2026-04-17 09:00:00,METAR RJGG 170900Z 14013KT 9999 FEW030 SCT040 BKN/// 15/10 Q1020 NOSIG
2026-04-17 08:30:00,METAR RJGG 170830Z 16012KT 9999 FEW030 BKN/// 15/11 Q1020 NOSIG
2026-04-17 08:00:00,METAR RJGG 170800Z 14014KT 9999 FEW030 BKN/// 16/11 Q1020 NOSIG
2026-04-17 07:30:00,METAR RJGG 170730Z 15013KT 9999 FEW030 SCT040 BKN/// 16/11 Q1020 NOSIG
2026-04-17 07:00:00,METAR RJGG 170700Z 16014KT 9999 FEW030 BKN/// 16/11 Q1020 NOSIG
2026-04-17 06:30:00,METAR RJGG 170630Z 16013KT 9999 FEW030 BKN/// 17/11 Q1020 NOSIG
2026-04-17 06:00:00,METAR RJGG 170600Z 17016KT 9999 FEW030 BKN/// 17/11 Q1020 NOSIG
2026-04-17 05:30:00,METAR RJGG 170530Z 17016KT 9999 FEW030 BKN/// 18/12 Q1020 NOSIG
2026-04-17 05:00:00,METAR RJGG 170500Z 17015KT 9999 FEW030 BKN/// 18/12 Q1020 NOSIG
2026-04-17 04:30:00,METAR RJGG 170430Z 17015KT 9999 FEW030 BKN/// 18/12 Q1020 NOSIG
2026-04-17 04:00:00,METAR RJGG 170400Z 17016KT 9999 FEW030 BKN/// 19/12 Q1021 NOSIG
2026-04-17 03:30:00,METAR RJGG 170330Z 17016KT 9999 FEW030 BKN/// 18/12 Q1021 NOSIG
2026-04-17 03:00:00,METAR RJGG 170300Z 18017KT 9999 FEW030 BKN/// 18/13 Q1021 NOSIG
2026-04-17 02:30:00,METAR RJGG 170230Z 17016KT 9999 FEW030 BKN/// 17/12 Q1021 NOSIG
2026-04-17 02:00:00,METAR RJGG 170200Z 17015KT 9999 FEW030 BKN/// 18/12 Q1021 NOSIG
2026-04-17 01:30:00,METAR RJGG 170130Z 17014KT 9999 FEW025 BKN/// 18/13 Q1022 NOSIG
2026-04-17 01:00:00,METAR RJGG 170100Z 18014KT 9999 FEW020 BKN035 BKN/// 16/13 Q1022 NOSIG
2026-04-17 00:30:00,METAR RJGG 170030Z 18012KT 9999 FEW015 BKN020 BKN030 16/13 Q1022 NOSIG
2026-04-17 00:00:00,METAR RJGG 170000Z 17012KT 9999 FEW015 SCT020 BKN/// 17/13 Q1022 NOSIG
2026-04-16 23:30:00,METAR RJGG 162330Z 17011KT 9999 FEW020 BKN/// 18/14 Q1021 NOSIG
2026-04-16 23:00:00,METAR RJGG 162300Z 17011KT 9999 FEW015 SCT025 BKN045 16/13 Q1021 NOSIG
2026-04-16 22:30:00,METAR RJGG 162230Z 17009KT 9999 FEW015 BKN020 BKN045 16/14 Q1021 NOSIG
2026-04-16 22:00:00,METAR RJGG 162200Z 16008KT 120V180 9999 FEW015 SCT020 BKN045 16/13 Q1021 NOSIG
2026-04-16 21:30:00,METAR RJGG 162130Z 17006KT 9000 FEW015 SCT025 BKN045 15/14 Q1021 NOSIG
2026-04-16 21:00:00,METAR RJGG 162100Z 18008KT 8000 FEW015 SCT025 BKN045 15/14 Q1021 NOSIG
2026-04-16 20:30:00,METAR RJGG 162030Z AUTO 18007KT 9999 SCT019 BKN022 OVC023 15/14 Q1020 NOSIG
2026-04-16 20:00:00,METAR RJGG 162000Z AUTO 17006KT 9999 OVC022 15/14 Q1020 NOSIG
2026-04-16 19:30:00,METAR RJGG 161930Z AUTO 17006KT 9999 FEW016 BKN022 OVC039 15/14 Q1020 NOSIG
2026-04-16 19:00:00,METAR RJGG 161900Z AUTO 18007KT 9999 BKN017 OVC038 15/14 Q1019 NOSIG
2026-04-16 18:30:00,METAR RJGG 161830Z AUTO 16008KT 9999 OVC037 14/13 Q1019 NOSIG
2026-04-16 18:00:00,METAR RJGG 161800Z AUTO 18007KT 9999 FEW040 13/12 Q1019 NOSIG
2026-04-16 17:30:00,METAR RJGG 161730Z AUTO 16005KT 9999 SCT038 13/11 Q1019 NOSIG
2026-04-16 17:00:00,METAR RJGG 161700Z AUTO 15006KT 9999 BKN036 15/12 Q1019 NOSIG
2026-04-16 16:30:00,METAR RJGG 161630Z AUTO 19004KT 9999 FEW019 SCT031 BKN035 15/12 Q1019 NOSIG
2026-04-16 16:00:00,METAR RJGG 161600Z AUTO 18006KT 9999 SCT017 BKN020 BKN026 14/12 Q1019 NOSIG
2026-04-16 15:30:00,METAR RJGG 161530Z AUTO 19005KT 9999 BKN019 BKN027 13/11 Q1019 NOSIG
2026-04-16 15:00:00,METAR RJGG 161500Z AUTO 19006KT 9999 NCD 14/11 Q1019 NOSIG
2026-04-16 14:30:00,METAR RJGG 161430Z AUTO 19009KT 9999 NCD 15/12 Q1018 NOSIG
2026-04-16 14:00:00,METAR RJGG 161400Z AUTO 14017KT 9999 FEW009 17/15 Q1018 NOSIG
2026-04-16 13:30:00,METAR RJGG 161330Z 13013KT 9999 FEW030 17/14 Q1018 NOSIG
2026-04-16 13:00:00,METAR RJGG 161300Z 12008KT 9999 FEW030 17/14 Q1017 NOSIG
2026-04-16 12:30:00,METAR RJGG 161230Z VRB02KT 9999 FEW020 16/12 Q1017 BECMG 20007KT
2026-04-16 12:00:00,METAR RJGG 161200Z 19003KT 160V250 9999 FEW020 16/12 Q1017 NOSIG
2026-04-16 11:30:00,METAR RJGG 161130Z VRB03KT 9999 FEW020 16/11 Q1016 BECMG 14008KT
2026-04-16 11:00:00,METAR RJGG 161100Z 30004KT 9999 FEW020 16/12 Q1016 BECMG 24006KT
2026-04-16 10:30:00,METAR RJGG 161030Z 28005KT 240V300 9999 FEW020 16/12 Q1015 BECMG 24006KT
2026-04-16 10:00:00,METAR RJGG 161000Z 27008KT 9999 FEW020 17/12 Q1015 BECMG TL1030 24006KT
2026-04-16 09:30:00,METAR RJGG 160930Z 28007KT 9999 FEW020 18/12 Q1014 NOSIG
2026-04-16 09:00:00,METAR RJGG 160900Z 30010KT 9999 FEW020 17/12 Q1013 NOSIG
2026-04-16 08:30:00,METAR RJGG 160830Z 30011KT 9999 FEW020 18/13 Q1012 NOSIG
2026-04-16 08:00:00,METAR RJGG 160800Z 25007KT 9999 FEW020 19/12 Q1012 BECMG TL0900 31008KT
2026-04-16 07:30:00,METAR RJGG 160730Z 29011KT 9999 FEW020 19/12 Q1012 NOSIG
2026-04-16 07:00:00,METAR RJGG 160700Z 30015KT 9999 FEW020 19/12 Q1012 NOSIG
2026-04-16 06:00:00,METAR RJGG 160600Z 30014KT 9999 FEW020 20/11 Q1011 NOSIG
2026-04-16 05:30:00,METAR RJGG 160530Z 27011KT 9999 FEW020 20/11 Q1011 NOSIG
2026-04-16 05:00:00,METAR RJGG 160500Z 29011KT 9999 FEW020 20/12 Q1011 NOSIG
2026-04-16 04:30:00,METAR RJGG 160430Z 29012KT 9999 FEW020 20/11 Q1012 NOSIG
2026-04-16 04:00:00,METAR RJGG 160400Z 28012KT 9999 FEW020 20/10 Q1012 NOSIG
2026-04-16 03:30:00,METAR RJGG 160330Z 30012KT 9999 FEW020 20/11 Q1012 NOSIG
2026-04-16 03:00:00,METAR RJGG 160300Z 30013KT 9999 FEW020 20/11 Q1012 NOSIG
2026-04-16 02:30:00,METAR RJGG 160230Z 31016KT 9999 FEW020 19/11 Q1012 NOSIG
2026-04-16 02:00:00,METAR RJGG 160200Z 30016KT 9999 FEW020 19/12 Q1012 NOSIG
2026-04-16 01:30:00,METAR RJGG 160130Z 31013KT 9999 FEW020 19/11 Q1012 NOSIG
2026-04-16 01:00:00,METAR RJGG 160100Z 32016KT 9999 FEW020 19/10 Q1012 NOSIG
2026-04-16 00:30:00,METAR RJGG 160030Z 32017KT 9999 FEW020 18/11 Q1012 NOSIG
2026-04-16 00:00:00,METAR RJGG 160000Z 32017KT 9999 FEW020 18/11 Q1011 NOSIG
2026-04-15 23:30:00,METAR RJGG 152330Z 32019KT 9999 FEW020 17/11 Q1011 NOSIG
2026-04-15 23:00:00,METAR RJGG 152300Z 32017KT 9999 FEW020 17/11 Q1011 NOSIG
2026-04-15 22:30:00,METAR RJGG 152230Z 32024KT 9999 FEW020 16/11 Q1011 NOSIG
2026-04-15 22:00:00,METAR RJGG 152200Z 31020KT 9999 FEW020 16/10 Q1010 NOSIG
2026-04-15 21:30:00,METAR RJGG 152130Z 31021KT 9999 FEW020 16/10 Q1010 NOSIG
2026-04-15 21:00:00,METAR RJGG 152100Z 31018KT 9999 FEW020 16/11 Q1009 NOSIG
2026-04-15 20:30:00,METAR RJGG 152030Z AUTO 31021KT 9999 NCD 16/12 Q1009 NOSIG
2026-04-15 20:00:00,METAR RJGG 152000Z AUTO 30015KT 9999 NCD 15/13 Q1008 NOSIG
2026-04-15 19:30:00,METAR RJGG 151930Z AUTO 28012KT 9999 NCD 15/13 Q1008 NOSIG
2026-04-15 19:00:00,METAR RJGG 151900Z AUTO 29012KT 9999 NCD 15/13 Q1008 NOSIG
2026-04-15 18:30:00,METAR RJGG 151830Z AUTO 29010KT 9999 NCD 15/13 Q1008 NOSIG
2026-04-15 18:00:00,METAR RJGG 151800Z AUTO 32010KT 9999 NCD 14/13 Q1007 NOSIG
2026-04-15 17:30:00,METAR RJGG 151730Z AUTO 33011KT 9999 NCD 14/13 Q1008 NOSIG
2026-04-15 17:00:00,METAR RJGG 151700Z AUTO 33011KT 9999 SCT049 SCT050 14/13 Q1007 NOSIG
2026-04-15 16:30:00,METAR RJGG 151630Z AUTO 34010KT 9999 FEW049 OVC050 15/14 Q1008 NOSIG
2026-04-15 16:00:00,METAR RJGG 151600Z AUTO 36012KT 9999 FEW042 OVC050 14/13 Q1008 NOSIG
2026-04-15 15:30:00,METAR RJGG 151530Z AUTO 35010KT 9999 SCT044 SCT048 OVC050 14/13 Q1008 NOSIG
2026-04-15 15:00:00,METAR RJGG 151500Z AUTO 35011KT 9999 FEW046 SCT050 OVC060 14/13 Q1008 NOSIG
2026-04-15 14:30:00,METAR RJGG 151430Z AUTO 35013KT 9999 NSC 14/13 Q1009 NOSIG
2026-04-15 14:00:00,METAR RJGG 151400Z AUTO 35012KT 9999 -RA NSC 14/13 Q1009 NOSIG
2026-04-15 13:30:00,METAR RJGG 151330Z 35013KT 9999 -RA FEW003 BKN010 OVC100 14/13 Q1009 NOSIG
2026-04-15 13:00:00,METAR RJGG 151300Z 36015KT 8000 -RA FEW003 BKN008 OVC100 14/14 Q1009 BECMG TL1330 FEW005 BKN012
2026-04-15 12:30:00,METAR RJGG 151230Z 35012KT 5000 -RA BR FEW003 BKN005 BKN060 14/13 Q1010 BECMG TL1330 FEW005 BKN015
2026-04-15 12:00:00,METAR RJGG 151200Z 35011KT 8000 -RA FEW005 SCT060 OVC100 14/14 Q1010 NOSIG
2026-04-15 11:30:00,METAR RJGG 151130Z 35012KT 8000 -RA FEW003 SCT020 OVC100 14/14 Q1010 TEMPO 4000 RA BR BKN012
2026-04-15 11:00:00,METAR RJGG 151100Z 35013KT 5000 RA BR FEW003 BKN050 OVC100 14/13 Q1009 TEMPO 3000 RA BR BKN012 BECMG -RA
2026-04-15 10:30:00,METAR RJGG 151030Z 35013KT 3000 RA BR FEW003 SCT040 BKN060 14/13 Q1009 TEMPO BKN012
2026-04-15 10:00:00,METAR RJGG 151000Z 34013KT 3000 RA BR FEW004 BKN050 14/14 Q1009 TEMPO BKN012
2026-04-15 09:30:00,METAR RJGG 150930Z 35012KT 3000 RA BR FEW004 BKN050 OVC080 14/14 Q1009 TEMPO BKN012
2026-04-15 09:00:00,METAR RJGG 150900Z 35011KT 4000 RA BR FEW004 BKN060 OVC080 14/13 Q1009 TEMPO BKN012
2026-04-15 08:30:00,METAR RJGG 150830Z 35011KT 4000 RA BR FEW004 BKN015 BKN060 14/13 Q1009 TEMPO BKN012
2026-04-15 08:00:00,METAR RJGG 150800Z 35010KT 5000 -RA BR FEW004 SCT020 OVC080 14/13 Q1009 TEMPO 4000 RA BR
2026-04-15 07:30:00,METAR RJGG 150730Z 32008KT 5000 RA BR FEW004 SCT040 OVC080 15/14 Q1009 TEMPO 4000 RA BR
2026-04-15 07:00:00,METAR RJGG 150700Z 32008KT 5000 -RA BR FEW015 SCT035 OVC080 15/13 Q1009 TEMPO 4000 RA BR
2026-04-15 06:30:00,METAR RJGG 150630Z 31013KT 9999 -RA FEW030 SCT040 BKN045 15/13 Q1009 TEMPO 4000 RA BR
2026-04-15 06:00:00,METAR RJGG 150600Z 32008KT 9999 -RA FEW015 SCT035 BKN045 16/13 Q1009 TEMPO 4000 RA BR
2026-04-15 05:30:00,METAR RJGG 150530Z 13003KT 110V170 9999 -RA FEW015 SCT035 BKN045 18/12 Q1009 BECMG 36008KT TEMPO 4000 RA BR FEW004 BKN008
2026-04-15 05:00:00,METAR RJGG 150500Z 12011KT 9999 -RA FEW015 SCT030 BKN040 17/12 Q1010 BECMG 36008KT TEMPO 4000 RA BR FEW004 BKN008
2026-04-15 04:30:00,METAR RJGG 150430Z 12010KT 9999 -RA FEW015 SCT030 BKN040 18/11 Q1010 BECMG TL0530 36006KT
2026-04-15 04:00:00,METAR RJGG 150400Z 11011KT 9999 -RA FEW015 BKN030 BKN040 19/12 Q1010 BECMG TL0500 36006KT
2026-04-15 03:30:00,METAR RJGG 150330Z 20006KT 160V240 9999 -RA FEW015 BKN030 BKN040 17/13 Q1011 BECMG TL0500 36006KT
2026-04-15 03:00:00,METAR RJGG 150300Z 14007KT 9999 FEW015 BKN050 19/12 Q1011 BECMG FM0330 36006KT
2026-04-15 02:30:00,METAR RJGG 150230Z 12009KT 9999 FEW015 SCT040 BKN045 19/11 Q1011 BECMG FM0330 36006KT
2026-04-15 02:00:00,METAR RJGG 150200Z 14004KT 090V230 9999 FEW015 BKN048 19/13 Q1012 BECMG FM0300 36006KT
2026-04-15 01:30:00,METAR RJGG 150130Z 08006KT 050V110 9999 FEW010 BKN047 18/13 Q1012 BECMG TL0230 06006KT
2026-04-15 01:00:00,METAR RJGG 150100Z 08008KT 9999 FEW010 BKN045 17/13 Q1012 BECMG TL0230 06006KT
2026-04-15 00:30:00,METAR RJGG 150030Z 10009KT 9999 VCSH FEW010 BKN035 BKN045 17/14 Q1012 NOSIG
2026-04-15 00:00:00,METAR RJGG 150000Z 13005KT 9999 -RA FEW010 SCT025 BKN040 16/14 Q1013 NOSIG
2026-04-14 23:30:00,METAR RJGG 142330Z 13010KT 9999 -RA FEW010 SCT020 BKN045 16/14 Q1013 NOSIG
2026-04-14 23:00:00,METAR RJGG 142300Z 13013KT 7000 -RA FEW010 SCT020 BKN045 16/14 Q1013 NOSIG
2026-04-14 22:30:00,METAR RJGG 142230Z 13012KT 9999 -RA FEW010 SCT020 BKN045 17/14 Q1013 NOSIG
2026-04-14 22:00:00,METAR RJGG 142200Z 12009KT 9999 -RA FEW030 BKN050 17/14 Q1012 NOSIG
2026-04-14 21:30:00,METAR RJGG 142130Z 12009KT 9999 -RA FEW030 BKN050 17/14 Q1012 NOSIG
2026-04-14 21:00:00,METAR RJGG 142100Z 11011KT 9999 -RA FEW030 BKN060 17/14 Q1012 NOSIG
2026-04-14 20:30:00,METAR RJGG 142030Z AUTO 11013KT 9999 -RA NSC 17/14 Q1012 NOSIG
2026-04-14 20:00:00,METAR RJGG 142000Z AUTO 12009KT 090V150 9999 -RA BKN050 OVC060 17/14 Q1012 NOSIG
2026-04-14 19:30:00,METAR RJGG 141930Z AUTO 11005KT 9999 -RA BKN050 OVC060 18/15 Q1012 NOSIG
2026-04-14 19:00:00,METAR RJGG 141900Z AUTO 10006KT 9999 -RA SCT050 OVC060 18/14 Q1012 NOSIG
2026-04-14 18:30:00,METAR RJGG 141830Z AUTO 12008KT 9999 NSC 18/14 Q1012 NOSIG
2026-04-14 18:00:00,METAR RJGG 141800Z AUTO 15005KT 100V170 9999 NSC 17/15 Q1012 NOSIG
2026-04-14 17:30:00,METAR RJGG 141730Z AUTO VRB02KT 9999 -RA BKN050 BKN080 OVC090 17/15 Q1012 NOSIG
2026-04-14 17:00:00,METAR RJGG 141700Z AUTO 20003KT 9999 FEW050 BKN100 OVC110 17/15 Q1013 NOSIG
2026-04-14 16:30:00,METAR RJGG 141630Z AUTO 13006KT 9999 NSC 18/15 Q1013 NOSIG
2026-04-14 16:00:00,METAR RJGG 141600Z AUTO 11005KT 9999 NSC 18/15 Q1013 NOSIG
2026-04-14 15:30:00,METAR RJGG 141530Z AUTO 13005KT 9999 FEW050 SCT060 BKN100 18/15 Q1014 NOSIG
2026-04-14 15:00:00,METAR RJGG 141500Z AUTO 13006KT 9999 FEW050 BKN060 OVC110 18/15 Q1014 NOSIG
2026-04-14 14:30:00,METAR RJGG 141430Z AUTO 12007KT 9999 FEW047 BKN050 OVC060 19/15 Q1014 NOSIG
2026-04-14 14:00:00,METAR RJGG 141400Z AUTO 12009KT 9999 BKN050 OVC110 18/15 Q1014 NOSIG
2026-04-14 13:30:00,METAR RJGG 141330Z 12012KT 9999 FEW020 BKN110 BKN140 18/15 Q1014 NOSIG
2026-04-14 13:00:00,METAR RJGG 141300Z 11011KT 9999 FEW020 BKN110 BKN140 18/15 Q1014 NOSIG
2026-04-14 12:30:00,METAR RJGG 141230Z 12011KT 9999 FEW020 BKN120 BKN140 18/15 Q1014 NOSIG
2026-04-14 12:00:00,METAR RJGG 141200Z 12011KT 9999 FEW020 BKN120 BKN140 18/15 Q1014 NOSIG
2026-04-14 11:30:00,METAR RJGG 141130Z 11011KT 9999 FEW020 BKN120 BKN140 18/15 Q1014 NOSIG
2026-04-14 11:00:00,METAR RJGG 141100Z 11013KT 9999 FEW020 SCT120 BKN140 18/15 Q1014 NOSIG
2026-04-14 10:30:00,METAR RJGG 141030Z 12013KT 9999 FEW020 SCT120 BKN140 19/15 Q1013 NOSIG
2026-04-14 10:00:00,METAR RJGG 141000Z 13013KT 9999 FEW020 BKN150 19/14 Q1014 NOSIG
2026-04-14 09:30:00,METAR RJGG 140930Z 13014KT 9999 FEW020 BKN150 19/14 Q1013 NOSIG
2026-04-14 09:00:00,METAR RJGG 140900Z 13013KT 9999 FEW020 BKN140 19/15 Q1013 NOSIG
2026-04-14 08:30:00,METAR RJGG 140830Z 14010KT 9999 FEW020 BKN140 BKN/// 20/14 Q1013 NOSIG
2026-04-14 08:00:00,METAR RJGG 140800Z 16012KT 9999 FEW020 SCT150 BKN/// 19/14 Q1013 NOSIG
2026-04-14 07:30:00,METAR RJGG 140730Z 15015KT 9999 FEW020 SCT150 BKN/// 21/14 Q1013 NOSIG
2026-04-14 07:00:00,METAR RJGG 140700Z 17014KT 9999 FEW020 BKN/// 20/15 Q1013 NOSIG
2026-04-14 06:30:00,METAR RJGG 140630Z 17013KT 9999 FEW020 BKN/// 22/16 Q1013 NOSIG
2026-04-14 06:00:00,METAR RJGG 140600Z 17014KT 9999 FEW020 BKN/// 20/16 Q1013 NOSIG
2026-04-14 05:30:00,METAR RJGG 140530Z 19012KT 9999 FEW020 SCT030 BKN/// 19/16 Q1013 NOSIG
2026-04-14 05:00:00,METAR RJGG 140500Z 19011KT 9999 FEW020 SCT030 BKN150 20/15 Q1013 NOSIG
2026-04-14 04:30:00,METAR RJGG 140430Z 19008KT 150V210 9999 FEW020 BKN150 BKN/// 19/14 Q1014 NOSIG
2026-04-14 04:00:00,METAR RJGG 140400Z 24005KT 9999 FEW020 BKN150 BKN/// 20/14 Q1014 NOSIG
2026-04-14 03:30:00,METAR RJGG 140330Z 26004KT 9999 FEW020 SCT150 BKN/// 19/14 Q1014 BECMG 24005KT
2026-04-14 03:00:00,METAR RJGG 140300Z 25004KT 9999 FEW020 SCT035 BKN/// 18/13 Q1015 NOSIG
2026-04-14 02:30:00,METAR RJGG 140230Z 26003KT 9999 FEW020 BKN/// 18/13 Q1015 BECMG TL0400 24005KT
2026-04-14 02:00:00,METAR RJGG 140200Z 29004KT 9999 FEW020 SCT/// 18/12 Q1015 BECMG FM0300 24005KT
2026-04-14 01:30:00,METAR RJGG 140130Z 31005KT 9999 FEW020 SCT035 18/12 Q1015 BECMG FM0300 24005KT
2026-04-14 01:00:00,METAR RJGG 140100Z 31006KT 9999 FEW020 SCT150 17/12 Q1016 NOSIG
2026-04-14 00:30:00,METAR RJGG 140030Z 32007KT 9999 FEW020 17/12 Q1016 NOSIG
2026-04-14 00:00:00,METAR RJGG 140000Z 32007KT 9999 FEW020 BKN150 17/12 Q1016 NOSIG
2026-04-13 23:30:00,METAR RJGG 132330Z 03003KT 290V090 9999 FEW020 SCT150 17/12 Q1016 NOSIG
2026-04-13 23:00:00,METAR RJGG 132300Z 36003KT 320V040 9999 FEW020 SCT150 16/11 Q1016 NOSIG
2026-04-13 22:30:00,METAR RJGG 132230Z VRB01KT 9999 FEW020 BKN150 15/11 Q1015 NOSIG
2026-04-13 22:00:00,METAR RJGG 132200Z VRB02KT 9999 FEW020 BKN150 16/11 Q1015 NOSIG
2026-04-13 21:30:00,METAR RJGG 132130Z 01004KT 9999 FEW020 SCT150 14/11 Q1015 NOSIG
2026-04-13 21:00:00,METAR RJGG 132100Z 34002KT 9999 FEW020 SCT150 12/10 Q1015 NOSIG
2026-04-13 20:30:00,METAR RJGG 132030Z AUTO 30001KT 7000 NSC 13/11 Q1015 NOSIG
2026-04-13 20:00:00,METAR RJGG 132000Z AUTO VRB01KT 8000 NSC 14/13 Q1015 NOSIG
2026-04-13 19:30:00,METAR RJGG 131930Z AUTO 13002KT 7000 NSC 14/12 Q1015 NOSIG
2026-04-13 19:00:00,METAR RJGG 131900Z AUTO 12003KT 030V170 9999 NSC 14/12 Q1015 NOSIG
2026-04-13 18:30:00,METAR RJGG 131830Z AUTO VRB01KT 9999 NSC 14/12 Q1015 NOSIG
2026-04-13 18:00:00,METAR RJGG 131800Z AUTO 14001KT 9999 NSC 14/12 Q1014 NOSIG
2026-04-13 17:30:00,METAR RJGG 131730Z AUTO 23002KT 9999 NSC 14/12 Q1014 NOSIG
2026-04-13 17:00:00,METAR RJGG 131700Z AUTO 19002KT 9999 NSC 14/12 Q1015 NOSIG
2026-04-13 16:30:00,METAR RJGG 131630Z AUTO 16003KT 9000 NSC 14/13 Q1015 NOSIG
2026-04-13 16:00:00,METAR RJGG 131600Z AUTO 22001KT 9999 NSC 14/13 Q1015 NOSIG
2026-04-13 15:30:00,METAR RJGG 131530Z AUTO 20002KT 9999 NSC 15/13 Q1015 NOSIG
2026-04-13 15:00:00,METAR RJGG 131500Z AUTO 25002KT 9999 NSC 15/12 Q1015 NOSIG
2026-04-13 14:30:00,METAR RJGG 131430Z AUTO 20003KT 180V260 9999 NSC 15/12 Q1015 NOSIG
2026-04-13 14:00:00,METAR RJGG 131400Z AUTO VRB01KT 9999 NSC 16/12 Q1015 NOSIG
2026-04-13 13:30:00,METAR RJGG 131330Z 10003KT 9999 FEW030 BKN150 16/11 Q1015 NOSIG
2026-04-13 13:00:00,METAR RJGG 131300Z 09003KT 030V120 9999 FEW030 BKN150 16/10 Q1016 NOSIG
2026-04-13 12:30:00,METAR RJGG 131230Z 10003KT 9999 FEW030 BKN150 16/10 Q1016 NOSIG
2026-04-13 12:00:00,METAR RJGG 131200Z 08003KT 9999 FEW030 BKN150 17/10 Q1016 NOSIG
2026-04-13 11:30:00,METAR RJGG 131130Z 16003KT 9999 FEW030 BKN150 BKN/// 15/10 Q1015 NOSIG
2026-04-13 11:00:00,METAR RJGG 131100Z 00000KT 9999 FEW030 BKN150 16/10 Q1015 NOSIG
2026-04-13 10:30:00,METAR RJGG 131030Z VRB01KT 9999 FEW030 BKN150 16/10 Q1015 NOSIG
2026-04-13 10:00:00,METAR RJGG 131000Z VRB02KT 9999 FEW030 BKN150 16/08 Q1015 NOSIG
2026-04-13 09:30:00,METAR RJGG 130930Z VRB01KT 9999 FEW030 BKN150 BKN/// 15/11 Q1015 NOSIG
2026-04-13 09:00:00,METAR RJGG 130900Z 26003KT 9999 FEW030 BKN150 16/12 Q1014 NOSIG
2026-04-13 08:30:00,METAR RJGG 130830Z 29004KT 9999 FEW030 BKN150 16/12 Q1014 NOSIG
2026-04-13 08:00:00,METAR RJGG 130800Z 28003KT 9999 FEW030 BKN150 16/11 Q1014 NOSIG
2026-04-13 07:30:00,METAR RJGG 130730Z 23003KT 9999 FEW030 BKN150 16/10 Q1014 NOSIG
2026-04-13 07:00:00,METAR RJGG 130700Z 25003KT 9999 FEW030 BKN160 17/10 Q1014 NOSIG
2026-04-13 06:30:00,METAR RJGG 130630Z 23003KT 9999 FEW030 BKN160 16/10 Q1014 NOSIG
2026-04-13 06:00:00,METAR RJGG 130600Z 24004KT CAVOK 16/10 Q1014 NOSIG
2026-04-13 05:30:00,METAR RJGG 130530Z 23004KT CAVOK 16/11 Q1015 NOSIG
2026-04-13 05:00:00,METAR RJGG 130500Z 23003KT CAVOK 16/10 Q1015 NOSIG
2026-04-13 04:30:00,METAR RJGG 130430Z 20005KT CAVOK 16/10 Q1015 NOSIG
2026-04-13 04:00:00,METAR RJGG 130400Z 20005KT CAVOK 16/10 Q1015 NOSIG
2026-04-13 03:30:00,METAR RJGG 130330Z 19005KT CAVOK 15/10 Q1015 NOSIG
2026-04-13 03:00:00,METAR RJGG 130300Z 19005KT CAVOK 16/09 Q1015 NOSIG
2026-04-13 02:30:00,METAR RJGG 130230Z 25002KT CAVOK 16/09 Q1016 NOSIG
2026-04-13 02:00:00,METAR RJGG 130200Z 26003KT CAVOK 17/10 Q1016 BECMG TL0230 25006KT
2026-04-13 01:30:00,METAR RJGG 130130Z 27004KT CAVOK 16/09 Q1016 BECMG TL0300 25005KT
2026-04-13 01:00:00,METAR RJGG 130100Z 30004KT CAVOK 16/09 Q1016 BECMG FM0200 25006KT
2026-04-13 00:30:00,METAR RJGG 130030Z 27003KT 240V300 CAVOK 15/09 Q1016 BECMG FM0200 25005KT
2026-04-13 00:00:00,METAR RJGG 130000Z 29003KT 260V330 CAVOK 14/09 Q1016 NOSIG
2026-04-12 23:30:00,METAR RJGG 122330Z 31005KT CAVOK 14/08 Q1016 NOSIG
2026-04-12 23:00:00,METAR RJGG 122300Z 33005KT CAVOK 15/07 Q1016 NOSIG
2026-04-12 22:30:00,METAR RJGG 122230Z 35008KT CAVOK 14/08 Q1016 NOSIG
2026-04-12 22:00:00,METAR RJGG 122200Z 36008KT CAVOK 14/08 Q1016 NOSIG
2026-04-12 21:30:00,METAR RJGG 122130Z 33008KT CAVOK 14/09 Q1016 NOSIG
2026-04-12 21:00:00,METAR RJGG 122100Z 34005KT CAVOK 12/07 Q1016 NOSIG
2026-04-12 20:30:00,METAR RJGG 122030Z AUTO 36004KT 9999 NSC 12/07 Q1015 NOSIG
2026-04-12 20:00:00,METAR RJGG 122000Z AUTO 36004KT 9999 NSC 11/07 Q1015 NOSIG
2026-04-12 19:30:00,METAR RJGG 121930Z AUTO 36008KT 9999 NSC 12/07 Q1015 NOSIG
2026-04-12 19:00:00,METAR RJGG 121900Z AUTO 35009KT 9999 NSC 10/06 Q1015 NOSIG
2026-04-12 18:30:00,METAR RJGG 121830Z AUTO 35006KT 9999 NSC 11/07 Q1015 NOSIG
2026-04-12 18:00:00,METAR RJGG 121800Z AUTO 35004KT 9999 NSC 13/07 Q1015 NOSIG
2026-04-12 17:30:00,METAR RJGG 121730Z AUTO 05003KT 9999 NSC 13/06 Q1015 NOSIG
2026-04-12 17:00:00,METAR RJGG 121700Z AUTO 06002KT 9999 NSC 14/07 Q1015 NOSIG
2026-04-12 16:30:00,METAR RJGG 121630Z AUTO 06005KT 9999 NSC 14/08 Q1015 NOSIG
2026-04-12 16:00:00,METAR RJGG 121600Z AUTO VRB02KT 9999 NSC 14/08 Q1015 NOSIG
2026-04-12 15:00:00,METAR RJGG 121500Z AUTO VRB01KT 9999 NSC 14/07 Q1015 BECMG 36005KT
2026-04-12 14:30:00,METAR RJGG 121430Z AUTO VRB02KT 9999 NSC 14/07 Q1015 BECMG 36005KT
2026-04-12 14:00:00,METAR RJGG 121400Z AUTO 11004KT 350V140 9999 NSC 15/08 Q1015 BECMG 36005KT
2026-04-12 13:30:00,METAR RJGG 121330Z 31002KT CAVOK 15/10 Q1015 NOSIG
2026-04-12 13:00:00,METAR RJGG 121300Z VRB01KT CAVOK 15/09 Q1015 BECMG 36005KT
2026-04-12 12:30:00,METAR RJGG 121230Z 12004KT CAVOK 16/08 Q1015 BECMG 36005KT
2026-04-12 12:00:00,METAR RJGG 121200Z VRB02KT CAVOK 15/04 Q1014 NOSIG
2026-04-12 11:30:00,METAR RJGG 121130Z 24001KT CAVOK 16/08 Q1014 NOSIG
2026-04-12 11:00:00,METAR RJGG 121100Z 29002KT CAVOK 16/10 Q1014 NOSIG
2026-04-12 10:30:00,METAR RJGG 121030Z 28005KT CAVOK 16/10 Q1013 NOSIG
2026-04-12 10:00:00,METAR RJGG 121000Z 28007KT CAVOK 17/09 Q1013 NOSIG
2026-04-12 09:30:00,METAR RJGG 120930Z 26008KT CAVOK 17/09 Q1013 BECMG TL0940 25006KT
2026-04-12 09:00:00,METAR RJGG 120900Z 27010KT CAVOK 18/08 Q1013 NOSIG
2026-04-12 08:30:00,METAR RJGG 120830Z 26010KT CAVOK 18/08 Q1013 NOSIG
2026-04-12 08:00:00,METAR RJGG 120800Z 28012KT CAVOK 19/06 Q1013 NOSIG
2026-04-12 07:30:00,METAR RJGG 120730Z 28014KT 9999 FEW020 BKN/// 19/08 Q1012 NOSIG
2026-04-12 07:00:00,METAR RJGG 120700Z 28009KT 9999 FEW020 BKN/// 20/08 Q1012 NOSIG
2026-04-12 06:30:00,METAR RJGG 120630Z 28012KT 9999 FEW020 BKN/// 20/10 Q1012 NOSIG
2026-04-12 06:00:00,METAR RJGG 120600Z 27012KT 9999 FEW020 BKN/// 20/06 Q1012 NOSIG
2026-04-12 05:30:00,METAR RJGG 120530Z 25012KT 9999 FEW020 BKN/// 20/08 Q1013 BECMG TL0600 26008KT
2026-04-12 05:00:00,METAR RJGG 120500Z 23010KT 9999 FEW020 BKN/// 19/09 Q1013 BECMG FM0600 27008KT
2026-04-12 04:30:00,METAR RJGG 120430Z 22009KT 9999 FEW020 SCT/// 19/08 Q1013 BECMG FM0600 27008KT
2026-04-12 04:00:00,METAR RJGG 120400Z 23009KT 9999 FEW020 19/09 Q1013 NOSIG
2026-04-12 03:30:00,METAR RJGG 120330Z 25006KT 9999 FEW020 19/09 Q1013 NOSIG
2026-04-12 03:00:00,METAR RJGG 120300Z 29006KT 9999 FEW020 BKN/// 18/07 Q1014 BECMG 25006KT
2026-04-12 02:30:00,METAR RJGG 120230Z 27003KT 9999 FEW020 BKN/// 18/08 Q1014 BECMG FM0300 25006KT
2026-04-12 02:00:00,METAR RJGG 120200Z 31005KT 9999 FEW020 BKN/// 17/07 Q1015 BECMG FM0300 25006KT
2026-04-12 01:30:00,METAR RJGG 120130Z 31008KT 9999 FEW020 BKN/// 18/10 Q1015 BECMG FM0230 25006KT
2026-04-12 01:00:00,METAR RJGG 120100Z 33009KT 9999 FEW020 BKN/// 17/10 Q1015 BECMG 25006KT
2026-04-12 00:30:00,METAR RJGG 120030Z 32011KT 9999 FEW020 BKN/// 17/10 Q1015 BECMG 25006KT
2026-04-12 00:00:00,METAR RJGG 120000Z 31013KT 9999 FEW020 BKN/// 16/09 Q1014 NOSIG
2026-04-11 23:30:00,METAR RJGG 112330Z 30015KT 9999 FEW020 BKN/// 15/09 Q1014 NOSIG
2026-04-11 23:00:00,METAR RJGG 112300Z 31017KT 9999 FEW020 BKN/// 15/09 Q1014 NOSIG
2026-04-11 22:30:00,METAR RJGG 112230Z 31018KT CAVOK 15/09 Q1013 NOSIG
2026-04-11 22:00:00,METAR RJGG 112200Z 31018KT CAVOK 14/10 Q1013 NOSIG
2026-04-11 21:30:00,METAR RJGG 112130Z 32017KT CAVOK 14/10 Q1013 NOSIG
2026-04-11 21:00:00,METAR RJGG 112100Z 32018KT CAVOK 14/09 Q1013 NOSIG
2026-04-11 20:30:00,METAR RJGG 112030Z AUTO 32020KT 9999 NCD 15/10 Q1013 NOSIG
2026-04-11 20:00:00,METAR RJGG 112000Z AUTO 33017KT 9999 NCD 14/09 Q1012 NOSIG
2026-04-11 19:30:00,METAR RJGG 111930Z AUTO 31015KT 9999 NCD 14/10 Q1012 NOSIG
2026-04-11 19:00:00,METAR RJGG 111900Z AUTO 32012KT 9999 NCD 15/09 Q1012 NOSIG
2026-04-11 18:30:00,METAR RJGG 111830Z AUTO 32009KT 9999 NSC 14/10 Q1012 NOSIG
2026-04-11 18:00:00,METAR RJGG 111800Z AUTO 31010KT 9999 NSC 14/09 Q1011 NOSIG
2026-04-11 17:30:00,METAR RJGG 111730Z AUTO 31011KT 9999 NSC 15/09 Q1011 NOSIG
2026-04-11 17:00:00,METAR RJGG 111700Z AUTO 33009KT 9999 NSC 14/09 Q1011 NOSIG
2026-04-11 16:30:00,METAR RJGG 111630Z AUTO 34008KT 9999 NSC 14/10 Q1011 NOSIG
2026-04-11 16:00:00,METAR RJGG 111600Z AUTO 35009KT 9999 NSC 14/10 Q1011 NOSIG
2026-04-11 15:30:00,METAR RJGG 111530Z AUTO 36009KT 9999 NCD 14/08 Q1011 NOSIG
2026-04-11 15:00:00,METAR RJGG 111500Z AUTO 02008KT 9999 NCD 15/08 Q1011 NOSIG
2026-04-11 14:30:00,METAR RJGG 111430Z AUTO 34017KT 9999 NCD 16/08 Q1010 NOSIG
2026-04-11 14:00:00,METAR RJGG 111400Z AUTO 32024KT 9999 NCD 16/08 Q1010 NOSIG
2026-04-11 13:30:00,METAR RJGG 111330Z 33023KT CAVOK 16/09 Q1010 NOSIG
2026-04-11 13:00:00,METAR RJGG 111300Z 34020KT CAVOK 16/08 Q1010 NOSIG
2026-04-11 12:30:00,METAR RJGG 111230Z 34019KT CAVOK 16/08 Q1010 NOSIG
2026-04-11 12:00:00,METAR RJGG 111200Z 33018KT CAVOK 16/08 Q1009 NOSIG
2026-04-11 11:30:00,METAR RJGG 111130Z 34016KT CAVOK 17/08 Q1009 NOSIG
2026-04-11 11:00:00,METAR RJGG 111100Z 34016KT CAVOK 18/06 Q1009 NOSIG
2026-04-11 10:30:00,METAR RJGG 111030Z 35015KT CAVOK 17/06 Q1008 NOSIG
2026-04-11 10:00:00,METAR RJGG 111000Z 36014KT CAVOK 18/05 Q1008 NOSIG
2026-04-11 09:30:00,METAR RJGG 110930Z 36014KT 9999 FEW020 18/07 Q1007 NOSIG
2026-04-11 09:00:00,METAR RJGG 110900Z 36014KT 9999 FEW020 19/07 Q1007 NOSIG
2026-04-11 08:30:00,METAR RJGG 110830Z 01013KT 9999 FEW020 20/05 Q1006 NOSIG
2026-04-11 08:00:00,METAR RJGG 110800Z 36015KT 9999 FEW020 21/06 Q1006 NOSIG
2026-04-11 07:30:00,METAR RJGG 110730Z 35016KT 9999 FEW020 21/07 Q1006 NOSIG
2026-04-11 07:00:00,METAR RJGG 110700Z 34019KT 9999 FEW020 22/07 Q1006 NOSIG
2026-04-11 06:30:00,METAR RJGG 110630Z 34016KT 9999 FEW020 21/08 Q1006 NOSIG
2026-04-11 06:00:00,METAR RJGG 110600Z 34019KT 9999 FEW020 22/07 Q1006 NOSIG
2026-04-11 05:30:00,METAR RJGG 110530Z 34020KT 9999 FEW020 23/08 Q1005 NOSIG
2026-04-11 05:00:00,METAR RJGG 110500Z 34018KT 9999 FEW020 24/06 Q1006 NOSIG
2026-04-11 04:30:00,METAR RJGG 110430Z 34016KT 9999 FEW020 23/07 Q1006 NOSIG
2026-04-11 04:00:00,METAR RJGG 110400Z 34015KT 9999 FEW020 22/10 Q1006 NOSIG
2026-04-11 03:30:00,METAR RJGG 110330Z 34015KT 9999 FEW020 22/10 Q1006 NOSIG
2026-04-11 03:00:00,METAR RJGG 110300Z 34012KT 9999 FEW020 20/11 Q1007 NOSIG
2026-04-11 02:30:00,METAR RJGG 110230Z 33010KT 9999 FEW020 21/10 Q1007 NOSIG
2026-04-11 02:00:00,METAR RJGG 110200Z 33014KT 9999 FEW020 20/11 Q1007 NOSIG
2026-04-11 01:30:00,METAR RJGG 110130Z 34017KT 9999 FEW020 20/11 Q1007 NOSIG
2026-04-11 01:00:00,METAR RJGG 110100Z 34018KT 9999 FEW020 SCT050 20/12 Q1007 NOSIG
2026-04-11 00:30:00,METAR RJGG 110030Z 34018KT 9999 FEW020 BKN050 20/12 Q1007 NOSIG
2026-04-11 00:00:00,METAR RJGG 110000Z 34015KT 9999 FEW020 BKN050 18/12 Q1007 NOSIG
2026-04-10 23:30:00,METAR RJGG 102330Z 33013KT 9999 FEW020 BKN040 16/12 Q1006 NOSIG
2026-04-10 23:00:00,METAR RJGG 102300Z 33016KT 9999 FEW010 BKN040 16/13 Q1006 NOSIG
2026-04-10 22:30:00,METAR RJGG 102230Z 33014KT 9999 FEW010 SCT050 16/13 Q1005 NOSIG
2026-04-10 22:00:00,METAR RJGG 102200Z 32010KT 9999 FEW010 SCT040 15/14 Q1005 NOSIG
2026-04-10 21:30:00,METAR RJGG 102130Z 32008KT 9999 FEW005 15/14 Q1005 NOSIG
2026-04-10 21:00:00,METAR RJGG 102100Z 32006KT 9999 PRFG BR FEW001 SCT030 15/15 Q1004 TEMPO TL2200 0300 FG VV001
2026-04-10 20:30:00,METAR RJGG 102030Z AUTO 34005KT 290V360 0100 R36/0400VP2000D FG BKN001 14/14 Q1004 BECMG TL2210 5000 BR FEW003
2026-04-10 20:00:00,METAR RJGG 102000Z AUTO 33004KT 9999 R36/P2000N NCD 15/15 Q1003 TEMPO 0300 FG VV001
2026-04-10 19:30:00,METAR RJGG 101930Z AUTO 33005KT 6000 R36/P2000N NCD 13/13 Q1003 TEMPO 0300 FG VV001
2026-04-10 19:00:00,METAR RJGG 101900Z AUTO 33010KT 0400 R36/1300VP2000N FG NCD 14/14 Q1003 TEMPO 0300 FG VV001
2026-04-10 18:30:00,METAR RJGG 101830Z AUTO 28012KT 9999 NCD 15/13 Q1003 TEMPO 0300 FG VV001
2026-04-10 18:00:00,METAR RJGG 101800Z AUTO 26007KT 9999 NCD 16/14 Q1002 TEMPO 0300 FG VV001
2026-04-10 17:30:00,METAR RJGG 101730Z AUTO VRB01KT 9999 NCD 15/15 Q1002 TEMPO 0300 FG VV001 BECMG 32006KT
2026-04-10 17:00:00,METAR RJGG 101700Z AUTO VRB02KT 9999 R36/P2000N NCD 14/14 Q1002 BECMG 31006KT TEMPO 0300 FG VV001
2026-04-10 16:30:00,METAR RJGG 101630Z AUTO 36004KT 9999 R36/P2000N NCD 14/13 Q1002 TEMPO 0300 FG VV001
2026-04-10 16:00:00,METAR RJGG 101600Z AUTO VRB03KT 9999 R36/P2000N NCD 18/16 Q1002 BECMG 36005KT TEMPO FM1700 0300 FG VV001
2026-04-10 15:30:00,METAR RJGG 101530Z AUTO VRB03KT 9999 NCD 16/16 Q1002 TEMPO FM1700 0300 FG VV001
2026-04-10 15:00:00,METAR RJGG 101500Z AUTO 32003KT 230V360 9999 FEW033 14/14 Q1002 NOSIG
2026-04-10 14:30:00,METAR RJGG 101430Z AUTO 20006KT 9999 FEW031 BKN090 17/16 Q1002 NOSIG
2026-04-10 14:00:00,METAR RJGG 101400Z AUTO 20004KT 170V250 9999 FEW035 17/17 Q1002 NOSIG
2026-04-10 13:30:00,METAR RJGG 101330Z 15005KT 9999 FEW010 17/16 Q1002 NOSIG
2026-04-10 13:00:00,METAR RJGG 101300Z 13004KT 040V180 9999 FEW001 SCT070 17/17 Q1002 NOSIG
2026-04-10 12:30:00,METAR RJGG 101230Z 13004KT 100V180 5000 R36/0800VP2000N PRFG BR FEW001 BKN070 16/16 Q1002 TEMPO 0300 FG VV001
2026-04-10 12:00:00,METAR RJGG 101200Z 19002KT 1500 R36/0650V1200U PRFG BR FEW001 BKN030 16/16 Q1002 TEMPO 0300 FG VV001
2026-04-10 11:30:00,METAR RJGG 101130Z VRB02KT 0200 R36/0650N FG VV001 15/15 Q1002 NOSIG
2026-04-10 11:00:00,METAR RJGG 101100Z 20007KT 0200 R18/0500N FG VV001 15/15 Q1002 NOSIG
2026-04-10 10:30:00,METAR RJGG 101030Z 19004KT 1500 R36/0700N PRFG BR SCT001 BKN045 15/15 Q1001 TEMPO 0300 FG
2026-04-10 10:00:00,METAR RJGG 101000Z VRB02KT 1500 R36/P2000N BR FEW001 BKN045 BKN080 18/18 Q1001 TEMPO 0300 FG
2026-04-10 09:30:00,METAR RJGG 100930Z 36004KT 0300 R36/1100VP2000U FG SCT001 BKN060 BKN150 17/16 Q1001 NOSIG
2026-04-10 09:00:00,METAR RJGG 100900Z 11004KT 070V130 5000 R36/P2000N PRFG BR FEW001 SCT060 BKN150 18/18 Q1000 BECMG 27005KT
2026-04-10 08:30:00,METAR RJGG 100830Z 09004KT 5000 -SHRA BR FEW010 SCT025 BKN035 18/18 Q1000 BECMG 27005KT
2026-04-10 08:00:00,METAR RJGG 100800Z 36011KT 1500 R36/P2000N SHRA BR FEW001 SCT013 BKN030CB 17/17 Q1000 TEMPO +TSRA BR FEW001 BKN005 FEW025CB BECMG TL0920 30005KT 6000 -SHRA
2026-04-10 07:30:00,METAR RJGG 100730Z 36013G24KT 320V050 1500 R36/0900VP2000D +TSRA FEW002 BKN030CB 17/17 Q1000 NOSIG
2026-04-10 07:00:00,METAR RJGG 100700Z 36008KT 8000 -SHRA FEW005 SCT010 BKN030 17/17 Q1000 TEMPO 4500 SHRA BR FEW003 BKN008 BECMG 25005KT
2026-04-10 06:30:00,METAR RJGG 100630Z 27006KT 170V300 8000 -SHRA FEW008 SCT020 BKN035 16/15 Q1000 TEMPO 4500 -SHRA BR FEW003 BKN008 BECMG 25005KT
2026-04-10 06:00:00,METAR RJGG 100600Z 17005KT 8000 -SHRA FEW008 BKN015 BKN035 19/18 Q1000 TEMPO 4500 -SHRA BR FEW003 BKN008
2026-04-10 05:30:00,METAR RJGG 100530Z 14006KT 4500 -SHRA BR FEW010 BKN015 BKN035 18/17 Q1000 TEMPO FEW003 BKN008
2026-04-10 05:00:00,METAR RJGG 100500Z 17006KT 140V210 9999 FEW010 BKN050 BKN170 18/18 Q1001 TEMPO FEW003 BKN012
2026-04-10 04:30:00,METAR RJGG 100430Z 16013KT 9999 FEW014 BKN050 BKN120 18/17 Q1001 TEMPO 3000 SHRA BR FEW003 BKN005
2026-04-10 04:00:00,METAR RJGG 100400Z 15013KT 9999 FEW010 BKN014 19/18 Q1002 TEMPO 3000 SHRA BR FEW003 BKN005
2026-04-10 03:30:00,METAR RJGG 100330Z 14013KT 9999 FEW010 SCT020 BKN150 18/18 Q1002 TEMPO 3000 SHRA BR FEW003 BKN005
2026-04-10 03:00:00,METAR RJGG 100300Z 14015KT 6000 SHRA FEW006 SCT012 BKN020 17/17 Q1003 TEMPO 3000 SHRA BR FEW003 BKN005
2026-04-10 02:30:00,METAR RJGG 100230Z 15013KT 5000 SHRA BR FEW005 SCT012 BKN020 17/16 Q1004 TEMPO 3000 SHRA BR FEW003 BKN005
2026-04-10 02:00:00,METAR RJGG 100200Z 13012KT 8000 -SHRA FEW004 BKN005 BKN015 17/17 Q1004 TEMPO 3000 SHRA BR
2026-04-10 01:30:00,METAR RJGG 100130Z 12013KT 7000 SHRA FEW004 SCT012 BKN018 17/17 Q1005 TEMPO 3000 SHRA BR FEW003 BKN005
2026-04-10 01:00:00,METAR RJGG 100100Z 13014KT 3000 R18/2000N SHRA FEW005 BKN012 BKN020 17/16 Q1006 TEMPO FEW003 BKN005
2026-04-10 00:30:00,METAR RJGG 100030Z 12013KT 7000 -SHRA FEW007 SCT014 BKN020 17/16 Q1006 TEMPO 3000 SHRA BR FEW003 BKN005
2026-04-10 00:00:00,METAR RJGG 100000Z 12013KT 6000 SHRA FEW015 SCT025 BKN040 17/16 Q1006 TEMPO 3000 SHRA BR FEW003 BKN005
2026-04-09 23:30:00,METAR RJGG 092330Z 12012KT 9999 -SHRA FEW015 BKN025 BKN035 16/15 Q1007 TEMPO 3000 SHRA BR FEW003 BKN005
2026-04-09 23:00:00,METAR RJGG 092300Z 12010KT 9999 -SHRA FEW015 SCT025 BKN035 16/15 Q1007 TEMPO 3000 SHRA BR FEW003 BKN005
2026-04-09 22:30:00,METAR RJGG 092230Z 14014KT 7000 -SHRA FEW015 SCT025 BKN035 16/15 Q1007 TEMPO 4000 SHRA BR FEW003 BKN008
2026-04-09 22:00:00,METAR RJGG 092200Z 12011KT 8000 -SHRA FEW015 SCT025 BKN040 16/15 Q1007 TEMPO FM2230 4000 SHRA BR FEW003 BKN008
2026-04-09 21:30:00,METAR RJGG 092130Z 12011KT 7000 -SHRA FEW015 SCT025 BKN035 16/15 Q1007 TEMPO FM2230 4000 SHRA BR FEW003 BKN008
2026-04-09 21:00:00,METAR RJGG 092100Z 12012KT 9999 -SHRA FEW020 SCT030 BKN040 16/15 Q1007 NOSIG
2026-04-09 20:30:00,METAR RJGG 092030Z AUTO 11011KT 9999 SCT050 OVC060 //////TCU 16/15 Q1007 NOSIG
2026-04-09 20:00:00,METAR RJGG 092000Z AUTO 11012KT 9999 FEW049 SCT050 BKN060 //////TCU 16/15 Q1007 NOSIG
2026-04-09 19:30:00,METAR RJGG 091930Z AUTO 12012KT 9999 -RA BKN060 OVC070 //////TCU 16/15 Q1008 TEMPO TL2030 4000 SHRA BR
2026-04-09 19:00:00,METAR RJGG 091900Z AUTO 11011KT 9999 -RA FEW026 BKN060 OVC070 //////TCU 16/15 Q1008 TEMPO FM1930 TL2030 4000 SHRA BR
2026-04-09 18:30:00,METAR RJGG 091830Z AUTO 13012KT 9999 -RA FEW023 BKN060 OVC070 //////TCU 16/15 Q1008 NOSIG
2026-04-09 18:00:00,METAR RJGG 091800Z AUTO 14014KT 9999 FEW023 BKN060 OVC070 16/14 Q1008 NOSIG
2026-04-09 17:30:00,METAR RJGG 091730Z AUTO 14013KT 9999 -RA FEW023 SCT060 BKN070 16/15 Q1008 NOSIG
2026-04-09 17:00:00,METAR RJGG 091700Z AUTO 15014KT 9999 FEW050 OVC080 //////TCU 15/14 Q1008 NOSIG
2026-04-09 16:30:00,METAR RJGG 091630Z AUTO 15016KT 9999 FEW010 SCT050 BKN060 16/15 Q1009 NOSIG
2026-04-09 16:00:00,METAR RJGG 091600Z AUTO 14013KT 7000 FEW005 BKN007 BKN008 //////TCU 16/15 Q1010 TEMPO TL1630 4000 -SHRA BR
2026-04-09 15:30:00,METAR RJGG 091530Z AUTO 13013KT 9999 -RA FEW005 SCT007 BKN019 //////TCU 16/15 Q1010 TEMPO 4000 -TSRA BR FEW003 BKN008 FEW020CB
2026-04-09 15:00:00,METAR RJGG 091500Z AUTO 14013KT 4200 RA BR FEW002 SCT006 BKN011 //////TCU 16/15 Q1012 TEMPO TL1600 3000 +TSRA BR FEW003 BKN005 FEW020CB
2026-04-09 14:30:00,METAR RJGG 091430Z AUTO 12013KT 6000 RA BKN005 OVC025 //////CB 15/15 Q1012 NOSIG
2026-04-09 14:00:00,METAR RJGG 091400Z AUTO 12012KT 9999 -RA FEW008 BKN011 BKN070 15/14 Q1013 TEMPO FM1500 3000 RA BR FEW003 BKN005
2026-04-09 13:30:00,METAR RJGG 091330Z 11014KT 8000 -RA FEW005 SCT008 BKN020 15/14 Q1013 TEMPO 3000 RA BR FEW003 BKN005
2026-04-09 13:00:00,METAR RJGG 091300Z VRB02KT 4500 RA BR FEW005 BKN010 BKN020 14/13 Q1014 TEMPO 3000 RA BR FEW003 BKN005 BECMG TL1400 12015KT
2026-04-09 12:30:00,METAR RJGG 091230Z 18003KT 140V210 8000 -RA FEW008 SCT015 BKN025 14/13 Q1015 BECMG 12015KT TEMPO FM1300 3000 RA BR FEW003 BKN005
2026-04-09 12:00:00,METAR RJGG 091200Z 13007KT 9999 -RA FEW020 SCT040 BKN080 15/13 Q1015 TEMPO FM1300 4000 RA BR FEW003 BKN005
2026-04-09 11:30:00,METAR RJGG 091130Z 12010KT 9999 -RA FEW020 SCT030 BKN045 15/12 Q1015 TEMPO FM1300 4000 RA BR FEW003 BKN005
2026-04-09 11:00:00,METAR RJGG 091100Z 12014KT 9999 -RA FEW020 BKN030 BKN045 15/12 Q1015 NOSIG
2026-04-09 10:30:00,METAR RJGG 091030Z 13009KT 9999 -RA FEW020 BKN030 BKN045 15/12 Q1015 TEMPO TL1130 4000 RA BR FEW003 BKN005
2026-04-09 10:00:00,METAR RJGG 091000Z 14006KT 9999 -RA FEW020 BKN030 BKN045 15/10 Q1016 TEMPO FM1100 4000 RA BR FEW003 BKN005
2026-04-09 09:30:00,METAR RJGG 090930Z 16005KT 9999 -RA FEW020 BKN030 15/10 Q1016 BECMG TL1100 12015KT TEMPO FM1100 4000 RA BR FEW003 BKN005
2026-04-09 09:00:00,METAR RJGG 090900Z 14009KT 9999 -RA FEW020 BKN030 16/09 Q1017 NOSIG
2026-04-09 08:30:00,METAR RJGG 090830Z 15005KT 9999 -RA FEW020 BKN030 15/09 Q1017 NOSIG
2026-04-09 08:00:00,METAR RJGG 090800Z 14009KT 9999 -RA FEW020 BKN030 16/09 Q1017 NOSIG
2026-04-09 07:30:00,METAR RJGG 090730Z 13010KT 9999 -RA FEW020 BKN030 16/09 Q1016 NOSIG
2026-04-09 07:00:00,METAR RJGG 090700Z 12011KT 9999 -RA FEW020 SCT040 BKN060 16/08 Q1016 NOSIG
2026-04-09 06:30:00,METAR RJGG 090630Z 14013KT 9999 -RA FEW020 SCT050 BKN130 16/09 Q1017 NOSIG
2026-04-09 06:00:00,METAR RJGG 090600Z 14012KT 9999 -RA FEW020 SCT120 OVC140 17/09 Q1017 NOSIG
2026-04-09 05:30:00,METAR RJGG 090530Z 14012KT 9999 FEW020 BKN140 16/08 Q1017 NOSIG
2026-04-09 05:00:00,METAR RJGG 090500Z 15010KT 9999 FEW020 BKN150 17/08 Q1018 NOSIG
2026-04-09 04:30:00,METAR RJGG 090430Z 15011KT 9999 FEW015 BKN150 BKN160 17/09 Q1019 NOSIG
2026-04-09 04:00:00,METAR RJGG 090400Z VRB05KT 9999 FEW015 BKN150 BKN160 17/10 Q1019 BECMG 14008KT
2026-04-09 03:30:00,METAR RJGG 090330Z 24003KT 190V270 9999 FEW015 BKN160 BKN180 16/09 Q1020 BECMG 14011KT
2026-04-09 03:00:00,METAR RJGG 090300Z 12008KT 9999 FEW015 SCT045 BKN170 17/08 Q1020 NOSIG
2026-04-09 02:30:00,METAR RJGG 090230Z 11006KT 090V160 9999 FEW015 BKN/// 17/08 Q1020 NOSIG
2026-04-09 02:00:00,METAR RJGG 090200Z 18006KT 100V220 9999 FEW020 BKN/// 18/09 Q1021 NOSIG
2026-04-09 01:30:00,METAR RJGG 090130Z 11010KT 9999 FEW020 BKN/// 17/08 Q1021 NOSIG
2026-04-09 01:00:00,METAR RJGG 090100Z 11010KT 9999 FEW020 BKN/// 16/07 Q1021 NOSIG
2026-04-09 00:30:00,METAR RJGG 090030Z 10004KT 060V140 9999 FEW020 BKN/// 16/08 Q1022 NOSIG
2026-04-09 00:00:00,METAR RJGG 090000Z 09003KT 030V140 9999 FEW020 BKN/// 14/08 Q1022 NOSIG
2026-04-08 23:30:00,METAR RJGG 082330Z 33006KT 9999 FEW020 BKN/// 13/08 Q1022 NOSIG
2026-04-08 23:00:00,METAR RJGG 082300Z 32005KT 9999 FEW020 BKN/// 12/07 Q1022 NOSIG
2026-04-08 22:30:00,METAR RJGG 082230Z VRB02KT 9999 FEW020 BKN/// 11/07 Q1022 NOSIG
2026-04-08 22:00:00,METAR RJGG 082200Z 04004KT 360V070 9999 FEW030 BKN/// 10/06 Q1021 NOSIG
2026-04-08 21:30:00,METAR RJGG 082130Z 06005KT 020V080 9999 FEW030 BKN/// 10/06 Q1021 NOSIG
2026-04-08 21:00:00,METAR RJGG 082100Z 03004KT 9999 FEW030 BKN/// 09/06 Q1021 NOSIG
2026-04-08 20:30:00,METAR RJGG 082030Z AUTO 02005KT 9999 NCD 08/06 Q1021 NOSIG
2026-04-08 20:00:00,METAR RJGG 082000Z AUTO 02005KT 9999 NCD 08/06 Q1021 NOSIG
2026-04-08 19:30:00,METAR RJGG 081930Z AUTO 36006KT 9999 NCD 08/05 Q1021 NOSIG
2026-04-08 19:00:00,METAR RJGG 081900Z AUTO 04004KT 9999 NCD 10/06 Q1021 NOSIG
2026-04-08 18:30:00,METAR RJGG 081830Z AUTO 09004KT 9999 NCD 10/06 Q1021 BECMG 02005KT
2026-04-08 18:00:00,METAR RJGG 081800Z AUTO 07006KT 9999 NCD 10/07 Q1021 NOSIG
2026-04-08 17:30:00,METAR RJGG 081730Z AUTO 07006KT 9999 NCD 10/07 Q1021 NOSIG
2026-04-08 17:00:00,METAR RJGG 081700Z AUTO 07006KT 9999 NCD 11/07 Q1021 NOSIG
2026-04-08 16:30:00,METAR RJGG 081630Z AUTO 07006KT 9999 NCD 11/07 Q1021 NOSIG
2026-04-08 16:00:00,METAR RJGG 081600Z AUTO 07005KT 020V090 9999 NCD 11/07 Q1021 NOSIG
2026-04-08 15:30:00,METAR RJGG 081530Z AUTO 10007KT 9999 NCD 11/07 Q1021 NOSIG
2026-04-08 15:00:00,METAR RJGG 081500Z AUTO 11010KT 9999 NCD 12/07 Q1021 NOSIG
2026-04-08 14:30:00,METAR RJGG 081430Z AUTO 11009KT 9999 NCD 12/08 Q1021 NOSIG
2026-04-08 14:00:00,METAR RJGG 081400Z AUTO 12008KT 9999 NCD 12/07 Q1021 NOSIG
2026-04-08 13:30:00,METAR RJGG 081330Z 12009KT 9999 FEW030 12/07 Q1021 NOSIG
2026-04-08 13:00:00,METAR RJGG 081300Z 13008KT 9999 FEW030 12/07 Q1021 NOSIG
2026-04-08 12:30:00,METAR RJGG 081230Z 13009KT 9999 FEW030 12/06 Q1021 NOSIG
2026-04-08 12:00:00,METAR RJGG 081200Z 13010KT 9999 FEW030 12/07 Q1021 NOSIG
2026-04-08 11:30:00,METAR RJGG 081130Z 13011KT 9999 FEW030 12/06 Q1021 NOSIG
2026-04-08 11:00:00,METAR RJGG 081100Z 13012KT 9999 FEW030 13/07 Q1020 NOSIG
2026-04-08 10:30:00,METAR RJGG 081030Z 13010KT 9999 FEW030 13/07 Q1020 NOSIG
2026-04-08 10:00:00,METAR RJGG 081000Z 14011KT 9999 FEW030 13/07 Q1020 NOSIG
2026-04-08 09:30:00,METAR RJGG 080930Z 12011KT 9999 FEW030 14/06 Q1019 NOSIG
2026-04-08 09:00:00,METAR RJGG 080900Z 12014KT 9999 FEW030 15/05 Q1018 NOSIG
2026-04-08 08:30:00,METAR RJGG 080830Z 15005KT 120V190 9999 FEW030 16/M02 Q1018 NOSIG
2026-04-08 08:00:00,METAR RJGG 080800Z 14005KT 130V190 9999 FEW030 17/M03 Q1018 NOSIG
2026-04-08 07:30:00,METAR RJGG 080730Z 18005KT 9999 FEW030 17/02 Q1018 NOSIG
2026-04-08 07:00:00,METAR RJGG 080700Z 20007KT 9999 FEW030 16/07 Q1018 NOSIG
2026-04-08 06:30:00,METAR RJGG 080630Z 20006KT 9999 FEW030 16/05 Q1018 NOSIG
2026-04-08 06:00:00,METAR RJGG 080600Z 19006KT 150V220 9999 FEW030 16/01 Q1017 NOSIG
2026-04-08 05:30:00,METAR RJGG 080530Z 24004KT 9999 FEW030 16/01 Q1018 NOSIG
2026-04-08 05:00:00,METAR RJGG 080500Z 30003KT 9999 FEW030 16/01 Q1018 BECMG TL0530 24005KT
2026-04-08 04:30:00,METAR RJGG 080430Z 27005KT 220V340 9999 FEW030 17/00 Q1018 BECMG TL0530 20005KT
2026-04-08 04:00:00,METAR RJGG 080400Z 30006KT 9999 FEW030 15/01 Q1018 BECMG FM0430 TL0530 20005KT
2026-04-08 03:30:00,METAR RJGG 080330Z 31007KT 9999 FEW030 15/03 Q1018 BECMG FM0400 TL0500 20005KT
2026-04-08 03:00:00,METAR RJGG 080300Z 30007KT 9999 FEW030 14/04 Q1019 BECMG FM0430 24005KT
2026-04-08 02:30:00,METAR RJGG 080230Z 33007KT 9999 FEW030 14/02 Q1019 NOSIG
2026-04-08 02:00:00,METAR RJGG 080200Z 34010KT 9999 FEW030 14/02 Q1020 NOSIG
2026-04-08 01:30:00,METAR RJGG 080130Z 34011KT 9999 FEW030 14/01 Q1020 NOSIG
2026-04-08 01:00:00,METAR RJGG 080100Z 34013KT 9999 FEW030 14/02 Q1020 NOSIG
2026-04-08 00:30:00,METAR RJGG 080030Z 34013KT 9999 FEW030 13/01 Q1020 NOSIG
2026-04-08 00:00:00,METAR RJGG 080000Z 33014KT 9999 FEW030 12/01 Q1020 NOSIG
2026-04-07 23:30:00,METAR RJGG 072330Z 33013KT 9999 FEW030 11/02 Q1020 NOSIG
2026-04-07 23:00:00,METAR RJGG 072300Z 34012KT 9999 FEW030 11/01 Q1020 NOSIG
2026-04-07 22:30:00,METAR RJGG 072230Z 32014KT 9999 FEW020 10/02 Q1019 NOSIG
2026-04-07 22:00:00,METAR RJGG 072200Z 32013KT 9999 FEW020 10/02 Q1019 NOSIG
2026-04-07 21:30:00,METAR RJGG 072130Z 32014KT 9999 FEW020 10/01 Q1018 NOSIG
2026-04-07 21:00:00,METAR RJGG 072100Z 33014KT 9999 FEW020 09/02 Q1018 NOSIG
2026-04-07 20:30:00,METAR RJGG 072030Z AUTO 33015KT 9999 NCD 09/00 Q1017 NOSIG
2026-04-07 20:00:00,METAR RJGG 072000Z AUTO 34013KT 9999 NCD 08/M00 Q1017 NOSIG
2026-04-07 19:30:00,METAR RJGG 071930Z AUTO 33014KT 9999 NCD 09/01 Q1017 NOSIG
2026-04-07 19:00:00,METAR RJGG 071900Z AUTO 34016KT 9999 NCD 09/00 Q1016 NOSIG
2026-04-07 18:30:00,METAR RJGG 071830Z AUTO 34018KT 9999 NCD 09/01 Q1016 NOSIG
2026-04-07 18:00:00,METAR RJGG 071800Z AUTO 33019KT 9999 NCD 09/01 Q1016 NOSIG
2026-04-07 17:30:00,METAR RJGG 071730Z AUTO 33021KT 9999 NCD 09/00 Q1015 NOSIG
2026-04-07 17:00:00,METAR RJGG 071700Z AUTO 33020KT 9999 NCD 09/02 Q1015 NOSIG
2026-04-07 16:30:00,METAR RJGG 071630Z AUTO 32022KT 9999 NCD 10/02 Q1014 NOSIG
2026-04-07 16:00:00,METAR RJGG 071600Z AUTO 32024KT 9999 NCD 09/02 Q1014 NOSIG
2026-04-07 15:30:00,METAR RJGG 071530Z AUTO 32026KT 9999 NCD 09/01 Q1014 NOSIG
2026-04-07 15:00:00,METAR RJGG 071500Z AUTO 32024KT 9999 NCD 10/01 Q1013 NOSIG
2026-04-07 14:30:00,METAR RJGG 071430Z AUTO 32023KT 9999 NCD 10/02 Q1013 NOSIG
2026-04-07 14:00:00,METAR RJGG 071400Z AUTO 32020KT 9999 NCD 09/01 Q1012 NOSIG
2026-04-07 13:30:00,METAR RJGG 071330Z 32021KT 9999 FEW020 09/01 Q1012 NOSIG
2026-04-07 13:00:00,METAR RJGG 071300Z 33019KT 9999 FEW020 09/01 Q1012 NOSIG
2026-04-07 12:30:00,METAR RJGG 071230Z 34020KT 9999 FEW020 10/03 Q1012 BECMG 32034KT TEMPO 32034G44KT
2026-04-07 12:00:00,METAR RJGG 071200Z 34023KT 9999 FEW020 10/01 Q1011 BECMG 32034KT TEMPO 32034G44KT
2026-04-07 11:30:00,METAR RJGG 071130Z 33023KT 9999 FEW010 10/01 Q1011 BECMG 32034KT TEMPO 32034G44KT
2026-04-07 11:00:00,METAR RJGG 071100Z 32029KT 9999 FEW020 10/02 Q1011 TEMPO 32034G44KT
2026-04-07 10:30:00,METAR RJGG 071030Z 32028KT 9999 FEW020 11/01 Q1010 TEMPO 32034G44KT
2026-04-07 10:00:00,METAR RJGG 071000Z 32029G39KT 9999 FEW020 11/01 Q1010 NOSIG
2026-04-07 09:30:00,METAR RJGG 070930Z 31031KT 9999 FEW010 11/02 Q1009 TEMPO 32034G44KT
2026-04-07 09:00:00,METAR RJGG 070900Z 32030KT 9999 FEW020 11/02 Q1009 TEMPO 32034G44KT
2026-04-07 08:30:00,METAR RJGG 070830Z 31033KT 9999 FEW010 BKN080 12/04 Q1008 TEMPO 32034G44KT
2026-04-07 08:00:00,METAR RJGG 070800Z 32034KT 9999 FEW020 SCT060 BKN080 12/04 Q1007 TEMPO 32034G44KT
2026-04-07 07:30:00,METAR RJGG 070730Z 32028G39KT 9999 FEW020 BKN060 12/05 Q1007 NOSIG
2026-04-07 07:00:00,METAR RJGG 070700Z 32028KT 9999 FEW020 BKN060 12/05 Q1007 TEMPO 32034G44KT
2026-04-07 06:30:00,METAR RJGG 070630Z 32024KT 9999 FEW020 BKN050 12/04 Q1007 TEMPO 32034G44KT BECMG 32034KT
2026-04-07 06:00:00,METAR RJGG 070600Z 32029KT 9999 FEW020 BKN050 12/04 Q1006 TEMPO 32034G44KT
2026-04-07 05:30:00,METAR RJGG 070530Z 32033KT 9999 FEW015 BKN045 11/05 Q1006 TEMPO 32034G44KT
2026-04-07 05:00:00,METAR RJGG 070500Z 33029KT 9999 VCSH FEW015 BKN040 11/06 Q1006 TEMPO 32034G44KT
2026-04-07 04:30:00,METAR RJGG 070430Z 33027KT 9999 VCSH FEW015 SCT030 BKN040 12/06 Q1005 TEMPO FM0600 32034G44KT
2026-04-07 04:00:00,METAR RJGG 070400Z 33026KT 9999 FEW015 BKN035 13/08 Q1005 NOSIG
2026-04-07 03:30:00,METAR RJGG 070330Z 33022KT 9999 FEW008 BKN035 13/08 Q1005 NOSIG
2026-04-07 03:00:00,METAR RJGG 070300Z 33018KT 9999 FEW008 SCT025 BKN035 14/09 Q1005 NOSIG
2026-04-07 02:30:00,METAR RJGG 070230Z 33017KT 9999 FEW008 BKN025 BKN120 14/09 Q1004 NOSIG
2026-04-07 02:00:00,METAR RJGG 070200Z 32021KT 9999 FEW015 SCT035 BKN130 14/09 Q1005 NOSIG
2026-04-07 01:30:00,METAR RJGG 070130Z 32016KT 9999 FEW010 SCT035 BKN120 14/11 Q1005 NOSIG
2026-04-07 01:00:00,METAR RJGG 070100Z 28002KT 6000 -RA FEW006 SCT020 BKN040 16/15 Q1005 BECMG 31014KT
2026-04-07 00:30:00,METAR RJGG 070030Z 26006KT 4500 -RA BR FEW006 SCT009 BKN040 15/14 Q1005 BECMG TL0200 9999 NSW
2026-04-07 00:00:00,METAR RJGG 070000Z 21004KT 4500 -RA BR FEW020 BKN050 OVC090 15/14 Q1005 BECMG FM0100 31018KT 9999 NSW
2026-04-06 23:30:00,METAR RJGG 062330Z VRB01KT 4500 -RA BR FEW020 BKN060 BKN080 15/14 Q1005 NOSIG
2026-04-06 23:00:00,METAR RJGG 062300Z 22003KT 170V270 5000 -RA BR FEW020 SCT090 OVC100 15/14 Q1005 TEMPO 4000 -RA BR
2026-04-06 22:30:00,METAR RJGG 062230Z 31003KT 6000 FEW010 SCT090 BKN100 15/14 Q1006 NOSIG
2026-04-06 22:00:00,METAR RJGG 062200Z 11003KT 060V150 6000 FEW010 BKN110 OVC120 16/15 Q1006 NOSIG
2026-04-06 21:30:00,METAR RJGG 062130Z 17003KT 110V190 6000 VCSH FEW010 BKN110 OVC120 15/14 Q1007 TEMPO 4000 -RA BR
2026-04-06 21:00:00,METAR RJGG 062100Z 06007KT 6000 VCSH NSC 16/14 Q1006 TEMPO 4000 -RA BR
2026-04-06 20:30:00,METAR RJGG 062030Z AUTO 14003KT 110V180 7000 NSC 15/14 Q1007 TEMPO 4000 -RA BR
2026-04-06 20:00:00,METAR RJGG 062000Z AUTO 15004KT 110V210 5000 BR NSC 15/14 Q1007 TEMPO 4000 -RA BR
2026-04-06 19:30:00,METAR RJGG 061930Z AUTO 12004KT 7000 FEW005 SCT090 BKN100 15/14 Q1007 NOSIG
2026-04-06 19:00:00,METAR RJGG 061900Z AUTO 20005KT 160V240 9999 NSC 15/14 Q1007 NOSIG
2026-04-06 18:30:00,METAR RJGG 061830Z AUTO 13009KT 9999 NSC 16/15 Q1007 NOSIG
2026-04-06 18:00:00,METAR RJGG 061800Z AUTO 11007KT 9999 NSC 17/15 Q1007 NOSIG
2026-04-06 17:30:00,METAR RJGG 061730Z AUTO 10008G18KT 080V210 9999 NSC 17/15 Q1007 NOSIG
2026-04-06 17:00:00,METAR RJGG 061700Z AUTO 10009KT 9999 NSC 17/15 Q1008 NOSIG
2026-04-06 16:30:00,METAR RJGG 061630Z AUTO 12013KT 9999 NSC 17/15 Q1009 NOSIG
2026-04-06 16:00:00,METAR RJGG 061600Z AUTO 12012KT 9999 NSC 17/15 Q1009 NOSIG
2026-04-06 15:30:00,METAR RJGG 061530Z AUTO 12010KT 9999 NSC 17/15 Q1009 NOSIG
2026-04-06 15:00:00,METAR RJGG 061500Z AUTO 11010KT 9999 NSC 17/15 Q1009 NOSIG
2026-04-06 14:30:00,METAR RJGG 061430Z AUTO 12010KT 9999 NSC 17/15 Q1010 NOSIG
2026-04-06 14:00:00,METAR RJGG 061400Z AUTO 12011KT 9999 NSC 17/15 Q1010 NOSIG
2026-04-06 13:30:00,METAR RJGG 061330Z 11012KT CAVOK 17/15 Q1010 NOSIG
2026-04-06 13:00:00,METAR RJGG 061300Z 10011KT CAVOK 17/14 Q1011 NOSIG
2026-04-06 12:30:00,METAR RJGG 061230Z 11010KT CAVOK 17/14 Q1011 NOSIG
2026-04-06 12:00:00,METAR RJGG 061200Z 12010KT CAVOK 17/14 Q1012 NOSIG
2026-04-06 11:30:00,METAR RJGG 061130Z 12009KT CAVOK 17/14 Q1011 NOSIG
2026-04-06 11:00:00,METAR RJGG 061100Z 12009KT CAVOK 17/14 Q1011 NOSIG
2026-04-06 10:30:00,METAR RJGG 061030Z 11009KT CAVOK 17/14 Q1011 NOSIG
2026-04-06 10:00:00,METAR RJGG 061000Z 10007KT CAVOK 18/14 Q1011 NOSIG
2026-04-06 09:30:00,METAR RJGG 060930Z 12008KT CAVOK 18/14 Q1011 NOSIG
2026-04-06 09:00:00,METAR RJGG 060900Z 12007KT CAVOK 18/14 Q1011 NOSIG
2026-04-06 08:30:00,METAR RJGG 060830Z 14010KT CAVOK 18/13 Q1011 NOSIG
2026-04-06 08:00:00,METAR RJGG 060800Z 15010KT CAVOK 19/13 Q1011 NOSIG
2026-04-06 07:30:00,METAR RJGG 060730Z 14010KT CAVOK 20/13 Q1011 NOSIG
2026-04-06 07:00:00,METAR RJGG 060700Z 14009KT 9999 FEW030 BKN/// 20/13 Q1012 NOSIG
2026-04-06 06:30:00,METAR RJGG 060630Z 15009KT 9999 FEW030 BKN/// 20/13 Q1012 NOSIG
2026-04-06 06:00:00,METAR RJGG 060600Z 16009KT 9999 FEW030 SCT180 BKN/// 20/13 Q1011 NOSIG
2026-04-06 05:30:00,METAR RJGG 060530Z 17006KT 9999 FEW030 SCT180 BKN/// 18/13 Q1012 NOSIG
2026-04-06 05:00:00,METAR RJGG 060500Z 16004KT 100V210 9999 FEW030 SCT180 BKN/// 21/11 Q1012 NOSIG
2026-04-06 04:30:00,METAR RJGG 060430Z 12005KT 9999 FEW030 SCT180 BKN/// 22/12 Q1012 NOSIG
2026-04-06 04:00:00,METAR RJGG 060400Z VRB03KT 9999 FEW030 SCT180 BKN/// 22/11 Q1012 BECMG 13006KT
2026-04-06 03:30:00,METAR RJGG 060330Z 23002KT 9999 FEW030 BKN/// 21/12 Q1013 NOSIG
2026-04-06 03:00:00,METAR RJGG 060300Z VRB03KT 9999 FEW030 BKN/// 21/13 Q1013 BECMG 23005KT
2026-04-06 02:30:00,METAR RJGG 060230Z 23002KT 9999 FEW030 BKN/// 20/13 Q1013 NOSIG
2026-04-06 02:00:00,METAR RJGG 060200Z 23002KT 9999 FEW030 BKN/// 18/13 Q1013 NOSIG
2026-04-06 01:30:00,METAR RJGG 060130Z VRB02KT 9999 FEW030 BKN/// 18/13 Q1013 BECMG 23005KT
2026-04-06 01:00:00,METAR RJGG 060100Z 31005KT 9999 FEW020 BKN/// 16/14 Q1014 BECMG 23004KT
2026-04-06 00:30:00,METAR RJGG 060030Z 30003KT 9999 FEW020 BKN/// 15/13 Q1014 BECMG FM0100 23005KT
2026-04-06 00:00:00,METAR RJGG 060000Z 28003KT 9999 FEW005 BKN/// 15/13 Q1014 NOSIG
2026-04-05 23:30:00,METAR RJGG 052330Z 23002KT 9999 FEW005 BKN/// 16/14 Q1014 NOSIG
2026-04-05 23:00:00,METAR RJGG 052300Z VRB01KT 9999 FEW005 BKN/// 15/14 Q1014 NOSIG
2026-04-05 22:30:00,METAR RJGG 052230Z 32003KT 9999 FEW005 BKN/// 14/13 Q1014 NOSIG
2026-04-05 22:00:00,METAR RJGG 052200Z 36002KT 9999 FEW010 SCT/// 14/13 Q1014 NOSIG
2026-04-05 21:30:00,METAR RJGG 052130Z 01003KT 9999 FEW005 13/12 Q1014 NOSIG
2026-04-05 21:00:00,METAR RJGG 052100Z 35005KT 9999 FEW005 11/11 Q1013 NOSIG
2026-04-05 20:30:00,METAR RJGG 052030Z AUTO 31003KT 4500 BR NCD 12/12 Q1013 TEMPO 0300 FG VV001
2026-04-05 20:00:00,METAR RJGG 052000Z AUTO 07002KT 5000 BR NCD 13/13 Q1013 TEMPO 0300 FG VV001
2026-04-05 19:30:00,METAR RJGG 051930Z AUTO 03004KT 6000 R36/P2000N NCD 13/12 Q1012 TEMPO 0300 FG VV001
2026-04-05 19:00:00,METAR RJGG 051900Z AUTO 34005KT 9000 NCD 11/11 Q1012 TEMPO 0300 FG VV001
2026-04-05 18:30:00,METAR RJGG 051830Z AUTO 31002KT 5000 R36/P2000N BR NCD 12/12 Q1012 TEMPO 0300 FG VV001
2026-04-05 18:00:00,METAR RJGG 051800Z AUTO 35005KT 2700 BR NCD 13/13 Q1011 TEMPO 0300 FG VV001
2026-04-05 17:30:00,METAR RJGG 051730Z AUTO 36005KT 1900 R36/P2000N BR NCD 12/12 Q1011 TEMPO FM1800 0300 FG VV001
2026-04-05 17:00:00,METAR RJGG 051700Z AUTO 36003KT 6000 R36/P2000N NCD 13/12 Q1011 TEMPO 2000 BR
2026-04-05 16:30:00,METAR RJGG 051630Z AUTO 36007KT 4600 BR NCD 13/12 Q1011 TEMPO 2000 BR
2026-04-05 16:00:00,METAR RJGG 051600Z AUTO 12004KT 7000 NCD 15/14 Q1010 NOSIG
2026-04-05 15:30:00,METAR RJGG 051530Z AUTO 09002KT 7000 NCD 14/13 Q1010 NOSIG
2026-04-05 15:00:00,METAR RJGG 051500Z AUTO 04002KT 9000 NCD 14/14 Q1010 NOSIG
2026-04-05 13:00:00,METAR RJGG 051300Z 09004KT 050V130 9999 FEW020 BKN/// 15/13 Q1009 NOSIG
2026-04-05 12:30:00,METAR RJGG 051230Z 14003KT 080V180 9999 FEW020 SCT070 BKN/// 16/14 Q1010 NOSIG
2026-04-05 12:00:00,METAR RJGG 051200Z 10003KT 9999 FEW020 BKN070 16/14 Q1010 NOSIG
2026-04-05 11:30:00,METAR RJGG 051130Z 14003KT 9999 FEW020 BKN070 16/14 Q1010 NOSIG
2026-04-05 11:00:00,METAR RJGG 051100Z 12004KT 9999 FEW020 BKN070 16/14 Q1009 NOSIG
2026-04-05 10:30:00,METAR RJGG 051030Z 14006KT 9999 FEW020 BKN060 17/14 Q1009 NOSIG
2026-04-05 10:00:00,METAR RJGG 051000Z 15008KT 9999 FEW020 BKN060 BKN/// 16/14 Q1009 NOSIG
2026-04-05 09:30:00,METAR RJGG 050930Z 17012KT 9999 FEW020 SCT060 BKN/// 16/14 Q1009 NOSIG
2026-04-05 09:00:00,METAR RJGG 050900Z 16008KT 9999 FEW015 SCT050 BKN070 18/12 Q1008 NOSIG
2026-04-05 08:30:00,METAR RJGG 050830Z 16006KT 110V170 9999 FEW015 SCT045 BKN060 19/12 Q1008 NOSIG
2026-04-05 08:00:00,METAR RJGG 050800Z 15006KT 9999 FEW015 BKN045 18/12 Q1008 NOSIG
2026-04-05 07:30:00,METAR RJGG 050730Z 15007KT 9999 FEW015 BKN045 19/12 Q1007 NOSIG
2026-04-05 07:00:00,METAR RJGG 050700Z 19003KT 9999 FEW015 BKN045 19/12 Q1007 NOSIG
2026-04-05 06:30:00,METAR RJGG 050630Z 19003KT 9999 FEW015 BKN040 BKN/// 19/13 Q1007 NOSIG
2026-04-05 06:00:00,METAR RJGG 050600Z VRB01KT 9999 FEW015 SCT040 BKN/// 19/13 Q1007 BECMG 22005KT
2026-04-05 05:30:00,METAR RJGG 050530Z VRB02KT 9999 FEW015 BKN045 BKN/// 18/13 Q1007 BECMG 22005KT
2026-04-05 05:00:00,METAR RJGG 050500Z 19003KT 140V230 9999 FEW015 BKN/// 18/14 Q1007 NOSIG
2026-04-05 04:30:00,METAR RJGG 050430Z 25004KT 9999 FEW015 BKN/// 18/13 Q1007 NOSIG
2026-04-05 04:00:00,METAR RJGG 050400Z 27006KT 9999 FEW015 BKN/// 18/13 Q1007 BECMG TL0500 24004KT
2026-04-05 03:30:00,METAR RJGG 050330Z 27008KT 9999 FEW015 BKN/// 18/14 Q1007 BECMG TL0500 24004KT
2026-04-05 03:00:00,METAR RJGG 050300Z VRB02KT 9999 FEW015 BKN/// 18/12 Q1007 NOSIG
2026-04-05 02:30:00,METAR RJGG 050230Z 29005KT 9999 FEW015 BKN/// 17/13 Q1007 NOSIG
2026-04-05 02:00:00,METAR RJGG 050200Z 29006KT 9999 FEW015 BKN/// 17/13 Q1007 NOSIG
2026-04-05 01:30:00,METAR RJGG 050130Z 28006KT 9999 FEW015 BKN/// 17/13 Q1007 NOSIG
2026-04-05 01:00:00,METAR RJGG 050100Z 30006KT 9999 FEW015 BKN/// 17/13 Q1007 NOSIG
2026-04-05 00:30:00,METAR RJGG 050030Z 32007KT 9999 FEW015 BKN/// 16/13 Q1008 NOSIG
2026-04-05 00:00:00,METAR RJGG 050000Z 31007KT 9999 FEW015 SCT050 BKN/// 16/13 Q1008 NOSIG
2026-04-04 23:30:00,METAR RJGG 042330Z 31008KT 9999 FEW015 SCT050 BKN/// 15/12 Q1008 NOSIG
2026-04-04 23:00:00,METAR RJGG 042300Z 33011KT 9999 FEW010 BKN050 BKN/// 15/12 Q1007 NOSIG
2026-04-04 22:30:00,METAR RJGG 042230Z 34011KT 9999 FEW010 BKN035 17/13 Q1007 NOSIG
2026-04-04 22:00:00,METAR RJGG 042200Z 33012KT 9999 FEW010 SCT030 BKN040 16/12 Q1007 NOSIG
2026-04-04 21:30:00,METAR RJGG 042130Z 32013KT 9999 FEW005 SCT025 BKN035 15/12 Q1007 NOSIG
2026-04-04 21:00:00,METAR RJGG 042100Z 03003KT 340V060 9999 R36/P2000N PRFG FEW001 SCT005 BKN015 16/15 Q1006 TEMPO TL2200 0800 FG VV001
2026-04-04 20:30:00,METAR RJGG 042030Z AUTO 36006KT 9999 R36/P2000N FEW008 BKN017 OVC029 16/16 Q1006 TEMPO TL2200 0800 FG VV001
2026-04-04 20:00:00,METAR RJGG 042000Z AUTO 36009KT 300V010 9000 R18/0700VP2000D FEW006 BKN230 OVC240 15/15 Q1006 TEMPO 0800 FG VV001
2026-04-04 19:30:00,METAR RJGG 041930Z AUTO 25010KT 9999 NSC 16/14 Q1005 BECMG 32010KT
2026-04-04 19:00:00,METAR RJGG 041900Z AUTO 20005KT 9999 NSC 15/14 Q1005 BECMG 32010KT
2026-04-04 18:30:00,METAR RJGG 041830Z AUTO 23009KT 9999 NSC 16/15 Q1004 BECMG 32010KT
2026-04-04 18:00:00,METAR RJGG 041800Z AUTO 23008KT 9999 NCD 16/15 Q1004 BECMG 32010KT
2026-04-04 17:30:00,METAR RJGG 041730Z AUTO 28006KT 9999 FEW042 BKN060 17/17 Q1004 NOSIG
2026-04-04 17:00:00,METAR RJGG 041700Z AUTO 01003KT 3200 R18/1100VP2000U BR FEW034 SCT037 OVC042 16/16 Q1004 TEMPO 0800 FG VV001
2026-04-04 16:30:00,METAR RJGG 041630Z AUTO 34005KT 0200 R18/0550N FG OVC001 15/15 Q1004 NOSIG
2026-04-04 16:00:00,METAR RJGG 041600Z AUTO 25007KT 220V290 9999 R18/0800V1500D NSC 14/14 Q1003 BECMG 32006KT TEMPO 1500 BR
2026-04-04 15:30:00,METAR RJGG 041530Z AUTO 17009KT 9999 NCD 16/16 Q1003 NOSIG
2026-04-04 15:00:00,METAR RJGG 041500Z AUTO 11006KT 6000 NSC 17/16 Q1002 NOSIG
2026-04-04 14:30:00,METAR RJGG 041430Z AUTO 10007KT 3700 BR FEW023 SCT060 17/16 Q1002 BECMG 6000 NSW
2026-04-04 14:00:00,METAR RJGG 041400Z AUTO 09008KT 4100 BR BKN017 OVC023 //////TCU 17/17 Q1002 BECMG 6000 -SHRA TEMPO FEW004 BKN012
2026-04-04 13:30:00,METAR RJGG 041330Z 12012KT 9999 -SHRA FEW005 SCT020 BKN030 18/17 Q1002 TEMPO FEW004 BKN012
2026-04-04 13:00:00,METAR RJGG 041300Z 13015KT 9999 -SHRA FEW005 SCT020 BKN030 17/17 Q1002 TEMPO 4000 SHRA BR FEW004 BKN008
2026-04-04 12:30:00,METAR RJGG 041230Z 12018KT 9999 -SHRA FEW005 SCT008 BKN025 16/16 Q1002 TEMPO 4000 -SHRA BR FEW004 BKN008
2026-04-04 12:00:00,METAR RJGG 041200Z 12025KT 9999 -SHRA FEW002 SCT008 BKN020 16/16 Q1003 TEMPO 4000 SHRA BR FEW004 BKN008
2026-04-04 11:30:00,METAR RJGG 041130Z 12023KT 6000 -SHRA FEW002 BKN005 BKN015 16/15 Q1003 TEMPO 4000 SHRA BR
2026-04-04 11:00:00,METAR RJGG 041100Z 13024KT 8000 -SHRA FEW005 BKN008 BKN020 16/16 Q1003 BECMG 13034KT TEMPO 13034G44KT 4000 SHRA BR FEW003 BKN005
2026-04-04 10:30:00,METAR RJGG 041030Z 13027KT 6000 SHRA FEW005 BKN008 BKN015 16/16 Q1003 TEMPO 13034G44KT 1500 +SHRA BR FEW003 BKN005
2026-04-04 10:00:00,METAR RJGG 041000Z 14026KT 5000 SHRA BR FEW005 BKN008 BKN015 16/16 Q1004 TEMPO 13034G44KT 1500 +SHRA BR FEW003 BKN005
2026-04-04 09:30:00,METAR RJGG 040930Z 13027G37KT 6000 -SHRA FEW005 BKN010 BKN015 16/15 Q1004 TEMPO TL1000 1500 +SHRA BR FEW003 BKN005
2026-04-04 09:00:00,METAR RJGG 040900Z 13027KT 4500 -SHRA BR FEW005 BKN008 BKN015 16/15 Q1004 TEMPO TL1000 13034G44KT 1500 +SHRA BR FEW003 BKN005
2026-04-04 08:30:00,METAR RJGG 040830Z 13028KT 5000 -SHRA BR FEW008 BKN013 BKN020 16/15 Q1004 TEMPO TL1000 13034G44KT 1500 +SHRA BR FEW003 BKN005
2026-04-04 08:00:00,METAR RJGG 040800Z 13028G38KT 5000 -SHRA BR FEW010 BKN013 BKN030 16/15 Q1005 TEMPO 1500 +SHRA BR FEW003 BKN005
2026-04-04 07:30:00,METAR RJGG 040730Z 13027KT 4000 -SHRA BR FEW010 BKN013 BKN025 16/15 Q1006 TEMPO 13034G44KT 1500 +SHRA BR FEW003 BKN005
2026-04-04 07:00:00,METAR RJGG 040700Z 14027KT 8000 -SHRA FEW010 SCT015 BKN030 16/14 Q1006 TEMPO FM0730 13027G38KT 4000 SHRA BR FEW003 BKN005
2026-04-04 06:30:00,METAR RJGG 040630Z 13022KT 2000 +SHRA BR FEW010 SCT025 BKN035 15/14 Q1007 TEMPO 13027G38KT FEW003 BKN005
2026-04-04 06:00:00,METAR RJGG 040600Z 12023KT 9999 -RA FEW020 SCT040 BKN060 16/14 Q1007 TEMPO FM0700 14024G38KT 4000 SHRA BR FEW003 BKN005
2026-04-04 05:30:00,METAR RJGG 040530Z 13022KT 9999 -RA FEW020 SCT060 BKN100 16/13 Q1008 TEMPO FM0630 4000 SHRA BR FEW003 BKN005
2026-04-04 05:00:00,METAR RJGG 040500Z 12021KT 8000 -RA FEW020 SCT050 BKN070 16/14 Q1009 TEMPO FM0600 4000 SHRA BR FEW003 BKN005
2026-04-04 04:30:00,METAR RJGG 040430Z 12023KT 9999 -RA FEW020 SCT040 BKN070 16/13 Q1010 NOSIG
2026-04-04 04:00:00,METAR RJGG 040400Z 13023KT 9999 -RA FEW020 SCT050 BKN070 16/13 Q1011 NOSIG
2026-04-04 03:30:00,METAR RJGG 040330Z 12023KT 9999 VCSH FEW020 SCT050 BKN070 16/13 Q1011 NOSIG
2026-04-04 03:00:00,METAR RJGG 040300Z 12021KT 8000 FEW015 SCT070 BKN100 16/12 Q1011 NOSIG
2026-04-04 02:30:00,METAR RJGG 040230Z 12021KT 8000 -RA FEW015 SCT040 BKN050 15/12 Q1012 TEMPO TL0300 4000 -RA BR
2026-04-04 02:00:00,METAR RJGG 040200Z 13021KT 9999 -RA FEW015 SCT050 BKN070 17/11 Q1013 NOSIG
2026-04-04 01:30:00,METAR RJGG 040130Z 11017KT 9999 VCSH FEW015 SCT060 BKN080 16/11 Q1013 NOSIG
2026-04-04 01:00:00,METAR RJGG 040100Z 12020KT 9999 -SHRA FEW020 SCT035 BKN050 16/10 Q1014 NOSIG
2026-04-04 00:30:00,METAR RJGG 040030Z 12022KT 9999 FEW030 SCT050 BKN120 16/10 Q1014 NOSIG
2026-04-04 00:00:00,METAR RJGG 040000Z 13021KT 9999 FEW030 BKN050 BKN120 15/10 Q1015 NOSIG
2026-04-03 23:30:00,METAR RJGG 032330Z 11018KT 9999 FEW030 BKN060 BKN120 16/10 Q1015 NOSIG
2026-04-03 23:00:00,METAR RJGG 032300Z 11020KT 9999 FEW030 BKN060 BKN110 16/10 Q1016 NOSIG
2026-04-03 22:30:00,METAR RJGG 032230Z 12018KT 9999 FEW030 BKN060 BKN120 16/10 Q1015 NOSIG
2026-04-03 22:00:00,METAR RJGG 032200Z 11017KT 9999 FEW030 BKN050 BKN120 15/09 Q1015 NOSIG
2026-04-03 21:30:00,METAR RJGG 032130Z 11015KT 9999 VCSH FEW030 BKN050 BKN140 15/09 Q1016 NOSIG
2026-04-03 21:00:00,METAR RJGG 032100Z 11016KT 9999 FEW030 BKN150 14/09 Q1016 NOSIG
2026-04-03 20:30:00,METAR RJGG 032030Z AUTO 11017KT 9999 FEW050 SCT060 BKN110 15/09 Q1016 NOSIG
2026-04-03 20:00:00,METAR RJGG 032000Z AUTO 11014KT 9999 SCT043 SCT050 BKN060 15/09 Q1016 NOSIG
2026-04-03 19:30:00,METAR RJGG 031930Z AUTO 11014KT 9999 FEW041 OVC050 15/09 Q1016 NOSIG
2026-04-03 19:00:00,METAR RJGG 031900Z AUTO 11016KT 9999 FEW035 SCT041 BKN045 15/09 Q1016 NOSIG
2026-04-03 18:30:00,METAR RJGG 031830Z AUTO 11014KT 9999 SCT042 BKN044 BKN180 15/09 Q1016 NOSIG
2026-04-03 18:00:00,METAR RJGG 031800Z AUTO 11016KT 9999 BKN044 OVC180 15/09 Q1016 NOSIG
2026-04-03 17:30:00,METAR RJGG 031730Z AUTO 11014KT 9999 FEW030 BKN047 BKN160 15/09 Q1017 NOSIG
2026-04-03 17:00:00,METAR RJGG 031700Z AUTO 11014KT 9999 BKN049 OVC180 15/09 Q1017 NOSIG
2026-04-03 16:30:00,METAR RJGG 031630Z AUTO 12014KT 9999 OVC044 15/09 Q1018 NOSIG
2026-04-03 16:00:00,METAR RJGG 031600Z AUTO 12013KT 9999 FEW036 OVC043 15/10 Q1018 NOSIG
2026-04-03 15:30:00,METAR RJGG 031530Z AUTO 11013KT 9999 SCT034 BKN200 OVC210 15/10 Q1018 NOSIG
2026-04-03 15:00:00,METAR RJGG 031500Z AUTO 12011KT 9999 NSC 15/10 Q1018 NOSIG
2026-04-03 14:30:00,METAR RJGG 031430Z AUTO 11012KT 9999 NSC 15/11 Q1018 NOSIG
2026-04-03 14:00:00,METAR RJGG 031400Z AUTO 11009KT 9999 NSC 15/11 Q1018 NOSIG
2026-04-03 13:30:00,METAR RJGG 031330Z 13009KT 9999 FEW030 BKN/// 15/11 Q1018 NOSIG
2026-04-03 13:00:00,METAR RJGG 031300Z 14010KT 9999 FEW030 BKN/// 15/11 Q1018 NOSIG
2026-04-03 12:30:00,METAR RJGG 031230Z 14008KT 9999 FEW030 BKN/// 15/10 Q1019 NOSIG
2026-04-03 12:00:00,METAR RJGG 031200Z 14007KT 9999 FEW030 BKN/// 14/09 Q1019 NOSIG
2026-04-03 11:30:00,METAR RJGG 031130Z 14008KT 9999 FEW030 BKN/// 15/08 Q1019 NOSIG
2026-04-03 11:00:00,METAR RJGG 031100Z 14009KT 9999 FEW030 BKN/// 15/09 Q1018 NOSIG
2026-04-03 10:30:00,METAR RJGG 031030Z 16008KT 9999 FEW030 BKN/// 13/08 Q1018 NOSIG
2026-04-03 10:00:00,METAR RJGG 031000Z 18010KT 9999 FEW030 SCT/// 14/09 Q1018 NOSIG
2026-04-03 09:30:00,METAR RJGG 030930Z 19014KT 9999 FEW030 BKN/// 15/09 Q1017 NOSIG
2026-04-03 09:00:00,METAR RJGG 030900Z 17011KT 9999 FEW030 BKN/// 15/09 Q1017 NOSIG
2026-04-03 08:30:00,METAR RJGG 030830Z 15008KT 9999 FEW030 BKN/// 17/07 Q1017 NOSIG
2026-04-03 08:00:00,METAR RJGG 030800Z 15011KT 9999 FEW030 BKN/// 17/05 Q1017 NOSIG
2026-04-03 07:30:00,METAR RJGG 030730Z 17013KT 9999 FEW030 BKN/// 17/07 Q1017 NOSIG
2026-04-03 07:00:00,METAR RJGG 030700Z 17010KT 9999 FEW030 BKN/// 18/07 Q1017 NOSIG
2026-04-03 06:30:00,METAR RJGG 030630Z 17010KT 9999 FEW030 BKN/// 18/09 Q1017 NOSIG
2026-04-03 06:00:00,METAR RJGG 030600Z 17005KT 9999 FEW030 BKN/// 18/06 Q1017 NOSIG
2026-04-03 05:30:00,METAR RJGG 030530Z 16005KT 9999 FEW030 17/08 Q1016 NOSIG
2026-04-03 05:00:00,METAR RJGG 030500Z 21005KT 9999 FEW030 17/09 Q1017 NOSIG
2026-04-03 04:30:00,METAR RJGG 030430Z 20006KT 9999 FEW030 16/08 Q1017 NOSIG
2026-04-03 04:00:00,METAR RJGG 030400Z 21005KT 9999 FEW030 16/09 Q1017 NOSIG
2026-04-03 03:30:00,METAR RJGG 030330Z 21004KT 9999 FEW030 16/09 Q1018 NOSIG
2026-04-03 03:00:00,METAR RJGG 030300Z 22003KT 190V270 9999 FEW030 16/07 Q1018 NOSIG
2026-04-03 02:30:00,METAR RJGG 030230Z 20004KT 140V230 9999 FEW030 15/08 Q1018 NOSIG
2026-04-03 02:00:00,METAR RJGG 030200Z 23002KT 9999 FEW030 15/07 Q1019 NOSIG
2026-04-03 01:30:00,METAR RJGG 030130Z 31003KT 9999 FEW030 SCT/// 13/07 Q1019 NOSIG
2026-04-03 01:00:00,METAR RJGG 030100Z 31004KT 9999 FEW030 SCT/// 13/07 Q1019 NOSIG
2026-04-03 00:30:00,METAR RJGG 030030Z 28003KT 240V310 CAVOK 12/06 Q1019 BECMG 24005KT
2026-04-03 00:00:00,METAR RJGG 030000Z VRB01KT CAVOK 13/06 Q1019 NOSIG
2026-04-02 23:30:00,METAR RJGG 022330Z VRB02KT CAVOK 12/04 Q1019 NOSIG
2026-04-02 23:00:00,METAR RJGG 022300Z 35003KT 330V060 CAVOK 11/04 Q1018 NOSIG
2026-04-02 22:30:00,METAR RJGG 022230Z 34006KT CAVOK 11/04 Q1018 NOSIG
2026-04-02 22:00:00,METAR RJGG 022200Z 35007KT CAVOK 10/04 Q1018 NOSIG
2026-04-02 21:30:00,METAR RJGG 022130Z 34007KT CAVOK 09/03 Q1018 NOSIG
2026-04-02 21:00:00,METAR RJGG 022100Z 34008KT CAVOK 07/03 Q1018 NOSIG
2026-04-02 20:30:00,METAR RJGG 022030Z AUTO 34006KT 9999 NCD 09/04 Q1017 NOSIG
2026-04-02 20:00:00,METAR RJGG 022000Z AUTO 34007KT 9999 NCD 08/03 Q1017 NOSIG
2026-04-02 19:30:00,METAR RJGG 021930Z AUTO 34009KT 9999 NCD 08/02 Q1016 NOSIG
2026-04-02 19:00:00,METAR RJGG 021900Z AUTO 35012KT 9999 NCD 09/02 Q1016 NOSIG
2026-04-02 18:30:00,METAR RJGG 021830Z AUTO 34013KT 9999 NCD 10/03 Q1016 NOSIG
2026-04-02 18:00:00,METAR RJGG 021800Z AUTO 35011KT 9999 NCD 09/03 Q1016 NOSIG
2026-04-02 17:30:00,METAR RJGG 021730Z AUTO 35011KT 9999 NCD 08/02 Q1016 NOSIG
2026-04-02 17:00:00,METAR RJGG 021700Z AUTO 35011KT 9999 NCD 08/01 Q1016 NOSIG
2026-04-02 16:30:00,METAR RJGG 021630Z AUTO 34008KT 9999 NCD 08/01 Q1016 NOSIG
2026-04-02 16:00:00,METAR RJGG 021600Z AUTO 32008KT 9999 NCD 10/03 Q1016 NOSIG
2026-04-02 15:30:00,METAR RJGG 021530Z AUTO 01006KT 9999 NCD 08/01 Q1016 NOSIG
2026-04-02 15:00:00,METAR RJGG 021500Z AUTO 31015KT 9999 NCD 11/04 Q1016 NOSIG
2026-04-02 14:30:00,METAR RJGG 021430Z AUTO 32015KT 9999 NCD 11/02 Q1015 NOSIG
2026-04-02 14:00:00,METAR RJGG 021400Z AUTO 32014KT 9999 NCD 11/02 Q1015 NOSIG
2026-04-02 13:30:00,METAR RJGG 021330Z 32014KT 9999 FEW030 11/04 Q1015 NOSIG
2026-04-02 13:00:00,METAR RJGG 021300Z 33017KT 9999 FEW030 11/02 Q1014 NOSIG
2026-04-02 12:30:00,METAR RJGG 021230Z 33018KT 9999 FEW030 11/03 Q1014 NOSIG
2026-04-02 12:00:00,METAR RJGG 021200Z 31019KT 9999 FEW030 11/02 Q1014 NOSIG
2026-04-02 11:30:00,METAR RJGG 021130Z 32017KT 9999 FEW030 11/03 Q1013 NOSIG
2026-04-02 11:00:00,METAR RJGG 021100Z 31017KT 9999 FEW030 12/03 Q1012 NOSIG
2026-04-02 10:30:00,METAR RJGG 021030Z 31016KT 9999 FEW030 12/03 Q1012 NOSIG
2026-04-02 10:00:00,METAR RJGG 021000Z 31015KT 9999 FEW030 12/03 Q1012 NOSIG
2026-04-02 09:30:00,METAR RJGG 020930Z 31020KT 9999 FEW030 13/02 Q1011 NOSIG
2026-04-02 09:00:00,METAR RJGG 020900Z 32020KT 9999 FEW020 13/02 Q1011 NOSIG
2026-04-02 08:30:00,METAR RJGG 020830Z 31021KT 9999 FEW015 13/02 Q1010 NOSIG
2026-04-02 08:00:00,METAR RJGG 020800Z 31022KT 9999 FEW015 14/04 Q1010 NOSIG
2026-04-02 07:30:00,METAR RJGG 020730Z 30023KT 9999 FEW020 14/05 Q1010 NOSIG
2026-04-02 07:00:00,METAR RJGG 020700Z 31023KT 9999 FEW020 14/05 Q1009 NOSIG
2026-04-02 06:30:00,METAR RJGG 020630Z 31023KT 9999 FEW020 14/05 Q1009 BECMG 31034KT TEMPO 31034G44KT
2026-04-02 06:00:00,METAR RJGG 020600Z 31024KT 9999 FEW020 14/05 Q1008 BECMG 31034KT TEMPO 31034G44KT
2026-04-02 05:30:00,METAR RJGG 020530Z 30024KT 9999 FEW020 15/06 Q1008 BECMG 31034KT TEMPO 31034G44KT
2026-04-02 05:00:00,METAR RJGG 020500Z 30025KT 9999 FEW020 15/06 Q1008 TEMPO 31034G44KT
2026-04-02 04:30:00,METAR RJGG 020430Z 31029KT 9999 FEW020 14/05 Q1008 TEMPO 31034G44KT
2026-04-02 04:00:00,METAR RJGG 020400Z 31031KT 9999 FEW020 14/06 Q1008 TEMPO 31034G44KT
2026-04-02 03:30:00,METAR RJGG 020330Z 31028KT 9999 FEW020 14/06 Q1007 TEMPO 31034G44KT
2026-04-02 03:00:00,METAR RJGG 020300Z 32025KT 9999 FEW020 14/05 Q1007 TEMPO 31034G44KT
2026-04-02 02:30:00,METAR RJGG 020230Z 31031KT 9999 FEW020 14/06 Q1007 TEMPO 31034G44KT
2026-04-02 02:00:00,METAR RJGG 020200Z 31031KT 9999 FEW020 13/06 Q1007 TEMPO 31034G44KT
2026-04-02 01:30:00,METAR RJGG 020130Z 31034KT 9999 FEW020 13/06 Q1008 TEMPO 31034G44KT
2026-04-02 01:00:00,METAR RJGG 020100Z 31032KT 9999 FEW020 13/06 Q1007 TEMPO 31034G44KT
2026-04-02 00:30:00,METAR RJGG 020030Z 31032KT 9999 FEW020 13/07 Q1007 TEMPO 31034G44KT
2026-04-02 00:00:00,METAR RJGG 020000Z 31023KT 9999 FEW015 13/06 Q1007 BECMG 31034KT TEMPO 31034G44KT
2026-04-01 23:30:00,METAR RJGG 012330Z 31029KT 9999 FEW015 13/07 Q1006 TEMPO FM0000 31034G44KT
2026-04-01 23:00:00,METAR RJGG 012300Z 31028KT 9999 FEW015 12/07 Q1005 TEMPO 31034G44KT
2026-04-01 22:30:00,METAR RJGG 012230Z 31029KT 9999 FEW015 12/07 Q1005 TEMPO 31029G40KT
2026-04-01 22:00:00,METAR RJGG 012200Z 30026KT 9999 FEW015 12/07 Q1004 TEMPO FM2230 30025G36KT
2026-04-01 21:30:00,METAR RJGG 012130Z 30027KT 9999 FEW010 SCT110 12/08 Q1004 TEMPO FM2230 30025G36KT
2026-04-01 21:00:00,METAR RJGG 012100Z 30027KT 9999 FEW010 SCT050 BKN080 12/08 Q1003 TEMPO FM2230 30023G34KT
2026-04-01 20:30:00,METAR RJGG 012030Z AUTO 32018KT 9999 FEW049 OVC050 13/09 Q1003 NOSIG
2026-04-01 20:00:00,METAR RJGG 012000Z AUTO 29015KT 9999 OVC050 13/10 Q1002 NOSIG
2026-04-01 19:30:00,METAR RJGG 011930Z AUTO 31015KT 9999 FEW039 OVC047 12/10 Q1002 NOSIG
2026-04-01 19:00:00,METAR RJGG 011900Z AUTO 32014KT 9999 FEW032 BKN036 OVC038 12/10 Q1001 NOSIG
2026-04-01 18:30:00,METAR RJGG 011830Z AUTO 33014KT 9999 FEW005 BKN029 OVC031 12/11 Q1001 TEMPO TL1900 4000 -SHRA BR FEW005 BKN008
2026-04-01 18:00:00,METAR RJGG 011800Z AUTO 32013KT 4200 -RA BR FEW007 BKN010 BKN016 12/11 Q1001 TEMPO TL1900 FEW005 BKN008 BECMG TL1900 8000 -SHRA
2026-04-01 17:30:00,METAR RJGG 011730Z AUTO 32016KT 4700 BR SCT004 BKN011 OVC016 12/11 Q1001 TEMPO TL1900 3000 -SHRA BR FEW003 BKN005
2026-04-01 17:00:00,METAR RJGG 011700Z AUTO 32017KT 4100 BR FEW004 OVC011 12/12 Q1001 TEMPO 3000 SHRA BR FEW001 BKN003
2026-04-01 16:30:00,METAR RJGG 011630Z AUTO 35014KT 3800 BR FEW002 SCT005 OVC024 12/12 Q1001 TEMPO SHRA BR FEW001 BKN003
2026-04-01 16:00:00,METAR RJGG 011600Z AUTO 35012KT 4500 -RA BR SCT003 BKN007 OVC016 12/12 Q1002 TEMPO SHRA BR FEW001 BKN003
2026-04-01 15:30:00,METAR RJGG 011530Z AUTO 01011KT 9999 BKN003 OVC014 13/12 Q1002 NOSIG
2026-04-01 15:00:00,METAR RJGG 011500Z AUTO 36014KT 9999 -RA FEW003 BKN015 OVC027 //////TCU 12/12 Q1002 TEMPO FEW003 BKN005
2026-04-01 14:30:00,METAR RJGG 011430Z AUTO 36014KT 7000 -RA SCT004 BKN020 BKN023 //////TCU 12/12 Q1003 TEMPO 4000 -SHRA BR FEW003 BKN005
2026-04-01 14:00:00,METAR RJGG 011400Z AUTO 01013KT 9999 RA FEW005 SCT060 BKN080 //////TCU 12/12 Q1004 TEMPO 3000 SHRA BR FEW003 BKN008
2026-04-01 13:30:00,METAR RJGG 011330Z 34016KT 3500 SHRA BR FEW002 SCT003 BKN010 12/12 Q1005 TEMPO 2000 SHRA BR FEW003 BKN005
2026-04-01 13:00:00,METAR RJGG 011300Z 34013KT 3500 SHRA BR FEW002 SCT004 BKN010 12/12 Q1006 TEMPO 2000 SHRA BR FEW003 BKN005
2026-04-01 12:30:00,METAR RJGG 011230Z 34006KT 3000 RA BR FEW002 BKN003 BKN006 12/12 Q1006 NOSIG
2026-04-01 12:00:00,METAR RJGG 011200Z 34006KT 3000 RA BR FEW002 SCT003 BKN012 12/12 Q1006 TEMPO FEW003 BKN005
2026-04-01 11:30:00,METAR RJGG 011130Z 32005KT 2400 RA BR FEW002 SCT004 BKN006 12/12 Q1007 TEMPO FEW001 BKN003
2026-04-01 11:00:00,METAR RJGG 011100Z 33003KT 3000 RA BR FEW002 SCT003 BKN005 12/12 Q1007 NOSIG
2026-04-01 10:30:00,METAR RJGG 011030Z 31002KT 4000 -RA BR FEW003 BKN005 12/12 Q1007 TEMPO FM1100 3000 RA BR
2026-04-01 10:00:00,METAR RJGG 011000Z VRB01KT 5000 -RA BR FEW006 BKN010 BKN020 13/12 Q1008 TEMPO 4000 -RA BR FEW003 BKN008
2026-04-01 09:30:00,METAR RJGG 010930Z VRB02KT 8000 -RA FEW008 SCT012 BKN020 13/12 Q1008 TEMPO FM1030 3000 RA BR FEW003 BKN008
2026-04-01 09:00:00,METAR RJGG 010900Z VRB01KT 9999 -RA FEW010 SCT035 OVC080 13/11 Q1008 TEMPO FM1030 3000 RA BR FEW003 BKN008
2026-04-01 08:30:00,METAR RJGG 010830Z VRB02KT 9999 -RA FEW010 SCT015 OVC080 13/11 Q1008 TEMPO FM0900 FEW003 BKN008
2026-04-01 08:00:00,METAR RJGG 010800Z VRB02KT 9999 -RA FEW010 BKN035 OVC100 13/11 Q1008 TEMPO FM0830 FEW003 BKN008
2026-04-01 07:30:00,METAR RJGG 010730Z VRB01KT 9999 -RA FEW010 SCT018 BKN045 13/11 Q1009 TEMPO FM0830 BKN012
2026-04-01 07:00:00,METAR RJGG 010700Z 29004KT 9999 -RA FEW010 BKN040 OVC100 13/11 Q1009 NOSIG
2026-04-01 06:30:00,METAR RJGG 010630Z 33003KT 9999 -RA FEW010 BKN040 OVC100 13/12 Q1009 NOSIG
2026-04-01 06:00:00,METAR RJGG 010600Z 31004KT 9999 -RA FEW010 SCT040 OVC100 13/12 Q1009 NOSIG
2026-04-01 05:30:00,METAR RJGG 010530Z 29003KT 9999 -RA FEW010 SCT040 OVC100 13/11 Q1010 NOSIG
2026-04-01 05:00:00,METAR RJGG 010500Z 34005KT 9999 -RA FEW010 SCT050 OVC100 13/12 Q1010 NOSIG
2026-04-01 04:30:00,METAR RJGG 010430Z 33006KT 9999 -RA FEW010 BKN045 13/12 Q1010 NOSIG
2026-04-01 04:00:00,METAR RJGG 010400Z 28004KT 9999 -RA FEW020 SCT070 OVC100 13/12 Q1011 NOSIG
2026-04-01 03:30:00,METAR RJGG 010330Z 28003KT 9999 -RA FEW020 SCT070 OVC100 14/12 Q1011 NOSIG
2026-04-01 03:00:00,METAR RJGG 010300Z 26004KT 9999 -RA FEW020 BKN045 14/11 Q1012 NOSIG
2026-04-01 02:30:00,METAR RJGG 010230Z 27005KT 9999 -RA FEW020 SCT045 OVC090 14/11 Q1011 NOSIG
2026-04-01 02:00:00,METAR RJGG 010200Z 26004KT 9999 -RA FEW020 BKN090 OVC130 14/11 Q1011 NOSIG
2026-04-01 01:30:00,METAR RJGG 010130Z 31003KT 9999 -RA FEW020 BKN100 OVC130 14/11 Q1011 NOSIG
2026-04-01 01:00:00,METAR RJGG 010100Z 28007KT 9999 -RA FEW020 BKN100 OVC120 14/11 Q1012 NOSIG
2026-04-01 00:30:00,METAR RJGG 010030Z 26007KT 9999 VCSH FEW020 BKN110 14/11 Q1011 NOSIG
2026-04-01 00:00:00,METAR RJGG 010000Z 29005KT 9999 FEW020 BKN110 14/11 Q1010 NOSIG
2026-03-31 23:30:00,METAR RJGG 312330Z 27003KT 9999 FEW020 BKN120 BKN170 14/11 Q1011 NOSIG
2026-03-31 23:00:00,METAR RJGG 312300Z 26003KT 9999 FEW020 BKN170 BKN/// 14/11 Q1010 NOSIG
2026-03-31 22:30:00,METAR RJGG 312230Z 30004KT 260V330 9999 FEW020 BKN/// 14/11 Q1011 NOSIG
2026-03-31 22:00:00,METAR RJGG 312200Z 29004KT 9999 FEW020 BKN/// 14/12 Q1011 NOSIG
2026-03-31 21:30:00,METAR RJGG 312130Z 27005KT 9999 FEW020 BKN/// 13/11 Q1011 NOSIG
2026-03-31 21:00:00,METAR RJGG 312100Z 28006KT 9999 FEW020 13/11 Q1010 NOSIG
2026-03-31 20:30:00,METAR RJGG 312030Z AUTO 27007KT 9999 NCD 13/11 Q1009 NOSIG
2026-03-31 20:00:00,METAR RJGG 312000Z AUTO 28006KT 9999 NCD 13/11 Q1009 NOSIG
2026-03-31 19:30:00,METAR RJGG 311930Z AUTO 26007KT 9999 NCD 13/11 Q1009 NOSIG
2026-03-31 19:00:00,METAR RJGG 311900Z AUTO 27009KT 9999 NCD 14/10 Q1009 NOSIG
2026-03-31 18:30:00,METAR RJGG 311830Z AUTO 28014KT 9999 NCD 14/11 Q1009 NOSIG
2026-03-31 18:00:00,METAR RJGG 311800Z AUTO 29016KT 9999 NCD 14/11 Q1009 NOSIG
2026-03-31 17:30:00,METAR RJGG 311730Z AUTO 30021KT 9999 NCD 14/11 Q1008 NOSIG
2026-03-31 17:00:00,METAR RJGG 311700Z AUTO 31019KT 9999 NCD 14/11 Q1008 NOSIG
2026-03-31 16:30:00,METAR RJGG 311630Z AUTO 31019KT 9999 NCD 14/11 Q1008 NOSIG
2026-03-31 16:00:00,METAR RJGG 311600Z AUTO 29016KT 9999 FEW040 15/11 Q1008 NOSIG
2026-03-31 15:30:00,METAR RJGG 311530Z AUTO 32017KT 9999 FEW034 BKN037 15/11 Q1008 NOSIG
2026-03-31 15:00:00,METAR RJGG 311500Z AUTO 33014KT 9999 OVC033 15/11 Q1009 NOSIG
2026-03-31 14:30:00,METAR RJGG 311430Z AUTO 33019KT 9999 OVC031 15/11 Q1008 NOSIG
2026-03-31 14:00:00,METAR RJGG 311400Z AUTO 33016KT 9999 FEW043 SCT050 BKN060 15/12 Q1009 NOSIG
2026-03-31 13:30:00,METAR RJGG 311330Z 35015KT 9999 FEW008 SCT020 BKN050 15/12 Q1008 NOSIG
2026-03-31 13:00:00,METAR RJGG 311300Z 32006KT 9999 FEW015 SCT020 BKN030 16/15 Q1008 NOSIG
2026-03-31 12:30:00,METAR RJGG 311230Z 29016KT 260V330 9999 FEW015 SCT/// 17/15 Q1007 NOSIG
2026-03-31 12:00:00,METAR RJGG 311200Z 27019KT 9999 FEW015 BKN/// 17/13 Q1006 NOSIG
2026-03-31 11:30:00,METAR RJGG 311130Z 21013KT 9999 FEW010 BKN/// 18/14 Q1005 BECMG 28008KT
2026-03-31 11:00:00,METAR RJGG 311100Z 19007KT 150V230 9999 FEW010 SCT060 BKN/// 16/14 Q1005 BECMG FM1200 26008KT
2026-03-31 10:30:00,METAR RJGG 311030Z 23008KT 9999 FEW010 BKN060 16/14 Q1004 NOSIG
2026-03-31 10:00:00,METAR RJGG 311000Z 22013KT 9999 -SHRA FEW010 SCT040 BKN050 17/15 Q1003 BECMG TL1100 27006KT
2026-03-31 09:30:00,METAR RJGG 310930Z 31005KT 9999 FEW010 BKN050 BKN070 16/15 Q1003 NOSIG
2026-03-31 09:00:00,METAR RJGG 310900Z 34004KT 9999 -SHRA FEW008 SCT040 BKN050 16/15 Q1003 NOSIG
2026-03-31 08:30:00,METAR RJGG 310830Z 33013KT 5000 -SHRA BR FEW008 SCT012 BKN040 15/14 Q1003 BECMG 27012KT
2026-03-31 08:00:00,METAR RJGG 310800Z 35008KT 9999 -SHRA BR FEW010 SCT012 BKN050 16/15 Q1002 TEMPO TL0900 4000 -SHRA BR FEW003 BKN008 BECMG TL0900 24008KT
2026-03-31 07:30:00,METAR RJGG 310730Z 19008KT 9999 -SHRA FEW010 SCT013 BKN060 16/15 Q1001 BECMG TL0750 30010KT TEMPO 4000 SHRA BR FEW005 BKN008
2026-03-31 07:00:00,METAR RJGG 310700Z 18009KT 9999 -SHRA FEW010 SCT020 BKN060 18/17 Q1001 BECMG 16020KT
2026-03-31 06:30:00,METAR RJGG 310630Z 19008KT 140V220 9999 VCSH FEW010 SCT020 BKN070 18/16 Q1001 BECMG TL0730 16020KT
2026-03-31 06:00:00,METAR RJGG 310600Z 17016KT 9999 VCSH FEW010 BKN020 19/17 Q1000 NOSIG
2026-03-31 05:30:00,METAR RJGG 310530Z 15013KT 9999 VCSH FEW007 BKN020 19/17 Q1001 BECMG 16024KT
2026-03-31 05:00:00,METAR RJGG 310500Z 11010KT 9999 FEW005 BKN015 20/18 Q1001 BECMG 16024KT
2026-03-31 04:30:00,METAR RJGG 310430Z 13017KT 9999 FEW004 SCT007 BKN015 19/18 Q1002 TEMPO TL0600 FEW005 BKN008
2026-03-31 04:00:00,METAR RJGG 310400Z 13021KT 9999 VCSH FEW003 BKN007 BKN020 18/17 Q1003 NOSIG
2026-03-31 03:30:00,METAR RJGG 310330Z 13020KT 9999 VCSH FEW003 BKN007 BKN020 17/17 Q1004 NOSIG
2026-03-31 03:00:00,METAR RJGG 310300Z 12020KT 9999 -SHRA FEW002 BKN005 BKN007 16/16 Q1005 NOSIG
2026-03-31 02:30:00,METAR RJGG 310230Z 12022KT 9999 -SHRA FEW003 BKN005 BKN007 16/16 Q1006 NOSIG
2026-03-31 02:00:00,METAR RJGG 310200Z 12022KT 9999 -SHRA FEW002 BKN005 16/15 Q1006 NOSIG
2026-03-31 01:30:00,METAR RJGG 310130Z 12022KT 8000 -SHRA FEW002 SCT004 BKN006 15/14 Q1007 NOSIG
2026-03-31 01:00:00,METAR RJGG 310100Z 12020KT 7000 -SHRA FEW003 SCT005 BKN007 15/14 Q1008 NOSIG
2026-03-31 00:30:00,METAR RJGG 310030Z 13019KT 7000 -SHRA FEW005 BKN009 BKN025 15/14 Q1009 NOSIG
2026-03-31 00:00:00,METAR RJGG 310000Z 14021KT 9999 -SHRA FEW005 BKN010 BKN025 15/14 Q1010 TEMPO BKN007
2026-03-30 23:30:00,METAR RJGG 302330Z 14021KT 8000 -SHRA FEW005 BKN008 BKN020 15/14 Q1010 NOSIG
2026-03-30 23:00:00,METAR RJGG 302300Z 15022KT 9999 -SHRA FEW008 SCT012 BKN020 15/13 Q1010 TEMPO BKN012
2026-03-30 22:30:00,METAR RJGG 302230Z 15018KT 9999 -RA FEW008 SCT013 BKN030 15/14 Q1011 TEMPO 4000 RA BR BKN012
2026-03-30 22:00:00,METAR RJGG 302200Z 15022KT 9999 -RA FEW020 SCT040 BKN060 15/13 Q1011 TEMPO 4000 RA BR
2026-03-30 21:30:00,METAR RJGG 302130Z 15024KT 9999 -RA FEW020 SCT040 BKN060 15/13 Q1011 TEMPO 4000 RA BR
2026-03-30 21:00:00,METAR RJGG 302100Z 15022KT 9000 -RA FEW020 SCT045 BKN060 15/14 Q1012 TEMPO 4000 RA BR
2026-03-30 20:30:00,METAR RJGG 302030Z AUTO 13018KT 9999 -RA FEW028 SCT060 OVC070 16/14 Q1012 TEMPO 4000 RA BR
2026-03-30 20:00:00,METAR RJGG 302000Z AUTO 14017KT 9000 -RA FEW038 BKN070 BKN080 16/14 Q1012 TEMPO 4000 RA BR
2026-03-30 19:30:00,METAR RJGG 301930Z AUTO 14019KT 9999 -RA NSC 16/14 Q1012 NOSIG
2026-03-30 19:00:00,METAR RJGG 301900Z AUTO 13017KT 9999 -RA FEW050 BKN070 OVC080 16/14 Q1012 NOSIG
2026-03-30 18:30:00,METAR RJGG 301830Z AUTO 13016KT 9999 NSC 16/13 Q1013 NOSIG
2026-03-30 18:00:00,METAR RJGG 301800Z AUTO 13014KT 9999 -RA NSC 16/13 Q1013 TEMPO RA
2026-03-30 17:30:00,METAR RJGG 301730Z AUTO 15016KT 9999 -RA NSC 16/13 Q1013 TEMPO RA
2026-03-30 17:00:00,METAR RJGG 301700Z AUTO 14012KT 9999 NSC 16/12 Q1014 TEMPO RA
2026-03-30 16:30:00,METAR RJGG 301630Z AUTO 18014KT 9999 FEW028 BKN110 OVC130 16/13 Q1015 NOSIG
2026-03-30 16:00:00,METAR RJGG 301600Z AUTO 16015KT 9999 FEW015 SCT021 BKN023 16/15 Q1015 NOSIG
2026-03-30 15:30:00,METAR RJGG 301530Z AUTO 13014KT 9999 -RA FEW029 SCT033 BKN046 17/14 Q1015 NOSIG
2026-03-30 15:00:00,METAR RJGG 301500Z AUTO 13013KT 9999 -RA FEW033 SCT080 BKN090 17/14 Q1016 NOSIG
2026-03-30 14:30:00,METAR RJGG 301430Z AUTO 15013KT 9999 -RA NSC 17/14 Q1017 NOSIG
2026-03-30 14:00:00,METAR RJGG 301400Z AUTO 15016KT 9999 FEW050 BKN060 OVC110 16/14 Q1017 NOSIG
2026-03-30 13:30:00,METAR RJGG 301330Z 12014KT 9999 FEW020 SCT100 BKN150 17/15 Q1018 NOSIG
2026-03-30 13:00:00,METAR RJGG 301300Z 12013KT 9999 FEW020 SCT100 BKN170 17/15 Q1018 NOSIG
2026-03-30 12:30:00,METAR RJGG 301230Z 12012KT 9999 FEW020 BKN100 BKN/// 17/15 Q1018 NOSIG
2026-03-30 12:00:00,METAR RJGG 301200Z 12012KT 9999 FEW020 BKN100 BKN/// 17/15 Q1018 NOSIG
2026-03-30 11:30:00,METAR RJGG 301130Z 12011KT 9999 FEW020 SCT100 BKN/// 17/14 Q1018 NOSIG
2026-03-30 11:00:00,METAR RJGG 301100Z 12013KT 9999 FEW020 SCT170 BKN/// 17/15 Q1018 NOSIG
2026-03-30 10:30:00,METAR RJGG 301030Z 12014KT 9999 FEW020 BKN/// 17/14 Q1017 NOSIG
2026-03-30 10:00:00,METAR RJGG 301000Z 12012KT 9999 FEW020 BKN/// 17/14 Q1017 NOSIG
2026-03-30 09:30:00,METAR RJGG 300930Z 12010KT 9999 FEW020 BKN/// 18/14 Q1017 NOSIG
2026-03-30 09:00:00,METAR RJGG 300900Z 13010KT 9999 FEW020 SCT120 BKN/// 18/13 Q1017 NOSIG
2026-03-30 08:30:00,METAR RJGG 300830Z 13011KT 9999 FEW020 SCT120 BKN/// 19/13 Q1017 NOSIG
2026-03-30 08:00:00,METAR RJGG 300800Z 15011KT 9999 FEW020 SCT130 BKN/// 19/13 Q1017 NOSIG
2026-03-30 07:30:00,METAR RJGG 300730Z 15012KT 9999 FEW020 SCT130 BKN180 20/13 Q1017 NOSIG
2026-03-30 07:00:00,METAR RJGG 300700Z 13011KT 9999 FEW020 SCT120 BKN/// 20/12 Q1017 NOSIG
2026-03-30 06:30:00,METAR RJGG 300630Z 15012KT 9999 FEW020 BKN/// 20/14 Q1017 NOSIG
2026-03-30 06:00:00,METAR RJGG 300600Z 15012KT 9999 FEW020 BKN/// 21/14 Q1017 NOSIG
2026-03-30 05:30:00,METAR RJGG 300530Z 14013KT 9999 FEW020 BKN/// 21/14 Q1018 NOSIG
2026-03-30 05:00:00,METAR RJGG 300500Z 15014KT 9999 FEW020 BKN/// 21/14 Q1018 NOSIG
2026-03-30 04:30:00,METAR RJGG 300430Z 15010KT 9999 FEW020 BKN/// 21/14 Q1018 NOSIG
2026-03-30 04:00:00,METAR RJGG 300400Z 15006KT 120V180 6000 FEW015 BKN/// 20/14 Q1019 NOSIG
2026-03-30 03:30:00,METAR RJGG 300330Z 21005KT 6000 FEW015 BKN/// 18/15 Q1019 NOSIG
2026-03-30 03:00:00,METAR RJGG 300300Z 19004KT 150V220 6000 FEW015 BKN/// 17/14 Q1019 NOSIG
2026-03-30 02:30:00,METAR RJGG 300230Z VRB02KT 5000 BR FEW015 17/13 Q1020 NOSIG
2026-03-30 02:00:00,METAR RJGG 300200Z VRB02KT 4000 BR FEW005 SCT140 16/14 Q1020 NOSIG
2026-03-30 01:30:00,METAR RJGG 300130Z 24002KT 3000 BR FEW002 SCT/// 15/14 Q1021 BECMG 4000 BR
2026-03-30 01:00:00,METAR RJGG 300100Z 21004KT 2500 BR FEW002 SCT/// 15/13 Q1021 BECMG 9999 NSW
2026-03-30 00:30:00,METAR RJGG 300030Z 20004KT 3000 BR FEW002 SCT/// 15/13 Q1021 BECMG 9999 NSW
2026-03-30 00:00:00,METAR RJGG 300000Z VRB02KT 3500 BR FEW002 SCT004 15/14 Q1020 NOSIG
2026-03-29 23:30:00,METAR RJGG 292330Z 21004KT 2500 BR FEW002 BKN004 14/14 Q1020 TEMPO 1500 BR
2026-03-29 23:00:00,METAR RJGG 292300Z 20003KT 160V230 0500 R36/1800N FG FEW002 BKN003 14/13 Q1020 TEMPO 0300 FG
2026-03-29 22:30:00,METAR RJGG 292230Z 12004KT 070V160 0100 R36/0225V0600N FG BKN001 14/13 Q1020 BECMG 0500 FG BKN003
2026-03-29 22:00:00,METAR RJGG 292200Z 09004KT 2000 R36/0150V1700D BR FEW003 SCT050 BKN090 14/14 Q1020 TEMPO 1500 BR
2026-03-29 21:30:00,METAR RJGG 292130Z 35004KT 2000 R36/2000N BR FEW003 SCT050 BKN090 13/13 Q1020 NOSIG
2026-03-29 21:00:00,METAR RJGG 292100Z 35003KT 310V040 1500 R36/0650VP2000U BR FEW002 SCT003 BKN070 13/13 Q1020 BECMG 2000 BR
2026-03-29 20:30:00,METAR RJGG 292030Z AUTO 33002KT 1400 R36/P2000N BR NSC 13/13 Q1019 BECMG 1700 BR
2026-03-29 20:00:00,METAR RJGG 292000Z AUTO 34002KT 1200 R36/2000N BR FEW002 SCT090 13/13 Q1019 BECMG 1700 BR
2026-03-29 19:30:00,METAR RJGG 291930Z AUTO 31003KT 1500 R36/P2000N BR SCT002 13/13 Q1019 BECMG 1800 BR
2026-03-29 19:00:00,METAR RJGG 291900Z AUTO VRB02KT 1800 R36/P2000N BR NSC 14/14 Q1018 NOSIG
2026-03-29 18:30:00,METAR RJGG 291830Z AUTO 01003KT 2700 BR FEW007 BKN100 14/13 Q1018 NOSIG
2026-03-29 18:00:00,METAR RJGG 291800Z AUTO 35002KT 4100 BR FEW007 OVC100 14/13 Q1018 TEMPO 2000 BR
2026-03-29 17:30:00,METAR RJGG 291730Z AUTO 33004KT 4300 BR NSC 14/13 Q1018 TEMPO 2000 BR
2026-03-29 17:00:00,METAR RJGG 291700Z AUTO 31003KT 2600 BR NSC 13/13 Q1018 NOSIG
2026-03-29 16:30:00,METAR RJGG 291630Z AUTO 33004KT 2900 BR NSC 13/13 Q1018 NOSIG
2026-03-29 16:00:00,METAR RJGG 291600Z AUTO 27004KT 2700 BR NSC 14/13 Q1019 NOSIG
2026-03-29 15:30:00,METAR RJGG 291530Z AUTO 14002KT 3900 BR NSC 15/14 Q1019 NOSIG
2026-03-29 15:00:00,METAR RJGG 291500Z AUTO 12003KT 6000 NSC 15/14 Q1018 TEMPO 4000 -SHRA BR
2026-03-29 14:30:00,METAR RJGG 291430Z AUTO VRB02KT 6000 -RA NSC 15/14 Q1018 NOSIG
2026-03-29 14:00:00,METAR RJGG 291400Z AUTO 33003KT 280V360 5000 -RA BR NSC 14/13 Q1018 NOSIG
2026-03-29 13:30:00,METAR RJGG 291330Z VRB02KT 9999 -SHRA FEW020 BKN080 BKN100 15/13 Q1018 NOSIG
2026-03-29 13:00:00,METAR RJGG 291300Z 18004KT 9999 -SHRA FEW020 BKN100 BKN140 15/14 Q1018 NOSIG
2026-03-29 12:30:00,METAR RJGG 291230Z 17005KT 9999 -SHRA FEW020 BKN080 BKN100 15/13 Q1018 NOSIG
2026-03-29 12:00:00,METAR RJGG 291200Z 16006KT 9999 -SHRA FEW020 BKN080 BKN100 16/14 Q1018 NOSIG
2026-03-29 11:30:00,METAR RJGG 291130Z 15007KT 9999 VCSH FEW020 BKN100 BKN/// 16/14 Q1018 NOSIG
2026-03-29 11:00:00,METAR RJGG 291100Z 13008KT 9999 FEW030 BKN100 BKN/// 17/14 Q1017 NOSIG
2026-03-29 10:30:00,METAR RJGG 291030Z 11006KT 9999 FEW030 BKN/// 17/14 Q1017 NOSIG
2026-03-29 10:00:00,METAR RJGG 291000Z 13007KT 9999 FEW030 BKN/// 17/13 Q1017 NOSIG
2026-03-29 09:30:00,METAR RJGG 290930Z 15008KT 9999 FEW030 BKN/// 17/13 Q1017 NOSIG
2026-03-29 09:00:00,METAR RJGG 290900Z 14008KT 9999 FEW030 BKN/// 17/13 Q1016 NOSIG
2026-03-29 08:30:00,METAR RJGG 290830Z 14010KT 9999 FEW030 BKN/// 18/12 Q1016 NOSIG
2026-03-29 08:00:00,METAR RJGG 290800Z 14009KT 9999 FEW030 BKN/// 18/12 Q1016 NOSIG
2026-03-29 07:30:00,METAR RJGG 290730Z 14010KT 9999 FEW030 BKN/// 18/12 Q1016 NOSIG
2026-03-29 07:00:00,METAR RJGG 290700Z 16009KT 9999 FEW030 BKN/// 19/12 Q1016 NOSIG
2026-03-29 06:30:00,METAR RJGG 290630Z 15010KT 9999 FEW030 BKN/// 20/10 Q1015 NOSIG
2026-03-29 06:00:00,METAR RJGG 290600Z 17012KT 9999 FEW030 BKN/// 19/11 Q1015 NOSIG
2026-03-29 05:30:00,METAR RJGG 290530Z 17011KT 9999 FEW030 BKN/// 18/11 Q1016 NOSIG
2026-03-29 05:00:00,METAR RJGG 290500Z 18010KT 9999 FEW030 BKN/// 17/12 Q1016 NOSIG
2026-03-29 04:30:00,METAR RJGG 290430Z 20007KT 9999 FEW030 BKN/// 17/12 Q1016 NOSIG
2026-03-29 04:00:00,METAR RJGG 290400Z 19007KT 9999 FEW030 BKN/// 18/12 Q1016 NOSIG
2026-03-29 03:30:00,METAR RJGG 290330Z 21005KT 9999 FEW030 SCT/// 17/11 Q1016 NOSIG
2026-03-29 03:00:00,METAR RJGG 290300Z 26003KT 9999 FEW030 16/11 Q1016 BECMG TL0400 24005KT
2026-03-29 02:30:00,METAR RJGG 290230Z 27003KT CAVOK 15/10 Q1017 BECMG TL0400 24005KT
2026-03-29 02:00:00,METAR RJGG 290200Z 25004KT CAVOK 15/10 Q1017 NOSIG
2026-03-29 01:30:00,METAR RJGG 290130Z 27004KT CAVOK 15/10 Q1018 BECMG FM0230 24005KT
2026-03-29 01:00:00,METAR RJGG 290100Z 31005KT CAVOK 15/10 Q1018 NOSIG
2026-03-29 00:30:00,METAR RJGG 290030Z 32006KT CAVOK 15/10 Q1018 NOSIG
2026-03-29 00:00:00,METAR RJGG 290000Z 32006KT CAVOK 14/10 Q1018 NOSIG
2026-03-28 23:30:00,METAR RJGG 282330Z 31005KT CAVOK 14/10 Q1018 NOSIG
2026-03-28 23:00:00,METAR RJGG 282300Z 36005KT CAVOK 13/09 Q1017 NOSIG
2026-03-28 22:30:00,METAR RJGG 282230Z 35006KT 9999 FEW005 12/10 Q1017 NOSIG
2026-03-28 22:00:00,METAR RJGG 282200Z 35006KT 9999 FEW005 12/10 Q1017 NOSIG
2026-03-28 21:30:00,METAR RJGG 282130Z 35007KT 9999 FEW005 11/09 Q1016 NOSIG
2026-03-28 21:00:00,METAR RJGG 282100Z 01005KT 9999 FEW005 10/08 Q1016 NOSIG
2026-03-28 20:30:00,METAR RJGG 282030Z AUTO 35005KT 9000 NCD 09/08 Q1016 NOSIG
2026-03-28 20:00:00,METAR RJGG 282000Z AUTO 35005KT 9999 NCD 11/08 Q1016 NOSIG
2026-03-28 19:30:00,METAR RJGG 281930Z AUTO 36004KT 9999 NCD 10/07 Q1015 NOSIG
2026-03-28 19:00:00,METAR RJGG 281900Z AUTO 01003KT 9999 NCD 11/08 Q1015 NOSIG
2026-03-28 18:30:00,METAR RJGG 281830Z AUTO 36003KT 9999 NCD 11/09 Q1015 NOSIG
2026-03-28 18:00:00,METAR RJGG 281800Z AUTO VRB01KT 9999 NCD 12/09 Q1015 NOSIG
2026-03-28 17:30:00,METAR RJGG 281730Z AUTO VRB01KT 9999 NCD 12/09 Q1015 NOSIG
2026-03-28 17:00:00,METAR RJGG 281700Z AUTO 36003KT 9999 NSC 12/10 Q1015 NOSIG
2026-03-28 16:30:00,METAR RJGG 281630Z AUTO 35004KT 9999 NSC 12/10 Q1015 NOSIG
2026-03-28 16:00:00,METAR RJGG 281600Z AUTO VRB02KT 9000 NSC 12/11 Q1015 BECMG 36005KT
2026-03-28 15:30:00,METAR RJGG 281530Z AUTO 04002KT 7000 NSC 13/11 Q1015 NOSIG
2026-03-28 15:00:00,METAR RJGG 281500Z AUTO 07005KT 8000 NCD 14/12 Q1015 NOSIG
2026-03-28 14:30:00,METAR RJGG 281430Z AUTO 08003KT 020V100 7000 NCD 14/12 Q1015 NOSIG
2026-03-28 14:00:00,METAR RJGG 281400Z AUTO 32003KT 8000 NCD 13/12 Q1015 NOSIG
2026-03-28 13:30:00,METAR RJGG 281330Z 12003KT 090V160 CAVOK 14/12 Q1015 BECMG 07005KT
2026-03-28 13:00:00,METAR RJGG 281300Z 15006KT CAVOK 12/11 Q1015 BECMG 07005KT
2026-03-28 12:30:00,METAR RJGG 281230Z 12005KT CAVOK 14/12 Q1014 NOSIG
2026-03-28 12:00:00,METAR RJGG 281200Z 12008KT CAVOK 15/12 Q1014 NOSIG
2026-03-28 11:30:00,METAR RJGG 281130Z 12009KT CAVOK 15/12 Q1014 NOSIG
2026-03-28 11:00:00,METAR RJGG 281100Z 12011KT CAVOK 15/12 Q1014 NOSIG
2026-03-28 10:30:00,METAR RJGG 281030Z 11010KT CAVOK 15/12 Q1013 NOSIG
2026-03-28 10:00:00,METAR RJGG 281000Z 10009KT CAVOK 15/12 Q1013 NOSIG
2026-03-28 09:30:00,METAR RJGG 280930Z 10008KT CAVOK 16/12 Q1013 NOSIG
2026-03-28 09:00:00,METAR RJGG 280900Z 11006KT CAVOK 16/12 Q1013 NOSIG
2026-03-28 08:30:00,METAR RJGG 280830Z 11007KT CAVOK 17/11 Q1012 NOSIG
2026-03-28 08:00:00,METAR RJGG 280800Z 14008KT CAVOK 18/11 Q1012 NOSIG
2026-03-28 07:30:00,METAR RJGG 280730Z 14008KT CAVOK 18/09 Q1012 NOSIG
2026-03-28 07:00:00,METAR RJGG 280700Z 14009KT CAVOK 18/09 Q1012 NOSIG
2026-03-28 06:30:00,METAR RJGG 280630Z 16008KT CAVOK 18/08 Q1012 NOSIG
2026-03-28 06:00:00,METAR RJGG 280600Z 17012KT CAVOK 17/10 Q1012 NOSIG
2026-03-28 05:30:00,METAR RJGG 280530Z 17011KT CAVOK 17/12 Q1012 NOSIG
2026-03-28 05:00:00,METAR RJGG 280500Z 20008KT CAVOK 15/11 Q1013 NOSIG
2026-03-28 04:30:00,METAR RJGG 280430Z 20007KT 9999 FEW030 BKN/// 15/10 Q1013 NOSIG
2026-03-28 04:00:00,METAR RJGG 280400Z 21006KT CAVOK 15/11 Q1014 NOSIG
2026-03-28 03:30:00,METAR RJGG 280330Z 21006KT 9999 FEW030 15/10 Q1014 NOSIG
2026-03-28 03:00:00,METAR RJGG 280300Z 24005KT CAVOK 15/10 Q1014 NOSIG
2026-03-28 02:30:00,METAR RJGG 280230Z 26003KT CAVOK 14/09 Q1014 NOSIG
2026-03-28 02:00:00,METAR RJGG 280200Z 30004KT CAVOK 14/09 Q1015 NOSIG
2026-03-28 01:30:00,METAR RJGG 280130Z 31006KT CAVOK 14/10 Q1015 BECMG FM0230 25004KT
2026-03-28 01:00:00,METAR RJGG 280100Z 32006KT CAVOK 14/09 Q1015 BECMG FM0230 25004KT
2026-03-28 00:30:00,METAR RJGG 280030Z 32007KT 9999 FEW020 13/09 Q1015 NOSIG
2026-03-28 00:00:00,METAR RJGG 280000Z 33006KT 9999 FEW010 13/09 Q1015 NOSIG
2026-03-27 23:30:00,METAR RJGG 272330Z 35004KT 320V020 9999 FEW010 12/08 Q1015 NOSIG
2026-03-27 23:00:00,METAR RJGG 272300Z 35006KT 9999 FEW010 11/08 Q1015 NOSIG
2026-03-27 22:30:00,METAR RJGG 272230Z 36007KT 9999 FEW010 11/08 Q1015 NOSIG
2026-03-27 22:00:00,METAR RJGG 272200Z 35005KT 8000 FEW005 SCT012 10/08 Q1015 NOSIG
2026-03-27 21:30:00,METAR RJGG 272130Z 01004KT 8000 FEW005 BKN012 10/08 Q1015 BECMG FEW005 SCT012
2026-03-27 21:00:00,METAR RJGG 272100Z 36003KT 8000 FEW005 BKN010 09/07 Q1014 BECMG FEW005 SCT012
2026-03-27 20:30:00,METAR RJGG 272030Z AUTO 35004KT 9999 SCT011 09/07 Q1014 NOSIG
2026-03-27 20:00:00,METAR RJGG 272000Z AUTO 02004KT 9999 FEW010 09/07 Q1014 NOSIG
2026-03-27 19:30:00,METAR RJGG 271930Z AUTO 36004KT 9999 BKN008 10/08 Q1014 BECMG FEW003 SCT008
2026-03-27 19:00:00,METAR RJGG 271900Z AUTO 02004KT 9999 BKN007 10/09 Q1013 BECMG FEW005 BKN020
2026-03-27 18:30:00,METAR RJGG 271830Z AUTO 35003KT 9000 FEW008 10/09 Q1013 NOSIG
2026-03-27 18:00:00,METAR RJGG 271800Z AUTO 10002KT 9999 NCD 10/10 Q1013 BECMG 01005KT
2026-03-27 17:30:00,METAR RJGG 271730Z AUTO 16005KT 9999 NCD 10/10 Q1013 BECMG 01005KT
2026-03-27 17:00:00,METAR RJGG 271700Z AUTO 14005KT 9999 NCD 10/09 Q1013 BECMG 01005KT
2026-03-27 16:30:00,METAR RJGG 271630Z AUTO 15006KT 9999 NCD 11/09 Q1013 BECMG 01005KT
2026-03-27 16:00:00,METAR RJGG 271600Z AUTO 13006KT 9999 NCD 11/10 Q1013 BECMG 01005KT
2026-03-25 15:00:00,METAR RJGG 251500Z AUTO 08009KT 050V120 9999 -RA FEW012 BKN015 BKN017 12/10 Q1010 BECMG 07008KT TEMPO 4000 -RA BR FEW005 BKN012
2026-03-25 14:30:00,METAR RJGG 251430Z AUTO 11014KT 8000 RA FEW010 SCT024 OVC060 12/10 Q1010 TEMPO 4000 RA BR FEW005 BKN008
2026-03-25 14:00:00,METAR RJGG 251400Z AUTO 10014KT 9999 -RA BKN012 BKN020 BKN050 12/11 Q1011 TEMPO 4000 RA BR FEW005 BKN008
2026-03-25 13:30:00,METAR RJGG 251330Z 10016KT 9999 RA FEW007 BKN011 BKN015 12/11 Q1010 TEMPO 4000 RA BR FEW005 BKN008
2026-03-25 13:00:00,METAR RJGG 251300Z 10017KT 7000 RA FEW007 BKN009 BKN011 12/11 Q1011 TEMPO 4000 RA BR
2026-03-25 12:30:00,METAR RJGG 251230Z 11017KT 8000 RA FEW007 BKN009 BKN011 12/11 Q1011 TEMPO 4000 RA BR
2026-03-25 12:00:00,METAR RJGG 251200Z 09015KT 8000 RA FEW007 BKN009 BKN011 12/11 Q1011 TEMPO 4000 RA BR
2026-03-25 11:30:00,METAR RJGG 251130Z 07011KT 9999 RA FEW010 BKN014 BKN020 12/11 Q1011 BECMG 08010KT TEMPO 4000 RA BR
2026-03-25 11:00:00,METAR RJGG 251100Z 05009KT 9999 RA FEW010 BKN014 BKN020 12/11 Q1011 TEMPO 4000 RA BR BECMG 08010KT
2026-03-25 10:30:00,METAR RJGG 251030Z 05010KT 8000 RA FEW008 BKN014 BKN020 12/11 Q1011 TEMPO 4000 RA BR BECMG 08010KT
2026-03-25 10:00:00,METAR RJGG 251000Z 04008KT 8000 RA FEW007 BKN012 BKN020 12/11 Q1011 TEMPO 4000 RA BR BECMG 08010KT
2026-03-25 09:30:00,METAR RJGG 250930Z 05008KT 8000 RA FEW005 BKN012 BKN020 12/11 Q1011 TEMPO 4000 RA BR FEW003 BKN008 BECMG 08010KT
2026-03-25 09:00:00,METAR RJGG 250900Z 03011KT 5000 RA BR FEW005 SCT009 BKN015 12/11 Q1011 TEMPO 3500 RA BR FEW003 BKN008
2026-03-25 08:30:00,METAR RJGG 250830Z 01012KT 3000 RA BR FEW003 BKN006 BKN020 12/11 Q1011 NOSIG
2026-03-25 08:00:00,METAR RJGG 250800Z 36013KT 2500 -RA BR FEW003 BKN005 BKN020 11/11 Q1011 BECMG FEW003 BKN008 TEMPO RA BR
2026-03-25 07:30:00,METAR RJGG 250730Z 36012KT 2500 RA BR FEW004 SCT006 BKN020 11/11 Q1012 TEMPO FEW003 BKN008
2026-03-25 07:00:00,METAR RJGG 250700Z 01009KT 2500 RA BR FEW005 SCT007 BKN010 11/11 Q1012 TEMPO FEW003 BKN008
2026-03-25 06:30:00,METAR RJGG 250630Z 36010KT 3000 RA BR FEW005 SCT008 BKN010 11/10 Q1013 TEMPO FEW003 BKN008
2026-03-25 06:00:00,METAR RJGG 250600Z 01007KT 4000 RA BR FEW008 BKN010 BKN060 11/10 Q1013 TEMPO 3000 RA BR FEW003 BKN008
2026-03-25 05:30:00,METAR RJGG 250530Z 02007KT 4500 RA BR FEW007 BKN010 BKN060 11/10 Q1013 TEMPO 3000 RA BR FEW003 BKN008
2026-03-25 05:00:00,METAR RJGG 250500Z 36007KT 4500 RA BR FEW010 SCT015 BKN050 11/10 Q1014 TEMPO 3000 RA BR
2026-03-25 04:30:00,METAR RJGG 250430Z 34003KT 3500 RA BR FEW010 SCT015 BKN025 11/10 Q1014 TEMPO 3000 RA BR
2026-03-25 04:00:00,METAR RJGG 250400Z 27004KT 250V310 3500 RA BR FEW015 BKN025 12/10 Q1015 TEMPO 3000 RA BR
2026-03-25 03:30:00,METAR RJGG 250330Z 34005KT 8000 -RA FEW020 BKN025 BKN060 12/10 Q1015 TEMPO FM0430 4000 RA BR
2026-03-25 03:00:00,METAR RJGG 250300Z 32006KT 9999 VCSH FEW020 BKN025 13/09 Q1015 NOSIG
2026-03-25 02:30:00,METAR RJGG 250230Z 33006KT 9000 FEW020 BKN025 13/09 Q1016 NOSIG
2026-03-25 02:00:00,METAR RJGG 250200Z 34006KT 9000 FEW020 BKN030 OVC140 13/10 Q1017 NOSIG
2026-03-25 01:30:00,METAR RJGG 250130Z 34006KT 9000 FEW020 BKN030 OVC140 14/08 Q1017 NOSIG
2026-03-25 01:00:00,METAR RJGG 250100Z 36007KT 9000 VCSH FEW020 BKN030 OVC150 14/08 Q1017 NOSIG
2026-03-25 00:30:00,METAR RJGG 250030Z 01006KT 9999 FEW020 BKN030 OVC150 13/08 Q1017 NOSIG
2026-03-25 00:00:00,METAR RJGG 250000Z 34005KT 9999 FEW020 BKN030 OVC160 13/09 Q1017 NOSIG
2026-03-24 23:30:00,METAR RJGG 242330Z 35006KT 9999 FEW020 BKN030 12/08 Q1017 NOSIG
2026-03-24 23:00:00,METAR RJGG 242300Z 35006KT 310V010 9999 FEW020 BKN030 12/08 Q1017 NOSIG
2026-03-24 22:30:00,METAR RJGG 242230Z 34007KT 9999 FEW020 BKN030 11/09 Q1017 NOSIG
2026-03-24 22:00:00,METAR RJGG 242200Z 34006KT 320V020 9999 FEW020 BKN030 BKN140 12/09 Q1017 NOSIG
2026-03-24 21:30:00,METAR RJGG 242130Z 35005KT 9000 FEW020 BKN030 11/09 Q1017 NOSIG
2026-03-24 21:00:00,METAR RJGG 242100Z 34003KT 9999 FEW020 BKN030 BKN140 10/08 Q1017 NOSIG
2026-03-24 20:30:00,METAR RJGG 242030Z AUTO 36005KT 9999 BKN030 10/08 Q1016 BECMG 08004KT
2026-03-24 20:00:00,METAR RJGG 242000Z AUTO 01005KT 9999 FEW031 BKN170 10/09 Q1017 NOSIG
2026-03-24 19:30:00,METAR RJGG 241930Z AUTO 35004KT 9000 BKN031 BKN040 BKN150 09/08 Q1017 NOSIG
2026-03-24 19:00:00,METAR RJGG 241900Z AUTO 36005KT 9999 SCT031 BKN036 BKN150 11/07 Q1017 NOSIG
2026-03-24 18:30:00,METAR RJGG 241830Z AUTO 36004KT 9999 BKN032 11/07 Q1017 NOSIG
2026-03-24 18:00:00,METAR RJGG 241800Z AUTO 35004KT 9999 FEW032 SCT033 BKN040 10/07 Q1017 NOSIG
2026-03-24 17:30:00,METAR RJGG 241730Z AUTO VRB02KT 9999 SCT033 BKN036 11/07 Q1018 NOSIG
2026-03-24 17:00:00,METAR RJGG 241700Z AUTO 36003KT 330V070 9999 BKN033 12/08 Q1018 NOSIG
2026-03-24 16:30:00,METAR RJGG 241630Z AUTO VRB02KT 9999 FEW033 SCT037 BKN050 11/09 Q1018 NOSIG
2026-03-24 16:00:00,METAR RJGG 241600Z AUTO VRB02KT 9999 FEW033 SCT035 BKN043 11/09 Q1019 NOSIG
2026-03-24 15:30:00,METAR RJGG 241530Z AUTO VRB01KT 9999 SCT033 BKN170 BKN180 12/07 Q1018 NOSIG
2026-03-24 15:00:00,METAR RJGG 241500Z AUTO 09004KT 9999 FEW031 SCT170 BKN180 12/08 Q1018 NOSIG
2026-03-24 14:30:00,METAR RJGG 241430Z AUTO 13004KT 9999 FEW034 SCT170 OVC180 12/08 Q1018 NOSIG
2026-03-24 14:00:00,METAR RJGG 241400Z AUTO 12006KT 9999 NSC 12/08 Q1018 NOSIG
2026-03-24 13:30:00,METAR RJGG 241330Z 10005KT 9999 FEW030 SCT180 BKN/// 12/08 Q1018 NOSIG
2026-03-24 13:00:00,METAR RJGG 241300Z 12005KT 9999 FEW030 BKN180 BKN/// 12/08 Q1019 NOSIG
2026-03-24 12:30:00,METAR RJGG 241230Z 13005KT 9999 FEW030 BKN180 12/07 Q1019 NOSIG
2026-03-24 12:00:00,METAR RJGG 241200Z 14005KT 9999 FEW030 BKN170 13/08 Q1018 NOSIG
2026-03-24 11:30:00,METAR RJGG 241130Z 13006KT 9999 FEW030 BKN170 13/08 Q1018 NOSIG
2026-03-24 11:00:00,METAR RJGG 241100Z 13006KT 9999 FEW030 SCT180 BKN/// 13/08 Q1018 NOSIG
2026-03-24 10:30:00,METAR RJGG 241030Z 14007KT 9999 FEW030 SCT180 BKN/// 13/07 Q1018 NOSIG
2026-03-24 10:00:00,METAR RJGG 241000Z 14008KT 9999 FEW030 SCT180 BKN/// 13/07 Q1018 NOSIG
2026-03-24 09:30:00,METAR RJGG 240930Z 14010KT 9999 FEW030 SCT180 BKN/// 14/07 Q1017 NOSIG
2026-03-24 09:00:00,METAR RJGG 240900Z 14013KT 9999 FEW030 BKN/// 14/09 Q1017 NOSIG
2026-03-24 08:30:00,METAR RJGG 240830Z 14013KT 9999 FEW030 BKN/// 15/08 Q1017 NOSIG
2026-03-24 08:00:00,METAR RJGG 240800Z 14015KT 9999 FEW030 BKN/// 15/08 Q1016 NOSIG
2026-03-24 07:30:00,METAR RJGG 240730Z 15012KT 9999 FEW030 BKN/// 16/07 Q1016 NOSIG
2026-03-24 07:00:00,METAR RJGG 240700Z 17011KT 9999 FEW030 BKN/// 16/07 Q1017 NOSIG
2026-03-24 06:30:00,METAR RJGG 240630Z 17010KT 9999 FEW030 BKN/// 16/06 Q1017 NOSIG
2026-03-24 06:00:00,METAR RJGG 240600Z 17010KT 9999 FEW030 BKN/// 17/03 Q1016 NOSIG
2026-03-24 05:30:00,METAR RJGG 240530Z 22005KT 9999 FEW030 BKN/// 17/06 Q1016 NOSIG
2026-03-24 05:00:00,METAR RJGG 240500Z 30004KT 9999 FEW030 BKN/// 16/02 Q1016 BECMG FM0530 25005KT
2026-03-24 04:30:00,METAR RJGG 240430Z 28003KT 240V310 9999 FEW030 BKN/// 16/01 Q1017 BECMG FM0530 25005KT
2026-03-24 04:00:00,METAR RJGG 240400Z 30004KT 9999 FEW030 BKN/// 16/01 Q1017 BECMG FM0530 25005KT
2026-03-24 03:30:00,METAR RJGG 240330Z 28003KT 9999 FEW030 BKN/// 15/03 Q1017 NOSIG
2026-03-24 03:00:00,METAR RJGG 240300Z 33004KT 9999 FEW030 BKN/// 15/M01 Q1018 NOSIG
2026-03-24 02:30:00,METAR RJGG 240230Z 31003KT 9999 FEW030 BKN/// 14/02 Q1018 NOSIG
2026-03-24 02:00:00,METAR RJGG 240200Z 30003KT 9999 FEW030 BKN/// 12/02 Q1018 NOSIG
2026-03-24 01:30:00,METAR RJGG 240130Z 27005KT 9999 FEW030 12/03 Q1019 NOSIG
2026-03-24 01:00:00,METAR RJGG 240100Z 28006KT 9999 FEW030 12/03 Q1019 NOSIG
2026-03-24 00:30:00,METAR RJGG 240030Z 29007KT 9999 FEW030 12/04 Q1019 NOSIG
2026-03-24 00:00:00,METAR RJGG 240000Z 30007KT 9999 FEW030 12/03 Q1018 NOSIG
2026-03-23 23:30:00,METAR RJGG 232330Z 31008KT 9999 FEW030 11/04 Q1018 NOSIG
2026-03-23 23:00:00,METAR RJGG 232300Z 35012KT 9999 FEW030 11/02 Q1018 NOSIG
2026-03-23 22:30:00,METAR RJGG 232230Z 34011KT 9999 FEW030 11/01 Q1018 NOSIG
2026-03-23 22:00:00,METAR RJGG 232200Z 30013KT 9999 FEW030 10/04 Q1018 NOSIG
2026-03-23 21:30:00,METAR RJGG 232130Z 31016KT CAVOK 10/04 Q1017 NOSIG
2026-03-23 21:00:00,METAR RJGG 232100Z 31019KT 9999 FEW030 10/04 Q1017 NOSIG
2026-03-23 20:30:00,METAR RJGG 232030Z AUTO 31018KT 9999 NCD 10/04 Q1017 NOSIG
2026-03-23 20:00:00,METAR RJGG 232000Z AUTO 31019KT 9999 NCD 10/05 Q1017 NOSIG
2026-03-23 19:30:00,METAR RJGG 231930Z AUTO 30016KT 9999 NCD 10/05 Q1017 NOSIG
2026-03-23 19:00:00,METAR RJGG 231900Z AUTO 30016KT 9999 NCD 10/05 Q1017 NOSIG
2026-03-23 18:30:00,METAR RJGG 231830Z AUTO 29015KT 9999 NCD 10/06 Q1017 NOSIG
2026-03-23 18:00:00,METAR RJGG 231800Z AUTO 31017KT 9999 NCD 10/06 Q1016 NOSIG
2026-03-23 17:30:00,METAR RJGG 231730Z AUTO 31017KT 9999 NCD 11/06 Q1017 NOSIG
2026-03-23 17:00:00,METAR RJGG 231700Z AUTO 31020KT 9999 NCD 11/06 Q1017 NOSIG
2026-03-23 16:30:00,METAR RJGG 231630Z AUTO 31018KT 9999 NCD 11/05 Q1017 NOSIG
2026-03-23 16:00:00,METAR RJGG 231600Z AUTO 33014KT 9999 NCD 11/05 Q1017 NOSIG
2026-03-23 15:30:00,METAR RJGG 231530Z AUTO 33019KT 9999 NCD 11/05 Q1016 NOSIG
2026-03-23 15:00:00,METAR RJGG 231500Z AUTO 33019KT 9999 NCD 11/05 Q1017 NOSIG
2026-03-23 14:30:00,METAR RJGG 231430Z AUTO 32022KT 9999 NCD 11/04 Q1017 NOSIG
2026-03-23 14:00:00,METAR RJGG 231400Z AUTO 32023KT 9999 NCD 12/05 Q1016 NOSIG
2026-03-23 13:30:00,METAR RJGG 231330Z 32021KT 9999 FEW030 11/05 Q1017 NOSIG
2026-03-23 13:00:00,METAR RJGG 231300Z 32022KT 9999 FEW030 12/06 Q1016 NOSIG
2026-03-23 12:30:00,METAR RJGG 231230Z 32022KT 9999 FEW030 12/05 Q1016 NOSIG
2026-03-23 12:00:00,METAR RJGG 231200Z 32021KT 9999 FEW030 12/05 Q1016 NOSIG
2026-03-23 11:30:00,METAR RJGG 231130Z 32022KT 9999 FEW030 12/05 Q1015 NOSIG
2026-03-23 11:00:00,METAR RJGG 231100Z 31019KT 9999 FEW030 SCT/// 13/05 Q1015 NOSIG
2026-03-23 10:30:00,METAR RJGG 231030Z 31021KT 9999 FEW030 BKN/// 13/07 Q1015 NOSIG
2026-03-23 10:00:00,METAR RJGG 231000Z 31024KT 9999 FEW030 BKN/// 13/07 Q1014 NOSIG
2026-03-23 09:30:00,METAR RJGG 230930Z 31023KT 9999 FEW030 BKN/// 14/07 Q1014 NOSIG
2026-03-23 09:00:00,METAR RJGG 230900Z 31022KT 9999 FEW030 BKN/// 14/07 Q1013 NOSIG
2026-03-23 08:30:00,METAR RJGG 230830Z 31023KT 9999 FEW030 BKN/// 14/08 Q1013 NOSIG
2026-03-23 08:00:00,METAR RJGG 230800Z 31021KT 9999 FEW030 BKN/// 15/08 Q1013 NOSIG
2026-03-23 07:30:00,METAR RJGG 230730Z 31021KT 9999 FEW030 SCT/// 15/08 Q1013 NOSIG
2026-03-23 07:00:00,METAR RJGG 230700Z 31017KT 9999 FEW030 15/09 Q1013 NOSIG
2026-03-23 06:30:00,METAR RJGG 230630Z 27006KT 9999 FEW030 16/09 Q1013 NOSIG
2026-03-23 06:00:00,METAR RJGG 230600Z 26007KT 9999 FEW030 14/08 Q1013 NOSIG
2026-03-23 05:30:00,METAR RJGG 230530Z 25006KT 9999 FEW030 14/09 Q1013 BECMG TL0700 31008KT
2026-03-23 05:00:00,METAR RJGG 230500Z 26005KT 9999 FEW030 14/09 Q1013 NOSIG
2026-03-23 04:30:00,METAR RJGG 230430Z 27004KT 9999 -SHRA FEW020 SCT040 14/09 Q1014 NOSIG
2026-03-23 04:00:00,METAR RJGG 230400Z 26005KT 9999 FEW030 14/09 Q1014 BECMG 25004KT
2026-03-23 03:30:00,METAR RJGG 230330Z 27005KT 9999 FEW030 14/08 Q1015 BECMG TL0430 25004KT
2026-03-23 03:00:00,METAR RJGG 230300Z 27005KT 9999 FEW030 14/08 Q1015 BECMG TL0400 25004KT
2026-03-23 02:30:00,METAR RJGG 230230Z 31005KT 9999 FEW030 14/08 Q1016 NOSIG
2026-03-23 02:00:00,METAR RJGG 230200Z 32007KT 9999 FEW030 14/08 Q1016 NOSIG
2026-03-23 01:30:00,METAR RJGG 230130Z 33007KT 9999 FEW020 SCT070 13/07 Q1016 NOSIG
2026-03-23 01:00:00,METAR RJGG 230100Z 33009KT 9999 FEW020 SCT070 13/08 Q1017 NOSIG
2026-03-23 00:30:00,METAR RJGG 230030Z 33007KT 9999 FEW020 SCT060 BKN070 11/08 Q1017 NOSIG
2026-03-23 00:00:00,METAR RJGG 230000Z 34009KT 9999 FEW020 BKN060 11/07 Q1017 NOSIG
2026-03-22 23:30:00,METAR RJGG 222330Z 34011KT 9999 FEW020 BKN060 BKN070 10/07 Q1017 NOSIG
2026-03-22 23:00:00,METAR RJGG 222300Z 34009KT 9999 FEW015 BKN070 10/07 Q1017 NOSIG
2026-03-22 22:30:00,METAR RJGG 222230Z 35008KT 9999 FEW015 SCT070 BKN110 10/07 Q1017 NOSIG
2026-03-22 22:00:00,METAR RJGG 222200Z 35008KT 9999 VCSH FEW004 BKN070 09/07 Q1017 NOSIG
2026-03-22 21:30:00,METAR RJGG 222130Z 35007KT 9000 -RA FEW004 BKN070 OVC120 09/07 Q1017 NOSIG
2026-03-22 21:00:00,METAR RJGG 222100Z 33005KT 7000 -RA FEW003 SCT070 OVC120 10/09 Q1017 NOSIG
2026-03-22 20:30:00,METAR RJGG 222030Z AUTO 32003KT 6000 -RA FEW005 BKN070 OVC090 10/09 Q1017 NOSIG
2026-03-22 20:00:00,METAR RJGG 222000Z AUTO 31002KT 6000 -RA NSC 10/08 Q1017 NOSIG
2026-03-22 19:30:00,METAR RJGG 221930Z AUTO VRB01KT 6000 -RA NSC 10/08 Q1017 NOSIG
2026-03-22 19:00:00,METAR RJGG 221900Z AUTO 14001KT 8000 -RA FEW048 BKN050 BKN060 10/08 Q1018 NOSIG
2026-03-22 18:30:00,METAR RJGG 221830Z AUTO 20004KT 5000 -RA BR FEW007 BKN050 OVC060 10/09 Q1018 BECMG 36005KT
2026-03-22 18:00:00,METAR RJGG 221800Z AUTO VRB02KT 9000 -RA OVC050 10/08 Q1018 BECMG 06005KT
2026-03-22 17:30:00,METAR RJGG 221730Z AUTO 09006KT 8000 -RA BKN050 OVC060 10/08 Q1019 BECMG 06006KT
2026-03-22 17:00:00,METAR RJGG 221700Z AUTO 05003KT 9999 -RA SCT050 BKN060 OVC070 10/08 Q1019 NOSIG
2026-03-22 16:30:00,METAR RJGG 221630Z AUTO 31004KT 9999 -RA OVC050 10/08 Q1020 NOSIG
2026-03-22 16:00:00,METAR RJGG 221600Z AUTO 33003KT 9999 -RA SCT050 OVC060 10/08 Q1020 NOSIG
2026-03-22 15:30:00,METAR RJGG 221530Z AUTO 34008KT 9999 -RA BKN050 OVC070 10/08 Q1020 NOSIG
2026-03-22 15:00:00,METAR RJGG 221500Z AUTO 31007KT 9999 -RA FEW050 BKN060 BKN070 11/08 Q1020 NOSIG
2026-03-22 14:30:00,METAR RJGG 221430Z AUTO 32005KT 9999 -RA NSC 11/07 Q1020 NOSIG
2026-03-22 14:00:00,METAR RJGG 221400Z AUTO 29006KT 9999 NSC 11/08 Q1020 NOSIG
2026-03-22 13:30:00,METAR RJGG 221330Z 24004KT 9999 VCSH FEW030 BKN090 11/08 Q1020 BECMG 34005KT
2026-03-22 13:00:00,METAR RJGG 221300Z 21004KT 9999 VCSH FEW030 BKN090 11/09 Q1020 NOSIG
2026-03-22 12:30:00,METAR RJGG 221230Z 23002KT 9999 FEW030 BKN110 11/08 Q1020 NOSIG
2026-03-22 12:00:00,METAR RJGG 221200Z VRB01KT 9999 FEW030 BKN120 12/08 Q1021 BECMG 34006KT
2026-03-22 11:30:00,METAR RJGG 221130Z 14002KT 9999 FEW030 BKN120 12/07 Q1021 NOSIG
2026-03-22 11:00:00,METAR RJGG 221100Z 13004KT 9999 FEW030 SCT100 BKN130 12/07 Q1021 NOSIG
2026-03-22 10:30:00,METAR RJGG 221030Z 13007KT 9999 FEW030 BKN100 12/07 Q1021 NOSIG
2026-03-22 10:00:00,METAR RJGG 221000Z 13006KT 9999 FEW030 BKN100 BKN130 12/07 Q1021 NOSIG
2026-03-22 09:30:00,METAR RJGG 220930Z 13006KT 9999 FEW030 BKN120 12/06 Q1020 NOSIG
2026-03-22 09:00:00,METAR RJGG 220900Z 12007KT 9999 FEW030 BKN130 13/06 Q1020 NOSIG
2026-03-22 08:30:00,METAR RJGG 220830Z 12008KT 9999 FEW030 BKN130 OVC170 13/05 Q1020 NOSIG
2026-03-22 08:00:00,METAR RJGG 220800Z 12007KT 9999 FEW030 BKN140 OVC170 13/05 Q1020 NOSIG
2026-03-22 07:30:00,METAR RJGG 220730Z 12007KT 9999 FEW030 BKN140 13/05 Q1020 NOSIG
2026-03-22 07:00:00,METAR RJGG 220700Z 11009KT 9999 FEW030 BKN140 13/04 Q1020 NOSIG
2026-03-22 06:30:00,METAR RJGG 220630Z 09004KT 9999 FEW030 SCT120 BKN140 13/02 Q1021 NOSIG
2026-03-22 06:00:00,METAR RJGG 220600Z VRB02KT CAVOK 11/03 Q1021 BECMG 15005KT
2026-03-22 05:30:00,METAR RJGG 220530Z 22004KT 160V250 CAVOK 12/03 Q1021 NOSIG
2026-03-22 05:00:00,METAR RJGG 220500Z VRB02KT CAVOK 12/M00 Q1021 BECMG 17007KT
2026-03-22 04:30:00,METAR RJGG 220430Z 30003KT CAVOK 11/00 Q1022 BECMG 22005KT
2026-03-22 04:00:00,METAR RJGG 220400Z 31005KT CAVOK 11/01 Q1022 BECMG 22005KT
2026-03-22 03:30:00,METAR RJGG 220330Z 30004KT CAVOK 11/M00 Q1023 BECMG 22005KT
2026-03-22 03:00:00,METAR RJGG 220300Z 31004KT CAVOK 11/M01 Q1023 BECMG 22005KT
2026-03-22 02:30:00,METAR RJGG 220230Z 30004KT CAVOK 11/M01 Q1023 BECMG 22005KT
2026-03-22 02:00:00,METAR RJGG 220200Z 28006KT CAVOK 11/01 Q1024 BECMG 22005KT
2026-03-22 01:30:00,METAR RJGG 220130Z 29004KT CAVOK 10/M00 Q1024 BECMG 22005KT
2026-03-22 01:00:00,METAR RJGG 220100Z 30004KT CAVOK 10/M01 Q1024 BECMG 22005KT
2026-03-22 00:30:00,METAR RJGG 220030Z 32005KT CAVOK 10/M05 Q1024 BECMG 22005KT
2026-03-22 00:00:00,METAR RJGG 220000Z 33006KT CAVOK 09/M01 Q1025 NOSIG
2026-03-21 23:30:00,METAR RJGG 212330Z 35006KT 9999 FEW030 BKN/// 08/M03 Q1025 NOSIG
2026-03-21 23:00:00,METAR RJGG 212300Z 35005KT 310V020 9999 FEW030 07/M00 Q1025 NOSIG
2026-03-21 22:30:00,METAR RJGG 212230Z 36006KT 9999 FEW030 07/00 Q1024 NOSIG
2026-03-21 22:00:00,METAR RJGG 212200Z 36006KT 9999 FEW030 06/M00 Q1024 NOSIG
2026-03-21 21:30:00,METAR RJGG 212130Z 01006KT 9999 FEW030 05/M01 Q1024 NOSIG
2026-03-21 21:00:00,METAR RJGG 212100Z 01006KT 9999 FEW030 04/M01 Q1024 NOSIG
2026-03-21 20:30:00,METAR RJGG 212030Z AUTO 36007KT 9999 NCD 03/M01 Q1024 NOSIG
2026-03-21 20:00:00,METAR RJGG 212000Z AUTO 01004KT 9999 NCD 05/00 Q1023 NOSIG
2026-03-21 19:30:00,METAR RJGG 211930Z AUTO 36005KT 9999 NCD 05/00 Q1023 NOSIG
2026-03-21 19:00:00,METAR RJGG 211900Z AUTO 35005KT 9999 NCD 05/M01 Q1023 NOSIG
2026-03-21 18:30:00,METAR RJGG 211830Z AUTO 36003KT 9999 NCD 05/M02 Q1023 NOSIG
2026-03-21 18:00:00,METAR RJGG 211800Z AUTO 02004KT 9999 NCD 05/M02 Q1022 NOSIG
2026-03-21 17:30:00,METAR RJGG 211730Z AUTO 01006KT 9999 NCD 05/M02 Q1023 NOSIG
2026-03-21 17:00:00,METAR RJGG 211700Z AUTO 35004KT 9999 NCD 07/M01 Q1023 NOSIG
2026-03-21 16:30:00,METAR RJGG 211630Z AUTO VRB01KT 9999 NCD 07/01 Q1023 NOSIG
2026-03-21 16:00:00,METAR RJGG 211600Z AUTO 13002KT 9999 NCD 08/01 Q1023 NOSIG
2026-03-21 15:30:00,METAR RJGG 211530Z AUTO 01006KT 9999 NCD 07/01 Q1023 NOSIG
2026-03-21 15:00:00,METAR RJGG 211500Z AUTO 33005KT 9999 NCD 09/M01 Q1023 NOSIG
2026-03-21 14:30:00,METAR RJGG 211430Z AUTO 30005KT 9999 NCD 10/M01 Q1023 NOSIG
2026-03-21 14:00:00,METAR RJGG 211400Z AUTO 27003KT 9999 NCD 10/M03 Q1023 NOSIG
2026-03-21 13:30:00,METAR RJGG 211330Z 27007KT 9999 FEW030 10/M01 Q1023 NOSIG
2026-03-21 13:00:00,METAR RJGG 211300Z 26005KT 9999 FEW030 11/00 Q1023 NOSIG
2026-03-21 12:30:00,METAR RJGG 211230Z 28008KT 9999 FEW030 11/02 Q1023 NOSIG
2026-03-21 12:00:00,METAR RJGG 211200Z 29011KT 9999 FEW030 11/M00 Q1023 NOSIG
2026-03-21 11:30:00,METAR RJGG 211130Z 29007KT 9999 FEW030 11/02 Q1023 NOSIG
2026-03-21 11:00:00,METAR RJGG 211100Z 28009KT 9999 FEW030 12/01 Q1023 NOSIG
2026-03-21 10:30:00,METAR RJGG 211030Z 28010KT 9999 FEW030 12/02 Q1023 NOSIG
2026-03-21 10:00:00,METAR RJGG 211000Z 27010KT 9999 FEW030 12/03 Q1022 NOSIG
2026-03-21 09:30:00,METAR RJGG 210930Z 27011KT 9999 FEW030 13/03 Q1022 NOSIG
2026-03-21 09:00:00,METAR RJGG 210900Z 28011KT 9999 FEW030 13/05 Q1022 NOSIG
2026-03-21 08:30:00,METAR RJGG 210830Z 26007KT CAVOK 13/03 Q1021 NOSIG
2026-03-21 08:00:00,METAR RJGG 210800Z 25008KT CAVOK 13/01 Q1021 BECMG TL0830 28008KT
2026-03-21 07:30:00,METAR RJGG 210730Z 23007KT CAVOK 13/01 Q1021 BECMG 28008KT
2026-03-21 07:00:00,METAR RJGG 210700Z 23006KT CAVOK 13/M02 Q1021 BECMG FM0730 28008KT
2026-03-21 06:30:00,METAR RJGG 210630Z 23007KT CAVOK 13/01 Q1021 BECMG FM0730 27008KT
2026-03-21 06:00:00,METAR RJGG 210600Z 23007KT CAVOK 13/M03 Q1021 NOSIG
2026-03-21 05:30:00,METAR RJGG 210530Z 22007KT CAVOK 13/M01 Q1022 NOSIG
2026-03-21 05:00:00,METAR RJGG 210500Z 23005KT CAVOK 13/M00 Q1022 NOSIG
2026-03-21 04:30:00,METAR RJGG 210430Z 24007KT CAVOK 13/M00 Q1022 NOSIG
2026-03-21 04:00:00,METAR RJGG 210400Z 25007KT 210V280 CAVOK 13/M01 Q1022 NOSIG
2026-03-21 03:30:00,METAR RJGG 210330Z 28005KT CAVOK 14/M03 Q1023 NOSIG
2026-03-21 03:00:00,METAR RJGG 210300Z 33011KT CAVOK 14/M01 Q1023 NOSIG
2026-03-21 02:30:00,METAR RJGG 210230Z 34012KT CAVOK 14/M08 Q1023 NOSIG
2026-03-21 02:00:00,METAR RJGG 210200Z 33010KT CAVOK 12/M03 Q1023 NOSIG
2026-03-21 01:30:00,METAR RJGG 210130Z 31010KT CAVOK 11/M03 Q1023 NOSIG
2026-03-21 01:00:00,METAR RJGG 210100Z 32009KT CAVOK 10/M04 Q1024 NOSIG
2026-03-21 00:30:00,METAR RJGG 210030Z 32011KT CAVOK 09/M04 Q1024 NOSIG
2026-03-21 00:00:00,METAR RJGG 210000Z 32012KT CAVOK 08/M05 Q1024 NOSIG
2026-03-20 23:30:00,METAR RJGG 202330Z 33014KT CAVOK 08/M04 Q1023 NOSIG
2026-03-20 23:00:00,METAR RJGG 202300Z 33014KT CAVOK 08/M04 Q1023 NOSIG
2026-03-20 22:30:00,METAR RJGG 202230Z 31017KT CAVOK 07/M03 Q1023 NOSIG
2026-03-20 22:00:00,METAR RJGG 202200Z 31019KT CAVOK 07/M03 Q1023 NOSIG
2026-03-20 21:30:00,METAR RJGG 202130Z 31019KT CAVOK 07/M03 Q1022 NOSIG
2026-03-20 21:00:00,METAR RJGG 202100Z 31022KT 9999 FEW030 07/M03 Q1022 NOSIG
2026-03-20 20:30:00,METAR RJGG 202030Z AUTO 32021KT 9999 NCD 07/M04 Q1022 NOSIG
2026-03-20 20:00:00,METAR RJGG 202000Z AUTO 31021KT 9999 NCD 07/M04 Q1022 NOSIG
2026-03-20 19:30:00,METAR RJGG 201930Z AUTO 31021KT 9999 NCD 07/M04 Q1022 NOSIG
2026-03-20 19:00:00,METAR RJGG 201900Z AUTO 31022KT 9999 NCD 07/M03 Q1021 NOSIG
2026-03-20 18:30:00,METAR RJGG 201830Z AUTO 31022KT 9999 NCD 07/M03 Q1021 NOSIG
2026-03-20 18:00:00,METAR RJGG 201800Z AUTO 31022KT 9999 NCD 07/M03 Q1021 NOSIG
2026-03-20 17:30:00,METAR RJGG 201730Z AUTO 31022KT 9999 NCD 08/M02 Q1021 NOSIG
2026-03-20 17:00:00,METAR RJGG 201700Z AUTO 32025KT 9999 NCD 08/M01 Q1021 NOSIG
2026-03-20 16:30:00,METAR RJGG 201630Z AUTO 32023KT 9999 NCD 09/M01 Q1021 NOSIG
2026-03-20 16:00:00,METAR RJGG 201600Z AUTO 31028KT 9999 NCD 09/01 Q1021 NOSIG
2026-03-20 15:30:00,METAR RJGG 201530Z AUTO 31026KT 9999 NCD 10/00 Q1020 NOSIG
2026-03-20 15:00:00,METAR RJGG 201500Z AUTO 32029KT 9999 NSC 10/02 Q1020 NOSIG
2026-03-20 14:30:00,METAR RJGG 201430Z AUTO 32027KT 9999 FEW050 BKN210 OVC220 11/02 Q1019 NOSIG
2026-03-20 14:00:00,METAR RJGG 201400Z AUTO 34023KT 9999 FEW049 BKN050 BKN060 11/03 Q1019 NOSIG
2026-03-20 13:30:00,METAR RJGG 201330Z 36012KT 9999 FEW030 SCT050 BKN/// 11/03 Q1019 NOSIG
2026-03-20 13:00:00,METAR RJGG 201300Z 36014KT 9999 FEW030 SCT/// 11/03 Q1018 NOSIG
2026-03-20 12:30:00,METAR RJGG 201230Z 36015KT 9999 FEW030 SCT/// 11/03 Q1018 NOSIG
2026-03-20 12:00:00,METAR RJGG 201200Z 35015KT 9999 FEW030 11/03 Q1018 NOSIG
2026-03-20 11:30:00,METAR RJGG 201130Z 35013KT 9999 FEW030 11/03 Q1018 NOSIG
2026-03-20 11:00:00,METAR RJGG 201100Z 35020KT 9999 FEW030 11/03 Q1017 NOSIG
2026-03-20 10:30:00,METAR RJGG 201030Z 35017KT 9999 FEW030 11/04 Q1016 NOSIG
2026-03-20 10:00:00,METAR RJGG 201000Z 35016KT 9999 FEW030 11/02 Q1016 NOSIG
2026-03-20 09:30:00,METAR RJGG 200930Z 35017KT 9999 FEW030 11/02 Q1015 NOSIG
2026-03-20 09:00:00,METAR RJGG 200900Z 33015KT 9999 FEW030 12/05 Q1015 NOSIG
2026-03-20 08:30:00,METAR RJGG 200830Z 34011KT 9999 FEW030 13/05 Q1015 NOSIG
2026-03-20 08:00:00,METAR RJGG 200800Z 33015KT 9999 FEW030 14/02 Q1014 NOSIG
2026-03-20 07:30:00,METAR RJGG 200730Z 33018KT 9999 FEW030 14/04 Q1014 NOSIG
2026-03-20 07:00:00,METAR RJGG 200700Z 33011KT 9999 FEW030 15/04 Q1014 NOSIG
2026-03-20 06:30:00,METAR RJGG 200630Z 31004KT 9999 FEW030 BKN/// 16/02 Q1014 BECMG 32014KT
2026-03-20 06:00:00,METAR RJGG 200600Z 30004KT 9999 FEW030 SCT/// 14/01 Q1014 BECMG 32014KT
2026-03-20 05:30:00,METAR RJGG 200530Z 30003KT 9999 FEW030 SCT170 BKN/// 14/02 Q1014 NOSIG
2026-03-20 05:00:00,METAR RJGG 200500Z VRB02KT 9999 FEW030 BKN/// 13/02 Q1014 NOSIG
2026-03-20 04:30:00,METAR RJGG 200430Z 29002KT 9999 FEW030 BKN/// 13/M01 Q1014 NOSIG
2026-03-20 04:00:00,METAR RJGG 200400Z 31003KT 9999 FEW030 BKN/// 12/02 Q1015 NOSIG
2026-03-20 03:30:00,METAR RJGG 200330Z 26004KT 230V290 9999 FEW030 BKN/// 11/02 Q1015 NOSIG
2026-03-20 03:00:00,METAR RJGG 200300Z 26004KT 9999 FEW030 BKN/// 12/03 Q1015 NOSIG
2026-03-20 02:30:00,METAR RJGG 200230Z 26006KT 9999 FEW030 BKN/// 11/01 Q1015 NOSIG
2026-03-20 02:00:00,METAR RJGG 200200Z 28006KT 9999 FEW030 BKN/// 11/02 Q1016 NOSIG
2026-03-20 01:30:00,METAR RJGG 200130Z 29007KT 9999 FEW030 SCT/// 11/03 Q1016 NOSIG
2026-03-20 01:00:00,METAR RJGG 200100Z 29007KT 9999 FEW030 BKN/// 09/01 Q1016 NOSIG
2026-03-20 00:30:00,METAR RJGG 200030Z 32005KT 9999 FEW030 BKN/// 10/00 Q1016 NOSIG
2026-03-20 00:00:00,METAR RJGG 200000Z 32007KT 9999 FEW030 BKN/// 09/02 Q1015 NOSIG
2026-03-19 23:30:00,METAR RJGG 192330Z 32009KT 9999 FEW030 SCT/// 10/02 Q1015 NOSIG
2026-03-19 23:00:00,METAR RJGG 192300Z 32012KT 9999 FEW030 09/02 Q1015 NOSIG
2026-03-19 22:30:00,METAR RJGG 192230Z 33013KT 9999 FEW030 09/01 Q1015 NOSIG
2026-03-19 22:00:00,METAR RJGG 192200Z 31013KT 9999 FEW030 08/02 Q1015 NOSIG
2026-03-19 21:30:00,METAR RJGG 192130Z 31015KT 9999 FEW030 08/02 Q1015 NOSIG
2026-03-19 21:00:00,METAR RJGG 192100Z 31015KT 9999 FEW030 08/02 Q1015 NOSIG
2026-03-19 20:30:00,METAR RJGG 192030Z AUTO 32019KT 9999 NCD 08/02 Q1015 NOSIG
2026-03-19 20:00:00,METAR RJGG 192000Z AUTO 32019KT 9999 NCD 08/02 Q1014 NOSIG
2026-03-19 19:30:00,METAR RJGG 191930Z AUTO 32017KT 9999 NCD 08/02 Q1014 NOSIG
2026-03-19 19:00:00,METAR RJGG 191900Z AUTO 32015KT 9999 NCD 08/02 Q1014 NOSIG
2026-03-19 18:30:00,METAR RJGG 191830Z AUTO 31013KT 9999 NCD 08/02 Q1014 NOSIG
2026-03-19 18:00:00,METAR RJGG 191800Z AUTO 32017KT 9999 NCD 08/02 Q1014 NOSIG
2026-03-19 17:30:00,METAR RJGG 191730Z AUTO 32018KT 9999 NCD 08/02 Q1013 NOSIG
2026-03-19 17:00:00,METAR RJGG 191700Z AUTO 32018KT 9999 NCD 08/02 Q1013 NOSIG
2026-03-19 16:30:00,METAR RJGG 191630Z AUTO 32020KT 9999 NCD 08/02 Q1013 NOSIG
2026-03-19 16:00:00,METAR RJGG 191600Z AUTO 32019KT 9999 NCD 09/02 Q1013 NOSIG
2026-03-19 15:30:00,METAR RJGG 191530Z AUTO 31019KT 9999 NCD 09/03 Q1014 NOSIG
2026-03-19 15:00:00,METAR RJGG 191500Z AUTO 30019KT 9999 NCD 09/03 Q1013 NOSIG
2026-03-19 14:30:00,METAR RJGG 191430Z AUTO 30020KT 9999 NCD 09/03 Q1013 NOSIG
2026-03-19 14:00:00,METAR RJGG 191400Z AUTO 30018KT 9999 NCD 09/04 Q1013 NOSIG
2026-03-19 13:30:00,METAR RJGG 191330Z 31018KT 9999 FEW020 09/04 Q1013 NOSIG
2026-03-19 13:00:00,METAR RJGG 191300Z 30021KT 9999 FEW020 09/04 Q1013 NOSIG
2026-03-19 12:30:00,METAR RJGG 191230Z 32019KT 9999 FEW020 09/04 Q1013 NOSIG
2026-03-19 12:00:00,METAR RJGG 191200Z 31021KT 9999 FEW020 10/04 Q1013 NOSIG
2026-03-19 11:30:00,METAR RJGG 191130Z 31020KT 9999 FEW020 10/04 Q1013 NOSIG
2026-03-19 11:00:00,METAR RJGG 191100Z 31016KT 9999 FEW020 10/04 Q1013 NOSIG
2026-03-19 10:30:00,METAR RJGG 191030Z 31016KT 9999 FEW020 10/04 Q1012 NOSIG
2026-03-19 10:00:00,METAR RJGG 191000Z 31021KT 9999 FEW020 11/04 Q1011 NOSIG
2026-03-19 09:30:00,METAR RJGG 190930Z 31024KT 9999 FEW020 11/05 Q1011 NOSIG
2026-03-19 09:00:00,METAR RJGG 190900Z 30027KT 9999 FEW020 11/05 Q1010 NOSIG
2026-03-19 08:30:00,METAR RJGG 190830Z 30026KT 9999 FEW020 11/05 Q1010 NOSIG
2026-03-19 08:00:00,METAR RJGG 190800Z 29023KT 9999 FEW020 12/06 Q1010 NOSIG
2026-03-19 07:30:00,METAR RJGG 190730Z 29026KT 9999 FEW020 12/05 Q1010 NOSIG
2026-03-19 07:00:00,METAR RJGG 190700Z 29025KT 9999 FEW020 13/06 Q1009 NOSIG
2026-03-19 06:30:00,METAR RJGG 190630Z 30024KT 9999 FEW020 13/07 Q1009 NOSIG
2026-03-19 06:00:00,METAR RJGG 190600Z 31024KT 9999 FEW020 14/07 Q1009 NOSIG
2026-03-19 05:30:00,METAR RJGG 190530Z 30022KT 9999 FEW020 14/07 Q1009 NOSIG
2026-03-19 05:00:00,METAR RJGG 190500Z 30024KT 9999 FEW015 14/07 Q1009 NOSIG
2026-03-19 04:30:00,METAR RJGG 190430Z 30022KT 9999 FEW015 SCT045 14/07 Q1009 NOSIG
2026-03-19 04:00:00,METAR RJGG 190400Z 31027KT 9999 FEW015 SCT045 14/07 Q1009 NOSIG
2026-03-19 03:30:00,METAR RJGG 190330Z 30020KT 9999 FEW015 SCT040 14/08 Q1009 NOSIG
2026-03-19 03:00:00,METAR RJGG 190300Z 30022KT 9999 FEW010 SCT040 14/08 Q1009 NOSIG
2026-03-19 02:30:00,METAR RJGG 190230Z 30015KT 9999 FEW010 BKN050 13/08 Q1009 NOSIG
2026-03-19 02:00:00,METAR RJGG 190200Z 31013KT 9999 FEW010 SCT050 BKN120 14/10 Q1010 NOSIG
2026-03-19 01:30:00,METAR RJGG 190130Z 32014KT 9999 FEW008 SCT040 BKN070 13/09 Q1010 NOSIG
2026-03-19 01:00:00,METAR RJGG 190100Z 31016KT 9999 FEW008 SCT060 BKN070 13/09 Q1010 NOSIG
2026-03-19 00:30:00,METAR RJGG 190030Z 31019KT 9999 FEW008 BKN060 13/08 Q1010 NOSIG
2026-03-19 00:00:00,METAR RJGG 190000Z 30018KT 9999 VCSH FEW008 BKN050 BKN060 12/09 Q1010 NOSIG
2026-03-18 23:30:00,METAR RJGG 182330Z 32018KT 9999 FEW008 BKN050 BKN060 12/09 Q1009 NOSIG
2026-03-18 23:00:00,METAR RJGG 182300Z 32020KT 9999 FEW008 BKN060 12/10 Q1009 NOSIG
2026-03-18 22:30:00,METAR RJGG 182230Z 34010KT 9999 -SHRA FEW004 SCT040 BKN050 10/10 Q1008 NOSIG
2026-03-18 22:00:00,METAR RJGG 182200Z 35008KT 9999 -SHRA FEW004 SCT040 BKN090 10/10 Q1008 NOSIG
2026-03-18 21:30:00,METAR RJGG 182130Z 33006KT 9000 -SHRA FEW004 SCT040 BKN070 10/10 Q1008 BECMG TL2300 32016KT
2026-03-18 21:00:00,METAR RJGG 182100Z 35004KT 9999 -SHRA FEW005 SCT030 BKN070 10/10 Q1008 BECMG TL2200 32016KT
2026-03-18 20:30:00,METAR RJGG 182030Z AUTO 35012KT 9999 -RA FEW009 BKN017 BKN021 10/09 Q1008 TEMPO 4000 SHRA BR
2026-03-18 20:00:00,METAR RJGG 182000Z AUTO 33013KT 9000 -RA FEW003 BKN009 OVC033 10/10 Q1008 TEMPO 2000 SHRA BR FEW002 BKN005
2026-03-18 19:30:00,METAR RJGG 181930Z AUTO 35009KT 7000 -RA FEW002 OVC009 10/09 Q1007 TEMPO 2000 SHRA BR FEW002 BKN005
2026-03-18 19:00:00,METAR RJGG 181900Z AUTO 35008KT 9000 -RA OVC008 10/09 Q1007 TEMPO 2000 SHRA BR FEW002 BKN005
2026-03-18 18:30:00,METAR RJGG 181830Z AUTO 36007KT 9999 -RA OVC008 10/09 Q1007 TEMPO 4000 -SHRA BR FEW002 BKN005
2026-03-18 18:00:00,METAR RJGG 181800Z AUTO 36008KT 7000 -RA FEW002 OVC007 10/09 Q1007 TEMPO 4000 -SHRA BR FEW002 BKN005
2026-03-18 17:30:00,METAR RJGG 181730Z AUTO 36010KT 6000 -RA FEW005 OVC007 10/09 Q1008 TEMPO 4000 -SHRA BR FEW002 BKN005
2026-03-18 17:00:00,METAR RJGG 181700Z AUTO 35009KT 6000 -RA BKN002 BKN005 OVC006 10/09 Q1009 TEMPO 2000 SHRA BR
2026-03-18 16:30:00,METAR RJGG 181630Z AUTO 35007KT 5000 BR SCT002 OVC005 10/09 Q1009 TEMPO 2000 SHRA BR
2026-03-18 16:00:00,METAR RJGG 181600Z AUTO 35006KT 4400 -RA BR FEW002 BKN006 OVC009 10/09 Q1010 TEMPO 2000 SHRA BR FEW002 BKN005
2026-03-18 15:30:00,METAR RJGG 181530Z AUTO 34007KT 4900 -RA BR FEW002 SCT009 BKN010 10/10 Q1010 TEMPO 2000 SHRA BR FEW002 BKN005
2026-03-18 15:00:00,METAR RJGG 181500Z AUTO 32005KT 4300 -RA BR OVC014 10/10 Q1011 TEMPO 2000 SHRA BR FEW002 BKN005
2026-03-18 14:30:00,METAR RJGG 181430Z AUTO VRB02KT 9999 -RA SCT010 OVC013 10/10 Q1011 TEMPO 2000 SHRA BR FEW002 BKN005
2026-03-18 14:00:00,METAR RJGG 181400Z AUTO 08003KT 300V120 9000 -RA OVC012 11/09 Q1012 TEMPO 2000 SHRA BR FEW002 BKN005
2026-03-18 13:30:00,METAR RJGG 181330Z VRB02G13KT 6000 -SHRA FEW003 SCT008 BKN010 11/09 Q1012 TEMPO 2000 SHRA BR FEW002 BKN005
2026-03-18 13:00:00,METAR RJGG 181300Z 09003KT 360V140 4500 -SHRA BR FEW003 SCT006 BKN009 11/10 Q1013 TEMPO 2000 SHRA BR FEW002 BKN005
2026-03-18 12:30:00,METAR RJGG 181230Z VRB02KT 3000 SHRA BR FEW003 SCT006 BKN008 11/10 Q1013 TEMPO FEW002 BKN005
2026-03-18 12:00:00,METAR RJGG 181200Z 05003KT 350V110 3000 -SHRA BR FEW003 SCT006 BKN008 10/10 Q1014 TEMPO SHRA BR FEW002 BKN005
2026-03-18 11:30:00,METAR RJGG 181130Z 09003KT 020V150 3100 -RA BR FEW005 SCT010 BKN020 11/10 Q1014 TEMPO FEW005 BKN012
2026-03-18 11:00:00,METAR RJGG 181100Z 09004KT 020V100 4000 -RA BR FEW008 BKN020 11/10 Q1014 NOSIG
2026-03-18 10:30:00,METAR RJGG 181030Z 07005KT 5000 -RA BR FEW008 BKN020 11/10 Q1014 TEMPO 4000 -RA BR FEW008 BKN013
2026-03-18 10:00:00,METAR RJGG 181000Z 07007KT 030V090 6000 -RA FEW008 BKN020 11/10 Q1015 TEMPO FEW008 BKN013
2026-03-18 09:30:00,METAR RJGG 180930Z 08006KT 010V110 5000 -RA BR FEW015 BKN020 11/10 Q1015 TEMPO 4000 -RA BR
2026-03-18 09:00:00,METAR RJGG 180900Z 08006KT 5000 -RA BR FEW015 BKN020 11/10 Q1015 BECMG 07005KT TEMPO 4000 RA BR
2026-03-18 08:30:00,METAR RJGG 180830Z 08006KT 020V100 6000 -RA FEW015 SCT025 BKN040 11/10 Q1016 TEMPO 4000 RA BR BECMG 07005KT
2026-03-18 08:00:00,METAR RJGG 180800Z 09007KT 5000 -RA BR FEW020 SCT025 BKN040 12/10 Q1016 TEMPO 4000 RA BR
2026-03-18 07:30:00,METAR RJGG 180730Z 10008KT 8000 -RA FEW020 SCT030 BKN050 12/09 Q1016 NOSIG
2026-03-18 07:00:00,METAR RJGG 180700Z 10006KT 8000 -RA FEW030 SCT050 OVC070 12/10 Q1016 NOSIG
2026-03-18 06:30:00,METAR RJGG 180630Z 10003KT 8000 -RA FEW030 SCT040 OVC070 12/09 Q1016 NOSIG
2026-03-18 06:00:00,METAR RJGG 180600Z 28001KT 9000 -RA FEW030 SCT040 OVC070 11/08 Q1016 BECMG TL0700 23005KT
2026-03-18 05:30:00,METAR RJGG 180530Z 25003KT 9000 -RA FEW030 OVC070 11/07 Q1017 NOSIG
2026-03-18 05:00:00,METAR RJGG 180500Z VRB02KT 9999 -RA FEW030 SCT070 OVC080 12/07 Q1017 BECMG 20007KT
2026-03-18 04:30:00,METAR RJGG 180430Z 26002KT 9999 VCSH FEW030 BKN070 BKN130 11/06 Q1017 BECMG TL0500 23005KT
2026-03-18 04:00:00,METAR RJGG 180400Z 27006KT 9999 FEW030 SCT070 BKN130 11/07 Q1018 BECMG TL0500 23005KT
2026-03-18 03:30:00,METAR RJGG 180330Z 26005KT 9999 FEW030 BKN150 12/07 Q1018 BECMG TL0400 23005KT
2026-03-18 03:00:00,METAR RJGG 180300Z 31004KT 9999 FEW030 BKN160 12/06 Q1019 BECMG FM0330 23005KT
2026-03-18 02:30:00,METAR RJGG 180230Z 31005KT 9999 FEW030 BKN170 11/05 Q1019 BECMG FM0330 24005KT
2026-03-18 02:00:00,METAR RJGG 180200Z 31004KT 9999 FEW030 BKN170 BKN/// 11/05 Q1020 BECMG FM0330 24005KT
2026-03-18 01:30:00,METAR RJGG 180130Z 30007KT 9999 FEW030 BKN170 10/05 Q1020 NOSIG
2026-03-18 01:00:00,METAR RJGG 180100Z 32008KT 9999 FEW030 BKN180 10/05 Q1020 NOSIG
2026-03-18 00:30:00,METAR RJGG 180030Z VRB03KT 9999 FEW030 BKN/// 11/05 Q1021 BECMG 33005KT
2026-03-18 00:00:00,METAR RJGG 180000Z 07004KT 020V120 9999 FEW040 BKN/// 10/03 Q1021 NOSIG
2026-03-17 23:30:00,METAR RJGG 172330Z 32004KT 9999 FEW040 BKN/// 09/03 Q1021 NOSIG
2026-03-17 23:00:00,METAR RJGG 172300Z 33003KT 9999 FEW040 BKN/// 09/04 Q1021 NOSIG
2026-03-17 22:30:00,METAR RJGG 172230Z VRB02KT 9999 FEW040 SCT/// 08/03 Q1021 NOSIG
2026-03-17 22:00:00,METAR RJGG 172200Z VRB01KT 9999 FEW040 BKN/// 07/03 Q1021 NOSIG
2026-03-17 21:30:00,METAR RJGG 172130Z 00000KT 9999 FEW040 06/01 Q1021 NOSIG
2026-03-17 21:00:00,METAR RJGG 172100Z 04002KT CAVOK 05/01 Q1020 NOSIG
2026-03-17 20:30:00,METAR RJGG 172030Z AUTO 07004KT 9999 NCD 06/01 Q1020 NOSIG
2026-03-17 20:00:00,METAR RJGG 172000Z AUTO 05004KT 9999 NCD 06/02 Q1020 NOSIG
2026-03-17 19:30:00,METAR RJGG 171930Z AUTO 04004KT 9999 NCD 06/02 Q1020 NOSIG
2026-03-17 19:00:00,METAR RJGG 171900Z AUTO 02005KT 9999 NCD 06/02 Q1020 NOSIG
2026-03-17 18:30:00,METAR RJGG 171830Z AUTO 04006KT 9999 NCD 06/04 Q1020 NOSIG
2026-03-17 18:00:00,METAR RJGG 171800Z AUTO 02005KT 9999 NCD 06/04 Q1020 NOSIG
2026-03-17 17:30:00,METAR RJGG 171730Z AUTO VRB01KT 9999 NCD 08/05 Q1020 NOSIG
2026-03-17 17:00:00,METAR RJGG 171700Z AUTO 26005KT 9999 NCD 09/07 Q1020 NOSIG
2026-03-17 16:30:00,METAR RJGG 171630Z AUTO 27005KT 9999 NCD 09/05 Q1020 NOSIG
2026-03-17 16:00:00,METAR RJGG 171600Z AUTO 27006KT 9999 NCD 09/05 Q1020 NOSIG
2026-03-17 15:30:00,METAR RJGG 171530Z AUTO 25007KT 9999 NCD 09/04 Q1020 BECMG 26006KT
2026-03-17 15:00:00,METAR RJGG 171500Z AUTO 26006KT 9999 NCD 09/04 Q1020 NOSIG
2026-03-17 14:30:00,METAR RJGG 171430Z AUTO 27006KT 9999 NCD 09/04 Q1020 NOSIG
2026-03-17 14:00:00,METAR RJGG 171400Z AUTO 27007KT 9999 NCD 10/05 Q1020 NOSIG
2026-03-17 13:30:00,METAR RJGG 171330Z 28006KT CAVOK 10/05 Q1020 NOSIG
2026-03-17 13:00:00,METAR RJGG 171300Z 27006KT CAVOK 11/06 Q1020 NOSIG
2026-03-17 12:30:00,METAR RJGG 171230Z 34007KT CAVOK 09/04 Q1020 NOSIG
2026-03-17 12:00:00,METAR RJGG 171200Z 28008KT CAVOK 11/05 Q1020 NOSIG
2026-03-17 11:30:00,METAR RJGG 171130Z 24006KT CAVOK 11/04 Q1020 BECMG FM1200 26005KT
2026-03-17 11:00:00,METAR RJGG 171100Z 18007KT CAVOK 11/05 Q1020 BECMG FM1200 26005KT
2026-03-17 10:30:00,METAR RJGG 171030Z 16006KT CAVOK 10/04 Q1020 BECMG FM1200 26005KT
2026-03-17 10:00:00,METAR RJGG 171000Z 16007KT CAVOK 09/03 Q1019 BECMG FM1130 26005KT
2026-03-17 09:30:00,METAR RJGG 170930Z 18008KT CAVOK 10/03 Q1018 BECMG FM1030 26005KT
2026-03-17 09:00:00,METAR RJGG 170900Z 19010KT CAVOK 12/05 Q1018 BECMG FM1030 26005KT
2026-03-17 08:30:00,METAR RJGG 170830Z 18009KT CAVOK 12/05 Q1018 NOSIG
2026-03-17 08:00:00,METAR RJGG 170800Z 17006KT CAVOK 14/02 Q1018 NOSIG
2026-03-17 07:30:00,METAR RJGG 170730Z 15004KT 100V190 CAVOK 15/02 Q1018 NOSIG
2026-03-17 07:00:00,METAR RJGG 170700Z 16004KT 120V200 9999 FEW030 15/03 Q1018 NOSIG
2026-03-17 06:30:00,METAR RJGG 170630Z 14004KT 110V170 9999 FEW030 15/M01 Q1018 NOSIG
2026-03-17 06:00:00,METAR RJGG 170600Z 17003KT 100V210 9999 FEW030 BKN/// 15/M01 Q1018 NOSIG
2026-03-17 05:30:00,METAR RJGG 170530Z 21004KT 9999 FEW030 SCT/// 14/02 Q1018 NOSIG
2026-03-17 05:00:00,METAR RJGG 170500Z 24003KT 9999 FEW030 SCT/// 14/01 Q1019 NOSIG
2026-03-17 04:30:00,METAR RJGG 170430Z VRB02KT 9999 FEW030 13/01 Q1019 NOSIG
2026-03-17 04:00:00,METAR RJGG 170400Z 29003KT 9999 FEW030 12/M00 Q1020 NOSIG
2026-03-17 03:30:00,METAR RJGG 170330Z 25003KT 9999 FEW030 11/M00 Q1020 NOSIG
2026-03-17 03:00:00,METAR RJGG 170300Z 24003KT 9999 FEW030 BKN/// 11/01 Q1020 NOSIG
2026-03-17 02:30:00,METAR RJGG 170230Z 24003KT 9999 FEW030 BKN/// 11/03 Q1020 NOSIG
2026-03-17 02:00:00,METAR RJGG 170200Z 26003KT 230V310 CAVOK 10/02 Q1021 NOSIG
2026-03-17 01:30:00,METAR RJGG 170130Z 27004KT CAVOK 10/03 Q1021 NOSIG
2026-03-17 01:00:00,METAR RJGG 170100Z 26005KT 9999 FEW030 BKN/// 09/03 Q1021 BECMG 24004KT
2026-03-17 00:30:00,METAR RJGG 170030Z 30004KT 9999 FEW030 BKN/// 09/02 Q1021 BECMG 24005KT
2026-03-17 00:00:00,METAR RJGG 170000Z 30005KT 9999 FEW030 BKN/// 09/02 Q1021 NOSIG
2026-03-16 23:30:00,METAR RJGG 162330Z 32005KT 9999 FEW030 BKN/// 08/02 Q1021 NOSIG
2026-03-16 23:00:00,METAR RJGG 162300Z 33005KT 9999 FEW030 BKN/// 09/02 Q1021 NOSIG
2026-03-16 22:30:00,METAR RJGG 162230Z 35006KT 9999 FEW030 BKN/// 08/03 Q1021 NOSIG
2026-03-16 22:00:00,METAR RJGG 162200Z 35009KT 9999 FEW030 BKN/// 07/03 Q1021 NOSIG
2026-03-16 21:30:00,METAR RJGG 162130Z 35008KT 9999 FEW030 BKN/// 05/02 Q1021 NOSIG
2026-03-16 21:00:00,METAR RJGG 162100Z 35007KT 9999 FEW030 BKN/// 04/01 Q1021 NOSIG
2026-03-16 20:30:00,METAR RJGG 162030Z AUTO 35006KT 9999 NCD 04/00 Q1020 NOSIG
2026-03-16 20:00:00,METAR RJGG 162000Z AUTO 03003KT 9999 NCD 07/03 Q1020 NOSIG
2026-03-16 19:30:00,METAR RJGG 161930Z AUTO 36005KT 9999 NCD 07/03 Q1020 NOSIG
2026-03-16 19:00:00,METAR RJGG 161900Z AUTO 33008KT 9999 NCD 07/01 Q1020 NOSIG
2026-03-16 18:30:00,METAR RJGG 161830Z AUTO 30009KT 9999 NCD 08/02 Q1020 NOSIG
2026-03-16 18:00:00,METAR RJGG 161800Z AUTO 29008KT 9999 NSC 08/03 Q1020 NOSIG
2026-03-16 17:30:00,METAR RJGG 161730Z AUTO 29007KT 9999 NSC 08/04 Q1020 NOSIG
2026-03-16 17:00:00,METAR RJGG 161700Z AUTO 32007KT 9999 NSC 07/02 Q1020 NOSIG
2026-03-16 16:30:00,METAR RJGG 161630Z AUTO 32009KT 9999 NSC 08/03 Q1020 NOSIG
2026-03-16 16:00:00,METAR RJGG 161600Z AUTO 31011KT 9999 NSC 09/03 Q1020 NOSIG
2026-03-16 15:30:00,METAR RJGG 161530Z AUTO 31012KT 9999 NSC 09/03 Q1020 NOSIG
2026-03-16 15:00:00,METAR RJGG 161500Z AUTO 32010KT 9999 NSC 09/02 Q1020 NOSIG
2026-03-16 14:30:00,METAR RJGG 161430Z AUTO 32011KT 9999 NSC 09/03 Q1020 NOSIG
2026-03-16 14:00:00,METAR RJGG 161400Z AUTO 33006KT 9999 NSC 09/03 Q1020 NOSIG
2026-03-16 13:30:00,METAR RJGG 161330Z 31005KT 260V340 9999 FEW030 SCT180 BKN/// 09/03 Q1020 NOSIG
2026-03-16 13:00:00,METAR RJGG 161300Z 30005KT 9999 FEW030 BKN/// 09/02 Q1021 NOSIG
2026-03-16 12:30:00,METAR RJGG 161230Z 30006KT 9999 FEW030 SCT/// 09/02 Q1020 NOSIG
2026-03-16 12:00:00,METAR RJGG 161200Z 31010KT 9999 FEW030 BKN/// 10/03 Q1020 NOSIG
2026-03-16 11:30:00,METAR RJGG 161130Z 30011KT 9999 FEW030 10/03 Q1019 NOSIG
2026-03-16 11:00:00,METAR RJGG 161100Z 31012KT 9999 FEW030 10/03 Q1019 NOSIG
2026-03-16 10:30:00,METAR RJGG 161030Z 31014KT 9999 FEW030 10/03 Q1019 NOSIG
2026-03-16 10:00:00,METAR RJGG 161000Z 33014KT 9999 FEW030 11/04 Q1018 NOSIG
2026-03-16 09:30:00,METAR RJGG 160930Z 32012KT 9999 FEW030 11/04 Q1018 NOSIG
2026-03-16 09:00:00,METAR RJGG 160900Z 31011KT 9999 FEW030 12/04 Q1018 NOSIG
2026-03-16 08:30:00,METAR RJGG 160830Z 32010KT 9999 FEW030 12/04 Q1018 NOSIG
2026-03-16 08:00:00,METAR RJGG 160800Z 25005KT 9999 FEW030 13/04 Q1018 BECMG TL0830 27008KT
2026-03-16 07:30:00,METAR RJGG 160730Z 21005KT 9999 FEW030 13/05 Q1017 BECMG FM0800 31014KT
2026-03-16 07:00:00,METAR RJGG 160700Z 19006KT 9999 FEW030 13/05 Q1017 BECMG FM0800 31014KT
2026-03-16 06:30:00,METAR RJGG 160630Z 19006KT 9999 FEW030 13/06 Q1017 BECMG FM0800 31015KT
2026-03-16 06:00:00,METAR RJGG 160600Z 23005KT 9999 FEW030 13/03 Q1018 NOSIG
2026-03-16 05:30:00,METAR RJGG 160530Z 22005KT 9999 FEW030 13/02 Q1018 NOSIG
2026-03-16 05:00:00,METAR RJGG 160500Z 23006KT 9999 FEW030 13/02 Q1018 NOSIG
2026-03-16 04:30:00,METAR RJGG 160430Z 23007KT 9999 FEW030 13/M01 Q1018 NOSIG
2026-03-16 04:00:00,METAR RJGG 160400Z 25006KT 230V290 9999 FEW030 13/02 Q1018 NOSIG
2026-03-16 03:30:00,METAR RJGG 160330Z 33005KT 9999 FEW030 13/M00 Q1019 NOSIG
2026-03-16 03:00:00,METAR RJGG 160300Z 32006KT 9999 FEW030 12/01 Q1019 NOSIG
2026-03-16 02:30:00,METAR RJGG 160230Z 33009KT 9999 FEW030 13/02 Q1020 NOSIG
2026-03-16 02:00:00,METAR RJGG 160200Z 34012KT 9999 FEW030 12/M00 Q1020 NOSIG
2026-03-16 01:30:00,METAR RJGG 160130Z 34013KT 9999 FEW030 12/M01 Q1020 NOSIG
2026-03-16 01:00:00,METAR RJGG 160100Z 34015KT 9999 FEW030 11/M02 Q1021 NOSIG
2026-03-16 00:30:00,METAR RJGG 160030Z 34015KT 9999 FEW030 SCT/// 11/M02 Q1021 NOSIG
2026-03-16 00:00:00,METAR RJGG 160000Z 34016KT 9999 FEW030 SCT/// 10/M01 Q1021 NOSIG
2026-03-15 23:30:00,METAR RJGG 152330Z 34013KT 9999 FEW030 SCT/// 10/M00 Q1021 NOSIG
2026-03-15 23:00:00,METAR RJGG 152300Z 34014KT 9999 FEW030 09/M01 Q1021 NOSIG
2026-03-15 22:30:00,METAR RJGG 152230Z 32018KT 9999 FEW030 08/01 Q1021 NOSIG
2026-03-15 22:00:00,METAR RJGG 152200Z 32017KT 9999 FEW030 SCT/// 08/01 Q1021 NOSIG
2026-03-15 21:30:00,METAR RJGG 152130Z 32018KT 9999 FEW030 BKN/// 08/01 Q1020 NOSIG
2026-03-15 21:00:00,METAR RJGG 152100Z 32017KT 9999 FEW030 SCT/// 07/01 Q1020 NOSIG
2026-03-15 20:30:00,METAR RJGG 152030Z AUTO 32018KT 9999 NCD 08/02 Q1020 NOSIG
2026-03-15 20:00:00,METAR RJGG 152000Z AUTO 32019KT 9999 NCD 08/02 Q1020 NOSIG
2026-03-15 19:30:00,METAR RJGG 151930Z AUTO 31019KT 9999 NCD 08/02 Q1019 NOSIG
2026-03-15 19:00:00,METAR RJGG 151900Z AUTO 31019KT 9999 NCD 08/02 Q1019 NOSIG
2026-03-15 18:30:00,METAR RJGG 151830Z AUTO 32019KT 9999 NCD 08/03 Q1019 NOSIG
2026-03-15 18:00:00,METAR RJGG 151800Z AUTO 31019KT 9999 NCD 08/03 Q1019 NOSIG
2026-03-15 17:30:00,METAR RJGG 151730Z AUTO 31018KT 9999 NCD 08/03 Q1019 NOSIG
2026-03-15 17:00:00,METAR RJGG 151700Z AUTO 32017KT 9999 NCD 08/03 Q1019 NOSIG
2026-03-15 16:30:00,METAR RJGG 151630Z AUTO 31019KT 9999 NCD 08/03 Q1019 NOSIG
2026-03-15 16:00:00,METAR RJGG 151600Z AUTO 31019KT 9999 NCD 08/03 Q1019 NOSIG
2026-03-15 15:30:00,METAR RJGG 151530Z AUTO 32018KT 9999 NCD 08/02 Q1019 NOSIG
2026-03-15 15:00:00,METAR RJGG 151500Z AUTO 31017KT 9999 NCD 08/03 Q1019 NOSIG
2026-03-15 14:30:00,METAR RJGG 151430Z AUTO 31017KT 9999 NCD 08/03 Q1019 NOSIG
2026-03-15 14:00:00,METAR RJGG 151400Z AUTO 31015KT 9999 NSC 09/03 Q1019 NOSIG
2026-03-15 13:30:00,METAR RJGG 151330Z 31015KT 9999 FEW030 09/03 Q1019 NOSIG
2026-03-15 13:00:00,METAR RJGG 151300Z 31017KT 9999 FEW030 09/03 Q1019 NOSIG
2026-03-15 12:30:00,METAR RJGG 151230Z 30014KT 9999 FEW030 09/04 Q1019 NOSIG
2026-03-15 12:00:00,METAR RJGG 151200Z 31018KT 9999 FEW030 09/04 Q1019 NOSIG
2026-03-15 11:30:00,METAR RJGG 151130Z 31017KT 9999 FEW030 09/04 Q1019 NOSIG
2026-03-15 11:00:00,METAR RJGG 151100Z 31019KT 9999 FEW030 09/03 Q1019 NOSIG
2026-03-15 10:30:00,METAR RJGG 151030Z 31019KT 9999 FEW030 09/04 Q1019 NOSIG
2026-03-15 10:00:00,METAR RJGG 151000Z 31018KT 9999 FEW030 SCT170 09/04 Q1019 NOSIG
2026-03-15 09:30:00,METAR RJGG 150930Z 31019KT 9999 FEW030 10/04 Q1019 NOSIG
2026-03-15 09:00:00,METAR RJGG 150900Z 31020KT 9999 FEW030 10/04 Q1018 NOSIG
2026-03-15 08:30:00,METAR RJGG 150830Z 31020KT 9999 FEW030 10/04 Q1018 NOSIG
2026-03-15 08:00:00,METAR RJGG 150800Z 31021KT 9999 FEW030 SCT140 11/04 Q1018 NOSIG
