Time_recorded,METAR
2026-05-02 12:00:00,METAR VLLB 021200Z 18002KT 9999 SCT020 BKN060 32/23 Q1005 NOSIG
2026-05-02 11:00:00,METAR VLLB 021100Z 27004KT 9999 SCT020 BKN060 35/23 Q1004 NOSIG
2026-05-02 10:00:00,METAR VLLB 021000Z 24008KT 9999 SCT020 SCT060 36/23 Q1004 NOSIG
2026-05-02 08:00:00,METAR VLLB 020800Z 27010KT 9999 SCT020 FEW060 37/22 Q1005 NOSIG
2026-05-02 07:00:00,METAR VLLB 020700Z 27008KT 9999 SCT020 BKN060 37/23 Q1006 NOSIG
2026-05-02 06:00:00,METAR VLLB 020600Z 27008KT 9999 SCT020 SCT060 36/23 Q1008 NOSIG
2026-05-02 05:00:00,METAR VLLB 020500Z 27006KT 9999 SCT020 FEW060 33/23 Q1009 NOSIG
2026-05-02 04:00:00,METAR VLLB 020400Z 24004KT 9999 SCT020 BKN060 31/23 Q1009 NOSIG
2026-05-02 03:00:00,METAR VLLB 020300Z 27004KT 9999 SCT020 BKN060 29/23 Q1010 NOSIG
2026-05-02 02:00:00,METAR VLLB 020200Z 27002KT 9999 SCT020 BKN080 26/23 Q1010 NOSIG
2026-05-02 01:00:00,METAR VLLB 020100Z 04002KT 9999 SCT010 BKN060 25/21 Q1010 NOSIG
2026-05-02 00:00:00,METAR VLLB 020000Z 27002KT 9999 SCT010 BKN060 24/22 Q1010 NOSIG
2026-05-01 12:00:00,METAR VLLB 011200Z 27004KT 9999 SCT010 BKN060 29/23 Q1006 NOSIG
2026-05-01 11:00:00,METAR VLLB 011100Z 27004KT 9999 SCT020 BKN060 31/22 Q1005 NOSIG
2026-05-01 10:00:00,METAR VLLB 011000Z 27004KT 9999 SCT020 BKN060 32/23 Q1005 NOSIG
2026-05-01 09:00:00,METAR VLLB 010900Z 27006KT 9999 SCT020 BKN060 34/21 Q1005 NOSIG
2026-05-01 08:00:00,METAR VLLB 010800Z 18004KT 9999 SCT020 BKN060 34/23 Q1006 NOSIG
2026-05-01 06:00:00,METAR VLLB 010600Z 27006KT 9999 SCT020 SCT060 32/20 Q1009 NOSIG
2026-05-01 05:00:00,METAR VLLB 010500Z 18002KT 9999 SCT020 BKN060 30/23 Q1010 NOSIG
2026-05-01 04:00:00,METAR VLLB 010400Z 27004KT 9999 SCT020 BKN060 29/22 Q1012 NOSIG
2026-05-01 03:00:00,METAR VLLB 010300Z 09004KT 9999 SCT010 BKN060 28/22 Q1013 NOSIG
2026-05-01 02:00:00,METAR VLLB 010200Z 36002KT 9999 SCT010 BKN060 25/21 Q1012 NOSIG
2026-05-01 01:00:00,METAR VLLB 010100Z 27002KT 9999 SCT010 FEW060 24/22 Q1012 NOSIG
2026-05-01 00:00:00,METAR VLLB 010000Z 36002KT 9999 SCT010 BKN080 23/22 Q1012 NOSIG
2026-04-30 12:00:00,METAR VLLB 301200Z 04006KT 9999 SCT020 SCT060 28/22 Q1009 NOSIG
2026-04-30 08:00:00,METAR VLLB 300800Z 22004KT 9999 SCT020 FEW060 33/24 Q1009 NOSIG
2026-04-30 07:00:00,METAR VLLB 300700Z 09008KT 9999 TS SCT010 FEW030CB BKN080 31/24 Q1011 CB E NOSIG
2026-04-30 06:00:00,METAR VLLB 300600Z 24006KT 9999 SCT020 SCT060 33/23 Q1012 NOSIG
2026-04-30 04:00:00,METAR VLLB 300400Z 27006KT 9999 SCT020 BKN080 29/22 Q1013 NOSIG
2026-04-30 03:00:00,METAR VLLB 300300Z 36004KT 9999 SCT010 BKN080 27/22 Q1014 NOSIG
2026-04-30 02:00:00,METAR VLLB 300200Z 36004KT 9999 SCT010 BKN080 25/22 Q1013 NOSIG
2026-04-30 01:00:00,METAR VLLB 300100Z 04004KT 9999 TS FEW020CB SCT060 OVC080 24/22 Q1013 CB S NOSIG
2026-04-30 00:00:00,METAR VLLB 300000Z 00000KT 9999 SCT020 SCT060 OVC080 23/22 Q1013 NOSIG
2026-04-29 12:00:00,METAR VLLB 291200Z 09002KT 9999 SCT020 SCT060 29/23 Q1005 NOSIG
2026-04-29 11:00:00,METAR VLLB 291100Z 04004KT 9999 SCT020 SCT060 30/22 Q1004 NOSIG
2026-04-29 10:00:00,METAR VLLB 291000Z 36002KT 9999 SCT020 BKN080 32/23 Q1005 NOSIG
2026-04-29 09:00:00,METAR VLLB 290900Z 04004KT 9999 SCT020 BKN080 34/21 Q1006 NOSIG
2026-04-29 08:00:00,METAR VLLB 290800Z 32004KT 9999 SCT020 BKN080 33/23 Q1007 NOSIG
2026-04-29 07:00:00,METAR VLLB 290700Z 27004KT 9999 SCT020 BKN080 33/21 Q1008 NOSIG
2026-04-29 06:00:00,METAR VLLB 290600Z 27004KT 9999 SCT020 BKN080 32/21 Q1009 NOSIG
2026-04-29 05:00:00,METAR VLLB 290500Z 27004KT 9999 SCT020 29/22 Q1010 NOSIG
2026-04-29 04:00:00,METAR VLLB 290400Z 04004KT 9999 SCT020 27/21 Q1012 NOSIG
2026-04-29 03:00:00,METAR VLLB 290300Z 04004KT 9999 SCT020 27/21 Q1012 NOSIG
2026-04-29 02:00:00,METAR VLLB 290200Z 36004KT 9999 SCT020 BKN080 24/21 Q1012 NOSIG
2026-04-29 01:00:00,METAR VLLB 290100Z 04002KT 9999 SCT020 BKN080 22/21 Q1012 NOSIG
2026-04-29 00:00:00,METAR VLLB 290000Z 18002KT 9999 SCT020 BKN080 22/21 Q1011 NOSIG
2026-04-28 12:00:00,METAR VLLB 281200Z 18002KT 9999 FEW020 SCT060 32/23 Q1004 NOSIG
2026-04-28 11:00:00,METAR VLLB 281100Z 27006KT 9999 FEW020 FEW060 33/24 Q1004 NOSIG
2026-04-28 10:00:00,METAR VLLB 281000Z 27006KT 9999 SCT020 FEW060 35/24 Q1004 NOSIG
2026-04-28 09:00:00,METAR VLLB 280900Z 27004KT 9999 FEW020 FEW060 35/24 Q1004 NOSIG
2026-04-28 08:00:00,METAR VLLB 280800Z 27004KT 9999 SCT020 FEW060 34/22 Q1005 NOSIG
2026-04-28 07:00:00,METAR VLLB 280700Z 27004KT 9999 FEW020 33/22 Q1006 NOSIG
2026-04-28 06:00:00,METAR VLLB 280600Z 27004KT 9999 FEW020 31/22 Q1008 NOSIG
2026-04-28 05:00:00,METAR VLLB 280500Z 24004KT 9999 FEW020 FEW060 30/21 Q1010 NOSIG
2026-04-28 04:00:00,METAR VLLB 280400Z 27004KT 9999 FEW020 FEW060 28/21 Q1010 NOSIG
2026-04-28 03:00:00,METAR VLLB 280300Z 27002KT 9999 SCT020 BKN060 25/20 Q1011 NOSIG
2026-04-28 02:00:00,METAR VLLB 280200Z 27004KT 9999 SCT010 BKN060 24/22 Q1010 NOSIG
2026-04-28 01:00:00,METAR VLLB 280100Z 22002KT 9999 SCT020 BKN060 23/21 Q1009 NOSIG
2026-04-28 00:00:00,METAR VLLB 280000Z 18002KT 9999 SCT020 21/20 Q1009 NOSIG
2026-04-27 12:00:00,METAR VLLB 271200Z 22004KT 9999 SCT020 SCT060 26/22 Q1005 NOSIG
2026-04-27 11:00:00,METAR VLLB 271100Z 36004KT 9999 SCT020 29/21 Q1004 NOSIG
2026-04-27 10:00:00,METAR VLLB 271000Z 09004KT 9999 SCT020 BKN080 29/23 Q1004 NOSIG
2026-04-27 09:00:00,METAR VLLB 270900Z 27004KT 9999 TS FEW020CB SCT060 BKN080 32/21 Q10054 CB W NOSIG
2026-04-27 08:00:00,METAR VLLB 270800Z 27006KT 9999 SCT020 BKN080 34/22 Q1005 NOSIG
2026-04-27 07:00:00,METAR VLLB 270700Z 27006KT 9999 SCT020 BKN060 33/21 Q1006 NOSIG
2026-04-27 06:00:00,METAR VLLB 270600Z 27006KT 9999 SCT020 BKN060 34/21 Q1007 NOSIG
2026-04-27 05:00:00,METAR VLLB 270500Z 27004KT 9999 SCT020 BKN080 30/22 Q1008 NOSIG
2026-04-27 03:00:00,METAR VLLB 270300Z 27004KT 9999 SCT020 BKN080 28/22 Q1011 NOSIG
2026-04-27 02:00:00,METAR VLLB 270200Z 14002KT 9999 SCT020 BKN080 27/23 Q1010 NOSIG
2026-04-27 01:00:00,METAR VLLB 270100Z 27002KT 9999 FEW020 SCT060 26/21 Q1010 NOSIG
2026-04-27 00:00:00,METAR VLLB 270000Z 36002KT 9999 FEW020 SCT060 22/21 Q1010 NOSIG
2026-04-26 12:00:00,METAR VLLB 261200Z 24002KT 9999 SCT020 BKN060 30/23 Q1008 NOSIG
2026-04-26 11:00:00,METAR VLLB 261100Z 24004KT 9999 SCT020 BKN060 31/23 Q1008 NOSIG
2026-04-26 10:00:00,METAR VLLB 261000Z 24004KT 9999 SCT020 BKN060 31/23 Q1008 NOSIG
2026-04-26 09:00:00,METAR VLLB 260900Z 24004KT 9999 SCT020 BKN060 32/23 Q1008 NOSIG
2026-04-26 08:00:00,METAR VLLB 260800Z 24004KT 9999 SCT010 BKN080 33/24 Q1008 NOSIG
2026-04-26 07:00:00,METAR VLLB 260700Z 24006KT 9999 SCT010 BKN080 32/24 Q1009 NOSIG
2026-04-26 06:00:00,METAR VLLB 260600Z 24008KT 9999 TSRA SCT010 FEW030CB BKN080 32/23 Q1010 CB W NOSIG
2026-04-26 05:00:00,METAR VLLB 260500Z 24006KT 9999 SCT020 BKN060 34/24 Q1010 NOSIG
2026-04-26 04:00:00,METAR VLLB 260400Z 22004KT 9999 SCT020 SCT060 33/23 Q1011 NOSIG
2026-04-26 03:00:00,METAR VLLB 260300Z 24004KT 9999 SCT020 BKN060 31/24 Q1012 NOSIG
2026-04-26 02:00:00,METAR VLLB 260200Z 22002KT 9999 SCT020 FEW060 28/22 Q1012 NOSIG
2026-04-26 01:00:00,METAR VLLB 260100Z 22002KT 9999 SCT010 26/20 Q1012 NOSIG
2026-04-26 00:00:00,METAR VLLB 260000Z 18002KT 9999 SCT010 24/22 Q1012 NOSIG
2026-04-25 12:00:00,METAR VLLB 251200Z 22004KT 9999 SCT020 BKN080 29/22 Q1007 NOSIG
2026-04-25 11:00:00,METAR VLLB 251100Z 22004KT 9999 SCT020 BKN080 31/26 Q1009 NOSIG
2026-04-25 10:00:00,METAR VLLB 251000Z 27004KT 9999 SCT020 BKN080 31/24 Q1006 NOSIG
2026-04-25 09:00:00,METAR VLLB 250900Z 27006KT 9999 SCT020 BKN080 31/20 Q1007 NOSIG
2026-04-25 08:00:00,METAR VLLB 250800Z 27004KT 9999 SCT020 BKN080 33/21 Q1008 NOSIG
2026-04-25 07:00:00,METAR VLLB 250700Z 27006KT 9999 SCT020 BKN080 32/22 Q1010 NOSIG
2026-04-25 06:00:00,METAR VLLB 250600Z 27004KT 9999 SCT020 BKN080 31/21 Q1011 NOSIG
2026-04-25 05:00:00,METAR VLLB 250500Z 09004KT 9999 SCT020 BKN080 31/23 Q1012 NOSIG
2026-04-25 04:00:00,METAR VLLB 250400Z 09004KT 9999 SCT020 BKN080 31/23 Q1012 NOSIG
2026-04-25 03:00:00,METAR VLLB 250300Z 36002KT 9999 SCT020 BKN080 30/22 Q1013 NOSIG
2026-04-25 02:00:00,METAR VLLB 250200Z 36002KT 9999 SCT020 BKN080 27/21 Q1013 NOSIG
2026-04-25 00:00:00,METAR VLLB 250000Z 27002KT 9999 SCT020 BKN060 26/22 Q1012 NOSIG
2026-04-24 12:00:00,METAR VLLB 241200Z 27002KT 9999 FEW020 FEW060 37/23 Q1004 NOSIG
2026-04-24 11:00:00,METAR VLLB 241100Z 27002KT 9999 FEW020 FEW060 38/23 Q1003 NOSIG
2026-04-24 10:00:00,METAR VLLB 241000Z 27002KT 9999 FEW020 FEW060 39/22 Q1003 NOSIG
2026-04-24 09:00:00,METAR VLLB 240900Z 27006KT 9999 SCT020 FEW060 39/22 Q1003 NOSIG
2026-04-24 08:00:00,METAR VLLB 240800Z 27004KT 9999 SCT020 FEW060 38/25 Q1005 NOSIG
2026-04-24 06:00:00,METAR VLLB 240600Z 27006KT 9999 FEW020 36/25 Q1007 NOSIG
2026-04-24 05:00:00,METAR VLLB 240500Z 27004KT 9999 FEW020 FEW060 35/24 Q1008 NOSIG
2026-04-24 04:00:00,METAR VLLB 240400Z 27004KT 9999 FEW020 FEW060 33/23 Q1009 NOSIG
2026-04-24 03:00:00,METAR VLLB 240300Z 04004KT 9999 FEW010 SCT060 31/23 Q1010 NOSIG
2026-04-24 02:00:00,METAR VLLB 240200Z 09004KT 9999 SCT010 BKN080 27/22 Q1009 NOSIG
2026-04-24 01:00:00,METAR VLLB 240100Z 36002KT 9999 SCT010 BKN080 26/21 Q1009 NOSIG
2026-04-24 00:00:00,METAR VLLB 240000Z 09002KT 9999 SCT010 BKN080 24/22 Q1009 NOSIG
2026-04-23 12:00:00,METAR VLLB 231200Z 22004KT 9999 SCT020 BKN060 32/23 Q1003 NOSIG
2026-04-23 11:00:00,METAR VLLB 231100Z 27004KT 9999 SCT020 BKN060 33/21 Q1002 NOSIG
2026-04-23 10:00:00,METAR VLLB 231000Z 27006KT 9999 FEW020 BKN060 35/25 Q1002 NOSIG
2026-04-23 09:00:00,METAR VLLB 230900Z 27002KT 9999 FEW020 36/25 Q1002 NOSIG
2026-04-23 08:00:00,METAR VLLB 230800Z 27004KT 9999 FEW020 34/24 Q1004 NOSIG
2026-04-23 07:00:00,METAR VLLB 230700Z 24004KT 9999 FEW020 33/24 Q1005 NOSIG
2026-04-23 06:00:00,METAR VLLB 230600Z 24004KT 9999 FEW010 FEW080 32/24 Q1006 NOSIG
2026-04-23 05:00:00,METAR VLLB 230500Z 27004KT 9999 SCT010 BKN080 28/22 Q1007 NOSIG
2026-04-23 04:00:00,METAR VLLB 230400Z 24002KT 9999 SCT010 BKN080 28/22 Q1008 NOSIG
2026-04-23 03:00:00,METAR VLLB 230300Z 27002KT 9999 SCT010 BKN080 28/22 Q1009 NOSIG
2026-04-23 02:00:00,METAR VLLB 230200Z 36002KT 9999 SCT010 BKN080 28/22 Q1009 NOSIG
2026-04-23 01:00:00,METAR VLLB 230100Z 36002KT 9999 SCT010 BKN080 24/22 Q1009 NOSIG
2026-04-23 00:00:00,METAR VLLB 230000Z 18002KT 9999 SCT010 BKN080 23/22 Q1008 NOSIG
2026-04-22 12:00:00,METAR VLLB 221200Z 22004KT 9999 SCT020 FEW060 36/24 Q1002 NOSIG
2026-04-22 11:00:00,METAR VLLB 221100Z 24004KT 9999 SCT020 SCT060 36/23 Q1002 NOSIG
2026-04-22 10:00:00,METAR VLLB 221000Z 27006KT 9999 SCT020 BKN060 39/23 Q1001 NOSIG
2026-04-22 09:00:00,METAR VLLB 220900Z 27006KT 9999 SCT020 FEW060 40/23 Q1001 NOSIG
2026-04-22 08:00:00,METAR VLLB 220800Z 24008KT 9999 FEW020 FEW060 40/22 Q1003 NOSIG
2026-04-22 07:00:00,METAR VLLB 220700Z 27008KT 9999 SCT020 FEW060 40/22 Q1004 NOSIG
2026-04-22 06:00:00,METAR VLLB 220600Z 27006KT 9999 SCT020 39/22 Q1005 NOSIG
2026-04-22 05:00:00,METAR VLLB 220500Z 27006KT 9999 FEW020 FEW060 37/23 Q1006 NOSIG
2026-04-22 04:00:00,METAR VLLB 220400Z 27006KT CAVOK 35/23 Q1007 NOSIG
2026-04-22 03:00:00,METAR VLLB 220300Z 27002KT 7000 NSC 33/23 Q1008 NOSIG
2026-04-22 02:00:00,METAR VLLB 220200Z 27002KT 5000 FU NSC 28/21 Q1008 NOSIG
2026-04-22 01:00:00,METAR VLLB 220100Z 32002KT 5000 FU NSC 26/22 Q1007 NOSIG
2026-04-22 00:00:00,METAR VLLB 220000Z 27002KT 5000 FU NSC 24/21 Q1007 NOSIG
2026-04-21 12:00:00,METAR VLLB 211200Z 27004KT 9999 SCT020 BKN080 30/21 Q1004 NOSIG
2026-04-21 11:00:00,METAR VLLB 211100Z 22002KT 9999 SCT020 BKN080 30/21 Q1003 NOSIG
2026-04-21 10:00:00,METAR VLLB 211000Z 27004KT 9999 SCT020 BKN080 31/23 Q1003 NOSIG
2026-04-21 09:00:00,METAR VLLB 210900Z 27006KT 9999 SCT020 BKN080 32/23 Q1003 NOSIG
2026-04-21 08:00:00,METAR VLLB 210800Z 27006KT 9999 SCT020 SCT060 37/23 Q1003 NOSIG
2026-04-21 07:00:00,METAR VLLB 210700Z 27006KT 9999 SCT020 SCT060 38/23 Q1004 NOSIG
2026-04-21 06:00:00,METAR VLLB 210600Z 27006KT 9999 SCT020 FEW060 38/23 Q1005 NOSIG
2026-04-21 05:00:00,METAR VLLB 210500Z 04004KT 9999 SCT010 34/23 Q1006 NOSIG
2026-04-21 04:00:00,METAR VLLB 210400Z 06004KT CAVOK 30/23 Q1008 NOSIG
2026-04-21 03:00:00,METAR VLLB 210300Z 06004KT CAVOK 30/23 Q1008 NOSIG
2026-04-21 02:00:00,METAR VLLB 210200Z 24002KT CAVOK 28/22 Q1009 NOSIG
2026-04-21 01:00:00,METAR VLLB 210100Z 36002KT CAVOK 25/22 Q1009 NOSIG
2026-04-21 00:00:00,METAR VLLB 210000Z 36002KT 4000 FU NSC 23/22 Q1008 NOSIG
2026-04-20 12:00:00,METAR VLLB 201200Z 36002KT 9999 SCT020 BKN060 29/23 Q1005 NOSIG
2026-04-20 11:00:00,METAR VLLB 201100Z 04002KT 9999 SCT010 BKN080 32/25 Q1005 NOSIG
2026-04-20 10:00:00,METAR VLLB 201000Z 22006KT 8000 RA SCT010 BKN080 33/24 Q1003 NOSIG
2026-04-20 09:00:00,METAR VLLB 200900Z 27006KT 9999 SCT020 BKN060 36/24 Q1003 NOSIG
2026-04-20 08:00:00,METAR VLLB 200800Z 22006KT 9999 FEW020 FEW060 38/23 Q1005 NOSIG
2026-04-20 07:00:00,METAR VLLB 200700Z 24006KT 9999 FEW020 FEW060 37/23 Q1006 NOSIG
2026-04-20 06:00:00,METAR VLLB 200600Z 27006KT 9999 SCT020 FEW060 37/23 Q1007 NOSIG
2026-04-20 05:00:00,METAR VLLB 200500Z 27006KT 9999 SCT020 SCT060 36/23 Q1008 NOSIG
2026-04-20 04:00:00,METAR VLLB 200400Z 27004KT 9999 SCT010 34/22 Q1009 NOSIG
2026-04-20 03:00:00,METAR VLLB 200300Z 27004KT 9999 SCT010 32/22 Q1010 NOSIG
2026-04-20 02:00:00,METAR VLLB 200200Z 27002KT 9999 SCT010 28/23 Q1010 NOSIG
2026-04-20 01:00:00,METAR VLLB 200100Z 27002KT 9999 SCT010 26/22 Q1009 NOSIG
2026-04-20 00:00:00,METAR VLLB 200000Z 18002KT 9999 SCT010 24/21 Q1009 NOSIG
2026-04-19 12:00:00,METAR VLLB 191200Z 27002KT 4000 FU SCT010 BKN060 34/22 Q1004 NOSIG
2026-04-19 11:00:00,METAR VLLB 191100Z 22002KT 4000 FU SCT010 BKN060 35/22 Q1003 NOSIG
2026-04-19 10:00:00,METAR VLLB 191000Z 27004KT 4000 FU SCT010 BKN060 37/20 Q1003 NOSIG
2026-04-19 09:00:00,METAR VLLB 190900Z 27006KT 4000 FU SCT010 BKN060 38/21 Q1003 NOSIG
2026-04-19 08:00:00,METAR VLLB 190800Z 22004KT 4000 FU SCT010 SCT060 34/22 Q1004 NOSIG
2026-04-19 07:00:00,METAR VLLB 190700Z 32002KT 2000 FU SCT010 BKN080 33/20 Q1005 NOSIG
2026-04-19 06:00:00,METAR VLLB 190600Z 14002KT 2000 FU SCT010 BKN080 34/19 Q1006 NOSIG
2026-04-19 05:00:00,METAR VLLB 190500Z 27002KT 2000 FU SCT010 BKN080 31/22 Q1007 NOSIG
2026-04-19 04:00:00,METAR VLLB 190400Z 04002KT 2000 FU SCT010 BKN080 30/21 Q1008 NOSIG
2026-04-19 03:00:00,METAR VLLB 190300Z 36002KT 2000 FU SCT010 BKN080 29/22 Q1009 NOSIG
2026-04-19 02:00:00,METAR VLLB 190200Z 36002KT 2000 FU SCT010 BKN080 28/20 Q1009 NOSIG
2026-04-19 01:00:00,METAR VLLB 190100Z 04002KT 3000 FU SCT010 BKN080 26/22 Q1009 NOSIG
2026-04-19 00:00:00,METAR VLLB 190000Z 36002KT 3000 FU SCT010 BKN080 25/22 Q1008 NOSIG
2026-04-18 12:00:00,METAR VLLB 181200Z 18002KT 4000 FU SCT020 BKN060 33/23 Q1005 NOSIG
2026-04-18 11:00:00,METAR VLLB 181100Z 24002KT 4000 FU SCT020 BKN060 35/23 Q1004 NOSIG
2026-04-18 10:00:00,METAR VLLB 181000Z 24004KT 4000 FU SCT020 BKN060 36/23 Q1004 NOSIG
2026-04-18 09:00:00,METAR VLLB 180900Z 22004KT 4000 FU SCT020 BKN060 37/23 Q1004 NOSIG
2026-04-18 08:00:00,METAR VLLB 180800Z 27004KT 4000 FU SCT020 BKN060 35/21 Q1005 NOSIG
2026-04-18 07:00:00,METAR VLLB 180700Z 27006KT 4000 FU SCT020 BKN060 35/21 Q1006 NOSIG
2026-04-18 06:00:00,METAR VLLB 180600Z 27004KT 4000 FU SCT020 BKN060 33/21 Q1008 NOSIG
2026-04-18 05:00:00,METAR VLLB 180500Z 27004KT 4000 FU SCT020 BKN060 31/19 Q1009 NOSIG
2026-04-18 04:00:00,METAR VLLB 180400Z 27004KT 3000 FU SCT020 BKN060 28/19 Q1010 NOSIG
2026-04-18 03:00:00,METAR VLLB 180300Z 04002KT 3000 FU SCT020 BKN060 26/19 Q1011 NOSIG
2026-04-17 12:00:00,METAR VLLB 171200Z 27002KT 1000 FU NSC 27/22 Q1002 NOSIG
2026-04-17 11:00:00,METAR VLLB 171100Z 04002KT 3000 FU SCT010 35/21 Q1004 NOSIG
2026-04-17 10:00:00,METAR VLLB 171000Z 02002KT 3000 FU SCT020 SCT060 37/23 Q1004 NOSIG
2026-04-17 09:00:00,METAR VLLB 170900Z 27002KT 3000 FU SCT020 SCT060 38/23 Q1004 NOSIG
2026-04-17 08:00:00,METAR VLLB 170800Z 22002KT 3000 FU SCT020 BKN060 36/21 Q1004 NOSIG
2026-04-17 07:00:00,METAR VLLB 170700Z 24004KT 3000 FU SCT020 BKN060 36/21 Q1007 NOSIG
2026-04-17 06:00:00,METAR VLLB 170600Z 27004KT 3000 FU FEW020 BKN060 35/21 Q1008 NOSIG
2026-04-17 05:00:00,METAR VLLB 170500Z 27004KT 3000 FU FEW020 SCT060 35/20 Q1008 NOSIG
2026-04-17 04:00:00,METAR VLLB 170400Z 27004KT 3000 FU FEW020 SCT060 32/19 Q1009 NOSIG
2026-04-17 03:00:00,METAR VLLB 170300Z 27002KT 3000 FU FEW020 SCT060 28/19 Q1010 NOSIG
2026-04-17 02:00:00,METAR VLLB 170200Z 27002KT 3000 FU FEW020 SCT060 26/20 Q1010 NOSIG
2026-04-17 01:00:00,METAR VLLB 170100Z 27004KT 4000 FU FEW020 SCT060 23/19 Q1010 NOSIG
2026-04-17 00:00:00,METAR VLLB 170000Z 36002KT 4000 FU SCT020 BKN060 22/19 Q1009 NOSIG
2026-04-16 12:00:00,METAR VLLB 161200Z 27002KT 5000 FU FEW020 SCT060 35/22 Q1004 NOSIG
2026-04-16 11:00:00,METAR VLLB 161100Z 18002KT 5000 FU SCT020 SCT060 39/20 Q1003 NOSIG
2026-04-16 09:00:00,METAR VLLB 160900Z 27004KT 5000 FU FEW020 FEW060 40/20 Q1003 NOSIG
2026-04-16 08:00:00,METAR VLLB 160800Z 27004KT 5000 FU NSC 40/18 Q1003 NOSIG
2026-04-16 07:00:00,METAR VLLB 160700Z 27006KT 5000 FU NSC 40/18 Q1006 NOSIG
2026-04-16 06:00:00,METAR VLLB 160600Z 27006KT 5000 FU NSC 39/21 Q1006 NOSIG
2026-04-16 05:00:00,METAR VLLB 160500Z 20004KT 4000 FU NSC 33/21 Q1008 NOSIG
2026-04-16 04:00:00,METAR VLLB 160400Z 24002KT 3000 FU NSC 31/20 Q1009 NOSIG
2026-04-16 03:00:00,METAR VLLB 160300Z 27002KT 3000 FU NSC 30/20 Q1009 NOSIG
2026-04-16 02:00:00,METAR VLLB 160200Z 18002KT 2000 FU NSC 26/20 Q1007 NOSIG
2026-04-16 01:00:00,METAR VLLB 160100Z 27002KT 2000 FU NSC 24/20 Q1007 NOSIG
2026-04-16 00:00:00,METAR VLLB 160000Z 00000KT 2000 FU NSC 21/20 Q1007 NOSIG
2026-04-15 11:00:00,METAR VLLB 151100Z 22002KT 4000 FU NSC 35/20 Q1003 NOSIG
2026-04-15 10:00:00,METAR VLLB 151000Z 27004KT 5000 FU FEW010 37/21 Q1003 NOSIG
2026-04-15 09:00:00,METAR VLLB 150900Z 27006KT 5000 FU FEW010 40/20 Q1003 NOSIG
2026-04-15 08:00:00,METAR VLLB 150800Z 27006KT 3000 FU NSC 39/23 Q1004 NOSIG
2026-04-15 07:00:00,METAR VLLB 150700Z 27004KT 3000 FU NSC 38/22 Q1005 NOSIG
2026-04-15 06:00:00,METAR VLLB 150600Z 27004KT 2000 FU NSC 38/21 Q1006 NOSIG
2026-04-15 05:00:00,METAR VLLB 150500Z 27002KT 2000 FU NSC 35/20 Q1007 NOSIG
2026-04-15 04:00:00,METAR VLLB 150400Z 32002KT 3000 FU NSC 35/23 Q1008 NOSIG
2026-04-15 03:00:00,METAR VLLB 150300Z 32002KT 3000 FU NSC 30/23 Q1009 NOSIG
2026-04-15 02:00:00,METAR VLLB 150200Z 36002KT 4000 FU FEW020 FEW060 28/20 Q1009 NOSIG
2026-04-15 01:00:00,METAR VLLB 150100Z 36002KT 4000 FU FEW020 FEW060 24/20 Q1009 NOSIG
2026-04-15 00:00:00,METAR VLLB 150000Z 02002KT 4000 FU SCT020 SCT060 22/20 Q1008 NOSIG
2026-04-14 12:00:00,METAR VLLB 141200Z 24002KT 7000 SCT020 BKN060 34/24 Q1004 NOSIG
2026-04-14 11:00:00,METAR VLLB 141100Z 22004KT 9999 SCT020 BKN060 36/22 Q1004 NOSIG
2026-04-14 10:00:00,METAR VLLB 141000Z 24008KT 9999 SCT020 BKN060 38/21 Q1004 NOSIG
2026-04-14 09:00:00,METAR VLLB 140900Z 24010KT 9999 SCT020 SCT060 39/21 Q1004 NOSIG
2026-04-14 08:00:00,METAR VLLB 140800Z 24010KT CAVOK 39/22 Q1005 NOSIG
2026-04-14 07:00:00,METAR VLLB 140700Z 27008KT CAVOK 39/22 Q1006 NOSIG
2026-04-14 06:00:00,METAR VLLB 140600Z 27006KT 5000 FU NSC 38/23 Q1007 NOSIG
2026-04-14 05:00:00,METAR VLLB 140500Z 18004KT 5000 FU NSC 35/20 Q1009 NOSIG
2026-04-14 04:00:00,METAR VLLB 140400Z 04002KT 3000 FU NSC 33/20 Q1010 NOSIG
2026-04-14 03:00:00,METAR VLLB 140300Z 36002KT 3000 FU NSC 30/21 Q1011 NOSIG
2026-04-14 02:00:00,METAR VLLB 140200Z 27002KT 3000 FU NSC 25/19 Q1010 NOSIG
2026-04-14 01:00:00,METAR VLLB 140100Z 27002KT 2000 FU NSC 23/19 Q1009 NOSIG
2026-04-13 11:00:00,METAR VLLB 131100Z 27002KT 3000 FU NSC 36/21 Q1004 NOSIG
2026-04-13 10:00:00,METAR VLLB 131000Z 24004KT 3000 FU NSC 38/23 Q1004 NOSIG
2026-04-13 09:00:00,METAR VLLB 130900Z 27004KT 4000 FU NSC 39/23 Q1004 NOSIG
2026-04-13 08:00:00,METAR VLLB 130800Z 27006KT 4000 FU SCT020 38/22 Q1005 NOSIG
2026-04-13 07:00:00,METAR VLLB 130700Z 27006KT 3000 FU SCT020 38/22 Q1006 NOSIG
2026-04-13 06:00:00,METAR VLLB 130600Z 27004KT 2000 FU NSC 37/22 Q1007 NOSIG
2026-04-13 05:00:00,METAR VLLB 130500Z 22002KT 3000 FU NSC 32/22 Q1008 NOSIG
2026-04-13 04:00:00,METAR VLLB 130400Z 27002KT 3000 FU NSC 30/21 Q1009 NOSIG
2026-04-13 03:00:00,METAR VLLB 130300Z 22002KT 3000 FU NSC 28/21 Q1010 NOSIG
2026-04-13 02:00:00,METAR VLLB 130200Z 27002KT 3000 FU NSC 25/18 Q1010 NOSIG
2026-04-13 01:00:00,METAR VLLB 130100Z 36002KT 3000 FU NSC 23/17 Q1010 NOSIG
2026-04-13 00:00:00,METAR VLLB 130000Z 36002KT 3000 FU FEW020 SCT060 21/18 Q1009 NOSIG
2026-04-12 12:00:00,METAR VLLB 121200Z 22002KT 5000 FU NSC 34/21 Q1003 NOSIG
2026-04-12 11:00:00,METAR VLLB 121100Z 24002KT CAVOK 37/19 Q1003 NOSIG
2026-04-12 09:00:00,METAR VLLB 120900Z 24008KT CAVOK 39/19 Q1003 NOSIG
2026-04-12 08:00:00,METAR VLLB 120800Z 27008KT CAVOK 39/20 Q1003 NOSIG
2026-04-12 07:00:00,METAR VLLB 120700Z 24008KT CAVOK 39/19 Q1004 NOSIG
2026-04-12 06:00:00,METAR VLLB 120600Z 24006KT CAVOK 37/19 Q1006 NOSIG
2026-04-12 05:00:00,METAR VLLB 120500Z 27004KT 3000 FU NSC 35/20 Q1007 NOSIG
2026-04-12 04:00:00,METAR VLLB 120400Z 27002KT 3000 FU NSC 33/20 Q1008 NOSIG
2026-04-12 03:00:00,METAR VLLB 120300Z 04002KT 3000 FU NSC 30/21 Q1008 NOSIG
2026-04-12 02:00:00,METAR VLLB 120200Z 27002KT 3000 FU NSC 26/20 Q1008 NOSIG
2026-04-12 00:00:00,METAR VLLB 120000Z 36002KT 3000 FU FEW010 22/19 Q1007 NOSIG
2026-04-11 12:00:00,METAR VLLB 111200Z 22002KT 4000 FU NSC 33/21 Q1004 NOSIG
2026-04-11 11:00:00,METAR VLLB 111100Z 22002KT 5000 FU SCT010 35/20 Q1003 NOSIG
2026-04-11 10:00:00,METAR VLLB 111000Z 22004KT 9999 SCT010 36/21 Q1003 NOSIG
2026-04-11 09:00:00,METAR VLLB 110900Z 22004KT 9999 SCT020 38/20 Q1003 NOSIG
2026-04-11 08:00:00,METAR VLLB 110800Z 27004KT 9999 SCT010 38/18 Q1004 NOSIG
2026-04-11 07:00:00,METAR VLLB 110700Z 22006KT 9999 SCT010 37/18 Q1005 NOSIG
2026-04-11 06:00:00,METAR VLLB 110600Z 27006KT 9999 SCT010 36/19 Q1006 NOSIG
2026-04-11 05:00:00,METAR VLLB 110500Z 27004KT 2000 FU NSC 31/20 Q1007 NOSIG
2026-04-11 03:00:00,METAR VLLB 110300Z 27002KT 2000 FU NSC 28/20 Q1010 NOSIG
2026-04-11 02:00:00,METAR VLLB 110200Z 27002KT 4000 FU NSC 26/19 Q1010 NOSIG
2026-04-11 00:00:00,METAR VLLB 110000Z 04002KT 4000 FU SCT020 SCT060 20/19 Q1008 NOSIG
2026-04-10 12:00:00,METAR VLLB 101200Z 27002KT 5000 FU NSC 35/21 Q1005 NOSIG
2026-04-10 11:00:00,METAR VLLB 101100Z 27002KT 5000 FU FEW020 SCT060 35/23 Q1005 NOSIG
2026-04-10 09:00:00,METAR VLLB 100900Z 27008KT 6000 SCT020 BKN060 38/21 Q1004 NOSIG
2026-04-10 08:00:00,METAR VLLB 100800Z 22008KT 6000 SCT020 38/21 Q1005 NOSIG
2026-04-10 07:00:00,METAR VLLB 100700Z 27008KT 5000 FU FEW020 FEW060 38/21 Q1006 NOSIG
2026-04-10 06:00:00,METAR VLLB 100600Z 27006KT 3000 FU FEW020 38/21 Q1007 NOSIG
2026-04-10 05:00:00,METAR VLLB 100500Z 27004KT 3000 FU FEW020 34/20 Q1008 NOSIG
2026-04-10 04:00:00,METAR VLLB 100400Z 27004KT 2000 FU NSC 30/19 Q1009 NOSIG
2026-04-10 03:00:00,METAR VLLB 100300Z 27004KT 2000 FU NSC 29/19 Q1010 NOSIG
2026-04-10 02:00:00,METAR VLLB 100200Z 36002KT 2000 FU NSC 25/20 Q1009 NOSIG
2026-04-10 01:00:00,METAR VLLB 100100Z 00000KT 2000 FU NSC 23/20 Q1008 NOSIG
2026-04-10 00:00:00,METAR VLLB 100000Z 00000KT 3000 FU NSC 20/18 Q1008 NOSIG
2026-04-09 12:00:00,METAR VLLB 091200Z 22002KT 5000 FU FEW010 33/21 Q1005 NOSIG
2026-04-09 11:00:00,METAR VLLB 091100Z 27006KT 6000 SCT020 SCT060 37/21 Q1005 NOSIG
2026-04-09 10:00:00,METAR VLLB 091000Z 27006KT 6000 SCT020 SCT060 37/21 Q1005 NOSIG
2026-04-09 09:00:00,METAR VLLB 090900Z 27006KT 6000 FEW020 BKN060 38/21 Q1005 NOSIG
2026-04-09 08:00:00,METAR VLLB 090800Z 27004KT 6000 SCT020 FEW060 39/21 Q1006 NOSIG
2026-04-09 07:00:00,METAR VLLB 090700Z 27004KT 5000 FU FEW020 FEW060 38/21 Q1007 NOSIG
2026-04-09 06:00:00,METAR VLLB 090600Z 27006KT 5000 FU FEW020 FEW060 38/21 Q1008 NOSIG
2026-04-09 05:00:00,METAR VLLB 090500Z 27004KT 4000 FU NSC 33/22 Q1009 NOSIG
2026-04-09 04:00:00,METAR VLLB 090400Z 22002KT 3000 FU NSC 31/20 Q1010 NOSIG
2026-04-09 03:00:00,METAR VLLB 090300Z 24002KT 3000 FU NSC 30/20 Q1011 NOSIG
2026-04-09 02:00:00,METAR VLLB 090200Z 27002KT 4000 FU NSC 25/20 Q1011 NOSIG
2026-04-09 01:00:00,METAR VLLB 090100Z 27002KT 4000 FU NSC 23/20 Q1011 NOSIG
2026-04-09 00:00:00,METAR VLLB 090000Z 36002KT 3000 FU FEW020 FEW060 21/19 Q1010 NOSIG
2026-04-08 09:00:00,METAR VLLB 080900Z 24006KT 9999 SCT020 BKN060 38/21 Q1004 NOSIG
2026-04-08 08:00:00,METAR VLLB 080800Z 27006KT 8000 SCT020 BKN060 38/23 Q1005 NOSIG
2026-04-08 07:00:00,METAR VLLB 080700Z 27006KT 6000 SCT020 BKN060 38/23 Q1006 NOSIG
2026-04-08 06:00:00,METAR VLLB 080600Z 24004KT 5000 FU FEW020 SCT060 38/23 Q1007 NOSIG
2026-04-08 05:00:00,METAR VLLB 080500Z 27004KT 5000 FU NSC 34/23 Q1008 NOSIG
2026-04-08 04:00:00,METAR VLLB 080400Z 36004KT 4000 FU NSC 32/22 Q1009 NOSIG
2026-04-08 03:00:00,METAR VLLB 080300Z 27004KT 3000 FU FEW020 30/22 Q1010 NOSIG
2026-04-08 02:00:00,METAR VLLB 080200Z 27004KT 3000 FU SCT010 FEW060 27/21 Q1009 NOSIG
2026-04-08 01:00:00,METAR VLLB 080100Z 36002KT 5000 FU NSC 26/21 Q1008 NOSIG
2026-04-08 00:00:00,METAR VLLB 080000Z 00000KT 5000 FU NSC 24/21 Q1008 NOSIG
2026-04-07 12:00:00,METAR VLLB 071200Z 18002KT 5000 TS FEW020CB SCT060 33/23 Q1004 CB S NOSIG
2026-04-07 10:00:00,METAR VLLB 071000Z 24002KT 5000 FU SCT020 38/24 Q1003 NOSIG
2026-04-07 09:00:00,METAR VLLB 070900Z 27002KT 5000 FU SCT020 38/24 Q1003 NOSIG
2026-04-07 08:00:00,METAR VLLB 070800Z 27006KT 5000 FU SCT020 FEW060 38/22 Q1004 NOSIG
2026-04-07 07:00:00,METAR VLLB 070700Z 24006KT 5000 FU FEW020 FEW060 38/22 Q1005 NOSIG
2026-04-07 04:00:00,METAR VLLB 070400Z 27004KT 4000 FU SCT020 FEW060 32/21 Q1008 NOSIG
2026-04-07 02:00:00,METAR VLLB 070200Z 27002KT 4000 FU SCT010 BKN060 28/21 Q1009 NOSIG
2026-04-07 01:00:00,METAR VLLB 070100Z 27002KT 5000 FU FEW020 BKN060 26/21 Q1009 NOSIG
2026-04-07 00:00:00,METAR VLLB 070000Z 04002KT 5000 FU FEW020 FEW060 24/21 Q1008 NOSIG
2026-04-06 12:00:00,METAR VLLB 061200Z 24002KT 3000 FU FEW020 FEW060 35/24 Q1004 NOSIG
2026-04-06 11:00:00,METAR VLLB 061100Z 24002KT 3000 FU FEW020 FEW060 37/24 Q1003 NOSIG
2026-04-06 10:00:00,METAR VLLB 061000Z 24004KT 3000 FU FEW020 FEW060 38/24 Q1002 NOSIG
2026-04-06 09:00:00,METAR VLLB 060900Z 27004KT 3000 FU FEW020 FEW060 39/24 Q1003 NOSIG
2026-04-06 08:00:00,METAR VLLB 060800Z 22004KT 3000 FU FEW020 FEW060 39/24 Q1003 NOSIG
2026-04-06 07:00:00,METAR VLLB 060700Z 27006KT 3000 FU NSC 38/24 Q1005 NOSIG
2026-04-06 06:00:00,METAR VLLB 060600Z 27006KT 3000 FU NSC 38/24 Q1006 NOSIG
2026-04-06 05:00:00,METAR VLLB 060500Z 22006KT 3000 FU FEW020 FEW060 34/22 Q1006 NOSIG
2026-04-06 04:00:00,METAR VLLB 060400Z 27004KT 3000 FU FEW020 34/22 Q1008 NOSIG
2026-04-06 03:00:00,METAR VLLB 060300Z 27004KT 3000 FU FEW020 32/22 Q1008 NOSIG
2026-04-06 02:00:00,METAR VLLB 060200Z 36002KT 3000 FU NSC 26/21 Q1007 NOSIG
2026-04-06 00:00:00,METAR VLLB 060000Z 18002KT 3000 FU SCT010 BKN060 24/20 Q1006 NOSIG
2026-04-05 12:00:00,METAR VLLB 051200Z 22002KT 4000 FU NSC 34/21 Q1002 NOSIG
2026-04-05 11:00:00,METAR VLLB 051100Z 22002KT 3000 FU SCT010 35/21 Q1001 NOSIG
2026-04-05 09:00:00,METAR VLLB 050900Z 27006KT 3000 FU NSC 38/20 Q1001 NOSIG
2026-04-05 08:00:00,METAR VLLB 050800Z 27006KT 3000 FU SCT010 37/21 Q1002 NOSIG
2026-04-05 07:00:00,METAR VLLB 050700Z 27006KT 3000 FU SCT010 37/23 Q1003 NOSIG
2026-04-05 06:00:00,METAR VLLB 050600Z 22004KT 3000 FU SCT010 36/21 Q1004 NOSIG
2026-04-05 03:00:00,METAR VLLB 050300Z 18002KT 2000 FU SCT010 SCT060 28/22 Q1007 NOSIG
2026-04-05 02:00:00,METAR VLLB 050200Z 27002KT 2000 FU SCT010 BKN060 27/21 Q1007 NOSIG
2026-04-05 00:00:00,METAR VLLB 050000Z 24002KT 2000 FU SCT010 BKN060 24/21 Q1006 NOSIG
2026-04-04 12:00:00,METAR VLLB 041200Z 18002KT 3000 FU NSC 33/23 Q1003 NOSIG
2026-04-04 11:00:00,METAR VLLB 041100Z 22002KT 4000 FU FEW020 FEW060 34/24 Q1001 NOSIG
2026-04-04 10:00:00,METAR VLLB 041000Z 27004KT 4000 FU SCT020 SCT060 37/22 Q1001 NOSIG
2026-04-04 08:00:00,METAR VLLB 040800Z 22002KT 4000 FU SCT020 SCT060 37/22 Q1003 NOSIG
2026-04-04 07:00:00,METAR VLLB 040700Z 27004KT 4000 FU SCT020 SCT060 36/22 Q1004 NOSIG
2026-04-04 06:00:00,METAR VLLB 040600Z 27002KT 4000 FU SCT020 FEW060 35/22 Q1005 NOSIG
2026-04-04 05:00:00,METAR VLLB 040500Z 18004KT 3000 FU SCT020 BKN060 31/20 Q1007 NOSIG
2026-04-04 01:00:00,METAR VLLB 040100Z 36002KT 2000 FU FEW010 23/20 Q1007 NOSIG
2026-04-04 00:00:00,METAR VLLB 040000Z 00000KT 2000 FU FEW010 22/20 Q1007 NOSIG
2026-04-03 12:00:00,METAR VLLB 031200Z 24006KT 4000 FU NSC 33/22 Q1004 NOSIG
2026-04-03 11:00:00,METAR VLLB 031100Z 24006KT 4000 FU NSC 37/22 Q1002 NOSIG
2026-04-03 10:00:00,METAR VLLB 031000Z 24006KT 4000 FU NSC 37/22 Q1002 NOSIG
2026-04-03 09:00:00,METAR VLLB 030900Z 27006KT 4000 FU FEW020 FEW060 39/22 Q1002 NOSIG
2026-04-03 08:00:00,METAR VLLB 030800Z 22008KT 5000 FU FEW020 FEW060 38/21 Q1004 NOSIG
2026-04-03 07:00:00,METAR VLLB 030700Z 24004KT 4000 FU FEW020 FEW060 38/21 Q1005 NOSIG
2026-04-03 06:00:00,METAR VLLB 030600Z 24004KT 4000 FU FEW020 FEW060 38/21 Q1006 NOSIG
2026-04-03 05:00:00,METAR VLLB 030500Z 18002KT 3000 FU FEW020 FEW060 31/22 Q1008 NOSIG
2026-04-03 04:00:00,METAR VLLB 030400Z 18002KT 3000 FU NSC 29/21 Q1009 NOSIG
2026-04-03 03:00:00,METAR VLLB 030300Z 27002KT 3000 FU NSC 28/21 Q1010 NOSIG
2026-04-03 01:00:00,METAR VLLB 030100Z 36002KT 3000 FU SCT010 BKN060 26/20 Q1010 NOSIG
2026-04-03 00:00:00,METAR VLLB 030000Z 36002KT 3000 FU SCT010 BKN060 22/20 Q1008 NOSIG
2026-04-02 12:00:00,METAR VLLB 021200Z 27002KT 4000 FU NSC 33/24 Q1006 NOSIG
2026-04-02 10:00:00,METAR VLLB 021000Z 27004KT 4000 FU SCT020 SCT060 36/23 Q1004 NOSIG
2026-04-02 09:00:00,METAR VLLB 020900Z 27006KT 4000 FU SCT020 FEW060 38/23 Q1004 NOSIG
2026-04-02 08:00:00,METAR VLLB 020800Z 27006KT 4000 FU SCT020 FEW060 38/22 Q1006 NOSIG
2026-04-02 07:00:00,METAR VLLB 020700Z 27008KT 4000 FU FEW020 FEW060 38/22 Q1007 NOSIG
2026-04-02 06:00:00,METAR VLLB 020600Z 24004KT 3000 FU NSC 37/22 Q1008 NOSIG
2026-04-02 05:00:00,METAR VLLB 020500Z 22004KT 3000 FU NSC 33/23 Q1008 NOSIG
2026-04-02 04:00:00,METAR VLLB 020400Z 18002KT 3000 FU NSC 30/22 Q1009 NOSIG
2026-04-02 03:00:00,METAR VLLB 020300Z 04004KT 3000 FU NSC 29/22 Q1010 NOSIG
2026-04-02 02:00:00,METAR VLLB 020200Z 36002KT 2000 FU NSC 26/20 Q1010 NOSIG
2026-04-02 01:00:00,METAR VLLB 020100Z 09002KT 2000 FU NSC 24/19 Q1010 NOSIG
2026-04-02 00:00:00,METAR VLLB 020000Z 00000KT 2000 FU SCT010 BKN060 22/20 Q1009 NOSIG
2026-04-01 12:00:00,METAR VLLB 011200Z 27002KT 2000 FU FEW010 32/22 Q1005 NOSIG
2026-04-01 10:00:00,METAR VLLB 011000Z 27004KT 3000 FU NSC 36/22 Q1004 NOSIG
2026-04-01 08:00:00,METAR VLLB 010800Z 27006KT 3000 FU NSC 37/21 Q1006 NOSIG
2026-04-01 07:00:00,METAR VLLB 010700Z 22006KT 3000 FU NSC 36/21 Q1007 NOSIG
2026-04-01 06:00:00,METAR VLLB 010600Z 27006KT 3000 FU NSC 35/21 Q1008 NOSIG
2026-04-01 05:00:00,METAR VLLB 010500Z 27004KT 4000 FU NSC 31/21 Q1009 NOSIG
2026-04-01 04:00:00,METAR VLLB 010400Z 27002KT 4000 FU NSC 29/20 Q1010 NOSIG
2026-04-01 03:00:00,METAR VLLB 010300Z 36002KT 3000 FU NSC 26/19 Q1012 NOSIG
2026-04-01 02:00:00,METAR VLLB 010200Z 27002KT 4000 FU NSC 24/19 Q1012 NOSIG
2026-04-01 01:00:00,METAR VLLB 010100Z 36002KT 4000 FU NSC 22/18 Q1011 NOSIG
2026-04-01 00:00:00,METAR VLLB 010000Z 36002KT 4000 FU FEW020 SCT060 21/19 Q1010 NOSIG
2026-03-31 12:00:00,METAR VLLB 311200Z 18002KT 5000 FU SCT020 SCT060 33/21 Q1006 NOSIG
2026-03-31 11:00:00,METAR VLLB 311100Z 24004KT 5000 FU SCT020 35/22 Q1005 NOSIG
2026-03-31 10:00:00,METAR VLLB 311000Z 27004KT 5000 FU SCT020 36/21 Q1004 NOSIG
2026-03-31 09:00:00,METAR VLLB 310900Z 27004KT 6000 SCT020 FEW060 38/21 Q1004 NOSIG
2026-03-31 08:00:00,METAR VLLB 310800Z 27006KT 6000 SCT020 37/21 Q1005 NOSIG
2026-03-31 07:00:00,METAR VLLB 310700Z 22008KT 5000 FU FEW020 FEW060 37/21 Q1006 NOSIG
2026-03-31 06:00:00,METAR VLLB 310600Z 22008KT 5000 FU FEW020 37/21 Q1007 NOSIG
2026-03-31 05:00:00,METAR VLLB 310500Z 27004KT 5000 FU NSC 32/22 Q1008 NOSIG
2026-03-31 04:00:00,METAR VLLB 310400Z 24004KT 5000 FU NSC 30/20 Q1009 NOSIG
2026-03-31 03:00:00,METAR VLLB 310300Z 22002KT 4000 FU NSC 29/19 Q1010 NOSIG
2026-03-31 02:00:00,METAR VLLB 310200Z 18002KT 3000 FU FEW010 24/20 Q1010 NOSIG
2026-03-31 01:00:00,METAR VLLB 310100Z 22002KT 3000 FU FEW010 23/20 Q1009 NOSIG
2026-03-31 00:00:00,METAR VLLB 310000Z 00000KT 3000 FU SCT010 20/19 Q1009 NOSIG
2026-03-30 12:00:00,METAR VLLB 301200Z 27002KT 8000 SCT010 SCT060 32/23 Q1005 NOSIG
2026-03-30 11:00:00,METAR VLLB 301100Z 22002KT 9999 SCT020 SCT060 34/20 Q1004 NOSIG
2026-03-30 10:00:00,METAR VLLB 301000Z 22004KT 6000 FU NSC 36/21 Q1004 NOSIG
2026-03-30 08:00:00,METAR VLLB 300800Z 27006KT 6000 FU FEW020 FEW060 37/22 Q1005 NOSIG
2026-03-30 07:00:00,METAR VLLB 300700Z 24008KT 6000 FU FEW020 FEW060 37/22 Q1006 NOSIG
2026-03-30 06:00:00,METAR VLLB 300600Z 24006KT 5000 FU NSC 36/22 Q1007 NOSIG
2026-03-30 05:00:00,METAR VLLB 300500Z 27004KT 5000 FU NSC 30/21 Q1008 NOSIG
2026-03-30 04:00:00,METAR VLLB 300400Z 24002KT 5000 FU NSC 28/20 Q1009 NOSIG
2026-03-30 03:00:00,METAR VLLB 300300Z 36004KT 5000 FU NSC 27/20 Q1010 NOSIG
2026-03-30 02:00:00,METAR VLLB 300200Z 04002KT 4000 BR NSC 24/20 Q1010 NOSIG
2026-03-30 01:00:00,METAR VLLB 300100Z 32002KT 5000 BR NSC 22/20 Q1010 NOSIG
2026-03-30 00:00:00,METAR VLLB 300000Z 36002KT 4000 BR FEW010 FEW060 20/20 Q1009 NOSIG
2026-03-29 12:00:00,METAR VLLB 291200Z 27002KT 9999 SCT020 SCT060 29/23 Q1005 NOSIG
2026-03-29 11:00:00,METAR VLLB 291100Z 27002KT 9999 SCT020 FEW060 31/21 Q1005 NOSIG
2026-03-29 10:00:00,METAR VLLB 291000Z 18004KT 9999 SCT020 FEW060 30/21 Q1005 NOSIG
2026-03-29 09:00:00,METAR VLLB 290900Z 18004KT 9999 SCT020 FEW060 30/21 Q1005 NOSIG
2026-03-29 08:00:00,METAR VLLB 290800Z 27004KT 9999 SCT020 SCT060 30/20 Q1006 NOSIG
2026-03-29 07:00:00,METAR VLLB 290700Z 18008KT 9999 SCT010 BKN060 32/22 Q1007 NOSIG
2026-03-29 06:00:00,METAR VLLB 290600Z 24006KT 9999 SCT010 BKN060 36/21 Q1007 NOSIG
2026-03-29 05:00:00,METAR VLLB 290500Z 24004KT CAVOK 33/21 Q1009 NOSIG
2026-03-29 04:00:00,METAR VLLB 290400Z 27004KT CAVOK 31/21 Q1010 NOSIG
2026-03-29 03:00:00,METAR VLLB 290300Z 04002KT CAVOK 29/22 Q1011 NOSIG
2026-03-29 02:00:00,METAR VLLB 290200Z 36002KT 8000 SCT010 BKN060 25/20 Q1011 NOSIG
2026-03-29 01:00:00,METAR VLLB 290100Z 27002KT 8000 SCT010 BKN060 24/20 Q1011 NOSIG
2026-03-29 00:00:00,METAR VLLB 290000Z 18002KT 8000 SCT010 BKN060 22/20 Q1009 NOSIG
2026-03-28 12:00:00,METAR VLLB 281200Z 24002KT 9999 FEW020 FEW060 33/21 Q1004 NOSIG
2026-03-28 11:00:00,METAR VLLB 281100Z 24002KT 9999 FEW020 SCT060 35/21 Q1004 NOSIG
2026-03-28 10:00:00,METAR VLLB 281000Z 27002KT 9999 SCT020 BKN060 38/21 Q1003 NOSIG
2026-03-28 09:00:00,METAR VLLB 280900Z 24006KT 9999 SCT020 BKN060 38/21 Q1003 NOSIG
2026-03-28 08:00:00,METAR VLLB 280800Z 36002KT 6000 FU SCT020 FEW060 38/22 Q1004 NOSIG
2026-03-28 07:00:00,METAR VLLB 280700Z 22006KT 6000 FU FEW020 38/22 Q1005 NOSIG
2026-03-28 06:00:00,METAR VLLB 280600Z 27004KT 5000 FU FEW020 37/22 Q1006 NOSIG
2026-03-28 05:00:00,METAR VLLB 280500Z 20004KT 5000 FU FEW020 31/20 Q1008 NOSIG
2026-03-28 04:00:00,METAR VLLB 280400Z 36002KT 5000 FU NSC 29/19 Q1009 NOSIG
2026-03-28 03:00:00,METAR VLLB 280300Z 18002KT 5000 FU NSC 28/19 Q1010 NOSIG
2026-03-28 02:00:00,METAR VLLB 280200Z 06002KT 5000 FU NSC 23/19 Q1010 NOSIG
2026-03-28 01:00:00,METAR VLLB 280100Z 36002KT 5000 FU NSC 21/18 Q1010 NOSIG
2026-03-28 00:00:00,METAR VLLB 280000Z 36002KT 4000 FU NSC 20/18 Q1009 NOSIG
2026-03-25 12:00:00,METAR VLLB 251200Z 27002KT 9999 SCT010 32/22 Q1006 NOSIG
2026-03-25 11:00:00,METAR VLLB 251100Z 27002KT 9999 SCT020 35/20 Q1005 NOSIG
2026-03-25 10:00:00,METAR VLLB 251000Z 24004KT 9999 SCT020 37/22 Q1005 NOSIG
2026-03-25 08:00:00,METAR VLLB 250800Z 27006KT 9999 SCT020 38/22 Q1006 NOSIG
2026-03-25 07:00:00,METAR VLLB 250700Z 22004KT 9999 SCT020 FEW060 37/22 Q1007 NOSIG
2026-03-25 06:00:00,METAR VLLB 250600Z 27004KT 9999 FEW020 FEW060 36/22 Q1008 NOSIG
2026-03-25 05:00:00,METAR VLLB 250500Z 27004KT 7000 FEW020 32/20 Q1009 NOSIG
2026-03-25 04:00:00,METAR VLLB 250400Z 27002KT CAVOK 30/19 Q1010 NOSIG
2026-03-25 03:00:00,METAR VLLB 250300Z 04004KT CAVOK 28/19 Q1011 NOSIG
2026-03-25 02:00:00,METAR VLLB 250200Z 36004KT CAVOK 23/18 Q1010 NOSIG
2026-03-25 01:00:00,METAR VLLB 250100Z 32002KT CAVOK 21/18 Q1009 NOSIG
2026-03-25 00:00:00,METAR VLLB 250000Z 09002KT CAVOK 20/17 Q1009 NOSIG
2026-03-24 12:00:00,METAR VLLB 241200Z 27002KT 9999 FEW020 32/23 Q1005 NOSIG
2026-03-24 11:00:00,METAR VLLB 241100Z 22002KT 9999 FEW020 35/22 Q1004 NOSIG
2026-03-24 10:00:00,METAR VLLB 241000Z 27004KT 9999 FEW020 37/20 Q1004 NOSIG
2026-03-24 09:00:00,METAR VLLB 240900Z 24006KT 9999 FEW020 38/19 Q1005 NOSIG
2026-03-24 08:00:00,METAR VLLB 240800Z 24006KT 9999 FEW020 38/20 Q1005 NOSIG
2026-03-24 05:00:00,METAR VLLB 240500Z 27004KT 9999 FEW020 32/20 Q1009 NOSIG
2026-03-24 04:00:00,METAR VLLB 240400Z 27004KT 9999 FEW020 30/19 Q1010 NOSIG
2026-03-24 03:00:00,METAR VLLB 240300Z 36002KT CAVOK 28/19 Q1011 NOSIG
2026-03-24 02:00:00,METAR VLLB 240200Z 36002KT CAVOK 20/18 Q1010 NOSIG
2026-03-24 01:00:00,METAR VLLB 240100Z 36002KT CAVOK 20/18 Q1010 NOSIG
2026-03-24 00:00:00,METAR VLLB 240000Z 36002KT CAVOK 19/17 Q1010 NOSIG
2026-03-23 11:00:00,METAR VLLB 231100Z 22004KT 9999 SCT020 SCT060 34/20 Q1005 NOSIG
2026-03-23 10:00:00,METAR VLLB 231000Z 27004KT 9999 SCT020 35/18 Q1005 NOSIG
2026-03-23 08:00:00,METAR VLLB 230800Z 27006KT 9999 SCT020 SCT060 35/18 Q1006 NOSIG
2026-03-23 07:00:00,METAR VLLB 230700Z 27006KT 9999 SCT020 35/21 Q1007 NOSIG
2026-03-23 06:00:00,METAR VLLB 230600Z 27006KT 9999 SCT020 34/20 Q1008 NOSIG
2026-03-23 04:00:00,METAR VLLB 230400Z 22004KT 9999 SCT020 30/22 Q1012 NOSIG
2026-03-23 03:00:00,METAR VLLB 230300Z 27002KT 9999 FEW020 28/20 Q1012 NOSIG
2026-03-23 01:00:00,METAR VLLB 230100Z 36002KT CAVOK 24/20 Q1012 NOSIG
2026-03-23 00:00:00,METAR VLLB 230000Z 00000KT CAVOK 22/20 Q1011 NOSIG
2026-03-22 11:00:00,METAR VLLB 221100Z 24006KT 9999 SCT020 FEW060 33/22 Q1007 NOSIG
2026-03-22 10:00:00,METAR VLLB 221000Z 24006KT 9999 SCT020 FEW060 35/22 Q1007 NOSIG
2026-03-22 08:00:00,METAR VLLB 220800Z 24006KT 9999 SCT020 FEW060 34/22 Q1007 NOSIG
2026-03-22 06:00:00,METAR VLLB 220600Z 18004KT 9999 SCT010 BKN060 33/23 Q1010 NOSIG
2026-03-22 05:00:00,METAR VLLB 220500Z 09004KT 9999 BKN010 SCT060 32/20 Q1011 NOSIG
2026-03-22 04:00:00,METAR VLLB 220400Z 22004KT 9999 BKN010 SCT060 31/21 Q1012 NOSIG
2026-03-22 03:00:00,METAR VLLB 220300Z 27004KT 9999 SCT020 SCT060 29/21 Q1012 NOSIG
2026-03-22 02:00:00,METAR VLLB 220200Z 27002KT 9999 FEW020 24/19 Q1012 NOSIG
2026-03-22 01:00:00,METAR VLLB 220100Z 09002KT 9999 SCT010 BKN080 23/21 Q1012 NOSIG
2026-03-22 00:00:00,METAR VLLB 220000Z 00000KT 9999 SCT010 BKN080 22/20 Q1011 NOSIG
2026-03-21 12:00:00,METAR VLLB 211200Z 27004KT 9999 SCT010 BKN060 32/23 Q1007 NOSIG
2026-03-21 11:00:00,METAR VLLB 211100Z 27004KT 9999 SCT020 BKN080 33/20 Q1006 NOSIG
2026-03-21 10:00:00,METAR VLLB 211000Z 22006KT 9999 SCT020 BKN080 34/20 Q1006 NOSIG
2026-03-21 08:00:00,METAR VLLB 210800Z 22004KT 9999 SCT020 BKN080 34/20 Q1007 NOSIG
2026-03-21 06:00:00,METAR VLLB 210600Z 27004KT 9999 SCT020 BKN080 33/21 Q1010 NOSIG
2026-03-21 04:00:00,METAR VLLB 210400Z 27002KT 9999 SCT020 BKN080 28/21 Q1012 NOSIG
2026-03-21 03:00:00,METAR VLLB 210300Z 27004KT 9999 SCT020 BKN080 26/20 Q1013 NOSIG
2026-03-21 02:00:00,METAR VLLB 210200Z 09002KT 9999 FEW020 24/20 Q1013 NOSIG
2026-03-21 01:00:00,METAR VLLB 210100Z 27002KT 9999 FEW020 BKN050 22/19 Q1013 NOSIG
2026-03-21 00:00:00,METAR VLLB 210000Z 00000KT 9999 FEW050 20/18 Q1012 NOSIG
2026-03-20 09:00:00,METAR VLLB 200900Z 27004KT 9999 FEW020 FEW060 36/21 Q1006 NOSIG
2026-03-20 08:00:00,METAR VLLB 200800Z 24004KT 9999 FEW020 FEW060 36/20 Q1008 NOSIG
2026-03-20 06:00:00,METAR VLLB 200600Z 27004KT 9999 FEW020 31/21 Q1010 NOSIG
2026-03-20 05:00:00,METAR VLLB 200500Z 27004KT CAVOK 30/19 Q1011 NOSIG
2026-03-20 04:00:00,METAR VLLB 200400Z 36004KT CAVOK 28/18 Q1012 NOSIG
2026-03-20 01:00:00,METAR VLLB 200100Z 27002KT CAVOK 20/19 Q1011 NOSIG
2026-03-20 00:00:00,METAR VLLB 200000Z 18002KT 9999 FEW010 18/18 Q1011 NOSIG
2026-03-19 12:00:00,METAR VLLB 191200Z 22002KT 9999 FEW020 30/22 Q1006 NOSIG
2026-03-19 11:00:00,METAR VLLB 191100Z 27002KT 9999 FEW020 33/21 Q1005 NOSIG
2026-03-19 10:00:00,METAR VLLB 191000Z 24004KT 9999 FEW020 FEW060 36/20 Q1005 NOSIG
2026-03-19 09:00:00,METAR VLLB 190900Z 27006KT 9999 SCT020 FEW060 36/20 Q1005 NOSIG
2026-03-19 08:00:00,METAR VLLB 190800Z 24006KT 9999 SCT020 FEW060 36/21 Q1008 NOSIG
2026-03-19 07:00:00,METAR VLLB 190700Z 27004KT 9999 SCT020 FEW060 35/21 Q1009 NOSIG
2026-03-19 06:00:00,METAR VLLB 190600Z 27004KT 9999 SCT020 34/21 Q1010 NOSIG
2026-03-19 05:00:00,METAR VLLB 190500Z 24004KT 9999 FEW020 29/20 Q1012 NOSIG
2026-03-19 04:00:00,METAR VLLB 190400Z 04004KT CAVOK 26/19 Q1013 NOSIG
2026-03-19 03:00:00,METAR VLLB 190300Z 36002KT CAVOK 25/19 Q1014 NOSIG
2026-03-19 02:00:00,METAR VLLB 190200Z 36002KT 9999 FEW020 FEW060 21/19 Q1015 NOSIG
2026-03-19 01:00:00,METAR VLLB 190100Z 36002KT 5000 BR SCT010 SCT060 20/19 Q1014 NOSIG
2026-03-19 00:00:00,METAR VLLB 190000Z 36002KT 4000 BR SCT010 BKN080 19/19 Q1013 NOSIG
2026-03-18 12:00:00,METAR VLLB 181200Z 36002KT 9999 FEW020 FEW060 25/19 Q1010 NOSIG
2026-03-18 10:00:00,METAR VLLB 181000Z 36002KT 9999 SCT020 SCT060 33/20 Q1009 NOSIG
2026-03-18 09:00:00,METAR VLLB 180900Z 24004KT 9999 SCT020 SCT060 34/21 Q1008 NOSIG
2026-03-18 08:00:00,METAR VLLB 180800Z 27006KT 9999 SCT020 34/20 Q1009 NOSIG
2026-03-18 07:00:00,METAR VLLB 180700Z 27004KT 9999 FEW020 34/21 Q1010 NOSIG
2026-03-18 06:00:00,METAR VLLB 180600Z 22004KT 9999 FEW020 33/21 Q1012 NOSIG
2026-03-18 05:00:00,METAR VLLB 180500Z 22004KT 9999 FEW020 30/18 Q1013 NOSIG
2026-03-18 04:00:00,METAR VLLB 180400Z 36002KT CAVOK 27/18 Q1014 NOSIG
2026-03-18 03:00:00,METAR VLLB 180300Z 27004KT CAVOK 25/18 Q1015 NOSIG
2026-03-18 02:00:00,METAR VLLB 180200Z 04002KT CAVOK 23/19 Q1015 NOSIG
2026-03-18 01:00:00,METAR VLLB 180100Z 36002KT 9999 SCT020 20/18 Q1014 NOSIG
2026-03-18 00:00:00,METAR VLLB 180000Z 04002KT 9999 FEW020 18/18 Q1013 NOSIG
2026-03-17 12:00:00,METAR VLLB 171200Z 27004KT 9999 SCT020 BKN060 27/21 Q1008 NOSIG
2026-03-17 11:00:00,METAR VLLB 171100Z 27008KT 9999 SCT020 BKN060 30/19 Q1007 NOSIG
2026-03-17 10:00:00,METAR VLLB 171000Z 14004KT 9999 SCT020 SCT060 31/20 Q1007 NOSIG
2026-03-17 09:00:00,METAR VLLB 170900Z 22004KT 9999 SCT020 BKN060 33/21 Q1008 NOSIG
2026-03-17 08:00:00,METAR VLLB 170800Z 22004KT 9999 SCT020 BKN060 30/21 Q1009 NOSIG
2026-03-17 07:00:00,METAR VLLB 170700Z 22004KT 9999 SCT020 32/19 Q1010 NOSIG
2026-03-17 06:00:00,METAR VLLB 170600Z 22004KT 9999 FEW020 29/20 Q1012 NOSIG
2026-03-17 05:00:00,METAR VLLB 170500Z 22004KT 9999 FEW020 29/20 Q1012 NOSIG
2026-03-17 04:00:00,METAR VLLB 170400Z 27002KT CAVOK 27/21 Q1013 NOSIG
2026-03-17 03:00:00,METAR VLLB 170300Z 27002KT CAVOK 26/20 Q1014 NOSIG
2026-03-17 02:00:00,METAR VLLB 170200Z 32002KT CAVOK 21/18 Q1014 NOSIG
2026-03-17 01:00:00,METAR VLLB 170100Z 36002KT CAVOK 20/18 Q1014 NOSIG
2026-03-17 00:00:00,METAR VLLB 170000Z 36002KT 9999 FEW050 18/18 Q1013 NOSIG
2026-03-16 12:00:00,METAR VLLB 161200Z 36002KT 9999 FEW020 FEW060 29/21 Q1010 NOSIG
2026-03-16 11:00:00,METAR VLLB 161100Z 27004KT 9999 SCT020 SCT060 30/20 Q1010 NOSIG
2026-03-16 10:00:00,METAR VLLB 161000Z 24002KT 9999 SCT020 BKN060 31/20 Q1010 NOSIG
2026-03-16 09:00:00,METAR VLLB 160900Z 24006KT 9999 SCT020 FEW060 32/20 Q1010 NOSIG
2026-03-16 07:00:00,METAR VLLB 160700Z 27006KT 9999 SCT020 FEW060 30/19 Q1012 NOSIG
2026-03-16 06:00:00,METAR VLLB 160600Z 27006KT 9999 SCT020 FEW060 30/19 Q1014 NOSIG
2026-03-16 05:00:00,METAR VLLB 160500Z 24004KT 9999 SCT020 FEW060 29/18 Q1015 NOSIG
2026-03-16 04:00:00,METAR VLLB 160400Z 36004KT 9999 FEW010 FEW060 27/18 Q1016 NOSIG
2026-03-16 03:00:00,METAR VLLB 160300Z 36006KT 9999 SCT010 BKN080 27/17 Q1017 NOSIG
2026-03-16 02:00:00,METAR VLLB 160200Z 09006KT 9999 SCT010 BKN080 22/19 Q1016 NOSIG
2026-03-16 00:00:00,METAR VLLB 160000Z 00000KT 9999 SCT010 BKN060 20/19 Q1015 NOSIG
2026-03-15 12:00:00,METAR VLLB 151200Z 27002KT 9999 SCT010 26/21 Q1013 NOSIG
2026-03-15 10:00:00,METAR VLLB 151000Z 32002KT 9999 TS FEW020CB BKN060 28/18 Q1012 CB S NOSIG
