Time_recorded,METAR
2026-04-30 15:00:00,METAR VTSP 301500Z 06005KT 010V090 9999 FEW020 SCT040 30/25 Q1011 NOSIG
2026-04-30 14:30:00,METAR VTSP 301430Z 06003KT 350V110 9999 FEW020CB SCT040 30/25 Q1010 NOSIG
2026-04-30 14:00:00,METAR VTSP 301400Z 33003KT 290V020 9999 FEW020CB SCT040 30/26 Q1010 TEMPO FM1420 TL1450 3000 RA
2026-04-30 13:30:00,METAR VTSP 301330Z 30005KT 9999 FEW020 30/26 Q1009 NOSIG
2026-04-30 13:00:00,METAR VTSP 301300Z 29007KT 9999 FEW020 30/26 Q1008 NOSIG
2026-04-30 12:30:00,METAR VTSP 301230Z 29006KT 9999 FEW020 30/26 Q1008 NOSIG
2026-04-30 12:00:00,METAR VTSP 301200Z 29007KT 9999 FEW020 30/26 Q1007 NOSIG
2026-04-30 11:30:00,METAR VTSP 301130Z 28008KT 9999 FEW020 31/26 Q1007 NOSIG
2026-04-30 11:00:00,METAR VTSP 301100Z 27009KT 9999 FEW020 31/27 Q1007 NOSIG
2026-04-30 10:30:00,METAR VTSP 301030Z 28010KT 9999 FEW020 32/26 Q1007 NOSIG
2026-04-30 10:00:00,METAR VTSP 301000Z 27011KT 9999 FEW020 32/26 Q1006 NOSIG
2026-04-30 09:30:00,METAR VTSP 300930Z 27011KT 9999 FEW020 33/26 Q1006 NOSIG
2026-04-30 09:00:00,METAR VTSP 300900Z 27013KT 9999 FEW020 33/26 Q1007 NOSIG
2026-04-30 08:30:00,METAR VTSP 300830Z VRB05KT 9999 FEW020 35/22 Q1007 WS ALL RWY NOSIG
2026-04-30 08:00:00,METAR VTSP 300800Z 22009KT 170V310 9999 FEW020 33/26 Q1007 WS ALL RWY NOSIG
2026-04-30 07:30:00,METAR VTSP 300730Z 16004KT 100V210 9999 FEW020 35/22 Q1007 NOSIG
2026-04-30 07:00:00,METAR VTSP 300700Z 09007KT 040V150 9999 FEW020 35/21 Q1008 NOSIG
2026-04-30 06:30:00,METAR VTSP 300630Z 09008KT 060V140 9999 FEW020 35/22 Q1008 NOSIG
2026-04-30 06:00:00,METAR VTSP 300600Z 08007KT 020V120 9999 FEW020 35/23 Q1009 NOSIG
2026-04-30 05:30:00,METAR VTSP 300530Z 08009KT 040V100 9999 FEW020 35/24 Q1009 NOSIG
2026-04-30 05:00:00,METAR VTSP 300500Z VRB06KT 9999 FEW020 34/24 Q1010 NOSIG
2026-04-30 04:30:00,METAR VTSP 300430Z 09007KT 040V130 9999 FEW020 34/24 Q1010 NOSIG
2026-04-30 04:00:00,METAR VTSP 300400Z 09010KT 060V130 9999 FEW020 33/25 Q1010 NOSIG
2026-04-30 03:30:00,METAR VTSP 300330Z 08009KT 030V130 9999 FEW020 33/25 Q1010 NOSIG
2026-04-30 03:00:00,METAR VTSP 300300Z 08010KT 050V120 9999 FEW020 33/25 Q1011 NOSIG
2026-04-30 02:30:00,METAR VTSP 300230Z 08010KT 030V100 9999 FEW020 32/25 Q1011 NOSIG
2026-04-30 02:00:00,METAR VTSP 300200Z 08011KT 030V100 9999 FEW020 31/25 Q1011 NOSIG
2026-04-30 01:30:00,METAR VTSP 300130Z 07006KT 010V100 9999 FEW020 30/25 Q1010 NOSIG
2026-04-30 01:00:00,METAR VTSP 300100Z 07005KT 010V110 9999 FEW020 30/25 Q1010 NOSIG
2026-04-30 00:30:00,METAR VTSP 300030Z 08007KT 060V130 9999 FEW020 28/26 Q1009 NOSIG
2026-04-30 00:00:00,METAR VTSP 300000Z 11003KT 070V140 9999 FEW020 28/26 Q1009 NOSIG
2026-04-29 23:30:00,METAR VTSP 292330Z VRB02KT 9999 FEW020 26/25 Q1008 NOSIG
2026-04-29 23:00:00,METAR VTSP 292300Z 09003KT 9999 FEW020 27/25 Q1007 NOSIG
2026-04-29 22:30:00,METAR VTSP 292230Z 07004KT 9999 FEW020 27/25 Q1007 NOSIG
2026-04-29 22:00:00,METAR VTSP 292200Z 08003KT 030V130 9999 FEW020 27/25 Q1007 NOSIG
2026-04-29 21:30:00,METAR VTSP 292130Z 09006KT 9999 FEW020 27/25 Q1007 NOSIG
2026-04-29 21:00:00,METAR VTSP 292100Z 08006KT 9999 FEW020 28/25 Q1007 NOSIG
2026-04-29 20:30:00,METAR VTSP 292030Z 09004KT 9999 FEW020 27/25 Q1007 NOSIG
2026-04-29 20:00:00,METAR VTSP 292000Z 08004KT 9999 FEW020 28/25 Q1007 NOSIG
2026-04-29 19:30:00,METAR VTSP 291930Z 09006KT 9999 FEW020 27/25 Q1007 NOSIG
2026-04-29 19:00:00,METAR VTSP 291900Z 09005KT 9999 FEW020 28/25 Q1007 NOSIG
2026-04-29 18:30:00,METAR VTSP 291830Z 10004KT 9999 FEW020 28/25 Q1008 NOSIG
2026-04-29 18:00:00,METAR VTSP 291800Z 08004KT 9999 FEW020 28/25 Q1009 NOSIG
2026-04-29 17:30:00,METAR VTSP 291730Z 07003KT 030V120 9999 FEW020 28/25 Q1009 NOSIG
2026-04-29 17:00:00,METAR VTSP 291700Z 07004KT 010V110 9999 FEW020 28/25 Q1010 NOSIG
2026-04-29 16:30:00,METAR VTSP 291630Z 09009KT 9999 FEW020 28/24 Q1010 NOSIG
2026-04-29 16:00:00,METAR VTSP 291600Z 11004KT 9999 FEW020 28/25 Q1010 NOSIG
2026-04-29 15:30:00,METAR VTSP 291530Z 09006KT 9999 FEW020 29/24 Q1010 NOSIG
2026-04-29 15:00:00,METAR VTSP 291500Z 11004KT 080V150 9999 FEW020 29/24 Q1010 NOSIG
2026-04-29 14:30:00,METAR VTSP 291430Z VRB03KT 9999 FEW020 28/24 Q1009 NOSIG
2026-04-29 14:00:00,METAR VTSP 291400Z 09005KT 050V120 9999 FEW020 28/24 Q1009 NOSIG
2026-04-29 13:30:00,METAR VTSP 291330Z 09007KT 9999 FEW018CB SCT030 29/23 Q1008 RETS NOSIG
2026-04-29 13:00:00,METAR VTSP 291300Z 06003KT 340V090 9999 TS VCSH FEW018CB SCT020 30/26 Q1008 TEMPO FM1320 TL1400 3000 TSRA
2026-04-29 12:30:00,METAR VTSP 291230Z VRB03KT 9999 VCTS FEW018CB SCT020 30/26 Q1008 TEMPO FM1315 TL1350 3000 TSRA
2026-04-29 12:00:00,METAR VTSP 291200Z 29005KT 260V320 9999 FEW020 30/26 Q1007 NOSIG
2026-04-29 11:30:00,METAR VTSP 291130Z 29007KT 260V330 9999 SCT020 31/26 Q1007 NOSIG
2026-04-29 11:00:00,METAR VTSP 291100Z 28008KT 9999 SCT020 31/26 Q1006 NOSIG
2026-04-29 10:30:00,METAR VTSP 291030Z 28009KT 9999 BKN020 31/26 Q1006 NOSIG
2026-04-29 10:00:00,METAR VTSP 291000Z 28009KT 250V310 9999 BKN020 32/26 Q1006 NOSIG
2026-04-29 09:30:00,METAR VTSP 290930Z 28010KT 9999 FEW020 32/26 Q1006 NOSIG
2026-04-29 09:00:00,METAR VTSP 290900Z 28010KT 250V310 9999 FEW020 33/26 Q1006 NOSIG
2026-04-29 08:30:00,METAR VTSP 290830Z 27009KT 230V300 9999 FEW020 33/26 Q1007 NOSIG
2026-04-29 08:00:00,METAR VTSP 290800Z 28010KT 250V310 9999 FEW020 33/26 Q1007 NOSIG
2026-04-29 07:30:00,METAR VTSP 290730Z 28010KT 260V320 9999 SCT020 33/26 Q1007 NOSIG
2026-04-29 07:00:00,METAR VTSP 290700Z 28009KT 230V310 9999 SCT020 33/26 Q1008 NOSIG
2026-04-29 06:30:00,METAR VTSP 290630Z 28009KT 250V310 9999 FEW020 33/26 Q1008 NOSIG
2026-04-29 06:00:00,METAR VTSP 290600Z VRB05KT 9999 FEW020 34/25 Q1009 NOSIG
2026-04-29 05:30:00,METAR VTSP 290530Z VRB04KT 9999 SCT020 34/27 Q1009 WS ALL RWY NOSIG
2026-04-29 05:00:00,METAR VTSP 290500Z 08006KT 330V140 9999 FEW020 35/24 Q1009 NOSIG
2026-04-29 04:30:00,METAR VTSP 290430Z 08007KT 360V120 9999 FEW020 34/24 Q1010 NOSIG
2026-04-29 04:00:00,METAR VTSP 290400Z 08008KT 040V100 9999 FEW020 33/24 Q1010 NOSIG
2026-04-29 03:30:00,METAR VTSP 290330Z 08008KT 040V140 9999 FEW020 32/25 Q1010 NOSIG
2026-04-29 03:00:00,METAR VTSP 290300Z 08008KT 060V120 9999 FEW020 32/26 Q1010 NOSIG
2026-04-29 02:30:00,METAR VTSP 290230Z 09007KT 050V130 9999 FEW020 31/26 Q1010 NOSIG
2026-04-29 02:00:00,METAR VTSP 290200Z 09007KT 050V130 9999 FEW020 30/26 Q1010 NOSIG
2026-04-29 01:30:00,METAR VTSP 290130Z 09005KT 050V130 9999 FEW020 30/27 Q1010 NOSIG
2026-04-29 01:00:00,METAR VTSP 290100Z 06004KT 030V090 9999 FEW020 29/26 Q1010 NOSIG
2026-04-29 00:30:00,METAR VTSP 290030Z 12003KT 070V150 9999 FEW020 28/26 Q1009 NOSIG
2026-04-29 00:00:00,METAR VTSP 290000Z VRB02KT 9999 FEW020 27/26 Q1009 NOSIG
2026-04-28 23:30:00,METAR VTSP 282330Z 16003KT 9999 FEW020 27/26 Q1008 NOSIG
2026-04-28 23:00:00,METAR VTSP 282300Z 09003KT 9999 FEW020 27/26 Q1008 NOSIG
2026-04-28 22:30:00,METAR VTSP 282230Z 07005KT 9999 FEW020 27/25 Q1008 NOSIG
2026-04-28 22:00:00,METAR VTSP 282200Z 09003KT 9999 FEW020 27/26 Q1008 NOSIG
2026-04-28 21:30:00,METAR VTSP 282130Z 10004KT 9999 FEW020 27/25 Q1007 NOSIG
2026-04-28 21:00:00,METAR VTSP 282100Z 11003KT 080V150 9999 FEW020 27/24 Q1007 NOSIG
2026-04-28 20:30:00,METAR VTSP 282030Z 00000KT 9999 FEW020 27/25 Q1008 NOSIG
2026-04-28 20:00:00,METAR VTSP 282000Z VRB01KT 9999 FEW020 26/25 Q1008 NOSIG
2026-04-28 19:30:00,METAR VTSP 281930Z 13002KT 9999 FEW020 27/25 Q1008 NOSIG
2026-04-28 19:00:00,METAR VTSP 281900Z VRB01KT 9999 FEW020 27/25 Q1008 NOSIG
2026-04-28 18:30:00,METAR VTSP 281830Z 13003KT 090V150 9999 FEW020 28/25 Q1008 NOSIG
2026-04-28 18:00:00,METAR VTSP 281800Z 13003KT 090V190 9999 FEW020 28/24 Q1008 NOSIG
2026-04-28 17:30:00,METAR VTSP 281730Z 34004KT 9999 FEW020 27/24 Q1009 NOSIG
2026-04-28 17:00:00,METAR VTSP 281700Z 31005KT 270V020 9999 FEW020 27/25 Q1009 NOSIG
2026-04-28 16:30:00,METAR VTSP 281630Z VRB01KT 9999 FEW020 28/25 Q1009 RETS NOSIG
2026-04-28 16:00:00,METAR VTSP 281600Z 31008KT 260V350 9999 TS FEW020CB SCT070 28/25 Q1010 NOSIG
2026-04-28 15:30:00,METAR VTSP 281530Z 11004KT 050V210 9999 -TSRA FEW020CB SCT040 29/27 Q1009 NOSIG
2026-04-28 15:00:00,METAR VTSP 281500Z VRB01KT 9999 -RA FEW020CB SCT040 29/25 Q1009 NOSIG
2026-04-28 14:30:00,METAR VTSP 281430Z VRB04KT 9000 4000W -RA FEW012 FEW020CB SCT040 26/25 Q1009 TEMPO TL1450 1000 +RA
2026-04-28 14:00:00,METAR VTSP 281400Z 11005KT 9999 FEW020 SCT040 30/26 Q1008 NOSIG
2026-04-28 13:30:00,METAR VTSP 281330Z VRB02KT 9999 FEW020 SCT050 31/26 Q1007 NOSIG
2026-04-28 13:00:00,METAR VTSP 281300Z VRB02KT 9999 VCSH FEW018CB SCT030 30/26 Q1007 RETS TEMPO TL1330 5000 TSRA
2026-04-28 12:30:00,METAR VTSP 281230Z VRB04KT 9999 TS VCSH FEW018CB SCT030 30/26 Q1007 TEMPO TL1330 10015G25KT 3000 TSRA
2026-04-28 12:00:00,METAR VTSP 281200Z VRB03KT 9999 TS VCSH FEW018CB SCT030 31/26 Q1007 NOSIG
2026-04-28 11:30:00,METAR VTSP 281130Z 29006KT 260V330 9999 SCT020 31/26 Q1006 NOSIG
2026-04-28 11:00:00,METAR VTSP 281100Z 28008KT 9999 SCT020 31/26 Q1006 NOSIG
2026-04-28 10:30:00,METAR VTSP 281030Z 28009KT 9999 SCT020 31/26 Q1006 NOSIG
2026-04-28 10:00:00,METAR VTSP 281000Z 28009KT 9999 FEW020 32/26 Q1005 NOSIG
2026-04-28 09:30:00,METAR VTSP 280930Z 26011KT 9999 FEW020 33/26 Q1005 NOSIG
2026-04-28 09:00:00,METAR VTSP 280900Z 27011KT 9999 FEW020 32/26 Q1006 NOSIG
2026-04-28 08:30:00,METAR VTSP 280830Z 26012KT 210V290 9999 FEW020 32/26 Q1006 NOSIG
2026-04-28 08:00:00,METAR VTSP 280800Z 26012KT 220V280 9999 FEW020 33/26 Q1006 NOSIG
2026-04-28 07:30:00,METAR VTSP 280730Z 27012KT 9999 FEW020 33/26 Q1007 NOSIG
2026-04-28 07:00:00,METAR VTSP 280700Z 27009KT 230V290 9999 FEW020 34/25 Q1007 NOSIG
2026-04-28 06:30:00,METAR VTSP 280630Z 07007KT 9999 FEW020 34/24 Q1007 WS ALL RWY NOSIG
2026-04-28 06:00:00,METAR VTSP 280600Z VRB07KT 9999 FEW020 35/25 Q1008 WS ALL RWY NOSIG
2026-04-28 05:30:00,METAR VTSP 280530Z 08008KT 020V110 9999 FEW020 35/25 Q1008 NOSIG
2026-04-28 05:00:00,METAR VTSP 280500Z 08006KT 020V120 9999 FEW020 35/26 Q1008 NOSIG
2026-04-28 04:30:00,METAR VTSP 280430Z 08006KT 040V130 9999 FEW020 34/25 Q1009 NOSIG
2026-04-28 04:00:00,METAR VTSP 280400Z 09006KT 040V120 9999 FEW020 34/25 Q1009 NOSIG
2026-04-28 03:30:00,METAR VTSP 280330Z 07005KT 010V130 9999 FEW020 33/25 Q1009 NOSIG
2026-04-28 03:00:00,METAR VTSP 280300Z 09007KT 050V130 9999 FEW020 32/25 Q1009 NOSIG
2026-04-28 02:30:00,METAR VTSP 280230Z 08007KT 020V120 9999 FEW020 32/25 Q1009 NOSIG
2026-04-28 02:00:00,METAR VTSP 280200Z 09005KT 040V120 9999 FEW020 31/25 Q1009 NOSIG
2026-04-28 01:30:00,METAR VTSP 280130Z 07006KT 020V100 9999 FEW020 30/25 Q1009 NOSIG
2026-04-28 01:00:00,METAR VTSP 280100Z 07005KT 020V090 9999 FEW020 30/25 Q1009 NOSIG
2026-04-28 00:30:00,METAR VTSP 280030Z VRB02KT 9999 FEW020 29/27 Q1009 NOSIG
2026-04-28 00:00:00,METAR VTSP 280000Z VRB02KT 9999 FEW020 27/26 Q1008 NOSIG
2026-04-27 23:30:00,METAR VTSP 272330Z VRB02KT 9999 FEW020 26/25 Q1008 NOSIG
2026-04-27 23:00:00,METAR VTSP 272300Z VRB02KT 9999 FEW020 26/25 Q1008 NOSIG
2026-04-27 22:30:00,METAR VTSP 272230Z VRB02KT 9999 FEW020 26/25 Q1007 NOSIG
2026-04-27 22:00:00,METAR VTSP 272200Z VRB02KT 9999 FEW020 26/26 Q1007 NOSIG
2026-04-27 21:30:00,METAR VTSP 272130Z 00000KT 9999 FEW020 26/26 Q1007 NOSIG
2026-04-27 21:00:00,METAR VTSP 272100Z VRB02KT 9999 FEW020 26/26 Q1007 NOSIG
2026-04-27 20:30:00,METAR VTSP 272030Z 08002KT 9999 FEW020 26/26 Q1006 NOSIG
2026-04-27 20:00:00,METAR VTSP 272000Z VRB02KT 9999 FEW020 27/26 Q1006 NOSIG
2026-04-27 19:30:00,METAR VTSP 271930Z 12004KT 9999 FEW020 27/26 Q1007 NOSIG
2026-04-27 19:00:00,METAR VTSP 271900Z VRB02KT 9999 FEW020 27/26 Q1007 NOSIG
2026-04-27 18:30:00,METAR VTSP 271830Z 10003KT 060V120 9999 FEW020 27/26 Q1007 NOSIG
2026-04-27 18:00:00,METAR VTSP 271800Z 11002KT 9999 FEW020 27/26 Q1008 NOSIG
2026-04-27 17:30:00,METAR VTSP 271730Z 00000KT 9999 FEW020 27/26 Q1009 NOSIG
2026-04-27 17:00:00,METAR VTSP 271700Z 09005KT 050V120 9999 FEW020 27/26 Q1009 NOSIG
2026-04-27 16:30:00,METAR VTSP 271630Z 10003KT 040V130 9999 FEW020 27/26 Q1009 NOSIG
2026-04-27 16:00:00,METAR VTSP 271600Z 05003KT 310V110 9999 FEW020 SCT050 27/26 Q1009 NOSIG
2026-04-27 15:30:00,METAR VTSP 271530Z VRB02KT 9999 -RA FEW020 SCT080 27/26 Q1009 NOSIG
2026-04-27 15:00:00,METAR VTSP 271500Z VRB02KT 9999 -RA FEW020 28/24 Q1009 NOSIG
2026-04-27 14:30:00,METAR VTSP 271430Z VRB02KT 9999 FEW020 SCT050 29/24 Q1009 NOSIG
2026-04-27 14:00:00,METAR VTSP 271400Z VRB02KT 9999 FEW018CB SCT040 29/25 Q1009 NOSIG
2026-04-27 13:30:00,METAR VTSP 271330Z VRB02KT 9999 FEW018CB SCT020 29/24 Q1008 NOSIG
2026-04-27 13:00:00,METAR VTSP 271300Z VRB02KT 9999 FEW020 29/26 Q1008 RETS NOSIG
2026-04-27 12:30:00,METAR VTSP 271230Z 31005KT 280V340 9999 TS VCSH FEW020CB SCT030 30/26 Q1008 NOSIG
2026-04-27 12:00:00,METAR VTSP 271200Z VRB02KT 9999 TS VCSH FEW020CB SCT030 31/25 Q1007 NOSIG
2026-04-27 11:30:00,METAR VTSP 271130Z 26004KT 220V290 9999 VCSH FEW020 31/25 Q1006 NOSIG
2026-04-27 11:00:00,METAR VTSP 271100Z 23005KT 190V260 9999 FEW020 33/25 Q1006 NOSIG
2026-04-27 10:30:00,METAR VTSP 271030Z 24006KT 200V270 9999 FEW020 33/25 Q1005 NOSIG
2026-04-27 10:00:00,METAR VTSP 271000Z 27010KT 9999 FEW020TCU 33/26 Q1005 NOSIG
2026-04-27 09:30:00,METAR VTSP 270930Z 26013KT 9999 FEW020TCU 33/26 Q1005 NOSIG
2026-04-27 09:00:00,METAR VTSP 270900Z 27012KT 9999 FEW020TCU 34/25 Q1005 NOSIG
2026-04-27 08:30:00,METAR VTSP 270830Z 26012KT 220V280 9999 FEW020 34/24 Q1005 NOSIG
2026-04-27 08:00:00,METAR VTSP 270800Z 28007KT 200V010 9999 FEW020 34/24 Q1006 NOSIG
2026-04-27 07:30:00,METAR VTSP 270730Z 28011KT 250V310 9999 FEW020 34/25 Q1006 NOSIG
2026-04-27 07:00:00,METAR VTSP 270700Z VRB04KT 9999 FEW020 34/26 Q1007 WS ALL RWY NOSIG
2026-04-27 06:30:00,METAR VTSP 270630Z VRB05KT 9999 FEW020 36/22 Q1007 NOSIG
2026-04-27 06:00:00,METAR VTSP 270600Z 09008KT 050V140 9999 FEW020 35/23 Q1007 NOSIG
2026-04-27 05:30:00,METAR VTSP 270530Z 10008KT 060V130 9999 FEW020 35/23 Q1008 NOSIG
2026-04-27 05:00:00,METAR VTSP 270500Z 07009KT 030V100 9999 FEW020 34/24 Q1009 NOSIG
2026-04-27 04:30:00,METAR VTSP 270430Z 08008KT 010V130 9999 FEW020 34/25 Q1009 NOSIG
2026-04-27 04:00:00,METAR VTSP 270400Z 07009KT 360V100 9999 FEW020 33/24 Q1009 NOSIG
2026-04-27 03:30:00,METAR VTSP 270330Z 08009KT 050V120 9999 FEW020 33/25 Q1009 NOSIG
2026-04-27 03:00:00,METAR VTSP 270300Z 08011KT 040V110 9999 FEW020 32/24 Q1009 NOSIG
2026-04-27 02:30:00,METAR VTSP 270230Z 09012KT 050V110 9999 FEW020 32/24 Q1009 NOSIG
2026-04-27 02:00:00,METAR VTSP 270200Z 09012KT 060V120 9999 FEW020 32/24 Q1009 NOSIG
2026-04-27 01:30:00,METAR VTSP 270130Z 07006KT 360V110 9999 FEW020 30/25 Q1009 NOSIG
2026-04-27 01:00:00,METAR VTSP 270100Z VRB06KT 9999 FEW020 30/25 Q1008 NOSIG
2026-04-27 00:30:00,METAR VTSP 270030Z 07004KT 010V130 9999 FEW020 29/25 Q1008 NOSIG
2026-04-27 00:00:00,METAR VTSP 270000Z 07003KT 030V100 9999 FEW020 28/25 Q1008 NOSIG
2026-04-26 23:30:00,METAR VTSP 262330Z 11003KT 080V150 9999 FEW020 26/25 Q1007 NOSIG
2026-04-26 23:00:00,METAR VTSP 262300Z 09005KT 9999 FEW020 27/24 Q1007 NOSIG
2026-04-26 22:30:00,METAR VTSP 262230Z 07004KT 360V110 9999 FEW020 27/24 Q1006 NOSIG
2026-04-26 22:00:00,METAR VTSP 262200Z 09005KT 030V140 9999 FEW020 28/24 Q1006 NOSIG
2026-04-26 21:30:00,METAR VTSP 262130Z 08003KT 030V120 9999 FEW020 27/25 Q1006 NOSIG
2026-04-26 21:00:00,METAR VTSP 262100Z VRB01KT 9999 FEW020 27/25 Q1006 NOSIG
2026-04-26 20:30:00,METAR VTSP 262030Z VRB01KT 9999 FEW020 27/25 Q1006 NOSIG
2026-04-26 20:00:00,METAR VTSP 262000Z VRB01KT 9999 FEW020 27/25 Q1006 NOSIG
2026-04-26 19:30:00,METAR VTSP 261930Z 00000KT 9999 FEW020 28/25 Q1007 NOSIG
2026-04-26 19:00:00,METAR VTSP 261900Z 10004KT 060V120 9999 FEW020 28/26 Q1007 NOSIG
2026-04-26 18:30:00,METAR VTSP 261830Z 08003KT 330V120 9999 FEW020 28/26 Q1007 NOSIG
2026-04-26 18:00:00,METAR VTSP 261800Z 08006KT 9999 FEW020 28/26 Q1008 NOSIG
2026-04-26 17:30:00,METAR VTSP 261730Z VRB02KT 9999 FEW020 28/25 Q1008 NOSIG
2026-04-26 17:00:00,METAR VTSP 261700Z VRB03KT 9999 FEW020 28/25 Q1009 NOSIG
2026-04-26 16:30:00,METAR VTSP 261630Z 10004KT 9999 FEW020 28/25 Q1009 NOSIG
2026-04-26 16:00:00,METAR VTSP 261600Z 08006KT 9999 FEW020 28/24 Q1009 NOSIG
2026-04-26 15:30:00,METAR VTSP 261530Z 06004KT 360V100 9999 FEW020 28/24 Q1009 NOSIG
2026-04-26 15:00:00,METAR VTSP 261500Z VRB03KT 9999 SCT020 29/24 Q1009 NOSIG
2026-04-26 14:30:00,METAR VTSP 261430Z VRB01KT 9999 SCT020 29/26 Q1009 NOSIG
2026-04-26 14:00:00,METAR VTSP 261400Z VRB02KT 9999 FEW020 29/26 Q1008 NOSIG
2026-04-26 13:30:00,METAR VTSP 261330Z 32004KT 9999 FEW020 30/25 Q1007 NOSIG
2026-04-26 13:00:00,METAR VTSP 261300Z 01003KT 350V070 9999 FEW020 29/25 Q1008 NOSIG
2026-04-26 12:30:00,METAR VTSP 261230Z 30004KT 270V330 9999 FEW020 30/25 Q1007 NOSIG
2026-04-26 12:00:00,METAR VTSP 261200Z 30006KT 9999 FEW020 30/25 Q1007 NOSIG
2026-04-26 11:30:00,METAR VTSP 261130Z 30006KT 9999 FEW020 31/25 Q1006 NOSIG
2026-04-26 11:00:00,METAR VTSP 261100Z 26005KT 230V310 9999 FEW020 32/24 Q1006 NOSIG
2026-04-26 10:30:00,METAR VTSP 261030Z 24009KT 9999 FEW020 32/24 Q1005 NOSIG
2026-04-26 10:00:00,METAR VTSP 261000Z 26009KT 220V280 9999 FEW020 33/24 Q1005 NOSIG
2026-04-26 09:30:00,METAR VTSP 260930Z 25008KT 9999 FEW020 33/23 Q1005 NOSIG
2026-04-26 09:00:00,METAR VTSP 260900Z 27008KT 9999 FEW020 33/25 Q1006 NOSIG
2026-04-26 08:30:00,METAR VTSP 260830Z 27010KT 9999 FEW020 33/25 Q1006 NOSIG
2026-04-26 08:00:00,METAR VTSP 260800Z 27011KT 9999 FEW020 34/24 Q1006 NOSIG
2026-04-26 07:30:00,METAR VTSP 260730Z 14006KT 110V230 9999 FEW020 35/20 Q1007 WS ALL RWY NOSIG
2026-04-26 07:00:00,METAR VTSP 260700Z VRB05KT 9999 FEW020 35/24 Q1007 NOSIG
2026-04-26 06:30:00,METAR VTSP 260630Z 09008KT 030V130 9999 FEW020 35/24 Q1008 NOSIG
2026-04-26 06:00:00,METAR VTSP 260600Z 08008KT 010V110 9999 FEW020 35/24 Q1008 NOSIG
2026-04-26 05:30:00,METAR VTSP 260530Z 11008KT 060V160 9999 FEW020 35/25 Q1009 NOSIG
2026-04-26 05:00:00,METAR VTSP 260500Z 13009KT 080V160 9999 FEW020 34/23 Q1009 NOSIG
2026-04-26 04:30:00,METAR VTSP 260430Z 11008KT 090V150 9999 FEW020 32/24 Q1009 NOSIG
2026-04-26 04:00:00,METAR VTSP 260400Z 08009KT 050V110 9999 FEW020 33/25 Q1010 NOSIG
2026-04-26 03:30:00,METAR VTSP 260330Z 09012KT 060V120 9999 FEW020 33/25 Q1010 NOSIG
2026-04-26 03:00:00,METAR VTSP 260300Z 10010KT 070V130 9999 FEW020 33/25 Q1010 NOSIG
2026-04-26 02:30:00,METAR VTSP 260230Z 10011KT 050V120 9999 FEW020 32/25 Q1010 NOSIG
2026-04-26 02:00:00,METAR VTSP 260200Z 10009KT 070V140 9999 FEW020 32/26 Q1010 NOSIG
2026-04-26 01:30:00,METAR VTSP 260130Z 11011KT 9999 FEW020 31/25 Q1010 NOSIG
2026-04-26 01:00:00,METAR VTSP 260100Z 07005KT 9999 FEW020 29/25 Q1009 NOSIG
2026-04-26 00:30:00,METAR VTSP 260030Z 07005KT 9999 FEW020 29/25 Q1009 NOSIG
2026-04-26 00:00:00,METAR VTSP 260000Z 07004KT 9999 FEW020 28/25 Q1009 NOSIG
2026-04-25 23:30:00,METAR VTSP 252330Z VRB01KT 9999 FEW020 27/26 Q1008 NOSIG
2026-04-25 23:00:00,METAR VTSP 252300Z VRB02KT 9999 FEW020 27/25 Q1008 NOSIG
2026-04-25 22:30:00,METAR VTSP 252230Z 06003KT 020V100 9999 FEW020 27/25 Q1008 NOSIG
2026-04-25 22:00:00,METAR VTSP 252200Z 05003KT 020V080 9999 FEW020 27/24 Q1008 NOSIG
2026-04-25 21:30:00,METAR VTSP 252130Z 05003KT 020V080 9999 FEW020 27/24 Q1008 NOSIG
2026-04-25 21:00:00,METAR VTSP 252100Z 09004KT 9999 FEW020 27/24 Q1008 NOSIG
2026-04-25 20:30:00,METAR VTSP 252030Z 06005KT 9999 FEW020 28/24 Q1008 NOSIG
2026-04-25 20:00:00,METAR VTSP 252000Z 06004KT 9999 FEW020 27/24 Q1008 NOSIG
2026-04-25 19:30:00,METAR VTSP 251930Z 00000KT 9999 FEW020 27/26 Q1008 NOSIG
2026-04-25 19:00:00,METAR VTSP 251900Z VRB01KT 9999 FEW020 27/25 Q1008 NOSIG
2026-04-25 18:30:00,METAR VTSP 251830Z 16002KT 9999 FEW020 28/26 Q1008 NOSIG
2026-04-25 18:00:00,METAR VTSP 251800Z 12005KT 9999 FEW020 28/26 Q1009 NOSIG
2026-04-25 17:30:00,METAR VTSP 251730Z 06004KT 020V090 9999 SCT030 28/27 Q1009 NOSIG
2026-04-25 17:00:00,METAR VTSP 251700Z VRB02KT 9999 FEW020 28/26 Q1010 NOSIG
2026-04-25 16:30:00,METAR VTSP 251630Z VRB01KT 9999 FEW020 28/27 Q1010 NOSIG
2026-04-25 16:00:00,METAR VTSP 251600Z 00000KT 9999 FEW020 28/26 Q1010 NOSIG
2026-04-25 15:30:00,METAR VTSP 251530Z VRB01KT 9999 FEW020 28/26 Q1010 NOSIG
2026-04-25 15:00:00,METAR VTSP 251500Z VRB02KT 9999 FEW020 28/27 Q1010 NOSIG
2026-04-25 14:30:00,METAR VTSP 251430Z VRB02KT 9999 FEW020 29/27 Q1010 NOSIG
2026-04-25 14:00:00,METAR VTSP 251400Z VRB03KT 9999 FEW020 29/26 Q1009 NOSIG
2026-04-25 13:30:00,METAR VTSP 251330Z 30003KT 270V340 9999 FEW020 29/26 Q1008 NOSIG
2026-04-25 13:00:00,METAR VTSP 251300Z 31003KT 290V360 9999 FEW020 29/26 Q1008 NOSIG
2026-04-25 12:30:00,METAR VTSP 251230Z 30004KT 9999 FEW020 29/26 Q1008 NOSIG
2026-04-25 12:00:00,METAR VTSP 251200Z 29006KT 9999 FEW020 30/26 Q1007 NOSIG
2026-04-25 11:30:00,METAR VTSP 251130Z 28007KT 9999 FEW020 30/26 Q1007 NOSIG
2026-04-25 11:00:00,METAR VTSP 251100Z 28008KT 9999 FEW020 30/26 Q1006 NOSIG
2026-04-25 10:30:00,METAR VTSP 251030Z 28008KT 9999 FEW020 30/26 Q1006 NOSIG
2026-04-25 10:00:00,METAR VTSP 251000Z 27008KT 240V310 9999 FEW020 31/26 Q1006 NOSIG
2026-04-25 09:30:00,METAR VTSP 250930Z 27008KT 9999 FEW020 31/26 Q1006 NOSIG
2026-04-25 09:00:00,METAR VTSP 250900Z 27010KT 9999 FEW020 31/26 Q1007 NOSIG
2026-04-25 08:30:00,METAR VTSP 250830Z 27008KT 9999 FEW020 32/26 Q1007 NOSIG
2026-04-25 08:00:00,METAR VTSP 250800Z 28008KT 9999 FEW020 32/26 Q1007 NOSIG
2026-04-25 07:30:00,METAR VTSP 250730Z 25008KT 9999 FEW020 31/24 Q1007 NOSIG
2026-04-25 07:00:00,METAR VTSP 250700Z 27009KT 240V300 9999 FEW020 32/24 Q1008 NOSIG
2026-04-25 06:30:00,METAR VTSP 250630Z 27007KT 230V300 9999 SCT020 32/25 Q1008 NOSIG
2026-04-25 06:00:00,METAR VTSP 250600Z 29004KT 250V330 9999 SCT020 33/25 Q1008 NOSIG
2026-04-25 05:30:00,METAR VTSP 250530Z 27007KT 230V300 9999 SCT020 33/26 Q1009 NOSIG
2026-04-25 05:00:00,METAR VTSP 250500Z VRB03KT 9999 SCT020 34/25 Q1009 NOSIG
2026-04-25 04:30:00,METAR VTSP 250430Z VRB04KT 9999 FEW020 33/24 Q1010 NOSIG
2026-04-25 04:00:00,METAR VTSP 250400Z VRB04KT 9999 FEW020 32/25 Q1010 NOSIG
2026-04-25 03:30:00,METAR VTSP 250330Z 09006KT 060V180 9999 SCT020 32/25 Q1011 NOSIG
2026-04-25 03:00:00,METAR VTSP 250300Z 09006KT 040V120 9999 SCT020 31/26 Q1011 NOSIG
2026-04-25 02:30:00,METAR VTSP 250230Z 11004KT 060V210 9999 SCT020 30/25 Q1011 NOSIG
2026-04-25 02:00:00,METAR VTSP 250200Z 11004KT 070V170 9999 SCT020 30/25 Q1011 NOSIG
2026-04-25 01:30:00,METAR VTSP 250130Z 12004G14KT 040V200 9999 FEW020 30/26 Q1010 NOSIG
2026-04-25 01:00:00,METAR VTSP 250100Z 10005KT 060V140 9999 FEW020 29/26 Q1010 NOSIG
2026-04-25 00:30:00,METAR VTSP 250030Z VRB02KT 9999 FEW020 29/26 Q1009 NOSIG
2026-04-25 00:00:00,METAR VTSP 250000Z VRB02KT 9999 FEW020 28/26 Q1009 NOSIG
2026-04-24 23:30:00,METAR VTSP 242330Z 06003KT 9999 FEW020 27/26 Q1009 NOSIG
2026-04-24 23:00:00,METAR VTSP 242300Z 07004KT 9999 FEW020 27/26 Q1008 NOSIG
2026-04-24 22:30:00,METAR VTSP 242230Z 08003KT 050V120 9999 FEW020 26/26 Q1008 NOSIG
2026-04-24 22:00:00,METAR VTSP 242200Z 13004KT 090V150 9999 FEW020 27/27 Q1008 NOSIG
2026-04-24 21:30:00,METAR VTSP 242130Z 10008KT 070V130 9999 FEW020 28/26 Q1007 NOSIG
2026-04-24 21:00:00,METAR VTSP 242100Z 09008KT 9999 FEW020 28/26 Q1007 NOSIG
2026-04-24 20:30:00,METAR VTSP 242030Z 06004KT 9999 FEW020 29/26 Q1007 NOSIG
2026-04-24 20:00:00,METAR VTSP 242000Z 06005KT 9999 FEW020 28/27 Q1007 NOSIG
2026-04-24 19:30:00,METAR VTSP 241930Z 05003KT 020V080 9999 FEW020 28/26 Q1007 NOSIG
2026-04-24 19:00:00,METAR VTSP 241900Z VRB01KT 9999 FEW020 28/26 Q1007 NOSIG
2026-04-24 18:30:00,METAR VTSP 241830Z VRB02KT 9999 FEW020 29/25 Q1008 NOSIG
2026-04-24 18:00:00,METAR VTSP 241800Z 32003KT 200V360 9999 FEW020 29/26 Q1008 NOSIG
2026-04-24 17:30:00,METAR VTSP 241730Z 33003KT 290V360 9999 FEW020 29/25 Q1008 NOSIG
2026-04-24 17:00:00,METAR VTSP 241700Z VRB02KT 9999 FEW020 29/25 Q1009 NOSIG
2026-04-24 16:30:00,METAR VTSP 241630Z VRB02KT 9999 FEW020 29/26 Q1009 NOSIG
2026-04-24 16:00:00,METAR VTSP 241600Z 34002KT 9999 FEW020 28/26 Q1009 NOSIG
2026-04-24 15:30:00,METAR VTSP 241530Z 00000KT 9999 FEW020 29/27 Q1009 NOSIG
2026-04-24 15:00:00,METAR VTSP 241500Z 00000KT 9999 FEW020 29/26 Q1009 NOSIG
2026-04-24 14:30:00,METAR VTSP 241430Z 30003KT 280V340 9999 FEW020 29/26 Q1008 NOSIG
2026-04-24 14:00:00,METAR VTSP 241400Z 31003KT 9999 FEW020 29/26 Q1008 NOSIG
2026-04-24 13:30:00,METAR VTSP 241330Z 30004KT 9999 FEW020 30/26 Q1007 NOSIG
2026-04-24 13:00:00,METAR VTSP 241300Z 29005KT 9999 FEW020 30/26 Q1007 NOSIG
2026-04-24 12:30:00,METAR VTSP 241230Z 29005KT 9999 FEW020 30/25 Q1006 NOSIG
2026-04-24 12:00:00,METAR VTSP 241200Z 29006KT 9999 FEW020 30/25 Q1006 NOSIG
2026-04-24 11:30:00,METAR VTSP 241130Z 29006KT 260V320 9999 FEW020 30/25 Q1005 NOSIG
2026-04-24 11:00:00,METAR VTSP 241100Z 29007KT 250V320 9999 FEW020 31/25 Q1005 NOSIG
2026-04-24 10:30:00,METAR VTSP 241030Z 28009KT 9999 FEW020 31/25 Q1005 NOSIG
2026-04-24 10:00:00,METAR VTSP 241000Z 27009KT 9999 FEW020 32/25 Q1005 NOSIG
2026-04-24 09:30:00,METAR VTSP 240930Z 28009KT 9999 FEW020 32/25 Q1005 NOSIG
2026-04-24 09:00:00,METAR VTSP 240900Z 27010KT 9999 FEW020 33/25 Q1005 NOSIG
2026-04-24 08:30:00,METAR VTSP 240830Z 26011KT 240V300 9999 FEW020 33/25 Q1005 NOSIG
2026-04-24 08:00:00,METAR VTSP 240800Z 27011KT 9999 FEW020 33/25 Q1005 NOSIG
2026-04-24 07:30:00,METAR VTSP 240730Z 26010KT 230V300 9999 FEW020 33/25 Q1006 NOSIG
2026-04-24 07:00:00,METAR VTSP 240700Z 27009KT 240V300 9999 FEW020 33/25 Q1006 NOSIG
2026-04-24 06:30:00,METAR VTSP 240630Z 26009KT 200V290 9999 FEW020 33/25 Q1006 NOSIG
2026-04-24 06:00:00,METAR VTSP 240600Z 06006KT 040V110 9999 FEW020 33/24 Q1007 WS ALL RWY NOSIG
2026-04-24 05:30:00,METAR VTSP 240530Z 07008KT 9999 FEW020 33/23 Q1007 NOSIG
2026-04-24 05:00:00,METAR VTSP 240500Z 08006KT 020V140 9999 FEW020 34/24 Q1008 NOSIG
2026-04-24 04:30:00,METAR VTSP 240430Z VRB05KT 9999 FEW020 34/25 Q1008 NOSIG
2026-04-24 04:00:00,METAR VTSP 240400Z 07005KT 010V130 9999 FEW020 34/24 Q1009 NOSIG
2026-04-24 03:30:00,METAR VTSP 240330Z 10007KT 060V140 9999 FEW020 33/24 Q1009 NOSIG
2026-04-24 03:00:00,METAR VTSP 240300Z VRB04KT 9999 FEW020 33/25 Q1009 NOSIG
2026-04-24 02:30:00,METAR VTSP 240230Z 09005KT 040V150 9999 FEW020 32/25 Q1009 NOSIG
2026-04-24 02:00:00,METAR VTSP 240200Z 08005KT 030V110 9999 FEW020 30/25 Q1009 NOSIG
2026-04-24 01:30:00,METAR VTSP 240130Z 08004KT 050V110 9999 FEW020 30/25 Q1009 NOSIG
2026-04-24 01:00:00,METAR VTSP 240100Z 08004KT 9999 FEW020 29/26 Q1008 NOSIG
2026-04-24 00:30:00,METAR VTSP 240030Z 08004KT 9999 FEW020 28/26 Q1008 NOSIG
2026-04-24 00:00:00,METAR VTSP 240000Z VRB01KT 9999 FEW020 26/26 Q1007 NOSIG
2026-04-23 23:30:00,METAR VTSP 232330Z VRB01KT 9999 FEW020 26/26 Q1007 NOSIG
2026-04-23 23:00:00,METAR VTSP 232300Z VRB01KT 9999 FEW020 26/26 Q1007 NOSIG
2026-04-23 22:30:00,METAR VTSP 232230Z VRB01KT 9999 FEW020 26/26 Q1006 NOSIG
2026-04-23 22:00:00,METAR VTSP 232200Z VRB01KT 9999 FEW020 26/26 Q1006 NOSIG
2026-04-23 21:30:00,METAR VTSP 232130Z 00000KT 9999 FEW020 26/26 Q1006 NOSIG
2026-04-23 21:00:00,METAR VTSP 232100Z VRB01KT 9999 FEW020 26/26 Q1006 NOSIG
2026-04-23 20:30:00,METAR VTSP 232030Z 00000KT 9999 FEW020 27/27 Q1006 NOSIG
2026-04-23 20:00:00,METAR VTSP 232000Z 00000KT 9999 FEW020 27/27 Q1006 NOSIG
2026-04-23 19:30:00,METAR VTSP 231930Z 00000KT 9999 FEW020 27/26 Q1006 NOSIG
2026-04-23 19:00:00,METAR VTSP 231900Z VRB01KT 9999 FEW020 27/27 Q1006 NOSIG
2026-04-23 18:30:00,METAR VTSP 231830Z VRB01KT 9999 FEW020 27/27 Q1007 NOSIG
2026-04-23 18:00:00,METAR VTSP 231800Z VRB01KT 9999 FEW020 27/27 Q1007 NOSIG
2026-04-23 17:30:00,METAR VTSP 231730Z VRB01KT 9999 FEW020 28/26 Q1008 NOSIG
2026-04-23 17:00:00,METAR VTSP 231700Z 36002KT 9999 FEW020 28/26 Q1008 NOSIG
2026-04-23 16:30:00,METAR VTSP 231630Z 33002KT 9999 FEW020 27/26 Q1008 NOSIG
2026-04-23 16:00:00,METAR VTSP 231600Z VRB02KT 9999 FEW020 28/26 Q1008 NOSIG
2026-04-23 15:30:00,METAR VTSP 231530Z 31003KT 9999 FEW020 28/26 Q1008 NOSIG
2026-04-23 15:00:00,METAR VTSP 231500Z 30003KT 270V330 9999 FEW020 29/26 Q1008 NOSIG
2026-04-23 14:30:00,METAR VTSP 231430Z 31004KT 9999 FEW020 29/26 Q1007 NOSIG
2026-04-23 14:00:00,METAR VTSP 231400Z 30004KT 9999 FEW020 29/26 Q1007 NOSIG
2026-04-23 13:30:00,METAR VTSP 231330Z 30004KT 9999 FEW020 29/26 Q1007 NOSIG
2026-04-23 13:00:00,METAR VTSP 231300Z 30004KT 9999 FEW020 29/26 Q1007 NOSIG
2026-04-23 12:30:00,METAR VTSP 231230Z 29004KT 9999 FEW020 29/25 Q1006 NOSIG
2026-04-23 12:00:00,METAR VTSP 231200Z 29005KT 9999 FEW020 30/25 Q1006 NOSIG
2026-04-23 11:30:00,METAR VTSP 231130Z 28006KT 9999 FEW020 30/25 Q1006 NOSIG
2026-04-23 11:00:00,METAR VTSP 231100Z 27007KT 9999 FEW020 30/25 Q1005 NOSIG
2026-04-23 10:30:00,METAR VTSP 231030Z 28008KT 9999 FEW020 31/25 Q1005 NOSIG
2026-04-23 10:00:00,METAR VTSP 231000Z 27008KT 230V300 9999 FEW020 31/25 Q1005 NOSIG
2026-04-23 09:30:00,METAR VTSP 230930Z 25010KT 9999 FEW020 31/25 Q1005 NOSIG
2026-04-23 09:00:00,METAR VTSP 230900Z 26009KT 230V300 9999 FEW020 31/25 Q1005 NOSIG
2026-04-23 08:30:00,METAR VTSP 230830Z 26007KT 220V290 9999 FEW020 32/25 Q1005 NOSIG
2026-04-23 08:00:00,METAR VTSP 230800Z 26008KT 9999 SCT020 31/25 Q1006 NOSIG
2026-04-23 07:30:00,METAR VTSP 230730Z 28008KT 250V320 9999 FEW020 32/25 Q1006 NOSIG
2026-04-23 07:00:00,METAR VTSP 230700Z 27009KT 9999 FEW020 32/26 Q1006 NOSIG
2026-04-23 06:30:00,METAR VTSP 230630Z 28007KT 250V320 9999 FEW020 32/25 Q1007 NOSIG
2026-04-23 06:00:00,METAR VTSP 230600Z 26007KT 230V300 9999 FEW020 32/26 Q1007 NOSIG
2026-04-23 05:30:00,METAR VTSP 230530Z 28005KT 240V310 9999 FEW020 32/26 Q1008 NOSIG
2026-04-23 05:00:00,METAR VTSP 230500Z 29008KT 260V340 9999 FEW020 32/26 Q1008 NOSIG
2026-04-23 04:30:00,METAR VTSP 230430Z 31007KT 270V340 9999 FEW020 31/26 Q1008 NOSIG
2026-04-23 04:00:00,METAR VTSP 230400Z 29007KT 250V320 9999 FEW020 31/26 Q1009 NOSIG
2026-04-23 03:30:00,METAR VTSP 230330Z 06005KT 340V110 9999 FEW020 32/25 Q1009 NOSIG
2026-04-23 03:00:00,METAR VTSP 230300Z VRB03KT 9999 FEW020 SCT100 31/25 Q1009 NOSIG
2026-04-23 02:30:00,METAR VTSP 230230Z 08005KT 050V130 9999 FEW020 SCT100 31/25 Q1009 NOSIG
2026-04-23 02:00:00,METAR VTSP 230200Z 01003KT 320V050 9999 FEW020 SCT100 30/25 Q1009 NOSIG
2026-04-23 01:30:00,METAR VTSP 230130Z VRB03KT 9999 FEW020 SCT100 30/26 Q1009 NOSIG
2026-04-23 01:00:00,METAR VTSP 230100Z VRB01KT 9999 FEW020 SCT100 29/26 Q1008 NOSIG
2026-04-23 00:30:00,METAR VTSP 230030Z VRB02KT 9999 SCT020 29/26 Q1008 NOSIG
2026-04-23 00:00:00,METAR VTSP 230000Z 08003KT 040V110 9999 FEW020 28/26 Q1007 NOSIG
2026-04-22 23:30:00,METAR VTSP 222330Z VRB02KT 9999 FEW020 27/27 Q1007 NOSIG
2026-04-22 23:00:00,METAR VTSP 222300Z VRB02KT 9999 FEW020 28/26 Q1006 NOSIG
2026-04-22 22:30:00,METAR VTSP 222230Z 08002KT 9999 FEW020 28/27 Q1006 NOSIG
2026-04-22 22:00:00,METAR VTSP 222200Z 08002KT 9999 FEW020 28/26 Q1006 NOSIG
2026-04-22 21:30:00,METAR VTSP 222130Z VRB02KT 9999 FEW020 28/26 Q1006 NOSIG
2026-04-22 21:00:00,METAR VTSP 222100Z VRB02KT 9999 FEW020 28/26 Q1006 NOSIG
2026-04-22 20:30:00,METAR VTSP 222030Z VRB01KT 9999 FEW020 28/26 Q1006 NOSIG
2026-04-22 20:00:00,METAR VTSP 222000Z VRB02KT 9999 FEW020 28/26 Q1006 NOSIG
2026-04-22 19:30:00,METAR VTSP 221930Z VRB02KT 9999 FEW020 28/26 Q1006 NOSIG
2026-04-22 19:00:00,METAR VTSP 221900Z VRB01KT 9999 FEW020 29/26 Q1007 NOSIG
2026-04-22 18:30:00,METAR VTSP 221830Z 28003KT 250V320 9999 FEW020 28/26 Q1007 NOSIG
2026-04-22 18:00:00,METAR VTSP 221800Z VRB01KT 9999 FEW020 29/26 Q1007 NOSIG
2026-04-22 17:30:00,METAR VTSP 221730Z VRB02KT 9999 FEW020 29/26 Q1007 NOSIG
2026-04-22 17:00:00,METAR VTSP 221700Z VRB02KT 9999 FEW020 29/26 Q1007 NOSIG
2026-04-22 16:30:00,METAR VTSP 221630Z VRB02KT 9999 FEW020 29/26 Q1008 NOSIG
2026-04-22 16:00:00,METAR VTSP 221600Z VRB02KT 9999 FEW020 29/26 Q1008 NOSIG
2026-04-22 15:30:00,METAR VTSP 221530Z VRB02KT 9999 FEW020 29/26 Q1008 NOSIG
2026-04-20 15:30:00,METAR VTSP 201530Z VRB01KT 9999 FEW020 28/27 Q1010 NOSIG
2026-04-20 15:00:00,METAR VTSP 201500Z 28003KT 240V310 9999 FEW020 29/26 Q1009 NOSIG
2026-04-20 14:30:00,METAR VTSP 201430Z VRB02KT 9999 FEW020 29/26 Q1010 NOSIG
2026-04-20 14:00:00,METAR VTSP 201400Z VRB02KT 9999 FEW020 29/26 Q1009 NOSIG
2026-04-20 13:30:00,METAR VTSP 201330Z VRB03KT 9999 FEW020 30/26 Q1008 NOSIG
2026-04-20 13:00:00,METAR VTSP 201300Z 30007KT 260V350 9999 FEW020 30/26 Q1008 NOSIG
2026-04-20 12:30:00,METAR VTSP 201230Z 30009KT 9999 FEW020 30/26 Q1007 NOSIG
2026-04-20 12:00:00,METAR VTSP 201200Z 29009KT 9999 FEW020 30/26 Q1006 NOSIG
2026-04-20 11:30:00,METAR VTSP 201130Z 30008KT 270V330 9999 FEW020 30/27 Q1006 NOSIG
2026-04-20 11:00:00,METAR VTSP 201100Z 29010KT 9999 FEW020 30/26 Q1006 NOSIG
2026-04-20 10:30:00,METAR VTSP 201030Z 30010KT 270V340 9999 FEW020 31/26 Q1006 NOSIG
2026-04-20 10:00:00,METAR VTSP 201000Z 30009KT 270V330 9999 FEW020 31/26 Q1006 NOSIG
2026-04-20 09:30:00,METAR VTSP 200930Z 30010KT 270V330 9999 FEW020TCU 31/26 Q1006 NOSIG
2026-04-20 09:00:00,METAR VTSP 200900Z 29010KT 260V330 9999 FEW020TCU 32/26 Q1006 NOSIG
2026-04-20 08:30:00,METAR VTSP 200830Z 29010KT 260V330 9999 FEW020 32/26 Q1006 NOSIG
2026-04-20 08:00:00,METAR VTSP 200800Z 29010KT 260V320 9999 FEW020 32/25 Q1007 NOSIG
2026-04-20 07:30:00,METAR VTSP 200730Z 29010KT 260V320 9999 FEW020 32/25 Q1007 NOSIG
2026-04-20 07:00:00,METAR VTSP 200700Z 31009KT 270V330 9999 FEW020 32/25 Q1008 NOSIG
2026-04-20 06:30:00,METAR VTSP 200630Z 29009KT 270V330 9999 FEW020 33/26 Q1008 NOSIG
2026-04-20 06:00:00,METAR VTSP 200600Z 28009KT 250V310 9999 FEW020 32/26 Q1009 NOSIG
2026-04-20 05:30:00,METAR VTSP 200530Z 27009KT 250V310 9999 FEW020 32/26 Q1009 NOSIG
2026-04-20 05:00:00,METAR VTSP 200500Z 28007KT 9999 FEW020 32/26 Q1010 NOSIG
2026-04-20 04:30:00,METAR VTSP 200430Z 28007KT 9999 FEW020 32/26 Q1010 NOSIG
2026-04-20 04:00:00,METAR VTSP 200400Z VRB04KT 9999 FEW020 33/23 Q1010 NOSIG
2026-04-20 03:30:00,METAR VTSP 200330Z 10004KT 040V170 9999 FEW020 32/25 Q1010 NOSIG
2026-04-20 03:00:00,METAR VTSP 200300Z 11004KT 070V170 9999 FEW020 31/24 Q1010 NOSIG
2026-04-20 02:30:00,METAR VTSP 200230Z VRB04KT 9999 FEW020 31/25 Q1010 NOSIG
2026-04-20 02:00:00,METAR VTSP 200200Z 09005KT 050V130 9999 FEW020 30/25 Q1010 NOSIG
2026-04-20 01:30:00,METAR VTSP 200130Z 09005KT 060V140 9999 FEW020 30/26 Q1010 NOSIG
2026-04-20 01:00:00,METAR VTSP 200100Z 12004KT 080V160 9999 FEW020 29/26 Q1009 NOSIG
2026-04-20 00:30:00,METAR VTSP 200030Z 12003KT 070V230 9999 FEW020 28/26 Q1009 NOSIG
2026-04-20 00:00:00,METAR VTSP 200000Z VRB02KT 9999 FEW020 27/27 Q1008 NOSIG
2026-04-19 23:30:00,METAR VTSP 192330Z VRB02KT 9999 FEW020 26/26 Q1008 NOSIG
2026-04-19 23:00:00,METAR VTSP 192300Z VRB01KT 9999 FEW020 26/26 Q1008 NOSIG
2026-04-19 22:30:00,METAR VTSP 192230Z 00000KT 9999 FEW020 26/26 Q1007 NOSIG
2026-04-19 22:00:00,METAR VTSP 192200Z VRB01KT 9999 FEW020 26/26 Q1007 NOSIG
2026-04-19 21:30:00,METAR VTSP 192130Z 00000KT 9999 FEW020 26/26 Q1007 NOSIG
2026-04-19 21:00:00,METAR VTSP 192100Z 18002KT 9999 FEW020 27/27 Q1007 NOSIG
2026-04-19 20:30:00,METAR VTSP 192030Z VRB02KT 9999 FEW020 27/27 Q1007 NOSIG
2026-04-19 20:00:00,METAR VTSP 192000Z VRB01KT 9999 FEW020 27/27 Q1008 NOSIG
2026-04-19 19:30:00,METAR VTSP 191930Z 00000KT 9999 FEW020 27/27 Q1008 NOSIG
2026-04-19 19:00:00,METAR VTSP 191900Z VRB01KT 9999 FEW020 27/27 Q1008 NOSIG
2026-04-19 18:30:00,METAR VTSP 191830Z VRB02KT 9999 FEW020 27/27 Q1009 NOSIG
2026-04-19 18:00:00,METAR VTSP 191800Z VRB01KT 9999 FEW020 28/27 Q1009 NOSIG
2026-04-19 17:30:00,METAR VTSP 191730Z VRB01KT 9999 FEW020 28/26 Q1010 NOSIG
2026-04-19 17:00:00,METAR VTSP 191700Z VRB01KT 9999 FEW020 29/26 Q1010 NOSIG
2026-04-19 16:30:00,METAR VTSP 191630Z VRB01KT 9999 FEW020 29/26 Q1010 NOSIG
2026-04-19 16:00:00,METAR VTSP 191600Z VRB02KT 9999 FEW020 29/26 Q1010 NOSIG
2026-04-19 15:30:00,METAR VTSP 191530Z VRB02KT 9999 FEW020 SCT070 29/26 Q1010 NOSIG
2026-04-19 15:00:00,METAR VTSP 191500Z VRB02KT 9999 FEW020 29/27 Q1010 NOSIG
2026-04-19 14:30:00,METAR VTSP 191430Z 30004KT 9999 FEW020 29/26 Q1009 NOSIG
2026-04-19 14:00:00,METAR VTSP 191400Z 30004KT 270V330 9999 FEW020 29/26 Q1009 NOSIG
2026-04-19 13:30:00,METAR VTSP 191330Z 29004KT 260V320 9999 FEW020 29/26 Q1008 NOSIG
2026-04-19 13:00:00,METAR VTSP 191300Z 29005KT 9999 FEW020 29/26 Q1008 NOSIG
2026-04-19 12:30:00,METAR VTSP 191230Z 29006KT 9999 FEW020 30/26 Q1007 NOSIG
2026-04-19 12:00:00,METAR VTSP 191200Z 30006KT 9999 FEW020 30/26 Q1007 NOSIG
2026-04-19 11:30:00,METAR VTSP 191130Z 29008KT 9999 FEW020 30/25 Q1006 NOSIG
2026-04-19 11:00:00,METAR VTSP 191100Z 28009KT 9999 FEW020 31/25 Q1006 NOSIG
2026-04-19 10:30:00,METAR VTSP 191030Z 29008KT 9999 FEW020 31/24 Q1005 NOSIG
2026-04-19 10:00:00,METAR VTSP 191000Z 28008KT 250V310 9999 FEW020TCU 31/25 Q1005 NOSIG
2026-04-19 09:30:00,METAR VTSP 190930Z 27009KT 9999 FEW020TCU 31/24 Q1006 NOSIG
2026-04-19 09:00:00,METAR VTSP 190900Z 29008KT 260V320 9999 FEW020 32/24 Q1006 NOSIG
2026-04-19 08:30:00,METAR VTSP 190830Z 27009KT 240V310 9999 FEW020 32/24 Q1006 NOSIG
2026-04-19 08:00:00,METAR VTSP 190800Z 28010KT 240V310 9999 FEW020 32/24 Q1007 NOSIG
2026-04-19 07:30:00,METAR VTSP 190730Z 27011KT 9999 FEW020 32/23 Q1007 NOSIG
2026-04-19 07:00:00,METAR VTSP 190700Z 28009KT 250V310 9999 FEW020 33/24 Q1008 NOSIG
2026-04-19 06:30:00,METAR VTSP 190630Z 28008KT 250V310 9999 FEW020 32/25 Q1008 NOSIG
2026-04-19 06:00:00,METAR VTSP 190600Z 27007KT 230V310 9999 FEW020 32/25 Q1009 NOSIG
2026-04-19 05:30:00,METAR VTSP 190530Z 27007KT 9999 FEW020 32/26 Q1009 NOSIG
2026-04-19 05:00:00,METAR VTSP 190500Z 27005KT 220V320 9999 FEW020 32/26 Q1010 NOSIG
2026-04-19 04:30:00,METAR VTSP 190430Z 09006KT 060V130 9999 FEW020 32/26 Q1010 NOSIG
2026-04-19 04:00:00,METAR VTSP 190400Z VRB04KT 9999 FEW020 33/26 Q1010 NOSIG
2026-04-19 03:30:00,METAR VTSP 190330Z VRB02KT 9999 FEW020 32/26 Q1010 NOSIG
2026-04-19 03:00:00,METAR VTSP 190300Z 08003KT 030V150 9999 FEW020 31/25 Q1010 NOSIG
2026-04-19 02:30:00,METAR VTSP 190230Z 08004KT 040V130 9999 FEW020 31/26 Q1010 NOSIG
2026-04-19 02:00:00,METAR VTSP 190200Z 08005KT 050V130 9999 FEW020 30/26 Q1010 NOSIG
2026-04-19 01:30:00,METAR VTSP 190130Z 07004KT 9999 FEW020 29/26 Q1010 NOSIG
2026-04-19 01:00:00,METAR VTSP 190100Z 09004KT 9999 FEW020 28/26 Q1009 NOSIG
2026-04-19 00:30:00,METAR VTSP 190030Z 09003KT 070V140 9999 FEW020 27/25 Q1009 NOSIG
2026-04-19 00:00:00,METAR VTSP 190000Z VRB02KT 9999 FEW020 26/25 Q1008 NOSIG
2026-04-18 23:30:00,METAR VTSP 182330Z VRB02KT 9999 FEW020 25/24 Q1008 NOSIG
2026-04-18 23:00:00,METAR VTSP 182300Z 07003KT 030V090 9999 FEW020 25/24 Q1008 NOSIG
2026-04-18 22:30:00,METAR VTSP 182230Z VRB02KT 9999 FEW020 25/24 Q1008 NOSIG
2026-04-18 22:00:00,METAR VTSP 182200Z VRB02KT 9999 FEW020 25/24 Q1007 NOSIG
2026-04-18 21:30:00,METAR VTSP 182130Z 09004KT 9999 FEW020 25/25 Q1007 NOSIG
2026-04-18 21:00:00,METAR VTSP 182100Z 09003KT 050V110 9999 FEW020 25/24 Q1007 NOSIG
2026-04-18 20:30:00,METAR VTSP 182030Z 08004KT 9999 FEW020 25/24 Q1007 NOSIG
2026-04-18 20:00:00,METAR VTSP 182000Z 08003KT 9999 FEW020 25/24 Q1007 NOSIG
2026-04-18 19:30:00,METAR VTSP 181930Z VRB02KT 9999 FEW020 25/24 Q1008 NOSIG
2026-04-18 19:00:00,METAR VTSP 181900Z VRB01KT 9999 FEW020 25/24 Q1009 NOSIG
2026-04-18 18:30:00,METAR VTSP 181830Z 00000KT 9999 FEW020 25/24 Q1009 NOSIG
2026-04-18 18:00:00,METAR VTSP 181800Z VRB02KT 9999 FEW020 25/24 Q1009 NOSIG
2026-04-18 17:30:00,METAR VTSP 181730Z VRB02KT 9999 FEW020 25/24 Q1009 NOSIG
2026-04-18 17:00:00,METAR VTSP 181700Z 07003KT 010V100 9999 FEW020 25/24 Q1010 NOSIG
2026-04-18 16:30:00,METAR VTSP 181630Z VRB02KT 9999 FEW020 25/24 Q1010 NOSIG
2026-04-18 16:00:00,METAR VTSP 181600Z 07004KT 010V130 9999 FEW020 24/24 Q1010 NOSIG
2026-04-18 15:00:00,METAR VTSP 181500Z 20003KT 150V310 9999 -TSRA FEW012 FEW018CB SCT020 24/23 Q1010 NOSIG
2026-04-18 14:30:00,METAR VTSP 181430Z 21007KT 170V270 9999 -TSRA FEW012 FEW018CB SCT020 24/24 Q1011 NOSIG
2026-04-18 14:00:00,METAR VTSP 181400Z 08011KT 030V130 7000 -TSRA FEW012 FEW018CB SCT020 24/24 Q1010 RERA NOSIG
2026-04-18 13:30:00,METAR VTSP 181330Z VRB04KT 9999 TS FEW018CB SCT020 30/26 Q1009 WS ALL RWY TEMPO TL1400 08015G25KT 4000 TSRA
2026-04-18 13:00:00,METAR VTSP 181300Z VRB03KT 9999 TS FEW018CB SCT020 30/26 Q1008 TEMPO FM1350 TL1430 08015G25KT 4000 TSRA
2026-04-18 12:30:00,METAR VTSP 181230Z 30005KT 9999 FEW018CB SCT020 30/26 Q1007 TEMPO FM1350 08015G25KT 3000 TSRA
2026-04-18 12:00:00,METAR VTSP 181200Z 28006KT 9999 FEW020 30/26 Q1007 NOSIG
2026-04-18 11:30:00,METAR VTSP 181130Z 29007KT 9999 FEW020 30/27 Q1006 NOSIG
2026-04-18 11:00:00,METAR VTSP 181100Z 28008KT 260V320 9999 FEW020 31/26 Q1006 NOSIG
2026-04-18 10:30:00,METAR VTSP 181030Z 28007KT 9999 SCT020 31/26 Q1006 NOSIG
2026-04-18 10:00:00,METAR VTSP 181000Z 28009KT 9999 SCT020 31/26 Q1006 NOSIG
2026-04-18 09:30:00,METAR VTSP 180930Z 26010KT 9999 FEW020 32/25 Q1006 NOSIG
2026-04-18 09:00:00,METAR VTSP 180900Z 28010KT 9999 FEW020 32/25 Q1006 NOSIG
2026-04-18 08:30:00,METAR VTSP 180830Z 26010KT 9999 FEW020 33/25 Q1006 NOSIG
2026-04-18 08:00:00,METAR VTSP 180800Z 28009KT 230V320 9999 FEW020 33/26 Q1007 NOSIG
2026-04-18 07:30:00,METAR VTSP 180730Z 27010KT 230V310 9999 SCT020 33/25 Q1007 NOSIG
2026-04-18 07:00:00,METAR VTSP 180700Z 27009KT 240V310 9999 SCT020 32/25 Q1007 NOSIG
2026-04-18 06:30:00,METAR VTSP 180630Z 27008KT 240V320 9999 SCT020 33/26 Q1008 NOSIG
2026-04-18 06:00:00,METAR VTSP 180600Z 29007KT 220V330 9999 FEW020 33/25 Q1008 NOSIG
2026-04-18 05:30:00,METAR VTSP 180530Z 27007KT 230V310 9999 FEW020 32/26 Q1009 NOSIG
2026-04-18 05:00:00,METAR VTSP 180500Z 26008KT 9999 SCT020 31/26 Q1009 NOSIG
2026-04-18 04:30:00,METAR VTSP 180430Z 30007KT 270V340 9999 SCT020 32/25 Q1009 NOSIG
2026-04-18 04:00:00,METAR VTSP 180400Z 07005KT 010V140 9999 SCT020 33/24 Q1009 NOSIG
2026-04-18 03:30:00,METAR VTSP 180330Z 11004KT 070V150 9999 FEW020 32/24 Q1009 NOSIG
2026-04-18 03:00:00,METAR VTSP 180300Z 06005KT 030V110 9999 FEW020 32/25 Q1009 NOSIG
2026-04-18 02:30:00,METAR VTSP 180230Z 09005KT 030V190 9999 FEW020 31/25 Q1009 NOSIG
2026-04-18 02:00:00,METAR VTSP 180200Z 10007KT 070V140 9999 FEW020 31/25 Q1009 NOSIG
2026-04-18 01:30:00,METAR VTSP 180130Z 08005KT 050V120 9999 FEW020 30/25 Q1009 NOSIG
2026-04-18 01:00:00,METAR VTSP 180100Z VRB03KT 9999 FEW020 29/26 Q1009 NOSIG
2026-04-18 00:30:00,METAR VTSP 180030Z 08003KT 9999 FEW020 28/26 Q1008 NOSIG
2026-04-18 00:00:00,METAR VTSP 180000Z 12003KT 060V190 9999 FEW020 27/26 Q1008 NOSIG
2026-04-17 23:30:00,METAR VTSP 172330Z 06003KT 040V110 9999 FEW020 27/26 Q1008 NOSIG
2026-04-17 23:00:00,METAR VTSP 172300Z 07004KT 9999 FEW020 27/26 Q1007 NOSIG
2026-04-17 22:30:00,METAR VTSP 172230Z 08004KT 050V110 9999 FEW020 27/26 Q1007 NOSIG
2026-04-17 22:00:00,METAR VTSP 172200Z VRB01KT 9999 FEW020 27/27 Q1007 NOSIG
2026-04-17 21:30:00,METAR VTSP 172130Z VRB01KT 9999 FEW020 27/27 Q1007 NOSIG
2026-04-17 21:00:00,METAR VTSP 172100Z 00000KT 9999 FEW020 27/27 Q1007 NOSIG
2026-04-17 20:30:00,METAR VTSP 172030Z VRB01KT 9999 FEW020 28/27 Q1007 NOSIG
2026-04-17 20:00:00,METAR VTSP 172000Z VRB02KT 9999 FEW020 28/27 Q1008 NOSIG
2026-04-17 19:30:00,METAR VTSP 171930Z VRB01KT 9999 FEW020 28/27 Q1008 NOSIG
2026-04-17 19:00:00,METAR VTSP 171900Z VRB02KT 9999 FEW020 28/27 Q1008 NOSIG
2026-04-17 18:30:00,METAR VTSP 171830Z VRB02KT 9999 FEW020 28/27 Q1009 NOSIG
2026-04-17 18:00:00,METAR VTSP 171800Z VRB03KT 9999 FEW020 28/27 Q1009 NOSIG
2026-04-17 17:30:00,METAR VTSP 171730Z VRB02KT 9999 FEW020 28/27 Q1010 NOSIG
2026-04-17 17:00:00,METAR VTSP 171700Z VRB01KT 9999 FEW020 28/27 Q1010 NOSIG
2026-04-17 16:30:00,METAR VTSP 171630Z 32003KT 290V360 9999 FEW020 29/27 Q1010 NOSIG
2026-04-17 16:00:00,METAR VTSP 171600Z 33004KT 290V010 9999 FEW020 29/27 Q1010 NOSIG
2026-04-17 15:30:00,METAR VTSP 171530Z 33004KT 290V010 9999 FEW020 29/27 Q1010 NOSIG
2026-04-17 15:00:00,METAR VTSP 171500Z 33003KT 280V020 9999 FEW020 29/27 Q1010 NOSIG
2026-04-17 14:30:00,METAR VTSP 171430Z 29005KT 9999 FEW020 30/26 Q1009 NOSIG
2026-04-17 14:00:00,METAR VTSP 171400Z 29004KT 9999 FEW020 30/26 Q1009 NOSIG
2026-04-17 13:30:00,METAR VTSP 171330Z 29005KT 9999 FEW020 30/26 Q1008 NOSIG
2026-04-17 13:00:00,METAR VTSP 171300Z 29005KT 9999 FEW020 30/26 Q1008 NOSIG
2026-04-17 12:30:00,METAR VTSP 171230Z 29005KT 260V320 9999 FEW020 30/26 Q1008 NOSIG
2026-04-17 12:00:00,METAR VTSP 171200Z 30006KT 9999 SCT020 30/26 Q1007 NOSIG
2026-04-17 11:30:00,METAR VTSP 171130Z 29006KT 260V340 9999 SCT020 30/26 Q1007 NOSIG
2026-04-17 11:00:00,METAR VTSP 171100Z 30007KT 260V350 9999 SCT020 30/26 Q1006 NOSIG
2026-04-17 10:30:00,METAR VTSP 171030Z 29008KT 260V330 9999 FEW020 31/26 Q1006 NOSIG
2026-04-17 10:00:00,METAR VTSP 171000Z 28008KT 250V320 9999 FEW020 31/26 Q1006 NOSIG
2026-04-17 09:30:00,METAR VTSP 170930Z 28010KT 250V310 9999 FEW020 31/25 Q1006 NOSIG
2026-04-17 09:00:00,METAR VTSP 170900Z 27011KT 9999 FEW020 32/25 Q1007 NOSIG
2026-04-17 08:30:00,METAR VTSP 170830Z 27010KT 9999 FEW020 33/23 Q1007 NOSIG
2026-04-17 08:00:00,METAR VTSP 170800Z 27010KT 230V300 9999 FEW020 32/25 Q1007 NOSIG
2026-04-17 07:30:00,METAR VTSP 170730Z 27009KT 230V300 9999 SCT020 33/24 Q1008 NOSIG
2026-04-17 07:00:00,METAR VTSP 170700Z 26009KT 230V290 9999 SCT020 32/25 Q1008 NOSIG
2026-04-17 06:30:00,METAR VTSP 170630Z 28009KT 250V320 9999 SCT020 33/25 Q1009 NOSIG
2026-04-17 06:00:00,METAR VTSP 170600Z 27008KT 230V320 9999 SCT020 33/24 Q1009 NOSIG
2026-04-17 05:30:00,METAR VTSP 170530Z 28007KT 250V310 9999 SCT020 32/25 Q1010 NOSIG
2026-04-17 05:00:00,METAR VTSP 170500Z VRB04KT 9999 FEW018TCU SCT020 32/25 Q1010 NOSIG
2026-04-17 04:30:00,METAR VTSP 170430Z 27007KT 240V300 9999 SCT020 32/26 Q1010 NOSIG
2026-04-17 04:00:00,METAR VTSP 170400Z 27007KT 220V310 9999 FEW018TCU SCT020 31/25 Q1010 NOSIG
2026-04-17 03:30:00,METAR VTSP 170330Z 31005KT 270V350 9999 FEW018TCU SCT020 31/26 Q1010 NOSIG
2026-04-17 03:00:00,METAR VTSP 170300Z 27006KT 230V310 9999 FEW018TCU SCT020 31/26 Q1011 NOSIG
2026-04-17 02:30:00,METAR VTSP 170230Z VRB02KT 9999 FEW020 31/25 Q1010 NOSIG
2026-04-17 02:00:00,METAR VTSP 170200Z VRB03KT 9999 FEW020 31/26 Q1010 NOSIG
2026-04-17 01:30:00,METAR VTSP 170130Z VRB02KT 9999 FEW020 30/26 Q1010 NOSIG
2026-04-17 01:00:00,METAR VTSP 170100Z VRB03KT 9999 FEW020 29/26 Q1009 NOSIG
2026-04-17 00:30:00,METAR VTSP 170030Z 09003KT 050V170 9999 FEW020 28/26 Q1008 NOSIG
2026-04-17 00:00:00,METAR VTSP 170000Z 00000KT 9999 FEW020 26/26 Q1008 NOSIG
2026-04-16 23:30:00,METAR VTSP 162330Z 14003KT 090V170 9999 FEW020 26/26 Q1008 NOSIG
2026-04-16 23:00:00,METAR VTSP 162300Z 00000KT 9999 FEW020 26/26 Q1007 NOSIG
2026-04-16 22:30:00,METAR VTSP 162230Z VRB02KT 9999 FEW020 26/26 Q1007 NOSIG
2026-04-16 22:00:00,METAR VTSP 162200Z VRB01KT 9999 FEW020 26/26 Q1007 NOSIG
2026-04-16 21:30:00,METAR VTSP 162130Z 35003KT 310V030 9999 FEW020 26/25 Q1007 NOSIG
2026-04-16 21:00:00,METAR VTSP 162100Z VRB01KT 9999 FEW020 26/26 Q1007 NOSIG
2026-04-16 20:30:00,METAR VTSP 162030Z VRB01KT 9999 FEW020 27/25 Q1007 NOSIG
2026-04-16 20:00:00,METAR VTSP 162000Z 07004KT 9999 FEW020 27/26 Q1008 NOSIG
2026-04-16 19:30:00,METAR VTSP 161930Z 16001KT 9999 FEW020 27/26 Q1008 NOSIG
2026-04-16 19:00:00,METAR VTSP 161900Z 00000KT 9999 FEW020 27/26 Q1008 NOSIG
2026-04-16 18:30:00,METAR VTSP 161830Z VRB01KT 9999 FEW020 28/26 Q1009 NOSIG
2026-04-16 18:00:00,METAR VTSP 161800Z 00000KT 9999 FEW020 28/26 Q1009 NOSIG
2026-04-16 17:30:00,METAR VTSP 161730Z 15003KT 9999 FEW020 28/25 Q1009 NOSIG
2026-04-16 17:00:00,METAR VTSP 161700Z 14004G19KT 080V200 9999 FEW020 28/25 Q1009 NOSIG
2026-04-16 16:30:00,METAR VTSP 161630Z 08003KT 040V140 9999 FEW020 29/24 Q1010 NOSIG
2026-04-16 16:00:00,METAR VTSP 161600Z VRB02KT 9999 FEW020 28/25 Q1009 NOSIG
2026-04-16 15:30:00,METAR VTSP 161530Z VRB01KT 9999 FEW020 28/25 Q1009 NOSIG
2026-04-16 15:00:00,METAR VTSP 161500Z VRB01KT 9999 FEW020 29/25 Q1009 NOSIG
2026-04-16 14:30:00,METAR VTSP 161430Z VRB02KT 9999 FEW020 29/25 Q1009 NOSIG
2026-04-16 14:00:00,METAR VTSP 161400Z VRB01KT 9999 FEW020 29/25 Q1008 NOSIG
2026-04-16 13:30:00,METAR VTSP 161330Z 30003KT 270V330 9999 FEW020 29/25 Q1008 NOSIG
2026-04-16 13:00:00,METAR VTSP 161300Z 30006KT 9999 FEW020 29/25 Q1007 NOSIG
2026-04-16 12:30:00,METAR VTSP 161230Z 30006KT 260V330 9999 FEW020 29/25 Q1006 NOSIG
2026-04-16 12:00:00,METAR VTSP 161200Z 30007KT 270V340 9999 FEW020 29/25 Q1006 NOSIG
2026-04-16 11:30:00,METAR VTSP 161130Z 30007KT 260V330 9999 FEW020 30/25 Q1005 NOSIG
2026-04-16 11:00:00,METAR VTSP 161100Z 30008KT 9999 FEW020 30/25 Q1006 NOSIG
2026-04-16 10:30:00,METAR VTSP 161030Z 30008KT 270V330 9999 FEW020 31/26 Q1006 NOSIG
2026-04-16 10:00:00,METAR VTSP 161000Z 30007KT 260V330 9999 FEW020 31/25 Q1006 NOSIG
2026-04-16 09:30:00,METAR VTSP 160930Z 27009KT 9999 FEW020 32/26 Q1006 NOSIG
2026-04-16 09:00:00,METAR VTSP 160900Z 27010KT 9999 FEW020 32/25 Q1006 NOSIG
2026-04-16 08:30:00,METAR VTSP 160830Z 27008KT 250V310 9999 FEW020 33/26 Q1006 NOSIG
2026-04-16 08:00:00,METAR VTSP 160800Z 27006KT 230V310 9999 FEW020 32/25 Q1006 NOSIG
2026-04-16 07:30:00,METAR VTSP 160730Z 24007KT 9999 FEW020 31/25 Q1007 NOSIG
2026-04-16 07:00:00,METAR VTSP 160700Z 28006KT 9999 FEW020 31/25 Q1007 NOSIG
2026-04-16 06:30:00,METAR VTSP 160630Z 28005KT 9999 FEW020 31/26 Q1008 NOSIG
2026-04-16 06:00:00,METAR VTSP 160600Z 27007KT 220V290 9999 FEW020 32/25 Q1009 NOSIG
2026-04-16 05:30:00,METAR VTSP 160530Z 29007KT 250V310 9999 FEW020 32/26 Q1009 NOSIG
2026-04-16 05:00:00,METAR VTSP 160500Z 26008KT 230V300 9999 FEW020 33/25 Q1009 NOSIG
2026-04-16 04:30:00,METAR VTSP 160430Z 28006KT 240V360 9999 FEW020 33/26 Q1009 NOSIG
2026-04-16 04:00:00,METAR VTSP 160400Z 28005KT 220V360 9999 FEW020 33/25 Q1009 NOSIG
2026-04-16 03:30:00,METAR VTSP 160330Z 10006KT 050V170 9999 FEW020 32/25 Q1010 NOSIG
2026-04-16 03:00:00,METAR VTSP 160300Z 08004KT 360V130 9999 FEW020 31/24 Q1010 NOSIG
2026-04-16 02:30:00,METAR VTSP 160230Z 12004KT 060V190 9999 FEW020 31/25 Q1009 NOSIG
2026-04-16 02:00:00,METAR VTSP 160200Z 05004KT 360V090 9999 FEW020 30/25 Q1009 NOSIG
2026-04-16 01:30:00,METAR VTSP 160130Z 06004KT 020V100 9999 FEW020 29/25 Q1008 NOSIG
2026-04-16 01:00:00,METAR VTSP 160100Z 08005KT 9999 FEW020 29/26 Q1008 NOSIG
2026-04-16 00:30:00,METAR VTSP 160030Z 08005KT 9999 FEW020 28/26 Q1008 NOSIG
2026-04-16 00:00:00,METAR VTSP 160000Z 07005KT 9999 FEW020 27/26 Q1007 NOSIG
2026-04-15 23:30:00,METAR VTSP 152330Z 08004KT 9999 FEW020 26/26 Q1007 NOSIG
2026-04-15 23:00:00,METAR VTSP 152300Z VRB02KT 9999 FEW020 26/26 Q1007 NOSIG
2026-04-15 22:30:00,METAR VTSP 152230Z 12003KT 080V150 9999 FEW020 26/26 Q1007 NOSIG
2026-04-15 22:00:00,METAR VTSP 152200Z 10003KT 070V130 9999 FEW020 26/26 Q1007 NOSIG
2026-04-15 21:30:00,METAR VTSP 152130Z VRB02KT 9999 FEW020 27/25 Q1007 NOSIG
2026-04-15 21:00:00,METAR VTSP 152100Z VRB01KT 9999 FEW020 26/25 Q1007 NOSIG
2026-04-15 20:30:00,METAR VTSP 152030Z VRB02KT 9999 FEW020 26/26 Q1007 NOSIG
2026-04-15 20:00:00,METAR VTSP 152000Z VRB01KT 9999 FEW020 26/26 Q1007 NOSIG
2026-04-15 19:30:00,METAR VTSP 151930Z 00000KT 9999 FEW020 26/26 Q1007 NOSIG
2026-04-15 19:00:00,METAR VTSP 151900Z VRB01KT 9999 FEW020 26/26 Q1008 NOSIG
2026-04-15 18:30:00,METAR VTSP 151830Z 00000KT 9999 FEW020 26/26 Q1008 NOSIG
2026-04-15 18:00:00,METAR VTSP 151800Z VRB02KT 9999 FEW020 27/26 Q1008 NOSIG
2026-04-15 17:30:00,METAR VTSP 151730Z VRB02KT 9999 FEW020 27/26 Q1009 NOSIG
2026-04-15 17:00:00,METAR VTSP 151700Z 29003KT 260V340 9999 FEW020 27/26 Q1009 NOSIG
2026-04-15 16:30:00,METAR VTSP 151630Z VRB02KT 9999 FEW020 27/26 Q1009 NOSIG
2026-04-15 16:00:00,METAR VTSP 151600Z VRB02KT 9999 FEW020 27/26 Q1009 NOSIG
2026-04-15 15:30:00,METAR VTSP 151530Z VRB02KT 9999 FEW020 27/26 Q1009 NOSIG
2026-04-15 15:00:00,METAR VTSP 151500Z 28003KT 240V350 9999 FEW020 28/26 Q1009 NOSIG
2026-04-15 14:30:00,METAR VTSP 151430Z 28004KT 230V310 9999 FEW020 28/26 Q1009 NOSIG
2026-04-15 14:00:00,METAR VTSP 151400Z 29005KT 260V320 9999 FEW020 28/26 Q1008 NOSIG
2026-04-15 13:30:00,METAR VTSP 151330Z 27004KT 230V320 9999 FEW020 28/26 Q1008 NOSIG
2026-04-15 13:00:00,METAR VTSP 151300Z 29004KT 260V330 9999 FEW020 29/26 Q1007 NOSIG
2026-04-15 12:30:00,METAR VTSP 151230Z 30005KT 250V330 9999 FEW020 29/26 Q1007 NOSIG
2026-04-15 12:00:00,METAR VTSP 151200Z 28003KT 250V330 9999 FEW020 29/26 Q1007 NOSIG
2026-04-15 11:30:00,METAR VTSP 151130Z 30007KT 250V340 9999 FEW020 29/26 Q1006 NOSIG
2026-04-15 11:00:00,METAR VTSP 151100Z 30009KT 270V330 9999 FEW020 30/26 Q1006 NOSIG
2026-04-15 10:30:00,METAR VTSP 151030Z 31008KT 270V350 9999 FEW020 31/25 Q1006 NOSIG
2026-04-15 10:00:00,METAR VTSP 151000Z 29009KT 260V340 9999 FEW020 31/26 Q1006 NOSIG
2026-04-15 09:30:00,METAR VTSP 150930Z 29009KT 260V320 9999 FEW020 31/26 Q1006 NOSIG
2026-04-15 09:00:00,METAR VTSP 150900Z 29008KT 250V330 9999 FEW020 32/26 Q1007 NOSIG
2026-04-15 08:30:00,METAR VTSP 150830Z 28007KT 250V320 9999 FEW020 32/26 Q1007 NOSIG
2026-04-15 08:00:00,METAR VTSP 150800Z 29009KT 240V310 9999 FEW020 31/26 Q1007 NOSIG
2026-04-15 07:30:00,METAR VTSP 150730Z 29007KT 250V320 9999 FEW020 31/26 Q1007 RETS NOSIG
2026-04-15 07:00:00,METAR VTSP 150700Z 27008KT 230V300 9999 TS FEW018CB 31/26 Q1008 NOSIG
2026-04-15 06:30:00,METAR VTSP 150630Z 27008KT 240V310 9999 FEW020 SCT100 31/26 Q1009 NOSIG
2026-04-15 06:00:00,METAR VTSP 150600Z 27009KT 9999 FEW020 SCT100 31/25 Q1009 NOSIG
2026-04-15 05:30:00,METAR VTSP 150530Z 26008KT 230V290 9999 FEW020 SCT100 32/24 Q1010 NOSIG
2026-04-15 05:00:00,METAR VTSP 150500Z 28006KT 230V300 9999 FEW020 SCT100 31/25 Q1010 NOSIG
2026-04-15 04:30:00,METAR VTSP 150430Z 28006KT 240V310 9999 FEW020 SCT100 31/24 Q1010 NOSIG
2026-04-15 04:00:00,METAR VTSP 150400Z 29004KT 220V350 9999 FEW020 SCT100 31/26 Q1010 NOSIG
2026-04-15 03:30:00,METAR VTSP 150330Z VRB03KT 9999 FEW020 SCT100 30/25 Q1010 NOSIG
2026-04-15 03:00:00,METAR VTSP 150300Z 31006KT 260V010 9999 FEW020 29/24 Q1010 NOSIG
2026-04-15 02:30:00,METAR VTSP 150230Z 32008KT 290V360 9999 SCT020 29/25 Q1010 NOSIG
2026-04-15 02:00:00,METAR VTSP 150200Z 30004KT 220V340 9999 SCT030 31/25 Q1010 NOSIG
2026-04-15 01:30:00,METAR VTSP 150130Z 26005KT 220V300 9999 SCT030 30/25 Q1010 NOSIG
2026-04-15 01:00:00,METAR VTSP 150100Z VRB01KT 9999 FEW020 30/26 Q1009 NOSIG
2026-04-15 00:30:00,METAR VTSP 150030Z VRB02KT 9999 FEW020 28/26 Q1009 NOSIG
2026-04-15 00:00:00,METAR VTSP 150000Z VRB01KT 9999 FEW020 28/26 Q1008 NOSIG
2026-04-14 23:30:00,METAR VTSP 142330Z 31002KT 9999 FEW020 27/25 Q1008 NOSIG
2026-04-14 23:00:00,METAR VTSP 142300Z 30004KT 9999 FEW020 28/25 Q1007 NOSIG
2026-04-14 22:30:00,METAR VTSP 142230Z 30004KT 9999 FEW020 28/25 Q1007 NOSIG
2026-04-14 22:00:00,METAR VTSP 142200Z 29003KT 260V320 9999 FEW020 28/25 Q1007 NOSIG
2026-04-14 21:30:00,METAR VTSP 142130Z 29004KT 9999 FEW020 28/25 Q1007 NOSIG
2026-04-14 21:00:00,METAR VTSP 142100Z 29005KT 9999 FEW020 29/25 Q1007 NOSIG
2026-04-14 20:30:00,METAR VTSP 142030Z 30004KT 9999 FEW020 29/25 Q1007 NOSIG
2026-04-14 20:00:00,METAR VTSP 142000Z 29004KT 9999 FEW020 29/25 Q1007 NOSIG
2026-04-14 19:30:00,METAR VTSP 141930Z 30004KT 9999 FEW020 29/25 Q1007 NOSIG
2026-04-14 19:00:00,METAR VTSP 141900Z 30004KT 9999 FEW020 29/25 Q1008 NOSIG
2026-04-14 18:30:00,METAR VTSP 141830Z 28004KT 9999 FEW020 29/26 Q1008 NOSIG
2026-04-14 18:00:00,METAR VTSP 141800Z 28003KT 250V310 9999 FEW020 28/26 Q1008 NOSIG
2026-04-14 17:30:00,METAR VTSP 141730Z 31003KT 270V340 9999 FEW020 28/27 Q1009 NOSIG
2026-04-14 17:00:00,METAR VTSP 141700Z 29004KT 9999 FEW020 29/27 Q1009 NOSIG
2026-04-14 16:30:00,METAR VTSP 141630Z 30003KT 9999 FEW020 28/27 Q1010 NOSIG
2026-04-14 16:00:00,METAR VTSP 141600Z 30003KT 270V340 9999 FEW020 28/27 Q1010 NOSIG
2026-04-14 15:30:00,METAR VTSP 141530Z 28005KT 9999 FEW020 29/27 Q1010 NOSIG
2026-04-14 15:00:00,METAR VTSP 141500Z 29003KT 260V320 9999 FEW020 28/26 Q1009 NOSIG
2026-04-14 14:30:00,METAR VTSP 141430Z 28003KT 9999 FEW020 29/26 Q1009 NOSIG
2026-04-14 14:00:00,METAR VTSP 141400Z VRB02KT 9999 FEW020 29/26 Q1008 NOSIG
2026-04-14 13:30:00,METAR VTSP 141330Z 28005KT 250V330 9999 FEW020 29/26 Q1008 NOSIG
2026-04-14 13:00:00,METAR VTSP 141300Z 30005KT 270V330 9999 FEW020 29/25 Q1008 NOSIG
2026-04-14 12:30:00,METAR VTSP 141230Z 30006KT 9999 FEW020 29/26 Q1007 NOSIG
2026-04-14 12:00:00,METAR VTSP 141200Z 29006KT 9999 FEW020 29/25 Q1007 NOSIG
2026-04-14 11:30:00,METAR VTSP 141130Z 30006KT 9999 FEW020 30/25 Q1007 NOSIG
2026-04-14 11:00:00,METAR VTSP 141100Z 28007KT 9999 FEW020 30/25 Q1007 NOSIG
2026-04-14 10:30:00,METAR VTSP 141030Z 29009KT 9999 FEW020 31/25 Q1007 NOSIG
2026-04-14 10:00:00,METAR VTSP 141000Z 28009KT 260V320 9999 FEW020 31/25 Q1007 NOSIG
2026-04-14 09:30:00,METAR VTSP 140930Z 29010KT 260V330 9999 FEW020 31/25 Q1007 NOSIG
2026-04-14 09:00:00,METAR VTSP 140900Z 30010KT 260V330 9999 FEW020 31/26 Q1007 NOSIG
2026-04-14 08:30:00,METAR VTSP 140830Z 29011KT 260V320 9999 FEW020 32/26 Q1007 NOSIG
2026-04-14 08:00:00,METAR VTSP 140800Z 28011KT 260V320 9999 FEW020 32/25 Q1008 NOSIG
2026-04-14 07:30:00,METAR VTSP 140730Z 30009KT 270V340 9999 FEW020 31/25 Q1008 NOSIG
2026-04-14 07:00:00,METAR VTSP 140700Z 29009KT 260V330 9999 FEW020 32/25 Q1009 NOSIG
2026-04-14 06:30:00,METAR VTSP 140630Z 29009KT 260V330 9999 FEW020 32/25 Q1009 NOSIG
2026-04-14 06:00:00,METAR VTSP 140600Z 29010KT 260V330 9999 FEW020 32/25 Q1010 NOSIG
2026-04-14 05:30:00,METAR VTSP 140530Z 29009KT 260V330 9999 FEW020 33/25 Q1010 NOSIG
2026-04-14 05:00:00,METAR VTSP 140500Z 28009KT 250V310 9999 FEW020 33/25 Q1011 NOSIG
2026-04-14 04:30:00,METAR VTSP 140430Z 30006KT 270V340 9999 FEW020 33/24 Q1011 NOSIG
2026-04-14 04:00:00,METAR VTSP 140400Z 30007KT 260V330 9999 FEW020 32/25 Q1012 NOSIG
2026-04-14 03:30:00,METAR VTSP 140330Z 30007KT 250V330 9999 FEW020 31/24 Q1012 NOSIG
2026-04-14 03:00:00,METAR VTSP 140300Z 30007KT 270V330 9999 FEW020 31/25 Q1011 NOSIG
2026-04-14 02:30:00,METAR VTSP 140230Z VRB04KT 9999 FEW020 31/25 Q1011 NOSIG
2026-04-14 02:00:00,METAR VTSP 140200Z 34005KT 270V030 9999 FEW020 30/25 Q1011 NOSIG
2026-04-14 01:30:00,METAR VTSP 140130Z VRB03KT 9999 FEW020 30/26 Q1011 NOSIG
2026-04-14 01:00:00,METAR VTSP 140100Z VRB01KT 9999 FEW020 29/25 Q1011 NOSIG
2026-04-14 00:30:00,METAR VTSP 140030Z VRB01KT 9999 FEW020 27/25 Q1010 NOSIG
2026-04-14 00:00:00,METAR VTSP 140000Z 00000KT 9999 FEW020 26/25 Q1010 NOSIG
2026-04-13 23:30:00,METAR VTSP 132330Z 28003KT 260V340 9999 FEW020 26/25 Q1010 NOSIG
2026-04-13 23:00:00,METAR VTSP 132300Z VRB01KT 9999 FEW020 25/24 Q1009 NOSIG
2026-04-13 22:30:00,METAR VTSP 132230Z VRB02KT 9999 FEW020 25/25 Q1008 NOSIG
2026-04-13 22:00:00,METAR VTSP 132200Z VRB02KT 9999 FEW020 25/25 Q1008 NOSIG
2026-04-13 21:30:00,METAR VTSP 132130Z VRB02KT 9999 FEW020 26/25 Q1008 NOSIG
2026-04-13 21:00:00,METAR VTSP 132100Z 00000KT 9999 FEW020 26/25 Q1008 NOSIG
2026-04-13 20:30:00,METAR VTSP 132030Z VRB02KT 9999 FEW020 26/25 Q1008 NOSIG
2026-04-13 20:00:00,METAR VTSP 132000Z 00000KT 9999 FEW020 26/25 Q1008 NOSIG
2026-04-13 19:30:00,METAR VTSP 131930Z VRB01KT 9999 FEW020 26/25 Q1009 NOSIG
2026-04-13 19:00:00,METAR VTSP 131900Z VRB01KT 9999 FEW020 26/25 Q1009 NOSIG
2026-04-13 18:30:00,METAR VTSP 131830Z 00000KT 9999 FEW020 27/26 Q1009 NOSIG
2026-04-13 18:00:00,METAR VTSP 131800Z VRB01KT 9999 FEW020 27/26 Q1009 NOSIG
2026-04-13 17:30:00,METAR VTSP 131730Z 00000KT 9999 FEW020 27/25 Q1010 NOSIG
2026-04-13 17:00:00,METAR VTSP 131700Z VRB01KT 9999 FEW020 27/26 Q1010 NOSIG
2026-04-13 16:30:00,METAR VTSP 131630Z VRB01KT 9999 FEW020 28/25 Q1010 NOSIG
2026-04-13 16:00:00,METAR VTSP 131600Z VRB02KT 9999 FEW020 28/25 Q1011 NOSIG
2026-04-13 15:30:00,METAR VTSP 131530Z VRB02KT 9999 FEW020 28/25 Q1010 NOSIG
2026-04-13 15:00:00,METAR VTSP 131500Z 36003KT 300V060 9999 FEW020 29/25 Q1010 NOSIG
2026-04-13 14:30:00,METAR VTSP 131430Z VRB03KT 9999 FEW020 29/25 Q1010 NOSIG
2026-04-13 14:00:00,METAR VTSP 131400Z 28005KT 240V320 9999 FEW020 29/25 Q1010 NOSIG
2026-04-13 13:30:00,METAR VTSP 131330Z 30006KT 270V330 9999 FEW020 29/25 Q1009 NOSIG
2026-04-13 13:00:00,METAR VTSP 131300Z 30006KT 260V320 9999 FEW020 29/25 Q1009 NOSIG
2026-04-13 12:30:00,METAR VTSP 131230Z 30006KT 9999 FEW020 29/25 Q1009 NOSIG
2026-04-13 12:00:00,METAR VTSP 131200Z 29007KT 9999 FEW020 29/25 Q1008 NOSIG
2026-04-13 11:30:00,METAR VTSP 131130Z 29008KT 9999 FEW020 30/25 Q1008 NOSIG
2026-04-13 11:00:00,METAR VTSP 131100Z 29009KT 260V320 9999 FEW020 30/25 Q1008 NOSIG
2026-04-13 10:30:00,METAR VTSP 131030Z 29010KT 250V320 9999 FEW020 31/25 Q1008 NOSIG
2026-04-13 10:00:00,METAR VTSP 131000Z 30010KT 270V330 9999 FEW020 31/25 Q1008 NOSIG
2026-04-13 09:30:00,METAR VTSP 130930Z 30011KT 9999 FEW020 31/25 Q1008 NOSIG
2026-04-13 09:00:00,METAR VTSP 130900Z 30009KT 270V330 9999 FEW020 32/25 Q1008 NOSIG
2026-04-13 08:30:00,METAR VTSP 130830Z 29010KT 250V330 9999 FEW020 31/25 Q1008 NOSIG
2026-04-13 08:00:00,METAR VTSP 130800Z 28011KT 9999 FEW020 31/25 Q1008 NOSIG
2026-04-13 07:30:00,METAR VTSP 130730Z 28010KT 260V320 9999 FEW020 32/25 Q1009 NOSIG
2026-04-13 07:00:00,METAR VTSP 130700Z 28010KT 250V310 9999 FEW020 33/26 Q1009 NOSIG
2026-04-13 06:30:00,METAR VTSP 130630Z 27010KT 250V310 9999 FEW020 32/25 Q1010 NOSIG
2026-04-13 06:00:00,METAR VTSP 130600Z 28009KT 260V330 9999 FEW020 33/24 Q1010 NOSIG
2026-04-13 05:30:00,METAR VTSP 130530Z 29009KT 250V330 9999 FEW020 33/24 Q1010 NOSIG
2026-04-13 05:00:00,METAR VTSP 130500Z 29009KT 250V330 9999 FEW020 32/24 Q1011 NOSIG
2026-04-13 04:30:00,METAR VTSP 130430Z 30008KT 260V340 9999 SCT020 32/24 Q1011 NOSIG
2026-04-13 04:00:00,METAR VTSP 130400Z 28010KT 250V320 9999 SCT020 32/25 Q1011 NOSIG
2026-04-13 03:30:00,METAR VTSP 130330Z 30009KT 260V330 9999 SCT020 32/25 Q1012 NOSIG
2026-04-13 03:00:00,METAR VTSP 130300Z 30006KT 260V350 9999 BKN020 32/25 Q1012 NOSIG
2026-04-13 02:30:00,METAR VTSP 130230Z 29007KT 250V330 9999 BKN020 31/24 Q1012 NOSIG
2026-04-13 02:00:00,METAR VTSP 130200Z 29005KT 260V340 9999 SCT020 31/25 Q1012 NOSIG
2026-04-13 01:30:00,METAR VTSP 130130Z 32003KT 260V070 9999 SCT020 31/26 Q1011 NOSIG
2026-04-13 01:00:00,METAR VTSP 130100Z VRB02KT 9999 FEW020 30/26 Q1011 NOSIG
2026-04-13 00:30:00,METAR VTSP 130030Z VRB02KT 9999 FEW020 29/26 Q1010 NOSIG
2026-04-13 00:00:00,METAR VTSP 130000Z VRB01KT 9999 FEW020 27/26 Q1010 NOSIG
2026-04-12 23:30:00,METAR VTSP 122330Z VRB01KT 9999 FEW020 27/26 Q1009 NOSIG
2026-04-12 23:00:00,METAR VTSP 122300Z VRB02KT 9999 FEW020 27/26 Q1009 NOSIG
2026-04-12 22:30:00,METAR VTSP 122230Z 34003KT 300V010 9999 FEW020 27/26 Q1008 NOSIG
2026-04-12 22:00:00,METAR VTSP 122200Z VRB01KT 9999 FEW020 27/26 Q1008 NOSIG
2026-04-12 21:30:00,METAR VTSP 122130Z 34003KT 280V020 9999 FEW020 27/26 Q1008 NOSIG
2026-04-12 21:00:00,METAR VTSP 122100Z 32003KT 280V040 9999 FEW020 27/26 Q1008 NOSIG
2026-04-12 20:30:00,METAR VTSP 122030Z VRB02KT 9999 FEW020 27/26 Q1008 NOSIG
2026-04-12 20:00:00,METAR VTSP 122000Z 31003KT 280V010 9999 FEW020 27/26 Q1007 NOSIG
2026-04-12 19:30:00,METAR VTSP 121930Z 32003KT 280V360 9999 FEW020 27/26 Q1007 NOSIG
2026-04-12 19:00:00,METAR VTSP 121900Z 31003KT 280V340 9999 FEW020 27/26 Q1008 NOSIG
2026-04-12 18:30:00,METAR VTSP 121830Z VRB02KT 9999 FEW020 26/26 Q1008 NOSIG
2026-04-12 18:00:00,METAR VTSP 121800Z 33003KT 290V040 9999 FEW020 28/26 Q1008 NOSIG
2026-04-12 17:30:00,METAR VTSP 121730Z 33003KT 290V010 9999 FEW020 28/26 Q1008 NOSIG
2026-04-12 17:00:00,METAR VTSP 121700Z 32003KT 9999 FEW020 27/26 Q1009 NOSIG
2026-04-12 16:30:00,METAR VTSP 121630Z 34002KT 9999 FEW020 27/26 Q1009 NOSIG
2026-04-12 16:00:00,METAR VTSP 121600Z 28004KT 250V310 9999 FEW020 28/26 Q1009 NOSIG
2026-04-12 15:00:00,METAR VTSP 121500Z 30004KT 260V320 9999 FEW020 28/25 Q1009 NOSIG
2026-04-12 14:30:00,METAR VTSP 121430Z 29005KT 260V320 9999 FEW020 29/25 Q1009 NOSIG
2026-04-12 14:00:00,METAR VTSP 121400Z 29005KT 9999 FEW020 29/25 Q1009 NOSIG
2026-04-12 13:30:00,METAR VTSP 121330Z 29007KT 9999 FEW020 29/25 Q1008 NOSIG
2026-04-12 13:00:00,METAR VTSP 121300Z 28007KT 9999 FEW020 29/25 Q1008 NOSIG
2026-04-12 12:30:00,METAR VTSP 121230Z 29006KT 9999 FEW020 29/25 Q1008 NOSIG
2026-04-12 12:00:00,METAR VTSP 121200Z 28008KT 9999 FEW020 29/25 Q1007 NOSIG
2026-04-12 11:30:00,METAR VTSP 121130Z 28007KT 9999 FEW020 30/25 Q1007 NOSIG
2026-04-12 11:00:00,METAR VTSP 121100Z 28009KT 9999 FEW020 30/24 Q1007 NOSIG
2026-04-12 10:30:00,METAR VTSP 121030Z 29009KT 260V320 9999 FEW020 31/25 Q1006 NOSIG
2026-04-12 10:00:00,METAR VTSP 121000Z 28010KT 9999 FEW020 31/24 Q1006 NOSIG
2026-04-12 09:30:00,METAR VTSP 120930Z 29010KT 260V320 9999 FEW020 31/24 Q1006 NOSIG
2026-04-12 09:00:00,METAR VTSP 120900Z 28010KT 260V360 9999 FEW020 31/24 Q1006 NOSIG
2026-04-12 08:30:00,METAR VTSP 120830Z 29009KT 260V330 9999 FEW020 32/23 Q1006 NOSIG
2026-04-12 08:00:00,METAR VTSP 120800Z 30010KT 270V330 9999 FEW020 32/23 Q1007 NOSIG
2026-04-12 07:30:00,METAR VTSP 120730Z 30010KT 9999 FEW020 33/20 Q1007 NOSIG
2026-04-12 07:00:00,METAR VTSP 120700Z 28010KT 230V310 9999 FEW020 33/18 Q1007 NOSIG
2026-04-12 06:30:00,METAR VTSP 120630Z 27009KT 9999 FEW020 33/19 Q1008 NOSIG
2026-04-12 06:00:00,METAR VTSP 120600Z 28010KT 9999 FEW020 33/21 Q1009 NOSIG
2026-04-12 05:30:00,METAR VTSP 120530Z 27009KT 240V300 9999 FEW020 33/22 Q1009 NOSIG
2026-04-12 05:00:00,METAR VTSP 120500Z 27008KT 9999 FEW020 33/21 Q1009 NOSIG
2026-04-12 04:30:00,METAR VTSP 120430Z 26008KT 230V290 9999 FEW020 32/23 Q1010 NOSIG
2026-04-12 04:00:00,METAR VTSP 120400Z 26008KT 230V300 9999 FEW020 32/24 Q1010 NOSIG
2026-04-12 03:30:00,METAR VTSP 120330Z 27007KT 9999 FEW020 32/25 Q1010 NOSIG
2026-04-12 03:00:00,METAR VTSP 120300Z 27007KT 240V300 9999 FEW020 31/25 Q1010 NOSIG
2026-04-12 02:30:00,METAR VTSP 120230Z 28007KT 250V330 9999 FEW020 31/25 Q1010 NOSIG
2026-04-12 02:00:00,METAR VTSP 120200Z 01004KT 270V080 9999 FEW020 31/24 Q1010 NOSIG
2026-04-12 01:30:00,METAR VTSP 120130Z 31004KT 250V020 9999 FEW020 30/25 Q1010 NOSIG
2026-04-12 01:00:00,METAR VTSP 120100Z VRB02KT 9999 FEW020 29/26 Q1009 NOSIG
2026-04-12 00:30:00,METAR VTSP 120030Z 30004KT 270V330 9999 FEW020 28/26 Q1009 NOSIG
2026-04-12 00:00:00,METAR VTSP 120000Z 00000KT 9999 FEW020 26/26 Q1009 NOSIG
2026-04-11 23:30:00,METAR VTSP 112330Z VRB02KT 9999 FEW020 25/25 Q1008 NOSIG
2026-04-11 23:00:00,METAR VTSP 112300Z VRB02KT 9999 FEW020 26/25 Q1008 NOSIG
2026-04-11 22:30:00,METAR VTSP 112230Z 27004KT 9999 FEW020 26/25 Q1008 NOSIG
2026-04-11 22:00:00,METAR VTSP 112200Z 30004KT 270V330 9999 FEW020 27/25 Q1008 NOSIG
2026-04-11 21:30:00,METAR VTSP 112130Z 27004KT 9999 FEW020 26/25 Q1007 NOSIG
2026-04-11 21:00:00,METAR VTSP 112100Z 29005KT 9999 FEW020 27/25 Q1007 NOSIG
2026-04-11 20:30:00,METAR VTSP 112030Z 30006KT 9999 FEW020 27/25 Q1007 NOSIG
2026-04-11 20:00:00,METAR VTSP 112000Z 30006KT 270V330 9999 FEW020 27/25 Q1007 NOSIG
2026-04-11 19:30:00,METAR VTSP 111930Z 29006KT 260V320 9999 FEW020 27/25 Q1008 NOSIG
2026-04-11 19:00:00,METAR VTSP 111900Z 29006KT 250V320 9999 FEW020 27/25 Q1008 NOSIG
2026-04-11 18:30:00,METAR VTSP 111830Z 28005KT 250V310 9999 FEW020 28/24 Q1008 NOSIG
2026-04-11 18:00:00,METAR VTSP 111800Z 29005KT 260V320 9999 FEW020 28/24 Q1009 NOSIG
2026-04-11 17:30:00,METAR VTSP 111730Z 29005KT 270V340 9999 FEW020 28/24 Q1009 NOSIG
2026-04-11 17:00:00,METAR VTSP 111700Z 30005KT 280V340 9999 FEW020 28/24 Q1010 NOSIG
2026-04-11 16:30:00,METAR VTSP 111630Z 29004KT 260V320 9999 FEW020 28/24 Q1010 NOSIG
2026-04-11 16:00:00,METAR VTSP 111600Z 30005KT 270V340 9999 FEW020 29/24 Q1010 NOSIG
2026-04-11 15:30:00,METAR VTSP 111530Z 29005KT 250V320 9999 FEW020 29/25 Q1010 NOSIG
2026-04-11 15:00:00,METAR VTSP 111500Z 29006KT 260V320 9999 FEW020 29/24 Q1010 NOSIG
2026-04-11 14:30:00,METAR VTSP 111430Z 29008KT 9999 FEW020 29/25 Q1010 NOSIG
2026-04-11 14:00:00,METAR VTSP 111400Z 29008KT 260V320 9999 FEW020 29/25 Q1010 NOSIG
2026-04-11 13:30:00,METAR VTSP 111330Z 29007KT 9999 FEW020 29/25 Q1010 NOSIG
2026-04-11 13:00:00,METAR VTSP 111300Z 29008KT 9999 FEW020 29/25 Q1009 NOSIG
2026-04-11 12:30:00,METAR VTSP 111230Z 29008KT 260V320 9999 FEW020 29/24 Q1009 NOSIG
2026-04-11 12:00:00,METAR VTSP 111200Z 29009KT 260V320 9999 FEW020 29/24 Q1008 NOSIG
2026-04-11 11:30:00,METAR VTSP 111130Z 30009KT 270V330 9999 FEW020 29/24 Q1008 NOSIG
2026-04-11 11:00:00,METAR VTSP 111100Z 30011KT 270V330 9999 FEW020 30/24 Q1007 NOSIG
2026-04-11 10:30:00,METAR VTSP 111030Z 31012KT 270V340 9999 FEW020 30/24 Q1007 NOSIG
2026-04-11 10:00:00,METAR VTSP 111000Z 31011KT 270V340 9999 FEW020 30/24 Q1007 NOSIG
2026-04-11 09:30:00,METAR VTSP 110930Z 29012KT 9999 FEW020 31/25 Q1007 NOSIG
2026-04-11 09:00:00,METAR VTSP 110900Z 30011KT 270V350 9999 FEW020 31/25 Q1007 NOSIG
2026-04-11 08:30:00,METAR VTSP 110830Z 29012KT 270V330 9999 FEW020 32/25 Q1008 NOSIG
2026-04-11 08:00:00,METAR VTSP 110800Z 28012KT 260V320 9999 FEW020 32/24 Q1008 NOSIG
2026-04-11 07:30:00,METAR VTSP 110730Z 29012KT 260V330 9999 FEW020 32/25 Q1009 NOSIG
2026-04-11 07:00:00,METAR VTSP 110700Z 29013KT 250V320 9999 FEW020 32/24 Q1009 NOSIG
2026-04-11 06:30:00,METAR VTSP 110630Z 30012KT 260V330 9999 FEW020 32/25 Q1010 NOSIG
2026-04-11 06:00:00,METAR VTSP 110600Z 30012KT 9999 FEW020 32/25 Q1010 NOSIG
2026-04-11 05:30:00,METAR VTSP 110530Z 29012KT 260V330 9999 FEW020 32/24 Q1011 NOSIG
2026-04-11 05:00:00,METAR VTSP 110500Z 30011KT 270V330 9999 FEW020 32/23 Q1011 NOSIG
2026-04-11 04:30:00,METAR VTSP 110430Z 30010KT 270V340 9999 FEW020 32/23 Q1012 NOSIG
2026-04-11 04:00:00,METAR VTSP 110400Z 32010KT 280V360 9999 FEW020 31/24 Q1012 NOSIG
2026-04-11 03:30:00,METAR VTSP 110330Z 31009KT 280V350 9999 FEW020 31/24 Q1012 NOSIG
2026-04-11 03:00:00,METAR VTSP 110300Z 30011KT 280V350 9999 FEW020 31/25 Q1012 NOSIG
2026-04-11 02:30:00,METAR VTSP 110230Z 30008KT 270V350 9999 FEW020 31/25 Q1012 NOSIG
2026-04-11 02:00:00,METAR VTSP 110200Z 31009KT 270V010 9999 FEW020 30/25 Q1011 NOSIG
2026-04-11 01:30:00,METAR VTSP 110130Z 31008KT 270V340 9999 FEW020 30/25 Q1011 NOSIG
2026-04-11 01:00:00,METAR VTSP 110100Z 31004KT 270V360 9999 FEW020 29/26 Q1011 NOSIG
2026-04-11 00:30:00,METAR VTSP 110030Z VRB02KT 9999 FEW020 28/25 Q1010 NOSIG
2026-04-11 00:00:00,METAR VTSP 110000Z 33004KT 280V360 9999 FEW020 28/26 Q1010 NOSIG
2026-04-10 23:30:00,METAR VTSP 102330Z 32004KT 9999 FEW020 27/26 Q1009 NOSIG
2026-04-10 23:00:00,METAR VTSP 102300Z 31004KT 280V350 9999 FEW020 27/26 Q1009 NOSIG
2026-04-10 22:30:00,METAR VTSP 102230Z 31004KT 280V350 9999 FEW020 27/26 Q1009 NOSIG
2026-04-10 22:00:00,METAR VTSP 102200Z 32003KT 270V360 9999 FEW020 27/26 Q1009 NOSIG
2026-04-10 21:30:00,METAR VTSP 102130Z 32004KT 9999 FEW020 28/26 Q1009 NOSIG
2026-04-10 21:00:00,METAR VTSP 102100Z 32003KT 280V030 9999 FEW020 28/26 Q1009 NOSIG
2026-04-10 20:30:00,METAR VTSP 102030Z 33004KT 300V360 9999 FEW020 28/26 Q1009 NOSIG
2026-04-10 20:00:00,METAR VTSP 102000Z 29003KT 250V320 9999 FEW020 28/26 Q1009 NOSIG
2026-04-10 19:30:00,METAR VTSP 101930Z 31003KT 270V340 9999 FEW020 28/26 Q1010 NOSIG
2026-04-10 19:00:00,METAR VTSP 101900Z 31003KT 9999 FEW020 28/26 Q1010 NOSIG
2026-04-10 18:30:00,METAR VTSP 101830Z 29005KT 9999 FEW020 28/26 Q1011 NOSIG
2026-04-10 18:00:00,METAR VTSP 101800Z VRB02KT 9999 FEW020 28/26 Q1011 NOSIG
2026-04-10 17:30:00,METAR VTSP 101730Z VRB01KT 9999 FEW020 29/25 Q1011 NOSIG
2026-04-10 17:00:00,METAR VTSP 101700Z 30004KT 9999 FEW020 28/26 Q1012 NOSIG
2026-04-10 16:30:00,METAR VTSP 101630Z 30003KT 9999 FEW020 28/25 Q1012 NOSIG
2026-04-10 16:00:00,METAR VTSP 101600Z 27005KT 9999 FEW020 29/25 Q1012 NOSIG
2026-04-10 15:30:00,METAR VTSP 101530Z 27003KT 220V310 9999 FEW020 29/25 Q1012 NOSIG
2026-04-10 15:00:00,METAR VTSP 101500Z VRB01KT 9999 FEW020 BKN100 29/25 Q1012 NOSIG
2026-04-10 14:30:00,METAR VTSP 101430Z VRB02KT 9999 FEW020 BKN100 29/24 Q1012 NOSIG
2026-04-10 14:00:00,METAR VTSP 101400Z 29006KT 230V350 9999 FEW020 29/25 Q1011 NOSIG
2026-04-10 13:30:00,METAR VTSP 101330Z 30007KT 270V350 9999 FEW020 29/25 Q1010 NOSIG
2026-04-10 13:00:00,METAR VTSP 101300Z 30007KT 260V340 9999 FEW020 29/25 Q1010 NOSIG
2026-04-10 12:30:00,METAR VTSP 101230Z 30008KT 270V330 9999 FEW020 29/24 Q1010 NOSIG
2026-04-10 12:00:00,METAR VTSP 101200Z 30009KT 250V320 9999 FEW020 29/25 Q1009 NOSIG
2026-04-10 11:30:00,METAR VTSP 101130Z 30009KT 280V340 9999 FEW020 29/25 Q1009 NOSIG
2026-04-10 11:00:00,METAR VTSP 101100Z 30008KT 210V320 9999 FEW020 30/25 Q1009 NOSIG
2026-04-10 10:30:00,METAR VTSP 101030Z 30010KT 260V330 9999 FEW020 30/25 Q1008 NOSIG
2026-04-10 10:00:00,METAR VTSP 101000Z 30009KT 270V340 9999 FEW020 30/25 Q1008 NOSIG
2026-04-10 09:30:00,METAR VTSP 100930Z 30010KT 270V330 9999 FEW020 30/25 Q1008 NOSIG
2026-04-10 09:00:00,METAR VTSP 100900Z 30010KT 260V330 9999 FEW020 31/25 Q1008 NOSIG
2026-04-10 08:30:00,METAR VTSP 100830Z 29010KT 260V330 9999 FEW020 32/25 Q1008 NOSIG
2026-04-10 08:00:00,METAR VTSP 100800Z 29010KT 260V320 9999 FEW020 31/26 Q1009 NOSIG
2026-04-10 07:30:00,METAR VTSP 100730Z 28011KT 9999 FEW020 32/26 Q1009 NOSIG
2026-04-10 07:00:00,METAR VTSP 100700Z 29010KT 260V350 9999 FEW020 32/26 Q1010 NOSIG
2026-04-10 06:30:00,METAR VTSP 100630Z 29011KT 260V340 9999 FEW020 32/26 Q1010 NOSIG
2026-04-10 06:00:00,METAR VTSP 100600Z 29010KT 260V330 9999 FEW020 32/26 Q1011 NOSIG
2026-04-10 05:30:00,METAR VTSP 100530Z 28010KT 260V320 9999 FEW020 32/26 Q1011 NOSIG
2026-04-10 05:00:00,METAR VTSP 100500Z 30008KT 270V330 9999 FEW020 32/25 Q1012 NOSIG
2026-04-10 04:30:00,METAR VTSP 100430Z 30008KT 260V330 9999 FEW020 31/25 Q1012 NOSIG
2026-04-10 04:00:00,METAR VTSP 100400Z 30007KT 260V350 9999 FEW020 31/25 Q1012 NOSIG
2026-04-10 03:30:00,METAR VTSP 100330Z 30007KT 270V330 9999 SCT020 30/25 Q1012 NOSIG
2026-04-10 03:00:00,METAR VTSP 100300Z 31007KT 9999 FEW020 30/25 Q1012 NOSIG
2026-04-10 02:30:00,METAR VTSP 100230Z 35004KT 290V040 9999 FEW020 30/25 Q1012 NOSIG
2026-04-10 02:00:00,METAR VTSP 100200Z VRB03KT 9999 FEW020 30/25 Q1012 NOSIG
2026-04-10 01:30:00,METAR VTSP 100130Z VRB01KT 9999 FEW020 29/25 Q1011 NOSIG
2026-04-10 01:00:00,METAR VTSP 100100Z 00000KT 9999 FEW020 28/25 Q1011 NOSIG
2026-04-10 00:30:00,METAR VTSP 100030Z VRB01KT 9999 FEW020 27/25 Q1011 NOSIG
2026-04-10 00:00:00,METAR VTSP 100000Z VRB02KT 9999 FEW020 26/25 Q1011 NOSIG
2026-04-09 23:30:00,METAR VTSP 092330Z 09002KT 9999 FEW020 26/25 Q1010 NOSIG
2026-04-09 23:00:00,METAR VTSP 092300Z 10002KT 9999 FEW020 25/25 Q1010 NOSIG
2026-04-09 22:30:00,METAR VTSP 092230Z VRB02KT 9999 FEW020 26/26 Q1010 NOSIG
2026-04-09 22:00:00,METAR VTSP 092200Z VRB02KT 9999 FEW020 26/26 Q1009 NOSIG
2026-04-09 21:30:00,METAR VTSP 092130Z VRB01KT 9999 FEW020 26/26 Q1009 NOSIG
2026-04-09 21:00:00,METAR VTSP 092100Z VRB01KT 9999 FEW020 26/26 Q1009 NOSIG
2026-04-09 20:30:00,METAR VTSP 092030Z VRB01KT 9999 FEW020 26/26 Q1010 NOSIG
2026-04-09 20:00:00,METAR VTSP 092000Z 00000KT 9999 FEW020 26/26 Q1010 NOSIG
2026-04-09 19:30:00,METAR VTSP 091930Z VRB02KT 9999 FEW020 26/26 Q1010 NOSIG
2026-04-09 19:00:00,METAR VTSP 091900Z VRB02KT 9999 FEW020 27/25 Q1011 NOSIG
2026-04-09 18:30:00,METAR VTSP 091830Z VRB02KT 9999 FEW020 27/25 Q1011 NOSIG
2026-04-09 18:00:00,METAR VTSP 091800Z VRB02KT 9999 FEW020 27/26 Q1011 NOSIG
2026-04-09 17:30:00,METAR VTSP 091730Z VRB02KT 9999 FEW020 27/25 Q1011 NOSIG
2026-04-09 17:00:00,METAR VTSP 091700Z VRB02KT 9999 FEW020 28/25 Q1012 NOSIG
2026-04-09 16:30:00,METAR VTSP 091630Z VRB02KT 9999 FEW020 28/25 Q1012 NOSIG
2026-04-09 16:00:00,METAR VTSP 091600Z 33003KT 290V040 9999 FEW020 28/26 Q1012 NOSIG
2026-04-09 15:30:00,METAR VTSP 091530Z VRB02KT 9999 FEW020 28/26 Q1012 NOSIG
2026-04-09 15:00:00,METAR VTSP 091500Z VRB02KT 9999 FEW020 28/26 Q1012 NOSIG
2026-04-09 14:30:00,METAR VTSP 091430Z 29003KT 260V330 9999 FEW020 28/26 Q1011 NOSIG
2026-04-09 14:00:00,METAR VTSP 091400Z 30005KT 270V340 9999 FEW020 28/26 Q1011 NOSIG
2026-04-09 13:30:00,METAR VTSP 091330Z 28007KT 9999 FEW020 28/25 Q1010 NOSIG
2026-04-09 13:00:00,METAR VTSP 091300Z 29004KT 260V320 9999 FEW020 28/26 Q1010 NOSIG
2026-04-09 12:30:00,METAR VTSP 091230Z 27004KT 240V310 9999 FEW020 28/25 Q1010 NOSIG
2026-04-09 12:00:00,METAR VTSP 091200Z VRB04KT 9999 FEW020 29/25 Q1009 NOSIG
2026-04-09 11:30:00,METAR VTSP 091130Z 31010KT 250V340 9999 FEW020 29/25 Q1008 NOSIG
2026-04-09 11:00:00,METAR VTSP 091100Z 31010KT 280V350 9999 FEW020 29/26 Q1008 NOSIG
2026-04-09 10:30:00,METAR VTSP 091030Z 30010KT 270V340 9999 FEW020 30/26 Q1008 NOSIG
2026-04-09 10:00:00,METAR VTSP 091000Z 31008KT 280V350 9999 FEW020 31/26 Q1009 NOSIG
2026-04-09 09:30:00,METAR VTSP 090930Z 30008KT 280V340 9999 FEW020 31/25 Q1009 NOSIG
2026-04-09 09:00:00,METAR VTSP 090900Z 31008KT 270V350 9999 FEW020 30/26 Q1009 NOSIG
2026-04-09 08:30:00,METAR VTSP 090830Z 31008KT 260V340 9999 FEW020 30/26 Q1010 NOSIG
2026-04-09 08:00:00,METAR VTSP 090800Z 29008KT 270V330 9999 FEW020 30/26 Q1010 NOSIG
2026-04-09 07:30:00,METAR VTSP 090730Z 29008KT 9999 FEW020 31/26 Q1010 NOSIG
2026-04-09 07:00:00,METAR VTSP 090700Z 30008KT 260V330 9999 FEW020 31/26 Q1011 NOSIG
2026-04-09 06:30:00,METAR VTSP 090630Z 27010KT 9999 FEW020 31/26 Q1011 NOSIG
2026-04-09 06:00:00,METAR VTSP 090600Z 29009KT 250V310 9999 FEW020 30/26 Q1011 NOSIG
2026-04-09 05:30:00,METAR VTSP 090530Z 28009KT 9999 FEW020 SCT100 30/26 Q1012 NOSIG
2026-04-09 05:00:00,METAR VTSP 090500Z 28008KT 260V340 9999 FEW020 SCT060 31/26 Q1012 NOSIG
2026-04-09 04:30:00,METAR VTSP 090430Z 29009KT 260V320 9999 FEW020 SCT100 31/26 Q1012 NOSIG
2026-04-09 04:00:00,METAR VTSP 090400Z 30007KT 250V330 9999 FEW020 SCT070 31/26 Q1013 NOSIG
2026-04-09 03:30:00,METAR VTSP 090330Z 30007KT 260V340 9999 FEW020 SCT070 31/26 Q1013 NOSIG
2026-04-09 03:00:00,METAR VTSP 090300Z 31006KT 270V340 9999 FEW020 SCT070 31/26 Q1013 NOSIG
2026-04-09 02:30:00,METAR VTSP 090230Z 30004KT 260V350 9999 FEW020 SCT080 31/26 Q1013 NOSIG
2026-04-09 02:00:00,METAR VTSP 090200Z 31006KT 240V010 9999 FEW020 SCT100 30/26 Q1012 NOSIG
2026-04-09 01:30:00,METAR VTSP 090130Z VRB03KT 9999 FEW020 SCT070 30/26 Q1012 NOSIG
2026-04-09 01:00:00,METAR VTSP 090100Z 31005KT 270V350 9999 FEW020 29/26 Q1011 NOSIG
2026-04-09 00:30:00,METAR VTSP 090030Z 30004KT 270V330 9999 FEW020 29/26 Q1011 NOSIG
2026-04-09 00:00:00,METAR VTSP 090000Z VRB02KT 9999 FEW020 28/26 Q1010 NOSIG
2026-04-08 23:30:00,METAR VTSP 082330Z 30004KT 260V350 9999 FEW020 28/26 Q1010 NOSIG
2026-04-08 23:00:00,METAR VTSP 082300Z 30003KT 9999 FEW020 28/27 Q1009 NOSIG
2026-04-08 22:30:00,METAR VTSP 082230Z 28003KT 250V330 9999 FEW020 28/26 Q1009 NOSIG
2026-04-08 22:00:00,METAR VTSP 082200Z VRB02KT 9999 FEW020 28/26 Q1009 NOSIG
2026-04-08 21:30:00,METAR VTSP 082130Z 28003KT 250V310 9999 FEW020 28/26 Q1008 NOSIG
2026-04-08 21:00:00,METAR VTSP 082100Z 30003KT 250V330 9999 FEW020 28/26 Q1008 NOSIG
2026-04-08 20:30:00,METAR VTSP 082030Z 29005KT 260V330 9999 FEW020 29/26 Q1008 NOSIG
2026-04-08 20:00:00,METAR VTSP 082000Z VRB04KT 9999 FEW020 29/26 Q1009 NOSIG
2026-04-08 19:30:00,METAR VTSP 081930Z 29005KT 260V330 9999 FEW020 29/26 Q1009 NOSIG
2026-04-08 19:00:00,METAR VTSP 081900Z 28005KT 9999 FEW020 29/25 Q1009 NOSIG
2026-04-08 18:30:00,METAR VTSP 081830Z 29005KT 260V320 9999 FEW020 29/25 Q1009 NOSIG
2026-04-08 18:00:00,METAR VTSP 081800Z 29006KT 9999 FEW020 29/25 Q1010 NOSIG
2026-04-08 17:30:00,METAR VTSP 081730Z 28004KT 9999 FEW020 29/26 Q1010 NOSIG
2026-04-08 17:00:00,METAR VTSP 081700Z 30005KT 260V320 9999 FEW020 29/25 Q1010 NOSIG
2026-04-08 16:30:00,METAR VTSP 081630Z 29005KT 270V330 9999 FEW020 29/25 Q1011 NOSIG
2026-04-08 16:00:00,METAR VTSP 081600Z 30004KT 270V350 9999 FEW020 29/25 Q1011 NOSIG
2026-04-08 15:30:00,METAR VTSP 081530Z 30007KT 270V340 9999 FEW020 29/25 Q1011 NOSIG
2026-04-08 15:00:00,METAR VTSP 081500Z 30007KT 270V340 9999 FEW020 29/25 Q1010 NOSIG
2026-04-08 14:30:00,METAR VTSP 081430Z 30008KT 260V330 9999 FEW020 29/26 Q1010 NOSIG
2026-04-08 14:00:00,METAR VTSP 081400Z 29008KT 9999 FEW020 29/26 Q1010 NOSIG
2026-04-08 13:30:00,METAR VTSP 081330Z 29008KT 9999 FEW020 29/26 Q1009 NOSIG
2026-04-08 13:00:00,METAR VTSP 081300Z 29009KT 270V330 9999 FEW020 29/26 Q1009 NOSIG
2026-04-08 12:30:00,METAR VTSP 081230Z 30009KT 270V340 9999 FEW020 29/26 Q1008 NOSIG
2026-04-08 12:00:00,METAR VTSP 081200Z 31011KT 9999 FEW020 30/25 Q1008 NOSIG
2026-04-08 11:30:00,METAR VTSP 081130Z 31009KT 280V340 9999 FEW020 30/25 Q1008 NOSIG
2026-04-08 11:00:00,METAR VTSP 081100Z 30011KT 270V330 9999 FEW020 30/25 Q1007 NOSIG
2026-04-08 10:30:00,METAR VTSP 081030Z 30011KT 280V340 9999 FEW020 31/26 Q1007 NOSIG
2026-04-08 10:00:00,METAR VTSP 081000Z 30011KT 270V340 9999 FEW020 31/26 Q1007 NOSIG
2026-04-08 09:30:00,METAR VTSP 080930Z 31012KT 270V350 9999 FEW020 31/26 Q1007 NOSIG
2026-04-08 09:00:00,METAR VTSP 080900Z 29012KT 9999 FEW020 31/25 Q1007 NOSIG
2026-04-08 08:30:00,METAR VTSP 080830Z 31012KT 270V340 9999 FEW020 31/25 Q1008 NOSIG
2026-04-08 08:00:00,METAR VTSP 080800Z 30010KT 260V350 9999 FEW020 32/25 Q1008 NOSIG
2026-04-08 07:30:00,METAR VTSP 080730Z 29011KT 260V330 9999 FEW020 32/25 Q1009 NOSIG
2026-04-08 07:00:00,METAR VTSP 080700Z 29011KT 260V330 9999 FEW020 31/25 Q1009 NOSIG
2026-04-08 06:30:00,METAR VTSP 080630Z 30011KT 260V340 9999 FEW020 32/25 Q1010 NOSIG
2026-04-08 06:00:00,METAR VTSP 080600Z 30012KT 270V340 9999 FEW020 32/25 Q1010 NOSIG
2026-04-08 05:30:00,METAR VTSP 080530Z 29012KT 260V360 9999 FEW020 31/24 Q1011 NOSIG
2026-04-08 05:00:00,METAR VTSP 080500Z 30011KT 270V350 9999 FEW020 32/24 Q1011 NOSIG
2026-04-08 04:30:00,METAR VTSP 080430Z 31010KT 270V350 9999 FEW020 32/25 Q1011 WS ALL RWY NOSIG
2026-04-08 04:00:00,METAR VTSP 080400Z 32009KT 290V010 9999 FEW020 31/25 Q1012 NOSIG
2026-04-08 03:30:00,METAR VTSP 080330Z 30011KT 270V340 9999 FEW020 31/25 Q1012 NOSIG
2026-04-08 03:00:00,METAR VTSP 080300Z 31009KT 280V350 9999 FEW020 31/25 Q1012 NOSIG
2026-04-08 02:30:00,METAR VTSP 080230Z 30008KT 270V350 9999 FEW020 29/25 Q1012 NOSIG
2026-04-08 02:00:00,METAR VTSP 080200Z 31005KT 260V350 9999 FEW020 29/26 Q1011 NOSIG
2026-04-08 01:30:00,METAR VTSP 080130Z 30005KT 250V350 9999 FEW020TCU 29/26 Q1011 NOSIG
2026-04-08 01:00:00,METAR VTSP 080100Z 30004KT 250V340 9999 SCT020 29/26 Q1011 NOSIG
2026-04-08 00:30:00,METAR VTSP 080030Z 33004KT 280V020 9999 SCT020 28/26 Q1010 NOSIG
2026-04-08 00:00:00,METAR VTSP 080000Z VRB02KT 9999 SCT020 27/26 Q1010 NOSIG
2026-04-07 23:30:00,METAR VTSP 072330Z 00000KT 9999 FEW020 27/26 Q1009 NOSIG
2026-04-07 23:00:00,METAR VTSP 072300Z 32003KT 260V360 9999 FEW020 27/26 Q1009 NOSIG
2026-04-07 22:30:00,METAR VTSP 072230Z 30002KT 9999 FEW020 26/26 Q1009 NOSIG
2026-04-07 22:00:00,METAR VTSP 072200Z VRB02KT 9999 FEW020 26/26 Q1009 NOSIG
2026-04-07 21:30:00,METAR VTSP 072130Z 27003KT 9999 FEW020 26/26 Q1008 NOSIG
2026-04-07 21:00:00,METAR VTSP 072100Z VRB02KT 9999 FEW020 26/26 Q1008 NOSIG
2026-04-07 20:30:00,METAR VTSP 072030Z 00000KT 9999 FEW020 26/26 Q1008 NOSIG
2026-04-07 20:00:00,METAR VTSP 072000Z VRB02KT 9999 FEW020 26/26 Q1008 NOSIG
2026-04-07 19:30:00,METAR VTSP 071930Z VRB02KT 9999 FEW020 26/26 Q1009 NOSIG
2026-04-07 19:00:00,METAR VTSP 071900Z VRB01KT 9999 FEW020 26/26 Q1009 NOSIG
2026-04-07 18:30:00,METAR VTSP 071830Z 27003KT 240V320 9999 FEW020 27/26 Q1009 NOSIG
2026-04-07 18:00:00,METAR VTSP 071800Z VRB02KT 9999 FEW020 26/26 Q1009 NOSIG
2026-04-07 17:30:00,METAR VTSP 071730Z VRB02KT 9999 FEW020 28/25 Q1010 NOSIG
2026-04-07 17:00:00,METAR VTSP 071700Z 31005KT 9999 FEW020 28/26 Q1010 NOSIG
2026-04-07 16:30:00,METAR VTSP 071630Z 29003KT 9999 FEW020 28/26 Q1010 NOSIG
2026-04-07 15:30:00,METAR VTSP 071530Z 29004KT 250V320 9999 FEW020 29/25 Q1010 NOSIG
2026-04-07 15:00:00,METAR VTSP 071500Z 29005KT 9999 FEW020 29/24 Q1010 NOSIG
2026-04-07 14:30:00,METAR VTSP 071430Z 29007KT 9999 FEW020 29/24 Q1009 NOSIG
2026-04-07 14:00:00,METAR VTSP 071400Z 29007KT 260V320 9999 FEW020 29/24 Q1009 NOSIG
2026-04-07 13:30:00,METAR VTSP 071330Z 30007KT 260V320 9999 FEW020 29/25 Q1009 NOSIG
2026-04-07 13:00:00,METAR VTSP 071300Z 30007KT 270V330 9999 FEW020 29/24 Q1008 NOSIG
2026-04-07 12:30:00,METAR VTSP 071230Z 29008KT 260V320 9999 FEW020 29/24 Q1008 NOSIG
2026-04-07 12:00:00,METAR VTSP 071200Z 29008KT 270V330 9999 FEW020 29/25 Q1008 NOSIG
2026-04-07 11:30:00,METAR VTSP 071130Z 30009KT 270V340 9999 FEW020 30/25 Q1008 NOSIG
2026-04-07 11:00:00,METAR VTSP 071100Z 29009KT 270V330 9999 FEW020 30/24 Q1008 NOSIG
2026-04-07 10:30:00,METAR VTSP 071030Z 30011KT 270V330 9999 FEW020 30/24 Q1008 NOSIG
2026-04-07 10:00:00,METAR VTSP 071000Z 30012KT 260V330 9999 FEW020 30/24 Q1008 NOSIG
2026-04-07 09:30:00,METAR VTSP 070930Z 30012KT 270V330 9999 FEW020 31/25 Q1008 NOSIG
2026-04-07 09:00:00,METAR VTSP 070900Z 30011KT 270V340 9999 FEW020 31/24 Q1008 NOSIG
2026-04-07 08:30:00,METAR VTSP 070830Z 29012KT 270V330 9999 FEW020 31/25 Q1008 NOSIG
2026-04-07 08:00:00,METAR VTSP 070800Z 31013KT 280V350 9999 FEW020 32/24 Q1008 NOSIG
2026-04-07 07:30:00,METAR VTSP 070730Z 31012KT 9999 FEW020 32/25 Q1009 NOSIG
2026-04-07 07:00:00,METAR VTSP 070700Z 31012KT 260V350 9999 FEW020 32/24 Q1009 NOSIG
2026-04-07 06:30:00,METAR VTSP 070630Z 30011KT 270V340 9999 FEW020 32/25 Q1010 NOSIG
2026-04-07 06:00:00,METAR VTSP 070600Z 30011KT 270V340 9999 FEW020 31/25 Q1010 NOSIG
2026-04-07 05:30:00,METAR VTSP 070530Z 30011KT 270V340 9999 FEW020 32/24 Q1011 NOSIG
2026-04-07 05:00:00,METAR VTSP 070500Z 30012KT 9999 FEW020 32/23 Q1011 NOSIG
2026-04-07 04:30:00,METAR VTSP 070430Z 31011KT 280V350 9999 FEW020 31/23 Q1011 NOSIG
2026-04-07 04:00:00,METAR VTSP 070400Z 31009KT 280V360 9999 FEW020 31/25 Q1012 NOSIG
2026-04-07 03:30:00,METAR VTSP 070330Z 29008KT 260V360 9999 FEW020 32/24 Q1012 NOSIG
2026-04-07 03:00:00,METAR VTSP 070300Z 31009KT 280V350 9999 FEW020 31/25 Q1012 NOSIG
2026-04-07 02:30:00,METAR VTSP 070230Z 31007KT 270V340 9999 FEW020 30/25 Q1012 NOSIG
2026-04-07 02:00:00,METAR VTSP 070200Z 30008KT 260V340 9999 FEW020 31/25 Q1012 NOSIG
2026-04-07 01:30:00,METAR VTSP 070130Z 30007KT 270V340 9999 FEW020 30/24 Q1012 NOSIG
2026-04-07 01:00:00,METAR VTSP 070100Z 29006KT 270V340 9999 FEW020 30/24 Q1012 NOSIG
2026-04-07 00:30:00,METAR VTSP 070030Z 30006KT 270V330 9999 FEW020 29/25 Q1011 NOSIG
2026-04-07 00:00:00,METAR VTSP 070000Z 30006KT 270V330 9999 FEW020 29/25 Q1011 NOSIG
2026-04-06 23:30:00,METAR VTSP 062330Z 29007KT 9999 FEW020 29/25 Q1011 NOSIG
2026-04-06 23:00:00,METAR VTSP 062300Z 28007KT 9999 FEW020 29/23 Q1010 NOSIG
2026-04-06 22:30:00,METAR VTSP 062230Z 32003KT 9999 FEW020 28/26 Q1010 NOSIG
2026-04-06 22:00:00,METAR VTSP 062200Z 33003KT 9999 FEW020 28/26 Q1010 NOSIG
2026-04-06 21:30:00,METAR VTSP 062130Z 32003KT 9999 FEW020 28/26 Q1009 NOSIG
2026-04-06 21:00:00,METAR VTSP 062100Z 32004KT 9999 FEW020 28/26 Q1009 NOSIG
2026-04-06 20:30:00,METAR VTSP 062030Z VRB02KT 9999 FEW020 27/26 Q1009 NOSIG
2026-04-06 20:00:00,METAR VTSP 062000Z 32003KT 290V350 9999 FEW020 28/26 Q1009 NOSIG
2026-04-06 19:30:00,METAR VTSP 061930Z 33003KT 300V360 9999 FEW020 27/26 Q1010 NOSIG
2026-04-06 19:00:00,METAR VTSP 061900Z 34003KT 310V010 9999 FEW020 27/25 Q1010 NOSIG
2026-04-06 18:30:00,METAR VTSP 061830Z VRB02KT 9999 FEW020 28/25 Q1010 NOSIG
2026-04-06 18:00:00,METAR VTSP 061800Z 35003KT 310V020 9999 FEW020 28/25 Q1010 NOSIG
2026-04-06 17:30:00,METAR VTSP 061730Z 35003KT 310V030 9999 FEW020 28/25 Q1011 NOSIG
2026-04-06 17:00:00,METAR VTSP 061700Z 31003KT 9999 FEW020 28/25 Q1011 NOSIG
2026-04-06 16:30:00,METAR VTSP 061630Z 32003KT 260V030 9999 FEW020 28/25 Q1011 NOSIG
2026-04-06 16:00:00,METAR VTSP 061600Z 32004KT 280V010 9999 FEW020 29/25 Q1011 NOSIG
2026-04-06 15:30:00,METAR VTSP 061530Z VRB01KT 9999 FEW020 28/25 Q1011 NOSIG
2026-04-06 15:00:00,METAR VTSP 061500Z 31003KT 260V350 9999 FEW020 28/25 Q1011 NOSIG
2026-04-06 14:30:00,METAR VTSP 061430Z 29003KT 200V340 9999 FEW020 29/24 Q1010 NOSIG
2026-04-06 14:00:00,METAR VTSP 061400Z 30004KT 260V010 9999 FEW020 29/24 Q1010 NOSIG
2026-04-06 13:30:00,METAR VTSP 061330Z 30005KT 270V340 9999 FEW020 29/24 Q1010 NOSIG
2026-04-06 13:00:00,METAR VTSP 061300Z 30005KT 260V330 9999 FEW020 29/24 Q1010 NOSIG
2026-04-06 12:30:00,METAR VTSP 061230Z 29008KT 9999 FEW020 29/24 Q1009 NOSIG
2026-04-06 12:00:00,METAR VTSP 061200Z 29007KT 9999 FEW020 29/24 Q1009 NOSIG
2026-04-06 11:30:00,METAR VTSP 061130Z 30009KT 270V330 9999 FEW020 30/24 Q1009 NOSIG
2026-04-06 11:00:00,METAR VTSP 061100Z 30010KT 9999 FEW020 30/24 Q1008 NOSIG
2026-04-06 10:30:00,METAR VTSP 061030Z 30010KT 270V330 9999 FEW020 31/24 Q1008 NOSIG
2026-04-06 10:00:00,METAR VTSP 061000Z 30011KT 9999 SCT020 31/24 Q1008 NOSIG
2026-04-06 09:30:00,METAR VTSP 060930Z 30012KT 9999 FEW020 31/24 Q1008 NOSIG
2026-04-06 09:00:00,METAR VTSP 060900Z 29011KT 260V330 9999 FEW020 32/24 Q1008 NOSIG
2026-04-06 08:30:00,METAR VTSP 060830Z 29011KT 260V340 9999 FEW020 32/24 Q1008 NOSIG
2026-04-06 08:00:00,METAR VTSP 060800Z 29011KT 260V320 9999 FEW020 32/24 Q1008 NOSIG
2026-04-06 07:30:00,METAR VTSP 060730Z 29012KT 260V330 9999 FEW020 32/24 Q1009 NOSIG
2026-04-06 07:00:00,METAR VTSP 060700Z 29011KT 260V330 9999 FEW020 32/25 Q1009 NOSIG
2026-04-06 06:30:00,METAR VTSP 060630Z 29012KT 260V330 9999 FEW020 32/25 Q1009 NOSIG
2026-04-06 06:00:00,METAR VTSP 060600Z 31010KT 260V340 9999 FEW020 31/25 Q1010 NOSIG
2026-04-06 05:30:00,METAR VTSP 060530Z 30010KT 270V350 9999 FEW020 32/25 Q1010 NOSIG
2026-04-06 05:00:00,METAR VTSP 060500Z 30010KT 270V350 9999 FEW020 32/25 Q1010 NOSIG
2026-04-06 04:30:00,METAR VTSP 060430Z 30009KT 260V340 9999 FEW020 32/25 Q1010 NOSIG
2026-04-06 04:00:00,METAR VTSP 060400Z 30010KT 250V340 9999 FEW020 32/24 Q1011 NOSIG
2026-04-06 03:30:00,METAR VTSP 060330Z 31008KT 280V340 9999 FEW020 32/24 Q1011 NOSIG
2026-04-06 03:00:00,METAR VTSP 060300Z 30008KT 270V350 9999 FEW020 31/23 Q1011 NOSIG
2026-04-06 02:30:00,METAR VTSP 060230Z 29008KT 260V320 9999 FEW020 31/24 Q1011 NOSIG
2026-04-06 02:00:00,METAR VTSP 060200Z VRB04KT 9999 FEW020 31/24 Q1011 NOSIG
2026-04-06 01:30:00,METAR VTSP 060130Z 29005KT 260V330 9999 FEW020 30/25 Q1010 NOSIG
2026-04-06 01:00:00,METAR VTSP 060100Z 28003KT 220V360 9999 FEW020 29/25 Q1010 NOSIG
2026-04-06 00:30:00,METAR VTSP 060030Z VRB01KT 9999 FEW020 28/25 Q1010 NOSIG
2026-04-06 00:00:00,METAR VTSP 060000Z VRB01KT 9999 FEW020 26/26 Q1009 NOSIG
2026-04-05 23:30:00,METAR VTSP 052330Z 00000KT 9999 FEW020 26/25 Q1009 NOSIG
2026-04-05 23:00:00,METAR VTSP 052300Z VRB01KT 9999 FEW020 26/25 Q1009 NOSIG
2026-04-05 22:30:00,METAR VTSP 052230Z VRB02KT 9999 FEW020 27/25 Q1008 NOSIG
2026-04-05 22:00:00,METAR VTSP 052200Z 33003KT 240V030 9999 FEW020 27/25 Q1008 NOSIG
2026-04-05 21:30:00,METAR VTSP 052130Z VRB02KT 9999 FEW020 27/25 Q1008 NOSIG
2026-04-05 21:00:00,METAR VTSP 052100Z 31003KT 250V020 9999 FEW020 28/25 Q1008 NOSIG
2026-04-05 20:30:00,METAR VTSP 052030Z 33003KT 250V010 9999 FEW020 28/24 Q1008 NOSIG
2026-04-05 20:00:00,METAR VTSP 052000Z 34003KT 250V030 9999 FEW020 28/24 Q1008 NOSIG
2026-04-05 19:30:00,METAR VTSP 051930Z 33004KT 280V030 9999 FEW020 28/24 Q1008 NOSIG
2026-04-05 19:00:00,METAR VTSP 051900Z VRB03KT 9999 FEW020 28/25 Q1008 NOSIG
2026-04-05 18:30:00,METAR VTSP 051830Z 33004KT 290V010 9999 FEW020 28/25 Q1008 NOSIG
2026-04-05 18:00:00,METAR VTSP 051800Z 33005KT 300V360 9999 FEW020 28/25 Q1009 NOSIG
2026-04-05 17:30:00,METAR VTSP 051730Z 33004KT 290V020 9999 FEW020 28/25 Q1009 NOSIG
2026-04-05 17:00:00,METAR VTSP 051700Z 31004KT 280V350 9999 FEW020 29/25 Q1009 NOSIG
2026-04-05 16:30:00,METAR VTSP 051630Z 29006KT 9999 FEW020 29/25 Q1009 NOSIG
2026-04-05 16:00:00,METAR VTSP 051600Z 29007KT 9999 FEW020 29/25 Q1009 NOSIG
2026-04-05 15:00:00,METAR VTSP 051500Z 28007KT 9999 FEW020 29/25 Q1009 NOSIG
2026-04-05 13:00:00,METAR VTSP 051300Z 29009KT 9999 FEW020 29/25 Q1007 NOSIG
2026-04-05 12:30:00,METAR VTSP 051230Z 30007KT 270V360 9999 FEW020 29/25 Q1007 NOSIG
2026-04-05 12:00:00,METAR VTSP 051200Z 29008KT 9999 FEW020 29/25 Q1006 NOSIG
2026-04-05 11:30:00,METAR VTSP 051130Z 30008KT 270V330 9999 FEW020 30/25 Q1006 NOSIG
2026-04-05 11:00:00,METAR VTSP 051100Z 29009KT 9999 FEW020 30/25 Q1006 NOSIG
2026-04-05 10:30:00,METAR VTSP 051030Z 29010KT 260V330 9999 FEW020 31/25 Q1006 NOSIG
2026-04-05 10:00:00,METAR VTSP 051000Z 30010KT 280V340 9999 FEW020 31/25 Q1006 NOSIG
2026-04-05 09:30:00,METAR VTSP 050930Z 31010KT 280V340 9999 FEW020 31/25 Q1006 NOSIG
2026-04-05 09:00:00,METAR VTSP 050900Z 32011KT 280V360 9999 FEW020 31/25 Q1006 NOSIG
2026-04-05 08:30:00,METAR VTSP 050830Z 29010KT 270V340 9999 FEW020 32/26 Q1007 NOSIG
2026-04-05 08:00:00,METAR VTSP 050800Z 30012KT 260V320 9999 FEW020 32/26 Q1007 NOSIG
2026-04-05 07:30:00,METAR VTSP 050730Z 29011KT 260V320 9999 FEW020 32/25 Q1007 NOSIG
2026-04-05 07:00:00,METAR VTSP 050700Z 30011KT 250V340 9999 FEW020 32/26 Q1008 NOSIG
2026-04-05 06:30:00,METAR VTSP 050630Z 30010KT 260V340 9999 FEW020 32/25 Q1008 NOSIG
2026-04-05 06:00:00,METAR VTSP 050600Z 28012KT 9999 FEW020 32/25 Q1009 NOSIG
2026-04-05 05:30:00,METAR VTSP 050530Z 28013KT 9999 FEW020 32/26 Q1009 NOSIG
2026-04-05 05:00:00,METAR VTSP 050500Z 29010KT 260V330 9999 FEW020 32/26 Q1010 NOSIG
2026-04-05 04:30:00,METAR VTSP 050430Z 28011KT 260V330 9999 FEW020 32/26 Q1010 NOSIG
2026-04-05 04:00:00,METAR VTSP 050400Z 28011KT 9999 FEW020 32/25 Q1010 NOSIG
2026-04-05 03:30:00,METAR VTSP 050330Z 31008KT 270V340 9999 FEW020 31/25 Q1010 NOSIG
2026-04-05 03:00:00,METAR VTSP 050300Z 30008KT 9999 FEW020 31/25 Q1010 NOSIG
2026-04-05 02:30:00,METAR VTSP 050230Z 30008KT 270V330 9999 FEW020 31/25 Q1010 NOSIG
2026-04-05 02:00:00,METAR VTSP 050200Z 31004KT 250V010 9999 FEW020 30/25 Q1009 NOSIG
2026-04-05 01:30:00,METAR VTSP 050130Z VRB02KT 9999 FEW020 30/25 Q1009 NOSIG
2026-04-05 01:00:00,METAR VTSP 050100Z 00000KT 9999 FEW020 29/25 Q1009 NOSIG
2026-04-05 00:30:00,METAR VTSP 050030Z VRB02KT 9999 FEW020 28/25 Q1008 NOSIG
2026-04-05 00:00:00,METAR VTSP 050000Z VRB01KT 9999 FEW020 26/26 Q1008 NOSIG
2026-04-04 23:30:00,METAR VTSP 042330Z 00000KT 9999 FEW020 25/25 Q1008 NOSIG
2026-04-04 23:00:00,METAR VTSP 042300Z VRB01KT 9999 FEW020 26/25 Q1007 NOSIG
2026-04-04 22:30:00,METAR VTSP 042230Z VRB01KT 9999 FEW020 26/25 Q1007 NOSIG
2026-04-04 22:00:00,METAR VTSP 042200Z 00000KT 9999 FEW020 26/25 Q1007 NOSIG
2026-04-04 21:30:00,METAR VTSP 042130Z VRB01KT 9999 FEW020 26/25 Q1007 NOSIG
2026-04-04 21:00:00,METAR VTSP 042100Z VRB01KT 9999 FEW020 26/25 Q1007 NOSIG
2026-04-04 20:30:00,METAR VTSP 042030Z VRB01KT 9999 FEW020 27/26 Q1006 NOSIG
2026-04-04 20:00:00,METAR VTSP 042000Z VRB01KT 9999 FEW020 26/26 Q1007 NOSIG
2026-04-04 19:30:00,METAR VTSP 041930Z 00000KT 9999 FEW020 26/26 Q1007 NOSIG
2026-04-04 19:00:00,METAR VTSP 041900Z VRB02KT 9999 FEW020 27/26 Q1007 NOSIG
2026-04-04 18:30:00,METAR VTSP 041830Z 27004KT 240V310 9999 FEW020 27/26 Q1007 NOSIG
2026-04-04 18:00:00,METAR VTSP 041800Z VRB02KT 9999 FEW020 27/25 Q1008 NOSIG
2026-04-04 17:30:00,METAR VTSP 041730Z 28003KT 200V010 9999 FEW020 28/26 Q1008 NOSIG
2026-04-04 17:00:00,METAR VTSP 041700Z 27004KT 230V320 9999 FEW020 28/26 Q1009 NOSIG
2026-04-04 16:30:00,METAR VTSP 041630Z VRB03KT 9999 FEW020 29/26 Q1009 NOSIG
2026-04-04 16:00:00,METAR VTSP 041600Z 29004KT 260V340 9999 FEW020 29/26 Q1009 NOSIG
2026-04-04 15:30:00,METAR VTSP 041530Z 30005KT 270V350 9999 FEW020 29/26 Q1009 NOSIG
2026-04-04 15:00:00,METAR VTSP 041500Z 29006KT 260V340 9999 FEW020 29/26 Q1009 NOSIG
2026-04-04 14:30:00,METAR VTSP 041430Z 29007KT 250V320 9999 FEW020 29/26 Q1008 NOSIG
2026-04-04 14:00:00,METAR VTSP 041400Z 29007KT 270V330 9999 FEW020 29/25 Q1008 NOSIG
2026-04-04 13:30:00,METAR VTSP 041330Z 29007KT 270V330 9999 FEW020 29/25 Q1008 NOSIG
2026-04-04 13:00:00,METAR VTSP 041300Z 29007KT 260V320 9999 FEW020 29/25 Q1007 NOSIG
2026-04-04 12:30:00,METAR VTSP 041230Z 29007KT 9999 FEW020 29/26 Q1007 NOSIG
2026-04-04 12:00:00,METAR VTSP 041200Z 29007KT 260V330 9999 FEW020 29/26 Q1007 NOSIG
2026-04-04 11:30:00,METAR VTSP 041130Z 29007KT 9999 FEW020 30/25 Q1006 NOSIG
2026-04-04 11:00:00,METAR VTSP 041100Z 30010KT 9999 FEW020 30/25 Q1006 NOSIG
2026-04-04 10:30:00,METAR VTSP 041030Z 29010KT 9999 FEW020 31/25 Q1006 NOSIG
2026-04-04 10:00:00,METAR VTSP 041000Z 29009KT 260V320 9999 FEW020 31/26 Q1006 NOSIG
2026-04-04 09:30:00,METAR VTSP 040930Z 29010KT 9999 FEW020 31/25 Q1006 NOSIG
2026-04-04 09:00:00,METAR VTSP 040900Z 30010KT 280V340 9999 FEW020 31/25 Q1006 NOSIG
2026-04-04 08:30:00,METAR VTSP 040830Z 29009KT 250V340 9999 FEW020 32/25 Q1006 NOSIG
2026-04-04 08:00:00,METAR VTSP 040800Z 31010KT 270V340 9999 FEW020 32/25 Q1007 NOSIG
2026-04-04 07:30:00,METAR VTSP 040730Z 30009KT 270V330 9999 FEW020 32/24 Q1007 NOSIG
2026-04-04 07:00:00,METAR VTSP 040700Z 29009KT 260V350 9999 FEW020 32/24 Q1007 NOSIG
2026-04-04 06:30:00,METAR VTSP 040630Z 28009KT 250V310 9999 FEW020 33/24 Q1008 NOSIG
2026-04-04 06:00:00,METAR VTSP 040600Z 28009KT 250V320 9999 FEW020 32/24 Q1008 NOSIG
2026-04-04 05:30:00,METAR VTSP 040530Z 29007KT 9999 FEW020 33/23 Q1009 NOSIG
2026-04-04 05:00:00,METAR VTSP 040500Z 27007KT 250V310 9999 FEW020 32/23 Q1009 NOSIG
2026-04-04 04:30:00,METAR VTSP 040430Z 27007KT 230V300 9999 FEW020 32/23 Q1010 NOSIG
2026-04-04 04:00:00,METAR VTSP 040400Z 29005KT 250V330 9999 FEW020 32/24 Q1010 NOSIG
2026-04-04 03:30:00,METAR VTSP 040330Z VRB02KT 9999 FEW020 32/24 Q1010 NOSIG
2026-04-04 03:00:00,METAR VTSP 040300Z VRB03KT 9999 FEW020 31/24 Q1010 NOSIG
2026-04-04 02:30:00,METAR VTSP 040230Z 32003KT 230V030 9999 FEW020 31/25 Q1010 NOSIG
2026-04-04 02:00:00,METAR VTSP 040200Z VRB02KT 9999 FEW020 31/26 Q1010 NOSIG
2026-04-04 01:30:00,METAR VTSP 040130Z VRB02KT 9999 FEW020 30/25 Q1010 NOSIG
2026-04-04 01:00:00,METAR VTSP 040100Z VRB02KT 9999 FEW020 29/25 Q1010 NOSIG
2026-04-04 00:30:00,METAR VTSP 040030Z VRB02KT 9999 FEW020 27/24 Q1009 NOSIG
2026-04-04 00:00:00,METAR VTSP 040000Z VRB02KT 9999 FEW020 26/24 Q1009 NOSIG
2026-04-03 23:30:00,METAR VTSP 032330Z VRB02KT 9999 FEW020 25/24 Q1008 NOSIG
2026-04-03 23:00:00,METAR VTSP 032300Z VRB02KT 9999 FEW020 26/24 Q1008 NOSIG
2026-04-03 22:30:00,METAR VTSP 032230Z 07003KT 9999 FEW020 26/24 Q1008 NOSIG
2026-04-03 22:00:00,METAR VTSP 032200Z 07002KT 9999 FEW020 25/24 Q1007 NOSIG
2026-04-03 21:30:00,METAR VTSP 032130Z 07002KT 9999 FEW020 25/24 Q1008 NOSIG
2026-04-03 21:00:00,METAR VTSP 032100Z 09002KT 9999 FEW020 26/24 Q1008 NOSIG
2026-04-03 20:30:00,METAR VTSP 032030Z 07002KT 9999 FEW020 26/24 Q1008 NOSIG
2026-04-03 20:00:00,METAR VTSP 032000Z 08002KT 9999 FEW020 26/24 Q1008 NOSIG
2026-04-03 19:30:00,METAR VTSP 031930Z 08002KT 9999 FEW020 26/24 Q1008 NOSIG
2026-04-03 19:00:00,METAR VTSP 031900Z 08002KT 9999 FEW020 27/24 Q1008 NOSIG
2026-04-03 18:30:00,METAR VTSP 031830Z VRB02KT 9999 FEW020 27/24 Q1009 NOSIG
2026-04-03 18:00:00,METAR VTSP 031800Z 08001KT 9999 FEW020 27/24 Q1009 NOSIG
2026-04-03 17:30:00,METAR VTSP 031730Z 08001KT 9999 FEW020 27/24 Q1009 NOSIG
2026-04-03 17:00:00,METAR VTSP 031700Z 08001KT 9999 FEW020 SCT070 28/24 Q1010 NOSIG
2026-04-03 16:30:00,METAR VTSP 031630Z 00000KT 9999 FEW020 SCT070 28/25 Q1010 NOSIG
2026-04-03 16:00:00,METAR VTSP 031600Z VRB01KT 9999 FEW020 28/23 Q1010 NOSIG
2026-04-03 15:30:00,METAR VTSP 031530Z VRB02KT 9999 FEW020 29/22 Q1010 NOSIG
2026-04-03 15:00:00,METAR VTSP 031500Z 30003KT 260V350 9999 FEW020 28/23 Q1010 NOSIG
2026-04-03 14:30:00,METAR VTSP 031430Z 29007KT 9999 FEW020 29/23 Q1010 NOSIG
2026-04-03 14:00:00,METAR VTSP 031400Z 29005KT 9999 FEW020 29/22 Q1010 NOSIG
2026-04-03 13:30:00,METAR VTSP 031330Z VRB02KT 9999 FEW020 30/22 Q1009 NOSIG
2026-04-03 13:00:00,METAR VTSP 031300Z VRB01KT 9999 FEW020 30/23 Q1009 NOSIG
2026-04-03 12:30:00,METAR VTSP 031230Z VRB01KT 9999 FEW020 30/23 Q1008 NOSIG
2026-04-03 12:00:00,METAR VTSP 031200Z VRB02KT 9999 FEW020 30/24 Q1008 NOSIG
2026-04-03 11:30:00,METAR VTSP 031130Z 28007KT 9999 FEW020 29/25 Q1008 NOSIG
2026-04-03 11:00:00,METAR VTSP 031100Z 28009KT 9999 FEW020 30/24 Q1008 NOSIG
2026-04-03 10:30:00,METAR VTSP 031030Z 28010KT 9999 FEW020 30/24 Q1007 NOSIG
2026-04-03 10:00:00,METAR VTSP 031000Z 27010KT 220V300 9999 FEW020 32/24 Q1007 NOSIG
2026-04-03 09:30:00,METAR VTSP 030930Z 25007KT 220V280 9999 FEW020 33/21 Q1007 NOSIG
2026-04-03 09:00:00,METAR VTSP 030900Z 26010KT 9999 FEW020 33/22 Q1007 NOSIG
2026-04-03 08:30:00,METAR VTSP 030830Z 26011KT 9999 FEW020 33/22 Q1007 NOSIG
2026-04-03 08:00:00,METAR VTSP 030800Z 08006KT 040V120 9999 FEW020 34/16 Q1007 WS ALL RWY NOSIG
2026-04-03 07:30:00,METAR VTSP 030730Z 08008KT 030V110 9999 FEW020 35/17 Q1008 NOSIG
2026-04-03 07:00:00,METAR VTSP 030700Z 08007KT 040V130 9999 FEW020 34/16 Q1008 NOSIG
2026-04-03 06:30:00,METAR VTSP 030630Z 08006KT 040V130 9999 FEW020 34/19 Q1009 NOSIG
2026-04-03 06:00:00,METAR VTSP 030600Z 09007KT 060V130 9999 FEW020 34/20 Q1010 NOSIG
2026-04-03 05:30:00,METAR VTSP 030530Z 08006KT 010V130 9999 FEW020 34/21 Q1010 NOSIG
2026-04-03 05:00:00,METAR VTSP 030500Z 08006KT 050V130 9999 FEW020 33/21 Q1011 NOSIG
2026-04-03 04:30:00,METAR VTSP 030430Z 10006KT 060V140 9999 FEW020 33/22 Q1011 NOSIG
2026-04-03 04:00:00,METAR VTSP 030400Z 08008KT 9999 FEW020 32/22 Q1011 NOSIG
2026-04-03 03:30:00,METAR VTSP 030330Z 08008KT 040V110 9999 FEW020 31/22 Q1011 NOSIG
2026-04-03 03:00:00,METAR VTSP 030300Z 07008KT 030V100 9999 FEW020 31/23 Q1011 NOSIG
2026-04-03 02:30:00,METAR VTSP 030230Z 09009KT 040V120 9999 FEW020 31/23 Q1011 NOSIG
2026-04-03 02:00:00,METAR VTSP 030200Z 09009KT 040V110 9999 FEW020 30/24 Q1011 NOSIG
2026-04-03 01:30:00,METAR VTSP 030130Z 09011KT 9999 FEW020 29/24 Q1010 NOSIG
2026-04-03 01:00:00,METAR VTSP 030100Z 06004KT 330V130 9999 FEW020 28/24 Q1010 NOSIG
2026-04-03 00:30:00,METAR VTSP 030030Z 08004KT 010V120 9999 FEW020 27/24 Q1010 NOSIG
2026-04-03 00:00:00,METAR VTSP 030000Z VRB04KT 9999 FEW020 27/23 Q1009 NOSIG
2026-04-02 23:30:00,METAR VTSP 022330Z VRB02KT 9999 FEW020 25/24 Q1009 NOSIG
2026-04-02 23:00:00,METAR VTSP 022300Z 13005KT 9999 FEW020 26/24 Q1008 NOSIG
2026-04-02 22:30:00,METAR VTSP 022230Z 09004KT 9999 FEW020 26/24 Q1008 NOSIG
2026-04-02 22:00:00,METAR VTSP 022200Z 12005KT 9999 FEW020 27/24 Q1008 NOSIG
2026-04-02 21:30:00,METAR VTSP 022130Z 10007KT 9999 FEW020 26/26 Q1008 NOSIG
2026-04-02 21:00:00,METAR VTSP 022100Z 09007KT 9999 FEW020 27/26 Q1008 NOSIG
2026-04-02 20:30:00,METAR VTSP 022030Z 10005KT 9999 FEW020 27/26 Q1009 NOSIG
2026-04-02 20:00:00,METAR VTSP 022000Z 08002KT 9999 FEW020 27/27 Q1009 NOSIG
2026-04-02 19:30:00,METAR VTSP 021930Z 15003KT 9999 FEW020 26/26 Q1009 NOSIG
2026-04-02 19:00:00,METAR VTSP 021900Z 08003KT 040V110 9999 FEW020 27/26 Q1009 NOSIG
2026-04-02 18:30:00,METAR VTSP 021830Z 08003KT 9999 FEW020 27/26 Q1009 NOSIG
2026-04-02 18:00:00,METAR VTSP 021800Z 04003KT 010V070 9999 FEW020 28/25 Q1010 NOSIG
2026-04-02 17:30:00,METAR VTSP 021730Z 07003KT 350V110 9999 FEW020 28/25 Q1010 NOSIG
2026-04-02 17:00:00,METAR VTSP 021700Z 08003KT 030V110 9999 FEW020 29/26 Q1010 NOSIG
2026-04-02 16:30:00,METAR VTSP 021630Z VRB02KT 9999 FEW020 29/26 Q1010 NOSIG
2026-04-02 16:00:00,METAR VTSP 021600Z 32003KT 250V060 9999 FEW020 29/25 Q1010 NOSIG
2026-04-02 15:30:00,METAR VTSP 021530Z 33004KT 280V030 9999 FEW020 29/25 Q1010 NOSIG
2026-04-02 15:00:00,METAR VTSP 021500Z 33003KT 280V360 9999 FEW020 29/25 Q1010 NOSIG
2026-04-02 14:30:00,METAR VTSP 021430Z VRB02KT 9999 FEW020 28/26 Q1010 NOSIG
2026-04-02 14:00:00,METAR VTSP 021400Z 34003KT 280V020 9999 FEW020 28/26 Q1009 NOSIG
2026-04-02 13:30:00,METAR VTSP 021330Z 33003KT 9999 FEW020 28/26 Q1009 NOSIG
2026-04-02 13:00:00,METAR VTSP 021300Z 31002KT 9999 FEW020 28/26 Q1009 NOSIG
2026-04-02 12:30:00,METAR VTSP 021230Z 31003KT 280V340 9999 FEW020 29/26 Q1008 NOSIG
2026-04-02 12:00:00,METAR VTSP 021200Z 29005KT 9999 FEW020 29/25 Q1008 NOSIG
2026-04-02 11:30:00,METAR VTSP 021130Z 29006KT 9999 SCT020 30/25 Q1007 NOSIG
2026-04-02 11:00:00,METAR VTSP 021100Z 28007KT 9999 SCT020 30/25 Q1007 NOSIG
2026-04-02 10:30:00,METAR VTSP 021030Z 29008KT 9999 FEW020 31/25 Q1007 NOSIG
2026-04-02 10:00:00,METAR VTSP 021000Z 27010KT 9999 FEW020 31/26 Q1007 NOSIG
2026-04-02 09:30:00,METAR VTSP 020930Z 28011KT 9999 SCT020 31/26 Q1007 NOSIG
2026-04-02 09:00:00,METAR VTSP 020900Z 27013KT 9999 SCT020 32/26 Q1007 NOSIG
2026-04-02 08:30:00,METAR VTSP 020830Z 26011KT 9999 SCT020 33/25 Q1007 NOSIG
2026-04-02 08:00:00,METAR VTSP 020800Z 26013KT 9999 FEW020 32/25 Q1008 NOSIG
2026-04-02 07:30:00,METAR VTSP 020730Z 27012KT 9999 FEW020 33/25 Q1008 NOSIG
2026-04-02 07:00:00,METAR VTSP 020700Z VRB06KT 9999 FEW020 34/22 Q1009 NOSIG
2026-04-02 06:30:00,METAR VTSP 020630Z 09006KT 010V160 9999 FEW020 35/23 Q1009 NOSIG
2026-04-02 06:00:00,METAR VTSP 020600Z 07006KT 330V100 9999 FEW020 34/23 Q1010 NOSIG
2026-04-02 05:30:00,METAR VTSP 020530Z 08007KT 040V110 9999 SCT020 34/23 Q1010 NOSIG
2026-04-02 05:00:00,METAR VTSP 020500Z 07007KT 020V110 9999 FEW020 33/24 Q1010 NOSIG
2026-04-02 04:30:00,METAR VTSP 020430Z 07006KT 030V100 9999 SCT020 33/24 Q1011 NOSIG
2026-04-02 04:00:00,METAR VTSP 020400Z 09006KT 030V140 9999 FEW020 33/24 Q1011 NOSIG
2026-04-02 03:30:00,METAR VTSP 020330Z 08008KT 050V130 9999 SCT020 32/25 Q1011 NOSIG
2026-04-02 03:00:00,METAR VTSP 020300Z 09009KT 060V120 9999 FEW020 32/24 Q1011 NOSIG
2026-04-02 02:30:00,METAR VTSP 020230Z 08007KT 330V120 9999 FEW020 31/25 Q1011 NOSIG
2026-04-02 02:00:00,METAR VTSP 020200Z 07006KT 020V120 9999 FEW020 30/25 Q1011 NOSIG
2026-04-02 01:30:00,METAR VTSP 020130Z 08006KT 9999 FEW020 30/25 Q1011 NOSIG
2026-04-02 01:00:00,METAR VTSP 020100Z VRB02KT 9999 FEW020 29/25 Q1010 NOSIG
2026-04-02 00:30:00,METAR VTSP 020030Z VRB02KT 9999 FEW020 27/25 Q1010 NOSIG
2026-04-02 00:00:00,METAR VTSP 020000Z VRB01KT 9999 FEW020 26/25 Q1009 NOSIG
2026-04-01 23:30:00,METAR VTSP 012330Z VRB02KT 9999 FEW020 26/25 Q1009 NOSIG
2026-04-01 23:00:00,METAR VTSP 012300Z 06004KT 9999 FEW020 27/25 Q1008 NOSIG
2026-04-01 22:30:00,METAR VTSP 012230Z VRB02KT 9999 FEW020 26/26 Q1008 NOSIG
2026-04-01 22:00:00,METAR VTSP 012200Z 00000KT 9999 FEW020 26/26 Q1008 NOSIG
2026-04-01 21:30:00,METAR VTSP 012130Z 11002KT 9999 FEW020 26/26 Q1008 NOSIG
2026-04-01 21:00:00,METAR VTSP 012100Z VRB01KT 9999 FEW020 26/26 Q1009 NOSIG
2026-04-01 20:30:00,METAR VTSP 012030Z VRB02KT 9999 FEW020 27/25 Q1009 NOSIG
2026-04-01 20:00:00,METAR VTSP 012000Z 32003KT 230V010 9999 FEW020 28/25 Q1009 NOSIG
2026-04-01 19:30:00,METAR VTSP 011930Z 33003KT 290V010 9999 FEW020 28/25 Q1009 NOSIG
2026-04-01 19:00:00,METAR VTSP 011900Z 34003KT 310V020 9999 FEW020 28/25 Q1009 NOSIG
2026-04-01 18:30:00,METAR VTSP 011830Z 33004KT 300V360 9999 FEW020 28/25 Q1010 NOSIG
2026-04-01 18:00:00,METAR VTSP 011800Z VRB01KT 9999 FEW020 27/26 Q1010 NOSIG
2026-04-01 17:30:00,METAR VTSP 011730Z VRB02KT 9999 FEW020 28/26 Q1010 NOSIG
2026-04-01 17:00:00,METAR VTSP 011700Z VRB01KT 9999 FEW020 28/26 Q1010 NOSIG
2026-04-01 16:30:00,METAR VTSP 011630Z 30003KT 9999 FEW020 28/26 Q1010 NOSIG
2026-04-01 16:00:00,METAR VTSP 011600Z 30004KT 270V330 9999 FEW020 28/25 Q1010 NOSIG
2026-04-01 15:30:00,METAR VTSP 011530Z 30004KT 9999 FEW020 28/25 Q1010 NOSIG
2026-04-01 15:00:00,METAR VTSP 011500Z 30006KT 9999 FEW020 29/25 Q1010 NOSIG
2026-04-01 14:00:00,METAR VTSP 011400Z 29006KT 9999 FEW020 29/25 Q1009 NOSIG
2026-04-01 13:30:00,METAR VTSP 011330Z 30005KT 9999 FEW020 29/25 Q1009 NOSIG
2026-04-01 13:00:00,METAR VTSP 011300Z 30005KT 9999 FEW020 29/26 Q1008 NOSIG
2026-04-01 12:30:00,METAR VTSP 011230Z 31004KT 9999 FEW020 29/26 Q1008 NOSIG
2026-04-01 12:00:00,METAR VTSP 011200Z 30005KT 9999 FEW020 29/26 Q1008 NOSIG
2026-04-01 11:30:00,METAR VTSP 011130Z 28005KT 260V320 9999 FEW020 29/26 Q1007 NOSIG
2026-04-01 11:00:00,METAR VTSP 011100Z 27007KT 9999 FEW020 30/26 Q1007 NOSIG
2026-04-01 10:30:00,METAR VTSP 011030Z 29007KT 9999 FEW020 31/26 Q1007 NOSIG
2026-04-01 10:00:00,METAR VTSP 011000Z 28007KT 240V320 9999 FEW020 31/25 Q1007 NOSIG
2026-04-01 09:30:00,METAR VTSP 010930Z 28008KT 250V320 9999 FEW020 31/25 Q1007 NOSIG
2026-04-01 09:00:00,METAR VTSP 010900Z 28007KT 230V330 9999 FEW020 31/25 Q1007 NOSIG
2026-04-01 08:30:00,METAR VTSP 010830Z 27009KT 240V300 9999 FEW020 31/25 Q1008 NOSIG
2026-04-01 08:00:00,METAR VTSP 010800Z 28008KT 240V310 9999 FEW020 31/25 Q1008 NOSIG
2026-04-01 07:30:00,METAR VTSP 010730Z 27008KT 9999 SCT020 32/26 Q1008 NOSIG
2026-04-01 07:00:00,METAR VTSP 010700Z 31007KT 280V350 9999 VCSH FEW018TCU SCT020 31/26 Q1009 NOSIG
2026-04-01 06:30:00,METAR VTSP 010630Z 29007KT 250V360 9999 -RA SCT018 32/26 Q1010 NOSIG
2026-04-01 06:00:00,METAR VTSP 010600Z 30006KT 280V340 9999 -RA BKN018 31/26 Q1010 NOSIG
2026-04-01 05:30:00,METAR VTSP 010530Z 32003KT 280V060 9999 SCT020 30/26 Q1011 NOSIG
2026-04-01 05:00:00,METAR VTSP 010500Z 02003KT 300V090 9999 FEW020 31/27 Q1011 NOSIG
2026-04-01 04:30:00,METAR VTSP 010430Z VRB03KT 9999 SCT020 31/26 Q1011 NOSIG
2026-04-01 04:00:00,METAR VTSP 010400Z VRB04KT 9999 SCT020 31/26 Q1012 NOSIG
2026-04-01 03:30:00,METAR VTSP 010330Z VRB02KT 9999 FEW020 30/26 Q1012 NOSIG
2026-04-01 03:00:00,METAR VTSP 010300Z VRB02KT 9999 FEW020 31/27 Q1011 NOSIG
2026-04-01 02:30:00,METAR VTSP 010230Z VRB02KT 9999 FEW020 30/27 Q1011 NOSIG
2026-04-01 02:00:00,METAR VTSP 010200Z VRB01KT 9999 FEW020 29/26 Q1011 NOSIG
2026-04-01 01:30:00,METAR VTSP 010130Z 07003KT 020V100 9999 FEW020 28/26 Q1011 NOSIG
2026-04-01 01:00:00,METAR VTSP 010100Z 07003KT 030V100 9999 FEW020 27/26 Q1011 NOSIG
2026-04-01 00:30:00,METAR VTSP 010030Z 13003KT 100V160 9999 FEW020 26/25 Q1010 NOSIG
2026-04-01 00:00:00,METAR VTSP 010000Z 10003KT 090V170 9999 FEW020 26/25 Q1010 NOSIG
2026-03-31 23:30:00,METAR VTSP 312330Z 12002KT 9999 FEW020 25/25 Q1010 NOSIG
2026-03-31 23:00:00,METAR VTSP 312300Z VRB02KT 9999 FEW020 25/25 Q1009 NOSIG
2026-03-31 22:30:00,METAR VTSP 312230Z 00000KT 9999 FEW020 25/25 Q1009 NOSIG
2026-03-31 22:00:00,METAR VTSP 312200Z 00000KT 9999 FEW020 25/25 Q1009 NOSIG
2026-03-31 21:30:00,METAR VTSP 312130Z 00000KT 9999 FEW020 24/24 Q1009 NOSIG
2026-03-31 21:00:00,METAR VTSP 312100Z VRB02KT 9999 FEW020 24/24 Q1009 NOSIG
2026-03-31 20:30:00,METAR VTSP 312030Z 00000KT 9999 FEW020 24/24 Q1009 NOSIG
2026-03-31 20:00:00,METAR VTSP 312000Z VRB02KT 9999 FEW020 24/24 Q1009 NOSIG
2026-03-31 19:30:00,METAR VTSP 311930Z VRB02KT 9999 -RA FEW020 24/24 Q1009 NOSIG
2026-03-31 19:00:00,METAR VTSP 311900Z VRB02KT 9999 -RA FEW020 24/24 Q1009 RETS NOSIG
2026-03-31 18:30:00,METAR VTSP 311830Z VRB02KT 9999 -TSRA FEW018CB BKN100 24/24 Q1010 NOSIG
2026-03-31 18:00:00,METAR VTSP 311800Z 15003KT 100V250 9999 -TSRA FEW018CB BKN100 24/24 Q1011 NOSIG
2026-03-31 17:30:00,METAR VTSP 311730Z VRB02KT 8000 -TSRA FEW018CB BKN050 24/24 Q1011 RERA NOSIG
2026-03-31 17:00:00,METAR VTSP 311700Z 26008KT 230V290 5000 1500W TSRA FEW010 FEW018CB SCT020 BKN050 24/24 Q1012 RERA NOSIG
2026-03-31 16:30:00,METAR VTSP 311630Z 21008KT 180V240 1200 R27///// +TSRA FEW004 FEW014CB OVC020 24/24 Q1012 BECMG TL1720 8000 NSW
2026-03-31 16:00:00,METAR VTSP 311600Z 24012KT 7000 0800W -TSRA FEW005 FEW016CB BKN025 25/25 Q1011 NOSIG
2026-03-31 15:30:00,METAR VTSP 311530Z 26010KT 220V280 9000 -TSRA FEW010 FEW018CB BKN030 27/26 Q1011 WS ALL RWY NOSIG
2026-03-31 15:00:00,METAR VTSP 311500Z 13003KT 9000 -TSRA FEW020CB SCT040 BKN080 28/27 Q1011 NOSIG
2026-03-31 14:30:00,METAR VTSP 311430Z 06003KT 360V090 9999 -RA FEW020CB BKN040 29/25 Q1010 RETS NOSIG
2026-03-31 14:00:00,METAR VTSP 311400Z VRB02KT 9000 3000SE -TSRA FEW020CB BKN040 29/25 Q1009 NOSIG
2026-03-31 13:30:00,METAR VTSP 311330Z VRB02KT 9999 VCTS FEW020CB BKN040 29/26 Q1009 NOSIG
2026-03-31 13:00:00,METAR VTSP 311300Z 31003KT 270V340 9999 FEW020TCU BKN040 29/25 Q1009 NOSIG
2026-03-31 12:30:00,METAR VTSP 311230Z 30003KT 270V330 9999 FEW020 29/25 Q1009 NOSIG
2026-03-31 12:00:00,METAR VTSP 311200Z 29005KT 9999 FEW018CB 29/25 Q1008 NOSIG
2026-03-31 11:30:00,METAR VTSP 311130Z 30006KT 270V330 9999 FEW018TCU 30/25 Q1008 NOSIG
2026-03-31 11:00:00,METAR VTSP 311100Z 31006KT 290V350 9999 FEW018TCU BKN020 30/25 Q1008 NOSIG
2026-03-31 10:30:00,METAR VTSP 311030Z 31007KT 260V330 9999 FEW018CB SCT020 30/25 Q1007 NOSIG
2026-03-31 10:00:00,METAR VTSP 311000Z 29009KT 9999 FEW020TCU 31/25 Q1006 NOSIG
2026-03-31 09:30:00,METAR VTSP 310930Z 27009KT 240V310 9999 FEW020TCU 32/25 Q1007 NOSIG
2026-03-31 09:00:00,METAR VTSP 310900Z 27009KT 220V300 9999 FEW020TCU 32/24 Q1007 NOSIG
2026-03-31 08:30:00,METAR VTSP 310830Z 27007KT 230V310 9999 FEW020TCU 32/25 Q1007 NOSIG
2026-03-31 08:00:00,METAR VTSP 310800Z 25010KT 220V300 9999 FEW020TCU SCT060 31/24 Q1007 NOSIG
2026-03-31 07:30:00,METAR VTSP 310730Z 26008KT 220V290 9999 FEW020TCU SCT060 32/25 Q1008 NOSIG
2026-03-31 07:00:00,METAR VTSP 310700Z 25007KT 210V290 9999 FEW020CB SCT060 32/25 Q1008 NOSIG
2026-03-31 06:30:00,METAR VTSP 310630Z 24008KT 200V260 9999 VCSH FEW020CB SCT040 BKN100 29/23 Q1009 RETSRA NOSIG
2026-03-31 06:00:00,METAR VTSP 310600Z 26010KT 220V280 9000 2000S -TSRA FEW018CB BKN030 31/25 Q1010 NOSIG
2026-03-31 05:30:00,METAR VTSP 310530Z 30005KT 250V350 9999 FEW018CB SCT030 32/25 Q1010 NOSIG
2026-03-31 05:00:00,METAR VTSP 310500Z VRB04KT 9999 FEW020 32/24 Q1011 NOSIG
2026-03-31 04:30:00,METAR VTSP 310430Z VRB03KT 9999 FEW020 32/25 Q1011 NOSIG
2026-03-31 04:00:00,METAR VTSP 310400Z VRB03KT 9999 FEW020 32/25 Q1011 NOSIG
2026-03-31 03:30:00,METAR VTSP 310330Z VRB02KT 9999 SCT020 33/26 Q1011 WS ALL RWY NOSIG
2026-03-31 03:00:00,METAR VTSP 310300Z 13004KT 070V180 9999 SCT020 32/25 Q1012 NOSIG
2026-03-31 02:30:00,METAR VTSP 310230Z 13005KT 060V170 9999 SCT020 33/25 Q1012 NOSIG
2026-03-31 02:00:00,METAR VTSP 310200Z 08003KT 030V130 9999 FEW020 31/25 Q1012 NOSIG
2026-03-31 01:30:00,METAR VTSP 310130Z 10005KT 070V130 9999 FEW020CB 29/25 Q1011 NOSIG
2026-03-31 01:00:00,METAR VTSP 310100Z 11005KT 070V140 9999 FEW020CB 29/25 Q1011 NOSIG
2026-03-31 00:30:00,METAR VTSP 310030Z VRB02KT 9999 FEW020CB 28/26 Q1011 NOSIG
2026-03-31 00:00:00,METAR VTSP 310000Z VRB03KT 9999 FEW020CB 27/25 Q1010 NOSIG
2026-03-30 23:30:00,METAR VTSP 302330Z 08004KT 040V100 9999 FEW020CB 26/25 Q1010 NOSIG
2026-03-30 23:00:00,METAR VTSP 302300Z VRB02KT 9999 FEW020CB 26/26 Q1009 NOSIG
2026-03-30 22:30:00,METAR VTSP 302230Z VRB02KT 9999 FEW020CB 26/26 Q1009 NOSIG
2026-03-30 22:00:00,METAR VTSP 302200Z 00000KT 9999 FEW020CB 26/26 Q1009 NOSIG
2026-03-30 21:30:00,METAR VTSP 302130Z 00000KT 9999 FEW020 26/26 Q1009 NOSIG
2026-03-30 21:00:00,METAR VTSP 302100Z VRB01KT 9999 FEW020 26/26 Q1009 NOSIG
2026-03-30 20:30:00,METAR VTSP 302030Z VRB02KT 9999 FEW020 26/26 Q1009 NOSIG
2026-03-30 20:00:00,METAR VTSP 302000Z 16001KT 9999 FEW020 26/26 Q1009 NOSIG
2026-03-30 19:30:00,METAR VTSP 301930Z VRB02KT 9999 FEW020 26/26 Q1009 NOSIG
2026-03-30 19:00:00,METAR VTSP 301900Z 00000KT 9999 FEW020 27/26 Q1010 NOSIG
2026-03-30 18:30:00,METAR VTSP 301830Z 00000KT 9999 FEW020 27/26 Q1010 NOSIG
2026-03-30 18:00:00,METAR VTSP 301800Z VRB01KT 9999 FEW020 27/26 Q1010 NOSIG
2026-03-30 17:30:00,METAR VTSP 301730Z VRB01KT 9999 FEW020 27/26 Q1011 NOSIG
2026-03-30 17:00:00,METAR VTSP 301700Z 36003KT 9999 FEW020 28/25 Q1011 NOSIG
2026-03-30 16:30:00,METAR VTSP 301630Z VRB01KT 9999 FEW020 28/25 Q1011 NOSIG
2026-03-30 16:00:00,METAR VTSP 301600Z 00000KT 9999 FEW020 28/26 Q1011 NOSIG
2026-03-30 15:30:00,METAR VTSP 301530Z VRB02KT 9999 FEW020 28/26 Q1011 NOSIG
2026-03-30 15:00:00,METAR VTSP 301500Z VRB02KT 9999 FEW020 28/26 Q1011 NOSIG
2026-03-30 14:30:00,METAR VTSP 301430Z VRB02KT 9999 FEW020 29/26 Q1010 NOSIG
2026-03-30 14:00:00,METAR VTSP 301400Z 30004KT 9999 FEW020 29/26 Q1010 NOSIG
2026-03-30 13:30:00,METAR VTSP 301330Z 29006KT 9999 FEW020 29/25 Q1009 NOSIG
2026-03-30 13:00:00,METAR VTSP 301300Z 30006KT 9999 FEW020 29/25 Q1008 NOSIG
2026-03-30 12:30:00,METAR VTSP 301230Z 30006KT 9999 FEW020 29/25 Q1008 NOSIG
2026-03-30 12:00:00,METAR VTSP 301200Z 27007KT 230V300 9999 FEW020 30/24 Q1007 NOSIG
2026-03-30 11:30:00,METAR VTSP 301130Z 27009KT 9999 FEW020 30/24 Q1007 NOSIG
2026-03-30 11:00:00,METAR VTSP 301100Z 25008KT 220V280 9999 FEW020 31/23 Q1006 NOSIG
2026-03-30 10:30:00,METAR VTSP 301030Z 24009KT 210V270 9999 FEW020 33/24 Q1006 NOSIG
2026-03-30 10:00:00,METAR VTSP 301000Z 26009KT 9999 FEW020 33/23 Q1006 NOSIG
2026-03-30 09:30:00,METAR VTSP 300930Z 28008KT 250V340 9999 FEW020 34/23 Q1006 NOSIG
2026-03-30 09:00:00,METAR VTSP 300900Z 30006KT 220V360 9999 FEW020 34/23 Q1006 NOSIG
2026-03-30 08:30:00,METAR VTSP 300830Z VRB04KT 9999 FEW020 33/24 Q1006 WS ALL RWY NOSIG
2026-03-30 08:00:00,METAR VTSP 300800Z VRB04KT 9999 FEW020 34/24 Q1007 WS ALL RWY NOSIG
2026-03-30 07:30:00,METAR VTSP 300730Z 26005KT 170V310 9999 FEW020 33/24 Q1007 WS ALL RWY NOSIG
2026-03-30 07:00:00,METAR VTSP 300700Z 26007KT 170V310 9999 FEW020 34/24 Q1007 WS ALL RWY NOSIG
2026-03-30 06:30:00,METAR VTSP 300630Z VRB04KT 9999 FEW020 34/25 Q1008 WS ALL RWY NOSIG
2026-03-30 06:00:00,METAR VTSP 300600Z 08010KT 050V110 9999 FEW020 33/24 Q1009 WS ALL RWY NOSIG
2026-03-30 05:30:00,METAR VTSP 300530Z 09008KT 050V140 9999 FEW020 34/24 Q1009 WS ALL RWY NOSIG
2026-03-30 05:00:00,METAR VTSP 300500Z 09008KT 050V130 9999 FEW020 34/25 Q1010 NOSIG
2026-03-30 04:30:00,METAR VTSP 300430Z 08008KT 030V110 9999 FEW020 33/24 Q1010 NOSIG
2026-03-30 04:00:00,METAR VTSP 300400Z 08007KT 040V140 9999 FEW020 33/25 Q1010 NOSIG
2026-03-30 03:30:00,METAR VTSP 300330Z 08008KT 040V110 9999 FEW020 32/24 Q1011 NOSIG
2026-03-30 03:00:00,METAR VTSP 300300Z 08007KT 050V120 9999 FEW020 31/24 Q1011 NOSIG
2026-03-30 02:30:00,METAR VTSP 300230Z 08008KT 030V120 9999 FEW020 31/24 Q1010 NOSIG
2026-03-30 02:00:00,METAR VTSP 300200Z 09008KT 040V120 9999 FEW020 30/24 Q1010 NOSIG
2026-03-30 01:30:00,METAR VTSP 300130Z 07008KT 9999 FEW020 29/24 Q1010 NOSIG
2026-03-30 01:00:00,METAR VTSP 300100Z 07006KT 340V130 9999 FEW020 29/23 Q1009 NOSIG
2026-03-30 00:30:00,METAR VTSP 300030Z 07006KT 020V100 9999 FEW020 28/23 Q1009 NOSIG
2026-03-30 00:00:00,METAR VTSP 300000Z VRB01KT 9999 FEW020 26/23 Q1009 NOSIG
2026-03-29 23:30:00,METAR VTSP 292330Z VRB02KT 9999 FEW020 25/23 Q1008 NOSIG
2026-03-29 23:00:00,METAR VTSP 292300Z VRB01KT 9999 FEW020 26/23 Q1008 NOSIG
2026-03-29 22:30:00,METAR VTSP 292230Z VRB01KT 9999 FEW020 26/23 Q1008 NOSIG
2026-03-29 22:00:00,METAR VTSP 292200Z 07003KT 020V090 9999 FEW020 26/23 Q1008 NOSIG
2026-03-29 21:30:00,METAR VTSP 292130Z 07003KT 030V110 9999 FEW020 26/23 Q1007 NOSIG
2026-03-29 21:00:00,METAR VTSP 292100Z 07003KT 340V150 9999 FEW020 26/23 Q1007 NOSIG
2026-03-29 20:30:00,METAR VTSP 292030Z 09004KT 360V110 9999 FEW020 26/23 Q1008 NOSIG
2026-03-29 20:00:00,METAR VTSP 292000Z 06003KT 340V120 9999 FEW020 27/23 Q1008 NOSIG
2026-03-29 19:30:00,METAR VTSP 291930Z VRB02KT 9999 FEW020 27/23 Q1008 NOSIG
2026-03-29 19:00:00,METAR VTSP 291900Z VRB02KT 9999 FEW020 27/23 Q1008 NOSIG
2026-03-29 18:30:00,METAR VTSP 291830Z VRB01KT 9999 FEW020 27/23 Q1009 NOSIG
2026-03-29 18:00:00,METAR VTSP 291800Z VRB02KT 9999 FEW020 28/23 Q1009 NOSIG
2026-03-29 17:30:00,METAR VTSP 291730Z 05003KT 360V090 9999 FEW020 28/23 Q1009 NOSIG
2026-03-29 17:00:00,METAR VTSP 291700Z VRB02KT 9999 FEW020 28/24 Q1010 NOSIG
2026-03-29 16:30:00,METAR VTSP 291630Z VRB02KT 9999 FEW020 28/25 Q1010 NOSIG
2026-03-29 16:00:00,METAR VTSP 291600Z VRB01KT 9999 FEW020 28/25 Q1010 NOSIG
2026-03-29 15:30:00,METAR VTSP 291530Z 32003KT 270V010 9999 FEW020 28/24 Q1010 NOSIG
2026-03-29 15:00:00,METAR VTSP 291500Z VRB02KT 9999 FEW020 27/24 Q1009 NOSIG
2026-03-29 14:30:00,METAR VTSP 291430Z 30004KT 270V330 9999 FEW020 28/24 Q1009 NOSIG
2026-03-29 14:00:00,METAR VTSP 291400Z 31003KT 9999 FEW020 29/24 Q1009 NOSIG
2026-03-29 13:30:00,METAR VTSP 291330Z 29006KT 9999 FEW020 29/24 Q1008 NOSIG
2026-03-29 13:00:00,METAR VTSP 291300Z 29006KT 9999 FEW020 29/23 Q1008 NOSIG
2026-03-29 12:30:00,METAR VTSP 291230Z 29006KT 9999 FEW020 29/23 Q1008 NOSIG
2026-03-29 12:00:00,METAR VTSP 291200Z 29006KT 9999 FEW020 29/23 Q1007 NOSIG
2026-03-29 11:30:00,METAR VTSP 291130Z 29008KT 9999 FEW020 30/23 Q1007 NOSIG
2026-03-29 11:00:00,METAR VTSP 291100Z 28009KT 9999 FEW020 30/23 Q1006 NOSIG
2026-03-29 10:30:00,METAR VTSP 291030Z 28009KT 9999 FEW020 31/22 Q1006 NOSIG
2026-03-29 10:00:00,METAR VTSP 291000Z 28008KT 260V320 9999 FEW020 31/22 Q1006 NOSIG
2026-03-29 09:30:00,METAR VTSP 290930Z 28010KT 9999 FEW020 32/22 Q1006 NOSIG
2026-03-29 09:00:00,METAR VTSP 290900Z 28009KT 240V310 9999 FEW020TCU 32/22 Q1006 NOSIG
2026-03-29 08:30:00,METAR VTSP 290830Z 27009KT 250V310 9999 FEW020TCU 33/22 Q1006 NOSIG
2026-03-29 08:00:00,METAR VTSP 290800Z 28010KT 9999 FEW020TCU 33/22 Q1006 NOSIG
2026-03-29 07:30:00,METAR VTSP 290730Z VRB03KT 9999 FEW020TCU 33/20 Q1007 NOSIG
2026-03-29 07:00:00,METAR VTSP 290700Z VRB05KT 9999 FEW020 33/21 Q1007 WS ALL RWY NOSIG
2026-03-29 06:30:00,METAR VTSP 290630Z VRB03KT 9999 FEW020 34/21 Q1008 NOSIG
2026-03-29 06:00:00,METAR VTSP 290600Z 09006KT 040V130 9999 FEW020 34/21 Q1009 NOSIG
2026-03-29 05:30:00,METAR VTSP 290530Z 08008KT 020V120 9999 FEW020 33/20 Q1009 NOSIG
2026-03-29 05:00:00,METAR VTSP 290500Z 08008KT 020V130 9999 FEW020 33/22 Q1010 NOSIG
2026-03-29 04:30:00,METAR VTSP 290430Z 07010KT 040V100 9999 FEW020 32/22 Q1010 NOSIG
2026-03-29 04:00:00,METAR VTSP 290400Z 08010KT 050V110 9999 FEW020 32/22 Q1010 NOSIG
2026-03-29 03:30:00,METAR VTSP 290330Z 08011KT 9999 FEW020 31/22 Q1011 NOSIG
2026-03-29 03:00:00,METAR VTSP 290300Z 09012KT 9999 FEW020 31/23 Q1011 NOSIG
2026-03-29 02:30:00,METAR VTSP 290230Z 08011KT 9999 FEW020 30/23 Q1010 NOSIG
2026-03-29 02:00:00,METAR VTSP 290200Z 09012KT 060V120 9999 FEW020 30/22 Q1010 NOSIG
2026-03-29 01:30:00,METAR VTSP 290130Z 07007KT 030V120 9999 FEW020 28/23 Q1010 NOSIG
2026-03-29 01:00:00,METAR VTSP 290100Z 06004KT 340V100 9999 FEW020 27/23 Q1010 NOSIG
2026-03-29 00:30:00,METAR VTSP 290030Z 05003KT 330V110 9999 FEW020 26/23 Q1009 NOSIG
2026-03-29 00:00:00,METAR VTSP 290000Z VRB02KT 9999 FEW020 26/23 Q1008 NOSIG
2026-03-28 23:30:00,METAR VTSP 282330Z 06003KT 010V160 9999 FEW020 25/22 Q1008 NOSIG
2026-03-28 23:00:00,METAR VTSP 282300Z 07004KT 030V110 9999 FEW020 26/23 Q1007 NOSIG
2026-03-28 22:30:00,METAR VTSP 282230Z VRB02KT 9999 FEW020 25/22 Q1007 NOSIG
2026-03-28 22:00:00,METAR VTSP 282200Z VRB02KT 9999 FEW020 25/22 Q1007 NOSIG
2026-03-28 21:30:00,METAR VTSP 282130Z VRB01KT 9999 FEW020 25/22 Q1007 NOSIG
2026-03-28 21:00:00,METAR VTSP 282100Z 08003KT 9999 FEW020 25/22 Q1007 NOSIG
2026-03-28 20:30:00,METAR VTSP 282030Z 10004KT 9999 FEW020 26/23 Q1007 NOSIG
2026-03-28 20:00:00,METAR VTSP 282000Z 10002KT 9999 FEW020 26/23 Q1007 NOSIG
2026-03-28 19:30:00,METAR VTSP 281930Z 09003KT 030V120 9999 FEW020 26/22 Q1007 NOSIG
2026-03-28 19:00:00,METAR VTSP 281900Z VRB02KT 9999 FEW020 27/22 Q1007 NOSIG
2026-03-28 18:30:00,METAR VTSP 281830Z 06004KT 020V100 9999 FEW020 27/22 Q1007 NOSIG
2026-03-28 18:00:00,METAR VTSP 281800Z 07005KT 9999 FEW020 28/22 Q1008 NOSIG
2026-03-28 17:30:00,METAR VTSP 281730Z 09004KT 9999 FEW020 27/22 Q1008 NOSIG
2026-03-28 17:00:00,METAR VTSP 281700Z 07003KT 010V100 9999 FEW020 27/23 Q1008 NOSIG
2026-03-28 16:30:00,METAR VTSP 281630Z VRB02KT 9999 FEW020 27/23 Q1008 NOSIG
2026-03-28 16:00:00,METAR VTSP 281600Z VRB01KT 9999 FEW020 27/23 Q1008 NOSIG
2026-03-28 15:30:00,METAR VTSP 281530Z VRB01KT 9999 FEW020 27/24 Q1008 NOSIG
2026-03-28 15:00:00,METAR VTSP 281500Z VRB02KT 9999 FEW020 28/23 Q1008 NOSIG
2026-03-28 14:30:00,METAR VTSP 281430Z VRB02KT 9999 FEW020 28/23 Q1007 NOSIG
2026-03-28 14:00:00,METAR VTSP 281400Z VRB02KT 9999 FEW020 28/24 Q1007 NOSIG
2026-03-28 13:30:00,METAR VTSP 281330Z VRB02KT 9999 FEW020 28/22 Q1007 NOSIG
2026-03-28 13:00:00,METAR VTSP 281300Z VRB02KT 9999 FEW020 28/23 Q1006 NOSIG
2026-03-28 12:30:00,METAR VTSP 281230Z 29005KT 9999 FEW020 29/23 Q1006 NOSIG
2026-03-28 12:00:00,METAR VTSP 281200Z 29006KT 9999 FEW020 29/24 Q1006 NOSIG
2026-03-28 11:30:00,METAR VTSP 281130Z 30006KT 9999 FEW020 29/23 Q1005 NOSIG
2026-03-28 11:00:00,METAR VTSP 281100Z 29007KT 270V340 9999 FEW020 30/24 Q1005 NOSIG
2026-03-28 10:30:00,METAR VTSP 281030Z 30008KT 260V330 9999 FEW020 30/24 Q1005 NOSIG
2026-03-28 10:00:00,METAR VTSP 281000Z 30007KT 270V340 9999 FEW020 31/23 Q1005 NOSIG
2026-03-28 09:30:00,METAR VTSP 280930Z 29008KT 260V330 9999 FEW020 31/23 Q1005 NOSIG
2026-03-28 09:00:00,METAR VTSP 280900Z 30008KT 9999 FEW020 32/22 Q1005 NOSIG
2026-03-28 08:30:00,METAR VTSP 280830Z 29008KT 260V320 9999 FEW020 33/21 Q1006 NOSIG
2026-03-28 08:00:00,METAR VTSP 280800Z 29009KT 270V330 9999 FEW020 33/21 Q1006 NOSIG
2026-03-28 07:30:00,METAR VTSP 280730Z VRB05KT 9999 FEW020 34/19 Q1006 WS ALL RWY NOSIG
2026-03-28 07:00:00,METAR VTSP 280700Z VRB06KT 9999 FEW020 33/22 Q1006 NOSIG
2026-03-28 06:30:00,METAR VTSP 280630Z 08008KT 020V120 9999 FEW020 35/18 Q1007 NOSIG
2026-03-28 06:00:00,METAR VTSP 280600Z 09007KT 340V120 9999 FEW020 35/19 Q1007 NOSIG
2026-03-28 05:30:00,METAR VTSP 280530Z 11007KT 060V130 9999 FEW020 34/21 Q1008 NOSIG
2026-03-28 05:00:00,METAR VTSP 280500Z 09007KT 060V120 9999 FEW020 33/20 Q1008 NOSIG
2026-03-28 04:30:00,METAR VTSP 280430Z 10010KT 060V130 9999 FEW020 33/20 Q1009 NOSIG
2026-03-28 04:00:00,METAR VTSP 280400Z 09012KT 060V120 9999 FEW020 32/21 Q1009 NOSIG
2026-03-28 03:30:00,METAR VTSP 280330Z 10012KT 9999 FEW020 32/21 Q1010 NOSIG
2026-03-28 03:00:00,METAR VTSP 280300Z 10013KT 9999 FEW020 32/21 Q1010 NOSIG
2026-03-28 02:30:00,METAR VTSP 280230Z 08013KT 9999 FEW020 30/22 Q1010 NOSIG
2026-03-28 02:00:00,METAR VTSP 280200Z 08011KT 9999 FEW020 30/22 Q1009 NOSIG
2026-03-28 01:30:00,METAR VTSP 280130Z 07007KT 020V100 9999 FEW020 29/22 Q1009 NOSIG
2026-03-28 01:00:00,METAR VTSP 280100Z 07008KT 9999 FEW020 28/22 Q1009 NOSIG
2026-03-28 00:30:00,METAR VTSP 280030Z 10010KT 9999 FEW020 28/22 Q1008 NOSIG
2026-03-28 00:00:00,METAR VTSP 280000Z 10010KT 9999 FEW020 27/22 Q1008 NOSIG
2026-03-27 23:30:00,METAR VTSP 272330Z 11013KT 9999 FEW020 26/22 Q1007 NOSIG
2026-03-27 23:00:00,METAR VTSP 272300Z 11012KT 9999 FEW020 27/22 Q1007 NOSIG
2026-03-27 22:30:00,METAR VTSP 272230Z 10011KT 9999 FEW020 27/22 Q1007 NOSIG
2026-03-27 22:00:00,METAR VTSP 272200Z 11009KT 9999 FEW020 27/22 Q1007 NOSIG
2026-03-27 21:30:00,METAR VTSP 272130Z 09010KT 9999 FEW020 27/22 Q1006 NOSIG
2026-03-27 21:00:00,METAR VTSP 272100Z 09003KT 040V110 9999 FEW020 26/22 Q1007 NOSIG
2026-03-27 20:30:00,METAR VTSP 272030Z 13004KT 110V170 9999 FEW020 27/22 Q1007 NOSIG
2026-03-27 20:00:00,METAR VTSP 272000Z VRB02KT 9999 FEW020 25/22 Q1007 NOSIG
2026-03-27 19:30:00,METAR VTSP 271930Z VRB02KT 9999 FEW020 26/22 Q1007 NOSIG
2026-03-27 19:00:00,METAR VTSP 271900Z 12005KT 070V150 9999 FEW020 28/21 Q1007 NOSIG
2026-03-27 18:30:00,METAR VTSP 271830Z 12007KT 9999 FEW020 28/21 Q1007 NOSIG
2026-03-27 18:00:00,METAR VTSP 271800Z 11008KT 9999 FEW020 29/22 Q1007 NOSIG
2026-03-27 17:30:00,METAR VTSP 271730Z 10007KT 9999 FEW020 28/24 Q1008 NOSIG
2026-03-27 17:00:00,METAR VTSP 271700Z 08006KT 9999 FEW020 28/24 Q1008 NOSIG
2026-03-27 16:30:00,METAR VTSP 271630Z 10006KT 9999 FEW020 28/24 Q1008 NOSIG
2026-03-27 16:00:00,METAR VTSP 271600Z VRB02KT 9999 FEW020 28/24 Q1008 NOSIG
2026-03-25 15:00:00,METAR VTSP 251500Z VRB02KT 9999 FEW020 28/24 Q1010 NOSIG
2026-03-25 14:30:00,METAR VTSP 251430Z VRB02KT 9999 FEW020 28/24 Q1009 NOSIG
2026-03-25 14:00:00,METAR VTSP 251400Z VRB02KT 9999 FEW020 28/24 Q1009 NOSIG
2026-03-25 13:30:00,METAR VTSP 251330Z VRB02KT 9999 FEW020 28/24 Q1009 NOSIG
2026-03-25 13:00:00,METAR VTSP 251300Z 30004KT 270V330 9999 FEW020 29/23 Q1008 NOSIG
2026-03-25 12:30:00,METAR VTSP 251230Z 29004KT 260V320 9999 FEW020 29/22 Q1008 NOSIG
2026-03-25 12:00:00,METAR VTSP 251200Z 29005KT 9999 FEW020 29/23 Q1008 NOSIG
2026-03-25 11:30:00,METAR VTSP 251130Z 30006KT 9999 FEW020 30/22 Q1008 NOSIG
2026-03-25 11:00:00,METAR VTSP 251100Z 29007KT 270V330 9999 FEW020 30/22 Q1008 NOSIG
2026-03-25 10:30:00,METAR VTSP 251030Z 28009KT 260V320 9999 FEW020 31/22 Q1007 NOSIG
2026-03-25 10:00:00,METAR VTSP 251000Z 30009KT 9999 FEW020 31/22 Q1007 NOSIG
2026-03-25 09:30:00,METAR VTSP 250930Z 28010KT 260V320 9999 FEW020 31/22 Q1007 NOSIG
2026-03-25 09:00:00,METAR VTSP 250900Z 29009KT 260V320 9999 FEW020 32/22 Q1007 NOSIG
2026-03-25 08:30:00,METAR VTSP 250830Z 28009KT 260V330 9999 FEW020 32/23 Q1008 NOSIG
2026-03-25 08:00:00,METAR VTSP 250800Z 29010KT 260V340 9999 FEW020 33/24 Q1008 NOSIG
2026-03-25 07:30:00,METAR VTSP 250730Z VRB02KT 9999 FEW020 33/25 Q1008 WS ALL RWY NOSIG
2026-03-25 07:00:00,METAR VTSP 250700Z 10006KT 030V140 9999 FEW020 35/19 Q1008 NOSIG
2026-03-25 06:30:00,METAR VTSP 250630Z 09007KT 040V150 9999 FEW020 35/21 Q1009 NOSIG
2026-03-25 06:00:00,METAR VTSP 250600Z 10009KT 9999 FEW020 34/20 Q1009 NOSIG
2026-03-25 05:30:00,METAR VTSP 250530Z 10011KT 050V120 9999 FEW020 34/20 Q1009 NOSIG
2026-03-25 05:00:00,METAR VTSP 250500Z 08009KT 050V120 9999 FEW020 34/20 Q1010 NOSIG
2026-03-25 04:30:00,METAR VTSP 250430Z 10010KT 060V140 9999 FEW020 33/20 Q1010 NOSIG
2026-03-25 04:00:00,METAR VTSP 250400Z 10010KT 070V130 9999 FEW020 33/21 Q1010 NOSIG
2026-03-25 03:30:00,METAR VTSP 250330Z 09009KT 040V120 9999 FEW020 32/22 Q1010 NOSIG
2026-03-25 03:00:00,METAR VTSP 250300Z 08009KT 030V100 9999 FEW020 31/23 Q1011 NOSIG
2026-03-25 02:30:00,METAR VTSP 250230Z 07008KT 020V100 9999 FEW020 30/25 Q1010 NOSIG
2026-03-25 02:00:00,METAR VTSP 250200Z 09009KT 9999 FEW020 30/25 Q1010 NOSIG
2026-03-25 01:30:00,METAR VTSP 250130Z 10008KT 060V130 9999 FEW020 30/24 Q1010 NOSIG
2026-03-25 01:00:00,METAR VTSP 250100Z 14005KT 100V190 9999 FEW020 28/24 Q1009 NOSIG
2026-03-25 00:30:00,METAR VTSP 250030Z VRB01KT 9999 FEW020 26/24 Q1009 NOSIG
2026-03-25 00:00:00,METAR VTSP 250000Z 00000KT 9999 FEW020 25/23 Q1008 NOSIG
2026-03-24 23:30:00,METAR VTSP 242330Z VRB01KT 9999 FEW020 24/23 Q1008 NOSIG
2026-03-24 23:00:00,METAR VTSP 242300Z 10002KT 9999 FEW020 25/25 Q1007 NOSIG
2026-03-24 22:30:00,METAR VTSP 242230Z 14002KT 9999 FEW020 25/25 Q1007 NOSIG
2026-03-24 22:00:00,METAR VTSP 242200Z COR 00000KT 9999 FEW020 25/25 Q1007 NOSIG
2026-03-24 21:30:00,METAR VTSP 242130Z 00000KT 9999 FEW020 25/25 Q1007 NOSIG
2026-03-24 21:00:00,METAR VTSP 242100Z 00000KT 9999 FEW020 25/25 Q1007 NOSIG
2026-03-24 20:30:00,METAR VTSP 242030Z 00000KT 9999 FEW020 25/24 Q1007 NOSIG
2026-03-24 20:00:00,METAR VTSP 242000Z 00000KT 9999 FEW020 25/24 Q1007 NOSIG
2026-03-24 19:30:00,METAR VTSP 241930Z VRB01KT 9999 FEW020 25/24 Q1007 NOSIG
2026-03-24 19:00:00,METAR VTSP 241900Z 00000KT 9999 FEW020 26/24 Q1007 NOSIG
2026-03-24 18:30:00,METAR VTSP 241830Z 00000KT 9999 FEW020 26/24 Q1008 NOSIG
2026-03-24 18:00:00,METAR VTSP 241800Z 00000KT 9999 FEW020 26/24 Q1008 NOSIG
2026-03-24 17:30:00,METAR VTSP 241730Z VRB01KT 9999 FEW020 27/24 Q1009 NOSIG
2026-03-24 17:00:00,METAR VTSP 241700Z 06003KT 330V110 9999 FEW020 SCT040 28/24 Q1009 NOSIG
2026-03-24 16:30:00,METAR VTSP 241630Z 31003KT 250V010 9999 FEW020 SCT040 28/24 Q1009 NOSIG
2026-03-24 16:00:00,METAR VTSP 241600Z 32003KT 270V010 9999 FEW020 SCT040 29/24 Q1009 NOSIG
2026-03-24 15:30:00,METAR VTSP 241530Z VRB02KT 9999 FEW020 SCT040 29/24 Q1009 NOSIG
2026-03-24 15:00:00,METAR VTSP 241500Z 32003KT 260V020 9999 FEW020 28/24 Q1009 NOSIG
2026-03-24 14:30:00,METAR VTSP 241430Z VRB02KT 9999 FEW020 29/24 Q1009 NOSIG
2026-03-24 14:00:00,METAR VTSP 241400Z 31004KT 9999 FEW020 28/24 Q1009 NOSIG
2026-03-24 13:30:00,METAR VTSP 241330Z 29004KT 9999 FEW020 29/23 Q1008 NOSIG
2026-03-24 13:00:00,METAR VTSP 241300Z 30004KT 9999 FEW020 29/23 Q1008 NOSIG
2026-03-24 12:30:00,METAR VTSP 241230Z 29005KT 9999 FEW020 29/22 Q1008 NOSIG
2026-03-24 12:00:00,METAR VTSP 241200Z 30006KT 9999 FEW020 29/22 Q1007 NOSIG
2026-03-24 11:30:00,METAR VTSP 241130Z 29007KT 9999 FEW020 30/22 Q1007 NOSIG
2026-03-24 11:00:00,METAR VTSP 241100Z 29008KT 9999 FEW020 31/22 Q1007 NOSIG
2026-03-24 10:30:00,METAR VTSP 241030Z 28008KT 9999 FEW020 31/22 Q1006 NOSIG
2026-03-24 10:00:00,METAR VTSP 241000Z 28010KT 250V310 9999 FEW020 32/22 Q1006 NOSIG
2026-03-24 09:30:00,METAR VTSP 240930Z 27011KT 9999 FEW020 32/22 Q1006 NOSIG
2026-03-24 09:00:00,METAR VTSP 240900Z 27014KT 9999 FEW020 33/21 Q1006 NOSIG
2026-03-24 08:30:00,METAR VTSP 240830Z 20007KT 120V280 9999 FEW020 34/23 Q1006 NOSIG
2026-03-24 08:00:00,METAR VTSP 240800Z 09007KT 040V150 9999 FEW020 35/18 Q1007 NOSIG
2026-03-24 07:30:00,METAR VTSP 240730Z 11006KT 040V190 9999 FEW020 35/19 Q1007 NOSIG
2026-03-24 07:00:00,METAR VTSP 240700Z 09007KT 030V130 9999 FEW020 35/19 Q1007 NOSIG
2026-03-24 06:30:00,METAR VTSP 240630Z 08007KT 040V140 9999 FEW020 35/17 Q1008 NOSIG
2026-03-24 06:00:00,METAR VTSP 240600Z 09008KT 040V110 9999 FEW020 34/19 Q1008 NOSIG
2026-03-24 05:30:00,METAR VTSP 240530Z 10009KT 050V170 9999 FEW020 34/19 Q1009 NOSIG
2026-03-24 05:00:00,METAR VTSP 240500Z 08008KT 050V120 9999 FEW020 34/20 Q1009 NOSIG
2026-03-24 04:30:00,METAR VTSP 240430Z 10010KT 060V130 9999 FEW020 33/20 Q1010 NOSIG
2026-03-24 04:00:00,METAR VTSP 240400Z 08010KT 9999 FEW020 33/20 Q1010 NOSIG
2026-03-24 03:30:00,METAR VTSP 240330Z 08011KT 9999 FEW020 32/19 Q1010 NOSIG
2026-03-24 03:00:00,METAR VTSP 240300Z 08012KT 050V110 9999 FEW020 32/20 Q1011 NOSIG
2026-03-24 02:30:00,METAR VTSP 240230Z 09013KT 9999 FEW020 32/19 Q1010 NOSIG
2026-03-24 02:00:00,METAR VTSP 240200Z 09013KT 9999 FEW020 31/22 Q1010 NOSIG
2026-03-24 01:30:00,METAR VTSP 240130Z 08010KT 9999 FEW020 30/23 Q1010 NOSIG
2026-03-24 01:00:00,METAR VTSP 240100Z 08007KT 9999 FEW020 28/23 Q1010 NOSIG
2026-03-24 00:30:00,METAR VTSP 240030Z 09007KT 9999 FEW020 27/24 Q1009 NOSIG
2026-03-24 00:00:00,METAR VTSP 240000Z 08003KT 9999 FEW020 26/23 Q1009 NOSIG
2026-03-23 23:30:00,METAR VTSP 232330Z 08002KT 9999 FEW020 25/23 Q1009 NOSIG
2026-03-23 23:00:00,METAR VTSP 232300Z 07003KT 350V100 9999 FEW020 26/23 Q1008 NOSIG
2026-03-23 22:30:00,METAR VTSP 232230Z 09004KT 9999 FEW020 27/23 Q1008 NOSIG
2026-03-23 22:00:00,METAR VTSP 232200Z 08003KT 9999 FEW020 26/24 Q1008 NOSIG
2026-03-23 21:30:00,METAR VTSP 232130Z VRB02KT 9999 FEW020 26/25 Q1008 NOSIG
2026-03-23 21:00:00,METAR VTSP 232100Z 00000KT 9999 FEW020 26/25 Q1007 NOSIG
2026-03-23 20:30:00,METAR VTSP 232030Z VRB02KT 9999 FEW020 26/25 Q1008 NOSIG
2026-03-23 20:00:00,METAR VTSP 232000Z 00000KT 9999 FEW020 26/25 Q1008 NOSIG
2026-03-23 19:30:00,METAR VTSP 231930Z 00000KT 9999 FEW020 27/25 Q1008 NOSIG
2026-03-23 19:00:00,METAR VTSP 231900Z VRB01KT 9999 FEW020 27/24 Q1008 NOSIG
2026-03-23 18:30:00,METAR VTSP 231830Z VRB02KT 9999 FEW020 27/25 Q1009 NOSIG
2026-03-23 18:00:00,METAR VTSP 231800Z 08003KT 9999 FEW020 27/26 Q1009 NOSIG
2026-03-23 17:30:00,METAR VTSP 231730Z 07003KT 9999 FEW020 27/25 Q1009 NOSIG
2026-03-23 17:00:00,METAR VTSP 231700Z 00000KT 9999 FEW020 28/25 Q1010 NOSIG
2026-03-23 16:30:00,METAR VTSP 231630Z 36002KT 9999 FEW020 28/25 Q1010 NOSIG
2026-03-23 16:00:00,METAR VTSP 231600Z 31003KT 9999 FEW020 28/24 Q1010 NOSIG
2026-03-23 15:30:00,METAR VTSP 231530Z VRB01KT 9999 FEW020 29/25 Q1010 NOSIG
2026-03-23 15:00:00,METAR VTSP 231500Z 34003KT 310V060 9999 FEW020 29/24 Q1010 NOSIG
2026-03-23 14:30:00,METAR VTSP 231430Z VRB02KT 9999 FEW020 29/25 Q1010 NOSIG
2026-03-23 14:00:00,METAR VTSP 231400Z VRB01KT 9999 FEW020 29/25 Q1009 NOSIG
2026-03-23 13:30:00,METAR VTSP 231330Z 31004KT 9999 FEW020 29/24 Q1009 NOSIG
2026-03-23 13:00:00,METAR VTSP 231300Z 30004KT 9999 FEW020 29/24 Q1009 NOSIG
2026-03-23 12:30:00,METAR VTSP 231230Z 28006KT 9999 FEW020 29/24 Q1008 NOSIG
2026-03-23 12:00:00,METAR VTSP 231200Z 27007KT 9999 FEW020 29/24 Q1008 NOSIG
2026-03-23 11:30:00,METAR VTSP 231130Z 27006KT 9999 FEW020 30/24 Q1008 NOSIG
2026-03-23 11:00:00,METAR VTSP 231100Z 27009KT 9999 FEW020 30/23 Q1007 NOSIG
2026-03-23 10:30:00,METAR VTSP 231030Z 27009KT 9999 FEW020 31/23 Q1007 NOSIG
2026-03-23 10:00:00,METAR VTSP 231000Z 27010KT 9999 FEW020 31/23 Q1007 NOSIG
2026-03-23 09:30:00,METAR VTSP 230930Z 27010KT 9999 FEW020 31/23 Q1007 NOSIG
2026-03-23 09:00:00,METAR VTSP 230900Z 28010KT 250V310 9999 FEW020 32/24 Q1007 NOSIG
2026-03-23 08:30:00,METAR VTSP 230830Z 27010KT 250V310 9999 FEW020 32/23 Q1007 NOSIG
2026-03-23 08:00:00,METAR VTSP 230800Z 28009KT 9999 FEW020 32/23 Q1007 NOSIG
2026-03-23 07:30:00,METAR VTSP 230730Z 28007KT 260V330 9999 FEW020 33/23 Q1008 NOSIG
2026-03-23 07:00:00,METAR VTSP 230700Z VRB06KT 9999 FEW020 33/23 Q1008 NOSIG
2026-03-23 06:30:00,METAR VTSP 230630Z 09005KT 030V160 9999 FEW020 33/21 Q1009 NOSIG
2026-03-23 06:00:00,METAR VTSP 230600Z VRB03KT 9999 FEW020 34/23 Q1009 NOSIG
2026-03-23 05:30:00,METAR VTSP 230530Z 09008KT 030V140 9999 FEW020 35/21 Q1010 NOSIG
2026-03-23 05:00:00,METAR VTSP 230500Z 10008KT 070V140 9999 FEW020 33/22 Q1010 NOSIG
2026-03-23 04:30:00,METAR VTSP 230430Z 08007KT 020V140 9999 FEW020 32/22 Q1011 NOSIG
2026-03-23 04:00:00,METAR VTSP 230400Z 08007KT 020V120 9999 FEW020 32/22 Q1011 NOSIG
2026-03-23 03:30:00,METAR VTSP 230330Z 09007KT 050V130 9999 FEW020 32/22 Q1011 NOSIG
2026-03-23 03:00:00,METAR VTSP 230300Z 08006KT 010V130 9999 FEW020 31/23 Q1012 NOSIG
2026-03-23 02:30:00,METAR VTSP 230230Z 09009KT 050V110 9999 FEW020 31/23 Q1012 NOSIG
2026-03-23 02:00:00,METAR VTSP 230200Z 08007KT 030V110 9999 FEW020 30/23 Q1011 NOSIG
2026-03-23 01:30:00,METAR VTSP 230130Z 07006KT 030V100 9999 FEW020 29/23 Q1011 NOSIG
2026-03-23 01:00:00,METAR VTSP 230100Z 07004KT 340V110 9999 FEW020 28/23 Q1011 NOSIG
2026-03-23 00:30:00,METAR VTSP 230030Z VRB02KT 9999 FEW020 27/23 Q1011 NOSIG
2026-03-23 00:00:00,METAR VTSP 230000Z VRB02KT 9999 FEW020 26/23 Q1010 NOSIG
2026-03-22 23:30:00,METAR VTSP 222330Z 08005KT 9999 FEW020 26/23 Q1010 NOSIG
2026-03-22 23:00:00,METAR VTSP 222300Z 08004KT 9999 FEW020 26/23 Q1010 NOSIG
2026-03-22 22:30:00,METAR VTSP 222230Z 08003KT 9999 FEW020 25/23 Q1010 NOSIG
2026-03-22 22:00:00,METAR VTSP 222200Z VRB02KT 9999 FEW020 25/23 Q1010 NOSIG
2026-03-22 21:30:00,METAR VTSP 222130Z VRB01KT 9999 FEW020 26/23 Q1010 NOSIG
2026-03-22 21:00:00,METAR VTSP 222100Z 08003KT 9999 FEW020 26/22 Q1009 NOSIG
2026-03-22 20:30:00,METAR VTSP 222030Z 08003KT 9999 FEW020 27/22 Q1009 NOSIG
2026-03-22 20:00:00,METAR VTSP 222000Z 13003KT 060V160 9999 FEW020 27/22 Q1009 NOSIG
2026-03-22 19:30:00,METAR VTSP 221930Z 11006KT 9999 FEW020 28/22 Q1010 NOSIG
2026-03-22 19:00:00,METAR VTSP 221900Z 05003KT 350V110 9999 FEW020 28/23 Q1010 NOSIG
2026-03-22 18:30:00,METAR VTSP 221830Z 11006KT 9999 FEW020 28/23 Q1011 NOSIG
2026-03-22 18:00:00,METAR VTSP 221800Z 12004KT 070V130 9999 FEW020 28/23 Q1011 NOSIG
2026-03-22 17:30:00,METAR VTSP 221730Z 05003KT 020V090 9999 FEW020 28/24 Q1011 NOSIG
2026-03-22 17:00:00,METAR VTSP 221700Z VRB02KT 9999 FEW020 28/24 Q1011 NOSIG
2026-03-22 16:30:00,METAR VTSP 221630Z 06003KT 9999 FEW020 28/24 Q1011 NOSIG
2026-03-22 16:00:00,METAR VTSP 221600Z VRB02KT 9999 FEW020 28/24 Q1011 NOSIG
2026-03-22 15:30:00,METAR VTSP 221530Z VRB02KT 9999 FEW020 29/24 Q1011 NOSIG
2026-03-22 15:00:00,METAR VTSP 221500Z VRB02KT 9999 FEW020 29/24 Q1011 NOSIG
2026-03-22 14:30:00,METAR VTSP 221430Z 28003KT 250V330 9999 FEW020 29/24 Q1011 NOSIG
2026-03-22 14:00:00,METAR VTSP 221400Z 29005KT 9999 FEW020 29/23 Q1010 NOSIG
2026-03-22 13:30:00,METAR VTSP 221330Z 29005KT 270V340 9999 FEW020 29/23 Q1010 NOSIG
2026-03-22 13:00:00,METAR VTSP 221300Z 29006KT 9999 FEW020 29/23 Q1010 NOSIG
2026-03-22 12:30:00,METAR VTSP 221230Z 29006KT 270V330 9999 FEW020 29/23 Q1009 NOSIG
2026-03-22 12:00:00,METAR VTSP 221200Z 30006KT 280V340 9999 FEW020 30/23 Q1009 NOSIG
2026-03-22 11:30:00,METAR VTSP 221130Z 29007KT 9999 FEW020 30/23 Q1009 NOSIG
2026-03-22 11:00:00,METAR VTSP 221100Z 30008KT 9999 FEW020 30/23 Q1009 NOSIG
2026-03-22 10:30:00,METAR VTSP 221030Z 29007KT 260V330 9999 FEW020 31/24 Q1008 NOSIG
2026-03-22 10:00:00,METAR VTSP 221000Z 28007KT 250V320 9999 FEW020 32/23 Q1008 NOSIG
2026-03-22 09:30:00,METAR VTSP 220930Z 09005KT 050V120 9999 FEW020 33/21 Q1008 NOSIG
2026-03-22 09:00:00,METAR VTSP 220900Z 09007KT 050V140 9999 FEW020 34/21 Q1008 NOSIG
2026-03-22 08:30:00,METAR VTSP 220830Z 09006KT 050V140 9999 FEW020 34/22 Q1008 NOSIG
2026-03-22 08:00:00,METAR VTSP 220800Z 10007KT 050V180 9999 FEW020 34/22 Q1008 NOSIG
2026-03-22 07:30:00,METAR VTSP 220730Z 09007KT 060V170 9999 FEW020 34/22 Q1009 NOSIG
2026-03-22 07:00:00,METAR VTSP 220700Z 09007KT 050V120 9999 FEW020 33/22 Q1009 NOSIG
2026-03-22 06:30:00,METAR VTSP 220630Z 09008KT 050V130 9999 FEW020 33/22 Q1010 NOSIG
2026-03-22 06:00:00,METAR VTSP 220600Z 10010KT 060V130 9999 FEW020 33/22 Q1010 NOSIG
2026-03-22 05:30:00,METAR VTSP 220530Z 09009KT 060V130 9999 FEW020 33/22 Q1011 NOSIG
2026-03-22 05:00:00,METAR VTSP 220500Z 08008KT 9999 FEW020 32/22 Q1012 NOSIG
2026-03-22 04:30:00,METAR VTSP 220430Z 07007KT 010V120 9999 FEW020 31/23 Q1012 NOSIG
2026-03-22 04:00:00,METAR VTSP 220400Z 07010KT 020V090 9999 FEW020 31/22 Q1012 NOSIG
2026-03-22 03:30:00,METAR VTSP 220330Z 09011KT 060V120 9999 FEW020 31/22 Q1012 NOSIG
2026-03-22 03:00:00,METAR VTSP 220300Z 08009KT 040V110 9999 FEW020 30/23 Q1012 NOSIG
2026-03-22 02:30:00,METAR VTSP 220230Z 08010KT 9999 FEW020 30/24 Q1012 NOSIG
2026-03-22 02:00:00,METAR VTSP 220200Z 08008KT 050V110 9999 FEW020 29/23 Q1012 NOSIG
2026-03-22 01:30:00,METAR VTSP 220130Z VRB04KT 9999 FEW020 29/24 Q1012 NOSIG
2026-03-22 01:00:00,METAR VTSP 220100Z 06003KT 340V090 9999 FEW020 28/24 Q1011 NOSIG
2026-03-22 00:30:00,METAR VTSP 220030Z 08003KT 050V110 9999 FEW020 26/24 Q1011 NOSIG
2026-03-22 00:00:00,METAR VTSP 220000Z 00000KT 9999 FEW020 25/23 Q1010 NOSIG
2026-03-21 23:30:00,METAR VTSP 212330Z VRB02KT 9999 FEW020 25/23 Q1010 NOSIG
2026-03-21 23:00:00,METAR VTSP 212300Z 00000KT 9999 FEW020 25/23 Q1010 NOSIG
2026-03-21 22:30:00,METAR VTSP 212230Z VRB01KT 9999 FEW020 25/23 Q1009 NOSIG
2026-03-21 22:00:00,METAR VTSP 212200Z VRB02KT 9999 FEW020 26/23 Q1009 NOSIG
2026-03-21 21:30:00,METAR VTSP 212130Z 10006KT 030V130 9999 FEW020 27/23 Q1009 NOSIG
2026-03-21 21:00:00,METAR VTSP 212100Z 09005KT 040V130 9999 FEW020 26/23 Q1009 NOSIG
2026-03-21 20:30:00,METAR VTSP 212030Z 07004KT 040V100 9999 FEW020 26/23 Q1009 NOSIG
2026-03-21 20:00:00,METAR VTSP 212000Z 08005KT 9999 FEW020 26/24 Q1009 NOSIG
2026-03-21 19:30:00,METAR VTSP 211930Z 11007KT 9999 FEW020 27/23 Q1009 NOSIG
2026-03-21 19:00:00,METAR VTSP 211900Z VRB01KT 9999 FEW020 26/23 Q1010 NOSIG
2026-03-21 18:30:00,METAR VTSP 211830Z VRB02KT 9999 FEW020 26/23 Q1010 NOSIG
2026-03-21 18:00:00,METAR VTSP 211800Z 07004KT 9999 FEW020 27/24 Q1010 NOSIG
2026-03-21 17:30:00,METAR VTSP 211730Z 08003KT 9999 FEW020 27/25 Q1011 NOSIG
2026-03-21 17:00:00,METAR VTSP 211700Z 06003KT 020V090 9999 FEW020 28/24 Q1011 NOSIG
2026-03-21 16:30:00,METAR VTSP 211630Z 00000KT 9999 FEW020 SCT040 27/24 Q1011 NOSIG
2026-03-21 16:00:00,METAR VTSP 211600Z VRB01KT 9999 FEW020 SCT040 27/25 Q1011 NOSIG
2026-03-21 15:30:00,METAR VTSP 211530Z VRB01KT 9999 FEW020 SCT070 28/24 Q1011 NOSIG
2026-03-21 15:00:00,METAR VTSP 211500Z VRB02KT 9999 FEW020 28/24 Q1011 NOSIG
2026-03-21 14:30:00,METAR VTSP 211430Z 32003KT 290V360 9999 FEW020 28/24 Q1011 NOSIG
2026-03-21 14:00:00,METAR VTSP 211400Z 30004KT 9999 FEW020 28/24 Q1010 NOSIG
2026-03-21 13:30:00,METAR VTSP 211330Z 30004KT 270V330 9999 FEW020 28/24 Q1010 NOSIG
2026-03-21 13:00:00,METAR VTSP 211300Z 29004KT 9999 FEW020 28/24 Q1009 NOSIG
2026-03-21 12:30:00,METAR VTSP 211230Z 30004KT 9999 FEW020 28/24 Q1009 NOSIG
2026-03-21 12:00:00,METAR VTSP 211200Z 29005KT 9999 FEW020 29/24 Q1009 NOSIG
2026-03-21 11:30:00,METAR VTSP 211130Z 29006KT 9999 FEW020 29/24 Q1008 NOSIG
2026-03-21 11:00:00,METAR VTSP 211100Z 28007KT 9999 FEW020 30/24 Q1008 NOSIG
2026-03-21 10:30:00,METAR VTSP 211030Z 28009KT 9999 FEW020 30/23 Q1008 NOSIG
2026-03-21 10:00:00,METAR VTSP 211000Z 29009KT 9999 FEW020 31/23 Q1008 NOSIG
2026-03-21 09:30:00,METAR VTSP 210930Z 28009KT 9999 FEW020 31/23 Q1008 NOSIG
2026-03-21 09:00:00,METAR VTSP 210900Z 28010KT 250V320 9999 FEW020 32/24 Q1008 NOSIG
2026-03-21 08:30:00,METAR VTSP 210830Z 28010KT 250V310 9999 FEW020 32/24 Q1008 NOSIG
2026-03-21 08:00:00,METAR VTSP 210800Z 09004KT 040V190 9999 FEW020 33/19 Q1008 NOSIG
2026-03-21 07:30:00,METAR VTSP 210730Z VRB05KT 9999 FEW020 34/20 Q1009 NOSIG
2026-03-21 07:00:00,METAR VTSP 210700Z 07007KT 020V100 9999 FEW020 34/20 Q1009 NOSIG
2026-03-21 06:30:00,METAR VTSP 210630Z 08009KT 030V100 9999 FEW020 34/19 Q1010 NOSIG
2026-03-21 06:00:00,METAR VTSP 210600Z 08009KT 9999 FEW020 34/17 Q1010 NOSIG
2026-03-21 05:30:00,METAR VTSP 210530Z 08007KT 350V110 9999 FEW020 33/22 Q1011 NOSIG
2026-03-21 05:00:00,METAR VTSP 210500Z 08007KT 030V110 9999 FEW020 32/23 Q1011 NOSIG
2026-03-21 04:30:00,METAR VTSP 210430Z 09007KT 030V130 9999 FEW020 32/22 Q1011 NOSIG
2026-03-21 04:00:00,METAR VTSP 210400Z 08006KT 040V130 9999 FEW020 31/23 Q1012 NOSIG
2026-03-21 03:30:00,METAR VTSP 210330Z 10007KT 060V130 9999 FEW020 31/24 Q1012 NOSIG
2026-03-21 03:00:00,METAR VTSP 210300Z 09008KT 040V120 9999 FEW020 30/24 Q1012 NOSIG
2026-03-21 02:30:00,METAR VTSP 210230Z 08009KT 050V110 9999 FEW020 30/24 Q1012 NOSIG
2026-03-21 02:00:00,METAR VTSP 210200Z 10010KT 060V130 9999 FEW020 29/24 Q1011 NOSIG
2026-03-21 01:30:00,METAR VTSP 210130Z 06005KT 360V090 9999 FEW020 28/24 Q1011 NOSIG
2026-03-21 01:00:00,METAR VTSP 210100Z 07006KT 020V100 9999 FEW020 28/24 Q1010 NOSIG
2026-03-21 00:30:00,METAR VTSP 210030Z 07006KT 9999 FEW020 27/24 Q1010 NOSIG
2026-03-21 00:00:00,METAR VTSP 210000Z 08004KT 9999 FEW020 26/24 Q1010 NOSIG
2026-03-20 23:30:00,METAR VTSP 202330Z 07003KT 9999 FEW020 26/24 Q1010 NOSIG
2026-03-20 23:00:00,METAR VTSP 202300Z 10007KT 9999 FEW020 27/23 Q1009 NOSIG
2026-03-20 22:30:00,METAR VTSP 202230Z 10008KT 9999 FEW020 27/23 Q1009 NOSIG
2026-03-20 22:00:00,METAR VTSP 202200Z 10010KT 9999 FEW020 27/23 Q1009 NOSIG
2026-03-20 21:30:00,METAR VTSP 202130Z 11011KT 9999 FEW020 27/23 Q1009 NOSIG
2026-03-20 21:00:00,METAR VTSP 202100Z 11010KT 9999 FEW020 27/24 Q1009 NOSIG
2026-03-20 20:30:00,METAR VTSP 202030Z 11009KT 9999 FEW020 27/23 Q1009 NOSIG
2026-03-20 20:00:00,METAR VTSP 202000Z 11012KT 9999 FEW020 28/23 Q1009 NOSIG
2026-03-20 19:30:00,METAR VTSP 201930Z 09008KT 9999 FEW020 27/23 Q1009 NOSIG
2026-03-20 19:00:00,METAR VTSP 201900Z 08008KT 9999 FEW020 27/23 Q1009 NOSIG
2026-03-20 18:30:00,METAR VTSP 201830Z 07008KT 360V090 9999 FEW020 28/23 Q1010 NOSIG
2026-03-20 18:00:00,METAR VTSP 201800Z 07009KT 9999 FEW020 28/22 Q1010 NOSIG
2026-03-20 17:30:00,METAR VTSP 201730Z 08007KT 9999 FEW020 28/23 Q1010 NOSIG
2026-03-20 17:00:00,METAR VTSP 201700Z 08008KT 9999 FEW020 28/23 Q1011 NOSIG
2026-03-20 16:30:00,METAR VTSP 201630Z 07003KT 020V100 9999 FEW020 27/25 Q1011 NOSIG
2026-03-20 16:00:00,METAR VTSP 201600Z 10004KT 070V140 9999 FEW020 27/26 Q1011 NOSIG
2026-03-20 15:30:00,METAR VTSP 201530Z 00000KT 9999 FEW020 27/26 Q1011 NOSIG
2026-03-20 15:00:00,METAR VTSP 201500Z VRB02KT 9999 FEW020 27/26 Q1011 NOSIG
2026-03-20 14:30:00,METAR VTSP 201430Z VRB02KT 9999 FEW020 28/25 Q1010 NOSIG
2026-03-20 14:00:00,METAR VTSP 201400Z VRB02KT 9999 FEW020 28/25 Q1010 NOSIG
2026-03-20 13:30:00,METAR VTSP 201330Z VRB02KT 9999 FEW020 28/25 Q1010 NOSIG
2026-03-20 13:00:00,METAR VTSP 201300Z 31005KT 280V340 9999 FEW020 29/25 Q1009 NOSIG
2026-03-20 12:30:00,METAR VTSP 201230Z 30006KT 9999 FEW020 29/25 Q1009 NOSIG
2026-03-20 12:00:00,METAR VTSP 201200Z 29007KT 9999 FEW020 29/25 Q1009 NOSIG
2026-03-20 11:30:00,METAR VTSP 201130Z 30007KT 9999 FEW020 29/25 Q1008 NOSIG
2026-03-20 11:00:00,METAR VTSP 201100Z 30008KT 260V340 9999 FEW020 30/25 Q1008 NOSIG
2026-03-20 10:30:00,METAR VTSP 201030Z 30006KT 9999 FEW020 30/25 Q1008 NOSIG
2026-03-20 10:00:00,METAR VTSP 201000Z 28009KT 9999 FEW020 31/24 Q1008 NOSIG
2026-03-20 09:30:00,METAR VTSP 200930Z 27009KT 9999 FEW020 31/24 Q1008 NOSIG
2026-03-20 09:00:00,METAR VTSP 200900Z 28010KT 250V320 9999 FEW020 31/24 Q1008 NOSIG
2026-03-20 08:30:00,METAR VTSP 200830Z 28010KT 250V320 9999 FEW020 32/24 Q1009 NOSIG
2026-03-20 08:00:00,METAR VTSP 200800Z 29009KT 260V340 9999 FEW020 31/24 Q1009 NOSIG
2026-03-20 07:30:00,METAR VTSP 200730Z 27011KT 250V310 9999 FEW020 31/24 Q1009 NOSIG
2026-03-20 07:00:00,METAR VTSP 200700Z 27009KT 240V310 9999 FEW020 32/24 Q1010 NOSIG
2026-03-20 06:30:00,METAR VTSP 200630Z VRB04KT 9999 FEW020 33/25 Q1010 NOSIG
2026-03-20 06:00:00,METAR VTSP 200600Z 25004KT 190V330 9999 FEW020 33/25 Q1011 NOSIG
2026-03-20 05:30:00,METAR VTSP 200530Z 09005KT 050V140 9999 FEW020 33/24 Q1011 NOSIG
2026-03-20 05:00:00,METAR VTSP 200500Z 10007KT 060V120 9999 FEW020 33/24 Q1012 NOSIG
2026-03-20 04:30:00,METAR VTSP 200430Z 09005KT 020V130 9999 FEW020 33/24 Q1012 NOSIG
2026-03-20 04:00:00,METAR VTSP 200400Z 07007KT 360V130 9999 FEW020 31/25 Q1012 NOSIG
2026-03-20 03:30:00,METAR VTSP 200330Z 07007KT 360V130 9999 FEW020 31/24 Q1012 NOSIG
2026-03-20 03:00:00,METAR VTSP 200300Z 09007KT 040V120 9999 FEW020 31/25 Q1012 NOSIG
2026-03-20 02:30:00,METAR VTSP 200230Z 07009KT 9999 FEW020 30/24 Q1012 NOSIG
2026-03-20 02:00:00,METAR VTSP 200200Z 10008KT 9999 FEW020 30/25 Q1012 NOSIG
2026-03-20 01:30:00,METAR VTSP 200130Z 11007KT 9999 FEW020 29/24 Q1012 NOSIG
2026-03-20 01:00:00,METAR VTSP 200100Z 10006KT 070V130 9999 FEW020 28/24 Q1011 NOSIG
2026-03-20 00:30:00,METAR VTSP 200030Z 11005KT 070V140 9999 FEW020 27/24 Q1011 NOSIG
2026-03-20 00:00:00,METAR VTSP 200000Z VRB05KT 9999 FEW020 26/24 Q1010 NOSIG
2026-03-19 23:30:00,METAR VTSP 192330Z VRB01KT 9999 FEW020 25/24 Q1010 NOSIG
2026-03-19 23:00:00,METAR VTSP 192300Z VRB01KT 9999 FEW020 25/24 Q1009 NOSIG
2026-03-19 22:30:00,METAR VTSP 192230Z 00000KT 9999 FEW020 26/24 Q1009 NOSIG
2026-03-19 22:00:00,METAR VTSP 192200Z 09002KT 9999 FEW020 26/24 Q1009 NOSIG
2026-03-19 21:30:00,METAR VTSP 192130Z VRB01KT 9999 FEW020 26/24 Q1009 NOSIG
2026-03-19 21:00:00,METAR VTSP 192100Z VRB01KT 9999 FEW020 26/24 Q1009 NOSIG
2026-03-19 20:30:00,METAR VTSP 192030Z 00000KT 9999 FEW020 26/24 Q1009 NOSIG
2026-03-19 20:00:00,METAR VTSP 192000Z VRB01KT 9999 FEW020 26/24 Q1009 NOSIG
2026-03-19 19:30:00,METAR VTSP 191930Z VRB01KT 9999 FEW020 26/24 Q1009 NOSIG
2026-03-19 19:00:00,METAR VTSP 191900Z VRB01KT 9999 FEW020 27/24 Q1010 NOSIG
2026-03-19 18:30:00,METAR VTSP 191830Z VRB02KT 9999 FEW020 27/24 Q1010 NOSIG
2026-03-19 18:00:00,METAR VTSP 191800Z VRB02KT 9999 FEW020 27/24 Q1010 NOSIG
2026-03-19 17:30:00,METAR VTSP 191730Z VRB01KT 9999 FEW020 28/24 Q1011 NOSIG
2026-03-19 17:00:00,METAR VTSP 191700Z 34003KT 310V010 9999 FEW020 28/25 Q1011 NOSIG
2026-03-19 16:30:00,METAR VTSP 191630Z 32003KT 280V350 9999 FEW020 27/25 Q1011 NOSIG
2026-03-19 16:00:00,METAR VTSP 191600Z VRB01KT 9999 FEW020 28/24 Q1011 NOSIG
2026-03-19 15:30:00,METAR VTSP 191530Z 01002KT 9999 FEW020 27/25 Q1011 NOSIG
2026-03-19 15:00:00,METAR VTSP 191500Z VRB01KT 9999 FEW020 27/24 Q1011 NOSIG
2026-03-19 14:30:00,METAR VTSP 191430Z VRB02KT 9999 FEW020 28/24 Q1010 NOSIG
2026-03-19 14:00:00,METAR VTSP 191400Z 30005KT 9999 FEW020 29/23 Q1010 NOSIG
2026-03-19 13:30:00,METAR VTSP 191330Z 29006KT 9999 FEW020 29/23 Q1010 NOSIG
2026-03-19 13:00:00,METAR VTSP 191300Z 30005KT 9999 FEW020 29/23 Q1009 NOSIG
2026-03-19 12:30:00,METAR VTSP 191230Z 30005KT 9999 FEW020 29/24 Q1009 NOSIG
2026-03-19 12:00:00,METAR VTSP 191200Z 28007KT 9999 FEW020 29/23 Q1008 NOSIG
2026-03-19 11:30:00,METAR VTSP 191130Z 29007KT 9999 FEW020 29/23 Q1008 NOSIG
2026-03-19 11:00:00,METAR VTSP 191100Z 30008KT 9999 FEW020 30/22 Q1008 NOSIG
2026-03-19 10:30:00,METAR VTSP 191030Z 28010KT 9999 FEW020 30/23 Q1008 NOSIG
2026-03-19 10:00:00,METAR VTSP 191000Z 27011KT 9999 FEW020 31/22 Q1008 NOSIG
2026-03-19 09:30:00,METAR VTSP 190930Z VRB05KT 9999 FEW020 32/24 Q1008 NOSIG
2026-03-19 09:00:00,METAR VTSP 190900Z VRB05KT 9999 FEW020 34/23 Q1008 WS ALL RWY NOSIG
2026-03-19 08:30:00,METAR VTSP 190830Z 11008KT 060V150 9999 FEW020 34/21 Q1008 NOSIG
2026-03-19 08:00:00,METAR VTSP 190800Z 09008KT 060V170 9999 FEW020 34/21 Q1008 NOSIG
2026-03-19 07:30:00,METAR VTSP 190730Z 10010KT 060V140 9999 FEW020 34/20 Q1009 NOSIG
2026-03-19 07:00:00,METAR VTSP 190700Z 10009KT 050V130 9999 FEW020 34/21 Q1009 NOSIG
2026-03-19 06:30:00,METAR VTSP 190630Z 10010KT 070V130 9999 FEW020 34/20 Q1010 NOSIG
2026-03-19 06:00:00,METAR VTSP 190600Z 09009KT 9999 FEW020 33/21 Q1011 NOSIG
2026-03-19 05:30:00,METAR VTSP 190530Z 09008KT 060V120 9999 FEW020 33/21 Q1011 NOSIG
2026-03-19 05:00:00,METAR VTSP 190500Z 09009KT 040V120 9999 FEW020 32/22 Q1012 NOSIG
2026-03-19 04:30:00,METAR VTSP 190430Z 07008KT 030V100 9999 FEW020 31/22 Q1012 NOSIG
2026-03-19 04:00:00,METAR VTSP 190400Z 08011KT 060V120 9999 FEW020 32/22 Q1012 NOSIG
2026-03-19 03:30:00,METAR VTSP 190330Z 09014KT 9999 FEW020 31/22 Q1012 NOSIG
2026-03-19 03:00:00,METAR VTSP 190300Z 09013KT 9999 FEW020 31/23 Q1012 NOSIG
2026-03-19 02:30:00,METAR VTSP 190230Z 09016KT 9999 FEW020 30/22 Q1012 NOSIG
2026-03-19 02:00:00,METAR VTSP 190200Z 09013KT 9999 FEW020 30/23 Q1012 NOSIG
2026-03-19 01:30:00,METAR VTSP 190130Z 09011KT 060V120 9999 FEW020 29/24 Q1012 NOSIG
2026-03-19 01:00:00,METAR VTSP 190100Z 08008KT 9999 FEW020 28/24 Q1011 NOSIG
2026-03-19 00:30:00,METAR VTSP 190030Z 09008KT 9999 FEW020 27/23 Q1011 NOSIG
2026-03-19 00:00:00,METAR VTSP 190000Z 07003KT 030V160 9999 FEW020 26/23 Q1011 NOSIG
2026-03-18 23:30:00,METAR VTSP 182330Z VRB02KT 9999 FEW020 25/23 Q1010 NOSIG
2026-03-18 23:00:00,METAR VTSP 182300Z 07004KT 020V100 9999 FEW020 26/23 Q1010 NOSIG
2026-03-18 22:30:00,METAR VTSP 182230Z 11008KT 9999 FEW020 27/23 Q1010 NOSIG
2026-03-18 22:00:00,METAR VTSP 182200Z 10006KT 060V130 9999 FEW020 26/23 Q1009 NOSIG
2026-03-18 21:30:00,METAR VTSP 182130Z 10003KT 9999 FEW020 26/24 Q1010 NOSIG
2026-03-18 21:00:00,METAR VTSP 182100Z VRB02KT 9999 FEW020 26/24 Q1009 NOSIG
2026-03-18 20:30:00,METAR VTSP 182030Z 09003KT 9999 FEW020 26/23 Q1010 NOSIG
2026-03-18 20:00:00,METAR VTSP 182000Z VRB02KT 9999 FEW020 26/23 Q1010 NOSIG
2026-03-18 19:30:00,METAR VTSP 181930Z 09003KT 9999 FEW020 27/23 Q1010 NOSIG
2026-03-18 19:00:00,METAR VTSP 181900Z 07003KT 030V090 9999 FEW020 27/23 Q1010 NOSIG
2026-03-18 18:30:00,METAR VTSP 181830Z 11005KT 080V140 9999 FEW020 28/22 Q1010 NOSIG
2026-03-18 18:00:00,METAR VTSP 181800Z 09006KT 030V130 9999 FEW020 28/23 Q1011 NOSIG
2026-03-18 17:30:00,METAR VTSP 181730Z VRB02KT 9999 FEW020 28/24 Q1011 NOSIG
2026-03-18 17:00:00,METAR VTSP 181700Z VRB01KT 9999 FEW020 28/24 Q1011 NOSIG
2026-03-18 16:30:00,METAR VTSP 181630Z VRB02KT 9999 FEW020 28/24 Q1012 NOSIG
2026-03-18 16:00:00,METAR VTSP 181600Z 00000KT 9999 FEW020 28/24 Q1011 NOSIG
2026-03-18 15:30:00,METAR VTSP 181530Z VRB02KT 9999 FEW020 29/24 Q1011 NOSIG
2026-03-18 15:00:00,METAR VTSP 181500Z VRB02KT 9999 FEW020 29/24 Q1011 NOSIG
2026-03-18 14:30:00,METAR VTSP 181430Z VRB02KT 9999 FEW020 29/24 Q1011 NOSIG
2026-03-18 14:00:00,METAR VTSP 181400Z VRB02KT 9999 FEW020 29/25 Q1011 NOSIG
2026-03-18 13:30:00,METAR VTSP 181330Z VRB03KT 9999 FEW020TCU SCT050 29/25 Q1010 NOSIG
2026-03-18 13:00:00,METAR VTSP 181300Z 28005KT 9999 FEW020 BKN050 29/26 Q1010 NOSIG
2026-03-18 12:30:00,METAR VTSP 181230Z 29007KT 9999 FEW020 BKN050 29/25 Q1009 NOSIG
2026-03-18 12:00:00,METAR VTSP 181200Z 29007KT 9999 FEW020 BKN050 29/25 Q1009 NOSIG
2026-03-18 11:30:00,METAR VTSP 181130Z 29007KT 270V330 9999 FEW020 BKN050 30/25 Q1008 NOSIG
2026-03-18 11:00:00,METAR VTSP 181100Z VRB03KT 9999 FEW020 BKN050 31/25 Q1008 NOSIG
2026-03-18 10:30:00,METAR VTSP 181030Z 24007G17KT 210V330 9999 FEW020 31/26 Q1008 NOSIG
2026-03-18 10:00:00,METAR VTSP 181000Z 08005KT 360V110 9999 FEW020 34/22 Q1007 NOSIG
2026-03-18 09:30:00,METAR VTSP 180930Z 09005KT 040V190 9999 FEW020 34/22 Q1008 NOSIG
2026-03-18 09:00:00,METAR VTSP 180900Z 08005KT 340V110 9999 FEW020 34/22 Q1008 NOSIG
2026-03-18 08:30:00,METAR VTSP 180830Z 10008KT 040V140 9999 FEW020 34/22 Q1008 NOSIG
2026-03-18 08:00:00,METAR VTSP 180800Z 07007KT 360V130 9999 FEW020 34/22 Q1009 NOSIG
2026-03-18 07:30:00,METAR VTSP 180730Z 07007KT 040V120 9999 FEW020 33/23 Q1009 NOSIG
2026-03-18 07:00:00,METAR VTSP 180700Z 10009KT 9999 FEW020 33/23 Q1010 NOSIG
2026-03-18 06:30:00,METAR VTSP 180630Z 09010KT 070V130 9999 FEW020 33/23 Q1010 NOSIG
2026-03-18 06:00:00,METAR VTSP 180600Z 09008KT 040V120 9999 FEW020 32/23 Q1011 NOSIG
2026-03-18 05:30:00,METAR VTSP 180530Z 07009KT 020V110 9999 FEW020 32/23 Q1011 NOSIG
2026-03-18 05:00:00,METAR VTSP 180500Z 07009KT 020V110 9999 FEW020 32/23 Q1012 NOSIG
2026-03-18 04:30:00,METAR VTSP 180430Z 08011KT 060V120 9999 FEW020 32/23 Q1012 NOSIG
2026-03-18 04:00:00,METAR VTSP 180400Z 08010KT 020V120 9999 FEW020 31/23 Q1013 NOSIG
2026-03-18 03:30:00,METAR VTSP 180330Z 10012KT 060V120 9999 FEW020 31/23 Q1012 NOSIG
2026-03-18 03:00:00,METAR VTSP 180300Z 08011KT 050V110 9999 FEW020 31/23 Q1013 NOSIG
2026-03-18 02:30:00,METAR VTSP 180230Z 09012KT 060V120 9999 FEW020 30/23 Q1013 NOSIG
2026-03-18 02:00:00,METAR VTSP 180200Z 09015KT 9999 FEW020 30/23 Q1013 NOSIG
2026-03-18 01:30:00,METAR VTSP 180130Z 09015KT 9999 FEW020 29/23 Q1012 NOSIG
2026-03-18 01:00:00,METAR VTSP 180100Z 10012KT 9999 FEW020 28/23 Q1011 NOSIG
2026-03-18 00:30:00,METAR VTSP 180030Z 08003KT 020V110 9999 FEW020 27/24 Q1011 NOSIG
2026-03-18 00:00:00,METAR VTSP 180000Z 09003KT 9999 FEW020 25/24 Q1010 NOSIG
2026-03-17 23:30:00,METAR VTSP 172330Z 10003KT 070V150 9999 FEW020 25/23 Q1010 NOSIG
2026-03-17 23:00:00,METAR VTSP 172300Z 00000KT 9999 FEW020 24/24 Q1010 NOSIG
2026-03-17 22:30:00,METAR VTSP 172230Z VRB01KT 9999 FEW020 24/24 Q1010 NOSIG
2026-03-17 22:00:00,METAR VTSP 172200Z VRB01KT 9999 FEW020 25/24 Q1009 NOSIG
2026-03-17 21:30:00,METAR VTSP 172130Z 06002KT 9999 FEW020 25/24 Q1009 NOSIG
2026-03-17 21:00:00,METAR VTSP 172100Z VRB01KT 9999 FEW020 25/24 Q1009 NOSIG
2026-03-17 20:00:00,METAR VTSP 172000Z VRB01KT 9999 FEW020 25/24 Q1009 NOSIG
2026-03-17 19:30:00,METAR VTSP 171930Z 01002KT 9999 FEW020 25/25 Q1009 NOSIG
2026-03-17 19:00:00,METAR VTSP 171900Z VRB01KT 9999 FEW020 25/25 Q1010 NOSIG
2026-03-17 18:30:00,METAR VTSP 171830Z VRB02KT 9999 FEW020 26/25 Q1010 NOSIG
2026-03-17 18:00:00,METAR VTSP 171800Z 08003KT 9999 FEW020 26/25 Q1011 NOSIG
2026-03-17 17:30:00,METAR VTSP 171730Z 06003KT 020V100 9999 FEW020 26/24 Q1011 NOSIG
2026-03-17 17:00:00,METAR VTSP 171700Z 08004KT 9999 FEW020 26/25 Q1012 NOSIG
2026-03-17 16:30:00,METAR VTSP 171630Z VRB02KT 9999 FEW020 SCT100 26/25 Q1012 NOSIG
2026-03-17 16:00:00,METAR VTSP 171600Z 09005KT 050V120 9999 FEW020 SCT100 27/25 Q1011 NOSIG
2026-03-17 15:30:00,METAR VTSP 171530Z 08005KT 040V100 9999 FEW020 SCT100 26/25 Q1012 NOSIG
2026-03-17 15:00:00,METAR VTSP 171500Z 07004KT 010V100 9999 VCSH FEW020 SCT080 26/25 Q1011 NOSIG
2026-03-17 14:30:00,METAR VTSP 171430Z 08009KT 9999 -RA FEW020 SCT050 26/25 Q1011 NOSIG
2026-03-17 14:00:00,METAR VTSP 171400Z 08009KT 9999 FEW020 SCT050 27/23 Q1011 NOSIG
2026-03-17 13:30:00,METAR VTSP 171330Z VRB05KT 9999 FEW020 SCT060 27/24 Q1010 NOSIG
2026-03-17 13:00:00,METAR VTSP 171300Z VRB03KT 9999 FEW020 29/25 Q1010 NOSIG
2026-03-17 12:30:00,METAR VTSP 171230Z 30004KT 9999 FEW020 29/25 Q1009 NOSIG
2026-03-17 12:00:00,METAR VTSP 171200Z 30005KT 9999 FEW020 29/25 Q1009 NOSIG
2026-03-17 11:30:00,METAR VTSP 171130Z 30007KT 9999 FEW020 29/25 Q1008 NOSIG
2026-03-17 11:00:00,METAR VTSP 171100Z 30008KT 9999 FEW020 30/25 Q1008 NOSIG
2026-03-17 10:30:00,METAR VTSP 171030Z 29009KT 9999 FEW020 31/24 Q1008 NOSIG
2026-03-17 10:00:00,METAR VTSP 171000Z 27011KT 9999 FEW020 31/24 Q1007 NOSIG
2026-03-17 09:30:00,METAR VTSP 170930Z VRB05KT 9999 FEW020 32/24 Q1007 NOSIG
2026-03-17 09:00:00,METAR VTSP 170900Z 08005KT 030V140 9999 FEW020 34/21 Q1007 NOSIG
2026-03-17 08:30:00,METAR VTSP 170830Z 12005KT 070V180 9999 FEW020 35/19 Q1008 NOSIG
2026-03-17 08:00:00,METAR VTSP 170800Z 12007KT 060V220 9999 FEW020 34/21 Q1008 NOSIG
2026-03-17 07:30:00,METAR VTSP 170730Z 08008KT 040V110 9999 FEW020 34/22 Q1008 NOSIG
2026-03-17 07:00:00,METAR VTSP 170700Z 07008KT 030V100 9999 FEW020 34/23 Q1009 NOSIG
2026-03-17 06:30:00,METAR VTSP 170630Z 07008KT 360V110 9999 FEW020 33/23 Q1010 NOSIG
2026-03-17 06:00:00,METAR VTSP 170600Z 09010KT 050V120 9999 FEW020 34/23 Q1010 NOSIG
2026-03-17 05:30:00,METAR VTSP 170530Z 08009KT 050V120 9999 FEW020 32/22 Q1011 NOSIG
2026-03-17 05:00:00,METAR VTSP 170500Z 10009KT 060V130 9999 FEW020 32/23 Q1011 NOSIG
2026-03-17 04:30:00,METAR VTSP 170430Z 09011KT 9999 FEW020 32/23 Q1012 NOSIG
2026-03-17 04:00:00,METAR VTSP 170400Z 07009KT 030V110 9999 FEW020 31/22 Q1012 NOSIG
2026-03-17 03:30:00,METAR VTSP 170330Z 08010KT 9999 FEW020 31/23 Q1012 NOSIG
2026-03-17 03:00:00,METAR VTSP 170300Z 09011KT 9999 FEW020 30/23 Q1012 NOSIG
2026-03-17 02:30:00,METAR VTSP 170230Z 09012KT 9999 FEW020 30/23 Q1012 NOSIG
2026-03-17 02:00:00,METAR VTSP 170200Z 09012KT 060V120 9999 FEW020 29/23 Q1012 NOSIG
2026-03-17 01:30:00,METAR VTSP 170130Z 10013KT 9999 FEW020 29/22 Q1011 NOSIG
2026-03-17 01:00:00,METAR VTSP 170100Z 10011KT 9999 FEW020 28/23 Q1011 NOSIG
2026-03-17 00:30:00,METAR VTSP 170030Z 10009KT 9999 FEW020 27/22 Q1010 NOSIG
2026-03-17 00:00:00,METAR VTSP 170000Z 10010KT 9999 FEW020 27/23 Q1010 NOSIG
2026-03-16 23:30:00,METAR VTSP 162330Z 09008KT 9999 FEW020 26/23 Q1010 NOSIG
2026-03-16 23:00:00,METAR VTSP 162300Z 10010KT 9999 FEW020 26/23 Q1009 NOSIG
2026-03-16 22:30:00,METAR VTSP 162230Z VRB03KT 9999 FEW020 25/23 Q1009 NOSIG
2026-03-16 22:00:00,METAR VTSP 162200Z VRB02KT 9999 FEW020 25/23 Q1009 NOSIG
2026-03-16 21:30:00,METAR VTSP 162130Z 09006KT 350V120 9999 FEW020 26/23 Q1009 NOSIG
2026-03-16 21:00:00,METAR VTSP 162100Z 08004KT 360V130 9999 FEW020 25/24 Q1009 NOSIG
2026-03-16 20:30:00,METAR VTSP 162030Z 11008KT 9999 FEW020 26/23 Q1009 NOSIG
2026-03-16 20:00:00,METAR VTSP 162000Z 11008KT 080V140 9999 FEW020 27/23 Q1009 NOSIG
2026-03-16 19:30:00,METAR VTSP 161930Z VRB02KT 9999 FEW020 25/24 Q1010 NOSIG
2026-03-16 19:00:00,METAR VTSP 161900Z VRB02KT 9999 FEW020 25/24 Q1010 NOSIG
2026-03-16 18:30:00,METAR VTSP 161830Z VRB01KT 9999 FEW020 25/25 Q1010 NOSIG
2026-03-16 18:00:00,METAR VTSP 161800Z VRB01KT 9999 FEW020 25/25 Q1010 NOSIG
2026-03-16 17:30:00,METAR VTSP 161730Z VRB01KT 9999 FEW020 25/25 Q1011 NOSIG
2026-03-16 17:00:00,METAR VTSP 161700Z VRB02KT 9999 FEW020 25/25 Q1011 NOSIG
2026-03-16 16:30:00,METAR VTSP 161630Z VRB02KT 9999 FEW020 25/25 Q1011 NOSIG
2026-03-16 16:00:00,METAR VTSP 161600Z VRB02KT 9999 FEW020 25/25 Q1011 NOSIG
2026-03-16 15:30:00,METAR VTSP 161530Z 13003KT 060V160 9999 FEW020 26/24 Q1011 NOSIG
2026-03-16 15:00:00,METAR VTSP 161500Z VRB02KT 9999 FEW020 25/25 Q1011 NOSIG
2026-03-16 14:30:00,METAR VTSP 161430Z VRB02KT 9999 FEW020 25/25 Q1011 NOSIG
2026-03-16 14:00:00,METAR VTSP 161400Z VRB02KT 9000 -RA FEW020 SCT070 25/24 Q1010 RETS NOSIG
2026-03-16 13:30:00,METAR VTSP 161330Z 07003KT 350V150 5000 -TSRA FEW012 FEW018CB SCT020 24/24 Q1010 RERA BECMG TL1345 6000 NSW
2026-03-16 13:00:00,METAR VTSP 161300Z 06004KT 360V100 5000 -RA BR FEW012 SCT020 25/24 Q1010 RETS NOSIG
2026-03-16 12:30:00,METAR VTSP 161230Z VRB04KT 9999 TS FEW020CB SCT030 25/25 Q1009 NOSIG
2026-03-16 12:00:00,METAR VTSP 161200Z 30005KT 8000 -TSRA FEW018CB SCT030 26/26 Q1008 RERA NOSIG
2026-03-16 11:30:00,METAR VTSP 161130Z 31008KT 270V350 7000 -TSRA FEW020CB SCT030 28/26 Q1008 NOSIG
2026-03-16 11:00:00,METAR VTSP 161100Z 27008KT 9999 VCSH FEW020 30/24 Q1008 NOSIG
2026-03-16 10:30:00,METAR VTSP 161030Z 27009KT 9999 FEW020 30/25 Q1007 NOSIG
2026-03-16 10:00:00,METAR VTSP 161000Z 28012KT 9999 FEW020 31/24 Q1007 NOSIG
2026-03-16 09:30:00,METAR VTSP 160930Z 11006KT 9999 FEW020 33/22 Q1007 NOSIG
2026-03-16 09:00:00,METAR VTSP 160900Z 23010KT 9999 FEW020 32/26 Q1007 WS ALL RWY NOSIG
2026-03-16 08:30:00,METAR VTSP 160830Z VRB04KT 9999 FEW020 34/22 Q1008 NOSIG
2026-03-16 08:00:00,METAR VTSP 160800Z 07006KT 010V130 9999 FEW020 34/22 Q1008 NOSIG
2026-03-16 07:30:00,METAR VTSP 160730Z 07006KT 330V140 9999 FEW020 34/23 Q1008 NOSIG
2026-03-16 07:00:00,METAR VTSP 160700Z 08008KT 010V130 9999 FEW020 34/23 Q1009 NOSIG
2026-03-16 06:30:00,METAR VTSP 160630Z 08006KT 330V140 9999 FEW020 34/24 Q1010 NOSIG
2026-03-16 06:00:00,METAR VTSP 160600Z 07008KT 010V100 9999 FEW020 33/23 Q1010 NOSIG
2026-03-16 05:30:00,METAR VTSP 160530Z 08011KT 030V100 9999 FEW020 32/23 Q1011 NOSIG
2026-03-16 05:00:00,METAR VTSP 160500Z 09011KT 060V130 9999 FEW020 32/23 Q1011 NOSIG
2026-03-16 04:30:00,METAR VTSP 160430Z 08011KT 050V120 9999 FEW020 32/23 Q1011 NOSIG
2026-03-16 04:00:00,METAR VTSP 160400Z 10012KT 070V130 9999 FEW020 32/23 Q1012 NOSIG
2026-03-16 03:30:00,METAR VTSP 160330Z 09013KT 060V130 9999 FEW020 32/23 Q1012 NOSIG
2026-03-16 03:00:00,METAR VTSP 160300Z 10014KT 060V120 9999 FEW020 31/23 Q1012 NOSIG
2026-03-16 02:30:00,METAR VTSP 160230Z 11015KT 9999 FEW020 30/23 Q1012 NOSIG
2026-03-16 02:00:00,METAR VTSP 160200Z 10014KT 9999 FEW020 30/24 Q1012 NOSIG
2026-03-16 01:30:00,METAR VTSP 160130Z 10013KT 9999 FEW020 SCT090 29/24 Q1011 NOSIG
2026-03-16 01:00:00,METAR VTSP 160100Z 10013KT 9999 FEW020 SCT090 28/23 Q1011 NOSIG
2026-03-16 00:30:00,METAR VTSP 160030Z 10012KT 9999 FEW020 SCT090 28/23 Q1011 NOSIG
2026-03-16 00:00:00,METAR VTSP 160000Z 10012KT 9999 FEW020 SCT090 27/23 Q1010 NOSIG
2026-03-15 23:30:00,METAR VTSP 152330Z 10012KT 9999 FEW020 27/23 Q1010 NOSIG
2026-03-15 23:00:00,METAR VTSP 152300Z 12009KT 9999 FEW020 27/23 Q1010 NOSIG
2026-03-15 22:30:00,METAR VTSP 152230Z 13006KT 9999 FEW020 26/23 Q1009 NOSIG
2026-03-15 22:00:00,METAR VTSP 152200Z 12005KT 9999 FEW020 26/23 Q1009 NOSIG
2026-03-15 21:30:00,METAR VTSP 152130Z 12005KT 050V160 9999 FEW020 27/23 Q1009 NOSIG
2026-03-15 21:00:00,METAR VTSP 152100Z 10009KT 9999 FEW020 27/22 Q1009 NOSIG
2026-03-15 20:30:00,METAR VTSP 152030Z 12008KT 9999 FEW020 27/23 Q1010 NOSIG
2026-03-15 20:00:00,METAR VTSP 152000Z VRB01KT 9999 FEW020 26/24 Q1010 NOSIG
2026-03-15 19:30:00,METAR VTSP 151930Z VRB01KT 9999 FEW020 26/25 Q1010 NOSIG
2026-03-15 19:00:00,METAR VTSP 151900Z VRB01KT 9999 FEW020 26/25 Q1010 NOSIG
2026-03-15 18:30:00,METAR VTSP 151830Z 00000KT 9999 FEW020 26/25 Q1011 NOSIG
2026-03-15 18:00:00,METAR VTSP 151800Z VRB02KT 9999 FEW020 26/25 Q1011 NOSIG
2026-03-15 17:30:00,METAR VTSP 151730Z 00000KT 9999 FEW020 25/25 Q1012 NOSIG
2026-03-15 17:00:00,METAR VTSP 151700Z VRB02KT 9999 FEW020 SCT100 26/24 Q1012 NOSIG
2026-03-15 16:30:00,METAR VTSP 151630Z 00000KT 9999 FEW020 SCT100 26/25 Q1012 NOSIG
2026-03-15 16:00:00,METAR VTSP 151600Z VRB05KT 9999 FEW020 BKN070 26/24 Q1012 NOSIG
2026-03-15 15:30:00,METAR VTSP 151530Z 16005KT 120V200 9999 FEW020 BKN100 26/24 Q1012 NOSIG
2026-03-15 15:00:00,METAR VTSP 151500Z 11005KT 090V150 9999 FEW020 BKN080 26/24 Q1012 NOSIG
2026-03-15 14:30:00,METAR VTSP 151430Z 12008KT 080V140 9999 FEW020 BKN050 26/25 Q1012 NOSIG
2026-03-15 14:00:00,METAR VTSP 151400Z 10008KT 070V130 9999 VCTS FEW018CB BKN060 26/25 Q1012 NOSIG
2026-03-15 13:30:00,METAR VTSP 151330Z 07006KT 010V110 9999 -RA VCTS FEW018CB BKN040 26/24 Q1011 RETS NOSIG
2026-03-15 13:00:00,METAR VTSP 151300Z VRB03KT 9000 -TSRA FEW016CB BKN040 26/25 Q1011 NOSIG
2026-03-15 12:30:00,METAR VTSP 151230Z 31007KT 280V340 9999 VCSH FEW016CB BKN040 28/24 Q1010 NOSIG
2026-03-15 12:00:00,METAR VTSP 151200Z 31005KT 280V340 9999 VCSH FEW016CB BKN050 29/24 Q1010 NOSIG
2026-03-15 11:30:00,METAR VTSP 151130Z 30007KT 270V330 9999 FEW016CB SCT060 29/24 Q1009 NOSIG
2026-03-15 11:00:00,METAR VTSP 151100Z 30009KT 270V330 9999 FEW020 29/24 Q1009 NOSIG
2026-03-15 10:30:00,METAR VTSP 151030Z 30010KT 260V330 9999 FEW020 30/24 Q1009 NOSIG
2026-03-15 10:00:00,METAR VTSP 151000Z 30010KT 9999 FEW020 31/25 Q1008 NOSIG
2026-03-15 09:30:00,METAR VTSP 150930Z 02005KT 290V090 9999 FEW020 32/23 Q1008 NOSIG
2026-03-15 09:00:00,METAR VTSP 150900Z 09006KT 040V140 9999 FEW020 34/22 Q1008 NOSIG
2026-03-15 08:30:00,METAR VTSP 150830Z 10006KT 050V170 9999 FEW020 34/22 Q1009 NOSIG
2026-03-15 08:00:00,METAR VTSP 150800Z 10007KT 050V150 9999 FEW020 34/22 Q1009 NOSIG
