Time_recorded,METAR
2026-05-02 15:19:00,SPECI KJAX 021519Z 03003KT 5SM -RA BR BKN007 OVC035 18/17 A2982 RMK AO2 TSE19 P0004 T01780167 $
2026-05-02 15:03:00,SPECI KJAX 021503Z 36006KT 4SM -TSRA BR SCT007 BKN035CB OVC055 18/17 A2983 RMK AO2 OCNL LTGIC OHD TS OHD MOV NE P0002 T01780167 $
2026-05-02 14:56:00,METAR KJAX 021456Z 00000KT 2 1/2SM TSRA BR SCT007 BKN026CB OVC046 18/17 A2982 RMK AO2 TSB07 SLP100 OCNL LTGIC OHD TS OHD MOV NE P0024 60025 T01780167 51004 $
2026-05-02 14:52:00,SPECI KJAX 021452Z VRB03KT 2 1/2SM +TSRA BR SCT007 BKN026CB OVC046 18/17 A2983 RMK AO2 TSB07 OCNL LTGIC OHD TS OHD MOV NE P0022 $
2026-05-02 14:33:00,SPECI KJAX 021433Z 10006KT 2SM +TSRA BR SCT014 BKN033CB OVC043 17/16 A2983 RMK AO2 TSB07 OCNL LTGIC VC W TS VC W MOV NE P0013 T01720161 $
2026-05-02 14:23:00,SPECI KJAX 021423Z 06006KT 2SM TSRA BR OVC016CB 17/16 A2982 RMK AO2 TSB07 OCNL LTGIC VC SW TS VC SW MOV NE P0005 T01720161 $
2026-05-02 14:07:00,SPECI KJAX 021407Z 34004KT 5SM TSRA BR OVC016CB 18/16 A2984 RMK AO2 TSB07 OCNL LTGIC VC SW TS VC SW MOV NE P0002 T01780161 $
2026-05-02 13:56:00,METAR KJAX 021356Z 04008KT 7SM -RA OVC016 18/16 A2982 RMK AO2 LTG DSNT SW-NW PRESFR SLP099 P0001 T01780156 $
2026-05-02 12:56:00,METAR KJAX 021256Z 31004KT 10SM -RA BKN016 BKN025 OVC060 18/14 A2984 RMK AO2 RAB50 SLP107 P0000 T01830144 $
2026-05-02 12:48:00,SPECI KJAX 021248Z 33004KT 10SM SCT016 BKN025 BKN060 OVC250 18/14 A2984 RMK AO2 T01830144 $
2026-05-02 11:56:00,METAR KJAX 021156Z 00000KT 10SM FEW023 FEW030 OVC250 18/14 A2981 RMK AO2 SLP095 T01830144 10206 20172 50006 $
2026-05-02 11:41:00,SPECI KJAX 021141Z 00000KT 10SM FEW020 SCT025 OVC250 18/14 A2981 RMK AO2 T01830139 $
2026-05-02 10:56:00,METAR KJAX 021056Z 31004KT 10SM OVC018 18/14 A2982 RMK AO2 SLP098 T01780144 $
2026-05-02 09:56:00,METAR KJAX 020956Z 00000KT 10SM BKN020 BKN200 18/14 A2979 RMK AO2 SLP088 T01780139
2026-05-02 09:46:00,SPECI KJAX 020946Z 03003KT 10SM BKN022 BKN180 18/14 A2979 RMK AO2 T01780139
2026-05-02 08:56:00,METAR KJAX 020856Z 06004KT 10SM OVC180 18/14 A2979 RMK AO2 SLP089 T01830139 58023
2026-05-02 07:56:00,METAR KJAX 020756Z 36005KT 10SM FEW040 SCT070 BKN170 BKN250 18/14 A2984 RMK AO2 SLP105 T01830144
2026-05-02 06:56:00,METAR KJAX 020656Z 35004KT 10SM FEW040 SCT070 BKN170 BKN250 19/16 A2985 RMK AO2 SLP108 T01940156
2026-05-02 05:56:00,METAR KJAX 020556Z 35003KT 10SM BKN040 BKN095 OVC180 21/16 A2986 RMK AO2 SLP113 T02060156 10239 20200 50002
2026-05-02 04:56:00,METAR KJAX 020456Z 33003KT 10SM FEW060 BKN095 OVC180 21/16 A2987 RMK AO2 SLP115 T02060156 403060194
2026-05-02 03:56:00,METAR KJAX 020356Z 00000KT 10SM BKN060 BKN095 OVC250 21/15 A2988 RMK AO2 SLP118 T02110150
2026-05-02 02:56:00,METAR KJAX 020256Z 08006KT 10SM BKN065 BKN095 OVC250 22/15 A2986 RMK AO2 PRESFR SLP110 T02170150 50004
2026-05-02 01:56:00,METAR KJAX 020156Z 31004KT 10SM BKN065 BKN100 BKN170 OVC250 22/14 A2989 RMK AO2 SLP122 T02170144
2026-05-02 00:56:00,METAR KJAX 020056Z 02007KT 10SM FEW017 FEW100 SCT190 OVC250 23/17 A2987 RMK AO2 SLP116 T02280167
2026-05-01 23:56:00,METAR KJAX 012356Z 04009KT 10SM FEW025 FEW050 SCT090 BKN250 24/19 A2984 RMK AO2 SLP106 T02390189 10306 20239 53014
2026-05-01 22:56:00,METAR KJAX 012256Z 03011KT 10SM SCT050 BKN090 BKN250 26/17 A2982 RMK AO2 SLP098 T02610167
2026-05-01 21:56:00,METAR KJAX 012156Z 33007KT 10SM SCT055 BKN090 BKN120 BKN250 29/16 A2981 RMK AO2 SLP094 T02890156
2026-05-01 20:56:00,METAR KJAX 012056Z VRB03KT 10SM FEW045 BKN055 BKN085 BKN250 29/16 A2980 RMK AO2 SLP092 T02890156 58017
2026-05-01 19:56:00,METAR KJAX 011956Z VRB04KT 10SM SCT045 BKN090 BKN150 BKN250 30/16 A2981 RMK AO2 SLP096 T03000161
2026-05-01 18:56:00,METAR KJAX 011856Z 24007KT 10SM FEW045 FEW090 SCT150 BKN250 30/16 A2984 RMK AO2 SLP106 T03000156
2026-05-01 17:56:00,METAR KJAX 011756Z VRB06G17KT 10SM FEW045 FEW090 BKN150 OVC250 28/16 A2985 RMK AO2 SLP109 T02830156 10289 20206 58016
2026-05-01 16:56:00,METAR KJAX 011656Z 27010KT 10SM FEW039 FEW090 BKN150 OVC250 28/16 A2988 RMK AO2 SLP120 T02780156
2026-05-01 15:56:00,METAR KJAX 011556Z 32004KT 10SM SCT035 SCT090 BKN150 OVC250 27/16 A2989 RMK AO2 SLP122 T02720161
2026-05-01 14:56:00,METAR KJAX 011456Z VRB05KT 10SM FEW030 FEW090 BKN150 OVC250 27/17 A2990 RMK AO2 SLP125 T02720172 51011
2026-05-01 13:56:00,METAR KJAX 011356Z 00000KT 10SM FEW020 FEW080 BKN140 BKN250 24/19 A2989 RMK AO2 SLP121 T02440189
2026-05-01 12:56:00,METAR KJAX 011256Z 33003KT 10SM FEW020 FEW080 BKN140 BKN230 23/17 A2988 RMK AO2 SLP119 T02280172
2026-05-01 11:56:00,METAR KJAX 011156Z 32003KT 10SM FEW080 BKN140 BKN230 21/16 A2987 RMK AO2 SLP114 T02060156 10211 20194 53011
2026-05-01 10:56:00,METAR KJAX 011056Z 28003KT 10SM BKN140 BKN250 20/16 A2985 RMK AO2 SLP109 T02000156 $
2026-05-01 09:56:00,METAR KJAX 010956Z 00000KT 10SM BKN250 21/16 A2984 RMK AO2 SLP104 T02060156 $
2026-05-01 08:56:00,METAR KJAX 010856Z 34004KT 10SM BKN250 21/16 A2984 RMK AO2 SLP103 T02060156 56001 $
2026-05-01 07:56:00,METAR KJAX 010756Z 31004KT 10SM BKN250 21/16 A2984 RMK AO2 SLP105 T02060161 $
2026-05-01 06:56:00,METAR KJAX 010656Z 28004KT 10SM BKN250 19/17 A2983 RMK AO2 SLP102 T01940172 $
2026-05-01 05:56:00,METAR KJAX 010556Z 29005KT 10SM BKN250 21/18 A2984 RMK AO2 SLP105 T02060183 10283 20200 58004 $
2026-05-01 04:56:00,METAR KJAX 010456Z 24005KT 10SM FEW080 SCT250 21/18 A2985 RMK AO2 SLP108 T02060183 403280206 $
2026-05-01 03:56:00,METAR KJAX 010356Z 22004KT 10SM FEW080 BKN250 22/18 A2985 RMK AO2 SLP108 T02170183 $
2026-05-01 02:56:00,METAR KJAX 010256Z 24005KT 10SM FEW060 SCT080 BKN250 23/18 A2985 RMK AO2 SLP109 T02280183 51025 $
2026-05-01 01:56:00,METAR KJAX 010156Z 25006KT 10SM FEW065 SCT095 BKN180 BKN250 23/18 A2983 RMK AO2 SLP102 T02330183 $
2026-05-01 00:56:00,METAR KJAX 010056Z 23007KT 10SM FEW040 BKN065 BKN250 25/18 A2981 RMK AO2 SLP094 T02500178 $
2026-04-30 23:56:00,METAR KJAX 302356Z 23005KT 10SM FEW045 BKN065 BKN095 BKN130 BKN250 28/15 A2978 RMK AO2 SLP083 60000 T02830150 10328 20272 53008 $
2026-04-30 22:56:00,METAR KJAX 302256Z 24008KT 10SM FEW043 SCT060 BKN130 BKN200 BKN250 29/17 A2975 RMK AO2 SLP073 T02940167 $
2026-04-30 21:56:00,METAR KJAX 302156Z 22007KT 10SM SCT055 SCT110 SCT200 BKN250 29/17 A2974 RMK AO2 TSE20 SLP072 T02940172 $
2026-04-30 21:20:00,SPECI KJAX 302120Z 21011KT 10SM FEW043 SCT060 BKN110 BKN250 30/17 A2974 RMK AO2 TSE20 T03000172 $
2026-04-30 20:56:00,METAR KJAX 302056Z 23014G24KT 10SM TS FEW043CB SCT060 BKN110 BKN200 BKN250 28/17 A2975 RMK AO2 PK WND 24030/2042 RAB46E51 TSB46 SLP075 OCNL LTGICCG OHD TS OHD MOV E P0000 60000 T02830172 56017 $
2026-04-30 20:46:00,SPECI KJAX 302046Z 23019G30KT 10SM -TSRA FEW043CB SCT060 BKN110 BKN200 BKN250 28/16 A2975 RMK AO2 PK WND 24030/2042 RAB46 TSB46 OCNL LTGICCG OHD TS OHD MOV E P0000 T02830161 $
2026-04-30 19:56:00,METAR KJAX 301956Z 24013KT 10SM SCT055 BKN070 BKN200 BKN250 31/18 A2976 RMK AO2 WSHFT 1902 SLP079 T03060178 $
2026-04-30 19:17:00,SPECI KJAX 301917Z 22017G24KT 10SM SCT050 BKN070 BKN250 31/17 A2978 RMK AO2 WSHFT 1902 T03060172
2026-04-30 18:56:00,METAR KJAX 301856Z 27016G21KT 10SM SCT050 BKN070 BKN250 32/16 A2978 RMK AO2 SLP086 T03170161 $
2026-04-30 17:56:00,METAR KJAX 301756Z 28009G18KT 10SM SCT045 BKN060 BKN250 31/17 A2980 RMK AO2 SLP093 T03110167 10317 20217 58017
2026-04-30 16:56:00,METAR KJAX 301656Z 32010KT 10SM FEW025 BKN045 BKN150 BKN250 29/17 A2983 RMK AO2 SLP102 T02890167
2026-04-30 15:56:00,METAR KJAX 301556Z 28007KT 10SM SCT025 SCT060 BKN150 BKN250 29/17 A2985 RMK AO2 SLP110 T02890172 $
2026-04-30 14:56:00,METAR KJAX 301456Z 29010KT 10SM FEW020 FEW060 BKN150 BKN250 27/19 A2985 RMK AO2 SLP110 T02670189 50002 $
2026-04-30 13:56:00,METAR KJAX 301356Z 27011KT 10SM FEW014 BKN150 OVC250 25/21 A2986 RMK AO2 SLP110 T02500206 $
2026-04-30 12:56:00,METAR KJAX 301256Z 27005KT 10SM FEW014 BKN150 OVC250 23/20 A2985 RMK AO2 SLP110 T02280200 $
2026-04-30 11:56:00,METAR KJAX 301156Z 27006KT 10SM FEW014 FEW050 BKN150 BKN250 22/19 A2985 RMK AO2 SLP107 T02220189 10233 20211 53014 $
2026-04-30 10:56:00,METAR KJAX 301056Z 24009KT 10SM BKN180 BKN250 22/18 A2983 RMK AO2 SLP101 T02170178 $
2026-04-30 09:56:00,METAR KJAX 300956Z 22005KT 10SM BKN160 OVC250 22/18 A2980 RMK AO2 SLP093 T02170183 $
2026-04-30 08:56:00,METAR KJAX 300856Z 25006KT 10SM SCT130 BKN180 22/18 A2981 RMK AO2 SLP094 T02170183 55018 $
2026-04-30 07:56:00,METAR KJAX 300756Z 24007KT 10SM CLR 22/17 A2981 RMK AO2 SLP093 T02170172 $
2026-04-30 06:56:00,METAR KJAX 300656Z 21006KT 10SM FEW045 SCT090 BKN110 BKN250 21/17 A2981 RMK AO2 SLP095 T02110172 $
2026-04-30 05:56:00,METAR KJAX 300556Z 24005KT 10SM BKN160 BKN230 23/14 A2986 RMK AO2 SLP112 T02330139 10306 20233 58010 $
2026-04-30 04:56:00,METAR KJAX 300456Z 22005KT 10SM BKN230 24/13 A2988 RMK AO2 SLP119 T02390133 403500183 $
2026-04-30 03:56:00,METAR KJAX 300356Z 23008KT 10SM BKN230 24/12 A2989 RMK AO2 SLP123 T02440122 $
2026-04-30 02:56:00,METAR KJAX 300256Z 25010KT 10SM BKN250 26/11 A2989 RMK AO2 SLP122 T02560106 51027 $
2026-04-30 01:56:00,METAR KJAX 300156Z 24009KT 10SM BKN250 27/10 A2987 RMK AO2 SLP116 T02670100 $
2026-04-30 00:56:00,METAR KJAX 300056Z 26014KT 10SM FEW050 SCT250 28/12 A2986 RMK AO2 SLP111 T02830117 $
2026-04-29 23:56:00,METAR KJAX 292356Z 25011KT 10SM SCT055 SCT250 31/14 A2981 RMK AO2 SLP095 60000 T03060139 10350 20300 55003 $
2026-04-29 22:56:00,METAR KJAX 292256Z 26008KT 10SM SCT055 SCT250 33/12 A2980 RMK AO2 SLP092 T03280122 $
2026-04-29 21:56:00,METAR KJAX 292156Z COR 27011G15KT 10SM FEW055 FEW250 34/12 A2980 RMK AO2 SLP091 P0000 T03390122
2026-04-29 20:56:00,METAR KJAX 292056Z 26010G20KT 10SM FEW055 SCT250 33/13 A2982 RMK AO2 SLP098 T03330128 58033
2026-04-29 19:56:00,METAR KJAX 291956Z 23011G19KT 10SM SCT055 SCT250 34/13 A2985 RMK AO2 SLP110 T03440128 $
2026-04-29 18:56:00,METAR KJAX 291856Z 23009KT 10SM SCT060 SCT150 BKN250 33/14 A2988 RMK AO2 SLP120 T03280144 $
2026-04-29 17:56:00,METAR KJAX 291756Z 25007G15KT 210V280 10SM SCT055 SCT130 BKN180 BKN250 32/16 A2992 RMK AO2 SLP131 T03170161 10317 20211 58030 $
2026-04-29 16:56:00,METAR KJAX 291656Z 22012G15KT 10SM SCT047 BKN130 BKN180 BKN250 32/17 A2995 RMK AO2 SLP144 T03170167 $
2026-04-29 15:56:00,METAR KJAX 291556Z 25008KT 10SM FEW045 FEW130 SCT180 BKN250 30/17 A2998 RMK AO2 SLP151 T03000172 $
2026-04-29 14:56:00,METAR KJAX 291456Z 22006KT 10SM FEW060 BKN130 BKN180 BKN250 27/19 A3000 RMK AO2 SLP160 T02720189 58020
2026-04-29 13:56:00,METAR KJAX 291356Z 28006KT 10SM FEW060 BKN140 BKN250 26/19 A3004 RMK AO2 SLP172 T02560189
2026-04-29 12:56:00,METAR KJAX 291256Z 19007KT 10SM FEW060 SCT160 BKN250 23/18 A3003 RMK AO2 SLP170 T02280183
2026-04-29 11:56:00,METAR KJAX 291156Z 25003KT 10SM SCT060 BKN160 BKN210 OVC250 21/19 A3006 RMK AO2 SLP181 T02110189 10211 20183 53025
2026-04-29 10:56:00,METAR KJAX 291056Z 21003KT 10SM BKN160 BKN210 OVC250 20/18 A3001 RMK AO2 SLP163 T02000183 $
2026-04-29 09:56:00,METAR KJAX 290956Z 00000KT 10SM BKN170 BKN250 19/18 A2999 RMK AO2 SLP156 T01940178 $
2026-04-29 08:56:00,METAR KJAX 290856Z 17003KT 10SM BKN180 BKN250 19/18 A2999 RMK AO2 SLP156 T01940178 55010 $
2026-04-29 07:56:00,METAR KJAX 290756Z 16005KT 10SM SCT040 BKN250 19/17 A2999 RMK AO2 SLP155 T01890172 $
2026-04-29 06:56:00,METAR KJAX 290656Z 27003KT 10SM BKN250 18/17 A3001 RMK AO2 SLP164 T01830172 $
2026-04-29 05:56:00,METAR KJAX 290556Z 16004KT 10SM BKN250 19/17 A3002 RMK AO2 SLP167 T01890172 10233 20178 58016 $
2026-04-29 04:56:00,METAR KJAX 290456Z 04003KT 10SM BKN240 19/17 A3006 RMK AO2 SLP180 T01890172 402940167 $
2026-04-29 03:56:00,METAR KJAX 290356Z 17004KT 10SM BKN240 19/17 A3006 RMK AO2 SLP179 T01890172 $
2026-04-29 02:56:00,METAR KJAX 290256Z 05003KT 10SM BKN250 20/18 A3007 RMK AO2 SLP182 T02000178 51021 $
2026-04-29 01:56:00,METAR KJAX 290156Z 00000KT 10SM BKN250 21/18 A3006 RMK AO2 SLP179 T02110178 $
2026-04-29 00:56:00,METAR KJAX 290056Z 18005KT 10SM BKN250 22/18 A3002 RMK AO2 SLP166 T02220183 $
2026-04-28 23:56:00,METAR KJAX 282356Z 19005KT 10SM FEW150 BKN250 23/18 A3001 RMK AO2 SLP161 T02330178 10289 20233 58033 $
2026-04-28 22:56:00,METAR KJAX 282256Z 15006KT 10SM FEW025 BKN250 24/18 A3005 RMK AO2 SLP175 T02390183 $
2026-04-28 21:56:00,METAR KJAX 282156Z 15011G15KT 10SM FEW020 FEW070 BKN250 25/17 A3007 RMK AO2 SLP182 T02500172 $
2026-04-28 20:56:00,METAR KJAX 282056Z 08013KT 10SM SCT021 SCT045 BKN250 26/18 A3010 RMK AO2 SLP195 T02610178 58022 $
2026-04-28 19:56:00,METAR KJAX 281956Z 06015KT 10SM FEW026 SCT065 BKN250 27/18 A3013 RMK AO2 SLP203 T02670178 $
2026-04-28 18:56:00,METAR KJAX 281856Z 06016G22KT 10SM SCT034 BKN060 BKN250 28/17 A3015 RMK AO2 SLP210 T02780172
2026-04-28 17:56:00,METAR KJAX 281756Z VRB03KT 10SM BKN034 BKN060 BKN250 27/17 A3017 RMK AO2 SLP216 T02720167 10294 20183 50005
2026-04-28 17:10:00,SPECI KJAX 281710Z 08010G17KT 10SM BKN031 BKN060 BKN250 28/17 A3018 RMK AO2 T02780172
2026-04-28 16:56:00,METAR KJAX 281656Z 07008KT 10SM BKN028 BKN060 BKN250 28/18 A3019 RMK AO2 SLP222 T02780178
2026-04-28 15:56:00,METAR KJAX 281556Z 06005KT 10SM BKN022 BKN038 BKN250 26/18 A3016 RMK AO2 SLP213 T02610178
2026-04-28 14:56:00,METAR KJAX 281456Z VRB04KT 10SM FEW006 BKN022 BKN250 24/19 A3015 RMK AO2 SLP211 T02440189 50008
2026-04-28 13:56:00,METAR KJAX 281356Z 36004KT 10SM SCT006 BKN020 BKN250 23/19 A3015 RMK AO2 SLP211 T02280194
2026-04-28 13:53:00,SPECI KJAX 281353Z 01003KT 10SM SCT006 BKN020 BKN250 23/19 A3015 RMK AO2
2026-04-28 12:56:00,METAR KJAX 281256Z 01004KT 10SM BKN006 BKN250 21/19 A3015 RMK AO2 SLP210 T02110189
2026-04-28 11:56:00,METAR KJAX 281156Z 00000KT 8SM FEW004 BKN009 18/18 A3013 RMK AO2 SLP203 T01830178 10183 20167 53008
2026-04-28 11:21:00,SPECI KJAX 281121Z 29004KT 5SM BR BKN007 BKN026 17/17 A3011 RMK AO2 T01720167
2026-04-28 11:05:00,SPECI KJAX 281105Z 00000KT 7SM FEW007 SCT026 BKN030 17/16 A3010 RMK AO2 T01720161
2026-04-28 10:58:00,SPECI KJAX 281058Z 30003KT 1 1/4SM BR FEW007 SCT026 17/16 A3010 RMK AO2 T01670161 $
2026-04-28 10:56:00,METAR KJAX 281056Z 29003KT 7SM FEW007 SCT015 BKN030 17/17 A3010 RMK AO2 SLP193 T01720167 $
2026-04-28 10:42:00,SPECI KJAX 281042Z 00000KT 9SM FEW007 SCT015 BKN030 18/17 A3009 RMK AO2 T01780167 $
2026-04-28 10:27:00,SPECI KJAX 281027Z 04004KT 9SM FEW007 BKN015 OVC030 18/17 A3009 RMK AO2 T01830172 $
2026-04-28 09:56:00,METAR KJAX 280956Z 36003KT 10SM OVC012 18/17 A3009 RMK AO2 SLP191 T01830172 $
2026-04-28 08:56:00,METAR KJAX 280856Z 33004KT 10SM BKN012 OVC025 18/17 A3011 RMK AO2 SLP195 T01830167 55009 $
2026-04-28 08:21:00,SPECI KJAX 280821Z 34005KT 10SM BKN012 BKN017 OVC025 18/16 A3010 RMK AO2 T01830161 $
2026-04-28 07:56:00,METAR KJAX 280756Z 00000KT 10SM SCT015 BKN022 18/16 A3010 RMK AO2 SLP192 T01830161 $
2026-04-28 06:56:00,METAR KJAX 280656Z 30003KT 10SM BKN015 BKN022 17/16 A3011 RMK AO2 SLP196 T01720156 $
2026-04-28 05:56:00,METAR KJAX 280556Z 00000KT 10SM BKN017 19/17 A3013 RMK AO2 SLP204 T01890167 10189 20178 58007 $
2026-04-28 05:24:00,SPECI KJAX 280524Z 02004KT 10SM BKN019 18/16 A3014 RMK AO2 T01780156 $
2026-04-28 04:56:00,METAR KJAX 280456Z 04005KT 10SM SCT019 18/16 A3014 RMK AO2 SLP208 T01830161 402280178 $
2026-04-28 04:29:00,SPECI KJAX 280429Z 04005KT 10SM SCT019 18/16 A3015 RMK AO2 T01780156 $
2026-04-28 03:56:00,METAR KJAX 280356Z 04008KT 10SM BKN019 18/16 A3015 RMK AO2 SLP210 T01830156 $
2026-04-28 02:56:00,METAR KJAX 280256Z 04010KT 10SM BKN015 18/15 A3016 RMK AO2 SLP212 T01830150 50007 $
2026-04-28 01:56:00,METAR KJAX 280156Z 05011KT 10SM BKN015 BKN040 18/15 A3016 RMK AO2 SLP212 T01830150 $
2026-04-28 00:56:00,METAR KJAX 280056Z 04011KT 10SM BKN018 OVC038 19/14 A3015 RMK AO2 SLP211 T01890144 $
2026-04-27 23:56:00,METAR KJAX 272356Z 05010KT 10SM BKN018 BKN035 19/14 A3013 RMK AO2 SLP205 T01890144 10222 20189 51007 $
2026-04-27 22:56:00,METAR KJAX 272256Z 04012KT 10SM FEW017 BKN022 OVC038 19/14 A3013 RMK AO2 SLP203 T01940139 $
2026-04-27 21:56:00,METAR KJAX 272156Z 06014KT 10SM FEW016 BKN025 OVC040 20/14 A3012 RMK AO2 SLP200 T02000139 $
2026-04-27 20:56:00,METAR KJAX 272056Z 05013KT 10SM BKN028 OVC040 21/14 A3011 RMK AO2 SLP197 T02110139 58005 $
2026-04-27 19:56:00,METAR KJAX 271956Z 05012KT 10SM BKN025 OVC037 21/14 A3012 RMK AO2 SLP200 T02110139 $
2026-04-27 18:56:00,METAR KJAX 271856Z 07014KT 10SM BKN025 OVC034 22/14 A3012 RMK AO2 SLP200 T02170144 $
2026-04-27 17:56:00,METAR KJAX 271756Z 04012KT 10SM BKN023 OVC031 21/14 A3013 RMK AO2 SLP202 T02110144 10228 20206 51005 $
2026-04-27 16:56:00,METAR KJAX 271656Z 04015KT 10SM BKN023 OVC034 22/14 A3012 RMK AO2 SLP201 T02220144 $
2026-04-27 15:56:00,METAR KJAX 271556Z 06017KT 10SM BKN023 BKN034 22/15 A3012 RMK AO2 SLP200 T02220150 $
2026-04-27 14:56:00,METAR KJAX 271456Z 05016KT 10SM FEW022 BKN028 OVC050 22/15 A3011 RMK AO2 SLP197 T02170150 51020 $
2026-04-27 13:56:00,METAR KJAX 271356Z 05016KT 10SM FEW020 BKN027 OVC050 21/16 A3010 RMK AO2 SLP192 T02110156 $
2026-04-27 12:56:00,METAR KJAX 271256Z 04016G23KT 10SM FEW020 BKN027 BKN050 21/16 A3008 RMK AO2 SLP185 T02110161 $
2026-04-27 11:56:00,METAR KJAX 271156Z 05015G25KT 10SM FEW015 BKN020 BKN050 21/16 A3005 RMK AO2 SLP177 T02060161 10222 20200 53025 $
2026-04-27 10:56:00,METAR KJAX 271056Z 04011KT 10SM FEW015 BKN020 21/16 A3003 RMK AO2 SLP168 T02060161 $
2026-04-27 09:56:00,METAR KJAX 270956Z 05015G23KT 10SM BKN015 OVC025 21/17 A3000 RMK AO2 SLP159 T02060172 $
2026-04-27 08:56:00,METAR KJAX 270856Z 05014KT 10SM BKN015 OVC025 21/18 A2998 RMK AO2 SLP152 T02110178 53008 $
2026-04-27 07:56:00,METAR KJAX 270756Z 05014KT 10SM BKN015 BKN025 OVC250 22/18 A2996 RMK AO2 SLP145 T02170183 $
2026-04-27 07:32:00,SPECI KJAX 270732Z 06012G19KT 10SM BKN017 BKN025 OVC250 22/18 A2995 RMK AO2 T02170183 $
2026-04-27 06:56:00,METAR KJAX 270656Z 04011KT 10SM BKN014 BKN025 OVC250 22/19 A2995 RMK AO2 SLP141 T02170189 $
2026-04-27 05:56:00,METAR KJAX 270556Z 05010KT 10SM BKN012 BKN020 OVC250 22/19 A2996 RMK AO2 SLP144 T02220194 10244 20211 51013 $
2026-04-27 05:21:00,SPECI KJAX 270521Z 05007KT 7SM BKN012 OVC250 22/20 A2996 RMK AO2 T02170200 $
2026-04-27 04:56:00,METAR KJAX 270456Z 04004KT 7SM FEW050 BKN250 21/19 A2995 RMK AO2 SLP143 T02110194 403170167 $
2026-04-27 03:56:00,METAR KJAX 270356Z 06006KT 10SM FEW017 FEW200 22/20 A2994 RMK AO2 SLP139 T02170200 $
2026-04-27 02:56:00,METAR KJAX 270256Z 06005KT 10SM FEW200 21/19 A2992 RMK AO2 SLP131 T02110194 51024 $
2026-04-27 01:56:00,METAR KJAX 270156Z 06003KT 10SM SCT060 BKN200 23/19 A2991 RMK AO2 SLP128 T02280194 $
2026-04-27 00:56:00,METAR KJAX 270056Z 08005KT 10SM BKN060 BKN200 24/19 A2989 RMK AO2 LTG DSNT N SLP121 T02390194 $
2026-04-26 23:56:00,METAR KJAX 262356Z 15007KT 10SM SCT040 BKN150 BKN200 24/19 A2984 RMK AO2 SLP107 T02440189 10317 20244 52011 $
2026-04-26 22:56:00,METAR KJAX 262256Z 09007KT 10SM FEW030 SCT080 BKN200 27/18 A2983 RMK AO2 SLP103 T02670178 $
2026-04-26 21:56:00,METAR KJAX 262156Z 08009KT 10SM FEW030 SCT090 BKN200 28/18 A2982 RMK AO2 SLP100 T02780183 $
2026-04-26 20:56:00,METAR KJAX 262056Z 08009KT 10SM FEW030 SCT060 BKN200 28/18 A2981 RMK AO2 SLP096 T02830183 55007 $
2026-04-26 19:56:00,METAR KJAX 261956Z 12009KT 10SM SCT055 BKN110 BKN250 29/18 A2981 RMK AO2 SLP094 T02940183 $
2026-04-26 18:56:00,METAR KJAX 261856Z 12011KT 10SM SCT055 BKN085 BKN250 28/18 A2981 RMK AO2 SLP096 T02830178 $
2026-04-26 17:56:00,METAR KJAX 261756Z 35008KT 10SM SCT043 BKN055 BKN095 BKN250 30/17 A2983 RMK AO2 SLP103 60000 T03000172 10300 20194 58013 $
2026-04-26 16:56:00,METAR KJAX 261656Z VRB05KT 10SM FEW033 SCT047 BKN065 29/18 A2985 RMK AO2 SLP109 T02890183 $
2026-04-26 15:56:00,METAR KJAX 261556Z 31009KT 10SM FEW034 BKN065 BKN080 26/18 A2987 RMK AO2 RAB44E54 SLP114 P0000 T02610178 $
2026-04-26 15:13:00,SPECI KJAX 261513Z 00000KT 10SM BKN032 BKN041 BKN060 25/18 A2987 RMK AO2 T02500178 $
2026-04-26 14:56:00,METAR KJAX 261456Z VRB03KT 10SM BKN025 BKN032 BKN050 25/18 A2987 RMK AO2 SLP115 T02500178 55001 $
2026-04-26 14:16:00,SPECI KJAX 261416Z 23005KT 10SM SCT020 BKN028 BKN055 26/19 A2987 RMK AO2 T02560189 $
2026-04-26 13:56:00,METAR KJAX 261356Z 23007KT 10SM FEW025 SCT055 SCT250 26/19 A2987 RMK AO2 SLP114 T02560194 $
2026-04-26 12:56:00,METAR KJAX 261256Z 25004KT 10SM FEW030 SCT060 SCT250 23/17 A2987 RMK AO2 SLP116 T02280172 $
2026-04-26 12:09:00,SPECI KJAX 261209Z 00000KT 10SM FEW014 BKN050 BKN250 20/16 A2988 RMK AO2 T02000156 $
2026-04-26 11:56:00,METAR KJAX 261156Z 00000KT 10SM BKN014 BKN049 BKN250 19/16 A2987 RMK AO2 SLP116 T01940156 10206 20167 53018 $
2026-04-26 11:22:00,SPECI KJAX 261122Z 00000KT 10SM BKN014 BKN250 17/14 A2986 RMK AO2 T01670139 $
2026-04-26 10:56:00,METAR KJAX 261056Z 00000KT 10SM FEW250 17/14 A2985 RMK AO2 SLP108 T01720139 $
2026-04-26 09:56:00,METAR KJAX 260956Z 00000KT 10SM FEW250 17/14 A2982 RMK AO2 SLP098 T01720139 $
2026-04-26 08:56:00,METAR KJAX 260856Z 26003KT 10SM FEW120 FEW250 18/13 A2982 RMK AO2 SLP098 T01830133 56002 $
2026-04-26 07:56:00,METAR KJAX 260756Z 25004KT 10SM FEW120 FEW250 18/14 A2982 RMK AO2 SLP100 T01780139 $
2026-04-26 06:56:00,METAR KJAX 260656Z 23005KT 10SM SCT250 20/15 A2982 RMK AO2 SLP097 T02000150 $
2026-04-26 05:56:00,METAR KJAX 260556Z 23004KT 10SM BKN250 20/16 A2983 RMK AO2 SLP100 60000 T02000161 10256 20200 58005 $
2026-04-26 04:56:00,METAR KJAX 260456Z 21005KT 10SM FEW140 OVC250 21/17 A2984 RMK AO2 SLP106 T02060167 403280150 $
2026-04-26 03:56:00,METAR KJAX 260356Z 21006KT 10SM FEW140 OVC250 23/18 A2984 RMK AO2 SLP106 T02280178 $
2026-04-26 02:56:00,METAR KJAX 260256Z 19004KT 10SM FEW140 BKN250 22/17 A2984 RMK AO2 SLP105 60000 T02220172 51010 $
2026-04-26 01:56:00,METAR KJAX 260156Z 17003KT 10SM FEW100 BKN140 OVC160 24/17 A2983 RMK AO2 SLP102 T02390172 $
2026-04-26 00:56:00,METAR KJAX 260056Z 15006KT 10SM BKN075 BKN100 OVC140 25/17 A2982 RMK AO2 RAB10E20 SLP099 P0000 T02500167
2026-04-25 23:56:00,METAR KJAX 252356Z 00000KT 10SM FEW010 FEW070 BKN100 OVC190 25/18 A2981 RMK AO2 SLP095 FU FEW010 T02500178 10328 20250 53008
2026-04-25 22:56:00,METAR KJAX 252256Z 13011KT 10SM FEW070 BKN110 BKN250 26/16 A2979 RMK AO2 SLP087 T02610161
2026-04-25 21:56:00,METAR KJAX 252156Z 15009KT 10SM FEW070 BKN095 BKN120 BKN250 26/16 A2979 RMK AO2 SLP087 T02610161
2026-04-25 20:56:00,METAR KJAX 252056Z 12011KT 10SM FEW070 BKN110 BKN250 27/17 A2978 RMK AO2 SLP086 T02670167 56019
2026-04-25 19:56:00,METAR KJAX 251956Z 13012KT 10SM SCT070 BKN110 BKN250 28/16 A2980 RMK AO2 SLP091 T02830161
2026-04-25 18:56:00,METAR KJAX 251856Z 16006KT 10SM SCT075 BKN110 BKN250 32/12 A2982 RMK AO2 SLP098 T03170122
2026-04-25 17:56:00,METAR KJAX 251756Z 22009KT 10SM SCT055 SCT070 BKN250 30/12 A2984 RMK AO2 SLP106 T03000117 10311 20178 58013
2026-04-25 16:56:00,METAR KJAX 251656Z 26003G19KT 10SM FEW060 FEW100 SCT250 30/13 A2987 RMK AO2 SLP114 T03000128
2026-04-25 15:56:00,METAR KJAX 251556Z VRB03KT 10SM FEW060 FEW250 28/13 A2987 RMK AO2 SLP116 T02830128
2026-04-25 14:56:00,METAR KJAX 251456Z 17004KT 10SM FEW250 27/14 A2988 RMK AO2 SLP118 T02670139 55002
2026-04-25 13:56:00,METAR KJAX 251356Z 00000KT 10SM FEW250 25/14 A2988 RMK AO2 SLP117 T02500144
2026-04-25 12:56:00,METAR KJAX 251256Z 00000KT 10SM FEW250 21/16 A2988 RMK AO2 SLP120 T02110161
2026-04-25 11:56:00,METAR KJAX 251156Z 00000KT 10SM FEW150 FEW250 18/16 A2988 RMK AO2 SLP120 T01780156 10178 20150 53009
2026-04-25 10:56:00,METAR KJAX 251056Z 00000KT 10SM FEW250 15/14 A2987 RMK AO2 SLP115 T01500139
2026-04-25 09:56:00,METAR KJAX 250956Z 00000KT 10SM CLR 16/14 A2986 RMK AO2 SLP112 T01610144
2026-04-25 08:56:00,METAR KJAX 250856Z 00000KT 10SM CLR 17/15 A2986 RMK AO2 SLP111 T01720150 58007
2026-04-25 07:56:00,METAR KJAX 250756Z 23005KT 10SM CLR 18/15 A2987 RMK AO2 SLP114 T01780150
2026-04-25 06:56:00,METAR KJAX 250656Z 24005KT 10SM FEW100 17/14 A2987 RMK AO2 SLP115 T01670139
2026-04-25 05:56:00,METAR KJAX 250556Z 22005KT 10SM FEW100 17/14 A2988 RMK AO2 SLP118 T01720144 10239 20172 58004
2026-04-25 04:56:00,METAR KJAX 250456Z 24003KT 10SM FEW080 18/14 A2989 RMK AO2 SLP123 T01780144 403060133
2026-04-25 03:56:00,METAR KJAX 250356Z 20003KT 10SM FEW080 20/14 A2989 RMK AO2 SLP123 T02000144
2026-04-25 02:56:00,METAR KJAX 250256Z 15004KT 10SM FEW080 20/14 A2989 RMK AO2 SLP122 T02000144 51008
2026-04-25 01:56:00,METAR KJAX 250156Z 15005KT 10SM FEW120 22/14 A2989 RMK AO2 SLP122 T02170139
2026-04-25 00:56:00,METAR KJAX 250056Z 15007KT 10SM FEW040 23/14 A2988 RMK AO2 SLP117 T02280139
2026-04-24 23:56:00,METAR KJAX 242356Z 13007KT 10SM FEW040 FEW120 24/13 A2987 RMK AO2 SLP114 T02390133 10306 20239 53003 $
2026-04-24 22:56:00,METAR KJAX 242256Z 13009KT 10SM FEW040 FEW120 FEW200 26/13 A2985 RMK AO2 SLP109 T02610133 $
2026-04-24 21:56:00,METAR KJAX 242156Z 11011KT 10SM FEW040 FEW070 BKN120 BKN200 26/14 A2986 RMK AO2 SLP111 T02610139 $
2026-04-24 20:56:00,METAR KJAX 242056Z 12013KT 10SM FEW040 SCT070 BKN120 27/14 A2986 RMK AO2 SLP110 T02720144 56019 $
2026-04-24 19:56:00,METAR KJAX 241956Z COR VRB03KT 10SM SCT070 BKN120 29/11 A2987 RMK AO2 SLP114 T02940111 $
2026-04-24 18:56:00,METAR KJAX 241856Z 16005KT 10SM BKN070 BKN120 30/12 A2989 RMK AO2 SLP122 T03000117 $
2026-04-24 17:56:00,METAR KJAX 241756Z VRB03KT 10SM SCT055 BKN075 29/13 A2991 RMK AO2 SLP129 T02940128 10294 20172 58023 $
2026-04-24 16:56:00,METAR KJAX 241656Z VRB05KT 10SM SCT050 28/13 A2994 RMK AO2 SLP138 T02830128 $
2026-04-24 15:56:00,METAR KJAX 241556Z 23003KT 10SM SCT045 27/14 A2997 RMK AO2 SLP147 T02720139 $
2026-04-24 14:56:00,METAR KJAX 241456Z 24008KT 10SM FEW040 FEW250 26/14 A2998 RMK AO2 SLP152 T02560144 58002 $
2026-04-24 13:56:00,METAR KJAX 241356Z 21009KT 10SM FEW030 FEW250 24/15 A2999 RMK AO2 SLP156 T02390150 $
2026-04-24 12:56:00,METAR KJAX 241256Z 20005KT 10SM FEW250 22/17 A2999 RMK AO2 SLP157 T02170167 $
2026-04-24 11:56:00,METAR KJAX 241156Z 00000KT 9SM CLR 17/14 A2999 RMK AO2 SLP154 T01670144 10167 20133 53008 $
2026-04-24 10:56:00,METAR KJAX 241056Z 00000KT 9SM FEW250 14/12 A2998 RMK AO2 SLP151 T01390122 $
2026-04-24 09:56:00,METAR KJAX 240956Z 00000KT 10SM CLR 14/13 A2997 RMK AO2 SLP148 T01390128 $
2026-04-24 08:56:00,METAR KJAX 240856Z 00000KT 10SM CLR 14/13 A2996 RMK AO2 SLP147 T01440128 56013 $
2026-04-24 07:56:00,METAR KJAX 240756Z 00000KT 10SM CLR 15/13 A2996 RMK AO2 SLP146 T01500133 $
2026-04-24 06:56:00,METAR KJAX 240656Z 00000KT 10SM CLR 16/14 A2998 RMK AO2 SLP151 T01560139 $
2026-04-24 05:56:00,METAR KJAX 240556Z 00000KT 10SM CLR 16/13 A3000 RMK AO2 SLP159 T01560133 10228 20150 58005 $
2026-04-24 04:56:00,METAR KJAX 240456Z 26004KT 10SM CLR 18/14 A3002 RMK AO2 SLP164 T01830144 402890128 $
2026-04-24 03:56:00,METAR KJAX 240356Z 15004KT 10SM CLR 18/14 A3001 RMK AO2 SLP162 T01830144 $
2026-04-24 02:56:00,METAR KJAX 240256Z 14004KT 10SM CLR 19/15 A3002 RMK AO2 SLP165 T01940150 51005 $
2026-04-24 01:56:00,METAR KJAX 240156Z 14005KT 10SM CLR 21/14 A3002 RMK AO2 SLP164 T02060144 $
2026-04-24 00:56:00,METAR KJAX 240056Z 14009KT 10SM FEW050 22/13 A3001 RMK AO2 SLP161 T02170133 $
2026-04-23 23:56:00,METAR KJAX 232356Z 12009KT 10SM FEW050 FEW200 23/12 A3000 RMK AO2 SLP159 T02280117 10289 20228 53000 $
2026-04-23 22:56:00,METAR KJAX 232256Z 11011G20KT 10SM FEW050 FEW200 24/09 A3000 RMK AO2 SLP159 T02440094 $
2026-04-23 21:56:00,METAR KJAX 232156Z 11013KT 10SM FEW050 FEW110 26/09 A3000 RMK AO2 SLP158 T02610089 $
2026-04-23 20:56:00,METAR KJAX 232056Z 11010G20KT 10SM FEW050 27/08 A3000 RMK AO2 SLP159 T02720083 58019 $
2026-04-23 19:56:00,METAR KJAX 231956Z 13009KT 10SM FEW050 28/09 A3002 RMK AO2 SLP165 T02830089 $
2026-04-23 18:56:00,METAR KJAX 231856Z 13011KT 10SM SCT050 28/09 A3004 RMK AO2 SLP174 T02830089 $
2026-04-23 17:56:00,METAR KJAX 231756Z VRB03KT 10SM SCT045 27/10 A3006 RMK AO2 SLP178 T02670100 10289 20156 58022 $
2026-04-23 16:56:00,METAR KJAX 231656Z 14007KT 10SM SCT045 28/09 A3009 RMK AO2 SLP190 T02780094 $
2026-04-23 15:56:00,METAR KJAX 231556Z 00000KT 10SM SCT040 26/11 A3011 RMK AO2 SLP197 T02610106 $
2026-04-23 14:56:00,METAR KJAX 231456Z VRB05KT 10SM FEW040 FEW200 24/12 A3012 RMK AO2 SLP200 T02440117 58004 $
2026-04-23 13:56:00,METAR KJAX 231356Z 25005KT 10SM FEW200 23/13 A3013 RMK AO2 SLP204 T02330133 $
2026-04-23 12:56:00,METAR KJAX 231256Z 00000KT 10SM FEW150 21/14 A3013 RMK AO2 SLP204 T02060144 $
2026-04-23 11:56:00,METAR KJAX 231156Z 00000KT 10SM SCT150 15/13 A3013 RMK AO2 SLP204 T01500133 10161 20128 53007 $
2026-04-23 10:56:00,METAR KJAX 231056Z 00000KT 10SM BKN160 13/12 A3012 RMK AO2 SLP199 T01330122 $
2026-04-23 09:56:00,METAR KJAX 230956Z 00000KT 10SM OVC160 14/13 A3011 RMK AO2 SLP196 T01390128 $
2026-04-23 08:56:00,METAR KJAX 230856Z 00000KT 10SM OVC160 13/12 A3011 RMK AO2 SLP197 T01330122 55003 $
2026-04-23 07:56:00,METAR KJAX 230756Z 00000KT 10SM BKN160 14/13 A3011 RMK AO2 SLP197 T01390128 $
2026-04-23 06:56:00,METAR KJAX 230656Z 00000KT 10SM SCT160 15/13 A3011 RMK AO2 SLP196 T01500133 $
2026-04-23 05:56:00,METAR KJAX 230556Z 00000KT 10SM SCT180 16/13 A3012 RMK AO2 SLP200 T01560133 10222 20156 58008 $
2026-04-23 04:56:00,METAR KJAX 230456Z 00000KT 10SM BKN180 18/14 A3013 RMK AO2 SLP204 T01830144 402780111 $
2026-04-23 03:56:00,METAR KJAX 230356Z 00000KT 10SM OVC190 19/14 A3014 RMK AO2 SLP205 T01890144 $
2026-04-23 02:56:00,METAR KJAX 230256Z 14005KT 10SM BKN180 19/14 A3014 RMK AO2 SLP208 T01940144 51008 $
2026-04-23 01:56:00,METAR KJAX 230156Z 15006KT 10SM SCT200 19/13 A3014 RMK AO2 SLP207 T01940133 $
2026-04-23 00:56:00,METAR KJAX 230056Z 14009KT 10SM FEW170 SCT200 21/13 A3013 RMK AO2 SLP203 T02110128 $
2026-04-22 23:56:00,METAR KJAX 222356Z 13010KT 10SM FEW060 SCT170 22/12 A3012 RMK AO2 SLP199 T02220117 10278 20222 56006 $
2026-04-22 22:56:00,METAR KJAX 222256Z 12011KT 10SM FEW060 FEW170 BKN250 24/12 A3012 RMK AO2 SLP200 T02390117 $
2026-04-22 21:56:00,METAR KJAX 222156Z 11009KT 10SM FEW060 FEW170 SCT250 26/11 A3013 RMK AO2 SLP203 T02610111 $
2026-04-22 20:56:00,METAR KJAX 222056Z 11010KT 10SM FEW060 FEW170 SCT200 BKN250 26/11 A3014 RMK AO2 SLP205 T02560106 56026 $
2026-04-22 19:56:00,METAR KJAX 221956Z 18009KT 130V200 10SM FEW060 SCT180 BKN250 28/11 A3016 RMK AO2 SLP212 T02780106 $
2026-04-22 18:56:00,METAR KJAX 221856Z 10004KT 10SM FEW060 BKN180 BKN250 27/08 A3019 RMK AO2 SLP223 T02670083 $
2026-04-22 17:56:00,METAR KJAX 221756Z VRB03KT 10SM SCT060 BKN180 BKN250 26/09 A3021 RMK AO2 SLP231 T02610094 10267 20139 58018 $
2026-04-22 16:56:00,METAR KJAX 221656Z 10005KT 10SM SCT055 BKN200 BKN250 26/09 A3024 RMK AO2 SLP240 T02560094 $
2026-04-22 15:56:00,METAR KJAX 221556Z 00000KT 10SM FEW050 FEW080 BKN200 BKN250 24/10 A3026 RMK AO2 SLP245 T02390100 $
2026-04-22 14:56:00,METAR KJAX 221456Z 00000KT 10SM FEW080 BKN200 BKN250 23/10 A3027 RMK AO2 SLP250 T02330100 53004 $
2026-04-22 13:56:00,METAR KJAX 221356Z 00000KT 10SM FEW070 BKN200 BKN250 21/11 A3026 RMK AO2 SLP247 T02110106 $
2026-04-22 12:56:00,METAR KJAX 221256Z 00000KT 8SM FEW070 BKN220 18/12 A3026 RMK AO2 SLP247 T01830122 $
2026-04-22 11:56:00,METAR KJAX 221156Z 00000KT 10SM FEW070 BKN220 13/11 A3025 RMK AO2 SLP245 T01330111 10133 20111 53013 $
2026-04-22 10:56:00,METAR KJAX 221056Z 00000KT 10SM BKN230 12/10 A3024 RMK AO2 SLP241 T01170100 $
2026-04-22 09:56:00,METAR KJAX 220956Z 00000KT 10SM BKN250 12/10 A3022 RMK AO2 SLP233 T01170100 $
2026-04-22 08:56:00,METAR KJAX 220856Z 00000KT 10SM BKN250 12/10 A3022 RMK AO2 SLP233 T01170100 56007 $
2026-04-22 07:56:00,METAR KJAX 220756Z 00000KT 10SM BKN250 13/10 A3022 RMK AO2 SLP233 T01280100 $
2026-04-22 06:56:00,METAR KJAX 220656Z 00000KT 10SM BKN250 13/11 A3022 RMK AO2 SLP235 T01280106 $
2026-04-22 05:56:00,METAR KJAX 220556Z 00000KT 10SM BKN250 13/11 A3024 RMK AO2 SLP240 T01330106 10211 20128 58011 $
2026-04-22 04:56:00,METAR KJAX 220456Z 00000KT 10SM BKN250 13/10 A3026 RMK AO2 SLP247 T01330100 402780067 $
2026-04-22 03:56:00,METAR KJAX 220356Z 00000KT 10SM BKN250 15/11 A3026 RMK AO2 SLP248 T01500111 $
2026-04-22 02:56:00,METAR KJAX 220256Z 00000KT 10SM BKN250 17/11 A3027 RMK AO2 SLP251 T01720106 53010 $
2026-04-22 01:56:00,METAR KJAX 220156Z 08005KT 10SM BKN250 18/11 A3026 RMK AO2 SLP249 T01780106 $
2026-04-22 00:56:00,METAR KJAX 220056Z 08006KT 10SM BKN250 19/09 A3024 RMK AO2 SLP242 T01890089 $
2026-04-21 23:56:00,METAR KJAX 212356Z 09007KT 10SM BKN250 21/06 A3024 RMK AO2 SLP241 T02110056 10278 20211 53007 $
2026-04-21 22:56:00,METAR KJAX 212256Z 09009KT 10SM FEW010 BKN250 23/02 A3023 RMK AO2 SLP238 FU FEW010 T02330022 $
2026-04-21 21:56:00,METAR KJAX 212156Z 09008KT 10SM FEW010 BKN250 24/02 A3023 RMK AO2 SLP236 FU FEW010 T02440022 $
2026-04-21 20:56:00,METAR KJAX 212056Z 06012KT 10SM BKN250 26/02 A3022 RMK AO2 SLP234 T02610022 58014 $
2026-04-21 19:56:00,METAR KJAX 211956Z 09012KT 10SM SCT250 27/02 A3023 RMK AO2 SLP238 T02720017 $
2026-04-21 18:56:00,METAR KJAX 211856Z 09008G20KT 10SM FEW250 27/03 A3025 RMK AO2 SLP245 T02720033 $
2026-04-21 17:56:00,METAR KJAX 211756Z 06009G15KT 8SM CLR 27/05 A3026 RMK AO2 SLP247 T02720050 10278 20106 58013 $
2026-04-21 16:56:00,METAR KJAX 211656Z 03007KT 330V110 8SM CLR 27/04 A3027 RMK AO2 SLP252 T02720039 $
2026-04-21 15:56:00,METAR KJAX 211556Z 08007KT 6SM FU CLR 26/04 A3029 RMK AO2 SLP257 T02610039 $
2026-04-21 14:56:00,METAR KJAX 211456Z 33004KT 4SM FU CLR 24/03 A3030 RMK AO2 SLP260 T02440033 51006 $
2026-04-21 13:56:00,METAR KJAX 211356Z 00000KT 10SM FEW010 FEW020 21/09 A3029 RMK AO2 SLP258 FU FEW010 T02110089 $
2026-04-21 12:56:00,METAR KJAX 211256Z 00000KT 10SM FEW010 FEW020 16/09 A3029 RMK AO2 SLP258 FU FEW010 T01560094 $
2026-04-21 11:56:00,METAR KJAX 211156Z 00000KT 10SM FEW010 10/07 A3028 RMK AO2 SLP254 T01000072 10100 20067 53014 $
2026-04-21 10:56:00,METAR KJAX 211056Z 00000KT 10SM FEW250 07/05 A3026 RMK AO2 SLP247 T00720050 $
2026-04-21 09:56:00,METAR KJAX 210956Z 00000KT 10SM CLR 07/05 A3024 RMK AO2 SLP242 T00720050 $
2026-04-21 08:56:00,METAR KJAX 210856Z 00000KT 10SM CLR 08/06 A3024 RMK AO2 SLP239 T00780056 58006 $
2026-04-21 07:56:00,METAR KJAX 210756Z 00000KT 10SM FEW250 08/06 A3024 RMK AO2 SLP241 T00830061 $
2026-04-21 06:56:00,METAR KJAX 210656Z 00000KT 10SM FEW250 08/06 A3025 RMK AO2 SLP244 T00830056 $
2026-04-21 05:56:00,METAR KJAX 210556Z 00000KT 10SM FEW250 09/06 A3025 RMK AO2 SLP245 T00940061 10183 20089 50001 $
2026-04-21 04:56:00,METAR KJAX 210456Z 00000KT 10SM FEW250 09/06 A3026 RMK AO2 SLP247 T00940061 402390094 $
2026-04-21 03:56:00,METAR KJAX 210356Z 00000KT 10SM FEW250 11/07 A3025 RMK AO2 SLP245 T01060067 $
2026-04-21 02:56:00,METAR KJAX 210256Z 00000KT 10SM FEW250 12/06 A3025 RMK AO2 SLP244 T01170061 51014 $
2026-04-21 01:56:00,METAR KJAX 210156Z 00000KT 10SM FEW250 12/06 A3024 RMK AO2 SLP241 T01170056 $
2026-04-21 00:56:00,METAR KJAX 210056Z 00000KT 10SM FEW050 SCT250 16/06 A3023 RMK AO2 SLP235 T01560061 $
2026-04-20 23:56:00,METAR KJAX 202356Z 09006KT 10SM FEW010 BKN250 18/04 A3021 RMK AO2 SLP230 FU FEW010 T01830044 10239 20183 58002 $
2026-04-20 22:56:00,METAR KJAX 202256Z 05010KT 10SM BKN250 21/04 A3021 RMK AO2 SLP231 T02060039 $
2026-04-20 21:56:00,METAR KJAX 202156Z 06011KT 10SM BKN250 22/02 A3022 RMK AO2 SLP234 T02170022 $
2026-04-20 20:56:00,METAR KJAX 202056Z 05015KT 10SM BKN250 23/02 A3021 RMK AO2 SLP232 T02280022 56015 $
2026-04-20 19:56:00,METAR KJAX 201956Z 03014G20KT 10SM BKN250 23/03 A3022 RMK AO2 SLP234 T02330033 $
2026-04-20 18:56:00,METAR KJAX 201856Z 04015KT 10SM FEW050 BKN250 24/06 A3024 RMK AO2 SLP241 T02390061 $
2026-04-20 17:56:00,METAR KJAX 201756Z 06016G24KT 10SM BKN250 23/05 A3026 RMK AO2 SLP246 T02330050 10233 20128 58001 $
2026-04-20 16:56:00,METAR KJAX 201656Z 05018G25KT 10SM BKN250 23/06 A3027 RMK AO2 PK WND 05027/1638 SLP249 T02330056 $
2026-04-20 15:56:00,METAR KJAX 201556Z 03019G25KT 10SM BKN250 23/06 A3027 RMK AO2 PK WND 04027/1524 SLP252 T02280061 $
2026-04-20 14:56:00,METAR KJAX 201456Z 04016G24KT 10SM BKN250 22/04 A3026 RMK AO2 PK WND 03027/1446 SLP247 T02220044 53015 $
2026-04-20 13:56:00,METAR KJAX 201356Z 05016G24KT 10SM FEW250 21/05 A3024 RMK AO2 SLP239 T02110050 $
2026-04-20 12:56:00,METAR KJAX 201256Z 01010KT 10SM FEW250 17/07 A3023 RMK AO2 SLP237 T01720072 $
2026-04-20 11:56:00,METAR KJAX 201156Z 35007KT 10SM FEW250 13/06 A3022 RMK AO2 SLP232 T01280056 10161 20106 53022 $
2026-04-20 10:56:00,METAR KJAX 201056Z 36006KT 10SM FEW250 11/05 A3019 RMK AO2 SLP224 T01110050 $
2026-04-20 09:56:00,METAR KJAX 200956Z 35008KT 10SM FEW250 12/04 A3016 RMK AO2 SLP214 T01170044 $
2026-04-20 08:56:00,METAR KJAX 200856Z 36007KT 10SM SCT250 13/04 A3015 RMK AO2 SLP210 T01280039 55001
2026-04-20 07:56:00,METAR KJAX 200756Z 35007KT 10SM BKN250 14/03 A3014 RMK AO2 SLP206 T01390033
2026-04-20 06:56:00,METAR KJAX 200656Z 35008KT 10SM FEW130 BKN250 15/03 A3014 RMK AO2 SLP208 T01500033
2026-04-20 05:56:00,METAR KJAX 200556Z 35008KT 10SM FEW130 BKN200 16/04 A3015 RMK AO2 SLP211 T01610039 10217 20161 51014
2026-04-20 04:56:00,METAR KJAX 200456Z 34006KT 10SM FEW070 SCT130 BKN200 17/04 A3014 RMK AO2 SLP208 T01720039 403110172
2026-04-20 03:56:00,METAR KJAX 200356Z 33009KT 10SM FEW070 SCT130 BKN200 19/04 A3013 RMK AO2 SLP202 T01890044
2026-04-20 02:56:00,METAR KJAX 200256Z 35005KT 10SM SCT070 BKN130 BKN200 19/07 A3011 RMK AO2 SLP197 T01940072 51026
2026-04-20 01:56:00,METAR KJAX 200156Z 32003KT 10SM BKN070 OVC200 20/08 A3009 RMK AO2 SLP189 T02000078
2026-04-20 00:56:00,METAR KJAX 200056Z 34004KT 10SM SCT060 BKN130 OVC200 21/07 A3006 RMK AO2 SLP179 T02110072
2026-04-19 23:56:00,METAR KJAX 192356Z 35010KT 10SM FEW050 BKN120 OVC200 22/07 A3004 RMK AO2 SLP171 T02170072 10311 20217 53026
2026-04-19 22:56:00,METAR KJAX 192256Z 33008G19KT 10SM FEW050 BKN120 BKN200 23/09 A3001 RMK AO2 SLP163 T02280089
2026-04-19 21:56:00,METAR KJAX 192156Z 32011KT 10SM FEW050 SCT130 BKN200 25/11 A2998 RMK AO2 SLP152 T02500111
2026-04-19 20:56:00,METAR KJAX 192056Z 32015G22KT 10SM SCT050 SCT130 BKN200 27/13 A2996 RMK AO2 SLP145 T02720133 55002
2026-04-19 19:56:00,METAR KJAX 191956Z 31011G19KT 10SM SCT050 SCT130 BKN250 31/16 A2995 RMK AO2 SLP141 T03060156
2026-04-19 18:56:00,METAR KJAX 191856Z 30012G21KT 10SM SCT055 SCT070 BKN100 BKN250 31/15 A2996 RMK AO2 SLP146 T03060150
2026-04-19 17:56:00,METAR KJAX 191756Z 29008G15KT 10SM BKN055 BKN100 BKN250 31/16 A2996 RMK AO2 SLP147 T03110156 10311 20194 57014
2026-04-19 16:56:00,METAR KJAX 191656Z 30009G15KT 10SM SCT050 BKN250 31/15 A2998 RMK AO2 SLP152 T03060150
2026-04-19 15:56:00,METAR KJAX 191556Z 24005KT 10SM FEW045 BKN250 29/15 A2999 RMK AO2 SLP156 T02940150
2026-04-19 14:56:00,METAR KJAX 191456Z VRB04KT 10SM FEW040 BKN250 27/16 A3001 RMK AO2 SLP161 T02720161 50001
2026-04-19 13:56:00,METAR KJAX 191356Z 30007KT 10SM FEW070 FEW200 SCT250 26/17 A3001 RMK AO2 SLP162 T02560167
2026-04-19 12:56:00,METAR KJAX 191256Z 27008KT 9SM FEW070 FEW200 BKN250 23/17 A3001 RMK AO2 SLP164 T02280167
2026-04-19 11:56:00,METAR KJAX 191156Z 26005KT 10SM FEW070 BKN250 19/16 A3000 RMK AO2 SLP160 T01940161 10206 20183 53016
2026-04-19 10:56:00,METAR KJAX 191056Z 26005KT 10SM SCT065 BKN250 18/16 A2998 RMK AO2 SLP154 T01830156
2026-04-19 09:56:00,METAR KJAX 190956Z 25006KT 10SM OVC250 18/15 A2997 RMK AO2 SLP148 T01830150
2026-04-19 08:56:00,METAR KJAX 190856Z 26005KT 10SM BKN250 19/15 A2996 RMK AO2 SLP144 T01890150 55008
2026-04-19 07:56:00,METAR KJAX 190756Z 25006KT 10SM BKN250 19/15 A2995 RMK AO2 SLP143 T01890150
2026-04-19 06:56:00,METAR KJAX 190656Z 24003KT 10SM BKN250 20/15 A2997 RMK AO2 SLP149 T02000150
2026-04-19 05:56:00,METAR KJAX 190556Z 00000KT 10SM BKN250 21/15 A2998 RMK AO2 SLP153 T02060150 10272 20194 56004
2026-04-19 04:56:00,METAR KJAX 190456Z 00000KT 10SM BKN250 19/14 A2999 RMK AO2 SLP155 T01940144 403330144
2026-04-19 03:56:00,METAR KJAX 190356Z 18003KT 10SM BKN250 22/13 A2999 RMK AO2 SLP155 T02170133
2026-04-19 02:56:00,METAR KJAX 190256Z 00000KT 10SM BKN250 23/13 A2999 RMK AO2 SLP157 T02280133 51019
2026-04-19 01:56:00,METAR KJAX 190156Z 19003KT 10SM SCT070 BKN250 24/12 A2999 RMK AO2 SLP154 T02390122
2026-04-19 00:56:00,METAR KJAX 190056Z 17007KT 10SM SCT085 BKN250 25/11 A2996 RMK AO2 SLP145 T02500106
2026-04-18 23:56:00,METAR KJAX 182356Z 14010KT 10SM SCT090 BKN250 28/11 A2994 RMK AO2 SLP138 T02780111 10333 20272 51003
2026-04-18 22:56:00,METAR KJAX 182256Z 13008KT 10SM SCT090 SCT250 29/13 A2994 RMK AO2 SLP138 T02890128 $
2026-04-18 21:56:00,METAR KJAX 182156Z 11012KT 10SM SCT090 SCT250 31/13 A2993 RMK AO2 SLP135 T03060133 $
2026-04-18 20:56:00,METAR KJAX 182056Z 13010G18KT 10SM FEW065 SCT080 BKN250 32/13 A2993 RMK AO2 SLP135 T03170133 56019 $
2026-04-18 19:56:00,METAR KJAX 181956Z 15011G22KT 10SM FEW050 SCT065 BKN250 33/12 A2994 RMK AO2 SLP139 FU FEW050 T03280122 $
2026-04-18 18:56:00,METAR KJAX 181856Z 25006KT 10SM SCT065 SCT250 33/13 A2997 RMK AO2 SLP148 T03280133 $
2026-04-18 17:56:00,METAR KJAX 181756Z VRB05KT 10SM FEW050 FEW250 32/13 A2998 RMK AO2 SLP154 T03170128 10317 20178 58016 $
2026-04-18 16:56:00,METAR KJAX 181656Z 26008KT 10SM FEW250 31/13 A3000 RMK AO2 SLP158 T03060133 $
2026-04-18 15:56:00,METAR KJAX 181556Z 26008KT 10SM BKN250 29/13 A3002 RMK AO2 SLP167 T02940128 $
2026-04-18 14:56:00,METAR KJAX 181456Z COR VRB03KT 10SM BKN250 27/12 A3003 RMK AO2 SLP169 T02720122 53004 $
2026-04-18 13:56:00,METAR KJAX 181356Z 00000KT 10SM FEW030 BKN250 24/12 A3002 RMK AO2 SLP167 T02440122 $
2026-04-18 12:56:00,METAR KJAX 181256Z 18004KT 10SM FEW020 FEW200 SCT250 22/14 A3002 RMK AO2 SLP167 T02170139 $
2026-04-18 11:56:00,METAR KJAX 181156Z 00000KT 10SM FEW030 FEW200 BKN250 18/14 A3002 RMK AO2 SLP165 T01830144 10206 20144 53014 $
2026-04-18 10:56:00,METAR KJAX 181056Z 18003KT 10SM FEW050 BKN250 16/13 A3000 RMK AO2 SLP159 T01560128 $
2026-04-18 09:56:00,METAR KJAX 180956Z 00000KT 10SM CLR 16/13 A2999 RMK AO2 SLP155 T01610133 $
2026-04-18 08:56:00,METAR KJAX 180856Z 00000KT 10SM CLR 17/13 A2998 RMK AO2 SLP151 T01720133 53001 $
2026-04-18 07:56:00,METAR KJAX 180756Z 00000KT 10SM CLR 18/14 A2997 RMK AO2 SLP149 T01780139 $
2026-04-18 06:56:00,METAR KJAX 180656Z 24003KT 10SM CLR 19/14 A2997 RMK AO2 SLP149 T01940139 $
2026-04-18 05:56:00,METAR KJAX 180556Z 24003KT 10SM FEW050 20/13 A2997 RMK AO2 SLP150 FU FEW050 T02000133 10267 20194 58008 $
2026-04-18 04:56:00,METAR KJAX 180456Z 19006KT 10SM FEW050 21/13 A2998 RMK AO2 SLP152 FU FEW050 T02060128 403280156 $
2026-04-18 03:56:00,METAR KJAX 180356Z 20007KT 10SM FEW050 21/13 A3000 RMK AO2 SLP158 FU FEW050 T02060133 $
2026-04-18 02:56:00,METAR KJAX 180256Z 20004KT 10SM SCT050 22/12 A3000 RMK AO2 SLP158 FU SCT050 T02220122 51009 $
2026-04-18 01:56:00,METAR KJAX 180156Z 19008KT 10SM SCT060 22/12 A2999 RMK AO2 SLP156 FU SCT060 T02170122 $
2026-04-18 00:56:00,METAR KJAX 180056Z 15006KT 10SM SCT060 24/12 A2998 RMK AO2 SLP153 FU SCT060 T02390117 $
2026-04-17 23:56:00,METAR KJAX 172356Z 13008KT 10SM FEW050 SCT060 26/12 A2997 RMK AO2 SLP148 FU SCT060 T02610117 10328 20261 53001 $
2026-04-17 22:56:00,METAR KJAX 172256Z 12010KT 10SM FEW030 FEW055 28/12 A2996 RMK AO2 SLP145 FU FEW030 T02830117 $
2026-04-17 21:56:00,METAR KJAX 172156Z 10013KT 10SM FEW030 FEW055 31/11 A2996 RMK AO2 SLP146 FU FEW030 T03060111 $
2026-04-17 20:56:00,METAR KJAX 172056Z VRB03KT 10SM FEW030 FEW055 33/09 A2997 RMK AO2 SLP147 FU FEW030 T03280094 56023 $
2026-04-17 19:56:00,METAR KJAX 171956Z VRB03KT 10SM FEW060 33/11 A2999 RMK AO2 SLP154 T03280106 $
2026-04-17 18:56:00,METAR KJAX 171856Z VRB03KT 10SM FEW060 32/11 A3001 RMK AO2 SLP163 T03170106 $
2026-04-17 17:56:00,METAR KJAX 171756Z 19005KT 10SM FEW055 31/12 A3003 RMK AO2 SLP171 T03110122 10311 20172 58018 $
2026-04-17 16:56:00,METAR KJAX 171656Z 26007G14KT 10SM FEW050 31/12 A3006 RMK AO2 SLP179 T03060122 $
2026-04-17 15:56:00,METAR KJAX 171556Z 25008KT 10SM FEW040 29/14 A3007 RMK AO2 SLP184 T02940139 $
2026-04-17 14:56:00,METAR KJAX 171456Z 31007KT 10SM CLR 27/15 A3009 RMK AO2 SLP189 T02720150 52004 $
2026-04-17 13:56:00,METAR KJAX 171356Z 29006KT 10SM CLR 25/15 A3008 RMK AO2 SLP186 T02500150 $
2026-04-17 12:56:00,METAR KJAX 171256Z 25005KT 10SM CLR 21/15 A3008 RMK AO2 SLP187 T02110150 $
2026-04-17 11:56:00,METAR KJAX 171156Z 26004KT 10SM CLR 17/15 A3008 RMK AO2 SLP185 T01720150 10183 20156 53010 $
2026-04-17 10:56:00,METAR KJAX 171056Z 00000KT 10SM CLR 16/14 A3006 RMK AO2 SLP181 T01610139 $
2026-04-17 09:56:00,METAR KJAX 170956Z 24003KT 10SM CLR 17/14 A3006 RMK AO2 SLP178 T01670139 $
2026-04-17 08:56:00,METAR KJAX 170856Z 21003KT 10SM CLR 17/14 A3005 RMK AO2 SLP175 T01720139 55004 $
2026-04-17 07:56:00,METAR KJAX 170756Z 19003KT 10SM CLR 17/14 A3004 RMK AO2 SLP174 T01670139 $
2026-04-17 06:56:00,METAR KJAX 170656Z 19006KT 10SM CLR 18/14 A3004 RMK AO2 SLP173 T01780144
2026-04-17 05:56:00,METAR KJAX 170556Z 19005KT 10SM CLR 18/14 A3006 RMK AO2 SLP179 T01780139 10250 20178 51001
2026-04-17 04:56:00,METAR KJAX 170456Z 19006KT 10SM CLR 19/14 A3006 RMK AO2 SLP178 T01940144 403220156
2026-04-17 03:56:00,METAR KJAX 170356Z 20007KT 10SM CLR 20/13 A3006 RMK AO2 SLP179 T02000133
2026-04-17 02:56:00,METAR KJAX 170256Z 15003KT 10SM CLR 21/13 A3005 RMK AO2 SLP178 T02110133 53010
2026-04-17 01:56:00,METAR KJAX 170156Z 15004KT 10SM CLR 22/13 A3005 RMK AO2 SLP174 T02170133
2026-04-17 00:56:00,METAR KJAX 170056Z 14007KT 10SM CLR 24/14 A3003 RMK AO2 SLP170 T02390139
2026-04-16 23:56:00,METAR KJAX 162356Z 14009KT 10SM FEW250 25/14 A3002 RMK AO2 SLP167 T02500139 10322 20250 53001
2026-04-16 22:56:00,METAR KJAX 162256Z 12013KT 10SM FEW250 28/14 A3001 RMK AO2 SLP164 T02780139
2026-04-16 21:56:00,METAR KJAX 162156Z 13012G18KT 10SM FEW050 SCT250 30/14 A3002 RMK AO2 SLP165 T03000144
2026-04-16 20:56:00,METAR KJAX 162056Z VRB03KT 10SM FEW050 BKN250 31/11 A3002 RMK AO2 SLP166 T03110111 58029
2026-04-16 19:56:00,METAR KJAX 161956Z 00000KT 10SM FEW055 BKN250 32/12 A3005 RMK AO2 SLP177 T03220122
2026-04-16 18:56:00,METAR KJAX 161856Z 26008KT 10SM FEW055 BKN250 31/13 A3009 RMK AO2 SLP190 T03060133
2026-04-16 17:56:00,METAR KJAX 161756Z VRB03KT 10SM FEW050 BKN250 30/14 A3011 RMK AO2 SLP195 T03000139 10300 20172 58023
2026-04-16 16:56:00,METAR KJAX 161656Z 34004KT 10SM FEW045 BKN250 28/14 A3014 RMK AO2 SLP205 T02830144
2026-04-16 15:56:00,METAR KJAX 161556Z 33005KT 10SM FEW040 BKN250 27/15 A3016 RMK AO2 SLP213 T02720150
2026-04-16 14:56:00,METAR KJAX 161456Z 19007KT 10SM BKN250 25/14 A3017 RMK AO2 SLP218 T02500144 50004
2026-04-16 13:56:00,METAR KJAX 161356Z 22007KT 10SM FEW035 SCT250 23/14 A3018 RMK AO2 SLP219 T02280144
2026-04-16 12:56:00,METAR KJAX 161256Z 22007KT 10SM FEW030 SCT250 20/16 A3018 RMK AO2 SLP220 T02000156
2026-04-16 11:56:00,METAR KJAX 161156Z 00000KT 10SM FEW250 17/15 A3016 RMK AO2 SLP214 60001 70001 T01720150 10178 20156 53022
2026-04-16 10:56:00,METAR KJAX 161056Z 27003KT 10SM FEW250 16/14 A3013 RMK AO2 SLP203 P0001 T01610139 $
2026-04-16 09:56:00,METAR KJAX 160956Z 21004KT 10SM CLR 16/14 A3012 RMK AO2 SLP198 T01610139 $
2026-04-16 08:56:00,METAR KJAX 160856Z 20003KT 10SM CLR 16/14 A3010 RMK AO2 SLP192 T01610144 56010 $
2026-04-16 07:56:00,METAR KJAX 160756Z 19004KT 10SM CLR 17/14 A3010 RMK AO2 SLP192 T01720144 $
2026-04-16 06:56:00,METAR KJAX 160656Z 20005KT 10SM CLR 17/14 A3011 RMK AO2 SLP196 T01670144 $
2026-04-16 05:56:00,METAR KJAX 160556Z 22004KT 10SM CLR 17/14 A3013 RMK AO2 SLP202 T01720144 10244 20167 58002 $
2026-04-16 04:56:00,METAR KJAX 160456Z 00000KT 10SM CLR 18/15 A3014 RMK AO2 SLP208 T01830150 403060128 $
2026-04-16 03:56:00,METAR KJAX 160356Z 17006KT 10SM CLR 19/15 A3014 RMK AO2 SLP205 T01890150 $
2026-04-16 02:56:00,METAR KJAX 160256Z 16004KT 10SM CLR 19/15 A3013 RMK AO2 SLP204 T01940150 53013 $
2026-04-16 01:56:00,METAR KJAX 160156Z 15009KT 10SM CLR 21/16 A3012 RMK AO2 SLP201 T02060156 $
2026-04-16 00:56:00,METAR KJAX 160056Z 14010KT 10SM SCT250 22/14 A3010 RMK AO2 SLP194 T02220144 $
2026-04-15 23:56:00,METAR KJAX 152356Z 12008KT 10SM BKN250 24/13 A3010 RMK AO2 SLP192 T02440128 10306 20233 58000 $
2026-04-15 22:56:00,METAR KJAX 152256Z 11010KT 10SM BKN250 26/12 A3010 RMK AO2 SLP193 T02610122 $
2026-04-15 21:56:00,METAR KJAX 152156Z 10009KT 10SM FEW040 SCT250 28/13 A3010 RMK AO2 SLP194 T02780128 $
2026-04-15 20:56:00,METAR KJAX 152056Z COR 11010KT 10SM FEW040 SCT250 29/13 A3010 RMK AO2 SLP192 T02890133 56015 $
2026-04-15 19:56:00,METAR KJAX 151956Z 13008G16KT 10SM FEW045 FEW250 29/14 A3011 RMK AO2 SLP196 T02940139 $
2026-04-15 18:56:00,METAR KJAX 151856Z VRB04KT 10SM FEW055 FEW250 29/13 A3012 RMK AO2 SLP199 T02940133 $
2026-04-15 17:56:00,METAR KJAX 151756Z 08005KT 10SM FEW055 FEW250 29/12 A3014 RMK AO2 SLP208 T02940122 10294 20161 58019 $
2026-04-15 16:56:00,METAR KJAX 151656Z VRB03KT 10SM FEW050 28/14 A3016 RMK AO2 SLP214 T02780139 $
2026-04-15 15:56:00,METAR KJAX 151556Z VRB03KT 10SM FEW010 FEW045 27/15 A3018 RMK AO2 SLP222 FU FEW010 T02720150 $
2026-04-15 14:56:00,METAR KJAX 151456Z VRB05KT 10SM FEW040 FEW250 25/14 A3020 RMK AO2 SLP227 T02500144 53008 $
2026-04-15 13:56:00,METAR KJAX 151356Z 24007KT 10SM FEW250 24/17 A3019 RMK AO2 SLP224 T02390167 $
2026-04-15 12:56:00,METAR KJAX 151256Z 22003KT 10SM FEW250 20/17 A3018 RMK AO2 SLP220 T02000167 $
2026-04-15 11:56:00,METAR KJAX 151156Z 00000KT 10SM FEW250 16/15 A3018 RMK AO2 SLP218 60001 70001 T01610150 10172 20128 53015 $
2026-04-15 10:56:00,METAR KJAX 151056Z 00000KT 10SM CLR 13/12 A3016 RMK AO2 SLP212 T01280117 $
2026-04-15 09:56:00,METAR KJAX 150956Z 00000KT 10SM CLR 14/13 A3014 RMK AO2 SLP207 P0001 T01440133 $
2026-04-15 08:56:00,METAR KJAX 150856Z 00000KT 10SM CLR 15/13 A3013 RMK AO2 SLP204 T01500133 55006 $
2026-04-15 07:56:00,METAR KJAX 150756Z 00000KT 10SM CLR 16/15 A3012 RMK AO2 SLP200 T01610150 $
2026-04-15 06:56:00,METAR KJAX 150656Z 00000KT 10SM CLR 16/14 A3013 RMK AO2 SLP203 T01610144 $
2026-04-15 05:56:00,METAR KJAX 150556Z 00000KT 10SM CLR 17/15 A3015 RMK AO2 SLP209 T01670150 10228 20167 $
2026-04-15 04:56:00,METAR KJAX 150456Z 00000KT 10SM CLR 18/16 A3016 RMK AO2 SLP212 T01830156 403000122 $
2026-04-15 03:56:00,METAR KJAX 150356Z 17006KT 10SM CLR 19/16 A3016 RMK AO2 SLP213 T01940161 $
2026-04-15 02:56:00,METAR KJAX 150256Z 16003KT 10SM CLR 19/16 A3017 RMK AO2 SLP215 T01940161 50005 $
2026-04-15 01:56:00,METAR KJAX 150156Z 15004KT 10SM CLR 20/16 A3017 RMK AO2 SLP217 T02000161 $
2026-04-15 00:56:00,METAR KJAX 150056Z 14010KT 10SM CLR 22/16 A3015 RMK AO2 SLP211 T02220161 $
2026-04-14 23:56:00,METAR KJAX 142356Z 13008KT 10SM FEW060 23/13 A3015 RMK AO2 SLP210 T02280133 10300 20228 55003 $
2026-04-14 22:56:00,METAR KJAX 142256Z 12010KT 10SM FEW060 25/13 A3015 RMK AO2 SLP210 T02500133 $
2026-04-14 21:56:00,METAR KJAX 142156Z 11011KT 10SM FEW060 FEW250 27/13 A3015 RMK AO2 SLP211 T02670128 $
2026-04-14 20:56:00,METAR KJAX 142056Z 13011G16KT 10SM FEW060 FEW250 28/12 A3016 RMK AO2 SLP213 T02780117 56015 $
2026-04-14 19:56:00,METAR KJAX 141956Z 10011G17KT 10SM FEW055 FEW250 29/12 A3017 RMK AO2 SLP215 T02890122 $
2026-04-14 18:56:00,METAR KJAX 141856Z 07010G16KT 10SM SCT055 SCT250 28/14 A3018 RMK AO2 SLP221 T02830139 $
2026-04-14 17:56:00,METAR KJAX 141756Z VRB06KT 10SM FEW055 FEW250 28/12 A3020 RMK AO2 SLP228 T02830117 10289 20139 58020 $
2026-04-14 16:56:00,METAR KJAX 141656Z VRB04KT 10SM FEW050 FEW250 28/12 A3023 RMK AO2 SLP236 T02780122 $
2026-04-14 15:56:00,METAR KJAX 141556Z 12007KT 10SM SCT043 SCT250 27/13 A3025 RMK AO2 SLP244 T02670128 $
2026-04-14 14:56:00,METAR KJAX 141456Z 17007KT 10SM FEW010 FEW025 FEW250 25/15 A3026 RMK AO2 SLP248 FU FEW010 T02500150 51006 $
2026-04-14 13:56:00,METAR KJAX 141356Z 00000KT 10SM FEW020 FEW250 23/17 A3026 RMK AO2 SLP248 T02280167 $
2026-04-14 12:56:00,METAR KJAX 141256Z 00000KT 10SM FEW007 FEW250 18/17 A3026 RMK AO2 SLP247 T01830167 $
2026-04-14 11:56:00,METAR KJAX 141156Z 00000KT 10SM FEW001 FEW007 FEW250 14/13 A3024 RMK AO2 SLP241 T01390128 10161 20122 53014 $
2026-04-14 10:56:00,METAR KJAX 141056Z 00000KT 10SM FEW001 FEW007 FEW250 13/12 A3022 RMK AO2 SLP233 T01280122 $
2026-04-14 09:56:00,METAR KJAX 140956Z 00000KT 10SM SCT007 12/12 A3021 RMK AO2 SLP229 T01220117 $
2026-04-14 09:52:00,SPECI KJAX 140952Z 00000KT 10SM SCT007 13/12 A3021 RMK AO2 $
2026-04-14 09:16:00,SPECI KJAX 140916Z 00000KT 2SM BR BKN002 13/13 A3020 RMK AO2 T01330128 $
2026-04-14 08:56:00,METAR KJAX 140856Z 00000KT 4SM BR SCT002 14/13 A3020 RMK AO2 SLP227 T01390128 56009 $
2026-04-14 08:53:00,SPECI KJAX 140853Z 00000KT 4SM BR SCT002 14/13 A3020 RMK AO2 $
2026-04-14 07:56:00,METAR KJAX 140756Z 00000KT 6SM BR SCT250 14/13 A3020 RMK AO2 SLP228 T01390133 $
2026-04-14 06:56:00,METAR KJAX 140656Z 00000KT 10SM SCT250 14/13 A3021 RMK AO2 SLP230 T01440128 $
2026-04-14 05:56:00,METAR KJAX 140556Z 00000KT 10SM SCT250 16/14 A3023 RMK AO2 SLP237 T01610144 10222 20150 58010 $
2026-04-14 04:56:00,METAR KJAX 140456Z 00000KT 10SM BKN250 16/15 A3024 RMK AO2 SLP241 T01610150 402780117 $
2026-04-14 03:56:00,METAR KJAX 140356Z 00000KT 10SM BKN250 17/15 A3025 RMK AO2 SLP243 T01670150 $
2026-04-14 02:56:00,METAR KJAX 140256Z 00000KT 10SM BKN250 18/16 A3026 RMK AO2 SLP247 T01830161 50007 $
2026-04-14 01:56:00,METAR KJAX 140156Z 06005KT 10SM SCT250 18/16 A3026 RMK AO2 SLP248 T01830156 $
2026-04-14 00:56:00,METAR KJAX 140056Z 09005KT 10SM SCT250 21/16 A3025 RMK AO2 SLP243 T02060156 $
2026-04-13 23:56:00,METAR KJAX 132356Z 10006KT 10SM BKN250 22/14 A3024 RMK AO2 SLP241 T02220144 10278 20222 55004 $
2026-04-13 22:56:00,METAR KJAX 132256Z 12011KT 10SM FEW040 BKN250 24/14 A3024 RMK AO2 SLP239 T02390144 $
2026-04-13 21:56:00,METAR KJAX 132156Z 12008KT 10SM FEW040 BKN250 26/14 A3025 RMK AO2 SLP242 T02560144 $
2026-04-13 20:56:00,METAR KJAX 132056Z 12010KT 10SM FEW045 BKN250 26/14 A3025 RMK AO2 SLP245 T02610144 56017 $
2026-04-13 19:56:00,METAR KJAX 131956Z 09011KT 10SM FEW010 FEW045 BKN250 27/14 A3027 RMK AO2 SLP249 FU FEW010 T02720139 $
2026-04-13 18:56:00,METAR KJAX 131856Z VRB03KT 10SM SCT045 BKN250 27/14 A3028 RMK AO2 SLP255 T02670139 $
2026-04-13 17:56:00,METAR KJAX 131756Z 12009G15KT 10SM SCT045 BKN250 27/14 A3030 RMK AO2 SLP261 T02720144 10272 20133 58018 $
2026-04-13 16:56:00,METAR KJAX 131656Z 13009KT 10SM FEW044 BKN250 27/13 A3033 RMK AO2 SLP269 T02670133 $
2026-04-13 15:56:00,METAR KJAX 131556Z VRB05KT 10SM SCT041 BKN250 27/14 A3034 RMK AO2 SLP276 T02670139 $
2026-04-13 14:56:00,METAR KJAX 131456Z VRB05KT 10SM SCT035 BKN250 24/13 A3036 RMK AO2 SLP280 T02440133 51010 $
2026-04-13 13:56:00,METAR KJAX 131356Z 00000KT 10SM FEW020 FEW035 BKN250 23/15 A3035 RMK AO2 SLP278 T02280150 $
2026-04-13 12:56:00,METAR KJAX 131256Z 00000KT 10SM FEW032 BKN250 18/16 A3034 RMK AO2 SLP275 T01830161 $
2026-04-13 11:56:00,METAR KJAX 131156Z 00000KT 7SM FEW001 SCT032 BKN250 13/12 A3033 RMK AO2 SLP270 T01330122 10144 20117 53012 $
2026-04-13 10:56:00,METAR KJAX 131056Z 00000KT 10SM FEW001 BKN250 12/11 A3030 RMK AO2 SLP262 T01170106 $
2026-04-13 09:56:00,METAR KJAX 130956Z 00000KT 10SM CLR 12/11 A3030 RMK AO2 SLP259 T01220111 $
2026-04-13 08:56:00,METAR KJAX 130856Z 00000KT 10SM CLR 13/12 A3029 RMK AO2 SLP258 T01280117 56006 $
2026-04-13 07:56:00,METAR KJAX 130756Z 00000KT 10SM CLR 13/12 A3030 RMK AO2 SLP259 T01280117 $
2026-04-13 06:56:00,METAR KJAX 130656Z 00000KT 10SM CLR 14/13 A3030 RMK AO2 SLP259 T01390128 $
2026-04-13 05:56:00,METAR KJAX 130556Z 00000KT 10SM CLR 14/13 A3031 RMK AO2 SLP264 T01440133 10228 20144 58008 $
2026-04-13 04:56:00,METAR KJAX 130456Z 00000KT 10SM CLR 15/14 A3033 RMK AO2 SLP270 T01500139 402720106 $
2026-04-13 03:56:00,METAR KJAX 130356Z 04003KT 10SM FEW034 16/14 A3033 RMK AO2 SLP271 T01610144 $
2026-04-13 02:56:00,METAR KJAX 130256Z 02003KT 10SM CLR 18/15 A3033 RMK AO2 SLP272 T01780150 51009 $
2026-04-13 01:56:00,METAR KJAX 130156Z 10006KT 10SM FEW034 20/16 A3033 RMK AO2 SLP271 T02000156 $
2026-04-13 00:56:00,METAR KJAX 130056Z 09005KT 10SM FEW034 21/16 A3032 RMK AO2 SLP267 T02060156 $
2026-04-12 23:56:00,METAR KJAX 122356Z 09008KT 10SM FEW034 23/14 A3031 RMK AO2 SLP263 T02280139 10272 20222 51004 $
2026-04-12 22:56:00,METAR KJAX 122256Z 11012KT 10SM FEW038 24/13 A3030 RMK AO2 SLP262 T02390133 $
2026-04-12 21:56:00,METAR KJAX 122156Z 13010KT 10SM FEW038 24/13 A3030 RMK AO2 SLP261 T02440133 $
2026-04-12 20:56:00,METAR KJAX 122056Z 11014G19KT 10SM FEW038 26/13 A3030 RMK AO2 SLP259 T02610128 58011 $
2026-04-12 19:56:00,METAR KJAX 121956Z 09015G21KT 10SM FEW038 26/13 A3031 RMK AO2 SLP264 T02610128 $
2026-04-12 18:56:00,METAR KJAX 121856Z 12012G20KT 10SM FEW040 27/13 A3032 RMK AO2 SLP268 T02670133 $
2026-04-12 17:56:00,METAR KJAX 121756Z 14012G20KT 10SM FEW037 27/13 A3033 RMK AO2 SLP270 T02670128 10272 20128 58009 $
2026-04-12 16:56:00,METAR KJAX 121656Z 09010G18KT 10SM FEW035 26/13 A3035 RMK AO2 SLP277 T02610128 $
2026-04-12 15:56:00,METAR KJAX 121556Z 13009KT 10SM FEW033 26/13 A3036 RMK AO2 SLP279 T02610133 $
2026-04-12 14:56:00,METAR KJAX 121456Z 11006KT 10SM FEW030 SCT250 24/14 A3035 RMK AO2 SLP279 T02440144 53011 $
2026-04-12 13:56:00,METAR KJAX 121356Z COR 14003KT 10SM FEW015 FEW250 23/16 A3034 RMK AO2 SLP274 T02280161 $
2026-04-12 12:56:00,METAR KJAX 121256Z 00000KT 10SM FEW003 FEW250 17/15 A3033 RMK AO2 SLP272 T01720150 $
2026-04-12 11:56:00,METAR KJAX 121156Z 00000KT 4SM BR SCT001 SCT250 12/12 A3032 RMK AO2 SLP268 T01220117 10139 20106 53025 $
2026-04-12 10:56:00,METAR KJAX 121056Z 00000KT 8SM FEW001 FEW250 11/10 A3029 RMK AO2 SLP256 T01110100 $
2026-04-12 10:20:00,SPECI KJAX 121020Z 00000KT 10SM FEW004 11/10 A3028 RMK AO2 T01110100 $
2026-04-12 09:56:00,METAR KJAX 120956Z 00000KT 10SM FEW010 11/10 A3027 RMK AO2 SLP249 T01110100 $
2026-04-12 08:56:00,METAR KJAX 120856Z 00000KT 10SM CLR 12/11 A3025 RMK AO2 SLP242 T01170106 55005 $
2026-04-12 07:56:00,METAR KJAX 120756Z 00000KT 10SM CLR 12/11 A3024 RMK AO2 SLP240 T01170106 $
2026-04-12 06:56:00,METAR KJAX 120656Z 27004KT 10SM CLR 12/11 A3025 RMK AO2 SLP243 T01220111 $
2026-04-12 05:56:00,METAR KJAX 120556Z 00000KT 10SM CLR 14/12 A3026 RMK AO2 SLP247 T01390122 10206 20139 58009 $
2026-04-12 04:56:00,METAR KJAX 120456Z 00000KT 10SM CLR 14/12 A3028 RMK AO2 SLP253 T01440122 402720122 $
2026-04-12 03:56:00,METAR KJAX 120356Z 00000KT 10SM CLR 14/12 A3028 RMK AO2 SLP254 T01440122 $
2026-04-12 02:56:00,METAR KJAX 120256Z 00000KT 10SM CLR 16/12 A3029 RMK AO2 SLP256 T01560117 51007 $
2026-04-12 01:56:00,METAR KJAX 120156Z 14003KT 10SM CLR 16/10 A3028 RMK AO2 SLP255 T01560100 $
2026-04-12 00:56:00,METAR KJAX 120056Z 15003KT 10SM CLR 18/09 A3027 RMK AO2 SLP251 T01780089 $
2026-04-11 23:56:00,METAR KJAX 112356Z 08006KT 10SM FEW250 21/08 A3027 RMK AO2 SLP249 T02110083 10272 20211 53014 $
2026-04-11 22:56:00,METAR KJAX 112256Z 07010KT 10SM FEW250 23/09 A3025 RMK AO2 SLP245 T02330094 $
2026-04-11 21:56:00,METAR KJAX 112156Z 06013KT 10SM FEW050 FEW250 25/09 A3024 RMK AO2 SLP239 T02500089 $
2026-04-11 20:56:00,METAR KJAX 112056Z 07011KT 10SM FEW250 27/08 A3022 RMK AO2 SLP235 T02670078 56015 $
2026-04-11 19:56:00,METAR KJAX 111956Z 09012KT 10SM FEW250 27/08 A3023 RMK AO2 SLP235 T02670083 $
2026-04-11 18:56:00,METAR KJAX 111856Z 09010G19KT 10SM FEW050 FEW250 27/08 A3025 RMK AO2 SLP244 T02720083 $
2026-04-11 17:56:00,METAR KJAX 111756Z 07012G17KT 10SM FEW050 FEW250 27/08 A3027 RMK AO2 SLP250 T02720083 10272 20139 58013 $
2026-04-11 16:56:00,METAR KJAX 111656Z 08014G20KT 10SM FEW045 FEW250 27/08 A3029 RMK AO2 SLP257 T02720083 $
2026-04-11 15:56:00,METAR KJAX 111556Z 07011G14KT 10SM FEW040 FEW250 27/11 A3030 RMK AO2 SLP261 T02670106 $
2026-04-11 14:56:00,METAR KJAX 111456Z 02005KT 10SM FEW040 FEW200 BKN250 25/12 A3031 RMK AO2 SLP263 T02500117 51006 $
2026-04-11 13:56:00,METAR KJAX 111356Z 00000KT 10SM FEW150 FEW200 BKN250 23/14 A3031 RMK AO2 SLP262 T02280144 $
2026-04-11 12:56:00,METAR KJAX 111256Z 36004KT 10SM FEW150 SCT200 BKN250 17/14 A3029 RMK AO2 SLP259 T01720144 $
2026-04-11 11:56:00,METAR KJAX 111156Z 00000KT 10SM FEW150 SCT200 BKN250 14/13 A3029 RMK AO2 SLP257 T01390128 10139 20122 53022 $
2026-04-11 10:56:00,METAR KJAX 111056Z 36003KT 10SM SCT200 BKN250 13/12 A3026 RMK AO2 SLP249 T01330122 $
2026-04-11 09:56:00,METAR KJAX 110956Z 35003KT 10SM FEW050 13/12 A3025 RMK AO2 SLP243 T01280117 $
2026-04-11 08:56:00,METAR KJAX 110856Z 00000KT 10SM CLR 12/11 A3022 RMK AO2 SLP235 T01220111 55006 $
2026-04-11 07:56:00,METAR KJAX 110756Z 00000KT 10SM CLR 13/12 A3022 RMK AO2 SLP232 T01330117 $
2026-04-11 06:56:00,METAR KJAX 110656Z 00000KT 10SM CLR 12/11 A3023 RMK AO2 SLP236 T01220111 $
2026-04-11 05:56:00,METAR KJAX 110556Z 00000KT 10SM CLR 14/13 A3024 RMK AO2 SLP241 T01390128 10211 20139 58014 $
2026-04-11 04:56:00,METAR KJAX 110456Z 00000KT 10SM FEW050 15/13 A3026 RMK AO2 SLP247 T01500133 402560150 $
2026-04-11 03:56:00,METAR KJAX 110356Z 00000KT 10SM FEW050 16/14 A3027 RMK AO2 SLP250 T01610144 $
2026-04-11 02:56:00,METAR KJAX 110256Z 00000KT 10SM SCT050 18/14 A3028 RMK AO2 SLP254 T01830144 53008 $
2026-04-11 01:56:00,METAR KJAX 110156Z 03003KT 10SM BKN060 19/14 A3027 RMK AO2 SLP252 T01890139 $
2026-04-11 00:56:00,METAR KJAX 110056Z 05004KT 10SM BKN060 20/13 A3026 RMK AO2 SLP247 T02000128 $
2026-04-10 23:56:00,METAR KJAX 102356Z 06011KT 10SM BKN065 BKN250 21/12 A3026 RMK AO2 SLP246 T02110117 10250 20211 53002 $
2026-04-10 22:56:00,METAR KJAX 102256Z 07011KT 10SM FEW030 SCT070 SCT250 22/13 A3025 RMK AO2 SLP245 T02220128 $
2026-04-10 21:56:00,METAR KJAX 102156Z 07014KT 10SM FEW030 FEW070 23/13 A3024 RMK AO2 SLP242 T02330133 $
2026-04-10 20:56:00,METAR KJAX 102056Z 06012G20KT 10SM FEW030 SCT070 24/13 A3025 RMK AO2 SLP243 T02440133 56013 $
2026-04-10 19:56:00,METAR KJAX 101956Z 06014G21KT 10SM SCT033 SCT060 24/14 A3026 RMK AO2 SLP246 T02390139 $
2026-04-10 18:56:00,METAR KJAX 101856Z 06015G21KT 10SM SCT033 BKN060 25/14 A3028 RMK AO2 SLP253 T02500139 $
2026-04-10 17:56:00,METAR KJAX 101756Z 04014G22KT 10SM SCT030 BKN055 23/14 A3029 RMK AO2 SLP256 T02330139 10256 20178 58006 $
2026-04-10 16:56:00,METAR KJAX 101656Z 05012G21KT 10SM FEW022 BKN055 25/14 A3030 RMK AO2 SLP260 T02500144 $
2026-04-10 15:56:00,METAR KJAX 101556Z 06015KT 10SM SCT025 BKN065 24/16 A3031 RMK AO2 SLP264 T02440156 $
2026-04-10 14:56:00,METAR KJAX 101456Z 06016KT 10SM FEW012 SCT025 BKN065 23/16 A3030 RMK AO2 SLP262 T02280156 51011 $
2026-04-10 13:56:00,METAR KJAX 101356Z 04013G19KT 10SM SCT016 BKN030 BKN065 21/16 A3030 RMK AO2 SLP259 T02060156 $
2026-04-10 13:35:00,SPECI KJAX 101335Z 03009KT 10SM SCT015 BKN030 BKN065 21/16 A3029 RMK AO2 T02060161 $
2026-04-10 12:56:00,METAR KJAX 101256Z 02008KT 10SM BKN012 BKN045 19/17 A3029 RMK AO2 SLP258 T01890167 $
2026-04-10 12:51:00,SPECI KJAX 101251Z 02010KT 10SM BKN012 BKN045 19/17 A3029 RMK AO2 $
2026-04-10 11:56:00,METAR KJAX 101156Z 01007KT 10SM FEW012 BKN039 BKN065 18/16 A3027 RMK AO2 SLP251 60001 70001 T01780161 10189 20172 53016 $
2026-04-10 10:56:00,METAR KJAX 101056Z 03008KT 10SM FEW010 BKN038 BKN055 17/16 A3025 RMK AO2 DZE12 SLP244 P0001 T01720161 $
2026-04-10 10:12:00,SPECI KJAX 101012Z 04008KT 10SM SCT010 BKN040 BKN055 17/16 A3024 RMK AO2 DZE12 P0000 T01720161 $
2026-04-10 09:56:00,METAR KJAX 100956Z 03011KT 3SM -DZ BR BKN010 OVC037 17/16 A3024 RMK AO2 DZB15 SLP239 P0000 T01720161 $
2026-04-10 09:15:00,SPECI KJAX 100915Z 04011KT 10SM -DZ BKN012 OVC040 18/16 A3023 RMK AO2 DZB15 P0000 T01780156 $
2026-04-10 08:56:00,METAR KJAX 100856Z 04009KT 10SM FEW012 BKN019 OVC040 18/16 A3022 RMK AO2 DZE53 SLP235 P0000 60000 T01780156 56007 $
2026-04-10 07:56:00,METAR KJAX 100756Z 06006KT 10SM -DZ BKN021 OVC032 18/16 A3023 RMK AO2 SLP237 P0000 T01780156 $
2026-04-10 07:40:00,SPECI KJAX 100740Z 04008KT 10SM -DZ BKN021 OVC037 18/15 A3023 RMK AO2 P0000 T01830150 $
2026-04-10 06:56:00,METAR KJAX 100656Z 06011KT 10SM -DZ FEW019 OVC037 18/14 A3024 RMK AO2 DZB48 SLP239 P0000 T01830144 $
2026-04-10 05:56:00,METAR KJAX 100556Z 04010KT 10SM BKN037 OVC060 18/14 A3025 RMK AO2 SLP243 T01830144 10183 20167 56015 $
2026-04-10 04:56:00,METAR KJAX 100456Z 05010KT 10SM SCT043 BKN070 18/14 A3026 RMK AO2 SLP248 T01780139 402220167 $
2026-04-10 03:56:00,METAR KJAX 100356Z 05010KT 10SM FEW070 17/14 A3027 RMK AO2 SLP252 T01720139 $
2026-04-10 02:56:00,METAR KJAX 100256Z 04009KT 10SM BKN065 17/14 A3029 RMK AO2 SLP257 T01720139 50003 $
2026-04-10 01:56:00,METAR KJAX 100156Z 04006KT 10SM FEW070 17/13 A3030 RMK AO2 SLP259 T01670128 $
2026-04-10 00:56:00,METAR KJAX 100056Z 04008KT 10SM FEW060 17/13 A3028 RMK AO2 SLP254 T01670128 $
2026-04-09 23:56:00,METAR KJAX 092356Z 04010KT 10SM FEW025 18/13 A3028 RMK AO2 SLP254 T01780133 10217 20178 51003 $
2026-04-09 22:56:00,METAR KJAX 092256Z 03014G24KT 10SM FEW019 19/12 A3028 RMK AO2 SLP253 T01940122 $
2026-04-09 21:56:00,METAR KJAX 092156Z 04017G26KT 10SM FEW019 SCT060 20/14 A3028 RMK AO2 PK WND 03028/2059 SLP253 T02000139 $
2026-04-09 20:56:00,METAR KJAX 092056Z 03017G28KT 10SM SCT021 BKN250 21/14 A3027 RMK AO2 PK WND 03030/2033 SLP251 T02110144 55005 $
2026-04-09 19:56:00,METAR KJAX 091956Z 04016G31KT 10SM FEW019 SCT070 SCT250 21/14 A3027 RMK AO2 PK WND 05031/1947 SLP250 T02110139 $
2026-04-09 18:56:00,METAR KJAX 091856Z 04019G30KT 10SM SCT020 BKN070 BKN250 21/14 A3028 RMK AO2 PK WND 05033/1844 SLP254 T02110139 $
2026-04-09 17:56:00,METAR KJAX 091756Z 04018G29KT 10SM FEW019 BKN038 BKN070 BKN250 21/14 A3029 RMK AO2 PK WND 06031/1715 SLP256 T02110139 10222 20172 58003 $
2026-04-09 17:13:00,SPECI KJAX 091713Z 04017G30KT 10SM SCT019 BKN035 BKN070 BKN250 21/14 A3030 RMK AO2 PK WND 03030/1707 T02060139 $
2026-04-09 16:56:00,METAR KJAX 091656Z 03019G27KT 10SM FEW011 BKN024 BKN045 BKN250 21/14 A3030 RMK AO2 PK WND 04030/1558 SLP260 T02110144 $
2026-04-09 15:56:00,METAR KJAX 091556Z 03021G29KT 10SM BKN018 BKN040 BKN250 19/14 A3031 RMK AO2 PK WND 03030/1537 SLP263 T01940139 $
2026-04-09 14:56:00,METAR KJAX 091456Z 04015G29KT 10SM BKN016 OVC040 19/14 A3030 RMK AO2 PK WND 05029/1449 SLP259 T01890144 53011 $
2026-04-09 14:30:00,SPECI KJAX 091430Z 05019G29KT 10SM BKN016 OVC050 18/14 A3029 RMK AO2 PK WND 05029/1428 T01830144 $
2026-04-09 13:56:00,METAR KJAX 091356Z 03017G24KT 10SM BKN014 OVC050 18/14 A3028 RMK AO2 PK WND 03027/1331 SLP255 T01830144 $
2026-04-09 12:56:00,METAR KJAX 091256Z 04014G25KT 10SM BKN012 BKN050 BKN250 18/14 A3027 RMK AO2 PK WND 03027/1158 SLP250 T01780144 $
2026-04-09 11:56:00,METAR KJAX 091156Z 04014G22KT 9SM BKN012 BKN050 OVC250 17/14 A3026 RMK AO2 PK WND 01026/1143 SLP248 70003 T01720144 10172 20167 53015 $
2026-04-09 10:56:00,METAR KJAX 091056Z 03015G23KT 10SM BKN012 OVC045 17/14 A3024 RMK AO2 SLP241 T01720144 $
2026-04-09 09:56:00,METAR KJAX 090956Z 04015G25KT 10SM OVC012 17/14 A3023 RMK AO2 SLP238 T01720139 $
2026-04-09 08:56:00,METAR KJAX 090856Z 03015G24KT 10SM BKN014 OVC023 17/14 A3022 RMK AO2 SLP233 T01720144 55007 $
2026-04-09 07:56:00,METAR KJAX 090756Z 03014G24KT 10SM BKN014 OVC020 17/14 A3022 RMK AO2 PK WND 04026/0657 SLP232 T01720144 $
2026-04-09 06:56:00,METAR KJAX 090656Z 04016G23KT 10SM BKN014 BKN025 OVC040 17/14 A3022 RMK AO2 PK WND 05028/0625 SLP233 T01720144 $
2026-04-09 06:47:00,SPECI KJAX 090647Z 04014G23KT 10SM BKN014 BKN025 OVC040 17/14 A3022 RMK AO2 PK WND 05028/0625 T01720144 $
2026-04-09 05:56:00,METAR KJAX 090556Z 04017G23KT 10SM BKN020 BKN033 OVC045 17/14 A3024 RMK AO2 PK WND 03026/0546 SLP240 T01720144 10172 20167 58006 $
2026-04-09 04:56:00,METAR KJAX 090456Z 04014G25KT 10SM BKN020 BKN033 OVC045 17/14 A3025 RMK AO2 PK WND 04028/0400 SLP244 T01720139 402000167 $
2026-04-09 03:56:00,METAR KJAX 090356Z 04019G28KT 10SM BKN020 BKN035 OVC045 17/13 A3026 RMK AO2 PK WND 04033/0312 SLP246 T01720133 $
2026-04-09 02:56:00,METAR KJAX 090256Z 04021G27KT 10SM OVC018 17/13 A3026 RMK AO2 PK WND 04034/0224 SLP246 T01720133 50008 $
2026-04-09 01:56:00,METAR KJAX 090156Z 04014G27KT 10SM OVC018 17/13 A3026 RMK AO2 PK WND 06030/0144 SLP248 T01670128 $
2026-04-09 00:56:00,METAR KJAX 090056Z 03018G26KT 9SM OVC018 17/13 A3025 RMK AO2 PK WND 04033/0043 SLP243 T01670128 $
2026-04-08 23:56:00,METAR KJAX 082356Z 04022G29KT 10SM BKN018 BKN038 BKN060 OVC250 17/13 A3023 RMK AO2 PK WND 05033/2338 SLP238 T01670128 10194 20167 51005 $
2026-04-08 22:56:00,METAR KJAX 082256Z 03018G31KT 9SM BKN020 BKN060 OVC250 17/13 A3023 RMK AO2 PK WND 05037/2245 SLP237 T01720128 $
2026-04-08 21:56:00,METAR KJAX 082156Z 04018G29KT 10SM BKN023 OVC049 18/13 A3022 RMK AO2 PK WND 03036/2057 SLP233 T01780128 $
2026-04-08 20:56:00,METAR KJAX 082056Z 04028G38KT 10SM BKN028 BKN040 OVC250 18/12 A3022 RMK AO2 PK WND 06038/2009 SLP233 T01830122 55001 $
2026-04-08 20:09:00,SPECI KJAX 082009Z 04025G38KT 10SM BKN028 OVC040 19/12 A3022 RMK AO2 PK WND 06038/2009 T01890122 $
2026-04-08 19:56:00,METAR KJAX 081956Z 03024G35KT 10SM OVC031 19/12 A3021 RMK AO2 PK WND 04039/1908 SLP231 T01890122 $
2026-04-08 18:56:00,METAR KJAX 081856Z 04023G40KT 10SM BKN031 OVC055 19/12 A3021 RMK AO2 PK WND 03040/1851 SLP231 T01940122 $
2026-04-08 18:50:00,SPECI KJAX 081850Z 04025G37KT 10SM BKN031 OVC055 19/13 A3021 RMK AO2 PK WND 04040/1824 $
2026-04-08 17:56:00,METAR KJAX 081756Z 04019G28KT 9SM SCT010 BKN029 OVC055 18/14 A3022 RMK AO2 PK WND 04028/1755 RAE44 SLP233 P0002 60003 T01830144 10200 20167 50003 $
2026-04-08 17:33:00,SPECI KJAX 081733Z 04013G18KT 5SM -RA BR SCT010 BKN025 OVC055 17/15 A3023 RMK AO2 P0002 T01720150 $
2026-04-08 16:56:00,METAR KJAX 081656Z 03016KT 4SM -RA BR BKN013 OVC055 17/15 A3024 RMK AO2 PK WND 07033/1557 RAB15 SLP239 P0001 T01670150 $
2026-04-08 16:45:00,SPECI KJAX 081645Z 03019G26KT 3SM -RA BR BKN013 OVC055 17/15 A3024 RMK AO2 PK WND 07033/1557 RAB15 P0000 T01670150 $
2026-04-08 15:56:00,METAR KJAX 081556Z 04025G41KT 10SM BKN019 BKN055 BKN250 19/14 A3023 RMK AO2 PK WND 04041/1548 SLP237 T01940144 $
2026-04-08 15:48:00,SPECI KJAX 081548Z 04029G41KT 10SM BKN019 BKN055 BKN250 19/14 A3023 RMK AO2 PK WND 04041/1548 T01940139 $
2026-04-08 14:56:00,METAR KJAX 081456Z 04027G38KT 10SM SCT025 BKN045 BKN090 BKN250 20/13 A3021 RMK AO2 PK WND 04042/1414 SLP230 T02000133 53020 $
2026-04-08 13:56:00,METAR KJAX 081356Z 04017G30KT 10SM SCT025 BKN090 BKN250 19/14 A3019 RMK AO2 PK WND 06035/1311 SLP222 T01890139 $
2026-04-08 13:21:00,SPECI KJAX 081321Z 03017G28KT 9SM SCT023 BKN070 BKN250 19/14 A3018 RMK AO2 PK WND 06035/1311 T01890144 $
2026-04-08 12:56:00,METAR KJAX 081256Z 04024G34KT 10SM BKN020 BKN070 BKN250 19/14 A3017 RMK AO2 PK WND 05038/1227 SLP217 T01890139 $
2026-04-08 11:56:00,METAR KJAX 081156Z 04019G31KT 10SM BKN020 OVC060 18/14 A3015 RMK AO2 PK WND 05031/1121 SLP210 70018 T01830139 10183 20178 53024 $
2026-04-08 10:56:00,METAR KJAX 081056Z 04018G28KT 10SM BKN020 BKN035 OVC070 18/14 A3012 RMK AO2 PK WND 06029/1032 SLP200 T01830139 $
2026-04-08 09:56:00,METAR KJAX 080956Z 03018G28KT 10SM SCT042 BKN065 OVC100 18/13 A3009 RMK AO2 PK WND 03028/0956 SLP190 T01780133 $
2026-04-08 08:56:00,METAR KJAX 080856Z 04015KT 10SM SCT042 BKN055 OVC095 18/13 A3008 RMK AO2 SLP186 T01830133 55007 $
2026-04-08 07:56:00,METAR KJAX 080756Z 04018G24KT 10SM BKN033 BKN046 BKN130 18/13 A3007 RMK AO2 PK WND 03026/0729 SLP184 T01780128 $
2026-04-08 06:56:00,METAR KJAX 080656Z 03018G25KT 10SM SCT030 BKN038 BKN046 BKN130 18/12 A3008 RMK AO2 SLP186 T01830122 $
2026-04-08 05:56:00,METAR KJAX 080556Z 05012KT 10SM BKN037 BKN047 OVC055 18/13 A3010 RMK AO2 RAE20 SLP193 P0000 60000 T01830128 10183 20161 58002 $
2026-04-08 04:56:00,METAR KJAX 080456Z 04011KT 10SM -RA BKN065 OVC130 18/13 A3011 RMK AO2 SLP195 P0000 T01830128 401890139 $
2026-04-08 03:56:00,METAR KJAX 080356Z 04013G20KT 10SM -RA BKN070 OVC120 18/12 A3011 RMK AO2 SLP196 P0000 T01830122 $
2026-04-08 02:56:00,METAR KJAX 080256Z 04014G22KT 10SM -RA SCT045 OVC120 18/12 A3011 RMK AO2 SLP196 P0000 60000 T01780122 51013 $
2026-04-08 01:56:00,METAR KJAX 080156Z 03009KT 10SM -RA FEW030 OVC100 17/12 A3010 RMK AO2 RAB56 SLP193 P0000 T01670122 $
2026-04-08 00:56:00,METAR KJAX 080056Z 03013G19KT 10SM FEW030 SCT060 OVC110 17/11 A3009 RMK AO2 RAE17 SLP189 P0000 T01720111 $
2026-04-07 23:56:00,METAR KJAX 072356Z 03011KT 10SM -RA SCT060 BKN110 OVC200 17/12 A3007 RMK AO2 RAB55 SLP183 P0000 60001 T01720117 10189 20172 53003 $
2026-04-07 22:56:00,METAR KJAX 072256Z 03013KT 10SM SCT060 OVC090 17/13 A3007 RMK AO2 SLP183 T01720128 $
2026-04-07 21:56:00,METAR KJAX 072156Z 03011G24KT 10SM FEW016 SCT060 OVC090 18/13 A3006 RMK AO2 RAE45 SLP180 P0000 T01780133 $
2026-04-07 20:56:00,METAR KJAX 072056Z 03012KT 10SM -RA FEW016 SCT060 OVC090 17/14 A3006 RMK AO2 SLP180 P0000 60001 T01720144 56003 $
2026-04-07 19:56:00,METAR KJAX 071956Z 03016G21KT 10SM -RA SCT016 OVC090 18/14 A3006 RMK AO2 PK WND 02026/1921 SLP181 P0000 T01780144 $
2026-04-07 19:42:00,SPECI KJAX 071942Z 03016G21KT 10SM -RA SCT016 OVC090 18/15 A3006 RMK AO2 PK WND 02026/1921 P0000 T01830150 $
2026-04-07 19:26:00,SPECI KJAX 071926Z 04013G26KT 10SM -RA BKN016 OVC090 18/16 A3006 RMK AO2 PK WND 02026/1921 P0000 T01830156 $
2026-04-07 18:56:00,METAR KJAX 071856Z 03013KT 10SM -RA BKN013 OVC090 19/17 A3007 RMK AO2 SLP182 P0001 T01890167 $
2026-04-07 17:56:00,METAR KJAX 071756Z 03014G22KT 10SM -RA BKN013 OVC090 18/16 A3007 RMK AO2 SLP183 P0001 60017 T01780161 10183 20139 58007 $
2026-04-07 17:26:00,SPECI KJAX 071726Z 03012KT 10SM -RA BKN013 OVC090 18/16 A3007 RMK AO2 P0000 T01830161 $
2026-04-07 16:56:00,METAR KJAX 071656Z 03010KT 10SM -RA SCT010 OVC090 18/16 A3008 RMK AO2 SLP186 P0002 T01830161 $
2026-04-07 16:26:00,SPECI KJAX 071626Z 03009KT 10SM -RA SCT010 OVC090 18/16 A3009 RMK AO2 P0001 T01830161 $
2026-04-07 15:56:00,METAR KJAX 071556Z 04013G20KT 7SM -RA BKN010 OVC090 18/17 A3010 RMK AO2 SLP193 P0003 T01780167 $
2026-04-07 15:43:00,SPECI KJAX 071543Z COR 03012KT 6SM -RA BR BKN010 OVC090 18/16 A3010 RMK AO2 P0002 T01780161 $
2026-04-07 14:56:00,METAR KJAX 071456Z 04010KT 10SM -RA FEW010 SCT021 OVC100 17/16 A3009 RMK AO2 SLP190 P0005 60011 T01720156 53011 $
2026-04-07 14:01:00,SPECI KJAX 071401Z 04012KT 8SM -RA SCT021 OVC100 17/15 A3007 RMK AO2 P0000 T01670150 $
2026-04-07 13:56:00,METAR KJAX 071356Z 03012KT 8SM -RA BKN021 OVC100 17/15 A3006 RMK AO2 SLP181 P0003 T01670150 $
2026-04-07 13:11:00,SPECI KJAX 071311Z 03008KT 10SM -RA BKN021 OVC100 16/14 A3006 RMK AO2 P0000 T01560139 $
2026-04-07 12:56:00,METAR KJAX 071256Z 01005KT 10SM -RA SCT021 BKN080 OVC100 15/13 A3006 RMK AO2 SLP181 P0003 T01500133 $
2026-04-07 11:56:00,METAR KJAX 071156Z 35004KT 10SM -RA FEW025 SCT080 OVC100 14/13 A3006 RMK AO2 SLP179 P0001 60002 70007 T01440128 10172 20139 53011 $
2026-04-07 10:56:00,METAR KJAX 071056Z 36006KT 10SM -RA FEW025 SCT080 OVC100 14/12 A3004 RMK AO2 RAB28 SLP174 P0001 T01440122 $
2026-04-07 10:18:00,SPECI KJAX 071018Z 33004KT 10SM FEW025 SCT045 OVC100 15/12 A3004 RMK AO2 T01500122 $
2026-04-07 09:56:00,METAR KJAX 070956Z 01008KT 10SM BKN025 BKN045 OVC110 16/12 A3003 RMK AO2 SLP168 T01560122 $
2026-04-07 09:49:00,SPECI KJAX 070949Z 36007G16KT 10SM BKN025 BKN045 OVC110 16/12 A3003 RMK AO2 T01560122 $
2026-04-07 08:56:00,METAR KJAX 070856Z 02010KT 10SM SCT034 BKN055 OVC100 16/11 A3003 RMK AO2 SLP168 T01610106 56008 $
2026-04-07 07:56:00,METAR KJAX 070756Z 02009KT 10SM OVC110 17/11 A3003 RMK AO2 SLP168 T01670111 $
2026-04-07 06:56:00,METAR KJAX 070656Z 36005KT 10SM SCT038 BKN110 BKN170 17/11 A3004 RMK AO2 SLP172 T01670111 $
2026-04-07 05:56:00,METAR KJAX 070556Z 02010KT 10SM FEW030 BKN038 OVC110 17/11 A3005 RMK AO2 SLP175 T01720111 10172 20161 58010 $
2026-04-07 04:56:00,METAR KJAX 070456Z 02006KT 10SM OVC030 17/12 A3006 RMK AO2 SLP180 T01720117 402170156 $
2026-04-07 03:56:00,METAR KJAX 070356Z 03009KT 10SM OVC030 17/12 A3007 RMK AO2 SLP182 T01720117 $
2026-04-07 02:56:00,METAR KJAX 070256Z 02007KT 10SM BKN030 OVC150 17/13 A3008 RMK AO2 SLP186 T01720128 50007 $
2026-04-07 02:48:00,SPECI KJAX 070248Z 03007KT 10SM BKN030 OVC150 17/13 A3008 RMK AO2 T01720128 $
2026-04-07 01:56:00,METAR KJAX 070156Z 02004KT 10SM BKN028 OVC140 17/13 A3009 RMK AO2 SLP188 T01670128 $
2026-04-07 00:56:00,METAR KJAX 070056Z 05007KT 10SM BKN027 OVC140 17/13 A3007 RMK AO2 SLP183 T01670133 $
2026-04-07 00:22:00,SPECI KJAX 070022Z 04006KT 10SM BKN027 BKN140 OVC250 16/13 A3006 RMK AO2 T01610133 $
2026-04-06 23:56:00,METAR KJAX 062356Z 01006KT 10SM FEW015 SCT030 BKN140 OVC250 16/14 A3006 RMK AO2 RAE20 SLP178 P0001 60005 T01610139 10183 20156 53000 $
2026-04-06 23:41:00,SPECI KJAX 062341Z 03009KT 10SM SCT022 BKN043 BKN140 OVC250 16/14 A3005 RMK AO2 RAE20 P0001 T01610139 $
2026-04-06 22:56:00,METAR KJAX 062256Z 03012KT 10SM -RA FEW010 BKN020 OVC100 16/14 A3005 RMK AO2 RAE08B30 SLP176 P0000 T01610144 $
2026-04-06 22:34:00,SPECI KJAX 062234Z 01010KT 9SM -RA BKN018 OVC100 16/14 A3006 RMK AO2 RAE08B30 P0000 T01610144 $
2026-04-06 22:09:00,SPECI KJAX 062209Z 03008KT 10SM BKN010 OVC018 16/14 A3006 RMK AO2 RAE08 P0000 T01610144 $
2026-04-06 21:56:00,METAR KJAX 062156Z 01010KT 10SM -RA OVC009 16/14 A3005 RMK AO2 RAE13B53 CIG 008V012 SLP178 P0000 T01610139 $
2026-04-06 20:56:00,METAR KJAX 062056Z 02007G14KT 10SM -RA BKN010 OVC055 16/14 A3006 RMK AO2 SLP178 P0003 60004 T01610144 57014 $
2026-04-06 19:56:00,METAR KJAX 061956Z 04012KT 6SM RA BKN014 OVC250 16/14 A3006 RMK AO2 SLP180 P0001 T01560139 $
2026-04-06 19:16:00,SPECI KJAX 061916Z 04014KT 8SM -RA BKN014 OVC250 16/14 A3008 RMK AO2 P0000 T01610139 $
2026-04-06 18:56:00,METAR KJAX 061856Z 03013G22KT 10SM -RA BKN018 OVC250 17/13 A3009 RMK AO2 RAB51 SLP190 P0000 T01670133 $
2026-04-06 17:56:00,METAR KJAX 061756Z 02017G24KT 10SM BKN026 OVC250 18/12 A3010 RMK AO2 PK WND 02026/1728 SLP192 T01830122 10217 20183 51007 $
2026-04-06 16:56:00,METAR KJAX 061656Z 05016G26KT 10SM OVC022 19/13 A3009 RMK AO2 PK WND 06026/1655 SLP191 T01890128 $
2026-04-06 15:56:00,METAR KJAX 061556Z 04016G23KT 10SM OVC018 19/16 A3009 RMK AO2 SLP190 T01940156 $
2026-04-06 14:56:00,METAR KJAX 061456Z 02012KT 10SM SCT020 BKN065 BKN140 OVC250 21/15 A3008 RMK AO2 SLP185 T02110150 51015 $
2026-04-06 13:56:00,METAR KJAX 061356Z 02007KT 10SM BKN065 BKN140 BKN250 20/14 A3007 RMK AO2 SLP182 T02000139 $
2026-04-06 12:56:00,METAR KJAX 061256Z 01008KT 10SM BKN060 BKN180 BKN250 19/15 A3005 RMK AO2 SLP176 T01890150 $
2026-04-06 11:56:00,METAR KJAX 061156Z 01005KT 10SM BKN180 BKN250 18/16 A3003 RMK AO2 SLP170 70058 T01830161 10206 20178 53016 $
2026-04-06 10:56:00,METAR KJAX 061056Z 34003KT 10SM SCT180 BKN250 18/16 A3001 RMK AO2 SLP164 T01830161 $
2026-04-06 09:56:00,METAR KJAX 060956Z 33003KT 10SM SCT160 BKN250 19/17 A2999 RMK AO2 SLP157 T01890172 $
2026-04-06 08:56:00,METAR KJAX 060856Z 00000KT 10SM BKN180 BKN250 19/18 A2998 RMK AO2 SLP154 T01940183 56012 $
2026-04-06 07:56:00,METAR KJAX 060756Z 32004KT 10SM BKN180 BKN250 20/19 A2999 RMK AO2 SLP156 T02000189 $
2026-04-06 06:56:00,METAR KJAX 060656Z 31003KT 10SM BKN190 BKN250 20/19 A3000 RMK AO2 SLP160 T02000189 $
2026-04-06 05:56:00,METAR KJAX 060556Z 00000KT 10SM FEW150 BKN250 21/19 A3002 RMK AO2 SLP166 T02060194 10228 20206 58008 $
2026-04-06 04:56:00,METAR KJAX 060456Z 22003KT 10SM FEW050 BKN150 BKN250 21/20 A3003 RMK AO2 SLP170 T02110200 403220161 $
2026-04-06 03:56:00,METAR KJAX 060356Z 21005KT 10SM FEW070 BKN150 BKN250 22/20 A3004 RMK AO2 SLP171 T02170200 $
2026-04-06 02:56:00,METAR KJAX 060256Z 24003KT 10SM SCT070 BKN150 BKN250 22/21 A3004 RMK AO2 SLP174 T02170206 51010 $
2026-04-06 01:56:00,METAR KJAX 060156Z 19003KT 10SM BKN070 BKN190 BKN250 22/21 A3004 RMK AO2 SLP174 T02220206 $
2026-04-06 00:56:00,METAR KJAX 060056Z 19004KT 10SM SCT060 BKN160 BKN250 22/21 A3003 RMK AO2 SLP168 T02220206 $
2026-04-05 23:56:00,METAR KJAX 052356Z 12005KT 10SM FEW016 BKN055 BKN090 BKN250 23/21 A3001 RMK AO2 PK WND 11029/2258 WSHFT 2248 LTG DSNT SE AND S RAE15 TSE26 SLP164 P0034 60058 T02280206 10322 20222 53011 $
2026-04-05 23:27:00,SPECI KJAX 052327Z COR 13006KT 10SM FEW013 BKN055 BKN090 OVC250 23/21 A3001 RMK AO2 PK WND 11029/2258 WSHFT 2248 RAE15 TSE26 P0034 T02280206 $
2026-04-05 23:02:00,SPECI KJAX 052302Z 15011G30KT 5SM -TSRA BR SCT022CB BKN050 BKN100 OVC250 23/19 A3000 RMK AO2 PK WND 11029/2258 WSHFT 2248 LTG DSNT S AND SW FRQ LTGICCCCG OHD TS OHD MOV NE P0028 T02280194 $
2026-04-05 22:56:00,METAR KJAX 052256Z 20022G30KT 1SM +TSRA BR SCT025CB BKN040 OVC100 22/19 A3001 RMK AO2 PK WND 20030/2256 LTG DSNT SW RAB33 TSB30 SLP162 FRQ LTGICCCCG OHD TS OHD MOV NE P0024 T02220189 $
2026-04-05 22:50:00,SPECI KJAX 052250Z 24017G26KT 1SM +TSRA BR SCT025CB BKN070 OVC100 22/20 A3003 RMK AO2 PK WND 25026/2249 LTG DSNT SW RAB33 TSB30 PRESRR FRQ LTGICCCCG OHD TS OHD MOV NE P0008 $
2026-04-05 22:46:00,SPECI KJAX 052246Z 28011KT 2SM +TSRA BR SCT025CB BKN070 OVC100 24/21 A3002 RMK AO2 LTG DSNT SW RAB33 TSB30 PRESRR FRQ LTGICCCCG OHD TS OHD MOV NE P0002 T02390211 $
2026-04-05 22:30:00,SPECI KJAX 052230Z COR 13007KT 9SM TS FEW050CB SCT070 BKN120 BKN250 27/18 A2997 RMK AO2 TSB30 OCNL LTGICCC VC SW-W TS VC SW-W MOV N T02670183 $
2026-04-05 21:56:00,METAR KJAX 052156Z 13012KT 10SM FEW050 SCT070 BKN120 BKN250 28/18 A2996 RMK AO2 SLP146 T02780183 $
2026-04-05 20:56:00,METAR KJAX 052056Z 14011KT 10SM SCT055 BKN120 BKN250 29/18 A2998 RMK AO2 SLP153 T02940183 56024 $
2026-04-05 19:56:00,METAR KJAX 051956Z 16005KT 10SM SCT050 BKN100 BKN250 31/16 A2999 RMK AO2 SLP157 T03060156 $
2026-04-05 18:56:00,METAR KJAX 051856Z 14006KT 10SM SCT050 SCT065 BKN250 29/16 A3003 RMK AO2 SLP168 T02940156 $
2026-04-05 17:56:00,METAR KJAX 051756Z VRB06G15KT 10SM FEW045 BKN060 BKN250 31/16 A3005 RMK AO2 SLP177 T03060161 10306 20172 58024 $
2026-04-05 16:56:00,METAR KJAX 051656Z 17007KT 10SM SCT040 BKN050 BKN250 29/17 A3008 RMK AO2 SLP187 T02890167 $
2026-04-05 15:56:00,METAR KJAX 051556Z 23007KT 10SM SCT032 BKN042 BKN250 28/17 A3011 RMK AO2 SLP196 T02780172 $
2026-04-05 15:29:00,SPECI KJAX 051529Z 22010G24KT 10SM SCT029 BKN035 BKN250 27/18 A3012 RMK AO2 T02720178 $
2026-04-05 14:56:00,METAR KJAX 051456Z 21013KT 10SM SCT021 BKN027 BKN250 26/19 A3012 RMK AO2 SLP200 T02610189 58004 $
2026-04-05 12:56:00,METAR KJAX 051256Z 20003KT 10SM FEW015 SCT250 22/20 A3014 RMK AO2 SLP205 T02170200 $
2026-04-05 11:56:00,METAR KJAX 051156Z 00000KT 8SM FEW250 17/17 A3013 RMK AO2 SLP204 T01720167 10200 20161 51004 $
2026-04-05 10:56:00,METAR KJAX 051056Z 00000KT 10SM FEW040 16/15 A3013 RMK AO2 SLP203 T01610150 $
2026-04-05 09:56:00,METAR KJAX 050956Z 00000KT 7SM CLR 17/16 A3012 RMK AO2 SLP201 T01720161 $
2026-04-05 08:56:00,METAR KJAX 050856Z 00000KT 10SM CLR 18/16 A3012 RMK AO2 SLP200 T01780161 56011 $
2026-04-05 07:56:00,METAR KJAX 050756Z 00000KT 10SM FEW250 18/17 A3013 RMK AO2 SLP202 T01780167 $
2026-04-05 06:56:00,METAR KJAX 050656Z 00000KT 10SM FEW250 19/18 A3013 RMK AO2 SLP203 T01890178 $
2026-04-05 05:56:00,METAR KJAX 050556Z 18003KT 10SM FEW250 19/18 A3015 RMK AO2 SLP211 T01940178 10233 20194 58005 $
2026-04-05 04:56:00,METAR KJAX 050456Z 16005KT 10SM CLR 21/18 A3017 RMK AO2 SLP215 T02060178 402940167 $
2026-04-05 03:56:00,METAR KJAX 050356Z 15005KT 10SM CLR 21/18 A3017 RMK AO2 SLP217 T02110183 $
2026-04-05 02:56:00,METAR KJAX 050256Z 15007KT 10SM CLR 22/18 A3017 RMK AO2 SLP216 T02170183 51008 $
2026-04-05 01:56:00,METAR KJAX 050156Z 14007KT 10SM CLR 22/18 A3016 RMK AO2 SLP215 T02220183 $
2026-04-05 00:56:00,METAR KJAX 050056Z 14008KT 10SM FEW250 23/18 A3016 RMK AO2 SLP212 T02280183 $
2026-04-04 23:56:00,METAR KJAX 042356Z 13009KT 10SM FEW030 FEW250 23/19 A3014 RMK AO2 SLP208 T02330189 10294 20233 56004
2026-04-04 22:56:00,METAR KJAX 042256Z 11015KT 10SM FEW035 FEW070 25/18 A3015 RMK AO2 SLP208 T02500178
2026-04-04 21:56:00,METAR KJAX 042156Z 11012G19KT 10SM SCT040 26/17 A3015 RMK AO2 SLP210 T02610172
2026-04-04 20:56:00,METAR KJAX 042056Z 11011KT 10SM FEW040 28/16 A3016 RMK AO2 SLP212 T02780161 56020
2026-04-04 19:56:00,METAR KJAX 041956Z 13010G19KT 10SM FEW045 29/16 A3017 RMK AO2 SLP216 T02890161
2026-04-04 18:56:00,METAR KJAX 041856Z 11009G17KT 070V140 10SM FEW045 FEW070 28/15 A3019 RMK AO2 SLP225 T02830150
2026-04-04 17:56:00,METAR KJAX 041756Z 15009G17KT 10SM FEW040 FEW060 SCT250 29/12 A3022 RMK AO2 SLP232 T02890117 10294 20189 58013
2026-04-04 16:56:00,METAR KJAX 041656Z 09010G15KT 10SM FEW040 FEW060 SCT250 28/12 A3023 RMK AO2 SLP238 T02830117
2026-04-04 15:56:00,METAR KJAX 041556Z 08011G16KT 10SM FEW035 SCT060 SCT250 27/16 A3024 RMK AO2 SLP242 T02720156
2026-04-04 14:56:00,METAR KJAX 041456Z 14010KT 10SM SCT031 SCT250 26/17 A3025 RMK AO2 SLP245 T02610172 51005
2026-04-04 13:56:00,METAR KJAX 041356Z 14010KT 10SM SCT026 SCT040 BKN250 25/18 A3025 RMK AO2 SLP245 T02500178
2026-04-04 12:56:00,METAR KJAX 041256Z 12004KT 10SM SCT250 23/19 A3025 RMK AO2 SLP243 T02280194
2026-04-04 11:56:00,METAR KJAX 041156Z 05003KT 6SM BR FEW016 BKN250 19/18 A3024 RMK AO2 SLP240 T01890178 10211 20167 53013
2026-04-04 10:56:00,METAR KJAX 041056Z 00000KT 7SM FEW014 BKN250 17/16 A3022 RMK AO2 SLP233 VIS NW 1 T01670156
2026-04-04 09:56:00,METAR KJAX 040956Z 00000KT 10SM FEW014 FEW250 17/16 A3020 RMK AO2 SLP227 T01720161
2026-04-04 08:56:00,METAR KJAX 040856Z 00000KT 10SM SCT250 18/17 A3020 RMK AO2 SLP227 T01780167 56009
2026-04-04 07:56:00,METAR KJAX 040756Z 00000KT 10SM BKN250 18/17 A3021 RMK AO2 SLP230 T01830172
2026-04-04 06:56:00,METAR KJAX 040656Z 00000KT 10SM BKN250 20/19 A3021 RMK AO2 SLP232 T02000189
2026-04-04 05:56:00,METAR KJAX 040556Z 13004KT 10SM BKN250 20/19 A3023 RMK AO2 SLP236 T02000189 10239 20194 58009
2026-04-04 04:56:00,METAR KJAX 040456Z 09005KT 10SM FEW030 BKN250 21/19 A3024 RMK AO2 SLP240 T02110194 402940178
2026-04-04 03:56:00,METAR KJAX 040356Z 08006KT 10SM FEW030 BKN250 19/18 A3025 RMK AO2 SLP244 T01940183
2026-04-04 02:56:00,METAR KJAX 040256Z 08004KT 10SM FEW030 BKN250 21/19 A3026 RMK AO2 SLP245 T02060189 51010
2026-04-04 01:56:00,METAR KJAX 040156Z 07005KT 10SM FEW026 BKN250 22/19 A3025 RMK AO2 SLP244 T02170189
2026-04-04 00:56:00,METAR KJAX 040056Z 08004KT 10SM FEW024 BKN250 22/18 A3024 RMK AO2 SLP241 T02220183
2026-04-03 23:56:00,METAR KJAX 032356Z 12008KT 10SM FEW029 FEW080 BKN250 24/18 A3023 RMK AO2 SLP236 T02390183 10294 20239 53011
2026-04-03 22:56:00,METAR KJAX 032256Z 11015G20KT 10SM FEW037 SCT060 BKN250 25/17 A3020 RMK AO2 SLP227 T02500172
2026-04-03 21:56:00,METAR KJAX 032156Z 12019G24KT 10SM SCT040 BKN250 27/17 A3020 RMK AO2 SLP226 T02670167
2026-04-03 20:56:00,METAR KJAX 032056Z 10016G23KT 10SM FEW040 SCT090 BKN250 27/17 A3019 RMK AO2 SLP225 T02720172 58017
2026-04-03 19:56:00,METAR KJAX 031956Z 12015KT 10SM FEW045 SCT090 BKN250 28/17 A3021 RMK AO2 SLP230 T02830167
2026-04-03 18:56:00,METAR KJAX 031856Z 11013G22KT 10SM FEW040 SCT060 SCT250 28/17 A3023 RMK AO2 SLP238 T02830167
2026-04-03 17:56:00,METAR KJAX 031756Z 12009KT 10SM FEW036 FEW060 SCT100 SCT250 29/17 A3024 RMK AO2 SLP242 T02890172 10294 20194 58012
2026-04-03 16:56:00,METAR KJAX 031656Z 10012KT 10SM SCT036 BKN060 BKN100 BKN250 28/18 A3026 RMK AO2 SLP247 T02780178
2026-04-03 15:56:00,METAR KJAX 031556Z 16005KT 10SM SCT031 BKN060 BKN100 BKN250 27/17 A3028 RMK AO2 SLP254 T02720167
2026-04-03 15:22:00,SPECI KJAX 031522Z 17006KT 10SM SCT027 BKN060 BKN100 BKN250 27/18 A3029 RMK AO2 T02670178
2026-04-03 14:56:00,METAR KJAX 031456Z 17008KT 10SM BKN027 BKN100 BKN250 26/18 A3028 RMK AO2 SLP253 T02610178 53013
2026-04-03 14:47:00,SPECI KJAX 031447Z 17010KT 10SM BKN027 BKN100 BKN250 26/18 A3028 RMK AO2 T02610183
2026-04-03 13:56:00,METAR KJAX 031356Z 14012KT 10SM FEW020 SCT080 BKN100 BKN250 26/19 A3026 RMK AO2 SLP248 T02560189 $
2026-04-03 12:56:00,METAR KJAX 031256Z 11005KT 10SM SCT080 BKN100 BKN250 24/19 A3025 RMK AO2 SLP245 T02390194 $
2026-04-03 11:56:00,METAR KJAX 031156Z 03003KT 10SM FEW075 BKN095 BKN250 19/18 A3024 RMK AO2 SLP241 T01940178 10206 20178 53018 $
2026-04-03 08:56:00,METAR KJAX 030856Z 14003KT 10SM FEW080 FEW250 19/18 A3019 RMK AO2 SLP223 T01940178 55013 $
2026-04-03 05:56:00,METAR KJAX 030556Z 10005KT 10SM BKN080 BKN250 21/18 A3022 RMK AO2 SLP235 T02060183 10222 20206 58002 $
2026-04-03 04:56:00,METAR KJAX 030456Z 09007KT 10SM BKN070 BKN250 22/18 A3023 RMK AO2 SLP237 T02170183 402830139 $
2026-04-03 03:56:00,METAR KJAX 030356Z 12006KT 10SM BKN080 BKN250 21/18 A3023 RMK AO2 SLP238 T02110183 $
2026-04-03 02:56:00,METAR KJAX 030256Z 11006KT 10SM SCT085 SCT250 21/18 A3023 RMK AO2 SLP237 T02110183 53011 $
2026-04-03 01:56:00,METAR KJAX 030156Z 08005KT 10SM FEW085 SCT110 21/18 A3021 RMK AO2 SLP231 T02110178 $
2026-04-03 00:56:00,METAR KJAX 030056Z 08006KT 10SM BKN110 21/17 A3020 RMK AO2 SLP227 T02110172 $
2026-04-02 23:56:00,METAR KJAX 022356Z 07008KT 10SM FEW043 BKN100 22/16 A3020 RMK AO2 SLP226 T02220161 10278 20222 53005 $
2026-04-02 22:56:00,METAR KJAX 022256Z 09008KT 10SM FEW043 24/15 A3019 RMK AO2 SLP224 T02390150 $
2026-04-02 21:56:00,METAR KJAX 022156Z 08011KT 10SM FEW045 26/13 A3018 RMK AO2 SLP221 T02560128 $
2026-04-02 20:56:00,METAR KJAX 022056Z 09014KT 10SM FEW047 27/12 A3018 RMK AO2 SLP221 T02670122 55015 $
2026-04-02 19:56:00,METAR KJAX 021956Z 06015G23KT 10SM FEW047 27/12 A3018 RMK AO2 SLP221 T02720122 $
2026-04-02 18:56:00,METAR KJAX 021856Z 09010G20KT 10SM SCT049 SCT250 27/13 A3021 RMK AO2 SLP229 T02720128 $
2026-04-02 17:56:00,METAR KJAX 021756Z 08011KT 10SM SCT049 BKN250 28/13 A3023 RMK AO2 SLP236 T02830133 10283 20172 58006 $
2026-04-02 16:56:00,METAR KJAX 021656Z 10012G17KT 10SM SCT043 SCT250 28/14 A3024 RMK AO2 SLP241 T02780139 $
2026-04-02 15:56:00,METAR KJAX 021556Z 11007KT 10SM BKN038 BKN250 26/13 A3025 RMK AO2 SLP244 T02560133 $
2026-04-02 14:56:00,METAR KJAX 021456Z 11012KT 10SM SCT037 BKN250 26/14 A3025 RMK AO2 SLP243 T02560144 51016 $
2026-04-02 13:56:00,METAR KJAX 021356Z 12008KT 10SM FEW028 FEW042 SCT250 24/17 A3023 RMK AO2 SLP238 T02440167 $
2026-04-02 12:56:00,METAR KJAX 021256Z 00000KT 10SM FEW028 BKN042 BKN250 21/18 A3023 RMK AO2 SLP236 T02110178 $
2026-04-02 11:56:00,METAR KJAX 021156Z 00000KT 10SM BKN042 BKN250 17/16 A3020 RMK AO2 SLP227 T01720161 10172 20139 53018 $
2026-04-02 10:56:00,METAR KJAX 021056Z 00000KT 10SM FEW050 16/14 A3018 RMK AO2 SLP220 T01610144 $
2026-04-02 10:27:00,SPECI KJAX 021027Z 05004KT 10SM FEW003 SCT060 SCT250 14/13 A3017 RMK AO2 T01440133 $
2026-04-02 09:56:00,METAR KJAX 020956Z 00000KT 7SM CLR 15/14 A3016 RMK AO2 SLP212 T01500139 $
2026-04-02 08:56:00,METAR KJAX 020856Z 00000KT 10SM CLR 14/13 A3015 RMK AO2 SLP209 T01440133 56013 $
2026-04-02 07:56:00,METAR KJAX 020756Z 00000KT 10SM CLR 16/14 A3016 RMK AO2 SLP212 T01560139 $
2026-04-02 06:56:00,METAR KJAX 020656Z 00000KT 10SM CLR 16/14 A3017 RMK AO2 SLP217 T01560144 $
2026-04-02 05:56:00,METAR KJAX 020556Z 02003KT 10SM CLR 16/14 A3018 RMK AO2 SLP222 T01610144 10222 20156 58004 $
2026-04-02 04:56:00,METAR KJAX 020456Z 03003KT 10SM CLR 16/15 A3020 RMK AO2 SLP228 T01610150 402830139 $
2026-04-02 03:56:00,METAR KJAX 020356Z 00000KT 10SM CLR 17/15 A3020 RMK AO2 SLP228 T01720150 $
2026-04-02 02:56:00,METAR KJAX 020256Z 00000KT 10SM CLR 18/16 A3020 RMK AO2 SLP225 T01780156 51014 $
2026-04-02 01:56:00,METAR KJAX 020156Z 15003KT 10SM FEW250 19/16 A3019 RMK AO2 SLP224 T01940156 $
2026-04-02 00:56:00,METAR KJAX 020056Z 12008KT 10SM SCT250 21/15 A3017 RMK AO2 SLP218 T02110150 $
2026-04-01 23:56:00,METAR KJAX 012356Z 11010KT 10SM FEW043 FEW100 SCT250 22/15 A3015 RMK AO2 SLP211 T02220150 10283 20222 55005 $
2026-04-01 22:56:00,METAR KJAX 012256Z 11012KT 10SM FEW043 FEW100 BKN250 24/14 A3015 RMK AO2 SLP209 T02440139 $
2026-04-01 21:56:00,METAR KJAX 012156Z 12013KT 10SM FEW045 FEW100 BKN250 26/14 A3015 RMK AO2 SLP209 T02610144 $
2026-04-01 20:56:00,METAR KJAX 012056Z 13012KT 10SM FEW043 SCT100 BKN250 27/14 A3017 RMK AO2 SLP216 T02670144 56021 $
2026-04-01 19:56:00,METAR KJAX 011956Z 10010KT 10SM FEW043 SCT100 BKN250 28/14 A3019 RMK AO2 SLP222 T02780139 $
2026-04-01 18:56:00,METAR KJAX 011856Z 10011KT 10SM FEW043 BKN100 BKN250 28/15 A3021 RMK AO2 SLP230 T02780150 $
2026-04-01 17:56:00,METAR KJAX 011756Z 16007KT 10SM SCT043 BKN100 BKN250 26/15 A3023 RMK AO2 SLP238 T02610150 10278 20150 58016 $
2026-04-01 16:56:00,METAR KJAX 011656Z VRB04KT 10SM SCT041 BKN100 BKN250 27/14 A3025 RMK AO2 SLP245 T02670144 $
2026-04-01 15:56:00,METAR KJAX 011556Z VRB04KT 10SM FEW030 SCT100 BKN250 26/16 A3027 RMK AO2 SLP251 T02610156 $
2026-04-01 14:56:00,METAR KJAX 011456Z 19005KT 10SM FEW025 FEW150 BKN250 25/17 A3028 RMK AO2 SLP254 T02500167 51018 $
2026-04-01 13:56:00,METAR KJAX 011356Z 00000KT 10SM FEW150 BKN250 22/17 A3026 RMK AO2 SLP248 T02220172 $
2026-04-01 12:56:00,METAR KJAX 011256Z 00000KT 10SM FEW016 BKN250 18/17 A3025 RMK AO2 SLP243 T01830167 $
2026-04-01 11:56:00,METAR KJAX 011156Z 00000KT 10SM FEW016 BKN250 15/13 A3023 RMK AO2 SLP236 T01500133 10167 20139 53017 $
2026-04-01 10:56:00,METAR KJAX 011056Z 00000KT 10SM FEW020 BKN250 14/13 A3020 RMK AO2 SLP227 T01390128 $
2026-04-01 09:56:00,METAR KJAX 010956Z 00000KT 10SM SCT020 14/12 A3018 RMK AO2 SLP221 T01390122 $
2026-04-01 08:56:00,METAR KJAX 010856Z 00000KT 10SM CLR 14/13 A3018 RMK AO2 SLP218 T01440133 56013 $
2026-04-01 07:56:00,METAR KJAX 010756Z 00000KT 10SM CLR 15/14 A3018 RMK AO2 SLP221 T01500139 $
2026-04-01 06:56:00,METAR KJAX 010656Z 00000KT 10SM CLR 15/14 A3019 RMK AO2 SLP224 T01500144 $
2026-04-01 05:56:00,METAR KJAX 010556Z 00000KT 10SM SCT250 17/15 A3021 RMK AO2 SLP231 T01670150 10222 20167 58008 $
2026-04-01 04:56:00,METAR KJAX 010456Z 00000KT 10SM SCT250 17/16 A3023 RMK AO2 SLP235 T01670156 402780133 $
2026-04-01 03:56:00,METAR KJAX 010356Z 17003KT 10SM BKN250 18/17 A3024 RMK AO2 SLP240 T01780167 $
2026-04-01 02:56:00,METAR KJAX 010256Z 13004KT 10SM BKN250 19/17 A3024 RMK AO2 SLP240 T01940172 51011 $
2026-04-01 01:56:00,METAR KJAX 010156Z 15006KT 10SM BKN250 20/17 A3023 RMK AO2 SLP238 T02000167
2026-04-01 00:56:00,METAR KJAX 010056Z 12007KT 10SM FEW110 BKN250 21/16 A3022 RMK AO2 SLP233 T02110156
2026-03-31 23:56:00,METAR KJAX 312356Z 13007KT 10SM FEW110 BKN250 22/14 A3020 RMK AO2 SLP228 T02220144 10278 20222 55002
2026-03-31 22:56:00,METAR KJAX 312256Z 11014KT 10SM FEW110 BKN250 24/14 A3020 RMK AO2 SLP228 T02390144
2026-03-31 21:56:00,METAR KJAX 312156Z 11014KT 10SM FEW048 FEW110 BKN250 25/16 A3021 RMK AO2 SLP229 T02500156
2026-03-31 20:56:00,METAR KJAX 312056Z 10013KT 10SM FEW050 SCT110 BKN250 26/16 A3021 RMK AO2 SLP230 T02560161 56020
2026-03-31 19:56:00,METAR KJAX 311956Z 10014KT 10SM FEW035 SCT055 BKN100 BKN250 26/16 A3023 RMK AO2 SLP235 T02610161
2026-03-31 18:56:00,METAR KJAX 311856Z 11012KT 10SM SCT038 SCT055 BKN250 28/16 A3024 RMK AO2 SLP241 T02780161
2026-03-31 17:56:00,METAR KJAX 311756Z COR 10010KT 10SM SCT035 BKN250 27/16 A3027 RMK AO2 SLP251 T02720161 10278 20144 58016
2026-03-31 16:56:00,METAR KJAX 311656Z VRB03KT 10SM SCT037 BKN250 27/15 A3029 RMK AO2 SLP258 T02720150
2026-03-31 15:56:00,METAR KJAX 311556Z 18003KT 10SM SCT026 BKN250 25/16 A3031 RMK AO2 SLP265 T02500156
2026-03-31 14:56:00,METAR KJAX 311456Z 19006KT 10SM SCT025 BKN250 24/16 A3032 RMK AO2 SLP266 T02440161 51007
2026-03-31 13:56:00,METAR KJAX 311356Z 13004KT 10SM BKN250 23/18 A3032 RMK AO2 SLP266 T02280178
2026-03-31 12:56:00,METAR KJAX 311256Z 00000KT 10SM BKN250 19/17 A3031 RMK AO2 SLP264 T01890167
2026-03-31 11:56:00,METAR KJAX 311156Z 00000KT 10SM FEW002 FEW025 BKN250 14/13 A3030 RMK AO2 SLP259 T01440133 10161 20133 51012
2026-03-31 11:19:00,SPECI KJAX 311119Z 00000KT 10SM MIFG FEW002 SCT250 13/13 A3029 RMK AO2 VIS NW-N 1 T01330128
2026-03-31 10:56:00,METAR KJAX 311056Z 00000KT 10SM SCT024 SCT250 14/13 A3029 RMK AO2 SLP256 T01390128
2026-03-31 09:56:00,METAR KJAX 310956Z 00000KT 10SM SCT030 14/12 A3027 RMK AO2 SLP251 T01390122
2026-03-31 08:56:00,METAR KJAX 310856Z 00000KT 10SM FEW020 14/13 A3026 RMK AO2 SLP247 T01440128 55008
2026-03-31 07:56:00,METAR KJAX 310756Z 00000KT 10SM SCT020 14/13 A3026 RMK AO2 SLP246 T01440133
2026-03-31 07:53:00,SPECI KJAX 310753Z 00000KT 10SM SCT020 15/13 A3026 RMK AO2
2026-03-31 07:22:00,SPECI KJAX 310722Z 00000KT 10SM BKN020 15/13 A3027 RMK AO2 T01500133
2026-03-31 06:56:00,METAR KJAX 310656Z 00000KT 10SM FEW022 15/14 A3027 RMK AO2 SLP251 T01500139
2026-03-31 05:56:00,METAR KJAX 310556Z 06003KT 10SM CLR 16/14 A3028 RMK AO2 SLP255 T01560139 10211 20156 58010
2026-03-31 04:56:00,METAR KJAX 310456Z 04003KT 10SM CLR 16/15 A3030 RMK AO2 SLP260 T01610150 402670117
2026-03-31 03:56:00,METAR KJAX 310356Z 00000KT 10SM CLR 17/16 A3031 RMK AO2 SLP264 T01720156
2026-03-31 02:56:00,METAR KJAX 310256Z 06005KT 10SM CLR 18/16 A3031 RMK AO2 SLP265 T01780161 53008
2026-03-31 01:56:00,METAR KJAX 310156Z 09005KT 10SM FEW250 19/17 A3030 RMK AO2 SLP262 T01940167
2026-03-31 00:56:00,METAR KJAX 310056Z 10007KT 10SM SCT250 20/17 A3029 RMK AO2 SLP257 T02000167
2026-03-30 23:56:00,METAR KJAX 302356Z 11008KT 10SM FEW035 BKN250 21/16 A3029 RMK AO2 SLP257 T02110161 10267 20211 50002
2026-03-30 22:56:00,METAR KJAX 302256Z 11011G18KT 10SM FEW035 FEW100 SCT250 23/14 A3029 RMK AO2 SLP257 T02280144
2026-03-30 21:56:00,METAR KJAX 302156Z 09011KT 10SM FEW035 FEW100 SCT250 24/14 A3029 RMK AO2 SLP256 T02390139
2026-03-30 20:56:00,METAR KJAX 302056Z 07012KT 10SM FEW038 FEW060 SCT250 24/14 A3028 RMK AO2 SLP254 T02440144 58021
2026-03-30 19:56:00,METAR KJAX 301956Z 10010G17KT 10SM FEW043 SCT060 BKN250 26/14 A3030 RMK AO2 SLP262 T02560139
2026-03-30 18:56:00,METAR KJAX 301856Z 10010KT 10SM FEW043 SCT060 BKN250 26/13 A3032 RMK AO2 SLP268 T02610133
2026-03-30 17:56:00,METAR KJAX 301756Z 06010KT 10SM BKN050 BKN250 26/13 A3034 RMK AO2 SLP275 T02560133 10267 20133 56011
2026-03-30 16:56:00,METAR KJAX 301656Z 10011G15KT 10SM BKN045 BKN250 26/12 A3035 RMK AO2 SLP278 T02610117
2026-03-30 15:56:00,METAR KJAX 301556Z 11008KT 10SM BKN040 26/12 A3036 RMK AO2 SLP282 T02560122
2026-03-30 14:56:00,METAR KJAX 301456Z 12010KT 10SM SCT035 24/13 A3038 RMK AO2 SLP286 T02440128 51012
2026-03-30 13:56:00,METAR KJAX 301356Z 13008KT 10SM FEW040 FEW250 22/15 A3036 RMK AO2 SLP283 T02220150 $
2026-03-30 12:56:00,METAR KJAX 301256Z 03003KT 10SM FEW038 18/14 A3036 RMK AO2 SLP280 T01780144 $
2026-03-30 11:56:00,METAR KJAX 301156Z 00000KT 10SM FEW038 13/12 A3034 RMK AO2 SLP274 T01330117 10133 20117 53014 $
2026-03-30 10:56:00,METAR KJAX 301056Z 00000KT 10SM SCT038 12/11 A3032 RMK AO2 SLP269 T01220106 $
2026-03-30 09:56:00,METAR KJAX 300956Z 00000KT 10SM FEW038 12/11 A3031 RMK AO2 SLP265 T01170106 $
2026-03-30 08:56:00,METAR KJAX 300856Z 00000KT 10SM CLR 12/11 A3030 RMK AO2 SLP260 T01170106 56016 $
2026-03-30 07:56:00,METAR KJAX 300756Z 00000KT 10SM CLR 12/11 A3030 RMK AO2 SLP261 T01220111 $
2026-03-30 06:56:00,METAR KJAX 300656Z 07004KT 10SM FEW038 13/12 A3033 RMK AO2 SLP270 T01280117 $
2026-03-30 05:56:00,METAR KJAX 300556Z 00000KT 10SM SCT038 13/12 A3035 RMK AO2 SLP277 T01330122 10200 20133 58010 $
2026-03-30 04:56:00,METAR KJAX 300456Z 00000KT 10SM FEW045 13/12 A3037 RMK AO2 SLP284 T01330117 402280133 $
2026-03-30 03:56:00,METAR KJAX 300356Z 01003KT 10SM FEW038 14/12 A3037 RMK AO2 SLP285 T01390122 $
2026-03-30 02:56:00,METAR KJAX 300256Z 05003KT 10SM CLR 16/13 A3038 RMK AO2 SLP287 T01560128 50002 $
2026-03-30 01:56:00,METAR KJAX 300156Z 04004KT 10SM CLR 16/13 A3038 RMK AO2 SLP287 T01610128 $
2026-03-30 00:56:00,METAR KJAX 300056Z 06007KT 10SM FEW095 17/13 A3037 RMK AO2 SLP284 T01720133 $
2026-03-29 23:56:00,METAR KJAX 292356Z 06008KT 10SM FEW036 SCT055 BKN095 19/13 A3037 RMK AO2 SLP285 T01890128 10228 20189 58002 $
2026-03-29 22:56:00,METAR KJAX 292256Z 07013KT 10SM SCT036 BKN055 BKN250 20/12 A3038 RMK AO2 SLP287 T02000117 $
2026-03-29 21:56:00,METAR KJAX 292156Z 08010KT 10SM SCT034 BKN050 BKN200 21/12 A3038 RMK AO2 SLP287 T02110117 $
2026-03-29 20:56:00,METAR KJAX 292056Z 09016G24KT 10SM BKN037 BKN060 22/12 A3038 RMK AO2 SLP287 T02170117 56013
2026-03-29 19:56:00,METAR KJAX 291956Z 08016G23KT 10SM BKN038 BKN060 22/11 A3038 RMK AO2 SLP288 T02170111
2026-03-29 18:56:00,METAR KJAX 291856Z 08016KT 10SM SCT042 BKN049 BKN060 22/11 A3039 RMK AO2 PK WND 10026/1820 SLP293 T02220111
2026-03-29 17:56:00,METAR KJAX 291756Z 09015G24KT 10SM SCT037 BKN044 BKN055 22/11 A3041 RMK AO2 SLP299 T02170111 10222 20183 58008
2026-03-29 16:56:00,METAR KJAX 291656Z 10019G28KT 10SM SCT035 BKN055 22/11 A3043 RMK AO2 PK WND 09028/1652 SLP304 T02170111
2026-03-29 15:56:00,METAR KJAX 291556Z 08015G25KT 10SM FEW031 BKN055 22/12 A3044 RMK AO2 PK WND 07027/1523 SLP309 T02170122
2026-03-29 14:56:00,METAR KJAX 291456Z 08016KT 10SM FEW040 BKN055 21/12 A3044 RMK AO2 SLP308 T02060122 53022
2026-03-29 13:56:00,METAR KJAX 291356Z 08011KT 10SM FEW030 BKN050 20/12 A3041 RMK AO2 SLP299 T02000117
2026-03-29 12:56:00,METAR KJAX 291256Z 08010KT 10SM BKN048 19/13 A3039 RMK AO2 SLP292 T01890128
2026-03-29 11:56:00,METAR KJAX 291156Z 08011KT 10SM FEW030 FEW044 BKN050 18/13 A3037 RMK AO2 SLP286 60000 70001 T01780133 10183 20150 53012
2026-03-29 10:56:00,METAR KJAX 291056Z 02005KT 10SM BKN045 OVC070 16/13 A3036 RMK AO2 SLP279 T01560128
2026-03-29 09:56:00,METAR KJAX 290956Z 03005KT 10SM FEW045 BKN070 BKN200 15/12 A3035 RMK AO2 RAE29 SLP276 P0000 T01500122
2026-03-29 09:29:00,SPECI KJAX 290929Z 04007KT 10SM FEW036 BKN070 15/13 A3034 RMK AO2 RAE29 P0000 T01500128
2026-03-29 08:56:00,METAR KJAX 290856Z 05010KT 9SM -RA FEW021 BKN029 OVC070 15/13 A3034 RMK AO2 RAB52 SLP274 P0000 60000 T01500128 56009
2026-03-29 07:56:00,METAR KJAX 290756Z 05010KT 10SM OVC026 16/12 A3035 RMK AO2 SLP276 T01610117
2026-03-29 07:19:00,SPECI KJAX 290719Z 04011KT 10SM OVC026 16/11 A3035 RMK AO2 T01610111
2026-03-29 06:56:00,METAR KJAX 290656Z COR 04011KT 10SM SCT026 OVC031 16/11 A3035 RMK AO2 SLP279 T01610111
2026-03-29 05:56:00,METAR KJAX 290556Z 04014G21KT 10SM FEW033 OVC045 16/10 A3037 RMK AO2 SLP284 T01610100 10161 20150 58005
2026-03-29 04:56:00,METAR KJAX 290456Z 04016G22KT 10SM OVC045 16/08 A3038 RMK AO2 PK WND 05028/0357 SLP288 T01560083 402170133
2026-03-29 03:56:00,METAR KJAX 290356Z 05020G29KT 10SM OVC045 16/07 A3038 RMK AO2 PK WND 05029/0356 SLP288 T01610072
2026-03-29 02:56:00,METAR KJAX 290256Z 05015G24KT 10SM OVC046 16/08 A3038 RMK AO2 PK WND 05027/0226 SLP289 T01610083 53008
2026-03-29 01:56:00,METAR KJAX 290156Z 05018G30KT 10SM OVC049 16/08 A3038 RMK AO2 PK WND 05032/0057 SLP286 T01560083
2026-03-29 00:56:00,METAR KJAX 290056Z 05020G29KT 10SM OVC048 16/06 A3036 RMK AO2 PK WND 06029/0023 SLP282 T01560056 $
2026-03-28 23:56:00,METAR KJAX 282356Z 05020G27KT 10SM OVC047 15/08 A3036 RMK AO2 PK WND 04030/2311 SLP281 60001 T01500083 10161 20139 53011 $
2026-03-28 22:56:00,METAR KJAX 282256Z 05020G32KT 10SM OVC044 14/08 A3035 RMK AO2 PK WND 05034/2157 DZB24E27RAB27E37 SLP276 P0001 T01440083 $
2026-03-28 21:56:00,METAR KJAX 282156Z 04022G34KT 10SM FEW023 BKN034 OVC060 14/09 A3033 RMK AO2 PK WND 04034/2150 DZE43 SLP272 P0000 T01440094 $
2026-03-28 21:44:00,SPECI KJAX 282144Z 04018G34KT 10SM FEW023 BKN034 OVC060 14/10 A3033 RMK AO2 PK WND 04034/2138 DZE43 P0000 T01440100 $
2026-03-28 20:56:00,METAR KJAX 282056Z 05017G30KT 6SM -DZ OVC023 14/11 A3033 RMK AO2 PK WND 02037/2002 SLP270 P0000 60000 T01440106 53004 $
2026-03-28 19:56:00,METAR KJAX 281956Z 05023G39KT 6SM -DZ OVC021 15/10 A3032 RMK AO2 PK WND 04039/1950 DZB49 SLP267 P0000 T01500100 $
2026-03-28 18:56:00,METAR KJAX 281856Z 04023G35KT 10SM OVC021 16/11 A3031 RMK AO2 PK WND 05038/1825 DZE54 SLP265 P0000 T01610106 $
2026-03-28 17:56:00,METAR KJAX 281756Z 04020G31KT 6SM -DZ OVC018 16/13 A3032 RMK AO2 PK WND 04035/1700 SLP266 P0000 60000 T01610128 10217 20161 51022 $
2026-03-28 16:56:00,METAR KJAX 281656Z 04018G34KT 9SM -DZ OVC021 17/13 A3030 RMK AO2 PK WND 06039/1646 DZB52 SLP262 P0000 T01670128 $
2026-03-28 15:56:00,METAR KJAX 281556Z 04022G35KT 9SM OVC016 18/13 A3028 RMK AO2 PK WND 04038/1531 SLP254 T01780133 $
2026-03-28 14:56:00,METAR KJAX 281456Z 05020G31KT 10SM OVC018 19/14 A3025 RMK AO2 PK WND 05036/1442 SLP244 T01940139 53043 $
2026-03-28 14:30:00,SPECI KJAX 281430Z 04018G34KT 10SM BKN021 21/14 A3023 RMK AO2 PK WND 05034/1422 T02060144 $
2026-03-28 13:56:00,METAR KJAX 281356Z 04025G37KT 10SM FEW027 FEW150 21/14 A3019 RMK AO2 PK WND 04037/1351 SLP224 T02060144 $
2026-03-28 12:56:00,METAR KJAX 281256Z 35007KT 10SM FEW200 FEW250 19/16 A3015 RMK AO2 SLP210 T01940156 $
2026-03-28 11:56:00,METAR KJAX 281156Z 00000KT 9SM FEW250 16/14 A3012 RMK AO2 SLP201 T01560144 10183 20133 53018 $
2026-03-28 10:56:00,METAR KJAX 281056Z 26004KT 10SM CLR 15/14 A3010 RMK AO2 SLP193 T01500139 $
2026-03-28 09:56:00,METAR KJAX 280956Z 00000KT 10SM CLR 15/13 A3008 RMK AO2 SLP187 T01500133 $
2026-03-28 08:56:00,METAR KJAX 280856Z 00000KT 10SM CLR 15/13 A3007 RMK AO2 SLP184 T01500133 55002 $
2026-03-28 07:56:00,METAR KJAX 280756Z 00000KT 10SM CLR 16/14 A3007 RMK AO2 SLP183 T01560139 $
2026-03-28 06:56:00,METAR KJAX 280656Z 00000KT 10SM CLR 18/14 A3007 RMK AO2 SLP184 T01780144 $
2026-03-28 05:56:00,METAR KJAX 280556Z 00000KT 10SM CLR 17/14 A3008 RMK AO2 SLP186 60000 T01720144 10250 20172 50002 $
2026-03-28 04:56:00,METAR KJAX 280456Z 27004KT 10SM CLR 19/16 A3009 RMK AO2 SLP189 T01890156 403170150 $
2026-03-28 03:56:00,METAR KJAX 280356Z 26003KT 10SM CLR 21/16 A3008 RMK AO2 SLP187 T02060161 $
2026-03-28 02:56:00,METAR KJAX 280256Z 19005KT 10SM CLR 21/15 A3007 RMK AO2 SLP184 60000 T02060150 51016 $
2026-03-28 01:56:00,METAR KJAX 280156Z 00000KT 10SM CLR 22/16 A3006 RMK AO2 SLP180 T02170156 $
2026-03-28 00:56:00,METAR KJAX 280056Z COR 15008KT 10SM CLR 23/16 A3004 RMK AO2 SLP173 P0000 T02330156 $
2026-03-27 23:56:00,METAR KJAX 272356Z 14008KT 10SM FEW065 25/16 A3003 RMK AO2 SLP168 T02500161 10317 20250 53009 $
2026-03-27 22:56:00,METAR KJAX 272256Z 13009KT 10SM FEW070 27/16 A3001 RMK AO2 SLP162 T02720156 $
2026-03-27 21:56:00,METAR KJAX 272156Z 22007KT 10SM FEW070 31/12 A2999 RMK AO2 SLP157 T03110117 $
2026-03-27 20:56:00,METAR KJAX 272056Z 30007KT 260V330 10SM SCT060 31/12 A3000 RMK AO2 SLP159 T03060122 56029
2026-03-27 19:56:00,METAR KJAX 271956Z 25008KT 10SM FEW040 SCT060 31/13 A3001 RMK AO2 SLP164 FU FEW040 T03060128
2026-03-27 18:56:00,METAR KJAX 271856Z 26006KT 10SM SCT060 29/13 A3005 RMK AO2 SLP175 T02890133
2026-03-27 17:56:00,METAR KJAX 271756Z VRB03KT 10SM SCT050 29/14 A3008 RMK AO2 SLP187 T02940144 10300 20178 58021
2026-03-27 16:56:00,METAR KJAX 271656Z VRB05KT 10SM FEW045 29/15 A3011 RMK AO2 SLP197 T02890150
2026-03-27 15:56:00,METAR KJAX 271556Z VRB05KT 10SM FEW040 27/16 A3014 RMK AO2 SLP206 T02720156
2026-03-25 14:56:00,METAR KJAX 251456Z 03012KT 10SM BKN012 BKN250 21/16 A3022 RMK AO2 SLP235 T02060161 51007
2026-03-25 14:44:00,SPECI KJAX 251444Z 03012KT 10SM BKN010 BKN250 21/16 A3022 RMK AO2 T02060161
2026-03-25 13:56:00,METAR KJAX 251356Z 04010KT 7SM OVC008 18/16 A3022 RMK AO2 SLP235 T01780156
2026-03-25 12:56:00,METAR KJAX 251256Z 03012KT 6SM BR OVC007 16/14 A3021 RMK AO2 SLP231 T01610144
2026-03-25 11:56:00,METAR KJAX 251156Z 03008KT 7SM OVC008 16/14 A3020 RMK AO2 SLP228 T01560139 10156 20139 53008
2026-03-25 10:56:00,METAR KJAX 251056Z 03011KT 8SM OVC008 16/14 A3019 RMK AO2 SLP222 T01560139
2026-03-25 09:56:00,METAR KJAX 250956Z 02009KT 9SM OVC009 15/13 A3018 RMK AO2 SLP221 T01500133
2026-03-25 09:37:00,SPECI KJAX 250937Z 02010KT 9SM OVC009 15/13 A3018 RMK AO2 T01500133
2026-03-25 08:56:00,METAR KJAX 250856Z 02011KT 9SM OVC011 14/13 A3018 RMK AO2 SLP219 T01440128 56013
2026-03-25 07:56:00,METAR KJAX 250756Z 02009KT 9SM OVC012 14/13 A3018 RMK AO2 SLP221 T01440128
2026-03-25 06:56:00,METAR KJAX 250656Z 03012KT 8SM OVC012 14/13 A3020 RMK AO2 SLP228 T01440128
2026-03-25 05:56:00,METAR KJAX 250556Z 03013KT 7SM OVC011 14/13 A3022 RMK AO2 SLP232 60000 T01390128 10156 20139 56002
2026-03-25 05:04:00,SPECI KJAX 250504Z COR 04013G21KT 7SM BR OVC010 14/13 A3022 RMK AO2 CIG 006V014 T01390128
2026-03-25 04:56:00,METAR KJAX 250456Z COR 03014KT 6SM BR BKN008 OVC012 14/13 A3022 RMK AO2 RAE39 CIG 006V010 SLP233 P0000 T01390128 402000139
2026-03-25 03:56:00,METAR KJAX 250356Z 04012G21KT 3SM -RA BR BKN007 OVC012 14/13 A3022 RMK AO2 CIG 006V010 SLP234 P0000 T01390128
2026-03-25 02:56:00,METAR KJAX 250256Z 03013G21KT 5SM -RA BR OVC009 14/13 A3022 RMK AO2 RAB47 CIG 006V013 SLP235 P0000 60000 T01440128 53010
2026-03-25 01:56:00,METAR KJAX 250156Z 03011KT 7SM OVC007 14/13 A3020 RMK AO2 CIG 006V010 SLP228 T01440128
2026-03-25 00:56:00,METAR KJAX 250056Z 04014KT 5SM BR OVC009 14/12 A3019 RMK AO2 RAE49 CIG 007V012 SLP224 P0000 T01390122
2026-03-25 00:47:00,SPECI KJAX 250047Z 03014KT 6SM -RA BR OVC009 14/12 A3019 RMK AO2 CIG 007V012 P0000 T01390122
2026-03-24 23:56:00,METAR KJAX 242356Z 03015G23KT 3SM -RA BR OVC012 14/12 A3019 RMK AO2 PK WND 04027/2336 RAE13B56 SLP224 P0000 60000 T01390122 10167 20139 51007
2026-03-24 23:36:00,SPECI KJAX 242336Z 03017G27KT 2SM BR OVC012 14/12 A3019 RMK AO2 PK WND 04027/2336 RAE13 P0000 T01390122
2026-03-24 23:13:00,SPECI KJAX 242313Z 03015G23KT 3SM BR OVC013 14/12 A3019 RMK AO2 RAE13 P0000 T01390122
2026-03-24 23:01:00,SPECI KJAX 242301Z 03016G24KT 2SM -RA BR OVC013 14/12 A3019 RMK AO2 P0000 T01440117
2026-03-24 22:56:00,METAR KJAX 242256Z 03016G24KT 3SM -RA BR OVC013 14/12 A3019 RMK AO2 PK WND 04029/2209 RAB55 SLP223 P0000 T01440117
2026-03-24 22:19:00,SPECI KJAX 242219Z 04016G24KT 3SM HZ OVC014 14/12 A3018 RMK AO2 PK WND 04029/2209 T01440117
2026-03-24 21:56:00,METAR KJAX 242156Z 04017G24KT 6SM HZ OVC016 15/11 A3018 RMK AO2 PK WND 03030/2110 SLP220 T01500111
2026-03-24 21:33:00,SPECI KJAX 242133Z 04015G25KT 7SM OVC016 16/11 A3018 RMK AO2 PK WND 03030/2110 T01560111
2026-03-24 20:56:00,METAR KJAX 242056Z 04018G31KT 6SM HZ OVC014 16/11 A3017 RMK AO2 PK WND 03031/2048 SLP217 T01560111 56006
2026-03-24 19:56:00,METAR KJAX 241956Z 03015G27KT 9SM OVC014 16/12 A3017 RMK AO2 PK WND 04031/1859 SLP218 T01610117
2026-03-24 19:10:00,SPECI KJAX 241910Z 04021G29KT 9SM OVC014 16/12 A3017 RMK AO2 PK WND 04031/1859 T01610117
2026-03-24 18:56:00,METAR KJAX 241856Z 03018G27KT 7SM OVC015 16/12 A3018 RMK AO2 PK WND 04029/1800 SLP219 T01610122
2026-03-24 17:56:00,METAR KJAX 241756Z 04018G28KT 8SM OVC015 17/12 A3019 RMK AO2 PK WND 02029/1727 SLP223 T01670122 10178 20161 50003
2026-03-24 16:56:00,METAR KJAX 241656Z 04016G29KT 8SM OVC015 17/12 A3020 RMK AO2 PK WND 05030/1609 SLP226 T01670122
2026-03-24 15:56:00,METAR KJAX 241556Z 03017G27KT 7SM OVC015 17/13 A3019 RMK AO2 PK WND 04029/1509 SLP225 T01720128
2026-03-24 14:56:00,METAR KJAX 241456Z 04015G29KT 7SM OVC015 17/13 A3018 RMK AO2 PK WND 04034/1422 SLP220 T01720133 53028
2026-03-24 13:56:00,METAR KJAX 241356Z 04019G30KT 7SM OVC016 18/13 A3015 RMK AO2 PK WND 04032/1342 SLP210 T01780133
2026-03-24 12:56:00,METAR KJAX 241256Z 03018G27KT 8SM OVC018 18/13 A3012 RMK AO2 PK WND 04028/1200 SLP201 T01780133
2026-03-24 11:56:00,METAR KJAX 241156Z 04013G26KT 9SM OVC022 18/13 A3010 RMK AO2 PK WND 03030/1110 SLP192 T01780133 10194 20167 51023
2026-03-24 11:21:00,SPECI KJAX 241121Z 04016G26KT 10SM BKN022 BKN250 17/13 A3009 RMK AO2 PK WND 03030/1110 T01720128
2026-03-24 10:56:00,METAR KJAX 241056Z 04018G29KT 10SM SCT022 SCT250 18/12 A3008 RMK AO2 PK WND 03031/1024 SLP186 T01780117
2026-03-24 09:56:00,METAR KJAX 240956Z 04013G22KT 10SM CLR 18/12 A3006 RMK AO2 SLP178 T01830122
2026-03-24 08:56:00,METAR KJAX 240856Z 04005KT 10SM SCT070 17/15 A3003 RMK AO2 SLP169 T01720150 53007
2026-03-24 07:56:00,METAR KJAX 240756Z 29003KT 10SM CLR 17/15 A3001 RMK AO2 SLP162 T01720150
2026-03-24 06:56:00,METAR KJAX 240656Z 27007KT 10SM CLR 18/16 A3001 RMK AO2 SLP162 T01830156
2026-03-24 05:56:00,METAR KJAX 240556Z 24006KT 10SM CLR 19/15 A3001 RMK AO2 SLP163 T01940150 10267 20189 58003
2026-03-24 04:56:00,METAR KJAX 240456Z 24008KT 10SM FEW250 20/14 A3001 RMK AO2 SLP164 T02000144 403170167
2026-03-24 03:56:00,METAR KJAX 240356Z 24007KT 10SM FEW250 21/13 A3002 RMK AO2 SLP165 T02110133
2026-03-24 02:56:00,METAR KJAX 240256Z 25008KT 10SM FEW250 22/14 A3002 RMK AO2 SLP165 T02220139 51025
2026-03-24 01:56:00,METAR KJAX 240156Z 24010KT 10SM FEW250 24/13 A3000 RMK AO2 SLP159 T02390133
2026-03-24 00:56:00,METAR KJAX 240056Z 25007KT 10SM FEW250 24/12 A2997 RMK AO2 SLP150 T02390117
2026-03-23 23:56:00,METAR KJAX 232356Z 26007KT 10SM FEW010 FEW100 SCT250 26/11 A2994 RMK AO2 SLP140 FU FEW010 T02610111 10317 20261 53008
2026-03-23 22:56:00,METAR KJAX 232256Z 27007KT 10SM FEW250 29/11 A2993 RMK AO2 SLP135 T02940106
2026-03-23 21:56:00,METAR KJAX 232156Z 26011KT 10SM FEW010 FEW250 31/11 A2992 RMK AO2 SLP131 FU FEW010 T03060111
2026-03-23 20:56:00,METAR KJAX 232056Z 25010KT 10SM FEW250 31/12 A2992 RMK AO2 SLP132 T03110117 56025
2026-03-23 19:56:00,METAR KJAX 231956Z 26013G18KT 10SM FEW250 31/12 A2994 RMK AO2 SLP137 T03110122
2026-03-23 18:56:00,METAR KJAX 231856Z 25007KT 10SM FEW035 FEW250 30/13 A2995 RMK AO2 SLP143 T03000128
2026-03-23 17:56:00,METAR KJAX 231756Z 26014G19KT 10SM FEW030 FEW250 28/13 A2999 RMK AO2 SLP157 T02830128 10289 20172 58022
2026-03-23 16:56:00,METAR KJAX 231656Z 26010G21KT 10SM FEW025 FEW250 27/14 A3002 RMK AO2 SLP167 T02720139
2026-03-23 15:56:00,METAR KJAX 231556Z 27011G21KT 10SM FEW017 25/16 A3004 RMK AO2 SLP173 T02500156
2026-03-23 14:56:00,METAR KJAX 231456Z 26012G21KT 10SM SCT012 22/16 A3006 RMK AO2 SLP179 T02220156 50006
2026-03-23 14:46:00,SPECI KJAX 231446Z 26014G23KT 10SM SCT012 22/16 A3006 RMK AO2 T02170156
2026-03-23 13:56:00,METAR KJAX 231356Z 28014KT 10SM BKN012 19/16 A3007 RMK AO2 SLP181 T01940161
2026-03-23 13:49:00,SPECI KJAX 231349Z 27012G23KT 10SM BKN012 19/16 A3006 RMK AO2 T01940161
2026-03-23 13:20:00,SPECI KJAX 231320Z 26013KT 10SM BKN009 19/16 A3005 RMK AO2 T01940161
2026-03-23 12:56:00,METAR KJAX 231256Z 25011KT 10SM SCT009 18/16 A3004 RMK AO2 SLP174 T01830161
2026-03-23 12:44:00,SPECI KJAX 231244Z 25009KT 10SM SCT009 18/16 A3004 RMK AO2 T01830161
2026-03-23 11:56:00,METAR KJAX 231156Z 26011KT 10SM BKN009 17/16 A3004 RMK AO2 SLP173 T01720156 10178 20167 53012
2026-03-23 10:56:00,METAR KJAX 231056Z 25012KT 10SM BKN009 17/16 A3002 RMK AO2 SLP166 T01720161
2026-03-23 10:39:00,SPECI KJAX 231039Z 24009KT 10SM BKN009 17/16 A3001 RMK AO2 T01720156
2026-03-23 09:56:00,METAR KJAX 230956Z 24007KT 10SM FEW009 17/16 A3001 RMK AO2 SLP163 T01670156
2026-03-23 08:56:00,METAR KJAX 230856Z 24009KT 10SM FEW007 17/16 A3001 RMK AO2 SLP161 T01670156 56008
2026-03-23 07:56:00,METAR KJAX 230756Z 24010KT 10SM CLR 17/16 A3001 RMK AO2 SLP162 T01720156
2026-03-23 06:56:00,METAR KJAX 230656Z 25009KT 10SM CLR 17/15 A3003 RMK AO2 SLP168 T01720150
2026-03-23 05:56:00,METAR KJAX 230556Z 25009KT 10SM CLR 18/14 A3003 RMK AO2 SLP169 T01780144 10256 20178 51001
2026-03-23 04:56:00,METAR KJAX 230456Z 24010KT 10SM CLR 19/13 A3003 RMK AO2 SLP169 T01890133 403060128
2026-03-23 03:56:00,METAR KJAX 230356Z 24011KT 10SM CLR 20/10 A3003 RMK AO2 SLP170 T02000100
2026-03-23 02:56:00,METAR KJAX 230256Z 24011KT 10SM CLR 21/08 A3003 RMK AO2 SLP169 T02110078 51017
2026-03-23 01:56:00,METAR KJAX 230156Z 24011KT 10SM CLR 23/07 A3002 RMK AO2 SLP165 T02280067
2026-03-23 00:56:00,METAR KJAX 230056Z 24011KT 10SM CLR 24/08 A3000 RMK AO2 SLP159 T02440078
2026-03-22 23:56:00,METAR KJAX 222356Z 24006KT 10SM CLR 25/08 A2998 RMK AO2 SLP152 T02500083 10306 20250 53003
2026-03-22 22:56:00,METAR KJAX 222256Z 26011KT 10SM CLR 28/08 A2997 RMK AO2 SLP147 T02830083
2026-03-22 21:56:00,METAR KJAX 222156Z 24009G19KT 10SM CLR 30/08 A2996 RMK AO2 SLP146 T03000083
2026-03-22 20:56:00,METAR KJAX 222056Z 23009G18KT 10SM CLR 31/09 A2997 RMK AO2 SLP148 T03060094 56022
2026-03-22 19:56:00,METAR KJAX 221956Z 24008G19KT 10SM FEW050 30/11 A2998 RMK AO2 SLP154 FU FEW050 T03000106 $
2026-03-22 18:56:00,METAR KJAX 221856Z 28012G18KT 10SM FEW050 29/09 A3001 RMK AO2 SLP161 FU FEW050 T02890094 $
2026-03-22 17:56:00,METAR KJAX 221756Z 28009KT 10SM CLR 27/11 A3003 RMK AO2 SLP171 T02720106 10278 20133 58018 $
2026-03-22 16:56:00,METAR KJAX 221656Z 27010G17KT 250V330 10SM CLR 27/12 A3006 RMK AO2 SLP180 T02670122 $
2026-03-22 15:56:00,METAR KJAX 221556Z 26009KT 10SM CLR 24/13 A3008 RMK AO2 SLP185 T02390133 $
2026-03-22 14:56:00,METAR KJAX 221456Z 29011KT 10SM FEW015 22/14 A3009 RMK AO2 SLP189 T02170144 51009 $
2026-03-22 13:56:00,METAR KJAX 221356Z 25009KT 10SM SCT009 19/16 A3009 RMK AO2 SLP188 T01890156 $
2026-03-22 13:33:00,SPECI KJAX 221333Z 26008KT 7SM OVC005 17/16 A3009 RMK AO2 CIG 004V010 T01720156 $
2026-03-22 12:56:00,METAR KJAX 221256Z 25006KT 5SM OVC003 16/15 A3008 RMK AO2 SLP185 T01610150 $
2026-03-22 12:20:00,SPECI KJAX 221220Z 26008KT 7SM OVC004 15/14 A3007 RMK AO2 CIG 003V006 T01500144 $
2026-03-22 12:01:00,SPECI KJAX 221201Z 24004KT 7SM BKN006 14/13 A3006 RMK AO2 T01390128 $
2026-03-22 11:56:00,METAR KJAX 221156Z 25005KT 7SM FEW006 13/13 A3006 RMK AO2 SLP179 T01330128 10161 20128 53015 $
2026-03-22 10:56:00,METAR KJAX 221056Z 25005KT 10SM CLR 13/12 A3005 RMK AO2 SLP175 T01330122 $
2026-03-22 09:56:00,METAR KJAX 220956Z 26006KT 10SM CLR 14/13 A3003 RMK AO2 SLP169 T01440128 $
2026-03-22 08:56:00,METAR KJAX 220856Z 25007KT 10SM CLR 14/13 A3002 RMK AO2 SLP165 T01440128 58005 $
2026-03-22 07:56:00,METAR KJAX 220756Z 26006KT 10SM CLR 14/12 A3003 RMK AO2 SLP169 T01440117 $
2026-03-22 06:56:00,METAR KJAX 220656Z COR 24007KT 10SM CLR 16/11 A3003 RMK AO2 SLP169 T01560111 $
2026-03-22 05:56:00,METAR KJAX 220556Z 25010KT 10SM FEW250 16/09 A3003 RMK AO2 SLP170 T01610089 10233 20161 50005 $
2026-03-22 04:56:00,METAR KJAX 220456Z 24008KT 10SM FEW250 17/07 A3003 RMK AO2 SLP171 T01720067 403000072 $
2026-03-22 03:56:00,METAR KJAX 220356Z 24009KT 10SM FEW250 18/06 A3003 RMK AO2 SLP169 T01830061 $
2026-03-22 02:56:00,METAR KJAX 220256Z 25010KT 10SM FEW250 20/06 A3002 RMK AO2 SLP165 T02000061 51015 $
2026-03-22 01:56:00,METAR KJAX 220156Z 24010KT 10SM SCT250 22/07 A3001 RMK AO2 SLP161 T02170067 $
2026-03-22 00:56:00,METAR KJAX 220056Z 22005KT 10SM FEW250 19/09 A2999 RMK AO2 SLP155 T01890094 $
2026-03-21 23:56:00,METAR KJAX 212356Z 24005KT 10SM FEW250 23/08 A2998 RMK AO2 SLP151 T02330078 10300 20233 53002 $
2026-03-21 22:56:00,METAR KJAX 212256Z 26008KT 10SM FEW250 27/07 A2997 RMK AO2 SLP149 T02720072 $
2026-03-21 21:56:00,METAR KJAX 212156Z 26011KT 10SM SCT050 SCT250 29/07 A2997 RMK AO2 SLP148 FU SCT050 T02890067 $
2026-03-21 20:56:00,METAR KJAX 212056Z 25010G19KT 10SM SCT050 SCT250 29/07 A2997 RMK AO2 SLP149 FU SCT050 T02940072 56023 $
2026-03-21 19:56:00,METAR KJAX 211956Z 25010G16KT 10SM SCT050 SCT250 29/08 A2998 RMK AO2 SLP153 FU SCT050 T02940078 $
2026-03-21 18:56:00,METAR KJAX 211856Z 26011G21KT 10SM FEW050 SCT250 29/08 A3001 RMK AO2 WSHFT 1819 SLP161 FU FEW050 T02890078 $
2026-03-21 18:39:00,SPECI KJAX 211839Z 28014G19KT 10SM FEW250 29/08 A3002 RMK AO2 WSHFT 1819 T02890078 $
2026-03-21 18:26:00,SPECI KJAX 211826Z 25013G19KT 10SM FEW250 28/08 A3002 RMK AO2 WSHFT 1806 T02830083 $
2026-03-21 17:56:00,METAR KJAX 211756Z 28011G19KT 250V320 10SM FEW250 28/08 A3004 RMK AO2 SLP171 T02830083 10283 20094 58017 $
2026-03-21 16:56:00,METAR KJAX 211656Z 30010KT 10SM FEW250 27/08 A3006 RMK AO2 SLP179 T02670078 $
2026-03-21 15:56:00,METAR KJAX 211556Z 28013G20KT 10SM FEW250 24/07 A3008 RMK AO2 SLP185 T02440072 $
2026-03-21 14:56:00,METAR KJAX 211456Z 27012KT 10SM FEW250 22/08 A3009 RMK AO2 SLP189 T02170078 58000 $
2026-03-21 13:56:00,METAR KJAX 211356Z 28009KT 10SM SCT250 18/07 A3009 RMK AO2 SLP189 T01830072 $
2026-03-21 12:56:00,METAR KJAX 211256Z 26007KT 10SM SCT250 13/08 A3009 RMK AO2 SLP190 T01280083 $
2026-03-21 11:56:00,METAR KJAX 211156Z 27003KT 10SM FEW250 09/07 A3009 RMK AO2 SLP189 T00940072 10100 20072 53006 $
2026-03-21 10:56:00,METAR KJAX 211056Z 00000KT 10SM CLR 09/07 A3008 RMK AO2 SLP186 T00940072 $
2026-03-21 09:56:00,METAR KJAX 210956Z 28004KT 10SM CLR 09/07 A3008 RMK AO2 SLP185 T00890072 $
2026-03-21 08:56:00,METAR KJAX 210856Z 00000KT 10SM CLR 09/07 A3007 RMK AO2 SLP183 T00940067 56007 $
2026-03-21 07:56:00,METAR KJAX 210756Z 26005KT 10SM CLR 08/06 A3007 RMK AO2 SLP184 T00830061 $
2026-03-21 06:56:00,METAR KJAX 210656Z 26003KT 10SM CLR 08/06 A3009 RMK AO2 SLP188 T00780061 $
2026-03-21 05:56:00,METAR KJAX 210556Z 00000KT 10SM CLR 09/07 A3009 RMK AO2 SLP190 T00890067 10167 20083 56007 $
2026-03-21 04:56:00,METAR KJAX 210456Z 28003KT 10SM CLR 10/07 A3009 RMK AO2 SLP191 T01000072 402330050 $
2026-03-21 03:56:00,METAR KJAX 210356Z 19003KT 10SM CLR 12/07 A3011 RMK AO2 SLP195 T01170072 $
2026-03-21 02:56:00,METAR KJAX 210256Z 16003KT 10SM CLR 12/08 A3011 RMK AO2 SLP197 T01170078 58003 $
2026-03-21 01:56:00,METAR KJAX 210156Z 17004KT 10SM CLR 13/07 A3012 RMK AO2 SLP199 T01280067 $
2026-03-21 00:56:00,METAR KJAX 210056Z 15005KT 10SM FEW250 13/06 A3012 RMK AO2 SLP200 T01280056 $
2026-03-20 23:56:00,METAR KJAX 202356Z 11006KT 10SM FEW250 17/04 A3012 RMK AO2 SLP200 T01670044 10233 20167 53005 $
2026-03-20 22:56:00,METAR KJAX 202256Z 09008KT 10SM FEW250 19/04 A3012 RMK AO2 SLP199 T01940044 $
2026-03-20 21:56:00,METAR KJAX 202156Z 08009KT 10SM FEW250 22/04 A3011 RMK AO2 SLP195 T02170039 $
2026-03-20 20:56:00,METAR KJAX 202056Z 10007KT 10SM CLR 22/03 A3011 RMK AO2 SLP195 T02220033 56026 $
2026-03-20 19:56:00,METAR KJAX 201956Z 06007KT 010V090 10SM CLR 23/00 A3012 RMK AO2 SLP199 T02280000 $
2026-03-20 18:56:00,METAR KJAX 201856Z 06009KT 10SM CLR 23/00 A3014 RMK AO2 SLP208 T02280000 $
2026-03-20 17:56:00,METAR KJAX 201756Z 03011KT 10SM CLR 22/01 A3018 RMK AO2 SLP221 T02220006 10222 20056 58016 $
2026-03-20 16:56:00,METAR KJAX 201656Z 03012KT 10SM CLR 22/01 A3021 RMK AO2 SLP230 T02170011 $
2026-03-20 15:56:00,METAR KJAX 201556Z 07009KT 10SM CLR 21/04 A3021 RMK AO2 SLP232 T02060039 $
2026-03-20 13:56:00,METAR KJAX 201356Z 01005KT 10SM FEW250 16/09 A3022 RMK AO2 SLP234 T01560094 $
2026-03-20 12:56:00,METAR KJAX 201256Z 35004KT 10SM FEW250 10/07 A3021 RMK AO2 SLP229 T01000067 $
2026-03-20 11:56:00,METAR KJAX 201156Z 00000KT 10SM FEW250 06/04 A3019 RMK AO2 SLP225 T00560039 10067 20050 51008 $
2026-03-20 10:56:00,METAR KJAX 201056Z 00000KT 10SM CLR 06/04 A3019 RMK AO2 SLP222 T00560039 $
2026-03-20 09:56:00,METAR KJAX 200956Z 00000KT 10SM CLR 06/04 A3018 RMK AO2 SLP219 T00610044 $
2026-03-20 08:56:00,METAR KJAX 200856Z 00000KT 10SM CLR 06/04 A3017 RMK AO2 SLP217 T00560039 55010 $
2026-03-20 07:56:00,METAR KJAX 200756Z 00000KT 10SM CLR 06/04 A3016 RMK AO2 SLP215 T00560039 $
2026-03-20 06:56:00,METAR KJAX 200656Z 00000KT 10SM CLR 06/04 A3019 RMK AO2 SLP222 T00610044
2026-03-20 05:56:00,METAR KJAX 200556Z 00000KT 10SM FEW250 06/04 A3020 RMK AO2 SLP227 T00610044 10128 20061 58003
2026-03-20 04:56:00,METAR KJAX 200456Z 00000KT 10SM FEW230 07/05 A3022 RMK AO2 SLP233 T00670050 401830050
2026-03-20 03:56:00,METAR KJAX 200356Z 00000KT 10SM SCT230 08/06 A3021 RMK AO2 SLP231 T00780056
2026-03-20 02:56:00,METAR KJAX 200256Z 00000KT 10SM SCT230 09/06 A3021 RMK AO2 SLP230 T00940061 53007
2026-03-20 01:56:00,METAR KJAX 200156Z 00000KT 10SM SCT230 10/06 A3020 RMK AO2 SLP227 T01000061
2026-03-20 00:56:00,METAR KJAX 200056Z 01003KT 10SM BKN230 12/06 A3020 RMK AO2 SLP226 T01170056
2026-03-19 23:56:00,METAR KJAX 192356Z 05007KT 10SM SCT250 13/05 A3019 RMK AO2 SLP223 T01280050 10183 20122 53003
2026-03-19 22:56:00,METAR KJAX 192256Z 06012KT 10SM FEW160 FEW250 14/04 A3019 RMK AO2 SLP222 T01440039
2026-03-19 21:56:00,METAR KJAX 192156Z 06012KT 10SM FEW250 16/03 A3017 RMK AO2 SLP218 T01610028
2026-03-19 20:56:00,METAR KJAX 192056Z 05013KT 10SM FEW250 17/02 A3018 RMK AO2 SLP220 T01720017 56023
2026-03-19 19:56:00,METAR KJAX 191956Z 04015G22KT 10SM FEW250 18/01 A3020 RMK AO2 SLP226 T01780011
2026-03-19 18:56:00,METAR KJAX 191856Z 06015G22KT 10SM FEW250 18/02 A3022 RMK AO2 SLP235 T01780017 $
2026-03-19 17:56:00,METAR KJAX 191756Z 05013G21KT 10SM SCT250 18/02 A3025 RMK AO2 SLP243 T01780022 10183 20061 58006 $
2026-03-19 16:56:00,METAR KJAX 191656Z 05011G20KT 10SM BKN250 18/02 A3026 RMK AO2 WSHFT 1615 SLP248 T01780022 $
2026-03-19 16:35:00,SPECI KJAX 191635Z 03012KT 10SM BKN250 18/02 A3026 RMK AO2 WSHFT 1615 T01780017 $
2026-03-19 15:56:00,METAR KJAX 191556Z 03011G19KT 10SM BKN250 17/00 A3026 RMK AO2 SLP249 T01720000 $
2026-03-19 14:56:00,METAR KJAX 191456Z 03011G19KT 10SM SCT250 16/02 A3027 RMK AO2 SLP249 T01560022 51013 $
2026-03-19 13:56:00,METAR KJAX 191356Z 04009KT 10SM FEW250 13/05 A3025 RMK AO2 SLP245 T01330050 $
2026-03-19 12:56:00,METAR KJAX 191256Z 01009KT 10SM FEW250 10/04 A3024 RMK AO2 SLP241 T01000044 $
2026-03-19 11:56:00,METAR KJAX 191156Z 35006KT 10SM CLR 06/03 A3023 RMK AO2 SLP236 T00610033 10061 20050 53008 $
2026-03-19 10:56:00,METAR KJAX 191056Z 34006KT 10SM CLR 06/03 A3022 RMK AO2 SLP232 T00560028 $
2026-03-19 09:56:00,METAR KJAX 190956Z 36005KT 10SM CLR 06/03 A3020 RMK AO2 SLP227 T00560028 $
2026-03-19 08:56:00,METAR KJAX 190856Z 34006KT 10SM CLR 06/03 A3020 RMK AO2 SLP228 T00560028 56010 $
2026-03-19 07:56:00,METAR KJAX 190756Z 35006KT 10SM CLR 06/03 A3021 RMK AO2 SLP229 T00560028 $
2026-03-19 06:56:00,METAR KJAX 190656Z 35003KT 10SM FEW250 06/03 A3022 RMK AO2 SLP232 T00560033 $
2026-03-19 05:56:00,METAR KJAX 190556Z 00000KT 10SM FEW250 06/03 A3023 RMK AO2 SLP238 T00610028 10111 20056 58004
2026-03-19 04:56:00,METAR KJAX 190456Z 00000KT 10SM SCT250 07/03 A3024 RMK AO2 SLP240 T00670033 401670000
2026-03-19 03:56:00,METAR KJAX 190356Z 00000KT 10SM SCT250 07/03 A3025 RMK AO2 SLP244 T00720033
2026-03-19 02:56:00,METAR KJAX 190256Z 34003KT 10SM SCT250 07/03 A3024 RMK AO2 SLP242 T00720033 53005
2026-03-19 01:56:00,METAR KJAX 190156Z 00000KT 10SM SCT250 08/04 A3024 RMK AO2 SLP239 T00830039
2026-03-19 00:56:00,METAR KJAX 190056Z 01004KT 10SM SCT250 09/03 A3023 RMK AO2 SLP238 T00890028
2026-03-18 23:56:00,METAR KJAX 182356Z 04005KT 10SM BKN250 11/03 A3023 RMK AO2 SLP237 T01110028 10167 20111 53004
2026-03-18 22:56:00,METAR KJAX 182256Z 04010KT 10SM BKN250 13/01 A3023 RMK AO2 SLP235 T01280011
2026-03-18 21:56:00,METAR KJAX 182156Z 05011G19KT 10SM BKN250 14/00 A3022 RMK AO2 SLP233 T01390000
2026-03-18 20:56:00,METAR KJAX 182056Z 05015KT 10SM BKN250 16/01 A3022 RMK AO2 SLP233 T01560006 56016
2026-03-18 19:56:00,METAR KJAX 181956Z 08011G18KT 10SM BKN250 16/00 A3023 RMK AO2 SLP235 T01560000
2026-03-18 18:56:00,METAR KJAX 181856Z 09011G17KT 10SM FEW050 BKN250 16/01 A3024 RMK AO2 SLP242 T01610006
2026-03-18 17:56:00,METAR KJAX 181756Z 08013G21KT 10SM FEW050 SCT250 16/02 A3027 RMK AO2 SLP250 T01610017 10161 20028 58014
2026-03-18 16:56:00,METAR KJAX 181656Z 35007KT 10SM FEW045 SCT250 16/M01 A3029 RMK AO2 SLP258 T01561006
2026-03-18 15:56:00,METAR KJAX 181556Z 03011KT 10SM FEW045 SCT250 15/00 A3030 RMK AO2 SLP262 T01500000
2026-03-18 14:56:00,METAR KJAX 181456Z 36010G17KT 10SM FEW040 SCT250 13/M03 A3031 RMK AO2 SLP263 T01281028 51019
2026-03-18 13:56:00,METAR KJAX 181356Z 01007KT 10SM SCT250 09/M02 A3030 RMK AO2 SLP259 T00941017
2026-03-18 12:56:00,METAR KJAX 181256Z 36007KT 10SM FEW250 06/M01 A3028 RMK AO2 SLP254 T00561006 $
2026-03-18 11:56:00,METAR KJAX 181156Z 35003KT 10SM FEW250 03/M02 A3025 RMK AO2 SLP244 T00281022 10050 20000 53021 $
2026-03-18 10:56:00,METAR KJAX 181056Z 34006KT 10SM SCT250 03/M02 A3023 RMK AO2 SLP236 T00281022 $
2026-03-18 09:56:00,METAR KJAX 180956Z 34005KT 10SM SCT250 02/M02 A3020 RMK AO2 SLP228 T00171017 $
2026-03-18 08:56:00,METAR KJAX 180856Z 00000KT 10SM SCT250 01/M02 A3019 RMK AO2 SLP223 T00061017 56018 $
2026-03-18 07:56:00,METAR KJAX 180756Z 00000KT 10SM SCT250 02/M01 A3021 RMK AO2 SLP229 T00221006 $
2026-03-18 06:56:00,METAR KJAX 180656Z 31003KT 10SM SCT250 03/00 A3022 RMK AO2 SLP235 T00280000 $
2026-03-18 05:56:00,METAR KJAX 180556Z 00000KT 10SM SCT250 05/M01 A3024 RMK AO2 SLP241 T00501006 10100 20044 50002 $
2026-03-18 04:56:00,METAR KJAX 180456Z 34005KT 10SM SCT250 04/00 A3025 RMK AO2 SLP244 T00440000 401440017 $
2026-03-18 03:56:00,METAR KJAX 180356Z 34004KT 10SM BKN200 05/M01 A3026 RMK AO2 SLP246 T00501006 $
2026-03-18 02:56:00,METAR KJAX 180256Z 32003KT 10SM BKN200 07/M02 A3024 RMK AO2 SLP239 T00671017 51019 $
2026-03-18 01:56:00,METAR KJAX 180156Z 33005KT 10SM BKN200 06/00 A3023 RMK AO2 SLP236 T00610000 $
2026-03-18 00:56:00,METAR KJAX 180056Z 32003KT 10SM BKN200 08/M01 A3020 RMK AO2 SLP228 T00831011 $
2026-03-17 23:56:00,METAR KJAX 172356Z 31004KT 10SM BKN200 10/M03 A3018 RMK AO2 SLP220 T01001033 10144 20100 53019 $
2026-03-17 22:56:00,METAR KJAX 172256Z 31006KT 10SM BKN200 12/M05 A3014 RMK AO2 SLP208 T01171050 $
2026-03-17 21:56:00,METAR KJAX 172156Z 30007KT 10SM BKN250 14/M05 A3012 RMK AO2 SLP200 T01391050 $
2026-03-17 20:56:00,METAR KJAX 172056Z 29009KT 10SM BKN250 14/M05 A3012 RMK AO2 SLP201 T01391050 55012 $
2026-03-17 19:56:00,METAR KJAX 171956Z 30005G15KT 10SM BKN250 14/M05 A3012 RMK AO2 SLP199 T01391050 $
2026-03-17 18:56:00,METAR KJAX 171856Z 29008G16KT 10SM BKN250 13/M05 A3014 RMK AO2 SLP206 T01281050 $
2026-03-17 17:56:00,METAR KJAX 171756Z 34007KT 280V010 10SM BKN250 13/M06 A3016 RMK AO2 SLP213 T01331056 10133 20017 58022 $
2026-03-17 16:56:00,METAR KJAX 171656Z 33009KT 10SM SCT250 11/M06 A3021 RMK AO2 SLP229 T01111061 $
2026-03-17 15:56:00,METAR KJAX 171556Z 30009G16KT 250V310 10SM SCT250 10/M04 A3023 RMK AO2 SLP236 T01001039
2026-03-17 14:56:00,METAR KJAX 171456Z 31009G17KT 280V360 10SM FEW250 08/M04 A3022 RMK AO2 SLP235 T00831044 51016 $
2026-03-17 13:56:00,METAR KJAX 171356Z 34014G20KT 10SM SCT250 07/M04 A3022 RMK AO2 SLP232 T00671039 $
2026-03-17 12:56:00,METAR KJAX 171256Z 33008KT 10SM FEW250 04/M02 A3020 RMK AO2 SLP227 T00441022 $
2026-03-17 11:56:00,METAR KJAX 171156Z 28006KT 10SM FEW100 FEW250 02/M01 A3018 RMK AO2 SLP219 70064 T00171011 10056 20017 51026 $
2026-03-17 10:56:00,METAR KJAX 171056Z 27007KT 10SM FEW250 02/M01 A3016 RMK AO2 SLP214 T00171006 $
2026-03-17 09:56:00,METAR KJAX 170956Z 27003KT 10SM FEW250 03/M02 A3013 RMK AO2 SLP202 T00331022 $
2026-03-17 08:56:00,METAR KJAX 170856Z 29005KT 10SM SCT250 04/M02 A3010 RMK AO2 SLP192 T00391017 53011 $
2026-03-17 07:56:00,METAR KJAX 170756Z 30006KT 10SM SCT250 04/M01 A3008 RMK AO2 SLP185 T00441011 $
2026-03-17 06:56:00,METAR KJAX 170656Z 31007KT 10SM SCT250 05/M02 A3006 RMK AO2 SLP178 T00501017 $
2026-03-17 05:56:00,METAR KJAX 170556Z 31008KT 10SM BKN250 06/M02 A3007 RMK AO2 SLP181 T00561017 10150 20056 51023 $
2026-03-17 04:56:00,METAR KJAX 170456Z 32013G22KT 10SM BKN250 07/M02 A3005 RMK AO2 SLP176 T00671022 402670067 $
2026-03-17 03:56:00,METAR KJAX 170356Z 32012G19KT 10SM FEW030 BKN250 09/02 A3004 RMK AO2 SLP174 T00890017 $
2026-03-17 02:56:00,METAR KJAX 170256Z 32013G21KT 10SM SCT030 BKN200 11/02 A3000 RMK AO2 SLP158 T01060017 53050 $
2026-03-17 01:56:00,METAR KJAX 170156Z 32012G23KT 10SM FEW030 SCT080 BKN200 13/03 A2994 RMK AO2 SLP138 T01280033 $
2026-03-17 00:56:00,METAR KJAX 170056Z 29010KT 10SM FEW015 OVC050 14/09 A2987 RMK AO2 SLP116 T01440094 $
2026-03-16 23:56:00,METAR KJAX 162356Z 29009G18KT 10SM FEW015 BKN038 OVC100 15/09 A2985 RMK AO2 SLP107 60009 T01500089 10228 20150 51049 $
2026-03-16 22:56:00,METAR KJAX 162256Z 28013G20KT 10SM FEW016 BKN035 OVC100 16/09 A2981 RMK AO2 SLP094 T01610089 $
2026-03-16 22:38:00,SPECI KJAX 162238Z 29011G18KT 10SM FEW016 OVC032 17/10 A2979 RMK AO2 T01720100 $
2026-03-16 21:56:00,METAR KJAX 162156Z 29013G26KT 10SM FEW016 OVC025 18/13 A2976 RMK AO2 PK WND 28030/2134 PRESRR SLP077 T01830133 $
2026-03-16 21:17:00,SPECI KJAX 162117Z 25013KT 10SM BKN025 OVC050 21/17 A2970 RMK AO2 T02060167 $
2026-03-16 20:56:00,METAR KJAX 162056Z 23014KT 10SM SCT025 OVC050 20/17 A2970 RMK AO2 PK WND 22026/2028 RAE12 SLP058 P0000 60009 T02000167 58013 $
2026-03-16 19:56:00,METAR KJAX 161956Z 22011KT 10SM -RA FEW025 BKN050 OVC100 19/17 A2969 RMK AO2 PK WND 23026/1859 WSHFT 1843 LTG DSNT SE TSE34 SLP056 P0006 T01940167 $
2026-03-16 19:35:00,SPECI KJAX 161935Z 23011G19KT 10SM -RA FEW025 BKN050 OVC080 19/17 A2969 RMK AO2 PK WND 23026/1859 WSHFT 1843 LTG DSNT NE-S TSE34 P0006 T01890167 $
2026-03-16 19:10:00,SPECI KJAX 161910Z 25012G21KT 7SM -TSRA FEW005 SCT025CB OVC045 19/17 A2973 RMK AO2 PK WND 23026/1859 WSHFT 1843 OCNL LTGICCC OHD TS OHD MOV E P0006 T01890167
2026-03-16 19:03:00,SPECI KJAX 161903Z 25014G28KT 2SM TSRA FEW005 BKN025CB BKN060 OVC250 18/17 A2974 RMK AO2 PK WND 23026/1859 WSHFT 1843 OCNL LTGICCC OHD TS OHD MOV E P0003 T01830167
2026-03-16 18:56:00,METAR KJAX 161856Z 26019G40KT 2SM TSRA FEW005 BKN025CB BKN060 OVC250 19/17 A2976 RMK AO2 PK WND 25045/1843 WSHFT 1838 RAE23B44 TSE23B47 SLP079 OCNL LTGICCC OHD TS OHD MOV E P0003 T01890167
2026-03-16 18:52:00,SPECI KJAX 161852Z COR 27026G45KT 2SM TSRA FEW005 BKN025CB BKN060 OVC250 19/17 A2976 RMK AO2 PK WND 25045/1843 WSHFT 1838 RAE23B44 TSE23B47 OCNL LTGICCC VC N TS VC N MOV E P0002
2026-03-16 18:48:00,SPECI KJAX 161848Z 28025G45KT 4SM TSRA FEW005 BKN025CB BKN060 OVC250 21/18 A2975 RMK AO2 PK WND 25045/1843 RAE23B44 TSE23B47 OCNL LTGICCC VC N TS VC N MON E P0000 T02110178
2026-03-16 18:44:00,SPECI KJAX 161844Z 26025G45KT 10SM RA SQ FEW006 BKN020 BKN050 OVC250 22/19 A2976 RMK AO2 PK WND 25045/1843 RAE23B44 TSE23 PRESRR P0000 T02220189
2026-03-16 18:23:00,SPECI KJAX 161823Z 18007KT 10SM FEW006 BKN020 BKN050 OVC250 23/20 A2972 RMK AO2 RAE23 TSE23 P0000 T02280200
2026-03-16 17:56:00,METAR KJAX 161756Z 27006KT 10SM -TSRA BKN018 BKN040CB OVC090 22/19 A2974 RMK AO2 PK WND 23034/1732 RAB25 TSB12 SLP071 OCNL LTGICCCCG VC NE AND W TS VC NE AND W MOV NE P0055 60055 T02170194 10267 20200 58013
2026-03-16 17:40:00,SPECI KJAX 161740Z 27013G34KT 4SM TSRA BKN018 BKN035CB OVC090 22/18 A2975 RMK AO2 PK WND 23034/1732 RAB25 TSB12 FRQ LTGICCCCG OHD TS OHD MOV NE P0042 T02170183 $
2026-03-16 17:34:00,SPECI KJAX 161734Z 23016G34KT 1/4SM +TSRA FG BKN023CB BKN050 OVC090 22/20 A2976 RMK AO2 PK WND 23034/1732 RAB25 TSB12 FRQ LTGICCCCG OHD TS OHD MOV NE P0003 T02220200 $
2026-03-16 17:31:00,SPECI KJAX 161731Z 23021G29KT 1SM +TSRA BKN023CB BKN050 OVC090 24/21 A2978 RMK AO2 PK WND 22029/1730 RAB25 TSB12 PRESRR FRQ LTGICCCCG OHD TS OHD MOV NE P0000 T02390206 $
2026-03-16 17:28:00,SPECI KJAX 161728Z 21016G24KT 2SM +TSRA BKN023CB BKN050 OVC090 25/20 A2977 RMK AO2 RAB25 TSB12 PRESRR FRQ LTGICCCCG OHD TS OHD MOV NE P0000 T02500200 $
2026-03-16 17:12:00,SPECI KJAX 161712Z 20016G21KT 10SM TS BKN023CB BKN050 OVC250 26/20 A2974 RMK AO2 TSB12 OCNL LTGICCC VC W TS VC W MOV NE T02610200 $
2026-03-16 16:56:00,METAR KJAX 161656Z 19013KT 10SM BKN023 BKN050 OVC250 26/20 A2974 RMK AO2 PK WND 21026/1622 LTG DSNT SW SLP073 T02610200 $
2026-03-16 15:56:00,METAR KJAX 161556Z 20016G28KT 10SM BKN018 BKN100 OVC250 26/19 A2978 RMK AO2 PK WND 19028/1543 SLP084 T02560194 $
2026-03-16 15:50:00,SPECI KJAX 161550Z 21020G28KT 10SM BKN018 BKN100 OVC250 26/19 A2978 RMK AO2 PK WND 19028/1543 $
2026-03-16 14:56:00,METAR KJAX 161456Z 20016G25KT 170V230 10SM FEW006 BKN014 BKN100 BKN250 24/20 A2979 RMK AO2 SLP089 T02390200 55012 $
2026-03-16 14:17:00,SPECI KJAX 161417Z 19014KT 10SM FEW006 BKN012 OVC250 22/19 A2980 RMK AO2 T02220189
2026-03-16 13:56:00,METAR KJAX 161356Z 20009KT 10SM SCT010 BKN018 OVC250 22/19 A2979 RMK AO2 SLP088 T02170189 $
2026-03-16 12:56:00,METAR KJAX 161256Z 18008KT 10SM FEW012 BKN018 OVC100 20/18 A2981 RMK AO2 SLP095 T02000183
2026-03-16 12:15:00,SPECI KJAX 161215Z 23006KT 10SM BKN020 BKN095 OVC160 20/18 A2983 RMK AO2 LTG DSNT NW T02000178
2026-03-16 11:56:00,METAR KJAX 161156Z 21009KT 10SM FEW020 BKN095 BKN160 BKN250 20/18 A2983 RMK AO2 LTG DSNT W AND NW SLP101 70032 T02000178 10200 20189 53004
2026-03-16 10:56:00,METAR KJAX 161056Z 18010KT 10SM FEW040 BKN100 BKN180 20/18 A2982 RMK AO2 SLP099 T02000178 $
2026-03-16 09:56:00,METAR KJAX 160956Z 19007KT 10SM FEW040 BKN180 OVC250 19/17 A2982 RMK AO2 SLP097 FRQ LTGICCC DNST NW CB DSNT NW T01940172 $
2026-03-16 08:56:00,METAR KJAX 160856Z 18009KT 10SM SCT170 BKN250 19/18 A2982 RMK AO2 SLP097 T01940178 56019 $
2026-03-16 07:56:00,METAR KJAX 160756Z 20007KT 10SM SCT170 BKN250 19/18 A2983 RMK AO2 SLP102 T01940178 $
2026-03-16 06:56:00,METAR KJAX 160656Z 21006KT 10SM FEW100 BKN250 19/18 A2985 RMK AO2 SLP110 T01940178 $
2026-03-16 05:56:00,METAR KJAX 160556Z 19007KT 10SM FEW060 SCT100 19/18 A2987 RMK AO2 SLP116 60032 T01940178 10250 20194 58023 $
2026-03-16 04:56:00,METAR KJAX 160456Z 20008KT 10SM BKN060 BKN100 20/18 A2991 RMK AO2 RAE03 SLP128 P0000 T02000178 403110161 $
2026-03-16 03:56:00,METAR KJAX 160356Z 18012G19KT 10SM -RA FEW050 BKN090 21/18 A2993 RMK AO2 RAB29 SLP134 P0004 T02060183 $
2026-03-16 02:56:00,METAR KJAX 160256Z 18010KT 10SM FEW009 BKN035 BKN080 21/18 A2994 RMK AO2 PK WND 17032/0202 LTG DSNT NE AND SW RAE49 SLP139 P0012 60028 T02060183 50015 $
2026-03-16 02:49:00,SPECI KJAX 160249Z 17011KT 10SM FEW009 BKN035 BKN080 21/18 A2994 RMK AO2 PK WND 17032/0202 LTG DSNT N AND NE RAE49 P0012 T02060183 $
2026-03-16 01:56:00,METAR KJAX 160156Z 17021G35KT 3SM -RA BR SCT009 OVC016 21/19 A2996 RMK AO2 PK WND 17035/0155 LTG DSNT SE AND S RAB03 SLP146 P0016 T02060189 $
2026-03-16 01:50:00,SPECI KJAX 160150Z 17021G29KT 3SM -RA BR SCT009 OVC026 21/19 A2997 RMK AO2 PK WND 17031/0137 LTG DSNT SE AND S RAB03 P0016 $
2026-03-16 01:44:00,SPECI KJAX 160144Z 17015G31KT 2SM +RA BR SCT015 OVC033 21/19 A2996 RMK AO2 PK WND 17031/0137 LTG DSNT SE-SW RAB03 P0007 T02060189 $
2026-03-16 00:56:00,METAR KJAX 160056Z COR 15017G31KT 10SM SCT015 OVC050 22/19 A2993 RMK AO2 PK WND 16031/0054 SLP136 OCNL LTGICCA DSNT NE CB DSNT NE T02170189 $
2026-03-16 00:15:00,SPECI KJAX 160015Z 15014KT 10SM TS FEW030CB OVC050 24/20 A2990 RMK AO2 OCNL LTGIC VC SE TS VC SE MOV NE T02440200 $
2026-03-15 23:56:00,METAR KJAX 152356Z 13014KT 10SM FEW030 BKN050 25/20 A2989 RMK AO2 LTG DSNT ALQDS RAB15E25 SLP124 CB DSNT NE P0000 60000 T02500200 10311 20250 53008 $
2026-03-15 22:56:00,METAR KJAX 152256Z 13010KT 10SM FEW020 BKN050 BKN130 27/19 A2986 RMK AO2 LTG DSNT S SLP113 T02670189 $
2026-03-15 21:56:00,METAR KJAX 152156Z 19010KT 10SM FEW030 BKN050 BKN200 31/16 A2986 RMK AO2 SLP111 T03060156 $
2026-03-15 20:56:00,METAR KJAX 152056Z 18008G15KT 10SM BKN050 BKN080 31/16 A2987 RMK AO2 SLP116 T03110161 56028 $
2026-03-15 19:56:00,METAR KJAX 151956Z 16009KT 10SM BKN050 BKN090 30/17 A2990 RMK AO2 SLP124 T03000172 $
2026-03-15 18:56:00,METAR KJAX 151856Z 17009G19KT 10SM BKN049 BKN065 BKN100 29/17 A2992 RMK AO2 SLP132 T02940167 $
2026-03-15 17:56:00,METAR KJAX 151756Z 19009G15KT 10SM SCT043 BKN055 BKN100 29/17 A2996 RMK AO2 SLP144 T02890172 10294 20206 58022 $
2026-03-15 16:56:00,METAR KJAX 151656Z 16012KT 10SM FEW035 FEW070 SCT100 28/18 A2998 RMK AO2 SLP153 T02830178 $
2026-03-15 15:56:00,METAR KJAX 151556Z 19011KT 10SM FEW020 SCT065 BKN085 27/18 A3001 RMK AO2 SLP162 T02720183 $
2026-03-15 15:03:00,SPECI KJAX 151503Z 18008KT 10SM SCT013 BKN085 25/20 A3002 RMK AO2 T02500200 $
2026-03-15 14:56:00,METAR KJAX 151456Z 16010G16KT 10SM BKN013 BKN080 26/20 A3002 RMK AO2 SLP166 T02560200 51007 $
2026-03-15 14:19:00,SPECI KJAX 151419Z 17009KT 10SM BKN012 24/20 A3002 RMK AO2 T02390200 $
2026-03-15 13:56:00,METAR KJAX 151356Z 17007KT 10SM BKN008 BKN015 BKN060 23/21 A3002 RMK AO2 SLP166 T02330206 $
2026-03-15 13:48:00,SPECI KJAX 151348Z 18007KT 10SM BKN008 BKN018 BKN060 23/21 A3002 RMK AO2 CIG 006V011 T02330206 $
2026-03-15 13:43:00,SPECI KJAX 151343Z 18007KT 10SM SCT005 BKN020 BKN060 23/21 A3002 RMK AO2 T02280206 $
2026-03-15 13:32:00,SPECI KJAX 151332Z 15006KT 10SM SCT005 BKN060 22/21 A3002 RMK AO2 T02220206 $
2026-03-15 13:05:00,SPECI KJAX 151305Z 15005KT 3SM BR OVC003 21/20 A3001 RMK AO2 T02110200 $
2026-03-15 12:56:00,METAR KJAX 151256Z 14006KT 1 3/4SM BR OVC002 21/20 A3001 RMK AO2 SLP162 T02060200 $
2026-03-15 12:10:00,SPECI KJAX 151210Z 12006KT 1 1/2SM BR OVC003 21/19 A3000 RMK AO2 T02060194 $
2026-03-15 12:02:00,SPECI KJAX 151202Z 12006KT 2 1/2SM BR OVC004 21/19 A3000 RMK AO2 T02060194 $
2026-03-15 11:56:00,METAR KJAX 151156Z 13005KT 6SM BR OVC005 21/19 A3000 RMK AO2 CIG 003V008 SLP159 T02060194 10206 20161 50002 $
2026-03-15 10:56:00,METAR KJAX 151056Z 00000KT 9SM BKN006 OVC011 19/18 A3000 RMK AO2 SLP160 T01890178 $
2026-03-15 10:51:00,SPECI KJAX 151051Z 00000KT 8SM BKN006 OVC011 19/18 A3000 RMK AO2 $
2026-03-15 09:56:00,METAR KJAX 150956Z 07004KT 10SM BKN015 BKN034 18/18 A2999 RMK AO2 SLP157 T01830178 $
2026-03-15 08:56:00,METAR KJAX 150856Z 05003KT 10SM BKN017 BKN038 18/17 A2999 RMK AO2 SLP157 T01780167 56023 $
2026-03-15 08:44:00,SPECI KJAX 150844Z 05004KT 10SM BKN017 BKN038 17/16 A3000 RMK AO2 T01720161 $
